{"0030000":{"post_code":"0030000","prefecture":"HOKKAIDO","city":"SAPPORO SHI SHIROISHI KU","town":"IKANIKEISAIGANAIBAAI","perfecture_jp":"北海道","jp_add_1":"札幌市白石区","jp_add_2":""},"0030851":{"post_code":"0030851","prefecture":"HOKKAIDO","city":"SAPPORO SHI SHIROISHI KU","town":"KAWAKITA 1-JO","perfecture_jp":"北海道","jp_add_1":"札幌市白石区","jp_add_2":"川北一条"},"0030852":{"post_code":"0030852","prefecture":"HOKKAIDO","city":"SAPPORO SHI SHIROISHI KU","town":"KAWAKITA 2-JO","perfecture_jp":"北海道","jp_add_1":"札幌市白石区","jp_add_2":"川北二条"},"0030853":{"post_code":"0030853","prefecture":"HOKKAIDO","city":"SAPPORO SHI SHIROISHI KU","town":"KAWAKITA 3-JO","perfecture_jp":"北海道","jp_add_1":"札幌市白石区","jp_add_2":"川北三条"},"0030854":{"post_code":"0030854","prefecture":"HOKKAIDO","city":"SAPPORO SHI SHIROISHI KU","town":"KAWAKITA 4-JO","perfecture_jp":"北海道","jp_add_1":"札幌市白石区","jp_add_2":"川北四条"},"0030855":{"post_code":"0030855","prefecture":"HOKKAIDO","city":"SAPPORO SHI SHIROISHI KU","town":"KAWAKITA 5-JO","perfecture_jp":"北海道","jp_add_1":"札幌市白石区","jp_add_2":"川北五条"},"0030869":{"post_code":"0030869","prefecture":"HOKKAIDO","city":"SAPPORO SHI SHIROISHI KU","town":"KAWASHIMO","perfecture_jp":"北海道","jp_add_1":"札幌市白石区","jp_add_2":"川下"},"0030861":{"post_code":"0030861","prefecture":"HOKKAIDO","city":"SAPPORO SHI SHIROISHI KU","town":"KAWASHIMO 1-JO","perfecture_jp":"北海道","jp_add_1":"札幌市白石区","jp_add_2":"川下一条"},"0030862":{"post_code":"0030862","prefecture":"HOKKAIDO","city":"SAPPORO SHI SHIROISHI KU","town":"KAWASHIMO 2-JO","perfecture_jp":"北海道","jp_add_1":"札幌市白石区","jp_add_2":"川下二条"},"0030863":{"post_code":"0030863","prefecture":"HOKKAIDO","city":"SAPPORO SHI SHIROISHI KU","town":"KAWASHIMO 3-JO","perfecture_jp":"北海道","jp_add_1":"札幌市白石区","jp_add_2":"川下三条"},"0030864":{"post_code":"0030864","prefecture":"HOKKAIDO","city":"SAPPORO SHI SHIROISHI KU","town":"KAWASHIMO 4-JO","perfecture_jp":"北海道","jp_add_1":"札幌市白石区","jp_add_2":"川下四条"},"0030865":{"post_code":"0030865","prefecture":"HOKKAIDO","city":"SAPPORO SHI SHIROISHI KU","town":"KAWASHIMO 5-JO","perfecture_jp":"北海道","jp_add_1":"札幌市白石区","jp_add_2":"川下五条"},"0030859":{"post_code":"0030859","prefecture":"HOKKAIDO","city":"SAPPORO SHI SHIROISHI KU","town":"KAWAKITA","perfecture_jp":"北海道","jp_add_1":"札幌市白石区","jp_add_2":"川北"},"0030801":{"post_code":"0030801","prefecture":"HOKKAIDO","city":"SAPPORO SHI SHIROISHI KU","town":"KIKUSUI 1-JO","perfecture_jp":"北海道","jp_add_1":"札幌市白石区","jp_add_2":"菊水一条"},"0030802":{"post_code":"0030802","prefecture":"HOKKAIDO","city":"SAPPORO SHI SHIROISHI KU","town":"KIKUSUI 2-JO","perfecture_jp":"北海道","jp_add_1":"札幌市白石区","jp_add_2":"菊水二条"},"0030803":{"post_code":"0030803","prefecture":"HOKKAIDO","city":"SAPPORO SHI SHIROISHI KU","town":"KIKUSUI 3-JO","perfecture_jp":"北海道","jp_add_1":"札幌市白石区","jp_add_2":"菊水三条"},"0030804":{"post_code":"0030804","prefecture":"HOKKAIDO","city":"SAPPORO SHI SHIROISHI KU","town":"KIKUSUI 4-JO","perfecture_jp":"北海道","jp_add_1":"札幌市白石区","jp_add_2":"菊水四条"},"0030805":{"post_code":"0030805","prefecture":"HOKKAIDO","city":"SAPPORO SHI SHIROISHI KU","town":"KIKUSUI 5-JO","perfecture_jp":"北海道","jp_add_1":"札幌市白石区","jp_add_2":"菊水五条"},"0030806":{"post_code":"0030806","prefecture":"HOKKAIDO","city":"SAPPORO SHI SHIROISHI KU","town":"KIKUSUI 6-JO","perfecture_jp":"北海道","jp_add_1":"札幌市白石区","jp_add_2":"菊水六条"},"0030807":{"post_code":"0030807","prefecture":"HOKKAIDO","city":"SAPPORO SHI SHIROISHI KU","town":"KIKUSUI 7-JO","perfecture_jp":"北海道","jp_add_1":"札幌市白石区","jp_add_2":"菊水七条"},"0030808":{"post_code":"0030808","prefecture":"HOKKAIDO","city":"SAPPORO SHI SHIROISHI KU","town":"KIKUSUI 8-JO","perfecture_jp":"北海道","jp_add_1":"札幌市白石区","jp_add_2":"菊水八条"},"0030809":{"post_code":"0030809","prefecture":"HOKKAIDO","city":"SAPPORO SHI SHIROISHI KU","town":"KIKUSUI 9-JO","perfecture_jp":"北海道","jp_add_1":"札幌市白石区","jp_add_2":"菊水九条"},"0030811":{"post_code":"0030811","prefecture":"HOKKAIDO","city":"SAPPORO SHI SHIROISHI KU","town":"KIKUSUIKAMIMACHI 1-JO","perfecture_jp":"北海道","jp_add_1":"札幌市白石区","jp_add_2":"菊水上町一条"},"0030812":{"post_code":"0030812","prefecture":"HOKKAIDO","city":"SAPPORO SHI SHIROISHI KU","town":"KIKUSUIKAMIMACHI 2-JO","perfecture_jp":"北海道","jp_add_1":"札幌市白石区","jp_add_2":"菊水上町二条"},"0030813":{"post_code":"0030813","prefecture":"HOKKAIDO","city":"SAPPORO SHI SHIROISHI KU","town":"KIKUSUIKAMIMACHI 3-JO","perfecture_jp":"北海道","jp_add_1":"札幌市白石区","jp_add_2":"菊水上町三条"},"0030814":{"post_code":"0030814","prefecture":"HOKKAIDO","city":"SAPPORO SHI SHIROISHI KU","town":"KIKUSUIKAMIMACHI 4-JO","perfecture_jp":"北海道","jp_add_1":"札幌市白石区","jp_add_2":"菊水上町四条"},"0030821":{"post_code":"0030821","prefecture":"HOKKAIDO","city":"SAPPORO SHI SHIROISHI KU","town":"KIKUSUIMOTOMACHI 1-JO","perfecture_jp":"北海道","jp_add_1":"札幌市白石区","jp_add_2":"菊水元町一条"},"0030822":{"post_code":"0030822","prefecture":"HOKKAIDO","city":"SAPPORO SHI SHIROISHI KU","town":"KIKUSUIMOTOMACHI 2-JO","perfecture_jp":"北海道","jp_add_1":"札幌市白石区","jp_add_2":"菊水元町二条"},"0030823":{"post_code":"0030823","prefecture":"HOKKAIDO","city":"SAPPORO SHI SHIROISHI KU","town":"KIKUSUIMOTOMACHI 3-JO","perfecture_jp":"北海道","jp_add_1":"札幌市白石区","jp_add_2":"菊水元町三条"},"0030824":{"post_code":"0030824","prefecture":"HOKKAIDO","city":"SAPPORO SHI SHIROISHI KU","town":"KIKUSUIMOTOMACHI 4-JO","perfecture_jp":"北海道","jp_add_1":"札幌市白石区","jp_add_2":"菊水元町四条"},"0030825":{"post_code":"0030825","prefecture":"HOKKAIDO","city":"SAPPORO SHI SHIROISHI KU","town":"KIKUSUIMOTOMACHI 5-JO","perfecture_jp":"北海道","jp_add_1":"札幌市白石区","jp_add_2":"菊水元町五条"},"0030826":{"post_code":"0030826","prefecture":"HOKKAIDO","city":"SAPPORO SHI SHIROISHI KU","town":"KIKUSUIMOTOMACHI 6-JO","perfecture_jp":"北海道","jp_add_1":"札幌市白石区","jp_add_2":"菊水元町六条"},"0030827":{"post_code":"0030827","prefecture":"HOKKAIDO","city":"SAPPORO SHI SHIROISHI KU","town":"KIKUSUIMOTOMACHI 7-JO","perfecture_jp":"北海道","jp_add_1":"札幌市白石区","jp_add_2":"菊水元町七条"},"0030828":{"post_code":"0030828","prefecture":"HOKKAIDO","city":"SAPPORO SHI SHIROISHI KU","town":"KIKUSUIMOTOMACHI 8-JO","perfecture_jp":"北海道","jp_add_1":"札幌市白石区","jp_add_2":"菊水元町八条"},"0030829":{"post_code":"0030829","prefecture":"HOKKAIDO","city":"SAPPORO SHI SHIROISHI KU","town":"KIKUSUIMOTOMACHI 9-JO","perfecture_jp":"北海道","jp_add_1":"札幌市白石区","jp_add_2":"菊水元町九条"},"0030830":{"post_code":"0030830","prefecture":"HOKKAIDO","city":"SAPPORO SHI SHIROISHI KU","town":"KIKUSUIMOTOMACHI 10-JO","perfecture_jp":"北海道","jp_add_1":"札幌市白石区","jp_add_2":"菊水元町十条"},"0030849":{"post_code":"0030849","prefecture":"HOKKAIDO","city":"SAPPORO SHI SHIROISHI KU","town":"KITAGO","perfecture_jp":"北海道","jp_add_1":"札幌市白石区","jp_add_2":"北郷"},"0030831":{"post_code":"0030831","prefecture":"HOKKAIDO","city":"SAPPORO SHI SHIROISHI KU","town":"KITAGO 1-JO","perfecture_jp":"北海道","jp_add_1":"札幌市白石区","jp_add_2":"北郷一条"},"0030832":{"post_code":"0030832","prefecture":"HOKKAIDO","city":"SAPPORO SHI SHIROISHI KU","town":"KITAGO 2-JO","perfecture_jp":"北海道","jp_add_1":"札幌市白石区","jp_add_2":"北郷二条"},"0030833":{"post_code":"0030833","prefecture":"HOKKAIDO","city":"SAPPORO SHI SHIROISHI KU","town":"KITAGO 3-JO","perfecture_jp":"北海道","jp_add_1":"札幌市白石区","jp_add_2":"北郷三条"},"0030834":{"post_code":"0030834","prefecture":"HOKKAIDO","city":"SAPPORO SHI SHIROISHI KU","town":"KITAGO 4-JO","perfecture_jp":"北海道","jp_add_1":"札幌市白石区","jp_add_2":"北郷四条"},"0030835":{"post_code":"0030835","prefecture":"HOKKAIDO","city":"SAPPORO SHI SHIROISHI KU","town":"KITAGO 5-JO","perfecture_jp":"北海道","jp_add_1":"札幌市白石区","jp_add_2":"北郷五条"},"0030836":{"post_code":"0030836","prefecture":"HOKKAIDO","city":"SAPPORO SHI SHIROISHI KU","town":"KITAGO 6-JO","perfecture_jp":"北海道","jp_add_1":"札幌市白石区","jp_add_2":"北郷六条"},"0030837":{"post_code":"0030837","prefecture":"HOKKAIDO","city":"SAPPORO SHI SHIROISHI KU","town":"KITAGO 7-JO","perfecture_jp":"北海道","jp_add_1":"札幌市白石区","jp_add_2":"北郷七条"},"0030838":{"post_code":"0030838","prefecture":"HOKKAIDO","city":"SAPPORO SHI SHIROISHI KU","town":"KITAGO 8-JO","perfecture_jp":"北海道","jp_add_1":"札幌市白石区","jp_add_2":"北郷八条"},"0030839":{"post_code":"0030839","prefecture":"HOKKAIDO","city":"SAPPORO SHI SHIROISHI KU","town":"KITAGO 9-JO","perfecture_jp":"北海道","jp_add_1":"札幌市白石区","jp_add_2":"北郷九条"},"0030840":{"post_code":"0030840","prefecture":"HOKKAIDO","city":"SAPPORO SHI SHIROISHI KU","town":"KITAGO10-JO","perfecture_jp":"北海道","jp_add_1":"札幌市白石区","jp_add_2":"北郷十条"},"0030021":{"post_code":"0030021","prefecture":"HOKKAIDO","city":"SAPPORO SHI SHIROISHI KU","town":"SAKAEDORI","perfecture_jp":"北海道","jp_add_1":"札幌市白石区","jp_add_2":"栄通"},"0030011":{"post_code":"0030011","prefecture":"HOKKAIDO","city":"SAPPORO SHI SHIROISHI KU","town":"CHUO 1-JO","perfecture_jp":"北海道","jp_add_1":"札幌市白石区","jp_add_2":"中央一条"},"0030012":{"post_code":"0030012","prefecture":"HOKKAIDO","city":"SAPPORO SHI SHIROISHI KU","town":"CHUO 2-JO","perfecture_jp":"北海道","jp_add_1":"札幌市白石区","jp_add_2":"中央二条"},"0030013":{"post_code":"0030013","prefecture":"HOKKAIDO","city":"SAPPORO SHI SHIROISHI KU","town":"CHUO 3-JO","perfecture_jp":"北海道","jp_add_1":"札幌市白石区","jp_add_2":"中央三条"},"0030022":{"post_code":"0030022","prefecture":"HOKKAIDO","city":"SAPPORO SHI SHIROISHI KU","town":"NANGODORI(MINAMI)","perfecture_jp":"北海道","jp_add_1":"札幌市白石区","jp_add_2":"南郷通"},"0030023":{"post_code":"0030023","prefecture":"HOKKAIDO","city":"SAPPORO SHI SHIROISHI KU","town":"NANGODORI(KITA)","perfecture_jp":"北海道","jp_add_1":"札幌市白石区","jp_add_2":"南郷通"},"0030001":{"post_code":"0030001","prefecture":"HOKKAIDO","city":"SAPPORO SHI SHIROISHI KU","town":"HIGASHISAPPORO 1-JO","perfecture_jp":"北海道","jp_add_1":"札幌市白石区","jp_add_2":"東札幌一条"},"0030002":{"post_code":"0030002","prefecture":"HOKKAIDO","city":"SAPPORO SHI SHIROISHI KU","town":"HIGASHISAPPORO 2-JO","perfecture_jp":"北海道","jp_add_1":"札幌市白石区","jp_add_2":"東札幌二条"},"0030003":{"post_code":"0030003","prefecture":"HOKKAIDO","city":"SAPPORO SHI SHIROISHI KU","town":"HIGASHISAPPORO 3-JO","perfecture_jp":"北海道","jp_add_1":"札幌市白石区","jp_add_2":"東札幌三条"},"0030004":{"post_code":"0030004","prefecture":"HOKKAIDO","city":"SAPPORO SHI SHIROISHI KU","town":"HIGASHISAPPORO 4-JO","perfecture_jp":"北海道","jp_add_1":"札幌市白石区","jp_add_2":"東札幌四条"},"0030005":{"post_code":"0030005","prefecture":"HOKKAIDO","city":"SAPPORO SHI SHIROISHI KU","town":"HIGASHISAPPORO 5-JO","perfecture_jp":"北海道","jp_add_1":"札幌市白石区","jp_add_2":"東札幌五条"},"0030006":{"post_code":"0030006","prefecture":"HOKKAIDO","city":"SAPPORO SHI SHIROISHI KU","town":"HIGASHISAPPORO 6-JO","perfecture_jp":"北海道","jp_add_1":"札幌市白石区","jp_add_2":"東札幌六条"},"0030876":{"post_code":"0030876","prefecture":"HOKKAIDO","city":"SAPPORO SHI SHIROISHI KU","town":"HIGASHIYONESATO","perfecture_jp":"北海道","jp_add_1":"札幌市白石区","jp_add_2":"東米里"},"0030028":{"post_code":"0030028","prefecture":"HOKKAIDO","city":"SAPPORO SHI SHIROISHI KU","town":"HEIWADORI(MINAMI)","perfecture_jp":"北海道","jp_add_1":"札幌市白石区","jp_add_2":"平和通"},"0030029":{"post_code":"0030029","prefecture":"HOKKAIDO","city":"SAPPORO SHI SHIROISHI KU","town":"HEIWADORI(KITA)","perfecture_jp":"北海道","jp_add_1":"札幌市白石区","jp_add_2":"平和通"},"0030024":{"post_code":"0030024","prefecture":"HOKKAIDO","city":"SAPPORO SHI SHIROISHI KU","town":"HONGODORI(MINAMI)","perfecture_jp":"北海道","jp_add_1":"札幌市白石区","jp_add_2":"本郷通"},"0030025":{"post_code":"0030025","prefecture":"HOKKAIDO","city":"SAPPORO SHI SHIROISHI KU","town":"HONGODORI(KITA)","perfecture_jp":"北海道","jp_add_1":"札幌市白石区","jp_add_2":"本郷通"},"0030026":{"post_code":"0030026","prefecture":"HOKKAIDO","city":"SAPPORO SHI SHIROISHI KU","town":"HONDORI(MINAMI)","perfecture_jp":"北海道","jp_add_1":"札幌市白石区","jp_add_2":"本通"},"0030027":{"post_code":"0030027","prefecture":"HOKKAIDO","city":"SAPPORO SHI SHIROISHI KU","town":"HONDORI(KITA)","perfecture_jp":"北海道","jp_add_1":"札幌市白石区","jp_add_2":"本通"},"0030871":{"post_code":"0030871","prefecture":"HOKKAIDO","city":"SAPPORO SHI SHIROISHI KU","town":"YONESATO 1-JO","perfecture_jp":"北海道","jp_add_1":"札幌市白石区","jp_add_2":"米里一条"},"0030872":{"post_code":"0030872","prefecture":"HOKKAIDO","city":"SAPPORO SHI SHIROISHI KU","town":"YONESATO 2-JO","perfecture_jp":"北海道","jp_add_1":"札幌市白石区","jp_add_2":"米里二条"},"0030873":{"post_code":"0030873","prefecture":"HOKKAIDO","city":"SAPPORO SHI SHIROISHI KU","town":"YONESATO 3-JO","perfecture_jp":"北海道","jp_add_1":"札幌市白石区","jp_add_2":"米里三条"},"0030874":{"post_code":"0030874","prefecture":"HOKKAIDO","city":"SAPPORO SHI SHIROISHI KU","town":"YONESATO 4-JO","perfecture_jp":"北海道","jp_add_1":"札幌市白石区","jp_add_2":"米里四条"},"0030875":{"post_code":"0030875","prefecture":"HOKKAIDO","city":"SAPPORO SHI SHIROISHI KU","town":"YONESATO 5-JO","perfecture_jp":"北海道","jp_add_1":"札幌市白石区","jp_add_2":"米里五条"},"0030030":{"post_code":"0030030","prefecture":"HOKKAIDO","city":"SAPPORO SHI SHIROISHI KU","town":"RYUTSUSENTA","perfecture_jp":"北海道","jp_add_1":"札幌市白石区","jp_add_2":"流通センター"}}