{"0050000":{"post_code":"0050000","prefecture":"HOKKAIDO","city":"SAPPORO SHI MINAMI KU","town":"IKANIKEISAIGANAIBAAI","perfecture_jp":"北海道","jp_add_1":"札幌市南区","jp_add_2":""},"0050849":{"post_code":"0050849","prefecture":"HOKKAIDO","city":"SAPPORO SHI MINAMI KU","town":"ISHIYAMA","perfecture_jp":"北海道","jp_add_1":"札幌市南区","jp_add_2":"石山"},"0050850":{"post_code":"0050850","prefecture":"HOKKAIDO","city":"SAPPORO SHI MINAMI KU","town":"ISHIYAMA HIGASHI","perfecture_jp":"北海道","jp_add_1":"札幌市南区","jp_add_2":"石山東"},"0050841":{"post_code":"0050841","prefecture":"HOKKAIDO","city":"SAPPORO SHI MINAMI KU","town":"ISHIYAMA 1-JO","perfecture_jp":"北海道","jp_add_1":"札幌市南区","jp_add_2":"石山一条"},"0050842":{"post_code":"0050842","prefecture":"HOKKAIDO","city":"SAPPORO SHI MINAMI KU","town":"ISHIYAMA 2-JO","perfecture_jp":"北海道","jp_add_1":"札幌市南区","jp_add_2":"石山二条"},"0050843":{"post_code":"0050843","prefecture":"HOKKAIDO","city":"SAPPORO SHI MINAMI KU","town":"ISHIYAMA 3-JO","perfecture_jp":"北海道","jp_add_1":"札幌市南区","jp_add_2":"石山三条"},"0050844":{"post_code":"0050844","prefecture":"HOKKAIDO","city":"SAPPORO SHI MINAMI KU","town":"ISHIYAMA 4-JO","perfecture_jp":"北海道","jp_add_1":"札幌市南区","jp_add_2":"石山四条"},"0050801":{"post_code":"0050801","prefecture":"HOKKAIDO","city":"SAPPORO SHI MINAMI KU","town":"KAWAZOE 1-JO","perfecture_jp":"北海道","jp_add_1":"札幌市南区","jp_add_2":"川沿一条"},"0050802":{"post_code":"0050802","prefecture":"HOKKAIDO","city":"SAPPORO SHI MINAMI KU","town":"KAWAZOE 2-JO","perfecture_jp":"北海道","jp_add_1":"札幌市南区","jp_add_2":"川沿二条"},"0050803":{"post_code":"0050803","prefecture":"HOKKAIDO","city":"SAPPORO SHI MINAMI KU","town":"KAWAZOE 3-JO","perfecture_jp":"北海道","jp_add_1":"札幌市南区","jp_add_2":"川沿三条"},"0050804":{"post_code":"0050804","prefecture":"HOKKAIDO","city":"SAPPORO SHI MINAMI KU","town":"KAWAZOE 4-JO","perfecture_jp":"北海道","jp_add_1":"札幌市南区","jp_add_2":"川沿四条"},"0050805":{"post_code":"0050805","prefecture":"HOKKAIDO","city":"SAPPORO SHI MINAMI KU","town":"KAWAZOE 5-JO","perfecture_jp":"北海道","jp_add_1":"札幌市南区","jp_add_2":"川沿五条"},"0050806":{"post_code":"0050806","prefecture":"HOKKAIDO","city":"SAPPORO SHI MINAMI KU","town":"KAWAZOE 6-JO","perfecture_jp":"北海道","jp_add_1":"札幌市南区","jp_add_2":"川沿六条"},"0050807":{"post_code":"0050807","prefecture":"HOKKAIDO","city":"SAPPORO SHI MINAMI KU","town":"KAWAZOE 7-JO","perfecture_jp":"北海道","jp_add_1":"札幌市南区","jp_add_2":"川沿七条"},"0050808":{"post_code":"0050808","prefecture":"HOKKAIDO","city":"SAPPORO SHI MINAMI KU","town":"KAWAZOE 8-JO","perfecture_jp":"北海道","jp_add_1":"札幌市南区","jp_add_2":"川沿八条"},"0050809":{"post_code":"0050809","prefecture":"HOKKAIDO","city":"SAPPORO SHI MINAMI KU","town":"KAWAZOE 9-JO","perfecture_jp":"北海道","jp_add_1":"札幌市南区","jp_add_2":"川沿九条"},"0050810":{"post_code":"0050810","prefecture":"HOKKAIDO","city":"SAPPORO SHI MINAMI KU","town":"KAWAZOE 10-JO","perfecture_jp":"北海道","jp_add_1":"札幌市南区","jp_add_2":"川沿十条"},"0050811":{"post_code":"0050811","prefecture":"HOKKAIDO","city":"SAPPORO SHI MINAMI KU","town":"KAWAZOE 11-JO","perfecture_jp":"北海道","jp_add_1":"札幌市南区","jp_add_2":"川沿十一条"},"0050812":{"post_code":"0050812","prefecture":"HOKKAIDO","city":"SAPPORO SHI MINAMI KU","town":"KAWAZOE 12-JO","perfecture_jp":"北海道","jp_add_1":"札幌市南区","jp_add_2":"川沿十二条"},"0050813":{"post_code":"0050813","prefecture":"HOKKAIDO","city":"SAPPORO SHI MINAMI KU","town":"KAWAZOE 13-JO","perfecture_jp":"北海道","jp_add_1":"札幌市南区","jp_add_2":"川沿十三条"},"0050814":{"post_code":"0050814","prefecture":"HOKKAIDO","city":"SAPPORO SHI MINAMI KU","town":"KAWAZOE 14-JO","perfecture_jp":"北海道","jp_add_1":"札幌市南区","jp_add_2":"川沿十四条"},"0050815":{"post_code":"0050815","prefecture":"HOKKAIDO","city":"SAPPORO SHI MINAMI KU","town":"KAWAZOE 15-JO","perfecture_jp":"北海道","jp_add_1":"札幌市南区","jp_add_2":"川沿十五条"},"0050816":{"post_code":"0050816","prefecture":"HOKKAIDO","city":"SAPPORO SHI MINAMI KU","town":"KAWAZOE 16-JO","perfecture_jp":"北海道","jp_add_1":"札幌市南区","jp_add_2":"川沿十六条"},"0050817":{"post_code":"0050817","prefecture":"HOKKAIDO","city":"SAPPORO SHI MINAMI KU","town":"KAWAZOE 17-JO","perfecture_jp":"北海道","jp_add_1":"札幌市南区","jp_add_2":"川沿十七条"},"0050818":{"post_code":"0050818","prefecture":"HOKKAIDO","city":"SAPPORO SHI MINAMI KU","town":"KAWAZOE 18-JO","perfecture_jp":"北海道","jp_add_1":"札幌市南区","jp_add_2":"川沿十八条"},"0050832":{"post_code":"0050832","prefecture":"HOKKAIDO","city":"SAPPORO SHI MINAMI KU","town":"KITANOSAWA","perfecture_jp":"北海道","jp_add_1":"札幌市南区","jp_add_2":"北ノ沢"},"0050864":{"post_code":"0050864","prefecture":"HOKKAIDO","city":"SAPPORO SHI MINAMI KU","town":"GEIJUTSUNOMORI","perfecture_jp":"北海道","jp_add_1":"札幌市南区","jp_add_2":"芸術の森"},"0050007":{"post_code":"0050007","prefecture":"HOKKAIDO","city":"SAPPORO SHI MINAMI KU","town":"SUMIKAWA","perfecture_jp":"北海道","jp_add_1":"札幌市南区","jp_add_2":"澄川"},"0050001":{"post_code":"0050001","prefecture":"HOKKAIDO","city":"SAPPORO SHI MINAMI KU","town":"SUMIKAWA 1-JO","perfecture_jp":"北海道","jp_add_1":"札幌市南区","jp_add_2":"澄川一条"},"0050002":{"post_code":"0050002","prefecture":"HOKKAIDO","city":"SAPPORO SHI MINAMI KU","town":"SUMIKAWA 2-JO","perfecture_jp":"北海道","jp_add_1":"札幌市南区","jp_add_2":"澄川二条"},"0050003":{"post_code":"0050003","prefecture":"HOKKAIDO","city":"SAPPORO SHI MINAMI KU","town":"SUMIKAWA 3-JO","perfecture_jp":"北海道","jp_add_1":"札幌市南区","jp_add_2":"澄川三条"},"0050004":{"post_code":"0050004","prefecture":"HOKKAIDO","city":"SAPPORO SHI MINAMI KU","town":"SUMIKAWA 4-JO","perfecture_jp":"北海道","jp_add_1":"札幌市南区","jp_add_2":"澄川四条"},"0050005":{"post_code":"0050005","prefecture":"HOKKAIDO","city":"SAPPORO SHI MINAMI KU","town":"SUMIKAWA 5-JO","perfecture_jp":"北海道","jp_add_1":"札幌市南区","jp_add_2":"澄川五条"},"0050006":{"post_code":"0050006","prefecture":"HOKKAIDO","city":"SAPPORO SHI MINAMI KU","town":"SUMIKAWA 6-JO","perfecture_jp":"北海道","jp_add_1":"札幌市南区","jp_add_2":"澄川六条"},"0050862":{"post_code":"0050862","prefecture":"HOKKAIDO","city":"SAPPORO SHI MINAMI KU","town":"TAKINO","perfecture_jp":"北海道","jp_add_1":"札幌市南区","jp_add_2":"滝野"},"0050830":{"post_code":"0050830","prefecture":"HOKKAIDO","city":"SAPPORO SHI MINAMI KU","town":"TOISHIYAMA","perfecture_jp":"北海道","jp_add_1":"札幌市南区","jp_add_2":"砥石山"},"0050865":{"post_code":"0050865","prefecture":"HOKKAIDO","city":"SAPPORO SHI MINAMI KU","town":"TOKIWA(1-131-BANCHI)","perfecture_jp":"北海道","jp_add_1":"札幌市南区","jp_add_2":"常盤"},"0050863":{"post_code":"0050863","prefecture":"HOKKAIDO","city":"SAPPORO SHI MINAMI KU","town":"TOKIWA(SONOTA)","perfecture_jp":"北海道","jp_add_1":"札幌市南区","jp_add_2":"常盤"},"0050851":{"post_code":"0050851","prefecture":"HOKKAIDO","city":"SAPPORO SHI MINAMI KU","town":"TOKIWA1-JO","perfecture_jp":"北海道","jp_add_1":"札幌市南区","jp_add_2":"常盤一条"},"0050852":{"post_code":"0050852","prefecture":"HOKKAIDO","city":"SAPPORO SHI MINAMI KU","town":"TOKIWA2-JO","perfecture_jp":"北海道","jp_add_1":"札幌市南区","jp_add_2":"常盤二条"},"0050853":{"post_code":"0050853","prefecture":"HOKKAIDO","city":"SAPPORO SHI MINAMI KU","town":"TOKIWA3-JO","perfecture_jp":"北海道","jp_add_1":"札幌市南区","jp_add_2":"常盤三条"},"0050854":{"post_code":"0050854","prefecture":"HOKKAIDO","city":"SAPPORO SHI MINAMI KU","town":"TOKIWA4-JO","perfecture_jp":"北海道","jp_add_1":"札幌市南区","jp_add_2":"常盤四条"},"0050855":{"post_code":"0050855","prefecture":"HOKKAIDO","city":"SAPPORO SHI MINAMI KU","town":"TOKIWA5-JO","perfecture_jp":"北海道","jp_add_1":"札幌市南区","jp_add_2":"常盤五条"},"0050856":{"post_code":"0050856","prefecture":"HOKKAIDO","city":"SAPPORO SHI MINAMI KU","town":"TOKIWA6-JO","perfecture_jp":"北海道","jp_add_1":"札幌市南区","jp_add_2":"常盤六条"},"0050831":{"post_code":"0050831","prefecture":"HOKKAIDO","city":"SAPPORO SHI MINAMI KU","town":"NAKANOSAWA","perfecture_jp":"北海道","jp_add_1":"札幌市南区","jp_add_2":"中ノ沢"},"0050840":{"post_code":"0050840","prefecture":"HOKKAIDO","city":"SAPPORO SHI MINAMI KU","town":"FUJINO(400.400-2-BANCHI)","perfecture_jp":"北海道","jp_add_1":"札幌市南区","jp_add_2":"藤野"},"0050008":{"post_code":"0050008","prefecture":"HOKKAIDO","city":"SAPPORO SHI MINAMI KU","town":"MAKOMANAI(17-BANCHI)","perfecture_jp":"北海道","jp_add_1":"札幌市南区","jp_add_2":"真駒内"},"0050861":{"post_code":"0050861","prefecture":"HOKKAIDO","city":"SAPPORO SHI MINAMI KU","town":"MAKOMANAI(SONOTA)","perfecture_jp":"北海道","jp_add_1":"札幌市南区","jp_add_2":"真駒内"},"0050018":{"post_code":"0050018","prefecture":"HOKKAIDO","city":"SAPPORO SHI MINAMI KU","town":"MAKOMANAI AKEBONOCHO","perfecture_jp":"北海道","jp_add_1":"札幌市南区","jp_add_2":"真駒内曙町"},"0050015":{"post_code":"0050015","prefecture":"HOKKAIDO","city":"SAPPORO SHI MINAMI KU","town":"MAKOMANAI IZUMIMACHI","perfecture_jp":"北海道","jp_add_1":"札幌市南区","jp_add_2":"真駒内泉町"},"0050022":{"post_code":"0050022","prefecture":"HOKKAIDO","city":"SAPPORO SHI MINAMI KU","town":"MAKOMANAI KASHIWAOKA","perfecture_jp":"北海道","jp_add_1":"札幌市南区","jp_add_2":"真駒内柏丘"},"0050012":{"post_code":"0050012","prefecture":"HOKKAIDO","city":"SAPPORO SHI MINAMI KU","town":"MAKOMANAI KAMIMACHI","perfecture_jp":"北海道","jp_add_1":"札幌市南区","jp_add_2":"真駒内上町"},"0050014":{"post_code":"0050014","prefecture":"HOKKAIDO","city":"SAPPORO SHI MINAMI KU","town":"MAKOMANAI SAIWAIMACHI","perfecture_jp":"北海道","jp_add_1":"札幌市南区","jp_add_2":"真駒内幸町"},"0050011":{"post_code":"0050011","prefecture":"HOKKAIDO","city":"SAPPORO SHI MINAMI KU","town":"MAKOMANAI HIGASHIMACHI","perfecture_jp":"北海道","jp_add_1":"札幌市南区","jp_add_2":"真駒内東町"},"0050021":{"post_code":"0050021","prefecture":"HOKKAIDO","city":"SAPPORO SHI MINAMI KU","town":"MAKOMANAI HONCHO","perfecture_jp":"北海道","jp_add_1":"札幌市南区","jp_add_2":"真駒内本町"},"0050013":{"post_code":"0050013","prefecture":"HOKKAIDO","city":"SAPPORO SHI MINAMI KU","town":"MAKOMANAI MIDORIMACHI","perfecture_jp":"北海道","jp_add_1":"札幌市南区","jp_add_2":"真駒内緑町"},"0050016":{"post_code":"0050016","prefecture":"HOKKAIDO","city":"SAPPORO SHI MINAMI KU","town":"MAKOMANAI MINAMIMACHI","perfecture_jp":"北海道","jp_add_1":"札幌市南区","jp_add_2":"真駒内南町"},"0050017":{"post_code":"0050017","prefecture":"HOKKAIDO","city":"SAPPORO SHI MINAMI KU","town":"MAKOMANAIKOEN","perfecture_jp":"北海道","jp_add_1":"札幌市南区","jp_add_2":"真駒内公園"},"0050827":{"post_code":"0050827","prefecture":"HOKKAIDO","city":"SAPPORO SHI MINAMI KU","town":"MINAMISAWA","perfecture_jp":"北海道","jp_add_1":"札幌市南区","jp_add_2":"南沢"},"0050821":{"post_code":"0050821","prefecture":"HOKKAIDO","city":"SAPPORO SHI MINAMI KU","town":"MINAMISAWA1-JO","perfecture_jp":"北海道","jp_add_1":"札幌市南区","jp_add_2":"南沢一条"},"0050822":{"post_code":"0050822","prefecture":"HOKKAIDO","city":"SAPPORO SHI MINAMI KU","town":"MINAMISAWA2-JO","perfecture_jp":"北海道","jp_add_1":"札幌市南区","jp_add_2":"南沢二条"},"0050823":{"post_code":"0050823","prefecture":"HOKKAIDO","city":"SAPPORO SHI MINAMI KU","town":"MINAMISAWA3-JO","perfecture_jp":"北海道","jp_add_1":"札幌市南区","jp_add_2":"南沢三条"},"0050824":{"post_code":"0050824","prefecture":"HOKKAIDO","city":"SAPPORO SHI MINAMI KU","town":"MINAMISAWA4-JO","perfecture_jp":"北海道","jp_add_1":"札幌市南区","jp_add_2":"南沢四条"},"0050825":{"post_code":"0050825","prefecture":"HOKKAIDO","city":"SAPPORO SHI MINAMI KU","town":"MINAMISAWA5-JO","perfecture_jp":"北海道","jp_add_1":"札幌市南区","jp_add_2":"南沢五条"},"0050826":{"post_code":"0050826","prefecture":"HOKKAIDO","city":"SAPPORO SHI MINAMI KU","town":"MINAMISAWA6-JO","perfecture_jp":"北海道","jp_add_1":"札幌市南区","jp_add_2":"南沢六条"},"0050030":{"post_code":"0050030","prefecture":"HOKKAIDO","city":"SAPPORO SHI MINAMI KU","town":"MINAMI30-JONISHI(8-CHOME)","perfecture_jp":"北海道","jp_add_1":"札幌市南区","jp_add_2":"南三十条西"},"0050031":{"post_code":"0050031","prefecture":"HOKKAIDO","city":"SAPPORO SHI MINAMI KU","town":"MINAMI31-JONISHI","perfecture_jp":"北海道","jp_add_1":"札幌市南区","jp_add_2":"南三十一条西"},"0050032":{"post_code":"0050032","prefecture":"HOKKAIDO","city":"SAPPORO SHI MINAMI KU","town":"MINAMI32-JONISHI","perfecture_jp":"北海道","jp_add_1":"札幌市南区","jp_add_2":"南三十二条西"},"0050033":{"post_code":"0050033","prefecture":"HOKKAIDO","city":"SAPPORO SHI MINAMI KU","town":"MINAMI33-JONISHI","perfecture_jp":"北海道","jp_add_1":"札幌市南区","jp_add_2":"南三十三条西"},"0050034":{"post_code":"0050034","prefecture":"HOKKAIDO","city":"SAPPORO SHI MINAMI KU","town":"MINAMI34-JONISHI","perfecture_jp":"北海道","jp_add_1":"札幌市南区","jp_add_2":"南三十四条西"},"0050035":{"post_code":"0050035","prefecture":"HOKKAIDO","city":"SAPPORO SHI MINAMI KU","town":"MINAMI35-JONISHI","perfecture_jp":"北海道","jp_add_1":"札幌市南区","jp_add_2":"南三十五条西"},"0050036":{"post_code":"0050036","prefecture":"HOKKAIDO","city":"SAPPORO SHI MINAMI KU","town":"MINAMI36-JONISHI","perfecture_jp":"北海道","jp_add_1":"札幌市南区","jp_add_2":"南三十六条西"},"0050037":{"post_code":"0050037","prefecture":"HOKKAIDO","city":"SAPPORO SHI MINAMI KU","town":"MINAMI37-JONISHI","perfecture_jp":"北海道","jp_add_1":"札幌市南区","jp_add_2":"南三十七条西"},"0050038":{"post_code":"0050038","prefecture":"HOKKAIDO","city":"SAPPORO SHI MINAMI KU","town":"MINAMI38-JONISHI","perfecture_jp":"北海道","jp_add_1":"札幌市南区","jp_add_2":"南三十八条西"},"0050039":{"post_code":"0050039","prefecture":"HOKKAIDO","city":"SAPPORO SHI MINAMI KU","town":"MINAMI39-JONISHI","perfecture_jp":"北海道","jp_add_1":"札幌市南区","jp_add_2":"南三十九条西"},"0050040":{"post_code":"0050040","prefecture":"HOKKAIDO","city":"SAPPORO SHI MINAMI KU","town":"MOIWASHITA","perfecture_jp":"北海道","jp_add_1":"札幌市南区","jp_add_2":"藻岩下"},"0050041":{"post_code":"0050041","prefecture":"HOKKAIDO","city":"SAPPORO SHI MINAMI KU","town":"MOIWAYAMA","perfecture_jp":"北海道","jp_add_1":"札幌市南区","jp_add_2":"藻岩山"}}