{"0100000":{"post_code":"0100000","prefecture":"AKITA KEN","city":"AKITA SHI","town":"IKANIKEISAIGANAIBAAI","perfecture_jp":"秋田県","jp_add_1":"秋田市","jp_add_2":""},"0100831":{"post_code":"0100831","prefecture":"AKITA KEN","city":"AKITA SHI","town":"ASAHIKAWA KIYOSUMIMACHI","perfecture_jp":"秋田県","jp_add_1":"秋田市","jp_add_2":"旭川清澄町"},"0100833":{"post_code":"0100833","prefecture":"AKITA KEN","city":"AKITA SHI","town":"ASAHIKAWA SHINTODAHIGASHIMACHI","perfecture_jp":"秋田県","jp_add_1":"秋田市","jp_add_2":"旭川新藤田東町"},"0100832":{"post_code":"0100832","prefecture":"AKITA KEN","city":"AKITA SHI","town":"ASAHIKAWA SHINTODANISHIMACHI","perfecture_jp":"秋田県","jp_add_1":"秋田市","jp_add_2":"旭川新藤田西町"},"0100834":{"post_code":"0100834","prefecture":"AKITA KEN","city":"AKITA SHI","town":"ASAHIKAWA MINAMIMACHI","perfecture_jp":"秋田県","jp_add_1":"秋田市","jp_add_2":"旭川南町"},"0101613":{"post_code":"0101613","prefecture":"AKITA KEN","city":"AKITA SHI","town":"ARAYA ASAHIMACHI","perfecture_jp":"秋田県","jp_add_1":"秋田市","jp_add_2":"新屋朝日町"},"0101632":{"post_code":"0101632","prefecture":"AKITA KEN","city":"AKITA SHI","town":"ARAYA OKAWAMACHI","perfecture_jp":"秋田県","jp_add_1":"秋田市","jp_add_2":"新屋大川町"},"0101637":{"post_code":"0101637","prefecture":"AKITA KEN","city":"AKITA SHI","town":"ARAYA OGIMACHI","perfecture_jp":"秋田県","jp_add_1":"秋田市","jp_add_2":"新屋扇町"},"0101634":{"post_code":"0101634","prefecture":"AKITA KEN","city":"AKITA SHI","town":"ARAYA OKITAMACHI","perfecture_jp":"秋田県","jp_add_1":"秋田市","jp_add_2":"新屋沖田町"},"0101638":{"post_code":"0101638","prefecture":"AKITA KEN","city":"AKITA SHI","town":"ARAYA OMOTEMACHI","perfecture_jp":"秋田県","jp_add_1":"秋田市","jp_add_2":"新屋表町"},"0101603":{"post_code":"0101603","prefecture":"AKITA KEN","city":"AKITA SHI","town":"ARAYA KATSUHIRADAI","perfecture_jp":"秋田県","jp_add_1":"秋田市","jp_add_2":"新屋勝平台"},"0101605":{"post_code":"0101605","prefecture":"AKITA KEN","city":"AKITA SHI","town":"ARAYA KATSUHIRAMACHI","perfecture_jp":"秋田県","jp_add_1":"秋田市","jp_add_2":"新屋勝平町"},"0101608":{"post_code":"0101608","prefecture":"AKITA KEN","city":"AKITA SHI","town":"ARAYA KITAHAMACHO","perfecture_jp":"秋田県","jp_add_1":"秋田市","jp_add_2":"新屋北浜町"},"0101621":{"post_code":"0101621","prefecture":"AKITA KEN","city":"AKITA SHI","town":"ARAYA KURITAMACHI","perfecture_jp":"秋田県","jp_add_1":"秋田市","jp_add_2":"新屋栗田町"},"0101606":{"post_code":"0101606","prefecture":"AKITA KEN","city":"AKITA SHI","town":"ARAYA KOTOBUKIMACHI","perfecture_jp":"秋田県","jp_add_1":"秋田市","jp_add_2":"新屋寿町"},"0101602":{"post_code":"0101602","prefecture":"AKITA KEN","city":"AKITA SHI","town":"ARAYA SHITAKAWARAMACHI","perfecture_jp":"秋田県","jp_add_1":"秋田市","jp_add_2":"新屋下川原町"},"0101642":{"post_code":"0101642","prefecture":"AKITA KEN","city":"AKITA SHI","town":"ARAYA SHIBUYAMACHI","perfecture_jp":"秋田県","jp_add_1":"秋田市","jp_add_2":"新屋渋谷町"},"0101641":{"post_code":"0101641","prefecture":"AKITA KEN","city":"AKITA SHI","town":"ARAYA TAKAMIMACHI","perfecture_jp":"秋田県","jp_add_1":"秋田市","jp_add_2":"新屋高美町"},"0101644":{"post_code":"0101644","prefecture":"AKITA KEN","city":"AKITA SHI","town":"ARAYA TAJIRIZAWANAKAMACHI","perfecture_jp":"秋田県","jp_add_1":"秋田市","jp_add_2":"新屋田尻沢中町"},"0101643":{"post_code":"0101643","prefecture":"AKITA KEN","city":"AKITA SHI","town":"ARAYA TAJIRIZAWAHIGASHIMACHI","perfecture_jp":"秋田県","jp_add_1":"秋田市","jp_add_2":"新屋田尻沢東町"},"0101645":{"post_code":"0101645","prefecture":"AKITA KEN","city":"AKITA SHI","town":"ARAYA TAJIRIZAWANISHIMACHI","perfecture_jp":"秋田県","jp_add_1":"秋田市","jp_add_2":"新屋田尻沢西町"},"0101611":{"post_code":"0101611","prefecture":"AKITA KEN","city":"AKITA SHI","town":"ARAYA TEMBINNO","perfecture_jp":"秋田県","jp_add_1":"秋田市","jp_add_2":"新屋天秤野"},"0101633":{"post_code":"0101633","prefecture":"AKITA KEN","city":"AKITA SHI","town":"ARAYA TORIKIMACHI","perfecture_jp":"秋田県","jp_add_1":"秋田市","jp_add_2":"新屋鳥木町"},"0101636":{"post_code":"0101636","prefecture":"AKITA KEN","city":"AKITA SHI","town":"ARAYA HINAIMACHI","perfecture_jp":"秋田県","jp_add_1":"秋田市","jp_add_2":"新屋比内町"},"0101622":{"post_code":"0101622","prefecture":"AKITA KEN","city":"AKITA SHI","town":"ARAYA HIYOSHIMACHI","perfecture_jp":"秋田県","jp_add_1":"秋田市","jp_add_2":"新屋日吉町"},"0101615":{"post_code":"0101615","prefecture":"AKITA KEN","city":"AKITA SHI","town":"ARAYA FUNABAMACHI","perfecture_jp":"秋田県","jp_add_1":"秋田市","jp_add_2":"新屋船場町"},"0101635":{"post_code":"0101635","prefecture":"AKITA KEN","city":"AKITA SHI","town":"ARAYA MAENOMACHI","perfecture_jp":"秋田県","jp_add_1":"秋田市","jp_add_2":"新屋前野町"},"0101617":{"post_code":"0101617","prefecture":"AKITA KEN","city":"AKITA SHI","town":"ARAYA MATSUMIGAOKAHIGASHICHO","perfecture_jp":"秋田県","jp_add_1":"秋田市","jp_add_2":"新屋松美ガ丘東町"},"0101616":{"post_code":"0101616","prefecture":"AKITA KEN","city":"AKITA SHI","town":"ARAYA MATSUMIGAOKAMINAMICHO","perfecture_jp":"秋田県","jp_add_1":"秋田市","jp_add_2":"新屋松美ガ丘南町"},"0101618":{"post_code":"0101618","prefecture":"AKITA KEN","city":"AKITA SHI","town":"ARAYA MATSUMIGAOKAKITACHO","perfecture_jp":"秋田県","jp_add_1":"秋田市","jp_add_2":"新屋松美ガ丘北町"},"0101604":{"post_code":"0101604","prefecture":"AKITA KEN","city":"AKITA SHI","town":"ARAYA MATSUMIMACHI","perfecture_jp":"秋田県","jp_add_1":"秋田市","jp_add_2":"新屋松美町"},"0101607":{"post_code":"0101607","prefecture":"AKITA KEN","city":"AKITA SHI","town":"ARAYA MINAMIHAMAMACHI","perfecture_jp":"秋田県","jp_add_1":"秋田市","jp_add_2":"新屋南浜町"},"0101631":{"post_code":"0101631","prefecture":"AKITA KEN","city":"AKITA SHI","town":"ARAYA MOTOMACHI","perfecture_jp":"秋田県","jp_add_1":"秋田市","jp_add_2":"新屋元町"},"0101612":{"post_code":"0101612","prefecture":"AKITA KEN","city":"AKITA SHI","town":"ARAYA YUTAKAMACHI","perfecture_jp":"秋田県","jp_add_1":"秋田市","jp_add_2":"新屋豊町"},"0101614":{"post_code":"0101614","prefecture":"AKITA KEN","city":"AKITA SHI","town":"ARAYA WARIYAMAMACHI","perfecture_jp":"秋田県","jp_add_1":"秋田市","jp_add_2":"新屋割山町"},"0101623":{"post_code":"0101623","prefecture":"AKITA KEN","city":"AKITA SHI","town":"ARAYAMACHI","perfecture_jp":"秋田県","jp_add_1":"秋田市","jp_add_2":"新屋町"},"0100816":{"post_code":"0100816","prefecture":"AKITA KEN","city":"AKITA SHI","town":"IZUMI","perfecture_jp":"秋田県","jp_add_1":"秋田市","jp_add_2":"泉"},"0100813":{"post_code":"0100813","prefecture":"AKITA KEN","city":"AKITA SHI","town":"IZUMI ICHINOTSUBO","perfecture_jp":"秋田県","jp_add_1":"秋田市","jp_add_2":"泉一ノ坪"},"0100811":{"post_code":"0100811","prefecture":"AKITA KEN","city":"AKITA SHI","town":"IZUMI KAMANOMACHI","perfecture_jp":"秋田県","jp_add_1":"秋田市","jp_add_2":"泉釜ノ町"},"0100916":{"post_code":"0100916","prefecture":"AKITA KEN","city":"AKITA SHI","town":"IZUMI KITA","perfecture_jp":"秋田県","jp_add_1":"秋田市","jp_add_2":"泉北"},"0100817":{"post_code":"0100817","prefecture":"AKITA KEN","city":"AKITA SHI","town":"IZUMI SUGANO(CHOME)","perfecture_jp":"秋田県","jp_add_1":"秋田市","jp_add_2":"泉菅野"},"0100917":{"post_code":"0100917","prefecture":"AKITA KEN","city":"AKITA SHI","town":"IZUMI CHUO","perfecture_jp":"秋田県","jp_add_1":"秋田市","jp_add_2":"泉中央"},"0100815":{"post_code":"0100815","prefecture":"AKITA KEN","city":"AKITA SHI","town":"IZUMI BABA","perfecture_jp":"秋田県","jp_add_1":"秋田市","jp_add_2":"泉馬場"},"0100814":{"post_code":"0100814","prefecture":"AKITA KEN","city":"AKITA SHI","town":"IZUMI HIGASHIMACHI","perfecture_jp":"秋田県","jp_add_1":"秋田市","jp_add_2":"泉東町"},"0100812":{"post_code":"0100812","prefecture":"AKITA KEN","city":"AKITA SHI","town":"IZUMI MITAKENE","perfecture_jp":"秋田県","jp_add_1":"秋田市","jp_add_2":"泉三嶽根"},"0100918":{"post_code":"0100918","prefecture":"AKITA KEN","city":"AKITA SHI","town":"IZUMI MINAMI","perfecture_jp":"秋田県","jp_add_1":"秋田市","jp_add_2":"泉南"},"0100064":{"post_code":"0100064","prefecture":"AKITA KEN","city":"AKITA SHI","town":"USHIJIMA","perfecture_jp":"秋田県","jp_add_1":"秋田市","jp_add_2":"牛島"},"0100062":{"post_code":"0100062","prefecture":"AKITA KEN","city":"AKITA SHI","town":"USHIJIMA HIGASHI","perfecture_jp":"秋田県","jp_add_1":"秋田市","jp_add_2":"牛島東"},"0100063":{"post_code":"0100063","prefecture":"AKITA KEN","city":"AKITA SHI","town":"USHIJIMA NISHI","perfecture_jp":"秋田県","jp_add_1":"秋田市","jp_add_2":"牛島西"},"0100066":{"post_code":"0100066","prefecture":"AKITA KEN","city":"AKITA SHI","town":"USHIJIMA MINAMI","perfecture_jp":"秋田県","jp_add_1":"秋田市","jp_add_2":"牛島南"},"0101436":{"post_code":"0101436","prefecture":"AKITA KEN","city":"AKITA SHI","town":"OSUMI","perfecture_jp":"秋田県","jp_add_1":"秋田市","jp_add_2":"大住"},"0100921":{"post_code":"0100921","prefecture":"AKITA KEN","city":"AKITA SHI","town":"OMACHI","perfecture_jp":"秋田県","jp_add_1":"秋田市","jp_add_2":"大町"},"0101428":{"post_code":"0101428","prefecture":"AKITA KEN","city":"AKITA SHI","town":"OHIRADAI","perfecture_jp":"秋田県","jp_add_1":"秋田市","jp_add_2":"大平台"},"0101424":{"post_code":"0101424","prefecture":"AKITA KEN","city":"AKITA SHI","town":"ONOBA","perfecture_jp":"秋田県","jp_add_1":"秋田市","jp_add_2":"御野場"},"0101425":{"post_code":"0101425","prefecture":"AKITA KEN","city":"AKITA SHI","town":"ONOBA SHIMMACHI","perfecture_jp":"秋田県","jp_add_1":"秋田市","jp_add_2":"御野場新町"},"0100061":{"post_code":"0100061","prefecture":"AKITA KEN","city":"AKITA SHI","town":"OROSHIMACHI","perfecture_jp":"秋田県","jp_add_1":"秋田市","jp_add_2":"卸町"},"0100111":{"post_code":"0100111","prefecture":"AKITA KEN","city":"AKITA SHI","town":"KANAASHI IWASE","perfecture_jp":"秋田県","jp_add_1":"秋田市","jp_add_2":"金足岩瀬"},"0100113":{"post_code":"0100113","prefecture":"AKITA KEN","city":"AKITA SHI","town":"KANAASHI URAYAMA","perfecture_jp":"秋田県","jp_add_1":"秋田市","jp_add_2":"金足浦山"},"0100126":{"post_code":"0100126","prefecture":"AKITA KEN","city":"AKITA SHI","town":"KANAASHI OIWAKE","perfecture_jp":"秋田県","jp_add_1":"秋田市","jp_add_2":"金足追分"},"0100115":{"post_code":"0100115","prefecture":"AKITA KEN","city":"AKITA SHI","town":"KANAASHI OSHIMIZU","perfecture_jp":"秋田県","jp_add_1":"秋田市","jp_add_2":"金足大清水"},"0100123":{"post_code":"0100123","prefecture":"AKITA KEN","city":"AKITA SHI","town":"KANAASHI KATADA","perfecture_jp":"秋田県","jp_add_1":"秋田市","jp_add_2":"金足片田"},"0100121":{"post_code":"0100121","prefecture":"AKITA KEN","city":"AKITA SHI","town":"KANAASHI KUROKAWA","perfecture_jp":"秋田県","jp_add_1":"秋田市","jp_add_2":"金足黒川"},"0100116":{"post_code":"0100116","prefecture":"AKITA KEN","city":"AKITA SHI","town":"KANAASHI KOIZUMI","perfecture_jp":"秋田県","jp_add_1":"秋田市","jp_add_2":"金足小泉"},"0100114":{"post_code":"0100114","prefecture":"AKITA KEN","city":"AKITA SHI","town":"KANAASHI SHITAKARI","perfecture_jp":"秋田県","jp_add_1":"秋田市","jp_add_2":"金足下刈"},"0100125":{"post_code":"0100125","prefecture":"AKITA KEN","city":"AKITA SHI","town":"KANAASHI TAKAOKA","perfecture_jp":"秋田県","jp_add_1":"秋田市","jp_add_2":"金足高岡"},"0100124":{"post_code":"0100124","prefecture":"AKITA KEN","city":"AKITA SHI","town":"KANAASHI NIOZAKI","perfecture_jp":"秋田県","jp_add_1":"秋田市","jp_add_2":"金足鳰崎"},"0100112":{"post_code":"0100112","prefecture":"AKITA KEN","city":"AKITA SHI","town":"KANAASHI HORIUCHI","perfecture_jp":"秋田県","jp_add_1":"秋田市","jp_add_2":"金足堀内"},"0100122":{"post_code":"0100122","prefecture":"AKITA KEN","city":"AKITA SHI","town":"KANAASHI YOSHIDA","perfecture_jp":"秋田県","jp_add_1":"秋田市","jp_add_2":"金足吉田"},"0101403":{"post_code":"0101403","prefecture":"AKITA KEN","city":"AKITA SHI","town":"KAMIKITATE ARAMAKI","perfecture_jp":"秋田県","jp_add_1":"秋田市","jp_add_2":"上北手荒巻"},"0101401":{"post_code":"0101401","prefecture":"AKITA KEN","city":"AKITA SHI","town":"KAMIKITATE OSUGISAWA","perfecture_jp":"秋田県","jp_add_1":"秋田市","jp_add_2":"上北手大杉沢"},"0101408":{"post_code":"0101408","prefecture":"AKITA KEN","city":"AKITA SHI","town":"KAMIKITATE ODO","perfecture_jp":"秋田県","jp_add_1":"秋田市","jp_add_2":"上北手大戸"},"0101405":{"post_code":"0101405","prefecture":"AKITA KEN","city":"AKITA SHI","town":"KAMIKITATE OYAMADA","perfecture_jp":"秋田県","jp_add_1":"秋田市","jp_add_2":"上北手大山田"},"0101402":{"post_code":"0101402","prefecture":"AKITA KEN","city":"AKITA SHI","town":"KAMIKITATE OYAMADA","perfecture_jp":"秋田県","jp_add_1":"秋田市","jp_add_2":"上北手小山田"},"0101404":{"post_code":"0101404","prefecture":"AKITA KEN","city":"AKITA SHI","town":"KAMIKITATE KONO","perfecture_jp":"秋田県","jp_add_1":"秋田市","jp_add_2":"上北手古野"},"0101411":{"post_code":"0101411","prefecture":"AKITA KEN","city":"AKITA SHI","town":"KAMIKITATE GOSHONO","perfecture_jp":"秋田県","jp_add_1":"秋田市","jp_add_2":"上北手御所野"},"0101406":{"post_code":"0101406","prefecture":"AKITA KEN","city":"AKITA SHI","town":"KAMIKITATE SARUTA","perfecture_jp":"秋田県","jp_add_1":"秋田市","jp_add_2":"上北手猿田"},"0101407":{"post_code":"0101407","prefecture":"AKITA KEN","city":"AKITA SHI","town":"KAMIKITATE MOMOZAKI","perfecture_jp":"秋田県","jp_add_1":"秋田市","jp_add_2":"上北手百崎"},"0100137":{"post_code":"0100137","prefecture":"AKITA KEN","city":"AKITA SHI","town":"KAMISHINJO ISHINAZAKA","perfecture_jp":"秋田県","jp_add_1":"秋田市","jp_add_2":"上新城石名坂"},"0100132":{"post_code":"0100132","prefecture":"AKITA KEN","city":"AKITA SHI","town":"KAMISHINJO OMATA","perfecture_jp":"秋田県","jp_add_1":"秋田市","jp_add_2":"上新城小又"},"0100135":{"post_code":"0100135","prefecture":"AKITA KEN","city":"AKITA SHI","town":"KAMISHINJO GOJITCHO","perfecture_jp":"秋田県","jp_add_1":"秋田市","jp_add_2":"上新城五十丁"},"0100131":{"post_code":"0100131","prefecture":"AKITA KEN","city":"AKITA SHI","town":"KAMISHINJO SHIRAYAMA","perfecture_jp":"秋田県","jp_add_1":"秋田市","jp_add_2":"上新城白山"},"0100136":{"post_code":"0100136","prefecture":"AKITA KEN","city":"AKITA SHI","town":"KAMISHINJO NAKA","perfecture_jp":"秋田県","jp_add_1":"秋田市","jp_add_2":"上新城中"},"0100138":{"post_code":"0100138","prefecture":"AKITA KEN","city":"AKITA SHI","town":"KAMISHINJO HOTANO","perfecture_jp":"秋田県","jp_add_1":"秋田市","jp_add_2":"上新城保多野"},"0100134":{"post_code":"0100134","prefecture":"AKITA KEN","city":"AKITA SHI","town":"KAMISHINJO MICHIKAWA","perfecture_jp":"秋田県","jp_add_1":"秋田市","jp_add_2":"上新城道川"},"0100133":{"post_code":"0100133","prefecture":"AKITA KEN","city":"AKITA SHI","town":"KAMISHINJO YUNOSATO","perfecture_jp":"秋田県","jp_add_1":"秋田市","jp_add_2":"上新城湯ノ里"},"0100947":{"post_code":"0100947","prefecture":"AKITA KEN","city":"AKITA SHI","town":"KAWASHIRI UENOMACHI","perfecture_jp":"秋田県","jp_add_1":"秋田市","jp_add_2":"川尻上野町"},"0100942":{"post_code":"0100942","prefecture":"AKITA KEN","city":"AKITA SHI","town":"KAWASHIRI OKAWAMACHI","perfecture_jp":"秋田県","jp_add_1":"秋田市","jp_add_2":"川尻大川町"},"0100943":{"post_code":"0100943","prefecture":"AKITA KEN","city":"AKITA SHI","town":"KAWASHIRI OYASUMIMACHI","perfecture_jp":"秋田県","jp_add_1":"秋田市","jp_add_2":"川尻御休町"},"0100948":{"post_code":"0100948","prefecture":"AKITA KEN","city":"AKITA SHI","town":"KAWASHIRI SHINKAWAMACHI","perfecture_jp":"秋田県","jp_add_1":"秋田市","jp_add_2":"川尻新川町"},"0100946":{"post_code":"0100946","prefecture":"AKITA KEN","city":"AKITA SHI","town":"KAWASHIRI SOSHAMACHI","perfecture_jp":"秋田県","jp_add_1":"秋田市","jp_add_2":"川尻総社町"},"0100945":{"post_code":"0100945","prefecture":"AKITA KEN","city":"AKITA SHI","town":"KAWASHIRI MIYOSHIMACHI","perfecture_jp":"秋田県","jp_add_1":"秋田市","jp_add_2":"川尻みよし町"},"0100944":{"post_code":"0100944","prefecture":"AKITA KEN","city":"AKITA SHI","town":"KAWASHIRI WAKABAMACHI","perfecture_jp":"秋田県","jp_add_1":"秋田市","jp_add_2":"川尻若葉町"},"0100941":{"post_code":"0100941","prefecture":"AKITA KEN","city":"AKITA SHI","town":"KAWASHIRIMACHI","perfecture_jp":"秋田県","jp_add_1":"秋田市","jp_add_2":"川尻町"},"0100935":{"post_code":"0100935","prefecture":"AKITA KEN","city":"AKITA SHI","town":"KAWAMOTO OGAWAMACHI","perfecture_jp":"秋田県","jp_add_1":"秋田市","jp_add_2":"川元小川町"},"0100932":{"post_code":"0100932","prefecture":"AKITA KEN","city":"AKITA SHI","town":"KAWAMOTO KAIWAMACHI","perfecture_jp":"秋田県","jp_add_1":"秋田市","jp_add_2":"川元開和町"},"0100933":{"post_code":"0100933","prefecture":"AKITA KEN","city":"AKITA SHI","town":"KAWAMOTO MATSUOKAMACHI","perfecture_jp":"秋田県","jp_add_1":"秋田市","jp_add_2":"川元松丘町"},"0100934":{"post_code":"0100934","prefecture":"AKITA KEN","city":"AKITA SHI","town":"KAWAMOTO MUTSUMIMACHI","perfecture_jp":"秋田県","jp_add_1":"秋田市","jp_add_2":"川元むつみ町"},"0100931":{"post_code":"0100931","prefecture":"AKITA KEN","city":"AKITA SHI","town":"KAWAMOTO YAMASHITAMACHI","perfecture_jp":"秋田県","jp_add_1":"秋田市","jp_add_2":"川元山下町"},"0100925":{"post_code":"0100925","prefecture":"AKITA KEN","city":"AKITA SHI","town":"KYOKUNAN","perfecture_jp":"秋田県","jp_add_1":"秋田市","jp_add_2":"旭南"},"0100922":{"post_code":"0100922","prefecture":"AKITA KEN","city":"AKITA SHI","town":"KYOKUHOKU SAKAEMACHI","perfecture_jp":"秋田県","jp_add_1":"秋田市","jp_add_2":"旭北栄町"},"0100924":{"post_code":"0100924","prefecture":"AKITA KEN","city":"AKITA SHI","town":"KYOKUHOKU TERAMACHI","perfecture_jp":"秋田県","jp_add_1":"秋田市","jp_add_2":"旭北寺町"},"0100923":{"post_code":"0100923","prefecture":"AKITA KEN","city":"AKITA SHI","town":"KYOKUHOKU NISHIKIMACHI","perfecture_jp":"秋田県","jp_add_1":"秋田市","jp_add_2":"旭北錦町"},"0100966":{"post_code":"0100966","prefecture":"AKITA KEN","city":"AKITA SHI","town":"KOYO AOYAGICHO","perfecture_jp":"秋田県","jp_add_1":"秋田市","jp_add_2":"高陽青柳町"},"0100967":{"post_code":"0100967","prefecture":"AKITA KEN","city":"AKITA SHI","town":"KOYO SAIWAICHO","perfecture_jp":"秋田県","jp_add_1":"秋田市","jp_add_2":"高陽幸町"},"0101412":{"post_code":"0101412","prefecture":"AKITA KEN","city":"AKITA SHI","town":"GOSHONOSHIMOTSUTSUMI","perfecture_jp":"秋田県","jp_add_1":"秋田市","jp_add_2":"御所野下堤"},"0101413":{"post_code":"0101413","prefecture":"AKITA KEN","city":"AKITA SHI","town":"GOSHONOJIZODEN","perfecture_jp":"秋田県","jp_add_1":"秋田市","jp_add_2":"御所野地蔵田"},"0101419":{"post_code":"0101419","prefecture":"AKITA KEN","city":"AKITA SHI","town":"GOSHONOTSUTSUMIDAI","perfecture_jp":"秋田県","jp_add_1":"秋田市","jp_add_2":"御所野堤台"},"0101414":{"post_code":"0101414","prefecture":"AKITA KEN","city":"AKITA SHI","town":"GOSHONOMOTOMACHI","perfecture_jp":"秋田県","jp_add_1":"秋田市","jp_add_2":"御所野元町"},"0101415":{"post_code":"0101415","prefecture":"AKITA KEN","city":"AKITA SHI","town":"GOSHONOYUMOTO","perfecture_jp":"秋田県","jp_add_1":"秋田市","jp_add_2":"御所野湯本"},"0100042":{"post_code":"0100042","prefecture":"AKITA KEN","city":"AKITA SHI","town":"SAKURA","perfecture_jp":"秋田県","jp_add_1":"秋田市","jp_add_2":"桜"},"0100043":{"post_code":"0100043","prefecture":"AKITA KEN","city":"AKITA SHI","town":"SAKURAGAOKA","perfecture_jp":"秋田県","jp_add_1":"秋田市","jp_add_2":"桜ガ丘"},"0100059":{"post_code":"0100059","prefecture":"AKITA KEN","city":"AKITA SHI","town":"SAKURADAI","perfecture_jp":"秋田県","jp_add_1":"秋田市","jp_add_2":"桜台"},"0100823":{"post_code":"0100823","prefecture":"AKITA KEN","city":"AKITA SHI","town":"SANNAI","perfecture_jp":"秋田県","jp_add_1":"秋田市","jp_add_2":"山内"},"0100951":{"post_code":"0100951","prefecture":"AKITA KEN","city":"AKITA SHI","town":"SANNO","perfecture_jp":"秋田県","jp_add_1":"秋田市","jp_add_2":"山王"},"0100952":{"post_code":"0100952","prefecture":"AKITA KEN","city":"AKITA SHI","town":"SANNO SHIMMACHI","perfecture_jp":"秋田県","jp_add_1":"秋田市","jp_add_2":"山王新町"},"0100955":{"post_code":"0100955","prefecture":"AKITA KEN","city":"AKITA SHI","town":"SANNO NAKAJIMAMACHI","perfecture_jp":"秋田県","jp_add_1":"秋田市","jp_add_2":"山王中島町"},"0100953":{"post_code":"0100953","prefecture":"AKITA KEN","city":"AKITA SHI","town":"SANNO NAKAZONOMACHI","perfecture_jp":"秋田県","jp_add_1":"秋田市","jp_add_2":"山王中園町"},"0100954":{"post_code":"0100954","prefecture":"AKITA KEN","city":"AKITA SHI","town":"SANNO NUMATAMACHI","perfecture_jp":"秋田県","jp_add_1":"秋田市","jp_add_2":"山王沼田町"},"0100956":{"post_code":"0100956","prefecture":"AKITA KEN","city":"AKITA SHI","town":"SANNO RINKAIMACHI","perfecture_jp":"秋田県","jp_add_1":"秋田市","jp_add_2":"山王臨海町"},"0100056":{"post_code":"0100056","prefecture":"AKITA KEN","city":"AKITA SHI","town":"SHIMOKITATE KUROKAWA","perfecture_jp":"秋田県","jp_add_1":"秋田市","jp_add_2":"下北手黒川"},"0100058":{"post_code":"0100058","prefecture":"AKITA KEN","city":"AKITA SHI","town":"SHIMOKITATE SAKURA","perfecture_jp":"秋田県","jp_add_1":"秋田市","jp_add_2":"下北手桜"},"0100053":{"post_code":"0100053","prefecture":"AKITA KEN","city":"AKITA SHI","town":"SHIMOKITATE SAMUKAWA","perfecture_jp":"秋田県","jp_add_1":"秋田市","jp_add_2":"下北手寒川"},"0100054":{"post_code":"0100054","prefecture":"AKITA KEN","city":"AKITA SHI","town":"SHIMOKITATE TAKARAKAWA","perfecture_jp":"秋田県","jp_add_1":"秋田市","jp_add_2":"下北手宝川"},"0100055":{"post_code":"0100055","prefecture":"AKITA KEN","city":"AKITA SHI","town":"SHIMOKITATE TORISAWA","perfecture_jp":"秋田県","jp_add_1":"秋田市","jp_add_2":"下北手通沢"},"0100057":{"post_code":"0100057","prefecture":"AKITA KEN","city":"AKITA SHI","town":"SHIMOKITATE NASHIHIRA","perfecture_jp":"秋田県","jp_add_1":"秋田市","jp_add_2":"下北手梨平"},"0100051":{"post_code":"0100051","prefecture":"AKITA KEN","city":"AKITA SHI","town":"SHIMOKITATE MATSUSAKI","perfecture_jp":"秋田県","jp_add_1":"秋田市","jp_add_2":"下北手松崎"},"0100052":{"post_code":"0100052","prefecture":"AKITA KEN","city":"AKITA SHI","town":"SHIMOKITATE YANAGITATE","perfecture_jp":"秋田県","jp_add_1":"秋田市","jp_add_2":"下北手柳舘"},"0100142":{"post_code":"0100142","prefecture":"AKITA KEN","city":"AKITA SHI","town":"SHIMOSHINJO AOZAKI","perfecture_jp":"秋田県","jp_add_1":"秋田市","jp_add_2":"下新城青崎"},"0100144":{"post_code":"0100144","prefecture":"AKITA KEN","city":"AKITA SHI","town":"SHIMOSHINJO IWAKI","perfecture_jp":"秋田県","jp_add_1":"秋田市","jp_add_2":"下新城岩城"},"0100143":{"post_code":"0100143","prefecture":"AKITA KEN","city":"AKITA SHI","town":"SHIMOSHINJO OTOMO","perfecture_jp":"秋田県","jp_add_1":"秋田市","jp_add_2":"下新城小友"},"0100145":{"post_code":"0100145","prefecture":"AKITA KEN","city":"AKITA SHI","town":"SHIMOSHINJO KASAOKA","perfecture_jp":"秋田県","jp_add_1":"秋田市","jp_add_2":"下新城笠岡"},"0100146":{"post_code":"0100146","prefecture":"AKITA KEN","city":"AKITA SHI","town":"SHIMOSHINJO NAKANO","perfecture_jp":"秋田県","jp_add_1":"秋田市","jp_add_2":"下新城中野"},"0100141":{"post_code":"0100141","prefecture":"AKITA KEN","city":"AKITA SHI","town":"SHIMOSHINJO NAGAOKA","perfecture_jp":"秋田県","jp_add_1":"秋田市","jp_add_2":"下新城長岡"},"0101501":{"post_code":"0101501","prefecture":"AKITA KEN","city":"AKITA SHI","town":"SHIMOHAMA KATSURANE","perfecture_jp":"秋田県","jp_add_1":"秋田市","jp_add_2":"下浜桂根"},"0101502":{"post_code":"0101502","prefecture":"AKITA KEN","city":"AKITA SHI","town":"SHIMOHAMA NAGAHAMA","perfecture_jp":"秋田県","jp_add_1":"秋田市","jp_add_2":"下浜長浜"},"0101506":{"post_code":"0101506","prefecture":"AKITA KEN","city":"AKITA SHI","town":"SHIMOHAMA NARADA","perfecture_jp":"秋田県","jp_add_1":"秋田市","jp_add_2":"下浜楢田"},"0101505":{"post_code":"0101505","prefecture":"AKITA KEN","city":"AKITA SHI","town":"SHIMOHAMA HATTA","perfecture_jp":"秋田県","jp_add_1":"秋田市","jp_add_2":"下浜八田"},"0101503":{"post_code":"0101503","prefecture":"AKITA KEN","city":"AKITA SHI","town":"SHIMOHAMA HANEKAWA","perfecture_jp":"秋田県","jp_add_1":"秋田市","jp_add_2":"下浜羽川"},"0101504":{"post_code":"0101504","prefecture":"AKITA KEN","city":"AKITA SHI","town":"SHIMOHAMA MYOGASAWA","perfecture_jp":"秋田県","jp_add_1":"秋田市","jp_add_2":"下浜名ケ沢"},"0100826":{"post_code":"0100826","prefecture":"AKITA KEN","city":"AKITA SHI","town":"SHINTODA","perfecture_jp":"秋田県","jp_add_1":"秋田市","jp_add_2":"新藤田"},"0100872":{"post_code":"0100872","prefecture":"AKITA KEN","city":"AKITA SHI","town":"SENSHU KITANOMARU","perfecture_jp":"秋田県","jp_add_1":"秋田市","jp_add_2":"千秋北の丸"},"0100874":{"post_code":"0100874","prefecture":"AKITA KEN","city":"AKITA SHI","town":"SENSHU KUBOTAMACHI","perfecture_jp":"秋田県","jp_add_1":"秋田市","jp_add_2":"千秋久保田町"},"0100876":{"post_code":"0100876","prefecture":"AKITA KEN","city":"AKITA SHI","town":"SENSHU KOEN","perfecture_jp":"秋田県","jp_add_1":"秋田市","jp_add_2":"千秋公園"},"0100873":{"post_code":"0100873","prefecture":"AKITA KEN","city":"AKITA SHI","town":"SENSHU JOKAMACHI","perfecture_jp":"秋田県","jp_add_1":"秋田市","jp_add_2":"千秋城下町"},"0100871":{"post_code":"0100871","prefecture":"AKITA KEN","city":"AKITA SHI","town":"SENSHU NAKAJIMAMACHI","perfecture_jp":"秋田県","jp_add_1":"秋田市","jp_add_2":"千秋中島町"},"0100875":{"post_code":"0100875","prefecture":"AKITA KEN","city":"AKITA SHI","town":"SENSHU MEITOKUMACHI","perfecture_jp":"秋田県","jp_add_1":"秋田市","jp_add_2":"千秋明徳町"},"0100877":{"post_code":"0100877","prefecture":"AKITA KEN","city":"AKITA SHI","town":"SENSHU YADOMEMACHI","perfecture_jp":"秋田県","jp_add_1":"秋田市","jp_add_2":"千秋矢留町"},"0100822":{"post_code":"0100822","prefecture":"AKITA KEN","city":"AKITA SHI","town":"SOEGAWA","perfecture_jp":"秋田県","jp_add_1":"秋田市","jp_add_2":"添川"},"0100802":{"post_code":"0100802","prefecture":"AKITA KEN","city":"AKITA SHI","town":"SOTOASAHIKAWA","perfecture_jp":"秋田県","jp_add_1":"秋田市","jp_add_2":"外旭川"},"0100804":{"post_code":"0100804","prefecture":"AKITA KEN","city":"AKITA SHI","town":"SOTOASAHIKAWAHACHIMANDEN(CHOME)","perfecture_jp":"秋田県","jp_add_1":"秋田市","jp_add_2":"外旭川八幡田"},"0100803":{"post_code":"0100803","prefecture":"AKITA KEN","city":"AKITA SHI","town":"SOTOASAHIKAWA YATSUYANAGI","perfecture_jp":"秋田県","jp_add_1":"秋田市","jp_add_2":"外旭川八柳"},"0101105":{"post_code":"0101105","prefecture":"AKITA KEN","city":"AKITA SHI","town":"TAIHEI KUROSAWA","perfecture_jp":"秋田県","jp_add_1":"秋田市","jp_add_2":"太平黒沢"},"0101104":{"post_code":"0101104","prefecture":"AKITA KEN","city":"AKITA SHI","town":"TAIHEI TERANIWA","perfecture_jp":"秋田県","jp_add_1":"秋田市","jp_add_2":"太平寺庭"},"0101103":{"post_code":"0101103","prefecture":"AKITA KEN","city":"AKITA SHI","town":"TAIHEI NAKAZEKI","perfecture_jp":"秋田県","jp_add_1":"秋田市","jp_add_2":"太平中関"},"0101101":{"post_code":"0101101","prefecture":"AKITA KEN","city":"AKITA SHI","town":"TAIHEI HATTA","perfecture_jp":"秋田県","jp_add_1":"秋田市","jp_add_2":"太平八田"},"0101102":{"post_code":"0101102","prefecture":"AKITA KEN","city":"AKITA SHI","town":"TAIHEI MENAGASAKI","perfecture_jp":"秋田県","jp_add_1":"秋田市","jp_add_2":"太平目長崎"},"0101106":{"post_code":"0101106","prefecture":"AKITA KEN","city":"AKITA SHI","town":"TAIHEI YAMAYA","perfecture_jp":"秋田県","jp_add_1":"秋田市","jp_add_2":"太平山谷"},"0100851":{"post_code":"0100851","prefecture":"AKITA KEN","city":"AKITA SHI","town":"TEGATA","perfecture_jp":"秋田県","jp_add_1":"秋田市","jp_add_2":"手形"},"0100861":{"post_code":"0100861","prefecture":"AKITA KEN","city":"AKITA SHI","town":"TEGATA KARAMIDEN","perfecture_jp":"秋田県","jp_add_1":"秋田市","jp_add_2":"手形からみでん"},"0100852":{"post_code":"0100852","prefecture":"AKITA KEN","city":"AKITA SHI","town":"TEGATA GAKUEMMACHI","perfecture_jp":"秋田県","jp_add_1":"秋田市","jp_add_2":"手形学園町"},"0100863":{"post_code":"0100863","prefecture":"AKITA KEN","city":"AKITA SHI","town":"TEGATA KYUKAMACHI","perfecture_jp":"秋田県","jp_add_1":"秋田市","jp_add_2":"手形休下町"},"0100865":{"post_code":"0100865","prefecture":"AKITA KEN","city":"AKITA SHI","town":"TEGATA SHINSAKAEMACHI","perfecture_jp":"秋田県","jp_add_1":"秋田市","jp_add_2":"手形新栄町"},"0100864":{"post_code":"0100864","prefecture":"AKITA KEN","city":"AKITA SHI","town":"TEGATA SUMIYOSHICHO","perfecture_jp":"秋田県","jp_add_1":"秋田市","jp_add_2":"手形住吉町"},"0100862":{"post_code":"0100862","prefecture":"AKITA KEN","city":"AKITA SHI","town":"TEGATA TANAKA","perfecture_jp":"秋田県","jp_add_1":"秋田市","jp_add_2":"手形田中"},"0100854":{"post_code":"0100854","prefecture":"AKITA KEN","city":"AKITA SHI","town":"TEGATA YAMAZAKICHO","perfecture_jp":"秋田県","jp_add_1":"秋田市","jp_add_2":"手形山崎町"},"0100844":{"post_code":"0100844","prefecture":"AKITA KEN","city":"AKITA SHI","town":"TEGATAYAMA NAKAMACHI","perfecture_jp":"秋田県","jp_add_1":"秋田市","jp_add_2":"手形山中町"},"0100843":{"post_code":"0100843","prefecture":"AKITA KEN","city":"AKITA SHI","town":"TEGATAYAMA HIGASHIMACHI","perfecture_jp":"秋田県","jp_add_1":"秋田市","jp_add_2":"手形山東町"},"0100841":{"post_code":"0100841","prefecture":"AKITA KEN","city":"AKITA SHI","town":"TEGATAYAMA NISHIMACHI","perfecture_jp":"秋田県","jp_add_1":"秋田市","jp_add_2":"手形山西町"},"0100845":{"post_code":"0100845","prefecture":"AKITA KEN","city":"AKITA SHI","town":"TEGATAYAMA MINAMIMACHI","perfecture_jp":"秋田県","jp_add_1":"秋田市","jp_add_2":"手形山南町"},"0100842":{"post_code":"0100842","prefecture":"AKITA KEN","city":"AKITA SHI","town":"TEGATAYAMA KITAMACHI","perfecture_jp":"秋田県","jp_add_1":"秋田市","jp_add_2":"手形山北町"},"0101651":{"post_code":"0101651","prefecture":"AKITA KEN","city":"AKITA SHI","town":"TOYOIWA ISHIDAZAKA","perfecture_jp":"秋田県","jp_add_1":"秋田市","jp_add_2":"豊岩石田坂"},"0101653":{"post_code":"0101653","prefecture":"AKITA KEN","city":"AKITA SHI","town":"TOYOIWA OYAMA","perfecture_jp":"秋田県","jp_add_1":"秋田市","jp_add_2":"豊岩小山"},"0101652":{"post_code":"0101652","prefecture":"AKITA KEN","city":"AKITA SHI","town":"TOYOIWA TOYOMAKI","perfecture_jp":"秋田県","jp_add_1":"秋田市","jp_add_2":"豊岩豊巻"},"0100001":{"post_code":"0100001","prefecture":"AKITA KEN","city":"AKITA SHI","town":"NAKADORI","perfecture_jp":"秋田県","jp_add_1":"秋田市","jp_add_2":"中通"},"0100034":{"post_code":"0100034","prefecture":"AKITA KEN","city":"AKITA SHI","town":"NARAYAMA","perfecture_jp":"秋田県","jp_add_1":"秋田市","jp_add_2":"楢山"},"0100037":{"post_code":"0100037","prefecture":"AKITA KEN","city":"AKITA SHI","town":"NARAYAMA ATAGOSHITA","perfecture_jp":"秋田県","jp_add_1":"秋田市","jp_add_2":"楢山愛宕下"},"0100033":{"post_code":"0100033","prefecture":"AKITA KEN","city":"AKITA SHI","town":"NARAYAMA ISHIZUKACHO","perfecture_jp":"秋田県","jp_add_1":"秋田市","jp_add_2":"楢山石塚町"},"0100032":{"post_code":"0100032","prefecture":"AKITA KEN","city":"AKITA SHI","town":"NARAYAMA OTAMACHI","perfecture_jp":"秋田県","jp_add_1":"秋田市","jp_add_2":"楢山太田町"},"0100031":{"post_code":"0100031","prefecture":"AKITA KEN","city":"AKITA SHI","town":"NARAYAMA OMOTOMACHI","perfecture_jp":"秋田県","jp_add_1":"秋田市","jp_add_2":"楢山大元町"},"0100029":{"post_code":"0100029","prefecture":"AKITA KEN","city":"AKITA SHI","town":"NARAYAMA KAWAGUCHISAKAI","perfecture_jp":"秋田県","jp_add_1":"秋田市","jp_add_2":"楢山川口境"},"0100028":{"post_code":"0100028","prefecture":"AKITA KEN","city":"AKITA SHI","town":"NARAYAMA KYOWAMACHI","perfecture_jp":"秋田県","jp_add_1":"秋田市","jp_add_2":"楢山共和町"},"0100036":{"post_code":"0100036","prefecture":"AKITA KEN","city":"AKITA SHI","town":"NARAYAMA KINSHOMACHI","perfecture_jp":"秋田県","jp_add_1":"秋田市","jp_add_2":"楢山金照町"},"0100025":{"post_code":"0100025","prefecture":"AKITA KEN","city":"AKITA SHI","town":"NARAYAMA SATAKEMACHI","perfecture_jp":"秋田県","jp_add_1":"秋田市","jp_add_2":"楢山佐竹町"},"0100038":{"post_code":"0100038","prefecture":"AKITA KEN","city":"AKITA SHI","town":"NARAYAMA JONANSHIMMACHI","perfecture_jp":"秋田県","jp_add_1":"秋田市","jp_add_2":"楢山城南新町"},"0100035":{"post_code":"0100035","prefecture":"AKITA KEN","city":"AKITA SHI","town":"NARAYAMA JONAMMACHI","perfecture_jp":"秋田県","jp_add_1":"秋田市","jp_add_2":"楢山城南町"},"0100021":{"post_code":"0100021","prefecture":"AKITA KEN","city":"AKITA SHI","town":"NARAYAMA NOBORIMACHI","perfecture_jp":"秋田県","jp_add_1":"秋田市","jp_add_2":"楢山登町"},"0100026":{"post_code":"0100026","prefecture":"AKITA KEN","city":"AKITA SHI","town":"NARAYAMA FURUKAWASHIMMACHI","perfecture_jp":"秋田県","jp_add_1":"秋田市","jp_add_2":"楢山古川新町"},"0100023":{"post_code":"0100023","prefecture":"AKITA KEN","city":"AKITA SHI","town":"NARAYAMA HONCHO","perfecture_jp":"秋田県","jp_add_1":"秋田市","jp_add_2":"楢山本町"},"0100024":{"post_code":"0100024","prefecture":"AKITA KEN","city":"AKITA SHI","town":"NARAYAMA MINAMISHIMMACHIKAMICHO","perfecture_jp":"秋田県","jp_add_1":"秋田市","jp_add_2":"楢山南新町上丁"},"0100027":{"post_code":"0100027","prefecture":"AKITA KEN","city":"AKITA SHI","town":"NARAYAMA MINAMISHIMMACHISHIMOCHO","perfecture_jp":"秋田県","jp_add_1":"秋田市","jp_add_2":"楢山南新町下丁"},"0100022":{"post_code":"0100022","prefecture":"AKITA KEN","city":"AKITA SHI","town":"NARAYAMA MINAMINAKACHO","perfecture_jp":"秋田県","jp_add_1":"秋田市","jp_add_2":"楢山南中町"},"0101423":{"post_code":"0101423","prefecture":"AKITA KEN","city":"AKITA SHI","town":"NIIDA","perfecture_jp":"秋田県","jp_add_1":"秋田市","jp_add_2":"仁井田"},"0101435":{"post_code":"0101435","prefecture":"AKITA KEN","city":"AKITA SHI","town":"NIIDA KATANAKACHO","perfecture_jp":"秋田県","jp_add_1":"秋田市","jp_add_2":"仁井田潟中町"},"0101426":{"post_code":"0101426","prefecture":"AKITA KEN","city":"AKITA SHI","town":"NIIDA KONAKAJIMA","perfecture_jp":"秋田県","jp_add_1":"秋田市","jp_add_2":"仁井田小中島"},"0101433":{"post_code":"0101433","prefecture":"AKITA KEN","city":"AKITA SHI","town":"NIIDA SAKAECHO","perfecture_jp":"秋田県","jp_add_1":"秋田市","jp_add_2":"仁井田栄町"},"0101427":{"post_code":"0101427","prefecture":"AKITA KEN","city":"AKITA SHI","town":"NIIDA SHINDEN","perfecture_jp":"秋田県","jp_add_1":"秋田市","jp_add_2":"仁井田新田"},"0101434":{"post_code":"0101434","prefecture":"AKITA KEN","city":"AKITA SHI","town":"NIIDA FUKIMICHO","perfecture_jp":"秋田県","jp_add_1":"秋田市","jp_add_2":"仁井田蕗見町"},"0101432":{"post_code":"0101432","prefecture":"AKITA KEN","city":"AKITA SHI","town":"NIIDA FUKUSHIMA","perfecture_jp":"秋田県","jp_add_1":"秋田市","jp_add_2":"仁井田福島"},"0101431":{"post_code":"0101431","prefecture":"AKITA KEN","city":"AKITA SHI","town":"NIIDA FUTATSUYA","perfecture_jp":"秋田県","jp_add_1":"秋田市","jp_add_2":"仁井田二ツ屋"},"0101421":{"post_code":"0101421","prefecture":"AKITA KEN","city":"AKITA SHI","town":"NIIDA HONCHO","perfecture_jp":"秋田県","jp_add_1":"秋田市","jp_add_2":"仁井田本町"},"0101437":{"post_code":"0101437","prefecture":"AKITA KEN","city":"AKITA SHI","town":"NIIDA MIDORICHO","perfecture_jp":"秋田県","jp_add_1":"秋田市","jp_add_2":"仁井田緑町"},"0101422":{"post_code":"0101422","prefecture":"AKITA KEN","city":"AKITA SHI","town":"NIIDA MENAGATA","perfecture_jp":"秋田県","jp_add_1":"秋田市","jp_add_2":"仁井田目長田"},"0100821":{"post_code":"0100821","prefecture":"AKITA KEN","city":"AKITA SHI","town":"NIGORIKAWA","perfecture_jp":"秋田県","jp_add_1":"秋田市","jp_add_2":"濁川"},"0100824":{"post_code":"0100824","prefecture":"AKITA KEN","city":"AKITA SHI","town":"NIBETSU","perfecture_jp":"秋田県","jp_add_1":"秋田市","jp_add_2":"仁別"},"0101654":{"post_code":"0101654","prefecture":"AKITA KEN","city":"AKITA SHI","town":"HAMADA","perfecture_jp":"秋田県","jp_add_1":"秋田市","jp_add_2":"浜田"},"0100065":{"post_code":"0100065","prefecture":"AKITA KEN","city":"AKITA SHI","town":"BARAJIMA","perfecture_jp":"秋田県","jp_add_1":"秋田市","jp_add_2":"茨島"},"0100003":{"post_code":"0100003","prefecture":"AKITA KEN","city":"AKITA SHI","town":"HIGASHIDORI","perfecture_jp":"秋田県","jp_add_1":"秋田市","jp_add_2":"東通"},"0100004":{"post_code":"0100004","prefecture":"AKITA KEN","city":"AKITA SHI","town":"HIGASHIDORI KANNOMMAE","perfecture_jp":"秋田県","jp_add_1":"秋田市","jp_add_2":"東通観音前"},"0100006":{"post_code":"0100006","prefecture":"AKITA KEN","city":"AKITA SHI","town":"HIGASHIDORI TATENOKOSHI","perfecture_jp":"秋田県","jp_add_1":"秋田市","jp_add_2":"東通館ノ越"},"0100002":{"post_code":"0100002","prefecture":"AKITA KEN","city":"AKITA SHI","town":"HIGASHIDORI NAKAMACHI","perfecture_jp":"秋田県","jp_add_1":"秋田市","jp_add_2":"東通仲町"},"0100005":{"post_code":"0100005","prefecture":"AKITA KEN","city":"AKITA SHI","town":"HIGASHIDORI MYODEN","perfecture_jp":"秋田県","jp_add_1":"秋田市","jp_add_2":"東通明田"},"0100041":{"post_code":"0100041","prefecture":"AKITA KEN","city":"AKITA SHI","town":"HIROMOTE","perfecture_jp":"秋田県","jp_add_1":"秋田市","jp_add_2":"広面"},"0100853":{"post_code":"0100853","prefecture":"AKITA KEN","city":"AKITA SHI","town":"HEBINO","perfecture_jp":"秋田県","jp_add_1":"秋田市","jp_add_2":"蛇野"},"0100915":{"post_code":"0100915","prefecture":"AKITA KEN","city":"AKITA SHI","town":"HODONO","perfecture_jp":"秋田県","jp_add_1":"秋田市","jp_add_2":"保戸野"},"0100902":{"post_code":"0100902","prefecture":"AKITA KEN","city":"AKITA SHI","town":"HODONO KANASAMACHI","perfecture_jp":"秋田県","jp_add_1":"秋田市","jp_add_2":"保戸野金砂町"},"0100901":{"post_code":"0100901","prefecture":"AKITA KEN","city":"AKITA SHI","town":"HODONO SAKURAMACHI","perfecture_jp":"秋田県","jp_add_1":"秋田市","jp_add_2":"保戸野桜町"},"0100911":{"post_code":"0100911","prefecture":"AKITA KEN","city":"AKITA SHI","town":"HODONO SUWACHO","perfecture_jp":"秋田県","jp_add_1":"秋田市","jp_add_2":"保戸野すわ町"},"0100914":{"post_code":"0100914","prefecture":"AKITA KEN","city":"AKITA SHI","town":"HODONO CHIYODAMACHI","perfecture_jp":"秋田県","jp_add_1":"秋田市","jp_add_2":"保戸野千代田町"},"0100913":{"post_code":"0100913","prefecture":"AKITA KEN","city":"AKITA SHI","town":"HODONO TEPPOMACHI","perfecture_jp":"秋田県","jp_add_1":"秋田市","jp_add_2":"保戸野鉄砲町"},"0100912":{"post_code":"0100912","prefecture":"AKITA KEN","city":"AKITA SHI","town":"HODONO TORIMACHI","perfecture_jp":"秋田県","jp_add_1":"秋田市","jp_add_2":"保戸野通町"},"0100905":{"post_code":"0100905","prefecture":"AKITA KEN","city":"AKITA SHI","town":"HODONO NAKACHO","perfecture_jp":"秋田県","jp_add_1":"秋田市","jp_add_2":"保戸野中町"},"0100903":{"post_code":"0100903","prefecture":"AKITA KEN","city":"AKITA SHI","town":"HODONO HATCHO","perfecture_jp":"秋田県","jp_add_1":"秋田市","jp_add_2":"保戸野八丁"},"0100904":{"post_code":"0100904","prefecture":"AKITA KEN","city":"AKITA SHI","town":"HODONO HARANOMACHI","perfecture_jp":"秋田県","jp_add_1":"秋田市","jp_add_2":"保戸野原の町"},"0100011":{"post_code":"0100011","prefecture":"AKITA KEN","city":"AKITA SHI","town":"MINAMIDORI KAMENOCHO","perfecture_jp":"秋田県","jp_add_1":"秋田市","jp_add_2":"南通亀の町"},"0100013":{"post_code":"0100013","prefecture":"AKITA KEN","city":"AKITA SHI","town":"MINAMIDORI TSUKIJI","perfecture_jp":"秋田県","jp_add_1":"秋田市","jp_add_2":"南通築地"},"0100012":{"post_code":"0100012","prefecture":"AKITA KEN","city":"AKITA SHI","town":"MINAMIDORI MISONOMACHI","perfecture_jp":"秋田県","jp_add_1":"秋田市","jp_add_2":"南通みその町"},"0100014":{"post_code":"0100014","prefecture":"AKITA KEN","city":"AKITA SHI","town":"MINAMIDORI MIYATA","perfecture_jp":"秋田県","jp_add_1":"秋田市","jp_add_2":"南通宮田"},"0101601":{"post_code":"0101601","prefecture":"AKITA KEN","city":"AKITA SHI","town":"MUKAIHAMA","perfecture_jp":"秋田県","jp_add_1":"秋田市","jp_add_2":"向浜"},"0100825":{"post_code":"0100825","prefecture":"AKITA KEN","city":"AKITA SHI","town":"YANAGIDA","perfecture_jp":"秋田県","jp_add_1":"秋田市","jp_add_2":"柳田"},"0100975":{"post_code":"0100975","prefecture":"AKITA KEN","city":"AKITA SHI","town":"YABASE","perfecture_jp":"秋田県","jp_add_1":"秋田市","jp_add_2":"八橋"},"0100961":{"post_code":"0100961","prefecture":"AKITA KEN","city":"AKITA SHI","town":"YABASE ISANO","perfecture_jp":"秋田県","jp_add_1":"秋田市","jp_add_2":"八橋イサノ"},"0100974":{"post_code":"0100974","prefecture":"AKITA KEN","city":"AKITA SHI","town":"YABASE UNDOKOEN","perfecture_jp":"秋田県","jp_add_1":"秋田市","jp_add_2":"八橋運動公園"},"0100963":{"post_code":"0100963","prefecture":"AKITA KEN","city":"AKITA SHI","town":"YABASE ONUMACHO","perfecture_jp":"秋田県","jp_add_1":"秋田市","jp_add_2":"八橋大沼町"},"0100962":{"post_code":"0100962","prefecture":"AKITA KEN","city":"AKITA SHI","town":"YABASE OHATA","perfecture_jp":"秋田県","jp_add_1":"秋田市","jp_add_2":"八橋大畑"},"0100965":{"post_code":"0100965","prefecture":"AKITA KEN","city":"AKITA SHI","town":"YABASE SHINKAWAMUKAI","perfecture_jp":"秋田県","jp_add_1":"秋田市","jp_add_2":"八橋新川向"},"0100977":{"post_code":"0100977","prefecture":"AKITA KEN","city":"AKITA SHI","town":"YABASE DAIDOHIGASHI","perfecture_jp":"秋田県","jp_add_1":"秋田市","jp_add_2":"八橋大道東"},"0100972":{"post_code":"0100972","prefecture":"AKITA KEN","city":"AKITA SHI","town":"YABASE TAGORO","perfecture_jp":"秋田県","jp_add_1":"秋田市","jp_add_2":"八橋田五郎"},"0100964":{"post_code":"0100964","prefecture":"AKITA KEN","city":"AKITA SHI","town":"YABASE DOJONUMAMACHI","perfecture_jp":"秋田県","jp_add_1":"秋田市","jp_add_2":"八橋鯲沼町"},"0100973":{"post_code":"0100973","prefecture":"AKITA KEN","city":"AKITA SHI","town":"YABASE HONCHO","perfecture_jp":"秋田県","jp_add_1":"秋田市","jp_add_2":"八橋本町"},"0100976":{"post_code":"0100976","prefecture":"AKITA KEN","city":"AKITA SHI","town":"YABASE MINAMI","perfecture_jp":"秋田県","jp_add_1":"秋田市","jp_add_2":"八橋南"},"0100971":{"post_code":"0100971","prefecture":"AKITA KEN","city":"AKITA SHI","town":"YABASE MIWACHO","perfecture_jp":"秋田県","jp_add_1":"秋田市","jp_add_2":"八橋三和町"},"0101429":{"post_code":"0101429","prefecture":"AKITA KEN","city":"AKITA SHI","town":"YAMATEDAI","perfecture_jp":"秋田県","jp_add_1":"秋田市","jp_add_2":"山手台"},"0101231":{"post_code":"0101231","prefecture":"AKITA KEN","city":"AKITA SHI","town":"YUWA AIKAWA","perfecture_jp":"秋田県","jp_add_1":"秋田市","jp_add_2":"雄和相川"},"0101341":{"post_code":"0101341","prefecture":"AKITA KEN","city":"AKITA SHI","town":"YUWA ARAWA","perfecture_jp":"秋田県","jp_add_1":"秋田市","jp_add_2":"雄和新波"},"0101351":{"post_code":"0101351","prefecture":"AKITA KEN","city":"AKITA SHI","town":"YUWA IKARIDA","perfecture_jp":"秋田県","jp_add_1":"秋田市","jp_add_2":"雄和碇田"},"0101222":{"post_code":"0101222","prefecture":"AKITA KEN","city":"AKITA SHI","town":"YUWA ISHIDA","perfecture_jp":"秋田県","jp_add_1":"秋田市","jp_add_2":"雄和石田"},"0101352":{"post_code":"0101352","prefecture":"AKITA KEN","city":"AKITA SHI","town":"YUWA KAYAGASAWA","perfecture_jp":"秋田県","jp_add_1":"秋田市","jp_add_2":"雄和萱ケ沢"},"0101225":{"post_code":"0101225","prefecture":"AKITA KEN","city":"AKITA SHI","town":"YUWA SADEKO","perfecture_jp":"秋田県","jp_add_1":"秋田市","jp_add_2":"雄和左手子"},"0101202":{"post_code":"0101202","prefecture":"AKITA KEN","city":"AKITA SHI","town":"YUWA SHIBANOSHINDEN","perfecture_jp":"秋田県","jp_add_1":"秋田市","jp_add_2":"雄和芝野新田"},"0101203":{"post_code":"0101203","prefecture":"AKITA KEN","city":"AKITA SHI","town":"YUWA SHIMOKUROSE","perfecture_jp":"秋田県","jp_add_1":"秋田市","jp_add_2":"雄和下黒瀬"},"0101342":{"post_code":"0101342","prefecture":"AKITA KEN","city":"AKITA SHI","town":"YUWA JINGAMURA","perfecture_jp":"秋田県","jp_add_1":"秋田市","jp_add_2":"雄和神ケ村"},"0101201":{"post_code":"0101201","prefecture":"AKITA KEN","city":"AKITA SHI","town":"YUWA TAKUSAGAWA","perfecture_jp":"秋田県","jp_add_1":"秋田市","jp_add_2":"雄和田草川"},"0101224":{"post_code":"0101224","prefecture":"AKITA KEN","city":"AKITA SHI","town":"YUWA TANEZAWA","perfecture_jp":"秋田県","jp_add_1":"秋田市","jp_add_2":"雄和種沢"},"0101343":{"post_code":"0101343","prefecture":"AKITA KEN","city":"AKITA SHI","town":"YUWA TSUNAGI","perfecture_jp":"秋田県","jp_add_1":"秋田市","jp_add_2":"雄和繋"},"0101211":{"post_code":"0101211","prefecture":"AKITA KEN","city":"AKITA SHI","town":"YUWA TSUBAKIKAWA","perfecture_jp":"秋田県","jp_add_1":"秋田市","jp_add_2":"雄和椿川"},"0101232":{"post_code":"0101232","prefecture":"AKITA KEN","city":"AKITA SHI","town":"YUWA TOGAZAWA","perfecture_jp":"秋田県","jp_add_1":"秋田市","jp_add_2":"雄和戸賀沢"},"0101212":{"post_code":"0101212","prefecture":"AKITA KEN","city":"AKITA SHI","town":"YUWA HIRAOTORI","perfecture_jp":"秋田県","jp_add_1":"秋田市","jp_add_2":"雄和平尾鳥"},"0101221":{"post_code":"0101221","prefecture":"AKITA KEN","city":"AKITA SHI","town":"YUWA HIRASAWA","perfecture_jp":"秋田県","jp_add_1":"秋田市","jp_add_2":"雄和平沢"},"0101223":{"post_code":"0101223","prefecture":"AKITA KEN","city":"AKITA SHI","town":"YUWA MYOHO","perfecture_jp":"秋田県","jp_add_1":"秋田市","jp_add_2":"雄和妙法"},"0101344":{"post_code":"0101344","prefecture":"AKITA KEN","city":"AKITA SHI","town":"YUWA MUKAINO","perfecture_jp":"秋田県","jp_add_1":"秋田市","jp_add_2":"雄和向野"},"0101233":{"post_code":"0101233","prefecture":"AKITA KEN","city":"AKITA SHI","town":"YUWA MEMEKI","perfecture_jp":"秋田県","jp_add_1":"秋田市","jp_add_2":"雄和女米木"},"0100044":{"post_code":"0100044","prefecture":"AKITA KEN","city":"AKITA SHI","town":"YOKOMORI","perfecture_jp":"秋田県","jp_add_1":"秋田市","jp_add_2":"横森"},"0101417":{"post_code":"0101417","prefecture":"AKITA KEN","city":"AKITA SHI","town":"YOTSUGOYA","perfecture_jp":"秋田県","jp_add_1":"秋田市","jp_add_2":"四ツ小屋"},"0101418":{"post_code":"0101418","prefecture":"AKITA KEN","city":"AKITA SHI","town":"YOTSUGOYA KOAJI","perfecture_jp":"秋田県","jp_add_1":"秋田市","jp_add_2":"四ツ小屋小阿地"},"0101416":{"post_code":"0101416","prefecture":"AKITA KEN","city":"AKITA SHI","town":"YOTSUGOYA SUEDOMATSUMOTO","perfecture_jp":"秋田県","jp_add_1":"秋田市","jp_add_2":"四ツ小屋末戸松本"},"0100500":{"post_code":"0100500","prefecture":"AKITA KEN","city":"OGA SHI","town":"IKANIKEISAIGANAIBAAI","perfecture_jp":"秋田県","jp_add_1":"男鹿市","jp_add_2":""},"0100353":{"post_code":"0100353","prefecture":"AKITA KEN","city":"OGA SHI","town":"IRIAI KAMIYA","perfecture_jp":"秋田県","jp_add_1":"男鹿市","jp_add_2":"五里合神谷"},"0100352":{"post_code":"0100352","prefecture":"AKITA KEN","city":"OGA SHI","town":"IRIAI KOTOGAWA","perfecture_jp":"秋田県","jp_add_1":"男鹿市","jp_add_2":"五里合琴川"},"0100355":{"post_code":"0100355","prefecture":"AKITA KEN","city":"OGA SHI","town":"IRIAI SHIBIKAWA","perfecture_jp":"秋田県","jp_add_1":"男鹿市","jp_add_2":"五里合鮪川"},"0100354":{"post_code":"0100354","prefecture":"AKITA KEN","city":"OGA SHI","town":"IRIAI CHUISHI","perfecture_jp":"秋田県","jp_add_1":"男鹿市","jp_add_2":"五里合中石"},"0100351":{"post_code":"0100351","prefecture":"AKITA KEN","city":"OGA SHI","town":"IRIAI HAKOI","perfecture_jp":"秋田県","jp_add_1":"男鹿市","jp_add_2":"五里合箱井"},"0100421":{"post_code":"0100421","prefecture":"AKITA KEN","city":"OGA SHI","town":"UNOKI","perfecture_jp":"秋田県","jp_add_1":"男鹿市","jp_add_2":"鵜木"},"0100664":{"post_code":"0100664","prefecture":"AKITA KEN","city":"OGA SHI","town":"OGANAKA KOKUYUCHINAI","perfecture_jp":"秋田県","jp_add_1":"男鹿市","jp_add_2":"男鹿中国有地内"},"0100663":{"post_code":"0100663","prefecture":"AKITA KEN","city":"OGA SHI","town":"OGANAKA TAKIGAWA","perfecture_jp":"秋田県","jp_add_1":"男鹿市","jp_add_2":"男鹿中滝川"},"0100662":{"post_code":"0100662","prefecture":"AKITA KEN","city":"OGA SHI","town":"OGANAKA NAKAMAGUCHI","perfecture_jp":"秋田県","jp_add_1":"男鹿市","jp_add_2":"男鹿中中間口"},"0100661":{"post_code":"0100661","prefecture":"AKITA KEN","city":"OGA SHI","town":"OGANAKA HAMAMAGUCHI","perfecture_jp":"秋田県","jp_add_1":"男鹿市","jp_add_2":"男鹿中浜間口"},"0100665":{"post_code":"0100665","prefecture":"AKITA KEN","city":"OGA SHI","town":"OGANAKA YAMAMACHI","perfecture_jp":"秋田県","jp_add_1":"男鹿市","jp_add_2":"男鹿中山町"},"0100422":{"post_code":"0100422","prefecture":"AKITA KEN","city":"OGA SHI","town":"KAKUMAZAKI","perfecture_jp":"秋田県","jp_add_1":"男鹿市","jp_add_2":"角間崎"},"0100681":{"post_code":"0100681","prefecture":"AKITA KEN","city":"OGA SHI","town":"KITAURA AIKAWA","perfecture_jp":"秋田県","jp_add_1":"男鹿市","jp_add_2":"北浦相川"},"0100684":{"post_code":"0100684","prefecture":"AKITA KEN","city":"OGA SHI","town":"KITAURA ANZENJI","perfecture_jp":"秋田県","jp_add_1":"男鹿市","jp_add_2":"北浦安全寺"},"0100682":{"post_code":"0100682","prefecture":"AKITA KEN","city":"OGA SHI","town":"KITAURA OMOTEMACHI","perfecture_jp":"秋田県","jp_add_1":"男鹿市","jp_add_2":"北浦表町"},"0100683":{"post_code":"0100683","prefecture":"AKITA KEN","city":"OGA SHI","town":"KITAURA KITAURA","perfecture_jp":"秋田県","jp_add_1":"男鹿市","jp_add_2":"北浦北浦"},"0100685":{"post_code":"0100685","prefecture":"AKITA KEN","city":"OGA SHI","town":"KITAURA SHINZAN","perfecture_jp":"秋田県","jp_add_1":"男鹿市","jp_add_2":"北浦真山"},"0100676":{"post_code":"0100676","prefecture":"AKITA KEN","city":"OGA SHI","town":"KITAURA NISHIKUROSAWA","perfecture_jp":"秋田県","jp_add_1":"男鹿市","jp_add_2":"北浦西黒沢"},"0100686":{"post_code":"0100686","prefecture":"AKITA KEN","city":"OGA SHI","town":"KITAURA NISHIMIZUGUCHI","perfecture_jp":"秋田県","jp_add_1":"男鹿市","jp_add_2":"北浦西水口"},"0100675":{"post_code":"0100675","prefecture":"AKITA KEN","city":"OGA SHI","town":"KITAURA NYUDOZAKI","perfecture_jp":"秋田県","jp_add_1":"男鹿市","jp_add_2":"北浦入道崎"},"0100688":{"post_code":"0100688","prefecture":"AKITA KEN","city":"OGA SHI","town":"KITAURA NOMURA","perfecture_jp":"秋田県","jp_add_1":"男鹿市","jp_add_2":"北浦野村"},"0100687":{"post_code":"0100687","prefecture":"AKITA KEN","city":"OGA SHI","town":"KITAURA YUMOTO","perfecture_jp":"秋田県","jp_add_1":"男鹿市","jp_add_2":"北浦湯本"},"0100671":{"post_code":"0100671","prefecture":"AKITA KEN","city":"OGA SHI","town":"TOGA KAMOAOSA","perfecture_jp":"秋田県","jp_add_1":"男鹿市","jp_add_2":"戸賀加茂青砂"},"0100673":{"post_code":"0100673","prefecture":"AKITA KEN","city":"OGA SHI","town":"TOGA SHIOHAMA","perfecture_jp":"秋田県","jp_add_1":"男鹿市","jp_add_2":"戸賀塩浜"},"0100674":{"post_code":"0100674","prefecture":"AKITA KEN","city":"OGA SHI","town":"TOGA TOGA","perfecture_jp":"秋田県","jp_add_1":"男鹿市","jp_add_2":"戸賀戸賀"},"0100672":{"post_code":"0100672","prefecture":"AKITA KEN","city":"OGA SHI","town":"TOGA HAMASHIOYA","perfecture_jp":"秋田県","jp_add_1":"男鹿市","jp_add_2":"戸賀浜塩谷"},"0100401":{"post_code":"0100401","prefecture":"AKITA KEN","city":"OGA SHI","town":"NOISHI","perfecture_jp":"秋田県","jp_add_1":"男鹿市","jp_add_2":"野石"},"0100423":{"post_code":"0100423","prefecture":"AKITA KEN","city":"OGA SHI","town":"FUKUGAWA","perfecture_jp":"秋田県","jp_add_1":"男鹿市","jp_add_2":"福川"},"0100411":{"post_code":"0100411","prefecture":"AKITA KEN","city":"OGA SHI","town":"FUKUMEZAWA","perfecture_jp":"秋田県","jp_add_1":"男鹿市","jp_add_2":"福米沢"},"0100431":{"post_code":"0100431","prefecture":"AKITA KEN","city":"OGA SHI","town":"FUTTO","perfecture_jp":"秋田県","jp_add_1":"男鹿市","jp_add_2":"払戸"},"0100523":{"post_code":"0100523","prefecture":"AKITA KEN","city":"OGA SHI","town":"FUNAGAWAMINATO ONNAGAWA","perfecture_jp":"秋田県","jp_add_1":"男鹿市","jp_add_2":"船川港女川"},"0100503":{"post_code":"0100503","prefecture":"AKITA KEN","city":"OGA SHI","town":"FUNAGAWAMINATO KANEGAWA","perfecture_jp":"秋田県","jp_add_1":"男鹿市","jp_add_2":"船川港金川"},"0100534":{"post_code":"0100534","prefecture":"AKITA KEN","city":"OGA SHI","town":"FUNAGAWAMINATO KOHAMA","perfecture_jp":"秋田県","jp_add_1":"男鹿市","jp_add_2":"船川港小浜"},"0100533":{"post_code":"0100533","prefecture":"AKITA KEN","city":"OGA SHI","town":"FUNAGAWAMINATO SUGOROKU","perfecture_jp":"秋田県","jp_add_1":"男鹿市","jp_add_2":"船川港双六"},"0100531":{"post_code":"0100531","prefecture":"AKITA KEN","city":"OGA SHI","town":"FUNAGAWAMINATO DAISHIMA","perfecture_jp":"秋田県","jp_add_1":"男鹿市","jp_add_2":"船川港台島"},"0100532":{"post_code":"0100532","prefecture":"AKITA KEN","city":"OGA SHI","town":"FUNAGAWAMINATO TSUBAKI","perfecture_jp":"秋田県","jp_add_1":"男鹿市","jp_add_2":"船川港椿"},"0100501":{"post_code":"0100501","prefecture":"AKITA KEN","city":"OGA SHI","town":"FUNAGAWAMINATO NIIYAMA","perfecture_jp":"秋田県","jp_add_1":"男鹿市","jp_add_2":"船川港仁井山"},"0100502":{"post_code":"0100502","prefecture":"AKITA KEN","city":"OGA SHI","town":"FUNAGAWAMINATO HIZUME","perfecture_jp":"秋田県","jp_add_1":"男鹿市","jp_add_2":"船川港比詰"},"0100511":{"post_code":"0100511","prefecture":"AKITA KEN","city":"OGA SHI","town":"FUNAGAWAMINATO FUNAGAWA","perfecture_jp":"秋田県","jp_add_1":"男鹿市","jp_add_2":"船川港船川"},"0100535":{"post_code":"0100535","prefecture":"AKITA KEN","city":"OGA SHI","town":"FUNAGAWAMINATO HONZAMMONZEN","perfecture_jp":"秋田県","jp_add_1":"男鹿市","jp_add_2":"船川港本山門前"},"0100522":{"post_code":"0100522","prefecture":"AKITA KEN","city":"OGA SHI","town":"FUNAGAWAMINATO MASUGAWA","perfecture_jp":"秋田県","jp_add_1":"男鹿市","jp_add_2":"船川港増川"},"0100521":{"post_code":"0100521","prefecture":"AKITA KEN","city":"OGA SHI","town":"FUNAGAWAMINATO MINAMIHIRASAWA","perfecture_jp":"秋田県","jp_add_1":"男鹿市","jp_add_2":"船川港南平沢"},"0100341":{"post_code":"0100341","prefecture":"AKITA KEN","city":"OGA SHI","town":"FUNAKOSHI","perfecture_jp":"秋田県","jp_add_1":"男鹿市","jp_add_2":"船越"},"0100412":{"post_code":"0100412","prefecture":"AKITA KEN","city":"OGA SHI","town":"HONNAI","perfecture_jp":"秋田県","jp_add_1":"男鹿市","jp_add_2":"本内"},"0100413":{"post_code":"0100413","prefecture":"AKITA KEN","city":"OGA SHI","town":"MATSUKISAWA","perfecture_jp":"秋田県","jp_add_1":"男鹿市","jp_add_2":"松木沢"},"0100345":{"post_code":"0100345","prefecture":"AKITA KEN","city":"OGA SHI","town":"WAKIMOTO URADA","perfecture_jp":"秋田県","jp_add_1":"男鹿市","jp_add_2":"脇本浦田"},"0100343":{"post_code":"0100343","prefecture":"AKITA KEN","city":"OGA SHI","town":"WAKIMOTO TAYAZAWA","perfecture_jp":"秋田県","jp_add_1":"男鹿市","jp_add_2":"脇本田谷沢"},"0100346":{"post_code":"0100346","prefecture":"AKITA KEN","city":"OGA SHI","town":"WAKIMOTO TARUZAWA","perfecture_jp":"秋田県","jp_add_1":"男鹿市","jp_add_2":"脇本樽沢"},"0100344":{"post_code":"0100344","prefecture":"AKITA KEN","city":"OGA SHI","town":"WAKIMOTO TOMINAGA","perfecture_jp":"秋田県","jp_add_1":"男鹿市","jp_add_2":"脇本富永"},"0100347":{"post_code":"0100347","prefecture":"AKITA KEN","city":"OGA SHI","town":"WAKIMOTO MOMOKAWA","perfecture_jp":"秋田県","jp_add_1":"男鹿市","jp_add_2":"脇本百川"},"0100342":{"post_code":"0100342","prefecture":"AKITA KEN","city":"OGA SHI","town":"WAKIMOTO WAKIMOTO","perfecture_jp":"秋田県","jp_add_1":"男鹿市","jp_add_2":"脇本脇本"},"0100202":{"post_code":"0100202","prefecture":"AKITA KEN","city":"KATAGAMI SHI","town":"TENNO OSAKI","perfecture_jp":"秋田県","jp_add_1":"潟上市","jp_add_2":"天王大崎"},"0100101":{"post_code":"0100101","prefecture":"AKITA KEN","city":"KATAGAMI SHI","town":"TENNO(OIWAKE.OIWAKENISHI.KAMIKITANO","perfecture_jp":"秋田県","jp_add_1":"潟上市","jp_add_2":"天王"},"0100201":{"post_code":"0100201","prefecture":"AKITA KEN","city":"KATAGAMI SHI","town":"TENNO(SONOTA)","perfecture_jp":"秋田県","jp_add_1":"潟上市","jp_add_2":"天王"},"0100400":{"post_code":"0100400","prefecture":"AKITA KEN","city":"MINAMIAKITA GUN OGATA MURA","town":"IKANIKEISAIGANAIBAAI","perfecture_jp":"秋田県","jp_add_1":"南秋田郡大潟村","jp_add_2":""},"0100451":{"post_code":"0100451","prefecture":"AKITA KEN","city":"MINAMIAKITA GUN OGATA MURA","town":"OGATA","perfecture_jp":"秋田県","jp_add_1":"南秋田郡大潟村","jp_add_2":"大潟"},"0100452":{"post_code":"0100452","prefecture":"AKITA KEN","city":"MINAMIAKITA GUN OGATA MURA","town":"KATAGAMI","perfecture_jp":"秋田県","jp_add_1":"南秋田郡大潟村","jp_add_2":"方上"},"0100453":{"post_code":"0100453","prefecture":"AKITA KEN","city":"MINAMIAKITA GUN OGATA MURA","town":"KATAGUCHI","perfecture_jp":"秋田県","jp_add_1":"南秋田郡大潟村","jp_add_2":"方口"},"0100441":{"post_code":"0100441","prefecture":"AKITA KEN","city":"MINAMIAKITA GUN OGATA MURA","town":"KITA","perfecture_jp":"秋田県","jp_add_1":"南秋田郡大潟村","jp_add_2":"北"},"0100443":{"post_code":"0100443","prefecture":"AKITA KEN","city":"MINAMIAKITA GUN OGATA MURA","town":"CHUO","perfecture_jp":"秋田県","jp_add_1":"南秋田郡大潟村","jp_add_2":"中央"},"0100454":{"post_code":"0100454","prefecture":"AKITA KEN","city":"MINAMIAKITA GUN OGATA MURA","town":"NAKANO","perfecture_jp":"秋田県","jp_add_1":"南秋田郡大潟村","jp_add_2":"中野"},"0100445":{"post_code":"0100445","prefecture":"AKITA KEN","city":"MINAMIAKITA GUN OGATA MURA","town":"NISHI","perfecture_jp":"秋田県","jp_add_1":"南秋田郡大潟村","jp_add_2":"西"},"0100455":{"post_code":"0100455","prefecture":"AKITA KEN","city":"MINAMIAKITA GUN OGATA MURA","town":"NISHINO","perfecture_jp":"秋田県","jp_add_1":"南秋田郡大潟村","jp_add_2":"西野"},"0100442":{"post_code":"0100442","prefecture":"AKITA KEN","city":"MINAMIAKITA GUN OGATA MURA","town":"HIGASHI","perfecture_jp":"秋田県","jp_add_1":"南秋田郡大潟村","jp_add_2":"東"},"0100456":{"post_code":"0100456","prefecture":"AKITA KEN","city":"MINAMIAKITA GUN OGATA MURA","town":"HIGASHINO","perfecture_jp":"秋田県","jp_add_1":"南秋田郡大潟村","jp_add_2":"東野"},"0100444":{"post_code":"0100444","prefecture":"AKITA KEN","city":"MINAMIAKITA GUN OGATA MURA","town":"MINAMI","perfecture_jp":"秋田県","jp_add_1":"南秋田郡大潟村","jp_add_2":"南"}}