{"0120000":{"post_code":"0120000","prefecture":"AKITA KEN","city":"YUZAWA SHI","town":"IKANIKEISAIGANAIBAAI","perfecture_jp":"秋田県","jp_add_1":"湯沢市","jp_add_2":""},"0120024":{"post_code":"0120024","prefecture":"AKITA KEN","city":"YUZAWA SHI","town":"AKATSUCHI","perfecture_jp":"秋田県","jp_add_1":"湯沢市","jp_add_2":"赤土"},"0120855":{"post_code":"0120855","prefecture":"AKITA KEN","city":"YUZAWA SHI","town":"ATAGOCHO","perfecture_jp":"秋田県","jp_add_1":"湯沢市","jp_add_2":"愛宕町"},"0120042":{"post_code":"0120042","prefecture":"AKITA KEN","city":"YUZAWA SHI","town":"AZUKITA","perfecture_jp":"秋田県","jp_add_1":"湯沢市","jp_add_2":"小豆田"},"0120852":{"post_code":"0120852","prefecture":"AKITA KEN","city":"YUZAWA SHI","town":"ARAMACHI","perfecture_jp":"秋田県","jp_add_1":"湯沢市","jp_add_2":"荒町"},"0120062":{"post_code":"0120062","prefecture":"AKITA KEN","city":"YUZAWA SHI","town":"ISHIZUKA","perfecture_jp":"秋田県","jp_add_1":"湯沢市","jp_add_2":"石塚"},"0120107":{"post_code":"0120107","prefecture":"AKITA KEN","city":"YUZAWA SHI","town":"INANIWACHO","perfecture_jp":"秋田県","jp_add_1":"湯沢市","jp_add_2":"稲庭町"},"0120022":{"post_code":"0120022","prefecture":"AKITA KEN","city":"YUZAWA SHI","town":"IWAIDA","perfecture_jp":"秋田県","jp_add_1":"湯沢市","jp_add_2":"祝田"},"0120801":{"post_code":"0120801","prefecture":"AKITA KEN","city":"YUZAWA SHI","town":"IWASAKI","perfecture_jp":"秋田県","jp_add_1":"湯沢市","jp_add_2":"岩崎"},"0120834":{"post_code":"0120834","prefecture":"AKITA KEN","city":"YUZAWA SHI","town":"IWANOSAWAYAMA","perfecture_jp":"秋田県","jp_add_1":"湯沢市","jp_add_2":"岩ノ沢山"},"0120842":{"post_code":"0120842","prefecture":"AKITA KEN","city":"YUZAWA SHI","town":"UCHIDATEMACHI","perfecture_jp":"秋田県","jp_add_1":"湯沢市","jp_add_2":"内舘町"},"0120843":{"post_code":"0120843","prefecture":"AKITA KEN","city":"YUZAWA SHI","town":"UCHIMACHI","perfecture_jp":"秋田県","jp_add_1":"湯沢市","jp_add_2":"内町"},"0120824":{"post_code":"0120824","prefecture":"AKITA KEN","city":"YUZAWA SHI","town":"SATAKECHO","perfecture_jp":"秋田県","jp_add_1":"湯沢市","jp_add_2":"裏門"},"0120014":{"post_code":"0120014","prefecture":"AKITA KEN","city":"YUZAWA SHI","town":"OKURAYACHI","perfecture_jp":"秋田県","jp_add_1":"湯沢市","jp_add_2":"大倉谷地"},"0120026":{"post_code":"0120026","prefecture":"AKITA KEN","city":"YUZAWA SHI","town":"OSHIMA","perfecture_jp":"秋田県","jp_add_1":"湯沢市","jp_add_2":"大島"},"0120841":{"post_code":"0120841","prefecture":"AKITA KEN","city":"YUZAWA SHI","town":"OMACHI","perfecture_jp":"秋田県","jp_add_1":"湯沢市","jp_add_2":"大町"},"0120012":{"post_code":"0120012","prefecture":"AKITA KEN","city":"YUZAWA SHI","town":"OMORI","perfecture_jp":"秋田県","jp_add_1":"湯沢市","jp_add_2":"大森"},"0120045":{"post_code":"0120045","prefecture":"AKITA KEN","city":"YUZAWA SHI","town":"OKADAMACHI","perfecture_jp":"秋田県","jp_add_1":"湯沢市","jp_add_2":"岡田町"},"0120057":{"post_code":"0120057","prefecture":"AKITA KEN","city":"YUZAWA SHI","town":"OGACHITA","perfecture_jp":"秋田県","jp_add_1":"湯沢市","jp_add_2":"雄勝田"},"0120856":{"post_code":"0120856","prefecture":"AKITA KEN","city":"YUZAWA SHI","town":"OKACHIMACHI","perfecture_jp":"秋田県","jp_add_1":"湯沢市","jp_add_2":"御囲地町"},"0120023":{"post_code":"0120023","prefecture":"AKITA KEN","city":"YUZAWA SHI","town":"OKITA","perfecture_jp":"秋田県","jp_add_1":"湯沢市","jp_add_2":"沖田"},"0120037":{"post_code":"0120037","prefecture":"AKITA KEN","city":"YUZAWA SHI","town":"OKITSURU","perfecture_jp":"秋田県","jp_add_1":"湯沢市","jp_add_2":"沖鶴"},"0120827":{"post_code":"0120827","prefecture":"AKITA KEN","city":"YUZAWA SHI","town":"OMOTEMACHI","perfecture_jp":"秋田県","jp_add_1":"湯沢市","jp_add_2":"表町"},"0120001":{"post_code":"0120001","prefecture":"AKITA KEN","city":"YUZAWA SHI","town":"KAKUMA","perfecture_jp":"秋田県","jp_add_1":"湯沢市","jp_add_2":"角間"},"0120831":{"post_code":"0120831","prefecture":"AKITA KEN","city":"YUZAWA SHI","town":"KAKUMAZAWA","perfecture_jp":"秋田県","jp_add_1":"湯沢市","jp_add_2":"角間沢"},"0120833":{"post_code":"0120833","prefecture":"AKITA KEN","city":"YUZAWA SHI","town":"KAKKUISAWAYAMA","perfecture_jp":"秋田県","jp_add_1":"湯沢市","jp_add_2":"カツクイ沢山"},"0120005":{"post_code":"0120005","prefecture":"AKITA KEN","city":"YUZAWA SHI","town":"KANAYA","perfecture_jp":"秋田県","jp_add_1":"湯沢市","jp_add_2":"金谷"},"0120835":{"post_code":"0120835","prefecture":"AKITA KEN","city":"YUZAWA SHI","town":"KANEUCHIZAWA","perfecture_jp":"秋田県","jp_add_1":"湯沢市","jp_add_2":"鉦打沢"},"0120836":{"post_code":"0120836","prefecture":"AKITA KEN","city":"YUZAWA SHI","town":"KANEHORIZAWAYAMA","perfecture_jp":"秋田県","jp_add_1":"湯沢市","jp_add_2":"金堀沢山"},"0120864":{"post_code":"0120864","prefecture":"AKITA KEN","city":"YUZAWA SHI","town":"KAMISEKI","perfecture_jp":"秋田県","jp_add_1":"湯沢市","jp_add_2":"上関"},"0120003":{"post_code":"0120003","prefecture":"AKITA KEN","city":"YUZAWA SHI","town":"KAMINIIDA","perfecture_jp":"秋田県","jp_add_1":"湯沢市","jp_add_2":"上二井田"},"0120105":{"post_code":"0120105","prefecture":"AKITA KEN","city":"YUZAWA SHI","town":"KAWATSURACHO","perfecture_jp":"秋田県","jp_add_1":"湯沢市","jp_add_2":"川連町"},"0120825":{"post_code":"0120825","prefecture":"AKITA KEN","city":"YUZAWA SHI","town":"KITAARAMACHI","perfecture_jp":"秋田県","jp_add_1":"湯沢市","jp_add_2":"北荒町"},"0120015":{"post_code":"0120015","prefecture":"AKITA KEN","city":"YUZAWA SHI","town":"KURAUCHI","perfecture_jp":"秋田県","jp_add_1":"湯沢市","jp_add_2":"倉内"},"0120021":{"post_code":"0120021","prefecture":"AKITA KEN","city":"YUZAWA SHI","town":"KOGANEHARA","perfecture_jp":"秋田県","jp_add_1":"湯沢市","jp_add_2":"黄金原"},"0120104":{"post_code":"0120104","prefecture":"AKITA KEN","city":"YUZAWA SHI","town":"KOMAGATACHO","perfecture_jp":"秋田県","jp_add_1":"湯沢市","jp_add_2":"駒形町"},"0120845":{"post_code":"0120845","prefecture":"AKITA KEN","city":"YUZAWA SHI","town":"ZAIMOKUCHO","perfecture_jp":"秋田県","jp_add_1":"湯沢市","jp_add_2":"材木町"},"0120035":{"post_code":"0120035","prefecture":"AKITA KEN","city":"YUZAWA SHI","town":"SAIWAICHO","perfecture_jp":"秋田県","jp_add_1":"湯沢市","jp_add_2":"幸町"},"0120013":{"post_code":"0120013","prefecture":"AKITA KEN","city":"YUZAWA SHI","town":"SAKAEDA","perfecture_jp":"秋田県","jp_add_1":"湯沢市","jp_add_2":"栄田"},"0120811":{"post_code":"0120811","prefecture":"AKITA KEN","city":"YUZAWA SHI","town":"SAKURADORI","perfecture_jp":"秋田県","jp_add_1":"湯沢市","jp_add_2":"桜通り"},"0120033":{"post_code":"0120033","prefecture":"AKITA KEN","city":"YUZAWA SHI","town":"SHIMIZUCHO","perfecture_jp":"秋田県","jp_add_1":"湯沢市","jp_add_2":"清水町"},"0120863":{"post_code":"0120863","prefecture":"AKITA KEN","city":"YUZAWA SHI","town":"SHIMOSEKI","perfecture_jp":"秋田県","jp_add_1":"湯沢市","jp_add_2":"下関"},"0120052":{"post_code":"0120052","prefecture":"AKITA KEN","city":"YUZAWA SHI","town":"SHIMONAKAGAWARA","perfecture_jp":"秋田県","jp_add_1":"湯沢市","jp_add_2":"下中川原"},"0120002":{"post_code":"0120002","prefecture":"AKITA KEN","city":"YUZAWA SHI","town":"SHIMONIIDA","perfecture_jp":"秋田県","jp_add_1":"湯沢市","jp_add_2":"下二井田"},"0120822":{"post_code":"0120822","prefecture":"AKITA KEN","city":"YUZAWA SHI","town":"SHIMOYAMAYA","perfecture_jp":"秋田県","jp_add_1":"湯沢市","jp_add_2":"下山谷"},"0120853":{"post_code":"0120853","prefecture":"AKITA KEN","city":"YUZAWA SHI","town":"SHINCHO","perfecture_jp":"秋田県","jp_add_1":"湯沢市","jp_add_2":"新町"},"0120804":{"post_code":"0120804","prefecture":"AKITA KEN","city":"YUZAWA SHI","town":"SUGISAWA","perfecture_jp":"秋田県","jp_add_1":"湯沢市","jp_add_2":"杉沢"},"0120803":{"post_code":"0120803","prefecture":"AKITA KEN","city":"YUZAWA SHI","town":"SUGISAWAARATOKORO","perfecture_jp":"秋田県","jp_add_1":"湯沢市","jp_add_2":"杉沢新所"},"0120862":{"post_code":"0120862","prefecture":"AKITA KEN","city":"YUZAWA SHI","town":"SEKIGUCHI","perfecture_jp":"秋田県","jp_add_1":"湯沢市","jp_add_2":"関口"},"0120016":{"post_code":"0120016","prefecture":"AKITA KEN","city":"YUZAWA SHI","town":"SENGARI","perfecture_jp":"秋田県","jp_add_1":"湯沢市","jp_add_2":"千刈"},"0120857":{"post_code":"0120857","prefecture":"AKITA KEN","city":"YUZAWA SHI","town":"SENGOKUCHO","perfecture_jp":"秋田県","jp_add_1":"湯沢市","jp_add_2":"千石町"},"0120814":{"post_code":"0120814","prefecture":"AKITA KEN","city":"YUZAWA SHI","town":"DAIKUMACHI","perfecture_jp":"秋田県","jp_add_1":"湯沢市","jp_add_2":"大工町"},"0120008":{"post_code":"0120008","prefecture":"AKITA KEN","city":"YUZAWA SHI","town":"TAKAMAE","perfecture_jp":"秋田県","jp_add_1":"湯沢市","jp_add_2":"高前"},"0120844":{"post_code":"0120844","prefecture":"AKITA KEN","city":"YUZAWA SHI","town":"TAMACHI","perfecture_jp":"秋田県","jp_add_1":"湯沢市","jp_add_2":"田町"},"0120031":{"post_code":"0120031","prefecture":"AKITA KEN","city":"YUZAWA SHI","town":"TSURUDATE","perfecture_jp":"秋田県","jp_add_1":"湯沢市","jp_add_2":"鶴館"},"0120854":{"post_code":"0120854","prefecture":"AKITA KEN","city":"YUZAWA SHI","town":"TOBIGASAWAYAMA","perfecture_jp":"秋田県","jp_add_1":"湯沢市","jp_add_2":"鳶ケ沢山"},"0120053":{"post_code":"0120053","prefecture":"AKITA KEN","city":"YUZAWA SHI","town":"NAKAGAWARA","perfecture_jp":"秋田県","jp_add_1":"湯沢市","jp_add_2":"中川原"},"0120041":{"post_code":"0120041","prefecture":"AKITA KEN","city":"YUZAWA SHI","town":"NAKANO","perfecture_jp":"秋田県","jp_add_1":"湯沢市","jp_add_2":"中野"},"0120044":{"post_code":"0120044","prefecture":"AKITA KEN","city":"YUZAWA SHI","town":"NAKANONOME","perfecture_jp":"秋田県","jp_add_1":"湯沢市","jp_add_2":"中野々目"},"0120802":{"post_code":"0120802","prefecture":"AKITA KEN","city":"YUZAWA SHI","town":"NARISAWA","perfecture_jp":"秋田県","jp_add_1":"湯沢市","jp_add_2":"成沢"},"0120004":{"post_code":"0120004","prefecture":"AKITA KEN","city":"YUZAWA SHI","town":"NIIDA","perfecture_jp":"秋田県","jp_add_1":"湯沢市","jp_add_2":"二井田"},"0120868":{"post_code":"0120868","prefecture":"AKITA KEN","city":"YUZAWA SHI","town":"NISHIATAGOCHO","perfecture_jp":"秋田県","jp_add_1":"湯沢市","jp_add_2":"西愛宕町"},"0120837":{"post_code":"0120837","prefecture":"AKITA KEN","city":"YUZAWA SHI","town":"NISHIKANEHORIZAWAYAMA","perfecture_jp":"秋田県","jp_add_1":"湯沢市","jp_add_2":"西金堀沢山"},"0120034":{"post_code":"0120034","prefecture":"AKITA KEN","city":"YUZAWA SHI","town":"NISHISHIMMACHI","perfecture_jp":"秋田県","jp_add_1":"湯沢市","jp_add_2":"西新町"},"0120054":{"post_code":"0120054","prefecture":"AKITA KEN","city":"YUZAWA SHI","town":"NISHINAKAGAWARA","perfecture_jp":"秋田県","jp_add_1":"湯沢市","jp_add_2":"西中川原"},"0120866":{"post_code":"0120866","prefecture":"AKITA KEN","city":"YUZAWA SHI","town":"NISHIMATSUZAWA","perfecture_jp":"秋田県","jp_add_1":"湯沢市","jp_add_2":"西松沢"},"0120865":{"post_code":"0120865","prefecture":"AKITA KEN","city":"YUZAWA SHI","town":"NUMADOI","perfecture_jp":"秋田県","jp_add_1":"湯沢市","jp_add_2":"沼樋"},"0120812":{"post_code":"0120812","prefecture":"AKITA KEN","city":"YUZAWA SHI","town":"HIGASHIAKATSUCHIYAMA","perfecture_jp":"秋田県","jp_add_1":"湯沢市","jp_add_2":"東赤土山"},"0120861":{"post_code":"0120861","prefecture":"AKITA KEN","city":"YUZAWA SHI","town":"HIGASHIMATSUZAWA","perfecture_jp":"秋田県","jp_add_1":"湯沢市","jp_add_2":"東松沢"},"0120832":{"post_code":"0120832","prefecture":"AKITA KEN","city":"YUZAWA SHI","town":"HIROSAWAYAMA","perfecture_jp":"秋田県","jp_add_1":"湯沢市","jp_add_2":"広沢山"},"0120051":{"post_code":"0120051","prefecture":"AKITA KEN","city":"YUZAWA SHI","town":"FUKABORI","perfecture_jp":"秋田県","jp_add_1":"湯沢市","jp_add_2":"深堀"},"0120056":{"post_code":"0120056","prefecture":"AKITA KEN","city":"YUZAWA SHI","town":"FUJIHANA","perfecture_jp":"秋田県","jp_add_1":"湯沢市","jp_add_2":"藤花"},"0120017":{"post_code":"0120017","prefecture":"AKITA KEN","city":"YUZAWA SHI","town":"FUJIMI","perfecture_jp":"秋田県","jp_add_1":"湯沢市","jp_add_2":"富士見"},"0120851":{"post_code":"0120851","prefecture":"AKITA KEN","city":"YUZAWA SHI","town":"FUPPARI","perfecture_jp":"秋田県","jp_add_1":"湯沢市","jp_add_2":"吹張"},"0120815":{"post_code":"0120815","prefecture":"AKITA KEN","city":"YUZAWA SHI","town":"FURUDATEMACHI","perfecture_jp":"秋田県","jp_add_1":"湯沢市","jp_add_2":"古館町"},"0120838":{"post_code":"0120838","prefecture":"AKITA KEN","city":"YUZAWA SHI","town":"HEBINO","perfecture_jp":"秋田県","jp_add_1":"湯沢市","jp_add_2":"蛇野"},"0120025":{"post_code":"0120025","prefecture":"AKITA KEN","city":"YUZAWA SHI","town":"MAEJIMA","perfecture_jp":"秋田県","jp_add_1":"湯沢市","jp_add_2":"前島"},"0120813":{"post_code":"0120813","prefecture":"AKITA KEN","city":"YUZAWA SHI","town":"MAEMORI","perfecture_jp":"秋田県","jp_add_1":"湯沢市","jp_add_2":"前森"},"0120061":{"post_code":"0120061","prefecture":"AKITA KEN","city":"YUZAWA SHI","town":"MATSUOKA","perfecture_jp":"秋田県","jp_add_1":"湯沢市","jp_add_2":"松岡"},"0120043":{"post_code":"0120043","prefecture":"AKITA KEN","city":"YUZAWA SHI","town":"MANGOKU","perfecture_jp":"秋田県","jp_add_1":"湯沢市","jp_add_2":"万石"},"0120106":{"post_code":"0120106","prefecture":"AKITA KEN","city":"YUZAWA SHI","town":"MITSUNASHICHO","perfecture_jp":"秋田県","jp_add_1":"湯沢市","jp_add_2":"三梨町"},"0120183":{"post_code":"0120183","prefecture":"AKITA KEN","city":"YUZAWA SHI","town":"MINASE(SONOTA)","perfecture_jp":"秋田県","jp_add_1":"湯沢市","jp_add_2":"皆瀬"},"0120867":{"post_code":"0120867","prefecture":"AKITA KEN","city":"YUZAWA SHI","town":"MINAMIDAI","perfecture_jp":"秋田県","jp_add_1":"湯沢市","jp_add_2":"南台"},"0120032":{"post_code":"0120032","prefecture":"AKITA KEN","city":"YUZAWA SHI","town":"MOTOSHIMIZU","perfecture_jp":"秋田県","jp_add_1":"湯沢市","jp_add_2":"元清水"},"0120011":{"post_code":"0120011","prefecture":"AKITA KEN","city":"YUZAWA SHI","town":"MORI","perfecture_jp":"秋田県","jp_add_1":"湯沢市","jp_add_2":"森"},"0120006":{"post_code":"0120006","prefecture":"AKITA KEN","city":"YUZAWA SHI","town":"YANAGIDA","perfecture_jp":"秋田県","jp_add_1":"湯沢市","jp_add_2":"柳田"},"0120826":{"post_code":"0120826","prefecture":"AKITA KEN","city":"YUZAWA SHI","town":"YANAGIMACHI","perfecture_jp":"秋田県","jp_add_1":"湯沢市","jp_add_2":"柳町"},"0120055":{"post_code":"0120055","prefecture":"AKITA KEN","city":"YUZAWA SHI","town":"YAMADA","perfecture_jp":"秋田県","jp_add_1":"湯沢市","jp_add_2":"山田"},"0120821":{"post_code":"0120821","prefecture":"AKITA KEN","city":"YUZAWA SHI","town":"YAMAYA","perfecture_jp":"秋田県","jp_add_1":"湯沢市","jp_add_2":"山谷"},"0120007":{"post_code":"0120007","prefecture":"AKITA KEN","city":"YUZAWA SHI","town":"YAWATA","perfecture_jp":"秋田県","jp_add_1":"湯沢市","jp_add_2":"八幡"},"0120823":{"post_code":"0120823","prefecture":"AKITA KEN","city":"YUZAWA SHI","town":"YUNOHARA","perfecture_jp":"秋田県","jp_add_1":"湯沢市","jp_add_2":"湯ノ上山"},"0120036":{"post_code":"0120036","prefecture":"AKITA KEN","city":"YUZAWA SHI","town":"RYOJIN","perfecture_jp":"秋田県","jp_add_1":"湯沢市","jp_add_2":"両神"},"0120869":{"post_code":"0120869","prefecture":"AKITA KEN","city":"YUZAWA SHI","town":"WAKABAMACHI","perfecture_jp":"秋田県","jp_add_1":"湯沢市","jp_add_2":"若葉町"},"0121100":{"post_code":"0121100","prefecture":"AKITA KEN","city":"OGACHI GUN UGO MACHI","town":"IKANIKEISAIGANAIBAAI","perfecture_jp":"秋田県","jp_add_1":"雄勝郡羽後町","jp_add_2":""},"0121124":{"post_code":"0121124","prefecture":"AKITA KEN","city":"OGACHI GUN UGO MACHI","town":"AKABAKAMA","perfecture_jp":"秋田県","jp_add_1":"雄勝郡羽後町","jp_add_2":"赤袴"},"0121136":{"post_code":"0121136","prefecture":"AKITA KEN","city":"OGACHI GUN UGO MACHI","town":"IIZAWA","perfecture_jp":"秋田県","jp_add_1":"雄勝郡羽後町","jp_add_2":"飯沢"},"0121121":{"post_code":"0121121","prefecture":"AKITA KEN","city":"OGACHI GUN UGO MACHI","town":"OKUBO","perfecture_jp":"秋田県","jp_add_1":"雄勝郡羽後町","jp_add_2":"大久保"},"0121101":{"post_code":"0121101","prefecture":"AKITA KEN","city":"OGACHI GUN UGO MACHI","town":"OSAWA","perfecture_jp":"秋田県","jp_add_1":"雄勝郡羽後町","jp_add_2":"大沢"},"0121132":{"post_code":"0121132","prefecture":"AKITA KEN","city":"OGACHI GUN UGO MACHI","town":"ODO","perfecture_jp":"秋田県","jp_add_1":"雄勝郡羽後町","jp_add_2":"大戸"},"0121123":{"post_code":"0121123","prefecture":"AKITA KEN","city":"OGACHI GUN UGO MACHI","town":"KAIZAWA","perfecture_jp":"秋田県","jp_add_1":"雄勝郡羽後町","jp_add_2":"貝沢"},"0121122":{"post_code":"0121122","prefecture":"AKITA KEN","city":"OGACHI GUN UGO MACHI","town":"KASHIWABARA","perfecture_jp":"秋田県","jp_add_1":"雄勝郡羽後町","jp_add_2":"柏原"},"0121353":{"post_code":"0121353","prefecture":"AKITA KEN","city":"OGACHI GUN UGO MACHI","town":"KAMISENDO","perfecture_jp":"秋田県","jp_add_1":"雄勝郡羽後町","jp_add_2":"上仙道"},"0121242":{"post_code":"0121242","prefecture":"AKITA KEN","city":"OGACHI GUN UGO MACHI","town":"KAMITOMAI","perfecture_jp":"秋田県","jp_add_1":"雄勝郡羽後町","jp_add_2":"上到米"},"0121243":{"post_code":"0121243","prefecture":"AKITA KEN","city":"OGACHI GUN UGO MACHI","town":"KARUIZAWA","perfecture_jp":"秋田県","jp_add_1":"雄勝郡羽後町","jp_add_2":"軽井沢"},"0121113":{"post_code":"0121113","prefecture":"AKITA KEN","city":"OGACHI GUN UGO MACHI","town":"KORIYAMA","perfecture_jp":"秋田県","jp_add_1":"雄勝郡羽後町","jp_add_2":"郡山"},"0121135":{"post_code":"0121135","prefecture":"AKITA KEN","city":"OGACHI GUN UGO MACHI","town":"SHIKANAI","perfecture_jp":"秋田県","jp_add_1":"雄勝郡羽後町","jp_add_2":"鹿内"},"0121111":{"post_code":"0121111","prefecture":"AKITA KEN","city":"OGACHI GUN UGO MACHI","town":"SHIMADASHINDEN","perfecture_jp":"秋田県","jp_add_1":"雄勝郡羽後町","jp_add_2":"嶋田新田"},"0121351":{"post_code":"0121351","prefecture":"AKITA KEN","city":"OGACHI GUN UGO MACHI","town":"SHIMOSENDO","perfecture_jp":"秋田県","jp_add_1":"雄勝郡羽後町","jp_add_2":"下仙道"},"0121102":{"post_code":"0121102","prefecture":"AKITA KEN","city":"OGACHI GUN UGO MACHI","town":"SHIMMACHI","perfecture_jp":"秋田県","jp_add_1":"雄勝郡羽後町","jp_add_2":"新町"},"0121126":{"post_code":"0121126","prefecture":"AKITA KEN","city":"OGACHI GUN UGO MACHI","town":"SUGINOMIYA","perfecture_jp":"秋田県","jp_add_1":"雄勝郡羽後町","jp_add_2":"杉宮"},"0121116":{"post_code":"0121116","prefecture":"AKITA KEN","city":"OGACHI GUN UGO MACHI","town":"TAKODA","perfecture_jp":"秋田県","jp_add_1":"雄勝郡羽後町","jp_add_2":"高尾田"},"0121134":{"post_code":"0121134","prefecture":"AKITA KEN","city":"OGACHI GUN UGO MACHI","town":"TAZAWA","perfecture_jp":"秋田県","jp_add_1":"雄勝郡羽後町","jp_add_2":"田沢"},"0121241":{"post_code":"0121241","prefecture":"AKITA KEN","city":"OGACHI GUN UGO MACHI","town":"TASHIRO","perfecture_jp":"秋田県","jp_add_1":"雄勝郡羽後町","jp_add_2":"田代"},"0121115":{"post_code":"0121115","prefecture":"AKITA KEN","city":"OGACHI GUN UGO MACHI","town":"TARADA","perfecture_jp":"秋田県","jp_add_1":"雄勝郡羽後町","jp_add_2":"足田"},"0121133":{"post_code":"0121133","prefecture":"AKITA KEN","city":"OGACHI GUN UGO MACHI","town":"TOKOMAI","perfecture_jp":"秋田県","jp_add_1":"雄勝郡羽後町","jp_add_2":"床舞"},"0121352":{"post_code":"0121352","prefecture":"AKITA KEN","city":"OGACHI GUN UGO MACHI","town":"NAKASENDO","perfecture_jp":"秋田県","jp_add_1":"雄勝郡羽後町","jp_add_2":"中仙道"},"0121131":{"post_code":"0121131","prefecture":"AKITA KEN","city":"OGACHI GUN UGO MACHI","town":"NISHIMONAI","perfecture_jp":"秋田県","jp_add_1":"雄勝郡羽後町","jp_add_2":"西馬音内"},"0121137":{"post_code":"0121137","prefecture":"AKITA KEN","city":"OGACHI GUN UGO MACHI","town":"NISHIMONAIHORIMAWARI","perfecture_jp":"秋田県","jp_add_1":"雄勝郡羽後町","jp_add_2":"西馬音内堀回"},"0121114":{"post_code":"0121114","prefecture":"AKITA KEN","city":"OGACHI GUN UGO MACHI","town":"NUKAZUKA","perfecture_jp":"秋田県","jp_add_1":"雄勝郡羽後町","jp_add_2":"糠塚"},"0121125":{"post_code":"0121125","prefecture":"AKITA KEN","city":"OGACHI GUN UGO MACHI","town":"NONAKA","perfecture_jp":"秋田県","jp_add_1":"雄勝郡羽後町","jp_add_2":"野中"},"0121103":{"post_code":"0121103","prefecture":"AKITA KEN","city":"OGACHI GUN UGO MACHI","town":"HAYASHIZAKI","perfecture_jp":"秋田県","jp_add_1":"雄勝郡羽後町","jp_add_2":"林崎"},"0121106":{"post_code":"0121106","prefecture":"AKITA KEN","city":"OGACHI GUN UGO MACHI","town":"HOTTAI","perfecture_jp":"秋田県","jp_add_1":"雄勝郡羽後町","jp_add_2":"払体"},"0121104":{"post_code":"0121104","prefecture":"AKITA KEN","city":"OGACHI GUN UGO MACHI","town":"HORIUCHI","perfecture_jp":"秋田県","jp_add_1":"雄勝郡羽後町","jp_add_2":"堀内"},"0121105":{"post_code":"0121105","prefecture":"AKITA KEN","city":"OGACHI GUN UGO MACHI","town":"MIZUSAWA","perfecture_jp":"秋田県","jp_add_1":"雄勝郡羽後町","jp_add_2":"水沢"},"0121112":{"post_code":"0121112","prefecture":"AKITA KEN","city":"OGACHI GUN UGO MACHI","town":"MUTSUAI","perfecture_jp":"秋田県","jp_add_1":"雄勝郡羽後町","jp_add_2":"睦合"}}