{"0130000":{"post_code":"0130000","prefecture":"AKITA KEN","city":"YOKOTE SHI","town":"IKANIKEISAIGANAIBAAI","perfecture_jp":"秋田県","jp_add_1":"横手市","jp_add_2":""},"0130073":{"post_code":"0130073","prefecture":"AKITA KEN","city":"YOKOTE SHI","town":"AKAGAWA","perfecture_jp":"秋田県","jp_add_1":"横手市","jp_add_2":"赤川"},"0130064":{"post_code":"0130064","prefecture":"AKITA KEN","city":"YOKOTE SHI","town":"AKASAKA","perfecture_jp":"秋田県","jp_add_1":"横手市","jp_add_2":"赤坂"},"0130028":{"post_code":"0130028","prefecture":"AKITA KEN","city":"YOKOTE SHI","town":"ASAKURACHO","perfecture_jp":"秋田県","jp_add_1":"横手市","jp_add_2":"朝倉町"},"0130033":{"post_code":"0130033","prefecture":"AKITA KEN","city":"YOKOTE SHI","town":"ASAHIKAWA","perfecture_jp":"秋田県","jp_add_1":"横手市","jp_add_2":"旭川"},"0130055":{"post_code":"0130055","prefecture":"AKITA KEN","city":"YOKOTE SHI","town":"ASAHIGAOKA","perfecture_jp":"秋田県","jp_add_1":"横手市","jp_add_2":"朝日が丘"},"0130065":{"post_code":"0130065","prefecture":"AKITA KEN","city":"YOKOTE SHI","town":"INOKA","perfecture_jp":"秋田県","jp_add_1":"横手市","jp_add_2":"猪岡"},"0130068":{"post_code":"0130068","prefecture":"AKITA KEN","city":"YOKOTE SHI","town":"UMENOKIMACHI","perfecture_jp":"秋田県","jp_add_1":"横手市","jp_add_2":"梅の木町"},"0130036":{"post_code":"0130036","prefecture":"AKITA KEN","city":"YOKOTE SHI","town":"EKIMAECHO","perfecture_jp":"秋田県","jp_add_1":"横手市","jp_add_2":"駅前町"},"0130062":{"post_code":"0130062","prefecture":"AKITA KEN","city":"YOKOTE SHI","town":"EKIMINAMI","perfecture_jp":"秋田県","jp_add_1":"横手市","jp_add_2":"駅南"},"0130002":{"post_code":"0130002","prefecture":"AKITA KEN","city":"YOKOTE SHI","town":"OIMAWASHI","perfecture_jp":"秋田県","jp_add_1":"横手市","jp_add_2":"追廻"},"0130041":{"post_code":"0130041","prefecture":"AKITA KEN","city":"YOKOTE SHI","town":"OSAWA","perfecture_jp":"秋田県","jp_add_1":"横手市","jp_add_2":"大沢"},"0130007":{"post_code":"0130007","prefecture":"AKITA KEN","city":"YOKOTE SHI","town":"OTORIMACHI","perfecture_jp":"秋田県","jp_add_1":"横手市","jp_add_2":"大鳥町"},"0130021":{"post_code":"0130021","prefecture":"AKITA KEN","city":"YOKOTE SHI","town":"OMACHI","perfecture_jp":"秋田県","jp_add_1":"横手市","jp_add_2":"大町"},"0130026":{"post_code":"0130026","prefecture":"AKITA KEN","city":"YOKOTE SHI","town":"OMIDOMACHI","perfecture_jp":"秋田県","jp_add_1":"横手市","jp_add_2":"大水戸町"},"0130501":{"post_code":"0130501","prefecture":"AKITA KEN","city":"YOKOTE SHI","town":"OMORIMACHI ITAIDA","perfecture_jp":"秋田県","jp_add_1":"横手市","jp_add_2":"大森町板井田"},"0130546":{"post_code":"0130546","prefecture":"AKITA KEN","city":"YOKOTE SHI","town":"OMORIMACHI USHIGASAWA","perfecture_jp":"秋田県","jp_add_1":"横手市","jp_add_2":"大森町牛ケ沢"},"0130511":{"post_code":"0130511","prefecture":"AKITA KEN","city":"YOKOTE SHI","town":"OMORIMACHI USHINAKAJIMA","perfecture_jp":"秋田県","jp_add_1":"横手市","jp_add_2":"大森町牛中島"},"0130552":{"post_code":"0130552","prefecture":"AKITA KEN","city":"YOKOTE SHI","town":"OMORIMACHI UWAMIZO","perfecture_jp":"秋田県","jp_add_1":"横手市","jp_add_2":"大森町上溝"},"0130514":{"post_code":"0130514","prefecture":"AKITA KEN","city":"YOKOTE SHI","town":"OMORIMACHI ONAKAJIMA","perfecture_jp":"秋田県","jp_add_1":"横手市","jp_add_2":"大森町大中島"},"0130521":{"post_code":"0130521","prefecture":"AKITA KEN","city":"YOKOTE SHI","town":"OMORIMACHI OMORI","perfecture_jp":"秋田県","jp_add_1":"横手市","jp_add_2":"大森町大森"},"0130532":{"post_code":"0130532","prefecture":"AKITA KEN","city":"YOKOTE SHI","town":"OMORIMACHI KUBO","perfecture_jp":"秋田県","jp_add_1":"横手市","jp_add_2":"大森町久保"},"0130562":{"post_code":"0130562","prefecture":"AKITA KEN","city":"YOKOTE SHI","town":"OMORIMACHI SAKABE","perfecture_jp":"秋田県","jp_add_1":"横手市","jp_add_2":"大森町坂部"},"0130531":{"post_code":"0130531","prefecture":"AKITA KEN","city":"YOKOTE SHI","town":"OMORIMACHI SADO","perfecture_jp":"秋田県","jp_add_1":"横手市","jp_add_2":"大森町佐渡"},"0130551":{"post_code":"0130551","prefecture":"AKITA KEN","city":"YOKOTE SHI","town":"OMORIMACHI SARUTA","perfecture_jp":"秋田県","jp_add_1":"横手市","jp_add_2":"大森町猿田"},"0130524":{"post_code":"0130524","prefecture":"AKITA KEN","city":"YOKOTE SHI","town":"OMORIMACHI SHIMIZUNOE","perfecture_jp":"秋田県","jp_add_1":"横手市","jp_add_2":"大森町清水上"},"0130536":{"post_code":"0130536","prefecture":"AKITA KEN","city":"YOKOTE SHI","town":"OMORIMACHI SHINZAN","perfecture_jp":"秋田県","jp_add_1":"横手市","jp_add_2":"大森町真山"},"0130525":{"post_code":"0130525","prefecture":"AKITA KEN","city":"YOKOTE SHI","town":"OMORIMACHI SUGOTA","perfecture_jp":"秋田県","jp_add_1":"横手市","jp_add_2":"大森町菅生田"},"0130517":{"post_code":"0130517","prefecture":"AKITA KEN","city":"YOKOTE SHI","town":"OMORIMACHI TAKAKUCHISHITAMITOTSUTSU","perfecture_jp":"秋田県","jp_add_1":"横手市","jp_add_2":"大森町高口下水戸堤"},"0130542":{"post_code":"0130542","prefecture":"AKITA KEN","city":"YOKOTE SHI","town":"OMORIMACHI TAKANONAKAJIMA","perfecture_jp":"秋田県","jp_add_1":"横手市","jp_add_2":"大森町高野中島"},"0130544":{"post_code":"0130544","prefecture":"AKITA KEN","city":"YOKOTE SHI","town":"OMORIMACHI CHOSUKEMAKI","perfecture_jp":"秋田県","jp_add_1":"横手市","jp_add_2":"大森町長助巻"},"0130534":{"post_code":"0130534","prefecture":"AKITA KEN","city":"YOKOTE SHI","town":"OMORIMACHI TOGEMACHIGASHIRA","perfecture_jp":"秋田県","jp_add_1":"横手市","jp_add_2":"大森町峠町頭"},"0130523":{"post_code":"0130523","prefecture":"AKITA KEN","city":"YOKOTE SHI","town":"OMORIMACHI DOBAYASHI","perfecture_jp":"秋田県","jp_add_1":"横手市","jp_add_2":"大森町堂林"},"0130503":{"post_code":"0130503","prefecture":"AKITA KEN","city":"YOKOTE SHI","town":"OMORIMACHI TOKAMACHI","perfecture_jp":"秋田県","jp_add_1":"横手市","jp_add_2":"大森町十日町"},"0130545":{"post_code":"0130545","prefecture":"AKITA KEN","city":"YOKOTE SHI","town":"OMORIMACHI DOJONUMA","perfecture_jp":"秋田県","jp_add_1":"横手市","jp_add_2":"大森町鯲沼"},"0130541":{"post_code":"0130541","prefecture":"AKITA KEN","city":"YOKOTE SHI","town":"OMORIMACHI NAKAJIMA","perfecture_jp":"秋田県","jp_add_1":"横手市","jp_add_2":"大森町中嶋"},"0130533":{"post_code":"0130533","prefecture":"AKITA KEN","city":"YOKOTE SHI","town":"OMORIMACHI NAKATA","perfecture_jp":"秋田県","jp_add_1":"横手市","jp_add_2":"大森町中田"},"0130515":{"post_code":"0130515","prefecture":"AKITA KEN","city":"YOKOTE SHI","town":"OMORIMACHI NISHINAKAJIMA","perfecture_jp":"秋田県","jp_add_1":"横手市","jp_add_2":"大森町西中島"},"0130526":{"post_code":"0130526","prefecture":"AKITA KEN","city":"YOKOTE SHI","town":"OMORIMACHI NISHINO","perfecture_jp":"秋田県","jp_add_1":"横手市","jp_add_2":"大森町西野"},"0130502":{"post_code":"0130502","prefecture":"AKITA KEN","city":"YOKOTE SHI","town":"OMORIMACHI HAKAMAGATA","perfecture_jp":"秋田県","jp_add_1":"横手市","jp_add_2":"大森町袴形"},"0130516":{"post_code":"0130516","prefecture":"AKITA KEN","city":"YOKOTE SHI","town":"OMORIMACHI HIGASHINAKAJIMA","perfecture_jp":"秋田県","jp_add_1":"横手市","jp_add_2":"大森町東中島"},"0130543":{"post_code":"0130543","prefecture":"AKITA KEN","city":"YOKOTE SHI","town":"OMORIMACHI HONGO","perfecture_jp":"秋田県","jp_add_1":"横手市","jp_add_2":"大森町本郷"},"0130535":{"post_code":"0130535","prefecture":"AKITA KEN","city":"YOKOTE SHI","town":"OMORIMACHI MACHIDA","perfecture_jp":"秋田県","jp_add_1":"横手市","jp_add_2":"大森町町田"},"0130522":{"post_code":"0130522","prefecture":"AKITA KEN","city":"YOKOTE SHI","town":"OMORIMACHI MACHIMAWARI","perfecture_jp":"秋田県","jp_add_1":"横手市","jp_add_2":"大森町町回"},"0130519":{"post_code":"0130519","prefecture":"AKITA KEN","city":"YOKOTE SHI","town":"OMORIMACHI MOCHIMUKAI","perfecture_jp":"秋田県","jp_add_1":"横手市","jp_add_2":"大森町持向"},"0130518":{"post_code":"0130518","prefecture":"AKITA KEN","city":"YOKOTE SHI","town":"OMORIMACHI MONTENKAGAMIDA","perfecture_jp":"秋田県","jp_add_1":"横手市","jp_add_2":"大森町文天鏡田"},"0130561":{"post_code":"0130561","prefecture":"AKITA KEN","city":"YOKOTE SHI","town":"OMORIMACHI YASAWAGI","perfecture_jp":"秋田県","jp_add_1":"横手市","jp_add_2":"大森町八沢木"},"0130512":{"post_code":"0130512","prefecture":"AKITA KEN","city":"YOKOTE SHI","town":"OMORIMACHI YUNOSAWA","perfecture_jp":"秋田県","jp_add_1":"横手市","jp_add_2":"大森町湯ノ沢"},"0130513":{"post_code":"0130513","prefecture":"AKITA KEN","city":"YOKOTE SHI","town":"OMORIMACHI YUNOSHIMA","perfecture_jp":"秋田県","jp_add_1":"横手市","jp_add_2":"大森町湯ノ島"},"0130051":{"post_code":"0130051","prefecture":"AKITA KEN","city":"YOKOTE SHI","town":"OYA SHIMMACHI","perfecture_jp":"秋田県","jp_add_1":"横手市","jp_add_2":"大屋新町"},"0130052":{"post_code":"0130052","prefecture":"AKITA KEN","city":"YOKOTE SHI","town":"OYA TERAUCHI","perfecture_jp":"秋田県","jp_add_1":"横手市","jp_add_2":"大屋寺内"},"0130201":{"post_code":"0130201","prefecture":"AKITA KEN","city":"YOKOTE SHI","town":"OMONOGAWAMACHI AIZUKA","perfecture_jp":"秋田県","jp_add_1":"横手市","jp_add_2":"雄物川町会塚"},"0130205":{"post_code":"0130205","prefecture":"AKITA KEN","city":"YOKOTE SHI","town":"OMONOGAWAMACHI IMASHUKU","perfecture_jp":"秋田県","jp_add_1":"横手市","jp_add_2":"雄物川町今宿"},"0130481":{"post_code":"0130481","prefecture":"AKITA KEN","city":"YOKOTE SHI","town":"OMONOGAWAMACHI USUI","perfecture_jp":"秋田県","jp_add_1":"横手市","jp_add_2":"雄物川町薄井"},"0130218":{"post_code":"0130218","prefecture":"AKITA KEN","city":"YOKOTE SHI","town":"OMONOGAWAMACHI OSAWA","perfecture_jp":"秋田県","jp_add_1":"横手市","jp_add_2":"雄物川町大沢"},"0130214":{"post_code":"0130214","prefecture":"AKITA KEN","city":"YOKOTE SHI","town":"OMONOGAWAMACHI KASHIWAGI","perfecture_jp":"秋田県","jp_add_1":"横手市","jp_add_2":"雄物川町柏木"},"0130215":{"post_code":"0130215","prefecture":"AKITA KEN","city":"YOKOTE SHI","town":"OMONOGAWAMACHI JONO","perfecture_jp":"秋田県","jp_add_1":"横手市","jp_add_2":"雄物川町常野"},"0130202":{"post_code":"0130202","prefecture":"AKITA KEN","city":"YOKOTE SHI","town":"OMONOGAWAMACHI SUNAGOTA","perfecture_jp":"秋田県","jp_add_1":"横手市","jp_add_2":"雄物川町砂子田"},"0130212":{"post_code":"0130212","prefecture":"AKITA KEN","city":"YOKOTE SHI","town":"OMONOGAWAMACHI TSUKURIYAMA","perfecture_jp":"秋田県","jp_add_1":"横手市","jp_add_2":"雄物川町造山"},"0130203":{"post_code":"0130203","prefecture":"AKITA KEN","city":"YOKOTE SHI","town":"OMONOGAWAMACHI TOSATO","perfecture_jp":"秋田県","jp_add_1":"横手市","jp_add_2":"雄物川町東里"},"0130217":{"post_code":"0130217","prefecture":"AKITA KEN","city":"YOKOTE SHI","town":"OMONOGAWAMACHI DOJI","perfecture_jp":"秋田県","jp_add_1":"横手市","jp_add_2":"雄物川町道地"},"0130213":{"post_code":"0130213","prefecture":"AKITA KEN","city":"YOKOTE SHI","town":"OMONOGAWAMACHI NANKATA","perfecture_jp":"秋田県","jp_add_1":"横手市","jp_add_2":"雄物川町南形"},"0130206":{"post_code":"0130206","prefecture":"AKITA KEN","city":"YOKOTE SHI","town":"OMONOGAWAMACHI NIIYAMA","perfecture_jp":"秋田県","jp_add_1":"横手市","jp_add_2":"雄物川町二井山"},"0130216":{"post_code":"0130216","prefecture":"AKITA KEN","city":"YOKOTE SHI","town":"OMONOGAWAMACHI NISHINO","perfecture_jp":"秋田県","jp_add_1":"横手市","jp_add_2":"雄物川町西野"},"0130208":{"post_code":"0130208","prefecture":"AKITA KEN","city":"YOKOTE SHI","town":"OMONOGAWAMACHI NUMADATE","perfecture_jp":"秋田県","jp_add_1":"横手市","jp_add_2":"雄物川町沼館"},"0130211":{"post_code":"0130211","prefecture":"AKITA KEN","city":"YOKOTE SHI","town":"OMONOGAWAMACHI FUKAI","perfecture_jp":"秋田県","jp_add_1":"横手市","jp_add_2":"雄物川町深井"},"0130207":{"post_code":"0130207","prefecture":"AKITA KEN","city":"YOKOTE SHI","town":"OMONOGAWAMACHI YAGAMI","perfecture_jp":"秋田県","jp_add_1":"横手市","jp_add_2":"雄物川町矢神"},"0130204":{"post_code":"0130204","prefecture":"AKITA KEN","city":"YOKOTE SHI","town":"OMONOGAWAMACHI YACHISHINDEN","perfecture_jp":"秋田県","jp_add_1":"横手市","jp_add_2":"雄物川町谷地新田"},"0130072":{"post_code":"0130072","prefecture":"AKITA KEN","city":"YOKOTE SHI","town":"OROSHIMACHI","perfecture_jp":"秋田県","jp_add_1":"横手市","jp_add_2":"卸町"},"0130031":{"post_code":"0130031","prefecture":"AKITA KEN","city":"YOKOTE SHI","town":"KAJIMACHI","perfecture_jp":"秋田県","jp_add_1":"横手市","jp_add_2":"鍛冶町"},"0130813":{"post_code":"0130813","prefecture":"AKITA KEN","city":"YOKOTE SHI","town":"KANEZAWA","perfecture_jp":"秋田県","jp_add_1":"横手市","jp_add_2":"金沢"},"0130814":{"post_code":"0130814","prefecture":"AKITA KEN","city":"YOKOTE SHI","town":"KANEZAWA NAKANO","perfecture_jp":"秋田県","jp_add_1":"横手市","jp_add_2":"金沢中野"},"0130812":{"post_code":"0130812","prefecture":"AKITA KEN","city":"YOKOTE SHI","town":"KANEZAWA MOTOMACHI","perfecture_jp":"秋田県","jp_add_1":"横手市","jp_add_2":"金沢本町"},"0130014":{"post_code":"0130014","prefecture":"AKITA KEN","city":"YOKOTE SHI","town":"KAMIUCHIMACHI","perfecture_jp":"秋田県","jp_add_1":"横手市","jp_add_2":"上内町"},"0130821":{"post_code":"0130821","prefecture":"AKITA KEN","city":"YOKOTE SHI","town":"KAMIZAKAI","perfecture_jp":"秋田県","jp_add_1":"横手市","jp_add_2":"上境"},"0130822":{"post_code":"0130822","prefecture":"AKITA KEN","city":"YOKOTE SHI","town":"KAMIHATCHO","perfecture_jp":"秋田県","jp_add_1":"横手市","jp_add_2":"上八丁"},"0130032":{"post_code":"0130032","prefecture":"AKITA KEN","city":"YOKOTE SHI","town":"KIYOKAWACHO","perfecture_jp":"秋田県","jp_add_1":"横手市","jp_add_2":"清川町"},"0130826":{"post_code":"0130826","prefecture":"AKITA KEN","city":"YOKOTE SHI","town":"KUROKAWA","perfecture_jp":"秋田県","jp_add_1":"横手市","jp_add_2":"黒川"},"0130025":{"post_code":"0130025","prefecture":"AKITA KEN","city":"YOKOTE SHI","town":"KOTOBUKICHO","perfecture_jp":"秋田県","jp_add_1":"横手市","jp_add_2":"寿町"},"0130005":{"post_code":"0130005","prefecture":"AKITA KEN","city":"YOKOTE SHI","town":"SAIWAICHO","perfecture_jp":"秋田県","jp_add_1":"横手市","jp_add_2":"幸町"},"0130074":{"post_code":"0130074","prefecture":"AKITA KEN","city":"YOKOTE SHI","town":"SAMBONYANAGI","perfecture_jp":"秋田県","jp_add_1":"横手市","jp_add_2":"三本柳"},"0130069":{"post_code":"0130069","prefecture":"AKITA KEN","city":"YOKOTE SHI","town":"SAMMAIBASHI","perfecture_jp":"秋田県","jp_add_1":"横手市","jp_add_2":"三枚橋"},"0130075":{"post_code":"0130075","prefecture":"AKITA KEN","city":"YOKOTE SHI","town":"SHIZUKAMACHI","perfecture_jp":"秋田県","jp_add_1":"横手市","jp_add_2":"静町"},"0130056":{"post_code":"0130056","prefecture":"AKITA KEN","city":"YOKOTE SHI","town":"SHIMIZUMACHISHINDEN","perfecture_jp":"秋田県","jp_add_1":"横手市","jp_add_2":"清水町新田"},"0130824":{"post_code":"0130824","prefecture":"AKITA KEN","city":"YOKOTE SHI","town":"SHIMOZAKAI","perfecture_jp":"秋田県","jp_add_1":"横手市","jp_add_2":"下境"},"0130823":{"post_code":"0130823","prefecture":"AKITA KEN","city":"YOKOTE SHI","town":"SHIMOHATCHO","perfecture_jp":"秋田県","jp_add_1":"横手市","jp_add_2":"下八丁"},"0130017":{"post_code":"0130017","prefecture":"AKITA KEN","city":"YOKOTE SHI","town":"JANOSAKIMACHI","perfecture_jp":"秋田県","jp_add_1":"横手市","jp_add_2":"蛇の崎町"},"0130060":{"post_code":"0130060","prefecture":"AKITA KEN","city":"YOKOTE SHI","town":"JORI","perfecture_jp":"秋田県","jp_add_1":"横手市","jp_add_2":"条里"},"0130011":{"post_code":"0130011","prefecture":"AKITA KEN","city":"YOKOTE SHI","town":"SHIRONISHIMACHI","perfecture_jp":"秋田県","jp_add_1":"横手市","jp_add_2":"城西町"},"0130013":{"post_code":"0130013","prefecture":"AKITA KEN","city":"YOKOTE SHI","town":"SHIROMINAMIMACHI","perfecture_jp":"秋田県","jp_add_1":"横手市","jp_add_2":"城南町"},"0130012":{"post_code":"0130012","prefecture":"AKITA KEN","city":"YOKOTE SHI","town":"SHIROYAMAMACHI","perfecture_jp":"秋田県","jp_add_1":"横手市","jp_add_2":"城山町"},"0130006":{"post_code":"0130006","prefecture":"AKITA KEN","city":"YOKOTE SHI","town":"SHINZAKACHO","perfecture_jp":"秋田県","jp_add_1":"横手市","jp_add_2":"新坂町"},"0130046":{"post_code":"0130046","prefecture":"AKITA KEN","city":"YOKOTE SHI","town":"SHIMMEICHO","perfecture_jp":"秋田県","jp_add_1":"横手市","jp_add_2":"神明町"},"0130001":{"post_code":"0130001","prefecture":"AKITA KEN","city":"YOKOTE SHI","town":"SUGISAWA","perfecture_jp":"秋田県","jp_add_1":"横手市","jp_add_2":"杉沢"},"0130076":{"post_code":"0130076","prefecture":"AKITA KEN","city":"YOKOTE SHI","town":"SUGIME","perfecture_jp":"秋田県","jp_add_1":"横手市","jp_add_2":"杉目"},"0130053":{"post_code":"0130053","prefecture":"AKITA KEN","city":"YOKOTE SHI","town":"SOTONOME","perfecture_jp":"秋田県","jp_add_1":"横手市","jp_add_2":"外目"},"0130003":{"post_code":"0130003","prefecture":"AKITA KEN","city":"YOKOTE SHI","town":"DAIDOKOROMACHI","perfecture_jp":"秋田県","jp_add_1":"横手市","jp_add_2":"台所町"},"0130459":{"post_code":"0130459","prefecture":"AKITA KEN","city":"YOKOTE SHI","town":"TAIYU AKANUMA","perfecture_jp":"秋田県","jp_add_1":"横手市","jp_add_2":"大雄赤沼"},"0130447":{"post_code":"0130447","prefecture":"AKITA KEN","city":"YOKOTE SHI","town":"TAIYU AKUDO","perfecture_jp":"秋田県","jp_add_1":"横手市","jp_add_2":"大雄阿久戸"},"0130427":{"post_code":"0130427","prefecture":"AKITA KEN","city":"YOKOTE SHI","town":"TAIYU AGE","perfecture_jp":"秋田県","jp_add_1":"横手市","jp_add_2":"大雄阿気"},"0130484":{"post_code":"0130484","prefecture":"AKITA KEN","city":"YOKOTE SHI","town":"TAIYU ARATOKORO","perfecture_jp":"秋田県","jp_add_1":"横手市","jp_add_2":"大雄新処"},"0130464":{"post_code":"0130464","prefecture":"AKITA KEN","city":"YOKOTE SHI","town":"TAIYU ISHIMOCHI","perfecture_jp":"秋田県","jp_add_1":"横手市","jp_add_2":"大雄石持"},"0130465":{"post_code":"0130465","prefecture":"AKITA KEN","city":"YOKOTE SHI","town":"TAIYU ISHIMOCHISHITA","perfecture_jp":"秋田県","jp_add_1":"横手市","jp_add_2":"大雄石持下"},"0130463":{"post_code":"0130463","prefecture":"AKITA KEN","city":"YOKOTE SHI","town":"TAIYU ISHIMOCHIMAE","perfecture_jp":"秋田県","jp_add_1":"横手市","jp_add_2":"大雄石持前"},"0130471":{"post_code":"0130471","prefecture":"AKITA KEN","city":"YOKOTE SHI","town":"TAIYU ITABASHISEKIZOI","perfecture_jp":"秋田県","jp_add_1":"横手市","jp_add_2":"大雄板橋堰添"},"0130353":{"post_code":"0130353","prefecture":"AKITA KEN","city":"YOKOTE SHI","town":"TAIYU ICHINOSEKI","perfecture_jp":"秋田県","jp_add_1":"横手市","jp_add_2":"大雄一ノ関"},"0130352":{"post_code":"0130352","prefecture":"AKITA KEN","city":"YOKOTE SHI","town":"TAIYU ICHINOSEKIHIGASHI","perfecture_jp":"秋田県","jp_add_1":"横手市","jp_add_2":"大雄一ノ関東"},"0130356":{"post_code":"0130356","prefecture":"AKITA KEN","city":"YOKOTE SHI","town":"TAIYU ICHINOSEKIMINAMI","perfecture_jp":"秋田県","jp_add_1":"横手市","jp_add_2":"大雄一ノ関南"},"0130431":{"post_code":"0130431","prefecture":"AKITA KEN","city":"YOKOTE SHI","town":"TAIYU USHINAKAJIMA","perfecture_jp":"秋田県","jp_add_1":"横手市","jp_add_2":"大雄牛中島"},"0130316":{"post_code":"0130316","prefecture":"AKITA KEN","city":"YOKOTE SHI","town":"TAIYU URUIYACHI","perfecture_jp":"秋田県","jp_add_1":"横手市","jp_add_2":"大雄潤井谷地"},"0130382":{"post_code":"0130382","prefecture":"AKITA KEN","city":"YOKOTE SHI","town":"TAIYU UWASEKIHIGASHI","perfecture_jp":"秋田県","jp_add_1":"横手市","jp_add_2":"大雄上堰東"},"0130421":{"post_code":"0130421","prefecture":"AKITA KEN","city":"YOKOTE SHI","town":"TAIYU EBARA","perfecture_jp":"秋田県","jp_add_1":"横手市","jp_add_2":"大雄江原"},"0130452":{"post_code":"0130452","prefecture":"AKITA KEN","city":"YOKOTE SHI","town":"TAIYU OZEKI","perfecture_jp":"秋田県","jp_add_1":"横手市","jp_add_2":"大雄大関"},"0130317":{"post_code":"0130317","prefecture":"AKITA KEN","city":"YOKOTE SHI","town":"TAIYU ODOKAWABATA","perfecture_jp":"秋田県","jp_add_1":"横手市","jp_add_2":"大雄大戸川端"},"0130313":{"post_code":"0130313","prefecture":"AKITA KEN","city":"YOKOTE SHI","town":"TAIYU OMORIMICHIKITA","perfecture_jp":"秋田県","jp_add_1":"横手市","jp_add_2":"大雄大森道北"},"0130454":{"post_code":"0130454","prefecture":"AKITA KEN","city":"YOKOTE SHI","town":"TAIYU OYACHI","perfecture_jp":"秋田県","jp_add_1":"横手市","jp_add_2":"大雄大谷地"},"0130455":{"post_code":"0130455","prefecture":"AKITA KEN","city":"YOKOTE SHI","town":"TAIYU OYACHINISHI","perfecture_jp":"秋田県","jp_add_1":"横手市","jp_add_2":"大雄大谷地西"},"0130335":{"post_code":"0130335","prefecture":"AKITA KEN","city":"YOKOTE SHI","town":"TAIYU ORIHASHI","perfecture_jp":"秋田県","jp_add_1":"横手市","jp_add_2":"大雄折橋"},"0130451":{"post_code":"0130451","prefecture":"AKITA KEN","city":"YOKOTE SHI","town":"TAIYU ORIHASHINISHI","perfecture_jp":"秋田県","jp_add_1":"横手市","jp_add_2":"大雄折橋西"},"0130337":{"post_code":"0130337","prefecture":"AKITA KEN","city":"YOKOTE SHI","town":"TAIYU ORIHASHIMINAMI","perfecture_jp":"秋田県","jp_add_1":"横手市","jp_add_2":"大雄折橋南"},"0130365":{"post_code":"0130365","prefecture":"AKITA KEN","city":"YOKOTE SHI","town":"TAIYU KAJIMURA","perfecture_jp":"秋田県","jp_add_1":"横手市","jp_add_2":"大雄鍛治村"},"0130359":{"post_code":"0130359","prefecture":"AKITA KEN","city":"YOKOTE SHI","town":"TAIYU KASHIWAGI","perfecture_jp":"秋田県","jp_add_1":"横手市","jp_add_2":"大雄柏木"},"0130362":{"post_code":"0130362","prefecture":"AKITA KEN","city":"YOKOTE SHI","town":"TAIYU KASHIWAGISHITA","perfecture_jp":"秋田県","jp_add_1":"横手市","jp_add_2":"大雄柏木下"},"0130361":{"post_code":"0130361","prefecture":"AKITA KEN","city":"YOKOTE SHI","town":"TAIYU KASHIWAGINISHI","perfecture_jp":"秋田県","jp_add_1":"横手市","jp_add_2":"大雄柏木西"},"0130305":{"post_code":"0130305","prefecture":"AKITA KEN","city":"YOKOTE SHI","town":"TAIYU KASHIWAGIMINAMI","perfecture_jp":"秋田県","jp_add_1":"横手市","jp_add_2":"大雄柏木南"},"0130404":{"post_code":"0130404","prefecture":"AKITA KEN","city":"YOKOTE SHI","town":"TAIYU KAMIKASHIWAGI","perfecture_jp":"秋田県","jp_add_1":"横手市","jp_add_2":"大雄上柏木"},"0130355":{"post_code":"0130355","prefecture":"AKITA KEN","city":"YOKOTE SHI","town":"TAIYU KAMISAKURAMORI","perfecture_jp":"秋田県","jp_add_1":"横手市","jp_add_2":"大雄上桜森"},"0130351":{"post_code":"0130351","prefecture":"AKITA KEN","city":"YOKOTE SHI","town":"TAIYU KAMITAMURA","perfecture_jp":"秋田県","jp_add_1":"横手市","jp_add_2":"大雄上田村"},"0130349":{"post_code":"0130349","prefecture":"AKITA KEN","city":"YOKOTE SHI","town":"TAIYU KAMITAMURANISHI","perfecture_jp":"秋田県","jp_add_1":"横手市","jp_add_2":"大雄上田村西"},"0130326":{"post_code":"0130326","prefecture":"AKITA KEN","city":"YOKOTE SHI","town":"TAIYU KAMITAMURAHIGASHI","perfecture_jp":"秋田県","jp_add_1":"横手市","jp_add_2":"大雄上田村東"},"0130372":{"post_code":"0130372","prefecture":"AKITA KEN","city":"YOKOTE SHI","town":"TAIYU KAMITAMURAMINAMI","perfecture_jp":"秋田県","jp_add_1":"横手市","jp_add_2":"大雄上田村南"},"0130408":{"post_code":"0130408","prefecture":"AKITA KEN","city":"YOKOTE SHI","town":"TAIYU KITAYOTSUYA","perfecture_jp":"秋田県","jp_add_1":"横手市","jp_add_2":"大雄北四津屋"},"0130354":{"post_code":"0130354","prefecture":"AKITA KEN","city":"YOKOTE SHI","town":"TAIYU KITSUNEZUKA","perfecture_jp":"秋田県","jp_add_1":"横手市","jp_add_2":"大雄狐塚"},"0130426":{"post_code":"0130426","prefecture":"AKITA KEN","city":"YOKOTE SHI","town":"TAIYU KIDOGUCHI","perfecture_jp":"秋田県","jp_add_1":"横手市","jp_add_2":"大雄木戸口"},"0130438":{"post_code":"0130438","prefecture":"AKITA KEN","city":"YOKOTE SHI","town":"TAIYU KIDOGUCHISHITA","perfecture_jp":"秋田県","jp_add_1":"横手市","jp_add_2":"大雄木戸口下"},"0130435":{"post_code":"0130435","prefecture":"AKITA KEN","city":"YOKOTE SHI","town":"TAIYU KIDOGUCHINISHI","perfecture_jp":"秋田県","jp_add_1":"横手市","jp_add_2":"大雄木戸口西"},"0130314":{"post_code":"0130314","prefecture":"AKITA KEN","city":"YOKOTE SHI","town":"TAIYU KEISEIZUKA","perfecture_jp":"秋田県","jp_add_1":"横手市","jp_add_2":"大雄傾城塚"},"0130336":{"post_code":"0130336","prefecture":"AKITA KEN","city":"YOKOTE SHI","town":"TAIYU KEISEIZUKAMINAMI","perfecture_jp":"秋田県","jp_add_1":"横手市","jp_add_2":"大雄傾城塚南"},"0130437":{"post_code":"0130437","prefecture":"AKITA KEN","city":"YOKOTE SHI","town":"TAIYU KOBAYASHI","perfecture_jp":"秋田県","jp_add_1":"横手市","jp_add_2":"大雄小林"},"0130436":{"post_code":"0130436","prefecture":"AKITA KEN","city":"YOKOTE SHI","town":"TAIYU KOBAYASHINISHI","perfecture_jp":"秋田県","jp_add_1":"横手市","jp_add_2":"大雄小林西"},"0130324":{"post_code":"0130324","prefecture":"AKITA KEN","city":"YOKOTE SHI","town":"TAIYU KONDAYACHI","perfecture_jp":"秋田県","jp_add_1":"横手市","jp_add_2":"大雄根田谷地"},"0130321":{"post_code":"0130321","prefecture":"AKITA KEN","city":"YOKOTE SHI","town":"TAIYU KONDAYACHINISHI","perfecture_jp":"秋田県","jp_add_1":"横手市","jp_add_2":"大雄根田谷地西"},"0130323":{"post_code":"0130323","prefecture":"AKITA KEN","city":"YOKOTE SHI","town":"TAIYU KONDAYACHIHIGASHI","perfecture_jp":"秋田県","jp_add_1":"横手市","jp_add_2":"大雄根田谷地東"},"0130318":{"post_code":"0130318","prefecture":"AKITA KEN","city":"YOKOTE SHI","town":"TAIYU KONDAYACHIMINAMI","perfecture_jp":"秋田県","jp_add_1":"横手市","jp_add_2":"大雄根田谷地南"},"0130308":{"post_code":"0130308","prefecture":"AKITA KEN","city":"YOKOTE SHI","town":"TAIYU SAGARI","perfecture_jp":"秋田県","jp_add_1":"横手市","jp_add_2":"大雄佐加里"},"0130309":{"post_code":"0130309","prefecture":"AKITA KEN","city":"YOKOTE SHI","town":"TAIYU SAGARIMINAMI","perfecture_jp":"秋田県","jp_add_1":"横手市","jp_add_2":"大雄佐加里南"},"0130474":{"post_code":"0130474","prefecture":"AKITA KEN","city":"YOKOTE SHI","town":"TAIYU SAKURAMORI","perfecture_jp":"秋田県","jp_add_1":"横手市","jp_add_2":"大雄桜森"},"0130363":{"post_code":"0130363","prefecture":"AKITA KEN","city":"YOKOTE SHI","town":"TAIYU SAKURAMORINISHI","perfecture_jp":"秋田県","jp_add_1":"横手市","jp_add_2":"大雄桜森西"},"0130477":{"post_code":"0130477","prefecture":"AKITA KEN","city":"YOKOTE SHI","town":"TAIYU SAKURAMORIHIGASHI","perfecture_jp":"秋田県","jp_add_1":"横手市","jp_add_2":"大雄桜森東"},"0130475":{"post_code":"0130475","prefecture":"AKITA KEN","city":"YOKOTE SHI","town":"TAIYU SAKURAMORIMAE","perfecture_jp":"秋田県","jp_add_1":"横手市","jp_add_2":"大雄桜森前"},"0130434":{"post_code":"0130434","prefecture":"AKITA KEN","city":"YOKOTE SHI","town":"TAIYU SANNO","perfecture_jp":"秋田県","jp_add_1":"横手市","jp_add_2":"大雄山王"},"0130439":{"post_code":"0130439","prefecture":"AKITA KEN","city":"YOKOTE SHI","town":"TAIYU SANNONISHI","perfecture_jp":"秋田県","jp_add_1":"横手市","jp_add_2":"大雄山王西"},"0130315":{"post_code":"0130315","prefecture":"AKITA KEN","city":"YOKOTE SHI","town":"TAIYU SHITAKONDAYACHI","perfecture_jp":"秋田県","jp_add_1":"横手市","jp_add_2":"大雄下根田谷地"},"0130483":{"post_code":"0130483","prefecture":"AKITA KEN","city":"YOKOTE SHI","town":"TAIYU SHIMADA","perfecture_jp":"秋田県","jp_add_1":"横手市","jp_add_2":"大雄島田"},"0130485":{"post_code":"0130485","prefecture":"AKITA KEN","city":"YOKOTE SHI","town":"TAIYU SHIMOARATOKORO","perfecture_jp":"秋田県","jp_add_1":"横手市","jp_add_2":"大雄下新処"},"0130487":{"post_code":"0130487","prefecture":"AKITA KEN","city":"YOKOTE SHI","town":"TAIYU SHIMOTAMACHI","perfecture_jp":"秋田県","jp_add_1":"横手市","jp_add_2":"大雄下田町"},"0130334":{"post_code":"0130334","prefecture":"AKITA KEN","city":"YOKOTE SHI","town":"TAIYU SHIMMACHI","perfecture_jp":"秋田県","jp_add_1":"横手市","jp_add_2":"大雄新町"},"0130302":{"post_code":"0130302","prefecture":"AKITA KEN","city":"YOKOTE SHI","town":"TAIYU SHIMMACHIKITA","perfecture_jp":"秋田県","jp_add_1":"横手市","jp_add_2":"大雄新町北"},"0130333":{"post_code":"0130333","prefecture":"AKITA KEN","city":"YOKOTE SHI","town":"TAIYU SHIMMACHINISHI","perfecture_jp":"秋田県","jp_add_1":"横手市","jp_add_2":"大雄新町西"},"0130332":{"post_code":"0130332","prefecture":"AKITA KEN","city":"YOKOTE SHI","town":"TAIYU SHIMMACHINISHINOZOI","perfecture_jp":"秋田県","jp_add_1":"横手市","jp_add_2":"大雄新町西野添"},"0130307":{"post_code":"0130307","prefecture":"AKITA KEN","city":"YOKOTE SHI","town":"TAIYU SHIMMACHIHIGASHI","perfecture_jp":"秋田県","jp_add_1":"横手市","jp_add_2":"大雄新町東"},"0130304":{"post_code":"0130304","prefecture":"AKITA KEN","city":"YOKOTE SHI","town":"TAIYU SHIMMACHIMINAMI","perfecture_jp":"秋田県","jp_add_1":"横手市","jp_add_2":"大雄新町南"},"0130344":{"post_code":"0130344","prefecture":"AKITA KEN","city":"YOKOTE SHI","town":"TAIYU SEIBEINISHI","perfecture_jp":"秋田県","jp_add_1":"横手市","jp_add_2":"大雄精兵西"},"0130342":{"post_code":"0130342","prefecture":"AKITA KEN","city":"YOKOTE SHI","town":"TAIYU SEIBEIMURA","perfecture_jp":"秋田県","jp_add_1":"横手市","jp_add_2":"大雄精兵村"},"0130412":{"post_code":"0130412","prefecture":"AKITA KEN","city":"YOKOTE SHI","town":"TAIYU SESENAGI","perfecture_jp":"秋田県","jp_add_1":"横手市","jp_add_2":"大雄剰水"},"0130411":{"post_code":"0130411","prefecture":"AKITA KEN","city":"YOKOTE SHI","town":"TAIYU SESENAGIHIGASHI","perfecture_jp":"秋田県","jp_add_1":"横手市","jp_add_2":"大雄剰水東"},"0130457":{"post_code":"0130457","prefecture":"AKITA KEN","city":"YOKOTE SHI","town":"TAIYU DAIJIJIHIGASHI","perfecture_jp":"秋田県","jp_add_1":"横手市","jp_add_2":"大雄大慈寺東"},"0130456":{"post_code":"0130456","prefecture":"AKITA KEN","city":"YOKOTE SHI","town":"TAIYU DAIJIJIMAE","perfecture_jp":"秋田県","jp_add_1":"横手市","jp_add_2":"大雄大慈寺前"},"0130458":{"post_code":"0130458","prefecture":"AKITA KEN","city":"YOKOTE SHI","town":"TAIYU DAIJIJIYACHI","perfecture_jp":"秋田県","jp_add_1":"横手市","jp_add_2":"大雄大慈寺谷地"},"0130443":{"post_code":"0130443","prefecture":"AKITA KEN","city":"YOKOTE SHI","town":"TAIYU TAKAZUNO","perfecture_jp":"秋田県","jp_add_1":"横手市","jp_add_2":"大雄高津野"},"0130442":{"post_code":"0130442","prefecture":"AKITA KEN","city":"YOKOTE SHI","town":"TAIYU TAKAZUNOSHITA","perfecture_jp":"秋田県","jp_add_1":"横手市","jp_add_2":"大雄高津野下"},"0130348":{"post_code":"0130348","prefecture":"AKITA KEN","city":"YOKOTE SHI","town":"TAIYU TANEMORI","perfecture_jp":"秋田県","jp_add_1":"横手市","jp_add_2":"大雄田根森"},"0130343":{"post_code":"0130343","prefecture":"AKITA KEN","city":"YOKOTE SHI","town":"TAIYU TANEMORINISHI","perfecture_jp":"秋田県","jp_add_1":"横手市","jp_add_2":"大雄田根森西"},"0130325":{"post_code":"0130325","prefecture":"AKITA KEN","city":"YOKOTE SHI","town":"TAIYU TANEMORIHIGASHI","perfecture_jp":"秋田県","jp_add_1":"横手市","jp_add_2":"大雄田根森東"},"0130486":{"post_code":"0130486","prefecture":"AKITA KEN","city":"YOKOTE SHI","town":"TAIYU TAMACHI","perfecture_jp":"秋田県","jp_add_1":"横手市","jp_add_2":"大雄田町"},"0130306":{"post_code":"0130306","prefecture":"AKITA KEN","city":"YOKOTE SHI","town":"TAIYU TAMURA","perfecture_jp":"秋田県","jp_add_1":"横手市","jp_add_2":"大雄田村"},"0130428":{"post_code":"0130428","prefecture":"AKITA KEN","city":"YOKOTE SHI","town":"TAIYU TSURUMAKIDA","perfecture_jp":"秋田県","jp_add_1":"横手市","jp_add_2":"大雄鶴巻田"},"0130322":{"post_code":"0130322","prefecture":"AKITA KEN","city":"YOKOTE SHI","town":"TAIYU DENZOMURA","perfecture_jp":"秋田県","jp_add_1":"横手市","jp_add_2":"大雄伝蔵村"},"0130423":{"post_code":"0130423","prefecture":"AKITA KEN","city":"YOKOTE SHI","town":"TAIYU DOIJIRI","perfecture_jp":"秋田県","jp_add_1":"横手市","jp_add_2":"大雄土井尻"},"0130462":{"post_code":"0130462","prefecture":"AKITA KEN","city":"YOKOTE SHI","town":"TAIYU TOYOWAKI","perfecture_jp":"秋田県","jp_add_1":"横手市","jp_add_2":"大雄樋脇"},"0130424":{"post_code":"0130424","prefecture":"AKITA KEN","city":"YOKOTE SHI","town":"TAIYU NAKATATEAI","perfecture_jp":"秋田県","jp_add_1":"横手市","jp_add_2":"大雄中館合"},"0130312":{"post_code":"0130312","prefecture":"AKITA KEN","city":"YOKOTE SHI","town":"TAIYU NAKANO","perfecture_jp":"秋田県","jp_add_1":"横手市","jp_add_2":"大雄中野"},"0130311":{"post_code":"0130311","prefecture":"AKITA KEN","city":"YOKOTE SHI","town":"TAIYU NAKANOHIGASHI","perfecture_jp":"秋田県","jp_add_1":"横手市","jp_add_2":"大雄中野東"},"0130468":{"post_code":"0130468","prefecture":"AKITA KEN","city":"YOKOTE SHI","town":"TAIYU NAKAYACHI","perfecture_jp":"秋田県","jp_add_1":"横手市","jp_add_2":"大雄中谷地"},"0130476":{"post_code":"0130476","prefecture":"AKITA KEN","city":"YOKOTE SHI","town":"TAIYU NISHISAKURAMORI","perfecture_jp":"秋田県","jp_add_1":"横手市","jp_add_2":"大雄西桜森"},"0130425":{"post_code":"0130425","prefecture":"AKITA KEN","city":"YOKOTE SHI","town":"TAIYU NISHITATEAI","perfecture_jp":"秋田県","jp_add_1":"横手市","jp_add_2":"大雄西館合"},"0130433":{"post_code":"0130433","prefecture":"AKITA KEN","city":"YOKOTE SHI","town":"TAIYU NISHINAKAJIMA","perfecture_jp":"秋田県","jp_add_1":"横手市","jp_add_2":"大雄西中島"},"0130406":{"post_code":"0130406","prefecture":"AKITA KEN","city":"YOKOTE SHI","town":"TAIYU NISHIYOTSUYA","perfecture_jp":"秋田県","jp_add_1":"横手市","jp_add_2":"大雄西四津屋"},"0130441":{"post_code":"0130441","prefecture":"AKITA KEN","city":"YOKOTE SHI","town":"TAIYU NONAKA","perfecture_jp":"秋田県","jp_add_1":"横手市","jp_add_2":"大雄野中"},"0130446":{"post_code":"0130446","prefecture":"AKITA KEN","city":"YOKOTE SHI","town":"TAIYU NORIAGE","perfecture_jp":"秋田県","jp_add_1":"横手市","jp_add_2":"大雄乗阿気"},"0130448":{"post_code":"0130448","prefecture":"AKITA KEN","city":"YOKOTE SHI","town":"TAIYU NORIAGESHITA","perfecture_jp":"秋田県","jp_add_1":"横手市","jp_add_2":"大雄乗阿気下"},"0130472":{"post_code":"0130472","prefecture":"AKITA KEN","city":"YOKOTE SHI","town":"TAIYU HIGASHIAGE","perfecture_jp":"秋田県","jp_add_1":"横手市","jp_add_2":"大雄東阿気"},"0130473":{"post_code":"0130473","prefecture":"AKITA KEN","city":"YOKOTE SHI","town":"TAIYU HIGASHISAKURAMORI","perfecture_jp":"秋田県","jp_add_1":"横手市","jp_add_2":"大雄東桜森"},"0130331":{"post_code":"0130331","prefecture":"AKITA KEN","city":"YOKOTE SHI","town":"TAIYU HIGASHITAKAZUNO","perfecture_jp":"秋田県","jp_add_1":"横手市","jp_add_2":"大雄東高津野"},"0130488":{"post_code":"0130488","prefecture":"AKITA KEN","city":"YOKOTE SHI","town":"TAIYU HIGASHITATEAI","perfecture_jp":"秋田県","jp_add_1":"横手市","jp_add_2":"大雄東館合"},"0130432":{"post_code":"0130432","prefecture":"AKITA KEN","city":"YOKOTE SHI","town":"TAIYU HIGASHINAKAJIMA","perfecture_jp":"秋田県","jp_add_1":"横手市","jp_add_2":"大雄東中島"},"0130409":{"post_code":"0130409","prefecture":"AKITA KEN","city":"YOKOTE SHI","town":"TAIYU HIGASHIYOTSUYA","perfecture_jp":"秋田県","jp_add_1":"横手市","jp_add_2":"大雄東四津屋"},"0130482":{"post_code":"0130482","prefecture":"AKITA KEN","city":"YOKOTE SHI","town":"TAIYU HIRAYANAGI","perfecture_jp":"秋田県","jp_add_1":"横手市","jp_add_2":"大雄平柳"},"0130301":{"post_code":"0130301","prefecture":"AKITA KEN","city":"YOKOTE SHI","town":"TAIYU FUKUJIMA","perfecture_jp":"秋田県","jp_add_1":"横手市","jp_add_2":"大雄福島"},"0130303":{"post_code":"0130303","prefecture":"AKITA KEN","city":"YOKOTE SHI","town":"TAIYU FUKUJIMAMINAMI","perfecture_jp":"秋田県","jp_add_1":"横手市","jp_add_2":"大雄福島南"},"0130364":{"post_code":"0130364","prefecture":"AKITA KEN","city":"YOKOTE SHI","town":"TAIYU FUKUROYACHI","perfecture_jp":"秋田県","jp_add_1":"横手市","jp_add_2":"大雄袋谷地"},"0130414":{"post_code":"0130414","prefecture":"AKITA KEN","city":"YOKOTE SHI","town":"TAIYU FUJIMAKI","perfecture_jp":"秋田県","jp_add_1":"横手市","jp_add_2":"大雄藤巻"},"0130416":{"post_code":"0130416","prefecture":"AKITA KEN","city":"YOKOTE SHI","town":"TAIYU FUJIMAKINAKAJIMA","perfecture_jp":"秋田県","jp_add_1":"横手市","jp_add_2":"大雄藤巻中島"},"0130415":{"post_code":"0130415","prefecture":"AKITA KEN","city":"YOKOTE SHI","town":"TAIYU FUJIMAKINISHI","perfecture_jp":"秋田県","jp_add_1":"横手市","jp_add_2":"大雄藤巻西"},"0130371":{"post_code":"0130371","prefecture":"AKITA KEN","city":"YOKOTE SHI","town":"TAIYU BUNZOBIRAKI","perfecture_jp":"秋田県","jp_add_1":"横手市","jp_add_2":"大雄文蔵開"},"0130345":{"post_code":"0130345","prefecture":"AKITA KEN","city":"YOKOTE SHI","town":"TAIYU HONJOMICHIKITASEKIMA","perfecture_jp":"秋田県","jp_add_1":"横手市","jp_add_2":"大雄本庄道北堰間"},"0130347":{"post_code":"0130347","prefecture":"AKITA KEN","city":"YOKOTE SHI","town":"TAIYU HONJOMICHIMINAMI","perfecture_jp":"秋田県","jp_add_1":"横手市","jp_add_2":"大雄本庄道南"},"0130385":{"post_code":"0130385","prefecture":"AKITA KEN","city":"YOKOTE SHI","town":"TAIYU MANKAI","perfecture_jp":"秋田県","jp_add_1":"横手市","jp_add_2":"大雄万貝"},"0130422":{"post_code":"0130422","prefecture":"AKITA KEN","city":"YOKOTE SHI","town":"TAIYU MINAMIAGE","perfecture_jp":"秋田県","jp_add_1":"横手市","jp_add_2":"大雄南阿気"},"0130405":{"post_code":"0130405","prefecture":"AKITA KEN","city":"YOKOTE SHI","town":"TAIYU MINAMIYOTSUYA","perfecture_jp":"秋田県","jp_add_1":"横手市","jp_add_2":"大雄南四津屋"},"0130339":{"post_code":"0130339","prefecture":"AKITA KEN","city":"YOKOTE SHI","town":"TAIYU MIMIDORI","perfecture_jp":"秋田県","jp_add_1":"横手市","jp_add_2":"大雄耳取"},"0130338":{"post_code":"0130338","prefecture":"AKITA KEN","city":"YOKOTE SHI","town":"TAIYU MIMIDORINISHI","perfecture_jp":"秋田県","jp_add_1":"横手市","jp_add_2":"大雄耳取西"},"0130466":{"post_code":"0130466","prefecture":"AKITA KEN","city":"YOKOTE SHI","town":"TAIYU MIMURA","perfecture_jp":"秋田県","jp_add_1":"横手市","jp_add_2":"大雄三村"},"0130453":{"post_code":"0130453","prefecture":"AKITA KEN","city":"YOKOTE SHI","town":"TAIYU MIMURAKITA","perfecture_jp":"秋田県","jp_add_1":"横手市","jp_add_2":"大雄三村北"},"0130467":{"post_code":"0130467","prefecture":"AKITA KEN","city":"YOKOTE SHI","town":"TAIYU MIMURANISHI","perfecture_jp":"秋田県","jp_add_1":"横手市","jp_add_2":"大雄三村西"},"0130461":{"post_code":"0130461","prefecture":"AKITA KEN","city":"YOKOTE SHI","town":"TAIYU MIMURAHIGASHI","perfecture_jp":"秋田県","jp_add_1":"横手市","jp_add_2":"大雄三村東"},"0130429":{"post_code":"0130429","prefecture":"AKITA KEN","city":"YOKOTE SHI","town":"TAIYU MIYAKOJI","perfecture_jp":"秋田県","jp_add_1":"横手市","jp_add_2":"大雄宮小路"},"0130413":{"post_code":"0130413","prefecture":"AKITA KEN","city":"YOKOTE SHI","town":"TAIYU MIYATA","perfecture_jp":"秋田県","jp_add_1":"横手市","jp_add_2":"大雄宮田"},"0130358":{"post_code":"0130358","prefecture":"AKITA KEN","city":"YOKOTE SHI","town":"TAIYU MUKAI","perfecture_jp":"秋田県","jp_add_1":"横手市","jp_add_2":"大雄向"},"0130445":{"post_code":"0130445","prefecture":"AKITA KEN","city":"YOKOTE SHI","town":"TAIYU MUKAIDA","perfecture_jp":"秋田県","jp_add_1":"横手市","jp_add_2":"大雄向田"},"0130444":{"post_code":"0130444","prefecture":"AKITA KEN","city":"YOKOTE SHI","town":"TAIYU MUKAIDAHIGASHI","perfecture_jp":"秋田県","jp_add_1":"横手市","jp_add_2":"大雄向田東"},"0130357":{"post_code":"0130357","prefecture":"AKITA KEN","city":"YOKOTE SHI","town":"TAIYU MUKAIHIGASHI","perfecture_jp":"秋田県","jp_add_1":"横手市","jp_add_2":"大雄向東"},"0130402":{"post_code":"0130402","prefecture":"AKITA KEN","city":"YOKOTE SHI","town":"TAIYU YAGASHIWA","perfecture_jp":"秋田県","jp_add_1":"横手市","jp_add_2":"大雄八柏"},"0130379":{"post_code":"0130379","prefecture":"AKITA KEN","city":"YOKOTE SHI","town":"TAIYU YAGASHIWAIEMA","perfecture_jp":"秋田県","jp_add_1":"横手市","jp_add_2":"大雄八柏家間"},"0130376":{"post_code":"0130376","prefecture":"AKITA KEN","city":"YOKOTE SHI","town":"TAIYU YAGASHIWAUMAMICHIZOI","perfecture_jp":"秋田県","jp_add_1":"横手市","jp_add_2":"大雄八柏馬道添"},"0130378":{"post_code":"0130378","prefecture":"AKITA KEN","city":"YOKOTE SHI","town":"TAIYU YAGASHIWAKAIDOZOI","perfecture_jp":"秋田県","jp_add_1":"横手市","jp_add_2":"大雄八柏街道添"},"0130375":{"post_code":"0130375","prefecture":"AKITA KEN","city":"YOKOTE SHI","town":"TAIYU YAGASHIWAKAMABUTA","perfecture_jp":"秋田県","jp_add_1":"横手市","jp_add_2":"大雄八柏釜蓋"},"0130381":{"post_code":"0130381","prefecture":"AKITA KEN","city":"YOKOTE SHI","town":"TAIYU YAGASHIWASHIMOMURA","perfecture_jp":"秋田県","jp_add_1":"横手市","jp_add_2":"大雄八柏下村"},"0130377":{"post_code":"0130377","prefecture":"AKITA KEN","city":"YOKOTE SHI","town":"TAIYU YAGASHIWANAKAMURA","perfecture_jp":"秋田県","jp_add_1":"横手市","jp_add_2":"大雄八柏中村"},"0130374":{"post_code":"0130374","prefecture":"AKITA KEN","city":"YOKOTE SHI","town":"TAIYU YAGASHIWANAKAMURAHIGASHI","perfecture_jp":"秋田県","jp_add_1":"横手市","jp_add_2":"大雄八柏中村東"},"0130384":{"post_code":"0130384","prefecture":"AKITA KEN","city":"YOKOTE SHI","town":"TAIYU YAGASHIWAMURAOMOTE","perfecture_jp":"秋田県","jp_add_1":"横手市","jp_add_2":"大雄八柏村表"},"0130383":{"post_code":"0130383","prefecture":"AKITA KEN","city":"YOKOTE SHI","town":"TAIYU YAGASHIWAMURANISHI","perfecture_jp":"秋田県","jp_add_1":"横手市","jp_add_2":"大雄八柏村西"},"0130373":{"post_code":"0130373","prefecture":"AKITA KEN","city":"YOKOTE SHI","town":"TAIYU YAGASHIWAYACHI","perfecture_jp":"秋田県","jp_add_1":"横手市","jp_add_2":"大雄八柏谷地"},"0130327":{"post_code":"0130327","prefecture":"AKITA KEN","city":"YOKOTE SHI","town":"TAIYU YAKENO","perfecture_jp":"秋田県","jp_add_1":"横手市","jp_add_2":"大雄焼野"},"0130341":{"post_code":"0130341","prefecture":"AKITA KEN","city":"YOKOTE SHI","town":"TAIYU YOTSUYA","perfecture_jp":"秋田県","jp_add_1":"横手市","jp_add_2":"大雄四ッ屋"},"0130407":{"post_code":"0130407","prefecture":"AKITA KEN","city":"YOKOTE SHI","town":"TAIYU YOTSUYASHITA","perfecture_jp":"秋田県","jp_add_1":"横手市","jp_add_2":"大雄四津屋下"},"0130346":{"post_code":"0130346","prefecture":"AKITA KEN","city":"YOKOTE SHI","town":"TAIYU YOTSUYANISHI","perfecture_jp":"秋田県","jp_add_1":"横手市","jp_add_2":"大雄四ツ屋西"},"0130319":{"post_code":"0130319","prefecture":"AKITA KEN","city":"YOKOTE SHI","town":"TAIYU YOTSUYAHIGASHI","perfecture_jp":"秋田県","jp_add_1":"横手市","jp_add_2":"大雄四ツ屋東"},"0130419":{"post_code":"0130419","prefecture":"AKITA KEN","city":"YOKOTE SHI","town":"TAIYU ROKUCHO","perfecture_jp":"秋田県","jp_add_1":"横手市","jp_add_2":"大雄六町"},"0130417":{"post_code":"0130417","prefecture":"AKITA KEN","city":"YOKOTE SHI","town":"TAIYU ROKUCHOSHITA","perfecture_jp":"秋田県","jp_add_1":"横手市","jp_add_2":"大雄六町下"},"0130418":{"post_code":"0130418","prefecture":"AKITA KEN","city":"YOKOTE SHI","town":"TAIYU ROKUCHOHIGASHI","perfecture_jp":"秋田県","jp_add_1":"横手市","jp_add_2":"大雄六町東"},"0130024":{"post_code":"0130024","prefecture":"AKITA KEN","city":"YOKOTE SHI","town":"TANAKAMACHI","perfecture_jp":"秋田県","jp_add_1":"横手市","jp_add_2":"田中町"},"0130023":{"post_code":"0130023","prefecture":"AKITA KEN","city":"YOKOTE SHI","town":"CHUOMACHI","perfecture_jp":"秋田県","jp_add_1":"横手市","jp_add_2":"中央町"},"0130066":{"post_code":"0130066","prefecture":"AKITA KEN","city":"YOKOTE SHI","town":"TSUKABORI","perfecture_jp":"秋田県","jp_add_1":"横手市","jp_add_2":"塚堀"},"0130016":{"post_code":"0130016","prefecture":"AKITA KEN","city":"YOKOTE SHI","town":"NEGISHICHO","perfecture_jp":"秋田県","jp_add_1":"横手市","jp_add_2":"根岸町"},"0130015":{"post_code":"0130015","prefecture":"AKITA KEN","city":"YOKOTE SHI","town":"HAGUROCHO","perfecture_jp":"秋田県","jp_add_1":"横手市","jp_add_2":"羽黒町"},"0130825":{"post_code":"0130825","prefecture":"AKITA KEN","city":"YOKOTE SHI","town":"HYAKUMANGARI","perfecture_jp":"秋田県","jp_add_1":"横手市","jp_add_2":"百万刈"},"0130105":{"post_code":"0130105","prefecture":"AKITA KEN","city":"YOKOTE SHI","town":"HIRAKAMACHI ASAMAI","perfecture_jp":"秋田県","jp_add_1":"横手市","jp_add_2":"平鹿町浅舞"},"0130101":{"post_code":"0130101","prefecture":"AKITA KEN","city":"YOKOTE SHI","town":"HIRAKAMACHI KAMIYOSHIDA","perfecture_jp":"秋田県","jp_add_1":"横手市","jp_add_2":"平鹿町上吉田"},"0130103":{"post_code":"0130103","prefecture":"AKITA KEN","city":"YOKOTE SHI","town":"HIRAKAMACHI SHIMONABEKURA","perfecture_jp":"秋田県","jp_add_1":"横手市","jp_add_2":"平鹿町下鍋倉"},"0130107":{"post_code":"0130107","prefecture":"AKITA KEN","city":"YOKOTE SHI","town":"HIRAKAMACHI SHIMOYOSHIDA","perfecture_jp":"秋田県","jp_add_1":"横手市","jp_add_2":"平鹿町下吉田"},"0130102":{"post_code":"0130102","prefecture":"AKITA KEN","city":"YOKOTE SHI","town":"HIRAKAMACHI DAIGO","perfecture_jp":"秋田県","jp_add_1":"横手市","jp_add_2":"平鹿町醍醐"},"0130104":{"post_code":"0130104","prefecture":"AKITA KEN","city":"YOKOTE SHI","town":"HIRAKAMACHI TARUMINAI","perfecture_jp":"秋田県","jp_add_1":"横手市","jp_add_2":"平鹿町樽見内"},"0130106":{"post_code":"0130106","prefecture":"AKITA KEN","city":"YOKOTE SHI","town":"HIRAKAMACHI NAKAYOSHIDA","perfecture_jp":"秋田県","jp_add_1":"横手市","jp_add_2":"平鹿町中吉田"},"0130027":{"post_code":"0130027","prefecture":"AKITA KEN","city":"YOKOTE SHI","town":"HIRAJOMACHI","perfecture_jp":"秋田県","jp_add_1":"横手市","jp_add_2":"平城町"},"0130063":{"post_code":"0130063","prefecture":"AKITA KEN","city":"YOKOTE SHI","town":"FUKEOZUTSUMI","perfecture_jp":"秋田県","jp_add_1":"横手市","jp_add_2":"婦気大堤"},"0130019":{"post_code":"0130019","prefecture":"AKITA KEN","city":"YOKOTE SHI","town":"FUTABACHO","perfecture_jp":"秋田県","jp_add_1":"横手市","jp_add_2":"二葉町"},"0130035":{"post_code":"0130035","prefecture":"AKITA KEN","city":"YOKOTE SHI","town":"HEIWACHO","perfecture_jp":"秋田県","jp_add_1":"横手市","jp_add_2":"平和町"},"0130034":{"post_code":"0130034","prefecture":"AKITA KEN","city":"YOKOTE SHI","town":"HONGOCHO","perfecture_jp":"秋田県","jp_add_1":"横手市","jp_add_2":"本郷町"},"0130042":{"post_code":"0130042","prefecture":"AKITA KEN","city":"YOKOTE SHI","town":"MAEGO","perfecture_jp":"秋田県","jp_add_1":"横手市","jp_add_2":"前郷"},"0130038":{"post_code":"0130038","prefecture":"AKITA KEN","city":"YOKOTE SHI","town":"MAEGO ICHIBANCHO","perfecture_jp":"秋田県","jp_add_1":"横手市","jp_add_2":"前郷一番町"},"0130037":{"post_code":"0130037","prefecture":"AKITA KEN","city":"YOKOTE SHI","town":"MAEGO NIBANCHO","perfecture_jp":"秋田県","jp_add_1":"横手市","jp_add_2":"前郷二番町"},"0130047":{"post_code":"0130047","prefecture":"AKITA KEN","city":"YOKOTE SHI","town":"MATSUBARAMACHI","perfecture_jp":"秋田県","jp_add_1":"横手市","jp_add_2":"松原町"},"0130045":{"post_code":"0130045","prefecture":"AKITA KEN","city":"YOKOTE SHI","town":"MINAMIMACHI","perfecture_jp":"秋田県","jp_add_1":"横手市","jp_add_2":"南町"},"0130004":{"post_code":"0130004","prefecture":"AKITA KEN","city":"YOKOTE SHI","town":"MYOEICHO","perfecture_jp":"秋田県","jp_add_1":"横手市","jp_add_2":"明永町"},"0130008":{"post_code":"0130008","prefecture":"AKITA KEN","city":"YOKOTE SHI","town":"MUTSUNARI","perfecture_jp":"秋田県","jp_add_1":"横手市","jp_add_2":"睦成"},"0130018":{"post_code":"0130018","prefecture":"AKITA KEN","city":"YOKOTE SHI","town":"MOTOMACHI","perfecture_jp":"秋田県","jp_add_1":"横手市","jp_add_2":"本町"},"0130043":{"post_code":"0130043","prefecture":"AKITA KEN","city":"YOKOTE SHI","town":"YASUDA","perfecture_jp":"秋田県","jp_add_1":"横手市","jp_add_2":"安田"},"0130048":{"post_code":"0130048","prefecture":"AKITA KEN","city":"YOKOTE SHI","town":"YASUDAHARAMACHI","perfecture_jp":"秋田県","jp_add_1":"横手市","jp_add_2":"安田原町"},"0130811":{"post_code":"0130811","prefecture":"AKITA KEN","city":"YOKOTE SHI","town":"YASUMOTO","perfecture_jp":"秋田県","jp_add_1":"横手市","jp_add_2":"安本"},"0130054":{"post_code":"0130054","prefecture":"AKITA KEN","city":"YOKOTE SHI","town":"YANAGIDA","perfecture_jp":"秋田県","jp_add_1":"横手市","jp_add_2":"柳田"},"0130071":{"post_code":"0130071","prefecture":"AKITA KEN","city":"YOKOTE SHI","town":"YAWATA","perfecture_jp":"秋田県","jp_add_1":"横手市","jp_add_2":"八幡"},"0130061":{"post_code":"0130061","prefecture":"AKITA KEN","city":"YOKOTE SHI","town":"YOKOTEMACHI","perfecture_jp":"秋田県","jp_add_1":"横手市","jp_add_2":"横手町"},"0130044":{"post_code":"0130044","prefecture":"AKITA KEN","city":"YOKOTE SHI","town":"YOKOYAMACHO","perfecture_jp":"秋田県","jp_add_1":"横手市","jp_add_2":"横山町"},"0130022":{"post_code":"0130022","prefecture":"AKITA KEN","city":"YOKOTE SHI","town":"YOKKAMACHI","perfecture_jp":"秋田県","jp_add_1":"横手市","jp_add_2":"四日町"}}