{"0140000":{"post_code":"0140000","prefecture":"AKITA KEN","city":"DAISEN SHI","town":"IKANIKEISAIGANAIBAAI","perfecture_jp":"秋田県","jp_add_1":"大仙市","jp_add_2":""},"0140013":{"post_code":"0140013","prefecture":"AKITA KEN","city":"DAISEN SHI","town":"ASAHIMACHI","perfecture_jp":"秋田県","jp_add_1":"大仙市","jp_add_2":"朝日町"},"0140067":{"post_code":"0140067","prefecture":"AKITA KEN","city":"DAISEN SHI","town":"IIDA","perfecture_jp":"秋田県","jp_add_1":"大仙市","jp_add_2":"飯田"},"0140004":{"post_code":"0140004","prefecture":"AKITA KEN","city":"DAISEN SHI","town":"IZUMICHO","perfecture_jp":"秋田県","jp_add_1":"大仙市","jp_add_2":"泉町"},"0140112":{"post_code":"0140112","prefecture":"AKITA KEN","city":"DAISEN SHI","town":"ITAMINAI","perfecture_jp":"秋田県","jp_add_1":"大仙市","jp_add_2":"板見内"},"0140073":{"post_code":"0140073","prefecture":"AKITA KEN","city":"DAISEN SHI","town":"UCHIOTOMO","perfecture_jp":"秋田県","jp_add_1":"大仙市","jp_add_2":"内小友"},"0140714":{"post_code":"0140714","prefecture":"AKITA KEN","city":"DAISEN SHI","town":"OKANNARI","perfecture_jp":"秋田県","jp_add_1":"大仙市","jp_add_2":"大神成"},"0140022":{"post_code":"0140022","prefecture":"AKITA KEN","city":"DAISEN SHI","town":"OHANACHO","perfecture_jp":"秋田県","jp_add_1":"大仙市","jp_add_2":"大花町"},"0140031":{"post_code":"0140031","prefecture":"AKITA KEN","city":"DAISEN SHI","town":"OMAGARI","perfecture_jp":"秋田県","jp_add_1":"大仙市","jp_add_2":"大曲"},"0140055":{"post_code":"0140055","prefecture":"AKITA KEN","city":"DAISEN SHI","town":"OMAGARI AKEBONOCHO","perfecture_jp":"秋田県","jp_add_1":"大仙市","jp_add_2":"大曲あけぼの町"},"0140068":{"post_code":"0140068","prefecture":"AKITA KEN","city":"DAISEN SHI","town":"OMAGARI IIDACHO","perfecture_jp":"秋田県","jp_add_1":"大仙市","jp_add_2":"大曲飯田町"},"0140025":{"post_code":"0140025","prefecture":"AKITA KEN","city":"DAISEN SHI","town":"OMAGARI OMACHI","perfecture_jp":"秋田県","jp_add_1":"大仙市","jp_add_2":"大曲大町"},"0140054":{"post_code":"0140054","prefecture":"AKITA KEN","city":"DAISEN SHI","town":"OMAGARI KANAYACHO","perfecture_jp":"秋田県","jp_add_1":"大仙市","jp_add_2":"大曲金谷町"},"0140048":{"post_code":"0140048","prefecture":"AKITA KEN","city":"DAISEN SHI","town":"OMAGARI KAMIOMACHI","perfecture_jp":"秋田県","jp_add_1":"大仙市","jp_add_2":"大曲上大町"},"0140062":{"post_code":"0140062","prefecture":"AKITA KEN","city":"DAISEN SHI","town":"OMAGARI KAMISAKAECHO","perfecture_jp":"秋田県","jp_add_1":"大仙市","jp_add_2":"大曲上栄町"},"0140052":{"post_code":"0140052","prefecture":"AKITA KEN","city":"DAISEN SHI","town":"OMAGARI KAWARACHO","perfecture_jp":"秋田県","jp_add_1":"大仙市","jp_add_2":"大曲川原町"},"0140023":{"post_code":"0140023","prefecture":"AKITA KEN","city":"DAISEN SHI","town":"OMAGARI KUROSECHO","perfecture_jp":"秋田県","jp_add_1":"大仙市","jp_add_2":"大曲黒瀬町"},"0140061":{"post_code":"0140061","prefecture":"AKITA KEN","city":"DAISEN SHI","town":"OMAGARI SAKAECHO","perfecture_jp":"秋田県","jp_add_1":"大仙市","jp_add_2":"大曲栄町"},"0140015":{"post_code":"0140015","prefecture":"AKITA KEN","city":"DAISEN SHI","town":"OMAGARI SHIROGANECHO","perfecture_jp":"秋田県","jp_add_1":"大仙市","jp_add_2":"大曲白金町"},"0140034":{"post_code":"0140034","prefecture":"AKITA KEN","city":"DAISEN SHI","town":"OMAGARI SUMIYOSHICHO","perfecture_jp":"秋田県","jp_add_1":"大仙市","jp_add_2":"大曲住吉町"},"0140047":{"post_code":"0140047","prefecture":"AKITA KEN","city":"DAISEN SHI","town":"OMAGARI SUWACHO","perfecture_jp":"秋田県","jp_add_1":"大仙市","jp_add_2":"大曲須和町"},"0140046":{"post_code":"0140046","prefecture":"AKITA KEN","city":"DAISEN SHI","town":"OMAGARI TAMACHI","perfecture_jp":"秋田県","jp_add_1":"大仙市","jp_add_2":"大曲田町"},"0140027":{"post_code":"0140027","prefecture":"AKITA KEN","city":"DAISEN SHI","town":"OMAGARI TORIMACHI","perfecture_jp":"秋田県","jp_add_1":"大仙市","jp_add_2":"大曲通町"},"0140043":{"post_code":"0140043","prefecture":"AKITA KEN","city":"DAISEN SHI","town":"OMAGARI TOMAKICHO","perfecture_jp":"秋田県","jp_add_1":"大仙市","jp_add_2":"大曲戸巻町"},"0140024":{"post_code":"0140024","prefecture":"AKITA KEN","city":"DAISEN SHI","town":"OMAGARI NAKADORIMACHI","perfecture_jp":"秋田県","jp_add_1":"大仙市","jp_add_2":"大曲中通町"},"0140053":{"post_code":"0140053","prefecture":"AKITA KEN","city":"DAISEN SHI","town":"OMAGARI HANAZONOCHO","perfecture_jp":"秋田県","jp_add_1":"大仙市","jp_add_2":"大曲花園町"},"0140051":{"post_code":"0140051","prefecture":"AKITA KEN","city":"DAISEN SHI","town":"OMAGARI HAMACHO","perfecture_jp":"秋田県","jp_add_1":"大仙市","jp_add_2":"大曲浜町"},"0140063":{"post_code":"0140063","prefecture":"AKITA KEN","city":"DAISEN SHI","town":"OMAGARI HINODECHO","perfecture_jp":"秋田県","jp_add_1":"大仙市","jp_add_2":"大曲日の出町"},"0140014":{"post_code":"0140014","prefecture":"AKITA KEN","city":"DAISEN SHI","town":"OMAGARI FUKUZUMICHO","perfecture_jp":"秋田県","jp_add_1":"大仙市","jp_add_2":"大曲福住町"},"0140042":{"post_code":"0140042","prefecture":"AKITA KEN","city":"DAISEN SHI","town":"OMAGARI FUKUMICHO","perfecture_jp":"秋田県","jp_add_1":"大仙市","jp_add_2":"大曲福見町"},"0140057":{"post_code":"0140057","prefecture":"AKITA KEN","city":"DAISEN SHI","town":"OMAGARI FUNABACHO","perfecture_jp":"秋田県","jp_add_1":"大仙市","jp_add_2":"大曲船場町"},"0140041":{"post_code":"0140041","prefecture":"AKITA KEN","city":"DAISEN SHI","town":"OMAGARI MARUKOCHO","perfecture_jp":"秋田県","jp_add_1":"大仙市","jp_add_2":"大曲丸子町"},"0140026":{"post_code":"0140026","prefecture":"AKITA KEN","city":"DAISEN SHI","town":"OMAGARI MARUNOCHIMACHI","perfecture_jp":"秋田県","jp_add_1":"大仙市","jp_add_2":"大曲丸の内町"},"0140056":{"post_code":"0140056","prefecture":"AKITA KEN","city":"DAISEN SHI","town":"OMAGARI MIDORICHO","perfecture_jp":"秋田県","jp_add_1":"大仙市","jp_add_2":"大曲緑町"},"0140045":{"post_code":"0140045","prefecture":"AKITA KEN","city":"DAISEN SHI","town":"OMAGARI WAKABACHO","perfecture_jp":"秋田県","jp_add_1":"大仙市","jp_add_2":"大曲若葉町"},"0140072":{"post_code":"0140072","prefecture":"AKITA KEN","city":"DAISEN SHI","town":"OMAGARI NISHINE","perfecture_jp":"秋田県","jp_add_1":"大仙市","jp_add_2":"大曲西根"},"0140064":{"post_code":"0140064","prefecture":"AKITA KEN","city":"DAISEN SHI","town":"ONUKITAKABATAKE","perfecture_jp":"秋田県","jp_add_1":"大仙市","jp_add_2":"小貫高畑"},"0141413":{"post_code":"0141413","prefecture":"AKITA KEN","city":"DAISEN SHI","town":"KAKUMAGAWAMACHI","perfecture_jp":"秋田県","jp_add_1":"大仙市","jp_add_2":"角間川町"},"0140202":{"post_code":"0140202","prefecture":"AKITA KEN","city":"DAISEN SHI","town":"KAMIUGUISUNO","perfecture_jp":"秋田県","jp_add_1":"大仙市","jp_add_2":"上鶯野"},"0140066":{"post_code":"0140066","prefecture":"AKITA KEN","city":"DAISEN SHI","town":"KAWANOME","perfecture_jp":"秋田県","jp_add_1":"大仙市","jp_add_2":"川目"},"0140203":{"post_code":"0140203","prefecture":"AKITA KEN","city":"DAISEN SHI","town":"KITANAGANO","perfecture_jp":"秋田県","jp_add_1":"大仙市","jp_add_2":"北長野"},"0140713":{"post_code":"0140713","prefecture":"AKITA KEN","city":"DAISEN SHI","town":"KURISAWA","perfecture_jp":"秋田県","jp_add_1":"大仙市","jp_add_2":"栗沢"},"0140803":{"post_code":"0140803","prefecture":"AKITA KEN","city":"DAISEN SHI","town":"KOZUKETA","perfecture_jp":"秋田県","jp_add_1":"大仙市","jp_add_2":"上野田"},"0140012":{"post_code":"0140012","prefecture":"AKITA KEN","city":"DAISEN SHI","town":"SAIWAICHO","perfecture_jp":"秋田県","jp_add_1":"大仙市","jp_add_2":"幸町"},"0140017":{"post_code":"0140017","prefecture":"AKITA KEN","city":"DAISEN SHI","town":"SANOCHO","perfecture_jp":"秋田県","jp_add_1":"大仙市","jp_add_2":"佐野町"},"0140204":{"post_code":"0140204","prefecture":"AKITA KEN","city":"DAISEN SHI","town":"SHIMIZU","perfecture_jp":"秋田県","jp_add_1":"大仙市","jp_add_2":"清水"},"0140201":{"post_code":"0140201","prefecture":"AKITA KEN","city":"DAISEN SHI","town":"SHIMOGUISUNO","perfecture_jp":"秋田県","jp_add_1":"大仙市","jp_add_2":"下鶯野"},"0140065":{"post_code":"0140065","prefecture":"AKITA KEN","city":"DAISEN SHI","town":"SHIMOFUKAI","perfecture_jp":"秋田県","jp_add_1":"大仙市","jp_add_2":"下深井"},"0140103":{"post_code":"0140103","prefecture":"AKITA KEN","city":"DAISEN SHI","town":"TAKAZEKIKAMIGO","perfecture_jp":"秋田県","jp_add_1":"大仙市","jp_add_2":"高関上郷"},"0140805":{"post_code":"0140805","prefecture":"AKITA KEN","city":"DAISEN SHI","town":"TAKANASHI","perfecture_jp":"秋田県","jp_add_1":"大仙市","jp_add_2":"高梨"},"0140801":{"post_code":"0140801","prefecture":"AKITA KEN","city":"DAISEN SHI","town":"TOCHIYA","perfecture_jp":"秋田県","jp_add_1":"大仙市","jp_add_2":"戸地谷"},"0140044":{"post_code":"0140044","prefecture":"AKITA KEN","city":"DAISEN SHI","town":"TOMAKI","perfecture_jp":"秋田県","jp_add_1":"大仙市","jp_add_2":"戸蒔"},"0140712":{"post_code":"0140712","prefecture":"AKITA KEN","city":"DAISEN SHI","town":"TOYOKA","perfecture_jp":"秋田県","jp_add_1":"大仙市","jp_add_2":"豊岡"},"0140711":{"post_code":"0140711","prefecture":"AKITA KEN","city":"DAISEN SHI","town":"TOYOKAWA","perfecture_jp":"秋田県","jp_add_1":"大仙市","jp_add_2":"豊川"},"0140206":{"post_code":"0140206","prefecture":"AKITA KEN","city":"DAISEN SHI","town":"NAGATORO","perfecture_jp":"秋田県","jp_add_1":"大仙市","jp_add_2":"長戸呂"},"0140207":{"post_code":"0140207","prefecture":"AKITA KEN","city":"DAISEN SHI","town":"NAGANO","perfecture_jp":"秋田県","jp_add_1":"大仙市","jp_add_2":"長野"},"0140104":{"post_code":"0140104","prefecture":"AKITA KEN","city":"DAISEN SHI","town":"NIIYAJI","perfecture_jp":"秋田県","jp_add_1":"大仙市","jp_add_2":"新谷地"},"0140804":{"post_code":"0140804","prefecture":"AKITA KEN","city":"DAISEN SHI","town":"HASHIMOTO","perfecture_jp":"秋田県","jp_add_1":"大仙市","jp_add_2":"橋本"},"0140001":{"post_code":"0140001","prefecture":"AKITA KEN","city":"DAISEN SHI","town":"HANADATE","perfecture_jp":"秋田県","jp_add_1":"大仙市","jp_add_2":"花館"},"0140002":{"post_code":"0140002","prefecture":"AKITA KEN","city":"DAISEN SHI","town":"HANADATE KAMICHO","perfecture_jp":"秋田県","jp_add_1":"大仙市","jp_add_2":"花館上町"},"0140006":{"post_code":"0140006","prefecture":"AKITA KEN","city":"DAISEN SHI","town":"HANADATE NAKAMACHI","perfecture_jp":"秋田県","jp_add_1":"大仙市","jp_add_2":"花館中町"},"0140005":{"post_code":"0140005","prefecture":"AKITA KEN","city":"DAISEN SHI","town":"HANADATE YANAGIMACHI","perfecture_jp":"秋田県","jp_add_1":"大仙市","jp_add_2":"花館柳町"},"0140032":{"post_code":"0140032","prefecture":"AKITA KEN","city":"DAISEN SHI","town":"HIGASHIKAWA","perfecture_jp":"秋田県","jp_add_1":"大仙市","jp_add_2":"東川"},"0140071":{"post_code":"0140071","prefecture":"AKITA KEN","city":"DAISEN SHI","town":"HIRUGAWA","perfecture_jp":"秋田県","jp_add_1":"大仙市","jp_add_2":"蛭川"},"0140114":{"post_code":"0140114","prefecture":"AKITA KEN","city":"DAISEN SHI","town":"FUKUDA","perfecture_jp":"秋田県","jp_add_1":"大仙市","jp_add_2":"福田"},"0140021":{"post_code":"0140021","prefecture":"AKITA KEN","city":"DAISEN SHI","town":"FUKUDACHO","perfecture_jp":"秋田県","jp_add_1":"大仙市","jp_add_2":"福田町"},"0141412":{"post_code":"0141412","prefecture":"AKITA KEN","city":"DAISEN SHI","town":"FUJIKI","perfecture_jp":"秋田県","jp_add_1":"大仙市","jp_add_2":"藤木"},"0140011":{"post_code":"0140011","prefecture":"AKITA KEN","city":"DAISEN SHI","town":"FUJIMICHO","perfecture_jp":"秋田県","jp_add_1":"大仙市","jp_add_2":"富士見町"},"0140802":{"post_code":"0140802","prefecture":"AKITA KEN","city":"DAISEN SHI","town":"HOTTA","perfecture_jp":"秋田県","jp_add_1":"大仙市","jp_add_2":"払田"},"0140113":{"post_code":"0140113","prefecture":"AKITA KEN","city":"DAISEN SHI","town":"HORIMINAI","perfecture_jp":"秋田県","jp_add_1":"大仙市","jp_add_2":"堀見内"},"0140101":{"post_code":"0140101","prefecture":"AKITA KEN","city":"DAISEN SHI","town":"MATSUKURA","perfecture_jp":"秋田県","jp_add_1":"大仙市","jp_add_2":"松倉"},"0140003":{"post_code":"0140003","prefecture":"AKITA KEN","city":"DAISEN SHI","town":"MIHARACHO","perfecture_jp":"秋田県","jp_add_1":"大仙市","jp_add_2":"美原町"},"0140205":{"post_code":"0140205","prefecture":"AKITA KEN","city":"DAISEN SHI","town":"YARIMINAI","perfecture_jp":"秋田県","jp_add_1":"大仙市","jp_add_2":"鑓見内"},"0140111":{"post_code":"0140111","prefecture":"AKITA KEN","city":"DAISEN SHI","town":"YOKOBORI","perfecture_jp":"秋田県","jp_add_1":"大仙市","jp_add_2":"横堀"},"0140102":{"post_code":"0140102","prefecture":"AKITA KEN","city":"DAISEN SHI","town":"YOTSUYA","perfecture_jp":"秋田県","jp_add_1":"大仙市","jp_add_2":"四ツ屋"},"0141411":{"post_code":"0141411","prefecture":"AKITA KEN","city":"DAISEN SHI","town":"ROKUGONISHINE","perfecture_jp":"秋田県","jp_add_1":"大仙市","jp_add_2":"六郷西根"},"0140016":{"post_code":"0140016","prefecture":"AKITA KEN","city":"DAISEN SHI","town":"WAKATAKECHO","perfecture_jp":"秋田県","jp_add_1":"大仙市","jp_add_2":"若竹町"},"0140033":{"post_code":"0140033","prefecture":"AKITA KEN","city":"DAISEN SHI","town":"WAGO","perfecture_jp":"秋田県","jp_add_1":"大仙市","jp_add_2":"和合"},"0140300":{"post_code":"0140300","prefecture":"AKITA KEN","city":"SEMBOKU SHI","town":"IKANIKEISAIGANAIBAAI","perfecture_jp":"秋田県","jp_add_1":"仙北市","jp_add_2":""},"0140373":{"post_code":"0140373","prefecture":"AKITA KEN","city":"SEMBOKU SHI","town":"KAKUNODATEMACHI IWASE","perfecture_jp":"秋田県","jp_add_1":"仙北市","jp_add_2":"角館町岩瀬"},"0140375":{"post_code":"0140375","prefecture":"AKITA KEN","city":"SEMBOKU SHI","town":"KAKUNODATEMACHI IWASESHITANO","perfecture_jp":"秋田県","jp_add_1":"仙北市","jp_add_2":"角館町岩瀬下タ野"},"0140316":{"post_code":"0140316","prefecture":"AKITA KEN","city":"SEMBOKU SHI","town":"KAKUNODATEMACHI IWASEMACHI","perfecture_jp":"秋田県","jp_add_1":"仙北市","jp_add_2":"角館町岩瀬町"},"0140374":{"post_code":"0140374","prefecture":"AKITA KEN","city":"SEMBOKU SHI","town":"KAKUNODATEMACHI UWANO","perfecture_jp":"秋田県","jp_add_1":"仙北市","jp_add_2":"角館町上野"},"0140336":{"post_code":"0140336","prefecture":"AKITA KEN","city":"SEMBOKU SHI","town":"KAKUNODATEMACHI URAMACHI","perfecture_jp":"秋田県","jp_add_1":"仙北市","jp_add_2":"角館町裏町"},"0140364":{"post_code":"0140364","prefecture":"AKITA KEN","city":"SEMBOKU SHI","town":"KAKUNODATEMACHI ONAKAJIMA","perfecture_jp":"秋田県","jp_add_1":"仙北市","jp_add_2":"角館町大中嶋"},"0140371":{"post_code":"0140371","prefecture":"AKITA KEN","city":"SEMBOKU SHI","town":"KAKUNODATEMACHI OFURO","perfecture_jp":"秋田県","jp_add_1":"仙北市","jp_add_2":"角館町大風呂"},"0140347":{"post_code":"0140347","prefecture":"AKITA KEN","city":"SEMBOKU SHI","town":"KAKUNODATEMACHI OGATA","perfecture_jp":"秋田県","jp_add_1":"仙北市","jp_add_2":"角館町小勝田"},"0140332":{"post_code":"0140332","prefecture":"AKITA KEN","city":"SEMBOKU SHI","town":"KAKUNODATEMACHI OKACHIMACHI","perfecture_jp":"秋田県","jp_add_1":"仙北市","jp_add_2":"角館町歩行町"},"0140334":{"post_code":"0140334","prefecture":"AKITA KEN","city":"SEMBOKU SHI","town":"KAKUNODATEMACHI OMOTEMACHIKAMICHO","perfecture_jp":"秋田県","jp_add_1":"仙北市","jp_add_2":"角館町表町上丁"},"0140331":{"post_code":"0140331","prefecture":"AKITA KEN","city":"SEMBOKU SHI","town":"KAKUNODATEMACHI OMOTEMACHISHIMOCHO","perfecture_jp":"秋田県","jp_add_1":"仙北市","jp_add_2":"角館町表町下丁"},"0140367":{"post_code":"0140367","prefecture":"AKITA KEN","city":"SEMBOKU SHI","town":"KAKUNODATEMACHI KATSURAKU","perfecture_jp":"秋田県","jp_add_1":"仙北市","jp_add_2":"角館町勝楽"},"0140362":{"post_code":"0140362","prefecture":"AKITA KEN","city":"SEMBOKU SHI","town":"KAKUNODATEMACHI KANAYAMASHITA","perfecture_jp":"秋田県","jp_add_1":"仙北市","jp_add_2":"角館町金山下"},"0140327":{"post_code":"0140327","prefecture":"AKITA KEN","city":"SEMBOKU SHI","town":"KAKUNODATEMACHI KAMISHIMMACHI","perfecture_jp":"秋田県","jp_add_1":"仙北市","jp_add_2":"角館町上新町"},"0140369":{"post_code":"0140369","prefecture":"AKITA KEN","city":"SEMBOKU SHI","town":"KAKUNODATEMACHI KAMISUGAZAWA","perfecture_jp":"秋田県","jp_add_1":"仙北市","jp_add_2":"角館町上菅沢"},"0140346":{"post_code":"0140346","prefecture":"AKITA KEN","city":"SEMBOKU SHI","town":"KAKUNODATEMACHI KAWARA","perfecture_jp":"秋田県","jp_add_1":"仙北市","jp_add_2":"角館町川原"},"0140333":{"post_code":"0140333","prefecture":"AKITA KEN","city":"SEMBOKU SHI","town":"KAKUNODATEMACHI KAWARAMACHI","perfecture_jp":"秋田県","jp_add_1":"仙北市","jp_add_2":"角館町川原町"},"0140358":{"post_code":"0140358","prefecture":"AKITA KEN","city":"SEMBOKU SHI","town":"KAKUNODATEMACHI KAWARAMACHIUSHIRO","perfecture_jp":"秋田県","jp_add_1":"仙北市","jp_add_2":"角館町川原町後"},"0140359":{"post_code":"0140359","prefecture":"AKITA KEN","city":"SEMBOKU SHI","town":"KAKUNODATEMACHI KITANO","perfecture_jp":"秋田県","jp_add_1":"仙北市","jp_add_2":"角館町北野"},"0140341":{"post_code":"0140341","prefecture":"AKITA KEN","city":"SEMBOKU SHI","town":"KAKUNODATEMACHI KUMOSHIKARI","perfecture_jp":"秋田県","jp_add_1":"仙北市","jp_add_2":"角館町雲然"},"0140372":{"post_code":"0140372","prefecture":"AKITA KEN","city":"SEMBOKU SHI","town":"KAKUNODATEMACHI KODATE","perfecture_jp":"秋田県","jp_add_1":"仙北市","jp_add_2":"角館町小館"},"0140324":{"post_code":"0140324","prefecture":"AKITA KEN","city":"SEMBOKU SHI","town":"KAKUNODATEMACHI KOBITOMACHI","perfecture_jp":"秋田県","jp_add_1":"仙北市","jp_add_2":"角館町小人町"},"0140363":{"post_code":"0140363","prefecture":"AKITA KEN","city":"SEMBOKU SHI","town":"KAKUNODATEMACHI SHITAGAWARA","perfecture_jp":"秋田県","jp_add_1":"仙北市","jp_add_2":"角館町下川原"},"0140313":{"post_code":"0140313","prefecture":"AKITA KEN","city":"SEMBOKU SHI","town":"KAKUNODATEMACHI SHIMOIWASEMACHI","perfecture_jp":"秋田県","jp_add_1":"仙北市","jp_add_2":"角館町下岩瀬町"},"0140315":{"post_code":"0140315","prefecture":"AKITA KEN","city":"SEMBOKU SHI","town":"KAKUNODATEMACHI SHIMOSHIMMACHI","perfecture_jp":"秋田県","jp_add_1":"仙北市","jp_add_2":"角館町下新町"},"0140366":{"post_code":"0140366","prefecture":"AKITA KEN","city":"SEMBOKU SHI","town":"KAKUNODATEMACHI SHIMOSUGAZAWA","perfecture_jp":"秋田県","jp_add_1":"仙北市","jp_add_2":"角館町下菅沢"},"0140317":{"post_code":"0140317","prefecture":"AKITA KEN","city":"SEMBOKU SHI","town":"KAKUNODATEMACHI SHIMONAKAMACHI","perfecture_jp":"秋田県","jp_add_1":"仙北市","jp_add_2":"角館町下中町"},"0140343":{"post_code":"0140343","prefecture":"AKITA KEN","city":"SEMBOKU SHI","town":"KAKUNODATEMACHI SHIMONOBU","perfecture_jp":"秋田県","jp_add_1":"仙北市","jp_add_2":"角館町下延"},"0140302":{"post_code":"0140302","prefecture":"AKITA KEN","city":"SEMBOKU SHI","town":"KAKUNODATEMACHI SHIRAIWA","perfecture_jp":"秋田県","jp_add_1":"仙北市","jp_add_2":"角館町白岩"},"0140365":{"post_code":"0140365","prefecture":"AKITA KEN","city":"SEMBOKU SHI","town":"KAKUNODATEMACHI SUGAZAWA","perfecture_jp":"秋田県","jp_add_1":"仙北市","jp_add_2":"角館町菅沢"},"0140303":{"post_code":"0140303","prefecture":"AKITA KEN","city":"SEMBOKU SHI","town":"KAKUNODATEMACHI SONODA","perfecture_jp":"秋田県","jp_add_1":"仙北市","jp_add_2":"角館町薗田"},"0140328":{"post_code":"0140328","prefecture":"AKITA KEN","city":"SEMBOKU SHI","town":"KAKUNODATEMACHI TAKEWARAMACHI","perfecture_jp":"秋田県","jp_add_1":"仙北市","jp_add_2":"角館町竹原町"},"0140311":{"post_code":"0140311","prefecture":"AKITA KEN","city":"SEMBOKU SHI","town":"KAKUNODATEMACHI TAMACHIKAMICHO","perfecture_jp":"秋田県","jp_add_1":"仙北市","jp_add_2":"角館町田町上丁"},"0140312":{"post_code":"0140312","prefecture":"AKITA KEN","city":"SEMBOKU SHI","town":"KAKUNODATEMACHI TAMACHISHIMOCHO","perfecture_jp":"秋田県","jp_add_1":"仙北市","jp_add_2":"角館町田町下丁"},"0140352":{"post_code":"0140352","prefecture":"AKITA KEN","city":"SEMBOKU SHI","town":"KAKUNODATEMACHI TONOYAMA","perfecture_jp":"秋田県","jp_add_1":"仙北市","jp_add_2":"角館町外ノ山"},"0140355":{"post_code":"0140355","prefecture":"AKITA KEN","city":"SEMBOKU SHI","town":"KAKUNODATEMACHI TONOYAMAKANYUCHI","perfecture_jp":"秋田県","jp_add_1":"仙北市","jp_add_2":"角館町外ノ山官有地"},"0140361":{"post_code":"0140361","prefecture":"AKITA KEN","city":"SEMBOKU SHI","town":"KAKUNODATEMACHI TORIKIZAWA","perfecture_jp":"秋田県","jp_add_1":"仙北市","jp_add_2":"角館町鳥木沢"},"0140368":{"post_code":"0140368","prefecture":"AKITA KEN","city":"SEMBOKU SHI","town":"KAKUNODATEMACHI NAKASUGAZAWA","perfecture_jp":"秋田県","jp_add_1":"仙北市","jp_add_2":"角館町中菅沢"},"0140318":{"post_code":"0140318","prefecture":"AKITA KEN","city":"SEMBOKU SHI","town":"KAKUNODATEMACHI NAKAMACHI","perfecture_jp":"秋田県","jp_add_1":"仙北市","jp_add_2":"角館町中町"},"0140322":{"post_code":"0140322","prefecture":"AKITA KEN","city":"SEMBOKU SHI","town":"KAKUNODATEMACHI NANOKAMACHI","perfecture_jp":"秋田県","jp_add_1":"仙北市","jp_add_2":"角館町七日町"},"0140321":{"post_code":"0140321","prefecture":"AKITA KEN","city":"SEMBOKU SHI","town":"KAKUNODATEMACHI NISHIKATSURAKUMACHI","perfecture_jp":"秋田県","jp_add_1":"仙北市","jp_add_2":"角館町西勝楽町"},"0140379":{"post_code":"0140379","prefecture":"AKITA KEN","city":"SEMBOKU SHI","town":"KAKUNODATEMACHI NISHIKITANO","perfecture_jp":"秋田県","jp_add_1":"仙北市","jp_add_2":"角館町西北野"},"0140376":{"post_code":"0140376","prefecture":"AKITA KEN","city":"SEMBOKU SHI","town":"KAKUNODATEMACHI NISHISHITANO","perfecture_jp":"秋田県","jp_add_1":"仙北市","jp_add_2":"角館町西下タ野"},"0140353":{"post_code":"0140353","prefecture":"AKITA KEN","city":"SEMBOKU SHI","town":"KAKUNODATEMACHI NISHISUGAZAWA","perfecture_jp":"秋田県","jp_add_1":"仙北市","jp_add_2":"角館町西菅沢"},"0140377":{"post_code":"0140377","prefecture":"AKITA KEN","city":"SEMBOKU SHI","town":"KAKUNODATEMACHI NISHITA","perfecture_jp":"秋田県","jp_add_1":"仙北市","jp_add_2":"角館町西田"},"0140344":{"post_code":"0140344","prefecture":"AKITA KEN","city":"SEMBOKU SHI","town":"KAKUNODATEMACHI NISHINAGANO","perfecture_jp":"秋田県","jp_add_1":"仙北市","jp_add_2":"角館町西長野"},"0140378":{"post_code":"0140378","prefecture":"AKITA KEN","city":"SEMBOKU SHI","town":"KAKUNODATEMACHI NISHINOKAWARA","perfecture_jp":"秋田県","jp_add_1":"仙北市","jp_add_2":"角館町西野川原"},"0140342":{"post_code":"0140342","prefecture":"AKITA KEN","city":"SEMBOKU SHI","town":"KAKUNODATEMACHI HACHIWARI","perfecture_jp":"秋田県","jp_add_1":"仙北市","jp_add_2":"角館町八割"},"0140356":{"post_code":"0140356","prefecture":"AKITA KEN","city":"SEMBOKU SHI","town":"KAKUNODATEMACHI HANABA","perfecture_jp":"秋田県","jp_add_1":"仙北市","jp_add_2":"角館町花場"},"0140357":{"post_code":"0140357","prefecture":"AKITA KEN","city":"SEMBOKU SHI","town":"KAKUNODATEMACHI HANABASHITA","perfecture_jp":"秋田県","jp_add_1":"仙北市","jp_add_2":"角館町花場下"},"0140325":{"post_code":"0140325","prefecture":"AKITA KEN","city":"SEMBOKU SHI","town":"KAKUNODATEMACHI HIGASHIKATSURAKUCHO","perfecture_jp":"秋田県","jp_add_1":"仙北市","jp_add_2":"角館町東勝楽丁"},"0140301":{"post_code":"0140301","prefecture":"AKITA KEN","city":"SEMBOKU SHI","town":"KAKUNODATEMACHI HIROKUNAI","perfecture_jp":"秋田県","jp_add_1":"仙北市","jp_add_2":"角館町広久内"},"0140337":{"post_code":"0140337","prefecture":"AKITA KEN","city":"SEMBOKU SHI","town":"KAKUNODATEMACHI FURUSHIRO","perfecture_jp":"秋田県","jp_add_1":"仙北市","jp_add_2":"角館町古城"},"0140351":{"post_code":"0140351","prefecture":"AKITA KEN","city":"SEMBOKU SHI","town":"KAKUNODATEMACHI FURUSHIROYAMA","perfecture_jp":"秋田県","jp_add_1":"仙北市","jp_add_2":"角館町古城山"},"0140335":{"post_code":"0140335","prefecture":"AKITA KEN","city":"SEMBOKU SHI","town":"KAKUNODATEMACHI HOSOGOEMACHI","perfecture_jp":"秋田県","jp_add_1":"仙北市","jp_add_2":"角館町細越町"},"0140354":{"post_code":"0140354","prefecture":"AKITA KEN","city":"SEMBOKU SHI","town":"KAKUNODATEMACHI MIZUNOMESAWA","perfecture_jp":"秋田県","jp_add_1":"仙北市","jp_add_2":"角館町水ノ目沢"},"0140326":{"post_code":"0140326","prefecture":"AKITA KEN","city":"SEMBOKU SHI","town":"KAKUNODATEMACHI YAMANEMACHI","perfecture_jp":"秋田県","jp_add_1":"仙北市","jp_add_2":"角館町山根町"},"0140345":{"post_code":"0140345","prefecture":"AKITA KEN","city":"SEMBOKU SHI","town":"KAKUNODATEMACHI YAMAYAKAWASAKI","perfecture_jp":"秋田県","jp_add_1":"仙北市","jp_add_2":"角館町山谷川崎"},"0140323":{"post_code":"0140323","prefecture":"AKITA KEN","city":"SEMBOKU SHI","town":"KAKUNODATEMACHI YOKOMACHI","perfecture_jp":"秋田県","jp_add_1":"仙北市","jp_add_2":"角館町横町"},"0141112":{"post_code":"0141112","prefecture":"AKITA KEN","city":"SEMBOKU SHI","town":"TAZAWAKO UMEZAWA","perfecture_jp":"秋田県","jp_add_1":"仙北市","jp_add_2":"田沢湖梅沢"},"0141111":{"post_code":"0141111","prefecture":"AKITA KEN","city":"SEMBOKU SHI","town":"TAZAWAKO OKAZAKI","perfecture_jp":"秋田県","jp_add_1":"仙北市","jp_add_2":"田沢湖岡崎"},"0141201":{"post_code":"0141201","prefecture":"AKITA KEN","city":"SEMBOKU SHI","town":"TAZAWAKO OBONAI","perfecture_jp":"秋田県","jp_add_1":"仙北市","jp_add_2":"田沢湖生保内"},"0141116":{"post_code":"0141116","prefecture":"AKITA KEN","city":"SEMBOKU SHI","town":"TAZAWAKO KAKUNODATEHIGASHIMAEGO","perfecture_jp":"秋田県","jp_add_1":"仙北市","jp_add_2":"田沢湖角館東前郷"},"0141203":{"post_code":"0141203","prefecture":"AKITA KEN","city":"SEMBOKU SHI","town":"TAZAWAKO KATA","perfecture_jp":"秋田県","jp_add_1":"仙北市","jp_add_2":"田沢湖潟"},"0141115":{"post_code":"0141115","prefecture":"AKITA KEN","city":"SEMBOKU SHI","town":"TAZAWAKO KOMATSU","perfecture_jp":"秋田県","jp_add_1":"仙北市","jp_add_2":"田沢湖小松"},"0141202":{"post_code":"0141202","prefecture":"AKITA KEN","city":"SEMBOKU SHI","town":"TAZAWAKO SASHIMAKI","perfecture_jp":"秋田県","jp_add_1":"仙北市","jp_add_2":"田沢湖刺巻"},"0141114":{"post_code":"0141114","prefecture":"AKITA KEN","city":"SEMBOKU SHI","town":"TAZAWAKO JINDAI","perfecture_jp":"秋田県","jp_add_1":"仙北市","jp_add_2":"田沢湖神代"},"0141113":{"post_code":"0141113","prefecture":"AKITA KEN","city":"SEMBOKU SHI","town":"TAZAWAKO SOTSUDA","perfecture_jp":"秋田県","jp_add_1":"仙北市","jp_add_2":"田沢湖卒田"},"0141204":{"post_code":"0141204","prefecture":"AKITA KEN","city":"SEMBOKU SHI","town":"TAZAWAKO TAZAWA","perfecture_jp":"秋田県","jp_add_1":"仙北市","jp_add_2":"田沢湖田沢"},"0141205":{"post_code":"0141205","prefecture":"AKITA KEN","city":"SEMBOKU SHI","town":"TAZAWAKO TAMAGAWA","perfecture_jp":"秋田県","jp_add_1":"仙北市","jp_add_2":"田沢湖玉川"},"0140515":{"post_code":"0140515","prefecture":"AKITA KEN","city":"SEMBOKU SHI","town":"NISHIKICHO KADOYA","perfecture_jp":"秋田県","jp_add_1":"仙北市","jp_add_2":"西木町門屋"},"0140512":{"post_code":"0140512","prefecture":"AKITA KEN","city":"SEMBOKU SHI","town":"NISHIKICHO KAMIARAI","perfecture_jp":"秋田県","jp_add_1":"仙北市","jp_add_2":"西木町上荒井"},"0140601":{"post_code":"0140601","prefecture":"AKITA KEN","city":"SEMBOKU SHI","town":"NISHIKICHO KAMIHINOKINAI","perfecture_jp":"秋田県","jp_add_1":"仙北市","jp_add_2":"西木町上桧木内"},"0140513":{"post_code":"0140513","prefecture":"AKITA KEN","city":"SEMBOKU SHI","town":"NISHIKICHO KOBUCHINO","perfecture_jp":"秋田県","jp_add_1":"仙北市","jp_add_2":"西木町小渕野"},"0140516":{"post_code":"0140516","prefecture":"AKITA KEN","city":"SEMBOKU SHI","town":"NISHIKICHO KOYAMADA","perfecture_jp":"秋田県","jp_add_1":"仙北市","jp_add_2":"西木町小山田"},"0140511":{"post_code":"0140511","prefecture":"AKITA KEN","city":"SEMBOKU SHI","town":"NISHIKICHO SAIMYOJI","perfecture_jp":"秋田県","jp_add_1":"仙北市","jp_add_2":"西木町西明寺"},"0140514":{"post_code":"0140514","prefecture":"AKITA KEN","city":"SEMBOKU SHI","town":"NISHIKICHO NISHIARAI","perfecture_jp":"秋田県","jp_add_1":"仙北市","jp_add_2":"西木町西荒井"},"0140602":{"post_code":"0140602","prefecture":"AKITA KEN","city":"SEMBOKU SHI","town":"NISHIKICHO HINOKINAI","perfecture_jp":"秋田県","jp_add_1":"仙北市","jp_add_2":"西木町桧木内"}}