{"0192623":{"post_code":"0192623","prefecture":"AKITA KEN","city":"AKITA SHI","town":"KAWABE AKAHIRA","perfecture_jp":"秋田県","jp_add_1":"秋田市","jp_add_2":"河辺赤平"},"0192741":{"post_code":"0192741","prefecture":"AKITA KEN","city":"AKITA SHI","town":"KAWABE IWAMI","perfecture_jp":"秋田県","jp_add_1":"秋田市","jp_add_2":"河辺岩見"},"0192624":{"post_code":"0192624","prefecture":"AKITA KEN","city":"AKITA SHI","town":"KAWABE OSAWA","perfecture_jp":"秋田県","jp_add_1":"秋田市","jp_add_2":"河辺大沢"},"0192632":{"post_code":"0192632","prefecture":"AKITA KEN","city":"AKITA SHI","town":"KAWABE OBARINO","perfecture_jp":"秋田県","jp_add_1":"秋田市","jp_add_2":"河辺大張野"},"0192625":{"post_code":"0192625","prefecture":"AKITA KEN","city":"AKITA SHI","town":"KAWABE KITANODAKOYA","perfecture_jp":"秋田県","jp_add_1":"秋田市","jp_add_2":"河辺北野田高屋"},"0192742":{"post_code":"0192742","prefecture":"AKITA KEN","city":"AKITA SHI","town":"KAWABE SANNAI","perfecture_jp":"秋田県","jp_add_1":"秋田市","jp_add_2":"河辺三内"},"0192631":{"post_code":"0192631","prefecture":"AKITA KEN","city":"AKITA SHI","town":"KAWABE JINNAI","perfecture_jp":"秋田県","jp_add_1":"秋田市","jp_add_2":"河辺神内"},"0192622":{"post_code":"0192622","prefecture":"AKITA KEN","city":"AKITA SHI","town":"KAWABE TAKAOKA","perfecture_jp":"秋田県","jp_add_1":"秋田市","jp_add_2":"河辺高岡"},"0192611":{"post_code":"0192611","prefecture":"AKITA KEN","city":"AKITA SHI","town":"KAWABE TOSHIMA","perfecture_jp":"秋田県","jp_add_1":"秋田市","jp_add_2":"河辺戸島"},"0192614":{"post_code":"0192614","prefecture":"AKITA KEN","city":"AKITA SHI","town":"KAWABE TOYONARI","perfecture_jp":"秋田県","jp_add_1":"秋田市","jp_add_2":"河辺豊成"},"0192612":{"post_code":"0192612","prefecture":"AKITA KEN","city":"AKITA SHI","town":"KAWABE HATAYA","perfecture_jp":"秋田県","jp_add_1":"秋田市","jp_add_2":"河辺畑谷"},"0192613":{"post_code":"0192613","prefecture":"AKITA KEN","city":"AKITA SHI","town":"KAWABE MATSUBUCHI","perfecture_jp":"秋田県","jp_add_1":"秋田市","jp_add_2":"河辺松渕"},"0192621":{"post_code":"0192621","prefecture":"AKITA KEN","city":"AKITA SHI","town":"KAWABE MOROI","perfecture_jp":"秋田県","jp_add_1":"秋田市","jp_add_2":"河辺諸井"},"0192601":{"post_code":"0192601","prefecture":"AKITA KEN","city":"AKITA SHI","town":"KAWABE WADA","perfecture_jp":"秋田県","jp_add_1":"秋田市","jp_add_2":"河辺和田"},"0191107":{"post_code":"0191107","prefecture":"AKITA KEN","city":"YOKOTE SHI","town":"SANNAI IKADA","perfecture_jp":"秋田県","jp_add_1":"横手市","jp_add_2":"山内筏"},"0191109":{"post_code":"0191109","prefecture":"AKITA KEN","city":"YOKOTE SHI","town":"SANNAI OSAWA","perfecture_jp":"秋田県","jp_add_1":"横手市","jp_add_2":"山内大沢"},"0191101":{"post_code":"0191101","prefecture":"AKITA KEN","city":"YOKOTE SHI","town":"SANNAI OMATSUKAWA","perfecture_jp":"秋田県","jp_add_1":"横手市","jp_add_2":"山内大松川"},"0191103":{"post_code":"0191103","prefecture":"AKITA KEN","city":"YOKOTE SHI","town":"SANNAI KUROSAWA","perfecture_jp":"秋田県","jp_add_1":"横手市","jp_add_2":"山内黒沢"},"0191102":{"post_code":"0191102","prefecture":"AKITA KEN","city":"YOKOTE SHI","town":"SANNAI KOMATSUKAWA","perfecture_jp":"秋田県","jp_add_1":"横手市","jp_add_2":"山内小松川"},"0191108":{"post_code":"0191108","prefecture":"AKITA KEN","city":"YOKOTE SHI","town":"SANNAI TSUCHIBUCHI","perfecture_jp":"秋田県","jp_add_1":"横手市","jp_add_2":"山内土渕"},"0191105":{"post_code":"0191105","prefecture":"AKITA KEN","city":"YOKOTE SHI","town":"SANNAI NANGO","perfecture_jp":"秋田県","jp_add_1":"横手市","jp_add_2":"山内南郷"},"0191106":{"post_code":"0191106","prefecture":"AKITA KEN","city":"YOKOTE SHI","town":"SANNAI HIRANOSAWA","perfecture_jp":"秋田県","jp_add_1":"横手市","jp_add_2":"山内平野沢"},"0191104":{"post_code":"0191104","prefecture":"AKITA KEN","city":"YOKOTE SHI","town":"SANNAI MITSUMATA","perfecture_jp":"秋田県","jp_add_1":"横手市","jp_add_2":"山内三又"},"0190525":{"post_code":"0190525","prefecture":"AKITA KEN","city":"YOKOTE SHI","town":"JUMONJIMACHI AKEBONOCHO","perfecture_jp":"秋田県","jp_add_1":"横手市","jp_add_2":"十文字町曙町"},"0190513":{"post_code":"0190513","prefecture":"AKITA KEN","city":"YOKOTE SHI","town":"JUMONJIMACHI UEDA","perfecture_jp":"秋田県","jp_add_1":"横手市","jp_add_2":"十文字町植田"},"0190501":{"post_code":"0190501","prefecture":"AKITA KEN","city":"YOKOTE SHI","town":"JUMONJIMACHI UDEKOSHI","perfecture_jp":"秋田県","jp_add_1":"横手市","jp_add_2":"十文字町腕越"},"0190512":{"post_code":"0190512","prefecture":"AKITA KEN","city":"YOKOTE SHI","town":"JUMONJIMACHI ETSUZEN","perfecture_jp":"秋田県","jp_add_1":"横手市","jp_add_2":"十文字町越前"},"0190529":{"post_code":"0190529","prefecture":"AKITA KEN","city":"YOKOTE SHI","town":"JUMONJIMACHI KAIDOSHITA","perfecture_jp":"秋田県","jp_add_1":"横手市","jp_add_2":"十文字町海道下"},"0190511":{"post_code":"0190511","prefecture":"AKITA KEN","city":"YOKOTE SHI","town":"JUMONJIMACHI KANAE","perfecture_jp":"秋田県","jp_add_1":"横手市","jp_add_2":"十文字町鼎"},"0190531":{"post_code":"0190531","prefecture":"AKITA KEN","city":"YOKOTE SHI","town":"JUMONJIMACHI KAMISAKICHIBIRAKI","perfecture_jp":"秋田県","jp_add_1":"横手市","jp_add_2":"十文字町上佐吉開"},"0190507":{"post_code":"0190507","prefecture":"AKITA KEN","city":"YOKOTE SHI","town":"JUMONJIMACHI KAMINABEKURA","perfecture_jp":"秋田県","jp_add_1":"横手市","jp_add_2":"十文字町上鍋倉"},"0190517":{"post_code":"0190517","prefecture":"AKITA KEN","city":"YOKOTE SHI","town":"JUMONJIMACHI KIJITA","perfecture_jp":"秋田県","jp_add_1":"横手市","jp_add_2":"十文字町木下"},"0190516":{"post_code":"0190516","prefecture":"AKITA KEN","city":"YOKOTE SHI","town":"JUMONJIMACHI GENDASAMA","perfecture_jp":"秋田県","jp_add_1":"横手市","jp_add_2":"十文字町源太左馬"},"0190506":{"post_code":"0190506","prefecture":"AKITA KEN","city":"YOKOTE SHI","town":"JUMONJIMACHI SAGAE","perfecture_jp":"秋田県","jp_add_1":"横手市","jp_add_2":"十文字町佐賀会"},"0190528":{"post_code":"0190528","prefecture":"AKITA KEN","city":"YOKOTE SHI","town":"JUMONJIMACHI SAKAECHO","perfecture_jp":"秋田県","jp_add_1":"横手市","jp_add_2":"十文字町栄町"},"0190533":{"post_code":"0190533","prefecture":"AKITA KEN","city":"YOKOTE SHI","town":"JUMONJIMACHI SHIMOSAKICHIBIRAKI","perfecture_jp":"秋田県","jp_add_1":"横手市","jp_add_2":"十文字町下佐吉開"},"0190508":{"post_code":"0190508","prefecture":"AKITA KEN","city":"YOKOTE SHI","town":"JUMONJIMACHI JUGONOSHINDEN","perfecture_jp":"秋田県","jp_add_1":"横手市","jp_add_2":"十文字町十五野新田"},"0190523":{"post_code":"0190523","prefecture":"AKITA KEN","city":"YOKOTE SHI","town":"JUMONJIMACHI JUMONJI","perfecture_jp":"秋田県","jp_add_1":"横手市","jp_add_2":"十文字町十文字"},"0190527":{"post_code":"0190527","prefecture":"AKITA KEN","city":"YOKOTE SHI","town":"JUMONJIMACHI DAIDOHIGASHI","perfecture_jp":"秋田県","jp_add_1":"横手市","jp_add_2":"十文字町大道東"},"0190526":{"post_code":"0190526","prefecture":"AKITA KEN","city":"YOKOTE SHI","town":"JUMONJIMACHI TORIMACHI","perfecture_jp":"秋田県","jp_add_1":"横手市","jp_add_2":"十文字町通町"},"0190509":{"post_code":"0190509","prefecture":"AKITA KEN","city":"YOKOTE SHI","town":"JUMONJIMACHI NASHINOKI","perfecture_jp":"秋田県","jp_add_1":"横手市","jp_add_2":"十文字町梨木"},"0190505":{"post_code":"0190505","prefecture":"AKITA KEN","city":"YOKOTE SHI","town":"JUMONJIMACHI NIIDA","perfecture_jp":"秋田県","jp_add_1":"横手市","jp_add_2":"十文字町仁井田"},"0190522":{"post_code":"0190522","prefecture":"AKITA KEN","city":"YOKOTE SHI","town":"JUMONJIMACHI NISHIKAMI","perfecture_jp":"秋田県","jp_add_1":"横手市","jp_add_2":"十文字町西上"},"0190521":{"post_code":"0190521","prefecture":"AKITA KEN","city":"YOKOTE SHI","town":"JUMONJIMACHI NISHISHITA","perfecture_jp":"秋田県","jp_add_1":"横手市","jp_add_2":"十文字町西下"},"0190503":{"post_code":"0190503","prefecture":"AKITA KEN","city":"YOKOTE SHI","town":"JUMONJIMACHI NISHIHARA1-BANCHO","perfecture_jp":"秋田県","jp_add_1":"横手市","jp_add_2":"十文字町西原１番町"},"0190502":{"post_code":"0190502","prefecture":"AKITA KEN","city":"YOKOTE SHI","town":"JUMONJIMACHI NISHIHARA2-BANCHO","perfecture_jp":"秋田県","jp_add_1":"横手市","jp_add_2":"十文字町西原２番町"},"0190518":{"post_code":"0190518","prefecture":"AKITA KEN","city":"YOKOTE SHI","town":"JUMONJIMACHI HORYU","perfecture_jp":"秋田県","jp_add_1":"横手市","jp_add_2":"十文字町宝竜"},"0190532":{"post_code":"0190532","prefecture":"AKITA KEN","city":"YOKOTE SHI","town":"JUMONJIMACHI MATO","perfecture_jp":"秋田県","jp_add_1":"横手市","jp_add_2":"十文字町麻当"},"0190514":{"post_code":"0190514","prefecture":"AKITA KEN","city":"YOKOTE SHI","town":"JUMONJIMACHI MUTSUAI","perfecture_jp":"秋田県","jp_add_1":"横手市","jp_add_2":"十文字町睦合"},"0190524":{"post_code":"0190524","prefecture":"AKITA KEN","city":"YOKOTE SHI","town":"JUMONJIMACHI MOTOMACHI","perfecture_jp":"秋田県","jp_add_1":"横手市","jp_add_2":"十文字町本町"},"0190515":{"post_code":"0190515","prefecture":"AKITA KEN","city":"YOKOTE SHI","town":"JUMONJIMACHI YACHISHINDEN","perfecture_jp":"秋田県","jp_add_1":"横手市","jp_add_2":"十文字町谷地新田"},"0190711":{"post_code":"0190711","prefecture":"AKITA KEN","city":"YOKOTE SHI","town":"MASUDAMACHI OGINOFUKURO","perfecture_jp":"秋田県","jp_add_1":"横手市","jp_add_2":"増田町荻袋"},"0190702":{"post_code":"0190702","prefecture":"AKITA KEN","city":"YOKOTE SHI","town":"MASUDAMACHI KAMEDA","perfecture_jp":"秋田県","jp_add_1":"横手市","jp_add_2":"増田町亀田"},"0190712":{"post_code":"0190712","prefecture":"AKITA KEN","city":"YOKOTE SHI","town":"MASUDAMACHI KUMANOFUCHI","perfecture_jp":"秋田県","jp_add_1":"横手市","jp_add_2":"増田町熊渕"},"0190705":{"post_code":"0190705","prefecture":"AKITA KEN","city":"YOKOTE SHI","town":"MASUDAMACHI SARUHANNAI","perfecture_jp":"秋田県","jp_add_1":"横手市","jp_add_2":"増田町狙半内"},"0190714":{"post_code":"0190714","prefecture":"AKITA KEN","city":"YOKOTE SHI","town":"MASUDAMACHI TONAMI","perfecture_jp":"秋田県","jp_add_1":"横手市","jp_add_2":"増田町戸波"},"0190701":{"post_code":"0190701","prefecture":"AKITA KEN","city":"YOKOTE SHI","town":"MASUDAMACHI MASUDA","perfecture_jp":"秋田県","jp_add_1":"横手市","jp_add_2":"増田町増田"},"0190713":{"post_code":"0190713","prefecture":"AKITA KEN","city":"YOKOTE SHI","town":"MASUDAMACHI MITSUMATA","perfecture_jp":"秋田県","jp_add_1":"横手市","jp_add_2":"増田町三又"},"0190715":{"post_code":"0190715","prefecture":"AKITA KEN","city":"YOKOTE SHI","town":"MASUDAMACHI YAGI","perfecture_jp":"秋田県","jp_add_1":"横手市","jp_add_2":"増田町八木"},"0190704":{"post_code":"0190704","prefecture":"AKITA KEN","city":"YOKOTE SHI","town":"MASUDAMACHI YUNOSAWA","perfecture_jp":"秋田県","jp_add_1":"横手市","jp_add_2":"増田町湯野沢"},"0190703":{"post_code":"0190703","prefecture":"AKITA KEN","city":"YOKOTE SHI","town":"MASUDAMACHI YOSHINO","perfecture_jp":"秋田県","jp_add_1":"横手市","jp_add_2":"増田町吉野"},"0190402":{"post_code":"0190402","prefecture":"AKITA KEN","city":"YUZAWA SHI","town":"AIKAWA","perfecture_jp":"秋田県","jp_add_1":"湯沢市","jp_add_2":"相川"},"0190321":{"post_code":"0190321","prefecture":"AKITA KEN","city":"YUZAWA SHI","town":"AKINOMIYA","perfecture_jp":"秋田県","jp_add_1":"湯沢市","jp_add_2":"秋ノ宮"},"0190201":{"post_code":"0190201","prefecture":"AKITA KEN","city":"YUZAWA SHI","town":"IZUMISAWA","perfecture_jp":"秋田県","jp_add_1":"湯沢市","jp_add_2":"泉沢"},"0190113":{"post_code":"0190113","prefecture":"AKITA KEN","city":"YUZAWA SHI","town":"INNAIGINZAMMACHI","perfecture_jp":"秋田県","jp_add_1":"湯沢市","jp_add_2":"院内銀山町"},"0190403":{"post_code":"0190403","prefecture":"AKITA KEN","city":"YUZAWA SHI","town":"URUINNAI","perfecture_jp":"秋田県","jp_add_1":"湯沢市","jp_add_2":"宇留院内"},"0190205":{"post_code":"0190205","prefecture":"AKITA KEN","city":"YUZAWA SHI","town":"ONO","perfecture_jp":"秋田県","jp_add_1":"湯沢市","jp_add_2":"小野"},"0190111":{"post_code":"0190111","prefecture":"AKITA KEN","city":"YUZAWA SHI","town":"KAMIINNAI","perfecture_jp":"秋田県","jp_add_1":"湯沢市","jp_add_2":"上院内"},"0190202":{"post_code":"0190202","prefecture":"AKITA KEN","city":"YUZAWA SHI","town":"KUWAGASAKI","perfecture_jp":"秋田県","jp_add_1":"湯沢市","jp_add_2":"桑崎"},"0190401":{"post_code":"0190401","prefecture":"AKITA KEN","city":"YUZAWA SHI","town":"SAKAMAKI","perfecture_jp":"秋田県","jp_add_1":"湯沢市","jp_add_2":"酒蒔"},"0190112":{"post_code":"0190112","prefecture":"AKITA KEN","city":"YUZAWA SHI","town":"SHIMOINNAI","perfecture_jp":"秋田県","jp_add_1":"湯沢市","jp_add_2":"下院内"},"0190404":{"post_code":"0190404","prefecture":"AKITA KEN","city":"YUZAWA SHI","town":"TAKAMATSU","perfecture_jp":"秋田県","jp_add_1":"湯沢市","jp_add_2":"高松"},"0190203":{"post_code":"0190203","prefecture":"AKITA KEN","city":"YUZAWA SHI","town":"TERASAWA","perfecture_jp":"秋田県","jp_add_1":"湯沢市","jp_add_2":"寺沢"},"0190481":{"post_code":"0190481","prefecture":"AKITA KEN","city":"YUZAWA SHI","town":"MINASE (MIZUKAMISAWA)","perfecture_jp":"秋田県","jp_add_1":"湯沢市","jp_add_2":"皆瀬"},"0190204":{"post_code":"0190204","prefecture":"AKITA KEN","city":"YUZAWA SHI","town":"YOKOBORI","perfecture_jp":"秋田県","jp_add_1":"湯沢市","jp_add_2":"横堀"},"0192201":{"post_code":"0192201","prefecture":"AKITA KEN","city":"DAISEN SHI","town":"ENGYOJI","perfecture_jp":"秋田県","jp_add_1":"大仙市","jp_add_2":"円行寺"},"0192202":{"post_code":"0192202","prefecture":"AKITA KEN","city":"DAISEN SHI","town":"OSAWAGOSHUKU","perfecture_jp":"秋田県","jp_add_1":"大仙市","jp_add_2":"大沢郷宿"},"0192103":{"post_code":"0192103","prefecture":"AKITA KEN","city":"DAISEN SHI","town":"OSAWAGOTERA","perfecture_jp":"秋田県","jp_add_1":"大仙市","jp_add_2":"大沢郷寺"},"0191616":{"post_code":"0191616","prefecture":"AKITA KEN","city":"DAISEN SHI","town":"OTACHO EIDAI","perfecture_jp":"秋田県","jp_add_1":"大仙市","jp_add_2":"太田町永代"},"0191613":{"post_code":"0191613","prefecture":"AKITA KEN","city":"DAISEN SHI","town":"OTACHO OTA","perfecture_jp":"秋田県","jp_add_1":"大仙市","jp_add_2":"太田町太田"},"0191615":{"post_code":"0191615","prefecture":"AKITA KEN","city":"DAISEN SHI","town":"OTACHO KAWAGUCHI","perfecture_jp":"秋田県","jp_add_1":"大仙市","jp_add_2":"太田町川口"},"0191605":{"post_code":"0191605","prefecture":"AKITA KEN","city":"DAISEN SHI","town":"OTACHO KUNIMI","perfecture_jp":"秋田県","jp_add_1":"大仙市","jp_add_2":"太田町国見"},"0191612":{"post_code":"0191612","prefecture":"AKITA KEN","city":"DAISEN SHI","town":"OTACHO KOGANARI","perfecture_jp":"秋田県","jp_add_1":"大仙市","jp_add_2":"太田町小神成"},"0191604":{"post_code":"0191604","prefecture":"AKITA KEN","city":"DAISEN SHI","town":"OTACHO KOMABA","perfecture_jp":"秋田県","jp_add_1":"大仙市","jp_add_2":"太田町駒場"},"0191611":{"post_code":"0191611","prefecture":"AKITA KEN","city":"DAISEN SHI","town":"OTACHO SAINAI","perfecture_jp":"秋田県","jp_add_1":"大仙市","jp_add_2":"太田町斉内"},"0191602":{"post_code":"0191602","prefecture":"AKITA KEN","city":"DAISEN SHI","town":"OTACHO SAMBONOGI","perfecture_jp":"秋田県","jp_add_1":"大仙市","jp_add_2":"太田町三本扇"},"0191603":{"post_code":"0191603","prefecture":"AKITA KEN","city":"DAISEN SHI","town":"OTACHO NAKASATO","perfecture_jp":"秋田県","jp_add_1":"大仙市","jp_add_2":"太田町中里"},"0191614":{"post_code":"0191614","prefecture":"AKITA KEN","city":"DAISEN SHI","town":"OTACHO HIGASHIIMAIZUMI","perfecture_jp":"秋田県","jp_add_1":"大仙市","jp_add_2":"太田町東今泉"},"0191601":{"post_code":"0191601","prefecture":"AKITA KEN","city":"DAISEN SHI","town":"OTACHO YOKOSAWA","perfecture_jp":"秋田県","jp_add_1":"大仙市","jp_add_2":"太田町横沢"},"0192331":{"post_code":"0192331","prefecture":"AKITA KEN","city":"DAISEN SHI","town":"OMAKI","perfecture_jp":"秋田県","jp_add_1":"大仙市","jp_add_2":"大巻"},"0192333":{"post_code":"0192333","prefecture":"AKITA KEN","city":"DAISEN SHI","town":"KANEYAMASAWA","perfecture_jp":"秋田県","jp_add_1":"大仙市","jp_add_2":"金山沢"},"0192112":{"post_code":"0192112","prefecture":"AKITA KEN","city":"DAISEN SHI","town":"KARIWANO","perfecture_jp":"秋田県","jp_add_1":"大仙市","jp_add_2":"刈和野"},"0191702":{"post_code":"0191702","prefecture":"AKITA KEN","city":"DAISEN SHI","town":"KITANARAOKA","perfecture_jp":"秋田県","jp_add_1":"大仙市","jp_add_2":"北楢岡"},"0192121":{"post_code":"0192121","prefecture":"AKITA KEN","city":"DAISEN SHI","town":"KITANOME","perfecture_jp":"秋田県","jp_add_1":"大仙市","jp_add_2":"北野目"},"0192334":{"post_code":"0192334","prefecture":"AKITA KEN","city":"DAISEN SHI","town":"KIHARADA","perfecture_jp":"秋田県","jp_add_1":"大仙市","jp_add_2":"木原田"},"0192412":{"post_code":"0192412","prefecture":"AKITA KEN","city":"DAISEN SHI","town":"KYOWA ARAKAWA","perfecture_jp":"秋田県","jp_add_1":"大仙市","jp_add_2":"協和荒川"},"0192521":{"post_code":"0192521","prefecture":"AKITA KEN","city":"DAISEN SHI","town":"KYOWA INAZAWA","perfecture_jp":"秋田県","jp_add_1":"大仙市","jp_add_2":"協和稲沢"},"0192413":{"post_code":"0192413","prefecture":"AKITA KEN","city":"DAISEN SHI","town":"KYOWA KAMIYODOKAWA","perfecture_jp":"秋田県","jp_add_1":"大仙市","jp_add_2":"協和上淀川"},"0192441":{"post_code":"0192441","prefecture":"AKITA KEN","city":"DAISEN SHI","town":"KYOWA KOTANE","perfecture_jp":"秋田県","jp_add_1":"大仙市","jp_add_2":"協和小種"},"0192411":{"post_code":"0192411","prefecture":"AKITA KEN","city":"DAISEN SHI","town":"KYOWA SAKAI","perfecture_jp":"秋田県","jp_add_1":"大仙市","jp_add_2":"協和境"},"0192442":{"post_code":"0192442","prefecture":"AKITA KEN","city":"DAISEN SHI","town":"KYOWA SHIMOYODOKAWA","perfecture_jp":"秋田県","jp_add_1":"大仙市","jp_add_2":"協和下淀川"},"0192443":{"post_code":"0192443","prefecture":"AKITA KEN","city":"DAISEN SHI","town":"KYOWA NAKAYODOKAWA","perfecture_jp":"秋田県","jp_add_1":"大仙市","jp_add_2":"協和中淀川"},"0192401":{"post_code":"0192401","prefecture":"AKITA KEN","city":"DAISEN SHI","town":"KYOWA FUNAOKA","perfecture_jp":"秋田県","jp_add_1":"大仙市","jp_add_2":"協和船岡"},"0192402":{"post_code":"0192402","prefecture":"AKITA KEN","city":"DAISEN SHI","town":"KYOWA FUNESAWA","perfecture_jp":"秋田県","jp_add_1":"大仙市","jp_add_2":"協和船沢"},"0192431":{"post_code":"0192431","prefecture":"AKITA KEN","city":"DAISEN SHI","town":"KYOWA MINEYOSHIKAWA","perfecture_jp":"秋田県","jp_add_1":"大仙市","jp_add_2":"協和峰吉川"},"0192332":{"post_code":"0192332","prefecture":"AKITA KEN","city":"DAISEN SHI","town":"KUSHODA","perfecture_jp":"秋田県","jp_add_1":"大仙市","jp_add_2":"九升田"},"0192335":{"post_code":"0192335","prefecture":"AKITA KEN","city":"DAISEN SHI","town":"KOWAKUBI","perfecture_jp":"秋田県","jp_add_1":"大仙市","jp_add_2":"強首"},"0192204":{"post_code":"0192204","prefecture":"AKITA KEN","city":"DAISEN SHI","town":"SHOTEZAWA","perfecture_jp":"秋田県","jp_add_1":"大仙市","jp_add_2":"正手沢"},"0191701":{"post_code":"0191701","prefecture":"AKITA KEN","city":"DAISEN SHI","town":"JINGUJI","perfecture_jp":"秋田県","jp_add_1":"大仙市","jp_add_2":"神宮寺"},"0192205":{"post_code":"0192205","prefecture":"AKITA KEN","city":"DAISEN SHI","town":"SUGIYAMADA","perfecture_jp":"秋田県","jp_add_1":"大仙市","jp_add_2":"杉山田"},"0192122":{"post_code":"0192122","prefecture":"AKITA KEN","city":"DAISEN SHI","town":"TAKAJO","perfecture_jp":"秋田県","jp_add_1":"大仙市","jp_add_2":"高城"},"0192111":{"post_code":"0192111","prefecture":"AKITA KEN","city":"DAISEN SHI","town":"TSUCHIKAWA","perfecture_jp":"秋田県","jp_add_1":"大仙市","jp_add_2":"土川"},"0192123":{"post_code":"0192123","prefecture":"AKITA KEN","city":"DAISEN SHI","town":"TERADATE","perfecture_jp":"秋田県","jp_add_1":"大仙市","jp_add_2":"寺館"},"0191949":{"post_code":"0191949","prefecture":"AKITA KEN","city":"DAISEN SHI","town":"NANGAI AKAHATA","perfecture_jp":"秋田県","jp_add_1":"大仙市","jp_add_2":"南外赤畑"},"0191865":{"post_code":"0191865","prefecture":"AKITA KEN","city":"DAISEN SHI","town":"NANGAI AKAHIRAUSHIRONO","perfecture_jp":"秋田県","jp_add_1":"大仙市","jp_add_2":"南外赤平後野"},"0191863":{"post_code":"0191863","prefecture":"AKITA KEN","city":"DAISEN SHI","town":"NANGAI AKAHIRAKAINUMA","perfecture_jp":"秋田県","jp_add_1":"大仙市","jp_add_2":"南外赤平貝沼"},"0191864":{"post_code":"0191864","prefecture":"AKITA KEN","city":"DAISEN SHI","town":"NANGAI AKAHIRADAIDOHIGASHI","perfecture_jp":"秋田県","jp_add_1":"大仙市","jp_add_2":"南外赤平大道東"},"0191866":{"post_code":"0191866","prefecture":"AKITA KEN","city":"DAISEN SHI","town":"NANGAI AKAHIRADAINO","perfecture_jp":"秋田県","jp_add_1":"大仙市","jp_add_2":"南外赤平台野"},"0191868":{"post_code":"0191868","prefecture":"AKITA KEN","city":"DAISEN SHI","town":"NANGAI AKAHIRAHEIKE","perfecture_jp":"秋田県","jp_add_1":"大仙市","jp_add_2":"南外赤平平家"},"0191858":{"post_code":"0191858","prefecture":"AKITA KEN","city":"DAISEN SHI","town":"NANGAI AKAHIRAROKUROSAWA","perfecture_jp":"秋田県","jp_add_1":"大仙市","jp_add_2":"南外赤平六郎沢"},"0191901":{"post_code":"0191901","prefecture":"AKITA KEN","city":"DAISEN SHI","town":"NANGAI AKUTONO","perfecture_jp":"秋田県","jp_add_1":"大仙市","jp_add_2":"南外悪戸野"},"0191835":{"post_code":"0191835","prefecture":"AKITA KEN","city":"DAISEN SHI","town":"NANGAI AGETSUCHI","perfecture_jp":"秋田県","jp_add_1":"大仙市","jp_add_2":"南外揚土"},"0191834":{"post_code":"0191834","prefecture":"AKITA KEN","city":"DAISEN SHI","town":"NANGAI KITADAKUROSE","perfecture_jp":"秋田県","jp_add_1":"大仙市","jp_add_2":"南外揚土山"},"0191876":{"post_code":"0191876","prefecture":"AKITA KEN","city":"DAISEN SHI","town":"NANGAI ARAYASHIKI","perfecture_jp":"秋田県","jp_add_1":"大仙市","jp_add_2":"南外新屋布"},"0191916":{"post_code":"0191916","prefecture":"AKITA KEN","city":"DAISEN SHI","town":"NANGAI ISHIBOTOKE","perfecture_jp":"秋田県","jp_add_1":"大仙市","jp_add_2":"南外石仏"},"0191942":{"post_code":"0191942","prefecture":"AKITA KEN","city":"DAISEN SHI","town":"NANGAI IWAKURA","perfecture_jp":"秋田県","jp_add_1":"大仙市","jp_add_2":"南外岩倉"},"0191945":{"post_code":"0191945","prefecture":"AKITA KEN","city":"DAISEN SHI","town":"NANGAI IWASE","perfecture_jp":"秋田県","jp_add_1":"大仙市","jp_add_2":"南外岩瀬"},"0191908":{"post_code":"0191908","prefecture":"AKITA KEN","city":"DAISEN SHI","town":"NANGAI UENO","perfecture_jp":"秋田県","jp_add_1":"大仙市","jp_add_2":"南外上野"},"0191932":{"post_code":"0191932","prefecture":"AKITA KEN","city":"DAISEN SHI","town":"NANGAI OKUROMORI","perfecture_jp":"秋田県","jp_add_1":"大仙市","jp_add_2":"南外大黒森"},"0191842":{"post_code":"0191842","prefecture":"AKITA KEN","city":"DAISEN SHI","town":"NANGAI OSUGI","perfecture_jp":"秋田県","jp_add_1":"大仙市","jp_add_2":"南外大杉"},"0191843":{"post_code":"0191843","prefecture":"AKITA KEN","city":"DAISEN SHI","town":"NANGAI OSUGI FUTAMATASUGI","perfecture_jp":"秋田県","jp_add_1":"大仙市","jp_add_2":"南外大杉二タ又杉"},"0191841":{"post_code":"0191841","prefecture":"AKITA KEN","city":"DAISEN SHI","town":"NANGAI OSUGIYAMAGISHI","perfecture_jp":"秋田県","jp_add_1":"大仙市","jp_add_2":"南外大杉山岸"},"0191852":{"post_code":"0191852","prefecture":"AKITA KEN","city":"DAISEN SHI","town":"NANGAI OTA","perfecture_jp":"秋田県","jp_add_1":"大仙市","jp_add_2":"南外太田"},"0191855":{"post_code":"0191855","prefecture":"AKITA KEN","city":"DAISEN SHI","town":"NANGAI OBATA","perfecture_jp":"秋田県","jp_add_1":"大仙市","jp_add_2":"南外大畑"},"0191857":{"post_code":"0191857","prefecture":"AKITA KEN","city":"DAISEN SHI","town":"NANGAI OBATAKUGURISAWA","perfecture_jp":"秋田県","jp_add_1":"大仙市","jp_add_2":"南外大畑潜沢"},"0191856":{"post_code":"0191856","prefecture":"AKITA KEN","city":"DAISEN SHI","town":"NANGAI OBATAMIYAMA","perfecture_jp":"秋田県","jp_add_1":"大仙市","jp_add_2":"南外大畑深山"},"0191935":{"post_code":"0191935","prefecture":"AKITA KEN","city":"DAISEN SHI","town":"NANGAI OHIRA","perfecture_jp":"秋田県","jp_add_1":"大仙市","jp_add_2":"南外大平"},"0191905":{"post_code":"0191905","prefecture":"AKITA KEN","city":"DAISEN SHI","town":"NANGAI OMUKAI","perfecture_jp":"秋田県","jp_add_1":"大仙市","jp_add_2":"南外大向"},"0191961":{"post_code":"0191961","prefecture":"AKITA KEN","city":"DAISEN SHI","town":"NANGAI OYANAGI","perfecture_jp":"秋田県","jp_add_1":"大仙市","jp_add_2":"南外大柳"},"0191882":{"post_code":"0191882","prefecture":"AKITA KEN","city":"DAISEN SHI","town":"NANGAI OWANO","perfecture_jp":"秋田県","jp_add_1":"大仙市","jp_add_2":"南外大和野"},"0191812":{"post_code":"0191812","prefecture":"AKITA KEN","city":"DAISEN SHI","town":"NANGAI OKIDA","perfecture_jp":"秋田県","jp_add_1":"大仙市","jp_add_2":"南外沖田"},"0191875":{"post_code":"0191875","prefecture":"AKITA KEN","city":"DAISEN SHI","town":"NANGAI OCHIAI","perfecture_jp":"秋田県","jp_add_1":"大仙市","jp_add_2":"南外落合"},"0191906":{"post_code":"0191906","prefecture":"AKITA KEN","city":"DAISEN SHI","town":"NANGAI KANAYA","perfecture_jp":"秋田県","jp_add_1":"大仙市","jp_add_2":"南外金屋"},"0191956":{"post_code":"0191956","prefecture":"AKITA KEN","city":"DAISEN SHI","town":"NANGAI KAMIARAMATA","perfecture_jp":"秋田県","jp_add_1":"大仙市","jp_add_2":"南外上荒又"},"0191948":{"post_code":"0191948","prefecture":"AKITA KEN","city":"DAISEN SHI","town":"NANGAI KAMIKAMASAKA","perfecture_jp":"秋田県","jp_add_1":"大仙市","jp_add_2":"南外上釜坂"},"0191907":{"post_code":"0191907","prefecture":"AKITA KEN","city":"DAISEN SHI","town":"NANGAI KAMIKAMATA","perfecture_jp":"秋田県","jp_add_1":"大仙市","jp_add_2":"南外上鎌田"},"0191816":{"post_code":"0191816","prefecture":"AKITA KEN","city":"DAISEN SHI","town":"NANGAI KAMIKIJIKI","perfecture_jp":"秋田県","jp_add_1":"大仙市","jp_add_2":"南外上木直"},"0191926":{"post_code":"0191926","prefecture":"AKITA KEN","city":"DAISEN SHI","town":"NANGAI KAMIKUWADAI","perfecture_jp":"秋田県","jp_add_1":"大仙市","jp_add_2":"南外上桑台"},"0191925":{"post_code":"0191925","prefecture":"AKITA KEN","city":"DAISEN SHI","town":"NANGAI KAMISUNOSAWA","perfecture_jp":"秋田県","jp_add_1":"大仙市","jp_add_2":"南外上巣ノ沢"},"0191872":{"post_code":"0191872","prefecture":"AKITA KEN","city":"DAISEN SHI","town":"NANGAI KAMINAKASHUKU","perfecture_jp":"秋田県","jp_add_1":"大仙市","jp_add_2":"南外上中宿"},"0191922":{"post_code":"0191922","prefecture":"AKITA KEN","city":"DAISEN SHI","town":"NANGAI KAMINAKANO","perfecture_jp":"秋田県","jp_add_1":"大仙市","jp_add_2":"南外上中野"},"0191808":{"post_code":"0191808","prefecture":"AKITA KEN","city":"DAISEN SHI","town":"NANGAI KAWAGUCHI","perfecture_jp":"秋田県","jp_add_1":"大仙市","jp_add_2":"南外川口"},"0191807":{"post_code":"0191807","prefecture":"AKITA KEN","city":"DAISEN SHI","town":"NANGAI KAWAGUCHIHONCHO","perfecture_jp":"秋田県","jp_add_1":"大仙市","jp_add_2":"南外川口本町"},"0191817":{"post_code":"0191817","prefecture":"AKITA KEN","city":"DAISEN SHI","town":"NANGAI KIJIKIZAWA","perfecture_jp":"秋田県","jp_add_1":"大仙市","jp_add_2":"南外木直沢"},"0191832":{"post_code":"0191832","prefecture":"AKITA KEN","city":"DAISEN SHI","town":"NANGAI KITADAYAMADAGASAWA","perfecture_jp":"秋田県","jp_add_1":"大仙市","jp_add_2":"南外北田山田ケ沢"},"0191951":{"post_code":"0191951","prefecture":"AKITA KEN","city":"DAISEN SHI","town":"NANGAI KUROTAKI","perfecture_jp":"秋田県","jp_add_1":"大仙市","jp_add_2":"南外黒滝"},"0191937":{"post_code":"0191937","prefecture":"AKITA KEN","city":"DAISEN SHI","town":"NANGAI KOARASAWA","perfecture_jp":"秋田県","jp_add_1":"大仙市","jp_add_2":"南外小荒沢"},"0191847":{"post_code":"0191847","prefecture":"AKITA KEN","city":"DAISEN SHI","town":"NANGAI KOIDE","perfecture_jp":"秋田県","jp_add_1":"大仙市","jp_add_2":"南外小出"},"0191802":{"post_code":"0191802","prefecture":"AKITA KEN","city":"DAISEN SHI","town":"NANGAI KOHARUKIZAWA","perfecture_jp":"秋田県","jp_add_1":"大仙市","jp_add_2":"南外小春木沢"},"0191813":{"post_code":"0191813","prefecture":"AKITA KEN","city":"DAISEN SHI","town":"NANGAI SARUGASEDENO","perfecture_jp":"秋田県","jp_add_1":"大仙市","jp_add_2":"南外猿ケ瀬出野"},"0191851":{"post_code":"0191851","prefecture":"AKITA KEN","city":"DAISEN SHI","town":"NANGAI SANODAI","perfecture_jp":"秋田県","jp_add_1":"大仙市","jp_add_2":"南外山王台"},"0191957":{"post_code":"0191957","prefecture":"AKITA KEN","city":"DAISEN SHI","town":"NANGAI ZANZARA","perfecture_jp":"秋田県","jp_add_1":"大仙市","jp_add_2":"南外小浪滝"},"0191938":{"post_code":"0191938","prefecture":"AKITA KEN","city":"DAISEN SHI","town":"NANGAI SHIMOARASAWA","perfecture_jp":"秋田県","jp_add_1":"大仙市","jp_add_2":"南外下荒沢"},"0191952":{"post_code":"0191952","prefecture":"AKITA KEN","city":"DAISEN SHI","town":"NANGAI SHIMOARAMATA","perfecture_jp":"秋田県","jp_add_1":"大仙市","jp_add_2":"南外下荒又"},"0191947":{"post_code":"0191947","prefecture":"AKITA KEN","city":"DAISEN SHI","town":"NANGAI SHIMOKAMASAKA","perfecture_jp":"秋田県","jp_add_1":"大仙市","jp_add_2":"南外下釜坂"},"0191903":{"post_code":"0191903","prefecture":"AKITA KEN","city":"DAISEN SHI","town":"NANGAI SHIMOKAMATA","perfecture_jp":"秋田県","jp_add_1":"大仙市","jp_add_2":"南外下鎌田"},"0191814":{"post_code":"0191814","prefecture":"AKITA KEN","city":"DAISEN SHI","town":"NANGAI SHIMOKIJIKI","perfecture_jp":"秋田県","jp_add_1":"大仙市","jp_add_2":"南外下木直"},"0191931":{"post_code":"0191931","prefecture":"AKITA KEN","city":"DAISEN SHI","town":"NANGAI SHIMOTAKI","perfecture_jp":"秋田県","jp_add_1":"大仙市","jp_add_2":"南外下滝"},"0191902":{"post_code":"0191902","prefecture":"AKITA KEN","city":"DAISEN SHI","town":"NANGAI SHIMOBUKURO","perfecture_jp":"秋田県","jp_add_1":"大仙市","jp_add_2":"南外下袋"},"0191915":{"post_code":"0191915","prefecture":"AKITA KEN","city":"DAISEN SHI","town":"NANGAI SHIMOYUNOMATA","perfecture_jp":"秋田県","jp_add_1":"大仙市","jp_add_2":"南外下湯ノ又"},"0191946":{"post_code":"0191946","prefecture":"AKITA KEN","city":"DAISEN SHI","town":"NANGAI JUNINOMAE","perfecture_jp":"秋田県","jp_add_1":"大仙市","jp_add_2":"南外十二ノ前"},"0191806":{"post_code":"0191806","prefecture":"AKITA KEN","city":"DAISEN SHI","town":"NANGAI JUNIFUKURO","perfecture_jp":"秋田県","jp_add_1":"大仙市","jp_add_2":"南外十二袋"},"0191848":{"post_code":"0191848","prefecture":"AKITA KEN","city":"DAISEN SHI","town":"NANGAI SHIRIGAIDA","perfecture_jp":"秋田県","jp_add_1":"大仙市","jp_add_2":"南外鞦田"},"0191909":{"post_code":"0191909","prefecture":"AKITA KEN","city":"DAISEN SHI","town":"NANGAI SUGIHASHI","perfecture_jp":"秋田県","jp_add_1":"大仙市","jp_add_2":"南外杉橋"},"0191923":{"post_code":"0191923","prefecture":"AKITA KEN","city":"DAISEN SHI","town":"NANGAI SUNOSAWA","perfecture_jp":"秋田県","jp_add_1":"大仙市","jp_add_2":"南外巣ノ沢"},"0191924":{"post_code":"0191924","prefecture":"AKITA KEN","city":"DAISEN SHI","town":"NANGAI SUNOSAWA ISHIKIRIBA","perfecture_jp":"秋田県","jp_add_1":"大仙市","jp_add_2":"南外巣ノ沢石切場"},"0191953":{"post_code":"0191953","prefecture":"AKITA KEN","city":"DAISEN SHI","town":"NANGAI SOTOTOMO","perfecture_jp":"秋田県","jp_add_1":"大仙市","jp_add_2":"南外外小友"},"0191955":{"post_code":"0191955","prefecture":"AKITA KEN","city":"DAISEN SHI","town":"NANGAI SOTOYAMA","perfecture_jp":"秋田県","jp_add_1":"大仙市","jp_add_2":"南外外山"},"0191928":{"post_code":"0191928","prefecture":"AKITA KEN","city":"DAISEN SHI","town":"NANGAI TAKINAKATAOMOTE","perfecture_jp":"秋田県","jp_add_1":"大仙市","jp_add_2":"南外滝中田表"},"0191933":{"post_code":"0191933","prefecture":"AKITA KEN","city":"DAISEN SHI","town":"NANGAI TAKINOSAWA","perfecture_jp":"秋田県","jp_add_1":"大仙市","jp_add_2":"南外滝ノ沢"},"0191934":{"post_code":"0191934","prefecture":"AKITA KEN","city":"DAISEN SHI","town":"NANGAI TAJIRI","perfecture_jp":"秋田県","jp_add_1":"大仙市","jp_add_2":"南外田尻"},"0191873":{"post_code":"0191873","prefecture":"AKITA KEN","city":"DAISEN SHI","town":"NANGAI TANAKA","perfecture_jp":"秋田県","jp_add_1":"大仙市","jp_add_2":"南外田中"},"0191826":{"post_code":"0191826","prefecture":"AKITA KEN","city":"DAISEN SHI","town":"NANGAI TANAKATA","perfecture_jp":"秋田県","jp_add_1":"大仙市","jp_add_2":"南外田中田"},"0191827":{"post_code":"0191827","prefecture":"AKITA KEN","city":"DAISEN SHI","town":"NANGAI TANAKATAYAMANE","perfecture_jp":"秋田県","jp_add_1":"大仙市","jp_add_2":"南外田中田山根"},"0191822":{"post_code":"0191822","prefecture":"AKITA KEN","city":"DAISEN SHI","town":"NANGAI TAYAMURA","perfecture_jp":"秋田県","jp_add_1":"大仙市","jp_add_2":"南外田屋村"},"0191831":{"post_code":"0191831","prefecture":"AKITA KEN","city":"DAISEN SHI","town":"NANGAI DANNOHIRAYAMA","perfecture_jp":"秋田県","jp_add_1":"大仙市","jp_add_2":"南外壇ノ平山"},"0191861":{"post_code":"0191861","prefecture":"AKITA KEN","city":"DAISEN SHI","town":"NANGAI TERASAWA","perfecture_jp":"秋田県","jp_add_1":"大仙市","jp_add_2":"南外寺沢"},"0191888":{"post_code":"0191888","prefecture":"AKITA KEN","city":"DAISEN SHI","town":"NANGAI DOBA","perfecture_jp":"秋田県","jp_add_1":"大仙市","jp_add_2":"南外土場"},"0191936":{"post_code":"0191936","prefecture":"AKITA KEN","city":"DAISEN SHI","town":"NANGAI NAKAARASAWA","perfecture_jp":"秋田県","jp_add_1":"大仙市","jp_add_2":"南外中荒沢"},"0191954":{"post_code":"0191954","prefecture":"AKITA KEN","city":"DAISEN SHI","town":"NANGAI NAKAARAMATA","perfecture_jp":"秋田県","jp_add_1":"大仙市","jp_add_2":"南外中荒又"},"0191927":{"post_code":"0191927","prefecture":"AKITA KEN","city":"DAISEN SHI","town":"NANGAI NAKAKUWADAI","perfecture_jp":"秋田県","jp_add_1":"大仙市","jp_add_2":"南外中桑台"},"0191874":{"post_code":"0191874","prefecture":"AKITA KEN","city":"DAISEN SHI","town":"NANGAI NAKASHUKU","perfecture_jp":"秋田県","jp_add_1":"大仙市","jp_add_2":"南外中宿"},"0191921":{"post_code":"0191921","prefecture":"AKITA KEN","city":"DAISEN SHI","town":"NANGAI NAKANO","perfecture_jp":"秋田県","jp_add_1":"大仙市","jp_add_2":"南外中野"},"0191929":{"post_code":"0191929","prefecture":"AKITA KEN","city":"DAISEN SHI","town":"NANGAI NAKANOYAMA","perfecture_jp":"秋田県","jp_add_1":"大仙市","jp_add_2":"南外中野山"},"0191904":{"post_code":"0191904","prefecture":"AKITA KEN","city":"DAISEN SHI","town":"NANGAI NAKABUKURO","perfecture_jp":"秋田県","jp_add_1":"大仙市","jp_add_2":"南外中袋"},"0191887":{"post_code":"0191887","prefecture":"AKITA KEN","city":"DAISEN SHI","town":"NANGAI NAKAWATARI","perfecture_jp":"秋田県","jp_add_1":"大仙市","jp_add_2":"南外中渡"},"0191846":{"post_code":"0191846","prefecture":"AKITA KEN","city":"DAISEN SHI","town":"NANGAI NASHIKIDA","perfecture_jp":"秋田県","jp_add_1":"大仙市","jp_add_2":"南外梨木田"},"0191805":{"post_code":"0191805","prefecture":"AKITA KEN","city":"DAISEN SHI","town":"NANGAI NISHIITADO","perfecture_jp":"秋田県","jp_add_1":"大仙市","jp_add_2":"南外西板戸"},"0191804":{"post_code":"0191804","prefecture":"AKITA KEN","city":"DAISEN SHI","town":"NANGAI NISHINO","perfecture_jp":"秋田県","jp_add_1":"大仙市","jp_add_2":"南外西野"},"0191886":{"post_code":"0191886","prefecture":"AKITA KEN","city":"DAISEN SHI","town":"NANGAI NISHINOMATA","perfecture_jp":"秋田県","jp_add_1":"大仙市","jp_add_2":"南外西ノ又"},"0191963":{"post_code":"0191963","prefecture":"AKITA KEN","city":"DAISEN SHI","town":"NANGAI NISHINOMATATAKINOSAWA","perfecture_jp":"秋田県","jp_add_1":"大仙市","jp_add_2":"南外西ノ又滝ノ沢"},"0191878":{"post_code":"0191878","prefecture":"AKITA KEN","city":"DAISEN SHI","town":"NANGAI NOZOKI","perfecture_jp":"秋田県","jp_add_1":"大仙市","jp_add_2":"南外及位"},"0191884":{"post_code":"0191884","prefecture":"AKITA KEN","city":"DAISEN SHI","town":"NANGAI HAYASHINOSAWA","perfecture_jp":"秋田県","jp_add_1":"大仙市","jp_add_2":"南外林ノ沢"},"0191943":{"post_code":"0191943","prefecture":"AKITA KEN","city":"DAISEN SHI","town":"NANGAI HITOHANE","perfecture_jp":"秋田県","jp_add_1":"大仙市","jp_add_2":"南外一ト刎"},"0191815":{"post_code":"0191815","prefecture":"AKITA KEN","city":"DAISEN SHI","town":"NANGAI HIRAKATA","perfecture_jp":"秋田県","jp_add_1":"大仙市","jp_add_2":"南外平形"},"0191883":{"post_code":"0191883","prefecture":"AKITA KEN","city":"DAISEN SHI","town":"NANGAI HIRASAWA","perfecture_jp":"秋田県","jp_add_1":"大仙市","jp_add_2":"南外平沢"},"0191918":{"post_code":"0191918","prefecture":"AKITA KEN","city":"DAISEN SHI","town":"NANGAI HIROMOTE","perfecture_jp":"秋田県","jp_add_1":"大仙市","jp_add_2":"南外広表"},"0191801":{"post_code":"0191801","prefecture":"AKITA KEN","city":"DAISEN SHI","town":"NANGAI BUTSUDODAI","perfecture_jp":"秋田県","jp_add_1":"大仙市","jp_add_2":"南外物渡台"},"0191825":{"post_code":"0191825","prefecture":"AKITA KEN","city":"DAISEN SHI","town":"NANGAI BODA","perfecture_jp":"秋田県","jp_add_1":"大仙市","jp_add_2":"南外坊田"},"0191803":{"post_code":"0191803","prefecture":"AKITA KEN","city":"DAISEN SHI","town":"NANGAI BODAISHIHAGENOSHITA","perfecture_jp":"秋田県","jp_add_1":"大仙市","jp_add_2":"南外坊田石兀ノ下"},"0191853":{"post_code":"0191853","prefecture":"AKITA KEN","city":"DAISEN SHI","town":"NANGAI BODAKUROSAWA","perfecture_jp":"秋田県","jp_add_1":"大仙市","jp_add_2":"南外坊田黒沢"},"0191911":{"post_code":"0191911","prefecture":"AKITA KEN","city":"DAISEN SHI","town":"NANGAI BOMURA","perfecture_jp":"秋田県","jp_add_1":"大仙市","jp_add_2":"南外坊村"},"0191941":{"post_code":"0191941","prefecture":"AKITA KEN","city":"DAISEN SHI","town":"NANGAI MATSUKIDA","perfecture_jp":"秋田県","jp_add_1":"大仙市","jp_add_2":"南外松木田"},"0191912":{"post_code":"0191912","prefecture":"AKITA KEN","city":"DAISEN SHI","town":"NANGAI MARUKIBASHI","perfecture_jp":"秋田県","jp_add_1":"大仙市","jp_add_2":"南外丸木橋"},"0191939":{"post_code":"0191939","prefecture":"AKITA KEN","city":"DAISEN SHI","town":"NANGAI MIZUKAMIZAWA","perfecture_jp":"秋田県","jp_add_1":"大仙市","jp_add_2":"南外水上沢"},"0191877":{"post_code":"0191877","prefecture":"AKITA KEN","city":"DAISEN SHI","town":"NANGAI MIZUSAWA","perfecture_jp":"秋田県","jp_add_1":"大仙市","jp_add_2":"南外水沢"},"0191824":{"post_code":"0191824","prefecture":"AKITA KEN","city":"DAISEN SHI","town":"NANGAI MIYATA","perfecture_jp":"秋田県","jp_add_1":"大仙市","jp_add_2":"南外宮田"},"0191958":{"post_code":"0191958","prefecture":"AKITA KEN","city":"DAISEN SHI","town":"NANGAI MUKAINOSAWA","perfecture_jp":"秋田県","jp_add_1":"大仙市","jp_add_2":"南外向ノ沢"},"0191881":{"post_code":"0191881","prefecture":"AKITA KEN","city":"DAISEN SHI","town":"NANGAI MUGURASAWA","perfecture_jp":"秋田県","jp_add_1":"大仙市","jp_add_2":"南外葎沢"},"0191885":{"post_code":"0191885","prefecture":"AKITA KEN","city":"DAISEN SHI","town":"NANGAI MUJIRIBASHI","perfecture_jp":"秋田県","jp_add_1":"大仙市","jp_add_2":"南外無尻橋"},"0191811":{"post_code":"0191811","prefecture":"AKITA KEN","city":"DAISEN SHI","town":"NANGAI MOTOSHUKU","perfecture_jp":"秋田県","jp_add_1":"大仙市","jp_add_2":"南外本宿"},"0191917":{"post_code":"0191917","prefecture":"AKITA KEN","city":"DAISEN SHI","town":"NANGAI YAKUSHIDO","perfecture_jp":"秋田県","jp_add_1":"大仙市","jp_add_2":"南外薬師堂"},"0191871":{"post_code":"0191871","prefecture":"AKITA KEN","city":"DAISEN SHI","town":"NANGAI YACHIDA","perfecture_jp":"秋田県","jp_add_1":"大仙市","jp_add_2":"南外谷地田"},"0191913":{"post_code":"0191913","prefecture":"AKITA KEN","city":"DAISEN SHI","town":"NANGAI YUGAMIDAI","perfecture_jp":"秋田県","jp_add_1":"大仙市","jp_add_2":"南外湯神台"},"0191914":{"post_code":"0191914","prefecture":"AKITA KEN","city":"DAISEN SHI","town":"NANGAI YUNOMATA","perfecture_jp":"秋田県","jp_add_1":"大仙市","jp_add_2":"南外湯ノ又"},"0191944":{"post_code":"0191944","prefecture":"AKITA KEN","city":"DAISEN SHI","town":"NANGAI YUMOTO","perfecture_jp":"秋田県","jp_add_1":"大仙市","jp_add_2":"南外湯元"},"0191962":{"post_code":"0191962","prefecture":"AKITA KEN","city":"DAISEN SHI","town":"NANGAI WAKABAYASHI","perfecture_jp":"秋田県","jp_add_1":"大仙市","jp_add_2":"南外若林"},"0191862":{"post_code":"0191862","prefecture":"AKITA KEN","city":"DAISEN SHI","town":"NANGAI WAGO","perfecture_jp":"秋田県","jp_add_1":"大仙市","jp_add_2":"南外和合"},"0191400":{"post_code":"0191400","prefecture":"AKITA KEN","city":"SEMBOKU GUN MISATO CHO","town":"IKANIKEISAIGANAIBAAI","perfecture_jp":"秋田県","jp_add_1":"仙北郡美郷町","jp_add_2":""},"0191533":{"post_code":"0191533","prefecture":"AKITA KEN","city":"SEMBOKU GUN MISATO CHO","town":"ANJOJI","perfecture_jp":"秋田県","jp_add_1":"仙北郡美郷町","jp_add_2":"安城寺"},"0191234":{"post_code":"0191234","prefecture":"AKITA KEN","city":"SEMBOKU GUN MISATO CHO","town":"IIZUME","perfecture_jp":"秋田県","jp_add_1":"仙北郡美郷町","jp_add_2":"飯詰"},"0191302":{"post_code":"0191302","prefecture":"AKITA KEN","city":"SEMBOKU GUN MISATO CHO","town":"KANEZAWA","perfecture_jp":"秋田県","jp_add_1":"仙北郡美郷町","jp_add_2":"金沢"},"0191235":{"post_code":"0191235","prefecture":"AKITA KEN","city":"SEMBOKU GUN MISATO CHO","town":"KANEZAWANISHINE","perfecture_jp":"秋田県","jp_add_1":"仙北郡美郷町","jp_add_2":"金沢西根"},"0191522":{"post_code":"0191522","prefecture":"AKITA KEN","city":"SEMBOKU GUN MISATO CHO","town":"KANEZAWAHIGASHINE","perfecture_jp":"秋田県","jp_add_1":"仙北郡美郷町","jp_add_2":"金沢東根"},"0191236":{"post_code":"0191236","prefecture":"AKITA KEN","city":"SEMBOKU GUN MISATO CHO","town":"KAMIFUKAI","perfecture_jp":"秋田県","jp_add_1":"仙北郡美郷町","jp_add_2":"上深井"},"0191511":{"post_code":"0191511","prefecture":"AKITA KEN","city":"SEMBOKU GUN MISATO CHO","town":"KUROSAWA","perfecture_jp":"秋田県","jp_add_1":"仙北郡美郷町","jp_add_2":"黒沢"},"0191542":{"post_code":"0191542","prefecture":"AKITA KEN","city":"SEMBOKU GUN MISATO CHO","town":"KOARAKAWA","perfecture_jp":"秋田県","jp_add_1":"仙北郡美郷町","jp_add_2":"小荒川"},"0191233":{"post_code":"0191233","prefecture":"AKITA KEN","city":"SEMBOKU GUN MISATO CHO","town":"SAKAIDA","perfecture_jp":"秋田県","jp_add_1":"仙北郡美郷町","jp_add_2":"境田"},"0191237":{"post_code":"0191237","prefecture":"AKITA KEN","city":"SEMBOKU GUN MISATO CHO","town":"SANO","perfecture_jp":"秋田県","jp_add_1":"仙北郡美郷町","jp_add_2":"佐野"},"0191502":{"post_code":"0191502","prefecture":"AKITA KEN","city":"SEMBOKU GUN MISATO CHO","town":"SENYA","perfecture_jp":"秋田県","jp_add_1":"仙北郡美郷町","jp_add_2":"千屋"},"0191541":{"post_code":"0191541","prefecture":"AKITA KEN","city":"SEMBOKU GUN MISATO CHO","town":"TSUCHIZAKI","perfecture_jp":"秋田県","jp_add_1":"仙北郡美郷町","jp_add_2":"土崎"},"0191232":{"post_code":"0191232","prefecture":"AKITA KEN","city":"SEMBOKU GUN MISATO CHO","town":"TENJINDO","perfecture_jp":"秋田県","jp_add_1":"仙北郡美郷町","jp_add_2":"天神堂"},"0191521":{"post_code":"0191521","prefecture":"AKITA KEN","city":"SEMBOKU GUN MISATO CHO","town":"NAKANO","perfecture_jp":"秋田県","jp_add_1":"仙北郡美郷町","jp_add_2":"中野"},"0191501":{"post_code":"0191501","prefecture":"AKITA KEN","city":"SEMBOKU GUN MISATO CHO","town":"NANIWA","perfecture_jp":"秋田県","jp_add_1":"仙北郡美郷町","jp_add_2":"浪花"},"0191301":{"post_code":"0191301","prefecture":"AKITA KEN","city":"SEMBOKU GUN MISATO CHO","town":"NOARAMACHI","perfecture_jp":"秋田県","jp_add_1":"仙北郡美郷町","jp_add_2":"野荒町"},"0191402":{"post_code":"0191402","prefecture":"AKITA KEN","city":"SEMBOKU GUN MISATO CHO","town":"NONAKA","perfecture_jp":"秋田県","jp_add_1":"仙北郡美郷町","jp_add_2":"野中"},"0191531":{"post_code":"0191531","prefecture":"AKITA KEN","city":"SEMBOKU GUN MISATO CHO","town":"HATAYA","perfecture_jp":"秋田県","jp_add_1":"仙北郡美郷町","jp_add_2":"畑屋"},"0191532":{"post_code":"0191532","prefecture":"AKITA KEN","city":"SEMBOKU GUN MISATO CHO","town":"HANUKIYACHI","perfecture_jp":"秋田県","jp_add_1":"仙北郡美郷町","jp_add_2":"羽貫谷地"},"0191512":{"post_code":"0191512","prefecture":"AKITA KEN","city":"SEMBOKU GUN MISATO CHO","town":"HONDOSHIROMAWARI","perfecture_jp":"秋田県","jp_add_1":"仙北郡美郷町","jp_add_2":"本堂城回"},"0191231":{"post_code":"0191231","prefecture":"AKITA KEN","city":"SEMBOKU GUN MISATO CHO","town":"MINAMIMACHI","perfecture_jp":"秋田県","jp_add_1":"仙北郡美郷町","jp_add_2":"南町"},"0191401":{"post_code":"0191401","prefecture":"AKITA KEN","city":"SEMBOKU GUN MISATO CHO","town":"YARIDA","perfecture_jp":"秋田県","jp_add_1":"仙北郡美郷町","jp_add_2":"鑓田"},"0191404":{"post_code":"0191404","prefecture":"AKITA KEN","city":"SEMBOKU GUN MISATO CHO","town":"ROKUGO","perfecture_jp":"秋田県","jp_add_1":"仙北郡美郷町","jp_add_2":"六郷"},"0191403":{"post_code":"0191403","prefecture":"AKITA KEN","city":"SEMBOKU GUN MISATO CHO","town":"ROKUGOHIGASHINE","perfecture_jp":"秋田県","jp_add_1":"仙北郡美郷町","jp_add_2":"六郷東根"},"0190800":{"post_code":"0190800","prefecture":"AKITA KEN","city":"OGACHI GUN HIGASHINARUSE MURA","town":"IKANIKEISAIGANAIBAAI","perfecture_jp":"秋田県","jp_add_1":"雄勝郡東成瀬村","jp_add_2":""},"0190802":{"post_code":"0190802","prefecture":"AKITA KEN","city":"OGACHI GUN HIGASHINARUSE MURA","town":"IWAIKAWA","perfecture_jp":"秋田県","jp_add_1":"雄勝郡東成瀬村","jp_add_2":"岩井川"},"0190801":{"post_code":"0190801","prefecture":"AKITA KEN","city":"OGACHI GUN HIGASHINARUSE MURA","town":"TAGONAI","perfecture_jp":"秋田県","jp_add_1":"雄勝郡東成瀬村","jp_add_2":"田子内"},"0190803":{"post_code":"0190803","prefecture":"AKITA KEN","city":"OGACHI GUN HIGASHINARUSE MURA","town":"TSUBAKIKAWA","perfecture_jp":"秋田県","jp_add_1":"雄勝郡東成瀬村","jp_add_2":"椿川"}}