{"0210000":{"post_code":"0210000","prefecture":"IWATE KEN","city":"ICHINOSEKI SHI","town":"IKANIKEISAIGANAIBAAI","perfecture_jp":"岩手県","jp_add_1":"一関市","jp_add_2":""},"0210853":{"post_code":"0210853","prefecture":"IWATE KEN","city":"ICHINOSEKI SHI","town":"AISARI","perfecture_jp":"岩手県","jp_add_1":"一関市","jp_add_2":"相去"},"0210031":{"post_code":"0210031","prefecture":"IWATE KEN","city":"ICHINOSEKI SHI","town":"AOBA","perfecture_jp":"岩手県","jp_add_1":"一関市","jp_add_2":"青葉"},"0210041":{"post_code":"0210041","prefecture":"IWATE KEN","city":"ICHINOSEKI SHI","town":"AKOGI","perfecture_jp":"岩手県","jp_add_1":"一関市","jp_add_2":"赤荻"},"0210864":{"post_code":"0210864","prefecture":"IWATE KEN","city":"ICHINOSEKI SHI","town":"ASAHICHO","perfecture_jp":"岩手県","jp_add_1":"一関市","jp_add_2":"旭町"},"0210008":{"post_code":"0210008","prefecture":"IWATE KEN","city":"ICHINOSEKI SHI","town":"ISHIBATAKE","perfecture_jp":"岩手県","jp_add_1":"一関市","jp_add_2":"石畑"},"0210894":{"post_code":"0210894","prefecture":"IWATE KEN","city":"ICHINOSEKI SHI","town":"IWAICHO","perfecture_jp":"岩手県","jp_add_1":"一関市","jp_add_2":"磐井町"},"0210834":{"post_code":"0210834","prefecture":"IWATE KEN","city":"ICHINOSEKI SHI","town":"UNAN","perfecture_jp":"岩手県","jp_add_1":"一関市","jp_add_2":"宇南"},"0210867":{"post_code":"0210867","prefecture":"IWATE KEN","city":"ICHINOSEKI SHI","town":"EKIMAE","perfecture_jp":"岩手県","jp_add_1":"一関市","jp_add_2":"駅前"},"0210884":{"post_code":"0210884","prefecture":"IWATE KEN","city":"ICHINOSEKI SHI","town":"OTEMACHI","perfecture_jp":"岩手県","jp_add_1":"一関市","jp_add_2":"大手町"},"0210881":{"post_code":"0210881","prefecture":"IWATE KEN","city":"ICHINOSEKI SHI","town":"OMACHI","perfecture_jp":"岩手県","jp_add_1":"一関市","jp_add_2":"大町"},"0210882":{"post_code":"0210882","prefecture":"IWATE KEN","city":"ICHINOSEKI SHI","town":"KAMIOTSUKIKOJI","perfecture_jp":"岩手県","jp_add_1":"一関市","jp_add_2":"上大槻街"},"0210007":{"post_code":"0210007","prefecture":"IWATE KEN","city":"ICHINOSEKI SHI","town":"KAMIHIDERI","perfecture_jp":"岩手県","jp_add_1":"一関市","jp_add_2":"上日照"},"0210833":{"post_code":"0210833","prefecture":"IWATE KEN","city":"ICHINOSEKI SHI","town":"KARAKAI","perfecture_jp":"岩手県","jp_add_1":"一関市","jp_add_2":"柄貝"},"0210802":{"post_code":"0210802","prefecture":"IWATE KEN","city":"ICHINOSEKI SHI","town":"KITAJUKKENKOJI","perfecture_jp":"岩手県","jp_add_1":"一関市","jp_add_2":"北十軒街"},"0210814":{"post_code":"0210814","prefecture":"IWATE KEN","city":"ICHINOSEKI SHI","town":"KITAHORYO","perfecture_jp":"岩手県","jp_add_1":"一関市","jp_add_2":"北ほうりょう"},"0210811":{"post_code":"0210811","prefecture":"IWATE KEN","city":"ICHINOSEKI SHI","town":"KUBO","perfecture_jp":"岩手県","jp_add_1":"一関市","jp_add_2":"久保"},"0210101":{"post_code":"0210101","prefecture":"IWATE KEN","city":"ICHINOSEKI SHI","town":"GEMBICHO","perfecture_jp":"岩手県","jp_add_1":"一関市","jp_add_2":"厳美町"},"0210804":{"post_code":"0210804","prefecture":"IWATE KEN","city":"ICHINOSEKI SHI","town":"GOJUNIMMACHI","perfecture_jp":"岩手県","jp_add_1":"一関市","jp_add_2":"五十人町"},"0210022":{"post_code":"0210022","prefecture":"IWATE KEN","city":"ICHINOSEKI SHI","town":"GODAICHO","perfecture_jp":"岩手県","jp_add_1":"一関市","jp_add_2":"五代町"},"0210052":{"post_code":"0210052","prefecture":"IWATE KEN","city":"ICHINOSEKI SHI","town":"KOTOBUKICHO","perfecture_jp":"岩手県","jp_add_1":"一関市","jp_add_2":"寿町"},"0210024":{"post_code":"0210024","prefecture":"IWATE KEN","city":"ICHINOSEKI SHI","town":"SAIWAICHO","perfecture_jp":"岩手県","jp_add_1":"一関市","jp_add_2":"幸町"},"0210891":{"post_code":"0210891","prefecture":"IWATE KEN","city":"ICHINOSEKI SHI","town":"SAKURAGICHO","perfecture_jp":"岩手県","jp_add_1":"一関市","jp_add_2":"桜木町"},"0210801":{"post_code":"0210801","prefecture":"IWATE KEN","city":"ICHINOSEKI SHI","town":"SAKURAKOJI","perfecture_jp":"岩手県","jp_add_1":"一関市","jp_add_2":"桜街"},"0210852":{"post_code":"0210852","prefecture":"IWATE KEN","city":"ICHINOSEKI SHI","town":"SAWA","perfecture_jp":"岩手県","jp_add_1":"一関市","jp_add_2":"沢"},"0210832":{"post_code":"0210832","prefecture":"IWATE KEN","city":"ICHINOSEKI SHI","town":"SANTA","perfecture_jp":"岩手県","jp_add_1":"一関市","jp_add_2":"散田"},"0210821":{"post_code":"0210821","prefecture":"IWATE KEN","city":"ICHINOSEKI SHI","town":"SANNOSEKI","perfecture_jp":"岩手県","jp_add_1":"一関市","jp_add_2":"三関"},"0210893":{"post_code":"0210893","prefecture":"IWATE KEN","city":"ICHINOSEKI SHI","town":"JISHUMACHI","perfecture_jp":"岩手県","jp_add_1":"一関市","jp_add_2":"地主町"},"0210806":{"post_code":"0210806","prefecture":"IWATE KEN","city":"ICHINOSEKI SHI","town":"SHIMOOTSUKIKOJI","perfecture_jp":"岩手県","jp_add_1":"一関市","jp_add_2":"下大槻街"},"0210877":{"post_code":"0210877","prefecture":"IWATE KEN","city":"ICHINOSEKI SHI","town":"JONAI","perfecture_jp":"岩手県","jp_add_1":"一関市","jp_add_2":"城内"},"0210006":{"post_code":"0210006","prefecture":"IWATE KEN","city":"ICHINOSEKI SHI","town":"JOBO","perfecture_jp":"岩手県","jp_add_1":"一関市","jp_add_2":"上坊"},"0210883":{"post_code":"0210883","prefecture":"IWATE KEN","city":"ICHINOSEKI SHI","town":"SHINOMACHI","perfecture_jp":"岩手県","jp_add_1":"一関市","jp_add_2":"新大町"},"0210001":{"post_code":"0210001","prefecture":"IWATE KEN","city":"ICHINOSEKI SHI","town":"SHIMMACHI","perfecture_jp":"岩手県","jp_add_1":"一関市","jp_add_2":"新町"},"0210841":{"post_code":"0210841","prefecture":"IWATE KEN","city":"ICHINOSEKI SHI","town":"SUIKAWAKOJI","perfecture_jp":"岩手県","jp_add_1":"一関市","jp_add_2":"吸川街"},"0210032":{"post_code":"0210032","prefecture":"IWATE KEN","city":"ICHINOSEKI SHI","town":"SUEHIRO","perfecture_jp":"岩手県","jp_add_1":"一関市","jp_add_2":"末広"},"0210851":{"post_code":"0210851","prefecture":"IWATE KEN","city":"ICHINOSEKI SHI","town":"SEKIGAOKA","perfecture_jp":"岩手県","jp_add_1":"一関市","jp_add_2":"関が丘"},"0210873":{"post_code":"0210873","prefecture":"IWATE KEN","city":"ICHINOSEKI SHI","town":"DAIMACHI","perfecture_jp":"岩手県","jp_add_1":"一関市","jp_add_2":"台町"},"0210875":{"post_code":"0210875","prefecture":"IWATE KEN","city":"ICHINOSEKI SHI","town":"TAKASAKICHO","perfecture_jp":"岩手県","jp_add_1":"一関市","jp_add_2":"高崎町"},"0210027":{"post_code":"0210027","prefecture":"IWATE KEN","city":"ICHINOSEKI SHI","town":"TAKEYAMACHO","perfecture_jp":"岩手県","jp_add_1":"一関市","jp_add_2":"竹山町"},"0210885":{"post_code":"0210885","prefecture":"IWATE KEN","city":"ICHINOSEKI SHI","town":"TAMURACHO","perfecture_jp":"岩手県","jp_add_1":"一関市","jp_add_2":"田村町"},"0210844":{"post_code":"0210844","prefecture":"IWATE KEN","city":"ICHINOSEKI SHI","town":"TAMMACHI","perfecture_jp":"岩手県","jp_add_1":"一関市","jp_add_2":"反町"},"0210021":{"post_code":"0210021","prefecture":"IWATE KEN","city":"ICHINOSEKI SHI","town":"CHUOCHO","perfecture_jp":"岩手県","jp_add_1":"一関市","jp_add_2":"中央町"},"0210862":{"post_code":"0210862","prefecture":"IWATE KEN","city":"ICHINOSEKI SHI","town":"CHIYODACHO","perfecture_jp":"岩手県","jp_add_1":"一関市","jp_add_2":"千代田町"},"0210874":{"post_code":"0210874","prefecture":"IWATE KEN","city":"ICHINOSEKI SHI","town":"TSURIYAMA","perfecture_jp":"岩手県","jp_add_1":"一関市","jp_add_2":"釣山"},"0210023":{"post_code":"0210023","prefecture":"IWATE KEN","city":"ICHINOSEKI SHI","town":"DOYACHO","perfecture_jp":"岩手県","jp_add_1":"一関市","jp_add_2":"銅谷町"},"0210005":{"post_code":"0210005","prefecture":"IWATE KEN","city":"ICHINOSEKI SHI","town":"NAKASATO(SAWADA)","perfecture_jp":"岩手県","jp_add_1":"一関市","jp_add_2":"中里"},"0210002":{"post_code":"0210002","prefecture":"IWATE KEN","city":"ICHINOSEKI SHI","town":"NAKASATO(SONOTA)","perfecture_jp":"岩手県","jp_add_1":"一関市","jp_add_2":"中里"},"0210836":{"post_code":"0210836","prefecture":"IWATE KEN","city":"ICHINOSEKI SHI","town":"NARUGAMI","perfecture_jp":"岩手県","jp_add_1":"一関市","jp_add_2":"鳴神"},"0210865":{"post_code":"0210865","prefecture":"IWATE KEN","city":"ICHINOSEKI SHI","town":"NIIYAMA","perfecture_jp":"岩手県","jp_add_1":"一関市","jp_add_2":"新山"},"0210854":{"post_code":"0210854","prefecture":"IWATE KEN","city":"ICHINOSEKI SHI","town":"NISHIZAWA","perfecture_jp":"岩手県","jp_add_1":"一関市","jp_add_2":"西沢"},"0210835":{"post_code":"0210835","prefecture":"IWATE KEN","city":"ICHINOSEKI SHI","town":"NIHONGI","perfecture_jp":"岩手県","jp_add_1":"一関市","jp_add_2":"二本木"},"0210831":{"post_code":"0210831","prefecture":"IWATE KEN","city":"ICHINOSEKI SHI","town":"NUMATA","perfecture_jp":"岩手県","jp_add_1":"一関市","jp_add_2":"沼田"},"0210102":{"post_code":"0210102","prefecture":"IWATE KEN","city":"ICHINOSEKI SHI","town":"YAHATA.YAMANOSAWA)","perfecture_jp":"岩手県","jp_add_1":"一関市","jp_add_2":"萩荘"},"0210902":{"post_code":"0210902","prefecture":"IWATE KEN","city":"ICHINOSEKI SHI","town":"HAGISHO(SONOTA)","perfecture_jp":"岩手県","jp_add_1":"一関市","jp_add_2":"萩荘"},"0210861":{"post_code":"0210861","prefecture":"IWATE KEN","city":"ICHINOSEKI SHI","town":"HATAORIYAMA","perfecture_jp":"岩手県","jp_add_1":"一関市","jp_add_2":"機織山"},"0210871":{"post_code":"0210871","prefecture":"IWATE KEN","city":"ICHINOSEKI SHI","town":"HACHIMANCHO","perfecture_jp":"岩手県","jp_add_1":"一関市","jp_add_2":"八幡町"},"0210807":{"post_code":"0210807","prefecture":"IWATE KEN","city":"ICHINOSEKI SHI","town":"HIGASHIKAOCHO","perfecture_jp":"岩手県","jp_add_1":"一関市","jp_add_2":"東花王町"},"0210003":{"post_code":"0210003","prefecture":"IWATE KEN","city":"ICHINOSEKI SHI","town":"HIGASHIGODAI","perfecture_jp":"岩手県","jp_add_1":"一関市","jp_add_2":"東五代"},"0210892":{"post_code":"0210892","prefecture":"IWATE KEN","city":"ICHINOSEKI SHI","town":"HIGASHIJISHUMACHI","perfecture_jp":"岩手県","jp_add_1":"一関市","jp_add_2":"東地主町"},"0210822":{"post_code":"0210822","prefecture":"IWATE KEN","city":"ICHINOSEKI SHI","town":"HIGASHIDAI","perfecture_jp":"岩手県","jp_add_1":"一関市","jp_add_2":"東台"},"0210876":{"post_code":"0210876","prefecture":"IWATE KEN","city":"ICHINOSEKI SHI","town":"HIROKOJI","perfecture_jp":"岩手県","jp_add_1":"一関市","jp_add_2":"広街"},"0210812":{"post_code":"0210812","prefecture":"IWATE KEN","city":"ICHINOSEKI SHI","town":"HIWATASHI","perfecture_jp":"岩手県","jp_add_1":"一関市","jp_add_2":"樋渡"},"0210843":{"post_code":"0210843","prefecture":"IWATE KEN","city":"ICHINOSEKI SHI","town":"FUKAMACHI","perfecture_jp":"岩手県","jp_add_1":"一関市","jp_add_2":"深町"},"0210221":{"post_code":"0210221","prefecture":"IWATE KEN","city":"ICHINOSEKI SHI","town":"MAIKAWA","perfecture_jp":"岩手県","jp_add_1":"一関市","jp_add_2":"舞川"},"0210901":{"post_code":"0210901","prefecture":"IWATE KEN","city":"ICHINOSEKI SHI","town":"MASHIBA","perfecture_jp":"岩手県","jp_add_1":"一関市","jp_add_2":"真柴"},"0210004":{"post_code":"0210004","prefecture":"IWATE KEN","city":"ICHINOSEKI SHI","town":"MACHIURA","perfecture_jp":"岩手県","jp_add_1":"一関市","jp_add_2":"町浦"},"0210803":{"post_code":"0210803","prefecture":"IWATE KEN","city":"ICHINOSEKI SHI","town":"MINAMIJUKKENKOJI","perfecture_jp":"岩手県","jp_add_1":"一関市","jp_add_2":"南十軒街"},"0210866":{"post_code":"0210866","prefecture":"IWATE KEN","city":"ICHINOSEKI SHI","town":"MINAMISHIMMACHI","perfecture_jp":"岩手県","jp_add_1":"一関市","jp_add_2":"南新町"},"0210813":{"post_code":"0210813","prefecture":"IWATE KEN","city":"ICHINOSEKI SHI","town":"MINAMIHORYO","perfecture_jp":"岩手県","jp_add_1":"一関市","jp_add_2":"南ほうりょう"},"0210863":{"post_code":"0210863","prefecture":"IWATE KEN","city":"ICHINOSEKI SHI","town":"MINAMIMACHI","perfecture_jp":"岩手県","jp_add_1":"一関市","jp_add_2":"南町"},"0210872":{"post_code":"0210872","prefecture":"IWATE KEN","city":"ICHINOSEKI SHI","town":"MIYASAKACHO","perfecture_jp":"岩手県","jp_add_1":"一関市","jp_add_2":"宮坂町"},"0210013":{"post_code":"0210013","prefecture":"IWATE KEN","city":"ICHINOSEKI SHI","town":"MIYASHITACHO","perfecture_jp":"岩手県","jp_add_1":"一関市","jp_add_2":"宮下町"},"0210012":{"post_code":"0210012","prefecture":"IWATE KEN","city":"ICHINOSEKI SHI","town":"MIYAMAECHO","perfecture_jp":"岩手県","jp_add_1":"一関市","jp_add_2":"宮前町"},"0210842":{"post_code":"0210842","prefecture":"IWATE KEN","city":"ICHINOSEKI SHI","town":"YANAGIMACHI","perfecture_jp":"岩手県","jp_add_1":"一関市","jp_add_2":"柳町"},"0210063":{"post_code":"0210063","prefecture":"IWATE KEN","city":"ICHINOSEKI SHI","town":"YAMANOME(OTSUKI)","perfecture_jp":"岩手県","jp_add_1":"一関市","jp_add_2":"山目"},"0210035":{"post_code":"0210035","prefecture":"IWATE KEN","city":"ICHINOSEKI SHI","town":"YAMANOME(SAITEN)","perfecture_jp":"岩手県","jp_add_1":"一関市","jp_add_2":"山目"},"0210054":{"post_code":"0210054","prefecture":"IWATE KEN","city":"ICHINOSEKI SHI","town":"YAMANOME(SAKAI)","perfecture_jp":"岩手県","jp_add_1":"一関市","jp_add_2":"山目"},"0210033":{"post_code":"0210033","prefecture":"IWATE KEN","city":"ICHINOSEKI SHI","town":"YAMANOME(SATOMAE)","perfecture_jp":"岩手県","jp_add_1":"一関市","jp_add_2":"山目"},"0210064":{"post_code":"0210064","prefecture":"IWATE KEN","city":"ICHINOSEKI SHI","town":"YAMANOME(SAWAUCHI)","perfecture_jp":"岩手県","jp_add_1":"一関市","jp_add_2":"山目"},"0210051":{"post_code":"0210051","prefecture":"IWATE KEN","city":"ICHINOSEKI SHI","town":"YAMANOME(SANTANDA)","perfecture_jp":"岩手県","jp_add_1":"一関市","jp_add_2":"山目"},"0210036":{"post_code":"0210036","prefecture":"IWATE KEN","city":"ICHINOSEKI SHI","town":"YAMANOME(JUNIJIN)","perfecture_jp":"岩手県","jp_add_1":"一関市","jp_add_2":"山目"},"0210034":{"post_code":"0210034","prefecture":"IWATE KEN","city":"ICHINOSEKI SHI","town":"YAMANOME(TACHIZAWA)","perfecture_jp":"岩手県","jp_add_1":"一関市","jp_add_2":"山目"},"0210061":{"post_code":"0210061","prefecture":"IWATE KEN","city":"ICHINOSEKI SHI","town":"YAMANOME(TATE)","perfecture_jp":"岩手県","jp_add_1":"一関市","jp_add_2":"山目"},"0210062":{"post_code":"0210062","prefecture":"IWATE KEN","city":"ICHINOSEKI SHI","town":"YAMANOME(TERAMAE)","perfecture_jp":"岩手県","jp_add_1":"一関市","jp_add_2":"山目"},"0210055":{"post_code":"0210055","prefecture":"IWATE KEN","city":"ICHINOSEKI SHI","town":"YAMANOME(DOROTA)","perfecture_jp":"岩手県","jp_add_1":"一関市","jp_add_2":"山目"},"0210056":{"post_code":"0210056","prefecture":"IWATE KEN","city":"ICHINOSEKI SHI","town":"YAMANOME(DOROTAYAMASHITA)","perfecture_jp":"岩手県","jp_add_1":"一関市","jp_add_2":"山目"},"0210053":{"post_code":"0210053","prefecture":"IWATE KEN","city":"ICHINOSEKI SHI","town":"YAMANOME(NAKANO)","perfecture_jp":"岩手県","jp_add_1":"一関市","jp_add_2":"山目"},"0210026":{"post_code":"0210026","prefecture":"IWATE KEN","city":"ICHINOSEKI SHI","town":"YAMANOME(MAEDA)","perfecture_jp":"岩手県","jp_add_1":"一関市","jp_add_2":"山目"},"0210025":{"post_code":"0210025","prefecture":"IWATE KEN","city":"ICHINOSEKI SHI","town":"YAMANOME(MUKAINO)","perfecture_jp":"岩手県","jp_add_1":"一関市","jp_add_2":"山目"},"0210011":{"post_code":"0210011","prefecture":"IWATE KEN","city":"ICHINOSEKI SHI","town":"YAMANOMEMACHI","perfecture_jp":"岩手県","jp_add_1":"一関市","jp_add_2":"山目町"},"0210805":{"post_code":"0210805","prefecture":"IWATE KEN","city":"ICHINOSEKI SHI","town":"YUTAKAMACHI","perfecture_jp":"岩手県","jp_add_1":"一関市","jp_add_2":"豊町"},"0210815":{"post_code":"0210815","prefecture":"IWATE KEN","city":"ICHINOSEKI SHI","town":"YOGAI","perfecture_jp":"岩手県","jp_add_1":"一関市","jp_add_2":"要害"},"0210014":{"post_code":"0210014","prefecture":"IWATE KEN","city":"ICHINOSEKI SHI","town":"RAMBAICHO","perfecture_jp":"岩手県","jp_add_1":"一関市","jp_add_2":"蘭梅町"}}