{"0220000":{"post_code":"0220000","prefecture":"IWATE KEN","city":"OFUNATO SHI","town":"IKANIKEISAIGANAIBAAI","perfecture_jp":"岩手県","jp_add_1":"大船渡市","jp_add_2":""},"0220007":{"post_code":"0220007","prefecture":"IWATE KEN","city":"OFUNATO SHI","town":"AKASAKICHO","perfecture_jp":"岩手県","jp_add_1":"大船渡市","jp_add_2":"赤崎町"},"0220004":{"post_code":"0220004","prefecture":"IWATE KEN","city":"OFUNATO SHI","town":"IKAWACHO","perfecture_jp":"岩手県","jp_add_1":"大船渡市","jp_add_2":"猪川町"},"0220002":{"post_code":"0220002","prefecture":"IWATE KEN","city":"OFUNATO SHI","town":"OFUNATOCHO","perfecture_jp":"岩手県","jp_add_1":"大船渡市","jp_add_2":"大船渡町"},"0220003":{"post_code":"0220003","prefecture":"IWATE KEN","city":"OFUNATO SHI","town":"SAKARICHO","perfecture_jp":"岩手県","jp_add_1":"大船渡市","jp_add_2":"盛町"},"0220101":{"post_code":"0220101","prefecture":"IWATE KEN","city":"OFUNATO SHI","town":"SANRIKUCHO OKIRAI","perfecture_jp":"岩手県","jp_add_1":"大船渡市","jp_add_2":"三陸町越喜来"},"0220102":{"post_code":"0220102","prefecture":"IWATE KEN","city":"OFUNATO SHI","town":"SANRIKUCHO YOSHIHAMA","perfecture_jp":"岩手県","jp_add_1":"大船渡市","jp_add_2":"三陸町吉浜"},"0220211":{"post_code":"0220211","prefecture":"IWATE KEN","city":"OFUNATO SHI","town":"SANRIKUCHO RYORI","perfecture_jp":"岩手県","jp_add_1":"大船渡市","jp_add_2":"三陸町綾里"},"0220006":{"post_code":"0220006","prefecture":"IWATE KEN","city":"OFUNATO SHI","town":"TAKKONCHO","perfecture_jp":"岩手県","jp_add_1":"大船渡市","jp_add_2":"立根町"},"0220005":{"post_code":"0220005","prefecture":"IWATE KEN","city":"OFUNATO SHI","town":"HIKOROICHICHO","perfecture_jp":"岩手県","jp_add_1":"大船渡市","jp_add_2":"日頃市町"},"0220001":{"post_code":"0220001","prefecture":"IWATE KEN","city":"OFUNATO SHI","town":"MASSAKICHO","perfecture_jp":"岩手県","jp_add_1":"大船渡市","jp_add_2":"末崎町"}}