{"0240000":{"post_code":"0240000","prefecture":"IWATE KEN","city":"KITAKAMI SHI","town":"IKANIKEISAIGANAIBAAI","perfecture_jp":"岩手県","jp_add_1":"北上市","jp_add_2":""},"0240051":{"post_code":"0240051","prefecture":"IWATE KEN","city":"KITAKAMI SHI","town":"AISARICHO","perfecture_jp":"岩手県","jp_add_1":"北上市","jp_add_2":"相去町"},"0240031":{"post_code":"0240031","prefecture":"IWATE KEN","city":"KITAKAMI SHI","town":"AOYAGICHO","perfecture_jp":"岩手県","jp_add_1":"北上市","jp_add_2":"青柳町"},"0240081":{"post_code":"0240081","prefecture":"IWATE KEN","city":"KITAKAMI SHI","town":"ARITACHO","perfecture_jp":"岩手県","jp_add_1":"北上市","jp_add_2":"有田町"},"0240001":{"post_code":"0240001","prefecture":"IWATE KEN","city":"KITAKAMI SHI","town":"IITOYO","perfecture_jp":"岩手県","jp_add_1":"北上市","jp_add_2":"飯豊"},"0240041":{"post_code":"0240041","prefecture":"IWATE KEN","city":"KITAKAMI SHI","town":"INASECHO","perfecture_jp":"岩手県","jp_add_1":"北上市","jp_add_2":"稲瀬町"},"0240021":{"post_code":"0240021","prefecture":"IWATE KEN","city":"KITAKAMI SHI","town":"UENOCHO","perfecture_jp":"岩手県","jp_add_1":"北上市","jp_add_2":"上野町"},"0240054":{"post_code":"0240054","prefecture":"IWATE KEN","city":"KITAKAMI SHI","town":"OTSUTSUMI HIGASHI","perfecture_jp":"岩手県","jp_add_1":"北上市","jp_add_2":"大堤東"},"0240053":{"post_code":"0240053","prefecture":"IWATE KEN","city":"KITAKAMI SHI","town":"OTSUTSUMI NISHI","perfecture_jp":"岩手県","jp_add_1":"北上市","jp_add_2":"大堤西"},"0240055":{"post_code":"0240055","prefecture":"IWATE KEN","city":"KITAKAMI SHI","town":"OTSUTSUMI MINAMI","perfecture_jp":"岩手県","jp_add_1":"北上市","jp_add_2":"大堤南"},"0240052":{"post_code":"0240052","prefecture":"IWATE KEN","city":"KITAKAMI SHI","town":"OTSUTSUMI KITA","perfecture_jp":"岩手県","jp_add_1":"北上市","jp_add_2":"大堤北"},"0240061":{"post_code":"0240061","prefecture":"IWATE KEN","city":"KITAKAMI SHI","town":"ODORI","perfecture_jp":"岩手県","jp_add_1":"北上市","jp_add_2":"大通り"},"0240091":{"post_code":"0240091","prefecture":"IWATE KEN","city":"KITAKAMI SHI","town":"OMAGARICHO","perfecture_jp":"岩手県","jp_add_1":"北上市","jp_add_2":"大曲町"},"0240056":{"post_code":"0240056","prefecture":"IWATE KEN","city":"KITAKAMI SHI","town":"ONIYANAGICHO","perfecture_jp":"岩手県","jp_add_1":"北上市","jp_add_2":"鬼柳町"},"0240062":{"post_code":"0240062","prefecture":"IWATE KEN","city":"KITAKAMI SHI","town":"KAJIMACHI","perfecture_jp":"岩手県","jp_add_1":"北上市","jp_add_2":"鍛冶町"},"0240071":{"post_code":"0240071","prefecture":"IWATE KEN","city":"KITAKAMI SHI","town":"KAMIEZURIKO","perfecture_jp":"岩手県","jp_add_1":"北上市","jp_add_2":"上江釣子"},"0240057":{"post_code":"0240057","prefecture":"IWATE KEN","city":"KITAKAMI SHI","town":"KAMIONIYANAGI","perfecture_jp":"岩手県","jp_add_1":"北上市","jp_add_2":"上鬼柳"},"0240032":{"post_code":"0240032","prefecture":"IWATE KEN","city":"KITAKAMI SHI","town":"KAWAGISHI","perfecture_jp":"岩手県","jp_add_1":"北上市","jp_add_2":"川岸"},"0240072":{"post_code":"0240072","prefecture":"IWATE KEN","city":"KITAKAMI SHI","town":"KITAONIYANAGI","perfecture_jp":"岩手県","jp_add_1":"北上市","jp_add_2":"北鬼柳"},"0240102":{"post_code":"0240102","prefecture":"IWATE KEN","city":"KITAKAMI SHI","town":"KITAKOGYODANCHI(3.5-BANCHI)","perfecture_jp":"岩手県","jp_add_1":"北上市","jp_add_2":"北工業団地"},"0240002":{"post_code":"0240002","prefecture":"IWATE KEN","city":"KITAKAMI SHI","town":"KITAKOGYODANCHI(SONOTA)","perfecture_jp":"岩手県","jp_add_1":"北上市","jp_add_2":"北工業団地"},"0240211":{"post_code":"0240211","prefecture":"IWATE KEN","city":"KITAKAMI SHI","town":"KUCHINAICHO","perfecture_jp":"岩手県","jp_add_1":"北上市","jp_add_2":"口内町"},"0240063":{"post_code":"0240063","prefecture":"IWATE KEN","city":"KITAKAMI SHI","town":"KUNEMBASHI","perfecture_jp":"岩手県","jp_add_1":"北上市","jp_add_2":"九年橋"},"0240042":{"post_code":"0240042","prefecture":"IWATE KEN","city":"KITAKAMI SHI","town":"KUROIWA","perfecture_jp":"岩手県","jp_add_1":"北上市","jp_add_2":"黒岩"},"0240022":{"post_code":"0240022","prefecture":"IWATE KEN","city":"KITAKAMI SHI","town":"KUROSAWAJIRI","perfecture_jp":"岩手県","jp_add_1":"北上市","jp_add_2":"黒沢尻"},"0240105":{"post_code":"0240105","prefecture":"IWATE KEN","city":"KITAKAMI SHI","town":"KOTORIZAKI","perfecture_jp":"岩手県","jp_add_1":"北上市","jp_add_2":"小鳥崎"},"0240033":{"post_code":"0240033","prefecture":"IWATE KEN","city":"KITAKAMI SHI","town":"SAIWAICHO","perfecture_jp":"岩手県","jp_add_1":"北上市","jp_add_2":"幸町"},"0240084":{"post_code":"0240084","prefecture":"IWATE KEN","city":"KITAKAMI SHI","town":"SAKURADORI","perfecture_jp":"岩手県","jp_add_1":"北上市","jp_add_2":"さくら通り"},"0240023":{"post_code":"0240023","prefecture":"IWATE KEN","city":"KITAKAMI SHI","town":"SATOBUN","perfecture_jp":"岩手県","jp_add_1":"北上市","jp_add_2":"里分"},"0240103":{"post_code":"0240103","prefecture":"IWATE KEN","city":"KITAKAMI SHI","town":"SARAKI","perfecture_jp":"岩手県","jp_add_1":"北上市","jp_add_2":"更木"},"0240073":{"post_code":"0240073","prefecture":"IWATE KEN","city":"KITAKAMI SHI","town":"SHIMOEZURIKO","perfecture_jp":"岩手県","jp_add_1":"北上市","jp_add_2":"下江釣子"},"0240058":{"post_code":"0240058","prefecture":"IWATE KEN","city":"KITAKAMI SHI","town":"SHIMONIYANAGI","perfecture_jp":"岩手県","jp_add_1":"北上市","jp_add_2":"下鬼柳"},"0240092":{"post_code":"0240092","prefecture":"IWATE KEN","city":"KITAKAMI SHI","town":"SHINKOKUCHO","perfecture_jp":"岩手県","jp_add_1":"北上市","jp_add_2":"新穀町"},"0240034":{"post_code":"0240034","prefecture":"IWATE KEN","city":"KITAKAMI SHI","town":"SUWACHO","perfecture_jp":"岩手県","jp_add_1":"北上市","jp_add_2":"諏訪町"},"0240043":{"post_code":"0240043","prefecture":"IWATE KEN","city":"KITAKAMI SHI","town":"TACHIBANA","perfecture_jp":"岩手県","jp_add_1":"北上市","jp_add_2":"立花"},"0240011":{"post_code":"0240011","prefecture":"IWATE KEN","city":"KITAKAMI SHI","town":"TSUTSUMIGAOKA","perfecture_jp":"岩手県","jp_add_1":"北上市","jp_add_2":"堤ケ丘"},"0240012":{"post_code":"0240012","prefecture":"IWATE KEN","city":"KITAKAMI SHI","town":"TOKIWADAI","perfecture_jp":"岩手県","jp_add_1":"北上市","jp_add_2":"常盤台"},"0240024":{"post_code":"0240024","prefecture":"IWATE KEN","city":"KITAKAMI SHI","town":"NAKANOCHO","perfecture_jp":"岩手県","jp_add_1":"北上市","jp_add_2":"中野町"},"0240074":{"post_code":"0240074","prefecture":"IWATE KEN","city":"KITAKAMI SHI","town":"NAMESHIDA","perfecture_jp":"岩手県","jp_add_1":"北上市","jp_add_2":"滑田"},"0240003":{"post_code":"0240003","prefecture":"IWATE KEN","city":"KITAKAMI SHI","town":"NARITA","perfecture_jp":"岩手県","jp_add_1":"北上市","jp_add_2":"成田"},"0240075":{"post_code":"0240075","prefecture":"IWATE KEN","city":"KITAKAMI SHI","town":"NITSUPEI","perfecture_jp":"岩手県","jp_add_1":"北上市","jp_add_2":"新平"},"0240076":{"post_code":"0240076","prefecture":"IWATE KEN","city":"KITAKAMI SHI","town":"HATOKAZAKI","perfecture_jp":"岩手県","jp_add_1":"北上市","jp_add_2":"鳩岡崎"},"0240035":{"post_code":"0240035","prefecture":"IWATE KEN","city":"KITAKAMI SHI","town":"HANAZONOCHO","perfecture_jp":"岩手県","jp_add_1":"北上市","jp_add_2":"花園町"},"0240044":{"post_code":"0240044","prefecture":"IWATE KEN","city":"KITAKAMI SHI","town":"HIRASAWA","perfecture_jp":"岩手県","jp_add_1":"北上市","jp_add_2":"平沢"},"0240101":{"post_code":"0240101","prefecture":"IWATE KEN","city":"KITAKAMI SHI","town":"FUSHIUSHI","perfecture_jp":"岩手県","jp_add_1":"北上市","jp_add_2":"臥牛"},"0240013":{"post_code":"0240013","prefecture":"IWATE KEN","city":"KITAKAMI SHI","town":"FUJISAWA","perfecture_jp":"岩手県","jp_add_1":"北上市","jp_add_2":"藤沢"},"0240104":{"post_code":"0240104","prefecture":"IWATE KEN","city":"KITAKAMI SHI","town":"FUTAGOCHO","perfecture_jp":"岩手県","jp_add_1":"北上市","jp_add_2":"二子町"},"0240093":{"post_code":"0240093","prefecture":"IWATE KEN","city":"KITAKAMI SHI","town":"HONGOKUCHO","perfecture_jp":"岩手県","jp_add_1":"北上市","jp_add_2":"本石町"},"0240094":{"post_code":"0240094","prefecture":"IWATE KEN","city":"KITAKAMI SHI","town":"HONDORI","perfecture_jp":"岩手県","jp_add_1":"北上市","jp_add_2":"本通り"},"0240025":{"post_code":"0240025","prefecture":"IWATE KEN","city":"KITAKAMI SHI","town":"MAGOYASHIKI","perfecture_jp":"岩手県","jp_add_1":"北上市","jp_add_2":"孫屋敷"},"0240082":{"post_code":"0240082","prefecture":"IWATE KEN","city":"KITAKAMI SHI","town":"MACHIBUN","perfecture_jp":"岩手県","jp_add_1":"北上市","jp_add_2":"町分"},"0240004":{"post_code":"0240004","prefecture":"IWATE KEN","city":"KITAKAMI SHI","town":"MURASAKINO","perfecture_jp":"岩手県","jp_add_1":"北上市","jp_add_2":"村崎野"},"0240083":{"post_code":"0240083","prefecture":"IWATE KEN","city":"KITAKAMI SHI","town":"YANAGIHARACHO","perfecture_jp":"岩手県","jp_add_1":"北上市","jp_add_2":"柳原町"},"0240045":{"post_code":"0240045","prefecture":"IWATE KEN","city":"KITAKAMI SHI","town":"YUZAWA","perfecture_jp":"岩手県","jp_add_1":"北上市","jp_add_2":"湯沢"},"0240095":{"post_code":"0240095","prefecture":"IWATE KEN","city":"KITAKAMI SHI","town":"YOSHICHO","perfecture_jp":"岩手県","jp_add_1":"北上市","jp_add_2":"芳町"},"0240014":{"post_code":"0240014","prefecture":"IWATE KEN","city":"KITAKAMI SHI","town":"RYUTSUSENTA","perfecture_jp":"岩手県","jp_add_1":"北上市","jp_add_2":"流通センター"},"0240064":{"post_code":"0240064","prefecture":"IWATE KEN","city":"KITAKAMI SHI","town":"WAKAMIYACHO","perfecture_jp":"岩手県","jp_add_1":"北上市","jp_add_2":"若宮町"},"0240321":{"post_code":"0240321","prefecture":"IWATE KEN","city":"KITAKAMI SHI","town":"WAGACHO IWASAKI","perfecture_jp":"岩手県","jp_add_1":"北上市","jp_add_2":"和賀町岩崎"},"0240322":{"post_code":"0240322","prefecture":"IWATE KEN","city":"KITAKAMI SHI","town":"WAGACHO IWASAKISHINDEN","perfecture_jp":"岩手県","jp_add_1":"北上市","jp_add_2":"和賀町岩崎新田"},"0240325":{"post_code":"0240325","prefecture":"IWATE KEN","city":"KITAKAMI SHI","town":"WAGACHO IWASAWA","perfecture_jp":"岩手県","jp_add_1":"北上市","jp_add_2":"和賀町岩沢"},"0240335":{"post_code":"0240335","prefecture":"IWATE KEN","city":"KITAKAMI SHI","town":"WAGACHO GOTO","perfecture_jp":"岩手県","jp_add_1":"北上市","jp_add_2":"和賀町後藤"},"0240323":{"post_code":"0240323","prefecture":"IWATE KEN","city":"KITAKAMI SHI","town":"WAGACHO SUSUMAGO","perfecture_jp":"岩手県","jp_add_1":"北上市","jp_add_2":"和賀町煤孫"},"0240326":{"post_code":"0240326","prefecture":"IWATE KEN","city":"KITAKAMI SHI","town":"WAGACHO SENNIN","perfecture_jp":"岩手県","jp_add_1":"北上市","jp_add_2":"和賀町仙人"},"0240332":{"post_code":"0240332","prefecture":"IWATE KEN","city":"KITAKAMI SHI","town":"WAGACHO TATEKAWAME","perfecture_jp":"岩手県","jp_add_1":"北上市","jp_add_2":"和賀町竪川目"},"0240333":{"post_code":"0240333","prefecture":"IWATE KEN","city":"KITAKAMI SHI","town":"WAGACHO NAGANUMA","perfecture_jp":"岩手県","jp_add_1":"北上市","jp_add_2":"和賀町長沼"},"0240334":{"post_code":"0240334","prefecture":"IWATE KEN","city":"KITAKAMI SHI","town":"WAGACHO FUJINE","perfecture_jp":"岩手県","jp_add_1":"北上市","jp_add_2":"和賀町藤根"},"0240324":{"post_code":"0240324","prefecture":"IWATE KEN","city":"KITAKAMI SHI","town":"WAGACHO YAMAGUCHI","perfecture_jp":"岩手県","jp_add_1":"北上市","jp_add_2":"和賀町山口"},"0240331":{"post_code":"0240331","prefecture":"IWATE KEN","city":"KITAKAMI SHI","town":"WAGACHO YOKOKAWAME","perfecture_jp":"岩手県","jp_add_1":"北上市","jp_add_2":"和賀町横川目"},"0240341":{"post_code":"0240341","prefecture":"IWATE KEN","city":"WAGA GUN NISHIWAGA MACHI","town":"SUGINAHATA44-CHIWARI (YUDADAMUKANRI","perfecture_jp":"岩手県","jp_add_1":"和賀郡西和賀町","jp_add_2":"杉名畑"}}