{"0250000":{"post_code":"0250000","prefecture":"IWATE KEN","city":"HANAMAKI SHI","town":"IKANIKEISAIGANAIBAAI","perfecture_jp":"岩手県","jp_add_1":"花巻市","jp_add_2":""},"0250067":{"post_code":"0250067","prefecture":"IWATE KEN","city":"HANAMAKI SHI","town":"ASAZAWA","perfecture_jp":"岩手県","jp_add_1":"花巻市","jp_add_2":"浅沢"},"0250088":{"post_code":"0250088","prefecture":"IWATE KEN","city":"HANAMAKI SHI","town":"AZUMACHO","perfecture_jp":"岩手県","jp_add_1":"花巻市","jp_add_2":"東町"},"0250071":{"post_code":"0250071","prefecture":"IWATE KEN","city":"HANAMAKI SHI","town":"ATAGOCHO","perfecture_jp":"岩手県","jp_add_1":"花巻市","jp_add_2":"愛宕町"},"0250095":{"post_code":"0250095","prefecture":"IWATE KEN","city":"HANAMAKI SHI","town":"ISHIGAMICHO","perfecture_jp":"岩手県","jp_add_1":"花巻市","jp_add_2":"石神町"},"0250058":{"post_code":"0250058","prefecture":"IWATE KEN","city":"HANAMAKI SHI","town":"IPPONSUGI","perfecture_jp":"岩手県","jp_add_1":"花巻市","jp_add_2":"一本杉"},"0250042":{"post_code":"0250042","prefecture":"IWATE KEN","city":"HANAMAKI SHI","town":"EMMANJI","perfecture_jp":"岩手県","jp_add_1":"花巻市","jp_add_2":"円万寺"},"0250322":{"post_code":"0250322","prefecture":"IWATE KEN","city":"HANAMAKI SHI","town":"OKAMIZAWA","perfecture_jp":"岩手県","jp_add_1":"花巻市","jp_add_2":"狼沢"},"0250037":{"post_code":"0250037","prefecture":"IWATE KEN","city":"HANAMAKI SHI","town":"OTA","perfecture_jp":"岩手県","jp_add_1":"花巻市","jp_add_2":"太田"},"0250092":{"post_code":"0250092","prefecture":"IWATE KEN","city":"HANAMAKI SHI","town":"ODORI","perfecture_jp":"岩手県","jp_add_1":"花巻市","jp_add_2":"大通り"},"0250303":{"post_code":"0250303","prefecture":"IWATE KEN","city":"HANAMAKI SHI","town":"OHATA","perfecture_jp":"岩手県","jp_add_1":"花巻市","jp_add_2":"大畑"},"0250026":{"post_code":"0250026","prefecture":"IWATE KEN","city":"HANAMAKI SHI","town":"OYACHI","perfecture_jp":"岩手県","jp_add_1":"花巻市","jp_add_2":"大谷地"},"0250082":{"post_code":"0250082","prefecture":"IWATE KEN","city":"HANAMAKI SHI","town":"OTAYACHO","perfecture_jp":"岩手県","jp_add_1":"花巻市","jp_add_2":"御田屋町"},"0250311":{"post_code":"0250311","prefecture":"IWATE KEN","city":"HANAMAKI SHI","town":"OROSHIMACHI","perfecture_jp":"岩手県","jp_add_1":"花巻市","jp_add_2":"卸町"},"0250086":{"post_code":"0250086","prefecture":"IWATE KEN","city":"HANAMAKI SHI","town":"KAJIMACHI","perfecture_jp":"岩手県","jp_add_1":"花巻市","jp_add_2":"鍛治町"},"0250075":{"post_code":"0250075","prefecture":"IWATE KEN","city":"HANAMAKI SHI","town":"KAJOMACHI","perfecture_jp":"岩手県","jp_add_1":"花巻市","jp_add_2":"花城町"},"0250321":{"post_code":"0250321","prefecture":"IWATE KEN","city":"HANAMAKI SHI","town":"KANAYA","perfecture_jp":"岩手県","jp_add_1":"花巻市","jp_add_2":"金矢"},"0250056":{"post_code":"0250056","prefecture":"IWATE KEN","city":"HANAMAKI SHI","town":"KAMIKITAMANCHOME","perfecture_jp":"岩手県","jp_add_1":"花巻市","jp_add_2":"上北万丁目"},"0250062":{"post_code":"0250062","prefecture":"IWATE KEN","city":"HANAMAKI SHI","town":"KAMIKOBUNATO","perfecture_jp":"岩手県","jp_add_1":"花巻市","jp_add_2":"上小舟渡"},"0250032":{"post_code":"0250032","prefecture":"IWATE KEN","city":"HANAMAKI SHI","town":"KAMISUWA","perfecture_jp":"岩手県","jp_add_1":"花巻市","jp_add_2":"上諏訪"},"0250087":{"post_code":"0250087","prefecture":"IWATE KEN","city":"HANAMAKI SHI","town":"KAMICHO","perfecture_jp":"岩手県","jp_add_1":"花巻市","jp_add_2":"上町"},"0250007":{"post_code":"0250007","prefecture":"IWATE KEN","city":"HANAMAKI SHI","town":"KAMINITANAI","perfecture_jp":"岩手県","jp_add_1":"花巻市","jp_add_2":"上似内"},"0250043":{"post_code":"0250043","prefecture":"IWATE KEN","city":"HANAMAKI SHI","town":"KAMINEKO","perfecture_jp":"岩手県","jp_add_1":"花巻市","jp_add_2":"上根子"},"0250132":{"post_code":"0250132","prefecture":"IWATE KEN","city":"HANAMAKI SHI","town":"KITASASAMA","perfecture_jp":"岩手県","jp_add_1":"花巻市","jp_add_2":"北笹間"},"0250301":{"post_code":"0250301","prefecture":"IWATE KEN","city":"HANAMAKI SHI","town":"KITAYUGUCHI","perfecture_jp":"岩手県","jp_add_1":"花巻市","jp_add_2":"北湯口"},"0250008":{"post_code":"0250008","prefecture":"IWATE KEN","city":"HANAMAKI SHI","town":"KUKOMINAMI","perfecture_jp":"岩手県","jp_add_1":"花巻市","jp_add_2":"空港南"},"0250004":{"post_code":"0250004","prefecture":"IWATE KEN","city":"HANAMAKI SHI","town":"KUZU","perfecture_jp":"岩手県","jp_add_1":"花巻市","jp_add_2":"葛"},"0250253":{"post_code":"0250253","prefecture":"IWATE KEN","city":"HANAMAKI SHI","town":"KUTASHIZAWA","perfecture_jp":"岩手県","jp_add_1":"花巻市","jp_add_2":"下シ沢"},"0250323":{"post_code":"0250323","prefecture":"IWATE KEN","city":"HANAMAKI SHI","town":"KUNUGINOME","perfecture_jp":"岩手県","jp_add_1":"花巻市","jp_add_2":"椚ノ目"},"0250013":{"post_code":"0250013","prefecture":"IWATE KEN","city":"HANAMAKI SHI","town":"KODA","perfecture_jp":"岩手県","jp_add_1":"花巻市","jp_add_2":"幸田"},"0250012":{"post_code":"0250012","prefecture":"IWATE KEN","city":"HANAMAKI SHI","town":"KOSHIO","perfecture_jp":"岩手県","jp_add_1":"花巻市","jp_add_2":"胡四王"},"0250324":{"post_code":"0250324","prefecture":"IWATE KEN","city":"HANAMAKI SHI","town":"KOSEGAWA","perfecture_jp":"岩手県","jp_add_1":"花巻市","jp_add_2":"小瀬川"},"0250098":{"post_code":"0250098","prefecture":"IWATE KEN","city":"HANAMAKI SHI","town":"ZAIMOKUCHO","perfecture_jp":"岩手県","jp_add_1":"花巻市","jp_add_2":"材木町"},"0250074":{"post_code":"0250074","prefecture":"IWATE KEN","city":"HANAMAKI SHI","town":"SAKAMOTOCHO","perfecture_jp":"岩手県","jp_add_1":"花巻市","jp_add_2":"坂本町"},"0250094":{"post_code":"0250094","prefecture":"IWATE KEN","city":"HANAMAKI SHI","town":"SAKURAGICHO","perfecture_jp":"岩手県","jp_add_1":"花巻市","jp_add_2":"桜木町"},"0250064":{"post_code":"0250064","prefecture":"IWATE KEN","city":"HANAMAKI SHI","town":"SAKURADAI","perfecture_jp":"岩手県","jp_add_1":"花巻市","jp_add_2":"桜台"},"0250084":{"post_code":"0250084","prefecture":"IWATE KEN","city":"HANAMAKI SHI","town":"SAKURAMACHI","perfecture_jp":"岩手県","jp_add_1":"花巻市","jp_add_2":"桜町"},"0250081":{"post_code":"0250081","prefecture":"IWATE KEN","city":"HANAMAKI SHI","town":"SATOKAWAGUCHIMACHI","perfecture_jp":"岩手県","jp_add_1":"花巻市","jp_add_2":"里川口町"},"0250068":{"post_code":"0250068","prefecture":"IWATE KEN","city":"HANAMAKI SHI","town":"SHITAHABA","perfecture_jp":"岩手県","jp_add_1":"花巻市","jp_add_2":"下幅"},"0250035":{"post_code":"0250035","prefecture":"IWATE KEN","city":"HANAMAKI SHI","town":"JITSUSOJI","perfecture_jp":"岩手県","jp_add_1":"花巻市","jp_add_2":"実相寺"},"0250054":{"post_code":"0250054","prefecture":"IWATE KEN","city":"HANAMAKI SHI","town":"SHIMOKITAMANCHOME","perfecture_jp":"岩手県","jp_add_1":"花巻市","jp_add_2":"下北万丁目"},"0250063":{"post_code":"0250063","prefecture":"IWATE KEN","city":"HANAMAKI SHI","town":"SHIMOKOBUNATO","perfecture_jp":"岩手県","jp_add_1":"花巻市","jp_add_2":"下小舟渡"},"0250006":{"post_code":"0250006","prefecture":"IWATE KEN","city":"HANAMAKI SHI","town":"SHIMONITANAI","perfecture_jp":"岩手県","jp_add_1":"花巻市","jp_add_2":"下似内"},"0250025":{"post_code":"0250025","prefecture":"IWATE KEN","city":"HANAMAKI SHI","town":"SHIMONEKO","perfecture_jp":"岩手県","jp_add_1":"花巻市","jp_add_2":"下根子"},"0250022":{"post_code":"0250022","prefecture":"IWATE KEN","city":"HANAMAKI SHI","town":"JUNICHOME","perfecture_jp":"岩手県","jp_add_1":"花巻市","jp_add_2":"十二丁目"},"0250076":{"post_code":"0250076","prefecture":"IWATE KEN","city":"HANAMAKI SHI","town":"JONAI","perfecture_jp":"岩手県","jp_add_1":"花巻市","jp_add_2":"城内"},"0250137":{"post_code":"0250137","prefecture":"IWATE KEN","city":"HANAMAKI SHI","town":"SHIRITAIRAGAWA","perfecture_jp":"岩手県","jp_add_1":"花巻市","jp_add_2":"尻平川"},"0250057":{"post_code":"0250057","prefecture":"IWATE KEN","city":"HANAMAKI SHI","town":"SHINDEN","perfecture_jp":"岩手県","jp_add_1":"花巻市","jp_add_2":"新田"},"0250079":{"post_code":"0250079","prefecture":"IWATE KEN","city":"HANAMAKI SHI","town":"SUEHIROCHO","perfecture_jp":"岩手県","jp_add_1":"花巻市","jp_add_2":"末広町"},"0250033":{"post_code":"0250033","prefecture":"IWATE KEN","city":"HANAMAKI SHI","town":"SUWA","perfecture_jp":"岩手県","jp_add_1":"花巻市","jp_add_2":"諏訪"},"0250039":{"post_code":"0250039","prefecture":"IWATE KEN","city":"HANAMAKI SHI","town":"SUWACHO","perfecture_jp":"岩手県","jp_add_1":"花巻市","jp_add_2":"諏訪町"},"0250305":{"post_code":"0250305","prefecture":"IWATE KEN","city":"HANAMAKI SHI","town":"DAI","perfecture_jp":"岩手県","jp_add_1":"花巻市","jp_add_2":"台"},"0250016":{"post_code":"0250016","prefecture":"IWATE KEN","city":"HANAMAKI SHI","town":"TAKAKI","perfecture_jp":"岩手県","jp_add_1":"花巻市","jp_add_2":"高木"},"0250083":{"post_code":"0250083","prefecture":"IWATE KEN","city":"HANAMAKI SHI","town":"TAKADA","perfecture_jp":"岩手県","jp_add_1":"花巻市","jp_add_2":"高田"},"0250014":{"post_code":"0250014","prefecture":"IWATE KEN","city":"HANAMAKI SHI","town":"TAKAMATSU","perfecture_jp":"岩手県","jp_add_1":"花巻市","jp_add_2":"高松"},"0250005":{"post_code":"0250005","prefecture":"IWATE KEN","city":"HANAMAKI SHI","town":"TACHIKARA","perfecture_jp":"岩手県","jp_add_1":"花巻市","jp_add_2":"田力"},"0250001":{"post_code":"0250001","prefecture":"IWATE KEN","city":"HANAMAKI SHI","town":"TENKADA","perfecture_jp":"岩手県","jp_add_1":"花巻市","jp_add_2":"天下田"},"0250135":{"post_code":"0250135","prefecture":"IWATE KEN","city":"HANAMAKI SHI","town":"TOCHINAI","perfecture_jp":"岩手県","jp_add_1":"花巻市","jp_add_2":"栃内"},"0250131":{"post_code":"0250131","prefecture":"IWATE KEN","city":"HANAMAKI SHI","town":"TODOROKI","perfecture_jp":"岩手県","jp_add_1":"花巻市","jp_add_2":"轟木"},"0250251":{"post_code":"0250251","prefecture":"IWATE KEN","city":"HANAMAKI SHI","town":"TOYOSAWA","perfecture_jp":"岩手県","jp_add_1":"花巻市","jp_add_2":"豊沢"},"0250089":{"post_code":"0250089","prefecture":"IWATE KEN","city":"HANAMAKI SHI","town":"TOYOSAWACHO","perfecture_jp":"岩手県","jp_add_1":"花巻市","jp_add_2":"豊沢町"},"0250053":{"post_code":"0250053","prefecture":"IWATE KEN","city":"HANAMAKI SHI","town":"NAKAKITAMANCHOME","perfecture_jp":"岩手県","jp_add_1":"花巻市","jp_add_2":"中北万丁目"},"0250133":{"post_code":"0250133","prefecture":"IWATE KEN","city":"HANAMAKI SHI","town":"NAKASASAMA","perfecture_jp":"岩手県","jp_add_1":"花巻市","jp_add_2":"中笹間"},"0250036":{"post_code":"0250036","prefecture":"IWATE KEN","city":"HANAMAKI SHI","town":"NAKANEKO","perfecture_jp":"岩手県","jp_add_1":"花巻市","jp_add_2":"中根子"},"0250077":{"post_code":"0250077","prefecture":"IWATE KEN","city":"HANAMAKI SHI","town":"NAKAMACHI","perfecture_jp":"岩手県","jp_add_1":"花巻市","jp_add_2":"仲町"},"0250046":{"post_code":"0250046","prefecture":"IWATE KEN","city":"HANAMAKI SHI","town":"NABEKURA","perfecture_jp":"岩手県","jp_add_1":"花巻市","jp_add_2":"鍋倉"},"0250252":{"post_code":"0250252","prefecture":"IWATE KEN","city":"HANAMAKI SHI","town":"NAMARI","perfecture_jp":"岩手県","jp_add_1":"花巻市","jp_add_2":"鉛"},"0250023":{"post_code":"0250023","prefecture":"IWATE KEN","city":"HANAMAKI SHI","town":"NARITA","perfecture_jp":"岩手県","jp_add_1":"花巻市","jp_add_2":"成田"},"0250021":{"post_code":"0250021","prefecture":"IWATE KEN","city":"HANAMAKI SHI","town":"NANJO","perfecture_jp":"岩手県","jp_add_1":"花巻市","jp_add_2":"南城"},"0250091":{"post_code":"0250091","prefecture":"IWATE KEN","city":"HANAMAKI SHI","town":"NISHIODORI","perfecture_jp":"岩手県","jp_add_1":"花巻市","jp_add_2":"西大通り"},"0250045":{"post_code":"0250045","prefecture":"IWATE KEN","city":"HANAMAKI SHI","town":"NISHIHAREYAMA","perfecture_jp":"岩手県","jp_add_1":"花巻市","jp_add_2":"西晴山"},"0250002":{"post_code":"0250002","prefecture":"IWATE KEN","city":"HANAMAKI SHI","town":"NISHIMIYANOME","perfecture_jp":"岩手県","jp_add_1":"花巻市","jp_add_2":"西宮野目"},"0250312":{"post_code":"0250312","prefecture":"IWATE KEN","city":"HANAMAKI SHI","town":"NIMAIBASHI","perfecture_jp":"岩手県","jp_add_1":"花巻市","jp_add_2":"二枚橋"},"0250314":{"post_code":"0250314","prefecture":"IWATE KEN","city":"HANAMAKI SHI","town":"NIMAIBASHIMACHI ODORI","perfecture_jp":"岩手県","jp_add_1":"花巻市","jp_add_2":"二枚橋町大通り"},"0250315":{"post_code":"0250315","prefecture":"IWATE KEN","city":"HANAMAKI SHI","town":"NIMAIBASHIMACHI MINAMI","perfecture_jp":"岩手県","jp_add_1":"花巻市","jp_add_2":"二枚橋町南"},"0250313":{"post_code":"0250313","prefecture":"IWATE KEN","city":"HANAMAKI SHI","town":"NIMAIBASHIMACHI KITA","perfecture_jp":"岩手県","jp_add_1":"花巻市","jp_add_2":"二枚橋町北"},"0250302":{"post_code":"0250302","prefecture":"IWATE KEN","city":"HANAMAKI SHI","town":"NUKAZUKA","perfecture_jp":"岩手県","jp_add_1":"花巻市","jp_add_2":"糠塚"},"0250052":{"post_code":"0250052","prefecture":"IWATE KEN","city":"HANAMAKI SHI","town":"NODA","perfecture_jp":"岩手県","jp_add_1":"花巻市","jp_add_2":"野田"},"0250015":{"post_code":"0250015","prefecture":"IWATE KEN","city":"HANAMAKI SHI","town":"HIGASHIJUNICHOME","perfecture_jp":"岩手県","jp_add_1":"花巻市","jp_add_2":"東十二丁目"},"0250003":{"post_code":"0250003","prefecture":"IWATE KEN","city":"HANAMAKI SHI","town":"HIGASHIMIYANOME","perfecture_jp":"岩手県","jp_add_1":"花巻市","jp_add_2":"東宮野目"},"0250041":{"post_code":"0250041","prefecture":"IWATE KEN","city":"HANAMAKI SHI","town":"HIZATATE","perfecture_jp":"岩手県","jp_add_1":"花巻市","jp_add_2":"膝立"},"0250073":{"post_code":"0250073","prefecture":"IWATE KEN","city":"HANAMAKI SHI","town":"HITOICHI","perfecture_jp":"岩手県","jp_add_1":"花巻市","jp_add_2":"一日市"},"0250096":{"post_code":"0250096","prefecture":"IWATE KEN","city":"HANAMAKI SHI","town":"FUJISAWACHO","perfecture_jp":"岩手県","jp_add_1":"花巻市","jp_add_2":"藤沢町"},"0250085":{"post_code":"0250085","prefecture":"IWATE KEN","city":"HANAMAKI SHI","town":"FUTABACHO","perfecture_jp":"岩手県","jp_add_1":"花巻市","jp_add_2":"双葉町"},"0250078":{"post_code":"0250078","prefecture":"IWATE KEN","city":"HANAMAKI SHI","town":"FUTSUPARICHO","perfecture_jp":"岩手県","jp_add_1":"花巻市","jp_add_2":"吹張町"},"0250031":{"post_code":"0250031","prefecture":"IWATE KEN","city":"HANAMAKI SHI","town":"FUDO","perfecture_jp":"岩手県","jp_add_1":"花巻市","jp_add_2":"不動"},"0250038":{"post_code":"0250038","prefecture":"IWATE KEN","city":"HANAMAKI SHI","town":"FUDOCHO","perfecture_jp":"岩手県","jp_add_1":"花巻市","jp_add_2":"不動町"},"0250065":{"post_code":"0250065","prefecture":"IWATE KEN","city":"HANAMAKI SHI","town":"HOSHIGAOKA","perfecture_jp":"岩手県","jp_add_1":"花巻市","jp_add_2":"星が丘"},"0250066":{"post_code":"0250066","prefecture":"IWATE KEN","city":"HANAMAKI SHI","town":"MATSUZONOCHO","perfecture_jp":"岩手県","jp_add_1":"花巻市","jp_add_2":"松園町"},"0250093":{"post_code":"0250093","prefecture":"IWATE KEN","city":"HANAMAKI SHI","town":"MINAMIKAWARACHO","perfecture_jp":"岩手県","jp_add_1":"花巻市","jp_add_2":"南川原町"},"0250134":{"post_code":"0250134","prefecture":"IWATE KEN","city":"HANAMAKI SHI","town":"MINAMISASAMA","perfecture_jp":"岩手県","jp_add_1":"花巻市","jp_add_2":"南笹間"},"0250051":{"post_code":"0250051","prefecture":"IWATE KEN","city":"HANAMAKI SHI","town":"MINAMISHINDEN","perfecture_jp":"岩手県","jp_add_1":"花巻市","jp_add_2":"南新田"},"0250034":{"post_code":"0250034","prefecture":"IWATE KEN","city":"HANAMAKI SHI","town":"MINAMISUWACHO","perfecture_jp":"岩手県","jp_add_1":"花巻市","jp_add_2":"南諏訪町"},"0250055":{"post_code":"0250055","prefecture":"IWATE KEN","city":"HANAMAKI SHI","town":"MINAMIMANCHOME","perfecture_jp":"岩手県","jp_add_1":"花巻市","jp_add_2":"南万丁目"},"0250061":{"post_code":"0250061","prefecture":"IWATE KEN","city":"HANAMAKI SHI","town":"MOTODATE","perfecture_jp":"岩手県","jp_add_1":"花巻市","jp_add_2":"本館"},"0250011":{"post_code":"0250011","prefecture":"IWATE KEN","city":"HANAMAKI SHI","town":"YASAWA","perfecture_jp":"岩手県","jp_add_1":"花巻市","jp_add_2":"矢沢"},"0250024":{"post_code":"0250024","prefecture":"IWATE KEN","city":"HANAMAKI SHI","town":"YAMANOKAMI","perfecture_jp":"岩手県","jp_add_1":"花巻市","jp_add_2":"山の神"},"0250044":{"post_code":"0250044","prefecture":"IWATE KEN","city":"HANAMAKI SHI","town":"YUGUCHI(ISHIKAWARA.TAYA.FUTATSUZEKI","perfecture_jp":"岩手県","jp_add_1":"花巻市","jp_add_2":"湯口"},"0250244":{"post_code":"0250244","prefecture":"IWATE KEN","city":"HANAMAKI SHI","town":"YUGUCHI(SONOTA)","perfecture_jp":"岩手県","jp_add_1":"花巻市","jp_add_2":"湯口"},"0250304":{"post_code":"0250304","prefecture":"IWATE KEN","city":"HANAMAKI SHI","town":"YUMOTO","perfecture_jp":"岩手県","jp_add_1":"花巻市","jp_add_2":"湯本"},"0250136":{"post_code":"0250136","prefecture":"IWATE KEN","city":"HANAMAKI SHI","town":"YOKOSHIDA","perfecture_jp":"岩手県","jp_add_1":"花巻市","jp_add_2":"横志田"},"0250072":{"post_code":"0250072","prefecture":"IWATE KEN","city":"HANAMAKI SHI","town":"YOKKAMACHI","perfecture_jp":"岩手県","jp_add_1":"花巻市","jp_add_2":"四日町"},"0250097":{"post_code":"0250097","prefecture":"IWATE KEN","city":"HANAMAKI SHI","town":"WAKABACHO","perfecture_jp":"岩手県","jp_add_1":"花巻市","jp_add_2":"若葉町"}}