{"0290202":{"post_code":"0290202","prefecture":"IWATE KEN","city":"ICHINOSEKI SHI","town":"KAWASAKICHO USUGINU","perfecture_jp":"岩手県","jp_add_1":"一関市","jp_add_2":"川崎町薄衣"},"0290201":{"post_code":"0290201","prefecture":"IWATE KEN","city":"ICHINOSEKI SHI","town":"KAWASAKICHO KANZAKI","perfecture_jp":"岩手県","jp_add_1":"一関市","jp_add_2":"川崎町門崎"},"0290131":{"post_code":"0290131","prefecture":"IWATE KEN","city":"ICHINOSEKI SHI","town":"KOZENJI","perfecture_jp":"岩手県","jp_add_1":"一関市","jp_add_2":"狐禅寺"},"0290804":{"post_code":"0290804","prefecture":"IWATE KEN","city":"ICHINOSEKI SHI","town":"SEMMAYACHO IWASHIMIZU","perfecture_jp":"岩手県","jp_add_1":"一関市","jp_add_2":"千厩町磐清水"},"0291111":{"post_code":"0291111","prefecture":"IWATE KEN","city":"ICHINOSEKI SHI","town":"SEMMAYACHO OKUTAMA","perfecture_jp":"岩手県","jp_add_1":"一関市","jp_add_2":"千厩町奥玉"},"0290801":{"post_code":"0290801","prefecture":"IWATE KEN","city":"ICHINOSEKI SHI","town":"SEMMAYACHO KIYOTA","perfecture_jp":"岩手県","jp_add_1":"一関市","jp_add_2":"千厩町清田"},"0290802":{"post_code":"0290802","prefecture":"IWATE KEN","city":"ICHINOSEKI SHI","town":"SEMMAYACHO KONASHI","perfecture_jp":"岩手県","jp_add_1":"一関市","jp_add_2":"千厩町小梨"},"0290803":{"post_code":"0290803","prefecture":"IWATE KEN","city":"ICHINOSEKI SHI","town":"SEMMAYACHO SEMMAYA","perfecture_jp":"岩手県","jp_add_1":"一関市","jp_add_2":"千厩町千厩"},"0290711":{"post_code":"0290711","prefecture":"IWATE KEN","city":"ICHINOSEKI SHI","town":"DAITOCHO OHARA","perfecture_jp":"岩手県","jp_add_1":"一関市","jp_add_2":"大東町大原"},"0290603":{"post_code":"0290603","prefecture":"IWATE KEN","city":"ICHINOSEKI SHI","town":"DAITOCHO OKITA","perfecture_jp":"岩手県","jp_add_1":"一関市","jp_add_2":"大東町沖田"},"0290431":{"post_code":"0290431","prefecture":"IWATE KEN","city":"ICHINOSEKI SHI","town":"DAITOCHO SARUSAWA","perfecture_jp":"岩手県","jp_add_1":"一関市","jp_add_2":"大東町猿沢"},"0290521":{"post_code":"0290521","prefecture":"IWATE KEN","city":"ICHINOSEKI SHI","town":"DAITOCHO SHIBUTAMI","perfecture_jp":"岩手県","jp_add_1":"一関市","jp_add_2":"大東町渋民"},"0290523":{"post_code":"0290523","prefecture":"IWATE KEN","city":"ICHINOSEKI SHI","town":"DAITOCHO SURISAWA","perfecture_jp":"岩手県","jp_add_1":"一関市","jp_add_2":"大東町摺沢"},"0290522":{"post_code":"0290522","prefecture":"IWATE KEN","city":"ICHINOSEKI SHI","town":"DAITOCHO SOGEI","perfecture_jp":"岩手県","jp_add_1":"一関市","jp_add_2":"大東町曽慶"},"0290602":{"post_code":"0290602","prefecture":"IWATE KEN","city":"ICHINOSEKI SHI","town":"DAITOCHO TORIUMI","perfecture_jp":"岩手県","jp_add_1":"一関市","jp_add_2":"大東町鳥海"},"0290601":{"post_code":"0290601","prefecture":"IWATE KEN","city":"ICHINOSEKI SHI","town":"DAITOCHO NAKAGAWA","perfecture_jp":"岩手県","jp_add_1":"一関市","jp_add_2":"大東町中川"},"0290132":{"post_code":"0290132","prefecture":"IWATE KEN","city":"ICHINOSEKI SHI","town":"TAKIZAWA","perfecture_jp":"岩手県","jp_add_1":"一関市","jp_add_2":"滝沢"},"0293103":{"post_code":"0293103","prefecture":"IWATE KEN","city":"ICHINOSEKI SHI","town":"HANAIZUMICHO OIMATSU","perfecture_jp":"岩手県","jp_add_1":"一関市","jp_add_2":"花泉町老松"},"0293102":{"post_code":"0293102","prefecture":"IWATE KEN","city":"ICHINOSEKI SHI","town":"HANAIZUMICHO KAZAWA","perfecture_jp":"岩手県","jp_add_1":"一関市","jp_add_2":"花泉町金沢"},"0293206":{"post_code":"0293206","prefecture":"IWATE KEN","city":"ICHINOSEKI SHI","town":"HANAIZUMICHO NAGAI","perfecture_jp":"岩手県","jp_add_1":"一関市","jp_add_2":"花泉町永井"},"0293101":{"post_code":"0293101","prefecture":"IWATE KEN","city":"ICHINOSEKI SHI","town":"HANAIZUMICHO HANAIZUMI","perfecture_jp":"岩手県","jp_add_1":"一関市","jp_add_2":"花泉町花泉"},"0293104":{"post_code":"0293104","prefecture":"IWATE KEN","city":"ICHINOSEKI SHI","town":"HANAIZUMICHO HIKATA","perfecture_jp":"岩手県","jp_add_1":"一関市","jp_add_2":"花泉町日形"},"0293207":{"post_code":"0293207","prefecture":"IWATE KEN","city":"ICHINOSEKI SHI","town":"HANAIZUMICHO YUSHIMA","perfecture_jp":"岩手県","jp_add_1":"一関市","jp_add_2":"花泉町油島"},"0293105":{"post_code":"0293105","prefecture":"IWATE KEN","city":"ICHINOSEKI SHI","town":"HANAIZUMICHO WAKUTSU(ICHINOMACHI.NI","perfecture_jp":"岩手県","jp_add_1":"一関市","jp_add_2":"花泉町涌津"},"0293205":{"post_code":"0293205","prefecture":"IWATE KEN","city":"ICHINOSEKI SHI","town":"HANAIZUMICHO WAKUTSU(SONOTA)","perfecture_jp":"岩手県","jp_add_1":"一関市","jp_add_2":"花泉町涌津"},"0290301":{"post_code":"0290301","prefecture":"IWATE KEN","city":"ICHINOSEKI SHI","town":"HIGASHIYAMACHO TAKOZU","perfecture_jp":"岩手県","jp_add_1":"一関市","jp_add_2":"東山町田河津"},"0290302":{"post_code":"0290302","prefecture":"IWATE KEN","city":"ICHINOSEKI SHI","town":"HIGASHIYAMACHO NAGASAKA","perfecture_jp":"岩手県","jp_add_1":"一関市","jp_add_2":"東山町長坂"},"0290303":{"post_code":"0290303","prefecture":"IWATE KEN","city":"ICHINOSEKI SHI","town":"HIGASHIYAMACHO MATSUKAWA","perfecture_jp":"岩手県","jp_add_1":"一関市","jp_add_2":"東山町松川"},"0293522":{"post_code":"0293522","prefecture":"IWATE KEN","city":"ICHINOSEKI SHI","town":"FUJISAWACHO OKAGO","perfecture_jp":"岩手県","jp_add_1":"一関市","jp_add_2":"藤沢町大籠"},"0293311":{"post_code":"0293311","prefecture":"IWATE KEN","city":"ICHINOSEKI SHI","town":"FUJISAWACHO KINOMI","perfecture_jp":"岩手県","jp_add_1":"一関市","jp_add_2":"藤沢町黄海"},"0293403":{"post_code":"0293403","prefecture":"IWATE KEN","city":"ICHINOSEKI SHI","town":"FUJISAWACHO SUNAGOTA","perfecture_jp":"岩手県","jp_add_1":"一関市","jp_add_2":"藤沢町砂子田"},"0293404":{"post_code":"0293404","prefecture":"IWATE KEN","city":"ICHINOSEKI SHI","town":"FUJISAWACHO TOKUDA","perfecture_jp":"岩手県","jp_add_1":"一関市","jp_add_2":"藤沢町徳田"},"0293402":{"post_code":"0293402","prefecture":"IWATE KEN","city":"ICHINOSEKI SHI","town":"FUJISAWACHO NIINUMA","perfecture_jp":"岩手県","jp_add_1":"一関市","jp_add_2":"藤沢町新沼"},"0293406":{"post_code":"0293406","prefecture":"IWATE KEN","city":"ICHINOSEKI SHI","town":"FUJISAWACHO NISHIGUCHI","perfecture_jp":"岩手県","jp_add_1":"一関市","jp_add_2":"藤沢町西口"},"0293405":{"post_code":"0293405","prefecture":"IWATE KEN","city":"ICHINOSEKI SHI","town":"FUJISAWACHO FUJISAWA","perfecture_jp":"岩手県","jp_add_1":"一関市","jp_add_2":"藤沢町藤沢"},"0293521":{"post_code":"0293521","prefecture":"IWATE KEN","city":"ICHINOSEKI SHI","town":"FUJISAWACHO HOROWA","perfecture_jp":"岩手県","jp_add_1":"一関市","jp_add_2":"藤沢町保呂羽"},"0293401":{"post_code":"0293401","prefecture":"IWATE KEN","city":"ICHINOSEKI SHI","town":"FUJISAWACHO MASUZAWA","perfecture_jp":"岩手県","jp_add_1":"一関市","jp_add_2":"藤沢町増沢"},"0291201":{"post_code":"0291201","prefecture":"IWATE KEN","city":"ICHINOSEKI SHI","town":"MURONECHO ORIKABE","perfecture_jp":"岩手県","jp_add_1":"一関市","jp_add_2":"室根町折壁"},"0291211":{"post_code":"0291211","prefecture":"IWATE KEN","city":"ICHINOSEKI SHI","town":"MURONECHO TSUYAGAWA","perfecture_jp":"岩手県","jp_add_1":"一関市","jp_add_2":"室根町津谷川"},"0291202":{"post_code":"0291202","prefecture":"IWATE KEN","city":"ICHINOSEKI SHI","town":"MURONECHO YAGOSHI","perfecture_jp":"岩手県","jp_add_1":"一関市","jp_add_2":"室根町矢越"},"0290211":{"post_code":"0290211","prefecture":"IWATE KEN","city":"ICHINOSEKI SHI","town":"YASAKAE","perfecture_jp":"岩手県","jp_add_1":"一関市","jp_add_2":"弥栄"},"0292200":{"post_code":"0292200","prefecture":"IWATE KEN","city":"RIKUZENTAKATA SHI","town":"IKANIKEISAIGANAIBAAI","perfecture_jp":"岩手県","jp_add_1":"陸前高田市","jp_add_2":""},"0292207":{"post_code":"0292207","prefecture":"IWATE KEN","city":"RIKUZENTAKATA SHI","town":"OTOMOCHO","perfecture_jp":"岩手県","jp_add_1":"陸前高田市","jp_add_2":"小友町"},"0292204":{"post_code":"0292204","prefecture":"IWATE KEN","city":"RIKUZENTAKATA SHI","town":"KESENCHO","perfecture_jp":"岩手県","jp_add_1":"陸前高田市","jp_add_2":"気仙町"},"0292205":{"post_code":"0292205","prefecture":"IWATE KEN","city":"RIKUZENTAKATA SHI","town":"TAKATACHO","perfecture_jp":"岩手県","jp_add_1":"陸前高田市","jp_add_2":"高田町"},"0292203":{"post_code":"0292203","prefecture":"IWATE KEN","city":"RIKUZENTAKATA SHI","town":"TAKEKOMACHO","perfecture_jp":"岩手県","jp_add_1":"陸前高田市","jp_add_2":"竹駒町"},"0292208":{"post_code":"0292208","prefecture":"IWATE KEN","city":"RIKUZENTAKATA SHI","town":"HIROTACHO","perfecture_jp":"岩手県","jp_add_1":"陸前高田市","jp_add_2":"広田町"},"0292201":{"post_code":"0292201","prefecture":"IWATE KEN","city":"RIKUZENTAKATA SHI","town":"YAHAGICHO","perfecture_jp":"岩手県","jp_add_1":"陸前高田市","jp_add_2":"矢作町"},"0292202":{"post_code":"0292202","prefecture":"IWATE KEN","city":"RIKUZENTAKATA SHI","town":"YOKOTACHO","perfecture_jp":"岩手県","jp_add_1":"陸前高田市","jp_add_2":"横田町"},"0292206":{"post_code":"0292206","prefecture":"IWATE KEN","city":"RIKUZENTAKATA SHI","town":"YONESAKICHO","perfecture_jp":"岩手県","jp_add_1":"陸前高田市","jp_add_2":"米崎町"},"0294426":{"post_code":"0294426","prefecture":"IWATE KEN","city":"OSHU SHI","town":"KOROMOGAWAKU ATAGOSHITA","perfecture_jp":"岩手県","jp_add_1":"奥州市","jp_add_2":"衣川区愛宕下"},"0294315":{"post_code":"0294315","prefecture":"IWATE KEN","city":"OSHU SHI","town":"KOROMOGAWAKU AMADA","perfecture_jp":"岩手県","jp_add_1":"奥州市","jp_add_2":"衣川区天田"},"0294365":{"post_code":"0294365","prefecture":"IWATE KEN","city":"OSHU SHI","town":"KOROMOGAWAKU AMATSUCHI","perfecture_jp":"岩手県","jp_add_1":"奥州市","jp_add_2":"衣川区天土"},"0294307":{"post_code":"0294307","prefecture":"IWATE KEN","city":"OSHU SHI","town":"KOROMOGAWAKU ARIURA","perfecture_jp":"岩手県","jp_add_1":"奥州市","jp_add_2":"衣川区有浦"},"0294434":{"post_code":"0294434","prefecture":"IWATE KEN","city":"OSHU SHI","town":"KOROMOGAWAKU IKEDA","perfecture_jp":"岩手県","jp_add_1":"奥州市","jp_add_2":"衣川区池田"},"0294433":{"post_code":"0294433","prefecture":"IWATE KEN","city":"OSHU SHI","town":"KOROMOGAWAKU IKEDANISHI","perfecture_jp":"岩手県","jp_add_1":"奥州市","jp_add_2":"衣川区池田西"},"0294381":{"post_code":"0294381","prefecture":"IWATE KEN","city":"OSHU SHI","town":"KOROMOGAWAKU ISHIGASAWA","perfecture_jp":"岩手県","jp_add_1":"奥州市","jp_add_2":"衣川区石ケ沢"},"0294384":{"post_code":"0294384","prefecture":"IWATE KEN","city":"OSHU SHI","town":"KOROMOGAWAKU ISHIGAMI","perfecture_jp":"岩手県","jp_add_1":"奥州市","jp_add_2":"衣川区石神"},"0294313":{"post_code":"0294313","prefecture":"IWATE KEN","city":"OSHU SHI","town":"KOROMOGAWAKU ISHU","perfecture_jp":"岩手県","jp_add_1":"奥州市","jp_add_2":"衣川区石生"},"0294322":{"post_code":"0294322","prefecture":"IWATE KEN","city":"OSHU SHI","town":"KOROMOGAWAKU ITAKURA","perfecture_jp":"岩手県","jp_add_1":"奥州市","jp_add_2":"衣川区板倉"},"0294352":{"post_code":"0294352","prefecture":"IWATE KEN","city":"OSHU SHI","town":"KOROMOGAWAKU IWANOE","perfecture_jp":"岩手県","jp_add_1":"奥州市","jp_add_2":"衣川区岩の上"},"0294465":{"post_code":"0294465","prefecture":"IWATE KEN","city":"OSHU SHI","town":"KOROMOGAWAKU USHIROTAKINOSAWA","perfecture_jp":"岩手県","jp_add_1":"奥州市","jp_add_2":"衣川区後滝の沢"},"0294377":{"post_code":"0294377","prefecture":"IWATE KEN","city":"OSHU SHI","town":"KOROMOGAWAKU USHIROYAMA","perfecture_jp":"岩手県","jp_add_1":"奥州市","jp_add_2":"衣川区後山"},"0294482":{"post_code":"0294482","prefecture":"IWATE KEN","city":"OSHU SHI","town":"KOROMOGAWAKU UNEHATA","perfecture_jp":"岩手県","jp_add_1":"奥州市","jp_add_2":"衣川区畦畑"},"0294481":{"post_code":"0294481","prefecture":"IWATE KEN","city":"OSHU SHI","town":"KOROMOGAWAKU UNEHATAYAMA","perfecture_jp":"岩手県","jp_add_1":"奥州市","jp_add_2":"衣川区畦畑山"},"0294425":{"post_code":"0294425","prefecture":"IWATE KEN","city":"OSHU SHI","town":"KOROMOGAWAKU UNEMEZAWA","perfecture_jp":"岩手県","jp_add_1":"奥州市","jp_add_2":"衣川区采女沢"},"0294442":{"post_code":"0294442","prefecture":"IWATE KEN","city":"OSHU SHI","town":"KOROMOGAWAKU UWANO","perfecture_jp":"岩手県","jp_add_1":"奥州市","jp_add_2":"衣川区上野"},"0294321":{"post_code":"0294321","prefecture":"IWATE KEN","city":"OSHU SHI","town":"KOROMOGAWAKU UNNANDA","perfecture_jp":"岩手県","jp_add_1":"奥州市","jp_add_2":"衣川区雲南田"},"0294436":{"post_code":"0294436","prefecture":"IWATE KEN","city":"OSHU SHI","town":"KOROMOGAWAKU OISHIGASAWA","perfecture_jp":"岩手県","jp_add_1":"奥州市","jp_add_2":"衣川区大石ケ沢"},"0294406":{"post_code":"0294406","prefecture":"IWATE KEN","city":"OSHU SHI","town":"KOROMOGAWAKU OZAKA","perfecture_jp":"岩手県","jp_add_1":"奥州市","jp_add_2":"衣川区大坂"},"0294308":{"post_code":"0294308","prefecture":"IWATE KEN","city":"OSHU SHI","town":"KOROMOGAWAKU ODAIRA","perfecture_jp":"岩手県","jp_add_1":"奥州市","jp_add_2":"衣川区大平"},"0294419":{"post_code":"0294419","prefecture":"IWATE KEN","city":"OSHU SHI","town":"KOROMOGAWAKU OTSURA","perfecture_jp":"岩手県","jp_add_1":"奥州市","jp_add_2":"衣川区大面"},"0294347":{"post_code":"0294347","prefecture":"IWATE KEN","city":"OSHU SHI","town":"KOROMOGAWAKU ONISHI","perfecture_jp":"岩手県","jp_add_1":"奥州市","jp_add_2":"衣川区大西"},"0294488":{"post_code":"0294488","prefecture":"IWATE KEN","city":"OSHU SHI","town":"KOROMOGAWAKU OHARA","perfecture_jp":"岩手県","jp_add_1":"奥州市","jp_add_2":"衣川区大原"},"0294487":{"post_code":"0294487","prefecture":"IWATE KEN","city":"OSHU SHI","town":"KOROMOGAWAKU OHARAYAMA","perfecture_jp":"岩手県","jp_add_1":"奥州市","jp_add_2":"衣川区大原山"},"0294383":{"post_code":"0294383","prefecture":"IWATE KEN","city":"OSHU SHI","town":"KOROMOGAWAKU OKINONO","perfecture_jp":"岩手県","jp_add_1":"奥州市","jp_add_2":"衣川区沖の野"},"0294435":{"post_code":"0294435","prefecture":"IWATE KEN","city":"OSHU SHI","town":"KOROMOGAWAKU OSHIKIRI","perfecture_jp":"岩手県","jp_add_1":"奥州市","jp_add_2":"衣川区押切"},"0294454":{"post_code":"0294454","prefecture":"IWATE KEN","city":"OSHU SHI","town":"KOROMOGAWAKU OMOTE","perfecture_jp":"岩手県","jp_add_1":"奥州市","jp_add_2":"衣川区表"},"0294386":{"post_code":"0294386","prefecture":"IWATE KEN","city":"OSHU SHI","town":"KOROMOGAWAKU ONNAISHI","perfecture_jp":"岩手県","jp_add_1":"奥州市","jp_add_2":"衣川区女石"},"0294326":{"post_code":"0294326","prefecture":"IWATE KEN","city":"OSHU SHI","town":"KOROMOGAWAKU KAKEDA","perfecture_jp":"岩手県","jp_add_1":"奥州市","jp_add_2":"衣川区懸田"},"0294452":{"post_code":"0294452","prefecture":"IWATE KEN","city":"OSHU SHI","town":"KOROMOGAWAKU GASSAN","perfecture_jp":"岩手県","jp_add_1":"奥州市","jp_add_2":"衣川区月山"},"0294388":{"post_code":"0294388","prefecture":"IWATE KEN","city":"OSHU SHI","town":"KOROMOGAWAKU KAMIOMORI","perfecture_jp":"岩手県","jp_add_1":"奥州市","jp_add_2":"衣川区上大森"},"0294474":{"post_code":"0294474","prefecture":"IWATE KEN","city":"OSHU SHI","town":"KOROMOGAWAKU KAMIKAWAUCHI","perfecture_jp":"岩手県","jp_add_1":"奥州市","jp_add_2":"衣川区上河内"},"0294411":{"post_code":"0294411","prefecture":"IWATE KEN","city":"OSHU SHI","town":"KOROMOGAWAKU KAMIKOJI","perfecture_jp":"岩手県","jp_add_1":"奥州市","jp_add_2":"衣川区上小路"},"0294491":{"post_code":"0294491","prefecture":"IWATE KEN","city":"OSHU SHI","town":"KOROMOGAWAKU KAMITACHISAWA","perfecture_jp":"岩手県","jp_add_1":"奥州市","jp_add_2":"衣川区上立沢"},"0294329":{"post_code":"0294329","prefecture":"IWATE KEN","city":"OSHU SHI","town":"KOROMOGAWAKU KAMITERADA","perfecture_jp":"岩手県","jp_add_1":"奥州市","jp_add_2":"衣川区上寺田"},"0294437":{"post_code":"0294437","prefecture":"IWATE KEN","city":"OSHU SHI","town":"KOROMOGAWAKU KARAKANE","perfecture_jp":"岩手県","jp_add_1":"奥州市","jp_add_2":"衣川区唐金"},"0294446":{"post_code":"0294446","prefecture":"IWATE KEN","city":"OSHU SHI","town":"KOROMOGAWAKU KAWAHATA","perfecture_jp":"岩手県","jp_add_1":"奥州市","jp_add_2":"衣川区川端"},"0294407":{"post_code":"0294407","prefecture":"IWATE KEN","city":"OSHU SHI","town":"KOROMOGAWAKU KANNARI","perfecture_jp":"岩手県","jp_add_1":"奥州市","jp_add_2":"衣川区金成"},"0294303":{"post_code":"0294303","prefecture":"IWATE KEN","city":"OSHU SHI","town":"KOROMOGAWAKU KINUHARA","perfecture_jp":"岩手県","jp_add_1":"奥州市","jp_add_2":"衣川区衣原"},"0294353":{"post_code":"0294353","prefecture":"IWATE KEN","city":"OSHU SHI","town":"KOROMOGAWAKU KYUDEN","perfecture_jp":"岩手県","jp_add_1":"奥州市","jp_add_2":"衣川区旧殿"},"0294375":{"post_code":"0294375","prefecture":"IWATE KEN","city":"OSHU SHI","town":"KOROMOGAWAKU KURAKAKE","perfecture_jp":"岩手県","jp_add_1":"奥州市","jp_add_2":"衣川区鞍掛"},"0294424":{"post_code":"0294424","prefecture":"IWATE KEN","city":"OSHU SHI","town":"KOROMOGAWAKU KURINDO","perfecture_jp":"岩手県","jp_add_1":"奥州市","jp_add_2":"衣川区九輪堂"},"0294405":{"post_code":"0294405","prefecture":"IWATE KEN","city":"OSHU SHI","town":"KOROMOGAWAKU KUWANOKIYACHI","perfecture_jp":"岩手県","jp_add_1":"奥州市","jp_add_2":"衣川区桑木谷地"},"0294317":{"post_code":"0294317","prefecture":"IWATE KEN","city":"OSHU SHI","town":"KOROMOGAWAKU KUWAHATA","perfecture_jp":"岩手県","jp_add_1":"奥州市","jp_add_2":"衣川区桑畑"},"0294323":{"post_code":"0294323","prefecture":"IWATE KEN","city":"OSHU SHI","town":"KOROMOGAWAKU KOANSHIRO","perfecture_jp":"岩手県","jp_add_1":"奥州市","jp_add_2":"衣川区小安代"},"0294306":{"post_code":"0294306","prefecture":"IWATE KEN","city":"OSHU SHI","town":"KOROMOGAWAKU KODA","perfecture_jp":"岩手県","jp_add_1":"奥州市","jp_add_2":"衣川区小田"},"0294432":{"post_code":"0294432","prefecture":"IWATE KEN","city":"OSHU SHI","town":"KOROMOGAWAKU KOBAYASHI","perfecture_jp":"岩手県","jp_add_1":"奥州市","jp_add_2":"衣川区小林"},"0294362":{"post_code":"0294362","prefecture":"IWATE KEN","city":"OSHU SHI","town":"KOROMOGAWAKU KOBAYASHIYAMA","perfecture_jp":"岩手県","jp_add_1":"奥州市","jp_add_2":"衣川区小林山"},"0294325":{"post_code":"0294325","prefecture":"IWATE KEN","city":"OSHU SHI","town":"KOROMOGAWAKU KOMASAITA","perfecture_jp":"岩手県","jp_add_1":"奥州市","jp_add_2":"衣川区小正板"},"0294333":{"post_code":"0294333","prefecture":"IWATE KEN","city":"OSHU SHI","town":"KOROMOGAWAKU KOMABA","perfecture_jp":"岩手県","jp_add_1":"奥州市","jp_add_2":"衣川区駒場"},"0294344":{"post_code":"0294344","prefecture":"IWATE KEN","city":"OSHU SHI","town":"KOROMOGAWAKU SAWADA","perfecture_jp":"岩手県","jp_add_1":"奥州市","jp_add_2":"衣川区沢田"},"0294444":{"post_code":"0294444","prefecture":"IWATE KEN","city":"OSHU SHI","town":"KOROMOGAWAKU SHIMIZUNOE","perfecture_jp":"岩手県","jp_add_1":"奥州市","jp_add_2":"衣川区清水の上"},"0294387":{"post_code":"0294387","prefecture":"IWATE KEN","city":"OSHU SHI","town":"KOROMOGAWAKU SHIMOOMORI","perfecture_jp":"岩手県","jp_add_1":"奥州市","jp_add_2":"衣川区下大森"},"0294471":{"post_code":"0294471","prefecture":"IWATE KEN","city":"OSHU SHI","town":"KOROMOGAWAKU SHIMOKAWAUCHI","perfecture_jp":"岩手県","jp_add_1":"奥州市","jp_add_2":"衣川区下河内"},"0294492":{"post_code":"0294492","prefecture":"IWATE KEN","city":"OSHU SHI","town":"KOROMOGAWAKU SHIMOTACHISAWA","perfecture_jp":"岩手県","jp_add_1":"奥州市","jp_add_2":"衣川区下立沢"},"0294328":{"post_code":"0294328","prefecture":"IWATE KEN","city":"OSHU SHI","town":"KOROMOGAWAKU SHIMOTERADA","perfecture_jp":"岩手県","jp_add_1":"奥州市","jp_add_2":"衣川区下寺田"},"0294378":{"post_code":"0294378","prefecture":"IWATE KEN","city":"OSHU SHI","town":"KOROMOGAWAKU SHOBUDAIRA","perfecture_jp":"岩手県","jp_add_1":"奥州市","jp_add_2":"衣川区菖蒲平"},"0294427":{"post_code":"0294427","prefecture":"IWATE KEN","city":"OSHU SHI","town":"KOROMOGAWAKU JIMBASHITA","perfecture_jp":"岩手県","jp_add_1":"奥州市","jp_add_2":"衣川区陣場下"},"0294348":{"post_code":"0294348","prefecture":"IWATE KEN","city":"OSHU SHI","town":"KOROMOGAWAKU SUGINO","perfecture_jp":"岩手県","jp_add_1":"奥州市","jp_add_2":"衣川区杉野"},"0294418":{"post_code":"0294418","prefecture":"IWATE KEN","city":"OSHU SHI","town":"KOROMOGAWAKU SUGIBAYASHI","perfecture_jp":"岩手県","jp_add_1":"奥州市","jp_add_2":"衣川区杉林"},"0294413":{"post_code":"0294413","prefecture":"IWATE KEN","city":"OSHU SHI","town":"KOROMOGAWAKU SEKISHITA","perfecture_jp":"岩手県","jp_add_1":"奥州市","jp_add_2":"衣川区堰下"},"0294382":{"post_code":"0294382","prefecture":"IWATE KEN","city":"OSHU SHI","town":"KOROMOGAWAKU SEKIBUKURO","perfecture_jp":"岩手県","jp_add_1":"奥州市","jp_add_2":"衣川区関袋"},"0294422":{"post_code":"0294422","prefecture":"IWATE KEN","city":"OSHU SHI","town":"KOROMOGAWAKU SEWARA","perfecture_jp":"岩手県","jp_add_1":"奥州市","jp_add_2":"衣川区瀬原"},"0294423":{"post_code":"0294423","prefecture":"IWATE KEN","city":"OSHU SHI","town":"KOROMOGAWAKU SEWARANISHIURA","perfecture_jp":"岩手県","jp_add_1":"奥州市","jp_add_2":"衣川区瀬原西浦"},"0294484":{"post_code":"0294484","prefecture":"IWATE KEN","city":"OSHU SHI","town":"KOROMOGAWAKU SOMI","perfecture_jp":"岩手県","jp_add_1":"奥州市","jp_add_2":"衣川区噌味"},"0294304":{"post_code":"0294304","prefecture":"IWATE KEN","city":"OSHU SHI","town":"KOROMOGAWAKU SOTONOSAWA","perfecture_jp":"岩手県","jp_add_1":"奥州市","jp_add_2":"衣川区外の沢"},"0294486":{"post_code":"0294486","prefecture":"IWATE KEN","city":"OSHU SHI","town":"KOROMOGAWAKU TAKANOSU","perfecture_jp":"岩手県","jp_add_1":"奥州市","jp_add_2":"衣川区鷹の巣"},"0294342":{"post_code":"0294342","prefecture":"IWATE KEN","city":"OSHU SHI","town":"KOROMOGAWAKU TAKAHORO","perfecture_jp":"岩手県","jp_add_1":"奥州市","jp_add_2":"衣川区高保呂"},"0294345":{"post_code":"0294345","prefecture":"IWATE KEN","city":"OSHU SHI","town":"KOROMOGAWAKU TATESHIRO","perfecture_jp":"岩手県","jp_add_1":"奥州市","jp_add_2":"衣川区館城"},"0294431":{"post_code":"0294431","prefecture":"IWATE KEN","city":"OSHU SHI","town":"KOROMOGAWAKU TANAKA","perfecture_jp":"岩手県","jp_add_1":"奥州市","jp_add_2":"衣川区田中"},"0294439":{"post_code":"0294439","prefecture":"IWATE KEN","city":"OSHU SHI","town":"KOROMOGAWAKU TANAKANISHI","perfecture_jp":"岩手県","jp_add_1":"奥州市","jp_add_2":"衣川区田中西"},"0294408":{"post_code":"0294408","prefecture":"IWATE KEN","city":"OSHU SHI","town":"KOROMOGAWAKU TSUCHIYA","perfecture_jp":"岩手県","jp_add_1":"奥州市","jp_add_2":"衣川区土屋"},"0294404":{"post_code":"0294404","prefecture":"IWATE KEN","city":"OSHU SHI","town":"KOROMOGAWAKU TERABUKURO","perfecture_jp":"岩手県","jp_add_1":"奥州市","jp_add_2":"衣川区寺袋"},"0294385":{"post_code":"0294385","prefecture":"IWATE KEN","city":"OSHU SHI","town":"KOROMOGAWAKU TOMISAWA","perfecture_jp":"岩手県","jp_add_1":"奥州市","jp_add_2":"衣川区富沢"},"0294412":{"post_code":"0294412","prefecture":"IWATE KEN","city":"OSHU SHI","town":"KOROMOGAWAKU TOMITA","perfecture_jp":"岩手県","jp_add_1":"奥州市","jp_add_2":"衣川区富田"},"0294417":{"post_code":"0294417","prefecture":"IWATE KEN","city":"OSHU SHI","town":"KOROMOGAWAKU TOMITAMAE","perfecture_jp":"岩手県","jp_add_1":"奥州市","jp_add_2":"衣川区富田前"},"0294346":{"post_code":"0294346","prefecture":"IWATE KEN","city":"OSHU SHI","town":"KOROMOGAWAKU TOYOMAKI","perfecture_jp":"岩手県","jp_add_1":"奥州市","jp_add_2":"衣川区豊巻"},"0294389":{"post_code":"0294389","prefecture":"IWATE KEN","city":"OSHU SHI","town":"KOROMOGAWAKU NAGAITASAWA","perfecture_jp":"岩手県","jp_add_1":"奥州市","jp_add_2":"衣川区長板沢"},"0294472":{"post_code":"0294472","prefecture":"IWATE KEN","city":"OSHU SHI","town":"KOROMOGAWAKU NAKAKAWAUCHI","perfecture_jp":"岩手県","jp_add_1":"奥州市","jp_add_2":"衣川区中河内"},"0294305":{"post_code":"0294305","prefecture":"IWATE KEN","city":"OSHU SHI","town":"KOROMOGAWAKU NAGAFUKURO","perfecture_jp":"岩手県","jp_add_1":"奥州市","jp_add_2":"衣川区長袋"},"0294361":{"post_code":"0294361","prefecture":"IWATE KEN","city":"OSHU SHI","town":"KOROMOGAWAKU NAGAFUKURO","perfecture_jp":"岩手県","jp_add_1":"奥州市","jp_add_2":"衣川区長嚢"},"0294314":{"post_code":"0294314","prefecture":"IWATE KEN","city":"OSHU SHI","town":"KOROMOGAWAKU NAKAYASHIKI","perfecture_jp":"岩手県","jp_add_1":"奥州市","jp_add_2":"衣川区中屋敷"},"0294475":{"post_code":"0294475","prefecture":"IWATE KEN","city":"OSHU SHI","town":"KOROMOGAWAKU NAKAYAMA","perfecture_jp":"岩手県","jp_add_1":"奥州市","jp_add_2":"衣川区中山"},"0294351":{"post_code":"0294351","prefecture":"IWATE KEN","city":"OSHU SHI","town":"KOROMOGAWAKU NATSUAKI","perfecture_jp":"岩手県","jp_add_1":"奥州市","jp_add_2":"衣川区夏秋"},"0294363":{"post_code":"0294363","prefecture":"IWATE KEN","city":"OSHU SHI","town":"KOROMOGAWAKU NATSUNASHI","perfecture_jp":"岩手県","jp_add_1":"奥州市","jp_add_2":"衣川区夏梨"},"0294445":{"post_code":"0294445","prefecture":"IWATE KEN","city":"OSHU SHI","town":"KOROMOGAWAKU NANOKAICHIBA","perfecture_jp":"岩手県","jp_add_1":"奥州市","jp_add_2":"衣川区七日市場"},"0294441":{"post_code":"0294441","prefecture":"IWATE KEN","city":"OSHU SHI","town":"KOROMOGAWAKU NAMIKIMAE","perfecture_jp":"岩手県","jp_add_1":"奥州市","jp_add_2":"衣川区並木前"},"0294495":{"post_code":"0294495","prefecture":"IWATE KEN","city":"OSHU SHI","town":"KOROMOGAWAKU NARAHARA","perfecture_jp":"岩手県","jp_add_1":"奥州市","jp_add_2":"衣川区楢原"},"0294494":{"post_code":"0294494","prefecture":"IWATE KEN","city":"OSHU SHI","town":"KOROMOGAWAKU NARAHARAYAMA","perfecture_jp":"岩手県","jp_add_1":"奥州市","jp_add_2":"衣川区楢原山"},"0294364":{"post_code":"0294364","prefecture":"IWATE KEN","city":"OSHU SHI","town":"KOROMOGAWAKU NAREYAMA","perfecture_jp":"岩手県","jp_add_1":"奥州市","jp_add_2":"衣川区西風山"},"0294316":{"post_code":"0294316","prefecture":"IWATE KEN","city":"OSHU SHI","town":"KOROMOGAWAKU NAWASHIROSAWA","perfecture_jp":"岩手県","jp_add_1":"奥州市","jp_add_2":"衣川区苗代沢"},"0294456":{"post_code":"0294456","prefecture":"IWATE KEN","city":"OSHU SHI","town":"KOROMOGAWAKU NISHIURA","perfecture_jp":"岩手県","jp_add_1":"奥州市","jp_add_2":"衣川区西裏"},"0294312":{"post_code":"0294312","prefecture":"IWATE KEN","city":"OSHU SHI","town":"KOROMOGAWAKU NISHIKUBO","perfecture_jp":"岩手県","jp_add_1":"奥州市","jp_add_2":"衣川区西窪"},"0294483":{"post_code":"0294483","prefecture":"IWATE KEN","city":"OSHU SHI","town":"KOROMOGAWAKU NUMANO","perfecture_jp":"岩手県","jp_add_1":"奥州市","jp_add_2":"衣川区沼野"},"0294493":{"post_code":"0294493","prefecture":"IWATE KEN","city":"OSHU SHI","town":"KOROMOGAWAKU NOZAKI","perfecture_jp":"岩手県","jp_add_1":"奥州市","jp_add_2":"衣川区野崎"},"0294354":{"post_code":"0294354","prefecture":"IWATE KEN","city":"OSHU SHI","town":"KOROMOGAWAKU NOZOKI","perfecture_jp":"岩手県","jp_add_1":"奥州市","jp_add_2":"衣川区除"},"0294414":{"post_code":"0294414","prefecture":"IWATE KEN","city":"OSHU SHI","town":"KOROMOGAWAKU NODA","perfecture_jp":"岩手県","jp_add_1":"奥州市","jp_add_2":"衣川区野田"},"0294343":{"post_code":"0294343","prefecture":"IWATE KEN","city":"OSHU SHI","town":"KOROMOGAWAKU NOTOYASHIKI","perfecture_jp":"岩手県","jp_add_1":"奥州市","jp_add_2":"衣川区能登屋敷"},"0294462":{"post_code":"0294462","prefecture":"IWATE KEN","city":"OSHU SHI","town":"KOROMOGAWAKU HASSEN","perfecture_jp":"岩手県","jp_add_1":"奥州市","jp_add_2":"衣川区八千"},"0294401":{"post_code":"0294401","prefecture":"IWATE KEN","city":"OSHU SHI","town":"KOROMOGAWAKU HARIYAMA","perfecture_jp":"岩手県","jp_add_1":"奥州市","jp_add_2":"衣川区張山"},"0294451":{"post_code":"0294451","prefecture":"IWATE KEN","city":"OSHU SHI","town":"KOROMOGAWAKU HIGASHIURA","perfecture_jp":"岩手県","jp_add_1":"奥州市","jp_add_2":"衣川区東裏"},"0294421":{"post_code":"0294421","prefecture":"IWATE KEN","city":"OSHU SHI","town":"KOROMOGAWAKU HINATA","perfecture_jp":"岩手県","jp_add_1":"奥州市","jp_add_2":"衣川区日向"},"0294371":{"post_code":"0294371","prefecture":"IWATE KEN","city":"OSHU SHI","town":"KOROMOGAWAKU HIYAMASAWA","perfecture_jp":"岩手県","jp_add_1":"奥州市","jp_add_2":"衣川区桧山沢"},"0294374":{"post_code":"0294374","prefecture":"IWATE KEN","city":"OSHU SHI","town":"KOROMOGAWAKU HIYAMASAWAYAMA","perfecture_jp":"岩手県","jp_add_1":"奥州市","jp_add_2":"衣川区桧山沢山"},"0294461":{"post_code":"0294461","prefecture":"IWATE KEN","city":"OSHU SHI","town":"KOROMOGAWAKU HIRA","perfecture_jp":"岩手県","jp_add_1":"奥州市","jp_add_2":"衣川区平"},"0294331":{"post_code":"0294331","prefecture":"IWATE KEN","city":"OSHU SHI","town":"KOROMOGAWAKU FUKASAWA","perfecture_jp":"岩手県","jp_add_1":"奥州市","jp_add_2":"衣川区深沢"},"0294311":{"post_code":"0294311","prefecture":"IWATE KEN","city":"OSHU SHI","town":"KOROMOGAWAKU FURUDATE","perfecture_jp":"岩手県","jp_add_1":"奥州市","jp_add_2":"衣川区古館"},"0294332":{"post_code":"0294332","prefecture":"IWATE KEN","city":"OSHU SHI","town":"KOROMOGAWAKU FURUDO","perfecture_jp":"岩手県","jp_add_1":"奥州市","jp_add_2":"衣川区古戸"},"0294485":{"post_code":"0294485","prefecture":"IWATE KEN","city":"OSHU SHI","town":"KOROMOGAWAKU HOTOYACHI","perfecture_jp":"岩手県","jp_add_1":"奥州市","jp_add_2":"衣川区宝塔谷地"},"0294402":{"post_code":"0294402","prefecture":"IWATE KEN","city":"OSHU SHI","town":"KOROMOGAWAKU HOSHIYA","perfecture_jp":"岩手県","jp_add_1":"奥州市","jp_add_2":"衣川区星屋"},"0294403":{"post_code":"0294403","prefecture":"IWATE KEN","city":"OSHU SHI","town":"KOROMOGAWAKU HONDAWARA","perfecture_jp":"岩手県","jp_add_1":"奥州市","jp_add_2":"衣川区本田原"},"0294496":{"post_code":"0294496","prefecture":"IWATE KEN","city":"OSHU SHI","town":"KOROMOGAWAKU MAUCHI","perfecture_jp":"岩手県","jp_add_1":"奥州市","jp_add_2":"衣川区真打"},"0294464":{"post_code":"0294464","prefecture":"IWATE KEN","city":"OSHU SHI","town":"KOROMOGAWAKU MAETAKINOSAWA","perfecture_jp":"岩手県","jp_add_1":"奥州市","jp_add_2":"衣川区前滝の沢"},"0294327":{"post_code":"0294327","prefecture":"IWATE KEN","city":"OSHU SHI","town":"KOROMOGAWAKU MAGAKE","perfecture_jp":"岩手県","jp_add_1":"奥州市","jp_add_2":"衣川区馬懸"},"0294324":{"post_code":"0294324","prefecture":"IWATE KEN","city":"OSHU SHI","town":"KOROMOGAWAKU MASAITA","perfecture_jp":"岩手県","jp_add_1":"奥州市","jp_add_2":"衣川区正板"},"0294372":{"post_code":"0294372","prefecture":"IWATE KEN","city":"OSHU SHI","town":"KOROMOGAWAKU MATSUBAYASHI","perfecture_jp":"岩手県","jp_add_1":"奥州市","jp_add_2":"衣川区松林"},"0294443":{"post_code":"0294443","prefecture":"IWATE KEN","city":"OSHU SHI","town":"KOROMOGAWAKU MUIKAICHIBA","perfecture_jp":"岩手県","jp_add_1":"奥州市","jp_add_2":"衣川区六日市場"},"0294473":{"post_code":"0294473","prefecture":"IWATE KEN","city":"OSHU SHI","town":"KOROMOGAWAKU MUKAI","perfecture_jp":"岩手県","jp_add_1":"奥州市","jp_add_2":"衣川区向"},"0294416":{"post_code":"0294416","prefecture":"IWATE KEN","city":"OSHU SHI","town":"KOROMOGAWAKU MUKAIDATE","perfecture_jp":"岩手県","jp_add_1":"奥州市","jp_add_2":"衣川区向館"},"0294415":{"post_code":"0294415","prefecture":"IWATE KEN","city":"OSHU SHI","town":"KOROMOGAWAKU MUKAIDATEYAGI","perfecture_jp":"岩手県","jp_add_1":"奥州市","jp_add_2":"衣川区向館谷起"},"0294438":{"post_code":"0294438","prefecture":"IWATE KEN","city":"OSHU SHI","town":"KOROMOGAWAKU MURONOKI","perfecture_jp":"岩手県","jp_add_1":"奥州市","jp_add_2":"衣川区室の木"},"0294334":{"post_code":"0294334","prefecture":"IWATE KEN","city":"OSHU SHI","town":"KOROMOGAWAKU MOGAFUKURO","perfecture_jp":"岩手県","jp_add_1":"奥州市","jp_add_2":"衣川区百ケ袋"},"0294497":{"post_code":"0294497","prefecture":"IWATE KEN","city":"OSHU SHI","town":"KOROMOGAWAKU MOCHIKOROBASHI","perfecture_jp":"岩手県","jp_add_1":"奥州市","jp_add_2":"衣川区餅転"},"0294376":{"post_code":"0294376","prefecture":"IWATE KEN","city":"OSHU SHI","town":"KOROMOGAWAKU MOTOMAKI","perfecture_jp":"岩手県","jp_add_1":"奥州市","jp_add_2":"衣川区本巻"},"0294355":{"post_code":"0294355","prefecture":"IWATE KEN","city":"OSHU SHI","town":"KOROMOGAWAKU YAMAGISHI","perfecture_jp":"岩手県","jp_add_1":"奥州市","jp_add_2":"衣川区山岸"},"0294453":{"post_code":"0294453","prefecture":"IWATE KEN","city":"OSHU SHI","town":"KOROMOGAWAKU YAMAGUCHI","perfecture_jp":"岩手県","jp_add_1":"奥州市","jp_add_2":"衣川区山口"},"0294373":{"post_code":"0294373","prefecture":"IWATE KEN","city":"OSHU SHI","town":"KOROMOGAWAKU YAMADA","perfecture_jp":"岩手県","jp_add_1":"奥州市","jp_add_2":"衣川区山田"},"0294455":{"post_code":"0294455","prefecture":"IWATE KEN","city":"OSHU SHI","town":"KOROMOGAWAKU YOKOMICHISHITA","perfecture_jp":"岩手県","jp_add_1":"奥州市","jp_add_2":"衣川区横道下"},"0294463":{"post_code":"0294463","prefecture":"IWATE KEN","city":"OSHU SHI","town":"KOROMOGAWAKU YOSHIGASAWA","perfecture_jp":"岩手県","jp_add_1":"奥州市","jp_add_2":"衣川区葭ケ沢"},"0294341":{"post_code":"0294341","prefecture":"IWATE KEN","city":"OSHU SHI","town":"KOROMOGAWAKU ROKUDO","perfecture_jp":"岩手県","jp_add_1":"奥州市","jp_add_2":"衣川区六道"},"0294205":{"post_code":"0294205","prefecture":"IWATE KEN","city":"OSHU SHI","town":"MAESAWAKU ROPPOMMATSU","perfecture_jp":"岩手県","jp_add_1":"奥州市","jp_add_2":"前沢区合ノ沢"},"0294206":{"post_code":"0294206","prefecture":"IWATE KEN","city":"OSHU SHI","town":"MAESAWAKU YOGAMORI","perfecture_jp":"岩手県","jp_add_1":"奥州市","jp_add_2":"前沢区赤坂"},"0294207":{"post_code":"0294207","prefecture":"IWATE KEN","city":"OSHU SHI","town":"MAESAWAKU YASHIKI","perfecture_jp":"岩手県","jp_add_1":"奥州市","jp_add_2":"前沢区赤面"},"0294209":{"post_code":"0294209","prefecture":"IWATE KEN","city":"OSHU SHI","town":"MAESAWAKU ASUKADORI","perfecture_jp":"岩手県","jp_add_1":"奥州市","jp_add_2":"前沢区あすか通"},"0294201":{"post_code":"0294201","prefecture":"IWATE KEN","city":"OSHU SHI","town":"MAESAWAKU KOJO","perfecture_jp":"岩手県","jp_add_1":"奥州市","jp_add_2":"前沢区阿部舘"},"0294208":{"post_code":"0294208","prefecture":"IWATE KEN","city":"OSHU SHI","town":"MAESAWAKU YAMASHITA","perfecture_jp":"岩手県","jp_add_1":"奥州市","jp_add_2":"前沢区粟ケ島"},"0294211":{"post_code":"0294211","prefecture":"IWATE KEN","city":"OSHU SHI","town":"MAESAWAKU EKIHIGASHI","perfecture_jp":"岩手県","jp_add_1":"奥州市","jp_add_2":"前沢区駅東"},"0294203":{"post_code":"0294203","prefecture":"IWATE KEN","city":"OSHU SHI","town":"MAESAWAKU SEIBO","perfecture_jp":"岩手県","jp_add_1":"奥州市","jp_add_2":"前沢区北久保"},"0294204":{"post_code":"0294204","prefecture":"IWATE KEN","city":"OSHU SHI","town":"MAESAWAKU YAWATAMAE","perfecture_jp":"岩手県","jp_add_1":"奥州市","jp_add_2":"前沢区下谷起"},"0294202":{"post_code":"0294202","prefecture":"IWATE KEN","city":"OSHU SHI","town":"MAESAWAKU SHIRAYAMA","perfecture_jp":"岩手県","jp_add_1":"奥州市","jp_add_2":"前沢区白山"},"0295500":{"post_code":"0295500","prefecture":"IWATE KEN","city":"WAGA GUN NISHIWAGA MACHI","town":"IKANIKEISAIGANAIBAAI","perfecture_jp":"岩手県","jp_add_1":"和賀郡西和賀町","jp_add_2":""},"0295503":{"post_code":"0295503","prefecture":"IWATE KEN","city":"WAGA GUN NISHIWAGA MACHI","town":"YUDA19-CHIWARI-YUDA21-CHIWARI","perfecture_jp":"岩手県","jp_add_1":"和賀郡西和賀町","jp_add_2":"穴明"},"0295511":{"post_code":"0295511","prefecture":"IWATE KEN","city":"WAGA GUN NISHIWAGA MACHI","town":"UENONO39-CHIWARI","perfecture_jp":"岩手県","jp_add_1":"和賀郡西和賀町","jp_add_2":"上野々"},"0295523":{"post_code":"0295523","prefecture":"IWATE KEN","city":"WAGA GUN NISHIWAGA MACHI","town":"YOSHIGASAWA72-CHIWARI","perfecture_jp":"岩手県","jp_add_1":"和賀郡西和賀町","jp_add_2":"越中畑"},"0295507":{"post_code":"0295507","prefecture":"IWATE KEN","city":"WAGA GUN NISHIWAGA MACHI","town":"OKUTSU36-CHIWARI","perfecture_jp":"岩手県","jp_add_1":"和賀郡西和賀町","jp_add_2":"大沓"},"0295521":{"post_code":"0295521","prefecture":"IWATE KEN","city":"WAGA GUN NISHIWAGA MACHI","town":"KOTSUNAGIZAWA54-CHIWARI-KOTSUNAGIZA","perfecture_jp":"岩手県","jp_add_1":"和賀郡西和賀町","jp_add_2":"大渡"},"0295513":{"post_code":"0295513","prefecture":"IWATE KEN","city":"WAGA GUN NISHIWAGA MACHI","town":"WASHINOSU50-CHIWARI","perfecture_jp":"岩手県","jp_add_1":"和賀郡西和賀町","jp_add_2":"甲子"},"0295502":{"post_code":"0295502","prefecture":"IWATE KEN","city":"WAGA GUN NISHIWAGA MACHI","town":"TORASAWA15-CHIWARI","perfecture_jp":"岩手県","jp_add_1":"和賀郡西和賀町","jp_add_2":"樺沢"},"0295512":{"post_code":"0295512","prefecture":"IWATE KEN","city":"WAGA GUN NISHIWAGA MACHI","town":"KAWASHIRI40-CHIWARI.KAWASHIRI41-CHI","perfecture_jp":"岩手県","jp_add_1":"和賀郡西和賀町","jp_add_2":"川尻"},"0295501":{"post_code":"0295501","prefecture":"IWATE KEN","city":"WAGA GUN NISHIWAGA MACHI","town":"SHIMOSASO77-CHIWARI-SHIMOSASO80-CHI","perfecture_jp":"岩手県","jp_add_1":"和賀郡西和賀町","jp_add_2":"左草"},"0295616":{"post_code":"0295616","prefecture":"IWATE KEN","city":"WAGA GUN NISHIWAGA MACHI","town":"SAWAUCHI IZUMIZAWA","perfecture_jp":"岩手県","jp_add_1":"和賀郡西和賀町","jp_add_2":"沢内泉沢"},"0295614":{"post_code":"0295614","prefecture":"IWATE KEN","city":"WAGA GUN NISHIWAGA MACHI","town":"SAWAUCHI OTA","perfecture_jp":"岩手県","jp_add_1":"和賀郡西和賀町","jp_add_2":"沢内太田"},"0295612":{"post_code":"0295612","prefecture":"IWATE KEN","city":"WAGA GUN NISHIWAGA MACHI","town":"SAWAUCHI ONO","perfecture_jp":"岩手県","jp_add_1":"和賀郡西和賀町","jp_add_2":"沢内大野"},"0295703":{"post_code":"0295703","prefecture":"IWATE KEN","city":"WAGA GUN NISHIWAGA MACHI","town":"SAWAUCHI KAIZAWA","perfecture_jp":"岩手県","jp_add_1":"和賀郡西和賀町","jp_add_2":"沢内貝沢"},"0295701":{"post_code":"0295701","prefecture":"IWATE KEN","city":"WAGA GUN NISHIWAGA MACHI","town":"SAWAUCHI KAWAFUNE","perfecture_jp":"岩手県","jp_add_1":"和賀郡西和賀町","jp_add_2":"沢内川舟"},"0295621":{"post_code":"0295621","prefecture":"IWATE KEN","city":"WAGA GUN NISHIWAGA MACHI","town":"SAWAUCHI KEMPAN","perfecture_jp":"岩手県","jp_add_1":"和賀郡西和賀町","jp_add_2":"沢内鍵飯"},"0295615":{"post_code":"0295615","prefecture":"IWATE KEN","city":"WAGA GUN NISHIWAGA MACHI","town":"SAWAUCHI SARUHASHI","perfecture_jp":"岩手県","jp_add_1":"和賀郡西和賀町","jp_add_2":"沢内猿橋"},"0295611":{"post_code":"0295611","prefecture":"IWATE KEN","city":"WAGA GUN NISHIWAGA MACHI","town":"SAWAUCHI SHIMMACHI","perfecture_jp":"岩手県","jp_add_1":"和賀郡西和賀町","jp_add_2":"沢内新町"},"0295617":{"post_code":"0295617","prefecture":"IWATE KEN","city":"WAGA GUN NISHIWAGA MACHI","town":"SAWAUCHI NAGASENO","perfecture_jp":"岩手県","jp_add_1":"和賀郡西和賀町","jp_add_2":"沢内長瀬野"},"0295619":{"post_code":"0295619","prefecture":"IWATE KEN","city":"WAGA GUN NISHIWAGA MACHI","town":"SAWAUCHI BENTEN","perfecture_jp":"岩手県","jp_add_1":"和賀郡西和賀町","jp_add_2":"沢内弁天"},"0295613":{"post_code":"0295613","prefecture":"IWATE KEN","city":"WAGA GUN NISHIWAGA MACHI","town":"SAWAUCHI MAEGO","perfecture_jp":"岩手県","jp_add_1":"和賀郡西和賀町","jp_add_2":"沢内前郷"},"0295618":{"post_code":"0295618","prefecture":"IWATE KEN","city":"WAGA GUN NISHIWAGA MACHI","town":"SAWAUCHI RYOZAWA","perfecture_jp":"岩手県","jp_add_1":"和賀郡西和賀町","jp_add_2":"沢内両沢"},"0295702":{"post_code":"0295702","prefecture":"IWATE KEN","city":"WAGA GUN NISHIWAGA MACHI","town":"SAWAUCHI WAKAHATA","perfecture_jp":"岩手県","jp_add_1":"和賀郡西和賀町","jp_add_2":"沢内若畑"},"0295522":{"post_code":"0295522","prefecture":"IWATE KEN","city":"WAGA GUN NISHIWAGA MACHI","town":"NONOSHUKU60-CHIWARI-NONOSHUKU62-CHI","perfecture_jp":"岩手県","jp_add_1":"和賀郡西和賀町","jp_add_2":"巣郷"},"0295504":{"post_code":"0295504","prefecture":"IWATE KEN","city":"WAGA GUN NISHIWAGA MACHI","town":"TSUKIZAWA25-CHIWARI-TSUKIZAWA28-CHI","perfecture_jp":"岩手県","jp_add_1":"和賀郡西和賀町","jp_add_2":"槻沢"},"0295514":{"post_code":"0295514","prefecture":"IWATE KEN","city":"WAGA GUN NISHIWAGA MACHI","town":"YUGAWA52-CHIWARI.YUGAWA53-CHIWARI","perfecture_jp":"岩手県","jp_add_1":"和賀郡西和賀町","jp_add_2":"湯川"},"0295506":{"post_code":"0295506","prefecture":"IWATE KEN","city":"WAGA GUN NISHIWAGA MACHI","town":"YUNOSAWA31-CHIWARI-YUNOSAWA35-CHIWA","perfecture_jp":"岩手県","jp_add_1":"和賀郡西和賀町","jp_add_2":"湯之沢"},"0295505":{"post_code":"0295505","prefecture":"IWATE KEN","city":"WAGA GUN NISHIWAGA MACHI","town":"YUMOTO29-CHIWARI.YUMOTO30-CHIWARI","perfecture_jp":"岩手県","jp_add_1":"和賀郡西和賀町","jp_add_2":"湯本"},"0294500":{"post_code":"0294500","prefecture":"IWATE KEN","city":"ISAWA GUN KANEGASAKI CHO","town":"IKANIKEISAIGANAIBAAI","perfecture_jp":"岩手県","jp_add_1":"胆沢郡金ケ崎町","jp_add_2":""},"0294505":{"post_code":"0294505","prefecture":"IWATE KEN","city":"ISAWA GUN KANEGASAKI CHO","town":"NAGASAKAE","perfecture_jp":"岩手県","jp_add_1":"胆沢郡金ケ崎町","jp_add_2":"永栄"},"0294504":{"post_code":"0294504","prefecture":"IWATE KEN","city":"ISAWA GUN KANEGASAKI CHO","town":"NAGASAWA","perfecture_jp":"岩手県","jp_add_1":"胆沢郡金ケ崎町","jp_add_2":"永沢"},"0294503":{"post_code":"0294503","prefecture":"IWATE KEN","city":"ISAWA GUN KANEGASAKI CHO","town":"NISHINE","perfecture_jp":"岩手県","jp_add_1":"胆沢郡金ケ崎町","jp_add_2":"西根"},"0294502":{"post_code":"0294502","prefecture":"IWATE KEN","city":"ISAWA GUN KANEGASAKI CHO","town":"MIKAJIRI","perfecture_jp":"岩手県","jp_add_1":"胆沢郡金ケ崎町","jp_add_2":"三ケ尻"},"0294501":{"post_code":"0294501","prefecture":"IWATE KEN","city":"ISAWA GUN KANEGASAKI CHO","town":"ROKUHARA","perfecture_jp":"岩手県","jp_add_1":"胆沢郡金ケ崎町","jp_add_2":"六原"},"0294100":{"post_code":"0294100","prefecture":"IWATE KEN","city":"NISHIIWAI GUN HIRAIZUMI CHO","town":"IKANIKEISAIGANAIBAAI","perfecture_jp":"岩手県","jp_add_1":"西磐井郡平泉町","jp_add_2":""},"0294101":{"post_code":"0294101","prefecture":"IWATE KEN","city":"NISHIIWAI GUN HIRAIZUMI CHO","town":"NAGASHIMA","perfecture_jp":"岩手県","jp_add_1":"西磐井郡平泉町","jp_add_2":"長島"},"0294102":{"post_code":"0294102","prefecture":"IWATE KEN","city":"NISHIIWAI GUN HIRAIZUMI CHO","town":"HIRAIZUMI","perfecture_jp":"岩手県","jp_add_1":"西磐井郡平泉町","jp_add_2":"平泉"},"0292300":{"post_code":"0292300","prefecture":"IWATE KEN","city":"KESEN GUN SUMITA CHO","town":"IKANIKEISAIGANAIBAAI","perfecture_jp":"岩手県","jp_add_1":"気仙郡住田町","jp_add_2":""},"0292501":{"post_code":"0292501","prefecture":"IWATE KEN","city":"KESEN GUN SUMITA CHO","town":"KAMIARISU","perfecture_jp":"岩手県","jp_add_1":"気仙郡住田町","jp_add_2":"上有住"},"0292502":{"post_code":"0292502","prefecture":"IWATE KEN","city":"KESEN GUN SUMITA CHO","town":"SHIMOARISU","perfecture_jp":"岩手県","jp_add_1":"気仙郡住田町","jp_add_2":"下有住"},"0292311":{"post_code":"0292311","prefecture":"IWATE KEN","city":"KESEN GUN SUMITA CHO","town":"SETAMAI","perfecture_jp":"岩手県","jp_add_1":"気仙郡住田町","jp_add_2":"世田米"}}