{"0380000":{"post_code":"0380000","prefecture":"AOMORI KEN","city":"AOMORI SHI","town":"IKANIKEISAIGANAIBAAI","perfecture_jp":"青森県","jp_add_1":"青森市","jp_add_2":""},"0380056":{"post_code":"0380056","prefecture":"AOMORI KEN","city":"AOMORI SHI","town":"ASUKA","perfecture_jp":"青森県","jp_add_1":"青森市","jp_add_2":"飛鳥"},"0380059":{"post_code":"0380059","prefecture":"AOMORI KEN","city":"AOMORI SHI","town":"ABURAKAWA","perfecture_jp":"青森県","jp_add_1":"青森市","jp_add_2":"油川"},"0380003":{"post_code":"0380003","prefecture":"AOMORI KEN","city":"AOMORI SHI","town":"ISHIE","perfecture_jp":"青森県","jp_add_1":"青森市","jp_add_2":"石江"},"0380043":{"post_code":"0380043","prefecture":"AOMORI KEN","city":"AOMORI SHI","town":"IWATARI","perfecture_jp":"青森県","jp_add_1":"青森市","jp_add_2":"岩渡"},"0380051":{"post_code":"0380051","prefecture":"AOMORI KEN","city":"AOMORI SHI","town":"UCHIMAMPE","perfecture_jp":"青森県","jp_add_1":"青森市","jp_add_2":"内真部"},"0380041":{"post_code":"0380041","prefecture":"AOMORI KEN","city":"AOMORI SHI","town":"OKAMACHI","perfecture_jp":"青森県","jp_add_1":"青森市","jp_add_2":"岡町"},"0380002":{"post_code":"0380002","prefecture":"AOMORI KEN","city":"AOMORI SHI","town":"OKIDATE","perfecture_jp":"青森県","jp_add_1":"青森市","jp_add_2":"沖館"},"0380054":{"post_code":"0380054","prefecture":"AOMORI KEN","city":"AOMORI SHI","town":"OKUNAI","perfecture_jp":"青森県","jp_add_1":"青森市","jp_add_2":"奥内"},"0380013":{"post_code":"0380013","prefecture":"AOMORI KEN","city":"AOMORI SHI","town":"KUSUSHI","perfecture_jp":"青森県","jp_add_1":"青森市","jp_add_2":"久須志"},"0380032":{"post_code":"0380032","prefecture":"AOMORI KEN","city":"AOMORI SHI","town":"SATOMI","perfecture_jp":"青森県","jp_add_1":"青森市","jp_add_2":"里見"},"0380031":{"post_code":"0380031","prefecture":"AOMORI KEN","city":"AOMORI SHI","town":"SANNAI","perfecture_jp":"青森県","jp_add_1":"青森市","jp_add_2":"三内"},"0380011":{"post_code":"0380011","prefecture":"AOMORI KEN","city":"AOMORI SHI","town":"SHINODA","perfecture_jp":"青森県","jp_add_1":"青森市","jp_add_2":"篠田"},"0380052":{"post_code":"0380052","prefecture":"AOMORI KEN","city":"AOMORI SHI","town":"SHIMIZU","perfecture_jp":"青森県","jp_add_1":"青森市","jp_add_2":"清水"},"0380042":{"post_code":"0380042","prefecture":"AOMORI KEN","city":"AOMORI SHI","town":"SHINJO","perfecture_jp":"青森県","jp_add_1":"青森市","jp_add_2":"新城"},"0380055":{"post_code":"0380055","prefecture":"AOMORI KEN","city":"AOMORI SHI","town":"SETOSHI","perfecture_jp":"青森県","jp_add_1":"青森市","jp_add_2":"瀬戸子"},"0380015":{"post_code":"0380015","prefecture":"AOMORI KEN","city":"AOMORI SHI","town":"SENGARI","perfecture_jp":"青森県","jp_add_1":"青森市","jp_add_2":"千刈"},"0380045":{"post_code":"0380045","prefecture":"AOMORI KEN","city":"AOMORI SHI","town":"TSURUGASAKA","perfecture_jp":"青森県","jp_add_1":"青森市","jp_add_2":"鶴ケ坂"},"0380046":{"post_code":"0380046","prefecture":"AOMORI KEN","city":"AOMORI SHI","town":"TOKADO","perfecture_jp":"青森県","jp_add_1":"青森市","jp_add_2":"戸門"},"0380004":{"post_code":"0380004","prefecture":"AOMORI KEN","city":"AOMORI SHI","town":"TOMITA","perfecture_jp":"青森県","jp_add_1":"青森市","jp_add_2":"富田"},"0381321":{"post_code":"0381321","prefecture":"AOMORI KEN","city":"AOMORI SHI","town":"NAMIOKA AIZAWA","perfecture_jp":"青森県","jp_add_1":"青森市","jp_add_2":"浪岡相沢"},"0381313":{"post_code":"0381313","prefecture":"AOMORI KEN","city":"AOMORI SHI","town":"NAMIOKA KAREIZAWA","perfecture_jp":"青森県","jp_add_1":"青森市","jp_add_2":"浪岡王余魚沢"},"0381325":{"post_code":"0381325","prefecture":"AOMORI KEN","city":"AOMORI SHI","town":"NAMIOKA KITANAKANO","perfecture_jp":"青森県","jp_add_1":"青森市","jp_add_2":"浪岡北中野"},"0381324":{"post_code":"0381324","prefecture":"AOMORI KEN","city":"AOMORI SHI","town":"NAMIOKA KICHINAI","perfecture_jp":"青森県","jp_add_1":"青森市","jp_add_2":"浪岡吉内"},"0381343":{"post_code":"0381343","prefecture":"AOMORI KEN","city":"AOMORI SHI","town":"NAMIOKA GOSAMMAE","perfecture_jp":"青森県","jp_add_1":"青森市","jp_add_2":"浪岡郷山前"},"0381312":{"post_code":"0381312","prefecture":"AOMORI KEN","city":"AOMORI SHI","town":"NAMIOKA GOHOMMATSU","perfecture_jp":"青森県","jp_add_1":"青森市","jp_add_2":"浪岡五本松"},"0381345":{"post_code":"0381345","prefecture":"AOMORI KEN","city":"AOMORI SHI","town":"NAMIOKA SHIMOISHIKAWA","perfecture_jp":"青森県","jp_add_1":"青森市","jp_add_2":"浪岡下石川"},"0381332":{"post_code":"0381332","prefecture":"AOMORI KEN","city":"AOMORI SHI","town":"NAMIOKA SHIMOTOGAWA","perfecture_jp":"青森県","jp_add_1":"青森市","jp_add_2":"浪岡下十川"},"0381341":{"post_code":"0381341","prefecture":"AOMORI KEN","city":"AOMORI SHI","town":"NAMIOKA SHIROGANE","perfecture_jp":"青森県","jp_add_1":"青森市","jp_add_2":"浪岡銀"},"0381305":{"post_code":"0381305","prefecture":"AOMORI KEN","city":"AOMORI SHI","town":"NAMIOKA SUGISAWA","perfecture_jp":"青森県","jp_add_1":"青森市","jp_add_2":"浪岡杉沢"},"0381301":{"post_code":"0381301","prefecture":"AOMORI KEN","city":"AOMORI SHI","town":"NAMIOKA DAISHAKA","perfecture_jp":"青森県","jp_add_1":"青森市","jp_add_2":"浪岡大釈迦"},"0381304":{"post_code":"0381304","prefecture":"AOMORI KEN","city":"AOMORI SHI","town":"NAMIOKA TAKAYASHIKI","perfecture_jp":"青森県","jp_add_1":"青森市","jp_add_2":"浪岡高屋敷"},"0381342":{"post_code":"0381342","prefecture":"AOMORI KEN","city":"AOMORI SHI","town":"NAMIOKA TARUSAWA","perfecture_jp":"青森県","jp_add_1":"青森市","jp_add_2":"浪岡樽沢"},"0381303":{"post_code":"0381303","prefecture":"AOMORI KEN","city":"AOMORI SHI","town":"NAMIOKA TOKUSAISHI","perfecture_jp":"青森県","jp_add_1":"青森市","jp_add_2":"浪岡徳才子"},"0381302":{"post_code":"0381302","prefecture":"AOMORI KEN","city":"AOMORI SHI","town":"NAMIOKA NAGANUMA","perfecture_jp":"青森県","jp_add_1":"青森市","jp_add_2":"浪岡長沼"},"0381311":{"post_code":"0381311","prefecture":"AOMORI KEN","city":"AOMORI SHI","town":"NAMIOKA NAMIOKA","perfecture_jp":"青森県","jp_add_1":"青森市","jp_add_2":"浪岡浪岡"},"0381306":{"post_code":"0381306","prefecture":"AOMORI KEN","city":"AOMORI SHI","town":"NAMIOKA FUKUDA","perfecture_jp":"青森県","jp_add_1":"青森市","jp_add_2":"浪岡福田"},"0381322":{"post_code":"0381322","prefecture":"AOMORI KEN","city":"AOMORI SHI","town":"NAMIOKA HOSONO","perfecture_jp":"青森県","jp_add_1":"青森市","jp_add_2":"浪岡細野"},"0381323":{"post_code":"0381323","prefecture":"AOMORI KEN","city":"AOMORI SHI","town":"NAMIOKA HONGO","perfecture_jp":"青森県","jp_add_1":"青森市","jp_add_2":"浪岡本郷"},"0381333":{"post_code":"0381333","prefecture":"AOMORI KEN","city":"AOMORI SHI","town":"NAMIOKA MASUDATE","perfecture_jp":"青森県","jp_add_1":"青森市","jp_add_2":"浪岡増館"},"0381331":{"post_code":"0381331","prefecture":"AOMORI KEN","city":"AOMORI SHI","town":"NAMIOKA MEGASAWA","perfecture_jp":"青森県","jp_add_1":"青森市","jp_add_2":"浪岡女鹿沢"},"0381344":{"post_code":"0381344","prefecture":"AOMORI KEN","city":"AOMORI SHI","town":"NAMIOKA YOSHINODA","perfecture_jp":"青森県","jp_add_1":"青森市","jp_add_2":"浪岡吉野田"},"0380022":{"post_code":"0380022","prefecture":"AOMORI KEN","city":"AOMORI SHI","town":"NAMIDATE","perfecture_jp":"青森県","jp_add_1":"青森市","jp_add_2":"浪館"},"0380024":{"post_code":"0380024","prefecture":"AOMORI KEN","city":"AOMORI SHI","town":"NAMIDATEMAEDA","perfecture_jp":"青森県","jp_add_1":"青森市","jp_add_2":"浪館前田"},"0380014":{"post_code":"0380014","prefecture":"AOMORI KEN","city":"AOMORI SHI","town":"NISHITAKI","perfecture_jp":"青森県","jp_add_1":"青森市","jp_add_2":"西滝"},"0380057":{"post_code":"0380057","prefecture":"AOMORI KEN","city":"AOMORI SHI","town":"NISHITAZAWA","perfecture_jp":"青森県","jp_add_1":"青森市","jp_add_2":"西田沢"},"0380001":{"post_code":"0380001","prefecture":"AOMORI KEN","city":"AOMORI SHI","town":"NITTA","perfecture_jp":"青森県","jp_add_1":"青森市","jp_add_2":"新田"},"0380058":{"post_code":"0380058","prefecture":"AOMORI KEN","city":"AOMORI SHI","town":"HAJIRO","perfecture_jp":"青森県","jp_add_1":"青森市","jp_add_2":"羽白"},"0380023":{"post_code":"0380023","prefecture":"AOMORI KEN","city":"AOMORI SHI","town":"HOSOGOE","perfecture_jp":"青森県","jp_add_1":"青森市","jp_add_2":"細越"},"0380053":{"post_code":"0380053","prefecture":"AOMORI KEN","city":"AOMORI SHI","town":"MAEDA","perfecture_jp":"青森県","jp_add_1":"青森市","jp_add_2":"前田"},"0380044":{"post_code":"0380044","prefecture":"AOMORI KEN","city":"AOMORI SHI","town":"MAGONAI","perfecture_jp":"青森県","jp_add_1":"青森市","jp_add_2":"孫内"},"0380006":{"post_code":"0380006","prefecture":"AOMORI KEN","city":"AOMORI SHI","town":"MIYOSHI","perfecture_jp":"青森県","jp_add_1":"青森市","jp_add_2":"三好"},"0380021":{"post_code":"0380021","prefecture":"AOMORI KEN","city":"AOMORI SHI","town":"YASUTA","perfecture_jp":"青森県","jp_add_1":"青森市","jp_add_2":"安田"},"0380012":{"post_code":"0380012","prefecture":"AOMORI KEN","city":"AOMORI SHI","town":"YANAKAWA","perfecture_jp":"青森県","jp_add_1":"青森市","jp_add_2":"柳川"},"0383615":{"post_code":"0383615","prefecture":"AOMORI KEN","city":"HIROSAKI SHI","town":"AONAGO","perfecture_jp":"青森県","jp_add_1":"弘前市","jp_add_2":"青女子"},"0383613":{"post_code":"0383613","prefecture":"AOMORI KEN","city":"HIROSAKI SHI","town":"OTOMO","perfecture_jp":"青森県","jp_add_1":"弘前市","jp_add_2":"小友"},"0383612":{"post_code":"0383612","prefecture":"AOMORI KEN","city":"HIROSAKI SHI","town":"SASADATE","perfecture_jp":"青森県","jp_add_1":"弘前市","jp_add_2":"笹舘"},"0383614":{"post_code":"0383614","prefecture":"AOMORI KEN","city":"HIROSAKI SHI","town":"TANEICHI","perfecture_jp":"青森県","jp_add_1":"弘前市","jp_add_2":"種市"},"0383874":{"post_code":"0383874","prefecture":"AOMORI KEN","city":"HIROSAKI SHI","town":"TSUKANO(SONOTA)","perfecture_jp":"青森県","jp_add_1":"弘前市","jp_add_2":"津賀野"},"0383611":{"post_code":"0383611","prefecture":"AOMORI KEN","city":"HIROSAKI SHI","town":"MIWA","perfecture_jp":"青森県","jp_add_1":"弘前市","jp_add_2":"三和"},"0383821":{"post_code":"0383821","prefecture":"AOMORI KEN","city":"HIROSAKI SHI","town":"MOMOTA","perfecture_jp":"青森県","jp_add_1":"弘前市","jp_add_2":"百田"},"0383100":{"post_code":"0383100","prefecture":"AOMORI KEN","city":"TSUGARU SHI","town":"IKANIKEISAIGANAIBAAI","perfecture_jp":"青森県","jp_add_1":"つがる市","jp_add_2":""},"0383305":{"post_code":"0383305","prefecture":"AOMORI KEN","city":"TSUGARU SHI","town":"USHIGATACHO","perfecture_jp":"青森県","jp_add_1":"つがる市","jp_add_2":"牛潟町"},"0383107":{"post_code":"0383107","prefecture":"AOMORI KEN","city":"TSUGARU SHI","town":"KASHIWA ISE","perfecture_jp":"青森県","jp_add_1":"つがる市","jp_add_2":"柏稲盛"},"0383103":{"post_code":"0383103","prefecture":"AOMORI KEN","city":"TSUGARU SHI","town":"KASHIWA KAMIKOGAWA","perfecture_jp":"青森県","jp_add_1":"つがる市","jp_add_2":"柏上古川"},"0383104":{"post_code":"0383104","prefecture":"AOMORI KEN","city":"TSUGARU SHI","town":"KASHIWA KUWANOKIDA","perfecture_jp":"青森県","jp_add_1":"つがる市","jp_add_2":"柏桑野木田"},"0383101":{"post_code":"0383101","prefecture":"AOMORI KEN","city":"TSUGARU SHI","town":"KASHIWA SAGISAKA","perfecture_jp":"青森県","jp_add_1":"つがる市","jp_add_2":"柏鷺坂"},"0383102":{"post_code":"0383102","prefecture":"AOMORI KEN","city":"TSUGARU SHI","town":"KASHIWA SHIMOKOGAWA","perfecture_jp":"青森県","jp_add_1":"つがる市","jp_add_2":"柏下古川"},"0383106":{"post_code":"0383106","prefecture":"AOMORI KEN","city":"TSUGARU SHI","town":"KASHIWA TAMAMIZU","perfecture_jp":"青森県","jp_add_1":"つがる市","jp_add_2":"柏玉水"},"0383105":{"post_code":"0383105","prefecture":"AOMORI KEN","city":"TSUGARU SHI","town":"KASHIWA HIROSU","perfecture_jp":"青森県","jp_add_1":"つがる市","jp_add_2":"柏広須"},"0383142":{"post_code":"0383142","prefecture":"AOMORI KEN","city":"TSUGARU SHI","town":"KIZUKURI AKANE","perfecture_jp":"青森県","jp_add_1":"つがる市","jp_add_2":"木造赤根"},"0383144":{"post_code":"0383144","prefecture":"AOMORI KEN","city":"TSUGARU SHI","town":"KIZUKURI AKEBONO","perfecture_jp":"青森県","jp_add_1":"つがる市","jp_add_2":"木造曙"},"0383124":{"post_code":"0383124","prefecture":"AOMORI KEN","city":"TSUGARU SHI","town":"KIZUKURI ASAHI","perfecture_jp":"青森県","jp_add_1":"つがる市","jp_add_2":"木造朝日"},"0383113":{"post_code":"0383113","prefecture":"AOMORI KEN","city":"TSUGARU SHI","town":"KIZUKURI ASHINUMA","perfecture_jp":"青森県","jp_add_1":"つがる市","jp_add_2":"木造芦沼"},"0383273":{"post_code":"0383273","prefecture":"AOMORI KEN","city":"TSUGARU SHI","town":"KIZUKURI IDENOSATO","perfecture_jp":"青森県","jp_add_1":"つがる市","jp_add_2":"木造出野里"},"0383141":{"post_code":"0383141","prefecture":"AOMORI KEN","city":"TSUGARU SHI","town":"KIZUKURI UKISU","perfecture_jp":"青森県","jp_add_1":"つがる市","jp_add_2":"木造浮巣"},"0383135":{"post_code":"0383135","prefecture":"AOMORI KEN","city":"TSUGARU SHI","town":"KIZUKURI URAKUMACHI","perfecture_jp":"青森県","jp_add_1":"つがる市","jp_add_2":"木造有楽町"},"0383162":{"post_code":"0383162","prefecture":"AOMORI KEN","city":"TSUGARU SHI","town":"KIZUKURI URAFUNE","perfecture_jp":"青森県","jp_add_1":"つがる市","jp_add_2":"木造浦船"},"0383122":{"post_code":"0383122","prefecture":"AOMORI KEN","city":"TSUGARU SHI","town":"KIZUKURI OIHIRO","perfecture_jp":"青森県","jp_add_1":"つがる市","jp_add_2":"木造追広"},"0383277":{"post_code":"0383277","prefecture":"AOMORI KEN","city":"TSUGARU SHI","town":"KIZUKURI OBATA","perfecture_jp":"青森県","jp_add_1":"つがる市","jp_add_2":"木造大畑"},"0383285":{"post_code":"0383285","prefecture":"AOMORI KEN","city":"TSUGARU SHI","town":"KIZUKURI OYUMACHI","perfecture_jp":"青森県","jp_add_1":"つがる市","jp_add_2":"木造大湯町"},"0383272":{"post_code":"0383272","prefecture":"AOMORI KEN","city":"TSUGARU SHI","town":"KIZUKURI KANEDATE","perfecture_jp":"青森県","jp_add_1":"つがる市","jp_add_2":"木造兼館"},"0383284":{"post_code":"0383284","prefecture":"AOMORI KEN","city":"TSUGARU SHI","town":"KIZUKURI KAMEGAOKA","perfecture_jp":"青森県","jp_add_1":"つがる市","jp_add_2":"木造亀ケ岡"},"0383112":{"post_code":"0383112","prefecture":"AOMORI KEN","city":"TSUGARU SHI","town":"KIZUKURI KAWAYOKE","perfecture_jp":"青森県","jp_add_1":"つがる市","jp_add_2":"木造川除"},"0383165":{"post_code":"0383165","prefecture":"AOMORI KEN","city":"TSUGARU SHI","town":"KIZUKURI KIKUKAWA","perfecture_jp":"青森県","jp_add_1":"つがる市","jp_add_2":"木造菊川"},"0382806":{"post_code":"0382806","prefecture":"AOMORI KEN","city":"TSUGARU SHI","town":"KIZUKURI KOSHIMIZU","perfecture_jp":"青森県","jp_add_1":"つがる市","jp_add_2":"木造越水"},"0382807":{"post_code":"0382807","prefecture":"AOMORI KEN","city":"TSUGARU SHI","town":"KIZUKURI KOMADA","perfecture_jp":"青森県","jp_add_1":"つがる市","jp_add_2":"木造駒田"},"0383286":{"post_code":"0383286","prefecture":"AOMORI KEN","city":"TSUGARU SHI","town":"KIZUKURI KOMOTSUCHI","perfecture_jp":"青森県","jp_add_1":"つがる市","jp_add_2":"木造菰槌"},"0383159":{"post_code":"0383159","prefecture":"AOMORI KEN","city":"TSUGARU SHI","town":"KIZUKURI SAKURAGAWA","perfecture_jp":"青森県","jp_add_1":"つがる市","jp_add_2":"木造桜川"},"0383146":{"post_code":"0383146","prefecture":"AOMORI KEN","city":"TSUGARU SHI","town":"KIZUKURI SAKURAGI","perfecture_jp":"青森県","jp_add_1":"つがる市","jp_add_2":"木造桜木"},"0383164":{"post_code":"0383164","prefecture":"AOMORI KEN","city":"TSUGARU SHI","town":"KIZUKURI SHIBATA","perfecture_jp":"青森県","jp_add_1":"つがる市","jp_add_2":"木造柴田"},"0383132":{"post_code":"0383132","prefecture":"AOMORI KEN","city":"TSUGARU SHI","town":"KIZUKURI SHIMIZU","perfecture_jp":"青森県","jp_add_1":"つがる市","jp_add_2":"木造清水"},"0383287":{"post_code":"0383287","prefecture":"AOMORI KEN","city":"TSUGARU SHI","town":"KIZUKURI SHIMOTOYAMASATO","perfecture_jp":"青森県","jp_add_1":"つがる市","jp_add_2":"木造下遠山里"},"0382803":{"post_code":"0382803","prefecture":"AOMORI KEN","city":"TSUGARU SHI","town":"KIZUKURI SHIMOFUKUHARA","perfecture_jp":"青森県","jp_add_1":"つがる市","jp_add_2":"木造下福原"},"0383133":{"post_code":"0383133","prefecture":"AOMORI KEN","city":"TSUGARU SHI","town":"KIZUKURI SUEHIRO","perfecture_jp":"青森県","jp_add_1":"つがる市","jp_add_2":"木造末広"},"0383283":{"post_code":"0383283","prefecture":"AOMORI KEN","city":"TSUGARU SHI","town":"KIZUKURI TATEOKA","perfecture_jp":"青森県","jp_add_1":"つがる市","jp_add_2":"木造館岡"},"0383134":{"post_code":"0383134","prefecture":"AOMORI KEN","city":"TSUGARU SHI","town":"KIZUKURI TANETORI","perfecture_jp":"青森県","jp_add_1":"つがる市","jp_add_2":"木造種取"},"0383131":{"post_code":"0383131","prefecture":"AOMORI KEN","city":"TSUGARU SHI","town":"KIZUKURI CHITOSE","perfecture_jp":"青森県","jp_add_1":"つがる市","jp_add_2":"木造千年"},"0383167":{"post_code":"0383167","prefecture":"AOMORI KEN","city":"TSUGARU SHI","town":"KIZUKURI CHIYODA","perfecture_jp":"青森県","jp_add_1":"つがる市","jp_add_2":"木造千代田"},"0383145":{"post_code":"0383145","prefecture":"AOMORI KEN","city":"TSUGARU SHI","town":"KIZUKURI CHIYOMACHI","perfecture_jp":"青森県","jp_add_1":"つがる市","jp_add_2":"木造千代町"},"0383278":{"post_code":"0383278","prefecture":"AOMORI KEN","city":"TSUGARU SHI","town":"KIZUKURI TSUCHITAKI","perfecture_jp":"青森県","jp_add_1":"つがる市","jp_add_2":"木造土滝"},"0383125":{"post_code":"0383125","prefecture":"AOMORI KEN","city":"TSUGARU SHI","town":"KIZUKURI TSURUDOMARI","perfecture_jp":"青森県","jp_add_1":"つがる市","jp_add_2":"木造鶴泊"},"0383288":{"post_code":"0383288","prefecture":"AOMORI KEN","city":"TSUGARU SHI","town":"KIZUKURI DEKISHIMA","perfecture_jp":"青森県","jp_add_1":"つがる市","jp_add_2":"木造出来島"},"0383154":{"post_code":"0383154","prefecture":"AOMORI KEN","city":"TSUGARU SHI","town":"KIZUKURI TERUHI","perfecture_jp":"青森県","jp_add_1":"つがる市","jp_add_2":"木造照日"},"0383282":{"post_code":"0383282","prefecture":"AOMORI KEN","city":"TSUGARU SHI","town":"KIZUKURI DOKIZAKA","perfecture_jp":"青森県","jp_add_1":"つがる市","jp_add_2":"木造筒木坂"},"0383111":{"post_code":"0383111","prefecture":"AOMORI KEN","city":"TSUGARU SHI","town":"KIZUKURI TOYODA","perfecture_jp":"青森県","jp_add_1":"つがる市","jp_add_2":"木造豊田"},"0383275":{"post_code":"0383275","prefecture":"AOMORI KEN","city":"TSUGARU SHI","town":"KIZUKURI NAGATA","perfecture_jp":"青森県","jp_add_1":"つがる市","jp_add_2":"木造永田"},"0383163":{"post_code":"0383163","prefecture":"AOMORI KEN","city":"TSUGARU SHI","town":"KIZUKURI NAKADATE","perfecture_jp":"青森県","jp_add_1":"つがる市","jp_add_2":"木造中館"},"0383114":{"post_code":"0383114","prefecture":"AOMORI KEN","city":"TSUGARU SHI","town":"KIZUKURI NARITA","perfecture_jp":"青森県","jp_add_1":"つがる市","jp_add_2":"木造成田"},"0383161":{"post_code":"0383161","prefecture":"AOMORI KEN","city":"TSUGARU SHI","town":"KIZUKURI NIGORIGAWA","perfecture_jp":"青森県","jp_add_1":"つがる市","jp_add_2":"木造濁川"},"0383153":{"post_code":"0383153","prefecture":"AOMORI KEN","city":"TSUGARU SHI","town":"KIZUKURI NOMIYA","perfecture_jp":"青森県","jp_add_1":"つがる市","jp_add_2":"木造野宮"},"0383139":{"post_code":"0383139","prefecture":"AOMORI KEN","city":"TSUGARU SHI","town":"KIZUKURI HAGINAGARE","perfecture_jp":"青森県","jp_add_1":"つがる市","jp_add_2":"木造萩流"},"0383136":{"post_code":"0383136","prefecture":"AOMORI KEN","city":"TSUGARU SHI","town":"KIZUKURI HAGINO","perfecture_jp":"青森県","jp_add_1":"つがる市","jp_add_2":"木造萩野"},"0383115":{"post_code":"0383115","prefecture":"AOMORI KEN","city":"TSUGARU SHI","town":"KIZUKURI HASUKAWA","perfecture_jp":"青森県","jp_add_1":"つがる市","jp_add_2":"木造蓮川"},"0383276":{"post_code":"0383276","prefecture":"AOMORI KEN","city":"TSUGARU SHI","town":"KIZUKURI HAYASHI","perfecture_jp":"青森県","jp_add_1":"つがる市","jp_add_2":"木造林"},"0383121":{"post_code":"0383121","prefecture":"AOMORI KEN","city":"TSUGARU SHI","town":"KIZUKURI HAYATA","perfecture_jp":"青森県","jp_add_1":"つがる市","jp_add_2":"木造早田"},"0383143":{"post_code":"0383143","prefecture":"AOMORI KEN","city":"TSUGARU SHI","town":"KIZUKURI HINATA","perfecture_jp":"青森県","jp_add_1":"つがる市","jp_add_2":"木造日向"},"0383281":{"post_code":"0383281","prefecture":"AOMORI KEN","city":"TSUGARU SHI","town":"KIZUKURI HIRATAKI","perfecture_jp":"青森県","jp_add_1":"つがる市","jp_add_2":"木造平滝"},"0382805":{"post_code":"0382805","prefecture":"AOMORI KEN","city":"TSUGARU SHI","town":"KIZUKURI HIROKA","perfecture_jp":"青森県","jp_add_1":"つがる市","jp_add_2":"木造広岡"},"0382808":{"post_code":"0382808","prefecture":"AOMORI KEN","city":"TSUGARU SHI","town":"KIZUKURI FUKIHARA","perfecture_jp":"青森県","jp_add_1":"つがる市","jp_add_2":"木造吹原"},"0383166":{"post_code":"0383166","prefecture":"AOMORI KEN","city":"TSUGARU SHI","town":"KIZUKURI FUKUHARA","perfecture_jp":"青森県","jp_add_1":"つがる市","jp_add_2":"木造福原"},"0383158":{"post_code":"0383158","prefecture":"AOMORI KEN","city":"TSUGARU SHI","town":"KIZUKURI FUSAMATSU","perfecture_jp":"青森県","jp_add_1":"つがる市","jp_add_2":"木造房松"},"0383152":{"post_code":"0383152","prefecture":"AOMORI KEN","city":"TSUGARU SHI","town":"KIZUKURI FUJIOKA","perfecture_jp":"青森県","jp_add_1":"つがる市","jp_add_2":"木造藤岡"},"0383123":{"post_code":"0383123","prefecture":"AOMORI KEN","city":"TSUGARU SHI","town":"KIZUKURI FUJITA","perfecture_jp":"青森県","jp_add_1":"つがる市","jp_add_2":"木造藤田"},"0383155":{"post_code":"0383155","prefecture":"AOMORI KEN","city":"TSUGARU SHI","town":"KIZUKURI MASUTA","perfecture_jp":"青森県","jp_add_1":"つがる市","jp_add_2":"木造増田"},"0382801":{"post_code":"0382801","prefecture":"AOMORI KEN","city":"TSUGARU SHI","town":"KIZUKURI MARUYAMA","perfecture_jp":"青森県","jp_add_1":"つがる市","jp_add_2":"木造丸山"},"0382804":{"post_code":"0382804","prefecture":"AOMORI KEN","city":"TSUGARU SHI","town":"KIZUKURI MITSUTATE","perfecture_jp":"青森県","jp_add_1":"つがる市","jp_add_2":"木造三ツ館"},"0383156":{"post_code":"0383156","prefecture":"AOMORI KEN","city":"TSUGARU SHI","town":"KIZUKURI MIYAI","perfecture_jp":"青森県","jp_add_1":"つがる市","jp_add_2":"木造宮井"},"0383157":{"post_code":"0383157","prefecture":"AOMORI KEN","city":"TSUGARU SHI","town":"KIZUKURI MIYAZAKI","perfecture_jp":"青森県","jp_add_1":"つがる市","jp_add_2":"木造宮崎"},"0383126":{"post_code":"0383126","prefecture":"AOMORI KEN","city":"TSUGARU SHI","town":"KIZUKURI MORIUCHI","perfecture_jp":"青森県","jp_add_1":"つがる市","jp_add_2":"木造森内"},"0383128":{"post_code":"0383128","prefecture":"AOMORI KEN","city":"TSUGARU SHI","town":"KIZUKURI MORIMOTO","perfecture_jp":"青森県","jp_add_1":"つがる市","jp_add_2":"木造森本"},"0383127":{"post_code":"0383127","prefecture":"AOMORI KEN","city":"TSUGARU SHI","town":"KIZUKURI MORIYAMA","perfecture_jp":"青森県","jp_add_1":"つがる市","jp_add_2":"木造森山"},"0383271":{"post_code":"0383271","prefecture":"AOMORI KEN","city":"TSUGARU SHI","town":"KIZUKURI YOSHIZUMI","perfecture_jp":"青森県","jp_add_1":"つがる市","jp_add_2":"木造善積"},"0383274":{"post_code":"0383274","prefecture":"AOMORI KEN","city":"TSUGARU SHI","town":"KIZUKURI RENGETA","perfecture_jp":"青森県","jp_add_1":"つがる市","jp_add_2":"木造蓮花田"},"0383151":{"post_code":"0383151","prefecture":"AOMORI KEN","city":"TSUGARU SHI","town":"KIZUKURI WAKATAKE","perfecture_jp":"青森県","jp_add_1":"つがる市","jp_add_2":"木造若竹"},"0383138":{"post_code":"0383138","prefecture":"AOMORI KEN","city":"TSUGARU SHI","town":"KIZUKURI WAKAMIDORI","perfecture_jp":"青森県","jp_add_1":"つがる市","jp_add_2":"木造若緑"},"0383137":{"post_code":"0383137","prefecture":"AOMORI KEN","city":"TSUGARU SHI","town":"KIZUKURI WAKAMIYA","perfecture_jp":"青森県","jp_add_1":"つがる市","jp_add_2":"木造若宮"},"0383304":{"post_code":"0383304","prefecture":"AOMORI KEN","city":"TSUGARU SHI","town":"SHITASHARIKICHO","perfecture_jp":"青森県","jp_add_1":"つがる市","jp_add_2":"下車力町"},"0383306":{"post_code":"0383306","prefecture":"AOMORI KEN","city":"TSUGARU SHI","town":"SHIMOSHIGATACHO","perfecture_jp":"青森県","jp_add_1":"つがる市","jp_add_2":"下牛潟町"},"0383303":{"post_code":"0383303","prefecture":"AOMORI KEN","city":"TSUGARU SHI","town":"SHARIKICHO","perfecture_jp":"青森県","jp_add_1":"つがる市","jp_add_2":"車力町"},"0383301":{"post_code":"0383301","prefecture":"AOMORI KEN","city":"TSUGARU SHI","town":"TOMIYACHICHO","perfecture_jp":"青森県","jp_add_1":"つがる市","jp_add_2":"富萢町"},"0383302":{"post_code":"0383302","prefecture":"AOMORI KEN","city":"TSUGARU SHI","town":"TOYOTOMICHO","perfecture_jp":"青森県","jp_add_1":"つがる市","jp_add_2":"豊富町"},"0382818":{"post_code":"0382818","prefecture":"AOMORI KEN","city":"TSUGARU SHI","town":"MORITACHO ODATE","perfecture_jp":"青森県","jp_add_1":"つがる市","jp_add_2":"森田町大館"},"0382811":{"post_code":"0382811","prefecture":"AOMORI KEN","city":"TSUGARU SHI","town":"MORITACHO KAMIAINO","perfecture_jp":"青森県","jp_add_1":"つがる市","jp_add_2":"森田町上相野"},"0382812":{"post_code":"0382812","prefecture":"AOMORI KEN","city":"TSUGARU SHI","town":"MORITACHO SHIMOAINO","perfecture_jp":"青森県","jp_add_1":"つがる市","jp_add_2":"森田町下相野"},"0382817":{"post_code":"0382817","prefecture":"AOMORI KEN","city":"TSUGARU SHI","town":"MORITACHO TOKOMAI","perfecture_jp":"青森県","jp_add_1":"つがる市","jp_add_2":"森田町床舞"},"0382814":{"post_code":"0382814","prefecture":"AOMORI KEN","city":"TSUGARU SHI","town":"MORITACHO NAKATA","perfecture_jp":"青森県","jp_add_1":"つがる市","jp_add_2":"森田町中田"},"0382813":{"post_code":"0382813","prefecture":"AOMORI KEN","city":"TSUGARU SHI","town":"MORITACHO MYODOZAKI","perfecture_jp":"青森県","jp_add_1":"つがる市","jp_add_2":"森田町妙堂崎"},"0382816":{"post_code":"0382816","prefecture":"AOMORI KEN","city":"TSUGARU SHI","town":"MORITACHO MORITA","perfecture_jp":"青森県","jp_add_1":"つがる市","jp_add_2":"森田町森田"},"0382815":{"post_code":"0382815","prefecture":"AOMORI KEN","city":"TSUGARU SHI","town":"MORITACHO YAMADA","perfecture_jp":"青森県","jp_add_1":"つがる市","jp_add_2":"森田町山田"},"0380101":{"post_code":"0380101","prefecture":"AOMORI KEN","city":"HIRAKAWA SHI","town":"IKARIGASEKI YOKOMACHI","perfecture_jp":"青森県","jp_add_1":"平川市","jp_add_2":"碇ケ関"},"0380102":{"post_code":"0380102","prefecture":"AOMORI KEN","city":"HIRAKAWA SHI","town":"IKARIGASEKIKOGAKE YASUTA","perfecture_jp":"青森県","jp_add_1":"平川市","jp_add_2":"碇ケ関古懸上程森"},"0380103":{"post_code":"0380103","prefecture":"AOMORI KEN","city":"HIRAKAWA SHI","town":"IKARIGASEKIHISAYOSHI YAMAGISHI","perfecture_jp":"青森県","jp_add_1":"平川市","jp_add_2":"碇ケ関久吉蕷ケ平"},"0382700":{"post_code":"0382700","prefecture":"AOMORI KEN","city":"NISHITSUGARU GUN AJIGASAWA MACHI","town":"IKANIKEISAIGANAIBAAI","perfecture_jp":"青森県","jp_add_1":"西津軽郡鰺ヶ沢町","jp_add_2":""},"0382731":{"post_code":"0382731","prefecture":"AOMORI KEN","city":"NISHITSUGARU GUN AJIGASAWA MACHI","town":"AKAISHIMACHI","perfecture_jp":"青森県","jp_add_1":"西津軽郡鰺ヶ沢町","jp_add_2":"赤石町"},"0382714":{"post_code":"0382714","prefecture":"AOMORI KEN","city":"NISHITSUGARU GUN AJIGASAWA MACHI","town":"ASHIYACHIMACHI","perfecture_jp":"青森県","jp_add_1":"西津軽郡鰺ヶ沢町","jp_add_2":"芦萢町"},"0382742":{"post_code":"0382742","prefecture":"AOMORI KEN","city":"NISHITSUGARU GUN AJIGASAWA MACHI","town":"ARAMACHI","perfecture_jp":"青森県","jp_add_1":"西津軽郡鰺ヶ沢町","jp_add_2":"新町"},"0382735":{"post_code":"0382735","prefecture":"AOMORI KEN","city":"NISHITSUGARU GUN AJIGASAWA MACHI","town":"UBAFUKUROMACHI","perfecture_jp":"青森県","jp_add_1":"西津軽郡鰺ヶ沢町","jp_add_2":"姥袋町"},"0382724":{"post_code":"0382724","prefecture":"AOMORI KEN","city":"NISHITSUGARU GUN AJIGASAWA MACHI","town":"ONIFUKUROMACHI","perfecture_jp":"青森県","jp_add_1":"西津軽郡鰺ヶ沢町","jp_add_2":"鬼袋町"},"0382701":{"post_code":"0382701","prefecture":"AOMORI KEN","city":"NISHITSUGARU GUN AJIGASAWA MACHI","town":"KITAUKITAMACHI","perfecture_jp":"青森県","jp_add_1":"西津軽郡鰺ヶ沢町","jp_add_2":"北浮田町"},"0382754":{"post_code":"0382754","prefecture":"AOMORI KEN","city":"NISHITSUGARU GUN AJIGASAWA MACHI","town":"KOMEMACHI","perfecture_jp":"青森県","jp_add_1":"西津軽郡鰺ヶ沢町","jp_add_2":"米町"},"0382722":{"post_code":"0382722","prefecture":"AOMORI KEN","city":"NISHITSUGARU GUN AJIGASAWA MACHI","town":"KOMORIMACHI","perfecture_jp":"青森県","jp_add_1":"西津軽郡鰺ヶ沢町","jp_add_2":"小森町"},"0382703":{"post_code":"0382703","prefecture":"AOMORI KEN","city":"NISHITSUGARU GUN AJIGASAWA MACHI","town":"KOYASHIKIMACHI","perfecture_jp":"青森県","jp_add_1":"西津軽郡鰺ヶ沢町","jp_add_2":"小屋敷町"},"0382745":{"post_code":"0382745","prefecture":"AOMORI KEN","city":"NISHITSUGARU GUN AJIGASAWA MACHI","town":"SHINCHIMACHI","perfecture_jp":"青森県","jp_add_1":"西津軽郡鰺ヶ沢町","jp_add_2":"新地町"},"0382702":{"post_code":"0382702","prefecture":"AOMORI KEN","city":"NISHITSUGARU GUN AJIGASAWA MACHI","town":"TATEISHIMACHI","perfecture_jp":"青森県","jp_add_1":"西津軽郡鰺ヶ沢町","jp_add_2":"建石町"},"0382733":{"post_code":"0382733","prefecture":"AOMORI KEN","city":"NISHITSUGARU GUN AJIGASAWA MACHI","town":"TATEMAEMACHI","perfecture_jp":"青森県","jp_add_1":"西津軽郡鰺ヶ沢町","jp_add_2":"館前町"},"0382751":{"post_code":"0382751","prefecture":"AOMORI KEN","city":"NISHITSUGARU GUN AJIGASAWA MACHI","town":"TANAKAMACHI","perfecture_jp":"青森県","jp_add_1":"西津軽郡鰺ヶ沢町","jp_add_2":"田中町"},"0382725":{"post_code":"0382725","prefecture":"AOMORI KEN","city":"NISHITSUGARU GUN AJIGASAWA MACHI","town":"TANESATOMACHI","perfecture_jp":"青森県","jp_add_1":"西津軽郡鰺ヶ沢町","jp_add_2":"種里町"},"0382743":{"post_code":"0382743","prefecture":"AOMORI KEN","city":"NISHITSUGARU GUN AJIGASAWA MACHI","town":"TSURIMACHI","perfecture_jp":"青森県","jp_add_1":"西津軽郡鰺ヶ沢町","jp_add_2":"釣町"},"0382711":{"post_code":"0382711","prefecture":"AOMORI KEN","city":"NISHITSUGARU GUN AJIGASAWA MACHI","town":"NAKAMURAMACHI","perfecture_jp":"青森県","jp_add_1":"西津軽郡鰺ヶ沢町","jp_add_2":"中村町"},"0382712":{"post_code":"0382712","prefecture":"AOMORI KEN","city":"NISHITSUGARU GUN AJIGASAWA MACHI","town":"NAGADAIMACHI","perfecture_jp":"青森県","jp_add_1":"西津軽郡鰺ヶ沢町","jp_add_2":"長平町"},"0382752":{"post_code":"0382752","prefecture":"AOMORI KEN","city":"NISHITSUGARU GUN AJIGASAWA MACHI","town":"NANATSUISHIMACHI","perfecture_jp":"青森県","jp_add_1":"西津軽郡鰺ヶ沢町","jp_add_2":"七ツ石町"},"0382741":{"post_code":"0382741","prefecture":"AOMORI KEN","city":"NISHITSUGARU GUN AJIGASAWA MACHI","town":"HAMAMACHI","perfecture_jp":"青森県","jp_add_1":"西津軽郡鰺ヶ沢町","jp_add_2":"浜町"},"0382715":{"post_code":"0382715","prefecture":"AOMORI KEN","city":"NISHITSUGARU GUN AJIGASAWA MACHI","town":"HAMAYOKOSAWAMACHI","perfecture_jp":"青森県","jp_add_1":"西津軽郡鰺ヶ沢町","jp_add_2":"浜横沢町"},"0382732":{"post_code":"0382732","prefecture":"AOMORI KEN","city":"NISHITSUGARU GUN AJIGASAWA MACHI","town":"HIDERITAMACHI","perfecture_jp":"青森県","jp_add_1":"西津軽郡鰺ヶ沢町","jp_add_2":"日照田町"},"0382723":{"post_code":"0382723","prefecture":"AOMORI KEN","city":"NISHITSUGARU GUN AJIGASAWA MACHI","town":"HITOTSUMORIMACHI","perfecture_jp":"青森県","jp_add_1":"西津軽郡鰺ヶ沢町","jp_add_2":"一ツ森町"},"0382721":{"post_code":"0382721","prefecture":"AOMORI KEN","city":"NISHITSUGARU GUN AJIGASAWA MACHI","town":"FUKAYAMACHI","perfecture_jp":"青森県","jp_add_1":"西津軽郡鰺ヶ沢町","jp_add_2":"深谷町"},"0382746":{"post_code":"0382746","prefecture":"AOMORI KEN","city":"NISHITSUGARU GUN AJIGASAWA MACHI","town":"FUNECHO","perfecture_jp":"青森県","jp_add_1":"西津軽郡鰺ヶ沢町","jp_add_2":"富根町"},"0382753":{"post_code":"0382753","prefecture":"AOMORI KEN","city":"NISHITSUGARU GUN AJIGASAWA MACHI","town":"HONCHO","perfecture_jp":"青森県","jp_add_1":"西津軽郡鰺ヶ沢町","jp_add_2":"本町"},"0382761":{"post_code":"0382761","prefecture":"AOMORI KEN","city":"NISHITSUGARU GUN AJIGASAWA MACHI","town":"MAITOMACHI","perfecture_jp":"青森県","jp_add_1":"西津軽郡鰺ヶ沢町","jp_add_2":"舞戸町"},"0382713":{"post_code":"0382713","prefecture":"AOMORI KEN","city":"NISHITSUGARU GUN AJIGASAWA MACHI","town":"MATSUDAIMACHI","perfecture_jp":"青森県","jp_add_1":"西津軽郡鰺ヶ沢町","jp_add_2":"松代町"},"0382705":{"post_code":"0382705","prefecture":"AOMORI KEN","city":"NISHITSUGARU GUN AJIGASAWA MACHI","town":"MINAMIUKITAMACHI","perfecture_jp":"青森県","jp_add_1":"西津軽郡鰺ヶ沢町","jp_add_2":"南浮田町"},"0382734":{"post_code":"0382734","prefecture":"AOMORI KEN","city":"NISHITSUGARU GUN AJIGASAWA MACHI","town":"MINAMIKANAZAWAMACHI","perfecture_jp":"青森県","jp_add_1":"西津軽郡鰺ヶ沢町","jp_add_2":"南金沢町"},"0382704":{"post_code":"0382704","prefecture":"AOMORI KEN","city":"NISHITSUGARU GUN AJIGASAWA MACHI","town":"YUBUNEMACHI","perfecture_jp":"青森県","jp_add_1":"西津軽郡鰺ヶ沢町","jp_add_2":"湯舟町"},"0382747":{"post_code":"0382747","prefecture":"AOMORI KEN","city":"NISHITSUGARU GUN AJIGASAWA MACHI","town":"YODOMACHI","perfecture_jp":"青森県","jp_add_1":"西津軽郡鰺ヶ沢町","jp_add_2":"淀町"},"0382744":{"post_code":"0382744","prefecture":"AOMORI KEN","city":"NISHITSUGARU GUN AJIGASAWA MACHI","town":"RYOSHIMACHI","perfecture_jp":"青森県","jp_add_1":"西津軽郡鰺ヶ沢町","jp_add_2":"漁師町"},"0382300":{"post_code":"0382300","prefecture":"AOMORI KEN","city":"NISHITSUGARU GUN FUKAURA MACHI","town":"IKANIKEISAIGANAIBAAI","perfecture_jp":"青森県","jp_add_1":"西津軽郡深浦町","jp_add_2":""},"0382502":{"post_code":"0382502","prefecture":"AOMORI KEN","city":"NISHITSUGARU GUN FUKAURA MACHI","town":"IWASAKA","perfecture_jp":"青森県","jp_add_1":"西津軽郡深浦町","jp_add_2":"岩坂"},"0382202":{"post_code":"0382202","prefecture":"AOMORI KEN","city":"NISHITSUGARU GUN FUKAURA MACHI","town":"IWASAKI","perfecture_jp":"青森県","jp_add_1":"西津軽郡深浦町","jp_add_2":"岩崎"},"0382413":{"post_code":"0382413","prefecture":"AOMORI KEN","city":"NISHITSUGARU GUN FUKAURA MACHI","town":"OIRASE","perfecture_jp":"青森県","jp_add_1":"西津軽郡深浦町","jp_add_2":"追良瀬"},"0382208":{"post_code":"0382208","prefecture":"AOMORI KEN","city":"NISHITSUGARU GUN FUKAURA MACHI","town":"OMAGOSHI","perfecture_jp":"青森県","jp_add_1":"西津軽郡深浦町","jp_add_2":"大間越"},"0382411":{"post_code":"0382411","prefecture":"AOMORI KEN","city":"NISHITSUGARU GUN FUKAURA MACHI","town":"KASOSE","perfecture_jp":"青森県","jp_add_1":"西津軽郡深浦町","jp_add_2":"風合瀬"},"0382323":{"post_code":"0382323","prefecture":"AOMORI KEN","city":"NISHITSUGARU GUN FUKAURA MACHI","town":"KAMICHOKEIDAIRA","perfecture_jp":"青森県","jp_add_1":"西津軽郡深浦町","jp_add_2":"上長慶平"},"0382504":{"post_code":"0382504","prefecture":"AOMORI KEN","city":"NISHITSUGARU GUN FUKAURA MACHI","town":"KITAKANEGASAWA","perfecture_jp":"青森県","jp_add_1":"西津軽郡深浦町","jp_add_2":"北金ケ沢"},"0382207":{"post_code":"0382207","prefecture":"AOMORI KEN","city":"NISHITSUGARU GUN FUKAURA MACHI","town":"KUROSAKI","perfecture_jp":"青森県","jp_add_1":"西津軽郡深浦町","jp_add_2":"黒崎"},"0382201":{"post_code":"0382201","prefecture":"AOMORI KEN","city":"NISHITSUGARU GUN FUKAURA MACHI","town":"SAWABE","perfecture_jp":"青森県","jp_add_1":"西津軽郡深浦町","jp_add_2":"沢辺"},"0382203":{"post_code":"0382203","prefecture":"AOMORI KEN","city":"NISHITSUGARU GUN FUKAURA MACHI","town":"SHODOJIRI","perfecture_jp":"青森県","jp_add_1":"西津軽郡深浦町","jp_add_2":"正道尻"},"0382503":{"post_code":"0382503","prefecture":"AOMORI KEN","city":"NISHITSUGARU GUN FUKAURA MACHI","town":"SEKI","perfecture_jp":"青森県","jp_add_1":"西津軽郡深浦町","jp_add_2":"関"},"0382505":{"post_code":"0382505","prefecture":"AOMORI KEN","city":"NISHITSUGARU GUN FUKAURA MACHI","town":"TANOSAWA","perfecture_jp":"青森県","jp_add_1":"西津軽郡深浦町","jp_add_2":"田野沢"},"0382322":{"post_code":"0382322","prefecture":"AOMORI KEN","city":"NISHITSUGARU GUN FUKAURA MACHI","town":"CHOKEIDAIRA","perfecture_jp":"青森県","jp_add_1":"西津軽郡深浦町","jp_add_2":"長慶平"},"0382326":{"post_code":"0382326","prefecture":"AOMORI KEN","city":"NISHITSUGARU GUN FUKAURA MACHI","town":"TSUKIYA","perfecture_jp":"青森県","jp_add_1":"西津軽郡深浦町","jp_add_2":"月屋"},"0382412":{"post_code":"0382412","prefecture":"AOMORI KEN","city":"NISHITSUGARU GUN FUKAURA MACHI","town":"TODOROKI","perfecture_jp":"青森県","jp_add_1":"西津軽郡深浦町","jp_add_2":"驫木"},"0382204":{"post_code":"0382204","prefecture":"AOMORI KEN","city":"NISHITSUGARU GUN FUKAURA MACHI","town":"HISADA","perfecture_jp":"青森県","jp_add_1":"西津軽郡深浦町","jp_add_2":"久田"},"0382321":{"post_code":"0382321","prefecture":"AOMORI KEN","city":"NISHITSUGARU GUN FUKAURA MACHI","town":"HIROTO","perfecture_jp":"青森県","jp_add_1":"西津軽郡深浦町","jp_add_2":"広戸"},"0382324":{"post_code":"0382324","prefecture":"AOMORI KEN","city":"NISHITSUGARU GUN FUKAURA MACHI","town":"FUKAURA","perfecture_jp":"青森県","jp_add_1":"西津軽郡深浦町","jp_add_2":"深浦"},"0382327":{"post_code":"0382327","prefecture":"AOMORI KEN","city":"NISHITSUGARU GUN FUKAURA MACHI","town":"HENASHI","perfecture_jp":"青森県","jp_add_1":"西津軽郡深浦町","jp_add_2":"舮作"},"0382206":{"post_code":"0382206","prefecture":"AOMORI KEN","city":"NISHITSUGARU GUN FUKAURA MACHI","town":"MATSUKAMI","perfecture_jp":"青森県","jp_add_1":"西津軽郡深浦町","jp_add_2":"松神"},"0382205":{"post_code":"0382205","prefecture":"AOMORI KEN","city":"NISHITSUGARU GUN FUKAURA MACHI","town":"MORIYAMA","perfecture_jp":"青森県","jp_add_1":"西津軽郡深浦町","jp_add_2":"森山"},"0382501":{"post_code":"0382501","prefecture":"AOMORI KEN","city":"NISHITSUGARU GUN FUKAURA MACHI","town":"YANAGITA","perfecture_jp":"青森県","jp_add_1":"西津軽郡深浦町","jp_add_2":"柳田"},"0382325":{"post_code":"0382325","prefecture":"AOMORI KEN","city":"NISHITSUGARU GUN FUKAURA MACHI","town":"YOKOISO","perfecture_jp":"青森県","jp_add_1":"西津軽郡深浦町","jp_add_2":"横磯"},"0383800":{"post_code":"0383800","prefecture":"AOMORI KEN","city":"MINAMITSUGARU GUN FUJISAKI MACHI","town":"IKANIKEISAIGANAIBAAI","perfecture_jp":"青森県","jp_add_1":"南津軽郡藤崎町","jp_add_2":""},"0383837":{"post_code":"0383837","prefecture":"AOMORI KEN","city":"MINAMITSUGARU GUN FUJISAKI MACHI","town":"KASHIWAGIZEKI","perfecture_jp":"青森県","jp_add_1":"南津軽郡藤崎町","jp_add_2":"柏木堰"},"0383833":{"post_code":"0383833","prefecture":"AOMORI KEN","city":"MINAMITSUGARU GUN FUJISAKI MACHI","town":"KAMEOKA","perfecture_jp":"青森県","jp_add_1":"南津軽郡藤崎町","jp_add_2":"亀岡"},"0381203":{"post_code":"0381203","prefecture":"AOMORI KEN","city":"MINAMITSUGARU GUN FUJISAKI MACHI","town":"GUINADATE","perfecture_jp":"青森県","jp_add_1":"南津軽郡藤崎町","jp_add_2":"久井名舘"},"0383804":{"post_code":"0383804","prefecture":"AOMORI KEN","city":"MINAMITSUGARU GUN FUJISAKI MACHI","town":"KUZUNO","perfecture_jp":"青森県","jp_add_1":"南津軽郡藤崎町","jp_add_2":"葛野"},"0381206":{"post_code":"0381206","prefecture":"AOMORI KEN","city":"MINAMITSUGARU GUN FUJISAKI MACHI","town":"GOSAMMAE","perfecture_jp":"青森県","jp_add_1":"南津軽郡藤崎町","jp_add_2":"郷山前"},"0383812":{"post_code":"0383812","prefecture":"AOMORI KEN","city":"MINAMITSUGARU GUN FUJISAKI MACHI","town":"KOBATA","perfecture_jp":"青森県","jp_add_1":"南津軽郡藤崎町","jp_add_2":"小畑"},"0383805":{"post_code":"0383805","prefecture":"AOMORI KEN","city":"MINAMITSUGARU GUN FUJISAKI MACHI","town":"GORIN","perfecture_jp":"青森県","jp_add_1":"南津軽郡藤崎町","jp_add_2":"五林"},"0381216":{"post_code":"0381216","prefecture":"AOMORI KEN","city":"MINAMITSUGARU GUN FUJISAKI MACHI","town":"SAKAKI","perfecture_jp":"青森県","jp_add_1":"南津軽郡藤崎町","jp_add_2":"榊"},"0383836":{"post_code":"0383836","prefecture":"AOMORI KEN","city":"MINAMITSUGARU GUN FUJISAKI MACHI","town":"SHIMOTAWARAMASU","perfecture_jp":"青森県","jp_add_1":"南津軽郡藤崎町","jp_add_2":"下俵舛"},"0383835":{"post_code":"0383835","prefecture":"AOMORI KEN","city":"MINAMITSUGARU GUN FUJISAKI MACHI","town":"TAWARAMASU","perfecture_jp":"青森県","jp_add_1":"南津軽郡藤崎町","jp_add_2":"俵舛"},"0381214":{"post_code":"0381214","prefecture":"AOMORI KEN","city":"MINAMITSUGARU GUN FUJISAKI MACHI","town":"TOKIWA","perfecture_jp":"青森県","jp_add_1":"南津軽郡藤崎町","jp_add_2":"常盤"},"0381213":{"post_code":"0381213","prefecture":"AOMORI KEN","city":"MINAMITSUGARU GUN FUJISAKI MACHI","town":"TOKUGE","perfecture_jp":"青森県","jp_add_1":"南津軽郡藤崎町","jp_add_2":"徳下"},"0381202":{"post_code":"0381202","prefecture":"AOMORI KEN","city":"MINAMITSUGARU GUN FUJISAKI MACHI","town":"TOMIYANAGI","perfecture_jp":"青森県","jp_add_1":"南津軽郡藤崎町","jp_add_2":"富柳"},"0383811":{"post_code":"0383811","prefecture":"AOMORI KEN","city":"MINAMITSUGARU GUN FUJISAKI MACHI","town":"NAKAJIMA","perfecture_jp":"青森県","jp_add_1":"南津軽郡藤崎町","jp_add_2":"中島"},"0383831":{"post_code":"0383831","prefecture":"AOMORI KEN","city":"MINAMITSUGARU GUN FUJISAKI MACHI","town":"NAKANOME","perfecture_jp":"青森県","jp_add_1":"南津軽郡藤崎町","jp_add_2":"中野目"},"0383803":{"post_code":"0383803","prefecture":"AOMORI KEN","city":"MINAMITSUGARU GUN FUJISAKI MACHI","town":"NISHITOYODA","perfecture_jp":"青森県","jp_add_1":"南津軽郡藤崎町","jp_add_2":"西豊田"},"0383834":{"post_code":"0383834","prefecture":"AOMORI KEN","city":"MINAMITSUGARU GUN FUJISAKI MACHI","town":"NISHINAKANOME","perfecture_jp":"青森県","jp_add_1":"南津軽郡藤崎町","jp_add_2":"西中野目"},"0383806":{"post_code":"0383806","prefecture":"AOMORI KEN","city":"MINAMITSUGARU GUN FUJISAKI MACHI","town":"HAYASHIZAKI","perfecture_jp":"青森県","jp_add_1":"南津軽郡藤崎町","jp_add_2":"林崎"},"0381211":{"post_code":"0381211","prefecture":"AOMORI KEN","city":"MINAMITSUGARU GUN FUJISAKI MACHI","town":"FUKUSHIMA","perfecture_jp":"青森県","jp_add_1":"南津軽郡藤崎町","jp_add_2":"福島"},"0381201":{"post_code":"0381201","prefecture":"AOMORI KEN","city":"MINAMITSUGARU GUN FUJISAKI MACHI","town":"FUKUDATE","perfecture_jp":"青森県","jp_add_1":"南津軽郡藤崎町","jp_add_2":"福舘"},"0383801":{"post_code":"0383801","prefecture":"AOMORI KEN","city":"MINAMITSUGARU GUN FUJISAKI MACHI","town":"FUJIKOSHI","perfecture_jp":"青森県","jp_add_1":"南津軽郡藤崎町","jp_add_2":"藤越"},"0383802":{"post_code":"0383802","prefecture":"AOMORI KEN","city":"MINAMITSUGARU GUN FUJISAKI MACHI","town":"FUJISAKI","perfecture_jp":"青森県","jp_add_1":"南津軽郡藤崎町","jp_add_2":"藤崎"},"0381207":{"post_code":"0381207","prefecture":"AOMORI KEN","city":"MINAMITSUGARU GUN FUJISAKI MACHI","town":"MASUDATE","perfecture_jp":"青森県","jp_add_1":"南津軽郡藤崎町","jp_add_2":"増館"},"0381204":{"post_code":"0381204","prefecture":"AOMORI KEN","city":"MINAMITSUGARU GUN FUJISAKI MACHI","town":"MIZUKI","perfecture_jp":"青森県","jp_add_1":"南津軽郡藤崎町","jp_add_2":"水木"},"0383814":{"post_code":"0383814","prefecture":"AOMORI KEN","city":"MINAMITSUGARU GUN FUJISAKI MACHI","town":"MIZUNUMA","perfecture_jp":"青森県","jp_add_1":"南津軽郡藤崎町","jp_add_2":"水沼"},"0381212":{"post_code":"0381212","prefecture":"AOMORI KEN","city":"MINAMITSUGARU GUN FUJISAKI MACHI","town":"MITSUYA","perfecture_jp":"青森県","jp_add_1":"南津軽郡藤崎町","jp_add_2":"三ツ屋"},"0383813":{"post_code":"0383813","prefecture":"AOMORI KEN","city":"MINAMITSUGARU GUN FUJISAKI MACHI","town":"YAZAWA","perfecture_jp":"青森県","jp_add_1":"南津軽郡藤崎町","jp_add_2":"矢沢"},"0381205":{"post_code":"0381205","prefecture":"AOMORI KEN","city":"MINAMITSUGARU GUN FUJISAKI MACHI","town":"YOSHINODA","perfecture_jp":"青森県","jp_add_1":"南津軽郡藤崎町","jp_add_2":"吉野田"},"0383832":{"post_code":"0383832","prefecture":"AOMORI KEN","city":"MINAMITSUGARU GUN FUJISAKI MACHI","town":"YOSHIMUKAI","perfecture_jp":"青森県","jp_add_1":"南津軽郡藤崎町","jp_add_2":"吉向"},"0381215":{"post_code":"0381215","prefecture":"AOMORI KEN","city":"MINAMITSUGARU GUN FUJISAKI MACHI","town":"WAKAMATSU","perfecture_jp":"青森県","jp_add_1":"南津軽郡藤崎町","jp_add_2":"若松"},"0380200":{"post_code":"0380200","prefecture":"AOMORI KEN","city":"MINAMITSUGARU GUN OWANI MACHI","town":"IKANIKEISAIGANAIBAAI","perfecture_jp":"青森県","jp_add_1":"南津軽郡大鰐町","jp_add_2":""},"0380233":{"post_code":"0380233","prefecture":"AOMORI KEN","city":"MINAMITSUGARU GUN OWANI MACHI","town":"IZUCHI","perfecture_jp":"青森県","jp_add_1":"南津軽郡大鰐町","jp_add_2":"居土"},"0380211":{"post_code":"0380211","prefecture":"AOMORI KEN","city":"MINAMITSUGARU GUN OWANI MACHI","town":"OWANI","perfecture_jp":"青森県","jp_add_1":"南津軽郡大鰐町","jp_add_2":"大鰐"},"0380204":{"post_code":"0380204","prefecture":"AOMORI KEN","city":"MINAMITSUGARU GUN OWANI MACHI","town":"KAROJI","perfecture_jp":"青森県","jp_add_1":"南津軽郡大鰐町","jp_add_2":"唐牛"},"0380212":{"post_code":"0380212","prefecture":"AOMORI KEN","city":"MINAMITSUGARU GUN OWANI MACHI","town":"KURADATE","perfecture_jp":"青森県","jp_add_1":"南津軽郡大鰐町","jp_add_2":"蔵館"},"0380203":{"post_code":"0380203","prefecture":"AOMORI KEN","city":"MINAMITSUGARU GUN OWANI MACHI","town":"KOMAKI","perfecture_jp":"青森県","jp_add_1":"南津軽郡大鰐町","jp_add_2":"駒木"},"0380241":{"post_code":"0380241","prefecture":"AOMORI KEN","city":"MINAMITSUGARU GUN OWANI MACHI","town":"SABAISHI","perfecture_jp":"青森県","jp_add_1":"南津軽郡大鰐町","jp_add_2":"鯖石"},"0380223":{"post_code":"0380223","prefecture":"AOMORI KEN","city":"MINAMITSUGARU GUN OWANI MACHI","town":"SHIMADA","perfecture_jp":"青森県","jp_add_1":"南津軽郡大鰐町","jp_add_2":"島田"},"0380231":{"post_code":"0380231","prefecture":"AOMORI KEN","city":"MINAMITSUGARU GUN OWANI MACHI","town":"SHUKUGAWARA","perfecture_jp":"青森県","jp_add_1":"南津軽郡大鰐町","jp_add_2":"宿川原"},"0380202":{"post_code":"0380202","prefecture":"AOMORI KEN","city":"MINAMITSUGARU GUN OWANI MACHI","town":"NAGAMINE","perfecture_jp":"青森県","jp_add_1":"南津軽郡大鰐町","jp_add_2":"長峰"},"0380201":{"post_code":"0380201","prefecture":"AOMORI KEN","city":"MINAMITSUGARU GUN OWANI MACHI","town":"NIGAKI","perfecture_jp":"青森県","jp_add_1":"南津軽郡大鰐町","jp_add_2":"苦木"},"0380221":{"post_code":"0380221","prefecture":"AOMORI KEN","city":"MINAMITSUGARU GUN OWANI MACHI","town":"NIJIKAI","perfecture_jp":"青森県","jp_add_1":"南津軽郡大鰐町","jp_add_2":"虹貝"},"0380243":{"post_code":"0380243","prefecture":"AOMORI KEN","city":"MINAMITSUGARU GUN OWANI MACHI","town":"HACHIMANDATE","perfecture_jp":"青森県","jp_add_1":"南津軽郡大鰐町","jp_add_2":"八幡館"},"0380222":{"post_code":"0380222","prefecture":"AOMORI KEN","city":"MINAMITSUGARU GUN OWANI MACHI","town":"HAYASENO","perfecture_jp":"青森県","jp_add_1":"南津軽郡大鰐町","jp_add_2":"早瀬野"},"0380232":{"post_code":"0380232","prefecture":"AOMORI KEN","city":"MINAMITSUGARU GUN OWANI MACHI","town":"MITSUMENAI","perfecture_jp":"青森県","jp_add_1":"南津軽郡大鰐町","jp_add_2":"三ツ目内"},"0380242":{"post_code":"0380242","prefecture":"AOMORI KEN","city":"MINAMITSUGARU GUN OWANI MACHI","town":"MORIYAMA","perfecture_jp":"青森県","jp_add_1":"南津軽郡大鰐町","jp_add_2":"森山"},"0381100":{"post_code":"0381100","prefecture":"AOMORI KEN","city":"MINAMITSUGARU GUN INAKADATE MURA","town":"IKANIKEISAIGANAIBAAI","perfecture_jp":"青森県","jp_add_1":"南津軽郡田舎館村","jp_add_2":""},"0381142":{"post_code":"0381142","prefecture":"AOMORI KEN","city":"MINAMITSUGARU GUN INAKADATE MURA","town":"IZUMI","perfecture_jp":"青森県","jp_add_1":"南津軽郡田舎館村","jp_add_2":"和泉"},"0381113":{"post_code":"0381113","prefecture":"AOMORI KEN","city":"MINAMITSUGARU GUN INAKADATE MURA","town":"INAKADATE","perfecture_jp":"青森県","jp_add_1":"南津軽郡田舎館村","jp_add_2":"田舎舘"},"0381104":{"post_code":"0381104","prefecture":"AOMORI KEN","city":"MINAMITSUGARU GUN INAKADATE MURA","town":"EDAGAWA","perfecture_jp":"青森県","jp_add_1":"南津軽郡田舎館村","jp_add_2":"枝川"},"0381133":{"post_code":"0381133","prefecture":"AOMORI KEN","city":"MINAMITSUGARU GUN INAKADATE MURA","town":"ONEKO","perfecture_jp":"青森県","jp_add_1":"南津軽郡田舎館村","jp_add_2":"大根子"},"0381131":{"post_code":"0381131","prefecture":"AOMORI KEN","city":"MINAMITSUGARU GUN INAKADATE MURA","town":"OFUKURO","perfecture_jp":"青森県","jp_add_1":"南津軽郡田舎館村","jp_add_2":"大袋"},"0381123":{"post_code":"0381123","prefecture":"AOMORI KEN","city":"MINAMITSUGARU GUN INAKADATE MURA","town":"OMAGARI","perfecture_jp":"青森県","jp_add_1":"南津軽郡田舎館村","jp_add_2":"大曲"},"0381141":{"post_code":"0381141","prefecture":"AOMORI KEN","city":"MINAMITSUGARU GUN INAKADATE MURA","town":"KAWABE","perfecture_jp":"青森県","jp_add_1":"南津軽郡田舎館村","jp_add_2":"川部"},"0381143":{"post_code":"0381143","prefecture":"AOMORI KEN","city":"MINAMITSUGARU GUN INAKADATE MURA","town":"SAKAIMORI","perfecture_jp":"青森県","jp_add_1":"南津軽郡田舎館村","jp_add_2":"境森"},"0381103":{"post_code":"0381103","prefecture":"AOMORI KEN","city":"MINAMITSUGARU GUN INAKADATE MURA","town":"JUNIKAWARA","perfecture_jp":"青森県","jp_add_1":"南津軽郡田舎館村","jp_add_2":"十二川原"},"0381132":{"post_code":"0381132","prefecture":"AOMORI KEN","city":"MINAMITSUGARU GUN INAKADATE MURA","town":"SUWADO","perfecture_jp":"青森県","jp_add_1":"南津軽郡田舎館村","jp_add_2":"諏訪堂"},"0381111":{"post_code":"0381111","prefecture":"AOMORI KEN","city":"MINAMITSUGARU GUN INAKADATE MURA","town":"TAKAHI","perfecture_jp":"青森県","jp_add_1":"南津軽郡田舎館村","jp_add_2":"高樋"},"0381112":{"post_code":"0381112","prefecture":"AOMORI KEN","city":"MINAMITSUGARU GUN INAKADATE MURA","town":"TAREYANAGI","perfecture_jp":"青森県","jp_add_1":"南津軽郡田舎館村","jp_add_2":"垂柳"},"0381145":{"post_code":"0381145","prefecture":"AOMORI KEN","city":"MINAMITSUGARU GUN INAKADATE MURA","town":"TSUCHIYAGURA","perfecture_jp":"青森県","jp_add_1":"南津軽郡田舎館村","jp_add_2":"土矢倉"},"0381101":{"post_code":"0381101","prefecture":"AOMORI KEN","city":"MINAMITSUGARU GUN INAKADATE MURA","town":"TOKOJI","perfecture_jp":"青森県","jp_add_1":"南津軽郡田舎館村","jp_add_2":"東光寺"},"0381102":{"post_code":"0381102","prefecture":"AOMORI KEN","city":"MINAMITSUGARU GUN INAKADATE MURA","town":"DONOMAE","perfecture_jp":"青森県","jp_add_1":"南津軽郡田舎館村","jp_add_2":"堂野前"},"0381134":{"post_code":"0381134","prefecture":"AOMORI KEN","city":"MINAMITSUGARU GUN INAKADATE MURA","town":"TOYOMAKI","perfecture_jp":"青森県","jp_add_1":"南津軽郡田舎館村","jp_add_2":"豊蒔"},"0381121":{"post_code":"0381121","prefecture":"AOMORI KEN","city":"MINAMITSUGARU GUN INAKADATE MURA","town":"HATAKENAKA","perfecture_jp":"青森県","jp_add_1":"南津軽郡田舎館村","jp_add_2":"畑中"},"0381122":{"post_code":"0381122","prefecture":"AOMORI KEN","city":"MINAMITSUGARU GUN INAKADATE MURA","town":"HATTANDA","perfecture_jp":"青森県","jp_add_1":"南津軽郡田舎館村","jp_add_2":"八反田"},"0381144":{"post_code":"0381144","prefecture":"AOMORI KEN","city":"MINAMITSUGARU GUN INAKADATE MURA","town":"MAETAYASHIKI","perfecture_jp":"青森県","jp_add_1":"南津軽郡田舎館村","jp_add_2":"前田屋敷"},"0383600":{"post_code":"0383600","prefecture":"AOMORI KEN","city":"KITATSUGARU GUN ITAYANAGI MACHI","town":"IKANIKEISAIGANAIBAAI","perfecture_jp":"青森県","jp_add_1":"北津軽郡板柳町","jp_add_2":""},"0383683":{"post_code":"0383683","prefecture":"AOMORI KEN","city":"KITATSUGARU GUN ITAYANAGI MACHI","town":"AKADA","perfecture_jp":"青森県","jp_add_1":"北津軽郡板柳町","jp_add_2":"赤田"},"0383651":{"post_code":"0383651","prefecture":"AOMORI KEN","city":"KITATSUGARU GUN ITAYANAGI MACHI","town":"IIDA","perfecture_jp":"青森県","jp_add_1":"北津軽郡板柳町","jp_add_2":"飯田"},"0383682":{"post_code":"0383682","prefecture":"AOMORI KEN","city":"KITATSUGARU GUN ITAYANAGI MACHI","town":"ISHINO","perfecture_jp":"青森県","jp_add_1":"北津軽郡板柳町","jp_add_2":"石野"},"0383685":{"post_code":"0383685","prefecture":"AOMORI KEN","city":"KITATSUGARU GUN ITAYANAGI MACHI","town":"ITAYACHO","perfecture_jp":"青森県","jp_add_1":"北津軽郡板柳町","jp_add_2":"いたや町"},"0383662":{"post_code":"0383662","prefecture":"AOMORI KEN","city":"KITATSUGARU GUN ITAYANAGI MACHI","town":"ITAYANAGI","perfecture_jp":"青森県","jp_add_1":"北津軽郡板柳町","jp_add_2":"板柳"},"0383642":{"post_code":"0383642","prefecture":"AOMORI KEN","city":"KITATSUGARU GUN ITAYANAGI MACHI","town":"OTA","perfecture_jp":"青森県","jp_add_1":"北津軽郡板柳町","jp_add_2":"太田"},"0383635":{"post_code":"0383635","prefecture":"AOMORI KEN","city":"KITATSUGARU GUN ITAYANAGI MACHI","town":"OTAWARA","perfecture_jp":"青森県","jp_add_1":"北津軽郡板柳町","jp_add_2":"大俵"},"0383671":{"post_code":"0383671","prefecture":"AOMORI KEN","city":"KITATSUGARU GUN ITAYANAGI MACHI","town":"KAKEOCHIBAYASHI","perfecture_jp":"青森県","jp_add_1":"北津軽郡板柳町","jp_add_2":"掛落林"},"0383632":{"post_code":"0383632","prefecture":"AOMORI KEN","city":"KITATSUGARU GUN ITAYANAGI MACHI","town":"KASHIWAGI","perfecture_jp":"青森県","jp_add_1":"北津軽郡板柳町","jp_add_2":"柏木"},"0383633":{"post_code":"0383633","prefecture":"AOMORI KEN","city":"KITATSUGARU GUN ITAYANAGI MACHI","town":"KITSUNEMORI","perfecture_jp":"青森県","jp_add_1":"北津軽郡板柳町","jp_add_2":"狐森"},"0383636":{"post_code":"0383636","prefecture":"AOMORI KEN","city":"KITATSUGARU GUN ITAYANAGI MACHI","town":"GOKIGATA","perfecture_jp":"青森県","jp_add_1":"北津軽郡板柳町","jp_add_2":"五幾形"},"0383673":{"post_code":"0383673","prefecture":"AOMORI KEN","city":"KITATSUGARU GUN ITAYANAGI MACHI","town":"KOHATA","perfecture_jp":"青森県","jp_add_1":"北津軽郡板柳町","jp_add_2":"小幡"},"0383621":{"post_code":"0383621","prefecture":"AOMORI KEN","city":"KITATSUGARU GUN ITAYANAGI MACHI","town":"GORINTAI","perfecture_jp":"青森県","jp_add_1":"北津軽郡板柳町","jp_add_2":"五林平"},"0383684":{"post_code":"0383684","prefecture":"AOMORI KEN","city":"KITATSUGARU GUN ITAYANAGI MACHI","town":"SANZENGOKU","perfecture_jp":"青森県","jp_add_1":"北津軽郡板柳町","jp_add_2":"三千石"},"0383623":{"post_code":"0383623","prefecture":"AOMORI KEN","city":"KITATSUGARU GUN ITAYANAGI MACHI","town":"JOKAIBASHI","perfecture_jp":"青森県","jp_add_1":"北津軽郡板柳町","jp_add_2":"常海橋"},"0383634":{"post_code":"0383634","prefecture":"AOMORI KEN","city":"KITATSUGARU GUN ITAYANAGI MACHI","town":"TAKAMASU","perfecture_jp":"青森県","jp_add_1":"北津軽郡板柳町","jp_add_2":"高増"},"0383624":{"post_code":"0383624","prefecture":"AOMORI KEN","city":"KITATSUGARU GUN ITAYANAGI MACHI","town":"TAKII","perfecture_jp":"青森県","jp_add_1":"北津軽郡板柳町","jp_add_2":"滝井"},"0383625":{"post_code":"0383625","prefecture":"AOMORI KEN","city":"KITATSUGARU GUN ITAYANAGI MACHI","town":"TATENOKOSHI","perfecture_jp":"青森県","jp_add_1":"北津軽郡板柳町","jp_add_2":"舘野越"},"0383645":{"post_code":"0383645","prefecture":"AOMORI KEN","city":"KITATSUGARU GUN ITAYANAGI MACHI","town":"TSUJI","perfecture_jp":"青森県","jp_add_1":"北津軽郡板柳町","jp_add_2":"辻"},"0383643":{"post_code":"0383643","prefecture":"AOMORI KEN","city":"KITATSUGARU GUN ITAYANAGI MACHI","town":"NAGANO","perfecture_jp":"青森県","jp_add_1":"北津軽郡板柳町","jp_add_2":"長野"},"0383681":{"post_code":"0383681","prefecture":"AOMORI KEN","city":"KITATSUGARU GUN ITAYANAGI MACHI","town":"NONAKA","perfecture_jp":"青森県","jp_add_1":"北津軽郡板柳町","jp_add_2":"野中"},"0383672":{"post_code":"0383672","prefecture":"AOMORI KEN","city":"KITATSUGARU GUN ITAYANAGI MACHI","town":"HAINUMA","perfecture_jp":"青森県","jp_add_1":"北津軽郡板柳町","jp_add_2":"灰沼"},"0383641":{"post_code":"0383641","prefecture":"AOMORI KEN","city":"KITATSUGARU GUN ITAYANAGI MACHI","town":"FUKAMI","perfecture_jp":"青森県","jp_add_1":"北津軽郡板柳町","jp_add_2":"深味"},"0383661":{"post_code":"0383661","prefecture":"AOMORI KEN","city":"KITATSUGARU GUN ITAYANAGI MACHI","town":"FUKUNODA","perfecture_jp":"青森県","jp_add_1":"北津軽郡板柳町","jp_add_2":"福野田"},"0383631":{"post_code":"0383631","prefecture":"AOMORI KEN","city":"KITATSUGARU GUN ITAYANAGI MACHI","town":"BOTAMMORI","perfecture_jp":"青森県","jp_add_1":"北津軽郡板柳町","jp_add_2":"牡丹森"},"0383622":{"post_code":"0383622","prefecture":"AOMORI KEN","city":"KITATSUGARU GUN ITAYANAGI MACHI","town":"YUGAOZEKI","perfecture_jp":"青森県","jp_add_1":"北津軽郡板柳町","jp_add_2":"夕顔関"},"0383644":{"post_code":"0383644","prefecture":"AOMORI KEN","city":"KITATSUGARU GUN ITAYANAGI MACHI","town":"YOKOSAWA","perfecture_jp":"青森県","jp_add_1":"北津軽郡板柳町","jp_add_2":"横沢"},"0383500":{"post_code":"0383500","prefecture":"AOMORI KEN","city":"KITATSUGARU GUN TSURUTA MACHI","town":"IKANIKEISAIGANAIBAAI","perfecture_jp":"青森県","jp_add_1":"北津軽郡鶴田町","jp_add_2":""},"0383501":{"post_code":"0383501","prefecture":"AOMORI KEN","city":"KITATSUGARU GUN TSURUTA MACHI","town":"OMAKI","perfecture_jp":"青森県","jp_add_1":"北津軽郡鶴田町","jp_add_2":"大巻"},"0383513":{"post_code":"0383513","prefecture":"AOMORI KEN","city":"KITATSUGARU GUN TSURUTA MACHI","town":"OKI","perfecture_jp":"青森県","jp_add_1":"北津軽郡鶴田町","jp_add_2":"沖"},"0383541":{"post_code":"0383541","prefecture":"AOMORI KEN","city":"KITATSUGARU GUN TSURUTA MACHI","town":"OHARA","perfecture_jp":"青森県","jp_add_1":"北津軽郡鶴田町","jp_add_2":"尾原"},"0383531":{"post_code":"0383531","prefecture":"AOMORI KEN","city":"KITATSUGARU GUN TSURUTA MACHI","town":"KIZUTSU","perfecture_jp":"青森県","jp_add_1":"北津軽郡鶴田町","jp_add_2":"木筒"},"0383523":{"post_code":"0383523","prefecture":"AOMORI KEN","city":"KITATSUGARU GUN TSURUTA MACHI","town":"KURUMIDATE","perfecture_jp":"青森県","jp_add_1":"北津軽郡鶴田町","jp_add_2":"胡桃舘"},"0383502":{"post_code":"0383502","prefecture":"AOMORI KEN","city":"KITATSUGARU GUN TSURUTA MACHI","town":"KOWAMAKI","perfecture_jp":"青森県","jp_add_1":"北津軽郡鶴田町","jp_add_2":"強巻"},"0383524":{"post_code":"0383524","prefecture":"AOMORI KEN","city":"KITATSUGARU GUN TSURUTA MACHI","town":"SAKAI","perfecture_jp":"青森県","jp_add_1":"北津軽郡鶴田町","jp_add_2":"境"},"0383521":{"post_code":"0383521","prefecture":"AOMORI KEN","city":"KITATSUGARU GUN TSURUTA MACHI","town":"SHOBUKAWA","perfecture_jp":"青森県","jp_add_1":"北津軽郡鶴田町","jp_add_2":"菖蒲川"},"0383512":{"post_code":"0383512","prefecture":"AOMORI KEN","city":"KITATSUGARU GUN TSURUTA MACHI","town":"SERAZAWA","perfecture_jp":"青森県","jp_add_1":"北津軽郡鶴田町","jp_add_2":"瀬良沢"},"0383525":{"post_code":"0383525","prefecture":"AOMORI KEN","city":"KITATSUGARU GUN TSURUTA MACHI","town":"DAISHO","perfecture_jp":"青森県","jp_add_1":"北津軽郡鶴田町","jp_add_2":"大性"},"0383503":{"post_code":"0383503","prefecture":"AOMORI KEN","city":"KITATSUGARU GUN TSURUTA MACHI","town":"TSURUTA","perfecture_jp":"青森県","jp_add_1":"北津軽郡鶴田町","jp_add_2":"鶴田"},"0383522":{"post_code":"0383522","prefecture":"AOMORI KEN","city":"KITATSUGARU GUN TSURUTA MACHI","town":"TSURUDOMARI","perfecture_jp":"青森県","jp_add_1":"北津軽郡鶴田町","jp_add_2":"鶴泊"},"0383514":{"post_code":"0383514","prefecture":"AOMORI KEN","city":"KITATSUGARU GUN TSURUTA MACHI","town":"NAKANO","perfecture_jp":"青森県","jp_add_1":"北津軽郡鶴田町","jp_add_2":"中野"},"0383532":{"post_code":"0383532","prefecture":"AOMORI KEN","city":"KITATSUGARU GUN TSURUTA MACHI","town":"NOGI","perfecture_jp":"青森県","jp_add_1":"北津軽郡鶴田町","jp_add_2":"野木"},"0383542":{"post_code":"0383542","prefecture":"AOMORI KEN","city":"KITATSUGARU GUN TSURUTA MACHI","town":"MAWARIZEKI","perfecture_jp":"青森県","jp_add_1":"北津軽郡鶴田町","jp_add_2":"廻堰"},"0383543":{"post_code":"0383543","prefecture":"AOMORI KEN","city":"KITATSUGARU GUN TSURUTA MACHI","town":"MYODOZAKI","perfecture_jp":"青森県","jp_add_1":"北津軽郡鶴田町","jp_add_2":"妙堂崎"},"0383515":{"post_code":"0383515","prefecture":"AOMORI KEN","city":"KITATSUGARU GUN TSURUTA MACHI","town":"YAMAMICHI","perfecture_jp":"青森県","jp_add_1":"北津軽郡鶴田町","jp_add_2":"山道"},"0383511":{"post_code":"0383511","prefecture":"AOMORI KEN","city":"KITATSUGARU GUN TSURUTA MACHI","town":"YOKOYACHI","perfecture_jp":"青森県","jp_add_1":"北津軽郡鶴田町","jp_add_2":"横萢"}}