{"0393501":{"post_code":"0393501","prefecture":"AOMORI KEN","city":"AOMORI SHI","town":"ASAMUSHI","perfecture_jp":"青森県","jp_add_1":"青森市","jp_add_2":"浅虫"},"0393502":{"post_code":"0393502","prefecture":"AOMORI KEN","city":"AOMORI SHI","town":"KUGURIZAKA","perfecture_jp":"青森県","jp_add_1":"青森市","jp_add_2":"久栗坂"},"0393506":{"post_code":"0393506","prefecture":"AOMORI KEN","city":"AOMORI SHI","town":"SAMBONGI","perfecture_jp":"青森県","jp_add_1":"青森市","jp_add_2":"三本木"},"0393524":{"post_code":"0393524","prefecture":"AOMORI KEN","city":"AOMORI SHI","town":"TAKISAWA(SONOTA)","perfecture_jp":"青森県","jp_add_1":"青森市","jp_add_2":"滝沢"},"0393503":{"post_code":"0393503","prefecture":"AOMORI KEN","city":"AOMORI SHI","town":"NONAI","perfecture_jp":"青森県","jp_add_1":"青森市","jp_add_2":"野内"},"0393507":{"post_code":"0393507","prefecture":"AOMORI KEN","city":"AOMORI SHI","town":"MAYAJIRI","perfecture_jp":"青森県","jp_add_1":"青森市","jp_add_2":"馬屋尻"},"0393505":{"post_code":"0393505","prefecture":"AOMORI KEN","city":"AOMORI SHI","town":"MIYATA","perfecture_jp":"青森県","jp_add_1":"青森市","jp_add_2":"宮田"},"0393504":{"post_code":"0393504","prefecture":"AOMORI KEN","city":"AOMORI SHI","town":"YADA","perfecture_jp":"青森県","jp_add_1":"青森市","jp_add_2":"矢田"},"0391165":{"post_code":"0391165","prefecture":"AOMORI KEN","city":"HACHINOHE SHI","town":"ISHIDO","perfecture_jp":"青森県","jp_add_1":"八戸市","jp_add_2":"石堂"},"0392241":{"post_code":"0392241","prefecture":"AOMORI KEN","city":"HACHINOHE SHI","town":"ICHIKAWAMACHI","perfecture_jp":"青森県","jp_add_1":"八戸市","jp_add_2":"市川町"},"0391102":{"post_code":"0391102","prefecture":"AOMORI KEN","city":"HACHINOHE SHI","town":"ICHIBANCHO","perfecture_jp":"青森県","jp_add_1":"八戸市","jp_add_2":"一番町"},"0391108":{"post_code":"0391108","prefecture":"AOMORI KEN","city":"HACHINOHE SHI","town":"UWANO","perfecture_jp":"青森県","jp_add_1":"八戸市","jp_add_2":"上野"},"0391121":{"post_code":"0391121","prefecture":"AOMORI KEN","city":"HACHINOHE SHI","town":"OROSHISENTA","perfecture_jp":"青森県","jp_add_1":"八戸市","jp_add_2":"卸センター"},"0391161":{"post_code":"0391161","prefecture":"AOMORI KEN","city":"HACHINOHE SHI","town":"KAWARAGI","perfecture_jp":"青森県","jp_add_1":"八戸市","jp_add_2":"河原木"},"0392246":{"post_code":"0392246","prefecture":"AOMORI KEN","city":"HACHINOHE SHI","town":"KIKYONOKOGYODANCHI","perfecture_jp":"青森県","jp_add_1":"八戸市","jp_add_2":"桔梗野工業団地"},"0392245":{"post_code":"0392245","prefecture":"AOMORI KEN","city":"HACHINOHE SHI","town":"KITAINTAKOGYODANCHI","perfecture_jp":"青森県","jp_add_1":"八戸市","jp_add_2":"北インター工業団地"},"0391114":{"post_code":"0391114","prefecture":"AOMORI KEN","city":"HACHINOHE SHI","town":"KITAHAKUSANDAI","perfecture_jp":"青森県","jp_add_1":"八戸市","jp_add_2":"北白山台"},"0391107":{"post_code":"0391107","prefecture":"AOMORI KEN","city":"HACHINOHE SHI","town":"KUSHIBIKI(SONOTA)","perfecture_jp":"青森県","jp_add_1":"八戸市","jp_add_2":"櫛引"},"0391160":{"post_code":"0391160","prefecture":"AOMORI KEN","city":"HACHINOHE SHI","town":"KODA","perfecture_jp":"青森県","jp_add_1":"八戸市","jp_add_2":"小田"},"0391106":{"post_code":"0391106","prefecture":"AOMORI KEN","city":"HACHINOHE SHI","town":"SAKAUSHI","perfecture_jp":"青森県","jp_add_1":"八戸市","jp_add_2":"坂牛"},"0391167":{"post_code":"0391167","prefecture":"AOMORI KEN","city":"HACHINOHE SHI","town":"SAWASATO","perfecture_jp":"青森県","jp_add_1":"八戸市","jp_add_2":"沢里"},"0391164":{"post_code":"0391164","prefecture":"AOMORI KEN","city":"HACHINOHE SHI","town":"SHIMONAGA","perfecture_jp":"青森県","jp_add_1":"八戸市","jp_add_2":"下長"},"0391101":{"post_code":"0391101","prefecture":"AOMORI KEN","city":"HACHINOHE SHI","town":"SHIRIUCHIMACHI","perfecture_jp":"青森県","jp_add_1":"八戸市","jp_add_2":"尻内町"},"0391163":{"post_code":"0391163","prefecture":"AOMORI KEN","city":"HACHINOHE SHI","town":"TAKASU","perfecture_jp":"青森県","jp_add_1":"八戸市","jp_add_2":"高州"},"0392242":{"post_code":"0392242","prefecture":"AOMORI KEN","city":"HACHINOHE SHI","town":"TAGADAI","perfecture_jp":"青森県","jp_add_1":"八戸市","jp_add_2":"多賀台"},"0391104":{"post_code":"0391104","prefecture":"AOMORI KEN","city":"HACHINOHE SHI","town":"TAMONOKI","perfecture_jp":"青森県","jp_add_1":"八戸市","jp_add_2":"田面木"},"0391109":{"post_code":"0391109","prefecture":"AOMORI KEN","city":"HACHINOHE SHI","town":"TOYOSAKIMACHI","perfecture_jp":"青森県","jp_add_1":"八戸市","jp_add_2":"豊崎町"},"0391162":{"post_code":"0391162","prefecture":"AOMORI KEN","city":"HACHINOHE SHI","town":"TOYOSU","perfecture_jp":"青森県","jp_add_1":"八戸市","jp_add_2":"豊洲"},"0391103":{"post_code":"0391103","prefecture":"AOMORI KEN","city":"HACHINOHE SHI","town":"NAGANAWASHIRO","perfecture_jp":"青森県","jp_add_1":"八戸市","jp_add_2":"長苗代"},"0391113":{"post_code":"0391113","prefecture":"AOMORI KEN","city":"HACHINOHE SHI","town":"NISHIHAKUSANDAI","perfecture_jp":"青森県","jp_add_1":"八戸市","jp_add_2":"西白山台"},"0391166":{"post_code":"0391166","prefecture":"AOMORI KEN","city":"HACHINOHE SHI","town":"NEJO","perfecture_jp":"青森県","jp_add_1":"八戸市","jp_add_2":"根城"},"0391168":{"post_code":"0391168","prefecture":"AOMORI KEN","city":"HACHINOHE SHI","town":"HATTARO","perfecture_jp":"青森県","jp_add_1":"八戸市","jp_add_2":"八太郎"},"0391111":{"post_code":"0391111","prefecture":"AOMORI KEN","city":"HACHINOHE SHI","town":"HIGASHIHAKUSANDAI","perfecture_jp":"青森県","jp_add_1":"八戸市","jp_add_2":"東白山台"},"0391169":{"post_code":"0391169","prefecture":"AOMORI KEN","city":"HACHINOHE SHI","town":"HIBAKARI","perfecture_jp":"青森県","jp_add_1":"八戸市","jp_add_2":"日計"},"0392243":{"post_code":"0392243","prefecture":"AOMORI KEN","city":"HACHINOHE SHI","town":"MATSUGAOKA","perfecture_jp":"青森県","jp_add_1":"八戸市","jp_add_2":"松ケ丘"},"0391112":{"post_code":"0391112","prefecture":"AOMORI KEN","city":"HACHINOHE SHI","town":"MINAMIHAKUSANDAI","perfecture_jp":"青森県","jp_add_1":"八戸市","jp_add_2":"南白山台"},"0391105":{"post_code":"0391105","prefecture":"AOMORI KEN","city":"HACHINOHE SHI","town":"YAWATA","perfecture_jp":"青森県","jp_add_1":"八戸市","jp_add_2":"八幡"},"0394401":{"post_code":"0394401","prefecture":"AOMORI KEN","city":"MUTSU SHI","town":"OHATAMACHI","perfecture_jp":"青森県","jp_add_1":"むつ市","jp_add_2":"大畑町"},"0394402":{"post_code":"0394402","prefecture":"AOMORI KEN","city":"MUTSU SHI","town":"OHATAMACHI SHOZUGAWA","perfecture_jp":"青森県","jp_add_1":"むつ市","jp_add_2":"大畑町正津川"},"0395204":{"post_code":"0395204","prefecture":"AOMORI KEN","city":"MUTSU SHI","town":"KAWAUCHIMACHI KAKIZAKI(SONOTA)","perfecture_jp":"青森県","jp_add_1":"むつ市","jp_add_2":"川内町蛎崎"},"0395304":{"post_code":"0395304","prefecture":"AOMORI KEN","city":"MUTSU SHI","town":"KAWAUCHIMACHI KAKIZAKI(HANEMONZAWA)","perfecture_jp":"青森県","jp_add_1":"むつ市","jp_add_2":"川内町蛎崎"},"0395203":{"post_code":"0395203","prefecture":"AOMORI KEN","city":"MUTSU SHI","town":"KAWAUCHIMACHI SHUKUNOHE","perfecture_jp":"青森県","jp_add_1":"むつ市","jp_add_2":"川内町宿野部"},"0395202":{"post_code":"0395202","prefecture":"AOMORI KEN","city":"MUTSU SHI","town":"KAWAUCHIMACHI HINOKIGAWA","perfecture_jp":"青森県","jp_add_1":"むつ市","jp_add_2":"川内町桧川"},"0394701":{"post_code":"0394701","prefecture":"AOMORI KEN","city":"MUTSU SHI","town":"KAWAUCHIMACHI(ITAGEDO.NODAI.FUKURAY","perfecture_jp":"青森県","jp_add_1":"むつ市","jp_add_2":"川内町"},"0395201":{"post_code":"0395201","prefecture":"AOMORI KEN","city":"MUTSU SHI","town":"KAWAUCHIMACHI(SONOTA)","perfecture_jp":"青森県","jp_add_1":"むつ市","jp_add_2":"川内町"},"0395345":{"post_code":"0395345","prefecture":"AOMORI KEN","city":"MUTSU SHI","town":"WAKINOSAWA AKASAKA","perfecture_jp":"青森県","jp_add_1":"むつ市","jp_add_2":"脇野沢赤坂"},"0395344":{"post_code":"0395344","prefecture":"AOMORI KEN","city":"MUTSU SHI","town":"WAKINOSAWA INADAIRA","perfecture_jp":"青森県","jp_add_1":"むつ市","jp_add_2":"脇野沢稲平"},"0395326":{"post_code":"0395326","prefecture":"AOMORI KEN","city":"MUTSU SHI","town":"WAKINOSAWA KATSURAZAWA","perfecture_jp":"青森県","jp_add_1":"むつ市","jp_add_2":"脇野沢桂沢"},"0395335":{"post_code":"0395335","prefecture":"AOMORI KEN","city":"MUTSU SHI","town":"WAKINOSAWA KINAMI","perfecture_jp":"青森県","jp_add_1":"むつ市","jp_add_2":"脇野沢寄浪"},"0395337":{"post_code":"0395337","prefecture":"AOMORI KEN","city":"MUTSU SHI","town":"WAKINOSAWA KUSODOMARI","perfecture_jp":"青森県","jp_add_1":"むつ市","jp_add_2":"脇野沢九艘泊"},"0395346":{"post_code":"0395346","prefecture":"AOMORI KEN","city":"MUTSU SHI","town":"WAKINOSAWA KUCHIHIRO","perfecture_jp":"青森県","jp_add_1":"むつ市","jp_add_2":"脇野沢口広"},"0395333":{"post_code":"0395333","prefecture":"AOMORI KEN","city":"MUTSU SHI","town":"WAKINOSAWA KUROIWA","perfecture_jp":"青森県","jp_add_1":"むつ市","jp_add_2":"脇野沢黒岩"},"0395321":{"post_code":"0395321","prefecture":"AOMORI KEN","city":"MUTSU SHI","town":"WAKINOSAWA GENDOSHIRO","perfecture_jp":"青森県","jp_add_1":"むつ市","jp_add_2":"脇野沢源藤城"},"0395343":{"post_code":"0395343","prefecture":"AOMORI KEN","city":"MUTSU SHI","town":"WAKINOSAWA KOSASAWA","perfecture_jp":"青森県","jp_add_1":"むつ市","jp_add_2":"脇野沢小サ沢"},"0395342":{"post_code":"0395342","prefecture":"AOMORI KEN","city":"MUTSU SHI","town":"WAKINOSAWA KOZAWA","perfecture_jp":"青森県","jp_add_1":"むつ市","jp_add_2":"脇野沢小沢"},"0395341":{"post_code":"0395341","prefecture":"AOMORI KEN","city":"MUTSU SHI","town":"WAKINOSAWA SHIKAMADAIRA","perfecture_jp":"青森県","jp_add_1":"むつ市","jp_add_2":"脇野沢鹿間平"},"0395323":{"post_code":"0395323","prefecture":"AOMORI KEN","city":"MUTSU SHI","town":"WAKINOSAWA SHICHIBIKI","perfecture_jp":"青森県","jp_add_1":"むつ市","jp_add_2":"脇野沢七引"},"0395332":{"post_code":"0395332","prefecture":"AOMORI KEN","city":"MUTSU SHI","town":"WAKINOSAWA SENOKAWAME","perfecture_jp":"青森県","jp_add_1":"むつ市","jp_add_2":"脇野沢瀬野川目"},"0395322":{"post_code":"0395322","prefecture":"AOMORI KEN","city":"MUTSU SHI","town":"WAKINOSAWA TAKIYAMA","perfecture_jp":"青森県","jp_add_1":"むつ市","jp_add_2":"脇野沢滝山"},"0395336":{"post_code":"0395336","prefecture":"AOMORI KEN","city":"MUTSU SHI","town":"WAKINOSAWA TAKODA","perfecture_jp":"青森県","jp_add_1":"むつ市","jp_add_2":"脇野沢蛸田"},"0395325":{"post_code":"0395325","prefecture":"AOMORI KEN","city":"MUTSU SHI","town":"WAKINOSAWA TATSUCHI","perfecture_jp":"青森県","jp_add_1":"むつ市","jp_add_2":"脇野沢辰内"},"0395324":{"post_code":"0395324","prefecture":"AOMORI KEN","city":"MUTSU SHI","town":"WAKINOSAWA TANOKASHIRA","perfecture_jp":"青森県","jp_add_1":"むつ市","jp_add_2":"脇野沢田ノ頭"},"0395334":{"post_code":"0395334","prefecture":"AOMORI KEN","city":"MUTSU SHI","town":"WAKINOSAWA NIIDA","perfecture_jp":"青森県","jp_add_1":"むつ市","jp_add_2":"脇野沢新井田"},"0395327":{"post_code":"0395327","prefecture":"AOMORI KEN","city":"MUTSU SHI","town":"WAKINOSAWA HONSON","perfecture_jp":"青森県","jp_add_1":"むつ市","jp_add_2":"脇野沢本村"},"0395331":{"post_code":"0395331","prefecture":"AOMORI KEN","city":"MUTSU SHI","town":"WAKINOSAWA WATAMUKAI","perfecture_jp":"青森県","jp_add_1":"むつ市","jp_add_2":"脇野沢渡向"},"0393300":{"post_code":"0393300","prefecture":"AOMORI KEN","city":"HIGASHITSUGARU GUN HIRANAI MACHI","town":"IKANIKEISAIGANAIBAAI","perfecture_jp":"青森県","jp_add_1":"東津軽郡平内町","jp_add_2":""},"0393312":{"post_code":"0393312","prefecture":"AOMORI KEN","city":"HIGASHITSUGARU GUN HIRANAI MACHI","town":"ASADOKORO","perfecture_jp":"青森県","jp_add_1":"東津軽郡平内町","jp_add_2":"浅所"},"0393364":{"post_code":"0393364","prefecture":"AOMORI KEN","city":"HIGASHITSUGARU GUN HIRANAI MACHI","town":"AZUKISAWA","perfecture_jp":"青森県","jp_add_1":"東津軽郡平内町","jp_add_2":"小豆沢"},"0393382":{"post_code":"0393382","prefecture":"AOMORI KEN","city":"HIGASHITSUGARU GUN HIRANAI MACHI","town":"INO","perfecture_jp":"青森県","jp_add_1":"東津軽郡平内町","jp_add_2":"稲生"},"0393352":{"post_code":"0393352","prefecture":"AOMORI KEN","city":"HIGASHITSUGARU GUN HIRANAI MACHI","town":"UCHIDOJI","perfecture_jp":"青森県","jp_add_1":"東津軽郡平内町","jp_add_2":"内童子"},"0393343":{"post_code":"0393343","prefecture":"AOMORI KEN","city":"HIGASHITSUGARU GUN HIRANAI MACHI","town":"KARIBASAWA","perfecture_jp":"青森県","jp_add_1":"東津軽郡平内町","jp_add_2":"狩場沢"},"0393342":{"post_code":"0393342","prefecture":"AOMORI KEN","city":"HIGASHITSUGARU GUN HIRANAI MACHI","town":"KUCHIHIRO","perfecture_jp":"青森県","jp_add_1":"東津軽郡平内町","jp_add_2":"口広"},"0393321":{"post_code":"0393321","prefecture":"AOMORI KEN","city":"HIGASHITSUGARU GUN HIRANAI MACHI","town":"KOMINATO","perfecture_jp":"青森県","jp_add_1":"東津軽郡平内町","jp_add_2":"小湊"},"0393332":{"post_code":"0393332","prefecture":"AOMORI KEN","city":"HIGASHITSUGARU GUN HIRANAI MACHI","town":"SHIMIZUGAWA","perfecture_jp":"青森県","jp_add_1":"東津軽郡平内町","jp_add_2":"清水川"},"0393302":{"post_code":"0393302","prefecture":"AOMORI KEN","city":"HIGASHITSUGARU GUN HIRANAI MACHI","town":"SHIRASU","perfecture_jp":"青森県","jp_add_1":"東津軽郡平内町","jp_add_2":"白砂"},"0393351":{"post_code":"0393351","prefecture":"AOMORI KEN","city":"HIGASHITSUGARU GUN HIRANAI MACHI","town":"SOTODOJI","perfecture_jp":"青森県","jp_add_1":"東津軽郡平内町","jp_add_2":"外童子"},"0393353":{"post_code":"0393353","prefecture":"AOMORI KEN","city":"HIGASHITSUGARU GUN HIRANAI MACHI","town":"TAMOGI","perfecture_jp":"青森県","jp_add_1":"東津軽郡平内町","jp_add_2":"田茂木"},"0393372":{"post_code":"0393372","prefecture":"AOMORI KEN","city":"HIGASHITSUGARU GUN HIRANAI MACHI","town":"TSUCHIYA","perfecture_jp":"青森県","jp_add_1":"東津軽郡平内町","jp_add_2":"土屋"},"0393371":{"post_code":"0393371","prefecture":"AOMORI KEN","city":"HIGASHITSUGARU GUN HIRANAI MACHI","town":"NAKANO","perfecture_jp":"青森県","jp_add_1":"東津軽郡平内町","jp_add_2":"中野"},"0393373":{"post_code":"0393373","prefecture":"AOMORI KEN","city":"HIGASHITSUGARU GUN HIRANAI MACHI","town":"NAMIUCHI","perfecture_jp":"青森県","jp_add_1":"東津軽郡平内町","jp_add_2":"浪打"},"0393313":{"post_code":"0393313","prefecture":"AOMORI KEN","city":"HIGASHITSUGARU GUN HIRANAI MACHI","town":"NUMADATE","perfecture_jp":"青森県","jp_add_1":"東津軽郡平内町","jp_add_2":"沼館"},"0393331":{"post_code":"0393331","prefecture":"AOMORI KEN","city":"HIGASHITSUGARU GUN HIRANAI MACHI","town":"HAMAGO","perfecture_jp":"青森県","jp_add_1":"東津軽郡平内町","jp_add_2":"浜子"},"0393303":{"post_code":"0393303","prefecture":"AOMORI KEN","city":"HIGASHITSUGARU GUN HIRANAI MACHI","town":"HIGASHITAKI","perfecture_jp":"青森県","jp_add_1":"東津軽郡平内町","jp_add_2":"東滝"},"0393301":{"post_code":"0393301","prefecture":"AOMORI KEN","city":"HIGASHITSUGARU GUN HIRANAI MACHI","town":"HIGASHITAZAWA","perfecture_jp":"青森県","jp_add_1":"東津軽郡平内町","jp_add_2":"東田沢"},"0393315":{"post_code":"0393315","prefecture":"AOMORI KEN","city":"HIGASHITSUGARU GUN HIRANAI MACHI","town":"FUKUSHIMA","perfecture_jp":"青森県","jp_add_1":"東津軽郡平内町","jp_add_2":"福島"},"0393311":{"post_code":"0393311","prefecture":"AOMORI KEN","city":"HIGASHITSUGARU GUN HIRANAI MACHI","town":"FUKUDATE","perfecture_jp":"青森県","jp_add_1":"東津軽郡平内町","jp_add_2":"福館"},"0393361":{"post_code":"0393361","prefecture":"AOMORI KEN","city":"HIGASHITSUGARU GUN HIRANAI MACHI","town":"FUJISAWA","perfecture_jp":"青森県","jp_add_1":"東津軽郡平内町","jp_add_2":"藤沢"},"0393362":{"post_code":"0393362","prefecture":"AOMORI KEN","city":"HIGASHITSUGARU GUN HIRANAI MACHI","town":"MASUTA","perfecture_jp":"青森県","jp_add_1":"東津軽郡平内町","jp_add_2":"増田"},"0393333":{"post_code":"0393333","prefecture":"AOMORI KEN","city":"HIGASHITSUGARU GUN HIRANAI MACHI","town":"MATSUNOKI","perfecture_jp":"青森県","jp_add_1":"東津軽郡平内町","jp_add_2":"松野木"},"0393381":{"post_code":"0393381","prefecture":"AOMORI KEN","city":"HIGASHITSUGARU GUN HIRANAI MACHI","town":"MORA","perfecture_jp":"青森県","jp_add_1":"東津軽郡平内町","jp_add_2":"茂浦"},"0393314":{"post_code":"0393314","prefecture":"AOMORI KEN","city":"HIGASHITSUGARU GUN HIRANAI MACHI","town":"MORITA","perfecture_jp":"青森県","jp_add_1":"東津軽郡平内町","jp_add_2":"盛田"},"0393341":{"post_code":"0393341","prefecture":"AOMORI KEN","city":"HIGASHITSUGARU GUN HIRANAI MACHI","town":"YAKUSHINO","perfecture_jp":"青森県","jp_add_1":"東津軽郡平内町","jp_add_2":"薬師野"},"0393363":{"post_code":"0393363","prefecture":"AOMORI KEN","city":"HIGASHITSUGARU GUN HIRANAI MACHI","town":"YAMAGUCHI","perfecture_jp":"青森県","jp_add_1":"東津軽郡平内町","jp_add_2":"山口"},"0393100":{"post_code":"0393100","prefecture":"AOMORI KEN","city":"KAMIKITA GUN NOHEJI MACHI","town":"IKANIKEISAIGANAIBAAI","perfecture_jp":"青森県","jp_add_1":"上北郡野辺地町","jp_add_2":""},"0393116":{"post_code":"0393116","prefecture":"AOMORI KEN","city":"KAMIKITA GUN NOHEJI MACHI","town":"AKASAKA","perfecture_jp":"青森県","jp_add_1":"上北郡野辺地町","jp_add_2":"赤坂"},"0393108":{"post_code":"0393108","prefecture":"AOMORI KEN","city":"KAMIKITA GUN NOHEJI MACHI","town":"NAKATA","perfecture_jp":"青森県","jp_add_1":"上北郡野辺地町","jp_add_2":"有戸"},"0393105":{"post_code":"0393105","prefecture":"AOMORI KEN","city":"KAMIKITA GUN NOHEJI MACHI","town":"HIKUSABASHI","perfecture_jp":"青森県","jp_add_1":"上北郡野辺地町","jp_add_2":"有戸鳥井平"},"0393178":{"post_code":"0393178","prefecture":"AOMORI KEN","city":"KAMIKITA GUN NOHEJI MACHI","town":"IENOE","perfecture_jp":"青森県","jp_add_1":"上北郡野辺地町","jp_add_2":"家ノ上"},"0393111":{"post_code":"0393111","prefecture":"AOMORI KEN","city":"KAMIKITA GUN NOHEJI MACHI","town":"ISHIGAMIURA","perfecture_jp":"青森県","jp_add_1":"上北郡野辺地町","jp_add_2":"石神裏"},"0393144":{"post_code":"0393144","prefecture":"AOMORI KEN","city":"KAMIKITA GUN NOHEJI MACHI","town":"ICHINOWATARI","perfecture_jp":"青森県","jp_add_1":"上北郡野辺地町","jp_add_2":"一ノ渡"},"0393174":{"post_code":"0393174","prefecture":"AOMORI KEN","city":"KAMIKITA GUN NOHEJI MACHI","town":"TABATA","perfecture_jp":"青森県","jp_add_1":"上北郡野辺地町","jp_add_2":"大平下"},"0393104":{"post_code":"0393104","prefecture":"AOMORI KEN","city":"KAMIKITA GUN NOHEJI MACHI","town":"OTSUKITAI","perfecture_jp":"青森県","jp_add_1":"上北郡野辺地町","jp_add_2":"大月平"},"0393107":{"post_code":"0393107","prefecture":"AOMORI KEN","city":"KAMIKITA GUN NOHEJI MACHI","town":"OZAWADAI","perfecture_jp":"青森県","jp_add_1":"上北郡野辺地町","jp_add_2":"小沢平"},"0393106":{"post_code":"0393106","prefecture":"AOMORI KEN","city":"KAMIKITA GUN NOHEJI MACHI","town":"MYOMAE","perfecture_jp":"青森県","jp_add_1":"上北郡野辺地町","jp_add_2":"蟹田"},"0393127":{"post_code":"0393127","prefecture":"AOMORI KEN","city":"KAMIKITA GUN NOHEJI MACHI","town":"KAMIKAWARA","perfecture_jp":"青森県","jp_add_1":"上北郡野辺地町","jp_add_2":"上川原"},"0393154":{"post_code":"0393154","prefecture":"AOMORI KEN","city":"KAMIKITA GUN NOHEJI MACHI","town":"KAMIKONAKANO","perfecture_jp":"青森県","jp_add_1":"上北郡野辺地町","jp_add_2":"上小中野"},"0393128":{"post_code":"0393128","prefecture":"AOMORI KEN","city":"KAMIKITA GUN NOHEJI MACHI","town":"HIRUBA","perfecture_jp":"青森県","jp_add_1":"上北郡野辺地町","jp_add_2":"上前田"},"0393171":{"post_code":"0393171","prefecture":"AOMORI KEN","city":"KAMIKITA GUN NOHEJI MACHI","town":"MITARASE","perfecture_jp":"青森県","jp_add_1":"上北郡野辺地町","jp_add_2":"上御手洗瀬"},"0393143":{"post_code":"0393143","prefecture":"AOMORI KEN","city":"KAMIKITA GUN NOHEJI MACHI","town":"NAKAYASHIKI","perfecture_jp":"青森県","jp_add_1":"上北郡野辺地町","jp_add_2":"川目"},"0393158":{"post_code":"0393158","prefecture":"AOMORI KEN","city":"KAMIKITA GUN NOHEJI MACHI","town":"KANNOMBAYASHIUSHIRO","perfecture_jp":"青森県","jp_add_1":"上北郡野辺地町","jp_add_2":"観音林後"},"0393165":{"post_code":"0393165","prefecture":"AOMORI KEN","city":"KAMIKITA GUN NOHEJI MACHI","town":"KANNOMBAYASHIMAEDA","perfecture_jp":"青森県","jp_add_1":"上北郡野辺地町","jp_add_2":"観音林前田"},"0393159":{"post_code":"0393159","prefecture":"AOMORI KEN","city":"KAMIKITA GUN NOHEJI MACHI","town":"KANNOMBAYASHIWAKI","perfecture_jp":"青森県","jp_add_1":"上北郡野辺地町","jp_add_2":"観音林脇"},"0393155":{"post_code":"0393155","prefecture":"AOMORI KEN","city":"KAMIKITA GUN NOHEJI MACHI","town":"KIRIAKE","perfecture_jp":"青森県","jp_add_1":"上北郡野辺地町","jp_add_2":"切明"},"0393142":{"post_code":"0393142","prefecture":"AOMORI KEN","city":"KAMIKITA GUN NOHEJI MACHI","town":"KUNDEN","perfecture_jp":"青森県","jp_add_1":"上北郡野辺地町","jp_add_2":"久田"},"0393162":{"post_code":"0393162","prefecture":"AOMORI KEN","city":"KAMIKITA GUN NOHEJI MACHI","town":"SASADATE","perfecture_jp":"青森県","jp_add_1":"上北郡野辺地町","jp_add_2":"笹館"},"0393157":{"post_code":"0393157","prefecture":"AOMORI KEN","city":"KAMIKITA GUN NOHEJI MACHI","town":"MATSUNOKI","perfecture_jp":"青森県","jp_add_1":"上北郡野辺地町","jp_add_2":"獅子沢"},"0393177":{"post_code":"0393177","prefecture":"AOMORI KEN","city":"KAMIKITA GUN NOHEJI MACHI","town":"HANOKIYACHI","perfecture_jp":"青森県","jp_add_1":"上北郡野辺地町","jp_add_2":"柴崎"},"0393152":{"post_code":"0393152","prefecture":"AOMORI KEN","city":"KAMIKITA GUN NOHEJI MACHI","town":"SHIMOKONAKANO","perfecture_jp":"青森県","jp_add_1":"上北郡野辺地町","jp_add_2":"下小中野"},"0393117":{"post_code":"0393117","prefecture":"AOMORI KEN","city":"KAMIKITA GUN NOHEJI MACHI","town":"SHIMOSAKA","perfecture_jp":"青森県","jp_add_1":"上北郡野辺地町","jp_add_2":"下坂"},"0393126":{"post_code":"0393126","prefecture":"AOMORI KEN","city":"KAMIKITA GUN NOHEJI MACHI","town":"SHIMOMAEDA","perfecture_jp":"青森県","jp_add_1":"上北郡野辺地町","jp_add_2":"下前田"},"0393146":{"post_code":"0393146","prefecture":"AOMORI KEN","city":"KAMIKITA GUN NOHEJI MACHI","town":"SHIMOMATSUNOKITAI","perfecture_jp":"青森県","jp_add_1":"上北郡野辺地町","jp_add_2":"下松ノ木平"},"0393147":{"post_code":"0393147","prefecture":"AOMORI KEN","city":"KAMIKITA GUN NOHEJI MACHI","town":"SHIMOYOTAGAWA","perfecture_jp":"青森県","jp_add_1":"上北郡野辺地町","jp_add_2":"下与田川"},"0393124":{"post_code":"0393124","prefecture":"AOMORI KEN","city":"KAMIKITA GUN NOHEJI MACHI","town":"SHIRAIWA","perfecture_jp":"青森県","jp_add_1":"上北郡野辺地町","jp_add_2":"白岩"},"0393151":{"post_code":"0393151","prefecture":"AOMORI KEN","city":"KAMIKITA GUN NOHEJI MACHI","town":"SHIRAIWA MUKAI","perfecture_jp":"青森県","jp_add_1":"上北郡野辺地町","jp_add_2":"白岩向"},"0393129":{"post_code":"0393129","prefecture":"AOMORI KEN","city":"KAMIKITA GUN NOHEJI MACHI","town":"MOCHIAWAKAWARA","perfecture_jp":"青森県","jp_add_1":"上北郡野辺地町","jp_add_2":"新田"},"0393163":{"post_code":"0393163","prefecture":"AOMORI KEN","city":"KAMIKITA GUN NOHEJI MACHI","town":"SHIMMACHIURA","perfecture_jp":"青森県","jp_add_1":"上北郡野辺地町","jp_add_2":"新町裏"},"0393175":{"post_code":"0393175","prefecture":"AOMORI KEN","city":"KAMIKITA GUN NOHEJI MACHI","town":"YUZAWAJIRI","perfecture_jp":"青森県","jp_add_1":"上北郡野辺地町","jp_add_2":"地続山"},"0393173":{"post_code":"0393173","prefecture":"AOMORI KEN","city":"KAMIKITA GUN NOHEJI MACHI","town":"JIMBAGAWARA","perfecture_jp":"青森県","jp_add_1":"上北郡野辺地町","jp_add_2":"陣場川原"},"0393114":{"post_code":"0393114","prefecture":"AOMORI KEN","city":"KAMIKITA GUN NOHEJI MACHI","town":"SUKESAKOJI","perfecture_jp":"青森県","jp_add_1":"上北郡野辺地町","jp_add_2":"助佐小路"},"0393122":{"post_code":"0393122","prefecture":"AOMORI KEN","city":"KAMIKITA GUN NOHEJI MACHI","town":"ZOYOSHIZAWA","perfecture_jp":"青森県","jp_add_1":"上北郡野辺地町","jp_add_2":"雑吉沢"},"0393103":{"post_code":"0393103","prefecture":"AOMORI KEN","city":"KAMIKITA GUN NOHEJI MACHI","town":"TANABUMICHI","perfecture_jp":"青森県","jp_add_1":"上北郡野辺地町","jp_add_2":"田名部道"},"0393123":{"post_code":"0393123","prefecture":"AOMORI KEN","city":"KAMIKITA GUN NOHEJI MACHI","town":"TANEKAWA","perfecture_jp":"青森県","jp_add_1":"上北郡野辺地町","jp_add_2":"種川"},"0393113":{"post_code":"0393113","prefecture":"AOMORI KEN","city":"KAMIKITA GUN NOHEJI MACHI","town":"TABASAMIZAWA","perfecture_jp":"青森県","jp_add_1":"上北郡野辺地町","jp_add_2":"田狭沢"},"0393115":{"post_code":"0393115","prefecture":"AOMORI KEN","city":"KAMIKITA GUN NOHEJI MACHI","town":"TARANOKI","perfecture_jp":"青森県","jp_add_1":"上北郡野辺地町","jp_add_2":"タラノ木"},"0393118":{"post_code":"0393118","prefecture":"AOMORI KEN","city":"KAMIKITA GUN NOHEJI MACHI","town":"TERANOSAWA","perfecture_jp":"青森県","jp_add_1":"上北郡野辺地町","jp_add_2":"寺ノ沢"},"0393172":{"post_code":"0393172","prefecture":"AOMORI KEN","city":"KAMIKITA GUN NOHEJI MACHI","town":"TORIITAI","perfecture_jp":"青森県","jp_add_1":"上北郡野辺地町","jp_add_2":"鳥井平"},"0393153":{"post_code":"0393153","prefecture":"AOMORI KEN","city":"KAMIKITA GUN NOHEJI MACHI","town":"NAKAKONAKANO","perfecture_jp":"青森県","jp_add_1":"上北郡野辺地町","jp_add_2":"中小中野"},"0393112":{"post_code":"0393112","prefecture":"AOMORI KEN","city":"KAMIKITA GUN NOHEJI MACHI","town":"NAKAMICHI","perfecture_jp":"青森県","jp_add_1":"上北郡野辺地町","jp_add_2":"中道"},"0393176":{"post_code":"0393176","prefecture":"AOMORI KEN","city":"KAMIKITA GUN NOHEJI MACHI","town":"NAKAWATARI","perfecture_jp":"青森県","jp_add_1":"上北郡野辺地町","jp_add_2":"中渡"},"0393141":{"post_code":"0393141","prefecture":"AOMORI KEN","city":"KAMIKITA GUN NOHEJI MACHI","town":"NARUSAWA","perfecture_jp":"青森県","jp_add_1":"上北郡野辺地町","jp_add_2":"鳴沢"},"0393167":{"post_code":"0393167","prefecture":"AOMORI KEN","city":"KAMIKITA GUN NOHEJI MACHI","town":"NIHONKIMUKAI","perfecture_jp":"青森県","jp_add_1":"上北郡野辺地町","jp_add_2":"二本木向"},"0393166":{"post_code":"0393166","prefecture":"AOMORI KEN","city":"KAMIKITA GUN NOHEJI MACHI","town":"NIHONKIMUKAIMAEDA","perfecture_jp":"青森県","jp_add_1":"上北郡野辺地町","jp_add_2":"二本木向前田"},"0393131":{"post_code":"0393131","prefecture":"AOMORI KEN","city":"KAMIKITA GUN NOHEJI MACHI","town":"NOHEJI","perfecture_jp":"青森県","jp_add_1":"上北郡野辺地町","jp_add_2":"野辺地"},"0393101":{"post_code":"0393101","prefecture":"AOMORI KEN","city":"KAMIKITA GUN NOHEJI MACHI","town":"HAMAKAKE","perfecture_jp":"青森県","jp_add_1":"上北郡野辺地町","jp_add_2":"浜掛"},"0393156":{"post_code":"0393156","prefecture":"AOMORI KEN","city":"KAMIKITA GUN NOHEJI MACHI","town":"BIWANO","perfecture_jp":"青森県","jp_add_1":"上北郡野辺地町","jp_add_2":"枇杷野"},"0393121":{"post_code":"0393121","prefecture":"AOMORI KEN","city":"KAMIKITA GUN NOHEJI MACHI","town":"FUNABASHI","perfecture_jp":"青森県","jp_add_1":"上北郡野辺地町","jp_add_2":"船橋"},"0393125":{"post_code":"0393125","prefecture":"AOMORI KEN","city":"KAMIKITA GUN NOHEJI MACHI","town":"BONOTSUKA","perfecture_jp":"青森県","jp_add_1":"上北郡野辺地町","jp_add_2":"坊ノ塚"},"0393164":{"post_code":"0393164","prefecture":"AOMORI KEN","city":"KAMIKITA GUN NOHEJI MACHI","town":"MAEDA","perfecture_jp":"青森県","jp_add_1":"上北郡野辺地町","jp_add_2":"前田"},"0393168":{"post_code":"0393168","prefecture":"AOMORI KEN","city":"KAMIKITA GUN NOHEJI MACHI","town":"MAEHIRA","perfecture_jp":"青森県","jp_add_1":"上北郡野辺地町","jp_add_2":"前平"},"0393179":{"post_code":"0393179","prefecture":"AOMORI KEN","city":"KAMIKITA GUN NOHEJI MACHI","town":"MAKADO","perfecture_jp":"青森県","jp_add_1":"上北郡野辺地町","jp_add_2":"馬門"},"0393161":{"post_code":"0393161","prefecture":"AOMORI KEN","city":"KAMIKITA GUN NOHEJI MACHI","town":"MAKADOMICHI","perfecture_jp":"青森県","jp_add_1":"上北郡野辺地町","jp_add_2":"馬門道"},"0393145":{"post_code":"0393145","prefecture":"AOMORI KEN","city":"KAMIKITA GUN NOHEJI MACHI","town":"MATSUNOKITAI","perfecture_jp":"青森県","jp_add_1":"上北郡野辺地町","jp_add_2":"松ノ木平"},"0393109":{"post_code":"0393109","prefecture":"AOMORI KEN","city":"KAMIKITA GUN NOHEJI MACHI","town":"MUKAIDA","perfecture_jp":"青森県","jp_add_1":"上北郡野辺地町","jp_add_2":"向田"},"0393148":{"post_code":"0393148","prefecture":"AOMORI KEN","city":"KAMIKITA GUN NOHEJI MACHI","town":"YOTAGAWAJIRI","perfecture_jp":"青森県","jp_add_1":"上北郡野辺地町","jp_add_2":"与田川尻"},"0393102":{"post_code":"0393102","prefecture":"AOMORI KEN","city":"KAMIKITA GUN NOHEJI MACHI","town":"YONAISAWA","perfecture_jp":"青森県","jp_add_1":"上北郡野辺地町","jp_add_2":"米内沢"},"0392500":{"post_code":"0392500","prefecture":"AOMORI KEN","city":"KAMIKITA GUN SHICHINOHE MACHI","town":"IKANIKEISAIGANAIBAAI","perfecture_jp":"青森県","jp_add_1":"上北郡七戸町","jp_add_2":""},"0392501":{"post_code":"0392501","prefecture":"AOMORI KEN","city":"KAMIKITA GUN SHICHINOHE MACHI","town":"ARAKUMANAI","perfecture_jp":"青森県","jp_add_1":"上北郡七戸町","jp_add_2":"荒熊内"},"0392534":{"post_code":"0392534","prefecture":"AOMORI KEN","city":"KAMIKITA GUN SHICHINOHE MACHI","town":"ARAYA","perfecture_jp":"青森県","jp_add_1":"上北郡七戸町","jp_add_2":"荒屋"},"0392543":{"post_code":"0392543","prefecture":"AOMORI KEN","city":"KAMIKITA GUN SHICHINOHE MACHI","town":"ARITASAWA","perfecture_jp":"青森県","jp_add_1":"上北郡七戸町","jp_add_2":"有田沢"},"0392816":{"post_code":"0392816","prefecture":"AOMORI KEN","city":"KAMIKITA GUN SHICHINOHE MACHI","town":"IENORA","perfecture_jp":"青森県","jp_add_1":"上北郡七戸町","jp_add_2":"家ノ裏"},"0392825":{"post_code":"0392825","prefecture":"AOMORI KEN","city":"KAMIKITA GUN SHICHINOHE MACHI","town":"IENOKAMI","perfecture_jp":"青森県","jp_add_1":"上北郡七戸町","jp_add_2":"家ノ上"},"0392824":{"post_code":"0392824","prefecture":"AOMORI KEN","city":"KAMIKITA GUN SHICHINOHE MACHI","town":"IENOSHITA","perfecture_jp":"青森県","jp_add_1":"上北郡七戸町","jp_add_2":"家ノ下"},"0392833":{"post_code":"0392833","prefecture":"AOMORI KEN","city":"KAMIKITA GUN SHICHINOHE MACHI","town":"IENOMAE","perfecture_jp":"青森県","jp_add_1":"上北郡七戸町","jp_add_2":"家ノ前"},"0392865":{"post_code":"0392865","prefecture":"AOMORI KEN","city":"KAMIKITA GUN SHICHINOHE MACHI","town":"ICHINOWATARI","perfecture_jp":"青森県","jp_add_1":"上北郡七戸町","jp_add_2":"市ノ渡"},"0392561":{"post_code":"0392561","prefecture":"AOMORI KEN","city":"KAMIKITA GUN SHICHINOHE MACHI","town":"ICHONOKI","perfecture_jp":"青森県","jp_add_1":"上北郡七戸町","jp_add_2":"銀南木"},"0392741":{"post_code":"0392741","prefecture":"AOMORI KEN","city":"KAMIKITA GUN SHICHINOHE MACHI","town":"INOHANA","perfecture_jp":"青森県","jp_add_1":"上北郡七戸町","jp_add_2":"猪ノ鼻"},"0392585":{"post_code":"0392585","prefecture":"AOMORI KEN","city":"KAMIKITA GUN SHICHINOHE MACHI","town":"UENOYAMA","perfecture_jp":"青森県","jp_add_1":"上北郡七戸町","jp_add_2":"上ノ山"},"0392587":{"post_code":"0392587","prefecture":"AOMORI KEN","city":"KAMIKITA GUN SHICHINOHE MACHI","town":"UEYADA","perfecture_jp":"青森県","jp_add_1":"上北郡七戸町","jp_add_2":"上屋田"},"0392584":{"post_code":"0392584","prefecture":"AOMORI KEN","city":"KAMIKITA GUN SHICHINOHE MACHI","town":"USHIROKAWARA","perfecture_jp":"青森県","jp_add_1":"上北郡七戸町","jp_add_2":"後川原"},"0392731":{"post_code":"0392731","prefecture":"AOMORI KEN","city":"KAMIKITA GUN SHICHINOHE MACHI","town":"USHIROTAIRA","perfecture_jp":"青森県","jp_add_1":"上北郡七戸町","jp_add_2":"後平"},"0392574":{"post_code":"0392574","prefecture":"AOMORI KEN","city":"KAMIKITA GUN SHICHINOHE MACHI","town":"UDOZAKA","perfecture_jp":"青森県","jp_add_1":"上北郡七戸町","jp_add_2":"宇道坂"},"0392771":{"post_code":"0392771","prefecture":"AOMORI KEN","city":"KAMIKITA GUN SHICHINOHE MACHI","town":"UBASAWA","perfecture_jp":"青森県","jp_add_1":"上北郡七戸町","jp_add_2":"姥沢"},"0392586":{"post_code":"0392586","prefecture":"AOMORI KEN","city":"KAMIKITA GUN SHICHINOHE MACHI","town":"UMINAI","perfecture_jp":"青森県","jp_add_1":"上北郡七戸町","jp_add_2":"海内"},"0392526":{"post_code":"0392526","prefecture":"AOMORI KEN","city":"KAMIKITA GUN SHICHINOHE MACHI","town":"UWAMACHINO","perfecture_jp":"青森県","jp_add_1":"上北郡七戸町","jp_add_2":"上町野"},"0392507":{"post_code":"0392507","prefecture":"AOMORI KEN","city":"KAMIKITA GUN SHICHINOHE MACHI","town":"EZOBANA","perfecture_jp":"青森県","jp_add_1":"上北郡七戸町","jp_add_2":"えぞ花"},"0392756":{"post_code":"0392756","prefecture":"AOMORI KEN","city":"KAMIKITA GUN SHICHINOHE MACHI","town":"ENOKIBAYASHIIENOSHIRO","perfecture_jp":"青森県","jp_add_1":"上北郡七戸町","jp_add_2":"榎林家ノ後"},"0392755":{"post_code":"0392755","prefecture":"AOMORI KEN","city":"KAMIKITA GUN SHICHINOHE MACHI","town":"ENOKIBAYASHIIENOMAE","perfecture_jp":"青森県","jp_add_1":"上北郡七戸町","jp_add_2":"榎林家ノ前"},"0392779":{"post_code":"0392779","prefecture":"AOMORI KEN","city":"KAMIKITA GUN SHICHINOHE MACHI","town":"ENOKIBAYASHIFURUYASHIKI","perfecture_jp":"青森県","jp_add_1":"上北郡七戸町","jp_add_2":"榎林古屋敷"},"0392745":{"post_code":"0392745","prefecture":"AOMORI KEN","city":"KAMIKITA GUN SHICHINOHE MACHI","town":"EBISUDO","perfecture_jp":"青森県","jp_add_1":"上北郡七戸町","jp_add_2":"夷堂"},"0392508":{"post_code":"0392508","prefecture":"AOMORI KEN","city":"KAMIKITA GUN SHICHINOHE MACHI","town":"OIKE","perfecture_jp":"青森県","jp_add_1":"上北郡七戸町","jp_add_2":"大池"},"0392502":{"post_code":"0392502","prefecture":"AOMORI KEN","city":"KAMIKITA GUN SHICHINOHE MACHI","town":"OSAWA","perfecture_jp":"青森県","jp_add_1":"上北郡七戸町","jp_add_2":"大沢"},"0392531":{"post_code":"0392531","prefecture":"AOMORI KEN","city":"KAMIKITA GUN SHICHINOHE MACHI","town":"OTA","perfecture_jp":"青森県","jp_add_1":"上北郡七戸町","jp_add_2":"太田"},"0392821":{"post_code":"0392821","prefecture":"AOMORI KEN","city":"KAMIKITA GUN SHICHINOHE MACHI","town":"ODAIRA","perfecture_jp":"青森県","jp_add_1":"上北郡七戸町","jp_add_2":"大平"},"0392514":{"post_code":"0392514","prefecture":"AOMORI KEN","city":"KAMIKITA GUN SHICHINOHE MACHI","town":"OTANO","perfecture_jp":"青森県","jp_add_1":"上北郡七戸町","jp_add_2":"太田野"},"0392532":{"post_code":"0392532","prefecture":"AOMORI KEN","city":"KAMIKITA GUN SHICHINOHE MACHI","town":"OBAYASHI","perfecture_jp":"青森県","jp_add_1":"上北郡七戸町","jp_add_2":"大林"},"0392715":{"post_code":"0392715","prefecture":"AOMORI KEN","city":"KAMIKITA GUN SHICHINOHE MACHI","town":"OYAMAGASHIRA","perfecture_jp":"青森県","jp_add_1":"上北郡七戸町","jp_add_2":"尾山頭"},"0392751":{"post_code":"0392751","prefecture":"AOMORI KEN","city":"KAMIKITA GUN SHICHINOHE MACHI","town":"KAIZUKAIENOMAE","perfecture_jp":"青森県","jp_add_1":"上北郡七戸町","jp_add_2":"貝塚家ノ前"},"0392578":{"post_code":"0392578","prefecture":"AOMORI KEN","city":"KAMIKITA GUN SHICHINOHE MACHI","town":"KAINOKUCHI","perfecture_jp":"青森県","jp_add_1":"上北郡七戸町","jp_add_2":"貝ノ口"},"0392523":{"post_code":"0392523","prefecture":"AOMORI KEN","city":"KAMIKITA GUN SHICHINOHE MACHI","town":"KAGETSUNAI","perfecture_jp":"青森県","jp_add_1":"上北郡七戸町","jp_add_2":"影津内"},"0392577":{"post_code":"0392577","prefecture":"AOMORI KEN","city":"KAMIKITA GUN SHICHINOHE MACHI","town":"KAJIBAYASHI","perfecture_jp":"青森県","jp_add_1":"上北郡七戸町","jp_add_2":"鍛治林"},"0392831":{"post_code":"0392831","prefecture":"AOMORI KEN","city":"KAMIKITA GUN SHICHINOHE MACHI","town":"KANAZAWATAIRA","perfecture_jp":"青森県","jp_add_1":"上北郡七戸町","jp_add_2":"金沢平"},"0392725":{"post_code":"0392725","prefecture":"AOMORI KEN","city":"KAMIKITA GUN SHICHINOHE MACHI","town":"KAMIKAWARA","perfecture_jp":"青森県","jp_add_1":"上北郡七戸町","jp_add_2":"上川原"},"0392714":{"post_code":"0392714","prefecture":"AOMORI KEN","city":"KAMIKITA GUN SHICHINOHE MACHI","town":"KAMISHIDA","perfecture_jp":"青森県","jp_add_1":"上北郡七戸町","jp_add_2":"上志多"},"0392724":{"post_code":"0392724","prefecture":"AOMORI KEN","city":"KAMIKITA GUN SHICHINOHE MACHI","town":"KAMITAIRA","perfecture_jp":"青森県","jp_add_1":"上北郡七戸町","jp_add_2":"上平"},"0392533":{"post_code":"0392533","prefecture":"AOMORI KEN","city":"KAMIKITA GUN SHICHINOHE MACHI","town":"KAWASARI","perfecture_jp":"青森県","jp_add_1":"上北郡七戸町","jp_add_2":"川去"},"0392712":{"post_code":"0392712","prefecture":"AOMORI KEN","city":"KAMIKITA GUN SHICHINOHE MACHI","town":"KITATEMMADATE","perfecture_jp":"青森県","jp_add_1":"上北郡七戸町","jp_add_2":"北天間舘"},"0392562":{"post_code":"0392562","prefecture":"AOMORI KEN","city":"KAMIKITA GUN SHICHINOHE MACHI","town":"KURAOKA","perfecture_jp":"青森県","jp_add_1":"上北郡七戸町","jp_add_2":"倉岡"},"0392522":{"post_code":"0392522","prefecture":"AOMORI KEN","city":"KAMIKITA GUN SHICHINOHE MACHI","town":"KURAKOSHI","perfecture_jp":"青森県","jp_add_1":"上北郡七戸町","jp_add_2":"倉越"},"0392866":{"post_code":"0392866","prefecture":"AOMORI KEN","city":"KAMIKITA GUN SHICHINOHE MACHI","town":"KURINOKISAWA","perfecture_jp":"青森県","jp_add_1":"上北郡七戸町","jp_add_2":"栗ノ木沢"},"0392877":{"post_code":"0392877","prefecture":"AOMORI KEN","city":"KAMIKITA GUN SHICHINOHE MACHI","town":"GOANNOSHITA","perfecture_jp":"青森県","jp_add_1":"上北郡七戸町","jp_add_2":"五庵ノ下"},"0392812":{"post_code":"0392812","prefecture":"AOMORI KEN","city":"KAMIKITA GUN SHICHINOHE MACHI","town":"KODASHITA","perfecture_jp":"青森県","jp_add_1":"上北郡七戸町","jp_add_2":"小田下"},"0392813":{"post_code":"0392813","prefecture":"AOMORI KEN","city":"KAMIKITA GUN SHICHINOHE MACHI","town":"KODATAI","perfecture_jp":"青森県","jp_add_1":"上北郡七戸町","jp_add_2":"小田平"},"0392822":{"post_code":"0392822","prefecture":"AOMORI KEN","city":"KAMIKITA GUN SHICHINOHE MACHI","town":"KOMATA","perfecture_jp":"青森県","jp_add_1":"上北郡七戸町","jp_add_2":"小又"},"0392856":{"post_code":"0392856","prefecture":"AOMORI KEN","city":"KAMIKITA GUN SHICHINOHE MACHI","town":"KOWASONAE","perfecture_jp":"青森県","jp_add_1":"上北郡七戸町","jp_add_2":"古和備"},"0392537":{"post_code":"0392537","prefecture":"AOMORI KEN","city":"KAMIKITA GUN SHICHINOHE MACHI","town":"SAINOKAMI","perfecture_jp":"青森県","jp_add_1":"上北郡七戸町","jp_add_2":"賽ノ神"},"0392753":{"post_code":"0392753","prefecture":"AOMORI KEN","city":"KAMIKITA GUN SHICHINOHE MACHI","town":"SAOCHIKAWARA","perfecture_jp":"青森県","jp_add_1":"上北郡七戸町","jp_add_2":"竿打川原"},"0392778":{"post_code":"0392778","prefecture":"AOMORI KEN","city":"KAMIKITA GUN SHICHINOHE MACHI","town":"SAKANOSOTO","perfecture_jp":"青森県","jp_add_1":"上北郡七戸町","jp_add_2":"坂ノ外"},"0392575":{"post_code":"0392575","prefecture":"AOMORI KEN","city":"KAMIKITA GUN SHICHINOHE MACHI","town":"SAKUTA","perfecture_jp":"青森県","jp_add_1":"上北郡七戸町","jp_add_2":"作田"},"0392845":{"post_code":"0392845","prefecture":"AOMORI KEN","city":"KAMIKITA GUN SHICHINOHE MACHI","town":"SAKUTAMICHI","perfecture_jp":"青森県","jp_add_1":"上北郡七戸町","jp_add_2":"作田道"},"0392576":{"post_code":"0392576","prefecture":"AOMORI KEN","city":"KAMIKITA GUN SHICHINOHE MACHI","town":"SAKURADA","perfecture_jp":"青森県","jp_add_1":"上北郡七戸町","jp_add_2":"桜田"},"0392568":{"post_code":"0392568","prefecture":"AOMORI KEN","city":"KAMIKITA GUN SHICHINOHE MACHI","town":"SAGUMI","perfecture_jp":"青森県","jp_add_1":"上北郡七戸町","jp_add_2":"左組"},"0392852":{"post_code":"0392852","prefecture":"AOMORI KEN","city":"KAMIKITA GUN SHICHINOHE MACHI","town":"SASO","perfecture_jp":"青森県","jp_add_1":"上北郡七戸町","jp_add_2":"さそう"},"0392853":{"post_code":"0392853","prefecture":"AOMORI KEN","city":"KAMIKITA GUN SHICHINOHE MACHI","town":"SASOTAI","perfecture_jp":"青森県","jp_add_1":"上北郡七戸町","jp_add_2":"さそう平"},"0392875":{"post_code":"0392875","prefecture":"AOMORI KEN","city":"KAMIKITA GUN SHICHINOHE MACHI","town":"SABISHIRO","perfecture_jp":"青森県","jp_add_1":"上北郡七戸町","jp_add_2":"淋代"},"0392512":{"post_code":"0392512","prefecture":"AOMORI KEN","city":"KAMIKITA GUN SHICHINOHE MACHI","town":"ZARUTA","perfecture_jp":"青森県","jp_add_1":"上北郡七戸町","jp_add_2":"笊田"},"0392511":{"post_code":"0392511","prefecture":"AOMORI KEN","city":"KAMIKITA GUN SHICHINOHE MACHI","town":"ZARUTAKAWAKUBO","perfecture_jp":"青森県","jp_add_1":"上北郡七戸町","jp_add_2":"笊田川久保"},"0392754":{"post_code":"0392754","prefecture":"AOMORI KEN","city":"KAMIKITA GUN SHICHINOHE MACHI","town":"JIZODO","perfecture_jp":"青森県","jp_add_1":"上北郡七戸町","jp_add_2":"地蔵堂"},"0392872":{"post_code":"0392872","prefecture":"AOMORI KEN","city":"KAMIKITA GUN SHICHINOHE MACHI","town":"SHITAKAWARA","perfecture_jp":"青森県","jp_add_1":"上北郡七戸町","jp_add_2":"下タ川原"},"0392525":{"post_code":"0392525","prefecture":"AOMORI KEN","city":"KAMIKITA GUN SHICHINOHE MACHI","town":"SHICHINOHE","perfecture_jp":"青森県","jp_add_1":"上北郡七戸町","jp_add_2":"七戸"},"0392774":{"post_code":"0392774","prefecture":"AOMORI KEN","city":"KAMIKITA GUN SHICHINOHE MACHI","town":"SHIBADATEMICHINOSHIMO","perfecture_jp":"青森県","jp_add_1":"上北郡七戸町","jp_add_2":"柴舘道ノ下"},"0392546":{"post_code":"0392546","prefecture":"AOMORI KEN","city":"KAMIKITA GUN SHICHINOHE MACHI","town":"SHIMIZUKASHIRA","perfecture_jp":"青森県","jp_add_1":"上北郡七戸町","jp_add_2":"清水頭"},"0392721":{"post_code":"0392721","prefecture":"AOMORI KEN","city":"KAMIKITA GUN SHICHINOHE MACHI","town":"SHIMOKAWARA","perfecture_jp":"青森県","jp_add_1":"上北郡七戸町","jp_add_2":"志茂川原"},"0392864":{"post_code":"0392864","prefecture":"AOMORI KEN","city":"KAMIKITA GUN SHICHINOHE MACHI","town":"SHIMOKAWARA","perfecture_jp":"青森県","jp_add_1":"上北郡七戸町","jp_add_2":"下モ川原"},"0392723":{"post_code":"0392723","prefecture":"AOMORI KEN","city":"KAMIKITA GUN SHICHINOHE MACHI","town":"SHIMOSHITA","perfecture_jp":"青森県","jp_add_1":"上北郡七戸町","jp_add_2":"下志多"},"0392772":{"post_code":"0392772","prefecture":"AOMORI KEN","city":"KAMIKITA GUN SHICHINOHE MACHI","town":"SHIMOTATSUBO","perfecture_jp":"青森県","jp_add_1":"上北郡七戸町","jp_add_2":"下田坪"},"0392841":{"post_code":"0392841","prefecture":"AOMORI KEN","city":"KAMIKITA GUN SHICHINOHE MACHI","town":"SHIMOTORIYABE","perfecture_jp":"青森県","jp_add_1":"上北郡七戸町","jp_add_2":"下鳥谷部"},"0392549":{"post_code":"0392549","prefecture":"AOMORI KEN","city":"KAMIKITA GUN SHICHINOHE MACHI","town":"SHIMOMIRUMACHI","perfecture_jp":"青森県","jp_add_1":"上北郡七戸町","jp_add_2":"下見町"},"0392871":{"post_code":"0392871","prefecture":"AOMORI KEN","city":"KAMIKITA GUN SHICHINOHE MACHI","town":"SHIROISHI","perfecture_jp":"青森県","jp_add_1":"上北郡七戸町","jp_add_2":"白石"},"0392572":{"post_code":"0392572","prefecture":"AOMORI KEN","city":"KAMIKITA GUN SHICHINOHE MACHI","town":"SHIRONOATO","perfecture_jp":"青森県","jp_add_1":"上北郡七戸町","jp_add_2":"城ノ後"},"0392565":{"post_code":"0392565","prefecture":"AOMORI KEN","city":"KAMIKITA GUN SHICHINOHE MACHI","town":"JIMBA","perfecture_jp":"青森県","jp_add_1":"上北郡七戸町","jp_add_2":"治部袋"},"0392726":{"post_code":"0392726","prefecture":"AOMORI KEN","city":"KAMIKITA GUN SHICHINOHE MACHI","town":"SUMOMOKAWARA","perfecture_jp":"青森県","jp_add_1":"上北郡七戸町","jp_add_2":"李川原"},"0392777":{"post_code":"0392777","prefecture":"AOMORI KEN","city":"KAMIKITA GUN SHICHINOHE MACHI","town":"SUMOMOZAWAIENOSHIRO","perfecture_jp":"青森県","jp_add_1":"上北郡七戸町","jp_add_2":"李沢家ノ後"},"0392776":{"post_code":"0392776","prefecture":"AOMORI KEN","city":"KAMIKITA GUN SHICHINOHE MACHI","town":"SUMOMOZAWAIENOMAE","perfecture_jp":"青森県","jp_add_1":"上北郡七戸町","jp_add_2":"李沢家ノ前"},"0392775":{"post_code":"0392775","prefecture":"AOMORI KEN","city":"KAMIKITA GUN SHICHINOHE MACHI","town":"SUMOMOZAWAMICHINOSHIMO","perfecture_jp":"青森県","jp_add_1":"上北郡七戸町","jp_add_2":"李沢道ノ下"},"0392557":{"post_code":"0392557","prefecture":"AOMORI KEN","city":"KAMIKITA GUN SHICHINOHE MACHI","town":"SEINO","perfecture_jp":"青森県","jp_add_1":"上北郡七戸町","jp_add_2":"西野"},"0392876":{"post_code":"0392876","prefecture":"AOMORI KEN","city":"KAMIKITA GUN SHICHINOHE MACHI","town":"SEKISHIRO","perfecture_jp":"青森県","jp_add_1":"上北郡七戸町","jp_add_2":"堰代"},"0392851":{"post_code":"0392851","prefecture":"AOMORI KEN","city":"KAMIKITA GUN SHICHINOHE MACHI","town":"SEKINE","perfecture_jp":"青森県","jp_add_1":"上北郡七戸町","jp_add_2":"堰根"},"0392515":{"post_code":"0392515","prefecture":"AOMORI KEN","city":"KAMIKITA GUN SHICHINOHE MACHI","town":"SOZEN","perfecture_jp":"青森県","jp_add_1":"上北郡七戸町","jp_add_2":"蒼前"},"0392855":{"post_code":"0392855","prefecture":"AOMORI KEN","city":"KAMIKITA GUN SHICHINOHE MACHI","town":"SOKOTA","perfecture_jp":"青森県","jp_add_1":"上北郡七戸町","jp_add_2":"底田"},"0392732":{"post_code":"0392732","prefecture":"AOMORI KEN","city":"KAMIKITA GUN SHICHINOHE MACHI","town":"SOTSUKOZAWA","perfecture_jp":"青森県","jp_add_1":"上北郡七戸町","jp_add_2":"卒古沢"},"0392757":{"post_code":"0392757","prefecture":"AOMORI KEN","city":"KAMIKITA GUN SHICHINOHE MACHI","town":"SOTSUKOZAWAMINAMITAI","perfecture_jp":"青森県","jp_add_1":"上北郡七戸町","jp_add_2":"卒古沢南平"},"0392854":{"post_code":"0392854","prefecture":"AOMORI KEN","city":"KAMIKITA GUN SHICHINOHE MACHI","town":"TAKAINA","perfecture_jp":"青森県","jp_add_1":"上北郡七戸町","jp_add_2":"高井名"},"0392558":{"post_code":"0392558","prefecture":"AOMORI KEN","city":"KAMIKITA GUN SHICHINOHE MACHI","town":"TAKAYASHIKI","perfecture_jp":"青森県","jp_add_1":"上北郡七戸町","jp_add_2":"高屋敷"},"0392516":{"post_code":"0392516","prefecture":"AOMORI KEN","city":"KAMIKITA GUN SHICHINOHE MACHI","town":"TATENO","perfecture_jp":"青森県","jp_add_1":"上北郡七戸町","jp_add_2":"舘野"},"0392505":{"post_code":"0392505","prefecture":"AOMORI KEN","city":"KAMIKITA GUN SHICHINOHE MACHI","town":"TATENOGASHIRA","perfecture_jp":"青森県","jp_add_1":"上北郡七戸町","jp_add_2":"立野頭"},"0392823":{"post_code":"0392823","prefecture":"AOMORI KEN","city":"KAMIKITA GUN SHICHINOHE MACHI","town":"DATENOSHITA","perfecture_jp":"青森県","jp_add_1":"上北郡七戸町","jp_add_2":"館ノ下"},"0392744":{"post_code":"0392744","prefecture":"AOMORI KEN","city":"KAMIKITA GUN SHICHINOHE MACHI","town":"TSUKANAGANE","perfecture_jp":"青森県","jp_add_1":"上北郡七戸町","jp_add_2":"塚長根"},"0392747":{"post_code":"0392747","prefecture":"AOMORI KEN","city":"KAMIKITA GUN SHICHINOHE MACHI","town":"TSUKUTAIENOMAE","perfecture_jp":"青森県","jp_add_1":"上北郡七戸町","jp_add_2":"附田家ノ前"},"0392746":{"post_code":"0392746","prefecture":"AOMORI KEN","city":"KAMIKITA GUN SHICHINOHE MACHI","town":"TSUKUTAKAWAME","perfecture_jp":"青森県","jp_add_1":"上北郡七戸町","jp_add_2":"附田川目"},"0392874":{"post_code":"0392874","prefecture":"AOMORI KEN","city":"KAMIKITA GUN SHICHINOHE MACHI","town":"TSUBOKAWARA","perfecture_jp":"青森県","jp_add_1":"上北郡七戸町","jp_add_2":"坪川原"},"0392552":{"post_code":"0392552","prefecture":"AOMORI KEN","city":"KAMIKITA GUN SHICHINOHE MACHI","town":"TSURUCHITA","perfecture_jp":"青森県","jp_add_1":"上北郡七戸町","jp_add_2":"鶴打田"},"0392567":{"post_code":"0392567","prefecture":"AOMORI KEN","city":"KAMIKITA GUN SHICHINOHE MACHI","town":"TSURUNOKOTAI","perfecture_jp":"青森県","jp_add_1":"上北郡七戸町","jp_add_2":"鶴児平"},"0392844":{"post_code":"0392844","prefecture":"AOMORI KEN","city":"KAMIKITA GUN SHICHINOHE MACHI","town":"TESHIROMORI","perfecture_jp":"青森県","jp_add_1":"上北郡七戸町","jp_add_2":"手代森"},"0392524":{"post_code":"0392524","prefecture":"AOMORI KEN","city":"KAMIKITA GUN SHICHINOHE MACHI","town":"TERAURA","perfecture_jp":"青森県","jp_add_1":"上北郡七戸町","jp_add_2":"寺裏"},"0392743":{"post_code":"0392743","prefecture":"AOMORI KEN","city":"KAMIKITA GUN SHICHINOHE MACHI","town":"TERASAWAMAE","perfecture_jp":"青森県","jp_add_1":"上北郡七戸町","jp_add_2":"寺沢前"},"0392538":{"post_code":"0392538","prefecture":"AOMORI KEN","city":"KAMIKITA GUN SHICHINOHE MACHI","town":"TERASHITA","perfecture_jp":"青森県","jp_add_1":"上北郡七戸町","jp_add_2":"寺下"},"0392518":{"post_code":"0392518","prefecture":"AOMORI KEN","city":"KAMIKITA GUN SHICHINOHE MACHI","town":"TENJIMBAYASHI","perfecture_jp":"青森県","jp_add_1":"上北郡七戸町","jp_add_2":"天神林"},"0392521":{"post_code":"0392521","prefecture":"AOMORI KEN","city":"KAMIKITA GUN SHICHINOHE MACHI","town":"TENNO","perfecture_jp":"青森県","jp_add_1":"上北郡七戸町","jp_add_2":"天王"},"0392811":{"post_code":"0392811","prefecture":"AOMORI KEN","city":"KAMIKITA GUN SHICHINOHE MACHI","town":"TEMMADATEARAYA","perfecture_jp":"青森県","jp_add_1":"上北郡七戸町","jp_add_2":"天間舘荒谷"},"0392861":{"post_code":"0392861","prefecture":"AOMORI KEN","city":"KAMIKITA GUN SHICHINOHE MACHI","town":"TEMMADATEOSAWA","perfecture_jp":"青森県","jp_add_1":"上北郡七戸町","jp_add_2":"天間舘大沢"},"0392873":{"post_code":"0392873","prefecture":"AOMORI KEN","city":"KAMIKITA GUN SHICHINOHE MACHI","town":"TEMMADATEKANSUI","perfecture_jp":"青森県","jp_add_1":"上北郡七戸町","jp_add_2":"天間舘寒水"},"0392857":{"post_code":"0392857","prefecture":"AOMORI KEN","city":"KAMIKITA GUN SHICHINOHE MACHI","town":"TEMMADATEKURAKOSHI","perfecture_jp":"青森県","jp_add_1":"上北郡七戸町","jp_add_2":"天間舘倉越"},"0392733":{"post_code":"0392733","prefecture":"AOMORI KEN","city":"KAMIKITA GUN SHICHINOHE MACHI","town":"TEMMADATEMAEKAWARA","perfecture_jp":"青森県","jp_add_1":"上北郡七戸町","jp_add_2":"天間舘前川原"},"0392863":{"post_code":"0392863","prefecture":"AOMORI KEN","city":"KAMIKITA GUN SHICHINOHE MACHI","town":"TOSHINAI","perfecture_jp":"青森県","jp_add_1":"上北郡七戸町","jp_add_2":"十枝内"},"0392579":{"post_code":"0392579","prefecture":"AOMORI KEN","city":"KAMIKITA GUN SHICHINOHE MACHI","town":"TOYAKUNO","perfecture_jp":"青森県","jp_add_1":"上北郡七戸町","jp_add_2":"十役野"},"0392503":{"post_code":"0392503","prefecture":"AOMORI KEN","city":"KAMIKITA GUN SHICHINOHE MACHI","town":"TOYOMANAI","perfecture_jp":"青森県","jp_add_1":"上北郡七戸町","jp_add_2":"豊間内"},"0392846":{"post_code":"0392846","prefecture":"AOMORI KEN","city":"KAMIKITA GUN SHICHINOHE MACHI","town":"TORIYABE","perfecture_jp":"青森県","jp_add_1":"上北郡七戸町","jp_add_2":"鳥谷部"},"0392554":{"post_code":"0392554","prefecture":"AOMORI KEN","city":"KAMIKITA GUN SHICHINOHE MACHI","town":"NAKAGUKI","perfecture_jp":"青森県","jp_add_1":"上北郡七戸町","jp_add_2":"中岫"},"0392782":{"post_code":"0392782","prefecture":"AOMORI KEN","city":"KAMIKITA GUN SHICHINOHE MACHI","town":"NAKAGUKIOTASHIMA","perfecture_jp":"青森県","jp_add_1":"上北郡七戸町","jp_add_2":"中岫太田嶋"},"0392784":{"post_code":"0392784","prefecture":"AOMORI KEN","city":"KAMIKITA GUN SHICHINOHE MACHI","town":"NAKAGUKINAGASAWASHIMO","perfecture_jp":"青森県","jp_add_1":"上北郡七戸町","jp_add_2":"中岫長沢下"},"0392783":{"post_code":"0392783","prefecture":"AOMORI KEN","city":"KAMIKITA GUN SHICHINOHE MACHI","town":"NAKAGUKIBANYA","perfecture_jp":"青森県","jp_add_1":"上北郡七戸町","jp_add_2":"中岫番屋"},"0392786":{"post_code":"0392786","prefecture":"AOMORI KEN","city":"KAMIKITA GUN SHICHINOHE MACHI","town":"NAKAGUKIHIGASHIMICHIZOE","perfecture_jp":"青森県","jp_add_1":"上北郡七戸町","jp_add_2":"中岫東道添"},"0392785":{"post_code":"0392785","prefecture":"AOMORI KEN","city":"KAMIKITA GUN SHICHINOHE MACHI","town":"NAKAGUKIMURANOKAMI","perfecture_jp":"青森県","jp_add_1":"上北郡七戸町","jp_add_2":"中岫村ノ上"},"0392711":{"post_code":"0392711","prefecture":"AOMORI KEN","city":"KAMIKITA GUN SHICHINOHE MACHI","town":"NAKATEMMADATE","perfecture_jp":"青森県","jp_add_1":"上北郡七戸町","jp_add_2":"中天間舘"},"0392842":{"post_code":"0392842","prefecture":"AOMORI KEN","city":"KAMIKITA GUN SHICHINOHE MACHI","town":"NAKATORIYA","perfecture_jp":"青森県","jp_add_1":"上北郡七戸町","jp_add_2":"中鳥谷"},"0392826":{"post_code":"0392826","prefecture":"AOMORI KEN","city":"KAMIKITA GUN SHICHINOHE MACHI","town":"NAKANO","perfecture_jp":"青森県","jp_add_1":"上北郡七戸町","jp_add_2":"中野"},"0392539":{"post_code":"0392539","prefecture":"AOMORI KEN","city":"KAMIKITA GUN SHICHINOHE MACHI","town":"NAKAMURA","perfecture_jp":"青森県","jp_add_1":"上北郡七戸町","jp_add_2":"中村"},"0392862":{"post_code":"0392862","prefecture":"AOMORI KEN","city":"KAMIKITA GUN SHICHINOHE MACHI","town":"NATSUMAGI","perfecture_jp":"青森県","jp_add_1":"上北郡七戸町","jp_add_2":"夏間木"},"0392517":{"post_code":"0392517","prefecture":"AOMORI KEN","city":"KAMIKITA GUN SHICHINOHE MACHI","town":"NATSUYAKI","perfecture_jp":"青森県","jp_add_1":"上北郡七戸町","jp_add_2":"夏焼"},"0392582":{"post_code":"0392582","prefecture":"AOMORI KEN","city":"KAMIKITA GUN SHICHINOHE MACHI","town":"NISHIKAMIKAWARA","perfecture_jp":"青森県","jp_add_1":"上北郡七戸町","jp_add_2":"西上川原"},"0392556":{"post_code":"0392556","prefecture":"AOMORI KEN","city":"KAMIKITA GUN SHICHINOHE MACHI","town":"NISHITSUKINOKI","perfecture_jp":"青森県","jp_add_1":"上北郡七戸町","jp_add_2":"西槻木"},"0392535":{"post_code":"0392535","prefecture":"AOMORI KEN","city":"KAMIKITA GUN SHICHINOHE MACHI","town":"NUMANOSAWA","perfecture_jp":"青森県","jp_add_1":"上北郡七戸町","jp_add_2":"沼ノ沢"},"0392536":{"post_code":"0392536","prefecture":"AOMORI KEN","city":"KAMIKITA GUN SHICHINOHE MACHI","town":"NOSAKAKE","perfecture_jp":"青森県","jp_add_1":"上北郡七戸町","jp_add_2":"野佐掛"},"0392801":{"post_code":"0392801","prefecture":"AOMORI KEN","city":"KAMIKITA GUN SHICHINOHE MACHI","town":"NOZAKI","perfecture_jp":"青森県","jp_add_1":"上北郡七戸町","jp_add_2":"野崎"},"0392804":{"post_code":"0392804","prefecture":"AOMORI KEN","city":"KAMIKITA GUN SHICHINOHE MACHI","town":"NOZAKIKITSUNEKUBO","perfecture_jp":"青森県","jp_add_1":"上北郡七戸町","jp_add_2":"野崎狐久保"},"0392802":{"post_code":"0392802","prefecture":"AOMORI KEN","city":"KAMIKITA GUN SHICHINOHE MACHI","town":"NOZAKIMAEHIRA","perfecture_jp":"青森県","jp_add_1":"上北郡七戸町","jp_add_2":"野崎前平"},"0392803":{"post_code":"0392803","prefecture":"AOMORI KEN","city":"KAMIKITA GUN SHICHINOHE MACHI","town":"NOZAKIMORINOSHIMO","perfecture_jp":"青森県","jp_add_1":"上北郡七戸町","jp_add_2":"野崎森ノ下"},"0392573":{"post_code":"0392573","prefecture":"AOMORI KEN","city":"KAMIKITA GUN SHICHINOHE MACHI","town":"NOTSUZUKI","perfecture_jp":"青森県","jp_add_1":"上北郡七戸町","jp_add_2":"野続"},"0392542":{"post_code":"0392542","prefecture":"AOMORI KEN","city":"KAMIKITA GUN SHICHINOHE MACHI","town":"HAGINOSAWA","perfecture_jp":"青森県","jp_add_1":"上北郡七戸町","jp_add_2":"萩ノ沢"},"0392843":{"post_code":"0392843","prefecture":"AOMORI KEN","city":"KAMIKITA GUN SHICHINOHE MACHI","town":"HASHINOKAMI","perfecture_jp":"青森県","jp_add_1":"上北郡七戸町","jp_add_2":"橋ノ上"},"0392752":{"post_code":"0392752","prefecture":"AOMORI KEN","city":"KAMIKITA GUN SHICHINOHE MACHI","town":"HACHIMORITAI","perfecture_jp":"青森県","jp_add_1":"上北郡七戸町","jp_add_2":"鉢森平"},"0392544":{"post_code":"0392544","prefecture":"AOMORI KEN","city":"KAMIKITA GUN SHICHINOHE MACHI","town":"HAKKURITAI","perfecture_jp":"青森県","jp_add_1":"上北郡七戸町","jp_add_2":"八栗平"},"0392553":{"post_code":"0392553","prefecture":"AOMORI KEN","city":"KAMIKITA GUN SHICHINOHE MACHI","town":"HASSHAKUDO","perfecture_jp":"青森県","jp_add_1":"上北郡七戸町","jp_add_2":"八尺堂"},"0392566":{"post_code":"0392566","prefecture":"AOMORI KEN","city":"KAMIKITA GUN SHICHINOHE MACHI","town":"HANATSUMORI","perfecture_jp":"青森県","jp_add_1":"上北郡七戸町","jp_add_2":"放森"},"0392781":{"post_code":"0392781","prefecture":"AOMORI KEN","city":"KAMIKITA GUN SHICHINOHE MACHI","town":"HANAMATSUHAYASHINONE","perfecture_jp":"青森県","jp_add_1":"上北郡七戸町","jp_add_2":"花松林ノ根"},"0392805":{"post_code":"0392805","prefecture":"AOMORI KEN","city":"KAMIKITA GUN SHICHINOHE MACHI","town":"HARAKUBO","perfecture_jp":"青森県","jp_add_1":"上北郡七戸町","jp_add_2":"原久保"},"0392581":{"post_code":"0392581","prefecture":"AOMORI KEN","city":"KAMIKITA GUN SHICHINOHE MACHI","town":"HIGASHIKAMIKAWARA","perfecture_jp":"青森県","jp_add_1":"上北郡七戸町","jp_add_2":"東上川原"},"0392513":{"post_code":"0392513","prefecture":"AOMORI KEN","city":"KAMIKITA GUN SHICHINOHE MACHI","town":"HIGASHITSUKINOKI","perfecture_jp":"青森県","jp_add_1":"上北郡七戸町","jp_add_2":"東槻木"},"0392713":{"post_code":"0392713","prefecture":"AOMORI KEN","city":"KAMIKITA GUN SHICHINOHE MACHI","town":"HIGASHITEMMADATE","perfecture_jp":"青森県","jp_add_1":"上北郡七戸町","jp_add_2":"東天間舘"},"0392506":{"post_code":"0392506","prefecture":"AOMORI KEN","city":"KAMIKITA GUN SHICHINOHE MACHI","town":"HIZAMORI","perfecture_jp":"青森県","jp_add_1":"上北郡七戸町","jp_add_2":"膝森"},"0392504":{"post_code":"0392504","prefecture":"AOMORI KEN","city":"KAMIKITA GUN SHICHINOHE MACHI","town":"HIYAMIZU","perfecture_jp":"青森県","jp_add_1":"上北郡七戸町","jp_add_2":"寒水"},"0392761":{"post_code":"0392761","prefecture":"AOMORI KEN","city":"KAMIKITA GUN SHICHINOHE MACHI","town":"FUTATSUMORIIENOSHIRO","perfecture_jp":"青森県","jp_add_1":"上北郡七戸町","jp_add_2":"二ツ森家ノ後"},"0392763":{"post_code":"0392763","prefecture":"AOMORI KEN","city":"KAMIKITA GUN SHICHINOHE MACHI","town":"FUTATSUMORIIENOMOTE","perfecture_jp":"青森県","jp_add_1":"上北郡七戸町","jp_add_2":"二ツ森家ノ表"},"0392762":{"post_code":"0392762","prefecture":"AOMORI KEN","city":"KAMIKITA GUN SHICHINOHE MACHI","town":"FUTATSUMORIIENOSHITA","perfecture_jp":"青森県","jp_add_1":"上北郡七戸町","jp_add_2":"二ツ森家ノ下"},"0392742":{"post_code":"0392742","prefecture":"AOMORI KEN","city":"KAMIKITA GUN SHICHINOHE MACHI","town":"FUNABAMUKAIGAWAKUBO","perfecture_jp":"青森県","jp_add_1":"上北郡七戸町","jp_add_2":"舟場向川久保"},"0392564":{"post_code":"0392564","prefecture":"AOMORI KEN","city":"KAMIKITA GUN SHICHINOHE MACHI","town":"FURUYASHIKI","perfecture_jp":"青森県","jp_add_1":"上北郡七戸町","jp_add_2":"古屋敷"},"0392545":{"post_code":"0392545","prefecture":"AOMORI KEN","city":"KAMIKITA GUN SHICHINOHE MACHI","town":"BESSO","perfecture_jp":"青森県","jp_add_1":"上北郡七戸町","jp_add_2":"別曽"},"0392571":{"post_code":"0392571","prefecture":"AOMORI KEN","city":"KAMIKITA GUN SHICHINOHE MACHI","town":"HEBISAKA","perfecture_jp":"青森県","jp_add_1":"上北郡七戸町","jp_add_2":"蛇坂"},"0392716":{"post_code":"0392716","prefecture":"AOMORI KEN","city":"KAMIKITA GUN SHICHINOHE MACHI","town":"BODAIGI","perfecture_jp":"青森県","jp_add_1":"上北郡七戸町","jp_add_2":"菩提木"},"0392583":{"post_code":"0392583","prefecture":"AOMORI KEN","city":"KAMIKITA GUN SHICHINOHE MACHI","town":"MAEKAWARA","perfecture_jp":"青森県","jp_add_1":"上北郡七戸町","jp_add_2":"前川原"},"0392773":{"post_code":"0392773","prefecture":"AOMORI KEN","city":"KAMIKITA GUN SHICHINOHE MACHI","town":"MAESANO","perfecture_jp":"青森県","jp_add_1":"上北郡七戸町","jp_add_2":"前左野"},"0392555":{"post_code":"0392555","prefecture":"AOMORI KEN","city":"KAMIKITA GUN SHICHINOHE MACHI","town":"MAEDA","perfecture_jp":"青森県","jp_add_1":"上北郡七戸町","jp_add_2":"前田"},"0392569":{"post_code":"0392569","prefecture":"AOMORI KEN","city":"KAMIKITA GUN SHICHINOHE MACHI","town":"MAKADOGAWARA","perfecture_jp":"青森県","jp_add_1":"上北郡七戸町","jp_add_2":"馬門川原"},"0392527":{"post_code":"0392527","prefecture":"AOMORI KEN","city":"KAMIKITA GUN SHICHINOHE MACHI","town":"MACHI","perfecture_jp":"青森県","jp_add_1":"上北郡七戸町","jp_add_2":"町"},"0392835":{"post_code":"0392835","prefecture":"AOMORI KEN","city":"KAMIKITA GUN SHICHINOHE MACHI","town":"MATSUGASAWA","perfecture_jp":"青森県","jp_add_1":"上北郡七戸町","jp_add_2":"松ケ沢"},"0392832":{"post_code":"0392832","prefecture":"AOMORI KEN","city":"KAMIKITA GUN SHICHINOHE MACHI","town":"MICHINOKAMI","perfecture_jp":"青森県","jp_add_1":"上北郡七戸町","jp_add_2":"道ノ上"},"0392814":{"post_code":"0392814","prefecture":"AOMORI KEN","city":"KAMIKITA GUN SHICHINOHE MACHI","town":"MICHINOSHIMO","perfecture_jp":"青森県","jp_add_1":"上北郡七戸町","jp_add_2":"道ノ下"},"0392748":{"post_code":"0392748","prefecture":"AOMORI KEN","city":"KAMIKITA GUN SHICHINOHE MACHI","town":"MINAMIDATEMUKAI","perfecture_jp":"青森県","jp_add_1":"上北郡七戸町","jp_add_2":"南舘向"},"0392541":{"post_code":"0392541","prefecture":"AOMORI KEN","city":"KAMIKITA GUN SHICHINOHE MACHI","town":"MIYAKOTAI","perfecture_jp":"青森県","jp_add_1":"上北郡七戸町","jp_add_2":"都平"},"0392548":{"post_code":"0392548","prefecture":"AOMORI KEN","city":"KAMIKITA GUN SHICHINOHE MACHI","town":"MIRUMACHI","perfecture_jp":"青森県","jp_add_1":"上北郡七戸町","jp_add_2":"見町"},"0392722":{"post_code":"0392722","prefecture":"AOMORI KEN","city":"KAMIKITA GUN SHICHINOHE MACHI","town":"MUKAIKAWARA","perfecture_jp":"青森県","jp_add_1":"上北郡七戸町","jp_add_2":"向川原"},"0392563":{"post_code":"0392563","prefecture":"AOMORI KEN","city":"KAMIKITA GUN SHICHINOHE MACHI","town":"MUKAITAI","perfecture_jp":"青森県","jp_add_1":"上北郡七戸町","jp_add_2":"向平"},"0392834":{"post_code":"0392834","prefecture":"AOMORI KEN","city":"KAMIKITA GUN SHICHINOHE MACHI","town":"MUKAINAKANOKAWAMUKAI","perfecture_jp":"青森県","jp_add_1":"上北郡七戸町","jp_add_2":"向中野川向"},"0392828":{"post_code":"0392828","prefecture":"AOMORI KEN","city":"KAMIKITA GUN SHICHINOHE MACHI","town":"MORIGASAWA","perfecture_jp":"青森県","jp_add_1":"上北郡七戸町","jp_add_2":"森ケ沢"},"0392827":{"post_code":"0392827","prefecture":"AOMORI KEN","city":"KAMIKITA GUN SHICHINOHE MACHI","town":"MORINOKAMI","perfecture_jp":"青森県","jp_add_1":"上北郡七戸町","jp_add_2":"森ノ上"},"0392815":{"post_code":"0392815","prefecture":"AOMORI KEN","city":"KAMIKITA GUN SHICHINOHE MACHI","town":"MORINOSHIMO","perfecture_jp":"青森県","jp_add_1":"上北郡七戸町","jp_add_2":"森ノ下"},"0392551":{"post_code":"0392551","prefecture":"AOMORI KEN","city":"KAMIKITA GUN SHICHINOHE MACHI","town":"YAKUSHITAI","perfecture_jp":"青森県","jp_add_1":"上北郡七戸町","jp_add_2":"薬師平"},"0392547":{"post_code":"0392547","prefecture":"AOMORI KEN","city":"KAMIKITA GUN SHICHINOHE MACHI","town":"YAGURA","perfecture_jp":"青森県","jp_add_1":"上北郡七戸町","jp_add_2":"矢倉"},"0392717":{"post_code":"0392717","prefecture":"AOMORI KEN","city":"KAMIKITA GUN SHICHINOHE MACHI","town":"YANAGITAIRA","perfecture_jp":"青森県","jp_add_1":"上北郡七戸町","jp_add_2":"柳平"},"0392559":{"post_code":"0392559","prefecture":"AOMORI KEN","city":"KAMIKITA GUN SHICHINOHE MACHI","town":"YAMAYA","perfecture_jp":"青森県","jp_add_1":"上北郡七戸町","jp_add_2":"山屋"},"0392589":{"post_code":"0392589","prefecture":"AOMORI KEN","city":"KAMIKITA GUN SHICHINOHE MACHI","town":"WADA","perfecture_jp":"青森県","jp_add_1":"上北郡七戸町","jp_add_2":"和田"},"0392588":{"post_code":"0392588","prefecture":"AOMORI KEN","city":"KAMIKITA GUN SHICHINOHE MACHI","town":"WADASHIMO","perfecture_jp":"青森県","jp_add_1":"上北郡七戸町","jp_add_2":"和田下"},"0392300":{"post_code":"0392300","prefecture":"AOMORI KEN","city":"KAMIKITA GUN ROKUNOHE MACHI","town":"IKANIKEISAIGANAIBAAI","perfecture_jp":"青森県","jp_add_1":"上北郡六戸町","jp_add_2":""},"0392371":{"post_code":"0392371","prefecture":"AOMORI KEN","city":"KAMIKITA GUN ROKUNOHE MACHI","town":"INUOTOSE(SONOTA)","perfecture_jp":"青森県","jp_add_1":"上北郡六戸町","jp_add_2":"犬落瀬"},"0392372":{"post_code":"0392372","prefecture":"AOMORI KEN","city":"KAMIKITA GUN ROKUNOHE MACHI","town":"ORIMO(SONOTA)","perfecture_jp":"青森県","jp_add_1":"上北郡六戸町","jp_add_2":"折茂"},"0392311":{"post_code":"0392311","prefecture":"AOMORI KEN","city":"KAMIKITA GUN ROKUNOHE MACHI","town":"KAMIYOSHIDA","perfecture_jp":"青森県","jp_add_1":"上北郡六戸町","jp_add_2":"上吉田"},"0392314":{"post_code":"0392314","prefecture":"AOMORI KEN","city":"KAMIKITA GUN ROKUNOHE MACHI","town":"KODAIRA","perfecture_jp":"青森県","jp_add_1":"上北郡六戸町","jp_add_2":"小平"},"0392312":{"post_code":"0392312","prefecture":"AOMORI KEN","city":"KAMIKITA GUN ROKUNOHE MACHI","town":"SHIMOYOSHIDA","perfecture_jp":"青森県","jp_add_1":"上北郡六戸町","jp_add_2":"下吉田"},"0392313":{"post_code":"0392313","prefecture":"AOMORI KEN","city":"KAMIKITA GUN ROKUNOHE MACHI","town":"TSURUBAMI","perfecture_jp":"青森県","jp_add_1":"上北郡六戸町","jp_add_2":"鶴喰"},"0392315":{"post_code":"0392315","prefecture":"AOMORI KEN","city":"KAMIKITA GUN ROKUNOHE MACHI","town":"YANAGIMACHI","perfecture_jp":"青森県","jp_add_1":"上北郡六戸町","jp_add_2":"柳町"},"0394100":{"post_code":"0394100","prefecture":"AOMORI KEN","city":"KAMIKITA GUN YOKOHAMA MACHI","town":"IKANIKEISAIGANAIBAAI","perfecture_jp":"青森県","jp_add_1":"上北郡横浜町","jp_add_2":""},"0394106":{"post_code":"0394106","prefecture":"AOMORI KEN","city":"KAMIKITA GUN YOKOHAMA MACHI","town":"ARIHATA","perfecture_jp":"青森県","jp_add_1":"上北郡横浜町","jp_add_2":"有畑"},"0394113":{"post_code":"0394113","prefecture":"AOMORI KEN","city":"KAMIKITA GUN YOKOHAMA MACHI","town":"IENOMAEKAWAME","perfecture_jp":"青森県","jp_add_1":"上北郡横浜町","jp_add_2":"家ノ前川目"},"0394115":{"post_code":"0394115","prefecture":"AOMORI KEN","city":"KAMIKITA GUN YOKOHAMA MACHI","town":"INARITAIRA","perfecture_jp":"青森県","jp_add_1":"上北郡横浜町","jp_add_2":"稲荷平"},"0394112":{"post_code":"0394112","prefecture":"AOMORI KEN","city":"KAMIKITA GUN YOKOHAMA MACHI","town":"EZOGASAWATAIRA","perfecture_jp":"青森県","jp_add_1":"上北郡横浜町","jp_add_2":"夷ケ沢平"},"0394111":{"post_code":"0394111","prefecture":"AOMORI KEN","city":"KAMIKITA GUN YOKOHAMA MACHI","town":"OHATA","perfecture_jp":"青森県","jp_add_1":"上北郡横浜町","jp_add_2":"大畑"},"0394131":{"post_code":"0394131","prefecture":"AOMORI KEN","city":"KAMIKITA GUN YOKOHAMA MACHI","town":"KABANAKI","perfecture_jp":"青森県","jp_add_1":"上北郡横浜町","jp_add_2":"椛名木"},"0394142":{"post_code":"0394142","prefecture":"AOMORI KEN","city":"KAMIKITA GUN YOKOHAMA MACHI","town":"KAMIITAYANOKI","perfecture_jp":"青森県","jp_add_1":"上北郡横浜町","jp_add_2":"上イタヤノ木"},"0394123":{"post_code":"0394123","prefecture":"AOMORI KEN","city":"KAMIKITA GUN YOKOHAMA MACHI","town":"KAYATAIRA","perfecture_jp":"青森県","jp_add_1":"上北郡横浜町","jp_add_2":"茅平"},"0394124":{"post_code":"0394124","prefecture":"AOMORI KEN","city":"KAMIKITA GUN YOKOHAMA MACHI","town":"KAWAJIRI","perfecture_jp":"青森県","jp_add_1":"上北郡横浜町","jp_add_2":"川尻"},"0394103":{"post_code":"0394103","prefecture":"AOMORI KEN","city":"KAMIKITA GUN YOKOHAMA MACHI","town":"KAWATAROKAWAME","perfecture_jp":"青森県","jp_add_1":"上北郡横浜町","jp_add_2":"川太郎川目"},"0394137":{"post_code":"0394137","prefecture":"AOMORI KEN","city":"KAMIKITA GUN YOKOHAMA MACHI","town":"SHIMOGAWARA","perfecture_jp":"青森県","jp_add_1":"上北郡横浜町","jp_add_2":"下川原"},"0394104":{"post_code":"0394104","prefecture":"AOMORI KEN","city":"KAMIKITA GUN YOKOHAMA MACHI","town":"SHIMONAWASHIROKAWAME","perfecture_jp":"青森県","jp_add_1":"上北郡横浜町","jp_add_2":"下苗代川目"},"0394133":{"post_code":"0394133","prefecture":"AOMORI KEN","city":"KAMIKITA GUN YOKOHAMA MACHI","town":"TATENOSHIRO","perfecture_jp":"青森県","jp_add_1":"上北郡横浜町","jp_add_2":"舘の後"},"0394132":{"post_code":"0394132","prefecture":"AOMORI KEN","city":"KAMIKITA GUN YOKOHAMA MACHI","town":"TAROSUDA","perfecture_jp":"青森県","jp_add_1":"上北郡横浜町","jp_add_2":"太郎須田"},"0394138":{"post_code":"0394138","prefecture":"AOMORI KEN","city":"KAMIKITA GUN YOKOHAMA MACHI","town":"TSUKANATAIRA","perfecture_jp":"青森県","jp_add_1":"上北郡横浜町","jp_add_2":"塚名平"},"0394145":{"post_code":"0394145","prefecture":"AOMORI KEN","city":"KAMIKITA GUN YOKOHAMA MACHI","town":"TERASHITA","perfecture_jp":"青森県","jp_add_1":"上北郡横浜町","jp_add_2":"寺下"},"0394152":{"post_code":"0394152","prefecture":"AOMORI KEN","city":"KAMIKITA GUN YOKOHAMA MACHI","town":"DOMEKI","perfecture_jp":"青森県","jp_add_1":"上北郡横浜町","jp_add_2":"百目木"},"0394155":{"post_code":"0394155","prefecture":"AOMORI KEN","city":"KAMIKITA GUN YOKOHAMA MACHI","town":"TOYOSAKATAIRA","perfecture_jp":"青森県","jp_add_1":"上北郡横浜町","jp_add_2":"豊栄平"},"0394122":{"post_code":"0394122","prefecture":"AOMORI KEN","city":"KAMIKITA GUN YOKOHAMA MACHI","town":"TORIGAUTA","perfecture_jp":"青森県","jp_add_1":"上北郡横浜町","jp_add_2":"鶏ケ唄"},"0394116":{"post_code":"0394116","prefecture":"AOMORI KEN","city":"KAMIKITA GUN YOKOHAMA MACHI","town":"NAKAHATA","perfecture_jp":"青森県","jp_add_1":"上北郡横浜町","jp_add_2":"中畑"},"0394105":{"post_code":"0394105","prefecture":"AOMORI KEN","city":"KAMIKITA GUN YOKOHAMA MACHI","town":"NAWASHIROKAWAME","perfecture_jp":"青森県","jp_add_1":"上北郡横浜町","jp_add_2":"苗代川目"},"0394117":{"post_code":"0394117","prefecture":"AOMORI KEN","city":"KAMIKITA GUN YOKOHAMA MACHI","town":"NIWATORIZAWA","perfecture_jp":"青森県","jp_add_1":"上北郡横浜町","jp_add_2":"鶏沢"},"0394144":{"post_code":"0394144","prefecture":"AOMORI KEN","city":"KAMIKITA GUN YOKOHAMA MACHI","town":"HAMAGAKE","perfecture_jp":"青森県","jp_add_1":"上北郡横浜町","jp_add_2":"浜懸"},"0394102":{"post_code":"0394102","prefecture":"AOMORI KEN","city":"KAMIKITA GUN YOKOHAMA MACHI","town":"HAMADA","perfecture_jp":"青森県","jp_add_1":"上北郡横浜町","jp_add_2":"浜田"},"0394101":{"post_code":"0394101","prefecture":"AOMORI KEN","city":"KAMIKITA GUN YOKOHAMA MACHI","town":"HAYASHIJIRI","perfecture_jp":"青森県","jp_add_1":"上北郡横浜町","jp_add_2":"林尻"},"0394135":{"post_code":"0394135","prefecture":"AOMORI KEN","city":"KAMIKITA GUN YOKOHAMA MACHI","town":"HAYASHINOSHIRO","perfecture_jp":"青森県","jp_add_1":"上北郡横浜町","jp_add_2":"林の後"},"0394134":{"post_code":"0394134","prefecture":"AOMORI KEN","city":"KAMIKITA GUN YOKOHAMA MACHI","town":"HAYASHINOWAKI","perfecture_jp":"青森県","jp_add_1":"上北郡横浜町","jp_add_2":"林の脇"},"0394121":{"post_code":"0394121","prefecture":"AOMORI KEN","city":"KAMIKITA GUN YOKOHAMA MACHI","town":"HINOKI","perfecture_jp":"青森県","jp_add_1":"上北郡横浜町","jp_add_2":"桧木"},"0394156":{"post_code":"0394156","prefecture":"AOMORI KEN","city":"KAMIKITA GUN YOKOHAMA MACHI","town":"HIBARITAIRA","perfecture_jp":"青森県","jp_add_1":"上北郡横浜町","jp_add_2":"雲雀平"},"0394157":{"post_code":"0394157","prefecture":"AOMORI KEN","city":"KAMIKITA GUN YOKOHAMA MACHI","town":"FUTAMATA","perfecture_jp":"青森県","jp_add_1":"上北郡横浜町","jp_add_2":"二又"},"0394153":{"post_code":"0394153","prefecture":"AOMORI KEN","city":"KAMIKITA GUN YOKOHAMA MACHI","town":"FUKKOSHI","perfecture_jp":"青森県","jp_add_1":"上北郡横浜町","jp_add_2":"吹越"},"0394114":{"post_code":"0394114","prefecture":"AOMORI KEN","city":"KAMIKITA GUN YOKOHAMA MACHI","town":"MAMEDA","perfecture_jp":"青森県","jp_add_1":"上北郡横浜町","jp_add_2":"大豆田"},"0394141":{"post_code":"0394141","prefecture":"AOMORI KEN","city":"KAMIKITA GUN YOKOHAMA MACHI","town":"MIHONO","perfecture_jp":"青森県","jp_add_1":"上北郡横浜町","jp_add_2":"三保野"},"0394154":{"post_code":"0394154","prefecture":"AOMORI KEN","city":"KAMIKITA GUN YOKOHAMA MACHI","town":"MYOJINTAIRA","perfecture_jp":"青森県","jp_add_1":"上北郡横浜町","jp_add_2":"明神平"},"0394151":{"post_code":"0394151","prefecture":"AOMORI KEN","city":"KAMIKITA GUN YOKOHAMA MACHI","town":"MUKAITAIRA","perfecture_jp":"青森県","jp_add_1":"上北郡横浜町","jp_add_2":"向平"},"0394143":{"post_code":"0394143","prefecture":"AOMORI KEN","city":"KAMIKITA GUN YOKOHAMA MACHI","town":"YASHIKIGATA","perfecture_jp":"青森県","jp_add_1":"上北郡横浜町","jp_add_2":"屋敷形"},"0394136":{"post_code":"0394136","prefecture":"AOMORI KEN","city":"KAMIKITA GUN YOKOHAMA MACHI","town":"YOKOHAMA","perfecture_jp":"青森県","jp_add_1":"上北郡横浜町","jp_add_2":"横浜"},"0392600":{"post_code":"0392600","prefecture":"AOMORI KEN","city":"KAMIKITA GUN TOHOKU MACHI","town":"IKANIKEISAIGANAIBAAI","perfecture_jp":"青森県","jp_add_1":"上北郡東北町","jp_add_2":""},"0392657":{"post_code":"0392657","prefecture":"AOMORI KEN","city":"KAMIKITA GUN TOHOKU MACHI","town":"AKAGAWAMICHI","perfecture_jp":"青森県","jp_add_1":"上北郡東北町","jp_add_2":"赤川道"},"0392604":{"post_code":"0392604","prefecture":"AOMORI KEN","city":"KAMIKITA GUN TOHOKU MACHI","town":"YOKOSAWAGASHIRA","perfecture_jp":"青森県","jp_add_1":"上北郡東北町","jp_add_2":"空久保"},"0392406":{"post_code":"0392406","prefecture":"AOMORI KEN","city":"KAMIKITA GUN TOHOKU MACHI","town":"ASAHIKITA","perfecture_jp":"青森県","jp_add_1":"上北郡東北町","jp_add_2":"旭北"},"0392407":{"post_code":"0392407","prefecture":"AOMORI KEN","city":"KAMIKITA GUN TOHOKU MACHI","town":"ASAHIMINAMI","perfecture_jp":"青森県","jp_add_1":"上北郡東北町","jp_add_2":"旭南"},"0392685":{"post_code":"0392685","prefecture":"AOMORI KEN","city":"KAMIKITA GUN TOHOKU MACHI","town":"KAMIITABASHI IENOSHIRO","perfecture_jp":"青森県","jp_add_1":"上北郡東北町","jp_add_2":"家ノ下タ"},"0392681":{"post_code":"0392681","prefecture":"AOMORI KEN","city":"KAMIKITA GUN TOHOKU MACHI","town":"YAMAZOI","perfecture_jp":"青森県","jp_add_1":"上北郡東北町","jp_add_2":"家ノ前"},"0392602":{"post_code":"0392602","prefecture":"AOMORI KEN","city":"KAMIKITA GUN TOHOKU MACHI","town":"HOSOTSUHASHINOKAMI","perfecture_jp":"青森県","jp_add_1":"上北郡東北町","jp_add_2":"五十嵐"},"0392682":{"post_code":"0392682","prefecture":"AOMORI KEN","city":"KAMIKITA GUN TOHOKU MACHI","town":"YUZAWA","perfecture_jp":"青森県","jp_add_1":"上北郡東北町","jp_add_2":"石坂"},"0392683":{"post_code":"0392683","prefecture":"AOMORI KEN","city":"KAMIKITA GUN TOHOKU MACHI","town":"ODAIRA","perfecture_jp":"青森県","jp_add_1":"上北郡東北町","jp_add_2":"板橋山"},"0392626":{"post_code":"0392626","prefecture":"AOMORI KEN","city":"KAMIKITA GUN TOHOKU MACHI","town":"TSUTSUMIJIRI","perfecture_jp":"青森県","jp_add_1":"上北郡東北町","jp_add_2":"後久保"},"0392655":{"post_code":"0392655","prefecture":"AOMORI KEN","city":"KAMIKITA GUN TOHOKU MACHI","town":"UCHIEBISAWA MICHINOKAMI","perfecture_jp":"青森県","jp_add_1":"上北郡東北町","jp_add_2":"内蛯沢道ノ上"},"0392656":{"post_code":"0392656","prefecture":"AOMORI KEN","city":"KAMIKITA GUN TOHOKU MACHI","town":"UCHIEBISAWA MUKAI","perfecture_jp":"青森県","jp_add_1":"上北郡東北町","jp_add_2":"内蛯沢向"},"0392686":{"post_code":"0392686","prefecture":"AOMORI KEN","city":"KAMIKITA GUN TOHOKU MACHI","town":"SOENOSAWA","perfecture_jp":"青森県","jp_add_1":"上北郡東北町","jp_add_2":"宇道坂"},"0392607":{"post_code":"0392607","prefecture":"AOMORI KEN","city":"KAMIKITA GUN TOHOKU MACHI","town":"UBASAWA","perfecture_jp":"青森県","jp_add_1":"上北郡東北町","jp_add_2":"姥沢"},"0392673":{"post_code":"0392673","prefecture":"AOMORI KEN","city":"KAMIKITA GUN TOHOKU MACHI","town":"YAMANOSHITA","perfecture_jp":"青森県","jp_add_1":"上北郡東北町","jp_add_2":"馬尻"},"0392401":{"post_code":"0392401","prefecture":"AOMORI KEN","city":"KAMIKITA GUN TOHOKU MACHI","town":"UWANO","perfecture_jp":"青森県","jp_add_1":"上北郡東北町","jp_add_2":"上野"},"0392612":{"post_code":"0392612","prefecture":"AOMORI KEN","city":"KAMIKITA GUN TOHOKU MACHI","town":"HAMADAI","perfecture_jp":"青森県","jp_add_1":"上北郡東北町","jp_add_2":"狼ノ沢"},"0392402":{"post_code":"0392402","prefecture":"AOMORI KEN","city":"KAMIKITA GUN TOHOKU MACHI","town":"OURA","perfecture_jp":"青森県","jp_add_1":"上北郡東北町","jp_add_2":"大浦"},"0392623":{"post_code":"0392623","prefecture":"AOMORI KEN","city":"KAMIKITA GUN TOHOKU MACHI","town":"YOKOSHIDA","perfecture_jp":"青森県","jp_add_1":"上北郡東北町","jp_add_2":"大久保"},"0392651":{"post_code":"0392651","prefecture":"AOMORI KEN","city":"KAMIKITA GUN TOHOKU MACHI","town":"OSAWA","perfecture_jp":"青森県","jp_add_1":"上北郡東北町","jp_add_2":"大沢"},"0392688":{"post_code":"0392688","prefecture":"AOMORI KEN","city":"KAMIKITA GUN TOHOKU MACHI","town":"ONADESAWA","perfecture_jp":"青森県","jp_add_1":"上北郡東北町","jp_add_2":"大撫沢"},"0392636":{"post_code":"0392636","prefecture":"AOMORI KEN","city":"KAMIKITA GUN TOHOKU MACHI","town":"ORAINOKAMI","perfecture_jp":"青森県","jp_add_1":"上北郡東北町","jp_add_2":"往来ノ上"},"0392634":{"post_code":"0392634","prefecture":"AOMORI KEN","city":"KAMIKITA GUN TOHOKU MACHI","town":"ORAINOSHIMO","perfecture_jp":"青森県","jp_add_1":"上北郡東北町","jp_add_2":"往来ノ下"},"0392671":{"post_code":"0392671","prefecture":"AOMORI KEN","city":"KAMIKITA GUN TOHOKU MACHI","town":"OZAWA","perfecture_jp":"青森県","jp_add_1":"上北郡東北町","jp_add_2":"小沢"},"0392635":{"post_code":"0392635","prefecture":"AOMORI KEN","city":"KAMIKITA GUN TOHOKU MACHI","town":"TORIGUCHITAI","perfecture_jp":"青森県","jp_add_1":"上北郡東北町","jp_add_2":"乙越"},"0392664":{"post_code":"0392664","prefecture":"AOMORI KEN","city":"KAMIKITA GUN TOHOKU MACHI","town":"OTTOMO","perfecture_jp":"青森県","jp_add_1":"上北郡東北町","jp_add_2":"乙供"},"0392666":{"post_code":"0392666","prefecture":"AOMORI KEN","city":"KAMIKITA GUN TOHOKU MACHI","town":"OTTOMOYAMA","perfecture_jp":"青森県","jp_add_1":"上北郡東北町","jp_add_2":"乙供山"},"0392643":{"post_code":"0392643","prefecture":"AOMORI KEN","city":"KAMIKITA GUN TOHOKU MACHI","town":"OTOBE MICHINOSHIMO","perfecture_jp":"青森県","jp_add_1":"上北郡東北町","jp_add_2":"乙部道ノ上"},"0392601":{"post_code":"0392601","prefecture":"AOMORI KEN","city":"KAMIKITA GUN TOHOKU MACHI","town":"GASUTAI","perfecture_jp":"青森県","jp_add_1":"上北郡東北町","jp_add_2":"ガス平"},"0392606":{"post_code":"0392606","prefecture":"AOMORI KEN","city":"KAMIKITA GUN TOHOKU MACHI","town":"YAJIGASHIRA","perfecture_jp":"青森県","jp_add_1":"上北郡東北町","jp_add_2":"数牛"},"0392404":{"post_code":"0392404","prefecture":"AOMORI KEN","city":"KAMIKITA GUN TOHOKU MACHI","town":"KAMIKITAKITA","perfecture_jp":"青森県","jp_add_1":"上北郡東北町","jp_add_2":"上北北"},"0392405":{"post_code":"0392405","prefecture":"AOMORI KEN","city":"KAMIKITA GUN TOHOKU MACHI","town":"KAMIKITAMINAMI","perfecture_jp":"青森県","jp_add_1":"上北郡東北町","jp_add_2":"上北南"},"0392661":{"post_code":"0392661","prefecture":"AOMORI KEN","city":"KAMIKITA GUN TOHOKU MACHI","town":"KAMISASABASHI","perfecture_jp":"青森県","jp_add_1":"上北郡東北町","jp_add_2":"上笹橋"},"0392687":{"post_code":"0392687","prefecture":"AOMORI KEN","city":"KAMIKITA GUN TOHOKU MACHI","town":"HAYASHINOSHITA","perfecture_jp":"青森県","jp_add_1":"上北郡東北町","jp_add_2":"上清水目"},"0392668":{"post_code":"0392668","prefecture":"AOMORI KEN","city":"KAMIKITA GUN TOHOKU MACHI","town":"SHINONAITAI","perfecture_jp":"青森県","jp_add_1":"上北郡東北町","jp_add_2":"北膳前"},"0392678":{"post_code":"0392678","prefecture":"AOMORI KEN","city":"KAMIKITA GUN TOHOKU MACHI","town":"CHOJAKUBO","perfecture_jp":"青森県","jp_add_1":"上北郡東北町","jp_add_2":"狐沢山"},"0392616":{"post_code":"0392616","prefecture":"AOMORI KEN","city":"KAMIKITA GUN TOHOKU MACHI","town":"KIRISAZAKAMICHINOKAMI","perfecture_jp":"青森県","jp_add_1":"上北郡東北町","jp_add_2":"切左坂道ノ上"},"0392614":{"post_code":"0392614","prefecture":"AOMORI KEN","city":"KAMIKITA GUN TOHOKU MACHI","town":"KIRISAZAKAMICHINOSHIMO","perfecture_jp":"青森県","jp_add_1":"上北郡東北町","jp_add_2":"切左坂道ノ下"},"0392672":{"post_code":"0392672","prefecture":"AOMORI KEN","city":"KAMIKITA GUN TOHOKU MACHI","town":"MUKAIHATAYA","perfecture_jp":"青森県","jp_add_1":"上北郡東北町","jp_add_2":"栗山添"},"0392641":{"post_code":"0392641","prefecture":"AOMORI KEN","city":"KAMIKITA GUN TOHOKU MACHI","town":"KOBONOKI","perfecture_jp":"青森県","jp_add_1":"上北郡東北町","jp_add_2":"枋木"},"0392605":{"post_code":"0392605","prefecture":"AOMORI KEN","city":"KAMIKITA GUN TOHOKU MACHI","town":"TAKAMORI","perfecture_jp":"青森県","jp_add_1":"上北郡東北町","jp_add_2":"淋代"},"0392627":{"post_code":"0392627","prefecture":"AOMORI KEN","city":"KAMIKITA GUN TOHOKU MACHI","town":"SHITTAMA","perfecture_jp":"青森県","jp_add_1":"上北郡東北町","jp_add_2":"漆玉"},"0392676":{"post_code":"0392676","prefecture":"AOMORI KEN","city":"KAMIKITA GUN TOHOKU MACHI","town":"SHIMOITABASHI","perfecture_jp":"青森県","jp_add_1":"上北郡東北町","jp_add_2":"下板橋"},"0392662":{"post_code":"0392662","prefecture":"AOMORI KEN","city":"KAMIKITA GUN TOHOKU MACHI","town":"SHIMOSASABASHI","perfecture_jp":"青森県","jp_add_1":"上北郡東北町","jp_add_2":"下笹橋"},"0392653":{"post_code":"0392653","prefecture":"AOMORI KEN","city":"KAMIKITA GUN TOHOKU MACHI","town":"SHIMOYAMA","perfecture_jp":"青森県","jp_add_1":"上北郡東北町","jp_add_2":"下山"},"0392633":{"post_code":"0392633","prefecture":"AOMORI KEN","city":"KAMIKITA GUN TOHOKU MACHI","town":"WAYAMATAIRA","perfecture_jp":"青森県","jp_add_1":"上北郡東北町","jp_add_2":"素柄邸"},"0392667":{"post_code":"0392667","prefecture":"AOMORI KEN","city":"KAMIKITA GUN TOHOKU MACHI","town":"ZEMMAE","perfecture_jp":"青森県","jp_add_1":"上北郡東北町","jp_add_2":"膳前"},"0392647":{"post_code":"0392647","prefecture":"AOMORI KEN","city":"KAMIKITA GUN TOHOKU MACHI","town":"SOTOEBISAWA USHIROKUBO","perfecture_jp":"青森県","jp_add_1":"上北郡東北町","jp_add_2":"外蛯沢後久保"},"0392648":{"post_code":"0392648","prefecture":"AOMORI KEN","city":"KAMIKITA GUN TOHOKU MACHI","town":"SOTOEBISAWA KITAKUBO","perfecture_jp":"青森県","jp_add_1":"上北郡東北町","jp_add_2":"外蛯沢北久保"},"0392646":{"post_code":"0392646","prefecture":"AOMORI KEN","city":"KAMIKITA GUN TOHOKU MACHI","town":"SOTOEBISAWA NISHITAI","perfecture_jp":"青森県","jp_add_1":"上北郡東北町","jp_add_2":"外蛯沢西平"},"0392645":{"post_code":"0392645","prefecture":"AOMORI KEN","city":"KAMIKITA GUN TOHOKU MACHI","town":"SOTOEBISAWA MAETAI","perfecture_jp":"青森県","jp_add_1":"上北郡東北町","jp_add_2":"外蛯沢前平"},"0392631":{"post_code":"0392631","prefecture":"AOMORI KEN","city":"KAMIKITA GUN TOHOKU MACHI","town":"TAKISAWATAIRA","perfecture_jp":"青森県","jp_add_1":"上北郡東北町","jp_add_2":"滝沢平"},"0392624":{"post_code":"0392624","prefecture":"AOMORI KEN","city":"KAMIKITA GUN TOHOKU MACHI","town":"MICHINOKITA","perfecture_jp":"青森県","jp_add_1":"上北郡東北町","jp_add_2":"蓼内久保"},"0392663":{"post_code":"0392663","prefecture":"AOMORI KEN","city":"KAMIKITA GUN TOHOKU MACHI","town":"DATEHANA","perfecture_jp":"青森県","jp_add_1":"上北郡東北町","jp_add_2":"舘花"},"0392621":{"post_code":"0392621","prefecture":"AOMORI KEN","city":"KAMIKITA GUN TOHOKU MACHI","town":"TANOSAWA","perfecture_jp":"青森県","jp_add_1":"上北郡東北町","jp_add_2":"田ノ沢"},"0392675":{"post_code":"0392675","prefecture":"AOMORI KEN","city":"KAMIKITA GUN TOHOKU MACHI","town":"CHIBIKI","perfecture_jp":"青森県","jp_add_1":"上北郡東北町","jp_add_2":"千曳"},"0392674":{"post_code":"0392674","prefecture":"AOMORI KEN","city":"KAMIKITA GUN TOHOKU MACHI","town":"BUZOHARA","perfecture_jp":"青森県","jp_add_1":"上北郡東北町","jp_add_2":"千曳下山"},"0392654":{"post_code":"0392654","prefecture":"AOMORI KEN","city":"KAMIKITA GUN TOHOKU MACHI","town":"TONOSAWAYAMA","perfecture_jp":"青森県","jp_add_1":"上北郡東北町","jp_add_2":"塔ノ沢山"},"0392611":{"post_code":"0392611","prefecture":"AOMORI KEN","city":"KAMIKITA GUN TOHOKU MACHI","town":"NAKAMURA MICHINOSHIMO","perfecture_jp":"青森県","jp_add_1":"上北郡東北町","jp_add_2":"中村道ノ上"},"0392625":{"post_code":"0392625","prefecture":"AOMORI KEN","city":"KAMIKITA GUN TOHOKU MACHI","town":"NAGAKUBO","perfecture_jp":"青森県","jp_add_1":"上北郡東北町","jp_add_2":"長久保"},"0392403":{"post_code":"0392403","prefecture":"AOMORI KEN","city":"KAMIKITA GUN TOHOKU MACHI","town":"NIIDATE","perfecture_jp":"青森県","jp_add_1":"上北郡東北町","jp_add_2":"新舘"},"0392613":{"post_code":"0392613","prefecture":"AOMORI KEN","city":"KAMIKITA GUN TOHOKU MACHI","town":"NODAJIRI","perfecture_jp":"青森県","jp_add_1":"上北郡東北町","jp_add_2":"子ノ鳥平"},"0392622":{"post_code":"0392622","prefecture":"AOMORI KEN","city":"KAMIKITA GUN TOHOKU MACHI","town":"FUNEGASAWA","perfecture_jp":"青森県","jp_add_1":"上北郡東北町","jp_add_2":"浜家苫"},"0392632":{"post_code":"0392632","prefecture":"AOMORI KEN","city":"KAMIKITA GUN TOHOKU MACHI","town":"HIKAGEHAYASHINOKAMIYAMA","perfecture_jp":"青森県","jp_add_1":"上北郡東北町","jp_add_2":"日影林ノ上山"},"0392642":{"post_code":"0392642","prefecture":"AOMORI KEN","city":"KAMIKITA GUN TOHOKU MACHI","town":"HIYAMIZUYAMA","perfecture_jp":"青森県","jp_add_1":"上北郡東北町","jp_add_2":"寒水"},"0392677":{"post_code":"0392677","prefecture":"AOMORI KEN","city":"KAMIKITA GUN TOHOKU MACHI","town":"BUZOHARASHIMOYAMA","perfecture_jp":"青森県","jp_add_1":"上北郡東北町","jp_add_2":"夫雑原下山"},"0392615":{"post_code":"0392615","prefecture":"AOMORI KEN","city":"KAMIKITA GUN TOHOKU MACHI","town":"MODASHI MICHINOSHIMO","perfecture_jp":"青森県","jp_add_1":"上北郡東北町","jp_add_2":"細津"},"0392652":{"post_code":"0392652","prefecture":"AOMORI KEN","city":"KAMIKITA GUN TOHOKU MACHI","town":"HOTOKESAWA","perfecture_jp":"青森県","jp_add_1":"上北郡東北町","jp_add_2":"ほとけ沢"},"0392644":{"post_code":"0392644","prefecture":"AOMORI KEN","city":"KAMIKITA GUN TOHOKU MACHI","town":"HODOSAWA IENOSHIRO","perfecture_jp":"青森県","jp_add_1":"上北郡東北町","jp_add_2":"保戸沢家ノ上"},"0392617":{"post_code":"0392617","prefecture":"AOMORI KEN","city":"KAMIKITA GUN TOHOKU MACHI","town":"MIZUHAMIMUKAI","perfecture_jp":"青森県","jp_add_1":"上北郡東北町","jp_add_2":"水喰"},"0392684":{"post_code":"0392684","prefecture":"AOMORI KEN","city":"KAMIKITA GUN TOHOKU MACHI","town":"MUKAITAI","perfecture_jp":"青森県","jp_add_1":"上北郡東北町","jp_add_2":"向平"},"0392665":{"post_code":"0392665","prefecture":"AOMORI KEN","city":"KAMIKITA GUN TOHOKU MACHI","town":"YANAGIZAWA","perfecture_jp":"青森県","jp_add_1":"上北郡東北町","jp_add_2":"柳沢"},"0392603":{"post_code":"0392603","prefecture":"AOMORI KEN","city":"KAMIKITA GUN TOHOKU MACHI","town":"YOKOSAWAYAMA","perfecture_jp":"青森県","jp_add_1":"上北郡東北町","jp_add_2":"横沢山"},"0393200":{"post_code":"0393200","prefecture":"AOMORI KEN","city":"KAMIKITA GUN ROKKASHO MURA","town":"IKANIKEISAIGANAIBAAI","perfecture_jp":"青森県","jp_add_1":"上北郡六ヶ所村","jp_add_2":""},"0393212":{"post_code":"0393212","prefecture":"AOMORI KEN","city":"KAMIKITA GUN ROKKASHO MURA","town":"OBUCHI","perfecture_jp":"青森県","jp_add_1":"上北郡六ヶ所村","jp_add_2":"尾駮"},"0393215":{"post_code":"0393215","prefecture":"AOMORI KEN","city":"KAMIKITA GUN ROKKASHO MURA","town":"KURAUCHI","perfecture_jp":"青森県","jp_add_1":"上北郡六ヶ所村","jp_add_2":"倉内"},"0393213":{"post_code":"0393213","prefecture":"AOMORI KEN","city":"KAMIKITA GUN ROKKASHO MURA","town":"TAKAHOKO","perfecture_jp":"青森県","jp_add_1":"上北郡六ヶ所村","jp_add_2":"鷹架"},"0393211":{"post_code":"0393211","prefecture":"AOMORI KEN","city":"KAMIKITA GUN ROKKASHO MURA","town":"DETO","perfecture_jp":"青森県","jp_add_1":"上北郡六ヶ所村","jp_add_2":"出戸"},"0394301":{"post_code":"0394301","prefecture":"AOMORI KEN","city":"KAMIKITA GUN ROKKASHO MURA","town":"TOMARI","perfecture_jp":"青森県","jp_add_1":"上北郡六ヶ所村","jp_add_2":"泊"},"0393214":{"post_code":"0393214","prefecture":"AOMORI KEN","city":"KAMIKITA GUN ROKKASHO MURA","town":"HIRANUMA","perfecture_jp":"青森県","jp_add_1":"上北郡六ヶ所村","jp_add_2":"平沼"},"0392200":{"post_code":"0392200","prefecture":"AOMORI KEN","city":"KAMIKITA GUN OIRASE CHO","town":"IKANIKEISAIGANAIBAAI","perfecture_jp":"青森県","jp_add_1":"上北郡おいらせ町","jp_add_2":""},"0392189":{"post_code":"0392189","prefecture":"AOMORI KEN","city":"KAMIKITA GUN OIRASE CHO","town":"AOBA","perfecture_jp":"青森県","jp_add_1":"上北郡おいらせ町","jp_add_2":"青葉"},"0392147":{"post_code":"0392147","prefecture":"AOMORI KEN","city":"KAMIKITA GUN OIRASE CHO","town":"AKADAMAE","perfecture_jp":"青森県","jp_add_1":"上北郡おいらせ町","jp_add_2":"赤田前"},"0392116":{"post_code":"0392116","prefecture":"AOMORI KEN","city":"KAMIKITA GUN OIRASE CHO","town":"AKIDO","perfecture_jp":"青森県","jp_add_1":"上北郡おいらせ町","jp_add_2":"秋堂"},"0392141":{"post_code":"0392141","prefecture":"AOMORI KEN","city":"KAMIKITA GUN OIRASE CHO","town":"AKEDO","perfecture_jp":"青森県","jp_add_1":"上北郡おいらせ町","jp_add_2":"明土"},"0392165":{"post_code":"0392165","prefecture":"AOMORI KEN","city":"KAMIKITA GUN OIRASE CHO","town":"AKOBO","perfecture_jp":"青森県","jp_add_1":"上北郡おいらせ町","jp_add_2":"阿光坊"},"0392172":{"post_code":"0392172","prefecture":"AOMORI KEN","city":"KAMIKITA GUN OIRASE CHO","town":"ARAIDAI","perfecture_jp":"青森県","jp_add_1":"上北郡おいらせ町","jp_add_2":"洗平"},"0392113":{"post_code":"0392113","prefecture":"AOMORI KEN","city":"KAMIKITA GUN OIRASE CHO","town":"INUKEYACHI","perfecture_jp":"青森県","jp_add_1":"上北郡おいらせ町","jp_add_2":"犬毛谷地"},"0392217":{"post_code":"0392217","prefecture":"AOMORI KEN","city":"KAMIKITA GUN OIRASE CHO","town":"USHIGOMETAI","perfecture_jp":"青森県","jp_add_1":"上北郡おいらせ町","jp_add_2":"牛込平"},"0392216":{"post_code":"0392216","prefecture":"AOMORI KEN","city":"KAMIKITA GUN OIRASE CHO","town":"USHIRODA","perfecture_jp":"青森県","jp_add_1":"上北郡おいらせ町","jp_add_2":"後田"},"0392182":{"post_code":"0392182","prefecture":"AOMORI KEN","city":"KAMIKITA GUN OIRASE CHO","town":"UZURAKUBO","perfecture_jp":"青森県","jp_add_1":"上北郡おいらせ町","jp_add_2":"鶉久保"},"0392183":{"post_code":"0392183","prefecture":"AOMORI KEN","city":"KAMIKITA GUN OIRASE CHO","town":"UZURAKUBOYAMA","perfecture_jp":"青森県","jp_add_1":"上北郡おいらせ町","jp_add_2":"鶉久保山"},"0392253":{"post_code":"0392253","prefecture":"AOMORI KEN","city":"KAMIKITA GUN OIRASE CHO","town":"USONO","perfecture_jp":"青森県","jp_add_1":"上北郡おいらせ町","jp_add_2":"獺野"},"0392225":{"post_code":"0392225","prefecture":"AOMORI KEN","city":"KAMIKITA GUN OIRASE CHO","town":"KAMIAKEDO","perfecture_jp":"青森県","jp_add_1":"上北郡おいらせ町","jp_add_2":"上明堂"},"0392133":{"post_code":"0392133","prefecture":"AOMORI KEN","city":"KAMIKITA GUN OIRASE CHO","town":"KAMIKAWARA","perfecture_jp":"青森県","jp_add_1":"上北郡おいらせ町","jp_add_2":"上川原"},"0392185":{"post_code":"0392185","prefecture":"AOMORI KEN","city":"KAMIKITA GUN OIRASE CHO","town":"KAMIKUBO","perfecture_jp":"青森県","jp_add_1":"上北郡おいらせ町","jp_add_2":"上久保"},"0392221":{"post_code":"0392221","prefecture":"AOMORI KEN","city":"KAMIKITA GUN OIRASE CHO","town":"KAMIMAEDA","perfecture_jp":"青森県","jp_add_1":"上北郡おいらせ町","jp_add_2":"上前田"},"0392145":{"post_code":"0392145","prefecture":"AOMORI KEN","city":"KAMIKITA GUN OIRASE CHO","town":"KAMIYACHI","perfecture_jp":"青森県","jp_add_1":"上北郡おいらせ町","jp_add_2":"上谷地"},"0392117":{"post_code":"0392117","prefecture":"AOMORI KEN","city":"KAMIKITA GUN OIRASE CHO","town":"KAWABATA","perfecture_jp":"青森県","jp_add_1":"上北郡おいらせ町","jp_add_2":"川端"},"0392127":{"post_code":"0392127","prefecture":"AOMORI KEN","city":"KAMIKITA GUN OIRASE CHO","town":"KIZAKI","perfecture_jp":"青森県","jp_add_1":"上北郡おいらせ町","jp_add_2":"木崎"},"0392186":{"post_code":"0392186","prefecture":"AOMORI KEN","city":"KAMIKITA GUN OIRASE CHO","town":"KITASHIMODA","perfecture_jp":"青森県","jp_add_1":"上北郡おいらせ町","jp_add_2":"北下田"},"0392155":{"post_code":"0392155","prefecture":"AOMORI KEN","city":"KAMIKITA GUN OIRASE CHO","town":"KINOSHITANISHI","perfecture_jp":"青森県","jp_add_1":"上北郡おいらせ町","jp_add_2":"木ノ下西"},"0392157":{"post_code":"0392157","prefecture":"AOMORI KEN","city":"KAMIKITA GUN OIRASE CHO","town":"KINOSHITAHIGASHI","perfecture_jp":"青森県","jp_add_1":"上北郡おいらせ町","jp_add_2":"木ノ下東"},"0392156":{"post_code":"0392156","prefecture":"AOMORI KEN","city":"KAMIKITA GUN OIRASE CHO","town":"KINOSHITAMINAMI","perfecture_jp":"青森県","jp_add_1":"上北郡おいらせ町","jp_add_2":"木ノ下南"},"0392252":{"post_code":"0392252","prefecture":"AOMORI KEN","city":"KAMIKITA GUN OIRASE CHO","town":"KUROSAKAYACHI","perfecture_jp":"青森県","jp_add_1":"上北郡おいらせ町","jp_add_2":"黒坂谷地"},"0392142":{"post_code":"0392142","prefecture":"AOMORI KEN","city":"KAMIKITA GUN OIRASE CHO","town":"KOMAEYACHI","perfecture_jp":"青森県","jp_add_1":"上北郡おいらせ町","jp_add_2":"小前谷地"},"0392124":{"post_code":"0392124","prefecture":"AOMORI KEN","city":"KAMIKITA GUN OIRASE CHO","town":"SAKAIDA","perfecture_jp":"青森県","jp_add_1":"上北郡おいらせ町","jp_add_2":"境田"},"0392125":{"post_code":"0392125","prefecture":"AOMORI KEN","city":"KAMIKITA GUN OIRASE CHO","town":"SAMBONGI","perfecture_jp":"青森県","jp_add_1":"上北郡おいらせ町","jp_add_2":"三本木"},"0392224":{"post_code":"0392224","prefecture":"AOMORI KEN","city":"KAMIKITA GUN OIRASE CHO","town":"SHIMOAKEDO","perfecture_jp":"青森県","jp_add_1":"上北郡おいらせ町","jp_add_2":"下明堂"},"0392121":{"post_code":"0392121","prefecture":"AOMORI KEN","city":"KAMIKITA GUN OIRASE CHO","town":"SHIMOSAKAI","perfecture_jp":"青森県","jp_add_1":"上北郡おいらせ町","jp_add_2":"下境"},"0392222":{"post_code":"0392222","prefecture":"AOMORI KEN","city":"KAMIKITA GUN OIRASE CHO","town":"SHIMOMAEDA","perfecture_jp":"青森県","jp_add_1":"上北郡おいらせ町","jp_add_2":"下前田"},"0392215":{"post_code":"0392215","prefecture":"AOMORI KEN","city":"KAMIKITA GUN OIRASE CHO","town":"SHIMOYASHIKI","perfecture_jp":"青森県","jp_add_1":"上北郡おいらせ町","jp_add_2":"下屋敷"},"0392143":{"post_code":"0392143","prefecture":"AOMORI KEN","city":"KAMIKITA GUN OIRASE CHO","town":"JOSUISHITA","perfecture_jp":"青森県","jp_add_1":"上北郡おいらせ町","jp_add_2":"上水下"},"0392226":{"post_code":"0392226","prefecture":"AOMORI KEN","city":"KAMIKITA GUN OIRASE CHO","town":"SHINSUKEKAWARA","perfecture_jp":"青森県","jp_add_1":"上北郡おいらせ町","jp_add_2":"新助川原"},"0392211":{"post_code":"0392211","prefecture":"AOMORI KEN","city":"KAMIKITA GUN OIRASE CHO","town":"SHINDEN","perfecture_jp":"青森県","jp_add_1":"上北郡おいらせ町","jp_add_2":"新田"},"0392164":{"post_code":"0392164","prefecture":"AOMORI KEN","city":"KAMIKITA GUN OIRASE CHO","town":"SHIMMEIMAE","perfecture_jp":"青森県","jp_add_1":"上北郡おいらせ町","jp_add_2":"神明前"},"0392180":{"post_code":"0392180","prefecture":"AOMORI KEN","city":"KAMIKITA GUN OIRASE CHO","town":"SUMIYOSHI","perfecture_jp":"青森県","jp_add_1":"上北郡おいらせ町","jp_add_2":"住吉"},"0392235":{"post_code":"0392235","prefecture":"AOMORI KEN","city":"KAMIKITA GUN OIRASE CHO","town":"SENGARIDA","perfecture_jp":"青森県","jp_add_1":"上北郡おいらせ町","jp_add_2":"千刈田"},"0392128":{"post_code":"0392128","prefecture":"AOMORI KEN","city":"KAMIKITA GUN OIRASE CHO","town":"SOMEYA","perfecture_jp":"青森県","jp_add_1":"上北郡おいらせ町","jp_add_2":"染屋"},"0392114":{"post_code":"0392114","prefecture":"AOMORI KEN","city":"KAMIKITA GUN OIRASE CHO","town":"TAKADA","perfecture_jp":"青森県","jp_add_1":"上北郡おいらせ町","jp_add_2":"高田"},"0392144":{"post_code":"0392144","prefecture":"AOMORI KEN","city":"KAMIKITA GUN OIRASE CHO","town":"TAKENOHASHI","perfecture_jp":"青森県","jp_add_1":"上北郡おいらせ町","jp_add_2":"丈の端"},"0392135":{"post_code":"0392135","prefecture":"AOMORI KEN","city":"KAMIKITA GUN OIRASE CHO","town":"TACHIJA","perfecture_jp":"青森県","jp_add_1":"上北郡おいらせ町","jp_add_2":"立蛇"},"0392163":{"post_code":"0392163","prefecture":"AOMORI KEN","city":"KAMIKITA GUN OIRASE CHO","town":"TATEGOSHI","perfecture_jp":"青森県","jp_add_1":"上北郡おいらせ町","jp_add_2":"館越"},"0392255":{"post_code":"0392255","prefecture":"AOMORI KEN","city":"KAMIKITA GUN OIRASE CHO","town":"TSUCHITORI","perfecture_jp":"青森県","jp_add_1":"上北郡おいらせ町","jp_add_2":"土取"},"0392234":{"post_code":"0392234","prefecture":"AOMORI KEN","city":"KAMIKITA GUN OIRASE CHO","town":"TSUTSUMIDA","perfecture_jp":"青森県","jp_add_1":"上北郡おいらせ町","jp_add_2":"堤田"},"0392102":{"post_code":"0392102","prefecture":"AOMORI KEN","city":"KAMIKITA GUN OIRASE CHO","town":"TOYOSAKAE","perfecture_jp":"青森県","jp_add_1":"上北郡おいらせ町","jp_add_2":"豊栄"},"0392154":{"post_code":"0392154","prefecture":"AOMORI KEN","city":"KAMIKITA GUN OIRASE CHO","town":"TOYOHARA","perfecture_jp":"青森県","jp_add_1":"上北郡おいらせ町","jp_add_2":"豊原"},"0392223":{"post_code":"0392223","prefecture":"AOMORI KEN","city":"KAMIKITA GUN OIRASE CHO","town":"NAEHIRAYACHI","perfecture_jp":"青森県","jp_add_1":"上北郡おいらせ町","jp_add_2":"苗平谷地"},"0392254":{"post_code":"0392254","prefecture":"AOMORI KEN","city":"KAMIKITA GUN OIRASE CHO","town":"NAEFURIYACHI","perfecture_jp":"青森県","jp_add_1":"上北郡おいらせ町","jp_add_2":"苗振谷地"},"0392136":{"post_code":"0392136","prefecture":"AOMORI KEN","city":"KAMIKITA GUN OIRASE CHO","town":"NAKASHIMODA","perfecture_jp":"青森県","jp_add_1":"上北郡おいらせ町","jp_add_2":"中下田"},"0392129":{"post_code":"0392129","prefecture":"AOMORI KEN","city":"KAMIKITA GUN OIRASE CHO","town":"NAKATAISHIMONAGANEYAMA","perfecture_jp":"青森県","jp_add_1":"上北郡おいらせ町","jp_add_2":"中平下長根山"},"0392112":{"post_code":"0392112","prefecture":"AOMORI KEN","city":"KAMIKITA GUN OIRASE CHO","town":"NAKANOTAI","perfecture_jp":"青森県","jp_add_1":"上北郡おいらせ町","jp_add_2":"中野平"},"0392146":{"post_code":"0392146","prefecture":"AOMORI KEN","city":"KAMIKITA GUN OIRASE CHO","town":"NAKAYACHI","perfecture_jp":"青森県","jp_add_1":"上北郡おいらせ町","jp_add_2":"中谷地"},"0392115":{"post_code":"0392115","prefecture":"AOMORI KEN","city":"KAMIKITA GUN OIRASE CHO","town":"NAMESHI","perfecture_jp":"青森県","jp_add_1":"上北郡おいらせ町","jp_add_2":"菜飯"},"0392111":{"post_code":"0392111","prefecture":"AOMORI KEN","city":"KAMIKITA GUN OIRASE CHO","town":"NISHIUSHIROYACHI","perfecture_jp":"青森県","jp_add_1":"上北郡おいらせ町","jp_add_2":"西後谷地"},"0392171":{"post_code":"0392171","prefecture":"AOMORI KEN","city":"KAMIKITA GUN OIRASE CHO","town":"NISHIKI","perfecture_jp":"青森県","jp_add_1":"上北郡おいらせ町","jp_add_2":"新敷"},"0392161":{"post_code":"0392161","prefecture":"AOMORI KEN","city":"KAMIKITA GUN OIRASE CHO","town":"NISHISHIMOKAWARA","perfecture_jp":"青森県","jp_add_1":"上北郡おいらせ町","jp_add_2":"西下川原"},"0392123":{"post_code":"0392123","prefecture":"AOMORI KEN","city":"KAMIKITA GUN OIRASE CHO","town":"NISHISHIMOYACHI","perfecture_jp":"青森県","jp_add_1":"上北郡おいらせ町","jp_add_2":"西下谷地"},"0392132":{"post_code":"0392132","prefecture":"AOMORI KEN","city":"KAMIKITA GUN OIRASE CHO","town":"NISHIMAEKAWARA","perfecture_jp":"青森県","jp_add_1":"上北郡おいらせ町","jp_add_2":"西前川原"},"0392122":{"post_code":"0392122","prefecture":"AOMORI KEN","city":"KAMIKITA GUN OIRASE CHO","town":"NUMAKOYA","perfecture_jp":"青森県","jp_add_1":"上北郡おいらせ町","jp_add_2":"沼小屋"},"0392233":{"post_code":"0392233","prefecture":"AOMORI KEN","city":"KAMIKITA GUN OIRASE CHO","town":"NUMAHATA","perfecture_jp":"青森県","jp_add_1":"上北郡おいらせ町","jp_add_2":"沼端"},"0392134":{"post_code":"0392134","prefecture":"AOMORI KEN","city":"KAMIKITA GUN OIRASE CHO","town":"HASEKUDARI","perfecture_jp":"青森県","jp_add_1":"上北郡おいらせ町","jp_add_2":"馳下り"},"0392184":{"post_code":"0392184","prefecture":"AOMORI KEN","city":"KAMIKITA GUN OIRASE CHO","town":"HAMAMICHI","perfecture_jp":"青森県","jp_add_1":"上北郡おいらせ町","jp_add_2":"浜道"},"0392232":{"post_code":"0392232","prefecture":"AOMORI KEN","city":"KAMIKITA GUN OIRASE CHO","town":"HIGASHIUSHIROYACHI","perfecture_jp":"青森県","jp_add_1":"上北郡おいらせ町","jp_add_2":"東後谷地"},"0392212":{"post_code":"0392212","prefecture":"AOMORI KEN","city":"KAMIKITA GUN OIRASE CHO","town":"HIGASHISHIMOKAWARA","perfecture_jp":"青森県","jp_add_1":"上北郡おいらせ町","jp_add_2":"東下川原"},"0392231":{"post_code":"0392231","prefecture":"AOMORI KEN","city":"KAMIKITA GUN OIRASE CHO","town":"HIGASHISHIMOYACHI","perfecture_jp":"青森県","jp_add_1":"上北郡おいらせ町","jp_add_2":"東下谷地"},"0392214":{"post_code":"0392214","prefecture":"AOMORI KEN","city":"KAMIKITA GUN OIRASE CHO","town":"HIGASHIMAEKAWARA","perfecture_jp":"青森県","jp_add_1":"上北郡おいらせ町","jp_add_2":"東前川原"},"0392118":{"post_code":"0392118","prefecture":"AOMORI KEN","city":"KAMIKITA GUN OIRASE CHO","town":"HIKOSHICHIGAWARA","perfecture_jp":"青森県","jp_add_1":"上北郡おいらせ町","jp_add_2":"彦七川原"},"0392203":{"post_code":"0392203","prefecture":"AOMORI KEN","city":"KAMIKITA GUN OIRASE CHO","town":"HITOKAWAME","perfecture_jp":"青森県","jp_add_1":"上北郡おいらせ町","jp_add_2":"一川目"},"0392204":{"post_code":"0392204","prefecture":"AOMORI KEN","city":"KAMIKITA GUN OIRASE CHO","town":"FUKASAWA","perfecture_jp":"青森県","jp_add_1":"上北郡おいらせ町","jp_add_2":"深沢"},"0392205":{"post_code":"0392205","prefecture":"AOMORI KEN","city":"KAMIKITA GUN OIRASE CHO","town":"FUKASAWATAI","perfecture_jp":"青森県","jp_add_1":"上北郡おいらせ町","jp_add_2":"深沢平"},"0392173":{"post_code":"0392173","prefecture":"AOMORI KEN","city":"KAMIKITA GUN OIRASE CHO","town":"FUKUBE","perfecture_jp":"青森県","jp_add_1":"上北郡おいらせ町","jp_add_2":"瓢"},"0392201":{"post_code":"0392201","prefecture":"AOMORI KEN","city":"KAMIKITA GUN OIRASE CHO","town":"FUTAKAWAME","perfecture_jp":"青森県","jp_add_1":"上北郡おいらせ町","jp_add_2":"二川目"},"0392181":{"post_code":"0392181","prefecture":"AOMORI KEN","city":"KAMIKITA GUN OIRASE CHO","town":"FURUMAGIYAMA","perfecture_jp":"青森県","jp_add_1":"上北郡おいらせ町","jp_add_2":"古間木山"},"0392213":{"post_code":"0392213","prefecture":"AOMORI KEN","city":"KAMIKITA GUN OIRASE CHO","town":"HORINOCHI","perfecture_jp":"青森県","jp_add_1":"上北郡おいらせ町","jp_add_2":"堀ノ内"},"0392126":{"post_code":"0392126","prefecture":"AOMORI KEN","city":"KAMIKITA GUN OIRASE CHO","town":"MAGI","perfecture_jp":"青森県","jp_add_1":"上北郡おいらせ町","jp_add_2":"間木"},"0392206":{"post_code":"0392206","prefecture":"AOMORI KEN","city":"KAMIKITA GUN OIRASE CHO","town":"MATSUBARA","perfecture_jp":"青森県","jp_add_1":"上北郡おいらせ町","jp_add_2":"松原"},"0392187":{"post_code":"0392187","prefecture":"AOMORI KEN","city":"KAMIKITA GUN OIRASE CHO","town":"MIDORIGAOKA","perfecture_jp":"青森県","jp_add_1":"上北郡おいらせ町","jp_add_2":"緑ケ丘"},"0392162":{"post_code":"0392162","prefecture":"AOMORI KEN","city":"KAMIKITA GUN OIRASE CHO","town":"MINAMISHIMODA","perfecture_jp":"青森県","jp_add_1":"上北郡おいらせ町","jp_add_2":"南下田"},"0392131":{"post_code":"0392131","prefecture":"AOMORI KEN","city":"KAMIKITA GUN OIRASE CHO","town":"MUKAIKAWARA","perfecture_jp":"青森県","jp_add_1":"上北郡おいらせ町","jp_add_2":"向川原"},"0392251":{"post_code":"0392251","prefecture":"AOMORI KEN","city":"KAMIKITA GUN OIRASE CHO","town":"MUKAISAKA","perfecture_jp":"青森県","jp_add_1":"上北郡おいらせ町","jp_add_2":"向坂"},"0392202":{"post_code":"0392202","prefecture":"AOMORI KEN","city":"KAMIKITA GUN OIRASE CHO","town":"MUKAITAI","perfecture_jp":"青森県","jp_add_1":"上北郡おいらせ町","jp_add_2":"向平"},"0392151":{"post_code":"0392151","prefecture":"AOMORI KEN","city":"KAMIKITA GUN OIRASE CHO","town":"MUKAIYAMA","perfecture_jp":"青森県","jp_add_1":"上北郡おいらせ町","jp_add_2":"向山"},"0392152":{"post_code":"0392152","prefecture":"AOMORI KEN","city":"KAMIKITA GUN OIRASE CHO","town":"MUKAIYAMAHIGASHI","perfecture_jp":"青森県","jp_add_1":"上北郡おいらせ町","jp_add_2":"向山東"},"0392158":{"post_code":"0392158","prefecture":"AOMORI KEN","city":"KAMIKITA GUN OIRASE CHO","town":"MUKAIYAMAMINAMI","perfecture_jp":"青森県","jp_add_1":"上北郡おいらせ町","jp_add_2":"向山南"},"0392153":{"post_code":"0392153","prefecture":"AOMORI KEN","city":"KAMIKITA GUN OIRASE CHO","town":"YAMAZAKI","perfecture_jp":"青森県","jp_add_1":"上北郡おいらせ町","jp_add_2":"山崎"},"0392236":{"post_code":"0392236","prefecture":"AOMORI KEN","city":"KAMIKITA GUN OIRASE CHO","town":"YOKODAI","perfecture_jp":"青森県","jp_add_1":"上北郡おいらせ町","jp_add_2":"洋光台"},"0392188":{"post_code":"0392188","prefecture":"AOMORI KEN","city":"KAMIKITA GUN OIRASE CHO","town":"WAKABA","perfecture_jp":"青森県","jp_add_1":"上北郡おいらせ町","jp_add_2":"若葉"},"0394600":{"post_code":"0394600","prefecture":"AOMORI KEN","city":"SHIMOKITA GUN OMA MACHI","town":"IKANIKEISAIGANAIBAAI","perfecture_jp":"青森県","jp_add_1":"下北郡大間町","jp_add_2":""},"0394601":{"post_code":"0394601","prefecture":"AOMORI KEN","city":"SHIMOKITA GUN OMA MACHI","town":"OMA","perfecture_jp":"青森県","jp_add_1":"下北郡大間町","jp_add_2":"大間"},"0394602":{"post_code":"0394602","prefecture":"AOMORI KEN","city":"SHIMOKITA GUN OMA MACHI","town":"OKOPPE","perfecture_jp":"青森県","jp_add_1":"下北郡大間町","jp_add_2":"奥戸"},"0394223":{"post_code":"0394223","prefecture":"AOMORI KEN","city":"SHIMOKITA GUN HIGASHIDORI MURA","town":"ODANOSAWA","perfecture_jp":"青森県","jp_add_1":"下北郡東通村","jp_add_2":"小田野沢"},"0394221":{"post_code":"0394221","prefecture":"AOMORI KEN","city":"SHIMOKITA GUN HIGASHIDORI MURA","town":"SARUGAMORI","perfecture_jp":"青森県","jp_add_1":"下北郡東通村","jp_add_2":"猿ケ森"},"0394224":{"post_code":"0394224","prefecture":"AOMORI KEN","city":"SHIMOKITA GUN HIGASHIDORI MURA","town":"SHIRANUKA","perfecture_jp":"青森県","jp_add_1":"下北郡東通村","jp_add_2":"白糠"},"0394222":{"post_code":"0394222","prefecture":"AOMORI KEN","city":"SHIMOKITA GUN HIGASHIDORI MURA","town":"SUNAGOMATA","perfecture_jp":"青森県","jp_add_1":"下北郡東通村","jp_add_2":"砂子又"},"0394500":{"post_code":"0394500","prefecture":"AOMORI KEN","city":"SHIMOKITA GUN KAZAMAURA MURA","town":"IKANIKEISAIGANAIBAAI","perfecture_jp":"青森県","jp_add_1":"下北郡風間浦村","jp_add_2":""},"0394502":{"post_code":"0394502","prefecture":"AOMORI KEN","city":"SHIMOKITA GUN KAZAMAURA MURA","town":"IKOKUMA","perfecture_jp":"青森県","jp_add_1":"下北郡風間浦村","jp_add_2":"易国間"},"0394501":{"post_code":"0394501","prefecture":"AOMORI KEN","city":"SHIMOKITA GUN KAZAMAURA MURA","town":"SHIMOFURO","perfecture_jp":"青森県","jp_add_1":"下北郡風間浦村","jp_add_2":"下風呂"},"0394503":{"post_code":"0394503","prefecture":"AOMORI KEN","city":"SHIMOKITA GUN KAZAMAURA MURA","town":"HEBIURA","perfecture_jp":"青森県","jp_add_1":"下北郡風間浦村","jp_add_2":"蛇浦"},"0394700":{"post_code":"0394700","prefecture":"AOMORI KEN","city":"SHIMOKITA GUN SAI MURA","town":"IKANIKEISAIGANAIBAAI","perfecture_jp":"青森県","jp_add_1":"下北郡佐井村","jp_add_2":""},"0394711":{"post_code":"0394711","prefecture":"AOMORI KEN","city":"SHIMOKITA GUN SAI MURA","town":"SAI","perfecture_jp":"青森県","jp_add_1":"下北郡佐井村","jp_add_2":"佐井"},"0394712":{"post_code":"0394712","prefecture":"AOMORI KEN","city":"SHIMOKITA GUN SAI MURA","town":"CHOGO","perfecture_jp":"青森県","jp_add_1":"下北郡佐井村","jp_add_2":"長後"},"0390100":{"post_code":"0390100","prefecture":"AOMORI KEN","city":"SANNOHE GUN NAMBU CHO","town":"IKANIKEISAIGANAIBAAI","perfecture_jp":"青森県","jp_add_1":"三戸郡三戸町","jp_add_2":""},"0390111":{"post_code":"0390111","prefecture":"AOMORI KEN","city":"SANNOHE GUN SANNOHE MACHI","town":"IZUMIYAMA","perfecture_jp":"青森県","jp_add_1":"三戸郡三戸町","jp_add_2":"泉山"},"0390112":{"post_code":"0390112","prefecture":"AOMORI KEN","city":"SANNOHE GUN SANNOHE MACHI","town":"UMENAI","perfecture_jp":"青森県","jp_add_1":"三戸郡三戸町","jp_add_2":"梅内"},"0390453":{"post_code":"0390453","prefecture":"AOMORI KEN","city":"SANNOHE GUN SANNOHE MACHI","town":"KAIMORI","perfecture_jp":"青森県","jp_add_1":"三戸郡三戸町","jp_add_2":"貝守"},"0390141":{"post_code":"0390141","prefecture":"AOMORI KEN","city":"SANNOHE GUN SANNOHE MACHI","town":"KAWAMORITA","perfecture_jp":"青森県","jp_add_1":"三戸郡三戸町","jp_add_2":"川守田"},"0390143":{"post_code":"0390143","prefecture":"AOMORI KEN","city":"SANNOHE GUN SANNOHE MACHI","town":"KAWAMORITAMACHI","perfecture_jp":"青森県","jp_add_1":"三戸郡三戸町","jp_add_2":"川守田町"},"0390142":{"post_code":"0390142","prefecture":"AOMORI KEN","city":"SANNOHE GUN SANNOHE MACHI","town":"KUJIMACHI","perfecture_jp":"青森県","jp_add_1":"三戸郡三戸町","jp_add_2":"久慈町"},"0390132":{"post_code":"0390132","prefecture":"AOMORI KEN","city":"SANNOHE GUN SANNOHE MACHI","town":"ZAIFUKOJIMACHI","perfecture_jp":"青森県","jp_add_1":"三戸郡三戸町","jp_add_2":"在府小路町"},"0390451":{"post_code":"0390451","prefecture":"AOMORI KEN","city":"SANNOHE GUN SANNOHE MACHI","town":"JANUMA","perfecture_jp":"青森県","jp_add_1":"三戸郡三戸町","jp_add_2":"蛇沼"},"0390134":{"post_code":"0390134","prefecture":"AOMORI KEN","city":"SANNOHE GUN SANNOHE MACHI","town":"DOSHINCHO","perfecture_jp":"青森県","jp_add_1":"三戸郡三戸町","jp_add_2":"同心町"},"0390122":{"post_code":"0390122","prefecture":"AOMORI KEN","city":"SANNOHE GUN SANNOHE MACHI","town":"TONAI","perfecture_jp":"青森県","jp_add_1":"三戸郡三戸町","jp_add_2":"斗内"},"0390121":{"post_code":"0390121","prefecture":"AOMORI KEN","city":"SANNOHE GUN SANNOHE MACHI","town":"TOYOKAWA","perfecture_jp":"青森県","jp_add_1":"三戸郡三戸町","jp_add_2":"豊川"},"0390452":{"post_code":"0390452","prefecture":"AOMORI KEN","city":"SANNOHE GUN SANNOHE MACHI","town":"HAKAMADA","perfecture_jp":"青森県","jp_add_1":"三戸郡三戸町","jp_add_2":"袴田"},"0390133":{"post_code":"0390133","prefecture":"AOMORI KEN","city":"SANNOHE GUN SANNOHE MACHI","town":"BAKUROMACHI","perfecture_jp":"青森県","jp_add_1":"三戸郡三戸町","jp_add_2":"馬喰町"},"0390131":{"post_code":"0390131","prefecture":"AOMORI KEN","city":"SANNOHE GUN SANNOHE MACHI","town":"FUTSUKAMACHI","perfecture_jp":"青森県","jp_add_1":"三戸郡三戸町","jp_add_2":"二日町"},"0390144":{"post_code":"0390144","prefecture":"AOMORI KEN","city":"SANNOHE GUN SANNOHE MACHI","town":"MUIKAMACHI","perfecture_jp":"青森県","jp_add_1":"三戸郡三戸町","jp_add_2":"六日町"},"0390113":{"post_code":"0390113","prefecture":"AOMORI KEN","city":"SANNOHE GUN SANNOHE MACHI","town":"METOKI","perfecture_jp":"青森県","jp_add_1":"三戸郡三戸町","jp_add_2":"目時"},"0390135":{"post_code":"0390135","prefecture":"AOMORI KEN","city":"SANNOHE GUN SANNOHE MACHI","town":"YOKAMACHI","perfecture_jp":"青森県","jp_add_1":"三戸郡三戸町","jp_add_2":"八日町"},"0391500":{"post_code":"0391500","prefecture":"AOMORI KEN","city":"SANNOHE GUN GONOHE MACHI","town":"IKANIKEISAIGANAIBAAI","perfecture_jp":"青森県","jp_add_1":"三戸郡五戸町","jp_add_2":""},"0391508":{"post_code":"0391508","prefecture":"AOMORI KEN","city":"SANNOHE GUN GONOHE MACHI","town":"NAKAYORI","perfecture_jp":"青森県","jp_add_1":"三戸郡五戸町","jp_add_2":"赤川"},"0391561":{"post_code":"0391561","prefecture":"AOMORI KEN","city":"SANNOHE GUN GONOHE MACHI","town":"KOSHIKAKEZAWAMICHINOSHIMO","perfecture_jp":"青森県","jp_add_1":"三戸郡五戸町","jp_add_2":"赤坂"},"0391528":{"post_code":"0391528","prefecture":"AOMORI KEN","city":"SANNOHE GUN GONOHE MACHI","town":"ASAMIZU","perfecture_jp":"青森県","jp_add_1":"三戸郡五戸町","jp_add_2":"浅水"},"0391536":{"post_code":"0391536","prefecture":"AOMORI KEN","city":"SANNOHE GUN GONOHE MACHI","town":"ATAGOCHO","perfecture_jp":"青森県","jp_add_1":"三戸郡五戸町","jp_add_2":"愛宕後"},"0391556":{"post_code":"0391556","prefecture":"AOMORI KEN","city":"SANNOHE GUN GONOHE MACHI","town":"ABURADE","perfecture_jp":"青森県","jp_add_1":"三戸郡五戸町","jp_add_2":"油出"},"0391534":{"post_code":"0391534","prefecture":"AOMORI KEN","city":"SANNOHE GUN GONOHE MACHI","town":"ARAMACHI","perfecture_jp":"青森県","jp_add_1":"三戸郡五戸町","jp_add_2":"荒町"},"0391521":{"post_code":"0391521","prefecture":"AOMORI KEN","city":"SANNOHE GUN GONOHE MACHI","town":"KYUZOKUBO","perfecture_jp":"青森県","jp_add_1":"三戸郡五戸町","jp_add_2":"五百窪"},"0391539":{"post_code":"0391539","prefecture":"AOMORI KEN","city":"SANNOHE GUN GONOHE MACHI","town":"NAKANOSAWANISHIHARI","perfecture_jp":"青森県","jp_add_1":"三戸郡五戸町","jp_add_2":"石沢境"},"0391505":{"post_code":"0391505","prefecture":"AOMORI KEN","city":"SANNOHE GUN GONOHE MACHI","town":"ISHIBOTOKEMAE","perfecture_jp":"青森県","jp_add_1":"三戸郡五戸町","jp_add_2":"石仏"},"0391516":{"post_code":"0391516","prefecture":"AOMORI KEN","city":"SANNOHE GUN GONOHE MACHI","town":"ICHIKAWAMICHIJUMONJI","perfecture_jp":"青森県","jp_add_1":"三戸郡五戸町","jp_add_2":"市川道十文字"},"0391568":{"post_code":"0391568","prefecture":"AOMORI KEN","city":"SANNOHE GUN GONOHE MACHI","town":"KARAKASAMATSUMAE","perfecture_jp":"青森県","jp_add_1":"三戸郡五戸町","jp_add_2":"銀杏木"},"0391504":{"post_code":"0391504","prefecture":"AOMORI KEN","city":"SANNOHE GUN GONOHE MACHI","town":"KAMIUSAGINAI","perfecture_jp":"青森県","jp_add_1":"三戸郡五戸町","jp_add_2":"兎内"},"0391552":{"post_code":"0391552","prefecture":"AOMORI KEN","city":"SANNOHE GUN GONOHE MACHI","town":"NAKATAKADA","perfecture_jp":"青森県","jp_add_1":"三戸郡五戸町","jp_add_2":"姥堤"},"0391537":{"post_code":"0391537","prefecture":"AOMORI KEN","city":"SANNOHE GUN GONOHE MACHI","town":"NIHONYANAGIMUKAI","perfecture_jp":"青森県","jp_add_1":"三戸郡五戸町","jp_add_2":"ウルエ長根"},"0391507":{"post_code":"0391507","prefecture":"AOMORI KEN","city":"SANNOHE GUN GONOHE MACHI","town":"NAKAMORI","perfecture_jp":"青森県","jp_add_1":"三戸郡五戸町","jp_add_2":"蛯川後"},"0391527":{"post_code":"0391527","prefecture":"AOMORI KEN","city":"SANNOHE GUN GONOHE MACHI","town":"OGIDA","perfecture_jp":"青森県","jp_add_1":"三戸郡五戸町","jp_add_2":"扇田"},"0391503":{"post_code":"0391503","prefecture":"AOMORI KEN","city":"SANNOHE GUN GONOHE MACHI","town":"SAMENOKUCHI","perfecture_jp":"青森県","jp_add_1":"三戸郡五戸町","jp_add_2":"大久保"},"0391563":{"post_code":"0391563","prefecture":"AOMORI KEN","city":"SANNOHE GUN GONOHE MACHI","town":"HEISAKUBO","perfecture_jp":"青森県","jp_add_1":"三戸郡五戸町","jp_add_2":"岡谷地"},"0391511":{"post_code":"0391511","prefecture":"AOMORI KEN","city":"SANNOHE GUN GONOHE MACHI","town":"CHOZUKA","perfecture_jp":"青森県","jp_add_1":"三戸郡五戸町","jp_add_2":"鍜冶屋窪"},"0391501":{"post_code":"0391501","prefecture":"AOMORI KEN","city":"SANNOHE GUN GONOHE MACHI","town":"KAMIICHIKAWA","perfecture_jp":"青森県","jp_add_1":"三戸郡五戸町","jp_add_2":"上市川"},"0391533":{"post_code":"0391533","prefecture":"AOMORI KEN","city":"SANNOHE GUN GONOHE MACHI","town":"NOZUKI","perfecture_jp":"青森県","jp_add_1":"三戸郡五戸町","jp_add_2":"上大町"},"0391557":{"post_code":"0391557","prefecture":"AOMORI KEN","city":"SANNOHE GUN GONOHE MACHI","town":"HAKKEI","perfecture_jp":"青森県","jp_add_1":"三戸郡五戸町","jp_add_2":"上川原"},"0391567":{"post_code":"0391567","prefecture":"AOMORI KEN","city":"SANNOHE GUN GONOHE MACHI","town":"SHIMOTAIHEIRAKU","perfecture_jp":"青森県","jp_add_1":"三戸郡五戸町","jp_add_2":"上大平楽"},"0391526":{"post_code":"0391526","prefecture":"AOMORI KEN","city":"SANNOHE GUN GONOHE MACHI","town":"SORIMBASHI","perfecture_jp":"青森県","jp_add_1":"三戸郡五戸町","jp_add_2":"上長下"},"0391551":{"post_code":"0391551","prefecture":"AOMORI KEN","city":"SANNOHE GUN GONOHE MACHI","town":"KAMINIIDAMAE","perfecture_jp":"青森県","jp_add_1":"三戸郡五戸町","jp_add_2":"上新井田"},"0391523":{"post_code":"0391523","prefecture":"AOMORI KEN","city":"SANNOHE GUN GONOHE MACHI","town":"SHINZONAGANE","perfecture_jp":"青森県","jp_add_1":"三戸郡五戸町","jp_add_2":"上保土沢"},"0391554":{"post_code":"0391554","prefecture":"AOMORI KEN","city":"SANNOHE GUN GONOHE MACHI","town":"DEMBEECHO","perfecture_jp":"青森県","jp_add_1":"三戸郡五戸町","jp_add_2":"川原町"},"0391553":{"post_code":"0391553","prefecture":"AOMORI KEN","city":"SANNOHE GUN GONOHE MACHI","town":"KAWARAMACHINISHIURA","perfecture_jp":"青森県","jp_add_1":"三戸郡五戸町","jp_add_2":"川原町下裏"},"0391532":{"post_code":"0391532","prefecture":"AOMORI KEN","city":"SANNOHE GUN GONOHE MACHI","town":"KANNONDO","perfecture_jp":"青森県","jp_add_1":"三戸郡五戸町","jp_add_2":"観音堂"},"0391531":{"post_code":"0391531","prefecture":"AOMORI KEN","city":"SANNOHE GUN GONOHE MACHI","town":"KITSUNEMORIKITA","perfecture_jp":"青森県","jp_add_1":"三戸郡五戸町","jp_add_2":"狐森"},"0392302":{"post_code":"0392302","prefecture":"AOMORI KEN","city":"SANNOHE GUN GONOHE MACHI","town":"KIRIYANAI(KITATANOSAWA)","perfecture_jp":"青森県","jp_add_1":"三戸郡五戸町","jp_add_2":"切谷内"},"0391502":{"post_code":"0391502","prefecture":"AOMORI KEN","city":"SANNOHE GUN GONOHE MACHI","town":"KIRIYANAI(SONOTA)","perfecture_jp":"青森県","jp_add_1":"三戸郡五戸町","jp_add_2":"切谷内"},"0391515":{"post_code":"0391515","prefecture":"AOMORI KEN","city":"SANNOHE GUN GONOHE MACHI","town":"JIROZAEMONNAGANE","perfecture_jp":"青森県","jp_add_1":"三戸郡五戸町","jp_add_2":"熊ノ沢"},"0391506":{"post_code":"0391506","prefecture":"AOMORI KEN","city":"SANNOHE GUN GONOHE MACHI","town":"KUMANOBAYASHIMAE","perfecture_jp":"青森県","jp_add_1":"三戸郡五戸町","jp_add_2":"熊野林"},"0391701":{"post_code":"0391701","prefecture":"AOMORI KEN","city":"SANNOHE GUN GONOHE MACHI","town":"KURAISHI ISHIZAWA","perfecture_jp":"青森県","jp_add_1":"三戸郡五戸町","jp_add_2":"倉石石沢"},"0391702":{"post_code":"0391702","prefecture":"AOMORI KEN","city":"SANNOHE GUN GONOHE MACHI","town":"KURAISHI NAKAICHI","perfecture_jp":"青森県","jp_add_1":"三戸郡五戸町","jp_add_2":"倉石中市"},"0391703":{"post_code":"0391703","prefecture":"AOMORI KEN","city":"SANNOHE GUN GONOHE MACHI","town":"KURAISHI MATASHIGE","perfecture_jp":"青森県","jp_add_1":"三戸郡五戸町","jp_add_2":"倉石又重"},"0391522":{"post_code":"0391522","prefecture":"AOMORI KEN","city":"SANNOHE GUN GONOHE MACHI","town":"NASHIROZAWA","perfecture_jp":"青森県","jp_add_1":"三戸郡五戸町","jp_add_2":"小渡"},"0391566":{"post_code":"0391566","prefecture":"AOMORI KEN","city":"SANNOHE GUN GONOHE MACHI","town":"SAINOKAMIMAE","perfecture_jp":"青森県","jp_add_1":"三戸郡五戸町","jp_add_2":"幸ノ神"},"0391558":{"post_code":"0391558","prefecture":"AOMORI KEN","city":"SANNOHE GUN GONOHE MACHI","town":"HORIAI","perfecture_jp":"青森県","jp_add_1":"三戸郡五戸町","jp_add_2":"沢"},"0391517":{"post_code":"0391517","prefecture":"AOMORI KEN","city":"SANNOHE GUN GONOHE MACHI","town":"SAWAMUKAI","perfecture_jp":"青森県","jp_add_1":"三戸郡五戸町","jp_add_2":"沢向"},"0391562":{"post_code":"0391562","prefecture":"AOMORI KEN","city":"SANNOHE GUN GONOHE MACHI","town":"HAKUSAMMAE","perfecture_jp":"青森県","jp_add_1":"三戸郡五戸町","jp_add_2":"鹿内"},"0391525":{"post_code":"0391525","prefecture":"AOMORI KEN","city":"SANNOHE GUN GONOHE MACHI","town":"JIZOTAI","perfecture_jp":"青森県","jp_add_1":"三戸郡五戸町","jp_add_2":"地蔵岱"},"0391546":{"post_code":"0391546","prefecture":"AOMORI KEN","city":"SANNOHE GUN GONOHE MACHI","town":"DOIGASHIRA","perfecture_jp":"青森県","jp_add_1":"三戸郡五戸町","jp_add_2":"下タノ沢"},"0391559":{"post_code":"0391559","prefecture":"AOMORI KEN","city":"SANNOHE GUN GONOHE MACHI","town":"YOKOCHO","perfecture_jp":"青森県","jp_add_1":"三戸郡五戸町","jp_add_2":"下大町"},"0391518":{"post_code":"0391518","prefecture":"AOMORI KEN","city":"SANNOHE GUN GONOHE MACHI","town":"SHIMOSAWAMUKAI","perfecture_jp":"青森県","jp_add_1":"三戸郡五戸町","jp_add_2":"下モ沢向"},"0391555":{"post_code":"0391555","prefecture":"AOMORI KEN","city":"SANNOHE GUN GONOHE MACHI","town":"FURUDOUSHIRO","perfecture_jp":"青森県","jp_add_1":"三戸郡五戸町","jp_add_2":"下高田"},"0391514":{"post_code":"0391514","prefecture":"AOMORI KEN","city":"SANNOHE GUN GONOHE MACHI","town":"NAKAZAKI","perfecture_jp":"青森県","jp_add_1":"三戸郡五戸町","jp_add_2":"下中崎"},"0391565":{"post_code":"0391565","prefecture":"AOMORI KEN","city":"SANNOHE GUN GONOHE MACHI","town":"HANAMICHIKAWARA","perfecture_jp":"青森県","jp_add_1":"三戸郡五戸町","jp_add_2":"下新井田"},"0391545":{"post_code":"0391545","prefecture":"AOMORI KEN","city":"SANNOHE GUN GONOHE MACHI","town":"SHOBASAWANAGANE","perfecture_jp":"青森県","jp_add_1":"三戸郡五戸町","jp_add_2":"正場沢"},"0391535":{"post_code":"0391535","prefecture":"AOMORI KEN","city":"SANNOHE GUN GONOHE MACHI","town":"SHINCHO","perfecture_jp":"青森県","jp_add_1":"三戸郡五戸町","jp_add_2":"新丁"},"0391541":{"post_code":"0391541","prefecture":"AOMORI KEN","city":"SANNOHE GUN GONOHE MACHI","town":"SHINDENKUBO","perfecture_jp":"青森県","jp_add_1":"三戸郡五戸町","jp_add_2":"新田窪"},"0391548":{"post_code":"0391548","prefecture":"AOMORI KEN","city":"SANNOHE GUN GONOHE MACHI","town":"SHIMMACHI","perfecture_jp":"青森県","jp_add_1":"三戸郡五戸町","jp_add_2":"新町"},"0391547":{"post_code":"0391547","prefecture":"AOMORI KEN","city":"SANNOHE GUN GONOHE MACHI","town":"SHIMMEIUSHIRO","perfecture_jp":"青森県","jp_add_1":"三戸郡五戸町","jp_add_2":"神明後"},"0391543":{"post_code":"0391543","prefecture":"AOMORI KEN","city":"SANNOHE GUN GONOHE MACHI","town":"TAKEHARA","perfecture_jp":"青森県","jp_add_1":"三戸郡五戸町","jp_add_2":"竹原"},"0391538":{"post_code":"0391538","prefecture":"AOMORI KEN","city":"SANNOHE GUN GONOHE MACHI","town":"FURUKAIDONAGANE","perfecture_jp":"青森県","jp_add_1":"三戸郡五戸町","jp_add_2":"塚無岱"},"0391529":{"post_code":"0391529","prefecture":"AOMORI KEN","city":"SANNOHE GUN GONOHE MACHI","town":"TEGURABASHI","perfecture_jp":"青森県","jp_add_1":"三戸郡五戸町","jp_add_2":"手倉橋"},"0391519":{"post_code":"0391519","prefecture":"AOMORI KEN","city":"SANNOHE GUN GONOHE MACHI","town":"TEMMANSHIMOKAWARA","perfecture_jp":"青森県","jp_add_1":"三戸郡五戸町","jp_add_2":"天満"},"0391524":{"post_code":"0391524","prefecture":"AOMORI KEN","city":"SANNOHE GUN GONOHE MACHI","town":"TOYOMANAI","perfecture_jp":"青森県","jp_add_1":"三戸郡五戸町","jp_add_2":"豊間内"},"0391542":{"post_code":"0391542","prefecture":"AOMORI KEN","city":"SANNOHE GUN GONOHE MACHI","town":"NAKAMICHIJUMONJI","perfecture_jp":"青森県","jp_add_1":"三戸郡五戸町","jp_add_2":"中道"},"0391544":{"post_code":"0391544","prefecture":"AOMORI KEN","city":"SANNOHE GUN GONOHE MACHI","town":"NIKAIDAIRASHITA","perfecture_jp":"青森県","jp_add_1":"三戸郡五戸町","jp_add_2":"二階平"},"0391512":{"post_code":"0391512","prefecture":"AOMORI KEN","city":"SANNOHE GUN GONOHE MACHI","town":"NISHINOSAWA","perfecture_jp":"青森県","jp_add_1":"三戸郡五戸町","jp_add_2":"西ノ沢"},"0391569":{"post_code":"0391569","prefecture":"AOMORI KEN","city":"SANNOHE GUN GONOHE MACHI","town":"MUSHIOIZUKAMAE","perfecture_jp":"青森県","jp_add_1":"三戸郡五戸町","jp_add_2":"根岸"},"0391513":{"post_code":"0391513","prefecture":"AOMORI KEN","city":"SANNOHE GUN GONOHE MACHI","town":"FURUDATEWAKI","perfecture_jp":"青森県","jp_add_1":"三戸郡五戸町","jp_add_2":"古館"},"0391564":{"post_code":"0391564","prefecture":"AOMORI KEN","city":"SANNOHE GUN GONOHE MACHI","town":"ROKKAKU","perfecture_jp":"青森県","jp_add_1":"三戸郡五戸町","jp_add_2":"古館下川原"},"0390200":{"post_code":"0390200","prefecture":"AOMORI KEN","city":"SANNOHE GUN TAKKO MACHI","town":"IKANIKEISAIGANAIBAAI","perfecture_jp":"青森県","jp_add_1":"三戸郡田子町","jp_add_2":""},"0390312":{"post_code":"0390312","prefecture":"AOMORI KEN","city":"SANNOHE GUN TAKKO MACHI","town":"ISHIGAME","perfecture_jp":"青森県","jp_add_1":"三戸郡田子町","jp_add_2":"石亀"},"0390316":{"post_code":"0390316","prefecture":"AOMORI KEN","city":"SANNOHE GUN TAKKO MACHI","town":"SEKI","perfecture_jp":"青森県","jp_add_1":"三戸郡田子町","jp_add_2":"関"},"0390202":{"post_code":"0390202","prefecture":"AOMORI KEN","city":"SANNOHE GUN TAKKO MACHI","town":"SOMAI","perfecture_jp":"青森県","jp_add_1":"三戸郡田子町","jp_add_2":"相米"},"0390201":{"post_code":"0390201","prefecture":"AOMORI KEN","city":"SANNOHE GUN TAKKO MACHI","town":"TAKKO","perfecture_jp":"青森県","jp_add_1":"三戸郡田子町","jp_add_2":"田子"},"0390314":{"post_code":"0390314","prefecture":"AOMORI KEN","city":"SANNOHE GUN TAKKO MACHI","town":"TOSE","perfecture_jp":"青森県","jp_add_1":"三戸郡田子町","jp_add_2":"遠瀬"},"0390315":{"post_code":"0390315","prefecture":"AOMORI KEN","city":"SANNOHE GUN TAKKO MACHI","town":"NATSUSAKA","perfecture_jp":"青森県","jp_add_1":"三戸郡田子町","jp_add_2":"夏坂"},"0390311":{"post_code":"0390311","prefecture":"AOMORI KEN","city":"SANNOHE GUN TAKKO MACHI","town":"HARA","perfecture_jp":"青森県","jp_add_1":"三戸郡田子町","jp_add_2":"原"},"0390313":{"post_code":"0390313","prefecture":"AOMORI KEN","city":"SANNOHE GUN TAKKO MACHI","town":"MOICHI","perfecture_jp":"青森県","jp_add_1":"三戸郡田子町","jp_add_2":"茂市"},"0390317":{"post_code":"0390317","prefecture":"AOMORI KEN","city":"SANNOHE GUN TAKKO MACHI","town":"YAMAGUCHI","perfecture_jp":"青森県","jp_add_1":"三戸郡田子町","jp_add_2":"山口"},"0390606":{"post_code":"0390606","prefecture":"AOMORI KEN","city":"SANNOHE GUN NAMBU CHO","town":"AINAI(KASHIWAGIKUBO.KAMONOKUBI.TOME","perfecture_jp":"青森県","jp_add_1":"三戸郡南部町","jp_add_2":"相内"},"0390106":{"post_code":"0390106","prefecture":"AOMORI KEN","city":"SANNOHE GUN NAMBU CHO","town":"AINAI(SONOTA)","perfecture_jp":"青森県","jp_add_1":"三戸郡南部町","jp_add_2":"相内"},"0390102":{"post_code":"0390102","prefecture":"AOMORI KEN","city":"SANNOHE GUN NAMBU CHO","town":"AKAISHI","perfecture_jp":"青森県","jp_add_1":"三戸郡南部町","jp_add_2":"赤石"},"0390103":{"post_code":"0390103","prefecture":"AOMORI KEN","city":"SANNOHE GUN NAMBU CHO","town":"OMUKAI","perfecture_jp":"青森県","jp_add_1":"三戸郡南部町","jp_add_2":"大向"},"0390105":{"post_code":"0390105","prefecture":"AOMORI KEN","city":"SANNOHE GUN NAMBU CHO","town":"OKITAOMOTE","perfecture_jp":"青森県","jp_add_1":"三戸郡南部町","jp_add_2":"沖田面"},"0390801":{"post_code":"0390801","prefecture":"AOMORI KEN","city":"SANNOHE GUN NAMBU CHO","town":"KATAGISHI","perfecture_jp":"青森県","jp_add_1":"三戸郡南部町","jp_add_2":"片岸"},"0390812":{"post_code":"0390812","prefecture":"AOMORI KEN","city":"SANNOHE GUN NAMBU CHO","town":"KABAKI","perfecture_jp":"青森県","jp_add_1":"三戸郡南部町","jp_add_2":"椛木"},"0390501":{"post_code":"0390501","prefecture":"AOMORI KEN","city":"SANNOHE GUN NAMBU CHO","town":"KAMINAKUI","perfecture_jp":"青森県","jp_add_1":"三戸郡南部町","jp_add_2":"上名久井"},"0390612":{"post_code":"0390612","prefecture":"AOMORI KEN","city":"SANNOHE GUN NAMBU CHO","town":"KENYOSHI","perfecture_jp":"青森県","jp_add_1":"三戸郡南部町","jp_add_2":"剣吉"},"0390805":{"post_code":"0390805","prefecture":"AOMORI KEN","city":"SANNOHE GUN NAMBU CHO","town":"KOIZUMI","perfecture_jp":"青森県","jp_add_1":"三戸郡南部町","jp_add_2":"小泉"},"0390814":{"post_code":"0390814","prefecture":"AOMORI KEN","city":"SANNOHE GUN NAMBU CHO","town":"GOMIWATARI","perfecture_jp":"青森県","jp_add_1":"三戸郡南部町","jp_add_2":"埖渡"},"0390104":{"post_code":"0390104","prefecture":"AOMORI KEN","city":"SANNOHE GUN NAMBU CHO","town":"KOMUKAI","perfecture_jp":"青森県","jp_add_1":"三戸郡南部町","jp_add_2":"小向"},"0390502":{"post_code":"0390502","prefecture":"AOMORI KEN","city":"SANNOHE GUN NAMBU CHO","town":"SHIMONAKUI","perfecture_jp":"青森県","jp_add_1":"三戸郡南部町","jp_add_2":"下名久井"},"0390813":{"post_code":"0390813","prefecture":"AOMORI KEN","city":"SANNOHE GUN NAMBU CHO","town":"SUGISAWA","perfecture_jp":"青森県","jp_add_1":"三戸郡南部町","jp_add_2":"杉沢"},"0390503":{"post_code":"0390503","prefecture":"AOMORI KEN","city":"SANNOHE GUN NAMBU CHO","town":"TAIRA","perfecture_jp":"青森県","jp_add_1":"三戸郡南部町","jp_add_2":"平"},"0390507":{"post_code":"0390507","prefecture":"AOMORI KEN","city":"SANNOHE GUN NAMBU CHO","town":"TAKASE","perfecture_jp":"青森県","jp_add_1":"三戸郡南部町","jp_add_2":"高瀬"},"0390804":{"post_code":"0390804","prefecture":"AOMORI KEN","city":"SANNOHE GUN NAMBU CHO","town":"TAKAHASHI","perfecture_jp":"青森県","jp_add_1":"三戸郡南部町","jp_add_2":"高橋"},"0390101":{"post_code":"0390101","prefecture":"AOMORI KEN","city":"SANNOHE GUN NAMBU CHO","town":"TAMAKAKE","perfecture_jp":"青森県","jp_add_1":"三戸郡南部町","jp_add_2":"玉掛"},"0390504":{"post_code":"0390504","prefecture":"AOMORI KEN","city":"SANNOHE GUN NAMBU CHO","town":"CHOSHITANAI","perfecture_jp":"青森県","jp_add_1":"三戸郡南部町","jp_add_2":"鳥舌内"},"0390611":{"post_code":"0390611","prefecture":"AOMORI KEN","city":"SANNOHE GUN NAMBU CHO","town":"TOGA","perfecture_jp":"青森県","jp_add_1":"三戸郡南部町","jp_add_2":"斗賀"},"0390802":{"post_code":"0390802","prefecture":"AOMORI KEN","city":"SANNOHE GUN NAMBU CHO","town":"TOMABECHI","perfecture_jp":"青森県","jp_add_1":"三戸郡南部町","jp_add_2":"苫米地"},"0390505":{"post_code":"0390505","prefecture":"AOMORI KEN","city":"SANNOHE GUN NAMBU CHO","town":"TOYA","perfecture_jp":"青森県","jp_add_1":"三戸郡南部町","jp_add_2":"鳥谷"},"0390614":{"post_code":"0390614","prefecture":"AOMORI KEN","city":"SANNOHE GUN NAMBU CHO","town":"TORATO","perfecture_jp":"青森県","jp_add_1":"三戸郡南部町","jp_add_2":"虎渡"},"0390815":{"post_code":"0390815","prefecture":"AOMORI KEN","city":"SANNOHE GUN NAMBU CHO","town":"FUKUDA","perfecture_jp":"青森県","jp_add_1":"三戸郡南部町","jp_add_2":"福田"},"0390506":{"post_code":"0390506","prefecture":"AOMORI KEN","city":"SANNOHE GUN NAMBU CHO","town":"HOKOJI","perfecture_jp":"青森県","jp_add_1":"三戸郡南部町","jp_add_2":"法光寺"},"0390811":{"post_code":"0390811","prefecture":"AOMORI KEN","city":"SANNOHE GUN NAMBU CHO","town":"HOSHIOKA","perfecture_jp":"青森県","jp_add_1":"三戸郡南部町","jp_add_2":"法師岡"},"0390803":{"post_code":"0390803","prefecture":"AOMORI KEN","city":"SANNOHE GUN NAMBU CHO","town":"MUGISAWA","perfecture_jp":"青森県","jp_add_1":"三戸郡南部町","jp_add_2":"麦沢"},"0390613":{"post_code":"0390613","prefecture":"AOMORI KEN","city":"SANNOHE GUN NAMBU CHO","town":"MORIKOSHI","perfecture_jp":"青森県","jp_add_1":"三戸郡南部町","jp_add_2":"森越"},"0391200":{"post_code":"0391200","prefecture":"AOMORI KEN","city":"SANNOHE GUN HASHIKAMI CHO","town":"IKANIKEISAIGANAIBAAI","perfecture_jp":"青森県","jp_add_1":"三戸郡階上町","jp_add_2":""},"0391202":{"post_code":"0391202","prefecture":"AOMORI KEN","city":"SANNOHE GUN HASHIKAMI CHO","town":"AKABONAI","perfecture_jp":"青森県","jp_add_1":"三戸郡階上町","jp_add_2":"赤保内"},"0391207":{"post_code":"0391207","prefecture":"AOMORI KEN","city":"SANNOHE GUN HASHIKAMI CHO","town":"KANEYAMASAWA","perfecture_jp":"青森県","jp_add_1":"三戸郡階上町","jp_add_2":"金山沢"},"0391212":{"post_code":"0391212","prefecture":"AOMORI KEN","city":"SANNOHE GUN HASHIKAMI CHO","town":"SOZENNISHI","perfecture_jp":"青森県","jp_add_1":"三戸郡階上町","jp_add_2":"蒼前西"},"0391211":{"post_code":"0391211","prefecture":"AOMORI KEN","city":"SANNOHE GUN HASHIKAMI CHO","town":"SOZENHIGASHI","perfecture_jp":"青森県","jp_add_1":"三戸郡階上町","jp_add_2":"蒼前東"},"0391206":{"post_code":"0391206","prefecture":"AOMORI KEN","city":"SANNOHE GUN HASHIKAMI CHO","town":"TASHIRO","perfecture_jp":"青森県","jp_add_1":"三戸郡階上町","jp_add_2":"田代"},"0391208":{"post_code":"0391208","prefecture":"AOMORI KEN","city":"SANNOHE GUN HASHIKAMI CHO","town":"TSUNOGARAORI","perfecture_jp":"青森県","jp_add_1":"三戸郡階上町","jp_add_2":"角柄折"},"0391201":{"post_code":"0391201","prefecture":"AOMORI KEN","city":"SANNOHE GUN HASHIKAMI CHO","town":"DOBUTSU","perfecture_jp":"青森県","jp_add_1":"三戸郡階上町","jp_add_2":"道仏"},"0391203":{"post_code":"0391203","prefecture":"AOMORI KEN","city":"SANNOHE GUN HASHIKAMI CHO","town":"TOYABE","perfecture_jp":"青森県","jp_add_1":"三戸郡階上町","jp_add_2":"鳥屋部"},"0391205":{"post_code":"0391205","prefecture":"AOMORI KEN","city":"SANNOHE GUN HASHIKAMI CHO","town":"HAREYAMASAWA","perfecture_jp":"青森県","jp_add_1":"三戸郡階上町","jp_add_2":"晴山沢"},"0391204":{"post_code":"0391204","prefecture":"AOMORI KEN","city":"SANNOHE GUN HASHIKAMI CHO","town":"HIRANAI","perfecture_jp":"青森県","jp_add_1":"三戸郡階上町","jp_add_2":"平内"},"0391800":{"post_code":"0391800","prefecture":"AOMORI KEN","city":"SANNOHE GUN SHINGO MURA","town":"IKANIKEISAIGANAIBAAI","perfecture_jp":"青森県","jp_add_1":"三戸郡新郷村","jp_add_2":""},"0391802":{"post_code":"0391802","prefecture":"AOMORI KEN","city":"SANNOHE GUN SHINGO MURA","town":"SAIGOSHI","perfecture_jp":"青森県","jp_add_1":"三戸郡新郷村","jp_add_2":"西越"},"0391801":{"post_code":"0391801","prefecture":"AOMORI KEN","city":"SANNOHE GUN SHINGO MURA","town":"HERAI","perfecture_jp":"青森県","jp_add_1":"三戸郡新郷村","jp_add_2":"戸来"}}