{"0410805":{"post_code":"0410805","prefecture":"HOKKAIDO","city":"HAKODATE SHI","town":"AKAGAWA","perfecture_jp":"北海道","jp_add_1":"函館市","jp_add_2":"赤川"},"0410804":{"post_code":"0410804","prefecture":"HOKKAIDO","city":"HAKODATE SHI","town":"AKAGAWACHO","perfecture_jp":"北海道","jp_add_1":"函館市","jp_add_2":"赤川町"},"0410802":{"post_code":"0410802","prefecture":"HOKKAIDO","city":"HAKODATE SHI","town":"ISHIKAWACHO","perfecture_jp":"北海道","jp_add_1":"函館市","jp_add_2":"石川町"},"0410261":{"post_code":"0410261","prefecture":"HOKKAIDO","city":"HAKODATE SHI","town":"ISHIZAKICHO","perfecture_jp":"北海道","jp_add_1":"函館市","jp_add_2":"石崎町"},"0411624":{"post_code":"0411624","prefecture":"HOKKAIDO","city":"HAKODATE SHI","town":"IWATOCHO","perfecture_jp":"北海道","jp_add_1":"函館市","jp_add_2":"岩戸町"},"0411613":{"post_code":"0411613","prefecture":"HOKKAIDO","city":"HAKODATE SHI","town":"USUJIRICHO","perfecture_jp":"北海道","jp_add_1":"函館市","jp_add_2":"臼尻町"},"0410613":{"post_code":"0410613","prefecture":"HOKKAIDO","city":"HAKODATE SHI","town":"EGAMIYAMACHO","perfecture_jp":"北海道","jp_add_1":"函館市","jp_add_2":"絵紙山町"},"0410522":{"post_code":"0410522","prefecture":"HOKKAIDO","city":"HAKODATE SHI","town":"ESANCHO","perfecture_jp":"北海道","jp_add_1":"函館市","jp_add_2":"恵山町"},"0410605":{"post_code":"0410605","prefecture":"HOKKAIDO","city":"HAKODATE SHI","town":"ESAMMISAKICHO","perfecture_jp":"北海道","jp_add_1":"函館市","jp_add_2":"恵山岬町"},"0411622":{"post_code":"0411622","prefecture":"HOKKAIDO","city":"HAKODATE SHI","town":"OFUNECHO","perfecture_jp":"北海道","jp_add_1":"函館市","jp_add_2":"大船町"},"0410403":{"post_code":"0410403","prefecture":"HOKKAIDO","city":"HAKODATE SHI","town":"OMACHO","perfecture_jp":"北海道","jp_add_1":"函館市","jp_add_2":"大澗町"},"0411603":{"post_code":"0411603","prefecture":"HOKKAIDO","city":"HAKODATE SHI","town":"OSATSUBECHO","perfecture_jp":"北海道","jp_add_1":"函館市","jp_add_2":"尾札部町"},"0410251":{"post_code":"0410251","prefecture":"HOKKAIDO","city":"HAKODATE SHI","town":"OYASUCHO","perfecture_jp":"北海道","jp_add_1":"函館市","jp_add_2":"小安町"},"0410253":{"post_code":"0410253","prefecture":"HOKKAIDO","city":"HAKODATE SHI","town":"OYASUYAMACHO","perfecture_jp":"北海道","jp_add_1":"函館市","jp_add_2":"小安山町"},"0410523":{"post_code":"0410523","prefecture":"HOKKAIDO","city":"HAKODATE SHI","town":"KASHIWANOCHO","perfecture_jp":"北海道","jp_add_1":"函館市","jp_add_2":"柏野町"},"0410852":{"post_code":"0410852","prefecture":"HOKKAIDO","city":"HAKODATE SHI","town":"KAJI","perfecture_jp":"北海道","jp_add_1":"函館市","jp_add_2":"鍛治"},"0411611":{"post_code":"0411611","prefecture":"HOKKAIDO","city":"HAKODATE SHI","town":"KAKKUMICHO","perfecture_jp":"北海道","jp_add_1":"函館市","jp_add_2":"川汲町"},"0410252":{"post_code":"0410252","prefecture":"HOKKAIDO","city":"HAKODATE SHI","town":"KAMAYACHO","perfecture_jp":"北海道","jp_add_1":"函館市","jp_add_2":"釜谷町"},"0410832":{"post_code":"0410832","prefecture":"HOKKAIDO","city":"HAKODATE SHI","town":"KAMIYAMA","perfecture_jp":"北海道","jp_add_1":"函館市","jp_add_2":"神山"},"0410831":{"post_code":"0410831","prefecture":"HOKKAIDO","city":"HAKODATE SHI","town":"KAMIYAMACHO","perfecture_jp":"北海道","jp_add_1":"函館市","jp_add_2":"神山町"},"0410803":{"post_code":"0410803","prefecture":"HOKKAIDO","city":"HAKODATE SHI","town":"KAMEDA NAKANOCHO","perfecture_jp":"北海道","jp_add_1":"函館市","jp_add_2":"亀田中野町"},"0410813":{"post_code":"0410813","prefecture":"HOKKAIDO","city":"HAKODATE SHI","town":"KAMEDA HONCHO","perfecture_jp":"北海道","jp_add_1":"函館市","jp_add_2":"亀田本町"},"0410822":{"post_code":"0410822","prefecture":"HOKKAIDO","city":"HAKODATE SHI","town":"KAMEDA MINATOCHO","perfecture_jp":"北海道","jp_add_1":"函館市","jp_add_2":"亀田港町"},"0410405":{"post_code":"0410405","prefecture":"HOKKAIDO","city":"HAKODATE SHI","town":"KAWAKAMICHO","perfecture_jp":"北海道","jp_add_1":"函館市","jp_add_2":"川上町"},"0410844":{"post_code":"0410844","prefecture":"HOKKAIDO","city":"HAKODATE SHI","town":"KAWAHARACHO","perfecture_jp":"北海道","jp_add_1":"函館市","jp_add_2":"川原町"},"0410808":{"post_code":"0410808","prefecture":"HOKKAIDO","city":"HAKODATE SHI","town":"KIKYO","perfecture_jp":"北海道","jp_add_1":"函館市","jp_add_2":"桔梗"},"0410801":{"post_code":"0410801","prefecture":"HOKKAIDO","city":"HAKODATE SHI","town":"KIKYOCHO","perfecture_jp":"北海道","jp_add_1":"函館市","jp_add_2":"桔梗町"},"0410807":{"post_code":"0410807","prefecture":"HOKKAIDO","city":"HAKODATE SHI","town":"KITAMIHARA","perfecture_jp":"北海道","jp_add_1":"函館市","jp_add_2":"北美原"},"0410408":{"post_code":"0410408","prefecture":"HOKKAIDO","city":"HAKODATE SHI","town":"KICHIHATACHO","perfecture_jp":"北海道","jp_add_1":"函館市","jp_add_2":"吉畑町"},"0411602":{"post_code":"0411602","prefecture":"HOKKAIDO","city":"HAKODATE SHI","town":"KINAOSHICHO","perfecture_jp":"北海道","jp_add_1":"函館市","jp_add_2":"木直町"},"0410524":{"post_code":"0410524","prefecture":"HOKKAIDO","city":"HAKODATE SHI","town":"KOBUICHO","perfecture_jp":"北海道","jp_add_1":"函館市","jp_add_2":"古武井町"},"0410301":{"post_code":"0410301","prefecture":"HOKKAIDO","city":"HAKODATE SHI","town":"SHIOKUBICHO","perfecture_jp":"北海道","jp_add_1":"函館市","jp_add_2":"汐首町"},"0410602":{"post_code":"0410602","prefecture":"HOKKAIDO","city":"HAKODATE SHI","town":"SHIMADOMARICHO","perfecture_jp":"北海道","jp_add_1":"函館市","jp_add_2":"島泊町"},"0410812":{"post_code":"0410812","prefecture":"HOKKAIDO","city":"HAKODATE SHI","town":"SHOWA","perfecture_jp":"北海道","jp_add_1":"函館市","jp_add_2":"昭和"},"0410823":{"post_code":"0410823","prefecture":"HOKKAIDO","city":"HAKODATE SHI","town":"SHOWACHO","perfecture_jp":"北海道","jp_add_1":"函館市","jp_add_2":"昭和町"},"0410265":{"post_code":"0410265","prefecture":"HOKKAIDO","city":"HAKODATE SHI","town":"SHIROISHICHO","perfecture_jp":"北海道","jp_add_1":"函館市","jp_add_2":"白石町"},"0410606":{"post_code":"0410606","prefecture":"HOKKAIDO","city":"HAKODATE SHI","town":"SHINESANCHO","perfecture_jp":"北海道","jp_add_1":"函館市","jp_add_2":"新恵山町"},"0410837":{"post_code":"0410837","prefecture":"HOKKAIDO","city":"HAKODATE SHI","town":"JINKAWA","perfecture_jp":"北海道","jp_add_1":"函館市","jp_add_2":"陣川"},"0410833":{"post_code":"0410833","prefecture":"HOKKAIDO","city":"HAKODATE SHI","town":"JINKAWACHO","perfecture_jp":"北海道","jp_add_1":"函館市","jp_add_2":"陣川町"},"0410601":{"post_code":"0410601","prefecture":"HOKKAIDO","city":"HAKODATE SHI","town":"SHINHACHIMANCHO","perfecture_jp":"北海道","jp_add_1":"函館市","jp_add_2":"新八幡町"},"0410611":{"post_code":"0410611","prefecture":"HOKKAIDO","city":"HAKODATE SHI","town":"SHINHAMACHO","perfecture_jp":"北海道","jp_add_1":"函館市","jp_add_2":"新浜町"},"0410312":{"post_code":"0410312","prefecture":"HOKKAIDO","city":"HAKODATE SHI","town":"SHINFUTAMICHO","perfecture_jp":"北海道","jp_add_1":"函館市","jp_add_2":"新二見町"},"0410302":{"post_code":"0410302","prefecture":"HOKKAIDO","city":"HAKODATE SHI","town":"SETARAICHO","perfecture_jp":"北海道","jp_add_1":"函館市","jp_add_2":"瀬田来町"},"0410526":{"post_code":"0410526","prefecture":"HOKKAIDO","city":"HAKODATE SHI","town":"TAKADAICHO","perfecture_jp":"北海道","jp_add_1":"函館市","jp_add_2":"高岱町"},"0410305":{"post_code":"0410305","prefecture":"HOKKAIDO","city":"HAKODATE SHI","town":"TATEMACHI","perfecture_jp":"北海道","jp_add_1":"函館市","jp_add_2":"館町"},"0410612":{"post_code":"0410612","prefecture":"HOKKAIDO","city":"HAKODATE SHI","town":"CHOSHICHO","perfecture_jp":"北海道","jp_add_1":"函館市","jp_add_2":"銚子町"},"0410264":{"post_code":"0410264","prefecture":"HOKKAIDO","city":"HAKODATE SHI","town":"TSURUNOCHO","perfecture_jp":"北海道","jp_add_1":"函館市","jp_add_2":"鶴野町"},"0410304":{"post_code":"0410304","prefecture":"HOKKAIDO","city":"HAKODATE SHI","town":"TOMARIMACHI","perfecture_jp":"北海道","jp_add_1":"函館市","jp_add_2":"泊町"},"0410603":{"post_code":"0410603","prefecture":"HOKKAIDO","city":"HAKODATE SHI","town":"TOMIURACHO","perfecture_jp":"北海道","jp_add_1":"函館市","jp_add_2":"富浦町"},"0410811":{"post_code":"0410811","prefecture":"HOKKAIDO","city":"HAKODATE SHI","town":"TOMIOKACHO","perfecture_jp":"北海道","jp_add_1":"函館市","jp_add_2":"富岡町"},"0410402":{"post_code":"0410402","prefecture":"HOKKAIDO","city":"HAKODATE SHI","town":"TOYORACHO","perfecture_jp":"北海道","jp_add_1":"函館市","jp_add_2":"豊浦町"},"0411621":{"post_code":"0411621","prefecture":"HOKKAIDO","city":"HAKODATE SHI","town":"TOYOSAKICHO","perfecture_jp":"北海道","jp_add_1":"函館市","jp_add_2":"豊崎町"},"0410263":{"post_code":"0410263","prefecture":"HOKKAIDO","city":"HAKODATE SHI","town":"TOYOHARACHO","perfecture_jp":"北海道","jp_add_1":"函館市","jp_add_2":"豊原町"},"0410404":{"post_code":"0410404","prefecture":"HOKKAIDO","city":"HAKODATE SHI","town":"NAKAHAMACHO","perfecture_jp":"北海道","jp_add_1":"函館市","jp_add_2":"中浜町"},"0410853":{"post_code":"0410853","prefecture":"HOKKAIDO","city":"HAKODATE SHI","town":"NAKAMICHI","perfecture_jp":"北海道","jp_add_1":"函館市","jp_add_2":"中道"},"0410824":{"post_code":"0410824","prefecture":"HOKKAIDO","city":"HAKODATE SHI","town":"NISHIKIKYOCHO","perfecture_jp":"北海道","jp_add_1":"函館市","jp_add_2":"西桔梗町"},"0410843":{"post_code":"0410843","prefecture":"HOKKAIDO","city":"HAKODATE SHI","town":"HANAZONOCHO","perfecture_jp":"北海道","jp_add_1":"函館市","jp_add_2":"花園町"},"0410311":{"post_code":"0410311","prefecture":"HOKKAIDO","city":"HAKODATE SHI","town":"HAMACHO","perfecture_jp":"北海道","jp_add_1":"函館市","jp_add_2":"浜町"},"0410313":{"post_code":"0410313","prefecture":"HOKKAIDO","city":"HAKODATE SHI","town":"HARAKICHO","perfecture_jp":"北海道","jp_add_1":"函館市","jp_add_2":"原木町"},"0410401":{"post_code":"0410401","prefecture":"HOKKAIDO","city":"HAKODATE SHI","town":"HIURACHO","perfecture_jp":"北海道","jp_add_1":"函館市","jp_add_2":"日浦町"},"0410835":{"post_code":"0410835","prefecture":"HOKKAIDO","city":"HAKODATE SHI","town":"HIGASHIYAMA","perfecture_jp":"北海道","jp_add_1":"函館市","jp_add_2":"東山"},"0410834":{"post_code":"0410834","prefecture":"HOKKAIDO","city":"HAKODATE SHI","town":"HIGASHIYAMACHO","perfecture_jp":"北海道","jp_add_1":"函館市","jp_add_2":"東山町"},"0410525":{"post_code":"0410525","prefecture":"HOKKAIDO","city":"HAKODATE SHI","town":"HINOHAMACHO","perfecture_jp":"北海道","jp_add_1":"函館市","jp_add_2":"日ノ浜町"},"0410841":{"post_code":"0410841","prefecture":"HOKKAIDO","city":"HAKODATE SHI","town":"HIYOSHICHO","perfecture_jp":"北海道","jp_add_1":"函館市","jp_add_2":"日吉町"},"0410407":{"post_code":"0410407","prefecture":"HOKKAIDO","city":"HAKODATE SHI","town":"HIYORIYAMACHO","perfecture_jp":"北海道","jp_add_1":"函館市","jp_add_2":"日和山町"},"0411623":{"post_code":"0411623","prefecture":"HOKKAIDO","city":"HAKODATE SHI","town":"FUTAMICHO","perfecture_jp":"北海道","jp_add_1":"函館市","jp_add_2":"双見町"},"0410262":{"post_code":"0410262","prefecture":"HOKKAIDO","city":"HAKODATE SHI","town":"FURUKAWACHO","perfecture_jp":"北海道","jp_add_1":"函館市","jp_add_2":"古川町"},"0411601":{"post_code":"0411601","prefecture":"HOKKAIDO","city":"HAKODATE SHI","town":"FURUBECHO","perfecture_jp":"北海道","jp_add_1":"函館市","jp_add_2":"古部町"},"0410303":{"post_code":"0410303","prefecture":"HOKKAIDO","city":"HAKODATE SHI","town":"BENZAICHO","perfecture_jp":"北海道","jp_add_1":"函館市","jp_add_2":"弁才町"},"0410851":{"post_code":"0410851","prefecture":"HOKKAIDO","city":"HAKODATE SHI","town":"HONDORI","perfecture_jp":"北海道","jp_add_1":"函館市","jp_add_2":"本通"},"0410306":{"post_code":"0410306","prefecture":"HOKKAIDO","city":"HAKODATE SHI","town":"MARUYAMACHO","perfecture_jp":"北海道","jp_add_1":"函館市","jp_add_2":"丸山町"},"0410521":{"post_code":"0410521","prefecture":"HOKKAIDO","city":"HAKODATE SHI","town":"MISAKICHO","perfecture_jp":"北海道","jp_add_1":"函館市","jp_add_2":"御崎町"},"0410821":{"post_code":"0410821","prefecture":"HOKKAIDO","city":"HAKODATE SHI","town":"MINATOCHO","perfecture_jp":"北海道","jp_add_1":"函館市","jp_add_2":"港町"},"0410806":{"post_code":"0410806","prefecture":"HOKKAIDO","city":"HAKODATE SHI","town":"MIHARA","perfecture_jp":"北海道","jp_add_1":"函館市","jp_add_2":"美原"},"0410406":{"post_code":"0410406","prefecture":"HOKKAIDO","city":"HAKODATE SHI","town":"MENAGAWACHO","perfecture_jp":"北海道","jp_add_1":"函館市","jp_add_2":"女那川町"},"0410604":{"post_code":"0410604","prefecture":"HOKKAIDO","city":"HAKODATE SHI","town":"MOTOMURACHO","perfecture_jp":"北海道","jp_add_1":"函館市","jp_add_2":"元村町"},"0411612":{"post_code":"0411612","prefecture":"HOKKAIDO","city":"HAKODATE SHI","town":"YASURACHO","perfecture_jp":"北海道","jp_add_1":"函館市","jp_add_2":"安浦町"},"0410836":{"post_code":"0410836","prefecture":"HOKKAIDO","city":"HAKODATE SHI","town":"YAMANOTE","perfecture_jp":"北海道","jp_add_1":"函館市","jp_add_2":"山の手"},"0411242":{"post_code":"0411242","prefecture":"HOKKAIDO","city":"HOKUTO SHI","town":"ICHINOWATARI","perfecture_jp":"北海道","jp_add_1":"北斗市","jp_add_2":"市渡"},"0411223":{"post_code":"0411223","prefecture":"HOKKAIDO","city":"HOKUTO SHI","town":"IPPONGI","perfecture_jp":"北海道","jp_add_1":"北斗市","jp_add_2":"一本木"},"0411241":{"post_code":"0411241","prefecture":"HOKKAIDO","city":"HOKUTO SHI","town":"INASATO","perfecture_jp":"北海道","jp_add_1":"北斗市","jp_add_2":"稲里"},"0411213":{"post_code":"0411213","prefecture":"HOKKAIDO","city":"HOKUTO SHI","town":"KAIHATSU","perfecture_jp":"北海道","jp_add_1":"北斗市","jp_add_2":"開発"},"0411221":{"post_code":"0411221","prefecture":"HOKKAIDO","city":"HOKUTO SHI","town":"SHIMIZUKAWA","perfecture_jp":"北海道","jp_add_1":"北斗市","jp_add_2":"清水川"},"0411211":{"post_code":"0411211","prefecture":"HOKKAIDO","city":"HOKUTO SHI","town":"SHIRAKAWA","perfecture_jp":"北海道","jp_add_1":"北斗市","jp_add_2":"白川"},"0411222":{"post_code":"0411222","prefecture":"HOKKAIDO","city":"HOKUTO SHI","town":"CHIYODA","perfecture_jp":"北海道","jp_add_1":"北斗市","jp_add_2":"千代田"},"0411243":{"post_code":"0411243","prefecture":"HOKKAIDO","city":"HOKUTO SHI","town":"NAKAYAMA","perfecture_jp":"北海道","jp_add_1":"北斗市","jp_add_2":"中山"},"0411215":{"post_code":"0411215","prefecture":"HOKKAIDO","city":"HOKUTO SHI","town":"HAGINO","perfecture_jp":"北海道","jp_add_1":"北斗市","jp_add_2":"萩野"},"0411214":{"post_code":"0411214","prefecture":"HOKKAIDO","city":"HOKUTO SHI","town":"HIGASHIMAE","perfecture_jp":"北海道","jp_add_1":"北斗市","jp_add_2":"東前"},"0411225":{"post_code":"0411225","prefecture":"HOKKAIDO","city":"HOKUTO SHI","town":"FUMIZUKI","perfecture_jp":"北海道","jp_add_1":"北斗市","jp_add_2":"文月"},"0411212":{"post_code":"0411212","prefecture":"HOKKAIDO","city":"HOKUTO SHI","town":"HOSOIRE","perfecture_jp":"北海道","jp_add_1":"北斗市","jp_add_2":"細入"},"0411251":{"post_code":"0411251","prefecture":"HOKKAIDO","city":"HOKUTO SHI","town":"HONGO","perfecture_jp":"北海道","jp_add_1":"北斗市","jp_add_2":"本郷"},"0411201":{"post_code":"0411201","prefecture":"HOKKAIDO","city":"HOKUTO SHI","town":"HONCHO","perfecture_jp":"北海道","jp_add_1":"北斗市","jp_add_2":"本町"},"0411224":{"post_code":"0411224","prefecture":"HOKKAIDO","city":"HOKUTO SHI","town":"MINAMIONO","perfecture_jp":"北海道","jp_add_1":"北斗市","jp_add_2":"南大野"},"0411231":{"post_code":"0411231","prefecture":"HOKKAIDO","city":"HOKUTO SHI","town":"MUKAINO","perfecture_jp":"北海道","jp_add_1":"北斗市","jp_add_2":"向野"},"0411226":{"post_code":"0411226","prefecture":"HOKKAIDO","city":"HOKUTO SHI","town":"MURAUCHI","perfecture_jp":"北海道","jp_add_1":"北斗市","jp_add_2":"村内"},"0411244":{"post_code":"0411244","prefecture":"HOKKAIDO","city":"HOKUTO SHI","town":"MURAYAMA","perfecture_jp":"北海道","jp_add_1":"北斗市","jp_add_2":"村山"},"0411100":{"post_code":"0411100","prefecture":"HOKKAIDO","city":"KAMEDA GUN NANAE CHO","town":"IKANIKEISAIGANAIBAAI","perfecture_jp":"北海道","jp_add_1":"亀田郡七飯町","jp_add_2":""},"0411136":{"post_code":"0411136","prefecture":"HOKKAIDO","city":"KAMEDA GUN NANAE CHO","town":"IIDACHO","perfecture_jp":"北海道","jp_add_1":"亀田郡七飯町","jp_add_2":"飯田町"},"0411352":{"post_code":"0411352","prefecture":"HOKKAIDO","city":"KAMEDA GUN NANAE CHO","town":"IKUSAGAWA","perfecture_jp":"北海道","jp_add_1":"亀田郡七飯町","jp_add_2":"軍川"},"0411122":{"post_code":"0411122","prefecture":"HOKKAIDO","city":"KAMEDA GUN NANAE CHO","town":"OKAWA","perfecture_jp":"北海道","jp_add_1":"亀田郡七飯町","jp_add_2":"大川"},"0411121":{"post_code":"0411121","prefecture":"HOKKAIDO","city":"KAMEDA GUN NANAE CHO","town":"ONAKAYAMA","perfecture_jp":"北海道","jp_add_1":"亀田郡七飯町","jp_add_2":"大中山"},"0411354":{"post_code":"0411354","prefecture":"HOKKAIDO","city":"KAMEDA GUN NANAE CHO","town":"ONUMACHO","perfecture_jp":"北海道","jp_add_1":"亀田郡七飯町","jp_add_2":"大沼町"},"0411353":{"post_code":"0411353","prefecture":"HOKKAIDO","city":"KAMEDA GUN NANAE CHO","town":"KAMIIKUSAGAWA","perfecture_jp":"北海道","jp_add_1":"亀田郡七飯町","jp_add_2":"上軍川"},"0411104":{"post_code":"0411104","prefecture":"HOKKAIDO","city":"KAMEDA GUN NANAE CHO","town":"KAMIFUJISHIRO","perfecture_jp":"北海道","jp_add_1":"亀田郡七飯町","jp_add_2":"上藤城"},"0411105":{"post_code":"0411105","prefecture":"HOKKAIDO","city":"KAMEDA GUN NANAE CHO","town":"SAKURACHO","perfecture_jp":"北海道","jp_add_1":"亀田郡七飯町","jp_add_2":"桜町"},"0411134":{"post_code":"0411134","prefecture":"HOKKAIDO","city":"KAMEDA GUN NANAE CHO","town":"TSURUNO","perfecture_jp":"北海道","jp_add_1":"亀田郡七飯町","jp_add_2":"鶴野"},"0411102":{"post_code":"0411102","prefecture":"HOKKAIDO","city":"KAMEDA GUN NANAE CHO","town":"TOGESHITA","perfecture_jp":"北海道","jp_add_1":"亀田郡七飯町","jp_add_2":"峠下"},"0411132":{"post_code":"0411132","prefecture":"HOKKAIDO","city":"KAMEDA GUN NANAE CHO","town":"TOYODA","perfecture_jp":"北海道","jp_add_1":"亀田郡七飯町","jp_add_2":"豊田"},"0411133":{"post_code":"0411133","prefecture":"HOKKAIDO","city":"KAMEDA GUN NANAE CHO","town":"NAKAJIMA","perfecture_jp":"北海道","jp_add_1":"亀田郡七飯町","jp_add_2":"中島"},"0411131":{"post_code":"0411131","prefecture":"HOKKAIDO","city":"KAMEDA GUN NANAE CHO","town":"NAKANO","perfecture_jp":"北海道","jp_add_1":"亀田郡七飯町","jp_add_2":"中野"},"0411112":{"post_code":"0411112","prefecture":"HOKKAIDO","city":"KAMEDA GUN NANAE CHO","town":"NARUKAWACHO","perfecture_jp":"北海道","jp_add_1":"亀田郡七飯町","jp_add_2":"鳴川"},"0411355":{"post_code":"0411355","prefecture":"HOKKAIDO","city":"KAMEDA GUN NANAE CHO","town":"NISHIONUMA","perfecture_jp":"北海道","jp_add_1":"亀田郡七飯町","jp_add_2":"西大沼"},"0411101":{"post_code":"0411101","prefecture":"HOKKAIDO","city":"KAMEDA GUN NANAE CHO","town":"NIYAMA","perfecture_jp":"北海道","jp_add_1":"亀田郡七飯町","jp_add_2":"仁山"},"0411351":{"post_code":"0411351","prefecture":"HOKKAIDO","city":"KAMEDA GUN NANAE CHO","town":"HIGASHIONUMA","perfecture_jp":"北海道","jp_add_1":"亀田郡七飯町","jp_add_2":"東大沼"},"0411103":{"post_code":"0411103","prefecture":"HOKKAIDO","city":"KAMEDA GUN NANAE CHO","town":"FUJISHIRO","perfecture_jp":"北海道","jp_add_1":"亀田郡七飯町","jp_add_2":"藤城"},"0411111":{"post_code":"0411111","prefecture":"HOKKAIDO","city":"KAMEDA GUN NANAE CHO","town":"HONCHO","perfecture_jp":"北海道","jp_add_1":"亀田郡七飯町","jp_add_2":"本町"},"0411135":{"post_code":"0411135","prefecture":"HOKKAIDO","city":"KAMEDA GUN NANAE CHO","town":"MIDORICHO","perfecture_jp":"北海道","jp_add_1":"亀田郡七飯町","jp_add_2":"緑町"},"0411400":{"post_code":"0411400","prefecture":"HOKKAIDO","city":"KAYABE GUN SHIKABE CHO","town":"IKANIKEISAIGANAIBAAI","perfecture_jp":"北海道","jp_add_1":"茅部郡鹿部町","jp_add_2":""},"0411401":{"post_code":"0411401","prefecture":"HOKKAIDO","city":"KAYABE GUN SHIKABE CHO","town":"OIWA","perfecture_jp":"北海道","jp_add_1":"茅部郡鹿部町","jp_add_2":"大岩"},"0411405":{"post_code":"0411405","prefecture":"HOKKAIDO","city":"KAYABE GUN SHIKABE CHO","town":"KOMAMI","perfecture_jp":"北海道","jp_add_1":"茅部郡鹿部町","jp_add_2":"駒見"},"0411402":{"post_code":"0411402","prefecture":"HOKKAIDO","city":"KAYABE GUN SHIKABE CHO","town":"SHIKABE","perfecture_jp":"北海道","jp_add_1":"茅部郡鹿部町","jp_add_2":"鹿部"},"0411404":{"post_code":"0411404","prefecture":"HOKKAIDO","city":"KAYABE GUN SHIKABE CHO","town":"HOMBETSU","perfecture_jp":"北海道","jp_add_1":"茅部郡鹿部町","jp_add_2":"本別"},"0411403":{"post_code":"0411403","prefecture":"HOKKAIDO","city":"KAYABE GUN SHIKABE CHO","town":"MIYAHAMA","perfecture_jp":"北海道","jp_add_1":"茅部郡鹿部町","jp_add_2":"宮浜"}}