{"0420913":{"post_code":"0420913","prefecture":"HOKKAIDO","city":"HAKODATE SHI","town":"AKASAKACHO","perfecture_jp":"北海道","jp_add_1":"函館市","jp_add_2":"赤坂町"},"0420916":{"post_code":"0420916","prefecture":"HOKKAIDO","city":"HAKODATE SHI","town":"ASAHIOKACHO","perfecture_jp":"北海道","jp_add_1":"函館市","jp_add_2":"旭岡町"},"0420904":{"post_code":"0420904","prefecture":"HOKKAIDO","city":"HAKODATE SHI","town":"IOHARACHO","perfecture_jp":"北海道","jp_add_1":"函館市","jp_add_2":"庵原町"},"0420911":{"post_code":"0420911","prefecture":"HOKKAIDO","city":"HAKODATE SHI","town":"ISHIKURACHO","perfecture_jp":"北海道","jp_add_1":"函館市","jp_add_2":"石倉町"},"0420954":{"post_code":"0420954","prefecture":"HOKKAIDO","city":"HAKODATE SHI","town":"UENOCHO","perfecture_jp":"北海道","jp_add_1":"函館市","jp_add_2":"上野町"},"0420931":{"post_code":"0420931","prefecture":"HOKKAIDO","city":"HAKODATE SHI","town":"ENOMOTOCHO","perfecture_jp":"北海道","jp_add_1":"函館市","jp_add_2":"榎本町"},"0420942":{"post_code":"0420942","prefecture":"HOKKAIDO","city":"HAKODATE SHI","town":"KASHIWAGICHO","perfecture_jp":"北海道","jp_add_1":"函館市","jp_add_2":"柏木町"},"0420944":{"post_code":"0420944","prefecture":"HOKKAIDO","city":"HAKODATE SHI","town":"KANAHORICHO","perfecture_jp":"北海道","jp_add_1":"函館市","jp_add_2":"金堀町"},"0420901":{"post_code":"0420901","prefecture":"HOKKAIDO","city":"HAKODATE SHI","town":"GABINOCHO","perfecture_jp":"北海道","jp_add_1":"函館市","jp_add_2":"蛾眉野町"},"0420914":{"post_code":"0420914","prefecture":"HOKKAIDO","city":"HAKODATE SHI","town":"KAMIYUNOKAWACHO","perfecture_jp":"北海道","jp_add_1":"函館市","jp_add_2":"上湯川町"},"0420917":{"post_code":"0420917","prefecture":"HOKKAIDO","city":"HAKODATE SHI","town":"KAMEOCHO","perfecture_jp":"北海道","jp_add_1":"函館市","jp_add_2":"亀尾町"},"0420935":{"post_code":"0420935","prefecture":"HOKKAIDO","city":"HAKODATE SHI","town":"KOMABACHO","perfecture_jp":"北海道","jp_add_1":"函館市","jp_add_2":"駒場町"},"0420923":{"post_code":"0420923","prefecture":"HOKKAIDO","city":"HAKODATE SHI","town":"SHINORICHO","perfecture_jp":"北海道","jp_add_1":"函館市","jp_add_2":"志海苔町"},"0420921":{"post_code":"0420921","prefecture":"HOKKAIDO","city":"HAKODATE SHI","town":"SHIMMINATOCHO","perfecture_jp":"北海道","jp_add_1":"函館市","jp_add_2":"新湊町"},"0420958":{"post_code":"0420958","prefecture":"HOKKAIDO","city":"HAKODATE SHI","town":"SUZURANOKACHO","perfecture_jp":"北海道","jp_add_1":"函館市","jp_add_2":"鈴蘭丘町"},"0420951":{"post_code":"0420951","prefecture":"HOKKAIDO","city":"HAKODATE SHI","town":"SETOGAWACHO","perfecture_jp":"北海道","jp_add_1":"函館市","jp_add_2":"瀬戸川町"},"0420922":{"post_code":"0420922","prefecture":"HOKKAIDO","city":"HAKODATE SHI","town":"ZENIKAMECHO","perfecture_jp":"北海道","jp_add_1":"函館市","jp_add_2":"銭亀町"},"0420955":{"post_code":"0420955","prefecture":"HOKKAIDO","city":"HAKODATE SHI","town":"TAKAOKACHO","perfecture_jp":"北海道","jp_add_1":"函館市","jp_add_2":"高丘町"},"0420952":{"post_code":"0420952","prefecture":"HOKKAIDO","city":"HAKODATE SHI","town":"TAKAMATSUCHO","perfecture_jp":"北海道","jp_add_1":"函館市","jp_add_2":"高松町"},"0420957":{"post_code":"0420957","prefecture":"HOKKAIDO","city":"HAKODATE SHI","town":"TAKISAWACHO","perfecture_jp":"北海道","jp_add_1":"函館市","jp_add_2":"滝沢町"},"0420902":{"post_code":"0420902","prefecture":"HOKKAIDO","city":"HAKODATE SHI","town":"TETSUZANCHO","perfecture_jp":"北海道","jp_add_1":"函館市","jp_add_2":"鉄山町"},"0420908":{"post_code":"0420908","prefecture":"HOKKAIDO","city":"HAKODATE SHI","town":"DOZANCHO","perfecture_jp":"北海道","jp_add_1":"函館市","jp_add_2":"銅山町"},"0420953":{"post_code":"0420953","prefecture":"HOKKAIDO","city":"HAKODATE SHI","town":"TOKURACHO","perfecture_jp":"北海道","jp_add_1":"函館市","jp_add_2":"戸倉町"},"0420912":{"post_code":"0420912","prefecture":"HOKKAIDO","city":"HAKODATE SHI","town":"NAKANOCHO","perfecture_jp":"北海道","jp_add_1":"函館市","jp_add_2":"中野町"},"0420915":{"post_code":"0420915","prefecture":"HOKKAIDO","city":"HAKODATE SHI","town":"NISHIASAHIOKACHO","perfecture_jp":"北海道","jp_add_1":"函館市","jp_add_2":"西旭岡町"},"0420924":{"post_code":"0420924","prefecture":"HOKKAIDO","city":"HAKODATE SHI","town":"NESAKICHO","perfecture_jp":"北海道","jp_add_1":"函館市","jp_add_2":"根崎町"},"0420943":{"post_code":"0420943","prefecture":"HOKKAIDO","city":"HAKODATE SHI","town":"NOGIMACHI","perfecture_jp":"北海道","jp_add_1":"函館市","jp_add_2":"乃木町"},"0420903":{"post_code":"0420903","prefecture":"HOKKAIDO","city":"HAKODATE SHI","town":"HIGASHIHATACHO","perfecture_jp":"北海道","jp_add_1":"函館市","jp_add_2":"東畑町"},"0420934":{"post_code":"0420934","prefecture":"HOKKAIDO","city":"HAKODATE SHI","town":"HIRONOCHO","perfecture_jp":"北海道","jp_add_1":"函館市","jp_add_2":"広野町"},"0420941":{"post_code":"0420941","prefecture":"HOKKAIDO","city":"HAKODATE SHI","town":"FUKABORICHO","perfecture_jp":"北海道","jp_add_1":"函館市","jp_add_2":"深堀町"},"0420918":{"post_code":"0420918","prefecture":"HOKKAIDO","city":"HAKODATE SHI","town":"MAIHARACHO","perfecture_jp":"北海道","jp_add_1":"函館市","jp_add_2":"米原町"},"0420907":{"post_code":"0420907","prefecture":"HOKKAIDO","city":"HAKODATE SHI","town":"MASUKAWACHO","perfecture_jp":"北海道","jp_add_1":"函館市","jp_add_2":"鱒川町"},"0420906":{"post_code":"0420906","prefecture":"HOKKAIDO","city":"HAKODATE SHI","town":"MITSUMORICHO","perfecture_jp":"北海道","jp_add_1":"函館市","jp_add_2":"三森町"},"0420956":{"post_code":"0420956","prefecture":"HOKKAIDO","city":"HAKODATE SHI","town":"MIHARASHICHO","perfecture_jp":"北海道","jp_add_1":"函館市","jp_add_2":"見晴町"},"0420905":{"post_code":"0420905","prefecture":"HOKKAIDO","city":"HAKODATE SHI","town":"MOMIJIYAMACHO","perfecture_jp":"北海道","jp_add_1":"函館市","jp_add_2":"紅葉山町"},"0420932":{"post_code":"0420932","prefecture":"HOKKAIDO","city":"HAKODATE SHI","town":"YUNOKAWACHO","perfecture_jp":"北海道","jp_add_1":"函館市","jp_add_2":"湯川町"},"0420933":{"post_code":"0420933","prefecture":"HOKKAIDO","city":"HAKODATE SHI","town":"YUNOHAMACHO","perfecture_jp":"北海道","jp_add_1":"函館市","jp_add_2":"湯浜町"}}