{"0430332":{"post_code":"0430332","prefecture":"HOKKAIDO","city":"FUTAMI GUN YAKUMO CHO","town":"KUMAISHI AINUMACHO","perfecture_jp":"北海道","jp_add_1":"二海郡八雲町","jp_add_2":"熊石相沼町"},"0430402":{"post_code":"0430402","prefecture":"HOKKAIDO","city":"FUTAMI GUN YAKUMO CHO","town":"KUMAISHI AYUKAWACHO","perfecture_jp":"北海道","jp_add_1":"二海郡八雲町","jp_add_2":"熊石鮎川町"},"0430416":{"post_code":"0430416","prefecture":"HOKKAIDO","city":"FUTAMI GUN YAKUMO CHO","town":"KUMAISHI UNSEKICHO","perfecture_jp":"北海道","jp_add_1":"二海郡八雲町","jp_add_2":"熊石雲石町"},"0430405":{"post_code":"0430405","prefecture":"HOKKAIDO","city":"FUTAMI GUN YAKUMO CHO","town":"KUMAISHI OTANICHO","perfecture_jp":"北海道","jp_add_1":"二海郡八雲町","jp_add_2":"熊石大谷町"},"0430331":{"post_code":"0430331","prefecture":"HOKKAIDO","city":"FUTAMI GUN YAKUMO CHO","town":"KUMAISHI ORITOCHO","perfecture_jp":"北海道","jp_add_1":"二海郡八雲町","jp_add_2":"熊石折戸町"},"0430335":{"post_code":"0430335","prefecture":"HOKKAIDO","city":"FUTAMI GUN YAKUMO CHO","town":"KUMAISHI KUROIWACHO","perfecture_jp":"北海道","jp_add_1":"二海郡八雲町","jp_add_2":"熊石黒岩町"},"0430401":{"post_code":"0430401","prefecture":"HOKKAIDO","city":"FUTAMI GUN YAKUMO CHO","town":"KUMAISHI KENNICHICHO","perfecture_jp":"北海道","jp_add_1":"二海郡八雲町","jp_add_2":"熊石見日町"},"0430418":{"post_code":"0430418","prefecture":"HOKKAIDO","city":"FUTAMI GUN YAKUMO CHO","town":"KUMAISHI SEKINAICHO","perfecture_jp":"北海道","jp_add_1":"二海郡八雲町","jp_add_2":"熊石関内町"},"0430403":{"post_code":"0430403","prefecture":"HOKKAIDO","city":"FUTAMI GUN YAKUMO CHO","town":"KUMAISHI TAIRACHO","perfecture_jp":"北海道","jp_add_1":"二海郡八雲町","jp_add_2":"熊石平町"},"0430404":{"post_code":"0430404","prefecture":"HOKKAIDO","city":"FUTAMI GUN YAKUMO CHO","town":"KUMAISHI TATAMIIWACHO","perfecture_jp":"北海道","jp_add_1":"二海郡八雲町","jp_add_2":"熊石畳岩町"},"0430333":{"post_code":"0430333","prefecture":"HOKKAIDO","city":"FUTAMI GUN YAKUMO CHO","town":"KUMAISHI TATEHIRACHO","perfecture_jp":"北海道","jp_add_1":"二海郡八雲町","jp_add_2":"熊石館平町"},"0430334":{"post_code":"0430334","prefecture":"HOKKAIDO","city":"FUTAMI GUN YAKUMO CHO","town":"KUMAISHI TOMARIKAWACHO","perfecture_jp":"北海道","jp_add_1":"二海郡八雲町","jp_add_2":"熊石泊川町"},"0430417":{"post_code":"0430417","prefecture":"HOKKAIDO","city":"FUTAMI GUN YAKUMO CHO","town":"KUMAISHI NARUKAMICHO","perfecture_jp":"北海道","jp_add_1":"二海郡八雲町","jp_add_2":"熊石鳴神町"},"0430419":{"post_code":"0430419","prefecture":"HOKKAIDO","city":"FUTAMI GUN YAKUMO CHO","town":"KUMAISHI NISHIHAMACHO","perfecture_jp":"北海道","jp_add_1":"二海郡八雲町","jp_add_2":"熊石西浜町"},"0430415":{"post_code":"0430415","prefecture":"HOKKAIDO","city":"FUTAMI GUN YAKUMO CHO","town":"KUMAISHI NESAKICHO","perfecture_jp":"北海道","jp_add_1":"二海郡八雲町","jp_add_2":"熊石根崎町"},"0430000":{"post_code":"0430000","prefecture":"HOKKAIDO","city":"HIYAMA GUN ESASHI CHO","town":"IKANIKEISAIGANAIBAAI","perfecture_jp":"北海道","jp_add_1":"檜山郡江差町","jp_add_2":""},"0430013":{"post_code":"0430013","prefecture":"HOKKAIDO","city":"HIYAMA GUN ESASHI CHO","town":"ASAHICHO","perfecture_jp":"北海道","jp_add_1":"檜山郡江差町","jp_add_2":"朝日町"},"0430031":{"post_code":"0430031","prefecture":"HOKKAIDO","city":"HIYAMA GUN ESASHI CHO","town":"ATAGOCHO","perfecture_jp":"北海道","jp_add_1":"檜山郡江差町","jp_add_2":"愛宕町"},"0430042":{"post_code":"0430042","prefecture":"HOKKAIDO","city":"HIYAMA GUN ESASHI CHO","town":"UENOCHO","perfecture_jp":"北海道","jp_add_1":"檜山郡江差町","jp_add_2":"上野町"},"0430012":{"post_code":"0430012","prefecture":"HOKKAIDO","city":"HIYAMA GUN ESASHI CHO","town":"UGUIKAWACHO","perfecture_jp":"北海道","jp_add_1":"檜山郡江差町","jp_add_2":"鰔川町"},"0430041":{"post_code":"0430041","prefecture":"HOKKAIDO","city":"HIYAMA GUN ESASHI CHO","town":"UBAGAMICHO","perfecture_jp":"北海道","jp_add_1":"檜山郡江差町","jp_add_2":"姥神町"},"0430046":{"post_code":"0430046","prefecture":"HOKKAIDO","city":"HIYAMA GUN ESASHI CHO","town":"ESASHIKOKITAFUTO","perfecture_jp":"北海道","jp_add_1":"檜山郡江差町","jp_add_2":"江差港北埠頭"},"0430016":{"post_code":"0430016","prefecture":"HOKKAIDO","city":"HIYAMA GUN ESASHI CHO","town":"ECHIZEMMACHI","perfecture_jp":"北海道","jp_add_1":"檜山郡江差町","jp_add_2":"越前町"},"0430026":{"post_code":"0430026","prefecture":"HOKKAIDO","city":"HIYAMA GUN ESASHI CHO","town":"OMACHO","perfecture_jp":"北海道","jp_add_1":"檜山郡江差町","jp_add_2":"大澗町"},"0430014":{"post_code":"0430014","prefecture":"HOKKAIDO","city":"HIYAMA GUN ESASHI CHO","town":"OGUROPPECHO","perfecture_jp":"北海道","jp_add_1":"檜山郡江差町","jp_add_2":"小黒部町"},"0430024":{"post_code":"0430024","prefecture":"HOKKAIDO","city":"HIYAMA GUN ESASHI CHO","town":"OYAMACHO","perfecture_jp":"北海道","jp_add_1":"檜山郡江差町","jp_add_2":"尾山町"},"0430057":{"post_code":"0430057","prefecture":"HOKKAIDO","city":"HIYAMA GUN ESASHI CHO","town":"KAIGANCHO","perfecture_jp":"北海道","jp_add_1":"檜山郡江差町","jp_add_2":"海岸町"},"0430064":{"post_code":"0430064","prefecture":"HOKKAIDO","city":"HIYAMA GUN ESASHI CHO","town":"KASHIWACHO","perfecture_jp":"北海道","jp_add_1":"檜山郡江差町","jp_add_2":"柏町"},"0430045":{"post_code":"0430045","prefecture":"HOKKAIDO","city":"HIYAMA GUN ESASHI CHO","town":"KAMOMEJIMA","perfecture_jp":"北海道","jp_add_1":"檜山郡江差町","jp_add_2":"鴎島"},"0430011":{"post_code":"0430011","prefecture":"HOKKAIDO","city":"HIYAMA GUN ESASHI CHO","town":"GORINZAWACHO","perfecture_jp":"北海道","jp_add_1":"檜山郡江差町","jp_add_2":"五厘沢町"},"0430032":{"post_code":"0430032","prefecture":"HOKKAIDO","city":"HIYAMA GUN ESASHI CHO","town":"SHINEICHO","perfecture_jp":"北海道","jp_add_1":"檜山郡江差町","jp_add_2":"新栄町"},"0430053":{"post_code":"0430053","prefecture":"HOKKAIDO","city":"HIYAMA GUN ESASHI CHO","town":"SHINCHICHO","perfecture_jp":"北海道","jp_add_1":"檜山郡江差町","jp_add_2":"新地町"},"0430056":{"post_code":"0430056","prefecture":"HOKKAIDO","city":"HIYAMA GUN ESASHI CHO","town":"JINYACHO","perfecture_jp":"北海道","jp_add_1":"檜山郡江差町","jp_add_2":"陣屋町"},"0430065":{"post_code":"0430065","prefecture":"HOKKAIDO","city":"HIYAMA GUN ESASHI CHO","town":"SUNAGAWA","perfecture_jp":"北海道","jp_add_1":"檜山郡江差町","jp_add_2":"砂川"},"0430023":{"post_code":"0430023","prefecture":"HOKKAIDO","city":"HIYAMA GUN ESASHI CHO","town":"TAZAWACHO","perfecture_jp":"北海道","jp_add_1":"檜山郡江差町","jp_add_2":"田沢町"},"0430051":{"post_code":"0430051","prefecture":"HOKKAIDO","city":"HIYAMA GUN ESASHI CHO","town":"TSUBANACHO","perfecture_jp":"北海道","jp_add_1":"檜山郡江差町","jp_add_2":"津花町"},"0430066":{"post_code":"0430066","prefecture":"HOKKAIDO","city":"HIYAMA GUN ESASHI CHO","town":"TODOGAWACHO","perfecture_jp":"北海道","jp_add_1":"檜山郡江差町","jp_add_2":"とど川町"},"0430025":{"post_code":"0430025","prefecture":"HOKKAIDO","city":"HIYAMA GUN ESASHI CHO","town":"TOMARICHO","perfecture_jp":"北海道","jp_add_1":"檜山郡江差町","jp_add_2":"泊町"},"0430033":{"post_code":"0430033","prefecture":"HOKKAIDO","city":"HIYAMA GUN ESASHI CHO","town":"TOYOKAWACHO","perfecture_jp":"北海道","jp_add_1":"檜山郡江差町","jp_add_2":"豊川町"},"0430015":{"post_code":"0430015","prefecture":"HOKKAIDO","city":"HIYAMA GUN ESASHI CHO","town":"NAKAAMICHO","perfecture_jp":"北海道","jp_add_1":"檜山郡江差町","jp_add_2":"中網町"},"0430034":{"post_code":"0430034","prefecture":"HOKKAIDO","city":"HIYAMA GUN ESASHI CHO","town":"NAKAUTACHO","perfecture_jp":"北海道","jp_add_1":"檜山郡江差町","jp_add_2":"中歌町"},"0430062":{"post_code":"0430062","prefecture":"HOKKAIDO","city":"HIYAMA GUN ESASHI CHO","town":"HAGINOTAI","perfecture_jp":"北海道","jp_add_1":"檜山郡江差町","jp_add_2":"萩の岱"},"0430044":{"post_code":"0430044","prefecture":"HOKKAIDO","city":"HIYAMA GUN ESASHI CHO","town":"HASHIMOTOCHO","perfecture_jp":"北海道","jp_add_1":"檜山郡江差町","jp_add_2":"橋本町"},"0430036":{"post_code":"0430036","prefecture":"HOKKAIDO","city":"HIYAMA GUN ESASHI CHO","town":"HIGASHIYAMA","perfecture_jp":"北海道","jp_add_1":"檜山郡江差町","jp_add_2":"東山"},"0430035":{"post_code":"0430035","prefecture":"HOKKAIDO","city":"HIYAMA GUN ESASHI CHO","town":"HINOKITAI","perfecture_jp":"北海道","jp_add_1":"檜山郡江差町","jp_add_2":"桧岱"},"0430022":{"post_code":"0430022","prefecture":"HOKKAIDO","city":"HIYAMA GUN ESASHI CHO","town":"FUSHIKIDOCHO","perfecture_jp":"北海道","jp_add_1":"檜山郡江差町","jp_add_2":"伏木戸町"},"0430043":{"post_code":"0430043","prefecture":"HOKKAIDO","city":"HIYAMA GUN ESASHI CHO","town":"HONCHO","perfecture_jp":"北海道","jp_add_1":"檜山郡江差町","jp_add_2":"本町"},"0430055":{"post_code":"0430055","prefecture":"HOKKAIDO","city":"HIYAMA GUN ESASHI CHO","town":"MARUYAMA","perfecture_jp":"北海道","jp_add_1":"檜山郡江差町","jp_add_2":"円山"},"0430017":{"post_code":"0430017","prefecture":"HOKKAIDO","city":"HIYAMA GUN ESASHI CHO","town":"MIZUHORICHO","perfecture_jp":"北海道","jp_add_1":"檜山郡江差町","jp_add_2":"水堀町"},"0430054":{"post_code":"0430054","prefecture":"HOKKAIDO","city":"HIYAMA GUN ESASHI CHO","town":"MIDORIGAOKA","perfecture_jp":"北海道","jp_add_1":"檜山郡江差町","jp_add_2":"緑丘"},"0430061":{"post_code":"0430061","prefecture":"HOKKAIDO","city":"HIYAMA GUN ESASHI CHO","town":"MINAMIGAOKA","perfecture_jp":"北海道","jp_add_1":"檜山郡江差町","jp_add_2":"南が丘"},"0430063":{"post_code":"0430063","prefecture":"HOKKAIDO","city":"HIYAMA GUN ESASHI CHO","town":"MINAMIHAMACHO","perfecture_jp":"北海道","jp_add_1":"檜山郡江差町","jp_add_2":"南浜町"},"0430052":{"post_code":"0430052","prefecture":"HOKKAIDO","city":"HIYAMA GUN ESASHI CHO","town":"MOSHIRICHO","perfecture_jp":"北海道","jp_add_1":"檜山郡江差町","jp_add_2":"茂尻町"},"0430021":{"post_code":"0430021","prefecture":"HOKKAIDO","city":"HIYAMA GUN ESASHI CHO","town":"YANAGIZAKICHO","perfecture_jp":"北海道","jp_add_1":"檜山郡江差町","jp_add_2":"柳崎町"},"0431100":{"post_code":"0431100","prefecture":"HOKKAIDO","city":"HIYAMA GUN ASSABU CHO","town":"IKANIKEISAIGANAIBAAI","perfecture_jp":"北海道","jp_add_1":"檜山郡厚沢部町","jp_add_2":""},"0431232":{"post_code":"0431232","prefecture":"HOKKAIDO","city":"HIYAMA GUN ASSABU CHO","town":"AIOI","perfecture_jp":"北海道","jp_add_1":"檜山郡厚沢部町","jp_add_2":"相生"},"0431111":{"post_code":"0431111","prefecture":"HOKKAIDO","city":"HIYAMA GUN ASSABU CHO","town":"AKANUMAMACHI","perfecture_jp":"北海道","jp_add_1":"檜山郡厚沢部町","jp_add_2":"赤沼町"},"0431233":{"post_code":"0431233","prefecture":"HOKKAIDO","city":"HIYAMA GUN ASSABU CHO","town":"ASAHIOKA","perfecture_jp":"北海道","jp_add_1":"檜山郡厚沢部町","jp_add_2":"旭丘"},"0431102":{"post_code":"0431102","prefecture":"HOKKAIDO","city":"HIYAMA GUN ASSABU CHO","town":"INAMI","perfecture_jp":"北海道","jp_add_1":"檜山郡厚沢部町","jp_add_2":"稲見"},"0431238":{"post_code":"0431238","prefecture":"HOKKAIDO","city":"HIYAMA GUN ASSABU CHO","town":"UZURA","perfecture_jp":"北海道","jp_add_1":"檜山郡厚沢部町","jp_add_2":"鶉"},"0431237":{"post_code":"0431237","prefecture":"HOKKAIDO","city":"HIYAMA GUN ASSABU CHO","town":"UZURAMACHI","perfecture_jp":"北海道","jp_add_1":"檜山郡厚沢部町","jp_add_2":"鶉町"},"0431104":{"post_code":"0431104","prefecture":"HOKKAIDO","city":"HIYAMA GUN ASSABU CHO","town":"KAMISATO","perfecture_jp":"北海道","jp_add_1":"檜山郡厚沢部町","jp_add_2":"上里"},"0431116":{"post_code":"0431116","prefecture":"HOKKAIDO","city":"HIYAMA GUN ASSABU CHO","town":"KAMINOYAMA","perfecture_jp":"北海道","jp_add_1":"檜山郡厚沢部町","jp_add_2":"上の山"},"0431234":{"post_code":"0431234","prefecture":"HOKKAIDO","city":"HIYAMA GUN ASSABU CHO","town":"KIMANAI","perfecture_jp":"北海道","jp_add_1":"檜山郡厚沢部町","jp_add_2":"木間内"},"0431231":{"post_code":"0431231","prefecture":"HOKKAIDO","city":"HIYAMA GUN ASSABU CHO","town":"KYOWA","perfecture_jp":"北海道","jp_add_1":"檜山郡厚沢部町","jp_add_2":"共和"},"0431101":{"post_code":"0431101","prefecture":"HOKKAIDO","city":"HIYAMA GUN ASSABU CHO","town":"SHIMIZU","perfecture_jp":"北海道","jp_add_1":"檜山郡厚沢部町","jp_add_2":"清水"},"0431361":{"post_code":"0431361","prefecture":"HOKKAIDO","city":"HIYAMA GUN ASSABU CHO","town":"SHANOYAMA(NAKANOSAWA)","perfecture_jp":"北海道","jp_add_1":"檜山郡厚沢部町","jp_add_2":"社の山"},"0431236":{"post_code":"0431236","prefecture":"HOKKAIDO","city":"HIYAMA GUN ASSABU CHO","town":"SHANOYAMA(SONOTA)","perfecture_jp":"北海道","jp_add_1":"檜山郡厚沢部町","jp_add_2":"社の山"},"0431364":{"post_code":"0431364","prefecture":"HOKKAIDO","city":"HIYAMA GUN ASSABU CHO","town":"SHIROKA","perfecture_jp":"北海道","jp_add_1":"檜山郡厚沢部町","jp_add_2":"城丘"},"0431367":{"post_code":"0431367","prefecture":"HOKKAIDO","city":"HIYAMA GUN ASSABU CHO","town":"SHINEI","perfecture_jp":"北海道","jp_add_1":"檜山郡厚沢部町","jp_add_2":"新栄"},"0431113":{"post_code":"0431113","prefecture":"HOKKAIDO","city":"HIYAMA GUN ASSABU CHO","town":"SHIMMACHI","perfecture_jp":"北海道","jp_add_1":"檜山郡厚沢部町","jp_add_2":"新町"},"0431362":{"post_code":"0431362","prefecture":"HOKKAIDO","city":"HIYAMA GUN ASSABU CHO","town":"SUGA","perfecture_jp":"北海道","jp_add_1":"檜山郡厚沢部町","jp_add_2":"須賀"},"0431103":{"post_code":"0431103","prefecture":"HOKKAIDO","city":"HIYAMA GUN ASSABU CHO","town":"TAKINO","perfecture_jp":"北海道","jp_add_1":"檜山郡厚沢部町","jp_add_2":"滝野"},"0431351":{"post_code":"0431351","prefecture":"HOKKAIDO","city":"HIYAMA GUN ASSABU CHO","town":"TATEMACHI","perfecture_jp":"北海道","jp_add_1":"檜山郡厚沢部町","jp_add_2":"館町"},"0431235":{"post_code":"0431235","prefecture":"HOKKAIDO","city":"HIYAMA GUN ASSABU CHO","town":"TOGESHITA","perfecture_jp":"北海道","jp_add_1":"檜山郡厚沢部町","jp_add_2":"峠下"},"0431366":{"post_code":"0431366","prefecture":"HOKKAIDO","city":"HIYAMA GUN ASSABU CHO","town":"TORO","perfecture_jp":"北海道","jp_add_1":"檜山郡厚沢部町","jp_add_2":"当路"},"0431118":{"post_code":"0431118","prefecture":"HOKKAIDO","city":"HIYAMA GUN ASSABU CHO","town":"TOMIEI","perfecture_jp":"北海道","jp_add_1":"檜山郡厚沢部町","jp_add_2":"富栄"},"0431363":{"post_code":"0431363","prefecture":"HOKKAIDO","city":"HIYAMA GUN ASSABU CHO","town":"TOMISATO","perfecture_jp":"北海道","jp_add_1":"檜山郡厚沢部町","jp_add_2":"富里"},"0431368":{"post_code":"0431368","prefecture":"HOKKAIDO","city":"HIYAMA GUN ASSABU CHO","town":"NAKATATE","perfecture_jp":"北海道","jp_add_1":"檜山郡厚沢部町","jp_add_2":"中館"},"0431114":{"post_code":"0431114","prefecture":"HOKKAIDO","city":"HIYAMA GUN ASSABU CHO","town":"HONCHO","perfecture_jp":"北海道","jp_add_1":"檜山郡厚沢部町","jp_add_2":"本町"},"0431115":{"post_code":"0431115","prefecture":"HOKKAIDO","city":"HIYAMA GUN ASSABU CHO","town":"MATSUZONOMACHI","perfecture_jp":"北海道","jp_add_1":"檜山郡厚沢部町","jp_add_2":"松園町"},"0431112":{"post_code":"0431112","prefecture":"HOKKAIDO","city":"HIYAMA GUN ASSABU CHO","town":"MIDORIMACHI","perfecture_jp":"北海道","jp_add_1":"檜山郡厚沢部町","jp_add_2":"緑町"},"0431365":{"post_code":"0431365","prefecture":"HOKKAIDO","city":"HIYAMA GUN ASSABU CHO","town":"MINAMITATEMACHI","perfecture_jp":"北海道","jp_add_1":"檜山郡厚沢部町","jp_add_2":"南館町"},"0431117":{"post_code":"0431117","prefecture":"HOKKAIDO","city":"HIYAMA GUN ASSABU CHO","town":"MIWA","perfecture_jp":"北海道","jp_add_1":"檜山郡厚沢部町","jp_add_2":"美和"},"0430100":{"post_code":"0430100","prefecture":"HOKKAIDO","city":"NISHI GUN OTOBE CHO","town":"IKANIKEISAIGANAIBAAI","perfecture_jp":"北海道","jp_add_1":"爾志郡乙部町","jp_add_2":""},"0430116":{"post_code":"0430116","prefecture":"HOKKAIDO","city":"NISHI GUN OTOBE CHO","town":"ASAHITAI","perfecture_jp":"北海道","jp_add_1":"爾志郡乙部町","jp_add_2":"旭岱"},"0430114":{"post_code":"0430114","prefecture":"HOKKAIDO","city":"NISHI GUN OTOBE CHO","town":"GENNA","perfecture_jp":"北海道","jp_add_1":"爾志郡乙部町","jp_add_2":"元和"},"0430112":{"post_code":"0430112","prefecture":"HOKKAIDO","city":"NISHI GUN OTOBE CHO","town":"SAKAENO","perfecture_jp":"北海道","jp_add_1":"爾志郡乙部町","jp_add_2":"栄野"},"0430113":{"post_code":"0430113","prefecture":"HOKKAIDO","city":"NISHI GUN OTOBE CHO","town":"SAKAEHAMA","perfecture_jp":"北海道","jp_add_1":"爾志郡乙部町","jp_add_2":"栄浜"},"0430233":{"post_code":"0430233","prefecture":"HOKKAIDO","city":"NISHI GUN OTOBE CHO","town":"SHIOMI","perfecture_jp":"北海道","jp_add_1":"爾志郡乙部町","jp_add_2":"潮見"},"0430101":{"post_code":"0430101","prefecture":"HOKKAIDO","city":"NISHI GUN OTOBE CHO","town":"TAKISE","perfecture_jp":"北海道","jp_add_1":"爾志郡乙部町","jp_add_2":"滝瀬"},"0430104":{"post_code":"0430104","prefecture":"HOKKAIDO","city":"NISHI GUN OTOBE CHO","town":"TATEURA","perfecture_jp":"北海道","jp_add_1":"爾志郡乙部町","jp_add_2":"館浦"},"0430115":{"post_code":"0430115","prefecture":"HOKKAIDO","city":"NISHI GUN OTOBE CHO","town":"TOMIOKA","perfecture_jp":"北海道","jp_add_1":"爾志郡乙部町","jp_add_2":"富岡"},"0430231":{"post_code":"0430231","prefecture":"HOKKAIDO","city":"NISHI GUN OTOBE CHO","town":"TOYOHAMA","perfecture_jp":"北海道","jp_add_1":"爾志郡乙部町","jp_add_2":"豊浜"},"0430111":{"post_code":"0430111","prefecture":"HOKKAIDO","city":"NISHI GUN OTOBE CHO","town":"TORIYAMA","perfecture_jp":"北海道","jp_add_1":"爾志郡乙部町","jp_add_2":"鳥山"},"0430232":{"post_code":"0430232","prefecture":"HOKKAIDO","city":"NISHI GUN OTOBE CHO","town":"HANAISO","perfecture_jp":"北海道","jp_add_1":"爾志郡乙部町","jp_add_2":"花磯"},"0430117":{"post_code":"0430117","prefecture":"HOKKAIDO","city":"NISHI GUN OTOBE CHO","town":"HIMEKAWA","perfecture_jp":"北海道","jp_add_1":"爾志郡乙部町","jp_add_2":"姫川"},"0430234":{"post_code":"0430234","prefecture":"HOKKAIDO","city":"NISHI GUN OTOBE CHO","town":"MITSUYA","perfecture_jp":"北海道","jp_add_1":"爾志郡乙部町","jp_add_2":"三ツ谷"},"0430103":{"post_code":"0430103","prefecture":"HOKKAIDO","city":"NISHI GUN OTOBE CHO","town":"MIDORIMACHI","perfecture_jp":"北海道","jp_add_1":"爾志郡乙部町","jp_add_2":"緑町"},"0430102":{"post_code":"0430102","prefecture":"HOKKAIDO","city":"NISHI GUN OTOBE CHO","town":"MOTOMACHI","perfecture_jp":"北海道","jp_add_1":"爾志郡乙部町","jp_add_2":"元町"},"0431400":{"post_code":"0431400","prefecture":"HOKKAIDO","city":"OKUSHIRI GUN OKUSHIRI CHO","town":"IKANIKEISAIGANAIBAAI","perfecture_jp":"北海道","jp_add_1":"奥尻郡奥尻町","jp_add_2":""},"0431521":{"post_code":"0431521","prefecture":"HOKKAIDO","city":"OKUSHIRI GUN OKUSHIRI CHO","town":"AONAE","perfecture_jp":"北海道","jp_add_1":"奥尻郡奥尻町","jp_add_2":"青苗"},"0431402":{"post_code":"0431402","prefecture":"HOKKAIDO","city":"OKUSHIRI GUN OKUSHIRI CHO","town":"AKAISHI","perfecture_jp":"北海道","jp_add_1":"奥尻郡奥尻町","jp_add_2":"赤石"},"0431405":{"post_code":"0431405","prefecture":"HOKKAIDO","city":"OKUSHIRI GUN OKUSHIRI CHO","town":"INAHO","perfecture_jp":"北海道","jp_add_1":"奥尻郡奥尻町","jp_add_2":"稲穂"},"0431401":{"post_code":"0431401","prefecture":"HOKKAIDO","city":"OKUSHIRI GUN OKUSHIRI CHO","town":"OKUSHIRI","perfecture_jp":"北海道","jp_add_1":"奥尻郡奥尻町","jp_add_2":"奥尻"},"0431403":{"post_code":"0431403","prefecture":"HOKKAIDO","city":"OKUSHIRI GUN OKUSHIRI CHO","town":"TAMAURA","perfecture_jp":"北海道","jp_add_1":"奥尻郡奥尻町","jp_add_2":"球浦"},"0431522":{"post_code":"0431522","prefecture":"HOKKAIDO","city":"OKUSHIRI GUN OKUSHIRI CHO","town":"TOMISATO","perfecture_jp":"北海道","jp_add_1":"奥尻郡奥尻町","jp_add_2":"富里"},"0431523":{"post_code":"0431523","prefecture":"HOKKAIDO","city":"OKUSHIRI GUN OKUSHIRI CHO","town":"MATSUE","perfecture_jp":"北海道","jp_add_1":"奥尻郡奥尻町","jp_add_2":"松江"},"0431404":{"post_code":"0431404","prefecture":"HOKKAIDO","city":"OKUSHIRI GUN OKUSHIRI CHO","town":"MIYATSU","perfecture_jp":"北海道","jp_add_1":"奥尻郡奥尻町","jp_add_2":"宮津"},"0431525":{"post_code":"0431525","prefecture":"HOKKAIDO","city":"OKUSHIRI GUN OKUSHIRI CHO","town":"YUNOHAMA(KAMUIWAKI.HORONAI)","perfecture_jp":"北海道","jp_add_1":"奥尻郡奥尻町","jp_add_2":"湯浜"},"0431406":{"post_code":"0431406","prefecture":"HOKKAIDO","city":"OKUSHIRI GUN OKUSHIRI CHO","town":"YUNOHAMA(SONOTA)","perfecture_jp":"北海道","jp_add_1":"奥尻郡奥尻町","jp_add_2":"湯浜"},"0431524":{"post_code":"0431524","prefecture":"HOKKAIDO","city":"OKUSHIRI GUN OKUSHIRI CHO","town":"YONEOKA","perfecture_jp":"北海道","jp_add_1":"奥尻郡奥尻町","jp_add_2":"米岡"},"0430501":{"post_code":"0430501","prefecture":"HOKKAIDO","city":"KUDO GUN SETANA CHO","town":"TAISEIKU OTA","perfecture_jp":"北海道","jp_add_1":"久遠郡せたな町","jp_add_2":"大成区太田"},"0430515":{"post_code":"0430515","prefecture":"HOKKAIDO","city":"KUDO GUN SETANA CHO","town":"TAISEIKU KAITORIMA","perfecture_jp":"北海道","jp_add_1":"久遠郡せたな町","jp_add_2":"大成区貝取澗"},"0430503":{"post_code":"0430503","prefecture":"HOKKAIDO","city":"KUDO GUN SETANA CHO","town":"TAISEIKU KAMIURA","perfecture_jp":"北海道","jp_add_1":"久遠郡せたな町","jp_add_2":"大成区上浦"},"0430511":{"post_code":"0430511","prefecture":"HOKKAIDO","city":"KUDO GUN SETANA CHO","town":"TAISEIKU KUDO","perfecture_jp":"北海道","jp_add_1":"久遠郡せたな町","jp_add_2":"大成区久遠"},"0430502":{"post_code":"0430502","prefecture":"HOKKAIDO","city":"KUDO GUN SETANA CHO","town":"TAISEIKU TOMIISO","perfecture_jp":"北海道","jp_add_1":"久遠郡せたな町","jp_add_2":"大成区富磯"},"0430421":{"post_code":"0430421","prefecture":"HOKKAIDO","city":"KUDO GUN SETANA CHO","town":"TAISEIKU NAGAISO","perfecture_jp":"北海道","jp_add_1":"久遠郡せたな町","jp_add_2":"大成区長磯"},"0430512":{"post_code":"0430512","prefecture":"HOKKAIDO","city":"KUDO GUN SETANA CHO","town":"TAISEIKU HANAUTA","perfecture_jp":"北海道","jp_add_1":"久遠郡せたな町","jp_add_2":"大成区花歌"},"0430514":{"post_code":"0430514","prefecture":"HOKKAIDO","city":"KUDO GUN SETANA CHO","town":"TAISEIKU HIRAHAMA","perfecture_jp":"北海道","jp_add_1":"久遠郡せたな町","jp_add_2":"大成区平浜"},"0430505":{"post_code":"0430505","prefecture":"HOKKAIDO","city":"KUDO GUN SETANA CHO","town":"TAISEIKU HONJIN","perfecture_jp":"北海道","jp_add_1":"久遠郡せたな町","jp_add_2":"大成区本陣"},"0430504":{"post_code":"0430504","prefecture":"HOKKAIDO","city":"KUDO GUN SETANA CHO","town":"TAISEIKU MIYAKO","perfecture_jp":"北海道","jp_add_1":"久遠郡せたな町","jp_add_2":"大成区都"},"0430513":{"post_code":"0430513","prefecture":"HOKKAIDO","city":"KUDO GUN SETANA CHO","town":"TAISEIKU MIYANO","perfecture_jp":"北海道","jp_add_1":"久遠郡せたな町","jp_add_2":"大成区宮野"}}