{"0460200":{"post_code":"0460200","prefecture":"HOKKAIDO","city":"SHAKOTAN GUN SHAKOTAN CHO","town":"IKANIKEISAIGANAIBAAI","perfecture_jp":"北海道","jp_add_1":"積丹郡積丹町","jp_add_2":""},"0460327":{"post_code":"0460327","prefecture":"HOKKAIDO","city":"SHAKOTAN GUN SHAKOTAN CHO","town":"IRIKACHO","perfecture_jp":"北海道","jp_add_1":"積丹郡積丹町","jp_add_2":"入舸町"},"0460321":{"post_code":"0460321","prefecture":"HOKKAIDO","city":"SHAKOTAN GUN SHAKOTAN CHO","town":"KOZAKICHO","perfecture_jp":"北海道","jp_add_1":"積丹郡積丹町","jp_add_2":"神岬町"},"0460324":{"post_code":"0460324","prefecture":"HOKKAIDO","city":"SHAKOTAN GUN SHAKOTAN CHO","town":"NISHIKAWACHO","perfecture_jp":"北海道","jp_add_1":"積丹郡積丹町","jp_add_2":"西河町"},"0460325":{"post_code":"0460325","prefecture":"HOKKAIDO","city":"SHAKOTAN GUN SHAKOTAN CHO","town":"NOZUKACHO","perfecture_jp":"北海道","jp_add_1":"積丹郡積丹町","jp_add_2":"野塚町"},"0460201":{"post_code":"0460201","prefecture":"HOKKAIDO","city":"SHAKOTAN GUN SHAKOTAN CHO","town":"BIKUNICHO","perfecture_jp":"北海道","jp_add_1":"積丹郡積丹町","jp_add_2":"美国町"},"0460326":{"post_code":"0460326","prefecture":"HOKKAIDO","city":"SHAKOTAN GUN SHAKOTAN CHO","town":"HIZUKACHO","perfecture_jp":"北海道","jp_add_1":"積丹郡積丹町","jp_add_2":"日司町"},"0460202":{"post_code":"0460202","prefecture":"HOKKAIDO","city":"SHAKOTAN GUN SHAKOTAN CHO","town":"FUMICHO","perfecture_jp":"北海道","jp_add_1":"積丹郡積丹町","jp_add_2":"婦美町"},"0460328":{"post_code":"0460328","prefecture":"HOKKAIDO","city":"SHAKOTAN GUN SHAKOTAN CHO","town":"HOROMUICHO","perfecture_jp":"北海道","jp_add_1":"積丹郡積丹町","jp_add_2":"幌武意町"},"0460322":{"post_code":"0460322","prefecture":"HOKKAIDO","city":"SHAKOTAN GUN SHAKOTAN CHO","town":"YOBETSUCHO","perfecture_jp":"北海道","jp_add_1":"積丹郡積丹町","jp_add_2":"余別町"},"0460323":{"post_code":"0460323","prefecture":"HOKKAIDO","city":"SHAKOTAN GUN SHAKOTAN CHO","town":"RAIKISHICHO","perfecture_jp":"北海道","jp_add_1":"積丹郡積丹町","jp_add_2":"来岸町"},"0460100":{"post_code":"0460100","prefecture":"HOKKAIDO","city":"FURUBIRA GUN FURUBIRA CHO","town":"IKANIKEISAIGANAIBAAI","perfecture_jp":"北海道","jp_add_1":"古平郡古平町","jp_add_2":""},"0460104":{"post_code":"0460104","prefecture":"HOKKAIDO","city":"FURUBIRA GUN FURUBIRA CHO","town":"IRIFUNECHO","perfecture_jp":"北海道","jp_add_1":"古平郡古平町","jp_add_2":"入船町"},"0460132":{"post_code":"0460132","prefecture":"HOKKAIDO","city":"FURUBIRA GUN FURUBIRA CHO","town":"UTASUTSUCHO","perfecture_jp":"北海道","jp_add_1":"古平郡古平町","jp_add_2":"歌棄町"},"0460133":{"post_code":"0460133","prefecture":"HOKKAIDO","city":"FURUBIRA GUN FURUBIRA CHO","town":"OKICHO","perfecture_jp":"北海道","jp_add_1":"古平郡古平町","jp_add_2":"沖町"},"0460111":{"post_code":"0460111","prefecture":"HOKKAIDO","city":"FURUBIRA GUN FURUBIRA CHO","town":"KUKICHO","perfecture_jp":"北海道","jp_add_1":"古平郡古平町","jp_add_2":"群来町"},"0460131":{"post_code":"0460131","prefecture":"HOKKAIDO","city":"FURUBIRA GUN FURUBIRA CHO","town":"SAWAECHO","perfecture_jp":"北海道","jp_add_1":"古平郡古平町","jp_add_2":"沢江町"},"0460112":{"post_code":"0460112","prefecture":"HOKKAIDO","city":"FURUBIRA GUN FURUBIRA CHO","town":"SHINCHICHO","perfecture_jp":"北海道","jp_add_1":"古平郡古平町","jp_add_2":"新地町"},"0460121":{"post_code":"0460121","prefecture":"HOKKAIDO","city":"FURUBIRA GUN FURUBIRA CHO","town":"HAMACHO","perfecture_jp":"北海道","jp_add_1":"古平郡古平町","jp_add_2":"浜町"},"0460103":{"post_code":"0460103","prefecture":"HOKKAIDO","city":"FURUBIRA GUN FURUBIRA CHO","town":"HONCHO","perfecture_jp":"北海道","jp_add_1":"古平郡古平町","jp_add_2":"本町"},"0460102":{"post_code":"0460102","prefecture":"HOKKAIDO","city":"FURUBIRA GUN FURUBIRA CHO","town":"MARUYAMACHO","perfecture_jp":"北海道","jp_add_1":"古平郡古平町","jp_add_2":"丸山町"},"0460101":{"post_code":"0460101","prefecture":"HOKKAIDO","city":"FURUBIRA GUN FURUBIRA CHO","town":"MISAKICHO","perfecture_jp":"北海道","jp_add_1":"古平郡古平町","jp_add_2":"御崎町"},"0460113":{"post_code":"0460113","prefecture":"HOKKAIDO","city":"FURUBIRA GUN FURUBIRA CHO","town":"MINATOMACHI","perfecture_jp":"北海道","jp_add_1":"古平郡古平町","jp_add_2":"港町"},"0460000":{"post_code":"0460000","prefecture":"HOKKAIDO","city":"YOICHI GUN YOICHI CHO","town":"IKANIKEISAIGANAIBAAI","perfecture_jp":"北海道","jp_add_1":"余市郡余市町","jp_add_2":""},"0460015":{"post_code":"0460015","prefecture":"HOKKAIDO","city":"YOICHI GUN YOICHI CHO","town":"ASAHICHO","perfecture_jp":"北海道","jp_add_1":"余市郡余市町","jp_add_2":"朝日町"},"0460011":{"post_code":"0460011","prefecture":"HOKKAIDO","city":"YOICHI GUN YOICHI CHO","town":"IRIFUNECHO","perfecture_jp":"北海道","jp_add_1":"余市郡余市町","jp_add_2":"入舟町"},"0460023":{"post_code":"0460023","prefecture":"HOKKAIDO","city":"YOICHI GUN YOICHI CHO","town":"UMEKAWACHO","perfecture_jp":"北海道","jp_add_1":"余市郡余市町","jp_add_2":"梅川町"},"0460004":{"post_code":"0460004","prefecture":"HOKKAIDO","city":"YOICHI GUN YOICHI CHO","town":"OKAWACHO","perfecture_jp":"北海道","jp_add_1":"余市郡余市町","jp_add_2":"大川町"},"0460003":{"post_code":"0460003","prefecture":"HOKKAIDO","city":"YOICHI GUN YOICHI CHO","town":"KUROKAWACHO","perfecture_jp":"北海道","jp_add_1":"余市郡余市町","jp_add_2":"黒川町"},"0460001":{"post_code":"0460001","prefecture":"HOKKAIDO","city":"YOICHI GUN YOICHI CHO","town":"SAKAEMACHI","perfecture_jp":"北海道","jp_add_1":"余市郡余市町","jp_add_2":"栄町"},"0460022":{"post_code":"0460022","prefecture":"HOKKAIDO","city":"YOICHI GUN YOICHI CHO","town":"SAWAMACHI","perfecture_jp":"北海道","jp_add_1":"余市郡余市町","jp_add_2":"沢町"},"0460033":{"post_code":"0460033","prefecture":"HOKKAIDO","city":"YOICHI GUN YOICHI CHO","town":"SHIOMICHO","perfecture_jp":"北海道","jp_add_1":"余市郡余市町","jp_add_2":"潮見町"},"0460031":{"post_code":"0460031","prefecture":"HOKKAIDO","city":"YOICHI GUN YOICHI CHO","town":"SHIROIWACHO","perfecture_jp":"北海道","jp_add_1":"余市郡余市町","jp_add_2":"白岩町"},"0460025":{"post_code":"0460025","prefecture":"HOKKAIDO","city":"YOICHI GUN YOICHI CHO","town":"TOMISAWACHO","perfecture_jp":"北海道","jp_add_1":"余市郡余市町","jp_add_2":"富沢町"},"0460013":{"post_code":"0460013","prefecture":"HOKKAIDO","city":"YOICHI GUN YOICHI CHO","town":"TOYOKACHO","perfecture_jp":"北海道","jp_add_1":"余市郡余市町","jp_add_2":"豊丘町"},"0460032":{"post_code":"0460032","prefecture":"HOKKAIDO","city":"YOICHI GUN YOICHI CHO","town":"TOYOHAMACHO","perfecture_jp":"北海道","jp_add_1":"余市郡余市町","jp_add_2":"豊浜町"},"0460002":{"post_code":"0460002","prefecture":"HOKKAIDO","city":"YOICHI GUN YOICHI CHO","town":"NOBORICHO","perfecture_jp":"北海道","jp_add_1":"余市郡余市町","jp_add_2":"登町"},"0460021":{"post_code":"0460021","prefecture":"HOKKAIDO","city":"YOICHI GUN YOICHI CHO","town":"HAMANAKACHO","perfecture_jp":"北海道","jp_add_1":"余市郡余市町","jp_add_2":"浜中町"},"0460014":{"post_code":"0460014","prefecture":"HOKKAIDO","city":"YOICHI GUN YOICHI CHO","town":"MISONOCHO","perfecture_jp":"北海道","jp_add_1":"余市郡余市町","jp_add_2":"美園町"},"0460024":{"post_code":"0460024","prefecture":"HOKKAIDO","city":"YOICHI GUN YOICHI CHO","town":"MINATOMACHI","perfecture_jp":"北海道","jp_add_1":"余市郡余市町","jp_add_2":"港町"},"0460012":{"post_code":"0460012","prefecture":"HOKKAIDO","city":"YOICHI GUN YOICHI CHO","town":"YAMADACHO","perfecture_jp":"北海道","jp_add_1":"余市郡余市町","jp_add_2":"山田町"},"0460500":{"post_code":"0460500","prefecture":"HOKKAIDO","city":"YOICHI GUN AKAIGAWA MURA","town":"IKANIKEISAIGANAIBAAI","perfecture_jp":"北海道","jp_add_1":"余市郡赤井川村","jp_add_2":""},"0460501":{"post_code":"0460501","prefecture":"HOKKAIDO","city":"YOICHI GUN AKAIGAWA MURA","town":"AKAIGAWA","perfecture_jp":"北海道","jp_add_1":"余市郡赤井川村","jp_add_2":"赤井川"},"0460531":{"post_code":"0460531","prefecture":"HOKKAIDO","city":"YOICHI GUN AKAIGAWA MURA","town":"ASAHIOKA","perfecture_jp":"北海道","jp_add_1":"余市郡赤井川村","jp_add_2":"旭丘"},"0460521":{"post_code":"0460521","prefecture":"HOKKAIDO","city":"YOICHI GUN AKAIGAWA MURA","town":"IKEDA","perfecture_jp":"北海道","jp_add_1":"余市郡赤井川村","jp_add_2":"池田"},"0460561":{"post_code":"0460561","prefecture":"HOKKAIDO","city":"YOICHI GUN AKAIGAWA MURA","town":"OCHIAI","perfecture_jp":"北海道","jp_add_1":"余市郡赤井川村","jp_add_2":"落合"},"0460571":{"post_code":"0460571","prefecture":"HOKKAIDO","city":"YOICHI GUN AKAIGAWA MURA","town":"TOKIWA","perfecture_jp":"北海道","jp_add_1":"余市郡赤井川村","jp_add_2":"常盤"},"0460551":{"post_code":"0460551","prefecture":"HOKKAIDO","city":"YOICHI GUN AKAIGAWA MURA","town":"TODOROKI","perfecture_jp":"北海道","jp_add_1":"余市郡赤井川村","jp_add_2":"轟"},"0460532":{"post_code":"0460532","prefecture":"HOKKAIDO","city":"YOICHI GUN AKAIGAWA MURA","town":"TOMITA","perfecture_jp":"北海道","jp_add_1":"余市郡赤井川村","jp_add_2":"富田"},"0460511":{"post_code":"0460511","prefecture":"HOKKAIDO","city":"YOICHI GUN AKAIGAWA MURA","town":"HINODE","perfecture_jp":"北海道","jp_add_1":"余市郡赤井川村","jp_add_2":"日ノ出"},"0460542":{"post_code":"0460542","prefecture":"HOKKAIDO","city":"YOICHI GUN AKAIGAWA MURA","town":"MAGARIKAWA","perfecture_jp":"北海道","jp_add_1":"余市郡赤井川村","jp_add_2":"曲川"},"0460541":{"post_code":"0460541","prefecture":"HOKKAIDO","city":"YOICHI GUN AKAIGAWA MURA","town":"MIYAKO","perfecture_jp":"北海道","jp_add_1":"余市郡赤井川村","jp_add_2":"都"},"0460552":{"post_code":"0460552","prefecture":"HOKKAIDO","city":"YOICHI GUN AKAIGAWA MURA","town":"MEIJI","perfecture_jp":"北海道","jp_add_1":"余市郡赤井川村","jp_add_2":"明治"},"0460512":{"post_code":"0460512","prefecture":"HOKKAIDO","city":"YOICHI GUN AKAIGAWA MURA","town":"YAMANASHI","perfecture_jp":"北海道","jp_add_1":"余市郡赤井川村","jp_add_2":"山梨"}}