{"0470000":{"post_code":"0470000","prefecture":"HOKKAIDO","city":"OTARU SHI","town":"IKANIKEISAIGANAIBAAI","perfecture_jp":"北海道","jp_add_1":"小樽市","jp_add_2":""},"0470028":{"post_code":"0470028","prefecture":"HOKKAIDO","city":"OTARU SHI","town":"AIOICHO","perfecture_jp":"北海道","jp_add_1":"小樽市","jp_add_2":"相生町"},"0470046":{"post_code":"0470046","prefecture":"HOKKAIDO","city":"OTARU SHI","town":"AKAIWA","perfecture_jp":"北海道","jp_add_1":"小樽市","jp_add_2":"赤岩"},"0470035":{"post_code":"0470035","prefecture":"HOKKAIDO","city":"OTARU SHI","town":"ASAHIMACHI","perfecture_jp":"北海道","jp_add_1":"小樽市","jp_add_2":"旭町"},"0470151":{"post_code":"0470151","prefecture":"HOKKAIDO","city":"OTARU SHI","town":"ASARI","perfecture_jp":"北海道","jp_add_1":"小樽市","jp_add_2":"朝里"},"0470154":{"post_code":"0470154","prefecture":"HOKKAIDO","city":"OTARU SHI","town":"ASARIGAWAONSEN","perfecture_jp":"北海道","jp_add_1":"小樽市","jp_add_2":"朝里川温泉"},"0470006":{"post_code":"0470006","prefecture":"HOKKAIDO","city":"OTARU SHI","town":"ARIHOROCHO","perfecture_jp":"北海道","jp_add_1":"小樽市","jp_add_2":"有幌町"},"0470038":{"post_code":"0470038","prefecture":"HOKKAIDO","city":"OTARU SHI","town":"ISHIYAMACHO","perfecture_jp":"北海道","jp_add_1":"小樽市","jp_add_2":"石山町"},"0470032":{"post_code":"0470032","prefecture":"HOKKAIDO","city":"OTARU SHI","town":"INAHO","perfecture_jp":"北海道","jp_add_1":"小樽市","jp_add_2":"稲穂"},"0470021":{"post_code":"0470021","prefecture":"HOKKAIDO","city":"OTARU SHI","town":"IRIFUNE","perfecture_jp":"北海道","jp_add_1":"小樽市","jp_add_2":"入船"},"0470031":{"post_code":"0470031","prefecture":"HOKKAIDO","city":"OTARU SHI","town":"IRONAI","perfecture_jp":"北海道","jp_add_1":"小樽市","jp_add_2":"色内"},"0470044":{"post_code":"0470044","prefecture":"HOKKAIDO","city":"OTARU SHI","town":"UMEGAECHO","perfecture_jp":"北海道","jp_add_1":"小樽市","jp_add_2":"梅ケ枝町"},"0470013":{"post_code":"0470013","prefecture":"HOKKAIDO","city":"OTARU SHI","town":"OKUSAWA","perfecture_jp":"北海道","jp_add_1":"小樽市","jp_add_2":"奥沢"},"0470005":{"post_code":"0470005","prefecture":"HOKKAIDO","city":"OTARU SHI","town":"KATSUNAICHO","perfecture_jp":"北海道","jp_add_1":"小樽市","jp_add_2":"勝納町"},"0470264":{"post_code":"0470264","prefecture":"HOKKAIDO","city":"OTARU SHI","town":"KATSURAOKACHO","perfecture_jp":"北海道","jp_add_1":"小樽市","jp_add_2":"桂岡町"},"0470037":{"post_code":"0470037","prefecture":"HOKKAIDO","city":"OTARU SHI","town":"SAIWAI","perfecture_jp":"北海道","jp_add_1":"小樽市","jp_add_2":"幸"},"0470027":{"post_code":"0470027","prefecture":"HOKKAIDO","city":"OTARU SHI","town":"SAKAIMACHI","perfecture_jp":"北海道","jp_add_1":"小樽市","jp_add_2":"堺町"},"0470156":{"post_code":"0470156","prefecture":"HOKKAIDO","city":"OTARU SHI","town":"SAKURA","perfecture_jp":"北海道","jp_add_1":"小樽市","jp_add_2":"桜"},"0470002":{"post_code":"0470002","prefecture":"HOKKAIDO","city":"OTARU SHI","town":"SHIOMIDAI","perfecture_jp":"北海道","jp_add_1":"小樽市","jp_add_2":"潮見台"},"0470026":{"post_code":"0470026","prefecture":"HOKKAIDO","city":"OTARU SHI","town":"SHINONOMECHO","perfecture_jp":"北海道","jp_add_1":"小樽市","jp_add_2":"東雲町"},"0470045":{"post_code":"0470045","prefecture":"HOKKAIDO","city":"OTARU SHI","town":"SHIMIZUCHO","perfecture_jp":"北海道","jp_add_1":"小樽市","jp_add_2":"清水町"},"0470047":{"post_code":"0470047","prefecture":"HOKKAIDO","city":"OTARU SHI","town":"SHUKUTSU","perfecture_jp":"北海道","jp_add_1":"小樽市","jp_add_2":"祝津"},"0470152":{"post_code":"0470152","prefecture":"HOKKAIDO","city":"OTARU SHI","town":"SHINKO","perfecture_jp":"北海道","jp_add_1":"小樽市","jp_add_2":"新光"},"0470153":{"post_code":"0470153","prefecture":"HOKKAIDO","city":"OTARU SHI","town":"SHINKOCHO","perfecture_jp":"北海道","jp_add_1":"小樽市","jp_add_2":"新光町"},"0470004":{"post_code":"0470004","prefecture":"HOKKAIDO","city":"OTARU SHI","town":"SHINTOMICHO","perfecture_jp":"北海道","jp_add_1":"小樽市","jp_add_2":"新富町"},"0470042":{"post_code":"0470042","prefecture":"HOKKAIDO","city":"OTARU SHI","town":"SUEHIROCHO","perfecture_jp":"北海道","jp_add_1":"小樽市","jp_add_2":"末広町"},"0470014":{"post_code":"0470014","prefecture":"HOKKAIDO","city":"OTARU SHI","town":"SUMINOE","perfecture_jp":"北海道","jp_add_1":"小樽市","jp_add_2":"住ノ江"},"0470015":{"post_code":"0470015","prefecture":"HOKKAIDO","city":"OTARU SHI","town":"SUMIYOSHICHO","perfecture_jp":"北海道","jp_add_1":"小樽市","jp_add_2":"住吉町"},"0470261":{"post_code":"0470261","prefecture":"HOKKAIDO","city":"OTARU SHI","town":"ZENIBAKO(1-3-CHOME)","perfecture_jp":"北海道","jp_add_1":"小樽市","jp_add_2":"銭函"},"0470048":{"post_code":"0470048","prefecture":"HOKKAIDO","city":"OTARU SHI","town":"TAKASHIMA","perfecture_jp":"北海道","jp_add_1":"小樽市","jp_add_2":"高島"},"0470008":{"post_code":"0470008","prefecture":"HOKKAIDO","city":"OTARU SHI","town":"CHIKKO","perfecture_jp":"北海道","jp_add_1":"小樽市","jp_add_2":"築港"},"0470041":{"post_code":"0470041","prefecture":"HOKKAIDO","city":"OTARU SHI","town":"TEMIYA","perfecture_jp":"北海道","jp_add_1":"小樽市","jp_add_2":"手宮"},"0470012":{"post_code":"0470012","prefecture":"HOKKAIDO","city":"OTARU SHI","town":"TENGUYAMA","perfecture_jp":"北海道","jp_add_1":"小樽市","jp_add_2":"天狗山"},"0470011":{"post_code":"0470011","prefecture":"HOKKAIDO","city":"OTARU SHI","town":"TENJIN","perfecture_jp":"北海道","jp_add_1":"小樽市","jp_add_2":"天神"},"0470033":{"post_code":"0470033","prefecture":"HOKKAIDO","city":"OTARU SHI","town":"TOMIOKA","perfecture_jp":"北海道","jp_add_1":"小樽市","jp_add_2":"富岡"},"0470043":{"post_code":"0470043","prefecture":"HOKKAIDO","city":"OTARU SHI","town":"TOYOKAWACHO","perfecture_jp":"北海道","jp_add_1":"小樽市","jp_add_2":"豊川町"},"0470036":{"post_code":"0470036","prefecture":"HOKKAIDO","city":"OTARU SHI","town":"NAGAHASHI","perfecture_jp":"北海道","jp_add_1":"小樽市","jp_add_2":"長橋"},"0470039":{"post_code":"0470039","prefecture":"HOKKAIDO","city":"OTARU SHI","town":"NISHIKIMACHI","perfecture_jp":"北海道","jp_add_1":"小樽市","jp_add_2":"錦町"},"0470016":{"post_code":"0470016","prefecture":"HOKKAIDO","city":"OTARU SHI","town":"NOBUKACHO","perfecture_jp":"北海道","jp_add_1":"小樽市","jp_add_2":"信香町"},"0470024":{"post_code":"0470024","prefecture":"HOKKAIDO","city":"OTARU SHI","town":"HANAZONO","perfecture_jp":"北海道","jp_add_1":"小樽市","jp_add_2":"花園"},"0470266":{"post_code":"0470266","prefecture":"HOKKAIDO","city":"OTARU SHI","town":"HARIUSUCHO","perfecture_jp":"北海道","jp_add_1":"小樽市","jp_add_2":"張碓町"},"0470265":{"post_code":"0470265","prefecture":"HOKKAIDO","city":"OTARU SHI","town":"HARUKACHO","perfecture_jp":"北海道","jp_add_1":"小樽市","jp_add_2":"春香町"},"0470157":{"post_code":"0470157","prefecture":"HOKKAIDO","city":"OTARU SHI","town":"FUNAHAMACHO","perfecture_jp":"北海道","jp_add_1":"小樽市","jp_add_2":"船浜町"},"0470155":{"post_code":"0470155","prefecture":"HOKKAIDO","city":"OTARU SHI","town":"BOYODAI","perfecture_jp":"北海道","jp_add_1":"小樽市","jp_add_2":"望洋台"},"0470262":{"post_code":"0470262","prefecture":"HOKKAIDO","city":"OTARU SHI","town":"HOSHINOCHO","perfecture_jp":"北海道","jp_add_1":"小樽市","jp_add_2":"星野町"},"0470003":{"post_code":"0470003","prefecture":"HOKKAIDO","city":"OTARU SHI","town":"MASAKAE","perfecture_jp":"北海道","jp_add_1":"小樽市","jp_add_2":"真栄"},"0470022":{"post_code":"0470022","prefecture":"HOKKAIDO","city":"OTARU SHI","town":"MATSUGAE","perfecture_jp":"北海道","jp_add_1":"小樽市","jp_add_2":"松ケ枝"},"0470034":{"post_code":"0470034","prefecture":"HOKKAIDO","city":"OTARU SHI","town":"MIDORI","perfecture_jp":"北海道","jp_add_1":"小樽市","jp_add_2":"緑"},"0470007":{"post_code":"0470007","prefecture":"HOKKAIDO","city":"OTARU SHI","town":"MINATOMACHI","perfecture_jp":"北海道","jp_add_1":"小樽市","jp_add_2":"港町"},"0470263":{"post_code":"0470263","prefecture":"HOKKAIDO","city":"OTARU SHI","town":"MIHARASHICHO","perfecture_jp":"北海道","jp_add_1":"小樽市","jp_add_2":"見晴町"},"0470023":{"post_code":"0470023","prefecture":"HOKKAIDO","city":"OTARU SHI","town":"MOGAMI","perfecture_jp":"北海道","jp_add_1":"小樽市","jp_add_2":"最上"},"0470025":{"post_code":"0470025","prefecture":"HOKKAIDO","city":"OTARU SHI","town":"YAMADAMACHI","perfecture_jp":"北海道","jp_add_1":"小樽市","jp_add_2":"山田町"},"0470001":{"post_code":"0470001","prefecture":"HOKKAIDO","city":"OTARU SHI","town":"WAKATAKECHO","perfecture_jp":"北海道","jp_add_1":"小樽市","jp_add_2":"若竹町"},"0470017":{"post_code":"0470017","prefecture":"HOKKAIDO","city":"OTARU SHI","town":"WAKAMATSU","perfecture_jp":"北海道","jp_add_1":"小樽市","jp_add_2":"若松"}}