{"0482561":{"post_code":"0482561","prefecture":"HOKKAIDO","city":"OTARU SHI","town":"OSHORO","perfecture_jp":"北海道","jp_add_1":"小樽市","jp_add_2":"忍路"},"0482671":{"post_code":"0482671","prefecture":"HOKKAIDO","city":"OTARU SHI","town":"OTAMOI","perfecture_jp":"北海道","jp_add_1":"小樽市","jp_add_2":"オタモイ"},"0482672":{"post_code":"0482672","prefecture":"HOKKAIDO","city":"OTARU SHI","town":"SHIOYA","perfecture_jp":"北海道","jp_add_1":"小樽市","jp_add_2":"塩谷"},"0482673":{"post_code":"0482673","prefecture":"HOKKAIDO","city":"OTARU SHI","town":"MOMONAI","perfecture_jp":"北海道","jp_add_1":"小樽市","jp_add_2":"桃内"},"0482562":{"post_code":"0482562","prefecture":"HOKKAIDO","city":"OTARU SHI","town":"RANSHIMA","perfecture_jp":"北海道","jp_add_1":"小樽市","jp_add_2":"蘭島"},"0480600":{"post_code":"0480600","prefecture":"HOKKAIDO","city":"SHIMAMAKI GUN SHIMAMAKI MURA","town":"IKANIKEISAIGANAIBAAI","perfecture_jp":"北海道","jp_add_1":"島牧郡島牧村","jp_add_2":""},"0480602":{"post_code":"0480602","prefecture":"HOKKAIDO","city":"SHIMAMAKI GUN SHIMAMAKI MURA","town":"UTASHIMA","perfecture_jp":"北海道","jp_add_1":"島牧郡島牧村","jp_add_2":"歌島"},"0480623":{"post_code":"0480623","prefecture":"HOKKAIDO","city":"SHIMAMAKI GUN SHIMAMAKI MURA","town":"ENOSHIMA","perfecture_jp":"北海道","jp_add_1":"島牧郡島牧村","jp_add_2":"江の島"},"0480613":{"post_code":"0480613","prefecture":"HOKKAIDO","city":"SHIMAMAKI GUN SHIMAMAKI MURA","town":"OBIRA","perfecture_jp":"北海道","jp_add_1":"島牧郡島牧村","jp_add_2":"大平"},"0480611":{"post_code":"0480611","prefecture":"HOKKAIDO","city":"SHIMAMAKI GUN SHIMAMAKI MURA","town":"SAKAEISO","perfecture_jp":"北海道","jp_add_1":"島牧郡島牧村","jp_add_2":"栄磯"},"0480634":{"post_code":"0480634","prefecture":"HOKKAIDO","city":"SHIMAMAKI GUN SHIMAMAKI MURA","town":"SAKAEHAMA","perfecture_jp":"北海道","jp_add_1":"島牧郡島牧村","jp_add_2":"栄浜"},"0480631":{"post_code":"0480631","prefecture":"HOKKAIDO","city":"SHIMAMAKI GUN SHIMAMAKI MURA","town":"CHIWASE","perfecture_jp":"北海道","jp_add_1":"島牧郡島牧村","jp_add_2":"千走"},"0480621":{"post_code":"0480621","prefecture":"HOKKAIDO","city":"SHIMAMAKI GUN SHIMAMAKI MURA","town":"TOMARI","perfecture_jp":"北海道","jp_add_1":"島牧郡島牧村","jp_add_2":"泊"},"0480601":{"post_code":"0480601","prefecture":"HOKKAIDO","city":"SHIMAMAKI GUN SHIMAMAKI MURA","town":"TOMIURA","perfecture_jp":"北海道","jp_add_1":"島牧郡島牧村","jp_add_2":"富浦"},"0480612":{"post_code":"0480612","prefecture":"HOKKAIDO","city":"SHIMAMAKI GUN SHIMAMAKI MURA","town":"TOYOHAMA","perfecture_jp":"北海道","jp_add_1":"島牧郡島牧村","jp_add_2":"豊浜"},"0480622":{"post_code":"0480622","prefecture":"HOKKAIDO","city":"SHIMAMAKI GUN SHIMAMAKI MURA","town":"TOYOHIRA","perfecture_jp":"北海道","jp_add_1":"島牧郡島牧村","jp_add_2":"豊平"},"0480614":{"post_code":"0480614","prefecture":"HOKKAIDO","city":"SHIMAMAKI GUN SHIMAMAKI MURA","town":"NAGATOYOMACHI","perfecture_jp":"北海道","jp_add_1":"島牧郡島牧村","jp_add_2":"永豊町"},"0480633":{"post_code":"0480633","prefecture":"HOKKAIDO","city":"SHIMAMAKI GUN SHIMAMAKI MURA","town":"HARAUTAMACHI","perfecture_jp":"北海道","jp_add_1":"島牧郡島牧村","jp_add_2":"原歌町"},"0480603":{"post_code":"0480603","prefecture":"HOKKAIDO","city":"SHIMAMAKI GUN SHIMAMAKI MURA","town":"HOMME","perfecture_jp":"北海道","jp_add_1":"島牧郡島牧村","jp_add_2":"本目"},"0480604":{"post_code":"0480604","prefecture":"HOKKAIDO","city":"SHIMAMAKI GUN SHIMAMAKI MURA","town":"MINATO","perfecture_jp":"北海道","jp_add_1":"島牧郡島牧村","jp_add_2":"港"},"0480632":{"post_code":"0480632","prefecture":"HOKKAIDO","city":"SHIMAMAKI GUN SHIMAMAKI MURA","town":"MOTOMACHI","perfecture_jp":"北海道","jp_add_1":"島牧郡島牧村","jp_add_2":"元町"},"0480400":{"post_code":"0480400","prefecture":"HOKKAIDO","city":"SUTTSU GUN SUTTSU CHO","town":"IKANIKEISAIGANAIBAAI","perfecture_jp":"北海道","jp_add_1":"寿都郡寿都町","jp_add_2":""},"0480351":{"post_code":"0480351","prefecture":"HOKKAIDO","city":"SUTTSU GUN SUTTSU CHO","town":"ISOYACHO","perfecture_jp":"北海道","jp_add_1":"寿都郡寿都町","jp_add_2":"磯谷町"},"0480412":{"post_code":"0480412","prefecture":"HOKKAIDO","city":"SUTTSU GUN SUTTSU CHO","town":"IWASAKICHO","perfecture_jp":"北海道","jp_add_1":"寿都郡寿都町","jp_add_2":"岩崎町"},"0480415":{"post_code":"0480415","prefecture":"HOKKAIDO","city":"SUTTSU GUN SUTTSU CHO","town":"UTASUTSUCHO","perfecture_jp":"北海道","jp_add_1":"寿都郡寿都町","jp_add_2":"歌棄町"},"0480404":{"post_code":"0480404","prefecture":"HOKKAIDO","city":"SUTTSU GUN SUTTSU CHO","town":"OISOCHO","perfecture_jp":"北海道","jp_add_1":"寿都郡寿都町","jp_add_2":"大磯町"},"0480405":{"post_code":"0480405","prefecture":"HOKKAIDO","city":"SUTTSU GUN SUTTSU CHO","town":"KAISHINCHO","perfecture_jp":"北海道","jp_add_1":"寿都郡寿都町","jp_add_2":"開進町"},"0480401":{"post_code":"0480401","prefecture":"HOKKAIDO","city":"SUTTSU GUN SUTTSU CHO","town":"SHINEICHO","perfecture_jp":"北海道","jp_add_1":"寿都郡寿都町","jp_add_2":"新栄町"},"0480413":{"post_code":"0480413","prefecture":"HOKKAIDO","city":"SUTTSU GUN SUTTSU CHO","town":"TARUKISHICHO","perfecture_jp":"北海道","jp_add_1":"寿都郡寿都町","jp_add_2":"樽岸町"},"0480406":{"post_code":"0480406","prefecture":"HOKKAIDO","city":"SUTTSU GUN SUTTSU CHO","town":"TOSHIMACHO","perfecture_jp":"北海道","jp_add_1":"寿都郡寿都町","jp_add_2":"渡島町"},"0480403":{"post_code":"0480403","prefecture":"HOKKAIDO","city":"SUTTSU GUN SUTTSU CHO","town":"MASADOMARICHO","perfecture_jp":"北海道","jp_add_1":"寿都郡寿都町","jp_add_2":"政泊町"},"0480402":{"post_code":"0480402","prefecture":"HOKKAIDO","city":"SUTTSU GUN SUTTSU CHO","town":"YAOICHO","perfecture_jp":"北海道","jp_add_1":"寿都郡寿都町","jp_add_2":"矢追町"},"0480414":{"post_code":"0480414","prefecture":"HOKKAIDO","city":"SUTTSU GUN SUTTSU CHO","town":"YUBETSUCHO","perfecture_jp":"北海道","jp_add_1":"寿都郡寿都町","jp_add_2":"湯別町"},"0480411":{"post_code":"0480411","prefecture":"HOKKAIDO","city":"SUTTSU GUN SUTTSU CHO","town":"ROKUJOCHO","perfecture_jp":"北海道","jp_add_1":"寿都郡寿都町","jp_add_2":"六条町"},"0480100":{"post_code":"0480100","prefecture":"HOKKAIDO","city":"SUTTSU GUN KUROMATSUNAI CHO","town":"IKANIKEISAIGANAIBAAI","perfecture_jp":"北海道","jp_add_1":"寿都郡黒松内町","jp_add_2":""},"0480136":{"post_code":"0480136","prefecture":"HOKKAIDO","city":"SUTTSU GUN KUROMATSUNAI CHO","town":"AKAIKAWA","perfecture_jp":"北海道","jp_add_1":"寿都郡黒松内町","jp_add_2":"赤井川"},"0480116":{"post_code":"0480116","prefecture":"HOKKAIDO","city":"SUTTSU GUN KUROMATSUNAI CHO","town":"ASAHINO","perfecture_jp":"北海道","jp_add_1":"寿都郡黒松内町","jp_add_2":"旭野"},"0480124":{"post_code":"0480124","prefecture":"HOKKAIDO","city":"SUTTSU GUN KUROMATSUNAI CHO","town":"IGARASHI","perfecture_jp":"北海道","jp_add_1":"寿都郡黒松内町","jp_add_2":"五十嵐"},"0480114":{"post_code":"0480114","prefecture":"HOKKAIDO","city":"SUTTSU GUN KUROMATSUNAI CHO","town":"UTASAI","perfecture_jp":"北海道","jp_add_1":"寿都郡黒松内町","jp_add_2":"歌才"},"0480133":{"post_code":"0480133","prefecture":"HOKKAIDO","city":"SUTTSU GUN KUROMATSUNAI CHO","town":"OYACHI","perfecture_jp":"北海道","jp_add_1":"寿都郡黒松内町","jp_add_2":"大谷地"},"0480112":{"post_code":"0480112","prefecture":"HOKKAIDO","city":"SUTTSU GUN KUROMATSUNAI CHO","town":"KAIKARA","perfecture_jp":"北海道","jp_add_1":"寿都郡黒松内町","jp_add_2":"貝殻"},"0480135":{"post_code":"0480135","prefecture":"HOKKAIDO","city":"SUTTSU GUN KUROMATSUNAI CHO","town":"KAKUJU","perfecture_jp":"北海道","jp_add_1":"寿都郡黒松内町","jp_add_2":"角十"},"0480145":{"post_code":"0480145","prefecture":"HOKKAIDO","city":"SUTTSU GUN KUROMATSUNAI CHO","town":"KAMITAISEI","perfecture_jp":"北海道","jp_add_1":"寿都郡黒松内町","jp_add_2":"上大成"},"0480141":{"post_code":"0480141","prefecture":"HOKKAIDO","city":"SUTTSU GUN KUROMATSUNAI CHO","town":"KAMITOYOHORO","perfecture_jp":"北海道","jp_add_1":"寿都郡黒松内町","jp_add_2":"上豊幌"},"0480126":{"post_code":"0480126","prefecture":"HOKKAIDO","city":"SUTTSU GUN KUROMATSUNAI CHO","town":"KITASAKKAI","perfecture_jp":"北海道","jp_add_1":"寿都郡黒松内町","jp_add_2":"北作開"},"0480101":{"post_code":"0480101","prefecture":"HOKKAIDO","city":"SUTTSU GUN KUROMATSUNAI CHO","town":"KUROMATSUNAI","perfecture_jp":"北海道","jp_add_1":"寿都郡黒松内町","jp_add_2":"黒松内"},"0480134":{"post_code":"0480134","prefecture":"HOKKAIDO","city":"SUTTSU GUN KUROMATSUNAI CHO","town":"SHIROIKAWA","perfecture_jp":"北海道","jp_add_1":"寿都郡黒松内町","jp_add_2":"白井川"},"0480122":{"post_code":"0480122","prefecture":"HOKKAIDO","city":"SUTTSU GUN KUROMATSUNAI CHO","town":"SHIROZUMI","perfecture_jp":"北海道","jp_add_1":"寿都郡黒松内町","jp_add_2":"白炭"},"0480117":{"post_code":"0480117","prefecture":"HOKKAIDO","city":"SUTTSU GUN KUROMATSUNAI CHO","town":"SOIBETSU","perfecture_jp":"北海道","jp_add_1":"寿都郡黒松内町","jp_add_2":"添別"},"0480143":{"post_code":"0480143","prefecture":"HOKKAIDO","city":"SUTTSU GUN KUROMATSUNAI CHO","town":"TAISEI","perfecture_jp":"北海道","jp_add_1":"寿都郡黒松内町","jp_add_2":"大成"},"0480132":{"post_code":"0480132","prefecture":"HOKKAIDO","city":"SUTTSU GUN KUROMATSUNAI CHO","town":"CHOPOSHINAI","perfecture_jp":"北海道","jp_add_1":"寿都郡黒松内町","jp_add_2":"チョポシナイ"},"0480142":{"post_code":"0480142","prefecture":"HOKKAIDO","city":"SUTTSU GUN KUROMATSUNAI CHO","town":"TOEI","perfecture_jp":"北海道","jp_add_1":"寿都郡黒松内町","jp_add_2":"東栄"},"0480113":{"post_code":"0480113","prefecture":"HOKKAIDO","city":"SUTTSU GUN KUROMATSUNAI CHO","town":"TOYOHORO","perfecture_jp":"北海道","jp_add_1":"寿都郡黒松内町","jp_add_2":"豊幌"},"0480111":{"post_code":"0480111","prefecture":"HOKKAIDO","city":"SUTTSU GUN KUROMATSUNAI CHO","town":"NAKASATO","perfecture_jp":"北海道","jp_add_1":"寿都郡黒松内町","jp_add_2":"中里"},"0480123":{"post_code":"0480123","prefecture":"HOKKAIDO","city":"SUTTSU GUN KUROMATSUNAI CHO","town":"NAKANOKAWA","perfecture_jp":"北海道","jp_add_1":"寿都郡黒松内町","jp_add_2":"中ノ川"},"0480131":{"post_code":"0480131","prefecture":"HOKKAIDO","city":"SUTTSU GUN KUROMATSUNAI CHO","town":"NISHINEPPUGENYA","perfecture_jp":"北海道","jp_add_1":"寿都郡黒松内町","jp_add_2":"西熱郛原野"},"0480115":{"post_code":"0480115","prefecture":"HOKKAIDO","city":"SUTTSU GUN KUROMATSUNAI CHO","town":"NISHINOSAWA","perfecture_jp":"北海道","jp_add_1":"寿都郡黒松内町","jp_add_2":"西沢"},"0480121":{"post_code":"0480121","prefecture":"HOKKAIDO","city":"SUTTSU GUN KUROMATSUNAI CHO","town":"NEPPU","perfecture_jp":"北海道","jp_add_1":"寿都郡黒松内町","jp_add_2":"熱郛"},"0480137":{"post_code":"0480137","prefecture":"HOKKAIDO","city":"SUTTSU GUN KUROMATSUNAI CHO","town":"BABASAWA","perfecture_jp":"北海道","jp_add_1":"寿都郡黒松内町","jp_add_2":"婆沢"},"0480144":{"post_code":"0480144","prefecture":"HOKKAIDO","city":"SUTTSU GUN KUROMATSUNAI CHO","town":"HIGASHIKAWA","perfecture_jp":"北海道","jp_add_1":"寿都郡黒松内町","jp_add_2":"東川"},"0480127":{"post_code":"0480127","prefecture":"HOKKAIDO","city":"SUTTSU GUN KUROMATSUNAI CHO","town":"MINAMISAKKAI","perfecture_jp":"北海道","jp_add_1":"寿都郡黒松内町","jp_add_2":"南作開"},"0480125":{"post_code":"0480125","prefecture":"HOKKAIDO","city":"SUTTSU GUN KUROMATSUNAI CHO","town":"MENA","perfecture_jp":"北海道","jp_add_1":"寿都郡黒松内町","jp_add_2":"目名"},"0481300":{"post_code":"0481300","prefecture":"HOKKAIDO","city":"ISOYA GUN RANKOSHI CHO","town":"IKANIKEISAIGANAIBAAI","perfecture_jp":"北海道","jp_add_1":"磯谷郡蘭越町","jp_add_2":""},"0481251":{"post_code":"0481251","prefecture":"HOKKAIDO","city":"ISOYA GUN RANKOSHI CHO","town":"AIOI","perfecture_jp":"北海道","jp_add_1":"磯谷郡蘭越町","jp_add_2":"相生"},"0481265":{"post_code":"0481265","prefecture":"HOKKAIDO","city":"ISOYA GUN RANKOSHI CHO","town":"AYUKAWA","perfecture_jp":"北海道","jp_add_1":"磯谷郡蘭越町","jp_add_2":"鮎川"},"0481305":{"post_code":"0481305","prefecture":"HOKKAIDO","city":"ISOYA GUN RANKOSHI CHO","town":"OTANI","perfecture_jp":"北海道","jp_add_1":"磯谷郡蘭越町","jp_add_2":"大谷"},"0481316":{"post_code":"0481316","prefecture":"HOKKAIDO","city":"ISOYA GUN RANKOSHI CHO","town":"HATSUTA","perfecture_jp":"北海道","jp_add_1":"磯谷郡蘭越町","jp_add_2":"大曲"},"0481314":{"post_code":"0481314","prefecture":"HOKKAIDO","city":"ISOYA GUN RANKOSHI CHO","town":"ONARI","perfecture_jp":"北海道","jp_add_1":"磯谷郡蘭越町","jp_add_2":"御成"},"0481262":{"post_code":"0481262","prefecture":"HOKKAIDO","city":"ISOYA GUN RANKOSHI CHO","town":"KAIKAWA","perfecture_jp":"北海道","jp_add_1":"磯谷郡蘭越町","jp_add_2":"貝川"},"0481313":{"post_code":"0481313","prefecture":"HOKKAIDO","city":"ISOYA GUN RANKOSHI CHO","town":"KAMISATO","perfecture_jp":"北海道","jp_add_1":"磯谷郡蘭越町","jp_add_2":"上里"},"0481254":{"post_code":"0481254","prefecture":"HOKKAIDO","city":"ISOYA GUN RANKOSHI CHO","town":"KAMIMENA","perfecture_jp":"北海道","jp_add_1":"磯谷郡蘭越町","jp_add_2":"上目名"},"0481315":{"post_code":"0481315","prefecture":"HOKKAIDO","city":"ISOYA GUN RANKOSHI CHO","town":"KYOEI","perfecture_jp":"北海道","jp_add_1":"磯谷郡蘭越町","jp_add_2":"共栄"},"0481323":{"post_code":"0481323","prefecture":"HOKKAIDO","city":"ISOYA GUN RANKOSHI CHO","town":"KOGANE","perfecture_jp":"北海道","jp_add_1":"磯谷郡蘭越町","jp_add_2":"黄金"},"0481321":{"post_code":"0481321","prefecture":"HOKKAIDO","city":"ISOYA GUN RANKOSHI CHO","town":"YUNOSATO","perfecture_jp":"北海道","jp_add_1":"磯谷郡蘭越町","jp_add_2":"昆布温泉"},"0481302":{"post_code":"0481302","prefecture":"HOKKAIDO","city":"ISOYA GUN RANKOSHI CHO","town":"KOMBUMACHI","perfecture_jp":"北海道","jp_add_1":"磯谷郡蘭越町","jp_add_2":"昆布町"},"0481325":{"post_code":"0481325","prefecture":"HOKKAIDO","city":"ISOYA GUN RANKOSHI CHO","town":"SAKAE","perfecture_jp":"北海道","jp_add_1":"磯谷郡蘭越町","jp_add_2":"栄"},"0481252":{"post_code":"0481252","prefecture":"HOKKAIDO","city":"ISOYA GUN RANKOSHI CHO","town":"SANUKI","perfecture_jp":"北海道","jp_add_1":"磯谷郡蘭越町","jp_add_2":"讃岐"},"0481264":{"post_code":"0481264","prefecture":"HOKKAIDO","city":"ISOYA GUN RANKOSHI CHO","town":"SHIMIZU","perfecture_jp":"北海道","jp_add_1":"磯谷郡蘭越町","jp_add_2":"清水"},"0481253":{"post_code":"0481253","prefecture":"HOKKAIDO","city":"ISOYA GUN RANKOSHI CHO","town":"TASHIMO","perfecture_jp":"北海道","jp_add_1":"磯谷郡蘭越町","jp_add_2":"田下"},"0481303":{"post_code":"0481303","prefecture":"HOKKAIDO","city":"ISOYA GUN RANKOSHI CHO","town":"TACHIKAWA","perfecture_jp":"北海道","jp_add_1":"磯谷郡蘭越町","jp_add_2":"立川"},"0481326":{"post_code":"0481326","prefecture":"HOKKAIDO","city":"ISOYA GUN RANKOSHI CHO","town":"TOMIOKA","perfecture_jp":"北海道","jp_add_1":"磯谷郡蘭越町","jp_add_2":"富岡"},"0481324":{"post_code":"0481324","prefecture":"HOKKAIDO","city":"ISOYA GUN RANKOSHI CHO","town":"TOYOKUNI","perfecture_jp":"北海道","jp_add_1":"磯谷郡蘭越町","jp_add_2":"豊国"},"0481307":{"post_code":"0481307","prefecture":"HOKKAIDO","city":"ISOYA GUN RANKOSHI CHO","town":"NAKOMAMACHI","perfecture_jp":"北海道","jp_add_1":"磯谷郡蘭越町","jp_add_2":"トンカラ"},"0481327":{"post_code":"0481327","prefecture":"HOKKAIDO","city":"ISOYA GUN RANKOSHI CHO","town":"NIIMI","perfecture_jp":"北海道","jp_add_1":"磯谷郡蘭越町","jp_add_2":"新見"},"0481322":{"post_code":"0481322","prefecture":"HOKKAIDO","city":"ISOYA GUN RANKOSHI CHO","town":"HINODE","perfecture_jp":"北海道","jp_add_1":"磯谷郡蘭越町","jp_add_2":"日出"},"0481312":{"post_code":"0481312","prefecture":"HOKKAIDO","city":"ISOYA GUN RANKOSHI CHO","town":"MITSUWA","perfecture_jp":"北海道","jp_add_1":"磯谷郡蘭越町","jp_add_2":"冷水"},"0481263":{"post_code":"0481263","prefecture":"HOKKAIDO","city":"ISOYA GUN RANKOSHI CHO","town":"MIKASA","perfecture_jp":"北海道","jp_add_1":"磯谷郡蘭越町","jp_add_2":"三笠"},"0481304":{"post_code":"0481304","prefecture":"HOKKAIDO","city":"ISOYA GUN RANKOSHI CHO","town":"MIZUKAMI","perfecture_jp":"北海道","jp_add_1":"磯谷郡蘭越町","jp_add_2":"水上"},"0481341":{"post_code":"0481341","prefecture":"HOKKAIDO","city":"ISOYA GUN RANKOSHI CHO","town":"MINATOMACHI","perfecture_jp":"北海道","jp_add_1":"磯谷郡蘭越町","jp_add_2":"港町"},"0481261":{"post_code":"0481261","prefecture":"HOKKAIDO","city":"ISOYA GUN RANKOSHI CHO","town":"MENAMACHI","perfecture_jp":"北海道","jp_add_1":"磯谷郡蘭越町","jp_add_2":"目名町"},"0481311":{"post_code":"0481311","prefecture":"HOKKAIDO","city":"ISOYA GUN RANKOSHI CHO","town":"YOSHIKUNI","perfecture_jp":"北海道","jp_add_1":"磯谷郡蘭越町","jp_add_2":"吉国"},"0481306":{"post_code":"0481306","prefecture":"HOKKAIDO","city":"ISOYA GUN RANKOSHI CHO","town":"YODOGAWA","perfecture_jp":"北海道","jp_add_1":"磯谷郡蘭越町","jp_add_2":"淀川"},"0481301":{"post_code":"0481301","prefecture":"HOKKAIDO","city":"ISOYA GUN RANKOSHI CHO","town":"RANKOSHIMACHI","perfecture_jp":"北海道","jp_add_1":"磯谷郡蘭越町","jp_add_2":"蘭越町"},"0481500":{"post_code":"0481500","prefecture":"HOKKAIDO","city":"ABUTA GUN NISEKO CHO","town":"IKANIKEISAIGANAIBAAI","perfecture_jp":"北海道","jp_add_1":"虻田郡ニセコ町","jp_add_2":""},"0481531":{"post_code":"0481531","prefecture":"HOKKAIDO","city":"ABUTA GUN NISEKO CHO","town":"ARISHIMA","perfecture_jp":"北海道","jp_add_1":"虻田郡ニセコ町","jp_add_2":"有島"},"0481562":{"post_code":"0481562","prefecture":"HOKKAIDO","city":"ABUTA GUN NISEKO CHO","town":"KATSURADAI","perfecture_jp":"北海道","jp_add_1":"虻田郡ニセコ町","jp_add_2":"桂台"},"0481553":{"post_code":"0481553","prefecture":"HOKKAIDO","city":"ABUTA GUN NISEKO CHO","town":"KUROKAWA","perfecture_jp":"北海道","jp_add_1":"虻田郡ニセコ町","jp_add_2":"黒川"},"0481542":{"post_code":"0481542","prefecture":"HOKKAIDO","city":"ABUTA GUN NISEKO CHO","town":"KONDO","perfecture_jp":"北海道","jp_add_1":"虻田郡ニセコ町","jp_add_2":"近藤"},"0481551":{"post_code":"0481551","prefecture":"HOKKAIDO","city":"ABUTA GUN NISEKO CHO","town":"SATOMI","perfecture_jp":"北海道","jp_add_1":"虻田郡ニセコ町","jp_add_2":"里見"},"0481522":{"post_code":"0481522","prefecture":"HOKKAIDO","city":"ABUTA GUN NISEKO CHO","town":"SOGA","perfecture_jp":"北海道","jp_add_1":"虻田郡ニセコ町","jp_add_2":"曽我"},"0481512":{"post_code":"0481512","prefecture":"HOKKAIDO","city":"ABUTA GUN NISEKO CHO","town":"CHUODORI","perfecture_jp":"北海道","jp_add_1":"虻田郡ニセコ町","jp_add_2":"中央通"},"0481554":{"post_code":"0481554","prefecture":"HOKKAIDO","city":"ABUTA GUN NISEKO CHO","town":"TOMIKAWA","perfecture_jp":"北海道","jp_add_1":"虻田郡ニセコ町","jp_add_2":"富川"},"0481543":{"post_code":"0481543","prefecture":"HOKKAIDO","city":"ABUTA GUN NISEKO CHO","town":"TOYOSATO","perfecture_jp":"北海道","jp_add_1":"虻田郡ニセコ町","jp_add_2":"豊里"},"0481563":{"post_code":"0481563","prefecture":"HOKKAIDO","city":"ABUTA GUN NISEKO CHO","town":"NISHITOMI","perfecture_jp":"北海道","jp_add_1":"虻田郡ニセコ町","jp_add_2":"西富"},"0481511":{"post_code":"0481511","prefecture":"HOKKAIDO","city":"ABUTA GUN NISEKO CHO","town":"NISEKO","perfecture_jp":"北海道","jp_add_1":"虻田郡ニセコ町","jp_add_2":"ニセコ"},"0481521":{"post_code":"0481521","prefecture":"HOKKAIDO","city":"ABUTA GUN NISEKO CHO","town":"HIGASHIYAMA","perfecture_jp":"北海道","jp_add_1":"虻田郡ニセコ町","jp_add_2":"東山"},"0481561":{"post_code":"0481561","prefecture":"HOKKAIDO","city":"ABUTA GUN NISEKO CHO","town":"FUKUI","perfecture_jp":"北海道","jp_add_1":"虻田郡ニセコ町","jp_add_2":"福井"},"0481501":{"post_code":"0481501","prefecture":"HOKKAIDO","city":"ABUTA GUN NISEKO CHO","town":"FUJIMI","perfecture_jp":"北海道","jp_add_1":"虻田郡ニセコ町","jp_add_2":"富士見"},"0481502":{"post_code":"0481502","prefecture":"HOKKAIDO","city":"ABUTA GUN NISEKO CHO","town":"HONDORI","perfecture_jp":"北海道","jp_add_1":"虻田郡ニセコ町","jp_add_2":"本通"},"0481552":{"post_code":"0481552","prefecture":"HOKKAIDO","city":"ABUTA GUN NISEKO CHO","town":"MIYATA","perfecture_jp":"北海道","jp_add_1":"虻田郡ニセコ町","jp_add_2":"宮田"},"0481544":{"post_code":"0481544","prefecture":"HOKKAIDO","city":"ABUTA GUN NISEKO CHO","town":"MOTOMACHI","perfecture_jp":"北海道","jp_add_1":"虻田郡ニセコ町","jp_add_2":"元町"},"0481541":{"post_code":"0481541","prefecture":"HOKKAIDO","city":"ABUTA GUN NISEKO CHO","town":"YOTEI","perfecture_jp":"北海道","jp_add_1":"虻田郡ニセコ町","jp_add_2":"羊蹄"},"0481600":{"post_code":"0481600","prefecture":"HOKKAIDO","city":"ABUTA GUN MAKKARI MURA","town":"IKANIKEISAIGANAIBAAI","perfecture_jp":"北海道","jp_add_1":"虻田郡真狩村","jp_add_2":""},"0481602":{"post_code":"0481602","prefecture":"HOKKAIDO","city":"ABUTA GUN MAKKARI MURA","town":"IZUMI","perfecture_jp":"北海道","jp_add_1":"虻田郡真狩村","jp_add_2":"泉"},"0481622":{"post_code":"0481622","prefecture":"HOKKAIDO","city":"ABUTA GUN MAKKARI MURA","town":"KANO","perfecture_jp":"北海道","jp_add_1":"虻田郡真狩村","jp_add_2":"加野"},"0481624":{"post_code":"0481624","prefecture":"HOKKAIDO","city":"ABUTA GUN MAKKARI MURA","town":"KAMISATO","perfecture_jp":"北海道","jp_add_1":"虻田郡真狩村","jp_add_2":"神里"},"0481623":{"post_code":"0481623","prefecture":"HOKKAIDO","city":"ABUTA GUN MAKKARI MURA","town":"KAWASAKI","perfecture_jp":"北海道","jp_add_1":"虻田郡真狩村","jp_add_2":"川崎"},"0481603":{"post_code":"0481603","prefecture":"HOKKAIDO","city":"ABUTA GUN MAKKARI MURA","town":"KYOMEI","perfecture_jp":"北海道","jp_add_1":"虻田郡真狩村","jp_add_2":"共明"},"0481614":{"post_code":"0481614","prefecture":"HOKKAIDO","city":"ABUTA GUN MAKKARI MURA","town":"SAKURAGAWA","perfecture_jp":"北海道","jp_add_1":"虻田郡真狩村","jp_add_2":"桜川"},"0481604":{"post_code":"0481604","prefecture":"HOKKAIDO","city":"ABUTA GUN MAKKARI MURA","town":"TOMISATO","perfecture_jp":"北海道","jp_add_1":"虻田郡真狩村","jp_add_2":"富里"},"0481621":{"post_code":"0481621","prefecture":"HOKKAIDO","city":"ABUTA GUN MAKKARI MURA","town":"TOYOKAWA","perfecture_jp":"北海道","jp_add_1":"虻田郡真狩村","jp_add_2":"豊川"},"0481613":{"post_code":"0481613","prefecture":"HOKKAIDO","city":"ABUTA GUN MAKKARI MURA","town":"NAMBU","perfecture_jp":"北海道","jp_add_1":"虻田郡真狩村","jp_add_2":"南部"},"0481611":{"post_code":"0481611","prefecture":"HOKKAIDO","city":"ABUTA GUN MAKKARI MURA","town":"HIKARI","perfecture_jp":"北海道","jp_add_1":"虻田郡真狩村","jp_add_2":"光"},"0481631":{"post_code":"0481631","prefecture":"HOKKAIDO","city":"ABUTA GUN MAKKARI MURA","town":"MAKKARI","perfecture_jp":"北海道","jp_add_1":"虻田郡真狩村","jp_add_2":"真狩"},"0481615":{"post_code":"0481615","prefecture":"HOKKAIDO","city":"ABUTA GUN MAKKARI MURA","town":"MIDORIOKA","perfecture_jp":"北海道","jp_add_1":"虻田郡真狩村","jp_add_2":"緑岡"},"0481601":{"post_code":"0481601","prefecture":"HOKKAIDO","city":"ABUTA GUN MAKKARI MURA","town":"MIHARA","perfecture_jp":"北海道","jp_add_1":"虻田郡真狩村","jp_add_2":"美原"},"0481612":{"post_code":"0481612","prefecture":"HOKKAIDO","city":"ABUTA GUN MAKKARI MURA","town":"MIHARASHI","perfecture_jp":"北海道","jp_add_1":"虻田郡真狩村","jp_add_2":"見晴"},"0481605":{"post_code":"0481605","prefecture":"HOKKAIDO","city":"ABUTA GUN MAKKARI MURA","town":"YASHIRO","perfecture_jp":"北海道","jp_add_1":"虻田郡真狩村","jp_add_2":"社"},"0481700":{"post_code":"0481700","prefecture":"HOKKAIDO","city":"ABUTA GUN RUSUTSU MURA","town":"IKANIKEISAIGANAIBAAI","perfecture_jp":"北海道","jp_add_1":"虻田郡留寿都村","jp_add_2":""},"0481752":{"post_code":"0481752","prefecture":"HOKKAIDO","city":"ABUTA GUN RUSUTSU MURA","town":"ASAHINO","perfecture_jp":"北海道","jp_add_1":"虻田郡留寿都村","jp_add_2":"旭野"},"0481711":{"post_code":"0481711","prefecture":"HOKKAIDO","city":"ABUTA GUN RUSUTSU MURA","town":"IZUMIKAWA","perfecture_jp":"北海道","jp_add_1":"虻田郡留寿都村","jp_add_2":"泉川"},"0481722":{"post_code":"0481722","prefecture":"HOKKAIDO","city":"ABUTA GUN RUSUTSU MURA","town":"KURODA","perfecture_jp":"北海道","jp_add_1":"虻田郡留寿都村","jp_add_2":"黒田"},"0481723":{"post_code":"0481723","prefecture":"HOKKAIDO","city":"ABUTA GUN RUSUTSU MURA","town":"SANNOHARA","perfecture_jp":"北海道","jp_add_1":"虻田郡留寿都村","jp_add_2":"三ノ原"},"0481712":{"post_code":"0481712","prefecture":"HOKKAIDO","city":"ABUTA GUN RUSUTSU MURA","town":"TOYOKA","perfecture_jp":"北海道","jp_add_1":"虻田郡留寿都村","jp_add_2":"豊岡"},"0481741":{"post_code":"0481741","prefecture":"HOKKAIDO","city":"ABUTA GUN RUSUTSU MURA","town":"NISHINOHARA","perfecture_jp":"北海道","jp_add_1":"虻田郡留寿都村","jp_add_2":"西ノ原"},"0481751":{"post_code":"0481751","prefecture":"HOKKAIDO","city":"ABUTA GUN RUSUTSU MURA","town":"NOBORI","perfecture_jp":"北海道","jp_add_1":"虻田郡留寿都村","jp_add_2":"登"},"0481724":{"post_code":"0481724","prefecture":"HOKKAIDO","city":"ABUTA GUN RUSUTSU MURA","town":"MITOYO","perfecture_jp":"北海道","jp_add_1":"虻田郡留寿都村","jp_add_2":"三豊"},"0481721":{"post_code":"0481721","prefecture":"HOKKAIDO","city":"ABUTA GUN RUSUTSU MURA","town":"MUKAIOKA","perfecture_jp":"北海道","jp_add_1":"虻田郡留寿都村","jp_add_2":"向丘"},"0481731":{"post_code":"0481731","prefecture":"HOKKAIDO","city":"ABUTA GUN RUSUTSU MURA","town":"RUSUTSU","perfecture_jp":"北海道","jp_add_1":"虻田郡留寿都村","jp_add_2":"留寿都"},"0482200":{"post_code":"0482200","prefecture":"HOKKAIDO","city":"IWANAI GUN KYOWA CHO","town":"IKANIKEISAIGANAIBAAI","perfecture_jp":"北海道","jp_add_1":"岩内郡共和町","jp_add_2":""},"0482143":{"post_code":"0482143","prefecture":"HOKKAIDO","city":"IWANAI GUN KYOWA CHO","town":"KUNITOMI","perfecture_jp":"北海道","jp_add_1":"岩内郡共和町","jp_add_2":"国富"},"0482142":{"post_code":"0482142","prefecture":"HOKKAIDO","city":"IWANAI GUN KYOWA CHO","town":"KOZAWA","perfecture_jp":"北海道","jp_add_1":"岩内郡共和町","jp_add_2":"小沢"},"0482201":{"post_code":"0482201","prefecture":"HOKKAIDO","city":"IWANAI GUN KYOWA CHO","town":"MAEDA","perfecture_jp":"北海道","jp_add_1":"岩内郡共和町","jp_add_2":"前田"},"0482202":{"post_code":"0482202","prefecture":"HOKKAIDO","city":"IWANAI GUN KYOWA CHO","town":"MINAMIHORONI","perfecture_jp":"北海道","jp_add_1":"岩内郡共和町","jp_add_2":"南幌似"},"0482141":{"post_code":"0482141","prefecture":"HOKKAIDO","city":"IWANAI GUN KYOWA CHO","town":"WAISU","perfecture_jp":"北海道","jp_add_1":"岩内郡共和町","jp_add_2":"ワイス"},"0482400":{"post_code":"0482400","prefecture":"HOKKAIDO","city":"YOICHI GUN NIKI CHO","town":"IKANIKEISAIGANAIBAAI","perfecture_jp":"北海道","jp_add_1":"余市郡仁木町","jp_add_2":""},"0482401":{"post_code":"0482401","prefecture":"HOKKAIDO","city":"YOICHI GUN NIKI CHO","town":"ASAHIDAI","perfecture_jp":"北海道","jp_add_1":"余市郡仁木町","jp_add_2":"旭台"},"0482402":{"post_code":"0482402","prefecture":"HOKKAIDO","city":"YOICHI GUN NIKI CHO","town":"3-4.20.678.687-BANCHI)","perfecture_jp":"北海道","jp_add_1":"余市郡仁木町","jp_add_2":"大江"},"0482331":{"post_code":"0482331","prefecture":"HOKKAIDO","city":"YOICHI GUN NIKI CHO","town":"210.254.267.372.444.469-BANCHI)","perfecture_jp":"北海道","jp_add_1":"余市郡仁木町","jp_add_2":"大江"},"0482334":{"post_code":"0482334","prefecture":"HOKKAIDO","city":"YOICHI GUN NIKI CHO","town":"ONENAI","perfecture_jp":"北海道","jp_add_1":"余市郡仁木町","jp_add_2":"尾根内"},"0482405":{"post_code":"0482405","prefecture":"HOKKAIDO","city":"YOICHI GUN NIKI CHO","town":"KITAMACHI","perfecture_jp":"北海道","jp_add_1":"余市郡仁木町","jp_add_2":"北町"},"0482335":{"post_code":"0482335","prefecture":"HOKKAIDO","city":"YOICHI GUN NIKI CHO","town":"GINZAN","perfecture_jp":"北海道","jp_add_1":"余市郡仁木町","jp_add_2":"銀山"},"0482403":{"post_code":"0482403","prefecture":"HOKKAIDO","city":"YOICHI GUN NIKI CHO","town":"SHIKARIBETSU","perfecture_jp":"北海道","jp_add_1":"余市郡仁木町","jp_add_2":"然別"},"0482404":{"post_code":"0482404","prefecture":"HOKKAIDO","city":"YOICHI GUN NIKI CHO","town":"TONOKAWA","perfecture_jp":"北海道","jp_add_1":"余市郡仁木町","jp_add_2":"砥の川"},"0482332":{"post_code":"0482332","prefecture":"HOKKAIDO","city":"YOICHI GUN NIKI CHO","town":"NAGASAWANISHI","perfecture_jp":"北海道","jp_add_1":"余市郡仁木町","jp_add_2":"長沢西"},"0482333":{"post_code":"0482333","prefecture":"HOKKAIDO","city":"YOICHI GUN NIKI CHO","town":"NAGASAWAMINAMI","perfecture_jp":"北海道","jp_add_1":"余市郡仁木町","jp_add_2":"長沢南"},"0482406":{"post_code":"0482406","prefecture":"HOKKAIDO","city":"YOICHI GUN NIKI CHO","town":"NISHIMACHI","perfecture_jp":"北海道","jp_add_1":"余市郡仁木町","jp_add_2":"西町"},"0482411":{"post_code":"0482411","prefecture":"HOKKAIDO","city":"YOICHI GUN NIKI CHO","town":"HIGASHIMACHI","perfecture_jp":"北海道","jp_add_1":"余市郡仁木町","jp_add_2":"東町"},"0482412":{"post_code":"0482412","prefecture":"HOKKAIDO","city":"YOICHI GUN NIKI CHO","town":"HIGASHIMACHIMIDORIGAOKA","perfecture_jp":"北海道","jp_add_1":"余市郡仁木町","jp_add_2":"東町緑ケ丘"},"0482413":{"post_code":"0482413","prefecture":"HOKKAIDO","city":"YOICHI GUN NIKI CHO","town":"MINAMIMACHI","perfecture_jp":"北海道","jp_add_1":"余市郡仁木町","jp_add_2":"南町"}}