{"0510023":{"post_code":"0510023","prefecture":"HOKKAIDO","city":"MURORAN SHI","town":"IRIECHO","perfecture_jp":"北海道","jp_add_1":"室蘭市","jp_add_2":"入江町"},"0510035":{"post_code":"0510035","prefecture":"HOKKAIDO","city":"MURORAN SHI","town":"ETOMOCHO","perfecture_jp":"北海道","jp_add_1":"室蘭市","jp_add_2":"絵鞆町"},"0510033":{"post_code":"0510033","prefecture":"HOKKAIDO","city":"MURORAN SHI","town":"OHASHINAICHO","perfecture_jp":"北海道","jp_add_1":"室蘭市","jp_add_2":"小橋内町"},"0510022":{"post_code":"0510022","prefecture":"HOKKAIDO","city":"MURORAN SHI","town":"KAIGANCHO","perfecture_jp":"北海道","jp_add_1":"室蘭市","jp_add_2":"海岸町"},"0510032":{"post_code":"0510032","prefecture":"HOKKAIDO","city":"MURORAN SHI","town":"KONANCHO","perfecture_jp":"北海道","jp_add_1":"室蘭市","jp_add_2":"港南町"},"0510002":{"post_code":"0510002","prefecture":"HOKKAIDO","city":"MURORAN SHI","town":"GOZENSUICHO","perfecture_jp":"北海道","jp_add_1":"室蘭市","jp_add_2":"御前水町"},"0510016":{"post_code":"0510016","prefecture":"HOKKAIDO","city":"MURORAN SHI","town":"SAIWAICHO","perfecture_jp":"北海道","jp_add_1":"室蘭市","jp_add_2":"幸町"},"0510014":{"post_code":"0510014","prefecture":"HOKKAIDO","city":"MURORAN SHI","town":"SAKAECHO","perfecture_jp":"北海道","jp_add_1":"室蘭市","jp_add_2":"栄町"},"0510027":{"post_code":"0510027","prefecture":"HOKKAIDO","city":"MURORAN SHI","town":"SAWACHO","perfecture_jp":"北海道","jp_add_1":"室蘭市","jp_add_2":"沢町"},"0510026":{"post_code":"0510026","prefecture":"HOKKAIDO","city":"MURORAN SHI","town":"SHIMIZUCHO","perfecture_jp":"北海道","jp_add_1":"室蘭市","jp_add_2":"清水町"},"0510036":{"post_code":"0510036","prefecture":"HOKKAIDO","city":"MURORAN SHI","town":"SHUKUZUCHO","perfecture_jp":"北海道","jp_add_1":"室蘭市","jp_add_2":"祝津町"},"0510005":{"post_code":"0510005","prefecture":"HOKKAIDO","city":"MURORAN SHI","town":"SHINTOMICHO","perfecture_jp":"北海道","jp_add_1":"室蘭市","jp_add_2":"新富町"},"0510006":{"post_code":"0510006","prefecture":"HOKKAIDO","city":"MURORAN SHI","town":"CHATSUCHO","perfecture_jp":"北海道","jp_add_1":"室蘭市","jp_add_2":"茶津町"},"0510011":{"post_code":"0510011","prefecture":"HOKKAIDO","city":"MURORAN SHI","town":"CHUOCHO","perfecture_jp":"北海道","jp_add_1":"室蘭市","jp_add_2":"中央町"},"0510031":{"post_code":"0510031","prefecture":"HOKKAIDO","city":"MURORAN SHI","town":"TSUKIJICHO","perfecture_jp":"北海道","jp_add_1":"室蘭市","jp_add_2":"築地町"},"0510025":{"post_code":"0510025","prefecture":"HOKKAIDO","city":"MURORAN SHI","town":"TOKIWACHO","perfecture_jp":"北海道","jp_add_1":"室蘭市","jp_add_2":"常盤町"},"0510028":{"post_code":"0510028","prefecture":"HOKKAIDO","city":"MURORAN SHI","town":"NISHIKOJICHO","perfecture_jp":"北海道","jp_add_1":"室蘭市","jp_add_2":"西小路町"},"0510013":{"post_code":"0510013","prefecture":"HOKKAIDO","city":"MURORAN SHI","town":"FUNAMICHO","perfecture_jp":"北海道","jp_add_1":"室蘭市","jp_add_2":"舟見町"},"0510003":{"post_code":"0510003","prefecture":"HOKKAIDO","city":"MURORAN SHI","town":"BOKOI MINAMIMACHI","perfecture_jp":"北海道","jp_add_1":"室蘭市","jp_add_2":"母恋南町"},"0510004":{"post_code":"0510004","prefecture":"HOKKAIDO","city":"MURORAN SHI","town":"BOKOI KITAMACHI","perfecture_jp":"北海道","jp_add_1":"室蘭市","jp_add_2":"母恋北町"},"0510015":{"post_code":"0510015","prefecture":"HOKKAIDO","city":"MURORAN SHI","town":"HONCHO","perfecture_jp":"北海道","jp_add_1":"室蘭市","jp_add_2":"本町"},"0510024":{"post_code":"0510024","prefecture":"HOKKAIDO","city":"MURORAN SHI","town":"MAKUNISHICHO","perfecture_jp":"北海道","jp_add_1":"室蘭市","jp_add_2":"幕西町"},"0510034":{"post_code":"0510034","prefecture":"HOKKAIDO","city":"MURORAN SHI","town":"MASUICHICHO","perfecture_jp":"北海道","jp_add_1":"室蘭市","jp_add_2":"増市町"},"0510001":{"post_code":"0510001","prefecture":"HOKKAIDO","city":"MURORAN SHI","town":"MISAKICHO","perfecture_jp":"北海道","jp_add_1":"室蘭市","jp_add_2":"御崎町"},"0510021":{"post_code":"0510021","prefecture":"HOKKAIDO","city":"MURORAN SHI","town":"MIDORICHO","perfecture_jp":"北海道","jp_add_1":"室蘭市","jp_add_2":"緑町"},"0510012":{"post_code":"0510012","prefecture":"HOKKAIDO","city":"MURORAN SHI","town":"YAMATECHO","perfecture_jp":"北海道","jp_add_1":"室蘭市","jp_add_2":"山手町"}}