{"0520000":{"post_code":"0520000","prefecture":"HOKKAIDO","city":"DATE SHI","town":"IKANIKEISAIGANAIBAAI","perfecture_jp":"北海道","jp_add_1":"伊達市","jp_add_2":""},"0520015":{"post_code":"0520015","prefecture":"HOKKAIDO","city":"DATE SHI","town":"ASAHICHO","perfecture_jp":"北海道","jp_add_1":"伊達市","jp_add_2":"旭町"},"0520025":{"post_code":"0520025","prefecture":"HOKKAIDO","city":"DATE SHI","town":"AJIROCHO","perfecture_jp":"北海道","jp_add_1":"伊達市","jp_add_2":"網代町"},"0520002":{"post_code":"0520002","prefecture":"HOKKAIDO","city":"DATE SHI","town":"INUICHO","perfecture_jp":"北海道","jp_add_1":"伊達市","jp_add_2":"乾町"},"0520022":{"post_code":"0520022","prefecture":"HOKKAIDO","city":"DATE SHI","town":"UMEMOTOCHO","perfecture_jp":"北海道","jp_add_1":"伊達市","jp_add_2":"梅本町"},"0520312":{"post_code":"0520312","prefecture":"HOKKAIDO","city":"DATE SHI","town":"OTAKIKU UENOCHO","perfecture_jp":"北海道","jp_add_1":"伊達市","jp_add_2":"大滝区上野町"},"0520316":{"post_code":"0520316","prefecture":"HOKKAIDO","city":"DATE SHI","town":"OTAKIKU KITAYUZAWAONSENCHO","perfecture_jp":"北海道","jp_add_1":"伊達市","jp_add_2":"大滝区北湯沢温泉町"},"0520303":{"post_code":"0520303","prefecture":"HOKKAIDO","city":"DATE SHI","town":"OTAKIKU SANGAITAKICHO","perfecture_jp":"北海道","jp_add_1":"伊達市","jp_add_2":"大滝区三階滝町"},"0520315":{"post_code":"0520315","prefecture":"HOKKAIDO","city":"DATE SHI","town":"OTAKIKU SHOENCHO","perfecture_jp":"北海道","jp_add_1":"伊達市","jp_add_2":"大滝区昭園町"},"0520302":{"post_code":"0520302","prefecture":"HOKKAIDO","city":"DATE SHI","town":"OTAKIKU SEIRYOCHO","perfecture_jp":"北海道","jp_add_1":"伊達市","jp_add_2":"大滝区清陵町"},"0520313":{"post_code":"0520313","prefecture":"HOKKAIDO","city":"DATE SHI","town":"OTAKIKU TAISEICHO","perfecture_jp":"北海道","jp_add_1":"伊達市","jp_add_2":"大滝区大成町"},"0520311":{"post_code":"0520311","prefecture":"HOKKAIDO","city":"DATE SHI","town":"OTAKIKU HONGOCHO","perfecture_jp":"北海道","jp_add_1":"伊達市","jp_add_2":"大滝区本郷町"},"0520301":{"post_code":"0520301","prefecture":"HOKKAIDO","city":"DATE SHI","town":"OTAKIKU HONCHO","perfecture_jp":"北海道","jp_add_1":"伊達市","jp_add_2":"大滝区本町"},"0520314":{"post_code":"0520314","prefecture":"HOKKAIDO","city":"DATE SHI","town":"OTAKIKU MARUYAMACHO","perfecture_jp":"北海道","jp_add_1":"伊達市","jp_add_2":"大滝区円山町"},"0520317":{"post_code":"0520317","prefecture":"HOKKAIDO","city":"DATE SHI","town":"OTAKIKU YUTOKUCHO","perfecture_jp":"北海道","jp_add_1":"伊達市","jp_add_2":"大滝区優徳町"},"0520027":{"post_code":"0520027","prefecture":"HOKKAIDO","city":"DATE SHI","town":"OMACHI","perfecture_jp":"北海道","jp_add_1":"伊達市","jp_add_2":"大町"},"0520024":{"post_code":"0520024","prefecture":"HOKKAIDO","city":"DATE SHI","town":"KASHIMACHO","perfecture_jp":"北海道","jp_add_1":"伊達市","jp_add_2":"鹿島町"},"0520008":{"post_code":"0520008","prefecture":"HOKKAIDO","city":"DATE SHI","town":"KAMITATEYAMACHO","perfecture_jp":"北海道","jp_add_1":"伊達市","jp_add_2":"上館山町"},"0520036":{"post_code":"0520036","prefecture":"HOKKAIDO","city":"DATE SHI","town":"KAMINAGAWACHO","perfecture_jp":"北海道","jp_add_1":"伊達市","jp_add_2":"上長和町"},"0520001":{"post_code":"0520001","prefecture":"HOKKAIDO","city":"DATE SHI","town":"SHIMONKECHO","perfecture_jp":"北海道","jp_add_1":"伊達市","jp_add_2":"喜門別町"},"0520005":{"post_code":"0520005","prefecture":"HOKKAIDO","city":"DATE SHI","town":"KIYOZUMICHO","perfecture_jp":"北海道","jp_add_1":"伊達市","jp_add_2":"清住町"},"0520021":{"post_code":"0520021","prefecture":"HOKKAIDO","city":"DATE SHI","town":"SUENAGACHO","perfecture_jp":"北海道","jp_add_1":"伊達市","jp_add_2":"末永町"},"0520011":{"post_code":"0520011","prefecture":"HOKKAIDO","city":"DATE SHI","town":"TAKEHARACHO","perfecture_jp":"北海道","jp_add_1":"伊達市","jp_add_2":"竹原町"},"0520034":{"post_code":"0520034","prefecture":"HOKKAIDO","city":"DATE SHI","town":"TATEYAMASHITACHO","perfecture_jp":"北海道","jp_add_1":"伊達市","jp_add_2":"館山下町"},"0520031":{"post_code":"0520031","prefecture":"HOKKAIDO","city":"DATE SHI","town":"TATEYAMACHO","perfecture_jp":"北海道","jp_add_1":"伊達市","jp_add_2":"館山町"},"0520035":{"post_code":"0520035","prefecture":"HOKKAIDO","city":"DATE SHI","town":"NAGAWACHO","perfecture_jp":"北海道","jp_add_1":"伊達市","jp_add_2":"長和町"},"0520026":{"post_code":"0520026","prefecture":"HOKKAIDO","city":"DATE SHI","town":"NISHIKICHO","perfecture_jp":"北海道","jp_add_1":"伊達市","jp_add_2":"錦町"},"0520007":{"post_code":"0520007","prefecture":"HOKKAIDO","city":"DATE SHI","town":"NISHISEKINAICHO","perfecture_jp":"北海道","jp_add_1":"伊達市","jp_add_2":"西関内町"},"0520033":{"post_code":"0520033","prefecture":"HOKKAIDO","city":"DATE SHI","town":"NISHIHAMACHO","perfecture_jp":"北海道","jp_add_1":"伊達市","jp_add_2":"西浜町"},"0520004":{"post_code":"0520004","prefecture":"HOKKAIDO","city":"DATE SHI","town":"HAGIWARACHO","perfecture_jp":"北海道","jp_add_1":"伊達市","jp_add_2":"萩原町"},"0520006":{"post_code":"0520006","prefecture":"HOKKAIDO","city":"DATE SHI","town":"HIGASHISEKINAICHO","perfecture_jp":"北海道","jp_add_1":"伊達市","jp_add_2":"東関内町"},"0520016":{"post_code":"0520016","prefecture":"HOKKAIDO","city":"DATE SHI","town":"HIGASHIHAMACHO","perfecture_jp":"北海道","jp_add_1":"伊達市","jp_add_2":"東浜町"},"0520014":{"post_code":"0520014","prefecture":"HOKKAIDO","city":"DATE SHI","town":"FUNAOKACHO","perfecture_jp":"北海道","jp_add_1":"伊達市","jp_add_2":"舟岡町"},"0520003":{"post_code":"0520003","prefecture":"HOKKAIDO","city":"DATE SHI","town":"HOROBINAICHO","perfecture_jp":"北海道","jp_add_1":"伊達市","jp_add_2":"幌美内町"},"0520012":{"post_code":"0520012","prefecture":"HOKKAIDO","city":"DATE SHI","town":"MATSUGAECHO","perfecture_jp":"北海道","jp_add_1":"伊達市","jp_add_2":"松ケ枝町"},"0520023":{"post_code":"0520023","prefecture":"HOKKAIDO","city":"DATE SHI","town":"MOTOMACHI","perfecture_jp":"北海道","jp_add_1":"伊達市","jp_add_2":"元町"},"0520032":{"post_code":"0520032","prefecture":"HOKKAIDO","city":"DATE SHI","town":"YAMASHITACHO","perfecture_jp":"北海道","jp_add_1":"伊達市","jp_add_2":"山下町"},"0520013":{"post_code":"0520013","prefecture":"HOKKAIDO","city":"DATE SHI","town":"ROGETSUCHO","perfecture_jp":"北海道","jp_add_1":"伊達市","jp_add_2":"弄月町"},"0520100":{"post_code":"0520100","prefecture":"HOKKAIDO","city":"USU GUN SOBETSU CHO","town":"IKANIKEISAIGANAIBAAI","perfecture_jp":"北海道","jp_add_1":"有珠郡壮瞥町","jp_add_2":""},"0520111":{"post_code":"0520111","prefecture":"HOKKAIDO","city":"USU GUN SOBETSU CHO","town":"KAMIKUBONAI","perfecture_jp":"北海道","jp_add_1":"有珠郡壮瞥町","jp_add_2":"上久保内"},"0520112":{"post_code":"0520112","prefecture":"HOKKAIDO","city":"USU GUN SOBETSU CHO","town":"KUBONAI","perfecture_jp":"北海道","jp_add_1":"有珠郡壮瞥町","jp_add_2":"久保内"},"0520114":{"post_code":"0520114","prefecture":"HOKKAIDO","city":"USU GUN SOBETSU CHO","town":"KONAI","perfecture_jp":"北海道","jp_add_1":"有珠郡壮瞥町","jp_add_2":"幸内"},"0520102":{"post_code":"0520102","prefecture":"HOKKAIDO","city":"USU GUN SOBETSU CHO","town":"SHOWASHINZAN","perfecture_jp":"北海道","jp_add_1":"有珠郡壮瞥町","jp_add_2":"昭和新山"},"0520103":{"post_code":"0520103","prefecture":"HOKKAIDO","city":"USU GUN SOBETSU CHO","town":"SOBETSUONSEN","perfecture_jp":"北海道","jp_add_1":"有珠郡壮瞥町","jp_add_2":"壮瞥温泉"},"0520101":{"post_code":"0520101","prefecture":"HOKKAIDO","city":"USU GUN SOBETSU CHO","town":"TAKINOMACHI","perfecture_jp":"北海道","jp_add_1":"有珠郡壮瞥町","jp_add_2":"滝之町"},"0520106":{"post_code":"0520106","prefecture":"HOKKAIDO","city":"USU GUN SOBETSU CHO","town":"TATSUKA","perfecture_jp":"北海道","jp_add_1":"有珠郡壮瞥町","jp_add_2":"立香"},"0520107":{"post_code":"0520107","prefecture":"HOKKAIDO","city":"USU GUN SOBETSU CHO","town":"TOYAKONSEN(SONOTA)","perfecture_jp":"北海道","jp_add_1":"有珠郡壮瞥町","jp_add_2":"洞爺湖温泉"},"0520105":{"post_code":"0520105","prefecture":"HOKKAIDO","city":"USU GUN SOBETSU CHO","town":"NAKATOYA","perfecture_jp":"北海道","jp_add_1":"有珠郡壮瞥町","jp_add_2":"仲洞爺"},"0520113":{"post_code":"0520113","prefecture":"HOKKAIDO","city":"USU GUN SOBETSU CHO","town":"BANKEI","perfecture_jp":"北海道","jp_add_1":"有珠郡壮瞥町","jp_add_2":"蟠渓"},"0520104":{"post_code":"0520104","prefecture":"HOKKAIDO","city":"USU GUN SOBETSU CHO","town":"HIGASHIKOHAN","perfecture_jp":"北海道","jp_add_1":"有珠郡壮瞥町","jp_add_2":"東湖畔"},"0520115":{"post_code":"0520115","prefecture":"HOKKAIDO","city":"USU GUN SOBETSU CHO","town":"BENKEI","perfecture_jp":"北海道","jp_add_1":"有珠郡壮瞥町","jp_add_2":"弁景"},"0520116":{"post_code":"0520116","prefecture":"HOKKAIDO","city":"USU GUN SOBETSU CHO","town":"MINAMIKUBONAI","perfecture_jp":"北海道","jp_add_1":"有珠郡壮瞥町","jp_add_2":"南久保内"}}