{"0550000":{"post_code":"0550000","prefecture":"HOKKAIDO","city":"SARU GUN HIDAKA CHO","town":"IKANIKEISAIGANAIBAAI","perfecture_jp":"北海道","jp_add_1":"沙流郡日高町","jp_add_2":""},"0552303":{"post_code":"0552303","prefecture":"HOKKAIDO","city":"SARU GUN HIDAKA CHO","town":"SAKAEMACHIHIGASHI","perfecture_jp":"北海道","jp_add_1":"沙流郡日高町","jp_add_2":"栄町東"},"0552304":{"post_code":"0552304","prefecture":"HOKKAIDO","city":"SARU GUN HIDAKA CHO","town":"SAKAEMACHINISHI","perfecture_jp":"北海道","jp_add_1":"沙流郡日高町","jp_add_2":"栄町西"},"0552305":{"post_code":"0552305","prefecture":"HOKKAIDO","city":"SARU GUN HIDAKA CHO","town":"SHIMMACHI","perfecture_jp":"北海道","jp_add_1":"沙流郡日高町","jp_add_2":"新町"},"0552314":{"post_code":"0552314","prefecture":"HOKKAIDO","city":"SARU GUN HIDAKA CHO","town":"CHISAKA","perfecture_jp":"北海道","jp_add_1":"沙流郡日高町","jp_add_2":"千栄"},"0552315":{"post_code":"0552315","prefecture":"HOKKAIDO","city":"SARU GUN HIDAKA CHO","town":"TOMIOKA","perfecture_jp":"北海道","jp_add_1":"沙流郡日高町","jp_add_2":"富岡"},"0550001":{"post_code":"0550001","prefecture":"HOKKAIDO","city":"SARU GUN HIDAKA CHO","town":"TOMIKAWA KITA","perfecture_jp":"北海道","jp_add_1":"沙流郡日高町","jp_add_2":"富川北"},"0550008":{"post_code":"0550008","prefecture":"HOKKAIDO","city":"SARU GUN HIDAKA CHO","town":"TOMIKAWA KOMAOKA","perfecture_jp":"北海道","jp_add_1":"沙流郡日高町","jp_add_2":"富川駒丘"},"0550007":{"post_code":"0550007","prefecture":"HOKKAIDO","city":"SARU GUN HIDAKA CHO","town":"TOMIKAWA NISHI","perfecture_jp":"北海道","jp_add_1":"沙流郡日高町","jp_add_2":"富川西"},"0550004":{"post_code":"0550004","prefecture":"HOKKAIDO","city":"SARU GUN HIDAKA CHO","town":"TOMIKAWA HIGASHI","perfecture_jp":"北海道","jp_add_1":"沙流郡日高町","jp_add_2":"富川東"},"0550006":{"post_code":"0550006","prefecture":"HOKKAIDO","city":"SARU GUN HIDAKA CHO","town":"TOMIKAWA MINAMI","perfecture_jp":"北海道","jp_add_1":"沙流郡日高町","jp_add_2":"富川南"},"0550005":{"post_code":"0550005","prefecture":"HOKKAIDO","city":"SARU GUN HIDAKA CHO","town":"TOMIHAMA","perfecture_jp":"北海道","jp_add_1":"沙流郡日高町","jp_add_2":"富浜"},"0552311":{"post_code":"0552311","prefecture":"HOKKAIDO","city":"SARU GUN HIDAKA CHO","town":"HIDAKA(1-KU)","perfecture_jp":"北海道","jp_add_1":"沙流郡日高町","jp_add_2":"日高"},"0552312":{"post_code":"0552312","prefecture":"HOKKAIDO","city":"SARU GUN HIDAKA CHO","town":"HIDAKA(2-KU)","perfecture_jp":"北海道","jp_add_1":"沙流郡日高町","jp_add_2":"日高"},"0552313":{"post_code":"0552313","prefecture":"HOKKAIDO","city":"SARU GUN HIDAKA CHO","town":"HIDAKA(3-KU)","perfecture_jp":"北海道","jp_add_1":"沙流郡日高町","jp_add_2":"日高"},"0550002":{"post_code":"0550002","prefecture":"HOKKAIDO","city":"SARU GUN HIDAKA CHO","town":"BIRAGA","perfecture_jp":"北海道","jp_add_1":"沙流郡日高町","jp_add_2":"平賀"},"0550003":{"post_code":"0550003","prefecture":"HOKKAIDO","city":"SARU GUN HIDAKA CHO","town":"FUKUMITSU","perfecture_jp":"北海道","jp_add_1":"沙流郡日高町","jp_add_2":"福満"},"0552301":{"post_code":"0552301","prefecture":"HOKKAIDO","city":"SARU GUN HIDAKA CHO","town":"HONCHOHIGASHI","perfecture_jp":"北海道","jp_add_1":"沙流郡日高町","jp_add_2":"本町東"},"0552302":{"post_code":"0552302","prefecture":"HOKKAIDO","city":"SARU GUN HIDAKA CHO","town":"HONCHONISHI","perfecture_jp":"北海道","jp_add_1":"沙流郡日高町","jp_add_2":"本町西"},"0552307":{"post_code":"0552307","prefecture":"HOKKAIDO","city":"SARU GUN HIDAKA CHO","town":"MATSUKAZECHO","perfecture_jp":"北海道","jp_add_1":"沙流郡日高町","jp_add_2":"松風町"},"0552316":{"post_code":"0552316","prefecture":"HOKKAIDO","city":"SARU GUN HIDAKA CHO","town":"MITSUIWA","perfecture_jp":"北海道","jp_add_1":"沙流郡日高町","jp_add_2":"三岩"},"0552306":{"post_code":"0552306","prefecture":"HOKKAIDO","city":"SARU GUN HIDAKA CHO","town":"MIYASHITACHO","perfecture_jp":"北海道","jp_add_1":"沙流郡日高町","jp_add_2":"宮下町"},"0552308":{"post_code":"0552308","prefecture":"HOKKAIDO","city":"SARU GUN HIDAKA CHO","town":"YAMATECHO","perfecture_jp":"北海道","jp_add_1":"沙流郡日高町","jp_add_2":"山手町"},"0552309":{"post_code":"0552309","prefecture":"HOKKAIDO","city":"SARU GUN HIDAKA CHO","town":"WAKABACHO","perfecture_jp":"北海道","jp_add_1":"沙流郡日高町","jp_add_2":"若葉町"},"0550100":{"post_code":"0550100","prefecture":"HOKKAIDO","city":"SARU GUN BIRATORI CHO","town":"IKANIKEISAIGANAIBAAI","perfecture_jp":"北海道","jp_add_1":"沙流郡平取町","jp_add_2":""},"0550322":{"post_code":"0550322","prefecture":"HOKKAIDO","city":"SARU GUN BIRATORI CHO","town":"ASAHI","perfecture_jp":"北海道","jp_add_1":"沙流郡平取町","jp_add_2":"旭"},"0550414":{"post_code":"0550414","prefecture":"HOKKAIDO","city":"SARU GUN BIRATORI CHO","town":"IWACHISHI","perfecture_jp":"北海道","jp_add_1":"沙流郡平取町","jp_add_2":"岩知志"},"0550325":{"post_code":"0550325","prefecture":"HOKKAIDO","city":"SARU GUN BIRATORI CHO","town":"OSACHINAI","perfecture_jp":"北海道","jp_add_1":"沙流郡平取町","jp_add_2":"長知内"},"0550103":{"post_code":"0550103","prefecture":"HOKKAIDO","city":"SARU GUN BIRATORI CHO","town":"KAWAMUKAI","perfecture_jp":"北海道","jp_add_1":"沙流郡平取町","jp_add_2":"川向"},"0550102":{"post_code":"0550102","prefecture":"HOKKAIDO","city":"SARU GUN BIRATORI CHO","town":"KOBIRA","perfecture_jp":"北海道","jp_add_1":"沙流郡平取町","jp_add_2":"小平"},"0550105":{"post_code":"0550105","prefecture":"HOKKAIDO","city":"SARU GUN BIRATORI CHO","town":"SARUBA","perfecture_jp":"北海道","jp_add_1":"沙流郡平取町","jp_add_2":"去場"},"0550104":{"post_code":"0550104","prefecture":"HOKKAIDO","city":"SARU GUN BIRATORI CHO","town":"SHIUNKOTSU","perfecture_jp":"北海道","jp_add_1":"沙流郡平取町","jp_add_2":"紫雲古津"},"0550415":{"post_code":"0550415","prefecture":"HOKKAIDO","city":"SARU GUN BIRATORI CHO","town":"TOYONUKA","perfecture_jp":"北海道","jp_add_1":"沙流郡平取町","jp_add_2":"豊糠"},"0550324":{"post_code":"0550324","prefecture":"HOKKAIDO","city":"SARU GUN BIRATORI CHO","town":"NIOI","perfecture_jp":"北海道","jp_add_1":"沙流郡平取町","jp_add_2":"荷負"},"0550413":{"post_code":"0550413","prefecture":"HOKKAIDO","city":"SARU GUN BIRATORI CHO","town":"NISEU","perfecture_jp":"北海道","jp_add_1":"沙流郡平取町","jp_add_2":"仁世宇"},"0550106":{"post_code":"0550106","prefecture":"HOKKAIDO","city":"SARU GUN BIRATORI CHO","town":"NINA","perfecture_jp":"北海道","jp_add_1":"沙流郡平取町","jp_add_2":"荷菜"},"0550101":{"post_code":"0550101","prefecture":"HOKKAIDO","city":"SARU GUN BIRATORI CHO","town":"NIBUTANI","perfecture_jp":"北海道","jp_add_1":"沙流郡平取町","jp_add_2":"二風谷"},"0550321":{"post_code":"0550321","prefecture":"HOKKAIDO","city":"SARU GUN BIRATORI CHO","town":"NUKIBETSU","perfecture_jp":"北海道","jp_add_1":"沙流郡平取町","jp_add_2":"貫気別"},"0550411":{"post_code":"0550411","prefecture":"HOKKAIDO","city":"SARU GUN BIRATORI CHO","town":"FURENAICHO","perfecture_jp":"北海道","jp_add_1":"沙流郡平取町","jp_add_2":"振内町"},"0550412":{"post_code":"0550412","prefecture":"HOKKAIDO","city":"SARU GUN BIRATORI CHO","town":"HOROKESHI","perfecture_jp":"北海道","jp_add_1":"沙流郡平取町","jp_add_2":"幌毛志"},"0550107":{"post_code":"0550107","prefecture":"HOKKAIDO","city":"SARU GUN BIRATORI CHO","town":"HONCHO","perfecture_jp":"北海道","jp_add_1":"沙流郡平取町","jp_add_2":"本町"},"0550323":{"post_code":"0550323","prefecture":"HOKKAIDO","city":"SARU GUN BIRATORI CHO","town":"MEMU","perfecture_jp":"北海道","jp_add_1":"沙流郡平取町","jp_add_2":"芽生"}}