{"0560000":{"post_code":"0560000","prefecture":"HOKKAIDO","city":"HIDAKA GUN SHINHIDAKA CHO","town":"IKANIKEISAIGANAIBAAI","perfecture_jp":"北海道","jp_add_1":"日高郡新ひだか町","jp_add_2":""},"0560019":{"post_code":"0560019","prefecture":"HOKKAIDO","city":"HIDAKA GUN SHINHIDAKA CHO","town":"SHIZUNAI AOYAGICHO","perfecture_jp":"北海道","jp_add_1":"日高郡新ひだか町","jp_add_2":"静内青柳町"},"0560003":{"post_code":"0560003","prefecture":"HOKKAIDO","city":"HIDAKA GUN SHINHIDAKA CHO","town":"SHIZUNAI ASAHICHO","perfecture_jp":"北海道","jp_add_1":"日高郡新ひだか町","jp_add_2":"静内旭町"},"0560013":{"post_code":"0560013","prefecture":"HOKKAIDO","city":"HIDAKA GUN SHINHIDAKA CHO","town":"SHIZUNAI IRIFUNECHO","perfecture_jp":"北海道","jp_add_1":"日高郡新ひだか町","jp_add_2":"静内入船町"},"0560015":{"post_code":"0560015","prefecture":"HOKKAIDO","city":"HIDAKA GUN SHINHIDAKA CHO","town":"SHIZUNAI KAIGANCHO","perfecture_jp":"北海道","jp_add_1":"日高郡新ひだか町","jp_add_2":"静内海岸町"},"0560028":{"post_code":"0560028","prefecture":"HOKKAIDO","city":"HIDAKA GUN SHINHIDAKA CHO","town":"SHIZUNAI KASHIWADAI","perfecture_jp":"北海道","jp_add_1":"日高郡新ひだか町","jp_add_2":"静内柏台"},"0560002":{"post_code":"0560002","prefecture":"HOKKAIDO","city":"HIDAKA GUN SHINHIDAKA CHO","town":"SHIZUNAI KAMIMORI","perfecture_jp":"北海道","jp_add_1":"日高郡新ひだか町","jp_add_2":"静内神森"},"0560025":{"post_code":"0560025","prefecture":"HOKKAIDO","city":"HIDAKA GUN SHINHIDAKA CHO","town":"SHIZUNAI KIBACHO","perfecture_jp":"北海道","jp_add_1":"日高郡新ひだか町","jp_add_2":"静内木場町"},"0560005":{"post_code":"0560005","prefecture":"HOKKAIDO","city":"HIDAKA GUN SHINHIDAKA CHO","town":"SHIZUNAI KOSEICHO","perfecture_jp":"北海道","jp_add_1":"日高郡新ひだか町","jp_add_2":"静内こうせい町"},"0560027":{"post_code":"0560027","prefecture":"HOKKAIDO","city":"HIDAKA GUN SHINHIDAKA CHO","town":"SHIZUNAI KOMABA","perfecture_jp":"北海道","jp_add_1":"日高郡新ひだか町","jp_add_2":"静内駒場"},"0560007":{"post_code":"0560007","prefecture":"HOKKAIDO","city":"HIDAKA GUN SHINHIDAKA CHO","town":"SHIZUNAI SHIMIZUOKA","perfecture_jp":"北海道","jp_add_1":"日高郡新ひだか町","jp_add_2":"静内清水丘"},"0560026":{"post_code":"0560026","prefecture":"HOKKAIDO","city":"HIDAKA GUN SHINHIDAKA CHO","town":"SHIZUNAI SUEHIROCHO","perfecture_jp":"北海道","jp_add_1":"日高郡新ひだか町","jp_add_2":"静内末広町"},"0560022":{"post_code":"0560022","prefecture":"HOKKAIDO","city":"HIDAKA GUN SHINHIDAKA CHO","town":"SHIZUNAI TAKASAGOCHO","perfecture_jp":"北海道","jp_add_1":"日高郡新ひだか町","jp_add_2":"静内高砂町"},"0560146":{"post_code":"0560146","prefecture":"HOKKAIDO","city":"HIDAKA GUN SHINHIDAKA CHO","town":"SHIZUNAI TAKAMI","perfecture_jp":"北海道","jp_add_1":"日高郡新ひだか町","jp_add_2":"静内高見"},"0560144":{"post_code":"0560144","prefecture":"HOKKAIDO","city":"HIDAKA GUN SHINHIDAKA CHO","town":"SHIZUNAI TAHARA","perfecture_jp":"北海道","jp_add_1":"日高郡新ひだか町","jp_add_2":"静内田原"},"0560023":{"post_code":"0560023","prefecture":"HOKKAIDO","city":"HIDAKA GUN SHINHIDAKA CHO","town":"SHIZUNAI TOKIWACHO","perfecture_jp":"北海道","jp_add_1":"日高郡新ひだか町","jp_add_2":"静内ときわ町"},"0560143":{"post_code":"0560143","prefecture":"HOKKAIDO","city":"HIDAKA GUN SHINHIDAKA CHO","town":"SHIZUNAI TOYOHATA","perfecture_jp":"北海道","jp_add_1":"日高郡新ひだか町","jp_add_2":"静内豊畑"},"0560006":{"post_code":"0560006","prefecture":"HOKKAIDO","city":"HIDAKA GUN SHINHIDAKA CHO","town":"SHIZUNAI NAKANOCHO","perfecture_jp":"北海道","jp_add_1":"日高郡新ひだか町","jp_add_2":"静内中野町"},"0560142":{"post_code":"0560142","prefecture":"HOKKAIDO","city":"HIDAKA GUN SHINHIDAKA CHO","town":"SHIZUNAI NOYA","perfecture_jp":"北海道","jp_add_1":"日高郡新ひだか町","jp_add_2":"静内農屋"},"0560021":{"post_code":"0560021","prefecture":"HOKKAIDO","city":"HIDAKA GUN SHINHIDAKA CHO","town":"SHIZUNAI HANAZONO","perfecture_jp":"北海道","jp_add_1":"日高郡新ひだか町","jp_add_2":"静内花園"},"0560014":{"post_code":"0560014","prefecture":"HOKKAIDO","city":"HIDAKA GUN SHINHIDAKA CHO","town":"SHIZUNAI FURUKAWACHO","perfecture_jp":"北海道","jp_add_1":"日高郡新ひだか町","jp_add_2":"静内古川町"},"0560016":{"post_code":"0560016","prefecture":"HOKKAIDO","city":"HIDAKA GUN SHINHIDAKA CHO","town":"SHIZUNAI HONCHO","perfecture_jp":"北海道","jp_add_1":"日高郡新ひだか町","jp_add_2":"静内本町"},"0560011":{"post_code":"0560011","prefecture":"HOKKAIDO","city":"HIDAKA GUN SHINHIDAKA CHO","town":"SHIZUNAI MAUTA","perfecture_jp":"北海道","jp_add_1":"日高郡新ひだか町","jp_add_2":"静内真歌"},"0560141":{"post_code":"0560141","prefecture":"HOKKAIDO","city":"HIDAKA GUN SHINHIDAKA CHO","town":"SHIZUNAI MISONO","perfecture_jp":"北海道","jp_add_1":"日高郡新ひだか町","jp_add_2":"静内御園"},"0560004":{"post_code":"0560004","prefecture":"HOKKAIDO","city":"HIDAKA GUN SHINHIDAKA CHO","town":"SHIZUNAI MIDORICHO","perfecture_jp":"北海道","jp_add_1":"日高郡新ひだか町","jp_add_2":"静内緑町"},"0560017":{"post_code":"0560017","prefecture":"HOKKAIDO","city":"HIDAKA GUN SHINHIDAKA CHO","town":"SHIZUNAI MIYUKICHO","perfecture_jp":"北海道","jp_add_1":"日高郡新ひだか町","jp_add_2":"静内御幸町"},"0560145":{"post_code":"0560145","prefecture":"HOKKAIDO","city":"HIDAKA GUN SHINHIDAKA CHO","town":"SHIZUNAI MENA(18.127.453.465-2.466.","perfecture_jp":"北海道","jp_add_1":"日高郡新ひだか町","jp_add_2":"静内目名"},"0560001":{"post_code":"0560001","prefecture":"HOKKAIDO","city":"HIDAKA GUN SHINHIDAKA CHO","town":"SHIZUNAI MENA(SONOTA)","perfecture_jp":"北海道","jp_add_1":"日高郡新ひだか町","jp_add_2":"静内目名"},"0560024":{"post_code":"0560024","prefecture":"HOKKAIDO","city":"HIDAKA GUN SHINHIDAKA CHO","town":"SHIZUNAI YAMATECHO","perfecture_jp":"北海道","jp_add_1":"日高郡新ひだか町","jp_add_2":"静内山手町"},"0560018":{"post_code":"0560018","prefecture":"HOKKAIDO","city":"HIDAKA GUN SHINHIDAKA CHO","town":"SHIZUNAI YOSHINOCHO","perfecture_jp":"北海道","jp_add_1":"日高郡新ひだか町","jp_add_2":"静内吉野町"}}