{"0612274":{"post_code":"0612274","prefecture":"HOKKAIDO","city":"SAPPORO SHI MINAMI KU","town":"KOGANEYU","perfecture_jp":"北海道","jp_add_1":"札幌市南区","jp_add_2":"小金湯"},"0612301":{"post_code":"0612301","prefecture":"HOKKAIDO","city":"SAPPORO SHI MINAMI KU","town":"JOZANKEI","perfecture_jp":"北海道","jp_add_1":"札幌市南区","jp_add_2":"定山渓"},"0612302":{"post_code":"0612302","prefecture":"HOKKAIDO","city":"SAPPORO SHI MINAMI KU","town":"JOZANKEIONSENHIGASHI","perfecture_jp":"北海道","jp_add_1":"札幌市南区","jp_add_2":"定山渓温泉東"},"0612303":{"post_code":"0612303","prefecture":"HOKKAIDO","city":"SAPPORO SHI MINAMI KU","town":"JOZANKEIONSENNISHI","perfecture_jp":"北海道","jp_add_1":"札幌市南区","jp_add_2":"定山渓温泉西"},"0612276":{"post_code":"0612276","prefecture":"HOKKAIDO","city":"SAPPORO SHI MINAMI KU","town":"SHIRAKAWA","perfecture_jp":"北海道","jp_add_1":"札幌市南区","jp_add_2":"白川"},"0612275":{"post_code":"0612275","prefecture":"HOKKAIDO","city":"SAPPORO SHI MINAMI KU","town":"TOYAMA","perfecture_jp":"北海道","jp_add_1":"札幌市南区","jp_add_2":"砥山"},"0612273":{"post_code":"0612273","prefecture":"HOKKAIDO","city":"SAPPORO SHI MINAMI KU","town":"TOYOTAKI","perfecture_jp":"北海道","jp_add_1":"札幌市南区","jp_add_2":"豊滝"},"0612271":{"post_code":"0612271","prefecture":"HOKKAIDO","city":"SAPPORO SHI MINAMI KU","town":"FUJINO(SONOTA)","perfecture_jp":"北海道","jp_add_1":"札幌市南区","jp_add_2":"藤野"},"0612281":{"post_code":"0612281","prefecture":"HOKKAIDO","city":"SAPPORO SHI MINAMI KU","town":"FUJINO1-JO","perfecture_jp":"北海道","jp_add_1":"札幌市南区","jp_add_2":"藤野一条"},"0612282":{"post_code":"0612282","prefecture":"HOKKAIDO","city":"SAPPORO SHI MINAMI KU","town":"FUJINO2-JO","perfecture_jp":"北海道","jp_add_1":"札幌市南区","jp_add_2":"藤野二条"},"0612283":{"post_code":"0612283","prefecture":"HOKKAIDO","city":"SAPPORO SHI MINAMI KU","town":"FUJINO3-JO","perfecture_jp":"北海道","jp_add_1":"札幌市南区","jp_add_2":"藤野三条"},"0612284":{"post_code":"0612284","prefecture":"HOKKAIDO","city":"SAPPORO SHI MINAMI KU","town":"FUJINO4-JO","perfecture_jp":"北海道","jp_add_1":"札幌市南区","jp_add_2":"藤野四条"},"0612285":{"post_code":"0612285","prefecture":"HOKKAIDO","city":"SAPPORO SHI MINAMI KU","town":"FUJINO5-JO","perfecture_jp":"北海道","jp_add_1":"札幌市南区","jp_add_2":"藤野五条"},"0612286":{"post_code":"0612286","prefecture":"HOKKAIDO","city":"SAPPORO SHI MINAMI KU","town":"FUJINO6-JO","perfecture_jp":"北海道","jp_add_1":"札幌市南区","jp_add_2":"藤野六条"},"0612261":{"post_code":"0612261","prefecture":"HOKKAIDO","city":"SAPPORO SHI MINAMI KU","town":"MISUMAI1-JO","perfecture_jp":"北海道","jp_add_1":"札幌市南区","jp_add_2":"簾舞一条"},"0612262":{"post_code":"0612262","prefecture":"HOKKAIDO","city":"SAPPORO SHI MINAMI KU","town":"MISUMAI2-JO","perfecture_jp":"北海道","jp_add_1":"札幌市南区","jp_add_2":"簾舞二条"},"0612263":{"post_code":"0612263","prefecture":"HOKKAIDO","city":"SAPPORO SHI MINAMI KU","town":"MISUMAI3-JO","perfecture_jp":"北海道","jp_add_1":"札幌市南区","jp_add_2":"簾舞三条"},"0612264":{"post_code":"0612264","prefecture":"HOKKAIDO","city":"SAPPORO SHI MINAMI KU","town":"MISUMAI4-JO","perfecture_jp":"北海道","jp_add_1":"札幌市南区","jp_add_2":"簾舞四条"},"0612265":{"post_code":"0612265","prefecture":"HOKKAIDO","city":"SAPPORO SHI MINAMI KU","town":"MISUMAI5-JO","perfecture_jp":"北海道","jp_add_1":"札幌市南区","jp_add_2":"簾舞五条"},"0612266":{"post_code":"0612266","prefecture":"HOKKAIDO","city":"SAPPORO SHI MINAMI KU","town":"MISUMAI6-JO","perfecture_jp":"北海道","jp_add_1":"札幌市南区","jp_add_2":"簾舞六条"},"0612272":{"post_code":"0612272","prefecture":"HOKKAIDO","city":"SAPPORO SHI MINAMI KU","town":"MISUMAI(SONOTA)","perfecture_jp":"北海道","jp_add_1":"札幌市南区","jp_add_2":"簾舞"},"0613271":{"post_code":"0613271","prefecture":"HOKKAIDO","city":"OTARU SHI","town":"ZENIBAKO(4-5-CHOME)","perfecture_jp":"北海道","jp_add_1":"小樽市","jp_add_2":"銭函"},"0611400":{"post_code":"0611400","prefecture":"HOKKAIDO","city":"ENIWA SHI","town":"IKANIKEISAIGANAIBAAI","perfecture_jp":"北海道","jp_add_1":"恵庭市","jp_add_2":""},"0611448":{"post_code":"0611448","prefecture":"HOKKAIDO","city":"ENIWA SHI","town":"AIOIMACHI","perfecture_jp":"北海道","jp_add_1":"恵庭市","jp_add_2":"相生町"},"0611431":{"post_code":"0611431","prefecture":"HOKKAIDO","city":"ENIWA SHI","town":"ARIAKECHO","perfecture_jp":"北海道","jp_add_1":"恵庭市","jp_add_2":"有明町"},"0611401":{"post_code":"0611401","prefecture":"HOKKAIDO","city":"ENIWA SHI","town":"IZARIBUTO","perfecture_jp":"北海道","jp_add_1":"恵庭市","jp_add_2":"漁太"},"0611414":{"post_code":"0611414","prefecture":"HOKKAIDO","city":"ENIWA SHI","town":"IZARIMACHI","perfecture_jp":"北海道","jp_add_1":"恵庭市","jp_add_2":"漁町"},"0611415":{"post_code":"0611415","prefecture":"HOKKAIDO","city":"ENIWA SHI","town":"IZUMIMACHI","perfecture_jp":"北海道","jp_add_1":"恵庭市","jp_add_2":"泉町"},"0611411":{"post_code":"0611411","prefecture":"HOKKAIDO","city":"ENIWA SHI","town":"ENAMI","perfecture_jp":"北海道","jp_add_1":"恵庭市","jp_add_2":"恵南"},"0611424":{"post_code":"0611424","prefecture":"HOKKAIDO","city":"ENIWA SHI","town":"OMACHI","perfecture_jp":"北海道","jp_add_1":"恵庭市","jp_add_2":"大町"},"0611423":{"post_code":"0611423","prefecture":"HOKKAIDO","city":"ENIWA SHI","town":"KASHIWAGICHO","perfecture_jp":"北海道","jp_add_1":"恵庭市","jp_add_2":"柏木町"},"0611402":{"post_code":"0611402","prefecture":"HOKKAIDO","city":"ENIWA SHI","town":"KASUGA","perfecture_jp":"北海道","jp_add_1":"恵庭市","jp_add_2":"春日"},"0611404":{"post_code":"0611404","prefecture":"HOKKAIDO","city":"ENIWA SHI","town":"KAMIYAMAGUCHI","perfecture_jp":"北海道","jp_add_1":"恵庭市","jp_add_2":"上山口"},"0611433":{"post_code":"0611433","prefecture":"HOKKAIDO","city":"ENIWA SHI","town":"KITAKASHIWAGICHO","perfecture_jp":"北海道","jp_add_1":"恵庭市","jp_add_2":"北柏木町"},"0611366":{"post_code":"0611366","prefecture":"HOKKAIDO","city":"ENIWA SHI","town":"KITAJIMA","perfecture_jp":"北海道","jp_add_1":"恵庭市","jp_add_2":"北島"},"0611444":{"post_code":"0611444","prefecture":"HOKKAIDO","city":"ENIWA SHI","town":"KYOMACHI","perfecture_jp":"北海道","jp_add_1":"恵庭市","jp_add_2":"京町"},"0611432":{"post_code":"0611432","prefecture":"HOKKAIDO","city":"ENIWA SHI","town":"KEIOCHO","perfecture_jp":"北海道","jp_add_1":"恵庭市","jp_add_2":"恵央町"},"0611449":{"post_code":"0611449","prefecture":"HOKKAIDO","city":"ENIWA SHI","town":"KOGANECHUO","perfecture_jp":"北海道","jp_add_1":"恵庭市","jp_add_2":"黄金中央"},"0611407":{"post_code":"0611407","prefecture":"HOKKAIDO","city":"ENIWA SHI","town":"KOGANEKITA","perfecture_jp":"北海道","jp_add_1":"恵庭市","jp_add_2":"黄金北"},"0611409":{"post_code":"0611409","prefecture":"HOKKAIDO","city":"ENIWA SHI","town":"KOGANEMINAMI","perfecture_jp":"北海道","jp_add_1":"恵庭市","jp_add_2":"黄金南"},"0611417":{"post_code":"0611417","prefecture":"HOKKAIDO","city":"ENIWA SHI","town":"KOMABACHO","perfecture_jp":"北海道","jp_add_1":"恵庭市","jp_add_2":"駒場町"},"0611426":{"post_code":"0611426","prefecture":"HOKKAIDO","city":"ENIWA SHI","town":"SAIWAICHO","perfecture_jp":"北海道","jp_add_1":"恵庭市","jp_add_2":"幸町"},"0611443":{"post_code":"0611443","prefecture":"HOKKAIDO","city":"ENIWA SHI","town":"SAKAEMACHI","perfecture_jp":"北海道","jp_add_1":"恵庭市","jp_add_2":"栄恵町"},"0611416":{"post_code":"0611416","prefecture":"HOKKAIDO","city":"ENIWA SHI","town":"SAKURAMACHI","perfecture_jp":"北海道","jp_add_1":"恵庭市","jp_add_2":"桜町"},"0611363":{"post_code":"0611363","prefecture":"HOKKAIDO","city":"ENIWA SHI","town":"SHIMAMATSUZAWA","perfecture_jp":"北海道","jp_add_1":"恵庭市","jp_add_2":"桜森"},"0611354":{"post_code":"0611354","prefecture":"HOKKAIDO","city":"ENIWA SHI","town":"SHIMAMATSU ASAHIMACHI","perfecture_jp":"北海道","jp_add_1":"恵庭市","jp_add_2":"島松旭町"},"0611355":{"post_code":"0611355","prefecture":"HOKKAIDO","city":"ENIWA SHI","town":"SHIMAMATSU KOTOBUKICHO","perfecture_jp":"北海道","jp_add_1":"恵庭市","jp_add_2":"島松寿町"},"0611352":{"post_code":"0611352","prefecture":"HOKKAIDO","city":"ENIWA SHI","town":"SHIMAMATSU NAKAMACHI","perfecture_jp":"北海道","jp_add_1":"恵庭市","jp_add_2":"島松仲町"},"0611351":{"post_code":"0611351","prefecture":"HOKKAIDO","city":"ENIWA SHI","town":"SHIMAMATSU HIGASHIMACHI","perfecture_jp":"北海道","jp_add_1":"恵庭市","jp_add_2":"島松東町"},"0611353":{"post_code":"0611353","prefecture":"HOKKAIDO","city":"ENIWA SHI","town":"SHIMAMATSU HOMMACHI","perfecture_jp":"北海道","jp_add_1":"恵庭市","jp_add_2":"島松本町"},"0611364":{"post_code":"0611364","prefecture":"HOKKAIDO","city":"ENIWA SHI","town":"SHIMOSHIMAMATSU","perfecture_jp":"北海道","jp_add_1":"恵庭市","jp_add_2":"下島松"},"0611412":{"post_code":"0611412","prefecture":"HOKKAIDO","city":"ENIWA SHI","town":"SHIRAKABACHO","perfecture_jp":"北海道","jp_add_1":"恵庭市","jp_add_2":"白樺町"},"0611445":{"post_code":"0611445","prefecture":"HOKKAIDO","city":"ENIWA SHI","town":"SHIMMACHI","perfecture_jp":"北海道","jp_add_1":"恵庭市","jp_add_2":"新町"},"0611446":{"post_code":"0611446","prefecture":"HOKKAIDO","city":"ENIWA SHI","town":"SUEHIROMACHI","perfecture_jp":"北海道","jp_add_1":"恵庭市","jp_add_2":"末広町"},"0611441":{"post_code":"0611441","prefecture":"HOKKAIDO","city":"ENIWA SHI","town":"SUMIYOSHICHO","perfecture_jp":"北海道","jp_add_1":"恵庭市","jp_add_2":"住吉町"},"0611403":{"post_code":"0611403","prefecture":"HOKKAIDO","city":"ENIWA SHI","town":"CHUO","perfecture_jp":"北海道","jp_add_1":"恵庭市","jp_add_2":"中央"},"0611405":{"post_code":"0611405","prefecture":"HOKKAIDO","city":"ENIWA SHI","town":"TOISO","perfecture_jp":"北海道","jp_add_1":"恵庭市","jp_add_2":"戸磯"},"0611362":{"post_code":"0611362","prefecture":"HOKKAIDO","city":"ENIWA SHI","town":"NAKASHIMAMATSU","perfecture_jp":"北海道","jp_add_1":"恵庭市","jp_add_2":"中島松"},"0611435":{"post_code":"0611435","prefecture":"HOKKAIDO","city":"ENIWA SHI","town":"NAKAJIMACHO","perfecture_jp":"北海道","jp_add_1":"恵庭市","jp_add_2":"中島町"},"0611356":{"post_code":"0611356","prefecture":"HOKKAIDO","city":"ENIWA SHI","town":"NISHISHIMAMATSU","perfecture_jp":"北海道","jp_add_1":"恵庭市","jp_add_2":"西島松"},"0611434":{"post_code":"0611434","prefecture":"HOKKAIDO","city":"ENIWA SHI","town":"HAKUYOCHO","perfecture_jp":"北海道","jp_add_1":"恵庭市","jp_add_2":"柏陽町"},"0611361":{"post_code":"0611361","prefecture":"HOKKAIDO","city":"ENIWA SHI","town":"HAYASHIDA","perfecture_jp":"北海道","jp_add_1":"恵庭市","jp_add_2":"林田"},"0611422":{"post_code":"0611422","prefecture":"HOKKAIDO","city":"ENIWA SHI","town":"BANJIRI","perfecture_jp":"北海道","jp_add_1":"恵庭市","jp_add_2":"盤尻"},"0611447":{"post_code":"0611447","prefecture":"HOKKAIDO","city":"ENIWA SHI","town":"FUKUZUMICHO","perfecture_jp":"北海道","jp_add_1":"恵庭市","jp_add_2":"福住町"},"0611425":{"post_code":"0611425","prefecture":"HOKKAIDO","city":"ENIWA SHI","town":"BUNKYOCHO","perfecture_jp":"北海道","jp_add_1":"恵庭市","jp_add_2":"文京町"},"0611365":{"post_code":"0611365","prefecture":"HOKKAIDO","city":"ENIWA SHI","town":"HOEI","perfecture_jp":"北海道","jp_add_1":"恵庭市","jp_add_2":"穂栄"},"0611421":{"post_code":"0611421","prefecture":"HOKKAIDO","city":"ENIWA SHI","town":"MAKIBA","perfecture_jp":"北海道","jp_add_1":"恵庭市","jp_add_2":"牧場"},"0611427":{"post_code":"0611427","prefecture":"HOKKAIDO","city":"ENIWA SHI","town":"MISAKINO","perfecture_jp":"北海道","jp_add_1":"恵庭市","jp_add_2":"美咲野"},"0611442":{"post_code":"0611442","prefecture":"HOKKAIDO","city":"ENIWA SHI","town":"MIDORIMACHI","perfecture_jp":"北海道","jp_add_1":"恵庭市","jp_add_2":"緑町"},"0611375":{"post_code":"0611375","prefecture":"HOKKAIDO","city":"ENIWA SHI","town":"MINAMISHIMAMATSU","perfecture_jp":"北海道","jp_add_1":"恵庭市","jp_add_2":"南島松"},"0611371":{"post_code":"0611371","prefecture":"HOKKAIDO","city":"ENIWA SHI","town":"MEGUMINO HIGASHI","perfecture_jp":"北海道","jp_add_1":"恵庭市","jp_add_2":"恵み野東"},"0611373":{"post_code":"0611373","prefecture":"HOKKAIDO","city":"ENIWA SHI","town":"MEGUMINO NISHI","perfecture_jp":"北海道","jp_add_1":"恵庭市","jp_add_2":"恵み野西"},"0611372":{"post_code":"0611372","prefecture":"HOKKAIDO","city":"ENIWA SHI","town":"MEGUMINO MINAMI","perfecture_jp":"北海道","jp_add_1":"恵庭市","jp_add_2":"恵み野南"},"0611374":{"post_code":"0611374","prefecture":"HOKKAIDO","city":"ENIWA SHI","town":"MEGUMINO KITA","perfecture_jp":"北海道","jp_add_1":"恵庭市","jp_add_2":"恵み野北"},"0611376":{"post_code":"0611376","prefecture":"HOKKAIDO","city":"ENIWA SHI","town":"MEGUMINOSATOMI","perfecture_jp":"北海道","jp_add_1":"恵庭市","jp_add_2":"恵み野里美"},"0611413":{"post_code":"0611413","prefecture":"HOKKAIDO","city":"ENIWA SHI","town":"MOTOMACHI","perfecture_jp":"北海道","jp_add_1":"恵庭市","jp_add_2":"本町"},"0611406":{"post_code":"0611406","prefecture":"HOKKAIDO","city":"ENIWA SHI","town":"WAKOCHO","perfecture_jp":"北海道","jp_add_1":"恵庭市","jp_add_2":"和光町"},"0611100":{"post_code":"0611100","prefecture":"HOKKAIDO","city":"KITAHIROSHIMA SHI","town":"IKANIKEISAIGANAIBAAI","perfecture_jp":"北海道","jp_add_1":"北広島市","jp_add_2":""},"0611141":{"post_code":"0611141","prefecture":"HOKKAIDO","city":"KITAHIROSHIMA SHI","town":"AOBACHO","perfecture_jp":"北海道","jp_add_1":"北広島市","jp_add_2":"青葉町"},"0611123":{"post_code":"0611123","prefecture":"HOKKAIDO","city":"KITAHIROSHIMA SHI","town":"ASAHICHO","perfecture_jp":"北海道","jp_add_1":"北広島市","jp_add_2":"朝日町"},"0611145":{"post_code":"0611145","prefecture":"HOKKAIDO","city":"KITAHIROSHIMA SHI","town":"IZUMICHO","perfecture_jp":"北海道","jp_add_1":"北広島市","jp_add_2":"泉町"},"0611125":{"post_code":"0611125","prefecture":"HOKKAIDO","city":"KITAHIROSHIMA SHI","town":"INAHOCHOHIGASHI","perfecture_jp":"北海道","jp_add_1":"北広島市","jp_add_2":"稲穂町東"},"0611124":{"post_code":"0611124","prefecture":"HOKKAIDO","city":"KITAHIROSHIMA SHI","town":"INAHOCHONISHI","perfecture_jp":"北海道","jp_add_1":"北広島市","jp_add_2":"稲穂町西"},"0611270":{"post_code":"0611270","prefecture":"HOKKAIDO","city":"KITAHIROSHIMA SHI","town":"OMAGARI","perfecture_jp":"北海道","jp_add_1":"北広島市","jp_add_2":"大曲"},"0611274":{"post_code":"0611274","prefecture":"HOKKAIDO","city":"KITAHIROSHIMA SHI","town":"OMAGARIKOGYODANCHI","perfecture_jp":"北海道","jp_add_1":"北広島市","jp_add_2":"大曲工業団地"},"0611278":{"post_code":"0611278","prefecture":"HOKKAIDO","city":"KITAHIROSHIMA SHI","town":"OMAGARISAIWAICHO","perfecture_jp":"北海道","jp_add_1":"北広島市","jp_add_2":"大曲幸町"},"0611272":{"post_code":"0611272","prefecture":"HOKKAIDO","city":"KITAHIROSHIMA SHI","town":"OMAGARISUEHIRO","perfecture_jp":"北海道","jp_add_1":"北広島市","jp_add_2":"大曲末広"},"0611271":{"post_code":"0611271","prefecture":"HOKKAIDO","city":"KITAHIROSHIMA SHI","town":"OMAGARICHUO","perfecture_jp":"北海道","jp_add_1":"北広島市","jp_add_2":"大曲中央"},"0611279":{"post_code":"0611279","prefecture":"HOKKAIDO","city":"KITAHIROSHIMA SHI","town":"OMAGARINAMIKI","perfecture_jp":"北海道","jp_add_1":"北広島市","jp_add_2":"大曲並木"},"0611273":{"post_code":"0611273","prefecture":"HOKKAIDO","city":"KITAHIROSHIMA SHI","town":"OMAGARIHAKUYO","perfecture_jp":"北海道","jp_add_1":"北広島市","jp_add_2":"大曲柏葉"},"0611277":{"post_code":"0611277","prefecture":"HOKKAIDO","city":"KITAHIROSHIMA SHI","town":"OMAGARIHIKARI","perfecture_jp":"北海道","jp_add_1":"北広島市","jp_add_2":"大曲光"},"0611276":{"post_code":"0611276","prefecture":"HOKKAIDO","city":"KITAHIROSHIMA SHI","town":"OMAGARIMIDORIGAOKA","perfecture_jp":"北海道","jp_add_1":"北広島市","jp_add_2":"大曲緑ケ丘"},"0611275":{"post_code":"0611275","prefecture":"HOKKAIDO","city":"KITAHIROSHIMA SHI","town":"OMAGARIMINAMIGAOKA","perfecture_jp":"北海道","jp_add_1":"北広島市","jp_add_2":"大曲南ケ丘"},"0611111":{"post_code":"0611111","prefecture":"HOKKAIDO","city":"KITAHIROSHIMA SHI","town":"KITANOSATO","perfecture_jp":"北海道","jp_add_1":"北広島市","jp_add_2":"北の里"},"0611261":{"post_code":"0611261","prefecture":"HOKKAIDO","city":"KITAHIROSHIMA SHI","town":"KIBOGAOKA","perfecture_jp":"北海道","jp_add_1":"北広島市","jp_add_2":"希望ケ丘"},"0611112":{"post_code":"0611112","prefecture":"HOKKAIDO","city":"KITAHIROSHIMA SHI","town":"KYOEI","perfecture_jp":"北海道","jp_add_1":"北広島市","jp_add_2":"共栄"},"0611113":{"post_code":"0611113","prefecture":"HOKKAIDO","city":"KITAHIROSHIMA SHI","town":"KYOEICHO","perfecture_jp":"北海道","jp_add_1":"北広島市","jp_add_2":"共栄町"},"0611134":{"post_code":"0611134","prefecture":"HOKKAIDO","city":"KITAHIROSHIMA SHI","town":"KOYOCHO","perfecture_jp":"北海道","jp_add_1":"北広島市","jp_add_2":"広葉町"},"0611133":{"post_code":"0611133","prefecture":"HOKKAIDO","city":"KITAHIROSHIMA SHI","town":"SAKAECHO","perfecture_jp":"北海道","jp_add_1":"北広島市","jp_add_2":"栄町"},"0611147":{"post_code":"0611147","prefecture":"HOKKAIDO","city":"KITAHIROSHIMA SHI","town":"SATOMICHO","perfecture_jp":"北海道","jp_add_1":"北広島市","jp_add_2":"里見町"},"0611265":{"post_code":"0611265","prefecture":"HOKKAIDO","city":"KITAHIROSHIMA SHI","town":"SHIMAMATSU","perfecture_jp":"北海道","jp_add_1":"北広島市","jp_add_2":"島松"},"0611144":{"post_code":"0611144","prefecture":"HOKKAIDO","city":"KITAHIROSHIMA SHI","town":"SHIRAKABACHO","perfecture_jp":"北海道","jp_add_1":"北広島市","jp_add_2":"白樺町"},"0611126":{"post_code":"0611126","prefecture":"HOKKAIDO","city":"KITAHIROSHIMA SHI","town":"SHINTOMICHOHIGASHI","perfecture_jp":"北海道","jp_add_1":"北広島市","jp_add_2":"新富町東"},"0611127":{"post_code":"0611127","prefecture":"HOKKAIDO","city":"KITAHIROSHIMA SHI","town":"SHINTOMICHONISHI","perfecture_jp":"北海道","jp_add_1":"北広島市","jp_add_2":"新富町西"},"0611146":{"post_code":"0611146","prefecture":"HOKKAIDO","city":"KITAHIROSHIMA SHI","town":"TAKADAICHO","perfecture_jp":"北海道","jp_add_1":"北広島市","jp_add_2":"高台町"},"0611121":{"post_code":"0611121","prefecture":"HOKKAIDO","city":"KITAHIROSHIMA SHI","town":"CHUO","perfecture_jp":"北海道","jp_add_1":"北広島市","jp_add_2":"中央"},"0611135":{"post_code":"0611135","prefecture":"HOKKAIDO","city":"KITAHIROSHIMA SHI","town":"TERUMICHO","perfecture_jp":"北海道","jp_add_1":"北広島市","jp_add_2":"輝美町"},"0611153":{"post_code":"0611153","prefecture":"HOKKAIDO","city":"KITAHIROSHIMA SHI","town":"TOMIGAOKA","perfecture_jp":"北海道","jp_add_1":"北広島市","jp_add_2":"富ケ岡"},"0611152":{"post_code":"0611152","prefecture":"HOKKAIDO","city":"KITAHIROSHIMA SHI","town":"NAKANOSAWA(557-736-BANCHI)","perfecture_jp":"北海道","jp_add_1":"北広島市","jp_add_2":"中の沢"},"0611101":{"post_code":"0611101","prefecture":"HOKKAIDO","city":"KITAHIROSHIMA SHI","town":"NAKANOSAWA(SONOTA)","perfecture_jp":"北海道","jp_add_1":"北広島市","jp_add_2":"中の沢"},"0611103":{"post_code":"0611103","prefecture":"HOKKAIDO","city":"KITAHIROSHIMA SHI","town":"NIJIGAOKA","perfecture_jp":"北海道","jp_add_1":"北広島市","jp_add_2":"虹ケ丘"},"0611102":{"post_code":"0611102","prefecture":"HOKKAIDO","city":"KITAHIROSHIMA SHI","town":"NISHINOSATO","perfecture_jp":"北海道","jp_add_1":"北広島市","jp_add_2":"西の里"},"0611105":{"post_code":"0611105","prefecture":"HOKKAIDO","city":"KITAHIROSHIMA SHI","town":"NISHINOSATOHIGASHI","perfecture_jp":"北海道","jp_add_1":"北広島市","jp_add_2":"西の里東"},"0611106":{"post_code":"0611106","prefecture":"HOKKAIDO","city":"KITAHIROSHIMA SHI","town":"NISHINOSATOMINAMI","perfecture_jp":"北海道","jp_add_1":"北広島市","jp_add_2":"西の里南"},"0611104":{"post_code":"0611104","prefecture":"HOKKAIDO","city":"KITAHIROSHIMA SHI","town":"NISHINOSATOKITA","perfecture_jp":"北海道","jp_add_1":"北広島市","jp_add_2":"西の里北"},"0611267":{"post_code":"0611267","prefecture":"HOKKAIDO","city":"KITAHIROSHIMA SHI","town":"NIBETSU","perfecture_jp":"北海道","jp_add_1":"北広島市","jp_add_2":"仁別"},"0611114":{"post_code":"0611114","prefecture":"HOKKAIDO","city":"KITAHIROSHIMA SHI","town":"HIGASHIKYOEI","perfecture_jp":"北海道","jp_add_1":"北広島市","jp_add_2":"東共栄"},"0611151":{"post_code":"0611151","prefecture":"HOKKAIDO","city":"KITAHIROSHIMA SHI","town":"HIGASHINOSATO","perfecture_jp":"北海道","jp_add_1":"北広島市","jp_add_2":"東の里"},"0611122":{"post_code":"0611122","prefecture":"HOKKAIDO","city":"KITAHIROSHIMA SHI","town":"HIROSHIMA","perfecture_jp":"北海道","jp_add_1":"北広島市","jp_add_2":"広島"},"0611132":{"post_code":"0611132","prefecture":"HOKKAIDO","city":"KITAHIROSHIMA SHI","town":"HOKUSHINCHO","perfecture_jp":"北海道","jp_add_1":"北広島市","jp_add_2":"北進町"},"0611136":{"post_code":"0611136","prefecture":"HOKKAIDO","city":"KITAHIROSHIMA SHI","town":"MATSUBACHO","perfecture_jp":"北海道","jp_add_1":"北広島市","jp_add_2":"松葉町"},"0611115":{"post_code":"0611115","prefecture":"HOKKAIDO","city":"KITAHIROSHIMA SHI","town":"MISAKINO","perfecture_jp":"北海道","jp_add_1":"北広島市","jp_add_2":"美咲き野"},"0611131":{"post_code":"0611131","prefecture":"HOKKAIDO","city":"KITAHIROSHIMA SHI","town":"MISAWA","perfecture_jp":"北海道","jp_add_1":"北広島市","jp_add_2":"美沢"},"0611266":{"post_code":"0611266","prefecture":"HOKKAIDO","city":"KITAHIROSHIMA SHI","town":"MISHIMA","perfecture_jp":"北海道","jp_add_1":"北広島市","jp_add_2":"三島"},"0611143":{"post_code":"0611143","prefecture":"HOKKAIDO","city":"KITAHIROSHIMA SHI","town":"MINAMICHO","perfecture_jp":"北海道","jp_add_1":"北広島市","jp_add_2":"南町"},"0611154":{"post_code":"0611154","prefecture":"HOKKAIDO","city":"KITAHIROSHIMA SHI","town":"MINAMINOSATO","perfecture_jp":"北海道","jp_add_1":"北広島市","jp_add_2":"南の里"},"0611148":{"post_code":"0611148","prefecture":"HOKKAIDO","city":"KITAHIROSHIMA SHI","town":"YAMATECHO","perfecture_jp":"北海道","jp_add_1":"北広島市","jp_add_2":"山手町"},"0611137":{"post_code":"0611137","prefecture":"HOKKAIDO","city":"KITAHIROSHIMA SHI","town":"RYOKUYOCHO","perfecture_jp":"北海道","jp_add_1":"北広島市","jp_add_2":"緑陽町"},"0611264":{"post_code":"0611264","prefecture":"HOKKAIDO","city":"KITAHIROSHIMA SHI","town":"WATTSU","perfecture_jp":"北海道","jp_add_1":"北広島市","jp_add_2":"輪厚"},"0611281":{"post_code":"0611281","prefecture":"HOKKAIDO","city":"KITAHIROSHIMA SHI","town":"WATTSUKOGYODANCHI","perfecture_jp":"北海道","jp_add_1":"北広島市","jp_add_2":"輪厚工業団地"},"0611268":{"post_code":"0611268","prefecture":"HOKKAIDO","city":"KITAHIROSHIMA SHI","town":"WATTSUCHUO","perfecture_jp":"北海道","jp_add_1":"北広島市","jp_add_2":"輪厚中央"},"0611269":{"post_code":"0611269","prefecture":"HOKKAIDO","city":"KITAHIROSHIMA SHI","town":"WATTSUMOTOMACHI","perfecture_jp":"北海道","jp_add_1":"北広島市","jp_add_2":"輪厚元町"},"0611142":{"post_code":"0611142","prefecture":"HOKKAIDO","city":"KITAHIROSHIMA SHI","town":"WAKABACHO","perfecture_jp":"北海道","jp_add_1":"北広島市","jp_add_2":"若葉町"},"0613200":{"post_code":"0613200","prefecture":"HOKKAIDO","city":"ISHIKARI SHI","town":"IKANIKEISAIGANAIBAAI","perfecture_jp":"北海道","jp_add_1":"石狩市","jp_add_2":""},"0613601":{"post_code":"0613601","prefecture":"HOKKAIDO","city":"ISHIKARI SHI","town":"ATSUTAKU ATSUTA","perfecture_jp":"北海道","jp_add_1":"石狩市","jp_add_2":"厚田区厚田"},"0613602":{"post_code":"0613602","prefecture":"HOKKAIDO","city":"ISHIKARI SHI","town":"ATSUTAKU OSHIKOTO","perfecture_jp":"北海道","jp_add_1":"石狩市","jp_add_2":"厚田区押琴"},"0613151":{"post_code":"0613151","prefecture":"HOKKAIDO","city":"ISHIKARI SHI","town":"ATSUTAKU GOKIBIRU","perfecture_jp":"北海道","jp_add_1":"石狩市","jp_add_2":"厚田区濃昼"},"0613603":{"post_code":"0613603","prefecture":"HOKKAIDO","city":"ISHIKARI SHI","town":"ATSUTAKU KOTANI","perfecture_jp":"北海道","jp_add_1":"石狩市","jp_add_2":"厚田区小谷"},"0613521":{"post_code":"0613521","prefecture":"HOKKAIDO","city":"ISHIKARI SHI","town":"ATSUTAKU KOTAN","perfecture_jp":"北海道","jp_add_1":"石狩市","jp_add_2":"厚田区古潭"},"0613331":{"post_code":"0613331","prefecture":"HOKKAIDO","city":"ISHIKARI SHI","town":"ATSUTAKU SHIPPU (CHUO.SHIRATSUKARI)","perfecture_jp":"北海道","jp_add_1":"石狩市","jp_add_2":"厚田区聚富"},"0613441":{"post_code":"0613441","prefecture":"HOKKAIDO","city":"ISHIKARI SHI","town":"ATSUTAKU SHIPPU(SONOTA)","perfecture_jp":"北海道","jp_add_1":"石狩市","jp_add_2":"厚田区聚富"},"0613332":{"post_code":"0613332","prefecture":"HOKKAIDO","city":"ISHIKARI SHI","town":"ATSUTAKU NIJIGAHARA","perfecture_jp":"北海道","jp_add_1":"石狩市","jp_add_2":"厚田区虹が原"},"0613605":{"post_code":"0613605","prefecture":"HOKKAIDO","city":"ISHIKARI SHI","town":"ATSUTAKU BEKKARI","perfecture_jp":"北海道","jp_add_1":"石狩市","jp_add_2":"厚田区別狩"},"0613522":{"post_code":"0613522","prefecture":"HOKKAIDO","city":"ISHIKARI SHI","town":"ATSUTAKU MINETOMARI","perfecture_jp":"北海道","jp_add_1":"石狩市","jp_add_2":"厚田区嶺泊"},"0613523":{"post_code":"0613523","prefecture":"HOKKAIDO","city":"ISHIKARI SHI","town":"ATSUTAKU MORAI","perfecture_jp":"北海道","jp_add_1":"石狩市","jp_add_2":"厚田区望来"},"0613606":{"post_code":"0613606","prefecture":"HOKKAIDO","city":"ISHIKARI SHI","town":"ATSUTAKU YASOSUKE","perfecture_jp":"北海道","jp_add_1":"石狩市","jp_add_2":"厚田区安瀬"},"0613377":{"post_code":"0613377","prefecture":"HOKKAIDO","city":"ISHIKARI SHI","town":"OYAFUNECHO","perfecture_jp":"北海道","jp_add_1":"石狩市","jp_add_2":"親船町"},"0613365":{"post_code":"0613365","prefecture":"HOKKAIDO","city":"ISHIKARI SHI","town":"OYAFUNEHIGASHI1-JO","perfecture_jp":"北海道","jp_add_1":"石狩市","jp_add_2":"親船東一条"},"0613366":{"post_code":"0613366","prefecture":"HOKKAIDO","city":"ISHIKARI SHI","town":"OYAFUNEHIGASHI2-JO","perfecture_jp":"北海道","jp_add_1":"石狩市","jp_add_2":"親船東二条"},"0613367":{"post_code":"0613367","prefecture":"HOKKAIDO","city":"ISHIKARI SHI","town":"OYAFUNEHIGASHI3-JO","perfecture_jp":"北海道","jp_add_1":"石狩市","jp_add_2":"親船東三条"},"0613245":{"post_code":"0613245","prefecture":"HOKKAIDO","city":"ISHIKARI SHI","town":"OYAFURU","perfecture_jp":"北海道","jp_add_1":"石狩市","jp_add_2":"生振"},"0613362":{"post_code":"0613362","prefecture":"HOKKAIDO","city":"ISHIKARI SHI","town":"KITAOYAFURU","perfecture_jp":"北海道","jp_add_1":"石狩市","jp_add_2":"北生振"},"0613220":{"post_code":"0613220","prefecture":"HOKKAIDO","city":"ISHIKARI SHI","town":"SHIBI","perfecture_jp":"北海道","jp_add_1":"石狩市","jp_add_2":"志美"},"0613373":{"post_code":"0613373","prefecture":"HOKKAIDO","city":"ISHIKARI SHI","town":"SHIMMACHI","perfecture_jp":"北海道","jp_add_1":"石狩市","jp_add_2":"新町"},"0613242":{"post_code":"0613242","prefecture":"HOKKAIDO","city":"ISHIKARI SHI","town":"SHINKOCHUO","perfecture_jp":"北海道","jp_add_1":"石狩市","jp_add_2":"新港中央"},"0613243":{"post_code":"0613243","prefecture":"HOKKAIDO","city":"ISHIKARI SHI","town":"SHINKOHIGASHI","perfecture_jp":"北海道","jp_add_1":"石狩市","jp_add_2":"新港東"},"0613241":{"post_code":"0613241","prefecture":"HOKKAIDO","city":"ISHIKARI SHI","town":"SHINKONISHI","perfecture_jp":"北海道","jp_add_1":"石狩市","jp_add_2":"新港西"},"0613244":{"post_code":"0613244","prefecture":"HOKKAIDO","city":"ISHIKARI SHI","town":"SHINKOMINAMI","perfecture_jp":"北海道","jp_add_1":"石狩市","jp_add_2":"新港南"},"0613253":{"post_code":"0613253","prefecture":"HOKKAIDO","city":"ISHIKARI SHI","town":"TARUKAWA 3-JO","perfecture_jp":"北海道","jp_add_1":"石狩市","jp_add_2":"樽川三条"},"0613254":{"post_code":"0613254","prefecture":"HOKKAIDO","city":"ISHIKARI SHI","town":"TARUKAWA 4-JO","perfecture_jp":"北海道","jp_add_1":"石狩市","jp_add_2":"樽川四条"},"0613255":{"post_code":"0613255","prefecture":"HOKKAIDO","city":"ISHIKARI SHI","town":"TARUKAWA 5-JO","perfecture_jp":"北海道","jp_add_1":"石狩市","jp_add_2":"樽川五条"},"0613256":{"post_code":"0613256","prefecture":"HOKKAIDO","city":"ISHIKARI SHI","town":"TARUKAWA 6-JO","perfecture_jp":"北海道","jp_add_1":"石狩市","jp_add_2":"樽川六条"},"0613257":{"post_code":"0613257","prefecture":"HOKKAIDO","city":"ISHIKARI SHI","town":"TARUKAWA 7-JO","perfecture_jp":"北海道","jp_add_1":"石狩市","jp_add_2":"樽川七条"},"0613258":{"post_code":"0613258","prefecture":"HOKKAIDO","city":"ISHIKARI SHI","town":"TARUKAWA 8-JO","perfecture_jp":"北海道","jp_add_1":"石狩市","jp_add_2":"樽川八条"},"0613259":{"post_code":"0613259","prefecture":"HOKKAIDO","city":"ISHIKARI SHI","town":"TARUKAWA 9-JO","perfecture_jp":"北海道","jp_add_1":"石狩市","jp_add_2":"樽川九条"},"0613251":{"post_code":"0613251","prefecture":"HOKKAIDO","city":"ISHIKARI SHI","town":"TARUKAWA(SONOTA)","perfecture_jp":"北海道","jp_add_1":"石狩市","jp_add_2":"樽川"},"0613374":{"post_code":"0613374","prefecture":"HOKKAIDO","city":"ISHIKARI SHI","town":"NAKAMACHI","perfecture_jp":"北海道","jp_add_1":"石狩市","jp_add_2":"仲町"},"0613484":{"post_code":"0613484","prefecture":"HOKKAIDO","city":"ISHIKARI SHI","town":"HACHIMAN(5-CHOME1-BANCHI)","perfecture_jp":"北海道","jp_add_1":"石狩市","jp_add_2":"八幡"},"0613361":{"post_code":"0613361","prefecture":"HOKKAIDO","city":"ISHIKARI SHI","town":"HACHIMAN(SONOTA)","perfecture_jp":"北海道","jp_add_1":"石狩市","jp_add_2":"八幡"},"0613480":{"post_code":"0613480","prefecture":"HOKKAIDO","city":"ISHIKARI SHI","town":"HACHIMANCHO(GONOSAWA)","perfecture_jp":"北海道","jp_add_1":"石狩市","jp_add_2":"八幡町"},"0613481":{"post_code":"0613481","prefecture":"HOKKAIDO","city":"ISHIKARI SHI","town":"HACHIMANCHO(TAKAOKA)","perfecture_jp":"北海道","jp_add_1":"石狩市","jp_add_2":"八幡町"},"0613482":{"post_code":"0613482","prefecture":"HOKKAIDO","city":"ISHIKARI SHI","town":"HACHIMANCHO(SONOTA)","perfecture_jp":"北海道","jp_add_1":"石狩市","jp_add_2":"八幡町"},"0613219":{"post_code":"0613219","prefecture":"HOKKAIDO","city":"ISHIKARI SHI","town":"HANAKAWA","perfecture_jp":"北海道","jp_add_1":"石狩市","jp_add_2":"花川"},"0613211":{"post_code":"0613211","prefecture":"HOKKAIDO","city":"ISHIKARI SHI","town":"HANAKAWAKITA 1-JO","perfecture_jp":"北海道","jp_add_1":"石狩市","jp_add_2":"花川北一条"},"0613212":{"post_code":"0613212","prefecture":"HOKKAIDO","city":"ISHIKARI SHI","town":"HANAKAWAKITA 2-JO","perfecture_jp":"北海道","jp_add_1":"石狩市","jp_add_2":"花川北二条"},"0613213":{"post_code":"0613213","prefecture":"HOKKAIDO","city":"ISHIKARI SHI","town":"HANAKAWAKITA 3-JO","perfecture_jp":"北海道","jp_add_1":"石狩市","jp_add_2":"花川北三条"},"0613214":{"post_code":"0613214","prefecture":"HOKKAIDO","city":"ISHIKARI SHI","town":"HANAKAWAKITA 4-JO","perfecture_jp":"北海道","jp_add_1":"石狩市","jp_add_2":"花川北四条"},"0613215":{"post_code":"0613215","prefecture":"HOKKAIDO","city":"ISHIKARI SHI","town":"HANAKAWAKITA 5-JO","perfecture_jp":"北海道","jp_add_1":"石狩市","jp_add_2":"花川北五条"},"0613216":{"post_code":"0613216","prefecture":"HOKKAIDO","city":"ISHIKARI SHI","town":"HANAKAWAKITA 6-JO","perfecture_jp":"北海道","jp_add_1":"石狩市","jp_add_2":"花川北六条"},"0613217":{"post_code":"0613217","prefecture":"HOKKAIDO","city":"ISHIKARI SHI","town":"HANAKAWAKITA 7-JO","perfecture_jp":"北海道","jp_add_1":"石狩市","jp_add_2":"花川北七条"},"0613248":{"post_code":"0613248","prefecture":"HOKKAIDO","city":"ISHIKARI SHI","town":"HANAKAWAHIGASHI","perfecture_jp":"北海道","jp_add_1":"石狩市","jp_add_2":"花川東"},"0613261":{"post_code":"0613261","prefecture":"HOKKAIDO","city":"ISHIKARI SHI","town":"HANAKAWAHIGASHI 1-JO","perfecture_jp":"北海道","jp_add_1":"石狩市","jp_add_2":"花川東一条"},"0613262":{"post_code":"0613262","prefecture":"HOKKAIDO","city":"ISHIKARI SHI","town":"HANAKAWAHIGASHI 2-JO","perfecture_jp":"北海道","jp_add_1":"石狩市","jp_add_2":"花川東二条"},"0613210":{"post_code":"0613210","prefecture":"HOKKAIDO","city":"ISHIKARI SHI","town":"HANAKAWAMINAMI 10-JO","perfecture_jp":"北海道","jp_add_1":"石狩市","jp_add_2":"花川南十条"},"0613201":{"post_code":"0613201","prefecture":"HOKKAIDO","city":"ISHIKARI SHI","town":"HANAKAWAMINAMI 1-JO","perfecture_jp":"北海道","jp_add_1":"石狩市","jp_add_2":"花川南一条"},"0613202":{"post_code":"0613202","prefecture":"HOKKAIDO","city":"ISHIKARI SHI","town":"HANAKAWAMINAMI 2-JO","perfecture_jp":"北海道","jp_add_1":"石狩市","jp_add_2":"花川南二条"},"0613203":{"post_code":"0613203","prefecture":"HOKKAIDO","city":"ISHIKARI SHI","town":"HANAKAWAMINAMI 3-JO","perfecture_jp":"北海道","jp_add_1":"石狩市","jp_add_2":"花川南三条"},"0613204":{"post_code":"0613204","prefecture":"HOKKAIDO","city":"ISHIKARI SHI","town":"HANAKAWAMINAMI 4-JO","perfecture_jp":"北海道","jp_add_1":"石狩市","jp_add_2":"花川南四条"},"0613205":{"post_code":"0613205","prefecture":"HOKKAIDO","city":"ISHIKARI SHI","town":"HANAKAWAMINAMI 5-JO","perfecture_jp":"北海道","jp_add_1":"石狩市","jp_add_2":"花川南五条"},"0613206":{"post_code":"0613206","prefecture":"HOKKAIDO","city":"ISHIKARI SHI","town":"HANAKAWAMINAMI 6-JO","perfecture_jp":"北海道","jp_add_1":"石狩市","jp_add_2":"花川南六条"},"0613207":{"post_code":"0613207","prefecture":"HOKKAIDO","city":"ISHIKARI SHI","town":"HANAKAWAMINAMI 7-JO","perfecture_jp":"北海道","jp_add_1":"石狩市","jp_add_2":"花川南七条"},"0613208":{"post_code":"0613208","prefecture":"HOKKAIDO","city":"ISHIKARI SHI","town":"HANAKAWAMINAMI 8-JO","perfecture_jp":"北海道","jp_add_1":"石狩市","jp_add_2":"花川南八条"},"0613209":{"post_code":"0613209","prefecture":"HOKKAIDO","city":"ISHIKARI SHI","town":"HANAKAWAMINAMI 9-JO","perfecture_jp":"北海道","jp_add_1":"石狩市","jp_add_2":"花川南九条"},"0613112":{"post_code":"0613112","prefecture":"HOKKAIDO","city":"ISHIKARI SHI","town":"HAMAMASUKU OKURIGE","perfecture_jp":"北海道","jp_add_1":"石狩市","jp_add_2":"浜益区送毛"},"0613107":{"post_code":"0613107","prefecture":"HOKKAIDO","city":"ISHIKARI SHI","town":"HAMAMASUKU KASHIWAGI","perfecture_jp":"北海道","jp_add_1":"石狩市","jp_add_2":"浜益区柏木"},"0613106":{"post_code":"0613106","prefecture":"HOKKAIDO","city":"ISHIKARI SHI","town":"HAMAMASUKU KAWASHIMO","perfecture_jp":"北海道","jp_add_1":"石狩市","jp_add_2":"浜益区川下"},"0613102":{"post_code":"0613102","prefecture":"HOKKAIDO","city":"ISHIKARI SHI","town":"HAMAMASUKU KUMBETSU","perfecture_jp":"北海道","jp_add_1":"石狩市","jp_add_2":"浜益区群別"},"0613113":{"post_code":"0613113","prefecture":"HOKKAIDO","city":"ISHIKARI SHI","town":"HAMAMASUKU GOKIBIRU","perfecture_jp":"北海道","jp_add_1":"石狩市","jp_add_2":"浜益区濃昼"},"0613109":{"post_code":"0613109","prefecture":"HOKKAIDO","city":"ISHIKARI SHI","town":"HAMAMASUKU GORYOCHI","perfecture_jp":"北海道","jp_add_1":"石狩市","jp_add_2":"浜益区御料地"},"0613105":{"post_code":"0613105","prefecture":"HOKKAIDO","city":"ISHIKARI SHI","town":"HAMAMASUKU CHIYOSHIBETSU","perfecture_jp":"北海道","jp_add_1":"石狩市","jp_add_2":"浜益区千代志別"},"0613104":{"post_code":"0613104","prefecture":"HOKKAIDO","city":"ISHIKARI SHI","town":"HAMAMASUKU TOKOTAN","perfecture_jp":"北海道","jp_add_1":"石狩市","jp_add_2":"浜益区床丹"},"0613101":{"post_code":"0613101","prefecture":"HOKKAIDO","city":"ISHIKARI SHI","town":"HAMAMASUKU HAMAMASU","perfecture_jp":"北海道","jp_add_1":"石狩市","jp_add_2":"浜益区浜益"},"0613111":{"post_code":"0613111","prefecture":"HOKKAIDO","city":"ISHIKARI SHI","town":"HAMAMASUKU BISHABETSU","perfecture_jp":"北海道","jp_add_1":"石狩市","jp_add_2":"浜益区毘砂別"},"0613103":{"post_code":"0613103","prefecture":"HOKKAIDO","city":"ISHIKARI SHI","town":"HAMAMASUKU HORO","perfecture_jp":"北海道","jp_add_1":"石狩市","jp_add_2":"浜益区幌"},"0613108":{"post_code":"0613108","prefecture":"HOKKAIDO","city":"ISHIKARI SHI","town":"HAMAMASUKU MITA","perfecture_jp":"北海道","jp_add_1":"石狩市","jp_add_2":"浜益区実田"},"0613371":{"post_code":"0613371","prefecture":"HOKKAIDO","city":"ISHIKARI SHI","town":"HAMAMACHI","perfecture_jp":"北海道","jp_add_1":"石狩市","jp_add_2":"浜町"},"0613281":{"post_code":"0613281","prefecture":"HOKKAIDO","city":"ISHIKARI SHI","town":"BANNAGURO 1-JO","perfecture_jp":"北海道","jp_add_1":"石狩市","jp_add_2":"花畔一条"},"0613282":{"post_code":"0613282","prefecture":"HOKKAIDO","city":"ISHIKARI SHI","town":"BANNAGURO 2-JO","perfecture_jp":"北海道","jp_add_1":"石狩市","jp_add_2":"花畔二条"},"0613283":{"post_code":"0613283","prefecture":"HOKKAIDO","city":"ISHIKARI SHI","town":"BANNAGURO 3-JO","perfecture_jp":"北海道","jp_add_1":"石狩市","jp_add_2":"花畔三条"},"0613284":{"post_code":"0613284","prefecture":"HOKKAIDO","city":"ISHIKARI SHI","town":"BANNAGURO 4-JO","perfecture_jp":"北海道","jp_add_1":"石狩市","jp_add_2":"花畔四条"},"0613218":{"post_code":"0613218","prefecture":"HOKKAIDO","city":"ISHIKARI SHI","town":"BANNAGURO(SONOTA)","perfecture_jp":"北海道","jp_add_1":"石狩市","jp_add_2":"花畔"},"0613368":{"post_code":"0613368","prefecture":"HOKKAIDO","city":"ISHIKARI SHI","town":"BITOI","perfecture_jp":"北海道","jp_add_1":"石狩市","jp_add_2":"美登位"},"0613378":{"post_code":"0613378","prefecture":"HOKKAIDO","city":"ISHIKARI SHI","town":"FUNABACHO","perfecture_jp":"北海道","jp_add_1":"石狩市","jp_add_2":"船場町"},"0613372":{"post_code":"0613372","prefecture":"HOKKAIDO","city":"ISHIKARI SHI","town":"BENTENCHO","perfecture_jp":"北海道","jp_add_1":"石狩市","jp_add_2":"弁天町"},"0613375":{"post_code":"0613375","prefecture":"HOKKAIDO","city":"ISHIKARI SHI","town":"HONCHO","perfecture_jp":"北海道","jp_add_1":"石狩市","jp_add_2":"本町"},"0613483":{"post_code":"0613483","prefecture":"HOKKAIDO","city":"ISHIKARI SHI","town":"MIDORIGAHARA","perfecture_jp":"北海道","jp_add_1":"石狩市","jp_add_2":"緑ケ原"},"0613376":{"post_code":"0613376","prefecture":"HOKKAIDO","city":"ISHIKARI SHI","town":"YOKOMACHI","perfecture_jp":"北海道","jp_add_1":"石狩市","jp_add_2":"横町"},"0613230":{"post_code":"0613230","prefecture":"HOKKAIDO","city":"ISHIKARI SHI","town":"RYOKUENDAI CHUO","perfecture_jp":"北海道","jp_add_1":"石狩市","jp_add_2":"緑苑台中央"},"0613231":{"post_code":"0613231","prefecture":"HOKKAIDO","city":"ISHIKARI SHI","town":"RYOKUENDAINISHI 1-JO","perfecture_jp":"北海道","jp_add_1":"石狩市","jp_add_2":"緑苑台西一条"},"0613232":{"post_code":"0613232","prefecture":"HOKKAIDO","city":"ISHIKARI SHI","town":"RYOKUENDAINISHI 2-JO","perfecture_jp":"北海道","jp_add_1":"石狩市","jp_add_2":"緑苑台西二条"},"0613221":{"post_code":"0613221","prefecture":"HOKKAIDO","city":"ISHIKARI SHI","town":"RYOKUENDAIHIGASHI 1-JO","perfecture_jp":"北海道","jp_add_1":"石狩市","jp_add_2":"緑苑台東一条"},"0613222":{"post_code":"0613222","prefecture":"HOKKAIDO","city":"ISHIKARI SHI","town":"RYOKUENDAIHIGASHI 2-JO","perfecture_jp":"北海道","jp_add_1":"石狩市","jp_add_2":"緑苑台東二条"},"0613223":{"post_code":"0613223","prefecture":"HOKKAIDO","city":"ISHIKARI SHI","town":"RYOKUENDAIHIGASHI 3-JO","perfecture_jp":"北海道","jp_add_1":"石狩市","jp_add_2":"緑苑台東三条"},"0613363":{"post_code":"0613363","prefecture":"HOKKAIDO","city":"ISHIKARI SHI","town":"WAKAOICHO","perfecture_jp":"北海道","jp_add_1":"石狩市","jp_add_2":"若生町"},"0610200":{"post_code":"0610200","prefecture":"HOKKAIDO","city":"ISHIKARI GUN TOBETSU CHO","town":"IKANIKEISAIGANAIBAAI","perfecture_jp":"北海道","jp_add_1":"石狩郡当別町","jp_add_2":""},"0610201":{"post_code":"0610201","prefecture":"HOKKAIDO","city":"ISHIKARI GUN TOBETSU CHO","town":"AOYAMA","perfecture_jp":"北海道","jp_add_1":"石狩郡当別町","jp_add_2":"青山"},"0610253":{"post_code":"0610253","prefecture":"HOKKAIDO","city":"ISHIKARI GUN TOBETSU CHO","town":"AOYAMAOKU2-BANGAWA","perfecture_jp":"北海道","jp_add_1":"石狩郡当別町","jp_add_2":"青山奥二番川"},"0610252":{"post_code":"0610252","prefecture":"HOKKAIDO","city":"ISHIKARI GUN TOBETSU CHO","town":"AOYAMAOKU3-BANGAWA","perfecture_jp":"北海道","jp_add_1":"石狩郡当別町","jp_add_2":"青山奥三番川"},"0610251":{"post_code":"0610251","prefecture":"HOKKAIDO","city":"ISHIKARI GUN TOBETSU CHO","town":"AOYAMAOKU4-BANGAWA","perfecture_jp":"北海道","jp_add_1":"石狩郡当別町","jp_add_2":"青山奥四番川"},"0610254":{"post_code":"0610254","prefecture":"HOKKAIDO","city":"ISHIKARI GUN TOBETSU CHO","town":"AOYAMACHUO(AOYAMAOKU)","perfecture_jp":"北海道","jp_add_1":"石狩郡当別町","jp_add_2":"青山中央"},"0610232":{"post_code":"0610232","prefecture":"HOKKAIDO","city":"ISHIKARI GUN TOBETSU CHO","town":"KASUGACHO","perfecture_jp":"北海道","jp_add_1":"石狩郡当別町","jp_add_2":"春日町"},"0610212":{"post_code":"0610212","prefecture":"HOKKAIDO","city":"ISHIKARI GUN TOBETSU CHO","town":"KANAZAWA","perfecture_jp":"北海道","jp_add_1":"石狩郡当別町","jp_add_2":"金沢"},"0610218":{"post_code":"0610218","prefecture":"HOKKAIDO","city":"ISHIKARI GUN TOBETSU CHO","town":"KABATOCHO","perfecture_jp":"北海道","jp_add_1":"石狩郡当別町","jp_add_2":"樺戸町"},"0610207":{"post_code":"0610207","prefecture":"HOKKAIDO","city":"ISHIKARI GUN TOBETSU CHO","town":"KAMITOBETSU","perfecture_jp":"北海道","jp_add_1":"石狩郡当別町","jp_add_2":"上当別"},"0613774":{"post_code":"0613774","prefecture":"HOKKAIDO","city":"ISHIKARI GUN TOBETSU CHO","town":"-4.5407-5.5445-5446-4-BANCHI)","perfecture_jp":"北海道","jp_add_1":"石狩郡当別町","jp_add_2":"川下"},"0610206":{"post_code":"0610206","prefecture":"HOKKAIDO","city":"ISHIKARI GUN TOBETSU CHO","town":"KAWASHIMO(SONOTA)","perfecture_jp":"北海道","jp_add_1":"石狩郡当別町","jp_add_2":"川下"},"0610217":{"post_code":"0610217","prefecture":"HOKKAIDO","city":"ISHIKARI GUN TOBETSU CHO","town":"SAIWAICHO","perfecture_jp":"北海道","jp_add_1":"石狩郡当別町","jp_add_2":"幸町"},"0610216":{"post_code":"0610216","prefecture":"HOKKAIDO","city":"ISHIKARI GUN TOBETSU CHO","town":"SAKAEMACHI","perfecture_jp":"北海道","jp_add_1":"石狩郡当別町","jp_add_2":"栄町"},"0613772":{"post_code":"0613772","prefecture":"HOKKAIDO","city":"ISHIKARI GUN TOBETSU CHO","town":"SHISHINAI","perfecture_jp":"北海道","jp_add_1":"石狩郡当別町","jp_add_2":"獅子内"},"0610205":{"post_code":"0610205","prefecture":"HOKKAIDO","city":"ISHIKARI GUN TOBETSU CHO","town":"SHIMOKAWACHO","perfecture_jp":"北海道","jp_add_1":"石狩郡当別町","jp_add_2":"下川町"},"0610233":{"post_code":"0610233","prefecture":"HOKKAIDO","city":"ISHIKARI GUN TOBETSU CHO","town":"SHIRAKABACHO","perfecture_jp":"北海道","jp_add_1":"石狩郡当別町","jp_add_2":"白樺町"},"0613777":{"post_code":"0613777","prefecture":"HOKKAIDO","city":"ISHIKARI GUN TOBETSU CHO","town":"SUEDENHIRUZU","perfecture_jp":"北海道","jp_add_1":"石狩郡当別町","jp_add_2":"スウェーデンヒルズ"},"0610224":{"post_code":"0610224","prefecture":"HOKKAIDO","city":"ISHIKARI GUN TOBETSU CHO","town":"SUEHIRO","perfecture_jp":"北海道","jp_add_1":"石狩郡当別町","jp_add_2":"末広"},"0610227":{"post_code":"0610227","prefecture":"HOKKAIDO","city":"ISHIKARI GUN TOBETSU CHO","town":"SONO","perfecture_jp":"北海道","jp_add_1":"石狩郡当別町","jp_add_2":"園生"},"0613771":{"post_code":"0613771","prefecture":"HOKKAIDO","city":"ISHIKARI GUN TOBETSU CHO","town":"TAKAOKA","perfecture_jp":"北海道","jp_add_1":"石狩郡当別町","jp_add_2":"高岡"},"0610215":{"post_code":"0610215","prefecture":"HOKKAIDO","city":"ISHIKARI GUN TOBETSU CHO","town":"TSUISHIKARI","perfecture_jp":"北海道","jp_add_1":"石狩郡当別町","jp_add_2":"対雁"},"0613773":{"post_code":"0613773","prefecture":"HOKKAIDO","city":"ISHIKARI GUN TOBETSU CHO","town":"TOBETSUBUTO","perfecture_jp":"北海道","jp_add_1":"石狩郡当別町","jp_add_2":"当別太"},"0610211":{"post_code":"0610211","prefecture":"HOKKAIDO","city":"ISHIKARI GUN TOBETSU CHO","town":"NAKAGOYA","perfecture_jp":"北海道","jp_add_1":"石狩郡当別町","jp_add_2":"中小屋"},"0610226":{"post_code":"0610226","prefecture":"HOKKAIDO","city":"ISHIKARI GUN TOBETSU CHO","town":"NISHIKIMACHI","perfecture_jp":"北海道","jp_add_1":"石狩郡当別町","jp_add_2":"錦町"},"0610234":{"post_code":"0610234","prefecture":"HOKKAIDO","city":"ISHIKARI GUN TOBETSU CHO","town":"NISHIMACHI","perfecture_jp":"北海道","jp_add_1":"石狩郡当別町","jp_add_2":"西町"},"0610213":{"post_code":"0610213","prefecture":"HOKKAIDO","city":"ISHIKARI GUN TOBETSU CHO","town":"HIGASHIURA","perfecture_jp":"北海道","jp_add_1":"石狩郡当別町","jp_add_2":"東裏"},"0610221":{"post_code":"0610221","prefecture":"HOKKAIDO","city":"ISHIKARI GUN TOBETSU CHO","town":"HIGASHIMACHI","perfecture_jp":"北海道","jp_add_1":"石狩郡当別町","jp_add_2":"東町"},"0613775":{"post_code":"0613775","prefecture":"HOKKAIDO","city":"ISHIKARI GUN TOBETSU CHO","town":"BITOE(SONOTA)","perfecture_jp":"北海道","jp_add_1":"石狩郡当別町","jp_add_2":"ビトエ"},"0613779":{"post_code":"0613779","prefecture":"HOKKAIDO","city":"ISHIKARI GUN TOBETSU CHO","town":"FUTOMISUTARAITO","perfecture_jp":"北海道","jp_add_1":"石狩郡当別町","jp_add_2":"太美スターライト"},"0613776":{"post_code":"0613776","prefecture":"HOKKAIDO","city":"ISHIKARI GUN TOBETSU CHO","town":"FUTOMICHO","perfecture_jp":"北海道","jp_add_1":"石狩郡当別町","jp_add_2":"太美町"},"0613778":{"post_code":"0613778","prefecture":"HOKKAIDO","city":"ISHIKARI GUN TOBETSU CHO","town":"FUTOMIMINAMI","perfecture_jp":"北海道","jp_add_1":"石狩郡当別町","jp_add_2":"太美南"},"0610208":{"post_code":"0610208","prefecture":"HOKKAIDO","city":"ISHIKARI GUN TOBETSU CHO","town":"BENKEBETSU","perfecture_jp":"北海道","jp_add_1":"石狩郡当別町","jp_add_2":"弁華別"},"0610235":{"post_code":"0610235","prefecture":"HOKKAIDO","city":"ISHIKARI GUN TOBETSU CHO","town":"HOKUEICHO","perfecture_jp":"北海道","jp_add_1":"石狩郡当別町","jp_add_2":"北栄町"},"0610225":{"post_code":"0610225","prefecture":"HOKKAIDO","city":"ISHIKARI GUN TOBETSU CHO","town":"MISATO","perfecture_jp":"北海道","jp_add_1":"石狩郡当別町","jp_add_2":"美里"},"0610203":{"post_code":"0610203","prefecture":"HOKKAIDO","city":"ISHIKARI GUN TOBETSU CHO","town":"MIDORINO","perfecture_jp":"北海道","jp_add_1":"石狩郡当別町","jp_add_2":"みどり野"},"0610228":{"post_code":"0610228","prefecture":"HOKKAIDO","city":"ISHIKARI GUN TOBETSU CHO","town":"MIDORIMACHI","perfecture_jp":"北海道","jp_add_1":"石狩郡当別町","jp_add_2":"緑町"},"0610222":{"post_code":"0610222","prefecture":"HOKKAIDO","city":"ISHIKARI GUN TOBETSU CHO","town":"MOTOMACHI","perfecture_jp":"北海道","jp_add_1":"石狩郡当別町","jp_add_2":"元町"},"0610202":{"post_code":"0610202","prefecture":"HOKKAIDO","city":"ISHIKARI GUN TOBETSU CHO","town":"MOHEIZAWA","perfecture_jp":"北海道","jp_add_1":"石狩郡当別町","jp_add_2":"茂平沢"},"0610223":{"post_code":"0610223","prefecture":"HOKKAIDO","city":"ISHIKARI GUN TOBETSU CHO","town":"YAYOI","perfecture_jp":"北海道","jp_add_1":"石狩郡当別町","jp_add_2":"弥生"},"0610231":{"post_code":"0610231","prefecture":"HOKKAIDO","city":"ISHIKARI GUN TOBETSU CHO","town":"ROKKENCHO","perfecture_jp":"北海道","jp_add_1":"石狩郡当別町","jp_add_2":"六軒町"},"0610204":{"post_code":"0610204","prefecture":"HOKKAIDO","city":"ISHIKARI GUN TOBETSU CHO","town":"WAKABA","perfecture_jp":"北海道","jp_add_1":"石狩郡当別町","jp_add_2":"若葉"},"0610214":{"post_code":"0610214","prefecture":"HOKKAIDO","city":"ISHIKARI GUN TOBETSU CHO","town":"WARABITAI","perfecture_jp":"北海道","jp_add_1":"石狩郡当別町","jp_add_2":"蕨岱"},"0610500":{"post_code":"0610500","prefecture":"HOKKAIDO","city":"KABATO GUN TSUKIGATA CHO","town":"IKANIKEISAIGANAIBAAI","perfecture_jp":"北海道","jp_add_1":"樺戸郡月形町","jp_add_2":""},"0610518":{"post_code":"0610518","prefecture":"HOKKAIDO","city":"KABATO GUN TSUKIGATA CHO","town":"AKAGAWA","perfecture_jp":"北海道","jp_add_1":"樺戸郡月形町","jp_add_2":"赤川"},"0610514":{"post_code":"0610514","prefecture":"HOKKAIDO","city":"KABATO GUN TSUKIGATA CHO","town":"AZABU","perfecture_jp":"北海道","jp_add_1":"樺戸郡月形町","jp_add_2":"麻生"},"0610517":{"post_code":"0610517","prefecture":"HOKKAIDO","city":"KABATO GUN TSUKIGATA CHO","town":"KITAGO","perfecture_jp":"北海道","jp_add_1":"樺戸郡月形町","jp_add_2":"北郷"},"0610502":{"post_code":"0610502","prefecture":"HOKKAIDO","city":"KABATO GUN TSUKIGATA CHO","town":"KITANOJO","perfecture_jp":"北海道","jp_add_1":"樺戸郡月形町","jp_add_2":"北農場"},"0610527":{"post_code":"0610527","prefecture":"HOKKAIDO","city":"KABATO GUN TSUKIGATA CHO","town":"KYOWA","perfecture_jp":"北海道","jp_add_1":"樺戸郡月形町","jp_add_2":"共和"},"0610508":{"post_code":"0610508","prefecture":"HOKKAIDO","city":"KABATO GUN TSUKIGATA CHO","town":"KOEI","perfecture_jp":"北海道","jp_add_1":"樺戸郡月形町","jp_add_2":"厚栄"},"0610515":{"post_code":"0610515","prefecture":"HOKKAIDO","city":"KABATO GUN TSUKIGATA CHO","town":"GOKOCHIYAMA","perfecture_jp":"北海道","jp_add_1":"樺戸郡月形町","jp_add_2":"五耕地山"},"0610505":{"post_code":"0610505","prefecture":"HOKKAIDO","city":"KABATO GUN TSUKIGATA CHO","town":"SAPPINAI","perfecture_jp":"北海道","jp_add_1":"樺戸郡月形町","jp_add_2":"札比内"},"0610512":{"post_code":"0610512","prefecture":"HOKKAIDO","city":"KABATO GUN TSUKIGATA CHO","town":"SHINAN","perfecture_jp":"北海道","jp_add_1":"樺戸郡月形町","jp_add_2":"市南"},"0610511":{"post_code":"0610511","prefecture":"HOKKAIDO","city":"KABATO GUN TSUKIGATA CHO","town":"SHIHOKU","perfecture_jp":"北海道","jp_add_1":"樺戸郡月形町","jp_add_2":"市北"},"0610523":{"post_code":"0610523","prefecture":"HOKKAIDO","city":"KABATO GUN TSUKIGATA CHO","town":"SHOEI","perfecture_jp":"北海道","jp_add_1":"樺戸郡月形町","jp_add_2":"昭栄"},"0610525":{"post_code":"0610525","prefecture":"HOKKAIDO","city":"KABATO GUN TSUKIGATA CHO","town":"SHINEI","perfecture_jp":"北海道","jp_add_1":"樺戸郡月形町","jp_add_2":"新栄"},"0610506":{"post_code":"0610506","prefecture":"HOKKAIDO","city":"KABATO GUN TSUKIGATA CHO","town":"SHINGU","perfecture_jp":"北海道","jp_add_1":"樺戸郡月形町","jp_add_2":"新宮"},"0610501":{"post_code":"0610501","prefecture":"HOKKAIDO","city":"KABATO GUN TSUKIGATA CHO","town":"SHINSEI","perfecture_jp":"北海道","jp_add_1":"樺戸郡月形町","jp_add_2":"新生"},"0610526":{"post_code":"0610526","prefecture":"HOKKAIDO","city":"KABATO GUN TSUKIGATA CHO","town":"SHINDEN","perfecture_jp":"北海道","jp_add_1":"樺戸郡月形町","jp_add_2":"新田"},"0610504":{"post_code":"0610504","prefecture":"HOKKAIDO","city":"KABATO GUN TSUKIGATA CHO","town":"SHINTOMI","perfecture_jp":"北海道","jp_add_1":"樺戸郡月形町","jp_add_2":"新富"},"0610516":{"post_code":"0610516","prefecture":"HOKKAIDO","city":"KABATO GUN TSUKIGATA CHO","town":"CHIRAIOTSU","perfecture_jp":"北海道","jp_add_1":"樺戸郡月形町","jp_add_2":"知来乙"},"0610528":{"post_code":"0610528","prefecture":"HOKKAIDO","city":"KABATO GUN TSUKIGATA CHO","town":"TSUKIGAOKA","perfecture_jp":"北海道","jp_add_1":"樺戸郡月形町","jp_add_2":"月ケ岡"},"0610529":{"post_code":"0610529","prefecture":"HOKKAIDO","city":"KABATO GUN TSUKIGATA CHO","town":"TSUKIGAMORI","perfecture_jp":"北海道","jp_add_1":"樺戸郡月形町","jp_add_2":"月ヶ杜"},"0610522":{"post_code":"0610522","prefecture":"HOKKAIDO","city":"KABATO GUN TSUKIGATA CHO","town":"TSUKIHAMA","perfecture_jp":"北海道","jp_add_1":"樺戸郡月形町","jp_add_2":"月浜"},"0610503":{"post_code":"0610503","prefecture":"HOKKAIDO","city":"KABATO GUN TSUKIGATA CHO","town":"TOYOGAOKA","perfecture_jp":"北海道","jp_add_1":"樺戸郡月形町","jp_add_2":"豊ケ丘"},"0610513":{"post_code":"0610513","prefecture":"HOKKAIDO","city":"KABATO GUN TSUKIGATA CHO","town":"NOJIKAI","perfecture_jp":"北海道","jp_add_1":"樺戸郡月形町","jp_add_2":"農事会"},"0610521":{"post_code":"0610521","prefecture":"HOKKAIDO","city":"KABATO GUN TSUKIGATA CHO","town":"MINAMIKOCHI","perfecture_jp":"北海道","jp_add_1":"樺戸郡月形町","jp_add_2":"南耕地"},"0610507":{"post_code":"0610507","prefecture":"HOKKAIDO","city":"KABATO GUN TSUKIGATA CHO","town":"MINAMISAPPINAI","perfecture_jp":"北海道","jp_add_1":"樺戸郡月形町","jp_add_2":"南札比内"},"0610524":{"post_code":"0610524","prefecture":"HOKKAIDO","city":"KABATO GUN TSUKIGATA CHO","town":"MINAMISHINDEN","perfecture_jp":"北海道","jp_add_1":"樺戸郡月形町","jp_add_2":"南新田"},"0610600":{"post_code":"0610600","prefecture":"HOKKAIDO","city":"KABATO GUN URAUSU CHO","town":"IKANIKEISAIGANAIBAAI","perfecture_jp":"北海道","jp_add_1":"樺戸郡浦臼町","jp_add_2":""},"0610611":{"post_code":"0610611","prefecture":"HOKKAIDO","city":"KABATO GUN URAUSU CHO","town":"URAUSUDAI1","perfecture_jp":"北海道","jp_add_1":"樺戸郡浦臼町","jp_add_2":"浦臼第１"},"0610612":{"post_code":"0610612","prefecture":"HOKKAIDO","city":"KABATO GUN URAUSU CHO","town":"URAUSUDAI2","perfecture_jp":"北海道","jp_add_1":"樺戸郡浦臼町","jp_add_2":"浦臼第２"},"0610613":{"post_code":"0610613","prefecture":"HOKKAIDO","city":"KABATO GUN URAUSU CHO","town":"URAUSUDAI3","perfecture_jp":"北海道","jp_add_1":"樺戸郡浦臼町","jp_add_2":"浦臼第３"},"0610614":{"post_code":"0610614","prefecture":"HOKKAIDO","city":"KABATO GUN URAUSU CHO","town":"URAUSUDAI4","perfecture_jp":"北海道","jp_add_1":"樺戸郡浦臼町","jp_add_2":"浦臼第４"},"0610615":{"post_code":"0610615","prefecture":"HOKKAIDO","city":"KABATO GUN URAUSU CHO","town":"URAUSUDAI5","perfecture_jp":"北海道","jp_add_1":"樺戸郡浦臼町","jp_add_2":"浦臼第５"},"0610616":{"post_code":"0610616","prefecture":"HOKKAIDO","city":"KABATO GUN URAUSU CHO","town":"URAUSUDAI6","perfecture_jp":"北海道","jp_add_1":"樺戸郡浦臼町","jp_add_2":"浦臼第６"},"0610617":{"post_code":"0610617","prefecture":"HOKKAIDO","city":"KABATO GUN URAUSU CHO","town":"URAUSUDAI7","perfecture_jp":"北海道","jp_add_1":"樺戸郡浦臼町","jp_add_2":"浦臼第７"},"0610618":{"post_code":"0610618","prefecture":"HOKKAIDO","city":"KABATO GUN URAUSU CHO","town":"URAUSUDAI8","perfecture_jp":"北海道","jp_add_1":"樺戸郡浦臼町","jp_add_2":"浦臼第８"},"0610621":{"post_code":"0610621","prefecture":"HOKKAIDO","city":"KABATO GUN URAUSU CHO","town":"OSOKINAIDAI1","perfecture_jp":"北海道","jp_add_1":"樺戸郡浦臼町","jp_add_2":"晩生内第１"},"0610622":{"post_code":"0610622","prefecture":"HOKKAIDO","city":"KABATO GUN URAUSU CHO","town":"OSOKINAIDAI2","perfecture_jp":"北海道","jp_add_1":"樺戸郡浦臼町","jp_add_2":"晩生内第２"},"0610623":{"post_code":"0610623","prefecture":"HOKKAIDO","city":"KABATO GUN URAUSU CHO","town":"OSOKINAIDAI3","perfecture_jp":"北海道","jp_add_1":"樺戸郡浦臼町","jp_add_2":"晩生内第３"},"0610601":{"post_code":"0610601","prefecture":"HOKKAIDO","city":"KABATO GUN URAUSU CHO","town":"TSURUNUMADAI1","perfecture_jp":"北海道","jp_add_1":"樺戸郡浦臼町","jp_add_2":"鶴沼第１"},"0610602":{"post_code":"0610602","prefecture":"HOKKAIDO","city":"KABATO GUN URAUSU CHO","town":"TSURUNUMADAI2","perfecture_jp":"北海道","jp_add_1":"樺戸郡浦臼町","jp_add_2":"鶴沼第２"},"0610603":{"post_code":"0610603","prefecture":"HOKKAIDO","city":"KABATO GUN URAUSU CHO","town":"TSURUNUMADAI3","perfecture_jp":"北海道","jp_add_1":"樺戸郡浦臼町","jp_add_2":"鶴沼第３"}}