{"0640941":{"post_code":"0640941","prefecture":"HOKKAIDO","city":"SAPPORO SHI CHUO KU","town":"ASAHIGAOKA","perfecture_jp":"北海道","jp_add_1":"札幌市中央区","jp_add_2":"旭ケ丘"},"0640820":{"post_code":"0640820","prefecture":"HOKKAIDO","city":"SAPPORO SHI CHUO KU","town":"ODORINISHI(20-28-CHOME)","perfecture_jp":"北海道","jp_add_1":"札幌市中央区","jp_add_2":"大通西"},"0640821":{"post_code":"0640821","prefecture":"HOKKAIDO","city":"SAPPORO SHI CHUO KU","town":"KITA1-JONISHI(20-28-CHOME)","perfecture_jp":"北海道","jp_add_1":"札幌市中央区","jp_add_2":"北一条西"},"0640822":{"post_code":"0640822","prefecture":"HOKKAIDO","city":"SAPPORO SHI CHUO KU","town":"KITA2-JONISHI(20-28-CHOME)","perfecture_jp":"北海道","jp_add_1":"札幌市中央区","jp_add_2":"北二条西"},"0640823":{"post_code":"0640823","prefecture":"HOKKAIDO","city":"SAPPORO SHI CHUO KU","town":"KITA3-JONISHI(20-30-CHOME)","perfecture_jp":"北海道","jp_add_1":"札幌市中央区","jp_add_2":"北三条西"},"0640824":{"post_code":"0640824","prefecture":"HOKKAIDO","city":"SAPPORO SHI CHUO KU","town":"KITA4-JONISHI(20-30-CHOME)","perfecture_jp":"北海道","jp_add_1":"札幌市中央区","jp_add_2":"北四条西"},"0640825":{"post_code":"0640825","prefecture":"HOKKAIDO","city":"SAPPORO SHI CHUO KU","town":"KITA5-JONISHI(25-29-CHOME)","perfecture_jp":"北海道","jp_add_1":"札幌市中央区","jp_add_2":"北五条西"},"0640826":{"post_code":"0640826","prefecture":"HOKKAIDO","city":"SAPPORO SHI CHUO KU","town":"KITA6-JONISHI(26-28-CHOME)","perfecture_jp":"北海道","jp_add_1":"札幌市中央区","jp_add_2":"北六条西"},"0640943":{"post_code":"0640943","prefecture":"HOKKAIDO","city":"SAPPORO SHI CHUO KU","town":"SAKAIGAWA","perfecture_jp":"北海道","jp_add_1":"札幌市中央区","jp_add_2":"界川"},"0640931":{"post_code":"0640931","prefecture":"HOKKAIDO","city":"SAPPORO SHI CHUO KU","town":"NAKAJIMAKOEN","perfecture_jp":"北海道","jp_add_1":"札幌市中央区","jp_add_2":"中島公園"},"0640945":{"post_code":"0640945","prefecture":"HOKKAIDO","city":"SAPPORO SHI CHUO KU","town":"BANKEI","perfecture_jp":"北海道","jp_add_1":"札幌市中央区","jp_add_2":"盤渓"},"0640942":{"post_code":"0640942","prefecture":"HOKKAIDO","city":"SAPPORO SHI CHUO KU","town":"FUSHIMI","perfecture_jp":"北海道","jp_add_1":"札幌市中央区","jp_add_2":"伏見"},"0640946":{"post_code":"0640946","prefecture":"HOKKAIDO","city":"SAPPORO SHI CHUO KU","town":"FUTAGOYAMA","perfecture_jp":"北海道","jp_add_1":"札幌市中央区","jp_add_2":"双子山"},"0640944":{"post_code":"0640944","prefecture":"HOKKAIDO","city":"SAPPORO SHI CHUO KU","town":"MARUYAMANISHIMACHI","perfecture_jp":"北海道","jp_add_1":"札幌市中央区","jp_add_2":"円山西町"},"0640801":{"post_code":"0640801","prefecture":"HOKKAIDO","city":"SAPPORO SHI CHUO KU","town":"MINAMI1-JONISHI(20-28-CHOME)","perfecture_jp":"北海道","jp_add_1":"札幌市中央区","jp_add_2":"南一条西"},"0640802":{"post_code":"0640802","prefecture":"HOKKAIDO","city":"SAPPORO SHI CHUO KU","town":"MINAMI2-JONISHI(20-28-CHOME)","perfecture_jp":"北海道","jp_add_1":"札幌市中央区","jp_add_2":"南二条西"},"0640803":{"post_code":"0640803","prefecture":"HOKKAIDO","city":"SAPPORO SHI CHUO KU","town":"MINAMI3-JONISHI(20-28-CHOME)","perfecture_jp":"北海道","jp_add_1":"札幌市中央区","jp_add_2":"南三条西"},"0640804":{"post_code":"0640804","prefecture":"HOKKAIDO","city":"SAPPORO SHI CHUO KU","town":"MINAMI4-JONISHI","perfecture_jp":"北海道","jp_add_1":"札幌市中央区","jp_add_2":"南四条西"},"0640805":{"post_code":"0640805","prefecture":"HOKKAIDO","city":"SAPPORO SHI CHUO KU","town":"MINAMI5-JONISHI","perfecture_jp":"北海道","jp_add_1":"札幌市中央区","jp_add_2":"南五条西"},"0640806":{"post_code":"0640806","prefecture":"HOKKAIDO","city":"SAPPORO SHI CHUO KU","town":"MINAMI6-JONISHI","perfecture_jp":"北海道","jp_add_1":"札幌市中央区","jp_add_2":"南六条西"},"0640807":{"post_code":"0640807","prefecture":"HOKKAIDO","city":"SAPPORO SHI CHUO KU","town":"MINAMI7-JONISHI","perfecture_jp":"北海道","jp_add_1":"札幌市中央区","jp_add_2":"南七条西"},"0640808":{"post_code":"0640808","prefecture":"HOKKAIDO","city":"SAPPORO SHI CHUO KU","town":"MINAMI8-JONISHI","perfecture_jp":"北海道","jp_add_1":"札幌市中央区","jp_add_2":"南八条西"},"0640809":{"post_code":"0640809","prefecture":"HOKKAIDO","city":"SAPPORO SHI CHUO KU","town":"MINAMI9-JONISHI","perfecture_jp":"北海道","jp_add_1":"札幌市中央区","jp_add_2":"南九条西"},"0640810":{"post_code":"0640810","prefecture":"HOKKAIDO","city":"SAPPORO SHI CHUO KU","town":"MINAMI10-JONISHI","perfecture_jp":"北海道","jp_add_1":"札幌市中央区","jp_add_2":"南十条西"},"0640811":{"post_code":"0640811","prefecture":"HOKKAIDO","city":"SAPPORO SHI CHUO KU","town":"MINAMI11-JONISHI","perfecture_jp":"北海道","jp_add_1":"札幌市中央区","jp_add_2":"南十一条西"},"0640912":{"post_code":"0640912","prefecture":"HOKKAIDO","city":"SAPPORO SHI CHUO KU","town":"MINAMI12-JONISHI","perfecture_jp":"北海道","jp_add_1":"札幌市中央区","jp_add_2":"南十二条西"},"0640913":{"post_code":"0640913","prefecture":"HOKKAIDO","city":"SAPPORO SHI CHUO KU","town":"MINAMI13-JONISHI","perfecture_jp":"北海道","jp_add_1":"札幌市中央区","jp_add_2":"南十三条西"},"0640914":{"post_code":"0640914","prefecture":"HOKKAIDO","city":"SAPPORO SHI CHUO KU","town":"MINAMI14-JONISHI","perfecture_jp":"北海道","jp_add_1":"札幌市中央区","jp_add_2":"南十四条西"},"0640915":{"post_code":"0640915","prefecture":"HOKKAIDO","city":"SAPPORO SHI CHUO KU","town":"MINAMI15-JONISHI","perfecture_jp":"北海道","jp_add_1":"札幌市中央区","jp_add_2":"南十五条西"},"0640916":{"post_code":"0640916","prefecture":"HOKKAIDO","city":"SAPPORO SHI CHUO KU","town":"MINAMI16-JONISHI","perfecture_jp":"北海道","jp_add_1":"札幌市中央区","jp_add_2":"南十六条西"},"0640917":{"post_code":"0640917","prefecture":"HOKKAIDO","city":"SAPPORO SHI CHUO KU","town":"MINAMI17-JONISHI","perfecture_jp":"北海道","jp_add_1":"札幌市中央区","jp_add_2":"南十七条西"},"0640918":{"post_code":"0640918","prefecture":"HOKKAIDO","city":"SAPPORO SHI CHUO KU","town":"MINAMI18-JONISHI","perfecture_jp":"北海道","jp_add_1":"札幌市中央区","jp_add_2":"南十八条西"},"0640919":{"post_code":"0640919","prefecture":"HOKKAIDO","city":"SAPPORO SHI CHUO KU","town":"MINAMI19-JONISHI","perfecture_jp":"北海道","jp_add_1":"札幌市中央区","jp_add_2":"南十九条西"},"0640920":{"post_code":"0640920","prefecture":"HOKKAIDO","city":"SAPPORO SHI CHUO KU","town":"MINAMI20-JONISHI","perfecture_jp":"北海道","jp_add_1":"札幌市中央区","jp_add_2":"南二十条西"},"0640921":{"post_code":"0640921","prefecture":"HOKKAIDO","city":"SAPPORO SHI CHUO KU","town":"MINAMI21-JONISHI","perfecture_jp":"北海道","jp_add_1":"札幌市中央区","jp_add_2":"南二十一条西"},"0640922":{"post_code":"0640922","prefecture":"HOKKAIDO","city":"SAPPORO SHI CHUO KU","town":"MINAMI22-JONISHI","perfecture_jp":"北海道","jp_add_1":"札幌市中央区","jp_add_2":"南二十二条西"},"0640923":{"post_code":"0640923","prefecture":"HOKKAIDO","city":"SAPPORO SHI CHUO KU","town":"MINAMI23-JONISHI","perfecture_jp":"北海道","jp_add_1":"札幌市中央区","jp_add_2":"南二十三条西"},"0640924":{"post_code":"0640924","prefecture":"HOKKAIDO","city":"SAPPORO SHI CHUO KU","town":"MINAMI24-JONISHI","perfecture_jp":"北海道","jp_add_1":"札幌市中央区","jp_add_2":"南二十四条西"},"0640925":{"post_code":"0640925","prefecture":"HOKKAIDO","city":"SAPPORO SHI CHUO KU","town":"MINAMI25-JONISHI","perfecture_jp":"北海道","jp_add_1":"札幌市中央区","jp_add_2":"南二十五条西"},"0640926":{"post_code":"0640926","prefecture":"HOKKAIDO","city":"SAPPORO SHI CHUO KU","town":"MINAMI26-JONISHI","perfecture_jp":"北海道","jp_add_1":"札幌市中央区","jp_add_2":"南二十六条西"},"0640927":{"post_code":"0640927","prefecture":"HOKKAIDO","city":"SAPPORO SHI CHUO KU","town":"MINAMI27-JONISHI","perfecture_jp":"北海道","jp_add_1":"札幌市中央区","jp_add_2":"南二十七条西"},"0640928":{"post_code":"0640928","prefecture":"HOKKAIDO","city":"SAPPORO SHI CHUO KU","town":"MINAMI28-JONISHI","perfecture_jp":"北海道","jp_add_1":"札幌市中央区","jp_add_2":"南二十八条西"},"0640929":{"post_code":"0640929","prefecture":"HOKKAIDO","city":"SAPPORO SHI CHUO KU","town":"MINAMI29-JONISHI","perfecture_jp":"北海道","jp_add_1":"札幌市中央区","jp_add_2":"南二十九条西"},"0640930":{"post_code":"0640930","prefecture":"HOKKAIDO","city":"SAPPORO SHI CHUO KU","town":"MINAMI30-JONISHI(9-11-CHOME)","perfecture_jp":"北海道","jp_add_1":"札幌市中央区","jp_add_2":"南三十条西"},"0640959":{"post_code":"0640959","prefecture":"HOKKAIDO","city":"SAPPORO SHI CHUO KU","town":"MIYAGAOKA","perfecture_jp":"北海道","jp_add_1":"札幌市中央区","jp_add_2":"宮ケ丘"},"0640958":{"post_code":"0640958","prefecture":"HOKKAIDO","city":"SAPPORO SHI CHUO KU","town":"MIYANOMORI","perfecture_jp":"北海道","jp_add_1":"札幌市中央区","jp_add_2":"宮の森"},"0640951":{"post_code":"0640951","prefecture":"HOKKAIDO","city":"SAPPORO SHI CHUO KU","town":"MIYANOMORI 1-JO","perfecture_jp":"北海道","jp_add_1":"札幌市中央区","jp_add_2":"宮の森一条"},"0640952":{"post_code":"0640952","prefecture":"HOKKAIDO","city":"SAPPORO SHI CHUO KU","town":"MIYANOMORI 2-JO","perfecture_jp":"北海道","jp_add_1":"札幌市中央区","jp_add_2":"宮の森二条"},"0640953":{"post_code":"0640953","prefecture":"HOKKAIDO","city":"SAPPORO SHI CHUO KU","town":"MIYANOMORI 3-JO","perfecture_jp":"北海道","jp_add_1":"札幌市中央区","jp_add_2":"宮の森三条"},"0640954":{"post_code":"0640954","prefecture":"HOKKAIDO","city":"SAPPORO SHI CHUO KU","town":"MIYANOMORI 4-JO","perfecture_jp":"北海道","jp_add_1":"札幌市中央区","jp_add_2":"宮の森四条"}}