{"0660271":{"post_code":"0660271","prefecture":"HOKKAIDO","city":"TOMAKOMAI SHI","town":"MARUYAMA","perfecture_jp":"北海道","jp_add_1":"苫小牧市","jp_add_2":"丸山"},"0660000":{"post_code":"0660000","prefecture":"HOKKAIDO","city":"CHITOSE SHI","town":"IKANIKEISAIGANAIBAAI","perfecture_jp":"北海道","jp_add_1":"千歳市","jp_add_2":""},"0660015":{"post_code":"0660015","prefecture":"HOKKAIDO","city":"CHITOSE SHI","town":"AOBA","perfecture_jp":"北海道","jp_add_1":"千歳市","jp_add_2":"青葉"},"0660014":{"post_code":"0660014","prefecture":"HOKKAIDO","city":"CHITOSE SHI","town":"AOBAOKA","perfecture_jp":"北海道","jp_add_1":"千歳市","jp_add_2":"青葉丘"},"0660018":{"post_code":"0660018","prefecture":"HOKKAIDO","city":"CHITOSE SHI","town":"ASAHIGAOKA","perfecture_jp":"北海道","jp_add_1":"千歳市","jp_add_2":"旭ケ丘"},"0660043":{"post_code":"0660043","prefecture":"HOKKAIDO","city":"CHITOSE SHI","town":"ASAHICHO","perfecture_jp":"北海道","jp_add_1":"千歳市","jp_add_2":"朝日町"},"0660076":{"post_code":"0660076","prefecture":"HOKKAIDO","city":"CHITOSE SHI","town":"AZUSA","perfecture_jp":"北海道","jp_add_1":"千歳市","jp_add_2":"あずさ"},"0660004":{"post_code":"0660004","prefecture":"HOKKAIDO","city":"CHITOSE SHI","town":"IZUMISATO","perfecture_jp":"北海道","jp_add_1":"千歳市","jp_add_2":"泉郷"},"0660051":{"post_code":"0660051","prefecture":"HOKKAIDO","city":"CHITOSE SHI","town":"IZUMISAWA","perfecture_jp":"北海道","jp_add_1":"千歳市","jp_add_2":"泉沢"},"0660029":{"post_code":"0660029","prefecture":"HOKKAIDO","city":"CHITOSE SHI","town":"INAHO","perfecture_jp":"北海道","jp_add_1":"千歳市","jp_add_2":"稲穂"},"0660025":{"post_code":"0660025","prefecture":"HOKKAIDO","city":"CHITOSE SHI","town":"UMEGAOKA","perfecture_jp":"北海道","jp_add_1":"千歳市","jp_add_2":"梅ケ丘"},"0660286":{"post_code":"0660286","prefecture":"HOKKAIDO","city":"CHITOSE SHI","town":"OKOTAN","perfecture_jp":"北海道","jp_add_1":"千歳市","jp_add_2":"奥潭"},"0660001":{"post_code":"0660001","prefecture":"HOKKAIDO","city":"CHITOSE SHI","town":"OSATSU","perfecture_jp":"北海道","jp_add_1":"千歳市","jp_add_2":"長都"},"0660031":{"post_code":"0660031","prefecture":"HOKKAIDO","city":"CHITOSE SHI","town":"OSATSUEKIMAE","perfecture_jp":"北海道","jp_add_1":"千歳市","jp_add_2":"長都駅前"},"0660013":{"post_code":"0660013","prefecture":"HOKKAIDO","city":"CHITOSE SHI","town":"KASHIWADAI","perfecture_jp":"北海道","jp_add_1":"千歳市","jp_add_2":"柏台"},"0660009":{"post_code":"0660009","prefecture":"HOKKAIDO","city":"CHITOSE SHI","town":"KASHIWADAIMINAMI","perfecture_jp":"北海道","jp_add_1":"千歳市","jp_add_2":"柏台南"},"0660065":{"post_code":"0660065","prefecture":"HOKKAIDO","city":"CHITOSE SHI","town":"KASUGACHO","perfecture_jp":"北海道","jp_add_1":"千歳市","jp_add_2":"春日町"},"0660067":{"post_code":"0660067","prefecture":"HOKKAIDO","city":"CHITOSE SHI","town":"KATSURAGI","perfecture_jp":"北海道","jp_add_1":"千歳市","jp_add_2":"桂木"},"0660002":{"post_code":"0660002","prefecture":"HOKKAIDO","city":"CHITOSE SHI","town":"KAMAKA","perfecture_jp":"北海道","jp_add_1":"千歳市","jp_add_2":"釜加"},"0660077":{"post_code":"0660077","prefecture":"HOKKAIDO","city":"CHITOSE SHI","town":"KAMIOSATSU","perfecture_jp":"北海道","jp_add_1":"千歳市","jp_add_2":"上長都"},"0660075":{"post_code":"0660075","prefecture":"HOKKAIDO","city":"CHITOSE SHI","town":"KITASHINANO","perfecture_jp":"北海道","jp_add_1":"千歳市","jp_add_2":"北信濃"},"0660005":{"post_code":"0660005","prefecture":"HOKKAIDO","city":"CHITOSE SHI","town":"5.1137-3.1392.1657.1752-BANCHI)","perfecture_jp":"北海道","jp_add_1":"千歳市","jp_add_2":"協和"},"0660082":{"post_code":"0660082","prefecture":"HOKKAIDO","city":"CHITOSE SHI","town":"KOFUKU","perfecture_jp":"北海道","jp_add_1":"千歳市","jp_add_2":"幸福"},"0660023":{"post_code":"0660023","prefecture":"HOKKAIDO","city":"CHITOSE SHI","town":"KOTOBUKI","perfecture_jp":"北海道","jp_add_1":"千歳市","jp_add_2":"寿"},"0660011":{"post_code":"0660011","prefecture":"HOKKAIDO","city":"CHITOSE SHI","town":"KOMASATO","perfecture_jp":"北海道","jp_add_1":"千歳市","jp_add_2":"駒里"},"0660063":{"post_code":"0660063","prefecture":"HOKKAIDO","city":"CHITOSE SHI","town":"SAIWAICHO","perfecture_jp":"北海道","jp_add_1":"千歳市","jp_add_2":"幸町"},"0660061":{"post_code":"0660061","prefecture":"HOKKAIDO","city":"CHITOSE SHI","town":"SAKAECHO","perfecture_jp":"北海道","jp_add_1":"千歳市","jp_add_2":"栄町"},"0660071":{"post_code":"0660071","prefecture":"HOKKAIDO","city":"CHITOSE SHI","town":"SAKURAGI","perfecture_jp":"北海道","jp_add_1":"千歳市","jp_add_2":"桜木"},"0660055":{"post_code":"0660055","prefecture":"HOKKAIDO","city":"CHITOSE SHI","town":"SATOMI","perfecture_jp":"北海道","jp_add_1":"千歳市","jp_add_2":"里美"},"0660281":{"post_code":"0660281","prefecture":"HOKKAIDO","city":"CHITOSE SHI","town":"SHIKOTSUKONSEN","perfecture_jp":"北海道","jp_add_1":"千歳市","jp_add_2":"支笏湖温泉"},"0660284":{"post_code":"0660284","prefecture":"HOKKAIDO","city":"CHITOSE SHI","town":"SHISHAMONAI","perfecture_jp":"北海道","jp_add_1":"千歳市","jp_add_2":"支寒内"},"0660038":{"post_code":"0660038","prefecture":"HOKKAIDO","city":"CHITOSE SHI","town":"SHINANO","perfecture_jp":"北海道","jp_add_1":"千歳市","jp_add_2":"信濃"},"0660042":{"post_code":"0660042","prefecture":"HOKKAIDO","city":"CHITOSE SHI","town":"SHINONOMECHO","perfecture_jp":"北海道","jp_add_1":"千歳市","jp_add_2":"東雲町"},"0660041":{"post_code":"0660041","prefecture":"HOKKAIDO","city":"CHITOSE SHI","town":"SHIMIZUCHO","perfecture_jp":"北海道","jp_add_1":"千歳市","jp_add_2":"清水町"},"0660072":{"post_code":"0660072","prefecture":"HOKKAIDO","city":"CHITOSE SHI","town":"JIYUGAOKA","perfecture_jp":"北海道","jp_add_1":"千歳市","jp_add_2":"自由ケ丘"},"0660006":{"post_code":"0660006","prefecture":"HOKKAIDO","city":"CHITOSE SHI","town":"SHUKUBAI","perfecture_jp":"北海道","jp_add_1":"千歳市","jp_add_2":"祝梅"},"0660056":{"post_code":"0660056","prefecture":"HOKKAIDO","city":"CHITOSE SHI","town":"SHIRAKABA","perfecture_jp":"北海道","jp_add_1":"千歳市","jp_add_2":"白樺"},"0660069":{"post_code":"0660069","prefecture":"HOKKAIDO","city":"CHITOSE SHI","town":"SHINSEI","perfecture_jp":"北海道","jp_add_1":"千歳市","jp_add_2":"新星"},"0660046":{"post_code":"0660046","prefecture":"HOKKAIDO","city":"CHITOSE SHI","town":"SHINCHO","perfecture_jp":"北海道","jp_add_1":"千歳市","jp_add_2":"真町"},"0660037":{"post_code":"0660037","prefecture":"HOKKAIDO","city":"CHITOSE SHI","town":"SHINTOMI","perfecture_jp":"北海道","jp_add_1":"千歳市","jp_add_2":"新富"},"0660282":{"post_code":"0660282","prefecture":"HOKKAIDO","city":"CHITOSE SHI","town":"SUIMEIKYO","perfecture_jp":"北海道","jp_add_1":"千歳市","jp_add_2":"水明郷"},"0660027":{"post_code":"0660027","prefecture":"HOKKAIDO","city":"CHITOSE SHI","town":"SUEHIRO","perfecture_jp":"北海道","jp_add_1":"千歳市","jp_add_2":"末広"},"0660026":{"post_code":"0660026","prefecture":"HOKKAIDO","city":"CHITOSE SHI","town":"SUMIYOSHI","perfecture_jp":"北海道","jp_add_1":"千歳市","jp_add_2":"住吉"},"0660081":{"post_code":"0660081","prefecture":"HOKKAIDO","city":"CHITOSE SHI","town":"SEIRYU","perfecture_jp":"北海道","jp_add_1":"千歳市","jp_add_2":"清流"},"0660035":{"post_code":"0660035","prefecture":"HOKKAIDO","city":"CHITOSE SHI","town":"TAKADAI","perfecture_jp":"北海道","jp_add_1":"千歳市","jp_add_2":"高台"},"0660007":{"post_code":"0660007","prefecture":"HOKKAIDO","city":"CHITOSE SHI","town":"CHUO","perfecture_jp":"北海道","jp_add_1":"千歳市","jp_add_2":"中央"},"0660062":{"post_code":"0660062","prefecture":"HOKKAIDO","city":"CHITOSE SHI","town":"CHIYODACHO","perfecture_jp":"北海道","jp_add_1":"千歳市","jp_add_2":"千代田町"},"0660021":{"post_code":"0660021","prefecture":"HOKKAIDO","city":"CHITOSE SHI","town":"TOKO","perfecture_jp":"北海道","jp_add_1":"千歳市","jp_add_2":"東郊"},"0660034":{"post_code":"0660034","prefecture":"HOKKAIDO","city":"CHITOSE SHI","town":"TOMIOKA","perfecture_jp":"北海道","jp_add_1":"千歳市","jp_add_2":"富丘"},"0660022":{"post_code":"0660022","prefecture":"HOKKAIDO","city":"CHITOSE SHI","town":"TOYOSATO","perfecture_jp":"北海道","jp_add_1":"千歳市","jp_add_2":"豊里"},"0660064":{"post_code":"0660064","prefecture":"HOKKAIDO","city":"CHITOSE SHI","town":"NISHIKICHO","perfecture_jp":"北海道","jp_add_1":"千歳市","jp_add_2":"錦町"},"0660008":{"post_code":"0660008","prefecture":"HOKKAIDO","city":"CHITOSE SHI","town":"NESHIKOSHI","perfecture_jp":"北海道","jp_add_1":"千歳市","jp_add_2":"根志越"},"0660054":{"post_code":"0660054","prefecture":"HOKKAIDO","city":"CHITOSE SHI","town":"HAKUYO","perfecture_jp":"北海道","jp_add_1":"千歳市","jp_add_2":"柏陽"},"0660028":{"post_code":"0660028","prefecture":"HOKKAIDO","city":"CHITOSE SHI","town":"HANAZONO","perfecture_jp":"北海道","jp_add_1":"千歳市","jp_add_2":"花園"},"0660017":{"post_code":"0660017","prefecture":"HOKKAIDO","city":"CHITOSE SHI","town":"HINODE","perfecture_jp":"北海道","jp_add_1":"千歳市","jp_add_2":"日の出"},"0660016":{"post_code":"0660016","prefecture":"HOKKAIDO","city":"CHITOSE SHI","town":"HINODEOKA","perfecture_jp":"北海道","jp_add_1":"千歳市","jp_add_2":"日の出丘"},"0660012":{"post_code":"0660012","prefecture":"HOKKAIDO","city":"CHITOSE SHI","town":"BIBI","perfecture_jp":"北海道","jp_add_1":"千歳市","jp_add_2":"美々"},"0660285":{"post_code":"0660285","prefecture":"HOKKAIDO","city":"CHITOSE SHI","town":"BIFUE","perfecture_jp":"北海道","jp_add_1":"千歳市","jp_add_2":"美笛"},"0660053":{"post_code":"0660053","prefecture":"HOKKAIDO","city":"CHITOSE SHI","town":"FUKUZUMI","perfecture_jp":"北海道","jp_add_1":"千歳市","jp_add_2":"福住"},"0660039":{"post_code":"0660039","prefecture":"HOKKAIDO","city":"CHITOSE SHI","town":"FUJI","perfecture_jp":"北海道","jp_add_1":"千歳市","jp_add_2":"富士"},"0660052":{"post_code":"0660052","prefecture":"HOKKAIDO","city":"CHITOSE SHI","town":"BUNKYO","perfecture_jp":"北海道","jp_add_1":"千歳市","jp_add_2":"文京"},"0660044":{"post_code":"0660044","prefecture":"HOKKAIDO","city":"CHITOSE SHI","town":"HEIWA","perfecture_jp":"北海道","jp_add_1":"千歳市","jp_add_2":"平和"},"0660036":{"post_code":"0660036","prefecture":"HOKKAIDO","city":"CHITOSE SHI","town":"HOKUEI","perfecture_jp":"北海道","jp_add_1":"千歳市","jp_add_2":"北栄"},"0660073":{"post_code":"0660073","prefecture":"HOKKAIDO","city":"CHITOSE SHI","town":"HOKUTO","perfecture_jp":"北海道","jp_add_1":"千歳市","jp_add_2":"北斗"},"0660032":{"post_code":"0660032","prefecture":"HOKKAIDO","city":"CHITOSE SHI","town":"HOKUYO","perfecture_jp":"北海道","jp_add_1":"千歳市","jp_add_2":"北陽"},"0660033":{"post_code":"0660033","prefecture":"HOKKAIDO","city":"CHITOSE SHI","town":"HOKKO","perfecture_jp":"北海道","jp_add_1":"千歳市","jp_add_2":"北光"},"0660287":{"post_code":"0660287","prefecture":"HOKKAIDO","city":"CHITOSE SHI","town":"POROPINAI","perfecture_jp":"北海道","jp_add_1":"千歳市","jp_add_2":"幌美内"},"0660047":{"post_code":"0660047","prefecture":"HOKKAIDO","city":"CHITOSE SHI","town":"HONCHO","perfecture_jp":"北海道","jp_add_1":"千歳市","jp_add_2":"本町"},"0660045":{"post_code":"0660045","prefecture":"HOKKAIDO","city":"CHITOSE SHI","town":"MAMACHI","perfecture_jp":"北海道","jp_add_1":"千歳市","jp_add_2":"真々地"},"0660083":{"post_code":"0660083","prefecture":"HOKKAIDO","city":"CHITOSE SHI","town":"MIDORIDAIKITA","perfecture_jp":"北海道","jp_add_1":"千歳市","jp_add_2":"みどり台北"},"0660084":{"post_code":"0660084","prefecture":"HOKKAIDO","city":"CHITOSE SHI","town":"MIDORIDAIMINAMI","perfecture_jp":"北海道","jp_add_1":"千歳市","jp_add_2":"みどり台南"},"0660074":{"post_code":"0660074","prefecture":"HOKKAIDO","city":"CHITOSE SHI","town":"MIDORICHO","perfecture_jp":"北海道","jp_add_1":"千歳市","jp_add_2":"緑町"},"0660003":{"post_code":"0660003","prefecture":"HOKKAIDO","city":"CHITOSE SHI","town":"MIYAKO","perfecture_jp":"北海道","jp_add_1":"千歳市","jp_add_2":"都"},"0660283":{"post_code":"0660283","prefecture":"HOKKAIDO","city":"CHITOSE SHI","town":"MORAPPU","perfecture_jp":"北海道","jp_add_1":"千歳市","jp_add_2":"モラップ"},"0660066":{"post_code":"0660066","prefecture":"HOKKAIDO","city":"CHITOSE SHI","town":"YAMATO","perfecture_jp":"北海道","jp_add_1":"千歳市","jp_add_2":"大和"},"0660024":{"post_code":"0660024","prefecture":"HOKKAIDO","city":"CHITOSE SHI","town":"YAYOI","perfecture_jp":"北海道","jp_add_1":"千歳市","jp_add_2":"弥生"},"0660078":{"post_code":"0660078","prefecture":"HOKKAIDO","city":"CHITOSE SHI","town":"YUMAI","perfecture_jp":"北海道","jp_add_1":"千歳市","jp_add_2":"勇舞"},"0660068":{"post_code":"0660068","prefecture":"HOKKAIDO","city":"CHITOSE SHI","town":"RANKOSHI","perfecture_jp":"北海道","jp_add_1":"千歳市","jp_add_2":"蘭越"},"0660019":{"post_code":"0660019","prefecture":"HOKKAIDO","city":"CHITOSE SHI","town":"RYUTSU","perfecture_jp":"北海道","jp_add_1":"千歳市","jp_add_2":"流通"},"0660057":{"post_code":"0660057","prefecture":"HOKKAIDO","city":"CHITOSE SHI","town":"WAKAKUSA","perfecture_jp":"北海道","jp_add_1":"千歳市","jp_add_2":"若草"}}