{"0680400":{"post_code":"0680400","prefecture":"HOKKAIDO","city":"YUBARI SHI","town":"IKANIKEISAIGANAIBAAI","perfecture_jp":"北海道","jp_add_1":"夕張市","jp_add_2":""},"0680405":{"post_code":"0680405","prefecture":"HOKKAIDO","city":"YUBARI SHI","town":"ASAHIMACHI","perfecture_jp":"北海道","jp_add_1":"夕張市","jp_add_2":"旭町"},"0680754":{"post_code":"0680754","prefecture":"HOKKAIDO","city":"YUBARI SHI","town":"KAEDE","perfecture_jp":"北海道","jp_add_1":"夕張市","jp_add_2":"楓"},"0680662":{"post_code":"0680662","prefecture":"HOKKAIDO","city":"YUBARI SHI","town":"KASHIMA AKASHICHO","perfecture_jp":"北海道","jp_add_1":"夕張市","jp_add_2":"鹿島明石町"},"0680673":{"post_code":"0680673","prefecture":"HOKKAIDO","city":"YUBARI SHI","town":"KASHIMA SAKAECHO","perfecture_jp":"北海道","jp_add_1":"夕張市","jp_add_2":"鹿島栄町"},"0680661":{"post_code":"0680661","prefecture":"HOKKAIDO","city":"YUBARI SHI","town":"KASHIMA SHIROGANE","perfecture_jp":"北海道","jp_add_1":"夕張市","jp_add_2":"鹿島白金"},"0680665":{"post_code":"0680665","prefecture":"HOKKAIDO","city":"YUBARI SHI","town":"KASHIMA TAKARACHO","perfecture_jp":"北海道","jp_add_1":"夕張市","jp_add_2":"鹿島宝町"},"0680663":{"post_code":"0680663","prefecture":"HOKKAIDO","city":"YUBARI SHI","town":"KASHIMA CHITOSECHO","perfecture_jp":"北海道","jp_add_1":"夕張市","jp_add_2":"鹿島千年町"},"0680664":{"post_code":"0680664","prefecture":"HOKKAIDO","city":"YUBARI SHI","town":"KASHIMA NISHIKICHO","perfecture_jp":"北海道","jp_add_1":"夕張市","jp_add_2":"鹿島錦町"},"0680672":{"post_code":"0680672","prefecture":"HOKKAIDO","city":"YUBARI SHI","town":"KASHIMA FUJIMICHO","perfecture_jp":"北海道","jp_add_1":"夕張市","jp_add_2":"鹿島富士見町"},"0680675":{"post_code":"0680675","prefecture":"HOKKAIDO","city":"YUBARI SHI","town":"KASHIMA HOKUEICHO","perfecture_jp":"北海道","jp_add_1":"夕張市","jp_add_2":"鹿島北栄町"},"0680671":{"post_code":"0680671","prefecture":"HOKKAIDO","city":"YUBARI SHI","town":"KASHIMA MIDORICHO","perfecture_jp":"北海道","jp_add_1":"夕張市","jp_add_2":"鹿島緑町"},"0680674":{"post_code":"0680674","prefecture":"HOKKAIDO","city":"YUBARI SHI","town":"KASHIMA YOYOGICHO","perfecture_jp":"北海道","jp_add_1":"夕張市","jp_add_2":"鹿島代々木町"},"0680413":{"post_code":"0680413","prefecture":"HOKKAIDO","city":"YUBARI SHI","town":"SHIKANOTANI","perfecture_jp":"北海道","jp_add_1":"夕張市","jp_add_2":"鹿の谷"},"0680412":{"post_code":"0680412","prefecture":"HOKKAIDO","city":"YUBARI SHI","town":"SHIKANOTANI HIGASHIOKACHO","perfecture_jp":"北海道","jp_add_1":"夕張市","jp_add_2":"鹿の谷東丘町"},"0680414":{"post_code":"0680414","prefecture":"HOKKAIDO","city":"YUBARI SHI","town":"SHIKANOTANI YAMATECHO","perfecture_jp":"北海道","jp_add_1":"夕張市","jp_add_2":"鹿の谷山手町"},"0680531":{"post_code":"0680531","prefecture":"HOKKAIDO","city":"YUBARI SHI","town":"SHIMIZUSAWA","perfecture_jp":"北海道","jp_add_1":"夕張市","jp_add_2":"清水沢"},"0680532":{"post_code":"0680532","prefecture":"HOKKAIDO","city":"YUBARI SHI","town":"SHIMIZUSAWA SEIEICHO","perfecture_jp":"北海道","jp_add_1":"夕張市","jp_add_2":"清水沢清栄町"},"0680533":{"post_code":"0680533","prefecture":"HOKKAIDO","city":"YUBARI SHI","town":"SHIMIZUSAWA SEIKOCHO","perfecture_jp":"北海道","jp_add_1":"夕張市","jp_add_2":"清水沢清湖町"},"0680535":{"post_code":"0680535","prefecture":"HOKKAIDO","city":"YUBARI SHI","town":"SHIMIZUSAWA SEIRYOCHO","perfecture_jp":"北海道","jp_add_1":"夕張市","jp_add_2":"清水沢清陵町"},"0680534":{"post_code":"0680534","prefecture":"HOKKAIDO","city":"YUBARI SHI","town":"SHIMIZUSAWA MIYAMAECHO","perfecture_jp":"北海道","jp_add_1":"夕張市","jp_add_2":"清水沢宮前町"},"0680402":{"post_code":"0680402","prefecture":"HOKKAIDO","city":"YUBARI SHI","town":"SHAKO","perfecture_jp":"北海道","jp_add_1":"夕張市","jp_add_2":"社光"},"0680404":{"post_code":"0680404","prefecture":"HOKKAIDO","city":"YUBARI SHI","town":"SHOWA","perfecture_jp":"北海道","jp_add_1":"夕張市","jp_add_2":"昭和"},"0680411":{"post_code":"0680411","prefecture":"HOKKAIDO","city":"YUBARI SHI","town":"SUEHIRO","perfecture_jp":"北海道","jp_add_1":"夕張市","jp_add_2":"末広"},"0680406":{"post_code":"0680406","prefecture":"HOKKAIDO","city":"YUBARI SHI","town":"SUMIZOME","perfecture_jp":"北海道","jp_add_1":"夕張市","jp_add_2":"住初"},"0680401":{"post_code":"0680401","prefecture":"HOKKAIDO","city":"YUBARI SHI","town":"TAKAMATSU","perfecture_jp":"北海道","jp_add_1":"夕張市","jp_add_2":"高松"},"0680756":{"post_code":"0680756","prefecture":"HOKKAIDO","city":"YUBARI SHI","town":"TAKINOE","perfecture_jp":"北海道","jp_add_1":"夕張市","jp_add_2":"滝ノ上"},"0680424":{"post_code":"0680424","prefecture":"HOKKAIDO","city":"YUBARI SHI","town":"CHIYODA","perfecture_jp":"北海道","jp_add_1":"夕張市","jp_add_2":"千代田"},"0680409":{"post_code":"0680409","prefecture":"HOKKAIDO","city":"YUBARI SHI","town":"TEIMI","perfecture_jp":"北海道","jp_add_1":"夕張市","jp_add_2":"丁未"},"0680421":{"post_code":"0680421","prefecture":"HOKKAIDO","city":"YUBARI SHI","town":"TOKIWA","perfecture_jp":"北海道","jp_add_1":"夕張市","jp_add_2":"常盤"},"0680408":{"post_code":"0680408","prefecture":"HOKKAIDO","city":"YUBARI SHI","town":"TOMIOKA","perfecture_jp":"北海道","jp_add_1":"夕張市","jp_add_2":"富岡"},"0680426":{"post_code":"0680426","prefecture":"HOKKAIDO","city":"YUBARI SHI","town":"TOMINO","perfecture_jp":"北海道","jp_add_1":"夕張市","jp_add_2":"富野"},"0680546":{"post_code":"0680546","prefecture":"HOKKAIDO","city":"YUBARI SHI","town":"NAMBU KIKUSUICHO","perfecture_jp":"北海道","jp_add_1":"夕張市","jp_add_2":"南部青葉町"},"0680545":{"post_code":"0680545","prefecture":"HOKKAIDO","city":"YUBARI SHI","town":"NAMBU AZUMACHO","perfecture_jp":"北海道","jp_add_1":"夕張市","jp_add_2":"南部東町"},"0680541":{"post_code":"0680541","prefecture":"HOKKAIDO","city":"YUBARI SHI","town":"NAMBU ENHOROCHO","perfecture_jp":"北海道","jp_add_1":"夕張市","jp_add_2":"南部遠幌町"},"0680544":{"post_code":"0680544","prefecture":"HOKKAIDO","city":"YUBARI SHI","town":"NAMBU OMIYACHO","perfecture_jp":"北海道","jp_add_1":"夕張市","jp_add_2":"南部大宮町"},"0680548":{"post_code":"0680548","prefecture":"HOKKAIDO","city":"YUBARI SHI","town":"NAMBU KONANCHO","perfecture_jp":"北海道","jp_add_1":"夕張市","jp_add_2":"南部幌南町"},"0680547":{"post_code":"0680547","prefecture":"HOKKAIDO","city":"YUBARI SHI","town":"NAMBU SHINKOCHO","perfecture_jp":"北海道","jp_add_1":"夕張市","jp_add_2":"南部新光町"},"0680540":{"post_code":"0680540","prefecture":"HOKKAIDO","city":"YUBARI SHI","town":"NAMBU SUMINOECHO","perfecture_jp":"北海道","jp_add_1":"夕張市","jp_add_2":"南部住の江町"},"0680549":{"post_code":"0680549","prefecture":"HOKKAIDO","city":"YUBARI SHI","town":"NAMBU TAKEMICHO","perfecture_jp":"北海道","jp_add_1":"夕張市","jp_add_2":"南部岳見町"},"0680542":{"post_code":"0680542","prefecture":"HOKKAIDO","city":"YUBARI SHI","town":"NAMBU YUNANCHO","perfecture_jp":"北海道","jp_add_1":"夕張市","jp_add_2":"南部夕南町"},"0680543":{"post_code":"0680543","prefecture":"HOKKAIDO","city":"YUBARI SHI","town":"NAMBU WAKAMICHO","perfecture_jp":"北海道","jp_add_1":"夕張市","jp_add_2":"南部若美町"},"0680751":{"post_code":"0680751","prefecture":"HOKKAIDO","city":"YUBARI SHI","town":"NUMANOSAWA","perfecture_jp":"北海道","jp_add_1":"夕張市","jp_add_2":"沼ノ沢"},"0680753":{"post_code":"0680753","prefecture":"HOKKAIDO","city":"YUBARI SHI","town":"NOBORIKAWA","perfecture_jp":"北海道","jp_add_1":"夕張市","jp_add_2":"登川"},"0680422":{"post_code":"0680422","prefecture":"HOKKAIDO","city":"YUBARI SHI","town":"HIYOSHI","perfecture_jp":"北海道","jp_add_1":"夕張市","jp_add_2":"日吉"},"0680407":{"post_code":"0680407","prefecture":"HOKKAIDO","city":"YUBARI SHI","town":"FUKUZUMI","perfecture_jp":"北海道","jp_add_1":"夕張市","jp_add_2":"福住"},"0680423":{"post_code":"0680423","prefecture":"HOKKAIDO","city":"YUBARI SHI","town":"HEIWA","perfecture_jp":"北海道","jp_add_1":"夕張市","jp_add_2":"平和"},"0680403":{"post_code":"0680403","prefecture":"HOKKAIDO","city":"YUBARI SHI","town":"HONCHO","perfecture_jp":"北海道","jp_add_1":"夕張市","jp_add_2":"本町"},"0680752":{"post_code":"0680752","prefecture":"HOKKAIDO","city":"YUBARI SHI","town":"MAYACHI","perfecture_jp":"北海道","jp_add_1":"夕張市","jp_add_2":"真谷地"},"0680536":{"post_code":"0680536","prefecture":"HOKKAIDO","city":"YUBARI SHI","town":"MINAMISHIMIZUSAWA","perfecture_jp":"北海道","jp_add_1":"夕張市","jp_add_2":"南清水沢"},"0680755":{"post_code":"0680755","prefecture":"HOKKAIDO","city":"YUBARI SHI","town":"MOMIJIYAMA","perfecture_jp":"北海道","jp_add_1":"夕張市","jp_add_2":"紅葉山"},"0680425":{"post_code":"0680425","prefecture":"HOKKAIDO","city":"YUBARI SHI","town":"WAKANA","perfecture_jp":"北海道","jp_add_1":"夕張市","jp_add_2":"若菜"},"0680000":{"post_code":"0680000","prefecture":"HOKKAIDO","city":"IWAMIZAWA SHI","town":"IKANIKEISAIGANAIBAAI","perfecture_jp":"北海道","jp_add_1":"岩見沢市","jp_add_2":""},"0683185":{"post_code":"0683185","prefecture":"HOKKAIDO","city":"IWAMIZAWA SHI","town":"ASAHICHO","perfecture_jp":"北海道","jp_add_1":"岩見沢市","jp_add_2":"朝日町"},"0680035":{"post_code":"0680035","prefecture":"HOKKAIDO","city":"IWAMIZAWA SHI","town":"ARIAKECHO CHUO","perfecture_jp":"北海道","jp_add_1":"岩見沢市","jp_add_2":"有明町中央"},"0680034":{"post_code":"0680034","prefecture":"HOKKAIDO","city":"IWAMIZAWA SHI","town":"ARIAKECHO MINAMI","perfecture_jp":"北海道","jp_add_1":"岩見沢市","jp_add_2":"有明町南"},"0680829":{"post_code":"0680829","prefecture":"HOKKAIDO","city":"IWAMIZAWA SHI","town":"KAEDECHO","perfecture_jp":"北海道","jp_add_1":"岩見沢市","jp_add_2":"かえで町"},"0680827":{"post_code":"0680827","prefecture":"HOKKAIDO","city":"IWAMIZAWA SHI","town":"KASUGACHO","perfecture_jp":"北海道","jp_add_1":"岩見沢市","jp_add_2":"春日町"},"0680847":{"post_code":"0680847","prefecture":"HOKKAIDO","city":"IWAMIZAWA SHI","town":"KANEKOCHO","perfecture_jp":"北海道","jp_add_1":"岩見沢市","jp_add_2":"金子町"},"0680836":{"post_code":"0680836","prefecture":"HOKKAIDO","city":"IWAMIZAWA SHI","town":"KAMISHIBUNCHO","perfecture_jp":"北海道","jp_add_1":"岩見沢市","jp_add_2":"上志文町"},"0680057":{"post_code":"0680057","prefecture":"HOKKAIDO","city":"IWAMIZAWA SHI","town":"KITAHONCHO HIGASHI","perfecture_jp":"北海道","jp_add_1":"岩見沢市","jp_add_2":"北本町東"},"0680053":{"post_code":"0680053","prefecture":"HOKKAIDO","city":"IWAMIZAWA SHI","town":"KITAHONCHO NISHI","perfecture_jp":"北海道","jp_add_1":"岩見沢市","jp_add_2":"北本町西"},"0680041":{"post_code":"0680041","prefecture":"HOKKAIDO","city":"IWAMIZAWA SHI","town":"KITA1-JONISHI","perfecture_jp":"北海道","jp_add_1":"岩見沢市","jp_add_2":"北一条西"},"0680042":{"post_code":"0680042","prefecture":"HOKKAIDO","city":"IWAMIZAWA SHI","town":"KITA2-JONISHI","perfecture_jp":"北海道","jp_add_1":"岩見沢市","jp_add_2":"北二条西"},"0680043":{"post_code":"0680043","prefecture":"HOKKAIDO","city":"IWAMIZAWA SHI","town":"KITA3-JONISHI","perfecture_jp":"北海道","jp_add_1":"岩見沢市","jp_add_2":"北三条西"},"0680044":{"post_code":"0680044","prefecture":"HOKKAIDO","city":"IWAMIZAWA SHI","town":"KITA4-JONISHI","perfecture_jp":"北海道","jp_add_1":"岩見沢市","jp_add_2":"北四条西"},"0680045":{"post_code":"0680045","prefecture":"HOKKAIDO","city":"IWAMIZAWA SHI","town":"KITA5-JONISHI","perfecture_jp":"北海道","jp_add_1":"岩見沢市","jp_add_2":"北五条西"},"0680061":{"post_code":"0680061","prefecture":"HOKKAIDO","city":"IWAMIZAWA SHI","town":"KITA6-JONISHI","perfecture_jp":"北海道","jp_add_1":"岩見沢市","jp_add_2":"北六条西"},"0681213":{"post_code":"0681213","prefecture":"HOKKAIDO","city":"IWAMIZAWA SHI","town":"KITAMURA AKAGAWA","perfecture_jp":"北海道","jp_add_1":"岩見沢市","jp_add_2":"北村赤川"},"0681203":{"post_code":"0681203","prefecture":"HOKKAIDO","city":"IWAMIZAWA SHI","town":"KITAMURA ONEGAI","perfecture_jp":"北海道","jp_add_1":"岩見沢市","jp_add_2":"北村大願"},"0681204":{"post_code":"0681204","prefecture":"HOKKAIDO","city":"IWAMIZAWA SHI","town":"KITAMURA SAKAEMACHI","perfecture_jp":"北海道","jp_add_1":"岩見沢市","jp_add_2":"北村栄町"},"0681212":{"post_code":"0681212","prefecture":"HOKKAIDO","city":"IWAMIZAWA SHI","town":"KITAMURA CHUO","perfecture_jp":"北海道","jp_add_1":"岩見沢市","jp_add_2":"北村中央"},"0681205":{"post_code":"0681205","prefecture":"HOKKAIDO","city":"IWAMIZAWA SHI","town":"KITAMURA TOYOSATO","perfecture_jp":"北海道","jp_add_1":"岩見沢市","jp_add_2":"北村豊里"},"0681202":{"post_code":"0681202","prefecture":"HOKKAIDO","city":"IWAMIZAWA SHI","town":"KITAMURA NAKAGOYA","perfecture_jp":"北海道","jp_add_1":"岩見沢市","jp_add_2":"北村中小屋"},"0681214":{"post_code":"0681214","prefecture":"HOKKAIDO","city":"IWAMIZAWA SHI","town":"KITAMURA BIBAITAPPU","perfecture_jp":"北海道","jp_add_1":"岩見沢市","jp_add_2":"北村美唄達布"},"0681201":{"post_code":"0681201","prefecture":"HOKKAIDO","city":"IWAMIZAWA SHI","town":"KITAMURA HOSEI","perfecture_jp":"北海道","jp_add_1":"岩見沢市","jp_add_2":"北村豊正"},"0681161":{"post_code":"0681161","prefecture":"HOKKAIDO","city":"IWAMIZAWA SHI","town":"KITAMURA HOKUTO(SHINNAKAJIMA)","perfecture_jp":"北海道","jp_add_1":"岩見沢市","jp_add_2":"北村北都"},"0681211":{"post_code":"0681211","prefecture":"HOKKAIDO","city":"IWAMIZAWA SHI","town":"KITAMURA HOKUTO(SONOTA)","perfecture_jp":"北海道","jp_add_1":"岩見沢市","jp_add_2":"北村北都"},"0681215":{"post_code":"0681215","prefecture":"HOKKAIDO","city":"IWAMIZAWA SHI","town":"KITAMURA HOROTAPPU","perfecture_jp":"北海道","jp_add_1":"岩見沢市","jp_add_2":"北村幌達布"},"0680106":{"post_code":"0680106","prefecture":"HOKKAIDO","city":"IWAMIZAWA SHI","town":"KURISAWACHO ECHIZEN","perfecture_jp":"北海道","jp_add_1":"岩見沢市","jp_add_2":"栗沢町越前"},"0680112":{"post_code":"0680112","prefecture":"HOKKAIDO","city":"IWAMIZAWA SHI","town":"KURISAWACHO KAMIHORO","perfecture_jp":"北海道","jp_add_1":"岩見沢市","jp_add_2":"栗沢町上幌"},"0680133":{"post_code":"0680133","prefecture":"HOKKAIDO","city":"IWAMIZAWA SHI","town":"KURISAWACHO KAMOGAWA","perfecture_jp":"北海道","jp_add_1":"岩見沢市","jp_add_2":"栗沢町加茂川"},"0680122":{"post_code":"0680122","prefecture":"HOKKAIDO","city":"IWAMIZAWA SHI","town":"KURISAWACHO KITASACHIHO","perfecture_jp":"北海道","jp_add_1":"岩見沢市","jp_add_2":"栗沢町北幸穂"},"0680121":{"post_code":"0680121","prefecture":"HOKKAIDO","city":"IWAMIZAWA SHI","town":"KURISAWACHO KITAHONCHO","perfecture_jp":"北海道","jp_add_1":"岩見沢市","jp_add_2":"栗沢町北本町"},"0680135":{"post_code":"0680135","prefecture":"HOKKAIDO","city":"IWAMIZAWA SHI","town":"KURISAWACHO GIFU","perfecture_jp":"北海道","jp_add_1":"岩見沢市","jp_add_2":"栗沢町岐阜"},"0680134":{"post_code":"0680134","prefecture":"HOKKAIDO","city":"IWAMIZAWA SHI","town":"KURISAWACHO KURIOKA","perfecture_jp":"北海道","jp_add_1":"岩見沢市","jp_add_2":"栗沢町栗丘"},"0680102":{"post_code":"0680102","prefecture":"HOKKAIDO","city":"IWAMIZAWA SHI","town":"KURISAWACHO KURIBE","perfecture_jp":"北海道","jp_add_1":"岩見沢市","jp_add_2":"栗沢町栗部"},"0680104":{"post_code":"0680104","prefecture":"HOKKAIDO","city":"IWAMIZAWA SHI","town":"KURISAWACHO KOSEI","perfecture_jp":"北海道","jp_add_1":"岩見沢市","jp_add_2":"栗沢町耕成"},"0680131":{"post_code":"0680131","prefecture":"HOKKAIDO","city":"IWAMIZAWA SHI","town":"KURISAWACHO KONISHI","perfecture_jp":"北海道","jp_add_1":"岩見沢市","jp_add_2":"栗沢町小西"},"0680124":{"post_code":"0680124","prefecture":"HOKKAIDO","city":"IWAMIZAWA SHI","town":"KURISAWACHO SACHIHOCHO","perfecture_jp":"北海道","jp_add_1":"岩見沢市","jp_add_2":"栗沢町幸穂町"},"0680105":{"post_code":"0680105","prefecture":"HOKKAIDO","city":"IWAMIZAWA SHI","town":"KURISAWACHO JIKYO","perfecture_jp":"北海道","jp_add_1":"岩見沢市","jp_add_2":"栗沢町自協"},"0680103":{"post_code":"0680103","prefecture":"HOKKAIDO","city":"IWAMIZAWA SHI","town":"KURISAWACHO TONAMI","perfecture_jp":"北海道","jp_add_1":"岩見沢市","jp_add_2":"栗沢町砺波"},"0680126":{"post_code":"0680126","prefecture":"HOKKAIDO","city":"IWAMIZAWA SHI","town":"KURISAWACHO NISHIHONCHO","perfecture_jp":"北海道","jp_add_1":"岩見沢市","jp_add_2":"栗沢町西本町"},"0683165":{"post_code":"0683165","prefecture":"HOKKAIDO","city":"IWAMIZAWA SHI","town":"KURISAWACHO NISHIMANJI","perfecture_jp":"北海道","jp_add_1":"岩見沢市","jp_add_2":"栗沢町西万字"},"0680123":{"post_code":"0680123","prefecture":"HOKKAIDO","city":"IWAMIZAWA SHI","town":"KURISAWACHO HIGASHIHONCHO","perfecture_jp":"北海道","jp_add_1":"岩見沢市","jp_add_2":"栗沢町東本町"},"0680136":{"post_code":"0680136","prefecture":"HOKKAIDO","city":"IWAMIZAWA SHI","town":"KURISAWACHO HISSEI","perfecture_jp":"北海道","jp_add_1":"岩見沢市","jp_add_2":"栗沢町必成"},"0680101":{"post_code":"0680101","prefecture":"HOKKAIDO","city":"IWAMIZAWA SHI","town":"KURISAWACHO HOKUTO","perfecture_jp":"北海道","jp_add_1":"岩見沢市","jp_add_2":"栗沢町北斗"},"0680127":{"post_code":"0680127","prefecture":"HOKKAIDO","city":"IWAMIZAWA SHI","town":"KURISAWACHO HONCHO","perfecture_jp":"北海道","jp_add_1":"岩見沢市","jp_add_2":"栗沢町本町"},"0683154":{"post_code":"0683154","prefecture":"HOKKAIDO","city":"IWAMIZAWA SHI","town":"KURISAWACHO MANJIAKEBONOMACHI","perfecture_jp":"北海道","jp_add_1":"岩見沢市","jp_add_2":"栗沢町万字曙町"},"0683162":{"post_code":"0683162","prefecture":"HOKKAIDO","city":"IWAMIZAWA SHI","town":"KURISAWACHO MANJIASAHIMACHI","perfecture_jp":"北海道","jp_add_1":"岩見沢市","jp_add_2":"栗沢町万字旭町"},"0683151":{"post_code":"0683151","prefecture":"HOKKAIDO","city":"IWAMIZAWA SHI","town":"KURISAWACHO MANJIOTAIRA","perfecture_jp":"北海道","jp_add_1":"岩見沢市","jp_add_2":"栗沢町万字大平"},"0683155":{"post_code":"0683155","prefecture":"HOKKAIDO","city":"IWAMIZAWA SHI","town":"KURISAWACHO MANJIKOTOBUKICHO","perfecture_jp":"北海道","jp_add_1":"岩見沢市","jp_add_2":"栗沢町万字寿町"},"0683152":{"post_code":"0683152","prefecture":"HOKKAIDO","city":"IWAMIZAWA SHI","town":"KURISAWACHO MANJISAIWAICHO","perfecture_jp":"北海道","jp_add_1":"岩見沢市","jp_add_2":"栗沢町万字幸町"},"0683158":{"post_code":"0683158","prefecture":"HOKKAIDO","city":"IWAMIZAWA SHI","town":"KURISAWACHO MANJITOMOECHO","perfecture_jp":"北海道","jp_add_1":"岩見沢市","jp_add_2":"栗沢町万字巴町"},"0683153":{"post_code":"0683153","prefecture":"HOKKAIDO","city":"IWAMIZAWA SHI","town":"KURISAWACHO MANJINAKAMACHI","perfecture_jp":"北海道","jp_add_1":"岩見沢市","jp_add_2":"栗沢町万字仲町"},"0683164":{"post_code":"0683164","prefecture":"HOKKAIDO","city":"IWAMIZAWA SHI","town":"KURISAWACHO MANJINISHIKIMACHI","perfecture_jp":"北海道","jp_add_1":"岩見沢市","jp_add_2":"栗沢町万字錦町"},"0683163":{"post_code":"0683163","prefecture":"HOKKAIDO","city":"IWAMIZAWA SHI","town":"KURISAWACHO MANJINISHIHARAMACHI","perfecture_jp":"北海道","jp_add_1":"岩見沢市","jp_add_2":"栗沢町万字西原町"},"0683156":{"post_code":"0683156","prefecture":"HOKKAIDO","city":"IWAMIZAWA SHI","town":"KURISAWACHO MANJIHANABUSACHO","perfecture_jp":"北海道","jp_add_1":"岩見沢市","jp_add_2":"栗沢町万字英町"},"0683159":{"post_code":"0683159","prefecture":"HOKKAIDO","city":"IWAMIZAWA SHI","town":"KURISAWACHO MANJIFUTAMICHO","perfecture_jp":"北海道","jp_add_1":"岩見沢市","jp_add_2":"栗沢町万字二見町"},"0683157":{"post_code":"0683157","prefecture":"HOKKAIDO","city":"IWAMIZAWA SHI","town":"KURISAWACHO MANJIMUTSUMICHO","perfecture_jp":"北海道","jp_add_1":"岩見沢市","jp_add_2":"栗沢町万字睦町"},"0680132":{"post_code":"0680132","prefecture":"HOKKAIDO","city":"IWAMIZAWA SHI","town":"KURISAWACHO MINAMISACHIHO","perfecture_jp":"北海道","jp_add_1":"岩見沢市","jp_add_2":"栗沢町南幸穂"},"0680125":{"post_code":"0680125","prefecture":"HOKKAIDO","city":"IWAMIZAWA SHI","town":"KURISAWACHO MINAMIHONCHO","perfecture_jp":"北海道","jp_add_1":"岩見沢市","jp_add_2":"栗沢町南本町"},"0683161":{"post_code":"0683161","prefecture":"HOKKAIDO","city":"IWAMIZAWA SHI","town":"KURISAWACHO MIYAMURA(248.339.726.78","perfecture_jp":"北海道","jp_add_1":"岩見沢市","jp_add_2":"栗沢町宮村"},"0680113":{"post_code":"0680113","prefecture":"HOKKAIDO","city":"IWAMIZAWA SHI","town":"KURISAWACHO MIYAMURA(SONOTA)","perfecture_jp":"北海道","jp_add_1":"岩見沢市","jp_add_2":"栗沢町宮村"},"0683183":{"post_code":"0683183","prefecture":"HOKKAIDO","city":"IWAMIZAWA SHI","town":"KURISAWACHO MIRUTOKAEDECHO","perfecture_jp":"北海道","jp_add_1":"岩見沢市","jp_add_2":"栗沢町美流渡楓町"},"0683172":{"post_code":"0683172","prefecture":"HOKKAIDO","city":"IWAMIZAWA SHI","town":"KURISAWACHO MIRUTOSAKAECHO","perfecture_jp":"北海道","jp_add_1":"岩見沢市","jp_add_2":"栗沢町美流渡栄町"},"0683179":{"post_code":"0683179","prefecture":"HOKKAIDO","city":"IWAMIZAWA SHI","town":"KURISAWACHO MIRUTOSAKURAMACHI","perfecture_jp":"北海道","jp_add_1":"岩見沢市","jp_add_2":"栗沢町美流渡桜町"},"0683177":{"post_code":"0683177","prefecture":"HOKKAIDO","city":"IWAMIZAWA SHI","town":"KURISAWACHO MIRUTOSUEHIROCHO","perfecture_jp":"北海道","jp_add_1":"岩見沢市","jp_add_2":"栗沢町美流渡末広町"},"0683176":{"post_code":"0683176","prefecture":"HOKKAIDO","city":"IWAMIZAWA SHI","town":"KURISAWACHO MIRUTOTOEICHO","perfecture_jp":"北海道","jp_add_1":"岩見沢市","jp_add_2":"栗沢町美流渡東栄町"},"0683178":{"post_code":"0683178","prefecture":"HOKKAIDO","city":"IWAMIZAWA SHI","town":"KURISAWACHO MIRUTONISHIKICHO","perfecture_jp":"北海道","jp_add_1":"岩見沢市","jp_add_2":"栗沢町美流渡錦町"},"0683175":{"post_code":"0683175","prefecture":"HOKKAIDO","city":"IWAMIZAWA SHI","town":"KURISAWACHO MIRUTONISHIMACHI","perfecture_jp":"北海道","jp_add_1":"岩見沢市","jp_add_2":"栗沢町美流渡西町"},"0683180":{"post_code":"0683180","prefecture":"HOKKAIDO","city":"IWAMIZAWA SHI","town":"KURISAWACHO MIRUTOHIGASHIMACHI","perfecture_jp":"北海道","jp_add_1":"岩見沢市","jp_add_2":"栗沢町美流渡東町"},"0683171":{"post_code":"0683171","prefecture":"HOKKAIDO","city":"IWAMIZAWA SHI","town":"KURISAWACHO MIRUTOHONCHO","perfecture_jp":"北海道","jp_add_1":"岩見沢市","jp_add_2":"栗沢町美流渡本町"},"0683182":{"post_code":"0683182","prefecture":"HOKKAIDO","city":"IWAMIZAWA SHI","town":"KURISAWACHO MIRUTOMIDORIMACHI","perfecture_jp":"北海道","jp_add_1":"岩見沢市","jp_add_2":"栗沢町美流渡緑町"},"0683181":{"post_code":"0683181","prefecture":"HOKKAIDO","city":"IWAMIZAWA SHI","town":"KURISAWACHO MIRUTOMINAMIMACHI","perfecture_jp":"北海道","jp_add_1":"岩見沢市","jp_add_2":"栗沢町美流渡南町"},"0683174":{"post_code":"0683174","prefecture":"HOKKAIDO","city":"IWAMIZAWA SHI","town":"KURISAWACHO MIRUTOYOSHINOCHO","perfecture_jp":"北海道","jp_add_1":"岩見沢市","jp_add_2":"栗沢町美流渡吉野町"},"0683173":{"post_code":"0683173","prefecture":"HOKKAIDO","city":"IWAMIZAWA SHI","town":"KURISAWACHO MIRUTOWAKABACHO","perfecture_jp":"北海道","jp_add_1":"岩見沢市","jp_add_2":"栗沢町美流渡若葉町"},"0680115":{"post_code":"0680115","prefecture":"HOKKAIDO","city":"IWAMIZAWA SHI","town":"KURISAWACHO MOGAMI","perfecture_jp":"北海道","jp_add_1":"岩見沢市","jp_add_2":"栗沢町最上"},"0680114":{"post_code":"0680114","prefecture":"HOKKAIDO","city":"IWAMIZAWA SHI","town":"KURISAWACHO MOSEUSHI","perfecture_jp":"北海道","jp_add_1":"岩見沢市","jp_add_2":"栗沢町茂世丑"},"0680111":{"post_code":"0680111","prefecture":"HOKKAIDO","city":"IWAMIZAWA SHI","town":"KURISAWACHO YURA","perfecture_jp":"北海道","jp_add_1":"岩見沢市","jp_add_2":"栗沢町由良"},"0680834":{"post_code":"0680834","prefecture":"HOKKAIDO","city":"IWAMIZAWA SHI","town":"KOMAZONO","perfecture_jp":"北海道","jp_add_1":"岩見沢市","jp_add_2":"駒園"},"0680821":{"post_code":"0680821","prefecture":"HOKKAIDO","city":"IWAMIZAWA SHI","town":"SAKAEMACHI","perfecture_jp":"北海道","jp_add_1":"岩見沢市","jp_add_2":"栄町"},"0680058":{"post_code":"0680058","prefecture":"HOKKAIDO","city":"IWAMIZAWA SHI","town":"SAKURAGI1-JO","perfecture_jp":"北海道","jp_add_1":"岩見沢市","jp_add_2":"桜木一条"},"0680833":{"post_code":"0680833","prefecture":"HOKKAIDO","city":"IWAMIZAWA SHI","town":"SHIBUNCHO","perfecture_jp":"北海道","jp_add_1":"岩見沢市","jp_add_2":"志文町"},"0680841":{"post_code":"0680841","prefecture":"HOKKAIDO","city":"IWAMIZAWA SHI","town":"SHIBUNHONCHO 1-JO","perfecture_jp":"北海道","jp_add_1":"岩見沢市","jp_add_2":"志文本町一条"},"0680842":{"post_code":"0680842","prefecture":"HOKKAIDO","city":"IWAMIZAWA SHI","town":"SHIBUNHONCHO 2-JO","perfecture_jp":"北海道","jp_add_1":"岩見沢市","jp_add_2":"志文本町二条"},"0680843":{"post_code":"0680843","prefecture":"HOKKAIDO","city":"IWAMIZAWA SHI","town":"SHIBUNHONCHO 3-JO","perfecture_jp":"北海道","jp_add_1":"岩見沢市","jp_add_2":"志文本町三条"},"0680844":{"post_code":"0680844","prefecture":"HOKKAIDO","city":"IWAMIZAWA SHI","town":"SHIBUNHONCHO 4-JO","perfecture_jp":"北海道","jp_add_1":"岩見沢市","jp_add_2":"志文本町四条"},"0680845":{"post_code":"0680845","prefecture":"HOKKAIDO","city":"IWAMIZAWA SHI","town":"SHIBUNHONCHO 5-JO","perfecture_jp":"北海道","jp_add_1":"岩見沢市","jp_add_2":"志文本町五条"},"0683186":{"post_code":"0683186","prefecture":"HOKKAIDO","city":"IWAMIZAWA SHI","town":"SHIMIZUCHO","perfecture_jp":"北海道","jp_add_1":"岩見沢市","jp_add_2":"清水町"},"0680846":{"post_code":"0680846","prefecture":"HOKKAIDO","city":"IWAMIZAWA SHI","town":"SHIMOSHIBUNCHO","perfecture_jp":"北海道","jp_add_1":"岩見沢市","jp_add_2":"下志文町"},"0680818":{"post_code":"0680818","prefecture":"HOKKAIDO","city":"IWAMIZAWA SHI","town":"NAMIKICHO","perfecture_jp":"北海道","jp_add_1":"岩見沢市","jp_add_2":"並木町"},"0683187":{"post_code":"0683187","prefecture":"HOKKAIDO","city":"IWAMIZAWA SHI","town":"NARACHO","perfecture_jp":"北海道","jp_add_1":"岩見沢市","jp_add_2":"奈良町"},"0680048":{"post_code":"0680048","prefecture":"HOKKAIDO","city":"IWAMIZAWA SHI","town":"NISHIKAWACHO","perfecture_jp":"北海道","jp_add_1":"岩見沢市","jp_add_2":"西川町"},"0680828":{"post_code":"0680828","prefecture":"HOKKAIDO","city":"IWAMIZAWA SHI","town":"HATOGAOKA","perfecture_jp":"北海道","jp_add_1":"岩見沢市","jp_add_2":"鳩が丘"},"0680015":{"post_code":"0680015","prefecture":"HOKKAIDO","city":"IWAMIZAWA SHI","town":"HIGASHIMACHI","perfecture_jp":"北海道","jp_add_1":"岩見沢市","jp_add_2":"東町"},"0680013":{"post_code":"0680013","prefecture":"HOKKAIDO","city":"IWAMIZAWA SHI","town":"HIGASHIMACHI 1-JO","perfecture_jp":"北海道","jp_add_1":"岩見沢市","jp_add_2":"東町一条"},"0680014":{"post_code":"0680014","prefecture":"HOKKAIDO","city":"IWAMIZAWA SHI","town":"HIGASHIMACHI 2-JO","perfecture_jp":"北海道","jp_add_1":"岩見沢市","jp_add_2":"東町二条"},"0680820":{"post_code":"0680820","prefecture":"HOKKAIDO","city":"IWAMIZAWA SHI","town":"HIGASHIYAMA","perfecture_jp":"北海道","jp_add_1":"岩見沢市","jp_add_2":"東山"},"0680826":{"post_code":"0680826","prefecture":"HOKKAIDO","city":"IWAMIZAWA SHI","town":"HIGASHIYAMACHO","perfecture_jp":"北海道","jp_add_1":"岩見沢市","jp_add_2":"東山町"},"0680823":{"post_code":"0680823","prefecture":"HOKKAIDO","city":"IWAMIZAWA SHI","town":"HINODE MINAMI","perfecture_jp":"北海道","jp_add_1":"岩見沢市","jp_add_2":"日の出南"},"0680824":{"post_code":"0680824","prefecture":"HOKKAIDO","city":"IWAMIZAWA SHI","town":"HINODE KITA","perfecture_jp":"北海道","jp_add_1":"岩見沢市","jp_add_2":"日の出北"},"0680822":{"post_code":"0680822","prefecture":"HOKKAIDO","city":"IWAMIZAWA SHI","town":"HINODEDAI","perfecture_jp":"北海道","jp_add_1":"岩見沢市","jp_add_2":"日の出台"},"0680825":{"post_code":"0680825","prefecture":"HOKKAIDO","city":"IWAMIZAWA SHI","town":"HINODECHO","perfecture_jp":"北海道","jp_add_1":"岩見沢市","jp_add_2":"日の出町"},"0680831":{"post_code":"0680831","prefecture":"HOKKAIDO","city":"IWAMIZAWA SHI","town":"FUJICHO 1-JO","perfecture_jp":"北海道","jp_add_1":"岩見沢市","jp_add_2":"ふじ町一条"},"0680832":{"post_code":"0680832","prefecture":"HOKKAIDO","city":"IWAMIZAWA SHI","town":"FUJICHO 2-JO","perfecture_jp":"北海道","jp_add_1":"岩見沢市","jp_add_2":"ふじ町二条"},"0680837":{"post_code":"0680837","prefecture":"HOKKAIDO","city":"IWAMIZAWA SHI","town":"HOSUICHO","perfecture_jp":"北海道","jp_add_1":"岩見沢市","jp_add_2":"宝水町"},"0680811":{"post_code":"0680811","prefecture":"HOKKAIDO","city":"IWAMIZAWA SHI","town":"MISONO 1-JO","perfecture_jp":"北海道","jp_add_1":"岩見沢市","jp_add_2":"美園一条"},"0680812":{"post_code":"0680812","prefecture":"HOKKAIDO","city":"IWAMIZAWA SHI","town":"MISONO 2-JO","perfecture_jp":"北海道","jp_add_1":"岩見沢市","jp_add_2":"美園二条"},"0680813":{"post_code":"0680813","prefecture":"HOKKAIDO","city":"IWAMIZAWA SHI","town":"MISONO 3-JO","perfecture_jp":"北海道","jp_add_1":"岩見沢市","jp_add_2":"美園三条"},"0680814":{"post_code":"0680814","prefecture":"HOKKAIDO","city":"IWAMIZAWA SHI","town":"MISONO 4-JO","perfecture_jp":"北海道","jp_add_1":"岩見沢市","jp_add_2":"美園四条"},"0680815":{"post_code":"0680815","prefecture":"HOKKAIDO","city":"IWAMIZAWA SHI","town":"MISONO 5-JO","perfecture_jp":"北海道","jp_add_1":"岩見沢市","jp_add_2":"美園五条"},"0680816":{"post_code":"0680816","prefecture":"HOKKAIDO","city":"IWAMIZAWA SHI","town":"MISONO 6-JO","perfecture_jp":"北海道","jp_add_1":"岩見沢市","jp_add_2":"美園六条"},"0680817":{"post_code":"0680817","prefecture":"HOKKAIDO","city":"IWAMIZAWA SHI","town":"MISONO 7-JO","perfecture_jp":"北海道","jp_add_1":"岩見沢市","jp_add_2":"美園七条"},"0680835":{"post_code":"0680835","prefecture":"HOKKAIDO","city":"IWAMIZAWA SHI","town":"MIDORIGAOKA","perfecture_jp":"北海道","jp_add_1":"岩見沢市","jp_add_2":"緑が丘"},"0680046":{"post_code":"0680046","prefecture":"HOKKAIDO","city":"IWAMIZAWA SHI","town":"MIDORICHO","perfecture_jp":"北海道","jp_add_1":"岩見沢市","jp_add_2":"緑町"},"0680810":{"post_code":"0680810","prefecture":"HOKKAIDO","city":"IWAMIZAWA SHI","town":"MINAMIMACHI","perfecture_jp":"北海道","jp_add_1":"岩見沢市","jp_add_2":"南町"},"0680801":{"post_code":"0680801","prefecture":"HOKKAIDO","city":"IWAMIZAWA SHI","town":"MINAMIMACHI 1-JO","perfecture_jp":"北海道","jp_add_1":"岩見沢市","jp_add_2":"南町一条"},"0680802":{"post_code":"0680802","prefecture":"HOKKAIDO","city":"IWAMIZAWA SHI","town":"MINAMIMACHI 2-JO","perfecture_jp":"北海道","jp_add_1":"岩見沢市","jp_add_2":"南町二条"},"0680803":{"post_code":"0680803","prefecture":"HOKKAIDO","city":"IWAMIZAWA SHI","town":"MINAMIMACHI 3-JO","perfecture_jp":"北海道","jp_add_1":"岩見沢市","jp_add_2":"南町三条"},"0680804":{"post_code":"0680804","prefecture":"HOKKAIDO","city":"IWAMIZAWA SHI","town":"MINAMIMACHI 4-JO","perfecture_jp":"北海道","jp_add_1":"岩見沢市","jp_add_2":"南町四条"},"0680805":{"post_code":"0680805","prefecture":"HOKKAIDO","city":"IWAMIZAWA SHI","town":"MINAMIMACHI 5-JO","perfecture_jp":"北海道","jp_add_1":"岩見沢市","jp_add_2":"南町五条"},"0680806":{"post_code":"0680806","prefecture":"HOKKAIDO","city":"IWAMIZAWA SHI","town":"MINAMIMACHI 6-JO","perfecture_jp":"北海道","jp_add_1":"岩見沢市","jp_add_2":"南町六条"},"0680807":{"post_code":"0680807","prefecture":"HOKKAIDO","city":"IWAMIZAWA SHI","town":"MINAMIMACHI 7-JO","perfecture_jp":"北海道","jp_add_1":"岩見沢市","jp_add_2":"南町七条"},"0680808":{"post_code":"0680808","prefecture":"HOKKAIDO","city":"IWAMIZAWA SHI","town":"MINAMIMACHI 8-JO","perfecture_jp":"北海道","jp_add_1":"岩見沢市","jp_add_2":"南町八条"},"0680809":{"post_code":"0680809","prefecture":"HOKKAIDO","city":"IWAMIZAWA SHI","town":"MINAMIMACHI 9-JO","perfecture_jp":"北海道","jp_add_1":"岩見沢市","jp_add_2":"南町九条"},"0680016":{"post_code":"0680016","prefecture":"HOKKAIDO","city":"IWAMIZAWA SHI","town":"MINORICHO","perfecture_jp":"北海道","jp_add_1":"岩見沢市","jp_add_2":"稔町"},"0683188":{"post_code":"0683188","prefecture":"HOKKAIDO","city":"IWAMIZAWA SHI","town":"MOYOCHO","perfecture_jp":"北海道","jp_add_1":"岩見沢市","jp_add_2":"毛陽町"},"0680054":{"post_code":"0680054","prefecture":"HOKKAIDO","city":"IWAMIZAWA SHI","town":"MOTOMACHI1-JO HIGASHI","perfecture_jp":"北海道","jp_add_1":"岩見沢市","jp_add_2":"元町一条東"},"0680051":{"post_code":"0680051","prefecture":"HOKKAIDO","city":"IWAMIZAWA SHI","town":"MOTOMACHI1-JO NISHI","perfecture_jp":"北海道","jp_add_1":"岩見沢市","jp_add_2":"元町一条西"},"0680055":{"post_code":"0680055","prefecture":"HOKKAIDO","city":"IWAMIZAWA SHI","town":"MOTOMACHI2-JO HIGASHI","perfecture_jp":"北海道","jp_add_1":"岩見沢市","jp_add_2":"元町二条東"},"0680052":{"post_code":"0680052","prefecture":"HOKKAIDO","city":"IWAMIZAWA SHI","town":"MOTOMACHI2-JO NISHI","perfecture_jp":"北海道","jp_add_1":"岩見沢市","jp_add_2":"元町二条西"},"0680056":{"post_code":"0680056","prefecture":"HOKKAIDO","city":"IWAMIZAWA SHI","town":"MOTOMACHI3-JO HIGASHI","perfecture_jp":"北海道","jp_add_1":"岩見沢市","jp_add_2":"元町三条東"},"0680851":{"post_code":"0680851","prefecture":"HOKKAIDO","city":"IWAMIZAWA SHI","town":"YAMATO 1-JO","perfecture_jp":"北海道","jp_add_1":"岩見沢市","jp_add_2":"大和一条"},"0680852":{"post_code":"0680852","prefecture":"HOKKAIDO","city":"IWAMIZAWA SHI","town":"YAMATO 2-JO","perfecture_jp":"北海道","jp_add_1":"岩見沢市","jp_add_2":"大和二条"},"0680853":{"post_code":"0680853","prefecture":"HOKKAIDO","city":"IWAMIZAWA SHI","town":"YAMATO 3-JO","perfecture_jp":"北海道","jp_add_1":"岩見沢市","jp_add_2":"大和三条"},"0680854":{"post_code":"0680854","prefecture":"HOKKAIDO","city":"IWAMIZAWA SHI","town":"YAMATO 4-JO","perfecture_jp":"北海道","jp_add_1":"岩見沢市","jp_add_2":"大和四条"},"0680855":{"post_code":"0680855","prefecture":"HOKKAIDO","city":"IWAMIZAWA SHI","town":"YAMATOCHO","perfecture_jp":"北海道","jp_add_1":"岩見沢市","jp_add_2":"大和町"},"0680830":{"post_code":"0680830","prefecture":"HOKKAIDO","city":"IWAMIZAWA SHI","town":"WAKAKOMA","perfecture_jp":"北海道","jp_add_1":"岩見沢市","jp_add_2":"若駒"},"0680047":{"post_code":"0680047","prefecture":"HOKKAIDO","city":"IWAMIZAWA SHI","town":"WAKAMATSUCHO","perfecture_jp":"北海道","jp_add_1":"岩見沢市","jp_add_2":"若松町"},"0680001":{"post_code":"0680001","prefecture":"HOKKAIDO","city":"IWAMIZAWA SHI","town":"1-JO HIGASHI","perfecture_jp":"北海道","jp_add_1":"岩見沢市","jp_add_2":"一条東"},"0680021":{"post_code":"0680021","prefecture":"HOKKAIDO","city":"IWAMIZAWA SHI","town":"1-JO NISHI","perfecture_jp":"北海道","jp_add_1":"岩見沢市","jp_add_2":"一条西"},"0680002":{"post_code":"0680002","prefecture":"HOKKAIDO","city":"IWAMIZAWA SHI","town":"2-JO HIGASHI","perfecture_jp":"北海道","jp_add_1":"岩見沢市","jp_add_2":"二条東"},"0680022":{"post_code":"0680022","prefecture":"HOKKAIDO","city":"IWAMIZAWA SHI","town":"2-JO NISHI","perfecture_jp":"北海道","jp_add_1":"岩見沢市","jp_add_2":"二条西"},"0680003":{"post_code":"0680003","prefecture":"HOKKAIDO","city":"IWAMIZAWA SHI","town":"3-JO HIGASHI","perfecture_jp":"北海道","jp_add_1":"岩見沢市","jp_add_2":"三条東"},"0680023":{"post_code":"0680023","prefecture":"HOKKAIDO","city":"IWAMIZAWA SHI","town":"3-JO NISHI","perfecture_jp":"北海道","jp_add_1":"岩見沢市","jp_add_2":"三条西"},"0680004":{"post_code":"0680004","prefecture":"HOKKAIDO","city":"IWAMIZAWA SHI","town":"4-JO HIGASHI","perfecture_jp":"北海道","jp_add_1":"岩見沢市","jp_add_2":"四条東"},"0680024":{"post_code":"0680024","prefecture":"HOKKAIDO","city":"IWAMIZAWA SHI","town":"4-JO NISHI","perfecture_jp":"北海道","jp_add_1":"岩見沢市","jp_add_2":"四条西"},"0680005":{"post_code":"0680005","prefecture":"HOKKAIDO","city":"IWAMIZAWA SHI","town":"5-JO HIGASHI","perfecture_jp":"北海道","jp_add_1":"岩見沢市","jp_add_2":"五条東"},"0680025":{"post_code":"0680025","prefecture":"HOKKAIDO","city":"IWAMIZAWA SHI","town":"5-JO NISHI","perfecture_jp":"北海道","jp_add_1":"岩見沢市","jp_add_2":"五条西"},"0680006":{"post_code":"0680006","prefecture":"HOKKAIDO","city":"IWAMIZAWA SHI","town":"6-JO HIGASHI","perfecture_jp":"北海道","jp_add_1":"岩見沢市","jp_add_2":"六条東"},"0680026":{"post_code":"0680026","prefecture":"HOKKAIDO","city":"IWAMIZAWA SHI","town":"6-JO NISHI","perfecture_jp":"北海道","jp_add_1":"岩見沢市","jp_add_2":"六条西"},"0680007":{"post_code":"0680007","prefecture":"HOKKAIDO","city":"IWAMIZAWA SHI","town":"7-JO HIGASHI","perfecture_jp":"北海道","jp_add_1":"岩見沢市","jp_add_2":"七条東"},"0680027":{"post_code":"0680027","prefecture":"HOKKAIDO","city":"IWAMIZAWA SHI","town":"7-JO NISHI","perfecture_jp":"北海道","jp_add_1":"岩見沢市","jp_add_2":"七条西"},"0680008":{"post_code":"0680008","prefecture":"HOKKAIDO","city":"IWAMIZAWA SHI","town":"8-JO HIGASHI","perfecture_jp":"北海道","jp_add_1":"岩見沢市","jp_add_2":"八条東"},"0680028":{"post_code":"0680028","prefecture":"HOKKAIDO","city":"IWAMIZAWA SHI","town":"8-JO NISHI","perfecture_jp":"北海道","jp_add_1":"岩見沢市","jp_add_2":"八条西"},"0680009":{"post_code":"0680009","prefecture":"HOKKAIDO","city":"IWAMIZAWA SHI","town":"9-JO HIGASHI","perfecture_jp":"北海道","jp_add_1":"岩見沢市","jp_add_2":"九条東"},"0680029":{"post_code":"0680029","prefecture":"HOKKAIDO","city":"IWAMIZAWA SHI","town":"9-JO NISHI","perfecture_jp":"北海道","jp_add_1":"岩見沢市","jp_add_2":"九条西"},"0680010":{"post_code":"0680010","prefecture":"HOKKAIDO","city":"IWAMIZAWA SHI","town":"10-JO HIGASHI","perfecture_jp":"北海道","jp_add_1":"岩見沢市","jp_add_2":"十条東"},"0680030":{"post_code":"0680030","prefecture":"HOKKAIDO","city":"IWAMIZAWA SHI","town":"10-JO NISHI","perfecture_jp":"北海道","jp_add_1":"岩見沢市","jp_add_2":"十条西"},"0680011":{"post_code":"0680011","prefecture":"HOKKAIDO","city":"IWAMIZAWA SHI","town":"11-JO HIGASHI","perfecture_jp":"北海道","jp_add_1":"岩見沢市","jp_add_2":"十一条東"},"0680031":{"post_code":"0680031","prefecture":"HOKKAIDO","city":"IWAMIZAWA SHI","town":"11-JO NISHI","perfecture_jp":"北海道","jp_add_1":"岩見沢市","jp_add_2":"十一条西"},"0680012":{"post_code":"0680012","prefecture":"HOKKAIDO","city":"IWAMIZAWA SHI","town":"12-JO HIGASHI","perfecture_jp":"北海道","jp_add_1":"岩見沢市","jp_add_2":"十二条東"},"0680032":{"post_code":"0680032","prefecture":"HOKKAIDO","city":"IWAMIZAWA SHI","town":"12-JO NISHI","perfecture_jp":"北海道","jp_add_1":"岩見沢市","jp_add_2":"十二条西"},"0680033":{"post_code":"0680033","prefecture":"HOKKAIDO","city":"IWAMIZAWA SHI","town":"13-JO NISHI","perfecture_jp":"北海道","jp_add_1":"岩見沢市","jp_add_2":"十三条西"},"0682181":{"post_code":"0682181","prefecture":"HOKKAIDO","city":"BIBAI SHI","town":"KOSHUNAICHOMINAMI(2794-12-BANCHI)","perfecture_jp":"北海道","jp_add_1":"美唄市","jp_add_2":"光珠内町南"},"0682100":{"post_code":"0682100","prefecture":"HOKKAIDO","city":"MIKASA SHI","town":"IKANIKEISAIGANAIBAAI","perfecture_jp":"北海道","jp_add_1":"三笠市","jp_add_2":""},"0682151":{"post_code":"0682151","prefecture":"HOKKAIDO","city":"MIKASA SHI","town":"ARIAKECHO","perfecture_jp":"北海道","jp_add_1":"三笠市","jp_add_2":"有明町"},"0682112":{"post_code":"0682112","prefecture":"HOKKAIDO","city":"MIKASA SHI","town":"IKUSHUMBETSU KAWAMUKAICHO","perfecture_jp":"北海道","jp_add_1":"三笠市","jp_add_2":"幾春別川向町"},"0682114":{"post_code":"0682114","prefecture":"HOKKAIDO","city":"MIKASA SHI","town":"IKUSHUMBETSU KURIOKACHO","perfecture_jp":"北海道","jp_add_1":"三笠市","jp_add_2":"幾春別栗丘町"},"0682118":{"post_code":"0682118","prefecture":"HOKKAIDO","city":"MIKASA SHI","town":"IKUSHUMBETSU SENJUCHO","perfecture_jp":"北海道","jp_add_1":"三笠市","jp_add_2":"幾春別千住町"},"0682115":{"post_code":"0682115","prefecture":"HOKKAIDO","city":"MIKASA SHI","town":"IKUSHUMBETSU TAKIMICHO","perfecture_jp":"北海道","jp_add_1":"三笠市","jp_add_2":"幾春別滝見町"},"0682117":{"post_code":"0682117","prefecture":"HOKKAIDO","city":"MIKASA SHI","town":"IKUSHUMBETSU NAKAJIMACHO","perfecture_jp":"北海道","jp_add_1":"三笠市","jp_add_2":"幾春別中島町"},"0682111":{"post_code":"0682111","prefecture":"HOKKAIDO","city":"MIKASA SHI","town":"IKUSHUMBETSU NISHIKICHO","perfecture_jp":"北海道","jp_add_1":"三笠市","jp_add_2":"幾春別錦町"},"0682113":{"post_code":"0682113","prefecture":"HOKKAIDO","city":"MIKASA SHI","town":"IKUSHUMBETSU YAMATECHO","perfecture_jp":"北海道","jp_add_1":"三笠市","jp_add_2":"幾春別山手町"},"0682116":{"post_code":"0682116","prefecture":"HOKKAIDO","city":"MIKASA SHI","town":"IKUSHUMBETSUCHO","perfecture_jp":"北海道","jp_add_1":"三笠市","jp_add_2":"幾春別町"},"0682164":{"post_code":"0682164","prefecture":"HOKKAIDO","city":"MIKASA SHI","town":"ICHIKISHIRI","perfecture_jp":"北海道","jp_add_1":"三笠市","jp_add_2":"いちきしり"},"0682167":{"post_code":"0682167","prefecture":"HOKKAIDO","city":"MIKASA SHI","town":"OSATO","perfecture_jp":"北海道","jp_add_1":"三笠市","jp_add_2":"大里"},"0682165":{"post_code":"0682165","prefecture":"HOKKAIDO","city":"MIKASA SHI","town":"OKAYAMA","perfecture_jp":"北海道","jp_add_1":"三笠市","jp_add_2":"岡山"},"0682108":{"post_code":"0682108","prefecture":"HOKKAIDO","city":"MIKASA SHI","town":"KASHIWACHO","perfecture_jp":"北海道","jp_add_1":"三笠市","jp_add_2":"柏町"},"0682101":{"post_code":"0682101","prefecture":"HOKKAIDO","city":"MIKASA SHI","town":"KATSURAZAWA","perfecture_jp":"北海道","jp_add_1":"三笠市","jp_add_2":"桂沢"},"0682166":{"post_code":"0682166","prefecture":"HOKKAIDO","city":"MIKASA SHI","town":"KAYANO","perfecture_jp":"北海道","jp_add_1":"三笠市","jp_add_2":"萱野"},"0682162":{"post_code":"0682162","prefecture":"HOKKAIDO","city":"MIKASA SHI","town":"KAWANAI","perfecture_jp":"北海道","jp_add_1":"三笠市","jp_add_2":"川内"},"0682105":{"post_code":"0682105","prefecture":"HOKKAIDO","city":"MIKASA SHI","town":"KIYOZUMICHO","perfecture_jp":"北海道","jp_add_1":"三笠市","jp_add_2":"清住町"},"0682153":{"post_code":"0682153","prefecture":"HOKKAIDO","city":"MIKASA SHI","town":"SAIWAICHO","perfecture_jp":"北海道","jp_add_1":"三笠市","jp_add_2":"幸町"},"0682155":{"post_code":"0682155","prefecture":"HOKKAIDO","city":"MIKASA SHI","town":"SAKAKICHO","perfecture_jp":"北海道","jp_add_1":"三笠市","jp_add_2":"榊町"},"0682154":{"post_code":"0682154","prefecture":"HOKKAIDO","city":"MIKASA SHI","town":"TAKAMICHO","perfecture_jp":"北海道","jp_add_1":"三笠市","jp_add_2":"高美町"},"0682152":{"post_code":"0682152","prefecture":"HOKKAIDO","city":"MIKASA SHI","town":"TAGACHO","perfecture_jp":"北海道","jp_add_1":"三笠市","jp_add_2":"多賀町"},"0682163":{"post_code":"0682163","prefecture":"HOKKAIDO","city":"MIKASA SHI","town":"TAPPU","perfecture_jp":"北海道","jp_add_1":"三笠市","jp_add_2":"達布"},"0682158":{"post_code":"0682158","prefecture":"HOKKAIDO","city":"MIKASA SHI","town":"TSUTSUMICHO","perfecture_jp":"北海道","jp_add_1":"三笠市","jp_add_2":"堤町"},"0682137":{"post_code":"0682137","prefecture":"HOKKAIDO","city":"MIKASA SHI","town":"TOMATSU AOYAMACHO","perfecture_jp":"北海道","jp_add_1":"三笠市","jp_add_2":"唐松青山町"},"0682136":{"post_code":"0682136","prefecture":"HOKKAIDO","city":"MIKASA SHI","town":"TOMATSU SAKAECHO","perfecture_jp":"北海道","jp_add_1":"三笠市","jp_add_2":"唐松栄町"},"0682131":{"post_code":"0682131","prefecture":"HOKKAIDO","city":"MIKASA SHI","town":"TOMATSU SHUNKOCHO","perfecture_jp":"北海道","jp_add_1":"三笠市","jp_add_2":"唐松春光町"},"0682134":{"post_code":"0682134","prefecture":"HOKKAIDO","city":"MIKASA SHI","town":"TOMATSU CHIYODACHO","perfecture_jp":"北海道","jp_add_1":"三笠市","jp_add_2":"唐松千代田町"},"0682133":{"post_code":"0682133","prefecture":"HOKKAIDO","city":"MIKASA SHI","town":"TOMATSU TOKIWACHO","perfecture_jp":"北海道","jp_add_1":"三笠市","jp_add_2":"唐松常盤町"},"0682132":{"post_code":"0682132","prefecture":"HOKKAIDO","city":"MIKASA SHI","town":"TOMATSU MIDORICHO","perfecture_jp":"北海道","jp_add_1":"三笠市","jp_add_2":"唐松緑町"},"0682135":{"post_code":"0682135","prefecture":"HOKKAIDO","city":"MIKASA SHI","town":"TOMATSUCHO","perfecture_jp":"北海道","jp_add_1":"三笠市","jp_add_2":"唐松町"},"0682102":{"post_code":"0682102","prefecture":"HOKKAIDO","city":"MIKASA SHI","town":"NISHIKATSURAZAWA","perfecture_jp":"北海道","jp_add_1":"三笠市","jp_add_2":"西桂沢"},"0682104":{"post_code":"0682104","prefecture":"HOKKAIDO","city":"MIKASA SHI","town":"HIGASHIKIYOZUMICHO","perfecture_jp":"北海道","jp_add_1":"三笠市","jp_add_2":"東清住町"},"0682146":{"post_code":"0682146","prefecture":"HOKKAIDO","city":"MIKASA SHI","town":"HORONAI KASUGACHO","perfecture_jp":"北海道","jp_add_1":"三笠市","jp_add_2":"幌内春日町"},"0682144":{"post_code":"0682144","prefecture":"HOKKAIDO","city":"MIKASA SHI","town":"HORONAI KANAYACHO","perfecture_jp":"北海道","jp_add_1":"三笠市","jp_add_2":"幌内金谷町"},"0682147":{"post_code":"0682147","prefecture":"HOKKAIDO","city":"MIKASA SHI","town":"HORONAI SHINEICHO","perfecture_jp":"北海道","jp_add_1":"三笠市","jp_add_2":"幌内新栄町"},"0682142":{"post_code":"0682142","prefecture":"HOKKAIDO","city":"MIKASA SHI","town":"HORONAI SUMIYOSHICHO","perfecture_jp":"北海道","jp_add_1":"三笠市","jp_add_2":"幌内住吉町"},"0682148":{"post_code":"0682148","prefecture":"HOKKAIDO","city":"MIKASA SHI","town":"HORONAI HATSUNECHO","perfecture_jp":"北海道","jp_add_1":"三笠市","jp_add_2":"幌内初音町"},"0682143":{"post_code":"0682143","prefecture":"HOKKAIDO","city":"MIKASA SHI","town":"HORONAI HOKUSEICHO","perfecture_jp":"北海道","jp_add_1":"三笠市","jp_add_2":"幌内北星町"},"0682145":{"post_code":"0682145","prefecture":"HOKKAIDO","city":"MIKASA SHI","town":"HORONAICHO","perfecture_jp":"北海道","jp_add_1":"三笠市","jp_add_2":"幌内町"},"0682161":{"post_code":"0682161","prefecture":"HOKKAIDO","city":"MIKASA SHI","town":"HONGOCHO","perfecture_jp":"北海道","jp_add_1":"三笠市","jp_add_2":"本郷町"},"0682141":{"post_code":"0682141","prefecture":"HOKKAIDO","city":"MIKASA SHI","town":"HONCHO","perfecture_jp":"北海道","jp_add_1":"三笠市","jp_add_2":"本町"},"0682103":{"post_code":"0682103","prefecture":"HOKKAIDO","city":"MIKASA SHI","town":"POMBETSU SHIMMACHI","perfecture_jp":"北海道","jp_add_1":"三笠市","jp_add_2":"奔別新町"},"0682106":{"post_code":"0682106","prefecture":"HOKKAIDO","city":"MIKASA SHI","town":"MISONOCHO","perfecture_jp":"北海道","jp_add_1":"三笠市","jp_add_2":"美園町"},"0682156":{"post_code":"0682156","prefecture":"HOKKAIDO","city":"MIKASA SHI","town":"MIYAMOTOCHO","perfecture_jp":"北海道","jp_add_1":"三笠市","jp_add_2":"宮本町"},"0682168":{"post_code":"0682168","prefecture":"HOKKAIDO","city":"MIKASA SHI","town":"MIWA","perfecture_jp":"北海道","jp_add_1":"三笠市","jp_add_2":"美和"},"0682121":{"post_code":"0682121","prefecture":"HOKKAIDO","city":"MIKASA SHI","town":"YAYOI SAKURAGICHO","perfecture_jp":"北海道","jp_add_1":"三笠市","jp_add_2":"弥生桜木町"},"0682125":{"post_code":"0682125","prefecture":"HOKKAIDO","city":"MIKASA SHI","town":"YAYOI TACHIBANACHO","perfecture_jp":"北海道","jp_add_1":"三笠市","jp_add_2":"弥生橘町"},"0682122":{"post_code":"0682122","prefecture":"HOKKAIDO","city":"MIKASA SHI","town":"YAYOI NAMIKICHO","perfecture_jp":"北海道","jp_add_1":"三笠市","jp_add_2":"弥生並木町"},"0682124":{"post_code":"0682124","prefecture":"HOKKAIDO","city":"MIKASA SHI","town":"YAYOI HANAZONOCHO","perfecture_jp":"北海道","jp_add_1":"三笠市","jp_add_2":"弥生花園町"},"0682128":{"post_code":"0682128","prefecture":"HOKKAIDO","city":"MIKASA SHI","town":"YAYOI FUJIECHO","perfecture_jp":"北海道","jp_add_1":"三笠市","jp_add_2":"弥生藤枝町"},"0682123":{"post_code":"0682123","prefecture":"HOKKAIDO","city":"MIKASA SHI","town":"YAYOI MOMOYAMACHO","perfecture_jp":"北海道","jp_add_1":"三笠市","jp_add_2":"弥生桃山町"},"0682127":{"post_code":"0682127","prefecture":"HOKKAIDO","city":"MIKASA SHI","town":"YAYOI YANAGICHO","perfecture_jp":"北海道","jp_add_1":"三笠市","jp_add_2":"弥生柳町"},"0682126":{"post_code":"0682126","prefecture":"HOKKAIDO","city":"MIKASA SHI","town":"YAYOICHO","perfecture_jp":"北海道","jp_add_1":"三笠市","jp_add_2":"弥生町"},"0682107":{"post_code":"0682107","prefecture":"HOKKAIDO","city":"MIKASA SHI","town":"WAKAKUSACHO","perfecture_jp":"北海道","jp_add_1":"三笠市","jp_add_2":"若草町"},"0682157":{"post_code":"0682157","prefecture":"HOKKAIDO","city":"MIKASA SHI","town":"WAKAMATSUCHO","perfecture_jp":"北海道","jp_add_1":"三笠市","jp_add_2":"若松町"},"0681100":{"post_code":"0681100","prefecture":"HOKKAIDO","city":"ISHIKARI GUN SHINSHINOTSU MURA","town":"IKANIKEISAIGANAIBAAI","perfecture_jp":"北海道","jp_add_1":"石狩郡新篠津村","jp_add_2":""},"0681112":{"post_code":"0681112","prefecture":"HOKKAIDO","city":"ISHIKARI GUN SHINSHINOTSU MURA","town":"AKEBONO","perfecture_jp":"北海道","jp_add_1":"石狩郡新篠津村","jp_add_2":"あけぼの"},"0681102":{"post_code":"0681102","prefecture":"HOKKAIDO","city":"ISHIKARI GUN SHINSHINOTSU MURA","town":"INAHO","perfecture_jp":"北海道","jp_add_1":"石狩郡新篠津村","jp_add_2":"いなほ"},"0681104":{"post_code":"0681104","prefecture":"HOKKAIDO","city":"ISHIKARI GUN SHINSHINOTSU MURA","town":"KATSURA","perfecture_jp":"北海道","jp_add_1":"石狩郡新篠津村","jp_add_2":"かつら"},"0681125":{"post_code":"0681125","prefecture":"HOKKAIDO","city":"ISHIKARI GUN SHINSHINOTSU MURA","town":"KAMISHINOTSU","perfecture_jp":"北海道","jp_add_1":"石狩郡新篠津村","jp_add_2":"上篠津"},"0681116":{"post_code":"0681116","prefecture":"HOKKAIDO","city":"ISHIKARI GUN SHINSHINOTSU MURA","town":"KAMITAPPU","perfecture_jp":"北海道","jp_add_1":"石狩郡新篠津村","jp_add_2":"上達布"},"0681123":{"post_code":"0681123","prefecture":"HOKKAIDO","city":"ISHIKARI GUN SHINSHINOTSU MURA","town":"KAWAKAMI","perfecture_jp":"北海道","jp_add_1":"石狩郡新篠津村","jp_add_2":"川上"},"0681152":{"post_code":"0681152","prefecture":"HOKKAIDO","city":"ISHIKARI GUN SHINSHINOTSU MURA","town":"KAWASHIMO","perfecture_jp":"北海道","jp_add_1":"石狩郡新篠津村","jp_add_2":"川下"},"0681131":{"post_code":"0681131","prefecture":"HOKKAIDO","city":"ISHIKARI GUN SHINSHINOTSU MURA","town":"KISEN","perfecture_jp":"北海道","jp_add_1":"石狩郡新篠津村","jp_add_2":"基線"},"0681134":{"post_code":"0681134","prefecture":"HOKKAIDO","city":"ISHIKARI GUN SHINSHINOTSU MURA","town":"SHISO","perfecture_jp":"北海道","jp_add_1":"石狩郡新篠津村","jp_add_2":"宍粟"},"0681136":{"post_code":"0681136","prefecture":"HOKKAIDO","city":"ISHIKARI GUN SHINSHINOTSU MURA","town":"SHIMOTAPPU","perfecture_jp":"北海道","jp_add_1":"石狩郡新篠津村","jp_add_2":"下達布"},"0681142":{"post_code":"0681142","prefecture":"HOKKAIDO","city":"ISHIKARI GUN SHINSHINOTSU MURA","town":"SHINKABA","perfecture_jp":"北海道","jp_add_1":"石狩郡新篠津村","jp_add_2":"新樺"},"0681146":{"post_code":"0681146","prefecture":"HOKKAIDO","city":"ISHIKARI GUN SHINSHINOTSU MURA","town":"SHINTAKAKURA","perfecture_jp":"北海道","jp_add_1":"石狩郡新篠津村","jp_add_2":"新高倉"},"0681138":{"post_code":"0681138","prefecture":"HOKKAIDO","city":"ISHIKARI GUN SHINSHINOTSU MURA","town":"SHINNISHISHINOTSU","perfecture_jp":"北海道","jp_add_1":"石狩郡新篠津村","jp_add_2":"新西篠津"},"0681121":{"post_code":"0681121","prefecture":"HOKKAIDO","city":"ISHIKARI GUN SHINSHINOTSU MURA","town":"SHINYU","perfecture_jp":"北海道","jp_add_1":"石狩郡新篠津村","jp_add_2":"新湧"},"0681124":{"post_code":"0681124","prefecture":"HOKKAIDO","city":"ISHIKARI GUN SHINSHINOTSU MURA","town":"TAKAKURA","perfecture_jp":"北海道","jp_add_1":"石狩郡新篠津村","jp_add_2":"高倉"},"0681144":{"post_code":"0681144","prefecture":"HOKKAIDO","city":"ISHIKARI GUN SHINSHINOTSU MURA","town":"TAKUSHIN","perfecture_jp":"北海道","jp_add_1":"石狩郡新篠津村","jp_add_2":"拓新"},"0681143":{"post_code":"0681143","prefecture":"HOKKAIDO","city":"ISHIKARI GUN SHINSHINOTSU MURA","town":"TAKEDA","perfecture_jp":"北海道","jp_add_1":"石狩郡新篠津村","jp_add_2":"武田"},"0681111":{"post_code":"0681111","prefecture":"HOKKAIDO","city":"ISHIKARI GUN SHINSHINOTSU MURA","town":"TOMEI","perfecture_jp":"北海道","jp_add_1":"石狩郡新篠津村","jp_add_2":"東明"},"0681126":{"post_code":"0681126","prefecture":"HOKKAIDO","city":"ISHIKARI GUN SHINSHINOTSU MURA","town":"TOYOGAOKA","perfecture_jp":"北海道","jp_add_1":"石狩郡新篠津村","jp_add_2":"豊ケ丘"},"0681132":{"post_code":"0681132","prefecture":"HOKKAIDO","city":"ISHIKARI GUN SHINSHINOTSU MURA","town":"TOYONO","perfecture_jp":"北海道","jp_add_1":"石狩郡新篠津村","jp_add_2":"豊野"},"0681137":{"post_code":"0681137","prefecture":"HOKKAIDO","city":"ISHIKARI GUN SHINSHINOTSU MURA","town":"NAKASHINOTSU","perfecture_jp":"北海道","jp_add_1":"石狩郡新篠津村","jp_add_2":"中篠津"},"0681153":{"post_code":"0681153","prefecture":"HOKKAIDO","city":"ISHIKARI GUN SHINSHINOTSU MURA","town":"NAKAHARA","perfecture_jp":"北海道","jp_add_1":"石狩郡新篠津村","jp_add_2":"中原"},"0681141":{"post_code":"0681141","prefecture":"HOKKAIDO","city":"ISHIKARI GUN SHINSHINOTSU MURA","town":"NISHISHINOTSU","perfecture_jp":"北海道","jp_add_1":"石狩郡新篠津村","jp_add_2":"西篠津"},"0681145":{"post_code":"0681145","prefecture":"HOKKAIDO","city":"ISHIKARI GUN SHINSHINOTSU MURA","town":"NISHITAKAKURA","perfecture_jp":"北海道","jp_add_1":"石狩郡新篠津村","jp_add_2":"西高倉"},"0681103":{"post_code":"0681103","prefecture":"HOKKAIDO","city":"ISHIKARI GUN SHINSHINOTSU MURA","town":"NISHINOSATO","perfecture_jp":"北海道","jp_add_1":"石狩郡新篠津村","jp_add_2":"西の里"},"0681151":{"post_code":"0681151","prefecture":"HOKKAIDO","city":"ISHIKARI GUN SHINSHINOTSU MURA","town":"NISHIHARA","perfecture_jp":"北海道","jp_add_1":"石狩郡新篠津村","jp_add_2":"西原"},"0681127":{"post_code":"0681127","prefecture":"HOKKAIDO","city":"ISHIKARI GUN SHINSHINOTSU MURA","town":"NUMANOHATA","perfecture_jp":"北海道","jp_add_1":"石狩郡新篠津村","jp_add_2":"沼之端"},"0681135":{"post_code":"0681135","prefecture":"HOKKAIDO","city":"ISHIKARI GUN SHINSHINOTSU MURA","town":"FUKUROTAPPU","perfecture_jp":"北海道","jp_add_1":"石狩郡新篠津村","jp_add_2":"袋達布"},"0681113":{"post_code":"0681113","prefecture":"HOKKAIDO","city":"ISHIKARI GUN SHINSHINOTSU MURA","town":"FURAWA","perfecture_jp":"北海道","jp_add_1":"石狩郡新篠津村","jp_add_2":"ふらわ"},"0681133":{"post_code":"0681133","prefecture":"HOKKAIDO","city":"ISHIKARI GUN SHINSHINOTSU MURA","town":"HEIAN","perfecture_jp":"北海道","jp_add_1":"石狩郡新篠津村","jp_add_2":"平安"},"0681122":{"post_code":"0681122","prefecture":"HOKKAIDO","city":"ISHIKARI GUN SHINSHINOTSU MURA","town":"HOKUSHIN","perfecture_jp":"北海道","jp_add_1":"石狩郡新篠津村","jp_add_2":"北新"},"0681115":{"post_code":"0681115","prefecture":"HOKKAIDO","city":"ISHIKARI GUN SHINSHINOTSU MURA","town":"MIZUHO","perfecture_jp":"北海道","jp_add_1":"石狩郡新篠津村","jp_add_2":"みずほ"},"0681114":{"post_code":"0681114","prefecture":"HOKKAIDO","city":"ISHIKARI GUN SHINSHINOTSU MURA","town":"MINAMIGAOKA","perfecture_jp":"北海道","jp_add_1":"石狩郡新篠津村","jp_add_2":"南ケ丘"},"0681105":{"post_code":"0681105","prefecture":"HOKKAIDO","city":"ISHIKARI GUN SHINSHINOTSU MURA","town":"MINORI","perfecture_jp":"北海道","jp_add_1":"石狩郡新篠津村","jp_add_2":"みのり"},"0681101":{"post_code":"0681101","prefecture":"HOKKAIDO","city":"ISHIKARI GUN SHINSHINOTSU MURA","town":"MOEDE","perfecture_jp":"北海道","jp_add_1":"石狩郡新篠津村","jp_add_2":"萌出"},"0680351":{"post_code":"0680351","prefecture":"HOKKAIDO","city":"YUBARI GUN KURIYAMA CHO","town":"ANORO","perfecture_jp":"北海道","jp_add_1":"夕張郡栗山町","jp_add_2":"阿野呂"},"0680352":{"post_code":"0680352","prefecture":"HOKKAIDO","city":"YUBARI GUN KURIYAMA CHO","town":"OIWAKE","perfecture_jp":"北海道","jp_add_1":"夕張郡栗山町","jp_add_2":"大井分"},"0680358":{"post_code":"0680358","prefecture":"HOKKAIDO","city":"YUBARI GUN KURIYAMA CHO","town":"SAKURAYAMA(200.269-BANCHI)","perfecture_jp":"北海道","jp_add_1":"夕張郡栗山町","jp_add_2":"桜山"},"0680361":{"post_code":"0680361","prefecture":"HOKKAIDO","city":"YUBARI GUN KURIYAMA CHO","town":"TAKISHITA","perfecture_jp":"北海道","jp_add_1":"夕張郡栗山町","jp_add_2":"滝下"},"0680353":{"post_code":"0680353","prefecture":"HOKKAIDO","city":"YUBARI GUN KURIYAMA CHO","town":"TSUGITATE","perfecture_jp":"北海道","jp_add_1":"夕張郡栗山町","jp_add_2":"継立"},"0680354":{"post_code":"0680354","prefecture":"HOKKAIDO","city":"YUBARI GUN KURIYAMA CHO","town":"HINODE","perfecture_jp":"北海道","jp_add_1":"夕張郡栗山町","jp_add_2":"日出"},"0680362":{"post_code":"0680362","prefecture":"HOKKAIDO","city":"YUBARI GUN KURIYAMA CHO","town":"MARUYAMA","perfecture_jp":"北海道","jp_add_1":"夕張郡栗山町","jp_add_2":"円山"},"0680363":{"post_code":"0680363","prefecture":"HOKKAIDO","city":"YUBARI GUN KURIYAMA CHO","town":"MARUYAMAHIGASHIYAMA","perfecture_jp":"北海道","jp_add_1":"夕張郡栗山町","jp_add_2":"円山東山"},"0680355":{"post_code":"0680355","prefecture":"HOKKAIDO","city":"YUBARI GUN KURIYAMA CHO","town":"MISONO","perfecture_jp":"北海道","jp_add_1":"夕張郡栗山町","jp_add_2":"御園"},"0680356":{"post_code":"0680356","prefecture":"HOKKAIDO","city":"YUBARI GUN KURIYAMA CHO","town":"MINAMIKAKUTA","perfecture_jp":"北海道","jp_add_1":"夕張郡栗山町","jp_add_2":"南角田"},"0680357":{"post_code":"0680357","prefecture":"HOKKAIDO","city":"YUBARI GUN KURIYAMA CHO","town":"MINAMIGAKUDEN","perfecture_jp":"北海道","jp_add_1":"夕張郡栗山町","jp_add_2":"南学田"},"0681231":{"post_code":"0681231","prefecture":"HOKKAIDO","city":"KABATO GUN TSUKIGATA CHO","town":"KARISATO","perfecture_jp":"北海道","jp_add_1":"樺戸郡月形町","jp_add_2":"雁里"}}