{"0700000":{"post_code":"0700000","prefecture":"HOKKAIDO","city":"ASAHIKAWA SHI","town":"IKANIKEISAIGANAIBAAI","perfecture_jp":"北海道","jp_add_1":"旭川市","jp_add_2":""},"0700072":{"post_code":"0700072","prefecture":"HOKKAIDO","city":"ASAHIKAWA SHI","town":"AKEBONOKITA2-JO","perfecture_jp":"北海道","jp_add_1":"旭川市","jp_add_2":"曙北２条"},"0700073":{"post_code":"0700073","prefecture":"HOKKAIDO","city":"ASAHIKAWA SHI","town":"AKEBONOKITA3-JO","perfecture_jp":"北海道","jp_add_1":"旭川市","jp_add_2":"曙北３条"},"0700061":{"post_code":"0700061","prefecture":"HOKKAIDO","city":"ASAHIKAWA SHI","town":"AKEBONO1-JO","perfecture_jp":"北海道","jp_add_1":"旭川市","jp_add_2":"曙１条"},"0700062":{"post_code":"0700062","prefecture":"HOKKAIDO","city":"ASAHIKAWA SHI","town":"AKEBONO2-JO","perfecture_jp":"北海道","jp_add_1":"旭川市","jp_add_2":"曙２条"},"0700063":{"post_code":"0700063","prefecture":"HOKKAIDO","city":"ASAHIKAWA SHI","town":"AKEBONO3-JO","perfecture_jp":"北海道","jp_add_1":"旭川市","jp_add_2":"曙３条"},"0700822":{"post_code":"0700822","prefecture":"HOKKAIDO","city":"ASAHIKAWA SHI","town":"ASAHIGAOKA","perfecture_jp":"北海道","jp_add_1":"旭川市","jp_add_2":"旭岡"},"0700831":{"post_code":"0700831","prefecture":"HOKKAIDO","city":"ASAHIKAWA SHI","town":"ASAHIMACHI1-JO","perfecture_jp":"北海道","jp_add_1":"旭川市","jp_add_2":"旭町１条"},"0700832":{"post_code":"0700832","prefecture":"HOKKAIDO","city":"ASAHIKAWA SHI","town":"ASAHIMACHI2-JO","perfecture_jp":"北海道","jp_add_1":"旭川市","jp_add_2":"旭町２条"},"0708051":{"post_code":"0708051","prefecture":"HOKKAIDO","city":"ASAHIKAWA SHI","town":"ETAMBETSUCHO ARASHIYAMA","perfecture_jp":"北海道","jp_add_1":"旭川市","jp_add_2":"江丹別町嵐山"},"0708052":{"post_code":"0708052","prefecture":"HOKKAIDO","city":"ASAHIKAWA SHI","town":"ETAMBETSUCHO KASUGA","perfecture_jp":"北海道","jp_add_1":"旭川市","jp_add_2":"江丹別町春日"},"0708053":{"post_code":"0708053","prefecture":"HOKKAIDO","city":"ASAHIKAWA SHI","town":"ETAMBETSUCHO KYOWA","perfecture_jp":"北海道","jp_add_1":"旭川市","jp_add_2":"江丹別町共和"},"0700841":{"post_code":"0700841","prefecture":"HOKKAIDO","city":"ASAHIKAWA SHI","town":"OMACHI1-JO","perfecture_jp":"北海道","jp_add_1":"旭川市","jp_add_2":"大町１条"},"0700842":{"post_code":"0700842","prefecture":"HOKKAIDO","city":"ASAHIKAWA SHI","town":"OMACHI2-JO","perfecture_jp":"北海道","jp_add_1":"旭川市","jp_add_2":"大町２条"},"0700843":{"post_code":"0700843","prefecture":"HOKKAIDO","city":"ASAHIKAWA SHI","town":"OMACHI3-JO","perfecture_jp":"北海道","jp_add_1":"旭川市","jp_add_2":"大町３条"},"0708001":{"post_code":"0708001","prefecture":"HOKKAIDO","city":"ASAHIKAWA SHI","town":"KAGURA1-JO","perfecture_jp":"北海道","jp_add_1":"旭川市","jp_add_2":"神楽１条"},"0708002":{"post_code":"0708002","prefecture":"HOKKAIDO","city":"ASAHIKAWA SHI","town":"KAGURA2-JO","perfecture_jp":"北海道","jp_add_1":"旭川市","jp_add_2":"神楽２条"},"0708003":{"post_code":"0708003","prefecture":"HOKKAIDO","city":"ASAHIKAWA SHI","town":"KAGURA3-JO","perfecture_jp":"北海道","jp_add_1":"旭川市","jp_add_2":"神楽３条"},"0708004":{"post_code":"0708004","prefecture":"HOKKAIDO","city":"ASAHIKAWA SHI","town":"KAGURA4-JO","perfecture_jp":"北海道","jp_add_1":"旭川市","jp_add_2":"神楽４条"},"0708005":{"post_code":"0708005","prefecture":"HOKKAIDO","city":"ASAHIKAWA SHI","town":"KAGURA5-JO","perfecture_jp":"北海道","jp_add_1":"旭川市","jp_add_2":"神楽５条"},"0708006":{"post_code":"0708006","prefecture":"HOKKAIDO","city":"ASAHIKAWA SHI","town":"KAGURA6-JO","perfecture_jp":"北海道","jp_add_1":"旭川市","jp_add_2":"神楽６条"},"0708007":{"post_code":"0708007","prefecture":"HOKKAIDO","city":"ASAHIKAWA SHI","town":"KAGURA7-JO","perfecture_jp":"北海道","jp_add_1":"旭川市","jp_add_2":"神楽７条"},"0700041":{"post_code":"0700041","prefecture":"HOKKAIDO","city":"ASAHIKAWA SHI","town":"KAMITOKIWACHO","perfecture_jp":"北海道","jp_add_1":"旭川市","jp_add_2":"上常盤町"},"0708011":{"post_code":"0708011","prefecture":"HOKKAIDO","city":"ASAHIKAWA SHI","town":"KAMUI 1-JO","perfecture_jp":"北海道","jp_add_1":"旭川市","jp_add_2":"神居１条"},"0708012":{"post_code":"0708012","prefecture":"HOKKAIDO","city":"ASAHIKAWA SHI","town":"KAMUI 2-JO","perfecture_jp":"北海道","jp_add_1":"旭川市","jp_add_2":"神居２条"},"0708013":{"post_code":"0708013","prefecture":"HOKKAIDO","city":"ASAHIKAWA SHI","town":"KAMUI 3-JO","perfecture_jp":"北海道","jp_add_1":"旭川市","jp_add_2":"神居３条"},"0708014":{"post_code":"0708014","prefecture":"HOKKAIDO","city":"ASAHIKAWA SHI","town":"KAMUI 4-JO","perfecture_jp":"北海道","jp_add_1":"旭川市","jp_add_2":"神居４条"},"0708015":{"post_code":"0708015","prefecture":"HOKKAIDO","city":"ASAHIKAWA SHI","town":"KAMUI 5-JO","perfecture_jp":"北海道","jp_add_1":"旭川市","jp_add_2":"神居５条"},"0708016":{"post_code":"0708016","prefecture":"HOKKAIDO","city":"ASAHIKAWA SHI","town":"KAMUI 6-JO","perfecture_jp":"北海道","jp_add_1":"旭川市","jp_add_2":"神居６条"},"0708017":{"post_code":"0708017","prefecture":"HOKKAIDO","city":"ASAHIKAWA SHI","town":"KAMUI 7-JO","perfecture_jp":"北海道","jp_add_1":"旭川市","jp_add_2":"神居７条"},"0708018":{"post_code":"0708018","prefecture":"HOKKAIDO","city":"ASAHIKAWA SHI","town":"KAMUI 8-JO","perfecture_jp":"北海道","jp_add_1":"旭川市","jp_add_2":"神居８条"},"0708019":{"post_code":"0708019","prefecture":"HOKKAIDO","city":"ASAHIKAWA SHI","town":"KAMUI 9-JO","perfecture_jp":"北海道","jp_add_1":"旭川市","jp_add_2":"神居９条"},"0708033":{"post_code":"0708033","prefecture":"HOKKAIDO","city":"ASAHIKAWA SHI","town":"KAMUICHO UBUN","perfecture_jp":"北海道","jp_add_1":"旭川市","jp_add_2":"神居町雨紛"},"0708034":{"post_code":"0708034","prefecture":"HOKKAIDO","city":"ASAHIKAWA SHI","town":"KAMUICHO KAMIUBUN","perfecture_jp":"北海道","jp_add_1":"旭川市","jp_add_2":"神居町上雨紛"},"0708026":{"post_code":"0708026","prefecture":"HOKKAIDO","city":"ASAHIKAWA SHI","town":"KAMUICHO KAMIOKA","perfecture_jp":"北海道","jp_add_1":"旭川市","jp_add_2":"神居町神岡"},"0708032":{"post_code":"0708032","prefecture":"HOKKAIDO","city":"ASAHIKAWA SHI","town":"KAMUICHO KYOEI","perfecture_jp":"北海道","jp_add_1":"旭川市","jp_add_2":"神居町共栄"},"0708031":{"post_code":"0708031","prefecture":"HOKKAIDO","city":"ASAHIKAWA SHI","town":"KAMUICHO SHINKA","perfecture_jp":"北海道","jp_add_1":"旭川市","jp_add_2":"神居町神華"},"0708022":{"post_code":"0708022","prefecture":"HOKKAIDO","city":"ASAHIKAWA SHI","town":"KAMUICHO DAIBA","perfecture_jp":"北海道","jp_add_1":"旭川市","jp_add_2":"神居町台場"},"0708021":{"post_code":"0708021","prefecture":"HOKKAIDO","city":"ASAHIKAWA SHI","town":"KAMUICHO CHUWA","perfecture_jp":"北海道","jp_add_1":"旭川市","jp_add_2":"神居町忠和"},"0708025":{"post_code":"0708025","prefecture":"HOKKAIDO","city":"ASAHIKAWA SHI","town":"KAMUICHO TOMIOKA","perfecture_jp":"北海道","jp_add_1":"旭川市","jp_add_2":"神居町富岡"},"0708024":{"post_code":"0708024","prefecture":"HOKKAIDO","city":"ASAHIKAWA SHI","town":"KAMUICHO TOMISAWA","perfecture_jp":"北海道","jp_add_1":"旭川市","jp_add_2":"神居町富沢"},"0708023":{"post_code":"0708023","prefecture":"HOKKAIDO","city":"ASAHIKAWA SHI","town":"KAMUICHO HARUSHINAI","perfecture_jp":"北海道","jp_add_1":"旭川市","jp_add_2":"神居町春志内"},"0700081":{"post_code":"0700081","prefecture":"HOKKAIDO","city":"ASAHIKAWA SHI","town":"KAMEKICHI1-JO","perfecture_jp":"北海道","jp_add_1":"旭川市","jp_add_2":"亀吉１条"},"0700082":{"post_code":"0700082","prefecture":"HOKKAIDO","city":"ASAHIKAWA SHI","town":"KAMEKICHI2-JO","perfecture_jp":"北海道","jp_add_1":"旭川市","jp_add_2":"亀吉２条"},"0700083":{"post_code":"0700083","prefecture":"HOKKAIDO","city":"ASAHIKAWA SHI","town":"KAMEKICHI3-JO","perfecture_jp":"北海道","jp_add_1":"旭川市","jp_add_2":"亀吉３条"},"0700811":{"post_code":"0700811","prefecture":"HOKKAIDO","city":"ASAHIKAWA SHI","town":"KAWABATACHO1-JO","perfecture_jp":"北海道","jp_add_1":"旭川市","jp_add_2":"川端町１条"},"0700812":{"post_code":"0700812","prefecture":"HOKKAIDO","city":"ASAHIKAWA SHI","town":"KAWABATACHO2-JO","perfecture_jp":"北海道","jp_add_1":"旭川市","jp_add_2":"川端町２条"},"0700813":{"post_code":"0700813","prefecture":"HOKKAIDO","city":"ASAHIKAWA SHI","town":"KAWABATACHO3-JO","perfecture_jp":"北海道","jp_add_1":"旭川市","jp_add_2":"川端町３条"},"0700814":{"post_code":"0700814","prefecture":"HOKKAIDO","city":"ASAHIKAWA SHI","town":"KAWABATACHO4-JO","perfecture_jp":"北海道","jp_add_1":"旭川市","jp_add_2":"川端町４条"},"0700815":{"post_code":"0700815","prefecture":"HOKKAIDO","city":"ASAHIKAWA SHI","town":"KAWABATACHO5-JO","perfecture_jp":"北海道","jp_add_1":"旭川市","jp_add_2":"川端町５条"},"0700816":{"post_code":"0700816","prefecture":"HOKKAIDO","city":"ASAHIKAWA SHI","town":"KAWABATACHO6-JO","perfecture_jp":"北海道","jp_add_1":"旭川市","jp_add_2":"川端町６条"},"0700817":{"post_code":"0700817","prefecture":"HOKKAIDO","city":"ASAHIKAWA SHI","town":"KAWABATACHO7-JO","perfecture_jp":"北海道","jp_add_1":"旭川市","jp_add_2":"川端町７条"},"0700029":{"post_code":"0700029","prefecture":"HOKKAIDO","city":"ASAHIKAWA SHI","town":"KINSEICHO","perfecture_jp":"北海道","jp_add_1":"旭川市","jp_add_2":"金星町"},"0700871":{"post_code":"0700871","prefecture":"HOKKAIDO","city":"ASAHIKAWA SHI","town":"SHUNKO 1-JO","perfecture_jp":"北海道","jp_add_1":"旭川市","jp_add_2":"春光１条"},"0700872":{"post_code":"0700872","prefecture":"HOKKAIDO","city":"ASAHIKAWA SHI","town":"SHUNKO 2-JO","perfecture_jp":"北海道","jp_add_1":"旭川市","jp_add_2":"春光２条"},"0700873":{"post_code":"0700873","prefecture":"HOKKAIDO","city":"ASAHIKAWA SHI","town":"SHUNKO 3-JO","perfecture_jp":"北海道","jp_add_1":"旭川市","jp_add_2":"春光３条"},"0700874":{"post_code":"0700874","prefecture":"HOKKAIDO","city":"ASAHIKAWA SHI","town":"SHUNKO 4-JO","perfecture_jp":"北海道","jp_add_1":"旭川市","jp_add_2":"春光４条"},"0700875":{"post_code":"0700875","prefecture":"HOKKAIDO","city":"ASAHIKAWA SHI","town":"SHUNKO 5-JO","perfecture_jp":"北海道","jp_add_1":"旭川市","jp_add_2":"春光５条"},"0700876":{"post_code":"0700876","prefecture":"HOKKAIDO","city":"ASAHIKAWA SHI","town":"SHUNKO 6-JO","perfecture_jp":"北海道","jp_add_1":"旭川市","jp_add_2":"春光６条"},"0700877":{"post_code":"0700877","prefecture":"HOKKAIDO","city":"ASAHIKAWA SHI","town":"SHUNKO 7-JO","perfecture_jp":"北海道","jp_add_1":"旭川市","jp_add_2":"春光７条"},"0700902":{"post_code":"0700902","prefecture":"HOKKAIDO","city":"ASAHIKAWA SHI","town":"SHUNKOCHO","perfecture_jp":"北海道","jp_add_1":"旭川市","jp_add_2":"春光町"},"0700014":{"post_code":"0700014","prefecture":"HOKKAIDO","city":"ASAHIKAWA SHI","town":"SHINSEICHO","perfecture_jp":"北海道","jp_add_1":"旭川市","jp_add_2":"新星町"},"0700001":{"post_code":"0700001","prefecture":"HOKKAIDO","city":"ASAHIKAWA SHI","town":"SHINTOMI1-JO","perfecture_jp":"北海道","jp_add_1":"旭川市","jp_add_2":"新富１条"},"0700002":{"post_code":"0700002","prefecture":"HOKKAIDO","city":"ASAHIKAWA SHI","town":"SHINTOMI2-JO","perfecture_jp":"北海道","jp_add_1":"旭川市","jp_add_2":"新富２条"},"0700003":{"post_code":"0700003","prefecture":"HOKKAIDO","city":"ASAHIKAWA SHI","town":"SHINTOMI3-JO","perfecture_jp":"北海道","jp_add_1":"旭川市","jp_add_2":"新富３条"},"0700864":{"post_code":"0700864","prefecture":"HOKKAIDO","city":"ASAHIKAWA SHI","town":"SUMIYOSHI 4-JO","perfecture_jp":"北海道","jp_add_1":"旭川市","jp_add_2":"住吉４条"},"0700865":{"post_code":"0700865","prefecture":"HOKKAIDO","city":"ASAHIKAWA SHI","town":"SUMIYOSHI 5-JO","perfecture_jp":"北海道","jp_add_1":"旭川市","jp_add_2":"住吉５条"},"0700866":{"post_code":"0700866","prefecture":"HOKKAIDO","city":"ASAHIKAWA SHI","town":"SUMIYOSHI 6-JO","perfecture_jp":"北海道","jp_add_1":"旭川市","jp_add_2":"住吉６条"},"0700867":{"post_code":"0700867","prefecture":"HOKKAIDO","city":"ASAHIKAWA SHI","town":"SUMIYOSHI 7-JO","perfecture_jp":"北海道","jp_add_1":"旭川市","jp_add_2":"住吉７条"},"0700010":{"post_code":"0700010","prefecture":"HOKKAIDO","city":"ASAHIKAWA SHI","town":"TAISETSUDORI","perfecture_jp":"北海道","jp_add_1":"旭川市","jp_add_2":"大雪通"},"0708071":{"post_code":"0708071","prefecture":"HOKKAIDO","city":"ASAHIKAWA SHI","town":"DAIBA 1-JO","perfecture_jp":"北海道","jp_add_1":"旭川市","jp_add_2":"台場１条"},"0708072":{"post_code":"0708072","prefecture":"HOKKAIDO","city":"ASAHIKAWA SHI","town":"DAIBA 2-JO","perfecture_jp":"北海道","jp_add_1":"旭川市","jp_add_2":"台場２条"},"0708073":{"post_code":"0708073","prefecture":"HOKKAIDO","city":"ASAHIKAWA SHI","town":"DAIBA 3-JO","perfecture_jp":"北海道","jp_add_1":"旭川市","jp_add_2":"台場３条"},"0708074":{"post_code":"0708074","prefecture":"HOKKAIDO","city":"ASAHIKAWA SHI","town":"DAIBA 4-JO","perfecture_jp":"北海道","jp_add_1":"旭川市","jp_add_2":"台場４条"},"0708027":{"post_code":"0708027","prefecture":"HOKKAIDO","city":"ASAHIKAWA SHI","town":"DAIBA HIGASHI","perfecture_jp":"北海道","jp_add_1":"旭川市","jp_add_2":"台場東"},"0708061":{"post_code":"0708061","prefecture":"HOKKAIDO","city":"ASAHIKAWA SHI","town":"TAKASAGODAI","perfecture_jp":"北海道","jp_add_1":"旭川市","jp_add_2":"高砂台"},"0700821":{"post_code":"0700821","prefecture":"HOKKAIDO","city":"ASAHIKAWA SHI","town":"CHIKABUMICHO","perfecture_jp":"北海道","jp_add_1":"旭川市","jp_add_2":"近文町"},"0708041":{"post_code":"0708041","prefecture":"HOKKAIDO","city":"ASAHIKAWA SHI","town":"CHUWA1-JO","perfecture_jp":"北海道","jp_add_1":"旭川市","jp_add_2":"忠和１条"},"0708042":{"post_code":"0708042","prefecture":"HOKKAIDO","city":"ASAHIKAWA SHI","town":"CHUWA2-JO","perfecture_jp":"北海道","jp_add_1":"旭川市","jp_add_2":"忠和２条"},"0708043":{"post_code":"0708043","prefecture":"HOKKAIDO","city":"ASAHIKAWA SHI","town":"CHUWA3-JO","perfecture_jp":"北海道","jp_add_1":"旭川市","jp_add_2":"忠和３条"},"0708044":{"post_code":"0708044","prefecture":"HOKKAIDO","city":"ASAHIKAWA SHI","town":"CHUWA4-JO","perfecture_jp":"北海道","jp_add_1":"旭川市","jp_add_2":"忠和４条"},"0708045":{"post_code":"0708045","prefecture":"HOKKAIDO","city":"ASAHIKAWA SHI","town":"CHUWA5-JO","perfecture_jp":"北海道","jp_add_1":"旭川市","jp_add_2":"忠和５条"},"0708046":{"post_code":"0708046","prefecture":"HOKKAIDO","city":"ASAHIKAWA SHI","town":"CHUWA6-JO","perfecture_jp":"北海道","jp_add_1":"旭川市","jp_add_2":"忠和６条"},"0708047":{"post_code":"0708047","prefecture":"HOKKAIDO","city":"ASAHIKAWA SHI","town":"CHUWA7-JO","perfecture_jp":"北海道","jp_add_1":"旭川市","jp_add_2":"忠和７条"},"0708048":{"post_code":"0708048","prefecture":"HOKKAIDO","city":"ASAHIKAWA SHI","town":"CHUWA8-JO","perfecture_jp":"北海道","jp_add_1":"旭川市","jp_add_2":"忠和８条"},"0708049":{"post_code":"0708049","prefecture":"HOKKAIDO","city":"ASAHIKAWA SHI","town":"CHUWA9-JO","perfecture_jp":"北海道","jp_add_1":"旭川市","jp_add_2":"忠和９条"},"0700044":{"post_code":"0700044","prefecture":"HOKKAIDO","city":"ASAHIKAWA SHI","town":"TOKIWAKOEN","perfecture_jp":"北海道","jp_add_1":"旭川市","jp_add_2":"常磐公園"},"0700043":{"post_code":"0700043","prefecture":"HOKKAIDO","city":"ASAHIKAWA SHI","town":"TOKIWADORI","perfecture_jp":"北海道","jp_add_1":"旭川市","jp_add_2":"常盤通"},"0700042":{"post_code":"0700042","prefecture":"HOKKAIDO","city":"ASAHIKAWA SHI","town":"NAKATOKIWACHO","perfecture_jp":"北海道","jp_add_1":"旭川市","jp_add_2":"中常盤町"},"0700824":{"post_code":"0700824","prefecture":"HOKKAIDO","city":"ASAHIKAWA SHI","town":"NISHIKIMACHI","perfecture_jp":"北海道","jp_add_1":"旭川市","jp_add_2":"錦町"},"0700901":{"post_code":"0700901","prefecture":"HOKKAIDO","city":"ASAHIKAWA SHI","town":"HANASAKICHO","perfecture_jp":"北海道","jp_add_1":"旭川市","jp_add_2":"花咲町"},"0700013":{"post_code":"0700013","prefecture":"HOKKAIDO","city":"ASAHIKAWA SHI","town":"PARUPUCHO","perfecture_jp":"北海道","jp_add_1":"旭川市","jp_add_2":"パルプ町"},"0700011":{"post_code":"0700011","prefecture":"HOKKAIDO","city":"ASAHIKAWA SHI","town":"PARUPUCHO1-JO","perfecture_jp":"北海道","jp_add_1":"旭川市","jp_add_2":"パルプ町１条"},"0700012":{"post_code":"0700012","prefecture":"HOKKAIDO","city":"ASAHIKAWA SHI","town":"PARUPUCHO2-JO","perfecture_jp":"北海道","jp_add_1":"旭川市","jp_add_2":"パルプ町２条"},"0700021":{"post_code":"0700021","prefecture":"HOKKAIDO","city":"ASAHIKAWA SHI","town":"HIGASHI1-JO","perfecture_jp":"北海道","jp_add_1":"旭川市","jp_add_2":"東１条"},"0700022":{"post_code":"0700022","prefecture":"HOKKAIDO","city":"ASAHIKAWA SHI","town":"HIGASHI2-JO","perfecture_jp":"北海道","jp_add_1":"旭川市","jp_add_2":"東２条"},"0700023":{"post_code":"0700023","prefecture":"HOKKAIDO","city":"ASAHIKAWA SHI","town":"HIGASHI3-JO","perfecture_jp":"北海道","jp_add_1":"旭川市","jp_add_2":"東３条"},"0700024":{"post_code":"0700024","prefecture":"HOKKAIDO","city":"ASAHIKAWA SHI","town":"HIGASHI4-JO","perfecture_jp":"北海道","jp_add_1":"旭川市","jp_add_2":"東４条"},"0700025":{"post_code":"0700025","prefecture":"HOKKAIDO","city":"ASAHIKAWA SHI","town":"HIGASHI5-JO","perfecture_jp":"北海道","jp_add_1":"旭川市","jp_add_2":"東５条"},"0700026":{"post_code":"0700026","prefecture":"HOKKAIDO","city":"ASAHIKAWA SHI","town":"HIGASHI6-JO","perfecture_jp":"北海道","jp_add_1":"旭川市","jp_add_2":"東６条"},"0700027":{"post_code":"0700027","prefecture":"HOKKAIDO","city":"ASAHIKAWA SHI","town":"HIGASHI7-JO","perfecture_jp":"北海道","jp_add_1":"旭川市","jp_add_2":"東７条"},"0700028":{"post_code":"0700028","prefecture":"HOKKAIDO","city":"ASAHIKAWA SHI","town":"HIGASHI8-JO","perfecture_jp":"北海道","jp_add_1":"旭川市","jp_add_2":"東８条"},"0700825":{"post_code":"0700825","prefecture":"HOKKAIDO","city":"ASAHIKAWA SHI","town":"HOKUMONCHO","perfecture_jp":"北海道","jp_add_1":"旭川市","jp_add_2":"北門町"},"0700823":{"post_code":"0700823","prefecture":"HOKKAIDO","city":"ASAHIKAWA SHI","town":"MIDORIMACHI","perfecture_jp":"北海道","jp_add_1":"旭川市","jp_add_2":"緑町"},"0708028":{"post_code":"0708028","prefecture":"HOKKAIDO","city":"ASAHIKAWA SHI","town":"MINAMIGAOKA","perfecture_jp":"北海道","jp_add_1":"旭川市","jp_add_2":"南が丘"},"0700030":{"post_code":"0700030","prefecture":"HOKKAIDO","city":"ASAHIKAWA SHI","town":"MIYASHITADORI(1-17-CHOME)","perfecture_jp":"北海道","jp_add_1":"旭川市","jp_add_2":"宮下通"},"0700810":{"post_code":"0700810","prefecture":"HOKKAIDO","city":"ASAHIKAWA SHI","town":"MOTOMACHI","perfecture_jp":"北海道","jp_add_1":"旭川市","jp_add_2":"本町"},"0700971":{"post_code":"0700971","prefecture":"HOKKAIDO","city":"ASAHIKAWA SHI","town":"4-KU 1-JO","perfecture_jp":"北海道","jp_add_1":"旭川市","jp_add_2":"４区１条"},"0700972":{"post_code":"0700972","prefecture":"HOKKAIDO","city":"ASAHIKAWA SHI","town":"4-KU 2-JO","perfecture_jp":"北海道","jp_add_1":"旭川市","jp_add_2":"４区２条"},"0700973":{"post_code":"0700973","prefecture":"HOKKAIDO","city":"ASAHIKAWA SHI","town":"4-KU 3-JO","perfecture_jp":"北海道","jp_add_1":"旭川市","jp_add_2":"４区３条"},"0700031":{"post_code":"0700031","prefecture":"HOKKAIDO","city":"ASAHIKAWA SHI","town":"1-JODORI(1-17-CHOME)","perfecture_jp":"北海道","jp_add_1":"旭川市","jp_add_2":"１条通"},"0700032":{"post_code":"0700032","prefecture":"HOKKAIDO","city":"ASAHIKAWA SHI","town":"2-JODORI(1-17-CHOME)","perfecture_jp":"北海道","jp_add_1":"旭川市","jp_add_2":"２条通"},"0700052":{"post_code":"0700052","prefecture":"HOKKAIDO","city":"ASAHIKAWA SHI","town":"2-JONISHI","perfecture_jp":"北海道","jp_add_1":"旭川市","jp_add_2":"２条西"},"0700033":{"post_code":"0700033","prefecture":"HOKKAIDO","city":"ASAHIKAWA SHI","town":"3-JODORI(1-17-CHOME)","perfecture_jp":"北海道","jp_add_1":"旭川市","jp_add_2":"３条通"},"0700053":{"post_code":"0700053","prefecture":"HOKKAIDO","city":"ASAHIKAWA SHI","town":"3-JONISHI","perfecture_jp":"北海道","jp_add_1":"旭川市","jp_add_2":"３条西"},"0700034":{"post_code":"0700034","prefecture":"HOKKAIDO","city":"ASAHIKAWA SHI","town":"4-JODORI(1-17-CHOME)","perfecture_jp":"北海道","jp_add_1":"旭川市","jp_add_2":"４条通"},"0700054":{"post_code":"0700054","prefecture":"HOKKAIDO","city":"ASAHIKAWA SHI","town":"4-JONISHI","perfecture_jp":"北海道","jp_add_1":"旭川市","jp_add_2":"４条西"},"0700035":{"post_code":"0700035","prefecture":"HOKKAIDO","city":"ASAHIKAWA SHI","town":"5-JODORI(1-17-CHOME)","perfecture_jp":"北海道","jp_add_1":"旭川市","jp_add_2":"５条通"},"0700055":{"post_code":"0700055","prefecture":"HOKKAIDO","city":"ASAHIKAWA SHI","town":"5-JONISHI","perfecture_jp":"北海道","jp_add_1":"旭川市","jp_add_2":"５条西"},"0700036":{"post_code":"0700036","prefecture":"HOKKAIDO","city":"ASAHIKAWA SHI","town":"6-JODORI(1-17-CHOME)","perfecture_jp":"北海道","jp_add_1":"旭川市","jp_add_2":"６条通"},"0700056":{"post_code":"0700056","prefecture":"HOKKAIDO","city":"ASAHIKAWA SHI","town":"6-JONISHI","perfecture_jp":"北海道","jp_add_1":"旭川市","jp_add_2":"６条西"},"0700037":{"post_code":"0700037","prefecture":"HOKKAIDO","city":"ASAHIKAWA SHI","town":"7-JODORI(1-17-CHOME)","perfecture_jp":"北海道","jp_add_1":"旭川市","jp_add_2":"７条通"},"0700057":{"post_code":"0700057","prefecture":"HOKKAIDO","city":"ASAHIKAWA SHI","town":"7-JONISHI","perfecture_jp":"北海道","jp_add_1":"旭川市","jp_add_2":"７条西"},"0700038":{"post_code":"0700038","prefecture":"HOKKAIDO","city":"ASAHIKAWA SHI","town":"8-JODORI(1-17-CHOME)","perfecture_jp":"北海道","jp_add_1":"旭川市","jp_add_2":"８条通"},"0700058":{"post_code":"0700058","prefecture":"HOKKAIDO","city":"ASAHIKAWA SHI","town":"8-JONISHI","perfecture_jp":"北海道","jp_add_1":"旭川市","jp_add_2":"８条西"},"0700039":{"post_code":"0700039","prefecture":"HOKKAIDO","city":"ASAHIKAWA SHI","town":"9-JODORI(1-17-CHOME)","perfecture_jp":"北海道","jp_add_1":"旭川市","jp_add_2":"９条通"},"0700059":{"post_code":"0700059","prefecture":"HOKKAIDO","city":"ASAHIKAWA SHI","town":"9-JONISHI","perfecture_jp":"北海道","jp_add_1":"旭川市","jp_add_2":"９条西"},"0700040":{"post_code":"0700040","prefecture":"HOKKAIDO","city":"ASAHIKAWA SHI","town":"10-JODORI(8-17-CHOME)","perfecture_jp":"北海道","jp_add_1":"旭川市","jp_add_2":"１０条通"}}