{"0711171":{"post_code":"0711171","prefecture":"HOKKAIDO","city":"ASAHIKAWA SHI","town":"ETAMBETSUCHO SHIMIZU","perfecture_jp":"北海道","jp_add_1":"旭川市","jp_add_2":"江丹別町清水"},"0711172":{"post_code":"0711172","prefecture":"HOKKAIDO","city":"ASAHIKAWA SHI","town":"ETAMBETSUCHO TAKUHOKU","perfecture_jp":"北海道","jp_add_1":"旭川市","jp_add_2":"江丹別町拓北"},"0711173":{"post_code":"0711173","prefecture":"HOKKAIDO","city":"ASAHIKAWA SHI","town":"ETAMBETSUCHO CHUO","perfecture_jp":"北海道","jp_add_1":"旭川市","jp_add_2":"江丹別町中央"},"0711174":{"post_code":"0711174","prefecture":"HOKKAIDO","city":"ASAHIKAWA SHI","town":"ETAMBETSUCHO TOMIHARA","perfecture_jp":"北海道","jp_add_1":"旭川市","jp_add_2":"江丹別町富原"},"0711175":{"post_code":"0711175","prefecture":"HOKKAIDO","city":"ASAHIKAWA SHI","town":"ETAMBETSUCHO NAKAZONO","perfecture_jp":"北海道","jp_add_1":"旭川市","jp_add_2":"江丹別町中園"},"0711176":{"post_code":"0711176","prefecture":"HOKKAIDO","city":"ASAHIKAWA SHI","town":"ETAMBETSUCHO NISHISATO","perfecture_jp":"北海道","jp_add_1":"旭川市","jp_add_2":"江丹別町西里"},"0711177":{"post_code":"0711177","prefecture":"HOKKAIDO","city":"ASAHIKAWA SHI","town":"ETAMBETSUCHO YOSHINO","perfecture_jp":"北海道","jp_add_1":"旭川市","jp_add_2":"江丹別町芳野"},"0718141":{"post_code":"0718141","prefecture":"HOKKAIDO","city":"ASAHIKAWA SHI","town":"SHUNKODAI 1-JO","perfecture_jp":"北海道","jp_add_1":"旭川市","jp_add_2":"春光台１条"},"0718142":{"post_code":"0718142","prefecture":"HOKKAIDO","city":"ASAHIKAWA SHI","town":"SHUNKODAI 2-JO","perfecture_jp":"北海道","jp_add_1":"旭川市","jp_add_2":"春光台２条"},"0718143":{"post_code":"0718143","prefecture":"HOKKAIDO","city":"ASAHIKAWA SHI","town":"SHUNKODAI 3-JO","perfecture_jp":"北海道","jp_add_1":"旭川市","jp_add_2":"春光台３条"},"0718144":{"post_code":"0718144","prefecture":"HOKKAIDO","city":"ASAHIKAWA SHI","town":"SHUNKODAI 4-JO","perfecture_jp":"北海道","jp_add_1":"旭川市","jp_add_2":"春光台４条"},"0718145":{"post_code":"0718145","prefecture":"HOKKAIDO","city":"ASAHIKAWA SHI","town":"SHUNKODAI 5-JO","perfecture_jp":"北海道","jp_add_1":"旭川市","jp_add_2":"春光台５条"},"0718131":{"post_code":"0718131","prefecture":"HOKKAIDO","city":"ASAHIKAWA SHI","town":"SUEHIRO 1-JO","perfecture_jp":"北海道","jp_add_1":"旭川市","jp_add_2":"末広１条"},"0718132":{"post_code":"0718132","prefecture":"HOKKAIDO","city":"ASAHIKAWA SHI","town":"SUEHIRO 2-JO","perfecture_jp":"北海道","jp_add_1":"旭川市","jp_add_2":"末広２条"},"0718133":{"post_code":"0718133","prefecture":"HOKKAIDO","city":"ASAHIKAWA SHI","town":"SUEHIRO 3-JO","perfecture_jp":"北海道","jp_add_1":"旭川市","jp_add_2":"末広３条"},"0718134":{"post_code":"0718134","prefecture":"HOKKAIDO","city":"ASAHIKAWA SHI","town":"SUEHIRO 4-JO","perfecture_jp":"北海道","jp_add_1":"旭川市","jp_add_2":"末広４条"},"0718135":{"post_code":"0718135","prefecture":"HOKKAIDO","city":"ASAHIKAWA SHI","town":"SUEHIRO 5-JO","perfecture_jp":"北海道","jp_add_1":"旭川市","jp_add_2":"末広５条"},"0718136":{"post_code":"0718136","prefecture":"HOKKAIDO","city":"ASAHIKAWA SHI","town":"SUEHIRO 6-JO","perfecture_jp":"北海道","jp_add_1":"旭川市","jp_add_2":"末広６条"},"0718137":{"post_code":"0718137","prefecture":"HOKKAIDO","city":"ASAHIKAWA SHI","town":"SUEHIRO 7-JO","perfecture_jp":"北海道","jp_add_1":"旭川市","jp_add_2":"末広７条"},"0718138":{"post_code":"0718138","prefecture":"HOKKAIDO","city":"ASAHIKAWA SHI","town":"SUEHIRO 8-JO","perfecture_jp":"北海道","jp_add_1":"旭川市","jp_add_2":"末広８条"},"0718121":{"post_code":"0718121","prefecture":"HOKKAIDO","city":"ASAHIKAWA SHI","town":"SUEHIROHIGASHI 1-JO","perfecture_jp":"北海道","jp_add_1":"旭川市","jp_add_2":"末広東１条"},"0718122":{"post_code":"0718122","prefecture":"HOKKAIDO","city":"ASAHIKAWA SHI","town":"SUEHIROHIGASHI 2-JO","perfecture_jp":"北海道","jp_add_1":"旭川市","jp_add_2":"末広東２条"},"0718123":{"post_code":"0718123","prefecture":"HOKKAIDO","city":"ASAHIKAWA SHI","town":"SUEHIROHIGASHI 3-JO","perfecture_jp":"北海道","jp_add_1":"旭川市","jp_add_2":"末広東３条"},"0710173":{"post_code":"0710173","prefecture":"HOKKAIDO","city":"ASAHIKAWA SHI","town":"NISHIKAGURA KITA1-JO","perfecture_jp":"北海道","jp_add_1":"旭川市","jp_add_2":"西神楽北１条"},"0710174":{"post_code":"0710174","prefecture":"HOKKAIDO","city":"ASAHIKAWA SHI","town":"NISHIKAGURA KITA2-JO","perfecture_jp":"北海道","jp_add_1":"旭川市","jp_add_2":"西神楽北２条"},"0710171":{"post_code":"0710171","prefecture":"HOKKAIDO","city":"ASAHIKAWA SHI","town":"NISHIKAGURA MINAMI1-JO","perfecture_jp":"北海道","jp_add_1":"旭川市","jp_add_2":"西神楽南１条"},"0710172":{"post_code":"0710172","prefecture":"HOKKAIDO","city":"ASAHIKAWA SHI","town":"NISHIKAGURA MINAMI2-JO","perfecture_jp":"北海道","jp_add_1":"旭川市","jp_add_2":"西神楽南２条"},"0710186":{"post_code":"0710186","prefecture":"HOKKAIDO","city":"ASAHIKAWA SHI","town":"NISHIKAGURA MINAMI","perfecture_jp":"北海道","jp_add_1":"旭川市","jp_add_2":"西神楽南"},"0710184":{"post_code":"0710184","prefecture":"HOKKAIDO","city":"ASAHIKAWA SHI","town":"NISHIKAGURA4-SEN","perfecture_jp":"北海道","jp_add_1":"旭川市","jp_add_2":"西神楽４線"},"0710185":{"post_code":"0710185","prefecture":"HOKKAIDO","city":"ASAHIKAWA SHI","town":"NISHIKAGURA5-SEN","perfecture_jp":"北海道","jp_add_1":"旭川市","jp_add_2":"西神楽５線"},"0718101":{"post_code":"0718101","prefecture":"HOKKAIDO","city":"ASAHIKAWA SHI","town":"HIGASHITAKASU 1-JO","perfecture_jp":"北海道","jp_add_1":"旭川市","jp_add_2":"東鷹栖１条"},"0718102":{"post_code":"0718102","prefecture":"HOKKAIDO","city":"ASAHIKAWA SHI","town":"HIGASHITAKASU 2-JO","perfecture_jp":"北海道","jp_add_1":"旭川市","jp_add_2":"東鷹栖２条"},"0718103":{"post_code":"0718103","prefecture":"HOKKAIDO","city":"ASAHIKAWA SHI","town":"HIGASHITAKASU 3-JO","perfecture_jp":"北海道","jp_add_1":"旭川市","jp_add_2":"東鷹栖３条"},"0718104":{"post_code":"0718104","prefecture":"HOKKAIDO","city":"ASAHIKAWA SHI","town":"HIGASHITAKASU 4-JO","perfecture_jp":"北海道","jp_add_1":"旭川市","jp_add_2":"東鷹栖４条"},"0718151":{"post_code":"0718151","prefecture":"HOKKAIDO","city":"ASAHIKAWA SHI","town":"HIGASHITAKASU 1-SEN","perfecture_jp":"北海道","jp_add_1":"旭川市","jp_add_2":"東鷹栖１線"},"0718152":{"post_code":"0718152","prefecture":"HOKKAIDO","city":"ASAHIKAWA SHI","town":"HIGASHITAKASU 2-SEN","perfecture_jp":"北海道","jp_add_1":"旭川市","jp_add_2":"東鷹栖２線"},"0718153":{"post_code":"0718153","prefecture":"HOKKAIDO","city":"ASAHIKAWA SHI","town":"HIGASHITAKASU 3-SEN","perfecture_jp":"北海道","jp_add_1":"旭川市","jp_add_2":"東鷹栖３線"},"0718154":{"post_code":"0718154","prefecture":"HOKKAIDO","city":"ASAHIKAWA SHI","town":"HIGASHITAKASU 4-SEN","perfecture_jp":"北海道","jp_add_1":"旭川市","jp_add_2":"東鷹栖４線"},"0718155":{"post_code":"0718155","prefecture":"HOKKAIDO","city":"ASAHIKAWA SHI","town":"HIGASHITAKASU 5-SEN","perfecture_jp":"北海道","jp_add_1":"旭川市","jp_add_2":"東鷹栖５線"},"0718156":{"post_code":"0718156","prefecture":"HOKKAIDO","city":"ASAHIKAWA SHI","town":"HIGASHITAKASU 6-SEN","perfecture_jp":"北海道","jp_add_1":"旭川市","jp_add_2":"東鷹栖６線"},"0718157":{"post_code":"0718157","prefecture":"HOKKAIDO","city":"ASAHIKAWA SHI","town":"HIGASHITAKASU 7-SEN","perfecture_jp":"北海道","jp_add_1":"旭川市","jp_add_2":"東鷹栖７線"},"0718158":{"post_code":"0718158","prefecture":"HOKKAIDO","city":"ASAHIKAWA SHI","town":"HIGASHITAKASU 8-SEN","perfecture_jp":"北海道","jp_add_1":"旭川市","jp_add_2":"東鷹栖８線"},"0718159":{"post_code":"0718159","prefecture":"HOKKAIDO","city":"ASAHIKAWA SHI","town":"HIGASHITAKASU 9-SEN","perfecture_jp":"北海道","jp_add_1":"旭川市","jp_add_2":"東鷹栖９線"},"0718160":{"post_code":"0718160","prefecture":"HOKKAIDO","city":"ASAHIKAWA SHI","town":"HIGASHITAKASU 10-SEN","perfecture_jp":"北海道","jp_add_1":"旭川市","jp_add_2":"東鷹栖１０線"},"0718161":{"post_code":"0718161","prefecture":"HOKKAIDO","city":"ASAHIKAWA SHI","town":"HIGASHITAKASU 11-SEN","perfecture_jp":"北海道","jp_add_1":"旭川市","jp_add_2":"東鷹栖１１線"},"0718162":{"post_code":"0718162","prefecture":"HOKKAIDO","city":"ASAHIKAWA SHI","town":"HIGASHITAKASU 12-SEN","perfecture_jp":"北海道","jp_add_1":"旭川市","jp_add_2":"東鷹栖１２線"},"0718163":{"post_code":"0718163","prefecture":"HOKKAIDO","city":"ASAHIKAWA SHI","town":"HIGASHITAKASU 13-SEN","perfecture_jp":"北海道","jp_add_1":"旭川市","jp_add_2":"東鷹栖１３線"},"0718164":{"post_code":"0718164","prefecture":"HOKKAIDO","city":"ASAHIKAWA SHI","town":"HIGASHITAKASU 14-SEN","perfecture_jp":"北海道","jp_add_1":"旭川市","jp_add_2":"東鷹栖１４線"},"0718165":{"post_code":"0718165","prefecture":"HOKKAIDO","city":"ASAHIKAWA SHI","town":"HIGASHITAKASU 15-SEN","perfecture_jp":"北海道","jp_add_1":"旭川市","jp_add_2":"東鷹栖１５線"},"0718111":{"post_code":"0718111","prefecture":"HOKKAIDO","city":"ASAHIKAWA SHI","town":"HIGASHITAKASUHIGASHI 1-JO","perfecture_jp":"北海道","jp_add_1":"旭川市","jp_add_2":"東鷹栖東１条"},"0718112":{"post_code":"0718112","prefecture":"HOKKAIDO","city":"ASAHIKAWA SHI","town":"HIGASHITAKASUHIGASHI 2-JO","perfecture_jp":"北海道","jp_add_1":"旭川市","jp_add_2":"東鷹栖東２条"},"0718113":{"post_code":"0718113","prefecture":"HOKKAIDO","city":"ASAHIKAWA SHI","town":"HIGASHITAKASUHIGASHI 3-JO","perfecture_jp":"北海道","jp_add_1":"旭川市","jp_add_2":"東鷹栖東３条"},"0718114":{"post_code":"0718114","prefecture":"HOKKAIDO","city":"ASAHIKAWA SHI","town":"HIGASHITAKASUHIGASHI 1-SEN","perfecture_jp":"北海道","jp_add_1":"旭川市","jp_add_2":"東鷹栖東１線"},"0718171":{"post_code":"0718171","prefecture":"HOKKAIDO","city":"ASAHIKAWA SHI","town":"HIGASHIYAMA","perfecture_jp":"北海道","jp_add_1":"旭川市","jp_add_2":"東山"},"0718166":{"post_code":"0718166","prefecture":"HOKKAIDO","city":"ASAHIKAWA SHI","town":"MIDORIDAI","perfecture_jp":"北海道","jp_add_1":"旭川市","jp_add_2":"緑台"},"0711200":{"post_code":"0711200","prefecture":"HOKKAIDO","city":"KAMIKAWA GUN TAKASU CHO","town":"IKANIKEISAIGANAIBAAI","perfecture_jp":"北海道","jp_add_1":"上川郡鷹栖町","jp_add_2":""},"0711231":{"post_code":"0711231","prefecture":"HOKKAIDO","city":"KAMIKAWA GUN TAKASU CHO","town":"KITANO NISHI1-JO","perfecture_jp":"北海道","jp_add_1":"上川郡鷹栖町","jp_add_2":"北野西一条"},"0711232":{"post_code":"0711232","prefecture":"HOKKAIDO","city":"KAMIKAWA GUN TAKASU CHO","town":"KITANO NISHI2-JO","perfecture_jp":"北海道","jp_add_1":"上川郡鷹栖町","jp_add_2":"北野西二条"},"0711233":{"post_code":"0711233","prefecture":"HOKKAIDO","city":"KAMIKAWA GUN TAKASU CHO","town":"KITANO NISHI3-JO","perfecture_jp":"北海道","jp_add_1":"上川郡鷹栖町","jp_add_2":"北野西三条"},"0711234":{"post_code":"0711234","prefecture":"HOKKAIDO","city":"KAMIKAWA GUN TAKASU CHO","town":"KITANO NISHI4-JO","perfecture_jp":"北海道","jp_add_1":"上川郡鷹栖町","jp_add_2":"北野西四条"},"0711235":{"post_code":"0711235","prefecture":"HOKKAIDO","city":"KAMIKAWA GUN TAKASU CHO","town":"KITANO NISHI5-JO","perfecture_jp":"北海道","jp_add_1":"上川郡鷹栖町","jp_add_2":"北野西五条"},"0711221":{"post_code":"0711221","prefecture":"HOKKAIDO","city":"KAMIKAWA GUN TAKASU CHO","town":"KITANO HIGASHI1-JO","perfecture_jp":"北海道","jp_add_1":"上川郡鷹栖町","jp_add_2":"北野東一条"},"0711222":{"post_code":"0711222","prefecture":"HOKKAIDO","city":"KAMIKAWA GUN TAKASU CHO","town":"KITANO HIGASHI2-JO","perfecture_jp":"北海道","jp_add_1":"上川郡鷹栖町","jp_add_2":"北野東二条"},"0711223":{"post_code":"0711223","prefecture":"HOKKAIDO","city":"KAMIKAWA GUN TAKASU CHO","town":"KITANO HIGASHI3-JO","perfecture_jp":"北海道","jp_add_1":"上川郡鷹栖町","jp_add_2":"北野東三条"},"0711224":{"post_code":"0711224","prefecture":"HOKKAIDO","city":"KAMIKAWA GUN TAKASU CHO","town":"KITANO HIGASHI4-JO","perfecture_jp":"北海道","jp_add_1":"上川郡鷹栖町","jp_add_2":"北野東四条"},"0711225":{"post_code":"0711225","prefecture":"HOKKAIDO","city":"KAMIKAWA GUN TAKASU CHO","town":"KITANO HIGASHI5-JO","perfecture_jp":"北海道","jp_add_1":"上川郡鷹栖町","jp_add_2":"北野東五条"},"0711211":{"post_code":"0711211","prefecture":"HOKKAIDO","city":"KAMIKAWA GUN TAKASU CHO","town":"KITA1-JO","perfecture_jp":"北海道","jp_add_1":"上川郡鷹栖町","jp_add_2":"北一条"},"0711201":{"post_code":"0711201","prefecture":"HOKKAIDO","city":"KAMIKAWA GUN TAKASU CHO","town":"MINAMI1-JO","perfecture_jp":"北海道","jp_add_1":"上川郡鷹栖町","jp_add_2":"南一条"},"0711202":{"post_code":"0711202","prefecture":"HOKKAIDO","city":"KAMIKAWA GUN TAKASU CHO","town":"MINAMI2-JO","perfecture_jp":"北海道","jp_add_1":"上川郡鷹栖町","jp_add_2":"南二条"},"0711247":{"post_code":"0711247","prefecture":"HOKKAIDO","city":"KAMIKAWA GUN TAKASU CHO","town":"7-SEN","perfecture_jp":"北海道","jp_add_1":"上川郡鷹栖町","jp_add_2":"７線"},"0711248":{"post_code":"0711248","prefecture":"HOKKAIDO","city":"KAMIKAWA GUN TAKASU CHO","town":"8-SEN","perfecture_jp":"北海道","jp_add_1":"上川郡鷹栖町","jp_add_2":"８線"},"0711249":{"post_code":"0711249","prefecture":"HOKKAIDO","city":"KAMIKAWA GUN TAKASU CHO","town":"9-SEN","perfecture_jp":"北海道","jp_add_1":"上川郡鷹栖町","jp_add_2":"９線"},"0711250":{"post_code":"0711250","prefecture":"HOKKAIDO","city":"KAMIKAWA GUN TAKASU CHO","town":"10-SEN","perfecture_jp":"北海道","jp_add_1":"上川郡鷹栖町","jp_add_2":"１０線"},"0711251":{"post_code":"0711251","prefecture":"HOKKAIDO","city":"KAMIKAWA GUN TAKASU CHO","town":"11-SEN","perfecture_jp":"北海道","jp_add_1":"上川郡鷹栖町","jp_add_2":"１１線"},"0711252":{"post_code":"0711252","prefecture":"HOKKAIDO","city":"KAMIKAWA GUN TAKASU CHO","town":"12-SEN","perfecture_jp":"北海道","jp_add_1":"上川郡鷹栖町","jp_add_2":"１２線"},"0711253":{"post_code":"0711253","prefecture":"HOKKAIDO","city":"KAMIKAWA GUN TAKASU CHO","town":"13-SEN","perfecture_jp":"北海道","jp_add_1":"上川郡鷹栖町","jp_add_2":"１３線"},"0711254":{"post_code":"0711254","prefecture":"HOKKAIDO","city":"KAMIKAWA GUN TAKASU CHO","town":"14-SEN","perfecture_jp":"北海道","jp_add_1":"上川郡鷹栖町","jp_add_2":"１４線"},"0711255":{"post_code":"0711255","prefecture":"HOKKAIDO","city":"KAMIKAWA GUN TAKASU CHO","town":"15-SEN","perfecture_jp":"北海道","jp_add_1":"上川郡鷹栖町","jp_add_2":"１５線"},"0711256":{"post_code":"0711256","prefecture":"HOKKAIDO","city":"KAMIKAWA GUN TAKASU CHO","town":"16-SEN","perfecture_jp":"北海道","jp_add_1":"上川郡鷹栖町","jp_add_2":"１６線"},"0711257":{"post_code":"0711257","prefecture":"HOKKAIDO","city":"KAMIKAWA GUN TAKASU CHO","town":"17-SEN","perfecture_jp":"北海道","jp_add_1":"上川郡鷹栖町","jp_add_2":"１７線"},"0711258":{"post_code":"0711258","prefecture":"HOKKAIDO","city":"KAMIKAWA GUN TAKASU CHO","town":"18-SEN","perfecture_jp":"北海道","jp_add_1":"上川郡鷹栖町","jp_add_2":"１８線"},"0711259":{"post_code":"0711259","prefecture":"HOKKAIDO","city":"KAMIKAWA GUN TAKASU CHO","town":"19-SEN","perfecture_jp":"北海道","jp_add_1":"上川郡鷹栖町","jp_add_2":"１９線"},"0711260":{"post_code":"0711260","prefecture":"HOKKAIDO","city":"KAMIKAWA GUN TAKASU CHO","town":"20-SEN","perfecture_jp":"北海道","jp_add_1":"上川郡鷹栖町","jp_add_2":"２０線"},"0711261":{"post_code":"0711261","prefecture":"HOKKAIDO","city":"KAMIKAWA GUN TAKASU CHO","town":"21-SEN","perfecture_jp":"北海道","jp_add_1":"上川郡鷹栖町","jp_add_2":"２１線"},"0711262":{"post_code":"0711262","prefecture":"HOKKAIDO","city":"KAMIKAWA GUN TAKASU CHO","town":"22-SEN","perfecture_jp":"北海道","jp_add_1":"上川郡鷹栖町","jp_add_2":"２２線"},"0711263":{"post_code":"0711263","prefecture":"HOKKAIDO","city":"KAMIKAWA GUN TAKASU CHO","town":"23-SEN","perfecture_jp":"北海道","jp_add_1":"上川郡鷹栖町","jp_add_2":"２３線"},"0711264":{"post_code":"0711264","prefecture":"HOKKAIDO","city":"KAMIKAWA GUN TAKASU CHO","town":"24-SEN","perfecture_jp":"北海道","jp_add_1":"上川郡鷹栖町","jp_add_2":"２４線"},"0711265":{"post_code":"0711265","prefecture":"HOKKAIDO","city":"KAMIKAWA GUN TAKASU CHO","town":"25-SEN","perfecture_jp":"北海道","jp_add_1":"上川郡鷹栖町","jp_add_2":"２５線"},"0711266":{"post_code":"0711266","prefecture":"HOKKAIDO","city":"KAMIKAWA GUN TAKASU CHO","town":"26-SEN","perfecture_jp":"北海道","jp_add_1":"上川郡鷹栖町","jp_add_2":"２６線"},"0711267":{"post_code":"0711267","prefecture":"HOKKAIDO","city":"KAMIKAWA GUN TAKASU CHO","town":"27-SEN","perfecture_jp":"北海道","jp_add_1":"上川郡鷹栖町","jp_add_2":"２７線"},"0711500":{"post_code":"0711500","prefecture":"HOKKAIDO","city":"KAMIKAWA GUN HIGASHIKAGURA CHO","town":"IKANIKEISAIGANAIBAAI","perfecture_jp":"北海道","jp_add_1":"上川郡東神楽町","jp_add_2":""},"0711560":{"post_code":"0711560","prefecture":"HOKKAIDO","city":"KAMIKAWA GUN HIGASHIKAGURA CHO","town":"KISEN","perfecture_jp":"北海道","jp_add_1":"上川郡東神楽町","jp_add_2":"基線"},"0711512":{"post_code":"0711512","prefecture":"HOKKAIDO","city":"KAMIKAWA GUN HIGASHIKAGURA CHO","town":"KITA1-JOHIGASHI","perfecture_jp":"北海道","jp_add_1":"上川郡東神楽町","jp_add_2":"北一条東"},"0711511":{"post_code":"0711511","prefecture":"HOKKAIDO","city":"KAMIKAWA GUN HIGASHIKAGURA CHO","town":"KITA1-JONISHI","perfecture_jp":"北海道","jp_add_1":"上川郡東神楽町","jp_add_2":"北一条西"},"0711514":{"post_code":"0711514","prefecture":"HOKKAIDO","city":"KAMIKAWA GUN HIGASHIKAGURA CHO","town":"KITA2-JOHIGASHI","perfecture_jp":"北海道","jp_add_1":"上川郡東神楽町","jp_add_2":"北二条東"},"0711513":{"post_code":"0711513","prefecture":"HOKKAIDO","city":"KAMIKAWA GUN HIGASHIKAGURA CHO","town":"KITA2-JONISHI","perfecture_jp":"北海道","jp_add_1":"上川郡東神楽町","jp_add_2":"北二条西"},"0711515":{"post_code":"0711515","prefecture":"HOKKAIDO","city":"KAMIKAWA GUN HIGASHIKAGURA CHO","town":"KITA3-JOHIGASHI","perfecture_jp":"北海道","jp_add_1":"上川郡東神楽町","jp_add_2":"北三条東"},"0711581":{"post_code":"0711581","prefecture":"HOKKAIDO","city":"KAMIKAWA GUN HIGASHIKAGURA CHO","town":"SAKAEOKA","perfecture_jp":"北海道","jp_add_1":"上川郡東神楽町","jp_add_2":"栄岡"},"0711582":{"post_code":"0711582","prefecture":"HOKKAIDO","city":"KAMIKAWA GUN HIGASHIKAGURA CHO","town":"SHIBINAI","perfecture_jp":"北海道","jp_add_1":"上川郡東神楽町","jp_add_2":"志比内"},"0711561":{"post_code":"0711561","prefecture":"HOKKAIDO","city":"KAMIKAWA GUN HIGASHIKAGURA CHO","town":"HIGASHI1-SEN","perfecture_jp":"北海道","jp_add_1":"上川郡東神楽町","jp_add_2":"東一線"},"0711562":{"post_code":"0711562","prefecture":"HOKKAIDO","city":"KAMIKAWA GUN HIGASHIKAGURA CHO","town":"HIGASHI2-SEN","perfecture_jp":"北海道","jp_add_1":"上川郡東神楽町","jp_add_2":"東二線"},"0711563":{"post_code":"0711563","prefecture":"HOKKAIDO","city":"KAMIKAWA GUN HIGASHIKAGURA CHO","town":"HIGASHI3-SEN","perfecture_jp":"北海道","jp_add_1":"上川郡東神楽町","jp_add_2":"東三線"},"0711564":{"post_code":"0711564","prefecture":"HOKKAIDO","city":"KAMIKAWA GUN HIGASHIKAGURA CHO","town":"HIGASHI4-SEN","perfecture_jp":"北海道","jp_add_1":"上川郡東神楽町","jp_add_2":"東四線"},"0711565":{"post_code":"0711565","prefecture":"HOKKAIDO","city":"KAMIKAWA GUN HIGASHIKAGURA CHO","town":"HIGASHI5-SEN","perfecture_jp":"北海道","jp_add_1":"上川郡東神楽町","jp_add_2":"東五線"},"0711521":{"post_code":"0711521","prefecture":"HOKKAIDO","city":"KAMIKAWA GUN HIGASHIKAGURA CHO","town":"HIJIRINOKITA 1-JO","perfecture_jp":"北海道","jp_add_1":"上川郡東神楽町","jp_add_2":"ひじり野北一条"},"0711522":{"post_code":"0711522","prefecture":"HOKKAIDO","city":"KAMIKAWA GUN HIGASHIKAGURA CHO","town":"HIJIRINOKITA 2-JO","perfecture_jp":"北海道","jp_add_1":"上川郡東神楽町","jp_add_2":"ひじり野北二条"},"0711523":{"post_code":"0711523","prefecture":"HOKKAIDO","city":"KAMIKAWA GUN HIGASHIKAGURA CHO","town":"HIJIRINOMINAMI 1-JO","perfecture_jp":"北海道","jp_add_1":"上川郡東神楽町","jp_add_2":"ひじり野南一条"},"0711524":{"post_code":"0711524","prefecture":"HOKKAIDO","city":"KAMIKAWA GUN HIGASHIKAGURA CHO","town":"HIJIRINOMINAMI 2-JO","perfecture_jp":"北海道","jp_add_1":"上川郡東神楽町","jp_add_2":"ひじり野南二条"},"0711525":{"post_code":"0711525","prefecture":"HOKKAIDO","city":"KAMIKAWA GUN HIGASHIKAGURA CHO","town":"HIJIRINOMINAMI 3-JO","perfecture_jp":"北海道","jp_add_1":"上川郡東神楽町","jp_add_2":"ひじり野南三条"},"0711572":{"post_code":"0711572","prefecture":"HOKKAIDO","city":"KAMIKAWA GUN HIGASHIKAGURA CHO","town":"MINAMI2-SEN","perfecture_jp":"北海道","jp_add_1":"上川郡東神楽町","jp_add_2":"南２線"},"0711573":{"post_code":"0711573","prefecture":"HOKKAIDO","city":"KAMIKAWA GUN HIGASHIKAGURA CHO","town":"MINAMI3-SEN","perfecture_jp":"北海道","jp_add_1":"上川郡東神楽町","jp_add_2":"南３線"},"0711574":{"post_code":"0711574","prefecture":"HOKKAIDO","city":"KAMIKAWA GUN HIGASHIKAGURA CHO","town":"MINAMI4-SEN","perfecture_jp":"北海道","jp_add_1":"上川郡東神楽町","jp_add_2":"南４線"},"0711575":{"post_code":"0711575","prefecture":"HOKKAIDO","city":"KAMIKAWA GUN HIGASHIKAGURA CHO","town":"MINAMI5-SEN","perfecture_jp":"北海道","jp_add_1":"上川郡東神楽町","jp_add_2":"南５線"},"0711502":{"post_code":"0711502","prefecture":"HOKKAIDO","city":"KAMIKAWA GUN HIGASHIKAGURA CHO","town":"MINAMI1-JOHIGASHI","perfecture_jp":"北海道","jp_add_1":"上川郡東神楽町","jp_add_2":"南一条東"},"0711501":{"post_code":"0711501","prefecture":"HOKKAIDO","city":"KAMIKAWA GUN HIGASHIKAGURA CHO","town":"MINAMI1-JONISHI","perfecture_jp":"北海道","jp_add_1":"上川郡東神楽町","jp_add_2":"南一条西"},"0711571":{"post_code":"0711571","prefecture":"HOKKAIDO","city":"KAMIKAWA GUN HIGASHIKAGURA CHO","town":"MINAMI1-BANDORI","perfecture_jp":"北海道","jp_add_1":"上川郡東神楽町","jp_add_2":"南１番通"},"0711504":{"post_code":"0711504","prefecture":"HOKKAIDO","city":"KAMIKAWA GUN HIGASHIKAGURA CHO","town":"MINAMI2-JOHIGASHI","perfecture_jp":"北海道","jp_add_1":"上川郡東神楽町","jp_add_2":"南二条東"},"0711503":{"post_code":"0711503","prefecture":"HOKKAIDO","city":"KAMIKAWA GUN HIGASHIKAGURA CHO","town":"MINAMI2-JONISHI","perfecture_jp":"北海道","jp_add_1":"上川郡東神楽町","jp_add_2":"南二条西"},"0711505":{"post_code":"0711505","prefecture":"HOKKAIDO","city":"KAMIKAWA GUN HIGASHIKAGURA CHO","town":"MINAMI3-JOHIGASHI","perfecture_jp":"北海道","jp_add_1":"上川郡東神楽町","jp_add_2":"南三条東"},"0711570":{"post_code":"0711570","prefecture":"HOKKAIDO","city":"KAMIKAWA GUN HIGASHIKAGURA CHO","town":"MINAMI13-GO","perfecture_jp":"北海道","jp_add_1":"上川郡東神楽町","jp_add_2":"南１３号"},"0711577":{"post_code":"0711577","prefecture":"HOKKAIDO","city":"KAMIKAWA GUN HIGASHIKAGURA CHO","town":"YACHIYOGAOKA","perfecture_jp":"北海道","jp_add_1":"上川郡東神楽町","jp_add_2":"八千代ケ岡"},"0711533":{"post_code":"0711533","prefecture":"HOKKAIDO","city":"KAMIKAWA GUN HIGASHIKAGURA CHO","town":"3-GO","perfecture_jp":"北海道","jp_add_1":"上川郡東神楽町","jp_add_2":"３号"},"0711534":{"post_code":"0711534","prefecture":"HOKKAIDO","city":"KAMIKAWA GUN HIGASHIKAGURA CHO","town":"4-GO","perfecture_jp":"北海道","jp_add_1":"上川郡東神楽町","jp_add_2":"４号"},"0711535":{"post_code":"0711535","prefecture":"HOKKAIDO","city":"KAMIKAWA GUN HIGASHIKAGURA CHO","town":"5-GO","perfecture_jp":"北海道","jp_add_1":"上川郡東神楽町","jp_add_2":"５号"},"0711536":{"post_code":"0711536","prefecture":"HOKKAIDO","city":"KAMIKAWA GUN HIGASHIKAGURA CHO","town":"6-GO","perfecture_jp":"北海道","jp_add_1":"上川郡東神楽町","jp_add_2":"６号"},"0711537":{"post_code":"0711537","prefecture":"HOKKAIDO","city":"KAMIKAWA GUN HIGASHIKAGURA CHO","town":"7-GO","perfecture_jp":"北海道","jp_add_1":"上川郡東神楽町","jp_add_2":"７号"},"0711538":{"post_code":"0711538","prefecture":"HOKKAIDO","city":"KAMIKAWA GUN HIGASHIKAGURA CHO","town":"8-GO","perfecture_jp":"北海道","jp_add_1":"上川郡東神楽町","jp_add_2":"８号"},"0711539":{"post_code":"0711539","prefecture":"HOKKAIDO","city":"KAMIKAWA GUN HIGASHIKAGURA CHO","town":"9-GO","perfecture_jp":"北海道","jp_add_1":"上川郡東神楽町","jp_add_2":"９号"},"0711540":{"post_code":"0711540","prefecture":"HOKKAIDO","city":"KAMIKAWA GUN HIGASHIKAGURA CHO","town":"10-GO","perfecture_jp":"北海道","jp_add_1":"上川郡東神楽町","jp_add_2":"１０号"},"0711541":{"post_code":"0711541","prefecture":"HOKKAIDO","city":"KAMIKAWA GUN HIGASHIKAGURA CHO","town":"11-GO","perfecture_jp":"北海道","jp_add_1":"上川郡東神楽町","jp_add_2":"１１号"},"0711542":{"post_code":"0711542","prefecture":"HOKKAIDO","city":"KAMIKAWA GUN HIGASHIKAGURA CHO","town":"12-GO","perfecture_jp":"北海道","jp_add_1":"上川郡東神楽町","jp_add_2":"１２号"},"0711543":{"post_code":"0711543","prefecture":"HOKKAIDO","city":"KAMIKAWA GUN HIGASHIKAGURA CHO","town":"13-GO","perfecture_jp":"北海道","jp_add_1":"上川郡東神楽町","jp_add_2":"１３号"},"0711544":{"post_code":"0711544","prefecture":"HOKKAIDO","city":"KAMIKAWA GUN HIGASHIKAGURA CHO","town":"14-GO","perfecture_jp":"北海道","jp_add_1":"上川郡東神楽町","jp_add_2":"１４号"},"0711545":{"post_code":"0711545","prefecture":"HOKKAIDO","city":"KAMIKAWA GUN HIGASHIKAGURA CHO","town":"15-GO","perfecture_jp":"北海道","jp_add_1":"上川郡東神楽町","jp_add_2":"１５号"},"0711546":{"post_code":"0711546","prefecture":"HOKKAIDO","city":"KAMIKAWA GUN HIGASHIKAGURA CHO","town":"16-GO","perfecture_jp":"北海道","jp_add_1":"上川郡東神楽町","jp_add_2":"１６号"},"0711547":{"post_code":"0711547","prefecture":"HOKKAIDO","city":"KAMIKAWA GUN HIGASHIKAGURA CHO","town":"17-GO","perfecture_jp":"北海道","jp_add_1":"上川郡東神楽町","jp_add_2":"１７号"},"0711548":{"post_code":"0711548","prefecture":"HOKKAIDO","city":"KAMIKAWA GUN HIGASHIKAGURA CHO","town":"18-GO","perfecture_jp":"北海道","jp_add_1":"上川郡東神楽町","jp_add_2":"１８号"},"0711549":{"post_code":"0711549","prefecture":"HOKKAIDO","city":"KAMIKAWA GUN HIGASHIKAGURA CHO","town":"19-GO","perfecture_jp":"北海道","jp_add_1":"上川郡東神楽町","jp_add_2":"１９号"},"0711550":{"post_code":"0711550","prefecture":"HOKKAIDO","city":"KAMIKAWA GUN HIGASHIKAGURA CHO","town":"20-GO","perfecture_jp":"北海道","jp_add_1":"上川郡東神楽町","jp_add_2":"２０号"},"0711551":{"post_code":"0711551","prefecture":"HOKKAIDO","city":"KAMIKAWA GUN HIGASHIKAGURA CHO","town":"21-GO","perfecture_jp":"北海道","jp_add_1":"上川郡東神楽町","jp_add_2":"２１号"},"0711552":{"post_code":"0711552","prefecture":"HOKKAIDO","city":"KAMIKAWA GUN HIGASHIKAGURA CHO","town":"22-GO","perfecture_jp":"北海道","jp_add_1":"上川郡東神楽町","jp_add_2":"２２号"},"0711553":{"post_code":"0711553","prefecture":"HOKKAIDO","city":"KAMIKAWA GUN HIGASHIKAGURA CHO","town":"23-GO","perfecture_jp":"北海道","jp_add_1":"上川郡東神楽町","jp_add_2":"２３号"},"0711554":{"post_code":"0711554","prefecture":"HOKKAIDO","city":"KAMIKAWA GUN HIGASHIKAGURA CHO","town":"24-GO","perfecture_jp":"北海道","jp_add_1":"上川郡東神楽町","jp_add_2":"２４号"},"0711555":{"post_code":"0711555","prefecture":"HOKKAIDO","city":"KAMIKAWA GUN HIGASHIKAGURA CHO","town":"25-GO","perfecture_jp":"北海道","jp_add_1":"上川郡東神楽町","jp_add_2":"２５号"},"0711556":{"post_code":"0711556","prefecture":"HOKKAIDO","city":"KAMIKAWA GUN HIGASHIKAGURA CHO","town":"26-GO","perfecture_jp":"北海道","jp_add_1":"上川郡東神楽町","jp_add_2":"２６号"},"0711557":{"post_code":"0711557","prefecture":"HOKKAIDO","city":"KAMIKAWA GUN HIGASHIKAGURA CHO","town":"27-GO","perfecture_jp":"北海道","jp_add_1":"上川郡東神楽町","jp_add_2":"２７号"},"0711400":{"post_code":"0711400","prefecture":"HOKKAIDO","city":"KAMIKAWA GUN HIGASHIKAWA CHO","town":"IKANIKEISAIGANAIBAAI","perfecture_jp":"北海道","jp_add_1":"上川郡東川町","jp_add_2":""},"0711426":{"post_code":"0711426","prefecture":"HOKKAIDO","city":"KAMIKAWA GUN HIGASHIKAWA CHO","town":"KITAMACHI","perfecture_jp":"北海道","jp_add_1":"上川郡東川町","jp_add_2":"北町"},"0711465":{"post_code":"0711465","prefecture":"HOKKAIDO","city":"KAMIKAWA GUN HIGASHIKAWA CHO","town":"KITA5-SEN","perfecture_jp":"北海道","jp_add_1":"上川郡東川町","jp_add_2":"北５線"},"0711466":{"post_code":"0711466","prefecture":"HOKKAIDO","city":"KAMIKAWA GUN HIGASHIKAWA CHO","town":"KITA7-SEN","perfecture_jp":"北海道","jp_add_1":"上川郡東川町","jp_add_2":"北７線"},"0711462":{"post_code":"0711462","prefecture":"HOKKAIDO","city":"KAMIKAWA GUN HIGASHIKAWA CHO","town":"KITA2-SENHIGASHI","perfecture_jp":"北海道","jp_add_1":"上川郡東川町","jp_add_2":"北２線東"},"0711463":{"post_code":"0711463","prefecture":"HOKKAIDO","city":"KAMIKAWA GUN HIGASHIKAWA CHO","town":"KITA3-SENHIGASHI","perfecture_jp":"北海道","jp_add_1":"上川郡東川町","jp_add_2":"北３線東"},"0711467":{"post_code":"0711467","prefecture":"HOKKAIDO","city":"KAMIKAWA GUN HIGASHIKAWA CHO","town":"KITA7-SENHIGASHI","perfecture_jp":"北海道","jp_add_1":"上川郡東川町","jp_add_2":"北７線東"},"0711464":{"post_code":"0711464","prefecture":"HOKKAIDO","city":"KAMIKAWA GUN HIGASHIKAWA CHO","town":"SHINKADAI","perfecture_jp":"北海道","jp_add_1":"上川郡東川町","jp_add_2":"進化台"},"0711425":{"post_code":"0711425","prefecture":"HOKKAIDO","city":"KAMIKAWA GUN HIGASHIKAWA CHO","town":"NISHIMACHI","perfecture_jp":"北海道","jp_add_1":"上川郡東川町","jp_add_2":"西町"},"0711422":{"post_code":"0711422","prefecture":"HOKKAIDO","city":"KAMIKAWA GUN HIGASHIKAWA CHO","town":"NISHI2-GOMINAMI","perfecture_jp":"北海道","jp_add_1":"上川郡東川町","jp_add_2":"西２号南"},"0711402":{"post_code":"0711402","prefecture":"HOKKAIDO","city":"KAMIKAWA GUN HIGASHIKAWA CHO","town":"NISHI2-GOKITA","perfecture_jp":"北海道","jp_add_1":"上川郡東川町","jp_add_2":"西２号北"},"0711403":{"post_code":"0711403","prefecture":"HOKKAIDO","city":"KAMIKAWA GUN HIGASHIKAWA CHO","town":"NISHI3-GOKITA","perfecture_jp":"北海道","jp_add_1":"上川郡東川町","jp_add_2":"西３号北"},"0711404":{"post_code":"0711404","prefecture":"HOKKAIDO","city":"KAMIKAWA GUN HIGASHIKAWA CHO","town":"NISHI4-GOKITA","perfecture_jp":"北海道","jp_add_1":"上川郡東川町","jp_add_2":"西４号北"},"0711405":{"post_code":"0711405","prefecture":"HOKKAIDO","city":"KAMIKAWA GUN HIGASHIKAWA CHO","town":"NISHI5-GOKITA","perfecture_jp":"北海道","jp_add_1":"上川郡東川町","jp_add_2":"西５号北"},"0711406":{"post_code":"0711406","prefecture":"HOKKAIDO","city":"KAMIKAWA GUN HIGASHIKAWA CHO","town":"NISHI6-GOKITA","perfecture_jp":"北海道","jp_add_1":"上川郡東川町","jp_add_2":"西６号北"},"0711407":{"post_code":"0711407","prefecture":"HOKKAIDO","city":"KAMIKAWA GUN HIGASHIKAWA CHO","town":"NISHI7-GOKITA","perfecture_jp":"北海道","jp_add_1":"上川郡東川町","jp_add_2":"西７号北"},"0711408":{"post_code":"0711408","prefecture":"HOKKAIDO","city":"KAMIKAWA GUN HIGASHIKAWA CHO","town":"NISHI8-GOKITA","perfecture_jp":"北海道","jp_add_1":"上川郡東川町","jp_add_2":"西８号北"},"0711409":{"post_code":"0711409","prefecture":"HOKKAIDO","city":"KAMIKAWA GUN HIGASHIKAWA CHO","town":"NISHI9-GOKITA","perfecture_jp":"北海道","jp_add_1":"上川郡東川町","jp_add_2":"西９号北"},"0711410":{"post_code":"0711410","prefecture":"HOKKAIDO","city":"KAMIKAWA GUN HIGASHIKAWA CHO","town":"NISHI10-GOKITA","perfecture_jp":"北海道","jp_add_1":"上川郡東川町","jp_add_2":"西１０号北"},"0711411":{"post_code":"0711411","prefecture":"HOKKAIDO","city":"KAMIKAWA GUN HIGASHIKAWA CHO","town":"NISHI11-GOKITA","perfecture_jp":"北海道","jp_add_1":"上川郡東川町","jp_add_2":"西１１号北"},"0711412":{"post_code":"0711412","prefecture":"HOKKAIDO","city":"KAMIKAWA GUN HIGASHIKAWA CHO","town":"NISHI12-GOKITA","perfecture_jp":"北海道","jp_add_1":"上川郡東川町","jp_add_2":"西１２号北"},"0711471":{"post_code":"0711471","prefecture":"HOKKAIDO","city":"KAMIKAWA GUN HIGASHIKAWA CHO","town":"NOKANAN","perfecture_jp":"北海道","jp_add_1":"上川郡東川町","jp_add_2":"ノカナン"},"0711423":{"post_code":"0711423","prefecture":"HOKKAIDO","city":"KAMIKAWA GUN HIGASHIKAWA CHO","town":"HIGASHIMACHI","perfecture_jp":"北海道","jp_add_1":"上川郡東川町","jp_add_2":"東町"},"0711452":{"post_code":"0711452","prefecture":"HOKKAIDO","city":"KAMIKAWA GUN HIGASHIKAWA CHO","town":"HIGASHI2-GOMINAMI","perfecture_jp":"北海道","jp_add_1":"上川郡東川町","jp_add_2":"東２号南"},"0711432":{"post_code":"0711432","prefecture":"HOKKAIDO","city":"KAMIKAWA GUN HIGASHIKAWA CHO","town":"HIGASHI2-GOKITA","perfecture_jp":"北海道","jp_add_1":"上川郡東川町","jp_add_2":"東２号北"},"0711453":{"post_code":"0711453","prefecture":"HOKKAIDO","city":"KAMIKAWA GUN HIGASHIKAWA CHO","town":"HIGASHI3-GOMINAMI","perfecture_jp":"北海道","jp_add_1":"上川郡東川町","jp_add_2":"東３号南"},"0711433":{"post_code":"0711433","prefecture":"HOKKAIDO","city":"KAMIKAWA GUN HIGASHIKAWA CHO","town":"HIGASHI3-GOKITA","perfecture_jp":"北海道","jp_add_1":"上川郡東川町","jp_add_2":"東３号北"},"0711454":{"post_code":"0711454","prefecture":"HOKKAIDO","city":"KAMIKAWA GUN HIGASHIKAWA CHO","town":"HIGASHI4-GOMINAMI","perfecture_jp":"北海道","jp_add_1":"上川郡東川町","jp_add_2":"東４号南"},"0711434":{"post_code":"0711434","prefecture":"HOKKAIDO","city":"KAMIKAWA GUN HIGASHIKAWA CHO","town":"HIGASHI4-GOKITA","perfecture_jp":"北海道","jp_add_1":"上川郡東川町","jp_add_2":"東４号北"},"0711455":{"post_code":"0711455","prefecture":"HOKKAIDO","city":"KAMIKAWA GUN HIGASHIKAWA CHO","town":"HIGASHI5-GOMINAMI","perfecture_jp":"北海道","jp_add_1":"上川郡東川町","jp_add_2":"東５号南"},"0711435":{"post_code":"0711435","prefecture":"HOKKAIDO","city":"KAMIKAWA GUN HIGASHIKAWA CHO","town":"HIGASHI5-GOKITA","perfecture_jp":"北海道","jp_add_1":"上川郡東川町","jp_add_2":"東５号北"},"0711456":{"post_code":"0711456","prefecture":"HOKKAIDO","city":"KAMIKAWA GUN HIGASHIKAWA CHO","town":"HIGASHI6-GOMINAMI","perfecture_jp":"北海道","jp_add_1":"上川郡東川町","jp_add_2":"東６号南"},"0711436":{"post_code":"0711436","prefecture":"HOKKAIDO","city":"KAMIKAWA GUN HIGASHIKAWA CHO","town":"HIGASHI6-GOKITA","perfecture_jp":"北海道","jp_add_1":"上川郡東川町","jp_add_2":"東６号北"},"0711457":{"post_code":"0711457","prefecture":"HOKKAIDO","city":"KAMIKAWA GUN HIGASHIKAWA CHO","town":"HIGASHI7-GOMINAMI","perfecture_jp":"北海道","jp_add_1":"上川郡東川町","jp_add_2":"東７号南"},"0711437":{"post_code":"0711437","prefecture":"HOKKAIDO","city":"KAMIKAWA GUN HIGASHIKAWA CHO","town":"HIGASHI7-GOKITA","perfecture_jp":"北海道","jp_add_1":"上川郡東川町","jp_add_2":"東７号北"},"0711458":{"post_code":"0711458","prefecture":"HOKKAIDO","city":"KAMIKAWA GUN HIGASHIKAWA CHO","town":"HIGASHI8-GOMINAMI","perfecture_jp":"北海道","jp_add_1":"上川郡東川町","jp_add_2":"東８号南"},"0711438":{"post_code":"0711438","prefecture":"HOKKAIDO","city":"KAMIKAWA GUN HIGASHIKAWA CHO","town":"HIGASHI8-GOKITA","perfecture_jp":"北海道","jp_add_1":"上川郡東川町","jp_add_2":"東８号北"},"0711459":{"post_code":"0711459","prefecture":"HOKKAIDO","city":"KAMIKAWA GUN HIGASHIKAWA CHO","town":"HIGASHI9-GOMINAMI","perfecture_jp":"北海道","jp_add_1":"上川郡東川町","jp_add_2":"東９号南"},"0711439":{"post_code":"0711439","prefecture":"HOKKAIDO","city":"KAMIKAWA GUN HIGASHIKAWA CHO","town":"HIGASHI9-GOKITA","perfecture_jp":"北海道","jp_add_1":"上川郡東川町","jp_add_2":"東９号北"},"0711460":{"post_code":"0711460","prefecture":"HOKKAIDO","city":"KAMIKAWA GUN HIGASHIKAWA CHO","town":"HIGASHI10-GOMINAMI","perfecture_jp":"北海道","jp_add_1":"上川郡東川町","jp_add_2":"東１０号南"},"0711440":{"post_code":"0711440","prefecture":"HOKKAIDO","city":"KAMIKAWA GUN HIGASHIKAWA CHO","town":"HIGASHI10-GOKITA","perfecture_jp":"北海道","jp_add_1":"上川郡東川町","jp_add_2":"東１０号北"},"0711461":{"post_code":"0711461","prefecture":"HOKKAIDO","city":"KAMIKAWA GUN HIGASHIKAWA CHO","town":"HIGASHI11-GOMINAMI","perfecture_jp":"北海道","jp_add_1":"上川郡東川町","jp_add_2":"東１１号南"},"0711441":{"post_code":"0711441","prefecture":"HOKKAIDO","city":"KAMIKAWA GUN HIGASHIKAWA CHO","town":"HIGASHI11-GOKITA","perfecture_jp":"北海道","jp_add_1":"上川郡東川町","jp_add_2":"東１１号北"},"0711442":{"post_code":"0711442","prefecture":"HOKKAIDO","city":"KAMIKAWA GUN HIGASHIKAWA CHO","town":"HIGASHI12-GOKITA","perfecture_jp":"北海道","jp_add_1":"上川郡東川町","jp_add_2":"東１２号北"},"0711473":{"post_code":"0711473","prefecture":"HOKKAIDO","city":"KAMIKAWA GUN HIGASHIKAWA CHO","town":"MATSUYAMAONSEN","perfecture_jp":"北海道","jp_add_1":"上川郡東川町","jp_add_2":"松山温泉"},"0711424":{"post_code":"0711424","prefecture":"HOKKAIDO","city":"KAMIKAWA GUN HIGASHIKAWA CHO","town":"MINAMIMACHI","perfecture_jp":"北海道","jp_add_1":"上川郡東川町","jp_add_2":"南町"},"0711472":{"post_code":"0711472","prefecture":"HOKKAIDO","city":"KAMIKAWA GUN HIGASHIKAWA CHO","town":"YUKOMAMBETSU","perfecture_jp":"北海道","jp_add_1":"上川郡東川町","jp_add_2":"勇駒別"},"0711451":{"post_code":"0711451","prefecture":"HOKKAIDO","city":"KAMIKAWA GUN HIGASHIKAWA CHO","town":"1-GOMINAMI","perfecture_jp":"北海道","jp_add_1":"上川郡東川町","jp_add_2":"１号南"},"0711431":{"post_code":"0711431","prefecture":"HOKKAIDO","city":"KAMIKAWA GUN HIGASHIKAWA CHO","town":"1-GOKITA","perfecture_jp":"北海道","jp_add_1":"上川郡東川町","jp_add_2":"１号北"},"0710200":{"post_code":"0710200","prefecture":"HOKKAIDO","city":"KAMIKAWA GUN BIEI CHO","town":"IKANIKEISAIGANAIBAAI","perfecture_jp":"北海道","jp_add_1":"上川郡美瑛町","jp_add_2":""},"0710261":{"post_code":"0710261","prefecture":"HOKKAIDO","city":"KAMIKAWA GUN BIEI CHO","town":"ASAHI","perfecture_jp":"北海道","jp_add_1":"上川郡美瑛町","jp_add_2":"旭"},"0710212":{"post_code":"0710212","prefecture":"HOKKAIDO","city":"KAMIKAWA GUN BIEI CHO","town":"ASAHIMACHI","perfecture_jp":"北海道","jp_add_1":"上川郡美瑛町","jp_add_2":"旭町"},"0710251":{"post_code":"0710251","prefecture":"HOKKAIDO","city":"KAMIKAWA GUN BIEI CHO","town":"IKOIGAOKA","perfecture_jp":"北海道","jp_add_1":"上川郡美瑛町","jp_add_2":"憩が丘"},"0710249":{"post_code":"0710249","prefecture":"HOKKAIDO","city":"KAMIKAWA GUN BIEI CHO","town":"IKOICHO","perfecture_jp":"北海道","jp_add_1":"上川郡美瑛町","jp_add_2":"憩町"},"0710215":{"post_code":"0710215","prefecture":"HOKKAIDO","city":"KAMIKAWA GUN BIEI CHO","town":"OGIMACHI","perfecture_jp":"北海道","jp_add_1":"上川郡美瑛町","jp_add_2":"扇町"},"0710204":{"post_code":"0710204","prefecture":"HOKKAIDO","city":"KAMIKAWA GUN BIEI CHO","town":"OMACHI","perfecture_jp":"北海道","jp_add_1":"上川郡美瑛町","jp_add_2":"大町"},"0710217":{"post_code":"0710217","prefecture":"HOKKAIDO","city":"KAMIKAWA GUN BIEI CHO","town":"OMURA(ISHIYAMA)","perfecture_jp":"北海道","jp_add_1":"上川郡美瑛町","jp_add_2":"大村"},"0710216":{"post_code":"0710216","prefecture":"HOKKAIDO","city":"KAMIKAWA GUN BIEI CHO","town":"OMURA(OKUBO)","perfecture_jp":"北海道","jp_add_1":"上川郡美瑛町","jp_add_2":"大村"},"0710219":{"post_code":"0710219","prefecture":"HOKKAIDO","city":"KAMIKAWA GUN BIEI CHO","town":"OMURA(NAKAMOTO)","perfecture_jp":"北海道","jp_add_1":"上川郡美瑛町","jp_add_2":"大村"},"0710218":{"post_code":"0710218","prefecture":"HOKKAIDO","city":"KAMIKAWA GUN BIEI CHO","town":"OMURA(MURAYAMA)","perfecture_jp":"北海道","jp_add_1":"上川郡美瑛町","jp_add_2":"大村"},"0710234":{"post_code":"0710234","prefecture":"HOKKAIDO","city":"KAMIKAWA GUN BIEI CHO","town":"OKIKINEUSHI","perfecture_jp":"北海道","jp_add_1":"上川郡美瑛町","jp_add_2":"置杵牛"},"0710229":{"post_code":"0710229","prefecture":"HOKKAIDO","city":"KAMIKAWA GUN BIEI CHO","town":"KAMIUBAKUBETSU","perfecture_jp":"北海道","jp_add_1":"上川郡美瑛町","jp_add_2":"上宇莫別"},"0710206":{"post_code":"0710206","prefecture":"HOKKAIDO","city":"KAMIKAWA GUN BIEI CHO","town":"KITAMACHI","perfecture_jp":"北海道","jp_add_1":"上川郡美瑛町","jp_add_2":"北町"},"0710209":{"post_code":"0710209","prefecture":"HOKKAIDO","city":"KAMIKAWA GUN BIEI CHO","town":"KOTOBUKICHO","perfecture_jp":"北海道","jp_add_1":"上川郡美瑛町","jp_add_2":"寿町"},"0710223":{"post_code":"0710223","prefecture":"HOKKAIDO","city":"KAMIKAWA GUN BIEI CHO","town":"GORYO","perfecture_jp":"北海道","jp_add_1":"上川郡美瑛町","jp_add_2":"五稜"},"0710214":{"post_code":"0710214","prefecture":"HOKKAIDO","city":"KAMIKAWA GUN BIEI CHO","town":"SAIWAICHO","perfecture_jp":"北海道","jp_add_1":"上川郡美瑛町","jp_add_2":"幸町"},"0710205":{"post_code":"0710205","prefecture":"HOKKAIDO","city":"KAMIKAWA GUN BIEI CHO","town":"SAKAEMACHI","perfecture_jp":"北海道","jp_add_1":"上川郡美瑛町","jp_add_2":"栄町"},"0710247":{"post_code":"0710247","prefecture":"HOKKAIDO","city":"KAMIKAWA GUN BIEI CHO","town":"SANAI(OMAGARI)","perfecture_jp":"北海道","jp_add_1":"上川郡美瑛町","jp_add_2":"三愛"},"0710240":{"post_code":"0710240","prefecture":"HOKKAIDO","city":"KAMIKAWA GUN BIEI CHO","town":"SANAI(MIDORI)","perfecture_jp":"北海道","jp_add_1":"上川郡美瑛町","jp_add_2":"三愛"},"0710226":{"post_code":"0710226","prefecture":"HOKKAIDO","city":"KAMIKAWA GUN BIEI CHO","town":"SHIMOBAKUBETSU","perfecture_jp":"北海道","jp_add_1":"上川郡美瑛町","jp_add_2":"下宇莫別"},"0710235":{"post_code":"0710235","prefecture":"HOKKAIDO","city":"KAMIKAWA GUN BIEI CHO","town":"SHIROGANE","perfecture_jp":"北海道","jp_add_1":"上川郡美瑛町","jp_add_2":"白金"},"0710233":{"post_code":"0710233","prefecture":"HOKKAIDO","city":"KAMIKAWA GUN BIEI CHO","town":"SHINKUKAKU","perfecture_jp":"北海道","jp_add_1":"上川郡美瑛町","jp_add_2":"新区画"},"0710473":{"post_code":"0710473","prefecture":"HOKKAIDO","city":"KAMIKAWA GUN BIEI CHO","town":"SHINSEI","perfecture_jp":"北海道","jp_add_1":"上川郡美瑛町","jp_add_2":"新星"},"0710474":{"post_code":"0710474","prefecture":"HOKKAIDO","city":"KAMIKAWA GUN BIEI CHO","town":"TAKUSHIN","perfecture_jp":"北海道","jp_add_1":"上川郡美瑛町","jp_add_2":"拓進"},"0710353":{"post_code":"0710353","prefecture":"HOKKAIDO","city":"KAMIKAWA GUN BIEI CHO","town":"TAWARAMAPPU","perfecture_jp":"北海道","jp_add_1":"上川郡美瑛町","jp_add_2":"俵真布"},"0711474":{"post_code":"0711474","prefecture":"HOKKAIDO","city":"KAMIKAWA GUN BIEI CHO","town":"CHUBETSU","perfecture_jp":"北海道","jp_add_1":"上川郡美瑛町","jp_add_2":"忠別"},"0710355":{"post_code":"0710355","prefecture":"HOKKAIDO","city":"KAMIKAWA GUN BIEI CHO","town":"TENNINKYO","perfecture_jp":"北海道","jp_add_1":"上川郡美瑛町","jp_add_2":"天人峡"},"0710475":{"post_code":"0710475","prefecture":"HOKKAIDO","city":"KAMIKAWA GUN BIEI CHO","town":"TOKIWA","perfecture_jp":"北海道","jp_add_1":"上川郡美瑛町","jp_add_2":"常盤"},"0710228":{"post_code":"0710228","prefecture":"HOKKAIDO","city":"KAMIKAWA GUN BIEI CHO","town":"NAKAUBAKUBETSU","perfecture_jp":"北海道","jp_add_1":"上川郡美瑛町","jp_add_2":"中宇莫別"},"0710227":{"post_code":"0710227","prefecture":"HOKKAIDO","city":"KAMIKAWA GUN BIEI CHO","town":"NAKAUBAKUBETSU(AKABANE)","perfecture_jp":"北海道","jp_add_1":"上川郡美瑛町","jp_add_2":"中宇莫別"},"0710207":{"post_code":"0710207","prefecture":"HOKKAIDO","city":"KAMIKAWA GUN BIEI CHO","town":"NAKAMACHI","perfecture_jp":"北海道","jp_add_1":"上川郡美瑛町","jp_add_2":"中町"},"0710211":{"post_code":"0710211","prefecture":"HOKKAIDO","city":"KAMIKAWA GUN BIEI CHO","town":"NISHIKIMACHI","perfecture_jp":"北海道","jp_add_1":"上川郡美瑛町","jp_add_2":"錦町"},"0710203":{"post_code":"0710203","prefecture":"HOKKAIDO","city":"KAMIKAWA GUN BIEI CHO","town":"NISHIMACHI","perfecture_jp":"北海道","jp_add_1":"上川郡美瑛町","jp_add_2":"西町"},"0710248":{"post_code":"0710248","prefecture":"HOKKAIDO","city":"KAMIKAWA GUN BIEI CHO","town":"HANAZONO","perfecture_jp":"北海道","jp_add_1":"上川郡美瑛町","jp_add_2":"花園"},"0710239":{"post_code":"0710239","prefecture":"HOKKAIDO","city":"KAMIKAWA GUN BIEI CHO","town":"BIEIGENYA(GENYA)","perfecture_jp":"北海道","jp_add_1":"上川郡美瑛町","jp_add_2":"美瑛原野"},"0710213":{"post_code":"0710213","prefecture":"HOKKAIDO","city":"KAMIKAWA GUN BIEI CHO","town":"HIGASHIMACHI","perfecture_jp":"北海道","jp_add_1":"上川郡美瑛町","jp_add_2":"東町"},"0710471":{"post_code":"0710471","prefecture":"HOKKAIDO","city":"KAMIKAWA GUN BIEI CHO","town":"BIBAUSHI","perfecture_jp":"北海道","jp_add_1":"上川郡美瑛町","jp_add_2":"美馬牛"},"0710461":{"post_code":"0710461","prefecture":"HOKKAIDO","city":"KAMIKAWA GUN BIEI CHO","town":"BIBAUSHI KITA","perfecture_jp":"北海道","jp_add_1":"上川郡美瑛町","jp_add_2":"美馬牛北"},"0710472":{"post_code":"0710472","prefecture":"HOKKAIDO","city":"KAMIKAWA GUN BIEI CHO","town":"BIBAUSHI SHIGAICHI","perfecture_jp":"北海道","jp_add_1":"上川郡美瑛町","jp_add_2":"美馬牛市街地"},"0710462":{"post_code":"0710462","prefecture":"HOKKAIDO","city":"KAMIKAWA GUN BIEI CHO","town":"BIBAUSHI MINAMI","perfecture_jp":"北海道","jp_add_1":"上川郡美瑛町","jp_add_2":"美馬牛南"},"0710245":{"post_code":"0710245","prefecture":"HOKKAIDO","city":"KAMIKAWA GUN BIEI CHO","town":"FUKUTOMI(FUKUTOMIEISHIN)","perfecture_jp":"北海道","jp_add_1":"上川郡美瑛町","jp_add_2":"福富"},"0710246":{"post_code":"0710246","prefecture":"HOKKAIDO","city":"KAMIKAWA GUN BIEI CHO","town":"FUKUTOMI(FUKUTOMIIKOI)","perfecture_jp":"北海道","jp_add_1":"上川郡美瑛町","jp_add_2":"福富"},"0710244":{"post_code":"0710244","prefecture":"HOKKAIDO","city":"KAMIKAWA GUN BIEI CHO","town":"FUKUTOMI(FUKUMIZAWA)","perfecture_jp":"北海道","jp_add_1":"上川郡美瑛町","jp_add_2":"福富"},"0710237":{"post_code":"0710237","prefecture":"HOKKAIDO","city":"KAMIKAWA GUN BIEI CHO","town":"FUKUTOMI(HOEI)","perfecture_jp":"北海道","jp_add_1":"上川郡美瑛町","jp_add_2":"福富"},"0710243":{"post_code":"0710243","prefecture":"HOKKAIDO","city":"KAMIKAWA GUN BIEI CHO","town":"FUKUTOMI(MAMIYA)","perfecture_jp":"北海道","jp_add_1":"上川郡美瑛町","jp_add_2":"福富"},"0710238":{"post_code":"0710238","prefecture":"HOKKAIDO","city":"KAMIKAWA GUN BIEI CHO","town":"FUJINO","perfecture_jp":"北海道","jp_add_1":"上川郡美瑛町","jp_add_2":"藤野"},"0710477":{"post_code":"0710477","prefecture":"HOKKAIDO","city":"KAMIKAWA GUN BIEI CHO","town":"FUTAMATA","perfecture_jp":"北海道","jp_add_1":"上川郡美瑛町","jp_add_2":"二股"},"0710224":{"post_code":"0710224","prefecture":"HOKKAIDO","city":"KAMIKAWA GUN BIEI CHO","town":"HOKUEI","perfecture_jp":"北海道","jp_add_1":"上川郡美瑛町","jp_add_2":"北瑛"},"0710201":{"post_code":"0710201","prefecture":"HOKKAIDO","city":"KAMIKAWA GUN BIEI CHO","town":"MARUYAMA","perfecture_jp":"北海道","jp_add_1":"上川郡美瑛町","jp_add_2":"丸山"},"0710236":{"post_code":"0710236","prefecture":"HOKKAIDO","city":"KAMIKAWA GUN BIEI CHO","town":"MISAWA","perfecture_jp":"北海道","jp_add_1":"上川郡美瑛町","jp_add_2":"美沢"},"0710242":{"post_code":"0710242","prefecture":"HOKKAIDO","city":"KAMIKAWA GUN BIEI CHO","town":"MIZUSAWA","perfecture_jp":"北海道","jp_add_1":"上川郡美瑛町","jp_add_2":"水沢"},"0710241":{"post_code":"0710241","prefecture":"HOKKAIDO","city":"KAMIKAWA GUN BIEI CHO","town":"MIZUSAWA(MIZUKAMI)","perfecture_jp":"北海道","jp_add_1":"上川郡美瑛町","jp_add_2":"水沢"},"0710479":{"post_code":"0710479","prefecture":"HOKKAIDO","city":"KAMIKAWA GUN BIEI CHO","town":"MISONO","perfecture_jp":"北海道","jp_add_1":"上川郡美瑛町","jp_add_2":"美園"},"0710222":{"post_code":"0710222","prefecture":"HOKKAIDO","city":"KAMIKAWA GUN BIEI CHO","town":"MITA","perfecture_jp":"北海道","jp_add_1":"上川郡美瑛町","jp_add_2":"美田"},"0710221":{"post_code":"0710221","prefecture":"HOKKAIDO","city":"KAMIKAWA GUN BIEI CHO","town":"MITA(YUBARI)","perfecture_jp":"北海道","jp_add_1":"上川郡美瑛町","jp_add_2":"美田"},"0710202":{"post_code":"0710202","prefecture":"HOKKAIDO","city":"KAMIKAWA GUN BIEI CHO","town":"MINAMIMACHI","perfecture_jp":"北海道","jp_add_1":"上川郡美瑛町","jp_add_2":"南町"},"0710476":{"post_code":"0710476","prefecture":"HOKKAIDO","city":"KAMIKAWA GUN BIEI CHO","town":"MIMAKI","perfecture_jp":"北海道","jp_add_1":"上川郡美瑛町","jp_add_2":"御牧"},"0710231":{"post_code":"0710231","prefecture":"HOKKAIDO","city":"KAMIKAWA GUN BIEI CHO","town":"MEIJI","perfecture_jp":"北海道","jp_add_1":"上川郡美瑛町","jp_add_2":"明治"},"0710225":{"post_code":"0710225","prefecture":"HOKKAIDO","city":"KAMIKAWA GUN BIEI CHO","town":"MEIJI(DAISAN)","perfecture_jp":"北海道","jp_add_1":"上川郡美瑛町","jp_add_2":"明治"},"0710232":{"post_code":"0710232","prefecture":"HOKKAIDO","city":"KAMIKAWA GUN BIEI CHO","town":"MEIJI(NUMAZAKI)","perfecture_jp":"北海道","jp_add_1":"上川郡美瑛町","jp_add_2":"明治"},"0710208":{"post_code":"0710208","prefecture":"HOKKAIDO","city":"KAMIKAWA GUN BIEI CHO","town":"MOTOMACHI","perfecture_jp":"北海道","jp_add_1":"上川郡美瑛町","jp_add_2":"本町"},"0710351":{"post_code":"0710351","prefecture":"HOKKAIDO","city":"KAMIKAWA GUN BIEI CHO","town":"YOKOSHI","perfecture_jp":"北海道","jp_add_1":"上川郡美瑛町","jp_add_2":"横牛"},"0710478":{"post_code":"0710478","prefecture":"HOKKAIDO","city":"KAMIKAWA GUN BIEI CHO","town":"RUBESHIBE","perfecture_jp":"北海道","jp_add_1":"上川郡美瑛町","jp_add_2":"瑠辺蘂"},"0710352":{"post_code":"0710352","prefecture":"HOKKAIDO","city":"KAMIKAWA GUN BIEI CHO","town":"RONENAI","perfecture_jp":"北海道","jp_add_1":"上川郡美瑛町","jp_add_2":"朗根内"},"0710500":{"post_code":"0710500","prefecture":"HOKKAIDO","city":"SORACHI GUN KAMIFURANO CHO","town":"IKANIKEISAIGANAIBAAI","perfecture_jp":"北海道","jp_add_1":"空知郡上富良野町","jp_add_2":""},"0710553":{"post_code":"0710553","prefecture":"HOKKAIDO","city":"SORACHI GUN KAMIFURANO CHO","town":"ASAHIMACHI","perfecture_jp":"北海道","jp_add_1":"空知郡上富良野町","jp_add_2":"旭町"},"0710571":{"post_code":"0710571","prefecture":"HOKKAIDO","city":"SORACHI GUN KAMIFURANO CHO","town":"ARAIBOKUJO","perfecture_jp":"北海道","jp_add_1":"空知郡上富良野町","jp_add_2":"新井牧場"},"0710547":{"post_code":"0710547","prefecture":"HOKKAIDO","city":"SORACHI GUN KAMIFURANO CHO","town":"IZUMIMACHI","perfecture_jp":"北海道","jp_add_1":"空知郡上富良野町","jp_add_2":"泉町"},"0710548":{"post_code":"0710548","prefecture":"HOKKAIDO","city":"SORACHI GUN KAMIFURANO CHO","town":"OGIMACHI","perfecture_jp":"北海道","jp_add_1":"空知郡上富良野町","jp_add_2":"扇町"},"0710561":{"post_code":"0710561","prefecture":"HOKKAIDO","city":"SORACHI GUN KAMIFURANO CHO","town":"OMACHI","perfecture_jp":"北海道","jp_add_1":"空知郡上富良野町","jp_add_2":"大町"},"0710565":{"post_code":"0710565","prefecture":"HOKKAIDO","city":"SORACHI GUN KAMIFURANO CHO","town":"OKAMACHI","perfecture_jp":"北海道","jp_add_1":"空知郡上富良野町","jp_add_2":"丘町"},"0710520":{"post_code":"0710520","prefecture":"HOKKAIDO","city":"SORACHI GUN KAMIFURANO CHO","town":"KISENKITA","perfecture_jp":"北海道","jp_add_1":"空知郡上富良野町","jp_add_2":"基線北"},"0710549":{"post_code":"0710549","prefecture":"HOKKAIDO","city":"SORACHI GUN KAMIFURANO CHO","town":"KITAMACHI","perfecture_jp":"北海道","jp_add_1":"空知郡上富良野町","jp_add_2":"北町"},"0710544":{"post_code":"0710544","prefecture":"HOKKAIDO","city":"SORACHI GUN KAMIFURANO CHO","town":"SAKAEMACHI","perfecture_jp":"北海道","jp_add_1":"空知郡上富良野町","jp_add_2":"栄町"},"0710564":{"post_code":"0710564","prefecture":"HOKKAIDO","city":"SORACHI GUN KAMIFURANO CHO","town":"SAKURAMACHI","perfecture_jp":"北海道","jp_add_1":"空知郡上富良野町","jp_add_2":"桜町"},"0710576":{"post_code":"0710576","prefecture":"HOKKAIDO","city":"SORACHI GUN KAMIFURANO CHO","town":"JUNIMBOKUJO","perfecture_jp":"北海道","jp_add_1":"空知郡上富良野町","jp_add_2":"十人牧場"},"0710554":{"post_code":"0710554","prefecture":"HOKKAIDO","city":"SORACHI GUN KAMIFURANO CHO","town":"SHIMMACHI","perfecture_jp":"北海道","jp_add_1":"空知郡上富良野町","jp_add_2":"新町"},"0710574":{"post_code":"0710574","prefecture":"HOKKAIDO","city":"SORACHI GUN KAMIFURANO CHO","town":"DAI1-YASUIBOKUJO","perfecture_jp":"北海道","jp_add_1":"空知郡上富良野町","jp_add_2":"第１安井牧場"},"0710575":{"post_code":"0710575","prefecture":"HOKKAIDO","city":"SORACHI GUN KAMIFURANO CHO","town":"DAI2-YASUIBOKUJO","perfecture_jp":"北海道","jp_add_1":"空知郡上富良野町","jp_add_2":"第２安井牧場"},"0710583":{"post_code":"0710583","prefecture":"HOKKAIDO","city":"SORACHI GUN KAMIFURANO CHO","town":"TSUGONOJO","perfecture_jp":"北海道","jp_add_1":"空知郡上富良野町","jp_add_2":"津郷農場"},"0710541":{"post_code":"0710541","prefecture":"HOKKAIDO","city":"SORACHI GUN KAMIFURANO CHO","town":"TOMIMACHI","perfecture_jp":"北海道","jp_add_1":"空知郡上富良野町","jp_add_2":"富町"},"0710577":{"post_code":"0710577","prefecture":"HOKKAIDO","city":"SORACHI GUN KAMIFURANO CHO","town":"NAKANOSAWA","perfecture_jp":"北海道","jp_add_1":"空知郡上富良野町","jp_add_2":"中の沢"},"0710543":{"post_code":"0710543","prefecture":"HOKKAIDO","city":"SORACHI GUN KAMIFURANO CHO","town":"NAKAMACHI","perfecture_jp":"北海道","jp_add_1":"空知郡上富良野町","jp_add_2":"中町"},"0710542":{"post_code":"0710542","prefecture":"HOKKAIDO","city":"SORACHI GUN KAMIFURANO CHO","town":"NISHIKIMACHI","perfecture_jp":"北海道","jp_add_1":"空知郡上富良野町","jp_add_2":"錦町"},"0710534":{"post_code":"0710534","prefecture":"HOKKAIDO","city":"SORACHI GUN KAMIFURANO CHO","town":"NISHITANIBOKUJO","perfecture_jp":"北海道","jp_add_1":"空知郡上富良野町","jp_add_2":"西谷牧場"},"0710546":{"post_code":"0710546","prefecture":"HOKKAIDO","city":"SORACHI GUN KAMIFURANO CHO","town":"NISHIMACHI","perfecture_jp":"北海道","jp_add_1":"空知郡上富良野町","jp_add_2":"西町"},"0710501":{"post_code":"0710501","prefecture":"HOKKAIDO","city":"SORACHI GUN KAMIFURANO CHO","town":"NISHI1-SENKITA","perfecture_jp":"北海道","jp_add_1":"空知郡上富良野町","jp_add_2":"西１線北"},"0710502":{"post_code":"0710502","prefecture":"HOKKAIDO","city":"SORACHI GUN KAMIFURANO CHO","town":"NISHI2-SENKITA","perfecture_jp":"北海道","jp_add_1":"空知郡上富良野町","jp_add_2":"西２線北"},"0710503":{"post_code":"0710503","prefecture":"HOKKAIDO","city":"SORACHI GUN KAMIFURANO CHO","town":"NISHI3-SENKITA","perfecture_jp":"北海道","jp_add_1":"空知郡上富良野町","jp_add_2":"西３線北"},"0710504":{"post_code":"0710504","prefecture":"HOKKAIDO","city":"SORACHI GUN KAMIFURANO CHO","town":"NISHI4-SENKITA","perfecture_jp":"北海道","jp_add_1":"空知郡上富良野町","jp_add_2":"西４線北"},"0710505":{"post_code":"0710505","prefecture":"HOKKAIDO","city":"SORACHI GUN KAMIFURANO CHO","town":"NISHI5-SENKITA","perfecture_jp":"北海道","jp_add_1":"空知郡上富良野町","jp_add_2":"西５線北"},"0710506":{"post_code":"0710506","prefecture":"HOKKAIDO","city":"SORACHI GUN KAMIFURANO CHO","town":"NISHI6-SENKITA","perfecture_jp":"北海道","jp_add_1":"空知郡上富良野町","jp_add_2":"西６線北"},"0710507":{"post_code":"0710507","prefecture":"HOKKAIDO","city":"SORACHI GUN KAMIFURANO CHO","town":"NISHI7-SENKITA","perfecture_jp":"北海道","jp_add_1":"空知郡上富良野町","jp_add_2":"西７線北"},"0710508":{"post_code":"0710508","prefecture":"HOKKAIDO","city":"SORACHI GUN KAMIFURANO CHO","town":"NISHI8-SENKITA","perfecture_jp":"北海道","jp_add_1":"空知郡上富良野町","jp_add_2":"西８線北"},"0710509":{"post_code":"0710509","prefecture":"HOKKAIDO","city":"SORACHI GUN KAMIFURANO CHO","town":"NISHI9-SENKITA","perfecture_jp":"北海道","jp_add_1":"空知郡上富良野町","jp_add_2":"西９線北"},"0710510":{"post_code":"0710510","prefecture":"HOKKAIDO","city":"SORACHI GUN KAMIFURANO CHO","town":"NISHI10-SENKITA","perfecture_jp":"北海道","jp_add_1":"空知郡上富良野町","jp_add_2":"西１０線北"},"0710511":{"post_code":"0710511","prefecture":"HOKKAIDO","city":"SORACHI GUN KAMIFURANO CHO","town":"NISHI11-SENKITA","perfecture_jp":"北海道","jp_add_1":"空知郡上富良野町","jp_add_2":"西１１線北"},"0710512":{"post_code":"0710512","prefecture":"HOKKAIDO","city":"SORACHI GUN KAMIFURANO CHO","town":"NISHI12-SENKITA","perfecture_jp":"北海道","jp_add_1":"空知郡上富良野町","jp_add_2":"西１２線北"},"0710513":{"post_code":"0710513","prefecture":"HOKKAIDO","city":"SORACHI GUN KAMIFURANO CHO","town":"NISHI13-SENKITA","perfecture_jp":"北海道","jp_add_1":"空知郡上富良野町","jp_add_2":"西１３線北"},"0710514":{"post_code":"0710514","prefecture":"HOKKAIDO","city":"SORACHI GUN KAMIFURANO CHO","town":"NISHI14-SENKITA","perfecture_jp":"北海道","jp_add_1":"空知郡上富良野町","jp_add_2":"西１４線北"},"0710515":{"post_code":"0710515","prefecture":"HOKKAIDO","city":"SORACHI GUN KAMIFURANO CHO","town":"NISHI15-SENKITA","perfecture_jp":"北海道","jp_add_1":"空知郡上富良野町","jp_add_2":"西１５線北"},"0710516":{"post_code":"0710516","prefecture":"HOKKAIDO","city":"SORACHI GUN KAMIFURANO CHO","town":"NISHI16-SENKITA","perfecture_jp":"北海道","jp_add_1":"空知郡上富良野町","jp_add_2":"西１６線北"},"0710517":{"post_code":"0710517","prefecture":"HOKKAIDO","city":"SORACHI GUN KAMIFURANO CHO","town":"NUMAZAKINOJO","perfecture_jp":"北海道","jp_add_1":"空知郡上富良野町","jp_add_2":"沼崎農場"},"0710533":{"post_code":"0710533","prefecture":"HOKKAIDO","city":"SORACHI GUN KAMIFURANO CHO","town":"BAIHONNOJO","perfecture_jp":"北海道","jp_add_1":"空知郡上富良野町","jp_add_2":"倍本農場"},"0710545":{"post_code":"0710545","prefecture":"HOKKAIDO","city":"SORACHI GUN KAMIFURANO CHO","town":"HIKARIMACHI","perfecture_jp":"北海道","jp_add_1":"空知郡上富良野町","jp_add_2":"光町"},"0710555":{"post_code":"0710555","prefecture":"HOKKAIDO","city":"SORACHI GUN KAMIFURANO CHO","town":"HIGASHIMACHI","perfecture_jp":"北海道","jp_add_1":"空知郡上富良野町","jp_add_2":"東町"},"0710521":{"post_code":"0710521","prefecture":"HOKKAIDO","city":"SORACHI GUN KAMIFURANO CHO","town":"HIGASHI1-SENKITA","perfecture_jp":"北海道","jp_add_1":"空知郡上富良野町","jp_add_2":"東１線北"},"0710522":{"post_code":"0710522","prefecture":"HOKKAIDO","city":"SORACHI GUN KAMIFURANO CHO","town":"HIGASHI2-SENKITA","perfecture_jp":"北海道","jp_add_1":"空知郡上富良野町","jp_add_2":"東２線北"},"0710523":{"post_code":"0710523","prefecture":"HOKKAIDO","city":"SORACHI GUN KAMIFURANO CHO","town":"HIGASHI3-SENKITA","perfecture_jp":"北海道","jp_add_1":"空知郡上富良野町","jp_add_2":"東３線北"},"0710524":{"post_code":"0710524","prefecture":"HOKKAIDO","city":"SORACHI GUN KAMIFURANO CHO","town":"HIGASHI4-SENKITA","perfecture_jp":"北海道","jp_add_1":"空知郡上富良野町","jp_add_2":"東４線北"},"0710525":{"post_code":"0710525","prefecture":"HOKKAIDO","city":"SORACHI GUN KAMIFURANO CHO","town":"HIGASHI5-SENKITA","perfecture_jp":"北海道","jp_add_1":"空知郡上富良野町","jp_add_2":"東５線北"},"0710526":{"post_code":"0710526","prefecture":"HOKKAIDO","city":"SORACHI GUN KAMIFURANO CHO","town":"HIGASHI6-SENKITA","perfecture_jp":"北海道","jp_add_1":"空知郡上富良野町","jp_add_2":"東６線北"},"0710527":{"post_code":"0710527","prefecture":"HOKKAIDO","city":"SORACHI GUN KAMIFURANO CHO","town":"HIGASHI7-SENKITA","perfecture_jp":"北海道","jp_add_1":"空知郡上富良野町","jp_add_2":"東７線北"},"0710528":{"post_code":"0710528","prefecture":"HOKKAIDO","city":"SORACHI GUN KAMIFURANO CHO","town":"HIGASHI8-SENKITA","perfecture_jp":"北海道","jp_add_1":"空知郡上富良野町","jp_add_2":"東８線北"},"0710529":{"post_code":"0710529","prefecture":"HOKKAIDO","city":"SORACHI GUN KAMIFURANO CHO","town":"HIGASHI9-SENKITA","perfecture_jp":"北海道","jp_add_1":"空知郡上富良野町","jp_add_2":"東９線北"},"0710530":{"post_code":"0710530","prefecture":"HOKKAIDO","city":"SORACHI GUN KAMIFURANO CHO","town":"HIGASHI10-SENKITA","perfecture_jp":"北海道","jp_add_1":"空知郡上富良野町","jp_add_2":"東１０線北"},"0710531":{"post_code":"0710531","prefecture":"HOKKAIDO","city":"SORACHI GUN KAMIFURANO CHO","town":"HIGASHI11-SENKITA","perfecture_jp":"北海道","jp_add_1":"空知郡上富良野町","jp_add_2":"東１１線北"},"0710532":{"post_code":"0710532","prefecture":"HOKKAIDO","city":"SORACHI GUN KAMIFURANO CHO","town":"HIGASHI12-SENKITA","perfecture_jp":"北海道","jp_add_1":"空知郡上富良野町","jp_add_2":"東１２線北"},"0710579":{"post_code":"0710579","prefecture":"HOKKAIDO","city":"SORACHI GUN KAMIFURANO CHO","town":"FUKIAGE","perfecture_jp":"北海道","jp_add_1":"空知郡上富良野町","jp_add_2":"吹上"},"0710572":{"post_code":"0710572","prefecture":"HOKKAIDO","city":"SORACHI GUN KAMIFURANO CHO","town":"HOSONONOJO","perfecture_jp":"北海道","jp_add_1":"空知郡上富良野町","jp_add_2":"細野農場"},"0710573":{"post_code":"0710573","prefecture":"HOKKAIDO","city":"SORACHI GUN KAMIFURANO CHO","town":"MATSUIBOKUJO","perfecture_jp":"北海道","jp_add_1":"空知郡上富良野町","jp_add_2":"松井牧場"},"0710563":{"post_code":"0710563","prefecture":"HOKKAIDO","city":"SORACHI GUN KAMIFURANO CHO","town":"MIDORIMACHI","perfecture_jp":"北海道","jp_add_1":"空知郡上富良野町","jp_add_2":"緑町"},"0710562":{"post_code":"0710562","prefecture":"HOKKAIDO","city":"SORACHI GUN KAMIFURANO CHO","town":"MINAMIMACHI","perfecture_jp":"北海道","jp_add_1":"空知郡上富良野町","jp_add_2":"南町"},"0710552":{"post_code":"0710552","prefecture":"HOKKAIDO","city":"SORACHI GUN KAMIFURANO CHO","town":"MIYAMACHI","perfecture_jp":"北海道","jp_add_1":"空知郡上富良野町","jp_add_2":"宮町"},"0710566":{"post_code":"0710566","prefecture":"HOKKAIDO","city":"SORACHI GUN KAMIFURANO CHO","town":"MUKAIMACHI","perfecture_jp":"北海道","jp_add_1":"空知郡上富良野町","jp_add_2":"向町"},"0710551":{"post_code":"0710551","prefecture":"HOKKAIDO","city":"SORACHI GUN KAMIFURANO CHO","town":"MOTOMACHI","perfecture_jp":"北海道","jp_add_1":"空知郡上富良野町","jp_add_2":"本町"},"0710578":{"post_code":"0710578","prefecture":"HOKKAIDO","city":"SORACHI GUN KAMIFURANO CHO","town":"YAMAKANOJO","perfecture_jp":"北海道","jp_add_1":"空知郡上富良野町","jp_add_2":"山加農場"},"0710700":{"post_code":"0710700","prefecture":"HOKKAIDO","city":"SORACHI GUN NAKAFURANO CHO","town":"IKANIKEISAIGANAIBAAI","perfecture_jp":"北海道","jp_add_1":"空知郡中富良野町","jp_add_2":""},"0710770":{"post_code":"0710770","prefecture":"HOKKAIDO","city":"SORACHI GUN NAKAFURANO CHO","town":"AKATSUKIMACHI","perfecture_jp":"北海道","jp_add_1":"空知郡中富良野町","jp_add_2":"暁町"},"0710755":{"post_code":"0710755","prefecture":"HOKKAIDO","city":"SORACHI GUN NAKAFURANO CHO","town":"ASAHIMACHI","perfecture_jp":"北海道","jp_add_1":"空知郡中富良野町","jp_add_2":"旭町"},"0710733":{"post_code":"0710733","prefecture":"HOKKAIDO","city":"SORACHI GUN NAKAFURANO CHO","town":"ITONOJO(SHIBUKEUSHI)","perfecture_jp":"北海道","jp_add_1":"空知郡中富良野町","jp_add_2":"伊藤農場"},"0710762":{"post_code":"0710762","prefecture":"HOKKAIDO","city":"SORACHI GUN NAKAFURANO CHO","town":"OKAMACHI","perfecture_jp":"北海道","jp_add_1":"空知郡中富良野町","jp_add_2":"丘町"},"0710704":{"post_code":"0710704","prefecture":"HOKKAIDO","city":"SORACHI GUN NAKAFURANO CHO","town":"KISENKITA","perfecture_jp":"北海道","jp_add_1":"空知郡中富良野町","jp_add_2":"基線北"},"0710751":{"post_code":"0710751","prefecture":"HOKKAIDO","city":"SORACHI GUN NAKAFURANO CHO","town":"KITAMACHI","perfecture_jp":"北海道","jp_add_1":"空知郡中富良野町","jp_add_2":"北町"},"0710734":{"post_code":"0710734","prefecture":"HOKKAIDO","city":"SORACHI GUN NAKAFURANO CHO","town":"SHIKAUCHINOJO(SHIKAUCHI)","perfecture_jp":"北海道","jp_add_1":"空知郡中富良野町","jp_add_2":"鹿討農場"},"0710731":{"post_code":"0710731","prefecture":"HOKKAIDO","city":"SORACHI GUN NAKAFURANO CHO","town":"SHINTANAKANOJO","perfecture_jp":"北海道","jp_add_1":"空知郡中富良野町","jp_add_2":"新田中農場"},"0710754":{"post_code":"0710754","prefecture":"HOKKAIDO","city":"SORACHI GUN NAKAFURANO CHO","town":"SHIMMACHI","perfecture_jp":"北海道","jp_add_1":"空知郡中富良野町","jp_add_2":"新町"},"0710732":{"post_code":"0710732","prefecture":"HOKKAIDO","city":"SORACHI GUN NAKAFURANO CHO","town":"TANAKANOJO(REIKA.YAMANINOJO.YAMANIB","perfecture_jp":"北海道","jp_add_1":"空知郡中富良野町","jp_add_2":"田中農場"},"0710737":{"post_code":"0710737","prefecture":"HOKKAIDO","city":"SORACHI GUN NAKAFURANO CHO","town":"NAE","perfecture_jp":"北海道","jp_add_1":"空知郡中富良野町","jp_add_2":"奈江"},"0710705":{"post_code":"0710705","prefecture":"HOKKAIDO","city":"SORACHI GUN NAKAFURANO CHO","town":"NISHI1-SENKITA","perfecture_jp":"北海道","jp_add_1":"空知郡中富良野町","jp_add_2":"西１線北"},"0710706":{"post_code":"0710706","prefecture":"HOKKAIDO","city":"SORACHI GUN NAKAFURANO CHO","town":"NISHI2-SENKITA","perfecture_jp":"北海道","jp_add_1":"空知郡中富良野町","jp_add_2":"西２線北"},"0710707":{"post_code":"0710707","prefecture":"HOKKAIDO","city":"SORACHI GUN NAKAFURANO CHO","town":"NISHI3-SENKITA","perfecture_jp":"北海道","jp_add_1":"空知郡中富良野町","jp_add_2":"西３線北"},"0710761":{"post_code":"0710761","prefecture":"HOKKAIDO","city":"SORACHI GUN NAKAFURANO CHO","town":"NISHIMACHI","perfecture_jp":"北海道","jp_add_1":"空知郡中富良野町","jp_add_2":"西町"},"0710735":{"post_code":"0710735","prefecture":"HOKKAIDO","city":"SORACHI GUN NAKAFURANO CHO","town":"NISSHIN","perfecture_jp":"北海道","jp_add_1":"空知郡中富良野町","jp_add_2":"日進"},"0710771":{"post_code":"0710771","prefecture":"HOKKAIDO","city":"SORACHI GUN NAKAFURANO CHO","town":"HIGASHI1-SENKITA","perfecture_jp":"北海道","jp_add_1":"空知郡中富良野町","jp_add_2":"東１線北"},"0710772":{"post_code":"0710772","prefecture":"HOKKAIDO","city":"SORACHI GUN NAKAFURANO CHO","town":"HIGASHI2-SENKITA","perfecture_jp":"北海道","jp_add_1":"空知郡中富良野町","jp_add_2":"東２線北"},"0710773":{"post_code":"0710773","prefecture":"HOKKAIDO","city":"SORACHI GUN NAKAFURANO CHO","town":"HIGASHI3-SENKITA","perfecture_jp":"北海道","jp_add_1":"空知郡中富良野町","jp_add_2":"東３線北"},"0710774":{"post_code":"0710774","prefecture":"HOKKAIDO","city":"SORACHI GUN NAKAFURANO CHO","town":"HIGASHI4-SENKITA","perfecture_jp":"北海道","jp_add_1":"空知郡中富良野町","jp_add_2":"東４線北"},"0710775":{"post_code":"0710775","prefecture":"HOKKAIDO","city":"SORACHI GUN NAKAFURANO CHO","town":"HIGASHI5-SENKITA","perfecture_jp":"北海道","jp_add_1":"空知郡中富良野町","jp_add_2":"東５線北"},"0710776":{"post_code":"0710776","prefecture":"HOKKAIDO","city":"SORACHI GUN NAKAFURANO CHO","town":"HIGASHI6-SENKITA","perfecture_jp":"北海道","jp_add_1":"空知郡中富良野町","jp_add_2":"東６線北"},"0710777":{"post_code":"0710777","prefecture":"HOKKAIDO","city":"SORACHI GUN NAKAFURANO CHO","town":"HIGASHI7-SENKITA","perfecture_jp":"北海道","jp_add_1":"空知郡中富良野町","jp_add_2":"東７線北"},"0710778":{"post_code":"0710778","prefecture":"HOKKAIDO","city":"SORACHI GUN NAKAFURANO CHO","town":"HIGASHI8-SENKITA","perfecture_jp":"北海道","jp_add_1":"空知郡中富良野町","jp_add_2":"東８線北"},"0710779":{"post_code":"0710779","prefecture":"HOKKAIDO","city":"SORACHI GUN NAKAFURANO CHO","town":"HIGASHI9-SENKITA","perfecture_jp":"北海道","jp_add_1":"空知郡中富良野町","jp_add_2":"東９線北"},"0710780":{"post_code":"0710780","prefecture":"HOKKAIDO","city":"SORACHI GUN NAKAFURANO CHO","town":"HIGASHI10-SENKITA","perfecture_jp":"北海道","jp_add_1":"空知郡中富良野町","jp_add_2":"東１０線北"},"0710781":{"post_code":"0710781","prefecture":"HOKKAIDO","city":"SORACHI GUN NAKAFURANO CHO","town":"HIGASHI11-SENKITA","perfecture_jp":"北海道","jp_add_1":"空知郡中富良野町","jp_add_2":"東１１線北"},"0710726":{"post_code":"0710726","prefecture":"HOKKAIDO","city":"SORACHI GUN NAKAFURANO CHO","town":"HIGASHIMACHI","perfecture_jp":"北海道","jp_add_1":"空知郡中富良野町","jp_add_2":"東町"},"0710742":{"post_code":"0710742","prefecture":"HOKKAIDO","city":"SORACHI GUN NAKAFURANO CHO","town":"FUKUHARANOJO(FUKUHARA)","perfecture_jp":"北海道","jp_add_1":"空知郡中富良野町","jp_add_2":"福原農場"},"0710711":{"post_code":"0710711","prefecture":"HOKKAIDO","city":"SORACHI GUN NAKAFURANO CHO","town":"BEBERUI(HONKO.KITA13-GOSAWA)","perfecture_jp":"北海道","jp_add_1":"空知郡中富良野町","jp_add_2":"ベベルイ"},"0710753":{"post_code":"0710753","prefecture":"HOKKAIDO","city":"SORACHI GUN NAKAFURANO CHO","town":"MINAMIMACHI","perfecture_jp":"北海道","jp_add_1":"空知郡中富良野町","jp_add_2":"南町"},"0710714":{"post_code":"0710714","prefecture":"HOKKAIDO","city":"SORACHI GUN NAKAFURANO CHO","town":"MIYAMACHI","perfecture_jp":"北海道","jp_add_1":"空知郡中富良野町","jp_add_2":"宮町"},"0710752":{"post_code":"0710752","prefecture":"HOKKAIDO","city":"SORACHI GUN NAKAFURANO CHO","town":"MOTOMACHI","perfecture_jp":"北海道","jp_add_1":"空知郡中富良野町","jp_add_2":"本町"},"0710736":{"post_code":"0710736","prefecture":"HOKKAIDO","city":"SORACHI GUN NAKAFURANO CHO","town":"YOSHIINOJO(YOSHII)","perfecture_jp":"北海道","jp_add_1":"空知郡中富良野町","jp_add_2":"吉井農場"}}