{"0730000":{"post_code":"0730000","prefecture":"HOKKAIDO","city":"TAKIKAWA SHI","town":"IKANIKEISAIGANAIBAAI","perfecture_jp":"北海道","jp_add_1":"滝川市","jp_add_2":""},"0730015":{"post_code":"0730015","prefecture":"HOKKAIDO","city":"TAKIKAWA SHI","town":"ASAHIMACHIHIGASHI","perfecture_jp":"北海道","jp_add_1":"滝川市","jp_add_2":"朝日町東"},"0730018":{"post_code":"0730018","prefecture":"HOKKAIDO","city":"TAKIKAWA SHI","town":"ASAHIMACHINISHI","perfecture_jp":"北海道","jp_add_1":"滝川市","jp_add_2":"朝日町西"},"0730045":{"post_code":"0730045","prefecture":"HOKKAIDO","city":"TAKIKAWA SHI","town":"ARIAKECHO","perfecture_jp":"北海道","jp_add_1":"滝川市","jp_add_2":"有明町"},"0730042":{"post_code":"0730042","prefecture":"HOKKAIDO","city":"TAKIKAWA SHI","town":"IZUMIMACHI","perfecture_jp":"北海道","jp_add_1":"滝川市","jp_add_2":"泉町"},"0730016":{"post_code":"0730016","prefecture":"HOKKAIDO","city":"TAKIKAWA SHI","town":"ICHINOSAKACHO HIGASHI","perfecture_jp":"北海道","jp_add_1":"滝川市","jp_add_2":"一の坂町東"},"0730017":{"post_code":"0730017","prefecture":"HOKKAIDO","city":"TAKIKAWA SHI","town":"ICHINOSAKACHO NISHI","perfecture_jp":"北海道","jp_add_1":"滝川市","jp_add_2":"一の坂町西"},"0730046":{"post_code":"0730046","prefecture":"HOKKAIDO","city":"TAKIKAWA SHI","town":"OGIMACHI","perfecture_jp":"北海道","jp_add_1":"滝川市","jp_add_2":"扇町"},"0730022":{"post_code":"0730022","prefecture":"HOKKAIDO","city":"TAKIKAWA SHI","town":"OMACHI","perfecture_jp":"北海道","jp_add_1":"滝川市","jp_add_2":"大町"},"0730036":{"post_code":"0730036","prefecture":"HOKKAIDO","city":"TAKIKAWA SHI","town":"KAGETSUCHO","perfecture_jp":"北海道","jp_add_1":"滝川市","jp_add_2":"花月町"},"0730001":{"post_code":"0730001","prefecture":"HOKKAIDO","city":"TAKIKAWA SHI","town":"KITATAKINOKAWA","perfecture_jp":"北海道","jp_add_1":"滝川市","jp_add_2":"北滝の川"},"0730012":{"post_code":"0730012","prefecture":"HOKKAIDO","city":"TAKIKAWA SHI","town":"KOGANEMACHI HIGASHI","perfecture_jp":"北海道","jp_add_1":"滝川市","jp_add_2":"黄金町東"},"0730011":{"post_code":"0730011","prefecture":"HOKKAIDO","city":"TAKIKAWA SHI","town":"KOGANEMACHI NISHI","perfecture_jp":"北海道","jp_add_1":"滝川市","jp_add_2":"黄金町西"},"0730043":{"post_code":"0730043","prefecture":"HOKKAIDO","city":"TAKIKAWA SHI","town":"SAIWAICHO","perfecture_jp":"北海道","jp_add_1":"滝川市","jp_add_2":"幸町"},"0730031":{"post_code":"0730031","prefecture":"HOKKAIDO","city":"TAKIKAWA SHI","town":"SAKAEMACHI","perfecture_jp":"北海道","jp_add_1":"滝川市","jp_add_2":"栄町"},"0730033":{"post_code":"0730033","prefecture":"HOKKAIDO","city":"TAKIKAWA SHI","town":"SHIMMACHI","perfecture_jp":"北海道","jp_add_1":"滝川市","jp_add_2":"新町"},"0730034":{"post_code":"0730034","prefecture":"HOKKAIDO","city":"TAKIKAWA SHI","town":"SORACHICHO","perfecture_jp":"北海道","jp_add_1":"滝川市","jp_add_2":"空知町"},"0730004":{"post_code":"0730004","prefecture":"HOKKAIDO","city":"TAKIKAWA SHI","town":"TAKINOKAWACHO HIGASHI","perfecture_jp":"北海道","jp_add_1":"滝川市","jp_add_2":"滝の川町東"},"0730003":{"post_code":"0730003","prefecture":"HOKKAIDO","city":"TAKIKAWA SHI","town":"TAKINOKAWACHO NISHI","perfecture_jp":"北海道","jp_add_1":"滝川市","jp_add_2":"滝の川町西"},"0730002":{"post_code":"0730002","prefecture":"HOKKAIDO","city":"TAKIKAWA SHI","town":"TONDENCHO NISHI","perfecture_jp":"北海道","jp_add_1":"滝川市","jp_add_2":"屯田町西"},"0730035":{"post_code":"0730035","prefecture":"HOKKAIDO","city":"TAKIKAWA SHI","town":"NAKAJIMACHO","perfecture_jp":"北海道","jp_add_1":"滝川市","jp_add_2":"中島町"},"0730041":{"post_code":"0730041","prefecture":"HOKKAIDO","city":"TAKIKAWA SHI","town":"NISHITAKIKAWA","perfecture_jp":"北海道","jp_add_1":"滝川市","jp_add_2":"西滝川"},"0730044":{"post_code":"0730044","prefecture":"HOKKAIDO","city":"TAKIKAWA SHI","town":"NISHIMACHI","perfecture_jp":"北海道","jp_add_1":"滝川市","jp_add_2":"西町"},"0730005":{"post_code":"0730005","prefecture":"HOKKAIDO","city":"TAKIKAWA SHI","town":"NINOSAKACHO HIGASHI","perfecture_jp":"北海道","jp_add_1":"滝川市","jp_add_2":"二の坂町東"},"0730006":{"post_code":"0730006","prefecture":"HOKKAIDO","city":"TAKIKAWA SHI","town":"NINOSAKACHO NISHI","perfecture_jp":"北海道","jp_add_1":"滝川市","jp_add_2":"二の坂町西"},"0730026":{"post_code":"0730026","prefecture":"HOKKAIDO","city":"TAKIKAWA SHI","town":"HIGASHITAKIKAWA","perfecture_jp":"北海道","jp_add_1":"滝川市","jp_add_2":"東滝川"},"0730027":{"post_code":"0730027","prefecture":"HOKKAIDO","city":"TAKIKAWA SHI","town":"HIGASHITAKIKAWACHO","perfecture_jp":"北海道","jp_add_1":"滝川市","jp_add_2":"東滝川町"},"0730024":{"post_code":"0730024","prefecture":"HOKKAIDO","city":"TAKIKAWA SHI","town":"HIGASHIMACHI","perfecture_jp":"北海道","jp_add_1":"滝川市","jp_add_2":"東町"},"0730014":{"post_code":"0730014","prefecture":"HOKKAIDO","city":"TAKIKAWA SHI","town":"BUNKYOCHO","perfecture_jp":"北海道","jp_add_1":"滝川市","jp_add_2":"文京町"},"0730021":{"post_code":"0730021","prefecture":"HOKKAIDO","city":"TAKIKAWA SHI","town":"HOMMACHI","perfecture_jp":"北海道","jp_add_1":"滝川市","jp_add_2":"本町"},"0730023":{"post_code":"0730023","prefecture":"HOKKAIDO","city":"TAKIKAWA SHI","town":"MIDORIMACHI","perfecture_jp":"北海道","jp_add_1":"滝川市","jp_add_2":"緑町"},"0730013":{"post_code":"0730013","prefecture":"HOKKAIDO","city":"TAKIKAWA SHI","town":"MINAMITAKINOKAWA","perfecture_jp":"北海道","jp_add_1":"滝川市","jp_add_2":"南滝の川"},"0730032":{"post_code":"0730032","prefecture":"HOKKAIDO","city":"TAKIKAWA SHI","town":"MYOJINCHO","perfecture_jp":"北海道","jp_add_1":"滝川市","jp_add_2":"明神町"},"0730025":{"post_code":"0730025","prefecture":"HOKKAIDO","city":"TAKIKAWA SHI","town":"RYUTSUDANCHI","perfecture_jp":"北海道","jp_add_1":"滝川市","jp_add_2":"流通団地"},"0730100":{"post_code":"0730100","prefecture":"HOKKAIDO","city":"SUNAGAWA SHI","town":"IKANIKEISAIGANAIBAAI","perfecture_jp":"北海道","jp_add_1":"砂川市","jp_add_2":""},"0730107":{"post_code":"0730107","prefecture":"HOKKAIDO","city":"SUNAGAWA SHI","town":"ICHINOSAWA","perfecture_jp":"北海道","jp_add_1":"砂川市","jp_add_2":"一の沢"},"0730116":{"post_code":"0730116","prefecture":"HOKKAIDO","city":"SUNAGAWA SHI","town":"UZURA","perfecture_jp":"北海道","jp_add_1":"砂川市","jp_add_2":"鶉"},"0730118":{"post_code":"0730118","prefecture":"HOKKAIDO","city":"SUNAGAWA SHI","town":"KITAYOSHINOCHO","perfecture_jp":"北海道","jp_add_1":"砂川市","jp_add_2":"北吉野町"},"0730177":{"post_code":"0730177","prefecture":"HOKKAIDO","city":"SUNAGAWA SHI","town":"SORACHIBUTO(1-349-BANCHI)","perfecture_jp":"北海道","jp_add_1":"砂川市","jp_add_2":"空知太"},"0730106":{"post_code":"0730106","prefecture":"HOKKAIDO","city":"SUNAGAWA SHI","town":"SORACHIBUTO(SONOTA)","perfecture_jp":"北海道","jp_add_1":"砂川市","jp_add_2":"空知太"},"0730171":{"post_code":"0730171","prefecture":"HOKKAIDO","city":"SUNAGAWA SHI","town":"SORACHIBUTONISHI1-JO","perfecture_jp":"北海道","jp_add_1":"砂川市","jp_add_2":"空知太西一条"},"0730172":{"post_code":"0730172","prefecture":"HOKKAIDO","city":"SUNAGAWA SHI","town":"SORACHIBUTONISHI2-JO","perfecture_jp":"北海道","jp_add_1":"砂川市","jp_add_2":"空知太西二条"},"0730173":{"post_code":"0730173","prefecture":"HOKKAIDO","city":"SUNAGAWA SHI","town":"SORACHIBUTONISHI3-JO","perfecture_jp":"北海道","jp_add_1":"砂川市","jp_add_2":"空知太西三条"},"0730174":{"post_code":"0730174","prefecture":"HOKKAIDO","city":"SUNAGAWA SHI","town":"SORACHIBUTONISHI4-JO","perfecture_jp":"北海道","jp_add_1":"砂川市","jp_add_2":"空知太西四条"},"0730175":{"post_code":"0730175","prefecture":"HOKKAIDO","city":"SUNAGAWA SHI","town":"SORACHIBUTONISHI5-JO","perfecture_jp":"北海道","jp_add_1":"砂川市","jp_add_2":"空知太西五条"},"0730176":{"post_code":"0730176","prefecture":"HOKKAIDO","city":"SUNAGAWA SHI","town":"SORACHIBUTONISHI6-JO","perfecture_jp":"北海道","jp_add_1":"砂川市","jp_add_2":"空知太西六条"},"0730101":{"post_code":"0730101","prefecture":"HOKKAIDO","city":"SUNAGAWA SHI","town":"SORACHIBUTOHIGASHI1-JO","perfecture_jp":"北海道","jp_add_1":"砂川市","jp_add_2":"空知太東一条"},"0730102":{"post_code":"0730102","prefecture":"HOKKAIDO","city":"SUNAGAWA SHI","town":"SORACHIBUTOHIGASHI2-JO","perfecture_jp":"北海道","jp_add_1":"砂川市","jp_add_2":"空知太東二条"},"0730103":{"post_code":"0730103","prefecture":"HOKKAIDO","city":"SUNAGAWA SHI","town":"SORACHIBUTOHIGASHI3-JO","perfecture_jp":"北海道","jp_add_1":"砂川市","jp_add_2":"空知太東三条"},"0730104":{"post_code":"0730104","prefecture":"HOKKAIDO","city":"SUNAGAWA SHI","town":"SORACHIBUTOHIGASHI4-JO","perfecture_jp":"北海道","jp_add_1":"砂川市","jp_add_2":"空知太東四条"},"0730105":{"post_code":"0730105","prefecture":"HOKKAIDO","city":"SUNAGAWA SHI","town":"SORACHIBUTOHIGASHI5-JO","perfecture_jp":"北海道","jp_add_1":"砂川市","jp_add_2":"空知太東五条"},"0730085":{"post_code":"0730085","prefecture":"HOKKAIDO","city":"SUNAGAWA SHI","town":"TOMIHIRA(SONOTA)","perfecture_jp":"北海道","jp_add_1":"砂川市","jp_add_2":"富平"},"0730138":{"post_code":"0730138","prefecture":"HOKKAIDO","city":"SUNAGAWA SHI","town":"TOYONUMACHO","perfecture_jp":"北海道","jp_add_1":"砂川市","jp_add_2":"豊沼町"},"0730148":{"post_code":"0730148","prefecture":"HOKKAIDO","city":"SUNAGAWA SHI","town":"NISHITOYONUMA","perfecture_jp":"北海道","jp_add_1":"砂川市","jp_add_2":"西豊沼"},"0730141":{"post_code":"0730141","prefecture":"HOKKAIDO","city":"SUNAGAWA SHI","town":"NISHI1-JOMINAMI","perfecture_jp":"北海道","jp_add_1":"砂川市","jp_add_2":"西一条南"},"0730161":{"post_code":"0730161","prefecture":"HOKKAIDO","city":"SUNAGAWA SHI","town":"NISHI1-JOKITA","perfecture_jp":"北海道","jp_add_1":"砂川市","jp_add_2":"西一条北"},"0730142":{"post_code":"0730142","prefecture":"HOKKAIDO","city":"SUNAGAWA SHI","town":"NISHI2-JOMINAMI","perfecture_jp":"北海道","jp_add_1":"砂川市","jp_add_2":"西二条南"},"0730162":{"post_code":"0730162","prefecture":"HOKKAIDO","city":"SUNAGAWA SHI","town":"NISHI2-JOKITA","perfecture_jp":"北海道","jp_add_1":"砂川市","jp_add_2":"西二条北"},"0730143":{"post_code":"0730143","prefecture":"HOKKAIDO","city":"SUNAGAWA SHI","town":"NISHI3-JOMINAMI","perfecture_jp":"北海道","jp_add_1":"砂川市","jp_add_2":"西三条南"},"0730163":{"post_code":"0730163","prefecture":"HOKKAIDO","city":"SUNAGAWA SHI","town":"NISHI3-JOKITA","perfecture_jp":"北海道","jp_add_1":"砂川市","jp_add_2":"西三条北"},"0730144":{"post_code":"0730144","prefecture":"HOKKAIDO","city":"SUNAGAWA SHI","town":"NISHI4-JOMINAMI","perfecture_jp":"北海道","jp_add_1":"砂川市","jp_add_2":"西四条南"},"0730164":{"post_code":"0730164","prefecture":"HOKKAIDO","city":"SUNAGAWA SHI","town":"NISHI4-JOKITA","perfecture_jp":"北海道","jp_add_1":"砂川市","jp_add_2":"西四条北"},"0730145":{"post_code":"0730145","prefecture":"HOKKAIDO","city":"SUNAGAWA SHI","town":"NISHI5-JOMINAMI","perfecture_jp":"北海道","jp_add_1":"砂川市","jp_add_2":"西五条南"},"0730165":{"post_code":"0730165","prefecture":"HOKKAIDO","city":"SUNAGAWA SHI","town":"NISHI5-JOKITA","perfecture_jp":"北海道","jp_add_1":"砂川市","jp_add_2":"西五条北"},"0730146":{"post_code":"0730146","prefecture":"HOKKAIDO","city":"SUNAGAWA SHI","town":"NISHI6-JOMINAMI","perfecture_jp":"北海道","jp_add_1":"砂川市","jp_add_2":"西六条南"},"0730166":{"post_code":"0730166","prefecture":"HOKKAIDO","city":"SUNAGAWA SHI","town":"NISHI6-JOKITA","perfecture_jp":"北海道","jp_add_1":"砂川市","jp_add_2":"西六条北"},"0730147":{"post_code":"0730147","prefecture":"HOKKAIDO","city":"SUNAGAWA SHI","town":"NISHI7-JOMINAMI","perfecture_jp":"北海道","jp_add_1":"砂川市","jp_add_2":"西七条南"},"0730167":{"post_code":"0730167","prefecture":"HOKKAIDO","city":"SUNAGAWA SHI","town":"NISHI7-JOKITA","perfecture_jp":"北海道","jp_add_1":"砂川市","jp_add_2":"西七条北"},"0730168":{"post_code":"0730168","prefecture":"HOKKAIDO","city":"SUNAGAWA SHI","town":"NISHI8-JOKITA","perfecture_jp":"北海道","jp_add_1":"砂川市","jp_add_2":"西八条北"},"0730111":{"post_code":"0730111","prefecture":"HOKKAIDO","city":"SUNAGAWA SHI","town":"HARUMI1-JOKITA","perfecture_jp":"北海道","jp_add_1":"砂川市","jp_add_2":"晴見一条北"},"0730112":{"post_code":"0730112","prefecture":"HOKKAIDO","city":"SUNAGAWA SHI","town":"HARUMI2-JOKITA","perfecture_jp":"北海道","jp_add_1":"砂川市","jp_add_2":"晴見二条北"},"0730113":{"post_code":"0730113","prefecture":"HOKKAIDO","city":"SUNAGAWA SHI","town":"HARUMI3-JOKITA","perfecture_jp":"北海道","jp_add_1":"砂川市","jp_add_2":"晴見三条北"},"0730114":{"post_code":"0730114","prefecture":"HOKKAIDO","city":"SUNAGAWA SHI","town":"HARUMI4-JOKITA","perfecture_jp":"北海道","jp_add_1":"砂川市","jp_add_2":"晴見四条北"},"0730126":{"post_code":"0730126","prefecture":"HOKKAIDO","city":"SUNAGAWA SHI","town":"HIGASHITOYONUMA","perfecture_jp":"北海道","jp_add_1":"砂川市","jp_add_2":"東豊沼"},"0730131":{"post_code":"0730131","prefecture":"HOKKAIDO","city":"SUNAGAWA SHI","town":"HIGASHI1-JOMINAMI","perfecture_jp":"北海道","jp_add_1":"砂川市","jp_add_2":"東一条南"},"0730151":{"post_code":"0730151","prefecture":"HOKKAIDO","city":"SUNAGAWA SHI","town":"HIGASHI1-JOKITA","perfecture_jp":"北海道","jp_add_1":"砂川市","jp_add_2":"東一条北"},"0730132":{"post_code":"0730132","prefecture":"HOKKAIDO","city":"SUNAGAWA SHI","town":"HIGASHI2-JOMINAMI","perfecture_jp":"北海道","jp_add_1":"砂川市","jp_add_2":"東二条南"},"0730152":{"post_code":"0730152","prefecture":"HOKKAIDO","city":"SUNAGAWA SHI","town":"HIGASHI2-JOKITA","perfecture_jp":"北海道","jp_add_1":"砂川市","jp_add_2":"東二条北"},"0730153":{"post_code":"0730153","prefecture":"HOKKAIDO","city":"SUNAGAWA SHI","town":"HIGASHI3-JOKITA","perfecture_jp":"北海道","jp_add_1":"砂川市","jp_add_2":"東三条北"},"0730133":{"post_code":"0730133","prefecture":"HOKKAIDO","city":"SUNAGAWA SHI","town":"HIGASHI3-JOMINAMI","perfecture_jp":"北海道","jp_add_1":"砂川市","jp_add_2":"東三条南"},"0730134":{"post_code":"0730134","prefecture":"HOKKAIDO","city":"SUNAGAWA SHI","town":"HIGASHI4-JOMINAMI","perfecture_jp":"北海道","jp_add_1":"砂川市","jp_add_2":"東四条南"},"0730154":{"post_code":"0730154","prefecture":"HOKKAIDO","city":"SUNAGAWA SHI","town":"HIGASHI4-JOKITA","perfecture_jp":"北海道","jp_add_1":"砂川市","jp_add_2":"東四条北"},"0730135":{"post_code":"0730135","prefecture":"HOKKAIDO","city":"SUNAGAWA SHI","town":"HIGASHI5-JOMINAMI","perfecture_jp":"北海道","jp_add_1":"砂川市","jp_add_2":"東五条南"},"0730155":{"post_code":"0730155","prefecture":"HOKKAIDO","city":"SUNAGAWA SHI","town":"HIGASHI5-JOKITA","perfecture_jp":"北海道","jp_add_1":"砂川市","jp_add_2":"東五条北"},"0730136":{"post_code":"0730136","prefecture":"HOKKAIDO","city":"SUNAGAWA SHI","town":"HIGASHI6-JOMINAMI","perfecture_jp":"北海道","jp_add_1":"砂川市","jp_add_2":"東六条南"},"0730156":{"post_code":"0730156","prefecture":"HOKKAIDO","city":"SUNAGAWA SHI","town":"HIGASHI6-JOKITA","perfecture_jp":"北海道","jp_add_1":"砂川市","jp_add_2":"東六条北"},"0730137":{"post_code":"0730137","prefecture":"HOKKAIDO","city":"SUNAGAWA SHI","town":"HIGASHI7-JOMINAMI","perfecture_jp":"北海道","jp_add_1":"砂川市","jp_add_2":"東七条南"},"0730127":{"post_code":"0730127","prefecture":"HOKKAIDO","city":"SUNAGAWA SHI","town":"HINODE1-JOMINAMI","perfecture_jp":"北海道","jp_add_1":"砂川市","jp_add_2":"日の出一条南"},"0730178":{"post_code":"0730178","prefecture":"HOKKAIDO","city":"SUNAGAWA SHI","town":"FUKUROCHI","perfecture_jp":"北海道","jp_add_1":"砂川市","jp_add_2":"袋地"},"0730108":{"post_code":"0730108","prefecture":"HOKKAIDO","city":"SUNAGAWA SHI","town":"HOKKO","perfecture_jp":"北海道","jp_add_1":"砂川市","jp_add_2":"北光"},"0730157":{"post_code":"0730157","prefecture":"HOKKAIDO","city":"SUNAGAWA SHI","town":"MISAGOCHO","perfecture_jp":"北海道","jp_add_1":"砂川市","jp_add_2":"三砂町"},"0730117":{"post_code":"0730117","prefecture":"HOKKAIDO","city":"SUNAGAWA SHI","town":"MINAMIYOSHINOCHO","perfecture_jp":"北海道","jp_add_1":"砂川市","jp_add_2":"南吉野町"},"0730125":{"post_code":"0730125","prefecture":"HOKKAIDO","city":"SUNAGAWA SHI","town":"MIYAGINOSAWA","perfecture_jp":"北海道","jp_add_1":"砂川市","jp_add_2":"宮城の沢"},"0730115":{"post_code":"0730115","prefecture":"HOKKAIDO","city":"SUNAGAWA SHI","town":"YAKEYAMA","perfecture_jp":"北海道","jp_add_1":"砂川市","jp_add_2":"焼山"},"0730121":{"post_code":"0730121","prefecture":"HOKKAIDO","city":"SUNAGAWA SHI","town":"YOSHINO1-JOMINAMI","perfecture_jp":"北海道","jp_add_1":"砂川市","jp_add_2":"吉野一条南"},"0730158":{"post_code":"0730158","prefecture":"HOKKAIDO","city":"SUNAGAWA SHI","town":"YOSHINO1-JOKITA","perfecture_jp":"北海道","jp_add_1":"砂川市","jp_add_2":"吉野一条北"},"0730122":{"post_code":"0730122","prefecture":"HOKKAIDO","city":"SUNAGAWA SHI","town":"YOSHINO2-JOMINAMI","perfecture_jp":"北海道","jp_add_1":"砂川市","jp_add_2":"吉野二条南"},"0730159":{"post_code":"0730159","prefecture":"HOKKAIDO","city":"SUNAGAWA SHI","town":"YOSHINO2-JOKITA","perfecture_jp":"北海道","jp_add_1":"砂川市","jp_add_2":"吉野二条北"},"0730123":{"post_code":"0730123","prefecture":"HOKKAIDO","city":"SUNAGAWA SHI","town":"YOSHINO3-JOMINAMI","perfecture_jp":"北海道","jp_add_1":"砂川市","jp_add_2":"吉野三条南"},"0730124":{"post_code":"0730124","prefecture":"HOKKAIDO","city":"SUNAGAWA SHI","town":"YOSHINO4-JOMINAMI","perfecture_jp":"北海道","jp_add_1":"砂川市","jp_add_2":"吉野四条南"},"0730400":{"post_code":"0730400","prefecture":"HOKKAIDO","city":"UTASHINAI SHI","town":"IKANIKEISAIGANAIBAAI","perfecture_jp":"北海道","jp_add_1":"歌志内市","jp_add_2":""},"0730404":{"post_code":"0730404","prefecture":"HOKKAIDO","city":"UTASHINAI SHI","town":"KASHIN","perfecture_jp":"北海道","jp_add_1":"歌志内市","jp_add_2":"歌神"},"0730401":{"post_code":"0730401","prefecture":"HOKKAIDO","city":"UTASHINAI SHI","town":"KAMIUTA","perfecture_jp":"北海道","jp_add_1":"歌志内市","jp_add_2":"上歌"},"0730405":{"post_code":"0730405","prefecture":"HOKKAIDO","city":"UTASHINAI SHI","town":"KAMOI","perfecture_jp":"北海道","jp_add_1":"歌志内市","jp_add_2":"神威"},"0730402":{"post_code":"0730402","prefecture":"HOKKAIDO","city":"UTASHINAI SHI","town":"TOKO","perfecture_jp":"北海道","jp_add_1":"歌志内市","jp_add_2":"東光"},"0730406":{"post_code":"0730406","prefecture":"HOKKAIDO","city":"UTASHINAI SHI","town":"NAKAMURA","perfecture_jp":"北海道","jp_add_1":"歌志内市","jp_add_2":"中村"},"0730403":{"post_code":"0730403","prefecture":"HOKKAIDO","city":"UTASHINAI SHI","town":"HONCHO","perfecture_jp":"北海道","jp_add_1":"歌志内市","jp_add_2":"本町"},"0730407":{"post_code":"0730407","prefecture":"HOKKAIDO","city":"UTASHINAI SHI","town":"MONJU","perfecture_jp":"北海道","jp_add_1":"歌志内市","jp_add_2":"文珠"},"0730200":{"post_code":"0730200","prefecture":"HOKKAIDO","city":"SORACHI GUN KAMISUNAGAWA CHO","town":"IKANIKEISAIGANAIBAAI","perfecture_jp":"北海道","jp_add_1":"空知郡上砂川町","jp_add_2":""},"0730205":{"post_code":"0730205","prefecture":"HOKKAIDO","city":"SORACHI GUN KAMISUNAGAWA CHO","town":"ASAKOMA","perfecture_jp":"北海道","jp_add_1":"空知郡上砂川町","jp_add_2":"朝駒"},"0730212":{"post_code":"0730212","prefecture":"HOKKAIDO","city":"SORACHI GUN KAMISUNAGAWA CHO","town":"UZURA","perfecture_jp":"北海道","jp_add_1":"空知郡上砂川町","jp_add_2":"鶉"},"0730221":{"post_code":"0730221","prefecture":"HOKKAIDO","city":"SORACHI GUN KAMISUNAGAWA CHO","town":"UZURAHONCHO","perfecture_jp":"北海道","jp_add_1":"空知郡上砂川町","jp_add_2":"鶉本町"},"0730222":{"post_code":"0730222","prefecture":"HOKKAIDO","city":"SORACHI GUN KAMISUNAGAWA CHO","town":"SHIMOZURA","perfecture_jp":"北海道","jp_add_1":"空知郡上砂川町","jp_add_2":"下鶉"},"0730201":{"post_code":"0730201","prefecture":"HOKKAIDO","city":"SORACHI GUN KAMISUNAGAWA CHO","town":"CHUO","perfecture_jp":"北海道","jp_add_1":"空知郡上砂川町","jp_add_2":"中央"},"0730203":{"post_code":"0730203","prefecture":"HOKKAIDO","city":"SORACHI GUN KAMISUNAGAWA CHO","town":"NAKAMACHI","perfecture_jp":"北海道","jp_add_1":"空知郡上砂川町","jp_add_2":"中町"},"0730211":{"post_code":"0730211","prefecture":"HOKKAIDO","city":"SORACHI GUN KAMISUNAGAWA CHO","town":"HIGASHIUZURA","perfecture_jp":"北海道","jp_add_1":"空知郡上砂川町","jp_add_2":"東鶉"},"0730202":{"post_code":"0730202","prefecture":"HOKKAIDO","city":"SORACHI GUN KAMISUNAGAWA CHO","town":"HIGASHIMACHI","perfecture_jp":"北海道","jp_add_1":"空知郡上砂川町","jp_add_2":"東町"},"0730206":{"post_code":"0730206","prefecture":"HOKKAIDO","city":"SORACHI GUN KAMISUNAGAWA CHO","town":"HIGASHIYAMA","perfecture_jp":"北海道","jp_add_1":"空知郡上砂川町","jp_add_2":"東山"},"0730204":{"post_code":"0730204","prefecture":"HOKKAIDO","city":"SORACHI GUN KAMISUNAGAWA CHO","town":"HOMMACHI","perfecture_jp":"北海道","jp_add_1":"空知郡上砂川町","jp_add_2":"本町"},"0730213":{"post_code":"0730213","prefecture":"HOKKAIDO","city":"SORACHI GUN KAMISUNAGAWA CHO","town":"MIDORIGAOKA","perfecture_jp":"北海道","jp_add_1":"空知郡上砂川町","jp_add_2":"緑が丘"},"0731100":{"post_code":"0731100","prefecture":"HOKKAIDO","city":"KABATO GUN SHINTOTSUKAWA CHO","town":"IKANIKEISAIGANAIBAAI","perfecture_jp":"北海道","jp_add_1":"樺戸郡新十津川町","jp_add_2":""},"0731321":{"post_code":"0731321","prefecture":"HOKKAIDO","city":"KABATO GUN SHINTOTSUKAWA CHO","town":"GAKUEN","perfecture_jp":"北海道","jp_add_1":"樺戸郡新十津川町","jp_add_2":"学園"},"0731105":{"post_code":"0731105","prefecture":"HOKKAIDO","city":"KABATO GUN SHINTOTSUKAWA CHO","town":"KAGETSU","perfecture_jp":"北海道","jp_add_1":"樺戸郡新十津川町","jp_add_2":"花月"},"0731101":{"post_code":"0731101","prefecture":"HOKKAIDO","city":"KABATO GUN SHINTOTSUKAWA CHO","town":"SHISUN","perfecture_jp":"北海道","jp_add_1":"樺戸郡新十津川町","jp_add_2":"士寸"},"0731106":{"post_code":"0731106","prefecture":"HOKKAIDO","city":"KABATO GUN SHINTOTSUKAWA CHO","town":"SOSHIN","perfecture_jp":"北海道","jp_add_1":"樺戸郡新十津川町","jp_add_2":"総進"},"0731103":{"post_code":"0731103","prefecture":"HOKKAIDO","city":"KABATO GUN SHINTOTSUKAWA CHO","town":"CHUO","perfecture_jp":"北海道","jp_add_1":"樺戸郡新十津川町","jp_add_2":"中央"},"0731107":{"post_code":"0731107","prefecture":"HOKKAIDO","city":"KABATO GUN SHINTOTSUKAWA CHO","town":"TOPPU","perfecture_jp":"北海道","jp_add_1":"樺戸郡新十津川町","jp_add_2":"トップ"},"0731323":{"post_code":"0731323","prefecture":"HOKKAIDO","city":"KABATO GUN SHINTOTSUKAWA CHO","town":"HOROKA","perfecture_jp":"北海道","jp_add_1":"樺戸郡新十津川町","jp_add_2":"幌加"},"0731102":{"post_code":"0731102","prefecture":"HOKKAIDO","city":"KABATO GUN SHINTOTSUKAWA CHO","town":"YAMATO","perfecture_jp":"北海道","jp_add_1":"樺戸郡新十津川町","jp_add_2":"大和"},"0730181":{"post_code":"0730181","prefecture":"HOKKAIDO","city":"KABATO GUN SHINTOTSUKAWA CHO","town":"YAYOI(TEIBOYOCHI)","perfecture_jp":"北海道","jp_add_1":"樺戸郡新十津川町","jp_add_2":"弥生"},"0731104":{"post_code":"0731104","prefecture":"HOKKAIDO","city":"KABATO GUN SHINTOTSUKAWA CHO","town":"YAYOI(SONOTA)","perfecture_jp":"北海道","jp_add_1":"樺戸郡新十津川町","jp_add_2":"弥生"},"0731322":{"post_code":"0731322","prefecture":"HOKKAIDO","city":"KABATO GUN SHINTOTSUKAWA CHO","town":"YOSHINO","perfecture_jp":"北海道","jp_add_1":"樺戸郡新十津川町","jp_add_2":"吉野"}}