{"0750000":{"post_code":"0750000","prefecture":"HOKKAIDO","city":"ASHIBETSU SHI","town":"IKANIKEISAIGANAIBAAI","perfecture_jp":"北海道","jp_add_1":"芦別市","jp_add_2":""},"0750165":{"post_code":"0750165","prefecture":"HOKKAIDO","city":"ASHIBETSU SHI","town":"AOKISAWA","perfecture_jp":"北海道","jp_add_1":"芦別市","jp_add_2":"青木沢"},"0750036":{"post_code":"0750036","prefecture":"HOKKAIDO","city":"ASHIBETSU SHI","town":"ASAHICHO","perfecture_jp":"北海道","jp_add_1":"芦別市","jp_add_2":"旭町"},"0750035":{"post_code":"0750035","prefecture":"HOKKAIDO","city":"ASHIBETSU SHI","town":"ASAHIMACHIYUYA","perfecture_jp":"北海道","jp_add_1":"芦別市","jp_add_2":"旭町油谷"},"0750166":{"post_code":"0750166","prefecture":"HOKKAIDO","city":"ASHIBETSU SHI","town":"KAWAGISHI","perfecture_jp":"北海道","jp_add_1":"芦別市","jp_add_2":"川岸"},"0750011":{"post_code":"0750011","prefecture":"HOKKAIDO","city":"ASHIBETSU SHI","town":"KITA1-JOHIGASHI","perfecture_jp":"北海道","jp_add_1":"芦別市","jp_add_2":"北一条東"},"0750001":{"post_code":"0750001","prefecture":"HOKKAIDO","city":"ASHIBETSU SHI","town":"KITA1-JONISHI","perfecture_jp":"北海道","jp_add_1":"芦別市","jp_add_2":"北一条西"},"0750012":{"post_code":"0750012","prefecture":"HOKKAIDO","city":"ASHIBETSU SHI","town":"KITA2-JOHIGASHI","perfecture_jp":"北海道","jp_add_1":"芦別市","jp_add_2":"北二条東"},"0750002":{"post_code":"0750002","prefecture":"HOKKAIDO","city":"ASHIBETSU SHI","town":"KITA2-JONISHI","perfecture_jp":"北海道","jp_add_1":"芦別市","jp_add_2":"北二条西"},"0750013":{"post_code":"0750013","prefecture":"HOKKAIDO","city":"ASHIBETSU SHI","town":"KITA3-JOHIGASHI","perfecture_jp":"北海道","jp_add_1":"芦別市","jp_add_2":"北三条東"},"0750003":{"post_code":"0750003","prefecture":"HOKKAIDO","city":"ASHIBETSU SHI","town":"KITA3-JONISHI","perfecture_jp":"北海道","jp_add_1":"芦別市","jp_add_2":"北三条西"},"0750014":{"post_code":"0750014","prefecture":"HOKKAIDO","city":"ASHIBETSU SHI","town":"KITA4-JOHIGASHI","perfecture_jp":"北海道","jp_add_1":"芦別市","jp_add_2":"北四条東"},"0750004":{"post_code":"0750004","prefecture":"HOKKAIDO","city":"ASHIBETSU SHI","town":"KITA4-JONISHI","perfecture_jp":"北海道","jp_add_1":"芦別市","jp_add_2":"北四条西"},"0750015":{"post_code":"0750015","prefecture":"HOKKAIDO","city":"ASHIBETSU SHI","town":"KITA5-JOHIGASHI","perfecture_jp":"北海道","jp_add_1":"芦別市","jp_add_2":"北五条東"},"0750005":{"post_code":"0750005","prefecture":"HOKKAIDO","city":"ASHIBETSU SHI","town":"KITA5-JONISHI","perfecture_jp":"北海道","jp_add_1":"芦別市","jp_add_2":"北五条西"},"0750016":{"post_code":"0750016","prefecture":"HOKKAIDO","city":"ASHIBETSU SHI","town":"KITA6-JOHIGASHI","perfecture_jp":"北海道","jp_add_1":"芦別市","jp_add_2":"北六条東"},"0750006":{"post_code":"0750006","prefecture":"HOKKAIDO","city":"ASHIBETSU SHI","town":"KITA6-JONISHI","perfecture_jp":"北海道","jp_add_1":"芦別市","jp_add_2":"北六条西"},"0750007":{"post_code":"0750007","prefecture":"HOKKAIDO","city":"ASHIBETSU SHI","town":"KITA7-JONISHI","perfecture_jp":"北海道","jp_add_1":"芦別市","jp_add_2":"北七条西"},"0750252":{"post_code":"0750252","prefecture":"HOKKAIDO","city":"ASHIBETSU SHI","town":"KOGANECHO","perfecture_jp":"北海道","jp_add_1":"芦別市","jp_add_2":"黄金町"},"0750251":{"post_code":"0750251","prefecture":"HOKKAIDO","city":"ASHIBETSU SHI","town":"SHINJOCHO","perfecture_jp":"北海道","jp_add_1":"芦別市","jp_add_2":"新城町"},"0750019":{"post_code":"0750019","prefecture":"HOKKAIDO","city":"ASHIBETSU SHI","town":"TAKANECHO","perfecture_jp":"北海道","jp_add_1":"芦別市","jp_add_2":"高根町"},"0750018":{"post_code":"0750018","prefecture":"HOKKAIDO","city":"ASHIBETSU SHI","town":"TOKIWACHO","perfecture_jp":"北海道","jp_add_1":"芦別市","jp_add_2":"常磐町"},"0750254":{"post_code":"0750254","prefecture":"HOKKAIDO","city":"ASHIBETSU SHI","town":"TOYOKA","perfecture_jp":"北海道","jp_add_1":"芦別市","jp_add_2":"豊岡"},"0750253":{"post_code":"0750253","prefecture":"HOKKAIDO","city":"ASHIBETSU SHI","town":"TOYOKACHO","perfecture_jp":"北海道","jp_add_1":"芦別市","jp_add_2":"豊岡町"},"0750167":{"post_code":"0750167","prefecture":"HOKKAIDO","city":"ASHIBETSU SHI","town":"NAKANOKACHO","perfecture_jp":"北海道","jp_add_1":"芦別市","jp_add_2":"中の丘町"},"0750161":{"post_code":"0750161","prefecture":"HOKKAIDO","city":"ASHIBETSU SHI","town":"NISHIASHIBETSUCHO","perfecture_jp":"北海道","jp_add_1":"芦別市","jp_add_2":"西芦別町"},"0750162":{"post_code":"0750162","prefecture":"HOKKAIDO","city":"ASHIBETSU SHI","town":"HIGASHIRAIJOCHO","perfecture_jp":"北海道","jp_add_1":"芦別市","jp_add_2":"東頼城町"},"0750017":{"post_code":"0750017","prefecture":"HOKKAIDO","city":"ASHIBETSU SHI","town":"FUKUZUMICHO","perfecture_jp":"北海道","jp_add_1":"芦別市","jp_add_2":"福住町"},"0750034":{"post_code":"0750034","prefecture":"HOKKAIDO","city":"ASHIBETSU SHI","town":"HORONAI","perfecture_jp":"北海道","jp_add_1":"芦別市","jp_add_2":"幌内"},"0750041":{"post_code":"0750041","prefecture":"HOKKAIDO","city":"ASHIBETSU SHI","town":"HONCHO","perfecture_jp":"北海道","jp_add_1":"芦別市","jp_add_2":"本町"},"0750031":{"post_code":"0750031","prefecture":"HOKKAIDO","city":"ASHIBETSU SHI","town":"MINAMI1-JOHIGASHI","perfecture_jp":"北海道","jp_add_1":"芦別市","jp_add_2":"南一条東"},"0750021":{"post_code":"0750021","prefecture":"HOKKAIDO","city":"ASHIBETSU SHI","town":"MINAMI1-JONISHI","perfecture_jp":"北海道","jp_add_1":"芦別市","jp_add_2":"南一条西"},"0750032":{"post_code":"0750032","prefecture":"HOKKAIDO","city":"ASHIBETSU SHI","town":"MINAMI2-JOHIGASHI","perfecture_jp":"北海道","jp_add_1":"芦別市","jp_add_2":"南二条東"},"0750033":{"post_code":"0750033","prefecture":"HOKKAIDO","city":"ASHIBETSU SHI","town":"MINAMI3-JOHIGASHI","perfecture_jp":"北海道","jp_add_1":"芦別市","jp_add_2":"南三条東"},"0750164":{"post_code":"0750164","prefecture":"HOKKAIDO","city":"ASHIBETSU SHI","town":"RAIJOCHO","perfecture_jp":"北海道","jp_add_1":"芦別市","jp_add_2":"頼城町"},"0750163":{"post_code":"0750163","prefecture":"HOKKAIDO","city":"ASHIBETSU SHI","town":"ROKUSENCHO","perfecture_jp":"北海道","jp_add_1":"芦別市","jp_add_2":"緑泉町"}}