{"0810200":{"post_code":"0810200","prefecture":"HOKKAIDO","city":"KATO GUN SHIKAOI CHO","town":"IKANIKEISAIGANAIBAAI","perfecture_jp":"北海道","jp_add_1":"河東郡鹿追町","jp_add_2":""},"0810212":{"post_code":"0810212","prefecture":"HOKKAIDO","city":"KATO GUN SHIKAOI CHO","town":"IZUMIMACHI","perfecture_jp":"北海道","jp_add_1":"河東郡鹿追町","jp_add_2":"泉町"},"0810342":{"post_code":"0810342","prefecture":"HOKKAIDO","city":"KATO GUN SHIKAOI CHO","town":"URIMAKUHIGASHI","perfecture_jp":"北海道","jp_add_1":"河東郡鹿追町","jp_add_2":"瓜幕東"},"0810341":{"post_code":"0810341","prefecture":"HOKKAIDO","city":"KATO GUN SHIKAOI CHO","town":"URIMAKUNISHI","perfecture_jp":"北海道","jp_add_1":"河東郡鹿追町","jp_add_2":"瓜幕西"},"0810343":{"post_code":"0810343","prefecture":"HOKKAIDO","city":"KATO GUN SHIKAOI CHO","town":"URIMAKUMINAMI","perfecture_jp":"北海道","jp_add_1":"河東郡鹿追町","jp_add_2":"瓜幕南"},"0810225":{"post_code":"0810225","prefecture":"HOKKAIDO","city":"KATO GUN SHIKAOI CHO","town":"KASHIWAGAOKA","perfecture_jp":"北海道","jp_add_1":"河東郡鹿追町","jp_add_2":"柏ケ丘"},"0810218":{"post_code":"0810218","prefecture":"HOKKAIDO","city":"KATO GUN SHIKAOI CHO","town":"KAMISHIKARIBETSUNISHI","perfecture_jp":"北海道","jp_add_1":"河東郡鹿追町","jp_add_2":"上然別西"},"0810226":{"post_code":"0810226","prefecture":"HOKKAIDO","city":"KATO GUN SHIKAOI CHO","town":"KAMIHORONAI","perfecture_jp":"北海道","jp_add_1":"河東郡鹿追町","jp_add_2":"上幌内"},"0810344":{"post_code":"0810344","prefecture":"HOKKAIDO","city":"KATO GUN SHIKAOI CHO","town":"KITAURIMAKU","perfecture_jp":"北海道","jp_add_1":"河東郡鹿追町","jp_add_2":"北瓜幕"},"0810214":{"post_code":"0810214","prefecture":"HOKKAIDO","city":"KATO GUN SHIKAOI CHO","town":"KITASHIKAOI KITA","perfecture_jp":"北海道","jp_add_1":"河東郡鹿追町","jp_add_2":"北鹿追北"},"0810202":{"post_code":"0810202","prefecture":"HOKKAIDO","city":"KATO GUN SHIKAOI CHO","town":"KITAMACHI","perfecture_jp":"北海道","jp_add_1":"河東郡鹿追町","jp_add_2":"北町"},"0810221":{"post_code":"0810221","prefecture":"HOKKAIDO","city":"KATO GUN SHIKAOI CHO","town":"SAKAEMACHI","perfecture_jp":"北海道","jp_add_1":"河東郡鹿追町","jp_add_2":"栄町"},"0810204":{"post_code":"0810204","prefecture":"HOKKAIDO","city":"KATO GUN SHIKAOI CHO","town":"SASAGAWAKITA","perfecture_jp":"北海道","jp_add_1":"河東郡鹿追町","jp_add_2":"笹川北"},"0810217":{"post_code":"0810217","prefecture":"HOKKAIDO","city":"KATO GUN SHIKAOI CHO","town":"SHIKAOI KISEN","perfecture_jp":"北海道","jp_add_1":"河東郡鹿追町","jp_add_2":"鹿追基線"},"0810215":{"post_code":"0810215","prefecture":"HOKKAIDO","city":"KATO GUN SHIKAOI CHO","town":"SHIKAOI MINAMI","perfecture_jp":"北海道","jp_add_1":"河東郡鹿追町","jp_add_2":"鹿追南"},"0810216":{"post_code":"0810216","prefecture":"HOKKAIDO","city":"KATO GUN SHIKAOI CHO","town":"SHIKAOI KITA","perfecture_jp":"北海道","jp_add_1":"河東郡鹿追町","jp_add_2":"鹿追北"},"0810201":{"post_code":"0810201","prefecture":"HOKKAIDO","city":"KATO GUN SHIKAOI CHO","town":"SHIMMACHI","perfecture_jp":"北海道","jp_add_1":"河東郡鹿追町","jp_add_2":"新町"},"0810345":{"post_code":"0810345","prefecture":"HOKKAIDO","city":"KATO GUN SHIKAOI CHO","town":"NAKAURIMAKUNISHI","perfecture_jp":"北海道","jp_add_1":"河東郡鹿追町","jp_add_2":"中瓜幕西"},"0810211":{"post_code":"0810211","prefecture":"HOKKAIDO","city":"KATO GUN SHIKAOI CHO","town":"NAKAMACHI","perfecture_jp":"北海道","jp_add_1":"河東郡鹿追町","jp_add_2":"仲町"},"0810205":{"post_code":"0810205","prefecture":"HOKKAIDO","city":"KATO GUN SHIKAOI CHO","town":"NISHISASAGAWA","perfecture_jp":"北海道","jp_add_1":"河東郡鹿追町","jp_add_2":"西笹川"},"0810213":{"post_code":"0810213","prefecture":"HOKKAIDO","city":"KATO GUN SHIKAOI CHO","town":"NISHIMACHI","perfecture_jp":"北海道","jp_add_1":"河東郡鹿追町","jp_add_2":"西町"},"0810346":{"post_code":"0810346","prefecture":"HOKKAIDO","city":"KATO GUN SHIKAOI CHO","town":"HIGASHIURIMAKUNISHI","perfecture_jp":"北海道","jp_add_1":"河東郡鹿追町","jp_add_2":"東瓜幕西"},"0810222":{"post_code":"0810222","prefecture":"HOKKAIDO","city":"KATO GUN SHIKAOI CHO","town":"HIGASHIMACHI","perfecture_jp":"北海道","jp_add_1":"河東郡鹿追町","jp_add_2":"東町"},"0810228":{"post_code":"0810228","prefecture":"HOKKAIDO","city":"KATO GUN SHIKAOI CHO","town":"BIMANNISHI","perfecture_jp":"北海道","jp_add_1":"河東郡鹿追町","jp_add_2":"美蔓西"},"0810227":{"post_code":"0810227","prefecture":"HOKKAIDO","city":"KATO GUN SHIKAOI CHO","town":"HORONAINISHI","perfecture_jp":"北海道","jp_add_1":"河東郡鹿追町","jp_add_2":"幌内西"},"0810203":{"post_code":"0810203","prefecture":"HOKKAIDO","city":"KATO GUN SHIKAOI CHO","town":"MIDORIMACHI","perfecture_jp":"北海道","jp_add_1":"河東郡鹿追町","jp_add_2":"緑町"},"0810223":{"post_code":"0810223","prefecture":"HOKKAIDO","city":"KATO GUN SHIKAOI CHO","town":"MINAMIMACHI","perfecture_jp":"北海道","jp_add_1":"河東郡鹿追町","jp_add_2":"南町"},"0810224":{"post_code":"0810224","prefecture":"HOKKAIDO","city":"KATO GUN SHIKAOI CHO","town":"MOTOMACHI","perfecture_jp":"北海道","jp_add_1":"河東郡鹿追町","jp_add_2":"元町"},"0810000":{"post_code":"0810000","prefecture":"HOKKAIDO","city":"KAMIKAWA GUN SHINTOKU CHO","town":"IKANIKEISAIGANAIBAAI","perfecture_jp":"北海道","jp_add_1":"上川郡新得町","jp_add_2":""},"0810035":{"post_code":"0810035","prefecture":"HOKKAIDO","city":"KAMIKAWA GUN SHINTOKU CHO","town":"KAMISAHORO","perfecture_jp":"北海道","jp_add_1":"上川郡新得町","jp_add_2":"上佐幌"},"0810154":{"post_code":"0810154","prefecture":"HOKKAIDO","city":"KAMIKAWA GUN SHINTOKU CHO","town":"KUTTARI","perfecture_jp":"北海道","jp_add_1":"上川郡新得町","jp_add_2":"屈足"},"0810151":{"post_code":"0810151","prefecture":"HOKKAIDO","city":"KAMIKAWA GUN SHINTOKU CHO","town":"KUTTARIASAHIMACHI","perfecture_jp":"北海道","jp_add_1":"上川郡新得町","jp_add_2":"屈足旭町"},"0810152":{"post_code":"0810152","prefecture":"HOKKAIDO","city":"KAMIKAWA GUN SHINTOKU CHO","town":"KUTTARIASAHIMACHIHIGASHI","perfecture_jp":"北海道","jp_add_1":"上川郡新得町","jp_add_2":"屈足旭町東"},"0810161":{"post_code":"0810161","prefecture":"HOKKAIDO","city":"KAMIKAWA GUN SHINTOKU CHO","town":"KUTTARIKASHIWAMACHI","perfecture_jp":"北海道","jp_add_1":"上川郡新得町","jp_add_2":"屈足柏町"},"0810162":{"post_code":"0810162","prefecture":"HOKKAIDO","city":"KAMIKAWA GUN SHINTOKU CHO","town":"KUTTARIKASHIWAMACHIHIGASHI","perfecture_jp":"北海道","jp_add_1":"上川郡新得町","jp_add_2":"屈足柏町東"},"0810155":{"post_code":"0810155","prefecture":"HOKKAIDO","city":"KAMIKAWA GUN SHINTOKU CHO","town":"KUTTARISAIWAIMACHI","perfecture_jp":"北海道","jp_add_1":"上川郡新得町","jp_add_2":"屈足幸町"},"0810156":{"post_code":"0810156","prefecture":"HOKKAIDO","city":"KAMIKAWA GUN SHINTOKU CHO","town":"KUTTARISAIWAIMACHINISHI","perfecture_jp":"北海道","jp_add_1":"上川郡新得町","jp_add_2":"屈足幸町西"},"0810163":{"post_code":"0810163","prefecture":"HOKKAIDO","city":"KAMIKAWA GUN SHINTOKU CHO","town":"KUTTARIMIDORIMACHI","perfecture_jp":"北海道","jp_add_1":"上川郡新得町","jp_add_2":"屈足緑町"},"0810164":{"post_code":"0810164","prefecture":"HOKKAIDO","city":"KAMIKAWA GUN SHINTOKU CHO","town":"KUTTARIMIDORIMACHINISHI","perfecture_jp":"北海道","jp_add_1":"上川郡新得町","jp_add_2":"屈足緑町西"},"0810153":{"post_code":"0810153","prefecture":"HOKKAIDO","city":"KAMIKAWA GUN SHINTOKU CHO","town":"KUTTARIMINAMIMACHI","perfecture_jp":"北海道","jp_add_1":"上川郡新得町","jp_add_2":"屈足南町"},"0810006":{"post_code":"0810006","prefecture":"HOKKAIDO","city":"KAMIKAWA GUN SHINTOKU CHO","town":"SAKAEMACHI","perfecture_jp":"北海道","jp_add_1":"上川郡新得町","jp_add_2":"栄町"},"0810036":{"post_code":"0810036","prefecture":"HOKKAIDO","city":"KAMIKAWA GUN SHINTOKU CHO","town":"SHIMOSAHORO","perfecture_jp":"北海道","jp_add_1":"上川郡新得町","jp_add_2":"下佐幌"},"0810038":{"post_code":"0810038","prefecture":"HOKKAIDO","city":"KAMIKAWA GUN SHINTOKU CHO","town":"SHINTOKU","perfecture_jp":"北海道","jp_add_1":"上川郡新得町","jp_add_2":"新得"},"0810037":{"post_code":"0810037","prefecture":"HOKKAIDO","city":"KAMIKAWA GUN SHINTOKU CHO","town":"TAKUTETSU","perfecture_jp":"北海道","jp_add_1":"上川郡新得町","jp_add_2":"拓鉄"},"0810039":{"post_code":"0810039","prefecture":"HOKKAIDO","city":"KAMIKAWA GUN SHINTOKU CHO","town":"NIINAI","perfecture_jp":"北海道","jp_add_1":"上川郡新得町","jp_add_2":"新内"},"0810031":{"post_code":"0810031","prefecture":"HOKKAIDO","city":"KAMIKAWA GUN SHINTOKU CHO","town":"NISHI1-JOMINAMI","perfecture_jp":"北海道","jp_add_1":"上川郡新得町","jp_add_2":"西一条南"},"0810021":{"post_code":"0810021","prefecture":"HOKKAIDO","city":"KAMIKAWA GUN SHINTOKU CHO","town":"NISHI1-JOKITA","perfecture_jp":"北海道","jp_add_1":"上川郡新得町","jp_add_2":"西一条北"},"0810032":{"post_code":"0810032","prefecture":"HOKKAIDO","city":"KAMIKAWA GUN SHINTOKU CHO","town":"NISHI2-JOMINAMI","perfecture_jp":"北海道","jp_add_1":"上川郡新得町","jp_add_2":"西二条南"},"0810022":{"post_code":"0810022","prefecture":"HOKKAIDO","city":"KAMIKAWA GUN SHINTOKU CHO","town":"NISHI2-JOKITA","perfecture_jp":"北海道","jp_add_1":"上川郡新得町","jp_add_2":"西二条北"},"0810033":{"post_code":"0810033","prefecture":"HOKKAIDO","city":"KAMIKAWA GUN SHINTOKU CHO","town":"NISHI3-JOMINAMI","perfecture_jp":"北海道","jp_add_1":"上川郡新得町","jp_add_2":"西三条南"},"0810023":{"post_code":"0810023","prefecture":"HOKKAIDO","city":"KAMIKAWA GUN SHINTOKU CHO","town":"NISHI3-JOKITA","perfecture_jp":"北海道","jp_add_1":"上川郡新得町","jp_add_2":"西三条北"},"0810034":{"post_code":"0810034","prefecture":"HOKKAIDO","city":"KAMIKAWA GUN SHINTOKU CHO","town":"NISHI4-JOMINAMI","perfecture_jp":"北海道","jp_add_1":"上川郡新得町","jp_add_2":"西四条南"},"0810008":{"post_code":"0810008","prefecture":"HOKKAIDO","city":"KAMIKAWA GUN SHINTOKU CHO","town":"HONDORIMINAMI","perfecture_jp":"北海道","jp_add_1":"上川郡新得町","jp_add_2":"本通南"},"0810005":{"post_code":"0810005","prefecture":"HOKKAIDO","city":"KAMIKAWA GUN SHINTOKU CHO","town":"HONDORIKITA","perfecture_jp":"北海道","jp_add_1":"上川郡新得町","jp_add_2":"本通北"},"0810007":{"post_code":"0810007","prefecture":"HOKKAIDO","city":"KAMIKAWA GUN SHINTOKU CHO","town":"MOTOMACHI","perfecture_jp":"北海道","jp_add_1":"上川郡新得町","jp_add_2":"元町"},"0810011":{"post_code":"0810011","prefecture":"HOKKAIDO","city":"KAMIKAWA GUN SHINTOKU CHO","town":"1-JOMINAMI","perfecture_jp":"北海道","jp_add_1":"上川郡新得町","jp_add_2":"一条南"},"0810001":{"post_code":"0810001","prefecture":"HOKKAIDO","city":"KAMIKAWA GUN SHINTOKU CHO","town":"1-JOKITA","perfecture_jp":"北海道","jp_add_1":"上川郡新得町","jp_add_2":"一条北"},"0810012":{"post_code":"0810012","prefecture":"HOKKAIDO","city":"KAMIKAWA GUN SHINTOKU CHO","town":"2-JOMINAMI","perfecture_jp":"北海道","jp_add_1":"上川郡新得町","jp_add_2":"二条南"},"0810002":{"post_code":"0810002","prefecture":"HOKKAIDO","city":"KAMIKAWA GUN SHINTOKU CHO","town":"2-JOKITA","perfecture_jp":"北海道","jp_add_1":"上川郡新得町","jp_add_2":"二条北"},"0810013":{"post_code":"0810013","prefecture":"HOKKAIDO","city":"KAMIKAWA GUN SHINTOKU CHO","town":"3-JOMINAMI","perfecture_jp":"北海道","jp_add_1":"上川郡新得町","jp_add_2":"三条南"},"0810003":{"post_code":"0810003","prefecture":"HOKKAIDO","city":"KAMIKAWA GUN SHINTOKU CHO","town":"3-JOKITA","perfecture_jp":"北海道","jp_add_1":"上川郡新得町","jp_add_2":"三条北"},"0810014":{"post_code":"0810014","prefecture":"HOKKAIDO","city":"KAMIKAWA GUN SHINTOKU CHO","town":"4-JOMINAMI","perfecture_jp":"北海道","jp_add_1":"上川郡新得町","jp_add_2":"四条南"},"0810015":{"post_code":"0810015","prefecture":"HOKKAIDO","city":"KAMIKAWA GUN SHINTOKU CHO","town":"5-JOMINAMI","perfecture_jp":"北海道","jp_add_1":"上川郡新得町","jp_add_2":"五条南"}}