{"0830000":{"post_code":"0830000","prefecture":"HOKKAIDO","city":"NAKAGAWA GUN IKEDA CHO","town":"IKANIKEISAIGANAIBAAI","perfecture_jp":"北海道","jp_add_1":"中川郡池田町","jp_add_2":""},"0830044":{"post_code":"0830044","prefecture":"HOKKAIDO","city":"NAKAGAWA GUN IKEDA CHO","town":"AOYAMA","perfecture_jp":"北海道","jp_add_1":"中川郡池田町","jp_add_2":"青山"},"0830001":{"post_code":"0830001","prefecture":"HOKKAIDO","city":"NAKAGAWA GUN IKEDA CHO","town":"ASAHIMACHI","perfecture_jp":"北海道","jp_add_1":"中川郡池田町","jp_add_2":"旭町"},"0830090":{"post_code":"0830090","prefecture":"HOKKAIDO","city":"NAKAGAWA GUN IKEDA CHO","town":"ODORI","perfecture_jp":"北海道","jp_add_1":"中川郡池田町","jp_add_2":"大通"},"0830020":{"post_code":"0830020","prefecture":"HOKKAIDO","city":"NAKAGAWA GUN IKEDA CHO","town":"ODORIMINAMI","perfecture_jp":"北海道","jp_add_1":"中川郡池田町","jp_add_2":"大通南"},"0830041":{"post_code":"0830041","prefecture":"HOKKAIDO","city":"NAKAGAWA GUN IKEDA CHO","town":"KAWAI","perfecture_jp":"北海道","jp_add_1":"中川郡池田町","jp_add_2":"川合"},"0830002":{"post_code":"0830002","prefecture":"HOKKAIDO","city":"NAKAGAWA GUN IKEDA CHO","town":"KIYOMI","perfecture_jp":"北海道","jp_add_1":"中川郡池田町","jp_add_2":"清見"},"0830003":{"post_code":"0830003","prefecture":"HOKKAIDO","city":"NAKAGAWA GUN IKEDA CHO","town":"KIYOMIGAOKA","perfecture_jp":"北海道","jp_add_1":"中川郡池田町","jp_add_2":"清見ケ丘"},"0830004":{"post_code":"0830004","prefecture":"HOKKAIDO","city":"NAKAGAWA GUN IKEDA CHO","town":"SAMAMAI","perfecture_jp":"北海道","jp_add_1":"中川郡池田町","jp_add_2":"様舞"},"0830047":{"post_code":"0830047","prefecture":"HOKKAIDO","city":"NAKAGAWA GUN IKEDA CHO","town":"SHOEI","perfecture_jp":"北海道","jp_add_1":"中川郡池田町","jp_add_2":"昭栄"},"0830042":{"post_code":"0830042","prefecture":"HOKKAIDO","city":"NAKAGAWA GUN IKEDA CHO","town":"CHIYODA","perfecture_jp":"北海道","jp_add_1":"中川郡池田町","jp_add_2":"千代田"},"0830046":{"post_code":"0830046","prefecture":"HOKKAIDO","city":"NAKAGAWA GUN IKEDA CHO","town":"TODAI","perfecture_jp":"北海道","jp_add_1":"中川郡池田町","jp_add_2":"東台"},"0830032":{"post_code":"0830032","prefecture":"HOKKAIDO","city":"NAKAGAWA GUN IKEDA CHO","town":"TOSHIBETSUHIGASHIMACHI","perfecture_jp":"北海道","jp_add_1":"中川郡池田町","jp_add_2":"利別東町"},"0830031":{"post_code":"0830031","prefecture":"HOKKAIDO","city":"NAKAGAWA GUN IKEDA CHO","town":"TOSHIBETSUNISHIMACHI","perfecture_jp":"北海道","jp_add_1":"中川郡池田町","jp_add_2":"利別西町"},"0830033":{"post_code":"0830033","prefecture":"HOKKAIDO","city":"NAKAGAWA GUN IKEDA CHO","town":"TOSHIBETSUMINAMIMACHI","perfecture_jp":"北海道","jp_add_1":"中川郡池田町","jp_add_2":"利別南町"},"0830034":{"post_code":"0830034","prefecture":"HOKKAIDO","city":"NAKAGAWA GUN IKEDA CHO","town":"TOSHIBETSUMOTOMACHI","perfecture_jp":"北海道","jp_add_1":"中川郡池田町","jp_add_2":"利別本町"},"0830045":{"post_code":"0830045","prefecture":"HOKKAIDO","city":"NAKAGAWA GUN IKEDA CHO","town":"TOMIOKA","perfecture_jp":"北海道","jp_add_1":"中川郡池田町","jp_add_2":"富岡"},"0830043":{"post_code":"0830043","prefecture":"HOKKAIDO","city":"NAKAGAWA GUN IKEDA CHO","town":"TOYOTA","perfecture_jp":"北海道","jp_add_1":"中川郡池田町","jp_add_2":"豊田"},"0830021":{"post_code":"0830021","prefecture":"HOKKAIDO","city":"NAKAGAWA GUN IKEDA CHO","town":"NISHI1-JO","perfecture_jp":"北海道","jp_add_1":"中川郡池田町","jp_add_2":"西一条"},"0830022":{"post_code":"0830022","prefecture":"HOKKAIDO","city":"NAKAGAWA GUN IKEDA CHO","town":"NISHI2-JO","perfecture_jp":"北海道","jp_add_1":"中川郡池田町","jp_add_2":"西二条"},"0830023":{"post_code":"0830023","prefecture":"HOKKAIDO","city":"NAKAGAWA GUN IKEDA CHO","town":"NISHI3-JO","perfecture_jp":"北海道","jp_add_1":"中川郡池田町","jp_add_2":"西三条"},"0830091":{"post_code":"0830091","prefecture":"HOKKAIDO","city":"NAKAGAWA GUN IKEDA CHO","town":"HIGASHI1-JO","perfecture_jp":"北海道","jp_add_1":"中川郡池田町","jp_add_2":"東一条"},"0830092":{"post_code":"0830092","prefecture":"HOKKAIDO","city":"NAKAGAWA GUN IKEDA CHO","town":"HIGASHI2-JO","perfecture_jp":"北海道","jp_add_1":"中川郡池田町","jp_add_2":"東二条"}}