{"0850000":{"post_code":"0850000","prefecture":"HOKKAIDO","city":"KUSHIRO SHI","town":"IKANIKEISAIGANAIBAAI","perfecture_jp":"北海道","jp_add_1":"釧路市","jp_add_2":""},"0850062":{"post_code":"0850062","prefecture":"HOKKAIDO","city":"KUSHIRO SHI","town":"AIKOKU","perfecture_jp":"北海道","jp_add_1":"釧路市","jp_add_2":"愛国"},"0850058":{"post_code":"0850058","prefecture":"HOKKAIDO","city":"KUSHIRO SHI","town":"AIKOKUHIGASHI","perfecture_jp":"北海道","jp_add_1":"釧路市","jp_add_2":"愛国東"},"0850057":{"post_code":"0850057","prefecture":"HOKKAIDO","city":"KUSHIRO SHI","town":"AIKOKUNISHI","perfecture_jp":"北海道","jp_add_1":"釧路市","jp_add_2":"愛国西"},"0850252":{"post_code":"0850252","prefecture":"HOKKAIDO","city":"KUSHIRO SHI","town":"AOYAMA","perfecture_jp":"北海道","jp_add_1":"釧路市","jp_add_2":"青山"},"0850054":{"post_code":"0850054","prefecture":"HOKKAIDO","city":"KUSHIRO SHI","town":"AKATSUKICHO","perfecture_jp":"北海道","jp_add_1":"釧路市","jp_add_2":"暁町"},"0850467":{"post_code":"0850467","prefecture":"HOKKAIDO","city":"KUSHIRO SHI","town":"AKANCHO AKANKONSEN(1-6-CHOME)","perfecture_jp":"北海道","jp_add_1":"釧路市","jp_add_2":"阿寒町阿寒湖温泉"},"0850238":{"post_code":"0850238","prefecture":"HOKKAIDO","city":"KUSHIRO SHI","town":"AKANCHO AKUBETSU","perfecture_jp":"北海道","jp_add_1":"釧路市","jp_add_2":"阿寒町飽別"},"0850212":{"post_code":"0850212","prefecture":"HOKKAIDO","city":"KUSHIRO SHI","town":"AKANCHO ASAHIMACHI","perfecture_jp":"北海道","jp_add_1":"釧路市","jp_add_2":"阿寒町旭町"},"0850468":{"post_code":"0850468","prefecture":"HOKKAIDO","city":"KUSHIRO SHI","town":"AKANCHO OKURUSHUBE","perfecture_jp":"北海道","jp_add_1":"釧路市","jp_add_2":"阿寒町オクルシュベ"},"0850245":{"post_code":"0850245","prefecture":"HOKKAIDO","city":"KUSHIRO SHI","town":"AKANCHO KAMIAKAN","perfecture_jp":"北海道","jp_add_1":"釧路市","jp_add_2":"阿寒町上阿寒"},"0850221":{"post_code":"0850221","prefecture":"HOKKAIDO","city":"KUSHIRO SHI","town":"AKANCHO KAMISHITAKARA","perfecture_jp":"北海道","jp_add_1":"釧路市","jp_add_2":"阿寒町上舌辛"},"0850235":{"post_code":"0850235","prefecture":"HOKKAIDO","city":"KUSHIRO SHI","town":"AKANCHO KAMITESHIBETSU","perfecture_jp":"北海道","jp_add_1":"釧路市","jp_add_2":"阿寒町上徹別"},"0850202":{"post_code":"0850202","prefecture":"HOKKAIDO","city":"KUSHIRO SHI","town":"AKANCHO KAMININISHIBETSU","perfecture_jp":"北海道","jp_add_1":"釧路市","jp_add_2":"阿寒町上仁々志別"},"0850216":{"post_code":"0850216","prefecture":"HOKKAIDO","city":"KUSHIRO SHI","town":"AKANCHO KITASHIMMACHI","perfecture_jp":"北海道","jp_add_1":"釧路市","jp_add_2":"阿寒町北新町"},"0850217":{"post_code":"0850217","prefecture":"HOKKAIDO","city":"KUSHIRO SHI","town":"AKANCHO KITAMACHI","perfecture_jp":"北海道","jp_add_1":"釧路市","jp_add_2":"阿寒町北町"},"0850244":{"post_code":"0850244","prefecture":"HOKKAIDO","city":"KUSHIRO SHI","town":"AKANCHO KINOKA","perfecture_jp":"北海道","jp_add_1":"釧路市","jp_add_2":"阿寒町紀ノ丘"},"0850206":{"post_code":"0850206","prefecture":"HOKKAIDO","city":"KUSHIRO SHI","town":"AKANCHO KYOWA","perfecture_jp":"北海道","jp_add_1":"釧路市","jp_add_2":"阿寒町共和"},"0850220":{"post_code":"0850220","prefecture":"HOKKAIDO","city":"KUSHIRO SHI","town":"AKANCHO SHITAKARA","perfecture_jp":"北海道","jp_add_1":"釧路市","jp_add_2":"阿寒町舌辛"},"0850211":{"post_code":"0850211","prefecture":"HOKKAIDO","city":"KUSHIRO SHI","town":"AKANCHO SHIMOSHITAKARA","perfecture_jp":"北海道","jp_add_1":"釧路市","jp_add_2":"阿寒町下舌辛"},"0850231":{"post_code":"0850231","prefecture":"HOKKAIDO","city":"KUSHIRO SHI","town":"AKANCHO SHIMOTESHIBETSU","perfecture_jp":"北海道","jp_add_1":"釧路市","jp_add_2":"阿寒町下徹別"},"0850204":{"post_code":"0850204","prefecture":"HOKKAIDO","city":"KUSHIRO SHI","town":"AKANCHO SHIMONINISHIBETSU","perfecture_jp":"北海道","jp_add_1":"釧路市","jp_add_2":"阿寒町下仁々志別"},"0850223":{"post_code":"0850223","prefecture":"HOKKAIDO","city":"KUSHIRO SHI","town":"AKANCHO SHIMOFUBUSHINAI","perfecture_jp":"北海道","jp_add_1":"釧路市","jp_add_2":"阿寒町下布伏内"},"0850218":{"post_code":"0850218","prefecture":"HOKKAIDO","city":"KUSHIRO SHI","town":"AKANCHO SHIMMACHI","perfecture_jp":"北海道","jp_add_1":"釧路市","jp_add_2":"阿寒町新町"},"0850234":{"post_code":"0850234","prefecture":"HOKKAIDO","city":"KUSHIRO SHI","town":"AKANCHO SOSHI","perfecture_jp":"北海道","jp_add_1":"釧路市","jp_add_2":"阿寒町蘇牛"},"0850232":{"post_code":"0850232","prefecture":"HOKKAIDO","city":"KUSHIRO SHI","town":"AKANCHO TAISHO","perfecture_jp":"北海道","jp_add_1":"釧路市","jp_add_2":"阿寒町大正"},"0850225":{"post_code":"0850225","prefecture":"HOKKAIDO","city":"KUSHIRO SHI","town":"AKANCHO CHICHAPPU","perfecture_jp":"北海道","jp_add_1":"釧路市","jp_add_2":"阿寒町知茶布"},"0850215":{"post_code":"0850215","prefecture":"HOKKAIDO","city":"KUSHIRO SHI","town":"AKANCHO CHUO","perfecture_jp":"北海道","jp_add_1":"釧路市","jp_add_2":"阿寒町中央"},"0850237":{"post_code":"0850237","prefecture":"HOKKAIDO","city":"KUSHIRO SHI","town":"AKANCHO TESHIBETSUCHUO","perfecture_jp":"北海道","jp_add_1":"釧路市","jp_add_2":"阿寒町徹別中央"},"0850205":{"post_code":"0850205","prefecture":"HOKKAIDO","city":"KUSHIRO SHI","town":"AKANCHO TOEI","perfecture_jp":"北海道","jp_add_1":"釧路市","jp_add_2":"阿寒町東栄"},"0850241":{"post_code":"0850241","prefecture":"HOKKAIDO","city":"KUSHIRO SHI","town":"AKANCHO NAKAAKAN","perfecture_jp":"北海道","jp_add_1":"釧路市","jp_add_2":"阿寒町中阿寒"},"0850236":{"post_code":"0850236","prefecture":"HOKKAIDO","city":"KUSHIRO SHI","town":"AKANCHO NAKATESHIBETSU","perfecture_jp":"北海道","jp_add_1":"釧路市","jp_add_2":"阿寒町中徹別"},"0850203":{"post_code":"0850203","prefecture":"HOKKAIDO","city":"KUSHIRO SHI","town":"AKANCHO NAKANINISHIBETSU","perfecture_jp":"北海道","jp_add_1":"釧路市","jp_add_2":"阿寒町中仁々志別"},"0850213":{"post_code":"0850213","prefecture":"HOKKAIDO","city":"KUSHIRO SHI","town":"AKANCHO NAKAMACHI","perfecture_jp":"北海道","jp_add_1":"釧路市","jp_add_2":"阿寒町仲町"},"0850243":{"post_code":"0850243","prefecture":"HOKKAIDO","city":"KUSHIRO SHI","town":"AKANCHO NISHIAKAN","perfecture_jp":"北海道","jp_add_1":"釧路市","jp_add_2":"阿寒町西阿寒"},"0850233":{"post_code":"0850233","prefecture":"HOKKAIDO","city":"KUSHIRO SHI","town":"AKANCHO NISHITESHIBETSU","perfecture_jp":"北海道","jp_add_1":"釧路市","jp_add_2":"阿寒町西徹別"},"0850201":{"post_code":"0850201","prefecture":"HOKKAIDO","city":"KUSHIRO SHI","town":"AKANCHO NINISHIBETSU","perfecture_jp":"北海道","jp_add_1":"釧路市","jp_add_2":"阿寒町仁々志別"},"0850242":{"post_code":"0850242","prefecture":"HOKKAIDO","city":"KUSHIRO SHI","town":"AKANCHO HIGASHISHITAKARA","perfecture_jp":"北海道","jp_add_1":"釧路市","jp_add_2":"阿寒町東舌辛"},"0850214":{"post_code":"0850214","prefecture":"HOKKAIDO","city":"KUSHIRO SHI","town":"AKANCHO FUJIMI","perfecture_jp":"北海道","jp_add_1":"釧路市","jp_add_2":"阿寒町富士見"},"0850222":{"post_code":"0850222","prefecture":"HOKKAIDO","city":"KUSHIRO SHI","town":"AKANCHO FUBUSHINAI","perfecture_jp":"北海道","jp_add_1":"釧路市","jp_add_2":"阿寒町布伏内"},"0850224":{"post_code":"0850224","prefecture":"HOKKAIDO","city":"KUSHIRO SHI","town":"AKANCHO YUBETSUYOKOYAMA","perfecture_jp":"北海道","jp_add_1":"釧路市","jp_add_2":"阿寒町雄別横山"},"0850011":{"post_code":"0850011","prefecture":"HOKKAIDO","city":"KUSHIRO SHI","town":"ASAHIMACHI","perfecture_jp":"北海道","jp_add_1":"釧路市","jp_add_2":"旭町"},"0850061":{"post_code":"0850061","prefecture":"HOKKAIDO","city":"KUSHIRO SHI","town":"ASHINO","perfecture_jp":"北海道","jp_add_1":"釧路市","jp_add_2":"芦野"},"0850008":{"post_code":"0850008","prefecture":"HOKKAIDO","city":"KUSHIRO SHI","town":"IRIECHO","perfecture_jp":"北海道","jp_add_1":"釧路市","jp_add_2":"入江町"},"0850846":{"post_code":"0850846","prefecture":"HOKKAIDO","city":"KUSHIRO SHI","town":"IRIFUNE","perfecture_jp":"北海道","jp_add_1":"釧路市","jp_add_2":"入舟"},"0850835":{"post_code":"0850835","prefecture":"HOKKAIDO","city":"KUSHIRO SHI","town":"URAMI","perfecture_jp":"北海道","jp_add_1":"釧路市","jp_add_2":"浦見"},"0850837":{"post_code":"0850837","prefecture":"HOKKAIDO","city":"KUSHIRO SHI","town":"OKAWACHO","perfecture_jp":"北海道","jp_add_1":"釧路市","jp_add_2":"大川町"},"0850847":{"post_code":"0850847","prefecture":"HOKKAIDO","city":"KUSHIRO SHI","town":"OMACHI","perfecture_jp":"北海道","jp_add_1":"釧路市","jp_add_2":"大町"},"0850811":{"post_code":"0850811","prefecture":"HOKKAIDO","city":"KUSHIRO SHI","town":"OKOTSU","perfecture_jp":"北海道","jp_add_1":"釧路市","jp_add_2":"興津"},"0850023":{"post_code":"0850023","prefecture":"HOKKAIDO","city":"KUSHIRO SHI","town":"KAIUN","perfecture_jp":"北海道","jp_add_1":"釧路市","jp_add_2":"海運"},"0850816":{"post_code":"0850816","prefecture":"HOKKAIDO","city":"KUSHIRO SHI","town":"KAIZUKA","perfecture_jp":"北海道","jp_add_1":"釧路市","jp_add_2":"貝塚"},"0850824":{"post_code":"0850824","prefecture":"HOKKAIDO","city":"KUSHIRO SHI","town":"KASHIWAGICHO","perfecture_jp":"北海道","jp_add_1":"釧路市","jp_add_2":"柏木町"},"0850041":{"post_code":"0850041","prefecture":"HOKKAIDO","city":"KUSHIRO SHI","town":"KASUGACHO","perfecture_jp":"北海道","jp_add_1":"釧路市","jp_add_2":"春日町"},"0850802":{"post_code":"0850802","prefecture":"HOKKAIDO","city":"KUSHIRO SHI","town":"KATSURAKOI","perfecture_jp":"北海道","jp_add_1":"釧路市","jp_add_2":"桂恋"},"0850012":{"post_code":"0850012","prefecture":"HOKKAIDO","city":"KUSHIRO SHI","town":"KAWAKAMICHO","perfecture_jp":"北海道","jp_add_1":"釧路市","jp_add_2":"川上町"},"0850003":{"post_code":"0850003","prefecture":"HOKKAIDO","city":"KUSHIRO SHI","town":"KAWAKITACHO","perfecture_jp":"北海道","jp_add_1":"釧路市","jp_add_2":"川北町"},"0850044":{"post_code":"0850044","prefecture":"HOKKAIDO","city":"KUSHIRO SHI","town":"KAWABATACHO","perfecture_jp":"北海道","jp_add_1":"釧路市","jp_add_2":"川端町"},"0850015":{"post_code":"0850015","prefecture":"HOKKAIDO","city":"KUSHIRO SHI","town":"KITAODORI","perfecture_jp":"北海道","jp_add_1":"釧路市","jp_add_2":"北大通"},"0850043":{"post_code":"0850043","prefecture":"HOKKAIDO","city":"KUSHIRO SHI","town":"KITACHO","perfecture_jp":"北海道","jp_add_1":"釧路市","jp_add_2":"喜多町"},"0850035":{"post_code":"0850035","prefecture":"HOKKAIDO","city":"KUSHIRO SHI","town":"KYOEIODORI","perfecture_jp":"北海道","jp_add_1":"釧路市","jp_add_2":"共栄大通"},"0850018":{"post_code":"0850018","prefecture":"HOKKAIDO","city":"KUSHIRO SHI","town":"KUROGANECHO","perfecture_jp":"北海道","jp_add_1":"釧路市","jp_add_2":"黒金町"},"0850051":{"post_code":"0850051","prefecture":"HOKKAIDO","city":"KUSHIRO SHI","town":"KOYOCHO","perfecture_jp":"北海道","jp_add_1":"釧路市","jp_add_2":"光陽町"},"0850026":{"post_code":"0850026","prefecture":"HOKKAIDO","city":"KUSHIRO SHI","town":"KOTOBUKI","perfecture_jp":"北海道","jp_add_1":"釧路市","jp_add_2":"寿"},"0850048":{"post_code":"0850048","prefecture":"HOKKAIDO","city":"KUSHIRO SHI","town":"KOMABACHO","perfecture_jp":"北海道","jp_add_1":"釧路市","jp_add_2":"駒場町"},"0850815":{"post_code":"0850815","prefecture":"HOKKAIDO","city":"KUSHIRO SHI","town":"ZAIMOKUCHO","perfecture_jp":"北海道","jp_add_1":"釧路市","jp_add_2":"材木町"},"0850017":{"post_code":"0850017","prefecture":"HOKKAIDO","city":"KUSHIRO SHI","town":"SAIWAICHO","perfecture_jp":"北海道","jp_add_1":"釧路市","jp_add_2":"幸町"},"0850013":{"post_code":"0850013","prefecture":"HOKKAIDO","city":"KUSHIRO SHI","town":"SAKAEMACHI","perfecture_jp":"北海道","jp_add_1":"釧路市","jp_add_2":"栄町"},"0850805":{"post_code":"0850805","prefecture":"HOKKAIDO","city":"KUSHIRO SHI","town":"SAKURAGAOKA","perfecture_jp":"北海道","jp_add_1":"釧路市","jp_add_2":"桜ケ岡"},"0850251":{"post_code":"0850251","prefecture":"HOKKAIDO","city":"KUSHIRO SHI","town":"SAKURADA","perfecture_jp":"北海道","jp_add_1":"釧路市","jp_add_2":"桜田"},"0850812":{"post_code":"0850812","prefecture":"HOKKAIDO","city":"KUSHIRO SHI","town":"SHIUNDAI","perfecture_jp":"北海道","jp_add_1":"釧路市","jp_add_2":"紫雲台"},"0850055":{"post_code":"0850055","prefecture":"HOKKAIDO","city":"KUSHIRO SHI","town":"JISUICHO","perfecture_jp":"北海道","jp_add_1":"釧路市","jp_add_2":"治水町"},"0850822":{"post_code":"0850822","prefecture":"HOKKAIDO","city":"KUSHIRO SHI","town":"SHUNKODAI","perfecture_jp":"北海道","jp_add_1":"釧路市","jp_add_2":"春湖台"},"0850804":{"post_code":"0850804","prefecture":"HOKKAIDO","city":"KUSHIRO SHI","town":"SHIRAKABADAI","perfecture_jp":"北海道","jp_add_1":"釧路市","jp_add_2":"白樺台"},"0850844":{"post_code":"0850844","prefecture":"HOKKAIDO","city":"KUSHIRO SHI","town":"SHIRITOCHO","perfecture_jp":"北海道","jp_add_1":"釧路市","jp_add_2":"知人町"},"0850034":{"post_code":"0850034","prefecture":"HOKKAIDO","city":"KUSHIRO SHI","town":"SHIROGANECHO","perfecture_jp":"北海道","jp_add_1":"釧路市","jp_add_2":"白金町"},"0850826":{"post_code":"0850826","prefecture":"HOKKAIDO","city":"KUSHIRO SHI","town":"SHIROYAMA","perfecture_jp":"北海道","jp_add_1":"釧路市","jp_add_2":"城山"},"0850032":{"post_code":"0850032","prefecture":"HOKKAIDO","city":"KUSHIRO SHI","town":"SHINEICHO","perfecture_jp":"北海道","jp_add_1":"釧路市","jp_add_2":"新栄町"},"0850047":{"post_code":"0850047","prefecture":"HOKKAIDO","city":"KUSHIRO SHI","town":"SHINKAWACHO","perfecture_jp":"北海道","jp_add_1":"釧路市","jp_add_2":"新川町"},"0850002":{"post_code":"0850002","prefecture":"HOKKAIDO","city":"KUSHIRO SHI","town":"SHINKUSHIROCHO","perfecture_jp":"北海道","jp_add_1":"釧路市","jp_add_2":"新釧路町"},"0850004":{"post_code":"0850004","prefecture":"HOKKAIDO","city":"KUSHIRO SHI","town":"SHINTOMICHO","perfecture_jp":"北海道","jp_add_1":"釧路市","jp_add_2":"新富町"},"0850046":{"post_code":"0850046","prefecture":"HOKKAIDO","city":"KUSHIRO SHI","town":"SHIMBASHIODORI","perfecture_jp":"北海道","jp_add_1":"釧路市","jp_add_2":"新橋大通"},"0850014":{"post_code":"0850014","prefecture":"HOKKAIDO","city":"KUSHIRO SHI","town":"SUEHIROCHO","perfecture_jp":"北海道","jp_add_1":"釧路市","jp_add_2":"末広町"},"0850045":{"post_code":"0850045","prefecture":"HOKKAIDO","city":"KUSHIRO SHI","town":"SUMINOECHO","perfecture_jp":"北海道","jp_add_1":"釧路市","jp_add_2":"住之江町"},"0850831":{"post_code":"0850831","prefecture":"HOKKAIDO","city":"KUSHIRO SHI","town":"SUMIYOSHI","perfecture_jp":"北海道","jp_add_1":"釧路市","jp_add_2":"住吉"},"0850807":{"post_code":"0850807","prefecture":"HOKKAIDO","city":"KUSHIRO SHI","town":"TAKAYAMA","perfecture_jp":"北海道","jp_add_1":"釧路市","jp_add_2":"高山"},"0850025":{"post_code":"0850025","prefecture":"HOKKAIDO","city":"KUSHIRO SHI","town":"TAKARAMACHI","perfecture_jp":"北海道","jp_add_1":"釧路市","jp_add_2":"宝町"},"0850825":{"post_code":"0850825","prefecture":"HOKKAIDO","city":"KUSHIRO SHI","town":"CHITOSECHO","perfecture_jp":"北海道","jp_add_1":"釧路市","jp_add_2":"千歳町"},"0850823":{"post_code":"0850823","prefecture":"HOKKAIDO","city":"KUSHIRO SHI","town":"CHIYONORA","perfecture_jp":"北海道","jp_add_1":"釧路市","jp_add_2":"千代ノ浦"},"0850821":{"post_code":"0850821","prefecture":"HOKKAIDO","city":"KUSHIRO SHI","town":"TSURUGADAI","perfecture_jp":"北海道","jp_add_1":"釧路市","jp_add_2":"鶴ケ岱"},"0850053":{"post_code":"0850053","prefecture":"HOKKAIDO","city":"KUSHIRO SHI","town":"TOYOKAWACHO","perfecture_jp":"北海道","jp_add_1":"釧路市","jp_add_2":"豊川町"},"0850031":{"post_code":"0850031","prefecture":"HOKKAIDO","city":"KUSHIRO SHI","town":"NAKAJIMACHO","perfecture_jp":"北海道","jp_add_1":"釧路市","jp_add_2":"中島町"},"0850052":{"post_code":"0850052","prefecture":"HOKKAIDO","city":"KUSHIRO SHI","town":"NAKAZONOCHO","perfecture_jp":"北海道","jp_add_1":"釧路市","jp_add_2":"中園町"},"0850027":{"post_code":"0850027","prefecture":"HOKKAIDO","city":"KUSHIRO SHI","town":"NAKAHAMACHO","perfecture_jp":"北海道","jp_add_1":"釧路市","jp_add_2":"仲浜町"},"0850021":{"post_code":"0850021","prefecture":"HOKKAIDO","city":"KUSHIRO SHI","town":"NANIWACHO","perfecture_jp":"北海道","jp_add_1":"釧路市","jp_add_2":"浪花町"},"0850016":{"post_code":"0850016","prefecture":"HOKKAIDO","city":"KUSHIRO SHI","town":"NISHIKICHO","perfecture_jp":"北海道","jp_add_1":"釧路市","jp_add_2":"錦町"},"0850836":{"post_code":"0850836","prefecture":"HOKKAIDO","city":"KUSHIRO SHI","town":"NUSAMAICHO","perfecture_jp":"北海道","jp_add_1":"釧路市","jp_add_2":"幣舞町"},"0850038":{"post_code":"0850038","prefecture":"HOKKAIDO","city":"KUSHIRO SHI","town":"HANAZONOCHO","perfecture_jp":"北海道","jp_add_1":"釧路市","jp_add_2":"花園町"},"0850024":{"post_code":"0850024","prefecture":"HOKKAIDO","city":"KUSHIRO SHI","town":"HAMACHO","perfecture_jp":"北海道","jp_add_1":"釧路市","jp_add_2":"浜町"},"0850813":{"post_code":"0850813","prefecture":"HOKKAIDO","city":"KUSHIRO SHI","town":"HARUTORI","perfecture_jp":"北海道","jp_add_1":"釧路市","jp_add_2":"春採"},"0850056":{"post_code":"0850056","prefecture":"HOKKAIDO","city":"KUSHIRO SHI","town":"HIGASHIKAWACHO","perfecture_jp":"北海道","jp_add_1":"釧路市","jp_add_2":"東川町"},"0850064":{"post_code":"0850064","prefecture":"HOKKAIDO","city":"KUSHIRO SHI","town":"HIROSATO","perfecture_jp":"北海道","jp_add_1":"釧路市","jp_add_2":"広里"},"0850832":{"post_code":"0850832","prefecture":"HOKKAIDO","city":"KUSHIRO SHI","town":"FUJIMI","perfecture_jp":"北海道","jp_add_1":"釧路市","jp_add_2":"富士見"},"0850006":{"post_code":"0850006","prefecture":"HOKKAIDO","city":"KUSHIRO SHI","town":"FUTABACHO","perfecture_jp":"北海道","jp_add_1":"釧路市","jp_add_2":"双葉町"},"0850063":{"post_code":"0850063","prefecture":"HOKKAIDO","city":"KUSHIRO SHI","town":"FUMIZONO","perfecture_jp":"北海道","jp_add_1":"釧路市","jp_add_2":"文苑"},"0850001":{"post_code":"0850001","prefecture":"HOKKAIDO","city":"KUSHIRO SHI","town":"FURUKAWACHO","perfecture_jp":"北海道","jp_add_1":"釧路市","jp_add_2":"古川町"},"0850843":{"post_code":"0850843","prefecture":"HOKKAIDO","city":"KUSHIRO SHI","town":"BENTENGAHAMA","perfecture_jp":"北海道","jp_add_1":"釧路市","jp_add_2":"弁天ケ浜"},"0850007":{"post_code":"0850007","prefecture":"HOKKAIDO","city":"KUSHIRO SHI","town":"HORIKAWACHO","perfecture_jp":"北海道","jp_add_1":"釧路市","jp_add_2":"堀川町"},"0850803":{"post_code":"0850803","prefecture":"HOKKAIDO","city":"KUSHIRO SHI","town":"MASURA","perfecture_jp":"北海道","jp_add_1":"釧路市","jp_add_2":"益浦"},"0850005":{"post_code":"0850005","prefecture":"HOKKAIDO","city":"KUSHIRO SHI","town":"MATSURACHO","perfecture_jp":"北海道","jp_add_1":"釧路市","jp_add_2":"松浦町"},"0850801":{"post_code":"0850801","prefecture":"HOKKAIDO","city":"KUSHIRO SHI","town":"MITSURA","perfecture_jp":"北海道","jp_add_1":"釧路市","jp_add_2":"三津浦"},"0850814":{"post_code":"0850814","prefecture":"HOKKAIDO","city":"KUSHIRO SHI","town":"MIDORIGAOKA","perfecture_jp":"北海道","jp_add_1":"釧路市","jp_add_2":"緑ケ岡"},"0850845":{"post_code":"0850845","prefecture":"HOKKAIDO","city":"KUSHIRO SHI","town":"MINATOMACHI","perfecture_jp":"北海道","jp_add_1":"釧路市","jp_add_2":"港町"},"0850841":{"post_code":"0850841","prefecture":"HOKKAIDO","city":"KUSHIRO SHI","town":"MINAMIODORI","perfecture_jp":"北海道","jp_add_1":"釧路市","jp_add_2":"南大通"},"0850022":{"post_code":"0850022","prefecture":"HOKKAIDO","city":"KUSHIRO SHI","town":"MINAMIHAMACHO","perfecture_jp":"北海道","jp_add_1":"釧路市","jp_add_2":"南浜町"},"0850065":{"post_code":"0850065","prefecture":"HOKKAIDO","city":"KUSHIRO SHI","town":"MIHARA","perfecture_jp":"北海道","jp_add_1":"釧路市","jp_add_2":"美原"},"0850833":{"post_code":"0850833","prefecture":"HOKKAIDO","city":"KUSHIRO SHI","town":"MIYAMOTO","perfecture_jp":"北海道","jp_add_1":"釧路市","jp_add_2":"宮本"},"0850806":{"post_code":"0850806","prefecture":"HOKKAIDO","city":"KUSHIRO SHI","town":"MUSA","perfecture_jp":"北海道","jp_add_1":"釧路市","jp_add_2":"武佐"},"0850037":{"post_code":"0850037","prefecture":"HOKKAIDO","city":"KUSHIRO SHI","town":"YANAGIMACHI","perfecture_jp":"北海道","jp_add_1":"釧路市","jp_add_2":"柳町"},"0850834":{"post_code":"0850834","prefecture":"HOKKAIDO","city":"KUSHIRO SHI","town":"YAYOI","perfecture_jp":"北海道","jp_add_1":"釧路市","jp_add_2":"弥生"},"0850842":{"post_code":"0850842","prefecture":"HOKKAIDO","city":"KUSHIRO SHI","town":"YONEMACHI","perfecture_jp":"北海道","jp_add_1":"釧路市","jp_add_2":"米町"},"0850042":{"post_code":"0850042","prefecture":"HOKKAIDO","city":"KUSHIRO SHI","town":"WAKAKUSACHO","perfecture_jp":"北海道","jp_add_1":"釧路市","jp_add_2":"若草町"},"0850036":{"post_code":"0850036","prefecture":"HOKKAIDO","city":"KUSHIRO SHI","town":"WAKATAKECHO","perfecture_jp":"北海道","jp_add_1":"釧路市","jp_add_2":"若竹町"},"0850033":{"post_code":"0850033","prefecture":"HOKKAIDO","city":"KUSHIRO SHI","town":"WAKAMATSUCHO","perfecture_jp":"北海道","jp_add_1":"釧路市","jp_add_2":"若松町"},"0852271":{"post_code":"0852271","prefecture":"HOKKAIDO","city":"KUSHIRO GUN KUSHIRO CHO","town":"ATOEKAMURA","perfecture_jp":"北海道","jp_add_1":"釧路郡釧路町","jp_add_2":"跡永賀村"},"0852272":{"post_code":"0852272","prefecture":"HOKKAIDO","city":"KUSHIRO GUN KUSHIRO CHO","town":"KOMBUMORI","perfecture_jp":"北海道","jp_add_1":"釧路郡釧路町","jp_add_2":"昆布森"},"0852273":{"post_code":"0852273","prefecture":"HOKKAIDO","city":"KUSHIRO GUN KUSHIRO CHO","town":"KOMBUMORIMURA","perfecture_jp":"北海道","jp_add_1":"釧路郡釧路町","jp_add_2":"昆布森村"},"0851200":{"post_code":"0851200","prefecture":"HOKKAIDO","city":"AKAN GUN TSURUI MURA","town":"IKANIKEISAIGANAIBAAI","perfecture_jp":"北海道","jp_add_1":"阿寒郡鶴居村","jp_add_2":""},"0851146":{"post_code":"0851146","prefecture":"HOKKAIDO","city":"AKAN GUN TSURUI MURA","town":"ATOKOSHARAKA","perfecture_jp":"北海道","jp_add_1":"阿寒郡鶴居村","jp_add_2":"アトコシヤラカ"},"0851145":{"post_code":"0851145","prefecture":"HOKKAIDO","city":"AKAN GUN TSURUI MURA","town":"ONNENAI","perfecture_jp":"北海道","jp_add_1":"阿寒郡鶴居村","jp_add_2":"温根内"},"0851132":{"post_code":"0851132","prefecture":"HOKKAIDO","city":"AKAN GUN TSURUI MURA","town":"KAMIHORORO","perfecture_jp":"北海道","jp_add_1":"阿寒郡鶴居村","jp_add_2":"上幌呂"},"0851212":{"post_code":"0851212","prefecture":"HOKKAIDO","city":"AKAN GUN TSURUI MURA","town":"SHISETSURI","perfecture_jp":"北海道","jp_add_1":"阿寒郡鶴居村","jp_add_2":"支雪裡"},"0851133":{"post_code":"0851133","prefecture":"HOKKAIDO","city":"AKAN GUN TSURUI MURA","town":"SHIHORORO","perfecture_jp":"北海道","jp_add_1":"阿寒郡鶴居村","jp_add_2":"支幌呂"},"0851262":{"post_code":"0851262","prefecture":"HOKKAIDO","city":"AKAN GUN TSURUI MURA","town":"SHIMOKUCHORO","perfecture_jp":"北海道","jp_add_1":"阿寒郡鶴居村","jp_add_2":"下久著呂"},"0851211":{"post_code":"0851211","prefecture":"HOKKAIDO","city":"AKAN GUN TSURUI MURA","town":"SHIMOSETSURI","perfecture_jp":"北海道","jp_add_1":"阿寒郡鶴居村","jp_add_2":"下雪裡"},"0851144":{"post_code":"0851144","prefecture":"HOKKAIDO","city":"AKAN GUN TSURUI MURA","town":"SHIMOHORORO","perfecture_jp":"北海道","jp_add_1":"阿寒郡鶴居村","jp_add_2":"下幌呂"},"0851131":{"post_code":"0851131","prefecture":"HOKKAIDO","city":"AKAN GUN TSURUI MURA","town":"SHINHORORO","perfecture_jp":"北海道","jp_add_1":"阿寒郡鶴居村","jp_add_2":"新幌呂"},"0851206":{"post_code":"0851206","prefecture":"HOKKAIDO","city":"AKAN GUN TSURUI MURA","town":"TSURUIHIGASHI","perfecture_jp":"北海道","jp_add_1":"阿寒郡鶴居村","jp_add_2":"鶴居東"},"0851203":{"post_code":"0851203","prefecture":"HOKKAIDO","city":"AKAN GUN TSURUI MURA","town":"TSURUINISHI","perfecture_jp":"北海道","jp_add_1":"阿寒郡鶴居村","jp_add_2":"鶴居西"},"0851204":{"post_code":"0851204","prefecture":"HOKKAIDO","city":"AKAN GUN TSURUI MURA","town":"TSURUIMINAMI","perfecture_jp":"北海道","jp_add_1":"阿寒郡鶴居村","jp_add_2":"鶴居南"},"0851201":{"post_code":"0851201","prefecture":"HOKKAIDO","city":"AKAN GUN TSURUI MURA","town":"TSURUIKITA","perfecture_jp":"北海道","jp_add_1":"阿寒郡鶴居村","jp_add_2":"鶴居北"},"0851261":{"post_code":"0851261","prefecture":"HOKKAIDO","city":"AKAN GUN TSURUI MURA","town":"NAKAKUCHORO","perfecture_jp":"北海道","jp_add_1":"阿寒郡鶴居村","jp_add_2":"中久著呂"},"0851207":{"post_code":"0851207","prefecture":"HOKKAIDO","city":"AKAN GUN TSURUI MURA","town":"NAKASETSURI(HIGASHI)","perfecture_jp":"北海道","jp_add_1":"阿寒郡鶴居村","jp_add_2":"中雪裡"},"0851202":{"post_code":"0851202","prefecture":"HOKKAIDO","city":"AKAN GUN TSURUI MURA","town":"NAKASETSURI(NISHI)","perfecture_jp":"北海道","jp_add_1":"阿寒郡鶴居村","jp_add_2":"中雪裡"},"0851205":{"post_code":"0851205","prefecture":"HOKKAIDO","city":"AKAN GUN TSURUI MURA","town":"NAKASETSURI(MINAMI)","perfecture_jp":"北海道","jp_add_1":"阿寒郡鶴居村","jp_add_2":"中雪裡"},"0851143":{"post_code":"0851143","prefecture":"HOKKAIDO","city":"AKAN GUN TSURUI MURA","town":"NAKAHORORO","perfecture_jp":"北海道","jp_add_1":"阿寒郡鶴居村","jp_add_2":"中幌呂"},"0851147":{"post_code":"0851147","prefecture":"HOKKAIDO","city":"AKAN GUN TSURUI MURA","town":"HORORO","perfecture_jp":"北海道","jp_add_1":"阿寒郡鶴居村","jp_add_2":"幌呂"},"0851142":{"post_code":"0851142","prefecture":"HOKKAIDO","city":"AKAN GUN TSURUI MURA","town":"HOROROHIGASHI","perfecture_jp":"北海道","jp_add_1":"阿寒郡鶴居村","jp_add_2":"幌呂東"},"0851141":{"post_code":"0851141","prefecture":"HOKKAIDO","city":"AKAN GUN TSURUI MURA","town":"HORORONISHI","perfecture_jp":"北海道","jp_add_1":"阿寒郡鶴居村","jp_add_2":"幌呂西"},"0851213":{"post_code":"0851213","prefecture":"HOKKAIDO","city":"AKAN GUN TSURUI MURA","town":"MOSETSURI","perfecture_jp":"北海道","jp_add_1":"阿寒郡鶴居村","jp_add_2":"茂雪裡"},"0851134":{"post_code":"0851134","prefecture":"HOKKAIDO","city":"AKAN GUN TSURUI MURA","town":"MOHORORO","perfecture_jp":"北海道","jp_add_1":"阿寒郡鶴居村","jp_add_2":"茂幌呂"}}