{"0870000":{"post_code":"0870000","prefecture":"HOKKAIDO","city":"NEMURO SHI","town":"IKANIKEISAIGANAIBAAI","perfecture_jp":"北海道","jp_add_1":"根室市","jp_add_2":""},"0870006":{"post_code":"0870006","prefecture":"HOKKAIDO","city":"NEMURO SHI","town":"AKEBONOCHO","perfecture_jp":"北海道","jp_add_1":"根室市","jp_add_2":"曙町"},"0870014":{"post_code":"0870014","prefecture":"HOKKAIDO","city":"NEMURO SHI","town":"ASAHICHO","perfecture_jp":"北海道","jp_add_1":"根室市","jp_add_2":"朝日町"},"0870008":{"post_code":"0870008","prefecture":"HOKKAIDO","city":"NEMURO SHI","town":"ARIISOCHO","perfecture_jp":"北海道","jp_add_1":"根室市","jp_add_2":"有磯町"},"0870052":{"post_code":"0870052","prefecture":"HOKKAIDO","city":"NEMURO SHI","town":"UMEGAECHO","perfecture_jp":"北海道","jp_add_1":"根室市","jp_add_2":"梅ケ枝町"},"0870035":{"post_code":"0870035","prefecture":"HOKKAIDO","city":"NEMURO SHI","town":"ONNETO","perfecture_jp":"北海道","jp_add_1":"根室市","jp_add_2":"温根沼"},"0870166":{"post_code":"0870166","prefecture":"HOKKAIDO","city":"NEMURO SHI","town":"ONNEMOTO","perfecture_jp":"北海道","jp_add_1":"根室市","jp_add_2":"温根元"},"0870054":{"post_code":"0870054","prefecture":"HOKKAIDO","city":"NEMURO SHI","town":"KAIGANCHO","perfecture_jp":"北海道","jp_add_1":"根室市","jp_add_2":"海岸町"},"0870023":{"post_code":"0870023","prefecture":"HOKKAIDO","city":"NEMURO SHI","town":"KATSURAGI","perfecture_jp":"北海道","jp_add_1":"根室市","jp_add_2":"桂木"},"0870001":{"post_code":"0870001","prefecture":"HOKKAIDO","city":"NEMURO SHI","town":"KITAHAMACHO","perfecture_jp":"北海道","jp_add_1":"根室市","jp_add_2":"北浜町"},"0870042":{"post_code":"0870042","prefecture":"HOKKAIDO","city":"NEMURO SHI","town":"KIYOTAKACHO","perfecture_jp":"北海道","jp_add_1":"根室市","jp_add_2":"清隆町"},"0870004":{"post_code":"0870004","prefecture":"HOKKAIDO","city":"NEMURO SHI","town":"KOYOCHO","perfecture_jp":"北海道","jp_add_1":"根室市","jp_add_2":"光洋町"},"0870027":{"post_code":"0870027","prefecture":"HOKKAIDO","city":"NEMURO SHI","town":"KOWACHO","perfecture_jp":"北海道","jp_add_1":"根室市","jp_add_2":"光和町"},"0870055":{"post_code":"0870055","prefecture":"HOKKAIDO","city":"NEMURO SHI","town":"KOTOHIRACHO","perfecture_jp":"北海道","jp_add_1":"根室市","jp_add_2":"琴平町"},"0870012":{"post_code":"0870012","prefecture":"HOKKAIDO","city":"NEMURO SHI","town":"KOMABACHO","perfecture_jp":"北海道","jp_add_1":"根室市","jp_add_2":"駒場町"},"0870164":{"post_code":"0870164","prefecture":"HOKKAIDO","city":"NEMURO SHI","town":"GOYOMAI","perfecture_jp":"北海道","jp_add_1":"根室市","jp_add_2":"珸瑤瑁"},"0870021":{"post_code":"0870021","prefecture":"HOKKAIDO","city":"NEMURO SHI","town":"SAIWAICHO","perfecture_jp":"北海道","jp_add_1":"根室市","jp_add_2":"幸町"},"0870010":{"post_code":"0870010","prefecture":"HOKKAIDO","city":"NEMURO SHI","town":"SAKAECHO","perfecture_jp":"北海道","jp_add_1":"根室市","jp_add_2":"栄町"},"0870047":{"post_code":"0870047","prefecture":"HOKKAIDO","city":"NEMURO SHI","town":"SADAMOTOCHO","perfecture_jp":"北海道","jp_add_1":"根室市","jp_add_2":"定基町"},"0870019":{"post_code":"0870019","prefecture":"HOKKAIDO","city":"NEMURO SHI","town":"SHIOMICHO","perfecture_jp":"北海道","jp_add_1":"根室市","jp_add_2":"汐見町"},"0870026":{"post_code":"0870026","prefecture":"HOKKAIDO","city":"NEMURO SHI","town":"SHIKISHIMACHO","perfecture_jp":"北海道","jp_add_1":"根室市","jp_add_2":"敷島町"},"0870022":{"post_code":"0870022","prefecture":"HOKKAIDO","city":"NEMURO SHI","town":"SHOWACHO","perfecture_jp":"北海道","jp_add_1":"根室市","jp_add_2":"昭和町"},"0870028":{"post_code":"0870028","prefecture":"HOKKAIDO","city":"NEMURO SHI","town":"TAISHOCHO","perfecture_jp":"北海道","jp_add_1":"根室市","jp_add_2":"大正町"},"0870005":{"post_code":"0870005","prefecture":"HOKKAIDO","city":"NEMURO SHI","town":"TAKARACHO","perfecture_jp":"北海道","jp_add_1":"根室市","jp_add_2":"宝町"},"0870018":{"post_code":"0870018","prefecture":"HOKKAIDO","city":"NEMURO SHI","town":"CHISHIMACHO","perfecture_jp":"北海道","jp_add_1":"根室市","jp_add_2":"千島町"},"0870031":{"post_code":"0870031","prefecture":"HOKKAIDO","city":"NEMURO SHI","town":"TSUKIOKACHO","perfecture_jp":"北海道","jp_add_1":"根室市","jp_add_2":"月岡町"},"0870007":{"post_code":"0870007","prefecture":"HOKKAIDO","city":"NEMURO SHI","town":"TSUKIMICHO","perfecture_jp":"北海道","jp_add_1":"根室市","jp_add_2":"月見町"},"0870041":{"post_code":"0870041","prefecture":"HOKKAIDO","city":"NEMURO SHI","town":"TOKIWACHO","perfecture_jp":"北海道","jp_add_1":"根室市","jp_add_2":"常盤町"},"0870161":{"post_code":"0870161","prefecture":"HOKKAIDO","city":"NEMURO SHI","town":"TOMOSHIRI","perfecture_jp":"北海道","jp_add_1":"根室市","jp_add_2":"友知"},"0870167":{"post_code":"0870167","prefecture":"HOKKAIDO","city":"NEMURO SHI","town":"TOYOSATO","perfecture_jp":"北海道","jp_add_1":"根室市","jp_add_2":"豊里"},"0870017":{"post_code":"0870017","prefecture":"HOKKAIDO","city":"NEMURO SHI","town":"NARUMICHO","perfecture_jp":"北海道","jp_add_1":"根室市","jp_add_2":"鳴海町"},"0870025":{"post_code":"0870025","prefecture":"HOKKAIDO","city":"NEMURO SHI","town":"NISHIHAMACHO","perfecture_jp":"北海道","jp_add_1":"根室市","jp_add_2":"西浜町"},"0870033":{"post_code":"0870033","prefecture":"HOKKAIDO","city":"NEMURO SHI","town":"NISHIWADA","perfecture_jp":"北海道","jp_add_1":"根室市","jp_add_2":"西和田"},"0870165":{"post_code":"0870165","prefecture":"HOKKAIDO","city":"NEMURO SHI","town":"NOSAPPU","perfecture_jp":"北海道","jp_add_1":"根室市","jp_add_2":"納沙布"},"0870015":{"post_code":"0870015","prefecture":"HOKKAIDO","city":"NEMURO SHI","town":"HANASAKICHO","perfecture_jp":"北海道","jp_add_1":"根室市","jp_add_2":"花咲町"},"0870032":{"post_code":"0870032","prefecture":"HOKKAIDO","city":"NEMURO SHI","town":"HANASAKIMINATO","perfecture_jp":"北海道","jp_add_1":"根室市","jp_add_2":"花咲港"},"0870045":{"post_code":"0870045","prefecture":"HOKKAIDO","city":"NEMURO SHI","town":"HANAZONOCHO","perfecture_jp":"北海道","jp_add_1":"根室市","jp_add_2":"花園町"},"0870163":{"post_code":"0870163","prefecture":"HOKKAIDO","city":"NEMURO SHI","town":"HABOMAI","perfecture_jp":"北海道","jp_add_1":"根室市","jp_add_2":"歯舞"},"0870034":{"post_code":"0870034","prefecture":"HOKKAIDO","city":"NEMURO SHI","town":"HIGASHIWADA","perfecture_jp":"北海道","jp_add_1":"根室市","jp_add_2":"東和田"},"0870162":{"post_code":"0870162","prefecture":"HOKKAIDO","city":"NEMURO SHI","town":"FUTAOKI","perfecture_jp":"北海道","jp_add_1":"根室市","jp_add_2":"双沖"},"0870048":{"post_code":"0870048","prefecture":"HOKKAIDO","city":"NEMURO SHI","town":"HEINAICHO","perfecture_jp":"北海道","jp_add_1":"根室市","jp_add_2":"平内町"},"0870011":{"post_code":"0870011","prefecture":"HOKKAIDO","city":"NEMURO SHI","town":"BENTENCHO","perfecture_jp":"北海道","jp_add_1":"根室市","jp_add_2":"弁天町"},"0870024":{"post_code":"0870024","prefecture":"HOKKAIDO","city":"NEMURO SHI","town":"HORINCHO","perfecture_jp":"北海道","jp_add_1":"根室市","jp_add_2":"宝林町"},"0870043":{"post_code":"0870043","prefecture":"HOKKAIDO","city":"NEMURO SHI","town":"HOKUTOCHO","perfecture_jp":"北海道","jp_add_1":"根室市","jp_add_2":"北斗町"},"0870037":{"post_code":"0870037","prefecture":"HOKKAIDO","city":"NEMURO SHI","town":"HONIOI","perfecture_jp":"北海道","jp_add_1":"根室市","jp_add_2":"穂香"},"0870036":{"post_code":"0870036","prefecture":"HOKKAIDO","city":"NEMURO SHI","town":"HOROMOSHIRI","perfecture_jp":"北海道","jp_add_1":"根室市","jp_add_2":"幌茂尻"},"0870053":{"post_code":"0870053","prefecture":"HOKKAIDO","city":"NEMURO SHI","town":"HONCHO","perfecture_jp":"北海道","jp_add_1":"根室市","jp_add_2":"本町"},"0870002":{"post_code":"0870002","prefecture":"HOKKAIDO","city":"NEMURO SHI","town":"MAKINOCHI","perfecture_jp":"北海道","jp_add_1":"根室市","jp_add_2":"牧の内"},"0870016":{"post_code":"0870016","prefecture":"HOKKAIDO","city":"NEMURO SHI","town":"MATSUGAECHO","perfecture_jp":"北海道","jp_add_1":"根室市","jp_add_2":"松ケ枝町"},"0870044":{"post_code":"0870044","prefecture":"HOKKAIDO","city":"NEMURO SHI","town":"MATSUMOTOCHO","perfecture_jp":"北海道","jp_add_1":"根室市","jp_add_2":"松本町"},"0870046":{"post_code":"0870046","prefecture":"HOKKAIDO","city":"NEMURO SHI","town":"MISAKICHO","perfecture_jp":"北海道","jp_add_1":"根室市","jp_add_2":"岬町"},"0870051":{"post_code":"0870051","prefecture":"HOKKAIDO","city":"NEMURO SHI","town":"MIDORICHO","perfecture_jp":"北海道","jp_add_1":"根室市","jp_add_2":"緑町"},"0870003":{"post_code":"0870003","prefecture":"HOKKAIDO","city":"NEMURO SHI","town":"MEIJICHO","perfecture_jp":"北海道","jp_add_1":"根室市","jp_add_2":"明治町"},"0870009":{"post_code":"0870009","prefecture":"HOKKAIDO","city":"NEMURO SHI","town":"YASAKAECHO","perfecture_jp":"北海道","jp_add_1":"根室市","jp_add_2":"弥栄町"},"0870049":{"post_code":"0870049","prefecture":"HOKKAIDO","city":"NEMURO SHI","town":"YAYOICHO","perfecture_jp":"北海道","jp_add_1":"根室市","jp_add_2":"弥生町"}}