{"0891181":{"post_code":"0891181","prefecture":"HOKKAIDO","city":"OBIHIRO SHI","town":"AIKOKUCHO","perfecture_jp":"北海道","jp_add_1":"帯広市","jp_add_2":"愛国町"},"0891245":{"post_code":"0891245","prefecture":"HOKKAIDO","city":"OBIHIRO SHI","town":"IZUMICHO","perfecture_jp":"北海道","jp_add_1":"帯広市","jp_add_2":"泉町"},"0891244":{"post_code":"0891244","prefecture":"HOKKAIDO","city":"OBIHIRO SHI","town":"ITAIRACHO","perfecture_jp":"北海道","jp_add_1":"帯広市","jp_add_2":"以平町"},"0891182":{"post_code":"0891182","prefecture":"HOKKAIDO","city":"OBIHIRO SHI","town":"KAWANISHICHO","perfecture_jp":"北海道","jp_add_1":"帯広市","jp_add_2":"川西町"},"0891246":{"post_code":"0891246","prefecture":"HOKKAIDO","city":"OBIHIRO SHI","town":"KOFUKUCHO","perfecture_jp":"北海道","jp_add_1":"帯広市","jp_add_2":"幸福町"},"0891243":{"post_code":"0891243","prefecture":"HOKKAIDO","city":"OBIHIRO SHI","town":"SAKURAGICHO","perfecture_jp":"北海道","jp_add_1":"帯広市","jp_add_2":"桜木町"},"0891247":{"post_code":"0891247","prefecture":"HOKKAIDO","city":"OBIHIRO SHI","town":"SHOWACHO","perfecture_jp":"北海道","jp_add_1":"帯広市","jp_add_2":"昭和町"},"0891242":{"post_code":"0891242","prefecture":"HOKKAIDO","city":"OBIHIRO SHI","town":"TAISHOCHO","perfecture_jp":"北海道","jp_add_1":"帯広市","jp_add_2":"大正町"},"0891241":{"post_code":"0891241","prefecture":"HOKKAIDO","city":"OBIHIRO SHI","town":"TAISHOHONCHO","perfecture_jp":"北海道","jp_add_1":"帯広市","jp_add_2":"大正本町"},"0891183":{"post_code":"0891183","prefecture":"HOKKAIDO","city":"OBIHIRO SHI","town":"TOYONISHICHO","perfecture_jp":"北海道","jp_add_1":"帯広市","jp_add_2":"豊西町"},"0891252":{"post_code":"0891252","prefecture":"HOKKAIDO","city":"OBIHIRO SHI","town":"NAKAJIMACHO","perfecture_jp":"北海道","jp_add_1":"帯広市","jp_add_2":"中島町"},"0891251":{"post_code":"0891251","prefecture":"HOKKAIDO","city":"OBIHIRO SHI","town":"FUJICHO(SONOTA)","perfecture_jp":"北海道","jp_add_1":"帯広市","jp_add_2":"富士町"},"0891184":{"post_code":"0891184","prefecture":"HOKKAIDO","city":"OBIHIRO SHI","town":"BEPPUCHO","perfecture_jp":"北海道","jp_add_1":"帯広市","jp_add_2":"別府町"},"0890100":{"post_code":"0890100","prefecture":"HOKKAIDO","city":"KAMIKAWA GUN SHIMIZU CHO","town":"IKANIKEISAIGANAIBAAI","perfecture_jp":"北海道","jp_add_1":"上川郡清水町","jp_add_2":""},"0890355":{"post_code":"0890355","prefecture":"HOKKAIDO","city":"KAMIKAWA GUN SHIMIZU CHO","town":"ASAHIYAMA","perfecture_jp":"北海道","jp_add_1":"上川郡清水町","jp_add_2":"旭山"},"0890243":{"post_code":"0890243","prefecture":"HOKKAIDO","city":"KAMIKAWA GUN SHIMIZU CHO","town":"KAMISHIKARIBETSU","perfecture_jp":"北海道","jp_add_1":"上川郡清水町","jp_add_2":"上然別"},"0890135":{"post_code":"0890135","prefecture":"HOKKAIDO","city":"KAMIKAWA GUN SHIMIZU CHO","town":"KITA1-JO","perfecture_jp":"北海道","jp_add_1":"上川郡清水町","jp_add_2":"北一条"},"0890134":{"post_code":"0890134","prefecture":"HOKKAIDO","city":"KAMIKAWA GUN SHIMIZU CHO","town":"KITA2-JO","perfecture_jp":"北海道","jp_add_1":"上川郡清水町","jp_add_2":"北二条"},"0890133":{"post_code":"0890133","prefecture":"HOKKAIDO","city":"KAMIKAWA GUN SHIMIZU CHO","town":"KITA3-JO","perfecture_jp":"北海道","jp_add_1":"上川郡清水町","jp_add_2":"北三条"},"0890132":{"post_code":"0890132","prefecture":"HOKKAIDO","city":"KAMIKAWA GUN SHIMIZU CHO","town":"KITA4-JO","perfecture_jp":"北海道","jp_add_1":"上川郡清水町","jp_add_2":"北四条"},"0890131":{"post_code":"0890131","prefecture":"HOKKAIDO","city":"KAMIKAWA GUN SHIMIZU CHO","town":"KITA5-JO","perfecture_jp":"北海道","jp_add_1":"上川郡清水町","jp_add_2":"北五条"},"0890124":{"post_code":"0890124","prefecture":"HOKKAIDO","city":"KAMIKAWA GUN SHIMIZU CHO","town":"KITA1-JONISHI","perfecture_jp":"北海道","jp_add_1":"上川郡清水町","jp_add_2":"北一条西"},"0890123":{"post_code":"0890123","prefecture":"HOKKAIDO","city":"KAMIKAWA GUN SHIMIZU CHO","town":"KITA2-JONISHI","perfecture_jp":"北海道","jp_add_1":"上川郡清水町","jp_add_2":"北二条西"},"0890122":{"post_code":"0890122","prefecture":"HOKKAIDO","city":"KAMIKAWA GUN SHIMIZU CHO","town":"KITA3-JONISHI","perfecture_jp":"北海道","jp_add_1":"上川郡清水町","jp_add_2":"北三条西"},"0890121":{"post_code":"0890121","prefecture":"HOKKAIDO","city":"KAMIKAWA GUN SHIMIZU CHO","town":"KITA4-JONISHI","perfecture_jp":"北海道","jp_add_1":"上川郡清水町","jp_add_2":"北四条西"},"0890241":{"post_code":"0890241","prefecture":"HOKKAIDO","city":"KAMIKAWA GUN SHIMIZU CHO","town":"KUMAUSHI","perfecture_jp":"北海道","jp_add_1":"上川郡清水町","jp_add_2":"熊牛"},"0890103":{"post_code":"0890103","prefecture":"HOKKAIDO","city":"KAMIKAWA GUN SHIMIZU CHO","town":"SHIMIZU","perfecture_jp":"北海道","jp_add_1":"上川郡清水町","jp_add_2":"清水"},"0890102":{"post_code":"0890102","prefecture":"HOKKAIDO","city":"KAMIKAWA GUN SHIMIZU CHO","town":"SHIMOSAHORO","perfecture_jp":"北海道","jp_add_1":"上川郡清水町","jp_add_2":"下佐幌"},"0890356":{"post_code":"0890356","prefecture":"HOKKAIDO","city":"KAMIKAWA GUN SHIMIZU CHO","town":"HAOBI","perfecture_jp":"北海道","jp_add_1":"上川郡清水町","jp_add_2":"羽帯"},"0890101":{"post_code":"0890101","prefecture":"HOKKAIDO","city":"KAMIKAWA GUN SHIMIZU CHO","town":"HITOMAI","perfecture_jp":"北海道","jp_add_1":"上川郡清水町","jp_add_2":"人舞"},"0890242":{"post_code":"0890242","prefecture":"HOKKAIDO","city":"KAMIKAWA GUN SHIMIZU CHO","town":"BIMAN","perfecture_jp":"北海道","jp_add_1":"上川郡清水町","jp_add_2":"美蔓"},"0890136":{"post_code":"0890136","prefecture":"HOKKAIDO","city":"KAMIKAWA GUN SHIMIZU CHO","town":"HONDORI","perfecture_jp":"北海道","jp_add_1":"上川郡清水町","jp_add_2":"本通"},"0890125":{"post_code":"0890125","prefecture":"HOKKAIDO","city":"KAMIKAWA GUN SHIMIZU CHO","town":"HONDORINISHI","perfecture_jp":"北海道","jp_add_1":"上川郡清水町","jp_add_2":"本通西"},"0890357":{"post_code":"0890357","prefecture":"HOKKAIDO","city":"KAMIKAWA GUN SHIMIZU CHO","town":"MIKAGE","perfecture_jp":"北海道","jp_add_1":"上川郡清水町","jp_add_2":"御影"},"0890351":{"post_code":"0890351","prefecture":"HOKKAIDO","city":"KAMIKAWA GUN SHIMIZU CHO","town":"MIKAGENISHI1-JO","perfecture_jp":"北海道","jp_add_1":"上川郡清水町","jp_add_2":"御影西一条"},"0890352":{"post_code":"0890352","prefecture":"HOKKAIDO","city":"KAMIKAWA GUN SHIMIZU CHO","town":"MIKAGENISHI2-JO","perfecture_jp":"北海道","jp_add_1":"上川郡清水町","jp_add_2":"御影西二条"},"0890353":{"post_code":"0890353","prefecture":"HOKKAIDO","city":"KAMIKAWA GUN SHIMIZU CHO","town":"MIKAGENISHI3-JO","perfecture_jp":"北海道","jp_add_1":"上川郡清水町","jp_add_2":"御影西三条"},"0890371":{"post_code":"0890371","prefecture":"HOKKAIDO","city":"KAMIKAWA GUN SHIMIZU CHO","town":"MIKAGEHIGASHI1-JO","perfecture_jp":"北海道","jp_add_1":"上川郡清水町","jp_add_2":"御影東一条"},"0890372":{"post_code":"0890372","prefecture":"HOKKAIDO","city":"KAMIKAWA GUN SHIMIZU CHO","town":"MIKAGEHIGASHI2-JO","perfecture_jp":"北海道","jp_add_1":"上川郡清水町","jp_add_2":"御影東二条"},"0890373":{"post_code":"0890373","prefecture":"HOKKAIDO","city":"KAMIKAWA GUN SHIMIZU CHO","town":"MIKAGEHIGASHI3-JO","perfecture_jp":"北海道","jp_add_1":"上川郡清水町","jp_add_2":"御影東三条"},"0890374":{"post_code":"0890374","prefecture":"HOKKAIDO","city":"KAMIKAWA GUN SHIMIZU CHO","town":"MIKAGEHIGASHI4-JO","perfecture_jp":"北海道","jp_add_1":"上川郡清水町","jp_add_2":"御影東四条"},"0890375":{"post_code":"0890375","prefecture":"HOKKAIDO","city":"KAMIKAWA GUN SHIMIZU CHO","town":"MIKAGEHIGASHI5-JO","perfecture_jp":"北海道","jp_add_1":"上川郡清水町","jp_add_2":"御影東五条"},"0890376":{"post_code":"0890376","prefecture":"HOKKAIDO","city":"KAMIKAWA GUN SHIMIZU CHO","town":"MIKAGEHIGASHI6-JO","perfecture_jp":"北海道","jp_add_1":"上川郡清水町","jp_add_2":"御影東六条"},"0890377":{"post_code":"0890377","prefecture":"HOKKAIDO","city":"KAMIKAWA GUN SHIMIZU CHO","town":"MIKAGEHIGASHI7-JO","perfecture_jp":"北海道","jp_add_1":"上川郡清水町","jp_add_2":"御影東七条"},"0890378":{"post_code":"0890378","prefecture":"HOKKAIDO","city":"KAMIKAWA GUN SHIMIZU CHO","town":"MIKAGEHIGASHI8-JO","perfecture_jp":"北海道","jp_add_1":"上川郡清水町","jp_add_2":"御影東八条"},"0890361":{"post_code":"0890361","prefecture":"HOKKAIDO","city":"KAMIKAWA GUN SHIMIZU CHO","town":"MIKAGEHIGASHI1-JOMINAMI","perfecture_jp":"北海道","jp_add_1":"上川郡清水町","jp_add_2":"御影東一条南"},"0890362":{"post_code":"0890362","prefecture":"HOKKAIDO","city":"KAMIKAWA GUN SHIMIZU CHO","town":"MIKAGEHIGASHI2-JOMINAMI","perfecture_jp":"北海道","jp_add_1":"上川郡清水町","jp_add_2":"御影東二条南"},"0890363":{"post_code":"0890363","prefecture":"HOKKAIDO","city":"KAMIKAWA GUN SHIMIZU CHO","town":"MIKAGEHIGASHI3-JOMINAMI","perfecture_jp":"北海道","jp_add_1":"上川郡清水町","jp_add_2":"御影東三条南"},"0890354":{"post_code":"0890354","prefecture":"HOKKAIDO","city":"KAMIKAWA GUN SHIMIZU CHO","town":"MIKAGEHONDORI","perfecture_jp":"北海道","jp_add_1":"上川郡清水町","jp_add_2":"御影本通"},"0890137":{"post_code":"0890137","prefecture":"HOKKAIDO","city":"KAMIKAWA GUN SHIMIZU CHO","town":"MINAMI1-JO","perfecture_jp":"北海道","jp_add_1":"上川郡清水町","jp_add_2":"南一条"},"0890138":{"post_code":"0890138","prefecture":"HOKKAIDO","city":"KAMIKAWA GUN SHIMIZU CHO","town":"MINAMI2-JO","perfecture_jp":"北海道","jp_add_1":"上川郡清水町","jp_add_2":"南二条"},"0890111":{"post_code":"0890111","prefecture":"HOKKAIDO","city":"KAMIKAWA GUN SHIMIZU CHO","town":"MINAMI3-JO","perfecture_jp":"北海道","jp_add_1":"上川郡清水町","jp_add_2":"南三条"},"0890112":{"post_code":"0890112","prefecture":"HOKKAIDO","city":"KAMIKAWA GUN SHIMIZU CHO","town":"MINAMI4-JO","perfecture_jp":"北海道","jp_add_1":"上川郡清水町","jp_add_2":"南四条"},"0890113":{"post_code":"0890113","prefecture":"HOKKAIDO","city":"KAMIKAWA GUN SHIMIZU CHO","town":"MINAMI5-JO","perfecture_jp":"北海道","jp_add_1":"上川郡清水町","jp_add_2":"南五条"},"0890114":{"post_code":"0890114","prefecture":"HOKKAIDO","city":"KAMIKAWA GUN SHIMIZU CHO","town":"MINAMI6-JO","perfecture_jp":"北海道","jp_add_1":"上川郡清水町","jp_add_2":"南六条"},"0890115":{"post_code":"0890115","prefecture":"HOKKAIDO","city":"KAMIKAWA GUN SHIMIZU CHO","town":"MINAMI7-JO","perfecture_jp":"北海道","jp_add_1":"上川郡清水町","jp_add_2":"南七条"},"0890116":{"post_code":"0890116","prefecture":"HOKKAIDO","city":"KAMIKAWA GUN SHIMIZU CHO","town":"MINAMI8-JO","perfecture_jp":"北海道","jp_add_1":"上川郡清水町","jp_add_2":"南八条"},"0890117":{"post_code":"0890117","prefecture":"HOKKAIDO","city":"KAMIKAWA GUN SHIMIZU CHO","town":"MINAMI9-JO","perfecture_jp":"北海道","jp_add_1":"上川郡清水町","jp_add_2":"南九条"},"0890118":{"post_code":"0890118","prefecture":"HOKKAIDO","city":"KAMIKAWA GUN SHIMIZU CHO","town":"MINAMI10-JO","perfecture_jp":"北海道","jp_add_1":"上川郡清水町","jp_add_2":"南十条"},"0890126":{"post_code":"0890126","prefecture":"HOKKAIDO","city":"KAMIKAWA GUN SHIMIZU CHO","town":"MINAMI1-JONISHI","perfecture_jp":"北海道","jp_add_1":"上川郡清水町","jp_add_2":"南一条西"},"0890127":{"post_code":"0890127","prefecture":"HOKKAIDO","city":"KAMIKAWA GUN SHIMIZU CHO","town":"MINAMI2-JONISHI","perfecture_jp":"北海道","jp_add_1":"上川郡清水町","jp_add_2":"南二条西"},"0890104":{"post_code":"0890104","prefecture":"HOKKAIDO","city":"KAMIKAWA GUN SHIMIZU CHO","town":"MINAMI3-JONISHI","perfecture_jp":"北海道","jp_add_1":"上川郡清水町","jp_add_2":"南三条西"},"0890105":{"post_code":"0890105","prefecture":"HOKKAIDO","city":"KAMIKAWA GUN SHIMIZU CHO","town":"MINAMI4-JONISHI","perfecture_jp":"北海道","jp_add_1":"上川郡清水町","jp_add_2":"南四条西"},"0890106":{"post_code":"0890106","prefecture":"HOKKAIDO","city":"KAMIKAWA GUN SHIMIZU CHO","town":"MINAMI5-JONISHI","perfecture_jp":"北海道","jp_add_1":"上川郡清水町","jp_add_2":"南五条西"},"0890107":{"post_code":"0890107","prefecture":"HOKKAIDO","city":"KAMIKAWA GUN SHIMIZU CHO","town":"MINAMI6-JONISHI","perfecture_jp":"北海道","jp_add_1":"上川郡清水町","jp_add_2":"南六条西"},"0891300":{"post_code":"0891300","prefecture":"HOKKAIDO","city":"KASAI GUN NAKASATSUNAI MURA","town":"IKANIKEISAIGANAIBAAI","perfecture_jp":"北海道","jp_add_1":"河西郡中札内村","jp_add_2":""},"0891330":{"post_code":"0891330","prefecture":"HOKKAIDO","city":"KASAI GUN NAKASATSUNAI MURA","town":"ODORIMINAMI","perfecture_jp":"北海道","jp_add_1":"河西郡中札内村","jp_add_2":"大通南"},"0891310":{"post_code":"0891310","prefecture":"HOKKAIDO","city":"KASAI GUN NAKASATSUNAI MURA","town":"ODORIKITA","perfecture_jp":"北海道","jp_add_1":"河西郡中札内村","jp_add_2":"大通北"},"0891371":{"post_code":"0891371","prefecture":"HOKKAIDO","city":"KASAI GUN NAKASATSUNAI MURA","town":"KAMISATSUNAI","perfecture_jp":"北海道","jp_add_1":"河西郡中札内村","jp_add_2":"上札内"},"0891364":{"post_code":"0891364","prefecture":"HOKKAIDO","city":"KASAI GUN NAKASATSUNAI MURA","town":"KYOEI","perfecture_jp":"北海道","jp_add_1":"河西郡中札内村","jp_add_2":"共栄"},"0891365":{"post_code":"0891365","prefecture":"HOKKAIDO","city":"KASAI GUN NAKASATSUNAI MURA","town":"KYOWA","perfecture_jp":"北海道","jp_add_1":"河西郡中札内村","jp_add_2":"協和"},"0891363":{"post_code":"0891363","prefecture":"HOKKAIDO","city":"KASAI GUN NAKASATSUNAI MURA","town":"KOWA","perfecture_jp":"北海道","jp_add_1":"河西郡中札内村","jp_add_2":"興和"},"0891366":{"post_code":"0891366","prefecture":"HOKKAIDO","city":"KASAI GUN NAKASATSUNAI MURA","town":"SAKAE","perfecture_jp":"北海道","jp_add_1":"河西郡中札内村","jp_add_2":"栄"},"0891354":{"post_code":"0891354","prefecture":"HOKKAIDO","city":"KASAI GUN NAKASATSUNAI MURA","town":"SHINSATSUNAI","perfecture_jp":"北海道","jp_add_1":"河西郡中札内村","jp_add_2":"新札内"},"0891355":{"post_code":"0891355","prefecture":"HOKKAIDO","city":"KASAI GUN NAKASATSUNAI MURA","town":"SHINSATSUNAIMINAMI","perfecture_jp":"北海道","jp_add_1":"河西郡中札内村","jp_add_2":"新札内南"},"0891362":{"post_code":"0891362","prefecture":"HOKKAIDO","city":"KASAI GUN NAKASATSUNAI MURA","town":"SHINSEI","perfecture_jp":"北海道","jp_add_1":"河西郡中札内村","jp_add_2":"新生"},"0891367":{"post_code":"0891367","prefecture":"HOKKAIDO","city":"KASAI GUN NAKASATSUNAI MURA","town":"TOKIWAKISEN","perfecture_jp":"北海道","jp_add_1":"河西郡中札内村","jp_add_2":"常盤基線"},"0891325":{"post_code":"0891325","prefecture":"HOKKAIDO","city":"KASAI GUN NAKASATSUNAI MURA","town":"NAKASATSUNAIKISEN","perfecture_jp":"北海道","jp_add_1":"河西郡中札内村","jp_add_2":"中札内基線"},"0891313":{"post_code":"0891313","prefecture":"HOKKAIDO","city":"KASAI GUN NAKASATSUNAI MURA","town":"NAKASATSUNAINISHI","perfecture_jp":"北海道","jp_add_1":"河西郡中札内村","jp_add_2":"中札内西"},"0891352":{"post_code":"0891352","prefecture":"HOKKAIDO","city":"KASAI GUN NAKASATSUNAI MURA","town":"NAKATOTSUTA","perfecture_jp":"北海道","jp_add_1":"河西郡中札内村","jp_add_2":"中戸蔦"},"0891356":{"post_code":"0891356","prefecture":"HOKKAIDO","city":"KASAI GUN NAKASATSUNAI MURA","town":"NISHISATSUNAI","perfecture_jp":"北海道","jp_add_1":"河西郡中札内村","jp_add_2":"西札内"},"0891353":{"post_code":"0891353","prefecture":"HOKKAIDO","city":"KASAI GUN NAKASATSUNAI MURA","town":"NISHITOTSUTA","perfecture_jp":"北海道","jp_add_1":"河西郡中札内村","jp_add_2":"西戸蔦"},"0891331":{"post_code":"0891331","prefecture":"HOKKAIDO","city":"KASAI GUN NAKASATSUNAI MURA","town":"NISHI1-JO MINAMI","perfecture_jp":"北海道","jp_add_1":"河西郡中札内村","jp_add_2":"西一条南"},"0891311":{"post_code":"0891311","prefecture":"HOKKAIDO","city":"KASAI GUN NAKASATSUNAI MURA","town":"NISHI1-JO KITA","perfecture_jp":"北海道","jp_add_1":"河西郡中札内村","jp_add_2":"西一条北"},"0891332":{"post_code":"0891332","prefecture":"HOKKAIDO","city":"KASAI GUN NAKASATSUNAI MURA","town":"NISHI2-JO MINAMI","perfecture_jp":"北海道","jp_add_1":"河西郡中札内村","jp_add_2":"西二条南"},"0891312":{"post_code":"0891312","prefecture":"HOKKAIDO","city":"KASAI GUN NAKASATSUNAI MURA","town":"NISHI2-JO KITA","perfecture_jp":"北海道","jp_add_1":"河西郡中札内村","jp_add_2":"西二条北"},"0891351":{"post_code":"0891351","prefecture":"HOKKAIDO","city":"KASAI GUN NAKASATSUNAI MURA","town":"HIGASHITOTSUTA","perfecture_jp":"北海道","jp_add_1":"河西郡中札内村","jp_add_2":"東戸蔦"},"0891341":{"post_code":"0891341","prefecture":"HOKKAIDO","city":"KASAI GUN NAKASATSUNAI MURA","town":"HIGASHI1-JO MINAMI","perfecture_jp":"北海道","jp_add_1":"河西郡中札内村","jp_add_2":"東一条南"},"0891321":{"post_code":"0891321","prefecture":"HOKKAIDO","city":"KASAI GUN NAKASATSUNAI MURA","town":"HIGASHI1-JO KITA","perfecture_jp":"北海道","jp_add_1":"河西郡中札内村","jp_add_2":"東一条北"},"0891342":{"post_code":"0891342","prefecture":"HOKKAIDO","city":"KASAI GUN NAKASATSUNAI MURA","town":"HIGASHI2-JO MINAMI","perfecture_jp":"北海道","jp_add_1":"河西郡中札内村","jp_add_2":"東二条南"},"0891322":{"post_code":"0891322","prefecture":"HOKKAIDO","city":"KASAI GUN NAKASATSUNAI MURA","town":"HIGASHI2-JO KITA","perfecture_jp":"北海道","jp_add_1":"河西郡中札内村","jp_add_2":"東二条北"},"0891343":{"post_code":"0891343","prefecture":"HOKKAIDO","city":"KASAI GUN NAKASATSUNAI MURA","town":"HIGASHI3-JO MINAMI","perfecture_jp":"北海道","jp_add_1":"河西郡中札内村","jp_add_2":"東三条南"},"0891323":{"post_code":"0891323","prefecture":"HOKKAIDO","city":"KASAI GUN NAKASATSUNAI MURA","town":"HIGASHI3-JO KITA","perfecture_jp":"北海道","jp_add_1":"河西郡中札内村","jp_add_2":"東三条北"},"0891344":{"post_code":"0891344","prefecture":"HOKKAIDO","city":"KASAI GUN NAKASATSUNAI MURA","town":"HIGASHI4-JO MINAMI","perfecture_jp":"北海道","jp_add_1":"河西郡中札内村","jp_add_2":"東四条南"},"0891324":{"post_code":"0891324","prefecture":"HOKKAIDO","city":"KASAI GUN NAKASATSUNAI MURA","town":"HIGASHI4-JO KITA","perfecture_jp":"北海道","jp_add_1":"河西郡中札内村","jp_add_2":"東四条北"},"0891345":{"post_code":"0891345","prefecture":"HOKKAIDO","city":"KASAI GUN NAKASATSUNAI MURA","town":"HIGASHI5-JO MINAMI","perfecture_jp":"北海道","jp_add_1":"河西郡中札内村","jp_add_2":"東五条南"},"0891374":{"post_code":"0891374","prefecture":"HOKKAIDO","city":"KASAI GUN NAKASATSUNAI MURA","town":"MINAMISATSUNAI","perfecture_jp":"北海道","jp_add_1":"河西郡中札内村","jp_add_2":"南札内"},"0891368":{"post_code":"0891368","prefecture":"HOKKAIDO","city":"KASAI GUN NAKASATSUNAI MURA","town":"MINAMITOKIWA","perfecture_jp":"北海道","jp_add_1":"河西郡中札内村","jp_add_2":"南常盤"},"0891372":{"post_code":"0891372","prefecture":"HOKKAIDO","city":"KASAI GUN NAKASATSUNAI MURA","town":"MOTOSATSUNAI","perfecture_jp":"北海道","jp_add_1":"河西郡中札内村","jp_add_2":"元札内"},"0891373":{"post_code":"0891373","prefecture":"HOKKAIDO","city":"KASAI GUN NAKASATSUNAI MURA","town":"MOTOSARABETSU","perfecture_jp":"北海道","jp_add_1":"河西郡中札内村","jp_add_2":"元更別"},"0891361":{"post_code":"0891361","prefecture":"HOKKAIDO","city":"KASAI GUN NAKASATSUNAI MURA","town":"MOTOTAISHO","perfecture_jp":"北海道","jp_add_1":"河西郡中札内村","jp_add_2":"元大正"},"0891500":{"post_code":"0891500","prefecture":"HOKKAIDO","city":"KASAI GUN SARABETSU MURA","town":"IKANIKEISAIGANAIBAAI","perfecture_jp":"北海道","jp_add_1":"河西郡更別村","jp_add_2":""},"0891531":{"post_code":"0891531","prefecture":"HOKKAIDO","city":"KASAI GUN SARABETSU MURA","town":"AKEBONOCHO","perfecture_jp":"北海道","jp_add_1":"河西郡更別村","jp_add_2":"曙町"},"0891551":{"post_code":"0891551","prefecture":"HOKKAIDO","city":"KASAI GUN SARABETSU MURA","town":"ASAHIKU","perfecture_jp":"北海道","jp_add_1":"河西郡更別村","jp_add_2":"旭区"},"0891571":{"post_code":"0891571","prefecture":"HOKKAIDO","city":"KASAI GUN SARABETSU MURA","town":"KAGAWAKU","perfecture_jp":"北海道","jp_add_1":"河西郡更別村","jp_add_2":"香川区"},"0891511":{"post_code":"0891511","prefecture":"HOKKAIDO","city":"KASAI GUN SARABETSU MURA","town":"KASHIWAMACHI","perfecture_jp":"北海道","jp_add_1":"河西郡更別村","jp_add_2":"柏町"},"0891581":{"post_code":"0891581","prefecture":"HOKKAIDO","city":"KASAI GUN SARABETSU MURA","town":"KAMISARABETSU(MINAMIKU)","perfecture_jp":"北海道","jp_add_1":"河西郡更別村","jp_add_2":"上更別"},"0891583":{"post_code":"0891583","prefecture":"HOKKAIDO","city":"KASAI GUN SARABETSU MURA","town":"KAMISARABETSU(1-KU)","perfecture_jp":"北海道","jp_add_1":"河西郡更別村","jp_add_2":"上更別"},"0891561":{"post_code":"0891561","prefecture":"HOKKAIDO","city":"KASAI GUN SARABETSU MURA","town":"KITASARABETSUKU","perfecture_jp":"北海道","jp_add_1":"河西郡更別村","jp_add_2":"北更別区"},"0891582":{"post_code":"0891582","prefecture":"HOKKAIDO","city":"KASAI GUN SARABETSU MURA","town":"KYOWAKU","perfecture_jp":"北海道","jp_add_1":"河西郡更別村","jp_add_2":"協和区"},"0891572":{"post_code":"0891572","prefecture":"HOKKAIDO","city":"KASAI GUN SARABETSU MURA","town":"KOSEIKU","perfecture_jp":"北海道","jp_add_1":"河西郡更別村","jp_add_2":"更生区"},"0891541":{"post_code":"0891541","prefecture":"HOKKAIDO","city":"KASAI GUN SARABETSU MURA","town":"KONAN","perfecture_jp":"北海道","jp_add_1":"河西郡更別村","jp_add_2":"更南"},"0891573":{"post_code":"0891573","prefecture":"HOKKAIDO","city":"KASAI GUN SARABETSU MURA","town":"TOEI","perfecture_jp":"北海道","jp_add_1":"河西郡更別村","jp_add_2":"弘和"},"0891542":{"post_code":"0891542","prefecture":"HOKKAIDO","city":"KASAI GUN SARABETSU MURA","town":"SARABETSU(KU)","perfecture_jp":"北海道","jp_add_1":"河西郡更別村","jp_add_2":"更別"},"0891562":{"post_code":"0891562","prefecture":"HOKKAIDO","city":"KASAI GUN SARABETSU MURA","town":"SARABETSU(HIGASHIKU)","perfecture_jp":"北海道","jp_add_1":"河西郡更別村","jp_add_2":"更別"},"0891543":{"post_code":"0891543","prefecture":"HOKKAIDO","city":"KASAI GUN SARABETSU MURA","town":"SHOWAKU","perfecture_jp":"北海道","jp_add_1":"河西郡更別村","jp_add_2":"昭和区"},"0891501":{"post_code":"0891501","prefecture":"HOKKAIDO","city":"KASAI GUN SARABETSU MURA","town":"SHINEICHO","perfecture_jp":"北海道","jp_add_1":"河西郡更別村","jp_add_2":"新栄町"},"0891552":{"post_code":"0891552","prefecture":"HOKKAIDO","city":"KASAI GUN SARABETSU MURA","town":"SEO","perfecture_jp":"北海道","jp_add_1":"河西郡更別村","jp_add_2":"勢雄"},"0891512":{"post_code":"0891512","prefecture":"HOKKAIDO","city":"KASAI GUN SARABETSU MURA","town":"CHUOCHO","perfecture_jp":"北海道","jp_add_1":"河西郡更別村","jp_add_2":"中央町"},"0891521":{"post_code":"0891521","prefecture":"HOKKAIDO","city":"KASAI GUN SARABETSU MURA","town":"NISHIKIMACHI","perfecture_jp":"北海道","jp_add_1":"河西郡更別村","jp_add_2":"錦町"},"0891502":{"post_code":"0891502","prefecture":"HOKKAIDO","city":"KASAI GUN SARABETSU MURA","town":"HANAZONOCHO","perfecture_jp":"北海道","jp_add_1":"河西郡更別村","jp_add_2":"花園町"},"0891553":{"post_code":"0891553","prefecture":"HOKKAIDO","city":"KASAI GUN SARABETSU MURA","town":"HEIWAKU","perfecture_jp":"北海道","jp_add_1":"河西郡更別村","jp_add_2":"平和区"},"0891513":{"post_code":"0891513","prefecture":"HOKKAIDO","city":"KASAI GUN SARABETSU MURA","town":"HONCHO","perfecture_jp":"北海道","jp_add_1":"河西郡更別村","jp_add_2":"本町"},"0891532":{"post_code":"0891532","prefecture":"HOKKAIDO","city":"KASAI GUN SARABETSU MURA","town":"MIDORIMACHI","perfecture_jp":"北海道","jp_add_1":"河西郡更別村","jp_add_2":"緑町"},"0891563":{"post_code":"0891563","prefecture":"HOKKAIDO","city":"KASAI GUN SARABETSU MURA","town":"MINAMISARABETSUKU","perfecture_jp":"北海道","jp_add_1":"河西郡更別村","jp_add_2":"南更別区"},"0891522":{"post_code":"0891522","prefecture":"HOKKAIDO","city":"KASAI GUN SARABETSU MURA","town":"WAKABACHO","perfecture_jp":"北海道","jp_add_1":"河西郡更別村","jp_add_2":"若葉町"},"0892100":{"post_code":"0892100","prefecture":"HOKKAIDO","city":"HIRO GUN TAIKI CHO","town":"IKANIKEISAIGANAIBAAI","perfecture_jp":"北海道","jp_add_1":"広尾郡大樹町","jp_add_2":""},"0892262":{"post_code":"0892262","prefecture":"HOKKAIDO","city":"HIRO GUN TAIKI CHO","town":"AIKAWA","perfecture_jp":"北海道","jp_add_1":"広尾郡大樹町","jp_add_2":"相川"},"0892145":{"post_code":"0892145","prefecture":"HOKKAIDO","city":"HIRO GUN TAIKI CHO","town":"AKATSUKICHO","perfecture_jp":"北海道","jp_add_1":"広尾郡大樹町","jp_add_2":"暁町"},"0892121":{"post_code":"0892121","prefecture":"HOKKAIDO","city":"HIRO GUN TAIKI CHO","town":"ASAHIHAMA","perfecture_jp":"北海道","jp_add_1":"広尾郡大樹町","jp_add_2":"旭浜"},"0892125":{"post_code":"0892125","prefecture":"HOKKAIDO","city":"HIRO GUN TAIKI CHO","town":"ISHIZAKA","perfecture_jp":"北海道","jp_add_1":"広尾郡大樹町","jp_add_2":"石坂"},"0892261":{"post_code":"0892261","prefecture":"HOKKAIDO","city":"HIRO GUN TAIKI CHO","town":"TOYOSATO","perfecture_jp":"北海道","jp_add_1":"広尾郡大樹町","jp_add_2":"尾田"},"0892126":{"post_code":"0892126","prefecture":"HOKKAIDO","city":"HIRO GUN TAIKI CHO","town":"KAISHIN","perfecture_jp":"北海道","jp_add_1":"広尾郡大樹町","jp_add_2":"開進"},"0892147":{"post_code":"0892147","prefecture":"HOKKAIDO","city":"HIRO GUN TAIKI CHO","town":"KAGAMICHO","perfecture_jp":"北海道","jp_add_1":"広尾郡大樹町","jp_add_2":"鏡町"},"0892138":{"post_code":"0892138","prefecture":"HOKKAIDO","city":"HIRO GUN TAIKI CHO","town":"KASHIWAGICHO","perfecture_jp":"北海道","jp_add_1":"広尾郡大樹町","jp_add_2":"柏木町"},"0892103":{"post_code":"0892103","prefecture":"HOKKAIDO","city":"HIRO GUN TAIKI CHO","town":"KAMITAIKI","perfecture_jp":"北海道","jp_add_1":"広尾郡大樹町","jp_add_2":"上大樹"},"0892123":{"post_code":"0892123","prefecture":"HOKKAIDO","city":"HIRO GUN TAIKI CHO","town":"KAMINAKAJIMA","perfecture_jp":"北海道","jp_add_1":"広尾郡大樹町","jp_add_2":"上中島"},"0892111":{"post_code":"0892111","prefecture":"HOKKAIDO","city":"HIRO GUN TAIKI CHO","town":"KAMIMOIWA","perfecture_jp":"北海道","jp_add_1":"広尾郡大樹町","jp_add_2":"上萠和"},"0892137":{"post_code":"0892137","prefecture":"HOKKAIDO","city":"HIRO GUN TAIKI CHO","town":"KITADORI","perfecture_jp":"北海道","jp_add_1":"広尾郡大樹町","jp_add_2":"北通"},"0892151":{"post_code":"0892151","prefecture":"HOKKAIDO","city":"HIRO GUN TAIKI CHO","town":"KOKODORI","perfecture_jp":"北海道","jp_add_1":"広尾郡大樹町","jp_add_2":"高校通"},"0892117":{"post_code":"0892117","prefecture":"HOKKAIDO","city":"HIRO GUN TAIKI CHO","town":"KOSEI","perfecture_jp":"北海道","jp_add_1":"広尾郡大樹町","jp_add_2":"更生"},"0892271":{"post_code":"0892271","prefecture":"HOKKAIDO","city":"HIRO GUN TAIKI CHO","town":"KOCHIEN","perfecture_jp":"北海道","jp_add_1":"広尾郡大樹町","jp_add_2":"光地園"},"0892272":{"post_code":"0892272","prefecture":"HOKKAIDO","city":"HIRO GUN TAIKI CHO","town":"SUMIYOSHI","perfecture_jp":"北海道","jp_add_1":"広尾郡大樹町","jp_add_2":"幸徳"},"0892146":{"post_code":"0892146","prefecture":"HOKKAIDO","city":"HIRO GUN TAIKI CHO","town":"KOTOBUKIDORI","perfecture_jp":"北海道","jp_add_1":"広尾郡大樹町","jp_add_2":"寿通"},"0892154":{"post_code":"0892154","prefecture":"HOKKAIDO","city":"HIRO GUN TAIKI CHO","town":"SAIWAICHO","perfecture_jp":"北海道","jp_add_1":"広尾郡大樹町","jp_add_2":"幸町"},"0892140":{"post_code":"0892140","prefecture":"HOKKAIDO","city":"HIRO GUN TAIKI CHO","town":"SAKAEDORI","perfecture_jp":"北海道","jp_add_1":"広尾郡大樹町","jp_add_2":"栄通"},"0892106":{"post_code":"0892106","prefecture":"HOKKAIDO","city":"HIRO GUN TAIKI CHO","town":"SHIMOTAIKI","perfecture_jp":"北海道","jp_add_1":"広尾郡大樹町","jp_add_2":"下大樹"},"0892114":{"post_code":"0892114","prefecture":"HOKKAIDO","city":"HIRO GUN TAIKI CHO","town":"SHIMOMEMU","perfecture_jp":"北海道","jp_add_1":"広尾郡大樹町","jp_add_2":"下芽武"},"0892136":{"post_code":"0892136","prefecture":"HOKKAIDO","city":"HIRO GUN TAIKI CHO","town":"SHINDORI","perfecture_jp":"北海道","jp_add_1":"広尾郡大樹町","jp_add_2":"新通"},"0891881":{"post_code":"0891881","prefecture":"HOKKAIDO","city":"HIRO GUN TAIKI CHO","town":"SEIKA","perfecture_jp":"北海道","jp_add_1":"広尾郡大樹町","jp_add_2":"生花"},"0892105":{"post_code":"0892105","prefecture":"HOKKAIDO","city":"HIRO GUN TAIKI CHO","town":"TAIKI","perfecture_jp":"北海道","jp_add_1":"広尾郡大樹町","jp_add_2":"大樹"},"0892273":{"post_code":"0892273","prefecture":"HOKKAIDO","city":"HIRO GUN TAIKI CHO","town":"TAIZEN","perfecture_jp":"北海道","jp_add_1":"広尾郡大樹町","jp_add_2":"大光"},"0892263":{"post_code":"0892263","prefecture":"HOKKAIDO","city":"HIRO GUN TAIKI CHO","town":"TAKUSHIN","perfecture_jp":"北海道","jp_add_1":"広尾郡大樹町","jp_add_2":"拓進"},"0892101":{"post_code":"0892101","prefecture":"HOKKAIDO","city":"HIRO GUN TAIKI CHO","town":"TOWA","perfecture_jp":"北海道","jp_add_1":"広尾郡大樹町","jp_add_2":"東和"},"0892122":{"post_code":"0892122","prefecture":"HOKKAIDO","city":"HIRO GUN TAIKI CHO","town":"NAKAJIMA","perfecture_jp":"北海道","jp_add_1":"広尾郡大樹町","jp_add_2":"中島"},"0892104":{"post_code":"0892104","prefecture":"HOKKAIDO","city":"HIRO GUN TAIKI CHO","town":"NAKATAIKI","perfecture_jp":"北海道","jp_add_1":"広尾郡大樹町","jp_add_2":"中大樹"},"0892133":{"post_code":"0892133","prefecture":"HOKKAIDO","city":"HIRO GUN TAIKI CHO","town":"NAKADORI","perfecture_jp":"北海道","jp_add_1":"広尾郡大樹町","jp_add_2":"仲通"},"0892152":{"post_code":"0892152","prefecture":"HOKKAIDO","city":"HIRO GUN TAIKI CHO","town":"NISHIHONDORI","perfecture_jp":"北海道","jp_add_1":"広尾郡大樹町","jp_add_2":"西本通"},"0892116":{"post_code":"0892116","prefecture":"HOKKAIDO","city":"HIRO GUN TAIKI CHO","town":"HAMATAIKI","perfecture_jp":"北海道","jp_add_1":"広尾郡大樹町","jp_add_2":"浜大樹"},"0891882":{"post_code":"0891882","prefecture":"HOKKAIDO","city":"HIRO GUN TAIKI CHO","town":"BANSEI","perfecture_jp":"北海道","jp_add_1":"広尾郡大樹町","jp_add_2":"晩成"},"0892134":{"post_code":"0892134","prefecture":"HOKKAIDO","city":"HIRO GUN TAIKI CHO","town":"HIGASHIHONDORI","perfecture_jp":"北海道","jp_add_1":"広尾郡大樹町","jp_add_2":"東本通"},"0892124":{"post_code":"0892124","prefecture":"HOKKAIDO","city":"HIRO GUN TAIKI CHO","town":"HIKATA","perfecture_jp":"北海道","jp_add_1":"広尾郡大樹町","jp_add_2":"日方"},"0892115":{"post_code":"0892115","prefecture":"HOKKAIDO","city":"HIRO GUN TAIKI CHO","town":"BISEI","perfecture_jp":"北海道","jp_add_1":"広尾郡大樹町","jp_add_2":"美成"},"0892132":{"post_code":"0892132","prefecture":"HOKKAIDO","city":"HIRO GUN TAIKI CHO","town":"FUTABACHO","perfecture_jp":"北海道","jp_add_1":"広尾郡大樹町","jp_add_2":"双葉町"},"0892127":{"post_code":"0892127","prefecture":"HOKKAIDO","city":"HIRO GUN TAIKI CHO","town":"FURUBETSU","perfecture_jp":"北海道","jp_add_1":"広尾郡大樹町","jp_add_2":"振別"},"0892107":{"post_code":"0892107","prefecture":"HOKKAIDO","city":"HIRO GUN TAIKI CHO","town":"MATSUYAMA","perfecture_jp":"北海道","jp_add_1":"広尾郡大樹町","jp_add_2":"松山"},"0892131":{"post_code":"0892131","prefecture":"HOKKAIDO","city":"HIRO GUN TAIKI CHO","town":"MATSUYAMACHO","perfecture_jp":"北海道","jp_add_1":"広尾郡大樹町","jp_add_2":"松山町"},"0892148":{"post_code":"0892148","prefecture":"HOKKAIDO","city":"HIRO GUN TAIKI CHO","town":"MAYU","perfecture_jp":"北海道","jp_add_1":"広尾郡大樹町","jp_add_2":"麻友"},"0892155":{"post_code":"0892155","prefecture":"HOKKAIDO","city":"HIRO GUN TAIKI CHO","town":"MIDORICHO","perfecture_jp":"北海道","jp_add_1":"広尾郡大樹町","jp_add_2":"緑町"},"0892135":{"post_code":"0892135","prefecture":"HOKKAIDO","city":"HIRO GUN TAIKI CHO","town":"MINAMIDORI","perfecture_jp":"北海道","jp_add_1":"広尾郡大樹町","jp_add_2":"南通"},"0892153":{"post_code":"0892153","prefecture":"HOKKAIDO","city":"HIRO GUN TAIKI CHO","town":"MINAMIMACHI","perfecture_jp":"北海道","jp_add_1":"広尾郡大樹町","jp_add_2":"南町"},"0892113":{"post_code":"0892113","prefecture":"HOKKAIDO","city":"HIRO GUN TAIKI CHO","town":"MEMU","perfecture_jp":"北海道","jp_add_1":"広尾郡大樹町","jp_add_2":"芽武"},"0892112":{"post_code":"0892112","prefecture":"HOKKAIDO","city":"HIRO GUN TAIKI CHO","town":"MOIWA","perfecture_jp":"北海道","jp_add_1":"広尾郡大樹町","jp_add_2":"萠和"},"0892102":{"post_code":"0892102","prefecture":"HOKKAIDO","city":"HIRO GUN TAIKI CHO","town":"YAMATO","perfecture_jp":"北海道","jp_add_1":"広尾郡大樹町","jp_add_2":"大和"},"0892156":{"post_code":"0892156","prefecture":"HOKKAIDO","city":"HIRO GUN TAIKI CHO","town":"ROKUEN","perfecture_jp":"北海道","jp_add_1":"広尾郡大樹町","jp_add_2":"緑苑"},"0892141":{"post_code":"0892141","prefecture":"HOKKAIDO","city":"HIRO GUN TAIKI CHO","town":"1-JODORI","perfecture_jp":"北海道","jp_add_1":"広尾郡大樹町","jp_add_2":"一条通"},"0892142":{"post_code":"0892142","prefecture":"HOKKAIDO","city":"HIRO GUN TAIKI CHO","town":"2-JODORI","perfecture_jp":"北海道","jp_add_1":"広尾郡大樹町","jp_add_2":"二条通"},"0892143":{"post_code":"0892143","prefecture":"HOKKAIDO","city":"HIRO GUN TAIKI CHO","town":"3-JODORI","perfecture_jp":"北海道","jp_add_1":"広尾郡大樹町","jp_add_2":"三条通"},"0892600":{"post_code":"0892600","prefecture":"HOKKAIDO","city":"HIRO GUN HIRO CHO","town":"IKANIKEISAIGANAIBAAI","perfecture_jp":"北海道","jp_add_1":"広尾郡広尾町","jp_add_2":""},"0892771":{"post_code":"0892771","prefecture":"HOKKAIDO","city":"HIRO GUN HIRO CHO","town":"OSHIRABETSU","perfecture_jp":"北海道","jp_add_1":"広尾郡広尾町","jp_add_2":"音調津"},"0892772":{"post_code":"0892772","prefecture":"HOKKAIDO","city":"HIRO GUN HIRO CHO","town":"OSHIRABETSU KUKAKUGAI","perfecture_jp":"北海道","jp_add_1":"広尾郡広尾町","jp_add_2":"音調津区画外"},"0892604":{"post_code":"0892604","prefecture":"HOKKAIDO","city":"HIRO GUN HIRO CHO","town":"KAISHODORI","perfecture_jp":"北海道","jp_add_1":"広尾郡広尾町","jp_add_2":"会所通"},"0892605":{"post_code":"0892605","prefecture":"HOKKAIDO","city":"HIRO GUN HIRO CHO","town":"KAISHOMAE","perfecture_jp":"北海道","jp_add_1":"広尾郡広尾町","jp_add_2":"会所前"},"0892445":{"post_code":"0892445","prefecture":"HOKKAIDO","city":"HIRO GUN HIRO CHO","town":"KASHUNNAI","perfecture_jp":"北海道","jp_add_1":"広尾郡広尾町","jp_add_2":"カシュウンナイ"},"0892448":{"post_code":"0892448","prefecture":"HOKKAIDO","city":"HIRO GUN HIRO CHO","town":"KAMITOYOI","perfecture_jp":"北海道","jp_add_1":"広尾郡広尾町","jp_add_2":"上トヨイ"},"0892447":{"post_code":"0892447","prefecture":"HOKKAIDO","city":"HIRO GUN HIRO CHO","town":"TOYOIBETSU","perfecture_jp":"北海道","jp_add_1":"広尾郡広尾町","jp_add_2":"上豊似"},"0892622":{"post_code":"0892622","prefecture":"HOKKAIDO","city":"HIRO GUN HIRO CHO","town":"KOENDORI MINAMI","perfecture_jp":"北海道","jp_add_1":"広尾郡広尾町","jp_add_2":"公園通南"},"0892621":{"post_code":"0892621","prefecture":"HOKKAIDO","city":"HIRO GUN HIRO CHO","town":"KOENDORI KITA","perfecture_jp":"北海道","jp_add_1":"広尾郡広尾町","jp_add_2":"公園通北"},"0892632":{"post_code":"0892632","prefecture":"HOKKAIDO","city":"HIRO GUN HIRO CHO","town":"SHIRAKABADORI MINAMI","perfecture_jp":"北海道","jp_add_1":"広尾郡広尾町","jp_add_2":"白樺通南"},"0892631":{"post_code":"0892631","prefecture":"HOKKAIDO","city":"HIRO GUN HIRO CHO","town":"SHIRAKABADORI KITA","perfecture_jp":"北海道","jp_add_1":"広尾郡広尾町","jp_add_2":"白樺通北"},"0892616":{"post_code":"0892616","prefecture":"HOKKAIDO","city":"HIRO GUN HIRO CHO","town":"JINYA","perfecture_jp":"北海道","jp_add_1":"広尾郡広尾町","jp_add_2":"陣屋"},"0892775":{"post_code":"0892775","prefecture":"HOKKAIDO","city":"HIRO GUN HIRO CHO","town":"TANIISO","perfecture_jp":"北海道","jp_add_1":"広尾郡広尾町","jp_add_2":"タニイソ"},"0892455":{"post_code":"0892455","prefecture":"HOKKAIDO","city":"HIRO GUN HIRO CHO","town":"TOYONI","perfecture_jp":"北海道","jp_add_1":"広尾郡広尾町","jp_add_2":"豊似"},"0892624":{"post_code":"0892624","prefecture":"HOKKAIDO","city":"HIRO GUN HIRO CHO","town":"NAMIKIDORI HIGASHI","perfecture_jp":"北海道","jp_add_1":"広尾郡広尾町","jp_add_2":"並木通東"},"0892623":{"post_code":"0892623","prefecture":"HOKKAIDO","city":"HIRO GUN HIRO CHO","town":"NAMIKIDORI NISHI","perfecture_jp":"北海道","jp_add_1":"広尾郡広尾町","jp_add_2":"並木通西"},"0892626":{"post_code":"0892626","prefecture":"HOKKAIDO","city":"HIRO GUN HIRO CHO","town":"NISHIKIDORI MINAMI","perfecture_jp":"北海道","jp_add_1":"広尾郡広尾町","jp_add_2":"錦通南"},"0892625":{"post_code":"0892625","prefecture":"HOKKAIDO","city":"HIRO GUN HIRO CHO","town":"NISHIKIDORI KITA","perfecture_jp":"北海道","jp_add_1":"広尾郡広尾町","jp_add_2":"錦通北"},"0892611":{"post_code":"0892611","prefecture":"HOKKAIDO","city":"HIRO GUN HIRO CHO","town":"NISHI1-JO","perfecture_jp":"北海道","jp_add_1":"広尾郡広尾町","jp_add_2":"西一条"},"0892612":{"post_code":"0892612","prefecture":"HOKKAIDO","city":"HIRO GUN HIRO CHO","town":"NISHI2-JO","perfecture_jp":"北海道","jp_add_1":"広尾郡広尾町","jp_add_2":"西二条"},"0892613":{"post_code":"0892613","prefecture":"HOKKAIDO","city":"HIRO GUN HIRO CHO","town":"NISHI3-JO","perfecture_jp":"北海道","jp_add_1":"広尾郡広尾町","jp_add_2":"西三条"},"0892614":{"post_code":"0892614","prefecture":"HOKKAIDO","city":"HIRO GUN HIRO CHO","town":"NISHI4-JO","perfecture_jp":"北海道","jp_add_1":"広尾郡広尾町","jp_add_2":"西四条"},"0892561":{"post_code":"0892561","prefecture":"HOKKAIDO","city":"HIRO GUN HIRO CHO","town":"NOZUKA","perfecture_jp":"北海道","jp_add_1":"広尾郡広尾町","jp_add_2":"野塚"},"0892563":{"post_code":"0892563","prefecture":"HOKKAIDO","city":"HIRO GUN HIRO CHO","town":"NOZUKA HIGASHIDORI","perfecture_jp":"北海道","jp_add_1":"広尾郡広尾町","jp_add_2":"野塚東通"},"0892562":{"post_code":"0892562","prefecture":"HOKKAIDO","city":"HIRO GUN HIRO CHO","town":"NOZUKA NISHIDORI","perfecture_jp":"北海道","jp_add_1":"広尾郡広尾町","jp_add_2":"野塚西通"},"0892564":{"post_code":"0892564","prefecture":"HOKKAIDO","city":"HIRO GUN HIRO CHO","town":"NOZUKA HONDORI","perfecture_jp":"北海道","jp_add_1":"広尾郡広尾町","jp_add_2":"野塚本通"},"0892601":{"post_code":"0892601","prefecture":"HOKKAIDO","city":"HIRO GUN HIRO CHO","town":"HIGASHI1-JO","perfecture_jp":"北海道","jp_add_1":"広尾郡広尾町","jp_add_2":"東一条"},"0892602":{"post_code":"0892602","prefecture":"HOKKAIDO","city":"HIRO GUN HIRO CHO","town":"HIGASHI2-JO","perfecture_jp":"北海道","jp_add_1":"広尾郡広尾町","jp_add_2":"東二条"},"0892603":{"post_code":"0892603","prefecture":"HOKKAIDO","city":"HIRO GUN HIRO CHO","town":"HIGASHI3-JO","perfecture_jp":"北海道","jp_add_1":"広尾郡広尾町","jp_add_2":"東三条"},"0892776":{"post_code":"0892776","prefecture":"HOKKAIDO","city":"HIRO GUN HIRO CHO","town":"BITATANUNKE","perfecture_jp":"北海道","jp_add_1":"広尾郡広尾町","jp_add_2":"ビタタヌンケ"},"0892633":{"post_code":"0892633","prefecture":"HOKKAIDO","city":"HIRO GUN HIRO CHO","town":"BIHORO","perfecture_jp":"北海道","jp_add_1":"広尾郡広尾町","jp_add_2":"美幌"},"0892634":{"post_code":"0892634","prefecture":"HOKKAIDO","city":"HIRO GUN HIRO CHO","town":"FUMBE","perfecture_jp":"北海道","jp_add_1":"広尾郡広尾町","jp_add_2":"フンベ"},"0892615":{"post_code":"0892615","prefecture":"HOKKAIDO","city":"HIRO GUN HIRO CHO","town":"HONDORI","perfecture_jp":"北海道","jp_add_1":"広尾郡広尾町","jp_add_2":"本通"},"0892628":{"post_code":"0892628","prefecture":"HOKKAIDO","city":"HIRO GUN HIRO CHO","town":"MARUYAMADORI MINAMI","perfecture_jp":"北海道","jp_add_1":"広尾郡広尾町","jp_add_2":"丸山通南"},"0892627":{"post_code":"0892627","prefecture":"HOKKAIDO","city":"HIRO GUN HIRO CHO","town":"MARUYAMADORI KITA","perfecture_jp":"北海道","jp_add_1":"広尾郡広尾町","jp_add_2":"丸山通北"},"0892773":{"post_code":"0892773","prefecture":"HOKKAIDO","city":"HIRO GUN HIRO CHO","town":"MOEKESHI","perfecture_jp":"北海道","jp_add_1":"広尾郡広尾町","jp_add_2":"モエケシ"},"0892636":{"post_code":"0892636","prefecture":"HOKKAIDO","city":"HIRO GUN HIRO CHO","town":"MOMIJIDORI MINAMI","perfecture_jp":"北海道","jp_add_1":"広尾郡広尾町","jp_add_2":"紅葉通南"},"0892635":{"post_code":"0892635","prefecture":"HOKKAIDO","city":"HIRO GUN HIRO CHO","town":"MOMIJIDORI KITA","perfecture_jp":"北海道","jp_add_1":"広尾郡広尾町","jp_add_2":"紅葉通北"},"0892637":{"post_code":"0892637","prefecture":"HOKKAIDO","city":"HIRO GUN HIRO CHO","town":"MOYORI","perfecture_jp":"北海道","jp_add_1":"広尾郡広尾町","jp_add_2":"茂寄"},"0892638":{"post_code":"0892638","prefecture":"HOKKAIDO","city":"HIRO GUN HIRO CHO","town":"MOYORI MINAMI","perfecture_jp":"北海道","jp_add_1":"広尾郡広尾町","jp_add_2":"茂寄南"},"0892446":{"post_code":"0892446","prefecture":"HOKKAIDO","city":"HIRO GUN HIRO CHO","town":"MOMBETSU","perfecture_jp":"北海道","jp_add_1":"広尾郡広尾町","jp_add_2":"紋別"},"0892774":{"post_code":"0892774","prefecture":"HOKKAIDO","city":"HIRO GUN HIRO CHO","town":"RUBESHIBETSU","perfecture_jp":"北海道","jp_add_1":"広尾郡広尾町","jp_add_2":"ルベシベツ"},"0890600":{"post_code":"0890600","prefecture":"HOKKAIDO","city":"NAKAGAWA GUN MAKUBETSU CHO","town":"IKANIKEISAIGANAIBAAI","perfecture_jp":"北海道","jp_add_1":"中川郡幕別町","jp_add_2":""},"0890621":{"post_code":"0890621","prefecture":"HOKKAIDO","city":"NAKAGAWA GUN MAKUBETSU CHO","town":"AIKAWA","perfecture_jp":"北海道","jp_add_1":"中川郡幕別町","jp_add_2":"相川"},"0890612":{"post_code":"0890612","prefecture":"HOKKAIDO","city":"NAKAGAWA GUN MAKUBETSU CHO","town":"AKENO","perfecture_jp":"北海道","jp_add_1":"中川郡幕別町","jp_add_2":"明野"},"0890602":{"post_code":"0890602","prefecture":"HOKKAIDO","city":"NAKAGAWA GUN MAKUBETSU CHO","town":"ASAHIMACHI","perfecture_jp":"北海道","jp_add_1":"中川郡幕別町","jp_add_2":"旭町"},"0890624":{"post_code":"0890624","prefecture":"HOKKAIDO","city":"NAKAGAWA GUN MAKUBETSU CHO","town":"IKUSAOKA","perfecture_jp":"北海道","jp_add_1":"中川郡幕別町","jp_add_2":"軍岡"},"0890564":{"post_code":"0890564","prefecture":"HOKKAIDO","city":"NAKAGAWA GUN MAKUBETSU CHO","town":"INASHIBETSU","perfecture_jp":"北海道","jp_add_1":"中川郡幕別町","jp_add_2":"稲志別"},"0890622":{"post_code":"0890622","prefecture":"HOKKAIDO","city":"NAKAGAWA GUN MAKUBETSU CHO","town":"OTOYO","perfecture_jp":"北海道","jp_add_1":"中川郡幕別町","jp_add_2":"大豊"},"0890575":{"post_code":"0890575","prefecture":"HOKKAIDO","city":"NAKAGAWA GUN MAKUBETSU CHO","town":"KAMIINASHIBETSU","perfecture_jp":"北海道","jp_add_1":"中川郡幕別町","jp_add_2":"上稲志別"},"0890781":{"post_code":"0890781","prefecture":"HOKKAIDO","city":"NAKAGAWA GUN MAKUBETSU CHO","town":"GOI","perfecture_jp":"北海道","jp_add_1":"中川郡幕別町","jp_add_2":"五位"},"0890784":{"post_code":"0890784","prefecture":"HOKKAIDO","city":"NAKAGAWA GUN MAKUBETSU CHO","town":"KOWA","perfecture_jp":"北海道","jp_add_1":"中川郡幕別町","jp_add_2":"弘和"},"0890605":{"post_code":"0890605","prefecture":"HOKKAIDO","city":"NAKAGAWA GUN MAKUBETSU CHO","town":"KOTOBUKIMACHI","perfecture_jp":"北海道","jp_add_1":"中川郡幕別町","jp_add_2":"寿町"},"0890783":{"post_code":"0890783","prefecture":"HOKKAIDO","city":"NAKAGAWA GUN MAKUBETSU CHO","town":"KOMAHATA","perfecture_jp":"北海道","jp_add_1":"中川郡幕別町","jp_add_2":"駒畠"},"0890601":{"post_code":"0890601","prefecture":"HOKKAIDO","city":"NAKAGAWA GUN MAKUBETSU CHO","town":"SAIWAIMACHI","perfecture_jp":"北海道","jp_add_1":"中川郡幕別町","jp_add_2":"幸町"},"0890577":{"post_code":"0890577","prefecture":"HOKKAIDO","city":"NAKAGAWA GUN MAKUBETSU CHO","town":"SAKAE","perfecture_jp":"北海道","jp_add_1":"中川郡幕別町","jp_add_2":"栄"},"0890541":{"post_code":"0890541","prefecture":"HOKKAIDO","city":"NAKAGAWA GUN MAKUBETSU CHO","town":"SATSUNAIAOBAMACHI","perfecture_jp":"北海道","jp_add_1":"中川郡幕別町","jp_add_2":"札内青葉町"},"0890552":{"post_code":"0890552","prefecture":"HOKKAIDO","city":"NAKAGAWA GUN MAKUBETSU CHO","town":"SATSUNAIAKASHIYAMACHI","perfecture_jp":"北海道","jp_add_1":"中川郡幕別町","jp_add_2":"札内あかしや町"},"0890531":{"post_code":"0890531","prefecture":"HOKKAIDO","city":"NAKAGAWA GUN MAKUBETSU CHO","town":"SATSUNAIAKATSUKIMACHI","perfecture_jp":"北海道","jp_add_1":"中川郡幕別町","jp_add_2":"札内暁町"},"0890551":{"post_code":"0890551","prefecture":"HOKKAIDO","city":"NAKAGAWA GUN MAKUBETSU CHO","town":"SATSUNAIIZUMIMACHI","perfecture_jp":"北海道","jp_add_1":"中川郡幕別町","jp_add_2":"札内泉町"},"0890542":{"post_code":"0890542","prefecture":"HOKKAIDO","city":"NAKAGAWA GUN MAKUBETSU CHO","town":"SATSUNAIKASUGAMACHI","perfecture_jp":"北海道","jp_add_1":"中川郡幕別町","jp_add_2":"札内春日町"},"0890545":{"post_code":"0890545","prefecture":"HOKKAIDO","city":"NAKAGAWA GUN MAKUBETSU CHO","town":"SATSUNAIKATSURAMACHI","perfecture_jp":"北海道","jp_add_1":"中川郡幕別町","jp_add_2":"札内桂町"},"0890534":{"post_code":"0890534","prefecture":"HOKKAIDO","city":"NAKAGAWA GUN MAKUBETSU CHO","town":"SATSUNAIKITAMACHI","perfecture_jp":"北海道","jp_add_1":"中川郡幕別町","jp_add_2":"札内北町"},"0890538":{"post_code":"0890538","prefecture":"HOKKAIDO","city":"NAKAGAWA GUN MAKUBETSU CHO","town":"SATSUNAIKYOEIMACHI","perfecture_jp":"北海道","jp_add_1":"中川郡幕別町","jp_add_2":"札内共栄町"},"0890535":{"post_code":"0890535","prefecture":"HOKKAIDO","city":"NAKAGAWA GUN MAKUBETSU CHO","town":"SATSUNAISAKURAMACHI","perfecture_jp":"北海道","jp_add_1":"中川郡幕別町","jp_add_2":"札内桜町"},"0890533":{"post_code":"0890533","prefecture":"HOKKAIDO","city":"NAKAGAWA GUN MAKUBETSU CHO","town":"SATSUNAISHINKITAMACHI","perfecture_jp":"北海道","jp_add_1":"中川郡幕別町","jp_add_2":"札内新北町"},"0890543":{"post_code":"0890543","prefecture":"HOKKAIDO","city":"NAKAGAWA GUN MAKUBETSU CHO","town":"SATSUNAICHUOMACHI","perfecture_jp":"北海道","jp_add_1":"中川郡幕別町","jp_add_2":"札内中央町"},"0890546":{"post_code":"0890546","prefecture":"HOKKAIDO","city":"NAKAGAWA GUN MAKUBETSU CHO","town":"SATSUNAITSUTSUMIMACHI","perfecture_jp":"北海道","jp_add_1":"中川郡幕別町","jp_add_2":"札内堤町"},"0890536":{"post_code":"0890536","prefecture":"HOKKAIDO","city":"NAKAGAWA GUN MAKUBETSU CHO","town":"SATSUNAINISHIMACHI","perfecture_jp":"北海道","jp_add_1":"中川郡幕別町","jp_add_2":"札内西町"},"0890562":{"post_code":"0890562","prefecture":"HOKKAIDO","city":"NAKAGAWA GUN MAKUBETSU CHO","town":"SATSUNAIHIGASHIMACHI","perfecture_jp":"北海道","jp_add_1":"中川郡幕別町","jp_add_2":"札内東町"},"0890553":{"post_code":"0890553","prefecture":"HOKKAIDO","city":"NAKAGAWA GUN MAKUBETSU CHO","town":"SATSUNAIBUNKYOMACHI","perfecture_jp":"北海道","jp_add_1":"中川郡幕別町","jp_add_2":"札内文京町"},"0890537":{"post_code":"0890537","prefecture":"HOKKAIDO","city":"NAKAGAWA GUN MAKUBETSU CHO","town":"SATSUNAIHOKUEIMACHI","perfecture_jp":"北海道","jp_add_1":"中川郡幕別町","jp_add_2":"札内北栄町"},"0890554":{"post_code":"0890554","prefecture":"HOKKAIDO","city":"NAKAGAWA GUN MAKUBETSU CHO","town":"SATSUNAIMIZUHOMACHI","perfecture_jp":"北海道","jp_add_1":"中川郡幕別町","jp_add_2":"札内みずほ町"},"0890561":{"post_code":"0890561","prefecture":"HOKKAIDO","city":"NAKAGAWA GUN MAKUBETSU CHO","town":"SATSUNAIMINORIMACHI","perfecture_jp":"北海道","jp_add_1":"中川郡幕別町","jp_add_2":"札内稔町"},"0890532":{"post_code":"0890532","prefecture":"HOKKAIDO","city":"NAKAGAWA GUN MAKUBETSU CHO","town":"SATSUNAIYUTAKAMACHI","perfecture_jp":"北海道","jp_add_1":"中川郡幕別町","jp_add_2":"札内豊町"},"0890544":{"post_code":"0890544","prefecture":"HOKKAIDO","city":"NAKAGAWA GUN MAKUBETSU CHO","town":"SATSUNAIWAKAKUSAMACHI","perfecture_jp":"北海道","jp_add_1":"中川郡幕別町","jp_add_2":"札内若草町"},"0890625":{"post_code":"0890625","prefecture":"HOKKAIDO","city":"NAKAGAWA GUN MAKUBETSU CHO","town":"SARUBETSU","perfecture_jp":"北海道","jp_add_1":"中川郡幕別町","jp_add_2":"猿別"},"0890566":{"post_code":"0890566","prefecture":"HOKKAIDO","city":"NAKAGAWA GUN MAKUBETSU CHO","town":"SHOWA","perfecture_jp":"北海道","jp_add_1":"中川郡幕別町","jp_add_2":"昭和"},"0890613":{"post_code":"0890613","prefecture":"HOKKAIDO","city":"NAKAGAWA GUN MAKUBETSU CHO","town":"SHINKAWA","perfecture_jp":"北海道","jp_add_1":"中川郡幕別町","jp_add_2":"新川"},"0890565":{"post_code":"0890565","prefecture":"HOKKAIDO","city":"NAKAGAWA GUN MAKUBETSU CHO","town":"SHINSEI","perfecture_jp":"北海道","jp_add_1":"中川郡幕別町","jp_add_2":"新生"},"0890611":{"post_code":"0890611","prefecture":"HOKKAIDO","city":"NAKAGAWA GUN MAKUBETSU CHO","town":"SHIMMACHI","perfecture_jp":"北海道","jp_add_1":"中川郡幕別町","jp_add_2":"新町"},"0890788":{"post_code":"0890788","prefecture":"HOKKAIDO","city":"NAKAGAWA GUN MAKUBETSU CHO","town":"SHINWA(NITTABOKUJO)","perfecture_jp":"北海道","jp_add_1":"中川郡幕別町","jp_add_2":"新和"},"0890627":{"post_code":"0890627","prefecture":"HOKKAIDO","city":"NAKAGAWA GUN MAKUBETSU CHO","town":"SHINWA(SONOTA)","perfecture_jp":"北海道","jp_add_1":"中川郡幕別町","jp_add_2":"新和"},"0890572":{"post_code":"0890572","prefecture":"HOKKAIDO","city":"NAKAGAWA GUN MAKUBETSU CHO","town":"SEIWA","perfecture_jp":"北海道","jp_add_1":"中川郡幕別町","jp_add_2":"西和"},"0890563":{"post_code":"0890563","prefecture":"HOKKAIDO","city":"NAKAGAWA GUN MAKUBETSU CHO","town":"SENJU","perfecture_jp":"北海道","jp_add_1":"中川郡幕別町","jp_add_2":"千住"},"0890616":{"post_code":"0890616","prefecture":"HOKKAIDO","city":"NAKAGAWA GUN MAKUBETSU CHO","town":"TAKARAMACHI","perfecture_jp":"北海道","jp_add_1":"中川郡幕別町","jp_add_2":"宝町"},"0891717":{"post_code":"0891717","prefecture":"HOKKAIDO","city":"NAKAGAWA GUN MAKUBETSU CHO","town":"CHURUI ASAHI","perfecture_jp":"北海道","jp_add_1":"中川郡幕別町","jp_add_2":"忠類朝日"},"0891727":{"post_code":"0891727","prefecture":"HOKKAIDO","city":"NAKAGAWA GUN MAKUBETSU CHO","town":"CHURUI KYOEI","perfecture_jp":"北海道","jp_add_1":"中川郡幕別町","jp_add_2":"忠類共栄"},"0891728":{"post_code":"0891728","prefecture":"HOKKAIDO","city":"NAKAGAWA GUN MAKUBETSU CHO","town":"CHURUI KYOTOKU","perfecture_jp":"北海道","jp_add_1":"中川郡幕別町","jp_add_2":"忠類協徳"},"0891731":{"post_code":"0891731","prefecture":"HOKKAIDO","city":"NAKAGAWA GUN MAKUBETSU CHO","town":"CHURUI KOSHIN","perfecture_jp":"北海道","jp_add_1":"中川郡幕別町","jp_add_2":"忠類公親"},"0891709":{"post_code":"0891709","prefecture":"HOKKAIDO","city":"NAKAGAWA GUN MAKUBETSU CHO","town":"CHURUI SAIWAIMACHI","perfecture_jp":"北海道","jp_add_1":"中川郡幕別町","jp_add_2":"忠類幸町"},"0891703":{"post_code":"0891703","prefecture":"HOKKAIDO","city":"NAKAGAWA GUN MAKUBETSU CHO","town":"CHURUI SAKAEMACHI","perfecture_jp":"北海道","jp_add_1":"中川郡幕別町","jp_add_2":"忠類栄町"},"0891701":{"post_code":"0891701","prefecture":"HOKKAIDO","city":"NAKAGAWA GUN MAKUBETSU CHO","town":"CHURUI SHIROGANEMACHI","perfecture_jp":"北海道","jp_add_1":"中川郡幕別町","jp_add_2":"忠類白銀町"},"0891714":{"post_code":"0891714","prefecture":"HOKKAIDO","city":"NAKAGAWA GUN MAKUBETSU CHO","town":"CHURUI SHINSEI","perfecture_jp":"北海道","jp_add_1":"中川郡幕別町","jp_add_2":"忠類新生"},"0891711":{"post_code":"0891711","prefecture":"HOKKAIDO","city":"NAKAGAWA GUN MAKUBETSU CHO","town":"CHURUI TOHO","perfecture_jp":"北海道","jp_add_1":"中川郡幕別町","jp_add_2":"忠類東宝"},"0891725":{"post_code":"0891725","prefecture":"HOKKAIDO","city":"NAKAGAWA GUN MAKUBETSU CHO","town":"CHURUI NAKATO","perfecture_jp":"北海道","jp_add_1":"中川郡幕別町","jp_add_2":"忠類中当"},"0891707":{"post_code":"0891707","prefecture":"HOKKAIDO","city":"NAKAGAWA GUN MAKUBETSU CHO","town":"CHURUI NISHIKIMACHI","perfecture_jp":"北海道","jp_add_1":"中川郡幕別町","jp_add_2":"忠類錦町"},"0891721":{"post_code":"0891721","prefecture":"HOKKAIDO","city":"NAKAGAWA GUN MAKUBETSU CHO","town":"CHURUI NISHITO","perfecture_jp":"北海道","jp_add_1":"中川郡幕別町","jp_add_2":"忠類西当"},"0891871":{"post_code":"0891871","prefecture":"HOKKAIDO","city":"NAKAGAWA GUN MAKUBETSU CHO","town":"CHURUI BANSEI","perfecture_jp":"北海道","jp_add_1":"中川郡幕別町","jp_add_2":"忠類晩成"},"0891729":{"post_code":"0891729","prefecture":"HOKKAIDO","city":"NAKAGAWA GUN MAKUBETSU CHO","town":"CHURUI HIYORI","perfecture_jp":"北海道","jp_add_1":"中川郡幕別町","jp_add_2":"忠類日和"},"0891726":{"post_code":"0891726","prefecture":"HOKKAIDO","city":"NAKAGAWA GUN MAKUBETSU CHO","town":"CHURUI FURUSATO","perfecture_jp":"北海道","jp_add_1":"中川郡幕別町","jp_add_2":"忠類古里"},"0891715":{"post_code":"0891715","prefecture":"HOKKAIDO","city":"NAKAGAWA GUN MAKUBETSU CHO","town":"CHURUI HORONAI","perfecture_jp":"北海道","jp_add_1":"中川郡幕別町","jp_add_2":"忠類幌内"},"0891724":{"post_code":"0891724","prefecture":"HOKKAIDO","city":"NAKAGAWA GUN MAKUBETSU CHO","town":"CHURUI MEIWA","perfecture_jp":"北海道","jp_add_1":"中川郡幕別町","jp_add_2":"忠類明和"},"0891716":{"post_code":"0891716","prefecture":"HOKKAIDO","city":"NAKAGAWA GUN MAKUBETSU CHO","town":"CHURUI MOTOCHURUI","perfecture_jp":"北海道","jp_add_1":"中川郡幕別町","jp_add_2":"忠類元忠類"},"0891705":{"post_code":"0891705","prefecture":"HOKKAIDO","city":"NAKAGAWA GUN MAKUBETSU CHO","town":"CHURUI MOTOMACHI","perfecture_jp":"北海道","jp_add_1":"中川郡幕別町","jp_add_2":"忠類本町"},"0890573":{"post_code":"0890573","prefecture":"HOKKAIDO","city":"NAKAGAWA GUN MAKUBETSU CHO","town":"TOBETSU","perfecture_jp":"北海道","jp_add_1":"中川郡幕別町","jp_add_2":"途別"},"0890628":{"post_code":"0890628","prefecture":"HOKKAIDO","city":"NAKAGAWA GUN MAKUBETSU CHO","town":"TOYOKA","perfecture_jp":"北海道","jp_add_1":"中川郡幕別町","jp_add_2":"豊岡"},"0890578":{"post_code":"0890578","prefecture":"HOKKAIDO","city":"NAKAGAWA GUN MAKUBETSU CHO","town":"NAKAINASHIBETSU","perfecture_jp":"北海道","jp_add_1":"中川郡幕別町","jp_add_2":"中稲志別"},"0890782":{"post_code":"0890782","prefecture":"HOKKAIDO","city":"NAKAGAWA GUN MAKUBETSU CHO","town":"NAKASATO","perfecture_jp":"北海道","jp_add_1":"中川郡幕別町","jp_add_2":"中里"},"0890623":{"post_code":"0890623","prefecture":"HOKKAIDO","city":"NAKAGAWA GUN MAKUBETSU CHO","town":"NANSEI","perfecture_jp":"北海道","jp_add_1":"中川郡幕別町","jp_add_2":"南勢"},"0890604":{"post_code":"0890604","prefecture":"HOKKAIDO","city":"NAKAGAWA GUN MAKUBETSU CHO","town":"NISHIKIMACHI","perfecture_jp":"北海道","jp_add_1":"中川郡幕別町","jp_add_2":"錦町"},"0890626":{"post_code":"0890626","prefecture":"HOKKAIDO","city":"NAKAGAWA GUN MAKUBETSU CHO","town":"NISHISARUBETSU","perfecture_jp":"北海道","jp_add_1":"中川郡幕別町","jp_add_2":"西猿別"},"0890574":{"post_code":"0890574","prefecture":"HOKKAIDO","city":"NAKAGAWA GUN MAKUBETSU CHO","town":"NISSHIN","perfecture_jp":"北海道","jp_add_1":"中川郡幕別町","jp_add_2":"日新"},"0890786":{"post_code":"0890786","prefecture":"HOKKAIDO","city":"NAKAGAWA GUN MAKUBETSU CHO","town":"NUKANAI","perfecture_jp":"北海道","jp_add_1":"中川郡幕別町","jp_add_2":"糠内"},"0890576":{"post_code":"0890576","prefecture":"HOKKAIDO","city":"NAKAGAWA GUN MAKUBETSU CHO","town":"FURUMAI","perfecture_jp":"北海道","jp_add_1":"中川郡幕別町","jp_add_2":"古舞"},"0890785":{"post_code":"0890785","prefecture":"HOKKAIDO","city":"NAKAGAWA GUN MAKUBETSU CHO","town":"MIKAWA","perfecture_jp":"北海道","jp_add_1":"中川郡幕別町","jp_add_2":"美川"},"0890614":{"post_code":"0890614","prefecture":"HOKKAIDO","city":"NAKAGAWA GUN MAKUBETSU CHO","town":"MIDORIMACHI","perfecture_jp":"北海道","jp_add_1":"中川郡幕別町","jp_add_2":"緑町"},"0890615":{"post_code":"0890615","prefecture":"HOKKAIDO","city":"NAKAGAWA GUN MAKUBETSU CHO","town":"MINAMIMACHI","perfecture_jp":"北海道","jp_add_1":"中川郡幕別町","jp_add_2":"南町"},"0890567":{"post_code":"0890567","prefecture":"HOKKAIDO","city":"NAKAGAWA GUN MAKUBETSU CHO","town":"MEIRIN(78.208-BANCHI)","perfecture_jp":"北海道","jp_add_1":"中川郡幕別町","jp_add_2":"明倫"},"0890787":{"post_code":"0890787","prefecture":"HOKKAIDO","city":"NAKAGAWA GUN MAKUBETSU CHO","town":"MEIRIN(SONOTA)","perfecture_jp":"北海道","jp_add_1":"中川郡幕別町","jp_add_2":"明倫"},"0890603":{"post_code":"0890603","prefecture":"HOKKAIDO","city":"NAKAGAWA GUN MAKUBETSU CHO","town":"MOTOMACHI","perfecture_jp":"北海道","jp_add_1":"中川郡幕別町","jp_add_2":"本町"},"0890571":{"post_code":"0890571","prefecture":"HOKKAIDO","city":"NAKAGAWA GUN MAKUBETSU CHO","town":"YODA","perfecture_jp":"北海道","jp_add_1":"中川郡幕別町","jp_add_2":"依田"},"0893151":{"post_code":"0893151","prefecture":"HOKKAIDO","city":"NAKAGAWA GUN IKEDA CHO","town":"OMORI","perfecture_jp":"北海道","jp_add_1":"中川郡池田町","jp_add_2":"大森"},"0893152":{"post_code":"0893152","prefecture":"HOKKAIDO","city":"NAKAGAWA GUN IKEDA CHO","town":"TAKASHIMA","perfecture_jp":"北海道","jp_add_1":"中川郡池田町","jp_add_2":"高島"},"0893153":{"post_code":"0893153","prefecture":"HOKKAIDO","city":"NAKAGAWA GUN IKEDA CHO","town":"CHIKAUSHI","perfecture_jp":"北海道","jp_add_1":"中川郡池田町","jp_add_2":"近牛"},"0893156":{"post_code":"0893156","prefecture":"HOKKAIDO","city":"NAKAGAWA GUN IKEDA CHO","town":"TOKIWA","perfecture_jp":"北海道","jp_add_1":"中川郡池田町","jp_add_2":"常盤"},"0893154":{"post_code":"0893154","prefecture":"HOKKAIDO","city":"NAKAGAWA GUN IKEDA CHO","town":"NOBUTORI","perfecture_jp":"北海道","jp_add_1":"中川郡池田町","jp_add_2":"信取"},"0893155":{"post_code":"0893155","prefecture":"HOKKAIDO","city":"NAKAGAWA GUN IKEDA CHO","town":"MIKADO","perfecture_jp":"北海道","jp_add_1":"中川郡池田町","jp_add_2":"美加登"},"0895300":{"post_code":"0895300","prefecture":"HOKKAIDO","city":"NAKAGAWA GUN TOYOKORO CHO","town":"IKANIKEISAIGANAIBAAI","perfecture_jp":"北海道","jp_add_1":"中川郡豊頃町","jp_add_2":""},"0895306":{"post_code":"0895306","prefecture":"HOKKAIDO","city":"NAKAGAWA GUN TOYOKORO CHO","town":"ANKOTSU","perfecture_jp":"北海道","jp_add_1":"中川郡豊頃町","jp_add_2":"安骨"},"0895241":{"post_code":"0895241","prefecture":"HOKKAIDO","city":"NAKAGAWA GUN TOYOKORO CHO","town":"IKUSOTA","perfecture_jp":"北海道","jp_add_1":"中川郡豊頃町","jp_add_2":"育素多"},"0895304":{"post_code":"0895304","prefecture":"HOKKAIDO","city":"NAKAGAWA GUN TOYOKORO CHO","town":"USHISHUBETSU","perfecture_jp":"北海道","jp_add_1":"中川郡豊頃町","jp_add_2":"牛首別"},"0895465":{"post_code":"0895465","prefecture":"HOKKAIDO","city":"NAKAGAWA GUN TOYOKORO CHO","town":"OTSU","perfecture_jp":"北海道","jp_add_1":"中川郡豊頃町","jp_add_2":"大津"},"0895463":{"post_code":"0895463","prefecture":"HOKKAIDO","city":"NAKAGAWA GUN TOYOKORO CHO","town":"OTSU KOTOBUKIMACHI","perfecture_jp":"北海道","jp_add_1":"中川郡豊頃町","jp_add_2":"大津寿町"},"0895462":{"post_code":"0895462","prefecture":"HOKKAIDO","city":"NAKAGAWA GUN TOYOKORO CHO","town":"OTSU SAIWAICHO","perfecture_jp":"北海道","jp_add_1":"中川郡豊頃町","jp_add_2":"大津幸町"},"0895464":{"post_code":"0895464","prefecture":"HOKKAIDO","city":"NAKAGAWA GUN TOYOKORO CHO","town":"OTSU MINATOMACHI","perfecture_jp":"北海道","jp_add_1":"中川郡豊頃町","jp_add_2":"大津港町"},"0895461":{"post_code":"0895461","prefecture":"HOKKAIDO","city":"NAKAGAWA GUN TOYOKORO CHO","town":"OTSU MOTOMACHI","perfecture_jp":"北海道","jp_add_1":"中川郡豊頃町","jp_add_2":"大津元町"},"0895305":{"post_code":"0895305","prefecture":"HOKKAIDO","city":"NAKAGAWA GUN TOYOKORO CHO","town":"SEOI","perfecture_jp":"北海道","jp_add_1":"中川郡豊頃町","jp_add_2":"背負"},"0895307":{"post_code":"0895307","prefecture":"HOKKAIDO","city":"NAKAGAWA GUN TOYOKORO CHO","town":"TABIKORAI","perfecture_jp":"北海道","jp_add_1":"中川郡豊頃町","jp_add_2":"旅来"},"0895234":{"post_code":"0895234","prefecture":"HOKKAIDO","city":"NAKAGAWA GUN TOYOKORO CHO","town":"CHUO SHIMMACHI","perfecture_jp":"北海道","jp_add_1":"中川郡豊頃町","jp_add_2":"中央新町"},"0895235":{"post_code":"0895235","prefecture":"HOKKAIDO","city":"NAKAGAWA GUN TOYOKORO CHO","town":"CHUO WAKABAMACHI","perfecture_jp":"北海道","jp_add_1":"中川郡豊頃町","jp_add_2":"中央若葉町"},"0895466":{"post_code":"0895466","prefecture":"HOKKAIDO","city":"NAKAGAWA GUN TOYOKORO CHO","town":"CHOBUSHI","perfecture_jp":"北海道","jp_add_1":"中川郡豊頃町","jp_add_2":"長節"},"0895301":{"post_code":"0895301","prefecture":"HOKKAIDO","city":"NAKAGAWA GUN TOYOKORO CHO","town":"TONAI","perfecture_jp":"北海道","jp_add_1":"中川郡豊頃町","jp_add_2":"統内"},"0895244":{"post_code":"0895244","prefecture":"HOKKAIDO","city":"NAKAGAWA GUN TOYOKORO CHO","town":"TOFUTSU","perfecture_jp":"北海道","jp_add_1":"中川郡豊頃町","jp_add_2":"十弗"},"0895243":{"post_code":"0895243","prefecture":"HOKKAIDO","city":"NAKAGAWA GUN TOYOKORO CHO","town":"TOFUTSU TAKARAMACHI","perfecture_jp":"北海道","jp_add_1":"中川郡豊頃町","jp_add_2":"十弗宝町"},"0895246":{"post_code":"0895246","prefecture":"HOKKAIDO","city":"NAKAGAWA GUN TOYOKORO CHO","town":"TOYOKORO","perfecture_jp":"北海道","jp_add_1":"中川郡豊頃町","jp_add_2":"豊頃"},"0895232":{"post_code":"0895232","prefecture":"HOKKAIDO","city":"NAKAGAWA GUN TOYOKORO CHO","town":"TOYOKORO ASAHIMACHI","perfecture_jp":"北海道","jp_add_1":"中川郡豊頃町","jp_add_2":"豊頃旭町"},"0895231":{"post_code":"0895231","prefecture":"HOKKAIDO","city":"NAKAGAWA GUN TOYOKORO CHO","town":"TOYOKORO SASADAMACHI","perfecture_jp":"北海道","jp_add_1":"中川郡豊頃町","jp_add_2":"豊頃佐々田町"},"0895233":{"post_code":"0895233","prefecture":"HOKKAIDO","city":"NAKAGAWA GUN TOYOKORO CHO","town":"TOYOKORO MINAMIMACHI","perfecture_jp":"北海道","jp_add_1":"中川郡豊頃町","jp_add_2":"豊頃南町"},"0895309":{"post_code":"0895309","prefecture":"HOKKAIDO","city":"NAKAGAWA GUN TOYOKORO CHO","town":"NINOMIYA","perfecture_jp":"北海道","jp_add_1":"中川郡豊頃町","jp_add_2":"二宮"},"0895303":{"post_code":"0895303","prefecture":"HOKKAIDO","city":"NAKAGAWA GUN TOYOKORO CHO","town":"NOYAUSHI","perfecture_jp":"北海道","jp_add_1":"中川郡豊頃町","jp_add_2":"農野牛"},"0895242":{"post_code":"0895242","prefecture":"HOKKAIDO","city":"NAKAGAWA GUN TOYOKORO CHO","town":"HOKUEI","perfecture_jp":"北海道","jp_add_1":"中川郡豊頃町","jp_add_2":"北栄"},"0895247":{"post_code":"0895247","prefecture":"HOKKAIDO","city":"NAKAGAWA GUN TOYOKORO CHO","town":"HOROKA","perfecture_jp":"北海道","jp_add_1":"中川郡豊頃町","jp_add_2":"幌岡"},"0895315":{"post_code":"0895315","prefecture":"HOKKAIDO","city":"NAKAGAWA GUN TOYOKORO CHO","town":"MOIWA","perfecture_jp":"北海道","jp_add_1":"中川郡豊頃町","jp_add_2":"茂岩"},"0895313":{"post_code":"0895313","prefecture":"HOKKAIDO","city":"NAKAGAWA GUN TOYOKORO CHO","town":"MOIWA SAKAEMACHI","perfecture_jp":"北海道","jp_add_1":"中川郡豊頃町","jp_add_2":"茂岩栄町"},"0895311":{"post_code":"0895311","prefecture":"HOKKAIDO","city":"NAKAGAWA GUN TOYOKORO CHO","town":"MOIWA SHINWAMACHI","perfecture_jp":"北海道","jp_add_1":"中川郡豊頃町","jp_add_2":"茂岩新和町"},"0895314":{"post_code":"0895314","prefecture":"HOKKAIDO","city":"NAKAGAWA GUN TOYOKORO CHO","town":"MOIWA SUEHIROMACHI","perfecture_jp":"北海道","jp_add_1":"中川郡豊頃町","jp_add_2":"茂岩末広町"},"0895312":{"post_code":"0895312","prefecture":"HOKKAIDO","city":"NAKAGAWA GUN TOYOKORO CHO","town":"MOIWA HOMMACHI","perfecture_jp":"北海道","jp_add_1":"中川郡豊頃町","jp_add_2":"茂岩本町"},"0895308":{"post_code":"0895308","prefecture":"HOKKAIDO","city":"NAKAGAWA GUN TOYOKORO CHO","town":"YUDO","perfecture_jp":"北海道","jp_add_1":"中川郡豊頃町","jp_add_2":"湧洞"},"0895302":{"post_code":"0895302","prefecture":"HOKKAIDO","city":"NAKAGAWA GUN TOYOKORO CHO","town":"REISAKUBETSU","perfecture_jp":"北海道","jp_add_1":"中川郡豊頃町","jp_add_2":"礼作別"},"0895245":{"post_code":"0895245","prefecture":"HOKKAIDO","city":"NAKAGAWA GUN TOYOKORO CHO","town":"REBUNNAI","perfecture_jp":"北海道","jp_add_1":"中川郡豊頃町","jp_add_2":"礼文内"},"0893300":{"post_code":"0893300","prefecture":"HOKKAIDO","city":"NAKAGAWA GUN HOMBETSU CHO","town":"IKANIKEISAIGANAIBAAI","perfecture_jp":"北海道","jp_add_1":"中川郡本別町","jp_add_2":""},"0893676":{"post_code":"0893676","prefecture":"HOKKAIDO","city":"NAKAGAWA GUN HOMBETSU CHO","town":"AKEMI","perfecture_jp":"北海道","jp_add_1":"中川郡本別町","jp_add_2":"明美"},"0893332":{"post_code":"0893332","prefecture":"HOKKAIDO","city":"NAKAGAWA GUN HOMBETSU CHO","town":"ASAHIMACHI","perfecture_jp":"北海道","jp_add_1":"中川郡本別町","jp_add_2":"朝日町"},"0893672":{"post_code":"0893672","prefecture":"HOKKAIDO","city":"NAKAGAWA GUN HOMBETSU CHO","town":"OINAUSHI(67-4-113-7-BANCHI)","perfecture_jp":"北海道","jp_add_1":"中川郡本別町","jp_add_2":"追名牛"},"0893327":{"post_code":"0893327","prefecture":"HOKKAIDO","city":"NAKAGAWA GUN HOMBETSU CHO","town":"OINAUSHI(SONOTA)","perfecture_jp":"北海道","jp_add_1":"中川郡本別町","jp_add_2":"追名牛"},"0893662":{"post_code":"0893662","prefecture":"HOKKAIDO","city":"NAKAGAWA GUN HOMBETSU CHO","town":"OKUSEMBIRI","perfecture_jp":"北海道","jp_add_1":"中川郡本別町","jp_add_2":"奥仙美里"},"0893283":{"post_code":"0893283","prefecture":"HOKKAIDO","city":"NAKAGAWA GUN HOMBETSU CHO","town":"OSHOTSUPU","perfecture_jp":"北海道","jp_add_1":"中川郡本別町","jp_add_2":"押帯"},"0893307":{"post_code":"0893307","prefecture":"HOKKAIDO","city":"NAKAGAWA GUN HOMBETSU CHO","town":"OFUIBIRA","perfecture_jp":"北海道","jp_add_1":"中川郡本別町","jp_add_2":"負箙"},"0893311":{"post_code":"0893311","prefecture":"HOKKAIDO","city":"NAKAGAWA GUN HOMBETSU CHO","town":"KASHIWAGICHO","perfecture_jp":"北海道","jp_add_1":"中川郡本別町","jp_add_2":"柏木町"},"0893666":{"post_code":"0893666","prefecture":"HOKKAIDO","city":"NAKAGAWA GUN HOMBETSU CHO","town":"KAMISEMBIRI","perfecture_jp":"北海道","jp_add_1":"中川郡本別町","jp_add_2":"上仙美里"},"0893321":{"post_code":"0893321","prefecture":"HOKKAIDO","city":"NAKAGAWA GUN HOMBETSU CHO","town":"KAMIHOMBETSU(FURATSUNAI)","perfecture_jp":"北海道","jp_add_1":"中川郡本別町","jp_add_2":"上本別"},"0893334":{"post_code":"0893334","prefecture":"HOKKAIDO","city":"NAKAGAWA GUN HOMBETSU CHO","town":"SEIRYUCHO","perfecture_jp":"北海道","jp_add_1":"中川郡本別町","jp_add_2":"北"},"0893305":{"post_code":"0893305","prefecture":"HOKKAIDO","city":"NAKAGAWA GUN HOMBETSU CHO","town":"KYOEI","perfecture_jp":"北海道","jp_add_1":"中川郡本別町","jp_add_2":"共栄"},"0893665":{"post_code":"0893665","prefecture":"HOKKAIDO","city":"NAKAGAWA GUN HOMBETSU CHO","town":"KIYOSATO","perfecture_jp":"北海道","jp_add_1":"中川郡本別町","jp_add_2":"清里"},"0893303":{"post_code":"0893303","prefecture":"HOKKAIDO","city":"NAKAGAWA GUN HOMBETSU CHO","town":"KOYOCHO","perfecture_jp":"北海道","jp_add_1":"中川郡本別町","jp_add_2":"向陽町"},"0893322":{"post_code":"0893322","prefecture":"HOKKAIDO","city":"NAKAGAWA GUN HOMBETSU CHO","town":"SAKAEMACHI","perfecture_jp":"北海道","jp_add_1":"中川郡本別町","jp_add_2":"栄町"},"0893304":{"post_code":"0893304","prefecture":"HOKKAIDO","city":"NAKAGAWA GUN HOMBETSU CHO","town":"SAKASHITAMACHI","perfecture_jp":"北海道","jp_add_1":"中川郡本別町","jp_add_2":"坂下町"},"0893674":{"post_code":"0893674","prefecture":"HOKKAIDO","city":"NAKAGAWA GUN HOMBETSU CHO","town":"SHIMOSEMBIRI","perfecture_jp":"北海道","jp_add_1":"中川郡本別町","jp_add_2":"下仙美里"},"0893324":{"post_code":"0893324","prefecture":"HOKKAIDO","city":"NAKAGAWA GUN HOMBETSU CHO","town":"SHIMMACHI","perfecture_jp":"北海道","jp_add_1":"中川郡本別町","jp_add_2":"新町"},"0893663":{"post_code":"0893663","prefecture":"HOKKAIDO","city":"NAKAGAWA GUN HOMBETSU CHO","town":"SEMBIRI","perfecture_jp":"北海道","jp_add_1":"中川郡本別町","jp_add_2":"仙美里"},"0893664":{"post_code":"0893664","prefecture":"HOKKAIDO","city":"NAKAGAWA GUN HOMBETSU CHO","town":"SEMBIRIMOTOMACHI","perfecture_jp":"北海道","jp_add_1":"中川郡本別町","jp_add_2":"仙美里元町"},"0893306":{"post_code":"0893306","prefecture":"HOKKAIDO","city":"NAKAGAWA GUN HOMBETSU CHO","town":"CHIETOI","perfecture_jp":"北海道","jp_add_1":"中川郡本別町","jp_add_2":"チエトイ"},"0893331":{"post_code":"0893331","prefecture":"HOKKAIDO","city":"NAKAGAWA GUN HOMBETSU CHO","town":"NISHIKIMACHI","perfecture_jp":"北海道","jp_add_1":"中川郡本別町","jp_add_2":"錦町"},"0893675":{"post_code":"0893675","prefecture":"HOKKAIDO","city":"NAKAGAWA GUN HOMBETSU CHO","town":"NISHISEMBIRI","perfecture_jp":"北海道","jp_add_1":"中川郡本別町","jp_add_2":"西仙美里"},"0893443":{"post_code":"0893443","prefecture":"HOKKAIDO","city":"NAKAGAWA GUN HOMBETSU CHO","town":"NISHIBIRIBETSU(113-791-BANCHI.NISHI","perfecture_jp":"北海道","jp_add_1":"中川郡本別町","jp_add_2":"西美里別"},"0893325":{"post_code":"0893325","prefecture":"HOKKAIDO","city":"NAKAGAWA GUN HOMBETSU CHO","town":"NISHIBIRIBETSU(SONOTA)","perfecture_jp":"北海道","jp_add_1":"中川郡本別町","jp_add_2":"西美里別"},"0893673":{"post_code":"0893673","prefecture":"HOKKAIDO","city":"NAKAGAWA GUN HOMBETSU CHO","town":"HIGASHISEMBIRI","perfecture_jp":"北海道","jp_add_1":"中川郡本別町","jp_add_2":"東仙美里"},"0893301":{"post_code":"0893301","prefecture":"HOKKAIDO","city":"NAKAGAWA GUN HOMBETSU CHO","town":"HIGASHIHOMBETSU","perfecture_jp":"北海道","jp_add_1":"中川郡本別町","jp_add_2":"東本別"},"0893302":{"post_code":"0893302","prefecture":"HOKKAIDO","city":"NAKAGAWA GUN HOMBETSU CHO","town":"HIGASHIMACHI","perfecture_jp":"北海道","jp_add_1":"中川郡本別町","jp_add_2":"東町"},"0893661":{"post_code":"0893661","prefecture":"HOKKAIDO","city":"NAKAGAWA GUN HOMBETSU CHO","town":"BIEI","perfecture_jp":"北海道","jp_add_1":"中川郡本別町","jp_add_2":"美栄"},"0893284":{"post_code":"0893284","prefecture":"HOKKAIDO","city":"NAKAGAWA GUN HOMBETSU CHO","town":"BIRAMBETSU","perfecture_jp":"北海道","jp_add_1":"中川郡本別町","jp_add_2":"美蘭別"},"0893326":{"post_code":"0893326","prefecture":"HOKKAIDO","city":"NAKAGAWA GUN HOMBETSU CHO","town":"BIRIBETSU(KOTO)","perfecture_jp":"北海道","jp_add_1":"中川郡本別町","jp_add_2":"美里別"},"0893323":{"post_code":"0893323","prefecture":"HOKKAIDO","city":"NAKAGAWA GUN HOMBETSU CHO","town":"BIRIBETSU(HIGASHISHIMO)","perfecture_jp":"北海道","jp_add_1":"中川郡本別町","jp_add_2":"美里別"},"0893677":{"post_code":"0893677","prefecture":"HOKKAIDO","city":"NAKAGAWA GUN HOMBETSU CHO","town":"BIRIBETSU(246-7-BANCHI)","perfecture_jp":"北海道","jp_add_1":"中川郡本別町","jp_add_2":"美里別"},"0893442":{"post_code":"0893442","prefecture":"HOKKAIDO","city":"NAKAGAWA GUN HOMBETSU CHO","town":"BIRIBETSU(TAKUNO.HIGASHIKAKKOMI.HIG","perfecture_jp":"北海道","jp_add_1":"中川郡本別町","jp_add_2":"美里別"},"0893671":{"post_code":"0893671","prefecture":"HOKKAIDO","city":"NAKAGAWA GUN HOMBETSU CHO","town":"BOKUSATSUNAI","perfecture_jp":"北海道","jp_add_1":"中川郡本別町","jp_add_2":"木札内"},"0893312":{"post_code":"0893312","prefecture":"HOKKAIDO","city":"NAKAGAWA GUN HOMBETSU CHO","town":"MIDORIMACHI","perfecture_jp":"北海道","jp_add_1":"中川郡本別町","jp_add_2":"緑町"},"0893314":{"post_code":"0893314","prefecture":"HOKKAIDO","city":"NAKAGAWA GUN HOMBETSU CHO","town":"MINAMI","perfecture_jp":"北海道","jp_add_1":"中川郡本別町","jp_add_2":"南"},"0893313":{"post_code":"0893313","prefecture":"HOKKAIDO","city":"NAKAGAWA GUN HOMBETSU CHO","town":"YANAGIMACHI","perfecture_jp":"北海道","jp_add_1":"中川郡本別町","jp_add_2":"柳町"},"0893333":{"post_code":"0893333","prefecture":"HOKKAIDO","city":"NAKAGAWA GUN HOMBETSU CHO","town":"YAMATEMACHI","perfecture_jp":"北海道","jp_add_1":"中川郡本別町","jp_add_2":"山手町"},"0893308":{"post_code":"0893308","prefecture":"HOKKAIDO","city":"NAKAGAWA GUN HOMBETSU CHO","town":"YAYOIMACHI","perfecture_jp":"北海道","jp_add_1":"中川郡本別町","jp_add_2":"弥生町"},"0893282":{"post_code":"0893282","prefecture":"HOKKAIDO","city":"NAKAGAWA GUN HOMBETSU CHO","town":"YUTARI","perfecture_jp":"北海道","jp_add_1":"中川郡本別町","jp_add_2":"勇足"},"0893281":{"post_code":"0893281","prefecture":"HOKKAIDO","city":"NAKAGAWA GUN HOMBETSU CHO","town":"YUTARIMOTOMACHI","perfecture_jp":"北海道","jp_add_1":"中川郡本別町","jp_add_2":"勇足元町"},"0893700":{"post_code":"0893700","prefecture":"HOKKAIDO","city":"ASHORO GUN ASHORO CHO","town":"IKANIKEISAIGANAIBAAI","perfecture_jp":"北海道","jp_add_1":"足寄郡足寄町","jp_add_2":""},"0893708":{"post_code":"0893708","prefecture":"HOKKAIDO","city":"ASHORO GUN ASHORO CHO","town":"AIKAPPU","perfecture_jp":"北海道","jp_add_1":"足寄郡足寄町","jp_add_2":"愛冠"},"0893721":{"post_code":"0893721","prefecture":"HOKKAIDO","city":"ASHORO GUN ASHORO CHO","town":"ASAHIMACHI","perfecture_jp":"北海道","jp_add_1":"足寄郡足寄町","jp_add_2":"旭町"},"0893724":{"post_code":"0893724","prefecture":"HOKKAIDO","city":"ASHORO GUN ASHORO CHO","town":"INAUSHI","perfecture_jp":"北海道","jp_add_1":"足寄郡足寄町","jp_add_2":"稲牛"},"0894144":{"post_code":"0894144","prefecture":"HOKKAIDO","city":"ASHORO GUN ASHORO CHO","town":"OYOCHI(10-1-BANCHI)","perfecture_jp":"北海道","jp_add_1":"足寄郡足寄町","jp_add_2":"大誉地"},"0894251":{"post_code":"0894251","prefecture":"HOKKAIDO","city":"ASHORO GUN ASHORO CHO","town":"OYOCHI(SONOTA)","perfecture_jp":"北海道","jp_add_1":"足寄郡足寄町","jp_add_2":"大誉地"},"0894252":{"post_code":"0894252","prefecture":"HOKKAIDO","city":"ASHORO GUN ASHORO CHO","town":"OYOCHIMOTOMACHI","perfecture_jp":"北海道","jp_add_1":"足寄郡足寄町","jp_add_2":"大誉地本町"},"0893961":{"post_code":"0893961","prefecture":"HOKKAIDO","city":"ASHORO GUN ASHORO CHO","town":"KAMIASHORO","perfecture_jp":"北海道","jp_add_1":"足寄郡足寄町","jp_add_2":"上足寄"},"0893962":{"post_code":"0893962","prefecture":"HOKKAIDO","city":"ASHORO GUN ASHORO CHO","town":"KAMIASHORO MOTOMACHI","perfecture_jp":"北海道","jp_add_1":"足寄郡足寄町","jp_add_2":"上足寄本町"},"0894142":{"post_code":"0894142","prefecture":"HOKKAIDO","city":"ASHORO GUN ASHORO CHO","town":"KAMITOSHIBETSU","perfecture_jp":"北海道","jp_add_1":"足寄郡足寄町","jp_add_2":"上利別"},"0894141":{"post_code":"0894141","prefecture":"HOKKAIDO","city":"ASHORO GUN ASHORO CHO","town":"KAMITOSHIBETSU MOTOMACHI","perfecture_jp":"北海道","jp_add_1":"足寄郡足寄町","jp_add_2":"上利別本町"},"0893963":{"post_code":"0893963","prefecture":"HOKKAIDO","city":"ASHORO GUN ASHORO CHO","town":"KAMIRAWAN","perfecture_jp":"北海道","jp_add_1":"足寄郡足寄町","jp_add_2":"上螺湾"},"0893701":{"post_code":"0893701","prefecture":"HOKKAIDO","city":"ASHORO GUN ASHORO CHO","town":"KITA1-JO","perfecture_jp":"北海道","jp_add_1":"足寄郡足寄町","jp_add_2":"北一条"},"0893702":{"post_code":"0893702","prefecture":"HOKKAIDO","city":"ASHORO GUN ASHORO CHO","town":"KITA2-JO","perfecture_jp":"北海道","jp_add_1":"足寄郡足寄町","jp_add_2":"北二条"},"0893703":{"post_code":"0893703","prefecture":"HOKKAIDO","city":"ASHORO GUN ASHORO CHO","town":"KITA3-JO","perfecture_jp":"北海道","jp_add_1":"足寄郡足寄町","jp_add_2":"北三条"},"0893704":{"post_code":"0893704","prefecture":"HOKKAIDO","city":"ASHORO GUN ASHORO CHO","town":"KITA4-JO","perfecture_jp":"北海道","jp_add_1":"足寄郡足寄町","jp_add_2":"北四条"},"0893705":{"post_code":"0893705","prefecture":"HOKKAIDO","city":"ASHORO GUN ASHORO CHO","town":"KITA5-JO","perfecture_jp":"北海道","jp_add_1":"足寄郡足寄町","jp_add_2":"北五条"},"0893706":{"post_code":"0893706","prefecture":"HOKKAIDO","city":"ASHORO GUN ASHORO CHO","town":"KITA6-JO","perfecture_jp":"北海道","jp_add_1":"足寄郡足寄町","jp_add_2":"北六条"},"0893874":{"post_code":"0893874","prefecture":"HOKKAIDO","city":"ASHORO GUN ASHORO CHO","town":"KITOSHI","perfecture_jp":"北海道","jp_add_1":"足寄郡足寄町","jp_add_2":"喜登牛"},"0893726":{"post_code":"0893726","prefecture":"HOKKAIDO","city":"ASHORO GUN ASHORO CHO","town":"KYOEIMACHI","perfecture_jp":"北海道","jp_add_1":"足寄郡足寄町","jp_add_2":"共栄町"},"0893727":{"post_code":"0893727","prefecture":"HOKKAIDO","city":"ASHORO GUN ASHORO CHO","town":"KONAN","perfecture_jp":"北海道","jp_add_1":"足寄郡足寄町","jp_add_2":"郊南"},"0893718":{"post_code":"0893718","prefecture":"HOKKAIDO","city":"ASHORO GUN ASHORO CHO","town":"SAKAEMACHI","perfecture_jp":"北海道","jp_add_1":"足寄郡足寄町","jp_add_2":"栄町"},"0893732":{"post_code":"0893732","prefecture":"HOKKAIDO","city":"ASHORO GUN ASHORO CHO","town":"SATOMIGAOKA","perfecture_jp":"北海道","jp_add_1":"足寄郡足寄町","jp_add_2":"里見が丘"},"0893707":{"post_code":"0893707","prefecture":"HOKKAIDO","city":"ASHORO GUN ASHORO CHO","town":"SHIMOAIKAPPU","perfecture_jp":"北海道","jp_add_1":"足寄郡足寄町","jp_add_2":"下愛冠"},"0894143":{"post_code":"0894143","prefecture":"HOKKAIDO","city":"ASHORO GUN ASHORO CHO","town":"SHIRAITO","perfecture_jp":"北海道","jp_add_1":"足寄郡足寄町","jp_add_2":"白糸"},"0893722":{"post_code":"0893722","prefecture":"HOKKAIDO","city":"ASHORO GUN ASHORO CHO","town":"SHIMMACHI","perfecture_jp":"北海道","jp_add_1":"足寄郡足寄町","jp_add_2":"新町"},"0893734":{"post_code":"0893734","prefecture":"HOKKAIDO","city":"ASHORO GUN ASHORO CHO","town":"TOKIWA","perfecture_jp":"北海道","jp_add_1":"足寄郡足寄町","jp_add_2":"常盤"},"0893723":{"post_code":"0893723","prefecture":"HOKKAIDO","city":"ASHORO GUN ASHORO CHO","town":"NAKAASHORO","perfecture_jp":"北海道","jp_add_1":"足寄郡足寄町","jp_add_2":"中足寄"},"0893731":{"post_code":"0893731","prefecture":"HOKKAIDO","city":"ASHORO GUN ASHORO CHO","town":"NAKAYA(7-288-BANCHI)","perfecture_jp":"北海道","jp_add_1":"足寄郡足寄町","jp_add_2":"中矢"},"0893873":{"post_code":"0893873","prefecture":"HOKKAIDO","city":"ASHORO GUN ASHORO CHO","town":"NAKAYA(426-782-BANCHI)","perfecture_jp":"北海道","jp_add_1":"足寄郡足寄町","jp_add_2":"中矢"},"0893733":{"post_code":"0893733","prefecture":"HOKKAIDO","city":"ASHORO GUN ASHORO CHO","town":"NISHIMACHI","perfecture_jp":"北海道","jp_add_1":"足寄郡足寄町","jp_add_2":"西町"},"0893735":{"post_code":"0893735","prefecture":"HOKKAIDO","city":"ASHORO GUN ASHORO CHO","town":"BISEI","perfecture_jp":"北海道","jp_add_1":"足寄郡足寄町","jp_add_2":"美盛"},"0893725":{"post_code":"0893725","prefecture":"HOKKAIDO","city":"ASHORO GUN ASHORO CHO","town":"HEIWA","perfecture_jp":"北海道","jp_add_1":"足寄郡足寄町","jp_add_2":"平和"},"0893711":{"post_code":"0893711","prefecture":"HOKKAIDO","city":"ASHORO GUN ASHORO CHO","town":"MINAMI1-JO","perfecture_jp":"北海道","jp_add_1":"足寄郡足寄町","jp_add_2":"南一条"},"0893712":{"post_code":"0893712","prefecture":"HOKKAIDO","city":"ASHORO GUN ASHORO CHO","town":"MINAMI2-JO","perfecture_jp":"北海道","jp_add_1":"足寄郡足寄町","jp_add_2":"南二条"},"0893713":{"post_code":"0893713","prefecture":"HOKKAIDO","city":"ASHORO GUN ASHORO CHO","town":"MINAMI3-JO","perfecture_jp":"北海道","jp_add_1":"足寄郡足寄町","jp_add_2":"南三条"},"0893714":{"post_code":"0893714","prefecture":"HOKKAIDO","city":"ASHORO GUN ASHORO CHO","town":"MINAMI4-JO","perfecture_jp":"北海道","jp_add_1":"足寄郡足寄町","jp_add_2":"南四条"},"0893715":{"post_code":"0893715","prefecture":"HOKKAIDO","city":"ASHORO GUN ASHORO CHO","town":"MINAMI5-JO","perfecture_jp":"北海道","jp_add_1":"足寄郡足寄町","jp_add_2":"南五条"},"0893716":{"post_code":"0893716","prefecture":"HOKKAIDO","city":"ASHORO GUN ASHORO CHO","town":"MINAMI6-JO","perfecture_jp":"北海道","jp_add_1":"足寄郡足寄町","jp_add_2":"南六条"},"0893717":{"post_code":"0893717","prefecture":"HOKKAIDO","city":"ASHORO GUN ASHORO CHO","town":"MINAMI7-JO","perfecture_jp":"北海道","jp_add_1":"足寄郡足寄町","jp_add_2":"南七条"},"0893872":{"post_code":"0893872","prefecture":"HOKKAIDO","city":"ASHORO GUN ASHORO CHO","town":"METO","perfecture_jp":"北海道","jp_add_1":"足寄郡足寄町","jp_add_2":"芽登"},"0893871":{"post_code":"0893871","prefecture":"HOKKAIDO","city":"ASHORO GUN ASHORO CHO","town":"METOMOTOMACHI","perfecture_jp":"北海道","jp_add_1":"足寄郡足寄町","jp_add_2":"芽登本町"},"0893964":{"post_code":"0893964","prefecture":"HOKKAIDO","city":"ASHORO GUN ASHORO CHO","town":"MOASHORO","perfecture_jp":"北海道","jp_add_1":"足寄郡足寄町","jp_add_2":"茂足寄"},"0893737":{"post_code":"0893737","prefecture":"HOKKAIDO","city":"ASHORO GUN ASHORO CHO","town":"MOKITOSHI(12-634-BANCHI)","perfecture_jp":"北海道","jp_add_1":"足寄郡足寄町","jp_add_2":"茂喜登牛"},"0893875":{"post_code":"0893875","prefecture":"HOKKAIDO","city":"ASHORO GUN ASHORO CHO","town":"MOKITOSHI(759-2786-BANCHI)","perfecture_jp":"北海道","jp_add_1":"足寄郡足寄町","jp_add_2":"茂喜登牛"},"0893965":{"post_code":"0893965","prefecture":"HOKKAIDO","city":"ASHORO GUN ASHORO CHO","town":"RAWAN","perfecture_jp":"北海道","jp_add_1":"足寄郡足寄町","jp_add_2":"螺湾"},"0893966":{"post_code":"0893966","prefecture":"HOKKAIDO","city":"ASHORO GUN ASHORO CHO","town":"RAWAMMOTOMACHI","perfecture_jp":"北海道","jp_add_1":"足寄郡足寄町","jp_add_2":"螺湾本町"},"0893736":{"post_code":"0893736","prefecture":"HOKKAIDO","city":"ASHORO GUN ASHORO CHO","town":"WASHIPPU","perfecture_jp":"北海道","jp_add_1":"足寄郡足寄町","jp_add_2":"鷲府"},"0894300":{"post_code":"0894300","prefecture":"HOKKAIDO","city":"ASHORO GUN RIKUBETSU CHO","town":"IKANIKEISAIGANAIBAAI","perfecture_jp":"北海道","jp_add_1":"足寄郡陸別町","jp_add_2":""},"0894324":{"post_code":"0894324","prefecture":"HOKKAIDO","city":"ASHORO GUN RIKUBETSU CHO","town":"ASAHIMACHI","perfecture_jp":"北海道","jp_add_1":"足寄郡陸別町","jp_add_2":"旭町"},"0894301":{"post_code":"0894301","prefecture":"HOKKAIDO","city":"ASHORO GUN RIKUBETSU CHO","town":"UEMBETSU","perfecture_jp":"北海道","jp_add_1":"足寄郡陸別町","jp_add_2":"ウエンベツ"},"0894315":{"post_code":"0894315","prefecture":"HOKKAIDO","city":"ASHORO GUN RIKUBETSU CHO","town":"ODORI","perfecture_jp":"北海道","jp_add_1":"足寄郡陸別町","jp_add_2":"大通"},"0894321":{"post_code":"0894321","prefecture":"HOKKAIDO","city":"ASHORO GUN RIKUBETSU CHO","town":"ONNENAI","perfecture_jp":"北海道","jp_add_1":"足寄郡陸別町","jp_add_2":"恩根内"},"0894342":{"post_code":"0894342","prefecture":"HOKKAIDO","city":"ASHORO GUN RIKUBETSU CHO","town":"KAMITOMAMU","perfecture_jp":"北海道","jp_add_1":"足寄郡陸別町","jp_add_2":"上斗満"},"0894308":{"post_code":"0894308","prefecture":"HOKKAIDO","city":"ASHORO GUN RIKUBETSU CHO","town":"KAMIRIKUBETSU","perfecture_jp":"北海道","jp_add_1":"足寄郡陸別町","jp_add_2":"上陸別"},"0894353":{"post_code":"0894353","prefecture":"HOKKAIDO","city":"ASHORO GUN RIKUBETSU CHO","town":"KAWAKAMI","perfecture_jp":"北海道","jp_add_1":"足寄郡陸別町","jp_add_2":"川上"},"0894331":{"post_code":"0894331","prefecture":"HOKKAIDO","city":"ASHORO GUN RIKUBETSU CHO","town":"KAWAMUKAI","perfecture_jp":"北海道","jp_add_1":"足寄郡陸別町","jp_add_2":"川向"},"0894345":{"post_code":"0894345","prefecture":"HOKKAIDO","city":"ASHORO GUN RIKUBETSU CHO","town":"KITATOMAMU","perfecture_jp":"北海道","jp_add_1":"足寄郡陸別町","jp_add_2":"北斗満"},"0894313":{"post_code":"0894313","prefecture":"HOKKAIDO","city":"ASHORO GUN RIKUBETSU CHO","town":"KYOEIDAI1","perfecture_jp":"北海道","jp_add_1":"足寄郡陸別町","jp_add_2":"共栄第一"},"0894312":{"post_code":"0894312","prefecture":"HOKKAIDO","city":"ASHORO GUN RIKUBETSU CHO","town":"KYOEIDAI2","perfecture_jp":"北海道","jp_add_1":"足寄郡陸別町","jp_add_2":"共栄第二"},"0894304":{"post_code":"0894304","prefecture":"HOKKAIDO","city":"ASHORO GUN RIKUBETSU CHO","town":"KYOWA","perfecture_jp":"北海道","jp_add_1":"足寄郡陸別町","jp_add_2":"共和"},"0894351":{"post_code":"0894351","prefecture":"HOKKAIDO","city":"ASHORO GUN RIKUBETSU CHO","town":"KUNNEBETSU","perfecture_jp":"北海道","jp_add_1":"足寄郡陸別町","jp_add_2":"勲祢別"},"0894262":{"post_code":"0894262","prefecture":"HOKKAIDO","city":"ASHORO GUN RIKUBETSU CHO","town":"KUMBETSU","perfecture_jp":"北海道","jp_add_1":"足寄郡陸別町","jp_add_2":"薫別"},"0894316":{"post_code":"0894316","prefecture":"HOKKAIDO","city":"ASHORO GUN RIKUBETSU CHO","town":"SAKAEMACHI","perfecture_jp":"北海道","jp_add_1":"足寄郡陸別町","jp_add_2":"栄町"},"0894307":{"post_code":"0894307","prefecture":"HOKKAIDO","city":"ASHORO GUN RIKUBETSU CHO","town":"SAKUSHU","perfecture_jp":"北海道","jp_add_1":"足寄郡陸別町","jp_add_2":"作集"},"0894337":{"post_code":"0894337","prefecture":"HOKKAIDO","city":"ASHORO GUN RIKUBETSU CHO","town":"SHIMOTOMAMU","perfecture_jp":"北海道","jp_add_1":"足寄郡陸別町","jp_add_2":"下斗満"},"0894303":{"post_code":"0894303","prefecture":"HOKKAIDO","city":"ASHORO GUN RIKUBETSU CHO","town":"SHIMORIKUBETSU","perfecture_jp":"北海道","jp_add_1":"足寄郡陸別町","jp_add_2":"下陸別"},"0894355":{"post_code":"0894355","prefecture":"HOKKAIDO","city":"ASHORO GUN RIKUBETSU CHO","town":"SHOTOSHIBETSU","perfecture_jp":"北海道","jp_add_1":"足寄郡陸別町","jp_add_2":"小利別"},"0894333":{"post_code":"0894333","prefecture":"HOKKAIDO","city":"ASHORO GUN RIKUBETSU CHO","town":"SHOKUSAN","perfecture_jp":"北海道","jp_add_1":"足寄郡陸別町","jp_add_2":"殖産"},"0894322":{"post_code":"0894322","prefecture":"HOKKAIDO","city":"ASHORO GUN RIKUBETSU CHO","town":"SHIMMACHI1-KU","perfecture_jp":"北海道","jp_add_1":"足寄郡陸別町","jp_add_2":"新町一区"},"0894323":{"post_code":"0894323","prefecture":"HOKKAIDO","city":"ASHORO GUN RIKUBETSU CHO","town":"SHIMMACHI2-KU","perfecture_jp":"北海道","jp_add_1":"足寄郡陸別町","jp_add_2":"新町二区"},"0894332":{"post_code":"0894332","prefecture":"HOKKAIDO","city":"ASHORO GUN RIKUBETSU CHO","town":"SEKI","perfecture_jp":"北海道","jp_add_1":"足寄郡陸別町","jp_add_2":"関"},"0894357":{"post_code":"0894357","prefecture":"HOKKAIDO","city":"ASHORO GUN RIKUBETSU CHO","town":"TOSHIKAMI","perfecture_jp":"北海道","jp_add_1":"足寄郡陸別町","jp_add_2":"利上"},"0894341":{"post_code":"0894341","prefecture":"HOKKAIDO","city":"ASHORO GUN RIKUBETSU CHO","town":"TOMAMU","perfecture_jp":"北海道","jp_add_1":"足寄郡陸別町","jp_add_2":"苫務"},"0894261":{"post_code":"0894261","prefecture":"HOKKAIDO","city":"ASHORO GUN RIKUBETSU CHO","town":"TORARI","perfecture_jp":"北海道","jp_add_1":"足寄郡陸別町","jp_add_2":"登良利"},"0894305":{"post_code":"0894305","prefecture":"HOKKAIDO","city":"ASHORO GUN RIKUBETSU CHO","town":"NAKARIKUBETSU","perfecture_jp":"北海道","jp_add_1":"足寄郡陸別町","jp_add_2":"中陸別"},"0894335":{"post_code":"0894335","prefecture":"HOKKAIDO","city":"ASHORO GUN RIKUBETSU CHO","town":"NAKATOMAMU","perfecture_jp":"北海道","jp_add_1":"足寄郡陸別町","jp_add_2":"中斗満"},"0894344":{"post_code":"0894344","prefecture":"HOKKAIDO","city":"ASHORO GUN RIKUBETSU CHO","town":"NISHITOMAMU","perfecture_jp":"北海道","jp_add_1":"足寄郡陸別町","jp_add_2":"西斗満"},"0894354":{"post_code":"0894354","prefecture":"HOKKAIDO","city":"ASHORO GUN RIKUBETSU CHO","town":"NISSHU","perfecture_jp":"北海道","jp_add_1":"足寄郡陸別町","jp_add_2":"日宗"},"0894334":{"post_code":"0894334","prefecture":"HOKKAIDO","city":"ASHORO GUN RIKUBETSU CHO","town":"HIGASHITOMAMU","perfecture_jp":"北海道","jp_add_1":"足寄郡陸別町","jp_add_2":"東斗満"},"0894314":{"post_code":"0894314","prefecture":"HOKKAIDO","city":"ASHORO GUN RIKUBETSU CHO","town":"HIGASHI1-JO1-KU","perfecture_jp":"北海道","jp_add_1":"足寄郡陸別町","jp_add_2":"東一条一区"},"0894311":{"post_code":"0894311","prefecture":"HOKKAIDO","city":"ASHORO GUN RIKUBETSU CHO","town":"HIGASHI1-JO2-KU","perfecture_jp":"北海道","jp_add_1":"足寄郡陸別町","jp_add_2":"東一条二区"},"0894352":{"post_code":"0894352","prefecture":"HOKKAIDO","city":"ASHORO GUN RIKUBETSU CHO","town":"BUNSEN","perfecture_jp":"北海道","jp_add_1":"足寄郡陸別町","jp_add_2":"分線"},"0894346":{"post_code":"0894346","prefecture":"HOKKAIDO","city":"ASHORO GUN RIKUBETSU CHO","town":"PONTOMAMU","perfecture_jp":"北海道","jp_add_1":"足寄郡陸別町","jp_add_2":"ポントマム"},"0894326":{"post_code":"0894326","prefecture":"HOKKAIDO","city":"ASHORO GUN RIKUBETSU CHO","town":"MIDORIMACHI","perfecture_jp":"北海道","jp_add_1":"足寄郡陸別町","jp_add_2":"緑町"},"0894343":{"post_code":"0894343","prefecture":"HOKKAIDO","city":"ASHORO GUN RIKUBETSU CHO","town":"MINAMITOMAMU","perfecture_jp":"北海道","jp_add_1":"足寄郡陸別町","jp_add_2":"南斗満"},"0894325":{"post_code":"0894325","prefecture":"HOKKAIDO","city":"ASHORO GUN RIKUBETSU CHO","town":"MOTOMACHI","perfecture_jp":"北海道","jp_add_1":"足寄郡陸別町","jp_add_2":"元町"},"0894306":{"post_code":"0894306","prefecture":"HOKKAIDO","city":"ASHORO GUN RIKUBETSU CHO","town":"YAMUWAKKANAI","perfecture_jp":"北海道","jp_add_1":"足寄郡陸別町","jp_add_2":"止若内"},"0894336":{"post_code":"0894336","prefecture":"HOKKAIDO","city":"ASHORO GUN RIKUBETSU CHO","town":"YAYOI","perfecture_jp":"北海道","jp_add_1":"足寄郡陸別町","jp_add_2":"弥生"},"0894356":{"post_code":"0894356","prefecture":"HOKKAIDO","city":"ASHORO GUN RIKUBETSU CHO","town":"RINNAI","perfecture_jp":"北海道","jp_add_1":"足寄郡陸別町","jp_add_2":"林内"},"0894302":{"post_code":"0894302","prefecture":"HOKKAIDO","city":"ASHORO GUN RIKUBETSU CHO","town":"WAKABA","perfecture_jp":"北海道","jp_add_1":"足寄郡陸別町","jp_add_2":"若葉"},"0895600":{"post_code":"0895600","prefecture":"HOKKAIDO","city":"TOKACHI GUN URAHORO CHO","town":"IKANIKEISAIGANAIBAAI","perfecture_jp":"北海道","jp_add_1":"十勝郡浦幌町","jp_add_2":""},"0895551":{"post_code":"0895551","prefecture":"HOKKAIDO","city":"TOKACHI GUN URAHORO CHO","town":"AIUSHI","perfecture_jp":"北海道","jp_add_1":"十勝郡浦幌町","jp_add_2":"愛牛"},"0893576":{"post_code":"0893576","prefecture":"HOKKAIDO","city":"TOKACHI GUN URAHORO CHO","town":"AIKAWA","perfecture_jp":"北海道","jp_add_1":"十勝郡浦幌町","jp_add_2":"相川"},"0895546":{"post_code":"0895546","prefecture":"HOKKAIDO","city":"TOKACHI GUN URAHORO CHO","town":"ASAHI","perfecture_jp":"北海道","jp_add_1":"十勝郡浦幌町","jp_add_2":"朝日"},"0895865":{"post_code":"0895865","prefecture":"HOKKAIDO","city":"TOKACHI GUN URAHORO CHO","town":"ATSUNAI(ZENIKI)","perfecture_jp":"北海道","jp_add_1":"十勝郡浦幌町","jp_add_2":"厚内"},"0895638":{"post_code":"0895638","prefecture":"HOKKAIDO","city":"TOKACHI GUN URAHORO CHO","town":"IKUCHISE","perfecture_jp":"北海道","jp_add_1":"十勝郡浦幌町","jp_add_2":"幾栄"},"0895637":{"post_code":"0895637","prefecture":"HOKKAIDO","city":"TOKACHI GUN URAHORO CHO","town":"INAHO","perfecture_jp":"北海道","jp_add_1":"十勝郡浦幌町","jp_add_2":"稲穂"},"0895553":{"post_code":"0895553","prefecture":"HOKKAIDO","city":"TOKACHI GUN URAHORO CHO","town":"UTSUNAI","perfecture_jp":"北海道","jp_add_1":"十勝郡浦幌町","jp_add_2":"打内"},"0893586":{"post_code":"0893586","prefecture":"HOKKAIDO","city":"TOKACHI GUN URAHORO CHO","town":"EIHO","perfecture_jp":"北海道","jp_add_1":"十勝郡浦幌町","jp_add_2":"栄穂"},"0895867":{"post_code":"0895867","prefecture":"HOKKAIDO","city":"TOKACHI GUN URAHORO CHO","town":"OKOPPE","perfecture_jp":"北海道","jp_add_1":"十勝郡浦幌町","jp_add_2":"オコッペ"},"0895634":{"post_code":"0895634","prefecture":"HOKKAIDO","city":"TOKACHI GUN URAHORO CHO","town":"TOKIWA","perfecture_jp":"北海道","jp_add_1":"十勝郡浦幌町","jp_add_2":"帯富"},"0893571":{"post_code":"0893571","prefecture":"HOKKAIDO","city":"TOKACHI GUN URAHORO CHO","town":"ONNENAI","perfecture_jp":"北海道","jp_add_1":"十勝郡浦幌町","jp_add_2":"恩根内"},"0893574":{"post_code":"0893574","prefecture":"HOKKAIDO","city":"TOKACHI GUN URAHORO CHO","town":"KATSUHIRA","perfecture_jp":"北海道","jp_add_1":"十勝郡浦幌町","jp_add_2":"活平"},"0895866":{"post_code":"0895866","prefecture":"HOKKAIDO","city":"TOKACHI GUN URAHORO CHO","town":"KAMIATSUNAI","perfecture_jp":"北海道","jp_add_1":"十勝郡浦幌町","jp_add_2":"上厚内"},"0893585":{"post_code":"0893585","prefecture":"HOKKAIDO","city":"TOKACHI GUN URAHORO CHO","town":"KAWAKAMI","perfecture_jp":"北海道","jp_add_1":"十勝郡浦幌町","jp_add_2":"川上"},"0893572":{"post_code":"0893572","prefecture":"HOKKAIDO","city":"TOKACHI GUN URAHORO CHO","town":"KAWARYUFU","perfecture_jp":"北海道","jp_add_1":"十勝郡浦幌町","jp_add_2":"川流布"},"0895621":{"post_code":"0895621","prefecture":"HOKKAIDO","city":"TOKACHI GUN URAHORO CHO","town":"KITAMACHI","perfecture_jp":"北海道","jp_add_1":"十勝郡浦幌町","jp_add_2":"北町"},"0895542":{"post_code":"0895542","prefecture":"HOKKAIDO","city":"TOKACHI GUN URAHORO CHO","town":"KYOEI","perfecture_jp":"北海道","jp_add_1":"十勝郡浦幌町","jp_add_2":"共栄"},"0893587":{"post_code":"0893587","prefecture":"HOKKAIDO","city":"TOKACHI GUN URAHORO CHO","town":"KIRORO","perfecture_jp":"北海道","jp_add_1":"十勝郡浦幌町","jp_add_2":"貴老路"},"0895617":{"post_code":"0895617","prefecture":"HOKKAIDO","city":"TOKACHI GUN URAHORO CHO","town":"MINAMIMACHI","perfecture_jp":"北海道","jp_add_1":"十勝郡浦幌町","jp_add_2":"光南"},"0893577":{"post_code":"0893577","prefecture":"HOKKAIDO","city":"TOKACHI GUN URAHORO CHO","town":"GORYU","perfecture_jp":"北海道","jp_add_1":"十勝郡浦幌町","jp_add_2":"合流"},"0895611":{"post_code":"0895611","prefecture":"HOKKAIDO","city":"TOKACHI GUN URAHORO CHO","town":"KOTOBUKICHO","perfecture_jp":"北海道","jp_add_1":"十勝郡浦幌町","jp_add_2":"寿町"},"0895868":{"post_code":"0895868","prefecture":"HOKKAIDO","city":"TOKACHI GUN URAHORO CHO","town":"KOBUKARIISHI(3-BANCHI)","perfecture_jp":"北海道","jp_add_1":"十勝郡浦幌町","jp_add_2":"昆布刈石"},"0895558":{"post_code":"0895558","prefecture":"HOKKAIDO","city":"TOKACHI GUN URAHORO CHO","town":"KOBUKARIISHI(30-BANCHI)","perfecture_jp":"北海道","jp_add_1":"十勝郡浦幌町","jp_add_2":"昆布刈石"},"0895607":{"post_code":"0895607","prefecture":"HOKKAIDO","city":"TOKACHI GUN URAHORO CHO","town":"ZAIMOKUCHO","perfecture_jp":"北海道","jp_add_1":"十勝郡浦幌町","jp_add_2":"材木町"},"0895613":{"post_code":"0895613","prefecture":"HOKKAIDO","city":"TOKACHI GUN URAHORO CHO","town":"SAIWAICHO","perfecture_jp":"北海道","jp_add_1":"十勝郡浦幌町","jp_add_2":"幸町"},"0895604":{"post_code":"0895604","prefecture":"HOKKAIDO","city":"TOKACHI GUN URAHORO CHO","town":"SAKAEMACHI","perfecture_jp":"北海道","jp_add_1":"十勝郡浦幌町","jp_add_2":"栄町"},"0895614":{"post_code":"0895614","prefecture":"HOKKAIDO","city":"TOKACHI GUN URAHORO CHO","town":"SAKURAMACHI","perfecture_jp":"北海道","jp_add_1":"十勝郡浦幌町","jp_add_2":"桜町"},"0895635":{"post_code":"0895635","prefecture":"HOKKAIDO","city":"TOKACHI GUN URAHORO CHO","town":"SHIZUNAI","perfecture_jp":"北海道","jp_add_1":"十勝郡浦幌町","jp_add_2":"静内"},"0895615":{"post_code":"0895615","prefecture":"HOKKAIDO","city":"TOKACHI GUN URAHORO CHO","town":"SHIMMACHI","perfecture_jp":"北海道","jp_add_1":"十勝郡浦幌町","jp_add_2":"新町"},"0895602":{"post_code":"0895602","prefecture":"HOKKAIDO","city":"TOKACHI GUN URAHORO CHO","town":"SUEHIROCHO","perfecture_jp":"北海道","jp_add_1":"十勝郡浦幌町","jp_add_2":"末広町"},"0895606":{"post_code":"0895606","prefecture":"HOKKAIDO","city":"TOKACHI GUN URAHORO CHO","town":"SUMIYOSHICHO","perfecture_jp":"北海道","jp_add_1":"十勝郡浦幌町","jp_add_2":"住吉町"},"0895547":{"post_code":"0895547","prefecture":"HOKKAIDO","city":"TOKACHI GUN URAHORO CHO","town":"SEIGO","perfecture_jp":"北海道","jp_add_1":"十勝郡浦幌町","jp_add_2":"生剛"},"0895631":{"post_code":"0895631","prefecture":"HOKKAIDO","city":"TOKACHI GUN URAHORO CHO","town":"SETARAI","perfecture_jp":"北海道","jp_add_1":"十勝郡浦幌町","jp_add_2":"瀬多来"},"0895554":{"post_code":"0895554","prefecture":"HOKKAIDO","city":"TOKACHI GUN URAHORO CHO","town":"TAIHEI","perfecture_jp":"北海道","jp_add_1":"十勝郡浦幌町","jp_add_2":"大平"},"0895601":{"post_code":"0895601","prefecture":"HOKKAIDO","city":"TOKACHI GUN URAHORO CHO","town":"TAKARAMACHI","perfecture_jp":"北海道","jp_add_1":"十勝郡浦幌町","jp_add_2":"宝町"},"0895636":{"post_code":"0895636","prefecture":"HOKKAIDO","city":"TOKACHI GUN URAHORO CHO","town":"MANNEN","perfecture_jp":"北海道","jp_add_1":"十勝郡浦幌町","jp_add_2":"千歳町"},"0895869":{"post_code":"0895869","prefecture":"HOKKAIDO","city":"TOKACHI GUN URAHORO CHO","town":"CHIPUNEOKOPPE","perfecture_jp":"北海道","jp_add_1":"十勝郡浦幌町","jp_add_2":"チプネオコッペ"},"0895633":{"post_code":"0895633","prefecture":"HOKKAIDO","city":"TOKACHI GUN URAHORO CHO","town":"MARUYAMA","perfecture_jp":"北海道","jp_add_1":"十勝郡浦幌町","jp_add_2":"常豊"},"0895555":{"post_code":"0895555","prefecture":"HOKKAIDO","city":"TOKACHI GUN URAHORO CHO","town":"TOITOKKI","perfecture_jp":"北海道","jp_add_1":"十勝郡浦幌町","jp_add_2":"トイトッキ"},"0895544":{"post_code":"0895544","prefecture":"HOKKAIDO","city":"TOKACHI GUN URAHORO CHO","town":"TOFUTO","perfecture_jp":"北海道","jp_add_1":"十勝郡浦幌町","jp_add_2":"統太"},"0895548":{"post_code":"0895548","prefecture":"HOKKAIDO","city":"TOKACHI GUN URAHORO CHO","town":"TOKACHIBUTO","perfecture_jp":"北海道","jp_add_1":"十勝郡浦幌町","jp_add_2":"十勝太"},"0893573":{"post_code":"0893573","prefecture":"HOKKAIDO","city":"TOKACHI GUN URAHORO CHO","town":"TOMIKAWA","perfecture_jp":"北海道","jp_add_1":"十勝郡浦幌町","jp_add_2":"富川"},"0895552":{"post_code":"0895552","prefecture":"HOKKAIDO","city":"TOKACHI GUN URAHORO CHO","town":"TOYOKITA","perfecture_jp":"北海道","jp_add_1":"十勝郡浦幌町","jp_add_2":"豊北"},"0895608":{"post_code":"0895608","prefecture":"HOKKAIDO","city":"TOKACHI GUN URAHORO CHO","town":"NISHIMACHI","perfecture_jp":"北海道","jp_add_1":"十勝郡浦幌町","jp_add_2":"西町"},"0895557":{"post_code":"0895557","prefecture":"HOKKAIDO","city":"TOKACHI GUN URAHORO CHO","town":"NUTABETTO","perfecture_jp":"北海道","jp_add_1":"十勝郡浦幌町","jp_add_2":"ヌタベット"},"0895612":{"post_code":"0895612","prefecture":"HOKKAIDO","city":"TOKACHI GUN URAHORO CHO","town":"HIGASHIYAMACHO","perfecture_jp":"北海道","jp_add_1":"十勝郡浦幌町","jp_add_2":"東山町"},"0895543":{"post_code":"0895543","prefecture":"HOKKAIDO","city":"TOKACHI GUN URAHORO CHO","town":"HEIWA","perfecture_jp":"北海道","jp_add_1":"十勝郡浦幌町","jp_add_2":"平和"},"0895556":{"post_code":"0895556","prefecture":"HOKKAIDO","city":"TOKACHI GUN URAHORO CHO","town":"BETCHARO","perfecture_jp":"北海道","jp_add_1":"十勝郡浦幌町","jp_add_2":"鼈奴"},"0893578":{"post_code":"0893578","prefecture":"HOKKAIDO","city":"TOKACHI GUN URAHORO CHO","town":"HOSEI","perfecture_jp":"北海道","jp_add_1":"十勝郡浦幌町","jp_add_2":"宝生"},"0895622":{"post_code":"0895622","prefecture":"HOKKAIDO","city":"TOKACHI GUN URAHORO CHO","town":"HOKUEI","perfecture_jp":"北海道","jp_add_1":"十勝郡浦幌町","jp_add_2":"北栄"},"0895603":{"post_code":"0895603","prefecture":"HOKKAIDO","city":"TOKACHI GUN URAHORO CHO","town":"HONCHO","perfecture_jp":"北海道","jp_add_1":"十勝郡浦幌町","jp_add_2":"本町"},"0893575":{"post_code":"0893575","prefecture":"HOKKAIDO","city":"TOKACHI GUN URAHORO CHO","town":"MISONO","perfecture_jp":"北海道","jp_add_1":"十勝郡浦幌町","jp_add_2":"美園"},"0895605":{"post_code":"0895605","prefecture":"HOKKAIDO","city":"TOKACHI GUN URAHORO CHO","town":"MIDORIMACHI","perfecture_jp":"北海道","jp_add_1":"十勝郡浦幌町","jp_add_2":"緑町"},"0895545":{"post_code":"0895545","prefecture":"HOKKAIDO","city":"TOKACHI GUN URAHORO CHO","town":"YORO","perfecture_jp":"北海道","jp_add_1":"十勝郡浦幌町","jp_add_2":"養老"},"0895541":{"post_code":"0895541","prefecture":"HOKKAIDO","city":"TOKACHI GUN URAHORO CHO","town":"YOSHINO","perfecture_jp":"北海道","jp_add_1":"十勝郡浦幌町","jp_add_2":"吉野"},"0895632":{"post_code":"0895632","prefecture":"HOKKAIDO","city":"TOKACHI GUN URAHORO CHO","town":"RUSHIN","perfecture_jp":"北海道","jp_add_1":"十勝郡浦幌町","jp_add_2":"留真"}}