{"0900000":{"post_code":"0900000","prefecture":"HOKKAIDO","city":"KITAMI SHI","town":"IKANIKEISAIGANAIBAAI","perfecture_jp":"北海道","jp_add_1":"北見市","jp_add_2":""},"0900018":{"post_code":"0900018","prefecture":"HOKKAIDO","city":"KITAMI SHI","town":"AOBACHO","perfecture_jp":"北海道","jp_add_1":"北見市","jp_add_2":"青葉町"},"0900011":{"post_code":"0900011","prefecture":"HOKKAIDO","city":"KITAMI SHI","town":"AKEBONOCHO","perfecture_jp":"北海道","jp_add_1":"北見市","jp_add_2":"曙町"},"0900803":{"post_code":"0900803","prefecture":"HOKKAIDO","city":"KITAMI SHI","town":"ASAHIMACHI","perfecture_jp":"北海道","jp_add_1":"北見市","jp_add_2":"朝日町"},"0900811":{"post_code":"0900811","prefecture":"HOKKAIDO","city":"KITAMI SHI","town":"IZUMICHO","perfecture_jp":"北海道","jp_add_1":"北見市","jp_add_2":"泉町"},"0900020":{"post_code":"0900020","prefecture":"HOKKAIDO","city":"KITAMI SHI","town":"ODORI HIGASHI","perfecture_jp":"北海道","jp_add_1":"北見市","jp_add_2":"大通東"},"0900040":{"post_code":"0900040","prefecture":"HOKKAIDO","city":"KITAMI SHI","town":"ODORI NISHI","perfecture_jp":"北海道","jp_add_1":"北見市","jp_add_2":"大通西"},"0900016":{"post_code":"0900016","prefecture":"HOKKAIDO","city":"KITAMI SHI","town":"OMACHI","perfecture_jp":"北海道","jp_add_1":"北見市","jp_add_2":"大町"},"0900056":{"post_code":"0900056","prefecture":"HOKKAIDO","city":"KITAMI SHI","town":"OROSHIMACHI","perfecture_jp":"北海道","jp_add_1":"北見市","jp_add_2":"卸町"},"0900066":{"post_code":"0900066","prefecture":"HOKKAIDO","city":"KITAMI SHI","town":"KAGETSUCHO","perfecture_jp":"北海道","jp_add_1":"北見市","jp_add_2":"花月町"},"0900053":{"post_code":"0900053","prefecture":"HOKKAIDO","city":"KITAMI SHI","town":"KATSURAMACHI","perfecture_jp":"北海道","jp_add_1":"北見市","jp_add_2":"桂町"},"0900006":{"post_code":"0900006","prefecture":"HOKKAIDO","city":"KITAMI SHI","town":"KAMINIKORO","perfecture_jp":"北海道","jp_add_1":"北見市","jp_add_2":"上仁頃"},"0900821":{"post_code":"0900821","prefecture":"HOKKAIDO","city":"KITAMI SHI","town":"KAWAZOECHO","perfecture_jp":"北海道","jp_add_1":"北見市","jp_add_2":"川沿町"},"0900807":{"post_code":"0900807","prefecture":"HOKKAIDO","city":"KITAMI SHI","town":"KAWAHIGASHI","perfecture_jp":"北海道","jp_add_1":"北見市","jp_add_2":"川東"},"0900021":{"post_code":"0900021","prefecture":"HOKKAIDO","city":"KITAMI SHI","town":"KITA1-JOHIGASHI","perfecture_jp":"北海道","jp_add_1":"北見市","jp_add_2":"北一条東"},"0900041":{"post_code":"0900041","prefecture":"HOKKAIDO","city":"KITAMI SHI","town":"KITA1-JONISHI","perfecture_jp":"北海道","jp_add_1":"北見市","jp_add_2":"北一条西"},"0900022":{"post_code":"0900022","prefecture":"HOKKAIDO","city":"KITAMI SHI","town":"KITA2-JOHIGASHI","perfecture_jp":"北海道","jp_add_1":"北見市","jp_add_2":"北二条東"},"0900042":{"post_code":"0900042","prefecture":"HOKKAIDO","city":"KITAMI SHI","town":"KITA2-JONISHI","perfecture_jp":"北海道","jp_add_1":"北見市","jp_add_2":"北二条西"},"0900023":{"post_code":"0900023","prefecture":"HOKKAIDO","city":"KITAMI SHI","town":"KITA3-JOHIGASHI","perfecture_jp":"北海道","jp_add_1":"北見市","jp_add_2":"北三条東"},"0900043":{"post_code":"0900043","prefecture":"HOKKAIDO","city":"KITAMI SHI","town":"KITA3-JONISHI","perfecture_jp":"北海道","jp_add_1":"北見市","jp_add_2":"北三条西"},"0900024":{"post_code":"0900024","prefecture":"HOKKAIDO","city":"KITAMI SHI","town":"KITA4-JOHIGASHI","perfecture_jp":"北海道","jp_add_1":"北見市","jp_add_2":"北四条東"},"0900044":{"post_code":"0900044","prefecture":"HOKKAIDO","city":"KITAMI SHI","town":"KITA4-JONISHI","perfecture_jp":"北海道","jp_add_1":"北見市","jp_add_2":"北四条西"},"0900025":{"post_code":"0900025","prefecture":"HOKKAIDO","city":"KITAMI SHI","town":"KITA5-JOHIGASHI","perfecture_jp":"北海道","jp_add_1":"北見市","jp_add_2":"北五条東"},"0900045":{"post_code":"0900045","prefecture":"HOKKAIDO","city":"KITAMI SHI","town":"KITA5-JONISHI","perfecture_jp":"北海道","jp_add_1":"北見市","jp_add_2":"北五条西"},"0900026":{"post_code":"0900026","prefecture":"HOKKAIDO","city":"KITAMI SHI","town":"KITA6-JOHIGASHI","perfecture_jp":"北海道","jp_add_1":"北見市","jp_add_2":"北六条東"},"0900046":{"post_code":"0900046","prefecture":"HOKKAIDO","city":"KITAMI SHI","town":"KITA6-JONISHI","perfecture_jp":"北海道","jp_add_1":"北見市","jp_add_2":"北六条西"},"0900027":{"post_code":"0900027","prefecture":"HOKKAIDO","city":"KITAMI SHI","town":"KITA7-JOHIGASHI","perfecture_jp":"北海道","jp_add_1":"北見市","jp_add_2":"北七条東"},"0900047":{"post_code":"0900047","prefecture":"HOKKAIDO","city":"KITAMI SHI","town":"KITA7-JONISHI","perfecture_jp":"北海道","jp_add_1":"北見市","jp_add_2":"北七条西"},"0900028":{"post_code":"0900028","prefecture":"HOKKAIDO","city":"KITAMI SHI","town":"KITA8-JOHIGASHI","perfecture_jp":"北海道","jp_add_1":"北見市","jp_add_2":"北八条東"},"0900048":{"post_code":"0900048","prefecture":"HOKKAIDO","city":"KITAMI SHI","town":"KITA8-JONISHI","perfecture_jp":"北海道","jp_add_1":"北見市","jp_add_2":"北八条西"},"0900029":{"post_code":"0900029","prefecture":"HOKKAIDO","city":"KITAMI SHI","town":"KITA9-JOHIGASHI","perfecture_jp":"北海道","jp_add_1":"北見市","jp_add_2":"北九条東"},"0900030":{"post_code":"0900030","prefecture":"HOKKAIDO","city":"KITAMI SHI","town":"KITA10-JOHIGASHI","perfecture_jp":"北海道","jp_add_1":"北見市","jp_add_2":"北十条東"},"0900031":{"post_code":"0900031","prefecture":"HOKKAIDO","city":"KITAMI SHI","town":"KITA11-JOHIGASHI","perfecture_jp":"北海道","jp_add_1":"北見市","jp_add_2":"北十一条東"},"0900063":{"post_code":"0900063","prefecture":"HOKKAIDO","city":"KITAMI SHI","town":"KIYOMICHO","perfecture_jp":"北海道","jp_add_1":"北見市","jp_add_2":"清見町"},"0900001":{"post_code":"0900001","prefecture":"HOKKAIDO","city":"KITAMI SHI","town":"KOIZUMI","perfecture_jp":"北海道","jp_add_1":"北見市","jp_add_2":"小泉"},"0900051":{"post_code":"0900051","prefecture":"HOKKAIDO","city":"KITAMI SHI","town":"KOEI HIGASHIMACHI","perfecture_jp":"北海道","jp_add_1":"北見市","jp_add_2":"高栄東町"},"0900058":{"post_code":"0900058","prefecture":"HOKKAIDO","city":"KITAMI SHI","town":"KOEI NISHIMACHI","perfecture_jp":"北海道","jp_add_1":"北見市","jp_add_2":"高栄西町"},"0900015":{"post_code":"0900015","prefecture":"HOKKAIDO","city":"KITAMI SHI","town":"KOENCHO","perfecture_jp":"北海道","jp_add_1":"北見市","jp_add_2":"公園町"},"0900835":{"post_code":"0900835","prefecture":"HOKKAIDO","city":"KITAMI SHI","town":"KOSEICHO","perfecture_jp":"北海道","jp_add_1":"北見市","jp_add_2":"光西町"},"0900823":{"post_code":"0900823","prefecture":"HOKKAIDO","city":"KITAMI SHI","town":"KOMEICHO","perfecture_jp":"北海道","jp_add_1":"北見市","jp_add_2":"広明町"},"0900814":{"post_code":"0900814","prefecture":"HOKKAIDO","city":"KITAMI SHI","town":"KOYOCHO","perfecture_jp":"北海道","jp_add_1":"北見市","jp_add_2":"光葉町"},"0900065":{"post_code":"0900065","prefecture":"HOKKAIDO","city":"KITAMI SHI","town":"KOTOBUKICHO","perfecture_jp":"北海道","jp_add_1":"北見市","jp_add_2":"寿町"},"0900036":{"post_code":"0900036","prefecture":"HOKKAIDO","city":"KITAMI SHI","town":"SAIWAICHO","perfecture_jp":"北海道","jp_add_1":"北見市","jp_add_2":"幸町"},"0900832":{"post_code":"0900832","prefecture":"HOKKAIDO","city":"KITAMI SHI","town":"SAKAEMACHI","perfecture_jp":"北海道","jp_add_1":"北見市","jp_add_2":"栄町"},"0900804":{"post_code":"0900804","prefecture":"HOKKAIDO","city":"KITAMI SHI","town":"SAKURAMACHI","perfecture_jp":"北海道","jp_add_1":"北見市","jp_add_2":"桜町"},"0900019":{"post_code":"0900019","prefecture":"HOKKAIDO","city":"KITAMI SHI","town":"SANRAKUCHO","perfecture_jp":"北海道","jp_add_1":"北見市","jp_add_2":"三楽町"},"0900801":{"post_code":"0900801","prefecture":"HOKKAIDO","city":"KITAMI SHI","town":"SHUNKOCHO","perfecture_jp":"北海道","jp_add_1":"北見市","jp_add_2":"春光町"},"0900002":{"post_code":"0900002","prefecture":"HOKKAIDO","city":"KITAMI SHI","town":"SHOWA","perfecture_jp":"北海道","jp_add_1":"北見市","jp_add_2":"昭和"},"0900815":{"post_code":"0900815","prefecture":"HOKKAIDO","city":"KITAMI SHI","town":"SHINSEICHO","perfecture_jp":"北海道","jp_add_1":"北見市","jp_add_2":"新生町"},"0900826":{"post_code":"0900826","prefecture":"HOKKAIDO","city":"KITAMI SHI","town":"SUEHIROCHO","perfecture_jp":"北海道","jp_add_1":"北見市","jp_add_2":"末広町"},"0900805":{"post_code":"0900805","prefecture":"HOKKAIDO","city":"KITAMI SHI","town":"SEIGETSUCHO","perfecture_jp":"北海道","jp_add_1":"北見市","jp_add_2":"清月町"},"0900008":{"post_code":"0900008","prefecture":"HOKKAIDO","city":"KITAMI SHI","town":"TAISHO","perfecture_jp":"北海道","jp_add_1":"北見市","jp_add_2":"大正"},"0900017":{"post_code":"0900017","prefecture":"HOKKAIDO","city":"KITAMI SHI","town":"TAKASAGOCHO","perfecture_jp":"北海道","jp_add_1":"北見市","jp_add_2":"高砂町"},"0900802":{"post_code":"0900802","prefecture":"HOKKAIDO","city":"KITAMI SHI","town":"TABATACHO","perfecture_jp":"北海道","jp_add_1":"北見市","jp_add_2":"田端町"},"0900034":{"post_code":"0900034","prefecture":"HOKKAIDO","city":"KITAMI SHI","town":"CHUOCHO","perfecture_jp":"北海道","jp_add_1":"北見市","jp_add_2":"中央町"},"0900837":{"post_code":"0900837","prefecture":"HOKKAIDO","city":"KITAMI SHI","town":"CHUOMIWA","perfecture_jp":"北海道","jp_add_1":"北見市","jp_add_2":"中央三輪"},"0900061":{"post_code":"0900061","prefecture":"HOKKAIDO","city":"KITAMI SHI","town":"TORYOCHO","perfecture_jp":"北海道","jp_add_1":"北見市","jp_add_2":"東陵町"},"0900817":{"post_code":"0900817","prefecture":"HOKKAIDO","city":"KITAMI SHI","town":"TOKIWACHO","perfecture_jp":"北海道","jp_add_1":"北見市","jp_add_2":"常盤町"},"0900833":{"post_code":"0900833","prefecture":"HOKKAIDO","city":"KITAMI SHI","town":"TONDEN HIGASHIMACHI","perfecture_jp":"北海道","jp_add_1":"北見市","jp_add_2":"とん田東町"},"0900834":{"post_code":"0900834","prefecture":"HOKKAIDO","city":"KITAMI SHI","town":"TONDEN NISHIMACHI","perfecture_jp":"北海道","jp_add_1":"北見市","jp_add_2":"とん田西町"},"0900813":{"post_code":"0900813","prefecture":"HOKKAIDO","city":"KITAMI SHI","town":"NAKANOSHIMACHO","perfecture_jp":"北海道","jp_add_1":"北見市","jp_add_2":"中ノ島町"},"0900012":{"post_code":"0900012","prefecture":"HOKKAIDO","city":"KITAMI SHI","town":"NAMIKICHO","perfecture_jp":"北海道","jp_add_1":"北見市","jp_add_2":"並木町"},"0900003":{"post_code":"0900003","prefecture":"HOKKAIDO","city":"KITAMI SHI","town":"NIKOROCHO","perfecture_jp":"北海道","jp_add_1":"北見市","jp_add_2":"仁頃町"},"0900827":{"post_code":"0900827","prefecture":"HOKKAIDO","city":"KITAMI SHI","town":"NISHIKICHO","perfecture_jp":"北海道","jp_add_1":"北見市","jp_add_2":"錦町"},"0900831":{"post_code":"0900831","prefecture":"HOKKAIDO","city":"KITAMI SHI","town":"NISHITOMICHO","perfecture_jp":"北海道","jp_add_1":"北見市","jp_add_2":"西富町"},"0900838":{"post_code":"0900838","prefecture":"HOKKAIDO","city":"KITAMI SHI","town":"NISHIMIWA","perfecture_jp":"北海道","jp_add_1":"北見市","jp_add_2":"西三輪"},"0900013":{"post_code":"0900013","prefecture":"HOKKAIDO","city":"KITAMI SHI","town":"HAKUYOCHO","perfecture_jp":"北海道","jp_add_1":"北見市","jp_add_2":"柏陽町"},"0900816":{"post_code":"0900816","prefecture":"HOKKAIDO","city":"KITAMI SHI","town":"HANAZONOCHO","perfecture_jp":"北海道","jp_add_1":"北見市","jp_add_2":"花園町"},"0900033":{"post_code":"0900033","prefecture":"HOKKAIDO","city":"KITAMI SHI","town":"BAMBACHO","perfecture_jp":"北海道","jp_add_1":"北見市","jp_add_2":"番場町"},"0900836":{"post_code":"0900836","prefecture":"HOKKAIDO","city":"KITAMI SHI","town":"HIGASHIMIWA","perfecture_jp":"北海道","jp_add_1":"北見市","jp_add_2":"東三輪"},"0900810":{"post_code":"0900810","prefecture":"HOKKAIDO","city":"KITAMI SHI","town":"HIKARINO","perfecture_jp":"北海道","jp_add_1":"北見市","jp_add_2":"ひかり野"},"0900054":{"post_code":"0900054","prefecture":"HOKKAIDO","city":"KITAMI SHI","town":"FUTABACHO","perfecture_jp":"北海道","jp_add_1":"北見市","jp_add_2":"双葉町"},"0900014":{"post_code":"0900014","prefecture":"HOKKAIDO","city":"KITAMI SHI","town":"BUNKYOCHO","perfecture_jp":"北海道","jp_add_1":"北見市","jp_add_2":"文京町"},"0900822":{"post_code":"0900822","prefecture":"HOKKAIDO","city":"KITAMI SHI","town":"HOKUOCHO","perfecture_jp":"北海道","jp_add_1":"北見市","jp_add_2":"北央町"},"0900052":{"post_code":"0900052","prefecture":"HOKKAIDO","city":"KITAMI SHI","town":"HOKUSHINCHO","perfecture_jp":"北海道","jp_add_1":"北見市","jp_add_2":"北進町"},"0900035":{"post_code":"0900035","prefecture":"HOKKAIDO","city":"KITAMI SHI","town":"HOKUTOCHO","perfecture_jp":"北海道","jp_add_1":"北見市","jp_add_2":"北斗町"},"0900004":{"post_code":"0900004","prefecture":"HOKKAIDO","city":"KITAMI SHI","town":"HOKUYO","perfecture_jp":"北海道","jp_add_1":"北見市","jp_add_2":"北陽"},"0900824":{"post_code":"0900824","prefecture":"HOKKAIDO","city":"KITAMI SHI","town":"HOKKO","perfecture_jp":"北海道","jp_add_1":"北見市","jp_add_2":"北光"},"0900007":{"post_code":"0900007","prefecture":"HOKKAIDO","city":"KITAMI SHI","town":"MISATO","perfecture_jp":"北海道","jp_add_1":"北見市","jp_add_2":"美里"},"0900032":{"post_code":"0900032","prefecture":"HOKKAIDO","city":"KITAMI SHI","town":"MISUMICHO","perfecture_jp":"北海道","jp_add_1":"北見市","jp_add_2":"三住町"},"0900067":{"post_code":"0900067","prefecture":"HOKKAIDO","city":"KITAMI SHI","town":"MIDORIGAOKA","perfecture_jp":"北海道","jp_add_1":"北見市","jp_add_2":"緑ケ丘"},"0900055":{"post_code":"0900055","prefecture":"HOKKAIDO","city":"KITAMI SHI","town":"MIDORIMACHI","perfecture_jp":"北海道","jp_add_1":"北見市","jp_add_2":"緑町"},"0900812":{"post_code":"0900812","prefecture":"HOKKAIDO","city":"KITAMI SHI","town":"MINAMINAKAMACHI","perfecture_jp":"北海道","jp_add_1":"北見市","jp_add_2":"南仲町"},"0900806":{"post_code":"0900806","prefecture":"HOKKAIDO","city":"KITAMI SHI","town":"MINAMIMACHI","perfecture_jp":"北海道","jp_add_1":"北見市","jp_add_2":"南町"},"0900070":{"post_code":"0900070","prefecture":"HOKKAIDO","city":"KITAMI SHI","town":"MIYAMACHONISHI","perfecture_jp":"北海道","jp_add_1":"北見市","jp_add_2":"美山町西"},"0900069":{"post_code":"0900069","prefecture":"HOKKAIDO","city":"KITAMI SHI","town":"MIYAMACHOHIGASHI","perfecture_jp":"北海道","jp_add_1":"北見市","jp_add_2":"美山町東"},"0900068":{"post_code":"0900068","prefecture":"HOKKAIDO","city":"KITAMI SHI","town":"MIYAMACHOMINAMI","perfecture_jp":"北海道","jp_add_1":"北見市","jp_add_2":"美山町南"},"0900064":{"post_code":"0900064","prefecture":"HOKKAIDO","city":"KITAMI SHI","town":"MIYOSHICHO","perfecture_jp":"北海道","jp_add_1":"北見市","jp_add_2":"美芳町"},"0900825":{"post_code":"0900825","prefecture":"HOKKAIDO","city":"KITAMI SHI","town":"MUKAGAWACHO","perfecture_jp":"北海道","jp_add_1":"北見市","jp_add_2":"無加川町"},"0900818":{"post_code":"0900818","prefecture":"HOKKAIDO","city":"KITAMI SHI","town":"MOTOMACHI","perfecture_jp":"北海道","jp_add_1":"北見市","jp_add_2":"本町"},"0900037":{"post_code":"0900037","prefecture":"HOKKAIDO","city":"KITAMI SHI","town":"YAMASHITACHO","perfecture_jp":"北海道","jp_add_1":"北見市","jp_add_2":"山下町"},"0900005":{"post_code":"0900005","prefecture":"HOKKAIDO","city":"KITAMI SHI","town":"YAMATO","perfecture_jp":"北海道","jp_add_1":"北見市","jp_add_2":"大和"},"0900057":{"post_code":"0900057","prefecture":"HOKKAIDO","city":"KITAMI SHI","town":"WAKABA","perfecture_jp":"北海道","jp_add_1":"北見市","jp_add_2":"若葉"},"0900808":{"post_code":"0900808","prefecture":"HOKKAIDO","city":"KITAMI SHI","town":"WAKAMATSU","perfecture_jp":"北海道","jp_add_1":"北見市","jp_add_2":"若松"}}