{"0910029":{"post_code":"0910029","prefecture":"HOKKAIDO","city":"KITAMI SHI","town":"RUBESHIBECHO ASAHI1-KU","perfecture_jp":"北海道","jp_add_1":"北見市","jp_add_2":"留辺蘂町旭１区"},"0910028":{"post_code":"0910028","prefecture":"HOKKAIDO","city":"KITAMI SHI","town":"RUBESHIBECHO ASAHI3-KU","perfecture_jp":"北海道","jp_add_1":"北見市","jp_add_2":"留辺蘂町旭３区"},"0910025":{"post_code":"0910025","prefecture":"HOKKAIDO","city":"KITAMI SHI","town":"RUBESHIBECHO ASAHIKITA","perfecture_jp":"北海道","jp_add_1":"北見市","jp_add_2":"留辺蘂町旭北"},"0910026":{"post_code":"0910026","prefecture":"HOKKAIDO","city":"KITAMI SHI","town":"RUBESHIBECHO ASAHIKOEN","perfecture_jp":"北海道","jp_add_1":"北見市","jp_add_2":"留辺蘂町旭公園"},"0910023":{"post_code":"0910023","prefecture":"HOKKAIDO","city":"KITAMI SHI","town":"RUBESHIBECHO ASAHICHUO","perfecture_jp":"北海道","jp_add_1":"北見市","jp_add_2":"留辺蘂町旭中央"},"0910027":{"post_code":"0910027","prefecture":"HOKKAIDO","city":"KITAMI SHI","town":"RUBESHIBECHO ASAHINISHI","perfecture_jp":"北海道","jp_add_1":"北見市","jp_add_2":"留辺蘂町旭西"},"0910022":{"post_code":"0910022","prefecture":"HOKKAIDO","city":"KITAMI SHI","town":"RUBESHIBECHO ASAHIHIGASHI","perfecture_jp":"北海道","jp_add_1":"北見市","jp_add_2":"留辺蘂町旭東"},"0910024":{"post_code":"0910024","prefecture":"HOKKAIDO","city":"KITAMI SHI","town":"RUBESHIBECHO ASAHIMINAMI","perfecture_jp":"北海道","jp_add_1":"北見市","jp_add_2":"留辺蘂町旭南"},"0910002":{"post_code":"0910002","prefecture":"HOKKAIDO","city":"KITAMI SHI","town":"RUBESHIBECHO AZUMAMACHI","perfecture_jp":"北海道","jp_add_1":"北見市","jp_add_2":"留辺蘂町東町"},"0910011":{"post_code":"0910011","prefecture":"HOKKAIDO","city":"KITAMI SHI","town":"RUBESHIBECHO IZUMI","perfecture_jp":"北海道","jp_add_1":"北見市","jp_add_2":"留辺蘂町泉"},"0910031":{"post_code":"0910031","prefecture":"HOKKAIDO","city":"KITAMI SHI","town":"RUBESHIBECHO OTOMI","perfecture_jp":"北海道","jp_add_1":"北見市","jp_add_2":"留辺蘂町大富"},"0910170":{"post_code":"0910170","prefecture":"HOKKAIDO","city":"KITAMI SHI","town":"RUBESHIBECHO ONNEYUONSEN","perfecture_jp":"北海道","jp_add_1":"北見市","jp_add_2":"留辺蘂町温根湯温泉"},"0910021":{"post_code":"0910021","prefecture":"HOKKAIDO","city":"KITAMI SHI","town":"RUBESHIBECHO KANEHANA","perfecture_jp":"北海道","jp_add_1":"北見市","jp_add_2":"留辺蘂町金華"},"0910004":{"post_code":"0910004","prefecture":"HOKKAIDO","city":"KITAMI SHI","town":"RUBESHIBECHO KAMIMACHI","perfecture_jp":"北海道","jp_add_1":"北見市","jp_add_2":"留辺蘂町上町"},"0910156":{"post_code":"0910156","prefecture":"HOKKAIDO","city":"KITAMI SHI","town":"RUBESHIBECHO KAWAKITA","perfecture_jp":"北海道","jp_add_1":"北見市","jp_add_2":"留辺蘂町川北"},"0910161":{"post_code":"0910161","prefecture":"HOKKAIDO","city":"KITAMI SHI","town":"RUBESHIBECHO KOWA","perfecture_jp":"北海道","jp_add_1":"北見市","jp_add_2":"留辺蘂町厚和"},"0910033":{"post_code":"0910033","prefecture":"HOKKAIDO","city":"KITAMI SHI","town":"RUBESHIBECHO SAKAEMACHI","perfecture_jp":"北海道","jp_add_1":"北見市","jp_add_2":"留辺蘂町栄町"},"0910151":{"post_code":"0910151","prefecture":"HOKKAIDO","city":"KITAMI SHI","town":"RUBESHIBECHO SHOEI","perfecture_jp":"北海道","jp_add_1":"北見市","jp_add_2":"留辺蘂町昭栄"},"0910163":{"post_code":"0910163","prefecture":"HOKKAIDO","city":"KITAMI SHI","town":"RUBESHIBECHO TAKINOYU","perfecture_jp":"北海道","jp_add_1":"北見市","jp_add_2":"留辺蘂町滝の湯"},"0910007":{"post_code":"0910007","prefecture":"HOKKAIDO","city":"KITAMI SHI","town":"RUBESHIBECHO TOMIOKA","perfecture_jp":"北海道","jp_add_1":"北見市","jp_add_2":"留辺蘂町富岡"},"0910032":{"post_code":"0910032","prefecture":"HOKKAIDO","city":"KITAMI SHI","town":"RUBESHIBECHO TOYOGANE","perfecture_jp":"北海道","jp_add_1":"北見市","jp_add_2":"留辺蘂町豊金"},"0910003":{"post_code":"0910003","prefecture":"HOKKAIDO","city":"KITAMI SHI","town":"RUBESHIBECHO NAKAMACHI","perfecture_jp":"北海道","jp_add_1":"北見市","jp_add_2":"留辺蘂町仲町"},"0910157":{"post_code":"0910157","prefecture":"HOKKAIDO","city":"KITAMI SHI","town":"RUBESHIBECHO HANAOKA","perfecture_jp":"北海道","jp_add_1":"北見市","jp_add_2":"留辺蘂町花丘"},"0910018":{"post_code":"0910018","prefecture":"HOKKAIDO","city":"KITAMI SHI","town":"RUBESHIBECHO HANAZONO","perfecture_jp":"北海道","jp_add_1":"北見市","jp_add_2":"留辺蘂町花園"},"0910154":{"post_code":"0910154","prefecture":"HOKKAIDO","city":"KITAMI SHI","town":"RUBESHIBECHO HIRASATO","perfecture_jp":"北海道","jp_add_1":"北見市","jp_add_2":"留辺蘂町平里"},"0910162":{"post_code":"0910162","prefecture":"HOKKAIDO","city":"KITAMI SHI","town":"RUBESHIBECHO FUJIMI","perfecture_jp":"北海道","jp_add_1":"北見市","jp_add_2":"留辺蘂町富士見"},"0910153":{"post_code":"0910153","prefecture":"HOKKAIDO","city":"KITAMI SHI","town":"RUBESHIBECHO MATSUYAMA","perfecture_jp":"北海道","jp_add_1":"北見市","jp_add_2":"留辺蘂町松山"},"0910016":{"post_code":"0910016","prefecture":"HOKKAIDO","city":"KITAMI SHI","town":"RUBESHIBECHO MARUYAMA","perfecture_jp":"北海道","jp_add_1":"北見市","jp_add_2":"留辺蘂町丸山"},"0910017":{"post_code":"0910017","prefecture":"HOKKAIDO","city":"KITAMI SHI","town":"RUBESHIBECHO MIZUHO","perfecture_jp":"北海道","jp_add_1":"北見市","jp_add_2":"留辺蘂町瑞穂"},"0910008":{"post_code":"0910008","prefecture":"HOKKAIDO","city":"KITAMI SHI","town":"RUBESHIBECHO MIYASHITACHO","perfecture_jp":"北海道","jp_add_1":"北見市","jp_add_2":"留辺蘂町宮下町"},"0910001":{"post_code":"0910001","prefecture":"HOKKAIDO","city":"KITAMI SHI","town":"RUBESHIBECHO MOTOMACHI","perfecture_jp":"北海道","jp_add_1":"北見市","jp_add_2":"留辺蘂町元町"},"0910155":{"post_code":"0910155","prefecture":"HOKKAIDO","city":"KITAMI SHI","town":"RUBESHIBECHO YAMATO","perfecture_jp":"北海道","jp_add_1":"北見市","jp_add_2":"留辺蘂町大和"},"0910553":{"post_code":"0910553","prefecture":"HOKKAIDO","city":"TOKORO GUN SAROMA CHO","town":"ASAHI","perfecture_jp":"北海道","jp_add_1":"常呂郡佐呂間町","jp_add_2":"朝日"},"0910557":{"post_code":"0910557","prefecture":"HOKKAIDO","city":"TOKORO GUN SAROMA CHO","town":"KAWANISHI","perfecture_jp":"北海道","jp_add_1":"常呂郡佐呂間町","jp_add_2":"川西"},"0910473":{"post_code":"0910473","prefecture":"HOKKAIDO","city":"TOKORO GUN SAROMA CHO","town":"KYORITSU","perfecture_jp":"北海道","jp_add_1":"常呂郡佐呂間町","jp_add_2":"共立"},"0910556":{"post_code":"0910556","prefecture":"HOKKAIDO","city":"TOKORO GUN SAROMA CHO","town":"KEISEI","perfecture_jp":"北海道","jp_add_1":"常呂郡佐呂間町","jp_add_2":"啓生"},"0910472":{"post_code":"0910472","prefecture":"HOKKAIDO","city":"TOKORO GUN SAROMA CHO","town":"SAKAE","perfecture_jp":"北海道","jp_add_1":"常呂郡佐呂間町","jp_add_2":"栄"},"0910471":{"post_code":"0910471","prefecture":"HOKKAIDO","city":"TOKORO GUN SAROMA CHO","town":"TAISEI","perfecture_jp":"北海道","jp_add_1":"常呂郡佐呂間町","jp_add_2":"大成"},"0910558":{"post_code":"0910558","prefecture":"HOKKAIDO","city":"TOKORO GUN SAROMA CHO","town":"TOCHIGI","perfecture_jp":"北海道","jp_add_1":"常呂郡佐呂間町","jp_add_2":"栃木"},"0910552":{"post_code":"0910552","prefecture":"HOKKAIDO","city":"TOKORO GUN SAROMA CHO","town":"TOMIOKA","perfecture_jp":"北海道","jp_add_1":"常呂郡佐呂間町","jp_add_2":"富丘"},"0910555":{"post_code":"0910555","prefecture":"HOKKAIDO","city":"TOKORO GUN SAROMA CHO","town":"NAKAZONO","perfecture_jp":"北海道","jp_add_1":"常呂郡佐呂間町","jp_add_2":"中園"},"0910554":{"post_code":"0910554","prefecture":"HOKKAIDO","city":"TOKORO GUN SAROMA CHO","town":"BUSHI","perfecture_jp":"北海道","jp_add_1":"常呂郡佐呂間町","jp_add_2":"武士"},"0910551":{"post_code":"0910551","prefecture":"HOKKAIDO","city":"TOKORO GUN SAROMA CHO","town":"WAKASA","perfecture_jp":"北海道","jp_add_1":"常呂郡佐呂間町","jp_add_2":"若佐"}}