{"0950000":{"post_code":"0950000","prefecture":"HOKKAIDO","city":"SHIBETSU SHI","town":"IKANIKEISAIGANAIBAAI","perfecture_jp":"北海道","jp_add_1":"士別市","jp_add_2":""},"0950403":{"post_code":"0950403","prefecture":"HOKKAIDO","city":"SHIBETSU SHI","town":"ASAHICHO IWAONAI","perfecture_jp":"北海道","jp_add_1":"士別市","jp_add_2":"朝日町岩尾内"},"0950405":{"post_code":"0950405","prefecture":"HOKKAIDO","city":"SHIBETSU SHI","town":"ASAHICHO SANEI","perfecture_jp":"北海道","jp_add_1":"士別市","jp_add_2":"朝日町三栄"},"0950401":{"post_code":"0950401","prefecture":"HOKKAIDO","city":"SHIBETSU SHI","town":"ASAHICHO CHUO","perfecture_jp":"北海道","jp_add_1":"士別市","jp_add_2":"朝日町中央"},"0950402":{"post_code":"0950402","prefecture":"HOKKAIDO","city":"SHIBETSU SHI","town":"ASAHICHO TOWARI","perfecture_jp":"北海道","jp_add_1":"士別市","jp_add_2":"朝日町登和里"},"0950406":{"post_code":"0950406","prefecture":"HOKKAIDO","city":"SHIBETSU SHI","town":"ASAHICHO MINAMIASAHI","perfecture_jp":"北海道","jp_add_1":"士別市","jp_add_2":"朝日町南朝日"},"0950404":{"post_code":"0950404","prefecture":"HOKKAIDO","city":"SHIBETSU SHI","town":"ASAHICHO MOSHIRI","perfecture_jp":"北海道","jp_add_1":"士別市","jp_add_2":"朝日町茂志利"},"0950019":{"post_code":"0950019","prefecture":"HOKKAIDO","city":"SHIBETSU SHI","town":"ODORI HIGASHI","perfecture_jp":"北海道","jp_add_1":"士別市","jp_add_2":"大通東"},"0950029":{"post_code":"0950029","prefecture":"HOKKAIDO","city":"SHIBETSU SHI","town":"ODORI NISHI","perfecture_jp":"北海道","jp_add_1":"士別市","jp_add_2":"大通西"},"0950039":{"post_code":"0950039","prefecture":"HOKKAIDO","city":"SHIBETSU SHI","town":"ODORI KITA","perfecture_jp":"北海道","jp_add_1":"士別市","jp_add_2":"大通北"},"0950181":{"post_code":"0950181","prefecture":"HOKKAIDO","city":"SHIBETSU SHI","town":"ONNEBETSUCHO","perfecture_jp":"北海道","jp_add_1":"士別市","jp_add_2":"温根別町"},"0950182":{"post_code":"0950182","prefecture":"HOKKAIDO","city":"SHIBETSU SHI","town":"ONNEBETSUCHO IBUN","perfecture_jp":"北海道","jp_add_1":"士別市","jp_add_2":"温根別町伊文"},"0950183":{"post_code":"0950183","prefecture":"HOKKAIDO","city":"SHIBETSU SHI","town":"ONNEBETSUCHO KITASHIZUKAWA","perfecture_jp":"北海道","jp_add_1":"士別市","jp_add_2":"温根別町北静川"},"0950052":{"post_code":"0950052","prefecture":"HOKKAIDO","city":"SHIBETSU SHI","town":"GAKUDEN","perfecture_jp":"北海道","jp_add_1":"士別市","jp_add_2":"学田"},"0950371":{"post_code":"0950371","prefecture":"HOKKAIDO","city":"SHIBETSU SHI","town":"KAMISHIBETSUCHO","perfecture_jp":"北海道","jp_add_1":"士別市","jp_add_2":"上士別町"},"0950064":{"post_code":"0950064","prefecture":"HOKKAIDO","city":"SHIBETSU SHI","town":"KAWANISHICHO","perfecture_jp":"北海道","jp_add_1":"士別市","jp_add_2":"川西町"},"0950051":{"post_code":"0950051","prefecture":"HOKKAIDO","city":"SHIBETSU SHI","town":"KITAMACHI","perfecture_jp":"北海道","jp_add_1":"士別市","jp_add_2":"北町"},"0950061":{"post_code":"0950061","prefecture":"HOKKAIDO","city":"SHIBETSU SHI","town":"SHIMOSHIBETSUCHO","perfecture_jp":"北海道","jp_add_1":"士別市","jp_add_2":"下士別町"},"0950053":{"post_code":"0950053","prefecture":"HOKKAIDO","city":"SHIBETSU SHI","town":"SHINGAKUDEN","perfecture_jp":"北海道","jp_add_1":"士別市","jp_add_2":"新学田"},"0950043":{"post_code":"0950043","prefecture":"HOKKAIDO","city":"SHIBETSU SHI","town":"TSUKUMOCHO","perfecture_jp":"北海道","jp_add_1":"士別市","jp_add_2":"九十九町"},"0950063":{"post_code":"0950063","prefecture":"HOKKAIDO","city":"SHIBETSU SHI","town":"NAKASHIBETSUCHO","perfecture_jp":"北海道","jp_add_1":"士別市","jp_add_2":"中士別町"},"0950056":{"post_code":"0950056","prefecture":"HOKKAIDO","city":"SHIBETSU SHI","town":"NISHISHIBETSUCHO","perfecture_jp":"北海道","jp_add_1":"士別市","jp_add_2":"西士別町"},"0950021":{"post_code":"0950021","prefecture":"HOKKAIDO","city":"SHIBETSU SHI","town":"NISHI1-JO","perfecture_jp":"北海道","jp_add_1":"士別市","jp_add_2":"西一条"},"0950022":{"post_code":"0950022","prefecture":"HOKKAIDO","city":"SHIBETSU SHI","town":"NISHI2-JO","perfecture_jp":"北海道","jp_add_1":"士別市","jp_add_2":"西二条"},"0950023":{"post_code":"0950023","prefecture":"HOKKAIDO","city":"SHIBETSU SHI","town":"NISHI3-JO","perfecture_jp":"北海道","jp_add_1":"士別市","jp_add_2":"西三条"},"0950024":{"post_code":"0950024","prefecture":"HOKKAIDO","city":"SHIBETSU SHI","town":"NISHI4-JO","perfecture_jp":"北海道","jp_add_1":"士別市","jp_add_2":"西四条"},"0950025":{"post_code":"0950025","prefecture":"HOKKAIDO","city":"SHIBETSU SHI","town":"NISHI5-JO","perfecture_jp":"北海道","jp_add_1":"士別市","jp_add_2":"西五条"},"0950031":{"post_code":"0950031","prefecture":"HOKKAIDO","city":"SHIBETSU SHI","town":"NISHI1-JOKITA","perfecture_jp":"北海道","jp_add_1":"士別市","jp_add_2":"西一条北"},"0950032":{"post_code":"0950032","prefecture":"HOKKAIDO","city":"SHIBETSU SHI","town":"NISHI2-JOKITA","perfecture_jp":"北海道","jp_add_1":"士別市","jp_add_2":"西二条北"},"0950033":{"post_code":"0950033","prefecture":"HOKKAIDO","city":"SHIBETSU SHI","town":"NISHI3-JOKITA","perfecture_jp":"北海道","jp_add_1":"士別市","jp_add_2":"西三条北"},"0950034":{"post_code":"0950034","prefecture":"HOKKAIDO","city":"SHIBETSU SHI","town":"NISHI4-JOKITA","perfecture_jp":"北海道","jp_add_1":"士別市","jp_add_2":"西四条北"},"0950035":{"post_code":"0950035","prefecture":"HOKKAIDO","city":"SHIBETSU SHI","town":"NISHI5-JOKITA","perfecture_jp":"北海道","jp_add_1":"士別市","jp_add_2":"西五条北"},"0950045":{"post_code":"0950045","prefecture":"HOKKAIDO","city":"SHIBETSU SHI","town":"HIGASHIOKA","perfecture_jp":"北海道","jp_add_1":"士別市","jp_add_2":"東丘"},"0950044":{"post_code":"0950044","prefecture":"HOKKAIDO","city":"SHIBETSU SHI","town":"HIGASHIYAMACHO","perfecture_jp":"北海道","jp_add_1":"士別市","jp_add_2":"東山町"},"0950011":{"post_code":"0950011","prefecture":"HOKKAIDO","city":"SHIBETSU SHI","town":"HIGASHI1-JO","perfecture_jp":"北海道","jp_add_1":"士別市","jp_add_2":"東一条"},"0950012":{"post_code":"0950012","prefecture":"HOKKAIDO","city":"SHIBETSU SHI","town":"HIGASHI2-JO","perfecture_jp":"北海道","jp_add_1":"士別市","jp_add_2":"東二条"},"0950013":{"post_code":"0950013","prefecture":"HOKKAIDO","city":"SHIBETSU SHI","town":"HIGASHI3-JO","perfecture_jp":"北海道","jp_add_1":"士別市","jp_add_2":"東三条"},"0950014":{"post_code":"0950014","prefecture":"HOKKAIDO","city":"SHIBETSU SHI","town":"HIGASHI4-JO","perfecture_jp":"北海道","jp_add_1":"士別市","jp_add_2":"東四条"},"0950015":{"post_code":"0950015","prefecture":"HOKKAIDO","city":"SHIBETSU SHI","town":"HIGASHI5-JO","perfecture_jp":"北海道","jp_add_1":"士別市","jp_add_2":"東五条"},"0950016":{"post_code":"0950016","prefecture":"HOKKAIDO","city":"SHIBETSU SHI","town":"HIGASHI6-JO","perfecture_jp":"北海道","jp_add_1":"士別市","jp_add_2":"東六条"},"0950017":{"post_code":"0950017","prefecture":"HOKKAIDO","city":"SHIBETSU SHI","town":"HIGASHI7-JO","perfecture_jp":"北海道","jp_add_1":"士別市","jp_add_2":"東七条"},"0950018":{"post_code":"0950018","prefecture":"HOKKAIDO","city":"SHIBETSU SHI","town":"HIGASHI8-JO","perfecture_jp":"北海道","jp_add_1":"士別市","jp_add_2":"東八条"},"0950041":{"post_code":"0950041","prefecture":"HOKKAIDO","city":"SHIBETSU SHI","town":"HIGASHI9-JO","perfecture_jp":"北海道","jp_add_1":"士別市","jp_add_2":"東九条"},"0950042":{"post_code":"0950042","prefecture":"HOKKAIDO","city":"SHIBETSU SHI","town":"HIGASHI10-JO","perfecture_jp":"北海道","jp_add_1":"士別市","jp_add_2":"東十条"},"0950048":{"post_code":"0950048","prefecture":"HOKKAIDO","city":"SHIBETSU SHI","town":"HIGASHI11-JO","perfecture_jp":"北海道","jp_add_1":"士別市","jp_add_2":"東十一条"},"0950001":{"post_code":"0950001","prefecture":"HOKKAIDO","city":"SHIBETSU SHI","town":"HIGASHI1-JOKITA","perfecture_jp":"北海道","jp_add_1":"士別市","jp_add_2":"東一条北"},"0950002":{"post_code":"0950002","prefecture":"HOKKAIDO","city":"SHIBETSU SHI","town":"HIGASHI2-JOKITA","perfecture_jp":"北海道","jp_add_1":"士別市","jp_add_2":"東二条北"},"0950003":{"post_code":"0950003","prefecture":"HOKKAIDO","city":"SHIBETSU SHI","town":"HIGASHI3-JOKITA","perfecture_jp":"北海道","jp_add_1":"士別市","jp_add_2":"東三条北"},"0950004":{"post_code":"0950004","prefecture":"HOKKAIDO","city":"SHIBETSU SHI","town":"HIGASHI4-JOKITA","perfecture_jp":"北海道","jp_add_1":"士別市","jp_add_2":"東四条北"},"0950005":{"post_code":"0950005","prefecture":"HOKKAIDO","city":"SHIBETSU SHI","town":"HIGASHI5-JOKITA","perfecture_jp":"北海道","jp_add_1":"士別市","jp_add_2":"東五条北"},"0950006":{"post_code":"0950006","prefecture":"HOKKAIDO","city":"SHIBETSU SHI","town":"HIGASHI6-JOKITA","perfecture_jp":"北海道","jp_add_1":"士別市","jp_add_2":"東六条北"},"0950007":{"post_code":"0950007","prefecture":"HOKKAIDO","city":"SHIBETSU SHI","town":"HIGASHI7-JOKITA","perfecture_jp":"北海道","jp_add_1":"士別市","jp_add_2":"東七条北"},"0950008":{"post_code":"0950008","prefecture":"HOKKAIDO","city":"SHIBETSU SHI","town":"HIGASHI8-JOKITA","perfecture_jp":"北海道","jp_add_1":"士別市","jp_add_2":"東八条北"},"0950054":{"post_code":"0950054","prefecture":"HOKKAIDO","city":"SHIBETSU SHI","town":"FUDOMACHI","perfecture_jp":"北海道","jp_add_1":"士別市","jp_add_2":"不動町"},"0950062":{"post_code":"0950062","prefecture":"HOKKAIDO","city":"SHIBETSU SHI","town":"BUTOKUCHO","perfecture_jp":"北海道","jp_add_1":"士別市","jp_add_2":"武徳町"},"0950055":{"post_code":"0950055","prefecture":"HOKKAIDO","city":"SHIBETSU SHI","town":"MINAMISHIBETSUCHO","perfecture_jp":"北海道","jp_add_1":"士別市","jp_add_2":"南士別町"},"0950046":{"post_code":"0950046","prefecture":"HOKKAIDO","city":"SHIBETSU SHI","town":"MINAMIMACHI HIGASHI","perfecture_jp":"北海道","jp_add_1":"士別市","jp_add_2":"南町東"},"0950047":{"post_code":"0950047","prefecture":"HOKKAIDO","city":"SHIBETSU SHI","town":"MINAMIMACHI NISHI","perfecture_jp":"北海道","jp_add_1":"士別市","jp_add_2":"南町西"}}