{"0986642":{"post_code":"0986642","prefecture":"HOKKAIDO","city":"WAKKANAI SHI","town":"KOETOIMURA(KOETOI)","perfecture_jp":"北海道","jp_add_1":"稚内市","jp_add_2":"声問"},"0986565":{"post_code":"0986565","prefecture":"HOKKAIDO","city":"WAKKANAI SHI","town":"KOETOIMURA(AKEBONO)","perfecture_jp":"北海道","jp_add_1":"稚内市","jp_add_2":"声問村"},"0986572":{"post_code":"0986572","prefecture":"HOKKAIDO","city":"WAKKANAI SHI","town":"KOETOIMURA(KAISHIN)","perfecture_jp":"北海道","jp_add_1":"稚内市","jp_add_2":"声問村"},"0986561":{"post_code":"0986561","prefecture":"HOKKAIDO","city":"WAKKANAI SHI","town":"KOETOIMURA(KABAOKA)","perfecture_jp":"北海道","jp_add_1":"稚内市","jp_add_2":"声問村"},"0986562":{"post_code":"0986562","prefecture":"HOKKAIDO","city":"WAKKANAI SHI","town":"KOETOIMURA(KAMIKOETOI)","perfecture_jp":"北海道","jp_add_1":"稚内市","jp_add_2":"声問村"},"0986574":{"post_code":"0986574","prefecture":"HOKKAIDO","city":"WAKKANAI SHI","town":"KOETOIMURA(KAMITOYOBETSU)","perfecture_jp":"北海道","jp_add_1":"稚内市","jp_add_2":"声問村"},"0986564":{"post_code":"0986564","prefecture":"HOKKAIDO","city":"WAKKANAI SHI","town":"KOETOIMURA(KAWANISHI)","perfecture_jp":"北海道","jp_add_1":"稚内市","jp_add_2":"声問村"},"0986576":{"post_code":"0986576","prefecture":"HOKKAIDO","city":"WAKKANAI SHI","town":"KOETOIMURA(KAWAMINAMI)","perfecture_jp":"北海道","jp_add_1":"稚内市","jp_add_2":"声問村"},"0986645":{"post_code":"0986645","prefecture":"HOKKAIDO","city":"WAKKANAI SHI","town":"KOETOIMURA(KEIHOKU)","perfecture_jp":"北海道","jp_add_1":"稚内市","jp_add_2":"声問村"},"0984582":{"post_code":"0984582","prefecture":"HOKKAIDO","city":"WAKKANAI SHI","town":"KOETOIMURA(SARAKITOMANAI)","perfecture_jp":"北海道","jp_add_1":"稚内市","jp_add_2":"声問村"},"0986573":{"post_code":"0986573","prefecture":"HOKKAIDO","city":"WAKKANAI SHI","town":"KOETOIMURA(SHIMOTOYOBETSU)","perfecture_jp":"北海道","jp_add_1":"稚内市","jp_add_2":"声問村"},"0986575":{"post_code":"0986575","prefecture":"HOKKAIDO","city":"WAKKANAI SHI","town":"KOETOIMURA(TENKO)","perfecture_jp":"北海道","jp_add_1":"稚内市","jp_add_2":"声問村"},"0986563":{"post_code":"0986563","prefecture":"HOKKAIDO","city":"WAKKANAI SHI","town":"KOETOIMURA(NUMAKAWA)","perfecture_jp":"北海道","jp_add_1":"稚内市","jp_add_2":"声問村"},"0986571":{"post_code":"0986571","prefecture":"HOKKAIDO","city":"WAKKANAI SHI","town":"KOETOIMURA(MAGARIFUCHI)","perfecture_jp":"北海道","jp_add_1":"稚内市","jp_add_2":"声問村"},"0986643":{"post_code":"0986643","prefecture":"HOKKAIDO","city":"WAKKANAI SHI","town":"KOETOIMURA(MEKUMA)","perfecture_jp":"北海道","jp_add_1":"稚内市","jp_add_2":"声問村"},"0986758":{"post_code":"0986758","prefecture":"HOKKAIDO","city":"WAKKANAI SHI","town":"SOYAMISAKI","perfecture_jp":"北海道","jp_add_1":"稚内市","jp_add_2":"宗谷岬"},"0986754":{"post_code":"0986754","prefecture":"HOKKAIDO","city":"WAKKANAI SHI","town":"SOYAMURA(KIYOHAMA)","perfecture_jp":"北海道","jp_add_1":"稚内市","jp_add_2":"宗谷村"},"0986755":{"post_code":"0986755","prefecture":"HOKKAIDO","city":"WAKKANAI SHI","town":"SOYAMURA(SOYA)","perfecture_jp":"北海道","jp_add_1":"稚内市","jp_add_2":"宗谷村"},"0986756":{"post_code":"0986756","prefecture":"HOKKAIDO","city":"WAKKANAI SHI","town":"SOYAMURA(TOMIISO)","perfecture_jp":"北海道","jp_add_1":"稚内市","jp_add_2":"宗谷村"},"0986751":{"post_code":"0986751","prefecture":"HOKKAIDO","city":"WAKKANAI SHI","town":"SOYAMURA(TOYOIWA)","perfecture_jp":"北海道","jp_add_1":"稚内市","jp_add_2":"宗谷村"},"0986385":{"post_code":"0986385","prefecture":"HOKKAIDO","city":"WAKKANAI SHI","town":"SOYAMURA(HIGASHIURA)","perfecture_jp":"北海道","jp_add_1":"稚内市","jp_add_2":"宗谷村"},"0986644":{"post_code":"0986644","prefecture":"HOKKAIDO","city":"WAKKANAI SHI","town":"SOYAMURA(MASUHORO)","perfecture_jp":"北海道","jp_add_1":"稚内市","jp_add_2":"宗谷村"},"0986757":{"post_code":"0986757","prefecture":"HOKKAIDO","city":"WAKKANAI SHI","town":"SOYAMURA(MASUHOROHAMA)","perfecture_jp":"北海道","jp_add_1":"稚内市","jp_add_2":"宗谷村"},"0986384":{"post_code":"0986384","prefecture":"HOKKAIDO","city":"WAKKANAI SHI","town":"SOYAMURA(MINEOKA)","perfecture_jp":"北海道","jp_add_1":"稚内市","jp_add_2":"宗谷村"},"0984581":{"post_code":"0984581","prefecture":"HOKKAIDO","city":"WAKKANAI SHI","town":"BAKKAIMURA(KAMIYUCHI.SHIMOYUCHI.YUK","perfecture_jp":"北海道","jp_add_1":"稚内市","jp_add_2":"抜海村"},"0980475":{"post_code":"0980475","prefecture":"HOKKAIDO","city":"SHIBETSU SHI","town":"TAYOROCHO","perfecture_jp":"北海道","jp_add_1":"士別市","jp_add_2":"多寄町"},"0982181":{"post_code":"0982181","prefecture":"HOKKAIDO","city":"NAYORO SHI","town":"CHIEBUN","perfecture_jp":"北海道","jp_add_1":"名寄市","jp_add_2":"智恵文"},"0980514":{"post_code":"0980514","prefecture":"HOKKAIDO","city":"NAYORO SHI","town":"FURENCHO ASAHI","perfecture_jp":"北海道","jp_add_1":"名寄市","jp_add_2":"風連町旭"},"0980513":{"post_code":"0980513","prefecture":"HOKKAIDO","city":"NAYORO SHI","town":"FURENCHO IKENOE","perfecture_jp":"北海道","jp_add_1":"名寄市","jp_add_2":"風連町池の上"},"0980503":{"post_code":"0980503","prefecture":"HOKKAIDO","city":"NAYORO SHI","town":"FURENCHO OMACHI","perfecture_jp":"北海道","jp_add_1":"名寄市","jp_add_2":"風連町大町"},"0980511":{"post_code":"0980511","prefecture":"HOKKAIDO","city":"NAYORO SHI","town":"FURENCHO SHINSEICHO","perfecture_jp":"北海道","jp_add_1":"名寄市","jp_add_2":"風連町新生町"},"0980508":{"post_code":"0980508","prefecture":"HOKKAIDO","city":"NAYORO SHI","town":"FURENCHO ZUISHO","perfecture_jp":"北海道","jp_add_1":"名寄市","jp_add_2":"風連町瑞生"},"0980515":{"post_code":"0980515","prefecture":"HOKKAIDO","city":"NAYORO SHI","town":"FURENCHO CHUO","perfecture_jp":"北海道","jp_add_1":"名寄市","jp_add_2":"風連町中央"},"0980632":{"post_code":"0980632","prefecture":"HOKKAIDO","city":"NAYORO SHI","town":"FURENCHO TOSEI","perfecture_jp":"北海道","jp_add_1":"名寄市","jp_add_2":"風連町東生"},"0980501":{"post_code":"0980501","prefecture":"HOKKAIDO","city":"NAYORO SHI","town":"FURENCHO TOYOSATO","perfecture_jp":"北海道","jp_add_1":"名寄市","jp_add_2":"風連町豊里"},"0980506":{"post_code":"0980506","prefecture":"HOKKAIDO","city":"NAYORO SHI","town":"FURENCHO NAKAMACHI","perfecture_jp":"北海道","jp_add_1":"名寄市","jp_add_2":"風連町仲町"},"0980509":{"post_code":"0980509","prefecture":"HOKKAIDO","city":"NAYORO SHI","town":"FURENCHO NISHIFUREN","perfecture_jp":"北海道","jp_add_1":"名寄市","jp_add_2":"風連町西風連"},"0980507":{"post_code":"0980507","prefecture":"HOKKAIDO","city":"NAYORO SHI","town":"FURENCHO NISHIMACHI","perfecture_jp":"北海道","jp_add_1":"名寄市","jp_add_2":"風連町西町"},"0980631":{"post_code":"0980631","prefecture":"HOKKAIDO","city":"NAYORO SHI","town":"FURENCHO NISSHIN","perfecture_jp":"北海道","jp_add_1":"名寄市","jp_add_2":"風連町日進"},"0980512":{"post_code":"0980512","prefecture":"HOKKAIDO","city":"NAYORO SHI","town":"FURENCHO HIGASHIFUREN","perfecture_jp":"北海道","jp_add_1":"名寄市","jp_add_2":"風連町東風連"},"0980502":{"post_code":"0980502","prefecture":"HOKKAIDO","city":"NAYORO SHI","town":"FURENCHO HOKUEICHO","perfecture_jp":"北海道","jp_add_1":"名寄市","jp_add_2":"風連町北栄町"},"0980516":{"post_code":"0980516","prefecture":"HOKKAIDO","city":"NAYORO SHI","town":"FURENCHO MIDORIMACHI","perfecture_jp":"北海道","jp_add_1":"名寄市","jp_add_2":"風連町緑町"},"0980505":{"post_code":"0980505","prefecture":"HOKKAIDO","city":"NAYORO SHI","town":"FURENCHO MINAMIMACHI","perfecture_jp":"北海道","jp_add_1":"名寄市","jp_add_2":"風連町南町"},"0980504":{"post_code":"0980504","prefecture":"HOKKAIDO","city":"NAYORO SHI","town":"FURENCHO MOTOMACHI","perfecture_jp":"北海道","jp_add_1":"名寄市","jp_add_2":"風連町本町"},"0980100":{"post_code":"0980100","prefecture":"HOKKAIDO","city":"KAMIKAWA GUN WASSAMU CHO","town":"IKANIKEISAIGANAIBAAI","perfecture_jp":"北海道","jp_add_1":"上川郡和寒町","jp_add_2":""},"0980126":{"post_code":"0980126","prefecture":"HOKKAIDO","city":"KAMIKAWA GUN WASSAMU CHO","town":"ASAHI","perfecture_jp":"北海道","jp_add_1":"上川郡和寒町","jp_add_2":"朝日"},"0980121":{"post_code":"0980121","prefecture":"HOKKAIDO","city":"KAMIKAWA GUN WASSAMU CHO","town":"KAWANISHI","perfecture_jp":"北海道","jp_add_1":"上川郡和寒町","jp_add_2":"川西"},"0980113":{"post_code":"0980113","prefecture":"HOKKAIDO","city":"KAMIKAWA GUN WASSAMU CHO","town":"KIKUNO","perfecture_jp":"北海道","jp_add_1":"上川郡和寒町","jp_add_2":"菊野"},"0980103":{"post_code":"0980103","prefecture":"HOKKAIDO","city":"KAMIKAWA GUN WASSAMU CHO","town":"KITAHARA","perfecture_jp":"北海道","jp_add_1":"上川郡和寒町","jp_add_2":"北原"},"0980133":{"post_code":"0980133","prefecture":"HOKKAIDO","city":"KAMIKAWA GUN WASSAMU CHO","town":"KITAMACHI","perfecture_jp":"北海道","jp_add_1":"上川郡和寒町","jp_add_2":"北町"},"0980112":{"post_code":"0980112","prefecture":"HOKKAIDO","city":"KAMIKAWA GUN WASSAMU CHO","town":"SANWA","perfecture_jp":"北海道","jp_add_1":"上川郡和寒町","jp_add_2":"三和"},"0980125":{"post_code":"0980125","prefecture":"HOKKAIDO","city":"KAMIKAWA GUN WASSAMU CHO","town":"SHIOKARI","perfecture_jp":"北海道","jp_add_1":"上川郡和寒町","jp_add_2":"塩狩"},"0980114":{"post_code":"0980114","prefecture":"HOKKAIDO","city":"KAMIKAWA GUN WASSAMU CHO","town":"SEIWA","perfecture_jp":"北海道","jp_add_1":"上川郡和寒町","jp_add_2":"西和"},"0980102":{"post_code":"0980102","prefecture":"HOKKAIDO","city":"KAMIKAWA GUN WASSAMU CHO","town":"TAISEI","perfecture_jp":"北海道","jp_add_1":"上川郡和寒町","jp_add_2":"大成"},"0980122":{"post_code":"0980122","prefecture":"HOKKAIDO","city":"KAMIKAWA GUN WASSAMU CHO","town":"CHUWA","perfecture_jp":"北海道","jp_add_1":"上川郡和寒町","jp_add_2":"中和"},"0980135":{"post_code":"0980135","prefecture":"HOKKAIDO","city":"KAMIKAWA GUN WASSAMU CHO","town":"TOWA","perfecture_jp":"北海道","jp_add_1":"上川郡和寒町","jp_add_2":"東和"},"0980132":{"post_code":"0980132","prefecture":"HOKKAIDO","city":"KAMIKAWA GUN WASSAMU CHO","town":"NISHIMACHI","perfecture_jp":"北海道","jp_add_1":"上川郡和寒町","jp_add_2":"西町"},"0980123":{"post_code":"0980123","prefecture":"HOKKAIDO","city":"KAMIKAWA GUN WASSAMU CHO","town":"HIGASHIOKA","perfecture_jp":"北海道","jp_add_1":"上川郡和寒町","jp_add_2":"東丘"},"0980134":{"post_code":"0980134","prefecture":"HOKKAIDO","city":"KAMIKAWA GUN WASSAMU CHO","town":"HIGASHIMACHI","perfecture_jp":"北海道","jp_add_1":"上川郡和寒町","jp_add_2":"東町"},"0980101":{"post_code":"0980101","prefecture":"HOKKAIDO","city":"KAMIKAWA GUN WASSAMU CHO","town":"HINODE","perfecture_jp":"北海道","jp_add_1":"上川郡和寒町","jp_add_2":"日ノ出"},"0980115":{"post_code":"0980115","prefecture":"HOKKAIDO","city":"KAMIKAWA GUN WASSAMU CHO","town":"FUKUHARA","perfecture_jp":"北海道","jp_add_1":"上川郡和寒町","jp_add_2":"福原"},"0980104":{"post_code":"0980104","prefecture":"HOKKAIDO","city":"KAMIKAWA GUN WASSAMU CHO","town":"MATSUOKA","perfecture_jp":"北海道","jp_add_1":"上川郡和寒町","jp_add_2":"松岡"},"0980111":{"post_code":"0980111","prefecture":"HOKKAIDO","city":"KAMIKAWA GUN WASSAMU CHO","town":"MIKASA","perfecture_jp":"北海道","jp_add_1":"上川郡和寒町","jp_add_2":"三笠"},"0980124":{"post_code":"0980124","prefecture":"HOKKAIDO","city":"KAMIKAWA GUN WASSAMU CHO","town":"MINAMIOKA","perfecture_jp":"北海道","jp_add_1":"上川郡和寒町","jp_add_2":"南丘"},"0980131":{"post_code":"0980131","prefecture":"HOKKAIDO","city":"KAMIKAWA GUN WASSAMU CHO","town":"MINAMIMACHI","perfecture_jp":"北海道","jp_add_1":"上川郡和寒町","jp_add_2":"南町"},"0980300":{"post_code":"0980300","prefecture":"HOKKAIDO","city":"KAMIKAWA GUN KEMBUCHI CHO","town":"IKANIKEISAIGANAIBAAI","perfecture_jp":"北海道","jp_add_1":"上川郡剣淵町","jp_add_2":""},"0980336":{"post_code":"0980336","prefecture":"HOKKAIDO","city":"KAMIKAWA GUN KEMBUCHI CHO","town":"ASAHIMACHI","perfecture_jp":"北海道","jp_add_1":"上川郡剣淵町","jp_add_2":"旭町"},"0980334":{"post_code":"0980334","prefecture":"HOKKAIDO","city":"KAMIKAWA GUN KEMBUCHI CHO","town":"TONDEMMACHI","perfecture_jp":"北海道","jp_add_1":"上川郡剣淵町","jp_add_2":"屯田町"},"0980338":{"post_code":"0980338","prefecture":"HOKKAIDO","city":"KAMIKAWA GUN KEMBUCHI CHO","town":"NAKAMACHI","perfecture_jp":"北海道","jp_add_1":"上川郡剣淵町","jp_add_2":"仲町"},"0980335":{"post_code":"0980335","prefecture":"HOKKAIDO","city":"KAMIKAWA GUN KEMBUCHI CHO","town":"NANOMACHI","perfecture_jp":"北海道","jp_add_1":"上川郡剣淵町","jp_add_2":"南桜町"},"0980337":{"post_code":"0980337","prefecture":"HOKKAIDO","city":"KAMIKAWA GUN KEMBUCHI CHO","town":"NISHIOKAMACHI","perfecture_jp":"北海道","jp_add_1":"上川郡剣淵町","jp_add_2":"西岡町"},"0980339":{"post_code":"0980339","prefecture":"HOKKAIDO","city":"KAMIKAWA GUN KEMBUCHI CHO","town":"NISHIHARAMACHI","perfecture_jp":"北海道","jp_add_1":"上川郡剣淵町","jp_add_2":"西原町"},"0980331":{"post_code":"0980331","prefecture":"HOKKAIDO","city":"KAMIKAWA GUN KEMBUCHI CHO","town":"NISHIMACHI","perfecture_jp":"北海道","jp_add_1":"上川郡剣淵町","jp_add_2":"西町"},"0980341":{"post_code":"0980341","prefecture":"HOKKAIDO","city":"KAMIKAWA GUN KEMBUCHI CHO","town":"HIGASHIMACHI","perfecture_jp":"北海道","jp_add_1":"上川郡剣淵町","jp_add_2":"東町"},"0980342":{"post_code":"0980342","prefecture":"HOKKAIDO","city":"KAMIKAWA GUN KEMBUCHI CHO","town":"FUJIMOTOMACHI","perfecture_jp":"北海道","jp_add_1":"上川郡剣淵町","jp_add_2":"藤本町"},"0980332":{"post_code":"0980332","prefecture":"HOKKAIDO","city":"KAMIKAWA GUN KEMBUCHI CHO","town":"MIDORIMACHI","perfecture_jp":"北海道","jp_add_1":"上川郡剣淵町","jp_add_2":"緑町"},"0980333":{"post_code":"0980333","prefecture":"HOKKAIDO","city":"KAMIKAWA GUN KEMBUCHI CHO","town":"MOTOMACHI","perfecture_jp":"北海道","jp_add_1":"上川郡剣淵町","jp_add_2":"元町"},"0981200":{"post_code":"0981200","prefecture":"HOKKAIDO","city":"KAMIKAWA GUN SHIMOKAWA CHO","town":"IKANIKEISAIGANAIBAAI","perfecture_jp":"北海道","jp_add_1":"上川郡下川町","jp_add_2":""},"0981201":{"post_code":"0981201","prefecture":"HOKKAIDO","city":"KAMIKAWA GUN SHIMOKAWA CHO","town":"ASAHIMACHI","perfecture_jp":"北海道","jp_add_1":"上川郡下川町","jp_add_2":"旭町"},"0981331":{"post_code":"0981331","prefecture":"HOKKAIDO","city":"KAMIKAWA GUN SHIMOKAWA CHO","town":"ICHINOHASHI","perfecture_jp":"北海道","jp_add_1":"上川郡下川町","jp_add_2":"一の橋"},"0981216":{"post_code":"0981216","prefecture":"HOKKAIDO","city":"KAMIKAWA GUN SHIMOKAWA CHO","town":"KAMINAYORO","perfecture_jp":"北海道","jp_add_1":"上川郡下川町","jp_add_2":"上名寄"},"0981212":{"post_code":"0981212","prefecture":"HOKKAIDO","city":"KAMIKAWA GUN SHIMOKAWA CHO","town":"KITAMACHI","perfecture_jp":"北海道","jp_add_1":"上川郡下川町","jp_add_2":"北町"},"0981203":{"post_code":"0981203","prefecture":"HOKKAIDO","city":"KAMIKAWA GUN SHIMOKAWA CHO","town":"KYOEIMACHI","perfecture_jp":"北海道","jp_add_1":"上川郡下川町","jp_add_2":"共栄町"},"0981214":{"post_code":"0981214","prefecture":"HOKKAIDO","city":"KAMIKAWA GUN SHIMOKAWA CHO","town":"KEIWA","perfecture_jp":"北海道","jp_add_1":"上川郡下川町","jp_add_2":"渓和"},"0981206":{"post_code":"0981206","prefecture":"HOKKAIDO","city":"KAMIKAWA GUN SHIMOKAWA CHO","town":"SAIWAIMACHI","perfecture_jp":"北海道","jp_add_1":"上川郡下川町","jp_add_2":"幸町"},"0981213":{"post_code":"0981213","prefecture":"HOKKAIDO","city":"KAMIKAWA GUN SHIMOKAWA CHO","town":"SANNOHASHI","perfecture_jp":"北海道","jp_add_1":"上川郡下川町","jp_add_2":"三の橋"},"0981211":{"post_code":"0981211","prefecture":"HOKKAIDO","city":"KAMIKAWA GUN SHIMOKAWA CHO","town":"SANRU","perfecture_jp":"北海道","jp_add_1":"上川郡下川町","jp_add_2":"珊瑠"},"0981207":{"post_code":"0981207","prefecture":"HOKKAIDO","city":"KAMIKAWA GUN SHIMOKAWA CHO","town":"NISHIKIMACHI","perfecture_jp":"北海道","jp_add_1":"上川郡下川町","jp_add_2":"錦町"},"0981205":{"post_code":"0981205","prefecture":"HOKKAIDO","city":"KAMIKAWA GUN SHIMOKAWA CHO","town":"NISHIMACHI","perfecture_jp":"北海道","jp_add_1":"上川郡下川町","jp_add_2":"西町"},"0981332":{"post_code":"0981332","prefecture":"HOKKAIDO","city":"KAMIKAWA GUN SHIMOKAWA CHO","town":"NINOHASHI","perfecture_jp":"北海道","jp_add_1":"上川郡下川町","jp_add_2":"二の橋"},"0981215":{"post_code":"0981215","prefecture":"HOKKAIDO","city":"KAMIKAWA GUN SHIMOKAWA CHO","town":"PANKE","perfecture_jp":"北海道","jp_add_1":"上川郡下川町","jp_add_2":"班渓"},"0981202":{"post_code":"0981202","prefecture":"HOKKAIDO","city":"KAMIKAWA GUN SHIMOKAWA CHO","town":"MIDORIMACHI","perfecture_jp":"北海道","jp_add_1":"上川郡下川町","jp_add_2":"緑町"},"0981204":{"post_code":"0981204","prefecture":"HOKKAIDO","city":"KAMIKAWA GUN SHIMOKAWA CHO","town":"MINAMIMACHI","perfecture_jp":"北海道","jp_add_1":"上川郡下川町","jp_add_2":"南町"},"0982200":{"post_code":"0982200","prefecture":"HOKKAIDO","city":"NAKAGAWA GUN BIFUKA CHO","town":"IKANIKEISAIGANAIBAAI","perfecture_jp":"北海道","jp_add_1":"中川郡美深町","jp_add_2":""},"0982201":{"post_code":"0982201","prefecture":"HOKKAIDO","city":"NAKAGAWA GUN BIFUKA CHO","town":"IZUMI","perfecture_jp":"北海道","jp_add_1":"中川郡美深町","jp_add_2":"泉"},"0982362":{"post_code":"0982362","prefecture":"HOKKAIDO","city":"NAKAGAWA GUN BIFUKA CHO","town":"OTE","perfecture_jp":"北海道","jp_add_1":"中川郡美深町","jp_add_2":"大手"},"0982230":{"post_code":"0982230","prefecture":"HOKKAIDO","city":"NAKAGAWA GUN BIFUKA CHO","town":"ODORIMINAMI","perfecture_jp":"北海道","jp_add_1":"中川郡美深町","jp_add_2":"大通南"},"0982220":{"post_code":"0982220","prefecture":"HOKKAIDO","city":"NAKAGAWA GUN BIFUKA CHO","town":"ODORIKITA","perfecture_jp":"北海道","jp_add_1":"中川郡美深町","jp_add_2":"大通北"},"0982363":{"post_code":"0982363","prefecture":"HOKKAIDO","city":"NAKAGAWA GUN BIFUKA CHO","town":"OGURUMA","perfecture_jp":"北海道","jp_add_1":"中川郡美深町","jp_add_2":"小車"},"0982361":{"post_code":"0982361","prefecture":"HOKKAIDO","city":"NAKAGAWA GUN BIFUKA CHO","town":"ONNENAI","perfecture_jp":"北海道","jp_add_1":"中川郡美深町","jp_add_2":"恩根内"},"0982238":{"post_code":"0982238","prefecture":"HOKKAIDO","city":"NAKAGAWA GUN BIFUKA CHO","town":"KAIUNCHO","perfecture_jp":"北海道","jp_add_1":"中川郡美深町","jp_add_2":"開運町"},"0982204":{"post_code":"0982204","prefecture":"HOKKAIDO","city":"NAKAGAWA GUN BIFUKA CHO","town":"KAWANISHI","perfecture_jp":"北海道","jp_add_1":"中川郡美深町","jp_add_2":"川西"},"0982206":{"post_code":"0982206","prefecture":"HOKKAIDO","city":"NAKAGAWA GUN BIFUKA CHO","town":"KIKUOKA","perfecture_jp":"北海道","jp_add_1":"中川郡美深町","jp_add_2":"菊丘"},"0982227":{"post_code":"0982227","prefecture":"HOKKAIDO","city":"NAKAGAWA GUN BIFUKA CHO","town":"KITAMACHI","perfecture_jp":"北海道","jp_add_1":"中川郡美深町","jp_add_2":"北町"},"0982367":{"post_code":"0982367","prefecture":"HOKKAIDO","city":"NAKAGAWA GUN BIFUKA CHO","town":"KUSUNOKI","perfecture_jp":"北海道","jp_add_1":"中川郡美深町","jp_add_2":"楠"},"0982214":{"post_code":"0982214","prefecture":"HOKKAIDO","city":"NAKAGAWA GUN BIFUKA CHO","town":"SHIKISHIMA","perfecture_jp":"北海道","jp_add_1":"中川郡美深町","jp_add_2":"敷島"},"0982368":{"post_code":"0982368","prefecture":"HOKKAIDO","city":"NAKAGAWA GUN BIFUKA CHO","town":"SHIMIZU","perfecture_jp":"北海道","jp_add_1":"中川郡美深町","jp_add_2":"清水"},"0982202":{"post_code":"0982202","prefecture":"HOKKAIDO","city":"NAKAGAWA GUN BIFUKA CHO","town":"TAMAKAWA","perfecture_jp":"北海道","jp_add_1":"中川郡美深町","jp_add_2":"玉川"},"0982211":{"post_code":"0982211","prefecture":"HOKKAIDO","city":"NAKAGAWA GUN BIFUKA CHO","town":"TOMIOKA","perfecture_jp":"北海道","jp_add_1":"中川郡美深町","jp_add_2":"富岡"},"0982208":{"post_code":"0982208","prefecture":"HOKKAIDO","city":"NAKAGAWA GUN BIFUKA CHO","town":"NIUPU","perfecture_jp":"北海道","jp_add_1":"中川郡美深町","jp_add_2":"仁宇布"},"0982365":{"post_code":"0982365","prefecture":"HOKKAIDO","city":"NAKAGAWA GUN BIFUKA CHO","town":"NISHISATO","perfecture_jp":"北海道","jp_add_1":"中川郡美深町","jp_add_2":"西里"},"0982252":{"post_code":"0982252","prefecture":"HOKKAIDO","city":"NAKAGAWA GUN BIFUKA CHO","town":"NISHIMACHI","perfecture_jp":"北海道","jp_add_1":"中川郡美深町","jp_add_2":"西町"},"0982241":{"post_code":"0982241","prefecture":"HOKKAIDO","city":"NAKAGAWA GUN BIFUKA CHO","town":"NISHI1-JOMINAMI","perfecture_jp":"北海道","jp_add_1":"中川郡美深町","jp_add_2":"西一条南"},"0982251":{"post_code":"0982251","prefecture":"HOKKAIDO","city":"NAKAGAWA GUN BIFUKA CHO","town":"NISHI1-JOKITA","perfecture_jp":"北海道","jp_add_1":"中川郡美深町","jp_add_2":"西一条北"},"0982242":{"post_code":"0982242","prefecture":"HOKKAIDO","city":"NAKAGAWA GUN BIFUKA CHO","town":"NISHI2-JOMINAMI","perfecture_jp":"北海道","jp_add_1":"中川郡美深町","jp_add_2":"西二条南"},"0982243":{"post_code":"0982243","prefecture":"HOKKAIDO","city":"NAKAGAWA GUN BIFUKA CHO","town":"NISHI3-JOMINAMI","perfecture_jp":"北海道","jp_add_1":"中川郡美深町","jp_add_2":"西三条南"},"0982253":{"post_code":"0982253","prefecture":"HOKKAIDO","city":"NAKAGAWA GUN BIFUKA CHO","town":"NISHI3-JOKITA","perfecture_jp":"北海道","jp_add_1":"中川郡美深町","jp_add_2":"西三条北"},"0982212":{"post_code":"0982212","prefecture":"HOKKAIDO","city":"NAKAGAWA GUN BIFUKA CHO","town":"PANKE","perfecture_jp":"北海道","jp_add_1":"中川郡美深町","jp_add_2":"班渓"},"0982231":{"post_code":"0982231","prefecture":"HOKKAIDO","city":"NAKAGAWA GUN BIFUKA CHO","town":"HIGASHI1-JOMINAMI","perfecture_jp":"北海道","jp_add_1":"中川郡美深町","jp_add_2":"東一条南"},"0982221":{"post_code":"0982221","prefecture":"HOKKAIDO","city":"NAKAGAWA GUN BIFUKA CHO","town":"HIGASHI1-JOKITA","perfecture_jp":"北海道","jp_add_1":"中川郡美深町","jp_add_2":"東一条北"},"0982232":{"post_code":"0982232","prefecture":"HOKKAIDO","city":"NAKAGAWA GUN BIFUKA CHO","town":"HIGASHI2-JOMINAMI","perfecture_jp":"北海道","jp_add_1":"中川郡美深町","jp_add_2":"東二条南"},"0982222":{"post_code":"0982222","prefecture":"HOKKAIDO","city":"NAKAGAWA GUN BIFUKA CHO","town":"HIGASHI2-JOKITA","perfecture_jp":"北海道","jp_add_1":"中川郡美深町","jp_add_2":"東二条北"},"0982233":{"post_code":"0982233","prefecture":"HOKKAIDO","city":"NAKAGAWA GUN BIFUKA CHO","town":"HIGASHI3-JOMINAMI","perfecture_jp":"北海道","jp_add_1":"中川郡美深町","jp_add_2":"東三条南"},"0982223":{"post_code":"0982223","prefecture":"HOKKAIDO","city":"NAKAGAWA GUN BIFUKA CHO","town":"HIGASHI3-JOKITA","perfecture_jp":"北海道","jp_add_1":"中川郡美深町","jp_add_2":"東三条北"},"0982234":{"post_code":"0982234","prefecture":"HOKKAIDO","city":"NAKAGAWA GUN BIFUKA CHO","town":"HIGASHI4-JOMINAMI","perfecture_jp":"北海道","jp_add_1":"中川郡美深町","jp_add_2":"東四条南"},"0982224":{"post_code":"0982224","prefecture":"HOKKAIDO","city":"NAKAGAWA GUN BIFUKA CHO","town":"HIGASHI4-JOKITA","perfecture_jp":"北海道","jp_add_1":"中川郡美深町","jp_add_2":"東四条北"},"0982225":{"post_code":"0982225","prefecture":"HOKKAIDO","city":"NAKAGAWA GUN BIFUKA CHO","town":"HIGASHI5-JOKITA","perfecture_jp":"北海道","jp_add_1":"中川郡美深町","jp_add_2":"東五条北"},"0982236":{"post_code":"0982236","prefecture":"HOKKAIDO","city":"NAKAGAWA GUN BIFUKA CHO","town":"HIGASHI6-JOMINAMI","perfecture_jp":"北海道","jp_add_1":"中川郡美深町","jp_add_2":"東六条南"},"0982226":{"post_code":"0982226","prefecture":"HOKKAIDO","city":"NAKAGAWA GUN BIFUKA CHO","town":"HIGASHI6-JOKITA","perfecture_jp":"北海道","jp_add_1":"中川郡美深町","jp_add_2":"東六条北"},"0982205":{"post_code":"0982205","prefecture":"HOKKAIDO","city":"NAKAGAWA GUN BIFUKA CHO","town":"BIFUKA","perfecture_jp":"北海道","jp_add_1":"中川郡美深町","jp_add_2":"美深"},"0982207":{"post_code":"0982207","prefecture":"HOKKAIDO","city":"NAKAGAWA GUN BIFUKA CHO","town":"PENKE","perfecture_jp":"北海道","jp_add_1":"中川郡美深町","jp_add_2":"辺渓"},"0982364":{"post_code":"0982364","prefecture":"HOKKAIDO","city":"NAKAGAWA GUN BIFUKA CHO","town":"HOTOKU","perfecture_jp":"北海道","jp_add_1":"中川郡美深町","jp_add_2":"報徳"},"0982235":{"post_code":"0982235","prefecture":"HOKKAIDO","city":"NAKAGAWA GUN BIFUKA CHO","town":"MINAMIMACHI","perfecture_jp":"北海道","jp_add_1":"中川郡美深町","jp_add_2":"南町"},"0982366":{"post_code":"0982366","prefecture":"HOKKAIDO","city":"NAKAGAWA GUN BIFUKA CHO","town":"MOMPONAI","perfecture_jp":"北海道","jp_add_1":"中川郡美深町","jp_add_2":"紋穂内"},"0982213":{"post_code":"0982213","prefecture":"HOKKAIDO","city":"NAKAGAWA GUN BIFUKA CHO","town":"YOSHINO","perfecture_jp":"北海道","jp_add_1":"中川郡美深町","jp_add_2":"吉野"},"0982203":{"post_code":"0982203","prefecture":"HOKKAIDO","city":"NAKAGAWA GUN BIFUKA CHO","town":"ROKUGO","perfecture_jp":"北海道","jp_add_1":"中川郡美深町","jp_add_2":"六郷"},"0982237":{"post_code":"0982237","prefecture":"HOKKAIDO","city":"NAKAGAWA GUN BIFUKA CHO","town":"WAKAMATSUCHO","perfecture_jp":"北海道","jp_add_1":"中川郡美深町","jp_add_2":"若松町"},"0982500":{"post_code":"0982500","prefecture":"HOKKAIDO","city":"NAKAGAWA GUN OTOINEPPU MURA","town":"IKANIKEISAIGANAIBAAI","perfecture_jp":"北海道","jp_add_1":"中川郡音威子府村","jp_add_2":""},"0982501":{"post_code":"0982501","prefecture":"HOKKAIDO","city":"NAKAGAWA GUN OTOINEPPU MURA","town":"OTOINEPPU","perfecture_jp":"北海道","jp_add_1":"中川郡音威子府村","jp_add_2":"音威子府"},"0982502":{"post_code":"0982502","prefecture":"HOKKAIDO","city":"NAKAGAWA GUN OTOINEPPU MURA","town":"SATSUKURU","perfecture_jp":"北海道","jp_add_1":"中川郡音威子府村","jp_add_2":"咲来"},"0982800":{"post_code":"0982800","prefecture":"HOKKAIDO","city":"NAKAGAWA GUN NAKAGAWA CHO","town":"IKANIKEISAIGANAIBAAI","perfecture_jp":"北海道","jp_add_1":"中川郡中川町","jp_add_2":""},"0982801":{"post_code":"0982801","prefecture":"HOKKAIDO","city":"NAKAGAWA GUN NAKAGAWA CHO","town":"UTANAI","perfecture_jp":"北海道","jp_add_1":"中川郡中川町","jp_add_2":"歌内"},"0982804":{"post_code":"0982804","prefecture":"HOKKAIDO","city":"NAKAGAWA GUN NAKAGAWA CHO","town":"OTOMI","perfecture_jp":"北海道","jp_add_1":"中川郡中川町","jp_add_2":"大富"},"0982621":{"post_code":"0982621","prefecture":"HOKKAIDO","city":"NAKAGAWA GUN NAKAGAWA CHO","town":"KYOWA","perfecture_jp":"北海道","jp_add_1":"中川郡中川町","jp_add_2":"共和"},"0982806":{"post_code":"0982806","prefecture":"HOKKAIDO","city":"NAKAGAWA GUN NAKAGAWA CHO","town":"KOKUFU","perfecture_jp":"北海道","jp_add_1":"中川郡中川町","jp_add_2":"国府"},"0982803":{"post_code":"0982803","prefecture":"HOKKAIDO","city":"NAKAGAWA GUN NAKAGAWA CHO","town":"KOTOHIRA","perfecture_jp":"北海道","jp_add_1":"中川郡中川町","jp_add_2":"琴平"},"0982622":{"post_code":"0982622","prefecture":"HOKKAIDO","city":"NAKAGAWA GUN NAKAGAWA CHO","town":"SAKU","perfecture_jp":"北海道","jp_add_1":"中川郡中川町","jp_add_2":"佐久"},"0982623":{"post_code":"0982623","prefecture":"HOKKAIDO","city":"NAKAGAWA GUN NAKAGAWA CHO","town":"TOMIWA","perfecture_jp":"北海道","jp_add_1":"中川郡中川町","jp_add_2":"富和"},"0982624":{"post_code":"0982624","prefecture":"HOKKAIDO","city":"NAKAGAWA GUN NAKAGAWA CHO","town":"TOYOSATO","perfecture_jp":"北海道","jp_add_1":"中川郡中川町","jp_add_2":"豊里"},"0982802":{"post_code":"0982802","prefecture":"HOKKAIDO","city":"NAKAGAWA GUN NAKAGAWA CHO","town":"NAKAGAWA","perfecture_jp":"北海道","jp_add_1":"中川郡中川町","jp_add_2":"中川"},"0982805":{"post_code":"0982805","prefecture":"HOKKAIDO","city":"NAKAGAWA GUN NAKAGAWA CHO","town":"HOMARE","perfecture_jp":"北海道","jp_add_1":"中川郡中川町","jp_add_2":"誉"},"0982625":{"post_code":"0982625","prefecture":"HOKKAIDO","city":"NAKAGAWA GUN NAKAGAWA CHO","town":"YASUKAWA","perfecture_jp":"北海道","jp_add_1":"中川郡中川町","jp_add_2":"安川"},"0982626":{"post_code":"0982626","prefecture":"HOKKAIDO","city":"NAKAGAWA GUN NAKAGAWA CHO","town":"YASUKAWA(3)","perfecture_jp":"北海道","jp_add_1":"中川郡中川町","jp_add_2":"安川"},"0983500":{"post_code":"0983500","prefecture":"HOKKAIDO","city":"TESHIO GUN EMBETSU CHO","town":"IKANIKEISAIGANAIBAAI","perfecture_jp":"北海道","jp_add_1":"天塩郡遠別町","jp_add_2":""},"0983531":{"post_code":"0983531","prefecture":"HOKKAIDO","city":"TESHIO GUN EMBETSU CHO","town":"ASAHI","perfecture_jp":"北海道","jp_add_1":"天塩郡遠別町","jp_add_2":"旭"},"0983532":{"post_code":"0983532","prefecture":"HOKKAIDO","city":"TESHIO GUN EMBETSU CHO","town":"UTAKOSHI","perfecture_jp":"北海道","jp_add_1":"天塩郡遠別町","jp_add_2":"歌越"},"0983533":{"post_code":"0983533","prefecture":"HOKKAIDO","city":"TESHIO GUN EMBETSU CHO","town":"KANAURA","perfecture_jp":"北海道","jp_add_1":"天塩郡遠別町","jp_add_2":"金浦"},"0983361":{"post_code":"0983361","prefecture":"HOKKAIDO","city":"TESHIO GUN EMBETSU CHO","town":"KITASATO(15-GONOSAWA)","perfecture_jp":"北海道","jp_add_1":"天塩郡遠別町","jp_add_2":"北里"},"0983501":{"post_code":"0983501","prefecture":"HOKKAIDO","city":"TESHIO GUN EMBETSU CHO","town":"KITASATO(SONOTA)","perfecture_jp":"北海道","jp_add_1":"天塩郡遠別町","jp_add_2":"北里"},"0983541":{"post_code":"0983541","prefecture":"HOKKAIDO","city":"TESHIO GUN EMBETSU CHO","town":"KITAHAMA","perfecture_jp":"北海道","jp_add_1":"天塩郡遠別町","jp_add_2":"北浜"},"0983511":{"post_code":"0983511","prefecture":"HOKKAIDO","city":"TESHIO GUN EMBETSU CHO","town":"KYUKO","perfecture_jp":"北海道","jp_add_1":"天塩郡遠別町","jp_add_2":"久光"},"0983521":{"post_code":"0983521","prefecture":"HOKKAIDO","city":"TESHIO GUN EMBETSU CHO","town":"KYOEI","perfecture_jp":"北海道","jp_add_1":"天塩郡遠別町","jp_add_2":"共栄"},"0983502":{"post_code":"0983502","prefecture":"HOKKAIDO","city":"TESHIO GUN EMBETSU CHO","town":"KIYOKAWA","perfecture_jp":"北海道","jp_add_1":"天塩郡遠別町","jp_add_2":"清川"},"0983503":{"post_code":"0983503","prefecture":"HOKKAIDO","city":"TESHIO GUN EMBETSU CHO","town":"KEIMEI","perfecture_jp":"北海道","jp_add_1":"天塩郡遠別町","jp_add_2":"啓明"},"0983542":{"post_code":"0983542","prefecture":"HOKKAIDO","city":"TESHIO GUN EMBETSU CHO","town":"KOWA","perfecture_jp":"北海道","jp_add_1":"天塩郡遠別町","jp_add_2":"幸和"},"0983522":{"post_code":"0983522","prefecture":"HOKKAIDO","city":"TESHIO GUN EMBETSU CHO","town":"TAISEI","perfecture_jp":"北海道","jp_add_1":"天塩郡遠別町","jp_add_2":"大成"},"0983512":{"post_code":"0983512","prefecture":"HOKKAIDO","city":"TESHIO GUN EMBETSU CHO","town":"CHUO","perfecture_jp":"北海道","jp_add_1":"天塩郡遠別町","jp_add_2":"中央"},"0983523":{"post_code":"0983523","prefecture":"HOKKAIDO","city":"TESHIO GUN EMBETSU CHO","town":"HIGASHINO","perfecture_jp":"北海道","jp_add_1":"天塩郡遠別町","jp_add_2":"東野"},"0983534":{"post_code":"0983534","prefecture":"HOKKAIDO","city":"TESHIO GUN EMBETSU CHO","town":"FUJIMI","perfecture_jp":"北海道","jp_add_1":"天塩郡遠別町","jp_add_2":"富士見"},"0983543":{"post_code":"0983543","prefecture":"HOKKAIDO","city":"TESHIO GUN EMBETSU CHO","town":"HONCHO","perfecture_jp":"北海道","jp_add_1":"天塩郡遠別町","jp_add_2":"本町"},"0983504":{"post_code":"0983504","prefecture":"HOKKAIDO","city":"TESHIO GUN EMBETSU CHO","town":"MARUMATSU","perfecture_jp":"北海道","jp_add_1":"天塩郡遠別町","jp_add_2":"丸松"},"0983300":{"post_code":"0983300","prefecture":"HOKKAIDO","city":"TESHIO GUN TESHIO CHO","town":"IKANIKEISAIGANAIBAAI","perfecture_jp":"北海道","jp_add_1":"天塩郡天塩町","jp_add_2":""},"0983311":{"post_code":"0983311","prefecture":"HOKKAIDO","city":"TESHIO GUN TESHIO CHO","town":"UBUSHI","perfecture_jp":"北海道","jp_add_1":"天塩郡天塩町","jp_add_2":"産士"},"0983133":{"post_code":"0983133","prefecture":"HOKKAIDO","city":"TESHIO GUN TESHIO CHO","town":"ONOBUNAI","perfecture_jp":"北海道","jp_add_1":"天塩郡天塩町","jp_add_2":"オヌプナイ"},"0983306":{"post_code":"0983306","prefecture":"HOKKAIDO","city":"TESHIO GUN TESHIO CHO","town":"KAIGANDORI","perfecture_jp":"北海道","jp_add_1":"天塩郡天塩町","jp_add_2":"海岸通"},"0983312":{"post_code":"0983312","prefecture":"HOKKAIDO","city":"TESHIO GUN TESHIO CHO","town":"KAWAGUCHI","perfecture_jp":"北海道","jp_add_1":"天塩郡天塩町","jp_add_2":"川口"},"0983313":{"post_code":"0983313","prefecture":"HOKKAIDO","city":"TESHIO GUN TESHIO CHO","town":"SAKUKAESHI","perfecture_jp":"北海道","jp_add_1":"天塩郡天塩町","jp_add_2":"作返"},"0983314":{"post_code":"0983314","prefecture":"HOKKAIDO","city":"TESHIO GUN TESHIO CHO","town":"SARAKISHI","perfecture_jp":"北海道","jp_add_1":"天塩郡天塩町","jp_add_2":"更岸"},"0982951":{"post_code":"0982951","prefecture":"HOKKAIDO","city":"TESHIO GUN TESHIO CHO","town":"SHIMOKOKUNEPPU","perfecture_jp":"北海道","jp_add_1":"天塩郡天塩町","jp_add_2":"下コクネップ"},"0983303":{"post_code":"0983303","prefecture":"HOKKAIDO","city":"TESHIO GUN TESHIO CHO","town":"SHINEIDORI","perfecture_jp":"北海道","jp_add_1":"天塩郡天塩町","jp_add_2":"新栄通"},"0983305":{"post_code":"0983305","prefecture":"HOKKAIDO","city":"TESHIO GUN TESHIO CHO","town":"SHINKAIDORI","perfecture_jp":"北海道","jp_add_1":"天塩郡天塩町","jp_add_2":"新開通"},"0983142":{"post_code":"0983142","prefecture":"HOKKAIDO","city":"TESHIO GUN TESHIO CHO","town":"SHINSEI","perfecture_jp":"北海道","jp_add_1":"天塩郡天塩町","jp_add_2":"新成"},"0983304":{"post_code":"0983304","prefecture":"HOKKAIDO","city":"TESHIO GUN TESHIO CHO","town":"SHINCHIDORI","perfecture_jp":"北海道","jp_add_1":"天塩郡天塩町","jp_add_2":"新地通"},"0983143":{"post_code":"0983143","prefecture":"HOKKAIDO","city":"TESHIO GUN TESHIO CHO","town":"SENGEN","perfecture_jp":"北海道","jp_add_1":"天塩郡天塩町","jp_add_2":"泉源"},"0983131":{"post_code":"0983131","prefecture":"HOKKAIDO","city":"TESHIO GUN TESHIO CHO","town":"TATSUNEUSHI","perfecture_jp":"北海道","jp_add_1":"天塩郡天塩町","jp_add_2":"タツネウシ"},"0983144":{"post_code":"0983144","prefecture":"HOKKAIDO","city":"TESHIO GUN TESHIO CHO","town":"DANNOPPU","perfecture_jp":"北海道","jp_add_1":"天塩郡天塩町","jp_add_2":"男能富"},"0983315":{"post_code":"0983315","prefecture":"HOKKAIDO","city":"TESHIO GUN TESHIO CHO","town":"TESHIO","perfecture_jp":"北海道","jp_add_1":"天塩郡天塩町","jp_add_2":"天塩"},"0983141":{"post_code":"0983141","prefecture":"HOKKAIDO","city":"TESHIO GUN TESHIO CHO","town":"NISHIONOBUNAI","perfecture_jp":"北海道","jp_add_1":"天塩郡天塩町","jp_add_2":"西雄信内"},"0983135":{"post_code":"0983135","prefecture":"HOKKAIDO","city":"TESHIO GUN TESHIO CHO","town":"HIGASHIUBUSHI","perfecture_jp":"北海道","jp_add_1":"天塩郡天塩町","jp_add_2":"東産士"},"0983132":{"post_code":"0983132","prefecture":"HOKKAIDO","city":"TESHIO GUN TESHIO CHO","town":"HIGASHIONOBUNAI","perfecture_jp":"北海道","jp_add_1":"天塩郡天塩町","jp_add_2":"東雄信内"},"0983316":{"post_code":"0983316","prefecture":"HOKKAIDO","city":"TESHIO GUN TESHIO CHO","town":"FURAOI","perfecture_jp":"北海道","jp_add_1":"天塩郡天塩町","jp_add_2":"振老"},"0983134":{"post_code":"0983134","prefecture":"HOKKAIDO","city":"TESHIO GUN TESHIO CHO","town":"MARUYAMA","perfecture_jp":"北海道","jp_add_1":"天塩郡天塩町","jp_add_2":"円山"},"0983302":{"post_code":"0983302","prefecture":"HOKKAIDO","city":"TESHIO GUN TESHIO CHO","town":"YAMATEURADORI","perfecture_jp":"北海道","jp_add_1":"天塩郡天塩町","jp_add_2":"山手裏通"},"0983301":{"post_code":"0983301","prefecture":"HOKKAIDO","city":"TESHIO GUN TESHIO CHO","town":"YAMATEDORI","perfecture_jp":"北海道","jp_add_1":"天塩郡天塩町","jp_add_2":"山手通"},"0986200":{"post_code":"0986200","prefecture":"HOKKAIDO","city":"SOYA GUN SARUFUTSU MURA","town":"IKANIKEISAIGANAIBAAI","perfecture_jp":"北海道","jp_add_1":"宗谷郡猿払村","jp_add_2":""},"0986101":{"post_code":"0986101","prefecture":"HOKKAIDO","city":"SOYA GUN SARUFUTSU MURA","town":"ASACHINO","perfecture_jp":"北海道","jp_add_1":"宗谷郡猿払村","jp_add_2":"浅茅野"},"0986102":{"post_code":"0986102","prefecture":"HOKKAIDO","city":"SOYA GUN SARUFUTSU MURA","town":"ASACHINODAICHI","perfecture_jp":"北海道","jp_add_1":"宗谷郡猿払村","jp_add_2":"浅茅野台地"},"0986225":{"post_code":"0986225","prefecture":"HOKKAIDO","city":"SOYA GUN SARUFUTSU MURA","town":"ASHINO","perfecture_jp":"北海道","jp_add_1":"宗谷郡猿払村","jp_add_2":"芦野"},"0986234":{"post_code":"0986234","prefecture":"HOKKAIDO","city":"SOYA GUN SARUFUTSU MURA","town":"ONISHIBETSU KITAMACHI","perfecture_jp":"北海道","jp_add_1":"宗谷郡猿払村","jp_add_2":"鬼志別北町"},"0986232":{"post_code":"0986232","prefecture":"HOKKAIDO","city":"SOYA GUN SARUFUTSU MURA","town":"ONISHIBETSU NISHIMACHI","perfecture_jp":"北海道","jp_add_1":"宗谷郡猿払村","jp_add_2":"鬼志別西町"},"0986231":{"post_code":"0986231","prefecture":"HOKKAIDO","city":"SOYA GUN SARUFUTSU MURA","town":"ONISHIBETSU HIGASHIMACHI","perfecture_jp":"北海道","jp_add_1":"宗谷郡猿払村","jp_add_2":"鬼志別東町"},"0986233":{"post_code":"0986233","prefecture":"HOKKAIDO","city":"SOYA GUN SARUFUTSU MURA","town":"ONISHIBETSU MINAMIMACHI","perfecture_jp":"北海道","jp_add_1":"宗谷郡猿払村","jp_add_2":"鬼志別南町"},"0986106":{"post_code":"0986106","prefecture":"HOKKAIDO","city":"SOYA GUN SARUFUTSU MURA","town":"KAMISARUFUTSU","perfecture_jp":"北海道","jp_add_1":"宗谷郡猿払村","jp_add_2":"上猿払"},"0986103":{"post_code":"0986103","prefecture":"HOKKAIDO","city":"SOYA GUN SARUFUTSU MURA","town":"KARIBETSU","perfecture_jp":"北海道","jp_add_1":"宗谷郡猿払村","jp_add_2":"狩別"},"0986228":{"post_code":"0986228","prefecture":"HOKKAIDO","city":"SOYA GUN SARUFUTSU MURA","town":"KOISHI","perfecture_jp":"北海道","jp_add_1":"宗谷郡猿払村","jp_add_2":"小石"},"0986104":{"post_code":"0986104","prefecture":"HOKKAIDO","city":"SOYA GUN SARUFUTSU MURA","town":"SARUFUTSU","perfecture_jp":"北海道","jp_add_1":"宗谷郡猿払村","jp_add_2":"猿払"},"0986341":{"post_code":"0986341","prefecture":"HOKKAIDO","city":"SOYA GUN SARUFUTSU MURA","town":"CHIRAIBETSU","perfecture_jp":"北海道","jp_add_1":"宗谷郡猿払村","jp_add_2":"知来別"},"0986226":{"post_code":"0986226","prefecture":"HOKKAIDO","city":"SOYA GUN SARUFUTSU MURA","town":"TOYOSATO","perfecture_jp":"北海道","jp_add_1":"宗谷郡猿払村","jp_add_2":"豊里"},"0986222":{"post_code":"0986222","prefecture":"HOKKAIDO","city":"SOYA GUN SARUFUTSU MURA","town":"HAMAONISHIBETSU","perfecture_jp":"北海道","jp_add_1":"宗谷郡猿払村","jp_add_2":"浜鬼志別"},"0986105":{"post_code":"0986105","prefecture":"HOKKAIDO","city":"SOYA GUN SARUFUTSU MURA","town":"HAMASARUFUTSU","perfecture_jp":"北海道","jp_add_1":"宗谷郡猿払村","jp_add_2":"浜猿払"},"0985700":{"post_code":"0985700","prefecture":"HOKKAIDO","city":"ESASHI GUN HAMATOMBETSU CHO","town":"IKANIKEISAIGANAIBAAI","perfecture_jp":"北海道","jp_add_1":"枝幸郡浜頓別町","jp_add_2":""},"0985741":{"post_code":"0985741","prefecture":"HOKKAIDO","city":"ESASHI GUN HAMATOMBETSU CHO","town":"ASAHIGAOKA","perfecture_jp":"北海道","jp_add_1":"枝幸郡浜頓別町","jp_add_2":"旭ケ丘"},"0985744":{"post_code":"0985744","prefecture":"HOKKAIDO","city":"ESASHI GUN HAMATOMBETSU CHO","town":"USOTAN","perfecture_jp":"北海道","jp_add_1":"枝幸郡浜頓別町","jp_add_2":"宇曽丹"},"0985754":{"post_code":"0985754","prefecture":"HOKKAIDO","city":"ESASHI GUN HAMATOMBETSU CHO","town":"UTSUNAI","perfecture_jp":"北海道","jp_add_1":"枝幸郡浜頓別町","jp_add_2":"宇津内"},"0985701":{"post_code":"0985701","prefecture":"HOKKAIDO","city":"ESASHI GUN HAMATOMBETSU CHO","town":"TOMBETSU","perfecture_jp":"北海道","jp_add_1":"枝幸郡浜頓別町","jp_add_2":"栄和"},"0985725":{"post_code":"0985725","prefecture":"HOKKAIDO","city":"ESASHI GUN HAMATOMBETSU CHO","town":"ODORI","perfecture_jp":"北海道","jp_add_1":"枝幸郡浜頓別町","jp_add_2":"大通"},"0985743":{"post_code":"0985743","prefecture":"HOKKAIDO","city":"ESASHI GUN HAMATOMBETSU CHO","town":"KAEDE","perfecture_jp":"北海道","jp_add_1":"枝幸郡浜頓別町","jp_add_2":"楓"},"0985751":{"post_code":"0985751","prefecture":"HOKKAIDO","city":"ESASHI GUN HAMATOMBETSU CHO","town":"KANEGAOKA","perfecture_jp":"北海道","jp_add_1":"枝幸郡浜頓別町","jp_add_2":"金ヶ丘"},"0985711":{"post_code":"0985711","prefecture":"HOKKAIDO","city":"ESASHI GUN HAMATOMBETSU CHO","town":"KITA1-JO","perfecture_jp":"北海道","jp_add_1":"枝幸郡浜頓別町","jp_add_2":"北１条"},"0985712":{"post_code":"0985712","prefecture":"HOKKAIDO","city":"ESASHI GUN HAMATOMBETSU CHO","town":"KITA2-JO","perfecture_jp":"北海道","jp_add_1":"枝幸郡浜頓別町","jp_add_2":"北２条"},"0985713":{"post_code":"0985713","prefecture":"HOKKAIDO","city":"ESASHI GUN HAMATOMBETSU CHO","town":"KITA3-JO","perfecture_jp":"北海道","jp_add_1":"枝幸郡浜頓別町","jp_add_2":"北３条"},"0985714":{"post_code":"0985714","prefecture":"HOKKAIDO","city":"ESASHI GUN HAMATOMBETSU CHO","town":"KITA4-JO","perfecture_jp":"北海道","jp_add_1":"枝幸郡浜頓別町","jp_add_2":"北４条"},"0985765":{"post_code":"0985765","prefecture":"HOKKAIDO","city":"ESASHI GUN HAMATOMBETSU CHO","town":"KYOWA","perfecture_jp":"北海道","jp_add_1":"枝幸郡浜頓別町","jp_add_2":"共和"},"0985739":{"post_code":"0985739","prefecture":"HOKKAIDO","city":"ESASHI GUN HAMATOMBETSU CHO","town":"KUTCHAROKOHAN","perfecture_jp":"北海道","jp_add_1":"枝幸郡浜頓別町","jp_add_2":"クッチャロ湖畔"},"0985752":{"post_code":"0985752","prefecture":"HOKKAIDO","city":"ESASHI GUN HAMATOMBETSU CHO","town":"SHIMOTOMBETSU","perfecture_jp":"北海道","jp_add_1":"枝幸郡浜頓別町","jp_add_2":"下頓別"},"0985703":{"post_code":"0985703","prefecture":"HOKKAIDO","city":"ESASHI GUN HAMATOMBETSU CHO","town":"TOYOHAMA","perfecture_jp":"北海道","jp_add_1":"枝幸郡浜頓別町","jp_add_2":"斜内"},"0985753":{"post_code":"0985753","prefecture":"HOKKAIDO","city":"ESASHI GUN HAMATOMBETSU CHO","town":"TAKASAGO","perfecture_jp":"北海道","jp_add_1":"枝幸郡浜頓別町","jp_add_2":"高砂"},"0985761":{"post_code":"0985761","prefecture":"HOKKAIDO","city":"ESASHI GUN HAMATOMBETSU CHO","town":"YAMAGARU","perfecture_jp":"北海道","jp_add_1":"枝幸郡浜頓別町","jp_add_2":"智福"},"0985705":{"post_code":"0985705","prefecture":"HOKKAIDO","city":"ESASHI GUN HAMATOMBETSU CHO","town":"CHUO MINAMI","perfecture_jp":"北海道","jp_add_1":"枝幸郡浜頓別町","jp_add_2":"中央南"},"0985704":{"post_code":"0985704","prefecture":"HOKKAIDO","city":"ESASHI GUN HAMATOMBETSU CHO","town":"CHUO KITA","perfecture_jp":"北海道","jp_add_1":"枝幸郡浜頓別町","jp_add_2":"中央北"},"0985742":{"post_code":"0985742","prefecture":"HOKKAIDO","city":"ESASHI GUN HAMATOMBETSU CHO","town":"TOIDE","perfecture_jp":"北海道","jp_add_1":"枝幸郡浜頓別町","jp_add_2":"戸出"},"0985745":{"post_code":"0985745","prefecture":"HOKKAIDO","city":"ESASHI GUN HAMATOMBETSU CHO","town":"TOKIWA","perfecture_jp":"北海道","jp_add_1":"枝幸郡浜頓別町","jp_add_2":"常盤"},"0985702":{"post_code":"0985702","prefecture":"HOKKAIDO","city":"ESASHI GUN HAMATOMBETSU CHO","town":"TOYOKAMBETSU","perfecture_jp":"北海道","jp_add_1":"枝幸郡浜頓別町","jp_add_2":"豊牛"},"0985763":{"post_code":"0985763","prefecture":"HOKKAIDO","city":"ESASHI GUN HAMATOMBETSU CHO","town":"NITACHINAI","perfecture_jp":"北海道","jp_add_1":"枝幸郡浜頓別町","jp_add_2":"仁達内"},"0985717":{"post_code":"0985717","prefecture":"HOKKAIDO","city":"ESASHI GUN HAMATOMBETSU CHO","town":"HAMATOMBETSU","perfecture_jp":"北海道","jp_add_1":"枝幸郡浜頓別町","jp_add_2":"浜頓別"},"0985734":{"post_code":"0985734","prefecture":"HOKKAIDO","city":"ESASHI GUN HAMATOMBETSU CHO","town":"HINODE","perfecture_jp":"北海道","jp_add_1":"枝幸郡浜頓別町","jp_add_2":"日の出"},"0985762":{"post_code":"0985762","prefecture":"HOKKAIDO","city":"ESASHI GUN HAMATOMBETSU CHO","town":"PONNITACHINAI","perfecture_jp":"北海道","jp_add_1":"枝幸郡浜頓別町","jp_add_2":"ポン仁達内"},"0985738":{"post_code":"0985738","prefecture":"HOKKAIDO","city":"ESASHI GUN HAMATOMBETSU CHO","town":"MIDORIGAOKA","perfecture_jp":"北海道","jp_add_1":"枝幸郡浜頓別町","jp_add_2":"緑ケ丘"},"0985721":{"post_code":"0985721","prefecture":"HOKKAIDO","city":"ESASHI GUN HAMATOMBETSU CHO","town":"MINAMI1-JO","perfecture_jp":"北海道","jp_add_1":"枝幸郡浜頓別町","jp_add_2":"南１条"},"0985722":{"post_code":"0985722","prefecture":"HOKKAIDO","city":"ESASHI GUN HAMATOMBETSU CHO","town":"MINAMI2-JO","perfecture_jp":"北海道","jp_add_1":"枝幸郡浜頓別町","jp_add_2":"南２条"},"0985723":{"post_code":"0985723","prefecture":"HOKKAIDO","city":"ESASHI GUN HAMATOMBETSU CHO","town":"MINAMI3-JO","perfecture_jp":"北海道","jp_add_1":"枝幸郡浜頓別町","jp_add_2":"南３条"},"0985755":{"post_code":"0985755","prefecture":"HOKKAIDO","city":"ESASHI GUN HAMATOMBETSU CHO","town":"MOTSUNAI","perfecture_jp":"北海道","jp_add_1":"枝幸郡浜頓別町","jp_add_2":"茂宇津内"},"0985764":{"post_code":"0985764","prefecture":"HOKKAIDO","city":"ESASHI GUN HAMATOMBETSU CHO","town":"YASUBETSU","perfecture_jp":"北海道","jp_add_1":"枝幸郡浜頓別町","jp_add_2":"安別"},"0985500":{"post_code":"0985500","prefecture":"HOKKAIDO","city":"ESASHI GUN NAKATOMBETSU CHO","town":"IKANIKEISAIGANAIBAAI","perfecture_jp":"北海道","jp_add_1":"枝幸郡中頓別町","jp_add_2":""},"0985103":{"post_code":"0985103","prefecture":"HOKKAIDO","city":"ESASHI GUN NAKATOMBETSU CHO","town":"AKITA","perfecture_jp":"北海道","jp_add_1":"枝幸郡中頓別町","jp_add_2":"秋田"},"0985554":{"post_code":"0985554","prefecture":"HOKKAIDO","city":"ESASHI GUN NAKATOMBETSU CHO","town":"ASAHIDAI","perfecture_jp":"北海道","jp_add_1":"枝幸郡中頓別町","jp_add_2":"旭台"},"0985101":{"post_code":"0985101","prefecture":"HOKKAIDO","city":"ESASHI GUN NAKATOMBETSU CHO","town":"IWATE","perfecture_jp":"北海道","jp_add_1":"枝幸郡中頓別町","jp_add_2":"岩手"},"0985564":{"post_code":"0985564","prefecture":"HOKKAIDO","city":"ESASHI GUN NAKATOMBETSU CHO","town":"KAMIKOMA","perfecture_jp":"北海道","jp_add_1":"枝幸郡中頓別町","jp_add_2":"上駒"},"0985111":{"post_code":"0985111","prefecture":"HOKKAIDO","city":"ESASHI GUN NAKATOMBETSU CHO","town":"KAMITOMBETSU","perfecture_jp":"北海道","jp_add_1":"枝幸郡中頓別町","jp_add_2":"上頓別"},"0985562":{"post_code":"0985562","prefecture":"HOKKAIDO","city":"ESASHI GUN NAKATOMBETSU CHO","town":"KANZAKI","perfecture_jp":"北海道","jp_add_1":"枝幸郡中頓別町","jp_add_2":"神崎"},"0985552":{"post_code":"0985552","prefecture":"HOKKAIDO","city":"ESASHI GUN NAKATOMBETSU CHO","town":"KOTOBUKI","perfecture_jp":"北海道","jp_add_1":"枝幸郡中頓別町","jp_add_2":"寿"},"0985102":{"post_code":"0985102","prefecture":"HOKKAIDO","city":"ESASHI GUN NAKATOMBETSU CHO","town":"SHOTOMBETSU","perfecture_jp":"北海道","jp_add_1":"枝幸郡中頓別町","jp_add_2":"小頓別"},"0985555":{"post_code":"0985555","prefecture":"HOKKAIDO","city":"ESASHI GUN NAKATOMBETSU CHO","town":"TOYOIZUMI","perfecture_jp":"北海道","jp_add_1":"枝幸郡中頓別町","jp_add_2":"豊泉"},"0985112":{"post_code":"0985112","prefecture":"HOKKAIDO","city":"ESASHI GUN NAKATOMBETSU CHO","town":"TOYOHIRA","perfecture_jp":"北海道","jp_add_1":"枝幸郡中頓別町","jp_add_2":"豊平"},"0985551":{"post_code":"0985551","prefecture":"HOKKAIDO","city":"ESASHI GUN NAKATOMBETSU CHO","town":"NAKATOMBETSU","perfecture_jp":"北海道","jp_add_1":"枝幸郡中頓別町","jp_add_2":"中頓別"},"0985113":{"post_code":"0985113","prefecture":"HOKKAIDO","city":"ESASHI GUN NAKATOMBETSU CHO","town":"PINNESHIRI","perfecture_jp":"北海道","jp_add_1":"枝幸郡中頓別町","jp_add_2":"敏音知"},"0985563":{"post_code":"0985563","prefecture":"HOKKAIDO","city":"ESASHI GUN NAKATOMBETSU CHO","town":"FUJII","perfecture_jp":"北海道","jp_add_1":"枝幸郡中頓別町","jp_add_2":"藤井"},"0985561":{"post_code":"0985561","prefecture":"HOKKAIDO","city":"ESASHI GUN NAKATOMBETSU CHO","town":"HEIAN","perfecture_jp":"北海道","jp_add_1":"枝幸郡中頓別町","jp_add_2":"兵安"},"0985565":{"post_code":"0985565","prefecture":"HOKKAIDO","city":"ESASHI GUN NAKATOMBETSU CHO","town":"MATSUNESHIRI","perfecture_jp":"北海道","jp_add_1":"枝幸郡中頓別町","jp_add_2":"松音知"},"0985553":{"post_code":"0985553","prefecture":"HOKKAIDO","city":"ESASHI GUN NAKATOMBETSU CHO","town":"YAYOI","perfecture_jp":"北海道","jp_add_1":"枝幸郡中頓別町","jp_add_2":"弥生"},"0985800":{"post_code":"0985800","prefecture":"HOKKAIDO","city":"ESASHI GUN ESASHI CHO","town":"IKANIKEISAIGANAIBAAI","perfecture_jp":"北海道","jp_add_1":"枝幸郡枝幸町","jp_add_2":""},"0985827":{"post_code":"0985827","prefecture":"HOKKAIDO","city":"ESASHI GUN ESASHI CHO","town":"UENNAI","perfecture_jp":"北海道","jp_add_1":"枝幸郡枝幸町","jp_add_2":"宇遠内"},"0985445":{"post_code":"0985445","prefecture":"HOKKAIDO","city":"ESASHI GUN ESASHI CHO","town":"UTANOBORI OMAGARI","perfecture_jp":"北海道","jp_add_1":"枝幸郡枝幸町","jp_add_2":"歌登大曲"},"0985444":{"post_code":"0985444","prefecture":"HOKKAIDO","city":"ESASHI GUN ESASHI CHO","town":"UTANOBORI OFUN","perfecture_jp":"北海道","jp_add_1":"枝幸郡枝幸町","jp_add_2":"歌登大奮"},"0985443":{"post_code":"0985443","prefecture":"HOKKAIDO","city":"ESASHI GUN ESASHI CHO","town":"UTANOBORI KAMITOKUSHIBETSU","perfecture_jp":"北海道","jp_add_1":"枝幸郡枝幸町","jp_add_2":"歌登上徳志別"},"0985221":{"post_code":"0985221","prefecture":"HOKKAIDO","city":"ESASHI GUN ESASHI CHO","town":"UTANOBORI KETOBETSU","perfecture_jp":"北海道","jp_add_1":"枝幸郡枝幸町","jp_add_2":"歌登毛登別"},"0985441":{"post_code":"0985441","prefecture":"HOKKAIDO","city":"ESASHI GUN ESASHI CHO","town":"UTANOBORI SHIBIUTAN","perfecture_jp":"北海道","jp_add_1":"枝幸郡枝幸町","jp_add_2":"歌登志美宇丹"},"0985212":{"post_code":"0985212","prefecture":"HOKKAIDO","city":"ESASHI GUN ESASHI CHO","town":"UTANOBORI CHUO","perfecture_jp":"北海道","jp_add_1":"枝幸郡枝幸町","jp_add_2":"歌登中央"},"0985211":{"post_code":"0985211","prefecture":"HOKKAIDO","city":"ESASHI GUN ESASHI CHO","town":"UTANOBORI NISHIUTANOBORI","perfecture_jp":"北海道","jp_add_1":"枝幸郡枝幸町","jp_add_2":"歌登西歌登"},"0985206":{"post_code":"0985206","prefecture":"HOKKAIDO","city":"ESASHI GUN ESASHI CHO","town":"UTANOBORI NISHIMACHI","perfecture_jp":"北海道","jp_add_1":"枝幸郡枝幸町","jp_add_2":"歌登西町"},"0985201":{"post_code":"0985201","prefecture":"HOKKAIDO","city":"ESASHI GUN ESASHI CHO","town":"UTANOBORI PANKENAI","perfecture_jp":"北海道","jp_add_1":"枝幸郡枝幸町","jp_add_2":"歌登パンケナイ"},"0985205":{"post_code":"0985205","prefecture":"HOKKAIDO","city":"ESASHI GUN ESASHI CHO","town":"UTANOBORI HIGAKIMACHI","perfecture_jp":"北海道","jp_add_1":"枝幸郡枝幸町","jp_add_2":"歌登桧垣町"},"0985202":{"post_code":"0985202","prefecture":"HOKKAIDO","city":"ESASHI GUN ESASHI CHO","town":"UTANOBORI HIGASHIUTANOBORI","perfecture_jp":"北海道","jp_add_1":"枝幸郡枝幸町","jp_add_2":"歌登東歌登"},"0985207":{"post_code":"0985207","prefecture":"HOKKAIDO","city":"ESASHI GUN ESASHI CHO","town":"UTANOBORI HIGASHIMACHI","perfecture_jp":"北海道","jp_add_1":"枝幸郡枝幸町","jp_add_2":"歌登東町"},"0985203":{"post_code":"0985203","prefecture":"HOKKAIDO","city":"ESASHI GUN ESASHI CHO","town":"UTANOBORI PENKENAI","perfecture_jp":"北海道","jp_add_1":"枝幸郡枝幸町","jp_add_2":"歌登辺毛内"},"0985442":{"post_code":"0985442","prefecture":"HOKKAIDO","city":"ESASHI GUN ESASHI CHO","town":"UTANOBORI HOYOKU","perfecture_jp":"北海道","jp_add_1":"枝幸郡枝幸町","jp_add_2":"歌登豊沃"},"0985213":{"post_code":"0985213","prefecture":"HOKKAIDO","city":"ESASHI GUN ESASHI CHO","town":"UTANOBORI HONHOROBETSU","perfecture_jp":"北海道","jp_add_1":"枝幸郡枝幸町","jp_add_2":"歌登本幌別"},"0985204":{"post_code":"0985204","prefecture":"HOKKAIDO","city":"ESASHI GUN ESASHI CHO","town":"UTANOBORI MINAMIMACHI","perfecture_jp":"北海道","jp_add_1":"枝幸郡枝幸町","jp_add_2":"歌登南町"},"0985806":{"post_code":"0985806","prefecture":"HOKKAIDO","city":"ESASHI GUN ESASHI CHO","town":"UMEGAECHO","perfecture_jp":"北海道","jp_add_1":"枝幸郡枝幸町","jp_add_2":"梅ケ枝町"},"0985802":{"post_code":"0985802","prefecture":"HOKKAIDO","city":"ESASHI GUN ESASHI CHO","town":"OKASHIMA","perfecture_jp":"北海道","jp_add_1":"枝幸郡枝幸町","jp_add_2":"岡島"},"0985952":{"post_code":"0985952","prefecture":"HOKKAIDO","city":"ESASHI GUN ESASHI CHO","town":"OTSUCHUBE","perfecture_jp":"北海道","jp_add_1":"枝幸郡枝幸町","jp_add_2":"乙忠部"},"0985955":{"post_code":"0985955","prefecture":"HOKKAIDO","city":"ESASHI GUN ESASHI CHO","town":"OTOSHIBE","perfecture_jp":"北海道","jp_add_1":"枝幸郡枝幸町","jp_add_2":"音標"},"0985954":{"post_code":"0985954","prefecture":"HOKKAIDO","city":"ESASHI GUN ESASHI CHO","town":"KAMIOTOSHIBE","perfecture_jp":"北海道","jp_add_1":"枝幸郡枝幸町","jp_add_2":"上音標"},"0985826":{"post_code":"0985826","prefecture":"HOKKAIDO","city":"ESASHI GUN ESASHI CHO","town":"KITAHAMACHO","perfecture_jp":"北海道","jp_add_1":"枝幸郡枝幸町","jp_add_2":"北浜町"},"0985805":{"post_code":"0985805","prefecture":"HOKKAIDO","city":"ESASHI GUN ESASHI CHO","town":"SAIWAICHO","perfecture_jp":"北海道","jp_add_1":"枝幸郡枝幸町","jp_add_2":"幸町"},"0985821":{"post_code":"0985821","prefecture":"HOKKAIDO","city":"ESASHI GUN ESASHI CHO","town":"SAKAEMACHI","perfecture_jp":"北海道","jp_add_1":"枝幸郡枝幸町","jp_add_2":"栄町"},"0985803":{"post_code":"0985803","prefecture":"HOKKAIDO","city":"ESASHI GUN ESASHI CHO","town":"SHIMOHOROBETSU","perfecture_jp":"北海道","jp_add_1":"枝幸郡枝幸町","jp_add_2":"下幌別"},"0985808":{"post_code":"0985808","prefecture":"HOKKAIDO","city":"ESASHI GUN ESASHI CHO","town":"SHINKOCHO","perfecture_jp":"北海道","jp_add_1":"枝幸郡枝幸町","jp_add_2":"新港町"},"0985825":{"post_code":"0985825","prefecture":"HOKKAIDO","city":"ESASHI GUN ESASHI CHO","town":"SHINSAKAEMACHI","perfecture_jp":"北海道","jp_add_1":"枝幸郡枝幸町","jp_add_2":"新栄町"},"0985815":{"post_code":"0985815","prefecture":"HOKKAIDO","city":"ESASHI GUN ESASHI CHO","town":"TOIMAKI","perfecture_jp":"北海道","jp_add_1":"枝幸郡枝幸町","jp_add_2":"問牧"},"0985801":{"post_code":"0985801","prefecture":"HOKKAIDO","city":"ESASHI GUN ESASHI CHO","town":"TOKUSHIBETSU","perfecture_jp":"北海道","jp_add_1":"枝幸郡枝幸町","jp_add_2":"徳志別"},"0985953":{"post_code":"0985953","prefecture":"HOKKAIDO","city":"ESASHI GUN ESASHI CHO","town":"FUREPPU","perfecture_jp":"北海道","jp_add_1":"枝幸郡枝幸町","jp_add_2":"風烈布"},"0985824":{"post_code":"0985824","prefecture":"HOKKAIDO","city":"ESASHI GUN ESASHI CHO","town":"HOKUEICHO","perfecture_jp":"北海道","jp_add_1":"枝幸郡枝幸町","jp_add_2":"北栄町"},"0985822":{"post_code":"0985822","prefecture":"HOKKAIDO","city":"ESASHI GUN ESASHI CHO","town":"HOKKOCHO","perfecture_jp":"北海道","jp_add_1":"枝幸郡枝幸町","jp_add_2":"北幸町"},"0985807":{"post_code":"0985807","prefecture":"HOKKAIDO","city":"ESASHI GUN ESASHI CHO","town":"HONCHO","perfecture_jp":"北海道","jp_add_1":"枝幸郡枝幸町","jp_add_2":"本町"},"0985823":{"post_code":"0985823","prefecture":"HOKKAIDO","city":"ESASHI GUN ESASHI CHO","town":"MIKASACHO","perfecture_jp":"北海道","jp_add_1":"枝幸郡枝幸町","jp_add_2":"三笠町"},"0985814":{"post_code":"0985814","prefecture":"HOKKAIDO","city":"ESASHI GUN ESASHI CHO","town":"MISAKICHO","perfecture_jp":"北海道","jp_add_1":"枝幸郡枝幸町","jp_add_2":"岬町"},"0985804":{"post_code":"0985804","prefecture":"HOKKAIDO","city":"ESASHI GUN ESASHI CHO","town":"MINAMIHAMACHO","perfecture_jp":"北海道","jp_add_1":"枝幸郡枝幸町","jp_add_2":"南浜町"},"0985816":{"post_code":"0985816","prefecture":"HOKKAIDO","city":"ESASHI GUN ESASHI CHO","town":"MENASHIDOMARI","perfecture_jp":"北海道","jp_add_1":"枝幸郡枝幸町","jp_add_2":"目梨泊"},"0985951":{"post_code":"0985951","prefecture":"HOKKAIDO","city":"ESASHI GUN ESASHI CHO","town":"YAMAUSU","perfecture_jp":"北海道","jp_add_1":"枝幸郡枝幸町","jp_add_2":"山臼"},"0984100":{"post_code":"0984100","prefecture":"HOKKAIDO","city":"TESHIO GUN TOYOTOMI CHO","town":"IKANIKEISAIGANAIBAAI","perfecture_jp":"北海道","jp_add_1":"天塩郡豊富町","jp_add_2":""},"0984462":{"post_code":"0984462","prefecture":"HOKKAIDO","city":"TESHIO GUN TOYOTOMI CHO","town":"ASARU","perfecture_jp":"北海道","jp_add_1":"天塩郡豊富町","jp_add_2":"阿沙流"},"0984455":{"post_code":"0984455","prefecture":"HOKKAIDO","city":"TESHIO GUN TOYOTOMI CHO","town":"ASHIKAWA","perfecture_jp":"北海道","jp_add_1":"天塩郡豊富町","jp_add_2":"芦川"},"0984103":{"post_code":"0984103","prefecture":"HOKKAIDO","city":"TESHIO GUN TOYOTOMI CHO","town":"ARIAKE","perfecture_jp":"北海道","jp_add_1":"天塩郡豊富町","jp_add_2":"有明"},"0984138":{"post_code":"0984138","prefecture":"HOKKAIDO","city":"TESHIO GUN TOYOTOMI CHO","town":"EKIMAEDORI","perfecture_jp":"北海道","jp_add_1":"天塩郡豊富町","jp_add_2":"駅前通"},"0984110":{"post_code":"0984110","prefecture":"HOKKAIDO","city":"TESHIO GUN TOYOTOMI CHO","town":"ODORI","perfecture_jp":"北海道","jp_add_1":"天塩郡豊富町","jp_add_2":"大通り"},"0984468":{"post_code":"0984468","prefecture":"HOKKAIDO","city":"TESHIO GUN TOYOTOMI CHO","town":"OCHIAI(4468-BANCHI)","perfecture_jp":"北海道","jp_add_1":"天塩郡豊富町","jp_add_2":"落合"},"0984117":{"post_code":"0984117","prefecture":"HOKKAIDO","city":"TESHIO GUN TOYOTOMI CHO","town":"OCHIAI(SONOTA)","perfecture_jp":"北海道","jp_add_1":"天塩郡豊富町","jp_add_2":"落合"},"0984132":{"post_code":"0984132","prefecture":"HOKKAIDO","city":"TESHIO GUN TOYOTOMI CHO","town":"ONSEN","perfecture_jp":"北海道","jp_add_1":"天塩郡豊富町","jp_add_2":"温泉"},"0984456":{"post_code":"0984456","prefecture":"HOKKAIDO","city":"TESHIO GUN TOYOTOMI CHO","town":"KAIGEN","perfecture_jp":"北海道","jp_add_1":"天塩郡豊富町","jp_add_2":"開源"},"0984451":{"post_code":"0984451","prefecture":"HOKKAIDO","city":"TESHIO GUN TOYOTOMI CHO","town":"KABUTONUMA","perfecture_jp":"北海道","jp_add_1":"天塩郡豊富町","jp_add_2":"兜沼"},"0984141":{"post_code":"0984141","prefecture":"HOKKAIDO","city":"TESHIO GUN TOYOTOMI CHO","town":"SANJODORI","perfecture_jp":"北海道","jp_add_1":"天塩郡豊富町","jp_add_2":"三条通り"},"0984104":{"post_code":"0984104","prefecture":"HOKKAIDO","city":"TESHIO GUN TOYOTOMI CHO","town":"SHUTOKU","perfecture_jp":"北海道","jp_add_1":"天塩郡豊富町","jp_add_2":"修徳"},"0984136":{"post_code":"0984136","prefecture":"HOKKAIDO","city":"TESHIO GUN TOYOTOMI CHO","town":"SHINSEI","perfecture_jp":"北海道","jp_add_1":"天塩郡豊富町","jp_add_2":"新生"},"0984466":{"post_code":"0984466","prefecture":"HOKKAIDO","city":"TESHIO GUN TOYOTOMI CHO","town":"SEIMEI","perfecture_jp":"北海道","jp_add_1":"天塩郡豊富町","jp_add_2":"清明"},"0984140":{"post_code":"0984140","prefecture":"HOKKAIDO","city":"TESHIO GUN TOYOTOMI CHO","town":"TEISHABADORI","perfecture_jp":"北海道","jp_add_1":"天塩郡豊富町","jp_add_2":"停車場通"},"0984137":{"post_code":"0984137","prefecture":"HOKKAIDO","city":"TESHIO GUN TOYOTOMI CHO","town":"TOKUMITSU","perfecture_jp":"北海道","jp_add_1":"天塩郡豊富町","jp_add_2":"徳満"},"0984135":{"post_code":"0984135","prefecture":"HOKKAIDO","city":"TESHIO GUN TOYOTOMI CHO","town":"TOYOKAWA","perfecture_jp":"北海道","jp_add_1":"天塩郡豊富町","jp_add_2":"豊川"},"0984467":{"post_code":"0984467","prefecture":"HOKKAIDO","city":"TESHIO GUN TOYOTOMI CHO","town":"TOYOSATO","perfecture_jp":"北海道","jp_add_1":"天塩郡豊富町","jp_add_2":"豊里"},"0984134":{"post_code":"0984134","prefecture":"HOKKAIDO","city":"TESHIO GUN TOYOTOMI CHO","town":"TOYOHORO","perfecture_jp":"北海道","jp_add_1":"天塩郡豊富町","jp_add_2":"豊幌"},"0984139":{"post_code":"0984139","prefecture":"HOKKAIDO","city":"TESHIO GUN TOYOTOMI CHO","town":"NAKADORI","perfecture_jp":"北海道","jp_add_1":"天塩郡豊富町","jp_add_2":"仲通り"},"0984116":{"post_code":"0984116","prefecture":"HOKKAIDO","city":"TESHIO GUN TOYOTOMI CHO","town":"NISHITOYOTOMI","perfecture_jp":"北海道","jp_add_1":"天塩郡豊富町","jp_add_2":"西豊富"},"0984111":{"post_code":"0984111","prefecture":"HOKKAIDO","city":"TESHIO GUN TOYOTOMI CHO","town":"NISHI1-JO","perfecture_jp":"北海道","jp_add_1":"天塩郡豊富町","jp_add_2":"西一条"},"0984112":{"post_code":"0984112","prefecture":"HOKKAIDO","city":"TESHIO GUN TOYOTOMI CHO","town":"NISHI2-JO","perfecture_jp":"北海道","jp_add_1":"天塩郡豊富町","jp_add_2":"西二条"},"0984113":{"post_code":"0984113","prefecture":"HOKKAIDO","city":"TESHIO GUN TOYOTOMI CHO","town":"NISHI3-JO","perfecture_jp":"北海道","jp_add_1":"天塩郡豊富町","jp_add_2":"西三条"},"0984114":{"post_code":"0984114","prefecture":"HOKKAIDO","city":"TESHIO GUN TOYOTOMI CHO","town":"NISHI4-JO","perfecture_jp":"北海道","jp_add_1":"天塩郡豊富町","jp_add_2":"西四条"},"0984115":{"post_code":"0984115","prefecture":"HOKKAIDO","city":"TESHIO GUN TOYOTOMI CHO","town":"NISHI5-JO","perfecture_jp":"北海道","jp_add_1":"天塩郡豊富町","jp_add_2":"西五条"},"0984457":{"post_code":"0984457","prefecture":"HOKKAIDO","city":"TESHIO GUN TOYOTOMI CHO","town":"NUMAMUKAI","perfecture_jp":"北海道","jp_add_1":"天塩郡豊富町","jp_add_2":"沼向"},"0984131":{"post_code":"0984131","prefecture":"HOKKAIDO","city":"TESHIO GUN TOYOTOMI CHO","town":"HIGASHITOYOTOMI","perfecture_jp":"北海道","jp_add_1":"天塩郡豊富町","jp_add_2":"東豊富"},"0984121":{"post_code":"0984121","prefecture":"HOKKAIDO","city":"TESHIO GUN TOYOTOMI CHO","town":"HIGASHI1-JO","perfecture_jp":"北海道","jp_add_1":"天塩郡豊富町","jp_add_2":"東一条"},"0984122":{"post_code":"0984122","prefecture":"HOKKAIDO","city":"TESHIO GUN TOYOTOMI CHO","town":"HIGASHI2-JO","perfecture_jp":"北海道","jp_add_1":"天塩郡豊富町","jp_add_2":"東二条"},"0984123":{"post_code":"0984123","prefecture":"HOKKAIDO","city":"TESHIO GUN TOYOTOMI CHO","town":"HIGASHI3-JO","perfecture_jp":"北海道","jp_add_1":"天塩郡豊富町","jp_add_2":"東三条"},"0984124":{"post_code":"0984124","prefecture":"HOKKAIDO","city":"TESHIO GUN TOYOTOMI CHO","town":"HIGASHI4-JO","perfecture_jp":"北海道","jp_add_1":"天塩郡豊富町","jp_add_2":"東四条"},"0984125":{"post_code":"0984125","prefecture":"HOKKAIDO","city":"TESHIO GUN TOYOTOMI CHO","town":"HIGASHI5-JO","perfecture_jp":"北海道","jp_add_1":"天塩郡豊富町","jp_add_2":"東五条"},"0984126":{"post_code":"0984126","prefecture":"HOKKAIDO","city":"TESHIO GUN TOYOTOMI CHO","town":"HIGASHI6-JO","perfecture_jp":"北海道","jp_add_1":"天塩郡豊富町","jp_add_2":"東六条"},"0984101":{"post_code":"0984101","prefecture":"HOKKAIDO","city":"TESHIO GUN TOYOTOMI CHO","town":"FUKUNAGA","perfecture_jp":"北海道","jp_add_1":"天塩郡豊富町","jp_add_2":"福永"},"0984464":{"post_code":"0984464","prefecture":"HOKKAIDO","city":"TESHIO GUN TOYOTOMI CHO","town":"HOEI","perfecture_jp":"北海道","jp_add_1":"天塩郡豊富町","jp_add_2":"豊栄"},"0984465":{"post_code":"0984465","prefecture":"HOKKAIDO","city":"TESHIO GUN TOYOTOMI CHO","town":"HODEN","perfecture_jp":"北海道","jp_add_1":"天塩郡豊富町","jp_add_2":"豊田"},"0984106":{"post_code":"0984106","prefecture":"HOKKAIDO","city":"TESHIO GUN TOYOTOMI CHO","town":"HOTOKU","perfecture_jp":"北海道","jp_add_1":"天塩郡豊富町","jp_add_2":"豊徳"},"0984105":{"post_code":"0984105","prefecture":"HOKKAIDO","city":"TESHIO GUN TOYOTOMI CHO","town":"HOROKA","perfecture_jp":"北海道","jp_add_1":"天塩郡豊富町","jp_add_2":"幌加"},"0984133":{"post_code":"0984133","prefecture":"HOKKAIDO","city":"TESHIO GUN TOYOTOMI CHO","town":"HONRYU","perfecture_jp":"北海道","jp_add_1":"天塩郡豊富町","jp_add_2":"本流"},"0984461":{"post_code":"0984461","prefecture":"HOKKAIDO","city":"TESHIO GUN TOYOTOMI CHO","town":"MIZUHO HIGASHI","perfecture_jp":"北海道","jp_add_1":"天塩郡豊富町","jp_add_2":"瑞穂東"},"0984463":{"post_code":"0984463","prefecture":"HOKKAIDO","city":"TESHIO GUN TOYOTOMI CHO","town":"MIZUHO MINAMI","perfecture_jp":"北海道","jp_add_1":"天塩郡豊富町","jp_add_2":"瑞穂南"},"0984102":{"post_code":"0984102","prefecture":"HOKKAIDO","city":"TESHIO GUN TOYOTOMI CHO","town":"MENASHIBETSU","perfecture_jp":"北海道","jp_add_1":"天塩郡豊富町","jp_add_2":"目梨別"},"0984107":{"post_code":"0984107","prefecture":"HOKKAIDO","city":"TESHIO GUN TOYOTOMI CHO","town":"WAKASAKANAI","perfecture_jp":"北海道","jp_add_1":"天塩郡豊富町","jp_add_2":"稚咲内"},"0983200":{"post_code":"0983200","prefecture":"HOKKAIDO","city":"TESHIO GUN HORONOBE CHO","town":"IKANIKEISAIGANAIBAAI","perfecture_jp":"北海道","jp_add_1":"天塩郡幌延町","jp_add_2":""},"0983226":{"post_code":"0983226","prefecture":"HOKKAIDO","city":"TESHIO GUN HORONOBE CHO","town":"KAISHIN","perfecture_jp":"北海道","jp_add_1":"天塩郡幌延町","jp_add_2":"開進"},"0982941":{"post_code":"0982941","prefecture":"HOKKAIDO","city":"TESHIO GUN HORONOBE CHO","town":"KAMITOIKAN","perfecture_jp":"北海道","jp_add_1":"天塩郡幌延町","jp_add_2":"上問寒"},"0983225":{"post_code":"0983225","prefecture":"HOKKAIDO","city":"TESHIO GUN HORONOBE CHO","town":"KAMIHORONOBE","perfecture_jp":"北海道","jp_add_1":"天塩郡幌延町","jp_add_2":"上幌延"},"0983221":{"post_code":"0983221","prefecture":"HOKKAIDO","city":"TESHIO GUN HORONOBE CHO","town":"SAKAEMACHI","perfecture_jp":"北海道","jp_add_1":"天塩郡幌延町","jp_add_2":"栄町"},"0983228":{"post_code":"0983228","prefecture":"HOKKAIDO","city":"TESHIO GUN HORONOBE CHO","town":"SHIMONUMA","perfecture_jp":"北海道","jp_add_1":"天塩郡幌延町","jp_add_2":"下沼"},"0982943":{"post_code":"0982943","prefecture":"HOKKAIDO","city":"TESHIO GUN HORONOBE CHO","town":"TOIKAMBETSU","perfecture_jp":"北海道","jp_add_1":"天塩郡幌延町","jp_add_2":"問寒別"},"0982942":{"post_code":"0982942","prefecture":"HOKKAIDO","city":"TESHIO GUN HORONOBE CHO","town":"NAKATOIKAN","perfecture_jp":"北海道","jp_add_1":"天塩郡幌延町","jp_add_2":"中問寒"},"0983227":{"post_code":"0983227","prefecture":"HOKKAIDO","city":"TESHIO GUN HORONOBE CHO","town":"HAMASATO","perfecture_jp":"北海道","jp_add_1":"天塩郡幌延町","jp_add_2":"浜里"},"0983222":{"post_code":"0983222","prefecture":"HOKKAIDO","city":"TESHIO GUN HORONOBE CHO","town":"HIGASHIMACHI","perfecture_jp":"北海道","jp_add_1":"天塩郡幌延町","jp_add_2":"東町"},"0983224":{"post_code":"0983224","prefecture":"HOKKAIDO","city":"TESHIO GUN HORONOBE CHO","town":"HOKUSHIN","perfecture_jp":"北海道","jp_add_1":"天塩郡幌延町","jp_add_2":"北進"},"0983223":{"post_code":"0983223","prefecture":"HOKKAIDO","city":"TESHIO GUN HORONOBE CHO","town":"HORONOBE","perfecture_jp":"北海道","jp_add_1":"天塩郡幌延町","jp_add_2":"幌延"},"0983207":{"post_code":"0983207","prefecture":"HOKKAIDO","city":"TESHIO GUN HORONOBE CHO","town":"MIYAZONOMACHI","perfecture_jp":"北海道","jp_add_1":"天塩郡幌延町","jp_add_2":"宮園町"},"0983217":{"post_code":"0983217","prefecture":"HOKKAIDO","city":"TESHIO GUN HORONOBE CHO","town":"MOTOMACHI","perfecture_jp":"北海道","jp_add_1":"天塩郡幌延町","jp_add_2":"元町"},"0983151":{"post_code":"0983151","prefecture":"HOKKAIDO","city":"TESHIO GUN HORONOBE CHO","town":"YUKO","perfecture_jp":"北海道","jp_add_1":"天塩郡幌延町","jp_add_2":"雄興"},"0983211":{"post_code":"0983211","prefecture":"HOKKAIDO","city":"TESHIO GUN HORONOBE CHO","town":"1-JOMINAMI","perfecture_jp":"北海道","jp_add_1":"天塩郡幌延町","jp_add_2":"一条南"},"0983201":{"post_code":"0983201","prefecture":"HOKKAIDO","city":"TESHIO GUN HORONOBE CHO","town":"1-JOKITA","perfecture_jp":"北海道","jp_add_1":"天塩郡幌延町","jp_add_2":"一条北"},"0983212":{"post_code":"0983212","prefecture":"HOKKAIDO","city":"TESHIO GUN HORONOBE CHO","town":"2-JOMINAMI","perfecture_jp":"北海道","jp_add_1":"天塩郡幌延町","jp_add_2":"二条南"},"0983202":{"post_code":"0983202","prefecture":"HOKKAIDO","city":"TESHIO GUN HORONOBE CHO","town":"2-JOKITA","perfecture_jp":"北海道","jp_add_1":"天塩郡幌延町","jp_add_2":"二条北"},"0983213":{"post_code":"0983213","prefecture":"HOKKAIDO","city":"TESHIO GUN HORONOBE CHO","town":"3-JOMINAMI","perfecture_jp":"北海道","jp_add_1":"天塩郡幌延町","jp_add_2":"三条南"},"0983203":{"post_code":"0983203","prefecture":"HOKKAIDO","city":"TESHIO GUN HORONOBE CHO","town":"3-JOKITA","perfecture_jp":"北海道","jp_add_1":"天塩郡幌延町","jp_add_2":"三条北"},"0983214":{"post_code":"0983214","prefecture":"HOKKAIDO","city":"TESHIO GUN HORONOBE CHO","town":"4-JOMINAMI","perfecture_jp":"北海道","jp_add_1":"天塩郡幌延町","jp_add_2":"四条南"},"0983204":{"post_code":"0983204","prefecture":"HOKKAIDO","city":"TESHIO GUN HORONOBE CHO","town":"4-JOKITA","perfecture_jp":"北海道","jp_add_1":"天塩郡幌延町","jp_add_2":"四条北"},"0983215":{"post_code":"0983215","prefecture":"HOKKAIDO","city":"TESHIO GUN HORONOBE CHO","town":"5-JOMINAMI","perfecture_jp":"北海道","jp_add_1":"天塩郡幌延町","jp_add_2":"五条南"},"0983205":{"post_code":"0983205","prefecture":"HOKKAIDO","city":"TESHIO GUN HORONOBE CHO","town":"5-JOKITA","perfecture_jp":"北海道","jp_add_1":"天塩郡幌延町","jp_add_2":"五条北"},"0983216":{"post_code":"0983216","prefecture":"HOKKAIDO","city":"TESHIO GUN HORONOBE CHO","town":"6-JOMINAMI","perfecture_jp":"北海道","jp_add_1":"天塩郡幌延町","jp_add_2":"六条南"},"0983206":{"post_code":"0983206","prefecture":"HOKKAIDO","city":"TESHIO GUN HORONOBE CHO","town":"6-JOKITA","perfecture_jp":"北海道","jp_add_1":"天塩郡幌延町","jp_add_2":"六条北"},"0981600":{"post_code":"0981600","prefecture":"HOKKAIDO","city":"MOMBETSU GUN OKOPPE CHO","town":"IKANIKEISAIGANAIBAAI","perfecture_jp":"北海道","jp_add_1":"紋別郡興部町","jp_add_2":""},"0981621":{"post_code":"0981621","prefecture":"HOKKAIDO","city":"MOMBETSU GUN OKOPPE CHO","town":"AKISATO","perfecture_jp":"北海道","jp_add_1":"紋別郡興部町","jp_add_2":"秋里"},"0981624":{"post_code":"0981624","prefecture":"HOKKAIDO","city":"MOMBETSU GUN OKOPPE CHO","town":"UTSU","perfecture_jp":"北海道","jp_add_1":"紋別郡興部町","jp_add_2":"宇津"},"0981607":{"post_code":"0981607","prefecture":"HOKKAIDO","city":"MOMBETSU GUN OKOPPE CHO","town":"OKOPPE(ASAHIMACHI)","perfecture_jp":"北海道","jp_add_1":"紋別郡興部町","jp_add_2":"興部"},"0981604":{"post_code":"0981604","prefecture":"HOKKAIDO","city":"MOMBETSU GUN OKOPPE CHO","town":"OKOPPE(KASUGACHO)","perfecture_jp":"北海道","jp_add_1":"紋別郡興部町","jp_add_2":"興部"},"0981614":{"post_code":"0981614","prefecture":"HOKKAIDO","city":"MOMBETSU GUN OKOPPE CHO","town":"OKOPPE(SAIWAICHO)","perfecture_jp":"北海道","jp_add_1":"紋別郡興部町","jp_add_2":"興部"},"0981606":{"post_code":"0981606","prefecture":"HOKKAIDO","city":"MOMBETSU GUN OKOPPE CHO","town":"OKOPPE(SAKAEMACHI)","perfecture_jp":"北海道","jp_add_1":"紋別郡興部町","jp_add_2":"興部"},"0981612":{"post_code":"0981612","prefecture":"HOKKAIDO","city":"MOMBETSU GUN OKOPPE CHO","town":"OKOPPE(SHINIZUMIMACHI)","perfecture_jp":"北海道","jp_add_1":"紋別郡興部町","jp_add_2":"興部"},"0981613":{"post_code":"0981613","prefecture":"HOKKAIDO","city":"MOMBETSU GUN OKOPPE CHO","town":"OKOPPE(SHIMMACHI)","perfecture_jp":"北海道","jp_add_1":"紋別郡興部町","jp_add_2":"興部"},"0981615":{"post_code":"0981615","prefecture":"HOKKAIDO","city":"MOMBETSU GUN OKOPPE CHO","town":"OKOPPE(NAKAMACHI)","perfecture_jp":"北海道","jp_add_1":"紋別郡興部町","jp_add_2":"興部"},"0981602":{"post_code":"0981602","prefecture":"HOKKAIDO","city":"MOMBETSU GUN OKOPPE CHO","town":"OKOPPE(HAMACHO)","perfecture_jp":"北海道","jp_add_1":"紋別郡興部町","jp_add_2":"興部"},"0981603":{"post_code":"0981603","prefecture":"HOKKAIDO","city":"MOMBETSU GUN OKOPPE CHO","town":"OKOPPE(HIGASHIMACHI)","perfecture_jp":"北海道","jp_add_1":"紋別郡興部町","jp_add_2":"興部"},"0981616":{"post_code":"0981616","prefecture":"HOKKAIDO","city":"MOMBETSU GUN OKOPPE CHO","town":"OKOPPE(HONCHO)","perfecture_jp":"北海道","jp_add_1":"紋別郡興部町","jp_add_2":"興部"},"0981605":{"post_code":"0981605","prefecture":"HOKKAIDO","city":"MOMBETSU GUN OKOPPE CHO","town":"OKOPPE(MIDORIGAOKA)","perfecture_jp":"北海道","jp_add_1":"紋別郡興部町","jp_add_2":"興部"},"0981623":{"post_code":"0981623","prefecture":"HOKKAIDO","city":"MOMBETSU GUN OKOPPE CHO","town":"OKOPPE(MIYASHITACHO)","perfecture_jp":"北海道","jp_add_1":"紋別郡興部町","jp_add_2":"興部"},"0981601":{"post_code":"0981601","prefecture":"HOKKAIDO","city":"MOMBETSU GUN OKOPPE CHO","town":"OKOPPE(MOTOMACHI)","perfecture_jp":"北海道","jp_add_1":"紋別郡興部町","jp_add_2":"興部"},"0981611":{"post_code":"0981611","prefecture":"HOKKAIDO","city":"MOMBETSU GUN OKOPPE CHO","town":"OKOPPE(IZUMIMACHI)","perfecture_jp":"北海道","jp_add_1":"紋別郡興部町","jp_add_2":"興部"},"0981941":{"post_code":"0981941","prefecture":"HOKKAIDO","city":"MOMBETSU GUN OKOPPE CHO","town":"SARURU","perfecture_jp":"北海道","jp_add_1":"紋別郡興部町","jp_add_2":"沙留"},"0981943":{"post_code":"0981943","prefecture":"HOKKAIDO","city":"MOMBETSU GUN OKOPPE CHO","town":"SUMIYOSHI","perfecture_jp":"北海道","jp_add_1":"紋別郡興部町","jp_add_2":"住吉"},"0981942":{"post_code":"0981942","prefecture":"HOKKAIDO","city":"MOMBETSU GUN OKOPPE CHO","town":"TOMIOKA","perfecture_jp":"北海道","jp_add_1":"紋別郡興部町","jp_add_2":"富丘"},"0981944":{"post_code":"0981944","prefecture":"HOKKAIDO","city":"MOMBETSU GUN OKOPPE CHO","town":"TOYONO","perfecture_jp":"北海道","jp_add_1":"紋別郡興部町","jp_add_2":"豊野"},"0981622":{"post_code":"0981622","prefecture":"HOKKAIDO","city":"MOMBETSU GUN OKOPPE CHO","town":"HOKKO","perfecture_jp":"北海道","jp_add_1":"紋別郡興部町","jp_add_2":"北興"},"0981500":{"post_code":"0981500","prefecture":"HOKKAIDO","city":"MOMBETSU GUN NISHIOKOPPE MURA","town":"IKANIKEISAIGANAIBAAI","perfecture_jp":"北海道","jp_add_1":"紋別郡西興部村","jp_add_2":""},"0981424":{"post_code":"0981424","prefecture":"HOKKAIDO","city":"MOMBETSU GUN NISHIOKOPPE MURA","town":"OKUOKOPPE","perfecture_jp":"北海道","jp_add_1":"紋別郡西興部村","jp_add_2":"奥興部"},"0981504":{"post_code":"0981504","prefecture":"HOKKAIDO","city":"MOMBETSU GUN NISHIOKOPPE MURA","town":"OSHOROKKO","perfecture_jp":"北海道","jp_add_1":"紋別郡西興部村","jp_add_2":"忍路子"},"0981421":{"post_code":"0981421","prefecture":"HOKKAIDO","city":"MOMBETSU GUN NISHIOKOPPE MURA","town":"KAMIOKOPPE","perfecture_jp":"北海道","jp_add_1":"紋別郡西興部村","jp_add_2":"上興部"},"0981505":{"post_code":"0981505","prefecture":"HOKKAIDO","city":"MOMBETSU GUN NISHIOKOPPE MURA","town":"KAMIMO","perfecture_jp":"北海道","jp_add_1":"紋別郡西興部村","jp_add_2":"上藻"},"0981423":{"post_code":"0981423","prefecture":"HOKKAIDO","city":"MOMBETSU GUN NISHIOKOPPE MURA","town":"SAKKOTSU","perfecture_jp":"北海道","jp_add_1":"紋別郡西興部村","jp_add_2":"札滑"},"0981422":{"post_code":"0981422","prefecture":"HOKKAIDO","city":"MOMBETSU GUN NISHIOKOPPE MURA","town":"TOKO","perfecture_jp":"北海道","jp_add_1":"紋別郡西興部村","jp_add_2":"東興"},"0981503":{"post_code":"0981503","prefecture":"HOKKAIDO","city":"MOMBETSU GUN NISHIOKOPPE MURA","town":"NAKAOKOPPE","perfecture_jp":"北海道","jp_add_1":"紋別郡西興部村","jp_add_2":"中興部"},"0981506":{"post_code":"0981506","prefecture":"HOKKAIDO","city":"MOMBETSU GUN NISHIOKOPPE MURA","town":"NAKAMO","perfecture_jp":"北海道","jp_add_1":"紋別郡西興部村","jp_add_2":"中藻"},"0981501":{"post_code":"0981501","prefecture":"HOKKAIDO","city":"MOMBETSU GUN NISHIOKOPPE MURA","town":"NISHIOKOPPE","perfecture_jp":"北海道","jp_add_1":"紋別郡西興部村","jp_add_2":"西興部"},"0981502":{"post_code":"0981502","prefecture":"HOKKAIDO","city":"MOMBETSU GUN NISHIOKOPPE MURA","town":"ROKKO","perfecture_jp":"北海道","jp_add_1":"紋別郡西興部村","jp_add_2":"六興"},"0981700":{"post_code":"0981700","prefecture":"HOKKAIDO","city":"MOMBETSU GUN OMU CHO","town":"IKANIKEISAIGANAIBAAI","perfecture_jp":"北海道","jp_add_1":"紋別郡雄武町","jp_add_2":""},"0981702":{"post_code":"0981702","prefecture":"HOKKAIDO","city":"MOMBETSU GUN OMU CHO","town":"OMU","perfecture_jp":"北海道","jp_add_1":"紋別郡雄武町","jp_add_2":"雄武"},"0981707":{"post_code":"0981707","prefecture":"HOKKAIDO","city":"MOMBETSU GUN OMU CHO","town":"KAMIOMU","perfecture_jp":"北海道","jp_add_1":"紋別郡雄武町","jp_add_2":"上雄武"},"0981704":{"post_code":"0981704","prefecture":"HOKKAIDO","city":"MOMBETSU GUN OMU CHO","town":"KAMISAWAKI","perfecture_jp":"北海道","jp_add_1":"紋別郡雄武町","jp_add_2":"上沢木"},"0981708":{"post_code":"0981708","prefecture":"HOKKAIDO","city":"MOMBETSU GUN OMU CHO","town":"KAMIHORONAI","perfecture_jp":"北海道","jp_add_1":"紋別郡雄武町","jp_add_2":"上幌内"},"0981701":{"post_code":"0981701","prefecture":"HOKKAIDO","city":"MOMBETSU GUN OMU CHO","town":"KITAOMU","perfecture_jp":"北海道","jp_add_1":"紋別郡雄武町","jp_add_2":"北雄武"},"0981821":{"post_code":"0981821","prefecture":"HOKKAIDO","city":"MOMBETSU GUN OMU CHO","town":"HORONAI","perfecture_jp":"北海道","jp_add_1":"紋別郡雄武町","jp_add_2":"北幌内"},"0981703":{"post_code":"0981703","prefecture":"HOKKAIDO","city":"MOMBETSU GUN OMU CHO","town":"SAWAKI","perfecture_jp":"北海道","jp_add_1":"紋別郡雄武町","jp_add_2":"沢木"},"0981706":{"post_code":"0981706","prefecture":"HOKKAIDO","city":"MOMBETSU GUN OMU CHO","town":"NAKAOMU","perfecture_jp":"北海道","jp_add_1":"紋別郡雄武町","jp_add_2":"中雄武"},"0981705":{"post_code":"0981705","prefecture":"HOKKAIDO","city":"MOMBETSU GUN OMU CHO","town":"MINAMIOMU","perfecture_jp":"北海道","jp_add_1":"紋別郡雄武町","jp_add_2":"南雄武"}}