{"0990871":{"post_code":"0990871","prefecture":"HOKKAIDO","city":"KITAMI SHI","town":"AINONAICHO","perfecture_jp":"北海道","jp_add_1":"北見市","jp_add_2":"相内町"},"0991582":{"post_code":"0991582","prefecture":"HOKKAIDO","city":"KITAMI SHI","town":"KAISEI","perfecture_jp":"北海道","jp_add_1":"北見市","jp_add_2":"開成"},"0990877":{"post_code":"0990877","prefecture":"HOKKAIDO","city":"KITAMI SHI","town":"KASHIWAGI","perfecture_jp":"北海道","jp_add_1":"北見市","jp_add_2":"柏木"},"0991585":{"post_code":"0991585","prefecture":"HOKKAIDO","city":"KITAMI SHI","town":"KAMITOKORO","perfecture_jp":"北海道","jp_add_1":"北見市","jp_add_2":"上ところ"},"0991583":{"post_code":"0991583","prefecture":"HOKKAIDO","city":"KITAMI SHI","town":"KITAGAMI","perfecture_jp":"北海道","jp_add_1":"北見市","jp_add_2":"北上"},"0990874":{"post_code":"0990874","prefecture":"HOKKAIDO","city":"KITAMI SHI","town":"SUMIYOSHI","perfecture_jp":"北海道","jp_add_1":"北見市","jp_add_2":"住吉"},"0992101":{"post_code":"0992101","prefecture":"HOKKAIDO","city":"KITAMI SHI","town":"TANNOCHO 1-KU","perfecture_jp":"北海道","jp_add_1":"北見市","jp_add_2":"端野町一区"},"0992102":{"post_code":"0992102","prefecture":"HOKKAIDO","city":"KITAMI SHI","town":"TANNOCHO 2-KU","perfecture_jp":"北海道","jp_add_1":"北見市","jp_add_2":"端野町二区"},"0992103":{"post_code":"0992103","prefecture":"HOKKAIDO","city":"KITAMI SHI","town":"TANNOCHO 3-KU","perfecture_jp":"北海道","jp_add_1":"北見市","jp_add_2":"端野町三区"},"0992107":{"post_code":"0992107","prefecture":"HOKKAIDO","city":"KITAMI SHI","town":"TANNOCHO KAWAMUKAI","perfecture_jp":"北海道","jp_add_1":"北見市","jp_add_2":"端野町川向"},"0992106":{"post_code":"0992106","prefecture":"HOKKAIDO","city":"KITAMI SHI","town":"TANNOCHO KYOWA","perfecture_jp":"北海道","jp_add_1":"北見市","jp_add_2":"端野町協和"},"0992104":{"post_code":"0992104","prefecture":"HOKKAIDO","city":"KITAMI SHI","town":"TANNOCHO TANNO","perfecture_jp":"北海道","jp_add_1":"北見市","jp_add_2":"端野町端野"},"0992105":{"post_code":"0992105","prefecture":"HOKKAIDO","city":"KITAMI SHI","town":"TANNOCHO CHUSHI","perfecture_jp":"北海道","jp_add_1":"北見市","jp_add_2":"端野町忠志"},"0992112":{"post_code":"0992112","prefecture":"HOKKAIDO","city":"KITAMI SHI","town":"TANNOCHO TOYOMI","perfecture_jp":"北海道","jp_add_1":"北見市","jp_add_2":"端野町豊実"},"0992231":{"post_code":"0992231","prefecture":"HOKKAIDO","city":"KITAMI SHI","town":"TANNOCHO HIUSHINAI","perfecture_jp":"北海道","jp_add_1":"北見市","jp_add_2":"端野町緋牛内"},"0992111":{"post_code":"0992111","prefecture":"HOKKAIDO","city":"KITAMI SHI","town":"TANNOCHO HOKUTO","perfecture_jp":"北海道","jp_add_1":"北見市","jp_add_2":"端野町北登"},"0991584":{"post_code":"0991584","prefecture":"HOKKAIDO","city":"KITAMI SHI","town":"TSUNEKAWA","perfecture_jp":"北海道","jp_add_1":"北見市","jp_add_2":"常川"},"0990876":{"post_code":"0990876","prefecture":"HOKKAIDO","city":"KITAMI SHI","town":"TOMISATO","perfecture_jp":"北海道","jp_add_1":"北見市","jp_add_2":"富里"},"0990872":{"post_code":"0990872","prefecture":"HOKKAIDO","city":"KITAMI SHI","town":"TOYOTA","perfecture_jp":"北海道","jp_add_1":"北見市","jp_add_2":"豊田"},"0990873":{"post_code":"0990873","prefecture":"HOKKAIDO","city":"KITAMI SHI","town":"NISHIAINONAI","perfecture_jp":"北海道","jp_add_1":"北見市","jp_add_2":"西相内"},"0990878":{"post_code":"0990878","prefecture":"HOKKAIDO","city":"KITAMI SHI","town":"HIGASHIAINONAICHO","perfecture_jp":"北海道","jp_add_1":"北見市","jp_add_2":"東相内町"},"0991586":{"post_code":"0991586","prefecture":"HOKKAIDO","city":"KITAMI SHI","town":"HIROSATO","perfecture_jp":"北海道","jp_add_1":"北見市","jp_add_2":"広郷"},"0991587":{"post_code":"0991587","prefecture":"HOKKAIDO","city":"KITAMI SHI","town":"HOJI","perfecture_jp":"北海道","jp_add_1":"北見市","jp_add_2":"豊地"},"0990875":{"post_code":"0990875","prefecture":"HOKKAIDO","city":"KITAMI SHI","town":"HONZAWA","perfecture_jp":"北海道","jp_add_1":"北見市","jp_add_2":"本沢"},"0990879":{"post_code":"0990879","prefecture":"HOKKAIDO","city":"KITAMI SHI","town":"MISONO","perfecture_jp":"北海道","jp_add_1":"北見市","jp_add_2":"美園"},"0991581":{"post_code":"0991581","prefecture":"HOKKAIDO","city":"KITAMI SHI","town":"MINAMIOKA","perfecture_jp":"北海道","jp_add_1":"北見市","jp_add_2":"南丘"},"0993115":{"post_code":"0993115","prefecture":"HOKKAIDO","city":"ABASHIRI SHI","town":"INATOMI","perfecture_jp":"北海道","jp_add_1":"網走市","jp_add_2":"稲富"},"0993502":{"post_code":"0993502","prefecture":"HOKKAIDO","city":"ABASHIRI SHI","town":"URASHIBETSU","perfecture_jp":"北海道","jp_add_1":"網走市","jp_add_2":"浦士別"},"0993501":{"post_code":"0993501","prefecture":"HOKKAIDO","city":"ABASHIRI SHI","town":"ONNENAI","perfecture_jp":"北海道","jp_add_1":"網走市","jp_add_2":"音根内"},"0993112":{"post_code":"0993112","prefecture":"HOKKAIDO","city":"ABASHIRI SHI","town":"KITAHAMA","perfecture_jp":"北海道","jp_add_1":"網走市","jp_add_2":"北浜"},"0993504":{"post_code":"0993504","prefecture":"HOKKAIDO","city":"ABASHIRI SHI","town":"KIYORA","perfecture_jp":"北海道","jp_add_1":"網走市","jp_add_2":"清浦"},"0993503":{"post_code":"0993503","prefecture":"HOKKAIDO","city":"ABASHIRI SHI","town":"SAKAE","perfecture_jp":"北海道","jp_add_1":"網走市","jp_add_2":"栄"},"0993117":{"post_code":"0993117","prefecture":"HOKKAIDO","city":"ABASHIRI SHI","town":"SHOWA","perfecture_jp":"北海道","jp_add_1":"網走市","jp_add_2":"昭和"},"0993118":{"post_code":"0993118","prefecture":"HOKKAIDO","city":"ABASHIRI SHI","town":"TOYOSATO","perfecture_jp":"北海道","jp_add_1":"網走市","jp_add_2":"豊郷"},"0992424":{"post_code":"0992424","prefecture":"HOKKAIDO","city":"ABASHIRI SHI","town":"NAKAZONO","perfecture_jp":"北海道","jp_add_1":"網走市","jp_add_2":"中園"},"0992423":{"post_code":"0992423","prefecture":"HOKKAIDO","city":"ABASHIRI SHI","town":"HIGASHIABASHIRI","perfecture_jp":"北海道","jp_add_1":"網走市","jp_add_2":"東網走"},"0993119":{"post_code":"0993119","prefecture":"HOKKAIDO","city":"ABASHIRI SHI","town":"MASURA","perfecture_jp":"北海道","jp_add_1":"網走市","jp_add_2":"鱒浦"},"0993114":{"post_code":"0993114","prefecture":"HOKKAIDO","city":"ABASHIRI SHI","town":"MARUMAN","perfecture_jp":"北海道","jp_add_1":"網走市","jp_add_2":"丸万"},"0993113":{"post_code":"0993113","prefecture":"HOKKAIDO","city":"ABASHIRI SHI","town":"MITOYO","perfecture_jp":"北海道","jp_add_1":"網走市","jp_add_2":"実豊"},"0993111":{"post_code":"0993111","prefecture":"HOKKAIDO","city":"ABASHIRI SHI","town":"MOKOTO","perfecture_jp":"北海道","jp_add_1":"網走市","jp_add_2":"藻琴"},"0992422":{"post_code":"0992422","prefecture":"HOKKAIDO","city":"ABASHIRI SHI","town":"YASAKA","perfecture_jp":"北海道","jp_add_1":"網走市","jp_add_2":"八坂"},"0993116":{"post_code":"0993116","prefecture":"HOKKAIDO","city":"ABASHIRI SHI","town":"YAMASATO","perfecture_jp":"北海道","jp_add_1":"網走市","jp_add_2":"山里"},"0992421":{"post_code":"0992421","prefecture":"HOKKAIDO","city":"ABASHIRI SHI","town":"YOBITO","perfecture_jp":"北海道","jp_add_1":"網走市","jp_add_2":"呼人"},"0996131":{"post_code":"0996131","prefecture":"HOKKAIDO","city":"MOMBETSU SHI","town":"YASOSHI","perfecture_jp":"北海道","jp_add_1":"紋別市","jp_add_2":"一本松"},"0995354":{"post_code":"0995354","prefecture":"HOKKAIDO","city":"MOMBETSU SHI","town":"KAMISHOKOTSUCHO","perfecture_jp":"北海道","jp_add_1":"紋別市","jp_add_2":"上渚滑町"},"0995364":{"post_code":"0995364","prefecture":"HOKKAIDO","city":"MOMBETSU SHI","town":"KAMISHOKOTSUCHO UEKOTAN","perfecture_jp":"北海道","jp_add_1":"紋別市","jp_add_2":"上渚滑町上古丹"},"0995362":{"post_code":"0995362","prefecture":"HOKKAIDO","city":"MOMBETSU SHI","town":"KAMISHOKOTSUCHO OKUTO","perfecture_jp":"北海道","jp_add_1":"紋別市","jp_add_2":"上渚滑町奥東"},"0995355":{"post_code":"0995355","prefecture":"HOKKAIDO","city":"MOMBETSU SHI","town":"KAMISHOKOTSUCHO KOSEI","perfecture_jp":"北海道","jp_add_1":"紋別市","jp_add_2":"上渚滑町更生"},"0995351":{"post_code":"0995351","prefecture":"HOKKAIDO","city":"MOMBETSU SHI","town":"KAMISHOKOTSUCHO SHIMOSHOKOTSU","perfecture_jp":"北海道","jp_add_1":"紋別市","jp_add_2":"上渚滑町下渚滑"},"0995363":{"post_code":"0995363","prefecture":"HOKKAIDO","city":"MOMBETSU SHI","town":"KAMISHOKOTSUCHO SHIMOTATSUSHI","perfecture_jp":"北海道","jp_add_1":"紋別市","jp_add_2":"上渚滑町下立牛"},"0995353":{"post_code":"0995353","prefecture":"HOKKAIDO","city":"MOMBETSU SHI","town":"KAMISHOKOTSUCHO JOTO","perfecture_jp":"北海道","jp_add_1":"紋別市","jp_add_2":"上渚滑町上東"},"0995352":{"post_code":"0995352","prefecture":"HOKKAIDO","city":"MOMBETSU SHI","town":"KAMISHOKOTSUCHO NAKASHOKOTSU","perfecture_jp":"北海道","jp_add_1":"紋別市","jp_add_2":"上渚滑町中渚滑"},"0995365":{"post_code":"0995365","prefecture":"HOKKAIDO","city":"MOMBETSU SHI","town":"KAMISHOKOTSUCHO NAKATATSUSHI","perfecture_jp":"北海道","jp_add_1":"紋別市","jp_add_2":"上渚滑町中立牛"},"0995361":{"post_code":"0995361","prefecture":"HOKKAIDO","city":"MOMBETSU SHI","town":"KAMISHOKOTSUCHO WAKUMBE","perfecture_jp":"北海道","jp_add_1":"紋別市","jp_add_2":"上渚滑町和訓辺"},"0996133":{"post_code":"0996133","prefecture":"HOKKAIDO","city":"MOMBETSU SHI","town":"KODO","perfecture_jp":"北海道","jp_add_1":"紋別市","jp_add_2":"弘道"},"0996132":{"post_code":"0996132","prefecture":"HOKKAIDO","city":"MOMBETSU SHI","town":"KOMUKAI","perfecture_jp":"北海道","jp_add_1":"紋別市","jp_add_2":"小向"},"0996242":{"post_code":"0996242","prefecture":"HOKKAIDO","city":"MOMBETSU SHI","town":"SHIBUN","perfecture_jp":"北海道","jp_add_1":"紋別市","jp_add_2":"志文"},"0995171":{"post_code":"0995171","prefecture":"HOKKAIDO","city":"MOMBETSU SHI","town":"SHOKOTSUCHO","perfecture_jp":"北海道","jp_add_1":"紋別市","jp_add_2":"渚滑町"},"0995174":{"post_code":"0995174","prefecture":"HOKKAIDO","city":"MOMBETSU SHI","town":"SHOKOTSUCHO UTSUTSU","perfecture_jp":"北海道","jp_add_1":"紋別市","jp_add_2":"渚滑町宇津々"},"0995175":{"post_code":"0995175","prefecture":"HOKKAIDO","city":"MOMBETSU SHI","town":"SHOKOTSUCHO KAWAMUKAI","perfecture_jp":"北海道","jp_add_1":"紋別市","jp_add_2":"渚滑町川向"},"0995172":{"post_code":"0995172","prefecture":"HOKKAIDO","city":"MOMBETSU SHI","town":"SHOKOTSUCHO MOTOSHIN","perfecture_jp":"北海道","jp_add_1":"紋別市","jp_add_2":"渚滑町元新"},"0995173":{"post_code":"0995173","prefecture":"HOKKAIDO","city":"MOMBETSU SHI","town":"SHOKOTSUCHO MOTONISHI","perfecture_jp":"北海道","jp_add_1":"紋別市","jp_add_2":"渚滑町元西"},"0996241":{"post_code":"0996241","prefecture":"HOKKAIDO","city":"MOMBETSU SHI","town":"NUMANOE","perfecture_jp":"北海道","jp_add_1":"紋別市","jp_add_2":"沼の上"},"0994100":{"post_code":"0994100","prefecture":"HOKKAIDO","city":"SHARI GUN SHARI CHO","town":"IKANIKEISAIGANAIBAAI","perfecture_jp":"北海道","jp_add_1":"斜里郡斜里町","jp_add_2":""},"0994117":{"post_code":"0994117","prefecture":"HOKKAIDO","city":"SHARI GUN SHARI CHO","town":"AOBACHO","perfecture_jp":"北海道","jp_add_1":"斜里郡斜里町","jp_add_2":"青葉町"},"0994114":{"post_code":"0994114","prefecture":"HOKKAIDO","city":"SHARI GUN SHARI CHO","town":"ASAHIMACHI","perfecture_jp":"北海道","jp_add_1":"斜里郡斜里町","jp_add_2":"朝日町"},"0994127":{"post_code":"0994127","prefecture":"HOKKAIDO","city":"SHARI GUN SHARI CHO","town":"IKUSHINAMINAMI","perfecture_jp":"北海道","jp_add_1":"斜里郡斜里町","jp_add_2":"以久科南"},"0994126":{"post_code":"0994126","prefecture":"HOKKAIDO","city":"SHARI GUN SHARI CHO","town":"IKUSHINAKITA","perfecture_jp":"北海道","jp_add_1":"斜里郡斜里町","jp_add_2":"以久科北"},"0994356":{"post_code":"0994356","prefecture":"HOKKAIDO","city":"SHARI GUN SHARI CHO","town":"IWAOBETSU","perfecture_jp":"北海道","jp_add_1":"斜里郡斜里町","jp_add_2":"岩尾別"},"0994351":{"post_code":"0994351","prefecture":"HOKKAIDO","city":"SHARI GUN SHARI CHO","town":"UTOROKAGAWA","perfecture_jp":"北海道","jp_add_1":"斜里郡斜里町","jp_add_2":"ウトロ香川"},"0994352":{"post_code":"0994352","prefecture":"HOKKAIDO","city":"SHARI GUN SHARI CHO","town":"UTOROKOGEN","perfecture_jp":"北海道","jp_add_1":"斜里郡斜里町","jp_add_2":"ウトロ高原"},"0994353":{"post_code":"0994353","prefecture":"HOKKAIDO","city":"SHARI GUN SHARI CHO","town":"UTORONAKAJIMA","perfecture_jp":"北海道","jp_add_1":"斜里郡斜里町","jp_add_2":"ウトロ中島"},"0994355":{"post_code":"0994355","prefecture":"HOKKAIDO","city":"SHARI GUN SHARI CHO","town":"UTOROHIGASHI","perfecture_jp":"北海道","jp_add_1":"斜里郡斜里町","jp_add_2":"ウトロ東"},"0994354":{"post_code":"0994354","prefecture":"HOKKAIDO","city":"SHARI GUN SHARI CHO","town":"UTORONISHI","perfecture_jp":"北海道","jp_add_1":"斜里郡斜里町","jp_add_2":"ウトロ西"},"0994143":{"post_code":"0994143","prefecture":"HOKKAIDO","city":"SHARI GUN SHARI CHO","town":"KAWAKAMI","perfecture_jp":"北海道","jp_add_1":"斜里郡斜里町","jp_add_2":"川上"},"0994115":{"post_code":"0994115","prefecture":"HOKKAIDO","city":"SHARI GUN SHARI CHO","town":"KOYOCHO","perfecture_jp":"北海道","jp_add_1":"斜里郡斜里町","jp_add_2":"光陽町"},"0994131":{"post_code":"0994131","prefecture":"HOKKAIDO","city":"SHARI GUN SHARI CHO","town":"KOSHIKAWA","perfecture_jp":"北海道","jp_add_1":"斜里郡斜里町","jp_add_2":"越川"},"0994124":{"post_code":"0994124","prefecture":"HOKKAIDO","city":"SHARI GUN SHARI CHO","town":"SHUEN","perfecture_jp":"北海道","jp_add_1":"斜里郡斜里町","jp_add_2":"朱円"},"0994123":{"post_code":"0994123","prefecture":"HOKKAIDO","city":"SHARI GUN SHARI CHO","town":"SHUENHIGASHI","perfecture_jp":"北海道","jp_add_1":"斜里郡斜里町","jp_add_2":"朱円東"},"0994125":{"post_code":"0994125","prefecture":"HOKKAIDO","city":"SHARI GUN SHARI CHO","town":"SHUENNISHI","perfecture_jp":"北海道","jp_add_1":"斜里郡斜里町","jp_add_2":"朱円西"},"0994118":{"post_code":"0994118","prefecture":"HOKKAIDO","city":"SHARI GUN SHARI CHO","town":"SHINKOCHO","perfecture_jp":"北海道","jp_add_1":"斜里郡斜里町","jp_add_2":"新光町"},"0994144":{"post_code":"0994144","prefecture":"HOKKAIDO","city":"SHARI GUN SHARI CHO","town":"TAIEI","perfecture_jp":"北海道","jp_add_1":"斜里郡斜里町","jp_add_2":"大栄"},"0994141":{"post_code":"0994141","prefecture":"HOKKAIDO","city":"SHARI GUN SHARI CHO","town":"TOYOKURA","perfecture_jp":"北海道","jp_add_1":"斜里郡斜里町","jp_add_2":"豊倉"},"0994134":{"post_code":"0994134","prefecture":"HOKKAIDO","city":"SHARI GUN SHARI CHO","town":"TOYOSATO","perfecture_jp":"北海道","jp_add_1":"斜里郡斜里町","jp_add_2":"豊里"},"0994142":{"post_code":"0994142","prefecture":"HOKKAIDO","city":"SHARI GUN SHARI CHO","town":"NAKASHARI","perfecture_jp":"北海道","jp_add_1":"斜里郡斜里町","jp_add_2":"中斜里"},"0994147":{"post_code":"0994147","prefecture":"HOKKAIDO","city":"SHARI GUN SHARI CHO","town":"NISHIMACHI","perfecture_jp":"北海道","jp_add_1":"斜里郡斜里町","jp_add_2":"西町"},"0994121":{"post_code":"0994121","prefecture":"HOKKAIDO","city":"SHARI GUN SHARI CHO","town":"HINODE","perfecture_jp":"北海道","jp_add_1":"斜里郡斜里町","jp_add_2":"日の出"},"0994132":{"post_code":"0994132","prefecture":"HOKKAIDO","city":"SHARI GUN SHARI CHO","town":"FUJI","perfecture_jp":"北海道","jp_add_1":"斜里郡斜里町","jp_add_2":"富士"},"0994116":{"post_code":"0994116","prefecture":"HOKKAIDO","city":"SHARI GUN SHARI CHO","town":"BUNKOCHO","perfecture_jp":"北海道","jp_add_1":"斜里郡斜里町","jp_add_2":"文光町"},"0994113":{"post_code":"0994113","prefecture":"HOKKAIDO","city":"SHARI GUN SHARI CHO","town":"HOMMACHI","perfecture_jp":"北海道","jp_add_1":"斜里郡斜里町","jp_add_2":"本町"},"0994111":{"post_code":"0994111","prefecture":"HOKKAIDO","city":"SHARI GUN SHARI CHO","town":"MAEHAMAMACHI","perfecture_jp":"北海道","jp_add_1":"斜里郡斜里町","jp_add_2":"前浜町"},"0994357":{"post_code":"0994357","prefecture":"HOKKAIDO","city":"SHARI GUN SHARI CHO","town":"MAKOI","perfecture_jp":"北海道","jp_add_1":"斜里郡斜里町","jp_add_2":"真鯉"},"0994145":{"post_code":"0994145","prefecture":"HOKKAIDO","city":"SHARI GUN SHARI CHO","town":"MISAKI","perfecture_jp":"北海道","jp_add_1":"斜里郡斜里町","jp_add_2":"美咲"},"0994133":{"post_code":"0994133","prefecture":"HOKKAIDO","city":"SHARI GUN SHARI CHO","town":"MITSUI","perfecture_jp":"北海道","jp_add_1":"斜里郡斜里町","jp_add_2":"三井"},"0994146":{"post_code":"0994146","prefecture":"HOKKAIDO","city":"SHARI GUN SHARI CHO","town":"MINATONISHIMACHI","perfecture_jp":"北海道","jp_add_1":"斜里郡斜里町","jp_add_2":"港西町"},"0994112":{"post_code":"0994112","prefecture":"HOKKAIDO","city":"SHARI GUN SHARI CHO","town":"MINATOMACHI","perfecture_jp":"北海道","jp_add_1":"斜里郡斜里町","jp_add_2":"港町"},"0994122":{"post_code":"0994122","prefecture":"HOKKAIDO","city":"SHARI GUN SHARI CHO","town":"MINEHAMA","perfecture_jp":"北海道","jp_add_1":"斜里郡斜里町","jp_add_2":"峰浜"},"0994135":{"post_code":"0994135","prefecture":"HOKKAIDO","city":"SHARI GUN SHARI CHO","town":"RAIUN","perfecture_jp":"北海道","jp_add_1":"斜里郡斜里町","jp_add_2":"来運"},"0994400":{"post_code":"0994400","prefecture":"HOKKAIDO","city":"SHARI GUN KIYOSATO CHO","town":"IKANIKEISAIGANAIBAAI","perfecture_jp":"北海道","jp_add_1":"斜里郡清里町","jp_add_2":""},"0994524":{"post_code":"0994524","prefecture":"HOKKAIDO","city":"SHARI GUN KIYOSATO CHO","town":"AOBA","perfecture_jp":"北海道","jp_add_1":"斜里郡清里町","jp_add_2":"青葉"},"0994401":{"post_code":"0994401","prefecture":"HOKKAIDO","city":"SHARI GUN KIYOSATO CHO","town":"KAMISHARI","perfecture_jp":"北海道","jp_add_1":"斜里郡清里町","jp_add_2":"上斜里"},"0994522":{"post_code":"0994522","prefecture":"HOKKAIDO","city":"SHARI GUN KIYOSATO CHO","town":"KAMOI","perfecture_jp":"北海道","jp_add_1":"斜里郡清里町","jp_add_2":"神威"},"0994523":{"post_code":"0994523","prefecture":"HOKKAIDO","city":"SHARI GUN KIYOSATO CHO","town":"KAWAMUKAI","perfecture_jp":"北海道","jp_add_1":"斜里郡清里町","jp_add_2":"川向"},"0994526":{"post_code":"0994526","prefecture":"HOKKAIDO","city":"SHARI GUN KIYOSATO CHO","town":"KIYOIZUMI","perfecture_jp":"北海道","jp_add_1":"斜里郡清里町","jp_add_2":"清泉"},"0994404":{"post_code":"0994404","prefecture":"HOKKAIDO","city":"SHARI GUN KIYOSATO CHO","town":"KONAN","perfecture_jp":"北海道","jp_add_1":"斜里郡清里町","jp_add_2":"江南"},"0994403":{"post_code":"0994403","prefecture":"HOKKAIDO","city":"SHARI GUN KIYOSATO CHO","town":"KOYO","perfecture_jp":"北海道","jp_add_1":"斜里郡清里町","jp_add_2":"向陽"},"0994521":{"post_code":"0994521","prefecture":"HOKKAIDO","city":"SHARI GUN KIYOSATO CHO","town":"SATTSURUMACHI","perfecture_jp":"北海道","jp_add_1":"斜里郡清里町","jp_add_2":"札弦町"},"0994402":{"post_code":"0994402","prefecture":"HOKKAIDO","city":"SHARI GUN KIYOSATO CHO","town":"SHIMOETOMBI","perfecture_jp":"北海道","jp_add_1":"斜里郡清里町","jp_add_2":"下江鳶"},"0994407":{"post_code":"0994407","prefecture":"HOKKAIDO","city":"SHARI GUN KIYOSATO CHO","town":"SHIMMACHI","perfecture_jp":"北海道","jp_add_1":"斜里郡清里町","jp_add_2":"新町"},"0994405":{"post_code":"0994405","prefecture":"HOKKAIDO","city":"SHARI GUN KIYOSATO CHO","town":"HAGOROMOMACHI","perfecture_jp":"北海道","jp_add_1":"斜里郡清里町","jp_add_2":"羽衣町"},"0994406":{"post_code":"0994406","prefecture":"HOKKAIDO","city":"SHARI GUN KIYOSATO CHO","town":"MIZUMOTOMACHI","perfecture_jp":"北海道","jp_add_1":"斜里郡清里町","jp_add_2":"水元町"},"0994525":{"post_code":"0994525","prefecture":"HOKKAIDO","city":"SHARI GUN KIYOSATO CHO","town":"MIDORIMACHI","perfecture_jp":"北海道","jp_add_1":"斜里郡清里町","jp_add_2":"緑町"},"0993600":{"post_code":"0993600","prefecture":"HOKKAIDO","city":"SHARI GUN KOSHIMIZU CHO","town":"IKANIKEISAIGANAIBAAI","perfecture_jp":"北海道","jp_add_1":"斜里郡小清水町","jp_add_2":""},"0993616":{"post_code":"0993616","prefecture":"HOKKAIDO","city":"SHARI GUN KOSHIMIZU CHO","town":"ASAHI","perfecture_jp":"北海道","jp_add_1":"斜里郡小清水町","jp_add_2":"旭"},"0993603":{"post_code":"0993603","prefecture":"HOKKAIDO","city":"SHARI GUN KOSHIMIZU CHO","town":"IZUMI","perfecture_jp":"北海道","jp_add_1":"斜里郡小清水町","jp_add_2":"泉"},"0993613":{"post_code":"0993613","prefecture":"HOKKAIDO","city":"SHARI GUN KOSHIMIZU CHO","town":"KAMIURA","perfecture_jp":"北海道","jp_add_1":"斜里郡小清水町","jp_add_2":"神浦"},"0993611":{"post_code":"0993611","prefecture":"HOKKAIDO","city":"SHARI GUN KOSHIMIZU CHO","town":"KAMITOKU","perfecture_jp":"北海道","jp_add_1":"斜里郡小清水町","jp_add_2":"上徳"},"0993601":{"post_code":"0993601","prefecture":"HOKKAIDO","city":"SHARI GUN KOSHIMIZU CHO","town":"KAYANO","perfecture_jp":"北海道","jp_add_1":"斜里郡小清水町","jp_add_2":"萱野"},"0993612":{"post_code":"0993612","prefecture":"HOKKAIDO","city":"SHARI GUN KOSHIMIZU CHO","town":"KYOWA","perfecture_jp":"北海道","jp_add_1":"斜里郡小清水町","jp_add_2":"共和"},"0993622":{"post_code":"0993622","prefecture":"HOKKAIDO","city":"SHARI GUN KOSHIMIZU CHO","town":"KOSHIMIZU(1-KU)","perfecture_jp":"北海道","jp_add_1":"斜里郡小清水町","jp_add_2":"小清水"},"0993621":{"post_code":"0993621","prefecture":"HOKKAIDO","city":"SHARI GUN KOSHIMIZU CHO","town":"KOSHIMIZU(1-KUSAKURAGAOKA)","perfecture_jp":"北海道","jp_add_1":"斜里郡小清水町","jp_add_2":"小清水"},"0993623":{"post_code":"0993623","prefecture":"HOKKAIDO","city":"SHARI GUN KOSHIMIZU CHO","town":"KOSHIMIZU(2-KU)","perfecture_jp":"北海道","jp_add_1":"斜里郡小清水町","jp_add_2":"小清水"},"0993624":{"post_code":"0993624","prefecture":"HOKKAIDO","city":"SHARI GUN KOSHIMIZU CHO","town":"KOSHIMIZU(3-KU)","perfecture_jp":"北海道","jp_add_1":"斜里郡小清水町","jp_add_2":"小清水"},"0993625":{"post_code":"0993625","prefecture":"HOKKAIDO","city":"SHARI GUN KOSHIMIZU CHO","town":"KOSHIMIZU(4-KU)","perfecture_jp":"北海道","jp_add_1":"斜里郡小清水町","jp_add_2":"小清水"},"0993626":{"post_code":"0993626","prefecture":"HOKKAIDO","city":"SHARI GUN KOSHIMIZU CHO","town":"KOSHIMIZU(5-KU)","perfecture_jp":"北海道","jp_add_1":"斜里郡小清水町","jp_add_2":"小清水"},"0993627":{"post_code":"0993627","prefecture":"HOKKAIDO","city":"SHARI GUN KOSHIMIZU CHO","town":"KOSHIMIZU(6-KU)","perfecture_jp":"北海道","jp_add_1":"斜里郡小清水町","jp_add_2":"小清水"},"0993628":{"post_code":"0993628","prefecture":"HOKKAIDO","city":"SHARI GUN KOSHIMIZU CHO","town":"KOSHIMIZU(7-KU)","perfecture_jp":"北海道","jp_add_1":"斜里郡小清水町","jp_add_2":"小清水"},"0993631":{"post_code":"0993631","prefecture":"HOKKAIDO","city":"SHARI GUN KOSHIMIZU CHO","town":"KOSHIMIZU(7-KUKAWAHIGASHI)","perfecture_jp":"北海道","jp_add_1":"斜里郡小清水町","jp_add_2":"小清水"},"0993633":{"post_code":"0993633","prefecture":"HOKKAIDO","city":"SHARI GUN KOSHIMIZU CHO","town":"KOSHIMIZU(8-KUMINAMI)","perfecture_jp":"北海道","jp_add_1":"斜里郡小清水町","jp_add_2":"小清水"},"0993632":{"post_code":"0993632","prefecture":"HOKKAIDO","city":"SHARI GUN KOSHIMIZU CHO","town":"KOSHIMIZU(8-KUKITA)","perfecture_jp":"北海道","jp_add_1":"斜里郡小清水町","jp_add_2":"小清水"},"0993635":{"post_code":"0993635","prefecture":"HOKKAIDO","city":"SHARI GUN KOSHIMIZU CHO","town":"KOSHIMIZU(9-KUMINAMI)","perfecture_jp":"北海道","jp_add_1":"斜里郡小清水町","jp_add_2":"小清水"},"0993634":{"post_code":"0993634","prefecture":"HOKKAIDO","city":"SHARI GUN KOSHIMIZU CHO","town":"KOSHIMIZU(9-KUKITA)","perfecture_jp":"北海道","jp_add_1":"斜里郡小清水町","jp_add_2":"小清水"},"0993636":{"post_code":"0993636","prefecture":"HOKKAIDO","city":"SHARI GUN KOSHIMIZU CHO","town":"KOSHIMIZU(10-KU)","perfecture_jp":"北海道","jp_add_1":"斜里郡小清水町","jp_add_2":"小清水"},"0993637":{"post_code":"0993637","prefecture":"HOKKAIDO","city":"SHARI GUN KOSHIMIZU CHO","town":"KOSHIMIZU(11-KU)","perfecture_jp":"北海道","jp_add_1":"斜里郡小清水町","jp_add_2":"小清水"},"0993451":{"post_code":"0993451","prefecture":"HOKKAIDO","city":"SHARI GUN KOSHIMIZU CHO","town":"SOEI","perfecture_jp":"北海道","jp_add_1":"斜里郡小清水町","jp_add_2":"倉栄"},"0993615":{"post_code":"0993615","prefecture":"HOKKAIDO","city":"SHARI GUN KOSHIMIZU CHO","town":"NAKASATO","perfecture_jp":"北海道","jp_add_1":"斜里郡小清水町","jp_add_2":"中里"},"0993452":{"post_code":"0993452","prefecture":"HOKKAIDO","city":"SHARI GUN KOSHIMIZU CHO","town":"HAMAKOSHIMIZU","perfecture_jp":"北海道","jp_add_1":"斜里郡小清水町","jp_add_2":"浜小清水"},"0993602":{"post_code":"0993602","prefecture":"HOKKAIDO","city":"SHARI GUN KOSHIMIZU CHO","town":"HIGASHINO","perfecture_jp":"北海道","jp_add_1":"斜里郡小清水町","jp_add_2":"東野"},"0993453":{"post_code":"0993453","prefecture":"HOKKAIDO","city":"SHARI GUN KOSHIMIZU CHO","town":"HOKUTO","perfecture_jp":"北海道","jp_add_1":"斜里郡小清水町","jp_add_2":"北斗"},"0993604":{"post_code":"0993604","prefecture":"HOKKAIDO","city":"SHARI GUN KOSHIMIZU CHO","town":"MIZUKAMI","perfecture_jp":"北海道","jp_add_1":"斜里郡小清水町","jp_add_2":"水上"},"0993614":{"post_code":"0993614","prefecture":"HOKKAIDO","city":"SHARI GUN KOSHIMIZU CHO","town":"MIWA","perfecture_jp":"北海道","jp_add_1":"斜里郡小清水町","jp_add_2":"美和"},"0993605":{"post_code":"0993605","prefecture":"HOKKAIDO","city":"SHARI GUN KOSHIMIZU CHO","town":"MOKOTOYAMA","perfecture_jp":"北海道","jp_add_1":"斜里郡小清水町","jp_add_2":"もこと山"},"0993454":{"post_code":"0993454","prefecture":"HOKKAIDO","city":"SHARI GUN KOSHIMIZU CHO","town":"YAMBETSU","perfecture_jp":"北海道","jp_add_1":"斜里郡小清水町","jp_add_2":"止別"},"0991400":{"post_code":"0991400","prefecture":"HOKKAIDO","city":"TOKORO GUN KUNNEPPU CHO","town":"IKANIKEISAIGANAIBAAI","perfecture_jp":"北海道","jp_add_1":"常呂郡訓子府町","jp_add_2":""},"0991432":{"post_code":"0991432","prefecture":"HOKKAIDO","city":"TOKORO GUN KUNNEPPU CHO","town":"ASAHIMACHI","perfecture_jp":"北海道","jp_add_1":"常呂郡訓子府町","jp_add_2":"旭町"},"0991411":{"post_code":"0991411","prefecture":"HOKKAIDO","city":"TOKORO GUN KUNNEPPU CHO","town":"OTANI","perfecture_jp":"北海道","jp_add_1":"常呂郡訓子府町","jp_add_2":"大谷"},"0991436":{"post_code":"0991436","prefecture":"HOKKAIDO","city":"TOKORO GUN KUNNEPPU CHO","town":"OMACHI","perfecture_jp":"北海道","jp_add_1":"常呂郡訓子府町","jp_add_2":"大町"},"0991414":{"post_code":"0991414","prefecture":"HOKKAIDO","city":"TOKORO GUN KUNNEPPU CHO","town":"KAISEI","perfecture_jp":"北海道","jp_add_1":"常呂郡訓子府町","jp_add_2":"開盛"},"0991404":{"post_code":"0991404","prefecture":"HOKKAIDO","city":"TOKORO GUN KUNNEPPU CHO","town":"KASHIWAOKA","perfecture_jp":"北海道","jp_add_1":"常呂郡訓子府町","jp_add_2":"柏丘"},"0991413":{"post_code":"0991413","prefecture":"HOKKAIDO","city":"TOKORO GUN KUNNEPPU CHO","town":"KYOSEI","perfecture_jp":"北海道","jp_add_1":"常呂郡訓子府町","jp_add_2":"協成"},"0991426":{"post_code":"0991426","prefecture":"HOKKAIDO","city":"TOKORO GUN KUNNEPPU CHO","town":"KIYOZUMI","perfecture_jp":"北海道","jp_add_1":"常呂郡訓子府町","jp_add_2":"清住"},"0991421":{"post_code":"0991421","prefecture":"HOKKAIDO","city":"TOKORO GUN KUNNEPPU CHO","town":"KOMASATO","perfecture_jp":"北海道","jp_add_1":"常呂郡訓子府町","jp_add_2":"駒里"},"0991434":{"post_code":"0991434","prefecture":"HOKKAIDO","city":"TOKORO GUN KUNNEPPU CHO","town":"SAKAEMACHI","perfecture_jp":"北海道","jp_add_1":"常呂郡訓子府町","jp_add_2":"栄町"},"0991417":{"post_code":"0991417","prefecture":"HOKKAIDO","city":"TOKORO GUN KUNNEPPU CHO","town":"SUEHIROMACHI","perfecture_jp":"北海道","jp_add_1":"常呂郡訓子府町","jp_add_2":"末広町"},"0991405":{"post_code":"0991405","prefecture":"HOKKAIDO","city":"TOKORO GUN KUNNEPPU CHO","town":"TAKAZONO","perfecture_jp":"北海道","jp_add_1":"常呂郡訓子府町","jp_add_2":"高園"},"0991416":{"post_code":"0991416","prefecture":"HOKKAIDO","city":"TOKORO GUN KUNNEPPU CHO","town":"TOKIWA","perfecture_jp":"北海道","jp_add_1":"常呂郡訓子府町","jp_add_2":"常盤"},"0991427":{"post_code":"0991427","prefecture":"HOKKAIDO","city":"TOKORO GUN KUNNEPPU CHO","town":"TOYOSAKA","perfecture_jp":"北海道","jp_add_1":"常呂郡訓子府町","jp_add_2":"豊坂"},"0991433":{"post_code":"0991433","prefecture":"HOKKAIDO","city":"TOKORO GUN KUNNEPPU CHO","town":"NAKAMACHI","perfecture_jp":"北海道","jp_add_1":"常呂郡訓子府町","jp_add_2":"仲町"},"0991423":{"post_code":"0991423","prefecture":"HOKKAIDO","city":"TOKORO GUN KUNNEPPU CHO","town":"NISHISAIWAIMACHI","perfecture_jp":"北海道","jp_add_1":"常呂郡訓子府町","jp_add_2":"西幸町"},"0991424":{"post_code":"0991424","prefecture":"HOKKAIDO","city":"TOKORO GUN KUNNEPPU CHO","town":"NISHITOMI","perfecture_jp":"北海道","jp_add_1":"常呂郡訓子府町","jp_add_2":"西富"},"0991403":{"post_code":"0991403","prefecture":"HOKKAIDO","city":"TOKORO GUN KUNNEPPU CHO","town":"HIGASHISAIWAIMACHI","perfecture_jp":"北海道","jp_add_1":"常呂郡訓子府町","jp_add_2":"東幸町"},"0991431":{"post_code":"0991431","prefecture":"HOKKAIDO","city":"TOKORO GUN KUNNEPPU CHO","town":"HIGASHIMACHI","perfecture_jp":"北海道","jp_add_1":"常呂郡訓子府町","jp_add_2":"東町"},"0991401":{"post_code":"0991401","prefecture":"HOKKAIDO","city":"TOKORO GUN KUNNEPPU CHO","town":"HINODE","perfecture_jp":"北海道","jp_add_1":"常呂郡訓子府町","jp_add_2":"日出"},"0991407":{"post_code":"0991407","prefecture":"HOKKAIDO","city":"TOKORO GUN KUNNEPPU CHO","town":"FUKUNO","perfecture_jp":"北海道","jp_add_1":"常呂郡訓子府町","jp_add_2":"福野"},"0991422":{"post_code":"0991422","prefecture":"HOKKAIDO","city":"TOKORO GUN KUNNEPPU CHO","town":"HOKUEI","perfecture_jp":"北海道","jp_add_1":"常呂郡訓子府町","jp_add_2":"北栄"},"0991402":{"post_code":"0991402","prefecture":"HOKKAIDO","city":"TOKORO GUN KUNNEPPU CHO","town":"HONAMI","perfecture_jp":"北海道","jp_add_1":"常呂郡訓子府町","jp_add_2":"穂波"},"0991418":{"post_code":"0991418","prefecture":"HOKKAIDO","city":"TOKORO GUN KUNNEPPU CHO","town":"MISATO","perfecture_jp":"北海道","jp_add_1":"常呂郡訓子府町","jp_add_2":"実郷"},"0991415":{"post_code":"0991415","prefecture":"HOKKAIDO","city":"TOKORO GUN KUNNEPPU CHO","town":"MISONO","perfecture_jp":"北海道","jp_add_1":"常呂郡訓子府町","jp_add_2":"美園"},"0991412":{"post_code":"0991412","prefecture":"HOKKAIDO","city":"TOKORO GUN KUNNEPPU CHO","town":"MIDORIOKA","perfecture_jp":"北海道","jp_add_1":"常呂郡訓子府町","jp_add_2":"緑丘"},"0991437":{"post_code":"0991437","prefecture":"HOKKAIDO","city":"TOKORO GUN KUNNEPPU CHO","town":"MOTOMACHI","perfecture_jp":"北海道","jp_add_1":"常呂郡訓子府町","jp_add_2":"元町"},"0991406":{"post_code":"0991406","prefecture":"HOKKAIDO","city":"TOKORO GUN KUNNEPPU CHO","town":"YAYOI","perfecture_jp":"北海道","jp_add_1":"常呂郡訓子府町","jp_add_2":"弥生"},"0991435":{"post_code":"0991435","prefecture":"HOKKAIDO","city":"TOKORO GUN KUNNEPPU CHO","town":"WAKATOMIMACHI","perfecture_jp":"北海道","jp_add_1":"常呂郡訓子府町","jp_add_2":"若富町"},"0991425":{"post_code":"0991425","prefecture":"HOKKAIDO","city":"TOKORO GUN KUNNEPPU CHO","town":"WAKABAMACHI","perfecture_jp":"北海道","jp_add_1":"常呂郡訓子府町","jp_add_2":"若葉町"},"0991100":{"post_code":"0991100","prefecture":"HOKKAIDO","city":"TOKORO GUN OKETO CHO","town":"IKANIKEISAIGANAIBAAI","perfecture_jp":"北海道","jp_add_1":"常呂郡置戸町","jp_add_2":""},"0991364":{"post_code":"0991364","prefecture":"HOKKAIDO","city":"TOKORO GUN OKETO CHO","town":"AKITA","perfecture_jp":"北海道","jp_add_1":"常呂郡置戸町","jp_add_2":"秋田"},"0991116":{"post_code":"0991116","prefecture":"HOKKAIDO","city":"TOKORO GUN OKETO CHO","town":"ASAHI","perfecture_jp":"北海道","jp_add_1":"常呂郡置戸町","jp_add_2":"朝日"},"0991251":{"post_code":"0991251","prefecture":"HOKKAIDO","city":"TOKORO GUN OKETO CHO","town":"AZUMI","perfecture_jp":"北海道","jp_add_1":"常呂郡置戸町","jp_add_2":"安住"},"0991137":{"post_code":"0991137","prefecture":"HOKKAIDO","city":"TOKORO GUN OKETO CHO","town":"OMI","perfecture_jp":"北海道","jp_add_1":"常呂郡置戸町","jp_add_2":"大美"},"0991362":{"post_code":"0991362","prefecture":"HOKKAIDO","city":"TOKORO GUN OKETO CHO","town":"OKACHI","perfecture_jp":"北海道","jp_add_1":"常呂郡置戸町","jp_add_2":"雄勝"},"0991253":{"post_code":"0991253","prefecture":"HOKKAIDO","city":"TOKORO GUN OKETO CHO","town":"KASUGA","perfecture_jp":"北海道","jp_add_1":"常呂郡置戸町","jp_add_2":"春日"},"0991252":{"post_code":"0991252","prefecture":"HOKKAIDO","city":"TOKORO GUN OKETO CHO","town":"KATSUYAMA","perfecture_jp":"北海道","jp_add_1":"常呂郡置戸町","jp_add_2":"勝山"},"0991366":{"post_code":"0991366","prefecture":"HOKKAIDO","city":"TOKORO GUN OKETO CHO","town":"KAWAMINAMI","perfecture_jp":"北海道","jp_add_1":"常呂郡置戸町","jp_add_2":"川南"},"0991114":{"post_code":"0991114","prefecture":"HOKKAIDO","city":"TOKORO GUN OKETO CHO","town":"KYOSEI","perfecture_jp":"北海道","jp_add_1":"常呂郡置戸町","jp_add_2":"協生"},"0991132":{"post_code":"0991132","prefecture":"HOKKAIDO","city":"TOKORO GUN OKETO CHO","town":"KYOWA","perfecture_jp":"北海道","jp_add_1":"常呂郡置戸町","jp_add_2":"協和"},"0991133":{"post_code":"0991133","prefecture":"HOKKAIDO","city":"TOKORO GUN OKETO CHO","town":"KOSEI","perfecture_jp":"北海道","jp_add_1":"常呂郡置戸町","jp_add_2":"更盛"},"0991135":{"post_code":"0991135","prefecture":"HOKKAIDO","city":"TOKORO GUN OKETO CHO","town":"KOKUEI","perfecture_jp":"北海道","jp_add_1":"常呂郡置戸町","jp_add_2":"国栄"},"0991361":{"post_code":"0991361","prefecture":"HOKKAIDO","city":"TOKORO GUN OKETO CHO","town":"SAKAINO","perfecture_jp":"北海道","jp_add_1":"常呂郡置戸町","jp_add_2":"境野"},"0991104":{"post_code":"0991104","prefecture":"HOKKAIDO","city":"TOKORO GUN OKETO CHO","town":"SAKAEICHI","perfecture_jp":"北海道","jp_add_1":"常呂郡置戸町","jp_add_2":"栄一"},"0991103":{"post_code":"0991103","prefecture":"HOKKAIDO","city":"TOKORO GUN OKETO CHO","town":"SAKAENI","perfecture_jp":"北海道","jp_add_1":"常呂郡置戸町","jp_add_2":"栄二"},"0991363":{"post_code":"0991363","prefecture":"HOKKAIDO","city":"TOKORO GUN OKETO CHO","town":"SACHIOKA","perfecture_jp":"北海道","jp_add_1":"常呂郡置戸町","jp_add_2":"幸岡"},"0991134":{"post_code":"0991134","prefecture":"HOKKAIDO","city":"TOKORO GUN OKETO CHO","town":"JUZEN","perfecture_jp":"北海道","jp_add_1":"常呂郡置戸町","jp_add_2":"十全"},"0991113":{"post_code":"0991113","prefecture":"HOKKAIDO","city":"TOKORO GUN OKETO CHO","town":"SHINKO","perfecture_jp":"北海道","jp_add_1":"常呂郡置戸町","jp_add_2":"新光"},"0991106":{"post_code":"0991106","prefecture":"HOKKAIDO","city":"TOKORO GUN OKETO CHO","town":"SHINWA","perfecture_jp":"北海道","jp_add_1":"常呂郡置戸町","jp_add_2":"新和"},"0991105":{"post_code":"0991105","prefecture":"HOKKAIDO","city":"TOKORO GUN OKETO CHO","town":"SENSHIN","perfecture_jp":"北海道","jp_add_1":"常呂郡置戸町","jp_add_2":"洗心"},"0991123":{"post_code":"0991123","prefecture":"HOKKAIDO","city":"TOKORO GUN OKETO CHO","town":"TAKUSHOKU","perfecture_jp":"北海道","jp_add_1":"常呂郡置戸町","jp_add_2":"拓殖"},"0991124":{"post_code":"0991124","prefecture":"HOKKAIDO","city":"TOKORO GUN OKETO CHO","town":"TAKUJITSU","perfecture_jp":"北海道","jp_add_1":"常呂郡置戸町","jp_add_2":"拓実"},"0991131":{"post_code":"0991131","prefecture":"HOKKAIDO","city":"TOKORO GUN OKETO CHO","town":"CHUO","perfecture_jp":"北海道","jp_add_1":"常呂郡置戸町","jp_add_2":"中央"},"0991254":{"post_code":"0991254","prefecture":"HOKKAIDO","city":"TOKORO GUN OKETO CHO","town":"TSUNEMOTO","perfecture_jp":"北海道","jp_add_1":"常呂郡置戸町","jp_add_2":"常元"},"0991367":{"post_code":"0991367","prefecture":"HOKKAIDO","city":"TOKORO GUN OKETO CHO","town":"TOKIWA","perfecture_jp":"北海道","jp_add_1":"常呂郡置戸町","jp_add_2":"常盤"},"0991365":{"post_code":"0991365","prefecture":"HOKKAIDO","city":"TOKORO GUN OKETO CHO","town":"TOYOZUMI","perfecture_jp":"北海道","jp_add_1":"常呂郡置戸町","jp_add_2":"豊住"},"0991138":{"post_code":"0991138","prefecture":"HOKKAIDO","city":"TOKORO GUN OKETO CHO","town":"NAKASATO","perfecture_jp":"北海道","jp_add_1":"常呂郡置戸町","jp_add_2":"中里"},"0991136":{"post_code":"0991136","prefecture":"HOKKAIDO","city":"TOKORO GUN OKETO CHO","town":"NISSHIN","perfecture_jp":"北海道","jp_add_1":"常呂郡置戸町","jp_add_2":"日進"},"0991121":{"post_code":"0991121","prefecture":"HOKKAIDO","city":"TOKORO GUN OKETO CHO","town":"HOKUNO","perfecture_jp":"北海道","jp_add_1":"常呂郡置戸町","jp_add_2":"北農"},"0991101":{"post_code":"0991101","prefecture":"HOKKAIDO","city":"TOKORO GUN OKETO CHO","town":"HOKKO","perfecture_jp":"北海道","jp_add_1":"常呂郡置戸町","jp_add_2":"北光"},"0991102":{"post_code":"0991102","prefecture":"HOKKAIDO","city":"TOKORO GUN OKETO CHO","town":"MIDORI","perfecture_jp":"北海道","jp_add_1":"常呂郡置戸町","jp_add_2":"緑"},"0991117":{"post_code":"0991117","prefecture":"HOKKAIDO","city":"TOKORO GUN OKETO CHO","town":"MIYASAKA","perfecture_jp":"北海道","jp_add_1":"常呂郡置戸町","jp_add_2":"宮坂"},"0991115":{"post_code":"0991115","prefecture":"HOKKAIDO","city":"TOKORO GUN OKETO CHO","town":"MIYASHITA","perfecture_jp":"北海道","jp_add_1":"常呂郡置戸町","jp_add_2":"宮下"},"0991122":{"post_code":"0991122","prefecture":"HOKKAIDO","city":"TOKORO GUN OKETO CHO","town":"RINYU","perfecture_jp":"北海道","jp_add_1":"常呂郡置戸町","jp_add_2":"林友"},"0991118":{"post_code":"0991118","prefecture":"HOKKAIDO","city":"TOKORO GUN OKETO CHO","town":"WAKAGI","perfecture_jp":"北海道","jp_add_1":"常呂郡置戸町","jp_add_2":"若木"},"0991112":{"post_code":"0991112","prefecture":"HOKKAIDO","city":"TOKORO GUN OKETO CHO","town":"WAKAMATSU","perfecture_jp":"北海道","jp_add_1":"常呂郡置戸町","jp_add_2":"若松"},"0990400":{"post_code":"0990400","prefecture":"HOKKAIDO","city":"MOMBETSU GUN ENGARU CHO","town":"IKANIKEISAIGANAIBAAI","perfecture_jp":"北海道","jp_add_1":"紋別郡遠軽町","jp_add_2":""},"0990701":{"post_code":"0990701","prefecture":"HOKKAIDO","city":"MOMBETSU GUN ENGARU CHO","town":"IKUTAHARA","perfecture_jp":"北海道","jp_add_1":"紋別郡遠軽町","jp_add_2":"生田原"},"0990623":{"post_code":"0990623","prefecture":"HOKKAIDO","city":"MOMBETSU GUN ENGARU CHO","town":"IKUTAHARA ASAHINO","perfecture_jp":"北海道","jp_add_1":"紋別郡遠軽町","jp_add_2":"生田原旭野"},"0990702":{"post_code":"0990702","prefecture":"HOKKAIDO","city":"MOMBETSU GUN ENGARU CHO","town":"IKUTAHARA IBUKI","perfecture_jp":"北海道","jp_add_1":"紋別郡遠軽町","jp_add_2":"生田原伊吹"},"0990704":{"post_code":"0990704","prefecture":"HOKKAIDO","city":"MOMBETSU GUN ENGARU CHO","town":"IKUTAHARA IWATO","perfecture_jp":"北海道","jp_add_1":"紋別郡遠軽町","jp_add_2":"生田原岩戸"},"0990705":{"post_code":"0990705","prefecture":"HOKKAIDO","city":"MOMBETSU GUN ENGARU CHO","town":"IKUTAHARA KIYOSATO","perfecture_jp":"北海道","jp_add_1":"紋別郡遠軽町","jp_add_2":"生田原清里"},"0990624":{"post_code":"0990624","prefecture":"HOKKAIDO","city":"MOMBETSU GUN ENGARU CHO","town":"IKUTAHARA TOYOHARA","perfecture_jp":"北海道","jp_add_1":"紋別郡遠軽町","jp_add_2":"生田原豊原"},"0990621":{"post_code":"0990621","prefecture":"HOKKAIDO","city":"MOMBETSU GUN ENGARU CHO","town":"IKUTAHARA MIZUHO","perfecture_jp":"北海道","jp_add_1":"紋別郡遠軽町","jp_add_2":"生田原水穂"},"0990703":{"post_code":"0990703","prefecture":"HOKKAIDO","city":"MOMBETSU GUN ENGARU CHO","town":"IKUTAHARA YAE","perfecture_jp":"北海道","jp_add_1":"紋別郡遠軽町","jp_add_2":"生田原八重"},"0990622":{"post_code":"0990622","prefecture":"HOKKAIDO","city":"MOMBETSU GUN ENGARU CHO","town":"IKUTAHARA YASUKUNI","perfecture_jp":"北海道","jp_add_1":"紋別郡遠軽町","jp_add_2":"生田原安国"},"0990415":{"post_code":"0990415","prefecture":"HOKKAIDO","city":"MOMBETSU GUN ENGARU CHO","town":"IWAMIDORIMINAMI","perfecture_jp":"北海道","jp_add_1":"紋別郡遠軽町","jp_add_2":"岩見通南"},"0990405":{"post_code":"0990405","prefecture":"HOKKAIDO","city":"MOMBETSU GUN ENGARU CHO","town":"IWAMIDORIKITA","perfecture_jp":"北海道","jp_add_1":"紋別郡遠軽町","jp_add_2":"岩見通北"},"0990416":{"post_code":"0990416","prefecture":"HOKKAIDO","city":"MOMBETSU GUN ENGARU CHO","town":"ODORIMINAMI","perfecture_jp":"北海道","jp_add_1":"紋別郡遠軽町","jp_add_2":"大通南"},"0990404":{"post_code":"0990404","prefecture":"HOKKAIDO","city":"MOMBETSU GUN ENGARU CHO","town":"ODORIKITA","perfecture_jp":"北海道","jp_add_1":"紋別郡遠軽町","jp_add_2":"大通北"},"0990126":{"post_code":"0990126","prefecture":"HOKKAIDO","city":"MOMBETSU GUN ENGARU CHO","town":"OKUSHIRATAKI","perfecture_jp":"北海道","jp_add_1":"紋別郡遠軽町","jp_add_2":"奥白滝"},"0990401":{"post_code":"0990401","prefecture":"HOKKAIDO","city":"MOMBETSU GUN ENGARU CHO","town":"GAKUDEN","perfecture_jp":"北海道","jp_add_1":"紋別郡遠軽町","jp_add_2":"学田"},"0990347":{"post_code":"0990347","prefecture":"HOKKAIDO","city":"MOMBETSU GUN ENGARU CHO","town":"KASHIWA","perfecture_jp":"北海道","jp_add_1":"紋別郡遠軽町","jp_add_2":"柏"},"0990127":{"post_code":"0990127","prefecture":"HOKKAIDO","city":"MOMBETSU GUN ENGARU CHO","town":"KAMISHIRATAKI","perfecture_jp":"北海道","jp_add_1":"紋別郡遠軽町","jp_add_2":"上白滝"},"0990102":{"post_code":"0990102","prefecture":"HOKKAIDO","city":"MOMBETSU GUN ENGARU CHO","town":"KYUSHIRATAKI","perfecture_jp":"北海道","jp_add_1":"紋別郡遠軽町","jp_add_2":"旧白滝"},"0990422":{"post_code":"0990422","prefecture":"HOKKAIDO","city":"MOMBETSU GUN ENGARU CHO","town":"KIYOKAWA","perfecture_jp":"北海道","jp_add_1":"紋別郡遠軽町","jp_add_2":"清川"},"0990413":{"post_code":"0990413","prefecture":"HOKKAIDO","city":"MOMBETSU GUN ENGARU CHO","town":"KOTOBUKICHO","perfecture_jp":"北海道","jp_add_1":"紋別郡遠軽町","jp_add_2":"寿町"},"0990343":{"post_code":"0990343","prefecture":"HOKKAIDO","city":"MOMBETSU GUN ENGARU CHO","town":"SAKAENO","perfecture_jp":"北海道","jp_add_1":"紋別郡遠軽町","jp_add_2":"栄野"},"0990101":{"post_code":"0990101","prefecture":"HOKKAIDO","city":"MOMBETSU GUN ENGARU CHO","town":"SHIMOSHIRATAKI","perfecture_jp":"北海道","jp_add_1":"紋別郡遠軽町","jp_add_2":"下白滝"},"0990426":{"post_code":"0990426","prefecture":"HOKKAIDO","city":"MOMBETSU GUN ENGARU CHO","town":"SHANAFUCHI","perfecture_jp":"北海道","jp_add_1":"紋別郡遠軽町","jp_add_2":"社名淵"},"0990111":{"post_code":"0990111","prefecture":"HOKKAIDO","city":"MOMBETSU GUN ENGARU CHO","town":"SHIRATAKI","perfecture_jp":"北海道","jp_add_1":"紋別郡遠軽町","jp_add_2":"白滝"},"0990123":{"post_code":"0990123","prefecture":"HOKKAIDO","city":"MOMBETSU GUN ENGARU CHO","town":"SHIRATAKI KAMISHUBETSU","perfecture_jp":"北海道","jp_add_1":"紋別郡遠軽町","jp_add_2":"白滝上支湧別"},"0990121":{"post_code":"0990121","prefecture":"HOKKAIDO","city":"MOMBETSU GUN ENGARU CHO","town":"SHIRATAKI KITASHUBETSU","perfecture_jp":"北海道","jp_add_1":"紋別郡遠軽町","jp_add_2":"白滝北支湧別"},"0990122":{"post_code":"0990122","prefecture":"HOKKAIDO","city":"MOMBETSU GUN ENGARU CHO","town":"SHIRATAKI SHUBETSU","perfecture_jp":"北海道","jp_add_1":"紋別郡遠軽町","jp_add_2":"白滝支湧別"},"0990125":{"post_code":"0990125","prefecture":"HOKKAIDO","city":"MOMBETSU GUN ENGARU CHO","town":"SHIRATAKI TENGUDAIRA","perfecture_jp":"北海道","jp_add_1":"紋別郡遠軽町","jp_add_2":"白滝天狗平"},"0990341":{"post_code":"0990341","prefecture":"HOKKAIDO","city":"MOMBETSU GUN ENGARU CHO","town":"SETOSEHIGASHIMACHI","perfecture_jp":"北海道","jp_add_1":"紋別郡遠軽町","jp_add_2":"瀬戸瀬東町"},"0990342":{"post_code":"0990342","prefecture":"HOKKAIDO","city":"MOMBETSU GUN ENGARU CHO","town":"SETOSENISHIMACHI","perfecture_jp":"北海道","jp_add_1":"紋別郡遠軽町","jp_add_2":"瀬戸瀬西町"},"0990425":{"post_code":"0990425","prefecture":"HOKKAIDO","city":"MOMBETSU GUN ENGARU CHO","town":"CHIYODA","perfecture_jp":"北海道","jp_add_1":"紋別郡遠軽町","jp_add_2":"千代田"},"0990408":{"post_code":"0990408","prefecture":"HOKKAIDO","city":"MOMBETSU GUN ENGARU CHO","town":"TOMEOKA","perfecture_jp":"北海道","jp_add_1":"紋別郡遠軽町","jp_add_2":"留岡"},"0990412":{"post_code":"0990412","prefecture":"HOKKAIDO","city":"MOMBETSU GUN ENGARU CHO","town":"TOYOSATO","perfecture_jp":"北海道","jp_add_1":"紋別郡遠軽町","jp_add_2":"豊里"},"0990428":{"post_code":"0990428","prefecture":"HOKKAIDO","city":"MOMBETSU GUN ENGARU CHO","town":"NISHIMACHI","perfecture_jp":"北海道","jp_add_1":"紋別郡遠軽町","jp_add_2":"西町"},"0990344":{"post_code":"0990344","prefecture":"HOKKAIDO","city":"MOMBETSU GUN ENGARU CHO","town":"NOGAMI","perfecture_jp":"北海道","jp_add_1":"紋別郡遠軽町","jp_add_2":"野上"},"0990124":{"post_code":"0990124","prefecture":"HOKKAIDO","city":"MOMBETSU GUN ENGARU CHO","town":"HIGASHISHIRATAKI","perfecture_jp":"北海道","jp_add_1":"紋別郡遠軽町","jp_add_2":"東白滝"},"0990410":{"post_code":"0990410","prefecture":"HOKKAIDO","city":"MOMBETSU GUN ENGARU CHO","town":"HIGASHIMACHI","perfecture_jp":"北海道","jp_add_1":"紋別郡遠軽町","jp_add_2":"東町"},"0990421":{"post_code":"0990421","prefecture":"HOKKAIDO","city":"MOMBETSU GUN ENGARU CHO","town":"FUKURO","perfecture_jp":"北海道","jp_add_1":"紋別郡遠軽町","jp_add_2":"福路"},"0990211":{"post_code":"0990211","prefecture":"HOKKAIDO","city":"MOMBETSU GUN ENGARU CHO","town":"MARUSEPPU KANAYAMA","perfecture_jp":"北海道","jp_add_1":"紋別郡遠軽町","jp_add_2":"丸瀬布金山"},"0990212":{"post_code":"0990212","prefecture":"HOKKAIDO","city":"MOMBETSU GUN ENGARU CHO","town":"MARUSEPPU KAMIMARU","perfecture_jp":"北海道","jp_add_1":"紋別郡遠軽町","jp_add_2":"丸瀬布上丸"},"0990213":{"post_code":"0990213","prefecture":"HOKKAIDO","city":"MOMBETSU GUN ENGARU CHO","town":"MARUSEPPU KAMIMURII","perfecture_jp":"北海道","jp_add_1":"紋別郡遠軽町","jp_add_2":"丸瀬布上武利"},"0990201":{"post_code":"0990201","prefecture":"HOKKAIDO","city":"MOMBETSU GUN ENGARU CHO","town":"MARUSEPPU SHIMMACHI","perfecture_jp":"北海道","jp_add_1":"紋別郡遠軽町","jp_add_2":"丸瀬布新町"},"0990214":{"post_code":"0990214","prefecture":"HOKKAIDO","city":"MOMBETSU GUN ENGARU CHO","town":"MARUSEPPU TAIHEI","perfecture_jp":"北海道","jp_add_1":"紋別郡遠軽町","jp_add_2":"丸瀬布大平"},"0990202":{"post_code":"0990202","prefecture":"HOKKAIDO","city":"MOMBETSU GUN ENGARU CHO","town":"MARUSEPPU TENJIMMACHI","perfecture_jp":"北海道","jp_add_1":"紋別郡遠軽町","jp_add_2":"丸瀬布天神町"},"0990203":{"post_code":"0990203","prefecture":"HOKKAIDO","city":"MOMBETSU GUN ENGARU CHO","town":"MARUSEPPU NAKAMACHI","perfecture_jp":"北海道","jp_add_1":"紋別郡遠軽町","jp_add_2":"丸瀬布中町"},"0990204":{"post_code":"0990204","prefecture":"HOKKAIDO","city":"MOMBETSU GUN ENGARU CHO","town":"MARUSEPPU NISHIMACHI","perfecture_jp":"北海道","jp_add_1":"紋別郡遠軽町","jp_add_2":"丸瀬布西町"},"0990205":{"post_code":"0990205","prefecture":"HOKKAIDO","city":"MOMBETSU GUN ENGARU CHO","town":"MARUSEPPU HIGASHIMACHI","perfecture_jp":"北海道","jp_add_1":"紋別郡遠軽町","jp_add_2":"丸瀬布東町"},"0990206":{"post_code":"0990206","prefecture":"HOKKAIDO","city":"MOMBETSU GUN ENGARU CHO","town":"MARUSEPPU MIZUTANIMACHI","perfecture_jp":"北海道","jp_add_1":"紋別郡遠軽町","jp_add_2":"丸瀬布水谷町"},"0990215":{"post_code":"0990215","prefecture":"HOKKAIDO","city":"MOMBETSU GUN ENGARU CHO","town":"MARUSEPPU MINAMIMARU","perfecture_jp":"北海道","jp_add_1":"紋別郡遠軽町","jp_add_2":"丸瀬布南丸"},"0990216":{"post_code":"0990216","prefecture":"HOKKAIDO","city":"MOMBETSU GUN ENGARU CHO","town":"MARUSEPPU MURII","perfecture_jp":"北海道","jp_add_1":"紋別郡遠軽町","jp_add_2":"丸瀬布武利"},"0990207":{"post_code":"0990207","prefecture":"HOKKAIDO","city":"MOMBETSU GUN ENGARU CHO","town":"MARUSEPPU MOTOMACHI","perfecture_jp":"北海道","jp_add_1":"紋別郡遠軽町","jp_add_2":"丸瀬布元町"},"0990407":{"post_code":"0990407","prefecture":"HOKKAIDO","city":"MOMBETSU GUN ENGARU CHO","town":"MARUDAI","perfecture_jp":"北海道","jp_add_1":"紋別郡遠軽町","jp_add_2":"丸大"},"0990414":{"post_code":"0990414","prefecture":"HOKKAIDO","city":"MOMBETSU GUN ENGARU CHO","town":"MINAMIMACHI","perfecture_jp":"北海道","jp_add_1":"紋別郡遠軽町","jp_add_2":"南町"},"0990427":{"post_code":"0990427","prefecture":"HOKKAIDO","city":"MOMBETSU GUN ENGARU CHO","town":"MIHARASHI","perfecture_jp":"北海道","jp_add_1":"紋別郡遠軽町","jp_add_2":"見晴"},"0990424":{"post_code":"0990424","prefecture":"HOKKAIDO","city":"MOMBETSU GUN ENGARU CHO","town":"MIYAMA","perfecture_jp":"北海道","jp_add_1":"紋別郡遠軽町","jp_add_2":"美山"},"0990406":{"post_code":"0990406","prefecture":"HOKKAIDO","city":"MOMBETSU GUN ENGARU CHO","town":"MIYAMAECHO","perfecture_jp":"北海道","jp_add_1":"紋別郡遠軽町","jp_add_2":"宮前町"},"0990411":{"post_code":"0990411","prefecture":"HOKKAIDO","city":"MOMBETSU GUN ENGARU CHO","town":"MUKAIENGARU","perfecture_jp":"北海道","jp_add_1":"紋別郡遠軽町","jp_add_2":"向遠軽"},"0990345":{"post_code":"0990345","prefecture":"HOKKAIDO","city":"MOMBETSU GUN ENGARU CHO","town":"YUNOSATO","perfecture_jp":"北海道","jp_add_1":"紋別郡遠軽町","jp_add_2":"湯の里"},"0990346":{"post_code":"0990346","prefecture":"HOKKAIDO","city":"MOMBETSU GUN ENGARU CHO","town":"WAKASAKUNAI","perfecture_jp":"北海道","jp_add_1":"紋別郡遠軽町","jp_add_2":"若咲内"},"0990423":{"post_code":"0990423","prefecture":"HOKKAIDO","city":"MOMBETSU GUN ENGARU CHO","town":"WAKAMATSU","perfecture_jp":"北海道","jp_add_1":"紋別郡遠軽町","jp_add_2":"若松"},"0990417":{"post_code":"0990417","prefecture":"HOKKAIDO","city":"MOMBETSU GUN ENGARU CHO","town":"1-JODORIMINAMI","perfecture_jp":"北海道","jp_add_1":"紋別郡遠軽町","jp_add_2":"一条通南"},"0990403":{"post_code":"0990403","prefecture":"HOKKAIDO","city":"MOMBETSU GUN ENGARU CHO","town":"1-JODORIKITA","perfecture_jp":"北海道","jp_add_1":"紋別郡遠軽町","jp_add_2":"一条通北"},"0990418":{"post_code":"0990418","prefecture":"HOKKAIDO","city":"MOMBETSU GUN ENGARU CHO","town":"2-JODORIMINAMI","perfecture_jp":"北海道","jp_add_1":"紋別郡遠軽町","jp_add_2":"二条通南"},"0990402":{"post_code":"0990402","prefecture":"HOKKAIDO","city":"MOMBETSU GUN ENGARU CHO","town":"2-JODORIKITA","perfecture_jp":"北海道","jp_add_1":"紋別郡遠軽町","jp_add_2":"二条通北"},"0996400":{"post_code":"0996400","prefecture":"HOKKAIDO","city":"MOMBETSU GUN YUBETSU CHO","town":"IKANIKEISAIGANAIBAAI","perfecture_jp":"北海道","jp_add_1":"紋別郡湧別町","jp_add_2":""},"0996402":{"post_code":"0996402","prefecture":"HOKKAIDO","city":"MOMBETSU GUN YUBETSU CHO","town":"AKEBONOMACHI","perfecture_jp":"北海道","jp_add_1":"紋別郡湧別町","jp_add_2":"曙町"},"0996321":{"post_code":"0996321","prefecture":"HOKKAIDO","city":"MOMBETSU GUN YUBETSU CHO","town":"ASAHI","perfecture_jp":"北海道","jp_add_1":"紋別郡湧別町","jp_add_2":"旭"},"0996503":{"post_code":"0996503","prefecture":"HOKKAIDO","city":"MOMBETSU GUN YUBETSU CHO","town":"KAISEI","perfecture_jp":"北海道","jp_add_1":"紋別郡湧別町","jp_add_2":"開盛"},"0996504":{"post_code":"0996504","prefecture":"HOKKAIDO","city":"MOMBETSU GUN YUBETSU CHO","town":"KAMIFUMI","perfecture_jp":"北海道","jp_add_1":"紋別郡湧別町","jp_add_2":"上富美"},"0996501":{"post_code":"0996501","prefecture":"HOKKAIDO","city":"MOMBETSU GUN YUBETSU CHO","town":"KAMIYUBETSUTONDENSHIGAICHI","perfecture_jp":"北海道","jp_add_1":"紋別郡湧別町","jp_add_2":"上湧別屯田市街地"},"0996415":{"post_code":"0996415","prefecture":"HOKKAIDO","city":"MOMBETSU GUN YUBETSU CHO","town":"KAWANISHI","perfecture_jp":"北海道","jp_add_1":"紋別郡湧別町","jp_add_2":"川西"},"0996325":{"post_code":"0996325","prefecture":"HOKKAIDO","city":"MOMBETSU GUN YUBETSU CHO","town":"KITAHEISONIKKU","perfecture_jp":"北海道","jp_add_1":"紋別郡湧別町","jp_add_2":"北兵村一区"},"0996323":{"post_code":"0996323","prefecture":"HOKKAIDO","city":"MOMBETSU GUN YUBETSU CHO","town":"KITAHEISONNIKU","perfecture_jp":"北海道","jp_add_1":"紋別郡湧別町","jp_add_2":"北兵村二区"},"0996322":{"post_code":"0996322","prefecture":"HOKKAIDO","city":"MOMBETSU GUN YUBETSU CHO","town":"KITAHEISONSANKU","perfecture_jp":"北海道","jp_add_1":"紋別郡湧別町","jp_add_2":"北兵村三区"},"0996404":{"post_code":"0996404","prefecture":"HOKKAIDO","city":"MOMBETSU GUN YUBETSU CHO","town":"SAKAEMACHI","perfecture_jp":"北海道","jp_add_1":"紋別郡湧別町","jp_add_2":"栄町"},"0996506":{"post_code":"0996506","prefecture":"HOKKAIDO","city":"MOMBETSU GUN YUBETSU CHO","town":"SATSUFUMI","perfecture_jp":"北海道","jp_add_1":"紋別郡湧別町","jp_add_2":"札富美"},"0996271":{"post_code":"0996271","prefecture":"HOKKAIDO","city":"MOMBETSU GUN YUBETSU CHO","town":"SHIBUNAI","perfecture_jp":"北海道","jp_add_1":"紋別郡湧別町","jp_add_2":"信部内"},"0996412":{"post_code":"0996412","prefecture":"HOKKAIDO","city":"MOMBETSU GUN YUBETSU CHO","town":"TOETOKO","perfecture_jp":"北海道","jp_add_1":"紋別郡湧別町","jp_add_2":"登栄床"},"0996326":{"post_code":"0996326","prefecture":"HOKKAIDO","city":"MOMBETSU GUN YUBETSU CHO","town":"NAKAYUBETSUKITAMACHI","perfecture_jp":"北海道","jp_add_1":"紋別郡湧別町","jp_add_2":"中湧別北町"},"0996329":{"post_code":"0996329","prefecture":"HOKKAIDO","city":"MOMBETSU GUN YUBETSU CHO","town":"NAKAYUBETSUNAKAMACHI","perfecture_jp":"北海道","jp_add_1":"紋別郡湧別町","jp_add_2":"中湧別中町"},"0996327":{"post_code":"0996327","prefecture":"HOKKAIDO","city":"MOMBETSU GUN YUBETSU CHO","town":"NAKAYUBETSUHIGASHIMACHI","perfecture_jp":"北海道","jp_add_1":"紋別郡湧別町","jp_add_2":"中湧別東町"},"0996328":{"post_code":"0996328","prefecture":"HOKKAIDO","city":"MOMBETSU GUN YUBETSU CHO","town":"NAKAYUBETSUMINAMIMACHI","perfecture_jp":"北海道","jp_add_1":"紋別郡湧別町","jp_add_2":"中湧別南町"},"0996414":{"post_code":"0996414","prefecture":"HOKKAIDO","city":"MOMBETSU GUN YUBETSU CHO","town":"NISHIKIMACHI","perfecture_jp":"北海道","jp_add_1":"紋別郡湧別町","jp_add_2":"錦町"},"0996411":{"post_code":"0996411","prefecture":"HOKKAIDO","city":"MOMBETSU GUN YUBETSU CHO","town":"HIGASHI","perfecture_jp":"北海道","jp_add_1":"紋別郡湧別町","jp_add_2":"東"},"0996413":{"post_code":"0996413","prefecture":"HOKKAIDO","city":"MOMBETSU GUN YUBETSU CHO","town":"FUKUSHIMA(SONOTA)","perfecture_jp":"北海道","jp_add_1":"紋別郡湧別町","jp_add_2":"福島"},"0996505":{"post_code":"0996505","prefecture":"HOKKAIDO","city":"MOMBETSU GUN YUBETSU CHO","town":"FUMI","perfecture_jp":"北海道","jp_add_1":"紋別郡湧別町","jp_add_2":"富美"},"0996403":{"post_code":"0996403","prefecture":"HOKKAIDO","city":"MOMBETSU GUN YUBETSU CHO","town":"MIDORIMACHI","perfecture_jp":"北海道","jp_add_1":"紋別郡湧別町","jp_add_2":"緑町"},"0996401":{"post_code":"0996401","prefecture":"HOKKAIDO","city":"MOMBETSU GUN YUBETSU CHO","town":"MINATOMACHI","perfecture_jp":"北海道","jp_add_1":"紋別郡湧別町","jp_add_2":"港町"},"0996509":{"post_code":"0996509","prefecture":"HOKKAIDO","city":"MOMBETSU GUN YUBETSU CHO","town":"MINAMIHEISONIKKU","perfecture_jp":"北海道","jp_add_1":"紋別郡湧別町","jp_add_2":"南兵村一区"},"0996508":{"post_code":"0996508","prefecture":"HOKKAIDO","city":"MOMBETSU GUN YUBETSU CHO","town":"MINAMIHEISONNIKU","perfecture_jp":"北海道","jp_add_1":"紋別郡湧別町","jp_add_2":"南兵村二区"},"0996507":{"post_code":"0996507","prefecture":"HOKKAIDO","city":"MOMBETSU GUN YUBETSU CHO","town":"MINAMIHEISONSANKU","perfecture_jp":"北海道","jp_add_1":"紋別郡湧別町","jp_add_2":"南兵村三区"},"0996272":{"post_code":"0996272","prefecture":"HOKKAIDO","city":"MOMBETSU GUN YUBETSU CHO","town":"RYOKUIN","perfecture_jp":"北海道","jp_add_1":"紋別郡湧別町","jp_add_2":"緑蔭"},"0995600":{"post_code":"0995600","prefecture":"HOKKAIDO","city":"MOMBETSU GUN TAKINOE CHO","town":"IKANIKEISAIGANAIBAAI","perfecture_jp":"北海道","jp_add_1":"紋別郡滝上町","jp_add_2":""},"0995601":{"post_code":"0995601","prefecture":"HOKKAIDO","city":"MOMBETSU GUN TAKINOE CHO","town":"AKEBONOMACHI","perfecture_jp":"北海道","jp_add_1":"紋別郡滝上町","jp_add_2":"あけぼの町"},"0995602":{"post_code":"0995602","prefecture":"HOKKAIDO","city":"MOMBETSU GUN TAKINOE CHO","town":"ASAHIMACHI","perfecture_jp":"北海道","jp_add_1":"紋別郡滝上町","jp_add_2":"旭町"},"0995544":{"post_code":"0995544","prefecture":"HOKKAIDO","city":"MOMBETSU GUN TAKINOE CHO","town":"OCHINNAI","perfecture_jp":"北海道","jp_add_1":"紋別郡滝上町","jp_add_2":"雄鎮内"},"0995606":{"post_code":"0995606","prefecture":"HOKKAIDO","city":"MOMBETSU GUN TAKINOE CHO","town":"SAIWAIMACHI","perfecture_jp":"北海道","jp_add_1":"紋別郡滝上町","jp_add_2":"幸町"},"0995605":{"post_code":"0995605","prefecture":"HOKKAIDO","city":"MOMBETSU GUN TAKINOE CHO","town":"SAKAEMACHI","perfecture_jp":"北海道","jp_add_1":"紋別郡滝上町","jp_add_2":"栄町"},"0995614":{"post_code":"0995614","prefecture":"HOKKAIDO","city":"MOMBETSU GUN TAKINOE CHO","town":"SAKKURU","perfecture_jp":"北海道","jp_add_1":"紋別郡滝上町","jp_add_2":"札久留"},"0995612":{"post_code":"0995612","prefecture":"HOKKAIDO","city":"MOMBETSU GUN TAKINOE CHO","town":"DAI2-KU","perfecture_jp":"北海道","jp_add_1":"紋別郡滝上町","jp_add_2":"白鳥"},"0995543":{"post_code":"0995543","prefecture":"HOKKAIDO","city":"MOMBETSU GUN TAKINOE CHO","town":"SHIMMACHI","perfecture_jp":"北海道","jp_add_1":"紋別郡滝上町","jp_add_2":"新町"},"0995611":{"post_code":"0995611","prefecture":"HOKKAIDO","city":"MOMBETSU GUN TAKINOE CHO","town":"DAI1-KU","perfecture_jp":"北海道","jp_add_1":"紋別郡滝上町","jp_add_2":"第１区"},"0995613":{"post_code":"0995613","prefecture":"HOKKAIDO","city":"MOMBETSU GUN TAKINOE CHO","town":"TAKINISHI","perfecture_jp":"北海道","jp_add_1":"紋別郡滝上町","jp_add_2":"第３区"},"0995551":{"post_code":"0995551","prefecture":"HOKKAIDO","city":"MOMBETSU GUN TAKINOE CHO","town":"TAISHO","perfecture_jp":"北海道","jp_add_1":"紋別郡滝上町","jp_add_2":"大正"},"0995552":{"post_code":"0995552","prefecture":"HOKKAIDO","city":"MOMBETSU GUN TAKINOE CHO","town":"TAKISHITA","perfecture_jp":"北海道","jp_add_1":"紋別郡滝上町","jp_add_2":"滝下"},"0995603":{"post_code":"0995603","prefecture":"HOKKAIDO","city":"MOMBETSU GUN TAKINOE CHO","town":"TAKIMIMACHI","perfecture_jp":"北海道","jp_add_1":"紋別郡滝上町","jp_add_2":"滝美町"},"0995541":{"post_code":"0995541","prefecture":"HOKKAIDO","city":"MOMBETSU GUN TAKINOE CHO","town":"NIGORIKAWACHUO","perfecture_jp":"北海道","jp_add_1":"紋別郡滝上町","jp_add_2":"濁川中央"},"0995542":{"post_code":"0995542","prefecture":"HOKKAIDO","city":"MOMBETSU GUN TAKINOE CHO","town":"NIGORIKAWAMIDORIMACHI","perfecture_jp":"北海道","jp_add_1":"紋別郡滝上町","jp_add_2":"濁川みどり町"},"0995604":{"post_code":"0995604","prefecture":"HOKKAIDO","city":"MOMBETSU GUN TAKINOE CHO","town":"MOTOMACHI","perfecture_jp":"北海道","jp_add_1":"紋別郡滝上町","jp_add_2":"元町"},"0995553":{"post_code":"0995553","prefecture":"HOKKAIDO","city":"MOMBETSU GUN TAKINOE CHO","town":"YUHAKU","perfecture_jp":"北海道","jp_add_1":"紋別郡滝上町","jp_add_2":"雄柏"},"0992300":{"post_code":"0992300","prefecture":"HOKKAIDO","city":"ABASHIRI GUN OZORA CHO","town":"IKANIKEISAIGANAIBAAI","perfecture_jp":"北海道","jp_add_1":"網走郡大空町","jp_add_2":""},"0993222":{"post_code":"0993222","prefecture":"HOKKAIDO","city":"ABASHIRI GUN OZORA CHO","town":"HIGASHIMOKOTO SHINTOMI","perfecture_jp":"北海道","jp_add_1":"網走郡大空町","jp_add_2":"東藻琴新富"},"0993232":{"post_code":"0993232","prefecture":"HOKKAIDO","city":"ABASHIRI GUN OZORA CHO","town":"HIGASHIMOKOTO SUEHIRO","perfecture_jp":"北海道","jp_add_1":"網走郡大空町","jp_add_2":"東藻琴末広"},"0993221":{"post_code":"0993221","prefecture":"HOKKAIDO","city":"ABASHIRI GUN OZORA CHO","town":"HIGASHIMOKOTO TAISHIN","perfecture_jp":"北海道","jp_add_1":"網走郡大空町","jp_add_2":"東藻琴大進"},"0993231":{"post_code":"0993231","prefecture":"HOKKAIDO","city":"ABASHIRI GUN OZORA CHO","town":"HIGASHIMOKOTO CHIKUSA","perfecture_jp":"北海道","jp_add_1":"網走郡大空町","jp_add_2":"東藻琴千草"},"0993202":{"post_code":"0993202","prefecture":"HOKKAIDO","city":"ABASHIRI GUN OZORA CHO","town":"HIGASHIMOKOTO NISHIKURA","perfecture_jp":"北海道","jp_add_1":"網走郡大空町","jp_add_2":"東藻琴西倉"},"0993234":{"post_code":"0993234","prefecture":"HOKKAIDO","city":"ABASHIRI GUN OZORA CHO","town":"HIGASHIMOKOTO FUKUTOMI","perfecture_jp":"北海道","jp_add_1":"網走郡大空町","jp_add_2":"東藻琴福富"},"0993224":{"post_code":"0993224","prefecture":"HOKKAIDO","city":"ABASHIRI GUN OZORA CHO","town":"HIGASHIMOKOTO MEISEI","perfecture_jp":"北海道","jp_add_1":"網走郡大空町","jp_add_2":"東藻琴明生"},"0993243":{"post_code":"0993243","prefecture":"HOKKAIDO","city":"ABASHIRI GUN OZORA CHO","town":"HIGASHIMOKOTO YAMAZONO","perfecture_jp":"北海道","jp_add_1":"網走郡大空町","jp_add_2":"東藻琴山園"},"0993225":{"post_code":"0993225","prefecture":"HOKKAIDO","city":"ABASHIRI GUN OZORA CHO","town":"HIGASHIMOKOTO(ASAHIDAI)","perfecture_jp":"北海道","jp_add_1":"網走郡大空町","jp_add_2":"東藻琴"},"0993233":{"post_code":"0993233","prefecture":"HOKKAIDO","city":"ABASHIRI GUN OZORA CHO","town":"HIGASHIMOKOTO(KAMIHIGASHI)","perfecture_jp":"北海道","jp_add_1":"網走郡大空町","jp_add_2":"東藻琴"},"0993211":{"post_code":"0993211","prefecture":"HOKKAIDO","city":"ABASHIRI GUN OZORA CHO","town":"HIGASHIMOKOTO(KITA1-KU)","perfecture_jp":"北海道","jp_add_1":"網走郡大空町","jp_add_2":"東藻琴"},"0993212":{"post_code":"0993212","prefecture":"HOKKAIDO","city":"ABASHIRI GUN OZORA CHO","town":"HIGASHIMOKOTO(KITA2-KU)","perfecture_jp":"北海道","jp_add_1":"網走郡大空町","jp_add_2":"東藻琴"},"0993213":{"post_code":"0993213","prefecture":"HOKKAIDO","city":"ABASHIRI GUN OZORA CHO","town":"HIGASHIMOKOTO(CHUOKU)","perfecture_jp":"北海道","jp_add_1":"網走郡大空町","jp_add_2":"東藻琴"},"0993201":{"post_code":"0993201","prefecture":"HOKKAIDO","city":"ABASHIRI GUN OZORA CHO","town":"HIGASHIMOKOTO(NISHIKU)","perfecture_jp":"北海道","jp_add_1":"網走郡大空町","jp_add_2":"東藻琴"},"0993223":{"post_code":"0993223","prefecture":"HOKKAIDO","city":"ABASHIRI GUN OZORA CHO","town":"HIGASHIMOKOTO(HIGASHIKU)","perfecture_jp":"北海道","jp_add_1":"網走郡大空町","jp_add_2":"東藻琴"},"0993214":{"post_code":"0993214","prefecture":"HOKKAIDO","city":"ABASHIRI GUN OZORA CHO","town":"HIGASHIMOKOTO(MINAMIKU)","perfecture_jp":"北海道","jp_add_1":"網走郡大空町","jp_add_2":"東藻琴"},"0993244":{"post_code":"0993244","prefecture":"HOKKAIDO","city":"ABASHIRI GUN OZORA CHO","town":"HIGASHIMOKOTO(SONOTA)","perfecture_jp":"北海道","jp_add_1":"網走郡大空町","jp_add_2":"東藻琴"},"0992362":{"post_code":"0992362","prefecture":"HOKKAIDO","city":"ABASHIRI GUN OZORA CHO","town":"MEMAMBETSU ASAHI","perfecture_jp":"北海道","jp_add_1":"網走郡大空町","jp_add_2":"女満別朝日"},"0992382":{"post_code":"0992382","prefecture":"HOKKAIDO","city":"ABASHIRI GUN OZORA CHO","town":"MEMAMBETSU KAIYO","perfecture_jp":"北海道","jp_add_1":"網走郡大空町","jp_add_2":"女満別開陽"},"0992304":{"post_code":"0992304","prefecture":"HOKKAIDO","city":"ABASHIRI GUN OZORA CHO","town":"MEMAMBETSU KOEN","perfecture_jp":"北海道","jp_add_1":"網走郡大空町","jp_add_2":"女満別公園"},"0992351":{"post_code":"0992351","prefecture":"HOKKAIDO","city":"ABASHIRI GUN OZORA CHO","town":"MEMAMBETSU KOENDORI","perfecture_jp":"北海道","jp_add_1":"網走郡大空町","jp_add_2":"女満別公園通"},"0992361":{"post_code":"0992361","prefecture":"HOKKAIDO","city":"ABASHIRI GUN OZORA CHO","town":"MEMAMBETSU KONAN","perfecture_jp":"北海道","jp_add_1":"網走郡大空町","jp_add_2":"女満別湖南"},"0992306":{"post_code":"0992306","prefecture":"HOKKAIDO","city":"ABASHIRI GUN OZORA CHO","town":"MEMAMBETSU KOHAN","perfecture_jp":"北海道","jp_add_1":"網走郡大空町","jp_add_2":"女満別湖畔"},"0992356":{"post_code":"0992356","prefecture":"HOKKAIDO","city":"ABASHIRI GUN OZORA CHO","town":"MEMAMBETSU SHOWA","perfecture_jp":"北海道","jp_add_1":"網走郡大空町","jp_add_2":"女満別昭和"},"0992302":{"post_code":"0992302","prefecture":"HOKKAIDO","city":"ABASHIRI GUN OZORA CHO","town":"MEMAMBETSU SUMIYOSHI","perfecture_jp":"北海道","jp_add_1":"網走郡大空町","jp_add_2":"女満別住吉"},"0992381":{"post_code":"0992381","prefecture":"HOKKAIDO","city":"ABASHIRI GUN OZORA CHO","town":"MEMAMBETSU TAISEI","perfecture_jp":"北海道","jp_add_1":"網走郡大空町","jp_add_2":"女満別大成"},"0992372":{"post_code":"0992372","prefecture":"HOKKAIDO","city":"ABASHIRI GUN OZORA CHO","town":"MEMAMBETSU DAITO","perfecture_jp":"北海道","jp_add_1":"網走郡大空町","jp_add_2":"女満別大東"},"0992371":{"post_code":"0992371","prefecture":"HOKKAIDO","city":"ABASHIRI GUN OZORA CHO","town":"MEMAMBETSU CHUO","perfecture_jp":"北海道","jp_add_1":"網走郡大空町","jp_add_2":"女満別中央"},"0992354":{"post_code":"0992354","prefecture":"HOKKAIDO","city":"ABASHIRI GUN OZORA CHO","town":"MEMAMBETSU CHOKODAI","perfecture_jp":"北海道","jp_add_1":"網走郡大空町","jp_add_2":"女満別眺湖台"},"0992305":{"post_code":"0992305","prefecture":"HOKKAIDO","city":"ABASHIRI GUN OZORA CHO","town":"MEMAMBETSU TOYO","perfecture_jp":"北海道","jp_add_1":"網走郡大空町","jp_add_2":"女満別東陽"},"0992373":{"post_code":"0992373","prefecture":"HOKKAIDO","city":"ABASHIRI GUN OZORA CHO","town":"MEMAMBETSU TOMOEZAWA","perfecture_jp":"北海道","jp_add_1":"網走郡大空町","jp_add_2":"女満別巴沢"},"0992303":{"post_code":"0992303","prefecture":"HOKKAIDO","city":"ABASHIRI GUN OZORA CHO","town":"MEMAMBETSU TOYOSATO","perfecture_jp":"北海道","jp_add_1":"網走郡大空町","jp_add_2":"女満別豊里"},"0992321":{"post_code":"0992321","prefecture":"HOKKAIDO","city":"ABASHIRI GUN OZORA CHO","town":"MEMAMBETSU NISHI1-JO","perfecture_jp":"北海道","jp_add_1":"網走郡大空町","jp_add_2":"女満別西一条"},"0992322":{"post_code":"0992322","prefecture":"HOKKAIDO","city":"ABASHIRI GUN OZORA CHO","town":"MEMAMBETSU NISHI2-JO","perfecture_jp":"北海道","jp_add_1":"網走郡大空町","jp_add_2":"女満別西二条"},"0992323":{"post_code":"0992323","prefecture":"HOKKAIDO","city":"ABASHIRI GUN OZORA CHO","town":"MEMAMBETSU NISHI3-JO","perfecture_jp":"北海道","jp_add_1":"網走郡大空町","jp_add_2":"女満別西三条"},"0992324":{"post_code":"0992324","prefecture":"HOKKAIDO","city":"ABASHIRI GUN OZORA CHO","town":"MEMAMBETSU NISHI4-JO","perfecture_jp":"北海道","jp_add_1":"網走郡大空町","jp_add_2":"女満別西四条"},"0992325":{"post_code":"0992325","prefecture":"HOKKAIDO","city":"ABASHIRI GUN OZORA CHO","town":"MEMAMBETSU NISHI5-JO","perfecture_jp":"北海道","jp_add_1":"網走郡大空町","jp_add_2":"女満別西五条"},"0992326":{"post_code":"0992326","prefecture":"HOKKAIDO","city":"ABASHIRI GUN OZORA CHO","town":"MEMAMBETSU NISHI6-JO","perfecture_jp":"北海道","jp_add_1":"網走郡大空町","jp_add_2":"女満別西六条"},"0992327":{"post_code":"0992327","prefecture":"HOKKAIDO","city":"ABASHIRI GUN OZORA CHO","town":"MEMAMBETSU NISHI7-JO","perfecture_jp":"北海道","jp_add_1":"網走郡大空町","jp_add_2":"女満別西七条"},"0992383":{"post_code":"0992383","prefecture":"HOKKAIDO","city":"ABASHIRI GUN OZORA CHO","town":"MEMAMBETSU NISSHIN","perfecture_jp":"北海道","jp_add_1":"網走郡大空町","jp_add_2":"女満別日進"},"0992311":{"post_code":"0992311","prefecture":"HOKKAIDO","city":"ABASHIRI GUN OZORA CHO","town":"MEMAMBETSU HIGASHI1-JO","perfecture_jp":"北海道","jp_add_1":"網走郡大空町","jp_add_2":"女満別東一条"},"0992312":{"post_code":"0992312","prefecture":"HOKKAIDO","city":"ABASHIRI GUN OZORA CHO","town":"MEMAMBETSU HIGASHI2-JO","perfecture_jp":"北海道","jp_add_1":"網走郡大空町","jp_add_2":"女満別東二条"},"0992301":{"post_code":"0992301","prefecture":"HOKKAIDO","city":"ABASHIRI GUN OZORA CHO","town":"MEMAMBETSU HONGO","perfecture_jp":"北海道","jp_add_1":"網走郡大空町","jp_add_2":"女満別本郷"},"0992310":{"post_code":"0992310","prefecture":"HOKKAIDO","city":"ABASHIRI GUN OZORA CHO","town":"MEMAMBETSU HONDORI","perfecture_jp":"北海道","jp_add_1":"網走郡大空町","jp_add_2":"女満別本通"},"0992355":{"post_code":"0992355","prefecture":"HOKKAIDO","city":"ABASHIRI GUN OZORA CHO","town":"MEMAMBETSU YUHIDAI","perfecture_jp":"北海道","jp_add_1":"網走郡大空町","jp_add_2":"女満別夕陽台"}}