{"1000000":{"post_code":"1000000","prefecture":"TOKYO TO","city":"CHIYODA KU","town":"IKANIKEISAIGANAIBAAI","perfecture_jp":"東京都","jp_add_1":"千代田区","jp_add_2":""},"1000011":{"post_code":"1000011","prefecture":"TOKYO TO","city":"CHIYODA KU","town":"UCHISAIWAICHO","perfecture_jp":"東京都","jp_add_1":"千代田区","jp_add_2":"内幸町"},"1000004":{"post_code":"1000004","prefecture":"TOKYO TO","city":"CHIYODA KU","town":"OTEMACHI (TSUGINOBIRUONOZOKU)","perfecture_jp":"東京都","jp_add_1":"千代田区","jp_add_2":"大手町"},"1006890":{"post_code":"1006890","prefecture":"TOKYO TO","city":"CHIYODA KU","town":"OTEMACHI JIEIEIBIRU(CHIKAI.KAISOFUM","perfecture_jp":"東京都","jp_add_1":"千代田区","jp_add_2":"大手町ＪＡビル"},"1006801":{"post_code":"1006801","prefecture":"TOKYO TO","city":"CHIYODA KU","town":"OTEMACHI JIEIEIBIRU(1-KAI)","perfecture_jp":"東京都","jp_add_1":"千代田区","jp_add_2":"大手町ＪＡビル１階"},"1006802":{"post_code":"1006802","prefecture":"TOKYO TO","city":"CHIYODA KU","town":"OTEMACHI JIEIEIBIRU(2-KAI)","perfecture_jp":"東京都","jp_add_1":"千代田区","jp_add_2":"大手町ＪＡビル２階"},"1006803":{"post_code":"1006803","prefecture":"TOKYO TO","city":"CHIYODA KU","town":"OTEMACHI JIEIEIBIRU(3-KAI)","perfecture_jp":"東京都","jp_add_1":"千代田区","jp_add_2":"大手町ＪＡビル３階"},"1006804":{"post_code":"1006804","prefecture":"TOKYO TO","city":"CHIYODA KU","town":"OTEMACHI JIEIEIBIRU(4-KAI)","perfecture_jp":"東京都","jp_add_1":"千代田区","jp_add_2":"大手町ＪＡビル４階"},"1006805":{"post_code":"1006805","prefecture":"TOKYO TO","city":"CHIYODA KU","town":"OTEMACHI JIEIEIBIRU(5-KAI)","perfecture_jp":"東京都","jp_add_1":"千代田区","jp_add_2":"大手町ＪＡビル５階"},"1006806":{"post_code":"1006806","prefecture":"TOKYO TO","city":"CHIYODA KU","town":"OTEMACHI JIEIEIBIRU(6-KAI)","perfecture_jp":"東京都","jp_add_1":"千代田区","jp_add_2":"大手町ＪＡビル６階"},"1006807":{"post_code":"1006807","prefecture":"TOKYO TO","city":"CHIYODA KU","town":"OTEMACHI JIEIEIBIRU(7-KAI)","perfecture_jp":"東京都","jp_add_1":"千代田区","jp_add_2":"大手町ＪＡビル７階"},"1006808":{"post_code":"1006808","prefecture":"TOKYO TO","city":"CHIYODA KU","town":"OTEMACHI JIEIEIBIRU(8-KAI)","perfecture_jp":"東京都","jp_add_1":"千代田区","jp_add_2":"大手町ＪＡビル８階"},"1006809":{"post_code":"1006809","prefecture":"TOKYO TO","city":"CHIYODA KU","town":"OTEMACHI JIEIEIBIRU(9-KAI)","perfecture_jp":"東京都","jp_add_1":"千代田区","jp_add_2":"大手町ＪＡビル９階"},"1006810":{"post_code":"1006810","prefecture":"TOKYO TO","city":"CHIYODA KU","town":"OTEMACHI JIEIEIBIRU(10-KAI)","perfecture_jp":"東京都","jp_add_1":"千代田区","jp_add_2":"大手町ＪＡビル１０階"},"1006811":{"post_code":"1006811","prefecture":"TOKYO TO","city":"CHIYODA KU","town":"OTEMACHI JIEIEIBIRU(11-KAI)","perfecture_jp":"東京都","jp_add_1":"千代田区","jp_add_2":"大手町ＪＡビル１１階"},"1006812":{"post_code":"1006812","prefecture":"TOKYO TO","city":"CHIYODA KU","town":"OTEMACHI JIEIEIBIRU(12-KAI)","perfecture_jp":"東京都","jp_add_1":"千代田区","jp_add_2":"大手町ＪＡビル１２階"},"1006813":{"post_code":"1006813","prefecture":"TOKYO TO","city":"CHIYODA KU","town":"OTEMACHI JIEIEIBIRU(13-KAI)","perfecture_jp":"東京都","jp_add_1":"千代田区","jp_add_2":"大手町ＪＡビル１３階"},"1006814":{"post_code":"1006814","prefecture":"TOKYO TO","city":"CHIYODA KU","town":"OTEMACHI JIEIEIBIRU(14-KAI)","perfecture_jp":"東京都","jp_add_1":"千代田区","jp_add_2":"大手町ＪＡビル１４階"},"1006815":{"post_code":"1006815","prefecture":"TOKYO TO","city":"CHIYODA KU","town":"OTEMACHI JIEIEIBIRU(15-KAI)","perfecture_jp":"東京都","jp_add_1":"千代田区","jp_add_2":"大手町ＪＡビル１５階"},"1006816":{"post_code":"1006816","prefecture":"TOKYO TO","city":"CHIYODA KU","town":"OTEMACHI JIEIEIBIRU(16-KAI)","perfecture_jp":"東京都","jp_add_1":"千代田区","jp_add_2":"大手町ＪＡビル１６階"},"1006817":{"post_code":"1006817","prefecture":"TOKYO TO","city":"CHIYODA KU","town":"OTEMACHI JIEIEIBIRU(17-KAI)","perfecture_jp":"東京都","jp_add_1":"千代田区","jp_add_2":"大手町ＪＡビル１７階"},"1006818":{"post_code":"1006818","prefecture":"TOKYO TO","city":"CHIYODA KU","town":"OTEMACHI JIEIEIBIRU(18-KAI)","perfecture_jp":"東京都","jp_add_1":"千代田区","jp_add_2":"大手町ＪＡビル１８階"},"1006819":{"post_code":"1006819","prefecture":"TOKYO TO","city":"CHIYODA KU","town":"OTEMACHI JIEIEIBIRU(19-KAI)","perfecture_jp":"東京都","jp_add_1":"千代田区","jp_add_2":"大手町ＪＡビル１９階"},"1006820":{"post_code":"1006820","prefecture":"TOKYO TO","city":"CHIYODA KU","town":"OTEMACHI JIEIEIBIRU(20-KAI)","perfecture_jp":"東京都","jp_add_1":"千代田区","jp_add_2":"大手町ＪＡビル２０階"},"1006821":{"post_code":"1006821","prefecture":"TOKYO TO","city":"CHIYODA KU","town":"OTEMACHI JIEIEIBIRU(21-KAI)","perfecture_jp":"東京都","jp_add_1":"千代田区","jp_add_2":"大手町ＪＡビル２１階"},"1006822":{"post_code":"1006822","prefecture":"TOKYO TO","city":"CHIYODA KU","town":"OTEMACHI JIEIEIBIRU(22-KAI)","perfecture_jp":"東京都","jp_add_1":"千代田区","jp_add_2":"大手町ＪＡビル２２階"},"1006823":{"post_code":"1006823","prefecture":"TOKYO TO","city":"CHIYODA KU","town":"OTEMACHI JIEIEIBIRU(23-KAI)","perfecture_jp":"東京都","jp_add_1":"千代田区","jp_add_2":"大手町ＪＡビル２３階"},"1006824":{"post_code":"1006824","prefecture":"TOKYO TO","city":"CHIYODA KU","town":"OTEMACHI JIEIEIBIRU(24-KAI)","perfecture_jp":"東京都","jp_add_1":"千代田区","jp_add_2":"大手町ＪＡビル２４階"},"1006825":{"post_code":"1006825","prefecture":"TOKYO TO","city":"CHIYODA KU","town":"OTEMACHI JIEIEIBIRU(25-KAI)","perfecture_jp":"東京都","jp_add_1":"千代田区","jp_add_2":"大手町ＪＡビル２５階"},"1006826":{"post_code":"1006826","prefecture":"TOKYO TO","city":"CHIYODA KU","town":"OTEMACHI JIEIEIBIRU(26-KAI)","perfecture_jp":"東京都","jp_add_1":"千代田区","jp_add_2":"大手町ＪＡビル２６階"},"1006827":{"post_code":"1006827","prefecture":"TOKYO TO","city":"CHIYODA KU","town":"OTEMACHI JIEIEIBIRU(27-KAI)","perfecture_jp":"東京都","jp_add_1":"千代田区","jp_add_2":"大手町ＪＡビル２７階"},"1006828":{"post_code":"1006828","prefecture":"TOKYO TO","city":"CHIYODA KU","town":"OTEMACHI JIEIEIBIRU(28-KAI)","perfecture_jp":"東京都","jp_add_1":"千代田区","jp_add_2":"大手町ＪＡビル２８階"},"1006829":{"post_code":"1006829","prefecture":"TOKYO TO","city":"CHIYODA KU","town":"OTEMACHI JIEIEIBIRU(29-KAI)","perfecture_jp":"東京都","jp_add_1":"千代田区","jp_add_2":"大手町ＪＡビル２９階"},"1006830":{"post_code":"1006830","prefecture":"TOKYO TO","city":"CHIYODA KU","town":"OTEMACHI JIEIEIBIRU(30-KAI)","perfecture_jp":"東京都","jp_add_1":"千代田区","jp_add_2":"大手町ＪＡビル３０階"},"1006831":{"post_code":"1006831","prefecture":"TOKYO TO","city":"CHIYODA KU","town":"OTEMACHI JIEIEIBIRU(31-KAI)","perfecture_jp":"東京都","jp_add_1":"千代田区","jp_add_2":"大手町ＪＡビル３１階"},"1006832":{"post_code":"1006832","prefecture":"TOKYO TO","city":"CHIYODA KU","town":"OTEMACHI JIEIEIBIRU(32-KAI)","perfecture_jp":"東京都","jp_add_1":"千代田区","jp_add_2":"大手町ＪＡビル３２階"},"1006833":{"post_code":"1006833","prefecture":"TOKYO TO","city":"CHIYODA KU","town":"OTEMACHI JIEIEIBIRU(33-KAI)","perfecture_jp":"東京都","jp_add_1":"千代田区","jp_add_2":"大手町ＪＡビル３３階"},"1006834":{"post_code":"1006834","prefecture":"TOKYO TO","city":"CHIYODA KU","town":"OTEMACHI JIEIEIBIRU(34-KAI)","perfecture_jp":"東京都","jp_add_1":"千代田区","jp_add_2":"大手町ＪＡビル３４階"},"1006835":{"post_code":"1006835","prefecture":"TOKYO TO","city":"CHIYODA KU","town":"OTEMACHI JIEIEIBIRU(35-KAI)","perfecture_jp":"東京都","jp_add_1":"千代田区","jp_add_2":"大手町ＪＡビル３５階"},"1006836":{"post_code":"1006836","prefecture":"TOKYO TO","city":"CHIYODA KU","town":"OTEMACHI JIEIEIBIRU(36-KAI)","perfecture_jp":"東京都","jp_add_1":"千代田区","jp_add_2":"大手町ＪＡビル３６階"},"1006837":{"post_code":"1006837","prefecture":"TOKYO TO","city":"CHIYODA KU","town":"OTEMACHI JIEIEIBIRU(37-KAI)","perfecture_jp":"東京都","jp_add_1":"千代田区","jp_add_2":"大手町ＪＡビル３７階"},"1000013":{"post_code":"1000013","prefecture":"TOKYO TO","city":"CHIYODA KU","town":"KASUMIGASEKI (TSUGINOBIRUONOZOKU)","perfecture_jp":"東京都","jp_add_1":"千代田区","jp_add_2":"霞が関"},"1006090":{"post_code":"1006090","prefecture":"TOKYO TO","city":"CHIYODA KU","town":"KASUMIGASEKI KASUMIGASEKIBIRU(CHIKA","perfecture_jp":"東京都","jp_add_1":"千代田区","jp_add_2":"霞が関霞が関ビル"},"1006001":{"post_code":"1006001","prefecture":"TOKYO TO","city":"CHIYODA KU","town":"KASUMIGASEKI KASUMIGASEKIBIRU(1-KAI","perfecture_jp":"東京都","jp_add_1":"千代田区","jp_add_2":"霞が関霞が関ビル１階"},"1006002":{"post_code":"1006002","prefecture":"TOKYO TO","city":"CHIYODA KU","town":"KASUMIGASEKI KASUMIGASEKIBIRU(2-KAI","perfecture_jp":"東京都","jp_add_1":"千代田区","jp_add_2":"霞が関霞が関ビル２階"},"1006003":{"post_code":"1006003","prefecture":"TOKYO TO","city":"CHIYODA KU","town":"KASUMIGASEKI KASUMIGASEKIBIRU(3-KAI","perfecture_jp":"東京都","jp_add_1":"千代田区","jp_add_2":"霞が関霞が関ビル３階"},"1006004":{"post_code":"1006004","prefecture":"TOKYO TO","city":"CHIYODA KU","town":"KASUMIGASEKI KASUMIGASEKIBIRU(4-KAI","perfecture_jp":"東京都","jp_add_1":"千代田区","jp_add_2":"霞が関霞が関ビル４階"},"1006005":{"post_code":"1006005","prefecture":"TOKYO TO","city":"CHIYODA KU","town":"KASUMIGASEKI KASUMIGASEKIBIRU(5-KAI","perfecture_jp":"東京都","jp_add_1":"千代田区","jp_add_2":"霞が関霞が関ビル５階"},"1006006":{"post_code":"1006006","prefecture":"TOKYO TO","city":"CHIYODA KU","town":"KASUMIGASEKI KASUMIGASEKIBIRU(6-KAI","perfecture_jp":"東京都","jp_add_1":"千代田区","jp_add_2":"霞が関霞が関ビル６階"},"1006007":{"post_code":"1006007","prefecture":"TOKYO TO","city":"CHIYODA KU","town":"KASUMIGASEKI KASUMIGASEKIBIRU(7-KAI","perfecture_jp":"東京都","jp_add_1":"千代田区","jp_add_2":"霞が関霞が関ビル７階"},"1006008":{"post_code":"1006008","prefecture":"TOKYO TO","city":"CHIYODA KU","town":"KASUMIGASEKI KASUMIGASEKIBIRU(8-KAI","perfecture_jp":"東京都","jp_add_1":"千代田区","jp_add_2":"霞が関霞が関ビル８階"},"1006009":{"post_code":"1006009","prefecture":"TOKYO TO","city":"CHIYODA KU","town":"KASUMIGASEKI KASUMIGASEKIBIRU(9-KAI","perfecture_jp":"東京都","jp_add_1":"千代田区","jp_add_2":"霞が関霞が関ビル９階"},"1006010":{"post_code":"1006010","prefecture":"TOKYO TO","city":"CHIYODA KU","town":"KASUMIGASEKI KASUMIGASEKIBIRU(10-KA","perfecture_jp":"東京都","jp_add_1":"千代田区","jp_add_2":"霞が関霞が関ビル１０階"},"1006011":{"post_code":"1006011","prefecture":"TOKYO TO","city":"CHIYODA KU","town":"KASUMIGASEKI KASUMIGASEKIBIRU(11-KA","perfecture_jp":"東京都","jp_add_1":"千代田区","jp_add_2":"霞が関霞が関ビル１１階"},"1006012":{"post_code":"1006012","prefecture":"TOKYO TO","city":"CHIYODA KU","town":"KASUMIGASEKI KASUMIGASEKIBIRU(12-KA","perfecture_jp":"東京都","jp_add_1":"千代田区","jp_add_2":"霞が関霞が関ビル１２階"},"1006013":{"post_code":"1006013","prefecture":"TOKYO TO","city":"CHIYODA KU","town":"KASUMIGASEKI KASUMIGASEKIBIRU(13-KA","perfecture_jp":"東京都","jp_add_1":"千代田区","jp_add_2":"霞が関霞が関ビル１３階"},"1006014":{"post_code":"1006014","prefecture":"TOKYO TO","city":"CHIYODA KU","town":"KASUMIGASEKI KASUMIGASEKIBIRU(14-KA","perfecture_jp":"東京都","jp_add_1":"千代田区","jp_add_2":"霞が関霞が関ビル１４階"},"1006015":{"post_code":"1006015","prefecture":"TOKYO TO","city":"CHIYODA KU","town":"KASUMIGASEKI KASUMIGASEKIBIRU(15-KA","perfecture_jp":"東京都","jp_add_1":"千代田区","jp_add_2":"霞が関霞が関ビル１５階"},"1006016":{"post_code":"1006016","prefecture":"TOKYO TO","city":"CHIYODA KU","town":"KASUMIGASEKI KASUMIGASEKIBIRU(16-KA","perfecture_jp":"東京都","jp_add_1":"千代田区","jp_add_2":"霞が関霞が関ビル１６階"},"1006017":{"post_code":"1006017","prefecture":"TOKYO TO","city":"CHIYODA KU","town":"KASUMIGASEKI KASUMIGASEKIBIRU(17-KA","perfecture_jp":"東京都","jp_add_1":"千代田区","jp_add_2":"霞が関霞が関ビル１７階"},"1006018":{"post_code":"1006018","prefecture":"TOKYO TO","city":"CHIYODA KU","town":"KASUMIGASEKI KASUMIGASEKIBIRU(18-KA","perfecture_jp":"東京都","jp_add_1":"千代田区","jp_add_2":"霞が関霞が関ビル１８階"},"1006019":{"post_code":"1006019","prefecture":"TOKYO TO","city":"CHIYODA KU","town":"KASUMIGASEKI KASUMIGASEKIBIRU(19-KA","perfecture_jp":"東京都","jp_add_1":"千代田区","jp_add_2":"霞が関霞が関ビル１９階"},"1006020":{"post_code":"1006020","prefecture":"TOKYO TO","city":"CHIYODA KU","town":"KASUMIGASEKI KASUMIGASEKIBIRU(20-KA","perfecture_jp":"東京都","jp_add_1":"千代田区","jp_add_2":"霞が関霞が関ビル２０階"},"1006021":{"post_code":"1006021","prefecture":"TOKYO TO","city":"CHIYODA KU","town":"KASUMIGASEKI KASUMIGASEKIBIRU(21-KA","perfecture_jp":"東京都","jp_add_1":"千代田区","jp_add_2":"霞が関霞が関ビル２１階"},"1006022":{"post_code":"1006022","prefecture":"TOKYO TO","city":"CHIYODA KU","town":"KASUMIGASEKI KASUMIGASEKIBIRU(22-KA","perfecture_jp":"東京都","jp_add_1":"千代田区","jp_add_2":"霞が関霞が関ビル２２階"},"1006023":{"post_code":"1006023","prefecture":"TOKYO TO","city":"CHIYODA KU","town":"KASUMIGASEKI KASUMIGASEKIBIRU(23-KA","perfecture_jp":"東京都","jp_add_1":"千代田区","jp_add_2":"霞が関霞が関ビル２３階"},"1006024":{"post_code":"1006024","prefecture":"TOKYO TO","city":"CHIYODA KU","town":"KASUMIGASEKI KASUMIGASEKIBIRU(24-KA","perfecture_jp":"東京都","jp_add_1":"千代田区","jp_add_2":"霞が関霞が関ビル２４階"},"1006025":{"post_code":"1006025","prefecture":"TOKYO TO","city":"CHIYODA KU","town":"KASUMIGASEKI KASUMIGASEKIBIRU(25-KA","perfecture_jp":"東京都","jp_add_1":"千代田区","jp_add_2":"霞が関霞が関ビル２５階"},"1006026":{"post_code":"1006026","prefecture":"TOKYO TO","city":"CHIYODA KU","town":"KASUMIGASEKI KASUMIGASEKIBIRU(26-KA","perfecture_jp":"東京都","jp_add_1":"千代田区","jp_add_2":"霞が関霞が関ビル２６階"},"1006027":{"post_code":"1006027","prefecture":"TOKYO TO","city":"CHIYODA KU","town":"KASUMIGASEKI KASUMIGASEKIBIRU(27-KA","perfecture_jp":"東京都","jp_add_1":"千代田区","jp_add_2":"霞が関霞が関ビル２７階"},"1006028":{"post_code":"1006028","prefecture":"TOKYO TO","city":"CHIYODA KU","town":"KASUMIGASEKI KASUMIGASEKIBIRU(28-KA","perfecture_jp":"東京都","jp_add_1":"千代田区","jp_add_2":"霞が関霞が関ビル２８階"},"1006029":{"post_code":"1006029","prefecture":"TOKYO TO","city":"CHIYODA KU","town":"KASUMIGASEKI KASUMIGASEKIBIRU(29-KA","perfecture_jp":"東京都","jp_add_1":"千代田区","jp_add_2":"霞が関霞が関ビル２９階"},"1006030":{"post_code":"1006030","prefecture":"TOKYO TO","city":"CHIYODA KU","town":"KASUMIGASEKI KASUMIGASEKIBIRU(30-KA","perfecture_jp":"東京都","jp_add_1":"千代田区","jp_add_2":"霞が関霞が関ビル３０階"},"1006031":{"post_code":"1006031","prefecture":"TOKYO TO","city":"CHIYODA KU","town":"KASUMIGASEKI KASUMIGASEKIBIRU(31-KA","perfecture_jp":"東京都","jp_add_1":"千代田区","jp_add_2":"霞が関霞が関ビル３１階"},"1006032":{"post_code":"1006032","prefecture":"TOKYO TO","city":"CHIYODA KU","town":"KASUMIGASEKI KASUMIGASEKIBIRU(32-KA","perfecture_jp":"東京都","jp_add_1":"千代田区","jp_add_2":"霞が関霞が関ビル３２階"},"1006033":{"post_code":"1006033","prefecture":"TOKYO TO","city":"CHIYODA KU","town":"KASUMIGASEKI KASUMIGASEKIBIRU(33-KA","perfecture_jp":"東京都","jp_add_1":"千代田区","jp_add_2":"霞が関霞が関ビル３３階"},"1006034":{"post_code":"1006034","prefecture":"TOKYO TO","city":"CHIYODA KU","town":"KASUMIGASEKI KASUMIGASEKIBIRU(34-KA","perfecture_jp":"東京都","jp_add_1":"千代田区","jp_add_2":"霞が関霞が関ビル３４階"},"1006035":{"post_code":"1006035","prefecture":"TOKYO TO","city":"CHIYODA KU","town":"KASUMIGASEKI KASUMIGASEKIBIRU(35-KA","perfecture_jp":"東京都","jp_add_1":"千代田区","jp_add_2":"霞が関霞が関ビル３５階"},"1006036":{"post_code":"1006036","prefecture":"TOKYO TO","city":"CHIYODA KU","town":"KASUMIGASEKI KASUMIGASEKIBIRU(36-KA","perfecture_jp":"東京都","jp_add_1":"千代田区","jp_add_2":"霞が関霞が関ビル３６階"},"1000002":{"post_code":"1000002","prefecture":"TOKYO TO","city":"CHIYODA KU","town":"KOKYOGAIEN","perfecture_jp":"東京都","jp_add_1":"千代田区","jp_add_2":"皇居外苑"},"1000001":{"post_code":"1000001","prefecture":"TOKYO TO","city":"CHIYODA KU","town":"CHIYODA","perfecture_jp":"東京都","jp_add_1":"千代田区","jp_add_2":"千代田"},"1000014":{"post_code":"1000014","prefecture":"TOKYO TO","city":"CHIYODA KU","town":"NAGATACHO (TSUGINOBIRUONOZOKU)","perfecture_jp":"東京都","jp_add_1":"千代田区","jp_add_2":"永田町"},"1006190":{"post_code":"1006190","prefecture":"TOKYO TO","city":"CHIYODA KU","town":"NAGATACHO SANNOPAKUTAWA(CHIKAI.KAIS","perfecture_jp":"東京都","jp_add_1":"千代田区","jp_add_2":"永田町山王パークタワー"},"1006101":{"post_code":"1006101","prefecture":"TOKYO TO","city":"CHIYODA KU","town":"NAGATACHO SANNOPAKUTAWA(1-KAI)","perfecture_jp":"東京都","jp_add_1":"千代田区","jp_add_2":"永田町山王パークタワー１階"},"1006102":{"post_code":"1006102","prefecture":"TOKYO TO","city":"CHIYODA KU","town":"NAGATACHO SANNOPAKUTAWA(2-KAI)","perfecture_jp":"東京都","jp_add_1":"千代田区","jp_add_2":"永田町山王パークタワー２階"},"1006103":{"post_code":"1006103","prefecture":"TOKYO TO","city":"CHIYODA KU","town":"NAGATACHO SANNOPAKUTAWA(3-KAI)","perfecture_jp":"東京都","jp_add_1":"千代田区","jp_add_2":"永田町山王パークタワー３階"},"1006104":{"post_code":"1006104","prefecture":"TOKYO TO","city":"CHIYODA KU","town":"NAGATACHO SANNOPAKUTAWA(4-KAI)","perfecture_jp":"東京都","jp_add_1":"千代田区","jp_add_2":"永田町山王パークタワー４階"},"1006105":{"post_code":"1006105","prefecture":"TOKYO TO","city":"CHIYODA KU","town":"NAGATACHO SANNOPAKUTAWA(5-KAI)","perfecture_jp":"東京都","jp_add_1":"千代田区","jp_add_2":"永田町山王パークタワー５階"},"1006106":{"post_code":"1006106","prefecture":"TOKYO TO","city":"CHIYODA KU","town":"NAGATACHO SANNOPAKUTAWA(6-KAI)","perfecture_jp":"東京都","jp_add_1":"千代田区","jp_add_2":"永田町山王パークタワー６階"},"1006107":{"post_code":"1006107","prefecture":"TOKYO TO","city":"CHIYODA KU","town":"NAGATACHO SANNOPAKUTAWA(7-KAI)","perfecture_jp":"東京都","jp_add_1":"千代田区","jp_add_2":"永田町山王パークタワー７階"},"1006108":{"post_code":"1006108","prefecture":"TOKYO TO","city":"CHIYODA KU","town":"NAGATACHO SANNOPAKUTAWA(8-KAI)","perfecture_jp":"東京都","jp_add_1":"千代田区","jp_add_2":"永田町山王パークタワー８階"},"1006109":{"post_code":"1006109","prefecture":"TOKYO TO","city":"CHIYODA KU","town":"NAGATACHO SANNOPAKUTAWA(9-KAI)","perfecture_jp":"東京都","jp_add_1":"千代田区","jp_add_2":"永田町山王パークタワー９階"},"1006110":{"post_code":"1006110","prefecture":"TOKYO TO","city":"CHIYODA KU","town":"NAGATACHO SANNOPAKUTAWA(10-KAI)","perfecture_jp":"東京都","jp_add_1":"千代田区","jp_add_2":"永田町山王パークタワー１０階"},"1006111":{"post_code":"1006111","prefecture":"TOKYO TO","city":"CHIYODA KU","town":"NAGATACHO SANNOPAKUTAWA(11-KAI)","perfecture_jp":"東京都","jp_add_1":"千代田区","jp_add_2":"永田町山王パークタワー１１階"},"1006112":{"post_code":"1006112","prefecture":"TOKYO TO","city":"CHIYODA KU","town":"NAGATACHO SANNOPAKUTAWA(12-KAI)","perfecture_jp":"東京都","jp_add_1":"千代田区","jp_add_2":"永田町山王パークタワー１２階"},"1006113":{"post_code":"1006113","prefecture":"TOKYO TO","city":"CHIYODA KU","town":"NAGATACHO SANNOPAKUTAWA(13-KAI)","perfecture_jp":"東京都","jp_add_1":"千代田区","jp_add_2":"永田町山王パークタワー１３階"},"1006114":{"post_code":"1006114","prefecture":"TOKYO TO","city":"CHIYODA KU","town":"NAGATACHO SANNOPAKUTAWA(14-KAI)","perfecture_jp":"東京都","jp_add_1":"千代田区","jp_add_2":"永田町山王パークタワー１４階"},"1006115":{"post_code":"1006115","prefecture":"TOKYO TO","city":"CHIYODA KU","town":"NAGATACHO SANNOPAKUTAWA(15-KAI)","perfecture_jp":"東京都","jp_add_1":"千代田区","jp_add_2":"永田町山王パークタワー１５階"},"1006116":{"post_code":"1006116","prefecture":"TOKYO TO","city":"CHIYODA KU","town":"NAGATACHO SANNOPAKUTAWA(16-KAI)","perfecture_jp":"東京都","jp_add_1":"千代田区","jp_add_2":"永田町山王パークタワー１６階"},"1006117":{"post_code":"1006117","prefecture":"TOKYO TO","city":"CHIYODA KU","town":"NAGATACHO SANNOPAKUTAWA(17-KAI)","perfecture_jp":"東京都","jp_add_1":"千代田区","jp_add_2":"永田町山王パークタワー１７階"},"1006118":{"post_code":"1006118","prefecture":"TOKYO TO","city":"CHIYODA KU","town":"NAGATACHO SANNOPAKUTAWA(18-KAI)","perfecture_jp":"東京都","jp_add_1":"千代田区","jp_add_2":"永田町山王パークタワー１８階"},"1006119":{"post_code":"1006119","prefecture":"TOKYO TO","city":"CHIYODA KU","town":"NAGATACHO SANNOPAKUTAWA(19-KAI)","perfecture_jp":"東京都","jp_add_1":"千代田区","jp_add_2":"永田町山王パークタワー１９階"},"1006120":{"post_code":"1006120","prefecture":"TOKYO TO","city":"CHIYODA KU","town":"NAGATACHO SANNOPAKUTAWA(20-KAI)","perfecture_jp":"東京都","jp_add_1":"千代田区","jp_add_2":"永田町山王パークタワー２０階"},"1006121":{"post_code":"1006121","prefecture":"TOKYO TO","city":"CHIYODA KU","town":"NAGATACHO SANNOPAKUTAWA(21-KAI)","perfecture_jp":"東京都","jp_add_1":"千代田区","jp_add_2":"永田町山王パークタワー２１階"},"1006122":{"post_code":"1006122","prefecture":"TOKYO TO","city":"CHIYODA KU","town":"NAGATACHO SANNOPAKUTAWA(22-KAI)","perfecture_jp":"東京都","jp_add_1":"千代田区","jp_add_2":"永田町山王パークタワー２２階"},"1006123":{"post_code":"1006123","prefecture":"TOKYO TO","city":"CHIYODA KU","town":"NAGATACHO SANNOPAKUTAWA(23-KAI)","perfecture_jp":"東京都","jp_add_1":"千代田区","jp_add_2":"永田町山王パークタワー２３階"},"1006124":{"post_code":"1006124","prefecture":"TOKYO TO","city":"CHIYODA KU","town":"NAGATACHO SANNOPAKUTAWA(24-KAI)","perfecture_jp":"東京都","jp_add_1":"千代田区","jp_add_2":"永田町山王パークタワー２４階"},"1006125":{"post_code":"1006125","prefecture":"TOKYO TO","city":"CHIYODA KU","town":"NAGATACHO SANNOPAKUTAWA(25-KAI)","perfecture_jp":"東京都","jp_add_1":"千代田区","jp_add_2":"永田町山王パークタワー２５階"},"1006126":{"post_code":"1006126","prefecture":"TOKYO TO","city":"CHIYODA KU","town":"NAGATACHO SANNOPAKUTAWA(26-KAI)","perfecture_jp":"東京都","jp_add_1":"千代田区","jp_add_2":"永田町山王パークタワー２６階"},"1006127":{"post_code":"1006127","prefecture":"TOKYO TO","city":"CHIYODA KU","town":"NAGATACHO SANNOPAKUTAWA(27-KAI)","perfecture_jp":"東京都","jp_add_1":"千代田区","jp_add_2":"永田町山王パークタワー２７階"},"1006128":{"post_code":"1006128","prefecture":"TOKYO TO","city":"CHIYODA KU","town":"NAGATACHO SANNOPAKUTAWA(28-KAI)","perfecture_jp":"東京都","jp_add_1":"千代田区","jp_add_2":"永田町山王パークタワー２８階"},"1006129":{"post_code":"1006129","prefecture":"TOKYO TO","city":"CHIYODA KU","town":"NAGATACHO SANNOPAKUTAWA(29-KAI)","perfecture_jp":"東京都","jp_add_1":"千代田区","jp_add_2":"永田町山王パークタワー２９階"},"1006130":{"post_code":"1006130","prefecture":"TOKYO TO","city":"CHIYODA KU","town":"NAGATACHO SANNOPAKUTAWA(30-KAI)","perfecture_jp":"東京都","jp_add_1":"千代田区","jp_add_2":"永田町山王パークタワー３０階"},"1006131":{"post_code":"1006131","prefecture":"TOKYO TO","city":"CHIYODA KU","town":"NAGATACHO SANNOPAKUTAWA(31-KAI)","perfecture_jp":"東京都","jp_add_1":"千代田区","jp_add_2":"永田町山王パークタワー３１階"},"1006132":{"post_code":"1006132","prefecture":"TOKYO TO","city":"CHIYODA KU","town":"NAGATACHO SANNOPAKUTAWA(32-KAI)","perfecture_jp":"東京都","jp_add_1":"千代田区","jp_add_2":"永田町山王パークタワー３２階"},"1006133":{"post_code":"1006133","prefecture":"TOKYO TO","city":"CHIYODA KU","town":"NAGATACHO SANNOPAKUTAWA(33-KAI)","perfecture_jp":"東京都","jp_add_1":"千代田区","jp_add_2":"永田町山王パークタワー３３階"},"1006134":{"post_code":"1006134","prefecture":"TOKYO TO","city":"CHIYODA KU","town":"NAGATACHO SANNOPAKUTAWA(34-KAI)","perfecture_jp":"東京都","jp_add_1":"千代田区","jp_add_2":"永田町山王パークタワー３４階"},"1006135":{"post_code":"1006135","prefecture":"TOKYO TO","city":"CHIYODA KU","town":"NAGATACHO SANNOPAKUTAWA(35-KAI)","perfecture_jp":"東京都","jp_add_1":"千代田区","jp_add_2":"永田町山王パークタワー３５階"},"1006136":{"post_code":"1006136","prefecture":"TOKYO TO","city":"CHIYODA KU","town":"NAGATACHO SANNOPAKUTAWA(36-KAI)","perfecture_jp":"東京都","jp_add_1":"千代田区","jp_add_2":"永田町山王パークタワー３６階"},"1006137":{"post_code":"1006137","prefecture":"TOKYO TO","city":"CHIYODA KU","town":"NAGATACHO SANNOPAKUTAWA(37-KAI)","perfecture_jp":"東京都","jp_add_1":"千代田区","jp_add_2":"永田町山王パークタワー３７階"},"1006138":{"post_code":"1006138","prefecture":"TOKYO TO","city":"CHIYODA KU","town":"NAGATACHO SANNOPAKUTAWA(38-KAI)","perfecture_jp":"東京都","jp_add_1":"千代田区","jp_add_2":"永田町山王パークタワー３８階"},"1006139":{"post_code":"1006139","prefecture":"TOKYO TO","city":"CHIYODA KU","town":"NAGATACHO SANNOPAKUTAWA(39-KAI)","perfecture_jp":"東京都","jp_add_1":"千代田区","jp_add_2":"永田町山王パークタワー３９階"},"1006140":{"post_code":"1006140","prefecture":"TOKYO TO","city":"CHIYODA KU","town":"NAGATACHO SANNOPAKUTAWA(40-KAI)","perfecture_jp":"東京都","jp_add_1":"千代田区","jp_add_2":"永田町山王パークタワー４０階"},"1006141":{"post_code":"1006141","prefecture":"TOKYO TO","city":"CHIYODA KU","town":"NAGATACHO SANNOPAKUTAWA(41-KAI)","perfecture_jp":"東京都","jp_add_1":"千代田区","jp_add_2":"永田町山王パークタワー４１階"},"1006142":{"post_code":"1006142","prefecture":"TOKYO TO","city":"CHIYODA KU","town":"NAGATACHO SANNOPAKUTAWA(42-KAI)","perfecture_jp":"東京都","jp_add_1":"千代田区","jp_add_2":"永田町山王パークタワー４２階"},"1006143":{"post_code":"1006143","prefecture":"TOKYO TO","city":"CHIYODA KU","town":"NAGATACHO SANNOPAKUTAWA(43-KAI)","perfecture_jp":"東京都","jp_add_1":"千代田区","jp_add_2":"永田町山王パークタワー４３階"},"1006144":{"post_code":"1006144","prefecture":"TOKYO TO","city":"CHIYODA KU","town":"NAGATACHO SANNOPAKUTAWA(44-KAI)","perfecture_jp":"東京都","jp_add_1":"千代田区","jp_add_2":"永田町山王パークタワー４４階"},"1000003":{"post_code":"1000003","prefecture":"TOKYO TO","city":"CHIYODA KU","town":"HITOTSUBASHI(1-CHOME)","perfecture_jp":"東京都","jp_add_1":"千代田区","jp_add_2":"一ツ橋"},"1000012":{"post_code":"1000012","prefecture":"TOKYO TO","city":"CHIYODA KU","town":"HIBIYAKOEN","perfecture_jp":"東京都","jp_add_1":"千代田区","jp_add_2":"日比谷公園"},"1000005":{"post_code":"1000005","prefecture":"TOKYO TO","city":"CHIYODA KU","town":"MARUNOCHI (TSUGINOBIRUONOZOKU)","perfecture_jp":"東京都","jp_add_1":"千代田区","jp_add_2":"丸の内"},"1006690":{"post_code":"1006690","prefecture":"TOKYO TO","city":"CHIYODA KU","town":"MARUNOCHI GURANTOKYO SAUSUTAWA(CHIK","perfecture_jp":"東京都","jp_add_1":"千代田区","jp_add_2":"丸の内グラントウキョウサウスタワー"},"1006601":{"post_code":"1006601","prefecture":"TOKYO TO","city":"CHIYODA KU","town":"MARUNOCHI GURANTOKYO SAUSUTAWA(1-KA","perfecture_jp":"東京都","jp_add_1":"千代田区","jp_add_2":"丸の内グラントウキョウサウスタワー１階"},"1006602":{"post_code":"1006602","prefecture":"TOKYO TO","city":"CHIYODA KU","town":"MARUNOCHI GURANTOKYO SAUSUTAWA(2-KA","perfecture_jp":"東京都","jp_add_1":"千代田区","jp_add_2":"丸の内グラントウキョウサウスタワー２階"},"1006603":{"post_code":"1006603","prefecture":"TOKYO TO","city":"CHIYODA KU","town":"MARUNOCHI GURANTOKYO SAUSUTAWA(3-KA","perfecture_jp":"東京都","jp_add_1":"千代田区","jp_add_2":"丸の内グラントウキョウサウスタワー３階"},"1006604":{"post_code":"1006604","prefecture":"TOKYO TO","city":"CHIYODA KU","town":"MARUNOCHI GURANTOKYO SAUSUTAWA(4-KA","perfecture_jp":"東京都","jp_add_1":"千代田区","jp_add_2":"丸の内グラントウキョウサウスタワー４階"},"1006605":{"post_code":"1006605","prefecture":"TOKYO TO","city":"CHIYODA KU","town":"MARUNOCHI GURANTOKYO SAUSUTAWA(5-KA","perfecture_jp":"東京都","jp_add_1":"千代田区","jp_add_2":"丸の内グラントウキョウサウスタワー５階"},"1006606":{"post_code":"1006606","prefecture":"TOKYO TO","city":"CHIYODA KU","town":"MARUNOCHI GURANTOKYO SAUSUTAWA(6-KA","perfecture_jp":"東京都","jp_add_1":"千代田区","jp_add_2":"丸の内グラントウキョウサウスタワー６階"},"1006607":{"post_code":"1006607","prefecture":"TOKYO TO","city":"CHIYODA KU","town":"MARUNOCHI GURANTOKYO SAUSUTAWA(7-KA","perfecture_jp":"東京都","jp_add_1":"千代田区","jp_add_2":"丸の内グラントウキョウサウスタワー７階"},"1006608":{"post_code":"1006608","prefecture":"TOKYO TO","city":"CHIYODA KU","town":"MARUNOCHI GURANTOKYO SAUSUTAWA(8-KA","perfecture_jp":"東京都","jp_add_1":"千代田区","jp_add_2":"丸の内グラントウキョウサウスタワー８階"},"1006609":{"post_code":"1006609","prefecture":"TOKYO TO","city":"CHIYODA KU","town":"MARUNOCHI GURANTOKYO SAUSUTAWA(9-KA","perfecture_jp":"東京都","jp_add_1":"千代田区","jp_add_2":"丸の内グラントウキョウサウスタワー９階"},"1006610":{"post_code":"1006610","prefecture":"TOKYO TO","city":"CHIYODA KU","town":"MARUNOCHI GURANTOKYO SAUSUTAWA(10-K","perfecture_jp":"東京都","jp_add_1":"千代田区","jp_add_2":"丸の内グラントウキョウサウスタワー１０階"},"1006611":{"post_code":"1006611","prefecture":"TOKYO TO","city":"CHIYODA KU","town":"MARUNOCHI GURANTOKYO SAUSUTAWA(11-K","perfecture_jp":"東京都","jp_add_1":"千代田区","jp_add_2":"丸の内グラントウキョウサウスタワー１１階"},"1006612":{"post_code":"1006612","prefecture":"TOKYO TO","city":"CHIYODA KU","town":"MARUNOCHI GURANTOKYO SAUSUTAWA(12-K","perfecture_jp":"東京都","jp_add_1":"千代田区","jp_add_2":"丸の内グラントウキョウサウスタワー１２階"},"1006613":{"post_code":"1006613","prefecture":"TOKYO TO","city":"CHIYODA KU","town":"MARUNOCHI GURANTOKYO SAUSUTAWA(13-K","perfecture_jp":"東京都","jp_add_1":"千代田区","jp_add_2":"丸の内グラントウキョウサウスタワー１３階"},"1006614":{"post_code":"1006614","prefecture":"TOKYO TO","city":"CHIYODA KU","town":"MARUNOCHI GURANTOKYO SAUSUTAWA(14-K","perfecture_jp":"東京都","jp_add_1":"千代田区","jp_add_2":"丸の内グラントウキョウサウスタワー１４階"},"1006615":{"post_code":"1006615","prefecture":"TOKYO TO","city":"CHIYODA KU","town":"MARUNOCHI GURANTOKYO SAUSUTAWA(15-K","perfecture_jp":"東京都","jp_add_1":"千代田区","jp_add_2":"丸の内グラントウキョウサウスタワー１５階"},"1006616":{"post_code":"1006616","prefecture":"TOKYO TO","city":"CHIYODA KU","town":"MARUNOCHI GURANTOKYO SAUSUTAWA(16-K","perfecture_jp":"東京都","jp_add_1":"千代田区","jp_add_2":"丸の内グラントウキョウサウスタワー１６階"},"1006617":{"post_code":"1006617","prefecture":"TOKYO TO","city":"CHIYODA KU","town":"MARUNOCHI GURANTOKYO SAUSUTAWA(17-K","perfecture_jp":"東京都","jp_add_1":"千代田区","jp_add_2":"丸の内グラントウキョウサウスタワー１７階"},"1006618":{"post_code":"1006618","prefecture":"TOKYO TO","city":"CHIYODA KU","town":"MARUNOCHI GURANTOKYO SAUSUTAWA(18-K","perfecture_jp":"東京都","jp_add_1":"千代田区","jp_add_2":"丸の内グラントウキョウサウスタワー１８階"},"1006619":{"post_code":"1006619","prefecture":"TOKYO TO","city":"CHIYODA KU","town":"MARUNOCHI GURANTOKYO SAUSUTAWA(19-K","perfecture_jp":"東京都","jp_add_1":"千代田区","jp_add_2":"丸の内グラントウキョウサウスタワー１９階"},"1006620":{"post_code":"1006620","prefecture":"TOKYO TO","city":"CHIYODA KU","town":"MARUNOCHI GURANTOKYO SAUSUTAWA(20-K","perfecture_jp":"東京都","jp_add_1":"千代田区","jp_add_2":"丸の内グラントウキョウサウスタワー２０階"},"1006621":{"post_code":"1006621","prefecture":"TOKYO TO","city":"CHIYODA KU","town":"MARUNOCHI GURANTOKYO SAUSUTAWA(21-K","perfecture_jp":"東京都","jp_add_1":"千代田区","jp_add_2":"丸の内グラントウキョウサウスタワー２１階"},"1006622":{"post_code":"1006622","prefecture":"TOKYO TO","city":"CHIYODA KU","town":"MARUNOCHI GURANTOKYO SAUSUTAWA(22-K","perfecture_jp":"東京都","jp_add_1":"千代田区","jp_add_2":"丸の内グラントウキョウサウスタワー２２階"},"1006623":{"post_code":"1006623","prefecture":"TOKYO TO","city":"CHIYODA KU","town":"MARUNOCHI GURANTOKYO SAUSUTAWA(23-K","perfecture_jp":"東京都","jp_add_1":"千代田区","jp_add_2":"丸の内グラントウキョウサウスタワー２３階"},"1006624":{"post_code":"1006624","prefecture":"TOKYO TO","city":"CHIYODA KU","town":"MARUNOCHI GURANTOKYO SAUSUTAWA(24-K","perfecture_jp":"東京都","jp_add_1":"千代田区","jp_add_2":"丸の内グラントウキョウサウスタワー２４階"},"1006625":{"post_code":"1006625","prefecture":"TOKYO TO","city":"CHIYODA KU","town":"MARUNOCHI GURANTOKYO SAUSUTAWA(25-K","perfecture_jp":"東京都","jp_add_1":"千代田区","jp_add_2":"丸の内グラントウキョウサウスタワー２５階"},"1006626":{"post_code":"1006626","prefecture":"TOKYO TO","city":"CHIYODA KU","town":"MARUNOCHI GURANTOKYO SAUSUTAWA(26-K","perfecture_jp":"東京都","jp_add_1":"千代田区","jp_add_2":"丸の内グラントウキョウサウスタワー２６階"},"1006627":{"post_code":"1006627","prefecture":"TOKYO TO","city":"CHIYODA KU","town":"MARUNOCHI GURANTOKYO SAUSUTAWA(27-K","perfecture_jp":"東京都","jp_add_1":"千代田区","jp_add_2":"丸の内グラントウキョウサウスタワー２７階"},"1006628":{"post_code":"1006628","prefecture":"TOKYO TO","city":"CHIYODA KU","town":"MARUNOCHI GURANTOKYO SAUSUTAWA(28-K","perfecture_jp":"東京都","jp_add_1":"千代田区","jp_add_2":"丸の内グラントウキョウサウスタワー２８階"},"1006629":{"post_code":"1006629","prefecture":"TOKYO TO","city":"CHIYODA KU","town":"MARUNOCHI GURANTOKYO SAUSUTAWA(29-K","perfecture_jp":"東京都","jp_add_1":"千代田区","jp_add_2":"丸の内グラントウキョウサウスタワー２９階"},"1006630":{"post_code":"1006630","prefecture":"TOKYO TO","city":"CHIYODA KU","town":"MARUNOCHI GURANTOKYO SAUSUTAWA(30-K","perfecture_jp":"東京都","jp_add_1":"千代田区","jp_add_2":"丸の内グラントウキョウサウスタワー３０階"},"1006631":{"post_code":"1006631","prefecture":"TOKYO TO","city":"CHIYODA KU","town":"MARUNOCHI GURANTOKYO SAUSUTAWA(31-K","perfecture_jp":"東京都","jp_add_1":"千代田区","jp_add_2":"丸の内グラントウキョウサウスタワー３１階"},"1006632":{"post_code":"1006632","prefecture":"TOKYO TO","city":"CHIYODA KU","town":"MARUNOCHI GURANTOKYO SAUSUTAWA(32-K","perfecture_jp":"東京都","jp_add_1":"千代田区","jp_add_2":"丸の内グラントウキョウサウスタワー３２階"},"1006633":{"post_code":"1006633","prefecture":"TOKYO TO","city":"CHIYODA KU","town":"MARUNOCHI GURANTOKYO SAUSUTAWA(33-K","perfecture_jp":"東京都","jp_add_1":"千代田区","jp_add_2":"丸の内グラントウキョウサウスタワー３３階"},"1006634":{"post_code":"1006634","prefecture":"TOKYO TO","city":"CHIYODA KU","town":"MARUNOCHI GURANTOKYO SAUSUTAWA(34-K","perfecture_jp":"東京都","jp_add_1":"千代田区","jp_add_2":"丸の内グラントウキョウサウスタワー３４階"},"1006635":{"post_code":"1006635","prefecture":"TOKYO TO","city":"CHIYODA KU","town":"MARUNOCHI GURANTOKYO SAUSUTAWA(35-K","perfecture_jp":"東京都","jp_add_1":"千代田区","jp_add_2":"丸の内グラントウキョウサウスタワー３５階"},"1006636":{"post_code":"1006636","prefecture":"TOKYO TO","city":"CHIYODA KU","town":"MARUNOCHI GURANTOKYO SAUSUTAWA(36-K","perfecture_jp":"東京都","jp_add_1":"千代田区","jp_add_2":"丸の内グラントウキョウサウスタワー３６階"},"1006637":{"post_code":"1006637","prefecture":"TOKYO TO","city":"CHIYODA KU","town":"MARUNOCHI GURANTOKYO SAUSUTAWA(37-K","perfecture_jp":"東京都","jp_add_1":"千代田区","jp_add_2":"丸の内グラントウキョウサウスタワー３７階"},"1006638":{"post_code":"1006638","prefecture":"TOKYO TO","city":"CHIYODA KU","town":"MARUNOCHI GURANTOKYO SAUSUTAWA(38-K","perfecture_jp":"東京都","jp_add_1":"千代田区","jp_add_2":"丸の内グラントウキョウサウスタワー３８階"},"1006639":{"post_code":"1006639","prefecture":"TOKYO TO","city":"CHIYODA KU","town":"MARUNOCHI GURANTOKYO SAUSUTAWA(39-K","perfecture_jp":"東京都","jp_add_1":"千代田区","jp_add_2":"丸の内グラントウキョウサウスタワー３９階"},"1006640":{"post_code":"1006640","prefecture":"TOKYO TO","city":"CHIYODA KU","town":"MARUNOCHI GURANTOKYO SAUSUTAWA(40-K","perfecture_jp":"東京都","jp_add_1":"千代田区","jp_add_2":"丸の内グラントウキョウサウスタワー４０階"},"1006641":{"post_code":"1006641","prefecture":"TOKYO TO","city":"CHIYODA KU","town":"MARUNOCHI GURANTOKYO SAUSUTAWA(41-K","perfecture_jp":"東京都","jp_add_1":"千代田区","jp_add_2":"丸の内グラントウキョウサウスタワー４１階"},"1006642":{"post_code":"1006642","prefecture":"TOKYO TO","city":"CHIYODA KU","town":"MARUNOCHI GURANTOKYO SAUSUTAWA(42-K","perfecture_jp":"東京都","jp_add_1":"千代田区","jp_add_2":"丸の内グラントウキョウサウスタワー４２階"},"1006790":{"post_code":"1006790","prefecture":"TOKYO TO","city":"CHIYODA KU","town":"MARUNOCHI GURANTOKYO NOSUTAWA(CHIKA","perfecture_jp":"東京都","jp_add_1":"千代田区","jp_add_2":"丸の内グラントウキョウノースタワー"},"1006701":{"post_code":"1006701","prefecture":"TOKYO TO","city":"CHIYODA KU","town":"MARUNOCHI GURANTOKYO NOSUTAWA(1-KAI","perfecture_jp":"東京都","jp_add_1":"千代田区","jp_add_2":"丸の内グラントウキョウノースタワー１階"},"1006702":{"post_code":"1006702","prefecture":"TOKYO TO","city":"CHIYODA KU","town":"MARUNOCHI GURANTOKYO NOSUTAWA(2-KAI","perfecture_jp":"東京都","jp_add_1":"千代田区","jp_add_2":"丸の内グラントウキョウノースタワー２階"},"1006703":{"post_code":"1006703","prefecture":"TOKYO TO","city":"CHIYODA KU","town":"MARUNOCHI GURANTOKYO NOSUTAWA(3-KAI","perfecture_jp":"東京都","jp_add_1":"千代田区","jp_add_2":"丸の内グラントウキョウノースタワー３階"},"1006704":{"post_code":"1006704","prefecture":"TOKYO TO","city":"CHIYODA KU","town":"MARUNOCHI GURANTOKYO NOSUTAWA(4-KAI","perfecture_jp":"東京都","jp_add_1":"千代田区","jp_add_2":"丸の内グラントウキョウノースタワー４階"},"1006705":{"post_code":"1006705","prefecture":"TOKYO TO","city":"CHIYODA KU","town":"MARUNOCHI GURANTOKYO NOSUTAWA(5-KAI","perfecture_jp":"東京都","jp_add_1":"千代田区","jp_add_2":"丸の内グラントウキョウノースタワー５階"},"1006706":{"post_code":"1006706","prefecture":"TOKYO TO","city":"CHIYODA KU","town":"MARUNOCHI GURANTOKYO NOSUTAWA(6-KAI","perfecture_jp":"東京都","jp_add_1":"千代田区","jp_add_2":"丸の内グラントウキョウノースタワー６階"},"1006707":{"post_code":"1006707","prefecture":"TOKYO TO","city":"CHIYODA KU","town":"MARUNOCHI GURANTOKYO NOSUTAWA(7-KAI","perfecture_jp":"東京都","jp_add_1":"千代田区","jp_add_2":"丸の内グラントウキョウノースタワー７階"},"1006708":{"post_code":"1006708","prefecture":"TOKYO TO","city":"CHIYODA KU","town":"MARUNOCHI GURANTOKYO NOSUTAWA(8-KAI","perfecture_jp":"東京都","jp_add_1":"千代田区","jp_add_2":"丸の内グラントウキョウノースタワー８階"},"1006709":{"post_code":"1006709","prefecture":"TOKYO TO","city":"CHIYODA KU","town":"MARUNOCHI GURANTOKYO NOSUTAWA(9-KAI","perfecture_jp":"東京都","jp_add_1":"千代田区","jp_add_2":"丸の内グラントウキョウノースタワー９階"},"1006710":{"post_code":"1006710","prefecture":"TOKYO TO","city":"CHIYODA KU","town":"MARUNOCHI GURANTOKYO NOSUTAWA(10-KA","perfecture_jp":"東京都","jp_add_1":"千代田区","jp_add_2":"丸の内グラントウキョウノースタワー１０階"},"1006711":{"post_code":"1006711","prefecture":"TOKYO TO","city":"CHIYODA KU","town":"MARUNOCHI GURANTOKYO NOSUTAWA(11-KA","perfecture_jp":"東京都","jp_add_1":"千代田区","jp_add_2":"丸の内グラントウキョウノースタワー１１階"},"1006712":{"post_code":"1006712","prefecture":"TOKYO TO","city":"CHIYODA KU","town":"MARUNOCHI GURANTOKYO NOSUTAWA(12-KA","perfecture_jp":"東京都","jp_add_1":"千代田区","jp_add_2":"丸の内グラントウキョウノースタワー１２階"},"1006713":{"post_code":"1006713","prefecture":"TOKYO TO","city":"CHIYODA KU","town":"MARUNOCHI GURANTOKYO NOSUTAWA(13-KA","perfecture_jp":"東京都","jp_add_1":"千代田区","jp_add_2":"丸の内グラントウキョウノースタワー１３階"},"1006714":{"post_code":"1006714","prefecture":"TOKYO TO","city":"CHIYODA KU","town":"MARUNOCHI GURANTOKYO NOSUTAWA(14-KA","perfecture_jp":"東京都","jp_add_1":"千代田区","jp_add_2":"丸の内グラントウキョウノースタワー１４階"},"1006715":{"post_code":"1006715","prefecture":"TOKYO TO","city":"CHIYODA KU","town":"MARUNOCHI GURANTOKYO NOSUTAWA(15-KA","perfecture_jp":"東京都","jp_add_1":"千代田区","jp_add_2":"丸の内グラントウキョウノースタワー１５階"},"1006716":{"post_code":"1006716","prefecture":"TOKYO TO","city":"CHIYODA KU","town":"MARUNOCHI GURANTOKYO NOSUTAWA(16-KA","perfecture_jp":"東京都","jp_add_1":"千代田区","jp_add_2":"丸の内グラントウキョウノースタワー１６階"},"1006717":{"post_code":"1006717","prefecture":"TOKYO TO","city":"CHIYODA KU","town":"MARUNOCHI GURANTOKYO NOSUTAWA(17-KA","perfecture_jp":"東京都","jp_add_1":"千代田区","jp_add_2":"丸の内グラントウキョウノースタワー１７階"},"1006718":{"post_code":"1006718","prefecture":"TOKYO TO","city":"CHIYODA KU","town":"MARUNOCHI GURANTOKYO NOSUTAWA(18-KA","perfecture_jp":"東京都","jp_add_1":"千代田区","jp_add_2":"丸の内グラントウキョウノースタワー１８階"},"1006719":{"post_code":"1006719","prefecture":"TOKYO TO","city":"CHIYODA KU","town":"MARUNOCHI GURANTOKYO NOSUTAWA(19-KA","perfecture_jp":"東京都","jp_add_1":"千代田区","jp_add_2":"丸の内グラントウキョウノースタワー１９階"},"1006720":{"post_code":"1006720","prefecture":"TOKYO TO","city":"CHIYODA KU","town":"MARUNOCHI GURANTOKYO NOSUTAWA(20-KA","perfecture_jp":"東京都","jp_add_1":"千代田区","jp_add_2":"丸の内グラントウキョウノースタワー２０階"},"1006721":{"post_code":"1006721","prefecture":"TOKYO TO","city":"CHIYODA KU","town":"MARUNOCHI GURANTOKYO NOSUTAWA(21-KA","perfecture_jp":"東京都","jp_add_1":"千代田区","jp_add_2":"丸の内グラントウキョウノースタワー２１階"},"1006722":{"post_code":"1006722","prefecture":"TOKYO TO","city":"CHIYODA KU","town":"MARUNOCHI GURANTOKYO NOSUTAWA(22-KA","perfecture_jp":"東京都","jp_add_1":"千代田区","jp_add_2":"丸の内グラントウキョウノースタワー２２階"},"1006723":{"post_code":"1006723","prefecture":"TOKYO TO","city":"CHIYODA KU","town":"MARUNOCHI GURANTOKYO NOSUTAWA(23-KA","perfecture_jp":"東京都","jp_add_1":"千代田区","jp_add_2":"丸の内グラントウキョウノースタワー２３階"},"1006724":{"post_code":"1006724","prefecture":"TOKYO TO","city":"CHIYODA KU","town":"MARUNOCHI GURANTOKYO NOSUTAWA(24-KA","perfecture_jp":"東京都","jp_add_1":"千代田区","jp_add_2":"丸の内グラントウキョウノースタワー２４階"},"1006725":{"post_code":"1006725","prefecture":"TOKYO TO","city":"CHIYODA KU","town":"MARUNOCHI GURANTOKYO NOSUTAWA(25-KA","perfecture_jp":"東京都","jp_add_1":"千代田区","jp_add_2":"丸の内グラントウキョウノースタワー２５階"},"1006726":{"post_code":"1006726","prefecture":"TOKYO TO","city":"CHIYODA KU","town":"MARUNOCHI GURANTOKYO NOSUTAWA(26-KA","perfecture_jp":"東京都","jp_add_1":"千代田区","jp_add_2":"丸の内グラントウキョウノースタワー２６階"},"1006727":{"post_code":"1006727","prefecture":"TOKYO TO","city":"CHIYODA KU","town":"MARUNOCHI GURANTOKYO NOSUTAWA(27-KA","perfecture_jp":"東京都","jp_add_1":"千代田区","jp_add_2":"丸の内グラントウキョウノースタワー２７階"},"1006728":{"post_code":"1006728","prefecture":"TOKYO TO","city":"CHIYODA KU","town":"MARUNOCHI GURANTOKYO NOSUTAWA(28-KA","perfecture_jp":"東京都","jp_add_1":"千代田区","jp_add_2":"丸の内グラントウキョウノースタワー２８階"},"1006729":{"post_code":"1006729","prefecture":"TOKYO TO","city":"CHIYODA KU","town":"MARUNOCHI GURANTOKYO NOSUTAWA(29-KA","perfecture_jp":"東京都","jp_add_1":"千代田区","jp_add_2":"丸の内グラントウキョウノースタワー２９階"},"1006730":{"post_code":"1006730","prefecture":"TOKYO TO","city":"CHIYODA KU","town":"MARUNOCHI GURANTOKYO NOSUTAWA(30-KA","perfecture_jp":"東京都","jp_add_1":"千代田区","jp_add_2":"丸の内グラントウキョウノースタワー３０階"},"1006731":{"post_code":"1006731","prefecture":"TOKYO TO","city":"CHIYODA KU","town":"MARUNOCHI GURANTOKYO NOSUTAWA(31-KA","perfecture_jp":"東京都","jp_add_1":"千代田区","jp_add_2":"丸の内グラントウキョウノースタワー３１階"},"1006732":{"post_code":"1006732","prefecture":"TOKYO TO","city":"CHIYODA KU","town":"MARUNOCHI GURANTOKYO NOSUTAWA(32-KA","perfecture_jp":"東京都","jp_add_1":"千代田区","jp_add_2":"丸の内グラントウキョウノースタワー３２階"},"1006733":{"post_code":"1006733","prefecture":"TOKYO TO","city":"CHIYODA KU","town":"MARUNOCHI GURANTOKYO NOSUTAWA(33-KA","perfecture_jp":"東京都","jp_add_1":"千代田区","jp_add_2":"丸の内グラントウキョウノースタワー３３階"},"1006734":{"post_code":"1006734","prefecture":"TOKYO TO","city":"CHIYODA KU","town":"MARUNOCHI GURANTOKYO NOSUTAWA(34-KA","perfecture_jp":"東京都","jp_add_1":"千代田区","jp_add_2":"丸の内グラントウキョウノースタワー３４階"},"1006735":{"post_code":"1006735","prefecture":"TOKYO TO","city":"CHIYODA KU","town":"MARUNOCHI GURANTOKYO NOSUTAWA(35-KA","perfecture_jp":"東京都","jp_add_1":"千代田区","jp_add_2":"丸の内グラントウキョウノースタワー３５階"},"1006736":{"post_code":"1006736","prefecture":"TOKYO TO","city":"CHIYODA KU","town":"MARUNOCHI GURANTOKYO NOSUTAWA(36-KA","perfecture_jp":"東京都","jp_add_1":"千代田区","jp_add_2":"丸の内グラントウキョウノースタワー３６階"},"1006737":{"post_code":"1006737","prefecture":"TOKYO TO","city":"CHIYODA KU","town":"MARUNOCHI GURANTOKYO NOSUTAWA(37-KA","perfecture_jp":"東京都","jp_add_1":"千代田区","jp_add_2":"丸の内グラントウキョウノースタワー３７階"},"1006738":{"post_code":"1006738","prefecture":"TOKYO TO","city":"CHIYODA KU","town":"MARUNOCHI GURANTOKYO NOSUTAWA(38-KA","perfecture_jp":"東京都","jp_add_1":"千代田区","jp_add_2":"丸の内グラントウキョウノースタワー３８階"},"1006739":{"post_code":"1006739","prefecture":"TOKYO TO","city":"CHIYODA KU","town":"MARUNOCHI GURANTOKYO NOSUTAWA(39-KA","perfecture_jp":"東京都","jp_add_1":"千代田区","jp_add_2":"丸の内グラントウキョウノースタワー３９階"},"1006740":{"post_code":"1006740","prefecture":"TOKYO TO","city":"CHIYODA KU","town":"MARUNOCHI GURANTOKYO NOSUTAWA(40-KA","perfecture_jp":"東京都","jp_add_1":"千代田区","jp_add_2":"丸の内グラントウキョウノースタワー４０階"},"1006741":{"post_code":"1006741","prefecture":"TOKYO TO","city":"CHIYODA KU","town":"MARUNOCHI GURANTOKYO NOSUTAWA(41-KA","perfecture_jp":"東京都","jp_add_1":"千代田区","jp_add_2":"丸の内グラントウキョウノースタワー４１階"},"1006742":{"post_code":"1006742","prefecture":"TOKYO TO","city":"CHIYODA KU","town":"MARUNOCHI GURANTOKYO NOSUTAWA(42-KA","perfecture_jp":"東京都","jp_add_1":"千代田区","jp_add_2":"丸の内グラントウキョウノースタワー４２階"},"1006743":{"post_code":"1006743","prefecture":"TOKYO TO","city":"CHIYODA KU","town":"MARUNOCHI GURANTOKYO NOSUTAWA(43-KA","perfecture_jp":"東京都","jp_add_1":"千代田区","jp_add_2":"丸の内グラントウキョウノースタワー４３階"},"1007090":{"post_code":"1007090","prefecture":"TOKYO TO","city":"CHIYODA KU","town":"MARUNOCHI JIEIPITAWA(CHIKAI.KAISOFU","perfecture_jp":"東京都","jp_add_1":"千代田区","jp_add_2":"丸の内ＪＰタワー"},"1007001":{"post_code":"1007001","prefecture":"TOKYO TO","city":"CHIYODA KU","town":"MARUNOCHI JIEIPITAWA(1-KAI)","perfecture_jp":"東京都","jp_add_1":"千代田区","jp_add_2":"丸の内ＪＰタワー１階"},"1007002":{"post_code":"1007002","prefecture":"TOKYO TO","city":"CHIYODA KU","town":"MARUNOCHI JIEIPITAWA(2-KAI)","perfecture_jp":"東京都","jp_add_1":"千代田区","jp_add_2":"丸の内ＪＰタワー２階"},"1007003":{"post_code":"1007003","prefecture":"TOKYO TO","city":"CHIYODA KU","town":"MARUNOCHI JIEIPITAWA(3-KAI)","perfecture_jp":"東京都","jp_add_1":"千代田区","jp_add_2":"丸の内ＪＰタワー３階"},"1007004":{"post_code":"1007004","prefecture":"TOKYO TO","city":"CHIYODA KU","town":"MARUNOCHI JIEIPITAWA(4-KAI)","perfecture_jp":"東京都","jp_add_1":"千代田区","jp_add_2":"丸の内ＪＰタワー４階"},"1007005":{"post_code":"1007005","prefecture":"TOKYO TO","city":"CHIYODA KU","town":"MARUNOCHI JIEIPITAWA(5-KAI)","perfecture_jp":"東京都","jp_add_1":"千代田区","jp_add_2":"丸の内ＪＰタワー５階"},"1007006":{"post_code":"1007006","prefecture":"TOKYO TO","city":"CHIYODA KU","town":"MARUNOCHI JIEIPITAWA(6-KAI)","perfecture_jp":"東京都","jp_add_1":"千代田区","jp_add_2":"丸の内ＪＰタワー６階"},"1007007":{"post_code":"1007007","prefecture":"TOKYO TO","city":"CHIYODA KU","town":"MARUNOCHI JIEIPITAWA(7-KAI)","perfecture_jp":"東京都","jp_add_1":"千代田区","jp_add_2":"丸の内ＪＰタワー７階"},"1007008":{"post_code":"1007008","prefecture":"TOKYO TO","city":"CHIYODA KU","town":"MARUNOCHI JIEIPITAWA(8-KAI)","perfecture_jp":"東京都","jp_add_1":"千代田区","jp_add_2":"丸の内ＪＰタワー８階"},"1007009":{"post_code":"1007009","prefecture":"TOKYO TO","city":"CHIYODA KU","town":"MARUNOCHI JIEIPITAWA(9-KAI)","perfecture_jp":"東京都","jp_add_1":"千代田区","jp_add_2":"丸の内ＪＰタワー９階"},"1007010":{"post_code":"1007010","prefecture":"TOKYO TO","city":"CHIYODA KU","town":"MARUNOCHI JIEIPITAWA(10-KAI)","perfecture_jp":"東京都","jp_add_1":"千代田区","jp_add_2":"丸の内ＪＰタワー１０階"},"1007011":{"post_code":"1007011","prefecture":"TOKYO TO","city":"CHIYODA KU","town":"MARUNOCHI JIEIPITAWA(11-KAI)","perfecture_jp":"東京都","jp_add_1":"千代田区","jp_add_2":"丸の内ＪＰタワー１１階"},"1007012":{"post_code":"1007012","prefecture":"TOKYO TO","city":"CHIYODA KU","town":"MARUNOCHI JIEIPITAWA(12-KAI)","perfecture_jp":"東京都","jp_add_1":"千代田区","jp_add_2":"丸の内ＪＰタワー１２階"},"1007013":{"post_code":"1007013","prefecture":"TOKYO TO","city":"CHIYODA KU","town":"MARUNOCHI JIEIPITAWA(13-KAI)","perfecture_jp":"東京都","jp_add_1":"千代田区","jp_add_2":"丸の内ＪＰタワー１３階"},"1007014":{"post_code":"1007014","prefecture":"TOKYO TO","city":"CHIYODA KU","town":"MARUNOCHI JIEIPITAWA(14-KAI)","perfecture_jp":"東京都","jp_add_1":"千代田区","jp_add_2":"丸の内ＪＰタワー１４階"},"1007015":{"post_code":"1007015","prefecture":"TOKYO TO","city":"CHIYODA KU","town":"MARUNOCHI JIEIPITAWA(15-KAI)","perfecture_jp":"東京都","jp_add_1":"千代田区","jp_add_2":"丸の内ＪＰタワー１５階"},"1007016":{"post_code":"1007016","prefecture":"TOKYO TO","city":"CHIYODA KU","town":"MARUNOCHI JIEIPITAWA(16-KAI)","perfecture_jp":"東京都","jp_add_1":"千代田区","jp_add_2":"丸の内ＪＰタワー１６階"},"1007017":{"post_code":"1007017","prefecture":"TOKYO TO","city":"CHIYODA KU","town":"MARUNOCHI JIEIPITAWA(17-KAI)","perfecture_jp":"東京都","jp_add_1":"千代田区","jp_add_2":"丸の内ＪＰタワー１７階"},"1007018":{"post_code":"1007018","prefecture":"TOKYO TO","city":"CHIYODA KU","town":"MARUNOCHI JIEIPITAWA(18-KAI)","perfecture_jp":"東京都","jp_add_1":"千代田区","jp_add_2":"丸の内ＪＰタワー１８階"},"1007019":{"post_code":"1007019","prefecture":"TOKYO TO","city":"CHIYODA KU","town":"MARUNOCHI JIEIPITAWA(19-KAI)","perfecture_jp":"東京都","jp_add_1":"千代田区","jp_add_2":"丸の内ＪＰタワー１９階"},"1007020":{"post_code":"1007020","prefecture":"TOKYO TO","city":"CHIYODA KU","town":"MARUNOCHI JIEIPITAWA(20-KAI)","perfecture_jp":"東京都","jp_add_1":"千代田区","jp_add_2":"丸の内ＪＰタワー２０階"},"1007021":{"post_code":"1007021","prefecture":"TOKYO TO","city":"CHIYODA KU","town":"MARUNOCHI JIEIPITAWA(21-KAI)","perfecture_jp":"東京都","jp_add_1":"千代田区","jp_add_2":"丸の内ＪＰタワー２１階"},"1007022":{"post_code":"1007022","prefecture":"TOKYO TO","city":"CHIYODA KU","town":"MARUNOCHI JIEIPITAWA(22-KAI)","perfecture_jp":"東京都","jp_add_1":"千代田区","jp_add_2":"丸の内ＪＰタワー２２階"},"1007023":{"post_code":"1007023","prefecture":"TOKYO TO","city":"CHIYODA KU","town":"MARUNOCHI JIEIPITAWA(23-KAI)","perfecture_jp":"東京都","jp_add_1":"千代田区","jp_add_2":"丸の内ＪＰタワー２３階"},"1007024":{"post_code":"1007024","prefecture":"TOKYO TO","city":"CHIYODA KU","town":"MARUNOCHI JIEIPITAWA(24-KAI)","perfecture_jp":"東京都","jp_add_1":"千代田区","jp_add_2":"丸の内ＪＰタワー２４階"},"1007025":{"post_code":"1007025","prefecture":"TOKYO TO","city":"CHIYODA KU","town":"MARUNOCHI JIEIPITAWA(25-KAI)","perfecture_jp":"東京都","jp_add_1":"千代田区","jp_add_2":"丸の内ＪＰタワー２５階"},"1007026":{"post_code":"1007026","prefecture":"TOKYO TO","city":"CHIYODA KU","town":"MARUNOCHI JIEIPITAWA(26-KAI)","perfecture_jp":"東京都","jp_add_1":"千代田区","jp_add_2":"丸の内ＪＰタワー２６階"},"1007027":{"post_code":"1007027","prefecture":"TOKYO TO","city":"CHIYODA KU","town":"MARUNOCHI JIEIPITAWA(27-KAI)","perfecture_jp":"東京都","jp_add_1":"千代田区","jp_add_2":"丸の内ＪＰタワー２７階"},"1007028":{"post_code":"1007028","prefecture":"TOKYO TO","city":"CHIYODA KU","town":"MARUNOCHI JIEIPITAWA(28-KAI)","perfecture_jp":"東京都","jp_add_1":"千代田区","jp_add_2":"丸の内ＪＰタワー２８階"},"1007029":{"post_code":"1007029","prefecture":"TOKYO TO","city":"CHIYODA KU","town":"MARUNOCHI JIEIPITAWA(29-KAI)","perfecture_jp":"東京都","jp_add_1":"千代田区","jp_add_2":"丸の内ＪＰタワー２９階"},"1007030":{"post_code":"1007030","prefecture":"TOKYO TO","city":"CHIYODA KU","town":"MARUNOCHI JIEIPITAWA(30-KAI)","perfecture_jp":"東京都","jp_add_1":"千代田区","jp_add_2":"丸の内ＪＰタワー３０階"},"1007031":{"post_code":"1007031","prefecture":"TOKYO TO","city":"CHIYODA KU","town":"MARUNOCHI JIEIPITAWA(31-KAI)","perfecture_jp":"東京都","jp_add_1":"千代田区","jp_add_2":"丸の内ＪＰタワー３１階"},"1007032":{"post_code":"1007032","prefecture":"TOKYO TO","city":"CHIYODA KU","town":"MARUNOCHI JIEIPITAWA(32-KAI)","perfecture_jp":"東京都","jp_add_1":"千代田区","jp_add_2":"丸の内ＪＰタワー３２階"},"1007033":{"post_code":"1007033","prefecture":"TOKYO TO","city":"CHIYODA KU","town":"MARUNOCHI JIEIPITAWA(33-KAI)","perfecture_jp":"東京都","jp_add_1":"千代田区","jp_add_2":"丸の内ＪＰタワー３３階"},"1007034":{"post_code":"1007034","prefecture":"TOKYO TO","city":"CHIYODA KU","town":"MARUNOCHI JIEIPITAWA(34-KAI)","perfecture_jp":"東京都","jp_add_1":"千代田区","jp_add_2":"丸の内ＪＰタワー３４階"},"1007035":{"post_code":"1007035","prefecture":"TOKYO TO","city":"CHIYODA KU","town":"MARUNOCHI JIEIPITAWA(35-KAI)","perfecture_jp":"東京都","jp_add_1":"千代田区","jp_add_2":"丸の内ＪＰタワー３５階"},"1007036":{"post_code":"1007036","prefecture":"TOKYO TO","city":"CHIYODA KU","town":"MARUNOCHI JIEIPITAWA(36-KAI)","perfecture_jp":"東京都","jp_add_1":"千代田区","jp_add_2":"丸の内ＪＰタワー３６階"},"1007037":{"post_code":"1007037","prefecture":"TOKYO TO","city":"CHIYODA KU","town":"MARUNOCHI JIEIPITAWA(37-KAI)","perfecture_jp":"東京都","jp_add_1":"千代田区","jp_add_2":"丸の内ＪＰタワー３７階"},"1007038":{"post_code":"1007038","prefecture":"TOKYO TO","city":"CHIYODA KU","town":"MARUNOCHI JIEIPITAWA(38-KAI)","perfecture_jp":"東京都","jp_add_1":"千代田区","jp_add_2":"丸の内ＪＰタワー３８階"},"1006590":{"post_code":"1006590","prefecture":"TOKYO TO","city":"CHIYODA KU","town":"MARUNOCHI SHIMMARUNOCHIBIRUDEINGU(C","perfecture_jp":"東京都","jp_add_1":"千代田区","jp_add_2":"丸の内新丸の内ビルディング"},"1006501":{"post_code":"1006501","prefecture":"TOKYO TO","city":"CHIYODA KU","town":"MARUNOCHI SHIMMARUNOCHIBIRUDEINGU(1","perfecture_jp":"東京都","jp_add_1":"千代田区","jp_add_2":"丸の内新丸の内ビルディング１階"},"1006502":{"post_code":"1006502","prefecture":"TOKYO TO","city":"CHIYODA KU","town":"MARUNOCHI SHIMMARUNOCHIBIRUDEINGU(2","perfecture_jp":"東京都","jp_add_1":"千代田区","jp_add_2":"丸の内新丸の内ビルディング２階"},"1006503":{"post_code":"1006503","prefecture":"TOKYO TO","city":"CHIYODA KU","town":"MARUNOCHI SHIMMARUNOCHIBIRUDEINGU(3","perfecture_jp":"東京都","jp_add_1":"千代田区","jp_add_2":"丸の内新丸の内ビルディング３階"},"1006504":{"post_code":"1006504","prefecture":"TOKYO TO","city":"CHIYODA KU","town":"MARUNOCHI SHIMMARUNOCHIBIRUDEINGU(4","perfecture_jp":"東京都","jp_add_1":"千代田区","jp_add_2":"丸の内新丸の内ビルディング４階"},"1006505":{"post_code":"1006505","prefecture":"TOKYO TO","city":"CHIYODA KU","town":"MARUNOCHI SHIMMARUNOCHIBIRUDEINGU(5","perfecture_jp":"東京都","jp_add_1":"千代田区","jp_add_2":"丸の内新丸の内ビルディング５階"},"1006506":{"post_code":"1006506","prefecture":"TOKYO TO","city":"CHIYODA KU","town":"MARUNOCHI SHIMMARUNOCHIBIRUDEINGU(6","perfecture_jp":"東京都","jp_add_1":"千代田区","jp_add_2":"丸の内新丸の内ビルディング６階"},"1006507":{"post_code":"1006507","prefecture":"TOKYO TO","city":"CHIYODA KU","town":"MARUNOCHI SHIMMARUNOCHIBIRUDEINGU(7","perfecture_jp":"東京都","jp_add_1":"千代田区","jp_add_2":"丸の内新丸の内ビルディング７階"},"1006508":{"post_code":"1006508","prefecture":"TOKYO TO","city":"CHIYODA KU","town":"MARUNOCHI SHIMMARUNOCHIBIRUDEINGU(8","perfecture_jp":"東京都","jp_add_1":"千代田区","jp_add_2":"丸の内新丸の内ビルディング８階"},"1006509":{"post_code":"1006509","prefecture":"TOKYO TO","city":"CHIYODA KU","town":"MARUNOCHI SHIMMARUNOCHIBIRUDEINGU(9","perfecture_jp":"東京都","jp_add_1":"千代田区","jp_add_2":"丸の内新丸の内ビルディング９階"},"1006510":{"post_code":"1006510","prefecture":"TOKYO TO","city":"CHIYODA KU","town":"MARUNOCHI SHIMMARUNOCHIBIRUDEINGU(1","perfecture_jp":"東京都","jp_add_1":"千代田区","jp_add_2":"丸の内新丸の内ビルディング１０階"},"1006511":{"post_code":"1006511","prefecture":"TOKYO TO","city":"CHIYODA KU","town":"MARUNOCHI SHIMMARUNOCHIBIRUDEINGU(1","perfecture_jp":"東京都","jp_add_1":"千代田区","jp_add_2":"丸の内新丸の内ビルディング１１階"},"1006512":{"post_code":"1006512","prefecture":"TOKYO TO","city":"CHIYODA KU","town":"MARUNOCHI SHIMMARUNOCHIBIRUDEINGU(1","perfecture_jp":"東京都","jp_add_1":"千代田区","jp_add_2":"丸の内新丸の内ビルディング１２階"},"1006513":{"post_code":"1006513","prefecture":"TOKYO TO","city":"CHIYODA KU","town":"MARUNOCHI SHIMMARUNOCHIBIRUDEINGU(1","perfecture_jp":"東京都","jp_add_1":"千代田区","jp_add_2":"丸の内新丸の内ビルディング１３階"},"1006514":{"post_code":"1006514","prefecture":"TOKYO TO","city":"CHIYODA KU","town":"MARUNOCHI SHIMMARUNOCHIBIRUDEINGU(1","perfecture_jp":"東京都","jp_add_1":"千代田区","jp_add_2":"丸の内新丸の内ビルディング１４階"},"1006515":{"post_code":"1006515","prefecture":"TOKYO TO","city":"CHIYODA KU","town":"MARUNOCHI SHIMMARUNOCHIBIRUDEINGU(1","perfecture_jp":"東京都","jp_add_1":"千代田区","jp_add_2":"丸の内新丸の内ビルディング１５階"},"1006516":{"post_code":"1006516","prefecture":"TOKYO TO","city":"CHIYODA KU","town":"MARUNOCHI SHIMMARUNOCHIBIRUDEINGU(1","perfecture_jp":"東京都","jp_add_1":"千代田区","jp_add_2":"丸の内新丸の内ビルディング１６階"},"1006517":{"post_code":"1006517","prefecture":"TOKYO TO","city":"CHIYODA KU","town":"MARUNOCHI SHIMMARUNOCHIBIRUDEINGU(1","perfecture_jp":"東京都","jp_add_1":"千代田区","jp_add_2":"丸の内新丸の内ビルディング１７階"},"1006518":{"post_code":"1006518","prefecture":"TOKYO TO","city":"CHIYODA KU","town":"MARUNOCHI SHIMMARUNOCHIBIRUDEINGU(1","perfecture_jp":"東京都","jp_add_1":"千代田区","jp_add_2":"丸の内新丸の内ビルディング１８階"},"1006519":{"post_code":"1006519","prefecture":"TOKYO TO","city":"CHIYODA KU","town":"MARUNOCHI SHIMMARUNOCHIBIRUDEINGU(1","perfecture_jp":"東京都","jp_add_1":"千代田区","jp_add_2":"丸の内新丸の内ビルディング１９階"},"1006520":{"post_code":"1006520","prefecture":"TOKYO TO","city":"CHIYODA KU","town":"MARUNOCHI SHIMMARUNOCHIBIRUDEINGU(2","perfecture_jp":"東京都","jp_add_1":"千代田区","jp_add_2":"丸の内新丸の内ビルディング２０階"},"1006521":{"post_code":"1006521","prefecture":"TOKYO TO","city":"CHIYODA KU","town":"MARUNOCHI SHIMMARUNOCHIBIRUDEINGU(2","perfecture_jp":"東京都","jp_add_1":"千代田区","jp_add_2":"丸の内新丸の内ビルディング２１階"},"1006522":{"post_code":"1006522","prefecture":"TOKYO TO","city":"CHIYODA KU","town":"MARUNOCHI SHIMMARUNOCHIBIRUDEINGU(2","perfecture_jp":"東京都","jp_add_1":"千代田区","jp_add_2":"丸の内新丸の内ビルディング２２階"},"1006523":{"post_code":"1006523","prefecture":"TOKYO TO","city":"CHIYODA KU","town":"MARUNOCHI SHIMMARUNOCHIBIRUDEINGU(2","perfecture_jp":"東京都","jp_add_1":"千代田区","jp_add_2":"丸の内新丸の内ビルディング２３階"},"1006524":{"post_code":"1006524","prefecture":"TOKYO TO","city":"CHIYODA KU","town":"MARUNOCHI SHIMMARUNOCHIBIRUDEINGU(2","perfecture_jp":"東京都","jp_add_1":"千代田区","jp_add_2":"丸の内新丸の内ビルディング２４階"},"1006525":{"post_code":"1006525","prefecture":"TOKYO TO","city":"CHIYODA KU","town":"MARUNOCHI SHIMMARUNOCHIBIRUDEINGU(2","perfecture_jp":"東京都","jp_add_1":"千代田区","jp_add_2":"丸の内新丸の内ビルディング２５階"},"1006526":{"post_code":"1006526","prefecture":"TOKYO TO","city":"CHIYODA KU","town":"MARUNOCHI SHIMMARUNOCHIBIRUDEINGU(2","perfecture_jp":"東京都","jp_add_1":"千代田区","jp_add_2":"丸の内新丸の内ビルディング２６階"},"1006527":{"post_code":"1006527","prefecture":"TOKYO TO","city":"CHIYODA KU","town":"MARUNOCHI SHIMMARUNOCHIBIRUDEINGU(2","perfecture_jp":"東京都","jp_add_1":"千代田区","jp_add_2":"丸の内新丸の内ビルディング２７階"},"1006528":{"post_code":"1006528","prefecture":"TOKYO TO","city":"CHIYODA KU","town":"MARUNOCHI SHIMMARUNOCHIBIRUDEINGU(2","perfecture_jp":"東京都","jp_add_1":"千代田区","jp_add_2":"丸の内新丸の内ビルディング２８階"},"1006529":{"post_code":"1006529","prefecture":"TOKYO TO","city":"CHIYODA KU","town":"MARUNOCHI SHIMMARUNOCHIBIRUDEINGU(2","perfecture_jp":"東京都","jp_add_1":"千代田区","jp_add_2":"丸の内新丸の内ビルディング２９階"},"1006530":{"post_code":"1006530","prefecture":"TOKYO TO","city":"CHIYODA KU","town":"MARUNOCHI SHIMMARUNOCHIBIRUDEINGU(3","perfecture_jp":"東京都","jp_add_1":"千代田区","jp_add_2":"丸の内新丸の内ビルディング３０階"},"1006531":{"post_code":"1006531","prefecture":"TOKYO TO","city":"CHIYODA KU","town":"MARUNOCHI SHIMMARUNOCHIBIRUDEINGU(3","perfecture_jp":"東京都","jp_add_1":"千代田区","jp_add_2":"丸の内新丸の内ビルディング３１階"},"1006532":{"post_code":"1006532","prefecture":"TOKYO TO","city":"CHIYODA KU","town":"MARUNOCHI SHIMMARUNOCHIBIRUDEINGU(3","perfecture_jp":"東京都","jp_add_1":"千代田区","jp_add_2":"丸の内新丸の内ビルディング３２階"},"1006533":{"post_code":"1006533","prefecture":"TOKYO TO","city":"CHIYODA KU","town":"MARUNOCHI SHIMMARUNOCHIBIRUDEINGU(3","perfecture_jp":"東京都","jp_add_1":"千代田区","jp_add_2":"丸の内新丸の内ビルディング３３階"},"1006534":{"post_code":"1006534","prefecture":"TOKYO TO","city":"CHIYODA KU","town":"MARUNOCHI SHIMMARUNOCHIBIRUDEINGU(3","perfecture_jp":"東京都","jp_add_1":"千代田区","jp_add_2":"丸の内新丸の内ビルディング３４階"},"1006535":{"post_code":"1006535","prefecture":"TOKYO TO","city":"CHIYODA KU","town":"MARUNOCHI SHIMMARUNOCHIBIRUDEINGU(3","perfecture_jp":"東京都","jp_add_1":"千代田区","jp_add_2":"丸の内新丸の内ビルディング３５階"},"1006536":{"post_code":"1006536","prefecture":"TOKYO TO","city":"CHIYODA KU","town":"MARUNOCHI SHIMMARUNOCHIBIRUDEINGU(3","perfecture_jp":"東京都","jp_add_1":"千代田区","jp_add_2":"丸の内新丸の内ビルディング３６階"},"1006537":{"post_code":"1006537","prefecture":"TOKYO TO","city":"CHIYODA KU","town":"MARUNOCHI SHIMMARUNOCHIBIRUDEINGU(3","perfecture_jp":"東京都","jp_add_1":"千代田区","jp_add_2":"丸の内新丸の内ビルディング３７階"},"1006538":{"post_code":"1006538","prefecture":"TOKYO TO","city":"CHIYODA KU","town":"MARUNOCHI SHIMMARUNOCHIBIRUDEINGU(3","perfecture_jp":"東京都","jp_add_1":"千代田区","jp_add_2":"丸の内新丸の内ビルディング３８階"},"1006490":{"post_code":"1006490","prefecture":"TOKYO TO","city":"CHIYODA KU","town":"MARUNOCHI TOKYOBIRUDEINGU(CHIKAI.KA","perfecture_jp":"東京都","jp_add_1":"千代田区","jp_add_2":"丸の内東京ビルディング"},"1006401":{"post_code":"1006401","prefecture":"TOKYO TO","city":"CHIYODA KU","town":"MARUNOCHI TOKYOBIRUDEINGU(1-KAI)","perfecture_jp":"東京都","jp_add_1":"千代田区","jp_add_2":"丸の内東京ビルディング１階"},"1006402":{"post_code":"1006402","prefecture":"TOKYO TO","city":"CHIYODA KU","town":"MARUNOCHI TOKYOBIRUDEINGU(2-KAI)","perfecture_jp":"東京都","jp_add_1":"千代田区","jp_add_2":"丸の内東京ビルディング２階"},"1006403":{"post_code":"1006403","prefecture":"TOKYO TO","city":"CHIYODA KU","town":"MARUNOCHI TOKYOBIRUDEINGU(3-KAI)","perfecture_jp":"東京都","jp_add_1":"千代田区","jp_add_2":"丸の内東京ビルディング３階"},"1006404":{"post_code":"1006404","prefecture":"TOKYO TO","city":"CHIYODA KU","town":"MARUNOCHI TOKYOBIRUDEINGU(4-KAI)","perfecture_jp":"東京都","jp_add_1":"千代田区","jp_add_2":"丸の内東京ビルディング４階"},"1006405":{"post_code":"1006405","prefecture":"TOKYO TO","city":"CHIYODA KU","town":"MARUNOCHI TOKYOBIRUDEINGU(5-KAI)","perfecture_jp":"東京都","jp_add_1":"千代田区","jp_add_2":"丸の内東京ビルディング５階"},"1006406":{"post_code":"1006406","prefecture":"TOKYO TO","city":"CHIYODA KU","town":"MARUNOCHI TOKYOBIRUDEINGU(6-KAI)","perfecture_jp":"東京都","jp_add_1":"千代田区","jp_add_2":"丸の内東京ビルディング６階"},"1006407":{"post_code":"1006407","prefecture":"TOKYO TO","city":"CHIYODA KU","town":"MARUNOCHI TOKYOBIRUDEINGU(7-KAI)","perfecture_jp":"東京都","jp_add_1":"千代田区","jp_add_2":"丸の内東京ビルディング７階"},"1006408":{"post_code":"1006408","prefecture":"TOKYO TO","city":"CHIYODA KU","town":"MARUNOCHI TOKYOBIRUDEINGU(8-KAI)","perfecture_jp":"東京都","jp_add_1":"千代田区","jp_add_2":"丸の内東京ビルディング８階"},"1006409":{"post_code":"1006409","prefecture":"TOKYO TO","city":"CHIYODA KU","town":"MARUNOCHI TOKYOBIRUDEINGU(9-KAI)","perfecture_jp":"東京都","jp_add_1":"千代田区","jp_add_2":"丸の内東京ビルディング９階"},"1006410":{"post_code":"1006410","prefecture":"TOKYO TO","city":"CHIYODA KU","town":"MARUNOCHI TOKYOBIRUDEINGU(10-KAI)","perfecture_jp":"東京都","jp_add_1":"千代田区","jp_add_2":"丸の内東京ビルディング１０階"},"1006411":{"post_code":"1006411","prefecture":"TOKYO TO","city":"CHIYODA KU","town":"MARUNOCHI TOKYOBIRUDEINGU(11-KAI)","perfecture_jp":"東京都","jp_add_1":"千代田区","jp_add_2":"丸の内東京ビルディング１１階"},"1006412":{"post_code":"1006412","prefecture":"TOKYO TO","city":"CHIYODA KU","town":"MARUNOCHI TOKYOBIRUDEINGU(12-KAI)","perfecture_jp":"東京都","jp_add_1":"千代田区","jp_add_2":"丸の内東京ビルディング１２階"},"1006413":{"post_code":"1006413","prefecture":"TOKYO TO","city":"CHIYODA KU","town":"MARUNOCHI TOKYOBIRUDEINGU(13-KAI)","perfecture_jp":"東京都","jp_add_1":"千代田区","jp_add_2":"丸の内東京ビルディング１３階"},"1006414":{"post_code":"1006414","prefecture":"TOKYO TO","city":"CHIYODA KU","town":"MARUNOCHI TOKYOBIRUDEINGU(14-KAI)","perfecture_jp":"東京都","jp_add_1":"千代田区","jp_add_2":"丸の内東京ビルディング１４階"},"1006415":{"post_code":"1006415","prefecture":"TOKYO TO","city":"CHIYODA KU","town":"MARUNOCHI TOKYOBIRUDEINGU(15-KAI)","perfecture_jp":"東京都","jp_add_1":"千代田区","jp_add_2":"丸の内東京ビルディング１５階"},"1006416":{"post_code":"1006416","prefecture":"TOKYO TO","city":"CHIYODA KU","town":"MARUNOCHI TOKYOBIRUDEINGU(16-KAI)","perfecture_jp":"東京都","jp_add_1":"千代田区","jp_add_2":"丸の内東京ビルディング１６階"},"1006417":{"post_code":"1006417","prefecture":"TOKYO TO","city":"CHIYODA KU","town":"MARUNOCHI TOKYOBIRUDEINGU(17-KAI)","perfecture_jp":"東京都","jp_add_1":"千代田区","jp_add_2":"丸の内東京ビルディング１７階"},"1006418":{"post_code":"1006418","prefecture":"TOKYO TO","city":"CHIYODA KU","town":"MARUNOCHI TOKYOBIRUDEINGU(18-KAI)","perfecture_jp":"東京都","jp_add_1":"千代田区","jp_add_2":"丸の内東京ビルディング１８階"},"1006419":{"post_code":"1006419","prefecture":"TOKYO TO","city":"CHIYODA KU","town":"MARUNOCHI TOKYOBIRUDEINGU(19-KAI)","perfecture_jp":"東京都","jp_add_1":"千代田区","jp_add_2":"丸の内東京ビルディング１９階"},"1006420":{"post_code":"1006420","prefecture":"TOKYO TO","city":"CHIYODA KU","town":"MARUNOCHI TOKYOBIRUDEINGU(20-KAI)","perfecture_jp":"東京都","jp_add_1":"千代田区","jp_add_2":"丸の内東京ビルディング２０階"},"1006421":{"post_code":"1006421","prefecture":"TOKYO TO","city":"CHIYODA KU","town":"MARUNOCHI TOKYOBIRUDEINGU(21-KAI)","perfecture_jp":"東京都","jp_add_1":"千代田区","jp_add_2":"丸の内東京ビルディング２１階"},"1006422":{"post_code":"1006422","prefecture":"TOKYO TO","city":"CHIYODA KU","town":"MARUNOCHI TOKYOBIRUDEINGU(22-KAI)","perfecture_jp":"東京都","jp_add_1":"千代田区","jp_add_2":"丸の内東京ビルディング２２階"},"1006423":{"post_code":"1006423","prefecture":"TOKYO TO","city":"CHIYODA KU","town":"MARUNOCHI TOKYOBIRUDEINGU(23-KAI)","perfecture_jp":"東京都","jp_add_1":"千代田区","jp_add_2":"丸の内東京ビルディング２３階"},"1006424":{"post_code":"1006424","prefecture":"TOKYO TO","city":"CHIYODA KU","town":"MARUNOCHI TOKYOBIRUDEINGU(24-KAI)","perfecture_jp":"東京都","jp_add_1":"千代田区","jp_add_2":"丸の内東京ビルディング２４階"},"1006425":{"post_code":"1006425","prefecture":"TOKYO TO","city":"CHIYODA KU","town":"MARUNOCHI TOKYOBIRUDEINGU(25-KAI)","perfecture_jp":"東京都","jp_add_1":"千代田区","jp_add_2":"丸の内東京ビルディング２５階"},"1006426":{"post_code":"1006426","prefecture":"TOKYO TO","city":"CHIYODA KU","town":"MARUNOCHI TOKYOBIRUDEINGU(26-KAI)","perfecture_jp":"東京都","jp_add_1":"千代田区","jp_add_2":"丸の内東京ビルディング２６階"},"1006427":{"post_code":"1006427","prefecture":"TOKYO TO","city":"CHIYODA KU","town":"MARUNOCHI TOKYOBIRUDEINGU(27-KAI)","perfecture_jp":"東京都","jp_add_1":"千代田区","jp_add_2":"丸の内東京ビルディング２７階"},"1006428":{"post_code":"1006428","prefecture":"TOKYO TO","city":"CHIYODA KU","town":"MARUNOCHI TOKYOBIRUDEINGU(28-KAI)","perfecture_jp":"東京都","jp_add_1":"千代田区","jp_add_2":"丸の内東京ビルディング２８階"},"1006429":{"post_code":"1006429","prefecture":"TOKYO TO","city":"CHIYODA KU","town":"MARUNOCHI TOKYOBIRUDEINGU(29-KAI)","perfecture_jp":"東京都","jp_add_1":"千代田区","jp_add_2":"丸の内東京ビルディング２９階"},"1006430":{"post_code":"1006430","prefecture":"TOKYO TO","city":"CHIYODA KU","town":"MARUNOCHI TOKYOBIRUDEINGU(30-KAI)","perfecture_jp":"東京都","jp_add_1":"千代田区","jp_add_2":"丸の内東京ビルディング３０階"},"1006431":{"post_code":"1006431","prefecture":"TOKYO TO","city":"CHIYODA KU","town":"MARUNOCHI TOKYOBIRUDEINGU(31-KAI)","perfecture_jp":"東京都","jp_add_1":"千代田区","jp_add_2":"丸の内東京ビルディング３１階"},"1006432":{"post_code":"1006432","prefecture":"TOKYO TO","city":"CHIYODA KU","town":"MARUNOCHI TOKYOBIRUDEINGU(32-KAI)","perfecture_jp":"東京都","jp_add_1":"千代田区","jp_add_2":"丸の内東京ビルディング３２階"},"1006433":{"post_code":"1006433","prefecture":"TOKYO TO","city":"CHIYODA KU","town":"MARUNOCHI TOKYOBIRUDEINGU(33-KAI)","perfecture_jp":"東京都","jp_add_1":"千代田区","jp_add_2":"丸の内東京ビルディング３３階"},"1006290":{"post_code":"1006290","prefecture":"TOKYO TO","city":"CHIYODA KU","town":"MARUNOCHI PASHIFUIKKUSENCHURIPUREIS","perfecture_jp":"東京都","jp_add_1":"千代田区","jp_add_2":"丸の内パシフィックセンチュリープレイス丸の内"},"1006201":{"post_code":"1006201","prefecture":"TOKYO TO","city":"CHIYODA KU","town":"MARUNOCHI PASHIFUIKKUSENCHURIPUREIS","perfecture_jp":"東京都","jp_add_1":"千代田区","jp_add_2":"丸の内パシフィックセンチュリープレイス丸の内１階"},"1006202":{"post_code":"1006202","prefecture":"TOKYO TO","city":"CHIYODA KU","town":"MARUNOCHI PASHIFUIKKUSENCHURIPUREIS","perfecture_jp":"東京都","jp_add_1":"千代田区","jp_add_2":"丸の内パシフィックセンチュリープレイス丸の内２階"},"1006203":{"post_code":"1006203","prefecture":"TOKYO TO","city":"CHIYODA KU","town":"MARUNOCHI PASHIFUIKKUSENCHURIPUREIS","perfecture_jp":"東京都","jp_add_1":"千代田区","jp_add_2":"丸の内パシフィックセンチュリープレイス丸の内３階"},"1006204":{"post_code":"1006204","prefecture":"TOKYO TO","city":"CHIYODA KU","town":"MARUNOCHI PASHIFUIKKUSENCHURIPUREIS","perfecture_jp":"東京都","jp_add_1":"千代田区","jp_add_2":"丸の内パシフィックセンチュリープレイス丸の内４階"},"1006205":{"post_code":"1006205","prefecture":"TOKYO TO","city":"CHIYODA KU","town":"MARUNOCHI PASHIFUIKKUSENCHURIPUREIS","perfecture_jp":"東京都","jp_add_1":"千代田区","jp_add_2":"丸の内パシフィックセンチュリープレイス丸の内５階"},"1006206":{"post_code":"1006206","prefecture":"TOKYO TO","city":"CHIYODA KU","town":"MARUNOCHI PASHIFUIKKUSENCHURIPUREIS","perfecture_jp":"東京都","jp_add_1":"千代田区","jp_add_2":"丸の内パシフィックセンチュリープレイス丸の内６階"},"1006207":{"post_code":"1006207","prefecture":"TOKYO TO","city":"CHIYODA KU","town":"MARUNOCHI PASHIFUIKKUSENCHURIPUREIS","perfecture_jp":"東京都","jp_add_1":"千代田区","jp_add_2":"丸の内パシフィックセンチュリープレイス丸の内７階"},"1006208":{"post_code":"1006208","prefecture":"TOKYO TO","city":"CHIYODA KU","town":"MARUNOCHI PASHIFUIKKUSENCHURIPUREIS","perfecture_jp":"東京都","jp_add_1":"千代田区","jp_add_2":"丸の内パシフィックセンチュリープレイス丸の内８階"},"1006209":{"post_code":"1006209","prefecture":"TOKYO TO","city":"CHIYODA KU","town":"MARUNOCHI PASHIFUIKKUSENCHURIPUREIS","perfecture_jp":"東京都","jp_add_1":"千代田区","jp_add_2":"丸の内パシフィックセンチュリープレイス丸の内９階"},"1006210":{"post_code":"1006210","prefecture":"TOKYO TO","city":"CHIYODA KU","town":"MARUNOCHI PASHIFUIKKUSENCHURIPUREIS","perfecture_jp":"東京都","jp_add_1":"千代田区","jp_add_2":"丸の内パシフィックセンチュリープレイス丸の内１０階"},"1006211":{"post_code":"1006211","prefecture":"TOKYO TO","city":"CHIYODA KU","town":"MARUNOCHI PASHIFUIKKUSENCHURIPUREIS","perfecture_jp":"東京都","jp_add_1":"千代田区","jp_add_2":"丸の内パシフィックセンチュリープレイス丸の内１１階"},"1006212":{"post_code":"1006212","prefecture":"TOKYO TO","city":"CHIYODA KU","town":"MARUNOCHI PASHIFUIKKUSENCHURIPUREIS","perfecture_jp":"東京都","jp_add_1":"千代田区","jp_add_2":"丸の内パシフィックセンチュリープレイス丸の内１２階"},"1006213":{"post_code":"1006213","prefecture":"TOKYO TO","city":"CHIYODA KU","town":"MARUNOCHI PASHIFUIKKUSENCHURIPUREIS","perfecture_jp":"東京都","jp_add_1":"千代田区","jp_add_2":"丸の内パシフィックセンチュリープレイス丸の内１３階"},"1006214":{"post_code":"1006214","prefecture":"TOKYO TO","city":"CHIYODA KU","town":"MARUNOCHI PASHIFUIKKUSENCHURIPUREIS","perfecture_jp":"東京都","jp_add_1":"千代田区","jp_add_2":"丸の内パシフィックセンチュリープレイス丸の内１４階"},"1006215":{"post_code":"1006215","prefecture":"TOKYO TO","city":"CHIYODA KU","town":"MARUNOCHI PASHIFUIKKUSENCHURIPUREIS","perfecture_jp":"東京都","jp_add_1":"千代田区","jp_add_2":"丸の内パシフィックセンチュリープレイス丸の内１５階"},"1006216":{"post_code":"1006216","prefecture":"TOKYO TO","city":"CHIYODA KU","town":"MARUNOCHI PASHIFUIKKUSENCHURIPUREIS","perfecture_jp":"東京都","jp_add_1":"千代田区","jp_add_2":"丸の内パシフィックセンチュリープレイス丸の内１６階"},"1006217":{"post_code":"1006217","prefecture":"TOKYO TO","city":"CHIYODA KU","town":"MARUNOCHI PASHIFUIKKUSENCHURIPUREIS","perfecture_jp":"東京都","jp_add_1":"千代田区","jp_add_2":"丸の内パシフィックセンチュリープレイス丸の内１７階"},"1006218":{"post_code":"1006218","prefecture":"TOKYO TO","city":"CHIYODA KU","town":"MARUNOCHI PASHIFUIKKUSENCHURIPUREIS","perfecture_jp":"東京都","jp_add_1":"千代田区","jp_add_2":"丸の内パシフィックセンチュリープレイス丸の内１８階"},"1006219":{"post_code":"1006219","prefecture":"TOKYO TO","city":"CHIYODA KU","town":"MARUNOCHI PASHIFUIKKUSENCHURIPUREIS","perfecture_jp":"東京都","jp_add_1":"千代田区","jp_add_2":"丸の内パシフィックセンチュリープレイス丸の内１９階"},"1006220":{"post_code":"1006220","prefecture":"TOKYO TO","city":"CHIYODA KU","town":"MARUNOCHI PASHIFUIKKUSENCHURIPUREIS","perfecture_jp":"東京都","jp_add_1":"千代田区","jp_add_2":"丸の内パシフィックセンチュリープレイス丸の内２０階"},"1006221":{"post_code":"1006221","prefecture":"TOKYO TO","city":"CHIYODA KU","town":"MARUNOCHI PASHIFUIKKUSENCHURIPUREIS","perfecture_jp":"東京都","jp_add_1":"千代田区","jp_add_2":"丸の内パシフィックセンチュリープレイス丸の内２１階"},"1006222":{"post_code":"1006222","prefecture":"TOKYO TO","city":"CHIYODA KU","town":"MARUNOCHI PASHIFUIKKUSENCHURIPUREIS","perfecture_jp":"東京都","jp_add_1":"千代田区","jp_add_2":"丸の内パシフィックセンチュリープレイス丸の内２２階"},"1006223":{"post_code":"1006223","prefecture":"TOKYO TO","city":"CHIYODA KU","town":"MARUNOCHI PASHIFUIKKUSENCHURIPUREIS","perfecture_jp":"東京都","jp_add_1":"千代田区","jp_add_2":"丸の内パシフィックセンチュリープレイス丸の内２３階"},"1006224":{"post_code":"1006224","prefecture":"TOKYO TO","city":"CHIYODA KU","town":"MARUNOCHI PASHIFUIKKUSENCHURIPUREIS","perfecture_jp":"東京都","jp_add_1":"千代田区","jp_add_2":"丸の内パシフィックセンチュリープレイス丸の内２４階"},"1006225":{"post_code":"1006225","prefecture":"TOKYO TO","city":"CHIYODA KU","town":"MARUNOCHI PASHIFUIKKUSENCHURIPUREIS","perfecture_jp":"東京都","jp_add_1":"千代田区","jp_add_2":"丸の内パシフィックセンチュリープレイス丸の内２５階"},"1006226":{"post_code":"1006226","prefecture":"TOKYO TO","city":"CHIYODA KU","town":"MARUNOCHI PASHIFUIKKUSENCHURIPUREIS","perfecture_jp":"東京都","jp_add_1":"千代田区","jp_add_2":"丸の内パシフィックセンチュリープレイス丸の内２６階"},"1006227":{"post_code":"1006227","prefecture":"TOKYO TO","city":"CHIYODA KU","town":"MARUNOCHI PASHIFUIKKUSENCHURIPUREIS","perfecture_jp":"東京都","jp_add_1":"千代田区","jp_add_2":"丸の内パシフィックセンチュリープレイス丸の内２７階"},"1006228":{"post_code":"1006228","prefecture":"TOKYO TO","city":"CHIYODA KU","town":"MARUNOCHI PASHIFUIKKUSENCHURIPUREIS","perfecture_jp":"東京都","jp_add_1":"千代田区","jp_add_2":"丸の内パシフィックセンチュリープレイス丸の内２８階"},"1006229":{"post_code":"1006229","prefecture":"TOKYO TO","city":"CHIYODA KU","town":"MARUNOCHI PASHIFUIKKUSENCHURIPUREIS","perfecture_jp":"東京都","jp_add_1":"千代田区","jp_add_2":"丸の内パシフィックセンチュリープレイス丸の内２９階"},"1006230":{"post_code":"1006230","prefecture":"TOKYO TO","city":"CHIYODA KU","town":"MARUNOCHI PASHIFUIKKUSENCHURIPUREIS","perfecture_jp":"東京都","jp_add_1":"千代田区","jp_add_2":"丸の内パシフィックセンチュリープレイス丸の内３０階"},"1006231":{"post_code":"1006231","prefecture":"TOKYO TO","city":"CHIYODA KU","town":"MARUNOCHI PASHIFUIKKUSENCHURIPUREIS","perfecture_jp":"東京都","jp_add_1":"千代田区","jp_add_2":"丸の内パシフィックセンチュリープレイス丸の内３１階"},"1006990":{"post_code":"1006990","prefecture":"TOKYO TO","city":"CHIYODA KU","town":"MARUNOCHI MARUNOCHIPAKUBIRUDEINGU(C","perfecture_jp":"東京都","jp_add_1":"千代田区","jp_add_2":"丸の内丸の内パークビルディング"},"1006901":{"post_code":"1006901","prefecture":"TOKYO TO","city":"CHIYODA KU","town":"MARUNOCHI MARUNOCHIPAKUBIRUDEINGU(1","perfecture_jp":"東京都","jp_add_1":"千代田区","jp_add_2":"丸の内丸の内パークビルディング１階"},"1006902":{"post_code":"1006902","prefecture":"TOKYO TO","city":"CHIYODA KU","town":"MARUNOCHI MARUNOCHIPAKUBIRUDEINGU(2","perfecture_jp":"東京都","jp_add_1":"千代田区","jp_add_2":"丸の内丸の内パークビルディング２階"},"1006903":{"post_code":"1006903","prefecture":"TOKYO TO","city":"CHIYODA KU","town":"MARUNOCHI MARUNOCHIPAKUBIRUDEINGU(3","perfecture_jp":"東京都","jp_add_1":"千代田区","jp_add_2":"丸の内丸の内パークビルディング３階"},"1006904":{"post_code":"1006904","prefecture":"TOKYO TO","city":"CHIYODA KU","town":"MARUNOCHI MARUNOCHIPAKUBIRUDEINGU(4","perfecture_jp":"東京都","jp_add_1":"千代田区","jp_add_2":"丸の内丸の内パークビルディング４階"},"1006905":{"post_code":"1006905","prefecture":"TOKYO TO","city":"CHIYODA KU","town":"MARUNOCHI MARUNOCHIPAKUBIRUDEINGU(5","perfecture_jp":"東京都","jp_add_1":"千代田区","jp_add_2":"丸の内丸の内パークビルディング５階"},"1006906":{"post_code":"1006906","prefecture":"TOKYO TO","city":"CHIYODA KU","town":"MARUNOCHI MARUNOCHIPAKUBIRUDEINGU(6","perfecture_jp":"東京都","jp_add_1":"千代田区","jp_add_2":"丸の内丸の内パークビルディング６階"},"1006907":{"post_code":"1006907","prefecture":"TOKYO TO","city":"CHIYODA KU","town":"MARUNOCHI MARUNOCHIPAKUBIRUDEINGU(7","perfecture_jp":"東京都","jp_add_1":"千代田区","jp_add_2":"丸の内丸の内パークビルディング７階"},"1006908":{"post_code":"1006908","prefecture":"TOKYO TO","city":"CHIYODA KU","town":"MARUNOCHI MARUNOCHIPAKUBIRUDEINGU(8","perfecture_jp":"東京都","jp_add_1":"千代田区","jp_add_2":"丸の内丸の内パークビルディング８階"},"1006909":{"post_code":"1006909","prefecture":"TOKYO TO","city":"CHIYODA KU","town":"MARUNOCHI MARUNOCHIPAKUBIRUDEINGU(9","perfecture_jp":"東京都","jp_add_1":"千代田区","jp_add_2":"丸の内丸の内パークビルディング９階"},"1006910":{"post_code":"1006910","prefecture":"TOKYO TO","city":"CHIYODA KU","town":"MARUNOCHI MARUNOCHIPAKUBIRUDEINGU(1","perfecture_jp":"東京都","jp_add_1":"千代田区","jp_add_2":"丸の内丸の内パークビルディング１０階"},"1006911":{"post_code":"1006911","prefecture":"TOKYO TO","city":"CHIYODA KU","town":"MARUNOCHI MARUNOCHIPAKUBIRUDEINGU(1","perfecture_jp":"東京都","jp_add_1":"千代田区","jp_add_2":"丸の内丸の内パークビルディング１１階"},"1006912":{"post_code":"1006912","prefecture":"TOKYO TO","city":"CHIYODA KU","town":"MARUNOCHI MARUNOCHIPAKUBIRUDEINGU(1","perfecture_jp":"東京都","jp_add_1":"千代田区","jp_add_2":"丸の内丸の内パークビルディング１２階"},"1006913":{"post_code":"1006913","prefecture":"TOKYO TO","city":"CHIYODA KU","town":"MARUNOCHI MARUNOCHIPAKUBIRUDEINGU(1","perfecture_jp":"東京都","jp_add_1":"千代田区","jp_add_2":"丸の内丸の内パークビルディング１３階"},"1006914":{"post_code":"1006914","prefecture":"TOKYO TO","city":"CHIYODA KU","town":"MARUNOCHI MARUNOCHIPAKUBIRUDEINGU(1","perfecture_jp":"東京都","jp_add_1":"千代田区","jp_add_2":"丸の内丸の内パークビルディング１４階"},"1006915":{"post_code":"1006915","prefecture":"TOKYO TO","city":"CHIYODA KU","town":"MARUNOCHI MARUNOCHIPAKUBIRUDEINGU(1","perfecture_jp":"東京都","jp_add_1":"千代田区","jp_add_2":"丸の内丸の内パークビルディング１５階"},"1006916":{"post_code":"1006916","prefecture":"TOKYO TO","city":"CHIYODA KU","town":"MARUNOCHI MARUNOCHIPAKUBIRUDEINGU(1","perfecture_jp":"東京都","jp_add_1":"千代田区","jp_add_2":"丸の内丸の内パークビルディング１６階"},"1006917":{"post_code":"1006917","prefecture":"TOKYO TO","city":"CHIYODA KU","town":"MARUNOCHI MARUNOCHIPAKUBIRUDEINGU(1","perfecture_jp":"東京都","jp_add_1":"千代田区","jp_add_2":"丸の内丸の内パークビルディング１７階"},"1006918":{"post_code":"1006918","prefecture":"TOKYO TO","city":"CHIYODA KU","town":"MARUNOCHI MARUNOCHIPAKUBIRUDEINGU(1","perfecture_jp":"東京都","jp_add_1":"千代田区","jp_add_2":"丸の内丸の内パークビルディング１８階"},"1006919":{"post_code":"1006919","prefecture":"TOKYO TO","city":"CHIYODA KU","town":"MARUNOCHI MARUNOCHIPAKUBIRUDEINGU(1","perfecture_jp":"東京都","jp_add_1":"千代田区","jp_add_2":"丸の内丸の内パークビルディング１９階"},"1006920":{"post_code":"1006920","prefecture":"TOKYO TO","city":"CHIYODA KU","town":"MARUNOCHI MARUNOCHIPAKUBIRUDEINGU(2","perfecture_jp":"東京都","jp_add_1":"千代田区","jp_add_2":"丸の内丸の内パークビルディング２０階"},"1006921":{"post_code":"1006921","prefecture":"TOKYO TO","city":"CHIYODA KU","town":"MARUNOCHI MARUNOCHIPAKUBIRUDEINGU(2","perfecture_jp":"東京都","jp_add_1":"千代田区","jp_add_2":"丸の内丸の内パークビルディング２１階"},"1006922":{"post_code":"1006922","prefecture":"TOKYO TO","city":"CHIYODA KU","town":"MARUNOCHI MARUNOCHIPAKUBIRUDEINGU(2","perfecture_jp":"東京都","jp_add_1":"千代田区","jp_add_2":"丸の内丸の内パークビルディング２２階"},"1006923":{"post_code":"1006923","prefecture":"TOKYO TO","city":"CHIYODA KU","town":"MARUNOCHI MARUNOCHIPAKUBIRUDEINGU(2","perfecture_jp":"東京都","jp_add_1":"千代田区","jp_add_2":"丸の内丸の内パークビルディング２３階"},"1006924":{"post_code":"1006924","prefecture":"TOKYO TO","city":"CHIYODA KU","town":"MARUNOCHI MARUNOCHIPAKUBIRUDEINGU(2","perfecture_jp":"東京都","jp_add_1":"千代田区","jp_add_2":"丸の内丸の内パークビルディング２４階"},"1006925":{"post_code":"1006925","prefecture":"TOKYO TO","city":"CHIYODA KU","town":"MARUNOCHI MARUNOCHIPAKUBIRUDEINGU(2","perfecture_jp":"東京都","jp_add_1":"千代田区","jp_add_2":"丸の内丸の内パークビルディング２５階"},"1006926":{"post_code":"1006926","prefecture":"TOKYO TO","city":"CHIYODA KU","town":"MARUNOCHI MARUNOCHIPAKUBIRUDEINGU(2","perfecture_jp":"東京都","jp_add_1":"千代田区","jp_add_2":"丸の内丸の内パークビルディング２６階"},"1006927":{"post_code":"1006927","prefecture":"TOKYO TO","city":"CHIYODA KU","town":"MARUNOCHI MARUNOCHIPAKUBIRUDEINGU(2","perfecture_jp":"東京都","jp_add_1":"千代田区","jp_add_2":"丸の内丸の内パークビルディング２７階"},"1006928":{"post_code":"1006928","prefecture":"TOKYO TO","city":"CHIYODA KU","town":"MARUNOCHI MARUNOCHIPAKUBIRUDEINGU(2","perfecture_jp":"東京都","jp_add_1":"千代田区","jp_add_2":"丸の内丸の内パークビルディング２８階"},"1006929":{"post_code":"1006929","prefecture":"TOKYO TO","city":"CHIYODA KU","town":"MARUNOCHI MARUNOCHIPAKUBIRUDEINGU(2","perfecture_jp":"東京都","jp_add_1":"千代田区","jp_add_2":"丸の内丸の内パークビルディング２９階"},"1006930":{"post_code":"1006930","prefecture":"TOKYO TO","city":"CHIYODA KU","town":"MARUNOCHI MARUNOCHIPAKUBIRUDEINGU(3","perfecture_jp":"東京都","jp_add_1":"千代田区","jp_add_2":"丸の内丸の内パークビルディング３０階"},"1006931":{"post_code":"1006931","prefecture":"TOKYO TO","city":"CHIYODA KU","town":"MARUNOCHI MARUNOCHIPAKUBIRUDEINGU(3","perfecture_jp":"東京都","jp_add_1":"千代田区","jp_add_2":"丸の内丸の内パークビルディング３１階"},"1006932":{"post_code":"1006932","prefecture":"TOKYO TO","city":"CHIYODA KU","town":"MARUNOCHI MARUNOCHIPAKUBIRUDEINGU(3","perfecture_jp":"東京都","jp_add_1":"千代田区","jp_add_2":"丸の内丸の内パークビルディング３２階"},"1006933":{"post_code":"1006933","prefecture":"TOKYO TO","city":"CHIYODA KU","town":"MARUNOCHI MARUNOCHIPAKUBIRUDEINGU(3","perfecture_jp":"東京都","jp_add_1":"千代田区","jp_add_2":"丸の内丸の内パークビルディング３３階"},"1006934":{"post_code":"1006934","prefecture":"TOKYO TO","city":"CHIYODA KU","town":"MARUNOCHI MARUNOCHIPAKUBIRUDEINGU(3","perfecture_jp":"東京都","jp_add_1":"千代田区","jp_add_2":"丸の内丸の内パークビルディング３４階"},"1006390":{"post_code":"1006390","prefecture":"TOKYO TO","city":"CHIYODA KU","town":"MARUNOCHI MARUNOCHIBIRUDEINGU(CHIKA","perfecture_jp":"東京都","jp_add_1":"千代田区","jp_add_2":"丸の内丸の内ビルディング"},"1006301":{"post_code":"1006301","prefecture":"TOKYO TO","city":"CHIYODA KU","town":"MARUNOCHI MARUNOCHIBIRUDEINGU(1-KAI","perfecture_jp":"東京都","jp_add_1":"千代田区","jp_add_2":"丸の内丸の内ビルディング１階"},"1006302":{"post_code":"1006302","prefecture":"TOKYO TO","city":"CHIYODA KU","town":"MARUNOCHI MARUNOCHIBIRUDEINGU(2-KAI","perfecture_jp":"東京都","jp_add_1":"千代田区","jp_add_2":"丸の内丸の内ビルディング２階"},"1006303":{"post_code":"1006303","prefecture":"TOKYO TO","city":"CHIYODA KU","town":"MARUNOCHI MARUNOCHIBIRUDEINGU(3-KAI","perfecture_jp":"東京都","jp_add_1":"千代田区","jp_add_2":"丸の内丸の内ビルディング３階"},"1006304":{"post_code":"1006304","prefecture":"TOKYO TO","city":"CHIYODA KU","town":"MARUNOCHI MARUNOCHIBIRUDEINGU(4-KAI","perfecture_jp":"東京都","jp_add_1":"千代田区","jp_add_2":"丸の内丸の内ビルディング４階"},"1006305":{"post_code":"1006305","prefecture":"TOKYO TO","city":"CHIYODA KU","town":"MARUNOCHI MARUNOCHIBIRUDEINGU(5-KAI","perfecture_jp":"東京都","jp_add_1":"千代田区","jp_add_2":"丸の内丸の内ビルディング５階"},"1006306":{"post_code":"1006306","prefecture":"TOKYO TO","city":"CHIYODA KU","town":"MARUNOCHI MARUNOCHIBIRUDEINGU(6-KAI","perfecture_jp":"東京都","jp_add_1":"千代田区","jp_add_2":"丸の内丸の内ビルディング６階"},"1006307":{"post_code":"1006307","prefecture":"TOKYO TO","city":"CHIYODA KU","town":"MARUNOCHI MARUNOCHIBIRUDEINGU(7-KAI","perfecture_jp":"東京都","jp_add_1":"千代田区","jp_add_2":"丸の内丸の内ビルディング７階"},"1006308":{"post_code":"1006308","prefecture":"TOKYO TO","city":"CHIYODA KU","town":"MARUNOCHI MARUNOCHIBIRUDEINGU(8-KAI","perfecture_jp":"東京都","jp_add_1":"千代田区","jp_add_2":"丸の内丸の内ビルディング８階"},"1006309":{"post_code":"1006309","prefecture":"TOKYO TO","city":"CHIYODA KU","town":"MARUNOCHI MARUNOCHIBIRUDEINGU(9-KAI","perfecture_jp":"東京都","jp_add_1":"千代田区","jp_add_2":"丸の内丸の内ビルディング９階"},"1006310":{"post_code":"1006310","prefecture":"TOKYO TO","city":"CHIYODA KU","town":"MARUNOCHI MARUNOCHIBIRUDEINGU(10-KA","perfecture_jp":"東京都","jp_add_1":"千代田区","jp_add_2":"丸の内丸の内ビルディング１０階"},"1006311":{"post_code":"1006311","prefecture":"TOKYO TO","city":"CHIYODA KU","town":"MARUNOCHI MARUNOCHIBIRUDEINGU(11-KA","perfecture_jp":"東京都","jp_add_1":"千代田区","jp_add_2":"丸の内丸の内ビルディング１１階"},"1006312":{"post_code":"1006312","prefecture":"TOKYO TO","city":"CHIYODA KU","town":"MARUNOCHI MARUNOCHIBIRUDEINGU(12-KA","perfecture_jp":"東京都","jp_add_1":"千代田区","jp_add_2":"丸の内丸の内ビルディング１２階"},"1006313":{"post_code":"1006313","prefecture":"TOKYO TO","city":"CHIYODA KU","town":"MARUNOCHI MARUNOCHIBIRUDEINGU(13-KA","perfecture_jp":"東京都","jp_add_1":"千代田区","jp_add_2":"丸の内丸の内ビルディング１３階"},"1006314":{"post_code":"1006314","prefecture":"TOKYO TO","city":"CHIYODA KU","town":"MARUNOCHI MARUNOCHIBIRUDEINGU(14-KA","perfecture_jp":"東京都","jp_add_1":"千代田区","jp_add_2":"丸の内丸の内ビルディング１４階"},"1006315":{"post_code":"1006315","prefecture":"TOKYO TO","city":"CHIYODA KU","town":"MARUNOCHI MARUNOCHIBIRUDEINGU(15-KA","perfecture_jp":"東京都","jp_add_1":"千代田区","jp_add_2":"丸の内丸の内ビルディング１５階"},"1006316":{"post_code":"1006316","prefecture":"TOKYO TO","city":"CHIYODA KU","town":"MARUNOCHI MARUNOCHIBIRUDEINGU(16-KA","perfecture_jp":"東京都","jp_add_1":"千代田区","jp_add_2":"丸の内丸の内ビルディング１６階"},"1006317":{"post_code":"1006317","prefecture":"TOKYO TO","city":"CHIYODA KU","town":"MARUNOCHI MARUNOCHIBIRUDEINGU(17-KA","perfecture_jp":"東京都","jp_add_1":"千代田区","jp_add_2":"丸の内丸の内ビルディング１７階"},"1006318":{"post_code":"1006318","prefecture":"TOKYO TO","city":"CHIYODA KU","town":"MARUNOCHI MARUNOCHIBIRUDEINGU(18-KA","perfecture_jp":"東京都","jp_add_1":"千代田区","jp_add_2":"丸の内丸の内ビルディング１８階"},"1006319":{"post_code":"1006319","prefecture":"TOKYO TO","city":"CHIYODA KU","town":"MARUNOCHI MARUNOCHIBIRUDEINGU(19-KA","perfecture_jp":"東京都","jp_add_1":"千代田区","jp_add_2":"丸の内丸の内ビルディング１９階"},"1006320":{"post_code":"1006320","prefecture":"TOKYO TO","city":"CHIYODA KU","town":"MARUNOCHI MARUNOCHIBIRUDEINGU(20-KA","perfecture_jp":"東京都","jp_add_1":"千代田区","jp_add_2":"丸の内丸の内ビルディング２０階"},"1006321":{"post_code":"1006321","prefecture":"TOKYO TO","city":"CHIYODA KU","town":"MARUNOCHI MARUNOCHIBIRUDEINGU(21-KA","perfecture_jp":"東京都","jp_add_1":"千代田区","jp_add_2":"丸の内丸の内ビルディング２１階"},"1006322":{"post_code":"1006322","prefecture":"TOKYO TO","city":"CHIYODA KU","town":"MARUNOCHI MARUNOCHIBIRUDEINGU(22-KA","perfecture_jp":"東京都","jp_add_1":"千代田区","jp_add_2":"丸の内丸の内ビルディング２２階"},"1006323":{"post_code":"1006323","prefecture":"TOKYO TO","city":"CHIYODA KU","town":"MARUNOCHI MARUNOCHIBIRUDEINGU(23-KA","perfecture_jp":"東京都","jp_add_1":"千代田区","jp_add_2":"丸の内丸の内ビルディング２３階"},"1006324":{"post_code":"1006324","prefecture":"TOKYO TO","city":"CHIYODA KU","town":"MARUNOCHI MARUNOCHIBIRUDEINGU(24-KA","perfecture_jp":"東京都","jp_add_1":"千代田区","jp_add_2":"丸の内丸の内ビルディング２４階"},"1006325":{"post_code":"1006325","prefecture":"TOKYO TO","city":"CHIYODA KU","town":"MARUNOCHI MARUNOCHIBIRUDEINGU(25-KA","perfecture_jp":"東京都","jp_add_1":"千代田区","jp_add_2":"丸の内丸の内ビルディング２５階"},"1006326":{"post_code":"1006326","prefecture":"TOKYO TO","city":"CHIYODA KU","town":"MARUNOCHI MARUNOCHIBIRUDEINGU(26-KA","perfecture_jp":"東京都","jp_add_1":"千代田区","jp_add_2":"丸の内丸の内ビルディング２６階"},"1006327":{"post_code":"1006327","prefecture":"TOKYO TO","city":"CHIYODA KU","town":"MARUNOCHI MARUNOCHIBIRUDEINGU(27-KA","perfecture_jp":"東京都","jp_add_1":"千代田区","jp_add_2":"丸の内丸の内ビルディング２７階"},"1006328":{"post_code":"1006328","prefecture":"TOKYO TO","city":"CHIYODA KU","town":"MARUNOCHI MARUNOCHIBIRUDEINGU(28-KA","perfecture_jp":"東京都","jp_add_1":"千代田区","jp_add_2":"丸の内丸の内ビルディング２８階"},"1006329":{"post_code":"1006329","prefecture":"TOKYO TO","city":"CHIYODA KU","town":"MARUNOCHI MARUNOCHIBIRUDEINGU(29-KA","perfecture_jp":"東京都","jp_add_1":"千代田区","jp_add_2":"丸の内丸の内ビルディング２９階"},"1006330":{"post_code":"1006330","prefecture":"TOKYO TO","city":"CHIYODA KU","town":"MARUNOCHI MARUNOCHIBIRUDEINGU(30-KA","perfecture_jp":"東京都","jp_add_1":"千代田区","jp_add_2":"丸の内丸の内ビルディング３０階"},"1006331":{"post_code":"1006331","prefecture":"TOKYO TO","city":"CHIYODA KU","town":"MARUNOCHI MARUNOCHIBIRUDEINGU(31-KA","perfecture_jp":"東京都","jp_add_1":"千代田区","jp_add_2":"丸の内丸の内ビルディング３１階"},"1006332":{"post_code":"1006332","prefecture":"TOKYO TO","city":"CHIYODA KU","town":"MARUNOCHI MARUNOCHIBIRUDEINGU(32-KA","perfecture_jp":"東京都","jp_add_1":"千代田区","jp_add_2":"丸の内丸の内ビルディング３２階"},"1006333":{"post_code":"1006333","prefecture":"TOKYO TO","city":"CHIYODA KU","town":"MARUNOCHI MARUNOCHIBIRUDEINGU(33-KA","perfecture_jp":"東京都","jp_add_1":"千代田区","jp_add_2":"丸の内丸の内ビルディング３３階"},"1006334":{"post_code":"1006334","prefecture":"TOKYO TO","city":"CHIYODA KU","town":"MARUNOCHI MARUNOCHIBIRUDEINGU(34-KA","perfecture_jp":"東京都","jp_add_1":"千代田区","jp_add_2":"丸の内丸の内ビルディング３４階"},"1006335":{"post_code":"1006335","prefecture":"TOKYO TO","city":"CHIYODA KU","town":"MARUNOCHI MARUNOCHIBIRUDEINGU(35-KA","perfecture_jp":"東京都","jp_add_1":"千代田区","jp_add_2":"丸の内丸の内ビルディング３５階"},"1006336":{"post_code":"1006336","prefecture":"TOKYO TO","city":"CHIYODA KU","town":"MARUNOCHI MARUNOCHIBIRUDEINGU(36-KA","perfecture_jp":"東京都","jp_add_1":"千代田区","jp_add_2":"丸の内丸の内ビルディング３６階"},"1006337":{"post_code":"1006337","prefecture":"TOKYO TO","city":"CHIYODA KU","town":"MARUNOCHI MARUNOCHIBIRUDEINGU(37-KA","perfecture_jp":"東京都","jp_add_1":"千代田区","jp_add_2":"丸の内丸の内ビルディング３７階"},"1000006":{"post_code":"1000006","prefecture":"TOKYO TO","city":"CHIYODA KU","town":"YURAKUCHO","perfecture_jp":"東京都","jp_add_1":"千代田区","jp_add_2":"有楽町"},"1000100":{"post_code":"1000100","prefecture":"TOKYO TO","city":"OSHIMA MACHI","town":"IKANIKEISAIGANAIBAAI","perfecture_jp":"東京都","jp_add_1":"大島町","jp_add_2":""},"1000102":{"post_code":"1000102","prefecture":"TOKYO TO","city":"OSHIMA MACHI","town":"OKATA","perfecture_jp":"東京都","jp_add_1":"大島町","jp_add_2":"岡田"},"1000211":{"post_code":"1000211","prefecture":"TOKYO TO","city":"OSHIMA MACHI","town":"SASHIKIJI","perfecture_jp":"東京都","jp_add_1":"大島町","jp_add_2":"差木地"},"1000103":{"post_code":"1000103","prefecture":"TOKYO TO","city":"OSHIMA MACHI","town":"SENZU","perfecture_jp":"東京都","jp_add_1":"大島町","jp_add_2":"泉津"},"1000104":{"post_code":"1000104","prefecture":"TOKYO TO","city":"OSHIMA MACHI","town":"NOMASHI","perfecture_jp":"東京都","jp_add_1":"大島町","jp_add_2":"野増"},"1000212":{"post_code":"1000212","prefecture":"TOKYO TO","city":"OSHIMA MACHI","town":"HABUMINATO","perfecture_jp":"東京都","jp_add_1":"大島町","jp_add_2":"波浮港"},"1000101":{"post_code":"1000101","prefecture":"TOKYO TO","city":"OSHIMA MACHI","town":"MOTOMACHI","perfecture_jp":"東京都","jp_add_1":"大島町","jp_add_2":"元町"},"1000301":{"post_code":"1000301","prefecture":"TOKYO TO","city":"TOSHIMA MURA","town":"TOSHIMAMURAICHIEN","perfecture_jp":"東京都","jp_add_1":"利島村","jp_add_2":"利島村"},"1000400":{"post_code":"1000400","prefecture":"TOKYO TO","city":"NIIJIMA MURA","town":"IKANIKEISAIGANAIBAAI","perfecture_jp":"東京都","jp_add_1":"新島村","jp_add_2":""},"1000511":{"post_code":"1000511","prefecture":"TOKYO TO","city":"NIIJIMA MURA","town":"SHIKINEJIMA","perfecture_jp":"東京都","jp_add_1":"新島村","jp_add_2":"式根島"},"1000402":{"post_code":"1000402","prefecture":"TOKYO TO","city":"NIIJIMA MURA","town":"HONSON","perfecture_jp":"東京都","jp_add_1":"新島村","jp_add_2":"本村"},"1000401":{"post_code":"1000401","prefecture":"TOKYO TO","city":"NIIJIMA MURA","town":"WAKAGO","perfecture_jp":"東京都","jp_add_1":"新島村","jp_add_2":"若郷"},"1000601":{"post_code":"1000601","prefecture":"TOKYO TO","city":"KOZUSHIMA MURA","town":"KOZUSHIMAMURAICHIEN","perfecture_jp":"東京都","jp_add_1":"神津島村","jp_add_2":"神津島村"},"1001100":{"post_code":"1001100","prefecture":"TOKYO TO","city":"MIYAKEJIMA MIYAKE MURA","town":"IKANIKEISAIGANAIBAAI","perfecture_jp":"東京都","jp_add_1":"三宅島三宅村","jp_add_2":""},"1001212":{"post_code":"1001212","prefecture":"TOKYO TO","city":"MIYAKEJIMA MIYAKE MURA","town":"AKO","perfecture_jp":"東京都","jp_add_1":"三宅島三宅村","jp_add_2":"阿古"},"1001103":{"post_code":"1001103","prefecture":"TOKYO TO","city":"MIYAKEJIMA MIYAKE MURA","town":"IGAYA","perfecture_jp":"東京都","jp_add_1":"三宅島三宅村","jp_add_2":"伊ケ谷"},"1001102":{"post_code":"1001102","prefecture":"TOKYO TO","city":"MIYAKEJIMA MIYAKE MURA","town":"IZU","perfecture_jp":"東京都","jp_add_1":"三宅島三宅村","jp_add_2":"伊豆"},"1001213":{"post_code":"1001213","prefecture":"TOKYO TO","city":"MIYAKEJIMA MIYAKE MURA","town":"OYAMA","perfecture_jp":"東京都","jp_add_1":"三宅島三宅村","jp_add_2":"雄山"},"1001101":{"post_code":"1001101","prefecture":"TOKYO TO","city":"MIYAKEJIMA MIYAKE MURA","town":"KAMITSUKI","perfecture_jp":"東京都","jp_add_1":"三宅島三宅村","jp_add_2":"神着"},"1001211":{"post_code":"1001211","prefecture":"TOKYO TO","city":"MIYAKEJIMA MIYAKE MURA","town":"TSUBOTA","perfecture_jp":"東京都","jp_add_1":"三宅島三宅村","jp_add_2":"坪田"},"1001301":{"post_code":"1001301","prefecture":"TOKYO TO","city":"MIKURAJIMA MURA","town":"MIKURAJIMAMURAICHIEN","perfecture_jp":"東京都","jp_add_1":"御蔵島村","jp_add_2":"御蔵島村"},"1001400":{"post_code":"1001400","prefecture":"TOKYO TO","city":"HACHIJOJIMA HACHIJO MACHI","town":"IKANIKEISAIGANAIBAAI","perfecture_jp":"東京都","jp_add_1":"八丈島八丈町","jp_add_2":""},"1001401":{"post_code":"1001401","prefecture":"TOKYO TO","city":"HACHIJOJIMA HACHIJO MACHI","town":"OKAGO","perfecture_jp":"東京都","jp_add_1":"八丈島八丈町","jp_add_2":"大賀郷"},"1001621":{"post_code":"1001621","prefecture":"TOKYO TO","city":"HACHIJOJIMA HACHIJO MACHI","town":"KASHITATE","perfecture_jp":"東京都","jp_add_1":"八丈島八丈町","jp_add_2":"樫立"},"1001622":{"post_code":"1001622","prefecture":"TOKYO TO","city":"HACHIJOJIMA HACHIJO MACHI","town":"SUEYOSHI","perfecture_jp":"東京都","jp_add_1":"八丈島八丈町","jp_add_2":"末吉"},"1001623":{"post_code":"1001623","prefecture":"TOKYO TO","city":"HACHIJOJIMA HACHIJO MACHI","town":"NAKANOGO","perfecture_jp":"東京都","jp_add_1":"八丈島八丈町","jp_add_2":"中之郷"},"1001511":{"post_code":"1001511","prefecture":"TOKYO TO","city":"HACHIJOJIMA HACHIJO MACHI","town":"MITSUNE","perfecture_jp":"東京都","jp_add_1":"八丈島八丈町","jp_add_2":"三根"},"1001701":{"post_code":"1001701","prefecture":"TOKYO TO","city":"AOGASHIMA MURA","town":"AOGASHIMAMURAICHIEN","perfecture_jp":"東京都","jp_add_1":"青ヶ島村","jp_add_2":"青ヶ島村"},"1002100":{"post_code":"1002100","prefecture":"TOKYO TO","city":"OGASAWARA MURA","town":"IKANIKEISAIGANAIBAAI","perfecture_jp":"東京都","jp_add_1":"小笠原村","jp_add_2":""},"1002101":{"post_code":"1002101","prefecture":"TOKYO TO","city":"OGASAWARA MURA","town":"CHICHIJIMA","perfecture_jp":"東京都","jp_add_1":"小笠原村","jp_add_2":"父島"},"1002211":{"post_code":"1002211","prefecture":"TOKYO TO","city":"OGASAWARA MURA","town":"HAHAJIMA","perfecture_jp":"東京都","jp_add_1":"小笠原村","jp_add_2":"母島"}}