{"1010032":{"post_code":"1010032","prefecture":"TOKYO TO","city":"CHIYODA KU","town":"IWAMOTOCHO","perfecture_jp":"東京都","jp_add_1":"千代田区","jp_add_2":"岩本町"},"1010047":{"post_code":"1010047","prefecture":"TOKYO TO","city":"CHIYODA KU","town":"UCHIKANDA","perfecture_jp":"東京都","jp_add_1":"千代田区","jp_add_2":"内神田"},"1010044":{"post_code":"1010044","prefecture":"TOKYO TO","city":"CHIYODA KU","town":"KAJICHO","perfecture_jp":"東京都","jp_add_1":"千代田区","jp_add_2":"鍛冶町"},"1010029":{"post_code":"1010029","prefecture":"TOKYO TO","city":"CHIYODA KU","town":"KANDAAIOICHO","perfecture_jp":"東京都","jp_add_1":"千代田区","jp_add_2":"神田相生町"},"1010063":{"post_code":"1010063","prefecture":"TOKYO TO","city":"CHIYODA KU","town":"KANDAAWAJICHO","perfecture_jp":"東京都","jp_add_1":"千代田区","jp_add_2":"神田淡路町"},"1010024":{"post_code":"1010024","prefecture":"TOKYO TO","city":"CHIYODA KU","town":"KANDAIZUMICHO","perfecture_jp":"東京都","jp_add_1":"千代田区","jp_add_2":"神田和泉町"},"1010033":{"post_code":"1010033","prefecture":"TOKYO TO","city":"CHIYODA KU","town":"KANDAIWAMOTOCHO","perfecture_jp":"東京都","jp_add_1":"千代田区","jp_add_2":"神田岩本町"},"1010052":{"post_code":"1010052","prefecture":"TOKYO TO","city":"CHIYODA KU","town":"KANDAOGAWAMACHI","perfecture_jp":"東京都","jp_add_1":"千代田区","jp_add_2":"神田小川町"},"1010045":{"post_code":"1010045","prefecture":"TOKYO TO","city":"CHIYODA KU","town":"KANDAKAJICHO","perfecture_jp":"東京都","jp_add_1":"千代田区","jp_add_2":"神田鍛冶町"},"1010036":{"post_code":"1010036","prefecture":"TOKYO TO","city":"CHIYODA KU","town":"KANDAKITANORIMONOCHO","perfecture_jp":"東京都","jp_add_1":"千代田区","jp_add_2":"神田北乗物町"},"1010035":{"post_code":"1010035","prefecture":"TOKYO TO","city":"CHIYODA KU","town":"KANDAKONYACHO","perfecture_jp":"東京都","jp_add_1":"千代田区","jp_add_2":"神田紺屋町"},"1010026":{"post_code":"1010026","prefecture":"TOKYO TO","city":"CHIYODA KU","town":"KANDASAKUMAGASHI","perfecture_jp":"東京都","jp_add_1":"千代田区","jp_add_2":"神田佐久間河岸"},"1010025":{"post_code":"1010025","prefecture":"TOKYO TO","city":"CHIYODA KU","town":"KANDASAKUMACHO","perfecture_jp":"東京都","jp_add_1":"千代田区","jp_add_2":"神田佐久間町"},"1010051":{"post_code":"1010051","prefecture":"TOKYO TO","city":"CHIYODA KU","town":"KANDAJIMBOCHO","perfecture_jp":"東京都","jp_add_1":"千代田区","jp_add_2":"神田神保町"},"1010041":{"post_code":"1010041","prefecture":"TOKYO TO","city":"CHIYODA KU","town":"KANDASUDACHO","perfecture_jp":"東京都","jp_add_1":"千代田区","jp_add_2":"神田須田町"},"1010062":{"post_code":"1010062","prefecture":"TOKYO TO","city":"CHIYODA KU","town":"KANDASURUGADAI","perfecture_jp":"東京都","jp_add_1":"千代田区","jp_add_2":"神田駿河台"},"1010046":{"post_code":"1010046","prefecture":"TOKYO TO","city":"CHIYODA KU","town":"KANDATACHO","perfecture_jp":"東京都","jp_add_1":"千代田区","jp_add_2":"神田多町"},"1010048":{"post_code":"1010048","prefecture":"TOKYO TO","city":"CHIYODA KU","town":"KANDATSUKASAMACHI","perfecture_jp":"東京都","jp_add_1":"千代田区","jp_add_2":"神田司町"},"1010043":{"post_code":"1010043","prefecture":"TOKYO TO","city":"CHIYODA KU","town":"KANDATOMIYAMACHO","perfecture_jp":"東京都","jp_add_1":"千代田区","jp_add_2":"神田富山町"},"1010054":{"post_code":"1010054","prefecture":"TOKYO TO","city":"CHIYODA KU","town":"KANDANISHIKICHO","perfecture_jp":"東京都","jp_add_1":"千代田区","jp_add_2":"神田錦町"},"1010037":{"post_code":"1010037","prefecture":"TOKYO TO","city":"CHIYODA KU","town":"KANDANISHIFUKUDACHO","perfecture_jp":"東京都","jp_add_1":"千代田区","jp_add_2":"神田西福田町"},"1010022":{"post_code":"1010022","prefecture":"TOKYO TO","city":"CHIYODA KU","town":"KANDANERIBEICHO","perfecture_jp":"東京都","jp_add_1":"千代田区","jp_add_2":"神田練塀町"},"1010028":{"post_code":"1010028","prefecture":"TOKYO TO","city":"CHIYODA KU","town":"KANDAHANAOKACHO","perfecture_jp":"東京都","jp_add_1":"千代田区","jp_add_2":"神田花岡町"},"1010034":{"post_code":"1010034","prefecture":"TOKYO TO","city":"CHIYODA KU","town":"KANDAHIGASHIKONYACHO","perfecture_jp":"東京都","jp_add_1":"千代田区","jp_add_2":"神田東紺屋町"},"1010042":{"post_code":"1010042","prefecture":"TOKYO TO","city":"CHIYODA KU","town":"KANDAHIGASHIMATSUSHITACHO","perfecture_jp":"東京都","jp_add_1":"千代田区","jp_add_2":"神田東松下町"},"1010027":{"post_code":"1010027","prefecture":"TOKYO TO","city":"CHIYODA KU","town":"KANDAHIRAKAWACHO","perfecture_jp":"東京都","jp_add_1":"千代田区","jp_add_2":"神田平河町"},"1010023":{"post_code":"1010023","prefecture":"TOKYO TO","city":"CHIYODA KU","town":"KANDAMATSUNAGACHO","perfecture_jp":"東京都","jp_add_1":"千代田区","jp_add_2":"神田松永町"},"1010038":{"post_code":"1010038","prefecture":"TOKYO TO","city":"CHIYODA KU","town":"KANDAMIKURACHO","perfecture_jp":"東京都","jp_add_1":"千代田区","jp_add_2":"神田美倉町"},"1010053":{"post_code":"1010053","prefecture":"TOKYO TO","city":"CHIYODA KU","town":"KANDAMITOSHIROCHO","perfecture_jp":"東京都","jp_add_1":"千代田区","jp_add_2":"神田美土代町"},"1010064":{"post_code":"1010064","prefecture":"TOKYO TO","city":"CHIYODA KU","town":"SARUGAKUCHO","perfecture_jp":"東京都","jp_add_1":"千代田区","jp_add_2":"猿楽町"},"1010021":{"post_code":"1010021","prefecture":"TOKYO TO","city":"CHIYODA KU","town":"SOTOKANDA","perfecture_jp":"東京都","jp_add_1":"千代田区","jp_add_2":"外神田"},"1010065":{"post_code":"1010065","prefecture":"TOKYO TO","city":"CHIYODA KU","town":"NISHIKANDA","perfecture_jp":"東京都","jp_add_1":"千代田区","jp_add_2":"西神田"},"1010031":{"post_code":"1010031","prefecture":"TOKYO TO","city":"CHIYODA KU","town":"HIGASHIKANDA","perfecture_jp":"東京都","jp_add_1":"千代田区","jp_add_2":"東神田"},"1010003":{"post_code":"1010003","prefecture":"TOKYO TO","city":"CHIYODA KU","town":"HITOTSUBASHI(2-CHOME)","perfecture_jp":"東京都","jp_add_1":"千代田区","jp_add_2":"一ツ橋"},"1010061":{"post_code":"1010061","prefecture":"TOKYO TO","city":"CHIYODA KU","town":"MISAKICHO","perfecture_jp":"東京都","jp_add_1":"千代田区","jp_add_2":"三崎町"}}