{"1040044":{"post_code":"1040044","prefecture":"TOKYO TO","city":"CHUO KU","town":"AKASHICHO","perfecture_jp":"東京都","jp_add_1":"中央区","jp_add_2":"明石町"},"1040042":{"post_code":"1040042","prefecture":"TOKYO TO","city":"CHUO KU","town":"IRIFUNE","perfecture_jp":"東京都","jp_add_1":"中央区","jp_add_2":"入船"},"1040054":{"post_code":"1040054","prefecture":"TOKYO TO","city":"CHUO KU","town":"KACHIDOKI","perfecture_jp":"東京都","jp_add_1":"中央区","jp_add_2":"勝どき"},"1040031":{"post_code":"1040031","prefecture":"TOKYO TO","city":"CHUO KU","town":"KYOBASHI","perfecture_jp":"東京都","jp_add_1":"中央区","jp_add_2":"京橋"},"1040061":{"post_code":"1040061","prefecture":"TOKYO TO","city":"CHUO KU","town":"GINZA","perfecture_jp":"東京都","jp_add_1":"中央区","jp_add_2":"銀座"},"1040033":{"post_code":"1040033","prefecture":"TOKYO TO","city":"CHUO KU","town":"SHINKAWA","perfecture_jp":"東京都","jp_add_1":"中央区","jp_add_2":"新川"},"1040041":{"post_code":"1040041","prefecture":"TOKYO TO","city":"CHUO KU","town":"SHINTOMI","perfecture_jp":"東京都","jp_add_1":"中央区","jp_add_2":"新富"},"1040052":{"post_code":"1040052","prefecture":"TOKYO TO","city":"CHUO KU","town":"TSUKISHIMA","perfecture_jp":"東京都","jp_add_1":"中央区","jp_add_2":"月島"},"1040045":{"post_code":"1040045","prefecture":"TOKYO TO","city":"CHUO KU","town":"TSUKIJI","perfecture_jp":"東京都","jp_add_1":"中央区","jp_add_2":"築地"},"1040051":{"post_code":"1040051","prefecture":"TOKYO TO","city":"CHUO KU","town":"TSUKUDA","perfecture_jp":"東京都","jp_add_1":"中央区","jp_add_2":"佃"},"1040055":{"post_code":"1040055","prefecture":"TOKYO TO","city":"CHUO KU","town":"TOYOMICHO","perfecture_jp":"東京都","jp_add_1":"中央区","jp_add_2":"豊海町"},"1040032":{"post_code":"1040032","prefecture":"TOKYO TO","city":"CHUO KU","town":"HATCHOBORI","perfecture_jp":"東京都","jp_add_1":"中央区","jp_add_2":"八丁堀"},"1040046":{"post_code":"1040046","prefecture":"TOKYO TO","city":"CHUO KU","town":"HAMARIKYUTEIEN","perfecture_jp":"東京都","jp_add_1":"中央区","jp_add_2":"浜離宮庭園"},"1040053":{"post_code":"1040053","prefecture":"TOKYO TO","city":"CHUO KU","town":"HARUMI (TSUGINOBIRUONOZOKU)","perfecture_jp":"東京都","jp_add_1":"中央区","jp_add_2":"晴海"},"1046090":{"post_code":"1046090","prefecture":"TOKYO TO","city":"CHUO KU","town":"HARUMI OFUISUTAWAX(CHIKAI.KAISOFUME","perfecture_jp":"東京都","jp_add_1":"中央区","jp_add_2":"晴海オフィスタワーＸ"},"1046001":{"post_code":"1046001","prefecture":"TOKYO TO","city":"CHUO KU","town":"HARUMI OFUISUTAWAX(1-KAI)","perfecture_jp":"東京都","jp_add_1":"中央区","jp_add_2":"晴海オフィスタワーＸ１階"},"1046002":{"post_code":"1046002","prefecture":"TOKYO TO","city":"CHUO KU","town":"HARUMI OFUISUTAWAX(2-KAI)","perfecture_jp":"東京都","jp_add_1":"中央区","jp_add_2":"晴海オフィスタワーＸ２階"},"1046003":{"post_code":"1046003","prefecture":"TOKYO TO","city":"CHUO KU","town":"HARUMI OFUISUTAWAX(3-KAI)","perfecture_jp":"東京都","jp_add_1":"中央区","jp_add_2":"晴海オフィスタワーＸ３階"},"1046004":{"post_code":"1046004","prefecture":"TOKYO TO","city":"CHUO KU","town":"HARUMI OFUISUTAWAX(4-KAI)","perfecture_jp":"東京都","jp_add_1":"中央区","jp_add_2":"晴海オフィスタワーＸ４階"},"1046005":{"post_code":"1046005","prefecture":"TOKYO TO","city":"CHUO KU","town":"HARUMI OFUISUTAWAX(5-KAI)","perfecture_jp":"東京都","jp_add_1":"中央区","jp_add_2":"晴海オフィスタワーＸ５階"},"1046006":{"post_code":"1046006","prefecture":"TOKYO TO","city":"CHUO KU","town":"HARUMI OFUISUTAWAX(6-KAI)","perfecture_jp":"東京都","jp_add_1":"中央区","jp_add_2":"晴海オフィスタワーＸ６階"},"1046007":{"post_code":"1046007","prefecture":"TOKYO TO","city":"CHUO KU","town":"HARUMI OFUISUTAWAX(7-KAI)","perfecture_jp":"東京都","jp_add_1":"中央区","jp_add_2":"晴海オフィスタワーＸ７階"},"1046008":{"post_code":"1046008","prefecture":"TOKYO TO","city":"CHUO KU","town":"HARUMI OFUISUTAWAX(8-KAI)","perfecture_jp":"東京都","jp_add_1":"中央区","jp_add_2":"晴海オフィスタワーＸ８階"},"1046009":{"post_code":"1046009","prefecture":"TOKYO TO","city":"CHUO KU","town":"HARUMI OFUISUTAWAX(9-KAI)","perfecture_jp":"東京都","jp_add_1":"中央区","jp_add_2":"晴海オフィスタワーＸ９階"},"1046010":{"post_code":"1046010","prefecture":"TOKYO TO","city":"CHUO KU","town":"HARUMI OFUISUTAWAX(10-KAI)","perfecture_jp":"東京都","jp_add_1":"中央区","jp_add_2":"晴海オフィスタワーＸ１０階"},"1046011":{"post_code":"1046011","prefecture":"TOKYO TO","city":"CHUO KU","town":"HARUMI OFUISUTAWAX(11-KAI)","perfecture_jp":"東京都","jp_add_1":"中央区","jp_add_2":"晴海オフィスタワーＸ１１階"},"1046012":{"post_code":"1046012","prefecture":"TOKYO TO","city":"CHUO KU","town":"HARUMI OFUISUTAWAX(12-KAI)","perfecture_jp":"東京都","jp_add_1":"中央区","jp_add_2":"晴海オフィスタワーＸ１２階"},"1046013":{"post_code":"1046013","prefecture":"TOKYO TO","city":"CHUO KU","town":"HARUMI OFUISUTAWAX(13-KAI)","perfecture_jp":"東京都","jp_add_1":"中央区","jp_add_2":"晴海オフィスタワーＸ１３階"},"1046014":{"post_code":"1046014","prefecture":"TOKYO TO","city":"CHUO KU","town":"HARUMI OFUISUTAWAX(14-KAI)","perfecture_jp":"東京都","jp_add_1":"中央区","jp_add_2":"晴海オフィスタワーＸ１４階"},"1046015":{"post_code":"1046015","prefecture":"TOKYO TO","city":"CHUO KU","town":"HARUMI OFUISUTAWAX(15-KAI)","perfecture_jp":"東京都","jp_add_1":"中央区","jp_add_2":"晴海オフィスタワーＸ１５階"},"1046016":{"post_code":"1046016","prefecture":"TOKYO TO","city":"CHUO KU","town":"HARUMI OFUISUTAWAX(16-KAI)","perfecture_jp":"東京都","jp_add_1":"中央区","jp_add_2":"晴海オフィスタワーＸ１６階"},"1046017":{"post_code":"1046017","prefecture":"TOKYO TO","city":"CHUO KU","town":"HARUMI OFUISUTAWAX(17-KAI)","perfecture_jp":"東京都","jp_add_1":"中央区","jp_add_2":"晴海オフィスタワーＸ１７階"},"1046018":{"post_code":"1046018","prefecture":"TOKYO TO","city":"CHUO KU","town":"HARUMI OFUISUTAWAX(18-KAI)","perfecture_jp":"東京都","jp_add_1":"中央区","jp_add_2":"晴海オフィスタワーＸ１８階"},"1046019":{"post_code":"1046019","prefecture":"TOKYO TO","city":"CHUO KU","town":"HARUMI OFUISUTAWAX(19-KAI)","perfecture_jp":"東京都","jp_add_1":"中央区","jp_add_2":"晴海オフィスタワーＸ１９階"},"1046020":{"post_code":"1046020","prefecture":"TOKYO TO","city":"CHUO KU","town":"HARUMI OFUISUTAWAX(20-KAI)","perfecture_jp":"東京都","jp_add_1":"中央区","jp_add_2":"晴海オフィスタワーＸ２０階"},"1046021":{"post_code":"1046021","prefecture":"TOKYO TO","city":"CHUO KU","town":"HARUMI OFUISUTAWAX(21-KAI)","perfecture_jp":"東京都","jp_add_1":"中央区","jp_add_2":"晴海オフィスタワーＸ２１階"},"1046022":{"post_code":"1046022","prefecture":"TOKYO TO","city":"CHUO KU","town":"HARUMI OFUISUTAWAX(22-KAI)","perfecture_jp":"東京都","jp_add_1":"中央区","jp_add_2":"晴海オフィスタワーＸ２２階"},"1046023":{"post_code":"1046023","prefecture":"TOKYO TO","city":"CHUO KU","town":"HARUMI OFUISUTAWAX(23-KAI)","perfecture_jp":"東京都","jp_add_1":"中央区","jp_add_2":"晴海オフィスタワーＸ２３階"},"1046024":{"post_code":"1046024","prefecture":"TOKYO TO","city":"CHUO KU","town":"HARUMI OFUISUTAWAX(24-KAI)","perfecture_jp":"東京都","jp_add_1":"中央区","jp_add_2":"晴海オフィスタワーＸ２４階"},"1046025":{"post_code":"1046025","prefecture":"TOKYO TO","city":"CHUO KU","town":"HARUMI OFUISUTAWAX(25-KAI)","perfecture_jp":"東京都","jp_add_1":"中央区","jp_add_2":"晴海オフィスタワーＸ２５階"},"1046026":{"post_code":"1046026","prefecture":"TOKYO TO","city":"CHUO KU","town":"HARUMI OFUISUTAWAX(26-KAI)","perfecture_jp":"東京都","jp_add_1":"中央区","jp_add_2":"晴海オフィスタワーＸ２６階"},"1046027":{"post_code":"1046027","prefecture":"TOKYO TO","city":"CHUO KU","town":"HARUMI OFUISUTAWAX(27-KAI)","perfecture_jp":"東京都","jp_add_1":"中央区","jp_add_2":"晴海オフィスタワーＸ２７階"},"1046028":{"post_code":"1046028","prefecture":"TOKYO TO","city":"CHUO KU","town":"HARUMI OFUISUTAWAX(28-KAI)","perfecture_jp":"東京都","jp_add_1":"中央区","jp_add_2":"晴海オフィスタワーＸ２８階"},"1046029":{"post_code":"1046029","prefecture":"TOKYO TO","city":"CHUO KU","town":"HARUMI OFUISUTAWAX(29-KAI)","perfecture_jp":"東京都","jp_add_1":"中央区","jp_add_2":"晴海オフィスタワーＸ２９階"},"1046030":{"post_code":"1046030","prefecture":"TOKYO TO","city":"CHUO KU","town":"HARUMI OFUISUTAWAX(30-KAI)","perfecture_jp":"東京都","jp_add_1":"中央区","jp_add_2":"晴海オフィスタワーＸ３０階"},"1046031":{"post_code":"1046031","prefecture":"TOKYO TO","city":"CHUO KU","town":"HARUMI OFUISUTAWAX(31-KAI)","perfecture_jp":"東京都","jp_add_1":"中央区","jp_add_2":"晴海オフィスタワーＸ３１階"},"1046032":{"post_code":"1046032","prefecture":"TOKYO TO","city":"CHUO KU","town":"HARUMI OFUISUTAWAX(32-KAI)","perfecture_jp":"東京都","jp_add_1":"中央区","jp_add_2":"晴海オフィスタワーＸ３２階"},"1046033":{"post_code":"1046033","prefecture":"TOKYO TO","city":"CHUO KU","town":"HARUMI OFUISUTAWAX(33-KAI)","perfecture_jp":"東京都","jp_add_1":"中央区","jp_add_2":"晴海オフィスタワーＸ３３階"},"1046034":{"post_code":"1046034","prefecture":"TOKYO TO","city":"CHUO KU","town":"HARUMI OFUISUTAWAX(34-KAI)","perfecture_jp":"東京都","jp_add_1":"中央区","jp_add_2":"晴海オフィスタワーＸ３４階"},"1046035":{"post_code":"1046035","prefecture":"TOKYO TO","city":"CHUO KU","town":"HARUMI OFUISUTAWAX(35-KAI)","perfecture_jp":"東京都","jp_add_1":"中央区","jp_add_2":"晴海オフィスタワーＸ３５階"},"1046036":{"post_code":"1046036","prefecture":"TOKYO TO","city":"CHUO KU","town":"HARUMI OFUISUTAWAX(36-KAI)","perfecture_jp":"東京都","jp_add_1":"中央区","jp_add_2":"晴海オフィスタワーＸ３６階"},"1046037":{"post_code":"1046037","prefecture":"TOKYO TO","city":"CHUO KU","town":"HARUMI OFUISUTAWAX(37-KAI)","perfecture_jp":"東京都","jp_add_1":"中央区","jp_add_2":"晴海オフィスタワーＸ３７階"},"1046038":{"post_code":"1046038","prefecture":"TOKYO TO","city":"CHUO KU","town":"HARUMI OFUISUTAWAX(38-KAI)","perfecture_jp":"東京都","jp_add_1":"中央区","jp_add_2":"晴海オフィスタワーＸ３８階"},"1046039":{"post_code":"1046039","prefecture":"TOKYO TO","city":"CHUO KU","town":"HARUMI OFUISUTAWAX(39-KAI)","perfecture_jp":"東京都","jp_add_1":"中央区","jp_add_2":"晴海オフィスタワーＸ３９階"},"1046040":{"post_code":"1046040","prefecture":"TOKYO TO","city":"CHUO KU","town":"HARUMI OFUISUTAWAX(40-KAI)","perfecture_jp":"東京都","jp_add_1":"中央区","jp_add_2":"晴海オフィスタワーＸ４０階"},"1046041":{"post_code":"1046041","prefecture":"TOKYO TO","city":"CHUO KU","town":"HARUMI OFUISUTAWAX(41-KAI)","perfecture_jp":"東京都","jp_add_1":"中央区","jp_add_2":"晴海オフィスタワーＸ４１階"},"1046042":{"post_code":"1046042","prefecture":"TOKYO TO","city":"CHUO KU","town":"HARUMI OFUISUTAWAX(42-KAI)","perfecture_jp":"東京都","jp_add_1":"中央区","jp_add_2":"晴海オフィスタワーＸ４２階"},"1046043":{"post_code":"1046043","prefecture":"TOKYO TO","city":"CHUO KU","town":"HARUMI OFUISUTAWAX(43-KAI)","perfecture_jp":"東京都","jp_add_1":"中央区","jp_add_2":"晴海オフィスタワーＸ４３階"},"1046044":{"post_code":"1046044","prefecture":"TOKYO TO","city":"CHUO KU","town":"HARUMI OFUISUTAWAX(44-KAI)","perfecture_jp":"東京都","jp_add_1":"中央区","jp_add_2":"晴海オフィスタワーＸ４４階"},"1046190":{"post_code":"1046190","prefecture":"TOKYO TO","city":"CHUO KU","town":"HARUMI OFUISUTAWAY(CHIKAI.KAISOFUME","perfecture_jp":"東京都","jp_add_1":"中央区","jp_add_2":"晴海オフィスタワーＹ"},"1046101":{"post_code":"1046101","prefecture":"TOKYO TO","city":"CHUO KU","town":"HARUMI OFUISUTAWAY(1-KAI)","perfecture_jp":"東京都","jp_add_1":"中央区","jp_add_2":"晴海オフィスタワーＹ１階"},"1046102":{"post_code":"1046102","prefecture":"TOKYO TO","city":"CHUO KU","town":"HARUMI OFUISUTAWAY(2-KAI)","perfecture_jp":"東京都","jp_add_1":"中央区","jp_add_2":"晴海オフィスタワーＹ２階"},"1046103":{"post_code":"1046103","prefecture":"TOKYO TO","city":"CHUO KU","town":"HARUMI OFUISUTAWAY(3-KAI)","perfecture_jp":"東京都","jp_add_1":"中央区","jp_add_2":"晴海オフィスタワーＹ３階"},"1046104":{"post_code":"1046104","prefecture":"TOKYO TO","city":"CHUO KU","town":"HARUMI OFUISUTAWAY(4-KAI)","perfecture_jp":"東京都","jp_add_1":"中央区","jp_add_2":"晴海オフィスタワーＹ４階"},"1046105":{"post_code":"1046105","prefecture":"TOKYO TO","city":"CHUO KU","town":"HARUMI OFUISUTAWAY(5-KAI)","perfecture_jp":"東京都","jp_add_1":"中央区","jp_add_2":"晴海オフィスタワーＹ５階"},"1046106":{"post_code":"1046106","prefecture":"TOKYO TO","city":"CHUO KU","town":"HARUMI OFUISUTAWAY(6-KAI)","perfecture_jp":"東京都","jp_add_1":"中央区","jp_add_2":"晴海オフィスタワーＹ６階"},"1046107":{"post_code":"1046107","prefecture":"TOKYO TO","city":"CHUO KU","town":"HARUMI OFUISUTAWAY(7-KAI)","perfecture_jp":"東京都","jp_add_1":"中央区","jp_add_2":"晴海オフィスタワーＹ７階"},"1046108":{"post_code":"1046108","prefecture":"TOKYO TO","city":"CHUO KU","town":"HARUMI OFUISUTAWAY(8-KAI)","perfecture_jp":"東京都","jp_add_1":"中央区","jp_add_2":"晴海オフィスタワーＹ８階"},"1046109":{"post_code":"1046109","prefecture":"TOKYO TO","city":"CHUO KU","town":"HARUMI OFUISUTAWAY(9-KAI)","perfecture_jp":"東京都","jp_add_1":"中央区","jp_add_2":"晴海オフィスタワーＹ９階"},"1046110":{"post_code":"1046110","prefecture":"TOKYO TO","city":"CHUO KU","town":"HARUMI OFUISUTAWAY(10-KAI)","perfecture_jp":"東京都","jp_add_1":"中央区","jp_add_2":"晴海オフィスタワーＹ１０階"},"1046111":{"post_code":"1046111","prefecture":"TOKYO TO","city":"CHUO KU","town":"HARUMI OFUISUTAWAY(11-KAI)","perfecture_jp":"東京都","jp_add_1":"中央区","jp_add_2":"晴海オフィスタワーＹ１１階"},"1046112":{"post_code":"1046112","prefecture":"TOKYO TO","city":"CHUO KU","town":"HARUMI OFUISUTAWAY(12-KAI)","perfecture_jp":"東京都","jp_add_1":"中央区","jp_add_2":"晴海オフィスタワーＹ１２階"},"1046113":{"post_code":"1046113","prefecture":"TOKYO TO","city":"CHUO KU","town":"HARUMI OFUISUTAWAY(13-KAI)","perfecture_jp":"東京都","jp_add_1":"中央区","jp_add_2":"晴海オフィスタワーＹ１３階"},"1046114":{"post_code":"1046114","prefecture":"TOKYO TO","city":"CHUO KU","town":"HARUMI OFUISUTAWAY(14-KAI)","perfecture_jp":"東京都","jp_add_1":"中央区","jp_add_2":"晴海オフィスタワーＹ１４階"},"1046115":{"post_code":"1046115","prefecture":"TOKYO TO","city":"CHUO KU","town":"HARUMI OFUISUTAWAY(15-KAI)","perfecture_jp":"東京都","jp_add_1":"中央区","jp_add_2":"晴海オフィスタワーＹ１５階"},"1046116":{"post_code":"1046116","prefecture":"TOKYO TO","city":"CHUO KU","town":"HARUMI OFUISUTAWAY(16-KAI)","perfecture_jp":"東京都","jp_add_1":"中央区","jp_add_2":"晴海オフィスタワーＹ１６階"},"1046117":{"post_code":"1046117","prefecture":"TOKYO TO","city":"CHUO KU","town":"HARUMI OFUISUTAWAY(17-KAI)","perfecture_jp":"東京都","jp_add_1":"中央区","jp_add_2":"晴海オフィスタワーＹ１７階"},"1046118":{"post_code":"1046118","prefecture":"TOKYO TO","city":"CHUO KU","town":"HARUMI OFUISUTAWAY(18-KAI)","perfecture_jp":"東京都","jp_add_1":"中央区","jp_add_2":"晴海オフィスタワーＹ１８階"},"1046119":{"post_code":"1046119","prefecture":"TOKYO TO","city":"CHUO KU","town":"HARUMI OFUISUTAWAY(19-KAI)","perfecture_jp":"東京都","jp_add_1":"中央区","jp_add_2":"晴海オフィスタワーＹ１９階"},"1046120":{"post_code":"1046120","prefecture":"TOKYO TO","city":"CHUO KU","town":"HARUMI OFUISUTAWAY(20-KAI)","perfecture_jp":"東京都","jp_add_1":"中央区","jp_add_2":"晴海オフィスタワーＹ２０階"},"1046121":{"post_code":"1046121","prefecture":"TOKYO TO","city":"CHUO KU","town":"HARUMI OFUISUTAWAY(21-KAI)","perfecture_jp":"東京都","jp_add_1":"中央区","jp_add_2":"晴海オフィスタワーＹ２１階"},"1046122":{"post_code":"1046122","prefecture":"TOKYO TO","city":"CHUO KU","town":"HARUMI OFUISUTAWAY(22-KAI)","perfecture_jp":"東京都","jp_add_1":"中央区","jp_add_2":"晴海オフィスタワーＹ２２階"},"1046123":{"post_code":"1046123","prefecture":"TOKYO TO","city":"CHUO KU","town":"HARUMI OFUISUTAWAY(23-KAI)","perfecture_jp":"東京都","jp_add_1":"中央区","jp_add_2":"晴海オフィスタワーＹ２３階"},"1046124":{"post_code":"1046124","prefecture":"TOKYO TO","city":"CHUO KU","town":"HARUMI OFUISUTAWAY(24-KAI)","perfecture_jp":"東京都","jp_add_1":"中央区","jp_add_2":"晴海オフィスタワーＹ２４階"},"1046125":{"post_code":"1046125","prefecture":"TOKYO TO","city":"CHUO KU","town":"HARUMI OFUISUTAWAY(25-KAI)","perfecture_jp":"東京都","jp_add_1":"中央区","jp_add_2":"晴海オフィスタワーＹ２５階"},"1046126":{"post_code":"1046126","prefecture":"TOKYO TO","city":"CHUO KU","town":"HARUMI OFUISUTAWAY(26-KAI)","perfecture_jp":"東京都","jp_add_1":"中央区","jp_add_2":"晴海オフィスタワーＹ２６階"},"1046127":{"post_code":"1046127","prefecture":"TOKYO TO","city":"CHUO KU","town":"HARUMI OFUISUTAWAY(27-KAI)","perfecture_jp":"東京都","jp_add_1":"中央区","jp_add_2":"晴海オフィスタワーＹ２７階"},"1046128":{"post_code":"1046128","prefecture":"TOKYO TO","city":"CHUO KU","town":"HARUMI OFUISUTAWAY(28-KAI)","perfecture_jp":"東京都","jp_add_1":"中央区","jp_add_2":"晴海オフィスタワーＹ２８階"},"1046129":{"post_code":"1046129","prefecture":"TOKYO TO","city":"CHUO KU","town":"HARUMI OFUISUTAWAY(29-KAI)","perfecture_jp":"東京都","jp_add_1":"中央区","jp_add_2":"晴海オフィスタワーＹ２９階"},"1046130":{"post_code":"1046130","prefecture":"TOKYO TO","city":"CHUO KU","town":"HARUMI OFUISUTAWAY(30-KAI)","perfecture_jp":"東京都","jp_add_1":"中央区","jp_add_2":"晴海オフィスタワーＹ３０階"},"1046131":{"post_code":"1046131","prefecture":"TOKYO TO","city":"CHUO KU","town":"HARUMI OFUISUTAWAY(31-KAI)","perfecture_jp":"東京都","jp_add_1":"中央区","jp_add_2":"晴海オフィスタワーＹ３１階"},"1046132":{"post_code":"1046132","prefecture":"TOKYO TO","city":"CHUO KU","town":"HARUMI OFUISUTAWAY(32-KAI)","perfecture_jp":"東京都","jp_add_1":"中央区","jp_add_2":"晴海オフィスタワーＹ３２階"},"1046133":{"post_code":"1046133","prefecture":"TOKYO TO","city":"CHUO KU","town":"HARUMI OFUISUTAWAY(33-KAI)","perfecture_jp":"東京都","jp_add_1":"中央区","jp_add_2":"晴海オフィスタワーＹ３３階"},"1046134":{"post_code":"1046134","prefecture":"TOKYO TO","city":"CHUO KU","town":"HARUMI OFUISUTAWAY(34-KAI)","perfecture_jp":"東京都","jp_add_1":"中央区","jp_add_2":"晴海オフィスタワーＹ３４階"},"1046135":{"post_code":"1046135","prefecture":"TOKYO TO","city":"CHUO KU","town":"HARUMI OFUISUTAWAY(35-KAI)","perfecture_jp":"東京都","jp_add_1":"中央区","jp_add_2":"晴海オフィスタワーＹ３５階"},"1046136":{"post_code":"1046136","prefecture":"TOKYO TO","city":"CHUO KU","town":"HARUMI OFUISUTAWAY(36-KAI)","perfecture_jp":"東京都","jp_add_1":"中央区","jp_add_2":"晴海オフィスタワーＹ３６階"},"1046137":{"post_code":"1046137","prefecture":"TOKYO TO","city":"CHUO KU","town":"HARUMI OFUISUTAWAY(37-KAI)","perfecture_jp":"東京都","jp_add_1":"中央区","jp_add_2":"晴海オフィスタワーＹ３７階"},"1046138":{"post_code":"1046138","prefecture":"TOKYO TO","city":"CHUO KU","town":"HARUMI OFUISUTAWAY(38-KAI)","perfecture_jp":"東京都","jp_add_1":"中央区","jp_add_2":"晴海オフィスタワーＹ３８階"},"1046139":{"post_code":"1046139","prefecture":"TOKYO TO","city":"CHUO KU","town":"HARUMI OFUISUTAWAY(39-KAI)","perfecture_jp":"東京都","jp_add_1":"中央区","jp_add_2":"晴海オフィスタワーＹ３９階"},"1046290":{"post_code":"1046290","prefecture":"TOKYO TO","city":"CHUO KU","town":"HARUMI OFUISUTAWAZ(CHIKAI.KAISOFUME","perfecture_jp":"東京都","jp_add_1":"中央区","jp_add_2":"晴海オフィスタワーＺ"},"1046201":{"post_code":"1046201","prefecture":"TOKYO TO","city":"CHUO KU","town":"HARUMI OFUISUTAWAZ(1-KAI)","perfecture_jp":"東京都","jp_add_1":"中央区","jp_add_2":"晴海オフィスタワーＺ１階"},"1046202":{"post_code":"1046202","prefecture":"TOKYO TO","city":"CHUO KU","town":"HARUMI OFUISUTAWAZ(2-KAI)","perfecture_jp":"東京都","jp_add_1":"中央区","jp_add_2":"晴海オフィスタワーＺ２階"},"1046203":{"post_code":"1046203","prefecture":"TOKYO TO","city":"CHUO KU","town":"HARUMI OFUISUTAWAZ(3-KAI)","perfecture_jp":"東京都","jp_add_1":"中央区","jp_add_2":"晴海オフィスタワーＺ３階"},"1046204":{"post_code":"1046204","prefecture":"TOKYO TO","city":"CHUO KU","town":"HARUMI OFUISUTAWAZ(4-KAI)","perfecture_jp":"東京都","jp_add_1":"中央区","jp_add_2":"晴海オフィスタワーＺ４階"},"1046205":{"post_code":"1046205","prefecture":"TOKYO TO","city":"CHUO KU","town":"HARUMI OFUISUTAWAZ(5-KAI)","perfecture_jp":"東京都","jp_add_1":"中央区","jp_add_2":"晴海オフィスタワーＺ５階"},"1046206":{"post_code":"1046206","prefecture":"TOKYO TO","city":"CHUO KU","town":"HARUMI OFUISUTAWAZ(6-KAI)","perfecture_jp":"東京都","jp_add_1":"中央区","jp_add_2":"晴海オフィスタワーＺ６階"},"1046207":{"post_code":"1046207","prefecture":"TOKYO TO","city":"CHUO KU","town":"HARUMI OFUISUTAWAZ(7-KAI)","perfecture_jp":"東京都","jp_add_1":"中央区","jp_add_2":"晴海オフィスタワーＺ７階"},"1046208":{"post_code":"1046208","prefecture":"TOKYO TO","city":"CHUO KU","town":"HARUMI OFUISUTAWAZ(8-KAI)","perfecture_jp":"東京都","jp_add_1":"中央区","jp_add_2":"晴海オフィスタワーＺ８階"},"1046209":{"post_code":"1046209","prefecture":"TOKYO TO","city":"CHUO KU","town":"HARUMI OFUISUTAWAZ(9-KAI)","perfecture_jp":"東京都","jp_add_1":"中央区","jp_add_2":"晴海オフィスタワーＺ９階"},"1046210":{"post_code":"1046210","prefecture":"TOKYO TO","city":"CHUO KU","town":"HARUMI OFUISUTAWAZ(10-KAI)","perfecture_jp":"東京都","jp_add_1":"中央区","jp_add_2":"晴海オフィスタワーＺ１０階"},"1046211":{"post_code":"1046211","prefecture":"TOKYO TO","city":"CHUO KU","town":"HARUMI OFUISUTAWAZ(11-KAI)","perfecture_jp":"東京都","jp_add_1":"中央区","jp_add_2":"晴海オフィスタワーＺ１１階"},"1046212":{"post_code":"1046212","prefecture":"TOKYO TO","city":"CHUO KU","town":"HARUMI OFUISUTAWAZ(12-KAI)","perfecture_jp":"東京都","jp_add_1":"中央区","jp_add_2":"晴海オフィスタワーＺ１２階"},"1046213":{"post_code":"1046213","prefecture":"TOKYO TO","city":"CHUO KU","town":"HARUMI OFUISUTAWAZ(13-KAI)","perfecture_jp":"東京都","jp_add_1":"中央区","jp_add_2":"晴海オフィスタワーＺ１３階"},"1046214":{"post_code":"1046214","prefecture":"TOKYO TO","city":"CHUO KU","town":"HARUMI OFUISUTAWAZ(14-KAI)","perfecture_jp":"東京都","jp_add_1":"中央区","jp_add_2":"晴海オフィスタワーＺ１４階"},"1046215":{"post_code":"1046215","prefecture":"TOKYO TO","city":"CHUO KU","town":"HARUMI OFUISUTAWAZ(15-KAI)","perfecture_jp":"東京都","jp_add_1":"中央区","jp_add_2":"晴海オフィスタワーＺ１５階"},"1046216":{"post_code":"1046216","prefecture":"TOKYO TO","city":"CHUO KU","town":"HARUMI OFUISUTAWAZ(16-KAI)","perfecture_jp":"東京都","jp_add_1":"中央区","jp_add_2":"晴海オフィスタワーＺ１６階"},"1046217":{"post_code":"1046217","prefecture":"TOKYO TO","city":"CHUO KU","town":"HARUMI OFUISUTAWAZ(17-KAI)","perfecture_jp":"東京都","jp_add_1":"中央区","jp_add_2":"晴海オフィスタワーＺ１７階"},"1046218":{"post_code":"1046218","prefecture":"TOKYO TO","city":"CHUO KU","town":"HARUMI OFUISUTAWAZ(18-KAI)","perfecture_jp":"東京都","jp_add_1":"中央区","jp_add_2":"晴海オフィスタワーＺ１８階"},"1046219":{"post_code":"1046219","prefecture":"TOKYO TO","city":"CHUO KU","town":"HARUMI OFUISUTAWAZ(19-KAI)","perfecture_jp":"東京都","jp_add_1":"中央区","jp_add_2":"晴海オフィスタワーＺ１９階"},"1046220":{"post_code":"1046220","prefecture":"TOKYO TO","city":"CHUO KU","town":"HARUMI OFUISUTAWAZ(20-KAI)","perfecture_jp":"東京都","jp_add_1":"中央区","jp_add_2":"晴海オフィスタワーＺ２０階"},"1046221":{"post_code":"1046221","prefecture":"TOKYO TO","city":"CHUO KU","town":"HARUMI OFUISUTAWAZ(21-KAI)","perfecture_jp":"東京都","jp_add_1":"中央区","jp_add_2":"晴海オフィスタワーＺ２１階"},"1046222":{"post_code":"1046222","prefecture":"TOKYO TO","city":"CHUO KU","town":"HARUMI OFUISUTAWAZ(22-KAI)","perfecture_jp":"東京都","jp_add_1":"中央区","jp_add_2":"晴海オフィスタワーＺ２２階"},"1046223":{"post_code":"1046223","prefecture":"TOKYO TO","city":"CHUO KU","town":"HARUMI OFUISUTAWAZ(23-KAI)","perfecture_jp":"東京都","jp_add_1":"中央区","jp_add_2":"晴海オフィスタワーＺ２３階"},"1046224":{"post_code":"1046224","prefecture":"TOKYO TO","city":"CHUO KU","town":"HARUMI OFUISUTAWAZ(24-KAI)","perfecture_jp":"東京都","jp_add_1":"中央区","jp_add_2":"晴海オフィスタワーＺ２４階"},"1046225":{"post_code":"1046225","prefecture":"TOKYO TO","city":"CHUO KU","town":"HARUMI OFUISUTAWAZ(25-KAI)","perfecture_jp":"東京都","jp_add_1":"中央区","jp_add_2":"晴海オフィスタワーＺ２５階"},"1046226":{"post_code":"1046226","prefecture":"TOKYO TO","city":"CHUO KU","town":"HARUMI OFUISUTAWAZ(26-KAI)","perfecture_jp":"東京都","jp_add_1":"中央区","jp_add_2":"晴海オフィスタワーＺ２６階"},"1046227":{"post_code":"1046227","prefecture":"TOKYO TO","city":"CHUO KU","town":"HARUMI OFUISUTAWAZ(27-KAI)","perfecture_jp":"東京都","jp_add_1":"中央区","jp_add_2":"晴海オフィスタワーＺ２７階"},"1046228":{"post_code":"1046228","prefecture":"TOKYO TO","city":"CHUO KU","town":"HARUMI OFUISUTAWAZ(28-KAI)","perfecture_jp":"東京都","jp_add_1":"中央区","jp_add_2":"晴海オフィスタワーＺ２８階"},"1046229":{"post_code":"1046229","prefecture":"TOKYO TO","city":"CHUO KU","town":"HARUMI OFUISUTAWAZ(29-KAI)","perfecture_jp":"東京都","jp_add_1":"中央区","jp_add_2":"晴海オフィスタワーＺ２９階"},"1046230":{"post_code":"1046230","prefecture":"TOKYO TO","city":"CHUO KU","town":"HARUMI OFUISUTAWAZ(30-KAI)","perfecture_jp":"東京都","jp_add_1":"中央区","jp_add_2":"晴海オフィスタワーＺ３０階"},"1046231":{"post_code":"1046231","prefecture":"TOKYO TO","city":"CHUO KU","town":"HARUMI OFUISUTAWAZ(31-KAI)","perfecture_jp":"東京都","jp_add_1":"中央区","jp_add_2":"晴海オフィスタワーＺ３１階"},"1046232":{"post_code":"1046232","prefecture":"TOKYO TO","city":"CHUO KU","town":"HARUMI OFUISUTAWAZ(32-KAI)","perfecture_jp":"東京都","jp_add_1":"中央区","jp_add_2":"晴海オフィスタワーＺ３２階"},"1046233":{"post_code":"1046233","prefecture":"TOKYO TO","city":"CHUO KU","town":"HARUMI OFUISUTAWAZ(33-KAI)","perfecture_jp":"東京都","jp_add_1":"中央区","jp_add_2":"晴海オフィスタワーＺ３３階"},"1040043":{"post_code":"1040043","prefecture":"TOKYO TO","city":"CHUO KU","town":"MINATO","perfecture_jp":"東京都","jp_add_1":"中央区","jp_add_2":"湊"},"1040028":{"post_code":"1040028","prefecture":"TOKYO TO","city":"CHUO KU","town":"YAESU(2-CHOME)","perfecture_jp":"東京都","jp_add_1":"中央区","jp_add_2":"八重洲"}}