{"1130022":{"post_code":"1130022","prefecture":"TOKYO TO","city":"BUNKYO KU","town":"SENDAGI","perfecture_jp":"東京都","jp_add_1":"文京区","jp_add_2":"千駄木"},"1130024":{"post_code":"1130024","prefecture":"TOKYO TO","city":"BUNKYO KU","town":"NISHIKATA","perfecture_jp":"東京都","jp_add_1":"文京区","jp_add_2":"西片"},"1130031":{"post_code":"1130031","prefecture":"TOKYO TO","city":"BUNKYO KU","town":"NEZU","perfecture_jp":"東京都","jp_add_1":"文京区","jp_add_2":"根津"},"1130001":{"post_code":"1130001","prefecture":"TOKYO TO","city":"BUNKYO KU","town":"HAKUSAN(1-CHOME)","perfecture_jp":"東京都","jp_add_1":"文京区","jp_add_2":"白山"},"1130021":{"post_code":"1130021","prefecture":"TOKYO TO","city":"BUNKYO KU","town":"HONKOMAGOME","perfecture_jp":"東京都","jp_add_1":"文京区","jp_add_2":"本駒込"},"1130033":{"post_code":"1130033","prefecture":"TOKYO TO","city":"BUNKYO KU","town":"HONGO","perfecture_jp":"東京都","jp_add_1":"文京区","jp_add_2":"本郷"},"1130023":{"post_code":"1130023","prefecture":"TOKYO TO","city":"BUNKYO KU","town":"MUKOGAOKA","perfecture_jp":"東京都","jp_add_1":"文京区","jp_add_2":"向丘"},"1130032":{"post_code":"1130032","prefecture":"TOKYO TO","city":"BUNKYO KU","town":"YAYOI","perfecture_jp":"東京都","jp_add_1":"文京区","jp_add_2":"弥生"},"1130034":{"post_code":"1130034","prefecture":"TOKYO TO","city":"BUNKYO KU","town":"YUSHIMA","perfecture_jp":"東京都","jp_add_1":"文京区","jp_add_2":"湯島"}}