{"1140000":{"post_code":"1140000","prefecture":"TOKYO TO","city":"KITA KU","town":"IKANIKEISAIGANAIBAAI","perfecture_jp":"東京都","jp_add_1":"北区","jp_add_2":""},"1140002":{"post_code":"1140002","prefecture":"TOKYO TO","city":"KITA KU","town":"OJI","perfecture_jp":"東京都","jp_add_1":"北区","jp_add_2":"王子"},"1140022":{"post_code":"1140022","prefecture":"TOKYO TO","city":"KITA KU","town":"OJIHONCHO","perfecture_jp":"東京都","jp_add_1":"北区","jp_add_2":"王子本町"},"1140034":{"post_code":"1140034","prefecture":"TOKYO TO","city":"KITA KU","town":"KAMIJUJO","perfecture_jp":"東京都","jp_add_1":"北区","jp_add_2":"上十条"},"1140016":{"post_code":"1140016","prefecture":"TOKYO TO","city":"KITA KU","town":"KAMINAKAZATO","perfecture_jp":"東京都","jp_add_1":"北区","jp_add_2":"上中里"},"1140021":{"post_code":"1140021","prefecture":"TOKYO TO","city":"KITA KU","town":"KISHIMACHI","perfecture_jp":"東京都","jp_add_1":"北区","jp_add_2":"岸町"},"1140005":{"post_code":"1140005","prefecture":"TOKYO TO","city":"KITA KU","town":"SAKAECHO","perfecture_jp":"東京都","jp_add_1":"北区","jp_add_2":"栄町"},"1140033":{"post_code":"1140033","prefecture":"TOKYO TO","city":"KITA KU","town":"JUJODAI","perfecture_jp":"東京都","jp_add_1":"北区","jp_add_2":"十条台"},"1140031":{"post_code":"1140031","prefecture":"TOKYO TO","city":"KITA KU","town":"JUJONAKAHARA","perfecture_jp":"東京都","jp_add_1":"北区","jp_add_2":"十条仲原"},"1140011":{"post_code":"1140011","prefecture":"TOKYO TO","city":"KITA KU","town":"SHOWAMACHI","perfecture_jp":"東京都","jp_add_1":"北区","jp_add_2":"昭和町"},"1140023":{"post_code":"1140023","prefecture":"TOKYO TO","city":"KITA KU","town":"TAKINOGAWA","perfecture_jp":"東京都","jp_add_1":"北区","jp_add_2":"滝野川"},"1140014":{"post_code":"1140014","prefecture":"TOKYO TO","city":"KITA KU","town":"TABATA","perfecture_jp":"東京都","jp_add_1":"北区","jp_add_2":"田端"},"1140012":{"post_code":"1140012","prefecture":"TOKYO TO","city":"KITA KU","town":"TABATASHIMMACHI","perfecture_jp":"東京都","jp_add_1":"北区","jp_add_2":"田端新町"},"1140003":{"post_code":"1140003","prefecture":"TOKYO TO","city":"KITA KU","town":"TOSHIMA","perfecture_jp":"東京都","jp_add_1":"北区","jp_add_2":"豊島"},"1140015":{"post_code":"1140015","prefecture":"TOKYO TO","city":"KITA KU","town":"NAKAZATO","perfecture_jp":"東京都","jp_add_1":"北区","jp_add_2":"中里"},"1140032":{"post_code":"1140032","prefecture":"TOKYO TO","city":"KITA KU","town":"NAKAJUJO","perfecture_jp":"東京都","jp_add_1":"北区","jp_add_2":"中十条"},"1140024":{"post_code":"1140024","prefecture":"TOKYO TO","city":"KITA KU","town":"NISHIGAHARA","perfecture_jp":"東京都","jp_add_1":"北区","jp_add_2":"西ケ原"},"1140001":{"post_code":"1140001","prefecture":"TOKYO TO","city":"KITA KU","town":"HIGASHIJUJO","perfecture_jp":"東京都","jp_add_1":"北区","jp_add_2":"東十条"},"1140013":{"post_code":"1140013","prefecture":"TOKYO TO","city":"KITA KU","town":"HIGASHITABATA","perfecture_jp":"東京都","jp_add_1":"北区","jp_add_2":"東田端"},"1140004":{"post_code":"1140004","prefecture":"TOKYO TO","city":"KITA KU","town":"HORIFUNE","perfecture_jp":"東京都","jp_add_1":"北区","jp_add_2":"堀船"}}