{"1210012":{"post_code":"1210012","prefecture":"TOKYO TO","city":"ADACHI KU","town":"AOI(4-6-CHOME)","perfecture_jp":"東京都","jp_add_1":"足立区","jp_add_2":"青井"},"1210823":{"post_code":"1210823","prefecture":"TOKYO TO","city":"ADACHI KU","town":"IKO","perfecture_jp":"東京都","jp_add_1":"足立区","jp_add_2":"伊興"},"1210807":{"post_code":"1210807","prefecture":"TOKYO TO","city":"ADACHI KU","town":"IKOHONCHO","perfecture_jp":"東京都","jp_add_1":"足立区","jp_add_2":"伊興本町"},"1210836":{"post_code":"1210836","prefecture":"TOKYO TO","city":"ADACHI KU","town":"IRIYA","perfecture_jp":"東京都","jp_add_1":"足立区","jp_add_2":"入谷"},"1210834":{"post_code":"1210834","prefecture":"TOKYO TO","city":"ADACHI KU","town":"IRIYAMACHI","perfecture_jp":"東京都","jp_add_1":"足立区","jp_add_2":"入谷町"},"1210816":{"post_code":"1210816","prefecture":"TOKYO TO","city":"ADACHI KU","town":"UMEJIMA","perfecture_jp":"東京都","jp_add_1":"足立区","jp_add_2":"梅島"},"1210055":{"post_code":"1210055","prefecture":"TOKYO TO","city":"ADACHI KU","town":"KAHEI","perfecture_jp":"東京都","jp_add_1":"足立区","jp_add_2":"加平"},"1210056":{"post_code":"1210056","prefecture":"TOKYO TO","city":"ADACHI KU","town":"KITAKAHEICHO","perfecture_jp":"東京都","jp_add_1":"足立区","jp_add_2":"北加平町"},"1210833":{"post_code":"1210833","prefecture":"TOKYO TO","city":"ADACHI KU","town":"KOJIYA","perfecture_jp":"東京都","jp_add_1":"足立区","jp_add_2":"古千谷"},"1210832":{"post_code":"1210832","prefecture":"TOKYO TO","city":"ADACHI KU","town":"KOJIYAHONCHO","perfecture_jp":"東京都","jp_add_1":"足立区","jp_add_2":"古千谷本町"},"1210053":{"post_code":"1210053","prefecture":"TOKYO TO","city":"ADACHI KU","town":"SANO","perfecture_jp":"東京都","jp_add_1":"足立区","jp_add_2":"佐野"},"1210815":{"post_code":"1210815","prefecture":"TOKYO TO","city":"ADACHI KU","town":"SHIMANE","perfecture_jp":"東京都","jp_add_1":"足立区","jp_add_2":"島根"},"1210051":{"post_code":"1210051","prefecture":"TOKYO TO","city":"ADACHI KU","town":"SHIMMEI","perfecture_jp":"東京都","jp_add_1":"足立区","jp_add_2":"神明"},"1210057":{"post_code":"1210057","prefecture":"TOKYO TO","city":"ADACHI KU","town":"SHIMMEIMINAMI","perfecture_jp":"東京都","jp_add_1":"足立区","jp_add_2":"神明南"},"1210813":{"post_code":"1210813","prefecture":"TOKYO TO","city":"ADACHI KU","town":"TAKENOTSUKA","perfecture_jp":"東京都","jp_add_1":"足立区","jp_add_2":"竹の塚"},"1210054":{"post_code":"1210054","prefecture":"TOKYO TO","city":"ADACHI KU","town":"TATSUNUMA","perfecture_jp":"東京都","jp_add_1":"足立区","jp_add_2":"辰沼"},"1210011":{"post_code":"1210011","prefecture":"TOKYO TO","city":"ADACHI KU","town":"CHUOHONCHO(3-5-CHOME)","perfecture_jp":"東京都","jp_add_1":"足立区","jp_add_2":"中央本町"},"1210831":{"post_code":"1210831","prefecture":"TOKYO TO","city":"ADACHI KU","town":"TONERI","perfecture_jp":"東京都","jp_add_1":"足立区","jp_add_2":"舎人"},"1210837":{"post_code":"1210837","prefecture":"TOKYO TO","city":"ADACHI KU","town":"TONERIKOEN","perfecture_jp":"東京都","jp_add_1":"足立区","jp_add_2":"舎人公園"},"1210835":{"post_code":"1210835","prefecture":"TOKYO TO","city":"ADACHI KU","town":"TONERIMACHI","perfecture_jp":"東京都","jp_add_1":"足立区","jp_add_2":"舎人町"},"1210824":{"post_code":"1210824","prefecture":"TOKYO TO","city":"ADACHI KU","town":"NISHIIKO","perfecture_jp":"東京都","jp_add_1":"足立区","jp_add_2":"西伊興"},"1210825":{"post_code":"1210825","prefecture":"TOKYO TO","city":"ADACHI KU","town":"NISHIIKOCHO","perfecture_jp":"東京都","jp_add_1":"足立区","jp_add_2":"西伊興町"},"1210074":{"post_code":"1210074","prefecture":"TOKYO TO","city":"ADACHI KU","town":"NISHIKAHEI","perfecture_jp":"東京都","jp_add_1":"足立区","jp_add_2":"西加平"},"1210822":{"post_code":"1210822","prefecture":"TOKYO TO","city":"ADACHI KU","town":"NISHITAKENOTSUKA","perfecture_jp":"東京都","jp_add_1":"足立区","jp_add_2":"西竹の塚"},"1210812":{"post_code":"1210812","prefecture":"TOKYO TO","city":"ADACHI KU","town":"NISHIHOKIMA","perfecture_jp":"東京都","jp_add_1":"足立区","jp_add_2":"西保木間"},"1210061":{"post_code":"1210061","prefecture":"TOKYO TO","city":"ADACHI KU","town":"HANAHATA","perfecture_jp":"東京都","jp_add_1":"足立区","jp_add_2":"花畑"},"1210801":{"post_code":"1210801","prefecture":"TOKYO TO","city":"ADACHI KU","town":"HIGASHIIKO","perfecture_jp":"東京都","jp_add_1":"足立区","jp_add_2":"東伊興"},"1210063":{"post_code":"1210063","prefecture":"TOKYO TO","city":"ADACHI KU","town":"HIGASHIHOKIMA","perfecture_jp":"東京都","jp_add_1":"足立区","jp_add_2":"東保木間"},"1210071":{"post_code":"1210071","prefecture":"TOKYO TO","city":"ADACHI KU","town":"HIGASHIROKUGATSUCHO","perfecture_jp":"東京都","jp_add_1":"足立区","jp_add_2":"東六月町"},"1210075":{"post_code":"1210075","prefecture":"TOKYO TO","city":"ADACHI KU","town":"HITOTSUYA","perfecture_jp":"東京都","jp_add_1":"足立区","jp_add_2":"一ツ家"},"1210076":{"post_code":"1210076","prefecture":"TOKYO TO","city":"ADACHI KU","town":"HIRANO","perfecture_jp":"東京都","jp_add_1":"足立区","jp_add_2":"平野"},"1210064":{"post_code":"1210064","prefecture":"TOKYO TO","city":"ADACHI KU","town":"HOKIMA","perfecture_jp":"東京都","jp_add_1":"足立区","jp_add_2":"保木間"},"1210072":{"post_code":"1210072","prefecture":"TOKYO TO","city":"ADACHI KU","town":"HOZUKACHO","perfecture_jp":"東京都","jp_add_1":"足立区","jp_add_2":"保塚町"},"1210062":{"post_code":"1210062","prefecture":"TOKYO TO","city":"ADACHI KU","town":"MINAMIHANAHATA","perfecture_jp":"東京都","jp_add_1":"足立区","jp_add_2":"南花畑"},"1210052":{"post_code":"1210052","prefecture":"TOKYO TO","city":"ADACHI KU","town":"MUTSUKI","perfecture_jp":"東京都","jp_add_1":"足立区","jp_add_2":"六木"},"1210814":{"post_code":"1210814","prefecture":"TOKYO TO","city":"ADACHI KU","town":"ROKUGATSU","perfecture_jp":"東京都","jp_add_1":"足立区","jp_add_2":"六月"},"1210073":{"post_code":"1210073","prefecture":"TOKYO TO","city":"ADACHI KU","town":"ROKUCHO","perfecture_jp":"東京都","jp_add_1":"足立区","jp_add_2":"六町"}}