{"1230851":{"post_code":"1230851","prefecture":"TOKYO TO","city":"ADACHI KU","town":"UMEDA","perfecture_jp":"東京都","jp_add_1":"足立区","jp_add_2":"梅田"},"1230873":{"post_code":"1230873","prefecture":"TOKYO TO","city":"ADACHI KU","town":"OGI","perfecture_jp":"東京都","jp_add_1":"足立区","jp_add_2":"扇"},"1230844":{"post_code":"1230844","prefecture":"TOKYO TO","city":"ADACHI KU","town":"OKINO","perfecture_jp":"東京都","jp_add_1":"足立区","jp_add_2":"興野"},"1230861":{"post_code":"1230861","prefecture":"TOKYO TO","city":"ADACHI KU","town":"KAGA","perfecture_jp":"東京都","jp_add_1":"足立区","jp_add_2":"加賀"},"1230842":{"post_code":"1230842","prefecture":"TOKYO TO","city":"ADACHI KU","town":"KURIHARA","perfecture_jp":"東京都","jp_add_1":"足立区","jp_add_2":"栗原"},"1230872":{"post_code":"1230872","prefecture":"TOKYO TO","city":"ADACHI KU","town":"KOHOKU","perfecture_jp":"東京都","jp_add_1":"足立区","jp_add_2":"江北"},"1230862":{"post_code":"1230862","prefecture":"TOKYO TO","city":"ADACHI KU","town":"SARANUMA","perfecture_jp":"東京都","jp_add_1":"足立区","jp_add_2":"皿沼"},"1230864":{"post_code":"1230864","prefecture":"TOKYO TO","city":"ADACHI KU","town":"SHIKAHAMA","perfecture_jp":"東京都","jp_add_1":"足立区","jp_add_2":"鹿浜"},"1230865":{"post_code":"1230865","prefecture":"TOKYO TO","city":"ADACHI KU","town":"SHINDEN","perfecture_jp":"東京都","jp_add_1":"足立区","jp_add_2":"新田"},"1230852":{"post_code":"1230852","prefecture":"TOKYO TO","city":"ADACHI KU","town":"SEKIBARA","perfecture_jp":"東京都","jp_add_1":"足立区","jp_add_2":"関原"},"1230871":{"post_code":"1230871","prefecture":"TOKYO TO","city":"ADACHI KU","town":"TSUBAKI","perfecture_jp":"東京都","jp_add_1":"足立区","jp_add_2":"椿"},"1230841":{"post_code":"1230841","prefecture":"TOKYO TO","city":"ADACHI KU","town":"NISHIARAI","perfecture_jp":"東京都","jp_add_1":"足立区","jp_add_2":"西新井"},"1230843":{"post_code":"1230843","prefecture":"TOKYO TO","city":"ADACHI KU","town":"NISHIARAISAKAECHO","perfecture_jp":"東京都","jp_add_1":"足立区","jp_add_2":"西新井栄町"},"1230845":{"post_code":"1230845","prefecture":"TOKYO TO","city":"ADACHI KU","town":"NISHIARAIHONCHO","perfecture_jp":"東京都","jp_add_1":"足立区","jp_add_2":"西新井本町"},"1230874":{"post_code":"1230874","prefecture":"TOKYO TO","city":"ADACHI KU","town":"HORINOCHI","perfecture_jp":"東京都","jp_add_1":"足立区","jp_add_2":"堀之内"},"1230853":{"post_code":"1230853","prefecture":"TOKYO TO","city":"ADACHI KU","town":"MOTOKI","perfecture_jp":"東京都","jp_add_1":"足立区","jp_add_2":"本木"},"1230854":{"post_code":"1230854","prefecture":"TOKYO TO","city":"ADACHI KU","town":"MOTOKI HIGASHIMACHI","perfecture_jp":"東京都","jp_add_1":"足立区","jp_add_2":"本木東町"},"1230856":{"post_code":"1230856","prefecture":"TOKYO TO","city":"ADACHI KU","town":"MOTOKI NISHIMACHI","perfecture_jp":"東京都","jp_add_1":"足立区","jp_add_2":"本木西町"},"1230855":{"post_code":"1230855","prefecture":"TOKYO TO","city":"ADACHI KU","town":"MOTOKI MINAMIMACHI","perfecture_jp":"東京都","jp_add_1":"足立区","jp_add_2":"本木南町"},"1230857":{"post_code":"1230857","prefecture":"TOKYO TO","city":"ADACHI KU","town":"MOTOKI KITAMACHI","perfecture_jp":"東京都","jp_add_1":"足立区","jp_add_2":"本木北町"},"1230863":{"post_code":"1230863","prefecture":"TOKYO TO","city":"ADACHI KU","town":"YAZAIKE","perfecture_jp":"東京都","jp_add_1":"足立区","jp_add_2":"谷在家"}}