{"1250062":{"post_code":"1250062","prefecture":"TOKYO TO","city":"KATSUSHIKA KU","town":"AOTO","perfecture_jp":"東京都","jp_add_1":"葛飾区","jp_add_2":"青戸"},"1250042":{"post_code":"1250042","prefecture":"TOKYO TO","city":"KATSUSHIKA KU","town":"KANAMACHI","perfecture_jp":"東京都","jp_add_1":"葛飾区","jp_add_2":"金町"},"1250043":{"post_code":"1250043","prefecture":"TOKYO TO","city":"KATSUSHIKA KU","town":"KANAMACHIJOSUIJO","perfecture_jp":"東京都","jp_add_1":"葛飾区","jp_add_2":"金町浄水場"},"1250053":{"post_code":"1250053","prefecture":"TOKYO TO","city":"KATSUSHIKA KU","town":"KAMAKURA","perfecture_jp":"東京都","jp_add_1":"葛飾区","jp_add_2":"鎌倉"},"1250061":{"post_code":"1250061","prefecture":"TOKYO TO","city":"KATSUSHIKA KU","town":"KAMEARI","perfecture_jp":"東京都","jp_add_1":"葛飾区","jp_add_2":"亀有"},"1250052":{"post_code":"1250052","prefecture":"TOKYO TO","city":"KATSUSHIKA KU","town":"SHIBAMATA","perfecture_jp":"東京都","jp_add_1":"葛飾区","jp_add_2":"柴又"},"1250063":{"post_code":"1250063","prefecture":"TOKYO TO","city":"KATSUSHIKA KU","town":"SHIRATORI","perfecture_jp":"東京都","jp_add_1":"葛飾区","jp_add_2":"白鳥"},"1250054":{"post_code":"1250054","prefecture":"TOKYO TO","city":"KATSUSHIKA KU","town":"TAKASAGO","perfecture_jp":"東京都","jp_add_1":"葛飾区","jp_add_2":"高砂"},"1250051":{"post_code":"1250051","prefecture":"TOKYO TO","city":"KATSUSHIKA KU","town":"NIIJUKU","perfecture_jp":"東京都","jp_add_1":"葛飾区","jp_add_2":"新宿"},"1250002":{"post_code":"1250002","prefecture":"TOKYO TO","city":"KATSUSHIKA KU","town":"NISHIKAMEARI(3.4-CHOME)","perfecture_jp":"東京都","jp_add_1":"葛飾区","jp_add_2":"西亀有"},"1250031":{"post_code":"1250031","prefecture":"TOKYO TO","city":"KATSUSHIKA KU","town":"NISHIMIZUMOTO","perfecture_jp":"東京都","jp_add_1":"葛飾区","jp_add_2":"西水元"},"1250041":{"post_code":"1250041","prefecture":"TOKYO TO","city":"KATSUSHIKA KU","town":"HIGASHIKANAMACHI","perfecture_jp":"東京都","jp_add_1":"葛飾区","jp_add_2":"東金町"},"1250033":{"post_code":"1250033","prefecture":"TOKYO TO","city":"KATSUSHIKA KU","town":"HIGASHIMIZUMOTO","perfecture_jp":"東京都","jp_add_1":"葛飾区","jp_add_2":"東水元"},"1250032":{"post_code":"1250032","prefecture":"TOKYO TO","city":"KATSUSHIKA KU","town":"MIZUMOTO","perfecture_jp":"東京都","jp_add_1":"葛飾区","jp_add_2":"水元"},"1250034":{"post_code":"1250034","prefecture":"TOKYO TO","city":"KATSUSHIKA KU","town":"MIZUMOTOKOEN","perfecture_jp":"東京都","jp_add_1":"葛飾区","jp_add_2":"水元公園"},"1250035":{"post_code":"1250035","prefecture":"TOKYO TO","city":"KATSUSHIKA KU","town":"MINAMIMIZUMOTO","perfecture_jp":"東京都","jp_add_1":"葛飾区","jp_add_2":"南水元"}}