{"1320000":{"post_code":"1320000","prefecture":"TOKYO TO","city":"EDOGAWA KU","town":"IKANIKEISAIGANAIBAAI","perfecture_jp":"東京都","jp_add_1":"江戸川区","jp_add_2":""},"1320024":{"post_code":"1320024","prefecture":"TOKYO TO","city":"EDOGAWA KU","town":"ICHINOE","perfecture_jp":"東京都","jp_add_1":"江戸川区","jp_add_2":"一之江"},"1320013":{"post_code":"1320013","prefecture":"TOKYO TO","city":"EDOGAWA KU","town":"EDOGAWA(1-3-CHOME.4-CHOME1-14-BAN)","perfecture_jp":"東京都","jp_add_1":"江戸川区","jp_add_2":"江戸川"},"1320022":{"post_code":"1320022","prefecture":"TOKYO TO","city":"EDOGAWA KU","town":"OSUGI","perfecture_jp":"東京都","jp_add_1":"江戸川区","jp_add_2":"大杉"},"1320034":{"post_code":"1320034","prefecture":"TOKYO TO","city":"EDOGAWA KU","town":"KOMATSUGAWA","perfecture_jp":"東京都","jp_add_1":"江戸川区","jp_add_2":"小松川"},"1320021":{"post_code":"1320021","prefecture":"TOKYO TO","city":"EDOGAWA KU","town":"CHUO","perfecture_jp":"東京都","jp_add_1":"江戸川区","jp_add_2":"中央"},"1320001":{"post_code":"1320001","prefecture":"TOKYO TO","city":"EDOGAWA KU","town":"NIIHORI","perfecture_jp":"東京都","jp_add_1":"江戸川区","jp_add_2":"新堀"},"1320023":{"post_code":"1320023","prefecture":"TOKYO TO","city":"EDOGAWA KU","town":"NISHIICHINOE","perfecture_jp":"東京都","jp_add_1":"江戸川区","jp_add_2":"西一之江"},"1320032":{"post_code":"1320032","prefecture":"TOKYO TO","city":"EDOGAWA KU","town":"NISHIKOMATSUGAWAMACHI","perfecture_jp":"東京都","jp_add_1":"江戸川区","jp_add_2":"西小松川町"},"1320015":{"post_code":"1320015","prefecture":"TOKYO TO","city":"EDOGAWA KU","town":"NISHIMIZUE(3-CHOME.4-CHOME3-9-BAN)","perfecture_jp":"東京都","jp_add_1":"江戸川区","jp_add_2":"西瑞江"},"1320003":{"post_code":"1320003","prefecture":"TOKYO TO","city":"EDOGAWA KU","town":"HARUECHO(1-3-CHOME)","perfecture_jp":"東京都","jp_add_1":"江戸川区","jp_add_2":"春江町"},"1320033":{"post_code":"1320033","prefecture":"TOKYO TO","city":"EDOGAWA KU","town":"HIGASHIKOMATSUGAWA","perfecture_jp":"東京都","jp_add_1":"江戸川区","jp_add_2":"東小松川"},"1320014":{"post_code":"1320014","prefecture":"TOKYO TO","city":"EDOGAWA KU","town":"HIGASHIMIZUE","perfecture_jp":"東京都","jp_add_1":"江戸川区","jp_add_2":"東瑞江"},"1320035":{"post_code":"1320035","prefecture":"TOKYO TO","city":"EDOGAWA KU","town":"HIRAI","perfecture_jp":"東京都","jp_add_1":"江戸川区","jp_add_2":"平井"},"1320025":{"post_code":"1320025","prefecture":"TOKYO TO","city":"EDOGAWA KU","town":"MATSUE","perfecture_jp":"東京都","jp_add_1":"江戸川区","jp_add_2":"松江"},"1320031":{"post_code":"1320031","prefecture":"TOKYO TO","city":"EDOGAWA KU","town":"MATSUSHIMA","perfecture_jp":"東京都","jp_add_1":"江戸川区","jp_add_2":"松島"},"1320011":{"post_code":"1320011","prefecture":"TOKYO TO","city":"EDOGAWA KU","town":"MIZUE","perfecture_jp":"東京都","jp_add_1":"江戸川区","jp_add_2":"瑞江"},"1320002":{"post_code":"1320002","prefecture":"TOKYO TO","city":"EDOGAWA KU","town":"YAGOCHI(1-CHOME)","perfecture_jp":"東京都","jp_add_1":"江戸川区","jp_add_2":"谷河内"}}