{"1330042":{"post_code":"1330042","prefecture":"TOKYO TO","city":"EDOGAWA KU","town":"OKINOMIYACHO","perfecture_jp":"東京都","jp_add_1":"江戸川区","jp_add_2":"興宮町"},"1330041":{"post_code":"1330041","prefecture":"TOKYO TO","city":"EDOGAWA KU","town":"KAMIISSHIKI","perfecture_jp":"東京都","jp_add_1":"江戸川区","jp_add_2":"上一色"},"1330054":{"post_code":"1330054","prefecture":"TOKYO TO","city":"EDOGAWA KU","town":"KAMISHINOZAKI","perfecture_jp":"東京都","jp_add_1":"江戸川区","jp_add_2":"上篠崎"},"1330051":{"post_code":"1330051","prefecture":"TOKYO TO","city":"EDOGAWA KU","town":"KITAKOIWA","perfecture_jp":"東京都","jp_add_1":"江戸川区","jp_add_2":"北小岩"},"1330053":{"post_code":"1330053","prefecture":"TOKYO TO","city":"EDOGAWA KU","town":"KITASHINOZAKI","perfecture_jp":"東京都","jp_add_1":"江戸川区","jp_add_2":"北篠崎"},"1330073":{"post_code":"1330073","prefecture":"TOKYO TO","city":"EDOGAWA KU","town":"SHISHIBONE","perfecture_jp":"東京都","jp_add_1":"江戸川区","jp_add_2":"鹿骨"},"1330072":{"post_code":"1330072","prefecture":"TOKYO TO","city":"EDOGAWA KU","town":"SHISHIBONECHO","perfecture_jp":"東京都","jp_add_1":"江戸川区","jp_add_2":"鹿骨町"},"1330061":{"post_code":"1330061","prefecture":"TOKYO TO","city":"EDOGAWA KU","town":"SHINOZAKIMACHI","perfecture_jp":"東京都","jp_add_1":"江戸川区","jp_add_2":"篠崎町"},"1330064":{"post_code":"1330064","prefecture":"TOKYO TO","city":"EDOGAWA KU","town":"SHIMOSHINOZAKIMACHI","perfecture_jp":"東京都","jp_add_1":"江戸川区","jp_add_2":"下篠崎町"},"1330057":{"post_code":"1330057","prefecture":"TOKYO TO","city":"EDOGAWA KU","town":"NISHIKOIWA","perfecture_jp":"東京都","jp_add_1":"江戸川区","jp_add_2":"西小岩"},"1330055":{"post_code":"1330055","prefecture":"TOKYO TO","city":"EDOGAWA KU","town":"NISHISHINOZAKI","perfecture_jp":"東京都","jp_add_1":"江戸川区","jp_add_2":"西篠崎"},"1330052":{"post_code":"1330052","prefecture":"TOKYO TO","city":"EDOGAWA KU","town":"HIGASHIKOIWA","perfecture_jp":"東京都","jp_add_1":"江戸川区","jp_add_2":"東小岩"},"1330063":{"post_code":"1330063","prefecture":"TOKYO TO","city":"EDOGAWA KU","town":"HIGASHISHINOZAKI","perfecture_jp":"東京都","jp_add_1":"江戸川区","jp_add_2":"東篠崎"},"1330062":{"post_code":"1330062","prefecture":"TOKYO TO","city":"EDOGAWA KU","town":"HIGASHISHINOZAKIMACHI","perfecture_jp":"東京都","jp_add_1":"江戸川区","jp_add_2":"東篠崎町"},"1330071":{"post_code":"1330071","prefecture":"TOKYO TO","city":"EDOGAWA KU","town":"HIGASHIMATSUMOTO","perfecture_jp":"東京都","jp_add_1":"江戸川区","jp_add_2":"東松本"},"1330044":{"post_code":"1330044","prefecture":"TOKYO TO","city":"EDOGAWA KU","town":"HONISSHIKI","perfecture_jp":"東京都","jp_add_1":"江戸川区","jp_add_2":"本一色"},"1330043":{"post_code":"1330043","prefecture":"TOKYO TO","city":"EDOGAWA KU","town":"MATSUMOTO","perfecture_jp":"東京都","jp_add_1":"江戸川区","jp_add_2":"松本"},"1330056":{"post_code":"1330056","prefecture":"TOKYO TO","city":"EDOGAWA KU","town":"MINAMIKOIWA","perfecture_jp":"東京都","jp_add_1":"江戸川区","jp_add_2":"南小岩"},"1330065":{"post_code":"1330065","prefecture":"TOKYO TO","city":"EDOGAWA KU","town":"MINAMISHINOZAKIMACHI","perfecture_jp":"東京都","jp_add_1":"江戸川区","jp_add_2":"南篠崎町"},"1330002":{"post_code":"1330002","prefecture":"TOKYO TO","city":"EDOGAWA KU","town":"YAGOCHI(2-CHOME)","perfecture_jp":"東京都","jp_add_1":"江戸川区","jp_add_2":"谷河内"}}