{"1360072":{"post_code":"1360072","prefecture":"TOKYO TO","city":"KOTO KU","town":"OJIMA","perfecture_jp":"東京都","jp_add_1":"江東区","jp_add_2":"大島"},"1360071":{"post_code":"1360071","prefecture":"TOKYO TO","city":"KOTO KU","town":"KAMEIDO","perfecture_jp":"東京都","jp_add_1":"江東区","jp_add_2":"亀戸"},"1360073":{"post_code":"1360073","prefecture":"TOKYO TO","city":"KOTO KU","town":"KITASUNA","perfecture_jp":"東京都","jp_add_1":"江東区","jp_add_2":"北砂"},"1360082":{"post_code":"1360082","prefecture":"TOKYO TO","city":"KOTO KU","town":"SHINKIBA","perfecture_jp":"東京都","jp_add_1":"江東区","jp_add_2":"新木場"},"1360075":{"post_code":"1360075","prefecture":"TOKYO TO","city":"KOTO KU","town":"SHINSUNA","perfecture_jp":"東京都","jp_add_1":"江東区","jp_add_2":"新砂"},"1360074":{"post_code":"1360074","prefecture":"TOKYO TO","city":"KOTO KU","town":"HIGASHISUNA","perfecture_jp":"東京都","jp_add_1":"江東区","jp_add_2":"東砂"},"1360076":{"post_code":"1360076","prefecture":"TOKYO TO","city":"KOTO KU","town":"MINAMISUNA","perfecture_jp":"東京都","jp_add_1":"江東区","jp_add_2":"南砂"},"1360081":{"post_code":"1360081","prefecture":"TOKYO TO","city":"KOTO KU","town":"YUMENOSHIMA","perfecture_jp":"東京都","jp_add_1":"江東区","jp_add_2":"夢の島"},"1360083":{"post_code":"1360083","prefecture":"TOKYO TO","city":"KOTO KU","town":"WAKASU","perfecture_jp":"東京都","jp_add_1":"江東区","jp_add_2":"若洲"}}