{"1430014":{"post_code":"1430014","prefecture":"TOKYO TO","city":"OTA KU","town":"OMORINAKA","perfecture_jp":"東京都","jp_add_1":"大田区","jp_add_2":"大森中"},"1430011":{"post_code":"1430011","prefecture":"TOKYO TO","city":"OTA KU","town":"OMORIHONCHO","perfecture_jp":"東京都","jp_add_1":"大田区","jp_add_2":"大森本町"},"1430012":{"post_code":"1430012","prefecture":"TOKYO TO","city":"OTA KU","town":"OMORIHIGASHI","perfecture_jp":"東京都","jp_add_1":"大田区","jp_add_2":"大森東"},"1430015":{"post_code":"1430015","prefecture":"TOKYO TO","city":"OTA KU","town":"OMORINISHI","perfecture_jp":"東京都","jp_add_1":"大田区","jp_add_2":"大森西"},"1430013":{"post_code":"1430013","prefecture":"TOKYO TO","city":"OTA KU","town":"OMORIMINAMI","perfecture_jp":"東京都","jp_add_1":"大田区","jp_add_2":"大森南"},"1430016":{"post_code":"1430016","prefecture":"TOKYO TO","city":"OTA KU","town":"OMORIKITA","perfecture_jp":"東京都","jp_add_1":"大田区","jp_add_2":"大森北"},"1430021":{"post_code":"1430021","prefecture":"TOKYO TO","city":"OTA KU","town":"KITAMAGOME","perfecture_jp":"東京都","jp_add_1":"大田区","jp_add_2":"北馬込"},"1430003":{"post_code":"1430003","prefecture":"TOKYO TO","city":"OTA KU","town":"KEIHINJIMA","perfecture_jp":"東京都","jp_add_1":"大田区","jp_add_2":"京浜島"},"1430023":{"post_code":"1430023","prefecture":"TOKYO TO","city":"OTA KU","town":"SANNO","perfecture_jp":"東京都","jp_add_1":"大田区","jp_add_2":"山王"},"1430002":{"post_code":"1430002","prefecture":"TOKYO TO","city":"OTA KU","town":"JONANJIMA","perfecture_jp":"東京都","jp_add_1":"大田区","jp_add_2":"城南島"},"1430004":{"post_code":"1430004","prefecture":"TOKYO TO","city":"OTA KU","town":"SHOWAJIMA","perfecture_jp":"東京都","jp_add_1":"大田区","jp_add_2":"昭和島"},"1430024":{"post_code":"1430024","prefecture":"TOKYO TO","city":"OTA KU","town":"CHUO","perfecture_jp":"東京都","jp_add_1":"大田区","jp_add_2":"中央"},"1430001":{"post_code":"1430001","prefecture":"TOKYO TO","city":"OTA KU","town":"TOKAI","perfecture_jp":"東京都","jp_add_1":"大田区","jp_add_2":"東海"},"1430027":{"post_code":"1430027","prefecture":"TOKYO TO","city":"OTA KU","town":"NAKAMAGOME","perfecture_jp":"東京都","jp_add_1":"大田区","jp_add_2":"中馬込"},"1430026":{"post_code":"1430026","prefecture":"TOKYO TO","city":"OTA KU","town":"NISHIMAGOME","perfecture_jp":"東京都","jp_add_1":"大田区","jp_add_2":"西馬込"},"1430022":{"post_code":"1430022","prefecture":"TOKYO TO","city":"OTA KU","town":"HIGASHIMAGOME","perfecture_jp":"東京都","jp_add_1":"大田区","jp_add_2":"東馬込"},"1430007":{"post_code":"1430007","prefecture":"TOKYO TO","city":"OTA KU","town":"FURUSATONOHAMABEKOEN","perfecture_jp":"東京都","jp_add_1":"大田区","jp_add_2":"ふるさとの浜辺公園"},"1430006":{"post_code":"1430006","prefecture":"TOKYO TO","city":"OTA KU","town":"HEIWAJIMA","perfecture_jp":"東京都","jp_add_1":"大田区","jp_add_2":"平和島"},"1430005":{"post_code":"1430005","prefecture":"TOKYO TO","city":"OTA KU","town":"HEIWANOMORIKOEN","perfecture_jp":"東京都","jp_add_1":"大田区","jp_add_2":"平和の森公園"},"1430025":{"post_code":"1430025","prefecture":"TOKYO TO","city":"OTA KU","town":"MINAMIMAGOME","perfecture_jp":"東京都","jp_add_1":"大田区","jp_add_2":"南馬込"}}