{"1440000":{"post_code":"1440000","prefecture":"TOKYO TO","city":"OTA KU","town":"IKANIKEISAIGANAIBAAI","perfecture_jp":"東京都","jp_add_1":"大田区","jp_add_2":""},"1440052":{"post_code":"1440052","prefecture":"TOKYO TO","city":"OTA KU","town":"KAMATA","perfecture_jp":"東京都","jp_add_1":"大田区","jp_add_2":"蒲田"},"1440053":{"post_code":"1440053","prefecture":"TOKYO TO","city":"OTA KU","town":"KAMATAHONCHO","perfecture_jp":"東京都","jp_add_1":"大田区","jp_add_2":"蒲田本町"},"1440032":{"post_code":"1440032","prefecture":"TOKYO TO","city":"OTA KU","town":"KITAKOJIYA","perfecture_jp":"東京都","jp_add_1":"大田区","jp_add_2":"北糀谷"},"1440054":{"post_code":"1440054","prefecture":"TOKYO TO","city":"OTA KU","town":"SHINKAMATA","perfecture_jp":"東京都","jp_add_1":"大田区","jp_add_2":"新蒲田"},"1440055":{"post_code":"1440055","prefecture":"TOKYO TO","city":"OTA KU","town":"NAKAROKUGO","perfecture_jp":"東京都","jp_add_1":"大田区","jp_add_2":"仲六郷"},"1440051":{"post_code":"1440051","prefecture":"TOKYO TO","city":"OTA KU","town":"NISHIKAMATA","perfecture_jp":"東京都","jp_add_1":"大田区","jp_add_2":"西蒲田"},"1440034":{"post_code":"1440034","prefecture":"TOKYO TO","city":"OTA KU","town":"NISHIKOJIYA","perfecture_jp":"東京都","jp_add_1":"大田区","jp_add_2":"西糀谷"},"1440056":{"post_code":"1440056","prefecture":"TOKYO TO","city":"OTA KU","town":"NISHIROKUGO","perfecture_jp":"東京都","jp_add_1":"大田区","jp_add_2":"西六郷"},"1440047":{"post_code":"1440047","prefecture":"TOKYO TO","city":"OTA KU","town":"HAGINAKA","perfecture_jp":"東京都","jp_add_1":"大田区","jp_add_2":"萩中"},"1440043":{"post_code":"1440043","prefecture":"TOKYO TO","city":"OTA KU","town":"HANEDA","perfecture_jp":"東京都","jp_add_1":"大田区","jp_add_2":"羽田"},"1440042":{"post_code":"1440042","prefecture":"TOKYO TO","city":"OTA KU","town":"HANEDAASAHICHO","perfecture_jp":"東京都","jp_add_1":"大田区","jp_add_2":"羽田旭町"},"1440041":{"post_code":"1440041","prefecture":"TOKYO TO","city":"OTA KU","town":"HANEDAKUKO","perfecture_jp":"東京都","jp_add_1":"大田区","jp_add_2":"羽田空港"},"1440031":{"post_code":"1440031","prefecture":"TOKYO TO","city":"OTA KU","town":"HIGASHIKAMATA","perfecture_jp":"東京都","jp_add_1":"大田区","jp_add_2":"東蒲田"},"1440033":{"post_code":"1440033","prefecture":"TOKYO TO","city":"OTA KU","town":"HIGASHIKOJIYA","perfecture_jp":"東京都","jp_add_1":"大田区","jp_add_2":"東糀谷"},"1440046":{"post_code":"1440046","prefecture":"TOKYO TO","city":"OTA KU","town":"HIGASHIROKUGO","perfecture_jp":"東京都","jp_add_1":"大田区","jp_add_2":"東六郷"},"1440044":{"post_code":"1440044","prefecture":"TOKYO TO","city":"OTA KU","town":"HONHANEDA","perfecture_jp":"東京都","jp_add_1":"大田区","jp_add_2":"本羽田"},"1440035":{"post_code":"1440035","prefecture":"TOKYO TO","city":"OTA KU","town":"MINAMIKAMATA","perfecture_jp":"東京都","jp_add_1":"大田区","jp_add_2":"南蒲田"},"1440045":{"post_code":"1440045","prefecture":"TOKYO TO","city":"OTA KU","town":"MINAMIROKUGO","perfecture_jp":"東京都","jp_add_1":"大田区","jp_add_2":"南六郷"}}