{"1460082":{"post_code":"1460082","prefecture":"TOKYO TO","city":"OTA KU","town":"IKEGAMI","perfecture_jp":"東京都","jp_add_1":"大田区","jp_add_2":"池上"},"1460091":{"post_code":"1460091","prefecture":"TOKYO TO","city":"OTA KU","town":"UNOKI","perfecture_jp":"東京都","jp_add_1":"大田区","jp_add_2":"鵜の木"},"1460085":{"post_code":"1460085","prefecture":"TOKYO TO","city":"OTA KU","town":"KUGAHARA","perfecture_jp":"東京都","jp_add_1":"大田区","jp_add_2":"久が原"},"1460092":{"post_code":"1460092","prefecture":"TOKYO TO","city":"OTA KU","town":"SHIMOMARUKO","perfecture_jp":"東京都","jp_add_1":"大田区","jp_add_2":"下丸子"},"1460095":{"post_code":"1460095","prefecture":"TOKYO TO","city":"OTA KU","town":"TAMAGAWA","perfecture_jp":"東京都","jp_add_1":"大田区","jp_add_2":"多摩川"},"1460083":{"post_code":"1460083","prefecture":"TOKYO TO","city":"OTA KU","town":"CHIDORI","perfecture_jp":"東京都","jp_add_1":"大田区","jp_add_2":"千鳥"},"1460081":{"post_code":"1460081","prefecture":"TOKYO TO","city":"OTA KU","town":"NAKAIKEGAMI","perfecture_jp":"東京都","jp_add_1":"大田区","jp_add_2":"仲池上"},"1460094":{"post_code":"1460094","prefecture":"TOKYO TO","city":"OTA KU","town":"HIGASHIYAGUCHI","perfecture_jp":"東京都","jp_add_1":"大田区","jp_add_2":"東矢口"},"1460084":{"post_code":"1460084","prefecture":"TOKYO TO","city":"OTA KU","town":"MINAMIKUGAHARA","perfecture_jp":"東京都","jp_add_1":"大田区","jp_add_2":"南久が原"},"1460093":{"post_code":"1460093","prefecture":"TOKYO TO","city":"OTA KU","town":"YAGUCHI","perfecture_jp":"東京都","jp_add_1":"大田区","jp_add_2":"矢口"}}