{"1510064":{"post_code":"1510064","prefecture":"TOKYO TO","city":"SHIBUYA KU","town":"UEHARA","perfecture_jp":"東京都","jp_add_1":"渋谷区","jp_add_2":"上原"},"1510065":{"post_code":"1510065","prefecture":"TOKYO TO","city":"SHIBUYA KU","town":"OYAMACHO","perfecture_jp":"東京都","jp_add_1":"渋谷区","jp_add_2":"大山町"},"1510073":{"post_code":"1510073","prefecture":"TOKYO TO","city":"SHIBUYA KU","town":"SASAZUKA","perfecture_jp":"東京都","jp_add_1":"渋谷区","jp_add_2":"笹塚"},"1510051":{"post_code":"1510051","prefecture":"TOKYO TO","city":"SHIBUYA KU","town":"SENDAGAYA","perfecture_jp":"東京都","jp_add_1":"渋谷区","jp_add_2":"千駄ヶ谷"},"1510063":{"post_code":"1510063","prefecture":"TOKYO TO","city":"SHIBUYA KU","town":"TOMIGAYA","perfecture_jp":"東京都","jp_add_1":"渋谷区","jp_add_2":"富ヶ谷"},"1510066":{"post_code":"1510066","prefecture":"TOKYO TO","city":"SHIBUYA KU","town":"NISHIHARA","perfecture_jp":"東京都","jp_add_1":"渋谷区","jp_add_2":"西原"},"1510072":{"post_code":"1510072","prefecture":"TOKYO TO","city":"SHIBUYA KU","town":"HATAGAYA","perfecture_jp":"東京都","jp_add_1":"渋谷区","jp_add_2":"幡ヶ谷"},"1510061":{"post_code":"1510061","prefecture":"TOKYO TO","city":"SHIBUYA KU","town":"HATSUDAI","perfecture_jp":"東京都","jp_add_1":"渋谷区","jp_add_2":"初台"},"1510071":{"post_code":"1510071","prefecture":"TOKYO TO","city":"SHIBUYA KU","town":"HOMMACHI","perfecture_jp":"東京都","jp_add_1":"渋谷区","jp_add_2":"本町"},"1510062":{"post_code":"1510062","prefecture":"TOKYO TO","city":"SHIBUYA KU","town":"MOTOYOYOGICHO","perfecture_jp":"東京都","jp_add_1":"渋谷区","jp_add_2":"元代々木町"},"1510053":{"post_code":"1510053","prefecture":"TOKYO TO","city":"SHIBUYA KU","town":"YOYOGI","perfecture_jp":"東京都","jp_add_1":"渋谷区","jp_add_2":"代々木"},"1510052":{"post_code":"1510052","prefecture":"TOKYO TO","city":"SHIBUYA KU","town":"YOYOGIKAMIZONOCHO","perfecture_jp":"東京都","jp_add_1":"渋谷区","jp_add_2":"代々木神園町"}}