{"1620803":{"post_code":"1620803","prefecture":"TOKYO TO","city":"SHINJUKU KU","town":"AKAGI SHITAMACHI","perfecture_jp":"東京都","jp_add_1":"新宿区","jp_add_2":"赤城下町"},"1620817":{"post_code":"1620817","prefecture":"TOKYO TO","city":"SHINJUKU KU","town":"AKAGI MOTOMACHI","perfecture_jp":"東京都","jp_add_1":"新宿区","jp_add_2":"赤城元町"},"1620824":{"post_code":"1620824","prefecture":"TOKYO TO","city":"SHINJUKU KU","town":"AGEBACHO","perfecture_jp":"東京都","jp_add_1":"新宿区","jp_add_2":"揚場町"},"1620062":{"post_code":"1620062","prefecture":"TOKYO TO","city":"SHINJUKU KU","town":"ICHIGAYAKAGACHO","perfecture_jp":"東京都","jp_add_1":"新宿区","jp_add_2":"市谷加賀町"},"1620856":{"post_code":"1620856","prefecture":"TOKYO TO","city":"SHINJUKU KU","town":"ICHIGAYAKORACHO","perfecture_jp":"東京都","jp_add_1":"新宿区","jp_add_2":"市谷甲良町"},"1620842":{"post_code":"1620842","prefecture":"TOKYO TO","city":"SHINJUKU KU","town":"ICHIGAYASADOHARACHO","perfecture_jp":"東京都","jp_add_1":"新宿区","jp_add_2":"市谷砂土原町"},"1620846":{"post_code":"1620846","prefecture":"TOKYO TO","city":"SHINJUKU KU","town":"ICHIGAYASANAICHO","perfecture_jp":"東京都","jp_add_1":"新宿区","jp_add_2":"市谷左内町"},"1620848":{"post_code":"1620848","prefecture":"TOKYO TO","city":"SHINJUKU KU","town":"ICHIGAYATAKAJOMACHI","perfecture_jp":"東京都","jp_add_1":"新宿区","jp_add_2":"市谷鷹匠町"},"1620843":{"post_code":"1620843","prefecture":"TOKYO TO","city":"SHINJUKU KU","town":"ICHIGAYATAMACHI","perfecture_jp":"東京都","jp_add_1":"新宿区","jp_add_2":"市谷田町"},"1620066":{"post_code":"1620066","prefecture":"TOKYO TO","city":"SHINJUKU KU","town":"ICHIGAYADAIMACHI","perfecture_jp":"東京都","jp_add_1":"新宿区","jp_add_2":"市谷台町"},"1620847":{"post_code":"1620847","prefecture":"TOKYO TO","city":"SHINJUKU KU","town":"ICHIGAYACHOENJIMACHI","perfecture_jp":"東京都","jp_add_1":"新宿区","jp_add_2":"市谷長延寺町"},"1620064":{"post_code":"1620064","prefecture":"TOKYO TO","city":"SHINJUKU KU","town":"ICHIGAYANAKANOCHO","perfecture_jp":"東京都","jp_add_1":"新宿区","jp_add_2":"市谷仲之町"},"1620844":{"post_code":"1620844","prefecture":"TOKYO TO","city":"SHINJUKU KU","town":"ICHIGAYAHACHIMANCHO","perfecture_jp":"東京都","jp_add_1":"新宿区","jp_add_2":"市谷八幡町"},"1620826":{"post_code":"1620826","prefecture":"TOKYO TO","city":"SHINJUKU KU","town":"ICHIGAYAFUNAGAWARAMACHI","perfecture_jp":"東京都","jp_add_1":"新宿区","jp_add_2":"市谷船河原町"},"1620845":{"post_code":"1620845","prefecture":"TOKYO TO","city":"SHINJUKU KU","town":"ICHIGAYAHOMMURACHO","perfecture_jp":"東京都","jp_add_1":"新宿区","jp_add_2":"市谷本村町"},"1620063":{"post_code":"1620063","prefecture":"TOKYO TO","city":"SHINJUKU KU","town":"ICHIGAYAYAKUOJIMACHI","perfecture_jp":"東京都","jp_add_1":"新宿区","jp_add_2":"市谷薬王寺町"},"1620061":{"post_code":"1620061","prefecture":"TOKYO TO","city":"SHINJUKU KU","town":"ICHIGAYAYANAGICHO","perfecture_jp":"東京都","jp_add_1":"新宿区","jp_add_2":"市谷柳町"},"1620857":{"post_code":"1620857","prefecture":"TOKYO TO","city":"SHINJUKU KU","town":"ICHIGAYAYAMABUSHICHO","perfecture_jp":"東京都","jp_add_1":"新宿区","jp_add_2":"市谷山伏町"},"1620832":{"post_code":"1620832","prefecture":"TOKYO TO","city":"SHINJUKU KU","town":"IWATOCHO","perfecture_jp":"東京都","jp_add_1":"新宿区","jp_add_2":"岩戸町"},"1620806":{"post_code":"1620806","prefecture":"TOKYO TO","city":"SHINJUKU KU","town":"ENOKICHO","perfecture_jp":"東京都","jp_add_1":"新宿区","jp_add_2":"榎町"},"1620802":{"post_code":"1620802","prefecture":"TOKYO TO","city":"SHINJUKU KU","town":"KAITAICHO","perfecture_jp":"東京都","jp_add_1":"新宿区","jp_add_2":"改代町"},"1620823":{"post_code":"1620823","prefecture":"TOKYO TO","city":"SHINJUKU KU","town":"KAGURAGASHI","perfecture_jp":"東京都","jp_add_1":"新宿区","jp_add_2":"神楽河岸"},"1620825":{"post_code":"1620825","prefecture":"TOKYO TO","city":"SHINJUKU KU","town":"KAGURAZAKA","perfecture_jp":"東京都","jp_add_1":"新宿区","jp_add_2":"神楽坂"},"1620054":{"post_code":"1620054","prefecture":"TOKYO TO","city":"SHINJUKU KU","town":"KAWADACHO","perfecture_jp":"東京都","jp_add_1":"新宿区","jp_add_2":"河田町"},"1620044":{"post_code":"1620044","prefecture":"TOKYO TO","city":"SHINJUKU KU","town":"KIKUICHO","perfecture_jp":"東京都","jp_add_1":"新宿区","jp_add_2":"喜久井町"},"1620834":{"post_code":"1620834","prefecture":"TOKYO TO","city":"SHINJUKU KU","town":"KITAMACHI","perfecture_jp":"東京都","jp_add_1":"新宿区","jp_add_2":"北町"},"1620853":{"post_code":"1620853","prefecture":"TOKYO TO","city":"SHINJUKU KU","town":"KITAYAMABUSHICHO","perfecture_jp":"東京都","jp_add_1":"新宿区","jp_add_2":"北山伏町"},"1620838":{"post_code":"1620838","prefecture":"TOKYO TO","city":"SHINJUKU KU","town":"SAIKUMACHI","perfecture_jp":"東京都","jp_add_1":"新宿区","jp_add_2":"細工町"},"1620822":{"post_code":"1620822","prefecture":"TOKYO TO","city":"SHINJUKU KU","town":"SHIMOMIYABICHO","perfecture_jp":"東京都","jp_add_1":"新宿区","jp_add_2":"下宮比町"},"1620816":{"post_code":"1620816","prefecture":"TOKYO TO","city":"SHINJUKU KU","town":"SHIROGANECHO","perfecture_jp":"東京都","jp_add_1":"新宿区","jp_add_2":"白銀町"},"1620814":{"post_code":"1620814","prefecture":"TOKYO TO","city":"SHINJUKU KU","town":"SHINOGAWAMACHI","perfecture_jp":"東京都","jp_add_1":"新宿区","jp_add_2":"新小川町"},"1620811":{"post_code":"1620811","prefecture":"TOKYO TO","city":"SHINJUKU KU","town":"SUIDOCHO","perfecture_jp":"東京都","jp_add_1":"新宿区","jp_add_2":"水道町"},"1620065":{"post_code":"1620065","prefecture":"TOKYO TO","city":"SHINJUKU KU","town":"SUMIYOSHICHO","perfecture_jp":"東京都","jp_add_1":"新宿区","jp_add_2":"住吉町"},"1620833":{"post_code":"1620833","prefecture":"TOKYO TO","city":"SHINJUKU KU","town":"TANSUMACHI","perfecture_jp":"東京都","jp_add_1":"新宿区","jp_add_2":"箪笥町"},"1620818":{"post_code":"1620818","prefecture":"TOKYO TO","city":"SHINJUKU KU","town":"TSUKIJIMACHI","perfecture_jp":"東京都","jp_add_1":"新宿区","jp_add_2":"築地町"},"1620821":{"post_code":"1620821","prefecture":"TOKYO TO","city":"SHINJUKU KU","town":"TSUKUDOCHO","perfecture_jp":"東京都","jp_add_1":"新宿区","jp_add_2":"津久戸町"},"1620815":{"post_code":"1620815","prefecture":"TOKYO TO","city":"SHINJUKU KU","town":"TSUKUDOHACHIMANCHO","perfecture_jp":"東京都","jp_add_1":"新宿区","jp_add_2":"筑土八幡町"},"1620808":{"post_code":"1620808","prefecture":"TOKYO TO","city":"SHINJUKU KU","town":"TENJINCHO","perfecture_jp":"東京都","jp_add_1":"新宿区","jp_add_2":"天神町"},"1620067":{"post_code":"1620067","prefecture":"TOKYO TO","city":"SHINJUKU KU","town":"TOMIHISACHO","perfecture_jp":"東京都","jp_add_1":"新宿区","jp_add_2":"富久町"},"1620052":{"post_code":"1620052","prefecture":"TOKYO TO","city":"SHINJUKU KU","town":"TOYAMA(SONOTA)","perfecture_jp":"東京都","jp_add_1":"新宿区","jp_add_2":"戸山"},"1620804":{"post_code":"1620804","prefecture":"TOKYO TO","city":"SHINJUKU KU","town":"NAKAZATOCHO","perfecture_jp":"東京都","jp_add_1":"新宿区","jp_add_2":"中里町"},"1620835":{"post_code":"1620835","prefecture":"TOKYO TO","city":"SHINJUKU KU","town":"NAKACHO","perfecture_jp":"東京都","jp_add_1":"新宿区","jp_add_2":"中町"},"1620837":{"post_code":"1620837","prefecture":"TOKYO TO","city":"SHINJUKU KU","town":"NANDOMACHI","perfecture_jp":"東京都","jp_add_1":"新宿区","jp_add_2":"納戸町"},"1620812":{"post_code":"1620812","prefecture":"TOKYO TO","city":"SHINJUKU KU","town":"NISHIGOKENCHO","perfecture_jp":"東京都","jp_add_1":"新宿区","jp_add_2":"西五軒町"},"1620855":{"post_code":"1620855","prefecture":"TOKYO TO","city":"SHINJUKU KU","town":"NIJUTSUKIMACHI","perfecture_jp":"東京都","jp_add_1":"新宿区","jp_add_2":"二十騎町"},"1620051":{"post_code":"1620051","prefecture":"TOKYO TO","city":"SHINJUKU KU","town":"NISHIWASEDA(2-CHOME1-BAN1-23-GO.2-B","perfecture_jp":"東京都","jp_add_1":"新宿区","jp_add_2":"西早稲田"},"1620045":{"post_code":"1620045","prefecture":"TOKYO TO","city":"SHINJUKU KU","town":"BABASHITACHO","perfecture_jp":"東京都","jp_add_1":"新宿区","jp_add_2":"馬場下町"},"1620841":{"post_code":"1620841","prefecture":"TOKYO TO","city":"SHINJUKU KU","town":"HARAIKATAMACHI","perfecture_jp":"東京都","jp_add_1":"新宿区","jp_add_2":"払方町"},"1620053":{"post_code":"1620053","prefecture":"TOKYO TO","city":"SHINJUKU KU","town":"HARAMACHI","perfecture_jp":"東京都","jp_add_1":"新宿区","jp_add_2":"原町"},"1620807":{"post_code":"1620807","prefecture":"TOKYO TO","city":"SHINJUKU KU","town":"HIGASHIENOKICHO","perfecture_jp":"東京都","jp_add_1":"新宿区","jp_add_2":"東榎町"},"1620813":{"post_code":"1620813","prefecture":"TOKYO TO","city":"SHINJUKU KU","town":"HIGASHIGOKENCHO","perfecture_jp":"東京都","jp_add_1":"新宿区","jp_add_2":"東五軒町"},"1620828":{"post_code":"1620828","prefecture":"TOKYO TO","city":"SHINJUKU KU","town":"FUKUROMACHI","perfecture_jp":"東京都","jp_add_1":"新宿区","jp_add_2":"袋町"},"1620851":{"post_code":"1620851","prefecture":"TOKYO TO","city":"SHINJUKU KU","town":"BENTENCHO","perfecture_jp":"東京都","jp_add_1":"新宿区","jp_add_2":"弁天町"},"1620852":{"post_code":"1620852","prefecture":"TOKYO TO","city":"SHINJUKU KU","town":"MINAMIENOKICHO","perfecture_jp":"東京都","jp_add_1":"新宿区","jp_add_2":"南榎町"},"1620836":{"post_code":"1620836","prefecture":"TOKYO TO","city":"SHINJUKU KU","town":"MINAMICHO","perfecture_jp":"東京都","jp_add_1":"新宿区","jp_add_2":"南町"},"1620854":{"post_code":"1620854","prefecture":"TOKYO TO","city":"SHINJUKU KU","town":"MINAMIYAMABUSHICHO","perfecture_jp":"東京都","jp_add_1":"新宿区","jp_add_2":"南山伏町"},"1620801":{"post_code":"1620801","prefecture":"TOKYO TO","city":"SHINJUKU KU","town":"YAMABUKICHO","perfecture_jp":"東京都","jp_add_1":"新宿区","jp_add_2":"山吹町"},"1620805":{"post_code":"1620805","prefecture":"TOKYO TO","city":"SHINJUKU KU","town":"YARAICHO","perfecture_jp":"東京都","jp_add_1":"新宿区","jp_add_2":"矢来町"},"1620831":{"post_code":"1620831","prefecture":"TOKYO TO","city":"SHINJUKU KU","town":"YOKOTERAMACHI","perfecture_jp":"東京都","jp_add_1":"新宿区","jp_add_2":"横寺町"},"1620055":{"post_code":"1620055","prefecture":"TOKYO TO","city":"SHINJUKU KU","town":"YOCHOMACHI","perfecture_jp":"東京都","jp_add_1":"新宿区","jp_add_2":"余丁町"},"1620056":{"post_code":"1620056","prefecture":"TOKYO TO","city":"SHINJUKU KU","town":"WAKAMATSUCHO","perfecture_jp":"東京都","jp_add_1":"新宿区","jp_add_2":"若松町"},"1620827":{"post_code":"1620827","prefecture":"TOKYO TO","city":"SHINJUKU KU","town":"WAKAMIYACHO","perfecture_jp":"東京都","jp_add_1":"新宿区","jp_add_2":"若宮町"},"1620041":{"post_code":"1620041","prefecture":"TOKYO TO","city":"SHINJUKU KU","town":"WASEDA TSURUMAKICHO","perfecture_jp":"東京都","jp_add_1":"新宿区","jp_add_2":"早稲田鶴巻町"},"1620043":{"post_code":"1620043","prefecture":"TOKYO TO","city":"SHINJUKU KU","town":"WASEDA MINAMICHO","perfecture_jp":"東京都","jp_add_1":"新宿区","jp_add_2":"早稲田南町"},"1620042":{"post_code":"1620042","prefecture":"TOKYO TO","city":"SHINJUKU KU","town":"WASEDAMACHI","perfecture_jp":"東京都","jp_add_1":"新宿区","jp_add_2":"早稲田町"}}