{"1630790":{"post_code":"1630790","prefecture":"TOKYO TO","city":"SHINJUKU KU","town":"NISHISHINJUKU ODAKYU DAIICHISEIMEIB","perfecture_jp":"東京都","jp_add_1":"新宿区","jp_add_2":"西新宿小田急第一生命ビル"},"1630701":{"post_code":"1630701","prefecture":"TOKYO TO","city":"SHINJUKU KU","town":"NISHISHINJUKU ODAKYU DAIICHISEIMEIB","perfecture_jp":"東京都","jp_add_1":"新宿区","jp_add_2":"西新宿小田急第一生命ビル１階"},"1630702":{"post_code":"1630702","prefecture":"TOKYO TO","city":"SHINJUKU KU","town":"NISHISHINJUKU ODAKYU DAIICHISEIMEIB","perfecture_jp":"東京都","jp_add_1":"新宿区","jp_add_2":"西新宿小田急第一生命ビル２階"},"1630703":{"post_code":"1630703","prefecture":"TOKYO TO","city":"SHINJUKU KU","town":"NISHISHINJUKU ODAKYU DAIICHISEIMEIB","perfecture_jp":"東京都","jp_add_1":"新宿区","jp_add_2":"西新宿小田急第一生命ビル３階"},"1630704":{"post_code":"1630704","prefecture":"TOKYO TO","city":"SHINJUKU KU","town":"NISHISHINJUKU ODAKYU DAIICHISEIMEIB","perfecture_jp":"東京都","jp_add_1":"新宿区","jp_add_2":"西新宿小田急第一生命ビル４階"},"1630705":{"post_code":"1630705","prefecture":"TOKYO TO","city":"SHINJUKU KU","town":"NISHISHINJUKU ODAKYU DAIICHISEIMEIB","perfecture_jp":"東京都","jp_add_1":"新宿区","jp_add_2":"西新宿小田急第一生命ビル５階"},"1630706":{"post_code":"1630706","prefecture":"TOKYO TO","city":"SHINJUKU KU","town":"NISHISHINJUKU ODAKYU DAIICHISEIMEIB","perfecture_jp":"東京都","jp_add_1":"新宿区","jp_add_2":"西新宿小田急第一生命ビル６階"},"1630707":{"post_code":"1630707","prefecture":"TOKYO TO","city":"SHINJUKU KU","town":"NISHISHINJUKU ODAKYU DAIICHISEIMEIB","perfecture_jp":"東京都","jp_add_1":"新宿区","jp_add_2":"西新宿小田急第一生命ビル７階"},"1630708":{"post_code":"1630708","prefecture":"TOKYO TO","city":"SHINJUKU KU","town":"NISHISHINJUKU ODAKYU DAIICHISEIMEIB","perfecture_jp":"東京都","jp_add_1":"新宿区","jp_add_2":"西新宿小田急第一生命ビル８階"},"1630709":{"post_code":"1630709","prefecture":"TOKYO TO","city":"SHINJUKU KU","town":"NISHISHINJUKU ODAKYU DAIICHISEIMEIB","perfecture_jp":"東京都","jp_add_1":"新宿区","jp_add_2":"西新宿小田急第一生命ビル９階"},"1630710":{"post_code":"1630710","prefecture":"TOKYO TO","city":"SHINJUKU KU","town":"NISHISHINJUKU ODAKYU DAIICHISEIMEIB","perfecture_jp":"東京都","jp_add_1":"新宿区","jp_add_2":"西新宿小田急第一生命ビル１０階"},"1630711":{"post_code":"1630711","prefecture":"TOKYO TO","city":"SHINJUKU KU","town":"NISHISHINJUKU ODAKYU DAIICHISEIMEIB","perfecture_jp":"東京都","jp_add_1":"新宿区","jp_add_2":"西新宿小田急第一生命ビル１１階"},"1630712":{"post_code":"1630712","prefecture":"TOKYO TO","city":"SHINJUKU KU","town":"NISHISHINJUKU ODAKYU DAIICHISEIMEIB","perfecture_jp":"東京都","jp_add_1":"新宿区","jp_add_2":"西新宿小田急第一生命ビル１２階"},"1630713":{"post_code":"1630713","prefecture":"TOKYO TO","city":"SHINJUKU KU","town":"NISHISHINJUKU ODAKYU DAIICHISEIMEIB","perfecture_jp":"東京都","jp_add_1":"新宿区","jp_add_2":"西新宿小田急第一生命ビル１３階"},"1630714":{"post_code":"1630714","prefecture":"TOKYO TO","city":"SHINJUKU KU","town":"NISHISHINJUKU ODAKYU DAIICHISEIMEIB","perfecture_jp":"東京都","jp_add_1":"新宿区","jp_add_2":"西新宿小田急第一生命ビル１４階"},"1630715":{"post_code":"1630715","prefecture":"TOKYO TO","city":"SHINJUKU KU","town":"NISHISHINJUKU ODAKYU DAIICHISEIMEIB","perfecture_jp":"東京都","jp_add_1":"新宿区","jp_add_2":"西新宿小田急第一生命ビル１５階"},"1630716":{"post_code":"1630716","prefecture":"TOKYO TO","city":"SHINJUKU KU","town":"NISHISHINJUKU ODAKYU DAIICHISEIMEIB","perfecture_jp":"東京都","jp_add_1":"新宿区","jp_add_2":"西新宿小田急第一生命ビル１６階"},"1630717":{"post_code":"1630717","prefecture":"TOKYO TO","city":"SHINJUKU KU","town":"NISHISHINJUKU ODAKYU DAIICHISEIMEIB","perfecture_jp":"東京都","jp_add_1":"新宿区","jp_add_2":"西新宿小田急第一生命ビル１７階"},"1630718":{"post_code":"1630718","prefecture":"TOKYO TO","city":"SHINJUKU KU","town":"NISHISHINJUKU ODAKYU DAIICHISEIMEIB","perfecture_jp":"東京都","jp_add_1":"新宿区","jp_add_2":"西新宿小田急第一生命ビル１８階"},"1630719":{"post_code":"1630719","prefecture":"TOKYO TO","city":"SHINJUKU KU","town":"NISHISHINJUKU ODAKYU DAIICHISEIMEIB","perfecture_jp":"東京都","jp_add_1":"新宿区","jp_add_2":"西新宿小田急第一生命ビル１９階"},"1630720":{"post_code":"1630720","prefecture":"TOKYO TO","city":"SHINJUKU KU","town":"NISHISHINJUKU ODAKYU DAIICHISEIMEIB","perfecture_jp":"東京都","jp_add_1":"新宿区","jp_add_2":"西新宿小田急第一生命ビル２０階"},"1630721":{"post_code":"1630721","prefecture":"TOKYO TO","city":"SHINJUKU KU","town":"NISHISHINJUKU ODAKYU DAIICHISEIMEIB","perfecture_jp":"東京都","jp_add_1":"新宿区","jp_add_2":"西新宿小田急第一生命ビル２１階"},"1630722":{"post_code":"1630722","prefecture":"TOKYO TO","city":"SHINJUKU KU","town":"NISHISHINJUKU ODAKYU DAIICHISEIMEIB","perfecture_jp":"東京都","jp_add_1":"新宿区","jp_add_2":"西新宿小田急第一生命ビル２２階"},"1630723":{"post_code":"1630723","prefecture":"TOKYO TO","city":"SHINJUKU KU","town":"NISHISHINJUKU ODAKYU DAIICHISEIMEIB","perfecture_jp":"東京都","jp_add_1":"新宿区","jp_add_2":"西新宿小田急第一生命ビル２３階"},"1630724":{"post_code":"1630724","prefecture":"TOKYO TO","city":"SHINJUKU KU","town":"NISHISHINJUKU ODAKYU DAIICHISEIMEIB","perfecture_jp":"東京都","jp_add_1":"新宿区","jp_add_2":"西新宿小田急第一生命ビル２４階"},"1630725":{"post_code":"1630725","prefecture":"TOKYO TO","city":"SHINJUKU KU","town":"NISHISHINJUKU ODAKYU DAIICHISEIMEIB","perfecture_jp":"東京都","jp_add_1":"新宿区","jp_add_2":"西新宿小田急第一生命ビル２５階"},"1630726":{"post_code":"1630726","prefecture":"TOKYO TO","city":"SHINJUKU KU","town":"NISHISHINJUKU ODAKYU DAIICHISEIMEIB","perfecture_jp":"東京都","jp_add_1":"新宿区","jp_add_2":"西新宿小田急第一生命ビル２６階"},"1631390":{"post_code":"1631390","prefecture":"TOKYO TO","city":"SHINJUKU KU","town":"NISHISHINJUKU SHINJUKU AIRANDOTAWA(","perfecture_jp":"東京都","jp_add_1":"新宿区","jp_add_2":"西新宿新宿アイランドタワー"},"1631301":{"post_code":"1631301","prefecture":"TOKYO TO","city":"SHINJUKU KU","town":"NISHISHINJUKU SHINJUKU AIRANDOTAWA(","perfecture_jp":"東京都","jp_add_1":"新宿区","jp_add_2":"西新宿新宿アイランドタワー１階"},"1631302":{"post_code":"1631302","prefecture":"TOKYO TO","city":"SHINJUKU KU","town":"NISHISHINJUKU SHINJUKU AIRANDOTAWA(","perfecture_jp":"東京都","jp_add_1":"新宿区","jp_add_2":"西新宿新宿アイランドタワー２階"},"1631303":{"post_code":"1631303","prefecture":"TOKYO TO","city":"SHINJUKU KU","town":"NISHISHINJUKU SHINJUKU AIRANDOTAWA(","perfecture_jp":"東京都","jp_add_1":"新宿区","jp_add_2":"西新宿新宿アイランドタワー３階"},"1631304":{"post_code":"1631304","prefecture":"TOKYO TO","city":"SHINJUKU KU","town":"NISHISHINJUKU SHINJUKU AIRANDOTAWA(","perfecture_jp":"東京都","jp_add_1":"新宿区","jp_add_2":"西新宿新宿アイランドタワー４階"},"1631305":{"post_code":"1631305","prefecture":"TOKYO TO","city":"SHINJUKU KU","town":"NISHISHINJUKU SHINJUKU AIRANDOTAWA(","perfecture_jp":"東京都","jp_add_1":"新宿区","jp_add_2":"西新宿新宿アイランドタワー５階"},"1631306":{"post_code":"1631306","prefecture":"TOKYO TO","city":"SHINJUKU KU","town":"NISHISHINJUKU SHINJUKU AIRANDOTAWA(","perfecture_jp":"東京都","jp_add_1":"新宿区","jp_add_2":"西新宿新宿アイランドタワー６階"},"1631307":{"post_code":"1631307","prefecture":"TOKYO TO","city":"SHINJUKU KU","town":"NISHISHINJUKU SHINJUKU AIRANDOTAWA(","perfecture_jp":"東京都","jp_add_1":"新宿区","jp_add_2":"西新宿新宿アイランドタワー７階"},"1631308":{"post_code":"1631308","prefecture":"TOKYO TO","city":"SHINJUKU KU","town":"NISHISHINJUKU SHINJUKU AIRANDOTAWA(","perfecture_jp":"東京都","jp_add_1":"新宿区","jp_add_2":"西新宿新宿アイランドタワー８階"},"1631309":{"post_code":"1631309","prefecture":"TOKYO TO","city":"SHINJUKU KU","town":"NISHISHINJUKU SHINJUKU AIRANDOTAWA(","perfecture_jp":"東京都","jp_add_1":"新宿区","jp_add_2":"西新宿新宿アイランドタワー９階"},"1631310":{"post_code":"1631310","prefecture":"TOKYO TO","city":"SHINJUKU KU","town":"NISHISHINJUKU SHINJUKU AIRANDOTAWA(","perfecture_jp":"東京都","jp_add_1":"新宿区","jp_add_2":"西新宿新宿アイランドタワー１０階"},"1631311":{"post_code":"1631311","prefecture":"TOKYO TO","city":"SHINJUKU KU","town":"NISHISHINJUKU SHINJUKU AIRANDOTAWA(","perfecture_jp":"東京都","jp_add_1":"新宿区","jp_add_2":"西新宿新宿アイランドタワー１１階"},"1631312":{"post_code":"1631312","prefecture":"TOKYO TO","city":"SHINJUKU KU","town":"NISHISHINJUKU SHINJUKU AIRANDOTAWA(","perfecture_jp":"東京都","jp_add_1":"新宿区","jp_add_2":"西新宿新宿アイランドタワー１２階"},"1631313":{"post_code":"1631313","prefecture":"TOKYO TO","city":"SHINJUKU KU","town":"NISHISHINJUKU SHINJUKU AIRANDOTAWA(","perfecture_jp":"東京都","jp_add_1":"新宿区","jp_add_2":"西新宿新宿アイランドタワー１３階"},"1631314":{"post_code":"1631314","prefecture":"TOKYO TO","city":"SHINJUKU KU","town":"NISHISHINJUKU SHINJUKU AIRANDOTAWA(","perfecture_jp":"東京都","jp_add_1":"新宿区","jp_add_2":"西新宿新宿アイランドタワー１４階"},"1631315":{"post_code":"1631315","prefecture":"TOKYO TO","city":"SHINJUKU KU","town":"NISHISHINJUKU SHINJUKU AIRANDOTAWA(","perfecture_jp":"東京都","jp_add_1":"新宿区","jp_add_2":"西新宿新宿アイランドタワー１５階"},"1631316":{"post_code":"1631316","prefecture":"TOKYO TO","city":"SHINJUKU KU","town":"NISHISHINJUKU SHINJUKU AIRANDOTAWA(","perfecture_jp":"東京都","jp_add_1":"新宿区","jp_add_2":"西新宿新宿アイランドタワー１６階"},"1631317":{"post_code":"1631317","prefecture":"TOKYO TO","city":"SHINJUKU KU","town":"NISHISHINJUKU SHINJUKU AIRANDOTAWA(","perfecture_jp":"東京都","jp_add_1":"新宿区","jp_add_2":"西新宿新宿アイランドタワー１７階"},"1631318":{"post_code":"1631318","prefecture":"TOKYO TO","city":"SHINJUKU KU","town":"NISHISHINJUKU SHINJUKU AIRANDOTAWA(","perfecture_jp":"東京都","jp_add_1":"新宿区","jp_add_2":"西新宿新宿アイランドタワー１８階"},"1631319":{"post_code":"1631319","prefecture":"TOKYO TO","city":"SHINJUKU KU","town":"NISHISHINJUKU SHINJUKU AIRANDOTAWA(","perfecture_jp":"東京都","jp_add_1":"新宿区","jp_add_2":"西新宿新宿アイランドタワー１９階"},"1631320":{"post_code":"1631320","prefecture":"TOKYO TO","city":"SHINJUKU KU","town":"NISHISHINJUKU SHINJUKU AIRANDOTAWA(","perfecture_jp":"東京都","jp_add_1":"新宿区","jp_add_2":"西新宿新宿アイランドタワー２０階"},"1631321":{"post_code":"1631321","prefecture":"TOKYO TO","city":"SHINJUKU KU","town":"NISHISHINJUKU SHINJUKU AIRANDOTAWA(","perfecture_jp":"東京都","jp_add_1":"新宿区","jp_add_2":"西新宿新宿アイランドタワー２１階"},"1631322":{"post_code":"1631322","prefecture":"TOKYO TO","city":"SHINJUKU KU","town":"NISHISHINJUKU SHINJUKU AIRANDOTAWA(","perfecture_jp":"東京都","jp_add_1":"新宿区","jp_add_2":"西新宿新宿アイランドタワー２２階"},"1631323":{"post_code":"1631323","prefecture":"TOKYO TO","city":"SHINJUKU KU","town":"NISHISHINJUKU SHINJUKU AIRANDOTAWA(","perfecture_jp":"東京都","jp_add_1":"新宿区","jp_add_2":"西新宿新宿アイランドタワー２３階"},"1631324":{"post_code":"1631324","prefecture":"TOKYO TO","city":"SHINJUKU KU","town":"NISHISHINJUKU SHINJUKU AIRANDOTAWA(","perfecture_jp":"東京都","jp_add_1":"新宿区","jp_add_2":"西新宿新宿アイランドタワー２４階"},"1631325":{"post_code":"1631325","prefecture":"TOKYO TO","city":"SHINJUKU KU","town":"NISHISHINJUKU SHINJUKU AIRANDOTAWA(","perfecture_jp":"東京都","jp_add_1":"新宿区","jp_add_2":"西新宿新宿アイランドタワー２５階"},"1631326":{"post_code":"1631326","prefecture":"TOKYO TO","city":"SHINJUKU KU","town":"NISHISHINJUKU SHINJUKU AIRANDOTAWA(","perfecture_jp":"東京都","jp_add_1":"新宿区","jp_add_2":"西新宿新宿アイランドタワー２６階"},"1631327":{"post_code":"1631327","prefecture":"TOKYO TO","city":"SHINJUKU KU","town":"NISHISHINJUKU SHINJUKU AIRANDOTAWA(","perfecture_jp":"東京都","jp_add_1":"新宿区","jp_add_2":"西新宿新宿アイランドタワー２７階"},"1631328":{"post_code":"1631328","prefecture":"TOKYO TO","city":"SHINJUKU KU","town":"NISHISHINJUKU SHINJUKU AIRANDOTAWA(","perfecture_jp":"東京都","jp_add_1":"新宿区","jp_add_2":"西新宿新宿アイランドタワー２８階"},"1631329":{"post_code":"1631329","prefecture":"TOKYO TO","city":"SHINJUKU KU","town":"NISHISHINJUKU SHINJUKU AIRANDOTAWA(","perfecture_jp":"東京都","jp_add_1":"新宿区","jp_add_2":"西新宿新宿アイランドタワー２９階"},"1631330":{"post_code":"1631330","prefecture":"TOKYO TO","city":"SHINJUKU KU","town":"NISHISHINJUKU SHINJUKU AIRANDOTAWA(","perfecture_jp":"東京都","jp_add_1":"新宿区","jp_add_2":"西新宿新宿アイランドタワー３０階"},"1631331":{"post_code":"1631331","prefecture":"TOKYO TO","city":"SHINJUKU KU","town":"NISHISHINJUKU SHINJUKU AIRANDOTAWA(","perfecture_jp":"東京都","jp_add_1":"新宿区","jp_add_2":"西新宿新宿アイランドタワー３１階"},"1631332":{"post_code":"1631332","prefecture":"TOKYO TO","city":"SHINJUKU KU","town":"NISHISHINJUKU SHINJUKU AIRANDOTAWA(","perfecture_jp":"東京都","jp_add_1":"新宿区","jp_add_2":"西新宿新宿アイランドタワー３２階"},"1631333":{"post_code":"1631333","prefecture":"TOKYO TO","city":"SHINJUKU KU","town":"NISHISHINJUKU SHINJUKU AIRANDOTAWA(","perfecture_jp":"東京都","jp_add_1":"新宿区","jp_add_2":"西新宿新宿アイランドタワー３３階"},"1631334":{"post_code":"1631334","prefecture":"TOKYO TO","city":"SHINJUKU KU","town":"NISHISHINJUKU SHINJUKU AIRANDOTAWA(","perfecture_jp":"東京都","jp_add_1":"新宿区","jp_add_2":"西新宿新宿アイランドタワー３４階"},"1631335":{"post_code":"1631335","prefecture":"TOKYO TO","city":"SHINJUKU KU","town":"NISHISHINJUKU SHINJUKU AIRANDOTAWA(","perfecture_jp":"東京都","jp_add_1":"新宿区","jp_add_2":"西新宿新宿アイランドタワー３５階"},"1631336":{"post_code":"1631336","prefecture":"TOKYO TO","city":"SHINJUKU KU","town":"NISHISHINJUKU SHINJUKU AIRANDOTAWA(","perfecture_jp":"東京都","jp_add_1":"新宿区","jp_add_2":"西新宿新宿アイランドタワー３６階"},"1631337":{"post_code":"1631337","prefecture":"TOKYO TO","city":"SHINJUKU KU","town":"NISHISHINJUKU SHINJUKU AIRANDOTAWA(","perfecture_jp":"東京都","jp_add_1":"新宿区","jp_add_2":"西新宿新宿アイランドタワー３７階"},"1631338":{"post_code":"1631338","prefecture":"TOKYO TO","city":"SHINJUKU KU","town":"NISHISHINJUKU SHINJUKU AIRANDOTAWA(","perfecture_jp":"東京都","jp_add_1":"新宿区","jp_add_2":"西新宿新宿アイランドタワー３８階"},"1631339":{"post_code":"1631339","prefecture":"TOKYO TO","city":"SHINJUKU KU","town":"NISHISHINJUKU SHINJUKU AIRANDOTAWA(","perfecture_jp":"東京都","jp_add_1":"新宿区","jp_add_2":"西新宿新宿アイランドタワー３９階"},"1631340":{"post_code":"1631340","prefecture":"TOKYO TO","city":"SHINJUKU KU","town":"NISHISHINJUKU SHINJUKU AIRANDOTAWA(","perfecture_jp":"東京都","jp_add_1":"新宿区","jp_add_2":"西新宿新宿アイランドタワー４０階"},"1631341":{"post_code":"1631341","prefecture":"TOKYO TO","city":"SHINJUKU KU","town":"NISHISHINJUKU SHINJUKU AIRANDOTAWA(","perfecture_jp":"東京都","jp_add_1":"新宿区","jp_add_2":"西新宿新宿アイランドタワー４１階"},"1631342":{"post_code":"1631342","prefecture":"TOKYO TO","city":"SHINJUKU KU","town":"NISHISHINJUKU SHINJUKU AIRANDOTAWA(","perfecture_jp":"東京都","jp_add_1":"新宿区","jp_add_2":"西新宿新宿アイランドタワー４２階"},"1631343":{"post_code":"1631343","prefecture":"TOKYO TO","city":"SHINJUKU KU","town":"NISHISHINJUKU SHINJUKU AIRANDOTAWA(","perfecture_jp":"東京都","jp_add_1":"新宿区","jp_add_2":"西新宿新宿アイランドタワー４３階"},"1631344":{"post_code":"1631344","prefecture":"TOKYO TO","city":"SHINJUKU KU","town":"NISHISHINJUKU SHINJUKU AIRANDOTAWA(","perfecture_jp":"東京都","jp_add_1":"新宿区","jp_add_2":"西新宿新宿アイランドタワー４４階"},"1630890":{"post_code":"1630890","prefecture":"TOKYO TO","city":"SHINJUKU KU","town":"NISHISHINJUKU SHINJUKU ENUESUBIRU(C","perfecture_jp":"東京都","jp_add_1":"新宿区","jp_add_2":"西新宿新宿ＮＳビル"},"1630801":{"post_code":"1630801","prefecture":"TOKYO TO","city":"SHINJUKU KU","town":"NISHISHINJUKU SHINJUKU ENUESUBIRU(1","perfecture_jp":"東京都","jp_add_1":"新宿区","jp_add_2":"西新宿新宿ＮＳビル１階"},"1630802":{"post_code":"1630802","prefecture":"TOKYO TO","city":"SHINJUKU KU","town":"NISHISHINJUKU SHINJUKU ENUESUBIRU(2","perfecture_jp":"東京都","jp_add_1":"新宿区","jp_add_2":"西新宿新宿ＮＳビル２階"},"1630803":{"post_code":"1630803","prefecture":"TOKYO TO","city":"SHINJUKU KU","town":"NISHISHINJUKU SHINJUKU ENUESUBIRU(3","perfecture_jp":"東京都","jp_add_1":"新宿区","jp_add_2":"西新宿新宿ＮＳビル３階"},"1630804":{"post_code":"1630804","prefecture":"TOKYO TO","city":"SHINJUKU KU","town":"NISHISHINJUKU SHINJUKU ENUESUBIRU(4","perfecture_jp":"東京都","jp_add_1":"新宿区","jp_add_2":"西新宿新宿ＮＳビル４階"},"1630805":{"post_code":"1630805","prefecture":"TOKYO TO","city":"SHINJUKU KU","town":"NISHISHINJUKU SHINJUKU ENUESUBIRU(5","perfecture_jp":"東京都","jp_add_1":"新宿区","jp_add_2":"西新宿新宿ＮＳビル５階"},"1630806":{"post_code":"1630806","prefecture":"TOKYO TO","city":"SHINJUKU KU","town":"NISHISHINJUKU SHINJUKU ENUESUBIRU(6","perfecture_jp":"東京都","jp_add_1":"新宿区","jp_add_2":"西新宿新宿ＮＳビル６階"},"1630807":{"post_code":"1630807","prefecture":"TOKYO TO","city":"SHINJUKU KU","town":"NISHISHINJUKU SHINJUKU ENUESUBIRU(7","perfecture_jp":"東京都","jp_add_1":"新宿区","jp_add_2":"西新宿新宿ＮＳビル７階"},"1630808":{"post_code":"1630808","prefecture":"TOKYO TO","city":"SHINJUKU KU","town":"NISHISHINJUKU SHINJUKU ENUESUBIRU(8","perfecture_jp":"東京都","jp_add_1":"新宿区","jp_add_2":"西新宿新宿ＮＳビル８階"},"1630809":{"post_code":"1630809","prefecture":"TOKYO TO","city":"SHINJUKU KU","town":"NISHISHINJUKU SHINJUKU ENUESUBIRU(9","perfecture_jp":"東京都","jp_add_1":"新宿区","jp_add_2":"西新宿新宿ＮＳビル９階"},"1630810":{"post_code":"1630810","prefecture":"TOKYO TO","city":"SHINJUKU KU","town":"NISHISHINJUKU SHINJUKU ENUESUBIRU(1","perfecture_jp":"東京都","jp_add_1":"新宿区","jp_add_2":"西新宿新宿ＮＳビル１０階"},"1630811":{"post_code":"1630811","prefecture":"TOKYO TO","city":"SHINJUKU KU","town":"NISHISHINJUKU SHINJUKU ENUESUBIRU(1","perfecture_jp":"東京都","jp_add_1":"新宿区","jp_add_2":"西新宿新宿ＮＳビル１１階"},"1630812":{"post_code":"1630812","prefecture":"TOKYO TO","city":"SHINJUKU KU","town":"NISHISHINJUKU SHINJUKU ENUESUBIRU(1","perfecture_jp":"東京都","jp_add_1":"新宿区","jp_add_2":"西新宿新宿ＮＳビル１２階"},"1630813":{"post_code":"1630813","prefecture":"TOKYO TO","city":"SHINJUKU KU","town":"NISHISHINJUKU SHINJUKU ENUESUBIRU(1","perfecture_jp":"東京都","jp_add_1":"新宿区","jp_add_2":"西新宿新宿ＮＳビル１３階"},"1630814":{"post_code":"1630814","prefecture":"TOKYO TO","city":"SHINJUKU KU","town":"NISHISHINJUKU SHINJUKU ENUESUBIRU(1","perfecture_jp":"東京都","jp_add_1":"新宿区","jp_add_2":"西新宿新宿ＮＳビル１４階"},"1630815":{"post_code":"1630815","prefecture":"TOKYO TO","city":"SHINJUKU KU","town":"NISHISHINJUKU SHINJUKU ENUESUBIRU(1","perfecture_jp":"東京都","jp_add_1":"新宿区","jp_add_2":"西新宿新宿ＮＳビル１５階"},"1630816":{"post_code":"1630816","prefecture":"TOKYO TO","city":"SHINJUKU KU","town":"NISHISHINJUKU SHINJUKU ENUESUBIRU(1","perfecture_jp":"東京都","jp_add_1":"新宿区","jp_add_2":"西新宿新宿ＮＳビル１６階"},"1630817":{"post_code":"1630817","prefecture":"TOKYO TO","city":"SHINJUKU KU","town":"NISHISHINJUKU SHINJUKU ENUESUBIRU(1","perfecture_jp":"東京都","jp_add_1":"新宿区","jp_add_2":"西新宿新宿ＮＳビル１７階"},"1630818":{"post_code":"1630818","prefecture":"TOKYO TO","city":"SHINJUKU KU","town":"NISHISHINJUKU SHINJUKU ENUESUBIRU(1","perfecture_jp":"東京都","jp_add_1":"新宿区","jp_add_2":"西新宿新宿ＮＳビル１８階"},"1630819":{"post_code":"1630819","prefecture":"TOKYO TO","city":"SHINJUKU KU","town":"NISHISHINJUKU SHINJUKU ENUESUBIRU(1","perfecture_jp":"東京都","jp_add_1":"新宿区","jp_add_2":"西新宿新宿ＮＳビル１９階"},"1630820":{"post_code":"1630820","prefecture":"TOKYO TO","city":"SHINJUKU KU","town":"NISHISHINJUKU SHINJUKU ENUESUBIRU(2","perfecture_jp":"東京都","jp_add_1":"新宿区","jp_add_2":"西新宿新宿ＮＳビル２０階"},"1630821":{"post_code":"1630821","prefecture":"TOKYO TO","city":"SHINJUKU KU","town":"NISHISHINJUKU SHINJUKU ENUESUBIRU(2","perfecture_jp":"東京都","jp_add_1":"新宿区","jp_add_2":"西新宿新宿ＮＳビル２１階"},"1630822":{"post_code":"1630822","prefecture":"TOKYO TO","city":"SHINJUKU KU","town":"NISHISHINJUKU SHINJUKU ENUESUBIRU(2","perfecture_jp":"東京都","jp_add_1":"新宿区","jp_add_2":"西新宿新宿ＮＳビル２２階"},"1630823":{"post_code":"1630823","prefecture":"TOKYO TO","city":"SHINJUKU KU","town":"NISHISHINJUKU SHINJUKU ENUESUBIRU(2","perfecture_jp":"東京都","jp_add_1":"新宿区","jp_add_2":"西新宿新宿ＮＳビル２３階"},"1630824":{"post_code":"1630824","prefecture":"TOKYO TO","city":"SHINJUKU KU","town":"NISHISHINJUKU SHINJUKU ENUESUBIRU(2","perfecture_jp":"東京都","jp_add_1":"新宿区","jp_add_2":"西新宿新宿ＮＳビル２４階"},"1630825":{"post_code":"1630825","prefecture":"TOKYO TO","city":"SHINJUKU KU","town":"NISHISHINJUKU SHINJUKU ENUESUBIRU(2","perfecture_jp":"東京都","jp_add_1":"新宿区","jp_add_2":"西新宿新宿ＮＳビル２５階"},"1630826":{"post_code":"1630826","prefecture":"TOKYO TO","city":"SHINJUKU KU","town":"NISHISHINJUKU SHINJUKU ENUESUBIRU(2","perfecture_jp":"東京都","jp_add_1":"新宿区","jp_add_2":"西新宿新宿ＮＳビル２６階"},"1630827":{"post_code":"1630827","prefecture":"TOKYO TO","city":"SHINJUKU KU","town":"NISHISHINJUKU SHINJUKU ENUESUBIRU(2","perfecture_jp":"東京都","jp_add_1":"新宿区","jp_add_2":"西新宿新宿ＮＳビル２７階"},"1630828":{"post_code":"1630828","prefecture":"TOKYO TO","city":"SHINJUKU KU","town":"NISHISHINJUKU SHINJUKU ENUESUBIRU(2","perfecture_jp":"東京都","jp_add_1":"新宿区","jp_add_2":"西新宿新宿ＮＳビル２８階"},"1630829":{"post_code":"1630829","prefecture":"TOKYO TO","city":"SHINJUKU KU","town":"NISHISHINJUKU SHINJUKU ENUESUBIRU(2","perfecture_jp":"東京都","jp_add_1":"新宿区","jp_add_2":"西新宿新宿ＮＳビル２９階"},"1630830":{"post_code":"1630830","prefecture":"TOKYO TO","city":"SHINJUKU KU","town":"NISHISHINJUKU SHINJUKU ENUESUBIRU(3","perfecture_jp":"東京都","jp_add_1":"新宿区","jp_add_2":"西新宿新宿ＮＳビル３０階"},"1631590":{"post_code":"1631590","prefecture":"TOKYO TO","city":"SHINJUKU KU","town":"NISHISHINJUKU SHINJUKU ERUTAWA(CHIK","perfecture_jp":"東京都","jp_add_1":"新宿区","jp_add_2":"西新宿新宿エルタワー"},"1631501":{"post_code":"1631501","prefecture":"TOKYO TO","city":"SHINJUKU KU","town":"NISHISHINJUKU SHINJUKU ERUTAWA(1-KA","perfecture_jp":"東京都","jp_add_1":"新宿区","jp_add_2":"西新宿新宿エルタワー１階"},"1631502":{"post_code":"1631502","prefecture":"TOKYO TO","city":"SHINJUKU KU","town":"NISHISHINJUKU SHINJUKU ERUTAWA(2-KA","perfecture_jp":"東京都","jp_add_1":"新宿区","jp_add_2":"西新宿新宿エルタワー２階"},"1631503":{"post_code":"1631503","prefecture":"TOKYO TO","city":"SHINJUKU KU","town":"NISHISHINJUKU SHINJUKU ERUTAWA(3-KA","perfecture_jp":"東京都","jp_add_1":"新宿区","jp_add_2":"西新宿新宿エルタワー３階"},"1631504":{"post_code":"1631504","prefecture":"TOKYO TO","city":"SHINJUKU KU","town":"NISHISHINJUKU SHINJUKU ERUTAWA(4-KA","perfecture_jp":"東京都","jp_add_1":"新宿区","jp_add_2":"西新宿新宿エルタワー４階"},"1631505":{"post_code":"1631505","prefecture":"TOKYO TO","city":"SHINJUKU KU","town":"NISHISHINJUKU SHINJUKU ERUTAWA(5-KA","perfecture_jp":"東京都","jp_add_1":"新宿区","jp_add_2":"西新宿新宿エルタワー５階"},"1631506":{"post_code":"1631506","prefecture":"TOKYO TO","city":"SHINJUKU KU","town":"NISHISHINJUKU SHINJUKU ERUTAWA(6-KA","perfecture_jp":"東京都","jp_add_1":"新宿区","jp_add_2":"西新宿新宿エルタワー６階"},"1631507":{"post_code":"1631507","prefecture":"TOKYO TO","city":"SHINJUKU KU","town":"NISHISHINJUKU SHINJUKU ERUTAWA(7-KA","perfecture_jp":"東京都","jp_add_1":"新宿区","jp_add_2":"西新宿新宿エルタワー７階"},"1631508":{"post_code":"1631508","prefecture":"TOKYO TO","city":"SHINJUKU KU","town":"NISHISHINJUKU SHINJUKU ERUTAWA(8-KA","perfecture_jp":"東京都","jp_add_1":"新宿区","jp_add_2":"西新宿新宿エルタワー８階"},"1631509":{"post_code":"1631509","prefecture":"TOKYO TO","city":"SHINJUKU KU","town":"NISHISHINJUKU SHINJUKU ERUTAWA(9-KA","perfecture_jp":"東京都","jp_add_1":"新宿区","jp_add_2":"西新宿新宿エルタワー９階"},"1631510":{"post_code":"1631510","prefecture":"TOKYO TO","city":"SHINJUKU KU","town":"NISHISHINJUKU SHINJUKU ERUTAWA(10-K","perfecture_jp":"東京都","jp_add_1":"新宿区","jp_add_2":"西新宿新宿エルタワー１０階"},"1631511":{"post_code":"1631511","prefecture":"TOKYO TO","city":"SHINJUKU KU","town":"NISHISHINJUKU SHINJUKU ERUTAWA(11-K","perfecture_jp":"東京都","jp_add_1":"新宿区","jp_add_2":"西新宿新宿エルタワー１１階"},"1631512":{"post_code":"1631512","prefecture":"TOKYO TO","city":"SHINJUKU KU","town":"NISHISHINJUKU SHINJUKU ERUTAWA(12-K","perfecture_jp":"東京都","jp_add_1":"新宿区","jp_add_2":"西新宿新宿エルタワー１２階"},"1631513":{"post_code":"1631513","prefecture":"TOKYO TO","city":"SHINJUKU KU","town":"NISHISHINJUKU SHINJUKU ERUTAWA(13-K","perfecture_jp":"東京都","jp_add_1":"新宿区","jp_add_2":"西新宿新宿エルタワー１３階"},"1631514":{"post_code":"1631514","prefecture":"TOKYO TO","city":"SHINJUKU KU","town":"NISHISHINJUKU SHINJUKU ERUTAWA(14-K","perfecture_jp":"東京都","jp_add_1":"新宿区","jp_add_2":"西新宿新宿エルタワー１４階"},"1631515":{"post_code":"1631515","prefecture":"TOKYO TO","city":"SHINJUKU KU","town":"NISHISHINJUKU SHINJUKU ERUTAWA(15-K","perfecture_jp":"東京都","jp_add_1":"新宿区","jp_add_2":"西新宿新宿エルタワー１５階"},"1631516":{"post_code":"1631516","prefecture":"TOKYO TO","city":"SHINJUKU KU","town":"NISHISHINJUKU SHINJUKU ERUTAWA(16-K","perfecture_jp":"東京都","jp_add_1":"新宿区","jp_add_2":"西新宿新宿エルタワー１６階"},"1631517":{"post_code":"1631517","prefecture":"TOKYO TO","city":"SHINJUKU KU","town":"NISHISHINJUKU SHINJUKU ERUTAWA(17-K","perfecture_jp":"東京都","jp_add_1":"新宿区","jp_add_2":"西新宿新宿エルタワー１７階"},"1631518":{"post_code":"1631518","prefecture":"TOKYO TO","city":"SHINJUKU KU","town":"NISHISHINJUKU SHINJUKU ERUTAWA(18-K","perfecture_jp":"東京都","jp_add_1":"新宿区","jp_add_2":"西新宿新宿エルタワー１８階"},"1631519":{"post_code":"1631519","prefecture":"TOKYO TO","city":"SHINJUKU KU","town":"NISHISHINJUKU SHINJUKU ERUTAWA(19-K","perfecture_jp":"東京都","jp_add_1":"新宿区","jp_add_2":"西新宿新宿エルタワー１９階"},"1631520":{"post_code":"1631520","prefecture":"TOKYO TO","city":"SHINJUKU KU","town":"NISHISHINJUKU SHINJUKU ERUTAWA(20-K","perfecture_jp":"東京都","jp_add_1":"新宿区","jp_add_2":"西新宿新宿エルタワー２０階"},"1631521":{"post_code":"1631521","prefecture":"TOKYO TO","city":"SHINJUKU KU","town":"NISHISHINJUKU SHINJUKU ERUTAWA(21-K","perfecture_jp":"東京都","jp_add_1":"新宿区","jp_add_2":"西新宿新宿エルタワー２１階"},"1631522":{"post_code":"1631522","prefecture":"TOKYO TO","city":"SHINJUKU KU","town":"NISHISHINJUKU SHINJUKU ERUTAWA(22-K","perfecture_jp":"東京都","jp_add_1":"新宿区","jp_add_2":"西新宿新宿エルタワー２２階"},"1631523":{"post_code":"1631523","prefecture":"TOKYO TO","city":"SHINJUKU KU","town":"NISHISHINJUKU SHINJUKU ERUTAWA(23-K","perfecture_jp":"東京都","jp_add_1":"新宿区","jp_add_2":"西新宿新宿エルタワー２３階"},"1631524":{"post_code":"1631524","prefecture":"TOKYO TO","city":"SHINJUKU KU","town":"NISHISHINJUKU SHINJUKU ERUTAWA(24-K","perfecture_jp":"東京都","jp_add_1":"新宿区","jp_add_2":"西新宿新宿エルタワー２４階"},"1631525":{"post_code":"1631525","prefecture":"TOKYO TO","city":"SHINJUKU KU","town":"NISHISHINJUKU SHINJUKU ERUTAWA(25-K","perfecture_jp":"東京都","jp_add_1":"新宿区","jp_add_2":"西新宿新宿エルタワー２５階"},"1631526":{"post_code":"1631526","prefecture":"TOKYO TO","city":"SHINJUKU KU","town":"NISHISHINJUKU SHINJUKU ERUTAWA(26-K","perfecture_jp":"東京都","jp_add_1":"新宿区","jp_add_2":"西新宿新宿エルタワー２６階"},"1631527":{"post_code":"1631527","prefecture":"TOKYO TO","city":"SHINJUKU KU","town":"NISHISHINJUKU SHINJUKU ERUTAWA(27-K","perfecture_jp":"東京都","jp_add_1":"新宿区","jp_add_2":"西新宿新宿エルタワー２７階"},"1631528":{"post_code":"1631528","prefecture":"TOKYO TO","city":"SHINJUKU KU","town":"NISHISHINJUKU SHINJUKU ERUTAWA(28-K","perfecture_jp":"東京都","jp_add_1":"新宿区","jp_add_2":"西新宿新宿エルタワー２８階"},"1631529":{"post_code":"1631529","prefecture":"TOKYO TO","city":"SHINJUKU KU","town":"NISHISHINJUKU SHINJUKU ERUTAWA(29-K","perfecture_jp":"東京都","jp_add_1":"新宿区","jp_add_2":"西新宿新宿エルタワー２９階"},"1631530":{"post_code":"1631530","prefecture":"TOKYO TO","city":"SHINJUKU KU","town":"NISHISHINJUKU SHINJUKU ERUTAWA(30-K","perfecture_jp":"東京都","jp_add_1":"新宿区","jp_add_2":"西新宿新宿エルタワー３０階"},"1631531":{"post_code":"1631531","prefecture":"TOKYO TO","city":"SHINJUKU KU","town":"NISHISHINJUKU SHINJUKU ERUTAWA(31-K","perfecture_jp":"東京都","jp_add_1":"新宿区","jp_add_2":"西新宿新宿エルタワー３１階"},"1631190":{"post_code":"1631190","prefecture":"TOKYO TO","city":"SHINJUKU KU","town":"NISHISHINJUKU SHINJUKU SUKUEATAWA(C","perfecture_jp":"東京都","jp_add_1":"新宿区","jp_add_2":"西新宿新宿スクエアタワー"},"1631101":{"post_code":"1631101","prefecture":"TOKYO TO","city":"SHINJUKU KU","town":"NISHISHINJUKU SHINJUKU SUKUEATAWA(1","perfecture_jp":"東京都","jp_add_1":"新宿区","jp_add_2":"西新宿新宿スクエアタワー１階"},"1631102":{"post_code":"1631102","prefecture":"TOKYO TO","city":"SHINJUKU KU","town":"NISHISHINJUKU SHINJUKU SUKUEATAWA(2","perfecture_jp":"東京都","jp_add_1":"新宿区","jp_add_2":"西新宿新宿スクエアタワー２階"},"1631103":{"post_code":"1631103","prefecture":"TOKYO TO","city":"SHINJUKU KU","town":"NISHISHINJUKU SHINJUKU SUKUEATAWA(3","perfecture_jp":"東京都","jp_add_1":"新宿区","jp_add_2":"西新宿新宿スクエアタワー３階"},"1631104":{"post_code":"1631104","prefecture":"TOKYO TO","city":"SHINJUKU KU","town":"NISHISHINJUKU SHINJUKU SUKUEATAWA(4","perfecture_jp":"東京都","jp_add_1":"新宿区","jp_add_2":"西新宿新宿スクエアタワー４階"},"1631105":{"post_code":"1631105","prefecture":"TOKYO TO","city":"SHINJUKU KU","town":"NISHISHINJUKU SHINJUKU SUKUEATAWA(5","perfecture_jp":"東京都","jp_add_1":"新宿区","jp_add_2":"西新宿新宿スクエアタワー５階"},"1631106":{"post_code":"1631106","prefecture":"TOKYO TO","city":"SHINJUKU KU","town":"NISHISHINJUKU SHINJUKU SUKUEATAWA(6","perfecture_jp":"東京都","jp_add_1":"新宿区","jp_add_2":"西新宿新宿スクエアタワー６階"},"1631107":{"post_code":"1631107","prefecture":"TOKYO TO","city":"SHINJUKU KU","town":"NISHISHINJUKU SHINJUKU SUKUEATAWA(7","perfecture_jp":"東京都","jp_add_1":"新宿区","jp_add_2":"西新宿新宿スクエアタワー７階"},"1631108":{"post_code":"1631108","prefecture":"TOKYO TO","city":"SHINJUKU KU","town":"NISHISHINJUKU SHINJUKU SUKUEATAWA(8","perfecture_jp":"東京都","jp_add_1":"新宿区","jp_add_2":"西新宿新宿スクエアタワー８階"},"1631109":{"post_code":"1631109","prefecture":"TOKYO TO","city":"SHINJUKU KU","town":"NISHISHINJUKU SHINJUKU SUKUEATAWA(9","perfecture_jp":"東京都","jp_add_1":"新宿区","jp_add_2":"西新宿新宿スクエアタワー９階"},"1631110":{"post_code":"1631110","prefecture":"TOKYO TO","city":"SHINJUKU KU","town":"NISHISHINJUKU SHINJUKU SUKUEATAWA(1","perfecture_jp":"東京都","jp_add_1":"新宿区","jp_add_2":"西新宿新宿スクエアタワー１０階"},"1631111":{"post_code":"1631111","prefecture":"TOKYO TO","city":"SHINJUKU KU","town":"NISHISHINJUKU SHINJUKU SUKUEATAWA(1","perfecture_jp":"東京都","jp_add_1":"新宿区","jp_add_2":"西新宿新宿スクエアタワー１１階"},"1631112":{"post_code":"1631112","prefecture":"TOKYO TO","city":"SHINJUKU KU","town":"NISHISHINJUKU SHINJUKU SUKUEATAWA(1","perfecture_jp":"東京都","jp_add_1":"新宿区","jp_add_2":"西新宿新宿スクエアタワー１２階"},"1631113":{"post_code":"1631113","prefecture":"TOKYO TO","city":"SHINJUKU KU","town":"NISHISHINJUKU SHINJUKU SUKUEATAWA(1","perfecture_jp":"東京都","jp_add_1":"新宿区","jp_add_2":"西新宿新宿スクエアタワー１３階"},"1631114":{"post_code":"1631114","prefecture":"TOKYO TO","city":"SHINJUKU KU","town":"NISHISHINJUKU SHINJUKU SUKUEATAWA(1","perfecture_jp":"東京都","jp_add_1":"新宿区","jp_add_2":"西新宿新宿スクエアタワー１４階"},"1631115":{"post_code":"1631115","prefecture":"TOKYO TO","city":"SHINJUKU KU","town":"NISHISHINJUKU SHINJUKU SUKUEATAWA(1","perfecture_jp":"東京都","jp_add_1":"新宿区","jp_add_2":"西新宿新宿スクエアタワー１５階"},"1631116":{"post_code":"1631116","prefecture":"TOKYO TO","city":"SHINJUKU KU","town":"NISHISHINJUKU SHINJUKU SUKUEATAWA(1","perfecture_jp":"東京都","jp_add_1":"新宿区","jp_add_2":"西新宿新宿スクエアタワー１６階"},"1631117":{"post_code":"1631117","prefecture":"TOKYO TO","city":"SHINJUKU KU","town":"NISHISHINJUKU SHINJUKU SUKUEATAWA(1","perfecture_jp":"東京都","jp_add_1":"新宿区","jp_add_2":"西新宿新宿スクエアタワー１７階"},"1631118":{"post_code":"1631118","prefecture":"TOKYO TO","city":"SHINJUKU KU","town":"NISHISHINJUKU SHINJUKU SUKUEATAWA(1","perfecture_jp":"東京都","jp_add_1":"新宿区","jp_add_2":"西新宿新宿スクエアタワー１８階"},"1631119":{"post_code":"1631119","prefecture":"TOKYO TO","city":"SHINJUKU KU","town":"NISHISHINJUKU SHINJUKU SUKUEATAWA(1","perfecture_jp":"東京都","jp_add_1":"新宿区","jp_add_2":"西新宿新宿スクエアタワー１９階"},"1631120":{"post_code":"1631120","prefecture":"TOKYO TO","city":"SHINJUKU KU","town":"NISHISHINJUKU SHINJUKU SUKUEATAWA(2","perfecture_jp":"東京都","jp_add_1":"新宿区","jp_add_2":"西新宿新宿スクエアタワー２０階"},"1631121":{"post_code":"1631121","prefecture":"TOKYO TO","city":"SHINJUKU KU","town":"NISHISHINJUKU SHINJUKU SUKUEATAWA(2","perfecture_jp":"東京都","jp_add_1":"新宿区","jp_add_2":"西新宿新宿スクエアタワー２１階"},"1631122":{"post_code":"1631122","prefecture":"TOKYO TO","city":"SHINJUKU KU","town":"NISHISHINJUKU SHINJUKU SUKUEATAWA(2","perfecture_jp":"東京都","jp_add_1":"新宿区","jp_add_2":"西新宿新宿スクエアタワー２２階"},"1631123":{"post_code":"1631123","prefecture":"TOKYO TO","city":"SHINJUKU KU","town":"NISHISHINJUKU SHINJUKU SUKUEATAWA(2","perfecture_jp":"東京都","jp_add_1":"新宿区","jp_add_2":"西新宿新宿スクエアタワー２３階"},"1631124":{"post_code":"1631124","prefecture":"TOKYO TO","city":"SHINJUKU KU","town":"NISHISHINJUKU SHINJUKU SUKUEATAWA(2","perfecture_jp":"東京都","jp_add_1":"新宿区","jp_add_2":"西新宿新宿スクエアタワー２４階"},"1631125":{"post_code":"1631125","prefecture":"TOKYO TO","city":"SHINJUKU KU","town":"NISHISHINJUKU SHINJUKU SUKUEATAWA(2","perfecture_jp":"東京都","jp_add_1":"新宿区","jp_add_2":"西新宿新宿スクエアタワー２５階"},"1631126":{"post_code":"1631126","prefecture":"TOKYO TO","city":"SHINJUKU KU","town":"NISHISHINJUKU SHINJUKU SUKUEATAWA(2","perfecture_jp":"東京都","jp_add_1":"新宿区","jp_add_2":"西新宿新宿スクエアタワー２６階"},"1631127":{"post_code":"1631127","prefecture":"TOKYO TO","city":"SHINJUKU KU","town":"NISHISHINJUKU SHINJUKU SUKUEATAWA(2","perfecture_jp":"東京都","jp_add_1":"新宿区","jp_add_2":"西新宿新宿スクエアタワー２７階"},"1631128":{"post_code":"1631128","prefecture":"TOKYO TO","city":"SHINJUKU KU","town":"NISHISHINJUKU SHINJUKU SUKUEATAWA(2","perfecture_jp":"東京都","jp_add_1":"新宿区","jp_add_2":"西新宿新宿スクエアタワー２８階"},"1631129":{"post_code":"1631129","prefecture":"TOKYO TO","city":"SHINJUKU KU","town":"NISHISHINJUKU SHINJUKU SUKUEATAWA(2","perfecture_jp":"東京都","jp_add_1":"新宿区","jp_add_2":"西新宿新宿スクエアタワー２９階"},"1631130":{"post_code":"1631130","prefecture":"TOKYO TO","city":"SHINJUKU KU","town":"NISHISHINJUKU SHINJUKU SUKUEATAWA(3","perfecture_jp":"東京都","jp_add_1":"新宿区","jp_add_2":"西新宿新宿スクエアタワー３０階"},"1630290":{"post_code":"1630290","prefecture":"TOKYO TO","city":"SHINJUKU KU","town":"NISHISHINJUKU SHINJUKU SUMITOMOBIRU","perfecture_jp":"東京都","jp_add_1":"新宿区","jp_add_2":"西新宿新宿住友ビル"},"1630201":{"post_code":"1630201","prefecture":"TOKYO TO","city":"SHINJUKU KU","town":"NISHISHINJUKU SHINJUKU SUMITOMOBIRU","perfecture_jp":"東京都","jp_add_1":"新宿区","jp_add_2":"西新宿新宿住友ビル１階"},"1630202":{"post_code":"1630202","prefecture":"TOKYO TO","city":"SHINJUKU KU","town":"NISHISHINJUKU SHINJUKU SUMITOMOBIRU","perfecture_jp":"東京都","jp_add_1":"新宿区","jp_add_2":"西新宿新宿住友ビル２階"},"1630203":{"post_code":"1630203","prefecture":"TOKYO TO","city":"SHINJUKU KU","town":"NISHISHINJUKU SHINJUKU SUMITOMOBIRU","perfecture_jp":"東京都","jp_add_1":"新宿区","jp_add_2":"西新宿新宿住友ビル３階"},"1630204":{"post_code":"1630204","prefecture":"TOKYO TO","city":"SHINJUKU KU","town":"NISHISHINJUKU SHINJUKU SUMITOMOBIRU","perfecture_jp":"東京都","jp_add_1":"新宿区","jp_add_2":"西新宿新宿住友ビル４階"},"1630205":{"post_code":"1630205","prefecture":"TOKYO TO","city":"SHINJUKU KU","town":"NISHISHINJUKU SHINJUKU SUMITOMOBIRU","perfecture_jp":"東京都","jp_add_1":"新宿区","jp_add_2":"西新宿新宿住友ビル５階"},"1630206":{"post_code":"1630206","prefecture":"TOKYO TO","city":"SHINJUKU KU","town":"NISHISHINJUKU SHINJUKU SUMITOMOBIRU","perfecture_jp":"東京都","jp_add_1":"新宿区","jp_add_2":"西新宿新宿住友ビル６階"},"1630207":{"post_code":"1630207","prefecture":"TOKYO TO","city":"SHINJUKU KU","town":"NISHISHINJUKU SHINJUKU SUMITOMOBIRU","perfecture_jp":"東京都","jp_add_1":"新宿区","jp_add_2":"西新宿新宿住友ビル７階"},"1630208":{"post_code":"1630208","prefecture":"TOKYO TO","city":"SHINJUKU KU","town":"NISHISHINJUKU SHINJUKU SUMITOMOBIRU","perfecture_jp":"東京都","jp_add_1":"新宿区","jp_add_2":"西新宿新宿住友ビル８階"},"1630209":{"post_code":"1630209","prefecture":"TOKYO TO","city":"SHINJUKU KU","town":"NISHISHINJUKU SHINJUKU SUMITOMOBIRU","perfecture_jp":"東京都","jp_add_1":"新宿区","jp_add_2":"西新宿新宿住友ビル９階"},"1630210":{"post_code":"1630210","prefecture":"TOKYO TO","city":"SHINJUKU KU","town":"NISHISHINJUKU SHINJUKU SUMITOMOBIRU","perfecture_jp":"東京都","jp_add_1":"新宿区","jp_add_2":"西新宿新宿住友ビル１０階"},"1630211":{"post_code":"1630211","prefecture":"TOKYO TO","city":"SHINJUKU KU","town":"NISHISHINJUKU SHINJUKU SUMITOMOBIRU","perfecture_jp":"東京都","jp_add_1":"新宿区","jp_add_2":"西新宿新宿住友ビル１１階"},"1630212":{"post_code":"1630212","prefecture":"TOKYO TO","city":"SHINJUKU KU","town":"NISHISHINJUKU SHINJUKU SUMITOMOBIRU","perfecture_jp":"東京都","jp_add_1":"新宿区","jp_add_2":"西新宿新宿住友ビル１２階"},"1630213":{"post_code":"1630213","prefecture":"TOKYO TO","city":"SHINJUKU KU","town":"NISHISHINJUKU SHINJUKU SUMITOMOBIRU","perfecture_jp":"東京都","jp_add_1":"新宿区","jp_add_2":"西新宿新宿住友ビル１３階"},"1630214":{"post_code":"1630214","prefecture":"TOKYO TO","city":"SHINJUKU KU","town":"NISHISHINJUKU SHINJUKU SUMITOMOBIRU","perfecture_jp":"東京都","jp_add_1":"新宿区","jp_add_2":"西新宿新宿住友ビル１４階"},"1630215":{"post_code":"1630215","prefecture":"TOKYO TO","city":"SHINJUKU KU","town":"NISHISHINJUKU SHINJUKU SUMITOMOBIRU","perfecture_jp":"東京都","jp_add_1":"新宿区","jp_add_2":"西新宿新宿住友ビル１５階"},"1630216":{"post_code":"1630216","prefecture":"TOKYO TO","city":"SHINJUKU KU","town":"NISHISHINJUKU SHINJUKU SUMITOMOBIRU","perfecture_jp":"東京都","jp_add_1":"新宿区","jp_add_2":"西新宿新宿住友ビル１６階"},"1630217":{"post_code":"1630217","prefecture":"TOKYO TO","city":"SHINJUKU KU","town":"NISHISHINJUKU SHINJUKU SUMITOMOBIRU","perfecture_jp":"東京都","jp_add_1":"新宿区","jp_add_2":"西新宿新宿住友ビル１７階"},"1630218":{"post_code":"1630218","prefecture":"TOKYO TO","city":"SHINJUKU KU","town":"NISHISHINJUKU SHINJUKU SUMITOMOBIRU","perfecture_jp":"東京都","jp_add_1":"新宿区","jp_add_2":"西新宿新宿住友ビル１８階"},"1630219":{"post_code":"1630219","prefecture":"TOKYO TO","city":"SHINJUKU KU","town":"NISHISHINJUKU SHINJUKU SUMITOMOBIRU","perfecture_jp":"東京都","jp_add_1":"新宿区","jp_add_2":"西新宿新宿住友ビル１９階"},"1630220":{"post_code":"1630220","prefecture":"TOKYO TO","city":"SHINJUKU KU","town":"NISHISHINJUKU SHINJUKU SUMITOMOBIRU","perfecture_jp":"東京都","jp_add_1":"新宿区","jp_add_2":"西新宿新宿住友ビル２０階"},"1630221":{"post_code":"1630221","prefecture":"TOKYO TO","city":"SHINJUKU KU","town":"NISHISHINJUKU SHINJUKU SUMITOMOBIRU","perfecture_jp":"東京都","jp_add_1":"新宿区","jp_add_2":"西新宿新宿住友ビル２１階"},"1630222":{"post_code":"1630222","prefecture":"TOKYO TO","city":"SHINJUKU KU","town":"NISHISHINJUKU SHINJUKU SUMITOMOBIRU","perfecture_jp":"東京都","jp_add_1":"新宿区","jp_add_2":"西新宿新宿住友ビル２２階"},"1630223":{"post_code":"1630223","prefecture":"TOKYO TO","city":"SHINJUKU KU","town":"NISHISHINJUKU SHINJUKU SUMITOMOBIRU","perfecture_jp":"東京都","jp_add_1":"新宿区","jp_add_2":"西新宿新宿住友ビル２３階"},"1630224":{"post_code":"1630224","prefecture":"TOKYO TO","city":"SHINJUKU KU","town":"NISHISHINJUKU SHINJUKU SUMITOMOBIRU","perfecture_jp":"東京都","jp_add_1":"新宿区","jp_add_2":"西新宿新宿住友ビル２４階"},"1630225":{"post_code":"1630225","prefecture":"TOKYO TO","city":"SHINJUKU KU","town":"NISHISHINJUKU SHINJUKU SUMITOMOBIRU","perfecture_jp":"東京都","jp_add_1":"新宿区","jp_add_2":"西新宿新宿住友ビル２５階"},"1630226":{"post_code":"1630226","prefecture":"TOKYO TO","city":"SHINJUKU KU","town":"NISHISHINJUKU SHINJUKU SUMITOMOBIRU","perfecture_jp":"東京都","jp_add_1":"新宿区","jp_add_2":"西新宿新宿住友ビル２６階"},"1630227":{"post_code":"1630227","prefecture":"TOKYO TO","city":"SHINJUKU KU","town":"NISHISHINJUKU SHINJUKU SUMITOMOBIRU","perfecture_jp":"東京都","jp_add_1":"新宿区","jp_add_2":"西新宿新宿住友ビル２７階"},"1630228":{"post_code":"1630228","prefecture":"TOKYO TO","city":"SHINJUKU KU","town":"NISHISHINJUKU SHINJUKU SUMITOMOBIRU","perfecture_jp":"東京都","jp_add_1":"新宿区","jp_add_2":"西新宿新宿住友ビル２８階"},"1630229":{"post_code":"1630229","prefecture":"TOKYO TO","city":"SHINJUKU KU","town":"NISHISHINJUKU SHINJUKU SUMITOMOBIRU","perfecture_jp":"東京都","jp_add_1":"新宿区","jp_add_2":"西新宿新宿住友ビル２９階"},"1630230":{"post_code":"1630230","prefecture":"TOKYO TO","city":"SHINJUKU KU","town":"NISHISHINJUKU SHINJUKU SUMITOMOBIRU","perfecture_jp":"東京都","jp_add_1":"新宿区","jp_add_2":"西新宿新宿住友ビル３０階"},"1630231":{"post_code":"1630231","prefecture":"TOKYO TO","city":"SHINJUKU KU","town":"NISHISHINJUKU SHINJUKU SUMITOMOBIRU","perfecture_jp":"東京都","jp_add_1":"新宿区","jp_add_2":"西新宿新宿住友ビル３１階"},"1630232":{"post_code":"1630232","prefecture":"TOKYO TO","city":"SHINJUKU KU","town":"NISHISHINJUKU SHINJUKU SUMITOMOBIRU","perfecture_jp":"東京都","jp_add_1":"新宿区","jp_add_2":"西新宿新宿住友ビル３２階"},"1630233":{"post_code":"1630233","prefecture":"TOKYO TO","city":"SHINJUKU KU","town":"NISHISHINJUKU SHINJUKU SUMITOMOBIRU","perfecture_jp":"東京都","jp_add_1":"新宿区","jp_add_2":"西新宿新宿住友ビル３３階"},"1630234":{"post_code":"1630234","prefecture":"TOKYO TO","city":"SHINJUKU KU","town":"NISHISHINJUKU SHINJUKU SUMITOMOBIRU","perfecture_jp":"東京都","jp_add_1":"新宿区","jp_add_2":"西新宿新宿住友ビル３４階"},"1630235":{"post_code":"1630235","prefecture":"TOKYO TO","city":"SHINJUKU KU","town":"NISHISHINJUKU SHINJUKU SUMITOMOBIRU","perfecture_jp":"東京都","jp_add_1":"新宿区","jp_add_2":"西新宿新宿住友ビル３５階"},"1630236":{"post_code":"1630236","prefecture":"TOKYO TO","city":"SHINJUKU KU","town":"NISHISHINJUKU SHINJUKU SUMITOMOBIRU","perfecture_jp":"東京都","jp_add_1":"新宿区","jp_add_2":"西新宿新宿住友ビル３６階"},"1630237":{"post_code":"1630237","prefecture":"TOKYO TO","city":"SHINJUKU KU","town":"NISHISHINJUKU SHINJUKU SUMITOMOBIRU","perfecture_jp":"東京都","jp_add_1":"新宿区","jp_add_2":"西新宿新宿住友ビル３７階"},"1630238":{"post_code":"1630238","prefecture":"TOKYO TO","city":"SHINJUKU KU","town":"NISHISHINJUKU SHINJUKU SUMITOMOBIRU","perfecture_jp":"東京都","jp_add_1":"新宿区","jp_add_2":"西新宿新宿住友ビル３８階"},"1630239":{"post_code":"1630239","prefecture":"TOKYO TO","city":"SHINJUKU KU","town":"NISHISHINJUKU SHINJUKU SUMITOMOBIRU","perfecture_jp":"東京都","jp_add_1":"新宿区","jp_add_2":"西新宿新宿住友ビル３９階"},"1630240":{"post_code":"1630240","prefecture":"TOKYO TO","city":"SHINJUKU KU","town":"NISHISHINJUKU SHINJUKU SUMITOMOBIRU","perfecture_jp":"東京都","jp_add_1":"新宿区","jp_add_2":"西新宿新宿住友ビル４０階"},"1630241":{"post_code":"1630241","prefecture":"TOKYO TO","city":"SHINJUKU KU","town":"NISHISHINJUKU SHINJUKU SUMITOMOBIRU","perfecture_jp":"東京都","jp_add_1":"新宿区","jp_add_2":"西新宿新宿住友ビル４１階"},"1630242":{"post_code":"1630242","prefecture":"TOKYO TO","city":"SHINJUKU KU","town":"NISHISHINJUKU SHINJUKU SUMITOMOBIRU","perfecture_jp":"東京都","jp_add_1":"新宿区","jp_add_2":"西新宿新宿住友ビル４２階"},"1630243":{"post_code":"1630243","prefecture":"TOKYO TO","city":"SHINJUKU KU","town":"NISHISHINJUKU SHINJUKU SUMITOMOBIRU","perfecture_jp":"東京都","jp_add_1":"新宿区","jp_add_2":"西新宿新宿住友ビル４３階"},"1630244":{"post_code":"1630244","prefecture":"TOKYO TO","city":"SHINJUKU KU","town":"NISHISHINJUKU SHINJUKU SUMITOMOBIRU","perfecture_jp":"東京都","jp_add_1":"新宿区","jp_add_2":"西新宿新宿住友ビル４４階"},"1630245":{"post_code":"1630245","prefecture":"TOKYO TO","city":"SHINJUKU KU","town":"NISHISHINJUKU SHINJUKU SUMITOMOBIRU","perfecture_jp":"東京都","jp_add_1":"新宿区","jp_add_2":"西新宿新宿住友ビル４５階"},"1630246":{"post_code":"1630246","prefecture":"TOKYO TO","city":"SHINJUKU KU","town":"NISHISHINJUKU SHINJUKU SUMITOMOBIRU","perfecture_jp":"東京都","jp_add_1":"新宿区","jp_add_2":"西新宿新宿住友ビル４６階"},"1630247":{"post_code":"1630247","prefecture":"TOKYO TO","city":"SHINJUKU KU","town":"NISHISHINJUKU SHINJUKU SUMITOMOBIRU","perfecture_jp":"東京都","jp_add_1":"新宿区","jp_add_2":"西新宿新宿住友ビル４７階"},"1630248":{"post_code":"1630248","prefecture":"TOKYO TO","city":"SHINJUKU KU","town":"NISHISHINJUKU SHINJUKU SUMITOMOBIRU","perfecture_jp":"東京都","jp_add_1":"新宿区","jp_add_2":"西新宿新宿住友ビル４８階"},"1630249":{"post_code":"1630249","prefecture":"TOKYO TO","city":"SHINJUKU KU","town":"NISHISHINJUKU SHINJUKU SUMITOMOBIRU","perfecture_jp":"東京都","jp_add_1":"新宿区","jp_add_2":"西新宿新宿住友ビル４９階"},"1630250":{"post_code":"1630250","prefecture":"TOKYO TO","city":"SHINJUKU KU","town":"NISHISHINJUKU SHINJUKU SUMITOMOBIRU","perfecture_jp":"東京都","jp_add_1":"新宿区","jp_add_2":"西新宿新宿住友ビル５０階"},"1630251":{"post_code":"1630251","prefecture":"TOKYO TO","city":"SHINJUKU KU","town":"NISHISHINJUKU SHINJUKU SUMITOMOBIRU","perfecture_jp":"東京都","jp_add_1":"新宿区","jp_add_2":"西新宿新宿住友ビル５１階"},"1630252":{"post_code":"1630252","prefecture":"TOKYO TO","city":"SHINJUKU KU","town":"NISHISHINJUKU SHINJUKU SUMITOMOBIRU","perfecture_jp":"東京都","jp_add_1":"新宿区","jp_add_2":"西新宿新宿住友ビル５２階"},"1630690":{"post_code":"1630690","prefecture":"TOKYO TO","city":"SHINJUKU KU","town":"NISHISHINJUKU SHINJUKU SENTABIRU(CH","perfecture_jp":"東京都","jp_add_1":"新宿区","jp_add_2":"西新宿新宿センタービル"},"1630601":{"post_code":"1630601","prefecture":"TOKYO TO","city":"SHINJUKU KU","town":"NISHISHINJUKU SHINJUKU SENTABIRU(1-","perfecture_jp":"東京都","jp_add_1":"新宿区","jp_add_2":"西新宿新宿センタービル１階"},"1630602":{"post_code":"1630602","prefecture":"TOKYO TO","city":"SHINJUKU KU","town":"NISHISHINJUKU SHINJUKU SENTABIRU(2-","perfecture_jp":"東京都","jp_add_1":"新宿区","jp_add_2":"西新宿新宿センタービル２階"},"1630603":{"post_code":"1630603","prefecture":"TOKYO TO","city":"SHINJUKU KU","town":"NISHISHINJUKU SHINJUKU SENTABIRU(3-","perfecture_jp":"東京都","jp_add_1":"新宿区","jp_add_2":"西新宿新宿センタービル３階"},"1630604":{"post_code":"1630604","prefecture":"TOKYO TO","city":"SHINJUKU KU","town":"NISHISHINJUKU SHINJUKU SENTABIRU(4-","perfecture_jp":"東京都","jp_add_1":"新宿区","jp_add_2":"西新宿新宿センタービル４階"},"1630605":{"post_code":"1630605","prefecture":"TOKYO TO","city":"SHINJUKU KU","town":"NISHISHINJUKU SHINJUKU SENTABIRU(5-","perfecture_jp":"東京都","jp_add_1":"新宿区","jp_add_2":"西新宿新宿センタービル５階"},"1630606":{"post_code":"1630606","prefecture":"TOKYO TO","city":"SHINJUKU KU","town":"NISHISHINJUKU SHINJUKU SENTABIRU(6-","perfecture_jp":"東京都","jp_add_1":"新宿区","jp_add_2":"西新宿新宿センタービル６階"},"1630607":{"post_code":"1630607","prefecture":"TOKYO TO","city":"SHINJUKU KU","town":"NISHISHINJUKU SHINJUKU SENTABIRU(7-","perfecture_jp":"東京都","jp_add_1":"新宿区","jp_add_2":"西新宿新宿センタービル７階"},"1630608":{"post_code":"1630608","prefecture":"TOKYO TO","city":"SHINJUKU KU","town":"NISHISHINJUKU SHINJUKU SENTABIRU(8-","perfecture_jp":"東京都","jp_add_1":"新宿区","jp_add_2":"西新宿新宿センタービル８階"},"1630609":{"post_code":"1630609","prefecture":"TOKYO TO","city":"SHINJUKU KU","town":"NISHISHINJUKU SHINJUKU SENTABIRU(9-","perfecture_jp":"東京都","jp_add_1":"新宿区","jp_add_2":"西新宿新宿センタービル９階"},"1630610":{"post_code":"1630610","prefecture":"TOKYO TO","city":"SHINJUKU KU","town":"NISHISHINJUKU SHINJUKU SENTABIRU(10","perfecture_jp":"東京都","jp_add_1":"新宿区","jp_add_2":"西新宿新宿センタービル１０階"},"1630611":{"post_code":"1630611","prefecture":"TOKYO TO","city":"SHINJUKU KU","town":"NISHISHINJUKU SHINJUKU SENTABIRU(11","perfecture_jp":"東京都","jp_add_1":"新宿区","jp_add_2":"西新宿新宿センタービル１１階"},"1630612":{"post_code":"1630612","prefecture":"TOKYO TO","city":"SHINJUKU KU","town":"NISHISHINJUKU SHINJUKU SENTABIRU(12","perfecture_jp":"東京都","jp_add_1":"新宿区","jp_add_2":"西新宿新宿センタービル１２階"},"1630613":{"post_code":"1630613","prefecture":"TOKYO TO","city":"SHINJUKU KU","town":"NISHISHINJUKU SHINJUKU SENTABIRU(13","perfecture_jp":"東京都","jp_add_1":"新宿区","jp_add_2":"西新宿新宿センタービル１３階"},"1630614":{"post_code":"1630614","prefecture":"TOKYO TO","city":"SHINJUKU KU","town":"NISHISHINJUKU SHINJUKU SENTABIRU(14","perfecture_jp":"東京都","jp_add_1":"新宿区","jp_add_2":"西新宿新宿センタービル１４階"},"1630615":{"post_code":"1630615","prefecture":"TOKYO TO","city":"SHINJUKU KU","town":"NISHISHINJUKU SHINJUKU SENTABIRU(15","perfecture_jp":"東京都","jp_add_1":"新宿区","jp_add_2":"西新宿新宿センタービル１５階"},"1630616":{"post_code":"1630616","prefecture":"TOKYO TO","city":"SHINJUKU KU","town":"NISHISHINJUKU SHINJUKU SENTABIRU(16","perfecture_jp":"東京都","jp_add_1":"新宿区","jp_add_2":"西新宿新宿センタービル１６階"},"1630617":{"post_code":"1630617","prefecture":"TOKYO TO","city":"SHINJUKU KU","town":"NISHISHINJUKU SHINJUKU SENTABIRU(17","perfecture_jp":"東京都","jp_add_1":"新宿区","jp_add_2":"西新宿新宿センタービル１７階"},"1630618":{"post_code":"1630618","prefecture":"TOKYO TO","city":"SHINJUKU KU","town":"NISHISHINJUKU SHINJUKU SENTABIRU(18","perfecture_jp":"東京都","jp_add_1":"新宿区","jp_add_2":"西新宿新宿センタービル１８階"},"1630619":{"post_code":"1630619","prefecture":"TOKYO TO","city":"SHINJUKU KU","town":"NISHISHINJUKU SHINJUKU SENTABIRU(19","perfecture_jp":"東京都","jp_add_1":"新宿区","jp_add_2":"西新宿新宿センタービル１９階"},"1630620":{"post_code":"1630620","prefecture":"TOKYO TO","city":"SHINJUKU KU","town":"NISHISHINJUKU SHINJUKU SENTABIRU(20","perfecture_jp":"東京都","jp_add_1":"新宿区","jp_add_2":"西新宿新宿センタービル２０階"},"1630621":{"post_code":"1630621","prefecture":"TOKYO TO","city":"SHINJUKU KU","town":"NISHISHINJUKU SHINJUKU SENTABIRU(21","perfecture_jp":"東京都","jp_add_1":"新宿区","jp_add_2":"西新宿新宿センタービル２１階"},"1630622":{"post_code":"1630622","prefecture":"TOKYO TO","city":"SHINJUKU KU","town":"NISHISHINJUKU SHINJUKU SENTABIRU(22","perfecture_jp":"東京都","jp_add_1":"新宿区","jp_add_2":"西新宿新宿センタービル２２階"},"1630623":{"post_code":"1630623","prefecture":"TOKYO TO","city":"SHINJUKU KU","town":"NISHISHINJUKU SHINJUKU SENTABIRU(23","perfecture_jp":"東京都","jp_add_1":"新宿区","jp_add_2":"西新宿新宿センタービル２３階"},"1630624":{"post_code":"1630624","prefecture":"TOKYO TO","city":"SHINJUKU KU","town":"NISHISHINJUKU SHINJUKU SENTABIRU(24","perfecture_jp":"東京都","jp_add_1":"新宿区","jp_add_2":"西新宿新宿センタービル２４階"},"1630625":{"post_code":"1630625","prefecture":"TOKYO TO","city":"SHINJUKU KU","town":"NISHISHINJUKU SHINJUKU SENTABIRU(25","perfecture_jp":"東京都","jp_add_1":"新宿区","jp_add_2":"西新宿新宿センタービル２５階"},"1630626":{"post_code":"1630626","prefecture":"TOKYO TO","city":"SHINJUKU KU","town":"NISHISHINJUKU SHINJUKU SENTABIRU(26","perfecture_jp":"東京都","jp_add_1":"新宿区","jp_add_2":"西新宿新宿センタービル２６階"},"1630627":{"post_code":"1630627","prefecture":"TOKYO TO","city":"SHINJUKU KU","town":"NISHISHINJUKU SHINJUKU SENTABIRU(27","perfecture_jp":"東京都","jp_add_1":"新宿区","jp_add_2":"西新宿新宿センタービル２７階"},"1630628":{"post_code":"1630628","prefecture":"TOKYO TO","city":"SHINJUKU KU","town":"NISHISHINJUKU SHINJUKU SENTABIRU(28","perfecture_jp":"東京都","jp_add_1":"新宿区","jp_add_2":"西新宿新宿センタービル２８階"},"1630629":{"post_code":"1630629","prefecture":"TOKYO TO","city":"SHINJUKU KU","town":"NISHISHINJUKU SHINJUKU SENTABIRU(29","perfecture_jp":"東京都","jp_add_1":"新宿区","jp_add_2":"西新宿新宿センタービル２９階"},"1630630":{"post_code":"1630630","prefecture":"TOKYO TO","city":"SHINJUKU KU","town":"NISHISHINJUKU SHINJUKU SENTABIRU(30","perfecture_jp":"東京都","jp_add_1":"新宿区","jp_add_2":"西新宿新宿センタービル３０階"},"1630631":{"post_code":"1630631","prefecture":"TOKYO TO","city":"SHINJUKU KU","town":"NISHISHINJUKU SHINJUKU SENTABIRU(31","perfecture_jp":"東京都","jp_add_1":"新宿区","jp_add_2":"西新宿新宿センタービル３１階"},"1630632":{"post_code":"1630632","prefecture":"TOKYO TO","city":"SHINJUKU KU","town":"NISHISHINJUKU SHINJUKU SENTABIRU(32","perfecture_jp":"東京都","jp_add_1":"新宿区","jp_add_2":"西新宿新宿センタービル３２階"},"1630633":{"post_code":"1630633","prefecture":"TOKYO TO","city":"SHINJUKU KU","town":"NISHISHINJUKU SHINJUKU SENTABIRU(33","perfecture_jp":"東京都","jp_add_1":"新宿区","jp_add_2":"西新宿新宿センタービル３３階"},"1630634":{"post_code":"1630634","prefecture":"TOKYO TO","city":"SHINJUKU KU","town":"NISHISHINJUKU SHINJUKU SENTABIRU(34","perfecture_jp":"東京都","jp_add_1":"新宿区","jp_add_2":"西新宿新宿センタービル３４階"},"1630635":{"post_code":"1630635","prefecture":"TOKYO TO","city":"SHINJUKU KU","town":"NISHISHINJUKU SHINJUKU SENTABIRU(35","perfecture_jp":"東京都","jp_add_1":"新宿区","jp_add_2":"西新宿新宿センタービル３５階"},"1630636":{"post_code":"1630636","prefecture":"TOKYO TO","city":"SHINJUKU KU","town":"NISHISHINJUKU SHINJUKU SENTABIRU(36","perfecture_jp":"東京都","jp_add_1":"新宿区","jp_add_2":"西新宿新宿センタービル３６階"},"1630637":{"post_code":"1630637","prefecture":"TOKYO TO","city":"SHINJUKU KU","town":"NISHISHINJUKU SHINJUKU SENTABIRU(37","perfecture_jp":"東京都","jp_add_1":"新宿区","jp_add_2":"西新宿新宿センタービル３７階"},"1630638":{"post_code":"1630638","prefecture":"TOKYO TO","city":"SHINJUKU KU","town":"NISHISHINJUKU SHINJUKU SENTABIRU(38","perfecture_jp":"東京都","jp_add_1":"新宿区","jp_add_2":"西新宿新宿センタービル３８階"},"1630639":{"post_code":"1630639","prefecture":"TOKYO TO","city":"SHINJUKU KU","town":"NISHISHINJUKU SHINJUKU SENTABIRU(39","perfecture_jp":"東京都","jp_add_1":"新宿区","jp_add_2":"西新宿新宿センタービル３９階"},"1630640":{"post_code":"1630640","prefecture":"TOKYO TO","city":"SHINJUKU KU","town":"NISHISHINJUKU SHINJUKU SENTABIRU(40","perfecture_jp":"東京都","jp_add_1":"新宿区","jp_add_2":"西新宿新宿センタービル４０階"},"1630641":{"post_code":"1630641","prefecture":"TOKYO TO","city":"SHINJUKU KU","town":"NISHISHINJUKU SHINJUKU SENTABIRU(41","perfecture_jp":"東京都","jp_add_1":"新宿区","jp_add_2":"西新宿新宿センタービル４１階"},"1630642":{"post_code":"1630642","prefecture":"TOKYO TO","city":"SHINJUKU KU","town":"NISHISHINJUKU SHINJUKU SENTABIRU(42","perfecture_jp":"東京都","jp_add_1":"新宿区","jp_add_2":"西新宿新宿センタービル４２階"},"1630643":{"post_code":"1630643","prefecture":"TOKYO TO","city":"SHINJUKU KU","town":"NISHISHINJUKU SHINJUKU SENTABIRU(43","perfecture_jp":"東京都","jp_add_1":"新宿区","jp_add_2":"西新宿新宿センタービル４３階"},"1630644":{"post_code":"1630644","prefecture":"TOKYO TO","city":"SHINJUKU KU","town":"NISHISHINJUKU SHINJUKU SENTABIRU(44","perfecture_jp":"東京都","jp_add_1":"新宿区","jp_add_2":"西新宿新宿センタービル４４階"},"1630645":{"post_code":"1630645","prefecture":"TOKYO TO","city":"SHINJUKU KU","town":"NISHISHINJUKU SHINJUKU SENTABIRU(45","perfecture_jp":"東京都","jp_add_1":"新宿区","jp_add_2":"西新宿新宿センタービル４５階"},"1630646":{"post_code":"1630646","prefecture":"TOKYO TO","city":"SHINJUKU KU","town":"NISHISHINJUKU SHINJUKU SENTABIRU(46","perfecture_jp":"東京都","jp_add_1":"新宿区","jp_add_2":"西新宿新宿センタービル４６階"},"1630647":{"post_code":"1630647","prefecture":"TOKYO TO","city":"SHINJUKU KU","town":"NISHISHINJUKU SHINJUKU SENTABIRU(47","perfecture_jp":"東京都","jp_add_1":"新宿区","jp_add_2":"西新宿新宿センタービル４７階"},"1630648":{"post_code":"1630648","prefecture":"TOKYO TO","city":"SHINJUKU KU","town":"NISHISHINJUKU SHINJUKU SENTABIRU(48","perfecture_jp":"東京都","jp_add_1":"新宿区","jp_add_2":"西新宿新宿センタービル４８階"},"1630649":{"post_code":"1630649","prefecture":"TOKYO TO","city":"SHINJUKU KU","town":"NISHISHINJUKU SHINJUKU SENTABIRU(49","perfecture_jp":"東京都","jp_add_1":"新宿区","jp_add_2":"西新宿新宿センタービル４９階"},"1630650":{"post_code":"1630650","prefecture":"TOKYO TO","city":"SHINJUKU KU","town":"NISHISHINJUKU SHINJUKU SENTABIRU(50","perfecture_jp":"東京都","jp_add_1":"新宿区","jp_add_2":"西新宿新宿センタービル５０階"},"1630651":{"post_code":"1630651","prefecture":"TOKYO TO","city":"SHINJUKU KU","town":"NISHISHINJUKU SHINJUKU SENTABIRU(51","perfecture_jp":"東京都","jp_add_1":"新宿区","jp_add_2":"西新宿新宿センタービル５１階"},"1630652":{"post_code":"1630652","prefecture":"TOKYO TO","city":"SHINJUKU KU","town":"NISHISHINJUKU SHINJUKU SENTABIRU(52","perfecture_jp":"東京都","jp_add_1":"新宿区","jp_add_2":"西新宿新宿センタービル５２階"},"1630653":{"post_code":"1630653","prefecture":"TOKYO TO","city":"SHINJUKU KU","town":"NISHISHINJUKU SHINJUKU SENTABIRU(53","perfecture_jp":"東京都","jp_add_1":"新宿区","jp_add_2":"西新宿新宿センタービル５３階"},"1630654":{"post_code":"1630654","prefecture":"TOKYO TO","city":"SHINJUKU KU","town":"NISHISHINJUKU SHINJUKU SENTABIRU(54","perfecture_jp":"東京都","jp_add_1":"新宿区","jp_add_2":"西新宿新宿センタービル５４階"},"1630590":{"post_code":"1630590","prefecture":"TOKYO TO","city":"SHINJUKU KU","town":"NISHISHINJUKU SHINJUKU NOMURABIRU(C","perfecture_jp":"東京都","jp_add_1":"新宿区","jp_add_2":"西新宿新宿野村ビル"},"1630501":{"post_code":"1630501","prefecture":"TOKYO TO","city":"SHINJUKU KU","town":"NISHISHINJUKU SHINJUKU NOMURABIRU(1","perfecture_jp":"東京都","jp_add_1":"新宿区","jp_add_2":"西新宿新宿野村ビル１階"},"1630502":{"post_code":"1630502","prefecture":"TOKYO TO","city":"SHINJUKU KU","town":"NISHISHINJUKU SHINJUKU NOMURABIRU(2","perfecture_jp":"東京都","jp_add_1":"新宿区","jp_add_2":"西新宿新宿野村ビル２階"},"1630503":{"post_code":"1630503","prefecture":"TOKYO TO","city":"SHINJUKU KU","town":"NISHISHINJUKU SHINJUKU NOMURABIRU(3","perfecture_jp":"東京都","jp_add_1":"新宿区","jp_add_2":"西新宿新宿野村ビル３階"},"1630504":{"post_code":"1630504","prefecture":"TOKYO TO","city":"SHINJUKU KU","town":"NISHISHINJUKU SHINJUKU NOMURABIRU(4","perfecture_jp":"東京都","jp_add_1":"新宿区","jp_add_2":"西新宿新宿野村ビル４階"},"1630505":{"post_code":"1630505","prefecture":"TOKYO TO","city":"SHINJUKU KU","town":"NISHISHINJUKU SHINJUKU NOMURABIRU(5","perfecture_jp":"東京都","jp_add_1":"新宿区","jp_add_2":"西新宿新宿野村ビル５階"},"1630506":{"post_code":"1630506","prefecture":"TOKYO TO","city":"SHINJUKU KU","town":"NISHISHINJUKU SHINJUKU NOMURABIRU(6","perfecture_jp":"東京都","jp_add_1":"新宿区","jp_add_2":"西新宿新宿野村ビル６階"},"1630507":{"post_code":"1630507","prefecture":"TOKYO TO","city":"SHINJUKU KU","town":"NISHISHINJUKU SHINJUKU NOMURABIRU(7","perfecture_jp":"東京都","jp_add_1":"新宿区","jp_add_2":"西新宿新宿野村ビル７階"},"1630508":{"post_code":"1630508","prefecture":"TOKYO TO","city":"SHINJUKU KU","town":"NISHISHINJUKU SHINJUKU NOMURABIRU(8","perfecture_jp":"東京都","jp_add_1":"新宿区","jp_add_2":"西新宿新宿野村ビル８階"},"1630509":{"post_code":"1630509","prefecture":"TOKYO TO","city":"SHINJUKU KU","town":"NISHISHINJUKU SHINJUKU NOMURABIRU(9","perfecture_jp":"東京都","jp_add_1":"新宿区","jp_add_2":"西新宿新宿野村ビル９階"},"1630510":{"post_code":"1630510","prefecture":"TOKYO TO","city":"SHINJUKU KU","town":"NISHISHINJUKU SHINJUKU NOMURABIRU(1","perfecture_jp":"東京都","jp_add_1":"新宿区","jp_add_2":"西新宿新宿野村ビル１０階"},"1630511":{"post_code":"1630511","prefecture":"TOKYO TO","city":"SHINJUKU KU","town":"NISHISHINJUKU SHINJUKU NOMURABIRU(1","perfecture_jp":"東京都","jp_add_1":"新宿区","jp_add_2":"西新宿新宿野村ビル１１階"},"1630512":{"post_code":"1630512","prefecture":"TOKYO TO","city":"SHINJUKU KU","town":"NISHISHINJUKU SHINJUKU NOMURABIRU(1","perfecture_jp":"東京都","jp_add_1":"新宿区","jp_add_2":"西新宿新宿野村ビル１２階"},"1630513":{"post_code":"1630513","prefecture":"TOKYO TO","city":"SHINJUKU KU","town":"NISHISHINJUKU SHINJUKU NOMURABIRU(1","perfecture_jp":"東京都","jp_add_1":"新宿区","jp_add_2":"西新宿新宿野村ビル１３階"},"1630514":{"post_code":"1630514","prefecture":"TOKYO TO","city":"SHINJUKU KU","town":"NISHISHINJUKU SHINJUKU NOMURABIRU(1","perfecture_jp":"東京都","jp_add_1":"新宿区","jp_add_2":"西新宿新宿野村ビル１４階"},"1630515":{"post_code":"1630515","prefecture":"TOKYO TO","city":"SHINJUKU KU","town":"NISHISHINJUKU SHINJUKU NOMURABIRU(1","perfecture_jp":"東京都","jp_add_1":"新宿区","jp_add_2":"西新宿新宿野村ビル１５階"},"1630516":{"post_code":"1630516","prefecture":"TOKYO TO","city":"SHINJUKU KU","town":"NISHISHINJUKU SHINJUKU NOMURABIRU(1","perfecture_jp":"東京都","jp_add_1":"新宿区","jp_add_2":"西新宿新宿野村ビル１６階"},"1630517":{"post_code":"1630517","prefecture":"TOKYO TO","city":"SHINJUKU KU","town":"NISHISHINJUKU SHINJUKU NOMURABIRU(1","perfecture_jp":"東京都","jp_add_1":"新宿区","jp_add_2":"西新宿新宿野村ビル１７階"},"1630518":{"post_code":"1630518","prefecture":"TOKYO TO","city":"SHINJUKU KU","town":"NISHISHINJUKU SHINJUKU NOMURABIRU(1","perfecture_jp":"東京都","jp_add_1":"新宿区","jp_add_2":"西新宿新宿野村ビル１８階"},"1630519":{"post_code":"1630519","prefecture":"TOKYO TO","city":"SHINJUKU KU","town":"NISHISHINJUKU SHINJUKU NOMURABIRU(1","perfecture_jp":"東京都","jp_add_1":"新宿区","jp_add_2":"西新宿新宿野村ビル１９階"},"1630520":{"post_code":"1630520","prefecture":"TOKYO TO","city":"SHINJUKU KU","town":"NISHISHINJUKU SHINJUKU NOMURABIRU(2","perfecture_jp":"東京都","jp_add_1":"新宿区","jp_add_2":"西新宿新宿野村ビル２０階"},"1630521":{"post_code":"1630521","prefecture":"TOKYO TO","city":"SHINJUKU KU","town":"NISHISHINJUKU SHINJUKU NOMURABIRU(2","perfecture_jp":"東京都","jp_add_1":"新宿区","jp_add_2":"西新宿新宿野村ビル２１階"},"1630522":{"post_code":"1630522","prefecture":"TOKYO TO","city":"SHINJUKU KU","town":"NISHISHINJUKU SHINJUKU NOMURABIRU(2","perfecture_jp":"東京都","jp_add_1":"新宿区","jp_add_2":"西新宿新宿野村ビル２２階"},"1630523":{"post_code":"1630523","prefecture":"TOKYO TO","city":"SHINJUKU KU","town":"NISHISHINJUKU SHINJUKU NOMURABIRU(2","perfecture_jp":"東京都","jp_add_1":"新宿区","jp_add_2":"西新宿新宿野村ビル２３階"},"1630524":{"post_code":"1630524","prefecture":"TOKYO TO","city":"SHINJUKU KU","town":"NISHISHINJUKU SHINJUKU NOMURABIRU(2","perfecture_jp":"東京都","jp_add_1":"新宿区","jp_add_2":"西新宿新宿野村ビル２４階"},"1630525":{"post_code":"1630525","prefecture":"TOKYO TO","city":"SHINJUKU KU","town":"NISHISHINJUKU SHINJUKU NOMURABIRU(2","perfecture_jp":"東京都","jp_add_1":"新宿区","jp_add_2":"西新宿新宿野村ビル２５階"},"1630526":{"post_code":"1630526","prefecture":"TOKYO TO","city":"SHINJUKU KU","town":"NISHISHINJUKU SHINJUKU NOMURABIRU(2","perfecture_jp":"東京都","jp_add_1":"新宿区","jp_add_2":"西新宿新宿野村ビル２６階"},"1630527":{"post_code":"1630527","prefecture":"TOKYO TO","city":"SHINJUKU KU","town":"NISHISHINJUKU SHINJUKU NOMURABIRU(2","perfecture_jp":"東京都","jp_add_1":"新宿区","jp_add_2":"西新宿新宿野村ビル２７階"},"1630528":{"post_code":"1630528","prefecture":"TOKYO TO","city":"SHINJUKU KU","town":"NISHISHINJUKU SHINJUKU NOMURABIRU(2","perfecture_jp":"東京都","jp_add_1":"新宿区","jp_add_2":"西新宿新宿野村ビル２８階"},"1630529":{"post_code":"1630529","prefecture":"TOKYO TO","city":"SHINJUKU KU","town":"NISHISHINJUKU SHINJUKU NOMURABIRU(2","perfecture_jp":"東京都","jp_add_1":"新宿区","jp_add_2":"西新宿新宿野村ビル２９階"},"1630530":{"post_code":"1630530","prefecture":"TOKYO TO","city":"SHINJUKU KU","town":"NISHISHINJUKU SHINJUKU NOMURABIRU(3","perfecture_jp":"東京都","jp_add_1":"新宿区","jp_add_2":"西新宿新宿野村ビル３０階"},"1630531":{"post_code":"1630531","prefecture":"TOKYO TO","city":"SHINJUKU KU","town":"NISHISHINJUKU SHINJUKU NOMURABIRU(3","perfecture_jp":"東京都","jp_add_1":"新宿区","jp_add_2":"西新宿新宿野村ビル３１階"},"1630532":{"post_code":"1630532","prefecture":"TOKYO TO","city":"SHINJUKU KU","town":"NISHISHINJUKU SHINJUKU NOMURABIRU(3","perfecture_jp":"東京都","jp_add_1":"新宿区","jp_add_2":"西新宿新宿野村ビル３２階"},"1630533":{"post_code":"1630533","prefecture":"TOKYO TO","city":"SHINJUKU KU","town":"NISHISHINJUKU SHINJUKU NOMURABIRU(3","perfecture_jp":"東京都","jp_add_1":"新宿区","jp_add_2":"西新宿新宿野村ビル３３階"},"1630534":{"post_code":"1630534","prefecture":"TOKYO TO","city":"SHINJUKU KU","town":"NISHISHINJUKU SHINJUKU NOMURABIRU(3","perfecture_jp":"東京都","jp_add_1":"新宿区","jp_add_2":"西新宿新宿野村ビル３４階"},"1630535":{"post_code":"1630535","prefecture":"TOKYO TO","city":"SHINJUKU KU","town":"NISHISHINJUKU SHINJUKU NOMURABIRU(3","perfecture_jp":"東京都","jp_add_1":"新宿区","jp_add_2":"西新宿新宿野村ビル３５階"},"1630536":{"post_code":"1630536","prefecture":"TOKYO TO","city":"SHINJUKU KU","town":"NISHISHINJUKU SHINJUKU NOMURABIRU(3","perfecture_jp":"東京都","jp_add_1":"新宿区","jp_add_2":"西新宿新宿野村ビル３６階"},"1630537":{"post_code":"1630537","prefecture":"TOKYO TO","city":"SHINJUKU KU","town":"NISHISHINJUKU SHINJUKU NOMURABIRU(3","perfecture_jp":"東京都","jp_add_1":"新宿区","jp_add_2":"西新宿新宿野村ビル３７階"},"1630538":{"post_code":"1630538","prefecture":"TOKYO TO","city":"SHINJUKU KU","town":"NISHISHINJUKU SHINJUKU NOMURABIRU(3","perfecture_jp":"東京都","jp_add_1":"新宿区","jp_add_2":"西新宿新宿野村ビル３８階"},"1630539":{"post_code":"1630539","prefecture":"TOKYO TO","city":"SHINJUKU KU","town":"NISHISHINJUKU SHINJUKU NOMURABIRU(3","perfecture_jp":"東京都","jp_add_1":"新宿区","jp_add_2":"西新宿新宿野村ビル３９階"},"1630540":{"post_code":"1630540","prefecture":"TOKYO TO","city":"SHINJUKU KU","town":"NISHISHINJUKU SHINJUKU NOMURABIRU(4","perfecture_jp":"東京都","jp_add_1":"新宿区","jp_add_2":"西新宿新宿野村ビル４０階"},"1630541":{"post_code":"1630541","prefecture":"TOKYO TO","city":"SHINJUKU KU","town":"NISHISHINJUKU SHINJUKU NOMURABIRU(4","perfecture_jp":"東京都","jp_add_1":"新宿区","jp_add_2":"西新宿新宿野村ビル４１階"},"1630542":{"post_code":"1630542","prefecture":"TOKYO TO","city":"SHINJUKU KU","town":"NISHISHINJUKU SHINJUKU NOMURABIRU(4","perfecture_jp":"東京都","jp_add_1":"新宿区","jp_add_2":"西新宿新宿野村ビル４２階"},"1630543":{"post_code":"1630543","prefecture":"TOKYO TO","city":"SHINJUKU KU","town":"NISHISHINJUKU SHINJUKU NOMURABIRU(4","perfecture_jp":"東京都","jp_add_1":"新宿区","jp_add_2":"西新宿新宿野村ビル４３階"},"1630544":{"post_code":"1630544","prefecture":"TOKYO TO","city":"SHINJUKU KU","town":"NISHISHINJUKU SHINJUKU NOMURABIRU(4","perfecture_jp":"東京都","jp_add_1":"新宿区","jp_add_2":"西新宿新宿野村ビル４４階"},"1630545":{"post_code":"1630545","prefecture":"TOKYO TO","city":"SHINJUKU KU","town":"NISHISHINJUKU SHINJUKU NOMURABIRU(4","perfecture_jp":"東京都","jp_add_1":"新宿区","jp_add_2":"西新宿新宿野村ビル４５階"},"1630546":{"post_code":"1630546","prefecture":"TOKYO TO","city":"SHINJUKU KU","town":"NISHISHINJUKU SHINJUKU NOMURABIRU(4","perfecture_jp":"東京都","jp_add_1":"新宿区","jp_add_2":"西新宿新宿野村ビル４６階"},"1630547":{"post_code":"1630547","prefecture":"TOKYO TO","city":"SHINJUKU KU","town":"NISHISHINJUKU SHINJUKU NOMURABIRU(4","perfecture_jp":"東京都","jp_add_1":"新宿区","jp_add_2":"西新宿新宿野村ビル４７階"},"1630548":{"post_code":"1630548","prefecture":"TOKYO TO","city":"SHINJUKU KU","town":"NISHISHINJUKU SHINJUKU NOMURABIRU(4","perfecture_jp":"東京都","jp_add_1":"新宿区","jp_add_2":"西新宿新宿野村ビル４８階"},"1630549":{"post_code":"1630549","prefecture":"TOKYO TO","city":"SHINJUKU KU","town":"NISHISHINJUKU SHINJUKU NOMURABIRU(4","perfecture_jp":"東京都","jp_add_1":"新宿区","jp_add_2":"西新宿新宿野村ビル４９階"},"1630550":{"post_code":"1630550","prefecture":"TOKYO TO","city":"SHINJUKU KU","town":"NISHISHINJUKU SHINJUKU NOMURABIRU(5","perfecture_jp":"東京都","jp_add_1":"新宿区","jp_add_2":"西新宿新宿野村ビル５０階"},"1631090":{"post_code":"1631090","prefecture":"TOKYO TO","city":"SHINJUKU KU","town":"NISHISHINJUKU SHINJUKU PAKUTAWA(CHI","perfecture_jp":"東京都","jp_add_1":"新宿区","jp_add_2":"西新宿新宿パークタワー"},"1631001":{"post_code":"1631001","prefecture":"TOKYO TO","city":"SHINJUKU KU","town":"NISHISHINJUKU SHINJUKU PAKUTAWA(1-K","perfecture_jp":"東京都","jp_add_1":"新宿区","jp_add_2":"西新宿新宿パークタワー１階"},"1631002":{"post_code":"1631002","prefecture":"TOKYO TO","city":"SHINJUKU KU","town":"NISHISHINJUKU SHINJUKU PAKUTAWA(2-K","perfecture_jp":"東京都","jp_add_1":"新宿区","jp_add_2":"西新宿新宿パークタワー２階"},"1631003":{"post_code":"1631003","prefecture":"TOKYO TO","city":"SHINJUKU KU","town":"NISHISHINJUKU SHINJUKU PAKUTAWA(3-K","perfecture_jp":"東京都","jp_add_1":"新宿区","jp_add_2":"西新宿新宿パークタワー３階"},"1631004":{"post_code":"1631004","prefecture":"TOKYO TO","city":"SHINJUKU KU","town":"NISHISHINJUKU SHINJUKU PAKUTAWA(4-K","perfecture_jp":"東京都","jp_add_1":"新宿区","jp_add_2":"西新宿新宿パークタワー４階"},"1631005":{"post_code":"1631005","prefecture":"TOKYO TO","city":"SHINJUKU KU","town":"NISHISHINJUKU SHINJUKU PAKUTAWA(5-K","perfecture_jp":"東京都","jp_add_1":"新宿区","jp_add_2":"西新宿新宿パークタワー５階"},"1631006":{"post_code":"1631006","prefecture":"TOKYO TO","city":"SHINJUKU KU","town":"NISHISHINJUKU SHINJUKU PAKUTAWA(6-K","perfecture_jp":"東京都","jp_add_1":"新宿区","jp_add_2":"西新宿新宿パークタワー６階"},"1631007":{"post_code":"1631007","prefecture":"TOKYO TO","city":"SHINJUKU KU","town":"NISHISHINJUKU SHINJUKU PAKUTAWA(7-K","perfecture_jp":"東京都","jp_add_1":"新宿区","jp_add_2":"西新宿新宿パークタワー７階"},"1631008":{"post_code":"1631008","prefecture":"TOKYO TO","city":"SHINJUKU KU","town":"NISHISHINJUKU SHINJUKU PAKUTAWA(8-K","perfecture_jp":"東京都","jp_add_1":"新宿区","jp_add_2":"西新宿新宿パークタワー８階"},"1631009":{"post_code":"1631009","prefecture":"TOKYO TO","city":"SHINJUKU KU","town":"NISHISHINJUKU SHINJUKU PAKUTAWA(9-K","perfecture_jp":"東京都","jp_add_1":"新宿区","jp_add_2":"西新宿新宿パークタワー９階"},"1631010":{"post_code":"1631010","prefecture":"TOKYO TO","city":"SHINJUKU KU","town":"NISHISHINJUKU SHINJUKU PAKUTAWA(10-","perfecture_jp":"東京都","jp_add_1":"新宿区","jp_add_2":"西新宿新宿パークタワー１０階"},"1631011":{"post_code":"1631011","prefecture":"TOKYO TO","city":"SHINJUKU KU","town":"NISHISHINJUKU SHINJUKU PAKUTAWA(11-","perfecture_jp":"東京都","jp_add_1":"新宿区","jp_add_2":"西新宿新宿パークタワー１１階"},"1631012":{"post_code":"1631012","prefecture":"TOKYO TO","city":"SHINJUKU KU","town":"NISHISHINJUKU SHINJUKU PAKUTAWA(12-","perfecture_jp":"東京都","jp_add_1":"新宿区","jp_add_2":"西新宿新宿パークタワー１２階"},"1631013":{"post_code":"1631013","prefecture":"TOKYO TO","city":"SHINJUKU KU","town":"NISHISHINJUKU SHINJUKU PAKUTAWA(13-","perfecture_jp":"東京都","jp_add_1":"新宿区","jp_add_2":"西新宿新宿パークタワー１３階"},"1631014":{"post_code":"1631014","prefecture":"TOKYO TO","city":"SHINJUKU KU","town":"NISHISHINJUKU SHINJUKU PAKUTAWA(14-","perfecture_jp":"東京都","jp_add_1":"新宿区","jp_add_2":"西新宿新宿パークタワー１４階"},"1631015":{"post_code":"1631015","prefecture":"TOKYO TO","city":"SHINJUKU KU","town":"NISHISHINJUKU SHINJUKU PAKUTAWA(15-","perfecture_jp":"東京都","jp_add_1":"新宿区","jp_add_2":"西新宿新宿パークタワー１５階"},"1631016":{"post_code":"1631016","prefecture":"TOKYO TO","city":"SHINJUKU KU","town":"NISHISHINJUKU SHINJUKU PAKUTAWA(16-","perfecture_jp":"東京都","jp_add_1":"新宿区","jp_add_2":"西新宿新宿パークタワー１６階"},"1631017":{"post_code":"1631017","prefecture":"TOKYO TO","city":"SHINJUKU KU","town":"NISHISHINJUKU SHINJUKU PAKUTAWA(17-","perfecture_jp":"東京都","jp_add_1":"新宿区","jp_add_2":"西新宿新宿パークタワー１７階"},"1631018":{"post_code":"1631018","prefecture":"TOKYO TO","city":"SHINJUKU KU","town":"NISHISHINJUKU SHINJUKU PAKUTAWA(18-","perfecture_jp":"東京都","jp_add_1":"新宿区","jp_add_2":"西新宿新宿パークタワー１８階"},"1631019":{"post_code":"1631019","prefecture":"TOKYO TO","city":"SHINJUKU KU","town":"NISHISHINJUKU SHINJUKU PAKUTAWA(19-","perfecture_jp":"東京都","jp_add_1":"新宿区","jp_add_2":"西新宿新宿パークタワー１９階"},"1631020":{"post_code":"1631020","prefecture":"TOKYO TO","city":"SHINJUKU KU","town":"NISHISHINJUKU SHINJUKU PAKUTAWA(20-","perfecture_jp":"東京都","jp_add_1":"新宿区","jp_add_2":"西新宿新宿パークタワー２０階"},"1631021":{"post_code":"1631021","prefecture":"TOKYO TO","city":"SHINJUKU KU","town":"NISHISHINJUKU SHINJUKU PAKUTAWA(21-","perfecture_jp":"東京都","jp_add_1":"新宿区","jp_add_2":"西新宿新宿パークタワー２１階"},"1631022":{"post_code":"1631022","prefecture":"TOKYO TO","city":"SHINJUKU KU","town":"NISHISHINJUKU SHINJUKU PAKUTAWA(22-","perfecture_jp":"東京都","jp_add_1":"新宿区","jp_add_2":"西新宿新宿パークタワー２２階"},"1631023":{"post_code":"1631023","prefecture":"TOKYO TO","city":"SHINJUKU KU","town":"NISHISHINJUKU SHINJUKU PAKUTAWA(23-","perfecture_jp":"東京都","jp_add_1":"新宿区","jp_add_2":"西新宿新宿パークタワー２３階"},"1631024":{"post_code":"1631024","prefecture":"TOKYO TO","city":"SHINJUKU KU","town":"NISHISHINJUKU SHINJUKU PAKUTAWA(24-","perfecture_jp":"東京都","jp_add_1":"新宿区","jp_add_2":"西新宿新宿パークタワー２４階"},"1631025":{"post_code":"1631025","prefecture":"TOKYO TO","city":"SHINJUKU KU","town":"NISHISHINJUKU SHINJUKU PAKUTAWA(25-","perfecture_jp":"東京都","jp_add_1":"新宿区","jp_add_2":"西新宿新宿パークタワー２５階"},"1631026":{"post_code":"1631026","prefecture":"TOKYO TO","city":"SHINJUKU KU","town":"NISHISHINJUKU SHINJUKU PAKUTAWA(26-","perfecture_jp":"東京都","jp_add_1":"新宿区","jp_add_2":"西新宿新宿パークタワー２６階"},"1631027":{"post_code":"1631027","prefecture":"TOKYO TO","city":"SHINJUKU KU","town":"NISHISHINJUKU SHINJUKU PAKUTAWA(27-","perfecture_jp":"東京都","jp_add_1":"新宿区","jp_add_2":"西新宿新宿パークタワー２７階"},"1631028":{"post_code":"1631028","prefecture":"TOKYO TO","city":"SHINJUKU KU","town":"NISHISHINJUKU SHINJUKU PAKUTAWA(28-","perfecture_jp":"東京都","jp_add_1":"新宿区","jp_add_2":"西新宿新宿パークタワー２８階"},"1631029":{"post_code":"1631029","prefecture":"TOKYO TO","city":"SHINJUKU KU","town":"NISHISHINJUKU SHINJUKU PAKUTAWA(29-","perfecture_jp":"東京都","jp_add_1":"新宿区","jp_add_2":"西新宿新宿パークタワー２９階"},"1631030":{"post_code":"1631030","prefecture":"TOKYO TO","city":"SHINJUKU KU","town":"NISHISHINJUKU SHINJUKU PAKUTAWA(30-","perfecture_jp":"東京都","jp_add_1":"新宿区","jp_add_2":"西新宿新宿パークタワー３０階"},"1631031":{"post_code":"1631031","prefecture":"TOKYO TO","city":"SHINJUKU KU","town":"NISHISHINJUKU SHINJUKU PAKUTAWA(31-","perfecture_jp":"東京都","jp_add_1":"新宿区","jp_add_2":"西新宿新宿パークタワー３１階"},"1631032":{"post_code":"1631032","prefecture":"TOKYO TO","city":"SHINJUKU KU","town":"NISHISHINJUKU SHINJUKU PAKUTAWA(32-","perfecture_jp":"東京都","jp_add_1":"新宿区","jp_add_2":"西新宿新宿パークタワー３２階"},"1631033":{"post_code":"1631033","prefecture":"TOKYO TO","city":"SHINJUKU KU","town":"NISHISHINJUKU SHINJUKU PAKUTAWA(33-","perfecture_jp":"東京都","jp_add_1":"新宿区","jp_add_2":"西新宿新宿パークタワー３３階"},"1631034":{"post_code":"1631034","prefecture":"TOKYO TO","city":"SHINJUKU KU","town":"NISHISHINJUKU SHINJUKU PAKUTAWA(34-","perfecture_jp":"東京都","jp_add_1":"新宿区","jp_add_2":"西新宿新宿パークタワー３４階"},"1631035":{"post_code":"1631035","prefecture":"TOKYO TO","city":"SHINJUKU KU","town":"NISHISHINJUKU SHINJUKU PAKUTAWA(35-","perfecture_jp":"東京都","jp_add_1":"新宿区","jp_add_2":"西新宿新宿パークタワー３５階"},"1631036":{"post_code":"1631036","prefecture":"TOKYO TO","city":"SHINJUKU KU","town":"NISHISHINJUKU SHINJUKU PAKUTAWA(36-","perfecture_jp":"東京都","jp_add_1":"新宿区","jp_add_2":"西新宿新宿パークタワー３６階"},"1631037":{"post_code":"1631037","prefecture":"TOKYO TO","city":"SHINJUKU KU","town":"NISHISHINJUKU SHINJUKU PAKUTAWA(37-","perfecture_jp":"東京都","jp_add_1":"新宿区","jp_add_2":"西新宿新宿パークタワー３７階"},"1631038":{"post_code":"1631038","prefecture":"TOKYO TO","city":"SHINJUKU KU","town":"NISHISHINJUKU SHINJUKU PAKUTAWA(38-","perfecture_jp":"東京都","jp_add_1":"新宿区","jp_add_2":"西新宿新宿パークタワー３８階"},"1631039":{"post_code":"1631039","prefecture":"TOKYO TO","city":"SHINJUKU KU","town":"NISHISHINJUKU SHINJUKU PAKUTAWA(39-","perfecture_jp":"東京都","jp_add_1":"新宿区","jp_add_2":"西新宿新宿パークタワー３９階"},"1631040":{"post_code":"1631040","prefecture":"TOKYO TO","city":"SHINJUKU KU","town":"NISHISHINJUKU SHINJUKU PAKUTAWA(40-","perfecture_jp":"東京都","jp_add_1":"新宿区","jp_add_2":"西新宿新宿パークタワー４０階"},"1631041":{"post_code":"1631041","prefecture":"TOKYO TO","city":"SHINJUKU KU","town":"NISHISHINJUKU SHINJUKU PAKUTAWA(41-","perfecture_jp":"東京都","jp_add_1":"新宿区","jp_add_2":"西新宿新宿パークタワー４１階"},"1631042":{"post_code":"1631042","prefecture":"TOKYO TO","city":"SHINJUKU KU","town":"NISHISHINJUKU SHINJUKU PAKUTAWA(42-","perfecture_jp":"東京都","jp_add_1":"新宿区","jp_add_2":"西新宿新宿パークタワー４２階"},"1631043":{"post_code":"1631043","prefecture":"TOKYO TO","city":"SHINJUKU KU","town":"NISHISHINJUKU SHINJUKU PAKUTAWA(43-","perfecture_jp":"東京都","jp_add_1":"新宿区","jp_add_2":"西新宿新宿パークタワー４３階"},"1631044":{"post_code":"1631044","prefecture":"TOKYO TO","city":"SHINJUKU KU","town":"NISHISHINJUKU SHINJUKU PAKUTAWA(44-","perfecture_jp":"東京都","jp_add_1":"新宿区","jp_add_2":"西新宿新宿パークタワー４４階"},"1631045":{"post_code":"1631045","prefecture":"TOKYO TO","city":"SHINJUKU KU","town":"NISHISHINJUKU SHINJUKU PAKUTAWA(45-","perfecture_jp":"東京都","jp_add_1":"新宿区","jp_add_2":"西新宿新宿パークタワー４５階"},"1631046":{"post_code":"1631046","prefecture":"TOKYO TO","city":"SHINJUKU KU","town":"NISHISHINJUKU SHINJUKU PAKUTAWA(46-","perfecture_jp":"東京都","jp_add_1":"新宿区","jp_add_2":"西新宿新宿パークタワー４６階"},"1631047":{"post_code":"1631047","prefecture":"TOKYO TO","city":"SHINJUKU KU","town":"NISHISHINJUKU SHINJUKU PAKUTAWA(47-","perfecture_jp":"東京都","jp_add_1":"新宿区","jp_add_2":"西新宿新宿パークタワー４７階"},"1631048":{"post_code":"1631048","prefecture":"TOKYO TO","city":"SHINJUKU KU","town":"NISHISHINJUKU SHINJUKU PAKUTAWA(48-","perfecture_jp":"東京都","jp_add_1":"新宿区","jp_add_2":"西新宿新宿パークタワー４８階"},"1631049":{"post_code":"1631049","prefecture":"TOKYO TO","city":"SHINJUKU KU","town":"NISHISHINJUKU SHINJUKU PAKUTAWA(49-","perfecture_jp":"東京都","jp_add_1":"新宿区","jp_add_2":"西新宿新宿パークタワー４９階"},"1631050":{"post_code":"1631050","prefecture":"TOKYO TO","city":"SHINJUKU KU","town":"NISHISHINJUKU SHINJUKU PAKUTAWA(50-","perfecture_jp":"東京都","jp_add_1":"新宿区","jp_add_2":"西新宿新宿パークタワー５０階"},"1631051":{"post_code":"1631051","prefecture":"TOKYO TO","city":"SHINJUKU KU","town":"NISHISHINJUKU SHINJUKU PAKUTAWA(51-","perfecture_jp":"東京都","jp_add_1":"新宿区","jp_add_2":"西新宿新宿パークタワー５１階"},"1631052":{"post_code":"1631052","prefecture":"TOKYO TO","city":"SHINJUKU KU","town":"NISHISHINJUKU SHINJUKU PAKUTAWA(52-","perfecture_jp":"東京都","jp_add_1":"新宿区","jp_add_2":"西新宿新宿パークタワー５２階"},"1630490":{"post_code":"1630490","prefecture":"TOKYO TO","city":"SHINJUKU KU","town":"NISHISHINJUKU SHINJUKU MITSUIBIRU(C","perfecture_jp":"東京都","jp_add_1":"新宿区","jp_add_2":"西新宿新宿三井ビル"},"1630401":{"post_code":"1630401","prefecture":"TOKYO TO","city":"SHINJUKU KU","town":"NISHISHINJUKU SHINJUKU MITSUIBIRU(1","perfecture_jp":"東京都","jp_add_1":"新宿区","jp_add_2":"西新宿新宿三井ビル１階"},"1630402":{"post_code":"1630402","prefecture":"TOKYO TO","city":"SHINJUKU KU","town":"NISHISHINJUKU SHINJUKU MITSUIBIRU(2","perfecture_jp":"東京都","jp_add_1":"新宿区","jp_add_2":"西新宿新宿三井ビル２階"},"1630403":{"post_code":"1630403","prefecture":"TOKYO TO","city":"SHINJUKU KU","town":"NISHISHINJUKU SHINJUKU MITSUIBIRU(3","perfecture_jp":"東京都","jp_add_1":"新宿区","jp_add_2":"西新宿新宿三井ビル３階"},"1630404":{"post_code":"1630404","prefecture":"TOKYO TO","city":"SHINJUKU KU","town":"NISHISHINJUKU SHINJUKU MITSUIBIRU(4","perfecture_jp":"東京都","jp_add_1":"新宿区","jp_add_2":"西新宿新宿三井ビル４階"},"1630405":{"post_code":"1630405","prefecture":"TOKYO TO","city":"SHINJUKU KU","town":"NISHISHINJUKU SHINJUKU MITSUIBIRU(5","perfecture_jp":"東京都","jp_add_1":"新宿区","jp_add_2":"西新宿新宿三井ビル５階"},"1630406":{"post_code":"1630406","prefecture":"TOKYO TO","city":"SHINJUKU KU","town":"NISHISHINJUKU SHINJUKU MITSUIBIRU(6","perfecture_jp":"東京都","jp_add_1":"新宿区","jp_add_2":"西新宿新宿三井ビル６階"},"1630407":{"post_code":"1630407","prefecture":"TOKYO TO","city":"SHINJUKU KU","town":"NISHISHINJUKU SHINJUKU MITSUIBIRU(7","perfecture_jp":"東京都","jp_add_1":"新宿区","jp_add_2":"西新宿新宿三井ビル７階"},"1630408":{"post_code":"1630408","prefecture":"TOKYO TO","city":"SHINJUKU KU","town":"NISHISHINJUKU SHINJUKU MITSUIBIRU(8","perfecture_jp":"東京都","jp_add_1":"新宿区","jp_add_2":"西新宿新宿三井ビル８階"},"1630409":{"post_code":"1630409","prefecture":"TOKYO TO","city":"SHINJUKU KU","town":"NISHISHINJUKU SHINJUKU MITSUIBIRU(9","perfecture_jp":"東京都","jp_add_1":"新宿区","jp_add_2":"西新宿新宿三井ビル９階"},"1630410":{"post_code":"1630410","prefecture":"TOKYO TO","city":"SHINJUKU KU","town":"NISHISHINJUKU SHINJUKU MITSUIBIRU(1","perfecture_jp":"東京都","jp_add_1":"新宿区","jp_add_2":"西新宿新宿三井ビル１０階"},"1630411":{"post_code":"1630411","prefecture":"TOKYO TO","city":"SHINJUKU KU","town":"NISHISHINJUKU SHINJUKU MITSUIBIRU(1","perfecture_jp":"東京都","jp_add_1":"新宿区","jp_add_2":"西新宿新宿三井ビル１１階"},"1630412":{"post_code":"1630412","prefecture":"TOKYO TO","city":"SHINJUKU KU","town":"NISHISHINJUKU SHINJUKU MITSUIBIRU(1","perfecture_jp":"東京都","jp_add_1":"新宿区","jp_add_2":"西新宿新宿三井ビル１２階"},"1630413":{"post_code":"1630413","prefecture":"TOKYO TO","city":"SHINJUKU KU","town":"NISHISHINJUKU SHINJUKU MITSUIBIRU(1","perfecture_jp":"東京都","jp_add_1":"新宿区","jp_add_2":"西新宿新宿三井ビル１３階"},"1630414":{"post_code":"1630414","prefecture":"TOKYO TO","city":"SHINJUKU KU","town":"NISHISHINJUKU SHINJUKU MITSUIBIRU(1","perfecture_jp":"東京都","jp_add_1":"新宿区","jp_add_2":"西新宿新宿三井ビル１４階"},"1630415":{"post_code":"1630415","prefecture":"TOKYO TO","city":"SHINJUKU KU","town":"NISHISHINJUKU SHINJUKU MITSUIBIRU(1","perfecture_jp":"東京都","jp_add_1":"新宿区","jp_add_2":"西新宿新宿三井ビル１５階"},"1630416":{"post_code":"1630416","prefecture":"TOKYO TO","city":"SHINJUKU KU","town":"NISHISHINJUKU SHINJUKU MITSUIBIRU(1","perfecture_jp":"東京都","jp_add_1":"新宿区","jp_add_2":"西新宿新宿三井ビル１６階"},"1630417":{"post_code":"1630417","prefecture":"TOKYO TO","city":"SHINJUKU KU","town":"NISHISHINJUKU SHINJUKU MITSUIBIRU(1","perfecture_jp":"東京都","jp_add_1":"新宿区","jp_add_2":"西新宿新宿三井ビル１７階"},"1630418":{"post_code":"1630418","prefecture":"TOKYO TO","city":"SHINJUKU KU","town":"NISHISHINJUKU SHINJUKU MITSUIBIRU(1","perfecture_jp":"東京都","jp_add_1":"新宿区","jp_add_2":"西新宿新宿三井ビル１８階"},"1630419":{"post_code":"1630419","prefecture":"TOKYO TO","city":"SHINJUKU KU","town":"NISHISHINJUKU SHINJUKU MITSUIBIRU(1","perfecture_jp":"東京都","jp_add_1":"新宿区","jp_add_2":"西新宿新宿三井ビル１９階"},"1630420":{"post_code":"1630420","prefecture":"TOKYO TO","city":"SHINJUKU KU","town":"NISHISHINJUKU SHINJUKU MITSUIBIRU(2","perfecture_jp":"東京都","jp_add_1":"新宿区","jp_add_2":"西新宿新宿三井ビル２０階"},"1630421":{"post_code":"1630421","prefecture":"TOKYO TO","city":"SHINJUKU KU","town":"NISHISHINJUKU SHINJUKU MITSUIBIRU(2","perfecture_jp":"東京都","jp_add_1":"新宿区","jp_add_2":"西新宿新宿三井ビル２１階"},"1630422":{"post_code":"1630422","prefecture":"TOKYO TO","city":"SHINJUKU KU","town":"NISHISHINJUKU SHINJUKU MITSUIBIRU(2","perfecture_jp":"東京都","jp_add_1":"新宿区","jp_add_2":"西新宿新宿三井ビル２２階"},"1630423":{"post_code":"1630423","prefecture":"TOKYO TO","city":"SHINJUKU KU","town":"NISHISHINJUKU SHINJUKU MITSUIBIRU(2","perfecture_jp":"東京都","jp_add_1":"新宿区","jp_add_2":"西新宿新宿三井ビル２３階"},"1630424":{"post_code":"1630424","prefecture":"TOKYO TO","city":"SHINJUKU KU","town":"NISHISHINJUKU SHINJUKU MITSUIBIRU(2","perfecture_jp":"東京都","jp_add_1":"新宿区","jp_add_2":"西新宿新宿三井ビル２４階"},"1630425":{"post_code":"1630425","prefecture":"TOKYO TO","city":"SHINJUKU KU","town":"NISHISHINJUKU SHINJUKU MITSUIBIRU(2","perfecture_jp":"東京都","jp_add_1":"新宿区","jp_add_2":"西新宿新宿三井ビル２５階"},"1630426":{"post_code":"1630426","prefecture":"TOKYO TO","city":"SHINJUKU KU","town":"NISHISHINJUKU SHINJUKU MITSUIBIRU(2","perfecture_jp":"東京都","jp_add_1":"新宿区","jp_add_2":"西新宿新宿三井ビル２６階"},"1630427":{"post_code":"1630427","prefecture":"TOKYO TO","city":"SHINJUKU KU","town":"NISHISHINJUKU SHINJUKU MITSUIBIRU(2","perfecture_jp":"東京都","jp_add_1":"新宿区","jp_add_2":"西新宿新宿三井ビル２７階"},"1630428":{"post_code":"1630428","prefecture":"TOKYO TO","city":"SHINJUKU KU","town":"NISHISHINJUKU SHINJUKU MITSUIBIRU(2","perfecture_jp":"東京都","jp_add_1":"新宿区","jp_add_2":"西新宿新宿三井ビル２８階"},"1630429":{"post_code":"1630429","prefecture":"TOKYO TO","city":"SHINJUKU KU","town":"NISHISHINJUKU SHINJUKU MITSUIBIRU(2","perfecture_jp":"東京都","jp_add_1":"新宿区","jp_add_2":"西新宿新宿三井ビル２９階"},"1630430":{"post_code":"1630430","prefecture":"TOKYO TO","city":"SHINJUKU KU","town":"NISHISHINJUKU SHINJUKU MITSUIBIRU(3","perfecture_jp":"東京都","jp_add_1":"新宿区","jp_add_2":"西新宿新宿三井ビル３０階"},"1630431":{"post_code":"1630431","prefecture":"TOKYO TO","city":"SHINJUKU KU","town":"NISHISHINJUKU SHINJUKU MITSUIBIRU(3","perfecture_jp":"東京都","jp_add_1":"新宿区","jp_add_2":"西新宿新宿三井ビル３１階"},"1630432":{"post_code":"1630432","prefecture":"TOKYO TO","city":"SHINJUKU KU","town":"NISHISHINJUKU SHINJUKU MITSUIBIRU(3","perfecture_jp":"東京都","jp_add_1":"新宿区","jp_add_2":"西新宿新宿三井ビル３２階"},"1630433":{"post_code":"1630433","prefecture":"TOKYO TO","city":"SHINJUKU KU","town":"NISHISHINJUKU SHINJUKU MITSUIBIRU(3","perfecture_jp":"東京都","jp_add_1":"新宿区","jp_add_2":"西新宿新宿三井ビル３３階"},"1630434":{"post_code":"1630434","prefecture":"TOKYO TO","city":"SHINJUKU KU","town":"NISHISHINJUKU SHINJUKU MITSUIBIRU(3","perfecture_jp":"東京都","jp_add_1":"新宿区","jp_add_2":"西新宿新宿三井ビル３４階"},"1630435":{"post_code":"1630435","prefecture":"TOKYO TO","city":"SHINJUKU KU","town":"NISHISHINJUKU SHINJUKU MITSUIBIRU(3","perfecture_jp":"東京都","jp_add_1":"新宿区","jp_add_2":"西新宿新宿三井ビル３５階"},"1630436":{"post_code":"1630436","prefecture":"TOKYO TO","city":"SHINJUKU KU","town":"NISHISHINJUKU SHINJUKU MITSUIBIRU(3","perfecture_jp":"東京都","jp_add_1":"新宿区","jp_add_2":"西新宿新宿三井ビル３６階"},"1630437":{"post_code":"1630437","prefecture":"TOKYO TO","city":"SHINJUKU KU","town":"NISHISHINJUKU SHINJUKU MITSUIBIRU(3","perfecture_jp":"東京都","jp_add_1":"新宿区","jp_add_2":"西新宿新宿三井ビル３７階"},"1630438":{"post_code":"1630438","prefecture":"TOKYO TO","city":"SHINJUKU KU","town":"NISHISHINJUKU SHINJUKU MITSUIBIRU(3","perfecture_jp":"東京都","jp_add_1":"新宿区","jp_add_2":"西新宿新宿三井ビル３８階"},"1630439":{"post_code":"1630439","prefecture":"TOKYO TO","city":"SHINJUKU KU","town":"NISHISHINJUKU SHINJUKU MITSUIBIRU(3","perfecture_jp":"東京都","jp_add_1":"新宿区","jp_add_2":"西新宿新宿三井ビル３９階"},"1630440":{"post_code":"1630440","prefecture":"TOKYO TO","city":"SHINJUKU KU","town":"NISHISHINJUKU SHINJUKU MITSUIBIRU(4","perfecture_jp":"東京都","jp_add_1":"新宿区","jp_add_2":"西新宿新宿三井ビル４０階"},"1630441":{"post_code":"1630441","prefecture":"TOKYO TO","city":"SHINJUKU KU","town":"NISHISHINJUKU SHINJUKU MITSUIBIRU(4","perfecture_jp":"東京都","jp_add_1":"新宿区","jp_add_2":"西新宿新宿三井ビル４１階"},"1630442":{"post_code":"1630442","prefecture":"TOKYO TO","city":"SHINJUKU KU","town":"NISHISHINJUKU SHINJUKU MITSUIBIRU(4","perfecture_jp":"東京都","jp_add_1":"新宿区","jp_add_2":"西新宿新宿三井ビル４２階"},"1630443":{"post_code":"1630443","prefecture":"TOKYO TO","city":"SHINJUKU KU","town":"NISHISHINJUKU SHINJUKU MITSUIBIRU(4","perfecture_jp":"東京都","jp_add_1":"新宿区","jp_add_2":"西新宿新宿三井ビル４３階"},"1630444":{"post_code":"1630444","prefecture":"TOKYO TO","city":"SHINJUKU KU","town":"NISHISHINJUKU SHINJUKU MITSUIBIRU(4","perfecture_jp":"東京都","jp_add_1":"新宿区","jp_add_2":"西新宿新宿三井ビル４４階"},"1630445":{"post_code":"1630445","prefecture":"TOKYO TO","city":"SHINJUKU KU","town":"NISHISHINJUKU SHINJUKU MITSUIBIRU(4","perfecture_jp":"東京都","jp_add_1":"新宿区","jp_add_2":"西新宿新宿三井ビル４５階"},"1630446":{"post_code":"1630446","prefecture":"TOKYO TO","city":"SHINJUKU KU","town":"NISHISHINJUKU SHINJUKU MITSUIBIRU(4","perfecture_jp":"東京都","jp_add_1":"新宿区","jp_add_2":"西新宿新宿三井ビル４６階"},"1630447":{"post_code":"1630447","prefecture":"TOKYO TO","city":"SHINJUKU KU","town":"NISHISHINJUKU SHINJUKU MITSUIBIRU(4","perfecture_jp":"東京都","jp_add_1":"新宿区","jp_add_2":"西新宿新宿三井ビル４７階"},"1630448":{"post_code":"1630448","prefecture":"TOKYO TO","city":"SHINJUKU KU","town":"NISHISHINJUKU SHINJUKU MITSUIBIRU(4","perfecture_jp":"東京都","jp_add_1":"新宿区","jp_add_2":"西新宿新宿三井ビル４８階"},"1630449":{"post_code":"1630449","prefecture":"TOKYO TO","city":"SHINJUKU KU","town":"NISHISHINJUKU SHINJUKU MITSUIBIRU(4","perfecture_jp":"東京都","jp_add_1":"新宿区","jp_add_2":"西新宿新宿三井ビル４９階"},"1630450":{"post_code":"1630450","prefecture":"TOKYO TO","city":"SHINJUKU KU","town":"NISHISHINJUKU SHINJUKU MITSUIBIRU(5","perfecture_jp":"東京都","jp_add_1":"新宿区","jp_add_2":"西新宿新宿三井ビル５０階"},"1630451":{"post_code":"1630451","prefecture":"TOKYO TO","city":"SHINJUKU KU","town":"NISHISHINJUKU SHINJUKU MITSUIBIRU(5","perfecture_jp":"東京都","jp_add_1":"新宿区","jp_add_2":"西新宿新宿三井ビル５１階"},"1630452":{"post_code":"1630452","prefecture":"TOKYO TO","city":"SHINJUKU KU","town":"NISHISHINJUKU SHINJUKU MITSUIBIRU(5","perfecture_jp":"東京都","jp_add_1":"新宿区","jp_add_2":"西新宿新宿三井ビル５２階"},"1630453":{"post_code":"1630453","prefecture":"TOKYO TO","city":"SHINJUKU KU","town":"NISHISHINJUKU SHINJUKU MITSUIBIRU(5","perfecture_jp":"東京都","jp_add_1":"新宿区","jp_add_2":"西新宿新宿三井ビル５３階"},"1630454":{"post_code":"1630454","prefecture":"TOKYO TO","city":"SHINJUKU KU","town":"NISHISHINJUKU SHINJUKU MITSUIBIRU(5","perfecture_jp":"東京都","jp_add_1":"新宿区","jp_add_2":"西新宿新宿三井ビル５４階"},"1630455":{"post_code":"1630455","prefecture":"TOKYO TO","city":"SHINJUKU KU","town":"NISHISHINJUKU SHINJUKU MITSUIBIRU(5","perfecture_jp":"東京都","jp_add_1":"新宿区","jp_add_2":"西新宿新宿三井ビル５５階"},"1630990":{"post_code":"1630990","prefecture":"TOKYO TO","city":"SHINJUKU KU","town":"NISHISHINJUKU SHINJUKU MONORISU(CHI","perfecture_jp":"東京都","jp_add_1":"新宿区","jp_add_2":"西新宿新宿モノリス"},"1630901":{"post_code":"1630901","prefecture":"TOKYO TO","city":"SHINJUKU KU","town":"NISHISHINJUKU SHINJUKU MONORISU(1-K","perfecture_jp":"東京都","jp_add_1":"新宿区","jp_add_2":"西新宿新宿モノリス１階"},"1630902":{"post_code":"1630902","prefecture":"TOKYO TO","city":"SHINJUKU KU","town":"NISHISHINJUKU SHINJUKU MONORISU(2-K","perfecture_jp":"東京都","jp_add_1":"新宿区","jp_add_2":"西新宿新宿モノリス２階"},"1630903":{"post_code":"1630903","prefecture":"TOKYO TO","city":"SHINJUKU KU","town":"NISHISHINJUKU SHINJUKU MONORISU(3-K","perfecture_jp":"東京都","jp_add_1":"新宿区","jp_add_2":"西新宿新宿モノリス３階"},"1630904":{"post_code":"1630904","prefecture":"TOKYO TO","city":"SHINJUKU KU","town":"NISHISHINJUKU SHINJUKU MONORISU(4-K","perfecture_jp":"東京都","jp_add_1":"新宿区","jp_add_2":"西新宿新宿モノリス４階"},"1630905":{"post_code":"1630905","prefecture":"TOKYO TO","city":"SHINJUKU KU","town":"NISHISHINJUKU SHINJUKU MONORISU(5-K","perfecture_jp":"東京都","jp_add_1":"新宿区","jp_add_2":"西新宿新宿モノリス５階"},"1630906":{"post_code":"1630906","prefecture":"TOKYO TO","city":"SHINJUKU KU","town":"NISHISHINJUKU SHINJUKU MONORISU(6-K","perfecture_jp":"東京都","jp_add_1":"新宿区","jp_add_2":"西新宿新宿モノリス６階"},"1630907":{"post_code":"1630907","prefecture":"TOKYO TO","city":"SHINJUKU KU","town":"NISHISHINJUKU SHINJUKU MONORISU(7-K","perfecture_jp":"東京都","jp_add_1":"新宿区","jp_add_2":"西新宿新宿モノリス７階"},"1630908":{"post_code":"1630908","prefecture":"TOKYO TO","city":"SHINJUKU KU","town":"NISHISHINJUKU SHINJUKU MONORISU(8-K","perfecture_jp":"東京都","jp_add_1":"新宿区","jp_add_2":"西新宿新宿モノリス８階"},"1630909":{"post_code":"1630909","prefecture":"TOKYO TO","city":"SHINJUKU KU","town":"NISHISHINJUKU SHINJUKU MONORISU(9-K","perfecture_jp":"東京都","jp_add_1":"新宿区","jp_add_2":"西新宿新宿モノリス９階"},"1630910":{"post_code":"1630910","prefecture":"TOKYO TO","city":"SHINJUKU KU","town":"NISHISHINJUKU SHINJUKU MONORISU(10-","perfecture_jp":"東京都","jp_add_1":"新宿区","jp_add_2":"西新宿新宿モノリス１０階"},"1630911":{"post_code":"1630911","prefecture":"TOKYO TO","city":"SHINJUKU KU","town":"NISHISHINJUKU SHINJUKU MONORISU(11-","perfecture_jp":"東京都","jp_add_1":"新宿区","jp_add_2":"西新宿新宿モノリス１１階"},"1630912":{"post_code":"1630912","prefecture":"TOKYO TO","city":"SHINJUKU KU","town":"NISHISHINJUKU SHINJUKU MONORISU(12-","perfecture_jp":"東京都","jp_add_1":"新宿区","jp_add_2":"西新宿新宿モノリス１２階"},"1630913":{"post_code":"1630913","prefecture":"TOKYO TO","city":"SHINJUKU KU","town":"NISHISHINJUKU SHINJUKU MONORISU(13-","perfecture_jp":"東京都","jp_add_1":"新宿区","jp_add_2":"西新宿新宿モノリス１３階"},"1630914":{"post_code":"1630914","prefecture":"TOKYO TO","city":"SHINJUKU KU","town":"NISHISHINJUKU SHINJUKU MONORISU(14-","perfecture_jp":"東京都","jp_add_1":"新宿区","jp_add_2":"西新宿新宿モノリス１４階"},"1630915":{"post_code":"1630915","prefecture":"TOKYO TO","city":"SHINJUKU KU","town":"NISHISHINJUKU SHINJUKU MONORISU(15-","perfecture_jp":"東京都","jp_add_1":"新宿区","jp_add_2":"西新宿新宿モノリス１５階"},"1630916":{"post_code":"1630916","prefecture":"TOKYO TO","city":"SHINJUKU KU","town":"NISHISHINJUKU SHINJUKU MONORISU(16-","perfecture_jp":"東京都","jp_add_1":"新宿区","jp_add_2":"西新宿新宿モノリス１６階"},"1630917":{"post_code":"1630917","prefecture":"TOKYO TO","city":"SHINJUKU KU","town":"NISHISHINJUKU SHINJUKU MONORISU(17-","perfecture_jp":"東京都","jp_add_1":"新宿区","jp_add_2":"西新宿新宿モノリス１７階"},"1630918":{"post_code":"1630918","prefecture":"TOKYO TO","city":"SHINJUKU KU","town":"NISHISHINJUKU SHINJUKU MONORISU(18-","perfecture_jp":"東京都","jp_add_1":"新宿区","jp_add_2":"西新宿新宿モノリス１８階"},"1630919":{"post_code":"1630919","prefecture":"TOKYO TO","city":"SHINJUKU KU","town":"NISHISHINJUKU SHINJUKU MONORISU(19-","perfecture_jp":"東京都","jp_add_1":"新宿区","jp_add_2":"西新宿新宿モノリス１９階"},"1630920":{"post_code":"1630920","prefecture":"TOKYO TO","city":"SHINJUKU KU","town":"NISHISHINJUKU SHINJUKU MONORISU(20-","perfecture_jp":"東京都","jp_add_1":"新宿区","jp_add_2":"西新宿新宿モノリス２０階"},"1630921":{"post_code":"1630921","prefecture":"TOKYO TO","city":"SHINJUKU KU","town":"NISHISHINJUKU SHINJUKU MONORISU(21-","perfecture_jp":"東京都","jp_add_1":"新宿区","jp_add_2":"西新宿新宿モノリス２１階"},"1630922":{"post_code":"1630922","prefecture":"TOKYO TO","city":"SHINJUKU KU","town":"NISHISHINJUKU SHINJUKU MONORISU(22-","perfecture_jp":"東京都","jp_add_1":"新宿区","jp_add_2":"西新宿新宿モノリス２２階"},"1630923":{"post_code":"1630923","prefecture":"TOKYO TO","city":"SHINJUKU KU","town":"NISHISHINJUKU SHINJUKU MONORISU(23-","perfecture_jp":"東京都","jp_add_1":"新宿区","jp_add_2":"西新宿新宿モノリス２３階"},"1630924":{"post_code":"1630924","prefecture":"TOKYO TO","city":"SHINJUKU KU","town":"NISHISHINJUKU SHINJUKU MONORISU(24-","perfecture_jp":"東京都","jp_add_1":"新宿区","jp_add_2":"西新宿新宿モノリス２４階"},"1630925":{"post_code":"1630925","prefecture":"TOKYO TO","city":"SHINJUKU KU","town":"NISHISHINJUKU SHINJUKU MONORISU(25-","perfecture_jp":"東京都","jp_add_1":"新宿区","jp_add_2":"西新宿新宿モノリス２５階"},"1630926":{"post_code":"1630926","prefecture":"TOKYO TO","city":"SHINJUKU KU","town":"NISHISHINJUKU SHINJUKU MONORISU(26-","perfecture_jp":"東京都","jp_add_1":"新宿区","jp_add_2":"西新宿新宿モノリス２６階"},"1630927":{"post_code":"1630927","prefecture":"TOKYO TO","city":"SHINJUKU KU","town":"NISHISHINJUKU SHINJUKU MONORISU(27-","perfecture_jp":"東京都","jp_add_1":"新宿区","jp_add_2":"西新宿新宿モノリス２７階"},"1630928":{"post_code":"1630928","prefecture":"TOKYO TO","city":"SHINJUKU KU","town":"NISHISHINJUKU SHINJUKU MONORISU(28-","perfecture_jp":"東京都","jp_add_1":"新宿区","jp_add_2":"西新宿新宿モノリス２８階"},"1630929":{"post_code":"1630929","prefecture":"TOKYO TO","city":"SHINJUKU KU","town":"NISHISHINJUKU SHINJUKU MONORISU(29-","perfecture_jp":"東京都","jp_add_1":"新宿区","jp_add_2":"西新宿新宿モノリス２９階"},"1630930":{"post_code":"1630930","prefecture":"TOKYO TO","city":"SHINJUKU KU","town":"NISHISHINJUKU SHINJUKU MONORISU(30-","perfecture_jp":"東京都","jp_add_1":"新宿区","jp_add_2":"西新宿新宿モノリス３０階"},"1636090":{"post_code":"1636090","prefecture":"TOKYO TO","city":"SHINJUKU KU","town":"NISHISHINJUKU SUMITOMOFUDOSAN SHINJ","perfecture_jp":"東京都","jp_add_1":"新宿区","jp_add_2":"西新宿住友不動産新宿オークタワー"},"1636001":{"post_code":"1636001","prefecture":"TOKYO TO","city":"SHINJUKU KU","town":"NISHISHINJUKU SUMITOMOFUDOSAN SHINJ","perfecture_jp":"東京都","jp_add_1":"新宿区","jp_add_2":"西新宿住友不動産新宿オークタワー１階"},"1636002":{"post_code":"1636002","prefecture":"TOKYO TO","city":"SHINJUKU KU","town":"NISHISHINJUKU SUMITOMOFUDOSAN SHINJ","perfecture_jp":"東京都","jp_add_1":"新宿区","jp_add_2":"西新宿住友不動産新宿オークタワー２階"},"1636003":{"post_code":"1636003","prefecture":"TOKYO TO","city":"SHINJUKU KU","town":"NISHISHINJUKU SUMITOMOFUDOSAN SHINJ","perfecture_jp":"東京都","jp_add_1":"新宿区","jp_add_2":"西新宿住友不動産新宿オークタワー３階"},"1636004":{"post_code":"1636004","prefecture":"TOKYO TO","city":"SHINJUKU KU","town":"NISHISHINJUKU SUMITOMOFUDOSAN SHINJ","perfecture_jp":"東京都","jp_add_1":"新宿区","jp_add_2":"西新宿住友不動産新宿オークタワー４階"},"1636005":{"post_code":"1636005","prefecture":"TOKYO TO","city":"SHINJUKU KU","town":"NISHISHINJUKU SUMITOMOFUDOSAN SHINJ","perfecture_jp":"東京都","jp_add_1":"新宿区","jp_add_2":"西新宿住友不動産新宿オークタワー５階"},"1636006":{"post_code":"1636006","prefecture":"TOKYO TO","city":"SHINJUKU KU","town":"NISHISHINJUKU SUMITOMOFUDOSAN SHINJ","perfecture_jp":"東京都","jp_add_1":"新宿区","jp_add_2":"西新宿住友不動産新宿オークタワー６階"},"1636007":{"post_code":"1636007","prefecture":"TOKYO TO","city":"SHINJUKU KU","town":"NISHISHINJUKU SUMITOMOFUDOSAN SHINJ","perfecture_jp":"東京都","jp_add_1":"新宿区","jp_add_2":"西新宿住友不動産新宿オークタワー７階"},"1636008":{"post_code":"1636008","prefecture":"TOKYO TO","city":"SHINJUKU KU","town":"NISHISHINJUKU SUMITOMOFUDOSAN SHINJ","perfecture_jp":"東京都","jp_add_1":"新宿区","jp_add_2":"西新宿住友不動産新宿オークタワー８階"},"1636009":{"post_code":"1636009","prefecture":"TOKYO TO","city":"SHINJUKU KU","town":"NISHISHINJUKU SUMITOMOFUDOSAN SHINJ","perfecture_jp":"東京都","jp_add_1":"新宿区","jp_add_2":"西新宿住友不動産新宿オークタワー９階"},"1636010":{"post_code":"1636010","prefecture":"TOKYO TO","city":"SHINJUKU KU","town":"NISHISHINJUKU SUMITOMOFUDOSAN SHINJ","perfecture_jp":"東京都","jp_add_1":"新宿区","jp_add_2":"西新宿住友不動産新宿オークタワー１０階"},"1636011":{"post_code":"1636011","prefecture":"TOKYO TO","city":"SHINJUKU KU","town":"NISHISHINJUKU SUMITOMOFUDOSAN SHINJ","perfecture_jp":"東京都","jp_add_1":"新宿区","jp_add_2":"西新宿住友不動産新宿オークタワー１１階"},"1636012":{"post_code":"1636012","prefecture":"TOKYO TO","city":"SHINJUKU KU","town":"NISHISHINJUKU SUMITOMOFUDOSAN SHINJ","perfecture_jp":"東京都","jp_add_1":"新宿区","jp_add_2":"西新宿住友不動産新宿オークタワー１２階"},"1636013":{"post_code":"1636013","prefecture":"TOKYO TO","city":"SHINJUKU KU","town":"NISHISHINJUKU SUMITOMOFUDOSAN SHINJ","perfecture_jp":"東京都","jp_add_1":"新宿区","jp_add_2":"西新宿住友不動産新宿オークタワー１３階"},"1636014":{"post_code":"1636014","prefecture":"TOKYO TO","city":"SHINJUKU KU","town":"NISHISHINJUKU SUMITOMOFUDOSAN SHINJ","perfecture_jp":"東京都","jp_add_1":"新宿区","jp_add_2":"西新宿住友不動産新宿オークタワー１４階"},"1636015":{"post_code":"1636015","prefecture":"TOKYO TO","city":"SHINJUKU KU","town":"NISHISHINJUKU SUMITOMOFUDOSAN SHINJ","perfecture_jp":"東京都","jp_add_1":"新宿区","jp_add_2":"西新宿住友不動産新宿オークタワー１５階"},"1636016":{"post_code":"1636016","prefecture":"TOKYO TO","city":"SHINJUKU KU","town":"NISHISHINJUKU SUMITOMOFUDOSAN SHINJ","perfecture_jp":"東京都","jp_add_1":"新宿区","jp_add_2":"西新宿住友不動産新宿オークタワー１６階"},"1636017":{"post_code":"1636017","prefecture":"TOKYO TO","city":"SHINJUKU KU","town":"NISHISHINJUKU SUMITOMOFUDOSAN SHINJ","perfecture_jp":"東京都","jp_add_1":"新宿区","jp_add_2":"西新宿住友不動産新宿オークタワー１７階"},"1636018":{"post_code":"1636018","prefecture":"TOKYO TO","city":"SHINJUKU KU","town":"NISHISHINJUKU SUMITOMOFUDOSAN SHINJ","perfecture_jp":"東京都","jp_add_1":"新宿区","jp_add_2":"西新宿住友不動産新宿オークタワー１８階"},"1636019":{"post_code":"1636019","prefecture":"TOKYO TO","city":"SHINJUKU KU","town":"NISHISHINJUKU SUMITOMOFUDOSAN SHINJ","perfecture_jp":"東京都","jp_add_1":"新宿区","jp_add_2":"西新宿住友不動産新宿オークタワー１９階"},"1636020":{"post_code":"1636020","prefecture":"TOKYO TO","city":"SHINJUKU KU","town":"NISHISHINJUKU SUMITOMOFUDOSAN SHINJ","perfecture_jp":"東京都","jp_add_1":"新宿区","jp_add_2":"西新宿住友不動産新宿オークタワー２０階"},"1636021":{"post_code":"1636021","prefecture":"TOKYO TO","city":"SHINJUKU KU","town":"NISHISHINJUKU SUMITOMOFUDOSAN SHINJ","perfecture_jp":"東京都","jp_add_1":"新宿区","jp_add_2":"西新宿住友不動産新宿オークタワー２１階"},"1636022":{"post_code":"1636022","prefecture":"TOKYO TO","city":"SHINJUKU KU","town":"NISHISHINJUKU SUMITOMOFUDOSAN SHINJ","perfecture_jp":"東京都","jp_add_1":"新宿区","jp_add_2":"西新宿住友不動産新宿オークタワー２２階"},"1636023":{"post_code":"1636023","prefecture":"TOKYO TO","city":"SHINJUKU KU","town":"NISHISHINJUKU SUMITOMOFUDOSAN SHINJ","perfecture_jp":"東京都","jp_add_1":"新宿区","jp_add_2":"西新宿住友不動産新宿オークタワー２３階"},"1636024":{"post_code":"1636024","prefecture":"TOKYO TO","city":"SHINJUKU KU","town":"NISHISHINJUKU SUMITOMOFUDOSAN SHINJ","perfecture_jp":"東京都","jp_add_1":"新宿区","jp_add_2":"西新宿住友不動産新宿オークタワー２４階"},"1636025":{"post_code":"1636025","prefecture":"TOKYO TO","city":"SHINJUKU KU","town":"NISHISHINJUKU SUMITOMOFUDOSAN SHINJ","perfecture_jp":"東京都","jp_add_1":"新宿区","jp_add_2":"西新宿住友不動産新宿オークタワー２５階"},"1636026":{"post_code":"1636026","prefecture":"TOKYO TO","city":"SHINJUKU KU","town":"NISHISHINJUKU SUMITOMOFUDOSAN SHINJ","perfecture_jp":"東京都","jp_add_1":"新宿区","jp_add_2":"西新宿住友不動産新宿オークタワー２６階"},"1636027":{"post_code":"1636027","prefecture":"TOKYO TO","city":"SHINJUKU KU","town":"NISHISHINJUKU SUMITOMOFUDOSAN SHINJ","perfecture_jp":"東京都","jp_add_1":"新宿区","jp_add_2":"西新宿住友不動産新宿オークタワー２７階"},"1636028":{"post_code":"1636028","prefecture":"TOKYO TO","city":"SHINJUKU KU","town":"NISHISHINJUKU SUMITOMOFUDOSAN SHINJ","perfecture_jp":"東京都","jp_add_1":"新宿区","jp_add_2":"西新宿住友不動産新宿オークタワー２８階"},"1636029":{"post_code":"1636029","prefecture":"TOKYO TO","city":"SHINJUKU KU","town":"NISHISHINJUKU SUMITOMOFUDOSAN SHINJ","perfecture_jp":"東京都","jp_add_1":"新宿区","jp_add_2":"西新宿住友不動産新宿オークタワー２９階"},"1636030":{"post_code":"1636030","prefecture":"TOKYO TO","city":"SHINJUKU KU","town":"NISHISHINJUKU SUMITOMOFUDOSAN SHINJ","perfecture_jp":"東京都","jp_add_1":"新宿区","jp_add_2":"西新宿住友不動産新宿オークタワー３０階"},"1636031":{"post_code":"1636031","prefecture":"TOKYO TO","city":"SHINJUKU KU","town":"NISHISHINJUKU SUMITOMOFUDOSAN SHINJ","perfecture_jp":"東京都","jp_add_1":"新宿区","jp_add_2":"西新宿住友不動産新宿オークタワー３１階"},"1636032":{"post_code":"1636032","prefecture":"TOKYO TO","city":"SHINJUKU KU","town":"NISHISHINJUKU SUMITOMOFUDOSAN SHINJ","perfecture_jp":"東京都","jp_add_1":"新宿区","jp_add_2":"西新宿住友不動産新宿オークタワー３２階"},"1636033":{"post_code":"1636033","prefecture":"TOKYO TO","city":"SHINJUKU KU","town":"NISHISHINJUKU SUMITOMOFUDOSAN SHINJ","perfecture_jp":"東京都","jp_add_1":"新宿区","jp_add_2":"西新宿住友不動産新宿オークタワー３３階"},"1636034":{"post_code":"1636034","prefecture":"TOKYO TO","city":"SHINJUKU KU","town":"NISHISHINJUKU SUMITOMOFUDOSAN SHINJ","perfecture_jp":"東京都","jp_add_1":"新宿区","jp_add_2":"西新宿住友不動産新宿オークタワー３４階"},"1636035":{"post_code":"1636035","prefecture":"TOKYO TO","city":"SHINJUKU KU","town":"NISHISHINJUKU SUMITOMOFUDOSAN SHINJ","perfecture_jp":"東京都","jp_add_1":"新宿区","jp_add_2":"西新宿住友不動産新宿オークタワー３５階"},"1636036":{"post_code":"1636036","prefecture":"TOKYO TO","city":"SHINJUKU KU","town":"NISHISHINJUKU SUMITOMOFUDOSAN SHINJ","perfecture_jp":"東京都","jp_add_1":"新宿区","jp_add_2":"西新宿住友不動産新宿オークタワー３６階"},"1636037":{"post_code":"1636037","prefecture":"TOKYO TO","city":"SHINJUKU KU","town":"NISHISHINJUKU SUMITOMOFUDOSAN SHINJ","perfecture_jp":"東京都","jp_add_1":"新宿区","jp_add_2":"西新宿住友不動産新宿オークタワー３７階"},"1636038":{"post_code":"1636038","prefecture":"TOKYO TO","city":"SHINJUKU KU","town":"NISHISHINJUKU SUMITOMOFUDOSAN SHINJ","perfecture_jp":"東京都","jp_add_1":"新宿区","jp_add_2":"西新宿住友不動産新宿オークタワー３８階"},"1631490":{"post_code":"1631490","prefecture":"TOKYO TO","city":"SHINJUKU KU","town":"NISHISHINJUKU TOKYOOPERASHITEI(CHIK","perfecture_jp":"東京都","jp_add_1":"新宿区","jp_add_2":"西新宿東京オペラシティ"},"1631401":{"post_code":"1631401","prefecture":"TOKYO TO","city":"SHINJUKU KU","town":"NISHISHINJUKU TOKYOOPERASHITEI(1-KA","perfecture_jp":"東京都","jp_add_1":"新宿区","jp_add_2":"西新宿東京オペラシティ１階"},"1631402":{"post_code":"1631402","prefecture":"TOKYO TO","city":"SHINJUKU KU","town":"NISHISHINJUKU TOKYOOPERASHITEI(2-KA","perfecture_jp":"東京都","jp_add_1":"新宿区","jp_add_2":"西新宿東京オペラシティ２階"},"1631403":{"post_code":"1631403","prefecture":"TOKYO TO","city":"SHINJUKU KU","town":"NISHISHINJUKU TOKYOOPERASHITEI(3-KA","perfecture_jp":"東京都","jp_add_1":"新宿区","jp_add_2":"西新宿東京オペラシティ３階"},"1631404":{"post_code":"1631404","prefecture":"TOKYO TO","city":"SHINJUKU KU","town":"NISHISHINJUKU TOKYOOPERASHITEI(4-KA","perfecture_jp":"東京都","jp_add_1":"新宿区","jp_add_2":"西新宿東京オペラシティ４階"},"1631405":{"post_code":"1631405","prefecture":"TOKYO TO","city":"SHINJUKU KU","town":"NISHISHINJUKU TOKYOOPERASHITEI(5-KA","perfecture_jp":"東京都","jp_add_1":"新宿区","jp_add_2":"西新宿東京オペラシティ５階"},"1631406":{"post_code":"1631406","prefecture":"TOKYO TO","city":"SHINJUKU KU","town":"NISHISHINJUKU TOKYOOPERASHITEI(6-KA","perfecture_jp":"東京都","jp_add_1":"新宿区","jp_add_2":"西新宿東京オペラシティ６階"},"1631407":{"post_code":"1631407","prefecture":"TOKYO TO","city":"SHINJUKU KU","town":"NISHISHINJUKU TOKYOOPERASHITEI(7-KA","perfecture_jp":"東京都","jp_add_1":"新宿区","jp_add_2":"西新宿東京オペラシティ７階"},"1631408":{"post_code":"1631408","prefecture":"TOKYO TO","city":"SHINJUKU KU","town":"NISHISHINJUKU TOKYOOPERASHITEI(8-KA","perfecture_jp":"東京都","jp_add_1":"新宿区","jp_add_2":"西新宿東京オペラシティ８階"},"1631409":{"post_code":"1631409","prefecture":"TOKYO TO","city":"SHINJUKU KU","town":"NISHISHINJUKU TOKYOOPERASHITEI(9-KA","perfecture_jp":"東京都","jp_add_1":"新宿区","jp_add_2":"西新宿東京オペラシティ９階"},"1631410":{"post_code":"1631410","prefecture":"TOKYO TO","city":"SHINJUKU KU","town":"NISHISHINJUKU TOKYOOPERASHITEI(10-K","perfecture_jp":"東京都","jp_add_1":"新宿区","jp_add_2":"西新宿東京オペラシティ１０階"},"1631411":{"post_code":"1631411","prefecture":"TOKYO TO","city":"SHINJUKU KU","town":"NISHISHINJUKU TOKYOOPERASHITEI(11-K","perfecture_jp":"東京都","jp_add_1":"新宿区","jp_add_2":"西新宿東京オペラシティ１１階"},"1631412":{"post_code":"1631412","prefecture":"TOKYO TO","city":"SHINJUKU KU","town":"NISHISHINJUKU TOKYOOPERASHITEI(12-K","perfecture_jp":"東京都","jp_add_1":"新宿区","jp_add_2":"西新宿東京オペラシティ１２階"},"1631413":{"post_code":"1631413","prefecture":"TOKYO TO","city":"SHINJUKU KU","town":"NISHISHINJUKU TOKYOOPERASHITEI(13-K","perfecture_jp":"東京都","jp_add_1":"新宿区","jp_add_2":"西新宿東京オペラシティ１３階"},"1631414":{"post_code":"1631414","prefecture":"TOKYO TO","city":"SHINJUKU KU","town":"NISHISHINJUKU TOKYOOPERASHITEI(14-K","perfecture_jp":"東京都","jp_add_1":"新宿区","jp_add_2":"西新宿東京オペラシティ１４階"},"1631415":{"post_code":"1631415","prefecture":"TOKYO TO","city":"SHINJUKU KU","town":"NISHISHINJUKU TOKYOOPERASHITEI(15-K","perfecture_jp":"東京都","jp_add_1":"新宿区","jp_add_2":"西新宿東京オペラシティ１５階"},"1631416":{"post_code":"1631416","prefecture":"TOKYO TO","city":"SHINJUKU KU","town":"NISHISHINJUKU TOKYOOPERASHITEI(16-K","perfecture_jp":"東京都","jp_add_1":"新宿区","jp_add_2":"西新宿東京オペラシティ１６階"},"1631417":{"post_code":"1631417","prefecture":"TOKYO TO","city":"SHINJUKU KU","town":"NISHISHINJUKU TOKYOOPERASHITEI(17-K","perfecture_jp":"東京都","jp_add_1":"新宿区","jp_add_2":"西新宿東京オペラシティ１７階"},"1631418":{"post_code":"1631418","prefecture":"TOKYO TO","city":"SHINJUKU KU","town":"NISHISHINJUKU TOKYOOPERASHITEI(18-K","perfecture_jp":"東京都","jp_add_1":"新宿区","jp_add_2":"西新宿東京オペラシティ１８階"},"1631419":{"post_code":"1631419","prefecture":"TOKYO TO","city":"SHINJUKU KU","town":"NISHISHINJUKU TOKYOOPERASHITEI(19-K","perfecture_jp":"東京都","jp_add_1":"新宿区","jp_add_2":"西新宿東京オペラシティ１９階"},"1631420":{"post_code":"1631420","prefecture":"TOKYO TO","city":"SHINJUKU KU","town":"NISHISHINJUKU TOKYOOPERASHITEI(20-K","perfecture_jp":"東京都","jp_add_1":"新宿区","jp_add_2":"西新宿東京オペラシティ２０階"},"1631421":{"post_code":"1631421","prefecture":"TOKYO TO","city":"SHINJUKU KU","town":"NISHISHINJUKU TOKYOOPERASHITEI(21-K","perfecture_jp":"東京都","jp_add_1":"新宿区","jp_add_2":"西新宿東京オペラシティ２１階"},"1631422":{"post_code":"1631422","prefecture":"TOKYO TO","city":"SHINJUKU KU","town":"NISHISHINJUKU TOKYOOPERASHITEI(22-K","perfecture_jp":"東京都","jp_add_1":"新宿区","jp_add_2":"西新宿東京オペラシティ２２階"},"1631423":{"post_code":"1631423","prefecture":"TOKYO TO","city":"SHINJUKU KU","town":"NISHISHINJUKU TOKYOOPERASHITEI(23-K","perfecture_jp":"東京都","jp_add_1":"新宿区","jp_add_2":"西新宿東京オペラシティ２３階"},"1631424":{"post_code":"1631424","prefecture":"TOKYO TO","city":"SHINJUKU KU","town":"NISHISHINJUKU TOKYOOPERASHITEI(24-K","perfecture_jp":"東京都","jp_add_1":"新宿区","jp_add_2":"西新宿東京オペラシティ２４階"},"1631425":{"post_code":"1631425","prefecture":"TOKYO TO","city":"SHINJUKU KU","town":"NISHISHINJUKU TOKYOOPERASHITEI(25-K","perfecture_jp":"東京都","jp_add_1":"新宿区","jp_add_2":"西新宿東京オペラシティ２５階"},"1631426":{"post_code":"1631426","prefecture":"TOKYO TO","city":"SHINJUKU KU","town":"NISHISHINJUKU TOKYOOPERASHITEI(26-K","perfecture_jp":"東京都","jp_add_1":"新宿区","jp_add_2":"西新宿東京オペラシティ２６階"},"1631427":{"post_code":"1631427","prefecture":"TOKYO TO","city":"SHINJUKU KU","town":"NISHISHINJUKU TOKYOOPERASHITEI(27-K","perfecture_jp":"東京都","jp_add_1":"新宿区","jp_add_2":"西新宿東京オペラシティ２７階"},"1631428":{"post_code":"1631428","prefecture":"TOKYO TO","city":"SHINJUKU KU","town":"NISHISHINJUKU TOKYOOPERASHITEI(28-K","perfecture_jp":"東京都","jp_add_1":"新宿区","jp_add_2":"西新宿東京オペラシティ２８階"},"1631429":{"post_code":"1631429","prefecture":"TOKYO TO","city":"SHINJUKU KU","town":"NISHISHINJUKU TOKYOOPERASHITEI(29-K","perfecture_jp":"東京都","jp_add_1":"新宿区","jp_add_2":"西新宿東京オペラシティ２９階"},"1631430":{"post_code":"1631430","prefecture":"TOKYO TO","city":"SHINJUKU KU","town":"NISHISHINJUKU TOKYOOPERASHITEI(30-K","perfecture_jp":"東京都","jp_add_1":"新宿区","jp_add_2":"西新宿東京オペラシティ３０階"},"1631431":{"post_code":"1631431","prefecture":"TOKYO TO","city":"SHINJUKU KU","town":"NISHISHINJUKU TOKYOOPERASHITEI(31-K","perfecture_jp":"東京都","jp_add_1":"新宿区","jp_add_2":"西新宿東京オペラシティ３１階"},"1631432":{"post_code":"1631432","prefecture":"TOKYO TO","city":"SHINJUKU KU","town":"NISHISHINJUKU TOKYOOPERASHITEI(32-K","perfecture_jp":"東京都","jp_add_1":"新宿区","jp_add_2":"西新宿東京オペラシティ３２階"},"1631433":{"post_code":"1631433","prefecture":"TOKYO TO","city":"SHINJUKU KU","town":"NISHISHINJUKU TOKYOOPERASHITEI(33-K","perfecture_jp":"東京都","jp_add_1":"新宿区","jp_add_2":"西新宿東京オペラシティ３３階"},"1631434":{"post_code":"1631434","prefecture":"TOKYO TO","city":"SHINJUKU KU","town":"NISHISHINJUKU TOKYOOPERASHITEI(34-K","perfecture_jp":"東京都","jp_add_1":"新宿区","jp_add_2":"西新宿東京オペラシティ３４階"},"1631435":{"post_code":"1631435","prefecture":"TOKYO TO","city":"SHINJUKU KU","town":"NISHISHINJUKU TOKYOOPERASHITEI(35-K","perfecture_jp":"東京都","jp_add_1":"新宿区","jp_add_2":"西新宿東京オペラシティ３５階"},"1631436":{"post_code":"1631436","prefecture":"TOKYO TO","city":"SHINJUKU KU","town":"NISHISHINJUKU TOKYOOPERASHITEI(36-K","perfecture_jp":"東京都","jp_add_1":"新宿区","jp_add_2":"西新宿東京オペラシティ３６階"},"1631437":{"post_code":"1631437","prefecture":"TOKYO TO","city":"SHINJUKU KU","town":"NISHISHINJUKU TOKYOOPERASHITEI(37-K","perfecture_jp":"東京都","jp_add_1":"新宿区","jp_add_2":"西新宿東京オペラシティ３７階"},"1631438":{"post_code":"1631438","prefecture":"TOKYO TO","city":"SHINJUKU KU","town":"NISHISHINJUKU TOKYOOPERASHITEI(38-K","perfecture_jp":"東京都","jp_add_1":"新宿区","jp_add_2":"西新宿東京オペラシティ３８階"},"1631439":{"post_code":"1631439","prefecture":"TOKYO TO","city":"SHINJUKU KU","town":"NISHISHINJUKU TOKYOOPERASHITEI(39-K","perfecture_jp":"東京都","jp_add_1":"新宿区","jp_add_2":"西新宿東京オペラシティ３９階"},"1631440":{"post_code":"1631440","prefecture":"TOKYO TO","city":"SHINJUKU KU","town":"NISHISHINJUKU TOKYOOPERASHITEI(40-K","perfecture_jp":"東京都","jp_add_1":"新宿区","jp_add_2":"西新宿東京オペラシティ４０階"},"1631441":{"post_code":"1631441","prefecture":"TOKYO TO","city":"SHINJUKU KU","town":"NISHISHINJUKU TOKYOOPERASHITEI(41-K","perfecture_jp":"東京都","jp_add_1":"新宿区","jp_add_2":"西新宿東京オペラシティ４１階"},"1631442":{"post_code":"1631442","prefecture":"TOKYO TO","city":"SHINJUKU KU","town":"NISHISHINJUKU TOKYOOPERASHITEI(42-K","perfecture_jp":"東京都","jp_add_1":"新宿区","jp_add_2":"西新宿東京オペラシティ４２階"},"1631443":{"post_code":"1631443","prefecture":"TOKYO TO","city":"SHINJUKU KU","town":"NISHISHINJUKU TOKYOOPERASHITEI(43-K","perfecture_jp":"東京都","jp_add_1":"新宿区","jp_add_2":"西新宿東京オペラシティ４３階"},"1631444":{"post_code":"1631444","prefecture":"TOKYO TO","city":"SHINJUKU KU","town":"NISHISHINJUKU TOKYOOPERASHITEI(44-K","perfecture_jp":"東京都","jp_add_1":"新宿区","jp_add_2":"西新宿東京オペラシティ４４階"},"1631445":{"post_code":"1631445","prefecture":"TOKYO TO","city":"SHINJUKU KU","town":"NISHISHINJUKU TOKYOOPERASHITEI(45-K","perfecture_jp":"東京都","jp_add_1":"新宿区","jp_add_2":"西新宿東京オペラシティ４５階"},"1631446":{"post_code":"1631446","prefecture":"TOKYO TO","city":"SHINJUKU KU","town":"NISHISHINJUKU TOKYOOPERASHITEI(46-K","perfecture_jp":"東京都","jp_add_1":"新宿区","jp_add_2":"西新宿東京オペラシティ４６階"},"1631447":{"post_code":"1631447","prefecture":"TOKYO TO","city":"SHINJUKU KU","town":"NISHISHINJUKU TOKYOOPERASHITEI(47-K","perfecture_jp":"東京都","jp_add_1":"新宿区","jp_add_2":"西新宿東京オペラシティ４７階"},"1631448":{"post_code":"1631448","prefecture":"TOKYO TO","city":"SHINJUKU KU","town":"NISHISHINJUKU TOKYOOPERASHITEI(48-K","perfecture_jp":"東京都","jp_add_1":"新宿区","jp_add_2":"西新宿東京オペラシティ４８階"},"1631449":{"post_code":"1631449","prefecture":"TOKYO TO","city":"SHINJUKU KU","town":"NISHISHINJUKU TOKYOOPERASHITEI(49-K","perfecture_jp":"東京都","jp_add_1":"新宿区","jp_add_2":"西新宿東京オペラシティ４９階"},"1631450":{"post_code":"1631450","prefecture":"TOKYO TO","city":"SHINJUKU KU","town":"NISHISHINJUKU TOKYOOPERASHITEI(50-K","perfecture_jp":"東京都","jp_add_1":"新宿区","jp_add_2":"西新宿東京オペラシティ５０階"},"1631451":{"post_code":"1631451","prefecture":"TOKYO TO","city":"SHINJUKU KU","town":"NISHISHINJUKU TOKYOOPERASHITEI(51-K","perfecture_jp":"東京都","jp_add_1":"新宿区","jp_add_2":"西新宿東京オペラシティ５１階"},"1631452":{"post_code":"1631452","prefecture":"TOKYO TO","city":"SHINJUKU KU","town":"NISHISHINJUKU TOKYOOPERASHITEI(52-K","perfecture_jp":"東京都","jp_add_1":"新宿区","jp_add_2":"西新宿東京オペラシティ５２階"},"1631453":{"post_code":"1631453","prefecture":"TOKYO TO","city":"SHINJUKU KU","town":"NISHISHINJUKU TOKYOOPERASHITEI(53-K","perfecture_jp":"東京都","jp_add_1":"新宿区","jp_add_2":"西新宿東京オペラシティ５３階"},"1631454":{"post_code":"1631454","prefecture":"TOKYO TO","city":"SHINJUKU KU","town":"NISHISHINJUKU TOKYOOPERASHITEI(54-K","perfecture_jp":"東京都","jp_add_1":"新宿区","jp_add_2":"西新宿東京オペラシティ５４階"}}