{"1650026":{"post_code":"1650026","prefecture":"TOKYO TO","city":"NAKANO KU","town":"ARAI","perfecture_jp":"東京都","jp_add_1":"中野区","jp_add_2":"新井"},"1650022":{"post_code":"1650022","prefecture":"TOKYO TO","city":"NAKANO KU","town":"EGOTA","perfecture_jp":"東京都","jp_add_1":"中野区","jp_add_2":"江古田"},"1650023":{"post_code":"1650023","prefecture":"TOKYO TO","city":"NAKANO KU","town":"EHARACHO","perfecture_jp":"東京都","jp_add_1":"中野区","jp_add_2":"江原町"},"1650031":{"post_code":"1650031","prefecture":"TOKYO TO","city":"NAKANO KU","town":"KAMISAGINOMIYA","perfecture_jp":"東京都","jp_add_1":"中野区","jp_add_2":"上鷺宮"},"1650032":{"post_code":"1650032","prefecture":"TOKYO TO","city":"NAKANO KU","town":"SAGINOMIYA","perfecture_jp":"東京都","jp_add_1":"中野区","jp_add_2":"鷺宮"},"1650035":{"post_code":"1650035","prefecture":"TOKYO TO","city":"NAKANO KU","town":"SHIRASAGI","perfecture_jp":"東京都","jp_add_1":"中野区","jp_add_2":"白鷺"},"1650025":{"post_code":"1650025","prefecture":"TOKYO TO","city":"NAKANO KU","town":"NUMABUKURO","perfecture_jp":"東京都","jp_add_1":"中野区","jp_add_2":"沼袋"},"1650027":{"post_code":"1650027","prefecture":"TOKYO TO","city":"NAKANO KU","town":"NOGATA","perfecture_jp":"東京都","jp_add_1":"中野区","jp_add_2":"野方"},"1650024":{"post_code":"1650024","prefecture":"TOKYO TO","city":"NAKANO KU","town":"MATSUGAOKA","perfecture_jp":"東京都","jp_add_1":"中野区","jp_add_2":"松が丘"},"1650021":{"post_code":"1650021","prefecture":"TOKYO TO","city":"NAKANO KU","town":"MARUYAMA","perfecture_jp":"東京都","jp_add_1":"中野区","jp_add_2":"丸山"},"1650034":{"post_code":"1650034","prefecture":"TOKYO TO","city":"NAKANO KU","town":"YAMATOCHO","perfecture_jp":"東京都","jp_add_1":"中野区","jp_add_2":"大和町"},"1650033":{"post_code":"1650033","prefecture":"TOKYO TO","city":"NAKANO KU","town":"WAKAMIYA","perfecture_jp":"東京都","jp_add_1":"中野区","jp_add_2":"若宮"}}