{"1660000":{"post_code":"1660000","prefecture":"TOKYO TO","city":"SUGINAMI KU","town":"IKANIKEISAIGANAIBAAI","perfecture_jp":"東京都","jp_add_1":"杉並区","jp_add_2":""},"1660004":{"post_code":"1660004","prefecture":"TOKYO TO","city":"SUGINAMI KU","town":"ASAGAYAMINAMI","perfecture_jp":"東京都","jp_add_1":"杉並区","jp_add_2":"阿佐谷南"},"1660001":{"post_code":"1660001","prefecture":"TOKYO TO","city":"SUGINAMI KU","town":"ASAGAYAKITA","perfecture_jp":"東京都","jp_add_1":"杉並区","jp_add_2":"阿佐谷北"},"1660011":{"post_code":"1660011","prefecture":"TOKYO TO","city":"SUGINAMI KU","town":"UMEZATO","perfecture_jp":"東京都","jp_add_1":"杉並区","jp_add_2":"梅里"},"1660003":{"post_code":"1660003","prefecture":"TOKYO TO","city":"SUGINAMI KU","town":"KOENJIMINAMI","perfecture_jp":"東京都","jp_add_1":"杉並区","jp_add_2":"高円寺南"},"1660002":{"post_code":"1660002","prefecture":"TOKYO TO","city":"SUGINAMI KU","town":"KOENJIKITA","perfecture_jp":"東京都","jp_add_1":"杉並区","jp_add_2":"高円寺北"},"1660015":{"post_code":"1660015","prefecture":"TOKYO TO","city":"SUGINAMI KU","town":"NARITAHIGASHI","perfecture_jp":"東京都","jp_add_1":"杉並区","jp_add_2":"成田東"},"1660016":{"post_code":"1660016","prefecture":"TOKYO TO","city":"SUGINAMI KU","town":"NARITANISHI","perfecture_jp":"東京都","jp_add_1":"杉並区","jp_add_2":"成田西"},"1660013":{"post_code":"1660013","prefecture":"TOKYO TO","city":"SUGINAMI KU","town":"HORINOCHI","perfecture_jp":"東京都","jp_add_1":"杉並区","jp_add_2":"堀ノ内"},"1660014":{"post_code":"1660014","prefecture":"TOKYO TO","city":"SUGINAMI KU","town":"MATSUNOKI","perfecture_jp":"東京都","jp_add_1":"杉並区","jp_add_2":"松ノ木"},"1660012":{"post_code":"1660012","prefecture":"TOKYO TO","city":"SUGINAMI KU","town":"WADA","perfecture_jp":"東京都","jp_add_1":"杉並区","jp_add_2":"和田"}}