{"1670032":{"post_code":"1670032","prefecture":"TOKYO TO","city":"SUGINAMI KU","town":"AMANUMA","perfecture_jp":"東京都","jp_add_1":"杉並区","jp_add_2":"天沼"},"1670021":{"post_code":"1670021","prefecture":"TOKYO TO","city":"SUGINAMI KU","town":"IGUSA","perfecture_jp":"東京都","jp_add_1":"杉並区","jp_add_2":"井草"},"1670035":{"post_code":"1670035","prefecture":"TOKYO TO","city":"SUGINAMI KU","town":"IMAGAWA","perfecture_jp":"東京都","jp_add_1":"杉並区","jp_add_2":"今川"},"1670051":{"post_code":"1670051","prefecture":"TOKYO TO","city":"SUGINAMI KU","town":"OGIKUBO","perfecture_jp":"東京都","jp_add_1":"杉並区","jp_add_2":"荻窪"},"1670023":{"post_code":"1670023","prefecture":"TOKYO TO","city":"SUGINAMI KU","town":"KAMIIGUSA","perfecture_jp":"東京都","jp_add_1":"杉並区","jp_add_2":"上井草"},"1670043":{"post_code":"1670043","prefecture":"TOKYO TO","city":"SUGINAMI KU","town":"KAMIOGI","perfecture_jp":"東京都","jp_add_1":"杉並区","jp_add_2":"上荻"},"1670033":{"post_code":"1670033","prefecture":"TOKYO TO","city":"SUGINAMI KU","town":"SHIMIZU","perfecture_jp":"東京都","jp_add_1":"杉並区","jp_add_2":"清水"},"1670022":{"post_code":"1670022","prefecture":"TOKYO TO","city":"SUGINAMI KU","town":"SHIMOIGUSA","perfecture_jp":"東京都","jp_add_1":"杉並区","jp_add_2":"下井草"},"1670054":{"post_code":"1670054","prefecture":"TOKYO TO","city":"SUGINAMI KU","town":"SHOAN","perfecture_jp":"東京都","jp_add_1":"杉並区","jp_add_2":"松庵"},"1670041":{"post_code":"1670041","prefecture":"TOKYO TO","city":"SUGINAMI KU","town":"ZEMPUKUJI","perfecture_jp":"東京都","jp_add_1":"杉並区","jp_add_2":"善福寺"},"1670053":{"post_code":"1670053","prefecture":"TOKYO TO","city":"SUGINAMI KU","town":"NISHIOGIMINAMI","perfecture_jp":"東京都","jp_add_1":"杉並区","jp_add_2":"西荻南"},"1670042":{"post_code":"1670042","prefecture":"TOKYO TO","city":"SUGINAMI KU","town":"NISHIOGIKITA","perfecture_jp":"東京都","jp_add_1":"杉並区","jp_add_2":"西荻北"},"1670031":{"post_code":"1670031","prefecture":"TOKYO TO","city":"SUGINAMI KU","town":"HONAMANUMA","perfecture_jp":"東京都","jp_add_1":"杉並区","jp_add_2":"本天沼"},"1670052":{"post_code":"1670052","prefecture":"TOKYO TO","city":"SUGINAMI KU","town":"MINAMIOGIKUBO","perfecture_jp":"東京都","jp_add_1":"杉並区","jp_add_2":"南荻窪"},"1670034":{"post_code":"1670034","prefecture":"TOKYO TO","city":"SUGINAMI KU","town":"MOMOI","perfecture_jp":"東京都","jp_add_1":"杉並区","jp_add_2":"桃井"}}