{"1680063":{"post_code":"1680063","prefecture":"TOKYO TO","city":"SUGINAMI KU","town":"IZUMI","perfecture_jp":"東京都","jp_add_1":"杉並区","jp_add_2":"和泉"},"1680064":{"post_code":"1680064","prefecture":"TOKYO TO","city":"SUGINAMI KU","town":"EIFUKU","perfecture_jp":"東京都","jp_add_1":"杉並区","jp_add_2":"永福"},"1680061":{"post_code":"1680061","prefecture":"TOKYO TO","city":"SUGINAMI KU","town":"OMIYA","perfecture_jp":"東京都","jp_add_1":"杉並区","jp_add_2":"大宮"},"1680074":{"post_code":"1680074","prefecture":"TOKYO TO","city":"SUGINAMI KU","town":"KAMITAKAIDO","perfecture_jp":"東京都","jp_add_1":"杉並区","jp_add_2":"上高井戸"},"1680082":{"post_code":"1680082","prefecture":"TOKYO TO","city":"SUGINAMI KU","town":"KUGAYAMA","perfecture_jp":"東京都","jp_add_1":"杉並区","jp_add_2":"久我山"},"1680073":{"post_code":"1680073","prefecture":"TOKYO TO","city":"SUGINAMI KU","town":"SHIMOTAKAIDO","perfecture_jp":"東京都","jp_add_1":"杉並区","jp_add_2":"下高井戸"},"1680072":{"post_code":"1680072","prefecture":"TOKYO TO","city":"SUGINAMI KU","town":"TAKAIDOHIGASHI","perfecture_jp":"東京都","jp_add_1":"杉並区","jp_add_2":"高井戸東"},"1680071":{"post_code":"1680071","prefecture":"TOKYO TO","city":"SUGINAMI KU","town":"TAKAIDONISHI","perfecture_jp":"東京都","jp_add_1":"杉並区","jp_add_2":"高井戸西"},"1680065":{"post_code":"1680065","prefecture":"TOKYO TO","city":"SUGINAMI KU","town":"HAMADAYAMA","perfecture_jp":"東京都","jp_add_1":"杉並区","jp_add_2":"浜田山"},"1680062":{"post_code":"1680062","prefecture":"TOKYO TO","city":"SUGINAMI KU","town":"HONAN","perfecture_jp":"東京都","jp_add_1":"杉並区","jp_add_2":"方南"},"1680081":{"post_code":"1680081","prefecture":"TOKYO TO","city":"SUGINAMI KU","town":"MIYAMAE","perfecture_jp":"東京都","jp_add_1":"杉並区","jp_add_2":"宮前"}}