{"1700000":{"post_code":"1700000","prefecture":"TOKYO TO","city":"TOSHIMA KU","town":"IKANIKEISAIGANAIBAAI","perfecture_jp":"東京都","jp_add_1":"豊島区","jp_add_2":""},"1700014":{"post_code":"1700014","prefecture":"TOKYO TO","city":"TOSHIMA KU","town":"IKEBUKURO (1-CHOME)","perfecture_jp":"東京都","jp_add_1":"豊島区","jp_add_2":"池袋"},"1700011":{"post_code":"1700011","prefecture":"TOKYO TO","city":"TOSHIMA KU","town":"IKEBUKUROHONCHO","perfecture_jp":"東京都","jp_add_1":"豊島区","jp_add_2":"池袋本町"},"1700012":{"post_code":"1700012","prefecture":"TOKYO TO","city":"TOSHIMA KU","town":"KAMIIKEBUKURO","perfecture_jp":"東京都","jp_add_1":"豊島区","jp_add_2":"上池袋"},"1700004":{"post_code":"1700004","prefecture":"TOKYO TO","city":"TOSHIMA KU","town":"KITAOTSUKA","perfecture_jp":"東京都","jp_add_1":"豊島区","jp_add_2":"北大塚"},"1700003":{"post_code":"1700003","prefecture":"TOKYO TO","city":"TOSHIMA KU","town":"KOMAGOME","perfecture_jp":"東京都","jp_add_1":"豊島区","jp_add_2":"駒込"},"1700002":{"post_code":"1700002","prefecture":"TOKYO TO","city":"TOSHIMA KU","town":"SUGAMO","perfecture_jp":"東京都","jp_add_1":"豊島区","jp_add_2":"巣鴨"},"1700001":{"post_code":"1700001","prefecture":"TOKYO TO","city":"TOSHIMA KU","town":"NISHISUGAMO","perfecture_jp":"東京都","jp_add_1":"豊島区","jp_add_2":"西巣鴨"},"1700013":{"post_code":"1700013","prefecture":"TOKYO TO","city":"TOSHIMA KU","town":"HIGASHIIKEBUKURO (TSUGINOBIRUONOZO","perfecture_jp":"東京都","jp_add_1":"豊島区","jp_add_2":"東池袋"},"1706090":{"post_code":"1706090","prefecture":"TOKYO TO","city":"TOSHIMA KU","town":"HIGASHIIKEBUKURO SANSHAIN60(CHIKAI.","perfecture_jp":"東京都","jp_add_1":"豊島区","jp_add_2":"東池袋サンシャイン６０"},"1706001":{"post_code":"1706001","prefecture":"TOKYO TO","city":"TOSHIMA KU","town":"HIGASHIIKEBUKURO SANSHAIN60(1-KAI)","perfecture_jp":"東京都","jp_add_1":"豊島区","jp_add_2":"東池袋サンシャイン６０１階"},"1706002":{"post_code":"1706002","prefecture":"TOKYO TO","city":"TOSHIMA KU","town":"HIGASHIIKEBUKURO SANSHAIN60(2-KAI)","perfecture_jp":"東京都","jp_add_1":"豊島区","jp_add_2":"東池袋サンシャイン６０２階"},"1706003":{"post_code":"1706003","prefecture":"TOKYO TO","city":"TOSHIMA KU","town":"HIGASHIIKEBUKURO SANSHAIN60(3-KAI)","perfecture_jp":"東京都","jp_add_1":"豊島区","jp_add_2":"東池袋サンシャイン６０３階"},"1706004":{"post_code":"1706004","prefecture":"TOKYO TO","city":"TOSHIMA KU","town":"HIGASHIIKEBUKURO SANSHAIN60(4-KAI)","perfecture_jp":"東京都","jp_add_1":"豊島区","jp_add_2":"東池袋サンシャイン６０４階"},"1706005":{"post_code":"1706005","prefecture":"TOKYO TO","city":"TOSHIMA KU","town":"HIGASHIIKEBUKURO SANSHAIN60(5-KAI)","perfecture_jp":"東京都","jp_add_1":"豊島区","jp_add_2":"東池袋サンシャイン６０５階"},"1706006":{"post_code":"1706006","prefecture":"TOKYO TO","city":"TOSHIMA KU","town":"HIGASHIIKEBUKURO SANSHAIN60(6-KAI)","perfecture_jp":"東京都","jp_add_1":"豊島区","jp_add_2":"東池袋サンシャイン６０６階"},"1706007":{"post_code":"1706007","prefecture":"TOKYO TO","city":"TOSHIMA KU","town":"HIGASHIIKEBUKURO SANSHAIN60(7-KAI)","perfecture_jp":"東京都","jp_add_1":"豊島区","jp_add_2":"東池袋サンシャイン６０７階"},"1706008":{"post_code":"1706008","prefecture":"TOKYO TO","city":"TOSHIMA KU","town":"HIGASHIIKEBUKURO SANSHAIN60(8-KAI)","perfecture_jp":"東京都","jp_add_1":"豊島区","jp_add_2":"東池袋サンシャイン６０８階"},"1706009":{"post_code":"1706009","prefecture":"TOKYO TO","city":"TOSHIMA KU","town":"HIGASHIIKEBUKURO SANSHAIN60(9-KAI)","perfecture_jp":"東京都","jp_add_1":"豊島区","jp_add_2":"東池袋サンシャイン６０９階"},"1706010":{"post_code":"1706010","prefecture":"TOKYO TO","city":"TOSHIMA KU","town":"HIGASHIIKEBUKURO SANSHAIN60(10-KAI)","perfecture_jp":"東京都","jp_add_1":"豊島区","jp_add_2":"東池袋サンシャイン６０１０階"},"1706011":{"post_code":"1706011","prefecture":"TOKYO TO","city":"TOSHIMA KU","town":"HIGASHIIKEBUKURO SANSHAIN60(11-KAI)","perfecture_jp":"東京都","jp_add_1":"豊島区","jp_add_2":"東池袋サンシャイン６０１１階"},"1706012":{"post_code":"1706012","prefecture":"TOKYO TO","city":"TOSHIMA KU","town":"HIGASHIIKEBUKURO SANSHAIN60(12-KAI)","perfecture_jp":"東京都","jp_add_1":"豊島区","jp_add_2":"東池袋サンシャイン６０１２階"},"1706013":{"post_code":"1706013","prefecture":"TOKYO TO","city":"TOSHIMA KU","town":"HIGASHIIKEBUKURO SANSHAIN60(13-KAI)","perfecture_jp":"東京都","jp_add_1":"豊島区","jp_add_2":"東池袋サンシャイン６０１３階"},"1706014":{"post_code":"1706014","prefecture":"TOKYO TO","city":"TOSHIMA KU","town":"HIGASHIIKEBUKURO SANSHAIN60(14-KAI)","perfecture_jp":"東京都","jp_add_1":"豊島区","jp_add_2":"東池袋サンシャイン６０１４階"},"1706015":{"post_code":"1706015","prefecture":"TOKYO TO","city":"TOSHIMA KU","town":"HIGASHIIKEBUKURO SANSHAIN60(15-KAI)","perfecture_jp":"東京都","jp_add_1":"豊島区","jp_add_2":"東池袋サンシャイン６０１５階"},"1706016":{"post_code":"1706016","prefecture":"TOKYO TO","city":"TOSHIMA KU","town":"HIGASHIIKEBUKURO SANSHAIN60(16-KAI)","perfecture_jp":"東京都","jp_add_1":"豊島区","jp_add_2":"東池袋サンシャイン６０１６階"},"1706017":{"post_code":"1706017","prefecture":"TOKYO TO","city":"TOSHIMA KU","town":"HIGASHIIKEBUKURO SANSHAIN60(17-KAI)","perfecture_jp":"東京都","jp_add_1":"豊島区","jp_add_2":"東池袋サンシャイン６０１７階"},"1706018":{"post_code":"1706018","prefecture":"TOKYO TO","city":"TOSHIMA KU","town":"HIGASHIIKEBUKURO SANSHAIN60(18-KAI)","perfecture_jp":"東京都","jp_add_1":"豊島区","jp_add_2":"東池袋サンシャイン６０１８階"},"1706019":{"post_code":"1706019","prefecture":"TOKYO TO","city":"TOSHIMA KU","town":"HIGASHIIKEBUKURO SANSHAIN60(19-KAI)","perfecture_jp":"東京都","jp_add_1":"豊島区","jp_add_2":"東池袋サンシャイン６０１９階"},"1706020":{"post_code":"1706020","prefecture":"TOKYO TO","city":"TOSHIMA KU","town":"HIGASHIIKEBUKURO SANSHAIN60(20-KAI)","perfecture_jp":"東京都","jp_add_1":"豊島区","jp_add_2":"東池袋サンシャイン６０２０階"},"1706021":{"post_code":"1706021","prefecture":"TOKYO TO","city":"TOSHIMA KU","town":"HIGASHIIKEBUKURO SANSHAIN60(21-KAI)","perfecture_jp":"東京都","jp_add_1":"豊島区","jp_add_2":"東池袋サンシャイン６０２１階"},"1706022":{"post_code":"1706022","prefecture":"TOKYO TO","city":"TOSHIMA KU","town":"HIGASHIIKEBUKURO SANSHAIN60(22-KAI)","perfecture_jp":"東京都","jp_add_1":"豊島区","jp_add_2":"東池袋サンシャイン６０２２階"},"1706023":{"post_code":"1706023","prefecture":"TOKYO TO","city":"TOSHIMA KU","town":"HIGASHIIKEBUKURO SANSHAIN60(23-KAI)","perfecture_jp":"東京都","jp_add_1":"豊島区","jp_add_2":"東池袋サンシャイン６０２３階"},"1706024":{"post_code":"1706024","prefecture":"TOKYO TO","city":"TOSHIMA KU","town":"HIGASHIIKEBUKURO SANSHAIN60(24-KAI)","perfecture_jp":"東京都","jp_add_1":"豊島区","jp_add_2":"東池袋サンシャイン６０２４階"},"1706025":{"post_code":"1706025","prefecture":"TOKYO TO","city":"TOSHIMA KU","town":"HIGASHIIKEBUKURO SANSHAIN60(25-KAI)","perfecture_jp":"東京都","jp_add_1":"豊島区","jp_add_2":"東池袋サンシャイン６０２５階"},"1706026":{"post_code":"1706026","prefecture":"TOKYO TO","city":"TOSHIMA KU","town":"HIGASHIIKEBUKURO SANSHAIN60(26-KAI)","perfecture_jp":"東京都","jp_add_1":"豊島区","jp_add_2":"東池袋サンシャイン６０２６階"},"1706027":{"post_code":"1706027","prefecture":"TOKYO TO","city":"TOSHIMA KU","town":"HIGASHIIKEBUKURO SANSHAIN60(27-KAI)","perfecture_jp":"東京都","jp_add_1":"豊島区","jp_add_2":"東池袋サンシャイン６０２７階"},"1706028":{"post_code":"1706028","prefecture":"TOKYO TO","city":"TOSHIMA KU","town":"HIGASHIIKEBUKURO SANSHAIN60(28-KAI)","perfecture_jp":"東京都","jp_add_1":"豊島区","jp_add_2":"東池袋サンシャイン６０２８階"},"1706029":{"post_code":"1706029","prefecture":"TOKYO TO","city":"TOSHIMA KU","town":"HIGASHIIKEBUKURO SANSHAIN60(29-KAI)","perfecture_jp":"東京都","jp_add_1":"豊島区","jp_add_2":"東池袋サンシャイン６０２９階"},"1706030":{"post_code":"1706030","prefecture":"TOKYO TO","city":"TOSHIMA KU","town":"HIGASHIIKEBUKURO SANSHAIN60(30-KAI)","perfecture_jp":"東京都","jp_add_1":"豊島区","jp_add_2":"東池袋サンシャイン６０３０階"},"1706031":{"post_code":"1706031","prefecture":"TOKYO TO","city":"TOSHIMA KU","town":"HIGASHIIKEBUKURO SANSHAIN60(31-KAI)","perfecture_jp":"東京都","jp_add_1":"豊島区","jp_add_2":"東池袋サンシャイン６０３１階"},"1706032":{"post_code":"1706032","prefecture":"TOKYO TO","city":"TOSHIMA KU","town":"HIGASHIIKEBUKURO SANSHAIN60(32-KAI)","perfecture_jp":"東京都","jp_add_1":"豊島区","jp_add_2":"東池袋サンシャイン６０３２階"},"1706033":{"post_code":"1706033","prefecture":"TOKYO TO","city":"TOSHIMA KU","town":"HIGASHIIKEBUKURO SANSHAIN60(33-KAI)","perfecture_jp":"東京都","jp_add_1":"豊島区","jp_add_2":"東池袋サンシャイン６０３３階"},"1706034":{"post_code":"1706034","prefecture":"TOKYO TO","city":"TOSHIMA KU","town":"HIGASHIIKEBUKURO SANSHAIN60(34-KAI)","perfecture_jp":"東京都","jp_add_1":"豊島区","jp_add_2":"東池袋サンシャイン６０３４階"},"1706035":{"post_code":"1706035","prefecture":"TOKYO TO","city":"TOSHIMA KU","town":"HIGASHIIKEBUKURO SANSHAIN60(35-KAI)","perfecture_jp":"東京都","jp_add_1":"豊島区","jp_add_2":"東池袋サンシャイン６０３５階"},"1706036":{"post_code":"1706036","prefecture":"TOKYO TO","city":"TOSHIMA KU","town":"HIGASHIIKEBUKURO SANSHAIN60(36-KAI)","perfecture_jp":"東京都","jp_add_1":"豊島区","jp_add_2":"東池袋サンシャイン６０３６階"},"1706037":{"post_code":"1706037","prefecture":"TOKYO TO","city":"TOSHIMA KU","town":"HIGASHIIKEBUKURO SANSHAIN60(37-KAI)","perfecture_jp":"東京都","jp_add_1":"豊島区","jp_add_2":"東池袋サンシャイン６０３７階"},"1706038":{"post_code":"1706038","prefecture":"TOKYO TO","city":"TOSHIMA KU","town":"HIGASHIIKEBUKURO SANSHAIN60(38-KAI)","perfecture_jp":"東京都","jp_add_1":"豊島区","jp_add_2":"東池袋サンシャイン６０３８階"},"1706039":{"post_code":"1706039","prefecture":"TOKYO TO","city":"TOSHIMA KU","town":"HIGASHIIKEBUKURO SANSHAIN60(39-KAI)","perfecture_jp":"東京都","jp_add_1":"豊島区","jp_add_2":"東池袋サンシャイン６０３９階"},"1706040":{"post_code":"1706040","prefecture":"TOKYO TO","city":"TOSHIMA KU","town":"HIGASHIIKEBUKURO SANSHAIN60(40-KAI)","perfecture_jp":"東京都","jp_add_1":"豊島区","jp_add_2":"東池袋サンシャイン６０４０階"},"1706041":{"post_code":"1706041","prefecture":"TOKYO TO","city":"TOSHIMA KU","town":"HIGASHIIKEBUKURO SANSHAIN60(41-KAI)","perfecture_jp":"東京都","jp_add_1":"豊島区","jp_add_2":"東池袋サンシャイン６０４１階"},"1706042":{"post_code":"1706042","prefecture":"TOKYO TO","city":"TOSHIMA KU","town":"HIGASHIIKEBUKURO SANSHAIN60(42-KAI)","perfecture_jp":"東京都","jp_add_1":"豊島区","jp_add_2":"東池袋サンシャイン６０４２階"},"1706043":{"post_code":"1706043","prefecture":"TOKYO TO","city":"TOSHIMA KU","town":"HIGASHIIKEBUKURO SANSHAIN60(43-KAI)","perfecture_jp":"東京都","jp_add_1":"豊島区","jp_add_2":"東池袋サンシャイン６０４３階"},"1706044":{"post_code":"1706044","prefecture":"TOKYO TO","city":"TOSHIMA KU","town":"HIGASHIIKEBUKURO SANSHAIN60(44-KAI)","perfecture_jp":"東京都","jp_add_1":"豊島区","jp_add_2":"東池袋サンシャイン６０４４階"},"1706045":{"post_code":"1706045","prefecture":"TOKYO TO","city":"TOSHIMA KU","town":"HIGASHIIKEBUKURO SANSHAIN60(45-KAI)","perfecture_jp":"東京都","jp_add_1":"豊島区","jp_add_2":"東池袋サンシャイン６０４５階"},"1706046":{"post_code":"1706046","prefecture":"TOKYO TO","city":"TOSHIMA KU","town":"HIGASHIIKEBUKURO SANSHAIN60(46-KAI)","perfecture_jp":"東京都","jp_add_1":"豊島区","jp_add_2":"東池袋サンシャイン６０４６階"},"1706047":{"post_code":"1706047","prefecture":"TOKYO TO","city":"TOSHIMA KU","town":"HIGASHIIKEBUKURO SANSHAIN60(47-KAI)","perfecture_jp":"東京都","jp_add_1":"豊島区","jp_add_2":"東池袋サンシャイン６０４７階"},"1706048":{"post_code":"1706048","prefecture":"TOKYO TO","city":"TOSHIMA KU","town":"HIGASHIIKEBUKURO SANSHAIN60(48-KAI)","perfecture_jp":"東京都","jp_add_1":"豊島区","jp_add_2":"東池袋サンシャイン６０４８階"},"1706049":{"post_code":"1706049","prefecture":"TOKYO TO","city":"TOSHIMA KU","town":"HIGASHIIKEBUKURO SANSHAIN60(49-KAI)","perfecture_jp":"東京都","jp_add_1":"豊島区","jp_add_2":"東池袋サンシャイン６０４９階"},"1706050":{"post_code":"1706050","prefecture":"TOKYO TO","city":"TOSHIMA KU","town":"HIGASHIIKEBUKURO SANSHAIN60(50-KAI)","perfecture_jp":"東京都","jp_add_1":"豊島区","jp_add_2":"東池袋サンシャイン６０５０階"},"1706051":{"post_code":"1706051","prefecture":"TOKYO TO","city":"TOSHIMA KU","town":"HIGASHIIKEBUKURO SANSHAIN60(51-KAI)","perfecture_jp":"東京都","jp_add_1":"豊島区","jp_add_2":"東池袋サンシャイン６０５１階"},"1706052":{"post_code":"1706052","prefecture":"TOKYO TO","city":"TOSHIMA KU","town":"HIGASHIIKEBUKURO SANSHAIN60(52-KAI)","perfecture_jp":"東京都","jp_add_1":"豊島区","jp_add_2":"東池袋サンシャイン６０５２階"},"1706053":{"post_code":"1706053","prefecture":"TOKYO TO","city":"TOSHIMA KU","town":"HIGASHIIKEBUKURO SANSHAIN60(53-KAI)","perfecture_jp":"東京都","jp_add_1":"豊島区","jp_add_2":"東池袋サンシャイン６０５３階"},"1706054":{"post_code":"1706054","prefecture":"TOKYO TO","city":"TOSHIMA KU","town":"HIGASHIIKEBUKURO SANSHAIN60(54-KAI)","perfecture_jp":"東京都","jp_add_1":"豊島区","jp_add_2":"東池袋サンシャイン６０５４階"},"1706055":{"post_code":"1706055","prefecture":"TOKYO TO","city":"TOSHIMA KU","town":"HIGASHIIKEBUKURO SANSHAIN60(55-KAI)","perfecture_jp":"東京都","jp_add_1":"豊島区","jp_add_2":"東池袋サンシャイン６０５５階"},"1706056":{"post_code":"1706056","prefecture":"TOKYO TO","city":"TOSHIMA KU","town":"HIGASHIIKEBUKURO SANSHAIN60(56-KAI)","perfecture_jp":"東京都","jp_add_1":"豊島区","jp_add_2":"東池袋サンシャイン６０５６階"},"1706057":{"post_code":"1706057","prefecture":"TOKYO TO","city":"TOSHIMA KU","town":"HIGASHIIKEBUKURO SANSHAIN60(57-KAI)","perfecture_jp":"東京都","jp_add_1":"豊島区","jp_add_2":"東池袋サンシャイン６０５７階"},"1706058":{"post_code":"1706058","prefecture":"TOKYO TO","city":"TOSHIMA KU","town":"HIGASHIIKEBUKURO SANSHAIN60(58-KAI)","perfecture_jp":"東京都","jp_add_1":"豊島区","jp_add_2":"東池袋サンシャイン６０５８階"},"1706059":{"post_code":"1706059","prefecture":"TOKYO TO","city":"TOSHIMA KU","town":"HIGASHIIKEBUKURO SANSHAIN60(59-KAI)","perfecture_jp":"東京都","jp_add_1":"豊島区","jp_add_2":"東池袋サンシャイン６０５９階"},"1706060":{"post_code":"1706060","prefecture":"TOKYO TO","city":"TOSHIMA KU","town":"HIGASHIIKEBUKURO SANSHAIN60(60-KAI)","perfecture_jp":"東京都","jp_add_1":"豊島区","jp_add_2":"東池袋サンシャイン６０６０階"},"1700005":{"post_code":"1700005","prefecture":"TOKYO TO","city":"TOSHIMA KU","town":"MINAMIOTSUKA","perfecture_jp":"東京都","jp_add_1":"豊島区","jp_add_2":"南大塚"}}