{"1710014":{"post_code":"1710014","prefecture":"TOKYO TO","city":"TOSHIMA KU","town":"IKEBUKURO (2-4-CHOME)","perfecture_jp":"東京都","jp_add_1":"豊島区","jp_add_2":"池袋"},"1710043":{"post_code":"1710043","prefecture":"TOKYO TO","city":"TOSHIMA KU","town":"KANAMECHO","perfecture_jp":"東京都","jp_add_1":"豊島区","jp_add_2":"要町"},"1710041":{"post_code":"1710041","prefecture":"TOKYO TO","city":"TOSHIMA KU","town":"SENKAWA","perfecture_jp":"東京都","jp_add_1":"豊島区","jp_add_2":"千川"},"1710032":{"post_code":"1710032","prefecture":"TOKYO TO","city":"TOSHIMA KU","town":"ZOSHIGAYA","perfecture_jp":"東京都","jp_add_1":"豊島区","jp_add_2":"雑司が谷"},"1710033":{"post_code":"1710033","prefecture":"TOKYO TO","city":"TOSHIMA KU","town":"TAKADA","perfecture_jp":"東京都","jp_add_1":"豊島区","jp_add_2":"高田"},"1710042":{"post_code":"1710042","prefecture":"TOKYO TO","city":"TOSHIMA KU","town":"TAKAMATSU","perfecture_jp":"東京都","jp_add_1":"豊島区","jp_add_2":"高松"},"1710044":{"post_code":"1710044","prefecture":"TOKYO TO","city":"TOSHIMA KU","town":"CHIHAYA","perfecture_jp":"東京都","jp_add_1":"豊島区","jp_add_2":"千早"},"1710051":{"post_code":"1710051","prefecture":"TOKYO TO","city":"TOSHIMA KU","town":"NAGASAKI","perfecture_jp":"東京都","jp_add_1":"豊島区","jp_add_2":"長崎"},"1710021":{"post_code":"1710021","prefecture":"TOKYO TO","city":"TOSHIMA KU","town":"NISHIIKEBUKURO","perfecture_jp":"東京都","jp_add_1":"豊島区","jp_add_2":"西池袋"},"1710022":{"post_code":"1710022","prefecture":"TOKYO TO","city":"TOSHIMA KU","town":"MINAMIIKEBUKURO","perfecture_jp":"東京都","jp_add_1":"豊島区","jp_add_2":"南池袋"},"1710052":{"post_code":"1710052","prefecture":"TOKYO TO","city":"TOSHIMA KU","town":"MINAMINAGASAKI","perfecture_jp":"東京都","jp_add_1":"豊島区","jp_add_2":"南長崎"},"1710031":{"post_code":"1710031","prefecture":"TOKYO TO","city":"TOSHIMA KU","town":"MEJIRO","perfecture_jp":"東京都","jp_add_1":"豊島区","jp_add_2":"目白"}}