{"1730004":{"post_code":"1730004","prefecture":"TOKYO TO","city":"ITABASHI KU","town":"ITABASHI","perfecture_jp":"東京都","jp_add_1":"板橋区","jp_add_2":"板橋"},"1730002":{"post_code":"1730002","prefecture":"TOKYO TO","city":"ITABASHI KU","town":"INARIDAI","perfecture_jp":"東京都","jp_add_1":"板橋区","jp_add_2":"稲荷台"},"1730035":{"post_code":"1730035","prefecture":"TOKYO TO","city":"ITABASHI KU","town":"OYAGUCHI","perfecture_jp":"東京都","jp_add_1":"板橋区","jp_add_2":"大谷口"},"1730032":{"post_code":"1730032","prefecture":"TOKYO TO","city":"ITABASHI KU","town":"OYAGUCHI KAMICHO","perfecture_jp":"東京都","jp_add_1":"板橋区","jp_add_2":"大谷口上町"},"1730031":{"post_code":"1730031","prefecture":"TOKYO TO","city":"ITABASHI KU","town":"OYAGUCHI KITACHO","perfecture_jp":"東京都","jp_add_1":"板橋区","jp_add_2":"大谷口北町"},"1730024":{"post_code":"1730024","prefecture":"TOKYO TO","city":"ITABASHI KU","town":"OYAMA KANAICHO","perfecture_jp":"東京都","jp_add_1":"板橋区","jp_add_2":"大山金井町"},"1730014":{"post_code":"1730014","prefecture":"TOKYO TO","city":"ITABASHI KU","town":"OYAMA HIGASHICHO","perfecture_jp":"東京都","jp_add_1":"板橋区","jp_add_2":"大山東町"},"1730033":{"post_code":"1730033","prefecture":"TOKYO TO","city":"ITABASHI KU","town":"OYAMA NISHICHO","perfecture_jp":"東京都","jp_add_1":"板橋区","jp_add_2":"大山西町"},"1730023":{"post_code":"1730023","prefecture":"TOKYO TO","city":"ITABASHI KU","town":"OYAMACHO","perfecture_jp":"東京都","jp_add_1":"板橋区","jp_add_2":"大山町"},"1730003":{"post_code":"1730003","prefecture":"TOKYO TO","city":"ITABASHI KU","town":"KAGA","perfecture_jp":"東京都","jp_add_1":"板橋区","jp_add_2":"加賀"},"1730025":{"post_code":"1730025","prefecture":"TOKYO TO","city":"ITABASHI KU","town":"KUMANOCHO","perfecture_jp":"東京都","jp_add_1":"板橋区","jp_add_2":"熊野町"},"1730037":{"post_code":"1730037","prefecture":"TOKYO TO","city":"ITABASHI KU","town":"KOMONE","perfecture_jp":"東京都","jp_add_1":"板橋区","jp_add_2":"小茂根"},"1730034":{"post_code":"1730034","prefecture":"TOKYO TO","city":"ITABASHI KU","town":"SAIWAICHO","perfecture_jp":"東京都","jp_add_1":"板橋区","jp_add_2":"幸町"},"1730015":{"post_code":"1730015","prefecture":"TOKYO TO","city":"ITABASHI KU","town":"SAKAECHO","perfecture_jp":"東京都","jp_add_1":"板橋区","jp_add_2":"栄町"},"1730016":{"post_code":"1730016","prefecture":"TOKYO TO","city":"ITABASHI KU","town":"NAKAITABASHI","perfecture_jp":"東京都","jp_add_1":"板橋区","jp_add_2":"中板橋"},"1730005":{"post_code":"1730005","prefecture":"TOKYO TO","city":"ITABASHI KU","town":"NAKAJUKU","perfecture_jp":"東京都","jp_add_1":"板橋区","jp_add_2":"仲宿"},"1730022":{"post_code":"1730022","prefecture":"TOKYO TO","city":"ITABASHI KU","town":"NAKACHO","perfecture_jp":"東京都","jp_add_1":"板橋区","jp_add_2":"仲町"},"1730026":{"post_code":"1730026","prefecture":"TOKYO TO","city":"ITABASHI KU","town":"NAKAMARUCHO","perfecture_jp":"東京都","jp_add_1":"板橋区","jp_add_2":"中丸町"},"1730013":{"post_code":"1730013","prefecture":"TOKYO TO","city":"ITABASHI KU","town":"HIKAWACHO","perfecture_jp":"東京都","jp_add_1":"板橋区","jp_add_2":"氷川町"},"1730011":{"post_code":"1730011","prefecture":"TOKYO TO","city":"ITABASHI KU","town":"FUTABACHO","perfecture_jp":"東京都","jp_add_1":"板橋区","jp_add_2":"双葉町"},"1730001":{"post_code":"1730001","prefecture":"TOKYO TO","city":"ITABASHI KU","town":"HONCHO","perfecture_jp":"東京都","jp_add_1":"板橋区","jp_add_2":"本町"},"1730027":{"post_code":"1730027","prefecture":"TOKYO TO","city":"ITABASHI KU","town":"MINAMICHO","perfecture_jp":"東京都","jp_add_1":"板橋区","jp_add_2":"南町"},"1730036":{"post_code":"1730036","prefecture":"TOKYO TO","city":"ITABASHI KU","town":"MUKAIHARA","perfecture_jp":"東京都","jp_add_1":"板橋区","jp_add_2":"向原"},"1730012":{"post_code":"1730012","prefecture":"TOKYO TO","city":"ITABASHI KU","town":"YAMATOCHO","perfecture_jp":"東京都","jp_add_1":"板橋区","jp_add_2":"大和町"},"1730021":{"post_code":"1730021","prefecture":"TOKYO TO","city":"ITABASHI KU","town":"YAYOICHO","perfecture_jp":"東京都","jp_add_1":"板橋区","jp_add_2":"弥生町"}}