{"1740000":{"post_code":"1740000","prefecture":"TOKYO TO","city":"ITABASHI KU","town":"IKANIKEISAIGANAIBAAI","perfecture_jp":"東京都","jp_add_1":"板橋区","jp_add_2":""},"1740044":{"post_code":"1740044","prefecture":"TOKYO TO","city":"ITABASHI KU","town":"AIOICHO","perfecture_jp":"東京都","jp_add_1":"板橋区","jp_add_2":"相生町"},"1740051":{"post_code":"1740051","prefecture":"TOKYO TO","city":"ITABASHI KU","town":"AZUSAWA","perfecture_jp":"東京都","jp_add_1":"板橋区","jp_add_2":"小豆沢"},"1740055":{"post_code":"1740055","prefecture":"TOKYO TO","city":"ITABASHI KU","town":"IZUMICHO","perfecture_jp":"東京都","jp_add_1":"板橋区","jp_add_2":"泉町"},"1740061":{"post_code":"1740061","prefecture":"TOKYO TO","city":"ITABASHI KU","town":"OHARACHO","perfecture_jp":"東京都","jp_add_1":"板橋区","jp_add_2":"大原町"},"1740076":{"post_code":"1740076","prefecture":"TOKYO TO","city":"ITABASHI KU","town":"KAMIITABASHI","perfecture_jp":"東京都","jp_add_1":"板橋区","jp_add_2":"上板橋"},"1740043":{"post_code":"1740043","prefecture":"TOKYO TO","city":"ITABASHI KU","town":"SAKASHITA","perfecture_jp":"東京都","jp_add_1":"板橋区","jp_add_2":"坂下"},"1740075":{"post_code":"1740075","prefecture":"TOKYO TO","city":"ITABASHI KU","town":"SAKURAGAWA","perfecture_jp":"東京都","jp_add_1":"板橋区","jp_add_2":"桜川"},"1740053":{"post_code":"1740053","prefecture":"TOKYO TO","city":"ITABASHI KU","town":"SHIMIZUCHO","perfecture_jp":"東京都","jp_add_1":"板橋区","jp_add_2":"清水町"},"1740056":{"post_code":"1740056","prefecture":"TOKYO TO","city":"ITABASHI KU","town":"SHIMURA","perfecture_jp":"東京都","jp_add_1":"板橋区","jp_add_2":"志村"},"1740074":{"post_code":"1740074","prefecture":"TOKYO TO","city":"ITABASHI KU","town":"TOSHINCHO","perfecture_jp":"東京都","jp_add_1":"板橋区","jp_add_2":"東新町"},"1740071":{"post_code":"1740071","prefecture":"TOKYO TO","city":"ITABASHI KU","town":"TOKIWADAI","perfecture_jp":"東京都","jp_add_1":"板橋区","jp_add_2":"常盤台"},"1740064":{"post_code":"1740064","prefecture":"TOKYO TO","city":"ITABASHI KU","town":"NAKADAI","perfecture_jp":"東京都","jp_add_1":"板橋区","jp_add_2":"中台"},"1740045":{"post_code":"1740045","prefecture":"TOKYO TO","city":"ITABASHI KU","town":"NISHIDAI(1-CHOME)","perfecture_jp":"東京都","jp_add_1":"板橋区","jp_add_2":"西台"},"1740052":{"post_code":"1740052","prefecture":"TOKYO TO","city":"ITABASHI KU","town":"HASUNUMACHO","perfecture_jp":"東京都","jp_add_1":"板橋区","jp_add_2":"蓮沼町"},"1740046":{"post_code":"1740046","prefecture":"TOKYO TO","city":"ITABASHI KU","town":"HASUNE","perfecture_jp":"東京都","jp_add_1":"板橋区","jp_add_2":"蓮根"},"1740042":{"post_code":"1740042","prefecture":"TOKYO TO","city":"ITABASHI KU","town":"HIGASHISAKASHITA","perfecture_jp":"東京都","jp_add_1":"板橋区","jp_add_2":"東坂下"},"1740073":{"post_code":"1740073","prefecture":"TOKYO TO","city":"ITABASHI KU","town":"HIGASHIYAMACHO","perfecture_jp":"東京都","jp_add_1":"板橋区","jp_add_2":"東山町"},"1740062":{"post_code":"1740062","prefecture":"TOKYO TO","city":"ITABASHI KU","town":"FUJIMICHO","perfecture_jp":"東京都","jp_add_1":"板橋区","jp_add_2":"富士見町"},"1740041":{"post_code":"1740041","prefecture":"TOKYO TO","city":"ITABASHI KU","town":"FUNADO","perfecture_jp":"東京都","jp_add_1":"板橋区","jp_add_2":"舟渡"},"1740063":{"post_code":"1740063","prefecture":"TOKYO TO","city":"ITABASHI KU","town":"MAENOCHO","perfecture_jp":"東京都","jp_add_1":"板橋区","jp_add_2":"前野町"},"1740072":{"post_code":"1740072","prefecture":"TOKYO TO","city":"ITABASHI KU","town":"MINAMITOKIWADAI","perfecture_jp":"東京都","jp_add_1":"板橋区","jp_add_2":"南常盤台"},"1740054":{"post_code":"1740054","prefecture":"TOKYO TO","city":"ITABASHI KU","town":"MIYAMOTOCHO","perfecture_jp":"東京都","jp_add_1":"板橋区","jp_add_2":"宮本町"},"1740065":{"post_code":"1740065","prefecture":"TOKYO TO","city":"ITABASHI KU","town":"WAKAGI","perfecture_jp":"東京都","jp_add_1":"板橋区","jp_add_2":"若木"}}