{"1750092":{"post_code":"1750092","prefecture":"TOKYO TO","city":"ITABASHI KU","town":"AKATSUKA","perfecture_jp":"東京都","jp_add_1":"板橋区","jp_add_2":"赤塚"},"1750093":{"post_code":"1750093","prefecture":"TOKYO TO","city":"ITABASHI KU","town":"AKATSUKASHIMMACHI","perfecture_jp":"東京都","jp_add_1":"板橋区","jp_add_2":"赤塚新町"},"1750081":{"post_code":"1750081","prefecture":"TOKYO TO","city":"ITABASHI KU","town":"SHINGASHI","perfecture_jp":"東京都","jp_add_1":"板橋区","jp_add_2":"新河岸"},"1750085":{"post_code":"1750085","prefecture":"TOKYO TO","city":"ITABASHI KU","town":"DAIMON","perfecture_jp":"東京都","jp_add_1":"板橋区","jp_add_2":"大門"},"1750082":{"post_code":"1750082","prefecture":"TOKYO TO","city":"ITABASHI KU","town":"TAKASHIMADAIRA","perfecture_jp":"東京都","jp_add_1":"板橋区","jp_add_2":"高島平"},"1750083":{"post_code":"1750083","prefecture":"TOKYO TO","city":"ITABASHI KU","town":"TOKUMARU","perfecture_jp":"東京都","jp_add_1":"板橋区","jp_add_2":"徳丸"},"1750094":{"post_code":"1750094","prefecture":"TOKYO TO","city":"ITABASHI KU","town":"NARIMASU","perfecture_jp":"東京都","jp_add_1":"板橋区","jp_add_2":"成増"},"1750045":{"post_code":"1750045","prefecture":"TOKYO TO","city":"ITABASHI KU","town":"NISHIDAI(2-4-CHOME)","perfecture_jp":"東京都","jp_add_1":"板橋区","jp_add_2":"西台"},"1750091":{"post_code":"1750091","prefecture":"TOKYO TO","city":"ITABASHI KU","town":"MISONO","perfecture_jp":"東京都","jp_add_1":"板橋区","jp_add_2":"三園"},"1750084":{"post_code":"1750084","prefecture":"TOKYO TO","city":"ITABASHI KU","town":"YOTSUBA","perfecture_jp":"東京都","jp_add_1":"板橋区","jp_add_2":"四葉"}}