{"1760000":{"post_code":"1760000","prefecture":"TOKYO TO","city":"NERIMA KU","town":"IKANIKEISAIGANAIBAAI","perfecture_jp":"東京都","jp_add_1":"練馬区","jp_add_2":""},"1760005":{"post_code":"1760005","prefecture":"TOKYO TO","city":"NERIMA KU","town":"ASAHIGAOKA","perfecture_jp":"東京都","jp_add_1":"練馬区","jp_add_2":"旭丘"},"1760022":{"post_code":"1760022","prefecture":"TOKYO TO","city":"NERIMA KU","town":"KOYAMA","perfecture_jp":"東京都","jp_add_1":"練馬区","jp_add_2":"向山"},"1760004":{"post_code":"1760004","prefecture":"TOKYO TO","city":"NERIMA KU","town":"KOTAKECHO","perfecture_jp":"東京都","jp_add_1":"練馬区","jp_add_2":"小竹町"},"1760006":{"post_code":"1760006","prefecture":"TOKYO TO","city":"NERIMA KU","town":"SAKAECHO","perfecture_jp":"東京都","jp_add_1":"練馬区","jp_add_2":"栄町"},"1760002":{"post_code":"1760002","prefecture":"TOKYO TO","city":"NERIMA KU","town":"SAKURADAI","perfecture_jp":"東京都","jp_add_1":"練馬区","jp_add_2":"桜台"},"1760011":{"post_code":"1760011","prefecture":"TOKYO TO","city":"NERIMA KU","town":"TOYOTAMAKAMI","perfecture_jp":"東京都","jp_add_1":"練馬区","jp_add_2":"豊玉上"},"1760013":{"post_code":"1760013","prefecture":"TOKYO TO","city":"NERIMA KU","town":"TOYOTAMANAKA","perfecture_jp":"東京都","jp_add_1":"練馬区","jp_add_2":"豊玉中"},"1760014":{"post_code":"1760014","prefecture":"TOKYO TO","city":"NERIMA KU","town":"TOYOTAMAMINAMI","perfecture_jp":"東京都","jp_add_1":"練馬区","jp_add_2":"豊玉南"},"1760012":{"post_code":"1760012","prefecture":"TOKYO TO","city":"NERIMA KU","town":"TOYOTAMAKITA","perfecture_jp":"東京都","jp_add_1":"練馬区","jp_add_2":"豊玉北"},"1760024":{"post_code":"1760024","prefecture":"TOKYO TO","city":"NERIMA KU","town":"NAKAMURA","perfecture_jp":"東京都","jp_add_1":"練馬区","jp_add_2":"中村"},"1760025":{"post_code":"1760025","prefecture":"TOKYO TO","city":"NERIMA KU","town":"NAKAMURAMINAMI","perfecture_jp":"東京都","jp_add_1":"練馬区","jp_add_2":"中村南"},"1760023":{"post_code":"1760023","prefecture":"TOKYO TO","city":"NERIMA KU","town":"NAKAMURAKITA","perfecture_jp":"東京都","jp_add_1":"練馬区","jp_add_2":"中村北"},"1760021":{"post_code":"1760021","prefecture":"TOKYO TO","city":"NERIMA KU","town":"NUKUI","perfecture_jp":"東京都","jp_add_1":"練馬区","jp_add_2":"貫井"},"1760001":{"post_code":"1760001","prefecture":"TOKYO TO","city":"NERIMA KU","town":"NERIMA","perfecture_jp":"東京都","jp_add_1":"練馬区","jp_add_2":"練馬"},"1760003":{"post_code":"1760003","prefecture":"TOKYO TO","city":"NERIMA KU","town":"HAZAWA","perfecture_jp":"東京都","jp_add_1":"練馬区","jp_add_2":"羽沢"}}