{"1770044":{"post_code":"1770044","prefecture":"TOKYO TO","city":"NERIMA KU","town":"KAMISHAKUJII","perfecture_jp":"東京都","jp_add_1":"練馬区","jp_add_2":"上石神井"},"1770043":{"post_code":"1770043","prefecture":"TOKYO TO","city":"NERIMA KU","town":"KAMISHAKUJIIMINAMICHO","perfecture_jp":"東京都","jp_add_1":"練馬区","jp_add_2":"上石神井南町"},"1770042":{"post_code":"1770042","prefecture":"TOKYO TO","city":"NERIMA KU","town":"SHIMOSHAKUJII","perfecture_jp":"東京都","jp_add_1":"練馬区","jp_add_2":"下石神井"},"1770045":{"post_code":"1770045","prefecture":"TOKYO TO","city":"NERIMA KU","town":"SHAKUJIIDAI","perfecture_jp":"東京都","jp_add_1":"練馬区","jp_add_2":"石神井台"},"1770041":{"post_code":"1770041","prefecture":"TOKYO TO","city":"NERIMA KU","town":"SHAKUJIIMACHI","perfecture_jp":"東京都","jp_add_1":"練馬区","jp_add_2":"石神井町"},"1770052":{"post_code":"1770052","prefecture":"TOKYO TO","city":"NERIMA KU","town":"SEKIMACHIHIGASHI","perfecture_jp":"東京都","jp_add_1":"練馬区","jp_add_2":"関町東"},"1770053":{"post_code":"1770053","prefecture":"TOKYO TO","city":"NERIMA KU","town":"SEKIMACHIMINAMI","perfecture_jp":"東京都","jp_add_1":"練馬区","jp_add_2":"関町南"},"1770051":{"post_code":"1770051","prefecture":"TOKYO TO","city":"NERIMA KU","town":"SEKIMACHIKITA","perfecture_jp":"東京都","jp_add_1":"練馬区","jp_add_2":"関町北"},"1770033":{"post_code":"1770033","prefecture":"TOKYO TO","city":"NERIMA KU","town":"TAKANODAI","perfecture_jp":"東京都","jp_add_1":"練馬区","jp_add_2":"高野台"},"1770054":{"post_code":"1770054","prefecture":"TOKYO TO","city":"NERIMA KU","town":"TATENOCHO","perfecture_jp":"東京都","jp_add_1":"練馬区","jp_add_2":"立野町"},"1770034":{"post_code":"1770034","prefecture":"TOKYO TO","city":"NERIMA KU","town":"FUJIMIDAI","perfecture_jp":"東京都","jp_add_1":"練馬区","jp_add_2":"富士見台"},"1770035":{"post_code":"1770035","prefecture":"TOKYO TO","city":"NERIMA KU","town":"MINAMITANAKA","perfecture_jp":"東京都","jp_add_1":"練馬区","jp_add_2":"南田中"},"1770031":{"post_code":"1770031","prefecture":"TOKYO TO","city":"NERIMA KU","town":"MIHARADAI","perfecture_jp":"東京都","jp_add_1":"練馬区","jp_add_2":"三原台"},"1770032":{"post_code":"1770032","prefecture":"TOKYO TO","city":"NERIMA KU","town":"YAHARA","perfecture_jp":"東京都","jp_add_1":"練馬区","jp_add_2":"谷原"}}