{"1810000":{"post_code":"1810000","prefecture":"TOKYO TO","city":"MITAKA SHI","town":"IKANIKEISAIGANAIBAAI","perfecture_jp":"東京都","jp_add_1":"三鷹市","jp_add_2":""},"1810011":{"post_code":"1810011","prefecture":"TOKYO TO","city":"MITAKA SHI","town":"IGUCHI","perfecture_jp":"東京都","jp_add_1":"三鷹市","jp_add_2":"井口"},"1810001":{"post_code":"1810001","prefecture":"TOKYO TO","city":"MITAKA SHI","town":"INOKASHIRA","perfecture_jp":"東京都","jp_add_1":"三鷹市","jp_add_2":"井の頭"},"1810015":{"post_code":"1810015","prefecture":"TOKYO TO","city":"MITAKA SHI","town":"OSAWA","perfecture_jp":"東京都","jp_add_1":"三鷹市","jp_add_2":"大沢"},"1810012":{"post_code":"1810012","prefecture":"TOKYO TO","city":"MITAKA SHI","town":"KAMIRENJAKU","perfecture_jp":"東京都","jp_add_1":"三鷹市","jp_add_2":"上連雀"},"1810003":{"post_code":"1810003","prefecture":"TOKYO TO","city":"MITAKA SHI","town":"KITANO","perfecture_jp":"東京都","jp_add_1":"三鷹市","jp_add_2":"北野"},"1810013":{"post_code":"1810013","prefecture":"TOKYO TO","city":"MITAKA SHI","town":"SHIMORENJAKU","perfecture_jp":"東京都","jp_add_1":"三鷹市","jp_add_2":"下連雀"},"1810004":{"post_code":"1810004","prefecture":"TOKYO TO","city":"MITAKA SHI","town":"SHINKAWA","perfecture_jp":"東京都","jp_add_1":"三鷹市","jp_add_2":"新川"},"1810016":{"post_code":"1810016","prefecture":"TOKYO TO","city":"MITAKA SHI","town":"JINDAIJI","perfecture_jp":"東京都","jp_add_1":"三鷹市","jp_add_2":"深大寺"},"1810005":{"post_code":"1810005","prefecture":"TOKYO TO","city":"MITAKA SHI","town":"NAKAHARA","perfecture_jp":"東京都","jp_add_1":"三鷹市","jp_add_2":"中原"},"1810014":{"post_code":"1810014","prefecture":"TOKYO TO","city":"MITAKA SHI","town":"NOZAKI","perfecture_jp":"東京都","jp_add_1":"三鷹市","jp_add_2":"野崎"},"1810002":{"post_code":"1810002","prefecture":"TOKYO TO","city":"MITAKA SHI","town":"MURE","perfecture_jp":"東京都","jp_add_1":"三鷹市","jp_add_2":"牟礼"}}