{"1860000":{"post_code":"1860000","prefecture":"TOKYO TO","city":"KUNITACHI SHI","town":"IKANIKEISAIGANAIBAAI","perfecture_jp":"東京都","jp_add_1":"国立市","jp_add_2":""},"1860013":{"post_code":"1860013","prefecture":"TOKYO TO","city":"KUNITACHI SHI","town":"AOYAGI","perfecture_jp":"東京都","jp_add_1":"国立市","jp_add_2":"青柳"},"1860014":{"post_code":"1860014","prefecture":"TOKYO TO","city":"KUNITACHI SHI","town":"ISHIDA","perfecture_jp":"東京都","jp_add_1":"国立市","jp_add_2":"石田"},"1860012":{"post_code":"1860012","prefecture":"TOKYO TO","city":"KUNITACHI SHI","town":"IZUMI","perfecture_jp":"東京都","jp_add_1":"国立市","jp_add_2":"泉"},"1860001":{"post_code":"1860001","prefecture":"TOKYO TO","city":"KUNITACHI SHI","town":"KITA","perfecture_jp":"東京都","jp_add_1":"国立市","jp_add_2":"北"},"1860004":{"post_code":"1860004","prefecture":"TOKYO TO","city":"KUNITACHI SHI","town":"NAKA","perfecture_jp":"東京都","jp_add_1":"国立市","jp_add_2":"中"},"1860005":{"post_code":"1860005","prefecture":"TOKYO TO","city":"KUNITACHI SHI","town":"NISHI","perfecture_jp":"東京都","jp_add_1":"国立市","jp_add_2":"西"},"1860002":{"post_code":"1860002","prefecture":"TOKYO TO","city":"KUNITACHI SHI","town":"HIGASHI","perfecture_jp":"東京都","jp_add_1":"国立市","jp_add_2":"東"},"1860003":{"post_code":"1860003","prefecture":"TOKYO TO","city":"KUNITACHI SHI","town":"FUJIMIDAI","perfecture_jp":"東京都","jp_add_1":"国立市","jp_add_2":"富士見台"},"1860015":{"post_code":"1860015","prefecture":"TOKYO TO","city":"KUNITACHI SHI","town":"YAGAWA","perfecture_jp":"東京都","jp_add_1":"国立市","jp_add_2":"矢川"},"1860011":{"post_code":"1860011","prefecture":"TOKYO TO","city":"KUNITACHI SHI","town":"YAHO","perfecture_jp":"東京都","jp_add_1":"国立市","jp_add_2":"谷保"}}