{"1890000":{"post_code":"1890000","prefecture":"TOKYO TO","city":"HIGASHIMURAYAMA SHI","town":"IKANIKEISAIGANAIBAAI","perfecture_jp":"東京都","jp_add_1":"東村山市","jp_add_2":""},"1890002":{"post_code":"1890002","prefecture":"TOKYO TO","city":"HIGASHIMURAYAMA SHI","town":"AOBACHO","perfecture_jp":"東京都","jp_add_1":"東村山市","jp_add_2":"青葉町"},"1890001":{"post_code":"1890001","prefecture":"TOKYO TO","city":"HIGASHIMURAYAMA SHI","town":"AKITSUCHO","perfecture_jp":"東京都","jp_add_1":"東村山市","jp_add_2":"秋津町"},"1890011":{"post_code":"1890011","prefecture":"TOKYO TO","city":"HIGASHIMURAYAMA SHI","town":"ONTACHO","perfecture_jp":"東京都","jp_add_1":"東村山市","jp_add_2":"恩多町"},"1890003":{"post_code":"1890003","prefecture":"TOKYO TO","city":"HIGASHIMURAYAMA SHI","town":"KUMEGAWACHO","perfecture_jp":"東京都","jp_add_1":"東村山市","jp_add_2":"久米川町"},"1890013":{"post_code":"1890013","prefecture":"TOKYO TO","city":"HIGASHIMURAYAMA SHI","town":"SAKAECHO","perfecture_jp":"東京都","jp_add_1":"東村山市","jp_add_2":"栄町"},"1890021":{"post_code":"1890021","prefecture":"TOKYO TO","city":"HIGASHIMURAYAMA SHI","town":"SUWACHO","perfecture_jp":"東京都","jp_add_1":"東村山市","jp_add_2":"諏訪町"},"1890026":{"post_code":"1890026","prefecture":"TOKYO TO","city":"HIGASHIMURAYAMA SHI","town":"TAMAKOCHO","perfecture_jp":"東京都","jp_add_1":"東村山市","jp_add_2":"多摩湖町"},"1890022":{"post_code":"1890022","prefecture":"TOKYO TO","city":"HIGASHIMURAYAMA SHI","town":"NOGUCHICHO","perfecture_jp":"東京都","jp_add_1":"東村山市","jp_add_2":"野口町"},"1890012":{"post_code":"1890012","prefecture":"TOKYO TO","city":"HIGASHIMURAYAMA SHI","town":"HAGIYAMACHO","perfecture_jp":"東京都","jp_add_1":"東村山市","jp_add_2":"萩山町"},"1890024":{"post_code":"1890024","prefecture":"TOKYO TO","city":"HIGASHIMURAYAMA SHI","town":"FUJIMICHO","perfecture_jp":"東京都","jp_add_1":"東村山市","jp_add_2":"富士見町"},"1890014":{"post_code":"1890014","prefecture":"TOKYO TO","city":"HIGASHIMURAYAMA SHI","town":"HONCHO","perfecture_jp":"東京都","jp_add_1":"東村山市","jp_add_2":"本町"},"1890023":{"post_code":"1890023","prefecture":"TOKYO TO","city":"HIGASHIMURAYAMA SHI","town":"MISUMICHO","perfecture_jp":"東京都","jp_add_1":"東村山市","jp_add_2":"美住町"},"1890025":{"post_code":"1890025","prefecture":"TOKYO TO","city":"HIGASHIMURAYAMA SHI","town":"MEGURITACHO","perfecture_jp":"東京都","jp_add_1":"東村山市","jp_add_2":"廻田町"}}