{"1900000":{"post_code":"1900000","prefecture":"TOKYO TO","city":"TACHIKAWA SHI","town":"IKANIKEISAIGANAIBAAI","perfecture_jp":"東京都","jp_add_1":"立川市","jp_add_2":""},"1900012":{"post_code":"1900012","prefecture":"TOKYO TO","city":"TACHIKAWA SHI","town":"AKEBONOCHO","perfecture_jp":"東京都","jp_add_1":"立川市","jp_add_2":"曙町"},"1900015":{"post_code":"1900015","prefecture":"TOKYO TO","city":"TACHIKAWA SHI","town":"IZUMICHO","perfecture_jp":"東京都","jp_add_1":"立川市","jp_add_2":"泉町"},"1900033":{"post_code":"1900033","prefecture":"TOKYO TO","city":"TACHIKAWA SHI","town":"ICHIBANCHO","perfecture_jp":"東京都","jp_add_1":"立川市","jp_add_2":"一番町"},"1900004":{"post_code":"1900004","prefecture":"TOKYO TO","city":"TACHIKAWA SHI","town":"KASHIWACHO","perfecture_jp":"東京都","jp_add_1":"立川市","jp_add_2":"柏町"},"1900032":{"post_code":"1900032","prefecture":"TOKYO TO","city":"TACHIKAWA SHI","town":"KAMISUNACHO","perfecture_jp":"東京都","jp_add_1":"立川市","jp_add_2":"上砂町"},"1900002":{"post_code":"1900002","prefecture":"TOKYO TO","city":"TACHIKAWA SHI","town":"SAIWAICHO","perfecture_jp":"東京都","jp_add_1":"立川市","jp_add_2":"幸町"},"1900003":{"post_code":"1900003","prefecture":"TOKYO TO","city":"TACHIKAWA SHI","town":"SAKAECHO","perfecture_jp":"東京都","jp_add_1":"立川市","jp_add_2":"栄町"},"1900023":{"post_code":"1900023","prefecture":"TOKYO TO","city":"TACHIKAWA SHI","town":"SHIBASAKICHO","perfecture_jp":"東京都","jp_add_1":"立川市","jp_add_2":"柴崎町"},"1900031":{"post_code":"1900031","prefecture":"TOKYO TO","city":"TACHIKAWA SHI","town":"SUNAGAWACHO","perfecture_jp":"東京都","jp_add_1":"立川市","jp_add_2":"砂川町"},"1900011":{"post_code":"1900011","prefecture":"TOKYO TO","city":"TACHIKAWA SHI","town":"TAKAMATSUCHO","perfecture_jp":"東京都","jp_add_1":"立川市","jp_add_2":"高松町"},"1900022":{"post_code":"1900022","prefecture":"TOKYO TO","city":"TACHIKAWA SHI","town":"NISHIKICHO","perfecture_jp":"東京都","jp_add_1":"立川市","jp_add_2":"錦町"},"1900034":{"post_code":"1900034","prefecture":"TOKYO TO","city":"TACHIKAWA SHI","town":"NISHISUNACHO","perfecture_jp":"東京都","jp_add_1":"立川市","jp_add_2":"西砂町"},"1900021":{"post_code":"1900021","prefecture":"TOKYO TO","city":"TACHIKAWA SHI","town":"HAGOROMOCHO","perfecture_jp":"東京都","jp_add_1":"立川市","jp_add_2":"羽衣町"},"1900013":{"post_code":"1900013","prefecture":"TOKYO TO","city":"TACHIKAWA SHI","town":"FUJIMICHO","perfecture_jp":"東京都","jp_add_1":"立川市","jp_add_2":"富士見町"},"1900014":{"post_code":"1900014","prefecture":"TOKYO TO","city":"TACHIKAWA SHI","town":"MIDORICHO","perfecture_jp":"東京都","jp_add_1":"立川市","jp_add_2":"緑町"},"1900001":{"post_code":"1900001","prefecture":"TOKYO TO","city":"TACHIKAWA SHI","town":"WAKABACHO","perfecture_jp":"東京都","jp_add_1":"立川市","jp_add_2":"若葉町"},"1900100":{"post_code":"1900100","prefecture":"TOKYO TO","city":"NISHITAMA GUN HINODE MACHI","town":"IKANIKEISAIGANAIBAAI","perfecture_jp":"東京都","jp_add_1":"あきる野市","jp_add_2":""},"1900155":{"post_code":"1900155","prefecture":"TOKYO TO","city":"AKIRUNO SHI","town":"AJIRO","perfecture_jp":"東京都","jp_add_1":"あきる野市","jp_add_2":"網代"},"1900164":{"post_code":"1900164","prefecture":"TOKYO TO","city":"AKIRUNO SHI","town":"ITSUKAICHI","perfecture_jp":"東京都","jp_add_1":"あきる野市","jp_add_2":"五日市"},"1900142":{"post_code":"1900142","prefecture":"TOKYO TO","city":"AKIRUNO SHI","town":"INA","perfecture_jp":"東京都","jp_add_1":"あきる野市","jp_add_2":"伊奈"},"1900161":{"post_code":"1900161","prefecture":"TOKYO TO","city":"AKIRUNO SHI","town":"IRINO","perfecture_jp":"東京都","jp_add_1":"あきる野市","jp_add_2":"入野"},"1900143":{"post_code":"1900143","prefecture":"TOKYO TO","city":"AKIRUNO SHI","town":"UENODAI","perfecture_jp":"東京都","jp_add_1":"あきる野市","jp_add_2":"上ノ台"},"1900174":{"post_code":"1900174","prefecture":"TOKYO TO","city":"AKIRUNO SHI","town":"OTSU","perfecture_jp":"東京都","jp_add_1":"あきる野市","jp_add_2":"乙津"},"1900165":{"post_code":"1900165","prefecture":"TOKYO TO","city":"AKIRUNO SHI","town":"KONAKANO","perfecture_jp":"東京都","jp_add_1":"あきる野市","jp_add_2":"小中野"},"1900153":{"post_code":"1900153","prefecture":"TOKYO TO","city":"AKIRUNO SHI","town":"KOMINEDAI","perfecture_jp":"東京都","jp_add_1":"あきる野市","jp_add_2":"小峰台"},"1900151":{"post_code":"1900151","prefecture":"TOKYO TO","city":"AKIRUNO SHI","town":"KOWADA","perfecture_jp":"東京都","jp_add_1":"あきる野市","jp_add_2":"小和田"},"1900162":{"post_code":"1900162","prefecture":"TOKYO TO","city":"AKIRUNO SHI","town":"SANNAI","perfecture_jp":"東京都","jp_add_1":"あきる野市","jp_add_2":"三内"},"1900154":{"post_code":"1900154","prefecture":"TOKYO TO","city":"AKIRUNO SHI","town":"TAKAO","perfecture_jp":"東京都","jp_add_1":"あきる野市","jp_add_2":"高尾"},"1900163":{"post_code":"1900163","prefecture":"TOKYO TO","city":"AKIRUNO SHI","town":"TATEYA","perfecture_jp":"東京都","jp_add_1":"あきる野市","jp_add_2":"舘谷"},"1900166":{"post_code":"1900166","prefecture":"TOKYO TO","city":"AKIRUNO SHI","town":"TATEYADAI","perfecture_jp":"東京都","jp_add_1":"あきる野市","jp_add_2":"舘谷台"},"1900173":{"post_code":"1900173","prefecture":"TOKYO TO","city":"AKIRUNO SHI","town":"TOKURA","perfecture_jp":"東京都","jp_add_1":"あきる野市","jp_add_2":"戸倉"},"1900152":{"post_code":"1900152","prefecture":"TOKYO TO","city":"AKIRUNO SHI","town":"TOTOHARA","perfecture_jp":"東京都","jp_add_1":"あきる野市","jp_add_2":"留原"},"1900172":{"post_code":"1900172","prefecture":"TOKYO TO","city":"AKIRUNO SHI","town":"FUKASAWA","perfecture_jp":"東京都","jp_add_1":"あきる野市","jp_add_2":"深沢"},"1900144":{"post_code":"1900144","prefecture":"TOKYO TO","city":"AKIRUNO SHI","town":"YAMADA","perfecture_jp":"東京都","jp_add_1":"あきる野市","jp_add_2":"山田"},"1900171":{"post_code":"1900171","prefecture":"TOKYO TO","city":"AKIRUNO SHI","town":"YOZAWA","perfecture_jp":"東京都","jp_add_1":"あきる野市","jp_add_2":"養沢"},"1900141":{"post_code":"1900141","prefecture":"TOKYO TO","city":"AKIRUNO SHI","town":"YOKOSAWA","perfecture_jp":"東京都","jp_add_1":"あきる野市","jp_add_2":"横沢"},"1901200":{"post_code":"1901200","prefecture":"TOKYO TO","city":"NISHITAMA GUN MIZUHO MACHI","town":"IKANIKEISAIGANAIBAAI","perfecture_jp":"東京都","jp_add_1":"西多摩郡瑞穂町","jp_add_2":""},"1901211":{"post_code":"1901211","prefecture":"TOKYO TO","city":"NISHITAMA GUN MIZUHO MACHI","town":"ISHIHATA","perfecture_jp":"東京都","jp_add_1":"西多摩郡瑞穂町","jp_add_2":"石畑"},"1901202":{"post_code":"1901202","prefecture":"TOKYO TO","city":"NISHITAMA GUN MIZUHO MACHI","town":"KOMAGATAFUJIYAMA","perfecture_jp":"東京都","jp_add_1":"西多摩郡瑞穂町","jp_add_2":"駒形富士山"},"1901203":{"post_code":"1901203","prefecture":"TOKYO TO","city":"NISHITAMA GUN MIZUHO MACHI","town":"TAKANE","perfecture_jp":"東京都","jp_add_1":"西多摩郡瑞穂町","jp_add_2":"高根"},"1901212":{"post_code":"1901212","prefecture":"TOKYO TO","city":"NISHITAMA GUN MIZUHO MACHI","town":"TONOGAYA","perfecture_jp":"東京都","jp_add_1":"西多摩郡瑞穂町","jp_add_2":"殿ケ谷"},"1901232":{"post_code":"1901232","prefecture":"TOKYO TO","city":"NISHITAMA GUN MIZUHO MACHI","town":"NAGAOKA","perfecture_jp":"東京都","jp_add_1":"西多摩郡瑞穂町","jp_add_2":"長岡"},"1901233":{"post_code":"1901233","prefecture":"TOKYO TO","city":"NISHITAMA GUN MIZUHO MACHI","town":"NAGAOKASHIMOMOROKA","perfecture_jp":"東京都","jp_add_1":"西多摩郡瑞穂町","jp_add_2":"長岡下師岡"},"1901231":{"post_code":"1901231","prefecture":"TOKYO TO","city":"NISHITAMA GUN MIZUHO MACHI","town":"NAGAOKAHASEBE","perfecture_jp":"東京都","jp_add_1":"西多摩郡瑞穂町","jp_add_2":"長岡長谷部"},"1901234":{"post_code":"1901234","prefecture":"TOKYO TO","city":"NISHITAMA GUN MIZUHO MACHI","town":"NAGAOKAFUJIHASHI","perfecture_jp":"東京都","jp_add_1":"西多摩郡瑞穂町","jp_add_2":"長岡藤橋"},"1901201":{"post_code":"1901201","prefecture":"TOKYO TO","city":"NISHITAMA GUN MIZUHO MACHI","town":"NIHONGI","perfecture_jp":"東京都","jp_add_1":"西多摩郡瑞穂町","jp_add_2":"二本木"},"1901221":{"post_code":"1901221","prefecture":"TOKYO TO","city":"NISHITAMA GUN MIZUHO MACHI","town":"HAKONEGASAKI","perfecture_jp":"東京都","jp_add_1":"西多摩郡瑞穂町","jp_add_2":"箱根ケ崎"},"1901222":{"post_code":"1901222","prefecture":"TOKYO TO","city":"NISHITAMA GUN MIZUHO MACHI","town":"HAKONEGASAKI HIGASHIMATSUBARA","perfecture_jp":"東京都","jp_add_1":"西多摩郡瑞穂町","jp_add_2":"箱根ケ崎東松原"},"1901223":{"post_code":"1901223","prefecture":"TOKYO TO","city":"NISHITAMA GUN MIZUHO MACHI","town":"HAKONEGASAKI NISHIMATSUBARA","perfecture_jp":"東京都","jp_add_1":"西多摩郡瑞穂町","jp_add_2":"箱根ケ崎西松原"},"1901204":{"post_code":"1901204","prefecture":"TOKYO TO","city":"NISHITAMA GUN MIZUHO MACHI","town":"FUJIYAMAKURIHARASHINDEN","perfecture_jp":"東京都","jp_add_1":"西多摩郡瑞穂町","jp_add_2":"富士山栗原新田"},"1901224":{"post_code":"1901224","prefecture":"TOKYO TO","city":"NISHITAMA GUN MIZUHO MACHI","town":"MINAMIDAIRA","perfecture_jp":"東京都","jp_add_1":"西多摩郡瑞穂町","jp_add_2":"南平"},"1901213":{"post_code":"1901213","prefecture":"TOKYO TO","city":"NISHITAMA GUN MIZUHO MACHI","town":"MUSASHI","perfecture_jp":"東京都","jp_add_1":"西多摩郡瑞穂町","jp_add_2":"武蔵"},"1901214":{"post_code":"1901214","prefecture":"TOKYO TO","city":"NISHITAMA GUN MIZUHO MACHI","town":"MUSASHINO","perfecture_jp":"東京都","jp_add_1":"西多摩郡瑞穂町","jp_add_2":"むさし野"},"1900181":{"post_code":"1900181","prefecture":"TOKYO TO","city":"NISHITAMA GUN HINODE MACHI","town":"OGUNO","perfecture_jp":"東京都","jp_add_1":"西多摩郡日の出町","jp_add_2":"大久野"},"1900182":{"post_code":"1900182","prefecture":"TOKYO TO","city":"NISHITAMA GUN HINODE MACHI","town":"HIRAI","perfecture_jp":"東京都","jp_add_1":"西多摩郡日の出町","jp_add_2":"平井"},"1900200":{"post_code":"1900200","prefecture":"TOKYO TO","city":"NISHITAMA GUN HINOHARA MURA","town":"IKANIKEISAIGANAIBAAI","perfecture_jp":"東京都","jp_add_1":"西多摩郡檜原村","jp_add_2":""},"1900204":{"post_code":"1900204","prefecture":"TOKYO TO","city":"NISHITAMA GUN HINOHARA MURA","town":"OZAWA","perfecture_jp":"東京都","jp_add_1":"西多摩郡檜原村","jp_add_2":"小沢"},"1900221":{"post_code":"1900221","prefecture":"TOKYO TO","city":"NISHITAMA GUN HINOHARA MURA","town":"KAZUMA","perfecture_jp":"東京都","jp_add_1":"西多摩郡檜原村","jp_add_2":"数馬"},"1900203":{"post_code":"1900203","prefecture":"TOKYO TO","city":"NISHITAMA GUN HINOHARA MURA","town":"KANOTO","perfecture_jp":"東京都","jp_add_1":"西多摩郡檜原村","jp_add_2":"神戸"},"1900212":{"post_code":"1900212","prefecture":"TOKYO TO","city":"NISHITAMA GUN HINOHARA MURA","town":"KAMIMOTOGO","perfecture_jp":"東京都","jp_add_1":"西多摩郡檜原村","jp_add_2":"上元郷"},"1900201":{"post_code":"1900201","prefecture":"TOKYO TO","city":"NISHITAMA GUN HINOHARA MURA","town":"KURAKAKE","perfecture_jp":"東京都","jp_add_1":"西多摩郡檜原村","jp_add_2":"倉掛"},"1900213":{"post_code":"1900213","prefecture":"TOKYO TO","city":"NISHITAMA GUN HINOHARA MURA","town":"SHIMOMOTOGO","perfecture_jp":"東京都","jp_add_1":"西多摩郡檜原村","jp_add_2":"下元郷"},"1900223":{"post_code":"1900223","prefecture":"TOKYO TO","city":"NISHITAMA GUN HINOHARA MURA","town":"NANGO","perfecture_jp":"東京都","jp_add_1":"西多摩郡檜原村","jp_add_2":"南郷"},"1900205":{"post_code":"1900205","prefecture":"TOKYO TO","city":"NISHITAMA GUN HINOHARA MURA","town":"HIZATO","perfecture_jp":"東京都","jp_add_1":"西多摩郡檜原村","jp_add_2":"樋里"},"1900202":{"post_code":"1900202","prefecture":"TOKYO TO","city":"NISHITAMA GUN HINOHARA MURA","town":"FUJIWARA","perfecture_jp":"東京都","jp_add_1":"西多摩郡檜原村","jp_add_2":"藤原"},"1900222":{"post_code":"1900222","prefecture":"TOKYO TO","city":"NISHITAMA GUN HINOHARA MURA","town":"HEMBORI","perfecture_jp":"東京都","jp_add_1":"西多摩郡檜原村","jp_add_2":"人里"},"1900211":{"post_code":"1900211","prefecture":"TOKYO TO","city":"NISHITAMA GUN HINOHARA MURA","town":"MITSUGO","perfecture_jp":"東京都","jp_add_1":"西多摩郡檜原村","jp_add_2":"三都郷"},"1900214":{"post_code":"1900214","prefecture":"TOKYO TO","city":"NISHITAMA GUN HINOHARA MURA","town":"MOTOSHUKU","perfecture_jp":"東京都","jp_add_1":"西多摩郡檜原村","jp_add_2":"本宿"}}