{"1920000":{"post_code":"1920000","prefecture":"TOKYO TO","city":"HACHIOJI SHI","town":"IKANIKEISAIGANAIBAAI","perfecture_jp":"東京都","jp_add_1":"八王子市","jp_add_2":""},"1920043":{"post_code":"1920043","prefecture":"TOKYO TO","city":"HACHIOJI SHI","town":"AKATSUKICHO","perfecture_jp":"東京都","jp_add_1":"八王子市","jp_add_2":"暁町"},"1920083":{"post_code":"1920083","prefecture":"TOKYO TO","city":"HACHIOJI SHI","town":"ASAHICHO","perfecture_jp":"東京都","jp_add_1":"八王子市","jp_add_2":"旭町"},"1920082":{"post_code":"1920082","prefecture":"TOKYO TO","city":"HACHIOJI SHI","town":"AZUMACHO","perfecture_jp":"東京都","jp_add_1":"八王子市","jp_add_2":"東町"},"1920032":{"post_code":"1920032","prefecture":"TOKYO TO","city":"HACHIOJI SHI","town":"ISHIKAWAMACHI","perfecture_jp":"東京都","jp_add_1":"八王子市","jp_add_2":"石川町"},"1920902":{"post_code":"1920902","prefecture":"TOKYO TO","city":"HACHIOJI SHI","town":"UENOMACHI","perfecture_jp":"東京都","jp_add_1":"八王子市","jp_add_2":"上野町"},"1920911":{"post_code":"1920911","prefecture":"TOKYO TO","city":"HACHIOJI SHI","town":"UCHIKOSHIMACHI","perfecture_jp":"東京都","jp_add_1":"八王子市","jp_add_2":"打越町"},"1920024":{"post_code":"1920024","prefecture":"TOKYO TO","city":"HACHIOJI SHI","town":"UTSUKIMACHI","perfecture_jp":"東京都","jp_add_1":"八王子市","jp_add_2":"宇津木町"},"1920915":{"post_code":"1920915","prefecture":"TOKYO TO","city":"HACHIOJI SHI","town":"UTSUNUKIMACHI","perfecture_jp":"東京都","jp_add_1":"八王子市","jp_add_2":"宇津貫町"},"1920013":{"post_code":"1920013","prefecture":"TOKYO TO","city":"HACHIOJI SHI","town":"UMETSUBOMACHI","perfecture_jp":"東京都","jp_add_1":"八王子市","jp_add_2":"梅坪町"},"1920056":{"post_code":"1920056","prefecture":"TOKYO TO","city":"HACHIOJI SHI","town":"OIWAKECHO","perfecture_jp":"東京都","jp_add_1":"八王子市","jp_add_2":"追分町"},"1920352":{"post_code":"1920352","prefecture":"TOKYO TO","city":"HACHIOJI SHI","town":"OTSUKA","perfecture_jp":"東京都","jp_add_1":"八王子市","jp_add_2":"大塚"},"1920034":{"post_code":"1920034","prefecture":"TOKYO TO","city":"HACHIOJI SHI","town":"OYAMACHI","perfecture_jp":"東京都","jp_add_1":"八王子市","jp_add_2":"大谷町"},"1920062":{"post_code":"1920062","prefecture":"TOKYO TO","city":"HACHIOJI SHI","town":"OYOKOCHO","perfecture_jp":"東京都","jp_add_1":"八王子市","jp_add_2":"大横町"},"1920045":{"post_code":"1920045","prefecture":"TOKYO TO","city":"HACHIOJI SHI","town":"OWADAMACHI","perfecture_jp":"東京都","jp_add_1":"八王子市","jp_add_2":"大和田町"},"1920054":{"post_code":"1920054","prefecture":"TOKYO TO","city":"HACHIOJI SHI","town":"OKADOMACHI","perfecture_jp":"東京都","jp_add_1":"八王子市","jp_add_2":"小門町"},"1920025":{"post_code":"1920025","prefecture":"TOKYO TO","city":"HACHIOJI SHI","town":"OSAKIMACHI","perfecture_jp":"東京都","jp_add_1":"八王子市","jp_add_2":"尾崎町"},"1920155":{"post_code":"1920155","prefecture":"TOKYO TO","city":"HACHIOJI SHI","town":"OTSUMACHI","perfecture_jp":"東京都","jp_add_1":"八王子市","jp_add_2":"小津町"},"1920353":{"post_code":"1920353","prefecture":"TOKYO TO","city":"HACHIOJI SHI","town":"KASHIMA","perfecture_jp":"東京都","jp_add_1":"八王子市","jp_add_2":"鹿島"},"1920004":{"post_code":"1920004","prefecture":"TOKYO TO","city":"HACHIOJI SHI","town":"KASUMIMACHI","perfecture_jp":"東京都","jp_add_1":"八王子市","jp_add_2":"加住町"},"1920914":{"post_code":"1920914","prefecture":"TOKYO TO","city":"HACHIOJI SHI","town":"KATAKURAMACHI","perfecture_jp":"東京都","jp_add_1":"八王子市","jp_add_2":"片倉町"},"1920156":{"post_code":"1920156","prefecture":"TOKYO TO","city":"HACHIOJI SHI","town":"KAMIONGATAMACHI","perfecture_jp":"東京都","jp_add_1":"八王子市","jp_add_2":"上恩方町"},"1920151":{"post_code":"1920151","prefecture":"TOKYO TO","city":"HACHIOJI SHI","town":"KAMIKAWAMACHI","perfecture_jp":"東京都","jp_add_1":"八王子市","jp_add_2":"上川町"},"1920373":{"post_code":"1920373","prefecture":"TOKYO TO","city":"HACHIOJI SHI","town":"KAMIYUGI","perfecture_jp":"東京都","jp_add_1":"八王子市","jp_add_2":"上柚木"},"1920913":{"post_code":"1920913","prefecture":"TOKYO TO","city":"HACHIOJI SHI","town":"KITANODAI","perfecture_jp":"東京都","jp_add_1":"八王子市","jp_add_2":"北野台"},"1920906":{"post_code":"1920906","prefecture":"TOKYO TO","city":"HACHIOJI SHI","town":"KITANOMACHI","perfecture_jp":"東京都","jp_add_1":"八王子市","jp_add_2":"北野町"},"1920912":{"post_code":"1920912","prefecture":"TOKYO TO","city":"HACHIOJI SHI","town":"KINUGAOKA","perfecture_jp":"東京都","jp_add_1":"八王子市","jp_add_2":"絹ケ丘"},"1920023":{"post_code":"1920023","prefecture":"TOKYO TO","city":"HACHIOJI SHI","town":"KUBOYAMACHO","perfecture_jp":"東京都","jp_add_1":"八王子市","jp_add_2":"久保山町"},"1920361":{"post_code":"1920361","prefecture":"TOKYO TO","city":"HACHIOJI SHI","town":"KOSHINO","perfecture_jp":"東京都","jp_add_1":"八王子市","jp_add_2":"越野"},"1920031":{"post_code":"1920031","prefecture":"TOKYO TO","city":"HACHIOJI SHI","town":"KOMIYAMACHI","perfecture_jp":"東京都","jp_add_1":"八王子市","jp_add_2":"小宮町"},"1920904":{"post_code":"1920904","prefecture":"TOKYO TO","city":"HACHIOJI SHI","town":"KOYASUMACHI","perfecture_jp":"東京都","jp_add_1":"八王子市","jp_add_2":"子安町"},"1920012":{"post_code":"1920012","prefecture":"TOKYO TO","city":"HACHIOJI SHI","town":"SANYUMACHI","perfecture_jp":"東京都","jp_add_1":"八王子市","jp_add_2":"左入町"},"1920154":{"post_code":"1920154","prefecture":"TOKYO TO","city":"HACHIOJI SHI","town":"SHIMONGATAMACHI","perfecture_jp":"東京都","jp_add_1":"八王子市","jp_add_2":"下恩方町"},"1920372":{"post_code":"1920372","prefecture":"TOKYO TO","city":"HACHIOJI SHI","town":"SHIMOYUGI","perfecture_jp":"東京都","jp_add_1":"八王子市","jp_add_2":"下柚木"},"1920065":{"post_code":"1920065","prefecture":"TOKYO TO","city":"HACHIOJI SHI","town":"SHINCHO","perfecture_jp":"東京都","jp_add_1":"八王子市","jp_add_2":"新町"},"1920022":{"post_code":"1920022","prefecture":"TOKYO TO","city":"HACHIOJI SHI","town":"TAIRAMACHI","perfecture_jp":"東京都","jp_add_1":"八王子市","jp_add_2":"平町"},"1920033":{"post_code":"1920033","prefecture":"TOKYO TO","city":"HACHIOJI SHI","town":"TAKAKURAMACHI","perfecture_jp":"東京都","jp_add_1":"八王子市","jp_add_2":"高倉町"},"1920002":{"post_code":"1920002","prefecture":"TOKYO TO","city":"HACHIOJI SHI","town":"TAKATSUKIMACHI","perfecture_jp":"東京都","jp_add_1":"八王子市","jp_add_2":"高月町"},"1920011":{"post_code":"1920011","prefecture":"TOKYO TO","city":"HACHIOJI SHI","town":"TAKIYAMAMACHI","perfecture_jp":"東京都","jp_add_1":"八王子市","jp_add_2":"滝山町"},"1920064":{"post_code":"1920064","prefecture":"TOKYO TO","city":"HACHIOJI SHI","town":"TAMACHI","perfecture_jp":"東京都","jp_add_1":"八王子市","jp_add_2":"田町"},"1920003":{"post_code":"1920003","prefecture":"TOKYO TO","city":"HACHIOJI SHI","town":"TANGIMACHI","perfecture_jp":"東京都","jp_add_1":"八王子市","jp_add_2":"丹木町"},"1920073":{"post_code":"1920073","prefecture":"TOKYO TO","city":"HACHIOJI SHI","town":"TERAMACHI","perfecture_jp":"東京都","jp_add_1":"八王子市","jp_add_2":"寺町"},"1920074":{"post_code":"1920074","prefecture":"TOKYO TO","city":"HACHIOJI SHI","town":"TENJINCHO","perfecture_jp":"東京都","jp_add_1":"八王子市","jp_add_2":"天神町"},"1920001":{"post_code":"1920001","prefecture":"TOKYO TO","city":"HACHIOJI SHI","town":"TOBUKIMACHI","perfecture_jp":"東京都","jp_add_1":"八王子市","jp_add_2":"戸吹町"},"1920085":{"post_code":"1920085","prefecture":"TOKYO TO","city":"HACHIOJI SHI","town":"NAKACHO","perfecture_jp":"東京都","jp_add_1":"八王子市","jp_add_2":"中町"},"1920041":{"post_code":"1920041","prefecture":"TOKYO TO","city":"HACHIOJI SHI","town":"NAKANO KAMICHO","perfecture_jp":"東京都","jp_add_1":"八王子市","jp_add_2":"中野上町"},"1920042":{"post_code":"1920042","prefecture":"TOKYO TO","city":"HACHIOJI SHI","town":"NAKANO SANNO","perfecture_jp":"東京都","jp_add_1":"八王子市","jp_add_2":"中野山王"},"1920015":{"post_code":"1920015","prefecture":"TOKYO TO","city":"HACHIOJI SHI","town":"NAKANOMACHI","perfecture_jp":"東京都","jp_add_1":"八王子市","jp_add_2":"中野町"},"1920374":{"post_code":"1920374","prefecture":"TOKYO TO","city":"HACHIOJI SHI","town":"NAKAYAMA","perfecture_jp":"東京都","jp_add_1":"八王子市","jp_add_2":"中山"},"1920907":{"post_code":"1920907","prefecture":"TOKYO TO","city":"HACHIOJI SHI","town":"NAGANUMAMACHI","perfecture_jp":"東京都","jp_add_1":"八王子市","jp_add_2":"長沼町"},"1920919":{"post_code":"1920919","prefecture":"TOKYO TO","city":"HACHIOJI SHI","town":"NANAKUNI","perfecture_jp":"東京都","jp_add_1":"八王子市","jp_add_2":"七国"},"1920371":{"post_code":"1920371","prefecture":"TOKYO TO","city":"HACHIOJI SHI","town":"NANYODAI","perfecture_jp":"東京都","jp_add_1":"八王子市","jp_add_2":"南陽台"},"1920917":{"post_code":"1920917","prefecture":"TOKYO TO","city":"HACHIOJI SHI","town":"NISHIKATAKURA","perfecture_jp":"東京都","jp_add_1":"八王子市","jp_add_2":"西片倉"},"1920153":{"post_code":"1920153","prefecture":"TOKYO TO","city":"HACHIOJI SHI","town":"NISHITERAKATAMACHI","perfecture_jp":"東京都","jp_add_1":"八王子市","jp_add_2":"西寺方町"},"1920053":{"post_code":"1920053","prefecture":"TOKYO TO","city":"HACHIOJI SHI","town":"HACHIMANCHO","perfecture_jp":"東京都","jp_add_1":"八王子市","jp_add_2":"八幡町"},"1920351":{"post_code":"1920351","prefecture":"TOKYO TO","city":"HACHIOJI SHI","town":"HIGASHINAKANO","perfecture_jp":"東京都","jp_add_1":"八王子市","jp_add_2":"東中野"},"1920918":{"post_code":"1920918","prefecture":"TOKYO TO","city":"HACHIOJI SHI","town":"HYOE","perfecture_jp":"東京都","jp_add_1":"八王子市","jp_add_2":"兵衛"},"1920061":{"post_code":"1920061","prefecture":"TOKYO TO","city":"HACHIOJI SHI","town":"HIRAOKACHO","perfecture_jp":"東京都","jp_add_1":"八王子市","jp_add_2":"平岡町"},"1920044":{"post_code":"1920044","prefecture":"TOKYO TO","city":"HACHIOJI SHI","town":"FUJIMICHO","perfecture_jp":"東京都","jp_add_1":"八王子市","jp_add_2":"富士見町"},"1920363":{"post_code":"1920363","prefecture":"TOKYO TO","city":"HACHIOJI SHI","town":"BESSHO","perfecture_jp":"東京都","jp_add_1":"八王子市","jp_add_2":"別所"},"1920355":{"post_code":"1920355","prefecture":"TOKYO TO","city":"HACHIOJI SHI","town":"HORINOCHI","perfecture_jp":"東京都","jp_add_1":"八王子市","jp_add_2":"堀之内"},"1920052":{"post_code":"1920052","prefecture":"TOKYO TO","city":"HACHIOJI SHI","town":"HONGOCHO","perfecture_jp":"東京都","jp_add_1":"八王子市","jp_add_2":"本郷町"},"1920066":{"post_code":"1920066","prefecture":"TOKYO TO","city":"HACHIOJI SHI","town":"HONCHO","perfecture_jp":"東京都","jp_add_1":"八王子市","jp_add_2":"本町"},"1920354":{"post_code":"1920354","prefecture":"TOKYO TO","city":"HACHIOJI SHI","town":"MATSUGAYA","perfecture_jp":"東京都","jp_add_1":"八王子市","jp_add_2":"松が谷"},"1920362":{"post_code":"1920362","prefecture":"TOKYO TO","city":"HACHIOJI SHI","town":"MATSUGI","perfecture_jp":"東京都","jp_add_1":"八王子市","jp_add_2":"松木"},"1920021":{"post_code":"1920021","prefecture":"TOKYO TO","city":"HACHIOJI SHI","town":"MARUYAMACHO","perfecture_jp":"東京都","jp_add_1":"八王子市","jp_add_2":"丸山町"},"1920084":{"post_code":"1920084","prefecture":"TOKYO TO","city":"HACHIOJI SHI","town":"MISAKICHO","perfecture_jp":"東京都","jp_add_1":"八王子市","jp_add_2":"三崎町"},"1920014":{"post_code":"1920014","prefecture":"TOKYO TO","city":"HACHIOJI SHI","town":"MITSUIDAI","perfecture_jp":"東京都","jp_add_1":"八王子市","jp_add_2":"みつい台"},"1920364":{"post_code":"1920364","prefecture":"TOKYO TO","city":"HACHIOJI SHI","town":"MINAMIOSAWA","perfecture_jp":"東京都","jp_add_1":"八王子市","jp_add_2":"南大沢"},"1920075":{"post_code":"1920075","prefecture":"TOKYO TO","city":"HACHIOJI SHI","town":"MINAMISHINCHO","perfecture_jp":"東京都","jp_add_1":"八王子市","jp_add_2":"南新町"},"1920072":{"post_code":"1920072","prefecture":"TOKYO TO","city":"HACHIOJI SHI","town":"MINAMICHO","perfecture_jp":"東京都","jp_add_1":"八王子市","jp_add_2":"南町"},"1920916":{"post_code":"1920916","prefecture":"TOKYO TO","city":"HACHIOJI SHI","town":"MINAMINO","perfecture_jp":"東京都","jp_add_1":"八王子市","jp_add_2":"みなみ野"},"1920005":{"post_code":"1920005","prefecture":"TOKYO TO","city":"HACHIOJI SHI","town":"MIYASHITAMACHI","perfecture_jp":"東京都","jp_add_1":"八王子市","jp_add_2":"宮下町"},"1920152":{"post_code":"1920152","prefecture":"TOKYO TO","city":"HACHIOJI SHI","town":"MIYAMACHO","perfecture_jp":"東京都","jp_add_1":"八王子市","jp_add_2":"美山町"},"1920046":{"post_code":"1920046","prefecture":"TOKYO TO","city":"HACHIOJI SHI","town":"MYOJINCHO","perfecture_jp":"東京都","jp_add_1":"八王子市","jp_add_2":"明神町"},"1920051":{"post_code":"1920051","prefecture":"TOKYO TO","city":"HACHIOJI SHI","town":"MOTOHONGOCHO","perfecture_jp":"東京都","jp_add_1":"八王子市","jp_add_2":"元本郷町"},"1920063":{"post_code":"1920063","prefecture":"TOKYO TO","city":"HACHIOJI SHI","town":"MOTOYOKOYAMACHO","perfecture_jp":"東京都","jp_add_1":"八王子市","jp_add_2":"元横山町"},"1920055":{"post_code":"1920055","prefecture":"TOKYO TO","city":"HACHIOJI SHI","town":"YAGICHO","perfecture_jp":"東京都","jp_add_1":"八王子市","jp_add_2":"八木町"},"1920016":{"post_code":"1920016","prefecture":"TOKYO TO","city":"HACHIOJI SHI","town":"YANOMACHI","perfecture_jp":"東京都","jp_add_1":"八王子市","jp_add_2":"谷野町"},"1920375":{"post_code":"1920375","prefecture":"TOKYO TO","city":"HACHIOJI SHI","town":"YARIMIZU","perfecture_jp":"東京都","jp_add_1":"八王子市","jp_add_2":"鑓水"},"1920071":{"post_code":"1920071","prefecture":"TOKYO TO","city":"HACHIOJI SHI","town":"YOKAMACHI","perfecture_jp":"東京都","jp_add_1":"八王子市","jp_add_2":"八日町"},"1920081":{"post_code":"1920081","prefecture":"TOKYO TO","city":"HACHIOJI SHI","town":"YOKOYAMACHO","perfecture_jp":"東京都","jp_add_1":"八王子市","jp_add_2":"横山町"},"1920903":{"post_code":"1920903","prefecture":"TOKYO TO","city":"HACHIOJI SHI","town":"YOROZUCHO","perfecture_jp":"東京都","jp_add_1":"八王子市","jp_add_2":"万町"}}