{"1940000":{"post_code":"1940000","prefecture":"TOKYO TO","city":"MACHIDA SHI","town":"IKANIKEISAIGANAIBAAI","perfecture_jp":"東京都","jp_add_1":"町田市","jp_add_2":""},"1940211":{"post_code":"1940211","prefecture":"TOKYO TO","city":"MACHIDA SHI","town":"AIHARAMACHI","perfecture_jp":"東京都","jp_add_1":"町田市","jp_add_2":"相原町"},"1940023":{"post_code":"1940023","prefecture":"TOKYO TO","city":"MACHIDA SHI","town":"ASAHIMACHI","perfecture_jp":"東京都","jp_add_1":"町田市","jp_add_2":"旭町"},"1940003":{"post_code":"1940003","prefecture":"TOKYO TO","city":"MACHIDA SHI","town":"OGAWA","perfecture_jp":"東京都","jp_add_1":"町田市","jp_add_2":"小川"},"1940215":{"post_code":"1940215","prefecture":"TOKYO TO","city":"MACHIDA SHI","town":"OYAMAGAOKA","perfecture_jp":"東京都","jp_add_1":"町田市","jp_add_2":"小山ヶ丘"},"1940204":{"post_code":"1940204","prefecture":"TOKYO TO","city":"MACHIDA SHI","town":"OYAMADASAKURADAI","perfecture_jp":"東京都","jp_add_1":"町田市","jp_add_2":"小山田桜台"},"1940212":{"post_code":"1940212","prefecture":"TOKYO TO","city":"MACHIDA SHI","town":"OYAMAMACHI","perfecture_jp":"東京都","jp_add_1":"町田市","jp_add_2":"小山町"},"1940012":{"post_code":"1940012","prefecture":"TOKYO TO","city":"MACHIDA SHI","town":"KANAMORI","perfecture_jp":"東京都","jp_add_1":"町田市","jp_add_2":"金森"},"1940015":{"post_code":"1940015","prefecture":"TOKYO TO","city":"MACHIDA SHI","town":"KANAMORIHIGASHI","perfecture_jp":"東京都","jp_add_1":"町田市","jp_add_2":"金森東"},"1940201":{"post_code":"1940201","prefecture":"TOKYO TO","city":"MACHIDA SHI","town":"KAMIOYAMADAMACHI","perfecture_jp":"東京都","jp_add_1":"町田市","jp_add_2":"上小山田町"},"1940037":{"post_code":"1940037","prefecture":"TOKYO TO","city":"MACHIDA SHI","town":"KISONISHI","perfecture_jp":"東京都","jp_add_1":"町田市","jp_add_2":"木曽西"},"1940036":{"post_code":"1940036","prefecture":"TOKYO TO","city":"MACHIDA SHI","town":"KISOHIGASHI","perfecture_jp":"東京都","jp_add_1":"町田市","jp_add_2":"木曽東"},"1940033":{"post_code":"1940033","prefecture":"TOKYO TO","city":"MACHIDA SHI","town":"KISOMACHI","perfecture_jp":"東京都","jp_add_1":"町田市","jp_add_2":"木曽町"},"1940014":{"post_code":"1940014","prefecture":"TOKYO TO","city":"MACHIDA SHI","town":"KOGASAKA","perfecture_jp":"東京都","jp_add_1":"町田市","jp_add_2":"高ヶ坂"},"1940202":{"post_code":"1940202","prefecture":"TOKYO TO","city":"MACHIDA SHI","town":"SHIMOYAMADAMACHI","perfecture_jp":"東京都","jp_add_1":"町田市","jp_add_2":"下小山田町"},"1940203":{"post_code":"1940203","prefecture":"TOKYO TO","city":"MACHIDA SHI","town":"ZUSHIMACHI","perfecture_jp":"東京都","jp_add_1":"町田市","jp_add_2":"図師町"},"1940035":{"post_code":"1940035","prefecture":"TOKYO TO","city":"MACHIDA SHI","town":"TADAO","perfecture_jp":"東京都","jp_add_1":"町田市","jp_add_2":"忠生"},"1940041":{"post_code":"1940041","prefecture":"TOKYO TO","city":"MACHIDA SHI","town":"TAMAGAWAGAKUEN","perfecture_jp":"東京都","jp_add_1":"町田市","jp_add_2":"玉川学園"},"1940001":{"post_code":"1940001","prefecture":"TOKYO TO","city":"MACHIDA SHI","town":"TSUKUSHINO","perfecture_jp":"東京都","jp_add_1":"町田市","jp_add_2":"つくし野"},"1940004":{"post_code":"1940004","prefecture":"TOKYO TO","city":"MACHIDA SHI","town":"TSURUMA","perfecture_jp":"東京都","jp_add_1":"町田市","jp_add_2":"鶴間"},"1940213":{"post_code":"1940213","prefecture":"TOKYO TO","city":"MACHIDA SHI","town":"TOKIWAMACHI","perfecture_jp":"東京都","jp_add_1":"町田市","jp_add_2":"常盤町"},"1940021":{"post_code":"1940021","prefecture":"TOKYO TO","city":"MACHIDA SHI","town":"NAKAMACHI","perfecture_jp":"東京都","jp_add_1":"町田市","jp_add_2":"中町"},"1940044":{"post_code":"1940044","prefecture":"TOKYO TO","city":"MACHIDA SHI","town":"NARUSE","perfecture_jp":"東京都","jp_add_1":"町田市","jp_add_2":"成瀬"},"1940011":{"post_code":"1940011","prefecture":"TOKYO TO","city":"MACHIDA SHI","town":"NARUSEGAOKA","perfecture_jp":"東京都","jp_add_1":"町田市","jp_add_2":"成瀬が丘"},"1940043":{"post_code":"1940043","prefecture":"TOKYO TO","city":"MACHIDA SHI","town":"NARUSEDAI","perfecture_jp":"東京都","jp_add_1":"町田市","jp_add_2":"成瀬台"},"1940046":{"post_code":"1940046","prefecture":"TOKYO TO","city":"MACHIDA SHI","town":"NISHINARUSE","perfecture_jp":"東京都","jp_add_1":"町田市","jp_add_2":"西成瀬"},"1940038":{"post_code":"1940038","prefecture":"TOKYO TO","city":"MACHIDA SHI","town":"NEGISHI","perfecture_jp":"東京都","jp_add_1":"町田市","jp_add_2":"根岸"},"1940034":{"post_code":"1940034","prefecture":"TOKYO TO","city":"MACHIDA SHI","town":"NEGISHIMACHI","perfecture_jp":"東京都","jp_add_1":"町田市","jp_add_2":"根岸町"},"1940013":{"post_code":"1940013","prefecture":"TOKYO TO","city":"MACHIDA SHI","town":"HARAMACHIDA","perfecture_jp":"東京都","jp_add_1":"町田市","jp_add_2":"原町田"},"1940042":{"post_code":"1940042","prefecture":"TOKYO TO","city":"MACHIDA SHI","town":"HIGASHITAMAGAWAGAKUEN","perfecture_jp":"東京都","jp_add_1":"町田市","jp_add_2":"東玉川学園"},"1940032":{"post_code":"1940032","prefecture":"TOKYO TO","city":"MACHIDA SHI","town":"HOMMACHIDA","perfecture_jp":"東京都","jp_add_1":"町田市","jp_add_2":"本町田"},"1940031":{"post_code":"1940031","prefecture":"TOKYO TO","city":"MACHIDA SHI","town":"MINAMIOYA","perfecture_jp":"東京都","jp_add_1":"町田市","jp_add_2":"南大谷"},"1940002":{"post_code":"1940002","prefecture":"TOKYO TO","city":"MACHIDA SHI","town":"MINAMITSUKUSHINO","perfecture_jp":"東京都","jp_add_1":"町田市","jp_add_2":"南つくし野"},"1940045":{"post_code":"1940045","prefecture":"TOKYO TO","city":"MACHIDA SHI","town":"MINAMINARUSE","perfecture_jp":"東京都","jp_add_1":"町田市","jp_add_2":"南成瀬"},"1940022":{"post_code":"1940022","prefecture":"TOKYO TO","city":"MACHIDA SHI","town":"MORINO","perfecture_jp":"東京都","jp_add_1":"町田市","jp_add_2":"森野"},"1940214":{"post_code":"1940214","prefecture":"TOKYO TO","city":"MACHIDA SHI","town":"YABEMACHI","perfecture_jp":"東京都","jp_add_1":"町田市","jp_add_2":"矢部町"}}