{"1960000":{"post_code":"1960000","prefecture":"TOKYO TO","city":"AKISHIMA SHI","town":"IKANIKEISAIGANAIBAAI","perfecture_jp":"東京都","jp_add_1":"昭島市","jp_add_2":""},"1960025":{"post_code":"1960025","prefecture":"TOKYO TO","city":"AKISHIMA SHI","town":"ASAHICHO","perfecture_jp":"東京都","jp_add_1":"昭島市","jp_add_2":"朝日町"},"1960033":{"post_code":"1960033","prefecture":"TOKYO TO","city":"AKISHIMA SHI","town":"AZUMACHO","perfecture_jp":"東京都","jp_add_1":"昭島市","jp_add_2":"東町"},"1960013":{"post_code":"1960013","prefecture":"TOKYO TO","city":"AKISHIMA SHI","town":"OGAMICHO","perfecture_jp":"東京都","jp_add_1":"昭島市","jp_add_2":"大神町"},"1960032":{"post_code":"1960032","prefecture":"TOKYO TO","city":"AKISHIMA SHI","town":"GOCHICHO","perfecture_jp":"東京都","jp_add_1":"昭島市","jp_add_2":"郷地町"},"1960011":{"post_code":"1960011","prefecture":"TOKYO TO","city":"AKISHIMA SHI","town":"JOGAWARACHO","perfecture_jp":"東京都","jp_add_1":"昭島市","jp_add_2":"上川原町"},"1960015":{"post_code":"1960015","prefecture":"TOKYO TO","city":"AKISHIMA SHI","town":"SHOWACHO","perfecture_jp":"東京都","jp_add_1":"昭島市","jp_add_2":"昭和町"},"1960014":{"post_code":"1960014","prefecture":"TOKYO TO","city":"AKISHIMA SHI","town":"TANAKACHO","perfecture_jp":"東京都","jp_add_1":"昭島市","jp_add_2":"田中町"},"1960034":{"post_code":"1960034","prefecture":"TOKYO TO","city":"AKISHIMA SHI","town":"TAMAGAWACHO","perfecture_jp":"東京都","jp_add_1":"昭島市","jp_add_2":"玉川町"},"1960023":{"post_code":"1960023","prefecture":"TOKYO TO","city":"AKISHIMA SHI","town":"TSUIJICHO","perfecture_jp":"東京都","jp_add_1":"昭島市","jp_add_2":"築地町"},"1960012":{"post_code":"1960012","prefecture":"TOKYO TO","city":"AKISHIMA SHI","town":"TSUTSUJIGAOKA","perfecture_jp":"東京都","jp_add_1":"昭島市","jp_add_2":"つつじが丘"},"1960022":{"post_code":"1960022","prefecture":"TOKYO TO","city":"AKISHIMA SHI","town":"NAKAGAMICHO","perfecture_jp":"東京都","jp_add_1":"昭島市","jp_add_2":"中神町"},"1960002":{"post_code":"1960002","prefecture":"TOKYO TO","city":"AKISHIMA SHI","town":"HAIJIMACHO","perfecture_jp":"東京都","jp_add_1":"昭島市","jp_add_2":"拝島町"},"1960031":{"post_code":"1960031","prefecture":"TOKYO TO","city":"AKISHIMA SHI","town":"FUKUJIMACHO","perfecture_jp":"東京都","jp_add_1":"昭島市","jp_add_2":"福島町"},"1960003":{"post_code":"1960003","prefecture":"TOKYO TO","city":"AKISHIMA SHI","town":"MATSUBARACHO","perfecture_jp":"東京都","jp_add_1":"昭島市","jp_add_2":"松原町"},"1960004":{"post_code":"1960004","prefecture":"TOKYO TO","city":"AKISHIMA SHI","town":"MIDORICHO","perfecture_jp":"東京都","jp_add_1":"昭島市","jp_add_2":"緑町"},"1960001":{"post_code":"1960001","prefecture":"TOKYO TO","city":"AKISHIMA SHI","town":"MIHORICHO","perfecture_jp":"東京都","jp_add_1":"昭島市","jp_add_2":"美堀町"},"1960024":{"post_code":"1960024","prefecture":"TOKYO TO","city":"AKISHIMA SHI","town":"MIYAZAWACHO","perfecture_jp":"東京都","jp_add_1":"昭島市","jp_add_2":"宮沢町"},"1960021":{"post_code":"1960021","prefecture":"TOKYO TO","city":"AKISHIMA SHI","town":"MUSASHINO","perfecture_jp":"東京都","jp_add_1":"昭島市","jp_add_2":"武蔵野"},"1960035":{"post_code":"1960035","prefecture":"TOKYO TO","city":"AKISHIMA SHI","town":"MOKUSEINOMORI","perfecture_jp":"東京都","jp_add_1":"昭島市","jp_add_2":"もくせいの杜"}}