{"1980000":{"post_code":"1980000","prefecture":"TOKYO TO","city":"NISHITAMA GUN OKUTAMA MACHI","town":"IKANIKEISAIGANAIBAAI","perfecture_jp":"東京都","jp_add_1":"青梅市","jp_add_2":""},"1980087":{"post_code":"1980087","prefecture":"TOKYO TO","city":"OME SHI","town":"AMAGASECHO","perfecture_jp":"東京都","jp_add_1":"青梅市","jp_add_2":"天ケ瀬町"},"1980023":{"post_code":"1980023","prefecture":"TOKYO TO","city":"OME SHI","town":"IMAI","perfecture_jp":"東京都","jp_add_1":"青梅市","jp_add_2":"今井"},"1980021":{"post_code":"1980021","prefecture":"TOKYO TO","city":"OME SHI","town":"IMADERA","perfecture_jp":"東京都","jp_add_1":"青梅市","jp_add_2":"今寺"},"1980088":{"post_code":"1980088","prefecture":"TOKYO TO","city":"OME SHI","town":"URAJUKUCHO","perfecture_jp":"東京都","jp_add_1":"青梅市","jp_add_2":"裏宿町"},"1980086":{"post_code":"1980086","prefecture":"TOKYO TO","city":"OME SHI","town":"OYANACHO","perfecture_jp":"東京都","jp_add_1":"青梅市","jp_add_2":"大柳町"},"1980003":{"post_code":"1980003","prefecture":"TOKYO TO","city":"OME SHI","town":"OSOKI","perfecture_jp":"東京都","jp_add_1":"青梅市","jp_add_2":"小曾木"},"1980041":{"post_code":"1980041","prefecture":"TOKYO TO","city":"OME SHI","town":"KATSUNUMA","perfecture_jp":"東京都","jp_add_1":"青梅市","jp_add_2":"勝沼"},"1980036":{"post_code":"1980036","prefecture":"TOKYO TO","city":"OME SHI","town":"KABEMACHI","perfecture_jp":"東京都","jp_add_1":"青梅市","jp_add_2":"河辺町"},"1980081":{"post_code":"1980081","prefecture":"TOKYO TO","city":"OME SHI","town":"KAMICHO","perfecture_jp":"東京都","jp_add_1":"青梅市","jp_add_2":"上町"},"1980013":{"post_code":"1980013","prefecture":"TOKYO TO","city":"OME SHI","town":"KINOSHITA","perfecture_jp":"東京都","jp_add_1":"青梅市","jp_add_2":"木野下"},"1980005":{"post_code":"1980005","prefecture":"TOKYO TO","city":"OME SHI","town":"KUROSAWA","perfecture_jp":"東京都","jp_add_1":"青梅市","jp_add_2":"黒沢"},"1980053":{"post_code":"1980053","prefecture":"TOKYO TO","city":"OME SHI","town":"KOMAKICHO","perfecture_jp":"東京都","jp_add_1":"青梅市","jp_add_2":"駒木町"},"1980172":{"post_code":"1980172","prefecture":"TOKYO TO","city":"OME SHI","town":"SAWAI","perfecture_jp":"東京都","jp_add_1":"青梅市","jp_add_2":"沢井"},"1980011":{"post_code":"1980011","prefecture":"TOKYO TO","city":"OME SHI","town":"SHIOBUNE","perfecture_jp":"東京都","jp_add_1":"青梅市","jp_add_2":"塩船"},"1980024":{"post_code":"1980024","prefecture":"TOKYO TO","city":"OME SHI","town":"SHIMMACHI","perfecture_jp":"東京都","jp_add_1":"青梅市","jp_add_2":"新町"},"1980025":{"post_code":"1980025","prefecture":"TOKYO TO","city":"OME SHI","town":"SUEHIROCHO","perfecture_jp":"東京都","jp_add_1":"青梅市","jp_add_2":"末広町"},"1980084":{"post_code":"1980084","prefecture":"TOKYO TO","city":"OME SHI","town":"SUMIECHO","perfecture_jp":"東京都","jp_add_1":"青梅市","jp_add_2":"住江町"},"1980014":{"post_code":"1980014","prefecture":"TOKYO TO","city":"OME SHI","town":"DAIMON","perfecture_jp":"東京都","jp_add_1":"青梅市","jp_add_2":"大門"},"1980085":{"post_code":"1980085","prefecture":"TOKYO TO","city":"OME SHI","town":"TAKINOECHO","perfecture_jp":"東京都","jp_add_1":"青梅市","jp_add_2":"滝ノ上町"},"1980043":{"post_code":"1980043","prefecture":"TOKYO TO","city":"OME SHI","town":"CHIGASEMACHI","perfecture_jp":"東京都","jp_add_1":"青梅市","jp_add_2":"千ケ瀬町"},"1980002":{"post_code":"1980002","prefecture":"TOKYO TO","city":"OME SHI","town":"TOMIOKA","perfecture_jp":"東京都","jp_add_1":"青梅市","jp_add_2":"富岡"},"1980051":{"post_code":"1980051","prefecture":"TOKYO TO","city":"OME SHI","town":"TOMODAMACHI","perfecture_jp":"東京都","jp_add_1":"青梅市","jp_add_2":"友田町"},"1980082":{"post_code":"1980082","prefecture":"TOKYO TO","city":"OME SHI","town":"NAKACHO","perfecture_jp":"東京都","jp_add_1":"青梅市","jp_add_2":"仲町"},"1980052":{"post_code":"1980052","prefecture":"TOKYO TO","city":"OME SHI","town":"NAGABUCHI","perfecture_jp":"東京都","jp_add_1":"青梅市","jp_add_2":"長淵"},"1980001":{"post_code":"1980001","prefecture":"TOKYO TO","city":"OME SHI","town":"NARIKI","perfecture_jp":"東京都","jp_add_1":"青梅市","jp_add_2":"成木"},"1980044":{"post_code":"1980044","prefecture":"TOKYO TO","city":"OME SHI","town":"NISHIWAKECHO","perfecture_jp":"東京都","jp_add_1":"青梅市","jp_add_2":"西分町"},"1980004":{"post_code":"1980004","prefecture":"TOKYO TO","city":"OME SHI","town":"NEKABU","perfecture_jp":"東京都","jp_add_1":"青梅市","jp_add_2":"根ケ布"},"1980032":{"post_code":"1980032","prefecture":"TOKYO TO","city":"OME SHI","town":"NOGAMICHO","perfecture_jp":"東京都","jp_add_1":"青梅市","jp_add_2":"野上町"},"1980063":{"post_code":"1980063","prefecture":"TOKYO TO","city":"OME SHI","town":"BAIGO","perfecture_jp":"東京都","jp_add_1":"青梅市","jp_add_2":"梅郷"},"1980061":{"post_code":"1980061","prefecture":"TOKYO TO","city":"OME SHI","town":"HATANAKA","perfecture_jp":"東京都","jp_add_1":"青梅市","jp_add_2":"畑中"},"1980042":{"post_code":"1980042","prefecture":"TOKYO TO","city":"OME SHI","town":"HIGASHIOME","perfecture_jp":"東京都","jp_add_1":"青梅市","jp_add_2":"東青梅"},"1980046":{"post_code":"1980046","prefecture":"TOKYO TO","city":"OME SHI","town":"HINATAWADA","perfecture_jp":"東京都","jp_add_1":"青梅市","jp_add_2":"日向和田"},"1980015":{"post_code":"1980015","prefecture":"TOKYO TO","city":"OME SHI","town":"FUKIAGE","perfecture_jp":"東京都","jp_add_1":"青梅市","jp_add_2":"吹上"},"1980022":{"post_code":"1980022","prefecture":"TOKYO TO","city":"OME SHI","town":"FUJIHASHI","perfecture_jp":"東京都","jp_add_1":"青梅市","jp_add_2":"藤橋"},"1980171":{"post_code":"1980171","prefecture":"TOKYO TO","city":"OME SHI","town":"FUTAMATAO","perfecture_jp":"東京都","jp_add_1":"青梅市","jp_add_2":"二俣尾"},"1980083":{"post_code":"1980083","prefecture":"TOKYO TO","city":"OME SHI","town":"HONCHO","perfecture_jp":"東京都","jp_add_1":"青梅市","jp_add_2":"本町"},"1980174":{"post_code":"1980174","prefecture":"TOKYO TO","city":"OME SHI","town":"MITAKE","perfecture_jp":"東京都","jp_add_1":"青梅市","jp_add_2":"御岳"},"1980175":{"post_code":"1980175","prefecture":"TOKYO TO","city":"OME SHI","town":"MITAKESAN","perfecture_jp":"東京都","jp_add_1":"青梅市","jp_add_2":"御岳山"},"1980173":{"post_code":"1980173","prefecture":"TOKYO TO","city":"OME SHI","town":"MITAKEHONCHO","perfecture_jp":"東京都","jp_add_1":"青梅市","jp_add_2":"御岳本町"},"1980089":{"post_code":"1980089","prefecture":"TOKYO TO","city":"OME SHI","town":"MORISHITACHO","perfecture_jp":"東京都","jp_add_1":"青梅市","jp_add_2":"森下町"},"1980031":{"post_code":"1980031","prefecture":"TOKYO TO","city":"OME SHI","town":"MOROKACHO","perfecture_jp":"東京都","jp_add_1":"青梅市","jp_add_2":"師岡町"},"1980012":{"post_code":"1980012","prefecture":"TOKYO TO","city":"OME SHI","town":"YANO","perfecture_jp":"東京都","jp_add_1":"青梅市","jp_add_2":"谷野"},"1980064":{"post_code":"1980064","prefecture":"TOKYO TO","city":"OME SHI","town":"YUGIMACHI","perfecture_jp":"東京都","jp_add_1":"青梅市","jp_add_2":"柚木町"},"1980062":{"post_code":"1980062","prefecture":"TOKYO TO","city":"OME SHI","town":"WADAMACHI","perfecture_jp":"東京都","jp_add_1":"青梅市","jp_add_2":"和田町"},"1980213":{"post_code":"1980213","prefecture":"TOKYO TO","city":"NISHITAMA GUN OKUTAMA MACHI","town":"UNAZAWA","perfecture_jp":"東京都","jp_add_1":"西多摩郡奥多摩町","jp_add_2":"海沢"},"1980103":{"post_code":"1980103","prefecture":"TOKYO TO","city":"NISHITAMA GUN OKUTAMA MACHI","town":"UMEZAWA","perfecture_jp":"東京都","jp_add_1":"西多摩郡奥多摩町","jp_add_2":"梅沢"},"1980101":{"post_code":"1980101","prefecture":"TOKYO TO","city":"NISHITAMA GUN OKUTAMA MACHI","town":"OTABA","perfecture_jp":"東京都","jp_add_1":"西多摩郡奥多摩町","jp_add_2":"大丹波"},"1980102":{"post_code":"1980102","prefecture":"TOKYO TO","city":"NISHITAMA GUN OKUTAMA MACHI","town":"KAWAI","perfecture_jp":"東京都","jp_add_1":"西多摩郡奥多摩町","jp_add_2":"川井"},"1980225":{"post_code":"1980225","prefecture":"TOKYO TO","city":"NISHITAMA GUN OKUTAMA MACHI","town":"KAWANO","perfecture_jp":"東京都","jp_add_1":"西多摩郡奥多摩町","jp_add_2":"川野"},"1980224":{"post_code":"1980224","prefecture":"TOKYO TO","city":"NISHITAMA GUN OKUTAMA MACHI","town":"KOCHI","perfecture_jp":"東京都","jp_add_1":"西多摩郡奥多摩町","jp_add_2":"河内"},"1980105":{"post_code":"1980105","prefecture":"TOKYO TO","city":"NISHITAMA GUN OKUTAMA MACHI","town":"KOTABA","perfecture_jp":"東京都","jp_add_1":"西多摩郡奥多摩町","jp_add_2":"小丹波"},"1980222":{"post_code":"1980222","prefecture":"TOKYO TO","city":"NISHITAMA GUN OKUTAMA MACHI","town":"SAKAI","perfecture_jp":"東京都","jp_add_1":"西多摩郡奥多摩町","jp_add_2":"境"},"1980107":{"post_code":"1980107","prefecture":"TOKYO TO","city":"NISHITAMA GUN OKUTAMA MACHI","town":"SHIROMARU","perfecture_jp":"東京都","jp_add_1":"西多摩郡奥多摩町","jp_add_2":"白丸"},"1980106":{"post_code":"1980106","prefecture":"TOKYO TO","city":"NISHITAMA GUN OKUTAMA MACHI","town":"TANAZAWA","perfecture_jp":"東京都","jp_add_1":"西多摩郡奥多摩町","jp_add_2":"棚沢"},"1980104":{"post_code":"1980104","prefecture":"TOKYO TO","city":"NISHITAMA GUN OKUTAMA MACHI","town":"TANZABURO","perfecture_jp":"東京都","jp_add_1":"西多摩郡奥多摩町","jp_add_2":"丹三郎"},"1980221":{"post_code":"1980221","prefecture":"TOKYO TO","city":"NISHITAMA GUN OKUTAMA MACHI","town":"TOZURA","perfecture_jp":"東京都","jp_add_1":"西多摩郡奥多摩町","jp_add_2":"留浦"},"1980211":{"post_code":"1980211","prefecture":"TOKYO TO","city":"NISHITAMA GUN OKUTAMA MACHI","town":"NIPPARA","perfecture_jp":"東京都","jp_add_1":"西多摩郡奥多摩町","jp_add_2":"日原"},"1980223":{"post_code":"1980223","prefecture":"TOKYO TO","city":"NISHITAMA GUN OKUTAMA MACHI","town":"HARA","perfecture_jp":"東京都","jp_add_1":"西多摩郡奥多摩町","jp_add_2":"原"},"1980212":{"post_code":"1980212","prefecture":"TOKYO TO","city":"NISHITAMA GUN OKUTAMA MACHI","town":"HIKAWA","perfecture_jp":"東京都","jp_add_1":"西多摩郡奥多摩町","jp_add_2":"氷川"}}