{"2010000":{"post_code":"2010000","prefecture":"TOKYO TO","city":"KOMAE SHI","town":"IKANIKEISAIGANAIBAAI","perfecture_jp":"東京都","jp_add_1":"狛江市","jp_add_2":""},"2010003":{"post_code":"2010003","prefecture":"TOKYO TO","city":"KOMAE SHI","town":"IZUMIHONCHO","perfecture_jp":"東京都","jp_add_1":"狛江市","jp_add_2":"和泉本町"},"2010015":{"post_code":"2010015","prefecture":"TOKYO TO","city":"KOMAE SHI","town":"INOGATA","perfecture_jp":"東京都","jp_add_1":"狛江市","jp_add_2":"猪方"},"2010005":{"post_code":"2010005","prefecture":"TOKYO TO","city":"KOMAE SHI","town":"IWADO MINAMI","perfecture_jp":"東京都","jp_add_1":"狛江市","jp_add_2":"岩戸南"},"2010004":{"post_code":"2010004","prefecture":"TOKYO TO","city":"KOMAE SHI","town":"IWADO KITA","perfecture_jp":"東京都","jp_add_1":"狛江市","jp_add_2":"岩戸北"},"2010016":{"post_code":"2010016","prefecture":"TOKYO TO","city":"KOMAE SHI","town":"KOMAIMACHI","perfecture_jp":"東京都","jp_add_1":"狛江市","jp_add_2":"駒井町"},"2010012":{"post_code":"2010012","prefecture":"TOKYO TO","city":"KOMAE SHI","town":"NAKAIZUMI","perfecture_jp":"東京都","jp_add_1":"狛江市","jp_add_2":"中和泉"},"2010011":{"post_code":"2010011","prefecture":"TOKYO TO","city":"KOMAE SHI","town":"NISHIIZUMI","perfecture_jp":"東京都","jp_add_1":"狛江市","jp_add_2":"西和泉"},"2010001":{"post_code":"2010001","prefecture":"TOKYO TO","city":"KOMAE SHI","town":"NISHINOGAWA","perfecture_jp":"東京都","jp_add_1":"狛江市","jp_add_2":"西野川"},"2010014":{"post_code":"2010014","prefecture":"TOKYO TO","city":"KOMAE SHI","town":"HIGASHIIZUMI","perfecture_jp":"東京都","jp_add_1":"狛江市","jp_add_2":"東和泉"},"2010002":{"post_code":"2010002","prefecture":"TOKYO TO","city":"KOMAE SHI","town":"HIGASHINOGAWA","perfecture_jp":"東京都","jp_add_1":"狛江市","jp_add_2":"東野川"},"2010013":{"post_code":"2010013","prefecture":"TOKYO TO","city":"KOMAE SHI","town":"MOTOIZUMI","perfecture_jp":"東京都","jp_add_1":"狛江市","jp_add_2":"元和泉"}}