{"2020000":{"post_code":"2020000","prefecture":"TOKYO TO","city":"NISHITOKYO SHI","town":"IKANIKEISAIGANAIBAAI","perfecture_jp":"東京都","jp_add_1":"西東京市","jp_add_2":""},"2020011":{"post_code":"2020011","prefecture":"TOKYO TO","city":"NISHITOKYO SHI","town":"IZUMICHO","perfecture_jp":"東京都","jp_add_1":"西東京市","jp_add_2":"泉町"},"2020003":{"post_code":"2020003","prefecture":"TOKYO TO","city":"NISHITOKYO SHI","town":"KITAMACHI","perfecture_jp":"東京都","jp_add_1":"西東京市","jp_add_2":"北町"},"2020006":{"post_code":"2020006","prefecture":"TOKYO TO","city":"NISHITOKYO SHI","town":"SAKAECHO","perfecture_jp":"東京都","jp_add_1":"西東京市","jp_add_2":"栄町"},"2020004":{"post_code":"2020004","prefecture":"TOKYO TO","city":"NISHITOKYO SHI","town":"SHIMOHOYA","perfecture_jp":"東京都","jp_add_1":"西東京市","jp_add_2":"下保谷"},"2020023":{"post_code":"2020023","prefecture":"TOKYO TO","city":"NISHITOKYO SHI","town":"SHIMMACHI","perfecture_jp":"東京都","jp_add_1":"西東京市","jp_add_2":"新町"},"2020005":{"post_code":"2020005","prefecture":"TOKYO TO","city":"NISHITOKYO SHI","town":"SUMIYOSHICHO","perfecture_jp":"東京都","jp_add_1":"西東京市","jp_add_2":"住吉町"},"2020013":{"post_code":"2020013","prefecture":"TOKYO TO","city":"NISHITOKYO SHI","town":"NAKAMACHI","perfecture_jp":"東京都","jp_add_1":"西東京市","jp_add_2":"中町"},"2020012":{"post_code":"2020012","prefecture":"TOKYO TO","city":"NISHITOKYO SHI","town":"HIGASHICHO","perfecture_jp":"東京都","jp_add_1":"西東京市","jp_add_2":"東町"},"2020021":{"post_code":"2020021","prefecture":"TOKYO TO","city":"NISHITOKYO SHI","town":"HIGASHIFUSHIMI","perfecture_jp":"東京都","jp_add_1":"西東京市","jp_add_2":"東伏見"},"2020001":{"post_code":"2020001","prefecture":"TOKYO TO","city":"NISHITOKYO SHI","town":"HIBARIGAOKA","perfecture_jp":"東京都","jp_add_1":"西東京市","jp_add_2":"ひばりが丘"},"2020002":{"post_code":"2020002","prefecture":"TOKYO TO","city":"NISHITOKYO SHI","town":"HIBARIGAOKAKITA","perfecture_jp":"東京都","jp_add_1":"西東京市","jp_add_2":"ひばりが丘北"},"2020014":{"post_code":"2020014","prefecture":"TOKYO TO","city":"NISHITOKYO SHI","town":"FUJIMACHI","perfecture_jp":"東京都","jp_add_1":"西東京市","jp_add_2":"富士町"},"2020015":{"post_code":"2020015","prefecture":"TOKYO TO","city":"NISHITOKYO SHI","town":"HOYACHO","perfecture_jp":"東京都","jp_add_1":"西東京市","jp_add_2":"保谷町"},"2020022":{"post_code":"2020022","prefecture":"TOKYO TO","city":"NISHITOKYO SHI","town":"YAGISAWA","perfecture_jp":"東京都","jp_add_1":"西東京市","jp_add_2":"柳沢"}}