{"2030000":{"post_code":"2030000","prefecture":"TOKYO TO","city":"HIGASHIKURUME SHI","town":"IKANIKEISAIGANAIBAAI","perfecture_jp":"東京都","jp_add_1":"東久留米市","jp_add_2":""},"2030001":{"post_code":"2030001","prefecture":"TOKYO TO","city":"HIGASHIKURUME SHI","town":"UENOHARA","perfecture_jp":"東京都","jp_add_1":"東久留米市","jp_add_2":"上の原"},"2030021":{"post_code":"2030021","prefecture":"TOKYO TO","city":"HIGASHIKURUME SHI","town":"GAKUENCHO","perfecture_jp":"東京都","jp_add_1":"東久留米市","jp_add_2":"学園町"},"2030003":{"post_code":"2030003","prefecture":"TOKYO TO","city":"HIGASHIKURUME SHI","town":"KANAYAMACHO","perfecture_jp":"東京都","jp_add_1":"東久留米市","jp_add_2":"金山町"},"2030051":{"post_code":"2030051","prefecture":"TOKYO TO","city":"HIGASHIKURUME SHI","town":"KOYAMA","perfecture_jp":"東京都","jp_add_1":"東久留米市","jp_add_2":"小山"},"2030052":{"post_code":"2030052","prefecture":"TOKYO TO","city":"HIGASHIKURUME SHI","town":"SAIWAICHO","perfecture_jp":"東京都","jp_add_1":"東久留米市","jp_add_2":"幸町"},"2030043":{"post_code":"2030043","prefecture":"TOKYO TO","city":"HIGASHIKURUME SHI","town":"SHIMOSATO","perfecture_jp":"東京都","jp_add_1":"東久留米市","jp_add_2":"下里"},"2030013":{"post_code":"2030013","prefecture":"TOKYO TO","city":"HIGASHIKURUME SHI","town":"SHINKAWACHO","perfecture_jp":"東京都","jp_add_1":"東久留米市","jp_add_2":"新川町"},"2030002":{"post_code":"2030002","prefecture":"TOKYO TO","city":"HIGASHIKURUME SHI","town":"SHINHOCHO","perfecture_jp":"東京都","jp_add_1":"東久留米市","jp_add_2":"神宝町"},"2030012":{"post_code":"2030012","prefecture":"TOKYO TO","city":"HIGASHIKURUME SHI","town":"SENGENCHO","perfecture_jp":"東京都","jp_add_1":"東久留米市","jp_add_2":"浅間町"},"2030011":{"post_code":"2030011","prefecture":"TOKYO TO","city":"HIGASHIKURUME SHI","town":"DAIMONCHO","perfecture_jp":"東京都","jp_add_1":"東久留米市","jp_add_2":"大門町"},"2030033":{"post_code":"2030033","prefecture":"TOKYO TO","city":"HIGASHIKURUME SHI","town":"TAKIYAMA","perfecture_jp":"東京都","jp_add_1":"東久留米市","jp_add_2":"滝山"},"2030054":{"post_code":"2030054","prefecture":"TOKYO TO","city":"HIGASHIKURUME SHI","town":"CHUOCHO","perfecture_jp":"東京都","jp_add_1":"東久留米市","jp_add_2":"中央町"},"2030041":{"post_code":"2030041","prefecture":"TOKYO TO","city":"HIGASHIKURUME SHI","town":"NOBIDOME","perfecture_jp":"東京都","jp_add_1":"東久留米市","jp_add_2":"野火止"},"2030042":{"post_code":"2030042","prefecture":"TOKYO TO","city":"HIGASHIKURUME SHI","town":"HACHIMANCHO","perfecture_jp":"東京都","jp_add_1":"東久留米市","jp_add_2":"八幡町"},"2030004":{"post_code":"2030004","prefecture":"TOKYO TO","city":"HIGASHIKURUME SHI","town":"HIKAWADAI","perfecture_jp":"東京都","jp_add_1":"東久留米市","jp_add_2":"氷川台"},"2030014":{"post_code":"2030014","prefecture":"TOKYO TO","city":"HIGASHIKURUME SHI","town":"HIGASHIHONCHO","perfecture_jp":"東京都","jp_add_1":"東久留米市","jp_add_2":"東本町"},"2030022":{"post_code":"2030022","prefecture":"TOKYO TO","city":"HIGASHIKURUME SHI","town":"HIBARIGAOKADANCHI","perfecture_jp":"東京都","jp_add_1":"東久留米市","jp_add_2":"ひばりが丘団地"},"2030053":{"post_code":"2030053","prefecture":"TOKYO TO","city":"HIGASHIKURUME SHI","town":"HONCHO","perfecture_jp":"東京都","jp_add_1":"東久留米市","jp_add_2":"本町"},"2030032":{"post_code":"2030032","prefecture":"TOKYO TO","city":"HIGASHIKURUME SHI","town":"MAESAWA","perfecture_jp":"東京都","jp_add_1":"東久留米市","jp_add_2":"前沢"},"2030023":{"post_code":"2030023","prefecture":"TOKYO TO","city":"HIGASHIKURUME SHI","town":"MINAMISAWA","perfecture_jp":"東京都","jp_add_1":"東久留米市","jp_add_2":"南沢"},"2030031":{"post_code":"2030031","prefecture":"TOKYO TO","city":"HIGASHIKURUME SHI","town":"MINAMICHO","perfecture_jp":"東京都","jp_add_1":"東久留米市","jp_add_2":"南町"},"2030044":{"post_code":"2030044","prefecture":"TOKYO TO","city":"HIGASHIKURUME SHI","town":"YANAGIKUBO","perfecture_jp":"東京都","jp_add_1":"東久留米市","jp_add_2":"柳窪"},"2030034":{"post_code":"2030034","prefecture":"TOKYO TO","city":"HIGASHIKURUME SHI","town":"YAYOI","perfecture_jp":"東京都","jp_add_1":"東久留米市","jp_add_2":"弥生"}}