{"2040000":{"post_code":"2040000","prefecture":"TOKYO TO","city":"KIYOSE SHI","town":"IKANIKEISAIGANAIBAAI","perfecture_jp":"東京都","jp_add_1":"清瀬市","jp_add_2":""},"2040002":{"post_code":"2040002","prefecture":"TOKYO TO","city":"KIYOSE SHI","town":"ASAHIGAOKA","perfecture_jp":"東京都","jp_add_1":"清瀬市","jp_add_2":"旭が丘"},"2040024":{"post_code":"2040024","prefecture":"TOKYO TO","city":"KIYOSE SHI","town":"UMEZONO","perfecture_jp":"東京都","jp_add_1":"清瀬市","jp_add_2":"梅園"},"2040013":{"post_code":"2040013","prefecture":"TOKYO TO","city":"KIYOSE SHI","town":"KAMIKIYOTO","perfecture_jp":"東京都","jp_add_1":"清瀬市","jp_add_2":"上清戸"},"2040001":{"post_code":"2040001","prefecture":"TOKYO TO","city":"KIYOSE SHI","town":"SHITAJUKU","perfecture_jp":"東京都","jp_add_1":"清瀬市","jp_add_2":"下宿"},"2040011":{"post_code":"2040011","prefecture":"TOKYO TO","city":"KIYOSE SHI","town":"SHIMOKIYOTO","perfecture_jp":"東京都","jp_add_1":"清瀬市","jp_add_2":"下清戸"},"2040023":{"post_code":"2040023","prefecture":"TOKYO TO","city":"KIYOSE SHI","town":"TAKEOKA","perfecture_jp":"東京都","jp_add_1":"清瀬市","jp_add_2":"竹丘"},"2040012":{"post_code":"2040012","prefecture":"TOKYO TO","city":"KIYOSE SHI","town":"NAKAKIYOTO","perfecture_jp":"東京都","jp_add_1":"清瀬市","jp_add_2":"中清戸"},"2040003":{"post_code":"2040003","prefecture":"TOKYO TO","city":"KIYOSE SHI","town":"NAKAZATO","perfecture_jp":"東京都","jp_add_1":"清瀬市","jp_add_2":"中里"},"2040004":{"post_code":"2040004","prefecture":"TOKYO TO","city":"KIYOSE SHI","town":"NOSHIO","perfecture_jp":"東京都","jp_add_1":"清瀬市","jp_add_2":"野塩"},"2040022":{"post_code":"2040022","prefecture":"TOKYO TO","city":"KIYOSE SHI","town":"MATSUYAMA","perfecture_jp":"東京都","jp_add_1":"清瀬市","jp_add_2":"松山"},"2040021":{"post_code":"2040021","prefecture":"TOKYO TO","city":"KIYOSE SHI","town":"MOTOMACHI","perfecture_jp":"東京都","jp_add_1":"清瀬市","jp_add_2":"元町"}}