{"2060000":{"post_code":"2060000","prefecture":"TOKYO TO","city":"INAGI SHI","town":"IKANIKEISAIGANAIBAAI","perfecture_jp":"東京都","jp_add_1":"多摩市","jp_add_2":""},"2060041":{"post_code":"2060041","prefecture":"TOKYO TO","city":"TAMA SHI","town":"ATAGO","perfecture_jp":"東京都","jp_add_1":"多摩市","jp_add_2":"愛宕"},"2060002":{"post_code":"2060002","prefecture":"TOKYO TO","city":"TAMA SHI","town":"ICHINOMIYA","perfecture_jp":"東京都","jp_add_1":"多摩市","jp_add_2":"一ノ宮"},"2060033":{"post_code":"2060033","prefecture":"TOKYO TO","city":"TAMA SHI","town":"OCHIAI","perfecture_jp":"東京都","jp_add_1":"多摩市","jp_add_2":"落合"},"2060015":{"post_code":"2060015","prefecture":"TOKYO TO","city":"TAMA SHI","town":"OCHIKAWA","perfecture_jp":"東京都","jp_add_1":"多摩市","jp_add_2":"落川"},"2060012":{"post_code":"2060012","prefecture":"TOKYO TO","city":"TAMA SHI","town":"KAIDORI","perfecture_jp":"東京都","jp_add_1":"多摩市","jp_add_2":"貝取"},"2060035":{"post_code":"2060035","prefecture":"TOKYO TO","city":"TAMA SHI","town":"KARAKIDA","perfecture_jp":"東京都","jp_add_1":"多摩市","jp_add_2":"唐木田"},"2060014":{"post_code":"2060014","prefecture":"TOKYO TO","city":"TAMA SHI","town":"KOTTA","perfecture_jp":"東京都","jp_add_1":"多摩市","jp_add_2":"乞田"},"2060013":{"post_code":"2060013","prefecture":"TOKYO TO","city":"TAMA SHI","town":"SAKURAGAOKA","perfecture_jp":"東京都","jp_add_1":"多摩市","jp_add_2":"桜ヶ丘"},"2060042":{"post_code":"2060042","prefecture":"TOKYO TO","city":"TAMA SHI","town":"SANNOSHITA","perfecture_jp":"東京都","jp_add_1":"多摩市","jp_add_2":"山王下"},"2060024":{"post_code":"2060024","prefecture":"TOKYO TO","city":"TAMA SHI","town":"SUWA","perfecture_jp":"東京都","jp_add_1":"多摩市","jp_add_2":"諏訪"},"2060011":{"post_code":"2060011","prefecture":"TOKYO TO","city":"TAMA SHI","town":"SEKIDO","perfecture_jp":"東京都","jp_add_1":"多摩市","jp_add_2":"関戸"},"2060034":{"post_code":"2060034","prefecture":"TOKYO TO","city":"TAMA SHI","town":"TSURUMAKI","perfecture_jp":"東京都","jp_add_1":"多摩市","jp_add_2":"鶴牧"},"2060031":{"post_code":"2060031","prefecture":"TOKYO TO","city":"TAMA SHI","town":"TOYOGAOKA","perfecture_jp":"東京都","jp_add_1":"多摩市","jp_add_2":"豊ヶ丘"},"2060036":{"post_code":"2060036","prefecture":"TOKYO TO","city":"TAMA SHI","town":"NAKAZAWA","perfecture_jp":"東京都","jp_add_1":"多摩市","jp_add_2":"中沢"},"2060025":{"post_code":"2060025","prefecture":"TOKYO TO","city":"TAMA SHI","town":"NAGAYAMA","perfecture_jp":"東京都","jp_add_1":"多摩市","jp_add_2":"永山"},"2060003":{"post_code":"2060003","prefecture":"TOKYO TO","city":"TAMA SHI","town":"HIGASHITERAGATA","perfecture_jp":"東京都","jp_add_1":"多摩市","jp_add_2":"東寺方"},"2060022":{"post_code":"2060022","prefecture":"TOKYO TO","city":"TAMA SHI","town":"HIJIRIGAOKA","perfecture_jp":"東京都","jp_add_1":"多摩市","jp_add_2":"聖ヶ丘"},"2060023":{"post_code":"2060023","prefecture":"TOKYO TO","city":"TAMA SHI","town":"MAHIKIZAWA","perfecture_jp":"東京都","jp_add_1":"多摩市","jp_add_2":"馬引沢"},"2060032":{"post_code":"2060032","prefecture":"TOKYO TO","city":"TAMA SHI","town":"MINAMINO","perfecture_jp":"東京都","jp_add_1":"多摩市","jp_add_2":"南野"},"2060004":{"post_code":"2060004","prefecture":"TOKYO TO","city":"TAMA SHI","town":"MOGUSA","perfecture_jp":"東京都","jp_add_1":"多摩市","jp_add_2":"百草"},"2060021":{"post_code":"2060021","prefecture":"TOKYO TO","city":"TAMA SHI","town":"RENKOJI","perfecture_jp":"東京都","jp_add_1":"多摩市","jp_add_2":"連光寺"},"2060001":{"post_code":"2060001","prefecture":"TOKYO TO","city":"TAMA SHI","town":"WADA","perfecture_jp":"東京都","jp_add_1":"多摩市","jp_add_2":"和田"},"2060801":{"post_code":"2060801","prefecture":"TOKYO TO","city":"INAGI SHI","town":"OMARU","perfecture_jp":"東京都","jp_add_1":"稲城市","jp_add_2":"大丸"},"2060811":{"post_code":"2060811","prefecture":"TOKYO TO","city":"INAGI SHI","town":"OSHITATE","perfecture_jp":"東京都","jp_add_1":"稲城市","jp_add_2":"押立"},"2060803":{"post_code":"2060803","prefecture":"TOKYO TO","city":"INAGI SHI","town":"KOYODAI","perfecture_jp":"東京都","jp_add_1":"稲城市","jp_add_2":"向陽台"},"2060822":{"post_code":"2060822","prefecture":"TOKYO TO","city":"INAGI SHI","town":"SAKAHAMA","perfecture_jp":"東京都","jp_add_1":"稲城市","jp_add_2":"坂浜"},"2060821":{"post_code":"2060821","prefecture":"TOKYO TO","city":"INAGI SHI","town":"NAGAMINE","perfecture_jp":"東京都","jp_add_1":"稲城市","jp_add_2":"長峰"},"2060802":{"post_code":"2060802","prefecture":"TOKYO TO","city":"INAGI SHI","town":"HIGASHINAGANUMA","perfecture_jp":"東京都","jp_add_1":"稲城市","jp_add_2":"東長沼"},"2060823":{"post_code":"2060823","prefecture":"TOKYO TO","city":"INAGI SHI","town":"HIRAO","perfecture_jp":"東京都","jp_add_1":"稲城市","jp_add_2":"平尾"},"2060804":{"post_code":"2060804","prefecture":"TOKYO TO","city":"INAGI SHI","town":"MOMURA","perfecture_jp":"東京都","jp_add_1":"稲城市","jp_add_2":"百村"},"2060812":{"post_code":"2060812","prefecture":"TOKYO TO","city":"INAGI SHI","town":"YANOKUCHI","perfecture_jp":"東京都","jp_add_1":"稲城市","jp_add_2":"矢野口"},"2060824":{"post_code":"2060824","prefecture":"TOKYO TO","city":"INAGI SHI","town":"WAKABADAI","perfecture_jp":"東京都","jp_add_1":"稲城市","jp_add_2":"若葉台"}}