{"2100000":{"post_code":"2100000","prefecture":"KANAGAWA KEN","city":"KAWASAKI SHI KAWASAKI KU","town":"IKANIKEISAIGANAIBAAI","perfecture_jp":"神奈川県","jp_add_1":"川崎市川崎区","jp_add_2":""},"2100847":{"post_code":"2100847","prefecture":"KANAGAWA KEN","city":"KAWASAKI SHI KAWASAKI KU","town":"ASADA","perfecture_jp":"神奈川県","jp_add_1":"川崎市川崎区","jp_add_2":"浅田"},"2100854":{"post_code":"2100854","prefecture":"KANAGAWA KEN","city":"KAWASAKI SHI KAWASAKI KU","town":"ASANOCHO","perfecture_jp":"神奈川県","jp_add_1":"川崎市川崎区","jp_add_2":"浅野町"},"2100808":{"post_code":"2100808","prefecture":"KANAGAWA KEN","city":"KAWASAKI SHI KAWASAKI KU","town":"ASAHICHO","perfecture_jp":"神奈川県","jp_add_1":"川崎市川崎区","jp_add_2":"旭町"},"2100832":{"post_code":"2100832","prefecture":"KANAGAWA KEN","city":"KAWASAKI SHI KAWASAKI KU","town":"IKEGAMISHINCHO","perfecture_jp":"神奈川県","jp_add_1":"川崎市川崎区","jp_add_2":"池上新町"},"2100864":{"post_code":"2100864","prefecture":"KANAGAWA KEN","city":"KAWASAKI SHI KAWASAKI KU","town":"IKEGAMICHO","perfecture_jp":"神奈川県","jp_add_1":"川崎市川崎区","jp_add_2":"池上町"},"2100022":{"post_code":"2100022","prefecture":"KANAGAWA KEN","city":"KAWASAKI SHI KAWASAKI KU","town":"IKEDA","perfecture_jp":"神奈川県","jp_add_1":"川崎市川崎区","jp_add_2":"池田"},"2100006":{"post_code":"2100006","prefecture":"KANAGAWA KEN","city":"KAWASAKI SHI KAWASAKI KU","town":"ISAGO","perfecture_jp":"神奈川県","jp_add_1":"川崎市川崎区","jp_add_2":"砂子"},"2100805":{"post_code":"2100805","prefecture":"KANAGAWA KEN","city":"KAWASAKI SHI KAWASAKI KU","town":"ISECHO","perfecture_jp":"神奈川県","jp_add_1":"川崎市川崎区","jp_add_2":"伊勢町"},"2100862":{"post_code":"2100862","prefecture":"KANAGAWA KEN","city":"KAWASAKI SHI KAWASAKI KU","town":"UKISHIMACHO","perfecture_jp":"神奈川県","jp_add_1":"川崎市川崎区","jp_add_2":"浮島町"},"2100823":{"post_code":"2100823","prefecture":"KANAGAWA KEN","city":"KAWASAKI SHI KAWASAKI KU","town":"EGAWA","perfecture_jp":"神奈川県","jp_add_1":"川崎市川崎区","jp_add_2":"江川"},"2100007":{"post_code":"2100007","prefecture":"KANAGAWA KEN","city":"KAWASAKI SHI KAWASAKI KU","town":"EKIMAEHONCHO","perfecture_jp":"神奈川県","jp_add_1":"川崎市川崎区","jp_add_2":"駅前本町"},"2100002":{"post_code":"2100002","prefecture":"KANAGAWA KEN","city":"KAWASAKI SHI KAWASAKI KU","town":"ENOKICHO","perfecture_jp":"神奈川県","jp_add_1":"川崎市川崎区","jp_add_2":"榎町"},"2100835":{"post_code":"2100835","prefecture":"KANAGAWA KEN","city":"KAWASAKI SHI KAWASAKI KU","town":"OIWAKECHO","perfecture_jp":"神奈川県","jp_add_1":"川崎市川崎区","jp_add_2":"追分町"},"2100867":{"post_code":"2100867","prefecture":"KANAGAWA KEN","city":"KAWASAKI SHI KAWASAKI KU","town":"OGIMACHI","perfecture_jp":"神奈川県","jp_add_1":"川崎市川崎区","jp_add_2":"扇町"},"2100858":{"post_code":"2100858","prefecture":"KANAGAWA KEN","city":"KAWASAKI SHI KAWASAKI KU","town":"OKAWACHO","perfecture_jp":"神奈川県","jp_add_1":"川崎市川崎区","jp_add_2":"大川町"},"2100868":{"post_code":"2100868","prefecture":"KANAGAWA KEN","city":"KAWASAKI SHI KAWASAKI KU","town":"OGISHIMA","perfecture_jp":"神奈川県","jp_add_1":"川崎市川崎区","jp_add_2":"扇島"},"2100834":{"post_code":"2100834","prefecture":"KANAGAWA KEN","city":"KAWASAKI SHI KAWASAKI KU","town":"OSHIMA","perfecture_jp":"神奈川県","jp_add_1":"川崎市川崎区","jp_add_2":"大島"},"2100836":{"post_code":"2100836","prefecture":"KANAGAWA KEN","city":"KAWASAKI SHI KAWASAKI KU","town":"OSHIMAKAMICHO","perfecture_jp":"神奈川県","jp_add_1":"川崎市川崎区","jp_add_2":"大島上町"},"2100023":{"post_code":"2100023","prefecture":"KANAGAWA KEN","city":"KAWASAKI SHI KAWASAKI KU","town":"OGAWACHO","perfecture_jp":"神奈川県","jp_add_1":"川崎市川崎区","jp_add_2":"小川町"},"2100846":{"post_code":"2100846","prefecture":"KANAGAWA KEN","city":"KAWASAKI SHI KAWASAKI KU","town":"ODA","perfecture_jp":"神奈川県","jp_add_1":"川崎市川崎区","jp_add_2":"小田"},"2100843":{"post_code":"2100843","prefecture":"KANAGAWA KEN","city":"KAWASAKI SHI KAWASAKI KU","town":"ODASAKAE","perfecture_jp":"神奈川県","jp_add_1":"川崎市川崎区","jp_add_2":"小田栄"},"2100014":{"post_code":"2100014","prefecture":"KANAGAWA KEN","city":"KAWASAKI SHI KAWASAKI KU","town":"KAIZUKA","perfecture_jp":"神奈川県","jp_add_1":"川崎市川崎区","jp_add_2":"貝塚"},"2100803":{"post_code":"2100803","prefecture":"KANAGAWA KEN","city":"KAWASAKI SHI KAWASAKI KU","town":"KAWANAKAJIMA","perfecture_jp":"神奈川県","jp_add_1":"川崎市川崎区","jp_add_2":"川中島"},"2100831":{"post_code":"2100831","prefecture":"KANAGAWA KEN","city":"KAWASAKI SHI KAWASAKI KU","town":"KANNON","perfecture_jp":"神奈川県","jp_add_1":"川崎市川崎区","jp_add_2":"観音"},"2100848":{"post_code":"2100848","prefecture":"KANAGAWA KEN","city":"KAWASAKI SHI KAWASAKI KU","town":"KYOMACHI","perfecture_jp":"神奈川県","jp_add_1":"川崎市川崎区","jp_add_2":"京町"},"2100852":{"post_code":"2100852","prefecture":"KANAGAWA KEN","city":"KAWASAKI SHI KAWASAKI KU","town":"KOKANDORI","perfecture_jp":"神奈川県","jp_add_1":"川崎市川崎区","jp_add_2":"鋼管通"},"2100861":{"post_code":"2100861","prefecture":"KANAGAWA KEN","city":"KAWASAKI SHI KAWASAKI KU","town":"KOJIMACHO","perfecture_jp":"神奈川県","jp_add_1":"川崎市川崎区","jp_add_2":"小島町"},"2100838":{"post_code":"2100838","prefecture":"KANAGAWA KEN","city":"KAWASAKI SHI KAWASAKI KU","town":"SAKAIMACHI","perfecture_jp":"神奈川県","jp_add_1":"川崎市川崎区","jp_add_2":"境町"},"2100833":{"post_code":"2100833","prefecture":"KANAGAWA KEN","city":"KAWASAKI SHI KAWASAKI KU","town":"SAKURAMOTO","perfecture_jp":"神奈川県","jp_add_1":"川崎市川崎区","jp_add_2":"桜本"},"2100826":{"post_code":"2100826","prefecture":"KANAGAWA KEN","city":"KAWASAKI SHI KAWASAKI KU","town":"SHIOHAMA","perfecture_jp":"神奈川県","jp_add_1":"川崎市川崎区","jp_add_2":"塩浜"},"2100025":{"post_code":"2100025","prefecture":"KANAGAWA KEN","city":"KAWASAKI SHI KAWASAKI KU","town":"SHIMONAMIKI","perfecture_jp":"神奈川県","jp_add_1":"川崎市川崎区","jp_add_2":"下並木"},"2100813":{"post_code":"2100813","prefecture":"KANAGAWA KEN","city":"KAWASAKI SHI KAWASAKI KU","town":"SHOWA","perfecture_jp":"神奈川県","jp_add_1":"川崎市川崎区","jp_add_2":"昭和"},"2100857":{"post_code":"2100857","prefecture":"KANAGAWA KEN","city":"KAWASAKI SHI KAWASAKI KU","town":"SHIRAISHICHO","perfecture_jp":"神奈川県","jp_add_1":"川崎市川崎区","jp_add_2":"白石町"},"2100013":{"post_code":"2100013","prefecture":"KANAGAWA KEN","city":"KAWASAKI SHI KAWASAKI KU","town":"SHINKAWADORI","perfecture_jp":"神奈川県","jp_add_1":"川崎市川崎区","jp_add_2":"新川通"},"2100801":{"post_code":"2100801","prefecture":"KANAGAWA KEN","city":"KAWASAKI SHI KAWASAKI KU","town":"SUZUKICHO","perfecture_jp":"神奈川県","jp_add_1":"川崎市川崎区","jp_add_2":"鈴木町"},"2100814":{"post_code":"2100814","prefecture":"KANAGAWA KEN","city":"KAWASAKI SHI KAWASAKI KU","town":"DAIMACHI","perfecture_jp":"神奈川県","jp_add_1":"川崎市川崎区","jp_add_2":"台町"},"2100853":{"post_code":"2100853","prefecture":"KANAGAWA KEN","city":"KAWASAKI SHI KAWASAKI KU","town":"TAJIMACHO","perfecture_jp":"神奈川県","jp_add_1":"川崎市川崎区","jp_add_2":"田島町"},"2100856":{"post_code":"2100856","prefecture":"KANAGAWA KEN","city":"KAWASAKI SHI KAWASAKI KU","town":"TANABESHINDEN","perfecture_jp":"神奈川県","jp_add_1":"川崎市川崎区","jp_add_2":"田辺新田"},"2100822":{"post_code":"2100822","prefecture":"KANAGAWA KEN","city":"KAWASAKI SHI KAWASAKI KU","town":"TAMACHI","perfecture_jp":"神奈川県","jp_add_1":"川崎市川崎区","jp_add_2":"田町"},"2100802":{"post_code":"2100802","prefecture":"KANAGAWA KEN","city":"KAWASAKI SHI KAWASAKI KU","town":"DAISHI EKIMAE","perfecture_jp":"神奈川県","jp_add_1":"川崎市川崎区","jp_add_2":"大師駅前"},"2100811":{"post_code":"2100811","prefecture":"KANAGAWA KEN","city":"KAWASAKI SHI KAWASAKI KU","town":"DAISHI GAWARA","perfecture_jp":"神奈川県","jp_add_1":"川崎市川崎区","jp_add_2":"大師河原"},"2100815":{"post_code":"2100815","prefecture":"KANAGAWA KEN","city":"KAWASAKI SHI KAWASAKI KU","town":"DAISHI KOEN","perfecture_jp":"神奈川県","jp_add_1":"川崎市川崎区","jp_add_2":"大師公園"},"2100817":{"post_code":"2100817","prefecture":"KANAGAWA KEN","city":"KAWASAKI SHI KAWASAKI KU","town":"DAISHI HONCHO","perfecture_jp":"神奈川県","jp_add_1":"川崎市川崎区","jp_add_2":"大師本町"},"2100816":{"post_code":"2100816","prefecture":"KANAGAWA KEN","city":"KAWASAKI SHI KAWASAKI KU","town":"DAISHIMACHI","perfecture_jp":"神奈川県","jp_add_1":"川崎市川崎区","jp_add_2":"大師町"},"2100865":{"post_code":"2100865","prefecture":"KANAGAWA KEN","city":"KAWASAKI SHI KAWASAKI KU","town":"CHIDORICHO","perfecture_jp":"神奈川県","jp_add_1":"川崎市川崎区","jp_add_2":"千鳥町"},"2100026":{"post_code":"2100026","prefecture":"KANAGAWA KEN","city":"KAWASAKI SHI KAWASAKI KU","town":"TSUTSUMINE","perfecture_jp":"神奈川県","jp_add_1":"川崎市川崎区","jp_add_2":"堤根"},"2100825":{"post_code":"2100825","prefecture":"KANAGAWA KEN","city":"KAWASAKI SHI KAWASAKI KU","town":"DEKINO","perfecture_jp":"神奈川県","jp_add_1":"川崎市川崎区","jp_add_2":"出来野"},"2100821":{"post_code":"2100821","prefecture":"KANAGAWA KEN","city":"KAWASAKI SHI KAWASAKI KU","town":"TONOMACHI","perfecture_jp":"神奈川県","jp_add_1":"川崎市川崎区","jp_add_2":"殿町"},"2100806":{"post_code":"2100806","prefecture":"KANAGAWA KEN","city":"KAWASAKI SHI KAWASAKI KU","town":"NAKAJIMA","perfecture_jp":"神奈川県","jp_add_1":"川崎市川崎区","jp_add_2":"中島"},"2100818":{"post_code":"2100818","prefecture":"KANAGAWA KEN","city":"KAWASAKI SHI KAWASAKI KU","town":"NAKAZE","perfecture_jp":"神奈川県","jp_add_1":"川崎市川崎区","jp_add_2":"中瀬"},"2100024":{"post_code":"2100024","prefecture":"KANAGAWA KEN","city":"KAWASAKI SHI KAWASAKI KU","town":"NISSHINCHO","perfecture_jp":"神奈川県","jp_add_1":"川崎市川崎区","jp_add_2":"日進町"},"2100851":{"post_code":"2100851","prefecture":"KANAGAWA KEN","city":"KAWASAKI SHI KAWASAKI KU","town":"HAMACHO","perfecture_jp":"神奈川県","jp_add_1":"川崎市川崎区","jp_add_2":"浜町"},"2100869":{"post_code":"2100869","prefecture":"KANAGAWA KEN","city":"KAWASAKI SHI KAWASAKI KU","town":"HIGASHIOGISHIMA","perfecture_jp":"神奈川県","jp_add_1":"川崎市川崎区","jp_add_2":"東扇島"},"2100005":{"post_code":"2100005","prefecture":"KANAGAWA KEN","city":"KAWASAKI SHI KAWASAKI KU","town":"HIGASHIDACHO","perfecture_jp":"神奈川県","jp_add_1":"川崎市川崎区","jp_add_2":"東田町"},"2100812":{"post_code":"2100812","prefecture":"KANAGAWA KEN","city":"KAWASAKI SHI KAWASAKI KU","town":"HIGASHIMONZEN","perfecture_jp":"神奈川県","jp_add_1":"川崎市川崎区","jp_add_2":"東門前"},"2100824":{"post_code":"2100824","prefecture":"KANAGAWA KEN","city":"KAWASAKI SHI KAWASAKI KU","town":"HINODE","perfecture_jp":"神奈川県","jp_add_1":"川崎市川崎区","jp_add_2":"日ノ出"},"2100804":{"post_code":"2100804","prefecture":"KANAGAWA KEN","city":"KAWASAKI SHI KAWASAKI KU","town":"FUJISAKI","perfecture_jp":"神奈川県","jp_add_1":"川崎市川崎区","jp_add_2":"藤崎"},"2100011":{"post_code":"2100011","prefecture":"KANAGAWA KEN","city":"KAWASAKI SHI KAWASAKI KU","town":"FUJIMI","perfecture_jp":"神奈川県","jp_add_1":"川崎市川崎区","jp_add_2":"富士見"},"2100003":{"post_code":"2100003","prefecture":"KANAGAWA KEN","city":"KAWASAKI SHI KAWASAKI KU","town":"HORINOCHIMACHI","perfecture_jp":"神奈川県","jp_add_1":"川崎市川崎区","jp_add_2":"堀之内町"},"2100001":{"post_code":"2100001","prefecture":"KANAGAWA KEN","city":"KAWASAKI SHI KAWASAKI KU","town":"HONCHO","perfecture_jp":"神奈川県","jp_add_1":"川崎市川崎区","jp_add_2":"本町"},"2100866":{"post_code":"2100866","prefecture":"KANAGAWA KEN","city":"KAWASAKI SHI KAWASAKI KU","town":"MIZUECHO","perfecture_jp":"神奈川県","jp_add_1":"川崎市川崎区","jp_add_2":"水江町"},"2100807":{"post_code":"2100807","prefecture":"KANAGAWA KEN","city":"KAWASAKI SHI KAWASAKI KU","town":"MINATOCHO","perfecture_jp":"神奈川県","jp_add_1":"川崎市川崎区","jp_add_2":"港町"},"2100015":{"post_code":"2100015","prefecture":"KANAGAWA KEN","city":"KAWASAKI SHI KAWASAKI KU","town":"MINAMIMACHI","perfecture_jp":"神奈川県","jp_add_1":"川崎市川崎区","jp_add_2":"南町"},"2100855":{"post_code":"2100855","prefecture":"KANAGAWA KEN","city":"KAWASAKI SHI KAWASAKI KU","town":"MINAMIWATARIDACHO","perfecture_jp":"神奈川県","jp_add_1":"川崎市川崎区","jp_add_2":"南渡田町"},"2100012":{"post_code":"2100012","prefecture":"KANAGAWA KEN","city":"KAWASAKI SHI KAWASAKI KU","town":"MIYAMAECHO","perfecture_jp":"神奈川県","jp_add_1":"川崎市川崎区","jp_add_2":"宮前町"},"2100004":{"post_code":"2100004","prefecture":"KANAGAWA KEN","city":"KAWASAKI SHI KAWASAKI KU","town":"MIYAMOTOCHO","perfecture_jp":"神奈川県","jp_add_1":"川崎市川崎区","jp_add_2":"宮本町"},"2100021":{"post_code":"2100021","prefecture":"KANAGAWA KEN","city":"KAWASAKI SHI KAWASAKI KU","town":"MOTOGI","perfecture_jp":"神奈川県","jp_add_1":"川崎市川崎区","jp_add_2":"元木"},"2100863":{"post_code":"2100863","prefecture":"KANAGAWA KEN","city":"KAWASAKI SHI KAWASAKI KU","town":"YAKO","perfecture_jp":"神奈川県","jp_add_1":"川崎市川崎区","jp_add_2":"夜光"},"2100828":{"post_code":"2100828","prefecture":"KANAGAWA KEN","city":"KAWASAKI SHI KAWASAKI KU","town":"YOTSUYA KAMICHO","perfecture_jp":"神奈川県","jp_add_1":"川崎市川崎区","jp_add_2":"四谷上町"},"2100827":{"post_code":"2100827","prefecture":"KANAGAWA KEN","city":"KAWASAKI SHI KAWASAKI KU","town":"YOTSUYA SHIMOCHO","perfecture_jp":"神奈川県","jp_add_1":"川崎市川崎区","jp_add_2":"四谷下町"},"2100837":{"post_code":"2100837","prefecture":"KANAGAWA KEN","city":"KAWASAKI SHI KAWASAKI KU","town":"WATARIDA","perfecture_jp":"神奈川県","jp_add_1":"川崎市川崎区","jp_add_2":"渡田"},"2100845":{"post_code":"2100845","prefecture":"KANAGAWA KEN","city":"KAWASAKI SHI KAWASAKI KU","town":"WATARIDA SANNOCHO","perfecture_jp":"神奈川県","jp_add_1":"川崎市川崎区","jp_add_2":"渡田山王町"},"2100844":{"post_code":"2100844","prefecture":"KANAGAWA KEN","city":"KAWASAKI SHI KAWASAKI KU","town":"WATARIDA SHINCHO","perfecture_jp":"神奈川県","jp_add_1":"川崎市川崎区","jp_add_2":"渡田新町"},"2100842":{"post_code":"2100842","prefecture":"KANAGAWA KEN","city":"KAWASAKI SHI KAWASAKI KU","town":"WATARIDA HIGASHICHO","perfecture_jp":"神奈川県","jp_add_1":"川崎市川崎区","jp_add_2":"渡田東町"},"2100841":{"post_code":"2100841","prefecture":"KANAGAWA KEN","city":"KAWASAKI SHI KAWASAKI KU","town":"WATARIDA MUKAICHO","perfecture_jp":"神奈川県","jp_add_1":"川崎市川崎区","jp_add_2":"渡田向町"}}