{"2110000":{"post_code":"2110000","prefecture":"KANAGAWA KEN","city":"KAWASAKI SHI NAKAHARA KU","town":"IKANIKEISAIGANAIBAAI","perfecture_jp":"神奈川県","jp_add_1":"川崎市中原区","jp_add_2":""},"2110035":{"post_code":"2110035","prefecture":"KANAGAWA KEN","city":"KAWASAKI SHI NAKAHARA KU","town":"IDA","perfecture_jp":"神奈川県","jp_add_1":"川崎市中原区","jp_add_2":"井田"},"2110037":{"post_code":"2110037","prefecture":"KANAGAWA KEN","city":"KAWASAKI SHI NAKAHARA KU","town":"IDA SAMMAICHO","perfecture_jp":"神奈川県","jp_add_1":"川崎市中原区","jp_add_2":"井田三舞町"},"2110036":{"post_code":"2110036","prefecture":"KANAGAWA KEN","city":"KAWASAKI SHI NAKAHARA KU","town":"IDA SUGIYAMACHO","perfecture_jp":"神奈川県","jp_add_1":"川崎市中原区","jp_add_2":"井田杉山町"},"2110034":{"post_code":"2110034","prefecture":"KANAGAWA KEN","city":"KAWASAKI SHI NAKAHARA KU","town":"IDA NAKANOCHO","perfecture_jp":"神奈川県","jp_add_1":"川崎市中原区","jp_add_2":"井田中ノ町"},"2110016":{"post_code":"2110016","prefecture":"KANAGAWA KEN","city":"KAWASAKI SHI NAKAHARA KU","town":"ICHINOTSUBO","perfecture_jp":"神奈川県","jp_add_1":"川崎市中原区","jp_add_2":"市ノ坪"},"2110067":{"post_code":"2110067","prefecture":"KANAGAWA KEN","city":"KAWASAKI SHI NAKAHARA KU","town":"IMAI KAMICHO","perfecture_jp":"神奈川県","jp_add_1":"川崎市中原区","jp_add_2":"今井上町"},"2110065":{"post_code":"2110065","prefecture":"KANAGAWA KEN","city":"KAWASAKI SHI NAKAHARA KU","town":"IMAI NAKAMACHI","perfecture_jp":"神奈川県","jp_add_1":"川崎市中原区","jp_add_2":"今井仲町"},"2110066":{"post_code":"2110066","prefecture":"KANAGAWA KEN","city":"KAWASAKI SHI NAKAHARA KU","town":"IMAI NISHIMACHI","perfecture_jp":"神奈川県","jp_add_1":"川崎市中原区","jp_add_2":"今井西町"},"2110064":{"post_code":"2110064","prefecture":"KANAGAWA KEN","city":"KAWASAKI SHI NAKAHARA KU","town":"IMAI MINAMICHO","perfecture_jp":"神奈川県","jp_add_1":"川崎市中原区","jp_add_2":"今井南町"},"2110023":{"post_code":"2110023","prefecture":"KANAGAWA KEN","city":"KAWASAKI SHI NAKAHARA KU","town":"OKURACHO","perfecture_jp":"神奈川県","jp_add_1":"川崎市中原区","jp_add_2":"大倉町"},"2110053":{"post_code":"2110053","prefecture":"KANAGAWA KEN","city":"KAWASAKI SHI NAKAHARA KU","town":"KAMIKODANAKA","perfecture_jp":"神奈川県","jp_add_1":"川崎市中原区","jp_add_2":"上小田中"},"2110045":{"post_code":"2110045","prefecture":"KANAGAWA KEN","city":"KAWASAKI SHI NAKAHARA KU","town":"KAMISHINJO","perfecture_jp":"神奈川県","jp_add_1":"川崎市中原区","jp_add_2":"上新城"},"2110013":{"post_code":"2110013","prefecture":"KANAGAWA KEN","city":"KAWASAKI SHI NAKAHARA KU","town":"KAMIHIRAMA","perfecture_jp":"神奈川県","jp_add_1":"川崎市中原区","jp_add_2":"上平間"},"2110003":{"post_code":"2110003","prefecture":"KANAGAWA KEN","city":"KAWASAKI SHI NAKAHARA KU","town":"KAMIMARUKO","perfecture_jp":"神奈川県","jp_add_1":"川崎市中原区","jp_add_2":"上丸子"},"2110002":{"post_code":"2110002","prefecture":"KANAGAWA KEN","city":"KAWASAKI SHI NAKAHARA KU","town":"KAMIMARUKO SANNOCHO","perfecture_jp":"神奈川県","jp_add_1":"川崎市中原区","jp_add_2":"上丸子山王町"},"2110007":{"post_code":"2110007","prefecture":"KANAGAWA KEN","city":"KAWASAKI SHI NAKAHARA KU","town":"KAMIMARUKO TENJINCHO","perfecture_jp":"神奈川県","jp_add_1":"川崎市中原区","jp_add_2":"上丸子天神町"},"2110001":{"post_code":"2110001","prefecture":"KANAGAWA KEN","city":"KAWASAKI SHI NAKAHARA KU","town":"KAMIMARUKO HACHIMANCHO","perfecture_jp":"神奈川県","jp_add_1":"川崎市中原区","jp_add_2":"上丸子八幡町"},"2110022":{"post_code":"2110022","prefecture":"KANAGAWA KEN","city":"KAWASAKI SHI NAKAHARA KU","town":"KARIYADO","perfecture_jp":"神奈川県","jp_add_1":"川崎市中原区","jp_add_2":"苅宿"},"2110015":{"post_code":"2110015","prefecture":"KANAGAWA KEN","city":"KAWASAKI SHI NAKAHARA KU","town":"KITAYACHO","perfecture_jp":"神奈川県","jp_add_1":"川崎市中原区","jp_add_2":"北谷町"},"2110025":{"post_code":"2110025","prefecture":"KANAGAWA KEN","city":"KAWASAKI SHI NAKAHARA KU","town":"KIZUKI","perfecture_jp":"神奈川県","jp_add_1":"川崎市中原区","jp_add_2":"木月"},"2110032":{"post_code":"2110032","prefecture":"KANAGAWA KEN","city":"KAWASAKI SHI NAKAHARA KU","town":"KIZUKI ISECHO","perfecture_jp":"神奈川県","jp_add_1":"川崎市中原区","jp_add_2":"木月伊勢町"},"2110033":{"post_code":"2110033","prefecture":"KANAGAWA KEN","city":"KAWASAKI SHI NAKAHARA KU","town":"KIZUKI GIONCHO","perfecture_jp":"神奈川県","jp_add_1":"川崎市中原区","jp_add_2":"木月祗園町"},"2110021":{"post_code":"2110021","prefecture":"KANAGAWA KEN","city":"KAWASAKI SHI NAKAHARA KU","town":"KIZUKI SUMIYOSHICHO","perfecture_jp":"神奈川県","jp_add_1":"川崎市中原区","jp_add_2":"木月住吉町"},"2110031":{"post_code":"2110031","prefecture":"KANAGAWA KEN","city":"KAWASAKI SHI NAKAHARA KU","town":"KIZUKI OMACHI","perfecture_jp":"神奈川県","jp_add_1":"川崎市中原区","jp_add_2":"木月大町"},"2110061":{"post_code":"2110061","prefecture":"KANAGAWA KEN","city":"KAWASAKI SHI NAKAHARA KU","town":"KOSUGI","perfecture_jp":"神奈川県","jp_add_1":"川崎市中原区","jp_add_2":"小杉"},"2110068":{"post_code":"2110068","prefecture":"KANAGAWA KEN","city":"KAWASAKI SHI NAKAHARA KU","town":"KOSUGI GOTENCHO","perfecture_jp":"神奈川県","jp_add_1":"川崎市中原区","jp_add_2":"小杉御殿町"},"2110062":{"post_code":"2110062","prefecture":"KANAGAWA KEN","city":"KAWASAKI SHI NAKAHARA KU","town":"KOSUGI JINYACHO","perfecture_jp":"神奈川県","jp_add_1":"川崎市中原区","jp_add_2":"小杉陣屋町"},"2110063":{"post_code":"2110063","prefecture":"KANAGAWA KEN","city":"KAWASAKI SHI NAKAHARA KU","town":"KOSUGIMACHI","perfecture_jp":"神奈川県","jp_add_1":"川崎市中原区","jp_add_2":"小杉町"},"2110041":{"post_code":"2110041","prefecture":"KANAGAWA KEN","city":"KAWASAKI SHI NAKAHARA KU","town":"SHIMOKODANAKA","perfecture_jp":"神奈川県","jp_add_1":"川崎市中原区","jp_add_2":"下小田中"},"2110042":{"post_code":"2110042","prefecture":"KANAGAWA KEN","city":"KAWASAKI SHI NAKAHARA KU","town":"SHIMOSHINJO","perfecture_jp":"神奈川県","jp_add_1":"川崎市中原区","jp_add_2":"下新城"},"2110011":{"post_code":"2110011","prefecture":"KANAGAWA KEN","city":"KAWASAKI SHI NAKAHARA KU","town":"SHIMONUMABE","perfecture_jp":"神奈川県","jp_add_1":"川崎市中原区","jp_add_2":"下沼部"},"2110044":{"post_code":"2110044","prefecture":"KANAGAWA KEN","city":"KAWASAKI SHI NAKAHARA KU","town":"SHINJO","perfecture_jp":"神奈川県","jp_add_1":"川崎市中原区","jp_add_2":"新城"},"2110043":{"post_code":"2110043","prefecture":"KANAGAWA KEN","city":"KAWASAKI SHI NAKAHARA KU","town":"SHINJONAKACHO","perfecture_jp":"神奈川県","jp_add_1":"川崎市中原区","jp_add_2":"新城中町"},"2110005":{"post_code":"2110005","prefecture":"KANAGAWA KEN","city":"KAWASAKI SHI NAKAHARA KU","town":"SHIMMARUKOMACHI","perfecture_jp":"神奈川県","jp_add_1":"川崎市中原区","jp_add_2":"新丸子町"},"2110004":{"post_code":"2110004","prefecture":"KANAGAWA KEN","city":"KAWASAKI SHI NAKAHARA KU","town":"SHIMMARUKOHIGASHI","perfecture_jp":"神奈川県","jp_add_1":"川崎市中原区","jp_add_2":"新丸子東"},"2110014":{"post_code":"2110014","prefecture":"KANAGAWA KEN","city":"KAWASAKI SHI NAKAHARA KU","town":"TAJIRICHO","perfecture_jp":"神奈川県","jp_add_1":"川崎市中原区","jp_add_2":"田尻町"},"2110052":{"post_code":"2110052","prefecture":"KANAGAWA KEN","city":"KAWASAKI SHI NAKAHARA KU","town":"TODOROKI","perfecture_jp":"神奈川県","jp_add_1":"川崎市中原区","jp_add_2":"等々力"},"2110012":{"post_code":"2110012","prefecture":"KANAGAWA KEN","city":"KAWASAKI SHI NAKAHARA KU","town":"NAKAMARUKO","perfecture_jp":"神奈川県","jp_add_1":"川崎市中原区","jp_add_2":"中丸子"},"2110024":{"post_code":"2110024","prefecture":"KANAGAWA KEN","city":"KAWASAKI SHI NAKAHARA KU","town":"NISHIKASE","perfecture_jp":"神奈川県","jp_add_1":"川崎市中原区","jp_add_2":"西加瀬"},"2110006":{"post_code":"2110006","prefecture":"KANAGAWA KEN","city":"KAWASAKI SHI NAKAHARA KU","town":"MARUKODORI","perfecture_jp":"神奈川県","jp_add_1":"川崎市中原区","jp_add_2":"丸子通"},"2110051":{"post_code":"2110051","prefecture":"KANAGAWA KEN","city":"KAWASAKI SHI NAKAHARA KU","town":"MIYAUCHI","perfecture_jp":"神奈川県","jp_add_1":"川崎市中原区","jp_add_2":"宮内"}}