{"2130000":{"post_code":"2130000","prefecture":"KANAGAWA KEN","city":"KAWASAKI SHI TAKATSU KU","town":"IKANIKEISAIGANAIBAAI","perfecture_jp":"神奈川県","jp_add_1":"川崎市高津区","jp_add_2":""},"2130024":{"post_code":"2130024","prefecture":"KANAGAWA KEN","city":"KAWASAKI SHI TAKATSU KU","town":"AKUTSU","perfecture_jp":"神奈川県","jp_add_1":"川崎市高津区","jp_add_2":"明津"},"2130031":{"post_code":"2130031","prefecture":"KANAGAWA KEN","city":"KAWASAKI SHI TAKATSU KU","town":"UNANE","perfecture_jp":"神奈川県","jp_add_1":"川崎市高津区","jp_add_2":"宇奈根"},"2130015":{"post_code":"2130015","prefecture":"KANAGAWA KEN","city":"KAWASAKI SHI TAKATSU KU","town":"KAJIGAYA","perfecture_jp":"神奈川県","jp_add_1":"川崎市高津区","jp_add_2":"梶ケ谷"},"2130025":{"post_code":"2130025","prefecture":"KANAGAWA KEN","city":"KAWASAKI SHI TAKATSU KU","town":"KANIGAYA","perfecture_jp":"神奈川県","jp_add_1":"川崎市高津区","jp_add_2":"蟹ケ谷"},"2130034":{"post_code":"2130034","prefecture":"KANAGAWA KEN","city":"KAWASAKI SHI TAKATSU KU","town":"KAMISAKUNOBE","perfecture_jp":"神奈川県","jp_add_1":"川崎市高津区","jp_add_2":"上作延"},"2130005":{"post_code":"2130005","prefecture":"KANAGAWA KEN","city":"KAWASAKI SHI TAKATSU KU","town":"KITAMIKATA","perfecture_jp":"神奈川県","jp_add_1":"川崎市高津区","jp_add_2":"北見方"},"2130032":{"post_code":"2130032","prefecture":"KANAGAWA KEN","city":"KAWASAKI SHI TAKATSU KU","town":"KUJI","perfecture_jp":"神奈川県","jp_add_1":"川崎市高津区","jp_add_2":"久地"},"2130012":{"post_code":"2130012","prefecture":"KANAGAWA KEN","city":"KAWASAKI SHI TAKATSU KU","town":"SAKADO","perfecture_jp":"神奈川県","jp_add_1":"川崎市高津区","jp_add_2":"坂戸"},"2130023":{"post_code":"2130023","prefecture":"KANAGAWA KEN","city":"KAWASAKI SHI TAKATSU KU","town":"SHIBOKUCHI","perfecture_jp":"神奈川県","jp_add_1":"川崎市高津区","jp_add_2":"子母口"},"2130033":{"post_code":"2130033","prefecture":"KANAGAWA KEN","city":"KAWASAKI SHI TAKATSU KU","town":"SHIMOSAKUNOBE","perfecture_jp":"神奈川県","jp_add_1":"川崎市高津区","jp_add_2":"下作延"},"2130006":{"post_code":"2130006","prefecture":"KANAGAWA KEN","city":"KAWASAKI SHI TAKATSU KU","town":"SHIMONOGE","perfecture_jp":"神奈川県","jp_add_1":"川崎市高津区","jp_add_2":"下野毛"},"2130014":{"post_code":"2130014","prefecture":"KANAGAWA KEN","city":"KAWASAKI SHI TAKATSU KU","town":"SHINSAKU","perfecture_jp":"神奈川県","jp_add_1":"川崎市高津区","jp_add_2":"新作"},"2130013":{"post_code":"2130013","prefecture":"KANAGAWA KEN","city":"KAWASAKI SHI TAKATSU KU","town":"SUENAGA","perfecture_jp":"神奈川県","jp_add_1":"川崎市高津区","jp_add_2":"末長"},"2130004":{"post_code":"2130004","prefecture":"KANAGAWA KEN","city":"KAWASAKI SHI TAKATSU KU","town":"SUWA","perfecture_jp":"神奈川県","jp_add_1":"川崎市高津区","jp_add_2":"諏訪"},"2130003":{"post_code":"2130003","prefecture":"KANAGAWA KEN","city":"KAWASAKI SHI TAKATSU KU","town":"SETA","perfecture_jp":"神奈川県","jp_add_1":"川崎市高津区","jp_add_2":"瀬田"},"2130022":{"post_code":"2130022","prefecture":"KANAGAWA KEN","city":"KAWASAKI SHI TAKATSU KU","town":"CHITOSE","perfecture_jp":"神奈川県","jp_add_1":"川崎市高津区","jp_add_2":"千年"},"2130021":{"post_code":"2130021","prefecture":"KANAGAWA KEN","city":"KAWASAKI SHI TAKATSU KU","town":"CHITOSESHINCHO","perfecture_jp":"神奈川県","jp_add_1":"川崎市高津区","jp_add_2":"千年新町"},"2130027":{"post_code":"2130027","prefecture":"KANAGAWA KEN","city":"KAWASAKI SHI TAKATSU KU","town":"NOGAWA","perfecture_jp":"神奈川県","jp_add_1":"川崎市高津区","jp_add_2":"野川"},"2130026":{"post_code":"2130026","prefecture":"KANAGAWA KEN","city":"KAWASAKI SHI TAKATSU KU","town":"HISASUE","perfecture_jp":"神奈川県","jp_add_1":"川崎市高津区","jp_add_2":"久末"},"2130011":{"post_code":"2130011","prefecture":"KANAGAWA KEN","city":"KAWASAKI SHI TAKATSU KU","town":"HISAMOTO","perfecture_jp":"神奈川県","jp_add_1":"川崎市高津区","jp_add_2":"久本"},"2130002":{"post_code":"2130002","prefecture":"KANAGAWA KEN","city":"KAWASAKI SHI TAKATSU KU","town":"FUTAGO","perfecture_jp":"神奈川県","jp_add_1":"川崎市高津区","jp_add_2":"二子"},"2130001":{"post_code":"2130001","prefecture":"KANAGAWA KEN","city":"KAWASAKI SHI TAKATSU KU","town":"MIZONOKUCHI","perfecture_jp":"神奈川県","jp_add_1":"川崎市高津区","jp_add_2":"溝口"},"2130035":{"post_code":"2130035","prefecture":"KANAGAWA KEN","city":"KAWASAKI SHI TAKATSU KU","town":"MUKAIGAOKA","perfecture_jp":"神奈川県","jp_add_1":"川崎市高津区","jp_add_2":"向ケ丘"}}