{"2150000":{"post_code":"2150000","prefecture":"KANAGAWA KEN","city":"KAWASAKI SHI ASAO KU","town":"IKANIKEISAIGANAIBAAI","perfecture_jp":"神奈川県","jp_add_1":"川崎市麻生区","jp_add_2":""},"2150013":{"post_code":"2150013","prefecture":"KANAGAWA KEN","city":"KAWASAKI SHI ASAO KU","town":"OZENJI","perfecture_jp":"神奈川県","jp_add_1":"川崎市麻生区","jp_add_2":"王禅寺"},"2150017":{"post_code":"2150017","prefecture":"KANAGAWA KEN","city":"KAWASAKI SHI ASAO KU","town":"OZENJINISHI","perfecture_jp":"神奈川県","jp_add_1":"川崎市麻生区","jp_add_2":"王禅寺西"},"2150018":{"post_code":"2150018","prefecture":"KANAGAWA KEN","city":"KAWASAKI SHI ASAO KU","town":"OZENJIHIGASHI","perfecture_jp":"神奈川県","jp_add_1":"川崎市麻生区","jp_add_2":"王禅寺東"},"2150027":{"post_code":"2150027","prefecture":"KANAGAWA KEN","city":"KAWASAKI SHI ASAO KU","town":"OKAGAMI","perfecture_jp":"神奈川県","jp_add_1":"川崎市麻生区","jp_add_2":"岡上"},"2150023":{"post_code":"2150023","prefecture":"KANAGAWA KEN","city":"KAWASAKI SHI ASAO KU","town":"KATAHIRA","perfecture_jp":"神奈川県","jp_add_1":"川崎市麻生区","jp_add_2":"片平"},"2150006":{"post_code":"2150006","prefecture":"KANAGAWA KEN","city":"KAWASAKI SHI ASAO KU","town":"KANAHODO","perfecture_jp":"神奈川県","jp_add_1":"川崎市麻生区","jp_add_2":"金程"},"2150021":{"post_code":"2150021","prefecture":"KANAGAWA KEN","city":"KAWASAKI SHI ASAO KU","town":"KAMIASAO","perfecture_jp":"神奈川県","jp_add_1":"川崎市麻生区","jp_add_2":"上麻生"},"2150033":{"post_code":"2150033","prefecture":"KANAGAWA KEN","city":"KAWASAKI SHI ASAO KU","town":"KURIGI","perfecture_jp":"神奈川県","jp_add_1":"川崎市麻生区","jp_add_2":"栗木"},"2150032":{"post_code":"2150032","prefecture":"KANAGAWA KEN","city":"KAWASAKI SHI ASAO KU","town":"KURIGIDAI","perfecture_jp":"神奈川県","jp_add_1":"川崎市麻生区","jp_add_2":"栗木台"},"2150031":{"post_code":"2150031","prefecture":"KANAGAWA KEN","city":"KAWASAKI SHI ASAO KU","town":"KURIHIRA","perfecture_jp":"神奈川県","jp_add_1":"川崎市麻生区","jp_add_2":"栗平"},"2150035":{"post_code":"2150035","prefecture":"KANAGAWA KEN","city":"KAWASAKI SHI ASAO KU","town":"KUROKAWA","perfecture_jp":"神奈川県","jp_add_1":"川崎市麻生区","jp_add_2":"黒川"},"2150025":{"post_code":"2150025","prefecture":"KANAGAWA KEN","city":"KAWASAKI SHI ASAO KU","town":"GORIKIDA","perfecture_jp":"神奈川県","jp_add_1":"川崎市麻生区","jp_add_2":"五力田"},"2150022":{"post_code":"2150022","prefecture":"KANAGAWA KEN","city":"KAWASAKI SHI ASAO KU","town":"SHIMOASAO","perfecture_jp":"神奈川県","jp_add_1":"川崎市麻生区","jp_add_2":"下麻生"},"2150024":{"post_code":"2150024","prefecture":"KANAGAWA KEN","city":"KAWASAKI SHI ASAO KU","town":"SHIRATORI","perfecture_jp":"神奈川県","jp_add_1":"川崎市麻生区","jp_add_2":"白鳥"},"2150003":{"post_code":"2150003","prefecture":"KANAGAWA KEN","city":"KAWASAKI SHI ASAO KU","town":"TAKAISHI","perfecture_jp":"神奈川県","jp_add_1":"川崎市麻生区","jp_add_2":"高石"},"2150002":{"post_code":"2150002","prefecture":"KANAGAWA KEN","city":"KAWASAKI SHI ASAO KU","town":"TAMAMI","perfecture_jp":"神奈川県","jp_add_1":"川崎市麻生区","jp_add_2":"多摩美"},"2150005":{"post_code":"2150005","prefecture":"KANAGAWA KEN","city":"KAWASAKI SHI ASAO KU","town":"CHIYOGAOKA","perfecture_jp":"神奈川県","jp_add_1":"川崎市麻生区","jp_add_2":"千代ケ丘"},"2150015":{"post_code":"2150015","prefecture":"KANAGAWA KEN","city":"KAWASAKI SHI ASAO KU","town":"NIJIGAOKA","perfecture_jp":"神奈川県","jp_add_1":"川崎市麻生区","jp_add_2":"虹ケ丘"},"2150014":{"post_code":"2150014","prefecture":"KANAGAWA KEN","city":"KAWASAKI SHI ASAO KU","town":"HAKUSAN","perfecture_jp":"神奈川県","jp_add_1":"川崎市麻生区","jp_add_2":"白山"},"2150016":{"post_code":"2150016","prefecture":"KANAGAWA KEN","city":"KAWASAKI SHI ASAO KU","town":"HAYANO","perfecture_jp":"神奈川県","jp_add_1":"川崎市麻生区","jp_add_2":"早野"},"2150036":{"post_code":"2150036","prefecture":"KANAGAWA KEN","city":"KAWASAKI SHI ASAO KU","town":"HARUHINO","perfecture_jp":"神奈川県","jp_add_1":"川崎市麻生区","jp_add_2":"はるひ野"},"2150012":{"post_code":"2150012","prefecture":"KANAGAWA KEN","city":"KAWASAKI SHI ASAO KU","town":"HIGASHIYURIGAOKA","perfecture_jp":"神奈川県","jp_add_1":"川崎市麻生区","jp_add_2":"東百合丘"},"2150026":{"post_code":"2150026","prefecture":"KANAGAWA KEN","city":"KAWASAKI SHI ASAO KU","town":"FURUSAWA","perfecture_jp":"神奈川県","jp_add_1":"川崎市麻生区","jp_add_2":"古沢"},"2150001":{"post_code":"2150001","prefecture":"KANAGAWA KEN","city":"KAWASAKI SHI ASAO KU","town":"HOSOYAMA","perfecture_jp":"神奈川県","jp_add_1":"川崎市麻生区","jp_add_2":"細山"},"2150004":{"post_code":"2150004","prefecture":"KANAGAWA KEN","city":"KAWASAKI SHI ASAO KU","town":"MAMPUKUJI","perfecture_jp":"神奈川県","jp_add_1":"川崎市麻生区","jp_add_2":"万福寺"},"2150034":{"post_code":"2150034","prefecture":"KANAGAWA KEN","city":"KAWASAKI SHI ASAO KU","town":"MINAMIKUROKAWA","perfecture_jp":"神奈川県","jp_add_1":"川崎市麻生区","jp_add_2":"南黒川"},"2150007":{"post_code":"2150007","prefecture":"KANAGAWA KEN","city":"KAWASAKI SHI ASAO KU","town":"MUKAIBARA","perfecture_jp":"神奈川県","jp_add_1":"川崎市麻生区","jp_add_2":"向原"},"2150011":{"post_code":"2150011","prefecture":"KANAGAWA KEN","city":"KAWASAKI SHI ASAO KU","town":"YURIGAOKA","perfecture_jp":"神奈川県","jp_add_1":"川崎市麻生区","jp_add_2":"百合丘"}}