{"2250011":{"post_code":"2250011","prefecture":"KANAGAWA KEN","city":"YOKOHAMA SHI AOBA KU","town":"AZAMINO","perfecture_jp":"神奈川県","jp_add_1":"横浜市青葉区","jp_add_2":"あざみ野"},"2250012":{"post_code":"2250012","prefecture":"KANAGAWA KEN","city":"YOKOHAMA SHI AOBA KU","town":"AZAMINOMINAMI","perfecture_jp":"神奈川県","jp_add_1":"横浜市青葉区","jp_add_2":"あざみ野南"},"2250024":{"post_code":"2250024","prefecture":"KANAGAWA KEN","city":"YOKOHAMA SHI AOBA KU","town":"ICHIGAOCHO","perfecture_jp":"神奈川県","jp_add_1":"横浜市青葉区","jp_add_2":"市ケ尾町"},"2250002":{"post_code":"2250002","prefecture":"KANAGAWA KEN","city":"YOKOHAMA SHI AOBA KU","town":"UTSUKUSHIGAOKA","perfecture_jp":"神奈川県","jp_add_1":"横浜市青葉区","jp_add_2":"美しが丘"},"2250001":{"post_code":"2250001","prefecture":"KANAGAWA KEN","city":"YOKOHAMA SHI AOBA KU","town":"UTSUKUSHIGAOKANISHI","perfecture_jp":"神奈川県","jp_add_1":"横浜市青葉区","jp_add_2":"美しが丘西"},"2250005":{"post_code":"2250005","prefecture":"KANAGAWA KEN","city":"YOKOHAMA SHI AOBA KU","town":"EKODA","perfecture_jp":"神奈川県","jp_add_1":"横浜市青葉区","jp_add_2":"荏子田"},"2250013":{"post_code":"2250013","prefecture":"KANAGAWA KEN","city":"YOKOHAMA SHI AOBA KU","town":"EDACHO","perfecture_jp":"神奈川県","jp_add_1":"横浜市青葉区","jp_add_2":"荏田町"},"2250014":{"post_code":"2250014","prefecture":"KANAGAWA KEN","city":"YOKOHAMA SHI AOBA KU","town":"EDANISHI","perfecture_jp":"神奈川県","jp_add_1":"横浜市青葉区","jp_add_2":"荏田西"},"2250015":{"post_code":"2250015","prefecture":"KANAGAWA KEN","city":"YOKOHAMA SHI AOBA KU","town":"EDAKITA","perfecture_jp":"神奈川県","jp_add_1":"横浜市青葉区","jp_add_2":"荏田北"},"2250023":{"post_code":"2250023","prefecture":"KANAGAWA KEN","city":"YOKOHAMA SHI AOBA KU","town":"OBACHO","perfecture_jp":"神奈川県","jp_add_1":"横浜市青葉区","jp_add_2":"大場町"},"2250025":{"post_code":"2250025","prefecture":"KANAGAWA KEN","city":"YOKOHAMA SHI AOBA KU","town":"KUROGANECHO","perfecture_jp":"神奈川県","jp_add_1":"横浜市青葉区","jp_add_2":"鉄町"},"2250022":{"post_code":"2250022","prefecture":"KANAGAWA KEN","city":"YOKOHAMA SHI AOBA KU","town":"KUROSUDA","perfecture_jp":"神奈川県","jp_add_1":"横浜市青葉区","jp_add_2":"黒須田"},"2250003":{"post_code":"2250003","prefecture":"KANAGAWA KEN","city":"YOKOHAMA SHI AOBA KU","town":"SHINISHIKAWA","perfecture_jp":"神奈川県","jp_add_1":"横浜市青葉区","jp_add_2":"新石川"},"2250021":{"post_code":"2250021","prefecture":"KANAGAWA KEN","city":"YOKOHAMA SHI AOBA KU","town":"SUSUKINO","perfecture_jp":"神奈川県","jp_add_1":"横浜市青葉区","jp_add_2":"すすき野"},"2250016":{"post_code":"2250016","prefecture":"KANAGAWA KEN","city":"YOKOHAMA SHI AOBA KU","town":"MISUZUGAOKA","perfecture_jp":"神奈川県","jp_add_1":"横浜市青葉区","jp_add_2":"みすずが丘"},"2250004":{"post_code":"2250004","prefecture":"KANAGAWA KEN","city":"YOKOHAMA SHI AOBA KU","town":"MOTOISHIKAWACHO","perfecture_jp":"神奈川県","jp_add_1":"横浜市青葉区","jp_add_2":"元石川町"},"2250026":{"post_code":"2250026","prefecture":"KANAGAWA KEN","city":"YOKOHAMA SHI AOBA KU","town":"MOMINOKIDAI","perfecture_jp":"神奈川県","jp_add_1":"横浜市青葉区","jp_add_2":"もみの木台"}}