{"2260000":{"post_code":"2260000","prefecture":"KANAGAWA KEN","city":"YOKOHAMA SHI MIDORI KU","town":"IKANIKEISAIGANAIBAAI","perfecture_jp":"神奈川県","jp_add_1":"横浜市緑区","jp_add_2":""},"2260022":{"post_code":"2260022","prefecture":"KANAGAWA KEN","city":"YOKOHAMA SHI MIDORI KU","town":"AOTOCHO","perfecture_jp":"神奈川県","jp_add_1":"横浜市緑区","jp_add_2":"青砥町"},"2260028":{"post_code":"2260028","prefecture":"KANAGAWA KEN","city":"YOKOHAMA SHI MIDORI KU","town":"IBUKINO","perfecture_jp":"神奈川県","jp_add_1":"横浜市緑区","jp_add_2":"いぶき野"},"2260012":{"post_code":"2260012","prefecture":"KANAGAWA KEN","city":"YOKOHAMA SHI MIDORI KU","town":"KAMIYAMA","perfecture_jp":"神奈川県","jp_add_1":"横浜市緑区","jp_add_2":"上山"},"2260003":{"post_code":"2260003","prefecture":"KANAGAWA KEN","city":"YOKOHAMA SHI MIDORI KU","town":"KAMOI","perfecture_jp":"神奈川県","jp_add_1":"横浜市緑区","jp_add_2":"鴨居"},"2260004":{"post_code":"2260004","prefecture":"KANAGAWA KEN","city":"YOKOHAMA SHI MIDORI KU","town":"KAMOICHO","perfecture_jp":"神奈川県","jp_add_1":"横浜市緑区","jp_add_2":"鴨居町"},"2260021":{"post_code":"2260021","prefecture":"KANAGAWA KEN","city":"YOKOHAMA SHI MIDORI KU","town":"KITAHASSAKUCHO","perfecture_jp":"神奈川県","jp_add_1":"横浜市緑区","jp_add_2":"北八朔町"},"2260016":{"post_code":"2260016","prefecture":"KANAGAWA KEN","city":"YOKOHAMA SHI MIDORI KU","town":"KIRIGAOKA","perfecture_jp":"神奈川県","jp_add_1":"横浜市緑区","jp_add_2":"霧が丘"},"2260023":{"post_code":"2260023","prefecture":"KANAGAWA KEN","city":"YOKOHAMA SHI MIDORI KU","town":"KOYAMACHO","perfecture_jp":"神奈川県","jp_add_1":"横浜市緑区","jp_add_2":"小山町"},"2260014":{"post_code":"2260014","prefecture":"KANAGAWA KEN","city":"YOKOHAMA SHI MIDORI KU","town":"DAIMURACHO","perfecture_jp":"神奈川県","jp_add_1":"横浜市緑区","jp_add_2":"台村町"},"2260005":{"post_code":"2260005","prefecture":"KANAGAWA KEN","city":"YOKOHAMA SHI MIDORI KU","town":"TAKEYAMA","perfecture_jp":"神奈川県","jp_add_1":"横浜市緑区","jp_add_2":"竹山"},"2260013":{"post_code":"2260013","prefecture":"KANAGAWA KEN","city":"YOKOHAMA SHI MIDORI KU","town":"TERAYAMACHO","perfecture_jp":"神奈川県","jp_add_1":"横浜市緑区","jp_add_2":"寺山町"},"2260025":{"post_code":"2260025","prefecture":"KANAGAWA KEN","city":"YOKOHAMA SHI MIDORI KU","town":"TOKAICHIBACHO","perfecture_jp":"神奈川県","jp_add_1":"横浜市緑区","jp_add_2":"十日市場町"},"2260011":{"post_code":"2260011","prefecture":"KANAGAWA KEN","city":"YOKOHAMA SHI MIDORI KU","town":"NAKAYAMACHO","perfecture_jp":"神奈川県","jp_add_1":"横浜市緑区","jp_add_2":"中山町"},"2260027":{"post_code":"2260027","prefecture":"KANAGAWA KEN","city":"YOKOHAMA SHI MIDORI KU","town":"NAGATSUTA","perfecture_jp":"神奈川県","jp_add_1":"横浜市緑区","jp_add_2":"長津田"},"2260026":{"post_code":"2260026","prefecture":"KANAGAWA KEN","city":"YOKOHAMA SHI MIDORI KU","town":"NAGATSUTACHO","perfecture_jp":"神奈川県","jp_add_1":"横浜市緑区","jp_add_2":"長津田町"},"2260018":{"post_code":"2260018","prefecture":"KANAGAWA KEN","city":"YOKOHAMA SHI MIDORI KU","town":"NAGATSUTAMINAMIDAI","perfecture_jp":"神奈川県","jp_add_1":"横浜市緑区","jp_add_2":"長津田みなみ台"},"2260017":{"post_code":"2260017","prefecture":"KANAGAWA KEN","city":"YOKOHAMA SHI MIDORI KU","town":"NIIHARUCHO","perfecture_jp":"神奈川県","jp_add_1":"横浜市緑区","jp_add_2":"新治町"},"2260024":{"post_code":"2260024","prefecture":"KANAGAWA KEN","city":"YOKOHAMA SHI MIDORI KU","town":"NISHIHASSAKUCHO","perfecture_jp":"神奈川県","jp_add_1":"横浜市緑区","jp_add_2":"西八朔町"},"2260006":{"post_code":"2260006","prefecture":"KANAGAWA KEN","city":"YOKOHAMA SHI MIDORI KU","town":"HAKUSAN","perfecture_jp":"神奈川県","jp_add_1":"横浜市緑区","jp_add_2":"白山"},"2260002":{"post_code":"2260002","prefecture":"KANAGAWA KEN","city":"YOKOHAMA SHI MIDORI KU","town":"HIGASHIHONGO","perfecture_jp":"神奈川県","jp_add_1":"横浜市緑区","jp_add_2":"東本郷"},"2260001":{"post_code":"2260001","prefecture":"KANAGAWA KEN","city":"YOKOHAMA SHI MIDORI KU","town":"HIGASHIHONGOCHO","perfecture_jp":"神奈川県","jp_add_1":"横浜市緑区","jp_add_2":"東本郷町"},"2260015":{"post_code":"2260015","prefecture":"KANAGAWA KEN","city":"YOKOHAMA SHI MIDORI KU","town":"MIHOCHO","perfecture_jp":"神奈川県","jp_add_1":"横浜市緑区","jp_add_2":"三保町"},"2260029":{"post_code":"2260029","prefecture":"KANAGAWA KEN","city":"YOKOHAMA SHI MIDORI KU","town":"MORINODAI","perfecture_jp":"神奈川県","jp_add_1":"横浜市緑区","jp_add_2":"森の台"}}