{"2270000":{"post_code":"2270000","prefecture":"KANAGAWA KEN","city":"YOKOHAMA SHI AOBA KU","town":"IKANIKEISAIGANAIBAAI","perfecture_jp":"神奈川県","jp_add_1":"横浜市青葉区","jp_add_2":""},"2270062":{"post_code":"2270062","prefecture":"KANAGAWA KEN","city":"YOKOHAMA SHI AOBA KU","town":"AOBADAI","perfecture_jp":"神奈川県","jp_add_1":"横浜市青葉区","jp_add_2":"青葉台"},"2270066":{"post_code":"2270066","prefecture":"KANAGAWA KEN","city":"YOKOHAMA SHI AOBA KU","town":"AKANEDAI","perfecture_jp":"神奈川県","jp_add_1":"横浜市青葉区","jp_add_2":"あかね台"},"2270052":{"post_code":"2270052","prefecture":"KANAGAWA KEN","city":"YOKOHAMA SHI AOBA KU","town":"UMEGAOKA","perfecture_jp":"神奈川県","jp_add_1":"横浜市青葉区","jp_add_2":"梅が丘"},"2270063":{"post_code":"2270063","prefecture":"KANAGAWA KEN","city":"YOKOHAMA SHI AOBA KU","town":"ENOKIGAOKA","perfecture_jp":"神奈川県","jp_add_1":"横浜市青葉区","jp_add_2":"榎が丘"},"2270065":{"post_code":"2270065","prefecture":"KANAGAWA KEN","city":"YOKOHAMA SHI AOBA KU","town":"ONDACHO","perfecture_jp":"神奈川県","jp_add_1":"横浜市青葉区","jp_add_2":"恩田町"},"2270048":{"post_code":"2270048","prefecture":"KANAGAWA KEN","city":"YOKOHAMA SHI AOBA KU","town":"KAKINOKIDAI","perfecture_jp":"神奈川県","jp_add_1":"横浜市青葉区","jp_add_2":"柿の木台"},"2270034":{"post_code":"2270034","prefecture":"KANAGAWA KEN","city":"YOKOHAMA SHI AOBA KU","town":"KATSURADAI","perfecture_jp":"神奈川県","jp_add_1":"横浜市青葉区","jp_add_2":"桂台"},"2270041":{"post_code":"2270041","prefecture":"KANAGAWA KEN","city":"YOKOHAMA SHI AOBA KU","town":"KAMIYAMOTOCHO","perfecture_jp":"神奈川県","jp_add_1":"横浜市青葉区","jp_add_2":"上谷本町"},"2270033":{"post_code":"2270033","prefecture":"KANAGAWA KEN","city":"YOKOHAMA SHI AOBA KU","town":"KAMOSHIDACHO","perfecture_jp":"神奈川県","jp_add_1":"横浜市青葉区","jp_add_2":"鴨志田町"},"2270061":{"post_code":"2270061","prefecture":"KANAGAWA KEN","city":"YOKOHAMA SHI AOBA KU","town":"SAKURADAI","perfecture_jp":"神奈川県","jp_add_1":"横浜市青葉区","jp_add_2":"桜台"},"2270053":{"post_code":"2270053","prefecture":"KANAGAWA KEN","city":"YOKOHAMA SHI AOBA KU","town":"SATSUKIGAOKA","perfecture_jp":"神奈川県","jp_add_1":"横浜市青葉区","jp_add_2":"さつきが丘"},"2270031":{"post_code":"2270031","prefecture":"KANAGAWA KEN","city":"YOKOHAMA SHI AOBA KU","town":"JIKECHO","perfecture_jp":"神奈川県","jp_add_1":"横浜市青葉区","jp_add_2":"寺家町"},"2270042":{"post_code":"2270042","prefecture":"KANAGAWA KEN","city":"YOKOHAMA SHI AOBA KU","town":"SHIMOYAMOTOCHO","perfecture_jp":"神奈川県","jp_add_1":"横浜市青葉区","jp_add_2":"下谷本町"},"2270054":{"post_code":"2270054","prefecture":"KANAGAWA KEN","city":"YOKOHAMA SHI AOBA KU","town":"SHIRATORIDAI","perfecture_jp":"神奈川県","jp_add_1":"横浜市青葉区","jp_add_2":"しらとり台"},"2270035":{"post_code":"2270035","prefecture":"KANAGAWA KEN","city":"YOKOHAMA SHI AOBA KU","town":"SUMIYOSHIDAI","perfecture_jp":"神奈川県","jp_add_1":"横浜市青葉区","jp_add_2":"すみよし台"},"2270046":{"post_code":"2270046","prefecture":"KANAGAWA KEN","city":"YOKOHAMA SHI AOBA KU","town":"TACHIBANADAI","perfecture_jp":"神奈川県","jp_add_1":"横浜市青葉区","jp_add_2":"たちばな台"},"2270064":{"post_code":"2270064","prefecture":"KANAGAWA KEN","city":"YOKOHAMA SHI AOBA KU","town":"TANACHO","perfecture_jp":"神奈川県","jp_add_1":"横浜市青葉区","jp_add_2":"田奈町"},"2270051":{"post_code":"2270051","prefecture":"KANAGAWA KEN","city":"YOKOHAMA SHI AOBA KU","town":"CHIGUSADAI","perfecture_jp":"神奈川県","jp_add_1":"横浜市青葉区","jp_add_2":"千草台"},"2270055":{"post_code":"2270055","prefecture":"KANAGAWA KEN","city":"YOKOHAMA SHI AOBA KU","town":"TSUTSUJIGAOKA","perfecture_jp":"神奈川県","jp_add_1":"横浜市青葉区","jp_add_2":"つつじが丘"},"2270038":{"post_code":"2270038","prefecture":"KANAGAWA KEN","city":"YOKOHAMA SHI AOBA KU","town":"NARA","perfecture_jp":"神奈川県","jp_add_1":"横浜市青葉区","jp_add_2":"奈良"},"2270036":{"post_code":"2270036","prefecture":"KANAGAWA KEN","city":"YOKOHAMA SHI AOBA KU","town":"NARACHO","perfecture_jp":"神奈川県","jp_add_1":"横浜市青葉区","jp_add_2":"奈良町"},"2270032":{"post_code":"2270032","prefecture":"KANAGAWA KEN","city":"YOKOHAMA SHI AOBA KU","town":"NARIAICHO","perfecture_jp":"神奈川県","jp_add_1":"横浜市青葉区","jp_add_2":"成合町"},"2270043":{"post_code":"2270043","prefecture":"KANAGAWA KEN","city":"YOKOHAMA SHI AOBA KU","town":"FUJIGAOKA","perfecture_jp":"神奈川県","jp_add_1":"横浜市青葉区","jp_add_2":"藤が丘"},"2270067":{"post_code":"2270067","prefecture":"KANAGAWA KEN","city":"YOKOHAMA SHI AOBA KU","town":"MATSUKAZEDAI","perfecture_jp":"神奈川県","jp_add_1":"横浜市青葉区","jp_add_2":"松風台"},"2270047":{"post_code":"2270047","prefecture":"KANAGAWA KEN","city":"YOKOHAMA SHI AOBA KU","town":"MITAKEDAI","perfecture_jp":"神奈川県","jp_add_1":"横浜市青葉区","jp_add_2":"みたけ台"},"2270037":{"post_code":"2270037","prefecture":"KANAGAWA KEN","city":"YOKOHAMA SHI AOBA KU","town":"MIDORIYAMA","perfecture_jp":"神奈川県","jp_add_1":"横浜市青葉区","jp_add_2":"緑山"},"2270044":{"post_code":"2270044","prefecture":"KANAGAWA KEN","city":"YOKOHAMA SHI AOBA KU","town":"MOEGINO","perfecture_jp":"神奈川県","jp_add_1":"横浜市青葉区","jp_add_2":"もえぎ野"},"2270045":{"post_code":"2270045","prefecture":"KANAGAWA KEN","city":"YOKOHAMA SHI AOBA KU","town":"WAKAKUSADAI","perfecture_jp":"神奈川県","jp_add_1":"横浜市青葉区","jp_add_2":"若草台"}}