{"2300000":{"post_code":"2300000","prefecture":"KANAGAWA KEN","city":"YOKOHAMA SHI TSURUMI KU","town":"IKANIKEISAIGANAIBAAI","perfecture_jp":"神奈川県","jp_add_1":"横浜市鶴見区","jp_add_2":""},"2300033":{"post_code":"2300033","prefecture":"KANAGAWA KEN","city":"YOKOHAMA SHI TSURUMI KU","town":"ASAHICHO","perfecture_jp":"神奈川県","jp_add_1":"横浜市鶴見区","jp_add_2":"朝日町"},"2300035":{"post_code":"2300035","prefecture":"KANAGAWA KEN","city":"YOKOHAMA SHI TSURUMI KU","town":"ANZENCHO","perfecture_jp":"神奈川県","jp_add_1":"横浜市鶴見区","jp_add_2":"安善町"},"2300021":{"post_code":"2300021","prefecture":"KANAGAWA KEN","city":"YOKOHAMA SHI TSURUMI KU","town":"ICHIBA KAMICHO","perfecture_jp":"神奈川県","jp_add_1":"横浜市鶴見区","jp_add_2":"市場上町"},"2300024":{"post_code":"2300024","prefecture":"KANAGAWA KEN","city":"YOKOHAMA SHI TSURUMI KU","town":"ICHIBA SHIMOCHO","perfecture_jp":"神奈川県","jp_add_1":"横浜市鶴見区","jp_add_2":"市場下町"},"2300022":{"post_code":"2300022","prefecture":"KANAGAWA KEN","city":"YOKOHAMA SHI TSURUMI KU","town":"ICHIBA HIGASHINAKACHO","perfecture_jp":"神奈川県","jp_add_1":"横浜市鶴見区","jp_add_2":"市場東中町"},"2300023":{"post_code":"2300023","prefecture":"KANAGAWA KEN","city":"YOKOHAMA SHI TSURUMI KU","town":"ICHIBA NISHINAKACHO","perfecture_jp":"神奈川県","jp_add_1":"横浜市鶴見区","jp_add_2":"市場西中町"},"2300026":{"post_code":"2300026","prefecture":"KANAGAWA KEN","city":"YOKOHAMA SHI TSURUMI KU","town":"ICHIBA FUJIMICHO","perfecture_jp":"神奈川県","jp_add_1":"横浜市鶴見区","jp_add_2":"市場富士見町"},"2300025":{"post_code":"2300025","prefecture":"KANAGAWA KEN","city":"YOKOHAMA SHI TSURUMI KU","town":"ICHIBA YAMATOCHO","perfecture_jp":"神奈川県","jp_add_1":"横浜市鶴見区","jp_add_2":"市場大和町"},"2300041":{"post_code":"2300041","prefecture":"KANAGAWA KEN","city":"YOKOHAMA SHI TSURUMI KU","town":"USHIODACHO","perfecture_jp":"神奈川県","jp_add_1":"横浜市鶴見区","jp_add_2":"潮田町"},"2300002":{"post_code":"2300002","prefecture":"KANAGAWA KEN","city":"YOKOHAMA SHI TSURUMI KU","town":"EGASAKICHO","perfecture_jp":"神奈川県","jp_add_1":"横浜市鶴見区","jp_add_2":"江ケ崎町"},"2300055":{"post_code":"2300055","prefecture":"KANAGAWA KEN","city":"YOKOHAMA SHI TSURUMI KU","town":"OGISHIMA","perfecture_jp":"神奈川県","jp_add_1":"横浜市鶴見区","jp_add_2":"扇島"},"2300046":{"post_code":"2300046","prefecture":"KANAGAWA KEN","city":"YOKOHAMA SHI TSURUMI KU","town":"ONOCHO","perfecture_jp":"神奈川県","jp_add_1":"横浜市鶴見区","jp_add_2":"小野町"},"2300072":{"post_code":"2300072","prefecture":"KANAGAWA KEN","city":"YOKOHAMA SHI TSURUMI KU","town":"KAJIYAMA","perfecture_jp":"神奈川県","jp_add_1":"横浜市鶴見区","jp_add_2":"梶山"},"2300011":{"post_code":"2300011","prefecture":"KANAGAWA KEN","city":"YOKOHAMA SHI TSURUMI KU","town":"KAMISUEYOSHI","perfecture_jp":"神奈川県","jp_add_1":"横浜市鶴見区","jp_add_2":"上末吉"},"2300075":{"post_code":"2300075","prefecture":"KANAGAWA KEN","city":"YOKOHAMA SHI TSURUMI KU","town":"KAMINOMIYA","perfecture_jp":"神奈川県","jp_add_1":"横浜市鶴見区","jp_add_2":"上の宮"},"2300034":{"post_code":"2300034","prefecture":"KANAGAWA KEN","city":"YOKOHAMA SHI TSURUMI KU","town":"KANSEICHO","perfecture_jp":"神奈川県","jp_add_1":"横浜市鶴見区","jp_add_2":"寛政町"},"2300078":{"post_code":"2300078","prefecture":"KANAGAWA KEN","city":"YOKOHAMA SHI TSURUMI KU","town":"KISHIYA","perfecture_jp":"神奈川県","jp_add_1":"横浜市鶴見区","jp_add_2":"岸谷"},"2300074":{"post_code":"2300074","prefecture":"KANAGAWA KEN","city":"YOKOHAMA SHI TSURUMI KU","town":"KITATERAO","perfecture_jp":"神奈川県","jp_add_1":"横浜市鶴見区","jp_add_2":"北寺尾"},"2300071":{"post_code":"2300071","prefecture":"KANAGAWA KEN","city":"YOKOHAMA SHI TSURUMI KU","town":"KOMAOKA","perfecture_jp":"神奈川県","jp_add_1":"横浜市鶴見区","jp_add_2":"駒岡"},"2300038":{"post_code":"2300038","prefecture":"KANAGAWA KEN","city":"YOKOHAMA SHI TSURUMI KU","town":"SAKAECHODORI","perfecture_jp":"神奈川県","jp_add_1":"横浜市鶴見区","jp_add_2":"栄町通"},"2300043":{"post_code":"2300043","prefecture":"KANAGAWA KEN","city":"YOKOHAMA SHI TSURUMI KU","town":"SHIOIRICHO","perfecture_jp":"神奈川県","jp_add_1":"横浜市鶴見区","jp_add_2":"汐入町"},"2300073":{"post_code":"2300073","prefecture":"KANAGAWA KEN","city":"YOKOHAMA SHI TSURUMI KU","town":"SHISHIGAYA","perfecture_jp":"神奈川県","jp_add_1":"横浜市鶴見区","jp_add_2":"獅子ケ谷"},"2300047":{"post_code":"2300047","prefecture":"KANAGAWA KEN","city":"YOKOHAMA SHI TSURUMI KU","town":"SHITANOYACHO","perfecture_jp":"神奈川県","jp_add_1":"横浜市鶴見区","jp_add_2":"下野谷町"},"2300003":{"post_code":"2300003","prefecture":"KANAGAWA KEN","city":"YOKOHAMA SHI TSURUMI KU","town":"SHITTE","perfecture_jp":"神奈川県","jp_add_1":"横浜市鶴見区","jp_add_2":"尻手"},"2300012":{"post_code":"2300012","prefecture":"KANAGAWA KEN","city":"YOKOHAMA SHI TSURUMI KU","town":"SHIMOSUEYOSHI","perfecture_jp":"神奈川県","jp_add_1":"横浜市鶴見区","jp_add_2":"下末吉"},"2300045":{"post_code":"2300045","prefecture":"KANAGAWA KEN","city":"YOKOHAMA SHI TSURUMI KU","town":"SUEHIROCHO","perfecture_jp":"神奈川県","jp_add_1":"横浜市鶴見区","jp_add_2":"末広町"},"2300027":{"post_code":"2300027","prefecture":"KANAGAWA KEN","city":"YOKOHAMA SHI TSURUMI KU","town":"SUGASAWACHO","perfecture_jp":"神奈川県","jp_add_1":"横浜市鶴見区","jp_add_2":"菅沢町"},"2300014":{"post_code":"2300014","prefecture":"KANAGAWA KEN","city":"YOKOHAMA SHI TSURUMI KU","town":"SUWAZAKA","perfecture_jp":"神奈川県","jp_add_1":"横浜市鶴見区","jp_add_2":"諏訪坂"},"2300053":{"post_code":"2300053","prefecture":"KANAGAWA KEN","city":"YOKOHAMA SHI TSURUMI KU","town":"DAIKOKUCHO","perfecture_jp":"神奈川県","jp_add_1":"横浜市鶴見区","jp_add_2":"大黒町"},"2300054":{"post_code":"2300054","prefecture":"KANAGAWA KEN","city":"YOKOHAMA SHI TSURUMI KU","town":"DAIKOKUFUTO","perfecture_jp":"神奈川県","jp_add_1":"横浜市鶴見区","jp_add_2":"大黒ふ頭"},"2300032":{"post_code":"2300032","prefecture":"KANAGAWA KEN","city":"YOKOHAMA SHI TSURUMI KU","town":"DAITOCHO","perfecture_jp":"神奈川県","jp_add_1":"横浜市鶴見区","jp_add_2":"大東町"},"2300061":{"post_code":"2300061","prefecture":"KANAGAWA KEN","city":"YOKOHAMA SHI TSURUMI KU","town":"TSUKUNOCHO","perfecture_jp":"神奈川県","jp_add_1":"横浜市鶴見区","jp_add_2":"佃野町"},"2300063":{"post_code":"2300063","prefecture":"KANAGAWA KEN","city":"YOKOHAMA SHI TSURUMI KU","town":"TSURUMI","perfecture_jp":"神奈川県","jp_add_1":"横浜市鶴見区","jp_add_2":"鶴見"},"2300051":{"post_code":"2300051","prefecture":"KANAGAWA KEN","city":"YOKOHAMA SHI TSURUMI KU","town":"TSURUMICHUO","perfecture_jp":"神奈川県","jp_add_1":"横浜市鶴見区","jp_add_2":"鶴見中央"},"2300015":{"post_code":"2300015","prefecture":"KANAGAWA KEN","city":"YOKOHAMA SHI TSURUMI KU","town":"TERAYA","perfecture_jp":"神奈川県","jp_add_1":"横浜市鶴見区","jp_add_2":"寺谷"},"2300062":{"post_code":"2300062","prefecture":"KANAGAWA KEN","city":"YOKOHAMA SHI TSURUMI KU","town":"TOYOKACHO","perfecture_jp":"神奈川県","jp_add_1":"横浜市鶴見区","jp_add_2":"豊岡町"},"2300042":{"post_code":"2300042","prefecture":"KANAGAWA KEN","city":"YOKOHAMA SHI TSURUMI KU","town":"NAKADORI","perfecture_jp":"神奈川県","jp_add_1":"横浜市鶴見区","jp_add_2":"仲通"},"2300052":{"post_code":"2300052","prefecture":"KANAGAWA KEN","city":"YOKOHAMA SHI TSURUMI KU","town":"NAMAMUGI","perfecture_jp":"神奈川県","jp_add_1":"横浜市鶴見区","jp_add_2":"生麦"},"2300076":{"post_code":"2300076","prefecture":"KANAGAWA KEN","city":"YOKOHAMA SHI TSURUMI KU","town":"BABA","perfecture_jp":"神奈川県","jp_add_1":"横浜市鶴見区","jp_add_2":"馬場"},"2300036":{"post_code":"2300036","prefecture":"KANAGAWA KEN","city":"YOKOHAMA SHI TSURUMI KU","town":"HAMACHO","perfecture_jp":"神奈川県","jp_add_1":"横浜市鶴見区","jp_add_2":"浜町"},"2300077":{"post_code":"2300077","prefecture":"KANAGAWA KEN","city":"YOKOHAMA SHI TSURUMI KU","town":"HIGASHITERAO","perfecture_jp":"神奈川県","jp_add_1":"横浜市鶴見区","jp_add_2":"東寺尾"},"2300017":{"post_code":"2300017","prefecture":"KANAGAWA KEN","city":"YOKOHAMA SHI TSURUMI KU","town":"HIGASHITERAO NAKADAI","perfecture_jp":"神奈川県","jp_add_1":"横浜市鶴見区","jp_add_2":"東寺尾中台"},"2300018":{"post_code":"2300018","prefecture":"KANAGAWA KEN","city":"YOKOHAMA SHI TSURUMI KU","town":"HIGASHITERAO HIGASHIDAI","perfecture_jp":"神奈川県","jp_add_1":"横浜市鶴見区","jp_add_2":"東寺尾東台"},"2300016":{"post_code":"2300016","prefecture":"KANAGAWA KEN","city":"YOKOHAMA SHI TSURUMI KU","town":"HIGASHITERAO KITADAI","perfecture_jp":"神奈川県","jp_add_1":"横浜市鶴見区","jp_add_2":"東寺尾北台"},"2300031":{"post_code":"2300031","prefecture":"KANAGAWA KEN","city":"YOKOHAMA SHI TSURUMI KU","town":"HEIANCHO","perfecture_jp":"神奈川県","jp_add_1":"横浜市鶴見区","jp_add_2":"平安町"},"2300044":{"post_code":"2300044","prefecture":"KANAGAWA KEN","city":"YOKOHAMA SHI TSURUMI KU","town":"BENTENCHO","perfecture_jp":"神奈川県","jp_add_1":"横浜市鶴見区","jp_add_2":"弁天町"},"2300048":{"post_code":"2300048","prefecture":"KANAGAWA KEN","city":"YOKOHAMA SHI TSURUMI KU","town":"HONCHODORI","perfecture_jp":"神奈川県","jp_add_1":"横浜市鶴見区","jp_add_2":"本町通"},"2300013":{"post_code":"2300013","prefecture":"KANAGAWA KEN","city":"YOKOHAMA SHI TSURUMI KU","town":"MITSUIKEKOEN","perfecture_jp":"神奈川県","jp_add_1":"横浜市鶴見区","jp_add_2":"三ツ池公園"},"2300037":{"post_code":"2300037","prefecture":"KANAGAWA KEN","city":"YOKOHAMA SHI TSURUMI KU","town":"MUKAICHO","perfecture_jp":"神奈川県","jp_add_1":"横浜市鶴見区","jp_add_2":"向井町"},"2300004":{"post_code":"2300004","prefecture":"KANAGAWA KEN","city":"YOKOHAMA SHI TSURUMI KU","town":"MOTOMIYA","perfecture_jp":"神奈川県","jp_add_1":"横浜市鶴見区","jp_add_2":"元宮"},"2300001":{"post_code":"2300001","prefecture":"KANAGAWA KEN","city":"YOKOHAMA SHI TSURUMI KU","town":"YAKO","perfecture_jp":"神奈川県","jp_add_1":"横浜市鶴見区","jp_add_2":"矢向"}}