{"2320000":{"post_code":"2320000","prefecture":"KANAGAWA KEN","city":"YOKOHAMA SHI MINAMI KU","town":"IKANIKEISAIGANAIBAAI","perfecture_jp":"神奈川県","jp_add_1":"横浜市南区","jp_add_2":""},"2320051":{"post_code":"2320051","prefecture":"KANAGAWA KEN","city":"YOKOHAMA SHI MINAMI KU","town":"IDOGAYA KAMIMACHI","perfecture_jp":"神奈川県","jp_add_1":"横浜市南区","jp_add_2":"井土ケ谷上町"},"2320052":{"post_code":"2320052","prefecture":"KANAGAWA KEN","city":"YOKOHAMA SHI MINAMI KU","town":"IDOGAYA NAKAMACHI","perfecture_jp":"神奈川県","jp_add_1":"横浜市南区","jp_add_2":"井土ケ谷中町"},"2320053":{"post_code":"2320053","prefecture":"KANAGAWA KEN","city":"YOKOHAMA SHI MINAMI KU","town":"IDOGAYA SHIMOMACHI","perfecture_jp":"神奈川県","jp_add_1":"横浜市南区","jp_add_2":"井土ケ谷下町"},"2320024":{"post_code":"2320024","prefecture":"KANAGAWA KEN","city":"YOKOHAMA SHI MINAMI KU","town":"URAFUNECHO","perfecture_jp":"神奈川県","jp_add_1":"横浜市南区","jp_add_2":"浦舟町"},"2320031":{"post_code":"2320031","prefecture":"KANAGAWA KEN","city":"YOKOHAMA SHI MINAMI KU","town":"EIRAKUCHO","perfecture_jp":"神奈川県","jp_add_1":"横浜市南区","jp_add_2":"永楽町"},"2320044":{"post_code":"2320044","prefecture":"KANAGAWA KEN","city":"YOKOHAMA SHI MINAMI KU","town":"ENOKICHO","perfecture_jp":"神奈川県","jp_add_1":"横浜市南区","jp_add_2":"榎町"},"2320061":{"post_code":"2320061","prefecture":"KANAGAWA KEN","city":"YOKOHAMA SHI MINAMI KU","town":"OOKA","perfecture_jp":"神奈川県","jp_add_1":"横浜市南区","jp_add_2":"大岡"},"2320054":{"post_code":"2320054","prefecture":"KANAGAWA KEN","city":"YOKOHAMA SHI MINAMI KU","town":"OHASHICHO","perfecture_jp":"神奈川県","jp_add_1":"横浜市南区","jp_add_2":"大橋町"},"2320008":{"post_code":"2320008","prefecture":"KANAGAWA KEN","city":"YOKOHAMA SHI MINAMI KU","town":"KANOEDAI","perfecture_jp":"神奈川県","jp_add_1":"横浜市南区","jp_add_2":"庚台"},"2320034":{"post_code":"2320034","prefecture":"KANAGAWA KEN","city":"YOKOHAMA SHI MINAMI KU","town":"KARASAWA","perfecture_jp":"神奈川県","jp_add_1":"横浜市南区","jp_add_2":"唐沢"},"2320015":{"post_code":"2320015","prefecture":"KANAGAWA KEN","city":"YOKOHAMA SHI MINAMI KU","town":"KYOSHINCHO","perfecture_jp":"神奈川県","jp_add_1":"横浜市南区","jp_add_2":"共進町"},"2320067":{"post_code":"2320067","prefecture":"KANAGAWA KEN","city":"YOKOHAMA SHI MINAMI KU","town":"GUMYOJICHO","perfecture_jp":"神奈川県","jp_add_1":"横浜市南区","jp_add_2":"弘明寺町"},"2320013":{"post_code":"2320013","prefecture":"KANAGAWA KEN","city":"YOKOHAMA SHI MINAMI KU","town":"SANNOCHO","perfecture_jp":"神奈川県","jp_add_1":"横浜市南区","jp_add_2":"山王町"},"2320036":{"post_code":"2320036","prefecture":"KANAGAWA KEN","city":"YOKOHAMA SHI MINAMI KU","town":"SANYA","perfecture_jp":"神奈川県","jp_add_1":"横浜市南区","jp_add_2":"山谷"},"2320007":{"post_code":"2320007","prefecture":"KANAGAWA KEN","city":"YOKOHAMA SHI MINAMI KU","town":"SHIMIZUGAOKA","perfecture_jp":"神奈川県","jp_add_1":"横浜市南区","jp_add_2":"清水ケ丘"},"2320017":{"post_code":"2320017","prefecture":"KANAGAWA KEN","city":"YOKOHAMA SHI MINAMI KU","town":"SHUKUCHO","perfecture_jp":"神奈川県","jp_add_1":"横浜市南区","jp_add_2":"宿町"},"2320005":{"post_code":"2320005","prefecture":"KANAGAWA KEN","city":"YOKOHAMA SHI MINAMI KU","town":"SHIROGANECHO","perfecture_jp":"神奈川県","jp_add_1":"横浜市南区","jp_add_2":"白金町"},"2320023":{"post_code":"2320023","prefecture":"KANAGAWA KEN","city":"YOKOHAMA SHI MINAMI KU","town":"SHIROTAECHO","perfecture_jp":"神奈川県","jp_add_1":"横浜市南区","jp_add_2":"白妙町"},"2320027":{"post_code":"2320027","prefecture":"KANAGAWA KEN","city":"YOKOHAMA SHI MINAMI KU","town":"SHINKAWACHO","perfecture_jp":"神奈川県","jp_add_1":"横浜市南区","jp_add_2":"新川町"},"2320025":{"post_code":"2320025","prefecture":"KANAGAWA KEN","city":"YOKOHAMA SHI MINAMI KU","town":"TAKASAGOCHO","perfecture_jp":"神奈川県","jp_add_1":"横浜市南区","jp_add_2":"高砂町"},"2320022":{"post_code":"2320022","prefecture":"KANAGAWA KEN","city":"YOKOHAMA SHI MINAMI KU","town":"TAKANECHO","perfecture_jp":"神奈川県","jp_add_1":"横浜市南区","jp_add_2":"高根町"},"2320056":{"post_code":"2320056","prefecture":"KANAGAWA KEN","city":"YOKOHAMA SHI MINAMI KU","town":"TORICHO","perfecture_jp":"神奈川県","jp_add_1":"横浜市南区","jp_add_2":"通町"},"2320063":{"post_code":"2320063","prefecture":"KANAGAWA KEN","city":"YOKOHAMA SHI MINAMI KU","town":"NAKAZATO","perfecture_jp":"神奈川県","jp_add_1":"横浜市南区","jp_add_2":"中里"},"2320062":{"post_code":"2320062","prefecture":"KANAGAWA KEN","city":"YOKOHAMA SHI MINAMI KU","town":"NAKAZATOCHO","perfecture_jp":"神奈川県","jp_add_1":"横浜市南区","jp_add_2":"中里町"},"2320055":{"post_code":"2320055","prefecture":"KANAGAWA KEN","city":"YOKOHAMA SHI MINAMI KU","town":"NAKAJIMACHO","perfecture_jp":"神奈川県","jp_add_1":"横浜市南区","jp_add_2":"中島町"},"2320033":{"post_code":"2320033","prefecture":"KANAGAWA KEN","city":"YOKOHAMA SHI MINAMI KU","town":"NAKAMURACHO","perfecture_jp":"神奈川県","jp_add_1":"横浜市南区","jp_add_2":"中村町"},"2320074":{"post_code":"2320074","prefecture":"KANAGAWA KEN","city":"YOKOHAMA SHI MINAMI KU","town":"NAGATASANNODAI","perfecture_jp":"神奈川県","jp_add_1":"横浜市南区","jp_add_2":"永田山王台"},"2320076":{"post_code":"2320076","prefecture":"KANAGAWA KEN","city":"YOKOHAMA SHI MINAMI KU","town":"NAGATADAI","perfecture_jp":"神奈川県","jp_add_1":"横浜市南区","jp_add_2":"永田台"},"2320075":{"post_code":"2320075","prefecture":"KANAGAWA KEN","city":"YOKOHAMA SHI MINAMI KU","town":"NAGATAMINAMIDAI","perfecture_jp":"神奈川県","jp_add_1":"横浜市南区","jp_add_2":"永田みなみ台"},"2320072":{"post_code":"2320072","prefecture":"KANAGAWA KEN","city":"YOKOHAMA SHI MINAMI KU","town":"NAGATAHIGASHI","perfecture_jp":"神奈川県","jp_add_1":"横浜市南区","jp_add_2":"永田東"},"2320073":{"post_code":"2320073","prefecture":"KANAGAWA KEN","city":"YOKOHAMA SHI MINAMI KU","town":"NAGATAMINAMI","perfecture_jp":"神奈川県","jp_add_1":"横浜市南区","jp_add_2":"永田南"},"2320071":{"post_code":"2320071","prefecture":"KANAGAWA KEN","city":"YOKOHAMA SHI MINAMI KU","town":"NAGATAKITA","perfecture_jp":"神奈川県","jp_add_1":"横浜市南区","jp_add_2":"永田北"},"2320003":{"post_code":"2320003","prefecture":"KANAGAWA KEN","city":"YOKOHAMA SHI MINAMI KU","town":"NISHINAKACHO","perfecture_jp":"神奈川県","jp_add_1":"横浜市南区","jp_add_2":"西中町"},"2320037":{"post_code":"2320037","prefecture":"KANAGAWA KEN","city":"YOKOHAMA SHI MINAMI KU","town":"HACHIMANCHO","perfecture_jp":"神奈川県","jp_add_1":"横浜市南区","jp_add_2":"八幡町"},"2320018":{"post_code":"2320018","prefecture":"KANAGAWA KEN","city":"YOKOHAMA SHI MINAMI KU","town":"HANANOKICHO","perfecture_jp":"神奈川県","jp_add_1":"横浜市南区","jp_add_2":"花之木町"},"2320011":{"post_code":"2320011","prefecture":"KANAGAWA KEN","city":"YOKOHAMA SHI MINAMI KU","town":"HIECHO","perfecture_jp":"神奈川県","jp_add_1":"横浜市南区","jp_add_2":"日枝町"},"2320045":{"post_code":"2320045","prefecture":"KANAGAWA KEN","city":"YOKOHAMA SHI MINAMI KU","town":"HIGASHIMAITAMACHI","perfecture_jp":"神奈川県","jp_add_1":"横浜市南区","jp_add_2":"東蒔田町"},"2320001":{"post_code":"2320001","prefecture":"KANAGAWA KEN","city":"YOKOHAMA SHI MINAMI KU","town":"FUSHIMICHO","perfecture_jp":"神奈川県","jp_add_1":"横浜市南区","jp_add_2":"伏見町"},"2320026":{"post_code":"2320026","prefecture":"KANAGAWA KEN","city":"YOKOHAMA SHI MINAMI KU","town":"FUTABACHO","perfecture_jp":"神奈川県","jp_add_1":"横浜市南区","jp_add_2":"二葉町"},"2320035":{"post_code":"2320035","prefecture":"KANAGAWA KEN","city":"YOKOHAMA SHI MINAMI KU","town":"HEIRAKU","perfecture_jp":"神奈川県","jp_add_1":"横浜市南区","jp_add_2":"平楽"},"2320064":{"post_code":"2320064","prefecture":"KANAGAWA KEN","city":"YOKOHAMA SHI MINAMI KU","town":"BESSHO","perfecture_jp":"神奈川県","jp_add_1":"横浜市南区","jp_add_2":"別所"},"2320065":{"post_code":"2320065","prefecture":"KANAGAWA KEN","city":"YOKOHAMA SHI MINAMI KU","town":"BESSHONAKAZATODAI","perfecture_jp":"神奈川県","jp_add_1":"横浜市南区","jp_add_2":"別所中里台"},"2320042":{"post_code":"2320042","prefecture":"KANAGAWA KEN","city":"YOKOHAMA SHI MINAMI KU","town":"HORINOCHICHO","perfecture_jp":"神奈川県","jp_add_1":"横浜市南区","jp_add_2":"堀ノ内町"},"2320043":{"post_code":"2320043","prefecture":"KANAGAWA KEN","city":"YOKOHAMA SHI MINAMI KU","town":"MAITACHO","perfecture_jp":"神奈川県","jp_add_1":"横浜市南区","jp_add_2":"蒔田町"},"2320004":{"post_code":"2320004","prefecture":"KANAGAWA KEN","city":"YOKOHAMA SHI MINAMI KU","town":"MAESATOCHO","perfecture_jp":"神奈川県","jp_add_1":"横浜市南区","jp_add_2":"前里町"},"2320021":{"post_code":"2320021","prefecture":"KANAGAWA KEN","city":"YOKOHAMA SHI MINAMI KU","town":"MAGANECHO","perfecture_jp":"神奈川県","jp_add_1":"横浜市南区","jp_add_2":"真金町"},"2320032":{"post_code":"2320032","prefecture":"KANAGAWA KEN","city":"YOKOHAMA SHI MINAMI KU","town":"MANSEICHO","perfecture_jp":"神奈川県","jp_add_1":"横浜市南区","jp_add_2":"万世町"},"2320006":{"post_code":"2320006","prefecture":"KANAGAWA KEN","city":"YOKOHAMA SHI MINAMI KU","town":"MINAMIOTA","perfecture_jp":"神奈川県","jp_add_1":"横浜市南区","jp_add_2":"南太田"},"2320012":{"post_code":"2320012","prefecture":"KANAGAWA KEN","city":"YOKOHAMA SHI MINAMI KU","town":"MINAMIYOSHIDACHO","perfecture_jp":"神奈川県","jp_add_1":"横浜市南区","jp_add_2":"南吉田町"},"2320002":{"post_code":"2320002","prefecture":"KANAGAWA KEN","city":"YOKOHAMA SHI MINAMI KU","town":"MIHARUDAI","perfecture_jp":"神奈川県","jp_add_1":"横浜市南区","jp_add_2":"三春台"},"2320016":{"post_code":"2320016","prefecture":"KANAGAWA KEN","city":"YOKOHAMA SHI MINAMI KU","town":"MIYAMOTOCHO","perfecture_jp":"神奈川県","jp_add_1":"横浜市南区","jp_add_2":"宮元町"},"2320066":{"post_code":"2320066","prefecture":"KANAGAWA KEN","city":"YOKOHAMA SHI MINAMI KU","town":"MUTSUKAWA","perfecture_jp":"神奈川県","jp_add_1":"横浜市南区","jp_add_2":"六ツ川"},"2320041":{"post_code":"2320041","prefecture":"KANAGAWA KEN","city":"YOKOHAMA SHI MINAMI KU","town":"MUTSUMICHO","perfecture_jp":"神奈川県","jp_add_1":"横浜市南区","jp_add_2":"睦町"},"2320014":{"post_code":"2320014","prefecture":"KANAGAWA KEN","city":"YOKOHAMA SHI MINAMI KU","town":"YOSHINOCHO","perfecture_jp":"神奈川県","jp_add_1":"横浜市南区","jp_add_2":"吉野町"},"2320057":{"post_code":"2320057","prefecture":"KANAGAWA KEN","city":"YOKOHAMA SHI MINAMI KU","town":"WAKAMIYACHO","perfecture_jp":"神奈川県","jp_add_1":"横浜市南区","jp_add_2":"若宮町"}}