{"2330000":{"post_code":"2330000","prefecture":"KANAGAWA KEN","city":"YOKOHAMA SHI KONAN KU","town":"IKANIKEISAIGANAIBAAI","perfecture_jp":"神奈川県","jp_add_1":"横浜市港南区","jp_add_2":""},"2330007":{"post_code":"2330007","prefecture":"KANAGAWA KEN","city":"YOKOHAMA SHI KONAN KU","town":"OKUBO","perfecture_jp":"神奈川県","jp_add_1":"横浜市港南区","jp_add_2":"大久保"},"2330001":{"post_code":"2330001","prefecture":"KANAGAWA KEN","city":"YOKOHAMA SHI KONAN KU","town":"KAMIOOKAHIGASHI","perfecture_jp":"神奈川県","jp_add_1":"横浜市港南区","jp_add_2":"上大岡東"},"2330002":{"post_code":"2330002","prefecture":"KANAGAWA KEN","city":"YOKOHAMA SHI KONAN KU","town":"KAMIOOKANISHI","perfecture_jp":"神奈川県","jp_add_1":"横浜市港南区","jp_add_2":"上大岡西"},"2330012":{"post_code":"2330012","prefecture":"KANAGAWA KEN","city":"YOKOHAMA SHI KONAN KU","town":"KAMINAGAYA","perfecture_jp":"神奈川県","jp_add_1":"横浜市港南区","jp_add_2":"上永谷"},"2330014":{"post_code":"2330014","prefecture":"KANAGAWA KEN","city":"YOKOHAMA SHI KONAN KU","town":"KAMINAGAYACHO","perfecture_jp":"神奈川県","jp_add_1":"横浜市港南区","jp_add_2":"上永谷町"},"2330003":{"post_code":"2330003","prefecture":"KANAGAWA KEN","city":"YOKOHAMA SHI KONAN KU","town":"KONAN","perfecture_jp":"神奈川県","jp_add_1":"横浜市港南区","jp_add_2":"港南"},"2330004":{"post_code":"2330004","prefecture":"KANAGAWA KEN","city":"YOKOHAMA SHI KONAN KU","town":"KONANCHUODORI","perfecture_jp":"神奈川県","jp_add_1":"横浜市港南区","jp_add_2":"港南中央通"},"2330008":{"post_code":"2330008","prefecture":"KANAGAWA KEN","city":"YOKOHAMA SHI KONAN KU","town":"SAIDO","perfecture_jp":"神奈川県","jp_add_1":"横浜市港南区","jp_add_2":"最戸"},"2330016":{"post_code":"2330016","prefecture":"KANAGAWA KEN","city":"YOKOHAMA SHI KONAN KU","town":"SHIMONAGAYA","perfecture_jp":"神奈川県","jp_add_1":"横浜市港南区","jp_add_2":"下永谷"},"2330006":{"post_code":"2330006","prefecture":"KANAGAWA KEN","city":"YOKOHAMA SHI KONAN KU","town":"SERIGAYA","perfecture_jp":"神奈川県","jp_add_1":"横浜市港南区","jp_add_2":"芹が谷"},"2330005":{"post_code":"2330005","prefecture":"KANAGAWA KEN","city":"YOKOHAMA SHI KONAN KU","town":"HIGASHISERIGAYA","perfecture_jp":"神奈川県","jp_add_1":"横浜市港南区","jp_add_2":"東芹が谷"},"2330011":{"post_code":"2330011","prefecture":"KANAGAWA KEN","city":"YOKOHAMA SHI KONAN KU","town":"HIGASHINAGAYA","perfecture_jp":"神奈川県","jp_add_1":"横浜市港南区","jp_add_2":"東永谷"},"2330015":{"post_code":"2330015","prefecture":"KANAGAWA KEN","city":"YOKOHAMA SHI KONAN KU","town":"HIGIRIYAMA","perfecture_jp":"神奈川県","jp_add_1":"横浜市港南区","jp_add_2":"日限山"},"2330013":{"post_code":"2330013","prefecture":"KANAGAWA KEN","city":"YOKOHAMA SHI KONAN KU","town":"MARUYAMADAI","perfecture_jp":"神奈川県","jp_add_1":"横浜市港南区","jp_add_2":"丸山台"}}