{"2350000":{"post_code":"2350000","prefecture":"KANAGAWA KEN","city":"YOKOHAMA SHI ISOGO KU","town":"IKANIKEISAIGANAIBAAI","perfecture_jp":"神奈川県","jp_add_1":"横浜市磯子区","jp_add_2":""},"2350016":{"post_code":"2350016","prefecture":"KANAGAWA KEN","city":"YOKOHAMA SHI ISOGO KU","town":"ISOGO","perfecture_jp":"神奈川県","jp_add_1":"横浜市磯子区","jp_add_2":"磯子"},"2350019":{"post_code":"2350019","prefecture":"KANAGAWA KEN","city":"YOKOHAMA SHI ISOGO KU","town":"ISOGODAI","perfecture_jp":"神奈川県","jp_add_1":"横浜市磯子区","jp_add_2":"磯子台"},"2350006":{"post_code":"2350006","prefecture":"KANAGAWA KEN","city":"YOKOHAMA SHI ISOGO KU","town":"OTORICHO","perfecture_jp":"神奈川県","jp_add_1":"横浜市磯子区","jp_add_2":"鳳町"},"2350021":{"post_code":"2350021","prefecture":"KANAGAWA KEN","city":"YOKOHAMA SHI ISOGO KU","town":"OKAMURA","perfecture_jp":"神奈川県","jp_add_1":"横浜市磯子区","jp_add_2":"岡村"},"2350001":{"post_code":"2350001","prefecture":"KANAGAWA KEN","city":"YOKOHAMA SHI ISOGO KU","town":"KAMICHO","perfecture_jp":"神奈川県","jp_add_1":"横浜市磯子区","jp_add_2":"上町"},"2350042":{"post_code":"2350042","prefecture":"KANAGAWA KEN","city":"YOKOHAMA SHI ISOGO KU","town":"KAMINAKAZATOCHO","perfecture_jp":"神奈川県","jp_add_1":"横浜市磯子区","jp_add_2":"上中里町"},"2350041":{"post_code":"2350041","prefecture":"KANAGAWA KEN","city":"YOKOHAMA SHI ISOGO KU","town":"KURIKI","perfecture_jp":"神奈川県","jp_add_1":"横浜市磯子区","jp_add_2":"栗木"},"2350003":{"post_code":"2350003","prefecture":"KANAGAWA KEN","city":"YOKOHAMA SHI ISOGO KU","town":"SAKASHITACHO","perfecture_jp":"神奈川県","jp_add_1":"横浜市磯子区","jp_add_2":"坂下町"},"2350022":{"post_code":"2350022","prefecture":"KANAGAWA KEN","city":"YOKOHAMA SHI ISOGO KU","town":"SHIOMIDAI","perfecture_jp":"神奈川県","jp_add_1":"横浜市磯子区","jp_add_2":"汐見台"},"2350004":{"post_code":"2350004","prefecture":"KANAGAWA KEN","city":"YOKOHAMA SHI ISOGO KU","town":"SHIMOCHO","perfecture_jp":"神奈川県","jp_add_1":"横浜市磯子区","jp_add_2":"下町"},"2350017":{"post_code":"2350017","prefecture":"KANAGAWA KEN","city":"YOKOHAMA SHI ISOGO KU","town":"SHINISOGOCHO","perfecture_jp":"神奈川県","jp_add_1":"横浜市磯子区","jp_add_2":"新磯子町"},"2350032":{"post_code":"2350032","prefecture":"KANAGAWA KEN","city":"YOKOHAMA SHI ISOGO KU","town":"SHINSUGITACHO","perfecture_jp":"神奈川県","jp_add_1":"横浜市磯子区","jp_add_2":"新杉田町"},"2350031":{"post_code":"2350031","prefecture":"KANAGAWA KEN","city":"YOKOHAMA SHI ISOGO KU","town":"SHINNAKAHARACHO","perfecture_jp":"神奈川県","jp_add_1":"横浜市磯子区","jp_add_2":"新中原町"},"2350018":{"post_code":"2350018","prefecture":"KANAGAWA KEN","city":"YOKOHAMA SHI ISOGO KU","town":"SHIMMORICHO","perfecture_jp":"神奈川県","jp_add_1":"横浜市磯子区","jp_add_2":"新森町"},"2350033":{"post_code":"2350033","prefecture":"KANAGAWA KEN","city":"YOKOHAMA SHI ISOGO KU","town":"SUGITA","perfecture_jp":"神奈川県","jp_add_1":"横浜市磯子区","jp_add_2":"杉田"},"2350034":{"post_code":"2350034","prefecture":"KANAGAWA KEN","city":"YOKOHAMA SHI ISOGO KU","town":"SUGITATSUBONOMI","perfecture_jp":"神奈川県","jp_add_1":"横浜市磯子区","jp_add_2":"杉田坪呑"},"2350012":{"post_code":"2350012","prefecture":"KANAGAWA KEN","city":"YOKOHAMA SHI ISOGO KU","town":"TAKIGASHIRA","perfecture_jp":"神奈川県","jp_add_1":"横浜市磯子区","jp_add_2":"滝頭"},"2350035":{"post_code":"2350035","prefecture":"KANAGAWA KEN","city":"YOKOHAMA SHI ISOGO KU","town":"TANAKA","perfecture_jp":"神奈川県","jp_add_1":"横浜市磯子区","jp_add_2":"田中"},"2350014":{"post_code":"2350014","prefecture":"KANAGAWA KEN","city":"YOKOHAMA SHI ISOGO KU","town":"NAKAHAMACHO","perfecture_jp":"神奈川県","jp_add_1":"横浜市磯子区","jp_add_2":"中浜町"},"2350036":{"post_code":"2350036","prefecture":"KANAGAWA KEN","city":"YOKOHAMA SHI ISOGO KU","town":"NAKAHARA","perfecture_jp":"神奈川県","jp_add_1":"横浜市磯子区","jp_add_2":"中原"},"2350007":{"post_code":"2350007","prefecture":"KANAGAWA KEN","city":"YOKOHAMA SHI ISOGO KU","town":"NISHICHO","perfecture_jp":"神奈川県","jp_add_1":"横浜市磯子区","jp_add_2":"西町"},"2350002":{"post_code":"2350002","prefecture":"KANAGAWA KEN","city":"YOKOHAMA SHI ISOGO KU","town":"BABACHO","perfecture_jp":"神奈川県","jp_add_1":"横浜市磯子区","jp_add_2":"馬場町"},"2350008":{"post_code":"2350008","prefecture":"KANAGAWA KEN","city":"YOKOHAMA SHI ISOGO KU","town":"HARAMACHI","perfecture_jp":"神奈川県","jp_add_1":"横浜市磯子区","jp_add_2":"原町"},"2350005":{"post_code":"2350005","prefecture":"KANAGAWA KEN","city":"YOKOHAMA SHI ISOGO KU","town":"HIGASHICHO","perfecture_jp":"神奈川県","jp_add_1":"横浜市磯子区","jp_add_2":"東町"},"2350015":{"post_code":"2350015","prefecture":"KANAGAWA KEN","city":"YOKOHAMA SHI ISOGO KU","town":"HISAKICHO","perfecture_jp":"神奈川県","jp_add_1":"横浜市磯子区","jp_add_2":"久木町"},"2350043":{"post_code":"2350043","prefecture":"KANAGAWA KEN","city":"YOKOHAMA SHI ISOGO KU","town":"HITORIZAWACHO","perfecture_jp":"神奈川県","jp_add_1":"横浜市磯子区","jp_add_2":"氷取沢町"},"2350013":{"post_code":"2350013","prefecture":"KANAGAWA KEN","city":"YOKOHAMA SHI ISOGO KU","town":"HIROCHICHO","perfecture_jp":"神奈川県","jp_add_1":"横浜市磯子区","jp_add_2":"広地町"},"2350011":{"post_code":"2350011","prefecture":"KANAGAWA KEN","city":"YOKOHAMA SHI ISOGO KU","town":"MARUYAMA","perfecture_jp":"神奈川県","jp_add_1":"横浜市磯子区","jp_add_2":"丸山"},"2350044":{"post_code":"2350044","prefecture":"KANAGAWA KEN","city":"YOKOHAMA SHI ISOGO KU","town":"MINECHO","perfecture_jp":"神奈川県","jp_add_1":"横浜市磯子区","jp_add_2":"峰町"},"2350023":{"post_code":"2350023","prefecture":"KANAGAWA KEN","city":"YOKOHAMA SHI ISOGO KU","town":"MORI","perfecture_jp":"神奈川県","jp_add_1":"横浜市磯子区","jp_add_2":"森"},"2350024":{"post_code":"2350024","prefecture":"KANAGAWA KEN","city":"YOKOHAMA SHI ISOGO KU","town":"MORIGAOKA","perfecture_jp":"神奈川県","jp_add_1":"横浜市磯子区","jp_add_2":"森が丘"},"2350045":{"post_code":"2350045","prefecture":"KANAGAWA KEN","city":"YOKOHAMA SHI ISOGO KU","town":"YOKODAI","perfecture_jp":"神奈川県","jp_add_1":"横浜市磯子区","jp_add_2":"洋光台"}}