{"2390845":{"post_code":"2390845","prefecture":"KANAGAWA KEN","city":"YOKOSUKA SHI","town":"AWATA","perfecture_jp":"神奈川県","jp_add_1":"横須賀市","jp_add_2":"粟田"},"2390806":{"post_code":"2390806","prefecture":"KANAGAWA KEN","city":"YOKOSUKA SHI","town":"IKEDACHO","perfecture_jp":"神奈川県","jp_add_1":"横須賀市","jp_add_2":"池田町"},"2390844":{"post_code":"2390844","prefecture":"KANAGAWA KEN","city":"YOKOSUKA SHI","town":"IWATO","perfecture_jp":"神奈川県","jp_add_1":"横須賀市","jp_add_2":"岩戸"},"2390836":{"post_code":"2390836","prefecture":"KANAGAWA KEN","city":"YOKOSUKA SHI","town":"UCHIKAWA","perfecture_jp":"神奈川県","jp_add_1":"横須賀市","jp_add_2":"内川"},"2390837":{"post_code":"2390837","prefecture":"KANAGAWA KEN","city":"YOKOSUKA SHI","town":"UCHIKAWASHINDEN","perfecture_jp":"神奈川県","jp_add_1":"横須賀市","jp_add_2":"内川新田"},"2390822":{"post_code":"2390822","prefecture":"KANAGAWA KEN","city":"YOKOSUKA SHI","town":"URAGA","perfecture_jp":"神奈川県","jp_add_1":"横須賀市","jp_add_2":"浦賀"},"2390823":{"post_code":"2390823","prefecture":"KANAGAWA KEN","city":"YOKOSUKA SHI","town":"URAGAOKA","perfecture_jp":"神奈川県","jp_add_1":"横須賀市","jp_add_2":"浦賀丘"},"2390815":{"post_code":"2390815","prefecture":"KANAGAWA KEN","city":"YOKOSUKA SHI","town":"URAGAMIDAI","perfecture_jp":"神奈川県","jp_add_1":"横須賀市","jp_add_2":"浦上台"},"2390808":{"post_code":"2390808","prefecture":"KANAGAWA KEN","city":"YOKOSUKA SHI","town":"OTSUCHO","perfecture_jp":"神奈川県","jp_add_1":"横須賀市","jp_add_2":"大津町"},"2390812":{"post_code":"2390812","prefecture":"KANAGAWA KEN","city":"YOKOSUKA SHI","town":"OBARADAI","perfecture_jp":"神奈川県","jp_add_1":"横須賀市","jp_add_2":"小原台"},"2390813":{"post_code":"2390813","prefecture":"KANAGAWA KEN","city":"YOKOSUKA SHI","town":"KAMOI","perfecture_jp":"神奈川県","jp_add_1":"横須賀市","jp_add_2":"鴨居"},"2390828":{"post_code":"2390828","prefecture":"KANAGAWA KEN","city":"YOKOSUKA SHI","town":"KUBIRI","perfecture_jp":"神奈川県","jp_add_1":"横須賀市","jp_add_2":"久比里"},"2390834":{"post_code":"2390834","prefecture":"KANAGAWA KEN","city":"YOKOSUKA SHI","town":"KUMURA","perfecture_jp":"神奈川県","jp_add_1":"横須賀市","jp_add_2":"久村"},"2390831":{"post_code":"2390831","prefecture":"KANAGAWA KEN","city":"YOKOSUKA SHI","town":"KURIHAMA","perfecture_jp":"神奈川県","jp_add_1":"横須賀市","jp_add_2":"久里浜"},"2390827":{"post_code":"2390827","prefecture":"KANAGAWA KEN","city":"YOKOSUKA SHI","town":"KURIHAMADAI","perfecture_jp":"神奈川県","jp_add_1":"横須賀市","jp_add_2":"久里浜台"},"2390846":{"post_code":"2390846","prefecture":"KANAGAWA KEN","city":"YOKOSUKA SHI","town":"GURINHAITSU","perfecture_jp":"神奈川県","jp_add_1":"横須賀市","jp_add_2":"グリーンハイツ"},"2390820":{"post_code":"2390820","prefecture":"KANAGAWA KEN","city":"YOKOSUKA SHI","town":"KOFUDAI","perfecture_jp":"神奈川県","jp_add_1":"横須賀市","jp_add_2":"光風台"},"2390803":{"post_code":"2390803","prefecture":"KANAGAWA KEN","city":"YOKOSUKA SHI","town":"SAKURAGAOKA","perfecture_jp":"神奈川県","jp_add_1":"横須賀市","jp_add_2":"桜が丘"},"2390835":{"post_code":"2390835","prefecture":"KANAGAWA KEN","city":"YOKOSUKA SHI","town":"SAHARA","perfecture_jp":"神奈川県","jp_add_1":"横須賀市","jp_add_2":"佐原"},"2390832":{"post_code":"2390832","prefecture":"KANAGAWA KEN","city":"YOKOSUKA SHI","town":"SHIMMEICHO","perfecture_jp":"神奈川県","jp_add_1":"横須賀市","jp_add_2":"神明町"},"2390843":{"post_code":"2390843","prefecture":"KANAGAWA KEN","city":"YOKOSUKA SHI","town":"TSUKUI","perfecture_jp":"神奈川県","jp_add_1":"横須賀市","jp_add_2":"津久井"},"2390842":{"post_code":"2390842","prefecture":"KANAGAWA KEN","city":"YOKOSUKA SHI","town":"NAGASAWA","perfecture_jp":"神奈川県","jp_add_1":"横須賀市","jp_add_2":"長沢"},"2390826":{"post_code":"2390826","prefecture":"KANAGAWA KEN","city":"YOKOSUKA SHI","town":"NAGASE","perfecture_jp":"神奈川県","jp_add_1":"横須賀市","jp_add_2":"長瀬"},"2390824":{"post_code":"2390824","prefecture":"KANAGAWA KEN","city":"YOKOSUKA SHI","town":"NISHIURAGA","perfecture_jp":"神奈川県","jp_add_1":"横須賀市","jp_add_2":"西浦賀"},"2390807":{"post_code":"2390807","prefecture":"KANAGAWA KEN","city":"YOKOSUKA SHI","town":"NEGISHICHO","perfecture_jp":"神奈川県","jp_add_1":"横須賀市","jp_add_2":"根岸町"},"2390841":{"post_code":"2390841","prefecture":"KANAGAWA KEN","city":"YOKOSUKA SHI","town":"NOBI","perfecture_jp":"神奈川県","jp_add_1":"横須賀市","jp_add_2":"野比"},"2390833":{"post_code":"2390833","prefecture":"KANAGAWA KEN","city":"YOKOSUKA SHI","town":"HAIRANDO","perfecture_jp":"神奈川県","jp_add_1":"横須賀市","jp_add_2":"ハイランド"},"2390811":{"post_code":"2390811","prefecture":"KANAGAWA KEN","city":"YOKOSUKA SHI","town":"HASHIRIMIZU","perfecture_jp":"神奈川県","jp_add_1":"横須賀市","jp_add_2":"走水"},"2390821":{"post_code":"2390821","prefecture":"KANAGAWA KEN","city":"YOKOSUKA SHI","town":"HIGASHIURAGA","perfecture_jp":"神奈川県","jp_add_1":"横須賀市","jp_add_2":"東浦賀"},"2390847":{"post_code":"2390847","prefecture":"KANAGAWA KEN","city":"YOKOSUKA SHI","town":"HIKARINOKA","perfecture_jp":"神奈川県","jp_add_1":"横須賀市","jp_add_2":"光の丘"},"2390814":{"post_code":"2390814","prefecture":"KANAGAWA KEN","city":"YOKOSUKA SHI","town":"FUTABA","perfecture_jp":"神奈川県","jp_add_1":"横須賀市","jp_add_2":"二葉"},"2390805":{"post_code":"2390805","prefecture":"KANAGAWA KEN","city":"YOKOSUKA SHI","town":"FUNAGURA","perfecture_jp":"神奈川県","jp_add_1":"横須賀市","jp_add_2":"舟倉"},"2390801":{"post_code":"2390801","prefecture":"KANAGAWA KEN","city":"YOKOSUKA SHI","town":"MABORIKAIGAN","perfecture_jp":"神奈川県","jp_add_1":"横須賀市","jp_add_2":"馬堀海岸"},"2390802":{"post_code":"2390802","prefecture":"KANAGAWA KEN","city":"YOKOSUKA SHI","town":"MABORICHO","perfecture_jp":"神奈川県","jp_add_1":"横須賀市","jp_add_2":"馬堀町"},"2390825":{"post_code":"2390825","prefecture":"KANAGAWA KEN","city":"YOKOSUKA SHI","town":"MINAMIURAGA","perfecture_jp":"神奈川県","jp_add_1":"横須賀市","jp_add_2":"南浦賀"},"2390804":{"post_code":"2390804","prefecture":"KANAGAWA KEN","city":"YOKOSUKA SHI","town":"YOSHII","perfecture_jp":"神奈川県","jp_add_1":"横須賀市","jp_add_2":"吉井"},"2390829":{"post_code":"2390829","prefecture":"KANAGAWA KEN","city":"YOKOSUKA SHI","town":"WAKAMIYADAI","perfecture_jp":"神奈川県","jp_add_1":"横須賀市","jp_add_2":"若宮台"}}