{"2400000":{"post_code":"2400000","prefecture":"KANAGAWA KEN","city":"YOKOHAMA SHI HODOGAYA KU","town":"IKANIKEISAIGANAIBAAI","perfecture_jp":"神奈川県","jp_add_1":"横浜市保土ケ谷区","jp_add_2":""},"2400053":{"post_code":"2400053","prefecture":"KANAGAWA KEN","city":"YOKOHAMA SHI HODOGAYA KU","town":"ARAICHO","perfecture_jp":"神奈川県","jp_add_1":"横浜市保土ケ谷区","jp_add_2":"新井町"},"2400035":{"post_code":"2400035","prefecture":"KANAGAWA KEN","city":"YOKOHAMA SHI HODOGAYA KU","town":"IMAICHO","perfecture_jp":"神奈川県","jp_add_1":"横浜市保土ケ谷区","jp_add_2":"今井町"},"2400023":{"post_code":"2400023","prefecture":"KANAGAWA KEN","city":"YOKOHAMA SHI HODOGAYA KU","town":"IWAICHO","perfecture_jp":"神奈川県","jp_add_1":"横浜市保土ケ谷区","jp_add_2":"岩井町"},"2400015":{"post_code":"2400015","prefecture":"KANAGAWA KEN","city":"YOKOHAMA SHI HODOGAYA KU","town":"IWASAKICHO","perfecture_jp":"神奈川県","jp_add_1":"横浜市保土ケ谷区","jp_add_2":"岩崎町"},"2400004":{"post_code":"2400004","prefecture":"KANAGAWA KEN","city":"YOKOHAMA SHI HODOGAYA KU","town":"IWAMACHO","perfecture_jp":"神奈川県","jp_add_1":"横浜市保土ケ谷区","jp_add_2":"岩間町"},"2400062":{"post_code":"2400062","prefecture":"KANAGAWA KEN","city":"YOKOHAMA SHI HODOGAYA KU","town":"OKAZAWACHO","perfecture_jp":"神奈川県","jp_add_1":"横浜市保土ケ谷区","jp_add_2":"岡沢町"},"2400014":{"post_code":"2400014","prefecture":"KANAGAWA KEN","city":"YOKOHAMA SHI HODOGAYA KU","town":"KASUMIDAI","perfecture_jp":"神奈川県","jp_add_1":"横浜市保土ケ谷区","jp_add_2":"霞台"},"2400013":{"post_code":"2400013","prefecture":"KANAGAWA KEN","city":"YOKOHAMA SHI HODOGAYA KU","town":"KATABIRACHO","perfecture_jp":"神奈川県","jp_add_1":"横浜市保土ケ谷区","jp_add_2":"帷子町"},"2400066":{"post_code":"2400066","prefecture":"KANAGAWA KEN","city":"YOKOHAMA SHI HODOGAYA KU","town":"KAMADAICHO","perfecture_jp":"神奈川県","jp_add_1":"横浜市保土ケ谷区","jp_add_2":"釜台町"},"2400063":{"post_code":"2400063","prefecture":"KANAGAWA KEN","city":"YOKOHAMA SHI HODOGAYA KU","town":"KAMAYACHO","perfecture_jp":"神奈川県","jp_add_1":"横浜市保土ケ谷区","jp_add_2":"鎌谷町"},"2400051":{"post_code":"2400051","prefecture":"KANAGAWA KEN","city":"YOKOHAMA SHI HODOGAYA KU","town":"KAMISUGEDACHO","perfecture_jp":"神奈川県","jp_add_1":"横浜市保土ケ谷区","jp_add_2":"上菅田町"},"2400042":{"post_code":"2400042","prefecture":"KANAGAWA KEN","city":"YOKOHAMA SHI HODOGAYA KU","town":"KAMIHOSHIKAWA","perfecture_jp":"神奈川県","jp_add_1":"横浜市保土ケ谷区","jp_add_2":"上星川"},"2400025":{"post_code":"2400025","prefecture":"KANAGAWA KEN","city":"YOKOHAMA SHI HODOGAYA KU","town":"KARIBACHO","perfecture_jp":"神奈川県","jp_add_1":"横浜市保土ケ谷区","jp_add_2":"狩場町"},"2400045":{"post_code":"2400045","prefecture":"KANAGAWA KEN","city":"YOKOHAMA SHI HODOGAYA KU","town":"KAWASHIMACHO","perfecture_jp":"神奈川県","jp_add_1":"横浜市保土ケ谷区","jp_add_2":"川島町"},"2400001":{"post_code":"2400001","prefecture":"KANAGAWA KEN","city":"YOKOHAMA SHI HODOGAYA KU","town":"KAWABECHO","perfecture_jp":"神奈川県","jp_add_1":"横浜市保土ケ谷区","jp_add_2":"川辺町"},"2400005":{"post_code":"2400005","prefecture":"KANAGAWA KEN","city":"YOKOHAMA SHI HODOGAYA KU","town":"GODOCHO","perfecture_jp":"神奈川県","jp_add_1":"横浜市保土ケ谷区","jp_add_2":"神戸町"},"2400026":{"post_code":"2400026","prefecture":"KANAGAWA KEN","city":"YOKOHAMA SHI HODOGAYA KU","town":"GONTAZAKA","perfecture_jp":"神奈川県","jp_add_1":"横浜市保土ケ谷区","jp_add_2":"権太坂"},"2400034":{"post_code":"2400034","prefecture":"KANAGAWA KEN","city":"YOKOHAMA SHI HODOGAYA KU","town":"SAKAIGICHO","perfecture_jp":"神奈川県","jp_add_1":"横浜市保土ケ谷区","jp_add_2":"境木町"},"2400033":{"post_code":"2400033","prefecture":"KANAGAWA KEN","city":"YOKOHAMA SHI HODOGAYA KU","town":"SAKAIGIHONCHO","perfecture_jp":"神奈川県","jp_add_1":"横浜市保土ケ谷区","jp_add_2":"境木本町"},"2400043":{"post_code":"2400043","prefecture":"KANAGAWA KEN","city":"YOKOHAMA SHI HODOGAYA KU","town":"SAKAMOTOCHO","perfecture_jp":"神奈川県","jp_add_1":"横浜市保土ケ谷区","jp_add_2":"坂本町"},"2400011":{"post_code":"2400011","prefecture":"KANAGAWA KEN","city":"YOKOHAMA SHI HODOGAYA KU","town":"SAKURAGAOKA","perfecture_jp":"神奈川県","jp_add_1":"横浜市保土ケ谷区","jp_add_2":"桜ケ丘"},"2400036":{"post_code":"2400036","prefecture":"KANAGAWA KEN","city":"YOKOHAMA SHI HODOGAYA KU","town":"SHINSAKURAGAOKA","perfecture_jp":"神奈川県","jp_add_1":"横浜市保土ケ谷区","jp_add_2":"新桜ケ丘"},"2400024":{"post_code":"2400024","prefecture":"KANAGAWA KEN","city":"YOKOHAMA SHI HODOGAYA KU","town":"SETOGAYACHO","perfecture_jp":"神奈川県","jp_add_1":"横浜市保土ケ谷区","jp_add_2":"瀬戸ケ谷町"},"2400012":{"post_code":"2400012","prefecture":"KANAGAWA KEN","city":"YOKOHAMA SHI HODOGAYA KU","town":"TSUKIMIDAI","perfecture_jp":"神奈川県","jp_add_1":"横浜市保土ケ谷区","jp_add_2":"月見台"},"2400003":{"post_code":"2400003","prefecture":"KANAGAWA KEN","city":"YOKOHAMA SHI HODOGAYA KU","town":"TENNOCHO","perfecture_jp":"神奈川県","jp_add_1":"横浜市保土ケ谷区","jp_add_2":"天王町"},"2400067":{"post_code":"2400067","prefecture":"KANAGAWA KEN","city":"YOKOHAMA SHI HODOGAYA KU","town":"TOKIWADAI","perfecture_jp":"神奈川県","jp_add_1":"横浜市保土ケ谷区","jp_add_2":"常盤台"},"2400022":{"post_code":"2400022","prefecture":"KANAGAWA KEN","city":"YOKOHAMA SHI HODOGAYA KU","town":"NISHIKUBOCHO","perfecture_jp":"神奈川県","jp_add_1":"横浜市保土ケ谷区","jp_add_2":"西久保町"},"2400052":{"post_code":"2400052","prefecture":"KANAGAWA KEN","city":"YOKOHAMA SHI HODOGAYA KU","town":"NISHIYAMACHI","perfecture_jp":"神奈川県","jp_add_1":"横浜市保土ケ谷区","jp_add_2":"西谷町"},"2400016":{"post_code":"2400016","prefecture":"KANAGAWA KEN","city":"YOKOHAMA SHI HODOGAYA KU","town":"HATSUNEGAOKA","perfecture_jp":"神奈川県","jp_add_1":"横浜市保土ケ谷区","jp_add_2":"初音ケ丘"},"2400017":{"post_code":"2400017","prefecture":"KANAGAWA KEN","city":"YOKOHAMA SHI HODOGAYA KU","town":"HANAMIDAI","perfecture_jp":"神奈川県","jp_add_1":"横浜市保土ケ谷区","jp_add_2":"花見台"},"2400041":{"post_code":"2400041","prefecture":"KANAGAWA KEN","city":"YOKOHAMA SHI HODOGAYA KU","town":"HIGASHIKAWASHIMACHO","perfecture_jp":"神奈川県","jp_add_1":"横浜市保土ケ谷区","jp_add_2":"東川島町"},"2400031":{"post_code":"2400031","prefecture":"KANAGAWA KEN","city":"YOKOHAMA SHI HODOGAYA KU","town":"FUJITSUKACHO","perfecture_jp":"神奈川県","jp_add_1":"横浜市保土ケ谷区","jp_add_2":"藤塚町"},"2400044":{"post_code":"2400044","prefecture":"KANAGAWA KEN","city":"YOKOHAMA SHI HODOGAYA KU","town":"BUKKOCHO","perfecture_jp":"神奈川県","jp_add_1":"横浜市保土ケ谷区","jp_add_2":"仏向町"},"2400046":{"post_code":"2400046","prefecture":"KANAGAWA KEN","city":"YOKOHAMA SHI HODOGAYA KU","town":"BUKKONISHI","perfecture_jp":"神奈川県","jp_add_1":"横浜市保土ケ谷区","jp_add_2":"仏向西"},"2400032":{"post_code":"2400032","prefecture":"KANAGAWA KEN","city":"YOKOHAMA SHI HODOGAYA KU","town":"HOSEN","perfecture_jp":"神奈川県","jp_add_1":"横浜市保土ケ谷区","jp_add_2":"法泉"},"2400006":{"post_code":"2400006","prefecture":"KANAGAWA KEN","city":"YOKOHAMA SHI HODOGAYA KU","town":"HOSHIKAWA","perfecture_jp":"神奈川県","jp_add_1":"横浜市保土ケ谷区","jp_add_2":"星川"},"2400021":{"post_code":"2400021","prefecture":"KANAGAWA KEN","city":"YOKOHAMA SHI HODOGAYA KU","town":"HODOGAYACHO","perfecture_jp":"神奈川県","jp_add_1":"横浜市保土ケ谷区","jp_add_2":"保土ケ谷町"},"2400064":{"post_code":"2400064","prefecture":"KANAGAWA KEN","city":"YOKOHAMA SHI HODOGAYA KU","town":"MINEOKACHO","perfecture_jp":"神奈川県","jp_add_1":"横浜市保土ケ谷区","jp_add_2":"峰岡町"},"2400061":{"post_code":"2400061","prefecture":"KANAGAWA KEN","city":"YOKOHAMA SHI HODOGAYA KU","town":"MINEZAWACHO","perfecture_jp":"神奈川県","jp_add_1":"横浜市保土ケ谷区","jp_add_2":"峰沢町"},"2400002":{"post_code":"2400002","prefecture":"KANAGAWA KEN","city":"YOKOHAMA SHI HODOGAYA KU","town":"MIYATACHO","perfecture_jp":"神奈川県","jp_add_1":"横浜市保土ケ谷区","jp_add_2":"宮田町"},"2400007":{"post_code":"2400007","prefecture":"KANAGAWA KEN","city":"YOKOHAMA SHI HODOGAYA KU","town":"MYOJINDAI","perfecture_jp":"神奈川県","jp_add_1":"横浜市保土ケ谷区","jp_add_2":"明神台"},"2400065":{"post_code":"2400065","prefecture":"KANAGAWA KEN","city":"YOKOHAMA SHI HODOGAYA KU","town":"WADA","perfecture_jp":"神奈川県","jp_add_1":"横浜市保土ケ谷区","jp_add_2":"和田"},"2400105":{"post_code":"2400105","prefecture":"KANAGAWA KEN","city":"YOKOSUKA SHI","town":"AKIYA","perfecture_jp":"神奈川県","jp_add_1":"横須賀市","jp_add_2":"秋谷"},"2400104":{"post_code":"2400104","prefecture":"KANAGAWA KEN","city":"YOKOSUKA SHI","town":"ASHINA","perfecture_jp":"神奈川県","jp_add_1":"横須賀市","jp_add_2":"芦名"},"2400102":{"post_code":"2400102","prefecture":"KANAGAWA KEN","city":"YOKOSUKA SHI","town":"OGINO","perfecture_jp":"神奈川県","jp_add_1":"横須賀市","jp_add_2":"荻野"},"2400106":{"post_code":"2400106","prefecture":"KANAGAWA KEN","city":"YOKOSUKA SHI","town":"KOYASU","perfecture_jp":"神奈川県","jp_add_1":"横須賀市","jp_add_2":"子安"},"2400103":{"post_code":"2400103","prefecture":"KANAGAWA KEN","city":"YOKOSUKA SHI","town":"SAJIMA","perfecture_jp":"神奈川県","jp_add_1":"横須賀市","jp_add_2":"佐島"},"2400108":{"post_code":"2400108","prefecture":"KANAGAWA KEN","city":"YOKOSUKA SHI","town":"SAJIMANOKA","perfecture_jp":"神奈川県","jp_add_1":"横須賀市","jp_add_2":"佐島の丘"},"2400107":{"post_code":"2400107","prefecture":"KANAGAWA KEN","city":"YOKOSUKA SHI","town":"SHONANKOKUSAIMURA","perfecture_jp":"神奈川県","jp_add_1":"横須賀市","jp_add_2":"湘南国際村"},"2400101":{"post_code":"2400101","prefecture":"KANAGAWA KEN","city":"YOKOSUKA SHI","town":"NAGASAKA","perfecture_jp":"神奈川県","jp_add_1":"横須賀市","jp_add_2":"長坂"},"2400100":{"post_code":"2400100","prefecture":"KANAGAWA KEN","city":"MIURA GUN HAYAMA MACHI","town":"IKANIKEISAIGANAIBAAI","perfecture_jp":"神奈川県","jp_add_1":"三浦郡葉山町","jp_add_2":""},"2400111":{"post_code":"2400111","prefecture":"KANAGAWA KEN","city":"MIURA GUN HAYAMA MACHI","town":"ISSHIKI","perfecture_jp":"神奈川県","jp_add_1":"三浦郡葉山町","jp_add_2":"一色"},"2400115":{"post_code":"2400115","prefecture":"KANAGAWA KEN","city":"MIURA GUN HAYAMA MACHI","town":"KAMIYAMAGUCHI","perfecture_jp":"神奈川県","jp_add_1":"三浦郡葉山町","jp_add_2":"上山口"},"2400114":{"post_code":"2400114","prefecture":"KANAGAWA KEN","city":"MIURA GUN HAYAMA MACHI","town":"KIKOBA","perfecture_jp":"神奈川県","jp_add_1":"三浦郡葉山町","jp_add_2":"木古庭"},"2400116":{"post_code":"2400116","prefecture":"KANAGAWA KEN","city":"MIURA GUN HAYAMA MACHI","town":"SHIMOYAMAGUCHI","perfecture_jp":"神奈川県","jp_add_1":"三浦郡葉山町","jp_add_2":"下山口"},"2400113":{"post_code":"2400113","prefecture":"KANAGAWA KEN","city":"MIURA GUN HAYAMA MACHI","town":"NAGAE","perfecture_jp":"神奈川県","jp_add_1":"三浦郡葉山町","jp_add_2":"長柄"},"2400112":{"post_code":"2400112","prefecture":"KANAGAWA KEN","city":"MIURA GUN HAYAMA MACHI","town":"HORIUCHI","perfecture_jp":"神奈川県","jp_add_1":"三浦郡葉山町","jp_add_2":"堀内"}}