{"2450052":{"post_code":"2450052","prefecture":"KANAGAWA KEN","city":"YOKOHAMA SHI TOTSUKA KU","town":"AKIBACHO","perfecture_jp":"神奈川県","jp_add_1":"横浜市戸塚区","jp_add_2":"秋葉町"},"2450064":{"post_code":"2450064","prefecture":"KANAGAWA KEN","city":"YOKOHAMA SHI TOTSUKA KU","town":"KAGETORICHO","perfecture_jp":"神奈川県","jp_add_1":"横浜市戸塚区","jp_add_2":"影取町"},"2450053":{"post_code":"2450053","prefecture":"KANAGAWA KEN","city":"YOKOHAMA SHI TOTSUKA KU","town":"KAMIYABECHO","perfecture_jp":"神奈川県","jp_add_1":"横浜市戸塚区","jp_add_2":"上矢部町"},"2450061":{"post_code":"2450061","prefecture":"KANAGAWA KEN","city":"YOKOHAMA SHI TOTSUKA KU","town":"GUMIZAWA","perfecture_jp":"神奈川県","jp_add_1":"横浜市戸塚区","jp_add_2":"汲沢"},"2450062":{"post_code":"2450062","prefecture":"KANAGAWA KEN","city":"YOKOHAMA SHI TOTSUKA KU","town":"GUMIZAWACHO","perfecture_jp":"神奈川県","jp_add_1":"横浜市戸塚区","jp_add_2":"汲沢町"},"2450051":{"post_code":"2450051","prefecture":"KANAGAWA KEN","city":"YOKOHAMA SHI TOTSUKA KU","town":"NASECHO","perfecture_jp":"神奈川県","jp_add_1":"横浜市戸塚区","jp_add_2":"名瀬町"},"2450063":{"post_code":"2450063","prefecture":"KANAGAWA KEN","city":"YOKOHAMA SHI TOTSUKA KU","town":"HARAJUKU","perfecture_jp":"神奈川県","jp_add_1":"横浜市戸塚区","jp_add_2":"原宿"},"2450065":{"post_code":"2450065","prefecture":"KANAGAWA KEN","city":"YOKOHAMA SHI TOTSUKA KU","town":"HIGASHIMATANOCHO","perfecture_jp":"神奈川県","jp_add_1":"横浜市戸塚区","jp_add_2":"東俣野町"},"2450067":{"post_code":"2450067","prefecture":"KANAGAWA KEN","city":"YOKOHAMA SHI TOTSUKA KU","town":"FUKAYACHO","perfecture_jp":"神奈川県","jp_add_1":"横浜市戸塚区","jp_add_2":"深谷町"},"2450066":{"post_code":"2450066","prefecture":"KANAGAWA KEN","city":"YOKOHAMA SHI TOTSUKA KU","town":"MATANOCHO","perfecture_jp":"神奈川県","jp_add_1":"横浜市戸塚区","jp_add_2":"俣野町"},"2450000":{"post_code":"2450000","prefecture":"KANAGAWA KEN","city":"YOKOHAMA SHI IZUMI KU","town":"IKANIKEISAIGANAIBAAI","perfecture_jp":"神奈川県","jp_add_1":"横浜市泉区","jp_add_2":""},"2450001":{"post_code":"2450001","prefecture":"KANAGAWA KEN","city":"YOKOHAMA SHI IZUMI KU","town":"IKENOTANI","perfecture_jp":"神奈川県","jp_add_1":"横浜市泉区","jp_add_2":"池の谷"},"2450022":{"post_code":"2450022","prefecture":"KANAGAWA KEN","city":"YOKOHAMA SHI IZUMI KU","town":"IZUMIGAOKA","perfecture_jp":"神奈川県","jp_add_1":"横浜市泉区","jp_add_2":"和泉が丘"},"2450023":{"post_code":"2450023","prefecture":"KANAGAWA KEN","city":"YOKOHAMA SHI IZUMI KU","town":"IZUMICHUOMINAMI","perfecture_jp":"神奈川県","jp_add_1":"横浜市泉区","jp_add_2":"和泉中央南"},"2450016":{"post_code":"2450016","prefecture":"KANAGAWA KEN","city":"YOKOHAMA SHI IZUMI KU","town":"IZUMICHO","perfecture_jp":"神奈川県","jp_add_1":"横浜市泉区","jp_add_2":"和泉町"},"2450003":{"post_code":"2450003","prefecture":"KANAGAWA KEN","city":"YOKOHAMA SHI IZUMI KU","town":"OKAZUCHO","perfecture_jp":"神奈川県","jp_add_1":"横浜市泉区","jp_add_2":"岡津町"},"2450007":{"post_code":"2450007","prefecture":"KANAGAWA KEN","city":"YOKOHAMA SHI IZUMI KU","town":"KATSURAZAKA","perfecture_jp":"神奈川県","jp_add_1":"横浜市泉区","jp_add_2":"桂坂"},"2450018":{"post_code":"2450018","prefecture":"KANAGAWA KEN","city":"YOKOHAMA SHI IZUMI KU","town":"KAMIIIDACHO","perfecture_jp":"神奈川県","jp_add_1":"横浜市泉区","jp_add_2":"上飯田町"},"2450017":{"post_code":"2450017","prefecture":"KANAGAWA KEN","city":"YOKOHAMA SHI IZUMI KU","town":"SHIMOIIDACHO","perfecture_jp":"神奈川県","jp_add_1":"横浜市泉区","jp_add_2":"下飯田町"},"2450021":{"post_code":"2450021","prefecture":"KANAGAWA KEN","city":"YOKOHAMA SHI IZUMI KU","town":"SHIMOIZUMI","perfecture_jp":"神奈川県","jp_add_1":"横浜市泉区","jp_add_2":"下和泉"},"2450005":{"post_code":"2450005","prefecture":"KANAGAWA KEN","city":"YOKOHAMA SHI IZUMI KU","town":"SHIRAYURI","perfecture_jp":"神奈川県","jp_add_1":"横浜市泉区","jp_add_2":"白百合"},"2450009":{"post_code":"2450009","prefecture":"KANAGAWA KEN","city":"YOKOHAMA SHI IZUMI KU","town":"SHIMBASHICHO","perfecture_jp":"神奈川県","jp_add_1":"横浜市泉区","jp_add_2":"新橋町"},"2450011":{"post_code":"2450011","prefecture":"KANAGAWA KEN","city":"YOKOHAMA SHI IZUMI KU","town":"NAKATACHO","perfecture_jp":"神奈川県","jp_add_1":"横浜市泉区","jp_add_2":"中田町"},"2450013":{"post_code":"2450013","prefecture":"KANAGAWA KEN","city":"YOKOHAMA SHI IZUMI KU","town":"NAKATAHIGASHI","perfecture_jp":"神奈川県","jp_add_1":"横浜市泉区","jp_add_2":"中田東"},"2450015":{"post_code":"2450015","prefecture":"KANAGAWA KEN","city":"YOKOHAMA SHI IZUMI KU","town":"NAKATANISHI","perfecture_jp":"神奈川県","jp_add_1":"横浜市泉区","jp_add_2":"中田西"},"2450014":{"post_code":"2450014","prefecture":"KANAGAWA KEN","city":"YOKOHAMA SHI IZUMI KU","town":"NAKATAMINAMI","perfecture_jp":"神奈川県","jp_add_1":"横浜市泉区","jp_add_2":"中田南"},"2450012":{"post_code":"2450012","prefecture":"KANAGAWA KEN","city":"YOKOHAMA SHI IZUMI KU","town":"NAKATAKITA","perfecture_jp":"神奈川県","jp_add_1":"横浜市泉区","jp_add_2":"中田北"},"2450006":{"post_code":"2450006","prefecture":"KANAGAWA KEN","city":"YOKOHAMA SHI IZUMI KU","town":"NISHIGAOKA","perfecture_jp":"神奈川県","jp_add_1":"横浜市泉区","jp_add_2":"西が岡"},"2450008":{"post_code":"2450008","prefecture":"KANAGAWA KEN","city":"YOKOHAMA SHI IZUMI KU","town":"YAYOIDAI","perfecture_jp":"神奈川県","jp_add_1":"横浜市泉区","jp_add_2":"弥生台"},"2450004":{"post_code":"2450004","prefecture":"KANAGAWA KEN","city":"YOKOHAMA SHI IZUMI KU","town":"RYOKE","perfecture_jp":"神奈川県","jp_add_1":"横浜市泉区","jp_add_2":"領家"},"2450002":{"post_code":"2450002","prefecture":"KANAGAWA KEN","city":"YOKOHAMA SHI IZUMI KU","town":"RYOKUEN","perfecture_jp":"神奈川県","jp_add_1":"横浜市泉区","jp_add_2":"緑園"}}