{"2490000":{"post_code":"2490000","prefecture":"KANAGAWA KEN","city":"ZUSHI SHI","town":"IKANIKEISAIGANAIBAAI","perfecture_jp":"神奈川県","jp_add_1":"逗子市","jp_add_2":""},"2490003":{"post_code":"2490003","prefecture":"KANAGAWA KEN","city":"ZUSHI SHI","town":"IKEGO","perfecture_jp":"神奈川県","jp_add_1":"逗子市","jp_add_2":"池子"},"2490008":{"post_code":"2490008","prefecture":"KANAGAWA KEN","city":"ZUSHI SHI","town":"KOTSUBO","perfecture_jp":"神奈川県","jp_add_1":"逗子市","jp_add_2":"小坪"},"2490005":{"post_code":"2490005","prefecture":"KANAGAWA KEN","city":"ZUSHI SHI","town":"SAKURAYAMA","perfecture_jp":"神奈川県","jp_add_1":"逗子市","jp_add_2":"桜山"},"2490007":{"post_code":"2490007","prefecture":"KANAGAWA KEN","city":"ZUSHI SHI","town":"SHINJUKU","perfecture_jp":"神奈川県","jp_add_1":"逗子市","jp_add_2":"新宿"},"2490006":{"post_code":"2490006","prefecture":"KANAGAWA KEN","city":"ZUSHI SHI","town":"ZUSHI","perfecture_jp":"神奈川県","jp_add_1":"逗子市","jp_add_2":"逗子"},"2490004":{"post_code":"2490004","prefecture":"KANAGAWA KEN","city":"ZUSHI SHI","town":"NUMAMA","perfecture_jp":"神奈川県","jp_add_1":"逗子市","jp_add_2":"沼間"},"2490001":{"post_code":"2490001","prefecture":"KANAGAWA KEN","city":"ZUSHI SHI","town":"HISAGI","perfecture_jp":"神奈川県","jp_add_1":"逗子市","jp_add_2":"久木"},"2490002":{"post_code":"2490002","prefecture":"KANAGAWA KEN","city":"ZUSHI SHI","town":"YAMANONE","perfecture_jp":"神奈川県","jp_add_1":"逗子市","jp_add_2":"山の根"}}