{"2500000":{"post_code":"2500000","prefecture":"KANAGAWA KEN","city":"ODAWARA SHI","town":"IKANIKEISAIGANAIBAAI","perfecture_jp":"神奈川県","jp_add_1":"小田原市","jp_add_2":""},"2500053":{"post_code":"2500053","prefecture":"KANAGAWA KEN","city":"ODAWARA SHI","town":"ANABE","perfecture_jp":"神奈川県","jp_add_1":"小田原市","jp_add_2":"穴部"},"2500864":{"post_code":"2500864","prefecture":"KANAGAWA KEN","city":"ODAWARA SHI","town":"ANABESHINDEN","perfecture_jp":"神奈川県","jp_add_1":"小田原市","jp_add_2":"穴部新田"},"2500856":{"post_code":"2500856","prefecture":"KANAGAWA KEN","city":"ODAWARA SHI","town":"ARAYA","perfecture_jp":"神奈川県","jp_add_1":"小田原市","jp_add_2":"新屋"},"2500863":{"post_code":"2500863","prefecture":"KANAGAWA KEN","city":"ODAWARA SHI","town":"IIZUMI","perfecture_jp":"神奈川県","jp_add_1":"小田原市","jp_add_2":"飯泉"},"2500854":{"post_code":"2500854","prefecture":"KANAGAWA KEN","city":"ODAWARA SHI","town":"IIDAOKA","perfecture_jp":"神奈川県","jp_add_1":"小田原市","jp_add_2":"飯田岡"},"2500041":{"post_code":"2500041","prefecture":"KANAGAWA KEN","city":"ODAWARA SHI","town":"IKEGAMI","perfecture_jp":"神奈川県","jp_add_1":"小田原市","jp_add_2":"池上"},"2500056":{"post_code":"2500056","prefecture":"KANAGAWA KEN","city":"ODAWARA SHI","town":"ISAIDA","perfecture_jp":"神奈川県","jp_add_1":"小田原市","jp_add_2":"井細田"},"2500022":{"post_code":"2500022","prefecture":"KANAGAWA KEN","city":"ODAWARA SHI","town":"ISHIBASHI","perfecture_jp":"神奈川県","jp_add_1":"小田原市","jp_add_2":"石橋"},"2500034":{"post_code":"2500034","prefecture":"KANAGAWA KEN","city":"ODAWARA SHI","town":"ITABASHI","perfecture_jp":"神奈川県","jp_add_1":"小田原市","jp_add_2":"板橋"},"2500031":{"post_code":"2500031","prefecture":"KANAGAWA KEN","city":"ODAWARA SHI","town":"IRYUDA","perfecture_jp":"神奈川県","jp_add_1":"小田原市","jp_add_2":"入生田"},"2500025":{"post_code":"2500025","prefecture":"KANAGAWA KEN","city":"ODAWARA SHI","town":"ENORA","perfecture_jp":"神奈川県","jp_add_1":"小田原市","jp_add_2":"江之浦"},"2500001":{"post_code":"2500001","prefecture":"KANAGAWA KEN","city":"ODAWARA SHI","town":"OGICHO","perfecture_jp":"神奈川県","jp_add_1":"小田原市","jp_add_2":"扇町"},"2500042":{"post_code":"2500042","prefecture":"KANAGAWA KEN","city":"ODAWARA SHI","town":"OGIKUBO","perfecture_jp":"神奈川県","jp_add_1":"小田原市","jp_add_2":"荻窪"},"2500211":{"post_code":"2500211","prefecture":"KANAGAWA KEN","city":"ODAWARA SHI","town":"ONIYANAGI","perfecture_jp":"神奈川県","jp_add_1":"小田原市","jp_add_2":"鬼柳"},"2500032":{"post_code":"2500032","prefecture":"KANAGAWA KEN","city":"ODAWARA SHI","town":"KAZAMATSURI","perfecture_jp":"神奈川県","jp_add_1":"小田原市","jp_add_2":"風祭"},"2500877":{"post_code":"2500877","prefecture":"KANAGAWA KEN","city":"ODAWARA SHI","town":"KAMISHINDEN","perfecture_jp":"神奈川県","jp_add_1":"小田原市","jp_add_2":"上新田"},"2500202":{"post_code":"2500202","prefecture":"KANAGAWA KEN","city":"ODAWARA SHI","town":"KAMISOGA","perfecture_jp":"神奈川県","jp_add_1":"小田原市","jp_add_2":"上曽我"},"2500874":{"post_code":"2500874","prefecture":"KANAGAWA KEN","city":"ODAWARA SHI","town":"KAMONOMIYA","perfecture_jp":"神奈川県","jp_add_1":"小田原市","jp_add_2":"鴨宮"},"2500852":{"post_code":"2500852","prefecture":"KANAGAWA KEN","city":"ODAWARA SHI","town":"KAYAMA","perfecture_jp":"神奈川県","jp_add_1":"小田原市","jp_add_2":"栢山"},"2500051":{"post_code":"2500051","prefecture":"KANAGAWA KEN","city":"ODAWARA SHI","town":"KITANOKUBO","perfecture_jp":"神奈川県","jp_add_1":"小田原市","jp_add_2":"北ノ窪"},"2500055":{"post_code":"2500055","prefecture":"KANAGAWA KEN","city":"ODAWARA SHI","town":"KUNO","perfecture_jp":"神奈川県","jp_add_1":"小田原市","jp_add_2":"久野"},"2500861":{"post_code":"2500861","prefecture":"KANAGAWA KEN","city":"ODAWARA SHI","town":"KUWAHARA","perfecture_jp":"神奈川県","jp_add_1":"小田原市","jp_add_2":"桑原"},"2500858":{"post_code":"2500858","prefecture":"KANAGAWA KEN","city":"ODAWARA SHI","town":"KODAI","perfecture_jp":"神奈川県","jp_add_1":"小田原市","jp_add_2":"小台"},"2500002":{"post_code":"2500002","prefecture":"KANAGAWA KEN","city":"ODAWARA SHI","town":"KOTOBUKICHO","perfecture_jp":"神奈川県","jp_add_1":"小田原市","jp_add_2":"寿町"},"2500023":{"post_code":"2500023","prefecture":"KANAGAWA KEN","city":"ODAWARA SHI","town":"KOMEKAMI","perfecture_jp":"神奈川県","jp_add_1":"小田原市","jp_add_2":"米神"},"2500011":{"post_code":"2500011","prefecture":"KANAGAWA KEN","city":"ODAWARA SHI","town":"SAKAECHO","perfecture_jp":"神奈川県","jp_add_1":"小田原市","jp_add_2":"栄町"},"2500855":{"post_code":"2500855","prefecture":"KANAGAWA KEN","city":"ODAWARA SHI","town":"SHIMIZUSHINDEN","perfecture_jp":"神奈川県","jp_add_1":"小田原市","jp_add_2":"清水新田"},"2500208":{"post_code":"2500208","prefecture":"KANAGAWA KEN","city":"ODAWARA SHI","town":"SHIMOOI","perfecture_jp":"神奈川県","jp_add_1":"小田原市","jp_add_2":"下大井"},"2500878":{"post_code":"2500878","prefecture":"KANAGAWA KEN","city":"ODAWARA SHI","town":"SHIMOSHINDEN","perfecture_jp":"神奈川県","jp_add_1":"小田原市","jp_add_2":"下新田"},"2500871":{"post_code":"2500871","prefecture":"KANAGAWA KEN","city":"ODAWARA SHI","town":"SHIMOBORI","perfecture_jp":"神奈川県","jp_add_1":"小田原市","jp_add_2":"下堀"},"2500046":{"post_code":"2500046","prefecture":"KANAGAWA KEN","city":"ODAWARA SHI","town":"JUJI","perfecture_jp":"神奈川県","jp_add_1":"小田原市","jp_add_2":"十字"},"2500014":{"post_code":"2500014","prefecture":"KANAGAWA KEN","city":"ODAWARA SHI","town":"JONAI","perfecture_jp":"神奈川県","jp_add_1":"小田原市","jp_add_2":"城内"},"2500045":{"post_code":"2500045","prefecture":"KANAGAWA KEN","city":"ODAWARA SHI","town":"SHIROYAMA","perfecture_jp":"神奈川県","jp_add_1":"小田原市","jp_add_2":"城山"},"2500201":{"post_code":"2500201","prefecture":"KANAGAWA KEN","city":"ODAWARA SHI","town":"SOGA OSAWA","perfecture_jp":"神奈川県","jp_add_1":"小田原市","jp_add_2":"曽我大沢"},"2500203":{"post_code":"2500203","prefecture":"KANAGAWA KEN","city":"ODAWARA SHI","town":"SOGA KISHI","perfecture_jp":"神奈川県","jp_add_1":"小田原市","jp_add_2":"曽我岸"},"2500207":{"post_code":"2500207","prefecture":"KANAGAWA KEN","city":"ODAWARA SHI","town":"SOGA KOMI","perfecture_jp":"神奈川県","jp_add_1":"小田原市","jp_add_2":"曽我光海"},"2500205":{"post_code":"2500205","prefecture":"KANAGAWA KEN","city":"ODAWARA SHI","town":"SOGA BESSHO","perfecture_jp":"神奈川県","jp_add_1":"小田原市","jp_add_2":"曽我別所"},"2500204":{"post_code":"2500204","prefecture":"KANAGAWA KEN","city":"ODAWARA SHI","town":"SOGA YATSU","perfecture_jp":"神奈川県","jp_add_1":"小田原市","jp_add_2":"曽我谷津"},"2500206":{"post_code":"2500206","prefecture":"KANAGAWA KEN","city":"ODAWARA SHI","town":"SOGAHARA","perfecture_jp":"神奈川県","jp_add_1":"小田原市","jp_add_2":"曽我原"},"2500851":{"post_code":"2500851","prefecture":"KANAGAWA KEN","city":"ODAWARA SHI","town":"SOBI","perfecture_jp":"神奈川県","jp_add_1":"小田原市","jp_add_2":"曽比"},"2500216":{"post_code":"2500216","prefecture":"KANAGAWA KEN","city":"ODAWARA SHI","town":"TAKATA","perfecture_jp":"神奈川県","jp_add_1":"小田原市","jp_add_2":"高田"},"2500054":{"post_code":"2500054","prefecture":"KANAGAWA KEN","city":"ODAWARA SHI","town":"TAKO","perfecture_jp":"神奈川県","jp_add_1":"小田原市","jp_add_2":"多古"},"2500215":{"post_code":"2500215","prefecture":"KANAGAWA KEN","city":"ODAWARA SHI","town":"CHIYO","perfecture_jp":"神奈川県","jp_add_1":"小田原市","jp_add_2":"千代"},"2500872":{"post_code":"2500872","prefecture":"KANAGAWA KEN","city":"ODAWARA SHI","town":"NAKAZATO","perfecture_jp":"神奈川県","jp_add_1":"小田原市","jp_add_2":"中里"},"2500876":{"post_code":"2500876","prefecture":"KANAGAWA KEN","city":"ODAWARA SHI","town":"NAKASHINDEN","perfecture_jp":"神奈川県","jp_add_1":"小田原市","jp_add_2":"中新田"},"2500866":{"post_code":"2500866","prefecture":"KANAGAWA KEN","city":"ODAWARA SHI","town":"NAKAZONE","perfecture_jp":"神奈川県","jp_add_1":"小田原市","jp_add_2":"中曽根"},"2500005":{"post_code":"2500005","prefecture":"KANAGAWA KEN","city":"ODAWARA SHI","town":"NAKACHO","perfecture_jp":"神奈川県","jp_add_1":"小田原市","jp_add_2":"中町"},"2500214":{"post_code":"2500214","prefecture":"KANAGAWA KEN","city":"ODAWARA SHI","town":"NAGATSUKA","perfecture_jp":"神奈川県","jp_add_1":"小田原市","jp_add_2":"永塚"},"2500862":{"post_code":"2500862","prefecture":"KANAGAWA KEN","city":"ODAWARA SHI","town":"NARUDA","perfecture_jp":"神奈川県","jp_add_1":"小田原市","jp_add_2":"成田"},"2500212":{"post_code":"2500212","prefecture":"KANAGAWA KEN","city":"ODAWARA SHI","town":"NISHIODOMO","perfecture_jp":"神奈川県","jp_add_1":"小田原市","jp_add_2":"西大友"},"2500024":{"post_code":"2500024","prefecture":"KANAGAWA KEN","city":"ODAWARA SHI","town":"NEBUKAWA","perfecture_jp":"神奈川県","jp_add_1":"小田原市","jp_add_2":"根府川"},"2500218":{"post_code":"2500218","prefecture":"KANAGAWA KEN","city":"ODAWARA SHI","town":"NOBUKIYO","perfecture_jp":"神奈川県","jp_add_1":"小田原市","jp_add_2":"延清"},"2500004":{"post_code":"2500004","prefecture":"KANAGAWA KEN","city":"ODAWARA SHI","town":"HAMACHO","perfecture_jp":"神奈川県","jp_add_1":"小田原市","jp_add_2":"浜町"},"2500021":{"post_code":"2500021","prefecture":"KANAGAWA KEN","city":"ODAWARA SHI","town":"HAYAKAWA","perfecture_jp":"神奈川県","jp_add_1":"小田原市","jp_add_2":"早川"},"2500213":{"post_code":"2500213","prefecture":"KANAGAWA KEN","city":"ODAWARA SHI","town":"HIGASHIODOMO","perfecture_jp":"神奈川県","jp_add_1":"小田原市","jp_add_2":"東大友"},"2500003":{"post_code":"2500003","prefecture":"KANAGAWA KEN","city":"ODAWARA SHI","town":"HIGASHICHO","perfecture_jp":"神奈川県","jp_add_1":"小田原市","jp_add_2":"東町"},"2500052":{"post_code":"2500052","prefecture":"KANAGAWA KEN","city":"ODAWARA SHI","town":"FUKAWA","perfecture_jp":"神奈川県","jp_add_1":"小田原市","jp_add_2":"府川"},"2500217":{"post_code":"2500217","prefecture":"KANAGAWA KEN","city":"ODAWARA SHI","town":"BEPPORI","perfecture_jp":"神奈川県","jp_add_1":"小田原市","jp_add_2":"別堀"},"2500853":{"post_code":"2500853","prefecture":"KANAGAWA KEN","city":"ODAWARA SHI","town":"HORINOCHI","perfecture_jp":"神奈川県","jp_add_1":"小田原市","jp_add_2":"堀之内"},"2500012":{"post_code":"2500012","prefecture":"KANAGAWA KEN","city":"ODAWARA SHI","town":"HONCHO","perfecture_jp":"神奈川県","jp_add_1":"小田原市","jp_add_2":"本町"},"2500033":{"post_code":"2500033","prefecture":"KANAGAWA KEN","city":"ODAWARA SHI","town":"MIZUNO","perfecture_jp":"神奈川県","jp_add_1":"小田原市","jp_add_2":"水之尾"},"2500044":{"post_code":"2500044","prefecture":"KANAGAWA KEN","city":"ODAWARA SHI","town":"MIDORI","perfecture_jp":"神奈川県","jp_add_1":"小田原市","jp_add_2":"緑"},"2500035":{"post_code":"2500035","prefecture":"KANAGAWA KEN","city":"ODAWARA SHI","town":"MINAMIITABASHI","perfecture_jp":"神奈川県","jp_add_1":"小田原市","jp_add_2":"南板橋"},"2500875":{"post_code":"2500875","prefecture":"KANAGAWA KEN","city":"ODAWARA SHI","town":"MINAMIKAMONOMIYA","perfecture_jp":"神奈川県","jp_add_1":"小田原市","jp_add_2":"南鴨宮"},"2500013":{"post_code":"2500013","prefecture":"KANAGAWA KEN","city":"ODAWARA SHI","town":"MINAMICHO","perfecture_jp":"神奈川県","jp_add_1":"小田原市","jp_add_2":"南町"},"2500043":{"post_code":"2500043","prefecture":"KANAGAWA KEN","city":"ODAWARA SHI","town":"YATSU","perfecture_jp":"神奈川県","jp_add_1":"小田原市","jp_add_2":"谷津"},"2500857":{"post_code":"2500857","prefecture":"KANAGAWA KEN","city":"ODAWARA SHI","town":"YANAGISHINDEN","perfecture_jp":"神奈川県","jp_add_1":"小田原市","jp_add_2":"柳新田"},"2500873":{"post_code":"2500873","prefecture":"KANAGAWA KEN","city":"ODAWARA SHI","town":"YAHAGI","perfecture_jp":"神奈川県","jp_add_1":"小田原市","jp_add_2":"矢作"},"2500865":{"post_code":"2500865","prefecture":"KANAGAWA KEN","city":"ODAWARA SHI","town":"RENSHOJI","perfecture_jp":"神奈川県","jp_add_1":"小田原市","jp_add_2":"蓮正寺"},"2500100":{"post_code":"2500100","prefecture":"KANAGAWA KEN","city":"MINAMIASHIGARA SHI","town":"IKANIKEISAIGANAIBAAI","perfecture_jp":"神奈川県","jp_add_1":"南足柄市","jp_add_2":""},"2500134":{"post_code":"2500134","prefecture":"KANAGAWA KEN","city":"MINAMIASHIGARA SHI","town":"AMATSUBO","perfecture_jp":"神奈川県","jp_add_1":"南足柄市","jp_add_2":"雨坪"},"2500122":{"post_code":"2500122","prefecture":"KANAGAWA KEN","city":"MINAMIASHIGARA SHI","town":"IIZAWA","perfecture_jp":"神奈川県","jp_add_1":"南足柄市","jp_add_2":"飯沢"},"2500124":{"post_code":"2500124","prefecture":"KANAGAWA KEN","city":"MINAMIASHIGARA SHI","town":"IKOMA","perfecture_jp":"神奈川県","jp_add_1":"南足柄市","jp_add_2":"生駒"},"2500113":{"post_code":"2500113","prefecture":"KANAGAWA KEN","city":"MINAMIASHIGARA SHI","town":"IWAHARA","perfecture_jp":"神奈川県","jp_add_1":"南足柄市","jp_add_2":"岩原"},"2500131":{"post_code":"2500131","prefecture":"KANAGAWA KEN","city":"MINAMIASHIGARA SHI","town":"UCHIYAMA","perfecture_jp":"神奈川県","jp_add_1":"南足柄市","jp_add_2":"内山"},"2500126":{"post_code":"2500126","prefecture":"KANAGAWA KEN","city":"MINAMIASHIGARA SHI","town":"KANO","perfecture_jp":"神奈川県","jp_add_1":"南足柄市","jp_add_2":"狩野"},"2500135":{"post_code":"2500135","prefecture":"KANAGAWA KEN","city":"MINAMIASHIGARA SHI","town":"KARINO","perfecture_jp":"神奈川県","jp_add_1":"南足柄市","jp_add_2":"苅野"},"2500114":{"post_code":"2500114","prefecture":"KANAGAWA KEN","city":"MINAMIASHIGARA SHI","town":"KITAKUBO","perfecture_jp":"神奈川県","jp_add_1":"南足柄市","jp_add_2":"北窪"},"2500107":{"post_code":"2500107","prefecture":"KANAGAWA KEN","city":"MINAMIASHIGARA SHI","town":"KOICHI","perfecture_jp":"神奈川県","jp_add_1":"南足柄市","jp_add_2":"小市"},"2500132":{"post_code":"2500132","prefecture":"KANAGAWA KEN","city":"MINAMIASHIGARA SHI","town":"KOSAIJI","perfecture_jp":"神奈川県","jp_add_1":"南足柄市","jp_add_2":"弘西寺"},"2500125":{"post_code":"2500125","prefecture":"KANAGAWA KEN","city":"MINAMIASHIGARA SHI","town":"KOMAGATASHINSHUKU","perfecture_jp":"神奈川県","jp_add_1":"南足柄市","jp_add_2":"駒形新宿"},"2500105":{"post_code":"2500105","prefecture":"KANAGAWA KEN","city":"MINAMIASHIGARA SHI","town":"SEKIMOTO","perfecture_jp":"神奈川県","jp_add_1":"南足柄市","jp_add_2":"関本"},"2500102":{"post_code":"2500102","prefecture":"KANAGAWA KEN","city":"MINAMIASHIGARA SHI","town":"SENZUSHIMA","perfecture_jp":"神奈川県","jp_add_1":"南足柄市","jp_add_2":"千津島"},"2500127":{"post_code":"2500127","prefecture":"KANAGAWA KEN","city":"MINAMIASHIGARA SHI","town":"DAIYUCHO","perfecture_jp":"神奈川県","jp_add_1":"南足柄市","jp_add_2":"大雄町"},"2500111":{"post_code":"2500111","prefecture":"KANAGAWA KEN","city":"MINAMIASHIGARA SHI","town":"TAKEMATSU","perfecture_jp":"神奈川県","jp_add_1":"南足柄市","jp_add_2":"竹松"},"2500117":{"post_code":"2500117","prefecture":"KANAGAWA KEN","city":"MINAMIASHIGARA SHI","town":"TSUKAHARA","perfecture_jp":"神奈川県","jp_add_1":"南足柄市","jp_add_2":"塚原"},"2500123":{"post_code":"2500123","prefecture":"KANAGAWA KEN","city":"MINAMIASHIGARA SHI","town":"NAKANUMA","perfecture_jp":"神奈川県","jp_add_1":"南足柄市","jp_add_2":"中沼"},"2500106":{"post_code":"2500106","prefecture":"KANAGAWA KEN","city":"MINAMIASHIGARA SHI","town":"NUDA","perfecture_jp":"神奈川県","jp_add_1":"南足柄市","jp_add_2":"怒田"},"2500115":{"post_code":"2500115","prefecture":"KANAGAWA KEN","city":"MINAMIASHIGARA SHI","town":"NUMATA","perfecture_jp":"神奈川県","jp_add_1":"南足柄市","jp_add_2":"沼田"},"2500121":{"post_code":"2500121","prefecture":"KANAGAWA KEN","city":"MINAMIASHIGARA SHI","town":"HIROMACHI","perfecture_jp":"神奈川県","jp_add_1":"南足柄市","jp_add_2":"広町"},"2500133":{"post_code":"2500133","prefecture":"KANAGAWA KEN","city":"MINAMIASHIGARA SHI","town":"FUKUSEN","perfecture_jp":"神奈川県","jp_add_1":"南足柄市","jp_add_2":"福泉"},"2500101":{"post_code":"2500101","prefecture":"KANAGAWA KEN","city":"MINAMIASHIGARA SHI","town":"MADARAME","perfecture_jp":"神奈川県","jp_add_1":"南足柄市","jp_add_2":"班目"},"2500103":{"post_code":"2500103","prefecture":"KANAGAWA KEN","city":"MINAMIASHIGARA SHI","town":"MAMASHITA","perfecture_jp":"神奈川県","jp_add_1":"南足柄市","jp_add_2":"壗下"},"2500116":{"post_code":"2500116","prefecture":"KANAGAWA KEN","city":"MINAMIASHIGARA SHI","town":"MITAKE","perfecture_jp":"神奈川県","jp_add_1":"南足柄市","jp_add_2":"三竹"},"2500104":{"post_code":"2500104","prefecture":"KANAGAWA KEN","city":"MINAMIASHIGARA SHI","town":"MUKAIDA","perfecture_jp":"神奈川県","jp_add_1":"南足柄市","jp_add_2":"向田"},"2500136":{"post_code":"2500136","prefecture":"KANAGAWA KEN","city":"MINAMIASHIGARA SHI","town":"YAGURAZAWA","perfecture_jp":"神奈川県","jp_add_1":"南足柄市","jp_add_2":"矢倉沢"},"2500112":{"post_code":"2500112","prefecture":"KANAGAWA KEN","city":"MINAMIASHIGARA SHI","town":"WADAGAHARA","perfecture_jp":"神奈川県","jp_add_1":"南足柄市","jp_add_2":"和田河原"},"2500500":{"post_code":"2500500","prefecture":"KANAGAWA KEN","city":"ASHIGARASHIMO GUN HAKONE MACHI","town":"IKANIKEISAIGANAIBAAI","perfecture_jp":"神奈川県","jp_add_1":"足柄下郡箱根町","jp_add_2":""},"2500523":{"post_code":"2500523","prefecture":"KANAGAWA KEN","city":"ASHIGARASHIMO GUN HAKONE MACHI","town":"ASHINOYU","perfecture_jp":"神奈川県","jp_add_1":"足柄下郡箱根町","jp_add_2":"芦之湯"},"2500405":{"post_code":"2500405","prefecture":"KANAGAWA KEN","city":"ASHIGARASHIMO GUN HAKONE MACHI","town":"OHIRADAI","perfecture_jp":"神奈川県","jp_add_1":"足柄下郡箱根町","jp_add_2":"大平台"},"2500402":{"post_code":"2500402","prefecture":"KANAGAWA KEN","city":"ASHIGARASHIMO GUN HAKONE MACHI","town":"KIGA","perfecture_jp":"神奈川県","jp_add_1":"足柄下郡箱根町","jp_add_2":"木賀"},"2500406":{"post_code":"2500406","prefecture":"KANAGAWA KEN","city":"ASHIGARASHIMO GUN HAKONE MACHI","town":"KOWAKUDANI","perfecture_jp":"神奈川県","jp_add_1":"足柄下郡箱根町","jp_add_2":"小涌谷"},"2500408":{"post_code":"2500408","prefecture":"KANAGAWA KEN","city":"ASHIGARASHIMO GUN HAKONE MACHI","town":"GORA","perfecture_jp":"神奈川県","jp_add_1":"足柄下郡箱根町","jp_add_2":"強羅"},"2500313":{"post_code":"2500313","prefecture":"KANAGAWA KEN","city":"ASHIGARASHIMO GUN HAKONE MACHI","town":"SUKUMOGAWA","perfecture_jp":"神奈川県","jp_add_1":"足柄下郡箱根町","jp_add_2":"須雲川"},"2500631":{"post_code":"2500631","prefecture":"KANAGAWA KEN","city":"ASHIGARASHIMO GUN HAKONE MACHI","town":"SENGOKUHARA","perfecture_jp":"神奈川県","jp_add_1":"足柄下郡箱根町","jp_add_2":"仙石原"},"2500403":{"post_code":"2500403","prefecture":"KANAGAWA KEN","city":"ASHIGARASHIMO GUN HAKONE MACHI","town":"SOKOKURA","perfecture_jp":"神奈川県","jp_add_1":"足柄下郡箱根町","jp_add_2":"底倉"},"2500315":{"post_code":"2500315","prefecture":"KANAGAWA KEN","city":"ASHIGARASHIMO GUN HAKONE MACHI","town":"TONOSAWA","perfecture_jp":"神奈川県","jp_add_1":"足柄下郡箱根町","jp_add_2":"塔之澤"},"2500407":{"post_code":"2500407","prefecture":"KANAGAWA KEN","city":"ASHIGARASHIMO GUN HAKONE MACHI","town":"NINOTAIRA","perfecture_jp":"神奈川県","jp_add_1":"足柄下郡箱根町","jp_add_2":"二ノ平"},"2500521":{"post_code":"2500521","prefecture":"KANAGAWA KEN","city":"ASHIGARASHIMO GUN HAKONE MACHI","town":"HAKONE","perfecture_jp":"神奈川県","jp_add_1":"足柄下郡箱根町","jp_add_2":"箱根"},"2500314":{"post_code":"2500314","prefecture":"KANAGAWA KEN","city":"ASHIGARASHIMO GUN HAKONE MACHI","town":"HATAJUKU","perfecture_jp":"神奈川県","jp_add_1":"足柄下郡箱根町","jp_add_2":"畑宿"},"2500401":{"post_code":"2500401","prefecture":"KANAGAWA KEN","city":"ASHIGARASHIMO GUN HAKONE MACHI","town":"MIYAGINO","perfecture_jp":"神奈川県","jp_add_1":"足柄下郡箱根町","jp_add_2":"宮城野"},"2500404":{"post_code":"2500404","prefecture":"KANAGAWA KEN","city":"ASHIGARASHIMO GUN HAKONE MACHI","town":"MIYANOSHITA","perfecture_jp":"神奈川県","jp_add_1":"足柄下郡箱根町","jp_add_2":"宮ノ下"},"2500522":{"post_code":"2500522","prefecture":"KANAGAWA KEN","city":"ASHIGARASHIMO GUN HAKONE MACHI","town":"MOTOHAKONE","perfecture_jp":"神奈川県","jp_add_1":"足柄下郡箱根町","jp_add_2":"元箱根"},"2500311":{"post_code":"2500311","prefecture":"KANAGAWA KEN","city":"ASHIGARASHIMO GUN HAKONE MACHI","town":"YUMOTO","perfecture_jp":"神奈川県","jp_add_1":"足柄下郡箱根町","jp_add_2":"湯本"},"2500312":{"post_code":"2500312","prefecture":"KANAGAWA KEN","city":"ASHIGARASHIMO GUN HAKONE MACHI","town":"YUMOTOCHAYA","perfecture_jp":"神奈川県","jp_add_1":"足柄下郡箱根町","jp_add_2":"湯本茶屋"}}