{"2520100":{"post_code":"2520100","prefecture":"KANAGAWA KEN","city":"SAGAMIHARA SHI MIDORI KU","town":"IKANIKEISAIGANAIBAAI","perfecture_jp":"神奈川県","jp_add_1":"相模原市緑区","jp_add_2":""},"2520141":{"post_code":"2520141","prefecture":"KANAGAWA KEN","city":"SAGAMIHARA SHI MIDORI KU","town":"AIHARA","perfecture_jp":"神奈川県","jp_add_1":"相模原市緑区","jp_add_2":"相原"},"2520162":{"post_code":"2520162","prefecture":"KANAGAWA KEN","city":"SAGAMIHARA SHI MIDORI KU","town":"AONE","perfecture_jp":"神奈川県","jp_add_1":"相模原市緑区","jp_add_2":"青根"},"2520161":{"post_code":"2520161","prefecture":"KANAGAWA KEN","city":"SAGAMIHARA SHI MIDORI KU","town":"AONOHARA","perfecture_jp":"神奈川県","jp_add_1":"相模原市緑区","jp_add_2":"青野原"},"2520156":{"post_code":"2520156","prefecture":"KANAGAWA KEN","city":"SAGAMIHARA SHI MIDORI KU","town":"AOYAMA","perfecture_jp":"神奈川県","jp_add_1":"相模原市緑区","jp_add_2":"青山"},"2520152":{"post_code":"2520152","prefecture":"KANAGAWA KEN","city":"SAGAMIHARA SHI MIDORI KU","town":"OI","perfecture_jp":"神奈川県","jp_add_1":"相模原市緑区","jp_add_2":"太井"},"2520135":{"post_code":"2520135","prefecture":"KANAGAWA KEN","city":"SAGAMIHARA SHI MIDORI KU","town":"OSHIMA","perfecture_jp":"神奈川県","jp_add_1":"相模原市緑区","jp_add_2":"大島"},"2520146":{"post_code":"2520146","prefecture":"KANAGAWA KEN","city":"SAGAMIHARA SHI MIDORI KU","town":"OYAMACHO","perfecture_jp":"神奈川県","jp_add_1":"相模原市緑区","jp_add_2":"大山町"},"2520115":{"post_code":"2520115","prefecture":"KANAGAWA KEN","city":"SAGAMIHARA SHI MIDORI KU","town":"OGURA","perfecture_jp":"神奈川県","jp_add_1":"相模原市緑区","jp_add_2":"小倉"},"2520173":{"post_code":"2520173","prefecture":"KANAGAWA KEN","city":"SAGAMIHARA SHI MIDORI KU","town":"OBARA","perfecture_jp":"神奈川県","jp_add_1":"相模原市緑区","jp_add_2":"小原"},"2520184":{"post_code":"2520184","prefecture":"KANAGAWA KEN","city":"SAGAMIHARA SHI MIDORI KU","town":"OBUCHI","perfecture_jp":"神奈川県","jp_add_1":"相模原市緑区","jp_add_2":"小渕"},"2520136":{"post_code":"2520136","prefecture":"KANAGAWA KEN","city":"SAGAMIHARA SHI MIDORI KU","town":"KAMIKUZAWA","perfecture_jp":"神奈川県","jp_add_1":"相模原市緑区","jp_add_2":"上九沢"},"2520111":{"post_code":"2520111","prefecture":"KANAGAWA KEN","city":"SAGAMIHARA SHI MIDORI KU","town":"KAWASHIRI","perfecture_jp":"神奈川県","jp_add_1":"相模原市緑区","jp_add_2":"川尻"},"2520105":{"post_code":"2520105","prefecture":"KANAGAWA KEN","city":"SAGAMIHARA SHI MIDORI KU","town":"KUBOSAWA","perfecture_jp":"神奈川県","jp_add_1":"相模原市緑区","jp_add_2":"久保沢"},"2520181":{"post_code":"2520181","prefecture":"KANAGAWA KEN","city":"SAGAMIHARA SHI MIDORI KU","town":"SANOGAWA","perfecture_jp":"神奈川県","jp_add_1":"相模原市緑区","jp_add_2":"佐野川"},"2520182":{"post_code":"2520182","prefecture":"KANAGAWA KEN","city":"SAGAMIHARA SHI MIDORI KU","town":"SAWAI","perfecture_jp":"神奈川県","jp_add_1":"相模原市緑区","jp_add_2":"澤井"},"2520134":{"post_code":"2520134","prefecture":"KANAGAWA KEN","city":"SAGAMIHARA SHI MIDORI KU","town":"SHIMOKUZAWA","perfecture_jp":"神奈川県","jp_add_1":"相模原市緑区","jp_add_2":"下九沢"},"2520116":{"post_code":"2520116","prefecture":"KANAGAWA KEN","city":"SAGAMIHARA SHI MIDORI KU","town":"SHIROYAMA","perfecture_jp":"神奈川県","jp_add_1":"相模原市緑区","jp_add_2":"城山"},"2520188":{"post_code":"2520188","prefecture":"KANAGAWA KEN","city":"SAGAMIHARA SHI MIDORI KU","town":"SUWARASHI(SHINDO)","perfecture_jp":"神奈川県","jp_add_1":"相模原市緑区","jp_add_2":"寸沢嵐"},"2520176":{"post_code":"2520176","prefecture":"KANAGAWA KEN","city":"SAGAMIHARA SHI MIDORI KU","town":"SUWARASHI(SONOTA)","perfecture_jp":"神奈川県","jp_add_1":"相模原市緑区","jp_add_2":"寸沢嵐"},"2520124":{"post_code":"2520124","prefecture":"KANAGAWA KEN","city":"SAGAMIHARA SHI MIDORI KU","town":"TANA","perfecture_jp":"神奈川県","jp_add_1":"相模原市緑区","jp_add_2":"田名"},"2520113":{"post_code":"2520113","prefecture":"KANAGAWA KEN","city":"SAGAMIHARA SHI MIDORI KU","town":"TANIGAHARA","perfecture_jp":"神奈川県","jp_add_1":"相模原市緑区","jp_add_2":"谷ヶ原"},"2520174":{"post_code":"2520174","prefecture":"KANAGAWA KEN","city":"SAGAMIHARA SHI MIDORI KU","town":"CHIGIRA","perfecture_jp":"神奈川県","jp_add_1":"相模原市緑区","jp_add_2":"千木良"},"2520155":{"post_code":"2520155","prefecture":"KANAGAWA KEN","city":"SAGAMIHARA SHI MIDORI KU","town":"TOYA","perfecture_jp":"神奈川県","jp_add_1":"相模原市緑区","jp_add_2":"鳥屋"},"2520117":{"post_code":"2520117","prefecture":"KANAGAWA KEN","city":"SAGAMIHARA SHI MIDORI KU","town":"NAKAZAWA","perfecture_jp":"神奈川県","jp_add_1":"相模原市緑区","jp_add_2":"中沢"},"2520154":{"post_code":"2520154","prefecture":"KANAGAWA KEN","city":"SAGAMIHARA SHI MIDORI KU","town":"NAGATAKE","perfecture_jp":"神奈川県","jp_add_1":"相模原市緑区","jp_add_2":"長竹"},"2520157":{"post_code":"2520157","prefecture":"KANAGAWA KEN","city":"SAGAMIHARA SHI MIDORI KU","town":"NAKANO","perfecture_jp":"神奈川県","jp_add_1":"相模原市緑区","jp_add_2":"中野"},"2520187":{"post_code":"2520187","prefecture":"KANAGAWA KEN","city":"SAGAMIHARA SHI MIDORI KU","town":"NAGURA","perfecture_jp":"神奈川県","jp_add_1":"相模原市緑区","jp_add_2":"名倉"},"2520131":{"post_code":"2520131","prefecture":"KANAGAWA KEN","city":"SAGAMIHARA SHI MIDORI KU","town":"NISHIHASHIMOTO","perfecture_jp":"神奈川県","jp_add_1":"相模原市緑区","jp_add_2":"西橋本"},"2520137":{"post_code":"2520137","prefecture":"KANAGAWA KEN","city":"SAGAMIHARA SHI MIDORI KU","town":"NIHOMMATSU","perfecture_jp":"神奈川県","jp_add_1":"相模原市緑区","jp_add_2":"二本松"},"2520153":{"post_code":"2520153","prefecture":"KANAGAWA KEN","city":"SAGAMIHARA SHI MIDORI KU","town":"NEGOYA","perfecture_jp":"神奈川県","jp_add_1":"相模原市緑区","jp_add_2":"根小屋"},"2520143":{"post_code":"2520143","prefecture":"KANAGAWA KEN","city":"SAGAMIHARA SHI MIDORI KU","town":"HASHIMOTO","perfecture_jp":"神奈川県","jp_add_1":"相模原市緑区","jp_add_2":"橋本"},"2520132":{"post_code":"2520132","prefecture":"KANAGAWA KEN","city":"SAGAMIHARA SHI MIDORI KU","town":"HASHIMOTODAI","perfecture_jp":"神奈川県","jp_add_1":"相模原市緑区","jp_add_2":"橋本台"},"2520114":{"post_code":"2520114","prefecture":"KANAGAWA KEN","city":"SAGAMIHARA SHI MIDORI KU","town":"HAYAMAJIMA","perfecture_jp":"神奈川県","jp_add_1":"相模原市緑区","jp_add_2":"葉山島"},"2520102":{"post_code":"2520102","prefecture":"KANAGAWA KEN","city":"SAGAMIHARA SHI MIDORI KU","town":"HARAJUKU","perfecture_jp":"神奈川県","jp_add_1":"相模原市緑区","jp_add_2":"原宿"},"2520103":{"post_code":"2520103","prefecture":"KANAGAWA KEN","city":"SAGAMIHARA SHI MIDORI KU","town":"HARAJUKUMINAMI","perfecture_jp":"神奈川県","jp_add_1":"相模原市緑区","jp_add_2":"原宿南"},"2520144":{"post_code":"2520144","prefecture":"KANAGAWA KEN","city":"SAGAMIHARA SHI MIDORI KU","town":"HIGASHIHASHIMOTO","perfecture_jp":"神奈川県","jp_add_1":"相模原市緑区","jp_add_2":"東橋本"},"2520185":{"post_code":"2520185","prefecture":"KANAGAWA KEN","city":"SAGAMIHARA SHI MIDORI KU","town":"HIZURE","perfecture_jp":"神奈川県","jp_add_1":"相模原市緑区","jp_add_2":"日連"},"2520106":{"post_code":"2520106","prefecture":"KANAGAWA KEN","city":"SAGAMIHARA SHI MIDORI KU","town":"HIROTA","perfecture_jp":"神奈川県","jp_add_1":"相模原市緑区","jp_add_2":"広田"},"2520186":{"post_code":"2520186","prefecture":"KANAGAWA KEN","city":"SAGAMIHARA SHI MIDORI KU","town":"MAGINO","perfecture_jp":"神奈川県","jp_add_1":"相模原市緑区","jp_add_2":"牧野"},"2520158":{"post_code":"2520158","prefecture":"KANAGAWA KEN","city":"SAGAMIHARA SHI MIDORI KU","town":"MATANO","perfecture_jp":"神奈川県","jp_add_1":"相模原市緑区","jp_add_2":"又野"},"2520101":{"post_code":"2520101","prefecture":"KANAGAWA KEN","city":"SAGAMIHARA SHI MIDORI KU","town":"MACHIYA","perfecture_jp":"神奈川県","jp_add_1":"相模原市緑区","jp_add_2":"町屋"},"2520151":{"post_code":"2520151","prefecture":"KANAGAWA KEN","city":"SAGAMIHARA SHI MIDORI KU","town":"MII","perfecture_jp":"神奈川県","jp_add_1":"相模原市緑区","jp_add_2":"三井"},"2520159":{"post_code":"2520159","prefecture":"KANAGAWA KEN","city":"SAGAMIHARA SHI MIDORI KU","town":"MIKAGE","perfecture_jp":"神奈川県","jp_add_1":"相模原市緑区","jp_add_2":"三ケ木"},"2520104":{"post_code":"2520104","prefecture":"KANAGAWA KEN","city":"SAGAMIHARA SHI MIDORI KU","town":"MUKAIHARA","perfecture_jp":"神奈川県","jp_add_1":"相模原市緑区","jp_add_2":"向原"},"2520142":{"post_code":"2520142","prefecture":"KANAGAWA KEN","city":"SAGAMIHARA SHI MIDORI KU","town":"MOTOHASHIMOTOCHO","perfecture_jp":"神奈川県","jp_add_1":"相模原市緑区","jp_add_2":"元橋本町"},"2520183":{"post_code":"2520183","prefecture":"KANAGAWA KEN","city":"SAGAMIHARA SHI MIDORI KU","town":"YOSHINO","perfecture_jp":"神奈川県","jp_add_1":"相模原市緑区","jp_add_2":"吉野"},"2520171":{"post_code":"2520171","prefecture":"KANAGAWA KEN","city":"SAGAMIHARA SHI MIDORI KU","town":"YOSE","perfecture_jp":"神奈川県","jp_add_1":"相模原市緑区","jp_add_2":"与瀬"},"2520172":{"post_code":"2520172","prefecture":"KANAGAWA KEN","city":"SAGAMIHARA SHI MIDORI KU","town":"YOSEHONCHO","perfecture_jp":"神奈川県","jp_add_1":"相模原市緑区","jp_add_2":"与瀬本町"},"2520112":{"post_code":"2520112","prefecture":"KANAGAWA KEN","city":"SAGAMIHARA SHI MIDORI KU","town":"WAKABADAI","perfecture_jp":"神奈川県","jp_add_1":"相模原市緑区","jp_add_2":"若葉台"},"2520175":{"post_code":"2520175","prefecture":"KANAGAWA KEN","city":"SAGAMIHARA SHI MIDORI KU","town":"WAKAYANAGI","perfecture_jp":"神奈川県","jp_add_1":"相模原市緑区","jp_add_2":"若柳"},"2520200":{"post_code":"2520200","prefecture":"KANAGAWA KEN","city":"SAGAMIHARA SHI CHUO KU","town":"IKANIKEISAIGANAIBAAI","perfecture_jp":"神奈川県","jp_add_1":"相模原市中央区","jp_add_2":""},"2520235":{"post_code":"2520235","prefecture":"KANAGAWA KEN","city":"SAGAMIHARA SHI CHUO KU","town":"AIOI","perfecture_jp":"神奈川県","jp_add_1":"相模原市中央区","jp_add_2":"相生"},"2520224":{"post_code":"2520224","prefecture":"KANAGAWA KEN","city":"SAGAMIHARA SHI CHUO KU","town":"AOBA","perfecture_jp":"神奈川県","jp_add_1":"相模原市中央区","jp_add_2":"青葉"},"2520251":{"post_code":"2520251","prefecture":"KANAGAWA KEN","city":"SAGAMIHARA SHI CHUO KU","town":"ONODAI","perfecture_jp":"神奈川県","jp_add_1":"相模原市中央区","jp_add_2":"大野台"},"2520205":{"post_code":"2520205","prefecture":"KANAGAWA KEN","city":"SAGAMIHARA SHI CHUO KU","town":"OYAMA","perfecture_jp":"神奈川県","jp_add_1":"相模原市中央区","jp_add_2":"小山"},"2520233":{"post_code":"2520233","prefecture":"KANAGAWA KEN","city":"SAGAMIHARA SHI CHUO KU","town":"KANUMADAI","perfecture_jp":"神奈川県","jp_add_1":"相模原市中央区","jp_add_2":"鹿沼台"},"2520243":{"post_code":"2520243","prefecture":"KANAGAWA KEN","city":"SAGAMIHARA SHI CHUO KU","town":"KAMIMIZO","perfecture_jp":"神奈川県","jp_add_1":"相模原市中央区","jp_add_2":"上溝"},"2520201":{"post_code":"2520201","prefecture":"KANAGAWA KEN","city":"SAGAMIHARA SHI CHUO KU","town":"KAMIYABE","perfecture_jp":"神奈川県","jp_add_1":"相模原市中央区","jp_add_2":"上矢部"},"2520234":{"post_code":"2520234","prefecture":"KANAGAWA KEN","city":"SAGAMIHARA SHI CHUO KU","town":"KYOWA","perfecture_jp":"神奈川県","jp_add_1":"相模原市中央区","jp_add_2":"共和"},"2520214":{"post_code":"2520214","prefecture":"KANAGAWA KEN","city":"SAGAMIHARA SHI CHUO KU","town":"KOYOCHO","perfecture_jp":"神奈川県","jp_add_1":"相模原市中央区","jp_add_2":"向陽町"},"2520217":{"post_code":"2520217","prefecture":"KANAGAWA KEN","city":"SAGAMIHARA SHI CHUO KU","town":"KOMACHIDORI","perfecture_jp":"神奈川県","jp_add_1":"相模原市中央区","jp_add_2":"小町通"},"2520231":{"post_code":"2520231","prefecture":"KANAGAWA KEN","city":"SAGAMIHARA SHI CHUO KU","town":"SAGAMIHARA","perfecture_jp":"神奈川県","jp_add_1":"相模原市中央区","jp_add_2":"相模原"},"2520254":{"post_code":"2520254","prefecture":"KANAGAWA KEN","city":"SAGAMIHARA SHI CHUO KU","town":"SHIMOKUZAWA","perfecture_jp":"神奈川県","jp_add_1":"相模原市中央区","jp_add_2":"下九沢"},"2520246":{"post_code":"2520246","prefecture":"KANAGAWA KEN","city":"SAGAMIHARA SHI CHUO KU","town":"SUIGOTANA","perfecture_jp":"神奈川県","jp_add_1":"相模原市中央区","jp_add_2":"水郷田名"},"2520213":{"post_code":"2520213","prefecture":"KANAGAWA KEN","city":"SAGAMIHARA SHI CHUO KU","town":"SUSUKINOCHO","perfecture_jp":"神奈川県","jp_add_1":"相模原市中央区","jp_add_2":"すすきの町"},"2520216":{"post_code":"2520216","prefecture":"KANAGAWA KEN","city":"SAGAMIHARA SHI CHUO KU","town":"SEISHIN","perfecture_jp":"神奈川県","jp_add_1":"相模原市中央区","jp_add_2":"清新"},"2520221":{"post_code":"2520221","prefecture":"KANAGAWA KEN","city":"SAGAMIHARA SHI CHUO KU","town":"TAKANE","perfecture_jp":"神奈川県","jp_add_1":"相模原市中央区","jp_add_2":"高根"},"2520244":{"post_code":"2520244","prefecture":"KANAGAWA KEN","city":"SAGAMIHARA SHI CHUO KU","town":"TANA","perfecture_jp":"神奈川県","jp_add_1":"相模原市中央区","jp_add_2":"田名"},"2520245":{"post_code":"2520245","prefecture":"KANAGAWA KEN","city":"SAGAMIHARA SHI CHUO KU","town":"TANASHIODA","perfecture_jp":"神奈川県","jp_add_1":"相模原市中央区","jp_add_2":"田名塩田"},"2520239":{"post_code":"2520239","prefecture":"KANAGAWA KEN","city":"SAGAMIHARA SHI CHUO KU","town":"CHUO","perfecture_jp":"神奈川県","jp_add_1":"相模原市中央区","jp_add_2":"中央"},"2520237":{"post_code":"2520237","prefecture":"KANAGAWA KEN","city":"SAGAMIHARA SHI CHUO KU","town":"CHIYODA","perfecture_jp":"神奈川県","jp_add_1":"相模原市中央区","jp_add_2":"千代田"},"2520228":{"post_code":"2520228","prefecture":"KANAGAWA KEN","city":"SAGAMIHARA SHI CHUO KU","town":"NAMIKI","perfecture_jp":"神奈川県","jp_add_1":"相模原市中央区","jp_add_2":"並木"},"2520203":{"post_code":"2520203","prefecture":"KANAGAWA KEN","city":"SAGAMIHARA SHI CHUO KU","town":"HIGASHIFUCHINOBE","perfecture_jp":"神奈川県","jp_add_1":"相模原市中央区","jp_add_2":"東淵野辺"},"2520227":{"post_code":"2520227","prefecture":"KANAGAWA KEN","city":"SAGAMIHARA SHI CHUO KU","town":"HIKARIGAOKA","perfecture_jp":"神奈川県","jp_add_1":"相模原市中央区","jp_add_2":"光が丘"},"2520215":{"post_code":"2520215","prefecture":"KANAGAWA KEN","city":"SAGAMIHARA SHI CHUO KU","town":"HIKAWACHO","perfecture_jp":"神奈川県","jp_add_1":"相模原市中央区","jp_add_2":"氷川町"},"2520236":{"post_code":"2520236","prefecture":"KANAGAWA KEN","city":"SAGAMIHARA SHI CHUO KU","town":"FUJIMI","perfecture_jp":"神奈川県","jp_add_1":"相模原市中央区","jp_add_2":"富士見"},"2520206":{"post_code":"2520206","prefecture":"KANAGAWA KEN","city":"SAGAMIHARA SHI CHUO KU","town":"FUCHINOBE","perfecture_jp":"神奈川県","jp_add_1":"相模原市中央区","jp_add_2":"淵野辺"},"2520202":{"post_code":"2520202","prefecture":"KANAGAWA KEN","city":"SAGAMIHARA SHI CHUO KU","town":"FUCHINOBEHONCHO","perfecture_jp":"神奈川県","jp_add_1":"相模原市中央区","jp_add_2":"淵野辺本町"},"2520238":{"post_code":"2520238","prefecture":"KANAGAWA KEN","city":"SAGAMIHARA SHI CHUO KU","town":"HOSHIGAOKA","perfecture_jp":"神奈川県","jp_add_1":"相模原市中央区","jp_add_2":"星が丘"},"2520223":{"post_code":"2520223","prefecture":"KANAGAWA KEN","city":"SAGAMIHARA SHI CHUO KU","town":"MATSUGAOKA","perfecture_jp":"神奈川県","jp_add_1":"相模原市中央区","jp_add_2":"松が丘"},"2520225":{"post_code":"2520225","prefecture":"KANAGAWA KEN","city":"SAGAMIHARA SHI CHUO KU","town":"MIDORIGAOKA","perfecture_jp":"神奈川県","jp_add_1":"相模原市中央区","jp_add_2":"緑が丘"},"2520253":{"post_code":"2520253","prefecture":"KANAGAWA KEN","city":"SAGAMIHARA SHI CHUO KU","town":"MINAMIHASHIMOTO","perfecture_jp":"神奈川県","jp_add_1":"相模原市中央区","jp_add_2":"南橋本"},"2520212":{"post_code":"2520212","prefecture":"KANAGAWA KEN","city":"SAGAMIHARA SHI CHUO KU","town":"MIYASHIMO","perfecture_jp":"神奈川県","jp_add_1":"相模原市中央区","jp_add_2":"宮下"},"2520211":{"post_code":"2520211","prefecture":"KANAGAWA KEN","city":"SAGAMIHARA SHI CHUO KU","town":"MIYASHIMOHONCHO","perfecture_jp":"神奈川県","jp_add_1":"相模原市中央区","jp_add_2":"宮下本町"},"2520229":{"post_code":"2520229","prefecture":"KANAGAWA KEN","city":"SAGAMIHARA SHI CHUO KU","town":"YAEI","perfecture_jp":"神奈川県","jp_add_1":"相模原市中央区","jp_add_2":"弥栄"},"2520232":{"post_code":"2520232","prefecture":"KANAGAWA KEN","city":"SAGAMIHARA SHI CHUO KU","town":"YABE","perfecture_jp":"神奈川県","jp_add_1":"相模原市中央区","jp_add_2":"矢部"},"2520207":{"post_code":"2520207","prefecture":"KANAGAWA KEN","city":"SAGAMIHARA SHI CHUO KU","town":"YABESHINCHO","perfecture_jp":"神奈川県","jp_add_1":"相模原市中央区","jp_add_2":"矢部新町"},"2520208":{"post_code":"2520208","prefecture":"KANAGAWA KEN","city":"SAGAMIHARA SHI CHUO KU","town":"YABESHINDEN","perfecture_jp":"神奈川県","jp_add_1":"相模原市中央区","jp_add_2":"矢部新田"},"2520226":{"post_code":"2520226","prefecture":"KANAGAWA KEN","city":"SAGAMIHARA SHI CHUO KU","town":"YOKODAI","perfecture_jp":"神奈川県","jp_add_1":"相模原市中央区","jp_add_2":"陽光台"},"2520242":{"post_code":"2520242","prefecture":"KANAGAWA KEN","city":"SAGAMIHARA SHI CHUO KU","town":"YOKOYAMA","perfecture_jp":"神奈川県","jp_add_1":"相模原市中央区","jp_add_2":"横山"},"2520241":{"post_code":"2520241","prefecture":"KANAGAWA KEN","city":"SAGAMIHARA SHI CHUO KU","town":"YOKOYAMADAI","perfecture_jp":"神奈川県","jp_add_1":"相模原市中央区","jp_add_2":"横山台"},"2520222":{"post_code":"2520222","prefecture":"KANAGAWA KEN","city":"SAGAMIHARA SHI CHUO KU","town":"YOSHINODAI","perfecture_jp":"神奈川県","jp_add_1":"相模原市中央区","jp_add_2":"由野台"},"2520300":{"post_code":"2520300","prefecture":"KANAGAWA KEN","city":"SAGAMIHARA SHI MINAMI KU","town":"IKANIKEISAIGANAIBAAI","perfecture_jp":"神奈川県","jp_add_1":"相模原市南区","jp_add_2":""},"2520304":{"post_code":"2520304","prefecture":"KANAGAWA KEN","city":"SAGAMIHARA SHI MINAMI KU","town":"ASAHICHO","perfecture_jp":"神奈川県","jp_add_1":"相模原市南区","jp_add_2":"旭町"},"2520328":{"post_code":"2520328","prefecture":"KANAGAWA KEN","city":"SAGAMIHARA SHI MINAMI KU","town":"ASAMIZODAI","perfecture_jp":"神奈川県","jp_add_1":"相模原市南区","jp_add_2":"麻溝台"},"2520325":{"post_code":"2520325","prefecture":"KANAGAWA KEN","city":"SAGAMIHARA SHI MINAMI KU","town":"ARAISONO","perfecture_jp":"神奈川県","jp_add_1":"相模原市南区","jp_add_2":"新磯野"},"2520327":{"post_code":"2520327","prefecture":"KANAGAWA KEN","city":"SAGAMIHARA SHI MINAMI KU","town":"ISOBE","perfecture_jp":"神奈川県","jp_add_1":"相模原市南区","jp_add_2":"磯部"},"2520301":{"post_code":"2520301","prefecture":"KANAGAWA KEN","city":"SAGAMIHARA SHI MINAMI KU","town":"UNOMORI","perfecture_jp":"神奈川県","jp_add_1":"相模原市南区","jp_add_2":"鵜野森"},"2520331":{"post_code":"2520331","prefecture":"KANAGAWA KEN","city":"SAGAMIHARA SHI MINAMI KU","town":"ONODAI","perfecture_jp":"神奈川県","jp_add_1":"相模原市南区","jp_add_2":"大野台"},"2520302":{"post_code":"2520302","prefecture":"KANAGAWA KEN","city":"SAGAMIHARA SHI MINAMI KU","town":"KAMITSURUMA","perfecture_jp":"神奈川県","jp_add_1":"相模原市南区","jp_add_2":"上鶴間"},"2520318":{"post_code":"2520318","prefecture":"KANAGAWA KEN","city":"SAGAMIHARA SHI MINAMI KU","town":"KAMITSURUMAHONCHO","perfecture_jp":"神奈川県","jp_add_1":"相模原市南区","jp_add_2":"上鶴間本町"},"2520329":{"post_code":"2520329","prefecture":"KANAGAWA KEN","city":"SAGAMIHARA SHI MINAMI KU","town":"KITAZATO","perfecture_jp":"神奈川県","jp_add_1":"相模原市南区","jp_add_2":"北里"},"2520344":{"post_code":"2520344","prefecture":"KANAGAWA KEN","city":"SAGAMIHARA SHI MINAMI KU","town":"KOBUCHI","perfecture_jp":"神奈川県","jp_add_1":"相模原市南区","jp_add_2":"古淵"},"2520306":{"post_code":"2520306","prefecture":"KANAGAWA KEN","city":"SAGAMIHARA SHI MINAMI KU","town":"SAKAECHO","perfecture_jp":"神奈川県","jp_add_1":"相模原市南区","jp_add_2":"栄町"},"2520303":{"post_code":"2520303","prefecture":"KANAGAWA KEN","city":"SAGAMIHARA SHI MINAMI KU","town":"SAGAMIONO","perfecture_jp":"神奈川県","jp_add_1":"相模原市南区","jp_add_2":"相模大野"},"2520321":{"post_code":"2520321","prefecture":"KANAGAWA KEN","city":"SAGAMIHARA SHI MINAMI KU","town":"SAGAMIDAI","perfecture_jp":"神奈川県","jp_add_1":"相模原市南区","jp_add_2":"相模台"},"2520322":{"post_code":"2520322","prefecture":"KANAGAWA KEN","city":"SAGAMIHARA SHI MINAMI KU","town":"SAGAMIDAIDANCHI","perfecture_jp":"神奈川県","jp_add_1":"相模原市南区","jp_add_2":"相模台団地"},"2520315":{"post_code":"2520315","prefecture":"KANAGAWA KEN","city":"SAGAMIHARA SHI MINAMI KU","town":"SAKURADAI","perfecture_jp":"神奈川県","jp_add_1":"相模原市南区","jp_add_2":"桜台"},"2520335":{"post_code":"2520335","prefecture":"KANAGAWA KEN","city":"SAGAMIHARA SHI MINAMI KU","town":"SHIMOMIZO","perfecture_jp":"神奈川県","jp_add_1":"相模原市南区","jp_add_2":"下溝"},"2520326":{"post_code":"2520326","prefecture":"KANAGAWA KEN","city":"SAGAMIHARA SHI MINAMI KU","town":"SHINDO","perfecture_jp":"神奈川県","jp_add_1":"相模原市南区","jp_add_2":"新戸"},"2520312":{"post_code":"2520312","prefecture":"KANAGAWA KEN","city":"SAGAMIHARA SHI MINAMI KU","town":"SONAN","perfecture_jp":"神奈川県","jp_add_1":"相模原市南区","jp_add_2":"相南"},"2520324":{"post_code":"2520324","prefecture":"KANAGAWA KEN","city":"SAGAMIHARA SHI MINAMI KU","town":"SOBUDAI","perfecture_jp":"神奈川県","jp_add_1":"相模原市南区","jp_add_2":"相武台"},"2520323":{"post_code":"2520323","prefecture":"KANAGAWA KEN","city":"SAGAMIHARA SHI MINAMI KU","town":"SOBUDAIDANCHI","perfecture_jp":"神奈川県","jp_add_1":"相模原市南区","jp_add_2":"相武台団地"},"2520336":{"post_code":"2520336","prefecture":"KANAGAWA KEN","city":"SAGAMIHARA SHI MINAMI KU","town":"TAIMA","perfecture_jp":"神奈川県","jp_add_1":"相模原市南区","jp_add_2":"当麻"},"2520332":{"post_code":"2520332","prefecture":"KANAGAWA KEN","city":"SAGAMIHARA SHI MINAMI KU","town":"NISHIONUMA","perfecture_jp":"神奈川県","jp_add_1":"相模原市南区","jp_add_2":"西大沼"},"2520333":{"post_code":"2520333","prefecture":"KANAGAWA KEN","city":"SAGAMIHARA SHI MINAMI KU","town":"HIGASHIONUMA","perfecture_jp":"神奈川県","jp_add_1":"相模原市南区","jp_add_2":"東大沼"},"2520311":{"post_code":"2520311","prefecture":"KANAGAWA KEN","city":"SAGAMIHARA SHI MINAMI KU","town":"HIGASHIRINKAN","perfecture_jp":"神奈川県","jp_add_1":"相模原市南区","jp_add_2":"東林間"},"2520316":{"post_code":"2520316","prefecture":"KANAGAWA KEN","city":"SAGAMIHARA SHI MINAMI KU","town":"FUTABA","perfecture_jp":"神奈川県","jp_add_1":"相模原市南区","jp_add_2":"双葉"},"2520307":{"post_code":"2520307","prefecture":"KANAGAWA KEN","city":"SAGAMIHARA SHI MINAMI KU","town":"BUNKYO","perfecture_jp":"神奈川県","jp_add_1":"相模原市南区","jp_add_2":"文京"},"2520313":{"post_code":"2520313","prefecture":"KANAGAWA KEN","city":"SAGAMIHARA SHI MINAMI KU","town":"MATSUGAECHO","perfecture_jp":"神奈川県","jp_add_1":"相模原市南区","jp_add_2":"松が枝町"},"2520317":{"post_code":"2520317","prefecture":"KANAGAWA KEN","city":"SAGAMIHARA SHI MINAMI KU","town":"MISONO","perfecture_jp":"神奈川県","jp_add_1":"相模原市南区","jp_add_2":"御園"},"2520314":{"post_code":"2520314","prefecture":"KANAGAWA KEN","city":"SAGAMIHARA SHI MINAMI KU","town":"MINAMIDAI","perfecture_jp":"神奈川県","jp_add_1":"相模原市南区","jp_add_2":"南台"},"2520305":{"post_code":"2520305","prefecture":"KANAGAWA KEN","city":"SAGAMIHARA SHI MINAMI KU","town":"YUTAKACHO","perfecture_jp":"神奈川県","jp_add_1":"相模原市南区","jp_add_2":"豊町"},"2520334":{"post_code":"2520334","prefecture":"KANAGAWA KEN","city":"SAGAMIHARA SHI MINAMI KU","town":"WAKAMATSU","perfecture_jp":"神奈川県","jp_add_1":"相模原市南区","jp_add_2":"若松"},"2520815":{"post_code":"2520815","prefecture":"KANAGAWA KEN","city":"FUJISAWA SHI","town":"ISHIKAWA","perfecture_jp":"神奈川県","jp_add_1":"藤沢市","jp_add_2":"石川"},"2520803":{"post_code":"2520803","prefecture":"KANAGAWA KEN","city":"FUJISAWA SHI","town":"IMADA","perfecture_jp":"神奈川県","jp_add_1":"藤沢市","jp_add_2":"今田"},"2520824":{"post_code":"2520824","prefecture":"KANAGAWA KEN","city":"FUJISAWA SHI","town":"UCHIMODORI","perfecture_jp":"神奈川県","jp_add_1":"藤沢市","jp_add_2":"打戻"},"2520805":{"post_code":"2520805","prefecture":"KANAGAWA KEN","city":"FUJISAWA SHI","town":"ENGYO","perfecture_jp":"神奈川県","jp_add_1":"藤沢市","jp_add_2":"円行"},"2520816":{"post_code":"2520816","prefecture":"KANAGAWA KEN","city":"FUJISAWA SHI","town":"ENDO","perfecture_jp":"神奈川県","jp_add_1":"藤沢市","jp_add_2":"遠藤"},"2520825":{"post_code":"2520825","prefecture":"KANAGAWA KEN","city":"FUJISAWA SHI","town":"OSOGO","perfecture_jp":"神奈川県","jp_add_1":"藤沢市","jp_add_2":"獺郷"},"2520813":{"post_code":"2520813","prefecture":"KANAGAWA KEN","city":"FUJISAWA SHI","town":"KAMEINO","perfecture_jp":"神奈川県","jp_add_1":"藤沢市","jp_add_2":"亀井野"},"2520811":{"post_code":"2520811","prefecture":"KANAGAWA KEN","city":"FUJISAWA SHI","town":"KIRIHARACHO","perfecture_jp":"神奈川県","jp_add_1":"藤沢市","jp_add_2":"桐原町"},"2520822":{"post_code":"2520822","prefecture":"KANAGAWA KEN","city":"FUJISAWA SHI","town":"KUZUHARA","perfecture_jp":"神奈川県","jp_add_1":"藤沢市","jp_add_2":"葛原"},"2520807":{"post_code":"2520807","prefecture":"KANAGAWA KEN","city":"FUJISAWA SHI","town":"SHIMOTSUCHIDANA","perfecture_jp":"神奈川県","jp_add_1":"藤沢市","jp_add_2":"下土棚"},"2520804":{"post_code":"2520804","prefecture":"KANAGAWA KEN","city":"FUJISAWA SHI","town":"SHONANDAI","perfecture_jp":"神奈川県","jp_add_1":"藤沢市","jp_add_2":"湘南台"},"2520823":{"post_code":"2520823","prefecture":"KANAGAWA KEN","city":"FUJISAWA SHI","town":"SHOBUSAWA","perfecture_jp":"神奈川県","jp_add_1":"藤沢市","jp_add_2":"菖蒲沢"},"2520802":{"post_code":"2520802","prefecture":"KANAGAWA KEN","city":"FUJISAWA SHI","town":"TAKAKURA","perfecture_jp":"神奈川県","jp_add_1":"藤沢市","jp_add_2":"高倉"},"2520801":{"post_code":"2520801","prefecture":"KANAGAWA KEN","city":"FUJISAWA SHI","town":"CHOGO","perfecture_jp":"神奈川県","jp_add_1":"藤沢市","jp_add_2":"長後"},"2520806":{"post_code":"2520806","prefecture":"KANAGAWA KEN","city":"FUJISAWA SHI","town":"TSUCHIDANA","perfecture_jp":"神奈川県","jp_add_1":"藤沢市","jp_add_2":"土棚"},"2520814":{"post_code":"2520814","prefecture":"KANAGAWA KEN","city":"FUJISAWA SHI","town":"TENJINCHO","perfecture_jp":"神奈川県","jp_add_1":"藤沢市","jp_add_2":"天神町"},"2520812":{"post_code":"2520812","prefecture":"KANAGAWA KEN","city":"FUJISAWA SHI","town":"NISHIMATANO","perfecture_jp":"神奈川県","jp_add_1":"藤沢市","jp_add_2":"西俣野"},"2520826":{"post_code":"2520826","prefecture":"KANAGAWA KEN","city":"FUJISAWA SHI","town":"MIYABARA","perfecture_jp":"神奈川県","jp_add_1":"藤沢市","jp_add_2":"宮原"},"2520821":{"post_code":"2520821","prefecture":"KANAGAWA KEN","city":"FUJISAWA SHI","town":"YODA","perfecture_jp":"神奈川県","jp_add_1":"藤沢市","jp_add_2":"用田"},"2520000":{"post_code":"2520000","prefecture":"KANAGAWA KEN","city":"ZAMA SHI","town":"IKANIKEISAIGANAIBAAI","perfecture_jp":"神奈川県","jp_add_1":"座間市","jp_add_2":""},"2520024":{"post_code":"2520024","prefecture":"KANAGAWA KEN","city":"ZAMA SHI","town":"IRIYA","perfecture_jp":"神奈川県","jp_add_1":"座間市","jp_add_2":"入谷"},"2520013":{"post_code":"2520013","prefecture":"KANAGAWA KEN","city":"ZAMA SHI","town":"KURIHARA","perfecture_jp":"神奈川県","jp_add_1":"座間市","jp_add_2":"栗原"},"2520014":{"post_code":"2520014","prefecture":"KANAGAWA KEN","city":"ZAMA SHI","town":"KURIHARACHUO","perfecture_jp":"神奈川県","jp_add_1":"座間市","jp_add_2":"栗原中央"},"2520002":{"post_code":"2520002","prefecture":"KANAGAWA KEN","city":"ZAMA SHI","town":"KOMATSUBARA","perfecture_jp":"神奈川県","jp_add_1":"座間市","jp_add_2":"小松原"},"2520001":{"post_code":"2520001","prefecture":"KANAGAWA KEN","city":"ZAMA SHI","town":"SAGAMIGAOKA","perfecture_jp":"神奈川県","jp_add_1":"座間市","jp_add_2":"相模が丘"},"2520005":{"post_code":"2520005","prefecture":"KANAGAWA KEN","city":"ZAMA SHI","town":"SAGAMINO","perfecture_jp":"神奈川県","jp_add_1":"座間市","jp_add_2":"さがみ野"},"2520027":{"post_code":"2520027","prefecture":"KANAGAWA KEN","city":"ZAMA SHI","town":"ZAMA","perfecture_jp":"神奈川県","jp_add_1":"座間市","jp_add_2":"座間"},"2520026":{"post_code":"2520026","prefecture":"KANAGAWA KEN","city":"ZAMA SHI","town":"SHINDENJUKU","perfecture_jp":"神奈川県","jp_add_1":"座間市","jp_add_2":"新田宿"},"2520011":{"post_code":"2520011","prefecture":"KANAGAWA KEN","city":"ZAMA SHI","town":"SOBUDAI","perfecture_jp":"神奈川県","jp_add_1":"座間市","jp_add_2":"相武台"},"2520023":{"post_code":"2520023","prefecture":"KANAGAWA KEN","city":"ZAMA SHI","town":"TATSUNODAI","perfecture_jp":"神奈川県","jp_add_1":"座間市","jp_add_2":"立野台"},"2520016":{"post_code":"2520016","prefecture":"KANAGAWA KEN","city":"ZAMA SHI","town":"NISHIKURIHARA","perfecture_jp":"神奈川県","jp_add_1":"座間市","jp_add_2":"西栗原"},"2520004":{"post_code":"2520004","prefecture":"KANAGAWA KEN","city":"ZAMA SHI","town":"HIGASHIHARA","perfecture_jp":"神奈川県","jp_add_1":"座間市","jp_add_2":"東原"},"2520003":{"post_code":"2520003","prefecture":"KANAGAWA KEN","city":"ZAMA SHI","town":"HIBARIGAOKA","perfecture_jp":"神奈川県","jp_add_1":"座間市","jp_add_2":"ひばりが丘"},"2520012":{"post_code":"2520012","prefecture":"KANAGAWA KEN","city":"ZAMA SHI","town":"HIRONODAI","perfecture_jp":"神奈川県","jp_add_1":"座間市","jp_add_2":"広野台"},"2520021":{"post_code":"2520021","prefecture":"KANAGAWA KEN","city":"ZAMA SHI","town":"MIDORIGAOKA","perfecture_jp":"神奈川県","jp_add_1":"座間市","jp_add_2":"緑ケ丘"},"2520015":{"post_code":"2520015","prefecture":"KANAGAWA KEN","city":"ZAMA SHI","town":"MINAMIKURIHARA","perfecture_jp":"神奈川県","jp_add_1":"座間市","jp_add_2":"南栗原"},"2520022":{"post_code":"2520022","prefecture":"KANAGAWA KEN","city":"ZAMA SHI","town":"MYOO","perfecture_jp":"神奈川県","jp_add_1":"座間市","jp_add_2":"明王"},"2520025":{"post_code":"2520025","prefecture":"KANAGAWA KEN","city":"ZAMA SHI","town":"YOTSUYA","perfecture_jp":"神奈川県","jp_add_1":"座間市","jp_add_2":"四ツ谷"},"2521100":{"post_code":"2521100","prefecture":"KANAGAWA KEN","city":"AYASE SHI","town":"IKANIKEISAIGANAIBAAI","perfecture_jp":"神奈川県","jp_add_1":"綾瀬市","jp_add_2":""},"2521101":{"post_code":"2521101","prefecture":"KANAGAWA KEN","city":"AYASE SHI","town":"ATSUGIKOKUKICHI","perfecture_jp":"神奈川県","jp_add_1":"綾瀬市","jp_add_2":"厚木航空基地"},"2521104":{"post_code":"2521104","prefecture":"KANAGAWA KEN","city":"AYASE SHI","town":"OGAMI","perfecture_jp":"神奈川県","jp_add_1":"綾瀬市","jp_add_2":"大上"},"2521115":{"post_code":"2521115","prefecture":"KANAGAWA KEN","city":"AYASE SHI","town":"OCHIAI MINAMI","perfecture_jp":"神奈川県","jp_add_1":"綾瀬市","jp_add_2":"落合南"},"2521116":{"post_code":"2521116","prefecture":"KANAGAWA KEN","city":"AYASE SHI","town":"OCHIAI KITA","perfecture_jp":"神奈川県","jp_add_1":"綾瀬市","jp_add_2":"落合北"},"2521112":{"post_code":"2521112","prefecture":"KANAGAWA KEN","city":"AYASE SHI","town":"KAMITSUCHIDANA","perfecture_jp":"神奈川県","jp_add_1":"綾瀬市","jp_add_2":"上土棚"},"2521113":{"post_code":"2521113","prefecture":"KANAGAWA KEN","city":"AYASE SHI","town":"KAMITSUCHIDANA NAKA","perfecture_jp":"神奈川県","jp_add_1":"綾瀬市","jp_add_2":"上土棚中"},"2521114":{"post_code":"2521114","prefecture":"KANAGAWA KEN","city":"AYASE SHI","town":"KAMITSUCHIDANA MINAMI","perfecture_jp":"神奈川県","jp_add_1":"綾瀬市","jp_add_2":"上土棚南"},"2521111":{"post_code":"2521111","prefecture":"KANAGAWA KEN","city":"AYASE SHI","town":"KAMITSUCHIDANA KITA","perfecture_jp":"神奈川県","jp_add_1":"綾瀬市","jp_add_2":"上土棚北"},"2521121":{"post_code":"2521121","prefecture":"KANAGAWA KEN","city":"AYASE SHI","town":"KOZONO","perfecture_jp":"神奈川県","jp_add_1":"綾瀬市","jp_add_2":"小園"},"2521122":{"post_code":"2521122","prefecture":"KANAGAWA KEN","city":"AYASE SHI","town":"KOZONOMINAMI","perfecture_jp":"神奈川県","jp_add_1":"綾瀬市","jp_add_2":"小園南"},"2521105":{"post_code":"2521105","prefecture":"KANAGAWA KEN","city":"AYASE SHI","town":"TATEKAWA","perfecture_jp":"神奈川県","jp_add_1":"綾瀬市","jp_add_2":"蓼川"},"2521135":{"post_code":"2521135","prefecture":"KANAGAWA KEN","city":"AYASE SHI","town":"TERAO KAMATA","perfecture_jp":"神奈川県","jp_add_1":"綾瀬市","jp_add_2":"寺尾釜田"},"2521132":{"post_code":"2521132","prefecture":"KANAGAWA KEN","city":"AYASE SHI","town":"TERAO NAKA","perfecture_jp":"神奈川県","jp_add_1":"綾瀬市","jp_add_2":"寺尾中"},"2521136":{"post_code":"2521136","prefecture":"KANAGAWA KEN","city":"AYASE SHI","town":"TERAO NISHI","perfecture_jp":"神奈川県","jp_add_1":"綾瀬市","jp_add_2":"寺尾西"},"2521134":{"post_code":"2521134","prefecture":"KANAGAWA KEN","city":"AYASE SHI","town":"TERAO MINAMI","perfecture_jp":"神奈川県","jp_add_1":"綾瀬市","jp_add_2":"寺尾南"},"2521131":{"post_code":"2521131","prefecture":"KANAGAWA KEN","city":"AYASE SHI","town":"TERAO KITA","perfecture_jp":"神奈川県","jp_add_1":"綾瀬市","jp_add_2":"寺尾北"},"2521137":{"post_code":"2521137","prefecture":"KANAGAWA KEN","city":"AYASE SHI","town":"TERAODAI","perfecture_jp":"神奈川県","jp_add_1":"綾瀬市","jp_add_2":"寺尾台"},"2521133":{"post_code":"2521133","prefecture":"KANAGAWA KEN","city":"AYASE SHI","town":"TERAOHONCHO","perfecture_jp":"神奈川県","jp_add_1":"綾瀬市","jp_add_2":"寺尾本町"},"2521123":{"post_code":"2521123","prefecture":"KANAGAWA KEN","city":"AYASE SHI","town":"HAYAKAWA","perfecture_jp":"神奈川県","jp_add_1":"綾瀬市","jp_add_2":"早川"},"2521127":{"post_code":"2521127","prefecture":"KANAGAWA KEN","city":"AYASE SHI","town":"HAYAKAWASHIROYAMA","perfecture_jp":"神奈川県","jp_add_1":"綾瀬市","jp_add_2":"早川城山"},"2521103":{"post_code":"2521103","prefecture":"KANAGAWA KEN","city":"AYASE SHI","town":"FUKAYA","perfecture_jp":"神奈川県","jp_add_1":"綾瀬市","jp_add_2":"深谷"},"2521108":{"post_code":"2521108","prefecture":"KANAGAWA KEN","city":"AYASE SHI","town":"FUKAYA KAMI","perfecture_jp":"神奈川県","jp_add_1":"綾瀬市","jp_add_2":"深谷上"},"2521107":{"post_code":"2521107","prefecture":"KANAGAWA KEN","city":"AYASE SHI","town":"FUKAYA NAKA","perfecture_jp":"神奈川県","jp_add_1":"綾瀬市","jp_add_2":"深谷中"},"2521106":{"post_code":"2521106","prefecture":"KANAGAWA KEN","city":"AYASE SHI","town":"FUKAYA MINAMI","perfecture_jp":"神奈川県","jp_add_1":"綾瀬市","jp_add_2":"深谷南"},"2521102":{"post_code":"2521102","prefecture":"KANAGAWA KEN","city":"AYASE SHI","town":"HONTATEKAWA","perfecture_jp":"神奈川県","jp_add_1":"綾瀬市","jp_add_2":"本蓼川"},"2521124":{"post_code":"2521124","prefecture":"KANAGAWA KEN","city":"AYASE SHI","town":"YOSHIOKA","perfecture_jp":"神奈川県","jp_add_1":"綾瀬市","jp_add_2":"吉岡"},"2521125":{"post_code":"2521125","prefecture":"KANAGAWA KEN","city":"AYASE SHI","town":"YOSHIOKA HIGASHI","perfecture_jp":"神奈川県","jp_add_1":"綾瀬市","jp_add_2":"吉岡東"},"2521126":{"post_code":"2521126","prefecture":"KANAGAWA KEN","city":"AYASE SHI","town":"RYOSEI","perfecture_jp":"神奈川県","jp_add_1":"綾瀬市","jp_add_2":"綾西"}}