{"2530000":{"post_code":"2530000","prefecture":"KANAGAWA KEN","city":"CHIGASAKI SHI","town":"IKANIKEISAIGANAIBAAI","perfecture_jp":"神奈川県","jp_add_1":"茅ヶ崎市","jp_add_2":""},"2530001":{"post_code":"2530001","prefecture":"KANAGAWA KEN","city":"CHIGASAKI SHI","town":"AKABANE","perfecture_jp":"神奈川県","jp_add_1":"茅ヶ崎市","jp_add_2":"赤羽根"},"2530013":{"post_code":"2530013","prefecture":"KANAGAWA KEN","city":"CHIGASAKI SHI","town":"AKAMATSUCHO","perfecture_jp":"神奈川県","jp_add_1":"茅ヶ崎市","jp_add_2":"赤松町"},"2530026":{"post_code":"2530026","prefecture":"KANAGAWA KEN","city":"CHIGASAKI SHI","town":"ASAHIGAOKA","perfecture_jp":"神奈川県","jp_add_1":"茅ヶ崎市","jp_add_2":"旭が丘"},"2530004":{"post_code":"2530004","prefecture":"KANAGAWA KEN","city":"CHIGASAKI SHI","town":"AMANUMA","perfecture_jp":"神奈川県","jp_add_1":"茅ヶ崎市","jp_add_2":"甘沼"},"2530072":{"post_code":"2530072","prefecture":"KANAGAWA KEN","city":"CHIGASAKI SHI","town":"IMAJUKU","perfecture_jp":"神奈川県","jp_add_1":"茅ヶ崎市","jp_add_2":"今宿"},"2530084":{"post_code":"2530084","prefecture":"KANAGAWA KEN","city":"CHIGASAKI SHI","town":"ENZO","perfecture_jp":"神奈川県","jp_add_1":"茅ヶ崎市","jp_add_2":"円蔵"},"2530082":{"post_code":"2530082","prefecture":"KANAGAWA KEN","city":"CHIGASAKI SHI","town":"KAGAWA","perfecture_jp":"神奈川県","jp_add_1":"茅ヶ崎市","jp_add_2":"香川"},"2530016":{"post_code":"2530016","prefecture":"KANAGAWA KEN","city":"CHIGASAKI SHI","town":"KOZAKURACHO","perfecture_jp":"神奈川県","jp_add_1":"茅ヶ崎市","jp_add_2":"小桜町"},"2530012":{"post_code":"2530012","prefecture":"KANAGAWA KEN","city":"CHIGASAKI SHI","town":"KOWADA","perfecture_jp":"神奈川県","jp_add_1":"茅ヶ崎市","jp_add_2":"小和田"},"2530052":{"post_code":"2530052","prefecture":"KANAGAWA KEN","city":"CHIGASAKI SHI","town":"SAIWAICHO","perfecture_jp":"神奈川県","jp_add_1":"茅ヶ崎市","jp_add_2":"幸町"},"2530033":{"post_code":"2530033","prefecture":"KANAGAWA KEN","city":"CHIGASAKI SHI","town":"SHIOMIDAI","perfecture_jp":"神奈川県","jp_add_1":"茅ヶ崎市","jp_add_2":"汐見台"},"2530081":{"post_code":"2530081","prefecture":"KANAGAWA KEN","city":"CHIGASAKI SHI","town":"SHIMOTERAO","perfecture_jp":"神奈川県","jp_add_1":"茅ヶ崎市","jp_add_2":"下寺尾"},"2530087":{"post_code":"2530087","prefecture":"KANAGAWA KEN","city":"CHIGASAKI SHI","town":"SHIMOMACHIYA","perfecture_jp":"神奈川県","jp_add_1":"茅ヶ崎市","jp_add_2":"下町屋"},"2530045":{"post_code":"2530045","prefecture":"KANAGAWA KEN","city":"CHIGASAKI SHI","town":"JUKKENZAKA","perfecture_jp":"神奈川県","jp_add_1":"茅ヶ崎市","jp_add_2":"十間坂"},"2530017":{"post_code":"2530017","prefecture":"KANAGAWA KEN","city":"CHIGASAKI SHI","town":"SHORIN","perfecture_jp":"神奈川県","jp_add_1":"茅ヶ崎市","jp_add_2":"松林"},"2530036":{"post_code":"2530036","prefecture":"KANAGAWA KEN","city":"CHIGASAKI SHI","town":"SHIRAHAMACHO","perfecture_jp":"神奈川県","jp_add_1":"茅ヶ崎市","jp_add_2":"白浜町"},"2530044":{"post_code":"2530044","prefecture":"KANAGAWA KEN","city":"CHIGASAKI SHI","town":"SHINEICHO","perfecture_jp":"神奈川県","jp_add_1":"茅ヶ崎市","jp_add_2":"新栄町"},"2530008":{"post_code":"2530008","prefecture":"KANAGAWA KEN","city":"CHIGASAKI SHI","town":"SERIZAWA","perfecture_jp":"神奈川県","jp_add_1":"茅ヶ崎市","jp_add_2":"芹沢"},"2530015":{"post_code":"2530015","prefecture":"KANAGAWA KEN","city":"CHIGASAKI SHI","town":"DAIKANCHO","perfecture_jp":"神奈川県","jp_add_1":"茅ヶ崎市","jp_add_2":"代官町"},"2530002":{"post_code":"2530002","prefecture":"KANAGAWA KEN","city":"CHIGASAKI SHI","town":"TAKATA","perfecture_jp":"神奈川県","jp_add_1":"茅ヶ崎市","jp_add_2":"高田"},"2530041":{"post_code":"2530041","prefecture":"KANAGAWA KEN","city":"CHIGASAKI SHI","town":"CHIGASAKI","perfecture_jp":"神奈川県","jp_add_1":"茅ヶ崎市","jp_add_2":"茅ヶ崎"},"2530006":{"post_code":"2530006","prefecture":"KANAGAWA KEN","city":"CHIGASAKI SHI","town":"TSUTSUMI","perfecture_jp":"神奈川県","jp_add_1":"茅ヶ崎市","jp_add_2":"堤"},"2530003":{"post_code":"2530003","prefecture":"KANAGAWA KEN","city":"CHIGASAKI SHI","town":"TSURUGADAI","perfecture_jp":"神奈川県","jp_add_1":"茅ヶ崎市","jp_add_2":"鶴が台"},"2530028":{"post_code":"2530028","prefecture":"KANAGAWA KEN","city":"CHIGASAKI SHI","town":"DEGUCHICHO","perfecture_jp":"神奈川県","jp_add_1":"茅ヶ崎市","jp_add_2":"出口町"},"2530032":{"post_code":"2530032","prefecture":"KANAGAWA KEN","city":"CHIGASAKI SHI","town":"TOKIWACHO","perfecture_jp":"神奈川県","jp_add_1":"茅ヶ崎市","jp_add_2":"常盤町"},"2530056":{"post_code":"2530056","prefecture":"KANAGAWA KEN","city":"CHIGASAKI SHI","town":"TOMOE","perfecture_jp":"神奈川県","jp_add_1":"茅ヶ崎市","jp_add_2":"共恵"},"2530055":{"post_code":"2530055","prefecture":"KANAGAWA KEN","city":"CHIGASAKI SHI","town":"NAKAKAIGAN","perfecture_jp":"神奈川県","jp_add_1":"茅ヶ崎市","jp_add_2":"中海岸"},"2530073":{"post_code":"2530073","prefecture":"KANAGAWA KEN","city":"CHIGASAKI SHI","town":"NAKAJIMA","perfecture_jp":"神奈川県","jp_add_1":"茅ヶ崎市","jp_add_2":"中島"},"2530007":{"post_code":"2530007","prefecture":"KANAGAWA KEN","city":"CHIGASAKI SHI","town":"NAMEGAYA","perfecture_jp":"神奈川県","jp_add_1":"茅ヶ崎市","jp_add_2":"行谷"},"2530061":{"post_code":"2530061","prefecture":"KANAGAWA KEN","city":"CHIGASAKI SHI","town":"NANGO","perfecture_jp":"神奈川県","jp_add_1":"茅ヶ崎市","jp_add_2":"南湖"},"2530083":{"post_code":"2530083","prefecture":"KANAGAWA KEN","city":"CHIGASAKI SHI","town":"NISHIKUBO","perfecture_jp":"神奈川県","jp_add_1":"茅ヶ崎市","jp_add_2":"西久保"},"2530071":{"post_code":"2530071","prefecture":"KANAGAWA KEN","city":"CHIGASAKI SHI","town":"HAGISONO","perfecture_jp":"神奈川県","jp_add_1":"茅ヶ崎市","jp_add_2":"萩園"},"2530035":{"post_code":"2530035","prefecture":"KANAGAWA KEN","city":"CHIGASAKI SHI","town":"HAMASUKA","perfecture_jp":"神奈川県","jp_add_1":"茅ヶ崎市","jp_add_2":"浜須賀"},"2530021":{"post_code":"2530021","prefecture":"KANAGAWA KEN","city":"CHIGASAKI SHI","town":"HAMATAKE","perfecture_jp":"神奈川県","jp_add_1":"茅ヶ崎市","jp_add_2":"浜竹"},"2530086":{"post_code":"2530086","prefecture":"KANAGAWA KEN","city":"CHIGASAKI SHI","town":"HAMANOGO","perfecture_jp":"神奈川県","jp_add_1":"茅ヶ崎市","jp_add_2":"浜之郷"},"2530062":{"post_code":"2530062","prefecture":"KANAGAWA KEN","city":"CHIGASAKI SHI","town":"HAMAMIDAIRA","perfecture_jp":"神奈川県","jp_add_1":"茅ヶ崎市","jp_add_2":"浜見平"},"2530054":{"post_code":"2530054","prefecture":"KANAGAWA KEN","city":"CHIGASAKI SHI","town":"HIGASHIKAIGAN MINAMI","perfecture_jp":"神奈川県","jp_add_1":"茅ヶ崎市","jp_add_2":"東海岸南"},"2530053":{"post_code":"2530053","prefecture":"KANAGAWA KEN","city":"CHIGASAKI SHI","town":"HIGASHIKAIGAN KITA","perfecture_jp":"神奈川県","jp_add_1":"茅ヶ崎市","jp_add_2":"東海岸北"},"2530011":{"post_code":"2530011","prefecture":"KANAGAWA KEN","city":"CHIGASAKI SHI","town":"HISHINUMA","perfecture_jp":"神奈川県","jp_add_1":"茅ヶ崎市","jp_add_2":"菱沼"},"2530037":{"post_code":"2530037","prefecture":"KANAGAWA KEN","city":"CHIGASAKI SHI","town":"HISHINUMAKAIGAN","perfecture_jp":"神奈川県","jp_add_1":"茅ヶ崎市","jp_add_2":"菱沼海岸"},"2530027":{"post_code":"2530027","prefecture":"KANAGAWA KEN","city":"CHIGASAKI SHI","town":"HIBARIGAOKA","perfecture_jp":"神奈川県","jp_add_1":"茅ヶ崎市","jp_add_2":"ひばりが丘"},"2530031":{"post_code":"2530031","prefecture":"KANAGAWA KEN","city":"CHIGASAKI SHI","town":"FUJIMICHO","perfecture_jp":"神奈川県","jp_add_1":"茅ヶ崎市","jp_add_2":"富士見町"},"2530074":{"post_code":"2530074","prefecture":"KANAGAWA KEN","city":"CHIGASAKI SHI","town":"HEIDAYUSHINDEN","perfecture_jp":"神奈川県","jp_add_1":"茅ヶ崎市","jp_add_2":"平太夫新田"},"2530024":{"post_code":"2530024","prefecture":"KANAGAWA KEN","city":"CHIGASAKI SHI","town":"HEIWACHO","perfecture_jp":"神奈川県","jp_add_1":"茅ヶ崎市","jp_add_2":"平和町"},"2530014":{"post_code":"2530014","prefecture":"KANAGAWA KEN","city":"CHIGASAKI SHI","town":"HONJUKUCHO","perfecture_jp":"神奈川県","jp_add_1":"茅ヶ崎市","jp_add_2":"本宿町"},"2530042":{"post_code":"2530042","prefecture":"KANAGAWA KEN","city":"CHIGASAKI SHI","town":"HONSON","perfecture_jp":"神奈川県","jp_add_1":"茅ヶ崎市","jp_add_2":"本村"},"2530065":{"post_code":"2530065","prefecture":"KANAGAWA KEN","city":"CHIGASAKI SHI","town":"MATSUO","perfecture_jp":"神奈川県","jp_add_1":"茅ヶ崎市","jp_add_2":"松尾"},"2530005":{"post_code":"2530005","prefecture":"KANAGAWA KEN","city":"CHIGASAKI SHI","town":"MATSUKAZEDAI","perfecture_jp":"神奈川県","jp_add_1":"茅ヶ崎市","jp_add_2":"松風台"},"2530025":{"post_code":"2530025","prefecture":"KANAGAWA KEN","city":"CHIGASAKI SHI","town":"MATSUGAOKA","perfecture_jp":"神奈川県","jp_add_1":"茅ヶ崎市","jp_add_2":"松が丘"},"2530022":{"post_code":"2530022","prefecture":"KANAGAWA KEN","city":"CHIGASAKI SHI","town":"MATSUNAMI","perfecture_jp":"神奈川県","jp_add_1":"茅ヶ崎市","jp_add_2":"松浪"},"2530088":{"post_code":"2530088","prefecture":"KANAGAWA KEN","city":"CHIGASAKI SHI","town":"MIZUKI","perfecture_jp":"神奈川県","jp_add_1":"茅ヶ崎市","jp_add_2":"みずき"},"2530023":{"post_code":"2530023","prefecture":"KANAGAWA KEN","city":"CHIGASAKI SHI","town":"MISUMICHO","perfecture_jp":"神奈川県","jp_add_1":"茅ヶ崎市","jp_add_2":"美住町"},"2530034":{"post_code":"2530034","prefecture":"KANAGAWA KEN","city":"CHIGASAKI SHI","town":"MIDORIGAHAMA","perfecture_jp":"神奈川県","jp_add_1":"茅ヶ崎市","jp_add_2":"緑が浜"},"2530018":{"post_code":"2530018","prefecture":"KANAGAWA KEN","city":"CHIGASAKI SHI","town":"MUROTA","perfecture_jp":"神奈川県","jp_add_1":"茅ヶ崎市","jp_add_2":"室田"},"2530043":{"post_code":"2530043","prefecture":"KANAGAWA KEN","city":"CHIGASAKI SHI","town":"MOTOMACHI","perfecture_jp":"神奈川県","jp_add_1":"茅ヶ崎市","jp_add_2":"元町"},"2530064":{"post_code":"2530064","prefecture":"KANAGAWA KEN","city":"CHIGASAKI SHI","town":"YANAGISHIMA","perfecture_jp":"神奈川県","jp_add_1":"茅ヶ崎市","jp_add_2":"柳島"},"2530063":{"post_code":"2530063","prefecture":"KANAGAWA KEN","city":"CHIGASAKI SHI","town":"YANAGISHIMAKAIGAN","perfecture_jp":"神奈川県","jp_add_1":"茅ヶ崎市","jp_add_2":"柳島海岸"},"2530085":{"post_code":"2530085","prefecture":"KANAGAWA KEN","city":"CHIGASAKI SHI","town":"YABATA","perfecture_jp":"神奈川県","jp_add_1":"茅ヶ崎市","jp_add_2":"矢畑"},"2530051":{"post_code":"2530051","prefecture":"KANAGAWA KEN","city":"CHIGASAKI SHI","town":"WAKAMATSUCHO","perfecture_jp":"神奈川県","jp_add_1":"茅ヶ崎市","jp_add_2":"若松町"},"2530100":{"post_code":"2530100","prefecture":"KANAGAWA KEN","city":"KOZA GUN SAMUKAWA MACHI","town":"IKANIKEISAIGANAIBAAI","perfecture_jp":"神奈川県","jp_add_1":"高座郡寒川町","jp_add_2":""},"2530111":{"post_code":"2530111","prefecture":"KANAGAWA KEN","city":"KOZA GUN SAMUKAWA MACHI","town":"ICHINOMIYA","perfecture_jp":"神奈川県","jp_add_1":"高座郡寒川町","jp_add_2":"一之宮"},"2530104":{"post_code":"2530104","prefecture":"KANAGAWA KEN","city":"KOZA GUN SAMUKAWA MACHI","town":"OZO","perfecture_jp":"神奈川県","jp_add_1":"高座郡寒川町","jp_add_2":"大蔵"},"2530113":{"post_code":"2530113","prefecture":"KANAGAWA KEN","city":"KOZA GUN SAMUKAWA MACHI","town":"OMAGARI","perfecture_jp":"神奈川県","jp_add_1":"高座郡寒川町","jp_add_2":"大曲"},"2530105":{"post_code":"2530105","prefecture":"KANAGAWA KEN","city":"KOZA GUN SAMUKAWA MACHI","town":"OKADA","perfecture_jp":"神奈川県","jp_add_1":"高座郡寒川町","jp_add_2":"岡田"},"2530101":{"post_code":"2530101","prefecture":"KANAGAWA KEN","city":"KOZA GUN SAMUKAWA MACHI","town":"KURAMI","perfecture_jp":"神奈川県","jp_add_1":"高座郡寒川町","jp_add_2":"倉見"},"2530103":{"post_code":"2530103","prefecture":"KANAGAWA KEN","city":"KOZA GUN SAMUKAWA MACHI","town":"KOYATO","perfecture_jp":"神奈川県","jp_add_1":"高座郡寒川町","jp_add_2":"小谷"},"2530102":{"post_code":"2530102","prefecture":"KANAGAWA KEN","city":"KOZA GUN SAMUKAWA MACHI","town":"KOYURUGI","perfecture_jp":"神奈川県","jp_add_1":"高座郡寒川町","jp_add_2":"小動"},"2530114":{"post_code":"2530114","prefecture":"KANAGAWA KEN","city":"KOZA GUN SAMUKAWA MACHI","town":"TABATA","perfecture_jp":"神奈川県","jp_add_1":"高座郡寒川町","jp_add_2":"田端"},"2530112":{"post_code":"2530112","prefecture":"KANAGAWA KEN","city":"KOZA GUN SAMUKAWA MACHI","town":"NAKAZE","perfecture_jp":"神奈川県","jp_add_1":"高座郡寒川町","jp_add_2":"中瀬"},"2530106":{"post_code":"2530106","prefecture":"KANAGAWA KEN","city":"KOZA GUN SAMUKAWA MACHI","town":"MIYAYAMA","perfecture_jp":"神奈川県","jp_add_1":"高座郡寒川町","jp_add_2":"宮山"}}