{"2540000":{"post_code":"2540000","prefecture":"KANAGAWA KEN","city":"HIRATSUKA SHI","town":"IKANIKEISAIGANAIBAAI","perfecture_jp":"神奈川県","jp_add_1":"平塚市","jp_add_2":""},"2540042":{"post_code":"2540042","prefecture":"KANAGAWA KEN","city":"HIRATSUKA SHI","town":"AKASHICHO","perfecture_jp":"神奈川県","jp_add_1":"平塚市","jp_add_2":"明石町"},"2540031":{"post_code":"2540031","prefecture":"KANAGAWA KEN","city":"HIRATSUKA SHI","town":"AMANUMA","perfecture_jp":"神奈川県","jp_add_1":"平塚市","jp_add_2":"天沼"},"2540915":{"post_code":"2540915","prefecture":"KANAGAWA KEN","city":"HIRATSUKA SHI","town":"IDENAWA","perfecture_jp":"神奈川県","jp_add_1":"平塚市","jp_add_2":"出縄"},"2540025":{"post_code":"2540025","prefecture":"KANAGAWA KEN","city":"HIRATSUKA SHI","town":"ENOKICHO","perfecture_jp":"神奈川県","jp_add_1":"平塚市","jp_add_2":"榎木町"},"2540033":{"post_code":"2540033","prefecture":"KANAGAWA KEN","city":"HIRATSUKA SHI","town":"OIMATSUCHO","perfecture_jp":"神奈川県","jp_add_1":"平塚市","jp_add_2":"老松町"},"2540047":{"post_code":"2540047","prefecture":"KANAGAWA KEN","city":"HIRATSUKA SHI","town":"OIWAKE","perfecture_jp":"神奈川県","jp_add_1":"平塚市","jp_add_2":"追分"},"2540012":{"post_code":"2540012","prefecture":"KANAGAWA KEN","city":"HIRATSUKA SHI","town":"OKAMI","perfecture_jp":"神奈川県","jp_add_1":"平塚市","jp_add_2":"大神"},"2540001":{"post_code":"2540001","prefecture":"KANAGAWA KEN","city":"HIRATSUKA SHI","town":"OSHIMA","perfecture_jp":"神奈川県","jp_add_1":"平塚市","jp_add_2":"大島"},"2540074":{"post_code":"2540074","prefecture":"KANAGAWA KEN","city":"HIRATSUKA SHI","town":"OHARA","perfecture_jp":"神奈川県","jp_add_1":"平塚市","jp_add_2":"大原"},"2540055":{"post_code":"2540055","prefecture":"KANAGAWA KEN","city":"HIRATSUKA SHI","town":"KAMIHIRATSUKA","perfecture_jp":"神奈川県","jp_add_1":"平塚市","jp_add_2":"上平塚"},"2540088":{"post_code":"2540088","prefecture":"KANAGAWA KEN","city":"HIRATSUKA SHI","town":"KITATOYODA","perfecture_jp":"神奈川県","jp_add_1":"平塚市","jp_add_2":"北豊田"},"2540005":{"post_code":"2540005","prefecture":"KANAGAWA KEN","city":"HIRATSUKA SHI","town":"KIDOKORO","perfecture_jp":"神奈川県","jp_add_1":"平塚市","jp_add_2":"城所"},"2540906":{"post_code":"2540906","prefecture":"KANAGAWA KEN","city":"HIRATSUKA SHI","town":"GUZO","perfecture_jp":"神奈川県","jp_add_1":"平塚市","jp_add_2":"公所"},"2540801":{"post_code":"2540801","prefecture":"KANAGAWA KEN","city":"HIRATSUKA SHI","town":"KURYOZUTSUMI","perfecture_jp":"神奈川県","jp_add_1":"平塚市","jp_add_2":"久領堤"},"2540821":{"post_code":"2540821","prefecture":"KANAGAWA KEN","city":"HIRATSUKA SHI","town":"KUROBEOKA","perfecture_jp":"神奈川県","jp_add_1":"平塚市","jp_add_2":"黒部丘"},"2540903":{"post_code":"2540903","prefecture":"KANAGAWA KEN","city":"HIRATSUKA SHI","town":"KOCHI","perfecture_jp":"神奈川県","jp_add_1":"平塚市","jp_add_2":"河内"},"2540061":{"post_code":"2540061","prefecture":"KANAGAWA KEN","city":"HIRATSUKA SHI","town":"GOTEN","perfecture_jp":"神奈川県","jp_add_1":"平塚市","jp_add_2":"御殿"},"2540004":{"post_code":"2540004","prefecture":"KANAGAWA KEN","city":"HIRATSUKA SHI","town":"KONABESHIMA","perfecture_jp":"神奈川県","jp_add_1":"平塚市","jp_add_2":"小鍋島"},"2540804":{"post_code":"2540804","prefecture":"KANAGAWA KEN","city":"HIRATSUKA SHI","town":"SAIWAICHO","perfecture_jp":"神奈川県","jp_add_1":"平塚市","jp_add_2":"幸町"},"2540053":{"post_code":"2540053","prefecture":"KANAGAWA KEN","city":"HIRATSUKA SHI","town":"SAKURAGAOKA","perfecture_jp":"神奈川県","jp_add_1":"平塚市","jp_add_2":"桜ケ丘"},"2540014":{"post_code":"2540014","prefecture":"KANAGAWA KEN","city":"HIRATSUKA SHI","town":"SHINOMIYA","perfecture_jp":"神奈川県","jp_add_1":"平塚市","jp_add_2":"四之宮"},"2540003":{"post_code":"2540003","prefecture":"KANAGAWA KEN","city":"HIRATSUKA SHI","town":"SHIMOJIMA","perfecture_jp":"神奈川県","jp_add_1":"平塚市","jp_add_2":"下島"},"2540076":{"post_code":"2540076","prefecture":"KANAGAWA KEN","city":"HIRATSUKA SHI","town":"SHIMMACHI","perfecture_jp":"神奈川県","jp_add_1":"平塚市","jp_add_2":"新町"},"2540022":{"post_code":"2540022","prefecture":"KANAGAWA KEN","city":"HIRATSUKA SHI","town":"SUKA","perfecture_jp":"神奈川県","jp_add_1":"平塚市","jp_add_2":"須賀"},"2540822":{"post_code":"2540822","prefecture":"KANAGAWA KEN","city":"HIRATSUKA SHI","town":"SUMIREDAIRA","perfecture_jp":"神奈川県","jp_add_1":"平塚市","jp_add_2":"菫平"},"2540063":{"post_code":"2540063","prefecture":"KANAGAWA KEN","city":"HIRATSUKA SHI","town":"SUWACHO","perfecture_jp":"神奈川県","jp_add_1":"平塚市","jp_add_2":"諏訪町"},"2540041":{"post_code":"2540041","prefecture":"KANAGAWA KEN","city":"HIRATSUKA SHI","town":"SENGENCHO","perfecture_jp":"神奈川県","jp_add_1":"平塚市","jp_add_2":"浅間町"},"2540803":{"post_code":"2540803","prefecture":"KANAGAWA KEN","city":"HIRATSUKA SHI","town":"SENGOKUKASHI","perfecture_jp":"神奈川県","jp_add_1":"平塚市","jp_add_2":"千石河岸"},"2540813":{"post_code":"2540813","prefecture":"KANAGAWA KEN","city":"HIRATSUKA SHI","town":"SODEGAHAMA","perfecture_jp":"神奈川県","jp_add_1":"平塚市","jp_add_2":"袖ケ浜"},"2540807":{"post_code":"2540807","prefecture":"KANAGAWA KEN","city":"HIRATSUKA SHI","town":"DAIKANCHO","perfecture_jp":"神奈川県","jp_add_1":"平塚市","jp_add_2":"代官町"},"2540912":{"post_code":"2540912","prefecture":"KANAGAWA KEN","city":"HIRATSUKA SHI","town":"TAKANE","perfecture_jp":"神奈川県","jp_add_1":"平塚市","jp_add_2":"高根"},"2540805":{"post_code":"2540805","prefecture":"KANAGAWA KEN","city":"HIRATSUKA SHI","town":"TAKAHAMADAI","perfecture_jp":"神奈川県","jp_add_1":"平塚市","jp_add_2":"高浜台"},"2540914":{"post_code":"2540914","prefecture":"KANAGAWA KEN","city":"HIRATSUKA SHI","town":"TAKAMURA","perfecture_jp":"神奈川県","jp_add_1":"平塚市","jp_add_2":"高村"},"2540034":{"post_code":"2540034","prefecture":"KANAGAWA KEN","city":"HIRATSUKA SHI","town":"TAKARACHO","perfecture_jp":"神奈川県","jp_add_1":"平塚市","jp_add_2":"宝町"},"2540046":{"post_code":"2540046","prefecture":"KANAGAWA KEN","city":"HIRATSUKA SHI","town":"TATSUNOCHO","perfecture_jp":"神奈川県","jp_add_1":"平塚市","jp_add_2":"立野町"},"2540013":{"post_code":"2540013","prefecture":"KANAGAWA KEN","city":"HIRATSUKA SHI","town":"TAMURA","perfecture_jp":"神奈川県","jp_add_1":"平塚市","jp_add_2":"田村"},"2540064":{"post_code":"2540064","prefecture":"KANAGAWA KEN","city":"HIRATSUKA SHI","town":"TANJOGAOKA","perfecture_jp":"神奈川県","jp_add_1":"平塚市","jp_add_2":"達上ケ丘"},"2540027":{"post_code":"2540027","prefecture":"KANAGAWA KEN","city":"HIRATSUKA SHI","town":"TSUTSUMICHO","perfecture_jp":"神奈川県","jp_add_1":"平塚市","jp_add_2":"堤町"},"2540826":{"post_code":"2540826","prefecture":"KANAGAWA KEN","city":"HIRATSUKA SHI","town":"TOGAHARA","perfecture_jp":"神奈川県","jp_add_1":"平塚市","jp_add_2":"唐ケ原"},"2540902":{"post_code":"2540902","prefecture":"KANAGAWA KEN","city":"HIRATSUKA SHI","town":"TOKUNOBU","perfecture_jp":"神奈川県","jp_add_1":"平塚市","jp_add_2":"徳延"},"2540081":{"post_code":"2540081","prefecture":"KANAGAWA KEN","city":"HIRATSUKA SHI","town":"TOYODA UCHIMAGI","perfecture_jp":"神奈川県","jp_add_1":"平塚市","jp_add_2":"豊田打間木"},"2540083":{"post_code":"2540083","prefecture":"KANAGAWA KEN","city":"HIRATSUKA SHI","town":"TOYODA KOMINE","perfecture_jp":"神奈川県","jp_add_1":"平塚市","jp_add_2":"豊田小嶺"},"2540086":{"post_code":"2540086","prefecture":"KANAGAWA KEN","city":"HIRATSUKA SHI","town":"TOYODA BYODOJI","perfecture_jp":"神奈川県","jp_add_1":"平塚市","jp_add_2":"豊田平等寺"},"2540087":{"post_code":"2540087","prefecture":"KANAGAWA KEN","city":"HIRATSUKA SHI","town":"TOYODA HONGO","perfecture_jp":"神奈川県","jp_add_1":"平塚市","jp_add_2":"豊田本郷"},"2540085":{"post_code":"2540085","prefecture":"KANAGAWA KEN","city":"HIRATSUKA SHI","town":"TOYODA MIYASHITA","perfecture_jp":"神奈川県","jp_add_1":"平塚市","jp_add_2":"豊田宮下"},"2540051":{"post_code":"2540051","prefecture":"KANAGAWA KEN","city":"HIRATSUKA SHI","town":"TOYOHARACHO","perfecture_jp":"神奈川県","jp_add_1":"平塚市","jp_add_2":"豊原町"},"2540054":{"post_code":"2540054","prefecture":"KANAGAWA KEN","city":"HIRATSUKA SHI","town":"NAKAZATO","perfecture_jp":"神奈川県","jp_add_1":"平塚市","jp_add_2":"中里"},"2540026":{"post_code":"2540026","prefecture":"KANAGAWA KEN","city":"HIRATSUKA SHI","town":"NAKADO","perfecture_jp":"神奈川県","jp_add_1":"平塚市","jp_add_2":"中堂"},"2540075":{"post_code":"2540075","prefecture":"KANAGAWA KEN","city":"HIRATSUKA SHI","town":"NAKAHARA","perfecture_jp":"神奈川県","jp_add_1":"平塚市","jp_add_2":"中原"},"2540071":{"post_code":"2540071","prefecture":"KANAGAWA KEN","city":"HIRATSUKA SHI","town":"NAKAHARA KAMIJUKU","perfecture_jp":"神奈川県","jp_add_1":"平塚市","jp_add_2":"中原上宿"},"2540072":{"post_code":"2540072","prefecture":"KANAGAWA KEN","city":"HIRATSUKA SHI","town":"NAKAHARA SHIMOJUKU","perfecture_jp":"神奈川県","jp_add_1":"平塚市","jp_add_2":"中原下宿"},"2540021":{"post_code":"2540021","prefecture":"KANAGAWA KEN","city":"HIRATSUKA SHI","town":"NAGATORO","perfecture_jp":"神奈川県","jp_add_1":"平塚市","jp_add_2":"長瀞"},"2540825":{"post_code":"2540825","prefecture":"KANAGAWA KEN","city":"HIRATSUKA SHI","town":"NADESHIKOHARA","perfecture_jp":"神奈川県","jp_add_1":"平塚市","jp_add_2":"撫子原"},"2540044":{"post_code":"2540044","prefecture":"KANAGAWA KEN","city":"HIRATSUKA SHI","town":"NISHIKICHO","perfecture_jp":"神奈川県","jp_add_1":"平塚市","jp_add_2":"錦町"},"2540019":{"post_code":"2540019","prefecture":"KANAGAWA KEN","city":"HIRATSUKA SHI","town":"NISHISHINDO","perfecture_jp":"神奈川県","jp_add_1":"平塚市","jp_add_2":"西真土"},"2540073":{"post_code":"2540073","prefecture":"KANAGAWA KEN","city":"HIRATSUKA SHI","town":"NISHIYAWATA","perfecture_jp":"神奈川県","jp_add_1":"平塚市","jp_add_2":"西八幡"},"2540823":{"post_code":"2540823","prefecture":"KANAGAWA KEN","city":"HIRATSUKA SHI","town":"NIJIGAHAMA","perfecture_jp":"神奈川県","jp_add_1":"平塚市","jp_add_2":"虹ケ浜"},"2540904":{"post_code":"2540904","prefecture":"KANAGAWA KEN","city":"HIRATSUKA SHI","town":"NEZAKAMA","perfecture_jp":"神奈川県","jp_add_1":"平塚市","jp_add_2":"根坂間"},"2540824":{"post_code":"2540824","prefecture":"KANAGAWA KEN","city":"HIRATSUKA SHI","town":"HANAMIZUDAI","perfecture_jp":"神奈川県","jp_add_1":"平塚市","jp_add_2":"花水台"},"2540023":{"post_code":"2540023","prefecture":"KANAGAWA KEN","city":"HIRATSUKA SHI","town":"BANYU","perfecture_jp":"神奈川県","jp_add_1":"平塚市","jp_add_2":"馬入"},"2540024":{"post_code":"2540024","prefecture":"KANAGAWA KEN","city":"HIRATSUKA SHI","town":"BANYUHONCHO","perfecture_jp":"神奈川県","jp_add_1":"平塚市","jp_add_2":"馬入本町"},"2540018":{"post_code":"2540018","prefecture":"KANAGAWA KEN","city":"HIRATSUKA SHI","town":"HIGASHISHINDO","perfecture_jp":"神奈川県","jp_add_1":"平塚市","jp_add_2":"東真土"},"2540082":{"post_code":"2540082","prefecture":"KANAGAWA KEN","city":"HIRATSUKA SHI","town":"HIGASHITOYODA","perfecture_jp":"神奈川県","jp_add_1":"平塚市","jp_add_2":"東豊田"},"2540077":{"post_code":"2540077","prefecture":"KANAGAWA KEN","city":"HIRATSUKA SHI","town":"HIGASHINAKAHARA","perfecture_jp":"神奈川県","jp_add_1":"平塚市","jp_add_2":"東中原"},"2540016":{"post_code":"2540016","prefecture":"KANAGAWA KEN","city":"HIRATSUKA SHI","town":"HIGASHIYAWATA","perfecture_jp":"神奈川県","jp_add_1":"平塚市","jp_add_2":"東八幡"},"2540905":{"post_code":"2540905","prefecture":"KANAGAWA KEN","city":"HIRATSUKA SHI","town":"HINATAOKA","perfecture_jp":"神奈川県","jp_add_1":"平塚市","jp_add_2":"日向岡"},"2540052":{"post_code":"2540052","prefecture":"KANAGAWA KEN","city":"HIRATSUKA SHI","town":"HIRATSUKA","perfecture_jp":"神奈川県","jp_add_1":"平塚市","jp_add_2":"平塚"},"2540062":{"post_code":"2540062","prefecture":"KANAGAWA KEN","city":"HIRATSUKA SHI","town":"FUJIMICHO","perfecture_jp":"神奈川県","jp_add_1":"平塚市","jp_add_2":"富士見町"},"2540802":{"post_code":"2540802","prefecture":"KANAGAWA KEN","city":"HIRATSUKA SHI","town":"FUDABACHO","perfecture_jp":"神奈川県","jp_add_1":"平塚市","jp_add_2":"札場町"},"2540043":{"post_code":"2540043","prefecture":"KANAGAWA KEN","city":"HIRATSUKA SHI","town":"BENIYACHO","perfecture_jp":"神奈川県","jp_add_1":"平塚市","jp_add_2":"紅谷町"},"2540812":{"post_code":"2540812","prefecture":"KANAGAWA KEN","city":"HIRATSUKA SHI","town":"MATSUKAZECHO","perfecture_jp":"神奈川県","jp_add_1":"平塚市","jp_add_2":"松風町"},"2540901":{"post_code":"2540901","prefecture":"KANAGAWA KEN","city":"HIRATSUKA SHI","town":"MATOI","perfecture_jp":"神奈川県","jp_add_1":"平塚市","jp_add_2":"纒"},"2540913":{"post_code":"2540913","prefecture":"KANAGAWA KEN","city":"HIRATSUKA SHI","town":"MANDA","perfecture_jp":"神奈川県","jp_add_1":"平塚市","jp_add_2":"万田"},"2540045":{"post_code":"2540045","prefecture":"KANAGAWA KEN","city":"HIRATSUKA SHI","town":"MITSUKECHO","perfecture_jp":"神奈川県","jp_add_1":"平塚市","jp_add_2":"見附町"},"2540084":{"post_code":"2540084","prefecture":"KANAGAWA KEN","city":"HIRATSUKA SHI","town":"MINAMITOYODA","perfecture_jp":"神奈川県","jp_add_1":"平塚市","jp_add_2":"南豊田"},"2540065":{"post_code":"2540065","prefecture":"KANAGAWA KEN","city":"HIRATSUKA SHI","town":"MINAMIHARA","perfecture_jp":"神奈川県","jp_add_1":"平塚市","jp_add_2":"南原"},"2540035":{"post_code":"2540035","prefecture":"KANAGAWA KEN","city":"HIRATSUKA SHI","town":"MIYANOMAE","perfecture_jp":"神奈川県","jp_add_1":"平塚市","jp_add_2":"宮の前"},"2540036":{"post_code":"2540036","prefecture":"KANAGAWA KEN","city":"HIRATSUKA SHI","town":"MIYAMATSUCHO","perfecture_jp":"神奈川県","jp_add_1":"平塚市","jp_add_2":"宮松町"},"2540815":{"post_code":"2540815","prefecture":"KANAGAWA KEN","city":"HIRATSUKA SHI","town":"MOMOHAMACHO","perfecture_jp":"神奈川県","jp_add_1":"平塚市","jp_add_2":"桃浜町"},"2540811":{"post_code":"2540811","prefecture":"KANAGAWA KEN","city":"HIRATSUKA SHI","town":"YAEZAKICHO","perfecture_jp":"神奈川県","jp_add_1":"平塚市","jp_add_2":"八重咲町"},"2540032":{"post_code":"2540032","prefecture":"KANAGAWA KEN","city":"HIRATSUKA SHI","town":"YACHIYOCHO","perfecture_jp":"神奈川県","jp_add_1":"平塚市","jp_add_2":"八千代町"},"2540911":{"post_code":"2540911","prefecture":"KANAGAWA KEN","city":"HIRATSUKA SHI","town":"YAMASHITA","perfecture_jp":"神奈川県","jp_add_1":"平塚市","jp_add_2":"山下"},"2540015":{"post_code":"2540015","prefecture":"KANAGAWA KEN","city":"HIRATSUKA SHI","town":"YAWATA","perfecture_jp":"神奈川県","jp_add_1":"平塚市","jp_add_2":"八幡"},"2540806":{"post_code":"2540806","prefecture":"KANAGAWA KEN","city":"HIRATSUKA SHI","town":"YUHIGAOKA","perfecture_jp":"神奈川県","jp_add_1":"平塚市","jp_add_2":"夕陽ケ丘"},"2540002":{"post_code":"2540002","prefecture":"KANAGAWA KEN","city":"HIRATSUKA SHI","town":"YOKOCHI","perfecture_jp":"神奈川県","jp_add_1":"平塚市","jp_add_2":"横内"},"2540011":{"post_code":"2540011","prefecture":"KANAGAWA KEN","city":"HIRATSUKA SHI","town":"YOSHIGIWA","perfecture_jp":"神奈川県","jp_add_1":"平塚市","jp_add_2":"吉際"},"2540814":{"post_code":"2540814","prefecture":"KANAGAWA KEN","city":"HIRATSUKA SHI","town":"RYUJOGAOKA","perfecture_jp":"神奈川県","jp_add_1":"平塚市","jp_add_2":"龍城ケ丘"}}