{"2580000":{"post_code":"2580000","prefecture":"KANAGAWA KEN","city":"ASHIGARAKAMI GUN KAISEI MACHI","town":"IKANIKEISAIGANAIBAAI","perfecture_jp":"神奈川県","jp_add_1":"足柄上郡大井町","jp_add_2":""},"2580014":{"post_code":"2580014","prefecture":"KANAGAWA KEN","city":"ASHIGARAKAMI GUN OI MACHI","town":"AKADA","perfecture_jp":"神奈川県","jp_add_1":"足柄上郡大井町","jp_add_2":"赤田"},"2580018":{"post_code":"2580018","prefecture":"KANAGAWA KEN","city":"ASHIGARAKAMI GUN OI MACHI","town":"KANADE","perfecture_jp":"神奈川県","jp_add_1":"足柄上郡大井町","jp_add_2":"金手"},"2580019":{"post_code":"2580019","prefecture":"KANAGAWA KEN","city":"ASHIGARAKAMI GUN OI MACHI","town":"KANEKO","perfecture_jp":"神奈川県","jp_add_1":"足柄上郡大井町","jp_add_2":"金子"},"2580016":{"post_code":"2580016","prefecture":"KANAGAWA KEN","city":"ASHIGARAKAMI GUN OI MACHI","town":"KAMIOI","perfecture_jp":"神奈川県","jp_add_1":"足柄上郡大井町","jp_add_2":"上大井"},"2580011":{"post_code":"2580011","prefecture":"KANAGAWA KEN","city":"ASHIGARAKAMI GUN OI MACHI","town":"SHINOKUBO","perfecture_jp":"神奈川県","jp_add_1":"足柄上郡大井町","jp_add_2":"篠窪"},"2580013":{"post_code":"2580013","prefecture":"KANAGAWA KEN","city":"ASHIGARAKAMI GUN OI MACHI","town":"TAKAO","perfecture_jp":"神奈川県","jp_add_1":"足柄上郡大井町","jp_add_2":"高尾"},"2580017":{"post_code":"2580017","prefecture":"KANAGAWA KEN","city":"ASHIGARAKAMI GUN OI MACHI","town":"NISHIOI","perfecture_jp":"神奈川県","jp_add_1":"足柄上郡大井町","jp_add_2":"西大井"},"2580012":{"post_code":"2580012","prefecture":"KANAGAWA KEN","city":"ASHIGARAKAMI GUN OI MACHI","town":"YANAGI","perfecture_jp":"神奈川県","jp_add_1":"足柄上郡大井町","jp_add_2":"柳"},"2580015":{"post_code":"2580015","prefecture":"KANAGAWA KEN","city":"ASHIGARAKAMI GUN OI MACHI","town":"YAMADA","perfecture_jp":"神奈川県","jp_add_1":"足柄上郡大井町","jp_add_2":"山田"},"2580002":{"post_code":"2580002","prefecture":"KANAGAWA KEN","city":"ASHIGARAKAMI GUN MATSUDA MACHI","town":"KOYAMA","perfecture_jp":"神奈川県","jp_add_1":"足柄上郡松田町","jp_add_2":"神山"},"2580003":{"post_code":"2580003","prefecture":"KANAGAWA KEN","city":"ASHIGARAKAMI GUN MATSUDA MACHI","town":"MATSUDASORYO","perfecture_jp":"神奈川県","jp_add_1":"足柄上郡松田町","jp_add_2":"松田惣領"},"2580004":{"post_code":"2580004","prefecture":"KANAGAWA KEN","city":"ASHIGARAKAMI GUN MATSUDA MACHI","town":"MATSUDASOSHI","perfecture_jp":"神奈川県","jp_add_1":"足柄上郡松田町","jp_add_2":"松田庶子"},"2580001":{"post_code":"2580001","prefecture":"KANAGAWA KEN","city":"ASHIGARAKAMI GUN MATSUDA MACHI","town":"YADORIKI","perfecture_jp":"神奈川県","jp_add_1":"足柄上郡松田町","jp_add_2":"寄"},"2580100":{"post_code":"2580100","prefecture":"KANAGAWA KEN","city":"ASHIGARAKAMI GUN YAMAKITA MACHI","town":"IKANIKEISAIGANAIBAAI","perfecture_jp":"神奈川県","jp_add_1":"足柄上郡山北町","jp_add_2":""},"2580203":{"post_code":"2580203","prefecture":"KANAGAWA KEN","city":"ASHIGARAKAMI GUN YAMAKITA MACHI","town":"KAMIODA","perfecture_jp":"神奈川県","jp_add_1":"足柄上郡山北町","jp_add_2":"神尾田"},"2580126":{"post_code":"2580126","prefecture":"KANAGAWA KEN","city":"ASHIGARAKAMI GUN YAMAKITA MACHI","town":"KAMINAWA","perfecture_jp":"神奈川県","jp_add_1":"足柄上郡山北町","jp_add_2":"神縄"},"2580124":{"post_code":"2580124","prefecture":"KANAGAWA KEN","city":"ASHIGARAKAMI GUN YAMAKITA MACHI","town":"KAWANISHI","perfecture_jp":"神奈川県","jp_add_1":"足柄上郡山北町","jp_add_2":"川西"},"2580112":{"post_code":"2580112","prefecture":"KANAGAWA KEN","city":"ASHIGARAKAMI GUN YAMAKITA MACHI","town":"KISHI","perfecture_jp":"神奈川県","jp_add_1":"足柄上郡山北町","jp_add_2":"岸"},"2580202":{"post_code":"2580202","prefecture":"KANAGAWA KEN","city":"ASHIGARAKAMI GUN YAMAKITA MACHI","town":"KUROKURA","perfecture_jp":"神奈川県","jp_add_1":"足柄上郡山北町","jp_add_2":"玄倉"},"2580122":{"post_code":"2580122","prefecture":"KANAGAWA KEN","city":"ASHIGARAKAMI GUN YAMAKITA MACHI","town":"TSUBURANO","perfecture_jp":"神奈川県","jp_add_1":"足柄上郡山北町","jp_add_2":"都夫良野"},"2580201":{"post_code":"2580201","prefecture":"KANAGAWA KEN","city":"ASHIGARAKAMI GUN YAMAKITA MACHI","town":"NAKAGAWA","perfecture_jp":"神奈川県","jp_add_1":"足柄上郡山北町","jp_add_2":"中川"},"2580114":{"post_code":"2580114","prefecture":"KANAGAWA KEN","city":"ASHIGARAKAMI GUN YAMAKITA MACHI","town":"HIRAYAMA","perfecture_jp":"神奈川県","jp_add_1":"足柄上郡山北町","jp_add_2":"平山"},"2580121":{"post_code":"2580121","prefecture":"KANAGAWA KEN","city":"ASHIGARAKAMI GUN YAMAKITA MACHI","town":"MINASEGAWA","perfecture_jp":"神奈川県","jp_add_1":"足柄上郡山北町","jp_add_2":"皆瀬川"},"2580111":{"post_code":"2580111","prefecture":"KANAGAWA KEN","city":"ASHIGARAKAMI GUN YAMAKITA MACHI","town":"MUKOHARA","perfecture_jp":"神奈川県","jp_add_1":"足柄上郡山北町","jp_add_2":"向原"},"2580115":{"post_code":"2580115","prefecture":"KANAGAWA KEN","city":"ASHIGARAKAMI GUN YAMAKITA MACHI","town":"YAGA","perfecture_jp":"神奈川県","jp_add_1":"足柄上郡山北町","jp_add_2":"谷ケ"},"2580125":{"post_code":"2580125","prefecture":"KANAGAWA KEN","city":"ASHIGARAKAMI GUN YAMAKITA MACHI","town":"YAMAICHIBA","perfecture_jp":"神奈川県","jp_add_1":"足柄上郡山北町","jp_add_2":"山市場"},"2580113":{"post_code":"2580113","prefecture":"KANAGAWA KEN","city":"ASHIGARAKAMI GUN YAMAKITA MACHI","town":"YAMAKITA","perfecture_jp":"神奈川県","jp_add_1":"足柄上郡山北町","jp_add_2":"山北"},"2580123":{"post_code":"2580123","prefecture":"KANAGAWA KEN","city":"ASHIGARAKAMI GUN YAMAKITA MACHI","town":"YUBURE","perfecture_jp":"神奈川県","jp_add_1":"足柄上郡山北町","jp_add_2":"湯触"},"2580204":{"post_code":"2580204","prefecture":"KANAGAWA KEN","city":"ASHIGARAKAMI GUN YAMAKITA MACHI","town":"YOZUKU","perfecture_jp":"神奈川県","jp_add_1":"足柄上郡山北町","jp_add_2":"世附"},"2580022":{"post_code":"2580022","prefecture":"KANAGAWA KEN","city":"ASHIGARAKAMI GUN KAISEI MACHI","town":"USHIJIMA","perfecture_jp":"神奈川県","jp_add_1":"足柄上郡開成町","jp_add_2":"牛島"},"2580025":{"post_code":"2580025","prefecture":"KANAGAWA KEN","city":"ASHIGARAKAMI GUN KAISEI MACHI","town":"ENTSUJI","perfecture_jp":"神奈川県","jp_add_1":"足柄上郡開成町","jp_add_2":"円通寺"},"2580027":{"post_code":"2580027","prefecture":"KANAGAWA KEN","city":"ASHIGARAKAMI GUN KAISEI MACHI","town":"OKANO","perfecture_jp":"神奈川県","jp_add_1":"足柄上郡開成町","jp_add_2":"岡野"},"2580028":{"post_code":"2580028","prefecture":"KANAGAWA KEN","city":"ASHIGARAKAMI GUN KAISEI MACHI","town":"KANAISHIMA","perfecture_jp":"神奈川県","jp_add_1":"足柄上郡開成町","jp_add_2":"金井島"},"2580024":{"post_code":"2580024","prefecture":"KANAGAWA KEN","city":"ASHIGARAKAMI GUN KAISEI MACHI","town":"NAKANOMYO","perfecture_jp":"神奈川県","jp_add_1":"足柄上郡開成町","jp_add_2":"中之名"},"2580026":{"post_code":"2580026","prefecture":"KANAGAWA KEN","city":"ASHIGARAKAMI GUN KAISEI MACHI","town":"NOBUSAWA","perfecture_jp":"神奈川県","jp_add_1":"足柄上郡開成町","jp_add_2":"延沢"},"2580029":{"post_code":"2580029","prefecture":"KANAGAWA KEN","city":"ASHIGARAKAMI GUN KAISEI MACHI","town":"MINAMI","perfecture_jp":"神奈川県","jp_add_1":"足柄上郡開成町","jp_add_2":"みなみ"},"2580023":{"post_code":"2580023","prefecture":"KANAGAWA KEN","city":"ASHIGARAKAMI GUN KAISEI MACHI","town":"MIYANODAI","perfecture_jp":"神奈川県","jp_add_1":"足柄上郡開成町","jp_add_2":"宮台"},"2580021":{"post_code":"2580021","prefecture":"KANAGAWA KEN","city":"ASHIGARAKAMI GUN KAISEI MACHI","town":"YOSHIDAJIMA","perfecture_jp":"神奈川県","jp_add_1":"足柄上郡開成町","jp_add_2":"吉田島"}}