{"2591214":{"post_code":"2591214","prefecture":"KANAGAWA KEN","city":"HIRATSUKA SHI","town":"IIJIMA","perfecture_jp":"神奈川県","jp_add_1":"平塚市","jp_add_2":"飯島"},"2591216":{"post_code":"2591216","prefecture":"KANAGAWA KEN","city":"HIRATSUKA SHI","town":"INO","perfecture_jp":"神奈川県","jp_add_1":"平塚市","jp_add_2":"入野"},"2591218":{"post_code":"2591218","prefecture":"KANAGAWA KEN","city":"HIRATSUKA SHI","town":"IRIBU","perfecture_jp":"神奈川県","jp_add_1":"平塚市","jp_add_2":"入部"},"2591212":{"post_code":"2591212","prefecture":"KANAGAWA KEN","city":"HIRATSUKA SHI","town":"OKAZAKI","perfecture_jp":"神奈川県","jp_add_1":"平塚市","jp_add_2":"岡崎"},"2591213":{"post_code":"2591213","prefecture":"KANAGAWA KEN","city":"HIRATSUKA SHI","town":"KATAOKA","perfecture_jp":"神奈川県","jp_add_1":"平塚市","jp_add_2":"片岡"},"2591204":{"post_code":"2591204","prefecture":"KANAGAWA KEN","city":"HIRATSUKA SHI","town":"KAMIKICHISAWA","perfecture_jp":"神奈川県","jp_add_1":"平塚市","jp_add_2":"上吉沢"},"2591207":{"post_code":"2591207","prefecture":"KANAGAWA KEN","city":"HIRATSUKA SHI","town":"KITAKANAME","perfecture_jp":"神奈川県","jp_add_1":"平塚市","jp_add_2":"北金目"},"2591206":{"post_code":"2591206","prefecture":"KANAGAWA KEN","city":"HIRATSUKA SHI","town":"SANADA","perfecture_jp":"神奈川県","jp_add_1":"平塚市","jp_add_2":"真田"},"2591203":{"post_code":"2591203","prefecture":"KANAGAWA KEN","city":"HIRATSUKA SHI","town":"SHIMOKICHISAWA","perfecture_jp":"神奈川県","jp_add_1":"平塚市","jp_add_2":"下吉沢"},"2591202":{"post_code":"2591202","prefecture":"KANAGAWA KEN","city":"HIRATSUKA SHI","town":"SENZUYA","perfecture_jp":"神奈川県","jp_add_1":"平塚市","jp_add_2":"千須谷"},"2591205":{"post_code":"2591205","prefecture":"KANAGAWA KEN","city":"HIRATSUKA SHI","town":"TSUCHIYA","perfecture_jp":"神奈川県","jp_add_1":"平塚市","jp_add_2":"土屋"},"2591215":{"post_code":"2591215","prefecture":"KANAGAWA KEN","city":"HIRATSUKA SHI","town":"TERADANAWA","perfecture_jp":"神奈川県","jp_add_1":"平塚市","jp_add_2":"寺田縄"},"2591217":{"post_code":"2591217","prefecture":"KANAGAWA KEN","city":"HIRATSUKA SHI","town":"NAGAMOCHI","perfecture_jp":"神奈川県","jp_add_1":"平塚市","jp_add_2":"長持"},"2591219":{"post_code":"2591219","prefecture":"KANAGAWA KEN","city":"HIRATSUKA SHI","town":"HIROKAWA","perfecture_jp":"神奈川県","jp_add_1":"平塚市","jp_add_2":"広川"},"2591211":{"post_code":"2591211","prefecture":"KANAGAWA KEN","city":"HIRATSUKA SHI","town":"FUJIMINO","perfecture_jp":"神奈川県","jp_add_1":"平塚市","jp_add_2":"ふじみ野"},"2591201":{"post_code":"2591201","prefecture":"KANAGAWA KEN","city":"HIRATSUKA SHI","town":"MINAMIKANAME","perfecture_jp":"神奈川県","jp_add_1":"平塚市","jp_add_2":"南金目"},"2591220":{"post_code":"2591220","prefecture":"KANAGAWA KEN","city":"HIRATSUKA SHI","town":"MEGUMIGAOKA","perfecture_jp":"神奈川県","jp_add_1":"平塚市","jp_add_2":"めぐみが丘"},"2591312":{"post_code":"2591312","prefecture":"KANAGAWA KEN","city":"HADANO SHI","town":"KASUGACHO","perfecture_jp":"神奈川県","jp_add_1":"秦野市","jp_add_2":"春日町"},"2591303":{"post_code":"2591303","prefecture":"KANAGAWA KEN","city":"HADANO SHI","town":"SANYA","perfecture_jp":"神奈川県","jp_add_1":"秦野市","jp_add_2":"三屋"},"2591322":{"post_code":"2591322","prefecture":"KANAGAWA KEN","city":"HADANO SHI","town":"SHIBUSAWA","perfecture_jp":"神奈川県","jp_add_1":"秦野市","jp_add_2":"渋沢"},"2591326":{"post_code":"2591326","prefecture":"KANAGAWA KEN","city":"HADANO SHI","town":"SHIBUSAWAKAMI","perfecture_jp":"神奈川県","jp_add_1":"秦野市","jp_add_2":"渋沢上"},"2591332":{"post_code":"2591332","prefecture":"KANAGAWA KEN","city":"HADANO SHI","town":"SHOBU","perfecture_jp":"神奈川県","jp_add_1":"秦野市","jp_add_2":"菖蒲"},"2591324":{"post_code":"2591324","prefecture":"KANAGAWA KEN","city":"HADANO SHI","town":"CHIMURA","perfecture_jp":"神奈川県","jp_add_1":"秦野市","jp_add_2":"千村"},"2591306":{"post_code":"2591306","prefecture":"KANAGAWA KEN","city":"HADANO SHI","town":"TOKAWA","perfecture_jp":"神奈川県","jp_add_1":"秦野市","jp_add_2":"戸川"},"2591323":{"post_code":"2591323","prefecture":"KANAGAWA KEN","city":"HADANO SHI","town":"TOCHIKUBO(SONOTA)","perfecture_jp":"神奈川県","jp_add_1":"秦野市","jp_add_2":"栃窪"},"2591317":{"post_code":"2591317","prefecture":"KANAGAWA KEN","city":"HADANO SHI","town":"NAMIKICHO","perfecture_jp":"神奈川県","jp_add_1":"秦野市","jp_add_2":"並木町"},"2591316":{"post_code":"2591316","prefecture":"KANAGAWA KEN","city":"HADANO SHI","town":"NUMASHIROSHINCHO","perfecture_jp":"神奈川県","jp_add_1":"秦野市","jp_add_2":"沼代新町"},"2591325":{"post_code":"2591325","prefecture":"KANAGAWA KEN","city":"HADANO SHI","town":"HAGIGAOKA","perfecture_jp":"神奈川県","jp_add_1":"秦野市","jp_add_2":"萩が丘"},"2591333":{"post_code":"2591333","prefecture":"KANAGAWA KEN","city":"HADANO SHI","town":"HASSAWA","perfecture_jp":"神奈川県","jp_add_1":"秦野市","jp_add_2":"八沢"},"2591301":{"post_code":"2591301","prefecture":"KANAGAWA KEN","city":"HADANO SHI","town":"HANE","perfecture_jp":"神奈川県","jp_add_1":"秦野市","jp_add_2":"羽根"},"2591302":{"post_code":"2591302","prefecture":"KANAGAWA KEN","city":"HADANO SHI","town":"BODAI","perfecture_jp":"神奈川県","jp_add_1":"秦野市","jp_add_2":"菩提"},"2591305":{"post_code":"2591305","prefecture":"KANAGAWA KEN","city":"HADANO SHI","town":"HORIKAWA","perfecture_jp":"神奈川県","jp_add_1":"秦野市","jp_add_2":"堀川"},"2591304":{"post_code":"2591304","prefecture":"KANAGAWA KEN","city":"HADANO SHI","town":"HORIYAMASHITA","perfecture_jp":"神奈川県","jp_add_1":"秦野市","jp_add_2":"堀山下"},"2591331":{"post_code":"2591331","prefecture":"KANAGAWA KEN","city":"HADANO SHI","town":"HORINISHI","perfecture_jp":"神奈川県","jp_add_1":"秦野市","jp_add_2":"堀西"},"2591321":{"post_code":"2591321","prefecture":"KANAGAWA KEN","city":"HADANO SHI","town":"MAGARIMATSU","perfecture_jp":"神奈川県","jp_add_1":"秦野市","jp_add_2":"曲松"},"2591313":{"post_code":"2591313","prefecture":"KANAGAWA KEN","city":"HADANO SHI","town":"MATSUBARACHO","perfecture_jp":"神奈川県","jp_add_1":"秦野市","jp_add_2":"松原町"},"2591335":{"post_code":"2591335","prefecture":"KANAGAWA KEN","city":"HADANO SHI","town":"MIKURUBE","perfecture_jp":"神奈川県","jp_add_1":"秦野市","jp_add_2":"三廻部"},"2591334":{"post_code":"2591334","prefecture":"KANAGAWA KEN","city":"HADANO SHI","town":"YANAGAWA","perfecture_jp":"神奈川県","jp_add_1":"秦野市","jp_add_2":"柳川"},"2591315":{"post_code":"2591315","prefecture":"KANAGAWA KEN","city":"HADANO SHI","town":"YANAGICHO","perfecture_jp":"神奈川県","jp_add_1":"秦野市","jp_add_2":"柳町"},"2591311":{"post_code":"2591311","prefecture":"KANAGAWA KEN","city":"HADANO SHI","town":"YAYOICHO","perfecture_jp":"神奈川県","jp_add_1":"秦野市","jp_add_2":"弥生町"},"2591307":{"post_code":"2591307","prefecture":"KANAGAWA KEN","city":"HADANO SHI","town":"YOKONO","perfecture_jp":"神奈川県","jp_add_1":"秦野市","jp_add_2":"横野"},"2591314":{"post_code":"2591314","prefecture":"KANAGAWA KEN","city":"HADANO SHI","town":"WAKAMATSUCHO","perfecture_jp":"神奈川県","jp_add_1":"秦野市","jp_add_2":"若松町"},"2591100":{"post_code":"2591100","prefecture":"KANAGAWA KEN","city":"ISEHARA SHI","town":"IKANIKEISAIGANAIBAAI","perfecture_jp":"神奈川県","jp_add_1":"伊勢原市","jp_add_2":""},"2591113":{"post_code":"2591113","prefecture":"KANAGAWA KEN","city":"ISEHARA SHI","town":"AWAKUBO","perfecture_jp":"神奈川県","jp_add_1":"伊勢原市","jp_add_2":"粟窪"},"2591144":{"post_code":"2591144","prefecture":"KANAGAWA KEN","city":"ISEHARA SHI","town":"IKEBATA","perfecture_jp":"神奈川県","jp_add_1":"伊勢原市","jp_add_2":"池端"},"2591116":{"post_code":"2591116","prefecture":"KANAGAWA KEN","city":"ISEHARA SHI","town":"ISHIDA","perfecture_jp":"神奈川県","jp_add_1":"伊勢原市","jp_add_2":"石田"},"2591131":{"post_code":"2591131","prefecture":"KANAGAWA KEN","city":"ISEHARA SHI","town":"ISEHARA","perfecture_jp":"神奈川県","jp_add_1":"伊勢原市","jp_add_2":"伊勢原"},"2591145":{"post_code":"2591145","prefecture":"KANAGAWA KEN","city":"ISEHARA SHI","town":"ITADO","perfecture_jp":"神奈川県","jp_add_1":"伊勢原市","jp_add_2":"板戸"},"2591128":{"post_code":"2591128","prefecture":"KANAGAWA KEN","city":"ISEHARA SHI","town":"UTAGAWA","perfecture_jp":"神奈川県","jp_add_1":"伊勢原市","jp_add_2":"歌川"},"2591105":{"post_code":"2591105","prefecture":"KANAGAWA KEN","city":"ISEHARA SHI","town":"OSUMIDAI","perfecture_jp":"神奈川県","jp_add_1":"伊勢原市","jp_add_2":"大住台"},"2591107":{"post_code":"2591107","prefecture":"KANAGAWA KEN","city":"ISEHARA SHI","town":"OYAMA","perfecture_jp":"神奈川県","jp_add_1":"伊勢原市","jp_add_2":"大山"},"2591135":{"post_code":"2591135","prefecture":"KANAGAWA KEN","city":"ISEHARA SHI","town":"OKAZAKI","perfecture_jp":"神奈川県","jp_add_1":"伊勢原市","jp_add_2":"岡崎"},"2591137":{"post_code":"2591137","prefecture":"KANAGAWA KEN","city":"ISEHARA SHI","town":"KASAKUBO","perfecture_jp":"神奈川県","jp_add_1":"伊勢原市","jp_add_2":"笠窪"},"2591141":{"post_code":"2591141","prefecture":"KANAGAWA KEN","city":"ISEHARA SHI","town":"KAMIKASUYA","perfecture_jp":"神奈川県","jp_add_1":"伊勢原市","jp_add_2":"上粕屋"},"2591124":{"post_code":"2591124","prefecture":"KANAGAWA KEN","city":"ISEHARA SHI","town":"KAMIHIRAMA","perfecture_jp":"神奈川県","jp_add_1":"伊勢原市","jp_add_2":"上平間"},"2591127":{"post_code":"2591127","prefecture":"KANAGAWA KEN","city":"ISEHARA SHI","town":"KAMIYA","perfecture_jp":"神奈川県","jp_add_1":"伊勢原市","jp_add_2":"上谷"},"2591136":{"post_code":"2591136","prefecture":"KANAGAWA KEN","city":"ISEHARA SHI","town":"KUSHIHASHI","perfecture_jp":"神奈川県","jp_add_1":"伊勢原市","jp_add_2":"串橋"},"2591122":{"post_code":"2591122","prefecture":"KANAGAWA KEN","city":"ISEHARA SHI","town":"KOINABA","perfecture_jp":"神奈川県","jp_add_1":"伊勢原市","jp_add_2":"小稲葉"},"2591138":{"post_code":"2591138","prefecture":"KANAGAWA KEN","city":"ISEHARA SHI","town":"GODO","perfecture_jp":"神奈川県","jp_add_1":"伊勢原市","jp_add_2":"神戸"},"2591102":{"post_code":"2591102","prefecture":"KANAGAWA KEN","city":"ISEHARA SHI","town":"KOYASU","perfecture_jp":"神奈川県","jp_add_1":"伊勢原市","jp_add_2":"子易"},"2591132":{"post_code":"2591132","prefecture":"KANAGAWA KEN","city":"ISEHARA SHI","town":"SAKURADAI","perfecture_jp":"神奈川県","jp_add_1":"伊勢原市","jp_add_2":"桜台"},"2591103":{"post_code":"2591103","prefecture":"KANAGAWA KEN","city":"ISEHARA SHI","town":"SANNOMIYA","perfecture_jp":"神奈川県","jp_add_1":"伊勢原市","jp_add_2":"三ノ宮"},"2591121":{"post_code":"2591121","prefecture":"KANAGAWA KEN","city":"ISEHARA SHI","town":"SHIMOCHIAI","perfecture_jp":"神奈川県","jp_add_1":"伊勢原市","jp_add_2":"下落合"},"2591143":{"post_code":"2591143","prefecture":"KANAGAWA KEN","city":"ISEHARA SHI","town":"SHIMOKASUYA","perfecture_jp":"神奈川県","jp_add_1":"伊勢原市","jp_add_2":"下糟屋"},"2591125":{"post_code":"2591125","prefecture":"KANAGAWA KEN","city":"ISEHARA SHI","town":"SHIMOHIRAMA","perfecture_jp":"神奈川県","jp_add_1":"伊勢原市","jp_add_2":"下平間"},"2591123":{"post_code":"2591123","prefecture":"KANAGAWA KEN","city":"ISEHARA SHI","town":"SHIMOYA","perfecture_jp":"神奈川県","jp_add_1":"伊勢原市","jp_add_2":"下谷"},"2591147":{"post_code":"2591147","prefecture":"KANAGAWA KEN","city":"ISEHARA SHI","town":"SHIRANE","perfecture_jp":"神奈川県","jp_add_1":"伊勢原市","jp_add_2":"白根"},"2591146":{"post_code":"2591146","prefecture":"KANAGAWA KEN","city":"ISEHARA SHI","town":"SUZUKAWA","perfecture_jp":"神奈川県","jp_add_1":"伊勢原市","jp_add_2":"鈴川"},"2591106":{"post_code":"2591106","prefecture":"KANAGAWA KEN","city":"ISEHARA SHI","town":"ZEMBA","perfecture_jp":"神奈川県","jp_add_1":"伊勢原市","jp_add_2":"善波"},"2591114":{"post_code":"2591114","prefecture":"KANAGAWA KEN","city":"ISEHARA SHI","town":"TAKAMORI","perfecture_jp":"神奈川県","jp_add_1":"伊勢原市","jp_add_2":"高森"},"2591115":{"post_code":"2591115","prefecture":"KANAGAWA KEN","city":"ISEHARA SHI","town":"TAKAMORIDAI","perfecture_jp":"神奈川県","jp_add_1":"伊勢原市","jp_add_2":"高森台"},"2591142":{"post_code":"2591142","prefecture":"KANAGAWA KEN","city":"ISEHARA SHI","town":"TANAKA","perfecture_jp":"神奈川県","jp_add_1":"伊勢原市","jp_add_2":"田中"},"2591104":{"post_code":"2591104","prefecture":"KANAGAWA KEN","city":"ISEHARA SHI","town":"TSUBONOCHI","perfecture_jp":"神奈川県","jp_add_1":"伊勢原市","jp_add_2":"坪ノ内"},"2591111":{"post_code":"2591111","prefecture":"KANAGAWA KEN","city":"ISEHARA SHI","town":"NISHITOMIOKA","perfecture_jp":"神奈川県","jp_add_1":"伊勢原市","jp_add_2":"西富岡"},"2591126":{"post_code":"2591126","prefecture":"KANAGAWA KEN","city":"ISEHARA SHI","town":"NUMAME","perfecture_jp":"神奈川県","jp_add_1":"伊勢原市","jp_add_2":"沼目"},"2591134":{"post_code":"2591134","prefecture":"KANAGAWA KEN","city":"ISEHARA SHI","town":"HACHIMANDAI","perfecture_jp":"神奈川県","jp_add_1":"伊勢原市","jp_add_2":"八幡台"},"2591133":{"post_code":"2591133","prefecture":"KANAGAWA KEN","city":"ISEHARA SHI","town":"HIGASHIODAKE","perfecture_jp":"神奈川県","jp_add_1":"伊勢原市","jp_add_2":"東大竹"},"2591112":{"post_code":"2591112","prefecture":"KANAGAWA KEN","city":"ISEHARA SHI","town":"HIGASHITOMIOKA","perfecture_jp":"神奈川県","jp_add_1":"伊勢原市","jp_add_2":"東富岡"},"2591117":{"post_code":"2591117","prefecture":"KANAGAWA KEN","city":"ISEHARA SHI","town":"HIGASHINARUSE","perfecture_jp":"神奈川県","jp_add_1":"伊勢原市","jp_add_2":"東成瀬"},"2591101":{"post_code":"2591101","prefecture":"KANAGAWA KEN","city":"ISEHARA SHI","town":"HINATA","perfecture_jp":"神奈川県","jp_add_1":"伊勢原市","jp_add_2":"日向"},"2591118":{"post_code":"2591118","prefecture":"KANAGAWA KEN","city":"ISEHARA SHI","town":"MITSUKEJIMA","perfecture_jp":"神奈川県","jp_add_1":"伊勢原市","jp_add_2":"見附島"},"2590102":{"post_code":"2590102","prefecture":"KANAGAWA KEN","city":"NAKA GUN OISO MACHI","town":"IKUSAWA","perfecture_jp":"神奈川県","jp_add_1":"中郡大磯町","jp_add_2":"生沢"},"2590113":{"post_code":"2590113","prefecture":"KANAGAWA KEN","city":"NAKA GUN OISO MACHI","town":"ISHIGAMIDAI","perfecture_jp":"神奈川県","jp_add_1":"中郡大磯町","jp_add_2":"石神台"},"2590114":{"post_code":"2590114","prefecture":"KANAGAWA KEN","city":"NAKA GUN OISO MACHI","town":"GAKKYO","perfecture_jp":"神奈川県","jp_add_1":"中郡大磯町","jp_add_2":"月京"},"2590105":{"post_code":"2590105","prefecture":"KANAGAWA KEN","city":"NAKA GUN OISO MACHI","town":"KUROIWA","perfecture_jp":"神奈川県","jp_add_1":"中郡大磯町","jp_add_2":"黒岩"},"2590112":{"post_code":"2590112","prefecture":"KANAGAWA KEN","city":"NAKA GUN OISO MACHI","town":"KOKUFUSHINSHUKU","perfecture_jp":"神奈川県","jp_add_1":"中郡大磯町","jp_add_2":"国府新宿"},"2590111":{"post_code":"2590111","prefecture":"KANAGAWA KEN","city":"NAKA GUN OISO MACHI","town":"KOKUFUHONGO","perfecture_jp":"神奈川県","jp_add_1":"中郡大磯町","jp_add_2":"国府本郷"},"2590101":{"post_code":"2590101","prefecture":"KANAGAWA KEN","city":"NAKA GUN OISO MACHI","town":"TERASAKA","perfecture_jp":"神奈川県","jp_add_1":"中郡大磯町","jp_add_2":"寺坂"},"2590104":{"post_code":"2590104","prefecture":"KANAGAWA KEN","city":"NAKA GUN OISO MACHI","town":"NISHIKUBO","perfecture_jp":"神奈川県","jp_add_1":"中郡大磯町","jp_add_2":"西久保"},"2590103":{"post_code":"2590103","prefecture":"KANAGAWA KEN","city":"NAKA GUN OISO MACHI","town":"MUSHIKUBO","perfecture_jp":"神奈川県","jp_add_1":"中郡大磯町","jp_add_2":"虫窪"},"2590100":{"post_code":"2590100","prefecture":"KANAGAWA KEN","city":"ASHIGARAKAMI GUN NAKAI MACHI","town":"IKANIKEISAIGANAIBAAI","perfecture_jp":"神奈川県","jp_add_1":"中郡二宮町","jp_add_2":""},"2590134":{"post_code":"2590134","prefecture":"KANAGAWA KEN","city":"NAKA GUN NINOMIYA MACHI","town":"ISHIKI","perfecture_jp":"神奈川県","jp_add_1":"中郡二宮町","jp_add_2":"一色"},"2590125":{"post_code":"2590125","prefecture":"KANAGAWA KEN","city":"NAKA GUN NINOMIYA MACHI","town":"KAWAWA","perfecture_jp":"神奈川県","jp_add_1":"中郡二宮町","jp_add_2":"川匂"},"2590131":{"post_code":"2590131","prefecture":"KANAGAWA KEN","city":"NAKA GUN NINOMIYA MACHI","town":"NAKAZATO","perfecture_jp":"神奈川県","jp_add_1":"中郡二宮町","jp_add_2":"中里"},"2590123":{"post_code":"2590123","prefecture":"KANAGAWA KEN","city":"NAKA GUN NINOMIYA MACHI","town":"NINOMIYA","perfecture_jp":"神奈川県","jp_add_1":"中郡二宮町","jp_add_2":"二宮"},"2590122":{"post_code":"2590122","prefecture":"KANAGAWA KEN","city":"NAKA GUN NINOMIYA MACHI","town":"FUJIMIGAOKA","perfecture_jp":"神奈川県","jp_add_1":"中郡二宮町","jp_add_2":"富士見が丘"},"2590121":{"post_code":"2590121","prefecture":"KANAGAWA KEN","city":"NAKA GUN NINOMIYA MACHI","town":"MATSUNE","perfecture_jp":"神奈川県","jp_add_1":"中郡二宮町","jp_add_2":"松根"},"2590132":{"post_code":"2590132","prefecture":"KANAGAWA KEN","city":"NAKA GUN NINOMIYA MACHI","town":"MIDORIGAOKA","perfecture_jp":"神奈川県","jp_add_1":"中郡二宮町","jp_add_2":"緑が丘"},"2590124":{"post_code":"2590124","prefecture":"KANAGAWA KEN","city":"NAKA GUN NINOMIYA MACHI","town":"YAMANISHI","perfecture_jp":"神奈川県","jp_add_1":"中郡二宮町","jp_add_2":"山西"},"2590133":{"post_code":"2590133","prefecture":"KANAGAWA KEN","city":"NAKA GUN NINOMIYA MACHI","town":"YURIGAOKA","perfecture_jp":"神奈川県","jp_add_1":"中郡二宮町","jp_add_2":"百合が丘"},"2590151":{"post_code":"2590151","prefecture":"KANAGAWA KEN","city":"ASHIGARAKAMI GUN NAKAI MACHI","town":"INOKUCHI","perfecture_jp":"神奈川県","jp_add_1":"足柄上郡中井町","jp_add_2":"井ノ口"},"2590154":{"post_code":"2590154","prefecture":"KANAGAWA KEN","city":"ASHIGARAKAMI GUN NAKAI MACHI","town":"IWAKURA","perfecture_jp":"神奈川県","jp_add_1":"足柄上郡中井町","jp_add_2":"岩倉"},"2590141":{"post_code":"2590141","prefecture":"KANAGAWA KEN","city":"ASHIGARAKAMI GUN NAKAI MACHI","town":"ENDO","perfecture_jp":"神奈川県","jp_add_1":"足柄上郡中井町","jp_add_2":"遠藤"},"2590147":{"post_code":"2590147","prefecture":"KANAGAWA KEN","city":"ASHIGARAKAMI GUN NAKAI MACHI","town":"KAMOZAWA","perfecture_jp":"神奈川県","jp_add_1":"足柄上郡中井町","jp_add_2":"鴨沢"},"2590143":{"post_code":"2590143","prefecture":"KANAGAWA KEN","city":"ASHIGARAKAMI GUN NAKAI MACHI","town":"KITADA","perfecture_jp":"神奈川県","jp_add_1":"足柄上郡中井町","jp_add_2":"北田"},"2590142":{"post_code":"2590142","prefecture":"KANAGAWA KEN","city":"ASHIGARAKAMI GUN NAKAI MACHI","town":"GUZO","perfecture_jp":"神奈川県","jp_add_1":"足柄上郡中井町","jp_add_2":"久所"},"2590146":{"post_code":"2590146","prefecture":"KANAGAWA KEN","city":"ASHIGARAKAMI GUN NAKAI MACHI","town":"KONUTA","perfecture_jp":"神奈川県","jp_add_1":"足柄上郡中井町","jp_add_2":"古怒田"},"2590157":{"post_code":"2590157","prefecture":"KANAGAWA KEN","city":"ASHIGARAKAMI GUN NAKAI MACHI","town":"SAKAI","perfecture_jp":"神奈川県","jp_add_1":"足柄上郡中井町","jp_add_2":"境"},"2590156":{"post_code":"2590156","prefecture":"KANAGAWA KEN","city":"ASHIGARAKAMI GUN NAKAI MACHI","town":"SAKAIBESSHO","perfecture_jp":"神奈川県","jp_add_1":"足柄上郡中井町","jp_add_2":"境別所"},"2590148":{"post_code":"2590148","prefecture":"KANAGAWA KEN","city":"ASHIGARAKAMI GUN NAKAI MACHI","town":"ZOSHIKI","perfecture_jp":"神奈川県","jp_add_1":"足柄上郡中井町","jp_add_2":"雑色"},"2590145":{"post_code":"2590145","prefecture":"KANAGAWA KEN","city":"ASHIGARAKAMI GUN NAKAI MACHI","town":"TANAKA","perfecture_jp":"神奈川県","jp_add_1":"足柄上郡中井町","jp_add_2":"田中"},"2590144":{"post_code":"2590144","prefecture":"KANAGAWA KEN","city":"ASHIGARAKAMI GUN NAKAI MACHI","town":"HABUGATA","perfecture_jp":"神奈川県","jp_add_1":"足柄上郡中井町","jp_add_2":"半分形"},"2590153":{"post_code":"2590153","prefecture":"KANAGAWA KEN","city":"ASHIGARAKAMI GUN NAKAI MACHI","town":"HINAKUBO","perfecture_jp":"神奈川県","jp_add_1":"足柄上郡中井町","jp_add_2":"比奈窪"},"2590152":{"post_code":"2590152","prefecture":"KANAGAWA KEN","city":"ASHIGARAKAMI GUN NAKAI MACHI","town":"FUJISAWA","perfecture_jp":"神奈川県","jp_add_1":"足柄上郡中井町","jp_add_2":"藤沢"},"2590155":{"post_code":"2590155","prefecture":"KANAGAWA KEN","city":"ASHIGARAKAMI GUN NAKAI MACHI","town":"MATSUMOTO","perfecture_jp":"神奈川県","jp_add_1":"足柄上郡中井町","jp_add_2":"松本"},"2590200":{"post_code":"2590200","prefecture":"KANAGAWA KEN","city":"ASHIGARASHIMO GUN MANAZURU MACHI","town":"IKANIKEISAIGANAIBAAI","perfecture_jp":"神奈川県","jp_add_1":"足柄下郡真鶴町","jp_add_2":""},"2590202":{"post_code":"2590202","prefecture":"KANAGAWA KEN","city":"ASHIGARASHIMO GUN MANAZURU MACHI","town":"IWA","perfecture_jp":"神奈川県","jp_add_1":"足柄下郡真鶴町","jp_add_2":"岩"},"2590201":{"post_code":"2590201","prefecture":"KANAGAWA KEN","city":"ASHIGARASHIMO GUN MANAZURU MACHI","town":"MANATSURU","perfecture_jp":"神奈川県","jp_add_1":"足柄下郡真鶴町","jp_add_2":"真鶴"},"2590300":{"post_code":"2590300","prefecture":"KANAGAWA KEN","city":"ASHIGARASHIMO GUN YUGAWARA MACHI","town":"IKANIKEISAIGANAIBAAI","perfecture_jp":"神奈川県","jp_add_1":"足柄下郡湯河原町","jp_add_2":""},"2590313":{"post_code":"2590313","prefecture":"KANAGAWA KEN","city":"ASHIGARASHIMO GUN YUGAWARA MACHI","town":"KAJIYA","perfecture_jp":"神奈川県","jp_add_1":"足柄下郡湯河原町","jp_add_2":"鍛冶屋"},"2590305":{"post_code":"2590305","prefecture":"KANAGAWA KEN","city":"ASHIGARASHIMO GUN YUGAWARA MACHI","town":"SHIROHORI","perfecture_jp":"神奈川県","jp_add_1":"足柄下郡湯河原町","jp_add_2":"城堀"},"2590301":{"post_code":"2590301","prefecture":"KANAGAWA KEN","city":"ASHIGARASHIMO GUN YUGAWARA MACHI","town":"CHUO","perfecture_jp":"神奈川県","jp_add_1":"足柄下郡湯河原町","jp_add_2":"中央"},"2590303":{"post_code":"2590303","prefecture":"KANAGAWA KEN","city":"ASHIGARASHIMO GUN YUGAWARA MACHI","town":"DOI","perfecture_jp":"神奈川県","jp_add_1":"足柄下郡湯河原町","jp_add_2":"土肥"},"2590311":{"post_code":"2590311","prefecture":"KANAGAWA KEN","city":"ASHIGARASHIMO GUN YUGAWARA MACHI","town":"FUKURA","perfecture_jp":"神奈川県","jp_add_1":"足柄下郡湯河原町","jp_add_2":"福浦"},"2590317":{"post_code":"2590317","prefecture":"KANAGAWA KEN","city":"ASHIGARASHIMO GUN YUGAWARA MACHI","town":"FUKURA KAJIYA","perfecture_jp":"神奈川県","jp_add_1":"足柄下郡湯河原町","jp_add_2":"福浦鍛冶屋"},"2590316":{"post_code":"2590316","prefecture":"KANAGAWA KEN","city":"ASHIGARASHIMO GUN YUGAWARA MACHI","town":"FUKURA YOSHIHAMA","perfecture_jp":"神奈川県","jp_add_1":"足柄下郡湯河原町","jp_add_2":"福浦吉浜"},"2590314":{"post_code":"2590314","prefecture":"KANAGAWA KEN","city":"ASHIGARASHIMO GUN YUGAWARA MACHI","town":"MIYAKAMI","perfecture_jp":"神奈川県","jp_add_1":"足柄下郡湯河原町","jp_add_2":"宮上"},"2590304":{"post_code":"2590304","prefecture":"KANAGAWA KEN","city":"ASHIGARASHIMO GUN YUGAWARA MACHI","town":"MIYASHITA","perfecture_jp":"神奈川県","jp_add_1":"足柄下郡湯河原町","jp_add_2":"宮下"},"2590302":{"post_code":"2590302","prefecture":"KANAGAWA KEN","city":"ASHIGARASHIMO GUN YUGAWARA MACHI","town":"MONGAWA","perfecture_jp":"神奈川県","jp_add_1":"足柄下郡湯河原町","jp_add_2":"門川"},"2590312":{"post_code":"2590312","prefecture":"KANAGAWA KEN","city":"ASHIGARASHIMO GUN YUGAWARA MACHI","town":"YOSHIHAMA","perfecture_jp":"神奈川県","jp_add_1":"足柄下郡湯河原町","jp_add_2":"吉浜"},"2590318":{"post_code":"2590318","prefecture":"KANAGAWA KEN","city":"ASHIGARASHIMO GUN YUGAWARA MACHI","town":"YOSHIHAMA FUKURA","perfecture_jp":"神奈川県","jp_add_1":"足柄下郡湯河原町","jp_add_2":"吉浜福浦"}}