{"2610000":{"post_code":"2610000","prefecture":"CHIBA KEN","city":"CHIBA SHI MIHAMA KU","town":"IKANIKEISAIGANAIBAAI","perfecture_jp":"千葉県","jp_add_1":"千葉市美浜区","jp_add_2":""},"2610012":{"post_code":"2610012","prefecture":"CHIBA KEN","city":"CHIBA SHI MIHAMA KU","town":"ISOBE","perfecture_jp":"千葉県","jp_add_1":"千葉市美浜区","jp_add_2":"磯辺"},"2610005":{"post_code":"2610005","prefecture":"CHIBA KEN","city":"CHIBA SHI MIHAMA KU","town":"INAGEKAIGAN","perfecture_jp":"千葉県","jp_add_1":"千葉市美浜区","jp_add_2":"稲毛海岸"},"2610013":{"post_code":"2610013","prefecture":"CHIBA KEN","city":"CHIBA SHI MIHAMA KU","town":"UTASE","perfecture_jp":"千葉県","jp_add_1":"千葉市美浜区","jp_add_2":"打瀬"},"2610001":{"post_code":"2610001","prefecture":"CHIBA KEN","city":"CHIBA SHI MIHAMA KU","town":"SAIWAICHO","perfecture_jp":"千葉県","jp_add_1":"千葉市美浜区","jp_add_2":"幸町"},"2610002":{"post_code":"2610002","prefecture":"CHIBA KEN","city":"CHIBA SHI MIHAMA KU","town":"SHIMMINATO","perfecture_jp":"千葉県","jp_add_1":"千葉市美浜区","jp_add_2":"新港"},"2610004":{"post_code":"2610004","prefecture":"CHIBA KEN","city":"CHIBA SHI MIHAMA KU","town":"TAKASU","perfecture_jp":"千葉県","jp_add_1":"千葉市美浜区","jp_add_2":"高洲"},"2610003":{"post_code":"2610003","prefecture":"CHIBA KEN","city":"CHIBA SHI MIHAMA KU","town":"TAKAHAMA","perfecture_jp":"千葉県","jp_add_1":"千葉市美浜区","jp_add_2":"高浜"},"2610024":{"post_code":"2610024","prefecture":"CHIBA KEN","city":"CHIBA SHI MIHAMA KU","town":"TOYOSUNA","perfecture_jp":"千葉県","jp_add_1":"千葉市美浜区","jp_add_2":"豊砂"},"2610023":{"post_code":"2610023","prefecture":"CHIBA KEN","city":"CHIBA SHI MIHAMA KU","town":"NAKASE (TSUGINOBIRUONOZOKU)","perfecture_jp":"千葉県","jp_add_1":"千葉市美浜区","jp_add_2":"中瀬"},"2617190":{"post_code":"2617190","prefecture":"CHIBA KEN","city":"CHIBA SHI MIHAMA KU","town":"NAKASE WARUDOBIJINESUGADEN(CHIKAI.K","perfecture_jp":"千葉県","jp_add_1":"千葉市美浜区","jp_add_2":"中瀬ワールドビジネスガーデン"},"2617101":{"post_code":"2617101","prefecture":"CHIBA KEN","city":"CHIBA SHI MIHAMA KU","town":"NAKASE WARUDOBIJINESUGADEN(1-KAI)","perfecture_jp":"千葉県","jp_add_1":"千葉市美浜区","jp_add_2":"中瀬ワールドビジネスガーデン１階"},"2617102":{"post_code":"2617102","prefecture":"CHIBA KEN","city":"CHIBA SHI MIHAMA KU","town":"NAKASE WARUDOBIJINESUGADEN(2-KAI)","perfecture_jp":"千葉県","jp_add_1":"千葉市美浜区","jp_add_2":"中瀬ワールドビジネスガーデン２階"},"2617103":{"post_code":"2617103","prefecture":"CHIBA KEN","city":"CHIBA SHI MIHAMA KU","town":"NAKASE WARUDOBIJINESUGADEN(3-KAI)","perfecture_jp":"千葉県","jp_add_1":"千葉市美浜区","jp_add_2":"中瀬ワールドビジネスガーデン３階"},"2617104":{"post_code":"2617104","prefecture":"CHIBA KEN","city":"CHIBA SHI MIHAMA KU","town":"NAKASE WARUDOBIJINESUGADEN(4-KAI)","perfecture_jp":"千葉県","jp_add_1":"千葉市美浜区","jp_add_2":"中瀬ワールドビジネスガーデン４階"},"2617105":{"post_code":"2617105","prefecture":"CHIBA KEN","city":"CHIBA SHI MIHAMA KU","town":"NAKASE WARUDOBIJINESUGADEN(5-KAI)","perfecture_jp":"千葉県","jp_add_1":"千葉市美浜区","jp_add_2":"中瀬ワールドビジネスガーデン５階"},"2617106":{"post_code":"2617106","prefecture":"CHIBA KEN","city":"CHIBA SHI MIHAMA KU","town":"NAKASE WARUDOBIJINESUGADEN(6-KAI)","perfecture_jp":"千葉県","jp_add_1":"千葉市美浜区","jp_add_2":"中瀬ワールドビジネスガーデン６階"},"2617107":{"post_code":"2617107","prefecture":"CHIBA KEN","city":"CHIBA SHI MIHAMA KU","town":"NAKASE WARUDOBIJINESUGADEN(7-KAI)","perfecture_jp":"千葉県","jp_add_1":"千葉市美浜区","jp_add_2":"中瀬ワールドビジネスガーデン７階"},"2617108":{"post_code":"2617108","prefecture":"CHIBA KEN","city":"CHIBA SHI MIHAMA KU","town":"NAKASE WARUDOBIJINESUGADEN(8-KAI)","perfecture_jp":"千葉県","jp_add_1":"千葉市美浜区","jp_add_2":"中瀬ワールドビジネスガーデン８階"},"2617109":{"post_code":"2617109","prefecture":"CHIBA KEN","city":"CHIBA SHI MIHAMA KU","town":"NAKASE WARUDOBIJINESUGADEN(9-KAI)","perfecture_jp":"千葉県","jp_add_1":"千葉市美浜区","jp_add_2":"中瀬ワールドビジネスガーデン９階"},"2617110":{"post_code":"2617110","prefecture":"CHIBA KEN","city":"CHIBA SHI MIHAMA KU","town":"NAKASE WARUDOBIJINESUGADEN(10-KAI)","perfecture_jp":"千葉県","jp_add_1":"千葉市美浜区","jp_add_2":"中瀬ワールドビジネスガーデン１０階"},"2617111":{"post_code":"2617111","prefecture":"CHIBA KEN","city":"CHIBA SHI MIHAMA KU","town":"NAKASE WARUDOBIJINESUGADEN(11-KAI)","perfecture_jp":"千葉県","jp_add_1":"千葉市美浜区","jp_add_2":"中瀬ワールドビジネスガーデン１１階"},"2617112":{"post_code":"2617112","prefecture":"CHIBA KEN","city":"CHIBA SHI MIHAMA KU","town":"NAKASE WARUDOBIJINESUGADEN(12-KAI)","perfecture_jp":"千葉県","jp_add_1":"千葉市美浜区","jp_add_2":"中瀬ワールドビジネスガーデン１２階"},"2617113":{"post_code":"2617113","prefecture":"CHIBA KEN","city":"CHIBA SHI MIHAMA KU","town":"NAKASE WARUDOBIJINESUGADEN(13-KAI)","perfecture_jp":"千葉県","jp_add_1":"千葉市美浜区","jp_add_2":"中瀬ワールドビジネスガーデン１３階"},"2617114":{"post_code":"2617114","prefecture":"CHIBA KEN","city":"CHIBA SHI MIHAMA KU","town":"NAKASE WARUDOBIJINESUGADEN(14-KAI)","perfecture_jp":"千葉県","jp_add_1":"千葉市美浜区","jp_add_2":"中瀬ワールドビジネスガーデン１４階"},"2617115":{"post_code":"2617115","prefecture":"CHIBA KEN","city":"CHIBA SHI MIHAMA KU","town":"NAKASE WARUDOBIJINESUGADEN(15-KAI)","perfecture_jp":"千葉県","jp_add_1":"千葉市美浜区","jp_add_2":"中瀬ワールドビジネスガーデン１５階"},"2617116":{"post_code":"2617116","prefecture":"CHIBA KEN","city":"CHIBA SHI MIHAMA KU","town":"NAKASE WARUDOBIJINESUGADEN(16-KAI)","perfecture_jp":"千葉県","jp_add_1":"千葉市美浜区","jp_add_2":"中瀬ワールドビジネスガーデン１６階"},"2617117":{"post_code":"2617117","prefecture":"CHIBA KEN","city":"CHIBA SHI MIHAMA KU","town":"NAKASE WARUDOBIJINESUGADEN(17-KAI)","perfecture_jp":"千葉県","jp_add_1":"千葉市美浜区","jp_add_2":"中瀬ワールドビジネスガーデン１７階"},"2617118":{"post_code":"2617118","prefecture":"CHIBA KEN","city":"CHIBA SHI MIHAMA KU","town":"NAKASE WARUDOBIJINESUGADEN(18-KAI)","perfecture_jp":"千葉県","jp_add_1":"千葉市美浜区","jp_add_2":"中瀬ワールドビジネスガーデン１８階"},"2617119":{"post_code":"2617119","prefecture":"CHIBA KEN","city":"CHIBA SHI MIHAMA KU","town":"NAKASE WARUDOBIJINESUGADEN(19-KAI)","perfecture_jp":"千葉県","jp_add_1":"千葉市美浜区","jp_add_2":"中瀬ワールドビジネスガーデン１９階"},"2617120":{"post_code":"2617120","prefecture":"CHIBA KEN","city":"CHIBA SHI MIHAMA KU","town":"NAKASE WARUDOBIJINESUGADEN(20-KAI)","perfecture_jp":"千葉県","jp_add_1":"千葉市美浜区","jp_add_2":"中瀬ワールドビジネスガーデン２０階"},"2617121":{"post_code":"2617121","prefecture":"CHIBA KEN","city":"CHIBA SHI MIHAMA KU","town":"NAKASE WARUDOBIJINESUGADEN(21-KAI)","perfecture_jp":"千葉県","jp_add_1":"千葉市美浜区","jp_add_2":"中瀬ワールドビジネスガーデン２１階"},"2617122":{"post_code":"2617122","prefecture":"CHIBA KEN","city":"CHIBA SHI MIHAMA KU","town":"NAKASE WARUDOBIJINESUGADEN(22-KAI)","perfecture_jp":"千葉県","jp_add_1":"千葉市美浜区","jp_add_2":"中瀬ワールドビジネスガーデン２２階"},"2617123":{"post_code":"2617123","prefecture":"CHIBA KEN","city":"CHIBA SHI MIHAMA KU","town":"NAKASE WARUDOBIJINESUGADEN(23-KAI)","perfecture_jp":"千葉県","jp_add_1":"千葉市美浜区","jp_add_2":"中瀬ワールドビジネスガーデン２３階"},"2617124":{"post_code":"2617124","prefecture":"CHIBA KEN","city":"CHIBA SHI MIHAMA KU","town":"NAKASE WARUDOBIJINESUGADEN(24-KAI)","perfecture_jp":"千葉県","jp_add_1":"千葉市美浜区","jp_add_2":"中瀬ワールドビジネスガーデン２４階"},"2617125":{"post_code":"2617125","prefecture":"CHIBA KEN","city":"CHIBA SHI MIHAMA KU","town":"NAKASE WARUDOBIJINESUGADEN(25-KAI)","perfecture_jp":"千葉県","jp_add_1":"千葉市美浜区","jp_add_2":"中瀬ワールドビジネスガーデン２５階"},"2617126":{"post_code":"2617126","prefecture":"CHIBA KEN","city":"CHIBA SHI MIHAMA KU","town":"NAKASE WARUDOBIJINESUGADEN(26-KAI)","perfecture_jp":"千葉県","jp_add_1":"千葉市美浜区","jp_add_2":"中瀬ワールドビジネスガーデン２６階"},"2617127":{"post_code":"2617127","prefecture":"CHIBA KEN","city":"CHIBA SHI MIHAMA KU","town":"NAKASE WARUDOBIJINESUGADEN(27-KAI)","perfecture_jp":"千葉県","jp_add_1":"千葉市美浜区","jp_add_2":"中瀬ワールドビジネスガーデン２７階"},"2617128":{"post_code":"2617128","prefecture":"CHIBA KEN","city":"CHIBA SHI MIHAMA KU","town":"NAKASE WARUDOBIJINESUGADEN(28-KAI)","perfecture_jp":"千葉県","jp_add_1":"千葉市美浜区","jp_add_2":"中瀬ワールドビジネスガーデン２８階"},"2617129":{"post_code":"2617129","prefecture":"CHIBA KEN","city":"CHIBA SHI MIHAMA KU","town":"NAKASE WARUDOBIJINESUGADEN(29-KAI)","perfecture_jp":"千葉県","jp_add_1":"千葉市美浜区","jp_add_2":"中瀬ワールドビジネスガーデン２９階"},"2617130":{"post_code":"2617130","prefecture":"CHIBA KEN","city":"CHIBA SHI MIHAMA KU","town":"NAKASE WARUDOBIJINESUGADEN(30-KAI)","perfecture_jp":"千葉県","jp_add_1":"千葉市美浜区","jp_add_2":"中瀬ワールドビジネスガーデン３０階"},"2617131":{"post_code":"2617131","prefecture":"CHIBA KEN","city":"CHIBA SHI MIHAMA KU","town":"NAKASE WARUDOBIJINESUGADEN(31-KAI)","perfecture_jp":"千葉県","jp_add_1":"千葉市美浜区","jp_add_2":"中瀬ワールドビジネスガーデン３１階"},"2617132":{"post_code":"2617132","prefecture":"CHIBA KEN","city":"CHIBA SHI MIHAMA KU","town":"NAKASE WARUDOBIJINESUGADEN(32-KAI)","perfecture_jp":"千葉県","jp_add_1":"千葉市美浜区","jp_add_2":"中瀬ワールドビジネスガーデン３２階"},"2617133":{"post_code":"2617133","prefecture":"CHIBA KEN","city":"CHIBA SHI MIHAMA KU","town":"NAKASE WARUDOBIJINESUGADEN(33-KAI)","perfecture_jp":"千葉県","jp_add_1":"千葉市美浜区","jp_add_2":"中瀬ワールドビジネスガーデン３３階"},"2617134":{"post_code":"2617134","prefecture":"CHIBA KEN","city":"CHIBA SHI MIHAMA KU","town":"NAKASE WARUDOBIJINESUGADEN(34-KAI)","perfecture_jp":"千葉県","jp_add_1":"千葉市美浜区","jp_add_2":"中瀬ワールドビジネスガーデン３４階"},"2617135":{"post_code":"2617135","prefecture":"CHIBA KEN","city":"CHIBA SHI MIHAMA KU","town":"NAKASE WARUDOBIJINESUGADEN(35-KAI)","perfecture_jp":"千葉県","jp_add_1":"千葉市美浜区","jp_add_2":"中瀬ワールドビジネスガーデン３５階"},"2610025":{"post_code":"2610025","prefecture":"CHIBA KEN","city":"CHIBA SHI MIHAMA KU","town":"HAMADA","perfecture_jp":"千葉県","jp_add_1":"千葉市美浜区","jp_add_2":"浜田"},"2610021":{"post_code":"2610021","prefecture":"CHIBA KEN","city":"CHIBA SHI MIHAMA KU","town":"HIBINO","perfecture_jp":"千葉県","jp_add_1":"千葉市美浜区","jp_add_2":"ひび野"},"2610026":{"post_code":"2610026","prefecture":"CHIBA KEN","city":"CHIBA SHI MIHAMA KU","town":"MAKUHARINISHI","perfecture_jp":"千葉県","jp_add_1":"千葉市美浜区","jp_add_2":"幕張西"},"2610011":{"post_code":"2610011","prefecture":"CHIBA KEN","city":"CHIBA SHI MIHAMA KU","town":"MASAGO","perfecture_jp":"千葉県","jp_add_1":"千葉市美浜区","jp_add_2":"真砂"},"2610022":{"post_code":"2610022","prefecture":"CHIBA KEN","city":"CHIBA SHI MIHAMA KU","town":"MIHAMA","perfecture_jp":"千葉県","jp_add_1":"千葉市美浜区","jp_add_2":"美浜"},"2610014":{"post_code":"2610014","prefecture":"CHIBA KEN","city":"CHIBA SHI MIHAMA KU","town":"WAKABA","perfecture_jp":"千葉県","jp_add_1":"千葉市美浜区","jp_add_2":"若葉"}}