{"2640000":{"post_code":"2640000","prefecture":"CHIBA KEN","city":"CHIBA SHI WAKABA KU","town":"IKANIKEISAIGANAIBAAI","perfecture_jp":"千葉県","jp_add_1":"千葉市若葉区","jp_add_2":""},"2640031":{"post_code":"2640031","prefecture":"CHIBA KEN","city":"CHIBA SHI WAKABA KU","town":"AIOICHO","perfecture_jp":"千葉県","jp_add_1":"千葉市若葉区","jp_add_2":"愛生町"},"2640011":{"post_code":"2640011","prefecture":"CHIBA KEN","city":"CHIBA SHI WAKABA KU","town":"OKUSACHO","perfecture_jp":"千葉県","jp_add_1":"千葉市若葉区","jp_add_2":"大草町"},"2640013":{"post_code":"2640013","prefecture":"CHIBA KEN","city":"CHIBA SHI WAKABA KU","town":"OTACHO","perfecture_jp":"千葉県","jp_add_1":"千葉市若葉区","jp_add_2":"太田町"},"2640015":{"post_code":"2640015","prefecture":"CHIBA KEN","city":"CHIBA SHI WAKABA KU","town":"OMIYADAI","perfecture_jp":"千葉県","jp_add_1":"千葉市若葉区","jp_add_2":"大宮台"},"2640016":{"post_code":"2640016","prefecture":"CHIBA KEN","city":"CHIBA SHI WAKABA KU","town":"OMIYACHO","perfecture_jp":"千葉県","jp_add_1":"千葉市若葉区","jp_add_2":"大宮町"},"2640006":{"post_code":"2640006","prefecture":"CHIBA KEN","city":"CHIBA SHI WAKABA KU","town":"OGURADAI","perfecture_jp":"千葉県","jp_add_1":"千葉市若葉区","jp_add_2":"小倉台"},"2640007":{"post_code":"2640007","prefecture":"CHIBA KEN","city":"CHIBA SHI WAKABA KU","town":"OGURACHO","perfecture_jp":"千葉県","jp_add_1":"千葉市若葉区","jp_add_2":"小倉町"},"2640020":{"post_code":"2640020","prefecture":"CHIBA KEN","city":"CHIBA SHI WAKABA KU","town":"KAIZUKA","perfecture_jp":"千葉県","jp_add_1":"千葉市若葉区","jp_add_2":"貝塚"},"2640023":{"post_code":"2640023","prefecture":"CHIBA KEN","city":"CHIBA SHI WAKABA KU","town":"KAIZUKACHO","perfecture_jp":"千葉県","jp_add_1":"千葉市若葉区","jp_add_2":"貝塚町"},"2640017":{"post_code":"2640017","prefecture":"CHIBA KEN","city":"CHIBA SHI WAKABA KU","town":"KASORICHO","perfecture_jp":"千葉県","jp_add_1":"千葉市若葉区","jp_add_2":"加曽利町"},"2640001":{"post_code":"2640001","prefecture":"CHIBA KEN","city":"CHIBA SHI WAKABA KU","town":"KANEOYACHO","perfecture_jp":"千葉県","jp_add_1":"千葉市若葉区","jp_add_2":"金親町"},"2640014":{"post_code":"2640014","prefecture":"CHIBA KEN","city":"CHIBA SHI WAKABA KU","town":"KITAOMIYADAI","perfecture_jp":"千葉県","jp_add_1":"千葉市若葉区","jp_add_2":"北大宮台"},"2640012":{"post_code":"2640012","prefecture":"CHIBA KEN","city":"CHIBA SHI WAKABA KU","town":"SAKAZUKICHO","perfecture_jp":"千葉県","jp_add_1":"千葉市若葉区","jp_add_2":"坂月町"},"2640028":{"post_code":"2640028","prefecture":"CHIBA KEN","city":"CHIBA SHI WAKABA KU","town":"SAKURAGI","perfecture_jp":"千葉県","jp_add_1":"千葉市若葉区","jp_add_2":"桜木"},"2640029":{"post_code":"2640029","prefecture":"CHIBA KEN","city":"CHIBA SHI WAKABA KU","town":"SAKURAGIKITA","perfecture_jp":"千葉県","jp_add_1":"千葉市若葉区","jp_add_2":"桜木北"},"2640024":{"post_code":"2640024","prefecture":"CHIBA KEN","city":"CHIBA SHI WAKABA KU","town":"TAKASHINACHO","perfecture_jp":"千葉県","jp_add_1":"千葉市若葉区","jp_add_2":"高品町"},"2640002":{"post_code":"2640002","prefecture":"CHIBA KEN","city":"CHIBA SHI WAKABA KU","town":"CHISHIRODAI HIGASHI","perfecture_jp":"千葉県","jp_add_1":"千葉市若葉区","jp_add_2":"千城台東"},"2640004":{"post_code":"2640004","prefecture":"CHIBA KEN","city":"CHIBA SHI WAKABA KU","town":"CHISHIRODAI NISHI","perfecture_jp":"千葉県","jp_add_1":"千葉市若葉区","jp_add_2":"千城台西"},"2640003":{"post_code":"2640003","prefecture":"CHIBA KEN","city":"CHIBA SHI WAKABA KU","town":"CHISHIRODAI MINAMI","perfecture_jp":"千葉県","jp_add_1":"千葉市若葉区","jp_add_2":"千城台南"},"2640005":{"post_code":"2640005","prefecture":"CHIBA KEN","city":"CHIBA SHI WAKABA KU","town":"CHISHIRODAI KITA","perfecture_jp":"千葉県","jp_add_1":"千葉市若葉区","jp_add_2":"千城台北"},"2640025":{"post_code":"2640025","prefecture":"CHIBA KEN","city":"CHIBA SHI WAKABA KU","town":"TSUGA","perfecture_jp":"千葉県","jp_add_1":"千葉市若葉区","jp_add_2":"都賀"},"2640033":{"post_code":"2640033","prefecture":"CHIBA KEN","city":"CHIBA SHI WAKABA KU","town":"TSUGANODAI","perfecture_jp":"千葉県","jp_add_1":"千葉市若葉区","jp_add_2":"都賀の台"},"2640036":{"post_code":"2640036","prefecture":"CHIBA KEN","city":"CHIBA SHI WAKABA KU","town":"TONODAICHO","perfecture_jp":"千葉県","jp_add_1":"千葉市若葉区","jp_add_2":"殿台町"},"2640026":{"post_code":"2640026","prefecture":"CHIBA KEN","city":"CHIBA SHI WAKABA KU","town":"NISHITSUGA","perfecture_jp":"千葉県","jp_add_1":"千葉市若葉区","jp_add_2":"西都賀"},"2640034":{"post_code":"2640034","prefecture":"CHIBA KEN","city":"CHIBA SHI WAKABA KU","town":"HARAMACHI","perfecture_jp":"千葉県","jp_add_1":"千葉市若葉区","jp_add_2":"原町"},"2640035":{"post_code":"2640035","prefecture":"CHIBA KEN","city":"CHIBA SHI WAKABA KU","town":"HIGASHITERAYAMACHO","perfecture_jp":"千葉県","jp_add_1":"千葉市若葉区","jp_add_2":"東寺山町"},"2640032":{"post_code":"2640032","prefecture":"CHIBA KEN","city":"CHIBA SHI WAKABA KU","town":"MITSUWADAI","perfecture_jp":"千葉県","jp_add_1":"千葉市若葉区","jp_add_2":"みつわ台"},"2640037":{"post_code":"2640037","prefecture":"CHIBA KEN","city":"CHIBA SHI WAKABA KU","town":"MINAMOTOCHO","perfecture_jp":"千葉県","jp_add_1":"千葉市若葉区","jp_add_2":"源町"},"2640027":{"post_code":"2640027","prefecture":"CHIBA KEN","city":"CHIBA SHI WAKABA KU","town":"WAKAMATSUDAI","perfecture_jp":"千葉県","jp_add_1":"千葉市若葉区","jp_add_2":"若松台"},"2640021":{"post_code":"2640021","prefecture":"CHIBA KEN","city":"CHIBA SHI WAKABA KU","town":"WAKAMATSUCHO","perfecture_jp":"千葉県","jp_add_1":"千葉市若葉区","jp_add_2":"若松町"}}