{"2660000":{"post_code":"2660000","prefecture":"CHIBA KEN","city":"CHIBA SHI MIDORI KU","town":"IKANIKEISAIGANAIBAAI","perfecture_jp":"千葉県","jp_add_1":"千葉市緑区","jp_add_2":""},"2660014":{"post_code":"2660014","prefecture":"CHIBA KEN","city":"CHIBA SHI MIDORI KU","town":"OKANEZAWACHO","perfecture_jp":"千葉県","jp_add_1":"千葉市緑区","jp_add_2":"大金沢町"},"2660025":{"post_code":"2660025","prefecture":"CHIBA KEN","city":"CHIBA SHI MIDORI KU","town":"OCHIICHO","perfecture_jp":"千葉県","jp_add_1":"千葉市緑区","jp_add_2":"落井町"},"2660031":{"post_code":"2660031","prefecture":"CHIBA KEN","city":"CHIBA SHI MIDORI KU","town":"OYUMINO","perfecture_jp":"千葉県","jp_add_1":"千葉市緑区","jp_add_2":"おゆみ野"},"2660034":{"post_code":"2660034","prefecture":"CHIBA KEN","city":"CHIBA SHI MIDORI KU","town":"OYUMINOARIYOSHI","perfecture_jp":"千葉県","jp_add_1":"千葉市緑区","jp_add_2":"おゆみ野有吉"},"2660032":{"post_code":"2660032","prefecture":"CHIBA KEN","city":"CHIBA SHI MIDORI KU","town":"OYUMINOCHUO","perfecture_jp":"千葉県","jp_add_1":"千葉市緑区","jp_add_2":"おゆみ野中央"},"2660033":{"post_code":"2660033","prefecture":"CHIBA KEN","city":"CHIBA SHI MIDORI KU","town":"OYUMINOMINAMI","perfecture_jp":"千葉県","jp_add_1":"千葉市緑区","jp_add_2":"おゆみ野南"},"2660011":{"post_code":"2660011","prefecture":"CHIBA KEN","city":"CHIBA SHI MIDORI KU","town":"KAMATORICHO","perfecture_jp":"千葉県","jp_add_1":"千葉市緑区","jp_add_2":"鎌取町"},"2660021":{"post_code":"2660021","prefecture":"CHIBA KEN","city":"CHIBA SHI MIDORI KU","town":"KARITAGOCHO","perfecture_jp":"千葉県","jp_add_1":"千葉市緑区","jp_add_2":"刈田子町"},"2660015":{"post_code":"2660015","prefecture":"CHIBA KEN","city":"CHIBA SHI MIDORI KU","town":"KOKANEZAWACHO","perfecture_jp":"千葉県","jp_add_1":"千葉市緑区","jp_add_2":"小金沢町"},"2660016":{"post_code":"2660016","prefecture":"CHIBA KEN","city":"CHIBA SHI MIDORI KU","town":"SHIINAZAKICHO","perfecture_jp":"千葉県","jp_add_1":"千葉市緑区","jp_add_2":"椎名崎町"},"2660006":{"post_code":"2660006","prefecture":"CHIBA KEN","city":"CHIBA SHI MIDORI KU","town":"DAIZENNOCHO","perfecture_jp":"千葉県","jp_add_1":"千葉市緑区","jp_add_2":"大膳野町"},"2660003":{"post_code":"2660003","prefecture":"CHIBA KEN","city":"CHIBA SHI MIDORI KU","town":"TAKADACHO","perfecture_jp":"千葉県","jp_add_1":"千葉市緑区","jp_add_2":"高田町"},"2660022":{"post_code":"2660022","prefecture":"CHIBA KEN","city":"CHIBA SHI MIDORI KU","town":"TOMIOKACHO","perfecture_jp":"千葉県","jp_add_1":"千葉市緑区","jp_add_2":"富岡町"},"2660024":{"post_code":"2660024","prefecture":"CHIBA KEN","city":"CHIBA SHI MIDORI KU","town":"NAKANISHICHO","perfecture_jp":"千葉県","jp_add_1":"千葉市緑区","jp_add_2":"中西町"},"2660001":{"post_code":"2660001","prefecture":"CHIBA KEN","city":"CHIBA SHI MIDORI KU","town":"HIGASHIYAMASHINACHO","perfecture_jp":"千葉県","jp_add_1":"千葉市緑区","jp_add_2":"東山科町"},"2660004":{"post_code":"2660004","prefecture":"CHIBA KEN","city":"CHIBA SHI MIDORI KU","town":"HIRAKAWACHO","perfecture_jp":"千葉県","jp_add_1":"千葉市緑区","jp_add_2":"平川町"},"2660002":{"post_code":"2660002","prefecture":"CHIBA KEN","city":"CHIBA SHI MIDORI KU","town":"HIRAYAMACHO","perfecture_jp":"千葉県","jp_add_1":"千葉市緑区","jp_add_2":"平山町"},"2660026":{"post_code":"2660026","prefecture":"CHIBA KEN","city":"CHIBA SHI MIDORI KU","town":"FURUICHIBACHO","perfecture_jp":"千葉県","jp_add_1":"千葉市緑区","jp_add_2":"古市場町"},"2660007":{"post_code":"2660007","prefecture":"CHIBA KEN","city":"CHIBA SHI MIDORI KU","town":"HETACHO","perfecture_jp":"千葉県","jp_add_1":"千葉市緑区","jp_add_2":"辺田町"},"2660005":{"post_code":"2660005","prefecture":"CHIBA KEN","city":"CHIBA SHI MIDORI KU","town":"HONDACHO","perfecture_jp":"千葉県","jp_add_1":"千葉市緑区","jp_add_2":"誉田町"},"2660023":{"post_code":"2660023","prefecture":"CHIBA KEN","city":"CHIBA SHI MIDORI KU","town":"MOROCHO","perfecture_jp":"千葉県","jp_add_1":"千葉市緑区","jp_add_2":"茂呂町"}}