{"2701471":{"post_code":"2701471","prefecture":"CHIBA KEN","city":"FUNABASHI SHI","town":"KOMUROCHO","perfecture_jp":"千葉県","jp_add_1":"船橋市","jp_add_2":"小室町"},"2700000":{"post_code":"2700000","prefecture":"CHIBA KEN","city":"MATSUDO SHI","town":"IKANIKEISAIGANAIBAAI","perfecture_jp":"千葉県","jp_add_1":"松戸市","jp_add_2":""},"2702223":{"post_code":"2702223","prefecture":"CHIBA KEN","city":"MATSUDO SHI","town":"AKIYAMA","perfecture_jp":"千葉県","jp_add_1":"松戸市","jp_add_2":"秋山"},"2700006":{"post_code":"2700006","prefecture":"CHIBA KEN","city":"MATSUDO SHI","town":"OGANEDAIRA","perfecture_jp":"千葉県","jp_add_1":"松戸市","jp_add_2":"大金平"},"2702224":{"post_code":"2702224","prefecture":"CHIBA KEN","city":"MATSUDO SHI","town":"OHASHI","perfecture_jp":"千葉県","jp_add_1":"松戸市","jp_add_2":"大橋"},"2700005":{"post_code":"2700005","prefecture":"CHIBA KEN","city":"MATSUDO SHI","town":"OYAGUCHI","perfecture_jp":"千葉県","jp_add_1":"松戸市","jp_add_2":"大谷口"},"2700036":{"post_code":"2700036","prefecture":"CHIBA KEN","city":"MATSUDO SHI","town":"OYAGUCHISHINDEN","perfecture_jp":"千葉県","jp_add_1":"松戸市","jp_add_2":"大谷口新田"},"2700018":{"post_code":"2700018","prefecture":"CHIBA KEN","city":"MATSUDO SHI","town":"KAZUSAUCHI","perfecture_jp":"千葉県","jp_add_1":"松戸市","jp_add_2":"上総内"},"2702251":{"post_code":"2702251","prefecture":"CHIBA KEN","city":"MATSUDO SHI","town":"KANEGASAKU","perfecture_jp":"千葉県","jp_add_1":"松戸市","jp_add_2":"金ケ作"},"2702221":{"post_code":"2702221","prefecture":"CHIBA KEN","city":"MATSUDO SHI","town":"KAMISHIKI","perfecture_jp":"千葉県","jp_add_1":"松戸市","jp_add_2":"紙敷"},"2702254":{"post_code":"2702254","prefecture":"CHIBA KEN","city":"MATSUDO SHI","town":"KAWARAZUKA","perfecture_jp":"千葉県","jp_add_1":"松戸市","jp_add_2":"河原塚"},"2702216":{"post_code":"2702216","prefecture":"CHIBA KEN","city":"MATSUDO SHI","town":"KUSHIZAKISHINDEN","perfecture_jp":"千葉県","jp_add_1":"松戸市","jp_add_2":"串崎新田"},"2702215":{"post_code":"2702215","prefecture":"CHIBA KEN","city":"MATSUDO SHI","town":"KUSHIZAKIMINAMICHO","perfecture_jp":"千葉県","jp_add_1":"松戸市","jp_add_2":"串崎南町"},"2700012":{"post_code":"2700012","prefecture":"CHIBA KEN","city":"MATSUDO SHI","town":"KUBOHIRAGA","perfecture_jp":"千葉県","jp_add_1":"松戸市","jp_add_2":"久保平賀"},"2700022":{"post_code":"2700022","prefecture":"CHIBA KEN","city":"MATSUDO SHI","town":"KURIGASAWA","perfecture_jp":"千葉県","jp_add_1":"松戸市","jp_add_2":"栗ケ沢"},"2700001":{"post_code":"2700001","prefecture":"CHIBA KEN","city":"MATSUDO SHI","town":"KODE","perfecture_jp":"千葉県","jp_add_1":"松戸市","jp_add_2":"幸田"},"2700017":{"post_code":"2700017","prefecture":"CHIBA KEN","city":"MATSUDO SHI","town":"KOYA","perfecture_jp":"千葉県","jp_add_1":"松戸市","jp_add_2":"幸谷"},"2700014":{"post_code":"2700014","prefecture":"CHIBA KEN","city":"MATSUDO SHI","town":"KOGANE","perfecture_jp":"千葉県","jp_add_1":"松戸市","jp_add_2":"小金"},"2700015":{"post_code":"2700015","prefecture":"CHIBA KEN","city":"MATSUDO SHI","town":"KOGANE KAZUSACHO","perfecture_jp":"千葉県","jp_add_1":"松戸市","jp_add_2":"小金上総町"},"2700013":{"post_code":"2700013","prefecture":"CHIBA KEN","city":"MATSUDO SHI","town":"KOGANE KIYOSHIGAOKA","perfecture_jp":"千葉県","jp_add_1":"松戸市","jp_add_2":"小金きよしケ丘"},"2700016":{"post_code":"2700016","prefecture":"CHIBA KEN","city":"MATSUDO SHI","town":"KOGANE KIYOSHICHO","perfecture_jp":"千葉県","jp_add_1":"松戸市","jp_add_2":"小金清志町"},"2700021":{"post_code":"2700021","prefecture":"CHIBA KEN","city":"MATSUDO SHI","town":"KOGANEHARA","perfecture_jp":"千葉県","jp_add_1":"松戸市","jp_add_2":"小金原"},"2702213":{"post_code":"2702213","prefecture":"CHIBA KEN","city":"MATSUDO SHI","town":"GOKO","perfecture_jp":"千葉県","jp_add_1":"松戸市","jp_add_2":"五香"},"2702218":{"post_code":"2702218","prefecture":"CHIBA KEN","city":"MATSUDO SHI","town":"GOKONISHI","perfecture_jp":"千葉県","jp_add_1":"松戸市","jp_add_2":"五香西"},"2702212":{"post_code":"2702212","prefecture":"CHIBA KEN","city":"MATSUDO SHI","town":"GOKOMINAMI","perfecture_jp":"千葉県","jp_add_1":"松戸市","jp_add_2":"五香南"},"2702211":{"post_code":"2702211","prefecture":"CHIBA KEN","city":"MATSUDO SHI","town":"GOKOMUTSUMI","perfecture_jp":"千葉県","jp_add_1":"松戸市","jp_add_2":"五香六実"},"2700034":{"post_code":"2700034","prefecture":"CHIBA KEN","city":"MATSUDO SHI","town":"SHIMMATSUDO","perfecture_jp":"千葉県","jp_add_1":"松戸市","jp_add_2":"新松戸"},"2700033":{"post_code":"2700033","prefecture":"CHIBA KEN","city":"MATSUDO SHI","town":"SHIMMATSUDOHIGASHI","perfecture_jp":"千葉県","jp_add_1":"松戸市","jp_add_2":"新松戸東"},"2700035":{"post_code":"2700035","prefecture":"CHIBA KEN","city":"MATSUDO SHI","town":"SHIMMATSUDOMINAMI","perfecture_jp":"千葉県","jp_add_1":"松戸市","jp_add_2":"新松戸南"},"2700032":{"post_code":"2700032","prefecture":"CHIBA KEN","city":"MATSUDO SHI","town":"SHIMMATSUDOKITA","perfecture_jp":"千葉県","jp_add_1":"松戸市","jp_add_2":"新松戸北"},"2702252":{"post_code":"2702252","prefecture":"CHIBA KEN","city":"MATSUDO SHI","town":"SENDABORI","perfecture_jp":"千葉県","jp_add_1":"松戸市","jp_add_2":"千駄堀"},"2702222":{"post_code":"2702222","prefecture":"CHIBA KEN","city":"MATSUDO SHI","town":"TAKATSUKASHINDEN","perfecture_jp":"千葉県","jp_add_1":"松戸市","jp_add_2":"高塚新田"},"2702202":{"post_code":"2702202","prefecture":"CHIBA KEN","city":"MATSUDO SHI","town":"TAKAYANAGI","perfecture_jp":"千葉県","jp_add_1":"松戸市","jp_add_2":"高柳"},"2702201":{"post_code":"2702201","prefecture":"CHIBA KEN","city":"MATSUDO SHI","town":"TAKAYANAGISHINDEN","perfecture_jp":"千葉県","jp_add_1":"松戸市","jp_add_2":"高柳新田"},"2702255":{"post_code":"2702255","prefecture":"CHIBA KEN","city":"MATSUDO SHI","town":"TANAKASHINDEN","perfecture_jp":"千葉県","jp_add_1":"松戸市","jp_add_2":"田中新田"},"2702261":{"post_code":"2702261","prefecture":"CHIBA KEN","city":"MATSUDO SHI","town":"TOKIWADAIRA","perfecture_jp":"千葉県","jp_add_1":"松戸市","jp_add_2":"常盤平"},"2702265":{"post_code":"2702265","prefecture":"CHIBA KEN","city":"MATSUDO SHI","town":"TOKIWADAIRA JINYAMAE","perfecture_jp":"千葉県","jp_add_1":"松戸市","jp_add_2":"常盤平陣屋前"},"2702266":{"post_code":"2702266","prefecture":"CHIBA KEN","city":"MATSUDO SHI","town":"TOKIWADAIRA NISHIKUBOCHO","perfecture_jp":"千葉県","jp_add_1":"松戸市","jp_add_2":"常盤平西窪町"},"2702262":{"post_code":"2702262","prefecture":"CHIBA KEN","city":"MATSUDO SHI","town":"TOKIWADAIRA FUTABACHO","perfecture_jp":"千葉県","jp_add_1":"松戸市","jp_add_2":"常盤平双葉町"},"2702264":{"post_code":"2702264","prefecture":"CHIBA KEN","city":"MATSUDO SHI","town":"TOKIWADAIRA MATSUBACHO","perfecture_jp":"千葉県","jp_add_1":"松戸市","jp_add_2":"常盤平松葉町"},"2702263":{"post_code":"2702263","prefecture":"CHIBA KEN","city":"MATSUDO SHI","town":"TOKIWADAIRA YANAGICHO","perfecture_jp":"千葉県","jp_add_1":"松戸市","jp_add_2":"常盤平柳町"},"2700004":{"post_code":"2700004","prefecture":"CHIBA KEN","city":"MATSUDO SHI","town":"TONOHIRAGA","perfecture_jp":"千葉県","jp_add_1":"松戸市","jp_add_2":"殿平賀"},"2702242":{"post_code":"2702242","prefecture":"CHIBA KEN","city":"MATSUDO SHI","town":"NAKAICHO","perfecture_jp":"千葉県","jp_add_1":"松戸市","jp_add_2":"仲井町"},"2700007":{"post_code":"2700007","prefecture":"CHIBA KEN","city":"MATSUDO SHI","town":"NAKAKANASUGI","perfecture_jp":"千葉県","jp_add_1":"松戸市","jp_add_2":"中金杉"},"2700025":{"post_code":"2700025","prefecture":"CHIBA KEN","city":"MATSUDO SHI","town":"NAKAWAKURA","perfecture_jp":"千葉県","jp_add_1":"松戸市","jp_add_2":"中和倉"},"2700011":{"post_code":"2700011","prefecture":"CHIBA KEN","city":"MATSUDO SHI","town":"NEGIUCHI","perfecture_jp":"千葉県","jp_add_1":"松戸市","jp_add_2":"根木内"},"2702243":{"post_code":"2702243","prefecture":"CHIBA KEN","city":"MATSUDO SHI","town":"NOGIKUNO","perfecture_jp":"千葉県","jp_add_1":"松戸市","jp_add_2":"野菊野"},"2700023":{"post_code":"2700023","prefecture":"CHIBA KEN","city":"MATSUDO SHI","town":"HACHIGASAKI","perfecture_jp":"千葉県","jp_add_1":"松戸市","jp_add_2":"八ケ崎"},"2700024":{"post_code":"2700024","prefecture":"CHIBA KEN","city":"MATSUDO SHI","town":"HACHIGASAKIMIDORICHO","perfecture_jp":"千葉県","jp_add_1":"松戸市","jp_add_2":"八ケ崎緑町"},"2702217":{"post_code":"2702217","prefecture":"CHIBA KEN","city":"MATSUDO SHI","town":"HATSUTOMITOBICHI","perfecture_jp":"千葉県","jp_add_1":"松戸市","jp_add_2":"初富飛地"},"2700003":{"post_code":"2700003","prefecture":"CHIBA KEN","city":"MATSUDO SHI","town":"HIGASHIHIRAGA","perfecture_jp":"千葉県","jp_add_1":"松戸市","jp_add_2":"東平賀"},"2702225":{"post_code":"2702225","prefecture":"CHIBA KEN","city":"MATSUDO SHI","town":"HIGASHIMATSUDO","perfecture_jp":"千葉県","jp_add_1":"松戸市","jp_add_2":"東松戸"},"2702253":{"post_code":"2702253","prefecture":"CHIBA KEN","city":"MATSUDO SHI","town":"HIGURASHI","perfecture_jp":"千葉県","jp_add_1":"松戸市","jp_add_2":"日暮"},"2700002":{"post_code":"2700002","prefecture":"CHIBA KEN","city":"MATSUDO SHI","town":"HIRAGA","perfecture_jp":"千葉県","jp_add_1":"松戸市","jp_add_2":"平賀"},"2700027":{"post_code":"2700027","prefecture":"CHIBA KEN","city":"MATSUDO SHI","town":"FUTATSUGI","perfecture_jp":"千葉県","jp_add_1":"松戸市","jp_add_2":"二ツ木"},"2700028":{"post_code":"2700028","prefecture":"CHIBA KEN","city":"MATSUDO SHI","town":"FUTATSUGIFUTABACHO","perfecture_jp":"千葉県","jp_add_1":"松戸市","jp_add_2":"二ツ木二葉町"},"2702267":{"post_code":"2702267","prefecture":"CHIBA KEN","city":"MATSUDO SHI","town":"MAKINOHARA","perfecture_jp":"千葉県","jp_add_1":"松戸市","jp_add_2":"牧の原"},"2702241":{"post_code":"2702241","prefecture":"CHIBA KEN","city":"MATSUDO SHI","town":"MATSUDOSHINDEN","perfecture_jp":"千葉県","jp_add_1":"松戸市","jp_add_2":"松戸新田"},"2702214":{"post_code":"2702214","prefecture":"CHIBA KEN","city":"MATSUDO SHI","town":"MATSUHIDAI","perfecture_jp":"千葉県","jp_add_1":"松戸市","jp_add_2":"松飛台"},"2700026":{"post_code":"2700026","prefecture":"CHIBA KEN","city":"MATSUDO SHI","town":"MIKOZE","perfecture_jp":"千葉県","jp_add_1":"松戸市","jp_add_2":"三ケ月"},"2702231":{"post_code":"2702231","prefecture":"CHIBA KEN","city":"MATSUDO SHI","town":"MINORIDAI","perfecture_jp":"千葉県","jp_add_1":"松戸市","jp_add_2":"稔台"},"2702204":{"post_code":"2702204","prefecture":"CHIBA KEN","city":"MATSUDO SHI","town":"MUTSUMI","perfecture_jp":"千葉県","jp_add_1":"松戸市","jp_add_2":"六実"},"2700031":{"post_code":"2700031","prefecture":"CHIBA KEN","city":"MATSUDO SHI","town":"YOKOSUKA","perfecture_jp":"千葉県","jp_add_1":"松戸市","jp_add_2":"横須賀"},"2702203":{"post_code":"2702203","prefecture":"CHIBA KEN","city":"MATSUDO SHI","town":"ROKKODAI","perfecture_jp":"千葉県","jp_add_1":"松戸市","jp_add_2":"六高台"},"2702205":{"post_code":"2702205","prefecture":"CHIBA KEN","city":"MATSUDO SHI","town":"ROKKODAINISHI","perfecture_jp":"千葉県","jp_add_1":"松戸市","jp_add_2":"六高台西"},"2702232":{"post_code":"2702232","prefecture":"CHIBA KEN","city":"MATSUDO SHI","town":"WANAGAYA","perfecture_jp":"千葉県","jp_add_1":"松戸市","jp_add_2":"和名ケ谷"},"2700239":{"post_code":"2700239","prefecture":"CHIBA KEN","city":"NODA SHI","town":"IZUMI","perfecture_jp":"千葉県","jp_add_1":"野田市","jp_add_2":"泉"},"2700223":{"post_code":"2700223","prefecture":"CHIBA KEN","city":"NODA SHI","town":"OKADA","perfecture_jp":"千葉県","jp_add_1":"野田市","jp_add_2":"岡田"},"2700235":{"post_code":"2700235","prefecture":"CHIBA KEN","city":"NODA SHI","town":"OSAKI","perfecture_jp":"千葉県","jp_add_1":"野田市","jp_add_2":"尾崎"},"2700238":{"post_code":"2700238","prefecture":"CHIBA KEN","city":"NODA SHI","town":"OZAKIDAI","perfecture_jp":"千葉県","jp_add_1":"野田市","jp_add_2":"尾崎台"},"2700227":{"post_code":"2700227","prefecture":"CHIBA KEN","city":"NODA SHI","town":"OYANOI","perfecture_jp":"千葉県","jp_add_1":"野田市","jp_add_2":"親野井"},"2700231":{"post_code":"2700231","prefecture":"CHIBA KEN","city":"NODA SHI","town":"OYAMA","perfecture_jp":"千葉県","jp_add_1":"野田市","jp_add_2":"小山"},"2700214":{"post_code":"2700214","prefecture":"CHIBA KEN","city":"NODA SHI","town":"KASHIWADERA","perfecture_jp":"千葉県","jp_add_1":"野田市","jp_add_2":"柏寺"},"2700222":{"post_code":"2700222","prefecture":"CHIBA KEN","city":"NODA SHI","town":"KIMAGASE","perfecture_jp":"千葉県","jp_add_1":"野田市","jp_add_2":"木間ケ瀬"},"2700213":{"post_code":"2700213","prefecture":"CHIBA KEN","city":"NODA SHI","town":"KIRIGASAKU","perfecture_jp":"千葉県","jp_add_1":"野田市","jp_add_2":"桐ケ作"},"2700221":{"post_code":"2700221","prefecture":"CHIBA KEN","city":"NODA SHI","town":"KOBUCHI","perfecture_jp":"千葉県","jp_add_1":"野田市","jp_add_2":"古布内"},"2700204":{"post_code":"2700204","prefecture":"CHIBA KEN","city":"NODA SHI","town":"SEKIYADO UCHIMACHI","perfecture_jp":"千葉県","jp_add_1":"野田市","jp_add_2":"関宿内町"},"2700205":{"post_code":"2700205","prefecture":"CHIBA KEN","city":"NODA SHI","town":"SEKIYADO EDOMACHI","perfecture_jp":"千葉県","jp_add_1":"野田市","jp_add_2":"関宿江戸町"},"2700201":{"post_code":"2700201","prefecture":"CHIBA KEN","city":"NODA SHI","town":"SEKIYADO SANGENYA","perfecture_jp":"千葉県","jp_add_1":"野田市","jp_add_2":"関宿三軒家"},"2700202":{"post_code":"2700202","prefecture":"CHIBA KEN","city":"NODA SHI","town":"SEKIYADO DAIMACHI","perfecture_jp":"千葉県","jp_add_1":"野田市","jp_add_2":"関宿台町"},"2700203":{"post_code":"2700203","prefecture":"CHIBA KEN","city":"NODA SHI","town":"SEKIYADO MOTOMACHI","perfecture_jp":"千葉県","jp_add_1":"野田市","jp_add_2":"関宿元町"},"2700206":{"post_code":"2700206","prefecture":"CHIBA KEN","city":"NODA SHI","town":"SEKIYADOMACHI","perfecture_jp":"千葉県","jp_add_1":"野田市","jp_add_2":"関宿町"},"2700237":{"post_code":"2700237","prefecture":"CHIBA KEN","city":"NODA SHI","town":"NAKAZATO","perfecture_jp":"千葉県","jp_add_1":"野田市","jp_add_2":"中里"},"2700215":{"post_code":"2700215","prefecture":"CHIBA KEN","city":"NODA SHI","town":"NAKATO","perfecture_jp":"千葉県","jp_add_1":"野田市","jp_add_2":"中戸"},"2700228":{"post_code":"2700228","prefecture":"CHIBA KEN","city":"NODA SHI","town":"NAMIKI","perfecture_jp":"千葉県","jp_add_1":"野田市","jp_add_2":"次木"},"2700216":{"post_code":"2700216","prefecture":"CHIBA KEN","city":"NODA SHI","town":"NISHIGOYA","perfecture_jp":"千葉県","jp_add_1":"野田市","jp_add_2":"西高野"},"2700212":{"post_code":"2700212","prefecture":"CHIBA KEN","city":"NODA SHI","town":"NITTADO","perfecture_jp":"千葉県","jp_add_1":"野田市","jp_add_2":"新田戸"},"2700217":{"post_code":"2700217","prefecture":"CHIBA KEN","city":"NODA SHI","town":"HAYAMA","perfecture_jp":"千葉県","jp_add_1":"野田市","jp_add_2":"はやま"},"2700236":{"post_code":"2700236","prefecture":"CHIBA KEN","city":"NODA SHI","town":"HIGASHIKANANOI","perfecture_jp":"千葉県","jp_add_1":"野田市","jp_add_2":"東金野井"},"2700211":{"post_code":"2700211","prefecture":"CHIBA KEN","city":"NODA SHI","town":"HIGASHIGOYA","perfecture_jp":"千葉県","jp_add_1":"野田市","jp_add_2":"東高野"},"2700226":{"post_code":"2700226","prefecture":"CHIBA KEN","city":"NODA SHI","town":"HIGASHIHOSHUBANA","perfecture_jp":"千葉県","jp_add_1":"野田市","jp_add_2":"東宝珠花"},"2700234":{"post_code":"2700234","prefecture":"CHIBA KEN","city":"NODA SHI","town":"HINODECHO","perfecture_jp":"千葉県","jp_add_1":"野田市","jp_add_2":"日の出町"},"2700225":{"post_code":"2700225","prefecture":"CHIBA KEN","city":"NODA SHI","town":"HIRAI","perfecture_jp":"千葉県","jp_add_1":"野田市","jp_add_2":"平井"},"2700233":{"post_code":"2700233","prefecture":"CHIBA KEN","city":"NODA SHI","town":"FUNAKATA","perfecture_jp":"千葉県","jp_add_1":"野田市","jp_add_2":"船形"},"2700224":{"post_code":"2700224","prefecture":"CHIBA KEN","city":"NODA SHI","town":"MARUI","perfecture_jp":"千葉県","jp_add_1":"野田市","jp_add_2":"丸井"},"2700232":{"post_code":"2700232","prefecture":"CHIBA KEN","city":"NODA SHI","town":"MUSHIROCHI","perfecture_jp":"千葉県","jp_add_1":"野田市","jp_add_2":"莚打"},"2701451":{"post_code":"2701451","prefecture":"CHIBA KEN","city":"KASHIWA SHI","town":"AKEBONOBASHI","perfecture_jp":"千葉県","jp_add_1":"柏市","jp_add_2":"曙橋"},"2701456":{"post_code":"2701456","prefecture":"CHIBA KEN","city":"KASHIWA SHI","town":"IZUMI","perfecture_jp":"千葉県","jp_add_1":"柏市","jp_add_2":"泉"},"2701457":{"post_code":"2701457","prefecture":"CHIBA KEN","city":"KASHIWA SHI","town":"IZUMIMURASHINDEN","perfecture_jp":"千葉県","jp_add_1":"柏市","jp_add_2":"泉村新田"},"2701445":{"post_code":"2701445","prefecture":"CHIBA KEN","city":"KASHIWA SHI","town":"IWAI","perfecture_jp":"千葉県","jp_add_1":"柏市","jp_add_2":"岩井"},"2701446":{"post_code":"2701446","prefecture":"CHIBA KEN","city":"KASHIWA SHI","town":"IWAIMURASHINDEN","perfecture_jp":"千葉県","jp_add_1":"柏市","jp_add_2":"岩井村新田"},"2701453":{"post_code":"2701453","prefecture":"CHIBA KEN","city":"KASHIWA SHI","town":"KATAYAMA","perfecture_jp":"千葉県","jp_add_1":"柏市","jp_add_2":"片山"},"2701452":{"post_code":"2701452","prefecture":"CHIBA KEN","city":"KASHIWA SHI","town":"KATAYAMASHINDEN","perfecture_jp":"千葉県","jp_add_1":"柏市","jp_add_2":"片山新田"},"2701455":{"post_code":"2701455","prefecture":"CHIBA KEN","city":"KASHIWA SHI","town":"KANEYAMA","perfecture_jp":"千葉県","jp_add_1":"柏市","jp_add_2":"金山"},"2701461":{"post_code":"2701461","prefecture":"CHIBA KEN","city":"KASHIWA SHI","town":"SUIDOBASHI","perfecture_jp":"千葉県","jp_add_1":"柏市","jp_add_2":"水道橋"},"2701462":{"post_code":"2701462","prefecture":"CHIBA KEN","city":"KASHIWA SHI","town":"SENGEMBASHI","perfecture_jp":"千葉県","jp_add_1":"柏市","jp_add_2":"千間橋"},"2701442":{"post_code":"2701442","prefecture":"CHIBA KEN","city":"KASHIWA SHI","town":"SOMEIIRISHINDEN","perfecture_jp":"千葉県","jp_add_1":"柏市","jp_add_2":"染井入新田"},"2701465":{"post_code":"2701465","prefecture":"CHIBA KEN","city":"KASHIWA SHI","town":"TEGA","perfecture_jp":"千葉県","jp_add_1":"柏市","jp_add_2":"手賀"},"2701466":{"post_code":"2701466","prefecture":"CHIBA KEN","city":"KASHIWA SHI","town":"TEGASHINDEN","perfecture_jp":"千葉県","jp_add_1":"柏市","jp_add_2":"手賀新田"},"2701447":{"post_code":"2701447","prefecture":"CHIBA KEN","city":"KASHIWA SHI","town":"TEGANOMORI","perfecture_jp":"千葉県","jp_add_1":"柏市","jp_add_2":"手賀の杜"},"2701464":{"post_code":"2701464","prefecture":"CHIBA KEN","city":"KASHIWA SHI","town":"FUZE","perfecture_jp":"千葉県","jp_add_1":"柏市","jp_add_2":"布瀬"},"2701463":{"post_code":"2701463","prefecture":"CHIBA KEN","city":"KASHIWA SHI","town":"FUZESHINDEN","perfecture_jp":"千葉県","jp_add_1":"柏市","jp_add_2":"布瀬新田"},"2701454":{"post_code":"2701454","prefecture":"CHIBA KEN","city":"KASHIWA SHI","town":"YANADO","perfecture_jp":"千葉県","jp_add_1":"柏市","jp_add_2":"柳戸"},"2701444":{"post_code":"2701444","prefecture":"CHIBA KEN","city":"KASHIWA SHI","town":"WAKASHIRAGA","perfecture_jp":"千葉県","jp_add_1":"柏市","jp_add_2":"若白毛"},"2701443":{"post_code":"2701443","prefecture":"CHIBA KEN","city":"KASHIWA SHI","town":"WASHINOYA","perfecture_jp":"千葉県","jp_add_1":"柏市","jp_add_2":"鷲野谷"},"2701441":{"post_code":"2701441","prefecture":"CHIBA KEN","city":"KASHIWA SHI","town":"WASHINOYASHINDEN","perfecture_jp":"千葉県","jp_add_1":"柏市","jp_add_2":"鷲野谷新田"},"2700100":{"post_code":"2700100","prefecture":"CHIBA KEN","city":"NAGAREYAMA SHI","town":"IKANIKEISAIGANAIBAAI","perfecture_jp":"千葉県","jp_add_1":"流山市","jp_add_2":""},"2700112":{"post_code":"2700112","prefecture":"CHIBA KEN","city":"NAGAREYAMA SHI","town":"AOTA","perfecture_jp":"千葉県","jp_add_1":"流山市","jp_add_2":"青田"},"2700137":{"post_code":"2700137","prefecture":"CHIBA KEN","city":"NAGAREYAMA SHI","town":"ICHINOYA","perfecture_jp":"千葉県","jp_add_1":"流山市","jp_add_2":"市野谷"},"2700151":{"post_code":"2700151","prefecture":"CHIBA KEN","city":"NAGAREYAMA SHI","town":"USHIROHIRAI","perfecture_jp":"千葉県","jp_add_1":"流山市","jp_add_2":"後平井"},"2700111":{"post_code":"2700111","prefecture":"CHIBA KEN","city":"NAGAREYAMA SHI","town":"EDOGAWADAI HIGASHI","perfecture_jp":"千葉県","jp_add_1":"流山市","jp_add_2":"江戸川台東"},"2700115":{"post_code":"2700115","prefecture":"CHIBA KEN","city":"NAGAREYAMA SHI","town":"EDOGAWADAI NISHI","perfecture_jp":"千葉県","jp_add_1":"流山市","jp_add_2":"江戸川台西"},"2700122":{"post_code":"2700122","prefecture":"CHIBA KEN","city":"NAGAREYAMA SHI","town":"OGURO","perfecture_jp":"千葉県","jp_add_1":"流山市","jp_add_2":"大畔"},"2700154":{"post_code":"2700154","prefecture":"CHIBA KEN","city":"NAGAREYAMA SHI","town":"OMOI","perfecture_jp":"千葉県","jp_add_1":"流山市","jp_add_2":"思井"},"2700176":{"post_code":"2700176","prefecture":"CHIBA KEN","city":"NAGAREYAMA SHI","town":"KA","perfecture_jp":"千葉県","jp_add_1":"流山市","jp_add_2":"加"},"2700171":{"post_code":"2700171","prefecture":"CHIBA KEN","city":"NAGAREYAMA SHI","town":"KAMIKAIZUKA","perfecture_jp":"千葉県","jp_add_1":"流山市","jp_add_2":"上貝塚"},"2700125":{"post_code":"2700125","prefecture":"CHIBA KEN","city":"NAGAREYAMA SHI","town":"KAMISHINSHUKU","perfecture_jp":"千葉県","jp_add_1":"流山市","jp_add_2":"上新宿"},"2700126":{"post_code":"2700126","prefecture":"CHIBA KEN","city":"NAGAREYAMA SHI","town":"KAMISHINSHUKUSHINDEN","perfecture_jp":"千葉県","jp_add_1":"流山市","jp_add_2":"上新宿新田"},"2700162":{"post_code":"2700162","prefecture":"CHIBA KEN","city":"NAGAREYAMA SHI","town":"KI","perfecture_jp":"千葉県","jp_add_1":"流山市","jp_add_2":"木"},"2700117":{"post_code":"2700117","prefecture":"CHIBA KEN","city":"NAGAREYAMA SHI","town":"KITA","perfecture_jp":"千葉県","jp_add_1":"流山市","jp_add_2":"北"},"2700172":{"post_code":"2700172","prefecture":"CHIBA KEN","city":"NAGAREYAMA SHI","town":"KIRIGAYA","perfecture_jp":"千葉県","jp_add_1":"流山市","jp_add_2":"桐ケ谷"},"2700102":{"post_code":"2700102","prefecture":"CHIBA KEN","city":"NAGAREYAMA SHI","town":"KONOSUDAI","perfecture_jp":"千葉県","jp_add_1":"流山市","jp_add_2":"こうのす台"},"2700132":{"post_code":"2700132","prefecture":"CHIBA KEN","city":"NAGAREYAMA SHI","town":"KOMAGI","perfecture_jp":"千葉県","jp_add_1":"流山市","jp_add_2":"駒木"},"2700113":{"post_code":"2700113","prefecture":"CHIBA KEN","city":"NAGAREYAMA SHI","town":"KOMAGIDAI","perfecture_jp":"千葉県","jp_add_1":"流山市","jp_add_2":"駒木台"},"2700118":{"post_code":"2700118","prefecture":"CHIBA KEN","city":"NAGAREYAMA SHI","town":"KOYA","perfecture_jp":"千葉県","jp_add_1":"流山市","jp_add_2":"小屋"},"2700146":{"post_code":"2700146","prefecture":"CHIBA KEN","city":"NAGAREYAMA SHI","town":"SHIBASAKI","perfecture_jp":"千葉県","jp_add_1":"流山市","jp_add_2":"芝崎"},"2700174":{"post_code":"2700174","prefecture":"CHIBA KEN","city":"NAGAREYAMA SHI","town":"SHIMOHANAWA","perfecture_jp":"千葉県","jp_add_1":"流山市","jp_add_2":"下花輪"},"2700133":{"post_code":"2700133","prefecture":"CHIBA KEN","city":"NAGAREYAMA SHI","town":"JUDAYU","perfecture_jp":"千葉県","jp_add_1":"流山市","jp_add_2":"十太夫"},"2700173":{"post_code":"2700173","prefecture":"CHIBA KEN","city":"NAGAREYAMA SHI","town":"TANI","perfecture_jp":"千葉県","jp_add_1":"流山市","jp_add_2":"谷"},"2700153":{"post_code":"2700153","prefecture":"CHIBA KEN","city":"NAGAREYAMA SHI","town":"NAKA","perfecture_jp":"千葉県","jp_add_1":"流山市","jp_add_2":"中"},"2700116":{"post_code":"2700116","prefecture":"CHIBA KEN","city":"NAGAREYAMA SHI","town":"NAKANOKUKI","perfecture_jp":"千葉県","jp_add_1":"流山市","jp_add_2":"中野久木"},"2700134":{"post_code":"2700134","prefecture":"CHIBA KEN","city":"NAGAREYAMA SHI","town":"NAGASAKI","perfecture_jp":"千葉県","jp_add_1":"流山市","jp_add_2":"長崎"},"2700164":{"post_code":"2700164","prefecture":"CHIBA KEN","city":"NAGAREYAMA SHI","town":"NAGAREYAMA","perfecture_jp":"千葉県","jp_add_1":"流山市","jp_add_2":"流山"},"2700145":{"post_code":"2700145","prefecture":"CHIBA KEN","city":"NAGAREYAMA SHI","town":"NAZUKARI","perfecture_jp":"千葉県","jp_add_1":"流山市","jp_add_2":"名都借"},"2700121":{"post_code":"2700121","prefecture":"CHIBA KEN","city":"NAGAREYAMA SHI","town":"NISHIHATSUISHI","perfecture_jp":"千葉県","jp_add_1":"流山市","jp_add_2":"西初石"},"2700156":{"post_code":"2700156","prefecture":"CHIBA KEN","city":"NAGAREYAMA SHI","town":"NISHIHIRAI","perfecture_jp":"千葉県","jp_add_1":"流山市","jp_add_2":"西平井"},"2700107":{"post_code":"2700107","prefecture":"CHIBA KEN","city":"NAGAREYAMA SHI","town":"NISHIFUKAI","perfecture_jp":"千葉県","jp_add_1":"流山市","jp_add_2":"西深井"},"2700142":{"post_code":"2700142","prefecture":"CHIBA KEN","city":"NAGAREYAMA SHI","town":"NISHIMATSUGAOKA","perfecture_jp":"千葉県","jp_add_1":"流山市","jp_add_2":"西松ケ丘"},"2700135":{"post_code":"2700135","prefecture":"CHIBA KEN","city":"NAGAREYAMA SHI","town":"NONOSHITA","perfecture_jp":"千葉県","jp_add_1":"流山市","jp_add_2":"野々下"},"2700114":{"post_code":"2700114","prefecture":"CHIBA KEN","city":"NAGAREYAMA SHI","town":"HIGASHIHATSUISHI","perfecture_jp":"千葉県","jp_add_1":"流山市","jp_add_2":"東初石"},"2700101":{"post_code":"2700101","prefecture":"CHIBA KEN","city":"NAGAREYAMA SHI","town":"HIGASHIFUKAI","perfecture_jp":"千葉県","jp_add_1":"流山市","jp_add_2":"東深井"},"2700105":{"post_code":"2700105","prefecture":"CHIBA KEN","city":"NAGAREYAMA SHI","town":"HIRAKATA","perfecture_jp":"千葉県","jp_add_1":"流山市","jp_add_2":"平方"},"2700106":{"post_code":"2700106","prefecture":"CHIBA KEN","city":"NAGAREYAMA SHI","town":"HIRAKATA MURASHINDEN","perfecture_jp":"千葉県","jp_add_1":"流山市","jp_add_2":"平方村新田"},"2700161":{"post_code":"2700161","prefecture":"CHIBA KEN","city":"NAGAREYAMA SHI","town":"HIREGASAKI","perfecture_jp":"千葉県","jp_add_1":"流山市","jp_add_2":"鰭ケ崎"},"2700108":{"post_code":"2700108","prefecture":"CHIBA KEN","city":"NAGAREYAMA SHI","town":"FUKAISHINDEN","perfecture_jp":"千葉県","jp_add_1":"流山市","jp_add_2":"深井新田"},"2700127":{"post_code":"2700127","prefecture":"CHIBA KEN","city":"NAGAREYAMA SHI","town":"FUJIMIDAI","perfecture_jp":"千葉県","jp_add_1":"流山市","jp_add_2":"富士見台"},"2700136":{"post_code":"2700136","prefecture":"CHIBA KEN","city":"NAGAREYAMA SHI","town":"FURUMAGI","perfecture_jp":"千葉県","jp_add_1":"流山市","jp_add_2":"古間木"},"2700157":{"post_code":"2700157","prefecture":"CHIBA KEN","city":"NAGAREYAMA SHI","town":"HEIWADAI","perfecture_jp":"千葉県","jp_add_1":"流山市","jp_add_2":"平和台"},"2700144":{"post_code":"2700144","prefecture":"CHIBA KEN","city":"NAGAREYAMA SHI","town":"MAEGASAKI","perfecture_jp":"千葉県","jp_add_1":"流山市","jp_add_2":"前ケ崎"},"2700152":{"post_code":"2700152","prefecture":"CHIBA KEN","city":"NAGAREYAMA SHI","town":"MAEHIRAI","perfecture_jp":"千葉県","jp_add_1":"流山市","jp_add_2":"前平井"},"2700141":{"post_code":"2700141","prefecture":"CHIBA KEN","city":"NAGAREYAMA SHI","town":"MATSUGAOKA","perfecture_jp":"千葉県","jp_add_1":"流山市","jp_add_2":"松ケ丘"},"2700131":{"post_code":"2700131","prefecture":"CHIBA KEN","city":"NAGAREYAMA SHI","town":"MITA","perfecture_jp":"千葉県","jp_add_1":"流山市","jp_add_2":"美田"},"2700124":{"post_code":"2700124","prefecture":"CHIBA KEN","city":"NAGAREYAMA SHI","town":"MINAMI","perfecture_jp":"千葉県","jp_add_1":"流山市","jp_add_2":"南"},"2700163":{"post_code":"2700163","prefecture":"CHIBA KEN","city":"NAGAREYAMA SHI","town":"MINAMINAGAREYAMA","perfecture_jp":"千葉県","jp_add_1":"流山市","jp_add_2":"南流山"},"2700103":{"post_code":"2700103","prefecture":"CHIBA KEN","city":"NAGAREYAMA SHI","town":"MIHARA","perfecture_jp":"千葉県","jp_add_1":"流山市","jp_add_2":"美原"},"2700155":{"post_code":"2700155","prefecture":"CHIBA KEN","city":"NAGAREYAMA SHI","town":"MIYAZONO","perfecture_jp":"千葉県","jp_add_1":"流山市","jp_add_2":"宮園"},"2700175":{"post_code":"2700175","prefecture":"CHIBA KEN","city":"NAGAREYAMA SHI","town":"MIWANOYAMA","perfecture_jp":"千葉県","jp_add_1":"流山市","jp_add_2":"三輪野山"},"2700143":{"post_code":"2700143","prefecture":"CHIBA KEN","city":"NAGAREYAMA SHI","town":"MUKAIKOGANE","perfecture_jp":"千葉県","jp_add_1":"流山市","jp_add_2":"向小金"},"2700123":{"post_code":"2700123","prefecture":"CHIBA KEN","city":"NAGAREYAMA SHI","town":"WAKABADAI","perfecture_jp":"千葉県","jp_add_1":"流山市","jp_add_2":"若葉台"},"2701100":{"post_code":"2701100","prefecture":"CHIBA KEN","city":"ABIKO SHI","town":"IKANIKEISAIGANAIBAAI","perfecture_jp":"千葉県","jp_add_1":"我孫子市","jp_add_2":""},"2701106":{"post_code":"2701106","prefecture":"CHIBA KEN","city":"ABIKO SHI","town":"AIJIMASHINDEN","perfecture_jp":"千葉県","jp_add_1":"我孫子市","jp_add_2":"相島新田"},"2701173":{"post_code":"2701173","prefecture":"CHIBA KEN","city":"ABIKO SHI","town":"AOYAMA","perfecture_jp":"千葉県","jp_add_1":"我孫子市","jp_add_2":"青山"},"2701175":{"post_code":"2701175","prefecture":"CHIBA KEN","city":"ABIKO SHI","town":"AOYAMADAI","perfecture_jp":"千葉県","jp_add_1":"我孫子市","jp_add_2":"青山台"},"2701166":{"post_code":"2701166","prefecture":"CHIBA KEN","city":"ABIKO SHI","town":"ABIKO","perfecture_jp":"千葉県","jp_add_1":"我孫子市","jp_add_2":"我孫子"},"2701155":{"post_code":"2701155","prefecture":"CHIBA KEN","city":"ABIKO SHI","town":"ABIKOSHINDEN","perfecture_jp":"千葉県","jp_add_1":"我孫子市","jp_add_2":"我孫子新田"},"2701112":{"post_code":"2701112","prefecture":"CHIBA KEN","city":"ABIKO SHI","town":"ARAKI","perfecture_jp":"千葉県","jp_add_1":"我孫子市","jp_add_2":"新木"},"2701114":{"post_code":"2701114","prefecture":"CHIBA KEN","city":"ABIKO SHI","town":"ARAKINO","perfecture_jp":"千葉県","jp_add_1":"我孫子市","jp_add_2":"新木野"},"2701118":{"post_code":"2701118","prefecture":"CHIBA KEN","city":"ABIKO SHI","town":"ARAKIMURASHITA","perfecture_jp":"千葉県","jp_add_1":"我孫子市","jp_add_2":"新木村下"},"2701142":{"post_code":"2701142","prefecture":"CHIBA KEN","city":"ABIKO SHI","town":"IZUMI","perfecture_jp":"千葉県","jp_add_1":"我孫子市","jp_add_2":"泉"},"2701131":{"post_code":"2701131","prefecture":"CHIBA KEN","city":"ABIKO SHI","town":"ICHIBU","perfecture_jp":"千葉県","jp_add_1":"我孫子市","jp_add_2":"都部"},"2701135":{"post_code":"2701135","prefecture":"CHIBA KEN","city":"ABIKO SHI","town":"ICHIBUSHINDEN","perfecture_jp":"千葉県","jp_add_1":"我孫子市","jp_add_2":"都部新田"},"2701134":{"post_code":"2701134","prefecture":"CHIBA KEN","city":"ABIKO SHI","town":"ICHIBUMURASHINDEN","perfecture_jp":"千葉県","jp_add_1":"我孫子市","jp_add_2":"都部村新田"},"2701113":{"post_code":"2701113","prefecture":"CHIBA KEN","city":"ABIKO SHI","town":"EZOCHI","perfecture_jp":"千葉県","jp_add_1":"我孫子市","jp_add_2":"江蔵地"},"2701115":{"post_code":"2701115","prefecture":"CHIBA KEN","city":"ABIKO SHI","town":"OSAKUSHINDEN","perfecture_jp":"千葉県","jp_add_1":"我孫子市","jp_add_2":"大作新田"},"2701137":{"post_code":"2701137","prefecture":"CHIBA KEN","city":"ABIKO SHI","town":"OKAHOTTO","perfecture_jp":"千葉県","jp_add_1":"我孫子市","jp_add_2":"岡発戸"},"2701136":{"post_code":"2701136","prefecture":"CHIBA KEN","city":"ABIKO SHI","town":"OKAHOTTOSHINDEN","perfecture_jp":"千葉県","jp_add_1":"我孫子市","jp_add_2":"岡発戸新田"},"2701133":{"post_code":"2701133","prefecture":"CHIBA KEN","city":"ABIKO SHI","town":"KAMINUMATA","perfecture_jp":"千葉県","jp_add_1":"我孫子市","jp_add_2":"上沼田"},"2701172":{"post_code":"2701172","prefecture":"CHIBA KEN","city":"ABIKO SHI","town":"KITASHINDEN","perfecture_jp":"千葉県","jp_add_1":"我孫子市","jp_add_2":"北新田"},"2701163":{"post_code":"2701163","prefecture":"CHIBA KEN","city":"ABIKO SHI","town":"KUJIKE","perfecture_jp":"千葉県","jp_add_1":"我孫子市","jp_add_2":"久寺家"},"2701145":{"post_code":"2701145","prefecture":"CHIBA KEN","city":"ABIKO SHI","town":"KONOYAMA","perfecture_jp":"千葉県","jp_add_1":"我孫子市","jp_add_2":"高野山"},"2701146":{"post_code":"2701146","prefecture":"CHIBA KEN","city":"ABIKO SHI","town":"KONOYAMASHINDEN","perfecture_jp":"千葉県","jp_add_1":"我孫子市","jp_add_2":"高野山新田"},"2701152":{"post_code":"2701152","prefecture":"CHIBA KEN","city":"ABIKO SHI","town":"KOTOBUKI","perfecture_jp":"千葉県","jp_add_1":"我孫子市","jp_add_2":"寿"},"2701132":{"post_code":"2701132","prefecture":"CHIBA KEN","city":"ABIKO SHI","town":"KOHOKUDAI","perfecture_jp":"千葉県","jp_add_1":"我孫子市","jp_add_2":"湖北台"},"2701141":{"post_code":"2701141","prefecture":"CHIBA KEN","city":"ABIKO SHI","town":"SAKAE","perfecture_jp":"千葉県","jp_add_1":"我孫子市","jp_add_2":"栄"},"2701138":{"post_code":"2701138","prefecture":"CHIBA KEN","city":"ABIKO SHI","town":"SAGETO","perfecture_jp":"千葉県","jp_add_1":"我孫子市","jp_add_2":"下ケ戸"},"2701177":{"post_code":"2701177","prefecture":"CHIBA KEN","city":"ABIKO SHI","town":"SHIBASAKI","perfecture_jp":"千葉県","jp_add_1":"我孫子市","jp_add_2":"柴崎"},"2701176":{"post_code":"2701176","prefecture":"CHIBA KEN","city":"ABIKO SHI","town":"SHIBASAKIDAI","perfecture_jp":"千葉県","jp_add_1":"我孫子市","jp_add_2":"柴崎台"},"2701117":{"post_code":"2701117","prefecture":"CHIBA KEN","city":"ABIKO SHI","town":"SHIMONUMATA","perfecture_jp":"千葉県","jp_add_1":"我孫子市","jp_add_2":"下沼田"},"2701104":{"post_code":"2701104","prefecture":"CHIBA KEN","city":"ABIKO SHI","town":"SHINSHINDEN","perfecture_jp":"千葉県","jp_add_1":"我孫子市","jp_add_2":"新々田"},"2701116":{"post_code":"2701116","prefecture":"CHIBA KEN","city":"ABIKO SHI","town":"SENGEMMAESHINDEN","perfecture_jp":"千葉県","jp_add_1":"我孫子市","jp_add_2":"浅間前新田"},"2701167":{"post_code":"2701167","prefecture":"CHIBA KEN","city":"ABIKO SHI","town":"DAIDA","perfecture_jp":"千葉県","jp_add_1":"我孫子市","jp_add_2":"台田"},"2701164":{"post_code":"2701164","prefecture":"CHIBA KEN","city":"ABIKO SHI","town":"TSUKUSHINO","perfecture_jp":"千葉県","jp_add_1":"我孫子市","jp_add_2":"つくし野"},"2701143":{"post_code":"2701143","prefecture":"CHIBA KEN","city":"ABIKO SHI","town":"TENNODAI","perfecture_jp":"千葉県","jp_add_1":"我孫子市","jp_add_2":"天王台"},"2701122":{"post_code":"2701122","prefecture":"CHIBA KEN","city":"ABIKO SHI","town":"NAKAZATO","perfecture_jp":"千葉県","jp_add_1":"我孫子市","jp_add_2":"中里"},"2701126":{"post_code":"2701126","prefecture":"CHIBA KEN","city":"ABIKO SHI","town":"NAKAZATOSHINDEN","perfecture_jp":"千葉県","jp_add_1":"我孫子市","jp_add_2":"中里新田"},"2701125":{"post_code":"2701125","prefecture":"CHIBA KEN","city":"ABIKO SHI","town":"NAKANUMATA","perfecture_jp":"千葉県","jp_add_1":"我孫子市","jp_add_2":"中沼田"},"2701121":{"post_code":"2701121","prefecture":"CHIBA KEN","city":"ABIKO SHI","town":"NAKABYO","perfecture_jp":"千葉県","jp_add_1":"我孫子市","jp_add_2":"中峠"},"2701128":{"post_code":"2701128","prefecture":"CHIBA KEN","city":"ABIKO SHI","town":"NAKABYODAI","perfecture_jp":"千葉県","jp_add_1":"我孫子市","jp_add_2":"中峠台"},"2701127":{"post_code":"2701127","prefecture":"CHIBA KEN","city":"ABIKO SHI","town":"NAKABYOMURASHITA","perfecture_jp":"千葉県","jp_add_1":"我孫子市","jp_add_2":"中峠村下"},"2701165":{"post_code":"2701165","prefecture":"CHIBA KEN","city":"ABIKO SHI","town":"NAMIKI","perfecture_jp":"千葉県","jp_add_1":"我孫子市","jp_add_2":"並木"},"2701168":{"post_code":"2701168","prefecture":"CHIBA KEN","city":"ABIKO SHI","town":"NEDO","perfecture_jp":"千葉県","jp_add_1":"我孫子市","jp_add_2":"根戸"},"2701156":{"post_code":"2701156","prefecture":"CHIBA KEN","city":"ABIKO SHI","town":"NEDOSHINDEN","perfecture_jp":"千葉県","jp_add_1":"我孫子市","jp_add_2":"根戸新田"},"2701154":{"post_code":"2701154","prefecture":"CHIBA KEN","city":"ABIKO SHI","town":"HAKUSAN","perfecture_jp":"千葉県","jp_add_1":"我孫子市","jp_add_2":"白山"},"2701144":{"post_code":"2701144","prefecture":"CHIBA KEN","city":"ABIKO SHI","town":"HIGASHIABIKO","perfecture_jp":"千葉県","jp_add_1":"我孫子市","jp_add_2":"東我孫子"},"2701174":{"post_code":"2701174","prefecture":"CHIBA KEN","city":"ABIKO SHI","town":"HINODE","perfecture_jp":"千葉県","jp_add_1":"我孫子市","jp_add_2":"日の出"},"2701123":{"post_code":"2701123","prefecture":"CHIBA KEN","city":"ABIKO SHI","town":"HIBIRI","perfecture_jp":"千葉県","jp_add_1":"我孫子市","jp_add_2":"日秀"},"2701124":{"post_code":"2701124","prefecture":"CHIBA KEN","city":"ABIKO SHI","town":"HIBIRISHINDEN","perfecture_jp":"千葉県","jp_add_1":"我孫子市","jp_add_2":"日秀新田"},"2701101":{"post_code":"2701101","prefecture":"CHIBA KEN","city":"ABIKO SHI","town":"FUSA","perfecture_jp":"千葉県","jp_add_1":"我孫子市","jp_add_2":"布佐"},"2701107":{"post_code":"2701107","prefecture":"CHIBA KEN","city":"ABIKO SHI","town":"FUSASHITASHINDEN","perfecture_jp":"千葉県","jp_add_1":"我孫子市","jp_add_2":"布佐下新田"},"2701103":{"post_code":"2701103","prefecture":"CHIBA KEN","city":"ABIKO SHI","town":"FUSATORIMACHI","perfecture_jp":"千葉県","jp_add_1":"我孫子市","jp_add_2":"布佐酉町"},"2701108":{"post_code":"2701108","prefecture":"CHIBA KEN","city":"ABIKO SHI","town":"FUSAHEIWADAI","perfecture_jp":"千葉県","jp_add_1":"我孫子市","jp_add_2":"布佐平和台"},"2701162":{"post_code":"2701162","prefecture":"CHIBA KEN","city":"ABIKO SHI","town":"FUSE","perfecture_jp":"千葉県","jp_add_1":"我孫子市","jp_add_2":"布施"},"2701161":{"post_code":"2701161","prefecture":"CHIBA KEN","city":"ABIKO SHI","town":"FUSESHITA","perfecture_jp":"千葉県","jp_add_1":"我孫子市","jp_add_2":"布施下"},"2701158":{"post_code":"2701158","prefecture":"CHIBA KEN","city":"ABIKO SHI","town":"FUNATO","perfecture_jp":"千葉県","jp_add_1":"我孫子市","jp_add_2":"船戸"},"2701111":{"post_code":"2701111","prefecture":"CHIBA KEN","city":"ABIKO SHI","town":"FURUDO","perfecture_jp":"千葉県","jp_add_1":"我孫子市","jp_add_2":"古戸"},"2701171":{"post_code":"2701171","prefecture":"CHIBA KEN","city":"ABIKO SHI","town":"BENTENSHITA","perfecture_jp":"千葉県","jp_add_1":"我孫子市","jp_add_2":"弁天下"},"2701151":{"post_code":"2701151","prefecture":"CHIBA KEN","city":"ABIKO SHI","town":"HONCHO","perfecture_jp":"千葉県","jp_add_1":"我孫子市","jp_add_2":"本町"},"2701105":{"post_code":"2701105","prefecture":"CHIBA KEN","city":"ABIKO SHI","town":"MIKAWAYASHINDEN","perfecture_jp":"千葉県","jp_add_1":"我孫子市","jp_add_2":"三河屋新田"},"2701153":{"post_code":"2701153","prefecture":"CHIBA KEN","city":"ABIKO SHI","town":"MIDORI","perfecture_jp":"千葉県","jp_add_1":"我孫子市","jp_add_2":"緑"},"2701178":{"post_code":"2701178","prefecture":"CHIBA KEN","city":"ABIKO SHI","town":"MINAMIAOYAMA","perfecture_jp":"千葉県","jp_add_1":"我孫子市","jp_add_2":"南青山"},"2701119":{"post_code":"2701119","prefecture":"CHIBA KEN","city":"ABIKO SHI","town":"MINAMIARAKI","perfecture_jp":"千葉県","jp_add_1":"我孫子市","jp_add_2":"南新木"},"2701102":{"post_code":"2701102","prefecture":"CHIBA KEN","city":"ABIKO SHI","town":"MIYAKO","perfecture_jp":"千葉県","jp_add_1":"我孫子市","jp_add_2":"都"},"2701157":{"post_code":"2701157","prefecture":"CHIBA KEN","city":"ABIKO SHI","town":"YOBATSUKASHINDEN","perfecture_jp":"千葉県","jp_add_1":"我孫子市","jp_add_2":"呼塚新田"},"2701147":{"post_code":"2701147","prefecture":"CHIBA KEN","city":"ABIKO SHI","town":"WAKAMATSU","perfecture_jp":"千葉県","jp_add_1":"我孫子市","jp_add_2":"若松"},"2701300":{"post_code":"2701300","prefecture":"CHIBA KEN","city":"INZAI SHI","town":"IKANIKEISAIGANAIBAAI","perfecture_jp":"千葉県","jp_add_1":"印西市","jp_add_2":""},"2701321":{"post_code":"2701321","prefecture":"CHIBA KEN","city":"INZAI SHI","town":"AIJIMA","perfecture_jp":"千葉県","jp_add_1":"印西市","jp_add_2":"相嶋"},"2702302":{"post_code":"2702302","prefecture":"CHIBA KEN","city":"INZAI SHI","town":"AJIKIBOKKUI","perfecture_jp":"千葉県","jp_add_1":"印西市","jp_add_2":"安食卜杭"},"2701351":{"post_code":"2701351","prefecture":"CHIBA KEN","city":"INZAI SHI","town":"IZUMI","perfecture_jp":"千葉県","jp_add_1":"印西市","jp_add_2":"和泉"},"2701353":{"post_code":"2701353","prefecture":"CHIBA KEN","city":"INZAI SHI","town":"IZUMI","perfecture_jp":"千葉県","jp_add_1":"印西市","jp_add_2":"泉"},"2701360":{"post_code":"2701360","prefecture":"CHIBA KEN","city":"INZAI SHI","town":"IZUMINO","perfecture_jp":"千葉県","jp_add_1":"印西市","jp_add_2":"泉野"},"2702323":{"post_code":"2702323","prefecture":"CHIBA KEN","city":"INZAI SHI","town":"IZUMIYA","perfecture_jp":"千葉県","jp_add_1":"印西市","jp_add_2":"和泉屋"},"2701616":{"post_code":"2701616","prefecture":"CHIBA KEN","city":"INZAI SHI","town":"IWATO","perfecture_jp":"千葉県","jp_add_1":"印西市","jp_add_2":"岩戸"},"2701347":{"post_code":"2701347","prefecture":"CHIBA KEN","city":"INZAI SHI","town":"UCHINO","perfecture_jp":"千葉県","jp_add_1":"印西市","jp_add_2":"内野"},"2701364":{"post_code":"2701364","prefecture":"CHIBA KEN","city":"INZAI SHI","town":"URAHATASHINDEN","perfecture_jp":"千葉県","jp_add_1":"印西市","jp_add_2":"浦幡新田"},"2701367":{"post_code":"2701367","prefecture":"CHIBA KEN","city":"INZAI SHI","town":"URABE","perfecture_jp":"千葉県","jp_add_1":"印西市","jp_add_2":"浦部"},"2701368":{"post_code":"2701368","prefecture":"CHIBA KEN","city":"INZAI SHI","town":"URABEMURASHINDEN","perfecture_jp":"千葉県","jp_add_1":"印西市","jp_add_2":"浦部村新田"},"2701352":{"post_code":"2701352","prefecture":"CHIBA KEN","city":"INZAI SHI","town":"OTSUKA","perfecture_jp":"千葉県","jp_add_1":"印西市","jp_add_2":"大塚"},"2701612":{"post_code":"2701612","prefecture":"CHIBA KEN","city":"INZAI SHI","town":"OBA","perfecture_jp":"千葉県","jp_add_1":"印西市","jp_add_2":"大廻"},"2701327":{"post_code":"2701327","prefecture":"CHIBA KEN","city":"INZAI SHI","town":"OMORI","perfecture_jp":"千葉県","jp_add_1":"印西市","jp_add_2":"大森"},"2701358":{"post_code":"2701358","prefecture":"CHIBA KEN","city":"INZAI SHI","town":"OGURA","perfecture_jp":"千葉県","jp_add_1":"印西市","jp_add_2":"小倉"},"2701356":{"post_code":"2701356","prefecture":"CHIBA KEN","city":"INZAI SHI","town":"OGURADAI","perfecture_jp":"千葉県","jp_add_1":"印西市","jp_add_2":"小倉台"},"2702318":{"post_code":"2702318","prefecture":"CHIBA KEN","city":"INZAI SHI","town":"OSHITSUKE","perfecture_jp":"千葉県","jp_add_1":"印西市","jp_add_2":"押付"},"2701363":{"post_code":"2701363","prefecture":"CHIBA KEN","city":"INZAI SHI","town":"KAGURO","perfecture_jp":"千葉県","jp_add_1":"印西市","jp_add_2":"鹿黒"},"2701369":{"post_code":"2701369","prefecture":"CHIBA KEN","city":"INZAI SHI","town":"KAGUROMINAMI","perfecture_jp":"千葉県","jp_add_1":"印西市","jp_add_2":"鹿黒南"},"2702322":{"post_code":"2702322","prefecture":"CHIBA KEN","city":"INZAI SHI","town":"KASAGAMI","perfecture_jp":"千葉県","jp_add_1":"印西市","jp_add_2":"笠神"},"2701613":{"post_code":"2701613","prefecture":"CHIBA KEN","city":"INZAI SHI","town":"KAMAGARI","perfecture_jp":"千葉県","jp_add_1":"印西市","jp_add_2":"鎌苅"},"2701362":{"post_code":"2701362","prefecture":"CHIBA KEN","city":"INZAI SHI","town":"KAMENARI","perfecture_jp":"千葉県","jp_add_1":"印西市","jp_add_2":"亀成"},"2702319":{"post_code":"2702319","prefecture":"CHIBA KEN","city":"INZAI SHI","town":"KAWAMUKAI","perfecture_jp":"千葉県","jp_add_1":"印西市","jp_add_2":"川向"},"2701326":{"post_code":"2701326","prefecture":"CHIBA KEN","city":"INZAI SHI","town":"KIOROSHI","perfecture_jp":"千葉県","jp_add_1":"印西市","jp_add_2":"木下"},"2701323":{"post_code":"2701323","prefecture":"CHIBA KEN","city":"INZAI SHI","town":"KIOROSHIHIGASHI","perfecture_jp":"千葉県","jp_add_1":"印西市","jp_add_2":"木下東"},"2701328":{"post_code":"2701328","prefecture":"CHIBA KEN","city":"INZAI SHI","town":"KIOROSHIMINAMI","perfecture_jp":"千葉県","jp_add_1":"印西市","jp_add_2":"木下南"},"2701359":{"post_code":"2701359","prefecture":"CHIBA KEN","city":"INZAI SHI","town":"KIKARI","perfecture_jp":"千葉県","jp_add_1":"印西市","jp_add_2":"木刈"},"2702316":{"post_code":"2702316","prefecture":"CHIBA KEN","city":"INZAI SHI","town":"GYOTOKU","perfecture_jp":"千葉県","jp_add_1":"印西市","jp_add_2":"行徳"},"2701343":{"post_code":"2701343","prefecture":"CHIBA KEN","city":"INZAI SHI","town":"KETSUENJI","perfecture_jp":"千葉県","jp_add_1":"印西市","jp_add_2":"結縁寺"},"2701365":{"post_code":"2701365","prefecture":"CHIBA KEN","city":"INZAI SHI","town":"KOSAISHINDEN","perfecture_jp":"千葉県","jp_add_1":"印西市","jp_add_2":"高西新田"},"2702326":{"post_code":"2702326","prefecture":"CHIBA KEN","city":"INZAI SHI","town":"KOYA","perfecture_jp":"千葉県","jp_add_1":"印西市","jp_add_2":"荒野"},"2701318":{"post_code":"2701318","prefecture":"CHIBA KEN","city":"INZAI SHI","town":"KOBAYASHI","perfecture_jp":"千葉県","jp_add_1":"印西市","jp_add_2":"小林"},"2701313":{"post_code":"2701313","prefecture":"CHIBA KEN","city":"INZAI SHI","town":"KOBAYASHIKITA","perfecture_jp":"千葉県","jp_add_1":"印西市","jp_add_2":"小林北"},"2701315":{"post_code":"2701315","prefecture":"CHIBA KEN","city":"INZAI SHI","town":"KOBAYASHISENGEN","perfecture_jp":"千葉県","jp_add_1":"印西市","jp_add_2":"小林浅間"},"2701316":{"post_code":"2701316","prefecture":"CHIBA KEN","city":"INZAI SHI","town":"KOBAYASHIDAIMONSHITA","perfecture_jp":"千葉県","jp_add_1":"印西市","jp_add_2":"小林大門下"},"2702303":{"post_code":"2702303","prefecture":"CHIBA KEN","city":"INZAI SHI","town":"SAKANAOBOKKUI","perfecture_jp":"千葉県","jp_add_1":"印西市","jp_add_2":"酒直卜杭"},"2702314":{"post_code":"2702314","prefecture":"CHIBA KEN","city":"INZAI SHI","town":"SAKURANO","perfecture_jp":"千葉県","jp_add_1":"印西市","jp_add_2":"桜野"},"2702305":{"post_code":"2702305","prefecture":"CHIBA KEN","city":"INZAI SHI","town":"SANOYA","perfecture_jp":"千葉県","jp_add_1":"印西市","jp_add_2":"佐野屋"},"2702313":{"post_code":"2702313","prefecture":"CHIBA KEN","city":"INZAI SHI","town":"SHIMOI","perfecture_jp":"千葉県","jp_add_1":"印西市","jp_add_2":"下井"},"2702317":{"post_code":"2702317","prefecture":"CHIBA KEN","city":"INZAI SHI","town":"SHIMOZONE","perfecture_jp":"千葉県","jp_add_1":"印西市","jp_add_2":"下曽根"},"2702301":{"post_code":"2702301","prefecture":"CHIBA KEN","city":"INZAI SHI","town":"SHOGEN","perfecture_jp":"千葉県","jp_add_1":"印西市","jp_add_2":"将監"},"2701366":{"post_code":"2701366","prefecture":"CHIBA KEN","city":"INZAI SHI","town":"SHIRAHATA","perfecture_jp":"千葉県","jp_add_1":"印西市","jp_add_2":"白幡"},"2702304":{"post_code":"2702304","prefecture":"CHIBA KEN","city":"INZAI SHI","town":"JIMBEE","perfecture_jp":"千葉県","jp_add_1":"印西市","jp_add_2":"甚兵衛"},"2701614":{"post_code":"2701614","prefecture":"CHIBA KEN","city":"INZAI SHI","town":"SETO","perfecture_jp":"千葉県","jp_add_1":"印西市","jp_add_2":"瀬戸"},"2701322":{"post_code":"2701322","prefecture":"CHIBA KEN","city":"INZAI SHI","town":"SENGEMMAE","perfecture_jp":"千葉県","jp_add_1":"印西市","jp_add_2":"浅間前"},"2701337":{"post_code":"2701337","prefecture":"CHIBA KEN","city":"INZAI SHI","town":"SOFUKE","perfecture_jp":"千葉県","jp_add_1":"印西市","jp_add_2":"草深"},"2701333":{"post_code":"2701333","prefecture":"CHIBA KEN","city":"INZAI SHI","town":"SOHO","perfecture_jp":"千葉県","jp_add_1":"印西市","jp_add_2":"宗甫"},"2701342":{"post_code":"2701342","prefecture":"CHIBA KEN","city":"INZAI SHI","town":"TAKABANA","perfecture_jp":"千葉県","jp_add_1":"印西市","jp_add_2":"高花"},"2702328":{"post_code":"2702328","prefecture":"CHIBA KEN","city":"INZAI SHI","town":"TAKI","perfecture_jp":"千葉県","jp_add_1":"印西市","jp_add_2":"滝"},"2702329":{"post_code":"2702329","prefecture":"CHIBA KEN","city":"INZAI SHI","town":"TAKINO","perfecture_jp":"千葉県","jp_add_1":"印西市","jp_add_2":"滝野"},"2701325":{"post_code":"2701325","prefecture":"CHIBA KEN","city":"INZAI SHI","town":"TAKEFUKURO","perfecture_jp":"千葉県","jp_add_1":"印西市","jp_add_2":"竹袋"},"2701346":{"post_code":"2701346","prefecture":"CHIBA KEN","city":"INZAI SHI","town":"TATARADA","perfecture_jp":"千葉県","jp_add_1":"印西市","jp_add_2":"多々羅田"},"2701350":{"post_code":"2701350","prefecture":"CHIBA KEN","city":"INZAI SHI","town":"CHUOKITA","perfecture_jp":"千葉県","jp_add_1":"印西市","jp_add_2":"中央北"},"2701340":{"post_code":"2701340","prefecture":"CHIBA KEN","city":"INZAI SHI","town":"CHUOMINAMI","perfecture_jp":"千葉県","jp_add_1":"印西市","jp_add_2":"中央南"},"2701611":{"post_code":"2701611","prefecture":"CHIBA KEN","city":"INZAI SHI","town":"TSUKURIYA","perfecture_jp":"千葉県","jp_add_1":"印西市","jp_add_2":"造谷"},"2701618":{"post_code":"2701618","prefecture":"CHIBA KEN","city":"INZAI SHI","town":"TSUKURIYADAI","perfecture_jp":"千葉県","jp_add_1":"印西市","jp_add_2":"つくりや台"},"2702325":{"post_code":"2702325","prefecture":"CHIBA KEN","city":"INZAI SHI","town":"TSUNODA","perfecture_jp":"千葉県","jp_add_1":"印西市","jp_add_2":"角田"},"2701348":{"post_code":"2701348","prefecture":"CHIBA KEN","city":"INZAI SHI","town":"TOKAMI","perfecture_jp":"千葉県","jp_add_1":"印西市","jp_add_2":"戸神"},"2701349":{"post_code":"2701349","prefecture":"CHIBA KEN","city":"INZAI SHI","town":"TOKAMIDAI","perfecture_jp":"千葉県","jp_add_1":"印西市","jp_add_2":"戸神台"},"2702315":{"post_code":"2702315","prefecture":"CHIBA KEN","city":"INZAI SHI","town":"NAKA","perfecture_jp":"千葉県","jp_add_1":"印西市","jp_add_2":"中"},"2702306":{"post_code":"2702306","prefecture":"CHIBA KEN","city":"INZAI SHI","town":"NAKATAGIRI","perfecture_jp":"千葉県","jp_add_1":"印西市","jp_add_2":"中田切"},"2702312":{"post_code":"2702312","prefecture":"CHIBA KEN","city":"INZAI SHI","town":"NAGATOYA","perfecture_jp":"千葉県","jp_add_1":"印西市","jp_add_2":"長門屋"},"2702324":{"post_code":"2702324","prefecture":"CHIBA KEN","city":"INZAI SHI","town":"NAKANE","perfecture_jp":"千葉県","jp_add_1":"印西市","jp_add_2":"中根"},"2701334":{"post_code":"2701334","prefecture":"CHIBA KEN","city":"INZAI SHI","town":"NISHINOHARA","perfecture_jp":"千葉県","jp_add_1":"印西市","jp_add_2":"西の原"},"2702311":{"post_code":"2702311","prefecture":"CHIBA KEN","city":"INZAI SHI","town":"HAGINO","perfecture_jp":"千葉県","jp_add_1":"印西市","jp_add_2":"萩埜"},"2701601":{"post_code":"2701601","prefecture":"CHIBA KEN","city":"INZAI SHI","town":"HAGIWARA","perfecture_jp":"千葉県","jp_add_1":"印西市","jp_add_2":"萩原"},"2701335":{"post_code":"2701335","prefecture":"CHIBA KEN","city":"INZAI SHI","town":"HARA","perfecture_jp":"千葉県","jp_add_1":"印西市","jp_add_2":"原"},"2701341":{"post_code":"2701341","prefecture":"CHIBA KEN","city":"INZAI SHI","town":"HARAYAMA","perfecture_jp":"千葉県","jp_add_1":"印西市","jp_add_2":"原山"},"2701336":{"post_code":"2701336","prefecture":"CHIBA KEN","city":"INZAI SHI","town":"HIGASHINOHARA","perfecture_jp":"千葉県","jp_add_1":"印西市","jp_add_2":"東の原"},"2701324":{"post_code":"2701324","prefecture":"CHIBA KEN","city":"INZAI SHI","town":"HIRAOKA","perfecture_jp":"千葉県","jp_add_1":"印西市","jp_add_2":"平岡"},"2701605":{"post_code":"2701605","prefecture":"CHIBA KEN","city":"INZAI SHI","town":"HIRAKA","perfecture_jp":"千葉県","jp_add_1":"印西市","jp_add_2":"平賀"},"2701606":{"post_code":"2701606","prefecture":"CHIBA KEN","city":"INZAI SHI","town":"HIRAKAGAKUENDAI","perfecture_jp":"千葉県","jp_add_1":"印西市","jp_add_2":"平賀学園台"},"2701345":{"post_code":"2701345","prefecture":"CHIBA KEN","city":"INZAI SHI","town":"FUNAO","perfecture_jp":"千葉県","jp_add_1":"印西市","jp_add_2":"船尾"},"2701332":{"post_code":"2701332","prefecture":"CHIBA KEN","city":"INZAI SHI","town":"BESSHO","perfecture_jp":"千葉県","jp_add_1":"印西市","jp_add_2":"別所"},"2701361":{"post_code":"2701361","prefecture":"CHIBA KEN","city":"INZAI SHI","town":"HOSSAKU","perfecture_jp":"千葉県","jp_add_1":"印西市","jp_add_2":"発作"},"2701608":{"post_code":"2701608","prefecture":"CHIBA KEN","city":"INZAI SHI","town":"MAIHIME","perfecture_jp":"千葉県","jp_add_1":"印西市","jp_add_2":"舞姫"},"2701357":{"post_code":"2701357","prefecture":"CHIBA KEN","city":"INZAI SHI","town":"MAKINOKIDO","perfecture_jp":"千葉県","jp_add_1":"印西市","jp_add_2":"牧の木戸"},"2701339":{"post_code":"2701339","prefecture":"CHIBA KEN","city":"INZAI SHI","town":"MAKINODAI","perfecture_jp":"千葉県","jp_add_1":"印西市","jp_add_2":"牧の台"},"2701331":{"post_code":"2701331","prefecture":"CHIBA KEN","city":"INZAI SHI","town":"MAKINOHARA","perfecture_jp":"千葉県","jp_add_1":"印西市","jp_add_2":"牧の原"},"2702307":{"post_code":"2702307","prefecture":"CHIBA KEN","city":"INZAI SHI","town":"MATSUKI","perfecture_jp":"千葉県","jp_add_1":"印西市","jp_add_2":"松木"},"2701344":{"post_code":"2701344","prefecture":"CHIBA KEN","city":"INZAI SHI","town":"MATSUZAKI","perfecture_jp":"千葉県","jp_add_1":"印西市","jp_add_2":"松崎"},"2701338":{"post_code":"2701338","prefecture":"CHIBA KEN","city":"INZAI SHI","town":"MATSUZAKIDAI","perfecture_jp":"千葉県","jp_add_1":"印西市","jp_add_2":"松崎台"},"2701602":{"post_code":"2701602","prefecture":"CHIBA KEN","city":"INZAI SHI","town":"MATSUMUSHI","perfecture_jp":"千葉県","jp_add_1":"印西市","jp_add_2":"松虫"},"2701607":{"post_code":"2701607","prefecture":"CHIBA KEN","city":"INZAI SHI","town":"MISE","perfecture_jp":"千葉県","jp_add_1":"印西市","jp_add_2":"美瀬"},"2702331":{"post_code":"2702331","prefecture":"CHIBA KEN","city":"INZAI SHI","town":"MIDORIDAI","perfecture_jp":"千葉県","jp_add_1":"印西市","jp_add_2":"みどり台"},"2701354":{"post_code":"2701354","prefecture":"CHIBA KEN","city":"INZAI SHI","town":"MUZAI","perfecture_jp":"千葉県","jp_add_1":"印西市","jp_add_2":"武西"},"2701355":{"post_code":"2701355","prefecture":"CHIBA KEN","city":"INZAI SHI","town":"MUZAIGAKUENDAI","perfecture_jp":"千葉県","jp_add_1":"印西市","jp_add_2":"武西学園台"},"2702308":{"post_code":"2702308","prefecture":"CHIBA KEN","city":"INZAI SHI","town":"MOTONOKOBAYASHI","perfecture_jp":"千葉県","jp_add_1":"印西市","jp_add_2":"本埜小林"},"2702321":{"post_code":"2702321","prefecture":"CHIBA KEN","city":"INZAI SHI","town":"MONOKI","perfecture_jp":"千葉県","jp_add_1":"印西市","jp_add_2":"物木"},"2701615":{"post_code":"2701615","prefecture":"CHIBA KEN","city":"INZAI SHI","town":"MOROTO","perfecture_jp":"千葉県","jp_add_1":"印西市","jp_add_2":"師戸"},"2701604":{"post_code":"2701604","prefecture":"CHIBA KEN","city":"INZAI SHI","town":"YAMADA","perfecture_jp":"千葉県","jp_add_1":"印西市","jp_add_2":"山田"},"2701617":{"post_code":"2701617","prefecture":"CHIBA KEN","city":"INZAI SHI","town":"YOSHIDA","perfecture_jp":"千葉県","jp_add_1":"印西市","jp_add_2":"吉田"},"2701603":{"post_code":"2701603","prefecture":"CHIBA KEN","city":"INZAI SHI","town":"YOSHITAKA","perfecture_jp":"千葉県","jp_add_1":"印西市","jp_add_2":"吉高"},"2702327":{"post_code":"2702327","prefecture":"CHIBA KEN","city":"INZAI SHI","town":"RYUFUKUJI","perfecture_jp":"千葉県","jp_add_1":"印西市","jp_add_2":"竜腹寺"},"2701609":{"post_code":"2701609","prefecture":"CHIBA KEN","city":"INZAI SHI","town":"WAKAHAGI","perfecture_jp":"千葉県","jp_add_1":"印西市","jp_add_2":"若萩"},"2701400":{"post_code":"2701400","prefecture":"CHIBA KEN","city":"SHIROI SHI","town":"IKANIKEISAIGANAIBAAI","perfecture_jp":"千葉県","jp_add_1":"白井市","jp_add_2":""},"2701425":{"post_code":"2701425","prefecture":"CHIBA KEN","city":"SHIROI SHI","town":"IKENOKAMI","perfecture_jp":"千葉県","jp_add_1":"白井市","jp_add_2":"池の上"},"2701401":{"post_code":"2701401","prefecture":"CHIBA KEN","city":"SHIROI SHI","town":"IMAI","perfecture_jp":"千葉県","jp_add_1":"白井市","jp_add_2":"今井"},"2701434":{"post_code":"2701434","prefecture":"CHIBA KEN","city":"SHIROI SHI","town":"OYAMAGUCHI","perfecture_jp":"千葉県","jp_add_1":"白井市","jp_add_2":"大山口"},"2701404":{"post_code":"2701404","prefecture":"CHIBA KEN","city":"SHIROI SHI","town":"ORITATE","perfecture_jp":"千葉県","jp_add_1":"白井市","jp_add_2":"折立"},"2701403":{"post_code":"2701403","prefecture":"CHIBA KEN","city":"SHIROI SHI","town":"KAWARAGO","perfecture_jp":"千葉県","jp_add_1":"白井市","jp_add_2":"河原子"},"2701437":{"post_code":"2701437","prefecture":"CHIBA KEN","city":"SHIROI SHI","town":"KI","perfecture_jp":"千葉県","jp_add_1":"白井市","jp_add_2":"木"},"2701415":{"post_code":"2701415","prefecture":"CHIBA KEN","city":"SHIROI SHI","town":"KIYODO","perfecture_jp":"千葉県","jp_add_1":"白井市","jp_add_2":"清戸"},"2701433":{"post_code":"2701433","prefecture":"CHIBA KEN","city":"SHIROI SHI","town":"KEYAKIDAI","perfecture_jp":"千葉県","jp_add_1":"白井市","jp_add_2":"けやき台"},"2701412":{"post_code":"2701412","prefecture":"CHIBA KEN","city":"SHIROI SHI","town":"SAKURADAI","perfecture_jp":"千葉県","jp_add_1":"白井市","jp_add_2":"桜台"},"2701426":{"post_code":"2701426","prefecture":"CHIBA KEN","city":"SHIROI SHI","town":"SASAZUKA","perfecture_jp":"千葉県","jp_add_1":"白井市","jp_add_2":"笹塚"},"2701416":{"post_code":"2701416","prefecture":"CHIBA KEN","city":"SHIROI SHI","town":"SHISHIBA","perfecture_jp":"千葉県","jp_add_1":"白井市","jp_add_2":"神々廻"},"2701435":{"post_code":"2701435","prefecture":"CHIBA KEN","city":"SHIROI SHI","town":"SHIMIZUGUCHI","perfecture_jp":"千葉県","jp_add_1":"白井市","jp_add_2":"清水口"},"2701421":{"post_code":"2701421","prefecture":"CHIBA KEN","city":"SHIROI SHI","town":"SHIROI","perfecture_jp":"千葉県","jp_add_1":"白井市","jp_add_2":"白井"},"2701439":{"post_code":"2701439","prefecture":"CHIBA KEN","city":"SHIROI SHI","town":"DAIMATSU","perfecture_jp":"千葉県","jp_add_1":"白井市","jp_add_2":"大松"},"2701405":{"post_code":"2701405","prefecture":"CHIBA KEN","city":"SHIROI SHI","town":"TOMITSUKA","perfecture_jp":"千葉県","jp_add_1":"白井市","jp_add_2":"富塚"},"2701411":{"post_code":"2701411","prefecture":"CHIBA KEN","city":"SHIROI SHI","town":"TOYOICHI","perfecture_jp":"千葉県","jp_add_1":"白井市","jp_add_2":"十余一"},"2701407":{"post_code":"2701407","prefecture":"CHIBA KEN","city":"SHIROI SHI","town":"NAUCHI","perfecture_jp":"千葉県","jp_add_1":"白井市","jp_add_2":"名内"},"2701406":{"post_code":"2701406","prefecture":"CHIBA KEN","city":"SHIROI SHI","town":"NAKA","perfecture_jp":"千葉県","jp_add_1":"白井市","jp_add_2":"中"},"2701436":{"post_code":"2701436","prefecture":"CHIBA KEN","city":"SHIROI SHI","town":"NANATSUGIDAI","perfecture_jp":"千葉県","jp_add_1":"白井市","jp_add_2":"七次台"},"2701408":{"post_code":"2701408","prefecture":"CHIBA KEN","city":"SHIROI SHI","town":"NISHISHIROI","perfecture_jp":"千葉県","jp_add_1":"白井市","jp_add_2":"西白井"},"2701431":{"post_code":"2701431","prefecture":"CHIBA KEN","city":"SHIROI SHI","town":"NE","perfecture_jp":"千葉県","jp_add_1":"白井市","jp_add_2":"根"},"2701438":{"post_code":"2701438","prefecture":"CHIBA KEN","city":"SHIROI SHI","town":"NOGUCHI","perfecture_jp":"千葉県","jp_add_1":"白井市","jp_add_2":"野口"},"2701402":{"post_code":"2701402","prefecture":"CHIBA KEN","city":"SHIROI SHI","town":"HIRATSUKA","perfecture_jp":"千葉県","jp_add_1":"白井市","jp_add_2":"平塚"},"2701422":{"post_code":"2701422","prefecture":"CHIBA KEN","city":"SHIROI SHI","town":"FUKU","perfecture_jp":"千葉県","jp_add_1":"白井市","jp_add_2":"復"},"2701432":{"post_code":"2701432","prefecture":"CHIBA KEN","city":"SHIROI SHI","town":"FUJI","perfecture_jp":"千葉県","jp_add_1":"白井市","jp_add_2":"冨士"},"2701424":{"post_code":"2701424","prefecture":"CHIBA KEN","city":"SHIROI SHI","town":"HORIGOME","perfecture_jp":"千葉県","jp_add_1":"白井市","jp_add_2":"堀込"},"2701423":{"post_code":"2701423","prefecture":"CHIBA KEN","city":"SHIROI SHI","town":"MINAMIYAMA","perfecture_jp":"千葉県","jp_add_1":"白井市","jp_add_2":"南山"},"2701413":{"post_code":"2701413","prefecture":"CHIBA KEN","city":"SHIROI SHI","town":"MUZAI","perfecture_jp":"千葉県","jp_add_1":"白井市","jp_add_2":"武西"},"2701414":{"post_code":"2701414","prefecture":"CHIBA KEN","city":"SHIROI SHI","town":"YATA","perfecture_jp":"千葉県","jp_add_1":"白井市","jp_add_2":"谷田"},"2701500":{"post_code":"2701500","prefecture":"CHIBA KEN","city":"IMBA GUN SAKAE MACHI","town":"IKANIKEISAIGANAIBAAI","perfecture_jp":"千葉県","jp_add_1":"印旛郡栄町","jp_add_2":""},"2701516":{"post_code":"2701516","prefecture":"CHIBA KEN","city":"IMBA GUN SAKAE MACHI","town":"AJIKI","perfecture_jp":"千葉県","jp_add_1":"印旛郡栄町","jp_add_2":"安食"},"2701515":{"post_code":"2701515","prefecture":"CHIBA KEN","city":"IMBA GUN SAKAE MACHI","town":"AJIKIDAI","perfecture_jp":"千葉県","jp_add_1":"印旛郡栄町","jp_add_2":"安食台"},"2701517":{"post_code":"2701517","prefecture":"CHIBA KEN","city":"IMBA GUN SAKAE MACHI","town":"AJIKIBOTSUKUISHINDEN","perfecture_jp":"千葉県","jp_add_1":"印旛郡栄町","jp_add_2":"安食卜杭新田"},"2701504":{"post_code":"2701504","prefecture":"CHIBA KEN","city":"IMBA GUN SAKAE MACHI","town":"ASO","perfecture_jp":"千葉県","jp_add_1":"印旛郡栄町","jp_add_2":"麻生"},"2701543":{"post_code":"2701543","prefecture":"CHIBA KEN","city":"IMBA GUN SAKAE MACHI","town":"UKEKATA","perfecture_jp":"千葉県","jp_add_1":"印旛郡栄町","jp_add_2":"請方"},"2701526":{"post_code":"2701526","prefecture":"CHIBA KEN","city":"IMBA GUN SAKAE MACHI","town":"OMORI","perfecture_jp":"千葉県","jp_add_1":"印旛郡栄町","jp_add_2":"大森"},"2701503":{"post_code":"2701503","prefecture":"CHIBA KEN","city":"IMBA GUN SAKAE MACHI","town":"OKITSU","perfecture_jp":"千葉県","jp_add_1":"印旛郡栄町","jp_add_2":"興津"},"2701527":{"post_code":"2701527","prefecture":"CHIBA KEN","city":"IMBA GUN SAKAE MACHI","town":"OSHITSUKE","perfecture_jp":"千葉県","jp_add_1":"印旛郡栄町","jp_add_2":"押付"},"2701545":{"post_code":"2701545","prefecture":"CHIBA KEN","city":"IMBA GUN SAKAE MACHI","town":"KITA","perfecture_jp":"千葉県","jp_add_1":"印旛郡栄町","jp_add_2":"北"},"2701511":{"post_code":"2701511","prefecture":"CHIBA KEN","city":"IMBA GUN SAKAE MACHI","town":"KITABETA","perfecture_jp":"千葉県","jp_add_1":"印旛郡栄町","jp_add_2":"北辺田"},"2701513":{"post_code":"2701513","prefecture":"CHIBA KEN","city":"IMBA GUN SAKAE MACHI","town":"SAKANAO","perfecture_jp":"千葉県","jp_add_1":"印旛郡栄町","jp_add_2":"酒直"},"2701514":{"post_code":"2701514","prefecture":"CHIBA KEN","city":"IMBA GUN SAKAE MACHI","town":"SAKANAODAI","perfecture_jp":"千葉県","jp_add_1":"印旛郡栄町","jp_add_2":"酒直台"},"2701525":{"post_code":"2701525","prefecture":"CHIBA KEN","city":"IMBA GUN SAKAE MACHI","town":"SHIKA","perfecture_jp":"千葉県","jp_add_1":"印旛郡栄町","jp_add_2":"四箇"},"2701512":{"post_code":"2701512","prefecture":"CHIBA KEN","city":"IMBA GUN SAKAE MACHI","town":"SUKA","perfecture_jp":"千葉県","jp_add_1":"印旛郡栄町","jp_add_2":"須賀"},"2701531":{"post_code":"2701531","prefecture":"CHIBA KEN","city":"IMBA GUN SAKAE MACHI","town":"SONE","perfecture_jp":"千葉県","jp_add_1":"印旛郡栄町","jp_add_2":"曽根"},"2701544":{"post_code":"2701544","prefecture":"CHIBA KEN","city":"IMBA GUN SAKAE MACHI","town":"NAKAYA","perfecture_jp":"千葉県","jp_add_1":"印旛郡栄町","jp_add_2":"中谷"},"2701524":{"post_code":"2701524","prefecture":"CHIBA KEN","city":"IMBA GUN SAKAE MACHI","town":"NAGATOYA","perfecture_jp":"千葉県","jp_add_1":"印旛郡栄町","jp_add_2":"長門谷"},"2701534":{"post_code":"2701534","prefecture":"CHIBA KEN","city":"IMBA GUN SAKAE MACHI","town":"NISHI","perfecture_jp":"千葉県","jp_add_1":"印旛郡栄町","jp_add_2":"西"},"2701522":{"post_code":"2701522","prefecture":"CHIBA KEN","city":"IMBA GUN SAKAE MACHI","town":"FUKAMASAKANAO","perfecture_jp":"千葉県","jp_add_1":"印旛郡栄町","jp_add_2":"布鎌酒直"},"2701535":{"post_code":"2701535","prefecture":"CHIBA KEN","city":"IMBA GUN SAKAE MACHI","town":"FUDA","perfecture_jp":"千葉県","jp_add_1":"印旛郡栄町","jp_add_2":"布太"},"2701546":{"post_code":"2701546","prefecture":"CHIBA KEN","city":"IMBA GUN SAKAE MACHI","town":"MANAITANABEKOSHINDEN","perfecture_jp":"千葉県","jp_add_1":"印旛郡栄町","jp_add_2":"生板鍋子新田"},"2701532":{"post_code":"2701532","prefecture":"CHIBA KEN","city":"IMBA GUN SAKAE MACHI","town":"MINAMI","perfecture_jp":"千葉県","jp_add_1":"印旛郡栄町","jp_add_2":"南"},"2701533":{"post_code":"2701533","prefecture":"CHIBA KEN","city":"IMBA GUN SAKAE MACHI","town":"MINAMIGAOKA","perfecture_jp":"千葉県","jp_add_1":"印旛郡栄町","jp_add_2":"南ケ丘"},"2701536":{"post_code":"2701536","prefecture":"CHIBA KEN","city":"IMBA GUN SAKAE MACHI","town":"MIWA","perfecture_jp":"千葉県","jp_add_1":"印旛郡栄町","jp_add_2":"三和"},"2701502":{"post_code":"2701502","prefecture":"CHIBA KEN","city":"IMBA GUN SAKAE MACHI","town":"YAKO","perfecture_jp":"千葉県","jp_add_1":"印旛郡栄町","jp_add_2":"矢口"},"2701501":{"post_code":"2701501","prefecture":"CHIBA KEN","city":"IMBA GUN SAKAE MACHI","town":"YAKOSHIMMEI","perfecture_jp":"千葉県","jp_add_1":"印旛郡栄町","jp_add_2":"矢口神明"},"2701542":{"post_code":"2701542","prefecture":"CHIBA KEN","city":"IMBA GUN SAKAE MACHI","town":"YOTSUYA","perfecture_jp":"千葉県","jp_add_1":"印旛郡栄町","jp_add_2":"四ッ谷"},"2701506":{"post_code":"2701506","prefecture":"CHIBA KEN","city":"IMBA GUN SAKAE MACHI","town":"RYUKAKUJI","perfecture_jp":"千葉県","jp_add_1":"印旛郡栄町","jp_add_2":"龍角寺"},"2701505":{"post_code":"2701505","prefecture":"CHIBA KEN","city":"IMBA GUN SAKAE MACHI","town":"RYUKAKUJIDAI","perfecture_jp":"千葉県","jp_add_1":"印旛郡栄町","jp_add_2":"竜角寺台"},"2701541":{"post_code":"2701541","prefecture":"CHIBA KEN","city":"IMBA GUN SAKAE MACHI","town":"RYUGASAKICHOBU","perfecture_jp":"千葉県","jp_add_1":"印旛郡栄町","jp_add_2":"龍ケ崎町歩"},"2701523":{"post_code":"2701523","prefecture":"CHIBA KEN","city":"IMBA GUN SAKAE MACHI","town":"WAKIKAWA","perfecture_jp":"千葉県","jp_add_1":"印旛郡栄町","jp_add_2":"脇川"},"2701521":{"post_code":"2701521","prefecture":"CHIBA KEN","city":"IMBA GUN SAKAE MACHI","town":"WADA","perfecture_jp":"千葉県","jp_add_1":"印旛郡栄町","jp_add_2":"和田"}}