{"2720000":{"post_code":"2720000","prefecture":"CHIBA KEN","city":"ICHIKAWA SHI","town":"IKANIKEISAIGANAIBAAI","perfecture_jp":"千葉県","jp_add_1":"市川市","jp_add_2":""},"2720143":{"post_code":"2720143","prefecture":"CHIBA KEN","city":"ICHIKAWA SHI","town":"AINOKAWA","perfecture_jp":"千葉県","jp_add_1":"市川市","jp_add_2":"相之川"},"2720144":{"post_code":"2720144","prefecture":"CHIBA KEN","city":"ICHIKAWA SHI","town":"ARAI","perfecture_jp":"千葉県","jp_add_1":"市川市","jp_add_2":"新井"},"2720106":{"post_code":"2720106","prefecture":"CHIBA KEN","city":"ICHIKAWA SHI","town":"ISEJUKU","perfecture_jp":"千葉県","jp_add_1":"市川市","jp_add_2":"伊勢宿"},"2720034":{"post_code":"2720034","prefecture":"CHIBA KEN","city":"ICHIKAWA SHI","town":"ICHIKAWA","perfecture_jp":"千葉県","jp_add_1":"市川市","jp_add_2":"市川"},"2720033":{"post_code":"2720033","prefecture":"CHIBA KEN","city":"ICHIKAWA SHI","town":"ICHIKAWAMINAMI","perfecture_jp":"千葉県","jp_add_1":"市川市","jp_add_2":"市川南"},"2720831":{"post_code":"2720831","prefecture":"CHIBA KEN","city":"ICHIKAWA SHI","town":"INAGOSHIMACHI","perfecture_jp":"千葉県","jp_add_1":"市川市","jp_add_2":"稲越町"},"2720134":{"post_code":"2720134","prefecture":"CHIBA KEN","city":"ICHIKAWA SHI","town":"IRIFUNE","perfecture_jp":"千葉県","jp_add_1":"市川市","jp_add_2":"入船"},"2720032":{"post_code":"2720032","prefecture":"CHIBA KEN","city":"ICHIKAWA SHI","town":"OSU","perfecture_jp":"千葉県","jp_add_1":"市川市","jp_add_2":"大洲"},"2720805":{"post_code":"2720805","prefecture":"CHIBA KEN","city":"ICHIKAWA SHI","town":"ONOMACHI","perfecture_jp":"千葉県","jp_add_1":"市川市","jp_add_2":"大野町"},"2720801":{"post_code":"2720801","prefecture":"CHIBA KEN","city":"ICHIKAWA SHI","town":"OMACHI","perfecture_jp":"千葉県","jp_add_1":"市川市","jp_add_2":"大町"},"2720025":{"post_code":"2720025","prefecture":"CHIBA KEN","city":"ICHIKAWA SHI","town":"OWADA","perfecture_jp":"千葉県","jp_add_1":"市川市","jp_add_2":"大和田"},"2720107":{"post_code":"2720107","prefecture":"CHIBA KEN","city":"ICHIKAWA SHI","town":"OSHIKIRI","perfecture_jp":"千葉県","jp_add_1":"市川市","jp_add_2":"押切"},"2720022":{"post_code":"2720022","prefecture":"CHIBA KEN","city":"ICHIKAWA SHI","town":"ONIGOE","perfecture_jp":"千葉県","jp_add_1":"市川市","jp_add_2":"鬼越"},"2720015":{"post_code":"2720015","prefecture":"CHIBA KEN","city":"ICHIKAWA SHI","town":"ONITAKA","perfecture_jp":"千葉県","jp_add_1":"市川市","jp_add_2":"鬼高"},"2720142":{"post_code":"2720142","prefecture":"CHIBA KEN","city":"ICHIKAWA SHI","town":"KAKEMAMA","perfecture_jp":"千葉県","jp_add_1":"市川市","jp_add_2":"欠真間"},"2720802":{"post_code":"2720802","prefecture":"CHIBA KEN","city":"ICHIKAWA SHI","town":"KASHIWAIMACHI","perfecture_jp":"千葉県","jp_add_1":"市川市","jp_add_2":"柏井町"},"2720124":{"post_code":"2720124","prefecture":"CHIBA KEN","city":"ICHIKAWA SHI","town":"KATOSHINDEN","perfecture_jp":"千葉県","jp_add_1":"市川市","jp_add_2":"加藤新田"},"2720112":{"post_code":"2720112","prefecture":"CHIBA KEN","city":"ICHIKAWA SHI","town":"KAMIMYODEN(1-999-BANCHI)","perfecture_jp":"千葉県","jp_add_1":"市川市","jp_add_2":"上妙典"},"2720012":{"post_code":"2720012","prefecture":"CHIBA KEN","city":"ICHIKAWA SHI","town":"KAMIMYODEN(SONOTA)","perfecture_jp":"千葉県","jp_add_1":"市川市","jp_add_2":"上妙典"},"2720101":{"post_code":"2720101","prefecture":"CHIBA KEN","city":"ICHIKAWA SHI","town":"KAWARA","perfecture_jp":"千葉県","jp_add_1":"市川市","jp_add_2":"河原"},"2720141":{"post_code":"2720141","prefecture":"CHIBA KEN","city":"ICHIKAWA SHI","town":"KANDORI","perfecture_jp":"千葉県","jp_add_1":"市川市","jp_add_2":"香取"},"2720815":{"post_code":"2720815","prefecture":"CHIBA KEN","city":"ICHIKAWA SHI","town":"KITAKATA","perfecture_jp":"千葉県","jp_add_1":"市川市","jp_add_2":"北方"},"2720836":{"post_code":"2720836","prefecture":"CHIBA KEN","city":"ICHIKAWA SHI","town":"KITAKOKUBUN","perfecture_jp":"千葉県","jp_add_1":"市川市","jp_add_2":"北国分"},"2720133":{"post_code":"2720133","prefecture":"CHIBA KEN","city":"ICHIKAWA SHI","town":"GYOTOKUEKIMAE","perfecture_jp":"千葉県","jp_add_1":"市川市","jp_add_2":"行徳駅前"},"2720827":{"post_code":"2720827","prefecture":"CHIBA KEN","city":"ICHIKAWA SHI","town":"KONODAI","perfecture_jp":"千葉県","jp_add_1":"市川市","jp_add_2":"国府台"},"2720013":{"post_code":"2720013","prefecture":"CHIBA KEN","city":"ICHIKAWA SHI","town":"KOYA","perfecture_jp":"千葉県","jp_add_1":"市川市","jp_add_2":"高谷"},"2720011":{"post_code":"2720011","prefecture":"CHIBA KEN","city":"ICHIKAWA SHI","town":"KOYASHIMMACHI","perfecture_jp":"千葉県","jp_add_1":"市川市","jp_add_2":"高谷新町"},"2720834":{"post_code":"2720834","prefecture":"CHIBA KEN","city":"ICHIKAWA SHI","town":"KOKUBUN","perfecture_jp":"千葉県","jp_add_1":"市川市","jp_add_2":"国分"},"2720123":{"post_code":"2720123","prefecture":"CHIBA KEN","city":"ICHIKAWA SHI","town":"SAIWAI","perfecture_jp":"千葉県","jp_add_1":"市川市","jp_add_2":"幸"},"2720127":{"post_code":"2720127","prefecture":"CHIBA KEN","city":"ICHIKAWA SHI","town":"SHIOHAMA","perfecture_jp":"千葉県","jp_add_1":"市川市","jp_add_2":"塩浜"},"2720114":{"post_code":"2720114","prefecture":"CHIBA KEN","city":"ICHIKAWA SHI","town":"SHIOYAKI","perfecture_jp":"千葉県","jp_add_1":"市川市","jp_add_2":"塩焼"},"2720145":{"post_code":"2720145","prefecture":"CHIBA KEN","city":"ICHIKAWA SHI","town":"SHIMAJIRI","perfecture_jp":"千葉県","jp_add_1":"市川市","jp_add_2":"島尻"},"2720821":{"post_code":"2720821","prefecture":"CHIBA KEN","city":"ICHIKAWA SHI","town":"SHIMOKAIZUKA","perfecture_jp":"千葉県","jp_add_1":"市川市","jp_add_2":"下貝塚"},"2720102":{"post_code":"2720102","prefecture":"CHIBA KEN","city":"ICHIKAWA SHI","town":"SHIMOSHINSHUKU","perfecture_jp":"千葉県","jp_add_1":"市川市","jp_add_2":"下新宿"},"2720113":{"post_code":"2720113","prefecture":"CHIBA KEN","city":"ICHIKAWA SHI","town":"SHIMOMYODEN","perfecture_jp":"千葉県","jp_add_1":"市川市","jp_add_2":"下妙典"},"2720035":{"post_code":"2720035","prefecture":"CHIBA KEN","city":"ICHIKAWA SHI","town":"SHINDEN","perfecture_jp":"千葉県","jp_add_1":"市川市","jp_add_2":"新田"},"2720121":{"post_code":"2720121","prefecture":"CHIBA KEN","city":"ICHIKAWA SHI","town":"SUEHIRO","perfecture_jp":"千葉県","jp_add_1":"市川市","jp_add_2":"末広"},"2720824":{"post_code":"2720824","prefecture":"CHIBA KEN","city":"ICHIKAWA SHI","town":"SUGANO","perfecture_jp":"千葉県","jp_add_1":"市川市","jp_add_2":"菅野"},"2720825":{"post_code":"2720825","prefecture":"CHIBA KEN","city":"ICHIKAWA SHI","town":"SUWADA","perfecture_jp":"千葉県","jp_add_1":"市川市","jp_add_2":"須和田"},"2720105":{"post_code":"2720105","prefecture":"CHIBA KEN","city":"ICHIKAWA SHI","town":"SEKIGASHIMA","perfecture_jp":"千葉県","jp_add_1":"市川市","jp_add_2":"関ケ島"},"2720832":{"post_code":"2720832","prefecture":"CHIBA KEN","city":"ICHIKAWA SHI","town":"SOYA","perfecture_jp":"千葉県","jp_add_1":"市川市","jp_add_2":"曽谷"},"2720814":{"post_code":"2720814","prefecture":"CHIBA KEN","city":"ICHIKAWA SHI","town":"TAKAISHIGAMI","perfecture_jp":"千葉県","jp_add_1":"市川市","jp_add_2":"高石神"},"2720125":{"post_code":"2720125","prefecture":"CHIBA KEN","city":"ICHIKAWA SHI","town":"TAKAHAMAMACHI","perfecture_jp":"千葉県","jp_add_1":"市川市","jp_add_2":"高浜町"},"2720122":{"post_code":"2720122","prefecture":"CHIBA KEN","city":"ICHIKAWA SHI","town":"TAKARA","perfecture_jp":"千葉県","jp_add_1":"市川市","jp_add_2":"宝"},"2720014":{"post_code":"2720014","prefecture":"CHIBA KEN","city":"ICHIKAWA SHI","town":"TAJIRI","perfecture_jp":"千葉県","jp_add_1":"市川市","jp_add_2":"田尻"},"2720126":{"post_code":"2720126","prefecture":"CHIBA KEN","city":"ICHIKAWA SHI","town":"CHIDORICHO","perfecture_jp":"千葉県","jp_add_1":"市川市","jp_add_2":"千鳥町"},"2720024":{"post_code":"2720024","prefecture":"CHIBA KEN","city":"ICHIKAWA SHI","town":"TOKAGI","perfecture_jp":"千葉県","jp_add_1":"市川市","jp_add_2":"稲荷木"},"2720115":{"post_code":"2720115","prefecture":"CHIBA KEN","city":"ICHIKAWA SHI","town":"TOMIHAMA","perfecture_jp":"千葉県","jp_add_1":"市川市","jp_add_2":"富浜"},"2720835":{"post_code":"2720835","prefecture":"CHIBA KEN","city":"ICHIKAWA SHI","town":"NAKAKOKUBUN","perfecture_jp":"千葉県","jp_add_1":"市川市","jp_add_2":"中国分"},"2720813":{"post_code":"2720813","prefecture":"CHIBA KEN","city":"ICHIKAWA SHI","town":"NAKAYAMA","perfecture_jp":"千葉県","jp_add_1":"市川市","jp_add_2":"中山"},"2720136":{"post_code":"2720136","prefecture":"CHIBA KEN","city":"ICHIKAWA SHI","town":"NIIHAMA","perfecture_jp":"千葉県","jp_add_1":"市川市","jp_add_2":"新浜"},"2720004":{"post_code":"2720004","prefecture":"CHIBA KEN","city":"ICHIKAWA SHI","town":"BARAKI","perfecture_jp":"千葉県","jp_add_1":"市川市","jp_add_2":"原木"},"2720026":{"post_code":"2720026","prefecture":"CHIBA KEN","city":"ICHIKAWA SHI","town":"HIGASHIOWADA","perfecture_jp":"千葉県","jp_add_1":"市川市","jp_add_2":"東大和田"},"2720833":{"post_code":"2720833","prefecture":"CHIBA KEN","city":"ICHIKAWA SHI","town":"HIGASHIKOKUBUN","perfecture_jp":"千葉県","jp_add_1":"市川市","jp_add_2":"東国分"},"2720823":{"post_code":"2720823","prefecture":"CHIBA KEN","city":"ICHIKAWA SHI","town":"HIGASHISUGANO","perfecture_jp":"千葉県","jp_add_1":"市川市","jp_add_2":"東菅野"},"2720003":{"post_code":"2720003","prefecture":"CHIBA KEN","city":"ICHIKAWA SHI","town":"HIGASHIHAMA","perfecture_jp":"千葉県","jp_add_1":"市川市","jp_add_2":"東浜"},"2720135":{"post_code":"2720135","prefecture":"CHIBA KEN","city":"ICHIKAWA SHI","town":"HINODE","perfecture_jp":"千葉県","jp_add_1":"市川市","jp_add_2":"日之出"},"2720031":{"post_code":"2720031","prefecture":"CHIBA KEN","city":"ICHIKAWA SHI","town":"HIRATA","perfecture_jp":"千葉県","jp_add_1":"市川市","jp_add_2":"平田"},"2720146":{"post_code":"2720146","prefecture":"CHIBA KEN","city":"ICHIKAWA SHI","town":"HIRO","perfecture_jp":"千葉県","jp_add_1":"市川市","jp_add_2":"広尾"},"2720137":{"post_code":"2720137","prefecture":"CHIBA KEN","city":"ICHIKAWA SHI","town":"FUKUEI","perfecture_jp":"千葉県","jp_add_1":"市川市","jp_add_2":"福栄"},"2720001":{"post_code":"2720001","prefecture":"CHIBA KEN","city":"ICHIKAWA SHI","town":"FUTAMATA","perfecture_jp":"千葉県","jp_add_1":"市川市","jp_add_2":"二俣"},"2720002":{"post_code":"2720002","prefecture":"CHIBA KEN","city":"ICHIKAWA SHI","town":"FUTAMATASHIMMACHI","perfecture_jp":"千葉県","jp_add_1":"市川市","jp_add_2":"二俣新町"},"2720803":{"post_code":"2720803","prefecture":"CHIBA KEN","city":"ICHIKAWA SHI","town":"HOMEMACHI","perfecture_jp":"千葉県","jp_add_1":"市川市","jp_add_2":"奉免町"},"2720811":{"post_code":"2720811","prefecture":"CHIBA KEN","city":"ICHIKAWA SHI","town":"BOKKEMACHI","perfecture_jp":"千葉県","jp_add_1":"市川市","jp_add_2":"北方町"},"2720837":{"post_code":"2720837","prefecture":"CHIBA KEN","city":"ICHIKAWA SHI","town":"HORINOCHI","perfecture_jp":"千葉県","jp_add_1":"市川市","jp_add_2":"堀之内"},"2720103":{"post_code":"2720103","prefecture":"CHIBA KEN","city":"ICHIKAWA SHI","town":"HONGYOTOKU","perfecture_jp":"千葉県","jp_add_1":"市川市","jp_add_2":"本行徳"},"2720104":{"post_code":"2720104","prefecture":"CHIBA KEN","city":"ICHIKAWA SHI","town":"HONSHIO","perfecture_jp":"千葉県","jp_add_1":"市川市","jp_add_2":"本塩"},"2720826":{"post_code":"2720826","prefecture":"CHIBA KEN","city":"ICHIKAWA SHI","town":"MAMA","perfecture_jp":"千葉県","jp_add_1":"市川市","jp_add_2":"真間"},"2720131":{"post_code":"2720131","prefecture":"CHIBA KEN","city":"ICHIKAWA SHI","town":"MINATO","perfecture_jp":"千葉県","jp_add_1":"市川市","jp_add_2":"湊"},"2720132":{"post_code":"2720132","prefecture":"CHIBA KEN","city":"ICHIKAWA SHI","town":"MINATOSHINDEN","perfecture_jp":"千葉県","jp_add_1":"市川市","jp_add_2":"湊新田"},"2720804":{"post_code":"2720804","prefecture":"CHIBA KEN","city":"ICHIKAWA SHI","town":"MINAMIONO","perfecture_jp":"千葉県","jp_add_1":"市川市","jp_add_2":"南大野"},"2720138":{"post_code":"2720138","prefecture":"CHIBA KEN","city":"ICHIKAWA SHI","town":"MINAMIGYOTOKU","perfecture_jp":"千葉県","jp_add_1":"市川市","jp_add_2":"南行徳"},"2720023":{"post_code":"2720023","prefecture":"CHIBA KEN","city":"ICHIKAWA SHI","town":"MINAMIYAWATA","perfecture_jp":"千葉県","jp_add_1":"市川市","jp_add_2":"南八幡"},"2720822":{"post_code":"2720822","prefecture":"CHIBA KEN","city":"ICHIKAWA SHI","town":"MIYAKUBO","perfecture_jp":"千葉県","jp_add_1":"市川市","jp_add_2":"宮久保"},"2720111":{"post_code":"2720111","prefecture":"CHIBA KEN","city":"ICHIKAWA SHI","town":"MYODEN","perfecture_jp":"千葉県","jp_add_1":"市川市","jp_add_2":"妙典"},"2720816":{"post_code":"2720816","prefecture":"CHIBA KEN","city":"ICHIKAWA SHI","town":"MOTOKITAKATA","perfecture_jp":"千葉県","jp_add_1":"市川市","jp_add_2":"本北方"},"2720021":{"post_code":"2720021","prefecture":"CHIBA KEN","city":"ICHIKAWA SHI","town":"YAWATA","perfecture_jp":"千葉県","jp_add_1":"市川市","jp_add_2":"八幡"},"2720812":{"post_code":"2720812","prefecture":"CHIBA KEN","city":"ICHIKAWA SHI","town":"WAKAMIYA","perfecture_jp":"千葉県","jp_add_1":"市川市","jp_add_2":"若宮"}}