{"2840000":{"post_code":"2840000","prefecture":"CHIBA KEN","city":"YOTSUKAIDO SHI","town":"IKANIKEISAIGANAIBAAI","perfecture_jp":"千葉県","jp_add_1":"四街道市","jp_add_2":""},"2840024":{"post_code":"2840024","prefecture":"CHIBA KEN","city":"YOTSUKAIDO SHI","town":"ASAHIGAOKA","perfecture_jp":"千葉県","jp_add_1":"四街道市","jp_add_2":"旭ケ丘"},"2840014":{"post_code":"2840014","prefecture":"CHIBA KEN","city":"YOTSUKAIDO SHI","town":"IKEHANA","perfecture_jp":"千葉県","jp_add_1":"四街道市","jp_add_2":"池花"},"2840041":{"post_code":"2840041","prefecture":"CHIBA KEN","city":"YOTSUKAIDO SHI","town":"UENO","perfecture_jp":"千葉県","jp_add_1":"四街道市","jp_add_2":"上野"},"2840013":{"post_code":"2840013","prefecture":"CHIBA KEN","city":"YOTSUKAIDO SHI","town":"UCHIKURODA","perfecture_jp":"千葉県","jp_add_1":"四街道市","jp_add_2":"内黒田"},"2840045":{"post_code":"2840045","prefecture":"CHIBA KEN","city":"YOTSUKAIDO SHI","town":"UTSUKUSHIGAOKA","perfecture_jp":"千葉県","jp_add_1":"四街道市","jp_add_2":"美しが丘"},"2840042":{"post_code":"2840042","prefecture":"CHIBA KEN","city":"YOTSUKAIDO SHI","town":"ONAGI","perfecture_jp":"千葉県","jp_add_1":"四街道市","jp_add_2":"小名木"},"2840011":{"post_code":"2840011","prefecture":"CHIBA KEN","city":"YOTSUKAIDO SHI","town":"KAMEZAKI","perfecture_jp":"千葉県","jp_add_1":"四街道市","jp_add_2":"亀崎"},"2840002":{"post_code":"2840002","prefecture":"CHIBA KEN","city":"YOTSUKAIDO SHI","town":"KAYAHASHI","perfecture_jp":"千葉県","jp_add_1":"四街道市","jp_add_2":"萱橋"},"2840027":{"post_code":"2840027","prefecture":"CHIBA KEN","city":"YOTSUKAIDO SHI","town":"KURIYAMA","perfecture_jp":"千葉県","jp_add_1":"四街道市","jp_add_2":"栗山"},"2840025":{"post_code":"2840025","prefecture":"CHIBA KEN","city":"YOTSUKAIDO SHI","town":"SACHIGAOKA","perfecture_jp":"千葉県","jp_add_1":"四街道市","jp_add_2":"さちが丘"},"2840007":{"post_code":"2840007","prefecture":"CHIBA KEN","city":"YOTSUKAIDO SHI","town":"SATSUKIGAOKA","perfecture_jp":"千葉県","jp_add_1":"四街道市","jp_add_2":"さつきケ丘"},"2840003":{"post_code":"2840003","prefecture":"CHIBA KEN","city":"YOTSUKAIDO SHI","town":"SHIKAWATASHI","perfecture_jp":"千葉県","jp_add_1":"四街道市","jp_add_2":"鹿渡"},"2840006":{"post_code":"2840006","prefecture":"CHIBA KEN","city":"YOTSUKAIDO SHI","town":"SHIMOSHIZU SHINDEN","perfecture_jp":"千葉県","jp_add_1":"四街道市","jp_add_2":"下志津新田"},"2840001":{"post_code":"2840001","prefecture":"CHIBA KEN","city":"YOTSUKAIDO SHI","town":"DAINICHI","perfecture_jp":"千葉県","jp_add_1":"四街道市","jp_add_2":"大日"},"2840033":{"post_code":"2840033","prefecture":"CHIBA KEN","city":"YOTSUKAIDO SHI","town":"TAKANODAI","perfecture_jp":"千葉県","jp_add_1":"四街道市","jp_add_2":"鷹の台"},"2840009":{"post_code":"2840009","prefecture":"CHIBA KEN","city":"YOTSUKAIDO SHI","town":"CHUO","perfecture_jp":"千葉県","jp_add_1":"四街道市","jp_add_2":"中央"},"2840015":{"post_code":"2840015","prefecture":"CHIBA KEN","city":"YOTSUKAIDO SHI","town":"CHIYODA","perfecture_jp":"千葉県","jp_add_1":"四街道市","jp_add_2":"千代田"},"2840026":{"post_code":"2840026","prefecture":"CHIBA KEN","city":"YOTSUKAIDO SHI","town":"TSUKUSHIZA","perfecture_jp":"千葉県","jp_add_1":"四街道市","jp_add_2":"つくし座"},"2840037":{"post_code":"2840037","prefecture":"CHIBA KEN","city":"YOTSUKAIDO SHI","town":"NAKADAI","perfecture_jp":"千葉県","jp_add_1":"四街道市","jp_add_2":"中台"},"2840036":{"post_code":"2840036","prefecture":"CHIBA KEN","city":"YOTSUKAIDO SHI","town":"NAKANO","perfecture_jp":"千葉県","jp_add_1":"四街道市","jp_add_2":"中野"},"2840021":{"post_code":"2840021","prefecture":"CHIBA KEN","city":"YOTSUKAIDO SHI","town":"NAGAOKA","perfecture_jp":"千葉県","jp_add_1":"四街道市","jp_add_2":"長岡"},"2840034":{"post_code":"2840034","prefecture":"CHIBA KEN","city":"YOTSUKAIDO SHI","town":"NABASAMA","perfecture_jp":"千葉県","jp_add_1":"四街道市","jp_add_2":"南波佐間"},"2840031":{"post_code":"2840031","prefecture":"CHIBA KEN","city":"YOTSUKAIDO SHI","town":"NARIYAMA","perfecture_jp":"千葉県","jp_add_1":"四街道市","jp_add_2":"成山"},"2840023":{"post_code":"2840023","prefecture":"CHIBA KEN","city":"YOTSUKAIDO SHI","town":"MISORA","perfecture_jp":"千葉県","jp_add_1":"四街道市","jp_add_2":"みそら"},"2840004":{"post_code":"2840004","prefecture":"CHIBA KEN","city":"YOTSUKAIDO SHI","town":"MINORICHO","perfecture_jp":"千葉県","jp_add_1":"四街道市","jp_add_2":"みのり町"},"2840043":{"post_code":"2840043","prefecture":"CHIBA KEN","city":"YOTSUKAIDO SHI","town":"MEIWA","perfecture_jp":"千葉県","jp_add_1":"四街道市","jp_add_2":"めいわ"},"2840016":{"post_code":"2840016","prefecture":"CHIBA KEN","city":"YOTSUKAIDO SHI","town":"MONENOSATO","perfecture_jp":"千葉県","jp_add_1":"四街道市","jp_add_2":"もねの里"},"2840012":{"post_code":"2840012","prefecture":"CHIBA KEN","city":"YOTSUKAIDO SHI","town":"MONOI","perfecture_jp":"千葉県","jp_add_1":"四街道市","jp_add_2":"物井"},"2840022":{"post_code":"2840022","prefecture":"CHIBA KEN","city":"YOTSUKAIDO SHI","town":"YAMANASHI","perfecture_jp":"千葉県","jp_add_1":"四街道市","jp_add_2":"山梨"},"2840032":{"post_code":"2840032","prefecture":"CHIBA KEN","city":"YOTSUKAIDO SHI","town":"YOSHIOKA","perfecture_jp":"千葉県","jp_add_1":"四街道市","jp_add_2":"吉岡"},"2840005":{"post_code":"2840005","prefecture":"CHIBA KEN","city":"YOTSUKAIDO SHI","town":"YOTSUKAIDO","perfecture_jp":"千葉県","jp_add_1":"四街道市","jp_add_2":"四街道"},"2840008":{"post_code":"2840008","prefecture":"CHIBA KEN","city":"YOTSUKAIDO SHI","town":"ROPPOGAOKA","perfecture_jp":"千葉県","jp_add_1":"四街道市","jp_add_2":"鹿放ケ丘"},"2840035":{"post_code":"2840035","prefecture":"CHIBA KEN","city":"YOTSUKAIDO SHI","town":"WADA","perfecture_jp":"千葉県","jp_add_1":"四街道市","jp_add_2":"和田"},"2840044":{"post_code":"2840044","prefecture":"CHIBA KEN","city":"YOTSUKAIDO SHI","town":"WARABI","perfecture_jp":"千葉県","jp_add_1":"四街道市","jp_add_2":"和良比"}}