{"2850000":{"post_code":"2850000","prefecture":"CHIBA KEN","city":"SAKURA SHI","town":"IKANIKEISAIGANAIBAAI","perfecture_jp":"千葉県","jp_add_1":"佐倉市","jp_add_2":""},"2850852":{"post_code":"2850852","prefecture":"CHIBA KEN","city":"SAKURA SHI","town":"AOSUGE","perfecture_jp":"千葉県","jp_add_1":"佐倉市","jp_add_2":"青菅"},"2850835":{"post_code":"2850835","prefecture":"CHIBA KEN","city":"SAKURA SHI","town":"AZETA","perfecture_jp":"千葉県","jp_add_1":"佐倉市","jp_add_2":"畔田"},"2850064":{"post_code":"2850064","prefecture":"CHIBA KEN","city":"SAKURA SHI","town":"AMABE","perfecture_jp":"千葉県","jp_add_1":"佐倉市","jp_add_2":"天辺"},"2850832":{"post_code":"2850832","prefecture":"CHIBA KEN","city":"SAKURA SHI","town":"IIJU","perfecture_jp":"千葉県","jp_add_1":"佐倉市","jp_add_2":"飯重"},"2850032":{"post_code":"2850032","prefecture":"CHIBA KEN","city":"SAKURA SHI","town":"IIDA","perfecture_jp":"千葉県","jp_add_1":"佐倉市","jp_add_2":"飯田"},"2850031":{"post_code":"2850031","prefecture":"CHIBA KEN","city":"SAKURA SHI","town":"IIDADAI","perfecture_jp":"千葉県","jp_add_1":"佐倉市","jp_add_2":"飯田台"},"2850076":{"post_code":"2850076","prefecture":"CHIBA KEN","city":"SAKURA SHI","town":"IIZUKA","perfecture_jp":"千葉県","jp_add_1":"佐倉市","jp_add_2":"飯塚"},"2850003":{"post_code":"2850003","prefecture":"CHIBA KEN","city":"SAKURA SHI","town":"IINO","perfecture_jp":"千葉県","jp_add_1":"佐倉市","jp_add_2":"飯野"},"2850009":{"post_code":"2850009","prefecture":"CHIBA KEN","city":"SAKURA SHI","town":"IINOMACHI","perfecture_jp":"千葉県","jp_add_1":"佐倉市","jp_add_2":"飯野町"},"2850813":{"post_code":"2850813","prefecture":"CHIBA KEN","city":"SAKURA SHI","town":"ISHIKAWA","perfecture_jp":"千葉県","jp_add_1":"佐倉市","jp_add_2":"石川"},"2850864":{"post_code":"2850864","prefecture":"CHIBA KEN","city":"SAKURA SHI","town":"INARIDAI","perfecture_jp":"千葉県","jp_add_1":"佐倉市","jp_add_2":"稲荷台"},"2850855":{"post_code":"2850855","prefecture":"CHIBA KEN","city":"SAKURA SHI","town":"INO","perfecture_jp":"千葉県","jp_add_1":"佐倉市","jp_add_2":"井野"},"2850856":{"post_code":"2850856","prefecture":"CHIBA KEN","city":"SAKURA SHI","town":"INOMACHI","perfecture_jp":"千葉県","jp_add_1":"佐倉市","jp_add_2":"井野町"},"2850071":{"post_code":"2850071","prefecture":"CHIBA KEN","city":"SAKURA SHI","town":"IWATOMI","perfecture_jp":"千葉県","jp_add_1":"佐倉市","jp_add_2":"岩富"},"2850072":{"post_code":"2850072","prefecture":"CHIBA KEN","city":"SAKURA SHI","town":"IWATOMIMACHI","perfecture_jp":"千葉県","jp_add_1":"佐倉市","jp_add_2":"岩富町"},"2850004":{"post_code":"2850004","prefecture":"CHIBA KEN","city":"SAKURA SHI","town":"IWANA","perfecture_jp":"千葉県","jp_add_1":"佐倉市","jp_add_2":"岩名"},"2850822":{"post_code":"2850822","prefecture":"CHIBA KEN","city":"SAKURA SHI","town":"INNAN","perfecture_jp":"千葉県","jp_add_1":"佐倉市","jp_add_2":"印南"},"2850863":{"post_code":"2850863","prefecture":"CHIBA KEN","city":"SAKURA SHI","town":"USUI","perfecture_jp":"千葉県","jp_add_1":"佐倉市","jp_add_2":"臼井"},"2850861":{"post_code":"2850861","prefecture":"CHIBA KEN","city":"SAKURA SHI","town":"USUITA","perfecture_jp":"千葉県","jp_add_1":"佐倉市","jp_add_2":"臼井田"},"2850866":{"post_code":"2850866","prefecture":"CHIBA KEN","city":"SAKURA SHI","town":"USUIDAI","perfecture_jp":"千葉県","jp_add_1":"佐倉市","jp_add_2":"臼井台"},"2850077":{"post_code":"2850077","prefecture":"CHIBA KEN","city":"SAKURA SHI","town":"UCHIDA","perfecture_jp":"千葉県","jp_add_1":"佐倉市","jp_add_2":"内田"},"2850024":{"post_code":"2850024","prefecture":"CHIBA KEN","city":"SAKURA SHI","town":"URASHIMMACHI","perfecture_jp":"千葉県","jp_add_1":"佐倉市","jp_add_2":"裏新町"},"2850055":{"post_code":"2850055","prefecture":"CHIBA KEN","city":"SAKURA SHI","town":"URITSUBOSHINDEN","perfecture_jp":"千葉県","jp_add_1":"佐倉市","jp_add_2":"瓜坪新田"},"2850824":{"post_code":"2850824","prefecture":"CHIBA KEN","city":"SAKURA SHI","town":"EBARA","perfecture_jp":"千葉県","jp_add_1":"佐倉市","jp_add_2":"江原"},"2850823":{"post_code":"2850823","prefecture":"CHIBA KEN","city":"SAKURA SHI","town":"EBARASHINDEN","perfecture_jp":"千葉県","jp_add_1":"佐倉市","jp_add_2":"江原新田"},"2850825":{"post_code":"2850825","prefecture":"CHIBA KEN","city":"SAKURA SHI","town":"EBARADAI","perfecture_jp":"千葉県","jp_add_1":"佐倉市","jp_add_2":"江原台"},"2850837":{"post_code":"2850837","prefecture":"CHIBA KEN","city":"SAKURA SHI","town":"OJIDAI","perfecture_jp":"千葉県","jp_add_1":"佐倉市","jp_add_2":"王子台"},"2850817":{"post_code":"2850817","prefecture":"CHIBA KEN","city":"SAKURA SHI","town":"OSAKIDAI","perfecture_jp":"千葉県","jp_add_1":"佐倉市","jp_add_2":"大崎台"},"2850802":{"post_code":"2850802","prefecture":"CHIBA KEN","city":"SAKURA SHI","town":"OSAKU","perfecture_jp":"千葉県","jp_add_1":"佐倉市","jp_add_2":"大作"},"2850041":{"post_code":"2850041","prefecture":"CHIBA KEN","city":"SAKURA SHI","town":"OZAKURA","perfecture_jp":"千葉県","jp_add_1":"佐倉市","jp_add_2":"大佐倉"},"2850806":{"post_code":"2850806","prefecture":"CHIBA KEN","city":"SAKURA SHI","town":"OSHINOZUKA","perfecture_jp":"千葉県","jp_add_1":"佐倉市","jp_add_2":"大篠塚"},"2850043":{"post_code":"2850043","prefecture":"CHIBA KEN","city":"SAKURA SHI","town":"OJAMACHI","perfecture_jp":"千葉県","jp_add_1":"佐倉市","jp_add_2":"大蛇町"},"2850808":{"post_code":"2850808","prefecture":"CHIBA KEN","city":"SAKURA SHI","town":"OTA","perfecture_jp":"千葉県","jp_add_1":"佐倉市","jp_add_2":"太田"},"2850853":{"post_code":"2850853","prefecture":"CHIBA KEN","city":"SAKURA SHI","town":"ODAKE","perfecture_jp":"千葉県","jp_add_1":"佐倉市","jp_add_2":"小竹"},"2850836":{"post_code":"2850836","prefecture":"CHIBA KEN","city":"SAKURA SHI","town":"OBUKAI","perfecture_jp":"千葉県","jp_add_1":"佐倉市","jp_add_2":"生谷"},"2850811":{"post_code":"2850811","prefecture":"CHIBA KEN","city":"SAKURA SHI","town":"OMOTECHO","perfecture_jp":"千葉県","jp_add_1":"佐倉市","jp_add_2":"表町"},"2850013":{"post_code":"2850013","prefecture":"CHIBA KEN","city":"SAKURA SHI","town":"KAIRINJIMACHI","perfecture_jp":"千葉県","jp_add_1":"佐倉市","jp_add_2":"海隣寺町"},"2850821":{"post_code":"2850821","prefecture":"CHIBA KEN","city":"SAKURA SHI","town":"KAKURAI","perfecture_jp":"千葉県","jp_add_1":"佐倉市","jp_add_2":"角来"},"2850008":{"post_code":"2850008","prefecture":"CHIBA KEN","city":"SAKURA SHI","town":"KASHIMAKANTAKU","perfecture_jp":"千葉県","jp_add_1":"佐倉市","jp_add_2":"鹿島干拓"},"2850026":{"post_code":"2850026","prefecture":"CHIBA KEN","city":"SAKURA SHI","town":"KABURAGINAKATAMACHI","perfecture_jp":"千葉県","jp_add_1":"佐倉市","jp_add_2":"鏑木仲田町"},"2850025":{"post_code":"2850025","prefecture":"CHIBA KEN","city":"SAKURA SHI","town":"KABURAGIMACHI","perfecture_jp":"千葉県","jp_add_1":"佐倉市","jp_add_2":"鏑木町"},"2850054":{"post_code":"2850054","prefecture":"CHIBA KEN","city":"SAKURA SHI","town":"KAMIKATSUTA","perfecture_jp":"千葉県","jp_add_1":"佐倉市","jp_add_2":"上勝田"},"2850846":{"post_code":"2850846","prefecture":"CHIBA KEN","city":"SAKURA SHI","town":"KAMISHIZU","perfecture_jp":"千葉県","jp_add_1":"佐倉市","jp_add_2":"上志津"},"2850844":{"post_code":"2850844","prefecture":"CHIBA KEN","city":"SAKURA SHI","town":"KAMISHIZUHARA","perfecture_jp":"千葉県","jp_add_1":"佐倉市","jp_add_2":"上志津原"},"2850044":{"post_code":"2850044","prefecture":"CHIBA KEN","city":"SAKURA SHI","town":"KAMIDAI","perfecture_jp":"千葉県","jp_add_1":"佐倉市","jp_add_2":"上代"},"2850066":{"post_code":"2850066","prefecture":"CHIBA KEN","city":"SAKURA SHI","town":"KAMIBESSHIYO","perfecture_jp":"千葉県","jp_add_1":"佐倉市","jp_add_2":"上別所"},"2850801":{"post_code":"2850801","prefecture":"CHIBA KEN","city":"SAKURA SHI","town":"KINOKO","perfecture_jp":"千葉県","jp_add_1":"佐倉市","jp_add_2":"木野子"},"2850803":{"post_code":"2850803","prefecture":"CHIBA KEN","city":"SAKURA SHI","town":"GODO","perfecture_jp":"千葉県","jp_add_1":"佐倉市","jp_add_2":"神門"},"2850805":{"post_code":"2850805","prefecture":"CHIBA KEN","city":"SAKURA SHI","town":"KOSHINOZUKA","perfecture_jp":"千葉県","jp_add_1":"佐倉市","jp_add_2":"小篠塚"},"2850057":{"post_code":"2850057","prefecture":"CHIBA KEN","city":"SAKURA SHI","town":"KOMEDO","perfecture_jp":"千葉県","jp_add_1":"佐倉市","jp_add_2":"米戸"},"2850014":{"post_code":"2850014","prefecture":"CHIBA KEN","city":"SAKURA SHI","town":"SAKAECHO","perfecture_jp":"千葉県","jp_add_1":"佐倉市","jp_add_2":"栄町"},"2850078":{"post_code":"2850078","prefecture":"CHIBA KEN","city":"SAKURA SHI","town":"SAKADO","perfecture_jp":"千葉県","jp_add_1":"佐倉市","jp_add_2":"坂戸"},"2850062":{"post_code":"2850062","prefecture":"CHIBA KEN","city":"SAKURA SHI","town":"SAMUKAZE","perfecture_jp":"千葉県","jp_add_1":"佐倉市","jp_add_2":"寒風"},"2850807":{"post_code":"2850807","prefecture":"CHIBA KEN","city":"SAKURA SHI","town":"SANNO","perfecture_jp":"千葉県","jp_add_1":"佐倉市","jp_add_2":"山王"},"2850053":{"post_code":"2850053","prefecture":"CHIBA KEN","city":"SAKURA SHI","town":"SHIMOKATSUTA","perfecture_jp":"千葉県","jp_add_1":"佐倉市","jp_add_2":"下勝田"},"2850841":{"post_code":"2850841","prefecture":"CHIBA KEN","city":"SAKURA SHI","town":"SHIMOSHIZU","perfecture_jp":"千葉県","jp_add_1":"佐倉市","jp_add_2":"下志津"},"2850842":{"post_code":"2850842","prefecture":"CHIBA KEN","city":"SAKURA SHI","town":"SHIMOSHIZUHARA","perfecture_jp":"千葉県","jp_add_1":"佐倉市","jp_add_2":"下志津原"},"2850006":{"post_code":"2850006","prefecture":"CHIBA KEN","city":"SAKURA SHI","town":"SHIMONE","perfecture_jp":"千葉県","jp_add_1":"佐倉市","jp_add_2":"下根"},"2850007":{"post_code":"2850007","prefecture":"CHIBA KEN","city":"SAKURA SHI","town":"SHIMONEMACHI","perfecture_jp":"千葉県","jp_add_1":"佐倉市","jp_add_2":"下根町"},"2850035":{"post_code":"2850035","prefecture":"CHIBA KEN","city":"SAKURA SHI","town":"JUMOKUMACHI","perfecture_jp":"千葉県","jp_add_1":"佐倉市","jp_add_2":"樹木町"},"2850815":{"post_code":"2850815","prefecture":"CHIBA KEN","city":"SAKURA SHI","town":"JO","perfecture_jp":"千葉県","jp_add_1":"佐倉市","jp_add_2":"城"},"2850854":{"post_code":"2850854","prefecture":"CHIBA KEN","city":"SAKURA SHI","town":"JOZA","perfecture_jp":"千葉県","jp_add_1":"佐倉市","jp_add_2":"上座"},"2850017":{"post_code":"2850017","prefecture":"CHIBA KEN","city":"SAKURA SHI","town":"JONAICHO","perfecture_jp":"千葉県","jp_add_1":"佐倉市","jp_add_2":"城内町"},"2850045":{"post_code":"2850045","prefecture":"CHIBA KEN","city":"SAKURA SHI","town":"SHIROGANE","perfecture_jp":"千葉県","jp_add_1":"佐倉市","jp_add_2":"白銀"},"2850862":{"post_code":"2850862","prefecture":"CHIBA KEN","city":"SAKURA SHI","town":"SHINUSUIDA","perfecture_jp":"千葉県","jp_add_1":"佐倉市","jp_add_2":"新臼井田"},"2850023":{"post_code":"2850023","prefecture":"CHIBA KEN","city":"SAKURA SHI","town":"SHIMMACHI","perfecture_jp":"千葉県","jp_add_1":"佐倉市","jp_add_2":"新町"},"2850034":{"post_code":"2850034","prefecture":"CHIBA KEN","city":"SAKURA SHI","town":"SENNARI","perfecture_jp":"千葉県","jp_add_1":"佐倉市","jp_add_2":"千成"},"2850831":{"post_code":"2850831","prefecture":"CHIBA KEN","city":"SAKURA SHI","town":"SOMEINO","perfecture_jp":"千葉県","jp_add_1":"佐倉市","jp_add_2":"染井野"},"2850046":{"post_code":"2850046","prefecture":"CHIBA KEN","city":"SAKURA SHI","town":"TAKAOKA","perfecture_jp":"千葉県","jp_add_1":"佐倉市","jp_add_2":"高岡"},"2850061":{"post_code":"2850061","prefecture":"CHIBA KEN","city":"SAKURA SHI","town":"TAKASAKI","perfecture_jp":"千葉県","jp_add_1":"佐倉市","jp_add_2":"高崎"},"2850012":{"post_code":"2850012","prefecture":"CHIBA KEN","city":"SAKURA SHI","town":"TAMACHI","perfecture_jp":"千葉県","jp_add_1":"佐倉市","jp_add_2":"田町"},"2850001":{"post_code":"2850001","prefecture":"CHIBA KEN","city":"SAKURA SHI","town":"TSUCHIUKI","perfecture_jp":"千葉県","jp_add_1":"佐倉市","jp_add_2":"土浮"},"2850056":{"post_code":"2850056","prefecture":"CHIBA KEN","city":"SAKURA SHI","town":"TSUBOYAMASHINDEN","perfecture_jp":"千葉県","jp_add_1":"佐倉市","jp_add_2":"坪山新田"},"2850818":{"post_code":"2850818","prefecture":"CHIBA KEN","city":"SAKURA SHI","town":"TERAZAKI","perfecture_jp":"千葉県","jp_add_1":"佐倉市","jp_add_2":"寺崎"},"2850819":{"post_code":"2850819","prefecture":"CHIBA KEN","city":"SAKURA SHI","town":"TERAZAKIKITA","perfecture_jp":"千葉県","jp_add_1":"佐倉市","jp_add_2":"寺崎北"},"2850816":{"post_code":"2850816","prefecture":"CHIBA KEN","city":"SAKURA SHI","town":"TOJIDAI","perfecture_jp":"千葉県","jp_add_1":"佐倉市","jp_add_2":"藤治台"},"2850065":{"post_code":"2850065","prefecture":"CHIBA KEN","city":"SAKURA SHI","town":"NAOYA","perfecture_jp":"千葉県","jp_add_1":"佐倉市","jp_add_2":"直弥"},"2850843":{"post_code":"2850843","prefecture":"CHIBA KEN","city":"SAKURA SHI","town":"NAKASHIZU","perfecture_jp":"千葉県","jp_add_1":"佐倉市","jp_add_2":"中志津"},"2850022":{"post_code":"2850022","prefecture":"CHIBA KEN","city":"SAKURA SHI","town":"NAKABYOMACHI","perfecture_jp":"千葉県","jp_add_1":"佐倉市","jp_add_2":"中尾余町"},"2850051":{"post_code":"2850051","prefecture":"CHIBA KEN","city":"SAKURA SHI","town":"NAGAKUMA","perfecture_jp":"千葉県","jp_add_1":"佐倉市","jp_add_2":"長熊"},"2850073":{"post_code":"2850073","prefecture":"CHIBA KEN","city":"SAKURA SHI","town":"NANAMAGARI","perfecture_jp":"千葉県","jp_add_1":"佐倉市","jp_add_2":"七曲"},"2850033":{"post_code":"2850033","prefecture":"CHIBA KEN","city":"SAKURA SHI","town":"NABEYAMAMACHI","perfecture_jp":"千葉県","jp_add_1":"佐倉市","jp_add_2":"鍋山町"},"2850015":{"post_code":"2850015","prefecture":"CHIBA KEN","city":"SAKURA SHI","town":"NAMIKIMACHI","perfecture_jp":"千葉県","jp_add_1":"佐倉市","jp_add_2":"並木町"},"2850845":{"post_code":"2850845","prefecture":"CHIBA KEN","city":"SAKURA SHI","town":"NISHISHIZU","perfecture_jp":"千葉県","jp_add_1":"佐倉市","jp_add_2":"西志津"},"2850074":{"post_code":"2850074","prefecture":"CHIBA KEN","city":"SAKURA SHI","town":"NISHIMIKADO","perfecture_jp":"千葉県","jp_add_1":"佐倉市","jp_add_2":"西御門"},"2850850":{"post_code":"2850850","prefecture":"CHIBA KEN","city":"SAKURA SHI","town":"NISHIYUKARIGAOKA","perfecture_jp":"千葉県","jp_add_1":"佐倉市","jp_add_2":"西ユーカリが丘"},"2850002":{"post_code":"2850002","prefecture":"CHIBA KEN","city":"SAKURA SHI","town":"HAGIYAMASHINDEN","perfecture_jp":"千葉県","jp_add_1":"佐倉市","jp_add_2":"萩山新田"},"2850867":{"post_code":"2850867","prefecture":"CHIBA KEN","city":"SAKURA SHI","town":"HACHIMANDAI","perfecture_jp":"千葉県","jp_add_1":"佐倉市","jp_add_2":"八幡台"},"2850833":{"post_code":"2850833","prefecture":"CHIBA KEN","city":"SAKURA SHI","town":"HADORI","perfecture_jp":"千葉県","jp_add_1":"佐倉市","jp_add_2":"羽鳥"},"2850814":{"post_code":"2850814","prefecture":"CHIBA KEN","city":"SAKURA SHI","town":"HARUJI","perfecture_jp":"千葉県","jp_add_1":"佐倉市","jp_add_2":"春路"},"2850036":{"post_code":"2850036","prefecture":"CHIBA KEN","city":"SAKURA SHI","town":"FUJISAWAMACHI","perfecture_jp":"千葉県","jp_add_1":"佐倉市","jp_add_2":"藤沢町"},"2850042":{"post_code":"2850042","prefecture":"CHIBA KEN","city":"SAKURA SHI","town":"MASAKADOMACHI","perfecture_jp":"千葉県","jp_add_1":"佐倉市","jp_add_2":"将門町"},"2850851":{"post_code":"2850851","prefecture":"CHIBA KEN","city":"SAKURA SHI","town":"MASSAKI","perfecture_jp":"千葉県","jp_add_1":"佐倉市","jp_add_2":"先崎"},"2850804":{"post_code":"2850804","prefecture":"CHIBA KEN","city":"SAKURA SHI","town":"MAWATASHI","perfecture_jp":"千葉県","jp_add_1":"佐倉市","jp_add_2":"馬渡"},"2850865":{"post_code":"2850865","prefecture":"CHIBA KEN","city":"SAKURA SHI","town":"MINAMIUSUIDAI","perfecture_jp":"千葉県","jp_add_1":"佐倉市","jp_add_2":"南臼井台"},"2850859":{"post_code":"2850859","prefecture":"CHIBA KEN","city":"SAKURA SHI","town":"MINAMIYUKARIGAOKA","perfecture_jp":"千葉県","jp_add_1":"佐倉市","jp_add_2":"南ユーカリが丘"},"2850075":{"post_code":"2850075","prefecture":"CHIBA KEN","city":"SAKURA SHI","town":"MIYAUCHI","perfecture_jp":"千葉県","jp_add_1":"佐倉市","jp_add_2":"宮内"},"2850016":{"post_code":"2850016","prefecture":"CHIBA KEN","city":"SAKURA SHI","town":"MIYAKOJIMACHI","perfecture_jp":"千葉県","jp_add_1":"佐倉市","jp_add_2":"宮小路町"},"2850857":{"post_code":"2850857","prefecture":"CHIBA KEN","city":"SAKURA SHI","town":"MIYANODAI","perfecture_jp":"千葉県","jp_add_1":"佐倉市","jp_add_2":"宮ノ台"},"2850005":{"post_code":"2850005","prefecture":"CHIBA KEN","city":"SAKURA SHI","town":"MIYAMAE","perfecture_jp":"千葉県","jp_add_1":"佐倉市","jp_add_2":"宮前"},"2850063":{"post_code":"2850063","prefecture":"CHIBA KEN","city":"SAKURA SHI","town":"MIYAMOTO","perfecture_jp":"千葉県","jp_add_1":"佐倉市","jp_add_2":"宮本"},"2850038":{"post_code":"2850038","prefecture":"CHIBA KEN","city":"SAKURA SHI","town":"MIROKUMACHI","perfecture_jp":"千葉県","jp_add_1":"佐倉市","jp_add_2":"弥勒町"},"2850812":{"post_code":"2850812","prefecture":"CHIBA KEN","city":"SAKURA SHI","town":"MUTSUZAKI","perfecture_jp":"千葉県","jp_add_1":"佐倉市","jp_add_2":"六崎"},"2850021":{"post_code":"2850021","prefecture":"CHIBA KEN","city":"SAKURA SHI","town":"MOGAMIMACHI","perfecture_jp":"千葉県","jp_add_1":"佐倉市","jp_add_2":"最上町"},"2850037":{"post_code":"2850037","prefecture":"CHIBA KEN","city":"SAKURA SHI","town":"MOTOMACHI","perfecture_jp":"千葉県","jp_add_1":"佐倉市","jp_add_2":"本町"},"2850052":{"post_code":"2850052","prefecture":"CHIBA KEN","city":"SAKURA SHI","town":"YAGI","perfecture_jp":"千葉県","jp_add_1":"佐倉市","jp_add_2":"八木"},"2850039":{"post_code":"2850039","prefecture":"CHIBA KEN","city":"SAKURA SHI","town":"YAKKODAIMACHI","perfecture_jp":"千葉県","jp_add_1":"佐倉市","jp_add_2":"野狐台町"},"2850011":{"post_code":"2850011","prefecture":"CHIBA KEN","city":"SAKURA SHI","town":"YAMANOSAKI","perfecture_jp":"千葉県","jp_add_1":"佐倉市","jp_add_2":"山崎"},"2850858":{"post_code":"2850858","prefecture":"CHIBA KEN","city":"SAKURA SHI","town":"YUKARIGAOKA","perfecture_jp":"千葉県","jp_add_1":"佐倉市","jp_add_2":"ユーカリが丘"},"2850834":{"post_code":"2850834","prefecture":"CHIBA KEN","city":"SAKURA SHI","town":"YOSHIMI","perfecture_jp":"千葉県","jp_add_1":"佐倉市","jp_add_2":"吉見"},"2850900":{"post_code":"2850900","prefecture":"CHIBA KEN","city":"IMBA GUN SHISUI MACHI","town":"IKANIKEISAIGANAIBAAI","perfecture_jp":"千葉県","jp_add_1":"印旛郡酒々井町","jp_add_2":""},"2850912":{"post_code":"2850912","prefecture":"CHIBA KEN","city":"IMBA GUN SHISUI MACHI","town":"IIZUMI","perfecture_jp":"千葉県","jp_add_1":"印旛郡酒々井町","jp_add_2":"飯積"},"2850902":{"post_code":"2850902","prefecture":"CHIBA KEN","city":"IMBA GUN SHISUI MACHI","town":"IJINO","perfecture_jp":"千葉県","jp_add_1":"印旛郡酒々井町","jp_add_2":"伊篠"},"2850904":{"post_code":"2850904","prefecture":"CHIBA KEN","city":"IMBA GUN SHISUI MACHI","town":"IJINOSHINDEN","perfecture_jp":"千葉県","jp_add_1":"印旛郡酒々井町","jp_add_2":"伊篠新田"},"2850903":{"post_code":"2850903","prefecture":"CHIBA KEN","city":"IMBA GUN SHISUI MACHI","town":"IMAKURASHINDEN","perfecture_jp":"千葉県","jp_add_1":"印旛郡酒々井町","jp_add_2":"今倉新田"},"2850911":{"post_code":"2850911","prefecture":"CHIBA KEN","city":"IMBA GUN SHISUI MACHI","town":"OGAMI","perfecture_jp":"千葉県","jp_add_1":"印旛郡酒々井町","jp_add_2":"尾上"},"2850906":{"post_code":"2850906","prefecture":"CHIBA KEN","city":"IMBA GUN SHISUI MACHI","town":"KASHIWAKI","perfecture_jp":"千葉県","jp_add_1":"印旛郡酒々井町","jp_add_2":"柏木"},"2850905":{"post_code":"2850905","prefecture":"CHIBA KEN","city":"IMBA GUN SHISUI MACHI","town":"KAMIIWAHASHI","perfecture_jp":"千葉県","jp_add_1":"印旛郡酒々井町","jp_add_2":"上岩橋"},"2850925":{"post_code":"2850925","prefecture":"CHIBA KEN","city":"IMBA GUN SHISUI MACHI","town":"KAMIMOTOSAKURA","perfecture_jp":"千葉県","jp_add_1":"印旛郡酒々井町","jp_add_2":"上本佐倉"},"2850927":{"post_code":"2850927","prefecture":"CHIBA KEN","city":"IMBA GUN SHISUI MACHI","town":"SHISUI","perfecture_jp":"千葉県","jp_add_1":"印旛郡酒々井町","jp_add_2":"酒々井"},"2850901":{"post_code":"2850901","prefecture":"CHIBA KEN","city":"IMBA GUN SHISUI MACHI","town":"SHINOYAMASHINDEN","perfecture_jp":"千葉県","jp_add_1":"印旛郡酒々井町","jp_add_2":"篠山新田"},"2850907":{"post_code":"2850907","prefecture":"CHIBA KEN","city":"IMBA GUN SHISUI MACHI","town":"SHIMOIWAHASHI","perfecture_jp":"千葉県","jp_add_1":"印旛郡酒々井町","jp_add_2":"下岩橋"},"2850924":{"post_code":"2850924","prefecture":"CHIBA KEN","city":"IMBA GUN SHISUI MACHI","town":"SHIMODAI","perfecture_jp":"千葉県","jp_add_1":"印旛郡酒々井町","jp_add_2":"下台"},"2850913":{"post_code":"2850913","prefecture":"CHIBA KEN","city":"IMBA GUN SHISUI MACHI","town":"SUMI","perfecture_jp":"千葉県","jp_add_1":"印旛郡酒々井町","jp_add_2":"墨"},"2850922":{"post_code":"2850922","prefecture":"CHIBA KEN","city":"IMBA GUN SHISUI MACHI","town":"CHUODAI","perfecture_jp":"千葉県","jp_add_1":"印旛郡酒々井町","jp_add_2":"中央台"},"2850921":{"post_code":"2850921","prefecture":"CHIBA KEN","city":"IMBA GUN SHISUI MACHI","town":"NAKAGAWA","perfecture_jp":"千葉県","jp_add_1":"印旛郡酒々井町","jp_add_2":"中川"},"2850923":{"post_code":"2850923","prefecture":"CHIBA KEN","city":"IMBA GUN SHISUI MACHI","town":"HIGASHISHISUI","perfecture_jp":"千葉県","jp_add_1":"印旛郡酒々井町","jp_add_2":"東酒々井"},"2850928":{"post_code":"2850928","prefecture":"CHIBA KEN","city":"IMBA GUN SHISUI MACHI","town":"FUJIKINO","perfecture_jp":"千葉県","jp_add_1":"印旛郡酒々井町","jp_add_2":"ふじき野"},"2850914":{"post_code":"2850914","prefecture":"CHIBA KEN","city":"IMBA GUN SHISUI MACHI","town":"MABASHI","perfecture_jp":"千葉県","jp_add_1":"印旛郡酒々井町","jp_add_2":"馬橋"},"2850926":{"post_code":"2850926","prefecture":"CHIBA KEN","city":"IMBA GUN SHISUI MACHI","town":"MOTOSAKURA","perfecture_jp":"千葉県","jp_add_1":"印旛郡酒々井町","jp_add_2":"本佐倉"}}