{"2890112":{"post_code":"2890112","prefecture":"CHIBA KEN","city":"NARITA SHI","town":"AOYAMA","perfecture_jp":"千葉県","jp_add_1":"成田市","jp_add_2":"青山"},"2890121":{"post_code":"2890121","prefecture":"CHIBA KEN","city":"NARITA SHI","town":"OSUGE","perfecture_jp":"千葉県","jp_add_1":"成田市","jp_add_2":"大菅"},"2890109":{"post_code":"2890109","prefecture":"CHIBA KEN","city":"NARITA SHI","town":"OWADA","perfecture_jp":"千葉県","jp_add_1":"成田市","jp_add_2":"大和田"},"2890106":{"post_code":"2890106","prefecture":"CHIBA KEN","city":"NARITA SHI","town":"ONO","perfecture_jp":"千葉県","jp_add_1":"成田市","jp_add_2":"小野"},"2890113":{"post_code":"2890113","prefecture":"CHIBA KEN","city":"NARITA SHI","town":"KURAMIZU","perfecture_jp":"千葉県","jp_add_1":"成田市","jp_add_2":"倉水"},"2890101":{"post_code":"2890101","prefecture":"CHIBA KEN","city":"NARITA SHI","town":"KOBUKE","perfecture_jp":"千葉県","jp_add_1":"成田市","jp_add_2":"小浮"},"2890107":{"post_code":"2890107","prefecture":"CHIBA KEN","city":"NARITA SHI","town":"SARUYAMA","perfecture_jp":"千葉県","jp_add_1":"成田市","jp_add_2":"猿山"},"2890115":{"post_code":"2890115","prefecture":"CHIBA KEN","city":"NARITA SHI","town":"JIZOHARASHINDEN","perfecture_jp":"千葉県","jp_add_1":"成田市","jp_add_2":"地蔵原新田"},"2890126":{"post_code":"2890126","prefecture":"CHIBA KEN","city":"NARITA SHI","town":"SHINKAWA","perfecture_jp":"千葉県","jp_add_1":"成田市","jp_add_2":"新川"},"2890103":{"post_code":"2890103","prefecture":"CHIBA KEN","city":"NARITA SHI","town":"TAKA","perfecture_jp":"千葉県","jp_add_1":"成田市","jp_add_2":"高"},"2890108":{"post_code":"2890108","prefecture":"CHIBA KEN","city":"NARITA SHI","town":"TAKAOKA","perfecture_jp":"千葉県","jp_add_1":"成田市","jp_add_2":"高岡"},"2890122":{"post_code":"2890122","prefecture":"CHIBA KEN","city":"NARITA SHI","town":"TAKAKURA","perfecture_jp":"千葉県","jp_add_1":"成田市","jp_add_2":"高倉"},"2890104":{"post_code":"2890104","prefecture":"CHIBA KEN","city":"NARITA SHI","town":"TOBU","perfecture_jp":"千葉県","jp_add_1":"成田市","jp_add_2":"冬父"},"2890105":{"post_code":"2890105","prefecture":"CHIBA KEN","city":"NARITA SHI","town":"NAKAZATO","perfecture_jp":"千葉県","jp_add_1":"成田市","jp_add_2":"中里"},"2890111":{"post_code":"2890111","prefecture":"CHIBA KEN","city":"NARITA SHI","town":"NAGI","perfecture_jp":"千葉県","jp_add_1":"成田市","jp_add_2":"名木"},"2890116":{"post_code":"2890116","prefecture":"CHIBA KEN","city":"NARITA SHI","town":"NAGOYA","perfecture_jp":"千葉県","jp_add_1":"成田市","jp_add_2":"名古屋"},"2890117":{"post_code":"2890117","prefecture":"CHIBA KEN","city":"NARITA SHI","town":"NANASAWA","perfecture_jp":"千葉県","jp_add_1":"成田市","jp_add_2":"七沢"},"2890125":{"post_code":"2890125","prefecture":"CHIBA KEN","city":"NARITA SHI","town":"NAMEGAWA","perfecture_jp":"千葉県","jp_add_1":"成田市","jp_add_2":"滑川"},"2890114":{"post_code":"2890114","prefecture":"CHIBA KEN","city":"NARITA SHI","town":"NARUI","perfecture_jp":"千葉県","jp_add_1":"成田市","jp_add_2":"成井"},"2890124":{"post_code":"2890124","prefecture":"CHIBA KEN","city":"NARITA SHI","town":"NISHIOSUKA","perfecture_jp":"千葉県","jp_add_1":"成田市","jp_add_2":"西大須賀"},"2890102":{"post_code":"2890102","prefecture":"CHIBA KEN","city":"NARITA SHI","town":"NOMAGOME","perfecture_jp":"千葉県","jp_add_1":"成田市","jp_add_2":"野馬込"},"2890123":{"post_code":"2890123","prefecture":"CHIBA KEN","city":"NARITA SHI","town":"YOTSUYA","perfecture_jp":"千葉県","jp_add_1":"成田市","jp_add_2":"四谷"},"2892500":{"post_code":"2892500","prefecture":"CHIBA KEN","city":"ASAHI SHI","town":"IKANIKEISAIGANAIBAAI","perfecture_jp":"千葉県","jp_add_1":"旭市","jp_add_2":""},"2890518":{"post_code":"2890518","prefecture":"CHIBA KEN","city":"ASAHI SHI","town":"AKITA","perfecture_jp":"千葉県","jp_add_1":"旭市","jp_add_2":"秋田"},"2892522":{"post_code":"2892522","prefecture":"CHIBA KEN","city":"ASAHI SHI","town":"ASHIKAWA","perfecture_jp":"千葉県","jp_add_1":"旭市","jp_add_2":"足川"},"2892511":{"post_code":"2892511","prefecture":"CHIBA KEN","city":"ASAHI SHI","town":"I","perfecture_jp":"千葉県","jp_add_1":"旭市","jp_add_2":"イ"},"2892705":{"post_code":"2892705","prefecture":"CHIBA KEN","city":"ASAHI SHI","town":"IIOKA","perfecture_jp":"千葉県","jp_add_1":"旭市","jp_add_2":"飯岡"},"2892607":{"post_code":"2892607","prefecture":"CHIBA KEN","city":"ASAHI SHI","town":"IKUYO","perfecture_jp":"千葉県","jp_add_1":"旭市","jp_add_2":"幾世"},"2892534":{"post_code":"2892534","prefecture":"CHIBA KEN","city":"ASAHI SHI","town":"IZUMIKAWA","perfecture_jp":"千葉県","jp_add_1":"旭市","jp_add_2":"泉川"},"2892531":{"post_code":"2892531","prefecture":"CHIBA KEN","city":"ASAHI SHI","town":"IDONO","perfecture_jp":"千葉県","jp_add_1":"旭市","jp_add_2":"井戸野"},"2890515":{"post_code":"2890515","prefecture":"CHIBA KEN","city":"ASAHI SHI","town":"IRINO","perfecture_jp":"千葉県","jp_add_1":"旭市","jp_add_2":"入野"},"2892602":{"post_code":"2892602","prefecture":"CHIBA KEN","city":"ASAHI SHI","town":"IWAI","perfecture_jp":"千葉県","jp_add_1":"旭市","jp_add_2":"岩井"},"2892711":{"post_code":"2892711","prefecture":"CHIBA KEN","city":"ASAHI SHI","town":"IWASAKI","perfecture_jp":"千葉県","jp_add_1":"旭市","jp_add_2":"岩崎"},"2892613":{"post_code":"2892613","prefecture":"CHIBA KEN","city":"ASAHI SHI","town":"USHIROGUSA","perfecture_jp":"千葉県","jp_add_1":"旭市","jp_add_2":"後草"},"2892614":{"post_code":"2892614","prefecture":"CHIBA KEN","city":"ASAHI SHI","town":"1728-4-BANCHI)","perfecture_jp":"千葉県","jp_add_1":"旭市","jp_add_2":"江ケ崎"},"2892503":{"post_code":"2892503","prefecture":"CHIBA KEN","city":"ASAHI SHI","town":"EGASAKI(SONOTA)","perfecture_jp":"千葉県","jp_add_1":"旭市","jp_add_2":"江ケ崎"},"2892533":{"post_code":"2892533","prefecture":"CHIBA KEN","city":"ASAHI SHI","town":"OTSUKAHARA","perfecture_jp":"千葉県","jp_add_1":"旭市","jp_add_2":"大塚原"},"2892603":{"post_code":"2892603","prefecture":"CHIBA KEN","city":"ASAHI SHI","town":"OMADE","perfecture_jp":"千葉県","jp_add_1":"旭市","jp_add_2":"大間手"},"2890511":{"post_code":"2890511","prefecture":"CHIBA KEN","city":"ASAHI SHI","town":"KABURAKI","perfecture_jp":"千葉県","jp_add_1":"旭市","jp_add_2":"鏑木"},"2892505":{"post_code":"2892505","prefecture":"CHIBA KEN","city":"ASAHI SHI","town":"KAMAKAZU","perfecture_jp":"千葉県","jp_add_1":"旭市","jp_add_2":"鎌数"},"2892704":{"post_code":"2892704","prefecture":"CHIBA KEN","city":"ASAHI SHI","town":"KAMINAGAI","perfecture_jp":"千葉県","jp_add_1":"旭市","jp_add_2":"上永井"},"2892535":{"post_code":"2892535","prefecture":"CHIBA KEN","city":"ASAHI SHI","town":"KAWAGUCHI","perfecture_jp":"千葉県","jp_add_1":"旭市","jp_add_2":"川口"},"2892707":{"post_code":"2892707","prefecture":"CHIBA KEN","city":"ASAHI SHI","town":"GYOJI","perfecture_jp":"千葉県","jp_add_1":"旭市","jp_add_2":"行内"},"2892606":{"post_code":"2892606","prefecture":"CHIBA KEN","city":"ASAHI SHI","town":"KIYOTAKI","perfecture_jp":"千葉県","jp_add_1":"旭市","jp_add_2":"清滝"},"2892611":{"post_code":"2892611","prefecture":"CHIBA KEN","city":"ASAHI SHI","town":"KURAHASHI","perfecture_jp":"千葉県","jp_add_1":"旭市","jp_add_2":"倉橋"},"2892605":{"post_code":"2892605","prefecture":"CHIBA KEN","city":"ASAHI SHI","town":"3598-3614-BANCHI)","perfecture_jp":"千葉県","jp_add_1":"旭市","jp_add_2":"琴田"},"2892502":{"post_code":"2892502","prefecture":"CHIBA KEN","city":"ASAHI SHI","town":"KOTODA(SONOTA)","perfecture_jp":"千葉県","jp_add_1":"旭市","jp_add_2":"琴田"},"2892532":{"post_code":"2892532","prefecture":"CHIBA KEN","city":"ASAHI SHI","town":"KOMAGOME","perfecture_jp":"千葉県","jp_add_1":"旭市","jp_add_2":"駒込"},"2892715":{"post_code":"2892715","prefecture":"CHIBA KEN","city":"ASAHI SHI","town":"GONDANUMASHINDEN","perfecture_jp":"千葉県","jp_add_1":"旭市","jp_add_2":"権田沼新田"},"2890504":{"post_code":"2890504","prefecture":"CHIBA KEN","city":"ASAHI SHI","town":"SAKURAI","perfecture_jp":"千葉県","jp_add_1":"旭市","jp_add_2":"櫻井"},"2890506":{"post_code":"2890506","prefecture":"CHIBA KEN","city":"ASAHI SHI","town":"SAKURADAI","perfecture_jp":"千葉県","jp_add_1":"旭市","jp_add_2":"さくら台"},"2892714":{"post_code":"2892714","prefecture":"CHIBA KEN","city":"ASAHI SHI","town":"SANGAWA","perfecture_jp":"千葉県","jp_add_1":"旭市","jp_add_2":"三川"},"2892514":{"post_code":"2892514","prefecture":"CHIBA KEN","city":"ASAHI SHI","town":"SHIINAUCHI","perfecture_jp":"千葉県","jp_add_1":"旭市","jp_add_2":"椎名内"},"2892706":{"post_code":"2892706","prefecture":"CHIBA KEN","city":"ASAHI SHI","town":"SHIMONAGAI","perfecture_jp":"千葉県","jp_add_1":"旭市","jp_add_2":"下永井"},"2892524":{"post_code":"2892524","prefecture":"CHIBA KEN","city":"ASAHI SHI","town":"JINGUJI","perfecture_jp":"千葉県","jp_add_1":"旭市","jp_add_2":"神宮寺"},"2892501":{"post_code":"2892501","prefecture":"CHIBA KEN","city":"ASAHI SHI","town":"SHIMMACHI","perfecture_jp":"千葉県","jp_add_1":"旭市","jp_add_2":"新町"},"2890501":{"post_code":"2890501","prefecture":"CHIBA KEN","city":"ASAHI SHI","town":"SEIWAOTSU","perfecture_jp":"千葉県","jp_add_1":"旭市","jp_add_2":"清和乙"},"2890507":{"post_code":"2890507","prefecture":"CHIBA KEN","city":"ASAHI SHI","town":"SEIWAKO","perfecture_jp":"千葉県","jp_add_1":"旭市","jp_add_2":"清和甲"},"2890514":{"post_code":"2890514","prefecture":"CHIBA KEN","city":"ASAHI SHI","town":"SEKIDO","perfecture_jp":"千葉県","jp_add_1":"旭市","jp_add_2":"関戸"},"2892604":{"post_code":"2892604","prefecture":"CHIBA KEN","city":"ASAHI SHI","town":"TAKAOI","perfecture_jp":"千葉県","jp_add_1":"旭市","jp_add_2":"高生"},"2892615":{"post_code":"2892615","prefecture":"CHIBA KEN","city":"ASAHI SHI","town":"NAGAO","perfecture_jp":"千葉県","jp_add_1":"旭市","jp_add_2":"長尾"},"2890502":{"post_code":"2890502","prefecture":"CHIBA KEN","city":"ASAHI SHI","town":"NAGABE","perfecture_jp":"千葉県","jp_add_1":"旭市","jp_add_2":"長部"},"2892523":{"post_code":"2892523","prefecture":"CHIBA KEN","city":"ASAHI SHI","town":"NAKAYARI","perfecture_jp":"千葉県","jp_add_1":"旭市","jp_add_2":"中谷里"},"2892504":{"post_code":"2892504","prefecture":"CHIBA KEN","city":"ASAHI SHI","town":"NI","perfecture_jp":"千葉県","jp_add_1":"旭市","jp_add_2":"ニ"},"2892515":{"post_code":"2892515","prefecture":"CHIBA KEN","city":"ASAHI SHI","town":"NISHIASHIARAI","perfecture_jp":"千葉県","jp_add_1":"旭市","jp_add_2":"西足洗"},"2892525":{"post_code":"2892525","prefecture":"CHIBA KEN","city":"ASAHI SHI","town":"NITTAMA","perfecture_jp":"千葉県","jp_add_1":"旭市","jp_add_2":"仁玉"},"2892513":{"post_code":"2892513","prefecture":"CHIBA KEN","city":"ASAHI SHI","town":"NONAKA","perfecture_jp":"千葉県","jp_add_1":"旭市","jp_add_2":"野中"},"2892521":{"post_code":"2892521","prefecture":"CHIBA KEN","city":"ASAHI SHI","town":"HA","perfecture_jp":"千葉県","jp_add_1":"旭市","jp_add_2":"ハ"},"2892713":{"post_code":"2892713","prefecture":"CHIBA KEN","city":"ASAHI SHI","town":"HAGIZONO","perfecture_jp":"千葉県","jp_add_1":"旭市","jp_add_2":"萩園"},"2892702":{"post_code":"2892702","prefecture":"CHIBA KEN","city":"ASAHI SHI","town":"HANAWA","perfecture_jp":"千葉県","jp_add_1":"旭市","jp_add_2":"塙"},"2892512":{"post_code":"2892512","prefecture":"CHIBA KEN","city":"ASAHI SHI","town":"HIGASHIASHIARAI","perfecture_jp":"千葉県","jp_add_1":"旭市","jp_add_2":"東足洗"},"2892708":{"post_code":"2892708","prefecture":"CHIBA KEN","city":"ASAHI SHI","town":"HIRAMATSU","perfecture_jp":"千葉県","jp_add_1":"旭市","jp_add_2":"平松"},"2890513":{"post_code":"2890513","prefecture":"CHIBA KEN","city":"ASAHI SHI","town":"FUNADO","perfecture_jp":"千葉県","jp_add_1":"旭市","jp_add_2":"舟戸"},"2892612":{"post_code":"2892612","prefecture":"CHIBA KEN","city":"ASAHI SHI","town":"HEBISONO","perfecture_jp":"千葉県","jp_add_1":"旭市","jp_add_2":"蛇園"},"2892601":{"post_code":"2892601","prefecture":"CHIBA KEN","city":"ASAHI SHI","town":"MATSUGAYA","perfecture_jp":"千葉県","jp_add_1":"旭市","jp_add_2":"松ケ谷"},"2890505":{"post_code":"2890505","prefecture":"CHIBA KEN","city":"ASAHI SHI","town":"MANZAI","perfecture_jp":"千葉県","jp_add_1":"旭市","jp_add_2":"萬歳"},"2890517":{"post_code":"2890517","prefecture":"CHIBA KEN","city":"ASAHI SHI","town":"MANRIKI","perfecture_jp":"千葉県","jp_add_1":"旭市","jp_add_2":"萬力"},"2890503":{"post_code":"2890503","prefecture":"CHIBA KEN","city":"ASAHI SHI","town":"MIZOWARA","perfecture_jp":"千葉県","jp_add_1":"旭市","jp_add_2":"溝原"},"2890512":{"post_code":"2890512","prefecture":"CHIBA KEN","city":"ASAHI SHI","town":"MINAMIHORINOCHI","perfecture_jp":"千葉県","jp_add_1":"旭市","jp_add_2":"南堀之内"},"2892616":{"post_code":"2892616","prefecture":"CHIBA KEN","city":"ASAHI SHI","town":"MIHIRO","perfecture_jp":"千葉県","jp_add_1":"旭市","jp_add_2":"見広"},"2892701":{"post_code":"2892701","prefecture":"CHIBA KEN","city":"ASAHI SHI","town":"MUJINANO","perfecture_jp":"千葉県","jp_add_1":"旭市","jp_add_2":"狢野"},"2892703":{"post_code":"2892703","prefecture":"CHIBA KEN","city":"ASAHI SHI","town":"YAGI","perfecture_jp":"千葉県","jp_add_1":"旭市","jp_add_2":"八木"},"2892712":{"post_code":"2892712","prefecture":"CHIBA KEN","city":"ASAHI SHI","town":"YOKONE","perfecture_jp":"千葉県","jp_add_1":"旭市","jp_add_2":"横根"},"2890516":{"post_code":"2890516","prefecture":"CHIBA KEN","city":"ASAHI SHI","town":"YONEGOME","perfecture_jp":"千葉県","jp_add_1":"旭市","jp_add_2":"米込"},"2892516":{"post_code":"2892516","prefecture":"CHIBA KEN","city":"ASAHI SHI","town":"RO","perfecture_jp":"千葉県","jp_add_1":"旭市","jp_add_2":"ロ"},"2891100":{"post_code":"2891100","prefecture":"CHIBA KEN","city":"YACHIMATA SHI","town":"IKANIKEISAIGANAIBAAI","perfecture_jp":"千葉県","jp_add_1":"八街市","jp_add_2":""},"2891101":{"post_code":"2891101","prefecture":"CHIBA KEN","city":"YACHIMATA SHI","town":"ASAHI","perfecture_jp":"千葉県","jp_add_1":"八街市","jp_add_2":"朝日"},"2891121":{"post_code":"2891121","prefecture":"CHIBA KEN","city":"YACHIMATA SHI","town":"ISAGO","perfecture_jp":"千葉県","jp_add_1":"八街市","jp_add_2":"砂"},"2891105":{"post_code":"2891105","prefecture":"CHIBA KEN","city":"YACHIMATA SHI","town":"IZUMIDAI","perfecture_jp":"千葉県","jp_add_1":"八街市","jp_add_2":"泉台"},"2891106":{"post_code":"2891106","prefecture":"CHIBA KEN","city":"YACHIMATA SHI","town":"ENOKIDO","perfecture_jp":"千葉県","jp_add_1":"八街市","jp_add_2":"榎戸"},"2891111":{"post_code":"2891111","prefecture":"CHIBA KEN","city":"YACHIMATA SHI","town":"OGI","perfecture_jp":"千葉県","jp_add_1":"八街市","jp_add_2":"大木"},"2891142":{"post_code":"2891142","prefecture":"CHIBA KEN","city":"YACHIMATA SHI","town":"OSEKI","perfecture_jp":"千葉県","jp_add_1":"八街市","jp_add_2":"大関"},"2891134":{"post_code":"2891134","prefecture":"CHIBA KEN","city":"YACHIMATA SHI","town":"OYARU","perfecture_jp":"千葉県","jp_add_1":"八街市","jp_add_2":"大谷流"},"2891137":{"post_code":"2891137","prefecture":"CHIBA KEN","city":"YACHIMATA SHI","town":"OKADA","perfecture_jp":"千葉県","jp_add_1":"八街市","jp_add_2":"岡田"},"2891126":{"post_code":"2891126","prefecture":"CHIBA KEN","city":"YACHIMATA SHI","town":"OKI","perfecture_jp":"千葉県","jp_add_1":"八街市","jp_add_2":"沖"},"2891102":{"post_code":"2891102","prefecture":"CHIBA KEN","city":"YACHIMATA SHI","town":"OKIWATASHI","perfecture_jp":"千葉県","jp_add_1":"八街市","jp_add_2":"沖渡"},"2891125":{"post_code":"2891125","prefecture":"CHIBA KEN","city":"YACHIMATA SHI","town":"KAMIISAGO","perfecture_jp":"千葉県","jp_add_1":"八街市","jp_add_2":"上砂"},"2891108":{"post_code":"2891108","prefecture":"CHIBA KEN","city":"YACHIMATA SHI","town":"GAMMARU","perfecture_jp":"千葉県","jp_add_1":"八街市","jp_add_2":"雁丸"},"2891112":{"post_code":"2891112","prefecture":"CHIBA KEN","city":"YACHIMATA SHI","town":"KIBARA","perfecture_jp":"千葉県","jp_add_1":"八街市","jp_add_2":"木原"},"2891131":{"post_code":"2891131","prefecture":"CHIBA KEN","city":"YACHIMATA SHI","town":"KIBOGAOKA","perfecture_jp":"千葉県","jp_add_1":"八街市","jp_add_2":"希望ケ丘"},"2891135":{"post_code":"2891135","prefecture":"CHIBA KEN","city":"YACHIMATA SHI","town":"KOYARU","perfecture_jp":"千葉県","jp_add_1":"八街市","jp_add_2":"小谷流"},"2891122":{"post_code":"2891122","prefecture":"CHIBA KEN","city":"YACHIMATA SHI","town":"SHIMOKU","perfecture_jp":"千葉県","jp_add_1":"八街市","jp_add_2":"四木"},"2891132":{"post_code":"2891132","prefecture":"CHIBA KEN","city":"YACHIMATA SHI","town":"SETA","perfecture_jp":"千葉県","jp_add_1":"八街市","jp_add_2":"勢田"},"2891123":{"post_code":"2891123","prefecture":"CHIBA KEN","city":"YACHIMATA SHI","town":"TAKIDAI","perfecture_jp":"千葉県","jp_add_1":"八街市","jp_add_2":"滝台"},"2891116":{"post_code":"2891116","prefecture":"CHIBA KEN","city":"YACHIMATA SHI","town":"CHUO","perfecture_jp":"千葉県","jp_add_1":"八街市","jp_add_2":"中央"},"2891141":{"post_code":"2891141","prefecture":"CHIBA KEN","city":"YACHIMATA SHI","town":"TOYAMA","perfecture_jp":"千葉県","jp_add_1":"八街市","jp_add_2":"富山"},"2891136":{"post_code":"2891136","prefecture":"CHIBA KEN","city":"YACHIMATA SHI","town":"NEGOYA","perfecture_jp":"千葉県","jp_add_1":"八街市","jp_add_2":"根古谷"},"2891114":{"post_code":"2891114","prefecture":"CHIBA KEN","city":"YACHIMATA SHI","town":"HIGASHIYOSHIDA","perfecture_jp":"千葉県","jp_add_1":"八街市","jp_add_2":"東吉田"},"2891104":{"post_code":"2891104","prefecture":"CHIBA KEN","city":"YACHIMATA SHI","town":"HIJIKAI","perfecture_jp":"千葉県","jp_add_1":"八街市","jp_add_2":"文違"},"2891145":{"post_code":"2891145","prefecture":"CHIBA KEN","city":"YACHIMATA SHI","town":"MIDORIDAI","perfecture_jp":"千葉県","jp_add_1":"八街市","jp_add_2":"みどり台"},"2891138":{"post_code":"2891138","prefecture":"CHIBA KEN","city":"YACHIMATA SHI","town":"MOCHIKUSA","perfecture_jp":"千葉県","jp_add_1":"八街市","jp_add_2":"用草"},"2891143":{"post_code":"2891143","prefecture":"CHIBA KEN","city":"YACHIMATA SHI","town":"YACHIMATAI","perfecture_jp":"千葉県","jp_add_1":"八街市","jp_add_2":"八街い"},"2891144":{"post_code":"2891144","prefecture":"CHIBA KEN","city":"YACHIMATA SHI","town":"YACHIMATARO","perfecture_jp":"千葉県","jp_add_1":"八街市","jp_add_2":"八街ろ"},"2891107":{"post_code":"2891107","prefecture":"CHIBA KEN","city":"YACHIMATA SHI","town":"YACHIMATAHA","perfecture_jp":"千葉県","jp_add_1":"八街市","jp_add_2":"八街は"},"2891103":{"post_code":"2891103","prefecture":"CHIBA KEN","city":"YACHIMATA SHI","town":"YACHIMATANI","perfecture_jp":"千葉県","jp_add_1":"八街市","jp_add_2":"八街に"},"2891115":{"post_code":"2891115","prefecture":"CHIBA KEN","city":"YACHIMATA SHI","town":"YACHIMATAHO","perfecture_jp":"千葉県","jp_add_1":"八街市","jp_add_2":"八街ほ"},"2891113":{"post_code":"2891113","prefecture":"CHIBA KEN","city":"YACHIMATA SHI","town":"YACHIMATAHE","perfecture_jp":"千葉県","jp_add_1":"八街市","jp_add_2":"八街へ"},"2891124":{"post_code":"2891124","prefecture":"CHIBA KEN","city":"YACHIMATA SHI","town":"YAMADADAI","perfecture_jp":"千葉県","jp_add_1":"八街市","jp_add_2":"山田台"},"2891133":{"post_code":"2891133","prefecture":"CHIBA KEN","city":"YACHIMATA SHI","town":"YOSHIKURA","perfecture_jp":"千葉県","jp_add_1":"八街市","jp_add_2":"吉倉"},"2892100":{"post_code":"2892100","prefecture":"CHIBA KEN","city":"SOSA SHI","town":"IKANIKEISAIGANAIBAAI","perfecture_jp":"千葉県","jp_add_1":"匝瑳市","jp_add_2":""},"2892178":{"post_code":"2892178","prefecture":"CHIBA KEN","city":"SOSA SHI","town":"AGUYAMA","perfecture_jp":"千葉県","jp_add_1":"匝瑳市","jp_add_2":"安久山"},"2892147":{"post_code":"2892147","prefecture":"CHIBA KEN","city":"SOSA SHI","town":"IIGURA","perfecture_jp":"千葉県","jp_add_1":"匝瑳市","jp_add_2":"飯倉"},"2892148":{"post_code":"2892148","prefecture":"CHIBA KEN","city":"SOSA SHI","town":"IIGURADAI","perfecture_jp":"千葉県","jp_add_1":"匝瑳市","jp_add_2":"飯倉台"},"2892173":{"post_code":"2892173","prefecture":"CHIBA KEN","city":"SOSA SHI","town":"IIDAKA","perfecture_jp":"千葉県","jp_add_1":"匝瑳市","jp_add_2":"飯高"},"2892106":{"post_code":"2892106","prefecture":"CHIBA KEN","city":"SOSA SHI","town":"IIZUKA","perfecture_jp":"千葉県","jp_add_1":"匝瑳市","jp_add_2":"飯塚"},"2893182":{"post_code":"2893182","prefecture":"CHIBA KEN","city":"SOSA SHI","town":"IMAIZUMI","perfecture_jp":"千葉県","jp_add_1":"匝瑳市","jp_add_2":"今泉"},"2892161":{"post_code":"2892161","prefecture":"CHIBA KEN","city":"SOSA SHI","town":"IRIYAMAZAKI","perfecture_jp":"千葉県","jp_add_1":"匝瑳市","jp_add_2":"入山崎"},"2892171":{"post_code":"2892171","prefecture":"CHIBA KEN","city":"SOSA SHI","town":"UCHIYAMA","perfecture_jp":"千葉県","jp_add_1":"匝瑳市","jp_add_2":"内山"},"2892104":{"post_code":"2892104","prefecture":"CHIBA KEN","city":"SOSA SHI","town":"OIO","perfecture_jp":"千葉県","jp_add_1":"匝瑳市","jp_add_2":"生尾"},"2892151":{"post_code":"2892151","prefecture":"CHIBA KEN","city":"SOSA SHI","town":"OURA","perfecture_jp":"千葉県","jp_add_1":"匝瑳市","jp_add_2":"大浦"},"2892108":{"post_code":"2892108","prefecture":"CHIBA KEN","city":"SOSA SHI","town":"ODERA","perfecture_jp":"千葉県","jp_add_1":"匝瑳市","jp_add_2":"大寺"},"2892176":{"post_code":"2892176","prefecture":"CHIBA KEN","city":"SOSA SHI","town":"OHORI","perfecture_jp":"千葉県","jp_add_1":"匝瑳市","jp_add_2":"大堀"},"2892112":{"post_code":"2892112","prefecture":"CHIBA KEN","city":"SOSA SHI","town":"OGINO","perfecture_jp":"千葉県","jp_add_1":"匝瑳市","jp_add_2":"荻野"},"2892179":{"post_code":"2892179","prefecture":"CHIBA KEN","city":"SOSA SHI","town":"ODAKA","perfecture_jp":"千葉県","jp_add_1":"匝瑳市","jp_add_2":"小高"},"2892149":{"post_code":"2892149","prefecture":"CHIBA KEN","city":"SOSA SHI","town":"KAIZUKA","perfecture_jp":"千葉県","jp_add_1":"匝瑳市","jp_add_2":"貝塚"},"2892175":{"post_code":"2892175","prefecture":"CHIBA KEN","city":"SOSA SHI","town":"KATAKO","perfecture_jp":"千葉県","jp_add_1":"匝瑳市","jp_add_2":"片子"},"2892177":{"post_code":"2892177","prefecture":"CHIBA KEN","city":"SOSA SHI","town":"KANABARA","perfecture_jp":"千葉県","jp_add_1":"匝瑳市","jp_add_2":"金原"},"2892133":{"post_code":"2892133","prefecture":"CHIBA KEN","city":"SOSA SHI","town":"KABUZATO","perfecture_jp":"千葉県","jp_add_1":"匝瑳市","jp_add_2":"蕪里"},"2892167":{"post_code":"2892167","prefecture":"CHIBA KEN","city":"SOSA SHI","town":"KAMEZAKI","perfecture_jp":"千葉県","jp_add_1":"匝瑳市","jp_add_2":"亀崎"},"2893184":{"post_code":"2893184","prefecture":"CHIBA KEN","city":"SOSA SHI","town":"KAYADA","perfecture_jp":"千葉県","jp_add_1":"匝瑳市","jp_add_2":"栢田"},"2893186":{"post_code":"2893186","prefecture":"CHIBA KEN","city":"SOSA SHI","town":"KAWABE","perfecture_jp":"千葉県","jp_add_1":"匝瑳市","jp_add_2":"川辺"},"2892111":{"post_code":"2892111","prefecture":"CHIBA KEN","city":"SOSA SHI","town":"KAWAMUKAI","perfecture_jp":"千葉県","jp_add_1":"匝瑳市","jp_add_2":"川向"},"2892164":{"post_code":"2892164","prefecture":"CHIBA KEN","city":"SOSA SHI","town":"KIZUMI","perfecture_jp":"千葉県","jp_add_1":"匝瑳市","jp_add_2":"木積"},"2892174":{"post_code":"2892174","prefecture":"CHIBA KEN","city":"SOSA SHI","town":"KOZAKI","perfecture_jp":"千葉県","jp_add_1":"匝瑳市","jp_add_2":"公崎"},"2892135":{"post_code":"2892135","prefecture":"CHIBA KEN","city":"SOSA SHI","town":"KOYA","perfecture_jp":"千葉県","jp_add_1":"匝瑳市","jp_add_2":"高野"},"2892166":{"post_code":"2892166","prefecture":"CHIBA KEN","city":"SOSA SHI","town":"SHIMURA","perfecture_jp":"千葉県","jp_add_1":"匝瑳市","jp_add_2":"新"},"2892114":{"post_code":"2892114","prefecture":"CHIBA KEN","city":"SOSA SHI","town":"JOYANAKA","perfecture_jp":"千葉県","jp_add_1":"匝瑳市","jp_add_2":"上谷中"},"2892132":{"post_code":"2892132","prefecture":"CHIBA KEN","city":"SOSA SHI","town":"TAKA","perfecture_jp":"千葉県","jp_add_1":"匝瑳市","jp_add_2":"高"},"2892165":{"post_code":"2892165","prefecture":"CHIBA KEN","city":"SOSA SHI","town":"TAKUBO","perfecture_jp":"千葉県","jp_add_1":"匝瑳市","jp_add_2":"田久保"},"2892102":{"post_code":"2892102","prefecture":"CHIBA KEN","city":"SOSA SHI","town":"TSUBAKI","perfecture_jp":"千葉県","jp_add_1":"匝瑳市","jp_add_2":"椿"},"2892136":{"post_code":"2892136","prefecture":"CHIBA KEN","city":"SOSA SHI","town":"TOKIZONE","perfecture_jp":"千葉県","jp_add_1":"匝瑳市","jp_add_2":"時曽根"},"2892154":{"post_code":"2892154","prefecture":"CHIBA KEN","city":"SOSA SHI","town":"TOMIOKA","perfecture_jp":"千葉県","jp_add_1":"匝瑳市","jp_add_2":"富岡"},"2892156":{"post_code":"2892156","prefecture":"CHIBA KEN","city":"SOSA SHI","town":"NAGAOKA","perfecture_jp":"千葉県","jp_add_1":"匝瑳市","jp_add_2":"長岡"},"2892153":{"post_code":"2892153","prefecture":"CHIBA KEN","city":"SOSA SHI","town":"NAKADAI","perfecture_jp":"千葉県","jp_add_1":"匝瑳市","jp_add_2":"中台"},"2892123":{"post_code":"2892123","prefecture":"CHIBA KEN","city":"SOSA SHI","town":"NAGAYA","perfecture_jp":"千葉県","jp_add_1":"匝瑳市","jp_add_2":"長谷"},"2893183":{"post_code":"2893183","prefecture":"CHIBA KEN","city":"SOSA SHI","town":"NIIBORI","perfecture_jp":"千葉県","jp_add_1":"匝瑳市","jp_add_2":"新堀"},"2892125":{"post_code":"2892125","prefecture":"CHIBA KEN","city":"SOSA SHI","town":"NISHIKOZASA","perfecture_jp":"千葉県","jp_add_1":"匝瑳市","jp_add_2":"西小笹"},"2892172":{"post_code":"2892172","prefecture":"CHIBA KEN","city":"SOSA SHI","town":"NEGOYA","perfecture_jp":"千葉県","jp_add_1":"匝瑳市","jp_add_2":"城下"},"2893181":{"post_code":"2893181","prefecture":"CHIBA KEN","city":"SOSA SHI","town":"NODE","perfecture_jp":"千葉県","jp_add_1":"匝瑳市","jp_add_2":"野手"},"2892124":{"post_code":"2892124","prefecture":"CHIBA KEN","city":"SOSA SHI","town":"NOBUTO","perfecture_jp":"千葉県","jp_add_1":"匝瑳市","jp_add_2":"登戸"},"2892101":{"post_code":"2892101","prefecture":"CHIBA KEN","city":"SOSA SHI","town":"HARUMI","perfecture_jp":"千葉県","jp_add_1":"匝瑳市","jp_add_2":"春海"},"2892121":{"post_code":"2892121","prefecture":"CHIBA KEN","city":"SOSA SHI","town":"HIGASHIKOZASA","perfecture_jp":"千葉県","jp_add_1":"匝瑳市","jp_add_2":"東小笹"},"2892115":{"post_code":"2892115","prefecture":"CHIBA KEN","city":"SOSA SHI","town":"HIGASHIYA","perfecture_jp":"千葉県","jp_add_1":"匝瑳市","jp_add_2":"東谷"},"2892168":{"post_code":"2892168","prefecture":"CHIBA KEN","city":"SOSA SHI","town":"HISAKATA","perfecture_jp":"千葉県","jp_add_1":"匝瑳市","jp_add_2":"久方"},"2892113":{"post_code":"2892113","prefecture":"CHIBA KEN","city":"SOSA SHI","town":"HIRAGI","perfecture_jp":"千葉県","jp_add_1":"匝瑳市","jp_add_2":"平木"},"2893185":{"post_code":"2893185","prefecture":"CHIBA KEN","city":"SOSA SHI","town":"HORIKAWA","perfecture_jp":"千葉県","jp_add_1":"匝瑳市","jp_add_2":"堀川"},"2892157":{"post_code":"2892157","prefecture":"CHIBA KEN","city":"SOSA SHI","town":"HORINOCHI","perfecture_jp":"千葉県","jp_add_1":"匝瑳市","jp_add_2":"堀之内"},"2892152":{"post_code":"2892152","prefecture":"CHIBA KEN","city":"SOSA SHI","town":"MATSUYAMA","perfecture_jp":"千葉県","jp_add_1":"匝瑳市","jp_add_2":"松山"},"2892131":{"post_code":"2892131","prefecture":"CHIBA KEN","city":"SOSA SHI","town":"MIDORIDAIRA","perfecture_jp":"千葉県","jp_add_1":"匝瑳市","jp_add_2":"みどり平"},"2892163":{"post_code":"2892163","prefecture":"CHIBA KEN","city":"SOSA SHI","town":"MINAMIKANZAKI","perfecture_jp":"千葉県","jp_add_1":"匝瑳市","jp_add_2":"南神崎"},"2892162":{"post_code":"2892162","prefecture":"CHIBA KEN","city":"SOSA SHI","town":"MINAMIYAMAZAKI","perfecture_jp":"千葉県","jp_add_1":"匝瑳市","jp_add_2":"南山崎"},"2892103":{"post_code":"2892103","prefecture":"CHIBA KEN","city":"SOSA SHI","town":"MIYAMOTO","perfecture_jp":"千葉県","jp_add_1":"匝瑳市","jp_add_2":"宮本"},"2892155":{"post_code":"2892155","prefecture":"CHIBA KEN","city":"SOSA SHI","town":"YAPPE","perfecture_jp":"千葉県","jp_add_1":"匝瑳市","jp_add_2":"八辺"},"2892105":{"post_code":"2892105","prefecture":"CHIBA KEN","city":"SOSA SHI","town":"YAMAKUWA","perfecture_jp":"千葉県","jp_add_1":"匝瑳市","jp_add_2":"山桑"},"2892144":{"post_code":"2892144","prefecture":"CHIBA KEN","city":"SOSA SHI","town":"YOKAICHIBA I","perfecture_jp":"千葉県","jp_add_1":"匝瑳市","jp_add_2":"八日市場イ"},"2892142":{"post_code":"2892142","prefecture":"CHIBA KEN","city":"SOSA SHI","town":"YOKAICHIBA NI","perfecture_jp":"千葉県","jp_add_1":"匝瑳市","jp_add_2":"八日市場ニ"},"2892141":{"post_code":"2892141","prefecture":"CHIBA KEN","city":"SOSA SHI","town":"YOKAICHIBA HA","perfecture_jp":"千葉県","jp_add_1":"匝瑳市","jp_add_2":"八日市場ハ"},"2892146":{"post_code":"2892146","prefecture":"CHIBA KEN","city":"SOSA SHI","town":"YOKAICHIBA HO","perfecture_jp":"千葉県","jp_add_1":"匝瑳市","jp_add_2":"八日市場ホ"},"2892143":{"post_code":"2892143","prefecture":"CHIBA KEN","city":"SOSA SHI","town":"YOKAICHIBA RO","perfecture_jp":"千葉県","jp_add_1":"匝瑳市","jp_add_2":"八日市場ロ"},"2892134":{"post_code":"2892134","prefecture":"CHIBA KEN","city":"SOSA SHI","town":"YOKOSUKA","perfecture_jp":"千葉県","jp_add_1":"匝瑳市","jp_add_2":"横須賀"},"2892122":{"post_code":"2892122","prefecture":"CHIBA KEN","city":"SOSA SHI","town":"YOSHIZAKI","perfecture_jp":"千葉県","jp_add_1":"匝瑳市","jp_add_2":"吉崎"},"2892169":{"post_code":"2892169","prefecture":"CHIBA KEN","city":"SOSA SHI","town":"YOSHIDA","perfecture_jp":"千葉県","jp_add_1":"匝瑳市","jp_add_2":"吉田"},"2892107":{"post_code":"2892107","prefecture":"CHIBA KEN","city":"SOSA SHI","town":"YONEMOCHI","perfecture_jp":"千葉県","jp_add_1":"匝瑳市","jp_add_2":"米持"},"2892145":{"post_code":"2892145","prefecture":"CHIBA KEN","city":"SOSA SHI","town":"WAKASHIOCHO","perfecture_jp":"千葉県","jp_add_1":"匝瑳市","jp_add_2":"若潮町"},"2890321":{"post_code":"2890321","prefecture":"CHIBA KEN","city":"KATORI SHI","town":"ATAMAGAWA","perfecture_jp":"千葉県","jp_add_1":"香取市","jp_add_2":"阿玉川"},"2890326":{"post_code":"2890326","prefecture":"CHIBA KEN","city":"KATORI SHI","town":"ATAMADAI","perfecture_jp":"千葉県","jp_add_1":"香取市","jp_add_2":"阿玉台"},"2890346":{"post_code":"2890346","prefecture":"CHIBA KEN","city":"KATORI SHI","town":"ABURATA","perfecture_jp":"千葉県","jp_add_1":"香取市","jp_add_2":"油田"},"2890324":{"post_code":"2890324","prefecture":"CHIBA KEN","city":"KATORI SHI","town":"IZUMI","perfecture_jp":"千葉県","jp_add_1":"香取市","jp_add_2":"和泉"},"2890301":{"post_code":"2890301","prefecture":"CHIBA KEN","city":"KATORI SHI","town":"ICHINOWAKEME","perfecture_jp":"千葉県","jp_add_1":"香取市","jp_add_2":"一ノ分目"},"2890333":{"post_code":"2890333","prefecture":"CHIBA KEN","city":"KATORI SHI","town":"IRIAICHI","perfecture_jp":"千葉県","jp_add_1":"香取市","jp_add_2":"入会地"},"2890349":{"post_code":"2890349","prefecture":"CHIBA KEN","city":"KATORI SHI","town":"UCHINO","perfecture_jp":"千葉県","jp_add_1":"香取市","jp_add_2":"内野"},"2890425":{"post_code":"2890425","prefecture":"CHIBA KEN","city":"KATORI SHI","town":"OTOGARI","perfecture_jp":"千葉県","jp_add_1":"香取市","jp_add_2":"大角"},"2890323":{"post_code":"2890323","prefecture":"CHIBA KEN","city":"KATORI SHI","town":"OKAIIDA","perfecture_jp":"千葉県","jp_add_1":"香取市","jp_add_2":"岡飯田"},"2890423":{"post_code":"2890423","prefecture":"CHIBA KEN","city":"KATORI SHI","town":"OGAWA","perfecture_jp":"千葉県","jp_add_1":"香取市","jp_add_2":"小川"},"2890402":{"post_code":"2890402","prefecture":"CHIBA KEN","city":"KATORI SHI","town":"OMI","perfecture_jp":"千葉県","jp_add_1":"香取市","jp_add_2":"小見"},"2890313":{"post_code":"2890313","prefecture":"CHIBA KEN","city":"KATORI SHI","town":"OMIGAWA","perfecture_jp":"千葉県","jp_add_1":"香取市","jp_add_2":"小見川"},"2890348":{"post_code":"2890348","prefecture":"CHIBA KEN","city":"KATORI SHI","town":"ORIHATA","perfecture_jp":"千葉県","jp_add_1":"香取市","jp_add_2":"織幡"},"2890325":{"post_code":"2890325","prefecture":"CHIBA KEN","city":"KATORI SHI","town":"KAIZUKA","perfecture_jp":"千葉県","jp_add_1":"香取市","jp_add_2":"貝塚"},"2890306":{"post_code":"2890306","prefecture":"CHIBA KEN","city":"KATORI SHI","town":"KAMIKOBORI","perfecture_jp":"千葉県","jp_add_1":"香取市","jp_add_2":"上小堀"},"2890334":{"post_code":"2890334","prefecture":"CHIBA KEN","city":"KATORI SHI","town":"KAWAGASHIRA","perfecture_jp":"千葉県","jp_add_1":"香取市","jp_add_2":"川頭"},"2890403":{"post_code":"2890403","prefecture":"CHIBA KEN","city":"KATORI SHI","town":"KAWAKAMI","perfecture_jp":"千葉県","jp_add_1":"香取市","jp_add_2":"川上"},"2890408":{"post_code":"2890408","prefecture":"CHIBA KEN","city":"KATORI SHI","town":"KANNO","perfecture_jp":"千葉県","jp_add_1":"香取市","jp_add_2":"神生"},"2890335":{"post_code":"2890335","prefecture":"CHIBA KEN","city":"KATORI SHI","town":"KITAHARACHISHINDEN","perfecture_jp":"千葉県","jp_add_1":"香取市","jp_add_2":"北原地新田"},"2890337":{"post_code":"2890337","prefecture":"CHIBA KEN","city":"KATORI SHI","town":"KINOCHI","perfecture_jp":"千葉県","jp_add_1":"香取市","jp_add_2":"木内"},"2890308":{"post_code":"2890308","prefecture":"CHIBA KEN","city":"KATORI SHI","town":"KINOCHIMUSHIHATAKAMIKOBORIIRIAICHIO","perfecture_jp":"千葉県","jp_add_1":"香取市","jp_add_2":"木内虫幡上小堀入会地大平"},"2890422":{"post_code":"2890422","prefecture":"CHIBA KEN","city":"KATORI SHI","town":"KIRIZAKU","perfecture_jp":"千葉県","jp_add_1":"香取市","jp_add_2":"桐谷"},"2890327":{"post_code":"2890327","prefecture":"CHIBA KEN","city":"KATORI SHI","town":"KUBO","perfecture_jp":"千葉県","jp_add_1":"香取市","jp_add_2":"久保"},"2890404":{"post_code":"2890404","prefecture":"CHIBA KEN","city":"KATORI SHI","town":"KOYA","perfecture_jp":"千葉県","jp_add_1":"香取市","jp_add_2":"高野"},"2890328":{"post_code":"2890328","prefecture":"CHIBA KEN","city":"KATORI SHI","town":"GOGOCHI","perfecture_jp":"千葉県","jp_add_1":"香取市","jp_add_2":"五郷内"},"2890401":{"post_code":"2890401","prefecture":"CHIBA KEN","city":"KATORI SHI","town":"KOMENOI","perfecture_jp":"千葉県","jp_add_1":"香取市","jp_add_2":"米野井"},"2890302":{"post_code":"2890302","prefecture":"CHIBA KEN","city":"KATORI SHI","town":"SANNOWAKEME","perfecture_jp":"千葉県","jp_add_1":"香取市","jp_add_2":"三ノ分目"},"2890413":{"post_code":"2890413","prefecture":"CHIBA KEN","city":"KATORI SHI","town":"SHIDAKA","perfecture_jp":"千葉県","jp_add_1":"香取市","jp_add_2":"志高"},"2890322":{"post_code":"2890322","prefecture":"CHIBA KEN","city":"KATORI SHI","town":"SHIMOIIDA","perfecture_jp":"千葉県","jp_add_1":"香取市","jp_add_2":"下飯田"},"2890338":{"post_code":"2890338","prefecture":"CHIBA KEN","city":"KATORI SHI","town":"SHIMOGAWA","perfecture_jp":"千葉県","jp_add_1":"香取市","jp_add_2":"下小川"},"2890304":{"post_code":"2890304","prefecture":"CHIBA KEN","city":"KATORI SHI","town":"SHIMOKOBORI","perfecture_jp":"千葉県","jp_add_1":"香取市","jp_add_2":"下小堀"},"2890344":{"post_code":"2890344","prefecture":"CHIBA KEN","city":"KATORI SHI","town":"SHIRAI","perfecture_jp":"千葉県","jp_add_1":"香取市","jp_add_2":"白井"},"2890336":{"post_code":"2890336","prefecture":"CHIBA KEN","city":"KATORI SHI","town":"SHINSHINDEN","perfecture_jp":"千葉県","jp_add_1":"香取市","jp_add_2":"新々田"},"2890405":{"post_code":"2890405","prefecture":"CHIBA KEN","city":"KATORI SHI","town":"TAKENOCHI","perfecture_jp":"千葉県","jp_add_1":"香取市","jp_add_2":"竹之内"},"2890406":{"post_code":"2890406","prefecture":"CHIBA KEN","city":"KATORI SHI","town":"TABE","perfecture_jp":"千葉県","jp_add_1":"香取市","jp_add_2":"田部"},"2890303":{"post_code":"2890303","prefecture":"CHIBA KEN","city":"KATORI SHI","town":"TOMITA","perfecture_jp":"千葉県","jp_add_1":"香取市","jp_add_2":"富田"},"2890414":{"post_code":"2890414","prefecture":"CHIBA KEN","city":"KATORI SHI","town":"NAGAOKA","perfecture_jp":"千葉県","jp_add_1":"香取市","jp_add_2":"長岡"},"2890424":{"post_code":"2890424","prefecture":"CHIBA KEN","city":"KATORI SHI","town":"NISSATO","perfecture_jp":"千葉県","jp_add_1":"香取市","jp_add_2":"新里"},"2890407":{"post_code":"2890407","prefecture":"CHIBA KEN","city":"KATORI SHI","town":"NIRA","perfecture_jp":"千葉県","jp_add_1":"香取市","jp_add_2":"仁良"},"2890314":{"post_code":"2890314","prefecture":"CHIBA KEN","city":"KATORI SHI","town":"NODA","perfecture_jp":"千葉県","jp_add_1":"香取市","jp_add_2":"野田"},"2890347":{"post_code":"2890347","prefecture":"CHIBA KEN","city":"KATORI SHI","town":"HATAHOKO","perfecture_jp":"千葉県","jp_add_1":"香取市","jp_add_2":"旗鉾"},"2890345":{"post_code":"2890345","prefecture":"CHIBA KEN","city":"KATORI SHI","town":"HACHIHON","perfecture_jp":"千葉県","jp_add_1":"香取市","jp_add_2":"八本"},"2890421":{"post_code":"2890421","prefecture":"CHIBA KEN","city":"KATORI SHI","town":"HATOYAMA","perfecture_jp":"千葉県","jp_add_1":"香取市","jp_add_2":"鳩山"},"2890331":{"post_code":"2890331","prefecture":"CHIBA KEN","city":"KATORI SHI","town":"HANEGAWA","perfecture_jp":"千葉県","jp_add_1":"香取市","jp_add_2":"羽根川"},"2890329":{"post_code":"2890329","prefecture":"CHIBA KEN","city":"KATORI SHI","town":"FUNO","perfecture_jp":"千葉県","jp_add_1":"香取市","jp_add_2":"布野"},"2890411":{"post_code":"2890411","prefecture":"CHIBA KEN","city":"KATORI SHI","town":"FUMA","perfecture_jp":"千葉県","jp_add_1":"香取市","jp_add_2":"府馬"},"2890412":{"post_code":"2890412","prefecture":"CHIBA KEN","city":"KATORI SHI","town":"FURUCHI","perfecture_jp":"千葉県","jp_add_1":"香取市","jp_add_2":"古内"},"2890312":{"post_code":"2890312","prefecture":"CHIBA KEN","city":"KATORI SHI","town":"HONGO","perfecture_jp":"千葉県","jp_add_1":"香取市","jp_add_2":"本郷"},"2890307":{"post_code":"2890307","prefecture":"CHIBA KEN","city":"KATORI SHI","town":"MASHITA","perfecture_jp":"千葉県","jp_add_1":"香取市","jp_add_2":"増田"},"2890332":{"post_code":"2890332","prefecture":"CHIBA KEN","city":"KATORI SHI","town":"MINAMIHARACHISHINDEN","perfecture_jp":"千葉県","jp_add_1":"香取市","jp_add_2":"南原地新田"},"2890341":{"post_code":"2890341","prefecture":"CHIBA KEN","city":"KATORI SHI","town":"MUSHIHATA","perfecture_jp":"千葉県","jp_add_1":"香取市","jp_add_2":"虫幡"},"2890343":{"post_code":"2890343","prefecture":"CHIBA KEN","city":"KATORI SHI","town":"YAMAGAWA","perfecture_jp":"千葉県","jp_add_1":"香取市","jp_add_2":"山川"},"2890426":{"post_code":"2890426","prefecture":"CHIBA KEN","city":"KATORI SHI","town":"YAMAKURA","perfecture_jp":"千葉県","jp_add_1":"香取市","jp_add_2":"山倉"},"2890311":{"post_code":"2890311","prefecture":"CHIBA KEN","city":"KATORI SHI","town":"YOKAICHIBA","perfecture_jp":"千葉県","jp_add_1":"香取市","jp_add_2":"八日市場"},"2890342":{"post_code":"2890342","prefecture":"CHIBA KEN","city":"KATORI SHI","town":"RYUZAKU","perfecture_jp":"千葉県","jp_add_1":"香取市","jp_add_2":"竜谷"},"2890305":{"post_code":"2890305","prefecture":"CHIBA KEN","city":"KATORI SHI","town":"WAKAREGO","perfecture_jp":"千葉県","jp_add_1":"香取市","jp_add_2":"分郷"},"2891300":{"post_code":"2891300","prefecture":"CHIBA KEN","city":"SAMMU SHI","town":"IKANIKEISAIGANAIBAAI","perfecture_jp":"千葉県","jp_add_1":"山武市","jp_add_2":""},"2891203":{"post_code":"2891203","prefecture":"CHIBA KEN","city":"SAMMU SHI","town":"ASOSHINDEN","perfecture_jp":"千葉県","jp_add_1":"山武市","jp_add_2":"麻生新田"},"2891213":{"post_code":"2891213","prefecture":"CHIBA KEN","city":"SAMMU SHI","town":"AMETSUBO","perfecture_jp":"千葉県","jp_add_1":"山武市","jp_add_2":"雨坪"},"2891201":{"post_code":"2891201","prefecture":"CHIBA KEN","city":"SAMMU SHI","town":"ITAGAWA","perfecture_jp":"千葉県","jp_add_1":"山武市","jp_add_2":"板川"},"2891335":{"post_code":"2891335","prefecture":"CHIBA KEN","city":"SAMMU SHI","town":"ITATSUKI","perfecture_jp":"千葉県","jp_add_1":"山武市","jp_add_2":"板附"},"2891222":{"post_code":"2891222","prefecture":"CHIBA KEN","city":"SAMMU SHI","town":"ITANAKASHINDEN","perfecture_jp":"千葉県","jp_add_1":"山武市","jp_add_2":"板中新田"},"2891333":{"post_code":"2891333","prefecture":"CHIBA KEN","city":"SAMMU SHI","town":"ICHIBA","perfecture_jp":"千葉県","jp_add_1":"山武市","jp_add_2":"市場"},"2891304":{"post_code":"2891304","prefecture":"CHIBA KEN","city":"SAMMU SHI","town":"INOCHI","perfecture_jp":"千葉県","jp_add_1":"山武市","jp_add_2":"井之内"},"2891216":{"post_code":"2891216","prefecture":"CHIBA KEN","city":"SAMMU SHI","town":"UEKUSA","perfecture_jp":"千葉県","jp_add_1":"山武市","jp_add_2":"植草"},"2891211":{"post_code":"2891211","prefecture":"CHIBA KEN","city":"SAMMU SHI","town":"OGI","perfecture_jp":"千葉県","jp_add_1":"山武市","jp_add_2":"大木"},"2891225":{"post_code":"2891225","prefecture":"CHIBA KEN","city":"SAMMU SHI","town":"OKIWATASHI","perfecture_jp":"千葉県","jp_add_1":"山武市","jp_add_2":"沖渡"},"2891332":{"post_code":"2891332","prefecture":"CHIBA KEN","city":"SAMMU SHI","town":"OYADA","perfecture_jp":"千葉県","jp_add_1":"山武市","jp_add_2":"親田"},"2891313":{"post_code":"2891313","prefecture":"CHIBA KEN","city":"SAMMU SHI","town":"KAMIYOKOJI","perfecture_jp":"千葉県","jp_add_1":"山武市","jp_add_2":"上横地"},"2891331":{"post_code":"2891331","prefecture":"CHIBA KEN","city":"SAMMU SHI","town":"KAWASAKI","perfecture_jp":"千葉県","jp_add_1":"山武市","jp_add_2":"川崎"},"2891301":{"post_code":"2891301","prefecture":"CHIBA KEN","city":"SAMMU SHI","town":"KIDO","perfecture_jp":"千葉県","jp_add_1":"山武市","jp_add_2":"木戸"},"2891212":{"post_code":"2891212","prefecture":"CHIBA KEN","city":"SAMMU SHI","town":"KIBARA","perfecture_jp":"千葉県","jp_add_1":"山武市","jp_add_2":"木原"},"2891315":{"post_code":"2891315","prefecture":"CHIBA KEN","city":"SAMMU SHI","town":"KUSABUKA","perfecture_jp":"千葉県","jp_add_1":"山武市","jp_add_2":"草深"},"2891317":{"post_code":"2891317","prefecture":"CHIBA KEN","city":"SAMMU SHI","town":"KOIZUMI","perfecture_jp":"千葉県","jp_add_1":"山武市","jp_add_2":"小泉"},"2891316":{"post_code":"2891316","prefecture":"CHIBA KEN","city":"SAMMU SHI","town":"GOKITA","perfecture_jp":"千葉県","jp_add_1":"山武市","jp_add_2":"五木田"},"2891302":{"post_code":"2891302","prefecture":"CHIBA KEN","city":"SAMMU SHI","town":"KOMATSU","perfecture_jp":"千葉県","jp_add_1":"山武市","jp_add_2":"小松"},"2891221":{"post_code":"2891221","prefecture":"CHIBA KEN","city":"SAMMU SHI","town":"SANEKADO","perfecture_jp":"千葉県","jp_add_1":"山武市","jp_add_2":"実門"},"2891205":{"post_code":"2891205","prefecture":"CHIBA KEN","city":"SAMMU SHI","town":"SHIIZAKI","perfecture_jp":"千葉県","jp_add_1":"山武市","jp_add_2":"椎崎"},"2891312":{"post_code":"2891312","prefecture":"CHIBA KEN","city":"SAMMU SHI","town":"SHIBAHARA","perfecture_jp":"千葉県","jp_add_1":"山武市","jp_add_2":"柴原"},"2891325":{"post_code":"2891325","prefecture":"CHIBA KEN","city":"SAMMU SHI","town":"SHIMA","perfecture_jp":"千葉県","jp_add_1":"山武市","jp_add_2":"島"},"2891342":{"post_code":"2891342","prefecture":"CHIBA KEN","city":"SAMMU SHI","town":"SHIMADO","perfecture_jp":"千葉県","jp_add_1":"山武市","jp_add_2":"嶋戸"},"2891217":{"post_code":"2891217","prefecture":"CHIBA KEN","city":"SAMMU SHI","town":"SHIMOFUDA","perfecture_jp":"千葉県","jp_add_1":"山武市","jp_add_2":"下布田"},"2891314":{"post_code":"2891314","prefecture":"CHIBA KEN","city":"SAMMU SHI","town":"SHIMOYOKOJI","perfecture_jp":"千葉県","jp_add_1":"山武市","jp_add_2":"下横地"},"2891306":{"post_code":"2891306","prefecture":"CHIBA KEN","city":"SAMMU SHI","town":"SHIRAHATA","perfecture_jp":"千葉県","jp_add_1":"山武市","jp_add_2":"白幡"},"2891343":{"post_code":"2891343","prefecture":"CHIBA KEN","city":"SAMMU SHI","town":"SHINGYOJI","perfecture_jp":"千葉県","jp_add_1":"山武市","jp_add_2":"真行寺"},"2891345":{"post_code":"2891345","prefecture":"CHIBA KEN","city":"SAMMU SHI","town":"TSUBE","perfecture_jp":"千葉県","jp_add_1":"山武市","jp_add_2":"津辺"},"2891318":{"post_code":"2891318","prefecture":"CHIBA KEN","city":"SAMMU SHI","town":"TERAZAKI","perfecture_jp":"千葉県","jp_add_1":"山武市","jp_add_2":"寺崎"},"2891204":{"post_code":"2891204","prefecture":"CHIBA KEN","city":"SAMMU SHI","town":"TODA","perfecture_jp":"千葉県","jp_add_1":"山武市","jp_add_2":"戸田"},"2891324":{"post_code":"2891324","prefecture":"CHIBA KEN","city":"SAMMU SHI","town":"TONODAI","perfecture_jp":"千葉県","jp_add_1":"山武市","jp_add_2":"殿台"},"2891323":{"post_code":"2891323","prefecture":"CHIBA KEN","city":"SAMMU SHI","town":"TOMIGUCHI","perfecture_jp":"千葉県","jp_add_1":"山武市","jp_add_2":"富口"},"2891321":{"post_code":"2891321","prefecture":"CHIBA KEN","city":"SAMMU SHI","town":"TOMIDA","perfecture_jp":"千葉県","jp_add_1":"山武市","jp_add_2":"富田"},"2891322":{"post_code":"2891322","prefecture":"CHIBA KEN","city":"SAMMU SHI","town":"TOMIDAGOYA","perfecture_jp":"千葉県","jp_add_1":"山武市","jp_add_2":"富田幸谷"},"2891202":{"post_code":"2891202","prefecture":"CHIBA KEN","city":"SAMMU SHI","town":"NAKATSUTA","perfecture_jp":"千葉県","jp_add_1":"山武市","jp_add_2":"中津田"},"2891326":{"post_code":"2891326","prefecture":"CHIBA KEN","city":"SAMMU SHI","town":"NARUTO","perfecture_jp":"千葉県","jp_add_1":"山武市","jp_add_2":"成東"},"2891344":{"post_code":"2891344","prefecture":"CHIBA KEN","city":"SAMMU SHI","town":"NIINOMI","perfecture_jp":"千葉県","jp_add_1":"山武市","jp_add_2":"新泉"},"2891341":{"post_code":"2891341","prefecture":"CHIBA KEN","city":"SAMMU SHI","town":"NOBORI","perfecture_jp":"千葉県","jp_add_1":"山武市","jp_add_2":"野堀"},"2891801":{"post_code":"2891801","prefecture":"CHIBA KEN","city":"SAMMU SHI","town":"HASUNUMA I","perfecture_jp":"千葉県","jp_add_1":"山武市","jp_add_2":"蓮沼イ"},"2891805":{"post_code":"2891805","prefecture":"CHIBA KEN","city":"SAMMU SHI","town":"HASUNUMA NI","perfecture_jp":"千葉県","jp_add_1":"山武市","jp_add_2":"蓮沼ニ"},"2891806":{"post_code":"2891806","prefecture":"CHIBA KEN","city":"SAMMU SHI","town":"HASUNUMA HA","perfecture_jp":"千葉県","jp_add_1":"山武市","jp_add_2":"蓮沼ハ"},"2891804":{"post_code":"2891804","prefecture":"CHIBA KEN","city":"SAMMU SHI","town":"HASUNUMA HIRA","perfecture_jp":"千葉県","jp_add_1":"山武市","jp_add_2":"蓮沼平"},"2891803":{"post_code":"2891803","prefecture":"CHIBA KEN","city":"SAMMU SHI","town":"HASUNUMA HO","perfecture_jp":"千葉県","jp_add_1":"山武市","jp_add_2":"蓮沼ホ"},"2891802":{"post_code":"2891802","prefecture":"CHIBA KEN","city":"SAMMU SHI","town":"HASUNUMA RO","perfecture_jp":"千葉県","jp_add_1":"山武市","jp_add_2":"蓮沼ロ"},"2891223":{"post_code":"2891223","prefecture":"CHIBA KEN","city":"SAMMU SHI","town":"HANIYA","perfecture_jp":"千葉県","jp_add_1":"山武市","jp_add_2":"埴谷"},"2891311":{"post_code":"2891311","prefecture":"CHIBA KEN","city":"SAMMU SHI","town":"HAYAFUNE","perfecture_jp":"千葉県","jp_add_1":"山武市","jp_add_2":"早船"},"2891327":{"post_code":"2891327","prefecture":"CHIBA KEN","city":"SAMMU SHI","town":"HIMESHIMA","perfecture_jp":"千葉県","jp_add_1":"山武市","jp_add_2":"姫島"},"2891206":{"post_code":"2891206","prefecture":"CHIBA KEN","city":"SAMMU SHI","town":"HYUGADAI","perfecture_jp":"千葉県","jp_add_1":"山武市","jp_add_2":"日向台"},"2891524":{"post_code":"2891524","prefecture":"CHIBA KEN","city":"SAMMU SHI","town":"MATSUOMACHI IWAITA","perfecture_jp":"千葉県","jp_add_1":"山武市","jp_add_2":"松尾町祝田"},"2891527":{"post_code":"2891527","prefecture":"CHIBA KEN","city":"SAMMU SHI","town":"MATSUOMACHI OTSUTSUMI","perfecture_jp":"千葉県","jp_add_1":"山武市","jp_add_2":"松尾町大堤"},"2891507":{"post_code":"2891507","prefecture":"CHIBA KEN","city":"SAMMU SHI","town":"MATSUOMACHI OGAWA","perfecture_jp":"千葉県","jp_add_1":"山武市","jp_add_2":"松尾町小川"},"2891535":{"post_code":"2891535","prefecture":"CHIBA KEN","city":"SAMMU SHI","town":"MATSUOMACHI ORITO","perfecture_jp":"千葉県","jp_add_1":"山武市","jp_add_2":"松尾町折戸"},"2891537":{"post_code":"2891537","prefecture":"CHIBA KEN","city":"SAMMU SHI","town":"MATSUOMACHI KASHIKEHONGO","perfecture_jp":"千葉県","jp_add_1":"山武市","jp_add_2":"松尾町借毛本郷"},"2891511":{"post_code":"2891511","prefecture":"CHIBA KEN","city":"SAMMU SHI","town":"MATSUOMACHI KABURAKI","perfecture_jp":"千葉県","jp_add_1":"山武市","jp_add_2":"松尾町蕪木"},"2891506":{"post_code":"2891506","prefecture":"CHIBA KEN","city":"SAMMU SHI","town":"MATSUOMACHI KAMIOKURA","perfecture_jp":"千葉県","jp_add_1":"山武市","jp_add_2":"松尾町上大蔵"},"2891505":{"post_code":"2891505","prefecture":"CHIBA KEN","city":"SAMMU SHI","town":"MATSUOMACHI KANNO","perfecture_jp":"千葉県","jp_add_1":"山武市","jp_add_2":"松尾町金尾"},"2891531":{"post_code":"2891531","prefecture":"CHIBA KEN","city":"SAMMU SHI","town":"MATSUOMACHI KIGATANA","perfecture_jp":"千葉県","jp_add_1":"山武市","jp_add_2":"松尾町木刀"},"2891523":{"post_code":"2891523","prefecture":"CHIBA KEN","city":"SAMMU SHI","town":"MATSUOMACHI GOTANDA","perfecture_jp":"千葉県","jp_add_1":"山武市","jp_add_2":"松尾町五反田"},"2891504":{"post_code":"2891504","prefecture":"CHIBA KEN","city":"SAMMU SHI","town":"MATSUOMACHI KOWA","perfecture_jp":"千葉県","jp_add_1":"山武市","jp_add_2":"松尾町古和"},"2891513":{"post_code":"2891513","prefecture":"CHIBA KEN","city":"SAMMU SHI","town":"MATSUOMACHI SARUO","perfecture_jp":"千葉県","jp_add_1":"山武市","jp_add_2":"松尾町猿尾"},"2891517":{"post_code":"2891517","prefecture":"CHIBA KEN","city":"SAMMU SHI","town":"MATSUOMACHI SHIMOOKURA","perfecture_jp":"千葉県","jp_add_1":"山武市","jp_add_2":"松尾町下大蔵"},"2891534":{"post_code":"2891534","prefecture":"CHIBA KEN","city":"SAMMU SHI","town":"MATSUOMACHI SHIMONO","perfecture_jp":"千葉県","jp_add_1":"山武市","jp_add_2":"松尾町下野"},"2891536":{"post_code":"2891536","prefecture":"CHIBA KEN","city":"SAMMU SHI","town":"MATSUOMACHI SHIMONOGO","perfecture_jp":"千葉県","jp_add_1":"山武市","jp_add_2":"松尾町下之郷"},"2891522":{"post_code":"2891522","prefecture":"CHIBA KEN","city":"SAMMU SHI","town":"MATSUOMACHI TAKATOMI","perfecture_jp":"千葉県","jp_add_1":"山武市","jp_add_2":"松尾町高富"},"2891532":{"post_code":"2891532","prefecture":"CHIBA KEN","city":"SAMMU SHI","town":"MATSUOMACHI TAKENOSATO","perfecture_jp":"千葉県","jp_add_1":"山武市","jp_add_2":"松尾町武野里"},"2891516":{"post_code":"2891516","prefecture":"CHIBA KEN","city":"SAMMU SHI","town":"MATSUOMACHI TAKOE","perfecture_jp":"千葉県","jp_add_1":"山武市","jp_add_2":"松尾町田越"},"2891512":{"post_code":"2891512","prefecture":"CHIBA KEN","city":"SAMMU SHI","town":"MATSUOMACHI HATTA","perfecture_jp":"千葉県","jp_add_1":"山武市","jp_add_2":"松尾町八田"},"2891502":{"post_code":"2891502","prefecture":"CHIBA KEN","city":"SAMMU SHI","town":"MATSUOMACHI HIKKOSHI","perfecture_jp":"千葉県","jp_add_1":"山武市","jp_add_2":"松尾町引越"},"2891533":{"post_code":"2891533","prefecture":"CHIBA KEN","city":"SAMMU SHI","town":"MATSUOMACHI HIRONE","perfecture_jp":"千葉県","jp_add_1":"山武市","jp_add_2":"松尾町広根"},"2891515":{"post_code":"2891515","prefecture":"CHIBA KEN","city":"SAMMU SHI","town":"MATSUOMACHI FUJIMIDAI","perfecture_jp":"千葉県","jp_add_1":"山武市","jp_add_2":"松尾町富士見台"},"2891514":{"post_code":"2891514","prefecture":"CHIBA KEN","city":"SAMMU SHI","town":"MATSUOMACHI MATSUO","perfecture_jp":"千葉県","jp_add_1":"山武市","jp_add_2":"松尾町松尾"},"2891526":{"post_code":"2891526","prefecture":"CHIBA KEN","city":"SAMMU SHI","town":"MATSUOMACHI MIZUFUKA","perfecture_jp":"千葉県","jp_add_1":"山武市","jp_add_2":"松尾町水深"},"2891521":{"post_code":"2891521","prefecture":"CHIBA KEN","city":"SAMMU SHI","town":"MATSUOMACHI MOTOGASHIWA","perfecture_jp":"千葉県","jp_add_1":"山武市","jp_add_2":"松尾町本柏"},"2891525":{"post_code":"2891525","prefecture":"CHIBA KEN","city":"SAMMU SHI","town":"MATSUOMACHI MOTOMIZUFUKA","perfecture_jp":"千葉県","jp_add_1":"山武市","jp_add_2":"松尾町本水深"},"2891503":{"post_code":"2891503","prefecture":"CHIBA KEN","city":"SAMMU SHI","town":"MATSUOMACHI YATSU","perfecture_jp":"千葉県","jp_add_1":"山武市","jp_add_2":"松尾町谷津"},"2891501":{"post_code":"2891501","prefecture":"CHIBA KEN","city":"SAMMU SHI","town":"MATSUOMACHI YAMAMURO","perfecture_jp":"千葉県","jp_add_1":"山武市","jp_add_2":"松尾町山室"},"2891303":{"post_code":"2891303","prefecture":"CHIBA KEN","city":"SAMMU SHI","town":"MATSUGAYA","perfecture_jp":"千葉県","jp_add_1":"山武市","jp_add_2":"松ヶ谷"},"2891224":{"post_code":"2891224","prefecture":"CHIBA KEN","city":"SAMMU SHI","town":"MISUGINO","perfecture_jp":"千葉県","jp_add_1":"山武市","jp_add_2":"美杉野"},"2891218":{"post_code":"2891218","prefecture":"CHIBA KEN","city":"SAMMU SHI","town":"MUSHO","perfecture_jp":"千葉県","jp_add_1":"山武市","jp_add_2":"武勝"},"2891305":{"post_code":"2891305","prefecture":"CHIBA KEN","city":"SAMMU SHI","town":"MOTOSUKA","perfecture_jp":"千葉県","jp_add_1":"山武市","jp_add_2":"本須賀"},"2891214":{"post_code":"2891214","prefecture":"CHIBA KEN","city":"SAMMU SHI","town":"MORI","perfecture_jp":"千葉県","jp_add_1":"山武市","jp_add_2":"森"},"2891215":{"post_code":"2891215","prefecture":"CHIBA KEN","city":"SAMMU SHI","town":"YABE","perfecture_jp":"千葉県","jp_add_1":"山武市","jp_add_2":"矢部"},"2891328":{"post_code":"2891328","prefecture":"CHIBA KEN","city":"SAMMU SHI","town":"YUSAKA","perfecture_jp":"千葉県","jp_add_1":"山武市","jp_add_2":"湯坂"},"2891226":{"post_code":"2891226","prefecture":"CHIBA KEN","city":"SAMMU SHI","town":"YOKOTA","perfecture_jp":"千葉県","jp_add_1":"山武市","jp_add_2":"横田"},"2891334":{"post_code":"2891334","prefecture":"CHIBA KEN","city":"SAMMU SHI","town":"WADA","perfecture_jp":"千葉県","jp_add_1":"山武市","jp_add_2":"和田"},"2890100":{"post_code":"2890100","prefecture":"CHIBA KEN","city":"KATORI GUN KOZAKI MACHI","town":"IKANIKEISAIGANAIBAAI","perfecture_jp":"千葉県","jp_add_1":"香取郡神崎町","jp_add_2":""},"2890205":{"post_code":"2890205","prefecture":"CHIBA KEN","city":"KATORI GUN KOZAKI MACHI","town":"IMA","perfecture_jp":"千葉県","jp_add_1":"香取郡神崎町","jp_add_2":"今"},"2890216":{"post_code":"2890216","prefecture":"CHIBA KEN","city":"KATORI GUN KOZAKI MACHI","town":"UEBO","perfecture_jp":"千葉県","jp_add_1":"香取郡神崎町","jp_add_2":"植房"},"2890203":{"post_code":"2890203","prefecture":"CHIBA KEN","city":"KATORI GUN KOZAKI MACHI","town":"ONUKI","perfecture_jp":"千葉県","jp_add_1":"香取郡神崎町","jp_add_2":"大貫"},"2890214":{"post_code":"2890214","prefecture":"CHIBA KEN","city":"KATORI GUN KOZAKI MACHI","town":"KENARI","perfecture_jp":"千葉県","jp_add_1":"香取郡神崎町","jp_add_2":"毛成"},"2890226":{"post_code":"2890226","prefecture":"CHIBA KEN","city":"KATORI GUN KOZAKI MACHI","town":"KOZAKISHINSHUKU","perfecture_jp":"千葉県","jp_add_1":"香取郡神崎町","jp_add_2":"神崎神宿"},"2890221":{"post_code":"2890221","prefecture":"CHIBA KEN","city":"KATORI GUN KOZAKI MACHI","town":"KOZAKIHONSHUKU","perfecture_jp":"千葉県","jp_add_1":"香取郡神崎町","jp_add_2":"神崎本宿"},"2890201":{"post_code":"2890201","prefecture":"CHIBA KEN","city":"KATORI GUN KOZAKI MACHI","town":"KOYA","perfecture_jp":"千葉県","jp_add_1":"香取郡神崎町","jp_add_2":"高谷"},"2890202":{"post_code":"2890202","prefecture":"CHIBA KEN","city":"KATORI GUN KOZAKI MACHI","town":"KORI","perfecture_jp":"千葉県","jp_add_1":"香取郡神崎町","jp_add_2":"郡"},"2890215":{"post_code":"2890215","prefecture":"CHIBA KEN","city":"KATORI GUN KOZAKI MACHI","town":"KOHARA","perfecture_jp":"千葉県","jp_add_1":"香取郡神崎町","jp_add_2":"古原"},"2890223":{"post_code":"2890223","prefecture":"CHIBA KEN","city":"KATORI GUN KOZAKI MACHI","town":"KOMATSU","perfecture_jp":"千葉県","jp_add_1":"香取郡神崎町","jp_add_2":"小松"},"2890204":{"post_code":"2890204","prefecture":"CHIBA KEN","city":"KATORI GUN KOZAKI MACHI","town":"SHIKINOKA","perfecture_jp":"千葉県","jp_add_1":"香取郡神崎町","jp_add_2":"四季の丘"},"2890225":{"post_code":"2890225","prefecture":"CHIBA KEN","city":"KATORI GUN KOZAKI MACHI","town":"JUSAMMADO","perfecture_jp":"千葉県","jp_add_1":"香取郡神崎町","jp_add_2":"十三間戸"},"2890213":{"post_code":"2890213","prefecture":"CHIBA KEN","city":"KATORI GUN KOZAKI MACHI","town":"SHIN","perfecture_jp":"千葉県","jp_add_1":"香取郡神崎町","jp_add_2":"新"},"2890212":{"post_code":"2890212","prefecture":"CHIBA KEN","city":"KATORI GUN KOZAKI MACHI","town":"TAKEDA","perfecture_jp":"千葉県","jp_add_1":"香取郡神崎町","jp_add_2":"武田"},"2890211":{"post_code":"2890211","prefecture":"CHIBA KEN","city":"KATORI GUN KOZAKI MACHI","town":"TACHINO","perfecture_jp":"千葉県","jp_add_1":"香取郡神崎町","jp_add_2":"立野"},"2890222":{"post_code":"2890222","prefecture":"CHIBA KEN","city":"KATORI GUN KOZAKI MACHI","town":"NAMIKI","perfecture_jp":"千葉県","jp_add_1":"香取郡神崎町","jp_add_2":"並木"},"2890217":{"post_code":"2890217","prefecture":"CHIBA KEN","city":"KATORI GUN KOZAKI MACHI","town":"FUJINODAI","perfecture_jp":"千葉県","jp_add_1":"香取郡神崎町","jp_add_2":"藤の台"},"2890224":{"post_code":"2890224","prefecture":"CHIBA KEN","city":"KATORI GUN KOZAKI MACHI","town":"MATSUZAKI","perfecture_jp":"千葉県","jp_add_1":"香取郡神崎町","jp_add_2":"松崎"},"2892200":{"post_code":"2892200","prefecture":"CHIBA KEN","city":"KATORI GUN TAKO MACHI","town":"IKANIKEISAIGANAIBAAI","perfecture_jp":"千葉県","jp_add_1":"香取郡多古町","jp_add_2":""},"2892231":{"post_code":"2892231","prefecture":"CHIBA KEN","city":"KATORI GUN TAKO MACHI","town":"IIZASA","perfecture_jp":"千葉県","jp_add_1":"香取郡多古町","jp_add_2":"飯笹"},"2892301":{"post_code":"2892301","prefecture":"CHIBA KEN","city":"KATORI GUN TAKO MACHI","town":"IDENUMA","perfecture_jp":"千葉県","jp_add_1":"香取郡多古町","jp_add_2":"出沼"},"2892317":{"post_code":"2892317","prefecture":"CHIBA KEN","city":"KATORI GUN TAKO MACHI","town":"IDOYAMA","perfecture_jp":"千葉県","jp_add_1":"香取郡多古町","jp_add_2":"井戸山"},"2892245":{"post_code":"2892245","prefecture":"CHIBA KEN","city":"KATORI GUN TAKO MACHI","town":"USHINO","perfecture_jp":"千葉県","jp_add_1":"香取郡多古町","jp_add_2":"牛尾"},"2892303":{"post_code":"2892303","prefecture":"CHIBA KEN","city":"KATORI GUN TAKO MACHI","town":"OKADO","perfecture_jp":"千葉県","jp_add_1":"香取郡多古町","jp_add_2":"大門"},"2892305":{"post_code":"2892305","prefecture":"CHIBA KEN","city":"KATORI GUN TAKO MACHI","town":"OTAKA","perfecture_jp":"千葉県","jp_add_1":"香取郡多古町","jp_add_2":"大高"},"2892324":{"post_code":"2892324","prefecture":"CHIBA KEN","city":"KATORI GUN TAKO MACHI","town":"KAWASHIMA","perfecture_jp":"千葉県","jp_add_1":"香取郡多古町","jp_add_2":"川島"},"2892232":{"post_code":"2892232","prefecture":"CHIBA KEN","city":"KATORI GUN TAKO MACHI","town":"KITA","perfecture_jp":"千葉県","jp_add_1":"香取郡多古町","jp_add_2":"喜多"},"2892251":{"post_code":"2892251","prefecture":"CHIBA KEN","city":"KATORI GUN TAKO MACHI","town":"KITANAKA","perfecture_jp":"千葉県","jp_add_1":"香取郡多古町","jp_add_2":"北中"},"2892315":{"post_code":"2892315","prefecture":"CHIBA KEN","city":"KATORI GUN TAKO MACHI","town":"GOSHODAI","perfecture_jp":"千葉県","jp_add_1":"香取郡多古町","jp_add_2":"御所台"},"2892234":{"post_code":"2892234","prefecture":"CHIBA KEN","city":"KATORI GUN TAKO MACHI","town":"GOTANDA","perfecture_jp":"千葉県","jp_add_1":"香取郡多古町","jp_add_2":"五反田"},"2892322":{"post_code":"2892322","prefecture":"CHIBA KEN","city":"KATORI GUN TAKO MACHI","town":"SAKA","perfecture_jp":"千葉県","jp_add_1":"香取郡多古町","jp_add_2":"坂"},"2892312":{"post_code":"2892312","prefecture":"CHIBA KEN","city":"KATORI GUN TAKO MACHI","town":"SAKUMIKURA","perfecture_jp":"千葉県","jp_add_1":"香取郡多古町","jp_add_2":"谷三倉"},"2892243":{"post_code":"2892243","prefecture":"CHIBA KEN","city":"KATORI GUN TAKO MACHI","town":"SHIMA","perfecture_jp":"千葉県","jp_add_1":"香取郡多古町","jp_add_2":"島"},"2892242":{"post_code":"2892242","prefecture":"CHIBA KEN","city":"KATORI GUN TAKO MACHI","town":"SOMEI","perfecture_jp":"千葉県","jp_add_1":"香取郡多古町","jp_add_2":"染井"},"2892304":{"post_code":"2892304","prefecture":"CHIBA KEN","city":"KATORI GUN TAKO MACHI","town":"TAKATSUHARA","perfecture_jp":"千葉県","jp_add_1":"香取郡多古町","jp_add_2":"高津原"},"2892241":{"post_code":"2892241","prefecture":"CHIBA KEN","city":"KATORI GUN TAKO MACHI","town":"TAKO","perfecture_jp":"千葉県","jp_add_1":"香取郡多古町","jp_add_2":"多古"},"2892246":{"post_code":"2892246","prefecture":"CHIBA KEN","city":"KATORI GUN TAKO MACHI","town":"CHIDA","perfecture_jp":"千葉県","jp_add_1":"香取郡多古町","jp_add_2":"千田"},"2892313":{"post_code":"2892313","prefecture":"CHIBA KEN","city":"KATORI GUN TAKO MACHI","town":"TSUGIURA","perfecture_jp":"千葉県","jp_add_1":"香取郡多古町","jp_add_2":"次浦"},"2892316":{"post_code":"2892316","prefecture":"CHIBA KEN","city":"KATORI GUN TAKO MACHI","town":"TERASAKU","perfecture_jp":"千葉県","jp_add_1":"香取郡多古町","jp_add_2":"寺作"},"2892254":{"post_code":"2892254","prefecture":"CHIBA KEN","city":"KATORI GUN TAKO MACHI","town":"TOKI","perfecture_jp":"千葉県","jp_add_1":"香取郡多古町","jp_add_2":"東輝"},"2892306":{"post_code":"2892306","prefecture":"CHIBA KEN","city":"KATORI GUN TAKO MACHI","town":"TOYOMI","perfecture_jp":"千葉県","jp_add_1":"香取郡多古町","jp_add_2":"十余三"},"2892256":{"post_code":"2892256","prefecture":"CHIBA KEN","city":"KATORI GUN TAKO MACHI","town":"NAKAMURASHINDEN","perfecture_jp":"千葉県","jp_add_1":"香取郡多古町","jp_add_2":"中村新田"},"2892314":{"post_code":"2892314","prefecture":"CHIBA KEN","city":"KATORI GUN TAKO MACHI","town":"NISHIFURUCHI","perfecture_jp":"千葉県","jp_add_1":"香取郡多古町","jp_add_2":"西古内"},"2892233":{"post_code":"2892233","prefecture":"CHIBA KEN","city":"KATORI GUN TAKO MACHI","town":"HAYASHI","perfecture_jp":"千葉県","jp_add_1":"香取郡多古町","jp_add_2":"林"},"2892321":{"post_code":"2892321","prefecture":"CHIBA KEN","city":"KATORI GUN TAKO MACHI","town":"HIGASHIMATSUSAKI","perfecture_jp":"千葉県","jp_add_1":"香取郡多古町","jp_add_2":"東松崎"},"2892236":{"post_code":"2892236","prefecture":"CHIBA KEN","city":"KATORI GUN TAKO MACHI","town":"HITOKUWADA(SONOTA)","perfecture_jp":"千葉県","jp_add_1":"香取郡多古町","jp_add_2":"一鍬田"},"2892302":{"post_code":"2892302","prefecture":"CHIBA KEN","city":"KATORI GUN TAKO MACHI","town":"HINOKI","perfecture_jp":"千葉県","jp_add_1":"香取郡多古町","jp_add_2":"桧木"},"2892244":{"post_code":"2892244","prefecture":"CHIBA KEN","city":"KATORI GUN TAKO MACHI","town":"FUNAKOSHI","perfecture_jp":"千葉県","jp_add_1":"香取郡多古町","jp_add_2":"船越"},"2892323":{"post_code":"2892323","prefecture":"CHIBA KEN","city":"KATORI GUN TAKO MACHI","town":"HODA","perfecture_jp":"千葉県","jp_add_1":"香取郡多古町","jp_add_2":"方田"},"2892235":{"post_code":"2892235","prefecture":"CHIBA KEN","city":"KATORI GUN TAKO MACHI","town":"MAGURA","perfecture_jp":"千葉県","jp_add_1":"香取郡多古町","jp_add_2":"間倉"},"2892247":{"post_code":"2892247","prefecture":"CHIBA KEN","city":"KATORI GUN TAKO MACHI","town":"MITO","perfecture_jp":"千葉県","jp_add_1":"香取郡多古町","jp_add_2":"水戸"},"2892253":{"post_code":"2892253","prefecture":"CHIBA KEN","city":"KATORI GUN TAKO MACHI","town":"MINAMIKARIATE","perfecture_jp":"千葉県","jp_add_1":"香取郡多古町","jp_add_2":"南借当"},"2892325":{"post_code":"2892325","prefecture":"CHIBA KEN","city":"KATORI GUN TAKO MACHI","town":"MINAMITAMATSUKURI","perfecture_jp":"千葉県","jp_add_1":"香取郡多古町","jp_add_2":"南玉造"},"2892257":{"post_code":"2892257","prefecture":"CHIBA KEN","city":"KATORI GUN TAKO MACHI","town":"MINAMINAKA","perfecture_jp":"千葉県","jp_add_1":"香取郡多古町","jp_add_2":"南中"},"2892255":{"post_code":"2892255","prefecture":"CHIBA KEN","city":"KATORI GUN TAKO MACHI","town":"MINAMINAMIKI","perfecture_jp":"千葉県","jp_add_1":"香取郡多古町","jp_add_2":"南並木"},"2892252":{"post_code":"2892252","prefecture":"CHIBA KEN","city":"KATORI GUN TAKO MACHI","town":"MINAMIWADA","perfecture_jp":"千葉県","jp_add_1":"香取郡多古町","jp_add_2":"南和田"},"2892311":{"post_code":"2892311","prefecture":"CHIBA KEN","city":"KATORI GUN TAKO MACHI","town":"MOTOMIKURA","perfecture_jp":"千葉県","jp_add_1":"香取郡多古町","jp_add_2":"本三倉"},"2890600":{"post_code":"2890600","prefecture":"CHIBA KEN","city":"KATORI GUN TONOSHO MACHI","town":"IKANIKEISAIGANAIBAAI","perfecture_jp":"千葉県","jp_add_1":"香取郡東庄町","jp_add_2":""},"2890627":{"post_code":"2890627","prefecture":"CHIBA KEN","city":"KATORI GUN TONOSHO MACHI","town":"AWANO","perfecture_jp":"千葉県","jp_add_1":"香取郡東庄町","jp_add_2":"粟野"},"2890612":{"post_code":"2890612","prefecture":"CHIBA KEN","city":"KATORI GUN TONOSHO MACHI","town":"ISHIDE","perfecture_jp":"千葉県","jp_add_1":"香取郡東庄町","jp_add_2":"石出"},"2890619":{"post_code":"2890619","prefecture":"CHIBA KEN","city":"KATORI GUN TONOSHO MACHI","town":"IMAGORI","perfecture_jp":"千葉県","jp_add_1":"香取郡東庄町","jp_add_2":"今郡"},"2890633":{"post_code":"2890633","prefecture":"CHIBA KEN","city":"KATORI GUN TONOSHO MACHI","town":"OKUBO","perfecture_jp":"千葉県","jp_add_1":"香取郡東庄町","jp_add_2":"大久保"},"2890621":{"post_code":"2890621","prefecture":"CHIBA KEN","city":"KATORI GUN TONOSHO MACHI","town":"OTOMO","perfecture_jp":"千葉県","jp_add_1":"香取郡東庄町","jp_add_2":"大友"},"2890615":{"post_code":"2890615","prefecture":"CHIBA KEN","city":"KATORI GUN TONOSHO MACHI","town":"OMA","perfecture_jp":"千葉県","jp_add_1":"香取郡東庄町","jp_add_2":"青馬"},"2890622":{"post_code":"2890622","prefecture":"CHIBA KEN","city":"KATORI GUN TONOSHO MACHI","town":"OZA","perfecture_jp":"千葉県","jp_add_1":"香取郡東庄町","jp_add_2":"小座"},"2890635":{"post_code":"2890635","prefecture":"CHIBA KEN","city":"KATORI GUN TONOSHO MACHI","town":"KANDA","perfecture_jp":"千葉県","jp_add_1":"香取郡東庄町","jp_add_2":"神田"},"2890632":{"post_code":"2890632","prefecture":"CHIBA KEN","city":"KATORI GUN TONOSHO MACHI","town":"KUBONOYA","perfecture_jp":"千葉県","jp_add_1":"香取郡東庄町","jp_add_2":"窪野谷"},"2890637":{"post_code":"2890637","prefecture":"CHIBA KEN","city":"KATORI GUN TONOSHO MACHI","town":"KOGAINO","perfecture_jp":"千葉県","jp_add_1":"香取郡東庄町","jp_add_2":"小貝野"},"2890624":{"post_code":"2890624","prefecture":"CHIBA KEN","city":"KATORI GUN TONOSHO MACHI","town":"KOMINAMI","perfecture_jp":"千葉県","jp_add_1":"香取郡東庄町","jp_add_2":"小南"},"2890601":{"post_code":"2890601","prefecture":"CHIBA KEN","city":"KATORI GUN TONOSHO MACHI","town":"SASAGAWAI","perfecture_jp":"千葉県","jp_add_1":"香取郡東庄町","jp_add_2":"笹川い"},"2890602":{"post_code":"2890602","prefecture":"CHIBA KEN","city":"KATORI GUN TONOSHO MACHI","town":"SASAGAWARO","perfecture_jp":"千葉県","jp_add_1":"香取郡東庄町","jp_add_2":"笹川ろ"},"2890616":{"post_code":"2890616","prefecture":"CHIBA KEN","city":"KATORI GUN TONOSHO MACHI","town":"TAKABE","perfecture_jp":"千葉県","jp_add_1":"香取郡東庄町","jp_add_2":"高部"},"2890636":{"post_code":"2890636","prefecture":"CHIBA KEN","city":"KATORI GUN TONOSHO MACHI","town":"TOWADA","perfecture_jp":"千葉県","jp_add_1":"香取郡東庄町","jp_add_2":"東和田"},"2890625":{"post_code":"2890625","prefecture":"CHIBA KEN","city":"KATORI GUN TONOSHO MACHI","town":"NATSUME","perfecture_jp":"千葉県","jp_add_1":"香取郡東庄町","jp_add_2":"夏目"},"2890611":{"post_code":"2890611","prefecture":"CHIBA KEN","city":"KATORI GUN TONOSHO MACHI","town":"NIIJUKU","perfecture_jp":"千葉県","jp_add_1":"香取郡東庄町","jp_add_2":"新宿"},"2890617":{"post_code":"2890617","prefecture":"CHIBA KEN","city":"KATORI GUN TONOSHO MACHI","town":"HABAKARI","perfecture_jp":"千葉県","jp_add_1":"香取郡東庄町","jp_add_2":"羽計"},"2890613":{"post_code":"2890613","prefecture":"CHIBA KEN","city":"KATORI GUN TONOSHO MACHI","town":"HIGASHIIMAIZUMI","perfecture_jp":"千葉県","jp_add_1":"香取郡東庄町","jp_add_2":"東今泉"},"2890631":{"post_code":"2890631","prefecture":"CHIBA KEN","city":"KATORI GUN TONOSHO MACHI","town":"HIRAYAMA","perfecture_jp":"千葉県","jp_add_1":"香取郡東庄町","jp_add_2":"平山"},"2890634":{"post_code":"2890634","prefecture":"CHIBA KEN","city":"KATORI GUN TONOSHO MACHI","town":"FUNADO","perfecture_jp":"千葉県","jp_add_1":"香取郡東庄町","jp_add_2":"舟戸"},"2890623":{"post_code":"2890623","prefecture":"CHIBA KEN","city":"KATORI GUN TONOSHO MACHI","town":"MIYANODAI","perfecture_jp":"千葉県","jp_add_1":"香取郡東庄町","jp_add_2":"宮野台"},"2890614":{"post_code":"2890614","prefecture":"CHIBA KEN","city":"KATORI GUN TONOSHO MACHI","town":"MIYAMOTO","perfecture_jp":"千葉県","jp_add_1":"香取郡東庄町","jp_add_2":"宮本"},"2890626":{"post_code":"2890626","prefecture":"CHIBA KEN","city":"KATORI GUN TONOSHO MACHI","town":"YAEBO","perfecture_jp":"千葉県","jp_add_1":"香取郡東庄町","jp_add_2":"八重穂"},"2890618":{"post_code":"2890618","prefecture":"CHIBA KEN","city":"KATORI GUN TONOSHO MACHI","town":"YAZU","perfecture_jp":"千葉県","jp_add_1":"香取郡東庄町","jp_add_2":"谷津"},"2891600":{"post_code":"2891600","prefecture":"CHIBA KEN","city":"SAMBU GUN SHIBAYAMA MACHI","town":"IKANIKEISAIGANAIBAAI","perfecture_jp":"千葉県","jp_add_1":"山武郡芝山町","jp_add_2":""},"2891607":{"post_code":"2891607","prefecture":"CHIBA KEN","city":"SAMBU GUN SHIBAYAMA MACHI","town":"ASAKURA","perfecture_jp":"千葉県","jp_add_1":"山武郡芝山町","jp_add_2":"朝倉"},"2891604":{"post_code":"2891604","prefecture":"CHIBA KEN","city":"SAMBU GUN SHIBAYAMA MACHI","town":"IBITSU","perfecture_jp":"千葉県","jp_add_1":"山武郡芝山町","jp_add_2":"飯櫃"},"2891608":{"post_code":"2891608","prefecture":"CHIBA KEN","city":"SAMBU GUN SHIBAYAMA MACHI","town":"IWAYAMA(SONOTA)","perfecture_jp":"千葉県","jp_add_1":"山武郡芝山町","jp_add_2":"岩山"},"2891603":{"post_code":"2891603","prefecture":"CHIBA KEN","city":"SAMBU GUN SHIBAYAMA MACHI","town":"OSATO(SONOTA)","perfecture_jp":"千葉県","jp_add_1":"山武郡芝山町","jp_add_2":"大里"},"2891605":{"post_code":"2891605","prefecture":"CHIBA KEN","city":"SAMBU GUN SHIBAYAMA MACHI","town":"ODAI","perfecture_jp":"千葉県","jp_add_1":"山武郡芝山町","jp_add_2":"大台"},"2891611":{"post_code":"2891611","prefecture":"CHIBA KEN","city":"SAMBU GUN SHIBAYAMA MACHI","town":"OBARAKU","perfecture_jp":"千葉県","jp_add_1":"山武郡芝山町","jp_add_2":"小原子"},"2891612":{"post_code":"2891612","prefecture":"CHIBA KEN","city":"SAMBU GUN SHIBAYAMA MACHI","town":"KAMIFUKIIRE","perfecture_jp":"千葉県","jp_add_1":"山武郡芝山町","jp_add_2":"上吹入"},"2891601":{"post_code":"2891601","prefecture":"CHIBA KEN","city":"SAMBU GUN SHIBAYAMA MACHI","town":"KAYAMASHINDEN(SONOTA)","perfecture_jp":"千葉県","jp_add_1":"山武郡芝山町","jp_add_2":"香山新田"},"2891624":{"post_code":"2891624","prefecture":"CHIBA KEN","city":"SAMBU GUN SHIBAYAMA MACHI","town":"KOIKE","perfecture_jp":"千葉県","jp_add_1":"山武郡芝山町","jp_add_2":"小池"},"2891615":{"post_code":"2891615","prefecture":"CHIBA KEN","city":"SAMBU GUN SHIBAYAMA MACHI","town":"SAKAI","perfecture_jp":"千葉県","jp_add_1":"山武郡芝山町","jp_add_2":"境"},"2891619":{"post_code":"2891619","prefecture":"CHIBA KEN","city":"SAMBU GUN SHIBAYAMA MACHI","town":"SHIBAYAMA","perfecture_jp":"千葉県","jp_add_1":"山武郡芝山町","jp_add_2":"芝山"},"2891613":{"post_code":"2891613","prefecture":"CHIBA KEN","city":"SAMBU GUN SHIBAYAMA MACHI","town":"SHIMOFUKIIRE","perfecture_jp":"千葉県","jp_add_1":"山武郡芝山町","jp_add_2":"下吹入"},"2891623":{"post_code":"2891623","prefecture":"CHIBA KEN","city":"SAMBU GUN SHIBAYAMA MACHI","town":"TAKADA","perfecture_jp":"千葉県","jp_add_1":"山武郡芝山町","jp_add_2":"高田"},"2891616":{"post_code":"2891616","prefecture":"CHIBA KEN","city":"SAMBU GUN SHIBAYAMA MACHI","town":"TAKAYA","perfecture_jp":"千葉県","jp_add_1":"山武郡芝山町","jp_add_2":"高谷"},"2891617":{"post_code":"2891617","prefecture":"CHIBA KEN","city":"SAMBU GUN SHIBAYAMA MACHI","town":"TONOBETA","perfecture_jp":"千葉県","jp_add_1":"山武郡芝山町","jp_add_2":"殿部田"},"2891625":{"post_code":"2891625","prefecture":"CHIBA KEN","city":"SAMBU GUN SHIBAYAMA MACHI","town":"NIIDA","perfecture_jp":"千葉県","jp_add_1":"山武郡芝山町","jp_add_2":"新井田"},"2891626":{"post_code":"2891626","prefecture":"CHIBA KEN","city":"SAMBU GUN SHIBAYAMA MACHI","town":"NIIDASHINDEN","perfecture_jp":"千葉県","jp_add_1":"山武郡芝山町","jp_add_2":"新井田新田"},"2891602":{"post_code":"2891602","prefecture":"CHIBA KEN","city":"SAMBU GUN SHIBAYAMA MACHI","town":"HISHIDA(SONOTA)","perfecture_jp":"千葉県","jp_add_1":"山武郡芝山町","jp_add_2":"菱田"},"2891622":{"post_code":"2891622","prefecture":"CHIBA KEN","city":"SAMBU GUN SHIBAYAMA MACHI","town":"HOMA","perfecture_jp":"千葉県","jp_add_1":"山武郡芝山町","jp_add_2":"宝馬"},"2891621":{"post_code":"2891621","prefecture":"CHIBA KEN","city":"SAMBU GUN SHIBAYAMA MACHI","town":"MAKINO","perfecture_jp":"千葉県","jp_add_1":"山武郡芝山町","jp_add_2":"牧野"},"2891614":{"post_code":"2891614","prefecture":"CHIBA KEN","city":"SAMBU GUN SHIBAYAMA MACHI","town":"MIYAZAKI","perfecture_jp":"千葉県","jp_add_1":"山武郡芝山町","jp_add_2":"宮崎"},"2891606":{"post_code":"2891606","prefecture":"CHIBA KEN","city":"SAMBU GUN SHIBAYAMA MACHI","town":"YAMADA","perfecture_jp":"千葉県","jp_add_1":"山武郡芝山町","jp_add_2":"山田"},"2891618":{"post_code":"2891618","prefecture":"CHIBA KEN","city":"SAMBU GUN SHIBAYAMA MACHI","town":"YAMANAKA","perfecture_jp":"千葉県","jp_add_1":"山武郡芝山町","jp_add_2":"山中"},"2891700":{"post_code":"2891700","prefecture":"CHIBA KEN","city":"SAMBU GUN YOKOSHIBAHIKARI MACHI","town":"IKANIKEISAIGANAIBAAI","perfecture_jp":"千葉県","jp_add_1":"山武郡横芝光町","jp_add_2":""},"2891707":{"post_code":"2891707","prefecture":"CHIBA KEN","city":"SAMBU GUN YOKOSHIBAHIKARI MACHI","town":"ARAI","perfecture_jp":"千葉県","jp_add_1":"山武郡横芝光町","jp_add_2":"新井"},"2891706":{"post_code":"2891706","prefecture":"CHIBA KEN","city":"SAMBU GUN YOKOSHIBAHIKARI MACHI","town":"ICHINOHARA","perfecture_jp":"千葉県","jp_add_1":"山武郡横芝光町","jp_add_2":"市野原"},"2891742":{"post_code":"2891742","prefecture":"CHIBA KEN","city":"SAMBU GUN YOKOSHIBAHIKARI MACHI","town":"USHIKUMA","perfecture_jp":"千葉県","jp_add_1":"山武郡横芝光町","jp_add_2":"牛熊"},"2891752":{"post_code":"2891752","prefecture":"CHIBA KEN","city":"SAMBU GUN YOKOSHIBAHIKARI MACHI","town":"UBAYAMA","perfecture_jp":"千葉県","jp_add_1":"山武郡横芝光町","jp_add_2":"姥山"},"2891711":{"post_code":"2891711","prefecture":"CHIBA KEN","city":"SAMBU GUN YOKOSHIBAHIKARI MACHI","town":"OGAWADAI","perfecture_jp":"千葉県","jp_add_1":"山武郡横芝光町","jp_add_2":"小川台"},"2891748":{"post_code":"2891748","prefecture":"CHIBA KEN","city":"SAMBU GUN YOKOSHIBAHIKARI MACHI","town":"OKI","perfecture_jp":"千葉県","jp_add_1":"山武郡横芝光町","jp_add_2":"於幾"},"2891725":{"post_code":"2891725","prefecture":"CHIBA KEN","city":"SAMBU GUN YOKOSHIBAHIKARI MACHI","town":"ODARE","perfecture_jp":"千葉県","jp_add_1":"山武郡横芝光町","jp_add_2":"尾垂"},"2891745":{"post_code":"2891745","prefecture":"CHIBA KEN","city":"SAMBU GUN YOKOSHIBAHIKARI MACHI","town":"ONZUMI","perfecture_jp":"千葉県","jp_add_1":"山武郡横芝光町","jp_add_2":"小堤"},"2891723":{"post_code":"2891723","prefecture":"CHIBA KEN","city":"SAMBU GUN YOKOSHIBAHIKARI MACHI","town":"KAMBARA","perfecture_jp":"千葉県","jp_add_1":"山武郡横芝光町","jp_add_2":"上原"},"2891734":{"post_code":"2891734","prefecture":"CHIBA KEN","city":"SAMBU GUN YOKOSHIBAHIKARI MACHI","town":"KITASHIMIZU","perfecture_jp":"千葉県","jp_add_1":"山武郡横芝光町","jp_add_2":"北清水"},"2891726":{"post_code":"2891726","prefecture":"CHIBA KEN","city":"SAMBU GUN YOKOSHIBAHIKARI MACHI","town":"KIDO","perfecture_jp":"千葉県","jp_add_1":"山武郡横芝光町","jp_add_2":"木戸"},"2891744":{"post_code":"2891744","prefecture":"CHIBA KEN","city":"SAMBU GUN YOKOSHIBAHIKARI MACHI","town":"KIDODAI","perfecture_jp":"千葉県","jp_add_1":"山武郡横芝光町","jp_add_2":"木戸台"},"2891733":{"post_code":"2891733","prefecture":"CHIBA KEN","city":"SAMBU GUN YOKOSHIBAHIKARI MACHI","town":"KURIYAMA","perfecture_jp":"千葉県","jp_add_1":"山武郡横芝光町","jp_add_2":"栗山"},"2891731":{"post_code":"2891731","prefecture":"CHIBA KEN","city":"SAMBU GUN YOKOSHIBAHIKARI MACHI","town":"KOKAWA","perfecture_jp":"千葉県","jp_add_1":"山武郡横芝光町","jp_add_2":"古川"},"2891713":{"post_code":"2891713","prefecture":"CHIBA KEN","city":"SAMBU GUN YOKOSHIBAHIKARI MACHI","town":"KOTABE","perfecture_jp":"千葉県","jp_add_1":"山武郡横芝光町","jp_add_2":"小田部"},"2891754":{"post_code":"2891754","prefecture":"CHIBA KEN","city":"SAMBU GUN YOKOSHIBAHIKARI MACHI","town":"SAKATA","perfecture_jp":"千葉県","jp_add_1":"山武郡横芝光町","jp_add_2":"坂田"},"2891755":{"post_code":"2891755","prefecture":"CHIBA KEN","city":"SAMBU GUN YOKOSHIBAHIKARI MACHI","town":"SAKATAIKE","perfecture_jp":"千葉県","jp_add_1":"山武郡横芝光町","jp_add_2":"坂田池"},"2891701":{"post_code":"2891701","prefecture":"CHIBA KEN","city":"SAMBU GUN YOKOSHIBAHIKARI MACHI","town":"SASAMOTO","perfecture_jp":"千葉県","jp_add_1":"山武郡横芝光町","jp_add_2":"篠本"},"2891708":{"post_code":"2891708","prefecture":"CHIBA KEN","city":"SAMBU GUN YOKOSHIBAHIKARI MACHI","town":"SASAMOTONEGIRI","perfecture_jp":"千葉県","jp_add_1":"山武郡横芝光町","jp_add_2":"篠本根切"},"2891715":{"post_code":"2891715","prefecture":"CHIBA KEN","city":"SAMBU GUN YOKOSHIBAHIKARI MACHI","town":"SHIBASAKI","perfecture_jp":"千葉県","jp_add_1":"山武郡横芝光町","jp_add_2":"芝崎"},"2891716":{"post_code":"2891716","prefecture":"CHIBA KEN","city":"SAMBU GUN YOKOSHIBAHIKARI MACHI","town":"SHIBASAKIMINAMI","perfecture_jp":"千葉県","jp_add_1":"山武郡横芝光町","jp_add_2":"芝崎南"},"2891747":{"post_code":"2891747","prefecture":"CHIBA KEN","city":"SAMBU GUN YOKOSHIBAHIKARI MACHI","town":"SONEAI","perfecture_jp":"千葉県","jp_add_1":"山武郡横芝光町","jp_add_2":"曽根合"},"2891712":{"post_code":"2891712","prefecture":"CHIBA KEN","city":"SAMBU GUN YOKOSHIBAHIKARI MACHI","town":"DAI","perfecture_jp":"千葉県","jp_add_1":"山武郡横芝光町","jp_add_2":"台"},"2891746":{"post_code":"2891746","prefecture":"CHIBA KEN","city":"SAMBU GUN YOKOSHIBAHIKARI MACHI","town":"TERAKATA","perfecture_jp":"千葉県","jp_add_1":"山武郡横芝光町","jp_add_2":"寺方"},"2891757":{"post_code":"2891757","prefecture":"CHIBA KEN","city":"SAMBU GUN YOKOSHIBAHIKARI MACHI","town":"TOYAMA","perfecture_jp":"千葉県","jp_add_1":"山武郡横芝光町","jp_add_2":"遠山"},"2891704":{"post_code":"2891704","prefecture":"CHIBA KEN","city":"SAMBU GUN YOKOSHIBAHIKARI MACHI","town":"TOMISHITA","perfecture_jp":"千葉県","jp_add_1":"山武郡横芝光町","jp_add_2":"富下"},"2891753":{"post_code":"2891753","prefecture":"CHIBA KEN","city":"SAMBU GUN YOKOSHIBAHIKARI MACHI","town":"TORITATE","perfecture_jp":"千葉県","jp_add_1":"山武郡横芝光町","jp_add_2":"取立"},"2891738":{"post_code":"2891738","prefecture":"CHIBA KEN","city":"SAMBU GUN YOKOSHIBAHIKARI MACHI","town":"TORIHAMIKAMI","perfecture_jp":"千葉県","jp_add_1":"山武郡横芝光町","jp_add_2":"鳥喰上"},"2891737":{"post_code":"2891737","prefecture":"CHIBA KEN","city":"SAMBU GUN YOKOSHIBAHIKARI MACHI","town":"TORIHAMISHIMO","perfecture_jp":"千葉県","jp_add_1":"山武郡横芝光町","jp_add_2":"鳥喰下"},"2891739":{"post_code":"2891739","prefecture":"CHIBA KEN","city":"SAMBU GUN YOKOSHIBAHIKARI MACHI","town":"TORIHAMISHINDEN","perfecture_jp":"千葉県","jp_add_1":"山武郡横芝光町","jp_add_2":"鳥喰新田"},"2891756":{"post_code":"2891756","prefecture":"CHIBA KEN","city":"SAMBU GUN YOKOSHIBAHIKARI MACHI","town":"NAGAKURA","perfecture_jp":"千葉県","jp_add_1":"山武郡横芝光町","jp_add_2":"長倉"},"2891741":{"post_code":"2891741","prefecture":"CHIBA KEN","city":"SAMBU GUN YOKOSHIBAHIKARI MACHI","town":"NAKADAI","perfecture_jp":"千葉県","jp_add_1":"山武郡横芝光町","jp_add_2":"中台"},"2891751":{"post_code":"2891751","prefecture":"CHIBA KEN","city":"SAMBU GUN YOKOSHIBAHIKARI MACHI","town":"NAGAYAMADAI","perfecture_jp":"千葉県","jp_add_1":"山武郡横芝光町","jp_add_2":"長山台"},"2891736":{"post_code":"2891736","prefecture":"CHIBA KEN","city":"SAMBU GUN YOKOSHIBAHIKARI MACHI","town":"NIIJIMA","perfecture_jp":"千葉県","jp_add_1":"山武郡横芝光町","jp_add_2":"新島"},"2891714":{"post_code":"2891714","prefecture":"CHIBA KEN","city":"SAMBU GUN YOKOSHIBAHIKARI MACHI","town":"HAHAKO","perfecture_jp":"千葉県","jp_add_1":"山武郡横芝光町","jp_add_2":"母子"},"2891724":{"post_code":"2891724","prefecture":"CHIBA KEN","city":"SAMBU GUN YOKOSHIBAHIKARI MACHI","town":"HARAKATA","perfecture_jp":"千葉県","jp_add_1":"山武郡横芝光町","jp_add_2":"原方"},"2891702":{"post_code":"2891702","prefecture":"CHIBA KEN","city":"SAMBU GUN YOKOSHIBAHIKARI MACHI","town":"FUTAMATA","perfecture_jp":"千葉県","jp_add_1":"山武郡横芝光町","jp_add_2":"二又"},"2891703":{"post_code":"2891703","prefecture":"CHIBA KEN","city":"SAMBU GUN YOKOSHIBAHIKARI MACHI","town":"HOJIDO","perfecture_jp":"千葉県","jp_add_1":"山武郡横芝光町","jp_add_2":"傍示戸"},"2891705":{"post_code":"2891705","prefecture":"CHIBA KEN","city":"SAMBU GUN YOKOSHIBAHIKARI MACHI","town":"HOME","perfecture_jp":"千葉県","jp_add_1":"山武郡横芝光町","jp_add_2":"宝米"},"2891727":{"post_code":"2891727","prefecture":"CHIBA KEN","city":"SAMBU GUN YOKOSHIBAHIKARI MACHI","town":"MIYAGAWA","perfecture_jp":"千葉県","jp_add_1":"山武郡横芝光町","jp_add_2":"宮川"},"2891717":{"post_code":"2891717","prefecture":"CHIBA KEN","city":"SAMBU GUN YOKOSHIBAHIKARI MACHI","town":"MUSHO","perfecture_jp":"千葉県","jp_add_1":"山武郡横芝光町","jp_add_2":"虫生"},"2891722":{"post_code":"2891722","prefecture":"CHIBA KEN","city":"SAMBU GUN YOKOSHIBAHIKARI MACHI","town":"MEJINO","perfecture_jp":"千葉県","jp_add_1":"山武郡横芝光町","jp_add_2":"目篠"},"2891735":{"post_code":"2891735","prefecture":"CHIBA KEN","city":"SAMBU GUN YOKOSHIBAHIKARI MACHI","town":"YAKATA","perfecture_jp":"千葉県","jp_add_1":"山武郡横芝光町","jp_add_2":"屋形"},"2891743":{"post_code":"2891743","prefecture":"CHIBA KEN","city":"SAMBU GUN YOKOSHIBAHIKARI MACHI","town":"YATSUDAI","perfecture_jp":"千葉県","jp_add_1":"山武郡横芝光町","jp_add_2":"谷台"},"2891721":{"post_code":"2891721","prefecture":"CHIBA KEN","city":"SAMBU GUN YOKOSHIBAHIKARI MACHI","town":"YANAKA","perfecture_jp":"千葉県","jp_add_1":"山武郡横芝光町","jp_add_2":"谷中"},"2891732":{"post_code":"2891732","prefecture":"CHIBA KEN","city":"SAMBU GUN YOKOSHIBAHIKARI MACHI","town":"YOKOSHIBA","perfecture_jp":"千葉県","jp_add_1":"山武郡横芝光町","jp_add_2":"横芝"},"2891749":{"post_code":"2891749","prefecture":"CHIBA KEN","city":"SAMBU GUN YOKOSHIBAHIKARI MACHI","town":"RYOGOKUSHINDEN","perfecture_jp":"千葉県","jp_add_1":"山武郡横芝光町","jp_add_2":"両国新田"}}