{"2900000":{"post_code":"2900000","prefecture":"CHIBA KEN","city":"ICHIHARA SHI","town":"IKANIKEISAIGANAIBAAI","perfecture_jp":"千葉県","jp_add_1":"市原市","jp_add_2":""},"2900252":{"post_code":"2900252","prefecture":"CHIBA KEN","city":"ICHIHARA SHI","town":"AIKAWA","perfecture_jp":"千葉県","jp_add_1":"市原市","jp_add_2":"相川"},"2900509":{"post_code":"2900509","prefecture":"CHIBA KEN","city":"ICHIHARA SHI","town":"AKUYA","perfecture_jp":"千葉県","jp_add_1":"市原市","jp_add_2":"安久谷"},"2900251":{"post_code":"2900251","prefecture":"CHIBA KEN","city":"ICHIHARA SHI","town":"ASAIKOMUKAI","perfecture_jp":"千葉県","jp_add_1":"市原市","jp_add_2":"浅井小向"},"2900063":{"post_code":"2900063","prefecture":"CHIBA KEN","city":"ICHIHARA SHI","town":"ASAHIGOSHO","perfecture_jp":"千葉県","jp_add_1":"市原市","jp_add_2":"旭五所"},"2900253":{"post_code":"2900253","prefecture":"CHIBA KEN","city":"ICHIHARA SHI","town":"AZU","perfecture_jp":"千葉県","jp_add_1":"市原市","jp_add_2":"安須"},"2900535":{"post_code":"2900535","prefecture":"CHIBA KEN","city":"ICHIHARA SHI","town":"ASOBARA","perfecture_jp":"千葉県","jp_add_1":"市原市","jp_add_2":"朝生原"},"2900207":{"post_code":"2900207","prefecture":"CHIBA KEN","city":"ICHIHARA SHI","town":"AMAARIKI","perfecture_jp":"千葉県","jp_add_1":"市原市","jp_add_2":"海士有木"},"2900522":{"post_code":"2900522","prefecture":"CHIBA KEN","city":"ICHIHARA SHI","town":"ARAI","perfecture_jp":"千葉県","jp_add_1":"市原市","jp_add_2":"新井"},"2900257":{"post_code":"2900257","prefecture":"CHIBA KEN","city":"ICHIHARA SHI","town":"ARAOI","perfecture_jp":"千葉県","jp_add_1":"市原市","jp_add_2":"新生"},"2900212":{"post_code":"2900212","prefecture":"CHIBA KEN","city":"ICHIHARA SHI","town":"ARAMAKI","perfecture_jp":"千葉県","jp_add_1":"市原市","jp_add_2":"新巻"},"2900037":{"post_code":"2900037","prefecture":"CHIBA KEN","city":"ICHIHARA SHI","town":"IINUMA","perfecture_jp":"千葉県","jp_add_1":"市原市","jp_add_2":"飯沼"},"2900516":{"post_code":"2900516","prefecture":"CHIBA KEN","city":"ICHIHARA SHI","town":"IKEWADA","perfecture_jp":"千葉県","jp_add_1":"市原市","jp_add_2":"池和田"},"2900511":{"post_code":"2900511","prefecture":"CHIBA KEN","city":"ICHIHARA SHI","town":"ISHIKAWA","perfecture_jp":"千葉県","jp_add_1":"市原市","jp_add_2":"石川"},"2900534":{"post_code":"2900534","prefecture":"CHIBA KEN","city":"ICHIHARA SHI","town":"ISHIGAMI","perfecture_jp":"千葉県","jp_add_1":"市原市","jp_add_2":"石神"},"2900537":{"post_code":"2900537","prefecture":"CHIBA KEN","city":"ICHIHARA SHI","town":"ISHIZUKA","perfecture_jp":"千葉県","jp_add_1":"市原市","jp_add_2":"石塚"},"2900204":{"post_code":"2900204","prefecture":"CHIBA KEN","city":"ICHIHARA SHI","town":"ISOGAYA","perfecture_jp":"千葉県","jp_add_1":"市原市","jp_add_2":"磯ケ谷"},"2900543":{"post_code":"2900543","prefecture":"CHIBA KEN","city":"ICHIHARA SHI","town":"ITABU","perfecture_jp":"千葉県","jp_add_1":"市原市","jp_add_2":"飯給"},"2900015":{"post_code":"2900015","prefecture":"CHIBA KEN","city":"ICHIHARA SHI","town":"ICHIHARA","perfecture_jp":"千葉県","jp_add_1":"市原市","jp_add_2":"市原"},"2900505":{"post_code":"2900505","prefecture":"CHIBA KEN","city":"ICHIHARA SHI","town":"ICHIBA","perfecture_jp":"千葉県","jp_add_1":"市原市","jp_add_2":"市場"},"2900262":{"post_code":"2900262","prefecture":"CHIBA KEN","city":"ICHIHARA SHI","town":"ITOHISA","perfecture_jp":"千葉県","jp_add_1":"市原市","jp_add_2":"糸久"},"2900166":{"post_code":"2900166","prefecture":"CHIBA KEN","city":"ICHIHARA SHI","town":"INUNARI","perfecture_jp":"千葉県","jp_add_1":"市原市","jp_add_2":"犬成"},"2900265":{"post_code":"2900265","prefecture":"CHIBA KEN","city":"ICHIHARA SHI","town":"IMADOMI","perfecture_jp":"千葉県","jp_add_1":"市原市","jp_add_2":"今富"},"2900228":{"post_code":"2900228","prefecture":"CHIBA KEN","city":"ICHIHARA SHI","town":"IWA","perfecture_jp":"千葉県","jp_add_1":"市原市","jp_add_2":"岩"},"2900047":{"post_code":"2900047","prefecture":"CHIBA KEN","city":"ICHIHARA SHI","town":"IWASAKI","perfecture_jp":"千葉県","jp_add_1":"市原市","jp_add_2":"岩崎"},"2900046":{"post_code":"2900046","prefecture":"CHIBA KEN","city":"ICHIHARA SHI","town":"IWASAKI NISHI","perfecture_jp":"千葉県","jp_add_1":"市原市","jp_add_2":"岩崎西"},"2900052":{"post_code":"2900052","prefecture":"CHIBA KEN","city":"ICHIHARA SHI","town":"IWANOMI","perfecture_jp":"千葉県","jp_add_1":"市原市","jp_add_2":"岩野見"},"2900222":{"post_code":"2900222","prefecture":"CHIBA KEN","city":"ICHIHARA SHI","town":"UEHARA","perfecture_jp":"千葉県","jp_add_1":"市原市","jp_add_2":"上原"},"2900225":{"post_code":"2900225","prefecture":"CHIBA KEN","city":"ICHIHARA SHI","town":"USHIKU","perfecture_jp":"千葉県","jp_add_1":"市原市","jp_add_2":"牛久"},"2900221":{"post_code":"2900221","prefecture":"CHIBA KEN","city":"ICHIHARA SHI","town":"UMATATE","perfecture_jp":"千葉県","jp_add_1":"市原市","jp_add_2":"馬立"},"2900171":{"post_code":"2900171","prefecture":"CHIBA KEN","city":"ICHIHARA SHI","town":"URUIDO","perfecture_jp":"千葉県","jp_add_1":"市原市","jp_add_2":"潤井戸"},"2900170":{"post_code":"2900170","prefecture":"CHIBA KEN","city":"ICHIHARA SHI","town":"URUIDOMINAMI","perfecture_jp":"千葉県","jp_add_1":"市原市","jp_add_2":"うるいど南"},"2900508":{"post_code":"2900508","prefecture":"CHIBA KEN","city":"ICHIHARA SHI","town":"EGODA","perfecture_jp":"千葉県","jp_add_1":"市原市","jp_add_2":"江子田"},"2900211":{"post_code":"2900211","prefecture":"CHIBA KEN","city":"ICHIHARA SHI","town":"OOKE","perfecture_jp":"千葉県","jp_add_1":"市原市","jp_add_2":"大桶"},"2900532":{"post_code":"2900532","prefecture":"CHIBA KEN","city":"ICHIHARA SHI","town":"OKUBO","perfecture_jp":"千葉県","jp_add_1":"市原市","jp_add_2":"大久保"},"2900234":{"post_code":"2900234","prefecture":"CHIBA KEN","city":"ICHIHARA SHI","town":"OKURA","perfecture_jp":"千葉県","jp_add_1":"市原市","jp_add_2":"大蔵"},"2900172":{"post_code":"2900172","prefecture":"CHIBA KEN","city":"ICHIHARA SHI","town":"OSAKU","perfecture_jp":"千葉県","jp_add_1":"市原市","jp_add_2":"大作"},"2900208":{"post_code":"2900208","prefecture":"CHIBA KEN","city":"ICHIHARA SHI","town":"OTSUBO","perfecture_jp":"千葉県","jp_add_1":"市原市","jp_add_2":"大坪"},"2900542":{"post_code":"2900542","prefecture":"CHIBA KEN","city":"ICHIHARA SHI","town":"OTO","perfecture_jp":"千葉県","jp_add_1":"市原市","jp_add_2":"大戸"},"2900002":{"post_code":"2900002","prefecture":"CHIBA KEN","city":"ICHIHARA SHI","town":"OMAYA","perfecture_jp":"千葉県","jp_add_1":"市原市","jp_add_2":"大厩"},"2900553":{"post_code":"2900553","prefecture":"CHIBA KEN","city":"ICHIHARA SHI","town":"OWADA","perfecture_jp":"千葉県","jp_add_1":"市原市","jp_add_2":"大和田"},"2900177":{"post_code":"2900177","prefecture":"CHIBA KEN","city":"ICHIHARA SHI","town":"OGISAKU","perfecture_jp":"千葉県","jp_add_1":"市原市","jp_add_2":"荻作"},"2900513":{"post_code":"2900513","prefecture":"CHIBA KEN","city":"ICHIHARA SHI","town":"OKUNO","perfecture_jp":"千葉県","jp_add_1":"市原市","jp_add_2":"奥野"},"2900157":{"post_code":"2900157","prefecture":"CHIBA KEN","city":"ICHIHARA SHI","town":"OSHINUMA","perfecture_jp":"千葉県","jp_add_1":"市原市","jp_add_2":"押沼"},"2900176":{"post_code":"2900176","prefecture":"CHIBA KEN","city":"ICHIHARA SHI","town":"ODATSUPE","perfecture_jp":"千葉県","jp_add_1":"市原市","jp_add_2":"小田部"},"2900533":{"post_code":"2900533","prefecture":"CHIBA KEN","city":"ICHIHARA SHI","town":"ORIZU","perfecture_jp":"千葉県","jp_add_1":"市原市","jp_add_2":"折津"},"2900266":{"post_code":"2900266","prefecture":"CHIBA KEN","city":"ICHIHARA SHI","town":"KAIHO","perfecture_jp":"千葉県","jp_add_1":"市原市","jp_add_2":"海保"},"2900548":{"post_code":"2900548","prefecture":"CHIBA KEN","city":"ICHIHARA SHI","town":"KAKINOKIDAI","perfecture_jp":"千葉県","jp_add_1":"市原市","jp_add_2":"柿木台"},"2900241":{"post_code":"2900241","prefecture":"CHIBA KEN","city":"ICHIHARA SHI","town":"KAZATO","perfecture_jp":"千葉県","jp_add_1":"市原市","jp_add_2":"風戸"},"2900258":{"post_code":"2900258","prefecture":"CHIBA KEN","city":"ICHIHARA SHI","town":"KAJIRO","perfecture_jp":"千葉県","jp_add_1":"市原市","jp_add_2":"神代"},"2900174":{"post_code":"2900174","prefecture":"CHIBA KEN","city":"ICHIHARA SHI","town":"KATSUMA","perfecture_jp":"千葉県","jp_add_1":"市原市","jp_add_2":"勝間"},"2900233":{"post_code":"2900233","prefecture":"CHIBA KEN","city":"ICHIHARA SHI","town":"KANESAWA","perfecture_jp":"千葉県","jp_add_1":"市原市","jp_add_2":"金沢"},"2900243":{"post_code":"2900243","prefecture":"CHIBA KEN","city":"ICHIHARA SHI","town":"KAMITAKANE","perfecture_jp":"千葉県","jp_add_1":"市原市","jp_add_2":"上高根"},"2900025":{"post_code":"2900025","prefecture":"CHIBA KEN","city":"ICHIHARA SHI","town":"KAMO","perfecture_jp":"千葉県","jp_add_1":"市原市","jp_add_2":"加茂"},"2900235":{"post_code":"2900235","prefecture":"CHIBA KEN","city":"ICHIHARA SHI","town":"KAYAHASHI","perfecture_jp":"千葉県","jp_add_1":"市原市","jp_add_2":"栢橋"},"2900213":{"post_code":"2900213","prefecture":"CHIBA KEN","city":"ICHIHARA SHI","town":"KAWAZAI","perfecture_jp":"千葉県","jp_add_1":"市原市","jp_add_2":"川在"},"2900178":{"post_code":"2900178","prefecture":"CHIBA KEN","city":"ICHIHARA SHI","town":"KANZAKI","perfecture_jp":"千葉県","jp_add_1":"市原市","jp_add_2":"神崎"},"2900007":{"post_code":"2900007","prefecture":"CHIBA KEN","city":"ICHIHARA SHI","town":"KIKUMA","perfecture_jp":"千葉県","jp_add_1":"市原市","jp_add_2":"菊間"},"2900167":{"post_code":"2900167","prefecture":"CHIBA KEN","city":"ICHIHARA SHI","town":"KITA","perfecture_jp":"千葉県","jp_add_1":"市原市","jp_add_2":"喜多"},"2900071":{"post_code":"2900071","prefecture":"CHIBA KEN","city":"ICHIHARA SHI","town":"KITAKOKUBUNJIDAI","perfecture_jp":"千葉県","jp_add_1":"市原市","jp_add_2":"北国分寺台"},"2900523":{"post_code":"2900523","prefecture":"CHIBA KEN","city":"ICHIHARA SHI","town":"KICHISAWA","perfecture_jp":"千葉県","jp_add_1":"市原市","jp_add_2":"吉沢"},"2900051":{"post_code":"2900051","prefecture":"CHIBA KEN","city":"ICHIHARA SHI","town":"KIMIZUKA","perfecture_jp":"千葉県","jp_add_1":"市原市","jp_add_2":"君塚"},"2900179":{"post_code":"2900179","prefecture":"CHIBA KEN","city":"ICHIHARA SHI","town":"KUGUTSU","perfecture_jp":"千葉県","jp_add_1":"市原市","jp_add_2":"久々津"},"2900156":{"post_code":"2900156","prefecture":"CHIBA KEN","city":"ICHIHARA SHI","town":"KUSAKARI(1656-1999)","perfecture_jp":"千葉県","jp_add_1":"市原市","jp_add_2":"草刈"},"2900001":{"post_code":"2900001","prefecture":"CHIBA KEN","city":"ICHIHARA SHI","town":"KUSAKARI(SONOTA)","perfecture_jp":"千葉県","jp_add_1":"市原市","jp_add_2":"草刈"},"2900552":{"post_code":"2900552","prefecture":"CHIBA KEN","city":"ICHIHARA SHI","town":"KUBO","perfecture_jp":"千葉県","jp_add_1":"市原市","jp_add_2":"久保"},"2900056":{"post_code":"2900056","prefecture":"CHIBA KEN","city":"ICHIHARA SHI","town":"GOI","perfecture_jp":"千葉県","jp_add_1":"市原市","jp_add_2":"五井"},"2900057":{"post_code":"2900057","prefecture":"CHIBA KEN","city":"ICHIHARA SHI","town":"GOI KANASUGI","perfecture_jp":"千葉県","jp_add_1":"市原市","jp_add_2":"五井金杉"},"2900081":{"post_code":"2900081","prefecture":"CHIBA KEN","city":"ICHIHARA SHI","town":"GOI CHUONISHI","perfecture_jp":"千葉県","jp_add_1":"市原市","jp_add_2":"五井中央西"},"2900054":{"post_code":"2900054","prefecture":"CHIBA KEN","city":"ICHIHARA SHI","town":"GOI CHUOHIGASHI","perfecture_jp":"千葉県","jp_add_1":"市原市","jp_add_2":"五井中央東"},"2900038":{"post_code":"2900038","prefecture":"CHIBA KEN","city":"ICHIHARA SHI","town":"GOI NISHI","perfecture_jp":"千葉県","jp_add_1":"市原市","jp_add_2":"五井西"},"2900055":{"post_code":"2900055","prefecture":"CHIBA KEN","city":"ICHIHARA SHI","town":"GOI HIGASHI","perfecture_jp":"千葉県","jp_add_1":"市原市","jp_add_2":"五井東"},"2900058":{"post_code":"2900058","prefecture":"CHIBA KEN","city":"ICHIHARA SHI","town":"GOIKAIGAN","perfecture_jp":"千葉県","jp_add_1":"市原市","jp_add_2":"五井海岸"},"2900045":{"post_code":"2900045","prefecture":"CHIBA KEN","city":"ICHIHARA SHI","town":"GOIMINAMIKAIGAN","perfecture_jp":"千葉県","jp_add_1":"市原市","jp_add_2":"五井南海岸"},"2900254":{"post_code":"2900254","prefecture":"CHIBA KEN","city":"ICHIHARA SHI","town":"KOZAKA","perfecture_jp":"千葉県","jp_add_1":"市原市","jp_add_2":"高坂"},"2900255":{"post_code":"2900255","prefecture":"CHIBA KEN","city":"ICHIHARA SHI","town":"KOFUDAI","perfecture_jp":"千葉県","jp_add_1":"市原市","jp_add_2":"光風台"},"2900269":{"post_code":"2900269","prefecture":"CHIBA KEN","city":"ICHIHARA SHI","town":"KORI","perfecture_jp":"千葉県","jp_add_1":"市原市","jp_add_2":"小折"},"2900013":{"post_code":"2900013","prefecture":"CHIBA KEN","city":"ICHIHARA SHI","town":"KORIMOTO","perfecture_jp":"千葉県","jp_add_1":"市原市","jp_add_2":"郡本"},"2900526":{"post_code":"2900526","prefecture":"CHIBA KEN","city":"ICHIHARA SHI","town":"KOKUSABATA","perfecture_jp":"千葉県","jp_add_1":"市原市","jp_add_2":"小草畑"},"2900073":{"post_code":"2900073","prefecture":"CHIBA KEN","city":"ICHIHARA SHI","town":"KOKUBUNJIDAICHUO","perfecture_jp":"千葉県","jp_add_1":"市原市","jp_add_2":"国分寺台中央"},"2900531":{"post_code":"2900531","prefecture":"CHIBA KEN","city":"ICHIHARA SHI","town":"KOKUMOTO","perfecture_jp":"千葉県","jp_add_1":"市原市","jp_add_2":"国本"},"2900528":{"post_code":"2900528","prefecture":"CHIBA KEN","city":"ICHIHARA SHI","town":"KOSHIKIYA","perfecture_jp":"千葉県","jp_add_1":"市原市","jp_add_2":"古敷谷"},"2900066":{"post_code":"2900066","prefecture":"CHIBA KEN","city":"ICHIHARA SHI","town":"GOSHO","perfecture_jp":"千葉県","jp_add_1":"市原市","jp_add_2":"五所"},"2900165":{"post_code":"2900165","prefecture":"CHIBA KEN","city":"ICHIHARA SHI","town":"KOTSUBE","perfecture_jp":"千葉県","jp_add_1":"市原市","jp_add_2":"古都辺"},"2900559":{"post_code":"2900559","prefecture":"CHIBA KEN","city":"ICHIHARA SHI","town":"KOMAGOME","perfecture_jp":"千葉県","jp_add_1":"市原市","jp_add_2":"駒込"},"2900529":{"post_code":"2900529","prefecture":"CHIBA KEN","city":"ICHIHARA SHI","town":"KOYATA","perfecture_jp":"千葉県","jp_add_1":"市原市","jp_add_2":"小谷田"},"2900209":{"post_code":"2900209","prefecture":"CHIBA KEN","city":"ICHIHARA SHI","town":"GONGENDO","perfecture_jp":"千葉県","jp_add_1":"市原市","jp_add_2":"権現堂"},"2900162":{"post_code":"2900162","prefecture":"CHIBA KEN","city":"ICHIHARA SHI","town":"KONGOJI","perfecture_jp":"千葉県","jp_add_1":"市原市","jp_add_2":"金剛地"},"2900022":{"post_code":"2900022","prefecture":"CHIBA KEN","city":"ICHIHARA SHI","town":"SAIHIRO","perfecture_jp":"千葉県","jp_add_1":"市原市","jp_add_2":"西広"},"2900229":{"post_code":"2900229","prefecture":"CHIBA KEN","city":"ICHIHARA SHI","town":"SAZE","perfecture_jp":"千葉県","jp_add_1":"市原市","jp_add_2":"佐是"},"2900050":{"post_code":"2900050","prefecture":"CHIBA KEN","city":"ICHIHARA SHI","town":"SARASHINA","perfecture_jp":"千葉県","jp_add_1":"市原市","jp_add_2":"更級"},"2900506":{"post_code":"2900506","prefecture":"CHIBA KEN","city":"ICHIHARA SHI","town":"SHIMADA","perfecture_jp":"千葉県","jp_add_1":"市原市","jp_add_2":"島田"},"2900034":{"post_code":"2900034","prefecture":"CHIBA KEN","city":"ICHIHARA SHI","town":"SHIMANO","perfecture_jp":"千葉県","jp_add_1":"市原市","jp_add_2":"島野"},"2900154":{"post_code":"2900154","prefecture":"CHIBA KEN","city":"ICHIHARA SHI","town":"SHIMONO","perfecture_jp":"千葉県","jp_add_1":"市原市","jp_add_2":"下野"},"2900518":{"post_code":"2900518","prefecture":"CHIBA KEN","city":"ICHIHARA SHI","town":"SHIMOYATA","perfecture_jp":"千葉県","jp_add_1":"市原市","jp_add_2":"下矢田"},"2900263":{"post_code":"2900263","prefecture":"CHIBA KEN","city":"ICHIHARA SHI","town":"JUGOZAWA","perfecture_jp":"千葉県","jp_add_1":"市原市","jp_add_2":"十五沢"},"2900503":{"post_code":"2900503","prefecture":"CHIBA KEN","city":"ICHIHARA SHI","town":"SHUKU","perfecture_jp":"千葉県","jp_add_1":"市原市","jp_add_2":"宿"},"2900059":{"post_code":"2900059","prefecture":"CHIBA KEN","city":"ICHIHARA SHI","town":"SHIROGANECHO","perfecture_jp":"千葉県","jp_add_1":"市原市","jp_add_2":"白金町"},"2900502":{"post_code":"2900502","prefecture":"CHIBA KEN","city":"ICHIHARA SHI","town":"SHINGAYA","perfecture_jp":"千葉県","jp_add_1":"市原市","jp_add_2":"真ケ谷"},"2900539":{"post_code":"2900539","prefecture":"CHIBA KEN","city":"ICHIHARA SHI","town":"SUGENO","perfecture_jp":"千葉県","jp_add_1":"市原市","jp_add_2":"菅野"},"2900026":{"post_code":"2900026","prefecture":"CHIBA KEN","city":"ICHIHARA SHI","town":"SUWA","perfecture_jp":"千葉県","jp_add_1":"市原市","jp_add_2":"諏訪"},"2900151":{"post_code":"2900151","prefecture":"CHIBA KEN","city":"ICHIHARA SHI","town":"SEMATA","perfecture_jp":"千葉県","jp_add_1":"市原市","jp_add_2":"瀬又"},"2900023":{"post_code":"2900023","prefecture":"CHIBA KEN","city":"ICHIHARA SHI","town":"SOJA","perfecture_jp":"千葉県","jp_add_1":"市原市","jp_add_2":"惣社"},"2900161":{"post_code":"2900161","prefecture":"CHIBA KEN","city":"ICHIHARA SHI","town":"TAKAKURA","perfecture_jp":"千葉県","jp_add_1":"市原市","jp_add_2":"高倉"},"2900555":{"post_code":"2900555","prefecture":"CHIBA KEN","city":"ICHIHARA SHI","town":"TAKATAKI","perfecture_jp":"千葉県","jp_add_1":"市原市","jp_add_2":"高滝"},"2900152":{"post_code":"2900152","prefecture":"CHIBA KEN","city":"ICHIHARA SHI","town":"TAKADA","perfecture_jp":"千葉県","jp_add_1":"市原市","jp_add_2":"高田"},"2900173":{"post_code":"2900173","prefecture":"CHIBA KEN","city":"ICHIHARA SHI","town":"TAKIGUCHI","perfecture_jp":"千葉県","jp_add_1":"市原市","jp_add_2":"滝口"},"2900203":{"post_code":"2900203","prefecture":"CHIBA KEN","city":"ICHIHARA SHI","town":"TAKESHI","perfecture_jp":"千葉県","jp_add_1":"市原市","jp_add_2":"武士"},"2900003":{"post_code":"2900003","prefecture":"CHIBA KEN","city":"ICHIHARA SHI","town":"TATSUMIDAI HIGASHI","perfecture_jp":"千葉県","jp_add_1":"市原市","jp_add_2":"辰巳台東"},"2900004":{"post_code":"2900004","prefecture":"CHIBA KEN","city":"ICHIHARA SHI","town":"TATSUMIDAI NISHI","perfecture_jp":"千葉県","jp_add_1":"市原市","jp_add_2":"辰巳台西"},"2900515":{"post_code":"2900515","prefecture":"CHIBA KEN","city":"ICHIHARA SHI","town":"TABI","perfecture_jp":"千葉県","jp_add_1":"市原市","jp_add_2":"田尾"},"2900546":{"post_code":"2900546","prefecture":"CHIBA KEN","city":"ICHIHARA SHI","town":"TABUCHI","perfecture_jp":"千葉県","jp_add_1":"市原市","jp_add_2":"田淵"},"2900545":{"post_code":"2900545","prefecture":"CHIBA KEN","city":"ICHIHARA SHI","town":"TABUCHIKYUHITAKE","perfecture_jp":"千葉県","jp_add_1":"市原市","jp_add_2":"田淵旧日竹"},"2900041":{"post_code":"2900041","prefecture":"CHIBA KEN","city":"ICHIHARA SHI","town":"TAMASAKI","perfecture_jp":"千葉県","jp_add_1":"市原市","jp_add_2":"玉前"},"2900044":{"post_code":"2900044","prefecture":"CHIBA KEN","city":"ICHIHARA SHI","town":"TAMASAKI NISHI","perfecture_jp":"千葉県","jp_add_1":"市原市","jp_add_2":"玉前西"},"2900143":{"post_code":"2900143","prefecture":"CHIBA KEN","city":"ICHIHARA SHI","town":"CHIHARADAI NISHI","perfecture_jp":"千葉県","jp_add_1":"市原市","jp_add_2":"ちはら台西"},"2900141":{"post_code":"2900141","prefecture":"CHIBA KEN","city":"ICHIHARA SHI","town":"CHIHARADAI HIGASHI","perfecture_jp":"千葉県","jp_add_1":"市原市","jp_add_2":"ちはら台東"},"2900142":{"post_code":"2900142","prefecture":"CHIBA KEN","city":"ICHIHARA SHI","town":"CHIHARADAI MINAMI","perfecture_jp":"千葉県","jp_add_1":"市原市","jp_add_2":"ちはら台南"},"2900032":{"post_code":"2900032","prefecture":"CHIBA KEN","city":"ICHIHARA SHI","town":"TSUIHEIJI","perfecture_jp":"千葉県","jp_add_1":"市原市","jp_add_2":"廿五里"},"2900547":{"post_code":"2900547","prefecture":"CHIBA KEN","city":"ICHIHARA SHI","town":"TSUKIZAKI","perfecture_jp":"千葉県","jp_add_1":"市原市","jp_add_2":"月崎"},"2900527":{"post_code":"2900527","prefecture":"CHIBA KEN","city":"ICHIHARA SHI","town":"TSUKIDE","perfecture_jp":"千葉県","jp_add_1":"市原市","jp_add_2":"月出"},"2900215":{"post_code":"2900215","prefecture":"CHIBA KEN","city":"ICHIHARA SHI","town":"TSUCHIU","perfecture_jp":"千葉県","jp_add_1":"市原市","jp_add_2":"土宇"},"2900512":{"post_code":"2900512","prefecture":"CHIBA KEN","city":"ICHIHARA SHI","town":"TSURUMAI","perfecture_jp":"千葉県","jp_add_1":"市原市","jp_add_2":"鶴舞"},"2900042":{"post_code":"2900042","prefecture":"CHIBA KEN","city":"ICHIHARA SHI","town":"DEZU","perfecture_jp":"千葉県","jp_add_1":"市原市","jp_add_2":"出津"},"2900043":{"post_code":"2900043","prefecture":"CHIBA KEN","city":"ICHIHARA SHI","town":"DEZUNISHI","perfecture_jp":"千葉県","jp_add_1":"市原市","jp_add_2":"出津西"},"2900236":{"post_code":"2900236","prefecture":"CHIBA KEN","city":"ICHIHARA SHI","town":"TERAYATSU","perfecture_jp":"千葉県","jp_add_1":"市原市","jp_add_2":"寺谷"},"2900544":{"post_code":"2900544","prefecture":"CHIBA KEN","city":"ICHIHARA SHI","town":"TOKUJI","perfecture_jp":"千葉県","jp_add_1":"市原市","jp_add_2":"徳氏"},"2900536":{"post_code":"2900536","prefecture":"CHIBA KEN","city":"ICHIHARA SHI","town":"TOZURA","perfecture_jp":"千葉県","jp_add_1":"市原市","jp_add_2":"戸面"},"2900551":{"post_code":"2900551","prefecture":"CHIBA KEN","city":"ICHIHARA SHI","town":"TONOBETA","perfecture_jp":"千葉県","jp_add_1":"市原市","jp_add_2":"外部田"},"2900226":{"post_code":"2900226","prefecture":"CHIBA KEN","city":"ICHIHARA SHI","town":"NAKA","perfecture_jp":"千葉県","jp_add_1":"市原市","jp_add_2":"中"},"2900242":{"post_code":"2900242","prefecture":"CHIBA KEN","city":"ICHIHARA SHI","town":"NAKATAKANE","perfecture_jp":"千葉県","jp_add_1":"市原市","jp_add_2":"中高根"},"2900153":{"post_code":"2900153","prefecture":"CHIBA KEN","city":"ICHIHARA SHI","town":"NAKANO","perfecture_jp":"千葉県","jp_add_1":"市原市","jp_add_2":"中野"},"2900168":{"post_code":"2900168","prefecture":"CHIBA KEN","city":"ICHIHARA SHI","town":"NAGAYOSHI","perfecture_jp":"千葉県","jp_add_1":"市原市","jp_add_2":"永吉"},"2900164":{"post_code":"2900164","prefecture":"CHIBA KEN","city":"ICHIHARA SHI","town":"NARA","perfecture_jp":"千葉県","jp_add_1":"市原市","jp_add_2":"奈良"},"2900206":{"post_code":"2900206","prefecture":"CHIBA KEN","city":"ICHIHARA SHI","town":"NIIHORI","perfecture_jp":"千葉県","jp_add_1":"市原市","jp_add_2":"新堀"},"2900231":{"post_code":"2900231","prefecture":"CHIBA KEN","city":"ICHIHARA SHI","town":"NISHIKUNIYOSHI","perfecture_jp":"千葉県","jp_add_1":"市原市","jp_add_2":"西国吉"},"2900072":{"post_code":"2900072","prefecture":"CHIBA KEN","city":"ICHIHARA SHI","town":"NISHIKOKUBUNJIDAI","perfecture_jp":"千葉県","jp_add_1":"市原市","jp_add_2":"西国分寺台"},"2900065":{"post_code":"2900065","prefecture":"CHIBA KEN","city":"ICHIHARA SHI","town":"NISHIGOSHO","perfecture_jp":"千葉県","jp_add_1":"市原市","jp_add_2":"西五所"},"2900261":{"post_code":"2900261","prefecture":"CHIBA KEN","city":"ICHIHARA SHI","town":"NISHINO","perfecture_jp":"千葉県","jp_add_1":"市原市","jp_add_2":"西野"},"2900014":{"post_code":"2900014","prefecture":"CHIBA KEN","city":"ICHIHARA SHI","town":"NISHINOYA","perfecture_jp":"千葉県","jp_add_1":"市原市","jp_add_2":"西野谷"},"2900024":{"post_code":"2900024","prefecture":"CHIBA KEN","city":"ICHIHARA SHI","town":"NEDA","perfecture_jp":"千葉県","jp_add_1":"市原市","jp_add_2":"根田"},"2900011":{"post_code":"2900011","prefecture":"CHIBA KEN","city":"ICHIHARA SHI","town":"NOMAN","perfecture_jp":"千葉県","jp_add_1":"市原市","jp_add_2":"能満"},"2900033":{"post_code":"2900033","prefecture":"CHIBA KEN","city":"ICHIHARA SHI","town":"NOGE","perfecture_jp":"千葉県","jp_add_1":"市原市","jp_add_2":"野毛"},"2900175":{"post_code":"2900175","prefecture":"CHIBA KEN","city":"ICHIHARA SHI","town":"HAGI","perfecture_jp":"千葉県","jp_add_1":"市原市","jp_add_2":"葉木"},"2900507":{"post_code":"2900507","prefecture":"CHIBA KEN","city":"ICHIHARA SHI","town":"HARADA","perfecture_jp":"千葉県","jp_add_1":"市原市","jp_add_2":"原田"},"2900155":{"post_code":"2900155","prefecture":"CHIBA KEN","city":"ICHIHARA SHI","town":"BAMBA","perfecture_jp":"千葉県","jp_add_1":"市原市","jp_add_2":"番場"},"2900163":{"post_code":"2900163","prefecture":"CHIBA KEN","city":"ICHIHARA SHI","town":"HIGASHIKUNIYOSHI","perfecture_jp":"千葉県","jp_add_1":"市原市","jp_add_2":"東国吉"},"2900074":{"post_code":"2900074","prefecture":"CHIBA KEN","city":"ICHIHARA SHI","town":"HIGASHIKOKUBUNJIDAI","perfecture_jp":"千葉県","jp_add_1":"市原市","jp_add_2":"東国分寺台"},"2900064":{"post_code":"2900064","prefecture":"CHIBA KEN","city":"ICHIHARA SHI","town":"HIGASHIGOSHO","perfecture_jp":"千葉県","jp_add_1":"市原市","jp_add_2":"東五所"},"2900256":{"post_code":"2900256","prefecture":"CHIBA KEN","city":"ICHIHARA SHI","town":"HIKIDA","perfecture_jp":"千葉県","jp_add_1":"市原市","jp_add_2":"引田"},"2900214":{"post_code":"2900214","prefecture":"CHIBA KEN","city":"ICHIHARA SHI","town":"HITSUBA","perfecture_jp":"千葉県","jp_add_1":"市原市","jp_add_2":"櫃挾"},"2900053":{"post_code":"2900053","prefecture":"CHIBA KEN","city":"ICHIHARA SHI","town":"HIRATA","perfecture_jp":"千葉県","jp_add_1":"市原市","jp_add_2":"平田"},"2900541":{"post_code":"2900541","prefecture":"CHIBA KEN","city":"ICHIHARA SHI","town":"HIRANO","perfecture_jp":"千葉県","jp_add_1":"市原市","jp_add_2":"平野"},"2900202":{"post_code":"2900202","prefecture":"CHIBA KEN","city":"ICHIHARA SHI","town":"FUKUMASU","perfecture_jp":"千葉県","jp_add_1":"市原市","jp_add_2":"福増"},"2900012":{"post_code":"2900012","prefecture":"CHIBA KEN","city":"ICHIHARA SHI","town":"FUJII","perfecture_jp":"千葉県","jp_add_1":"市原市","jp_add_2":"藤井"},"2900216":{"post_code":"2900216","prefecture":"CHIBA KEN","city":"ICHIHARA SHI","town":"FUTSUKAICHIBA","perfecture_jp":"千葉県","jp_add_1":"市原市","jp_add_2":"二日市場"},"2900554":{"post_code":"2900554","prefecture":"CHIBA KEN","city":"ICHIHARA SHI","town":"FUNYU","perfecture_jp":"千葉県","jp_add_1":"市原市","jp_add_2":"不入"},"2900008":{"post_code":"2900008","prefecture":"CHIBA KEN","city":"ICHIHARA SHI","town":"FURUICHIBA","perfecture_jp":"千葉県","jp_add_1":"市原市","jp_add_2":"古市場"},"2900524":{"post_code":"2900524","prefecture":"CHIBA KEN","city":"ICHIHARA SHI","town":"HEIZO","perfecture_jp":"千葉県","jp_add_1":"市原市","jp_add_2":"平蔵"},"2900224":{"post_code":"2900224","prefecture":"CHIBA KEN","city":"ICHIHARA SHI","town":"HOME","perfecture_jp":"千葉県","jp_add_1":"市原市","jp_add_2":"奉免"},"2900504":{"post_code":"2900504","prefecture":"CHIBA KEN","city":"ICHIHARA SHI","town":"HORIKOSHI","perfecture_jp":"千葉県","jp_add_1":"市原市","jp_add_2":"堀越"},"2900556":{"post_code":"2900556","prefecture":"CHIBA KEN","city":"ICHIHARA SHI","town":"HONGO","perfecture_jp":"千葉県","jp_add_1":"市原市","jp_add_2":"本郷"},"2900267":{"post_code":"2900267","prefecture":"CHIBA KEN","city":"ICHIHARA SHI","town":"MACHIDA","perfecture_jp":"千葉県","jp_add_1":"市原市","jp_add_2":"町田"},"2900035":{"post_code":"2900035","prefecture":"CHIBA KEN","city":"ICHIHARA SHI","town":"MATSUGASHIMA","perfecture_jp":"千葉県","jp_add_1":"市原市","jp_add_2":"松ケ島"},"2900036":{"post_code":"2900036","prefecture":"CHIBA KEN","city":"ICHIHARA SHI","town":"MATSUGASHIMA NISHI","perfecture_jp":"千葉県","jp_add_1":"市原市","jp_add_2":"松ケ島西"},"2900217":{"post_code":"2900217","prefecture":"CHIBA KEN","city":"ICHIHARA SHI","town":"MATSUZAKI","perfecture_jp":"千葉県","jp_add_1":"市原市","jp_add_2":"松崎"},"2900549":{"post_code":"2900549","prefecture":"CHIBA KEN","city":"ICHIHARA SHI","town":"MANDANO","perfecture_jp":"千葉県","jp_add_1":"市原市","jp_add_2":"万田野"},"2900514":{"post_code":"2900514","prefecture":"CHIBA KEN","city":"ICHIHARA SHI","town":"MIZUSAWA","perfecture_jp":"千葉県","jp_add_1":"市原市","jp_add_2":"水沢"},"2900244":{"post_code":"2900244","prefecture":"CHIBA KEN","city":"ICHIHARA SHI","town":"MINAMIIWASAKI","perfecture_jp":"千葉県","jp_add_1":"市原市","jp_add_2":"南岩崎"},"2900075":{"post_code":"2900075","prefecture":"CHIBA KEN","city":"ICHIHARA SHI","town":"MINAMIKOKUBUNJIDAI","perfecture_jp":"千葉県","jp_add_1":"市原市","jp_add_2":"南国分寺台"},"2900232":{"post_code":"2900232","prefecture":"CHIBA KEN","city":"ICHIHARA SHI","town":"MINAYOSHI","perfecture_jp":"千葉県","jp_add_1":"市原市","jp_add_2":"皆吉"},"2900264":{"post_code":"2900264","prefecture":"CHIBA KEN","city":"ICHIHARA SHI","town":"MIYABARA","perfecture_jp":"千葉県","jp_add_1":"市原市","jp_add_2":"宮原"},"2900223":{"post_code":"2900223","prefecture":"CHIBA KEN","city":"ICHIHARA SHI","town":"MYOKO","perfecture_jp":"千葉県","jp_add_1":"市原市","jp_add_2":"妙香"},"2900031":{"post_code":"2900031","prefecture":"CHIBA KEN","city":"ICHIHARA SHI","town":"MURAKAMI","perfecture_jp":"千葉県","jp_add_1":"市原市","jp_add_2":"村上"},"2900016":{"post_code":"2900016","prefecture":"CHIBA KEN","city":"ICHIHARA SHI","town":"MONZEN","perfecture_jp":"千葉県","jp_add_1":"市原市","jp_add_2":"門前"},"2900517":{"post_code":"2900517","prefecture":"CHIBA KEN","city":"ICHIHARA SHI","town":"YATA","perfecture_jp":"千葉県","jp_add_1":"市原市","jp_add_2":"矢田"},"2900538":{"post_code":"2900538","prefecture":"CHIBA KEN","city":"ICHIHARA SHI","town":"YANAGAWA","perfecture_jp":"千葉県","jp_add_1":"市原市","jp_add_2":"柳川"},"2900268":{"post_code":"2900268","prefecture":"CHIBA KEN","city":"ICHIHARA SHI","town":"YANAGIHARA","perfecture_jp":"千葉県","jp_add_1":"市原市","jp_add_2":"柳原"},"2900227":{"post_code":"2900227","prefecture":"CHIBA KEN","city":"ICHIHARA SHI","town":"YABU","perfecture_jp":"千葉県","jp_add_1":"市原市","jp_add_2":"藪"},"2900005":{"post_code":"2900005","prefecture":"CHIBA KEN","city":"ICHIHARA SHI","town":"YAMAKI","perfecture_jp":"千葉県","jp_add_1":"市原市","jp_add_2":"山木"},"2900201":{"post_code":"2900201","prefecture":"CHIBA KEN","city":"ICHIHARA SHI","town":"YAMAKURA","perfecture_jp":"千葉県","jp_add_1":"市原市","jp_add_2":"山倉"},"2900558":{"post_code":"2900558","prefecture":"CHIBA KEN","city":"ICHIHARA SHI","town":"YAMAGUCHI","perfecture_jp":"千葉県","jp_add_1":"市原市","jp_add_2":"山口"},"2900521":{"post_code":"2900521","prefecture":"CHIBA KEN","city":"ICHIHARA SHI","town":"YAMAKOGAWA","perfecture_jp":"千葉県","jp_add_1":"市原市","jp_add_2":"山小川"},"2900205":{"post_code":"2900205","prefecture":"CHIBA KEN","city":"ICHIHARA SHI","town":"YAMADA","perfecture_jp":"千葉県","jp_add_1":"市原市","jp_add_2":"山田"},"2900021":{"post_code":"2900021","prefecture":"CHIBA KEN","city":"ICHIHARA SHI","town":"YAMADABASHI","perfecture_jp":"千葉県","jp_add_1":"市原市","jp_add_2":"山田橋"},"2900062":{"post_code":"2900062","prefecture":"CHIBA KEN","city":"ICHIHARA SHI","town":"YAWATA","perfecture_jp":"千葉県","jp_add_1":"市原市","jp_add_2":"八幡"},"2900061":{"post_code":"2900061","prefecture":"CHIBA KEN","city":"ICHIHARA SHI","town":"YAWATA ISHIZUKA","perfecture_jp":"千葉県","jp_add_1":"市原市","jp_add_2":"八幡石塚"},"2900067":{"post_code":"2900067","prefecture":"CHIBA KEN","city":"ICHIHARA SHI","town":"YAWATA KAIGANDORI","perfecture_jp":"千葉県","jp_add_1":"市原市","jp_add_2":"八幡海岸通"},"2900069":{"post_code":"2900069","prefecture":"CHIBA KEN","city":"ICHIHARA SHI","town":"YAWATA KITACHO","perfecture_jp":"千葉県","jp_add_1":"市原市","jp_add_2":"八幡北町"},"2900068":{"post_code":"2900068","prefecture":"CHIBA KEN","city":"ICHIHARA SHI","town":"YAWATAURA","perfecture_jp":"千葉県","jp_add_1":"市原市","jp_add_2":"八幡浦"},"2900557":{"post_code":"2900557","prefecture":"CHIBA KEN","city":"ICHIHARA SHI","town":"YORO","perfecture_jp":"千葉県","jp_add_1":"市原市","jp_add_2":"養老"},"2900501":{"post_code":"2900501","prefecture":"CHIBA KEN","city":"ICHIHARA SHI","town":"YONEZAWA","perfecture_jp":"千葉県","jp_add_1":"市原市","jp_add_2":"米沢"},"2900525":{"post_code":"2900525","prefecture":"CHIBA KEN","city":"ICHIHARA SHI","town":"YONEWARA","perfecture_jp":"千葉県","jp_add_1":"市原市","jp_add_2":"米原"},"2900006":{"post_code":"2900006","prefecture":"CHIBA KEN","city":"ICHIHARA SHI","town":"WAKAMIYA","perfecture_jp":"千葉県","jp_add_1":"市原市","jp_add_2":"若宮"},"2900259":{"post_code":"2900259","prefecture":"CHIBA KEN","city":"ICHIHARA SHI","town":"WAMME","perfecture_jp":"千葉県","jp_add_1":"市原市","jp_add_2":"分目"}}