{"2920000":{"post_code":"2920000","prefecture":"CHIBA KEN","city":"KISARAZU SHI","town":"IKANIKEISAIGANAIBAAI","perfecture_jp":"千葉県","jp_add_1":"木更津市","jp_add_2":""},"2920055":{"post_code":"2920055","prefecture":"CHIBA KEN","city":"KISARAZU SHI","town":"ASAHI","perfecture_jp":"千葉県","jp_add_1":"木更津市","jp_add_2":"朝日"},"2920065":{"post_code":"2920065","prefecture":"CHIBA KEN","city":"KISARAZU SHI","town":"AZUMA","perfecture_jp":"千葉県","jp_add_1":"木更津市","jp_add_2":"吾妻"},"2920021":{"post_code":"2920021","prefecture":"CHIBA KEN","city":"KISARAZU SHI","town":"ARIYOSHI","perfecture_jp":"千葉県","jp_add_1":"木更津市","jp_add_2":"有吉"},"2920026":{"post_code":"2920026","prefecture":"CHIBA KEN","city":"KISARAZU SHI","town":"IJIRI","perfecture_jp":"千葉県","jp_add_1":"木更津市","jp_add_2":"井尻"},"2920034":{"post_code":"2920034","prefecture":"CHIBA KEN","city":"KISARAZU SHI","town":"IZUSHIMA","perfecture_jp":"千葉県","jp_add_1":"木更津市","jp_add_2":"伊豆島"},"2920061":{"post_code":"2920061","prefecture":"CHIBA KEN","city":"KISARAZU SHI","town":"IWANE","perfecture_jp":"千葉県","jp_add_1":"木更津市","jp_add_2":"岩根"},"2920033":{"post_code":"2920033","prefecture":"CHIBA KEN","city":"KISARAZU SHI","town":"INNARI","perfecture_jp":"千葉県","jp_add_1":"木更津市","jp_add_2":"犬成"},"2920001":{"post_code":"2920001","prefecture":"CHIBA KEN","city":"KISARAZU SHI","town":"USHIGOME","perfecture_jp":"千葉県","jp_add_1":"木更津市","jp_add_2":"牛込"},"2920012":{"post_code":"2920012","prefecture":"CHIBA KEN","city":"KISARAZU SHI","town":"USHIBUKURO","perfecture_jp":"千葉県","jp_add_1":"木更津市","jp_add_2":"牛袋"},"2920011":{"post_code":"2920011","prefecture":"CHIBA KEN","city":"KISARAZU SHI","town":"USHIBUKURONO","perfecture_jp":"千葉県","jp_add_1":"木更津市","jp_add_2":"牛袋野"},"2920007":{"post_code":"2920007","prefecture":"CHIBA KEN","city":"KISARAZU SHI","town":"URIKURA","perfecture_jp":"千葉県","jp_add_1":"木更津市","jp_add_2":"瓜倉"},"2920063":{"post_code":"2920063","prefecture":"CHIBA KEN","city":"KISARAZU SHI","town":"EGAWA","perfecture_jp":"千葉県","jp_add_1":"木更津市","jp_add_2":"江川"},"2920211":{"post_code":"2920211","prefecture":"CHIBA KEN","city":"KISARAZU SHI","town":"OINE","perfecture_jp":"千葉県","jp_add_1":"木更津市","jp_add_2":"大稲"},"2920815":{"post_code":"2920815","prefecture":"CHIBA KEN","city":"KISARAZU SHI","town":"OKUBO","perfecture_jp":"千葉県","jp_add_1":"木更津市","jp_add_2":"大久保"},"2920044":{"post_code":"2920044","prefecture":"CHIBA KEN","city":"KISARAZU SHI","town":"ODA","perfecture_jp":"千葉県","jp_add_1":"木更津市","jp_add_2":"太田"},"2920024":{"post_code":"2920024","prefecture":"CHIBA KEN","city":"KISARAZU SHI","town":"OTERA","perfecture_jp":"千葉県","jp_add_1":"木更津市","jp_add_2":"大寺"},"2920833":{"post_code":"2920833","prefecture":"CHIBA KEN","city":"KISARAZU SHI","town":"KAIFUCHI","perfecture_jp":"千葉県","jp_add_1":"木更津市","jp_add_2":"貝渕"},"2920818":{"post_code":"2920818","prefecture":"CHIBA KEN","city":"KISARAZU SHI","town":"KAZUSAKAMATARI","perfecture_jp":"千葉県","jp_add_1":"木更津市","jp_add_2":"かずさ鎌足"},"2920009":{"post_code":"2920009","prefecture":"CHIBA KEN","city":"KISARAZU SHI","town":"KANEDAHIGASHI","perfecture_jp":"千葉県","jp_add_1":"木更津市","jp_add_2":"金田東"},"2920813":{"post_code":"2920813","prefecture":"CHIBA KEN","city":"KISARAZU SHI","town":"KAMIKARASUDA","perfecture_jp":"千葉県","jp_add_1":"木更津市","jp_add_2":"上烏田"},"2920215":{"post_code":"2920215","prefecture":"CHIBA KEN","city":"KISARAZU SHI","town":"KAMINEGISHI","perfecture_jp":"千葉県","jp_add_1":"木更津市","jp_add_2":"上根岸"},"2920022":{"post_code":"2920022","prefecture":"CHIBA KEN","city":"KISARAZU SHI","town":"KAMIMODA","perfecture_jp":"千葉県","jp_add_1":"木更津市","jp_add_2":"上望陀"},"2920204":{"post_code":"2920204","prefecture":"CHIBA KEN","city":"KISARAZU SHI","town":"KAYANO","perfecture_jp":"千葉県","jp_add_1":"木更津市","jp_add_2":"茅野"},"2920202":{"post_code":"2920202","prefecture":"CHIBA KEN","city":"KISARAZU SHI","town":"KAYANONANAMAGARI","perfecture_jp":"千葉県","jp_add_1":"木更津市","jp_add_2":"茅野七曲"},"2920052":{"post_code":"2920052","prefecture":"CHIBA KEN","city":"KISARAZU SHI","town":"GION","perfecture_jp":"千葉県","jp_add_1":"木更津市","jp_add_2":"祇園"},"2920056":{"post_code":"2920056","prefecture":"CHIBA KEN","city":"KISARAZU SHI","town":"KISARAZU","perfecture_jp":"千葉県","jp_add_1":"木更津市","jp_add_2":"木更津"},"2920006":{"post_code":"2920006","prefecture":"CHIBA KEN","city":"KISARAZU SHI","town":"KITAHAMACHO","perfecture_jp":"千葉県","jp_add_1":"木更津市","jp_add_2":"北浜町"},"2920051":{"post_code":"2920051","prefecture":"CHIBA KEN","city":"KISARAZU SHI","town":"KIYOKAWA","perfecture_jp":"千葉県","jp_add_1":"木更津市","jp_add_2":"清川"},"2920045":{"post_code":"2920045","prefecture":"CHIBA KEN","city":"KISARAZU SHI","town":"KIYOMIDAI","perfecture_jp":"千葉県","jp_add_1":"木更津市","jp_add_2":"清見台"},"2920041":{"post_code":"2920041","prefecture":"CHIBA KEN","city":"KISARAZU SHI","town":"KIYOMIDAI HIGASHI","perfecture_jp":"千葉県","jp_add_1":"木更津市","jp_add_2":"清見台東"},"2920042":{"post_code":"2920042","prefecture":"CHIBA KEN","city":"KISARAZU SHI","town":"KIYOMIDAI MINAMI","perfecture_jp":"千葉県","jp_add_1":"木更津市","jp_add_2":"清見台南"},"2920811":{"post_code":"2920811","prefecture":"CHIBA KEN","city":"KISARAZU SHI","town":"KUSAJIKI","perfecture_jp":"千葉県","jp_add_1":"木更津市","jp_add_2":"草敷"},"2920004":{"post_code":"2920004","prefecture":"CHIBA KEN","city":"KISARAZU SHI","town":"KUZUMA","perfecture_jp":"千葉県","jp_add_1":"木更津市","jp_add_2":"久津間"},"2920005":{"post_code":"2920005","prefecture":"CHIBA KEN","city":"KISARAZU SHI","town":"KUROTO","perfecture_jp":"千葉県","jp_add_1":"木更津市","jp_add_2":"畔戸"},"2920213":{"post_code":"2920213","prefecture":"CHIBA KEN","city":"KISARAZU SHI","town":"GENAIBASHI","perfecture_jp":"千葉県","jp_add_1":"木更津市","jp_add_2":"下内橋"},"2920827":{"post_code":"2920827","prefecture":"CHIBA KEN","city":"KISARAZU SHI","town":"KONANDAI","perfecture_jp":"千葉県","jp_add_1":"木更津市","jp_add_2":"港南台"},"2920824":{"post_code":"2920824","prefecture":"CHIBA KEN","city":"KISARAZU SHI","town":"KOBAMA","perfecture_jp":"千葉県","jp_add_1":"木更津市","jp_add_2":"小浜"},"2920803":{"post_code":"2920803","prefecture":"CHIBA KEN","city":"KISARAZU SHI","town":"SAIWAICHO","perfecture_jp":"千葉県","jp_add_1":"木更津市","jp_add_2":"幸町"},"2920822":{"post_code":"2920822","prefecture":"CHIBA KEN","city":"KISARAZU SHI","town":"SAKURAI","perfecture_jp":"千葉県","jp_add_1":"木更津市","jp_add_2":"桜井"},"2920823":{"post_code":"2920823","prefecture":"CHIBA KEN","city":"KISARAZU SHI","town":"SAKURAISHIMMACHI","perfecture_jp":"千葉県","jp_add_1":"木更津市","jp_add_2":"桜井新町"},"2920821":{"post_code":"2920821","prefecture":"CHIBA KEN","city":"KISARAZU SHI","town":"SAKURAMACHI","perfecture_jp":"千葉県","jp_add_1":"木更津市","jp_add_2":"桜町"},"2920032":{"post_code":"2920032","prefecture":"CHIBA KEN","city":"KISARAZU SHI","town":"SASAGO","perfecture_jp":"千葉県","jp_add_1":"木更津市","jp_add_2":"笹子"},"2920206":{"post_code":"2920206","prefecture":"CHIBA KEN","city":"KISARAZU SHI","town":"SANO","perfecture_jp":"千葉県","jp_add_1":"木更津市","jp_add_2":"佐野"},"2920838":{"post_code":"2920838","prefecture":"CHIBA KEN","city":"KISARAZU SHI","town":"SHIOHAMA","perfecture_jp":"千葉県","jp_add_1":"木更津市","jp_add_2":"潮浜"},"2920834":{"post_code":"2920834","prefecture":"CHIBA KEN","city":"KISARAZU SHI","town":"SHIOMI","perfecture_jp":"千葉県","jp_add_1":"木更津市","jp_add_2":"潮見"},"2920816":{"post_code":"2920816","prefecture":"CHIBA KEN","city":"KISARAZU SHI","town":"SHIMOKARASUDA","perfecture_jp":"千葉県","jp_add_1":"木更津市","jp_add_2":"下烏田"},"2920205":{"post_code":"2920205","prefecture":"CHIBA KEN","city":"KISARAZU SHI","town":"SHIMOGORI","perfecture_jp":"千葉県","jp_add_1":"木更津市","jp_add_2":"下郡"},"2920217":{"post_code":"2920217","prefecture":"CHIBA KEN","city":"KISARAZU SHI","town":"SHIMOMIYADA","perfecture_jp":"千葉県","jp_add_1":"木更津市","jp_add_2":"下宮田"},"2920023":{"post_code":"2920023","prefecture":"CHIBA KEN","city":"KISARAZU SHI","town":"SHIMOMODA","perfecture_jp":"千葉県","jp_add_1":"木更津市","jp_add_2":"下望陀"},"2920801":{"post_code":"2920801","prefecture":"CHIBA KEN","city":"KISARAZU SHI","town":"JOZAI","perfecture_jp":"千葉県","jp_add_1":"木更津市","jp_add_2":"請西"},"2920806":{"post_code":"2920806","prefecture":"CHIBA KEN","city":"KISARAZU SHI","town":"JOZAI HIGASHI","perfecture_jp":"千葉県","jp_add_1":"木更津市","jp_add_2":"請西東"},"2920807":{"post_code":"2920807","prefecture":"CHIBA KEN","city":"KISARAZU SHI","town":"JOZAI MINAMI","perfecture_jp":"千葉県","jp_add_1":"木更津市","jp_add_2":"請西南"},"2920066":{"post_code":"2920066","prefecture":"CHIBA KEN","city":"KISARAZU SHI","town":"SHINJUKU","perfecture_jp":"千葉県","jp_add_1":"木更津市","jp_add_2":"新宿"},"2920832":{"post_code":"2920832","prefecture":"CHIBA KEN","city":"KISARAZU SHI","town":"SHINDEN","perfecture_jp":"千葉県","jp_add_1":"木更津市","jp_add_2":"新田"},"2920836":{"post_code":"2920836","prefecture":"CHIBA KEN","city":"KISARAZU SHI","town":"SHIMMINATO","perfecture_jp":"千葉県","jp_add_1":"木更津市","jp_add_2":"新港"},"2920036":{"post_code":"2920036","prefecture":"CHIBA KEN","city":"KISARAZU SHI","town":"SUGO","perfecture_jp":"千葉県","jp_add_1":"木更津市","jp_add_2":"菅生"},"2920027":{"post_code":"2920027","prefecture":"CHIBA KEN","city":"KISARAZU SHI","town":"SONE","perfecture_jp":"千葉県","jp_add_1":"木更津市","jp_add_2":"曽根"},"2920016":{"post_code":"2920016","prefecture":"CHIBA KEN","city":"KISARAZU SHI","town":"TAKASAGO","perfecture_jp":"千葉県","jp_add_1":"木更津市","jp_add_2":"高砂"},"2920014":{"post_code":"2920014","prefecture":"CHIBA KEN","city":"KISARAZU SHI","town":"TAKAYANAGI","perfecture_jp":"千葉県","jp_add_1":"木更津市","jp_add_2":"高柳"},"2920207":{"post_code":"2920207","prefecture":"CHIBA KEN","city":"KISARAZU SHI","town":"TAGAWA","perfecture_jp":"千葉県","jp_add_1":"木更津市","jp_add_2":"田川"},"2920067":{"post_code":"2920067","prefecture":"CHIBA KEN","city":"KISARAZU SHI","town":"CHUO","perfecture_jp":"千葉県","jp_add_1":"木更津市","jp_add_2":"中央"},"2920835":{"post_code":"2920835","prefecture":"CHIBA KEN","city":"KISARAZU SHI","town":"TSUKIJI","perfecture_jp":"千葉県","jp_add_1":"木更津市","jp_add_2":"築地"},"2920031":{"post_code":"2920031","prefecture":"CHIBA KEN","city":"KISARAZU SHI","town":"TSUBAKI","perfecture_jp":"千葉県","jp_add_1":"木更津市","jp_add_2":"椿"},"2920025":{"post_code":"2920025","prefecture":"CHIBA KEN","city":"KISARAZU SHI","town":"TOKAICHIBA","perfecture_jp":"千葉県","jp_add_1":"木更津市","jp_add_2":"十日市場"},"2920214":{"post_code":"2920214","prefecture":"CHIBA KEN","city":"KISARAZU SHI","town":"TOKUNI","perfecture_jp":"千葉県","jp_add_1":"木更津市","jp_add_2":"戸国"},"2920035":{"post_code":"2920035","prefecture":"CHIBA KEN","city":"KISARAZU SHI","town":"NAKAO","perfecture_jp":"千葉県","jp_add_1":"木更津市","jp_add_2":"中尾"},"2920817":{"post_code":"2920817","prefecture":"CHIBA KEN","city":"KISARAZU SHI","town":"NAKAKARASUDA","perfecture_jp":"千葉県","jp_add_1":"木更津市","jp_add_2":"中烏田"},"2920064":{"post_code":"2920064","prefecture":"CHIBA KEN","city":"KISARAZU SHI","town":"NAKAZATO","perfecture_jp":"千葉県","jp_add_1":"木更津市","jp_add_2":"中里"},"2920008":{"post_code":"2920008","prefecture":"CHIBA KEN","city":"KISARAZU SHI","town":"NAKAJIMA","perfecture_jp":"千葉県","jp_add_1":"木更津市","jp_add_2":"中島"},"2920071":{"post_code":"2920071","prefecture":"CHIBA KEN","city":"KISARAZU SHI","town":"NAKAJIMACHISAKIUMIHOTARU","perfecture_jp":"千葉県","jp_add_1":"木更津市","jp_add_2":"中島地先海ほたる"},"2920002":{"post_code":"2920002","prefecture":"CHIBA KEN","city":"KISARAZU SHI","town":"NAKANO","perfecture_jp":"千葉県","jp_add_1":"木更津市","jp_add_2":"中野"},"2920839":{"post_code":"2920839","prefecture":"CHIBA KEN","city":"KISARAZU SHI","town":"NAKANOSHIMA","perfecture_jp":"千葉県","jp_add_1":"木更津市","jp_add_2":"中の島"},"2920053":{"post_code":"2920053","prefecture":"CHIBA KEN","city":"KISARAZU SHI","town":"NAGAISAKU","perfecture_jp":"千葉県","jp_add_1":"木更津市","jp_add_2":"永井作"},"2920054":{"post_code":"2920054","prefecture":"CHIBA KEN","city":"KISARAZU SHI","town":"NAGASUKA","perfecture_jp":"千葉県","jp_add_1":"木更津市","jp_add_2":"長須賀"},"2920062":{"post_code":"2920062","prefecture":"CHIBA KEN","city":"KISARAZU SHI","town":"NISHIIWANE","perfecture_jp":"千葉県","jp_add_1":"木更津市","jp_add_2":"西岩根"},"2920216":{"post_code":"2920216","prefecture":"CHIBA KEN","city":"KISARAZU SHI","town":"NEGISHI","perfecture_jp":"千葉県","jp_add_1":"木更津市","jp_add_2":"根岸"},"2920825":{"post_code":"2920825","prefecture":"CHIBA KEN","city":"KISARAZU SHI","town":"HATAZAWA","perfecture_jp":"千葉県","jp_add_1":"木更津市","jp_add_2":"畑沢"},"2920826":{"post_code":"2920826","prefecture":"CHIBA KEN","city":"KISARAZU SHI","town":"HATAZAWAMINAMI","perfecture_jp":"千葉県","jp_add_1":"木更津市","jp_add_2":"畑沢南"},"2920814":{"post_code":"2920814","prefecture":"CHIBA KEN","city":"KISARAZU SHI","town":"HACHIMANDAI","perfecture_jp":"千葉県","jp_add_1":"木更津市","jp_add_2":"八幡台"},"2920819":{"post_code":"2920819","prefecture":"CHIBA KEN","city":"KISARAZU SHI","town":"HATORINO","perfecture_jp":"千葉県","jp_add_1":"木更津市","jp_add_2":"羽鳥野"},"2920043":{"post_code":"2920043","prefecture":"CHIBA KEN","city":"KISARAZU SHI","town":"HIGASHIODA","perfecture_jp":"千葉県","jp_add_1":"木更津市","jp_add_2":"東太田"},"2920057":{"post_code":"2920057","prefecture":"CHIBA KEN","city":"KISARAZU SHI","town":"HIGASHICHUO","perfecture_jp":"千葉県","jp_add_1":"木更津市","jp_add_2":"東中央"},"2920037":{"post_code":"2920037","prefecture":"CHIBA KEN","city":"KISARAZU SHI","town":"HINODECHO","perfecture_jp":"千葉県","jp_add_1":"木更津市","jp_add_2":"日の出町"},"2920831":{"post_code":"2920831","prefecture":"CHIBA KEN","city":"KISARAZU SHI","town":"FUJIMI","perfecture_jp":"千葉県","jp_add_1":"木更津市","jp_add_2":"富士見"},"2920804":{"post_code":"2920804","prefecture":"CHIBA KEN","city":"KISARAZU SHI","town":"BUNKYO","perfecture_jp":"千葉県","jp_add_1":"木更津市","jp_add_2":"文京"},"2920038":{"post_code":"2920038","prefecture":"CHIBA KEN","city":"KISARAZU SHI","town":"HOTARUNO","perfecture_jp":"千葉県","jp_add_1":"木更津市","jp_add_2":"ほたる野"},"2920015":{"post_code":"2920015","prefecture":"CHIBA KEN","city":"KISARAZU SHI","town":"HONGO","perfecture_jp":"千葉県","jp_add_1":"木更津市","jp_add_2":"本郷"},"2920802":{"post_code":"2920802","prefecture":"CHIBA KEN","city":"KISARAZU SHI","town":"MAFUNE","perfecture_jp":"千葉県","jp_add_1":"木更津市","jp_add_2":"真舟"},"2920212":{"post_code":"2920212","prefecture":"CHIBA KEN","city":"KISARAZU SHI","town":"MARI","perfecture_jp":"千葉県","jp_add_1":"木更津市","jp_add_2":"真里"},"2920201":{"post_code":"2920201","prefecture":"CHIBA KEN","city":"KISARAZU SHI","town":"MARIYATSU","perfecture_jp":"千葉県","jp_add_1":"木更津市","jp_add_2":"真里谷"},"2920003":{"post_code":"2920003","prefecture":"CHIBA KEN","city":"KISARAZU SHI","town":"MANGOKU","perfecture_jp":"千葉県","jp_add_1":"木更津市","jp_add_2":"万石"},"2920837":{"post_code":"2920837","prefecture":"CHIBA KEN","city":"KISARAZU SHI","town":"MOKUZAIMINATO","perfecture_jp":"千葉県","jp_add_1":"木更津市","jp_add_2":"木材港"},"2920812":{"post_code":"2920812","prefecture":"CHIBA KEN","city":"KISARAZU SHI","town":"YANA","perfecture_jp":"千葉県","jp_add_1":"木更津市","jp_add_2":"矢那"},"2920805":{"post_code":"2920805","prefecture":"CHIBA KEN","city":"KISARAZU SHI","town":"YAMATO","perfecture_jp":"千葉県","jp_add_1":"木更津市","jp_add_2":"大和"},"2920203":{"post_code":"2920203","prefecture":"CHIBA KEN","city":"KISARAZU SHI","town":"YAMAMOTONANAMAGARI","perfecture_jp":"千葉県","jp_add_1":"木更津市","jp_add_2":"山本七曲"},"2920013":{"post_code":"2920013","prefecture":"CHIBA KEN","city":"KISARAZU SHI","town":"WAKABACHO","perfecture_jp":"千葉県","jp_add_1":"木更津市","jp_add_2":"若葉町"},"2920454":{"post_code":"2920454","prefecture":"CHIBA KEN","city":"KIMITSU SHI","town":"AOYAGI","perfecture_jp":"千葉県","jp_add_1":"君津市","jp_add_2":"青柳"},"2920445":{"post_code":"2920445","prefecture":"CHIBA KEN","city":"KIMITSU SHI","town":"ATAGO","perfecture_jp":"千葉県","jp_add_1":"君津市","jp_add_2":"愛宕"},"2921153":{"post_code":"2921153","prefecture":"CHIBA KEN","city":"KIMITSU SHI","town":"ICHIJUKU","perfecture_jp":"千葉県","jp_add_1":"君津市","jp_add_2":"市宿"},"2921145":{"post_code":"2921145","prefecture":"CHIBA KEN","city":"KIMITSU SHI","town":"ITOGAWA","perfecture_jp":"千葉県","jp_add_1":"君津市","jp_add_2":"糸川"},"2920433":{"post_code":"2920433","prefecture":"CHIBA KEN","city":"KIMITSU SHI","town":"IMOKUBO","perfecture_jp":"千葉県","jp_add_1":"君津市","jp_add_2":"芋窪"},"2920442":{"post_code":"2920442","prefecture":"CHIBA KEN","city":"KIMITSU SHI","town":"IWADE","perfecture_jp":"千葉県","jp_add_1":"君津市","jp_add_2":"岩出"},"2921166":{"post_code":"2921166","prefecture":"CHIBA KEN","city":"KIMITSU SHI","town":"UEHATA","perfecture_jp":"千葉県","jp_add_1":"君津市","jp_add_2":"植畑"},"2920432":{"post_code":"2920432","prefecture":"CHIBA KEN","city":"KIMITSU SHI","town":"URATA","perfecture_jp":"千葉県","jp_add_1":"君津市","jp_add_2":"浦田"},"2921146":{"post_code":"2921146","prefecture":"CHIBA KEN","city":"KIMITSU SHI","town":"OIDO","perfecture_jp":"千葉県","jp_add_1":"君津市","jp_add_2":"大井戸"},"2921173":{"post_code":"2921173","prefecture":"CHIBA KEN","city":"KIMITSU SHI","town":"OIWA","perfecture_jp":"千葉県","jp_add_1":"君津市","jp_add_2":"大岩"},"2920512":{"post_code":"2920512","prefecture":"CHIBA KEN","city":"KIMITSU SHI","town":"OTOMI","perfecture_jp":"千葉県","jp_add_1":"君津市","jp_add_2":"大戸見"},"2920514":{"post_code":"2920514","prefecture":"CHIBA KEN","city":"KIMITSU SHI","town":"OTOMIKYUNADONO","perfecture_jp":"千葉県","jp_add_1":"君津市","jp_add_2":"大戸見旧名殿"},"2921151":{"post_code":"2921151","prefecture":"CHIBA KEN","city":"KIMITSU SHI","town":"ONODAI","perfecture_jp":"千葉県","jp_add_1":"君津市","jp_add_2":"大野台"},"2921156":{"post_code":"2921156","prefecture":"CHIBA KEN","city":"KIMITSU SHI","town":"OGISAKU","perfecture_jp":"千葉県","jp_add_1":"君津市","jp_add_2":"荻作"},"2921175":{"post_code":"2921175","prefecture":"CHIBA KEN","city":"KIMITSU SHI","town":"OKUGOME","perfecture_jp":"千葉県","jp_add_1":"君津市","jp_add_2":"奥米"},"2920511":{"post_code":"2920511","prefecture":"CHIBA KEN","city":"KIMITSU SHI","town":"OSAKA","perfecture_jp":"千葉県","jp_add_1":"君津市","jp_add_2":"大坂"},"2920412":{"post_code":"2920412","prefecture":"CHIBA KEN","city":"KIMITSU SHI","town":"OBITSUDAI","perfecture_jp":"千葉県","jp_add_1":"君津市","jp_add_2":"小櫃台"},"2920533":{"post_code":"2920533","prefecture":"CHIBA KEN","city":"KIMITSU SHI","town":"ORIKISAWA","perfecture_jp":"千葉県","jp_add_1":"君津市","jp_add_2":"折木沢"},"2920404":{"post_code":"2920404","prefecture":"CHIBA KEN","city":"KIMITSU SHI","town":"KAEFUCHI","perfecture_jp":"千葉県","jp_add_1":"君津市","jp_add_2":"賀恵渕"},"2920527":{"post_code":"2920527","prefecture":"CHIBA KEN","city":"KIMITSU SHI","town":"KAGIHARA","perfecture_jp":"千葉県","jp_add_1":"君津市","jp_add_2":"香木原"},"2921149":{"post_code":"2921149","prefecture":"CHIBA KEN","city":"KIMITSU SHI","town":"KAZUSAKOITO","perfecture_jp":"千葉県","jp_add_1":"君津市","jp_add_2":"かずさ小糸"},"2920513":{"post_code":"2920513","prefecture":"CHIBA KEN","city":"KIMITSU SHI","town":"KANAMORI","perfecture_jp":"千葉県","jp_add_1":"君津市","jp_add_2":"加名盛"},"2921155":{"post_code":"2921155","prefecture":"CHIBA KEN","city":"KIMITSU SHI","town":"KANOZAN","perfecture_jp":"千葉県","jp_add_1":"君津市","jp_add_2":"鹿野山"},"2921158":{"post_code":"2921158","prefecture":"CHIBA KEN","city":"KIMITSU SHI","town":"KAMADAKI","perfecture_jp":"千葉県","jp_add_1":"君津市","jp_add_2":"鎌滝"},"2920452":{"post_code":"2920452","prefecture":"CHIBA KEN","city":"KIMITSU SHI","town":"KAMINITTA","perfecture_jp":"千葉県","jp_add_1":"君津市","jp_add_2":"上新田"},"2920535":{"post_code":"2920535","prefecture":"CHIBA KEN","city":"KIMITSU SHI","town":"KAMO","perfecture_jp":"千葉県","jp_add_1":"君津市","jp_add_2":"釜生"},"2920524":{"post_code":"2920524","prefecture":"CHIBA KEN","city":"KIMITSU SHI","town":"KAWAMATA","perfecture_jp":"千葉県","jp_add_1":"君津市","jp_add_2":"川俣"},"2920415":{"post_code":"2920415","prefecture":"CHIBA KEN","city":"KIMITSU SHI","town":"KAWAYATSU","perfecture_jp":"千葉県","jp_add_1":"君津市","jp_add_2":"川谷"},"2921148":{"post_code":"2921148","prefecture":"CHIBA KEN","city":"KIMITSU SHI","town":"GYOMA","perfecture_jp":"千葉県","jp_add_1":"君津市","jp_add_2":"行馬"},"2920537":{"post_code":"2920537","prefecture":"CHIBA KEN","city":"KIMITSU SHI","town":"KIWADAHATA","perfecture_jp":"千葉県","jp_add_1":"君津市","jp_add_2":"黄和田畑"},"2920525":{"post_code":"2920525","prefecture":"CHIBA KEN","city":"KIMITSU SHI","town":"KUSAGAWARA","perfecture_jp":"千葉県","jp_add_1":"君津市","jp_add_2":"草川原"},"2920536":{"post_code":"2920536","prefecture":"CHIBA KEN","city":"KIMITSU SHI","town":"KURADAMA","perfecture_jp":"千葉県","jp_add_1":"君津市","jp_add_2":"蔵玉"},"2920435":{"post_code":"2920435","prefecture":"CHIBA KEN","city":"KIMITSU SHI","town":"KURITSUBO","perfecture_jp":"千葉県","jp_add_1":"君津市","jp_add_2":"栗坪"},"2920422":{"post_code":"2920422","prefecture":"CHIBA KEN","city":"KIMITSU SHI","town":"KURURI","perfecture_jp":"千葉県","jp_add_1":"君津市","jp_add_2":"久留里"},"2920421":{"post_code":"2920421","prefecture":"CHIBA KEN","city":"KIMITSU SHI","town":"KURURI ICHIBA","perfecture_jp":"千葉県","jp_add_1":"君津市","jp_add_2":"久留里市場"},"2920414":{"post_code":"2920414","prefecture":"CHIBA KEN","city":"KIMITSU SHI","town":"KURURI OYATSU","perfecture_jp":"千葉県","jp_add_1":"君津市","jp_add_2":"久留里大谷"},"2920423":{"post_code":"2920423","prefecture":"CHIBA KEN","city":"KIMITSU SHI","town":"KURURI OWADA","perfecture_jp":"千葉県","jp_add_1":"君津市","jp_add_2":"久留里大和田"},"2920416":{"post_code":"2920416","prefecture":"CHIBA KEN","city":"KIMITSU SHI","town":"KOICHIBU","perfecture_jp":"千葉県","jp_add_1":"君津市","jp_add_2":"小市部"},"2921142":{"post_code":"2921142","prefecture":"CHIBA KEN","city":"KIMITSU SHI","town":"KOITOOYATSU","perfecture_jp":"千葉県","jp_add_1":"君津市","jp_add_2":"小糸大谷"},"2920532":{"post_code":"2920532","prefecture":"CHIBA KEN","city":"KIMITSU SHI","town":"SAKAHATA","perfecture_jp":"千葉県","jp_add_1":"君津市","jp_add_2":"坂畑"},"2920526":{"post_code":"2920526","prefecture":"CHIBA KEN","city":"KIMITSU SHI","town":"SASA","perfecture_jp":"千葉県","jp_add_1":"君津市","jp_add_2":"笹"},"2920403":{"post_code":"2920403","prefecture":"CHIBA KEN","city":"KIMITSU SHI","town":"SANDA","perfecture_jp":"千葉県","jp_add_1":"君津市","jp_add_2":"三田"},"2921176":{"post_code":"2921176","prefecture":"CHIBA KEN","city":"KIMITSU SHI","town":"SHUKUBARA","perfecture_jp":"千葉県","jp_add_1":"君津市","jp_add_2":"宿原"},"2920451":{"post_code":"2920451","prefecture":"CHIBA KEN","city":"KIMITSU SHI","town":"SUEYOSHI","perfecture_jp":"千葉県","jp_add_1":"君津市","jp_add_2":"末吉"},"2921154":{"post_code":"2921154","prefecture":"CHIBA KEN","city":"KIMITSU SHI","town":"SEIWAICHIBA","perfecture_jp":"千葉県","jp_add_1":"君津市","jp_add_2":"清和市場"},"2920522":{"post_code":"2920522","prefecture":"CHIBA KEN","city":"KIMITSU SHI","town":"DAINAKA","perfecture_jp":"千葉県","jp_add_1":"君津市","jp_add_2":"大中"},"2920516":{"post_code":"2920516","prefecture":"CHIBA KEN","city":"KIMITSU SHI","town":"TAKAMIZU","perfecture_jp":"千葉県","jp_add_1":"君津市","jp_add_2":"高水"},"2920534":{"post_code":"2920534","prefecture":"CHIBA KEN","city":"KIMITSU SHI","town":"TAKIHARA","perfecture_jp":"千葉県","jp_add_1":"君津市","jp_add_2":"滝原"},"2921178":{"post_code":"2921178","prefecture":"CHIBA KEN","city":"KIMITSU SHI","town":"TABINA","perfecture_jp":"千葉県","jp_add_1":"君津市","jp_add_2":"旅名"},"2920455":{"post_code":"2920455","prefecture":"CHIBA KEN","city":"KIMITSU SHI","town":"TAWARADA","perfecture_jp":"千葉県","jp_add_1":"君津市","jp_add_2":"俵田"},"2921147":{"post_code":"2921147","prefecture":"CHIBA KEN","city":"KIMITSU SHI","town":"TSUKAHARA","perfecture_jp":"千葉県","jp_add_1":"君津市","jp_add_2":"塚原"},"2921172":{"post_code":"2921172","prefecture":"CHIBA KEN","city":"KIMITSU SHI","town":"TSUJIMORI","perfecture_jp":"千葉県","jp_add_1":"君津市","jp_add_2":"辻森"},"2920443":{"post_code":"2920443","prefecture":"CHIBA KEN","city":"KIMITSU SHI","town":"TERAZAWA","perfecture_jp":"千葉県","jp_add_1":"君津市","jp_add_2":"寺沢"},"2920441":{"post_code":"2920441","prefecture":"CHIBA KEN","city":"KIMITSU SHI","town":"TOZAKI","perfecture_jp":"千葉県","jp_add_1":"君津市","jp_add_2":"戸崎"},"2920521":{"post_code":"2920521","prefecture":"CHIBA KEN","city":"KIMITSU SHI","town":"TONE","perfecture_jp":"千葉県","jp_add_1":"君津市","jp_add_2":"利根"},"2920444":{"post_code":"2920444","prefecture":"CHIBA KEN","city":"KIMITSU SHI","town":"TOMIDA","perfecture_jp":"千葉県","jp_add_1":"君津市","jp_add_2":"富田"},"2920523":{"post_code":"2920523","prefecture":"CHIBA KEN","city":"KIMITSU SHI","town":"TOYODA","perfecture_jp":"千葉県","jp_add_1":"君津市","jp_add_2":"豊田"},"2921179":{"post_code":"2921179","prefecture":"CHIBA KEN","city":"KIMITSU SHI","town":"TOYOFUSA","perfecture_jp":"千葉県","jp_add_1":"君津市","jp_add_2":"豊英"},"2921143":{"post_code":"2921143","prefecture":"CHIBA KEN","city":"KIMITSU SHI","town":"NAGASHI","perfecture_jp":"千葉県","jp_add_1":"君津市","jp_add_2":"長石"},"2921168":{"post_code":"2921168","prefecture":"CHIBA KEN","city":"KIMITSU SHI","town":"NISHIAWAGURA","perfecture_jp":"千葉県","jp_add_1":"君津市","jp_add_2":"西粟倉"},"2921162":{"post_code":"2921162","prefecture":"CHIBA KEN","city":"KIMITSU SHI","town":"NISHIINOHARA","perfecture_jp":"千葉県","jp_add_1":"君津市","jp_add_2":"西猪原"},"2920402":{"post_code":"2920402","prefecture":"CHIBA KEN","city":"KIMITSU SHI","town":"NISHIBARA","perfecture_jp":"千葉県","jp_add_1":"君津市","jp_add_2":"西原"},"2921165":{"post_code":"2921165","prefecture":"CHIBA KEN","city":"KIMITSU SHI","town":"NISHIHIKASA","perfecture_jp":"千葉県","jp_add_1":"君津市","jp_add_2":"西日笠"},"2921152":{"post_code":"2921152","prefecture":"CHIBA KEN","city":"KIMITSU SHI","town":"NITTONE","perfecture_jp":"千葉県","jp_add_1":"君津市","jp_add_2":"日渡根"},"2921140":{"post_code":"2921140","prefecture":"CHIBA KEN","city":"KIMITSU SHI","town":"NUKATATOBICHI","perfecture_jp":"千葉県","jp_add_1":"君津市","jp_add_2":"糠田飛地"},"2921177":{"post_code":"2921177","prefecture":"CHIBA KEN","city":"KIMITSU SHI","town":"NUTAZAWA","perfecture_jp":"千葉県","jp_add_1":"君津市","jp_add_2":"怒田沢"},"2920431":{"post_code":"2920431","prefecture":"CHIBA KEN","city":"KIMITSU SHI","town":"NUDA","perfecture_jp":"千葉県","jp_add_1":"君津市","jp_add_2":"怒田"},"2921141":{"post_code":"2921141","prefecture":"CHIBA KEN","city":"KIMITSU SHI","town":"NEMOTO","perfecture_jp":"千葉県","jp_add_1":"君津市","jp_add_2":"根本"},"2920411":{"post_code":"2920411","prefecture":"CHIBA KEN","city":"KIMITSU SHI","town":"HASEGAWA","perfecture_jp":"千葉県","jp_add_1":"君津市","jp_add_2":"長谷川"},"2921163":{"post_code":"2921163","prefecture":"CHIBA KEN","city":"KIMITSU SHI","town":"HIGASHIAWAGURA","perfecture_jp":"千葉県","jp_add_1":"君津市","jp_add_2":"東粟倉"},"2921161":{"post_code":"2921161","prefecture":"CHIBA KEN","city":"KIMITSU SHI","town":"HIGASHIINOHARA","perfecture_jp":"千葉県","jp_add_1":"君津市","jp_add_2":"東猪原"},"2921164":{"post_code":"2921164","prefecture":"CHIBA KEN","city":"KIMITSU SHI","town":"HIGASHIHIKASA","perfecture_jp":"千葉県","jp_add_1":"君津市","jp_add_2":"東日笠"},"2921167":{"post_code":"2921167","prefecture":"CHIBA KEN","city":"KIMITSU SHI","town":"HIRATTA","perfecture_jp":"千葉県","jp_add_1":"君津市","jp_add_2":"平田"},"2920502":{"post_code":"2920502","prefecture":"CHIBA KEN","city":"KIMITSU SHI","town":"HIRAYAMA","perfecture_jp":"千葉県","jp_add_1":"君津市","jp_add_2":"平山"},"2920503":{"post_code":"2920503","prefecture":"CHIBA KEN","city":"KIMITSU SHI","town":"HIROKA","perfecture_jp":"千葉県","jp_add_1":"君津市","jp_add_2":"広岡"},"2921157":{"post_code":"2921157","prefecture":"CHIBA KEN","city":"KIMITSU SHI","town":"FUKUOKA","perfecture_jp":"千葉県","jp_add_1":"君津市","jp_add_2":"福岡"},"2920531":{"post_code":"2920531","prefecture":"CHIBA KEN","city":"KIMITSU SHI","town":"FUJIBAYASHI","perfecture_jp":"千葉県","jp_add_1":"君津市","jp_add_2":"藤林"},"2921171":{"post_code":"2921171","prefecture":"CHIBA KEN","city":"KIMITSU SHI","town":"FUTAIRI","perfecture_jp":"千葉県","jp_add_1":"君津市","jp_add_2":"二入"},"2921144":{"post_code":"2921144","prefecture":"CHIBA KEN","city":"KIMITSU SHI","town":"HOGI","perfecture_jp":"千葉県","jp_add_1":"君津市","jp_add_2":"法木"},"2921174":{"post_code":"2921174","prefecture":"CHIBA KEN","city":"KIMITSU SHI","town":"MASAKI","perfecture_jp":"千葉県","jp_add_1":"君津市","jp_add_2":"正木"},"2920453":{"post_code":"2920453","prefecture":"CHIBA KEN","city":"KIMITSU SHI","town":"MINOWA","perfecture_jp":"千葉県","jp_add_1":"君津市","jp_add_2":"箕輪"},"2920434":{"post_code":"2920434","prefecture":"CHIBA KEN","city":"KIMITSU SHI","town":"MUKAIGO","perfecture_jp":"千葉県","jp_add_1":"君津市","jp_add_2":"向郷"},"2920515":{"post_code":"2920515","prefecture":"CHIBA KEN","city":"KIMITSU SHI","town":"YANASHIRO","perfecture_jp":"千葉県","jp_add_1":"君津市","jp_add_2":"柳城"},"2920501":{"post_code":"2920501","prefecture":"CHIBA KEN","city":"KIMITSU SHI","town":"YAMATAKINO","perfecture_jp":"千葉県","jp_add_1":"君津市","jp_add_2":"山滝野"},"2920401":{"post_code":"2920401","prefecture":"CHIBA KEN","city":"KIMITSU SHI","town":"YAMAMOTO","perfecture_jp":"千葉県","jp_add_1":"君津市","jp_add_2":"山本"},"2920413":{"post_code":"2920413","prefecture":"CHIBA KEN","city":"KIMITSU SHI","town":"YOSHINO","perfecture_jp":"千葉県","jp_add_1":"君津市","jp_add_2":"吉野"}}