{"2980000":{"post_code":"2980000","prefecture":"CHIBA KEN","city":"ISUMI SHI","town":"IKANIKEISAIGANAIBAAI","perfecture_jp":"千葉県","jp_add_1":"いすみ市","jp_add_2":""},"2980126":{"post_code":"2980126","prefecture":"CHIBA KEN","city":"ISUMI SHI","town":"IMAZEKI","perfecture_jp":"千葉県","jp_add_1":"いすみ市","jp_add_2":"今関"},"2980011":{"post_code":"2980011","prefecture":"CHIBA KEN","city":"ISUMI SHI","town":"IWAFUNE","perfecture_jp":"千葉県","jp_add_1":"いすみ市","jp_add_2":"岩船"},"2980013":{"post_code":"2980013","prefecture":"CHIBA KEN","city":"ISUMI SHI","town":"OIKE","perfecture_jp":"千葉県","jp_add_1":"いすみ市","jp_add_2":"小池"},"2980113":{"post_code":"2980113","prefecture":"CHIBA KEN","city":"ISUMI SHI","town":"ONO","perfecture_jp":"千葉県","jp_add_1":"いすみ市","jp_add_2":"大野"},"2980004":{"post_code":"2980004","prefecture":"CHIBA KEN","city":"ISUMI SHI","town":"OHARA","perfecture_jp":"千葉県","jp_add_1":"いすみ市","jp_add_2":"大原"},"2980014":{"post_code":"2980014","prefecture":"CHIBA KEN","city":"ISUMI SHI","town":"OHARADAI","perfecture_jp":"千葉県","jp_add_1":"いすみ市","jp_add_2":"大原台"},"2980029":{"post_code":"2980029","prefecture":"CHIBA KEN","city":"ISUMI SHI","town":"OWADA","perfecture_jp":"千葉県","jp_add_1":"いすみ市","jp_add_2":"大和田"},"2980131":{"post_code":"2980131","prefecture":"CHIBA KEN","city":"ISUMI SHI","town":"OGIWARA","perfecture_jp":"千葉県","jp_add_1":"いすみ市","jp_add_2":"荻原"},"2980012":{"post_code":"2980012","prefecture":"CHIBA KEN","city":"ISUMI SHI","town":"OZAWA","perfecture_jp":"千葉県","jp_add_1":"いすみ市","jp_add_2":"小沢"},"2980102":{"post_code":"2980102","prefecture":"CHIBA KEN","city":"ISUMI SHI","town":"ODAKA","perfecture_jp":"千葉県","jp_add_1":"いすみ市","jp_add_2":"小高"},"2980115":{"post_code":"2980115","prefecture":"CHIBA KEN","city":"ISUMI SHI","town":"KAKIWADA","perfecture_jp":"千葉県","jp_add_1":"いすみ市","jp_add_2":"柿和田"},"2980103":{"post_code":"2980103","prefecture":"CHIBA KEN","city":"ISUMI SHI","town":"KAMIOKI","perfecture_jp":"千葉県","jp_add_1":"いすみ市","jp_add_2":"神置"},"2980018":{"post_code":"2980018","prefecture":"CHIBA KEN","city":"ISUMI SHI","town":"KAMIBUSE","perfecture_jp":"千葉県","jp_add_1":"いすみ市","jp_add_2":"上布施"},"2980123":{"post_code":"2980123","prefecture":"CHIBA KEN","city":"ISUMI SHI","town":"KARIYA","perfecture_jp":"千葉県","jp_add_1":"いすみ市","jp_add_2":"苅谷"},"2980112":{"post_code":"2980112","prefecture":"CHIBA KEN","city":"ISUMI SHI","town":"KONODAI","perfecture_jp":"千葉県","jp_add_1":"いすみ市","jp_add_2":"国府台"},"2980101":{"post_code":"2980101","prefecture":"CHIBA KEN","city":"ISUMI SHI","town":"KOMATAI","perfecture_jp":"千葉県","jp_add_1":"いすみ市","jp_add_2":"小又井"},"2980135":{"post_code":"2980135","prefecture":"CHIBA KEN","city":"ISUMI SHI","town":"SAKUDA","perfecture_jp":"千葉県","jp_add_1":"いすみ市","jp_add_2":"作田"},"2980114":{"post_code":"2980114","prefecture":"CHIBA KEN","city":"ISUMI SHI","town":"SATSUMORI","perfecture_jp":"千葉県","jp_add_1":"いすみ市","jp_add_2":"札森"},"2980022":{"post_code":"2980022","prefecture":"CHIBA KEN","city":"ISUMI SHI","town":"SAMURO","perfecture_jp":"千葉県","jp_add_1":"いすみ市","jp_add_2":"佐室"},"2980023":{"post_code":"2980023","prefecture":"CHIBA KEN","city":"ISUMI SHI","town":"SAWABE","perfecture_jp":"千葉県","jp_add_1":"いすみ市","jp_add_2":"沢部"},"2980121":{"post_code":"2980121","prefecture":"CHIBA KEN","city":"ISUMI SHI","town":"SHIMA","perfecture_jp":"千葉県","jp_add_1":"いすみ市","jp_add_2":"島"},"2980027":{"post_code":"2980027","prefecture":"CHIBA KEN","city":"ISUMI SHI","town":"SHIMOHARA","perfecture_jp":"千葉県","jp_add_1":"いすみ市","jp_add_2":"下原"},"2980017":{"post_code":"2980017","prefecture":"CHIBA KEN","city":"ISUMI SHI","town":"SHIMOBUSE","perfecture_jp":"千葉県","jp_add_1":"いすみ市","jp_add_2":"下布施"},"2980015":{"post_code":"2980015","prefecture":"CHIBA KEN","city":"ISUMI SHI","town":"SHAKAYATSU","perfecture_jp":"千葉県","jp_add_1":"いすみ市","jp_add_2":"釈迦谷"},"2980116":{"post_code":"2980116","prefecture":"CHIBA KEN","city":"ISUMI SHI","town":"SHORYUJI","perfecture_jp":"千葉県","jp_add_1":"いすみ市","jp_add_2":"正立寺"},"2980106":{"post_code":"2980106","prefecture":"CHIBA KEN","city":"ISUMI SHI","town":"SUGAYA","perfecture_jp":"千葉県","jp_add_1":"いすみ市","jp_add_2":"須賀谷"},"2980021":{"post_code":"2980021","prefecture":"CHIBA KEN","city":"ISUMI SHI","town":"TAKADANI","perfecture_jp":"千葉県","jp_add_1":"いすみ市","jp_add_2":"高谷"},"2980024":{"post_code":"2980024","prefecture":"CHIBA KEN","city":"ISUMI SHI","town":"NAGASHI","perfecture_jp":"千葉県","jp_add_1":"いすみ市","jp_add_2":"長志"},"2980134":{"post_code":"2980134","prefecture":"CHIBA KEN","city":"ISUMI SHI","town":"NAMEGAWA","perfecture_jp":"千葉県","jp_add_1":"いすみ市","jp_add_2":"行川"},"2980005":{"post_code":"2980005","prefecture":"CHIBA KEN","city":"ISUMI SHI","town":"NITTA","perfecture_jp":"千葉県","jp_add_1":"いすみ市","jp_add_2":"新田"},"2980026":{"post_code":"2980026","prefecture":"CHIBA KEN","city":"ISUMI SHI","town":"NITTANO","perfecture_jp":"千葉県","jp_add_1":"いすみ市","jp_add_2":"新田野"},"2980016":{"post_code":"2980016","prefecture":"CHIBA KEN","city":"ISUMI SHI","town":"NITTAWAKAYAMAFUKAHORIIRIAICHI","perfecture_jp":"千葉県","jp_add_1":"いすみ市","jp_add_2":"新田若山深堀入会地"},"2980105":{"post_code":"2980105","prefecture":"CHIBA KEN","city":"ISUMI SHI","town":"NOJITSU","perfecture_jp":"千葉県","jp_add_1":"いすみ市","jp_add_2":"能実"},"2980002":{"post_code":"2980002","prefecture":"CHIBA KEN","city":"ISUMI SHI","town":"HIARI","perfecture_jp":"千葉県","jp_add_1":"いすみ市","jp_add_2":"日在"},"2980133":{"post_code":"2980133","prefecture":"CHIBA KEN","city":"ISUMI SHI","town":"HIKIDA","perfecture_jp":"千葉県","jp_add_1":"いすみ市","jp_add_2":"引田"},"2980003":{"post_code":"2980003","prefecture":"CHIBA KEN","city":"ISUMI SHI","town":"FUKAHORI","perfecture_jp":"千葉県","jp_add_1":"いすみ市","jp_add_2":"深堀"},"2980125":{"post_code":"2980125","prefecture":"CHIBA KEN","city":"ISUMI SHI","town":"FUKAYA","perfecture_jp":"千葉県","jp_add_1":"いすみ市","jp_add_2":"深谷"},"2980028":{"post_code":"2980028","prefecture":"CHIBA KEN","city":"ISUMI SHI","town":"HOSO","perfecture_jp":"千葉県","jp_add_1":"いすみ市","jp_add_2":"細尾"},"2980117":{"post_code":"2980117","prefecture":"CHIBA KEN","city":"ISUMI SHI","town":"MASUDA","perfecture_jp":"千葉県","jp_add_1":"いすみ市","jp_add_2":"増田"},"2980104":{"post_code":"2980104","prefecture":"CHIBA KEN","city":"ISUMI SHI","town":"MATSUMARU","perfecture_jp":"千葉県","jp_add_1":"いすみ市","jp_add_2":"松丸"},"2980111":{"post_code":"2980111","prefecture":"CHIBA KEN","city":"ISUMI SHI","town":"MANGI","perfecture_jp":"千葉県","jp_add_1":"いすみ市","jp_add_2":"万木"},"2980132":{"post_code":"2980132","prefecture":"CHIBA KEN","city":"ISUMI SHI","town":"YAOTOME","perfecture_jp":"千葉県","jp_add_1":"いすみ市","jp_add_2":"八乙女"},"2980124":{"post_code":"2980124","prefecture":"CHIBA KEN","city":"ISUMI SHI","town":"YAMASA","perfecture_jp":"千葉県","jp_add_1":"いすみ市","jp_add_2":"弥正"},"2980025":{"post_code":"2980025","prefecture":"CHIBA KEN","city":"ISUMI SHI","town":"YAMADA","perfecture_jp":"千葉県","jp_add_1":"いすみ市","jp_add_2":"山田"},"2980122":{"post_code":"2980122","prefecture":"CHIBA KEN","city":"ISUMI SHI","town":"RAKUMACHI","perfecture_jp":"千葉県","jp_add_1":"いすみ市","jp_add_2":"楽町"},"2980001":{"post_code":"2980001","prefecture":"CHIBA KEN","city":"ISUMI SHI","town":"WAKAYAMA","perfecture_jp":"千葉県","jp_add_1":"いすみ市","jp_add_2":"若山"},"2980200":{"post_code":"2980200","prefecture":"CHIBA KEN","city":"ISUMI GUN OTAKI MACHI","town":"IKANIKEISAIGANAIBAAI","perfecture_jp":"千葉県","jp_add_1":"夷隅郡大多喜町","jp_add_2":""},"2980277":{"post_code":"2980277","prefecture":"CHIBA KEN","city":"ISUMI GUN OTAKI MACHI","town":"AWAMATA","perfecture_jp":"千葉県","jp_add_1":"夷隅郡大多喜町","jp_add_2":"粟又"},"2980256":{"post_code":"2980256","prefecture":"CHIBA KEN","city":"ISUMI GUN OTAKI MACHI","town":"ISHIGAMI","perfecture_jp":"千葉県","jp_add_1":"夷隅郡大多喜町","jp_add_2":"石神"},"2980261":{"post_code":"2980261","prefecture":"CHIBA KEN","city":"ISUMI GUN OTAKI MACHI","town":"ITAYA","perfecture_jp":"千葉県","jp_add_1":"夷隅郡大多喜町","jp_add_2":"板谷"},"2980272":{"post_code":"2980272","prefecture":"CHIBA KEN","city":"ISUMI GUN OTAKI MACHI","town":"ICHIKAWA","perfecture_jp":"千葉県","jp_add_1":"夷隅郡大多喜町","jp_add_2":"市川"},"2980263":{"post_code":"2980263","prefecture":"CHIBA KEN","city":"ISUMI GUN OTAKI MACHI","town":"IHOTA","perfecture_jp":"千葉県","jp_add_1":"夷隅郡大多喜町","jp_add_2":"伊保田"},"2980223":{"post_code":"2980223","prefecture":"CHIBA KEN","city":"ISUMI GUN OTAKI MACHI","town":"UEBARA","perfecture_jp":"千葉県","jp_add_1":"夷隅郡大多喜町","jp_add_2":"上原"},"2980205":{"post_code":"2980205","prefecture":"CHIBA KEN","city":"ISUMI GUN OTAKI MACHI","town":"UEBARANISHIBETAYANABARAIRIAI","perfecture_jp":"千葉県","jp_add_1":"夷隅郡大多喜町","jp_add_2":"上原西部田柳原入会"},"2980235":{"post_code":"2980235","prefecture":"CHIBA KEN","city":"ISUMI GUN OTAKI MACHI","town":"UTOBARA","perfecture_jp":"千葉県","jp_add_1":"夷隅郡大多喜町","jp_add_2":"宇筒原"},"2980216":{"post_code":"2980216","prefecture":"CHIBA KEN","city":"ISUMI GUN OTAKI MACHI","town":"OTAKI","perfecture_jp":"千葉県","jp_add_1":"夷隅郡大多喜町","jp_add_2":"大多喜"},"2980264":{"post_code":"2980264","prefecture":"CHIBA KEN","city":"ISUMI GUN OTAKI MACHI","town":"OTADAI","perfecture_jp":"千葉県","jp_add_1":"夷隅郡大多喜町","jp_add_2":"大田代"},"2980225":{"post_code":"2980225","prefecture":"CHIBA KEN","city":"ISUMI GUN OTAKI MACHI","town":"OTO","perfecture_jp":"千葉県","jp_add_1":"夷隅郡大多喜町","jp_add_2":"大戸"},"2980234":{"post_code":"2980234","prefecture":"CHIBA KEN","city":"ISUMI GUN OTAKI MACHI","town":"OSHINUMA","perfecture_jp":"千葉県","jp_add_1":"夷隅郡大多喜町","jp_add_2":"押沼"},"2980201":{"post_code":"2980201","prefecture":"CHIBA KEN","city":"ISUMI GUN OTAKI MACHI","town":"ODORO","perfecture_jp":"千葉県","jp_add_1":"夷隅郡大多喜町","jp_add_2":"小土呂"},"2980279":{"post_code":"2980279","prefecture":"CHIBA KEN","city":"ISUMI GUN OTAKI MACHI","town":"OMOJIRO","perfecture_jp":"千葉県","jp_add_1":"夷隅郡大多喜町","jp_add_2":"面白"},"2980276":{"post_code":"2980276","prefecture":"CHIBA KEN","city":"ISUMI GUN OTAKI MACHI","town":"KAISHO","perfecture_jp":"千葉県","jp_add_1":"夷隅郡大多喜町","jp_add_2":"会所"},"2980241":{"post_code":"2980241","prefecture":"CHIBA KEN","city":"ISUMI GUN OTAKI MACHI","town":"KAMISHIKI","perfecture_jp":"千葉県","jp_add_1":"夷隅郡大多喜町","jp_add_2":"紙敷"},"2980253":{"post_code":"2980253","prefecture":"CHIBA KEN","city":"ISUMI GUN OTAKI MACHI","town":"KAWAHATA","perfecture_jp":"千葉県","jp_add_1":"夷隅郡大多喜町","jp_add_2":"川畑"},"2980251":{"post_code":"2980251","prefecture":"CHIBA KEN","city":"ISUMI GUN OTAKI MACHI","town":"KUGAHARA","perfecture_jp":"千葉県","jp_add_1":"夷隅郡大多喜町","jp_add_2":"久我原"},"2980267":{"post_code":"2980267","prefecture":"CHIBA KEN","city":"ISUMI GUN OTAKI MACHI","town":"KUZUFUJI","perfecture_jp":"千葉県","jp_add_1":"夷隅郡大多喜町","jp_add_2":"葛藤"},"2980215":{"post_code":"2980215","prefecture":"CHIBA KEN","city":"ISUMI GUN OTAKI MACHI","town":"KUBO","perfecture_jp":"千葉県","jp_add_1":"夷隅郡大多喜町","jp_add_2":"久保"},"2980255":{"post_code":"2980255","prefecture":"CHIBA KEN","city":"ISUMI GUN OTAKI MACHI","town":"KUROHARA","perfecture_jp":"千葉県","jp_add_1":"夷隅郡大多喜町","jp_add_2":"黒原"},"2980232":{"post_code":"2980232","prefecture":"CHIBA KEN","city":"ISUMI GUN OTAKI MACHI","town":"KOCHI","perfecture_jp":"千葉県","jp_add_1":"夷隅郡大多喜町","jp_add_2":"小内"},"2980238":{"post_code":"2980238","prefecture":"CHIBA KEN","city":"ISUMI GUN OTAKI MACHI","town":"KOCHIFUEGURAIRIAI","perfecture_jp":"千葉県","jp_add_1":"夷隅郡大多喜町","jp_add_2":"小内笛倉入会"},"2980211":{"post_code":"2980211","prefecture":"CHIBA KEN","city":"ISUMI GUN OTAKI MACHI","town":"KOYA","perfecture_jp":"千葉県","jp_add_1":"夷隅郡大多喜町","jp_add_2":"紺屋"},"2980278":{"post_code":"2980278","prefecture":"CHIBA KEN","city":"ISUMI GUN OTAKI MACHI","town":"KOZAWAMATA","perfecture_jp":"千葉県","jp_add_1":"夷隅郡大多喜町","jp_add_2":"小沢又"},"2980265":{"post_code":"2980265","prefecture":"CHIBA KEN","city":"ISUMI GUN OTAKI MACHI","town":"KOTADAI","perfecture_jp":"千葉県","jp_add_1":"夷隅郡大多喜町","jp_add_2":"小田代"},"2980242":{"post_code":"2980242","prefecture":"CHIBA KEN","city":"ISUMI GUN OTAKI MACHI","town":"KOMYO","perfecture_jp":"千葉県","jp_add_1":"夷隅郡大多喜町","jp_add_2":"小苗"},"2980228":{"post_code":"2980228","prefecture":"CHIBA KEN","city":"ISUMI GUN OTAKI MACHI","town":"KOYAMATSU","perfecture_jp":"千葉県","jp_add_1":"夷隅郡大多喜町","jp_add_2":"小谷松"},"2980213":{"post_code":"2980213","prefecture":"CHIBA KEN","city":"ISUMI GUN OTAKI MACHI","town":"SAKURADAI","perfecture_jp":"千葉県","jp_add_1":"夷隅郡大多喜町","jp_add_2":"桜台"},"2980212":{"post_code":"2980212","prefecture":"CHIBA KEN","city":"ISUMI GUN OTAKI MACHI","town":"SARUINE","perfecture_jp":"千葉県","jp_add_1":"夷隅郡大多喜町","jp_add_2":"猿稲"},"2980273":{"post_code":"2980273","prefecture":"CHIBA KEN","city":"ISUMI GUN OTAKI MACHI","town":"SANJO","perfecture_jp":"千葉県","jp_add_1":"夷隅郡大多喜町","jp_add_2":"三条"},"2980202":{"post_code":"2980202","prefecture":"CHIBA KEN","city":"ISUMI GUN OTAKI MACHI","town":"SHIMOOTAKI","perfecture_jp":"千葉県","jp_add_1":"夷隅郡大多喜町","jp_add_2":"下大多喜"},"2980246":{"post_code":"2980246","prefecture":"CHIBA KEN","city":"ISUMI GUN OTAKI MACHI","town":"SHOJI","perfecture_jp":"千葉県","jp_add_1":"夷隅郡大多喜町","jp_add_2":"庄司"},"2980214":{"post_code":"2980214","prefecture":"CHIBA KEN","city":"ISUMI GUN OTAKI MACHI","town":"SHIMMACHI","perfecture_jp":"千葉県","jp_add_1":"夷隅郡大多喜町","jp_add_2":"新丁"},"2980207":{"post_code":"2980207","prefecture":"CHIBA KEN","city":"ISUMI GUN OTAKI MACHI","town":"SENZUI","perfecture_jp":"千葉県","jp_add_1":"夷隅郡大多喜町","jp_add_2":"泉水"},"2980274":{"post_code":"2980274","prefecture":"CHIBA KEN","city":"ISUMI GUN OTAKI MACHI","town":"TASHIRO","perfecture_jp":"千葉県","jp_add_1":"夷隅郡大多喜町","jp_add_2":"田代"},"2980217":{"post_code":"2980217","prefecture":"CHIBA KEN","city":"ISUMI GUN OTAKI MACHI","town":"TAMACHI","perfecture_jp":"千葉県","jp_add_1":"夷隅郡大多喜町","jp_add_2":"田丁"},"2980266":{"post_code":"2980266","prefecture":"CHIBA KEN","city":"ISUMI GUN OTAKI MACHI","town":"TSUTSUMORI","perfecture_jp":"千葉県","jp_add_1":"夷隅郡大多喜町","jp_add_2":"筒森"},"2980271":{"post_code":"2980271","prefecture":"CHIBA KEN","city":"ISUMI GUN OTAKI MACHI","town":"NAKANO","perfecture_jp":"千葉県","jp_add_1":"夷隅郡大多喜町","jp_add_2":"中野"},"2980227":{"post_code":"2980227","prefecture":"CHIBA KEN","city":"ISUMI GUN OTAKI MACHI","town":"NISHIBETA","perfecture_jp":"千葉県","jp_add_1":"夷隅郡大多喜町","jp_add_2":"西部田"},"2980231":{"post_code":"2980231","prefecture":"CHIBA KEN","city":"ISUMI GUN OTAKI MACHI","town":"BABAUCHI","perfecture_jp":"千葉県","jp_add_1":"夷隅郡大多喜町","jp_add_2":"馬場内"},"2980237":{"post_code":"2980237","prefecture":"CHIBA KEN","city":"ISUMI GUN OTAKI MACHI","town":"HARAUCHI","perfecture_jp":"千葉県","jp_add_1":"夷隅郡大多喜町","jp_add_2":"原内"},"2980254":{"post_code":"2980254","prefecture":"CHIBA KEN","city":"ISUMI GUN OTAKI MACHI","town":"HIRASAWA","perfecture_jp":"千葉県","jp_add_1":"夷隅郡大多喜町","jp_add_2":"平沢"},"2980233":{"post_code":"2980233","prefecture":"CHIBA KEN","city":"ISUMI GUN OTAKI MACHI","town":"FUEGURA","perfecture_jp":"千葉県","jp_add_1":"夷隅郡大多喜町","jp_add_2":"笛倉"},"2980204":{"post_code":"2980204","prefecture":"CHIBA KEN","city":"ISUMI GUN OTAKI MACHI","town":"FUNAKO","perfecture_jp":"千葉県","jp_add_1":"夷隅郡大多喜町","jp_add_2":"船子"},"2980226":{"post_code":"2980226","prefecture":"CHIBA KEN","city":"ISUMI GUN OTAKI MACHI","town":"HETA","perfecture_jp":"千葉県","jp_add_1":"夷隅郡大多喜町","jp_add_2":"部田"},"2980262":{"post_code":"2980262","prefecture":"CHIBA KEN","city":"ISUMI GUN OTAKI MACHI","town":"HORIKIRI","perfecture_jp":"千葉県","jp_add_1":"夷隅郡大多喜町","jp_add_2":"堀切"},"2980224":{"post_code":"2980224","prefecture":"CHIBA KEN","city":"ISUMI GUN OTAKI MACHI","town":"HORINOCHI","perfecture_jp":"千葉県","jp_add_1":"夷隅郡大多喜町","jp_add_2":"堀之内"},"2980244":{"post_code":"2980244","prefecture":"CHIBA KEN","city":"ISUMI GUN OTAKI MACHI","town":"MATSUO","perfecture_jp":"千葉県","jp_add_1":"夷隅郡大多喜町","jp_add_2":"松尾"},"2980252":{"post_code":"2980252","prefecture":"CHIBA KEN","city":"ISUMI GUN OTAKI MACHI","town":"MIMATA","perfecture_jp":"千葉県","jp_add_1":"夷隅郡大多喜町","jp_add_2":"三又"},"2980236":{"post_code":"2980236","prefecture":"CHIBA KEN","city":"ISUMI GUN OTAKI MACHI","town":"MOFUKU","perfecture_jp":"千葉県","jp_add_1":"夷隅郡大多喜町","jp_add_2":"百鉾"},"2980203":{"post_code":"2980203","prefecture":"CHIBA KEN","city":"ISUMI GUN OTAKI MACHI","town":"MORIMIYA","perfecture_jp":"千葉県","jp_add_1":"夷隅郡大多喜町","jp_add_2":"森宮"},"2980245":{"post_code":"2980245","prefecture":"CHIBA KEN","city":"ISUMI GUN OTAKI MACHI","town":"YAKIYO","perfecture_jp":"千葉県","jp_add_1":"夷隅郡大多喜町","jp_add_2":"弥喜用"},"2980222":{"post_code":"2980222","prefecture":"CHIBA KEN","city":"ISUMI GUN OTAKI MACHI","town":"YAKOE","perfecture_jp":"千葉県","jp_add_1":"夷隅郡大多喜町","jp_add_2":"八声"},"2980221":{"post_code":"2980221","prefecture":"CHIBA KEN","city":"ISUMI GUN OTAKI MACHI","town":"YANABARA","perfecture_jp":"千葉県","jp_add_1":"夷隅郡大多喜町","jp_add_2":"柳原"},"2980243":{"post_code":"2980243","prefecture":"CHIBA KEN","city":"ISUMI GUN OTAKI MACHI","town":"YUGURA","perfecture_jp":"千葉県","jp_add_1":"夷隅郡大多喜町","jp_add_2":"湯倉"},"2980275":{"post_code":"2980275","prefecture":"CHIBA KEN","city":"ISUMI GUN OTAKI MACHI","town":"YUMIGI","perfecture_jp":"千葉県","jp_add_1":"夷隅郡大多喜町","jp_add_2":"弓木"},"2980206":{"post_code":"2980206","prefecture":"CHIBA KEN","city":"ISUMI GUN OTAKI MACHI","town":"YOKOYAMA","perfecture_jp":"千葉県","jp_add_1":"夷隅郡大多喜町","jp_add_2":"横山"}}