{"3000000":{"post_code":"3000000","prefecture":"IBARAKI KEN","city":"TSUCHIURA SHI","town":"IKANIKEISAIGANAIBAAI","perfecture_jp":"茨城県","jp_add_1":"土浦市","jp_add_2":""},"3000818":{"post_code":"3000818","prefecture":"IBARAKI KEN","city":"TSUCHIURA SHI","town":"AMAKAWA","perfecture_jp":"茨城県","jp_add_1":"土浦市","jp_add_2":"天川"},"3000873":{"post_code":"3000873","prefecture":"IBARAKI KEN","city":"TSUCHIURA SHI","town":"ARAKAWAOKI","perfecture_jp":"茨城県","jp_add_1":"土浦市","jp_add_2":"荒川沖"},"3000871":{"post_code":"3000871","prefecture":"IBARAKI KEN","city":"TSUCHIURA SHI","town":"ARAKAWAOKIHIGASHI","perfecture_jp":"茨城県","jp_add_1":"土浦市","jp_add_2":"荒川沖東"},"3000874":{"post_code":"3000874","prefecture":"IBARAKI KEN","city":"TSUCHIURA SHI","town":"ARAKAWAOKINISHI","perfecture_jp":"茨城県","jp_add_1":"土浦市","jp_add_2":"荒川沖西"},"3000877":{"post_code":"3000877","prefecture":"IBARAKI KEN","city":"TSUCHIURA SHI","town":"ARAKAWAHONGO","perfecture_jp":"茨城県","jp_add_1":"土浦市","jp_add_2":"荒川本郷"},"3000035":{"post_code":"3000035","prefecture":"IBARAKI KEN","city":"TSUCHIURA SHI","town":"ARIAKECHO","perfecture_jp":"茨城県","jp_add_1":"土浦市","jp_add_2":"有明町"},"3000002":{"post_code":"3000002","prefecture":"IBARAKI KEN","city":"TSUCHIURA SHI","town":"AWANOMACHI","perfecture_jp":"茨城県","jp_add_1":"土浦市","jp_add_2":"粟野町"},"3000802":{"post_code":"3000802","prefecture":"IBARAKI KEN","city":"TSUCHIURA SHI","town":"IIDA","perfecture_jp":"茨城県","jp_add_1":"土浦市","jp_add_2":"飯田"},"3000047":{"post_code":"3000047","prefecture":"IBARAKI KEN","city":"TSUCHIURA SHI","town":"IKUTAMACHI","perfecture_jp":"茨城県","jp_add_1":"土浦市","jp_add_2":"生田町"},"3000007":{"post_code":"3000007","prefecture":"IBARAKI KEN","city":"TSUCHIURA SHI","town":"ITAYA","perfecture_jp":"茨城県","jp_add_1":"土浦市","jp_add_2":"板谷"},"3000001":{"post_code":"3000001","prefecture":"IBARAKI KEN","city":"TSUCHIURA SHI","town":"IMAIZUMI","perfecture_jp":"茨城県","jp_add_1":"土浦市","jp_add_2":"今泉"},"3000835":{"post_code":"3000835","prefecture":"IBARAKI KEN","city":"TSUCHIURA SHI","town":"OIWATA","perfecture_jp":"茨城県","jp_add_1":"土浦市","jp_add_2":"大岩田"},"3004103":{"post_code":"3004103","prefecture":"IBARAKI KEN","city":"TSUCHIURA SHI","town":"OSHITO","perfecture_jp":"茨城県","jp_add_1":"土浦市","jp_add_2":"大志戸"},"3000028":{"post_code":"3000028","prefecture":"IBARAKI KEN","city":"TSUCHIURA SHI","town":"OTSUNO","perfecture_jp":"茨城県","jp_add_1":"土浦市","jp_add_2":"おおつ野"},"3000044":{"post_code":"3000044","prefecture":"IBARAKI KEN","city":"TSUCHIURA SHI","town":"OTEMACHI","perfecture_jp":"茨城県","jp_add_1":"土浦市","jp_add_2":"大手町"},"3004111":{"post_code":"3004111","prefecture":"IBARAKI KEN","city":"TSUCHIURA SHI","town":"OBATAKE","perfecture_jp":"茨城県","jp_add_1":"土浦市","jp_add_2":"大畑"},"3000038":{"post_code":"3000038","prefecture":"IBARAKI KEN","city":"TSUCHIURA SHI","town":"OMACHI","perfecture_jp":"茨城県","jp_add_1":"土浦市","jp_add_2":"大町"},"3000872":{"post_code":"3000872","prefecture":"IBARAKI KEN","city":"TSUCHIURA SHI","town":"OKISHINDEN","perfecture_jp":"茨城県","jp_add_1":"土浦市","jp_add_2":"沖新田"},"3000023":{"post_code":"3000023","prefecture":"IBARAKI KEN","city":"TSUCHIURA SHI","town":"OKIJUKUMACHI","perfecture_jp":"茨城県","jp_add_1":"土浦市","jp_add_2":"沖宿町"},"3004106":{"post_code":"3004106","prefecture":"IBARAKI KEN","city":"TSUCHIURA SHI","town":"ODAKA","perfecture_jp":"茨城県","jp_add_1":"土浦市","jp_add_2":"小高"},"3000844":{"post_code":"3000844","prefecture":"IBARAKI KEN","city":"TSUCHIURA SHI","town":"OTTO","perfecture_jp":"茨城県","jp_add_1":"土浦市","jp_add_2":"乙戸"},"3000845":{"post_code":"3000845","prefecture":"IBARAKI KEN","city":"TSUCHIURA SHI","town":"OTTOMINAMI","perfecture_jp":"茨城県","jp_add_1":"土浦市","jp_add_2":"乙戸南"},"3004108":{"post_code":"3004108","prefecture":"IBARAKI KEN","city":"TSUCHIURA SHI","town":"ONO","perfecture_jp":"茨城県","jp_add_1":"土浦市","jp_add_2":"小野"},"3000846":{"post_code":"3000846","prefecture":"IBARAKI KEN","city":"TSUCHIURA SHI","town":"OYAMADA","perfecture_jp":"茨城県","jp_add_1":"土浦市","jp_add_2":"小山田"},"3000847":{"post_code":"3000847","prefecture":"IBARAKI KEN","city":"TSUCHIURA SHI","town":"OROSHIMACHI","perfecture_jp":"茨城県","jp_add_1":"土浦市","jp_add_2":"卸町"},"3000008":{"post_code":"3000008","prefecture":"IBARAKI KEN","city":"TSUCHIURA SHI","town":"KASASHIMACHI","perfecture_jp":"茨城県","jp_add_1":"土浦市","jp_add_2":"笠師町"},"3000804":{"post_code":"3000804","prefecture":"IBARAKI KEN","city":"TSUCHIURA SHI","town":"KASUGE","perfecture_jp":"茨城県","jp_add_1":"土浦市","jp_add_2":"粕毛"},"3000825":{"post_code":"3000825","prefecture":"IBARAKI KEN","city":"TSUCHIURA SHI","town":"KASUMIGAOKAMACHI","perfecture_jp":"茨城県","jp_add_1":"土浦市","jp_add_2":"霞ケ岡町"},"3004114":{"post_code":"3004114","prefecture":"IBARAKI KEN","city":"TSUCHIURA SHI","town":"KAMISAKATA","perfecture_jp":"茨城県","jp_add_1":"土浦市","jp_add_2":"上坂田"},"3000811":{"post_code":"3000811","prefecture":"IBARAKI KEN","city":"TSUCHIURA SHI","town":"KAMITAKATSU","perfecture_jp":"茨城県","jp_add_1":"土浦市","jp_add_2":"上高津"},"3000819":{"post_code":"3000819","prefecture":"IBARAKI KEN","city":"TSUCHIURA SHI","town":"KAMITAKATSUSHIMMACHI","perfecture_jp":"茨城県","jp_add_1":"土浦市","jp_add_2":"上高津新町"},"3000836":{"post_code":"3000836","prefecture":"IBARAKI KEN","city":"TSUCHIURA SHI","town":"KARASUYAMA","perfecture_jp":"茨城県","jp_add_1":"土浦市","jp_add_2":"烏山"},"3000033":{"post_code":"3000033","prefecture":"IBARAKI KEN","city":"TSUCHIURA SHI","town":"KAWAGUCHI","perfecture_jp":"茨城県","jp_add_1":"土浦市","jp_add_2":"川口"},"3000011":{"post_code":"3000011","prefecture":"IBARAKI KEN","city":"TSUCHIURA SHI","town":"KANDATSUCHUO","perfecture_jp":"茨城県","jp_add_1":"土浦市","jp_add_2":"神立中央"},"3000013":{"post_code":"3000013","prefecture":"IBARAKI KEN","city":"TSUCHIURA SHI","town":"KANDATSUMACHI","perfecture_jp":"茨城県","jp_add_1":"土浦市","jp_add_2":"神立町"},"3000012":{"post_code":"3000012","prefecture":"IBARAKI KEN","city":"TSUCHIURA SHI","town":"KANDATSUHIGASHI","perfecture_jp":"茨城県","jp_add_1":"土浦市","jp_add_2":"神立東"},"3000876":{"post_code":"3000876","prefecture":"IBARAKI KEN","city":"TSUCHIURA SHI","town":"KITAARAKAWAOKIMACHI","perfecture_jp":"茨城県","jp_add_1":"土浦市","jp_add_2":"北荒川沖町"},"3000015":{"post_code":"3000015","prefecture":"IBARAKI KEN","city":"TSUCHIURA SHI","town":"KITAKANDATSUMACHI","perfecture_jp":"茨城県","jp_add_1":"土浦市","jp_add_2":"北神立町"},"3000026":{"post_code":"3000026","prefecture":"IBARAKI KEN","city":"TSUCHIURA SHI","town":"KIDAMARI","perfecture_jp":"茨城県","jp_add_1":"土浦市","jp_add_2":"木田余"},"3000056":{"post_code":"3000056","prefecture":"IBARAKI KEN","city":"TSUCHIURA SHI","town":"KIDAMARINISHIDAI","perfecture_jp":"茨城県","jp_add_1":"土浦市","jp_add_2":"木田余西台"},"3000027":{"post_code":"3000027","prefecture":"IBARAKI KEN","city":"TSUCHIURA SHI","town":"KIDAMARIHIGASHIDAI","perfecture_jp":"茨城県","jp_add_1":"土浦市","jp_add_2":"木田余東台"},"3000831":{"post_code":"3000831","prefecture":"IBARAKI KEN","city":"TSUCHIURA SHI","town":"KOIWATA","perfecture_jp":"茨城県","jp_add_1":"土浦市","jp_add_2":"小岩田"},"3000834":{"post_code":"3000834","prefecture":"IBARAKI KEN","city":"TSUCHIURA SHI","town":"KOIWADA HIGASHI","perfecture_jp":"茨城県","jp_add_1":"土浦市","jp_add_2":"小岩田東"},"3000833":{"post_code":"3000833","prefecture":"IBARAKI KEN","city":"TSUCHIURA SHI","town":"KOIWADA NISHI","perfecture_jp":"茨城県","jp_add_1":"土浦市","jp_add_2":"小岩田西"},"3000814":{"post_code":"3000814","prefecture":"IBARAKI KEN","city":"TSUCHIURA SHI","town":"KOKUBUCHO","perfecture_jp":"茨城県","jp_add_1":"土浦市","jp_add_2":"国分町"},"3000032":{"post_code":"3000032","prefecture":"IBARAKI KEN","city":"TSUCHIURA SHI","town":"KOHOKU","perfecture_jp":"茨城県","jp_add_1":"土浦市","jp_add_2":"湖北"},"3000823":{"post_code":"3000823","prefecture":"IBARAKI KEN","city":"TSUCHIURA SHI","town":"KOMATSU","perfecture_jp":"茨城県","jp_add_1":"土浦市","jp_add_2":"小松"},"3000826":{"post_code":"3000826","prefecture":"IBARAKI KEN","city":"TSUCHIURA SHI","town":"KOMATSUGAOKAMACHI","perfecture_jp":"茨城県","jp_add_1":"土浦市","jp_add_2":"小松ケ丘町"},"3000004":{"post_code":"3000004","prefecture":"IBARAKI KEN","city":"TSUCHIURA SHI","town":"KOYAMAZAKI","perfecture_jp":"茨城県","jp_add_1":"土浦市","jp_add_2":"小山崎"},"3000832":{"post_code":"3000832","prefecture":"IBARAKI KEN","city":"TSUCHIURA SHI","town":"SAKURAGAOKAMACHI","perfecture_jp":"茨城県","jp_add_1":"土浦市","jp_add_2":"桜ケ丘町"},"3000037":{"post_code":"3000037","prefecture":"IBARAKI KEN","city":"TSUCHIURA SHI","town":"SAKURAMACHI","perfecture_jp":"茨城県","jp_add_1":"土浦市","jp_add_2":"桜町"},"3000803":{"post_code":"3000803","prefecture":"IBARAKI KEN","city":"TSUCHIURA SHI","town":"SANOKO","perfecture_jp":"茨城県","jp_add_1":"土浦市","jp_add_2":"佐野子"},"3004104":{"post_code":"3004104","prefecture":"IBARAKI KEN","city":"TSUCHIURA SHI","town":"SAWABE","perfecture_jp":"茨城県","jp_add_1":"土浦市","jp_add_2":"沢辺"},"3000805":{"post_code":"3000805","prefecture":"IBARAKI KEN","city":"TSUCHIURA SHI","town":"SHISHITSUKA","perfecture_jp":"茨城県","jp_add_1":"土浦市","jp_add_2":"宍塚"},"3004113":{"post_code":"3004113","prefecture":"IBARAKI KEN","city":"TSUCHIURA SHI","town":"SHIMOSAKATA","perfecture_jp":"茨城県","jp_add_1":"土浦市","jp_add_2":"下坂田"},"3000812":{"post_code":"3000812","prefecture":"IBARAKI KEN","city":"TSUCHIURA SHI","town":"SHIMOTAKATSU","perfecture_jp":"茨城県","jp_add_1":"土浦市","jp_add_2":"下高津"},"3000042":{"post_code":"3000042","prefecture":"IBARAKI KEN","city":"TSUCHIURA SHI","town":"JOHOKUMACHI","perfecture_jp":"茨城県","jp_add_1":"土浦市","jp_add_2":"城北町"},"3000022":{"post_code":"3000022","prefecture":"IBARAKI KEN","city":"TSUCHIURA SHI","town":"SHIRATORIMACHI","perfecture_jp":"茨城県","jp_add_1":"土浦市","jp_add_2":"白鳥町"},"3000021":{"post_code":"3000021","prefecture":"IBARAKI KEN","city":"TSUCHIURA SHI","town":"SUGENOYAMACHI","perfecture_jp":"茨城県","jp_add_1":"土浦市","jp_add_2":"菅谷町"},"3000046":{"post_code":"3000046","prefecture":"IBARAKI KEN","city":"TSUCHIURA SHI","town":"SENZOKUCHO","perfecture_jp":"茨城県","jp_add_1":"土浦市","jp_add_2":"千束町"},"3004117":{"post_code":"3004117","prefecture":"IBARAKI KEN","city":"TSUCHIURA SHI","town":"TAKAOKA","perfecture_jp":"茨城県","jp_add_1":"土浦市","jp_add_2":"高岡"},"3000839":{"post_code":"3000839","prefecture":"IBARAKI KEN","city":"TSUCHIURA SHI","town":"TAKITA","perfecture_jp":"茨城県","jp_add_1":"土浦市","jp_add_2":"滝田"},"3000041":{"post_code":"3000041","prefecture":"IBARAKI KEN","city":"TSUCHIURA SHI","town":"TATSUTAMACHI","perfecture_jp":"茨城県","jp_add_1":"土浦市","jp_add_2":"立田町"},"3004118":{"post_code":"3004118","prefecture":"IBARAKI KEN","city":"TSUCHIURA SHI","town":"TADOBE","perfecture_jp":"茨城県","jp_add_1":"土浦市","jp_add_2":"田土部"},"3000048":{"post_code":"3000048","prefecture":"IBARAKI KEN","city":"TSUCHIURA SHI","town":"TANAKA","perfecture_jp":"茨城県","jp_add_1":"土浦市","jp_add_2":"田中"},"3000049":{"post_code":"3000049","prefecture":"IBARAKI KEN","city":"TSUCHIURA SHI","town":"TANAKAMACHI","perfecture_jp":"茨城県","jp_add_1":"土浦市","jp_add_2":"田中町"},"3004105":{"post_code":"3004105","prefecture":"IBARAKI KEN","city":"TSUCHIURA SHI","town":"TAMIYA","perfecture_jp":"茨城県","jp_add_1":"土浦市","jp_add_2":"田宮"},"3000024":{"post_code":"3000024","prefecture":"IBARAKI KEN","city":"TSUCHIURA SHI","town":"TAMURAMACHI","perfecture_jp":"茨城県","jp_add_1":"土浦市","jp_add_2":"田村町"},"3000824":{"post_code":"3000824","prefecture":"IBARAKI KEN","city":"TSUCHIURA SHI","town":"CHIDORIGAOKAMACHI","perfecture_jp":"茨城県","jp_add_1":"土浦市","jp_add_2":"千鳥ケ丘町"},"3000043":{"post_code":"3000043","prefecture":"IBARAKI KEN","city":"TSUCHIURA SHI","town":"CHUO","perfecture_jp":"茨城県","jp_add_1":"土浦市","jp_add_2":"中央"},"3000062":{"post_code":"3000062","prefecture":"IBARAKI KEN","city":"TSUCHIURA SHI","town":"TSUWA","perfecture_jp":"茨城県","jp_add_1":"土浦市","jp_add_2":"都和"},"3000025":{"post_code":"3000025","prefecture":"IBARAKI KEN","city":"TSUCHIURA SHI","town":"TENOMACHI","perfecture_jp":"茨城県","jp_add_1":"土浦市","jp_add_2":"手野町"},"3000031":{"post_code":"3000031","prefecture":"IBARAKI KEN","city":"TSUCHIURA SHI","town":"TOZAKIMACHI","perfecture_jp":"茨城県","jp_add_1":"土浦市","jp_add_2":"東崎町"},"3004107":{"post_code":"3004107","prefecture":"IBARAKI KEN","city":"TSUCHIURA SHI","town":"TOJOJI","perfecture_jp":"茨城県","jp_add_1":"土浦市","jp_add_2":"東城寺"},"3000055":{"post_code":"3000055","prefecture":"IBARAKI KEN","city":"TSUCHIURA SHI","town":"TONOSATO","perfecture_jp":"茨城県","jp_add_1":"土浦市","jp_add_2":"殿里"},"3000841":{"post_code":"3000841","prefecture":"IBARAKI KEN","city":"TSUCHIURA SHI","town":"NAKA","perfecture_jp":"茨城県","jp_add_1":"土浦市","jp_add_2":"中"},"3000875":{"post_code":"3000875","prefecture":"IBARAKI KEN","city":"TSUCHIURA SHI","town":"NAKAARAKAWAOKIMACHI","perfecture_jp":"茨城県","jp_add_1":"土浦市","jp_add_2":"中荒川沖町"},"3004101":{"post_code":"3004101","prefecture":"IBARAKI KEN","city":"TSUCHIURA SHI","town":"NAGAI","perfecture_jp":"茨城県","jp_add_1":"土浦市","jp_add_2":"永井"},"3000016":{"post_code":"3000016","prefecture":"IBARAKI KEN","city":"TSUCHIURA SHI","town":"NAKAKANDATSUMACHI","perfecture_jp":"茨城県","jp_add_1":"土浦市","jp_add_2":"中神立町"},"3000815":{"post_code":"3000815","prefecture":"IBARAKI KEN","city":"TSUCHIURA SHI","town":"NAKATAKATSU","perfecture_jp":"茨城県","jp_add_1":"土浦市","jp_add_2":"中高津"},"3000009":{"post_code":"3000009","prefecture":"IBARAKI KEN","city":"TSUCHIURA SHI","town":"NAKATSUMACHI","perfecture_jp":"茨城県","jp_add_1":"土浦市","jp_add_2":"中都町"},"3000005":{"post_code":"3000005","prefecture":"IBARAKI KEN","city":"TSUCHIURA SHI","town":"NAKANUKI","perfecture_jp":"茨城県","jp_add_1":"土浦市","jp_add_2":"中貫"},"3000849":{"post_code":"3000849","prefecture":"IBARAKI KEN","city":"TSUCHIURA SHI","town":"NAKAMURANISHINE","perfecture_jp":"茨城県","jp_add_1":"土浦市","jp_add_2":"中村西根"},"3000850":{"post_code":"3000850","prefecture":"IBARAKI KEN","city":"TSUCHIURA SHI","town":"NAKAMURAHIGASHI","perfecture_jp":"茨城県","jp_add_1":"土浦市","jp_add_2":"中村東"},"3000843":{"post_code":"3000843","prefecture":"IBARAKI KEN","city":"TSUCHIURA SHI","town":"NAKAMURAMINAMI","perfecture_jp":"茨城県","jp_add_1":"土浦市","jp_add_2":"中村南"},"3000817":{"post_code":"3000817","prefecture":"IBARAKI KEN","city":"TSUCHIURA SHI","town":"NAGAKUNI","perfecture_jp":"茨城県","jp_add_1":"土浦市","jp_add_2":"永国"},"3000810":{"post_code":"3000810","prefecture":"IBARAKI KEN","city":"TSUCHIURA SHI","town":"NAGAKUNIDAI","perfecture_jp":"茨城県","jp_add_1":"土浦市","jp_add_2":"永国台"},"3000816":{"post_code":"3000816","prefecture":"IBARAKI KEN","city":"TSUCHIURA SHI","town":"NAGAKUNIHIGASHIMACHI","perfecture_jp":"茨城県","jp_add_1":"土浦市","jp_add_2":"永国東町"},"3000061":{"post_code":"3000061","prefecture":"IBARAKI KEN","city":"TSUCHIURA SHI","town":"NAMIKI","perfecture_jp":"茨城県","jp_add_1":"土浦市","jp_add_2":"並木"},"3000014":{"post_code":"3000014","prefecture":"IBARAKI KEN","city":"TSUCHIURA SHI","town":"NISHIKANDATSU","perfecture_jp":"茨城県","jp_add_1":"土浦市","jp_add_2":"西神立"},"3000068":{"post_code":"3000068","prefecture":"IBARAKI KEN","city":"TSUCHIURA SHI","town":"NISHINAMIKIMACHI","perfecture_jp":"茨城県","jp_add_1":"土浦市","jp_add_2":"西並木町"},"3000848":{"post_code":"3000848","prefecture":"IBARAKI KEN","city":"TSUCHIURA SHI","town":"NISHINENISHI","perfecture_jp":"茨城県","jp_add_1":"土浦市","jp_add_2":"西根西"},"3000842":{"post_code":"3000842","prefecture":"IBARAKI KEN","city":"TSUCHIURA SHI","town":"NISHINEMINAMI","perfecture_jp":"茨城県","jp_add_1":"土浦市","jp_add_2":"西根南"},"3000054":{"post_code":"3000054","prefecture":"IBARAKI KEN","city":"TSUCHIURA SHI","town":"NISHIMANABEMACHI","perfecture_jp":"茨城県","jp_add_1":"土浦市","jp_add_2":"西真鍋町"},"3000821":{"post_code":"3000821","prefecture":"IBARAKI KEN","city":"TSUCHIURA SHI","town":"HASUKAWARASHIMMACHI","perfecture_jp":"茨城県","jp_add_1":"土浦市","jp_add_2":"蓮河原新町"},"3000822":{"post_code":"3000822","prefecture":"IBARAKI KEN","city":"TSUCHIURA SHI","town":"HASUKAWARAMACHI","perfecture_jp":"茨城県","jp_add_1":"土浦市","jp_add_2":"蓮河原町"},"3000067":{"post_code":"3000067","prefecture":"IBARAKI KEN","city":"TSUCHIURA SHI","town":"HIGASHITSUWA","perfecture_jp":"茨城県","jp_add_1":"土浦市","jp_add_2":"東都和"},"3000006":{"post_code":"3000006","prefecture":"IBARAKI KEN","city":"TSUCHIURA SHI","town":"HIGASHINAKANUKIMACHI","perfecture_jp":"茨城県","jp_add_1":"土浦市","jp_add_2":"東中貫町"},"3000069":{"post_code":"3000069","prefecture":"IBARAKI KEN","city":"TSUCHIURA SHI","town":"HIGASHINAMIKIMACHI","perfecture_jp":"茨城県","jp_add_1":"土浦市","jp_add_2":"東並木町"},"3000052":{"post_code":"3000052","prefecture":"IBARAKI KEN","city":"TSUCHIURA SHI","town":"HIGASHIMANABEMACHI","perfecture_jp":"茨城県","jp_add_1":"土浦市","jp_add_2":"東真鍋町"},"3000064":{"post_code":"3000064","prefecture":"IBARAKI KEN","city":"TSUCHIURA SHI","town":"HIGASHIWAKAMATSUMACHI","perfecture_jp":"茨城県","jp_add_1":"土浦市","jp_add_2":"東若松町"},"3000065":{"post_code":"3000065","prefecture":"IBARAKI KEN","city":"TSUCHIURA SHI","town":"HITANA","perfecture_jp":"茨城県","jp_add_1":"土浦市","jp_add_2":"常名"},"3000813":{"post_code":"3000813","prefecture":"IBARAKI KEN","city":"TSUCHIURA SHI","town":"FUJISAKI","perfecture_jp":"茨城県","jp_add_1":"土浦市","jp_add_2":"富士崎"},"3004115":{"post_code":"3004115","prefecture":"IBARAKI KEN","city":"TSUCHIURA SHI","town":"FUJISAWA","perfecture_jp":"茨城県","jp_add_1":"土浦市","jp_add_2":"藤沢"},"3004116":{"post_code":"3004116","prefecture":"IBARAKI KEN","city":"TSUCHIURA SHI","town":"FUJISAWASHINDEN","perfecture_jp":"茨城県","jp_add_1":"土浦市","jp_add_2":"藤沢新田"},"3000045":{"post_code":"3000045","prefecture":"IBARAKI KEN","city":"TSUCHIURA SHI","town":"BUNKYOCHO","perfecture_jp":"茨城県","jp_add_1":"土浦市","jp_add_2":"文京町"},"3004102":{"post_code":"3004102","prefecture":"IBARAKI KEN","city":"TSUCHIURA SHI","town":"HONGO","perfecture_jp":"茨城県","jp_add_1":"土浦市","jp_add_2":"本郷"},"3000051":{"post_code":"3000051","prefecture":"IBARAKI KEN","city":"TSUCHIURA SHI","town":"MANABE","perfecture_jp":"茨城県","jp_add_1":"土浦市","jp_add_2":"真鍋"},"3000053":{"post_code":"3000053","prefecture":"IBARAKI KEN","city":"TSUCHIURA SHI","town":"MANABESHIMMACHI","perfecture_jp":"茨城県","jp_add_1":"土浦市","jp_add_2":"真鍋新町"},"3000838":{"post_code":"3000838","prefecture":"IBARAKI KEN","city":"TSUCHIURA SHI","town":"MARIYAMASHINDEN","perfecture_jp":"茨城県","jp_add_1":"土浦市","jp_add_2":"摩利山新田"},"3000837":{"post_code":"3000837","prefecture":"IBARAKI KEN","city":"TSUCHIURA SHI","town":"MIGIMOMI","perfecture_jp":"茨城県","jp_add_1":"土浦市","jp_add_2":"右籾"},"3000034":{"post_code":"3000034","prefecture":"IBARAKI KEN","city":"TSUCHIURA SHI","town":"MINATOMACHI","perfecture_jp":"茨城県","jp_add_1":"土浦市","jp_add_2":"港町"},"3000066":{"post_code":"3000066","prefecture":"IBARAKI KEN","city":"TSUCHIURA SHI","town":"MUSHIKAKE","perfecture_jp":"茨城県","jp_add_1":"土浦市","jp_add_2":"虫掛"},"3000003":{"post_code":"3000003","prefecture":"IBARAKI KEN","city":"TSUCHIURA SHI","town":"MURASAKIGAOKA","perfecture_jp":"茨城県","jp_add_1":"土浦市","jp_add_2":"紫ケ丘"},"3004112":{"post_code":"3004112","prefecture":"IBARAKI KEN","city":"TSUCHIURA SHI","town":"MOMOZONO","perfecture_jp":"茨城県","jp_add_1":"土浦市","jp_add_2":"桃園"},"3000801":{"post_code":"3000801","prefecture":"IBARAKI KEN","city":"TSUCHIURA SHI","town":"YAHAGI","perfecture_jp":"茨城県","jp_add_1":"土浦市","jp_add_2":"矢作"},"3000036":{"post_code":"3000036","prefecture":"IBARAKI KEN","city":"TSUCHIURA SHI","town":"YAMATOCHO","perfecture_jp":"茨城県","jp_add_1":"土浦市","jp_add_2":"大和町"},"3000063":{"post_code":"3000063","prefecture":"IBARAKI KEN","city":"TSUCHIURA SHI","town":"WAKAMATSUCHO","perfecture_jp":"茨城県","jp_add_1":"土浦市","jp_add_2":"若松町"},"3002525":{"post_code":"3002525","prefecture":"IBARAKI KEN","city":"JOSO SHI","town":"IZAEMONSHINDEMMACHI","perfecture_jp":"茨城県","jp_add_1":"常総市","jp_add_2":"伊左衛門新田町"},"3002727":{"post_code":"3002727","prefecture":"IBARAKI KEN","city":"JOSO SHI","town":"OSAWA","perfecture_jp":"茨城県","jp_add_1":"常総市","jp_add_2":"大沢"},"3002745":{"post_code":"3002745","prefecture":"IBARAKI KEN","city":"JOSO SHI","town":"OSAWASHINDEN","perfecture_jp":"茨城県","jp_add_1":"常総市","jp_add_2":"大沢新田"},"3002526":{"post_code":"3002526","prefecture":"IBARAKI KEN","city":"JOSO SHI","town":"ONOGOSHINDEMMACHI","perfecture_jp":"茨城県","jp_add_1":"常総市","jp_add_2":"大生郷新田町"},"3002521":{"post_code":"3002521","prefecture":"IBARAKI KEN","city":"JOSO SHI","town":"ONOGOMACHI","perfecture_jp":"茨城県","jp_add_1":"常総市","jp_add_2":"大生郷町"},"3002512":{"post_code":"3002512","prefecture":"IBARAKI KEN","city":"JOSO SHI","town":"OWAMACHI","perfecture_jp":"茨城県","jp_add_1":"常総市","jp_add_2":"大輪町"},"3002743":{"post_code":"3002743","prefecture":"IBARAKI KEN","city":"JOSO SHI","town":"OKADA","perfecture_jp":"茨城県","jp_add_1":"常総市","jp_add_2":"岡田"},"3002504":{"post_code":"3002504","prefecture":"IBARAKI KEN","city":"JOSO SHI","town":"OKISHINDEMMACHI","perfecture_jp":"茨城県","jp_add_1":"常総市","jp_add_2":"沖新田町"},"3002703":{"post_code":"3002703","prefecture":"IBARAKI KEN","city":"JOSO SHI","town":"OBOKAWA","perfecture_jp":"茨城県","jp_add_1":"常総市","jp_add_2":"小保川"},"3002503":{"post_code":"3002503","prefecture":"IBARAKI KEN","city":"JOSO SHI","town":"KAWASAKIMACHI","perfecture_jp":"茨城県","jp_add_1":"常総市","jp_add_2":"川崎町"},"3002722":{"post_code":"3002722","prefecture":"IBARAKI KEN","city":"JOSO SHI","town":"KURAMOCHI","perfecture_jp":"茨城県","jp_add_1":"常総市","jp_add_2":"蔵持"},"3002723":{"post_code":"3002723","prefecture":"IBARAKI KEN","city":"JOSO SHI","town":"KURAMOCHISHINDEN","perfecture_jp":"茨城県","jp_add_1":"常総市","jp_add_2":"蔵持新田"},"3002734":{"post_code":"3002734","prefecture":"IBARAKI KEN","city":"JOSO SHI","town":"KURIYAMASHINDEN","perfecture_jp":"茨城県","jp_add_1":"常総市","jp_add_2":"栗山新田"},"3002746":{"post_code":"3002746","prefecture":"IBARAKI KEN","city":"JOSO SHI","town":"KONOYAMA","perfecture_jp":"茨城県","jp_add_1":"常総市","jp_add_2":"鴻野山"},"3002732":{"post_code":"3002732","prefecture":"IBARAKI KEN","city":"JOSO SHI","town":"KONOYAMASHINDEN","perfecture_jp":"茨城県","jp_add_1":"常総市","jp_add_2":"鴻野山新田"},"3002741":{"post_code":"3002741","prefecture":"IBARAKI KEN","city":"JOSO SHI","town":"KOSSHO","perfecture_jp":"茨城県","jp_add_1":"常総市","jp_add_2":"国生"},"3002524":{"post_code":"3002524","prefecture":"IBARAKI KEN","city":"JOSO SHI","town":"GOROBEESHINDEMMACHI","perfecture_jp":"茨城県","jp_add_1":"常総市","jp_add_2":"五郎兵衛新田町"},"3002747":{"post_code":"3002747","prefecture":"IBARAKI KEN","city":"JOSO SHI","town":"SAKIBUSA","perfecture_jp":"茨城県","jp_add_1":"常総市","jp_add_2":"崎房"},"3002523":{"post_code":"3002523","prefecture":"IBARAKI KEN","city":"JOSO SHI","town":"SASATSUKASHINDENCHO","perfecture_jp":"茨城県","jp_add_1":"常総市","jp_add_2":"笹塚新田町"},"3002735":{"post_code":"3002735","prefecture":"IBARAKI KEN","city":"JOSO SHI","town":"SAHEITASHINDEN","perfecture_jp":"茨城県","jp_add_1":"常総市","jp_add_2":"左平太新田"},"3002721":{"post_code":"3002721","prefecture":"IBARAKI KEN","city":"JOSO SHI","town":"SHINOYAMA","perfecture_jp":"茨城県","jp_add_1":"常総市","jp_add_2":"篠山"},"3002502":{"post_code":"3002502","prefecture":"IBARAKI KEN","city":"JOSO SHI","town":"JOJAMACHI","perfecture_jp":"茨城県","jp_add_1":"常総市","jp_add_2":"上蛇町"},"3002706":{"post_code":"3002706","prefecture":"IBARAKI KEN","city":"JOSO SHI","town":"SHINISHIGE","perfecture_jp":"茨城県","jp_add_1":"常総市","jp_add_2":"新石下"},"3002744":{"post_code":"3002744","prefecture":"IBARAKI KEN","city":"JOSO SHI","town":"SUGIYAMA","perfecture_jp":"茨城県","jp_add_1":"常総市","jp_add_2":"杉山"},"3002713":{"post_code":"3002713","prefecture":"IBARAKI KEN","city":"JOSO SHI","town":"SUNOYA","perfecture_jp":"茨城県","jp_add_1":"常総市","jp_add_2":"収納谷"},"3002716":{"post_code":"3002716","prefecture":"IBARAKI KEN","city":"JOSO SHI","town":"DAIBO","perfecture_jp":"茨城県","jp_add_1":"常総市","jp_add_2":"大房"},"3002704":{"post_code":"3002704","prefecture":"IBARAKI KEN","city":"JOSO SHI","town":"TATEGATA","perfecture_jp":"茨城県","jp_add_1":"常総市","jp_add_2":"舘方"},"3002717":{"post_code":"3002717","prefecture":"IBARAKI KEN","city":"JOSO SHI","town":"TONOHARA","perfecture_jp":"茨城県","jp_add_1":"常総市","jp_add_2":"東野原"},"3002705":{"post_code":"3002705","prefecture":"IBARAKI KEN","city":"JOSO SHI","town":"TOYODA","perfecture_jp":"茨城県","jp_add_1":"常総市","jp_add_2":"豊田"},"3002505":{"post_code":"3002505","prefecture":"IBARAKI KEN","city":"JOSO SHI","town":"NAKATSUMAMACHI","perfecture_jp":"茨城県","jp_add_1":"常総市","jp_add_2":"中妻町"},"3002726":{"post_code":"3002726","prefecture":"IBARAKI KEN","city":"JOSO SHI","town":"NAKANUMA","perfecture_jp":"茨城県","jp_add_1":"常総市","jp_add_2":"中沼"},"3002511":{"post_code":"3002511","prefecture":"IBARAKI KEN","city":"JOSO SHI","town":"HANASHIMAMACHI","perfecture_jp":"茨城県","jp_add_1":"常総市","jp_add_2":"花島町"},"3002513":{"post_code":"3002513","prefecture":"IBARAKI KEN","city":"JOSO SHI","town":"HANYUMACHI","perfecture_jp":"茨城県","jp_add_1":"常総市","jp_add_2":"羽生町"},"3002748":{"post_code":"3002748","prefecture":"IBARAKI KEN","city":"JOSO SHI","town":"BABA","perfecture_jp":"茨城県","jp_add_1":"常総市","jp_add_2":"馬場"},"3002733":{"post_code":"3002733","prefecture":"IBARAKI KEN","city":"JOSO SHI","town":"BABASHINDEN","perfecture_jp":"茨城県","jp_add_1":"常総市","jp_add_2":"馬場新田"},"3002702":{"post_code":"3002702","prefecture":"IBARAKI KEN","city":"JOSO SHI","town":"HARAJUKU","perfecture_jp":"茨城県","jp_add_1":"常総市","jp_add_2":"原宿"},"3002501":{"post_code":"3002501","prefecture":"IBARAKI KEN","city":"JOSO SHI","town":"FUKUJIMACHI","perfecture_jp":"茨城県","jp_add_1":"常総市","jp_add_2":"福二町"},"3002724":{"post_code":"3002724","prefecture":"IBARAKI KEN","city":"JOSO SHI","town":"FURUMAGI","perfecture_jp":"茨城県","jp_add_1":"常総市","jp_add_2":"古間木"},"3002731":{"post_code":"3002731","prefecture":"IBARAKI KEN","city":"JOSO SHI","town":"FURUMAGISHINDEN","perfecture_jp":"茨城県","jp_add_1":"常総市","jp_add_2":"古間木新田"},"3002725":{"post_code":"3002725","prefecture":"IBARAKI KEN","city":"JOSO SHI","town":"FURUMAGINUMASHINDEN","perfecture_jp":"茨城県","jp_add_1":"常総市","jp_add_2":"古間木沼新田"},"3002714":{"post_code":"3002714","prefecture":"IBARAKI KEN","city":"JOSO SHI","town":"HEINAI","perfecture_jp":"茨城県","jp_add_1":"常総市","jp_add_2":"平内"},"3002712":{"post_code":"3002712","prefecture":"IBARAKI KEN","city":"JOSO SHI","town":"MAGATTA","perfecture_jp":"茨城県","jp_add_1":"常総市","jp_add_2":"曲田"},"3002736":{"post_code":"3002736","prefecture":"IBARAKI KEN","city":"JOSO SHI","town":"MAGOBEESHINDEN","perfecture_jp":"茨城県","jp_add_1":"常総市","jp_add_2":"孫兵ヱ新田"},"3002507":{"post_code":"3002507","prefecture":"IBARAKI KEN","city":"JOSO SHI","town":"MISAKASHINDEMMACHI","perfecture_jp":"茨城県","jp_add_1":"常総市","jp_add_2":"三坂新田町"},"3002506":{"post_code":"3002506","prefecture":"IBARAKI KEN","city":"JOSO SHI","town":"MISAKAMACHI","perfecture_jp":"茨城県","jp_add_1":"常総市","jp_add_2":"三坂町"},"3002742":{"post_code":"3002742","prefecture":"IBARAKI KEN","city":"JOSO SHI","town":"MUKOISHIGE","perfecture_jp":"茨城県","jp_add_1":"常総市","jp_add_2":"向石下"},"3002707":{"post_code":"3002707","prefecture":"IBARAKI KEN","city":"JOSO SHI","town":"MOTOISHIGE","perfecture_jp":"茨城県","jp_add_1":"常総市","jp_add_2":"本石下"},"3002711":{"post_code":"3002711","prefecture":"IBARAKI KEN","city":"JOSO SHI","town":"MOTOTOYODA","perfecture_jp":"茨城県","jp_add_1":"常総市","jp_add_2":"本豊田"},"3002715":{"post_code":"3002715","prefecture":"IBARAKI KEN","city":"JOSO SHI","town":"YAMAGUCHI","perfecture_jp":"茨城県","jp_add_1":"常総市","jp_add_2":"山口"},"3002522":{"post_code":"3002522","prefecture":"IBARAKI KEN","city":"JOSO SHI","town":"YOKOZONESHINDEMMACHI","perfecture_jp":"茨城県","jp_add_1":"常総市","jp_add_2":"横曽根新田町"},"3002701":{"post_code":"3002701","prefecture":"IBARAKI KEN","city":"JOSO SHI","town":"WAKAMIYADO","perfecture_jp":"茨城県","jp_add_1":"常総市","jp_add_2":"若宮戸"},"3001523":{"post_code":"3001523","prefecture":"IBARAKI KEN","city":"TORIDE SHI","town":"ODOME","perfecture_jp":"茨城県","jp_add_1":"取手市","jp_add_2":"大留"},"3001503":{"post_code":"3001503","prefecture":"IBARAKI KEN","city":"TORIDE SHI","town":"OMAGARI","perfecture_jp":"茨城県","jp_add_1":"取手市","jp_add_2":"大曲"},"3001546":{"post_code":"3001546","prefecture":"IBARAKI KEN","city":"TORIDE SHI","town":"OKA","perfecture_jp":"茨城県","jp_add_1":"取手市","jp_add_2":"岡"},"3001521":{"post_code":"3001521","prefecture":"IBARAKI KEN","city":"TORIDE SHI","town":"OSHIKIRI","perfecture_jp":"茨城県","jp_add_1":"取手市","jp_add_2":"押切"},"3001542":{"post_code":"3001542","prefecture":"IBARAKI KEN","city":"TORIDE SHI","town":"KASUMI","perfecture_jp":"茨城県","jp_add_1":"取手市","jp_add_2":"神住"},"3001513":{"post_code":"3001513","prefecture":"IBARAKI KEN","city":"TORIDE SHI","town":"KATAMACHI","perfecture_jp":"茨城県","jp_add_1":"取手市","jp_add_2":"片町"},"3001506":{"post_code":"3001506","prefecture":"IBARAKI KEN","city":"TORIDE SHI","town":"KAMIKAYABA","perfecture_jp":"茨城県","jp_add_1":"取手市","jp_add_2":"上萱場"},"3001504":{"post_code":"3001504","prefecture":"IBARAKI KEN","city":"TORIDE SHI","town":"KAYABA","perfecture_jp":"茨城県","jp_add_1":"取手市","jp_add_2":"萱場"},"3001524":{"post_code":"3001524","prefecture":"IBARAKI KEN","city":"TORIDE SHI","town":"KANNORA","perfecture_jp":"茨城県","jp_add_1":"取手市","jp_add_2":"神浦"},"3001511":{"post_code":"3001511","prefecture":"IBARAKI KEN","city":"TORIDE SHI","town":"KUNUGI","perfecture_jp":"茨城県","jp_add_1":"取手市","jp_add_2":"椚木"},"3001537":{"post_code":"3001537","prefecture":"IBARAKI KEN","city":"TORIDE SHI","town":"KEARI","perfecture_jp":"茨城県","jp_add_1":"取手市","jp_add_2":"毛有"},"3001539":{"post_code":"3001539","prefecture":"IBARAKI KEN","city":"TORIDE SHI","town":"KOIZUMI","perfecture_jp":"茨城県","jp_add_1":"取手市","jp_add_2":"小泉"},"3001536":{"post_code":"3001536","prefecture":"IBARAKI KEN","city":"TORIDE SHI","town":"KOFUDAI","perfecture_jp":"茨城県","jp_add_1":"取手市","jp_add_2":"光風台"},"3001531":{"post_code":"3001531","prefecture":"IBARAKI KEN","city":"TORIDE SHI","town":"KOBUKE","perfecture_jp":"茨城県","jp_add_1":"取手市","jp_add_2":"小浮気"},"3001525":{"post_code":"3001525","prefecture":"IBARAKI KEN","city":"TORIDE SHI","town":"SAKURAGAOKA","perfecture_jp":"茨城県","jp_add_1":"取手市","jp_add_2":"桜が丘"},"3001544":{"post_code":"3001544","prefecture":"IBARAKI KEN","city":"TORIDE SHI","town":"SANNO","perfecture_jp":"茨城県","jp_add_1":"取手市","jp_add_2":"山王"},"3001508":{"post_code":"3001508","prefecture":"IBARAKI KEN","city":"TORIDE SHI","town":"SHISUI","perfecture_jp":"茨城県","jp_add_1":"取手市","jp_add_2":"紫水"},"3001534":{"post_code":"3001534","prefecture":"IBARAKI KEN","city":"TORIDE SHI","town":"SHIBUNUMA","perfecture_jp":"茨城県","jp_add_1":"取手市","jp_add_2":"渋沼"},"3001535":{"post_code":"3001535","prefecture":"IBARAKI KEN","city":"TORIDE SHI","town":"SHIMIZU","perfecture_jp":"茨城県","jp_add_1":"取手市","jp_add_2":"清水"},"3001505":{"post_code":"3001505","prefecture":"IBARAKI KEN","city":"TORIDE SHI","town":"SHIMOKAYABA","perfecture_jp":"茨城県","jp_add_1":"取手市","jp_add_2":"下萱場"},"3001502":{"post_code":"3001502","prefecture":"IBARAKI KEN","city":"TORIDE SHI","town":"SHINKAWA","perfecture_jp":"茨城県","jp_add_1":"取手市","jp_add_2":"新川"},"3001522":{"post_code":"3001522","prefecture":"IBARAKI KEN","city":"TORIDE SHI","town":"TAKASU","perfecture_jp":"茨城県","jp_add_1":"取手市","jp_add_2":"高須"},"3001543":{"post_code":"3001543","prefecture":"IBARAKI KEN","city":"TORIDE SHI","town":"NAKAUCHI","perfecture_jp":"茨城県","jp_add_1":"取手市","jp_add_2":"中内"},"3001533":{"post_code":"3001533","prefecture":"IBARAKI KEN","city":"TORIDE SHI","town":"NAKATA","perfecture_jp":"茨城県","jp_add_1":"取手市","jp_add_2":"中田"},"3001541":{"post_code":"3001541","prefecture":"IBARAKI KEN","city":"TORIDE SHI","town":"HAIMATSU","perfecture_jp":"茨城県","jp_add_1":"取手市","jp_add_2":"配松"},"3001507":{"post_code":"3001507","prefecture":"IBARAKI KEN","city":"TORIDE SHI","town":"HAMADA","perfecture_jp":"茨城県","jp_add_1":"取手市","jp_add_2":"浜田"},"3001515":{"post_code":"3001515","prefecture":"IBARAKI KEN","city":"TORIDE SHI","town":"HIRANO","perfecture_jp":"茨城県","jp_add_1":"取手市","jp_add_2":"平野"},"3001512":{"post_code":"3001512","prefecture":"IBARAKI KEN","city":"TORIDE SHI","town":"FUJISHIRO","perfecture_jp":"茨城県","jp_add_1":"取手市","jp_add_2":"藤代"},"3001516":{"post_code":"3001516","prefecture":"IBARAKI KEN","city":"TORIDE SHI","town":"FUJISHIROMINAMI","perfecture_jp":"茨城県","jp_add_1":"取手市","jp_add_2":"藤代南"},"3001501":{"post_code":"3001501","prefecture":"IBARAKI KEN","city":"TORIDE SHI","town":"FUTABA","perfecture_jp":"茨城県","jp_add_1":"取手市","jp_add_2":"双葉"},"3001514":{"post_code":"3001514","prefecture":"IBARAKI KEN","city":"TORIDE SHI","town":"MIYAWADA","perfecture_jp":"茨城県","jp_add_1":"取手市","jp_add_2":"宮和田"},"3001532":{"post_code":"3001532","prefecture":"IBARAKI KEN","city":"TORIDE SHI","town":"YANAKA","perfecture_jp":"茨城県","jp_add_1":"取手市","jp_add_2":"谷中"},"3001538":{"post_code":"3001538","prefecture":"IBARAKI KEN","city":"TORIDE SHI","town":"YONEDA","perfecture_jp":"茨城県","jp_add_1":"取手市","jp_add_2":"米田"},"3001545":{"post_code":"3001545","prefecture":"IBARAKI KEN","city":"TORIDE SHI","town":"WADA","perfecture_jp":"茨城県","jp_add_1":"取手市","jp_add_2":"和田"},"3001200":{"post_code":"3001200","prefecture":"IBARAKI KEN","city":"USHIKU SHI","town":"IKANIKEISAIGANAIBAAI","perfecture_jp":"茨城県","jp_add_1":"牛久市","jp_add_2":""},"3001282":{"post_code":"3001282","prefecture":"IBARAKI KEN","city":"USHIKU SHI","town":"INOKACHO","perfecture_jp":"茨城県","jp_add_1":"牛久市","jp_add_2":"井ノ岡町"},"3001221":{"post_code":"3001221","prefecture":"IBARAKI KEN","city":"USHIKU SHI","town":"USHIKUCHO","perfecture_jp":"茨城県","jp_add_1":"牛久市","jp_add_2":"牛久町"},"3001204":{"post_code":"3001204","prefecture":"IBARAKI KEN","city":"USHIKU SHI","town":"OKAMICHO","perfecture_jp":"茨城県","jp_add_1":"牛久市","jp_add_2":"岡見町"},"3001283":{"post_code":"3001283","prefecture":"IBARAKI KEN","city":"USHIKU SHI","town":"OKUBARACHO","perfecture_jp":"茨城県","jp_add_1":"牛久市","jp_add_2":"奥原町"},"3001286":{"post_code":"3001286","prefecture":"IBARAKI KEN","city":"USHIKU SHI","town":"OSAKACHO","perfecture_jp":"茨城県","jp_add_1":"牛久市","jp_add_2":"小坂町"},"3001214":{"post_code":"3001214","prefecture":"IBARAKI KEN","city":"USHIKU SHI","town":"ONABAKECHO","perfecture_jp":"茨城県","jp_add_1":"牛久市","jp_add_2":"女化町"},"3001211":{"post_code":"3001211","prefecture":"IBARAKI KEN","city":"USHIKU SHI","town":"KASHIWADACHO","perfecture_jp":"茨城県","jp_add_1":"牛久市","jp_add_2":"柏田町"},"3001281":{"post_code":"3001281","prefecture":"IBARAKI KEN","city":"USHIKU SHI","town":"KATSURACHO","perfecture_jp":"茨城県","jp_add_1":"牛久市","jp_add_2":"桂町"},"3001213":{"post_code":"3001213","prefecture":"IBARAKI KEN","city":"USHIKU SHI","town":"KAMIOTACHO","perfecture_jp":"茨城県","jp_add_1":"牛久市","jp_add_2":"上太田町"},"3001232":{"post_code":"3001232","prefecture":"IBARAKI KEN","city":"USHIKU SHI","town":"KAMIKASHIWADA","perfecture_jp":"茨城県","jp_add_1":"牛久市","jp_add_2":"上柏田"},"3001216":{"post_code":"3001216","prefecture":"IBARAKI KEN","city":"USHIKU SHI","town":"KAMIYA","perfecture_jp":"茨城県","jp_add_1":"牛久市","jp_add_2":"神谷"},"3001235":{"post_code":"3001235","prefecture":"IBARAKI KEN","city":"USHIKU SHI","town":"KARIYACHO","perfecture_jp":"茨城県","jp_add_1":"牛久市","jp_add_2":"刈谷町"},"3001288":{"post_code":"3001288","prefecture":"IBARAKI KEN","city":"USHIKU SHI","town":"KUNOCHO","perfecture_jp":"茨城県","jp_add_1":"牛久市","jp_add_2":"久野町"},"3001212":{"post_code":"3001212","prefecture":"IBARAKI KEN","city":"USHIKU SHI","town":"KESSOKUCHO","perfecture_jp":"茨城県","jp_add_1":"牛久市","jp_add_2":"結束町"},"3001233":{"post_code":"3001233","prefecture":"IBARAKI KEN","city":"USHIKU SHI","town":"SAKAECHO","perfecture_jp":"茨城県","jp_add_1":"牛久市","jp_add_2":"栄町"},"3001217":{"post_code":"3001217","prefecture":"IBARAKI KEN","city":"USHIKU SHI","town":"SAKURADAI","perfecture_jp":"茨城県","jp_add_1":"牛久市","jp_add_2":"さくら台"},"3001231":{"post_code":"3001231","prefecture":"IBARAKI KEN","city":"USHIKU SHI","town":"SHISHIKOCHO","perfecture_jp":"茨城県","jp_add_1":"牛久市","jp_add_2":"猪子町"},"3001284":{"post_code":"3001284","prefecture":"IBARAKI KEN","city":"USHIKU SHI","town":"SHIMADACHO","perfecture_jp":"茨城県","jp_add_1":"牛久市","jp_add_2":"島田町"},"3001203":{"post_code":"3001203","prefecture":"IBARAKI KEN","city":"USHIKU SHI","town":"SHIMONECHO","perfecture_jp":"茨城県","jp_add_1":"牛久市","jp_add_2":"下根町"},"3001285":{"post_code":"3001285","prefecture":"IBARAKI KEN","city":"USHIKU SHI","town":"SHOJIKICHO","perfecture_jp":"茨城県","jp_add_1":"牛久市","jp_add_2":"正直町"},"3001223":{"post_code":"3001223","prefecture":"IBARAKI KEN","city":"USHIKU SHI","town":"JOCHUCHO","perfecture_jp":"茨城県","jp_add_1":"牛久市","jp_add_2":"城中町"},"3001224":{"post_code":"3001224","prefecture":"IBARAKI KEN","city":"USHIKU SHI","town":"SHOBEESHINDENCHO","perfecture_jp":"茨城県","jp_add_1":"牛久市","jp_add_2":"庄兵衛新田町"},"3001225":{"post_code":"3001225","prefecture":"IBARAKI KEN","city":"USHIKU SHI","town":"SHINCHICHO","perfecture_jp":"茨城県","jp_add_1":"牛久市","jp_add_2":"新地町"},"3001237":{"post_code":"3001237","prefecture":"IBARAKI KEN","city":"USHIKU SHI","town":"TAGU","perfecture_jp":"茨城県","jp_add_1":"牛久市","jp_add_2":"田宮"},"3001236":{"post_code":"3001236","prefecture":"IBARAKI KEN","city":"USHIKU SHI","town":"TAGUCHO","perfecture_jp":"茨城県","jp_add_1":"牛久市","jp_add_2":"田宮町"},"3001234":{"post_code":"3001234","prefecture":"IBARAKI KEN","city":"USHIKU SHI","town":"CHUO","perfecture_jp":"茨城県","jp_add_1":"牛久市","jp_add_2":"中央"},"3001215":{"post_code":"3001215","prefecture":"IBARAKI KEN","city":"USHIKU SHI","town":"TOYAMACHO","perfecture_jp":"茨城県","jp_add_1":"牛久市","jp_add_2":"遠山町"},"3001202":{"post_code":"3001202","prefecture":"IBARAKI KEN","city":"USHIKU SHI","town":"NAKANECHO","perfecture_jp":"茨城県","jp_add_1":"牛久市","jp_add_2":"中根町"},"3001205":{"post_code":"3001205","prefecture":"IBARAKI KEN","city":"USHIKU SHI","town":"HIGASHIOWADACHO","perfecture_jp":"茨城県","jp_add_1":"牛久市","jp_add_2":"東大和田町"},"3001201":{"post_code":"3001201","prefecture":"IBARAKI KEN","city":"USHIKU SHI","town":"HIGASHIMAMIANACHO","perfecture_jp":"茨城県","jp_add_1":"牛久市","jp_add_2":"東猯穴町"},"3001206":{"post_code":"3001206","prefecture":"IBARAKI KEN","city":"USHIKU SHI","town":"HITACHINONISHI","perfecture_jp":"茨城県","jp_add_1":"牛久市","jp_add_2":"ひたち野西"},"3001207":{"post_code":"3001207","prefecture":"IBARAKI KEN","city":"USHIKU SHI","town":"HITACHINOHIGASHI","perfecture_jp":"茨城県","jp_add_1":"牛久市","jp_add_2":"ひたち野東"},"3001287":{"post_code":"3001287","prefecture":"IBARAKI KEN","city":"USHIKU SHI","town":"FUKUDACHO","perfecture_jp":"茨城県","jp_add_1":"牛久市","jp_add_2":"福田町"},"3001222":{"post_code":"3001222","prefecture":"IBARAKI KEN","city":"USHIKU SHI","town":"MINAMI","perfecture_jp":"茨城県","jp_add_1":"牛久市","jp_add_2":"南"},"3004203":{"post_code":"3004203","prefecture":"IBARAKI KEN","city":"TSUKUBA SHI","town":"AKESHI","perfecture_jp":"茨城県","jp_add_1":"つくば市","jp_add_2":"明石"},"3002632":{"post_code":"3002632","prefecture":"IBARAKI KEN","city":"TSUKUBA SHI","town":"ASAHI(SONOTA)","perfecture_jp":"茨城県","jp_add_1":"つくば市","jp_add_2":"旭"},"3004205":{"post_code":"3004205","prefecture":"IBARAKI KEN","city":"TSUKUBA SHI","town":"AJIKI","perfecture_jp":"茨城県","jp_add_1":"つくば市","jp_add_2":"安食"},"3001261":{"post_code":"3001261","prefecture":"IBARAKI KEN","city":"TSUKUBA SHI","town":"ASHIBINO","perfecture_jp":"茨城県","jp_add_1":"つくば市","jp_add_2":"あしび野"},"3001253":{"post_code":"3001253","prefecture":"IBARAKI KEN","city":"TSUKUBA SHI","town":"AMABOKI","perfecture_jp":"茨城県","jp_add_1":"つくば市","jp_add_2":"天宝喜"},"3004243":{"post_code":"3004243","prefecture":"IBARAKI KEN","city":"TSUKUBA SHI","town":"IKEDA","perfecture_jp":"茨城県","jp_add_1":"つくば市","jp_add_2":"池田"},"3001240":{"post_code":"3001240","prefecture":"IBARAKI KEN","city":"TSUKUBA SHI","town":"IKENODAI(SONOTA)","perfecture_jp":"茨城県","jp_add_1":"つくば市","jp_add_2":"池の台"},"3001269":{"post_code":"3001269","prefecture":"IBARAKI KEN","city":"TSUKUBA SHI","town":"IKEMUKAI","perfecture_jp":"茨城県","jp_add_1":"つくば市","jp_add_2":"池向"},"3004235":{"post_code":"3004235","prefecture":"IBARAKI KEN","city":"TSUKUBA SHI","town":"IZUMI","perfecture_jp":"茨城県","jp_add_1":"つくば市","jp_add_2":"泉"},"3004248":{"post_code":"3004248","prefecture":"IBARAKI KEN","city":"TSUKUBA SHI","town":"ISOBE","perfecture_jp":"茨城県","jp_add_1":"つくば市","jp_add_2":"磯部"},"3001259":{"post_code":"3001259","prefecture":"IBARAKI KEN","city":"TSUKUBA SHI","town":"INARIHARA","perfecture_jp":"茨城県","jp_add_1":"つくば市","jp_add_2":"稲荷原"},"3002641":{"post_code":"3002641","prefecture":"IBARAKI KEN","city":"TSUKUBA SHI","town":"IMAKASHIMA","perfecture_jp":"茨城県","jp_add_1":"つくば市","jp_add_2":"今鹿島"},"3004211":{"post_code":"3004211","prefecture":"IBARAKI KEN","city":"TSUKUBA SHI","town":"USUI","perfecture_jp":"茨城県","jp_add_1":"つくば市","jp_add_2":"臼井"},"3001275":{"post_code":"3001275","prefecture":"IBARAKI KEN","city":"TSUKUBA SHI","town":"UMEGAOKA","perfecture_jp":"茨城県","jp_add_1":"つくば市","jp_add_2":"梅ケ丘"},"3004216":{"post_code":"3004216","prefecture":"IBARAKI KEN","city":"TSUKUBA SHI","town":"URUSHIJO","perfecture_jp":"茨城県","jp_add_1":"つくば市","jp_add_2":"漆所"},"3001243":{"post_code":"3001243","prefecture":"IBARAKI KEN","city":"TSUKUBA SHI","town":"OI","perfecture_jp":"茨城県","jp_add_1":"つくば市","jp_add_2":"大井"},"3004221":{"post_code":"3004221","prefecture":"IBARAKI KEN","city":"TSUKUBA SHI","town":"OGATA","perfecture_jp":"茨城県","jp_add_1":"つくば市","jp_add_2":"大形"},"3002611":{"post_code":"3002611","prefecture":"IBARAKI KEN","city":"TSUKUBA SHI","town":"OKUBO","perfecture_jp":"茨城県","jp_add_1":"つくば市","jp_add_2":"大久保"},"3002612":{"post_code":"3002612","prefecture":"IBARAKI KEN","city":"TSUKUBA SHI","town":"OSUNA","perfecture_jp":"茨城県","jp_add_1":"つくば市","jp_add_2":"大砂"},"3003253":{"post_code":"3003253","prefecture":"IBARAKI KEN","city":"TSUKUBA SHI","town":"OZONE","perfecture_jp":"茨城県","jp_add_1":"つくば市","jp_add_2":"大曽根"},"3004218":{"post_code":"3004218","prefecture":"IBARAKI KEN","city":"TSUKUBA SHI","town":"ONUKI","perfecture_jp":"茨城県","jp_add_1":"つくば市","jp_add_2":"大貫"},"3001267":{"post_code":"3001267","prefecture":"IBARAKI KEN","city":"TSUKUBA SHI","town":"OFUNATO","perfecture_jp":"茨城県","jp_add_1":"つくば市","jp_add_2":"大舟戸"},"3003256":{"post_code":"3003256","prefecture":"IBARAKI KEN","city":"TSUKUBA SHI","town":"OHO(SONOTA)","perfecture_jp":"茨城県","jp_add_1":"つくば市","jp_add_2":"大穂"},"3001255":{"post_code":"3001255","prefecture":"IBARAKI KEN","city":"TSUKUBA SHI","town":"OGUKI","perfecture_jp":"茨城県","jp_add_1":"つくば市","jp_add_2":"小茎"},"3003265":{"post_code":"3003265","prefecture":"IBARAKI KEN","city":"TSUKUBA SHI","town":"OSAGOYA","perfecture_jp":"茨城県","jp_add_1":"つくば市","jp_add_2":"長高野"},"3004215":{"post_code":"3004215","prefecture":"IBARAKI KEN","city":"TSUKUBA SHI","town":"OZAWA","perfecture_jp":"茨城県","jp_add_1":"つくば市","jp_add_2":"小沢"},"3004223":{"post_code":"3004223","prefecture":"IBARAKI KEN","city":"TSUKUBA SHI","town":"ODA","perfecture_jp":"茨城県","jp_add_1":"つくば市","jp_add_2":"小田"},"3002651":{"post_code":"3002651","prefecture":"IBARAKI KEN","city":"TSUKUBA SHI","town":"ONIGAKUBO","perfecture_jp":"茨城県","jp_add_1":"つくば市","jp_add_2":"鬼ケ窪"},"3002653":{"post_code":"3002653","prefecture":"IBARAKI KEN","city":"TSUKUBA SHI","town":"OMONOI","perfecture_jp":"茨城県","jp_add_1":"つくば市","jp_add_2":"面野井"},"3003254":{"post_code":"3003254","prefecture":"IBARAKI KEN","city":"TSUKUBA SHI","town":"KASHIMADAI","perfecture_jp":"茨城県","jp_add_1":"つくば市","jp_add_2":"鹿島台"},"3002657":{"post_code":"3002657","prefecture":"IBARAKI KEN","city":"TSUKUBA SHI","town":"KATORIDAI","perfecture_jp":"茨城県","jp_add_1":"つくば市","jp_add_2":"香取台"},"3002622":{"post_code":"3002622","prefecture":"IBARAKI KEN","city":"TSUKUBA SHI","town":"KANAME","perfecture_jp":"茨城県","jp_add_1":"つくば市","jp_add_2":"要"},"3001274":{"post_code":"3001274","prefecture":"IBARAKI KEN","city":"TSUKUBA SHI","town":"KAMIIWASAKI","perfecture_jp":"茨城県","jp_add_1":"つくば市","jp_add_2":"上岩崎"},"3004351":{"post_code":"3004351","prefecture":"IBARAKI KEN","city":"TSUKUBA SHI","town":"KAMIOSHIMA","perfecture_jp":"茨城県","jp_add_1":"つくば市","jp_add_2":"上大島"},"3002668":{"post_code":"3002668","prefecture":"IBARAKI KEN","city":"TSUKUBA SHI","town":"KAMIKAWA","perfecture_jp":"茨城県","jp_add_1":"つくば市","jp_add_2":"かみかわ"},"3002661":{"post_code":"3002661","prefecture":"IBARAKI KEN","city":"TSUKUBA SHI","town":"KAMIKAWARAZAKI","perfecture_jp":"茨城県","jp_add_1":"つくば市","jp_add_2":"上河原崎"},"3002645":{"post_code":"3002645","prefecture":"IBARAKI KEN","city":"TSUKUBA SHI","town":"KAMIGO","perfecture_jp":"茨城県","jp_add_1":"つくば市","jp_add_2":"上郷"},"3002614":{"post_code":"3002614","prefecture":"IBARAKI KEN","city":"TSUKUBA SHI","town":"KAMISATO","perfecture_jp":"茨城県","jp_add_1":"つくば市","jp_add_2":"上里"},"3004246":{"post_code":"3004246","prefecture":"IBARAKI KEN","city":"TSUKUBA SHI","town":"KAMISAWA","perfecture_jp":"茨城県","jp_add_1":"つくば市","jp_add_2":"上沢"},"3004241":{"post_code":"3004241","prefecture":"IBARAKI KEN","city":"TSUKUBA SHI","town":"KAMISUGAMA","perfecture_jp":"茨城県","jp_add_1":"つくば市","jp_add_2":"上菅間"},"3004212":{"post_code":"3004212","prefecture":"IBARAKI KEN","city":"TSUKUBA SHI","town":"KANGORI","perfecture_jp":"茨城県","jp_add_1":"つくば市","jp_add_2":"神郡"},"3004232":{"post_code":"3004232","prefecture":"IBARAKI KEN","city":"TSUKUBA SHI","town":"KITAOTA","perfecture_jp":"茨城県","jp_add_1":"つくば市","jp_add_2":"北太田"},"3003266":{"post_code":"3003266","prefecture":"IBARAKI KEN","city":"TSUKUBA SHI","town":"KITAHARA","perfecture_jp":"茨城県","jp_add_1":"つくば市","jp_add_2":"北原"},"3004233":{"post_code":"3004233","prefecture":"IBARAKI KEN","city":"TSUKUBA SHI","town":"KIMIJIMA","perfecture_jp":"茨城県","jp_add_1":"つくば市","jp_add_2":"君島"},"3001272":{"post_code":"3001272","prefecture":"IBARAKI KEN","city":"TSUKUBA SHI","town":"KUKIZAKI","perfecture_jp":"茨城県","jp_add_1":"つくば市","jp_add_2":"茎崎"},"3004354":{"post_code":"3004354","prefecture":"IBARAKI KEN","city":"TSUKUBA SHI","town":"KUNIMATSU","perfecture_jp":"茨城県","jp_add_1":"つくば市","jp_add_2":"国松"},"3001262":{"post_code":"3001262","prefecture":"IBARAKI KEN","city":"TSUKUBA SHI","town":"KUMANTSUBO","perfecture_jp":"茨城県","jp_add_1":"つくば市","jp_add_2":"九万坪"},"3004236":{"post_code":"3004236","prefecture":"IBARAKI KEN","city":"TSUKUBA SHI","town":"KOIZUMI","perfecture_jp":"茨城県","jp_add_1":"つくば市","jp_add_2":"小泉"},"3002642":{"post_code":"3002642","prefecture":"IBARAKI KEN","city":"TSUKUBA SHI","town":"KOYA","perfecture_jp":"茨城県","jp_add_1":"つくば市","jp_add_2":"高野"},"3004202":{"post_code":"3004202","prefecture":"IBARAKI KEN","city":"TSUKUBA SHI","town":"KOYAHARASHINDEN","perfecture_jp":"茨城県","jp_add_1":"つくば市","jp_add_2":"高野原新田"},"3002616":{"post_code":"3002616","prefecture":"IBARAKI KEN","city":"TSUKUBA SHI","town":"GONINUKE","perfecture_jp":"茨城県","jp_add_1":"つくば市","jp_add_2":"五人受"},"3002644":{"post_code":"3002644","prefecture":"IBARAKI KEN","city":"TSUKUBA SHI","town":"KONOMATA","perfecture_jp":"茨城県","jp_add_1":"つくば市","jp_add_2":"木俣"},"3001277":{"post_code":"3001277","prefecture":"IBARAKI KEN","city":"TSUKUBA SHI","town":"KOMAGOME","perfecture_jp":"茨城県","jp_add_1":"つくば市","jp_add_2":"駒込"},"3001276":{"post_code":"3001276","prefecture":"IBARAKI KEN","city":"TSUKUBA SHI","town":"KOYAMA","perfecture_jp":"茨城県","jp_add_1":"つくば市","jp_add_2":"小山"},"3004224":{"post_code":"3004224","prefecture":"IBARAKI KEN","city":"TSUKUBA SHI","town":"KOWADA","perfecture_jp":"茨城県","jp_add_1":"つくば市","jp_add_2":"小和田"},"3003251":{"post_code":"3003251","prefecture":"IBARAKI KEN","city":"TSUKUBA SHI","town":"SA","perfecture_jp":"茨城県","jp_add_1":"つくば市","jp_add_2":"佐"},"3001271":{"post_code":"3001271","prefecture":"IBARAKI KEN","city":"TSUKUBA SHI","town":"SAKURAGAOKA","perfecture_jp":"茨城県","jp_add_1":"つくば市","jp_add_2":"桜が丘"},"3002637":{"post_code":"3002637","prefecture":"IBARAKI KEN","city":"TSUKUBA SHI","town":"SAKEMARU","perfecture_jp":"茨城県","jp_add_1":"つくば市","jp_add_2":"酒丸"},"3003264":{"post_code":"3003264","prefecture":"IBARAKI KEN","city":"TSUKUBA SHI","town":"SHINOZAKI","perfecture_jp":"茨城県","jp_add_1":"つくば市","jp_add_2":"篠崎"},"3002655":{"post_code":"3002655","prefecture":"IBARAKI KEN","city":"TSUKUBA SHI","town":"SHIMANA","perfecture_jp":"茨城県","jp_add_1":"つくば市","jp_add_2":"島名"},"3001273":{"post_code":"3001273","prefecture":"IBARAKI KEN","city":"TSUKUBA SHI","town":"SHIMOIWASAKI","perfecture_jp":"茨城県","jp_add_1":"つくば市","jp_add_2":"下岩崎"},"3004222":{"post_code":"3004222","prefecture":"IBARAKI KEN","city":"TSUKUBA SHI","town":"SHIMOOSHIMA","perfecture_jp":"茨城県","jp_add_1":"つくば市","jp_add_2":"下大島"},"3002662":{"post_code":"3002662","prefecture":"IBARAKI KEN","city":"TSUKUBA SHI","town":"SHIMOKAWARAZAKI","perfecture_jp":"茨城県","jp_add_1":"つくば市","jp_add_2":"下河原崎"},"3002666":{"post_code":"3002666","prefecture":"IBARAKI KEN","city":"TSUKUBA SHI","town":"SHIMOBEPPU","perfecture_jp":"茨城県","jp_add_1":"つくば市","jp_add_2":"下別府"},"3001266":{"post_code":"3001266","prefecture":"IBARAKI KEN","city":"TSUKUBA SHI","town":"JIYUGAOKA","perfecture_jp":"茨城県","jp_add_1":"つくば市","jp_add_2":"自由ケ丘"},"3001251":{"post_code":"3001251","prefecture":"IBARAKI KEN","city":"TSUKUBA SHI","town":"SHIROYAMA","perfecture_jp":"茨城県","jp_add_1":"つくば市","jp_add_2":"城山"},"3001246":{"post_code":"3001246","prefecture":"IBARAKI KEN","city":"TSUKUBA SHI","town":"SUGAMA","perfecture_jp":"茨城県","jp_add_1":"つくば市","jp_add_2":"菅間"},"3004217":{"post_code":"3004217","prefecture":"IBARAKI KEN","city":"TSUKUBA SHI","town":"SUGINOKI","perfecture_jp":"茨城県","jp_add_1":"つくば市","jp_add_2":"杉木"},"3002658":{"post_code":"3002658","prefecture":"IBARAKI KEN","city":"TSUKUBA SHI","town":"SUWA","perfecture_jp":"茨城県","jp_add_1":"つくば市","jp_add_2":"諏訪"},"3001245":{"post_code":"3001245","prefecture":"IBARAKI KEN","city":"TSUKUBA SHI","town":"TAKASAKI","perfecture_jp":"茨城県","jp_add_1":"つくば市","jp_add_2":"高崎"},"3002665":{"post_code":"3002665","prefecture":"IBARAKI KEN","city":"TSUKUBA SHI","town":"TAKASUKA","perfecture_jp":"茨城県","jp_add_1":"つくば市","jp_add_2":"高須賀"},"3002652":{"post_code":"3002652","prefecture":"IBARAKI KEN","city":"TSUKUBA SHI","town":"TAKATA","perfecture_jp":"茨城県","jp_add_1":"つくば市","jp_add_2":"高田"},"3001252":{"post_code":"3001252","prefecture":"IBARAKI KEN","city":"TSUKUBA SHI","town":"TAKAMIHARA","perfecture_jp":"茨城県","jp_add_1":"つくば市","jp_add_2":"高見原"},"3002669":{"post_code":"3002669","prefecture":"IBARAKI KEN","city":"TSUKUBA SHI","town":"TAKAYAMA","perfecture_jp":"茨城県","jp_add_1":"つくば市","jp_add_2":"高山"},"3002664":{"post_code":"3002664","prefecture":"IBARAKI KEN","city":"TSUKUBA SHI","town":"TAKARADA","perfecture_jp":"茨城県","jp_add_1":"つくば市","jp_add_2":"高良田"},"3002615":{"post_code":"3002615","prefecture":"IBARAKI KEN","city":"TSUKUBA SHI","town":"TAKURA","perfecture_jp":"茨城県","jp_add_1":"つくば市","jp_add_2":"田倉"},"3003263":{"post_code":"3003263","prefecture":"IBARAKI KEN","city":"TSUKUBA SHI","town":"TACHIHARA(SONOTA)","perfecture_jp":"茨城県","jp_add_1":"つくば市","jp_add_2":"立原"},"3004244":{"post_code":"3004244","prefecture":"IBARAKI KEN","city":"TSUKUBA SHI","town":"TANAKA","perfecture_jp":"茨城県","jp_add_1":"つくば市","jp_add_2":"田中"},"3003255":{"post_code":"3003255","prefecture":"IBARAKI KEN","city":"TSUKUBA SHI","town":"TAMATORI","perfecture_jp":"茨城県","jp_add_1":"つくば市","jp_add_2":"玉取"},"3004251":{"post_code":"3004251","prefecture":"IBARAKI KEN","city":"TSUKUBA SHI","town":"TAMIYAMA","perfecture_jp":"茨城県","jp_add_1":"つくば市","jp_add_2":"田水山"},"3004352":{"post_code":"3004352","prefecture":"IBARAKI KEN","city":"TSUKUBA SHI","town":"TSUKUBA","perfecture_jp":"茨城県","jp_add_1":"つくば市","jp_add_2":"筑波"},"3003257":{"post_code":"3003257","prefecture":"IBARAKI KEN","city":"TSUKUBA SHI","town":"TSUKUHO","perfecture_jp":"茨城県","jp_add_1":"つくば市","jp_add_2":"筑穂"},"3004204":{"post_code":"3004204","prefecture":"IBARAKI KEN","city":"TSUKUBA SHI","town":"TSUKURIYA","perfecture_jp":"茨城県","jp_add_1":"つくば市","jp_add_2":"作谷"},"3002636":{"post_code":"3002636","prefecture":"IBARAKI KEN","city":"TSUKUBA SHI","town":"TSUCHIDA","perfecture_jp":"茨城県","jp_add_1":"つくば市","jp_add_2":"土田"},"3002647":{"post_code":"3002647","prefecture":"IBARAKI KEN","city":"TSUKUBA SHI","town":"TEGOMARU","perfecture_jp":"茨城県","jp_add_1":"つくば市","jp_add_2":"手子生"},"3004201":{"post_code":"3004201","prefecture":"IBARAKI KEN","city":"TSUKUBA SHI","town":"TERAGU","perfecture_jp":"茨城県","jp_add_1":"つくば市","jp_add_2":"寺具"},"3002635":{"post_code":"3002635","prefecture":"IBARAKI KEN","city":"TSUKUBA SHI","town":"TOKODAI","perfecture_jp":"茨城県","jp_add_1":"つくば市","jp_add_2":"東光台"},"3002633":{"post_code":"3002633","prefecture":"IBARAKI KEN","city":"TSUKUBA SHI","town":"TOHIGASHI","perfecture_jp":"茨城県","jp_add_1":"つくば市","jp_add_2":"遠東"},"3002648":{"post_code":"3002648","prefecture":"IBARAKI KEN","city":"TSUKUBA SHI","town":"TOYOSATONOMORI","perfecture_jp":"茨城県","jp_add_1":"つくば市","jp_add_2":"豊里の杜"},"3004242":{"post_code":"3004242","prefecture":"IBARAKI KEN","city":"TSUKUBA SHI","town":"NAKASUGAMA","perfecture_jp":"茨城県","jp_add_1":"つくば市","jp_add_2":"中菅間"},"3002634":{"post_code":"3002634","prefecture":"IBARAKI KEN","city":"TSUKUBA SHI","town":"NAKAHIGASHIHARASHINDEN","perfecture_jp":"茨城県","jp_add_1":"つくば市","jp_add_2":"中東原新田"},"3002667":{"post_code":"3002667","prefecture":"IBARAKI KEN","city":"TSUKUBA SHI","town":"NAKABEPPU","perfecture_jp":"茨城県","jp_add_1":"つくば市","jp_add_2":"中別府"},"3001268":{"post_code":"3001268","prefecture":"IBARAKI KEN","city":"TSUKUBA SHI","town":"NAKAYAMA","perfecture_jp":"茨城県","jp_add_1":"つくば市","jp_add_2":"中山"},"3002663":{"post_code":"3002663","prefecture":"IBARAKI KEN","city":"TSUKUBA SHI","town":"NABENUMASHINDEN","perfecture_jp":"茨城県","jp_add_1":"つくば市","jp_add_2":"鍋沼新田"},"3001260":{"post_code":"3001260","prefecture":"IBARAKI KEN","city":"TSUKUBA SHI","town":"NISHIOI","perfecture_jp":"茨城県","jp_add_1":"つくば市","jp_add_2":"西大井"},"3002613":{"post_code":"3002613","prefecture":"IBARAKI KEN","city":"TSUKUBA SHI","town":"NISHIGOYA","perfecture_jp":"茨城県","jp_add_1":"つくば市","jp_add_2":"西高野"},"3002624":{"post_code":"3002624","prefecture":"IBARAKI KEN","city":"TSUKUBA SHI","town":"NISHIZAWA","perfecture_jp":"茨城県","jp_add_1":"つくば市","jp_add_2":"西沢"},"3001247":{"post_code":"3001247","prefecture":"IBARAKI KEN","city":"TSUKUBA SHI","town":"NISHINOSAWA(SONOTA)","perfecture_jp":"茨城県","jp_add_1":"つくば市","jp_add_2":"西の沢"},"3002631":{"post_code":"3002631","prefecture":"IBARAKI KEN","city":"TSUKUBA SHI","town":"NUMAZAKI","perfecture_jp":"茨城県","jp_add_1":"つくば市","jp_add_2":"沼崎"},"3004353":{"post_code":"3004353","prefecture":"IBARAKI KEN","city":"TSUKUBA SHI","town":"NUMATA","perfecture_jp":"茨城県","jp_add_1":"つくば市","jp_add_2":"沼田"},"3002643":{"post_code":"3002643","prefecture":"IBARAKI KEN","city":"TSUKUBA SHI","town":"NOBATA","perfecture_jp":"茨城県","jp_add_1":"つくば市","jp_add_2":"野畑"},"3003262":{"post_code":"3003262","prefecture":"IBARAKI KEN","city":"TSUKUBA SHI","town":"HASUNUMA","perfecture_jp":"茨城県","jp_add_1":"つくば市","jp_add_2":"蓮沼"},"3002638":{"post_code":"3002638","prefecture":"IBARAKI KEN","city":"TSUKUBA SHI","town":"HAKKE","perfecture_jp":"茨城県","jp_add_1":"つくば市","jp_add_2":"百家"},"3001264":{"post_code":"3001264","prefecture":"IBARAKI KEN","city":"TSUKUBA SHI","town":"HASSAKI","perfecture_jp":"茨城県","jp_add_1":"つくば市","jp_add_2":"泊崎"},"3003261":{"post_code":"3003261","prefecture":"IBARAKI KEN","city":"TSUKUBA SHI","town":"HANABATAKE(SONOTA)","perfecture_jp":"茨城県","jp_add_1":"つくば市","jp_add_2":"花畑"},"3002659":{"post_code":"3002659","prefecture":"IBARAKI KEN","city":"TSUKUBA SHI","town":"BAMPAKUKOENNISHI","perfecture_jp":"茨城県","jp_add_1":"つくば市","jp_add_2":"万博公園西"},"3001242":{"post_code":"3001242","prefecture":"IBARAKI KEN","city":"TSUKUBA SHI","town":"HINOSAWA","perfecture_jp":"茨城県","jp_add_1":"つくば市","jp_add_2":"樋の沢"},"3004213":{"post_code":"3004213","prefecture":"IBARAKI KEN","city":"TSUKUBA SHI","town":"HIRASAWA","perfecture_jp":"茨城県","jp_add_1":"つくば市","jp_add_2":"平沢"},"3001263":{"post_code":"3001263","prefecture":"IBARAKI KEN","city":"TSUKUBA SHI","town":"FUJIMIDAI","perfecture_jp":"茨城県","jp_add_1":"つくば市","jp_add_2":"富士見台"},"3004231":{"post_code":"3004231","prefecture":"IBARAKI KEN","city":"TSUKUBA SHI","town":"HOJO","perfecture_jp":"茨城県","jp_add_1":"つくば市","jp_add_2":"北条"},"3001278":{"post_code":"3001278","prefecture":"IBARAKI KEN","city":"TSUKUBA SHI","town":"BOCHI","perfecture_jp":"茨城県","jp_add_1":"つくば市","jp_add_2":"房内"},"3001254":{"post_code":"3001254","prefecture":"IBARAKI KEN","city":"TSUKUBA SHI","town":"HOYODAI","perfecture_jp":"茨城県","jp_add_1":"つくば市","jp_add_2":"宝陽台"},"3001265":{"post_code":"3001265","prefecture":"IBARAKI KEN","city":"TSUKUBA SHI","town":"HOSOMI","perfecture_jp":"茨城県","jp_add_1":"つくば市","jp_add_2":"細見"},"3004249":{"post_code":"3004249","prefecture":"IBARAKI KEN","city":"TSUKUBA SHI","town":"HORAGE","perfecture_jp":"茨城県","jp_add_1":"つくば市","jp_add_2":"洞下"},"3002623":{"post_code":"3002623","prefecture":"IBARAKI KEN","city":"TSUKUBA SHI","town":"HONZAWA","perfecture_jp":"茨城県","jp_add_1":"つくば市","jp_add_2":"本沢"},"3003267":{"post_code":"3003267","prefecture":"IBARAKI KEN","city":"TSUKUBA SHI","town":"MAENO","perfecture_jp":"茨城県","jp_add_1":"つくば市","jp_add_2":"前野"},"3001241":{"post_code":"3001241","prefecture":"IBARAKI KEN","city":"TSUKUBA SHI","town":"MAKIZONO","perfecture_jp":"茨城県","jp_add_1":"つくば市","jp_add_2":"牧園"},"3002656":{"post_code":"3002656","prefecture":"IBARAKI KEN","city":"TSUKUBA SHI","town":"MASE","perfecture_jp":"茨城県","jp_add_1":"つくば市","jp_add_2":"真瀬"},"3001244":{"post_code":"3001244","prefecture":"IBARAKI KEN","city":"TSUKUBA SHI","town":"MATSUNOSATO(SONOTA)","perfecture_jp":"茨城県","jp_add_1":"つくば市","jp_add_2":"松の里"},"3002654":{"post_code":"3002654","prefecture":"IBARAKI KEN","city":"TSUKUBA SHI","town":"MIZUBORI","perfecture_jp":"茨城県","jp_add_1":"つくば市","jp_add_2":"水堀"},"3002646":{"post_code":"3002646","prefecture":"IBARAKI KEN","city":"TSUKUBA SHI","town":"MIDORIGAHARA","perfecture_jp":"茨城県","jp_add_1":"つくば市","jp_add_2":"緑ケ原"},"3002621":{"post_code":"3002621","prefecture":"IBARAKI KEN","city":"TSUKUBA SHI","town":"MINAMIHARA(SONOTA)","perfecture_jp":"茨城県","jp_add_1":"つくば市","jp_add_2":"南原"},"3004245":{"post_code":"3004245","prefecture":"IBARAKI KEN","city":"TSUKUBA SHI","town":"MIMORI","perfecture_jp":"茨城県","jp_add_1":"つくば市","jp_add_2":"水守"},"3001257":{"post_code":"3001257","prefecture":"IBARAKI KEN","city":"TSUKUBA SHI","town":"MYOJIN","perfecture_jp":"茨城県","jp_add_1":"つくば市","jp_add_2":"明神"},"3001256":{"post_code":"3001256","prefecture":"IBARAKI KEN","city":"TSUKUBA SHI","town":"MORINOSATO","perfecture_jp":"茨城県","jp_add_1":"つくば市","jp_add_2":"森の里"},"3004234":{"post_code":"3004234","prefecture":"IBARAKI KEN","city":"TSUKUBA SHI","town":"YAMAKI","perfecture_jp":"茨城県","jp_add_1":"つくば市","jp_add_2":"山木"},"3004214":{"post_code":"3004214","prefecture":"IBARAKI KEN","city":"TSUKUBA SHI","town":"YAMAGUCHI","perfecture_jp":"茨城県","jp_add_1":"つくば市","jp_add_2":"山口"},"3002617":{"post_code":"3002617","prefecture":"IBARAKI KEN","city":"TSUKUBA SHI","town":"YOSHINUMA","perfecture_jp":"茨城県","jp_add_1":"つくば市","jp_add_2":"吉沼"},"3001258":{"post_code":"3001258","prefecture":"IBARAKI KEN","city":"TSUKUBA SHI","town":"ROKUTO","perfecture_jp":"茨城県","jp_add_1":"つくば市","jp_add_2":"六斗"},"3001248":{"post_code":"3001248","prefecture":"IBARAKI KEN","city":"TSUKUBA SHI","town":"WAKAGURI","perfecture_jp":"茨城県","jp_add_1":"つくば市","jp_add_2":"若栗"},"3001249":{"post_code":"3001249","prefecture":"IBARAKI KEN","city":"TSUKUBA SHI","town":"WAKABA","perfecture_jp":"茨城県","jp_add_1":"つくば市","jp_add_2":"若葉"},"3003252":{"post_code":"3003252","prefecture":"IBARAKI KEN","city":"TSUKUBA SHI","town":"WAKAMORI","perfecture_jp":"茨城県","jp_add_1":"つくば市","jp_add_2":"若森"},"3004247":{"post_code":"3004247","prefecture":"IBARAKI KEN","city":"TSUKUBA SHI","town":"WADAI","perfecture_jp":"茨城県","jp_add_1":"つくば市","jp_add_2":"和台"},"3004523":{"post_code":"3004523","prefecture":"IBARAKI KEN","city":"CHIKUSEI SHI","town":"AKAHAMA","perfecture_jp":"茨城県","jp_add_1":"筑西市","jp_add_2":"赤浜"},"3004516":{"post_code":"3004516","prefecture":"IBARAKI KEN","city":"CHIKUSEI SHI","town":"ARAISHINDEN","perfecture_jp":"茨城県","jp_add_1":"筑西市","jp_add_2":"新井新田"},"3004512":{"post_code":"3004512","prefecture":"IBARAKI KEN","city":"CHIKUSEI SHI","town":"ARITA","perfecture_jp":"茨城県","jp_add_1":"筑西市","jp_add_2":"有田"},"3004507":{"post_code":"3004507","prefecture":"IBARAKI KEN","city":"CHIKUSEI SHI","town":"UCHIYODO","perfecture_jp":"茨城県","jp_add_1":"筑西市","jp_add_2":"内淀"},"3004538":{"post_code":"3004538","prefecture":"IBARAKI KEN","city":"CHIKUSEI SHI","town":"EBIE","perfecture_jp":"茨城県","jp_add_1":"筑西市","jp_add_2":"海老江"},"3004517":{"post_code":"3004517","prefecture":"IBARAKI KEN","city":"CHIKUSEI SHI","town":"EBIGASHIMA","perfecture_jp":"茨城県","jp_add_1":"筑西市","jp_add_2":"海老ケ島"},"3004537":{"post_code":"3004537","prefecture":"IBARAKI KEN","city":"CHIKUSEI SHI","town":"OBAYASHI","perfecture_jp":"茨城県","jp_add_1":"筑西市","jp_add_2":"大林"},"3004511":{"post_code":"3004511","prefecture":"IBARAKI KEN","city":"CHIKUSEI SHI","town":"OSHIBI","perfecture_jp":"茨城県","jp_add_1":"筑西市","jp_add_2":"押尾"},"3004502":{"post_code":"3004502","prefecture":"IBARAKI KEN","city":"CHIKUSEI SHI","town":"KAMINISHIGOYA","perfecture_jp":"茨城県","jp_add_1":"筑西市","jp_add_2":"上西郷谷"},"3004515":{"post_code":"3004515","prefecture":"IBARAKI KEN","city":"CHIKUSEI SHI","town":"KURAMOCHI","perfecture_jp":"茨城県","jp_add_1":"筑西市","jp_add_2":"倉持"},"3004532":{"post_code":"3004532","prefecture":"IBARAKI KEN","city":"CHIKUSEI SHI","town":"SAGISHIMA","perfecture_jp":"茨城県","jp_add_1":"筑西市","jp_add_2":"鷺島"},"3004514":{"post_code":"3004514","prefecture":"IBARAKI KEN","city":"CHIKUSEI SHI","town":"SANODO","perfecture_jp":"茨城県","jp_add_1":"筑西市","jp_add_2":"山王堂"},"3004545":{"post_code":"3004545","prefecture":"IBARAKI KEN","city":"CHIKUSEI SHI","town":"SHIMOKAWANAGO","perfecture_jp":"茨城県","jp_add_1":"筑西市","jp_add_2":"下川中子"},"3004534":{"post_code":"3004534","prefecture":"IBARAKI KEN","city":"CHIKUSEI SHI","town":"TAKATSU","perfecture_jp":"茨城県","jp_add_1":"筑西市","jp_add_2":"高津"},"3004543":{"post_code":"3004543","prefecture":"IBARAKI KEN","city":"CHIKUSEI SHI","town":"TAKEGAKI","perfecture_jp":"茨城県","jp_add_1":"筑西市","jp_add_2":"竹垣"},"3004505":{"post_code":"3004505","prefecture":"IBARAKI KEN","city":"CHIKUSEI SHI","town":"TAJUKU","perfecture_jp":"茨城県","jp_add_1":"筑西市","jp_add_2":"田宿"},"3004531":{"post_code":"3004531","prefecture":"IBARAKI KEN","city":"CHIKUSEI SHI","town":"TSUIJI","perfecture_jp":"茨城県","jp_add_1":"筑西市","jp_add_2":"築地"},"3004525":{"post_code":"3004525","prefecture":"IBARAKI KEN","city":"CHIKUSEI SHI","town":"TERAUENO","perfecture_jp":"茨城県","jp_add_1":"筑西市","jp_add_2":"寺上野"},"3004524":{"post_code":"3004524","prefecture":"IBARAKI KEN","city":"CHIKUSEI SHI","town":"NAKAUENO","perfecture_jp":"茨城県","jp_add_1":"筑西市","jp_add_2":"中上野"},"3004513":{"post_code":"3004513","prefecture":"IBARAKI KEN","city":"CHIKUSEI SHI","town":"NAKANE","perfecture_jp":"茨城県","jp_add_1":"筑西市","jp_add_2":"中根"},"3004506":{"post_code":"3004506","prefecture":"IBARAKI KEN","city":"CHIKUSEI SHI","town":"NABEYAMA","perfecture_jp":"茨城県","jp_add_1":"筑西市","jp_add_2":"鍋山"},"3004533":{"post_code":"3004533","prefecture":"IBARAKI KEN","city":"CHIKUSEI SHI","town":"NARUI","perfecture_jp":"茨城県","jp_add_1":"筑西市","jp_add_2":"成井"},"3004501":{"post_code":"3004501","prefecture":"IBARAKI KEN","city":"CHIKUSEI SHI","town":"NEKOSHIMA","perfecture_jp":"茨城県","jp_add_1":"筑西市","jp_add_2":"猫島"},"3004521":{"post_code":"3004521","prefecture":"IBARAKI KEN","city":"CHIKUSEI SHI","town":"HIGASHIISHITA","perfecture_jp":"茨城県","jp_add_1":"筑西市","jp_add_2":"東石田"},"3004536":{"post_code":"3004536","prefecture":"IBARAKI KEN","city":"CHIKUSEI SHI","town":"HIGASHIHOZUE","perfecture_jp":"茨城県","jp_add_1":"筑西市","jp_add_2":"東保末"},"3004544":{"post_code":"3004544","prefecture":"IBARAKI KEN","city":"CHIKUSEI SHI","town":"FURUCHI","perfecture_jp":"茨城県","jp_add_1":"筑西市","jp_add_2":"古内"},"3004541":{"post_code":"3004541","prefecture":"IBARAKI KEN","city":"CHIKUSEI SHI","town":"MATSUBARA","perfecture_jp":"茨城県","jp_add_1":"筑西市","jp_add_2":"松原"},"3004503":{"post_code":"3004503","prefecture":"IBARAKI KEN","city":"CHIKUSEI SHI","town":"MIYAGO","perfecture_jp":"茨城県","jp_add_1":"筑西市","jp_add_2":"宮後"},"3004504":{"post_code":"3004504","prefecture":"IBARAKI KEN","city":"CHIKUSEI SHI","town":"MIYAYAMA","perfecture_jp":"茨城県","jp_add_1":"筑西市","jp_add_2":"宮山"},"3004522":{"post_code":"3004522","prefecture":"IBARAKI KEN","city":"CHIKUSEI SHI","town":"MUKOUENO","perfecture_jp":"茨城県","jp_add_1":"筑西市","jp_add_2":"向上野"},"3004546":{"post_code":"3004546","prefecture":"IBARAKI KEN","city":"CHIKUSEI SHI","town":"MURATA","perfecture_jp":"茨城県","jp_add_1":"筑西市","jp_add_2":"村田"},"3004535":{"post_code":"3004535","prefecture":"IBARAKI KEN","city":"CHIKUSEI SHI","town":"YAWARA","perfecture_jp":"茨城県","jp_add_1":"筑西市","jp_add_2":"谷原"},"3004542":{"post_code":"3004542","prefecture":"IBARAKI KEN","city":"CHIKUSEI SHI","town":"YOSHIDA","perfecture_jp":"茨城県","jp_add_1":"筑西市","jp_add_2":"吉田"},"3000500":{"post_code":"3000500","prefecture":"IBARAKI KEN","city":"INASHIKI SHI","town":"IKANIKEISAIGANAIBAAI","perfecture_jp":"茨城県","jp_add_1":"稲敷市","jp_add_2":""},"3000621":{"post_code":"3000621","prefecture":"IBARAKI KEN","city":"INASHIKI SHI","town":"ABA","perfecture_jp":"茨城県","jp_add_1":"稲敷市","jp_add_2":"阿波"},"3000602":{"post_code":"3000602","prefecture":"IBARAKI KEN","city":"INASHIKI SHI","town":"ABASAKI","perfecture_jp":"茨城県","jp_add_1":"稲敷市","jp_add_2":"阿波崎"},"3000626":{"post_code":"3000626","prefecture":"IBARAKI KEN","city":"INASHIKI SHI","town":"AMADA","perfecture_jp":"茨城県","jp_add_1":"稲敷市","jp_add_2":"甘田"},"3000727":{"post_code":"3000727","prefecture":"IBARAKI KEN","city":"INASHIKI SHI","town":"IIJIMA","perfecture_jp":"茨城県","jp_add_1":"稲敷市","jp_add_2":"飯島"},"3000632":{"post_code":"3000632","prefecture":"IBARAKI KEN","city":"INASHIKI SHI","town":"IIDE","perfecture_jp":"茨城県","jp_add_1":"稲敷市","jp_add_2":"飯出"},"3001413":{"post_code":"3001413","prefecture":"IBARAKI KEN","city":"INASHIKI SHI","town":"ISAKI","perfecture_jp":"茨城県","jp_add_1":"稲敷市","jp_add_2":"伊崎"},"3001411":{"post_code":"3001411","prefecture":"IBARAKI KEN","city":"INASHIKI SHI","town":"ISATSU","perfecture_jp":"茨城県","jp_add_1":"稲敷市","jp_add_2":"伊佐津"},"3000603":{"post_code":"3000603","prefecture":"IBARAKI KEN","city":"INASHIKI SHI","town":"ISABU","perfecture_jp":"茨城県","jp_add_1":"稲敷市","jp_add_2":"伊佐部"},"3000612":{"post_code":"3000612","prefecture":"IBARAKI KEN","city":"INASHIKI SHI","town":"ICHIZAKI","perfecture_jp":"茨城県","jp_add_1":"稲敷市","jp_add_2":"市崎"},"3000503":{"post_code":"3000503","prefecture":"IBARAKI KEN","city":"INASHIKI SHI","town":"INAMI","perfecture_jp":"茨城県","jp_add_1":"稲敷市","jp_add_2":"稲波"},"3000507":{"post_code":"3000507","prefecture":"IBARAKI KEN","city":"INASHIKI SHI","town":"INUZUKA","perfecture_jp":"茨城県","jp_add_1":"稲敷市","jp_add_2":"犬塚"},"3001414":{"post_code":"3001414","prefecture":"IBARAKI KEN","city":"INASHIKI SHI","town":"INUWATARI","perfecture_jp":"茨城県","jp_add_1":"稲敷市","jp_add_2":"戌渡"},"3000641":{"post_code":"3000641","prefecture":"IBARAKI KEN","city":"INASHIKI SHI","town":"UKISHIMA","perfecture_jp":"茨城県","jp_add_1":"稲敷市","jp_add_2":"浮島"},"3000509":{"post_code":"3000509","prefecture":"IBARAKI KEN","city":"INASHIKI SHI","town":"EDOSAKIOTSU","perfecture_jp":"茨城県","jp_add_1":"稲敷市","jp_add_2":"江戸崎乙"},"3000504":{"post_code":"3000504","prefecture":"IBARAKI KEN","city":"INASHIKI SHI","town":"EDOSAKIKO","perfecture_jp":"茨城県","jp_add_1":"稲敷市","jp_add_2":"江戸崎甲"},"3000529":{"post_code":"3000529","prefecture":"IBARAKI KEN","city":"INASHIKI SHI","town":"EDOSAKIMIRAI","perfecture_jp":"茨城県","jp_add_1":"稲敷市","jp_add_2":"江戸崎みらい"},"3000721":{"post_code":"3000721","prefecture":"IBARAKI KEN","city":"INASHIKI SHI","town":"OSHIMA","perfecture_jp":"茨城県","jp_add_1":"稲敷市","jp_add_2":"大島"},"3001423":{"post_code":"3001423","prefecture":"IBARAKI KEN","city":"INASHIKI SHI","town":"OTA","perfecture_jp":"茨城県","jp_add_1":"稲敷市","jp_add_2":"太田"},"3000633":{"post_code":"3000633","prefecture":"IBARAKI KEN","city":"INASHIKI SHI","town":"OKAIIDE","perfecture_jp":"茨城県","jp_add_1":"稲敷市","jp_add_2":"岡飯出"},"3000744":{"post_code":"3000744","prefecture":"IBARAKI KEN","city":"INASHIKI SHI","town":"OSHIZUNA","perfecture_jp":"茨城県","jp_add_1":"稲敷市","jp_add_2":"押砂"},"3001425":{"post_code":"3001425","prefecture":"IBARAKI KEN","city":"INASHIKI SHI","town":"ONO","perfecture_jp":"茨城県","jp_add_1":"稲敷市","jp_add_2":"小野"},"3000634":{"post_code":"3000634","prefecture":"IBARAKI KEN","city":"INASHIKI SHI","town":"KASHIWAGI","perfecture_jp":"茨城県","jp_add_1":"稲敷市","jp_add_2":"柏木"},"3000637":{"post_code":"3000637","prefecture":"IBARAKI KEN","city":"INASHIKI SHI","town":"KASHIWAGIFUTTO","perfecture_jp":"茨城県","jp_add_1":"稲敷市","jp_add_2":"柏木古渡"},"3000604":{"post_code":"3000604","prefecture":"IBARAKI KEN","city":"INASHIKI SHI","town":"KAMAI","perfecture_jp":"茨城県","jp_add_1":"稲敷市","jp_add_2":"釜井"},"3000522":{"post_code":"3000522","prefecture":"IBARAKI KEN","city":"INASHIKI SHI","town":"KAMAGAYAMA","perfecture_jp":"茨城県","jp_add_1":"稲敷市","jp_add_2":"蒲ケ山"},"3000528":{"post_code":"3000528","prefecture":"IBARAKI KEN","city":"INASHIKI SHI","town":"KAMIKIMIYAMA","perfecture_jp":"茨城県","jp_add_1":"稲敷市","jp_add_2":"上君山"},"3000737":{"post_code":"3000737","prefecture":"IBARAKI KEN","city":"INASHIKI SHI","town":"KAMISUDA","perfecture_jp":"茨城県","jp_add_1":"稲敷市","jp_add_2":"上須田"},"3000732":{"post_code":"3000732","prefecture":"IBARAKI KEN","city":"INASHIKI SHI","town":"KAMINOSHIMA","perfecture_jp":"茨城県","jp_add_1":"稲敷市","jp_add_2":"上之島"},"3000643":{"post_code":"3000643","prefecture":"IBARAKI KEN","city":"INASHIKI SHI","town":"KAMIMAWATASHI","perfecture_jp":"茨城県","jp_add_1":"稲敷市","jp_add_2":"上馬渡"},"3000513":{"post_code":"3000513","prefecture":"IBARAKI KEN","city":"INASHIKI SHI","town":"KUWAYAMA","perfecture_jp":"茨城県","jp_add_1":"稲敷市","jp_add_2":"桑山"},"3000734":{"post_code":"3000734","prefecture":"IBARAKI KEN","city":"INASHIKI SHI","town":"KESSA","perfecture_jp":"茨城県","jp_add_1":"稲敷市","jp_add_2":"結佐"},"3000746":{"post_code":"3000746","prefecture":"IBARAKI KEN","city":"INASHIKI SHI","town":"KOZAKIHONJUKU","perfecture_jp":"茨城県","jp_add_1":"稲敷市","jp_add_2":"神崎本宿"},"3000605":{"post_code":"3000605","prefecture":"IBARAKI KEN","city":"INASHIKI SHI","town":"KODA","perfecture_jp":"茨城県","jp_add_1":"稲敷市","jp_add_2":"幸田"},"3000733":{"post_code":"3000733","prefecture":"IBARAKI KEN","city":"INASHIKI SHI","town":"KOKUNO","perfecture_jp":"茨城県","jp_add_1":"稲敷市","jp_add_2":"石納"},"3000524":{"post_code":"3000524","prefecture":"IBARAKI KEN","city":"INASHIKI SHI","town":"KOHAGA","perfecture_jp":"茨城県","jp_add_1":"稲敷市","jp_add_2":"小羽賀"},"3000514":{"post_code":"3000514","prefecture":"IBARAKI KEN","city":"INASHIKI SHI","town":"KOMATSUKA","perfecture_jp":"茨城県","jp_add_1":"稲敷市","jp_add_2":"駒塚"},"3000723":{"post_code":"3000723","prefecture":"IBARAKI KEN","city":"INASHIKI SHI","town":"SAKAIJIMA","perfecture_jp":"茨城県","jp_add_1":"稲敷市","jp_add_2":"境島"},"3000508":{"post_code":"3000508","prefecture":"IBARAKI KEN","city":"INASHIKI SHI","town":"SAKURA","perfecture_jp":"茨城県","jp_add_1":"稲敷市","jp_add_2":"佐倉"},"3000749":{"post_code":"3000749","prefecture":"IBARAKI KEN","city":"INASHIKI SHI","town":"SAWARAGUMISHINDEN","perfecture_jp":"茨城県","jp_add_1":"稲敷市","jp_add_2":"佐原組新田"},"3000725":{"post_code":"3000725","prefecture":"IBARAKI KEN","city":"INASHIKI SHI","town":"SAWARASHITATE","perfecture_jp":"茨城県","jp_add_1":"稲敷市","jp_add_2":"佐原下手"},"3000512":{"post_code":"3000512","prefecture":"IBARAKI KEN","city":"INASHIKI SHI","town":"SHIIZUKA","perfecture_jp":"茨城県","jp_add_1":"稲敷市","jp_add_2":"椎塚"},"3000623":{"post_code":"3000623","prefecture":"IBARAKI KEN","city":"INASHIKI SHI","town":"SHIKA","perfecture_jp":"茨城県","jp_add_1":"稲敷市","jp_add_2":"四箇"},"3000502":{"post_code":"3000502","prefecture":"IBARAKI KEN","city":"INASHIKI SHI","town":"SHIDAFUTTO","perfecture_jp":"茨城県","jp_add_1":"稲敷市","jp_add_2":"信太古渡"},"3001412":{"post_code":"3001412","prefecture":"IBARAKI KEN","city":"INASHIKI SHI","town":"SHIBASAKI","perfecture_jp":"茨城県","jp_add_1":"稲敷市","jp_add_2":"柴崎"},"3000614":{"post_code":"3000614","prefecture":"IBARAKI KEN","city":"INASHIKI SHI","town":"SHIMIZU","perfecture_jp":"茨城県","jp_add_1":"稲敷市","jp_add_2":"清水"},"3001424":{"post_code":"3001424","prefecture":"IBARAKI KEN","city":"INASHIKI SHI","town":"SHIMOOTA","perfecture_jp":"茨城県","jp_add_1":"稲敷市","jp_add_2":"下太田"},"3000527":{"post_code":"3000527","prefecture":"IBARAKI KEN","city":"INASHIKI SHI","town":"SHIMOKIMIYAMA","perfecture_jp":"茨城県","jp_add_1":"稲敷市","jp_add_2":"下君山"},"3000601":{"post_code":"3000601","prefecture":"IBARAKI KEN","city":"INASHIKI SHI","town":"SHIMOSUDA","perfecture_jp":"茨城県","jp_add_1":"稲敷市","jp_add_2":"下須田"},"3000642":{"post_code":"3000642","prefecture":"IBARAKI KEN","city":"INASHIKI SHI","town":"SHIMOMAWATASHI","perfecture_jp":"茨城県","jp_add_1":"稲敷市","jp_add_2":"下馬渡"},"3000622":{"post_code":"3000622","prefecture":"IBARAKI KEN","city":"INASHIKI SHI","town":"JINGUJI","perfecture_jp":"茨城県","jp_add_1":"稲敷市","jp_add_2":"神宮寺"},"3000613":{"post_code":"3000613","prefecture":"IBARAKI KEN","city":"INASHIKI SHI","town":"SHIMBASHI","perfecture_jp":"茨城県","jp_add_1":"稲敷市","jp_add_2":"新橋"},"3000625":{"post_code":"3000625","prefecture":"IBARAKI KEN","city":"INASHIKI SHI","town":"SUKAZU","perfecture_jp":"茨城県","jp_add_1":"稲敷市","jp_add_2":"須賀津"},"3000521":{"post_code":"3000521","prefecture":"IBARAKI KEN","city":"INASHIKI SHI","town":"SUDACHI","perfecture_jp":"茨城県","jp_add_1":"稲敷市","jp_add_2":"月出里"},"3001416":{"post_code":"3001416","prefecture":"IBARAKI KEN","city":"INASHIKI SHI","town":"SUMIZAKI","perfecture_jp":"茨城県","jp_add_1":"稲敷市","jp_add_2":"角崎"},"3000748":{"post_code":"3000748","prefecture":"IBARAKI KEN","city":"INASHIKI SHI","town":"SEIKYUJIMA","perfecture_jp":"茨城県","jp_add_1":"稲敷市","jp_add_2":"清久島"},"3000511":{"post_code":"3000511","prefecture":"IBARAKI KEN","city":"INASHIKI SHI","town":"TAKADA","perfecture_jp":"茨城県","jp_add_1":"稲敷市","jp_add_2":"高田"},"3000741":{"post_code":"3000741","prefecture":"IBARAKI KEN","city":"INASHIKI SHI","town":"TEGAKUMISHINDEN","perfecture_jp":"茨城県","jp_add_1":"稲敷市","jp_add_2":"手賀組新田"},"3001426":{"post_code":"3001426","prefecture":"IBARAKI KEN","city":"INASHIKI SHI","town":"TERAUCHI","perfecture_jp":"茨城県","jp_add_1":"稲敷市","jp_add_2":"寺内"},"3000523":{"post_code":"3000523","prefecture":"IBARAKI KEN","city":"INASHIKI SHI","town":"TOKIZAKI","perfecture_jp":"茨城県","jp_add_1":"稲敷市","jp_add_2":"時崎"},"3000611":{"post_code":"3000611","prefecture":"IBARAKI KEN","city":"INASHIKI SHI","town":"NAKAJIMA","perfecture_jp":"茨城県","jp_add_1":"稲敷市","jp_add_2":"中島"},"3001415":{"post_code":"3001415","prefecture":"IBARAKI KEN","city":"INASHIKI SHI","town":"NAKAYAMA","perfecture_jp":"茨城県","jp_add_1":"稲敷市","jp_add_2":"中山"},"3000726":{"post_code":"3000726","prefecture":"IBARAKI KEN","city":"INASHIKI SHI","town":"NISHISHIRO","perfecture_jp":"茨城県","jp_add_1":"稲敷市","jp_add_2":"西代"},"3000506":{"post_code":"3000506","prefecture":"IBARAKI KEN","city":"INASHIKI SHI","town":"NUMATA","perfecture_jp":"茨城県","jp_add_1":"稲敷市","jp_add_2":"沼田"},"3000525":{"post_code":"3000525","prefecture":"IBARAKI KEN","city":"INASHIKI SHI","town":"HAGA","perfecture_jp":"茨城県","jp_add_1":"稲敷市","jp_add_2":"羽賀"},"3001427":{"post_code":"3001427","prefecture":"IBARAKI KEN","city":"INASHIKI SHI","town":"HAGAURA","perfecture_jp":"茨城県","jp_add_1":"稲敷市","jp_add_2":"羽賀浦"},"3000745":{"post_code":"3000745","prefecture":"IBARAKI KEN","city":"INASHIKI SHI","town":"HASHIMUKO","perfecture_jp":"茨城県","jp_add_1":"稲敷市","jp_add_2":"橋向"},"3000736":{"post_code":"3000736","prefecture":"IBARAKI KEN","city":"INASHIKI SHI","town":"HASSENGOKU","perfecture_jp":"茨城県","jp_add_1":"稲敷市","jp_add_2":"八千石"},"3000501":{"post_code":"3000501","prefecture":"IBARAKI KEN","city":"INASHIKI SHI","town":"HATOZAKI","perfecture_jp":"茨城県","jp_add_1":"稲敷市","jp_add_2":"鳩崎"},"3000636":{"post_code":"3000636","prefecture":"IBARAKI KEN","city":"INASHIKI SHI","town":"HANYU","perfecture_jp":"茨城県","jp_add_1":"稲敷市","jp_add_2":"羽生"},"3000616":{"post_code":"3000616","prefecture":"IBARAKI KEN","city":"INASHIKI SHI","town":"HIGASHIONUMA","perfecture_jp":"茨城県","jp_add_1":"稲敷市","jp_add_2":"東大沼"},"3000617":{"post_code":"3000617","prefecture":"IBARAKI KEN","city":"INASHIKI SHI","town":"FUKUDA","perfecture_jp":"茨城県","jp_add_1":"稲敷市","jp_add_2":"福田"},"3000638":{"post_code":"3000638","prefecture":"IBARAKI KEN","city":"INASHIKI SHI","town":"FUTTO","perfecture_jp":"茨城県","jp_add_1":"稲敷市","jp_add_2":"古渡"},"3001421":{"post_code":"3001421","prefecture":"IBARAKI KEN","city":"INASHIKI SHI","town":"HORIKAWA","perfecture_jp":"茨城県","jp_add_1":"稲敷市","jp_add_2":"堀川"},"3000635":{"post_code":"3000635","prefecture":"IBARAKI KEN","city":"INASHIKI SHI","town":"HORINOCHI","perfecture_jp":"茨城県","jp_add_1":"稲敷市","jp_add_2":"堀之内"},"3000743":{"post_code":"3000743","prefecture":"IBARAKI KEN","city":"INASHIKI SHI","town":"MAGABUCHI","perfecture_jp":"茨城県","jp_add_1":"稲敷市","jp_add_2":"曲渕"},"3000615":{"post_code":"3000615","prefecture":"IBARAKI KEN","city":"INASHIKI SHI","town":"MACHIDA","perfecture_jp":"茨城県","jp_add_1":"稲敷市","jp_add_2":"町田"},"3000526":{"post_code":"3000526","prefecture":"IBARAKI KEN","city":"INASHIKI SHI","town":"MATSUYAMA","perfecture_jp":"茨城県","jp_add_1":"稲敷市","jp_add_2":"松山"},"3001417":{"post_code":"3001417","prefecture":"IBARAKI KEN","city":"INASHIKI SHI","town":"MAMIANA","perfecture_jp":"茨城県","jp_add_1":"稲敷市","jp_add_2":"狸穴"},"3000722":{"post_code":"3000722","prefecture":"IBARAKI KEN","city":"INASHIKI SHI","town":"MISHIMA","perfecture_jp":"茨城県","jp_add_1":"稲敷市","jp_add_2":"三島"},"3000631":{"post_code":"3000631","prefecture":"IBARAKI KEN","city":"INASHIKI SHI","town":"MITSUGI","perfecture_jp":"茨城県","jp_add_1":"稲敷市","jp_add_2":"三次"},"3000607":{"post_code":"3000607","prefecture":"IBARAKI KEN","city":"INASHIKI SHI","town":"MITSUBA","perfecture_jp":"茨城県","jp_add_1":"稲敷市","jp_add_2":"光葉"},"3001422":{"post_code":"3001422","prefecture":"IBARAKI KEN","city":"INASHIKI SHI","town":"MINAMIOTA","perfecture_jp":"茨城県","jp_add_1":"稲敷市","jp_add_2":"南太田"},"3000515":{"post_code":"3000515","prefecture":"IBARAKI KEN","city":"INASHIKI SHI","town":"MINAMIGAOKA","perfecture_jp":"茨城県","jp_add_1":"稲敷市","jp_add_2":"南ケ丘"},"3000624":{"post_code":"3000624","prefecture":"IBARAKI KEN","city":"INASHIKI SHI","town":"MINAMIYAMAKU","perfecture_jp":"茨城県","jp_add_1":"稲敷市","jp_add_2":"南山来"},"3000505":{"post_code":"3000505","prefecture":"IBARAKI KEN","city":"INASHIKI SHI","town":"MURATA","perfecture_jp":"茨城県","jp_add_1":"稲敷市","jp_add_2":"村田"},"3000731":{"post_code":"3000731","prefecture":"IBARAKI KEN","city":"INASHIKI SHI","town":"MOTOSHIN","perfecture_jp":"茨城県","jp_add_1":"稲敷市","jp_add_2":"本新"},"3000724":{"post_code":"3000724","prefecture":"IBARAKI KEN","city":"INASHIKI SHI","town":"YASUJIKAWA","perfecture_jp":"茨城県","jp_add_1":"稲敷市","jp_add_2":"八筋川"},"3000747":{"post_code":"3000747","prefecture":"IBARAKI KEN","city":"INASHIKI SHI","town":"YOTSUYA","perfecture_jp":"茨城県","jp_add_1":"稲敷市","jp_add_2":"余津谷"},"3000742":{"post_code":"3000742","prefecture":"IBARAKI KEN","city":"INASHIKI SHI","town":"YOTSUYA","perfecture_jp":"茨城県","jp_add_1":"稲敷市","jp_add_2":"四ッ谷"},"3000735":{"post_code":"3000735","prefecture":"IBARAKI KEN","city":"INASHIKI SHI","town":"ROKKAKU","perfecture_jp":"茨城県","jp_add_1":"稲敷市","jp_add_2":"六角"},"3000606":{"post_code":"3000606","prefecture":"IBARAKI KEN","city":"INASHIKI SHI","town":"WAKIGAWA","perfecture_jp":"茨城県","jp_add_1":"稲敷市","jp_add_2":"脇川"},"3000212":{"post_code":"3000212","prefecture":"IBARAKI KEN","city":"KASUMIGAURA SHI","town":"ARUGA","perfecture_jp":"茨城県","jp_add_1":"かすみがうら市","jp_add_2":"有河"},"3000205":{"post_code":"3000205","prefecture":"IBARAKI KEN","city":"KASUMIGAURA SHI","town":"ANJIKI","perfecture_jp":"茨城県","jp_add_1":"かすみがうら市","jp_add_2":"安食"},"3000203":{"post_code":"3000203","prefecture":"IBARAKI KEN","city":"KASUMIGAURA SHI","town":"IWATSUBO","perfecture_jp":"茨城県","jp_add_1":"かすみがうら市","jp_add_2":"岩坪"},"3000213":{"post_code":"3000213","prefecture":"IBARAKI KEN","city":"KASUMIGAURA SHI","town":"USHIWATA","perfecture_jp":"茨城県","jp_add_1":"かすみがうら市","jp_add_2":"牛渡"},"3000124":{"post_code":"3000124","prefecture":"IBARAKI KEN","city":"KASUMIGAURA SHI","town":"OWADA","perfecture_jp":"茨城県","jp_add_1":"かすみがうら市","jp_add_2":"大和田"},"3000132":{"post_code":"3000132","prefecture":"IBARAKI KEN","city":"KASUMIGAURA SHI","town":"OGAMI","perfecture_jp":"茨城県","jp_add_1":"かすみがうら市","jp_add_2":"男神"},"3000201":{"post_code":"3000201","prefecture":"IBARAKI KEN","city":"KASUMIGAURA SHI","town":"KASHIWAZAKI","perfecture_jp":"茨城県","jp_add_1":"かすみがうら市","jp_add_2":"柏崎"},"3000127":{"post_code":"3000127","prefecture":"IBARAKI KEN","city":"KASUMIGAURA SHI","town":"KAMIOZUTSUMI","perfecture_jp":"茨城県","jp_add_1":"かすみがうら市","jp_add_2":"上大堤"},"3000123":{"post_code":"3000123","prefecture":"IBARAKI KEN","city":"KASUMIGAURA SHI","town":"KAMIKARUBE","perfecture_jp":"茨城県","jp_add_1":"かすみがうら市","jp_add_2":"上軽部"},"3000135":{"post_code":"3000135","prefecture":"IBARAKI KEN","city":"KASUMIGAURA SHI","town":"KAMO","perfecture_jp":"茨城県","jp_add_1":"かすみがうら市","jp_add_2":"加茂"},"3000214":{"post_code":"3000214","prefecture":"IBARAKI KEN","city":"KASUMIGAURA SHI","town":"SAKA","perfecture_jp":"茨城県","jp_add_1":"かすみがうら市","jp_add_2":"坂"},"3000121":{"post_code":"3000121","prefecture":"IBARAKI KEN","city":"KASUMIGAURA SHI","town":"SHISHIKURA","perfecture_jp":"茨城県","jp_add_1":"かすみがうら市","jp_add_2":"宍倉"},"3000211":{"post_code":"3000211","prefecture":"IBARAKI KEN","city":"KASUMIGAURA SHI","town":"SHITOZAKI","perfecture_jp":"茨城県","jp_add_1":"かすみがうら市","jp_add_2":"志戸崎"},"3000131":{"post_code":"3000131","prefecture":"IBARAKI KEN","city":"KASUMIGAURA SHI","town":"SHIMOOZUTSUMI","perfecture_jp":"茨城県","jp_add_1":"かすみがうら市","jp_add_2":"下大堤"},"3000204":{"post_code":"3000204","prefecture":"IBARAKI KEN","city":"KASUMIGAURA SHI","town":"SHIMOKARUBE","perfecture_jp":"茨城県","jp_add_1":"かすみがうら市","jp_add_2":"下軽部"},"3000202":{"post_code":"3000202","prefecture":"IBARAKI KEN","city":"KASUMIGAURA SHI","town":"TABUSE","perfecture_jp":"茨城県","jp_add_1":"かすみがうら市","jp_add_2":"田伏"},"3000136":{"post_code":"3000136","prefecture":"IBARAKI KEN","city":"KASUMIGAURA SHI","town":"TOZAKI","perfecture_jp":"茨城県","jp_add_1":"かすみがうら市","jp_add_2":"戸崎"},"3000133":{"post_code":"3000133","prefecture":"IBARAKI KEN","city":"KASUMIGAURA SHI","town":"NAKADAI","perfecture_jp":"茨城県","jp_add_1":"かすみがうら市","jp_add_2":"中台"},"3000122":{"post_code":"3000122","prefecture":"IBARAKI KEN","city":"KASUMIGAURA SHI","town":"NISHINARUI","perfecture_jp":"茨城県","jp_add_1":"かすみがうら市","jp_add_2":"西成井"},"3000134":{"post_code":"3000134","prefecture":"IBARAKI KEN","city":"KASUMIGAURA SHI","town":"FUKAYA","perfecture_jp":"茨城県","jp_add_1":"かすみがうら市","jp_add_2":"深谷"},"3000125":{"post_code":"3000125","prefecture":"IBARAKI KEN","city":"KASUMIGAURA SHI","town":"MITSUGI","perfecture_jp":"茨城県","jp_add_1":"かすみがうら市","jp_add_2":"三ツ木"},"3000126":{"post_code":"3000126","prefecture":"IBARAKI KEN","city":"KASUMIGAURA SHI","town":"MINAMINEMOTO","perfecture_jp":"茨城県","jp_add_1":"かすみがうら市","jp_add_2":"南根本"},"3004417":{"post_code":"3004417","prefecture":"IBARAKI KEN","city":"SAKURAGAWA SHI","town":"MAKABECHO IITSUKA","perfecture_jp":"茨城県","jp_add_1":"桜川市","jp_add_2":"真壁町飯塚"},"3004416":{"post_code":"3004416","prefecture":"IBARAKI KEN","city":"SAKURAGAWA SHI","town":"MAKABECHO ISAZA","perfecture_jp":"茨城県","jp_add_1":"桜川市","jp_add_2":"真壁町伊佐々"},"3004428":{"post_code":"3004428","prefecture":"IBARAKI KEN","city":"SAKURAGAWA SHI","town":"MAKABECHO OTSUKASHINDEN","perfecture_jp":"茨城県","jp_add_1":"桜川市","jp_add_2":"真壁町大塚新田"},"3004401":{"post_code":"3004401","prefecture":"IBARAKI KEN","city":"SAKURAGAWA SHI","town":"MAKABECHO KAMIKOBATA","perfecture_jp":"茨城県","jp_add_1":"桜川市","jp_add_2":"真壁町上小幡"},"3004427":{"post_code":"3004427","prefecture":"IBARAKI KEN","city":"SAKURAGAWA SHI","town":"MAKABECHO KAMIYAGAI","perfecture_jp":"茨城県","jp_add_1":"桜川市","jp_add_2":"真壁町上谷貝"},"3004422":{"post_code":"3004422","prefecture":"IBARAKI KEN","city":"SAKURAGAWA SHI","town":"MAKABECHO KAMEKUMA","perfecture_jp":"茨城県","jp_add_1":"桜川市","jp_add_2":"真壁町亀熊"},"3004424":{"post_code":"3004424","prefecture":"IBARAKI KEN","city":"SAKURAGAWA SHI","town":"MAKABECHO GEMBOJI","perfecture_jp":"茨城県","jp_add_1":"桜川市","jp_add_2":"真壁町源法寺"},"3004413":{"post_code":"3004413","prefecture":"IBARAKI KEN","city":"SAKURAGAWA SHI","town":"MAKABECHO SAKAYORI","perfecture_jp":"茨城県","jp_add_1":"桜川市","jp_add_2":"真壁町酒寄"},"3004405":{"post_code":"3004405","prefecture":"IBARAKI KEN","city":"SAKURAGAWA SHI","town":"MAKABECHO SAKURAI","perfecture_jp":"茨城県","jp_add_1":"桜川市","jp_add_2":"真壁町桜井"},"3004414":{"post_code":"3004414","prefecture":"IBARAKI KEN","city":"SAKURAGAWA SHI","town":"MAKABECHO SHIIO","perfecture_jp":"茨城県","jp_add_1":"桜川市","jp_add_2":"真壁町椎尾"},"3004402":{"post_code":"3004402","prefecture":"IBARAKI KEN","city":"SAKURAGAWA SHI","town":"MAKABECHO SHIMOKOBATA","perfecture_jp":"茨城県","jp_add_1":"桜川市","jp_add_2":"真壁町下小幡"},"3004426":{"post_code":"3004426","prefecture":"IBARAKI KEN","city":"SAKURAGAWA SHI","town":"MAKABECHO SHIMOYAGAI","perfecture_jp":"茨城県","jp_add_1":"桜川市","jp_add_2":"真壁町下谷貝"},"3004404":{"post_code":"3004404","prefecture":"IBARAKI KEN","city":"SAKURAGAWA SHI","town":"MAKABECHO SHIRAI","perfecture_jp":"茨城県","jp_add_1":"桜川市","jp_add_2":"真壁町白井"},"3004411":{"post_code":"3004411","prefecture":"IBARAKI KEN","city":"SAKURAGAWA SHI","town":"MAKABECHO TA","perfecture_jp":"茨城県","jp_add_1":"桜川市","jp_add_2":"真壁町田"},"3004403":{"post_code":"3004403","prefecture":"IBARAKI KEN","city":"SAKURAGAWA SHI","town":"MAKABECHO NAGAOKA","perfecture_jp":"茨城県","jp_add_1":"桜川市","jp_add_2":"真壁町長岡"},"3004412":{"post_code":"3004412","prefecture":"IBARAKI KEN","city":"SAKURAGAWA SHI","town":"MAKABECHO HADORI","perfecture_jp":"茨城県","jp_add_1":"桜川市","jp_add_2":"真壁町羽鳥"},"3004423":{"post_code":"3004423","prefecture":"IBARAKI KEN","city":"SAKURAGAWA SHI","town":"MAKABECHO HANAWAZE","perfecture_jp":"茨城県","jp_add_1":"桜川市","jp_add_2":"真壁町塙世"},"3004421":{"post_code":"3004421","prefecture":"IBARAKI KEN","city":"SAKURAGAWA SHI","town":"MAKABECHO HARAGATA","perfecture_jp":"茨城県","jp_add_1":"桜川市","jp_add_2":"真壁町原方"},"3004429":{"post_code":"3004429","prefecture":"IBARAKI KEN","city":"SAKURAGAWA SHI","town":"MAKABECHO HIGASHIYAGAI","perfecture_jp":"茨城県","jp_add_1":"桜川市","jp_add_2":"真壁町東矢貝"},"3004415":{"post_code":"3004415","prefecture":"IBARAKI KEN","city":"SAKURAGAWA SHI","town":"MAKABECHO HIGASHIYAMADA","perfecture_jp":"茨城県","jp_add_1":"桜川市","jp_add_2":"真壁町東山田"},"3004407":{"post_code":"3004407","prefecture":"IBARAKI KEN","city":"SAKURAGAWA SHI","town":"MAKABECHO FURUSHIRO","perfecture_jp":"茨城県","jp_add_1":"桜川市","jp_add_2":"真壁町古城"},"3004425":{"post_code":"3004425","prefecture":"IBARAKI KEN","city":"SAKURAGAWA SHI","town":"MAKABECHO HOSOSHIBA","perfecture_jp":"茨城県","jp_add_1":"桜川市","jp_add_2":"真壁町細芝"},"3004408":{"post_code":"3004408","prefecture":"IBARAKI KEN","city":"SAKURAGAWA SHI","town":"MAKABECHO MAKABE","perfecture_jp":"茨城県","jp_add_1":"桜川市","jp_add_2":"真壁町真壁"},"3004406":{"post_code":"3004406","prefecture":"IBARAKI KEN","city":"SAKURAGAWA SHI","town":"MAKABECHO YAMAO","perfecture_jp":"茨城県","jp_add_1":"桜川市","jp_add_2":"真壁町山尾"},"3002300":{"post_code":"3002300","prefecture":"IBARAKI KEN","city":"TSUKUBAMIRAI SHI","town":"IKANIKEISAIGANAIBAAI","perfecture_jp":"茨城県","jp_add_1":"つくばみらい市","jp_add_2":""},"3002346":{"post_code":"3002346","prefecture":"IBARAKI KEN","city":"TSUKUBAMIRAI SHI","town":"AOKI","perfecture_jp":"茨城県","jp_add_1":"つくばみらい市","jp_add_2":"青木"},"3002348":{"post_code":"3002348","prefecture":"IBARAKI KEN","city":"TSUKUBAMIRAI SHI","town":"AOKOSHINDEN","perfecture_jp":"茨城県","jp_add_1":"つくばみらい市","jp_add_2":"青古新田"},"3002315":{"post_code":"3002315","prefecture":"IBARAKI KEN","city":"TSUKUBAMIRAI SHI","town":"ADAKA","perfecture_jp":"茨城県","jp_add_1":"つくばみらい市","jp_add_2":"足高"},"3002354":{"post_code":"3002354","prefecture":"IBARAKI KEN","city":"TSUKUBAMIRAI SHI","town":"ARATO","perfecture_jp":"茨城県","jp_add_1":"つくばみらい市","jp_add_2":"新戸"},"3002307":{"post_code":"3002307","prefecture":"IBARAKI KEN","city":"TSUKUBAMIRAI SHI","town":"ITABASHI","perfecture_jp":"茨城県","jp_add_1":"つくばみらい市","jp_add_2":"板橋"},"3002323":{"post_code":"3002323","prefecture":"IBARAKI KEN","city":"TSUKUBAMIRAI SHI","town":"ITAMI","perfecture_jp":"茨城県","jp_add_1":"つくばみらい市","jp_add_2":"伊丹"},"3002355":{"post_code":"3002355","prefecture":"IBARAKI KEN","city":"TSUKUBAMIRAI SHI","town":"ICHINOFUKA","perfecture_jp":"茨城県","jp_add_1":"つくばみらい市","jp_add_2":"市野深"},"3002308":{"post_code":"3002308","prefecture":"IBARAKI KEN","city":"TSUKUBAMIRAI SHI","town":"INAHIGASHI","perfecture_jp":"茨城県","jp_add_1":"つくばみらい市","jp_add_2":"伊奈東"},"3002342":{"post_code":"3002342","prefecture":"IBARAKI KEN","city":"TSUKUBAMIRAI SHI","town":"IYOYANAGI","perfecture_jp":"茨城県","jp_add_1":"つくばみらい市","jp_add_2":"弥柳"},"3002303":{"post_code":"3002303","prefecture":"IBARAKI KEN","city":"TSUKUBAMIRAI SHI","town":"OWADA","perfecture_jp":"茨城県","jp_add_1":"つくばみらい市","jp_add_2":"大和田"},"3002411":{"post_code":"3002411","prefecture":"IBARAKI KEN","city":"TSUKUBAMIRAI SHI","town":"OSHIZUNA","perfecture_jp":"茨城県","jp_add_1":"つくばみらい市","jp_add_2":"押砂"},"3002352":{"post_code":"3002352","prefecture":"IBARAKI KEN","city":"TSUKUBAMIRAI SHI","town":"OJIMASHINDEN","perfecture_jp":"茨城県","jp_add_1":"つくばみらい市","jp_add_2":"小島新田"},"3002432":{"post_code":"3002432","prefecture":"IBARAKI KEN","city":"TSUKUBAMIRAI SHI","town":"ONIOSA","perfecture_jp":"茨城県","jp_add_1":"つくばみらい市","jp_add_2":"鬼長"},"3002353":{"post_code":"3002353","prefecture":"IBARAKI KEN","city":"TSUKUBAMIRAI SHI","town":"OBARI","perfecture_jp":"茨城県","jp_add_1":"つくばみらい市","jp_add_2":"小張"},"3002331":{"post_code":"3002331","prefecture":"IBARAKI KEN","city":"TSUKUBAMIRAI SHI","town":"KASUMISHINDEN","perfecture_jp":"茨城県","jp_add_1":"つくばみらい市","jp_add_2":"神住新田"},"3002424":{"post_code":"3002424","prefecture":"IBARAKI KEN","city":"TSUKUBAMIRAI SHI","town":"KATO","perfecture_jp":"茨城県","jp_add_1":"つくばみらい市","jp_add_2":"加藤"},"3002431":{"post_code":"3002431","prefecture":"IBARAKI KEN","city":"TSUKUBAMIRAI SHI","town":"KAMIOME","perfecture_jp":"茨城県","jp_add_1":"つくばみらい市","jp_add_2":"上小目"},"3002326":{"post_code":"3002326","prefecture":"IBARAKI KEN","city":"TSUKUBAMIRAI SHI","town":"KAMIJIMA","perfecture_jp":"茨城県","jp_add_1":"つくばみらい市","jp_add_2":"上島"},"3002453":{"post_code":"3002453","prefecture":"IBARAKI KEN","city":"TSUKUBAMIRAI SHI","town":"KAMINAGANUMA","perfecture_jp":"茨城県","jp_add_1":"つくばみらい市","jp_add_2":"上長沼"},"3002335":{"post_code":"3002335","prefecture":"IBARAKI KEN","city":"TSUKUBAMIRAI SHI","town":"KAMIHIRAYANAGI","perfecture_jp":"茨城県","jp_add_1":"つくばみらい市","jp_add_2":"上平柳"},"3002425":{"post_code":"3002425","prefecture":"IBARAKI KEN","city":"TSUKUBAMIRAI SHI","town":"KAWASAKI","perfecture_jp":"茨城県","jp_add_1":"つくばみらい市","jp_add_2":"川崎"},"3002312":{"post_code":"3002312","prefecture":"IBARAKI KEN","city":"TSUKUBAMIRAI SHI","town":"KANNO","perfecture_jp":"茨城県","jp_add_1":"つくばみらい市","jp_add_2":"神生"},"3002456":{"post_code":"3002456","prefecture":"IBARAKI KEN","city":"TSUKUBAMIRAI SHI","town":"KITABUKURO","perfecture_jp":"茨城県","jp_add_1":"つくばみらい市","jp_add_2":"北袋"},"3002407":{"post_code":"3002407","prefecture":"IBARAKI KEN","city":"TSUKUBAMIRAI SHI","town":"KITAYAMA","perfecture_jp":"茨城県","jp_add_1":"つくばみらい市","jp_add_2":"北山"},"3002436":{"post_code":"3002436","prefecture":"IBARAKI KEN","city":"TSUKUBAMIRAI SHI","town":"KINUNODAI","perfecture_jp":"茨城県","jp_add_1":"つくばみらい市","jp_add_2":"絹の台"},"3002445":{"post_code":"3002445","prefecture":"IBARAKI KEN","city":"TSUKUBAMIRAI SHI","town":"KOKINU","perfecture_jp":"茨城県","jp_add_1":"つくばみらい市","jp_add_2":"小絹"},"3002402":{"post_code":"3002402","prefecture":"IBARAKI KEN","city":"TSUKUBAMIRAI SHI","town":"SAKANOSHINDEN","perfecture_jp":"茨城県","jp_add_1":"つくばみらい市","jp_add_2":"坂野新田"},"3002332":{"post_code":"3002332","prefecture":"IBARAKI KEN","city":"TSUKUBAMIRAI SHI","town":"SANNOSHINDEN","perfecture_jp":"茨城県","jp_add_1":"つくばみらい市","jp_add_2":"山王新田"},"3002336":{"post_code":"3002336","prefecture":"IBARAKI KEN","city":"TSUKUBAMIRAI SHI","town":"SANYA","perfecture_jp":"茨城県","jp_add_1":"つくばみらい市","jp_add_2":"山谷"},"3002359":{"post_code":"3002359","prefecture":"IBARAKI KEN","city":"TSUKUBAMIRAI SHI","town":"SHIHOGAOKA","perfecture_jp":"茨城県","jp_add_1":"つくばみらい市","jp_add_2":"紫峰ヶ丘"},"3002433":{"post_code":"3002433","prefecture":"IBARAKI KEN","city":"TSUKUBAMIRAI SHI","town":"SHIMOME","perfecture_jp":"茨城県","jp_add_1":"つくばみらい市","jp_add_2":"下小目"},"3002324":{"post_code":"3002324","prefecture":"IBARAKI KEN","city":"TSUKUBAMIRAI SHI","town":"SHIMOJIMA","perfecture_jp":"茨城県","jp_add_1":"つくばみらい市","jp_add_2":"下島"},"3002454":{"post_code":"3002454","prefecture":"IBARAKI KEN","city":"TSUKUBAMIRAI SHI","town":"SHIMONAGANUMA","perfecture_jp":"茨城県","jp_add_1":"つくばみらい市","jp_add_2":"下長沼"},"3002333":{"post_code":"3002333","prefecture":"IBARAKI KEN","city":"TSUKUBAMIRAI SHI","town":"SHIMOHIRAYANAGI","perfecture_jp":"茨城県","jp_add_1":"つくばみらい市","jp_add_2":"下平柳"},"3002305":{"post_code":"3002305","prefecture":"IBARAKI KEN","city":"TSUKUBAMIRAI SHI","town":"JUEMONSHINDEN","perfecture_jp":"茨城県","jp_add_1":"つくばみらい市","jp_add_2":"重右衛門新田"},"3002455":{"post_code":"3002455","prefecture":"IBARAKI KEN","city":"TSUKUBAMIRAI SHI","town":"JUWA","perfecture_jp":"茨城県","jp_add_1":"つくばみらい市","jp_add_2":"十和"},"3002314":{"post_code":"3002314","prefecture":"IBARAKI KEN","city":"TSUKUBAMIRAI SHI","town":"JOCHU","perfecture_jp":"茨城県","jp_add_1":"つくばみらい市","jp_add_2":"城中"},"3002444":{"post_code":"3002444","prefecture":"IBARAKI KEN","city":"TSUKUBAMIRAI SHI","town":"SUGISHITA","perfecture_jp":"茨城県","jp_add_1":"つくばみらい市","jp_add_2":"杉下"},"3002351":{"post_code":"3002351","prefecture":"IBARAKI KEN","city":"TSUKUBAMIRAI SHI","town":"ZENSUKESHINDEN","perfecture_jp":"茨城県","jp_add_1":"つくばみらい市","jp_add_2":"善助新田"},"3002401":{"post_code":"3002401","prefecture":"IBARAKI KEN","city":"TSUKUBAMIRAI SHI","town":"DAI","perfecture_jp":"茨城県","jp_add_1":"つくばみらい市","jp_add_2":"台"},"3002301":{"post_code":"3002301","prefecture":"IBARAKI KEN","city":"TSUKUBAMIRAI SHI","town":"TAKAOKA","perfecture_jp":"茨城県","jp_add_1":"つくばみらい市","jp_add_2":"高岡"},"3002413":{"post_code":"3002413","prefecture":"IBARAKI KEN","city":"TSUKUBAMIRAI SHI","town":"TAMURA","perfecture_jp":"茨城県","jp_add_1":"つくばみらい市","jp_add_2":"田村"},"3002452":{"post_code":"3002452","prefecture":"IBARAKI KEN","city":"TSUKUBAMIRAI SHI","town":"TSUKINUKI","perfecture_jp":"茨城県","jp_add_1":"つくばみらい市","jp_add_2":"樛木"},"3002435":{"post_code":"3002435","prefecture":"IBARAKI KEN","city":"TSUKUBAMIRAI SHI","town":"TSUTSUDO","perfecture_jp":"茨城県","jp_add_1":"つくばみらい市","jp_add_2":"筒戸"},"3002441":{"post_code":"3002441","prefecture":"IBARAKI KEN","city":"TSUKUBAMIRAI SHI","town":"TERAHATA","perfecture_jp":"茨城県","jp_add_1":"つくばみらい市","jp_add_2":"寺畑"},"3002322":{"post_code":"3002322","prefecture":"IBARAKI KEN","city":"TSUKUBAMIRAI SHI","town":"TOSAKI","perfecture_jp":"茨城県","jp_add_1":"つくばみらい市","jp_add_2":"戸崎"},"3002321":{"post_code":"3002321","prefecture":"IBARAKI KEN","city":"TSUKUBAMIRAI SHI","town":"TOMO","perfecture_jp":"茨城県","jp_add_1":"つくばみらい市","jp_add_2":"戸茂"},"3002325":{"post_code":"3002325","prefecture":"IBARAKI KEN","city":"TSUKUBAMIRAI SHI","town":"NAKAJIMA","perfecture_jp":"茨城県","jp_add_1":"つくばみらい市","jp_add_2":"中島"},"3002345":{"post_code":"3002345","prefecture":"IBARAKI KEN","city":"TSUKUBAMIRAI SHI","town":"NAGATORO","perfecture_jp":"茨城県","jp_add_1":"つくばみらい市","jp_add_2":"長渡呂"},"3002344":{"post_code":"3002344","prefecture":"IBARAKI KEN","city":"TSUKUBAMIRAI SHI","town":"NAGATOROSHINDEN","perfecture_jp":"茨城県","jp_add_1":"つくばみらい市","jp_add_2":"長渡呂新田"},"3002403":{"post_code":"3002403","prefecture":"IBARAKI KEN","city":"TSUKUBAMIRAI SHI","town":"NAKAHARA","perfecture_jp":"茨城県","jp_add_1":"つくばみらい市","jp_add_2":"中原"},"3002334":{"post_code":"3002334","prefecture":"IBARAKI KEN","city":"TSUKUBAMIRAI SHI","town":"NAKAHIRAYANAGI","perfecture_jp":"茨城県","jp_add_1":"つくばみらい市","jp_add_2":"中平柳"},"3002423":{"post_code":"3002423","prefecture":"IBARAKI KEN","city":"TSUKUBAMIRAI SHI","town":"NARUSE","perfecture_jp":"茨城県","jp_add_1":"つくばみらい市","jp_add_2":"成瀬"},"3002405":{"post_code":"3002405","prefecture":"IBARAKI KEN","city":"TSUKUBAMIRAI SHI","town":"NIZAEMONSHINDEN","perfecture_jp":"茨城県","jp_add_1":"つくばみらい市","jp_add_2":"仁左衛門新田"},"3002415":{"post_code":"3002415","prefecture":"IBARAKI KEN","city":"TSUKUBAMIRAI SHI","town":"NISHINARADO","perfecture_jp":"茨城県","jp_add_1":"つくばみらい市","jp_add_2":"西楢戸"},"3002442":{"post_code":"3002442","prefecture":"IBARAKI KEN","city":"TSUKUBAMIRAI SHI","town":"NISHINODAI","perfecture_jp":"茨城県","jp_add_1":"つくばみらい市","jp_add_2":"西ノ台"},"3002443":{"post_code":"3002443","prefecture":"IBARAKI KEN","city":"TSUKUBAMIRAI SHI","town":"NISHINODAIMINAMI","perfecture_jp":"茨城県","jp_add_1":"つくばみらい市","jp_add_2":"西ノ台南"},"3002421":{"post_code":"3002421","prefecture":"IBARAKI KEN","city":"TSUKUBAMIRAI SHI","town":"NISHIMARUYAMA","perfecture_jp":"茨城県","jp_add_1":"つくばみらい市","jp_add_2":"西丸山"},"3002412":{"post_code":"3002412","prefecture":"IBARAKI KEN","city":"TSUKUBAMIRAI SHI","town":"NIKKAWA","perfecture_jp":"茨城県","jp_add_1":"つくばみらい市","jp_add_2":"日川"},"3002311":{"post_code":"3002311","prefecture":"IBARAKI KEN","city":"TSUKUBAMIRAI SHI","town":"NOBORI","perfecture_jp":"茨城県","jp_add_1":"つくばみらい市","jp_add_2":"野堀"},"3002313":{"post_code":"3002313","prefecture":"IBARAKI KEN","city":"TSUKUBAMIRAI SHI","town":"HIGASHIKURIYAMA","perfecture_jp":"茨城県","jp_add_1":"つくばみらい市","jp_add_2":"東栗山"},"3002416":{"post_code":"3002416","prefecture":"IBARAKI KEN","city":"TSUKUBAMIRAI SHI","town":"HIGASHINARADO","perfecture_jp":"茨城県","jp_add_1":"つくばみらい市","jp_add_2":"東楢戸"},"3002356":{"post_code":"3002356","prefecture":"IBARAKI KEN","city":"TSUKUBAMIRAI SHI","town":"BISHA","perfecture_jp":"茨城県","jp_add_1":"つくばみらい市","jp_add_2":"奉社"},"3002434":{"post_code":"3002434","prefecture":"IBARAKI KEN","city":"TSUKUBAMIRAI SHI","town":"HIRANUMA","perfecture_jp":"茨城県","jp_add_1":"つくばみらい市","jp_add_2":"平沼"},"3002406":{"post_code":"3002406","prefecture":"IBARAKI KEN","city":"TSUKUBAMIRAI SHI","town":"FUKUOKA","perfecture_jp":"茨城県","jp_add_1":"つくばみらい市","jp_add_2":"福岡"},"3002341":{"post_code":"3002341","prefecture":"IBARAKI KEN","city":"TSUKUBAMIRAI SHI","town":"FUKUDA","perfecture_jp":"茨城県","jp_add_1":"つくばみらい市","jp_add_2":"福田"},"3002327":{"post_code":"3002327","prefecture":"IBARAKI KEN","city":"TSUKUBAMIRAI SHI","town":"FUKUWARA","perfecture_jp":"茨城県","jp_add_1":"つくばみらい市","jp_add_2":"福原"},"3002417":{"post_code":"3002417","prefecture":"IBARAKI KEN","city":"TSUKUBAMIRAI SHI","town":"FUJIMIGAOKA","perfecture_jp":"茨城県","jp_add_1":"つくばみらい市","jp_add_2":"富士見ヶ丘"},"3002347":{"post_code":"3002347","prefecture":"IBARAKI KEN","city":"TSUKUBAMIRAI SHI","town":"BUTAI","perfecture_jp":"茨城県","jp_add_1":"つくばみらい市","jp_add_2":"豊体"},"3002304":{"post_code":"3002304","prefecture":"IBARAKI KEN","city":"TSUKUBAMIRAI SHI","town":"BUHEESHINDEN","perfecture_jp":"茨城県","jp_add_1":"つくばみらい市","jp_add_2":"武兵衛新田"},"3002422":{"post_code":"3002422","prefecture":"IBARAKI KEN","city":"TSUKUBAMIRAI SHI","town":"FURUKAWA","perfecture_jp":"茨城県","jp_add_1":"つくばみらい市","jp_add_2":"古川"},"3002446":{"post_code":"3002446","prefecture":"IBARAKI KEN","city":"TSUKUBAMIRAI SHI","town":"HOSOSHIRO","perfecture_jp":"茨城県","jp_add_1":"つくばみらい市","jp_add_2":"細代"},"3002414":{"post_code":"3002414","prefecture":"IBARAKI KEN","city":"TSUKUBAMIRAI SHI","town":"MAGI","perfecture_jp":"茨城県","jp_add_1":"つくばみらい市","jp_add_2":"真木"},"3002302":{"post_code":"3002302","prefecture":"IBARAKI KEN","city":"TSUKUBAMIRAI SHI","town":"MAMIANA","perfecture_jp":"茨城県","jp_add_1":"つくばみらい市","jp_add_2":"狸穴"},"3002404":{"post_code":"3002404","prefecture":"IBARAKI KEN","city":"TSUKUBAMIRAI SHI","town":"MINAMI","perfecture_jp":"茨城県","jp_add_1":"つくばみらい市","jp_add_2":"南"},"3002306":{"post_code":"3002306","prefecture":"IBARAKI KEN","city":"TSUKUBAMIRAI SHI","town":"MINAMIOTA","perfecture_jp":"茨城県","jp_add_1":"つくばみらい市","jp_add_2":"南太田"},"3002451":{"post_code":"3002451","prefecture":"IBARAKI KEN","city":"TSUKUBAMIRAI SHI","town":"MINOWA","perfecture_jp":"茨城県","jp_add_1":"つくばみらい市","jp_add_2":"箕輪"},"3002426":{"post_code":"3002426","prefecture":"IBARAKI KEN","city":"TSUKUBAMIRAI SHI","town":"MIYADO","perfecture_jp":"茨城県","jp_add_1":"つくばみらい市","jp_add_2":"宮戸"},"3002343":{"post_code":"3002343","prefecture":"IBARAKI KEN","city":"TSUKUBAMIRAI SHI","town":"MUJINABUCHI","perfecture_jp":"茨城県","jp_add_1":"つくばみらい市","jp_add_2":"狸渕"},"3002337":{"post_code":"3002337","prefecture":"IBARAKI KEN","city":"TSUKUBAMIRAI SHI","town":"YAITA","perfecture_jp":"茨城県","jp_add_1":"つくばみらい市","jp_add_2":"谷井田"},"3002357":{"post_code":"3002357","prefecture":"IBARAKI KEN","city":"TSUKUBAMIRAI SHI","town":"YAGUCHI","perfecture_jp":"茨城県","jp_add_1":"つくばみらい市","jp_add_2":"谷口"},"3002358":{"post_code":"3002358","prefecture":"IBARAKI KEN","city":"TSUKUBAMIRAI SHI","town":"YOKODAI","perfecture_jp":"茨城県","jp_add_1":"つくばみらい市","jp_add_2":"陽光台"},"3000400":{"post_code":"3000400","prefecture":"IBARAKI KEN","city":"INASHIKI GUN MIHO MURA","town":"IKANIKEISAIGANAIBAAI","perfecture_jp":"茨城県","jp_add_1":"稲敷郡美浦村","jp_add_2":""},"3000424":{"post_code":"3000424","prefecture":"IBARAKI KEN","city":"INASHIKI GUN MIHO MURA","town":"UKERYO","perfecture_jp":"茨城県","jp_add_1":"稲敷郡美浦村","jp_add_2":"受領"},"3000409":{"post_code":"3000409","prefecture":"IBARAKI KEN","city":"INASHIKI GUN MIHO MURA","town":"USHIGOME","perfecture_jp":"茨城県","jp_add_1":"稲敷郡美浦村","jp_add_2":"牛込"},"3000422":{"post_code":"3000422","prefecture":"IBARAKI KEN","city":"INASHIKI GUN MIHO MURA","town":"OSUKAZU","perfecture_jp":"茨城県","jp_add_1":"稲敷郡美浦村","jp_add_2":"大須賀津"},"3000411":{"post_code":"3000411","prefecture":"IBARAKI KEN","city":"INASHIKI GUN MIHO MURA","town":"OTA","perfecture_jp":"茨城県","jp_add_1":"稲敷郡美浦村","jp_add_2":"太田"},"3000416":{"post_code":"3000416","prefecture":"IBARAKI KEN","city":"INASHIKI GUN MIHO MURA","town":"OTSUKA","perfecture_jp":"茨城県","jp_add_1":"稲敷郡美浦村","jp_add_2":"大塚"},"3000413":{"post_code":"3000413","prefecture":"IBARAKI KEN","city":"INASHIKI GUN MIHO MURA","town":"OYA","perfecture_jp":"茨城県","jp_add_1":"稲敷郡美浦村","jp_add_2":"大谷"},"3000402":{"post_code":"3000402","prefecture":"IBARAKI KEN","city":"INASHIKI GUN MIHO MURA","town":"OYAMA","perfecture_jp":"茨城県","jp_add_1":"稲敷郡美浦村","jp_add_2":"大山"},"3000425":{"post_code":"3000425","prefecture":"IBARAKI KEN","city":"INASHIKI GUN MIHO MURA","town":"OKITSU","perfecture_jp":"茨城県","jp_add_1":"稲敷郡美浦村","jp_add_2":"興津"},"3000433":{"post_code":"3000433","prefecture":"IBARAKI KEN","city":"INASHIKI GUN MIHO MURA","town":"KI","perfecture_jp":"茨城県","jp_add_1":"稲敷郡美浦村","jp_add_2":"木"},"3000421":{"post_code":"3000421","prefecture":"IBARAKI KEN","city":"INASHIKI GUN MIHO MURA","town":"KIHARA","perfecture_jp":"茨城県","jp_add_1":"稲敷郡美浦村","jp_add_2":"木原"},"3000420":{"post_code":"3000420","prefecture":"IBARAKI KEN","city":"INASHIKI GUN MIHO MURA","town":"GONAKA","perfecture_jp":"茨城県","jp_add_1":"稲敷郡美浦村","jp_add_2":"郷中"},"3000419":{"post_code":"3000419","prefecture":"IBARAKI KEN","city":"INASHIKI GUN MIHO MURA","town":"SANNO","perfecture_jp":"茨城県","jp_add_1":"稲敷郡美浦村","jp_add_2":"山王"},"3000414":{"post_code":"3000414","prefecture":"IBARAKI KEN","city":"INASHIKI GUN MIHO MURA","town":"SHIDA","perfecture_jp":"茨城県","jp_add_1":"稲敷郡美浦村","jp_add_2":"信太"},"3000432":{"post_code":"3000432","prefecture":"IBARAKI KEN","city":"INASHIKI GUN MIHO MURA","town":"JOKO","perfecture_jp":"茨城県","jp_add_1":"稲敷郡美浦村","jp_add_2":"定光"},"3000404":{"post_code":"3000404","prefecture":"IBARAKI KEN","city":"INASHIKI GUN MIHO MURA","town":"TSUCHIURA","perfecture_jp":"茨城県","jp_add_1":"稲敷郡美浦村","jp_add_2":"土浦"},"3000426":{"post_code":"3000426","prefecture":"IBARAKI KEN","city":"INASHIKI GUN MIHO MURA","town":"TSUCHIYA","perfecture_jp":"茨城県","jp_add_1":"稲敷郡美浦村","jp_add_2":"土屋"},"3000435":{"post_code":"3000435","prefecture":"IBARAKI KEN","city":"INASHIKI GUN MIHO MURA","town":"NAKANOCHI","perfecture_jp":"茨城県","jp_add_1":"稲敷郡美浦村","jp_add_2":"中野内"},"3000408":{"post_code":"3000408","prefecture":"IBARAKI KEN","city":"INASHIKI GUN MIHO MURA","town":"NEBI","perfecture_jp":"茨城県","jp_add_1":"稲敷郡美浦村","jp_add_2":"根火"},"3000436":{"post_code":"3000436","prefecture":"IBARAKI KEN","city":"INASHIKI GUN MIHO MURA","town":"NEMOTO","perfecture_jp":"茨城県","jp_add_1":"稲敷郡美浦村","jp_add_2":"根本"},"3000418":{"post_code":"3000418","prefecture":"IBARAKI KEN","city":"INASHIKI GUN MIHO MURA","town":"HANAMIZUKA","perfecture_jp":"茨城県","jp_add_1":"稲敷郡美浦村","jp_add_2":"花見塚"},"3000427":{"post_code":"3000427","prefecture":"IBARAKI KEN","city":"INASHIKI GUN MIHO MURA","town":"FUSA","perfecture_jp":"茨城県","jp_add_1":"稲敷郡美浦村","jp_add_2":"布佐"},"3000428":{"post_code":"3000428","prefecture":"IBARAKI KEN","city":"INASHIKI GUN MIHO MURA","town":"FUNAKO","perfecture_jp":"茨城県","jp_add_1":"稲敷郡美浦村","jp_add_2":"舟子"},"3000434":{"post_code":"3000434","prefecture":"IBARAKI KEN","city":"INASHIKI GUN MIHO MURA","town":"HOTTA","perfecture_jp":"茨城県","jp_add_1":"稲敷郡美浦村","jp_add_2":"堀田"},"3000401":{"post_code":"3000401","prefecture":"IBARAKI KEN","city":"INASHIKI GUN MIHO MURA","town":"MAGAKI","perfecture_jp":"茨城県","jp_add_1":"稲敷郡美浦村","jp_add_2":"馬掛"},"3000405":{"post_code":"3000405","prefecture":"IBARAKI KEN","city":"INASHIKI GUN MIHO MURA","town":"MANO","perfecture_jp":"茨城県","jp_add_1":"稲敷郡美浦村","jp_add_2":"間野"},"3000403":{"post_code":"3000403","prefecture":"IBARAKI KEN","city":"INASHIKI GUN MIHO MURA","town":"MAMIYAMA","perfecture_jp":"茨城県","jp_add_1":"稲敷郡美浦村","jp_add_2":"馬見山"},"3000415":{"post_code":"3000415","prefecture":"IBARAKI KEN","city":"INASHIKI GUN MIHO MURA","town":"MIKOMA","perfecture_jp":"茨城県","jp_add_1":"稲敷郡美浦村","jp_add_2":"美駒"},"3000410":{"post_code":"3000410","prefecture":"IBARAKI KEN","city":"INASHIKI GUN MIHO MURA","town":"MIDORIDAI","perfecture_jp":"茨城県","jp_add_1":"稲敷郡美浦村","jp_add_2":"みどり台"},"3000437":{"post_code":"3000437","prefecture":"IBARAKI KEN","city":"INASHIKI GUN MIHO MURA","town":"MIHARU","perfecture_jp":"茨城県","jp_add_1":"稲敷郡美浦村","jp_add_2":"見晴"},"3000412":{"post_code":"3000412","prefecture":"IBARAKI KEN","city":"INASHIKI GUN MIHO MURA","town":"MIYAJI","perfecture_jp":"茨城県","jp_add_1":"稲敷郡美浦村","jp_add_2":"宮地"},"3000431":{"post_code":"3000431","prefecture":"IBARAKI KEN","city":"INASHIKI GUN MIHO MURA","town":"MOTOHASHI","perfecture_jp":"茨城県","jp_add_1":"稲敷郡美浦村","jp_add_2":"本橋"},"3000423":{"post_code":"3000423","prefecture":"IBARAKI KEN","city":"INASHIKI GUN MIHO MURA","town":"MORO","perfecture_jp":"茨城県","jp_add_1":"稲敷郡美浦村","jp_add_2":"茂呂"},"3000407":{"post_code":"3000407","prefecture":"IBARAKI KEN","city":"INASHIKI GUN MIHO MURA","town":"YAITA","perfecture_jp":"茨城県","jp_add_1":"稲敷郡美浦村","jp_add_2":"八井田"},"3000417":{"post_code":"3000417","prefecture":"IBARAKI KEN","city":"INASHIKI GUN MIHO MURA","town":"YANAKA","perfecture_jp":"茨城県","jp_add_1":"稲敷郡美浦村","jp_add_2":"谷中"},"3000406":{"post_code":"3000406","prefecture":"IBARAKI KEN","city":"INASHIKI GUN MIHO MURA","town":"YAMAUCHI","perfecture_jp":"茨城県","jp_add_1":"稲敷郡美浦村","jp_add_2":"山内"},"3000300":{"post_code":"3000300","prefecture":"IBARAKI KEN","city":"INASHIKI GUN AMI MACHI","town":"IKANIKEISAIGANAIBAAI","perfecture_jp":"茨城県","jp_add_1":"稲敷郡阿見町","jp_add_2":""},"3000301":{"post_code":"3000301","prefecture":"IBARAKI KEN","city":"INASHIKI GUN AMI MACHI","town":"AOYADO","perfecture_jp":"茨城県","jp_add_1":"稲敷郡阿見町","jp_add_2":"青宿"},"3000306":{"post_code":"3000306","prefecture":"IBARAKI KEN","city":"INASHIKI GUN AMI MACHI","town":"AKEBONO","perfecture_jp":"茨城県","jp_add_1":"稲敷郡阿見町","jp_add_2":"曙"},"3000331":{"post_code":"3000331","prefecture":"IBARAKI KEN","city":"INASHIKI GUN AMI MACHI","town":"AMI","perfecture_jp":"茨城県","jp_add_1":"稲敷郡阿見町","jp_add_2":"阿見"},"3001151":{"post_code":"3001151","prefecture":"IBARAKI KEN","city":"INASHIKI GUN AMI MACHI","town":"ARAKAWAOKI","perfecture_jp":"茨城県","jp_add_1":"稲敷郡阿見町","jp_add_2":"荒川沖"},"3001152":{"post_code":"3001152","prefecture":"IBARAKI KEN","city":"INASHIKI GUN AMI MACHI","town":"ARAKAWAHONGO","perfecture_jp":"茨城県","jp_add_1":"稲敷郡阿見町","jp_add_2":"荒川本郷"},"3000324":{"post_code":"3000324","prefecture":"IBARAKI KEN","city":"INASHIKI GUN AMI MACHI","town":"IIGURA","perfecture_jp":"茨城県","jp_add_1":"稲敷郡阿見町","jp_add_2":"飯倉"},"3000313":{"post_code":"3000313","prefecture":"IBARAKI KEN","city":"INASHIKI GUN AMI MACHI","town":"ISHIKAWA","perfecture_jp":"茨城県","jp_add_1":"稲敷郡阿見町","jp_add_2":"石川"},"3000341":{"post_code":"3000341","prefecture":"IBARAKI KEN","city":"INASHIKI GUN AMI MACHI","town":"UZURANO","perfecture_jp":"茨城県","jp_add_1":"稲敷郡阿見町","jp_add_2":"うずら野"},"3000323":{"post_code":"3000323","prefecture":"IBARAKI KEN","city":"INASHIKI GUN AMI MACHI","town":"OGATA","perfecture_jp":"茨城県","jp_add_1":"稲敷郡阿見町","jp_add_2":"大形"},"3000303":{"post_code":"3000303","prefecture":"IBARAKI KEN","city":"INASHIKI GUN AMI MACHI","town":"OMURO","perfecture_jp":"茨城県","jp_add_1":"稲敷郡阿見町","jp_add_2":"大室"},"3000335":{"post_code":"3000335","prefecture":"IBARAKI KEN","city":"INASHIKI GUN AMI MACHI","town":"OKAZAKI","perfecture_jp":"茨城県","jp_add_1":"稲敷郡阿見町","jp_add_2":"岡崎"},"3000314":{"post_code":"3000314","prefecture":"IBARAKI KEN","city":"INASHIKI GUN AMI MACHI","town":"OPPARA","perfecture_jp":"茨城県","jp_add_1":"稲敷郡阿見町","jp_add_2":"追原"},"3000304":{"post_code":"3000304","prefecture":"IBARAKI KEN","city":"INASHIKI GUN AMI MACHI","town":"KAKEUMA","perfecture_jp":"茨城県","jp_add_1":"稲敷郡阿見町","jp_add_2":"掛馬"},"3000315":{"post_code":"3000315","prefecture":"IBARAKI KEN","city":"INASHIKI GUN AMI MACHI","town":"KASUMINOSATO","perfecture_jp":"茨城県","jp_add_1":"稲敷郡阿見町","jp_add_2":"香澄の里"},"3001154":{"post_code":"3001154","prefecture":"IBARAKI KEN","city":"INASHIKI GUN AMI MACHI","town":"KAMINAGA","perfecture_jp":"茨城県","jp_add_1":"稲敷郡阿見町","jp_add_2":"上長"},"3000322":{"post_code":"3000322","prefecture":"IBARAKI KEN","city":"INASHIKI GUN AMI MACHI","town":"KIMIJIMA","perfecture_jp":"茨城県","jp_add_1":"稲敷郡阿見町","jp_add_2":"君島"},"3001157":{"post_code":"3001157","prefecture":"IBARAKI KEN","city":"INASHIKI GUN AMI MACHI","town":"KOIKE","perfecture_jp":"茨城県","jp_add_1":"稲敷郡阿見町","jp_add_2":"小池"},"3000311":{"post_code":"3000311","prefecture":"IBARAKI KEN","city":"INASHIKI GUN AMI MACHI","town":"SHIMAZU","perfecture_jp":"茨城県","jp_add_1":"稲敷郡阿見町","jp_add_2":"島津"},"3001153":{"post_code":"3001153","prefecture":"IBARAKI KEN","city":"INASHIKI GUN AMI MACHI","town":"JITSUKOKU","perfecture_jp":"茨城県","jp_add_1":"稲敷郡阿見町","jp_add_2":"実穀"},"3000325":{"post_code":"3000325","prefecture":"IBARAKI KEN","city":"INASHIKI GUN AMI MACHI","town":"JOJO","perfecture_jp":"茨城県","jp_add_1":"稲敷郡阿見町","jp_add_2":"上条"},"3000334":{"post_code":"3000334","prefecture":"IBARAKI KEN","city":"INASHIKI GUN AMI MACHI","town":"SUZUKI","perfecture_jp":"茨城県","jp_add_1":"稲敷郡阿見町","jp_add_2":"鈴木"},"3001158":{"post_code":"3001158","prefecture":"IBARAKI KEN","city":"INASHIKI GUN AMI MACHI","town":"SUMIYOSHI","perfecture_jp":"茨城県","jp_add_1":"稲敷郡阿見町","jp_add_2":"住吉"},"3000305":{"post_code":"3000305","prefecture":"IBARAKI KEN","city":"INASHIKI GUN AMI MACHI","town":"TAKAKU","perfecture_jp":"茨城県","jp_add_1":"稲敷郡阿見町","jp_add_2":"竹来"},"3000332":{"post_code":"3000332","prefecture":"IBARAKI KEN","city":"INASHIKI GUN AMI MACHI","town":"CHUO","perfecture_jp":"茨城県","jp_add_1":"稲敷郡阿見町","jp_add_2":"中央"},"3000337":{"post_code":"3000337","prefecture":"IBARAKI KEN","city":"INASHIKI GUN AMI MACHI","town":"NAKAGO","perfecture_jp":"茨城県","jp_add_1":"稲敷郡阿見町","jp_add_2":"中郷"},"3000312":{"post_code":"3000312","prefecture":"IBARAKI KEN","city":"INASHIKI GUN AMI MACHI","town":"NAMPEIDAI","perfecture_jp":"茨城県","jp_add_1":"稲敷郡阿見町","jp_add_2":"南平台"},"3000336":{"post_code":"3000336","prefecture":"IBARAKI KEN","city":"INASHIKI GUN AMI MACHI","town":"NISHIGO","perfecture_jp":"茨城県","jp_add_1":"稲敷郡阿見町","jp_add_2":"西郷"},"3000302":{"post_code":"3000302","prefecture":"IBARAKI KEN","city":"INASHIKI GUN AMI MACHI","town":"HASAMADO","perfecture_jp":"茨城県","jp_add_1":"稲敷郡阿見町","jp_add_2":"廻戸"},"3000321":{"post_code":"3000321","prefecture":"IBARAKI KEN","city":"INASHIKI GUN AMI MACHI","town":"HANAWA","perfecture_jp":"茨城県","jp_add_1":"稲敷郡阿見町","jp_add_2":"塙"},"3001156":{"post_code":"3001156","prefecture":"IBARAKI KEN","city":"INASHIKI GUN AMI MACHI","town":"FUKUDA","perfecture_jp":"茨城県","jp_add_1":"稲敷郡阿見町","jp_add_2":"福田"},"3000326":{"post_code":"3000326","prefecture":"IBARAKI KEN","city":"INASHIKI GUN AMI MACHI","town":"HOSHINOSATO","perfecture_jp":"茨城県","jp_add_1":"稲敷郡阿見町","jp_add_2":"星の里"},"3001159":{"post_code":"3001159","prefecture":"IBARAKI KEN","city":"INASHIKI GUN AMI MACHI","town":"HONGO","perfecture_jp":"茨城県","jp_add_1":"稲敷郡阿見町","jp_add_2":"本郷"},"3001155":{"post_code":"3001155","prefecture":"IBARAKI KEN","city":"INASHIKI GUN AMI MACHI","town":"YOSHIWARA","perfecture_jp":"茨城県","jp_add_1":"稲敷郡阿見町","jp_add_2":"吉原"},"3001161":{"post_code":"3001161","prefecture":"IBARAKI KEN","city":"INASHIKI GUN AMI MACHI","town":"YOSHIWARA","perfecture_jp":"茨城県","jp_add_1":"稲敷郡阿見町","jp_add_2":"よしわら"},"3000333":{"post_code":"3000333","prefecture":"IBARAKI KEN","city":"INASHIKI GUN AMI MACHI","town":"WAKAGURI","perfecture_jp":"茨城県","jp_add_1":"稲敷郡阿見町","jp_add_2":"若栗"},"3001300":{"post_code":"3001300","prefecture":"IBARAKI KEN","city":"INASHIKI GUN KAWACHI MACHI","town":"IKANIKEISAIGANAIBAAI","perfecture_jp":"茨城県","jp_add_1":"稲敷郡河内町","jp_add_2":""},"3001404":{"post_code":"3001404","prefecture":"IBARAKI KEN","city":"INASHIKI GUN KAWACHI MACHI","town":"KATAMAKI","perfecture_jp":"茨城県","jp_add_1":"稲敷郡河内町","jp_add_2":"片巻"},"3001403":{"post_code":"3001403","prefecture":"IBARAKI KEN","city":"INASHIKI GUN KAWACHI MACHI","town":"KANAETSU","perfecture_jp":"茨城県","jp_add_1":"稲敷郡河内町","jp_add_2":"金江津"},"3001324":{"post_code":"3001324","prefecture":"IBARAKI KEN","city":"INASHIKI GUN KAWACHI MACHI","town":"GENSEIDA","perfecture_jp":"茨城県","jp_add_1":"稲敷郡河内町","jp_add_2":"源清田"},"3001332":{"post_code":"3001332","prefecture":"IBARAKI KEN","city":"INASHIKI GUN KAWACHI MACHI","town":"KOYA","perfecture_jp":"茨城県","jp_add_1":"稲敷郡河内町","jp_add_2":"幸谷"},"3001322":{"post_code":"3001322","prefecture":"IBARAKI KEN","city":"INASHIKI GUN KAWACHI MACHI","town":"KOGABAYASHI","perfecture_jp":"茨城県","jp_add_1":"稲敷郡河内町","jp_add_2":"古河林"},"3001334":{"post_code":"3001334","prefecture":"IBARAKI KEN","city":"INASHIKI GUN KAWACHI MACHI","town":"KOBAYASHICHOBU","perfecture_jp":"茨城県","jp_add_1":"稲敷郡河内町","jp_add_2":"小林町歩"},"3001327":{"post_code":"3001327","prefecture":"IBARAKI KEN","city":"INASHIKI GUN KAWACHI MACHI","town":"SASHIMA","perfecture_jp":"茨城県","jp_add_1":"稲敷郡河内町","jp_add_2":"猿島"},"3001406":{"post_code":"3001406","prefecture":"IBARAKI KEN","city":"INASHIKI GUN KAWACHI MACHI","town":"SHIMOKANO","perfecture_jp":"茨城県","jp_add_1":"稲敷郡河内町","jp_add_2":"下加納"},"3001314":{"post_code":"3001314","prefecture":"IBARAKI KEN","city":"INASHIKI GUN KAWACHI MACHI","town":"SHIMOCHOBU","perfecture_jp":"茨城県","jp_add_1":"稲敷郡河内町","jp_add_2":"下町歩"},"3001401":{"post_code":"3001401","prefecture":"IBARAKI KEN","city":"INASHIKI GUN KAWACHI MACHI","town":"JUSAMMADO","perfecture_jp":"茨城県","jp_add_1":"稲敷郡河内町","jp_add_2":"十三間戸"},"3001315":{"post_code":"3001315","prefecture":"IBARAKI KEN","city":"INASHIKI GUN KAWACHI MACHI","town":"JURI","perfecture_jp":"茨城県","jp_add_1":"稲敷郡河内町","jp_add_2":"十里"},"3001311":{"post_code":"3001311","prefecture":"IBARAKI KEN","city":"INASHIKI GUN KAWACHI MACHI","town":"SHOBUKAWA","perfecture_jp":"茨城県","jp_add_1":"稲敷郡河内町","jp_add_2":"庄布川"},"3001333":{"post_code":"3001333","prefecture":"IBARAKI KEN","city":"INASHIKI GUN KAWACHI MACHI","town":"SUMIZAKICHOBU","perfecture_jp":"茨城県","jp_add_1":"稲敷郡河内町","jp_add_2":"角崎町歩"},"3001336":{"post_code":"3001336","prefecture":"IBARAKI KEN","city":"INASHIKI GUN KAWACHI MACHI","town":"DAITOKUNABEKOSHINDEN","perfecture_jp":"茨城県","jp_add_1":"稲敷郡河内町","jp_add_2":"大徳鍋子新田"},"3001313":{"post_code":"3001313","prefecture":"IBARAKI KEN","city":"INASHIKI GUN KAWACHI MACHI","town":"TAGAWA(4905-1)","perfecture_jp":"茨城県","jp_add_1":"稲敷郡河内町","jp_add_2":"田川"},"3001405":{"post_code":"3001405","prefecture":"IBARAKI KEN","city":"INASHIKI GUN KAWACHI MACHI","town":"TAGAWA(SONOTA)","perfecture_jp":"茨城県","jp_add_1":"稲敷郡河内町","jp_add_2":"田川"},"3001323":{"post_code":"3001323","prefecture":"IBARAKI KEN","city":"INASHIKI GUN KAWACHI MACHI","town":"TEGURI","perfecture_jp":"茨城県","jp_add_1":"稲敷郡河内町","jp_add_2":"手栗"},"3001312":{"post_code":"3001312","prefecture":"IBARAKI KEN","city":"INASHIKI GUN KAWACHI MACHI","town":"NAGASAO","perfecture_jp":"茨城県","jp_add_1":"稲敷郡河内町","jp_add_2":"長竿"},"3001321":{"post_code":"3001321","prefecture":"IBARAKI KEN","city":"INASHIKI GUN KAWACHI MACHI","town":"HANEKI","perfecture_jp":"茨城県","jp_add_1":"稲敷郡河内町","jp_add_2":"羽子騎"},"3001402":{"post_code":"3001402","prefecture":"IBARAKI KEN","city":"INASHIKI GUN KAWACHI MACHI","town":"HIRAKAWA","perfecture_jp":"茨城県","jp_add_1":"稲敷郡河内町","jp_add_2":"平川"},"3001316":{"post_code":"3001316","prefecture":"IBARAKI KEN","city":"INASHIKI GUN KAWACHI MACHI","town":"FUKAMA","perfecture_jp":"茨城県","jp_add_1":"稲敷郡河内町","jp_add_2":"布鎌"},"3001325":{"post_code":"3001325","prefecture":"IBARAKI KEN","city":"INASHIKI GUN KAWACHI MACHI","town":"HEIZABURO","perfecture_jp":"茨城県","jp_add_1":"稲敷郡河内町","jp_add_2":"平三郎"},"3001331":{"post_code":"3001331","prefecture":"IBARAKI KEN","city":"INASHIKI GUN KAWACHI MACHI","town":"MANAITA","perfecture_jp":"茨城県","jp_add_1":"稲敷郡河内町","jp_add_2":"生板"},"3001335":{"post_code":"3001335","prefecture":"IBARAKI KEN","city":"INASHIKI GUN KAWACHI MACHI","town":"MANAITANABEKOSHINDEN","perfecture_jp":"茨城県","jp_add_1":"稲敷郡河内町","jp_add_2":"生板鍋子新田"},"3001326":{"post_code":"3001326","prefecture":"IBARAKI KEN","city":"INASHIKI GUN KAWACHI MACHI","town":"MIYABUCHI","perfecture_jp":"茨城県","jp_add_1":"稲敷郡河内町","jp_add_2":"宮淵"},"3001337":{"post_code":"3001337","prefecture":"IBARAKI KEN","city":"INASHIKI GUN KAWACHI MACHI","town":"RYUGASAKICHOBU","perfecture_jp":"茨城県","jp_add_1":"稲敷郡河内町","jp_add_2":"竜ケ崎町歩"},"3003500":{"post_code":"3003500","prefecture":"IBARAKI KEN","city":"YUKI GUN YACHIYO MACHI","town":"IKANIKEISAIGANAIBAAI","perfecture_jp":"茨城県","jp_add_1":"結城郡八千代町","jp_add_2":""},"3003555":{"post_code":"3003555","prefecture":"IBARAKI KEN","city":"YUKI GUN YACHIYO MACHI","town":"ASHIGAYA","perfecture_jp":"茨城県","jp_add_1":"結城郡八千代町","jp_add_2":"芦ケ谷"},"3003556":{"post_code":"3003556","prefecture":"IBARAKI KEN","city":"YUKI GUN YACHIYO MACHI","town":"ASHIGAYASHINDEN","perfecture_jp":"茨城県","jp_add_1":"結城郡八千代町","jp_add_2":"芦ケ谷新田"},"3003519":{"post_code":"3003519","prefecture":"IBARAKI KEN","city":"YUKI GUN YACHIYO MACHI","town":"ARAI","perfecture_jp":"茨城県","jp_add_1":"結城郡八千代町","jp_add_2":"新井"},"3003535":{"post_code":"3003535","prefecture":"IBARAKI KEN","city":"YUKI GUN YACHIYO MACHI","town":"AWANO","perfecture_jp":"茨城県","jp_add_1":"結城郡八千代町","jp_add_2":"粟野"},"3003562":{"post_code":"3003562","prefecture":"IBARAKI KEN","city":"YUKI GUN YACHIYO MACHI","town":"ISO","perfecture_jp":"茨城県","jp_add_1":"結城郡八千代町","jp_add_2":"磯"},"3003531":{"post_code":"3003531","prefecture":"IBARAKI KEN","city":"YUKI GUN YACHIYO MACHI","town":"IMAZATO","perfecture_jp":"茨城県","jp_add_1":"結城郡八千代町","jp_add_2":"今里"},"3003514":{"post_code":"3003514","prefecture":"IBARAKI KEN","city":"YUKI GUN YACHIYO MACHI","town":"OSATO","perfecture_jp":"茨城県","jp_add_1":"結城郡八千代町","jp_add_2":"大里"},"3003534":{"post_code":"3003534","prefecture":"IBARAKI KEN","city":"YUKI GUN YACHIYO MACHI","town":"OTA","perfecture_jp":"茨城県","jp_add_1":"結城郡八千代町","jp_add_2":"太田"},"3003571":{"post_code":"3003571","prefecture":"IBARAKI KEN","city":"YUKI GUN YACHIYO MACHI","town":"ODOSHINDEN","perfecture_jp":"茨城県","jp_add_1":"結城郡八千代町","jp_add_2":"大戸新田"},"3003552":{"post_code":"3003552","prefecture":"IBARAKI KEN","city":"YUKI GUN YACHIYO MACHI","town":"OMAGI","perfecture_jp":"茨城県","jp_add_1":"結城郡八千代町","jp_add_2":"大間木"},"3003515":{"post_code":"3003515","prefecture":"IBARAKI KEN","city":"YUKI GUN YACHIYO MACHI","town":"OWADADO","perfecture_jp":"茨城県","jp_add_1":"結城郡八千代町","jp_add_2":"大渡戸"},"3003554":{"post_code":"3003554","prefecture":"IBARAKI KEN","city":"YUKI GUN YACHIYO MACHI","town":"OSAKI","perfecture_jp":"茨城県","jp_add_1":"結城郡八千代町","jp_add_2":"尾崎"},"3003526":{"post_code":"3003526","prefecture":"IBARAKI KEN","city":"YUKI GUN YACHIYO MACHI","town":"KAIYA","perfecture_jp":"茨城県","jp_add_1":"結城郡八千代町","jp_add_2":"貝谷"},"3003503":{"post_code":"3003503","prefecture":"IBARAKI KEN","city":"YUKI GUN YACHIYO MACHI","town":"KASUREI","perfecture_jp":"茨城県","jp_add_1":"結城郡八千代町","jp_add_2":"粕礼"},"3003533":{"post_code":"3003533","prefecture":"IBARAKI KEN","city":"YUKI GUN YACHIYO MACHI","town":"KATAKAKU","perfecture_jp":"茨城県","jp_add_1":"結城郡八千代町","jp_add_2":"片角"},"3003537":{"post_code":"3003537","prefecture":"IBARAKI KEN","city":"YUKI GUN YACHIYO MACHI","town":"KARIHASHI","perfecture_jp":"茨城県","jp_add_1":"結城郡八千代町","jp_add_2":"苅橋"},"3003521":{"post_code":"3003521","prefecture":"IBARAKI KEN","city":"YUKI GUN YACHIYO MACHI","town":"KAWAJIRI","perfecture_jp":"茨城県","jp_add_1":"結城郡八千代町","jp_add_2":"川尻"},"3003513":{"post_code":"3003513","prefecture":"IBARAKI KEN","city":"YUKI GUN YACHIYO MACHI","town":"KUGETA","perfecture_jp":"茨城県","jp_add_1":"結城郡八千代町","jp_add_2":"久下田"},"3003551":{"post_code":"3003551","prefecture":"IBARAKI KEN","city":"YUKI GUN YACHIYO MACHI","town":"KURIYAMA","perfecture_jp":"茨城県","jp_add_1":"結城郡八千代町","jp_add_2":"栗山"},"3003512":{"post_code":"3003512","prefecture":"IBARAKI KEN","city":"YUKI GUN YACHIYO MACHI","town":"KOYA","perfecture_jp":"茨城県","jp_add_1":"結城郡八千代町","jp_add_2":"小屋"},"3003505":{"post_code":"3003505","prefecture":"IBARAKI KEN","city":"YUKI GUN YACHIYO MACHI","town":"SANO","perfecture_jp":"茨城県","jp_add_1":"結城郡八千代町","jp_add_2":"佐野"},"3003501":{"post_code":"3003501","prefecture":"IBARAKI KEN","city":"YUKI GUN YACHIYO MACHI","town":"SHIOMOTO","perfecture_jp":"茨城県","jp_add_1":"結城郡八千代町","jp_add_2":"塩本"},"3003502":{"post_code":"3003502","prefecture":"IBARAKI KEN","city":"YUKI GUN YACHIYO MACHI","town":"SHIMOYAMAKAWA","perfecture_jp":"茨城県","jp_add_1":"結城郡八千代町","jp_add_2":"下山川"},"3003541":{"post_code":"3003541","prefecture":"IBARAKI KEN","city":"YUKI GUN YACHIYO MACHI","town":"SHINCHI","perfecture_jp":"茨城県","jp_add_1":"結城郡八千代町","jp_add_2":"新地"},"3003543":{"post_code":"3003543","prefecture":"IBARAKI KEN","city":"YUKI GUN YACHIYO MACHI","town":"SHINCHISHINDEN","perfecture_jp":"茨城県","jp_add_1":"結城郡八千代町","jp_add_2":"新地新田"},"3003572":{"post_code":"3003572","prefecture":"IBARAKI KEN","city":"YUKI GUN YACHIYO MACHI","town":"SUGENOYA","perfecture_jp":"茨城県","jp_add_1":"結城郡八千代町","jp_add_2":"菅谷"},"3003511":{"post_code":"3003511","prefecture":"IBARAKI KEN","city":"YUKI GUN YACHIYO MACHI","town":"SETOI","perfecture_jp":"茨城県","jp_add_1":"結城郡八千代町","jp_add_2":"瀬戸井"},"3003516":{"post_code":"3003516","prefecture":"IBARAKI KEN","city":"YUKI GUN YACHIYO MACHI","town":"TAKASAKI","perfecture_jp":"茨城県","jp_add_1":"結城郡八千代町","jp_add_2":"高崎"},"3003517":{"post_code":"3003517","prefecture":"IBARAKI KEN","city":"YUKI GUN YACHIYO MACHI","town":"TSUBOI","perfecture_jp":"茨城県","jp_add_1":"結城郡八千代町","jp_add_2":"坪井"},"3003536":{"post_code":"3003536","prefecture":"IBARAKI KEN","city":"YUKI GUN YACHIYO MACHI","town":"NAKANO","perfecture_jp":"茨城県","jp_add_1":"結城郡八千代町","jp_add_2":"中野"},"3003506":{"post_code":"3003506","prefecture":"IBARAKI KEN","city":"YUKI GUN YACHIYO MACHI","town":"NARITA","perfecture_jp":"茨城県","jp_add_1":"結城郡八千代町","jp_add_2":"成田"},"3003539":{"post_code":"3003539","prefecture":"IBARAKI KEN","city":"YUKI GUN YACHIYO MACHI","town":"NIEDO","perfecture_jp":"茨城県","jp_add_1":"結城郡八千代町","jp_add_2":"仁江戸"},"3003504":{"post_code":"3003504","prefecture":"IBARAKI KEN","city":"YUKI GUN YACHIYO MACHI","town":"NISHIOYAMA","perfecture_jp":"茨城県","jp_add_1":"結城郡八千代町","jp_add_2":"西大山"},"3003525":{"post_code":"3003525","prefecture":"IBARAKI KEN","city":"YUKI GUN YACHIYO MACHI","town":"NUMAMORI","perfecture_jp":"茨城県","jp_add_1":"結城郡八千代町","jp_add_2":"沼森"},"3003518":{"post_code":"3003518","prefecture":"IBARAKI KEN","city":"YUKI GUN YACHIYO MACHI","town":"NOTSUME","perfecture_jp":"茨城県","jp_add_1":"結城郡八千代町","jp_add_2":"野爪"},"3003523":{"post_code":"3003523","prefecture":"IBARAKI KEN","city":"YUKI GUN YACHIYO MACHI","town":"HATCHO","perfecture_jp":"茨城県","jp_add_1":"結城郡八千代町","jp_add_2":"八町"},"3003538":{"post_code":"3003538","prefecture":"IBARAKI KEN","city":"YUKI GUN YACHIYO MACHI","town":"HIGASHIOYAMA","perfecture_jp":"茨城県","jp_add_1":"結城郡八千代町","jp_add_2":"東大山"},"3003527":{"post_code":"3003527","prefecture":"IBARAKI KEN","city":"YUKI GUN YACHIYO MACHI","town":"HIGASHIHARA","perfecture_jp":"茨城県","jp_add_1":"結城郡八千代町","jp_add_2":"東原"},"3003545":{"post_code":"3003545","prefecture":"IBARAKI KEN","city":"YUKI GUN YACHIYO MACHI","town":"HIGASHIFUKIDA","perfecture_jp":"茨城県","jp_add_1":"結城郡八千代町","jp_add_2":"東蕗田"},"3003524":{"post_code":"3003524","prefecture":"IBARAKI KEN","city":"YUKI GUN YACHIYO MACHI","town":"HYOGO","perfecture_jp":"茨城県","jp_add_1":"結城郡八千代町","jp_add_2":"兵庫"},"3003561":{"post_code":"3003561","prefecture":"IBARAKI KEN","city":"YUKI GUN YACHIYO MACHI","town":"HIRATSUKA","perfecture_jp":"茨城県","jp_add_1":"結城郡八千代町","jp_add_2":"平塚"},"3003553":{"post_code":"3003553","prefecture":"IBARAKI KEN","city":"YUKI GUN YACHIYO MACHI","town":"FUKIDA","perfecture_jp":"茨城県","jp_add_1":"結城郡八千代町","jp_add_2":"蕗田"},"3003542":{"post_code":"3003542","prefecture":"IBARAKI KEN","city":"YUKI GUN YACHIYO MACHI","town":"FUKUOKA","perfecture_jp":"茨城県","jp_add_1":"結城郡八千代町","jp_add_2":"福岡"},"3003522":{"post_code":"3003522","prefecture":"IBARAKI KEN","city":"YUKI GUN YACHIYO MACHI","town":"FUKURO","perfecture_jp":"茨城県","jp_add_1":"結城郡八千代町","jp_add_2":"袋"},"3003532":{"post_code":"3003532","prefecture":"IBARAKI KEN","city":"YUKI GUN YACHIYO MACHI","town":"HONGO","perfecture_jp":"茨城県","jp_add_1":"結城郡八千代町","jp_add_2":"本郷"},"3003565":{"post_code":"3003565","prefecture":"IBARAKI KEN","city":"YUKI GUN YACHIYO MACHI","town":"MATSUMOTO","perfecture_jp":"茨城県","jp_add_1":"結城郡八千代町","jp_add_2":"松本"},"3003564":{"post_code":"3003564","prefecture":"IBARAKI KEN","city":"YUKI GUN YACHIYO MACHI","town":"MINOKUCHI","perfecture_jp":"茨城県","jp_add_1":"結城郡八千代町","jp_add_2":"水口"},"3003563":{"post_code":"3003563","prefecture":"IBARAKI KEN","city":"YUKI GUN YACHIYO MACHI","town":"MURANUKI","perfecture_jp":"茨城県","jp_add_1":"結城郡八千代町","jp_add_2":"村貫"},"3003544":{"post_code":"3003544","prefecture":"IBARAKI KEN","city":"YUKI GUN YACHIYO MACHI","town":"WAKA","perfecture_jp":"茨城県","jp_add_1":"結城郡八千代町","jp_add_2":"若"},"3001600":{"post_code":"3001600","prefecture":"IBARAKI KEN","city":"KITASOMA GUN TONE MACHI","town":"IKANIKEISAIGANAIBAAI","perfecture_jp":"茨城県","jp_add_1":"北相馬郡利根町","jp_add_2":""},"3001603":{"post_code":"3001603","prefecture":"IBARAKI KEN","city":"KITASOMA GUN TONE MACHI","town":"OKUYAMA","perfecture_jp":"茨城県","jp_add_1":"北相馬郡利根町","jp_add_2":"奥山"},"3001634":{"post_code":"3001634","prefecture":"IBARAKI KEN","city":"KITASOMA GUN TONE MACHI","town":"OSHITSUKESHINDEN","perfecture_jp":"茨城県","jp_add_1":"北相馬郡利根町","jp_add_2":"押付新田"},"3001602":{"post_code":"3001602","prefecture":"IBARAKI KEN","city":"KITASOMA GUN TONE MACHI","town":"OSHIDO","perfecture_jp":"茨城県","jp_add_1":"北相馬郡利根町","jp_add_2":"押戸"},"3001612":{"post_code":"3001612","prefecture":"IBARAKI KEN","city":"KITASOMA GUN TONE MACHI","town":"KANOSHINDEN","perfecture_jp":"茨城県","jp_add_1":"北相馬郡利根町","jp_add_2":"加納新田"},"3001635":{"post_code":"3001635","prefecture":"IBARAKI KEN","city":"KITASOMA GUN TONE MACHI","town":"KAMIZONE","perfecture_jp":"茨城県","jp_add_1":"北相馬郡利根町","jp_add_2":"上曽根"},"3001626":{"post_code":"3001626","prefecture":"IBARAKI KEN","city":"KITASOMA GUN TONE MACHI","town":"SHIKINOKA","perfecture_jp":"茨城県","jp_add_1":"北相馬郡利根町","jp_add_2":"四季の丘"},"3001633":{"post_code":"3001633","prefecture":"IBARAKI KEN","city":"KITASOMA GUN TONE MACHI","town":"SHIMOI","perfecture_jp":"茨城県","jp_add_1":"北相馬郡利根町","jp_add_2":"下井"},"3001632":{"post_code":"3001632","prefecture":"IBARAKI KEN","city":"KITASOMA GUN TONE MACHI","town":"SHIMOZONE","perfecture_jp":"茨城県","jp_add_1":"北相馬郡利根町","jp_add_2":"下曽根"},"3001611":{"post_code":"3001611","prefecture":"IBARAKI KEN","city":"KITASOMA GUN TONE MACHI","town":"SOSHINDEN","perfecture_jp":"茨城県","jp_add_1":"北相馬郡利根町","jp_add_2":"惣新田"},"3001605":{"post_code":"3001605","prefecture":"IBARAKI KEN","city":"KITASOMA GUN TONE MACHI","town":"DAIHEI","perfecture_jp":"茨城県","jp_add_1":"北相馬郡利根町","jp_add_2":"大平"},"3001601":{"post_code":"3001601","prefecture":"IBARAKI KEN","city":"KITASOMA GUN TONE MACHI","town":"DAIBO","perfecture_jp":"茨城県","jp_add_1":"北相馬郡利根町","jp_add_2":"大房"},"3001616":{"post_code":"3001616","prefecture":"IBARAKI KEN","city":"KITASOMA GUN TONE MACHI","town":"TATSUGI","perfecture_jp":"茨城県","jp_add_1":"北相馬郡利根町","jp_add_2":"立木"},"3001614":{"post_code":"3001614","prefecture":"IBARAKI KEN","city":"KITASOMA GUN TONE MACHI","town":"TATSUZAKI","perfecture_jp":"茨城県","jp_add_1":"北相馬郡利根町","jp_add_2":"立崎"},"3001624":{"post_code":"3001624","prefecture":"IBARAKI KEN","city":"KITASOMA GUN TONE MACHI","town":"NAKATAGIRI","perfecture_jp":"茨城県","jp_add_1":"北相馬郡利根町","jp_add_2":"中田切"},"3001615":{"post_code":"3001615","prefecture":"IBARAKI KEN","city":"KITASOMA GUN TONE MACHI","town":"NAKAYA","perfecture_jp":"茨城県","jp_add_1":"北相馬郡利根町","jp_add_2":"中谷"},"3001623":{"post_code":"3001623","prefecture":"IBARAKI KEN","city":"KITASOMA GUN TONE MACHI","town":"HACHIMANDAI","perfecture_jp":"茨城県","jp_add_1":"北相馬郡利根町","jp_add_2":"八幡台"},"3001625":{"post_code":"3001625","prefecture":"IBARAKI KEN","city":"KITASOMA GUN TONE MACHI","town":"HANAKA","perfecture_jp":"茨城県","jp_add_1":"北相馬郡利根町","jp_add_2":"羽中"},"3001636":{"post_code":"3001636","prefecture":"IBARAKI KEN","city":"KITASOMA GUN TONE MACHI","town":"HANENO","perfecture_jp":"茨城県","jp_add_1":"北相馬郡利根町","jp_add_2":"羽根野"},"3001631":{"post_code":"3001631","prefecture":"IBARAKI KEN","city":"KITASOMA GUN TONE MACHI","town":"HAYAO","perfecture_jp":"茨城県","jp_add_1":"北相馬郡利根町","jp_add_2":"早尾"},"3001613":{"post_code":"3001613","prefecture":"IBARAKI KEN","city":"KITASOMA GUN TONE MACHI","town":"HIGASHIOKUYAMASHINDEN","perfecture_jp":"茨城県","jp_add_1":"北相馬郡利根町","jp_add_2":"東奥山新田"},"3001622":{"post_code":"3001622","prefecture":"IBARAKI KEN","city":"KITASOMA GUN TONE MACHI","town":"FUKAWA","perfecture_jp":"茨城県","jp_add_1":"北相馬郡利根町","jp_add_2":"布川"},"3001621":{"post_code":"3001621","prefecture":"IBARAKI KEN","city":"KITASOMA GUN TONE MACHI","town":"FUKUNOKI","perfecture_jp":"茨城県","jp_add_1":"北相馬郡利根町","jp_add_2":"福木"},"3001606":{"post_code":"3001606","prefecture":"IBARAKI KEN","city":"KITASOMA GUN TONE MACHI","town":"MOEGINODAI","perfecture_jp":"茨城県","jp_add_1":"北相馬郡利根町","jp_add_2":"もえぎ野台"},"3001604":{"post_code":"3001604","prefecture":"IBARAKI KEN","city":"KITASOMA GUN TONE MACHI","town":"YOKOSUKA","perfecture_jp":"茨城県","jp_add_1":"北相馬郡利根町","jp_add_2":"横須賀"}}