{"3020000":{"post_code":"3020000","prefecture":"IBARAKI KEN","city":"TORIDE SHI","town":"IKANIKEISAIGANAIBAAI","perfecture_jp":"茨城県","jp_add_1":"取手市","jp_add_2":""},"3020006":{"post_code":"3020006","prefecture":"IBARAKI KEN","city":"TORIDE SHI","town":"AOYANAGI","perfecture_jp":"茨城県","jp_add_1":"取手市","jp_add_2":"青柳"},"3020037":{"post_code":"3020037","prefecture":"IBARAKI KEN","city":"TORIDE SHI","town":"ICHINODAI","perfecture_jp":"茨城県","jp_add_1":"取手市","jp_add_2":"市之代"},"3020026":{"post_code":"3020026","prefecture":"IBARAKI KEN","city":"TORIDE SHI","town":"INA","perfecture_jp":"茨城県","jp_add_1":"取手市","jp_add_2":"稲"},"3020011":{"post_code":"3020011","prefecture":"IBARAKI KEN","city":"TORIDE SHI","town":"INO","perfecture_jp":"茨城県","jp_add_1":"取手市","jp_add_2":"井野"},"3020015":{"post_code":"3020015","prefecture":"IBARAKI KEN","city":"TORIDE SHI","town":"INODAI","perfecture_jp":"茨城県","jp_add_1":"取手市","jp_add_2":"井野台"},"3020012":{"post_code":"3020012","prefecture":"IBARAKI KEN","city":"TORIDE SHI","town":"INODANCHI","perfecture_jp":"茨城県","jp_add_1":"取手市","jp_add_2":"井野団地"},"3020003":{"post_code":"3020003","prefecture":"IBARAKI KEN","city":"TORIDE SHI","town":"OHORI","perfecture_jp":"茨城県","jp_add_1":"取手市","jp_add_2":"小堀"},"3020001":{"post_code":"3020001","prefecture":"IBARAKI KEN","city":"TORIDE SHI","town":"OMOMMA","perfecture_jp":"茨城県","jp_add_1":"取手市","jp_add_2":"小文間"},"3020036":{"post_code":"3020036","prefecture":"IBARAKI KEN","city":"TORIDE SHI","town":"KAIZUKA","perfecture_jp":"茨城県","jp_add_1":"取手市","jp_add_2":"貝塚"},"3020035":{"post_code":"3020035","prefecture":"IBARAKI KEN","city":"TORIDE SHI","town":"KAMITAKAI","perfecture_jp":"茨城県","jp_add_1":"取手市","jp_add_2":"上高井"},"3020017":{"post_code":"3020017","prefecture":"IBARAKI KEN","city":"TORIDE SHI","town":"KUWABARA","perfecture_jp":"茨城県","jp_add_1":"取手市","jp_add_2":"桑原"},"3020027":{"post_code":"3020027","prefecture":"IBARAKI KEN","city":"TORIDE SHI","town":"KOMABA","perfecture_jp":"茨城県","jp_add_1":"取手市","jp_add_2":"駒場"},"3020033":{"post_code":"3020033","prefecture":"IBARAKI KEN","city":"TORIDE SHI","town":"KOMENOI","perfecture_jp":"茨城県","jp_add_1":"取手市","jp_add_2":"米ノ井"},"3020038":{"post_code":"3020038","prefecture":"IBARAKI KEN","city":"TORIDE SHI","town":"SHIMOTAKAI","perfecture_jp":"茨城県","jp_add_1":"取手市","jp_add_2":"下高井"},"3020031":{"post_code":"3020031","prefecture":"IBARAKI KEN","city":"TORIDE SHI","town":"SHINTORIDE","perfecture_jp":"茨城県","jp_add_1":"取手市","jp_add_2":"新取手"},"3020024":{"post_code":"3020024","prefecture":"IBARAKI KEN","city":"TORIDE SHI","town":"SHIMMACHI","perfecture_jp":"茨城県","jp_add_1":"取手市","jp_add_2":"新町"},"3020013":{"post_code":"3020013","prefecture":"IBARAKI KEN","city":"TORIDE SHI","town":"DAISHUKU","perfecture_jp":"茨城県","jp_add_1":"取手市","jp_add_2":"台宿"},"3020014":{"post_code":"3020014","prefecture":"IBARAKI KEN","city":"TORIDE SHI","town":"CHUOCHO","perfecture_jp":"茨城県","jp_add_1":"取手市","jp_add_2":"中央町"},"3020002":{"post_code":"3020002","prefecture":"IBARAKI KEN","city":"TORIDE SHI","town":"CHOBEESHINDEN","perfecture_jp":"茨城県","jp_add_1":"取手市","jp_add_2":"長兵衛新田"},"3020021":{"post_code":"3020021","prefecture":"IBARAKI KEN","city":"TORIDE SHI","town":"TERADA","perfecture_jp":"茨城県","jp_add_1":"取手市","jp_add_2":"寺田"},"3020034":{"post_code":"3020034","prefecture":"IBARAKI KEN","city":"TORIDE SHI","town":"TOGASHIRA","perfecture_jp":"茨城県","jp_add_1":"取手市","jp_add_2":"戸頭"},"3020004":{"post_code":"3020004","prefecture":"IBARAKI KEN","city":"TORIDE SHI","town":"TORIDE","perfecture_jp":"茨城県","jp_add_1":"取手市","jp_add_2":"取手"},"3020016":{"post_code":"3020016","prefecture":"IBARAKI KEN","city":"TORIDE SHI","town":"NAKAHARACHO","perfecture_jp":"茨城県","jp_add_1":"取手市","jp_add_2":"中原町"},"3020025":{"post_code":"3020025","prefecture":"IBARAKI KEN","city":"TORIDE SHI","town":"NISHI","perfecture_jp":"茨城県","jp_add_1":"取手市","jp_add_2":"西"},"3020032":{"post_code":"3020032","prefecture":"IBARAKI KEN","city":"TORIDE SHI","town":"NONOI","perfecture_jp":"茨城県","jp_add_1":"取手市","jp_add_2":"野々井"},"3020023":{"post_code":"3020023","prefecture":"IBARAKI KEN","city":"TORIDE SHI","town":"HAKUSAN","perfecture_jp":"茨城県","jp_add_1":"取手市","jp_add_2":"白山"},"3020005":{"post_code":"3020005","prefecture":"IBARAKI KEN","city":"TORIDE SHI","town":"HIGASHI","perfecture_jp":"茨城県","jp_add_1":"取手市","jp_add_2":"東"},"3020022":{"post_code":"3020022","prefecture":"IBARAKI KEN","city":"TORIDE SHI","town":"HONGO","perfecture_jp":"茨城県","jp_add_1":"取手市","jp_add_2":"本郷"},"3020039":{"post_code":"3020039","prefecture":"IBARAKI KEN","city":"TORIDE SHI","town":"YUMEMINO","perfecture_jp":"茨城県","jp_add_1":"取手市","jp_add_2":"ゆめみ野"},"3020007":{"post_code":"3020007","prefecture":"IBARAKI KEN","city":"TORIDE SHI","town":"YOSHIDA","perfecture_jp":"茨城県","jp_add_1":"取手市","jp_add_2":"吉田"},"3020100":{"post_code":"3020100","prefecture":"IBARAKI KEN","city":"MORIYA SHI","town":"IKANIKEISAIGANAIBAAI","perfecture_jp":"茨城県","jp_add_1":"守谷市","jp_add_2":""},"3020111":{"post_code":"3020111","prefecture":"IBARAKI KEN","city":"MORIYA SHI","town":"AKABOTSUKE","perfecture_jp":"茨城県","jp_add_1":"守谷市","jp_add_2":"赤法花"},"3020101":{"post_code":"3020101","prefecture":"IBARAKI KEN","city":"MORIYA SHI","town":"ITATOI","perfecture_jp":"茨城県","jp_add_1":"守谷市","jp_add_2":"板戸井"},"3020116":{"post_code":"3020116","prefecture":"IBARAKI KEN","city":"MORIYA SHI","town":"OGASHIWA","perfecture_jp":"茨城県","jp_add_1":"守谷市","jp_add_2":"大柏"},"3020107":{"post_code":"3020107","prefecture":"IBARAKI KEN","city":"MORIYA SHI","town":"OKI","perfecture_jp":"茨城県","jp_add_1":"守谷市","jp_add_2":"大木"},"3020103":{"post_code":"3020103","prefecture":"IBARAKI KEN","city":"MORIYA SHI","town":"OYAMASHINDEN","perfecture_jp":"茨城県","jp_add_1":"守谷市","jp_add_2":"大山新田"},"3020123":{"post_code":"3020123","prefecture":"IBARAKI KEN","city":"MORIYA SHI","town":"OTOGO","perfecture_jp":"茨城県","jp_add_1":"守谷市","jp_add_2":"乙子"},"3020104":{"post_code":"3020104","prefecture":"IBARAKI KEN","city":"MORIYA SHI","town":"KUBOGAOKA","perfecture_jp":"茨城県","jp_add_1":"守谷市","jp_add_2":"久保ケ丘"},"3020128":{"post_code":"3020128","prefecture":"IBARAKI KEN","city":"MORIYA SHI","town":"KEYAKIDAI","perfecture_jp":"茨城県","jp_add_1":"守谷市","jp_add_2":"けやき台"},"3020125":{"post_code":"3020125","prefecture":"IBARAKI KEN","city":"MORIYA SHI","town":"KOYA","perfecture_jp":"茨城県","jp_add_1":"守谷市","jp_add_2":"高野"},"3020119":{"post_code":"3020119","prefecture":"IBARAKI KEN","city":"MORIYA SHI","town":"GOSHOGAOKA","perfecture_jp":"茨城県","jp_add_1":"守谷市","jp_add_2":"御所ケ丘"},"3020122":{"post_code":"3020122","prefecture":"IBARAKI KEN","city":"MORIYA SHI","town":"KOYAMA","perfecture_jp":"茨城県","jp_add_1":"守谷市","jp_add_2":"小山"},"3020126":{"post_code":"3020126","prefecture":"IBARAKI KEN","city":"MORIYA SHI","town":"SUZUTSUKA","perfecture_jp":"茨城県","jp_add_1":"守谷市","jp_add_2":"鈴塚"},"3020118":{"post_code":"3020118","prefecture":"IBARAKI KEN","city":"MORIYA SHI","town":"TATSUZAWA","perfecture_jp":"茨城県","jp_add_1":"守谷市","jp_add_2":"立沢"},"3020115":{"post_code":"3020115","prefecture":"IBARAKI KEN","city":"MORIYA SHI","town":"CHUO","perfecture_jp":"茨城県","jp_add_1":"守谷市","jp_add_2":"中央"},"3020112":{"post_code":"3020112","prefecture":"IBARAKI KEN","city":"MORIYA SHI","town":"DOCHI","perfecture_jp":"茨城県","jp_add_1":"守谷市","jp_add_2":"同地"},"3020117":{"post_code":"3020117","prefecture":"IBARAKI KEN","city":"MORIYA SHI","town":"NOGISAKI","perfecture_jp":"茨城県","jp_add_1":"守谷市","jp_add_2":"野木崎"},"3020131":{"post_code":"3020131","prefecture":"IBARAKI KEN","city":"MORIYA SHI","town":"HIGASHINO","perfecture_jp":"茨城県","jp_add_1":"守谷市","jp_add_2":"ひがし野"},"3020109":{"post_code":"3020109","prefecture":"IBARAKI KEN","city":"MORIYA SHI","town":"HONCHO","perfecture_jp":"茨城県","jp_add_1":"守谷市","jp_add_2":"本町"},"3020127":{"post_code":"3020127","prefecture":"IBARAKI KEN","city":"MORIYA SHI","town":"MATSUGAOKA","perfecture_jp":"茨城県","jp_add_1":"守谷市","jp_add_2":"松ケ丘"},"3020108":{"post_code":"3020108","prefecture":"IBARAKI KEN","city":"MORIYA SHI","town":"MATSUNAMI","perfecture_jp":"茨城県","jp_add_1":"守谷市","jp_add_2":"松並"},"3020102":{"post_code":"3020102","prefecture":"IBARAKI KEN","city":"MORIYA SHI","town":"MATSUMAEDAI","perfecture_jp":"茨城県","jp_add_1":"守谷市","jp_add_2":"松前台"},"3020121":{"post_code":"3020121","prefecture":"IBARAKI KEN","city":"MORIYA SHI","town":"MIZUKINO","perfecture_jp":"茨城県","jp_add_1":"守谷市","jp_add_2":"みずき野"},"3020124":{"post_code":"3020124","prefecture":"IBARAKI KEN","city":"MORIYA SHI","town":"MISONO","perfecture_jp":"茨城県","jp_add_1":"守谷市","jp_add_2":"美園"},"3020106":{"post_code":"3020106","prefecture":"IBARAKI KEN","city":"MORIYA SHI","town":"MIDORI","perfecture_jp":"茨城県","jp_add_1":"守谷市","jp_add_2":"緑"},"3020105":{"post_code":"3020105","prefecture":"IBARAKI KEN","city":"MORIYA SHI","town":"YAKUSHIDAI","perfecture_jp":"茨城県","jp_add_1":"守谷市","jp_add_2":"薬師台"},"3020110":{"post_code":"3020110","prefecture":"IBARAKI KEN","city":"MORIYA SHI","town":"YURIGAOKA","perfecture_jp":"茨城県","jp_add_1":"守谷市","jp_add_2":"百合ケ丘"}}