{"3050000":{"post_code":"3050000","prefecture":"IBARAKI KEN","city":"TSUKUBA SHI","town":"IKANIKEISAIGANAIBAAI","perfecture_jp":"茨城県","jp_add_1":"つくば市","jp_add_2":""},"3050062":{"post_code":"3050062","prefecture":"IBARAKI KEN","city":"TSUKUBA SHI","town":"AKATSUKA","perfecture_jp":"茨城県","jp_add_1":"つくば市","jp_add_2":"赤塚"},"3050804":{"post_code":"3050804","prefecture":"IBARAKI KEN","city":"TSUKUBA SHI","town":"ASAHI(1)","perfecture_jp":"茨城県","jp_add_1":"つくば市","jp_add_2":"旭"},"3050031":{"post_code":"3050031","prefecture":"IBARAKI KEN","city":"TSUKUBA SHI","town":"AZUMA","perfecture_jp":"茨城県","jp_add_1":"つくば市","jp_add_2":"吾妻"},"3050005":{"post_code":"3050005","prefecture":"IBARAKI KEN","city":"TSUKUBA SHI","town":"AMAKUBO","perfecture_jp":"茨城県","jp_add_1":"つくば市","jp_add_2":"天久保"},"3050835":{"post_code":"3050835","prefecture":"IBARAKI KEN","city":"TSUKUBA SHI","town":"ARAI","perfecture_jp":"茨城県","jp_add_1":"つくば市","jp_add_2":"新井"},"3050076":{"post_code":"3050076","prefecture":"IBARAKI KEN","city":"TSUKUBA SHI","town":"ARAMAKIDA","perfecture_jp":"茨城県","jp_add_1":"つくば市","jp_add_2":"新牧田"},"3050874":{"post_code":"3050874","prefecture":"IBARAKI KEN","city":"TSUKUBA SHI","town":"IIDA","perfecture_jp":"茨城県","jp_add_1":"つくば市","jp_add_2":"飯田"},"3050901":{"post_code":"3050901","prefecture":"IBARAKI KEN","city":"TSUKUBA SHI","town":"IKENODAI(2)","perfecture_jp":"茨城県","jp_add_1":"つくば市","jp_add_2":"池の台"},"3050073":{"post_code":"3050073","prefecture":"IBARAKI KEN","city":"TSUKUBA SHI","town":"ICHINODAI","perfecture_jp":"茨城県","jp_add_1":"つくば市","jp_add_2":"市之台"},"3050071":{"post_code":"3050071","prefecture":"IBARAKI KEN","city":"TSUKUBA SHI","town":"INAOKA","perfecture_jp":"茨城県","jp_add_1":"つくば市","jp_add_2":"稲岡"},"3050061":{"post_code":"3050061","prefecture":"IBARAKI KEN","city":"TSUKUBA SHI","town":"INARIMAE","perfecture_jp":"茨城県","jp_add_1":"つくば市","jp_add_2":"稲荷前"},"3050855":{"post_code":"3050855","prefecture":"IBARAKI KEN","city":"TSUKUBA SHI","town":"IMAIZUMI","perfecture_jp":"茨城県","jp_add_1":"つくば市","jp_add_2":"今泉"},"3050002":{"post_code":"3050002","prefecture":"IBARAKI KEN","city":"TSUKUBA SHI","town":"UENO","perfecture_jp":"茨城県","jp_add_1":"つくば市","jp_add_2":"上野"},"3050023":{"post_code":"3050023","prefecture":"IBARAKI KEN","city":"TSUKUBA SHI","town":"UENOMURO","perfecture_jp":"茨城県","jp_add_1":"つくば市","jp_add_2":"上ノ室"},"3050045":{"post_code":"3050045","prefecture":"IBARAKI KEN","city":"TSUKUBA SHI","town":"UMEZONO","perfecture_jp":"茨城県","jp_add_1":"つくば市","jp_add_2":"梅園"},"3050853":{"post_code":"3050853","prefecture":"IBARAKI KEN","city":"TSUKUBA SHI","town":"ENOKIDO","perfecture_jp":"茨城県","jp_add_1":"つくば市","jp_add_2":"榎戸"},"3050016":{"post_code":"3050016","prefecture":"IBARAKI KEN","city":"TSUKUBA SHI","town":"O","perfecture_jp":"茨城県","jp_add_1":"つくば市","jp_add_2":"大"},"3050845":{"post_code":"3050845","prefecture":"IBARAKI KEN","city":"TSUKUBA SHI","town":"OJIRAHAZAMA","perfecture_jp":"茨城県","jp_add_1":"つくば市","jp_add_2":"大白硲"},"3050801":{"post_code":"3050801","prefecture":"IBARAKI KEN","city":"TSUKUBA SHI","town":"OHO(1-1)","perfecture_jp":"茨城県","jp_add_1":"つくば市","jp_add_2":"大穂"},"3050851":{"post_code":"3050851","prefecture":"IBARAKI KEN","city":"TSUKUBA SHI","town":"OWASHI","perfecture_jp":"茨城県","jp_add_1":"つくば市","jp_add_2":"大わし"},"3050026":{"post_code":"3050026","prefecture":"IBARAKI KEN","city":"TSUKUBA SHI","town":"OKAMURASHINDEN","perfecture_jp":"茨城県","jp_add_1":"つくば市","jp_add_2":"岡村新田"},"3050053":{"post_code":"3050053","prefecture":"IBARAKI KEN","city":"TSUKUBA SHI","town":"ONOGAWA","perfecture_jp":"茨城県","jp_add_1":"つくば市","jp_add_2":"小野川"},"3050034":{"post_code":"3050034","prefecture":"IBARAKI KEN","city":"TSUKUBA SHI","town":"ONOZAKI","perfecture_jp":"茨城県","jp_add_1":"つくば市","jp_add_2":"小野崎"},"3050816":{"post_code":"3050816","prefecture":"IBARAKI KEN","city":"TSUKUBA SHI","town":"GAKUENNOMORI","perfecture_jp":"茨城県","jp_add_1":"つくば市","jp_add_2":"学園の森"},"3050818":{"post_code":"3050818","prefecture":"IBARAKI KEN","city":"TSUKUBA SHI","town":"GAKUEMMINAMI","perfecture_jp":"茨城県","jp_add_1":"つくば市","jp_add_2":"学園南"},"3050064":{"post_code":"3050064","prefecture":"IBARAKI KEN","city":"TSUKUBA SHI","town":"KAJIUCHI","perfecture_jp":"茨城県","jp_add_1":"つくば市","jp_add_2":"梶内"},"3050821":{"post_code":"3050821","prefecture":"IBARAKI KEN","city":"TSUKUBA SHI","town":"KASUGA","perfecture_jp":"茨城県","jp_add_1":"つくば市","jp_add_2":"春日"},"3050877":{"post_code":"3050877","prefecture":"IBARAKI KEN","city":"TSUKUBA SHI","town":"KATADA","perfecture_jp":"茨城県","jp_add_1":"つくば市","jp_add_2":"片田"},"3050824":{"post_code":"3050824","prefecture":"IBARAKI KEN","city":"TSUKUBA SHI","town":"KATSURAGINESAKI","perfecture_jp":"茨城県","jp_add_1":"つくば市","jp_add_2":"葛城根崎"},"3050871":{"post_code":"3050871","prefecture":"IBARAKI KEN","city":"TSUKUBA SHI","town":"KAMIKAYAMARU","perfecture_jp":"茨城県","jp_add_1":"つくば市","jp_add_2":"上萱丸"},"3050011":{"post_code":"3050011","prefecture":"IBARAKI KEN","city":"TSUKUBA SHI","town":"KAMIZAKAI","perfecture_jp":"茨城県","jp_add_1":"つくば市","jp_add_2":"上境"},"3050055":{"post_code":"3050055","prefecture":"IBARAKI KEN","city":"TSUKUBA SHI","town":"KAMIHARA","perfecture_jp":"茨城県","jp_add_1":"つくば市","jp_add_2":"上原"},"3050041":{"post_code":"3050041","prefecture":"IBARAKI KEN","city":"TSUKUBA SHI","town":"KAMIHIROKA","perfecture_jp":"茨城県","jp_add_1":"つくば市","jp_add_2":"上広岡"},"3050854":{"post_code":"3050854","prefecture":"IBARAKI KEN","city":"TSUKUBA SHI","town":"KAMIYOKOBA","perfecture_jp":"茨城県","jp_add_1":"つくば市","jp_add_2":"上横場"},"3050822":{"post_code":"3050822","prefecture":"IBARAKI KEN","city":"TSUKUBA SHI","town":"KARIMA","perfecture_jp":"茨城県","jp_add_1":"つくば市","jp_add_2":"苅間"},"3050856":{"post_code":"3050856","prefecture":"IBARAKI KEN","city":"TSUKUBA SHI","town":"KANNONDAI","perfecture_jp":"茨城県","jp_add_1":"つくば市","jp_add_2":"観音台"},"3050022":{"post_code":"3050022","prefecture":"IBARAKI KEN","city":"TSUKUBA SHI","town":"KISE","perfecture_jp":"茨城県","jp_add_1":"つくば市","jp_add_2":"吉瀬"},"3050811":{"post_code":"3050811","prefecture":"IBARAKI KEN","city":"TSUKUBA SHI","town":"KITASATO","perfecture_jp":"茨城県","jp_add_1":"つくば市","jp_add_2":"北郷"},"3050072":{"post_code":"3050072","prefecture":"IBARAKI KEN","city":"TSUKUBA SHI","town":"KITANAKAJIMA","perfecture_jp":"茨城県","jp_add_1":"つくば市","jp_add_2":"北中島"},"3050066":{"post_code":"3050066","prefecture":"IBARAKI KEN","city":"TSUKUBA SHI","town":"KITANAKAZUMA","perfecture_jp":"茨城県","jp_add_1":"つくば市","jp_add_2":"北中妻"},"3050024":{"post_code":"3050024","prefecture":"IBARAKI KEN","city":"TSUKUBA SHI","town":"KURAKAKE","perfecture_jp":"茨城県","jp_add_1":"つくば市","jp_add_2":"倉掛"},"3050001":{"post_code":"3050001","prefecture":"IBARAKI KEN","city":"TSUKUBA SHI","town":"KURIHARA","perfecture_jp":"茨城県","jp_add_1":"つくば市","jp_add_2":"栗原"},"3050817":{"post_code":"3050817","prefecture":"IBARAKI KEN","city":"TSUKUBA SHI","town":"KENKYUGAKUEN","perfecture_jp":"茨城県","jp_add_1":"つくば市","jp_add_2":"研究学園"},"3050074":{"post_code":"3050074","prefecture":"IBARAKI KEN","city":"TSUKUBA SHI","town":"KOYADAI","perfecture_jp":"茨城県","jp_add_1":"つくば市","jp_add_2":"高野台"},"3050844":{"post_code":"3050844","prefecture":"IBARAKI KEN","city":"TSUKUBA SHI","town":"KOJIRAHAZAMA","perfecture_jp":"茨城県","jp_add_1":"つくば市","jp_add_2":"小白硲"},"3050018":{"post_code":"3050018","prefecture":"IBARAKI KEN","city":"TSUKUBA SHI","town":"KONDA","perfecture_jp":"茨城県","jp_add_1":"つくば市","jp_add_2":"金田"},"3050028":{"post_code":"3050028","prefecture":"IBARAKI KEN","city":"TSUKUBA SHI","town":"SAIKI","perfecture_jp":"茨城県","jp_add_1":"つくば市","jp_add_2":"妻木"},"3050036":{"post_code":"3050036","prefecture":"IBARAKI KEN","city":"TSUKUBA SHI","town":"SAIGO","perfecture_jp":"茨城県","jp_add_1":"つくば市","jp_add_2":"西郷"},"3050867":{"post_code":"3050867","prefecture":"IBARAKI KEN","city":"TSUKUBA SHI","town":"SAKAIDA","perfecture_jp":"茨城県","jp_add_1":"つくば市","jp_add_2":"境田"},"3050864":{"post_code":"3050864","prefecture":"IBARAKI KEN","city":"TSUKUBA SHI","town":"SAKAIMATSU","perfecture_jp":"茨城県","jp_add_1":"つくば市","jp_add_2":"境松"},"3050013":{"post_code":"3050013","prefecture":"IBARAKI KEN","city":"TSUKUBA SHI","town":"SAKAE","perfecture_jp":"茨城県","jp_add_1":"つくば市","jp_add_2":"栄"},"3050003":{"post_code":"3050003","prefecture":"IBARAKI KEN","city":"TSUKUBA SHI","town":"SAKURA","perfecture_jp":"茨城県","jp_add_1":"つくば市","jp_add_2":"桜"},"3050019":{"post_code":"3050019","prefecture":"IBARAKI KEN","city":"TSUKUBA SHI","town":"SAKURANOMORI","perfecture_jp":"茨城県","jp_add_1":"つくば市","jp_add_2":"さくらの森"},"3050043":{"post_code":"3050043","prefecture":"IBARAKI KEN","city":"TSUKUBA SHI","town":"SASAGI","perfecture_jp":"茨城県","jp_add_1":"つくば市","jp_add_2":"大角豆"},"3050004":{"post_code":"3050004","prefecture":"IBARAKI KEN","city":"TSUKUBA SHI","town":"SHIBASAKI","perfecture_jp":"茨城県","jp_add_1":"つくば市","jp_add_2":"柴崎"},"3050833":{"post_code":"3050833","prefecture":"IBARAKI KEN","city":"TSUKUBA SHI","town":"SHIMA","perfecture_jp":"茨城県","jp_add_1":"つくば市","jp_add_2":"島"},"3050872":{"post_code":"3050872","prefecture":"IBARAKI KEN","city":"TSUKUBA SHI","town":"SHIMOKAYAMARU","perfecture_jp":"茨城県","jp_add_1":"つくば市","jp_add_2":"下萱丸"},"3050063":{"post_code":"3050063","prefecture":"IBARAKI KEN","city":"TSUKUBA SHI","town":"SHIMOHARA","perfecture_jp":"茨城県","jp_add_1":"つくば市","jp_add_2":"下原"},"3050813":{"post_code":"3050813","prefecture":"IBARAKI KEN","city":"TSUKUBA SHI","town":"SHIMOHIRATSUKA","perfecture_jp":"茨城県","jp_add_1":"つくば市","jp_add_2":"下平塚"},"3050042":{"post_code":"3050042","prefecture":"IBARAKI KEN","city":"TSUKUBA SHI","town":"SHIMOHIROKA","perfecture_jp":"茨城県","jp_add_1":"つくば市","jp_add_2":"下広岡"},"3050075":{"post_code":"3050075","prefecture":"IBARAKI KEN","city":"TSUKUBA SHI","town":"SHIMOYOKOBA","perfecture_jp":"茨城県","jp_add_1":"つくば市","jp_add_2":"下横場"},"3050014":{"post_code":"3050014","prefecture":"IBARAKI KEN","city":"TSUKUBA SHI","town":"SHOEI","perfecture_jp":"茨城県","jp_add_1":"つくば市","jp_add_2":"松栄"},"3050847":{"post_code":"3050847","prefecture":"IBARAKI KEN","city":"TSUKUBA SHI","town":"JIMBA","perfecture_jp":"茨城県","jp_add_1":"つくば市","jp_add_2":"陣場"},"3050047":{"post_code":"3050047","prefecture":"IBARAKI KEN","city":"TSUKUBA SHI","town":"SENGEN","perfecture_jp":"茨城県","jp_add_1":"つくば市","jp_add_2":"千現"},"3050868":{"post_code":"3050868","prefecture":"IBARAKI KEN","city":"TSUKUBA SHI","town":"DAIMACHI","perfecture_jp":"茨城県","jp_add_1":"つくば市","jp_add_2":"台町"},"3050846":{"post_code":"3050846","prefecture":"IBARAKI KEN","city":"TSUKUBA SHI","town":"TAIRA","perfecture_jp":"茨城県","jp_add_1":"つくば市","jp_add_2":"平"},"3050077":{"post_code":"3050077","prefecture":"IBARAKI KEN","city":"TSUKUBA SHI","town":"TAKANOHARA","perfecture_jp":"茨城県","jp_add_1":"つくば市","jp_add_2":"鷹野原"},"3050032":{"post_code":"3050032","prefecture":"IBARAKI KEN","city":"TSUKUBA SHI","town":"TAKEZONO","perfecture_jp":"茨城県","jp_add_1":"つくば市","jp_add_2":"竹園"},"3050802":{"post_code":"3050802","prefecture":"IBARAKI KEN","city":"TSUKUBA SHI","town":"TACHIHARA(1.2.3)","perfecture_jp":"茨城県","jp_add_1":"つくば市","jp_add_2":"立原"},"3050067":{"post_code":"3050067","prefecture":"IBARAKI KEN","city":"TSUKUBA SHI","town":"TATENO","perfecture_jp":"茨城県","jp_add_1":"つくば市","jp_add_2":"館野"},"3050834":{"post_code":"3050834","prefecture":"IBARAKI KEN","city":"TSUKUBA SHI","town":"TESHIROGI","perfecture_jp":"茨城県","jp_add_1":"つくば市","jp_add_2":"手代木"},"3050006":{"post_code":"3050006","prefecture":"IBARAKI KEN","city":"TSUKUBA SHI","town":"TENNODAI","perfecture_jp":"茨城県","jp_add_1":"つくば市","jp_add_2":"天王台"},"3050068":{"post_code":"3050068","prefecture":"IBARAKI KEN","city":"TSUKUBA SHI","town":"NAKAUCHI","perfecture_jp":"茨城県","jp_add_1":"つくば市","jp_add_2":"中内"},"3050012":{"post_code":"3050012","prefecture":"IBARAKI KEN","city":"TSUKUBA SHI","town":"NAKANE","perfecture_jp":"茨城県","jp_add_1":"つくば市","jp_add_2":"中根"},"3050873":{"post_code":"3050873","prefecture":"IBARAKI KEN","city":"TSUKUBA SHI","town":"NAKANO","perfecture_jp":"茨城県","jp_add_1":"つくば市","jp_add_2":"中野"},"3050052":{"post_code":"3050052","prefecture":"IBARAKI KEN","city":"TSUKUBA SHI","town":"NAGAMINE","perfecture_jp":"茨城県","jp_add_1":"つくば市","jp_add_2":"長峰"},"3050044":{"post_code":"3050044","prefecture":"IBARAKI KEN","city":"TSUKUBA SHI","town":"NAMIKI","perfecture_jp":"茨城県","jp_add_1":"つくば市","jp_add_2":"並木"},"3050054":{"post_code":"3050054","prefecture":"IBARAKI KEN","city":"TSUKUBA SHI","town":"NISHIONUMA","perfecture_jp":"茨城県","jp_add_1":"つくば市","jp_add_2":"西大沼"},"3050831":{"post_code":"3050831","prefecture":"IBARAKI KEN","city":"TSUKUBA SHI","town":"NISHIOHASHI","perfecture_jp":"茨城県","jp_add_1":"つくば市","jp_add_2":"西大橋"},"3050832":{"post_code":"3050832","prefecture":"IBARAKI KEN","city":"TSUKUBA SHI","town":"NISHIOKA","perfecture_jp":"茨城県","jp_add_1":"つくば市","jp_add_2":"西岡"},"3050876":{"post_code":"3050876","prefecture":"IBARAKI KEN","city":"TSUKUBA SHI","town":"NISHIKURIYAMA","perfecture_jp":"茨城県","jp_add_1":"つくば市","jp_add_2":"西栗山"},"3050902":{"post_code":"3050902","prefecture":"IBARAKI KEN","city":"TSUKUBA SHI","town":"NISHINOSAWA(CHIKUSANSHIKENJOBOJO)","perfecture_jp":"茨城県","jp_add_1":"つくば市","jp_add_2":"西の沢"},"3050815":{"post_code":"3050815","prefecture":"IBARAKI KEN","city":"TSUKUBA SHI","town":"NISHIHARA","perfecture_jp":"茨城県","jp_add_1":"つくば市","jp_add_2":"西原"},"3050814":{"post_code":"3050814","prefecture":"IBARAKI KEN","city":"TSUKUBA SHI","town":"NISHIHIRATSUKA","perfecture_jp":"茨城県","jp_add_1":"つくば市","jp_add_2":"西平塚"},"3050051":{"post_code":"3050051","prefecture":"IBARAKI KEN","city":"TSUKUBA SHI","town":"NINOMIYA","perfecture_jp":"茨城県","jp_add_1":"つくば市","jp_add_2":"二の宮"},"3050865":{"post_code":"3050865","prefecture":"IBARAKI KEN","city":"TSUKUBA SHI","town":"NESAKI","perfecture_jp":"茨城県","jp_add_1":"つくば市","jp_add_2":"根崎"},"3050843":{"post_code":"3050843","prefecture":"IBARAKI KEN","city":"TSUKUBA SHI","town":"HACHIMANDAI","perfecture_jp":"茨城県","jp_add_1":"つくば市","jp_add_2":"八幡台"},"3050875":{"post_code":"3050875","prefecture":"IBARAKI KEN","city":"TSUKUBA SHI","town":"HANASHIMASHINDEN","perfecture_jp":"茨城県","jp_add_1":"つくば市","jp_add_2":"花島新田"},"3050029":{"post_code":"3050029","prefecture":"IBARAKI KEN","city":"TSUKUBA SHI","town":"HANAZONO","perfecture_jp":"茨城県","jp_add_1":"つくば市","jp_add_2":"花園"},"3050805":{"post_code":"3050805","prefecture":"IBARAKI KEN","city":"TSUKUBA SHI","town":"HANABATAKE(1-7-1)","perfecture_jp":"茨城県","jp_add_1":"つくば市","jp_add_2":"花畑"},"3050025":{"post_code":"3050025","prefecture":"IBARAKI KEN","city":"TSUKUBA SHI","town":"HANAMURO","perfecture_jp":"茨城県","jp_add_1":"つくば市","jp_add_2":"花室"},"3050857":{"post_code":"3050857","prefecture":"IBARAKI KEN","city":"TSUKUBA SHI","town":"HANARE","perfecture_jp":"茨城県","jp_add_1":"つくば市","jp_add_2":"羽成"},"3050823":{"post_code":"3050823","prefecture":"IBARAKI KEN","city":"TSUKUBA SHI","town":"HARA","perfecture_jp":"茨城県","jp_add_1":"つくば市","jp_add_2":"原"},"3050007":{"post_code":"3050007","prefecture":"IBARAKI KEN","city":"TSUKUBA SHI","town":"HARUKAZEDAI","perfecture_jp":"茨城県","jp_add_1":"つくば市","jp_add_2":"春風台"},"3050046":{"post_code":"3050046","prefecture":"IBARAKI KEN","city":"TSUKUBA SHI","town":"HIGASHI","perfecture_jp":"茨城県","jp_add_1":"つくば市","jp_add_2":"東"},"3050033":{"post_code":"3050033","prefecture":"IBARAKI KEN","city":"TSUKUBA SHI","town":"HIGASHIARAI","perfecture_jp":"茨城県","jp_add_1":"つくば市","jp_add_2":"東新井"},"3050027":{"post_code":"3050027","prefecture":"IBARAKI KEN","city":"TSUKUBA SHI","town":"HIGASHIOKA","perfecture_jp":"茨城県","jp_add_1":"つくば市","jp_add_2":"東岡"},"3050812":{"post_code":"3050812","prefecture":"IBARAKI KEN","city":"TSUKUBA SHI","town":"HIGASHIHIRATSUKA","perfecture_jp":"茨城県","jp_add_1":"つくば市","jp_add_2":"東平塚"},"3050862":{"post_code":"3050862","prefecture":"IBARAKI KEN","city":"TSUKUBA SHI","town":"HIGASHIMARUYAMA","perfecture_jp":"茨城県","jp_add_1":"つくば市","jp_add_2":"東丸山"},"3050852":{"post_code":"3050852","prefecture":"IBARAKI KEN","city":"TSUKUBA SHI","town":"FUJIMOTO","perfecture_jp":"茨城県","jp_add_1":"つくば市","jp_add_2":"藤本"},"3050021":{"post_code":"3050021","prefecture":"IBARAKI KEN","city":"TSUKUBA SHI","town":"FURUKU","perfecture_jp":"茨城県","jp_add_1":"つくば市","jp_add_2":"古来"},"3050866":{"post_code":"3050866","prefecture":"IBARAKI KEN","city":"TSUKUBA SHI","town":"FURUDATE","perfecture_jp":"茨城県","jp_add_1":"つくば市","jp_add_2":"古館"},"3050035":{"post_code":"3050035","prefecture":"IBARAKI KEN","city":"TSUKUBA SHI","town":"MATSUSHIRO","perfecture_jp":"茨城県","jp_add_1":"つくば市","jp_add_2":"松代"},"3050015":{"post_code":"3050015","prefecture":"IBARAKI KEN","city":"TSUKUBA SHI","town":"MATSUZUKA","perfecture_jp":"茨城県","jp_add_1":"つくば市","jp_add_2":"松塚"},"3050056":{"post_code":"3050056","prefecture":"IBARAKI KEN","city":"TSUKUBA SHI","town":"MATSUNOKI","perfecture_jp":"茨城県","jp_add_1":"つくば市","jp_add_2":"松野木"},"3050903":{"post_code":"3050903","prefecture":"IBARAKI KEN","city":"TSUKUBA SHI","town":"MATSUNOSATO(1)","perfecture_jp":"茨城県","jp_add_1":"つくば市","jp_add_2":"松の里"},"3050863":{"post_code":"3050863","prefecture":"IBARAKI KEN","city":"TSUKUBA SHI","town":"MIDORIGAOKA","perfecture_jp":"茨城県","jp_add_1":"つくば市","jp_add_2":"緑が丘"},"3050881":{"post_code":"3050881","prefecture":"IBARAKI KEN","city":"TSUKUBA SHI","town":"MIDORINO","perfecture_jp":"茨城県","jp_add_1":"つくば市","jp_add_2":"みどりの"},"3050882":{"post_code":"3050882","prefecture":"IBARAKI KEN","city":"TSUKUBA SHI","town":"MIDORINOCHUO","perfecture_jp":"茨城県","jp_add_1":"つくば市","jp_add_2":"みどりの中央"},"3050883":{"post_code":"3050883","prefecture":"IBARAKI KEN","city":"TSUKUBA SHI","town":"MIDORINOHIGASHI","perfecture_jp":"茨城県","jp_add_1":"つくば市","jp_add_2":"みどりの東"},"3050884":{"post_code":"3050884","prefecture":"IBARAKI KEN","city":"TSUKUBA SHI","town":"MIDORINOMINAMI","perfecture_jp":"茨城県","jp_add_1":"つくば市","jp_add_2":"みどりの南"},"3050065":{"post_code":"3050065","prefecture":"IBARAKI KEN","city":"TSUKUBA SHI","town":"MINAMINAKAZUMA","perfecture_jp":"茨城県","jp_add_1":"つくば市","jp_add_2":"南中妻"},"3050803":{"post_code":"3050803","prefecture":"IBARAKI KEN","city":"TSUKUBA SHI","town":"MINAMIHARA(2)","perfecture_jp":"茨城県","jp_add_1":"つくば市","jp_add_2":"南原"},"3050841":{"post_code":"3050841","prefecture":"IBARAKI KEN","city":"TSUKUBA SHI","town":"MIYUKIGAOKA","perfecture_jp":"茨城県","jp_add_1":"つくば市","jp_add_2":"御幸が丘"},"3050842":{"post_code":"3050842","prefecture":"IBARAKI KEN","city":"TSUKUBA SHI","town":"YAGIHASHI","perfecture_jp":"茨城県","jp_add_1":"つくば市","jp_add_2":"柳橋"},"3050861":{"post_code":"3050861","prefecture":"IBARAKI KEN","city":"TSUKUBA SHI","town":"YATABE","perfecture_jp":"茨城県","jp_add_1":"つくば市","jp_add_2":"谷田部"},"3050836":{"post_code":"3050836","prefecture":"IBARAKI KEN","city":"TSUKUBA SHI","town":"YAMANAKA","perfecture_jp":"茨城県","jp_add_1":"つくば市","jp_add_2":"山中"},"3050017":{"post_code":"3050017","prefecture":"IBARAKI KEN","city":"TSUKUBA SHI","town":"YOKOMACHI","perfecture_jp":"茨城県","jp_add_1":"つくば市","jp_add_2":"横町"},"3050008":{"post_code":"3050008","prefecture":"IBARAKI KEN","city":"TSUKUBA SHI","town":"RYUSEIDAI","perfecture_jp":"茨城県","jp_add_1":"つくば市","jp_add_2":"流星台"}}