{"3080000":{"post_code":"3080000","prefecture":"IBARAKI KEN","city":"CHIKUSEI SHI","town":"IKANIKEISAIGANAIBAAI","perfecture_jp":"茨城県","jp_add_1":"筑西市","jp_add_2":""},"3080836":{"post_code":"3080836","prefecture":"IBARAKI KEN","city":"CHIKUSEI SHI","town":"ASAHIGAOKA","perfecture_jp":"茨城県","jp_add_1":"筑西市","jp_add_2":"旭ケ丘"},"3080064":{"post_code":"3080064","prefecture":"IBARAKI KEN","city":"CHIKUSEI SHI","town":"IIJIMA","perfecture_jp":"茨城県","jp_add_1":"筑西市","jp_add_2":"飯島"},"3080835":{"post_code":"3080835","prefecture":"IBARAKI KEN","city":"CHIKUSEI SHI","town":"IIDA","perfecture_jp":"茨城県","jp_add_1":"筑西市","jp_add_2":"飯田"},"3080853":{"post_code":"3080853","prefecture":"IBARAKI KEN","city":"CHIKUSEI SHI","town":"ISAMI","perfecture_jp":"茨城県","jp_add_1":"筑西市","jp_add_2":"伊讃美"},"3080856":{"post_code":"3080856","prefecture":"IBARAKI KEN","city":"CHIKUSEI SHI","town":"ISAYAMA","perfecture_jp":"茨城県","jp_add_1":"筑西市","jp_add_2":"伊佐山"},"3080075":{"post_code":"3080075","prefecture":"IBARAKI KEN","city":"CHIKUSEI SHI","town":"ISHITO","perfecture_jp":"茨城県","jp_add_1":"筑西市","jp_add_2":"石塔"},"3080055":{"post_code":"3080055","prefecture":"IBARAKI KEN","city":"CHIKUSEI SHI","town":"ISHIHARADA","perfecture_jp":"茨城県","jp_add_1":"筑西市","jp_add_2":"石原田"},"3080076":{"post_code":"3080076","prefecture":"IBARAKI KEN","city":"CHIKUSEI SHI","town":"IZUMI","perfecture_jp":"茨城県","jp_add_1":"筑西市","jp_add_2":"泉"},"3080116":{"post_code":"3080116","prefecture":"IBARAKI KEN","city":"CHIKUSEI SHI","town":"ITABASHI","perfecture_jp":"茨城県","jp_add_1":"筑西市","jp_add_2":"板橋"},"3080827":{"post_code":"3080827","prefecture":"IBARAKI KEN","city":"CHIKUSEI SHI","town":"ICHINOBE","perfecture_jp":"茨城県","jp_add_1":"筑西市","jp_add_2":"市野辺"},"3080842":{"post_code":"3080842","prefecture":"IBARAKI KEN","city":"CHIKUSEI SHI","town":"IPPOMMATSU","perfecture_jp":"茨城県","jp_add_1":"筑西市","jp_add_2":"一本松"},"3080805":{"post_code":"3080805","prefecture":"IBARAKI KEN","city":"CHIKUSEI SHI","town":"INANOBE","perfecture_jp":"茨城県","jp_add_1":"筑西市","jp_add_2":"稲野辺"},"3080106":{"post_code":"3080106","prefecture":"IBARAKI KEN","city":"CHIKUSEI SHI","town":"INARI","perfecture_jp":"茨城県","jp_add_1":"筑西市","jp_add_2":"稲荷"},"3080117":{"post_code":"3080117","prefecture":"IBARAKI KEN","city":"CHIKUSEI SHI","town":"INUZUKA","perfecture_jp":"茨城県","jp_add_1":"筑西市","jp_add_2":"犬塚"},"3080101":{"post_code":"3080101","prefecture":"IBARAKI KEN","city":"CHIKUSEI SHI","town":"INOE","perfecture_jp":"茨城県","jp_add_1":"筑西市","jp_add_2":"井上"},"3080129":{"post_code":"3080129","prefecture":"IBARAKI KEN","city":"CHIKUSEI SHI","town":"UENO","perfecture_jp":"茨城県","jp_add_1":"筑西市","jp_add_2":"上野"},"3080128":{"post_code":"3080128","prefecture":"IBARAKI KEN","city":"CHIKUSEI SHI","town":"E","perfecture_jp":"茨城県","jp_add_1":"筑西市","jp_add_2":"江"},"3080015":{"post_code":"3080015","prefecture":"IBARAKI KEN","city":"CHIKUSEI SHI","town":"OZEKI","perfecture_jp":"茨城県","jp_add_1":"筑西市","jp_add_2":"大関"},"3080813":{"post_code":"3080813","prefecture":"IBARAKI KEN","city":"CHIKUSEI SHI","town":"OTSUKA","perfecture_jp":"茨城県","jp_add_1":"筑西市","jp_add_2":"大塚"},"3080852":{"post_code":"3080852","prefecture":"IBARAKI KEN","city":"CHIKUSEI SHI","town":"OYA","perfecture_jp":"茨城県","jp_add_1":"筑西市","jp_add_2":"大谷"},"3080051":{"post_code":"3080051","prefecture":"IBARAKI KEN","city":"CHIKUSEI SHI","town":"OKAZERI","perfecture_jp":"茨城県","jp_add_1":"筑西市","jp_add_2":"岡芹"},"3080857":{"post_code":"3080857","prefecture":"IBARAKI KEN","city":"CHIKUSEI SHI","town":"OGAWA","perfecture_jp":"茨城県","jp_add_1":"筑西市","jp_add_2":"小川"},"3080012":{"post_code":"3080012","prefecture":"IBARAKI KEN","city":"CHIKUSEI SHI","town":"OKUDA","perfecture_jp":"茨城県","jp_add_1":"筑西市","jp_add_2":"奥田"},"3080854":{"post_code":"3080854","prefecture":"IBARAKI KEN","city":"CHIKUSEI SHI","town":"OZAKATA","perfecture_jp":"茨城県","jp_add_1":"筑西市","jp_add_2":"女方"},"3080002":{"post_code":"3080002","prefecture":"IBARAKI KEN","city":"CHIKUSEI SHI","town":"OCHIAI","perfecture_jp":"茨城県","jp_add_1":"筑西市","jp_add_2":"落合"},"3080041":{"post_code":"3080041","prefecture":"IBARAKI KEN","city":"CHIKUSEI SHI","town":"OTSU","perfecture_jp":"茨城県","jp_add_1":"筑西市","jp_add_2":"乙"},"3080806":{"post_code":"3080806","prefecture":"IBARAKI KEN","city":"CHIKUSEI SHI","town":"OBAYASHI","perfecture_jp":"茨城県","jp_add_1":"筑西市","jp_add_2":"小林"},"3080007":{"post_code":"3080007","prefecture":"IBARAKI KEN","city":"CHIKUSEI SHI","town":"ORIMOTO","perfecture_jp":"茨城県","jp_add_1":"筑西市","jp_add_2":"折本"},"3080837":{"post_code":"3080837","prefecture":"IBARAKI KEN","city":"CHIKUSEI SHI","town":"KAGESAWA","perfecture_jp":"茨城県","jp_add_1":"筑西市","jp_add_2":"嘉家佐和"},"3080107":{"post_code":"3080107","prefecture":"IBARAKI KEN","city":"CHIKUSEI SHI","town":"KAJIUCHI","perfecture_jp":"茨城県","jp_add_1":"筑西市","jp_add_2":"梶内"},"3080804":{"post_code":"3080804","prefecture":"IBARAKI KEN","city":"CHIKUSEI SHI","town":"KANAMARU","perfecture_jp":"茨城県","jp_add_1":"筑西市","jp_add_2":"金丸"},"3080815":{"post_code":"3080815","prefecture":"IBARAKI KEN","city":"CHIKUSEI SHI","town":"KAMIKAWANAGO","perfecture_jp":"茨城県","jp_add_1":"筑西市","jp_add_2":"上川中子"},"3080017":{"post_code":"3080017","prefecture":"IBARAKI KEN","city":"CHIKUSEI SHI","town":"KAMINAKAYAMA","perfecture_jp":"茨城県","jp_add_1":"筑西市","jp_add_2":"上中山"},"3080067":{"post_code":"3080067","prefecture":"IBARAKI KEN","city":"CHIKUSEI SHI","town":"KAMIHIRATSUKA","perfecture_jp":"茨城県","jp_add_1":"筑西市","jp_add_2":"上平塚"},"3080063":{"post_code":"3080063","prefecture":"IBARAKI KEN","city":"CHIKUSEI SHI","town":"KAMIWAKE","perfecture_jp":"茨城県","jp_add_1":"筑西市","jp_add_2":"神分"},"3080801":{"post_code":"3080801","prefecture":"IBARAKI KEN","city":"CHIKUSEI SHI","town":"KAWASUMI","perfecture_jp":"茨城県","jp_add_1":"筑西市","jp_add_2":"川澄"},"3080814":{"post_code":"3080814","prefecture":"IBARAKI KEN","city":"CHIKUSEI SHI","town":"KAWAZURE","perfecture_jp":"茨城県","jp_add_1":"筑西市","jp_add_2":"川連"},"3080104":{"post_code":"3080104","prefecture":"IBARAKI KEN","city":"CHIKUSEI SHI","town":"KIDO","perfecture_jp":"茨城県","jp_add_1":"筑西市","jp_add_2":"木戸"},"3080071":{"post_code":"3080071","prefecture":"IBARAKI KEN","city":"CHIKUSEI SHI","town":"KUCHIDO","perfecture_jp":"茨城県","jp_add_1":"筑西市","jp_add_2":"口戸"},"3080061":{"post_code":"3080061","prefecture":"IBARAKI KEN","city":"CHIKUSEI SHI","town":"KURISHIMA","perfecture_jp":"茨城県","jp_add_1":"筑西市","jp_add_2":"栗島"},"3080102":{"post_code":"3080102","prefecture":"IBARAKI KEN","city":"CHIKUSEI SHI","town":"KUROGO","perfecture_jp":"茨城県","jp_add_1":"筑西市","jp_add_2":"黒子"},"3080021":{"post_code":"3080021","prefecture":"IBARAKI KEN","city":"CHIKUSEI SHI","town":"KO","perfecture_jp":"茨城県","jp_add_1":"筑西市","jp_add_2":"甲"},"3080004":{"post_code":"3080004","prefecture":"IBARAKI KEN","city":"CHIKUSEI SHI","town":"KODA","perfecture_jp":"茨城県","jp_add_1":"筑西市","jp_add_2":"国府田"},"3080077":{"post_code":"3080077","prefecture":"IBARAKI KEN","city":"CHIKUSEI SHI","town":"KOSHIGI","perfecture_jp":"茨城県","jp_add_1":"筑西市","jp_add_2":"子思儀"},"3080866":{"post_code":"3080866","prefecture":"IBARAKI KEN","city":"CHIKUSEI SHI","town":"GOSHOMIYA","perfecture_jp":"茨城県","jp_add_1":"筑西市","jp_add_2":"五所宮"},"3080862":{"post_code":"3080862","prefecture":"IBARAKI KEN","city":"CHIKUSEI SHI","town":"KOBANA","perfecture_jp":"茨城県","jp_add_1":"筑西市","jp_add_2":"小塙"},"3080848":{"post_code":"3080848","prefecture":"IBARAKI KEN","city":"CHIKUSEI SHI","town":"SAIWAICHO","perfecture_jp":"茨城県","jp_add_1":"筑西市","jp_add_2":"幸町"},"3080065":{"post_code":"3080065","prefecture":"IBARAKI KEN","city":"CHIKUSEI SHI","town":"SASAZUKA","perfecture_jp":"茨城県","jp_add_1":"筑西市","jp_add_2":"笹塚"},"3080072":{"post_code":"3080072","prefecture":"IBARAKI KEN","city":"CHIKUSEI SHI","town":"SHIBAYAMA","perfecture_jp":"茨城県","jp_add_1":"筑西市","jp_add_2":"柴山"},"3080823":{"post_code":"3080823","prefecture":"IBARAKI KEN","city":"CHIKUSEI SHI","town":"SHIMA","perfecture_jp":"茨城県","jp_add_1":"筑西市","jp_add_2":"島"},"3080851":{"post_code":"3080851","prefecture":"IBARAKI KEN","city":"CHIKUSEI SHI","town":"SHIMOEZURE","perfecture_jp":"茨城県","jp_add_1":"筑西市","jp_add_2":"下江連"},"3080826":{"post_code":"3080826","prefecture":"IBARAKI KEN","city":"CHIKUSEI SHI","town":"SHIMOKAZAKI","perfecture_jp":"茨城県","jp_add_1":"筑西市","jp_add_2":"下岡崎"},"3080855":{"post_code":"3080855","prefecture":"IBARAKI KEN","city":"CHIKUSEI SHI","town":"SHIMOKAWASHIMA","perfecture_jp":"茨城県","jp_add_1":"筑西市","jp_add_2":"下川島"},"3080011":{"post_code":"3080011","prefecture":"IBARAKI KEN","city":"CHIKUSEI SHI","town":"SHIMOTAKADA","perfecture_jp":"茨城県","jp_add_1":"筑西市","jp_add_2":"下高田"},"3080825":{"post_code":"3080825","prefecture":"IBARAKI KEN","city":"CHIKUSEI SHI","town":"SHIMONAKAYAMA","perfecture_jp":"茨城県","jp_add_1":"筑西市","jp_add_2":"下中山"},"3080844":{"post_code":"3080844","prefecture":"IBARAKI KEN","city":"CHIKUSEI SHI","town":"SHIMONODONO","perfecture_jp":"茨城県","jp_add_1":"筑西市","jp_add_2":"下野殿"},"3080066":{"post_code":"3080066","prefecture":"IBARAKI KEN","city":"CHIKUSEI SHI","town":"SHIMOHIRATSUKA","perfecture_jp":"茨城県","jp_add_1":"筑西市","jp_add_2":"下平塚"},"3080052":{"post_code":"3080052","prefecture":"IBARAKI KEN","city":"CHIKUSEI SHI","town":"SUGAYA","perfecture_jp":"茨城県","jp_add_1":"筑西市","jp_add_2":"菅谷"},"3080113":{"post_code":"3080113","prefecture":"IBARAKI KEN","city":"CHIKUSEI SHI","town":"SEKITATE","perfecture_jp":"茨城県","jp_add_1":"筑西市","jp_add_2":"関舘"},"3080124":{"post_code":"3080124","prefecture":"IBARAKI KEN","city":"CHIKUSEI SHI","town":"SEKIMOTOAKUTO","perfecture_jp":"茨城県","jp_add_1":"筑西市","jp_add_2":"関本肥土"},"3080122":{"post_code":"3080122","prefecture":"IBARAKI KEN","city":"CHIKUSEI SHI","town":"SEKIMOTOKAMI","perfecture_jp":"茨城県","jp_add_1":"筑西市","jp_add_2":"関本上"},"3080123":{"post_code":"3080123","prefecture":"IBARAKI KEN","city":"CHIKUSEI SHI","town":"SEKIMOTOKAMINAKA","perfecture_jp":"茨城県","jp_add_1":"筑西市","jp_add_2":"関本上中"},"3080127":{"post_code":"3080127","prefecture":"IBARAKI KEN","city":"CHIKUSEI SHI","town":"SEKIMOTOSHIMO","perfecture_jp":"茨城県","jp_add_1":"筑西市","jp_add_2":"関本下"},"3080126":{"post_code":"3080126","prefecture":"IBARAKI KEN","city":"CHIKUSEI SHI","town":"SEKIMOTONAKA","perfecture_jp":"茨城県","jp_add_1":"筑西市","jp_add_2":"関本中"},"3080125":{"post_code":"3080125","prefecture":"IBARAKI KEN","city":"CHIKUSEI SHI","town":"SEKIMOTOWAKENAKA","perfecture_jp":"茨城県","jp_add_1":"筑西市","jp_add_2":"関本分中"},"3080864":{"post_code":"3080864","prefecture":"IBARAKI KEN","city":"CHIKUSEI SHI","town":"SOKAJIMA","perfecture_jp":"茨城県","jp_add_1":"筑西市","jp_add_2":"掉ケ島"},"3080807":{"post_code":"3080807","prefecture":"IBARAKI KEN","city":"CHIKUSEI SHI","town":"TAKASHIMA","perfecture_jp":"茨城県","jp_add_1":"筑西市","jp_add_2":"高島"},"3080847":{"post_code":"3080847","prefecture":"IBARAKI KEN","city":"CHIKUSEI SHI","town":"TAMADO","perfecture_jp":"茨城県","jp_add_1":"筑西市","jp_add_2":"玉戸"},"3080074":{"post_code":"3080074","prefecture":"IBARAKI KEN","city":"CHIKUSEI SHI","town":"CHIKUZE","perfecture_jp":"茨城県","jp_add_1":"筑西市","jp_add_2":"筑瀬"},"3080822":{"post_code":"3080822","prefecture":"IBARAKI KEN","city":"CHIKUSEI SHI","town":"TSUKAHARA","perfecture_jp":"茨城県","jp_add_1":"筑西市","jp_add_2":"塚原"},"3080103":{"post_code":"3080103","prefecture":"IBARAKI KEN","city":"CHIKUSEI SHI","town":"TSUJI","perfecture_jp":"茨城県","jp_add_1":"筑西市","jp_add_2":"辻"},"3080816":{"post_code":"3080816","prefecture":"IBARAKI KEN","city":"CHIKUSEI SHI","town":"TOKUMOCHI","perfecture_jp":"茨城県","jp_add_1":"筑西市","jp_add_2":"徳持"},"3080053":{"post_code":"3080053","prefecture":"IBARAKI KEN","city":"CHIKUSEI SHI","town":"TONOZUKA","perfecture_jp":"茨城県","jp_add_1":"筑西市","jp_add_2":"外塚"},"3080803":{"post_code":"3080803","prefecture":"IBARAKI KEN","city":"CHIKUSEI SHI","town":"NAOI","perfecture_jp":"茨城県","jp_add_1":"筑西市","jp_add_2":"直井"},"3080005":{"post_code":"3080005","prefecture":"IBARAKI KEN","city":"CHIKUSEI SHI","town":"NAKADATE","perfecture_jp":"茨城県","jp_add_1":"筑西市","jp_add_2":"中舘"},"3080108":{"post_code":"3080108","prefecture":"IBARAKI KEN","city":"CHIKUSEI SHI","town":"NAKAMURASHINDEN","perfecture_jp":"茨城県","jp_add_1":"筑西市","jp_add_2":"中村新田"},"3080821":{"post_code":"3080821","prefecture":"IBARAKI KEN","city":"CHIKUSEI SHI","town":"NARITA","perfecture_jp":"茨城県","jp_add_1":"筑西市","jp_add_2":"成田"},"3080841":{"post_code":"3080841","prefecture":"IBARAKI KEN","city":"CHIKUSEI SHI","town":"NIGINARI","perfecture_jp":"茨城県","jp_add_1":"筑西市","jp_add_2":"二木成"},"3080834":{"post_code":"3080834","prefecture":"IBARAKI KEN","city":"CHIKUSEI SHI","town":"NISHIISHIDA","perfecture_jp":"茨城県","jp_add_1":"筑西市","jp_add_2":"西石田"},"3080062":{"post_code":"3080062","prefecture":"IBARAKI KEN","city":"CHIKUSEI SHI","town":"NISHIOSHIMA","perfecture_jp":"茨城県","jp_add_1":"筑西市","jp_add_2":"西大島"},"3080845":{"post_code":"3080845","prefecture":"IBARAKI KEN","city":"CHIKUSEI SHI","town":"NISHIHO","perfecture_jp":"茨城県","jp_add_1":"筑西市","jp_add_2":"西方"},"3080105":{"post_code":"3080105","prefecture":"IBARAKI KEN","city":"CHIKUSEI SHI","town":"NISHIHOZUE","perfecture_jp":"茨城県","jp_add_1":"筑西市","jp_add_2":"西保末"},"3080054":{"post_code":"3080054","prefecture":"IBARAKI KEN","city":"CHIKUSEI SHI","town":"NISHIYAGAI","perfecture_jp":"茨城県","jp_add_1":"筑西市","jp_add_2":"西谷貝"},"3080867":{"post_code":"3080867","prefecture":"IBARAKI KEN","city":"CHIKUSEI SHI","town":"NISHIYAMADA","perfecture_jp":"茨城県","jp_add_1":"筑西市","jp_add_2":"西山田"},"3080832":{"post_code":"3080832","prefecture":"IBARAKI KEN","city":"CHIKUSEI SHI","town":"NISHIYONO","perfecture_jp":"茨城県","jp_add_1":"筑西市","jp_add_2":"西榎生"},"3080846":{"post_code":"3080846","prefecture":"IBARAKI KEN","city":"CHIKUSEI SHI","town":"NUNOGAWA","perfecture_jp":"茨城県","jp_add_1":"筑西市","jp_add_2":"布川"},"3080016":{"post_code":"3080016","prefecture":"IBARAKI KEN","city":"CHIKUSEI SHI","town":"NO","perfecture_jp":"茨城県","jp_add_1":"筑西市","jp_add_2":"野"},"3080833":{"post_code":"3080833","prefecture":"IBARAKI KEN","city":"CHIKUSEI SHI","town":"NODA","perfecture_jp":"茨城県","jp_add_1":"筑西市","jp_add_2":"野田"},"3080843":{"post_code":"3080843","prefecture":"IBARAKI KEN","city":"CHIKUSEI SHI","town":"NODONO","perfecture_jp":"茨城県","jp_add_1":"筑西市","jp_add_2":"野殿"},"3080863":{"post_code":"3080863","prefecture":"IBARAKI KEN","city":"CHIKUSEI SHI","town":"HAITSUKA","perfecture_jp":"茨城県","jp_add_1":"筑西市","jp_add_2":"灰塚"},"3080014":{"post_code":"3080014","prefecture":"IBARAKI KEN","city":"CHIKUSEI SHI","town":"HAGATA","perfecture_jp":"茨城県","jp_add_1":"筑西市","jp_add_2":"羽方"},"3080013":{"post_code":"3080013","prefecture":"IBARAKI KEN","city":"CHIKUSEI SHI","town":"HATTA","perfecture_jp":"茨城県","jp_add_1":"筑西市","jp_add_2":"八田"},"3080114":{"post_code":"3080114","prefecture":"IBARAKI KEN","city":"CHIKUSEI SHI","town":"HANADA","perfecture_jp":"茨城県","jp_add_1":"筑西市","jp_add_2":"花田"},"3080115":{"post_code":"3080115","prefecture":"IBARAKI KEN","city":"CHIKUSEI SHI","town":"HANABASHI","perfecture_jp":"茨城県","jp_add_1":"筑西市","jp_add_2":"花橋"},"3080073":{"post_code":"3080073","prefecture":"IBARAKI KEN","city":"CHIKUSEI SHI","town":"HAYASHI","perfecture_jp":"茨城県","jp_add_1":"筑西市","jp_add_2":"林"},"3080831":{"post_code":"3080831","prefecture":"IBARAKI KEN","city":"CHIKUSEI SHI","town":"HIGASHIYONO","perfecture_jp":"茨城県","jp_add_1":"筑西市","jp_add_2":"東榎生"},"3080001":{"post_code":"3080001","prefecture":"IBARAKI KEN","city":"CHIKUSEI SHI","town":"HIGUCHI","perfecture_jp":"茨城県","jp_add_1":"筑西市","jp_add_2":"樋口"},"3080812":{"post_code":"3080812","prefecture":"IBARAKI KEN","city":"CHIKUSEI SHI","town":"FUKAMI","perfecture_jp":"茨城県","jp_add_1":"筑西市","jp_add_2":"深見"},"3080112":{"post_code":"3080112","prefecture":"IBARAKI KEN","city":"CHIKUSEI SHI","town":"FUJIGAYA","perfecture_jp":"茨城県","jp_add_1":"筑西市","jp_add_2":"藤ケ谷"},"3080121":{"post_code":"3080121","prefecture":"IBARAKI KEN","city":"CHIKUSEI SHI","town":"FUNADAMA","perfecture_jp":"茨城県","jp_add_1":"筑西市","jp_add_2":"船玉"},"3080111":{"post_code":"3080111","prefecture":"IBARAKI KEN","city":"CHIKUSEI SHI","town":"FUNYU","perfecture_jp":"茨城県","jp_add_1":"筑西市","jp_add_2":"舟生"},"3080031":{"post_code":"3080031","prefecture":"IBARAKI KEN","city":"CHIKUSEI SHI","town":"HEI","perfecture_jp":"茨城県","jp_add_1":"筑西市","jp_add_2":"丙"},"3080003":{"post_code":"3080003","prefecture":"IBARAKI KEN","city":"CHIKUSEI SHI","town":"MAKUDA","perfecture_jp":"茨城県","jp_add_1":"筑西市","jp_add_2":"蒔田"},"3080042":{"post_code":"3080042","prefecture":"IBARAKI KEN","city":"CHIKUSEI SHI","town":"MIDORIMACHI","perfecture_jp":"茨城県","jp_add_1":"筑西市","jp_add_2":"みどり町"},"3080811":{"post_code":"3080811","prefecture":"IBARAKI KEN","city":"CHIKUSEI SHI","town":"MODA","perfecture_jp":"茨城県","jp_add_1":"筑西市","jp_add_2":"茂田"},"3080861":{"post_code":"3080861","prefecture":"IBARAKI KEN","city":"CHIKUSEI SHI","town":"MORISOEJIMA","perfecture_jp":"茨城県","jp_add_1":"筑西市","jp_add_2":"森添島"},"3080056":{"post_code":"3080056","prefecture":"IBARAKI KEN","city":"CHIKUSEI SHI","town":"YANAKA","perfecture_jp":"茨城県","jp_add_1":"筑西市","jp_add_2":"谷中"},"3080006":{"post_code":"3080006","prefecture":"IBARAKI KEN","city":"CHIKUSEI SHI","town":"YABE","perfecture_jp":"茨城県","jp_add_1":"筑西市","jp_add_2":"谷部"},"3080865":{"post_code":"3080865","prefecture":"IBARAKI KEN","city":"CHIKUSEI SHI","town":"YAMAZAKI","perfecture_jp":"茨城県","jp_add_1":"筑西市","jp_add_2":"山崎"},"3080802":{"post_code":"3080802","prefecture":"IBARAKI KEN","city":"CHIKUSEI SHI","town":"YOKOSHIMA","perfecture_jp":"茨城県","jp_add_1":"筑西市","jp_add_2":"横島"},"3080838":{"post_code":"3080838","prefecture":"IBARAKI KEN","city":"CHIKUSEI SHI","town":"YONO","perfecture_jp":"茨城県","jp_add_1":"筑西市","jp_add_2":"榎生"},"3080824":{"post_code":"3080824","prefecture":"IBARAKI KEN","city":"CHIKUSEI SHI","town":"WARABI","perfecture_jp":"茨城県","jp_add_1":"筑西市","jp_add_2":"蕨"}}