{"3091600":{"post_code":"3091600","prefecture":"IBARAKI KEN","city":"KASAMA SHI","town":"IKANIKEISAIGANAIBAAI","perfecture_jp":"茨城県","jp_add_1":"笠間市","jp_add_2":""},"3091616":{"post_code":"3091616","prefecture":"IBARAKI KEN","city":"KASAMA SHI","town":"AKASAKA","perfecture_jp":"茨城県","jp_add_1":"笠間市","jp_add_2":"赤坂"},"3091717":{"post_code":"3091717","prefecture":"IBARAKI KEN","city":"KASAMA SHI","town":"ASAHIMACHI","perfecture_jp":"茨城県","jp_add_1":"笠間市","jp_add_2":"旭町"},"3091632":{"post_code":"3091632","prefecture":"IBARAKI KEN","city":"KASAMA SHI","town":"IIGO","perfecture_jp":"茨城県","jp_add_1":"笠間市","jp_add_2":"飯合"},"3091605":{"post_code":"3091605","prefecture":"IBARAKI KEN","city":"KASAMA SHI","town":"IIDA","perfecture_jp":"茨城県","jp_add_1":"笠間市","jp_add_2":"飯田"},"3091602":{"post_code":"3091602","prefecture":"IBARAKI KEN","city":"KASAMA SHI","town":"IKENOBE","perfecture_jp":"茨城県","jp_add_1":"笠間市","jp_add_2":"池野辺"},"3091613":{"post_code":"3091613","prefecture":"IBARAKI KEN","city":"KASAMA SHI","town":"ISHII","perfecture_jp":"茨城県","jp_add_1":"笠間市","jp_add_2":"石井"},"3091607":{"post_code":"3091607","prefecture":"IBARAKI KEN","city":"KASAMA SHI","town":"ISHIDERA","perfecture_jp":"茨城県","jp_add_1":"笠間市","jp_add_2":"石寺"},"3091635":{"post_code":"3091635","prefecture":"IBARAKI KEN","city":"KASAMA SHI","town":"INADA","perfecture_jp":"茨城県","jp_add_1":"笠間市","jp_add_2":"稲田"},"3091636":{"post_code":"3091636","prefecture":"IBARAKI KEN","city":"KASAMA SHI","town":"OGOTO","perfecture_jp":"茨城県","jp_add_1":"笠間市","jp_add_2":"大郷戸"},"3091724":{"post_code":"3091724","prefecture":"IBARAKI KEN","city":"KASAMA SHI","town":"OGOYAMA","perfecture_jp":"茨城県","jp_add_1":"笠間市","jp_add_2":"大古山"},"3091738":{"post_code":"3091738","prefecture":"IBARAKI KEN","city":"KASAMA SHI","town":"OTAMACHI","perfecture_jp":"茨城県","jp_add_1":"笠間市","jp_add_2":"大田町"},"3091601":{"post_code":"3091601","prefecture":"IBARAKI KEN","city":"KASAMA SHI","town":"OHASHI","perfecture_jp":"茨城県","jp_add_1":"笠間市","jp_add_2":"大橋"},"3091604":{"post_code":"3091604","prefecture":"IBARAKI KEN","city":"KASAMA SHI","town":"OBUCHI","perfecture_jp":"茨城県","jp_add_1":"笠間市","jp_add_2":"大渕"},"3091701":{"post_code":"3091701","prefecture":"IBARAKI KEN","city":"KASAMA SHI","town":"OBARA","perfecture_jp":"茨城県","jp_add_1":"笠間市","jp_add_2":"小原"},"3091611":{"post_code":"3091611","prefecture":"IBARAKI KEN","city":"KASAMA SHI","town":"KASAMA","perfecture_jp":"茨城県","jp_add_1":"笠間市","jp_add_2":"笠間"},"3091713":{"post_code":"3091713","prefecture":"IBARAKI KEN","city":"KASAMA SHI","town":"KASHIWAI","perfecture_jp":"茨城県","jp_add_1":"笠間市","jp_add_2":"柏井"},"3091637":{"post_code":"3091637","prefecture":"IBARAKI KEN","city":"KASAMA SHI","town":"KATANIWA","perfecture_jp":"茨城県","jp_add_1":"笠間市","jp_add_2":"片庭"},"3091615":{"post_code":"3091615","prefecture":"IBARAKI KEN","city":"KASAMA SHI","town":"KANAI","perfecture_jp":"茨城県","jp_add_1":"笠間市","jp_add_2":"金井"},"3091731":{"post_code":"3091731","prefecture":"IBARAKI KEN","city":"KASAMA SHI","town":"KAMIICHIBARA","perfecture_jp":"茨城県","jp_add_1":"笠間市","jp_add_2":"上市原"},"3091623":{"post_code":"3091623","prefecture":"IBARAKI KEN","city":"KASAMA SHI","town":"KAMIKAGADA","perfecture_jp":"茨城県","jp_add_1":"笠間市","jp_add_2":"上加賀田"},"3091624":{"post_code":"3091624","prefecture":"IBARAKI KEN","city":"KASAMA SHI","town":"KITAYOSHIWARA","perfecture_jp":"茨城県","jp_add_1":"笠間市","jp_add_2":"北吉原"},"3091625":{"post_code":"3091625","prefecture":"IBARAKI KEN","city":"KASAMA SHI","town":"KURUSU","perfecture_jp":"茨城県","jp_add_1":"笠間市","jp_add_2":"来栖"},"3091703":{"post_code":"3091703","prefecture":"IBARAKI KEN","city":"KASAMA SHI","town":"KOIBUCHI","perfecture_jp":"茨城県","jp_add_1":"笠間市","jp_add_2":"鯉淵"},"3091706":{"post_code":"3091706","prefecture":"IBARAKI KEN","city":"KASAMA SHI","town":"KONOSU","perfecture_jp":"茨城県","jp_add_1":"笠間市","jp_add_2":"鴻巣"},"3091702":{"post_code":"3091702","prefecture":"IBARAKI KEN","city":"KASAMA SHI","town":"GOHEI","perfecture_jp":"茨城県","jp_add_1":"笠間市","jp_add_2":"五平"},"3091626":{"post_code":"3091626","prefecture":"IBARAKI KEN","city":"KASAMA SHI","town":"SHIMOICHIGE","perfecture_jp":"茨城県","jp_add_1":"笠間市","jp_add_2":"下市毛"},"3091733":{"post_code":"3091733","prefecture":"IBARAKI KEN","city":"KASAMA SHI","town":"SHIMOICHIBARA","perfecture_jp":"茨城県","jp_add_1":"笠間市","jp_add_2":"下市原"},"3091726":{"post_code":"3091726","prefecture":"IBARAKI KEN","city":"KASAMA SHI","town":"SHIMOKAGATA","perfecture_jp":"茨城県","jp_add_1":"笠間市","jp_add_2":"下加賀田"},"3091716":{"post_code":"3091716","prefecture":"IBARAKI KEN","city":"KASAMA SHI","town":"SUMIYOSHI","perfecture_jp":"茨城県","jp_add_1":"笠間市","jp_add_2":"住吉"},"3091722":{"post_code":"3091722","prefecture":"IBARAKI KEN","city":"KASAMA SHI","town":"TAIRAMACHI","perfecture_jp":"茨城県","jp_add_1":"笠間市","jp_add_2":"平町"},"3091737":{"post_code":"3091737","prefecture":"IBARAKI KEN","city":"KASAMA SHI","town":"CHUO","perfecture_jp":"茨城県","jp_add_1":"笠間市","jp_add_2":"中央"},"3091621":{"post_code":"3091621","prefecture":"IBARAKI KEN","city":"KASAMA SHI","town":"TEGOSHI","perfecture_jp":"茨城県","jp_add_1":"笠間市","jp_add_2":"手越"},"3091614":{"post_code":"3091614","prefecture":"IBARAKI KEN","city":"KASAMA SHI","town":"TERAZAKI","perfecture_jp":"茨城県","jp_add_1":"笠間市","jp_add_2":"寺崎"},"3091735":{"post_code":"3091735","prefecture":"IBARAKI KEN","city":"KASAMA SHI","town":"TOMOBEEKIMAE","perfecture_jp":"茨城県","jp_add_1":"笠間市","jp_add_2":"友部駅前"},"3091732":{"post_code":"3091732","prefecture":"IBARAKI KEN","city":"KASAMA SHI","town":"NAKAICHIBARA","perfecture_jp":"茨城県","jp_add_1":"笠間市","jp_add_2":"中市原"},"3091712":{"post_code":"3091712","prefecture":"IBARAKI KEN","city":"KASAMA SHI","town":"NAGATORO","perfecture_jp":"茨城県","jp_add_1":"笠間市","jp_add_2":"長兎路"},"3091711":{"post_code":"3091711","prefecture":"IBARAKI KEN","city":"KASAMA SHI","town":"NAMUSANZUKE","perfecture_jp":"茨城県","jp_add_1":"笠間市","jp_add_2":"随分附"},"3091714":{"post_code":"3091714","prefecture":"IBARAKI KEN","city":"KASAMA SHI","town":"NIKODA","perfecture_jp":"茨城県","jp_add_1":"笠間市","jp_add_2":"仁古田"},"3091631":{"post_code":"3091631","prefecture":"IBARAKI KEN","city":"KASAMA SHI","town":"HAKODA","perfecture_jp":"茨城県","jp_add_1":"笠間市","jp_add_2":"箱田"},"3091721":{"post_code":"3091721","prefecture":"IBARAKI KEN","city":"KASAMA SHI","town":"HASHIZUME","perfecture_jp":"茨城県","jp_add_1":"笠間市","jp_add_2":"橋爪"},"3091705":{"post_code":"3091705","prefecture":"IBARAKI KEN","city":"KASAMA SHI","town":"HIGASHIDAIRA","perfecture_jp":"茨城県","jp_add_1":"笠間市","jp_add_2":"東平"},"3091606":{"post_code":"3091606","prefecture":"IBARAKI KEN","city":"KASAMA SHI","town":"HIZAWA","perfecture_jp":"茨城県","jp_add_1":"笠間市","jp_add_2":"日沢"},"3091612":{"post_code":"3091612","prefecture":"IBARAKI KEN","city":"KASAMA SHI","town":"HIKUSABA","perfecture_jp":"茨城県","jp_add_1":"笠間市","jp_add_2":"日草場"},"3091603":{"post_code":"3091603","prefecture":"IBARAKI KEN","city":"KASAMA SHI","town":"FUKUDA","perfecture_jp":"茨城県","jp_add_1":"笠間市","jp_add_2":"福田"},"3091634":{"post_code":"3091634","prefecture":"IBARAKI KEN","city":"KASAMA SHI","town":"FUKUHARA","perfecture_jp":"茨城県","jp_add_1":"笠間市","jp_add_2":"福原"},"3091725":{"post_code":"3091725","prefecture":"IBARAKI KEN","city":"KASAMA SHI","town":"MINAMIKOIZUMI","perfecture_jp":"茨城県","jp_add_1":"笠間市","jp_add_2":"南小泉"},"3091734":{"post_code":"3091734","prefecture":"IBARAKI KEN","city":"KASAMA SHI","town":"MINAMITOMOBE","perfecture_jp":"茨城県","jp_add_1":"笠間市","jp_add_2":"南友部"},"3091622":{"post_code":"3091622","prefecture":"IBARAKI KEN","city":"KASAMA SHI","town":"MINAMIYOSHIWARA","perfecture_jp":"茨城県","jp_add_1":"笠間市","jp_add_2":"南吉原"},"3091704":{"post_code":"3091704","prefecture":"IBARAKI KEN","city":"KASAMA SHI","town":"MIHARA","perfecture_jp":"茨城県","jp_add_1":"笠間市","jp_add_2":"美原"},"3091633":{"post_code":"3091633","prefecture":"IBARAKI KEN","city":"KASAMA SHI","town":"MOTODO","perfecture_jp":"茨城県","jp_add_1":"笠間市","jp_add_2":"本戸"},"3091736":{"post_code":"3091736","prefecture":"IBARAKI KEN","city":"KASAMA SHI","town":"YAKUMO","perfecture_jp":"茨城県","jp_add_1":"笠間市","jp_add_2":"八雲"},"3091723":{"post_code":"3091723","prefecture":"IBARAKI KEN","city":"KASAMA SHI","town":"YANOSHITA","perfecture_jp":"茨城県","jp_add_1":"笠間市","jp_add_2":"矢野下"},"3091715":{"post_code":"3091715","prefecture":"IBARAKI KEN","city":"KASAMA SHI","town":"YUZAKI","perfecture_jp":"茨城県","jp_add_1":"笠間市","jp_add_2":"湯崎"},"3091108":{"post_code":"3091108","prefecture":"IBARAKI KEN","city":"CHIKUSEI SHI","town":"ITEEBISAWA","perfecture_jp":"茨城県","jp_add_1":"筑西市","jp_add_2":"井出蛯沢"},"3091125":{"post_code":"3091125","prefecture":"IBARAKI KEN","city":"CHIKUSEI SHI","town":"OSHIMA","perfecture_jp":"茨城県","jp_add_1":"筑西市","jp_add_2":"大島"},"3091101":{"post_code":"3091101","prefecture":"IBARAKI KEN","city":"CHIKUSEI SHI","town":"OGURI","perfecture_jp":"茨城県","jp_add_1":"筑西市","jp_add_2":"小栗"},"3091107":{"post_code":"3091107","prefecture":"IBARAKI KEN","city":"CHIKUSEI SHI","town":"KADOI","perfecture_jp":"茨城県","jp_add_1":"筑西市","jp_add_2":"門井"},"3091111":{"post_code":"3091111","prefecture":"IBARAKI KEN","city":"CHIKUSEI SHI","town":"KAMIHOSHIYA","perfecture_jp":"茨城県","jp_add_1":"筑西市","jp_add_2":"上星谷"},"3091103":{"post_code":"3091103","prefecture":"IBARAKI KEN","city":"CHIKUSEI SHI","town":"KUJIRA","perfecture_jp":"茨城県","jp_add_1":"筑西市","jp_add_2":"久地楽"},"3091127":{"post_code":"3091127","prefecture":"IBARAKI KEN","city":"CHIKUSEI SHI","town":"KUWAYAMA","perfecture_jp":"茨城県","jp_add_1":"筑西市","jp_add_2":"桑山"},"3091105":{"post_code":"3091105","prefecture":"IBARAKI KEN","city":"CHIKUSEI SHI","town":"SANGO","perfecture_jp":"茨城県","jp_add_1":"筑西市","jp_add_2":"三郷"},"3091126":{"post_code":"3091126","prefecture":"IBARAKI KEN","city":"CHIKUSEI SHI","town":"SHIMIZU","perfecture_jp":"茨城県","jp_add_1":"筑西市","jp_add_2":"清水"},"3091123":{"post_code":"3091123","prefecture":"IBARAKI KEN","city":"CHIKUSEI SHI","town":"SHIMOGOYA","perfecture_jp":"茨城県","jp_add_1":"筑西市","jp_add_2":"下郷谷"},"3091122":{"post_code":"3091122","prefecture":"IBARAKI KEN","city":"CHIKUSEI SHI","town":"SHIMOHOSHIYA","perfecture_jp":"茨城県","jp_add_1":"筑西市","jp_add_2":"下星谷"},"3091124":{"post_code":"3091124","prefecture":"IBARAKI KEN","city":"CHIKUSEI SHI","town":"CHIGYO","perfecture_jp":"茨城県","jp_add_1":"筑西市","jp_add_2":"知行"},"3091106":{"post_code":"3091106","prefecture":"IBARAKI KEN","city":"CHIKUSEI SHI","town":"NIIHARI","perfecture_jp":"茨城県","jp_add_1":"筑西市","jp_add_2":"新治"},"3091115":{"post_code":"3091115","prefecture":"IBARAKI KEN","city":"CHIKUSEI SHI","town":"HASUNUMA","perfecture_jp":"茨城県","jp_add_1":"筑西市","jp_add_2":"蓮沼"},"3091104":{"post_code":"3091104","prefecture":"IBARAKI KEN","city":"CHIKUSEI SHI","town":"FURUGORI","perfecture_jp":"茨城県","jp_add_1":"筑西市","jp_add_2":"古郡"},"3091114":{"post_code":"3091114","prefecture":"IBARAKI KEN","city":"CHIKUSEI SHI","town":"HOSODA","perfecture_jp":"茨城県","jp_add_1":"筑西市","jp_add_2":"細田"},"3091117":{"post_code":"3091117","prefecture":"IBARAKI KEN","city":"CHIKUSEI SHI","town":"MUKOKAWASUMI","perfecture_jp":"茨城県","jp_add_1":"筑西市","jp_add_2":"向川澄"},"3091121":{"post_code":"3091121","prefecture":"IBARAKI KEN","city":"CHIKUSEI SHI","town":"YANAGASHIMA","perfecture_jp":"茨城県","jp_add_1":"筑西市","jp_add_2":"谷永島"},"3091113":{"post_code":"3091113","prefecture":"IBARAKI KEN","city":"CHIKUSEI SHI","town":"YANAGI","perfecture_jp":"茨城県","jp_add_1":"筑西市","jp_add_2":"柳"},"3091112":{"post_code":"3091112","prefecture":"IBARAKI KEN","city":"CHIKUSEI SHI","town":"YAHATA","perfecture_jp":"茨城県","jp_add_1":"筑西市","jp_add_2":"八幡"},"3091116":{"post_code":"3091116","prefecture":"IBARAKI KEN","city":"CHIKUSEI SHI","town":"YOKOTSUKA","perfecture_jp":"茨城県","jp_add_1":"筑西市","jp_add_2":"横塚"},"3091102":{"post_code":"3091102","prefecture":"IBARAKI KEN","city":"CHIKUSEI SHI","town":"YOMOGITA","perfecture_jp":"茨城県","jp_add_1":"筑西市","jp_add_2":"蓬田"},"3091200":{"post_code":"3091200","prefecture":"IBARAKI KEN","city":"SAKURAGAWA SHI","town":"IKANIKEISAIGANAIBAAI","perfecture_jp":"茨城県","jp_add_1":"桜川市","jp_add_2":""},"3091241":{"post_code":"3091241","prefecture":"IBARAKI KEN","city":"SAKURAGAWA SHI","town":"AOKI","perfecture_jp":"茨城県","jp_add_1":"桜川市","jp_add_2":"青木"},"3091456":{"post_code":"3091456","prefecture":"IBARAKI KEN","city":"SAKURAGAWA SHI","town":"AOYAGI","perfecture_jp":"茨城県","jp_add_1":"桜川市","jp_add_2":"青柳"},"3091216":{"post_code":"3091216","prefecture":"IBARAKI KEN","city":"SAKURAGAWA SHI","town":"ASUKA","perfecture_jp":"茨城県","jp_add_1":"桜川市","jp_add_2":"明日香"},"3091234":{"post_code":"3091234","prefecture":"IBARAKI KEN","city":"SAKURAGAWA SHI","town":"ABETA","perfecture_jp":"茨城県","jp_add_1":"桜川市","jp_add_2":"阿部田"},"3091202":{"post_code":"3091202","prefecture":"IBARAKI KEN","city":"SAKURAGAWA SHI","town":"IIBUCHI","perfecture_jp":"茨城県","jp_add_1":"桜川市","jp_add_2":"飯淵"},"3091332":{"post_code":"3091332","prefecture":"IBARAKI KEN","city":"SAKURAGAWA SHI","town":"IKEGAME","perfecture_jp":"茨城県","jp_add_1":"桜川市","jp_add_2":"池亀"},"3091457":{"post_code":"3091457","prefecture":"IBARAKI KEN","city":"SAKURAGAWA SHI","town":"ISOBE","perfecture_jp":"茨城県","jp_add_1":"桜川市","jp_add_2":"磯部"},"3091458":{"post_code":"3091458","prefecture":"IBARAKI KEN","city":"SAKURAGAWA SHI","town":"INA","perfecture_jp":"茨城県","jp_add_1":"桜川市","jp_add_2":"稲"},"3091217":{"post_code":"3091217","prefecture":"IBARAKI KEN","city":"SAKURAGAWA SHI","town":"INUTA","perfecture_jp":"茨城県","jp_add_1":"桜川市","jp_add_2":"犬田"},"3091464":{"post_code":"3091464","prefecture":"IBARAKI KEN","city":"SAKURAGAWA SHI","town":"IMAIZUMI","perfecture_jp":"茨城県","jp_add_1":"桜川市","jp_add_2":"今泉"},"3091345":{"post_code":"3091345","prefecture":"IBARAKI KEN","city":"SAKURAGAWA SHI","town":"IRINO","perfecture_jp":"茨城県","jp_add_1":"桜川市","jp_add_2":"入野"},"3091211":{"post_code":"3091211","prefecture":"IBARAKI KEN","city":"SAKURAGAWA SHI","town":"IWASE","perfecture_jp":"茨城県","jp_add_1":"桜川市","jp_add_2":"岩瀬"},"3091226":{"post_code":"3091226","prefecture":"IBARAKI KEN","city":"SAKURAGAWA SHI","town":"UENOHARACHISHINDEN","perfecture_jp":"茨城県","jp_add_1":"桜川市","jp_add_2":"上野原地新田"},"3091201":{"post_code":"3091201","prefecture":"IBARAKI KEN","city":"SAKURAGAWA SHI","town":"OIZUMI","perfecture_jp":"茨城県","jp_add_1":"桜川市","jp_add_2":"大泉"},"3091244":{"post_code":"3091244","prefecture":"IBARAKI KEN","city":"SAKURAGAWA SHI","town":"OKUNITAMA","perfecture_jp":"茨城県","jp_add_1":"桜川市","jp_add_2":"大国玉"},"3091232":{"post_code":"3091232","prefecture":"IBARAKI KEN","city":"SAKURAGAWA SHI","town":"OZONE","perfecture_jp":"茨城県","jp_add_1":"桜川市","jp_add_2":"大曽根"},"3091335":{"post_code":"3091335","prefecture":"IBARAKI KEN","city":"SAKURAGAWA SHI","town":"OTSUKI","perfecture_jp":"茨城県","jp_add_1":"桜川市","jp_add_2":"大月"},"3091222":{"post_code":"3091222","prefecture":"IBARAKI KEN","city":"SAKURAGAWA SHI","town":"OSAKATA","perfecture_jp":"茨城県","jp_add_1":"桜川市","jp_add_2":"長方"},"3091341":{"post_code":"3091341","prefecture":"IBARAKI KEN","city":"SAKURAGAWA SHI","town":"KADOKE","perfecture_jp":"茨城県","jp_add_1":"桜川市","jp_add_2":"門毛"},"3091245":{"post_code":"3091245","prefecture":"IBARAKI KEN","city":"SAKURAGAWA SHI","town":"KANASHIKI","perfecture_jp":"茨城県","jp_add_1":"桜川市","jp_add_2":"金敷"},"3091454":{"post_code":"3091454","prefecture":"IBARAKI KEN","city":"SAKURAGAWA SHI","town":"KAMISHIRO","perfecture_jp":"茨城県","jp_add_1":"桜川市","jp_add_2":"上城"},"3091343":{"post_code":"3091343","prefecture":"IBARAKI KEN","city":"SAKURAGAWA SHI","town":"KAMEOKA","perfecture_jp":"茨城県","jp_add_1":"桜川市","jp_add_2":"亀岡"},"3091452":{"post_code":"3091452","prefecture":"IBARAKI KEN","city":"SAKURAGAWA SHI","town":"KAMOBE","perfecture_jp":"茨城県","jp_add_1":"桜川市","jp_add_2":"加茂部"},"3091465":{"post_code":"3091465","prefecture":"IBARAKI KEN","city":"SAKURAGAWA SHI","town":"KIUE","perfecture_jp":"茨城県","jp_add_1":"桜川市","jp_add_2":"木植"},"3091204":{"post_code":"3091204","prefecture":"IBARAKI KEN","city":"SAKURAGAWA SHI","town":"KUBARA","perfecture_jp":"茨城県","jp_add_1":"桜川市","jp_add_2":"久原"},"3091223":{"post_code":"3091223","prefecture":"IBARAKI KEN","city":"SAKURAGAWA SHI","town":"KUWADA","perfecture_jp":"茨城県","jp_add_1":"桜川市","jp_add_2":"鍬田"},"3091336":{"post_code":"3091336","prefecture":"IBARAKI KEN","city":"SAKURAGAWA SHI","town":"KOSHIO","perfecture_jp":"茨城県","jp_add_1":"桜川市","jp_add_2":"小塩"},"3091215":{"post_code":"3091215","prefecture":"IBARAKI KEN","city":"SAKURAGAWA SHI","town":"GORYO","perfecture_jp":"茨城県","jp_add_1":"桜川市","jp_add_2":"御領"},"3091334":{"post_code":"3091334","prefecture":"IBARAKI KEN","city":"SAKURAGAWA SHI","town":"SAKAMOTO","perfecture_jp":"茨城県","jp_add_1":"桜川市","jp_add_2":"坂本"},"3091466":{"post_code":"3091466","prefecture":"IBARAKI KEN","city":"SAKURAGAWA SHI","town":"SARUDA","perfecture_jp":"茨城県","jp_add_1":"桜川市","jp_add_2":"猿田"},"3091225":{"post_code":"3091225","prefecture":"IBARAKI KEN","city":"SAKURAGAWA SHI","town":"SHIMOIZUMI","perfecture_jp":"茨城県","jp_add_1":"桜川市","jp_add_2":"下泉"},"3091462":{"post_code":"3091462","prefecture":"IBARAKI KEN","city":"SAKURAGAWA SHI","town":"SONE","perfecture_jp":"茨城県","jp_add_1":"桜川市","jp_add_2":"曽根"},"3091243":{"post_code":"3091243","prefecture":"IBARAKI KEN","city":"SAKURAGAWA SHI","town":"TAKAKU","perfecture_jp":"茨城県","jp_add_1":"桜川市","jp_add_2":"高久"},"3091463":{"post_code":"3091463","prefecture":"IBARAKI KEN","city":"SAKURAGAWA SHI","town":"TAKAHATA","perfecture_jp":"茨城県","jp_add_1":"桜川市","jp_add_2":"高幡"},"3091246":{"post_code":"3091246","prefecture":"IBARAKI KEN","city":"SAKURAGAWA SHI","town":"TAKAMORI","perfecture_jp":"茨城県","jp_add_1":"桜川市","jp_add_2":"高森"},"3091205":{"post_code":"3091205","prefecture":"IBARAKI KEN","city":"SAKURAGAWA SHI","town":"TSUTSUMINOE","perfecture_jp":"茨城県","jp_add_1":"桜川市","jp_add_2":"堤上"},"3091203":{"post_code":"3091203","prefecture":"IBARAKI KEN","city":"SAKURAGAWA SHI","town":"TOMIOKA","perfecture_jp":"茨城県","jp_add_1":"桜川市","jp_add_2":"富岡"},"3091347":{"post_code":"3091347","prefecture":"IBARAKI KEN","city":"SAKURAGAWA SHI","town":"TOMIYA","perfecture_jp":"茨城県","jp_add_1":"桜川市","jp_add_2":"富谷"},"3091453":{"post_code":"3091453","prefecture":"IBARAKI KEN","city":"SAKURAGAWA SHI","town":"TOMOBE","perfecture_jp":"茨城県","jp_add_1":"桜川市","jp_add_2":"友部"},"3091224":{"post_code":"3091224","prefecture":"IBARAKI KEN","city":"SAKURAGAWA SHI","town":"NAKAIZUMI","perfecture_jp":"茨城県","jp_add_1":"桜川市","jp_add_2":"中泉"},"3091346":{"post_code":"3091346","prefecture":"IBARAKI KEN","city":"SAKURAGAWA SHI","town":"NAKAZATO","perfecture_jp":"茨城県","jp_add_1":"桜川市","jp_add_2":"中里"},"3091221":{"post_code":"3091221","prefecture":"IBARAKI KEN","city":"SAKURAGAWA SHI","town":"NISHIIIOKA","perfecture_jp":"茨城県","jp_add_1":"桜川市","jp_add_2":"西飯岡"},"3091451":{"post_code":"3091451","prefecture":"IBARAKI KEN","city":"SAKURAGAWA SHI","town":"NISHIKOBANAWA","perfecture_jp":"茨城県","jp_add_1":"桜川市","jp_add_2":"西小塙"},"3091213":{"post_code":"3091213","prefecture":"IBARAKI KEN","city":"SAKURAGAWA SHI","town":"NISHISAKURAGAWA","perfecture_jp":"茨城県","jp_add_1":"桜川市","jp_add_2":"西桜川"},"3091242":{"post_code":"3091242","prefecture":"IBARAKI KEN","city":"SAKURAGAWA SHI","town":"HANETA","perfecture_jp":"茨城県","jp_add_1":"桜川市","jp_add_2":"羽田"},"3091233":{"post_code":"3091233","prefecture":"IBARAKI KEN","city":"SAKURAGAWA SHI","town":"HIGASHIIIDA","perfecture_jp":"茨城県","jp_add_1":"桜川市","jp_add_2":"東飯田"},"3091214":{"post_code":"3091214","prefecture":"IBARAKI KEN","city":"SAKURAGAWA SHI","town":"HIGASHISAKURAGAWA","perfecture_jp":"茨城県","jp_add_1":"桜川市","jp_add_2":"東桜川"},"3091331":{"post_code":"3091331","prefecture":"IBARAKI KEN","city":"SAKURAGAWA SHI","town":"HIRASAWA","perfecture_jp":"茨城県","jp_add_1":"桜川市","jp_add_2":"平澤"},"3091337":{"post_code":"3091337","prefecture":"IBARAKI KEN","city":"SAKURAGAWA SHI","town":"FUKUZAKI","perfecture_jp":"茨城県","jp_add_1":"桜川市","jp_add_2":"福崎"},"3091212":{"post_code":"3091212","prefecture":"IBARAKI KEN","city":"SAKURAGAWA SHI","town":"FUJIMIDAI","perfecture_jp":"茨城県","jp_add_1":"桜川市","jp_add_2":"富士見台"},"3091227":{"post_code":"3091227","prefecture":"IBARAKI KEN","city":"SAKURAGAWA SHI","town":"HONGO","perfecture_jp":"茨城県","jp_add_1":"桜川市","jp_add_2":"本郷"},"3091461":{"post_code":"3091461","prefecture":"IBARAKI KEN","city":"SAKURAGAWA SHI","town":"MATSUDA","perfecture_jp":"茨城県","jp_add_1":"桜川市","jp_add_2":"松田"},"3091342":{"post_code":"3091342","prefecture":"IBARAKI KEN","city":"SAKURAGAWA SHI","town":"MANAKA","perfecture_jp":"茨城県","jp_add_1":"桜川市","jp_add_2":"間中"},"3091455":{"post_code":"3091455","prefecture":"IBARAKI KEN","city":"SAKURAGAWA SHI","town":"MITO","perfecture_jp":"茨城県","jp_add_1":"桜川市","jp_add_2":"水戸"},"3091344":{"post_code":"3091344","prefecture":"IBARAKI KEN","city":"SAKURAGAWA SHI","town":"MINAMIIIDA","perfecture_jp":"茨城県","jp_add_1":"桜川市","jp_add_2":"南飯田"},"3091231":{"post_code":"3091231","prefecture":"IBARAKI KEN","city":"SAKURAGAWA SHI","town":"MOTOGI","perfecture_jp":"茨城県","jp_add_1":"桜川市","jp_add_2":"本木"},"3091333":{"post_code":"3091333","prefecture":"IBARAKI KEN","city":"SAKURAGAWA SHI","town":"YAMAGUCHI","perfecture_jp":"茨城県","jp_add_1":"桜川市","jp_add_2":"山口"}}