{"3100000":{"post_code":"3100000","prefecture":"IBARAKI KEN","city":"MITO SHI","town":"IKANIKEISAIGANAIBAAI","perfecture_jp":"茨城県","jp_add_1":"水戸市","jp_add_2":""},"3100004":{"post_code":"3100004","prefecture":"IBARAKI KEN","city":"MITO SHI","town":"AOYAGICHO","perfecture_jp":"茨城県","jp_add_1":"水戸市","jp_add_2":"青柳町"},"3100822":{"post_code":"3100822","prefecture":"IBARAKI KEN","city":"MITO SHI","town":"AKUTSUONO","perfecture_jp":"茨城県","jp_add_1":"水戸市","jp_add_2":"圷大野"},"3100046":{"post_code":"3100046","prefecture":"IBARAKI KEN","city":"MITO SHI","town":"AKEBONOCHO","perfecture_jp":"茨城県","jp_add_1":"水戸市","jp_add_2":"曙町"},"3100831":{"post_code":"3100831","prefecture":"IBARAKI KEN","city":"MITO SHI","town":"ASAHICHO","perfecture_jp":"茨城県","jp_add_1":"水戸市","jp_add_2":"朝日町"},"3100054":{"post_code":"3100054","prefecture":"IBARAKI KEN","city":"MITO SHI","town":"ATAGOCHO","perfecture_jp":"茨城県","jp_add_1":"水戸市","jp_add_2":"愛宕町"},"3100905":{"post_code":"3100905","prefecture":"IBARAKI KEN","city":"MITO SHI","town":"ISHIKAWA","perfecture_jp":"茨城県","jp_add_1":"水戸市","jp_add_2":"石川"},"3100904":{"post_code":"3100904","prefecture":"IBARAKI KEN","city":"MITO SHI","town":"ISHIKAWACHO","perfecture_jp":"茨城県","jp_add_1":"水戸市","jp_add_2":"石川町"},"3100026":{"post_code":"3100026","prefecture":"IBARAKI KEN","city":"MITO SHI","town":"IZUMICHO","perfecture_jp":"茨城県","jp_add_1":"水戸市","jp_add_2":"泉町"},"3100062":{"post_code":"3100062","prefecture":"IBARAKI KEN","city":"MITO SHI","town":"OMACHI","perfecture_jp":"茨城県","jp_add_1":"水戸市","jp_add_2":"大町"},"3100852":{"post_code":"3100852","prefecture":"IBARAKI KEN","city":"MITO SHI","town":"KASAHARACHO","perfecture_jp":"茨城県","jp_add_1":"水戸市","jp_add_2":"笠原町"},"3100066":{"post_code":"3100066","prefecture":"IBARAKI KEN","city":"MITO SHI","town":"KANEMACHI","perfecture_jp":"茨城県","jp_add_1":"水戸市","jp_add_2":"金町"},"3100001":{"post_code":"3100001","prefecture":"IBARAKI KEN","city":"MITO SHI","town":"KAMIGACHICHO","perfecture_jp":"茨城県","jp_add_1":"水戸市","jp_add_2":"上河内町"},"3100041":{"post_code":"3100041","prefecture":"IBARAKI KEN","city":"MITO SHI","town":"KAMIMITO","perfecture_jp":"茨城県","jp_add_1":"水戸市","jp_add_2":"上水戸"},"3100814":{"post_code":"3100814","prefecture":"IBARAKI KEN","city":"MITO SHI","town":"KAWARAYA","perfecture_jp":"茨城県","jp_add_1":"水戸市","jp_add_2":"瓦谷"},"3100061":{"post_code":"3100061","prefecture":"IBARAKI KEN","city":"MITO SHI","town":"KITAMICHO","perfecture_jp":"茨城県","jp_add_1":"水戸市","jp_add_2":"北見町"},"3100842":{"post_code":"3100842","prefecture":"IBARAKI KEN","city":"MITO SHI","town":"KEYAKIDAI","perfecture_jp":"茨城県","jp_add_1":"水戸市","jp_add_2":"けやき台"},"3100063":{"post_code":"3100063","prefecture":"IBARAKI KEN","city":"MITO SHI","town":"GOKENCHO","perfecture_jp":"茨城県","jp_add_1":"水戸市","jp_add_2":"五軒町"},"3100914":{"post_code":"3100914","prefecture":"IBARAKI KEN","city":"MITO SHI","town":"KOBUKICHO","perfecture_jp":"茨城県","jp_add_1":"水戸市","jp_add_2":"小吹町"},"3100816":{"post_code":"3100816","prefecture":"IBARAKI KEN","city":"MITO SHI","town":"KONYACHO","perfecture_jp":"茨城県","jp_add_1":"水戸市","jp_add_2":"紺屋町"},"3100064":{"post_code":"3100064","prefecture":"IBARAKI KEN","city":"MITO SHI","town":"SAKAECHO","perfecture_jp":"茨城県","jp_add_1":"水戸市","jp_add_2":"栄町"},"3100841":{"post_code":"3100841","prefecture":"IBARAKI KEN","city":"MITO SHI","town":"SAKADOCHO","perfecture_jp":"茨城県","jp_add_1":"水戸市","jp_add_2":"酒門町"},"3100802":{"post_code":"3100802","prefecture":"IBARAKI KEN","city":"MITO SHI","town":"SAKUMACHI","perfecture_jp":"茨城県","jp_add_1":"水戸市","jp_add_2":"柵町"},"3100801":{"post_code":"3100801","prefecture":"IBARAKI KEN","city":"MITO SHI","town":"SAKURAGAWA","perfecture_jp":"茨城県","jp_add_1":"水戸市","jp_add_2":"桜川"},"3100011":{"post_code":"3100011","prefecture":"IBARAKI KEN","city":"MITO SHI","town":"SANNOMARU","perfecture_jp":"茨城県","jp_add_1":"水戸市","jp_add_2":"三の丸"},"3100826":{"post_code":"3100826","prefecture":"IBARAKI KEN","city":"MITO SHI","town":"SHIBUICHO","perfecture_jp":"茨城県","jp_add_1":"水戸市","jp_add_2":"渋井町"},"3100023":{"post_code":"3100023","prefecture":"IBARAKI KEN","city":"MITO SHI","town":"SHIMOBAIKO","perfecture_jp":"茨城県","jp_add_1":"水戸市","jp_add_2":"下梅香"},"3100042":{"post_code":"3100042","prefecture":"IBARAKI KEN","city":"MITO SHI","town":"JIYUGAOKA","perfecture_jp":"茨城県","jp_add_1":"水戸市","jp_add_2":"自由が丘"},"3100012":{"post_code":"3100012","prefecture":"IBARAKI KEN","city":"MITO SHI","town":"JOTO","perfecture_jp":"茨城県","jp_add_1":"水戸市","jp_add_2":"城東"},"3100803":{"post_code":"3100803","prefecture":"IBARAKI KEN","city":"MITO SHI","town":"JONAN","perfecture_jp":"茨城県","jp_add_1":"水戸市","jp_add_2":"城南"},"3100804":{"post_code":"3100804","prefecture":"IBARAKI KEN","city":"MITO SHI","town":"SHIRAUME","perfecture_jp":"茨城県","jp_add_1":"水戸市","jp_add_2":"白梅"},"3100036":{"post_code":"3100036","prefecture":"IBARAKI KEN","city":"MITO SHI","town":"SHINSO","perfecture_jp":"茨城県","jp_add_1":"水戸市","jp_add_2":"新荘"},"3100045":{"post_code":"3100045","prefecture":"IBARAKI KEN","city":"MITO SHI","town":"SHINHARA","perfecture_jp":"茨城県","jp_add_1":"水戸市","jp_add_2":"新原"},"3100005":{"post_code":"3100005","prefecture":"IBARAKI KEN","city":"MITO SHI","town":"SUIFUCHO","perfecture_jp":"茨城県","jp_add_1":"水戸市","jp_add_2":"水府町"},"3100053":{"post_code":"3100053","prefecture":"IBARAKI KEN","city":"MITO SHI","town":"SUEHIROCHO","perfecture_jp":"茨城県","jp_add_1":"水戸市","jp_add_2":"末広町"},"3100844":{"post_code":"3100844","prefecture":"IBARAKI KEN","city":"MITO SHI","town":"SUMIYOSHICHO","perfecture_jp":"茨城県","jp_add_1":"水戸市","jp_add_2":"住吉町"},"3100851":{"post_code":"3100851","prefecture":"IBARAKI KEN","city":"MITO SHI","town":"SEMBACHO","perfecture_jp":"茨城県","jp_add_1":"水戸市","jp_add_2":"千波町"},"3100031":{"post_code":"3100031","prefecture":"IBARAKI KEN","city":"MITO SHI","town":"DAIKUMACHI","perfecture_jp":"茨城県","jp_add_1":"水戸市","jp_add_2":"大工町"},"3100901":{"post_code":"3100901","prefecture":"IBARAKI KEN","city":"MITO SHI","town":"TANOCHO","perfecture_jp":"茨城県","jp_add_1":"水戸市","jp_add_2":"田野町"},"3100051":{"post_code":"3100051","prefecture":"IBARAKI KEN","city":"MITO SHI","town":"CHITOSE","perfecture_jp":"茨城県","jp_add_1":"水戸市","jp_add_2":"ちとせ"},"3100805":{"post_code":"3100805","prefecture":"IBARAKI KEN","city":"MITO SHI","town":"CHUO","perfecture_jp":"茨城県","jp_add_1":"水戸市","jp_add_2":"中央"},"3100025":{"post_code":"3100025","prefecture":"IBARAKI KEN","city":"MITO SHI","town":"TENNOCHO","perfecture_jp":"茨城県","jp_add_1":"水戸市","jp_add_2":"天王町"},"3100846":{"post_code":"3100846","prefecture":"IBARAKI KEN","city":"MITO SHI","town":"TONOCHO","perfecture_jp":"茨城県","jp_add_1":"水戸市","jp_add_2":"東野町"},"3100033":{"post_code":"3100033","prefecture":"IBARAKI KEN","city":"MITO SHI","town":"TOKIWACHO","perfecture_jp":"茨城県","jp_add_1":"水戸市","jp_add_2":"常磐町"},"3100821":{"post_code":"3100821","prefecture":"IBARAKI KEN","city":"MITO SHI","town":"NAKAONO","perfecture_jp":"茨城県","jp_add_1":"水戸市","jp_add_2":"中大野"},"3100002":{"post_code":"3100002","prefecture":"IBARAKI KEN","city":"MITO SHI","town":"NAKAGACHICHO","perfecture_jp":"茨城県","jp_add_1":"水戸市","jp_add_2":"中河内町"},"3100824":{"post_code":"3100824","prefecture":"IBARAKI KEN","city":"MITO SHI","town":"NISHIONO","perfecture_jp":"茨城県","jp_add_1":"水戸市","jp_add_2":"西大野"},"3100044":{"post_code":"3100044","prefecture":"IBARAKI KEN","city":"MITO SHI","town":"NISHIHARA","perfecture_jp":"茨城県","jp_add_1":"水戸市","jp_add_2":"西原"},"3100067":{"post_code":"3100067","prefecture":"IBARAKI KEN","city":"MITO SHI","town":"NEMOTO","perfecture_jp":"茨城県","jp_add_1":"水戸市","jp_add_2":"根本"},"3100068":{"post_code":"3100068","prefecture":"IBARAKI KEN","city":"MITO SHI","town":"NEMOTOCHO","perfecture_jp":"茨城県","jp_add_1":"水戸市","jp_add_2":"根本町"},"3100022":{"post_code":"3100022","prefecture":"IBARAKI KEN","city":"MITO SHI","town":"BAIKO","perfecture_jp":"茨城県","jp_add_1":"水戸市","jp_add_2":"梅香"},"3100055":{"post_code":"3100055","prefecture":"IBARAKI KEN","city":"MITO SHI","town":"HAKAMATSUKA","perfecture_jp":"茨城県","jp_add_1":"水戸市","jp_add_2":"袴塚"},"3100065":{"post_code":"3100065","prefecture":"IBARAKI KEN","city":"MITO SHI","town":"HACHIMANCHO","perfecture_jp":"茨城県","jp_add_1":"水戸市","jp_add_2":"八幡町"},"3100812":{"post_code":"3100812","prefecture":"IBARAKI KEN","city":"MITO SHI","town":"HAMADA","perfecture_jp":"茨城県","jp_add_1":"水戸市","jp_add_2":"浜田"},"3100813":{"post_code":"3100813","prefecture":"IBARAKI KEN","city":"MITO SHI","town":"HAMADACHO","perfecture_jp":"茨城県","jp_add_1":"水戸市","jp_add_2":"浜田町"},"3100823":{"post_code":"3100823","prefecture":"IBARAKI KEN","city":"MITO SHI","town":"HIGASHIONO","perfecture_jp":"茨城県","jp_add_1":"水戸市","jp_add_2":"東大野"},"3100811":{"post_code":"3100811","prefecture":"IBARAKI KEN","city":"MITO SHI","town":"HIGASHISAKURAGAWA","perfecture_jp":"茨城県","jp_add_1":"水戸市","jp_add_2":"東桜川"},"3100818":{"post_code":"3100818","prefecture":"IBARAKI KEN","city":"MITO SHI","town":"HIGASHIDAI","perfecture_jp":"茨城県","jp_add_1":"水戸市","jp_add_2":"東台"},"3100035":{"post_code":"3100035","prefecture":"IBARAKI KEN","city":"MITO SHI","town":"HIGASHIHARA","perfecture_jp":"茨城県","jp_add_1":"水戸市","jp_add_2":"東原"},"3100024":{"post_code":"3100024","prefecture":"IBARAKI KEN","city":"MITO SHI","town":"BIZEMMACHI","perfecture_jp":"茨城県","jp_add_1":"水戸市","jp_add_2":"備前町"},"3100853":{"post_code":"3100853","prefecture":"IBARAKI KEN","city":"MITO SHI","town":"HIRASUCHO","perfecture_jp":"茨城県","jp_add_1":"水戸市","jp_add_2":"平須町"},"3100833":{"post_code":"3100833","prefecture":"IBARAKI KEN","city":"MITO SHI","town":"FUJIGARACHO","perfecture_jp":"茨城県","jp_add_1":"水戸市","jp_add_2":"藤柄町"},"3100056":{"post_code":"3100056","prefecture":"IBARAKI KEN","city":"MITO SHI","town":"BUNKYO","perfecture_jp":"茨城県","jp_add_1":"水戸市","jp_add_2":"文京"},"3100903":{"post_code":"3100903","prefecture":"IBARAKI KEN","city":"MITO SHI","town":"HORICHO","perfecture_jp":"茨城県","jp_add_1":"水戸市","jp_add_2":"堀町"},"3100815":{"post_code":"3100815","prefecture":"IBARAKI KEN","city":"MITO SHI","town":"HONCHO","perfecture_jp":"茨城県","jp_add_1":"水戸市","jp_add_2":"本町"},"3100043":{"post_code":"3100043","prefecture":"IBARAKI KEN","city":"MITO SHI","town":"MATSUGAOKA","perfecture_jp":"茨城県","jp_add_1":"水戸市","jp_add_2":"松が丘"},"3100052":{"post_code":"3100052","prefecture":"IBARAKI KEN","city":"MITO SHI","town":"MATSUMOTOCHO","perfecture_jp":"茨城県","jp_add_1":"水戸市","jp_add_2":"松本町"},"3100912":{"post_code":"3100912","prefecture":"IBARAKI KEN","city":"MITO SHI","town":"MIGAWA","perfecture_jp":"茨城県","jp_add_1":"水戸市","jp_add_2":"見川"},"3100913":{"post_code":"3100913","prefecture":"IBARAKI KEN","city":"MITO SHI","town":"MIGAWACHO","perfecture_jp":"茨城県","jp_add_1":"水戸市","jp_add_2":"見川町"},"3100034":{"post_code":"3100034","prefecture":"IBARAKI KEN","city":"MITO SHI","town":"MIDORICHO","perfecture_jp":"茨城県","jp_add_1":"水戸市","jp_add_2":"緑町"},"3100021":{"post_code":"3100021","prefecture":"IBARAKI KEN","city":"MITO SHI","town":"MINAMIMACHI","perfecture_jp":"茨城県","jp_add_1":"水戸市","jp_add_2":"南町"},"3100834":{"post_code":"3100834","prefecture":"IBARAKI KEN","city":"MITO SHI","town":"MIYAUCHICHO","perfecture_jp":"茨城県","jp_add_1":"水戸市","jp_add_2":"宮内町"},"3100015":{"post_code":"3100015","prefecture":"IBARAKI KEN","city":"MITO SHI","town":"MIYAMACHI","perfecture_jp":"茨城県","jp_add_1":"水戸市","jp_add_2":"宮町"},"3100911":{"post_code":"3100911","prefecture":"IBARAKI KEN","city":"MITO SHI","town":"MIWA","perfecture_jp":"茨城県","jp_add_1":"水戸市","jp_add_2":"見和"},"3100843":{"post_code":"3100843","prefecture":"IBARAKI KEN","city":"MITO SHI","town":"MOTOISHIKAWACHO","perfecture_jp":"茨城県","jp_add_1":"水戸市","jp_add_2":"元石川町"},"3100835":{"post_code":"3100835","prefecture":"IBARAKI KEN","city":"MITO SHI","town":"MOTODAIMACHI","perfecture_jp":"茨城県","jp_add_1":"水戸市","jp_add_2":"元台町"},"3100032":{"post_code":"3100032","prefecture":"IBARAKI KEN","city":"MITO SHI","town":"MOTOYAMACHO","perfecture_jp":"茨城県","jp_add_1":"水戸市","jp_add_2":"元山町"},"3100836":{"post_code":"3100836","prefecture":"IBARAKI KEN","city":"MITO SHI","town":"MOTOYOSHIDACHO","perfecture_jp":"茨城県","jp_add_1":"水戸市","jp_add_2":"元吉田町"},"3100825":{"post_code":"3100825","prefecture":"IBARAKI KEN","city":"MITO SHI","town":"YADACHO","perfecture_jp":"茨城県","jp_add_1":"水戸市","jp_add_2":"谷田町"},"3100003":{"post_code":"3100003","prefecture":"IBARAKI KEN","city":"MITO SHI","town":"YANAKAWACHO","perfecture_jp":"茨城県","jp_add_1":"水戸市","jp_add_2":"柳河町"},"3100817":{"post_code":"3100817","prefecture":"IBARAKI KEN","city":"MITO SHI","town":"YANAGIMACHI","perfecture_jp":"茨城県","jp_add_1":"水戸市","jp_add_2":"柳町"},"3100845":{"post_code":"3100845","prefecture":"IBARAKI KEN","city":"MITO SHI","town":"YOSHIZAWACHO","perfecture_jp":"茨城県","jp_add_1":"水戸市","jp_add_2":"吉沢町"},"3100832":{"post_code":"3100832","prefecture":"IBARAKI KEN","city":"MITO SHI","town":"YOSHIDA","perfecture_jp":"茨城県","jp_add_1":"水戸市","jp_add_2":"吉田"},"3100827":{"post_code":"3100827","prefecture":"IBARAKI KEN","city":"MITO SHI","town":"YOSHINUMACHO","perfecture_jp":"茨城県","jp_add_1":"水戸市","jp_add_2":"吉沼町"},"3100847":{"post_code":"3100847","prefecture":"IBARAKI KEN","city":"MITO SHI","town":"YONEZAWACHO","perfecture_jp":"茨城県","jp_add_1":"水戸市","jp_add_2":"米沢町"},"3100013":{"post_code":"3100013","prefecture":"IBARAKI KEN","city":"MITO SHI","town":"WAKAMIYA","perfecture_jp":"茨城県","jp_add_1":"水戸市","jp_add_2":"若宮"},"3100014":{"post_code":"3100014","prefecture":"IBARAKI KEN","city":"MITO SHI","town":"WAKAMIYACHO","perfecture_jp":"茨城県","jp_add_1":"水戸市","jp_add_2":"若宮町"},"3100902":{"post_code":"3100902","prefecture":"IBARAKI KEN","city":"MITO SHI","town":"WATARICHO","perfecture_jp":"茨城県","jp_add_1":"水戸市","jp_add_2":"渡里町"}}