{"3130000":{"post_code":"3130000","prefecture":"IBARAKI KEN","city":"HITACHIOTA SHI","town":"IKANIKEISAIGANAIBAAI","perfecture_jp":"茨城県","jp_add_1":"常陸太田市","jp_add_2":""},"3130102":{"post_code":"3130102","prefecture":"IBARAKI KEN","city":"HITACHIOTA SHI","town":"AKAZUCHICHO","perfecture_jp":"茨城県","jp_add_1":"常陸太田市","jp_add_2":"赤土町"},"3130121":{"post_code":"3130121","prefecture":"IBARAKI KEN","city":"HITACHIOTA SHI","town":"ASHIMACHO","perfecture_jp":"茨城県","jp_add_1":"常陸太田市","jp_add_2":"芦間町"},"3130132":{"post_code":"3130132","prefecture":"IBARAKI KEN","city":"HITACHIOTA SHI","town":"ARAJICHO","perfecture_jp":"茨城県","jp_add_1":"常陸太田市","jp_add_2":"新地町"},"3130007":{"post_code":"3130007","prefecture":"IBARAKI KEN","city":"HITACHIOTA SHI","town":"ARAJUKUCHO","perfecture_jp":"茨城県","jp_add_1":"常陸太田市","jp_add_2":"新宿町"},"3130045":{"post_code":"3130045","prefecture":"IBARAKI KEN","city":"HITACHIOTA SHI","town":"AWABARACHO","perfecture_jp":"茨城県","jp_add_1":"常陸太田市","jp_add_2":"粟原町"},"3130042":{"post_code":"3130042","prefecture":"IBARAKI KEN","city":"HITACHIOTA SHI","town":"ISOBECHO","perfecture_jp":"茨城県","jp_add_1":"常陸太田市","jp_add_2":"磯部町"},"3130041":{"post_code":"3130041","prefecture":"IBARAKI KEN","city":"HITACHIOTA SHI","town":"INAGICHO","perfecture_jp":"茨城県","jp_add_1":"常陸太田市","jp_add_2":"稲木町"},"3130112":{"post_code":"3130112","prefecture":"IBARAKI KEN","city":"HITACHIOTA SHI","town":"IWATECHO","perfecture_jp":"茨城県","jp_add_1":"常陸太田市","jp_add_2":"岩手町"},"3130037":{"post_code":"3130037","prefecture":"IBARAKI KEN","city":"HITACHIOTA SHI","town":"UCHIDACHO","perfecture_jp":"茨城県","jp_add_1":"常陸太田市","jp_add_2":"内田町"},"3130063":{"post_code":"3130063","prefecture":"IBARAKI KEN","city":"HITACHIOTA SHI","town":"UCHIBORICHO","perfecture_jp":"茨城県","jp_add_1":"常陸太田市","jp_add_2":"内堀町"},"3130116":{"post_code":"3130116","prefecture":"IBARAKI KEN","city":"HITACHIOTA SHI","town":"OKATACHO","perfecture_jp":"茨城県","jp_add_1":"常陸太田市","jp_add_2":"大方町"},"3130125":{"post_code":"3130125","prefecture":"IBARAKI KEN","city":"HITACHIOTA SHI","town":"OSATOCHO","perfecture_jp":"茨城県","jp_add_1":"常陸太田市","jp_add_2":"大里町"},"3130124":{"post_code":"3130124","prefecture":"IBARAKI KEN","city":"HITACHIOTA SHI","town":"ODAIRACHO","perfecture_jp":"茨城県","jp_add_1":"常陸太田市","jp_add_2":"大平町"},"3130021":{"post_code":"3130021","prefecture":"IBARAKI KEN","city":"HITACHIOTA SHI","town":"OMORICHO","perfecture_jp":"茨城県","jp_add_1":"常陸太田市","jp_add_2":"大森町"},"3130031":{"post_code":"3130031","prefecture":"IBARAKI KEN","city":"HITACHIOTA SHI","town":"OKADACHO","perfecture_jp":"茨城県","jp_add_1":"常陸太田市","jp_add_2":"岡田町"},"3130038":{"post_code":"3130038","prefecture":"IBARAKI KEN","city":"HITACHIOTA SHI","town":"OZAWACHO","perfecture_jp":"茨城県","jp_add_1":"常陸太田市","jp_add_2":"小沢町"},"3130135":{"post_code":"3130135","prefecture":"IBARAKI KEN","city":"HITACHIOTA SHI","town":"OJIMACHO","perfecture_jp":"茨城県","jp_add_1":"常陸太田市","jp_add_2":"小島町"},"3130036":{"post_code":"3130036","prefecture":"IBARAKI KEN","city":"HITACHIOTA SHI","town":"OCHIAICHO","perfecture_jp":"茨城県","jp_add_1":"常陸太田市","jp_add_2":"落合町"},"3130033":{"post_code":"3130033","prefecture":"IBARAKI KEN","city":"HITACHIOTA SHI","town":"OMECHO","perfecture_jp":"茨城県","jp_add_1":"常陸太田市","jp_add_2":"小目町"},"3130035":{"post_code":"3130035","prefecture":"IBARAKI KEN","city":"HITACHIOTA SHI","town":"KAKIWACHO","perfecture_jp":"茨城県","jp_add_1":"常陸太田市","jp_add_2":"堅磐町"},"3130016":{"post_code":"3130016","prefecture":"IBARAKI KEN","city":"HITACHIOTA SHI","town":"KANAICHO","perfecture_jp":"茨城県","jp_add_1":"常陸太田市","jp_add_2":"金井町"},"3130001":{"post_code":"3130001","prefecture":"IBARAKI KEN","city":"HITACHIOTA SHI","town":"KAMIOKADOCHO","perfecture_jp":"茨城県","jp_add_1":"常陸太田市","jp_add_2":"上大門町"},"3130046":{"post_code":"3130046","prefecture":"IBARAKI KEN","city":"HITACHIOTA SHI","town":"KAMIKAWAICHO","perfecture_jp":"茨城県","jp_add_1":"常陸太田市","jp_add_2":"上河合町"},"3130353":{"post_code":"3130353","prefecture":"IBARAKI KEN","city":"HITACHIOTA SHI","town":"KAMITAKAKURACHO","perfecture_jp":"茨城県","jp_add_1":"常陸太田市","jp_add_2":"上高倉町"},"3130034":{"post_code":"3130034","prefecture":"IBARAKI KEN","city":"HITACHIOTA SHI","town":"KAMIDOGIUCHICHO","perfecture_jp":"茨城県","jp_add_1":"常陸太田市","jp_add_2":"上土木内町"},"3130104":{"post_code":"3130104","prefecture":"IBARAKI KEN","city":"HITACHIOTA SHI","town":"KAMITOSHIKAZUCHO","perfecture_jp":"茨城県","jp_add_1":"常陸太田市","jp_add_2":"上利員町"},"3130101":{"post_code":"3130101","prefecture":"IBARAKI KEN","city":"HITACHIOTA SHI","town":"KAMIMIYAKAWAUCHICHO","perfecture_jp":"茨城県","jp_add_1":"常陸太田市","jp_add_2":"上宮河内町"},"3130023":{"post_code":"3130023","prefecture":"IBARAKI KEN","city":"HITACHIOTA SHI","town":"KAMEZAKUCHO","perfecture_jp":"茨城県","jp_add_1":"常陸太田市","jp_add_2":"亀作町"},"3130015":{"post_code":"3130015","prefecture":"IBARAKI KEN","city":"HITACHIOTA SHI","town":"KIZAKI ICHICHO","perfecture_jp":"茨城県","jp_add_1":"常陸太田市","jp_add_2":"木崎一町"},"3130014":{"post_code":"3130014","prefecture":"IBARAKI KEN","city":"HITACHIOTA SHI","town":"KIZAKI NICHO","perfecture_jp":"茨城県","jp_add_1":"常陸太田市","jp_add_2":"木崎二町"},"3130126":{"post_code":"3130126","prefecture":"IBARAKI KEN","city":"HITACHIOTA SHI","town":"KUSURIYACHO","perfecture_jp":"茨城県","jp_add_1":"常陸太田市","jp_add_2":"薬谷町"},"3130221":{"post_code":"3130221","prefecture":"IBARAKI KEN","city":"HITACHIOTA SHI","town":"KUNIYASUCHO","perfecture_jp":"茨城県","jp_add_1":"常陸太田市","jp_add_2":"国安町"},"3130123":{"post_code":"3130123","prefecture":"IBARAKI KEN","city":"HITACHIOTA SHI","town":"KUMECHO","perfecture_jp":"茨城県","jp_add_1":"常陸太田市","jp_add_2":"久米町"},"3130351":{"post_code":"3130351","prefecture":"IBARAKI KEN","city":"HITACHIOTA SHI","town":"KEGANOCHO","perfecture_jp":"茨城県","jp_add_1":"常陸太田市","jp_add_2":"天下野町"},"3130064":{"post_code":"3130064","prefecture":"IBARAKI KEN","city":"HITACHIOTA SHI","town":"KOTOBUKICHO","perfecture_jp":"茨城県","jp_add_1":"常陸太田市","jp_add_2":"寿町"},"3130005":{"post_code":"3130005","prefecture":"IBARAKI KEN","city":"HITACHIOTA SHI","town":"SAKAECHO","perfecture_jp":"茨城県","jp_add_1":"常陸太田市","jp_add_2":"栄町"},"3130032":{"post_code":"3130032","prefecture":"IBARAKI KEN","city":"HITACHIOTA SHI","town":"SAWAMECHO","perfecture_jp":"茨城県","jp_add_1":"常陸太田市","jp_add_2":"沢目町"},"3130012":{"post_code":"3130012","prefecture":"IBARAKI KEN","city":"HITACHIOTA SHI","town":"SANZAICHO","perfecture_jp":"茨城県","jp_add_1":"常陸太田市","jp_add_2":"三才町"},"3130047":{"post_code":"3130047","prefecture":"IBARAKI KEN","city":"HITACHIOTA SHI","town":"SHIMACHO","perfecture_jp":"茨城県","jp_add_1":"常陸太田市","jp_add_2":"島町"},"3130002":{"post_code":"3130002","prefecture":"IBARAKI KEN","city":"HITACHIOTA SHI","town":"SHIMOOKADOCHO","perfecture_jp":"茨城県","jp_add_1":"常陸太田市","jp_add_2":"下大門町"},"3130044":{"post_code":"3130044","prefecture":"IBARAKI KEN","city":"HITACHIOTA SHI","town":"SHIMOKAWAICHO","perfecture_jp":"茨城県","jp_add_1":"常陸太田市","jp_add_2":"下河合町"},"3130352":{"post_code":"3130352","prefecture":"IBARAKI KEN","city":"HITACHIOTA SHI","town":"SHIMOTAKAKURACHO","perfecture_jp":"茨城県","jp_add_1":"常陸太田市","jp_add_2":"下高倉町"},"3130106":{"post_code":"3130106","prefecture":"IBARAKI KEN","city":"HITACHIOTA SHI","town":"SHIMOTOSHIKAZUCHO","perfecture_jp":"茨城県","jp_add_1":"常陸太田市","jp_add_2":"下利員町"},"3130103":{"post_code":"3130103","prefecture":"IBARAKI KEN","city":"HITACHIOTA SHI","town":"SHIMOMIYAKAWAUCHICHO","perfecture_jp":"茨城県","jp_add_1":"常陸太田市","jp_add_2":"下宮河内町"},"3130003":{"post_code":"3130003","prefecture":"IBARAKI KEN","city":"HITACHIOTA SHI","town":"ZUIRYUCHO","perfecture_jp":"茨城県","jp_add_1":"常陸太田市","jp_add_2":"瑞龍町"},"3130111":{"post_code":"3130111","prefecture":"IBARAKI KEN","city":"HITACHIOTA SHI","town":"SENZUCHO","perfecture_jp":"茨城県","jp_add_1":"常陸太田市","jp_add_2":"千寿町"},"3130113":{"post_code":"3130113","prefecture":"IBARAKI KEN","city":"HITACHIOTA SHI","town":"TAKAGAKICHO","perfecture_jp":"茨城県","jp_add_1":"常陸太田市","jp_add_2":"高柿町"},"3130024":{"post_code":"3130024","prefecture":"IBARAKI KEN","city":"HITACHIOTA SHI","town":"TAKANUKICHO","perfecture_jp":"茨城県","jp_add_1":"常陸太田市","jp_add_2":"高貫町"},"3130115":{"post_code":"3130115","prefecture":"IBARAKI KEN","city":"HITACHIOTA SHI","town":"TAKEAICHO","perfecture_jp":"茨城県","jp_add_1":"常陸太田市","jp_add_2":"竹合町"},"3130225":{"post_code":"3130225","prefecture":"IBARAKI KEN","city":"HITACHIOTA SHI","town":"TANAYACHO","perfecture_jp":"茨城県","jp_add_1":"常陸太田市","jp_add_2":"棚谷町"},"3130122":{"post_code":"3130122","prefecture":"IBARAKI KEN","city":"HITACHIOTA SHI","town":"TAMATSUKURICHO","perfecture_jp":"茨城県","jp_add_1":"常陸太田市","jp_add_2":"玉造町"},"3130026":{"post_code":"3130026","prefecture":"IBARAKI KEN","city":"HITACHIOTA SHI","town":"TAWATARICHO","perfecture_jp":"茨城県","jp_add_1":"常陸太田市","jp_add_2":"田渡町"},"3130049":{"post_code":"3130049","prefecture":"IBARAKI KEN","city":"HITACHIOTA SHI","town":"TENJIMBAYASHICHO","perfecture_jp":"茨城県","jp_add_1":"常陸太田市","jp_add_2":"天神林町"},"3130224":{"post_code":"3130224","prefecture":"IBARAKI KEN","city":"HITACHIOTA SHI","town":"TORENJICHO","perfecture_jp":"茨城県","jp_add_1":"常陸太田市","jp_add_2":"東連地町"},"3130061":{"post_code":"3130061","prefecture":"IBARAKI KEN","city":"HITACHIOTA SHI","town":"NAKAJOCHO","perfecture_jp":"茨城県","jp_add_1":"常陸太田市","jp_add_2":"中城町"},"3130212":{"post_code":"3130212","prefecture":"IBARAKI KEN","city":"HITACHIOTA SHI","town":"NAKAZOMECHO","perfecture_jp":"茨城県","jp_add_1":"常陸太田市","jp_add_2":"中染町"},"3130105":{"post_code":"3130105","prefecture":"IBARAKI KEN","city":"HITACHIOTA SHI","town":"NAKATOSHIKAZUCHO","perfecture_jp":"茨城県","jp_add_1":"常陸太田市","jp_add_2":"中利員町"},"3130134":{"post_code":"3130134","prefecture":"IBARAKI KEN","city":"HITACHIOTA SHI","town":"NAKANOCHO","perfecture_jp":"茨城県","jp_add_1":"常陸太田市","jp_add_2":"中野町"},"3130056":{"post_code":"3130056","prefecture":"IBARAKI KEN","city":"HITACHIOTA SHI","town":"NISHIICHICHO","perfecture_jp":"茨城県","jp_add_1":"常陸太田市","jp_add_2":"西一町"},"3130055":{"post_code":"3130055","prefecture":"IBARAKI KEN","city":"HITACHIOTA SHI","town":"NISHINICHO","perfecture_jp":"茨城県","jp_add_1":"常陸太田市","jp_add_2":"西二町"},"3130054":{"post_code":"3130054","prefecture":"IBARAKI KEN","city":"HITACHIOTA SHI","town":"NISHISANCHO","perfecture_jp":"茨城県","jp_add_1":"常陸太田市","jp_add_2":"西三町"},"3130215":{"post_code":"3130215","prefecture":"IBARAKI KEN","city":"HITACHIOTA SHI","town":"NISHIZOMECHO","perfecture_jp":"茨城県","jp_add_1":"常陸太田市","jp_add_2":"西染町"},"3130011":{"post_code":"3130011","prefecture":"IBARAKI KEN","city":"HITACHIOTA SHI","town":"NISHIMIYACHO","perfecture_jp":"茨城県","jp_add_1":"常陸太田市","jp_add_2":"西宮町"},"3130027":{"post_code":"3130027","prefecture":"IBARAKI KEN","city":"HITACHIOTA SHI","town":"HASECHO","perfecture_jp":"茨城県","jp_add_1":"常陸太田市","jp_add_2":"長谷町"},"3130025":{"post_code":"3130025","prefecture":"IBARAKI KEN","city":"HITACHIOTA SHI","town":"HATACHO","perfecture_jp":"茨城県","jp_add_1":"常陸太田市","jp_add_2":"幡町"},"3130131":{"post_code":"3130131","prefecture":"IBARAKI KEN","city":"HITACHIOTA SHI","town":"HANABUSACHO","perfecture_jp":"茨城県","jp_add_1":"常陸太田市","jp_add_2":"花房町"},"3130062":{"post_code":"3130062","prefecture":"IBARAKI KEN","city":"HITACHIOTA SHI","town":"HANAWACHO","perfecture_jp":"茨城県","jp_add_1":"常陸太田市","jp_add_2":"塙町"},"3130004":{"post_code":"3130004","prefecture":"IBARAKI KEN","city":"HITACHIOTA SHI","town":"BABACHO","perfecture_jp":"茨城県","jp_add_1":"常陸太田市","jp_add_2":"馬場町"},"3130051":{"post_code":"3130051","prefecture":"IBARAKI KEN","city":"HITACHIOTA SHI","town":"HIGASHIICHICHO","perfecture_jp":"茨城県","jp_add_1":"常陸太田市","jp_add_2":"東一町"},"3130052":{"post_code":"3130052","prefecture":"IBARAKI KEN","city":"HITACHIOTA SHI","town":"HIGASHINICHO","perfecture_jp":"茨城県","jp_add_1":"常陸太田市","jp_add_2":"東二町"},"3130053":{"post_code":"3130053","prefecture":"IBARAKI KEN","city":"HITACHIOTA SHI","town":"HIGASHISANCHO","perfecture_jp":"茨城県","jp_add_1":"常陸太田市","jp_add_2":"東三町"},"3130211":{"post_code":"3130211","prefecture":"IBARAKI KEN","city":"HITACHIOTA SHI","town":"HIGASHIZOMECHO","perfecture_jp":"茨城県","jp_add_1":"常陸太田市","jp_add_2":"東染町"},"3130048":{"post_code":"3130048","prefecture":"IBARAKI KEN","city":"HITACHIOTA SHI","town":"FUJITACHO","perfecture_jp":"茨城県","jp_add_1":"常陸太田市","jp_add_2":"藤田町"},"3130008":{"post_code":"3130008","prefecture":"IBARAKI KEN","city":"HITACHIOTA SHI","town":"MASHIICHO","perfecture_jp":"茨城県","jp_add_1":"常陸太田市","jp_add_2":"増井町"},"3130213":{"post_code":"3130213","prefecture":"IBARAKI KEN","city":"HITACHIOTA SHI","town":"MACHIDACHO","perfecture_jp":"茨城県","jp_add_1":"常陸太田市","jp_add_2":"町田町"},"3130133":{"post_code":"3130133","prefecture":"IBARAKI KEN","city":"HITACHIOTA SHI","town":"MATSUZAKACHO","perfecture_jp":"茨城県","jp_add_1":"常陸太田市","jp_add_2":"松栄町"},"3130222":{"post_code":"3130222","prefecture":"IBARAKI KEN","city":"HITACHIOTA SHI","town":"MATSUDAIRACHO","perfecture_jp":"茨城県","jp_add_1":"常陸太田市","jp_add_2":"松平町"},"3130022":{"post_code":"3130022","prefecture":"IBARAKI KEN","city":"HITACHIOTA SHI","town":"MAYUMICHO","perfecture_jp":"茨城県","jp_add_1":"常陸太田市","jp_add_2":"真弓町"},"3130114":{"post_code":"3130114","prefecture":"IBARAKI KEN","city":"HITACHIOTA SHI","town":"MICHO","perfecture_jp":"茨城県","jp_add_1":"常陸太田市","jp_add_2":"箕町"},"3130117":{"post_code":"3130117","prefecture":"IBARAKI KEN","city":"HITACHIOTA SHI","town":"MIYANOSATOCHO","perfecture_jp":"茨城県","jp_add_1":"常陸太田市","jp_add_2":"宮の郷町"},"3130006":{"post_code":"3130006","prefecture":"IBARAKI KEN","city":"HITACHIOTA SHI","town":"MIYAMOTOCHO","perfecture_jp":"茨城県","jp_add_1":"常陸太田市","jp_add_2":"宮本町"},"3130043":{"post_code":"3130043","prefecture":"IBARAKI KEN","city":"HITACHIOTA SHI","town":"YAGAWARACHO","perfecture_jp":"茨城県","jp_add_1":"常陸太田市","jp_add_2":"谷河原町"},"3130013":{"post_code":"3130013","prefecture":"IBARAKI KEN","city":"HITACHIOTA SHI","town":"YAMASHITACHO","perfecture_jp":"茨城県","jp_add_1":"常陸太田市","jp_add_2":"山下町"},"3130214":{"post_code":"3130214","prefecture":"IBARAKI KEN","city":"HITACHIOTA SHI","town":"WAGUCHO","perfecture_jp":"茨城県","jp_add_1":"常陸太田市","jp_add_2":"和久町"},"3130223":{"post_code":"3130223","prefecture":"IBARAKI KEN","city":"HITACHIOTA SHI","town":"WADACHO","perfecture_jp":"茨城県","jp_add_1":"常陸太田市","jp_add_2":"和田町"}}