{"3170000":{"post_code":"3170000","prefecture":"IBARAKI KEN","city":"HITACHI SHI","town":"IKANIKEISAIGANAIBAAI","perfecture_jp":"茨城県","jp_add_1":"日立市","jp_add_2":""},"3170075":{"post_code":"3170075","prefecture":"IBARAKI KEN","city":"HITACHI SHI","town":"AIGACHO","perfecture_jp":"茨城県","jp_add_1":"日立市","jp_add_2":"相賀町"},"3170074":{"post_code":"3170074","prefecture":"IBARAKI KEN","city":"HITACHI SHI","town":"ASAHICHO","perfecture_jp":"茨城県","jp_add_1":"日立市","jp_add_2":"旭町"},"3170076":{"post_code":"3170076","prefecture":"IBARAKI KEN","city":"HITACHI SHI","town":"OSECHO","perfecture_jp":"茨城県","jp_add_1":"日立市","jp_add_2":"会瀬町"},"3170071":{"post_code":"3170071","prefecture":"IBARAKI KEN","city":"HITACHI SHI","town":"KASHIMACHO","perfecture_jp":"茨城県","jp_add_1":"日立市","jp_add_2":"鹿島町"},"3170064":{"post_code":"3170064","prefecture":"IBARAKI KEN","city":"HITACHI SHI","town":"KAMINECHO","perfecture_jp":"茨城県","jp_add_1":"日立市","jp_add_2":"神峰町"},"3170073":{"post_code":"3170073","prefecture":"IBARAKI KEN","city":"HITACHI SHI","town":"SAIWAICHO","perfecture_jp":"茨城県","jp_add_1":"日立市","jp_add_2":"幸町"},"3170077":{"post_code":"3170077","prefecture":"IBARAKI KEN","city":"HITACHI SHI","town":"JONANCHO","perfecture_jp":"茨城県","jp_add_1":"日立市","jp_add_2":"城南町"},"3170056":{"post_code":"3170056","prefecture":"IBARAKI KEN","city":"HITACHI SHI","town":"SHIROGANECHO","perfecture_jp":"茨城県","jp_add_1":"日立市","jp_add_2":"白銀町"},"3170065":{"post_code":"3170065","prefecture":"IBARAKI KEN","city":"HITACHI SHI","town":"SUKEGAWACHO","perfecture_jp":"茨城県","jp_add_1":"日立市","jp_add_2":"助川町"},"3170066":{"post_code":"3170066","prefecture":"IBARAKI KEN","city":"HITACHI SHI","town":"TAKASUZUCHO","perfecture_jp":"茨城県","jp_add_1":"日立市","jp_add_2":"高鈴町"},"3170053":{"post_code":"3170053","prefecture":"IBARAKI KEN","city":"HITACHI SHI","town":"NAMEKAWACHO","perfecture_jp":"茨城県","jp_add_1":"日立市","jp_add_2":"滑川町"},"3170051":{"post_code":"3170051","prefecture":"IBARAKI KEN","city":"HITACHI SHI","town":"NAMEKAWAHONCHO","perfecture_jp":"茨城県","jp_add_1":"日立市","jp_add_2":"滑川本町"},"3170061":{"post_code":"3170061","prefecture":"IBARAKI KEN","city":"HITACHI SHI","town":"HIGASHICHO","perfecture_jp":"茨城県","jp_add_1":"日立市","jp_add_2":"東町"},"3170052":{"post_code":"3170052","prefecture":"IBARAKI KEN","city":"HITACHI SHI","town":"HIGASHINAMEKAWACHO","perfecture_jp":"茨城県","jp_add_1":"日立市","jp_add_2":"東滑川町"},"3170062":{"post_code":"3170062","prefecture":"IBARAKI KEN","city":"HITACHI SHI","town":"HEIWACHO","perfecture_jp":"茨城県","jp_add_1":"日立市","jp_add_2":"平和町"},"3170072":{"post_code":"3170072","prefecture":"IBARAKI KEN","city":"HITACHI SHI","town":"BENTENCHO","perfecture_jp":"茨城県","jp_add_1":"日立市","jp_add_2":"弁天町"},"3170055":{"post_code":"3170055","prefecture":"IBARAKI KEN","city":"HITACHI SHI","town":"MIYATACHO","perfecture_jp":"茨城県","jp_add_1":"日立市","jp_add_2":"宮田町"},"3170054":{"post_code":"3170054","prefecture":"IBARAKI KEN","city":"HITACHI SHI","town":"MOTOMIYACHO","perfecture_jp":"茨城県","jp_add_1":"日立市","jp_add_2":"本宮町"},"3170063":{"post_code":"3170063","prefecture":"IBARAKI KEN","city":"HITACHI SHI","town":"WAKABACHO","perfecture_jp":"茨城県","jp_add_1":"日立市","jp_add_2":"若葉町"}}