{"3231102":{"post_code":"3231102","prefecture":"TOCHIGI KEN","city":"TOCHIGI SHI","town":"FUJIOKAMACHI AKAMA","perfecture_jp":"栃木県","jp_add_1":"栃木市","jp_add_2":"藤岡町赤麻"},"3231103":{"post_code":"3231103","prefecture":"TOCHIGI KEN","city":"TOCHIGI SHI","town":"FUJIOKAMACHI UCHINO","perfecture_jp":"栃木県","jp_add_1":"栃木市","jp_add_2":"藤岡町内野"},"3231108":{"post_code":"3231108","prefecture":"TOCHIGI KEN","city":"TOCHIGI SHI","town":"FUJIOKAMACHI OTA","perfecture_jp":"栃木県","jp_add_1":"栃木市","jp_add_2":"藤岡町太田"},"3231107":{"post_code":"3231107","prefecture":"TOCHIGI KEN","city":"TOCHIGI SHI","town":"FUJIOKAMACHI ODAWA","perfecture_jp":"栃木県","jp_add_1":"栃木市","jp_add_2":"藤岡町大田和"},"3231101":{"post_code":"3231101","prefecture":"TOCHIGI KEN","city":"TOCHIGI SHI","town":"FUJIOKAMACHI OMAE","perfecture_jp":"栃木県","jp_add_1":"栃木市","jp_add_2":"藤岡町大前"},"3231105":{"post_code":"3231105","prefecture":"TOCHIGI KEN","city":"TOCHIGI SHI","town":"FUJIOKAMACHI KO","perfecture_jp":"栃木県","jp_add_1":"栃木市","jp_add_2":"藤岡町甲"},"3231106":{"post_code":"3231106","prefecture":"TOCHIGI KEN","city":"TOCHIGI SHI","town":"FUJIOKAMACHI TSUGA","perfecture_jp":"栃木県","jp_add_1":"栃木市","jp_add_2":"藤岡町都賀"},"3231104":{"post_code":"3231104","prefecture":"TOCHIGI KEN","city":"TOCHIGI SHI","town":"FUJIOKAMACHI FUJIOKA","perfecture_jp":"栃木県","jp_add_1":"栃木市","jp_add_2":"藤岡町藤岡"},"3230000":{"post_code":"3230000","prefecture":"TOCHIGI KEN","city":"OYAMA SHI","town":"IKANIKEISAIGANAIBAAI","perfecture_jp":"栃木県","jp_add_1":"小山市","jp_add_2":""},"3230826":{"post_code":"3230826","prefecture":"TOCHIGI KEN","city":"OYAMA SHI","town":"AMAGAYA","perfecture_jp":"栃木県","jp_add_1":"小山市","jp_add_2":"雨ケ谷"},"3230824":{"post_code":"3230824","prefecture":"TOCHIGI KEN","city":"OYAMA SHI","town":"AMAGAYASHINDEN","perfecture_jp":"栃木県","jp_add_1":"小山市","jp_add_2":"雨ケ谷新田"},"3230831":{"post_code":"3230831","prefecture":"TOCHIGI KEN","city":"OYAMA SHI","town":"AMAGAYACHO","perfecture_jp":"栃木県","jp_add_1":"小山市","jp_add_2":"雨ケ谷町"},"3230013":{"post_code":"3230013","prefecture":"TOCHIGI KEN","city":"OYAMA SHI","town":"ARAI","perfecture_jp":"栃木県","jp_add_1":"小山市","jp_add_2":"荒井"},"3230006":{"post_code":"3230006","prefecture":"TOCHIGI KEN","city":"OYAMA SHI","town":"ARAKAWA","perfecture_jp":"栃木県","jp_add_1":"小山市","jp_add_2":"荒川"},"3230017":{"post_code":"3230017","prefecture":"TOCHIGI KEN","city":"OYAMA SHI","town":"IIZUKA","perfecture_jp":"栃木県","jp_add_1":"小山市","jp_add_2":"飯塚"},"3230054":{"post_code":"3230054","prefecture":"TOCHIGI KEN","city":"OYAMA SHI","town":"IOKA","perfecture_jp":"栃木県","jp_add_1":"小山市","jp_add_2":"井岡"},"3230051":{"post_code":"3230051","prefecture":"TOCHIGI KEN","city":"OYAMA SHI","town":"IKOMA","perfecture_jp":"栃木県","jp_add_1":"小山市","jp_add_2":"生駒"},"3230045":{"post_code":"3230045","prefecture":"TOCHIGI KEN","city":"OYAMA SHI","town":"ISHINOE","perfecture_jp":"栃木県","jp_add_1":"小山市","jp_add_2":"石ノ上"},"3230808":{"post_code":"3230808","prefecture":"TOCHIGI KEN","city":"OYAMA SHI","town":"IDEI","perfecture_jp":"栃木県","jp_add_1":"小山市","jp_add_2":"出井"},"3230021":{"post_code":"3230021","prefecture":"TOCHIGI KEN","city":"OYAMA SHI","town":"INABAGO","perfecture_jp":"栃木県","jp_add_1":"小山市","jp_add_2":"稲葉郷"},"3230811":{"post_code":"3230811","prefecture":"TOCHIGI KEN","city":"OYAMA SHI","town":"INUZUKA","perfecture_jp":"栃木県","jp_add_1":"小山市","jp_add_2":"犬塚"},"3230067":{"post_code":"3230067","prefecture":"TOCHIGI KEN","city":"OYAMA SHI","town":"IMAZATO","perfecture_jp":"栃木県","jp_add_1":"小山市","jp_add_2":"今里"},"3230022":{"post_code":"3230022","prefecture":"TOCHIGI KEN","city":"OYAMA SHI","town":"EKIHIGASHIDORI","perfecture_jp":"栃木県","jp_add_1":"小山市","jp_add_2":"駅東通り"},"3230822":{"post_code":"3230822","prefecture":"TOCHIGI KEN","city":"OYAMA SHI","town":"EKIMINAMICHO","perfecture_jp":"栃木県","jp_add_1":"小山市","jp_add_2":"駅南町"},"3230058":{"post_code":"3230058","prefecture":"TOCHIGI KEN","city":"OYAMA SHI","town":"OKAWASHIMA","perfecture_jp":"栃木県","jp_add_1":"小山市","jp_add_2":"大川島"},"3230009":{"post_code":"3230009","prefecture":"TOCHIGI KEN","city":"OYAMA SHI","town":"OMOTO","perfecture_jp":"栃木県","jp_add_1":"小山市","jp_add_2":"大本"},"3230001":{"post_code":"3230001","prefecture":"TOCHIGI KEN","city":"OYAMA SHI","town":"OYAKE","perfecture_jp":"栃木県","jp_add_1":"小山市","jp_add_2":"小宅"},"3230825":{"post_code":"3230825","prefecture":"TOCHIGI KEN","city":"OYAMA SHI","town":"OYAMA","perfecture_jp":"栃木県","jp_add_1":"小山市","jp_add_2":"小山"},"3230063":{"post_code":"3230063","prefecture":"TOCHIGI KEN","city":"OYAMA SHI","town":"KAMIISHIZUKA","perfecture_jp":"栃木県","jp_add_1":"小山市","jp_add_2":"上石塚"},"3230056":{"post_code":"3230056","prefecture":"TOCHIGI KEN","city":"OYAMA SHI","town":"KAMIIZUMI","perfecture_jp":"栃木県","jp_add_1":"小山市","jp_add_2":"上泉"},"3230066":{"post_code":"3230066","prefecture":"TOCHIGI KEN","city":"OYAMA SHI","town":"KAMIKOZUKA","perfecture_jp":"栃木県","jp_add_1":"小山市","jp_add_2":"上国府塚"},"3230069":{"post_code":"3230069","prefecture":"TOCHIGI KEN","city":"OYAMA SHI","town":"KAMIHATSUDA","perfecture_jp":"栃木県","jp_add_1":"小山市","jp_add_2":"上初田"},"3230828":{"post_code":"3230828","prefecture":"TOCHIGI KEN","city":"OYAMA SHI","town":"KAMIYAMA","perfecture_jp":"栃木県","jp_add_1":"小山市","jp_add_2":"神山"},"3230804":{"post_code":"3230804","prefecture":"TOCHIGI KEN","city":"OYAMA SHI","town":"KAYABASHI","perfecture_jp":"栃木県","jp_add_1":"小山市","jp_add_2":"萱橋"},"3230014":{"post_code":"3230014","prefecture":"TOCHIGI KEN","city":"OYAMA SHI","town":"KIZAWA","perfecture_jp":"栃木県","jp_add_1":"小山市","jp_add_2":"喜沢"},"3230803":{"post_code":"3230803","prefecture":"TOCHIGI KEN","city":"OYAMA SHI","town":"KITAIIDA","perfecture_jp":"栃木県","jp_add_1":"小山市","jp_add_2":"北飯田"},"3230002":{"post_code":"3230002","prefecture":"TOCHIGI KEN","city":"OYAMA SHI","town":"KUROMOTO","perfecture_jp":"栃木県","jp_add_1":"小山市","jp_add_2":"黒本"},"3230008":{"post_code":"3230008","prefecture":"TOCHIGI KEN","city":"OYAMA SHI","town":"KOGUSURI","perfecture_jp":"栃木県","jp_add_1":"小山市","jp_add_2":"小薬"},"3230053":{"post_code":"3230053","prefecture":"TOCHIGI KEN","city":"OYAMA SHI","town":"KOBUKURO","perfecture_jp":"栃木県","jp_add_1":"小山市","jp_add_2":"小袋"},"3230015":{"post_code":"3230015","prefecture":"TOCHIGI KEN","city":"OYAMA SHI","town":"SAMBAIKAWAGISHI","perfecture_jp":"栃木県","jp_add_1":"小山市","jp_add_2":"三拝川岸"},"3230043":{"post_code":"3230043","prefecture":"TOCHIGI KEN","city":"OYAMA SHI","town":"SHIOZAWA","perfecture_jp":"栃木県","jp_add_1":"小山市","jp_add_2":"塩沢"},"3230005":{"post_code":"3230005","prefecture":"TOCHIGI KEN","city":"OYAMA SHI","town":"SHIBUI","perfecture_jp":"栃木県","jp_add_1":"小山市","jp_add_2":"渋井"},"3230004":{"post_code":"3230004","prefecture":"TOCHIGI KEN","city":"OYAMA SHI","town":"SHIMADA","perfecture_jp":"栃木県","jp_add_1":"小山市","jp_add_2":"島田"},"3230064":{"post_code":"3230064","prefecture":"TOCHIGI KEN","city":"OYAMA SHI","town":"SHIMOISHIZUKA","perfecture_jp":"栃木県","jp_add_1":"小山市","jp_add_2":"下石塚"},"3230055":{"post_code":"3230055","prefecture":"TOCHIGI KEN","city":"OYAMA SHI","town":"SHIMOIZUMI","perfecture_jp":"栃木県","jp_add_1":"小山市","jp_add_2":"下泉"},"3230052":{"post_code":"3230052","prefecture":"TOCHIGI KEN","city":"OYAMA SHI","town":"SHIMOKAWARADA","perfecture_jp":"栃木県","jp_add_1":"小山市","jp_add_2":"下河原田"},"3230065":{"post_code":"3230065","prefecture":"TOCHIGI KEN","city":"OYAMA SHI","town":"SHIMOKOZUKA","perfecture_jp":"栃木県","jp_add_1":"小山市","jp_add_2":"下国府塚"},"3230068":{"post_code":"3230068","prefecture":"TOCHIGI KEN","city":"OYAMA SHI","town":"SHIMOHATSUDA","perfecture_jp":"栃木県","jp_add_1":"小山市","jp_add_2":"下初田"},"3230807":{"post_code":"3230807","prefecture":"TOCHIGI KEN","city":"OYAMA SHI","town":"JOTO","perfecture_jp":"栃木県","jp_add_1":"小山市","jp_add_2":"城東"},"3230029":{"post_code":"3230029","prefecture":"TOCHIGI KEN","city":"OYAMA SHI","town":"JOHOKU","perfecture_jp":"栃木県","jp_add_1":"小山市","jp_add_2":"城北"},"3230025":{"post_code":"3230025","prefecture":"TOCHIGI KEN","city":"OYAMA SHI","town":"SHIROYAMACHO","perfecture_jp":"栃木県","jp_add_1":"小山市","jp_add_2":"城山町"},"3230033":{"post_code":"3230033","prefecture":"TOCHIGI KEN","city":"OYAMA SHI","town":"SHIMMEICHO","perfecture_jp":"栃木県","jp_add_1":"小山市","jp_add_2":"神明町"},"3230061":{"post_code":"3230061","prefecture":"TOCHIGI KEN","city":"OYAMA SHI","town":"SOSHIMA","perfecture_jp":"栃木県","jp_add_1":"小山市","jp_add_2":"卒島"},"3230041":{"post_code":"3230041","prefecture":"TOCHIGI KEN","city":"OYAMA SHI","town":"DAIGYOJI","perfecture_jp":"栃木県","jp_add_1":"小山市","jp_add_2":"大行寺"},"3230154":{"post_code":"3230154","prefecture":"TOCHIGI KEN","city":"OYAMA SHI","town":"TAKAHASHI","perfecture_jp":"栃木県","jp_add_1":"小山市","jp_add_2":"高椅"},"3230151":{"post_code":"3230151","prefecture":"TOCHIGI KEN","city":"OYAMA SHI","town":"TAGAWA","perfecture_jp":"栃木県","jp_add_1":"小山市","jp_add_2":"田川"},"3230815":{"post_code":"3230815","prefecture":"TOCHIGI KEN","city":"OYAMA SHI","town":"TAKEI","perfecture_jp":"栃木県","jp_add_1":"小山市","jp_add_2":"武井"},"3230062":{"post_code":"3230062","prefecture":"TOCHIGI KEN","city":"OYAMA SHI","town":"TATSUGI","perfecture_jp":"栃木県","jp_add_1":"小山市","jp_add_2":"立木"},"3230814":{"post_code":"3230814","prefecture":"TOCHIGI KEN","city":"OYAMA SHI","town":"TAMA","perfecture_jp":"栃木県","jp_add_1":"小山市","jp_add_2":"田間"},"3230023":{"post_code":"3230023","prefecture":"TOCHIGI KEN","city":"OYAMA SHI","town":"CHUOCHO","perfecture_jp":"栃木県","jp_add_1":"小山市","jp_add_2":"中央町"},"3230818":{"post_code":"3230818","prefecture":"TOCHIGI KEN","city":"OYAMA SHI","town":"TSUKAZAKI","perfecture_jp":"栃木県","jp_add_1":"小山市","jp_add_2":"塚崎"},"3230032":{"post_code":"3230032","prefecture":"TOCHIGI KEN","city":"OYAMA SHI","town":"TENJINCHO","perfecture_jp":"栃木県","jp_add_1":"小山市","jp_add_2":"天神町"},"3230042":{"post_code":"3230042","prefecture":"TOCHIGI KEN","city":"OYAMA SHI","town":"TOJO","perfecture_jp":"栃木県","jp_add_1":"小山市","jp_add_2":"外城"},"3230812":{"post_code":"3230812","prefecture":"TOCHIGI KEN","city":"OYAMA SHI","town":"DOTO","perfecture_jp":"栃木県","jp_add_1":"小山市","jp_add_2":"土塔"},"3230157":{"post_code":"3230157","prefecture":"TOCHIGI KEN","city":"OYAMA SHI","town":"NAKAGAWARA","perfecture_jp":"栃木県","jp_add_1":"小山市","jp_add_2":"中河原"},"3230806":{"post_code":"3230806","prefecture":"TOCHIGI KEN","city":"OYAMA SHI","town":"NAKAKUKI","perfecture_jp":"栃木県","jp_add_1":"小山市","jp_add_2":"中久喜"},"3230156":{"post_code":"3230156","prefecture":"TOCHIGI KEN","city":"OYAMA SHI","town":"NAKAJIMA","perfecture_jp":"栃木県","jp_add_1":"小山市","jp_add_2":"中島"},"3230820":{"post_code":"3230820","prefecture":"TOCHIGI KEN","city":"OYAMA SHI","town":"NISHIJONAN","perfecture_jp":"栃木県","jp_add_1":"小山市","jp_add_2":"西城南"},"3230152":{"post_code":"3230152","prefecture":"TOCHIGI KEN","city":"OYAMA SHI","town":"NOBUSHIMA","perfecture_jp":"栃木県","jp_add_1":"小山市","jp_add_2":"延島"},"3230153":{"post_code":"3230153","prefecture":"TOCHIGI KEN","city":"OYAMA SHI","town":"NOBUSHIMASHINDEN","perfecture_jp":"栃木県","jp_add_1":"小山市","jp_add_2":"延島新田"},"3230046":{"post_code":"3230046","prefecture":"TOCHIGI KEN","city":"OYAMA SHI","town":"HAGISHIMA","perfecture_jp":"栃木県","jp_add_1":"小山市","jp_add_2":"萩島"},"3230801":{"post_code":"3230801","prefecture":"TOCHIGI KEN","city":"OYAMA SHI","town":"HACHIGATA","perfecture_jp":"栃木県","jp_add_1":"小山市","jp_add_2":"鉢形"},"3230027":{"post_code":"3230027","prefecture":"TOCHIGI KEN","city":"OYAMA SHI","town":"HANAGAKICHO","perfecture_jp":"栃木県","jp_add_1":"小山市","jp_add_2":"花垣町"},"3230012":{"post_code":"3230012","prefecture":"TOCHIGI KEN","city":"OYAMA SHI","town":"HANEKAWA","perfecture_jp":"栃木県","jp_add_1":"小山市","jp_add_2":"羽川"},"3230003":{"post_code":"3230003","prefecture":"TOCHIGI KEN","city":"OYAMA SHI","town":"HIGASHISHIMADA","perfecture_jp":"栃木県","jp_add_1":"小山市","jp_add_2":"東島田"},"3230829":{"post_code":"3230829","prefecture":"TOCHIGI KEN","city":"OYAMA SHI","town":"HIGASHIJONAN","perfecture_jp":"栃木県","jp_add_1":"小山市","jp_add_2":"東城南"},"3230817":{"post_code":"3230817","prefecture":"TOCHIGI KEN","city":"OYAMA SHI","town":"HIGASHINODA","perfecture_jp":"栃木県","jp_add_1":"小山市","jp_add_2":"東野田"},"3230802":{"post_code":"3230802","prefecture":"TOCHIGI KEN","city":"OYAMA SHI","town":"HIGASHIYAMADA","perfecture_jp":"栃木県","jp_add_1":"小山市","jp_add_2":"東山田"},"3230034":{"post_code":"3230034","prefecture":"TOCHIGI KEN","city":"OYAMA SHI","town":"HITOTONOYA(CHOME)","perfecture_jp":"栃木県","jp_add_1":"小山市","jp_add_2":"神鳥谷"},"3230827":{"post_code":"3230827","prefecture":"TOCHIGI KEN","city":"OYAMA SHI","town":"HITOTONOYA(BANCHI)","perfecture_jp":"栃木県","jp_add_1":"小山市","jp_add_2":"神鳥谷"},"3230155":{"post_code":"3230155","prefecture":"TOCHIGI KEN","city":"OYAMA SHI","town":"FUKURA","perfecture_jp":"栃木県","jp_add_1":"小山市","jp_add_2":"福良"},"3230016":{"post_code":"3230016","prefecture":"TOCHIGI KEN","city":"OYAMA SHI","town":"FUSO","perfecture_jp":"栃木県","jp_add_1":"小山市","jp_add_2":"扶桑"},"3230026":{"post_code":"3230026","prefecture":"TOCHIGI KEN","city":"OYAMA SHI","town":"HONGOCHO","perfecture_jp":"栃木県","jp_add_1":"小山市","jp_add_2":"本郷町"},"3230007":{"post_code":"3230007","prefecture":"TOCHIGI KEN","city":"OYAMA SHI","town":"MATSUNUMA","perfecture_jp":"栃木県","jp_add_1":"小山市","jp_add_2":"松沼"},"3230044":{"post_code":"3230044","prefecture":"TOCHIGI KEN","city":"OYAMA SHI","town":"MANAKA","perfecture_jp":"栃木県","jp_add_1":"小山市","jp_add_2":"間中"},"3230821":{"post_code":"3230821","prefecture":"TOCHIGI KEN","city":"OYAMA SHI","town":"MITSUMINE","perfecture_jp":"栃木県","jp_add_1":"小山市","jp_add_2":"三峯"},"3230816":{"post_code":"3230816","prefecture":"TOCHIGI KEN","city":"OYAMA SHI","town":"MINAMIIZUMI","perfecture_jp":"栃木県","jp_add_1":"小山市","jp_add_2":"南和泉"},"3230057":{"post_code":"3230057","prefecture":"TOCHIGI KEN","city":"OYAMA SHI","town":"MINAMIOBAYASHI","perfecture_jp":"栃木県","jp_add_1":"小山市","jp_add_2":"南小林"},"3230011":{"post_code":"3230011","prefecture":"TOCHIGI KEN","city":"OYAMA SHI","town":"MINAMIHANDA","perfecture_jp":"栃木県","jp_add_1":"小山市","jp_add_2":"南半田"},"3230024":{"post_code":"3230024","prefecture":"TOCHIGI KEN","city":"OYAMA SHI","town":"MIYAMOTOCHO","perfecture_jp":"栃木県","jp_add_1":"小山市","jp_add_2":"宮本町"},"3230805":{"post_code":"3230805","prefecture":"TOCHIGI KEN","city":"OYAMA SHI","town":"MUKAINO","perfecture_jp":"栃木県","jp_add_1":"小山市","jp_add_2":"向野"},"3230823":{"post_code":"3230823","prefecture":"TOCHIGI KEN","city":"OYAMA SHI","town":"MUKAIHARASHINDEN","perfecture_jp":"栃木県","jp_add_1":"小山市","jp_add_2":"向原新田"},"3230158":{"post_code":"3230158","prefecture":"TOCHIGI KEN","city":"OYAMA SHI","town":"YANA","perfecture_jp":"栃木県","jp_add_1":"小山市","jp_add_2":"梁"},"3230031":{"post_code":"3230031","prefecture":"TOCHIGI KEN","city":"OYAMA SHI","town":"YAHATACHO","perfecture_jp":"栃木県","jp_add_1":"小山市","jp_add_2":"八幡町"},"3230813":{"post_code":"3230813","prefecture":"TOCHIGI KEN","city":"OYAMA SHI","town":"YOKOKURA","perfecture_jp":"栃木県","jp_add_1":"小山市","jp_add_2":"横倉"},"3230819":{"post_code":"3230819","prefecture":"TOCHIGI KEN","city":"OYAMA SHI","town":"YOKOKURASHINDEN","perfecture_jp":"栃木県","jp_add_1":"小山市","jp_add_2":"横倉新田"},"3230028":{"post_code":"3230028","prefecture":"TOCHIGI KEN","city":"OYAMA SHI","town":"WAKAGICHO","perfecture_jp":"栃木県","jp_add_1":"小山市","jp_add_2":"若木町"},"3230111":{"post_code":"3230111","prefecture":"TOCHIGI KEN","city":"SHIMOTSUKE SHI","town":"ISOBE","perfecture_jp":"栃木県","jp_add_1":"下野市","jp_add_2":"磯部"},"3230103":{"post_code":"3230103","prefecture":"TOCHIGI KEN","city":"SHIMOTSUKE SHI","town":"KAMIKAWASHIMA","perfecture_jp":"栃木県","jp_add_1":"下野市","jp_add_2":"上川島"},"3230113":{"post_code":"3230113","prefecture":"TOCHIGI KEN","city":"SHIMOTSUKE SHI","town":"KAMITSUBOYAMA","perfecture_jp":"栃木県","jp_add_1":"下野市","jp_add_2":"上坪山"},"3230102":{"post_code":"3230102","prefecture":"TOCHIGI KEN","city":"SHIMOTSUKE SHI","town":"KAMIYOSHIDA","perfecture_jp":"栃木県","jp_add_1":"下野市","jp_add_2":"上吉田"},"3230114":{"post_code":"3230114","prefecture":"TOCHIGI KEN","city":"SHIMOTSUKE SHI","town":"KINUITA","perfecture_jp":"栃木県","jp_add_1":"下野市","jp_add_2":"絹板"},"3230101":{"post_code":"3230101","prefecture":"TOCHIGI KEN","city":"SHIMOTSUKE SHI","town":"SANNOYAMA","perfecture_jp":"栃木県","jp_add_1":"下野市","jp_add_2":"三王山"},"3230115":{"post_code":"3230115","prefecture":"TOCHIGI KEN","city":"SHIMOTSUKE SHI","town":"SHIMOTSUBOYAMA","perfecture_jp":"栃木県","jp_add_1":"下野市","jp_add_2":"下坪山"},"3230106":{"post_code":"3230106","prefecture":"TOCHIGI KEN","city":"SHIMOTSUKE SHI","town":"SHIMOYOSHIDA","perfecture_jp":"栃木県","jp_add_1":"下野市","jp_add_2":"下吉田"},"3230104":{"post_code":"3230104","prefecture":"TOCHIGI KEN","city":"SHIMOTSUKE SHI","town":"NAKAKAWASHIMA","perfecture_jp":"栃木県","jp_add_1":"下野市","jp_add_2":"中川島"},"3230116":{"post_code":"3230116","prefecture":"TOCHIGI KEN","city":"SHIMOTSUKE SHI","town":"HANADA","perfecture_jp":"栃木県","jp_add_1":"下野市","jp_add_2":"花田"},"3230112":{"post_code":"3230112","prefecture":"TOCHIGI KEN","city":"SHIMOTSUKE SHI","town":"HIGASHINE","perfecture_jp":"栃木県","jp_add_1":"下野市","jp_add_2":"東根"},"3230107":{"post_code":"3230107","prefecture":"TOCHIGI KEN","city":"SHIMOTSUKE SHI","town":"BETTOGAWARA","perfecture_jp":"栃木県","jp_add_1":"下野市","jp_add_2":"別当河原"},"3230105":{"post_code":"3230105","prefecture":"TOCHIGI KEN","city":"SHIMOTSUKE SHI","town":"MOTOYOSHIDA","perfecture_jp":"栃木県","jp_add_1":"下野市","jp_add_2":"本吉田"}}