{"3250000":{"post_code":"3250000","prefecture":"TOCHIGI KEN","city":"NASUSHIOBARA SHI","town":"IKANIKEISAIGANAIBAAI","perfecture_jp":"栃木県","jp_add_1":"那須塩原市","jp_add_2":""},"3250103":{"post_code":"3250103","prefecture":"TOCHIGI KEN","city":"NASUSHIOBARA SHI","town":"AOKI","perfecture_jp":"栃木県","jp_add_1":"那須塩原市","jp_add_2":"青木"},"3250073":{"post_code":"3250073","prefecture":"TOCHIGI KEN","city":"NASUSHIOBARA SHI","town":"AWACHO","perfecture_jp":"栃木県","jp_add_1":"那須塩原市","jp_add_2":"阿波町"},"3250021":{"post_code":"3250021","prefecture":"TOCHIGI KEN","city":"NASUSHIOBARA SHI","town":"ANDOCHO","perfecture_jp":"栃木県","jp_add_1":"那須塩原市","jp_add_2":"安藤町"},"3250111":{"post_code":"3250111","prefecture":"TOCHIGI KEN","city":"NASUSHIOBARA SHI","town":"ITAMURO","perfecture_jp":"栃木県","jp_add_1":"那須塩原市","jp_add_2":"板室"},"3250075":{"post_code":"3250075","prefecture":"TOCHIGI KEN","city":"NASUSHIOBARA SHI","town":"KASUGACHO","perfecture_jp":"栃木県","jp_add_1":"那須塩原市","jp_add_2":"春日町"},"3250104":{"post_code":"3250104","prefecture":"TOCHIGI KEN","city":"NASUSHIOBARA SHI","town":"KANOSAKISHINDEN","perfecture_jp":"栃木県","jp_add_1":"那須塩原市","jp_add_2":"鹿野崎新田"},"3250026":{"post_code":"3250026","prefecture":"TOCHIGI KEN","city":"NASUSHIOBARA SHI","town":"KAMIATSUSAKI","perfecture_jp":"栃木県","jp_add_1":"那須塩原市","jp_add_2":"上厚崎"},"3250102":{"post_code":"3250102","prefecture":"TOCHIGI KEN","city":"NASUSHIOBARA SHI","town":"KAMEYAMA","perfecture_jp":"栃木県","jp_add_1":"那須塩原市","jp_add_2":"亀山"},"3250039":{"post_code":"3250039","prefecture":"TOCHIGI KEN","city":"NASUSHIOBARA SHI","town":"KITASAKAECHO","perfecture_jp":"栃木県","jp_add_1":"那須塩原市","jp_add_2":"北栄町"},"3250027":{"post_code":"3250027","prefecture":"TOCHIGI KEN","city":"NASUSHIOBARA SHI","town":"KYOKONSHA","perfecture_jp":"栃木県","jp_add_1":"那須塩原市","jp_add_2":"共墾社"},"3250067":{"post_code":"3250067","prefecture":"TOCHIGI KEN","city":"NASUSHIOBARA SHI","town":"KIYOSUMICHO","perfecture_jp":"栃木県","jp_add_1":"那須塩原市","jp_add_2":"清住町"},"3250116":{"post_code":"3250116","prefecture":"TOCHIGI KEN","city":"NASUSHIOBARA SHI","town":"KIWATAHATA","perfecture_jp":"栃木県","jp_add_1":"那須塩原市","jp_add_2":"木綿畑"},"3250017":{"post_code":"3250017","prefecture":"TOCHIGI KEN","city":"NASUSHIOBARA SHI","town":"KUROISO","perfecture_jp":"栃木県","jp_add_1":"那須塩原市","jp_add_2":"黒磯"},"3250057":{"post_code":"3250057","prefecture":"TOCHIGI KEN","city":"NASUSHIOBARA SHI","town":"KUROISOSAIWAICHO","perfecture_jp":"栃木県","jp_add_1":"那須塩原市","jp_add_2":"黒磯幸町"},"3250012":{"post_code":"3250012","prefecture":"TOCHIGI KEN","city":"NASUSHIOBARA SHI","town":"KOEBORI","perfecture_jp":"栃木県","jp_add_1":"那須塩原市","jp_add_2":"越堀"},"3250035":{"post_code":"3250035","prefecture":"TOCHIGI KEN","city":"NASUSHIOBARA SHI","town":"KOYUI","perfecture_jp":"栃木県","jp_add_1":"那須塩原市","jp_add_2":"小結"},"3250048":{"post_code":"3250048","prefecture":"TOCHIGI KEN","city":"NASUSHIOBARA SHI","town":"ZAIMOKUCHO","perfecture_jp":"栃木県","jp_add_1":"那須塩原市","jp_add_2":"材木町"},"3250033":{"post_code":"3250033","prefecture":"TOCHIGI KEN","city":"NASUSHIOBARA SHI","town":"SAKITAMA","perfecture_jp":"栃木県","jp_add_1":"那須塩原市","jp_add_2":"埼玉"},"3250042":{"post_code":"3250042","prefecture":"TOCHIGI KEN","city":"NASUSHIOBARA SHI","town":"SAKURACHO","perfecture_jp":"栃木県","jp_add_1":"那須塩原市","jp_add_2":"桜町"},"3250118":{"post_code":"3250118","prefecture":"TOCHIGI KEN","city":"NASUSHIOBARA SHI","town":"SHIGIUCHI","perfecture_jp":"栃木県","jp_add_1":"那須塩原市","jp_add_2":"鴫内"},"3250025":{"post_code":"3250025","prefecture":"TOCHIGI KEN","city":"NASUSHIOBARA SHI","town":"SHIMOATSUSAKI","perfecture_jp":"栃木県","jp_add_1":"那須塩原市","jp_add_2":"下厚崎"},"3250054":{"post_code":"3250054","prefecture":"TOCHIGI KEN","city":"NASUSHIOBARA SHI","town":"SHINASAHI","perfecture_jp":"栃木県","jp_add_1":"那須塩原市","jp_add_2":"新朝日"},"3250071":{"post_code":"3250071","prefecture":"TOCHIGI KEN","city":"NASUSHIOBARA SHI","town":"SHIMMACHI","perfecture_jp":"栃木県","jp_add_1":"那須塩原市","jp_add_2":"新町"},"3250066":{"post_code":"3250066","prefecture":"TOCHIGI KEN","city":"NASUSHIOBARA SHI","town":"SHIMMIDORICHO","perfecture_jp":"栃木県","jp_add_1":"那須塩原市","jp_add_2":"新緑町"},"3250061":{"post_code":"3250061","prefecture":"TOCHIGI KEN","city":"NASUSHIOBARA SHI","town":"SUEHIROCHO","perfecture_jp":"栃木県","jp_add_1":"那須塩原市","jp_add_2":"末広町"},"3250062":{"post_code":"3250062","prefecture":"TOCHIGI KEN","city":"NASUSHIOBARA SHI","town":"SUMIYOSHICHO","perfecture_jp":"栃木県","jp_add_1":"那須塩原市","jp_add_2":"住吉町"},"3250046":{"post_code":"3250046","prefecture":"TOCHIGI KEN","city":"NASUSHIOBARA SHI","town":"DAIKOKUCHO","perfecture_jp":"栃木県","jp_add_1":"那須塩原市","jp_add_2":"大黒町"},"3250045":{"post_code":"3250045","prefecture":"TOCHIGI KEN","city":"NASUSHIOBARA SHI","town":"TAKASAGOCHO","perfecture_jp":"栃木県","jp_add_1":"那須塩原市","jp_add_2":"高砂町"},"3250107":{"post_code":"3250107","prefecture":"TOCHIGI KEN","city":"NASUSHIOBARA SHI","town":"TAKABAYASHI","perfecture_jp":"栃木県","jp_add_1":"那須塩原市","jp_add_2":"高林"},"3250052":{"post_code":"3250052","prefecture":"TOCHIGI KEN","city":"NASUSHIOBARA SHI","town":"CHUOCHO","perfecture_jp":"栃木県","jp_add_1":"那須塩原市","jp_add_2":"中央町"},"3250011":{"post_code":"3250011","prefecture":"TOCHIGI KEN","city":"NASUSHIOBARA SHI","town":"TERAGO","perfecture_jp":"栃木県","jp_add_1":"那須塩原市","jp_add_2":"寺子"},"3250016":{"post_code":"3250016","prefecture":"TOCHIGI KEN","city":"NASUSHIOBARA SHI","town":"TOEI","perfecture_jp":"栃木県","jp_add_1":"那須塩原市","jp_add_2":"東栄"},"3250106":{"post_code":"3250106","prefecture":"TOCHIGI KEN","city":"NASUSHIOBARA SHI","town":"DOJIMA","perfecture_jp":"栃木県","jp_add_1":"那須塩原市","jp_add_2":"洞島"},"3250114":{"post_code":"3250114","prefecture":"TOCHIGI KEN","city":"NASUSHIOBARA SHI","town":"TODA","perfecture_jp":"栃木県","jp_add_1":"那須塩原市","jp_add_2":"戸田"},"3250023":{"post_code":"3250023","prefecture":"TOCHIGI KEN","city":"NASUSHIOBARA SHI","town":"TOYORA","perfecture_jp":"栃木県","jp_add_1":"那須塩原市","jp_add_2":"豊浦"},"3250038":{"post_code":"3250038","prefecture":"TOCHIGI KEN","city":"NASUSHIOBARA SHI","town":"TOYORAKITAMACHI","perfecture_jp":"栃木県","jp_add_1":"那須塩原市","jp_add_2":"豊浦北町"},"3250064":{"post_code":"3250064","prefecture":"TOCHIGI KEN","city":"NASUSHIOBARA SHI","town":"TOYORACHO","perfecture_jp":"栃木県","jp_add_1":"那須塩原市","jp_add_2":"豊浦町"},"3250063":{"post_code":"3250063","prefecture":"TOCHIGI KEN","city":"NASUSHIOBARA SHI","town":"TOYORANAKAMACHI","perfecture_jp":"栃木県","jp_add_1":"那須塩原市","jp_add_2":"豊浦中町"},"3250065":{"post_code":"3250065","prefecture":"TOCHIGI KEN","city":"NASUSHIOBARA SHI","town":"TOYORAMINAMICHO","perfecture_jp":"栃木県","jp_add_1":"那須塩原市","jp_add_2":"豊浦南町"},"3250072":{"post_code":"3250072","prefecture":"TOCHIGI KEN","city":"NASUSHIOBARA SHI","town":"TOYOSUMICHO","perfecture_jp":"栃木県","jp_add_1":"那須塩原市","jp_add_2":"豊住町"},"3250036":{"post_code":"3250036","prefecture":"TOCHIGI KEN","city":"NASUSHIOBARA SHI","town":"TORINOME","perfecture_jp":"栃木県","jp_add_1":"那須塩原市","jp_add_2":"鳥野目"},"3250013":{"post_code":"3250013","prefecture":"TOCHIGI KEN","city":"NASUSHIOBARA SHI","town":"NABEKAKE","perfecture_jp":"栃木県","jp_add_1":"那須塩原市","jp_add_2":"鍋掛"},"3250031":{"post_code":"3250031","prefecture":"TOCHIGI KEN","city":"NASUSHIOBARA SHI","town":"NAMIKICHO","perfecture_jp":"栃木県","jp_add_1":"那須塩原市","jp_add_2":"並木町"},"3250101":{"post_code":"3250101","prefecture":"TOCHIGI KEN","city":"NASUSHIOBARA SHI","town":"NISHIIWAZAKI","perfecture_jp":"栃木県","jp_add_1":"那須塩原市","jp_add_2":"西岩崎"},"3250058":{"post_code":"3250058","prefecture":"TOCHIGI KEN","city":"NASUSHIOBARA SHI","town":"NISHIKICHO","perfecture_jp":"栃木県","jp_add_1":"那須塩原市","jp_add_2":"錦町"},"3250076":{"post_code":"3250076","prefecture":"TOCHIGI KEN","city":"NASUSHIOBARA SHI","town":"NISHISHIMMACHI","perfecture_jp":"栃木県","jp_add_1":"那須塩原市","jp_add_2":"西新町"},"3250014":{"post_code":"3250014","prefecture":"TOCHIGI KEN","city":"NASUSHIOBARA SHI","town":"NOMA","perfecture_jp":"栃木県","jp_add_1":"那須塩原市","jp_add_2":"野間"},"3250043":{"post_code":"3250043","prefecture":"TOCHIGI KEN","city":"NASUSHIOBARA SHI","town":"HASHIMOTOCHO","perfecture_jp":"栃木県","jp_add_1":"那須塩原市","jp_add_2":"橋本町"},"3250015":{"post_code":"3250015","prefecture":"TOCHIGI KEN","city":"NASUSHIOBARA SHI","town":"HARAMACHI","perfecture_jp":"栃木県","jp_add_1":"那須塩原市","jp_add_2":"原町"},"3250022":{"post_code":"3250022","prefecture":"TOCHIGI KEN","city":"NASUSHIOBARA SHI","town":"HIGASHITOYORA","perfecture_jp":"栃木県","jp_add_1":"那須塩原市","jp_add_2":"東豊浦"},"3250034":{"post_code":"3250034","prefecture":"TOCHIGI KEN","city":"NASUSHIOBARA SHI","town":"HIGASHIHARA","perfecture_jp":"栃木県","jp_add_1":"那須塩原市","jp_add_2":"東原"},"3250041":{"post_code":"3250041","prefecture":"TOCHIGI KEN","city":"NASUSHIOBARA SHI","town":"HIGASHIYAMATOCHO","perfecture_jp":"栃木県","jp_add_1":"那須塩原市","jp_add_2":"東大和町"},"3250113":{"post_code":"3250113","prefecture":"TOCHIGI KEN","city":"NASUSHIOBARA SHI","town":"HOSODAKE","perfecture_jp":"栃木県","jp_add_1":"那須塩原市","jp_add_2":"細竹"},"3250053":{"post_code":"3250053","prefecture":"TOCHIGI KEN","city":"NASUSHIOBARA SHI","town":"HONGOCHO","perfecture_jp":"栃木県","jp_add_1":"那須塩原市","jp_add_2":"本郷町"},"3250056":{"post_code":"3250056","prefecture":"TOCHIGI KEN","city":"NASUSHIOBARA SHI","town":"HONCHO","perfecture_jp":"栃木県","jp_add_1":"那須塩原市","jp_add_2":"本町"},"3250074":{"post_code":"3250074","prefecture":"TOCHIGI KEN","city":"NASUSHIOBARA SHI","town":"MATSURACHO","perfecture_jp":"栃木県","jp_add_1":"那須塩原市","jp_add_2":"松浦町"},"3250105":{"post_code":"3250105","prefecture":"TOCHIGI KEN","city":"NASUSHIOBARA SHI","town":"MINOWA","perfecture_jp":"栃木県","jp_add_1":"那須塩原市","jp_add_2":"箕輪"},"3250037":{"post_code":"3250037","prefecture":"TOCHIGI KEN","city":"NASUSHIOBARA SHI","town":"MIHARACHO","perfecture_jp":"栃木県","jp_add_1":"那須塩原市","jp_add_2":"美原町"},"3250055":{"post_code":"3250055","prefecture":"TOCHIGI KEN","city":"NASUSHIOBARA SHI","town":"MIYACHO","perfecture_jp":"栃木県","jp_add_1":"那須塩原市","jp_add_2":"宮町"},"3250115":{"post_code":"3250115","prefecture":"TOCHIGI KEN","city":"NASUSHIOBARA SHI","town":"MOMURA","perfecture_jp":"栃木県","jp_add_1":"那須塩原市","jp_add_2":"百村"},"3250108":{"post_code":"3250108","prefecture":"TOCHIGI KEN","city":"NASUSHIOBARA SHI","town":"YATSUBO","perfecture_jp":"栃木県","jp_add_1":"那須塩原市","jp_add_2":"箭坪"},"3250044":{"post_code":"3250044","prefecture":"TOCHIGI KEN","city":"NASUSHIOBARA SHI","town":"YAYOICHO","perfecture_jp":"栃木県","jp_add_1":"那須塩原市","jp_add_2":"弥生町"},"3250112":{"post_code":"3250112","prefecture":"TOCHIGI KEN","city":"NASUSHIOBARA SHI","town":"YUI","perfecture_jp":"栃木県","jp_add_1":"那須塩原市","jp_add_2":"油井"},"3250117":{"post_code":"3250117","prefecture":"TOCHIGI KEN","city":"NASUSHIOBARA SHI","town":"YUGU","perfecture_jp":"栃木県","jp_add_1":"那須塩原市","jp_add_2":"湯宮"},"3250051":{"post_code":"3250051","prefecture":"TOCHIGI KEN","city":"NASUSHIOBARA SHI","town":"YUTAKACHO","perfecture_jp":"栃木県","jp_add_1":"那須塩原市","jp_add_2":"豊町"},"3250032":{"post_code":"3250032","prefecture":"TOCHIGI KEN","city":"NASUSHIOBARA SHI","town":"WAKAKUSACHO","perfecture_jp":"栃木県","jp_add_1":"那須塩原市","jp_add_2":"若草町"},"3250047":{"post_code":"3250047","prefecture":"TOCHIGI KEN","city":"NASUSHIOBARA SHI","town":"WAKABACHO","perfecture_jp":"栃木県","jp_add_1":"那須塩原市","jp_add_2":"若葉町"},"3250024":{"post_code":"3250024","prefecture":"TOCHIGI KEN","city":"NASUSHIOBARA SHI","town":"WATANABE","perfecture_jp":"栃木県","jp_add_1":"那須塩原市","jp_add_2":"渡辺"},"3250304":{"post_code":"3250304","prefecture":"TOCHIGI KEN","city":"NASU GUN NASU MACHI","town":"TAKAKUKO(2888.5256-6140.6328.6437)","perfecture_jp":"栃木県","jp_add_1":"那須郡那須町","jp_add_2":"高久甲"},"3250001":{"post_code":"3250001","prefecture":"TOCHIGI KEN","city":"NASU GUN NASU MACHI","town":"TAKAKUKO(SONOTA)","perfecture_jp":"栃木県","jp_add_1":"那須郡那須町","jp_add_2":"高久甲"},"3250303":{"post_code":"3250303","prefecture":"TOCHIGI KEN","city":"NASU GUN NASU MACHI","town":"TAKAKUOTSU","perfecture_jp":"栃木県","jp_add_1":"那須郡那須町","jp_add_2":"高久乙"},"3250002":{"post_code":"3250002","prefecture":"TOCHIGI KEN","city":"NASU GUN NASU MACHI","town":"TAKAKUHEI(HOZUMI.YAMANASHI)","perfecture_jp":"栃木県","jp_add_1":"那須郡那須町","jp_add_2":"高久丙"},"3250302":{"post_code":"3250302","prefecture":"TOCHIGI KEN","city":"NASU GUN NASU MACHI","town":"TAKAKUHEI(SONOTA)","perfecture_jp":"栃木県","jp_add_1":"那須郡那須町","jp_add_2":"高久丙"},"3250003":{"post_code":"3250003","prefecture":"TOCHIGI KEN","city":"NASU GUN NASU MACHI","town":"TERAKOTSU(720-BANCHI)","perfecture_jp":"栃木県","jp_add_1":"那須郡那須町","jp_add_2":"寺子乙"},"3250301":{"post_code":"3250301","prefecture":"TOCHIGI KEN","city":"NASU GUN NASU MACHI","town":"YUMOTO","perfecture_jp":"栃木県","jp_add_1":"那須郡那須町","jp_add_2":"湯本"}}