{"3260000":{"post_code":"3260000","prefecture":"TOCHIGI KEN","city":"ASHIKAGA SHI","town":"IKANIKEISAIGANAIBAAI","perfecture_jp":"栃木県","jp_add_1":"足利市","jp_add_2":""},"3260052":{"post_code":"3260052","prefecture":"TOCHIGI KEN","city":"ASHIKAGA SHI","town":"AIOICHO","perfecture_jp":"栃木県","jp_add_1":"足利市","jp_add_2":"相生町"},"3260062":{"post_code":"3260062","prefecture":"TOCHIGI KEN","city":"ASHIKAGA SHI","town":"AKAMATSUDAI","perfecture_jp":"栃木県","jp_add_1":"足利市","jp_add_2":"赤松台"},"3260328":{"post_code":"3260328","prefecture":"TOCHIGI KEN","city":"ASHIKAGA SHI","town":"AGATACHO","perfecture_jp":"栃木県","jp_add_1":"足利市","jp_add_2":"県町"},"3260823":{"post_code":"3260823","prefecture":"TOCHIGI KEN","city":"ASHIKAGA SHI","town":"ASAKURACHO","perfecture_jp":"栃木県","jp_add_1":"足利市","jp_add_2":"朝倉町"},"3260802":{"post_code":"3260802","prefecture":"TOCHIGI KEN","city":"ASHIKAGA SHI","town":"ASAHICHO","perfecture_jp":"栃木県","jp_add_1":"足利市","jp_add_2":"旭町"},"3260832":{"post_code":"3260832","prefecture":"TOCHIGI KEN","city":"ASHIKAGA SHI","town":"ARAKANECHO","perfecture_jp":"栃木県","jp_add_1":"足利市","jp_add_2":"荒金町"},"3260834":{"post_code":"3260834","prefecture":"TOCHIGI KEN","city":"ASHIKAGA SHI","town":"ARAJUKUCHO","perfecture_jp":"栃木県","jp_add_1":"足利市","jp_add_2":"新宿町"},"3260103":{"post_code":"3260103","prefecture":"TOCHIGI KEN","city":"ASHIKAGA SHI","town":"AWANOYACHO","perfecture_jp":"栃木県","jp_add_1":"足利市","jp_add_2":"粟谷町"},"3260803":{"post_code":"3260803","prefecture":"TOCHIGI KEN","city":"ASHIKAGA SHI","town":"IETOMICHO","perfecture_jp":"栃木県","jp_add_1":"足利市","jp_add_2":"家富町"},"3260014":{"post_code":"3260014","prefecture":"TOCHIGI KEN","city":"ASHIKAGA SHI","town":"IKARUGICHO","perfecture_jp":"栃木県","jp_add_1":"足利市","jp_add_2":"鵤木町"},"3260811":{"post_code":"3260811","prefecture":"TOCHIGI KEN","city":"ASHIKAGA SHI","town":"IGUSACHO","perfecture_jp":"栃木県","jp_add_1":"足利市","jp_add_2":"井草町"},"3260053":{"post_code":"3260053","prefecture":"TOCHIGI KEN","city":"ASHIKAGA SHI","town":"ISECHO","perfecture_jp":"栃木県","jp_add_1":"足利市","jp_add_2":"伊勢町"},"3260054":{"post_code":"3260054","prefecture":"TOCHIGI KEN","city":"ASHIKAGA SHI","town":"ISEMINAMICHO","perfecture_jp":"栃木県","jp_add_1":"足利市","jp_add_2":"伊勢南町"},"3260102":{"post_code":"3260102","prefecture":"TOCHIGI KEN","city":"ASHIKAGA SHI","town":"ITAKURACHO","perfecture_jp":"栃木県","jp_add_1":"足利市","jp_add_2":"板倉町"},"3260842":{"post_code":"3260842","prefecture":"TOCHIGI KEN","city":"ASHIKAGA SHI","town":"IMAFUKUCHO","perfecture_jp":"栃木県","jp_add_1":"足利市","jp_add_2":"今福町"},"3260046":{"post_code":"3260046","prefecture":"TOCHIGI KEN","city":"ASHIKAGA SHI","town":"IWAICHO","perfecture_jp":"栃木県","jp_add_1":"足利市","jp_add_2":"岩井町"},"3260055":{"post_code":"3260055","prefecture":"TOCHIGI KEN","city":"ASHIKAGA SHI","town":"EIRAKUCHO","perfecture_jp":"栃木県","jp_add_1":"足利市","jp_add_2":"永楽町"},"3260067":{"post_code":"3260067","prefecture":"TOCHIGI KEN","city":"ASHIKAGA SHI","town":"EGAWACHO","perfecture_jp":"栃木県","jp_add_1":"足利市","jp_add_2":"江川町"},"3260841":{"post_code":"3260841","prefecture":"TOCHIGI KEN","city":"ASHIKAGA SHI","town":"OIWACHO","perfecture_jp":"栃木県","jp_add_1":"足利市","jp_add_2":"大岩町"},"3260012":{"post_code":"3260012","prefecture":"TOCHIGI KEN","city":"ASHIKAGA SHI","town":"OKUBOCHO","perfecture_jp":"栃木県","jp_add_1":"足利市","jp_add_2":"大久保町"},"3260005":{"post_code":"3260005","prefecture":"TOCHIGI KEN","city":"ASHIKAGA SHI","town":"OTSUKICHO","perfecture_jp":"栃木県","jp_add_1":"足利市","jp_add_2":"大月町"},"3260011":{"post_code":"3260011","prefecture":"TOCHIGI KEN","city":"ASHIKAGA SHI","town":"ONUMATACHO","perfecture_jp":"栃木県","jp_add_1":"足利市","jp_add_2":"大沼田町"},"3260051":{"post_code":"3260051","prefecture":"TOCHIGI KEN","city":"ASHIKAGA SHI","town":"OHASHICHO","perfecture_jp":"栃木県","jp_add_1":"足利市","jp_add_2":"大橋町"},"3260845":{"post_code":"3260845","prefecture":"TOCHIGI KEN","city":"ASHIKAGA SHI","town":"OMAECHO","perfecture_jp":"栃木県","jp_add_1":"足利市","jp_add_2":"大前町"},"3260326":{"post_code":"3260326","prefecture":"TOCHIGI KEN","city":"ASHIKAGA SHI","town":"OZONECHO","perfecture_jp":"栃木県","jp_add_1":"足利市","jp_add_2":"小曽根町"},"3260141":{"post_code":"3260141","prefecture":"TOCHIGI KEN","city":"ASHIKAGA SHI","town":"OMATACHO","perfecture_jp":"栃木県","jp_add_1":"足利市","jp_add_2":"小俣町"},"3260142":{"post_code":"3260142","prefecture":"TOCHIGI KEN","city":"ASHIKAGA SHI","town":"OMATAMINAMICHO","perfecture_jp":"栃木県","jp_add_1":"足利市","jp_add_2":"小俣南町"},"3260006":{"post_code":"3260006","prefecture":"TOCHIGI KEN","city":"ASHIKAGA SHI","town":"KAKABOCHO","perfecture_jp":"栃木県","jp_add_1":"足利市","jp_add_2":"利保町"},"3260844":{"post_code":"3260844","prefecture":"TOCHIGI KEN","city":"ASHIKAGA SHI","town":"KASHIMACHO","perfecture_jp":"栃木県","jp_add_1":"足利市","jp_add_2":"鹿島町"},"3260004":{"post_code":"3260004","prefecture":"TOCHIGI KEN","city":"ASHIKAGA SHI","town":"KABASAKICHO","perfecture_jp":"栃木県","jp_add_1":"足利市","jp_add_2":"樺崎町"},"3260335":{"post_code":"3260335","prefecture":"TOCHIGI KEN","city":"ASHIKAGA SHI","town":"KAMISHIBUTARECHO","perfecture_jp":"栃木県","jp_add_1":"足利市","jp_add_2":"上渋垂町"},"3260826":{"post_code":"3260826","prefecture":"TOCHIGI KEN","city":"ASHIKAGA SHI","town":"KARIYADOCHO","perfecture_jp":"栃木県","jp_add_1":"足利市","jp_add_2":"借宿町"},"3260013":{"post_code":"3260013","prefecture":"TOCHIGI KEN","city":"ASHIKAGA SHI","town":"KAWASAKICHO","perfecture_jp":"栃木県","jp_add_1":"足利市","jp_add_2":"川崎町"},"3260324":{"post_code":"3260324","prefecture":"TOCHIGI KEN","city":"ASHIKAGA SHI","town":"KUBOTACHO","perfecture_jp":"栃木県","jp_add_1":"足利市","jp_add_2":"久保田町"},"3260016":{"post_code":"3260016","prefecture":"TOCHIGI KEN","city":"ASHIKAGA SHI","town":"KENOSHIMMACHI","perfecture_jp":"栃木県","jp_add_1":"足利市","jp_add_2":"毛野新町"},"3260025":{"post_code":"3260025","prefecture":"TOCHIGI KEN","city":"ASHIKAGA SHI","town":"KOTOBUKICHO","perfecture_jp":"栃木県","jp_add_1":"足利市","jp_add_2":"寿町"},"3260815":{"post_code":"3260815","prefecture":"TOCHIGI KEN","city":"ASHIKAGA SHI","town":"SAKAECHO","perfecture_jp":"栃木県","jp_add_1":"足利市","jp_add_2":"栄町"},"3260835":{"post_code":"3260835","prefecture":"TOCHIGI KEN","city":"ASHIKAGA SHI","town":"SATOYABACHO","perfecture_jp":"栃木県","jp_add_1":"足利市","jp_add_2":"里矢場町"},"3260023":{"post_code":"3260023","prefecture":"TOCHIGI KEN","city":"ASHIKAGA SHI","town":"SARUTACHO","perfecture_jp":"栃木県","jp_add_1":"足利市","jp_add_2":"猿田町"},"3260337":{"post_code":"3260337","prefecture":"TOCHIGI KEN","city":"ASHIKAGA SHI","town":"SHIMADACHO","perfecture_jp":"栃木県","jp_add_1":"足利市","jp_add_2":"島田町"},"3260334":{"post_code":"3260334","prefecture":"TOCHIGI KEN","city":"ASHIKAGA SHI","town":"SHIMOSHIBUTARECHO","perfecture_jp":"栃木県","jp_add_1":"足利市","jp_add_2":"下渋垂町"},"3260813":{"post_code":"3260813","prefecture":"TOCHIGI KEN","city":"ASHIKAGA SHI","town":"SHOHEICHO","perfecture_jp":"栃木県","jp_add_1":"足利市","jp_add_2":"昌平町"},"3260063":{"post_code":"3260063","prefecture":"TOCHIGI KEN","city":"ASHIKAGA SHI","town":"SHINYAMACHO","perfecture_jp":"栃木県","jp_add_1":"足利市","jp_add_2":"新山町"},"3260031":{"post_code":"3260031","prefecture":"TOCHIGI KEN","city":"ASHIKAGA SHI","town":"SUEHIROCHO","perfecture_jp":"栃木県","jp_add_1":"足利市","jp_add_2":"末広町"},"3260044":{"post_code":"3260044","prefecture":"TOCHIGI KEN","city":"ASHIKAGA SHI","town":"SUKEDO","perfecture_jp":"栃木県","jp_add_1":"足利市","jp_add_2":"助戸"},"3260048":{"post_code":"3260048","prefecture":"TOCHIGI KEN","city":"ASHIKAGA SHI","town":"SUKEDO OHASHICHO","perfecture_jp":"栃木県","jp_add_1":"足利市","jp_add_2":"助戸大橋町"},"3260041":{"post_code":"3260041","prefecture":"TOCHIGI KEN","city":"ASHIKAGA SHI","town":"SUKEDO SHINYAMACHO","perfecture_jp":"栃木県","jp_add_1":"足利市","jp_add_2":"助戸新山町"},"3260043":{"post_code":"3260043","prefecture":"TOCHIGI KEN","city":"ASHIKAGA SHI","town":"SUKEDO NAKACHO","perfecture_jp":"栃木県","jp_add_1":"足利市","jp_add_2":"助戸仲町"},"3260042":{"post_code":"3260042","prefecture":"TOCHIGI KEN","city":"ASHIKAGA SHI","town":"SUKEDO HIGASHIYAMACHO","perfecture_jp":"栃木県","jp_add_1":"足利市","jp_add_2":"助戸東山町"},"3260007":{"post_code":"3260007","prefecture":"TOCHIGI KEN","city":"ASHIKAGA SHI","town":"SUGETACHO","perfecture_jp":"栃木県","jp_add_1":"足利市","jp_add_2":"菅田町"},"3260807":{"post_code":"3260807","prefecture":"TOCHIGI KEN","city":"ASHIKAGA SHI","town":"TAISHOCHO","perfecture_jp":"栃木県","jp_add_1":"足利市","jp_add_2":"大正町"},"3260056":{"post_code":"3260056","prefecture":"TOCHIGI KEN","city":"ASHIKAGA SHI","town":"DAICHO","perfecture_jp":"栃木県","jp_add_1":"足利市","jp_add_2":"大町"},"3260812":{"post_code":"3260812","prefecture":"TOCHIGI KEN","city":"ASHIKAGA SHI","town":"DAIMONDORI","perfecture_jp":"栃木県","jp_add_1":"足利市","jp_add_2":"大門通"},"3260325":{"post_code":"3260325","prefecture":"TOCHIGI KEN","city":"ASHIKAGA SHI","town":"TAKAMATSUCHO","perfecture_jp":"栃木県","jp_add_1":"足利市","jp_add_2":"高松町"},"3260061":{"post_code":"3260061","prefecture":"TOCHIGI KEN","city":"ASHIKAGA SHI","town":"TAJIMACHO","perfecture_jp":"栃木県","jp_add_1":"足利市","jp_add_2":"田島町"},"3260066":{"post_code":"3260066","prefecture":"TOCHIGI KEN","city":"ASHIKAGA SHI","town":"TADOKOROCHO","perfecture_jp":"栃木県","jp_add_1":"足利市","jp_add_2":"田所町"},"3260822":{"post_code":"3260822","prefecture":"TOCHIGI KEN","city":"ASHIKAGA SHI","town":"TANAKACHO","perfecture_jp":"栃木県","jp_add_1":"足利市","jp_add_2":"田中町"},"3260045":{"post_code":"3260045","prefecture":"TOCHIGI KEN","city":"ASHIKAGA SHI","town":"CHITOSECHO","perfecture_jp":"栃木県","jp_add_1":"足利市","jp_add_2":"千歳町"},"3260068":{"post_code":"3260068","prefecture":"TOCHIGI KEN","city":"ASHIKAGA SHI","town":"TSUKIYACHO","perfecture_jp":"栃木県","jp_add_1":"足利市","jp_add_2":"月谷町"},"3260022":{"post_code":"3260022","prefecture":"TOCHIGI KEN","city":"ASHIKAGA SHI","town":"TSUNEMICHO","perfecture_jp":"栃木県","jp_add_1":"足利市","jp_add_2":"常見町"},"3260814":{"post_code":"3260814","prefecture":"TOCHIGI KEN","city":"ASHIKAGA SHI","town":"TORI","perfecture_jp":"栃木県","jp_add_1":"足利市","jp_add_2":"通"},"3260026":{"post_code":"3260026","prefecture":"TOCHIGI KEN","city":"ASHIKAGA SHI","town":"TOKIWACHO","perfecture_jp":"栃木県","jp_add_1":"足利市","jp_add_2":"常盤町"},"3260805":{"post_code":"3260805","prefecture":"TOCHIGI KEN","city":"ASHIKAGA SHI","town":"TOMOECHO","perfecture_jp":"栃木県","jp_add_1":"足利市","jp_add_2":"巴町"},"3260333":{"post_code":"3260333","prefecture":"TOCHIGI KEN","city":"ASHIKAGA SHI","town":"TONYACHO","perfecture_jp":"栃木県","jp_add_1":"足利市","jp_add_2":"問屋町"},"3260825":{"post_code":"3260825","prefecture":"TOCHIGI KEN","city":"ASHIKAGA SHI","town":"NAKAGAWACHO","perfecture_jp":"栃木県","jp_add_1":"足利市","jp_add_2":"中川町"},"3260001":{"post_code":"3260001","prefecture":"TOCHIGI KEN","city":"ASHIKAGA SHI","town":"NAGUSA KAMICHO","perfecture_jp":"栃木県","jp_add_1":"足利市","jp_add_2":"名草上町"},"3260002":{"post_code":"3260002","prefecture":"TOCHIGI KEN","city":"ASHIKAGA SHI","town":"NAGUSA NAKACHO","perfecture_jp":"栃木県","jp_add_1":"足利市","jp_add_2":"名草中町"},"3260003":{"post_code":"3260003","prefecture":"TOCHIGI KEN","city":"ASHIKAGA SHI","town":"NAGUSA SHIMOCHO","perfecture_jp":"栃木県","jp_add_1":"足利市","jp_add_2":"名草下町"},"3260837":{"post_code":"3260837","prefecture":"TOCHIGI KEN","city":"ASHIKAGA SHI","town":"NISHIARAICHO","perfecture_jp":"栃木県","jp_add_1":"足利市","jp_add_2":"西新井町"},"3260047":{"post_code":"3260047","prefecture":"TOCHIGI KEN","city":"ASHIKAGA SHI","town":"NISHIKICHO","perfecture_jp":"栃木県","jp_add_1":"足利市","jp_add_2":"錦町"},"3260065":{"post_code":"3260065","prefecture":"TOCHIGI KEN","city":"ASHIKAGA SHI","town":"NISHISAWARAGOCHO","perfecture_jp":"栃木県","jp_add_1":"足利市","jp_add_2":"西砂原後町"},"3260817":{"post_code":"3260817","prefecture":"TOCHIGI KEN","city":"ASHIKAGA SHI","town":"NISHINOMIYACHO","perfecture_jp":"栃木県","jp_add_1":"足利市","jp_add_2":"西宮町"},"3260322":{"post_code":"3260322","prefecture":"TOCHIGI KEN","city":"ASHIKAGA SHI","town":"NODACHO","perfecture_jp":"栃木県","jp_add_1":"足利市","jp_add_2":"野田町"},"3260327":{"post_code":"3260327","prefecture":"TOCHIGI KEN","city":"ASHIKAGA SHI","town":"HAKARICHO","perfecture_jp":"栃木県","jp_add_1":"足利市","jp_add_2":"羽刈町"},"3260143":{"post_code":"3260143","prefecture":"TOCHIGI KEN","city":"ASHIKAGA SHI","town":"HAJIKACHO","perfecture_jp":"栃木県","jp_add_1":"足利市","jp_add_2":"葉鹿町"},"3260144":{"post_code":"3260144","prefecture":"TOCHIGI KEN","city":"ASHIKAGA SHI","town":"HAJIKAMINAMICHO","perfecture_jp":"栃木県","jp_add_1":"足利市","jp_add_2":"葉鹿南町"},"3260033":{"post_code":"3260033","prefecture":"TOCHIGI KEN","city":"ASHIKAGA SHI","town":"HANAZONOCHO","perfecture_jp":"栃木県","jp_add_1":"足利市","jp_add_2":"花園町"},"3260064":{"post_code":"3260064","prefecture":"TOCHIGI KEN","city":"ASHIKAGA SHI","town":"HIGASHISAWARAGOCHO","perfecture_jp":"栃木県","jp_add_1":"足利市","jp_add_2":"東砂原後町"},"3260034":{"post_code":"3260034","prefecture":"TOCHIGI KEN","city":"ASHIKAGA SHI","town":"HISAMATSUCHO","perfecture_jp":"栃木県","jp_add_1":"足利市","jp_add_2":"久松町"},"3260338":{"post_code":"3260338","prefecture":"TOCHIGI KEN","city":"ASHIKAGA SHI","town":"FUKUICHO","perfecture_jp":"栃木県","jp_add_1":"足利市","jp_add_2":"福居町"},"3260332":{"post_code":"3260332","prefecture":"TOCHIGI KEN","city":"ASHIKAGA SHI","town":"FUKUTOMISHINCHO","perfecture_jp":"栃木県","jp_add_1":"足利市","jp_add_2":"福富新町"},"3260331":{"post_code":"3260331","prefecture":"TOCHIGI KEN","city":"ASHIKAGA SHI","town":"FUKUTOMICHO","perfecture_jp":"栃木県","jp_add_1":"足利市","jp_add_2":"福富町"},"3260037":{"post_code":"3260037","prefecture":"TOCHIGI KEN","city":"ASHIKAGA SHI","town":"FUJIMICHO","perfecture_jp":"栃木県","jp_add_1":"足利市","jp_add_2":"富士見町"},"3260833":{"post_code":"3260833","prefecture":"TOCHIGI KEN","city":"ASHIKAGA SHI","town":"FUJIMOTOCHO","perfecture_jp":"栃木県","jp_add_1":"足利市","jp_add_2":"藤本町"},"3260831":{"post_code":"3260831","prefecture":"TOCHIGI KEN","city":"ASHIKAGA SHI","town":"HORIGOMECHO","perfecture_jp":"栃木県","jp_add_1":"足利市","jp_add_2":"堀込町"},"3260808":{"post_code":"3260808","prefecture":"TOCHIGI KEN","city":"ASHIKAGA SHI","town":"HONJO","perfecture_jp":"栃木県","jp_add_1":"足利市","jp_add_2":"本城"},"3260032":{"post_code":"3260032","prefecture":"TOCHIGI KEN","city":"ASHIKAGA SHI","town":"MASAGOCHO","perfecture_jp":"栃木県","jp_add_1":"足利市","jp_add_2":"真砂町"},"3260101":{"post_code":"3260101","prefecture":"TOCHIGI KEN","city":"ASHIKAGA SHI","town":"MATSUDACHO","perfecture_jp":"栃木県","jp_add_1":"足利市","jp_add_2":"松田町"},"3260057":{"post_code":"3260057","prefecture":"TOCHIGI KEN","city":"ASHIKAGA SHI","town":"MARUYAMACHO","perfecture_jp":"栃木県","jp_add_1":"足利市","jp_add_2":"丸山町"},"3260323":{"post_code":"3260323","prefecture":"TOCHIGI KEN","city":"ASHIKAGA SHI","town":"MIZUHONOCHO","perfecture_jp":"栃木県","jp_add_1":"足利市","jp_add_2":"瑞穂野町"},"3260816":{"post_code":"3260816","prefecture":"TOCHIGI KEN","city":"ASHIKAGA SHI","town":"MIDORICHO","perfecture_jp":"栃木県","jp_add_1":"足利市","jp_add_2":"緑町"},"3260836":{"post_code":"3260836","prefecture":"TOCHIGI KEN","city":"ASHIKAGA SHI","town":"MINAMIOMACHI","perfecture_jp":"栃木県","jp_add_1":"足利市","jp_add_2":"南大町"},"3260821":{"post_code":"3260821","prefecture":"TOCHIGI KEN","city":"ASHIKAGA SHI","town":"MINAMICHO","perfecture_jp":"栃木県","jp_add_1":"足利市","jp_add_2":"南町"},"3260027":{"post_code":"3260027","prefecture":"TOCHIGI KEN","city":"ASHIKAGA SHI","town":"MIYAKITACHO","perfecture_jp":"栃木県","jp_add_1":"足利市","jp_add_2":"宮北町"},"3260058":{"post_code":"3260058","prefecture":"TOCHIGI KEN","city":"ASHIKAGA SHI","town":"MOTOGAKUCHO","perfecture_jp":"栃木県","jp_add_1":"足利市","jp_add_2":"元学町"},"3260336":{"post_code":"3260336","prefecture":"TOCHIGI KEN","city":"ASHIKAGA SHI","town":"MOMOGASHIRACHO","perfecture_jp":"栃木県","jp_add_1":"足利市","jp_add_2":"百頭町"},"3260015":{"post_code":"3260015","prefecture":"TOCHIGI KEN","city":"ASHIKAGA SHI","town":"YATSUKUNUGICHO","perfecture_jp":"栃木県","jp_add_1":"足利市","jp_add_2":"八椚町"},"3260806":{"post_code":"3260806","prefecture":"TOCHIGI KEN","city":"ASHIKAGA SHI","town":"YANAGIWARACHO","perfecture_jp":"栃木県","jp_add_1":"足利市","jp_add_2":"柳原町"},"3260321":{"post_code":"3260321","prefecture":"TOCHIGI KEN","city":"ASHIKAGA SHI","town":"YANADACHO","perfecture_jp":"栃木県","jp_add_1":"足利市","jp_add_2":"梁田町"},"3260021":{"post_code":"3260021","prefecture":"TOCHIGI KEN","city":"ASHIKAGA SHI","town":"YAMAGAWACHO","perfecture_jp":"栃木県","jp_add_1":"足利市","jp_add_2":"山川町"},"3260846":{"post_code":"3260846","prefecture":"TOCHIGI KEN","city":"ASHIKAGA SHI","town":"YAMASHITACHO","perfecture_jp":"栃木県","jp_add_1":"足利市","jp_add_2":"山下町"},"3260036":{"post_code":"3260036","prefecture":"TOCHIGI KEN","city":"ASHIKAGA SHI","town":"YAYOICHO","perfecture_jp":"栃木県","jp_add_1":"足利市","jp_add_2":"弥生町"},"3260824":{"post_code":"3260824","prefecture":"TOCHIGI KEN","city":"ASHIKAGA SHI","town":"YAWATACHO","perfecture_jp":"栃木県","jp_add_1":"足利市","jp_add_2":"八幡町"},"3260801":{"post_code":"3260801","prefecture":"TOCHIGI KEN","city":"ASHIKAGA SHI","town":"YURAKUCHO","perfecture_jp":"栃木県","jp_add_1":"足利市","jp_add_2":"有楽町"},"3260804":{"post_code":"3260804","prefecture":"TOCHIGI KEN","city":"ASHIKAGA SHI","town":"YUKIWACHO","perfecture_jp":"栃木県","jp_add_1":"足利市","jp_add_2":"雪輪町"},"3260035":{"post_code":"3260035","prefecture":"TOCHIGI KEN","city":"ASHIKAGA SHI","town":"YOSHICHO","perfecture_jp":"栃木県","jp_add_1":"足利市","jp_add_2":"芳町"},"3260843":{"post_code":"3260843","prefecture":"TOCHIGI KEN","city":"ASHIKAGA SHI","town":"YOBECHO","perfecture_jp":"栃木県","jp_add_1":"足利市","jp_add_2":"五十部町"},"3260024":{"post_code":"3260024","prefecture":"TOCHIGI KEN","city":"ASHIKAGA SHI","town":"WAKAKUSACHO","perfecture_jp":"栃木県","jp_add_1":"足利市","jp_add_2":"若草町"}}