{"3270000":{"post_code":"3270000","prefecture":"TOCHIGI KEN","city":"SANO SHI","town":"IKANIKEISAIGANAIBAAI","perfecture_jp":"栃木県","jp_add_1":"佐野市","jp_add_2":""},"3270023":{"post_code":"3270023","prefecture":"TOCHIGI KEN","city":"SANO SHI","town":"AIOICHO","perfecture_jp":"栃木県","jp_add_1":"佐野市","jp_add_2":"相生町"},"3270511":{"post_code":"3270511","prefecture":"TOCHIGI KEN","city":"SANO SHI","town":"AISAWACHO","perfecture_jp":"栃木県","jp_add_1":"佐野市","jp_add_2":"会沢町"},"3270004":{"post_code":"3270004","prefecture":"TOCHIGI KEN","city":"SANO SHI","town":"AKASAKACHO","perfecture_jp":"栃木県","jp_add_1":"佐野市","jp_add_2":"赤坂町"},"3270104":{"post_code":"3270104","prefecture":"TOCHIGI KEN","city":"SANO SHI","town":"AKAMICHO","perfecture_jp":"栃木県","jp_add_1":"佐野市","jp_add_2":"赤見町"},"3270517":{"post_code":"3270517","prefecture":"TOCHIGI KEN","city":"SANO SHI","town":"AKIYAMACHO","perfecture_jp":"栃木県","jp_add_1":"佐野市","jp_add_2":"秋山町"},"3270525":{"post_code":"3270525","prefecture":"TOCHIGI KEN","city":"SANO SHI","town":"AKUTOCHO","perfecture_jp":"栃木県","jp_add_1":"佐野市","jp_add_2":"あくと町"},"3270831":{"post_code":"3270831","prefecture":"TOCHIGI KEN","city":"SANO SHI","town":"ASANUMACHO","perfecture_jp":"栃木県","jp_add_1":"佐野市","jp_add_2":"浅沼町"},"3270011":{"post_code":"3270011","prefecture":"TOCHIGI KEN","city":"SANO SHI","town":"ASAHICHO","perfecture_jp":"栃木県","jp_add_1":"佐野市","jp_add_2":"朝日町"},"3270815":{"post_code":"3270815","prefecture":"TOCHIGI KEN","city":"SANO SHI","town":"ABUTSUKACHO","perfecture_jp":"栃木県","jp_add_1":"佐野市","jp_add_2":"鐙塚町"},"3270825":{"post_code":"3270825","prefecture":"TOCHIGI KEN","city":"SANO SHI","town":"IITACHO","perfecture_jp":"栃木県","jp_add_1":"佐野市","jp_add_2":"飯田町"},"3270021":{"post_code":"3270021","prefecture":"TOCHIGI KEN","city":"SANO SHI","town":"IGACHO","perfecture_jp":"栃木県","jp_add_1":"佐野市","jp_add_2":"伊賀町"},"3270103":{"post_code":"3270103","prefecture":"TOCHIGI KEN","city":"SANO SHI","town":"ISHIZUKACHO","perfecture_jp":"栃木県","jp_add_1":"佐野市","jp_add_2":"石塚町"},"3270102":{"post_code":"3270102","prefecture":"TOCHIGI KEN","city":"SANO SHI","town":"IZURUHARACHO","perfecture_jp":"栃木県","jp_add_1":"佐野市","jp_add_2":"出流原町"},"3270817":{"post_code":"3270817","prefecture":"TOCHIGI KEN","city":"SANO SHI","town":"ISEYAMACHO","perfecture_jp":"栃木県","jp_add_1":"佐野市","jp_add_2":"伊勢山町"},"3270806":{"post_code":"3270806","prefecture":"TOCHIGI KEN","city":"SANO SHI","town":"INUBUSHI KAMICHO","perfecture_jp":"栃木県","jp_add_1":"佐野市","jp_add_2":"犬伏上町"},"3270805":{"post_code":"3270805","prefecture":"TOCHIGI KEN","city":"SANO SHI","town":"INUBUSHI NAKACHO","perfecture_jp":"栃木県","jp_add_1":"佐野市","jp_add_2":"犬伏中町"},"3270804":{"post_code":"3270804","prefecture":"TOCHIGI KEN","city":"SANO SHI","town":"INUBUSHI SHIMOCHO","perfecture_jp":"栃木県","jp_add_1":"佐野市","jp_add_2":"犬伏下町"},"3270803":{"post_code":"3270803","prefecture":"TOCHIGI KEN","city":"SANO SHI","town":"INUBUSHI SHIMMACHI","perfecture_jp":"栃木県","jp_add_1":"佐野市","jp_add_2":"犬伏新町"},"3270034":{"post_code":"3270034","prefecture":"TOCHIGI KEN","city":"SANO SHI","town":"IBOCHICHO","perfecture_jp":"栃木県","jp_add_1":"佐野市","jp_add_2":"伊保内町"},"3270307":{"post_code":"3270307","prefecture":"TOCHIGI KEN","city":"SANO SHI","town":"IWAZAKICHO","perfecture_jp":"栃木県","jp_add_1":"佐野市","jp_add_2":"岩崎町"},"3270832":{"post_code":"3270832","prefecture":"TOCHIGI KEN","city":"SANO SHI","town":"UEKAMICHO","perfecture_jp":"栃木県","jp_add_1":"佐野市","jp_add_2":"植上町"},"3270835":{"post_code":"3270835","prefecture":"TOCHIGI KEN","city":"SANO SHI","town":"UESHIMOCHO","perfecture_jp":"栃木県","jp_add_1":"佐野市","jp_add_2":"植下町"},"3270837":{"post_code":"3270837","prefecture":"TOCHIGI KEN","city":"SANO SHI","town":"UENOCHO","perfecture_jp":"栃木県","jp_add_1":"佐野市","jp_add_2":"植野町"},"3270322":{"post_code":"3270322","prefecture":"TOCHIGI KEN","city":"SANO SHI","town":"UMEZONOCHO","perfecture_jp":"栃木県","jp_add_1":"佐野市","jp_add_2":"梅園町"},"3270012":{"post_code":"3270012","prefecture":"TOCHIGI KEN","city":"SANO SHI","town":"OKURACHO","perfecture_jp":"栃木県","jp_add_1":"佐野市","jp_add_2":"大蔵町"},"3270807":{"post_code":"3270807","prefecture":"TOCHIGI KEN","city":"SANO SHI","town":"OGURICHO","perfecture_jp":"栃木県","jp_add_1":"佐野市","jp_add_2":"大栗町"},"3270033":{"post_code":"3270033","prefecture":"TOCHIGI KEN","city":"SANO SHI","town":"OGOYACHO","perfecture_jp":"栃木県","jp_add_1":"佐野市","jp_add_2":"大古屋町"},"3270003":{"post_code":"3270003","prefecture":"TOCHIGI KEN","city":"SANO SHI","town":"OHASHICHO","perfecture_jp":"栃木県","jp_add_1":"佐野市","jp_add_2":"大橋町"},"3270316":{"post_code":"3270316","prefecture":"TOCHIGI KEN","city":"SANO SHI","town":"OMICHO","perfecture_jp":"栃木県","jp_add_1":"佐野市","jp_add_2":"小見町"},"3270515":{"post_code":"3270515","prefecture":"TOCHIGI KEN","city":"SANO SHI","town":"KAKIDAIRACHO","perfecture_jp":"栃木県","jp_add_1":"佐野市","jp_add_2":"柿平町"},"3270523":{"post_code":"3270523","prefecture":"TOCHIGI KEN","city":"SANO SHI","town":"KATAYAMACHO","perfecture_jp":"栃木県","jp_add_1":"佐野市","jp_add_2":"嘉多山町"},"3270015":{"post_code":"3270015","prefecture":"TOCHIGI KEN","city":"SANO SHI","town":"KANAIKAMICHO","perfecture_jp":"栃木県","jp_add_1":"佐野市","jp_add_2":"金井上町"},"3270007":{"post_code":"3270007","prefecture":"TOCHIGI KEN","city":"SANO SHI","town":"KANAFUKICHO","perfecture_jp":"栃木県","jp_add_1":"佐野市","jp_add_2":"金吹町"},"3270025":{"post_code":"3270025","prefecture":"TOCHIGI KEN","city":"SANO SHI","town":"KANAYA SHIMOCHO","perfecture_jp":"栃木県","jp_add_1":"佐野市","jp_add_2":"金屋下町"},"3270026":{"post_code":"3270026","prefecture":"TOCHIGI KEN","city":"SANO SHI","town":"KANAYA NAKACHO","perfecture_jp":"栃木県","jp_add_1":"佐野市","jp_add_2":"金屋仲町"},"3270032":{"post_code":"3270032","prefecture":"TOCHIGI KEN","city":"SANO SHI","town":"KANEZUKACHO","perfecture_jp":"栃木県","jp_add_1":"佐野市","jp_add_2":"庚申塚町"},"3270006":{"post_code":"3270006","prefecture":"TOCHIGI KEN","city":"SANO SHI","town":"KAMIDAICHO","perfecture_jp":"栃木県","jp_add_1":"佐野市","jp_add_2":"上台町"},"3270042":{"post_code":"3270042","prefecture":"TOCHIGI KEN","city":"SANO SHI","town":"KAMIHANEDACHO","perfecture_jp":"栃木県","jp_add_1":"佐野市","jp_add_2":"上羽田町"},"3270024":{"post_code":"3270024","prefecture":"TOCHIGI KEN","city":"SANO SHI","town":"KAMEICHO","perfecture_jp":"栃木県","jp_add_1":"佐野市","jp_add_2":"亀井町"},"3270321":{"post_code":"3270321","prefecture":"TOCHIGI KEN","city":"SANO SHI","town":"KAMMACHO","perfecture_jp":"栃木県","jp_add_1":"佐野市","jp_add_2":"閑馬町"},"3270827":{"post_code":"3270827","prefecture":"TOCHIGI KEN","city":"SANO SHI","town":"KITAMOROCHO","perfecture_jp":"栃木県","jp_add_1":"佐野市","jp_add_2":"北茂呂町"},"3270043":{"post_code":"3270043","prefecture":"TOCHIGI KEN","city":"SANO SHI","town":"KIMITACHO","perfecture_jp":"栃木県","jp_add_1":"佐野市","jp_add_2":"君田町"},"3270507":{"post_code":"3270507","prefecture":"TOCHIGI KEN","city":"SANO SHI","town":"KUZUNISHI","perfecture_jp":"栃木県","jp_add_1":"佐野市","jp_add_2":"葛生西"},"3270501":{"post_code":"3270501","prefecture":"TOCHIGI KEN","city":"SANO SHI","town":"KUZUHIGASHI","perfecture_jp":"栃木県","jp_add_1":"佐野市","jp_add_2":"葛生東"},"3270845":{"post_code":"3270845","prefecture":"TOCHIGI KEN","city":"SANO SHI","town":"KUBOCHO","perfecture_jp":"栃木県","jp_add_1":"佐野市","jp_add_2":"久保町"},"3270813":{"post_code":"3270813","prefecture":"TOCHIGI KEN","city":"SANO SHI","town":"KUROHAKAMACHO","perfecture_jp":"栃木県","jp_add_1":"佐野市","jp_add_2":"黒袴町"},"3270822":{"post_code":"3270822","prefecture":"TOCHIGI KEN","city":"SANO SHI","town":"KOENACHO","perfecture_jp":"栃木県","jp_add_1":"佐野市","jp_add_2":"越名町"},"3270001":{"post_code":"3270001","prefecture":"TOCHIGI KEN","city":"SANO SHI","town":"KONAKACHO","perfecture_jp":"栃木県","jp_add_1":"佐野市","jp_add_2":"小中町"},"3270816":{"post_code":"3270816","prefecture":"TOCHIGI KEN","city":"SANO SHI","town":"SAKAECHO","perfecture_jp":"栃木県","jp_add_1":"佐野市","jp_add_2":"栄町"},"3270301":{"post_code":"3270301","prefecture":"TOCHIGI KEN","city":"SANO SHI","town":"SAKUHARACHO","perfecture_jp":"栃木県","jp_add_1":"佐野市","jp_add_2":"作原町"},"3270005":{"post_code":"3270005","prefecture":"TOCHIGI KEN","city":"SANO SHI","town":"SHICHIKENCHO","perfecture_jp":"栃木県","jp_add_1":"佐野市","jp_add_2":"七軒町"},"3270836":{"post_code":"3270836","prefecture":"TOCHIGI KEN","city":"SANO SHI","town":"JICHUCHO","perfecture_jp":"栃木県","jp_add_1":"佐野市","jp_add_2":"寺中町"},"3270044":{"post_code":"3270044","prefecture":"TOCHIGI KEN","city":"SANO SHI","town":"SHIMOHANEDACHO","perfecture_jp":"栃木県","jp_add_1":"佐野市","jp_add_2":"下羽田町"},"3270325":{"post_code":"3270325","prefecture":"TOCHIGI KEN","city":"SANO SHI","town":"SHIMOHIKOMACHO","perfecture_jp":"栃木県","jp_add_1":"佐野市","jp_add_2":"下彦間町"},"3270302":{"post_code":"3270302","prefecture":"TOCHIGI KEN","city":"SANO SHI","town":"SHIRAIWACHO","perfecture_jp":"栃木県","jp_add_1":"佐野市","jp_add_2":"白岩町"},"3270314":{"post_code":"3270314","prefecture":"TOCHIGI KEN","city":"SANO SHI","town":"SHINYOSHIMIZUCHO","perfecture_jp":"栃木県","jp_add_1":"佐野市","jp_add_2":"新吉水町"},"3270811":{"post_code":"3270811","prefecture":"TOCHIGI KEN","city":"SANO SHI","town":"SEKIGAWACHO","perfecture_jp":"栃木県","jp_add_1":"佐野市","jp_add_2":"関川町"},"3270514":{"post_code":"3270514","prefecture":"TOCHIGI KEN","city":"SANO SHI","town":"SEMBACHO(SONOTA)","perfecture_jp":"栃木県","jp_add_1":"佐野市","jp_add_2":"仙波町"},"3270016":{"post_code":"3270016","prefecture":"TOCHIGI KEN","city":"SANO SHI","town":"DAISHUKUCHO","perfecture_jp":"栃木県","jp_add_1":"佐野市","jp_add_2":"大祝町"},"3270017":{"post_code":"3270017","prefecture":"TOCHIGI KEN","city":"SANO SHI","town":"DAICHO","perfecture_jp":"栃木県","jp_add_1":"佐野市","jp_add_2":"大町"},"3270022":{"post_code":"3270022","prefecture":"TOCHIGI KEN","city":"SANO SHI","town":"TAKASAGOCHO","perfecture_jp":"栃木県","jp_add_1":"佐野市","jp_add_2":"高砂町"},"3270821":{"post_code":"3270821","prefecture":"TOCHIGI KEN","city":"SANO SHI","town":"TAKAHAGICHO","perfecture_jp":"栃木県","jp_add_1":"佐野市","jp_add_2":"高萩町"},"3270045":{"post_code":"3270045","prefecture":"TOCHIGI KEN","city":"SANO SHI","town":"TAKAHASHICHO","perfecture_jp":"栃木県","jp_add_1":"佐野市","jp_add_2":"高橋町"},"3270823":{"post_code":"3270823","prefecture":"TOCHIGI KEN","city":"SANO SHI","town":"TAKAYAMACHO","perfecture_jp":"栃木県","jp_add_1":"佐野市","jp_add_2":"高山町"},"3270031":{"post_code":"3270031","prefecture":"TOCHIGI KEN","city":"SANO SHI","town":"TAJIMACHO","perfecture_jp":"栃木県","jp_add_1":"佐野市","jp_add_2":"田島町"},"3270311":{"post_code":"3270311","prefecture":"TOCHIGI KEN","city":"SANO SHI","town":"TADACHO","perfecture_jp":"栃木県","jp_add_1":"佐野市","jp_add_2":"多田町"},"3270317":{"post_code":"3270317","prefecture":"TOCHIGI KEN","city":"SANO SHI","town":"TANUMACHO","perfecture_jp":"栃木県","jp_add_1":"佐野市","jp_add_2":"田沼町"},"3270841":{"post_code":"3270841","prefecture":"TOCHIGI KEN","city":"SANO SHI","town":"TANOIRICHO","perfecture_jp":"栃木県","jp_add_1":"佐野市","jp_add_2":"田之入町"},"3270502":{"post_code":"3270502","prefecture":"TOCHIGI KEN","city":"SANO SHI","town":"TSUIJICHO","perfecture_jp":"栃木県","jp_add_1":"佐野市","jp_add_2":"築地町"},"3270101":{"post_code":"3270101","prefecture":"TOCHIGI KEN","city":"SANO SHI","town":"TERAKUBOCHO","perfecture_jp":"栃木県","jp_add_1":"佐野市","jp_add_2":"寺久保町"},"3270847":{"post_code":"3270847","prefecture":"TOCHIGI KEN","city":"SANO SHI","town":"TENJINCHO","perfecture_jp":"栃木県","jp_add_1":"佐野市","jp_add_2":"天神町"},"3270014":{"post_code":"3270014","prefecture":"TOCHIGI KEN","city":"SANO SHI","town":"TEMMYOCHO","perfecture_jp":"栃木県","jp_add_1":"佐野市","jp_add_2":"天明町"},"3270312":{"post_code":"3270312","prefecture":"TOCHIGI KEN","city":"SANO SHI","town":"TOCHIMOTOCHO","perfecture_jp":"栃木県","jp_add_1":"佐野市","jp_add_2":"栃本町"},"3270323":{"post_code":"3270323","prefecture":"TOCHIGI KEN","city":"SANO SHI","town":"TONARACHO","perfecture_jp":"栃木県","jp_add_1":"佐野市","jp_add_2":"戸奈良町"},"3270844":{"post_code":"3270844","prefecture":"TOCHIGI KEN","city":"SANO SHI","town":"TOMIOKACHO","perfecture_jp":"栃木県","jp_add_1":"佐野市","jp_add_2":"富岡町"},"3270306":{"post_code":"3270306","prefecture":"TOCHIGI KEN","city":"SANO SHI","town":"TOMUROCHO","perfecture_jp":"栃木県","jp_add_1":"佐野市","jp_add_2":"戸室町"},"3270512":{"post_code":"3270512","prefecture":"TOCHIGI KEN","city":"SANO SHI","town":"TOYOSHIROCHO","perfecture_jp":"栃木県","jp_add_1":"佐野市","jp_add_2":"豊代町"},"3270524":{"post_code":"3270524","prefecture":"TOCHIGI KEN","city":"SANO SHI","town":"NAGASAKACHO","perfecture_jp":"栃木県","jp_add_1":"佐野市","jp_add_2":"長坂町"},"3270504":{"post_code":"3270504","prefecture":"TOCHIGI KEN","city":"SANO SHI","town":"NAKACHO","perfecture_jp":"栃木県","jp_add_1":"佐野市","jp_add_2":"中町"},"3270002":{"post_code":"3270002","prefecture":"TOCHIGI KEN","city":"SANO SHI","town":"NAMIKICHO","perfecture_jp":"栃木県","jp_add_1":"佐野市","jp_add_2":"並木町"},"3270842":{"post_code":"3270842","prefecture":"TOCHIGI KEN","city":"SANO SHI","town":"NARABUCHICHO","perfecture_jp":"栃木県","jp_add_1":"佐野市","jp_add_2":"奈良渕町"},"3270814":{"post_code":"3270814","prefecture":"TOCHIGI KEN","city":"SANO SHI","town":"NISHIURACHO","perfecture_jp":"栃木県","jp_add_1":"佐野市","jp_add_2":"西浦町"},"3270802":{"post_code":"3270802","prefecture":"TOCHIGI KEN","city":"SANO SHI","town":"NIRAGAWACHO","perfecture_jp":"栃木県","jp_add_1":"佐野市","jp_add_2":"韮川町"},"3270303":{"post_code":"3270303","prefecture":"TOCHIGI KEN","city":"SANO SHI","town":"HASEBACHO","perfecture_jp":"栃木県","jp_add_1":"佐野市","jp_add_2":"長谷場町"},"3270508":{"post_code":"3270508","prefecture":"TOCHIGI KEN","city":"SANO SHI","town":"HACHINOKICHO","perfecture_jp":"栃木県","jp_add_1":"佐野市","jp_add_2":"鉢木町"},"3270231":{"post_code":"3270231","prefecture":"TOCHIGI KEN","city":"SANO SHI","town":"HIKOMACHO","perfecture_jp":"栃木県","jp_add_1":"佐野市","jp_add_2":"飛駒町"},"3270801":{"post_code":"3270801","prefecture":"TOCHIGI KEN","city":"SANO SHI","town":"FUJICHO","perfecture_jp":"栃木県","jp_add_1":"佐野市","jp_add_2":"富士町"},"3270503":{"post_code":"3270503","prefecture":"TOCHIGI KEN","city":"SANO SHI","town":"FUJIMICHO","perfecture_jp":"栃木県","jp_add_1":"佐野市","jp_add_2":"富士見町"},"3270305":{"post_code":"3270305","prefecture":"TOCHIGI KEN","city":"SANO SHI","town":"FUNAKOSHICHO","perfecture_jp":"栃木県","jp_add_1":"佐野市","jp_add_2":"船越町"},"3270035":{"post_code":"3270035","prefecture":"TOCHIGI KEN","city":"SANO SHI","town":"FUNATSUGAWACHO","perfecture_jp":"栃木県","jp_add_1":"佐野市","jp_add_2":"船津川町"},"3270843":{"post_code":"3270843","prefecture":"TOCHIGI KEN","city":"SANO SHI","town":"HORIGOMECHO","perfecture_jp":"栃木県","jp_add_1":"佐野市","jp_add_2":"堀米町"},"3270013":{"post_code":"3270013","prefecture":"TOCHIGI KEN","city":"SANO SHI","town":"HONCHO","perfecture_jp":"栃木県","jp_add_1":"佐野市","jp_add_2":"本町"},"3270824":{"post_code":"3270824","prefecture":"TOCHIGI KEN","city":"SANO SHI","town":"MAKADOCHO","perfecture_jp":"栃木県","jp_add_1":"佐野市","jp_add_2":"馬門町"},"3270513":{"post_code":"3270513","prefecture":"TOCHIGI KEN","city":"SANO SHI","town":"MAGICHO","perfecture_jp":"栃木県","jp_add_1":"佐野市","jp_add_2":"牧町"},"3270812":{"post_code":"3270812","prefecture":"TOCHIGI KEN","city":"SANO SHI","town":"MACHIYACHO","perfecture_jp":"栃木県","jp_add_1":"佐野市","jp_add_2":"町谷町"},"3270304":{"post_code":"3270304","prefecture":"TOCHIGI KEN","city":"SANO SHI","town":"MIKAGURACHO","perfecture_jp":"栃木県","jp_add_1":"佐野市","jp_add_2":"御神楽町"},"3270516":{"post_code":"3270516","prefecture":"TOCHIGI KEN","city":"SANO SHI","town":"MIZUKICHO","perfecture_jp":"栃木県","jp_add_1":"佐野市","jp_add_2":"水木町"},"3270509":{"post_code":"3270509","prefecture":"TOCHIGI KEN","city":"SANO SHI","town":"MIYASHITACHO","perfecture_jp":"栃木県","jp_add_1":"佐野市","jp_add_2":"宮下町"},"3270046":{"post_code":"3270046","prefecture":"TOCHIGI KEN","city":"SANO SHI","town":"MURAKAMICHO","perfecture_jp":"栃木県","jp_add_1":"佐野市","jp_add_2":"村上町"},"3270041":{"post_code":"3270041","prefecture":"TOCHIGI KEN","city":"SANO SHI","town":"MENDORICHO","perfecture_jp":"栃木県","jp_add_1":"佐野市","jp_add_2":"免鳥町"},"3270826":{"post_code":"3270826","prefecture":"TOCHIGI KEN","city":"SANO SHI","town":"MOROYAMACHO","perfecture_jp":"栃木県","jp_add_1":"佐野市","jp_add_2":"茂呂山町"},"3270324":{"post_code":"3270324","prefecture":"TOCHIGI KEN","city":"SANO SHI","town":"YAMAGATACHO","perfecture_jp":"栃木県","jp_add_1":"佐野市","jp_add_2":"山形町"},"3270318":{"post_code":"3270318","prefecture":"TOCHIGI KEN","city":"SANO SHI","town":"YAMAKOSHICHO","perfecture_jp":"栃木県","jp_add_1":"佐野市","jp_add_2":"山越町"},"3270505":{"post_code":"3270505","prefecture":"TOCHIGI KEN","city":"SANO SHI","town":"YAMASUGECHO","perfecture_jp":"栃木県","jp_add_1":"佐野市","jp_add_2":"山菅町"},"3270027":{"post_code":"3270027","prefecture":"TOCHIGI KEN","city":"SANO SHI","town":"YAMATOCHO","perfecture_jp":"栃木県","jp_add_1":"佐野市","jp_add_2":"大和町"},"3270315":{"post_code":"3270315","prefecture":"TOCHIGI KEN","city":"SANO SHI","town":"YOSHIMIZUEKIMAE","perfecture_jp":"栃木県","jp_add_1":"佐野市","jp_add_2":"吉水駅前"},"3270313":{"post_code":"3270313","prefecture":"TOCHIGI KEN","city":"SANO SHI","town":"YOSHIMIZUCHO","perfecture_jp":"栃木県","jp_add_1":"佐野市","jp_add_2":"吉水町"},"3270818":{"post_code":"3270818","prefecture":"TOCHIGI KEN","city":"SANO SHI","town":"YONEYAMAMINAMICHO","perfecture_jp":"栃木県","jp_add_1":"佐野市","jp_add_2":"米山南町"},"3270028":{"post_code":"3270028","prefecture":"TOCHIGI KEN","city":"SANO SHI","town":"YOROZUCHO","perfecture_jp":"栃木県","jp_add_1":"佐野市","jp_add_2":"万町"},"3270846":{"post_code":"3270846","prefecture":"TOCHIGI KEN","city":"SANO SHI","town":"WAKAMATSUCHO","perfecture_jp":"栃木県","jp_add_1":"佐野市","jp_add_2":"若松町"},"3270833":{"post_code":"3270833","prefecture":"TOCHIGI KEN","city":"SANO SHI","town":"WAKAMIYA KAMICHO","perfecture_jp":"栃木県","jp_add_1":"佐野市","jp_add_2":"若宮上町"},"3270834":{"post_code":"3270834","prefecture":"TOCHIGI KEN","city":"SANO SHI","town":"WAKAMIYA SHIMOCHO","perfecture_jp":"栃木県","jp_add_1":"佐野市","jp_add_2":"若宮下町"}}