{"3291113":{"post_code":"3291113","prefecture":"TOCHIGI KEN","city":"UTSUNOMIYA SHI","town":"AINOSAWACHO","perfecture_jp":"栃木県","jp_add_1":"宇都宮市","jp_add_2":"相野沢町"},"3291117":{"post_code":"3291117","prefecture":"TOCHIGI KEN","city":"UTSUNOMIYA SHI","town":"KANOYACHO","perfecture_jp":"栃木県","jp_add_1":"宇都宮市","jp_add_2":"叶谷町"},"3291106":{"post_code":"3291106","prefecture":"TOCHIGI KEN","city":"UTSUNOMIYA SHI","town":"KAMIOTSUKACHO","perfecture_jp":"栃木県","jp_add_1":"宇都宮市","jp_add_2":"上大塚町"},"3291112":{"post_code":"3291112","prefecture":"TOCHIGI KEN","city":"UTSUNOMIYA SHI","town":"KAMITAWARACHO","perfecture_jp":"栃木県","jp_add_1":"宇都宮市","jp_add_2":"上田原町"},"3291111":{"post_code":"3291111","prefecture":"TOCHIGI KEN","city":"UTSUNOMIYA SHI","town":"SAKAZURACHO","perfecture_jp":"栃木県","jp_add_1":"宇都宮市","jp_add_2":"逆面町"},"3291101":{"post_code":"3291101","prefecture":"TOCHIGI KEN","city":"UTSUNOMIYA SHI","town":"SAGEHASHICHO","perfecture_jp":"栃木県","jp_add_1":"宇都宮市","jp_add_2":"下ケ橋町"},"3291104":{"post_code":"3291104","prefecture":"TOCHIGI KEN","city":"UTSUNOMIYA SHI","town":"SHIMOKAMOTOCHO","perfecture_jp":"栃木県","jp_add_1":"宇都宮市","jp_add_2":"下岡本町"},"3291115":{"post_code":"3291115","prefecture":"TOCHIGI KEN","city":"UTSUNOMIYA SHI","town":"SHIMOTAWARACHO","perfecture_jp":"栃木県","jp_add_1":"宇都宮市","jp_add_2":"下田原町"},"3291102":{"post_code":"3291102","prefecture":"TOCHIGI KEN","city":"UTSUNOMIYA SHI","town":"SHIRASAWACHO","perfecture_jp":"栃木県","jp_add_1":"宇都宮市","jp_add_2":"白沢町"},"3291114":{"post_code":"3291114","prefecture":"TOCHIGI KEN","city":"UTSUNOMIYA SHI","town":"TAKARAICHO","perfecture_jp":"栃木県","jp_add_1":"宇都宮市","jp_add_2":"宝井町"},"3291105":{"post_code":"3291105","prefecture":"TOCHIGI KEN","city":"UTSUNOMIYA SHI","town":"NAKAOKAMOTOCHO","perfecture_jp":"栃木県","jp_add_1":"宇都宮市","jp_add_2":"中岡本町"},"3291107":{"post_code":"3291107","prefecture":"TOCHIGI KEN","city":"UTSUNOMIYA SHI","town":"NAGAMINECHO","perfecture_jp":"栃木県","jp_add_1":"宇都宮市","jp_add_2":"長峰町"},"3291103":{"post_code":"3291103","prefecture":"TOCHIGI KEN","city":"UTSUNOMIYA SHI","town":"HIGASHIOKAMOTOCHO","perfecture_jp":"栃木県","jp_add_1":"宇都宮市","jp_add_2":"東岡本町"},"3291108":{"post_code":"3291108","prefecture":"TOCHIGI KEN","city":"UTSUNOMIYA SHI","town":"FURUTACHO","perfecture_jp":"栃木県","jp_add_1":"宇都宮市","jp_add_2":"古田町"},"3291116":{"post_code":"3291116","prefecture":"TOCHIGI KEN","city":"UTSUNOMIYA SHI","town":"RYUBUKUCHO","perfecture_jp":"栃木県","jp_add_1":"宇都宮市","jp_add_2":"立伏町"},"3294212":{"post_code":"3294212","prefecture":"TOCHIGI KEN","city":"ASHIKAGA SHI","town":"INAOKACHO","perfecture_jp":"栃木県","jp_add_1":"足利市","jp_add_2":"稲岡町"},"3294215":{"post_code":"3294215","prefecture":"TOCHIGI KEN","city":"ASHIKAGA SHI","town":"OKUDOCHO","perfecture_jp":"栃木県","jp_add_1":"足利市","jp_add_2":"奥戸町"},"3294217":{"post_code":"3294217","prefecture":"TOCHIGI KEN","city":"ASHIKAGA SHI","town":"KOMABACHO","perfecture_jp":"栃木県","jp_add_1":"足利市","jp_add_2":"駒場町"},"3294214":{"post_code":"3294214","prefecture":"TOCHIGI KEN","city":"ASHIKAGA SHI","town":"TADAKICHO","perfecture_jp":"栃木県","jp_add_1":"足利市","jp_add_2":"多田木町"},"3294213":{"post_code":"3294213","prefecture":"TOCHIGI KEN","city":"ASHIKAGA SHI","town":"TERAOKACHO","perfecture_jp":"栃木県","jp_add_1":"足利市","jp_add_2":"寺岡町"},"3294211":{"post_code":"3294211","prefecture":"TOCHIGI KEN","city":"ASHIKAGA SHI","town":"NISHIBACHO","perfecture_jp":"栃木県","jp_add_1":"足利市","jp_add_2":"西場町"},"3294216":{"post_code":"3294216","prefecture":"TOCHIGI KEN","city":"ASHIKAGA SHI","town":"HASAMACHO","perfecture_jp":"栃木県","jp_add_1":"足利市","jp_add_2":"迫間町"},"3294302":{"post_code":"3294302","prefecture":"TOCHIGI KEN","city":"TOCHIGI SHI","town":"IWAFUNEMACHI IKABATA","perfecture_jp":"栃木県","jp_add_1":"栃木市","jp_add_2":"岩舟町五十畑"},"3294303":{"post_code":"3294303","prefecture":"TOCHIGI KEN","city":"TOCHIGI SHI","town":"IWAFUNEMACHI IZUMI","perfecture_jp":"栃木県","jp_add_1":"栃木市","jp_add_2":"岩舟町和泉"},"3294314":{"post_code":"3294314","prefecture":"TOCHIGI KEN","city":"TOCHIGI SHI","town":"IWAFUNEMACHI ONODERA","perfecture_jp":"栃木県","jp_add_1":"栃木市","jp_add_2":"岩舟町小野寺"},"3294313":{"post_code":"3294313","prefecture":"TOCHIGI KEN","city":"TOCHIGI SHI","town":"IWAFUNEMACHI KAMIOKA","perfecture_jp":"栃木県","jp_add_1":"栃木市","jp_add_2":"岩舟町上岡"},"3294307":{"post_code":"3294307","prefecture":"TOCHIGI KEN","city":"TOCHIGI SHI","town":"IWAFUNEMACHI SHIZUKA","perfecture_jp":"栃木県","jp_add_1":"栃木市","jp_add_2":"岩舟町静"},"3294305":{"post_code":"3294305","prefecture":"TOCHIGI KEN","city":"TOCHIGI SHI","town":"IWAFUNEMACHI SHIZUKO","perfecture_jp":"栃木県","jp_add_1":"栃木市","jp_add_2":"岩舟町静戸"},"3294304":{"post_code":"3294304","prefecture":"TOCHIGI KEN","city":"TOCHIGI SHI","town":"IWAFUNEMACHI SHIZUWA","perfecture_jp":"栃木県","jp_add_1":"栃木市","jp_add_2":"岩舟町静和"},"3294312":{"post_code":"3294312","prefecture":"TOCHIGI KEN","city":"TOCHIGI SHI","town":"IWAFUNEMACHI SHIMOKA","perfecture_jp":"栃木県","jp_add_1":"栃木市","jp_add_2":"岩舟町下岡"},"3294308":{"post_code":"3294308","prefecture":"TOCHIGI KEN","city":"TOCHIGI SHI","town":"IWAFUNEMACHI SHIMOTSUBARA","perfecture_jp":"栃木県","jp_add_1":"栃木市","jp_add_2":"岩舟町下津原"},"3294309":{"post_code":"3294309","prefecture":"TOCHIGI KEN","city":"TOCHIGI SHI","town":"IWAFUNEMACHI TATAMIOKA","perfecture_jp":"栃木県","jp_add_1":"栃木市","jp_add_2":"岩舟町畳岡"},"3294316":{"post_code":"3294316","prefecture":"TOCHIGI KEN","city":"TOCHIGI SHI","town":"IWAFUNEMACHI NISSATO","perfecture_jp":"栃木県","jp_add_1":"栃木市","jp_add_2":"岩舟町新里"},"3294311":{"post_code":"3294311","prefecture":"TOCHIGI KEN","city":"TOCHIGI SHI","town":"IWAFUNEMACHI FURUE","perfecture_jp":"栃木県","jp_add_1":"栃木市","jp_add_2":"岩舟町古江"},"3294306":{"post_code":"3294306","prefecture":"TOCHIGI KEN","city":"TOCHIGI SHI","town":"IWAFUNEMACHI MAGANOSHIMA","perfecture_jp":"栃木県","jp_add_1":"栃木市","jp_add_2":"岩舟町曲ケ島"},"3294315":{"post_code":"3294315","prefecture":"TOCHIGI KEN","city":"TOCHIGI SHI","town":"IWAFUNEMACHI MIYA","perfecture_jp":"栃木県","jp_add_1":"栃木市","jp_add_2":"岩舟町三谷"},"3294301":{"post_code":"3294301","prefecture":"TOCHIGI KEN","city":"TOCHIGI SHI","town":"IWAFUNEMACHI WASHINOSU","perfecture_jp":"栃木県","jp_add_1":"栃木市","jp_add_2":"岩舟町鷲巣"},"3294425":{"post_code":"3294425","prefecture":"TOCHIGI KEN","city":"TOCHIGI SHI","town":"OHIRAMACHI ARAI","perfecture_jp":"栃木県","jp_add_1":"栃木市","jp_add_2":"大平町新"},"3294401":{"post_code":"3294401","prefecture":"TOCHIGI KEN","city":"TOCHIGI SHI","town":"OHIRAMACHI USHIKU","perfecture_jp":"栃木県","jp_add_1":"栃木市","jp_add_2":"大平町牛久"},"3294422":{"post_code":"3294422","prefecture":"TOCHIGI KEN","city":"TOCHIGI SHI","town":"OHIRAMACHI ENOMOTO","perfecture_jp":"栃木県","jp_add_1":"栃木市","jp_add_2":"大平町榎本"},"3294413":{"post_code":"3294413","prefecture":"TOCHIGI KEN","city":"TOCHIGI SHI","town":"OHIRAMACHI KAMITAKASHIMA","perfecture_jp":"栃木県","jp_add_1":"栃木市","jp_add_2":"大平町上高島"},"3294407":{"post_code":"3294407","prefecture":"TOCHIGI KEN","city":"TOCHIGI SHI","town":"OHIRAMACHI KAWATSURE","perfecture_jp":"栃木県","jp_add_1":"栃木市","jp_add_2":"大平町川連"},"3294412":{"post_code":"3294412","prefecture":"TOCHIGI KEN","city":"TOCHIGI SHI","town":"OHIRAMACHI KITATAKEI","perfecture_jp":"栃木県","jp_add_1":"栃木市","jp_add_2":"大平町北武井"},"3294403":{"post_code":"3294403","prefecture":"TOCHIGI KEN","city":"TOCHIGI SHI","town":"OHIRAMACHI KURAI","perfecture_jp":"栃木県","jp_add_1":"栃木市","jp_add_2":"大平町蔵井"},"3294414":{"post_code":"3294414","prefecture":"TOCHIGI KEN","city":"TOCHIGI SHI","town":"OHIRAMACHI SHIMOTAKASHIMA","perfecture_jp":"栃木県","jp_add_1":"栃木市","jp_add_2":"大平町下高島"},"3294406":{"post_code":"3294406","prefecture":"TOCHIGI KEN","city":"TOCHIGI SHI","town":"OHIRAMACHI SHIMOMINAGAWA","perfecture_jp":"栃木県","jp_add_1":"栃木市","jp_add_2":"大平町下皆川"},"3294404":{"post_code":"3294404","prefecture":"TOCHIGI KEN","city":"TOCHIGI SHI","town":"OHIRAMACHI TOMIDA","perfecture_jp":"栃木県","jp_add_1":"栃木市","jp_add_2":"大平町富田"},"3294402":{"post_code":"3294402","prefecture":"TOCHIGI KEN","city":"TOCHIGI SHI","town":"OHIRAMACHI DOYO","perfecture_jp":"栃木県","jp_add_1":"栃木市","jp_add_2":"大平町土与"},"3294421":{"post_code":"3294421","prefecture":"TOCHIGI KEN","city":"TOCHIGI SHI","town":"OHIRAMACHI NISHINODA","perfecture_jp":"栃木県","jp_add_1":"栃木市","jp_add_2":"大平町西野田"},"3294423":{"post_code":"3294423","prefecture":"TOCHIGI KEN","city":"TOCHIGI SHI","town":"OHIRAMACHI NISHIMIZUSHIRO","perfecture_jp":"栃木県","jp_add_1":"栃木市","jp_add_2":"大平町西水代"},"3294405":{"post_code":"3294405","prefecture":"TOCHIGI KEN","city":"TOCHIGI SHI","town":"OHIRAMACHI NISHIYAMADA","perfecture_jp":"栃木県","jp_add_1":"栃木市","jp_add_2":"大平町西山田"},"3294424":{"post_code":"3294424","prefecture":"TOCHIGI KEN","city":"TOCHIGI SHI","town":"OHIRAMACHI HAKUCHU","perfecture_jp":"栃木県","jp_add_1":"栃木市","jp_add_2":"大平町伯仲"},"3294415":{"post_code":"3294415","prefecture":"TOCHIGI KEN","city":"TOCHIGI SHI","town":"OHIRAMACHI MAYUMI","perfecture_jp":"栃木県","jp_add_1":"栃木市","jp_add_2":"大平町真弓"},"3294411":{"post_code":"3294411","prefecture":"TOCHIGI KEN","city":"TOCHIGI SHI","town":"OHIRAMACHI YOKOBORI","perfecture_jp":"栃木県","jp_add_1":"栃木市","jp_add_2":"大平町横堀"},"3290316":{"post_code":"3290316","prefecture":"TOCHIGI KEN","city":"TOCHIGI SHI","town":"FUJIOKAMACHI ISHIKAWA","perfecture_jp":"栃木県","jp_add_1":"栃木市","jp_add_2":"藤岡町石川"},"3290317":{"post_code":"3290317","prefecture":"TOCHIGI KEN","city":"TOCHIGI SHI","town":"FUJIOKAMACHI TATEWAKI","perfecture_jp":"栃木県","jp_add_1":"栃木市","jp_add_2":"藤岡町帯刀"},"3290311":{"post_code":"3290311","prefecture":"TOCHIGI KEN","city":"TOCHIGI SHI","town":"FUJIOKAMACHI TOMIYOSHI","perfecture_jp":"栃木県","jp_add_1":"栃木市","jp_add_2":"藤岡町富吉"},"3290319":{"post_code":"3290319","prefecture":"TOCHIGI KEN","city":"TOCHIGI SHI","town":"FUJIOKAMACHI NAKANE","perfecture_jp":"栃木県","jp_add_1":"栃木市","jp_add_2":"藤岡町中根"},"3290318":{"post_code":"3290318","prefecture":"TOCHIGI KEN","city":"TOCHIGI SHI","town":"FUJIOKAMACHI NISHIMAEHARA","perfecture_jp":"栃木県","jp_add_1":"栃木市","jp_add_2":"藤岡町西前原"},"3290314":{"post_code":"3290314","prefecture":"TOCHIGI KEN","city":"TOCHIGI SHI","town":"FUJIOKAMACHI NIPPA","perfecture_jp":"栃木県","jp_add_1":"栃木市","jp_add_2":"藤岡町新波"},"3290312":{"post_code":"3290312","prefecture":"TOCHIGI KEN","city":"TOCHIGI SHI","town":"FUJIOKAMACHI HIRUNUMA","perfecture_jp":"栃木県","jp_add_1":"栃木市","jp_add_2":"藤岡町蛭沼"},"3290315":{"post_code":"3290315","prefecture":"TOCHIGI KEN","city":"TOCHIGI SHI","town":"FUJIOKAMACHI HEYA","perfecture_jp":"栃木県","jp_add_1":"栃木市","jp_add_2":"藤岡町部屋"},"3290313":{"post_code":"3290313","prefecture":"TOCHIGI KEN","city":"TOCHIGI SHI","town":"FUJIOKAMACHI MIDORIKAWA","perfecture_jp":"栃木県","jp_add_1":"栃木市","jp_add_2":"藤岡町緑川"},"3290211":{"post_code":"3290211","prefecture":"TOCHIGI KEN","city":"OYAMA SHI","town":"AKATSUKI","perfecture_jp":"栃木県","jp_add_1":"小山市","jp_add_2":"暁"},"3290215":{"post_code":"3290215","prefecture":"TOCHIGI KEN","city":"OYAMA SHI","town":"AJITO","perfecture_jp":"栃木県","jp_add_1":"小山市","jp_add_2":"網戸"},"3290201":{"post_code":"3290201","prefecture":"TOCHIGI KEN","city":"OYAMA SHI","town":"AWANOMIYA","perfecture_jp":"栃木県","jp_add_1":"小山市","jp_add_2":"粟宮"},"3290207":{"post_code":"3290207","prefecture":"TOCHIGI KEN","city":"OYAMA SHI","town":"UTSUKUSHIGAOKA","perfecture_jp":"栃木県","jp_add_1":"小山市","jp_add_2":"美しが丘"},"3290228":{"post_code":"3290228","prefecture":"TOCHIGI KEN","city":"OYAMA SHI","town":"OSHIKIRI","perfecture_jp":"栃木県","jp_add_1":"小山市","jp_add_2":"押切"},"3290214":{"post_code":"3290214","prefecture":"TOCHIGI KEN","city":"OYAMA SHI","town":"OTOME","perfecture_jp":"栃木県","jp_add_1":"小山市","jp_add_2":"乙女"},"3290229":{"post_code":"3290229","prefecture":"TOCHIGI KEN","city":"OYAMA SHI","town":"KAGAMI","perfecture_jp":"栃木県","jp_add_1":"小山市","jp_add_2":"鏡"},"3290222":{"post_code":"3290222","prefecture":"TOCHIGI KEN","city":"OYAMA SHI","town":"KAMINAMAI","perfecture_jp":"栃木県","jp_add_1":"小山市","jp_add_2":"上生井"},"3290221":{"post_code":"3290221","prefecture":"TOCHIGI KEN","city":"OYAMA SHI","town":"KIRA","perfecture_jp":"栃木県","jp_add_1":"小山市","jp_add_2":"生良"},"3290226":{"post_code":"3290226","prefecture":"TOCHIGI KEN","city":"OYAMA SHI","town":"SAMUKAWA","perfecture_jp":"栃木県","jp_add_1":"小山市","jp_add_2":"寒川"},"3290223":{"post_code":"3290223","prefecture":"TOCHIGI KEN","city":"OYAMA SHI","town":"SHIMONAMAI","perfecture_jp":"栃木県","jp_add_1":"小山市","jp_add_2":"下生井"},"3290224":{"post_code":"3290224","prefecture":"TOCHIGI KEN","city":"OYAMA SHI","town":"SHIRATORI","perfecture_jp":"栃木県","jp_add_1":"小山市","jp_add_2":"白鳥"},"3290202":{"post_code":"3290202","prefecture":"TOCHIGI KEN","city":"OYAMA SHI","town":"SENDAZUKA","perfecture_jp":"栃木県","jp_add_1":"小山市","jp_add_2":"千駄塚"},"3290227":{"post_code":"3290227","prefecture":"TOCHIGI KEN","city":"OYAMA SHI","town":"NAKAZATO","perfecture_jp":"栃木県","jp_add_1":"小山市","jp_add_2":"中里"},"3290216":{"post_code":"3290216","prefecture":"TOCHIGI KEN","city":"OYAMA SHI","town":"NARANOKI","perfecture_jp":"栃木県","jp_add_1":"小山市","jp_add_2":"楢木"},"3290203":{"post_code":"3290203","prefecture":"TOCHIGI KEN","city":"OYAMA SHI","town":"NISHIKURODA","perfecture_jp":"栃木県","jp_add_1":"小山市","jp_add_2":"西黒田"},"3290225":{"post_code":"3290225","prefecture":"TOCHIGI KEN","city":"OYAMA SHI","town":"HASAMADA","perfecture_jp":"栃木県","jp_add_1":"小山市","jp_add_2":"迫間田"},"3290204":{"post_code":"3290204","prefecture":"TOCHIGI KEN","city":"OYAMA SHI","town":"HIGASHIKURODA","perfecture_jp":"栃木県","jp_add_1":"小山市","jp_add_2":"東黒田"},"3290206":{"post_code":"3290206","prefecture":"TOCHIGI KEN","city":"OYAMA SHI","town":"HIGASHIMAMADA","perfecture_jp":"栃木県","jp_add_1":"小山市","jp_add_2":"東間々田"},"3290212":{"post_code":"3290212","prefecture":"TOCHIGI KEN","city":"OYAMA SHI","town":"HIRAWA","perfecture_jp":"栃木県","jp_add_1":"小山市","jp_add_2":"平和"},"3290205":{"post_code":"3290205","prefecture":"TOCHIGI KEN","city":"OYAMA SHI","town":"MAMADA","perfecture_jp":"栃木県","jp_add_1":"小山市","jp_add_2":"間々田"},"3290213":{"post_code":"3290213","prefecture":"TOCHIGI KEN","city":"OYAMA SHI","town":"MINAMIIIDA","perfecture_jp":"栃木県","jp_add_1":"小山市","jp_add_2":"南飯田"},"3290217":{"post_code":"3290217","prefecture":"TOCHIGI KEN","city":"OYAMA SHI","town":"MINAMIOTOME","perfecture_jp":"栃木県","jp_add_1":"小山市","jp_add_2":"南乙女"},"3292100":{"post_code":"3292100","prefecture":"TOCHIGI KEN","city":"YAITA SHI","town":"IKANIKEISAIGANAIBAAI","perfecture_jp":"栃木県","jp_add_1":"矢板市","jp_add_2":""},"3292136":{"post_code":"3292136","prefecture":"TOCHIGI KEN","city":"YAITA SHI","town":"AZUMACHO","perfecture_jp":"栃木県","jp_add_1":"矢板市","jp_add_2":"東町"},"3292121":{"post_code":"3292121","prefecture":"TOCHIGI KEN","city":"YAITA SHI","town":"ARAI","perfecture_jp":"栃木県","jp_add_1":"矢板市","jp_add_2":"荒井"},"3291572":{"post_code":"3291572","prefecture":"TOCHIGI KEN","city":"YAITA SHI","town":"ANZAWA","perfecture_jp":"栃木県","jp_add_1":"矢板市","jp_add_2":"安沢"},"3291576":{"post_code":"3291576","prefecture":"TOCHIGI KEN","city":"YAITA SHI","town":"ISHIZEKI","perfecture_jp":"栃木県","jp_add_1":"矢板市","jp_add_2":"石関"},"3292504":{"post_code":"3292504","prefecture":"TOCHIGI KEN","city":"YAITA SHI","town":"IZUMI","perfecture_jp":"栃木県","jp_add_1":"矢板市","jp_add_2":"泉"},"3292161":{"post_code":"3292161","prefecture":"TOCHIGI KEN","city":"YAITA SHI","town":"OGICHO","perfecture_jp":"栃木県","jp_add_1":"矢板市","jp_add_2":"扇町"},"3291575":{"post_code":"3291575","prefecture":"TOCHIGI KEN","city":"YAITA SHI","town":"OTSUKI","perfecture_jp":"栃木県","jp_add_1":"矢板市","jp_add_2":"大槻"},"3291574":{"post_code":"3291574","prefecture":"TOCHIGI KEN","city":"YAITA SHI","town":"OTSUHATA","perfecture_jp":"栃木県","jp_add_1":"矢板市","jp_add_2":"乙畑"},"3292163":{"post_code":"3292163","prefecture":"TOCHIGI KEN","city":"YAITA SHI","town":"KASHIMACHO","perfecture_jp":"栃木県","jp_add_1":"矢板市","jp_add_2":"鹿島町"},"3291571":{"post_code":"3291571","prefecture":"TOCHIGI KEN","city":"YAITA SHI","town":"KATAOKA","perfecture_jp":"栃木県","jp_add_1":"矢板市","jp_add_2":"片岡"},"3292155":{"post_code":"3292155","prefecture":"TOCHIGI KEN","city":"YAITA SHI","town":"KATAMATA","perfecture_jp":"栃木県","jp_add_1":"矢板市","jp_add_2":"片俣"},"3292501":{"post_code":"3292501","prefecture":"TOCHIGI KEN","city":"YAITA SHI","town":"KAMIISANO","perfecture_jp":"栃木県","jp_add_1":"矢板市","jp_add_2":"上伊佐野"},"3292513":{"post_code":"3292513","prefecture":"TOCHIGI KEN","city":"YAITA SHI","town":"KAMIOTA","perfecture_jp":"栃木県","jp_add_1":"矢板市","jp_add_2":"上太田"},"3292123":{"post_code":"3292123","prefecture":"TOCHIGI KEN","city":"YAITA SHI","town":"KAMICHO","perfecture_jp":"栃木県","jp_add_1":"矢板市","jp_add_2":"上町"},"3292144":{"post_code":"3292144","prefecture":"TOCHIGI KEN","city":"YAITA SHI","town":"KAWASAKISORIMACHI","perfecture_jp":"栃木県","jp_add_1":"矢板市","jp_add_2":"川崎反町"},"3292142":{"post_code":"3292142","prefecture":"TOCHIGI KEN","city":"YAITA SHI","town":"KIBATA","perfecture_jp":"栃木県","jp_add_1":"矢板市","jp_add_2":"木幡"},"3292154":{"post_code":"3292154","prefecture":"TOCHIGI KEN","city":"YAITA SHI","town":"KURAKAKE","perfecture_jp":"栃木県","jp_add_1":"矢板市","jp_add_2":"倉掛"},"3292151":{"post_code":"3292151","prefecture":"TOCHIGI KEN","city":"YAITA SHI","town":"KOOKA","perfecture_jp":"栃木県","jp_add_1":"矢板市","jp_add_2":"幸岡"},"3291573":{"post_code":"3291573","prefecture":"TOCHIGI KEN","city":"YAITA SHI","town":"KOEHATA","perfecture_jp":"栃木県","jp_add_1":"矢板市","jp_add_2":"越畑"},"3291579":{"post_code":"3291579","prefecture":"TOCHIGI KEN","city":"YAITA SHI","town":"KOBUSHIDAI","perfecture_jp":"栃木県","jp_add_1":"矢板市","jp_add_2":"こぶし台"},"3292143":{"post_code":"3292143","prefecture":"TOCHIGI KEN","city":"YAITA SHI","town":"SAKAIBAYASHI","perfecture_jp":"栃木県","jp_add_1":"矢板市","jp_add_2":"境林"},"3292132":{"post_code":"3292132","prefecture":"TOCHIGI KEN","city":"YAITA SHI","town":"SAWA","perfecture_jp":"栃木県","jp_add_1":"矢板市","jp_add_2":"沢"},"3292156":{"post_code":"3292156","prefecture":"TOCHIGI KEN","city":"YAITA SHI","town":"SHIODA","perfecture_jp":"栃木県","jp_add_1":"矢板市","jp_add_2":"塩田"},"3292502":{"post_code":"3292502","prefecture":"TOCHIGI KEN","city":"YAITA SHI","town":"SHIMOISANO","perfecture_jp":"栃木県","jp_add_1":"矢板市","jp_add_2":"下伊佐野"},"3292124":{"post_code":"3292124","prefecture":"TOCHIGI KEN","city":"YAITA SHI","town":"SHIMOOTA","perfecture_jp":"栃木県","jp_add_1":"矢板市","jp_add_2":"下太田"},"3292162":{"post_code":"3292162","prefecture":"TOCHIGI KEN","city":"YAITA SHI","town":"SUEHIROCHO","perfecture_jp":"栃木県","jp_add_1":"矢板市","jp_add_2":"末広町"},"3292153":{"post_code":"3292153","prefecture":"TOCHIGI KEN","city":"YAITA SHI","town":"TAKASHIO","perfecture_jp":"栃木県","jp_add_1":"矢板市","jp_add_2":"高塩"},"3292505":{"post_code":"3292505","prefecture":"TOCHIGI KEN","city":"YAITA SHI","town":"TATSUASHI","perfecture_jp":"栃木県","jp_add_1":"矢板市","jp_add_2":"立足"},"3292152":{"post_code":"3292152","prefecture":"TOCHIGI KEN","city":"YAITA SHI","town":"TATENOKAWA","perfecture_jp":"栃木県","jp_add_1":"矢板市","jp_add_2":"館ノ川"},"3292503":{"post_code":"3292503","prefecture":"TOCHIGI KEN","city":"YAITA SHI","town":"TANOHARA","perfecture_jp":"栃木県","jp_add_1":"矢板市","jp_add_2":"田野原"},"3291577":{"post_code":"3291577","prefecture":"TOCHIGI KEN","city":"YAITA SHI","town":"TAMADA","perfecture_jp":"栃木県","jp_add_1":"矢板市","jp_add_2":"玉田"},"3292131":{"post_code":"3292131","prefecture":"TOCHIGI KEN","city":"YAITA SHI","town":"TSUCHIYA","perfecture_jp":"栃木県","jp_add_1":"矢板市","jp_add_2":"土屋"},"3292145":{"post_code":"3292145","prefecture":"TOCHIGI KEN","city":"YAITA SHI","town":"TOMITA","perfecture_jp":"栃木県","jp_add_1":"矢板市","jp_add_2":"富田"},"3292133":{"post_code":"3292133","prefecture":"TOCHIGI KEN","city":"YAITA SHI","town":"TOYODA","perfecture_jp":"栃木県","jp_add_1":"矢板市","jp_add_2":"豊田"},"3292135":{"post_code":"3292135","prefecture":"TOCHIGI KEN","city":"YAITA SHI","town":"NAKA","perfecture_jp":"栃木県","jp_add_1":"矢板市","jp_add_2":"中"},"3292514":{"post_code":"3292514","prefecture":"TOCHIGI KEN","city":"YAITA SHI","town":"NAGAI","perfecture_jp":"栃木県","jp_add_1":"矢板市","jp_add_2":"長井"},"3292134":{"post_code":"3292134","prefecture":"TOCHIGI KEN","city":"YAITA SHI","town":"NARITA","perfecture_jp":"栃木県","jp_add_1":"矢板市","jp_add_2":"成田"},"3292141":{"post_code":"3292141","prefecture":"TOCHIGI KEN","city":"YAITA SHI","town":"HAYAKAWACHO","perfecture_jp":"栃木県","jp_add_1":"矢板市","jp_add_2":"早川町"},"3292122":{"post_code":"3292122","prefecture":"TOCHIGI KEN","city":"YAITA SHI","town":"HARIU","perfecture_jp":"栃木県","jp_add_1":"矢板市","jp_add_2":"針生"},"3292512":{"post_code":"3292512","prefecture":"TOCHIGI KEN","city":"YAITA SHI","town":"HIGASHIIZUMI","perfecture_jp":"栃木県","jp_add_1":"矢板市","jp_add_2":"東泉"},"3292506":{"post_code":"3292506","prefecture":"TOCHIGI KEN","city":"YAITA SHI","town":"HIRANO","perfecture_jp":"栃木県","jp_add_1":"矢板市","jp_add_2":"平野"},"3292164":{"post_code":"3292164","prefecture":"TOCHIGI KEN","city":"YAITA SHI","town":"HONCHO","perfecture_jp":"栃木県","jp_add_1":"矢板市","jp_add_2":"本町"},"3292165":{"post_code":"3292165","prefecture":"TOCHIGI KEN","city":"YAITA SHI","town":"YAITA","perfecture_jp":"栃木県","jp_add_1":"矢板市","jp_add_2":"矢板"},"3292511":{"post_code":"3292511","prefecture":"TOCHIGI KEN","city":"YAITA SHI","town":"YAMADA","perfecture_jp":"栃木県","jp_add_1":"矢板市","jp_add_2":"山田"},"3291578":{"post_code":"3291578","prefecture":"TOCHIGI KEN","city":"YAITA SHI","town":"YAMANAWASHIRO","perfecture_jp":"栃木県","jp_add_1":"矢板市","jp_add_2":"山苗代"},"3292721":{"post_code":"3292721","prefecture":"TOCHIGI KEN","city":"NASUSHIOBARA SHI","town":"AZUMACHO","perfecture_jp":"栃木県","jp_add_1":"那須塩原市","jp_add_2":"東町"},"3292725":{"post_code":"3292725","prefecture":"TOCHIGI KEN","city":"NASUSHIOBARA SHI","town":"ATAGOCHO","perfecture_jp":"栃木県","jp_add_1":"那須塩原市","jp_add_2":"あたご町"},"3292763":{"post_code":"3292763","prefecture":"TOCHIGI KEN","city":"NASUSHIOBARA SHI","town":"IGUCHI","perfecture_jp":"栃木県","jp_add_1":"那須塩原市","jp_add_2":"井口"},"3292711":{"post_code":"3292711","prefecture":"TOCHIGI KEN","city":"NASUSHIOBARA SHI","town":"ISHIBAYASHI","perfecture_jp":"栃木県","jp_add_1":"那須塩原市","jp_add_2":"石林"},"3292732":{"post_code":"3292732","prefecture":"TOCHIGI KEN","city":"NASUSHIOBARA SHI","town":"IKKUCHO","perfecture_jp":"栃木県","jp_add_1":"那須塩原市","jp_add_2":"一区町"},"3292816":{"post_code":"3292816","prefecture":"TOCHIGI KEN","city":"NASUSHIOBARA SHI","town":"UTSUNO","perfecture_jp":"栃木県","jp_add_1":"那須塩原市","jp_add_2":"宇都野"},"3292726":{"post_code":"3292726","prefecture":"TOCHIGI KEN","city":"NASUSHIOBARA SHI","town":"OGICHO","perfecture_jp":"栃木県","jp_add_1":"那須塩原市","jp_add_2":"扇町"},"3293153":{"post_code":"3293153","prefecture":"TOCHIGI KEN","city":"NASUSHIOBARA SHI","town":"OHARAMA","perfecture_jp":"栃木県","jp_add_1":"那須塩原市","jp_add_2":"大原間"},"3293157":{"post_code":"3293157","prefecture":"TOCHIGI KEN","city":"NASUSHIOBARA SHI","town":"OHARAMANISHI","perfecture_jp":"栃木県","jp_add_1":"那須塩原市","jp_add_2":"大原間西"},"3292803":{"post_code":"3292803","prefecture":"TOCHIGI KEN","city":"NASUSHIOBARA SHI","town":"OSONOSAWA","perfecture_jp":"栃木県","jp_add_1":"那須塩原市","jp_add_2":"遅野沢"},"3292804":{"post_code":"3292804","prefecture":"TOCHIGI KEN","city":"NASUSHIOBARA SHI","town":"ORIDO","perfecture_jp":"栃木県","jp_add_1":"那須塩原市","jp_add_2":"折戸"},"3292812":{"post_code":"3292812","prefecture":"TOCHIGI KEN","city":"NASUSHIOBARA SHI","town":"KANEZAWA","perfecture_jp":"栃木県","jp_add_1":"那須塩原市","jp_add_2":"金沢"},"3293121":{"post_code":"3293121","prefecture":"TOCHIGI KEN","city":"NASUSHIOBARA SHI","town":"KANOSAKI","perfecture_jp":"栃木県","jp_add_1":"那須塩原市","jp_add_2":"鹿野崎"},"3292748":{"post_code":"3292748","prefecture":"TOCHIGI KEN","city":"NASUSHIOBARA SHI","town":"KAMIAKADA","perfecture_jp":"栃木県","jp_add_1":"那須塩原市","jp_add_2":"上赤田"},"3293134":{"post_code":"3293134","prefecture":"TOCHIGI KEN","city":"NASUSHIOBARA SHI","town":"KAMIOTSUKASHINDEN","perfecture_jp":"栃木県","jp_add_1":"那須塩原市","jp_add_2":"上大塚新田"},"3292814":{"post_code":"3292814","prefecture":"TOCHIGI KEN","city":"NASUSHIOBARA SHI","town":"KAMIONUKI","perfecture_jp":"栃木県","jp_add_1":"那須塩原市","jp_add_2":"上大貫"},"3293127":{"post_code":"3293127","prefecture":"TOCHIGI KEN","city":"NASUSHIOBARA SHI","town":"KAMIGOYA","perfecture_jp":"栃木県","jp_add_1":"那須塩原市","jp_add_2":"上郷屋"},"3292923":{"post_code":"3292923","prefecture":"TOCHIGI KEN","city":"NASUSHIOBARA SHI","town":"KAMISHIOBARA","perfecture_jp":"栃木県","jp_add_1":"那須塩原市","jp_add_2":"上塩原"},"3293154":{"post_code":"3293154","prefecture":"TOCHIGI KEN","city":"NASUSHIOBARA SHI","town":"KAMINAKANO","perfecture_jp":"栃木県","jp_add_1":"那須塩原市","jp_add_2":"上中野"},"3292805":{"post_code":"3292805","prefecture":"TOCHIGI KEN","city":"NASUSHIOBARA SHI","town":"KAMIYOKOBAYASHI","perfecture_jp":"栃木県","jp_add_1":"那須塩原市","jp_add_2":"上横林"},"3293131":{"post_code":"3293131","prefecture":"TOCHIGI KEN","city":"NASUSHIOBARA SHI","town":"KARASUGI","perfecture_jp":"栃木県","jp_add_1":"那須塩原市","jp_add_2":"唐杉"},"3293145":{"post_code":"3293145","prefecture":"TOCHIGI KEN","city":"NASUSHIOBARA SHI","town":"KISOHATANAKA","perfecture_jp":"栃木県","jp_add_1":"那須塩原市","jp_add_2":"木曾畑中"},"3292741":{"post_code":"3292741","prefecture":"TOCHIGI KEN","city":"NASUSHIOBARA SHI","town":"KITAAKADA","perfecture_jp":"栃木県","jp_add_1":"那須塩原市","jp_add_2":"北赤田"},"3292734":{"post_code":"3292734","prefecture":"TOCHIGI KEN","city":"NASUSHIOBARA SHI","town":"KITAFUTATSUMURO","perfecture_jp":"栃木県","jp_add_1":"那須塩原市","jp_add_2":"北二つ室"},"3293132":{"post_code":"3293132","prefecture":"TOCHIGI KEN","city":"NASUSHIOBARA SHI","town":"KITAYAROKU","perfecture_jp":"栃木県","jp_add_1":"那須塩原市","jp_add_2":"北弥六"},"3293151":{"post_code":"3293151","prefecture":"TOCHIGI KEN","city":"NASUSHIOBARA SHI","town":"KITAWADA","perfecture_jp":"栃木県","jp_add_1":"那須塩原市","jp_add_2":"北和田"},"3293133":{"post_code":"3293133","prefecture":"TOCHIGI KEN","city":"NASUSHIOBARA SHI","town":"KUTSUKAKE","perfecture_jp":"栃木県","jp_add_1":"那須塩原市","jp_add_2":"沓掛"},"3292753":{"post_code":"3292753","prefecture":"TOCHIGI KEN","city":"NASUSHIOBARA SHI","town":"GOKENCHO","perfecture_jp":"栃木県","jp_add_1":"那須塩原市","jp_add_2":"五軒町"},"3293155":{"post_code":"3293155","prefecture":"TOCHIGI KEN","city":"NASUSHIOBARA SHI","town":"SASANUMA","perfecture_jp":"栃木県","jp_add_1":"那須塩原市","jp_add_2":"笹沼"},"3293142":{"post_code":"3293142","prefecture":"TOCHIGI KEN","city":"NASUSHIOBARA SHI","town":"SANO","perfecture_jp":"栃木県","jp_add_1":"那須塩原市","jp_add_2":"佐野"},"3292745":{"post_code":"3292745","prefecture":"TOCHIGI KEN","city":"NASUSHIOBARA SHI","town":"SANKUCHO","perfecture_jp":"栃木県","jp_add_1":"那須塩原市","jp_add_2":"三区町"},"3293143":{"post_code":"3293143","prefecture":"TOCHIGI KEN","city":"NASUSHIOBARA SHI","town":"SAMBONGI","perfecture_jp":"栃木県","jp_add_1":"那須塩原市","jp_add_2":"三本木"},"3293122":{"post_code":"3293122","prefecture":"TOCHIGI KEN","city":"NASUSHIOBARA SHI","town":"SHIONOSAKI","perfecture_jp":"栃木県","jp_add_1":"那須塩原市","jp_add_2":"塩野崎"},"3293123":{"post_code":"3293123","prefecture":"TOCHIGI KEN","city":"NASUSHIOBARA SHI","town":"SHIONOSAKISHINDEN","perfecture_jp":"栃木県","jp_add_1":"那須塩原市","jp_add_2":"塩野崎新田"},"3292921":{"post_code":"3292921","prefecture":"TOCHIGI KEN","city":"NASUSHIOBARA SHI","town":"SHIOBARA","perfecture_jp":"栃木県","jp_add_1":"那須塩原市","jp_add_2":"塩原"},"3293152":{"post_code":"3293152","prefecture":"TOCHIGI KEN","city":"NASUSHIOBARA SHI","town":"SHIMAKATA","perfecture_jp":"栃木県","jp_add_1":"那須塩原市","jp_add_2":"島方"},"3292815":{"post_code":"3292815","prefecture":"TOCHIGI KEN","city":"NASUSHIOBARA SHI","town":"SHIMOONUKI","perfecture_jp":"栃木県","jp_add_1":"那須塩原市","jp_add_2":"下大貫"},"3292811":{"post_code":"3292811","prefecture":"TOCHIGI KEN","city":"NASUSHIOBARA SHI","town":"SHIMOTANO","perfecture_jp":"栃木県","jp_add_1":"那須塩原市","jp_add_2":"下田野"},"3292712":{"post_code":"3292712","prefecture":"TOCHIGI KEN","city":"NASUSHIOBARA SHI","town":"SHIMONAGATA","perfecture_jp":"栃木県","jp_add_1":"那須塩原市","jp_add_2":"下永田"},"3293146":{"post_code":"3293146","prefecture":"TOCHIGI KEN","city":"NASUSHIOBARA SHI","town":"SHIMONAKANO","perfecture_jp":"栃木県","jp_add_1":"那須塩原市","jp_add_2":"下中野"},"3292704":{"post_code":"3292704","prefecture":"TOCHIGI KEN","city":"NASUSHIOBARA SHI","town":"SHINNAN","perfecture_jp":"栃木県","jp_add_1":"那須塩原市","jp_add_2":"新南"},"3292701":{"post_code":"3292701","prefecture":"TOCHIGI KEN","city":"NASUSHIOBARA SHI","town":"SEKINE","perfecture_jp":"栃木県","jp_add_1":"那須塩原市","jp_add_2":"関根"},"3292801":{"post_code":"3292801","prefecture":"TOCHIGI KEN","city":"NASUSHIOBARA SHI","town":"SEKIYA","perfecture_jp":"栃木県","jp_add_1":"那須塩原市","jp_add_2":"関谷"},"3292747":{"post_code":"3292747","prefecture":"TOCHIGI KEN","city":"NASUSHIOBARA SHI","town":"SEMBOMMATSU","perfecture_jp":"栃木県","jp_add_1":"那須塩原市","jp_add_2":"千本松"},"3292813":{"post_code":"3292813","prefecture":"TOCHIGI KEN","city":"NASUSHIOBARA SHI","town":"TAKAATSU","perfecture_jp":"栃木県","jp_add_1":"那須塩原市","jp_add_2":"高阿津"},"3292707":{"post_code":"3292707","prefecture":"TOCHIGI KEN","city":"NASUSHIOBARA SHI","town":"TAKAYANAGI","perfecture_jp":"栃木県","jp_add_1":"那須塩原市","jp_add_2":"高柳"},"3292735":{"post_code":"3292735","prefecture":"TOCHIGI KEN","city":"NASUSHIOBARA SHI","town":"TAYUZUKA","perfecture_jp":"栃木県","jp_add_1":"那須塩原市","jp_add_2":"太夫塚"},"3292703":{"post_code":"3292703","prefecture":"TOCHIGI KEN","city":"NASUSHIOBARA SHI","town":"TSUKINUKIZAWA","perfecture_jp":"栃木県","jp_add_1":"那須塩原市","jp_add_2":"槻沢"},"3293126":{"post_code":"3293126","prefecture":"TOCHIGI KEN","city":"NASUSHIOBARA SHI","town":"NAKAUCHI","perfecture_jp":"栃木県","jp_add_1":"那須塩原市","jp_add_2":"中内"},"3292924":{"post_code":"3292924","prefecture":"TOCHIGI KEN","city":"NASUSHIOBARA SHI","town":"NAKASHIOBARA","perfecture_jp":"栃木県","jp_add_1":"那須塩原市","jp_add_2":"中塩原"},"3292727":{"post_code":"3292727","prefecture":"TOCHIGI KEN","city":"NASUSHIOBARA SHI","town":"NAGATACHO","perfecture_jp":"栃木県","jp_add_1":"那須塩原市","jp_add_2":"永田町"},"3292733":{"post_code":"3292733","prefecture":"TOCHIGI KEN","city":"NASUSHIOBARA SHI","town":"NIKUCHO","perfecture_jp":"栃木県","jp_add_1":"那須塩原市","jp_add_2":"二区町"},"3292744":{"post_code":"3292744","prefecture":"TOCHIGI KEN","city":"NASUSHIOBARA SHI","town":"NISHIAKADA","perfecture_jp":"栃木県","jp_add_1":"那須塩原市","jp_add_2":"西赤田"},"3292722":{"post_code":"3292722","prefecture":"TOCHIGI KEN","city":"NASUSHIOBARA SHI","town":"NISHIASAHICHO","perfecture_jp":"栃木県","jp_add_1":"那須塩原市","jp_add_2":"西朝日町"},"3292764":{"post_code":"3292764","prefecture":"TOCHIGI KEN","city":"NASUSHIOBARA SHI","town":"NISHIOSOZAWA","perfecture_jp":"栃木県","jp_add_1":"那須塩原市","jp_add_2":"西遅沢"},"3292724":{"post_code":"3292724","prefecture":"TOCHIGI KEN","city":"NASUSHIOBARA SHI","town":"NISHISAIWAICHO","perfecture_jp":"栃木県","jp_add_1":"那須塩原市","jp_add_2":"西幸町"},"3292728":{"post_code":"3292728","prefecture":"TOCHIGI KEN","city":"NASUSHIOBARA SHI","town":"NISHISAKAECHO","perfecture_jp":"栃木県","jp_add_1":"那須塩原市","jp_add_2":"西栄町"},"3292762":{"post_code":"3292762","prefecture":"TOCHIGI KEN","city":"NASUSHIOBARA SHI","town":"NISHITOMIYAMA","perfecture_jp":"栃木県","jp_add_1":"那須塩原市","jp_add_2":"西富山"},"3292755":{"post_code":"3292755","prefecture":"TOCHIGI KEN","city":"NASUSHIOBARA SHI","town":"NISHIHARACHO","perfecture_jp":"栃木県","jp_add_1":"那須塩原市","jp_add_2":"西原町"},"3292756":{"post_code":"3292756","prefecture":"TOCHIGI KEN","city":"NASUSHIOBARA SHI","town":"NISHIMISHIMA","perfecture_jp":"栃木県","jp_add_1":"那須塩原市","jp_add_2":"西三島"},"3292754":{"post_code":"3292754","prefecture":"TOCHIGI KEN","city":"NASUSHIOBARA SHI","town":"NISHIYAMATO","perfecture_jp":"栃木県","jp_add_1":"那須塩原市","jp_add_2":"西大和"},"3292807":{"post_code":"3292807","prefecture":"TOCHIGI KEN","city":"NASUSHIOBARA SHI","town":"NIWATOKO","perfecture_jp":"栃木県","jp_add_1":"那須塩原市","jp_add_2":"接骨木"},"3293144":{"post_code":"3293144","prefecture":"TOCHIGI KEN","city":"NASUSHIOBARA SHI","town":"NUMANOTAWA","perfecture_jp":"栃木県","jp_add_1":"那須塩原市","jp_add_2":"沼野田和"},"3293124":{"post_code":"3293124","prefecture":"TOCHIGI KEN","city":"NASUSHIOBARA SHI","town":"HATTACHI","perfecture_jp":"栃木県","jp_add_1":"那須塩原市","jp_add_2":"波立"},"3292742":{"post_code":"3292742","prefecture":"TOCHIGI KEN","city":"NASUSHIOBARA SHI","town":"HIGASHIAKADA","perfecture_jp":"栃木県","jp_add_1":"那須塩原市","jp_add_2":"東赤田"},"3292761":{"post_code":"3292761","prefecture":"TOCHIGI KEN","city":"NASUSHIOBARA SHI","town":"HIGASHIOSOZAWA","perfecture_jp":"栃木県","jp_add_1":"那須塩原市","jp_add_2":"東遅沢"},"3293147":{"post_code":"3293147","prefecture":"TOCHIGI KEN","city":"NASUSHIOBARA SHI","town":"HIGASHIKOYA","perfecture_jp":"栃木県","jp_add_1":"那須塩原市","jp_add_2":"東小屋"},"3292702":{"post_code":"3292702","prefecture":"TOCHIGI KEN","city":"NASUSHIOBARA SHI","town":"HIGASHISEKINE","perfecture_jp":"栃木県","jp_add_1":"那須塩原市","jp_add_2":"東関根"},"3292751":{"post_code":"3292751","prefecture":"TOCHIGI KEN","city":"NASUSHIOBARA SHI","town":"HIGASHIMISHIMA","perfecture_jp":"栃木県","jp_add_1":"那須塩原市","jp_add_2":"東三島"},"3292802":{"post_code":"3292802","prefecture":"TOCHIGI KEN","city":"NASUSHIOBARA SHI","town":"HIKINUMA","perfecture_jp":"栃木県","jp_add_1":"那須塩原市","jp_add_2":"蟇沼"},"3292731":{"post_code":"3292731","prefecture":"TOCHIGI KEN","city":"NASUSHIOBARA SHI","town":"FUTATSUMURO","perfecture_jp":"栃木県","jp_add_1":"那須塩原市","jp_add_2":"二つ室"},"3293156":{"post_code":"3293156","prefecture":"TOCHIGI KEN","city":"NASUSHIOBARA SHI","town":"HOKYO","perfecture_jp":"栃木県","jp_add_1":"那須塩原市","jp_add_2":"方京"},"3293135":{"post_code":"3293135","prefecture":"TOCHIGI KEN","city":"NASUSHIOBARA SHI","town":"MAEYAROKU","perfecture_jp":"栃木県","jp_add_1":"那須塩原市","jp_add_2":"前弥六"},"3293136":{"post_code":"3293136","prefecture":"TOCHIGI KEN","city":"NASUSHIOBARA SHI","town":"MAEYAROKUMINAMICHO","perfecture_jp":"栃木県","jp_add_1":"那須塩原市","jp_add_2":"前弥六南町"},"3292752":{"post_code":"3292752","prefecture":"TOCHIGI KEN","city":"NASUSHIOBARA SHI","town":"MISHIMA","perfecture_jp":"栃木県","jp_add_1":"那須塩原市","jp_add_2":"三島"},"3292713":{"post_code":"3292713","prefecture":"TOCHIGI KEN","city":"NASUSHIOBARA SHI","town":"MIDORI","perfecture_jp":"栃木県","jp_add_1":"那須塩原市","jp_add_2":"緑"},"3292743":{"post_code":"3292743","prefecture":"TOCHIGI KEN","city":"NASUSHIOBARA SHI","town":"MINAMIAKADA","perfecture_jp":"栃木県","jp_add_1":"那須塩原市","jp_add_2":"南赤田"},"3292705":{"post_code":"3292705","prefecture":"TOCHIGI KEN","city":"NASUSHIOBARA SHI","town":"MINAMIGOYA","perfecture_jp":"栃木県","jp_add_1":"那須塩原市","jp_add_2":"南郷屋"},"3292723":{"post_code":"3292723","prefecture":"TOCHIGI KEN","city":"NASUSHIOBARA SHI","town":"MINAMICHO","perfecture_jp":"栃木県","jp_add_1":"那須塩原市","jp_add_2":"南町"},"3293125":{"post_code":"3293125","prefecture":"TOCHIGI KEN","city":"NASUSHIOBARA SHI","town":"MUKURIYA","perfecture_jp":"栃木県","jp_add_1":"那須塩原市","jp_add_2":"無栗屋"},"3292706":{"post_code":"3292706","prefecture":"TOCHIGI KEN","city":"NASUSHIOBARA SHI","town":"MUTSUMI","perfecture_jp":"栃木県","jp_add_1":"那須塩原市","jp_add_2":"睦"},"3293141":{"post_code":"3293141","prefecture":"TOCHIGI KEN","city":"NASUSHIOBARA SHI","town":"YAMANAKASHINDEN","perfecture_jp":"栃木県","jp_add_1":"那須塩原市","jp_add_2":"山中新田"},"3292922":{"post_code":"3292922","prefecture":"TOCHIGI KEN","city":"NASUSHIOBARA SHI","town":"YUMOTOSHIOBARA","perfecture_jp":"栃木県","jp_add_1":"那須塩原市","jp_add_2":"湯本塩原"},"3292806":{"post_code":"3292806","prefecture":"TOCHIGI KEN","city":"NASUSHIOBARA SHI","town":"YOKOBAYASHI","perfecture_jp":"栃木県","jp_add_1":"那須塩原市","jp_add_2":"横林"},"3292746":{"post_code":"3292746","prefecture":"TOCHIGI KEN","city":"NASUSHIOBARA SHI","town":"YONKUCHO","perfecture_jp":"栃木県","jp_add_1":"那須塩原市","jp_add_2":"四区町"},"3291300":{"post_code":"3291300","prefecture":"TOCHIGI KEN","city":"SAKURA SHI","town":"IKANIKEISAIGANAIBAAI","perfecture_jp":"栃木県","jp_add_1":"さくら市","jp_add_2":""},"3291311":{"post_code":"3291311","prefecture":"TOCHIGI KEN","city":"SAKURA SHI","town":"UJIIE","perfecture_jp":"栃木県","jp_add_1":"さくら市","jp_add_2":"氏家"},"3291315":{"post_code":"3291315","prefecture":"TOCHIGI KEN","city":"SAKURA SHI","town":"UJIIESHINDEN","perfecture_jp":"栃木県","jp_add_1":"さくら市","jp_add_2":"氏家新田"},"3291323":{"post_code":"3291323","prefecture":"TOCHIGI KEN","city":"SAKURA SHI","town":"UNOSATO","perfecture_jp":"栃木県","jp_add_1":"さくら市","jp_add_2":"卯の里"},"3291306":{"post_code":"3291306","prefecture":"TOCHIGI KEN","city":"SAKURA SHI","town":"UWANO","perfecture_jp":"栃木県","jp_add_1":"さくら市","jp_add_2":"上野"},"3291415":{"post_code":"3291415","prefecture":"TOCHIGI KEN","city":"SAKURA SHI","town":"OIRE","perfecture_jp":"栃木県","jp_add_1":"さくら市","jp_add_2":"小入"},"3291325":{"post_code":"3291325","prefecture":"TOCHIGI KEN","city":"SAKURA SHI","town":"ONAKA","perfecture_jp":"栃木県","jp_add_1":"さくら市","jp_add_2":"大中"},"3291334":{"post_code":"3291334","prefecture":"TOCHIGI KEN","city":"SAKURA SHI","town":"OSHIAGE","perfecture_jp":"栃木県","jp_add_1":"さくら市","jp_add_2":"押上"},"3291314":{"post_code":"3291314","prefecture":"TOCHIGI KEN","city":"SAKURA SHI","town":"KAKINOKIZAWA","perfecture_jp":"栃木県","jp_add_1":"さくら市","jp_add_2":"柿木沢"},"3291313":{"post_code":"3291313","prefecture":"TOCHIGI KEN","city":"SAKURA SHI","town":"KAKINOKIZAWASHINDEN","perfecture_jp":"栃木県","jp_add_1":"さくら市","jp_add_2":"柿木沢新田"},"3291304":{"post_code":"3291304","prefecture":"TOCHIGI KEN","city":"SAKURA SHI","town":"KAJIGASAWA","perfecture_jp":"栃木県","jp_add_1":"さくら市","jp_add_2":"鍛冶ケ沢"},"3291413":{"post_code":"3291413","prefecture":"TOCHIGI KEN","city":"SAKURA SHI","town":"KATSURAGI","perfecture_jp":"栃木県","jp_add_1":"さくら市","jp_add_2":"葛城"},"3291405":{"post_code":"3291405","prefecture":"TOCHIGI KEN","city":"SAKURA SHI","town":"KANAEDA","perfecture_jp":"栃木県","jp_add_1":"さくら市","jp_add_2":"金枝"},"3291404":{"post_code":"3291404","prefecture":"TOCHIGI KEN","city":"SAKURA SHI","town":"KANOKOHATA","perfecture_jp":"栃木県","jp_add_1":"さくら市","jp_add_2":"鹿子畑"},"3291332":{"post_code":"3291332","prefecture":"TOCHIGI KEN","city":"SAKURA SHI","town":"KAMASUSAKA","perfecture_jp":"栃木県","jp_add_1":"さくら市","jp_add_2":"蒲須坂"},"3291316":{"post_code":"3291316","prefecture":"TOCHIGI KEN","city":"SAKURA SHI","town":"KAMIAKUTSU","perfecture_jp":"栃木県","jp_add_1":"さくら市","jp_add_2":"上阿久津"},"3291401":{"post_code":"3291401","prefecture":"TOCHIGI KEN","city":"SAKURA SHI","town":"KAMIKODO","perfecture_jp":"栃木県","jp_add_1":"さくら市","jp_add_2":"上河戸"},"3291322":{"post_code":"3291322","prefecture":"TOCHIGI KEN","city":"SAKURA SHI","town":"KITAKUSAGAWA","perfecture_jp":"栃木県","jp_add_1":"さくら市","jp_add_2":"北草川"},"3291412":{"post_code":"3291412","prefecture":"TOCHIGI KEN","city":"SAKURA SHI","town":"KITSUREGAWA","perfecture_jp":"栃木県","jp_add_1":"さくら市","jp_add_2":"喜連川"},"3291324":{"post_code":"3291324","prefecture":"TOCHIGI KEN","city":"SAKURA SHI","town":"KUSAGAWA","perfecture_jp":"栃木県","jp_add_1":"さくら市","jp_add_2":"草川"},"3291416":{"post_code":"3291416","prefecture":"TOCHIGI KEN","city":"SAKURA SHI","town":"SAKURAGAOKA","perfecture_jp":"栃木県","jp_add_1":"さくら市","jp_add_2":"桜ケ丘"},"3291312":{"post_code":"3291312","prefecture":"TOCHIGI KEN","city":"SAKURA SHI","town":"SAKURANO","perfecture_jp":"栃木県","jp_add_1":"さくら市","jp_add_2":"櫻野"},"3291402":{"post_code":"3291402","prefecture":"TOCHIGI KEN","city":"SAKURA SHI","town":"SHIMOKODO","perfecture_jp":"栃木県","jp_add_1":"さくら市","jp_add_2":"下河戸"},"3291414":{"post_code":"3291414","prefecture":"TOCHIGI KEN","city":"SAKURA SHI","town":"SOTOME","perfecture_jp":"栃木県","jp_add_1":"さくら市","jp_add_2":"早乙女"},"3291327":{"post_code":"3291327","prefecture":"TOCHIGI KEN","city":"SAKURA SHI","town":"TOMINOKA","perfecture_jp":"栃木県","jp_add_1":"さくら市","jp_add_2":"富野岡"},"3291333":{"post_code":"3291333","prefecture":"TOCHIGI KEN","city":"SAKURA SHI","town":"NAGAKUBO","perfecture_jp":"栃木県","jp_add_1":"さくら市","jp_add_2":"長久保"},"3291301":{"post_code":"3291301","prefecture":"TOCHIGI KEN","city":"SAKURA SHI","town":"HAKONOMORISHINDEN","perfecture_jp":"栃木県","jp_add_1":"さくら市","jp_add_2":"箱森新田"},"3291305":{"post_code":"3291305","prefecture":"TOCHIGI KEN","city":"SAKURA SHI","town":"HASAMADA","perfecture_jp":"栃木県","jp_add_1":"さくら市","jp_add_2":"狹間田"},"3291321":{"post_code":"3291321","prefecture":"TOCHIGI KEN","city":"SAKURA SHI","town":"BABA","perfecture_jp":"栃木県","jp_add_1":"さくら市","jp_add_2":"馬場"},"3291417":{"post_code":"3291417","prefecture":"TOCHIGI KEN","city":"SAKURA SHI","town":"FUIOREKITSUREGAWA","perfecture_jp":"栃木県","jp_add_1":"さくら市","jp_add_2":"フィオーレ喜連川"},"3291403":{"post_code":"3291403","prefecture":"TOCHIGI KEN","city":"SAKURA SHI","town":"HOZUMI","perfecture_jp":"栃木県","jp_add_1":"さくら市","jp_add_2":"穂積"},"3291331":{"post_code":"3291331","prefecture":"TOCHIGI KEN","city":"SAKURA SHI","town":"MATSUSHIMA","perfecture_jp":"栃木県","jp_add_1":"さくら市","jp_add_2":"松島"},"3291303":{"post_code":"3291303","prefecture":"TOCHIGI KEN","city":"SAKURA SHI","town":"MATSUYAMA","perfecture_jp":"栃木県","jp_add_1":"さくら市","jp_add_2":"松山"},"3291302":{"post_code":"3291302","prefecture":"TOCHIGI KEN","city":"SAKURA SHI","town":"MATSUYAMASHINDEN","perfecture_jp":"栃木県","jp_add_1":"さくら市","jp_add_2":"松山新田"},"3291406":{"post_code":"3291406","prefecture":"TOCHIGI KEN","city":"SAKURA SHI","town":"MINAMIWADA","perfecture_jp":"栃木県","jp_add_1":"さくら市","jp_add_2":"南和田"},"3291326":{"post_code":"3291326","prefecture":"TOCHIGI KEN","city":"SAKURA SHI","town":"MUKOGAWARA","perfecture_jp":"栃木県","jp_add_1":"さくら市","jp_add_2":"向河原"},"3291411":{"post_code":"3291411","prefecture":"TOCHIGI KEN","city":"SAKURA SHI","town":"WASHIJUKU","perfecture_jp":"栃木県","jp_add_1":"さくら市","jp_add_2":"鷲宿"},"3290400":{"post_code":"3290400","prefecture":"TOCHIGI KEN","city":"SHIMOTSUKE SHI","town":"IKANIKEISAIGANAIBAAI","perfecture_jp":"栃木県","jp_add_1":"下野市","jp_add_2":""},"3290511":{"post_code":"3290511","prefecture":"TOCHIGI KEN","city":"SHIMOTSUKE SHI","town":"ISHIBASHI","perfecture_jp":"栃木県","jp_add_1":"下野市","jp_add_2":"石橋"},"3290403":{"post_code":"3290403","prefecture":"TOCHIGI KEN","city":"SHIMOTSUKE SHI","town":"IDAIMAE","perfecture_jp":"栃木県","jp_add_1":"下野市","jp_add_2":"医大前"},"3290413":{"post_code":"3290413","prefecture":"TOCHIGI KEN","city":"SHIMOTSUKE SHI","town":"EKIHIGASHI","perfecture_jp":"栃木県","jp_add_1":"下野市","jp_add_2":"駅東"},"3290519":{"post_code":"3290519","prefecture":"TOCHIGI KEN","city":"SHIMOTSUKE SHI","town":"OMATSUYAMA","perfecture_jp":"栃木県","jp_add_1":"下野市","jp_add_2":"大松山"},"3290501":{"post_code":"3290501","prefecture":"TOCHIGI KEN","city":"SHIMOTSUKE SHI","town":"KAMIKOYAMA","perfecture_jp":"栃木県","jp_add_1":"下野市","jp_add_2":"上古山"},"3290504":{"post_code":"3290504","prefecture":"TOCHIGI KEN","city":"SHIMOTSUKE SHI","town":"KAMIDAI","perfecture_jp":"栃木県","jp_add_1":"下野市","jp_add_2":"上台"},"3290517":{"post_code":"3290517","prefecture":"TOCHIGI KEN","city":"SHIMOTSUKE SHI","town":"KAMIDAIRYO","perfecture_jp":"栃木県","jp_add_1":"下野市","jp_add_2":"上大領"},"3290411":{"post_code":"3290411","prefecture":"TOCHIGI KEN","city":"SHIMOTSUKE SHI","town":"KARASUGAMORI","perfecture_jp":"栃木県","jp_add_1":"下野市","jp_add_2":"烏ケ森"},"3290415":{"post_code":"3290415","prefecture":"TOCHIGI KEN","city":"SHIMOTSUKE SHI","town":"KAWANAGO","perfecture_jp":"栃木県","jp_add_1":"下野市","jp_add_2":"川中子"},"3290434":{"post_code":"3290434","prefecture":"TOCHIGI KEN","city":"SHIMOTSUKE SHI","town":"GION","perfecture_jp":"栃木県","jp_add_1":"下野市","jp_add_2":"祇園"},"3290414":{"post_code":"3290414","prefecture":"TOCHIGI KEN","city":"SHIMOTSUKE SHI","town":"KOGANEI","perfecture_jp":"栃木県","jp_add_1":"下野市","jp_add_2":"小金井"},"3290417":{"post_code":"3290417","prefecture":"TOCHIGI KEN","city":"SHIMOTSUKE SHI","town":"KOKUBUNJI","perfecture_jp":"栃木県","jp_add_1":"下野市","jp_add_2":"国分寺"},"3290402":{"post_code":"3290402","prefecture":"TOCHIGI KEN","city":"SHIMOTSUKE SHI","town":"SASAHARA","perfecture_jp":"栃木県","jp_add_1":"下野市","jp_add_2":"笹原"},"3290412":{"post_code":"3290412","prefecture":"TOCHIGI KEN","city":"SHIMOTSUKE SHI","town":"SHIBA","perfecture_jp":"栃木県","jp_add_1":"下野市","jp_add_2":"柴"},"3290512":{"post_code":"3290512","prefecture":"TOCHIGI KEN","city":"SHIMOTSUKE SHI","town":"SHIMOISHIBASHI","perfecture_jp":"栃木県","jp_add_1":"下野市","jp_add_2":"下石橋"},"3290502":{"post_code":"3290502","prefecture":"TOCHIGI KEN","city":"SHIMOTSUKE SHI","town":"SHIMOKOYAMA","perfecture_jp":"栃木県","jp_add_1":"下野市","jp_add_2":"下古山"},"3290513":{"post_code":"3290513","prefecture":"TOCHIGI KEN","city":"SHIMOTSUKE SHI","town":"SHIMODAIRYO","perfecture_jp":"栃木県","jp_add_1":"下野市","jp_add_2":"下大領"},"3290503":{"post_code":"3290503","prefecture":"TOCHIGI KEN","city":"SHIMOTSUKE SHI","town":"SHIMONAGATA","perfecture_jp":"栃木県","jp_add_1":"下野市","jp_add_2":"下長田"},"3290424":{"post_code":"3290424","prefecture":"TOCHIGI KEN","city":"SHIMOTSUKE SHI","town":"SHIMOFUBASAMI","perfecture_jp":"栃木県","jp_add_1":"下野市","jp_add_2":"下文狹"},"3290516":{"post_code":"3290516","prefecture":"TOCHIGI KEN","city":"SHIMOTSUKE SHI","town":"DAIKOJI","perfecture_jp":"栃木県","jp_add_1":"下野市","jp_add_2":"大光寺"},"3290425":{"post_code":"3290425","prefecture":"TOCHIGI KEN","city":"SHIMOTSUKE SHI","town":"TANAKA","perfecture_jp":"栃木県","jp_add_1":"下野市","jp_add_2":"田中"},"3290515":{"post_code":"3290515","prefecture":"TOCHIGI KEN","city":"SHIMOTSUKE SHI","town":"NAKADAIRYO","perfecture_jp":"栃木県","jp_add_1":"下野市","jp_add_2":"中大領"},"3290421":{"post_code":"3290421","prefecture":"TOCHIGI KEN","city":"SHIMOTSUKE SHI","town":"NARITA","perfecture_jp":"栃木県","jp_add_1":"下野市","jp_add_2":"成田"},"3290432":{"post_code":"3290432","prefecture":"TOCHIGI KEN","city":"SHIMOTSUKE SHI","town":"NIRAGAWA","perfecture_jp":"栃木県","jp_add_1":"下野市","jp_add_2":"仁良川"},"3290506":{"post_code":"3290506","prefecture":"TOCHIGI KEN","city":"SHIMOTSUKE SHI","town":"HASHIMOTO","perfecture_jp":"栃木県","jp_add_1":"下野市","jp_add_2":"橋本"},"3290518":{"post_code":"3290518","prefecture":"TOCHIGI KEN","city":"SHIMOTSUKE SHI","town":"HANANOKI","perfecture_jp":"栃木県","jp_add_1":"下野市","jp_add_2":"花の木"},"3290514":{"post_code":"3290514","prefecture":"TOCHIGI KEN","city":"SHIMOTSUKE SHI","town":"HIGASHIMAEHARA","perfecture_jp":"栃木県","jp_add_1":"下野市","jp_add_2":"東前原"},"3290507":{"post_code":"3290507","prefecture":"TOCHIGI KEN","city":"SHIMOTSUKE SHI","town":"BUNKYO","perfecture_jp":"栃木県","jp_add_1":"下野市","jp_add_2":"文教"},"3290505":{"post_code":"3290505","prefecture":"TOCHIGI KEN","city":"SHIMOTSUKE SHI","town":"HOSOYA","perfecture_jp":"栃木県","jp_add_1":"下野市","jp_add_2":"細谷"},"3290422":{"post_code":"3290422","prefecture":"TOCHIGI KEN","city":"SHIMOTSUKE SHI","town":"MACHIDA","perfecture_jp":"栃木県","jp_add_1":"下野市","jp_add_2":"町田"},"3290433":{"post_code":"3290433","prefecture":"TOCHIGI KEN","city":"SHIMOTSUKE SHI","town":"MIDORI","perfecture_jp":"栃木県","jp_add_1":"下野市","jp_add_2":"緑"},"3290401":{"post_code":"3290401","prefecture":"TOCHIGI KEN","city":"SHIMOTSUKE SHI","town":"MINOWA","perfecture_jp":"栃木県","jp_add_1":"下野市","jp_add_2":"箕輪"},"3290418":{"post_code":"3290418","prefecture":"TOCHIGI KEN","city":"SHIMOTSUKE SHI","town":"MURASAKI","perfecture_jp":"栃木県","jp_add_1":"下野市","jp_add_2":"紫"},"3290431":{"post_code":"3290431","prefecture":"TOCHIGI KEN","city":"SHIMOTSUKE SHI","town":"YAKUSHIJI","perfecture_jp":"栃木県","jp_add_1":"下野市","jp_add_2":"薬師寺"},"3290423":{"post_code":"3290423","prefecture":"TOCHIGI KEN","city":"SHIMOTSUKE SHI","town":"YAJITSUKA","perfecture_jp":"栃木県","jp_add_1":"下野市","jp_add_2":"谷地賀"},"3290600":{"post_code":"3290600","prefecture":"TOCHIGI KEN","city":"KAWACHI GUN KAMINOKAWA MACHI","town":"IKANIKEISAIGANAIBAAI","perfecture_jp":"栃木県","jp_add_1":"河内郡上三川町","jp_add_2":""},"3290521":{"post_code":"3290521","prefecture":"TOCHIGI KEN","city":"KAWACHI GUN KAMINOKAWA MACHI","town":"ISHITA","perfecture_jp":"栃木県","jp_add_1":"河内郡上三川町","jp_add_2":"石田"},"3290606":{"post_code":"3290606","prefecture":"TOCHIGI KEN","city":"KAWACHI GUN KAMINOKAWA MACHI","town":"ISOKA","perfecture_jp":"栃木県","jp_add_1":"河内郡上三川町","jp_add_2":"磯岡"},"3290525":{"post_code":"3290525","prefecture":"TOCHIGI KEN","city":"KAWACHI GUN KAMINOKAWA MACHI","town":"OYAMA","perfecture_jp":"栃木県","jp_add_1":"河内郡上三川町","jp_add_2":"大山"},"3290617":{"post_code":"3290617","prefecture":"TOCHIGI KEN","city":"KAWACHI GUN KAMINOKAWA MACHI","town":"KAMIKAMO","perfecture_jp":"栃木県","jp_add_1":"河内郡上三川町","jp_add_2":"上蒲生"},"3290527":{"post_code":"3290527","prefecture":"TOCHIGI KEN","city":"KAWACHI GUN KAMINOKAWA MACHI","town":"KAMIKONUSHI","perfecture_jp":"栃木県","jp_add_1":"河内郡上三川町","jp_add_2":"上神主"},"3290604":{"post_code":"3290604","prefecture":"TOCHIGI KEN","city":"KAWACHI GUN KAMINOKAWA MACHI","town":"KAMIGO","perfecture_jp":"栃木県","jp_add_1":"河内郡上三川町","jp_add_2":"上郷"},"3290611":{"post_code":"3290611","prefecture":"TOCHIGI KEN","city":"KAWACHI GUN KAMINOKAWA MACHI","town":"KAMINOKAWA","perfecture_jp":"栃木県","jp_add_1":"河内郡上三川町","jp_add_2":"上三川"},"3290601":{"post_code":"3290601","prefecture":"TOCHIGI KEN","city":"KAWACHI GUN KAMINOKAWA MACHI","town":"KAMIFUBASAMI","perfecture_jp":"栃木県","jp_add_1":"河内郡上三川町","jp_add_2":"上文挾"},"3290522":{"post_code":"3290522","prefecture":"TOCHIGI KEN","city":"KAWACHI GUN KAMINOKAWA MACHI","town":"KAWANAGO","perfecture_jp":"栃木県","jp_add_1":"河内郡上三川町","jp_add_2":"川中子"},"3290614":{"post_code":"3290614","prefecture":"TOCHIGI KEN","city":"KAWACHI GUN KAMINOKAWA MACHI","town":"GOBUICHI","perfecture_jp":"栃木県","jp_add_1":"河内郡上三川町","jp_add_2":"五分一"},"3290613":{"post_code":"3290613","prefecture":"TOCHIGI KEN","city":"KAWACHI GUN KAMINOKAWA MACHI","town":"SAKAUE","perfecture_jp":"栃木県","jp_add_1":"河内郡上三川町","jp_add_2":"坂上"},"3290526":{"post_code":"3290526","prefecture":"TOCHIGI KEN","city":"KAWACHI GUN KAMINOKAWA MACHI","town":"SAYADO","perfecture_jp":"栃木県","jp_add_1":"河内郡上三川町","jp_add_2":"鞘堂"},"3290612":{"post_code":"3290612","prefecture":"TOCHIGI KEN","city":"KAWACHI GUN KAMINOKAWA MACHI","town":"SAMBONGI","perfecture_jp":"栃木県","jp_add_1":"河内郡上三川町","jp_add_2":"三本木"},"3290616":{"post_code":"3290616","prefecture":"TOCHIGI KEN","city":"KAWACHI GUN KAMINOKAWA MACHI","town":"SHIMOKAMO","perfecture_jp":"栃木県","jp_add_1":"河内郡上三川町","jp_add_2":"下蒲生"},"3290529":{"post_code":"3290529","prefecture":"TOCHIGI KEN","city":"KAWACHI GUN KAMINOKAWA MACHI","town":"SHIMOKONUSHI","perfecture_jp":"栃木県","jp_add_1":"河内郡上三川町","jp_add_2":"下神主"},"3290618":{"post_code":"3290618","prefecture":"TOCHIGI KEN","city":"KAWACHI GUN KAMINOKAWA MACHI","town":"SHIRASAGI","perfecture_jp":"栃木県","jp_add_1":"河内郡上三川町","jp_add_2":"しらさぎ"},"3290524":{"post_code":"3290524","prefecture":"TOCHIGI KEN","city":"KAWACHI GUN KAMINOKAWA MACHI","town":"TAKO","perfecture_jp":"栃木県","jp_add_1":"河内郡上三川町","jp_add_2":"多功"},"3290530":{"post_code":"3290530","prefecture":"TOCHIGI KEN","city":"KAWACHI GUN KAMINOKAWA MACHI","town":"TENJINCHO","perfecture_jp":"栃木県","jp_add_1":"河内郡上三川町","jp_add_2":"天神町"},"3290608":{"post_code":"3290608","prefecture":"TOCHIGI KEN","city":"KAWACHI GUN KAMINOKAWA MACHI","town":"NISHIKINOSHIRO","perfecture_jp":"栃木県","jp_add_1":"河内郡上三川町","jp_add_2":"西木代"},"3290605":{"post_code":"3290605","prefecture":"TOCHIGI KEN","city":"KAWACHI GUN KAMINOKAWA MACHI","town":"NISHITATENUMA","perfecture_jp":"栃木県","jp_add_1":"河内郡上三川町","jp_add_2":"西蓼沼"},"3290607":{"post_code":"3290607","prefecture":"TOCHIGI KEN","city":"KAWACHI GUN KAMINOKAWA MACHI","town":"NISHIFUZAKASHI","perfecture_jp":"栃木県","jp_add_1":"河内郡上三川町","jp_add_2":"西汗"},"3290603":{"post_code":"3290603","prefecture":"TOCHIGI KEN","city":"KAWACHI GUN KAMINOKAWA MACHI","town":"HIGASHITATENUMA","perfecture_jp":"栃木県","jp_add_1":"河内郡上三川町","jp_add_2":"東蓼沼"},"3290602":{"post_code":"3290602","prefecture":"TOCHIGI KEN","city":"KAWACHI GUN KAMINOKAWA MACHI","town":"HIGASHIFUZAKASHI","perfecture_jp":"栃木県","jp_add_1":"河内郡上三川町","jp_add_2":"東汗"},"3290615":{"post_code":"3290615","prefecture":"TOCHIGI KEN","city":"KAWACHI GUN KAMINOKAWA MACHI","town":"MIMURA","perfecture_jp":"栃木県","jp_add_1":"河内郡上三川町","jp_add_2":"三村"},"3290523":{"post_code":"3290523","prefecture":"TOCHIGI KEN","city":"KAWACHI GUN KAMINOKAWA MACHI","town":"YANA","perfecture_jp":"栃木県","jp_add_1":"河内郡上三川町","jp_add_2":"梁"},"3290528":{"post_code":"3290528","prefecture":"TOCHIGI KEN","city":"KAWACHI GUN KAMINOKAWA MACHI","town":"YUKIGAOKA","perfecture_jp":"栃木県","jp_add_1":"河内郡上三川町","jp_add_2":"ゆうきが丘"},"3290100":{"post_code":"3290100","prefecture":"TOCHIGI KEN","city":"SHIMOTSUGA GUN NOGI MACHI","town":"IKANIKEISAIGANAIBAAI","perfecture_jp":"栃木県","jp_add_1":"下都賀郡野木町","jp_add_2":""},"3290102":{"post_code":"3290102","prefecture":"TOCHIGI KEN","city":"SHIMOTSUGA GUN NOGI MACHI","town":"URUJIMA","perfecture_jp":"栃木県","jp_add_1":"下都賀郡野木町","jp_add_2":"潤島"},"3290105":{"post_code":"3290105","prefecture":"TOCHIGI KEN","city":"SHIMOTSUGA GUN NOGI MACHI","town":"KAWADA","perfecture_jp":"栃木県","jp_add_1":"下都賀郡野木町","jp_add_2":"川田"},"3290104":{"post_code":"3290104","prefecture":"TOCHIGI KEN","city":"SHIMOTSUGA GUN NOGI MACHI","town":"SAGAWANO","perfecture_jp":"栃木県","jp_add_1":"下都賀郡野木町","jp_add_2":"佐川野"},"3290101":{"post_code":"3290101","prefecture":"TOCHIGI KEN","city":"SHIMOTSUGA GUN NOGI MACHI","town":"TOMONUMA","perfecture_jp":"栃木県","jp_add_1":"下都賀郡野木町","jp_add_2":"友沼"},"3290113":{"post_code":"3290113","prefecture":"TOCHIGI KEN","city":"SHIMOTSUGA GUN NOGI MACHI","town":"NAKAYA","perfecture_jp":"栃木県","jp_add_1":"下都賀郡野木町","jp_add_2":"中谷"},"3290114":{"post_code":"3290114","prefecture":"TOCHIGI KEN","city":"SHIMOTSUGA GUN NOGI MACHI","town":"NOGI","perfecture_jp":"栃木県","jp_add_1":"下都賀郡野木町","jp_add_2":"野木"},"3290115":{"post_code":"3290115","prefecture":"TOCHIGI KEN","city":"SHIMOTSUGA GUN NOGI MACHI","town":"NOWATA","perfecture_jp":"栃木県","jp_add_1":"下都賀郡野木町","jp_add_2":"野渡"},"3290111":{"post_code":"3290111","prefecture":"TOCHIGI KEN","city":"SHIMOTSUGA GUN NOGI MACHI","town":"MARUBAYASHI","perfecture_jp":"栃木県","jp_add_1":"下都賀郡野木町","jp_add_2":"丸林"},"3290112":{"post_code":"3290112","prefecture":"TOCHIGI KEN","city":"SHIMOTSUGA GUN NOGI MACHI","town":"MINAMIAKATSUKA","perfecture_jp":"栃木県","jp_add_1":"下都賀郡野木町","jp_add_2":"南赤塚"},"3290103":{"post_code":"3290103","prefecture":"TOCHIGI KEN","city":"SHIMOTSUGA GUN NOGI MACHI","town":"WAKABAYASHI","perfecture_jp":"栃木県","jp_add_1":"下都賀郡野木町","jp_add_2":"若林"},"3292200":{"post_code":"3292200","prefecture":"TOCHIGI KEN","city":"SHIOYA GUN SHIOYA MACHI","town":"IKANIKEISAIGANAIBAAI","perfecture_jp":"栃木県","jp_add_1":"塩谷郡塩谷町","jp_add_2":""},"3292225":{"post_code":"3292225","prefecture":"TOCHIGI KEN","city":"SHIOYA GUN SHIOYA MACHI","town":"IIOKA","perfecture_jp":"栃木県","jp_add_1":"塩谷郡塩谷町","jp_add_2":"飯岡"},"3292337":{"post_code":"3292337","prefecture":"TOCHIGI KEN","city":"SHIOYA GUN SHIOYA MACHI","town":"IZUMI","perfecture_jp":"栃木県","jp_add_1":"塩谷郡塩谷町","jp_add_2":"泉"},"3292339":{"post_code":"3292339","prefecture":"TOCHIGI KEN","city":"SHIOYA GUN SHIOYA MACHI","town":"UWASAWA","perfecture_jp":"栃木県","jp_add_1":"塩谷郡塩谷町","jp_add_2":"上沢"},"3292335":{"post_code":"3292335","prefecture":"TOCHIGI KEN","city":"SHIOYA GUN SHIOYA MACHI","town":"UWATAIRA","perfecture_jp":"栃木県","jp_add_1":"塩谷郡塩谷町","jp_add_2":"上平"},"3292334":{"post_code":"3292334","prefecture":"TOCHIGI KEN","city":"SHIOYA GUN SHIOYA MACHI","town":"OKUBO","perfecture_jp":"栃木県","jp_add_1":"塩谷郡塩谷町","jp_add_2":"大久保"},"3292332":{"post_code":"3292332","prefecture":"TOCHIGI KEN","city":"SHIOYA GUN SHIOYA MACHI","town":"OMIYA","perfecture_jp":"栃木県","jp_add_1":"塩谷郡塩谷町","jp_add_2":"大宮"},"3292336":{"post_code":"3292336","prefecture":"TOCHIGI KEN","city":"SHIOYA GUN SHIOYA MACHI","town":"KAZAMI","perfecture_jp":"栃木県","jp_add_1":"塩谷郡塩谷町","jp_add_2":"風見"},"3292338":{"post_code":"3292338","prefecture":"TOCHIGI KEN","city":"SHIOYA GUN SHIOYA MACHI","town":"KAZAMIYAMADA","perfecture_jp":"栃木県","jp_add_1":"塩谷郡塩谷町","jp_add_2":"風見山田"},"3292224":{"post_code":"3292224","prefecture":"TOCHIGI KEN","city":"SHIOYA GUN SHIOYA MACHI","town":"KANAEDA","perfecture_jp":"栃木県","jp_add_1":"塩谷郡塩谷町","jp_add_2":"金枝"},"3292216":{"post_code":"3292216","prefecture":"TOCHIGI KEN","city":"SHIOYA GUN SHIOYA MACHI","town":"KAMITERASHIMA(SONOTA)","perfecture_jp":"栃木県","jp_add_1":"塩谷郡塩谷町","jp_add_2":"上寺島"},"3292212":{"post_code":"3292212","prefecture":"TOCHIGI KEN","city":"SHIOYA GUN SHIOYA MACHI","town":"KIZAMI","perfecture_jp":"栃木県","jp_add_1":"塩谷郡塩谷町","jp_add_2":"喜佐見"},"3292213":{"post_code":"3292213","prefecture":"TOCHIGI KEN","city":"SHIOYA GUN SHIOYA MACHI","town":"KUMANOKI","perfecture_jp":"栃木県","jp_add_1":"塩谷郡塩谷町","jp_add_2":"熊ノ木"},"3292442":{"post_code":"3292442","prefecture":"TOCHIGI KEN","city":"SHIOYA GUN SHIOYA MACHI","town":"SANUKI","perfecture_jp":"栃木県","jp_add_1":"塩谷郡塩谷町","jp_add_2":"佐貫"},"3292215":{"post_code":"3292215","prefecture":"TOCHIGI KEN","city":"SHIOYA GUN SHIOYA MACHI","town":"SHIMOTERASHIMA","perfecture_jp":"栃木県","jp_add_1":"塩谷郡塩谷町","jp_add_2":"下寺島"},"3292331":{"post_code":"3292331","prefecture":"TOCHIGI KEN","city":"SHIOYA GUN SHIOYA MACHI","town":"TADOKORO","perfecture_jp":"栃木県","jp_add_1":"塩谷郡塩谷町","jp_add_2":"田所"},"3292221":{"post_code":"3292221","prefecture":"TOCHIGI KEN","city":"SHIOYA GUN SHIOYA MACHI","town":"TAMANYU","perfecture_jp":"栃木県","jp_add_1":"塩谷郡塩谷町","jp_add_2":"玉生"},"3292222":{"post_code":"3292222","prefecture":"TOCHIGI KEN","city":"SHIOYA GUN SHIOYA MACHI","town":"DOSHITA","perfecture_jp":"栃木県","jp_add_1":"塩谷郡塩谷町","jp_add_2":"道下"},"3292211":{"post_code":"3292211","prefecture":"TOCHIGI KEN","city":"SHIOYA GUN SHIOYA MACHI","town":"TOBASHINDEN","perfecture_jp":"栃木県","jp_add_1":"塩谷郡塩谷町","jp_add_2":"鳥羽新田"},"3292223":{"post_code":"3292223","prefecture":"TOCHIGI KEN","city":"SHIOYA GUN SHIOYA MACHI","town":"HARAOGINOME","perfecture_jp":"栃木県","jp_add_1":"塩谷郡塩谷町","jp_add_2":"原荻野目"},"3292214":{"post_code":"3292214","prefecture":"TOCHIGI KEN","city":"SHIOYA GUN SHIOYA MACHI","town":"HIGASHIBO","perfecture_jp":"栃木県","jp_add_1":"塩谷郡塩谷町","jp_add_2":"東房"},"3292333":{"post_code":"3292333","prefecture":"TOCHIGI KEN","city":"SHIOYA GUN SHIOYA MACHI","town":"HIJIUCHI","perfecture_jp":"栃木県","jp_add_1":"塩谷郡塩谷町","jp_add_2":"肘内"},"3292441":{"post_code":"3292441","prefecture":"TOCHIGI KEN","city":"SHIOYA GUN SHIOYA MACHI","town":"FUNYU","perfecture_jp":"栃木県","jp_add_1":"塩谷郡塩谷町","jp_add_2":"船生"},"3292226":{"post_code":"3292226","prefecture":"TOCHIGI KEN","city":"SHIOYA GUN SHIOYA MACHI","town":"YOSHIBASHINDEN","perfecture_jp":"栃木県","jp_add_1":"塩谷郡塩谷町","jp_add_2":"芦場新田"},"3291200":{"post_code":"3291200","prefecture":"TOCHIGI KEN","city":"SHIOYA GUN TAKANEZAWA MACHI","town":"IKANIKEISAIGANAIBAAI","perfecture_jp":"栃木県","jp_add_1":"塩谷郡高根沢町","jp_add_2":""},"3291205":{"post_code":"3291205","prefecture":"TOCHIGI KEN","city":"SHIOYA GUN TAKANEZAWA MACHI","town":"IIMURO","perfecture_jp":"栃木県","jp_add_1":"塩谷郡高根沢町","jp_add_2":"飯室"},"3291225":{"post_code":"3291225","prefecture":"TOCHIGI KEN","city":"SHIOYA GUN TAKANEZAWA MACHI","town":"ISHIZUE","perfecture_jp":"栃木県","jp_add_1":"塩谷郡高根沢町","jp_add_2":"石末"},"3291217":{"post_code":"3291217","prefecture":"TOCHIGI KEN","city":"SHIOYA GUN TAKANEZAWA MACHI","town":"OTA","perfecture_jp":"栃木県","jp_add_1":"塩谷郡高根沢町","jp_add_2":"太田"},"3291226":{"post_code":"3291226","prefecture":"TOCHIGI KEN","city":"SHIOYA GUN TAKANEZAWA MACHI","town":"OYA","perfecture_jp":"栃木県","jp_add_1":"塩谷郡高根沢町","jp_add_2":"大谷"},"3291201":{"post_code":"3291201","prefecture":"TOCHIGI KEN","city":"SHIOYA GUN TAKANEZAWA MACHI","town":"KAKINOKIZAWA","perfecture_jp":"栃木県","jp_add_1":"塩谷郡高根沢町","jp_add_2":"柿木沢"},"3291235":{"post_code":"3291235","prefecture":"TOCHIGI KEN","city":"SHIOYA GUN TAKANEZAWA MACHI","town":"KAMIAKUTSU","perfecture_jp":"栃木県","jp_add_1":"塩谷郡高根沢町","jp_add_2":"上阿久津"},"3291212":{"post_code":"3291212","prefecture":"TOCHIGI KEN","city":"SHIOYA GUN TAKANEZAWA MACHI","town":"KAMIKASHIWAZAKI","perfecture_jp":"栃木県","jp_add_1":"塩谷郡高根沢町","jp_add_2":"上柏崎"},"3291224":{"post_code":"3291224","prefecture":"TOCHIGI KEN","city":"SHIOYA GUN TAKANEZAWA MACHI","town":"KAMITAKANEZAWA","perfecture_jp":"栃木県","jp_add_1":"塩谷郡高根沢町","jp_add_2":"上高根沢"},"3291211":{"post_code":"3291211","prefecture":"TOCHIGI KEN","city":"SHIOYA GUN TAKANEZAWA MACHI","town":"KAMENASHI","perfecture_jp":"栃木県","jp_add_1":"塩谷郡高根沢町","jp_add_2":"亀梨"},"3291215":{"post_code":"3291215","prefecture":"TOCHIGI KEN","city":"SHIOYA GUN TAKANEZAWA MACHI","town":"KYUBU","perfecture_jp":"栃木県","jp_add_1":"塩谷郡高根沢町","jp_add_2":"給部"},"3291223":{"post_code":"3291223","prefecture":"TOCHIGI KEN","city":"SHIOYA GUN TAKANEZAWA MACHI","town":"KURIGASHIMA","perfecture_jp":"栃木県","jp_add_1":"塩谷郡高根沢町","jp_add_2":"栗ケ島"},"3291216":{"post_code":"3291216","prefecture":"TOCHIGI KEN","city":"SHIOYA GUN TAKANEZAWA MACHI","town":"KUWAKUBO","perfecture_jp":"栃木県","jp_add_1":"塩谷郡高根沢町","jp_add_2":"桑窪"},"3291232":{"post_code":"3291232","prefecture":"TOCHIGI KEN","city":"SHIOYA GUN TAKANEZAWA MACHI","town":"KOYODAI","perfecture_jp":"栃木県","jp_add_1":"塩谷郡高根沢町","jp_add_2":"光陽台"},"3291213":{"post_code":"3291213","prefecture":"TOCHIGI KEN","city":"SHIOYA GUN TAKANEZAWA MACHI","town":"SHIMOKASHIWAZAKI","perfecture_jp":"栃木県","jp_add_1":"塩谷郡高根沢町","jp_add_2":"下柏崎"},"3291222":{"post_code":"3291222","prefecture":"TOCHIGI KEN","city":"SHIOYA GUN TAKANEZAWA MACHI","town":"TERAWATADO","perfecture_jp":"栃木県","jp_add_1":"塩谷郡高根沢町","jp_add_2":"寺渡戸"},"3291234":{"post_code":"3291234","prefecture":"TOCHIGI KEN","city":"SHIOYA GUN TAKANEZAWA MACHI","town":"NAKAAKUTSU","perfecture_jp":"栃木県","jp_add_1":"塩谷郡高根沢町","jp_add_2":"中阿久津"},"3291214":{"post_code":"3291214","prefecture":"TOCHIGI KEN","city":"SHIOYA GUN TAKANEZAWA MACHI","town":"NAKAKASHIWAZAKI","perfecture_jp":"栃木県","jp_add_1":"塩谷郡高根沢町","jp_add_2":"中柏崎"},"3291221":{"post_code":"3291221","prefecture":"TOCHIGI KEN","city":"SHIOYA GUN TAKANEZAWA MACHI","town":"NISHIGOYA","perfecture_jp":"栃木県","jp_add_1":"塩谷郡高根沢町","jp_add_2":"西高谷"},"3291202":{"post_code":"3291202","prefecture":"TOCHIGI KEN","city":"SHIOYA GUN TAKANEZAWA MACHI","town":"HASAMATA","perfecture_jp":"栃木県","jp_add_1":"塩谷郡高根沢町","jp_add_2":"狭間田"},"3291207":{"post_code":"3291207","prefecture":"TOCHIGI KEN","city":"SHIOYA GUN TAKANEZAWA MACHI","town":"HANAOKA","perfecture_jp":"栃木県","jp_add_1":"塩谷郡高根沢町","jp_add_2":"花岡"},"3291206":{"post_code":"3291206","prefecture":"TOCHIGI KEN","city":"SHIOYA GUN TAKANEZAWA MACHI","town":"HIRATA","perfecture_jp":"栃木県","jp_add_1":"塩谷郡高根沢町","jp_add_2":"平田"},"3291203":{"post_code":"3291203","prefecture":"TOCHIGI KEN","city":"SHIOYA GUN TAKANEZAWA MACHI","town":"FUSUKU","perfecture_jp":"栃木県","jp_add_1":"塩谷郡高根沢町","jp_add_2":"伏久"},"3291204":{"post_code":"3291204","prefecture":"TOCHIGI KEN","city":"SHIOYA GUN TAKANEZAWA MACHI","town":"FUBASAMI","perfecture_jp":"栃木県","jp_add_1":"塩谷郡高根沢町","jp_add_2":"文挾"},"3291233":{"post_code":"3291233","prefecture":"TOCHIGI KEN","city":"SHIOYA GUN TAKANEZAWA MACHI","town":"HOSHAKUJI","perfecture_jp":"栃木県","jp_add_1":"塩谷郡高根沢町","jp_add_2":"宝積寺"},"3291231":{"post_code":"3291231","prefecture":"TOCHIGI KEN","city":"SHIOYA GUN TAKANEZAWA MACHI","town":"HOSEKIDAI","perfecture_jp":"栃木県","jp_add_1":"塩谷郡高根沢町","jp_add_2":"宝石台"},"3293200":{"post_code":"3293200","prefecture":"TOCHIGI KEN","city":"NASU GUN NASU MACHI","town":"IKANIKEISAIGANAIBAAI","perfecture_jp":"栃木県","jp_add_1":"那須郡那須町","jp_add_2":""},"3293443":{"post_code":"3293443","prefecture":"TOCHIGI KEN","city":"NASU GUN NASU MACHI","town":"ASHINO","perfecture_jp":"栃木県","jp_add_1":"那須郡那須町","jp_add_2":"芦野"},"3293432":{"post_code":"3293432","prefecture":"TOCHIGI KEN","city":"NASU GUN NASU MACHI","town":"AZUSA","perfecture_jp":"栃木県","jp_add_1":"那須郡那須町","jp_add_2":"梓"},"3293436":{"post_code":"3293436","prefecture":"TOCHIGI KEN","city":"NASU GUN NASU MACHI","town":"IONO","perfecture_jp":"栃木県","jp_add_1":"那須郡那須町","jp_add_2":"伊王野"},"3293447":{"post_code":"3293447","prefecture":"TOCHIGI KEN","city":"NASU GUN NASU MACHI","town":"INAZAWA","perfecture_jp":"栃木県","jp_add_1":"那須郡那須町","jp_add_2":"稲沢"},"3293221":{"post_code":"3293221","prefecture":"TOCHIGI KEN","city":"NASU GUN NASU MACHI","town":"URUSHITSUKA","perfecture_jp":"栃木県","jp_add_1":"那須郡那須町","jp_add_2":"漆塚"},"3293223":{"post_code":"3293223","prefecture":"TOCHIGI KEN","city":"NASU GUN NASU MACHI","town":"OSHIMA","perfecture_jp":"栃木県","jp_add_1":"那須郡那須町","jp_add_2":"大島"},"3293431":{"post_code":"3293431","prefecture":"TOCHIGI KEN","city":"NASU GUN NASU MACHI","town":"OHATA","perfecture_jp":"栃木県","jp_add_1":"那須郡那須町","jp_add_2":"大畑"},"3293433":{"post_code":"3293433","prefecture":"TOCHIGI KEN","city":"NASU GUN NASU MACHI","town":"OWASU","perfecture_jp":"栃木県","jp_add_1":"那須郡那須町","jp_add_2":"大和須"},"3293444":{"post_code":"3293444","prefecture":"TOCHIGI KEN","city":"NASU GUN NASU MACHI","town":"TERAKO(70-180-BANCHI)","perfecture_jp":"栃木県","jp_add_1":"那須郡那須町","jp_add_2":"寺子"},"3293215":{"post_code":"3293215","prefecture":"TOCHIGI KEN","city":"NASU GUN NASU MACHI","town":"TERAKOTSU(SONOTA)","perfecture_jp":"栃木県","jp_add_1":"那須郡那須町","jp_add_2":"寺子乙"},"3293222":{"post_code":"3293222","prefecture":"TOCHIGI KEN","city":"NASU GUN NASU MACHI","town":"TERAKOHEI","perfecture_jp":"栃木県","jp_add_1":"那須郡那須町","jp_add_2":"寺子丙"},"3293212":{"post_code":"3293212","prefecture":"TOCHIGI KEN","city":"NASU GUN NASU MACHI","town":"TOMIOKA","perfecture_jp":"栃木県","jp_add_1":"那須郡那須町","jp_add_2":"富岡"},"3293213":{"post_code":"3293213","prefecture":"TOCHIGI KEN","city":"NASU GUN NASU MACHI","town":"TOYOHARA","perfecture_jp":"栃木県","jp_add_1":"那須郡那須町","jp_add_2":"豊原"},"3293211":{"post_code":"3293211","prefecture":"TOCHIGI KEN","city":"NASU GUN NASU MACHI","town":"TOYOHARAKO","perfecture_jp":"栃木県","jp_add_1":"那須郡那須町","jp_add_2":"豊原甲"},"3293224":{"post_code":"3293224","prefecture":"TOCHIGI KEN","city":"NASU GUN NASU MACHI","town":"TOYOHARAOTSU","perfecture_jp":"栃木県","jp_add_1":"那須郡那須町","jp_add_2":"豊原乙"},"3293225":{"post_code":"3293225","prefecture":"TOCHIGI KEN","city":"NASU GUN NASU MACHI","town":"TOYOHARAHEI","perfecture_jp":"栃木県","jp_add_1":"那須郡那須町","jp_add_2":"豊原丙"},"3293446":{"post_code":"3293446","prefecture":"TOCHIGI KEN","city":"NASU GUN NASU MACHI","town":"NUMANOI","perfecture_jp":"栃木県","jp_add_1":"那須郡那須町","jp_add_2":"沼野井"},"3293445":{"post_code":"3293445","prefecture":"TOCHIGI KEN","city":"NASU GUN NASU MACHI","town":"HIGASHIIWAZAKI","perfecture_jp":"栃木県","jp_add_1":"那須郡那須町","jp_add_2":"東岩崎"},"3293437":{"post_code":"3293437","prefecture":"TOCHIGI KEN","city":"NASU GUN NASU MACHI","town":"MINOZAWA","perfecture_jp":"栃木県","jp_add_1":"那須郡那須町","jp_add_2":"蓑沢"},"3293435":{"post_code":"3293435","prefecture":"TOCHIGI KEN","city":"NASU GUN NASU MACHI","town":"MUTSUYA","perfecture_jp":"栃木県","jp_add_1":"那須郡那須町","jp_add_2":"睦家"},"3293434":{"post_code":"3293434","prefecture":"TOCHIGI KEN","city":"NASU GUN NASU MACHI","town":"YANAZE","perfecture_jp":"栃木県","jp_add_1":"那須郡那須町","jp_add_2":"梁瀬"},"3293214":{"post_code":"3293214","prefecture":"TOCHIGI KEN","city":"NASU GUN NASU MACHI","town":"8.1767-4-BANCHI)","perfecture_jp":"栃木県","jp_add_1":"那須郡那須町","jp_add_2":"横岡"},"3293442":{"post_code":"3293442","prefecture":"TOCHIGI KEN","city":"NASU GUN NASU MACHI","town":"YOKOKA(SONOTA)","perfecture_jp":"栃木県","jp_add_1":"那須郡那須町","jp_add_2":"横岡"},"3293441":{"post_code":"3293441","prefecture":"TOCHIGI KEN","city":"NASU GUN NASU MACHI","town":"YORII","perfecture_jp":"栃木県","jp_add_1":"那須郡那須町","jp_add_2":"寄居"}}