{"3310000":{"post_code":"3310000","prefecture":"SAITAMA KEN","city":"SAITAMA SHI NISHI KU","town":"IKANIKEISAIGANAIBAAI","perfecture_jp":"埼玉県","jp_add_1":"さいたま市西区","jp_add_2":""},"3310058":{"post_code":"3310058","prefecture":"SAITAMA KEN","city":"SAITAMA SHI NISHI KU","town":"IIDA","perfecture_jp":"埼玉県","jp_add_1":"さいたま市西区","jp_add_2":"飯田"},"3310068":{"post_code":"3310068","prefecture":"SAITAMA KEN","city":"SAITAMA SHI NISHI KU","town":"IIDASHINDEN","perfecture_jp":"埼玉県","jp_add_1":"さいたま市西区","jp_add_2":"飯田新田"},"3310053":{"post_code":"3310053","prefecture":"SAITAMA KEN","city":"SAITAMA SHI NISHI KU","town":"UETAYAHON","perfecture_jp":"埼玉県","jp_add_1":"さいたま市西区","jp_add_2":"植田谷本"},"3310067":{"post_code":"3310067","prefecture":"SAITAMA KEN","city":"SAITAMA SHI NISHI KU","town":"UETAYAHOMMURASHINDEN","perfecture_jp":"埼玉県","jp_add_1":"さいたま市西区","jp_add_2":"植田谷本村新田"},"3310045":{"post_code":"3310045","prefecture":"SAITAMA KEN","city":"SAITAMA SHI NISHI KU","town":"UCHINOHONGO","perfecture_jp":"埼玉県","jp_add_1":"さいたま市西区","jp_add_2":"内野本郷"},"3310047":{"post_code":"3310047","prefecture":"SAITAMA KEN","city":"SAITAMA SHI NISHI KU","town":"SASHIOGI","perfecture_jp":"埼玉県","jp_add_1":"さいたま市西区","jp_add_2":"指扇"},"3310076":{"post_code":"3310076","prefecture":"SAITAMA KEN","city":"SAITAMA SHI NISHI KU","town":"SASHIOGIRYOTSUJI","perfecture_jp":"埼玉県","jp_add_1":"さいたま市西区","jp_add_2":"指扇領辻"},"3310073":{"post_code":"3310073","prefecture":"SAITAMA KEN","city":"SAITAMA SHI NISHI KU","town":"SASHIOGIRYOBESSHO","perfecture_jp":"埼玉県","jp_add_1":"さいたま市西区","jp_add_2":"指扇領別所"},"3310064":{"post_code":"3310064","prefecture":"SAITAMA KEN","city":"SAITAMA SHI NISHI KU","town":"SAJIKAWA","perfecture_jp":"埼玉県","jp_add_1":"さいたま市西区","jp_add_2":"佐知川"},"3310056":{"post_code":"3310056","prefecture":"SAITAMA KEN","city":"SAITAMA SHI NISHI KU","town":"SANJOMACHI","perfecture_jp":"埼玉県","jp_add_1":"さいたま市西区","jp_add_2":"三条町"},"3310054":{"post_code":"3310054","prefecture":"SAITAMA KEN","city":"SAITAMA SHI NISHI KU","town":"SHIMANE","perfecture_jp":"埼玉県","jp_add_1":"さいたま市西区","jp_add_2":"島根"},"3310055":{"post_code":"3310055","prefecture":"SAITAMA KEN","city":"SAITAMA SHI NISHI KU","town":"SHOWA","perfecture_jp":"埼玉県","jp_add_1":"さいたま市西区","jp_add_2":"昭和"},"3310048":{"post_code":"3310048","prefecture":"SAITAMA KEN","city":"SAITAMA SHI NISHI KU","town":"SEIGANJI","perfecture_jp":"埼玉県","jp_add_1":"さいたま市西区","jp_add_2":"清河寺"},"3310071":{"post_code":"3310071","prefecture":"SAITAMA KEN","city":"SAITAMA SHI NISHI KU","town":"TAKAGI","perfecture_jp":"埼玉県","jp_add_1":"さいたま市西区","jp_add_2":"高木"},"3310066":{"post_code":"3310066","prefecture":"SAITAMA KEN","city":"SAITAMA SHI NISHI KU","town":"TSUKAMOTO","perfecture_jp":"埼玉県","jp_add_1":"さいたま市西区","jp_add_2":"塚本"},"3310060":{"post_code":"3310060","prefecture":"SAITAMA KEN","city":"SAITAMA SHI NISHI KU","town":"TSUKAMOTOCHO","perfecture_jp":"埼玉県","jp_add_1":"さいたま市西区","jp_add_2":"塚本町"},"3310062":{"post_code":"3310062","prefecture":"SAITAMA KEN","city":"SAITAMA SHI NISHI KU","town":"TSUCHIYA","perfecture_jp":"埼玉県","jp_add_1":"さいたま市西区","jp_add_2":"土屋"},"3310077":{"post_code":"3310077","prefecture":"SAITAMA KEN","city":"SAITAMA SHI NISHI KU","town":"NAKAKUGI","perfecture_jp":"埼玉県","jp_add_1":"さいたま市西区","jp_add_2":"中釘"},"3310057":{"post_code":"3310057","prefecture":"SAITAMA KEN","city":"SAITAMA SHI NISHI KU","town":"NAKANOBAYASHI","perfecture_jp":"埼玉県","jp_add_1":"さいたま市西区","jp_add_2":"中野林"},"3310061":{"post_code":"3310061","prefecture":"SAITAMA KEN","city":"SAITAMA SHI NISHI KU","town":"NISHIASUMA","perfecture_jp":"埼玉県","jp_add_1":"さいたま市西区","jp_add_2":"西遊馬"},"3310049":{"post_code":"3310049","prefecture":"SAITAMA KEN","city":"SAITAMA SHI NISHI KU","town":"NISHIARAI","perfecture_jp":"埼玉県","jp_add_1":"さいたま市西区","jp_add_2":"西新井"},"3310072":{"post_code":"3310072","prefecture":"SAITAMA KEN","city":"SAITAMA SHI NISHI KU","town":"HIRAKATARYORYOKE","perfecture_jp":"埼玉県","jp_add_1":"さいたま市西区","jp_add_2":"平方領々家"},"3310065":{"post_code":"3310065","prefecture":"SAITAMA KEN","city":"SAITAMA SHI NISHI KU","town":"FUTATSUMIYA","perfecture_jp":"埼玉県","jp_add_1":"さいたま市西区","jp_add_2":"二ツ宮"},"3310063":{"post_code":"3310063","prefecture":"SAITAMA KEN","city":"SAITAMA SHI NISHI KU","town":"PURAZA","perfecture_jp":"埼玉県","jp_add_1":"さいたま市西区","jp_add_2":"プラザ"},"3310074":{"post_code":"3310074","prefecture":"SAITAMA KEN","city":"SAITAMA SHI NISHI KU","town":"HORAI","perfecture_jp":"埼玉県","jp_add_1":"さいたま市西区","jp_add_2":"宝来"},"3310059":{"post_code":"3310059","prefecture":"SAITAMA KEN","city":"SAITAMA SHI NISHI KU","town":"MIZUHATA","perfecture_jp":"埼玉県","jp_add_1":"さいたま市西区","jp_add_2":"水判土"},"3310075":{"post_code":"3310075","prefecture":"SAITAMA KEN","city":"SAITAMA SHI NISHI KU","town":"MINEGISHI","perfecture_jp":"埼玉県","jp_add_1":"さいたま市西区","jp_add_2":"峰岸"},"3310052":{"post_code":"3310052","prefecture":"SAITAMA KEN","city":"SAITAMA SHI NISHI KU","town":"MIHASHI","perfecture_jp":"埼玉県","jp_add_1":"さいたま市西区","jp_add_2":"三橋"},"3310046":{"post_code":"3310046","prefecture":"SAITAMA KEN","city":"SAITAMA SHI NISHI KU","town":"MIYAMAECHO","perfecture_jp":"埼玉県","jp_add_1":"さいたま市西区","jp_add_2":"宮前町"},"3310069":{"post_code":"3310069","prefecture":"SAITAMA KEN","city":"SAITAMA SHI NISHI KU","town":"YUGICHO","perfecture_jp":"埼玉県","jp_add_1":"さいたま市西区","jp_add_2":"湯木町"},"3310800":{"post_code":"3310800","prefecture":"SAITAMA KEN","city":"SAITAMA SHI KITA KU","town":"IKANIKEISAIGANAIBAAI","perfecture_jp":"埼玉県","jp_add_1":"さいたま市北区","jp_add_2":""},"3310813":{"post_code":"3310813","prefecture":"SAITAMA KEN","city":"SAITAMA SHI KITA KU","town":"UETAKECHO","perfecture_jp":"埼玉県","jp_add_1":"さいたま市北区","jp_add_2":"植竹町"},"3310815":{"post_code":"3310815","prefecture":"SAITAMA KEN","city":"SAITAMA SHI KITA KU","town":"ONARICHO","perfecture_jp":"埼玉県","jp_add_1":"さいたま市北区","jp_add_2":"大成町"},"3310824":{"post_code":"3310824","prefecture":"SAITAMA KEN","city":"SAITAMA SHI KITA KU","town":"KAMIKA","perfecture_jp":"埼玉県","jp_add_1":"さいたま市北区","jp_add_2":"上加"},"3310825":{"post_code":"3310825","prefecture":"SAITAMA KEN","city":"SAITAMA SHI KITA KU","town":"KUSHIHIKICHO","perfecture_jp":"埼玉県","jp_add_1":"さいたま市北区","jp_add_2":"櫛引町"},"3310801":{"post_code":"3310801","prefecture":"SAITAMA KEN","city":"SAITAMA SHI KITA KU","town":"KOMBACHO","perfecture_jp":"埼玉県","jp_add_1":"さいたま市北区","jp_add_2":"今羽町"},"3310804":{"post_code":"3310804","prefecture":"SAITAMA KEN","city":"SAITAMA SHI KITA KU","town":"TOROCHO","perfecture_jp":"埼玉県","jp_add_1":"さいたま市北区","jp_add_2":"土呂町"},"3310822":{"post_code":"3310822","prefecture":"SAITAMA KEN","city":"SAITAMA SHI KITA KU","town":"NARACHO","perfecture_jp":"埼玉県","jp_add_1":"さいたま市北区","jp_add_2":"奈良町"},"3310823":{"post_code":"3310823","prefecture":"SAITAMA KEN","city":"SAITAMA SHI KITA KU","town":"NISSHINCHO","perfecture_jp":"埼玉県","jp_add_1":"さいたま市北区","jp_add_2":"日進町"},"3310814":{"post_code":"3310814","prefecture":"SAITAMA KEN","city":"SAITAMA SHI KITA KU","town":"HIGASHIONARICHO","perfecture_jp":"埼玉県","jp_add_1":"さいたま市北区","jp_add_2":"東大成町"},"3310821":{"post_code":"3310821","prefecture":"SAITAMA KEN","city":"SAITAMA SHI KITA KU","town":"BESSHOCHO","perfecture_jp":"埼玉県","jp_add_1":"さいたま市北区","jp_add_2":"別所町"},"3310802":{"post_code":"3310802","prefecture":"SAITAMA KEN","city":"SAITAMA SHI KITA KU","town":"HONGOCHO","perfecture_jp":"埼玉県","jp_add_1":"さいたま市北区","jp_add_2":"本郷町"},"3310805":{"post_code":"3310805","prefecture":"SAITAMA KEN","city":"SAITAMA SHI KITA KU","town":"BONSAICHO","perfecture_jp":"埼玉県","jp_add_1":"さいたま市北区","jp_add_2":"盆栽町"},"3310803":{"post_code":"3310803","prefecture":"SAITAMA KEN","city":"SAITAMA SHI KITA KU","town":"MINUMA","perfecture_jp":"埼玉県","jp_add_1":"さいたま市北区","jp_add_2":"見沼"},"3310812":{"post_code":"3310812","prefecture":"SAITAMA KEN","city":"SAITAMA SHI KITA KU","town":"MIYAHARACHO","perfecture_jp":"埼玉県","jp_add_1":"さいたま市北区","jp_add_2":"宮原町"},"3310811":{"post_code":"3310811","prefecture":"SAITAMA KEN","city":"SAITAMA SHI KITA KU","town":"YOSHINOCHO","perfecture_jp":"埼玉県","jp_add_1":"さいたま市北区","jp_add_2":"吉野町"}}