{"3330824":{"post_code":"3330824","prefecture":"SAITAMA KEN","city":"KAWAGUCHI SHI","town":"AKASHIBASHINDEN","perfecture_jp":"埼玉県","jp_add_1":"川口市","jp_add_2":"赤芝新田"},"3330825":{"post_code":"3330825","prefecture":"SAITAMA KEN","city":"KAWAGUCHI SHI","town":"AKAYAMA","perfecture_jp":"埼玉県","jp_add_1":"川口市","jp_add_2":"赤山"},"3330826":{"post_code":"3330826","prefecture":"SAITAMA KEN","city":"KAWAGUCHI SHI","town":"ARAIJUKU","perfecture_jp":"埼玉県","jp_add_1":"川口市","jp_add_2":"新井宿"},"3330812":{"post_code":"3330812","prefecture":"SAITAMA KEN","city":"KAWAGUCHI SHI","town":"ANGYO NISHITATENO","perfecture_jp":"埼玉県","jp_add_1":"川口市","jp_add_2":"安行西立野"},"3330836":{"post_code":"3330836","prefecture":"SAITAMA KEN","city":"KAWAGUCHI SHI","town":"ANGYORYO ZAIKE","perfecture_jp":"埼玉県","jp_add_1":"川口市","jp_add_2":"安行領在家"},"3330834":{"post_code":"3330834","prefecture":"SAITAMA KEN","city":"KAWAGUCHI SHI","town":"ANGYORYO NEGISHI","perfecture_jp":"埼玉県","jp_add_1":"川口市","jp_add_2":"安行領根岸"},"3330865":{"post_code":"3330865","prefecture":"SAITAMA KEN","city":"KAWAGUCHI SHI","town":"IKARI","perfecture_jp":"埼玉県","jp_add_1":"川口市","jp_add_2":"伊刈"},"3330823":{"post_code":"3330823","prefecture":"SAITAMA KEN","city":"KAWAGUCHI SHI","town":"ISHIGAMI","perfecture_jp":"埼玉県","jp_add_1":"川口市","jp_add_2":"石神"},"3330844":{"post_code":"3330844","prefecture":"SAITAMA KEN","city":"KAWAGUCHI SHI","town":"KAMIAOKI","perfecture_jp":"埼玉県","jp_add_1":"川口市","jp_add_2":"上青木"},"3330845":{"post_code":"3330845","prefecture":"SAITAMA KEN","city":"KAWAGUCHI SHI","town":"KAMIAOKINISHI","perfecture_jp":"埼玉県","jp_add_1":"川口市","jp_add_2":"上青木西"},"3330831":{"post_code":"3330831","prefecture":"SAITAMA KEN","city":"KAWAGUCHI SHI","town":"KIZORO","perfecture_jp":"埼玉県","jp_add_1":"川口市","jp_add_2":"木曽呂"},"3330862":{"post_code":"3330862","prefecture":"SAITAMA KEN","city":"KAWAGUCHI SHI","town":"KITAZONOCHO","perfecture_jp":"埼玉県","jp_add_1":"川口市","jp_add_2":"北園町"},"3330815":{"post_code":"3330815","prefecture":"SAITAMA KEN","city":"KAWAGUCHI SHI","town":"KITAHARADAI","perfecture_jp":"埼玉県","jp_add_1":"川口市","jp_add_2":"北原台"},"3330804":{"post_code":"3330804","prefecture":"SAITAMA KEN","city":"KAWAGUCHI SHI","town":"KYUZAEMONSHINDEN","perfecture_jp":"埼玉県","jp_add_1":"川口市","jp_add_2":"久左衛門新田"},"3330814":{"post_code":"3330814","prefecture":"SAITAMA KEN","city":"KAWAGUCHI SHI","town":"GYOE","perfecture_jp":"埼玉県","jp_add_1":"川口市","jp_add_2":"行衛"},"3330822":{"post_code":"3330822","prefecture":"SAITAMA KEN","city":"KAWAGUCHI SHI","town":"GENZAEMONSHINDEN","perfecture_jp":"埼玉県","jp_add_1":"川口市","jp_add_2":"源左衛門新田"},"3330832":{"post_code":"3330832","prefecture":"SAITAMA KEN","city":"KAWAGUCHI SHI","town":"GODO","perfecture_jp":"埼玉県","jp_add_1":"川口市","jp_add_2":"神戸"},"3330857":{"post_code":"3330857","prefecture":"SAITAMA KEN","city":"KAWAGUCHI SHI","town":"KOYABA","perfecture_jp":"埼玉県","jp_add_1":"川口市","jp_add_2":"小谷場"},"3330863":{"post_code":"3330863","prefecture":"SAITAMA KEN","city":"KAWAGUCHI SHI","town":"ZAIKECHO","perfecture_jp":"埼玉県","jp_add_1":"川口市","jp_add_2":"在家町"},"3330816":{"post_code":"3330816","prefecture":"SAITAMA KEN","city":"KAWAGUCHI SHI","town":"SASHIMA","perfecture_jp":"埼玉県","jp_add_1":"川口市","jp_add_2":"差間"},"3330866":{"post_code":"3330866","prefecture":"SAITAMA KEN","city":"KAWAGUCHI SHI","town":"SHIBA","perfecture_jp":"埼玉県","jp_add_1":"川口市","jp_add_2":"芝"},"3330848":{"post_code":"3330848","prefecture":"SAITAMA KEN","city":"KAWAGUCHI SHI","town":"SHIBASHIMO","perfecture_jp":"埼玉県","jp_add_1":"川口市","jp_add_2":"芝下"},"3330851":{"post_code":"3330851","prefecture":"SAITAMA KEN","city":"KAWAGUCHI SHI","town":"SHIBASHIMMACHI","perfecture_jp":"埼玉県","jp_add_1":"川口市","jp_add_2":"芝新町"},"3330853":{"post_code":"3330853","prefecture":"SAITAMA KEN","city":"KAWAGUCHI SHI","town":"SHIBAZONOCHO","perfecture_jp":"埼玉県","jp_add_1":"川口市","jp_add_2":"芝園町"},"3330868":{"post_code":"3330868","prefecture":"SAITAMA KEN","city":"KAWAGUCHI SHI","town":"SHIBATAKAGI","perfecture_jp":"埼玉県","jp_add_1":"川口市","jp_add_2":"芝高木"},"3330856":{"post_code":"3330856","prefecture":"SAITAMA KEN","city":"KAWAGUCHI SHI","town":"SHIBATSUKABARA","perfecture_jp":"埼玉県","jp_add_1":"川口市","jp_add_2":"芝塚原"},"3330847":{"post_code":"3330847","prefecture":"SAITAMA KEN","city":"KAWAGUCHI SHI","town":"SHIBANAKADA","perfecture_jp":"埼玉県","jp_add_1":"川口市","jp_add_2":"芝中田"},"3330855":{"post_code":"3330855","prefecture":"SAITAMA KEN","city":"KAWAGUCHI SHI","town":"SHIBANISHI","perfecture_jp":"埼玉県","jp_add_1":"川口市","jp_add_2":"芝西"},"3330867":{"post_code":"3330867","prefecture":"SAITAMA KEN","city":"KAWAGUCHI SHI","town":"SHIBAHIGASHICHO","perfecture_jp":"埼玉県","jp_add_1":"川口市","jp_add_2":"芝東町"},"3330852":{"post_code":"3330852","prefecture":"SAITAMA KEN","city":"KAWAGUCHI SHI","town":"SHIBAHINOTSUME","perfecture_jp":"埼玉県","jp_add_1":"川口市","jp_add_2":"芝樋ノ爪"},"3330854":{"post_code":"3330854","prefecture":"SAITAMA KEN","city":"KAWAGUCHI SHI","town":"SHIBAFUJI","perfecture_jp":"埼玉県","jp_add_1":"川口市","jp_add_2":"芝富士"},"3330869":{"post_code":"3330869","prefecture":"SAITAMA KEN","city":"KAWAGUCHI SHI","town":"SHIBAMIYANECHO","perfecture_jp":"埼玉県","jp_add_1":"川口市","jp_add_2":"芝宮根町"},"3330807":{"post_code":"3330807","prefecture":"SAITAMA KEN","city":"KAWAGUCHI SHI","town":"CHOZO","perfecture_jp":"埼玉県","jp_add_1":"川口市","jp_add_2":"長蔵"},"3330808":{"post_code":"3330808","prefecture":"SAITAMA KEN","city":"KAWAGUCHI SHI","town":"CHOZOSHINDEN","perfecture_jp":"埼玉県","jp_add_1":"川口市","jp_add_2":"長蔵新田"},"3330803":{"post_code":"3330803","prefecture":"SAITAMA KEN","city":"KAWAGUCHI SHI","town":"TOBEESHINDEN","perfecture_jp":"埼玉県","jp_add_1":"川口市","jp_add_2":"藤兵衛新田"},"3330811":{"post_code":"3330811","prefecture":"SAITAMA KEN","city":"KAWAGUCHI SHI","town":"TOZUKA","perfecture_jp":"埼玉県","jp_add_1":"川口市","jp_add_2":"戸塚"},"3330806":{"post_code":"3330806","prefecture":"SAITAMA KEN","city":"KAWAGUCHI SHI","town":"TOZUKA SAKAICHO","perfecture_jp":"埼玉県","jp_add_1":"川口市","jp_add_2":"戸塚境町"},"3330805":{"post_code":"3330805","prefecture":"SAITAMA KEN","city":"KAWAGUCHI SHI","town":"TOZUKA HASAMICHO","perfecture_jp":"埼玉県","jp_add_1":"川口市","jp_add_2":"戸塚鋏町"},"3330802":{"post_code":"3330802","prefecture":"SAITAMA KEN","city":"KAWAGUCHI SHI","town":"TOZUKA HIGASHI","perfecture_jp":"埼玉県","jp_add_1":"川口市","jp_add_2":"戸塚東"},"3330817":{"post_code":"3330817","prefecture":"SAITAMA KEN","city":"KAWAGUCHI SHI","town":"TOZUKA MINAMI","perfecture_jp":"埼玉県","jp_add_1":"川口市","jp_add_2":"戸塚南"},"3330833":{"post_code":"3330833","prefecture":"SAITAMA KEN","city":"KAWAGUCHI SHI","town":"NISHIARAIJUKU","perfecture_jp":"埼玉県","jp_add_1":"川口市","jp_add_2":"西新井宿"},"3330813":{"post_code":"3330813","prefecture":"SAITAMA KEN","city":"KAWAGUCHI SHI","town":"NISHITATENO","perfecture_jp":"埼玉県","jp_add_1":"川口市","jp_add_2":"西立野"},"3330821":{"post_code":"3330821","prefecture":"SAITAMA KEN","city":"KAWAGUCHI SHI","town":"HIGASHIUCHINO","perfecture_jp":"埼玉県","jp_add_1":"川口市","jp_add_2":"東内野"},"3330801":{"post_code":"3330801","prefecture":"SAITAMA KEN","city":"KAWAGUCHI SHI","town":"HIGASHIKAWAGUCHI","perfecture_jp":"埼玉県","jp_add_1":"川口市","jp_add_2":"東川口"},"3330849":{"post_code":"3330849","prefecture":"SAITAMA KEN","city":"KAWAGUCHI SHI","town":"HOMMAEKAWA","perfecture_jp":"埼玉県","jp_add_1":"川口市","jp_add_2":"本前川"},"3330843":{"post_code":"3330843","prefecture":"SAITAMA KEN","city":"KAWAGUCHI SHI","town":"MAEKAMICHO","perfecture_jp":"埼玉県","jp_add_1":"川口市","jp_add_2":"前上町"},"3330842":{"post_code":"3330842","prefecture":"SAITAMA KEN","city":"KAWAGUCHI SHI","town":"MAEKAWA","perfecture_jp":"埼玉県","jp_add_1":"川口市","jp_add_2":"前川"},"3330841":{"post_code":"3330841","prefecture":"SAITAMA KEN","city":"KAWAGUCHI SHI","town":"MAEKAWACHO","perfecture_jp":"埼玉県","jp_add_1":"川口市","jp_add_2":"前川町"},"3330835":{"post_code":"3330835","prefecture":"SAITAMA KEN","city":"KAWAGUCHI SHI","town":"MICHIAI","perfecture_jp":"埼玉県","jp_add_1":"川口市","jp_add_2":"道合"},"3330846":{"post_code":"3330846","prefecture":"SAITAMA KEN","city":"KAWAGUCHI SHI","town":"MINAMIMAEKAWA","perfecture_jp":"埼玉県","jp_add_1":"川口市","jp_add_2":"南前川"},"3330861":{"post_code":"3330861","prefecture":"SAITAMA KEN","city":"KAWAGUCHI SHI","town":"YANAGISAKI","perfecture_jp":"埼玉県","jp_add_1":"川口市","jp_add_2":"柳崎"},"3330864":{"post_code":"3330864","prefecture":"SAITAMA KEN","city":"KAWAGUCHI SHI","town":"YANANECHO","perfecture_jp":"埼玉県","jp_add_1":"川口市","jp_add_2":"柳根町"}}