{"3340073":{"post_code":"3340073","prefecture":"SAITAMA KEN","city":"KAWAGUCHI SHI","town":"AKAI","perfecture_jp":"埼玉県","jp_add_1":"川口市","jp_add_2":"赤井"},"3340059":{"post_code":"3340059","prefecture":"SAITAMA KEN","city":"KAWAGUCHI SHI","town":"ANGYO","perfecture_jp":"埼玉県","jp_add_1":"川口市","jp_add_2":"安行"},"3340054":{"post_code":"3340054","prefecture":"SAITAMA KEN","city":"KAWAGUCHI SHI","town":"ANGYO KITAYA","perfecture_jp":"埼玉県","jp_add_1":"川口市","jp_add_2":"安行北谷"},"3340053":{"post_code":"3340053","prefecture":"SAITAMA KEN","city":"KAWAGUCHI SHI","town":"ANGYO KICHIZO","perfecture_jp":"埼玉県","jp_add_1":"川口市","jp_add_2":"安行吉蔵"},"3340055":{"post_code":"3340055","prefecture":"SAITAMA KEN","city":"KAWAGUCHI SHI","town":"ANGYO KOYAMA","perfecture_jp":"埼玉県","jp_add_1":"川口市","jp_add_2":"安行小山"},"3340071":{"post_code":"3340071","prefecture":"SAITAMA KEN","city":"KAWAGUCHI SHI","town":"ANGYO JIRIN","perfecture_jp":"埼玉県","jp_add_1":"川口市","jp_add_2":"安行慈林"},"3340051":{"post_code":"3340051","prefecture":"SAITAMA KEN","city":"KAWAGUCHI SHI","town":"ANGYO TOHACHI","perfecture_jp":"埼玉県","jp_add_1":"川口市","jp_add_2":"安行藤八"},"3340057":{"post_code":"3340057","prefecture":"SAITAMA KEN","city":"KAWAGUCHI SHI","town":"ANGYO HARA","perfecture_jp":"埼玉県","jp_add_1":"川口市","jp_add_2":"安行原"},"3340072":{"post_code":"3340072","prefecture":"SAITAMA KEN","city":"KAWAGUCHI SHI","town":"ANGYO YOSHIOKA","perfecture_jp":"埼玉県","jp_add_1":"川口市","jp_add_2":"安行吉岡"},"3340058":{"post_code":"3340058","prefecture":"SAITAMA KEN","city":"KAWAGUCHI SHI","town":"ANGYO RYOKE","perfecture_jp":"埼玉県","jp_add_1":"川口市","jp_add_2":"安行領家"},"3340052":{"post_code":"3340052","prefecture":"SAITAMA KEN","city":"KAWAGUCHI SHI","town":"ANGYODEWA","perfecture_jp":"埼玉県","jp_add_1":"川口市","jp_add_2":"安行出羽"},"3340074":{"post_code":"3340074","prefecture":"SAITAMA KEN","city":"KAWAGUCHI SHI","town":"EDO","perfecture_jp":"埼玉県","jp_add_1":"川口市","jp_add_2":"江戸"},"3340075":{"post_code":"3340075","prefecture":"SAITAMA KEN","city":"KAWAGUCHI SHI","town":"EDOBUKURO","perfecture_jp":"埼玉県","jp_add_1":"川口市","jp_add_2":"江戸袋"},"3340067":{"post_code":"3340067","prefecture":"SAITAMA KEN","city":"KAWAGUCHI SHI","town":"OTAKE","perfecture_jp":"埼玉県","jp_add_1":"川口市","jp_add_2":"大竹"},"3340003":{"post_code":"3340003","prefecture":"SAITAMA KEN","city":"KAWAGUCHI SHI","town":"SAKASHITACHO","perfecture_jp":"埼玉県","jp_add_1":"川口市","jp_add_2":"坂下町"},"3340001":{"post_code":"3340001","prefecture":"SAITAMA KEN","city":"KAWAGUCHI SHI","town":"SAKURACHO","perfecture_jp":"埼玉県","jp_add_1":"川口市","jp_add_2":"桜町"},"3340005":{"post_code":"3340005","prefecture":"SAITAMA KEN","city":"KAWAGUCHI SHI","town":"SATO","perfecture_jp":"埼玉県","jp_add_1":"川口市","jp_add_2":"里"},"3340004":{"post_code":"3340004","prefecture":"SAITAMA KEN","city":"KAWAGUCHI SHI","town":"TSUJI","perfecture_jp":"埼玉県","jp_add_1":"川口市","jp_add_2":"辻"},"3340061":{"post_code":"3340061","prefecture":"SAITAMA KEN","city":"KAWAGUCHI SHI","town":"NIIHORI","perfecture_jp":"埼玉県","jp_add_1":"川口市","jp_add_2":"新堀"},"3340068":{"post_code":"3340068","prefecture":"SAITAMA KEN","city":"KAWAGUCHI SHI","town":"NIIHORICHO","perfecture_jp":"埼玉県","jp_add_1":"川口市","jp_add_2":"新堀町"},"3340062":{"post_code":"3340062","prefecture":"SAITAMA KEN","city":"KAWAGUCHI SHI","town":"HAEMATSU","perfecture_jp":"埼玉県","jp_add_1":"川口市","jp_add_2":"榛松"},"3340064":{"post_code":"3340064","prefecture":"SAITAMA KEN","city":"KAWAGUCHI SHI","town":"HASUNUMA","perfecture_jp":"埼玉県","jp_add_1":"川口市","jp_add_2":"蓮沼"},"3340012":{"post_code":"3340012","prefecture":"SAITAMA KEN","city":"KAWAGUCHI SHI","town":"HACHIMANGI","perfecture_jp":"埼玉県","jp_add_1":"川口市","jp_add_2":"八幡木"},"3340002":{"post_code":"3340002","prefecture":"SAITAMA KEN","city":"KAWAGUCHI SHI","town":"HATOGAYAHONCHO","perfecture_jp":"埼玉県","jp_add_1":"川口市","jp_add_2":"鳩ヶ谷本町"},"3340015":{"post_code":"3340015","prefecture":"SAITAMA KEN","city":"KAWAGUCHI SHI","town":"HATOGAYAMIDORICHO","perfecture_jp":"埼玉県","jp_add_1":"川口市","jp_add_2":"鳩ヶ谷緑町"},"3340066":{"post_code":"3340066","prefecture":"SAITAMA KEN","city":"KAWAGUCHI SHI","town":"HIGASHIKAIZUKA","perfecture_jp":"埼玉県","jp_add_1":"川口市","jp_add_2":"東貝塚"},"3340063":{"post_code":"3340063","prefecture":"SAITAMA KEN","city":"KAWAGUCHI SHI","town":"HIGASHIHONGO","perfecture_jp":"埼玉県","jp_add_1":"川口市","jp_add_2":"東本郷"},"3340076":{"post_code":"3340076","prefecture":"SAITAMA KEN","city":"KAWAGUCHI SHI","town":"HOMBASU","perfecture_jp":"埼玉県","jp_add_1":"川口市","jp_add_2":"本蓮"},"3340014":{"post_code":"3340014","prefecture":"SAITAMA KEN","city":"KAWAGUCHI SHI","town":"MAETA","perfecture_jp":"埼玉県","jp_add_1":"川口市","jp_add_2":"前田"},"3340065":{"post_code":"3340065","prefecture":"SAITAMA KEN","city":"KAWAGUCHI SHI","town":"MAENOSHUKU","perfecture_jp":"埼玉県","jp_add_1":"川口市","jp_add_2":"前野宿"},"3340011":{"post_code":"3340011","prefecture":"SAITAMA KEN","city":"KAWAGUCHI SHI","town":"MITSUWA","perfecture_jp":"埼玉県","jp_add_1":"川口市","jp_add_2":"三ツ和"},"3340013":{"post_code":"3340013","prefecture":"SAITAMA KEN","city":"KAWAGUCHI SHI","town":"MINAMIHATOGAYA","perfecture_jp":"埼玉県","jp_add_1":"川口市","jp_add_2":"南鳩ヶ谷"},"3340056":{"post_code":"3340056","prefecture":"SAITAMA KEN","city":"KAWAGUCHI SHI","town":"MINE","perfecture_jp":"埼玉県","jp_add_1":"川口市","jp_add_2":"峯"}}