{"3380014":{"post_code":"3380014","prefecture":"SAITAMA KEN","city":"SAITAMA SHI CHUO KU","town":"UEMINE","perfecture_jp":"埼玉県","jp_add_1":"さいたま市中央区","jp_add_2":"上峰"},"3380007":{"post_code":"3380007","prefecture":"SAITAMA KEN","city":"SAITAMA SHI CHUO KU","town":"ENNAMI","perfecture_jp":"埼玉県","jp_add_1":"さいたま市中央区","jp_add_2":"円阿弥"},"3380012":{"post_code":"3380012","prefecture":"SAITAMA KEN","city":"SAITAMA SHI CHUO KU","town":"OTO","perfecture_jp":"埼玉県","jp_add_1":"さいたま市中央区","jp_add_2":"大戸"},"3380001":{"post_code":"3380001","prefecture":"SAITAMA KEN","city":"SAITAMA SHI CHUO KU","town":"KAMIOCHIAI","perfecture_jp":"埼玉県","jp_add_1":"さいたま市中央区","jp_add_2":"上落合"},"3380005":{"post_code":"3380005","prefecture":"SAITAMA KEN","city":"SAITAMA SHI CHUO KU","town":"SAKURAOKA","perfecture_jp":"埼玉県","jp_add_1":"さいたま市中央区","jp_add_2":"桜丘"},"3380002":{"post_code":"3380002","prefecture":"SAITAMA KEN","city":"SAITAMA SHI CHUO KU","town":"SHIMOCHIAI","perfecture_jp":"埼玉県","jp_add_1":"さいたま市中央区","jp_add_2":"下落合"},"3380011":{"post_code":"3380011","prefecture":"SAITAMA KEN","city":"SAITAMA SHI CHUO KU","town":"SHINNAKAZATO","perfecture_jp":"埼玉県","jp_add_1":"さいたま市中央区","jp_add_2":"新中里"},"3380013":{"post_code":"3380013","prefecture":"SAITAMA KEN","city":"SAITAMA SHI CHUO KU","town":"SUZUYA","perfecture_jp":"埼玉県","jp_add_1":"さいたま市中央区","jp_add_2":"鈴谷"},"3380006":{"post_code":"3380006","prefecture":"SAITAMA KEN","city":"SAITAMA SHI CHUO KU","town":"HACHIOJI","perfecture_jp":"埼玉県","jp_add_1":"さいたま市中央区","jp_add_2":"八王子"},"3380004":{"post_code":"3380004","prefecture":"SAITAMA KEN","city":"SAITAMA SHI CHUO KU","town":"HOMMACHINISHI","perfecture_jp":"埼玉県","jp_add_1":"さいたま市中央区","jp_add_2":"本町西"},"3380003":{"post_code":"3380003","prefecture":"SAITAMA KEN","city":"SAITAMA SHI CHUO KU","town":"HOMMACHIHIGASHI","perfecture_jp":"埼玉県","jp_add_1":"さいたま市中央区","jp_add_2":"本町東"},"3380800":{"post_code":"3380800","prefecture":"SAITAMA KEN","city":"SAITAMA SHI SAKURA KU","town":"IKANIKEISAIGANAIBAAI","perfecture_jp":"埼玉県","jp_add_1":"さいたま市桜区","jp_add_2":""},"3380826":{"post_code":"3380826","prefecture":"SAITAMA KEN","city":"SAITAMA SHI SAKURA KU","town":"OKUBORYOKE","perfecture_jp":"埼玉県","jp_add_1":"さいたま市桜区","jp_add_2":"大久保領家"},"3380824":{"post_code":"3380824","prefecture":"SAITAMA KEN","city":"SAITAMA SHI SAKURA KU","town":"KAMIOKUBO","perfecture_jp":"埼玉県","jp_add_1":"さいたま市桜区","jp_add_2":"上大久保"},"3380815":{"post_code":"3380815","prefecture":"SAITAMA KEN","city":"SAITAMA SHI SAKURA KU","town":"GOSEKI","perfecture_jp":"埼玉県","jp_add_1":"さいたま市桜区","jp_add_2":"五関"},"3380813":{"post_code":"3380813","prefecture":"SAITAMA KEN","city":"SAITAMA SHI SAKURA KU","town":"ZAIKE","perfecture_jp":"埼玉県","jp_add_1":"さいたま市桜区","jp_add_2":"在家"},"3380823":{"post_code":"3380823","prefecture":"SAITAMA KEN","city":"SAITAMA SHI SAKURA KU","town":"SAKAWA","perfecture_jp":"埼玉県","jp_add_1":"さいたま市桜区","jp_add_2":"栄和"},"3380833":{"post_code":"3380833","prefecture":"SAITAMA KEN","city":"SAITAMA SHI SAKURA KU","town":"SAKURADA","perfecture_jp":"埼玉県","jp_add_1":"さいたま市桜区","jp_add_2":"桜田"},"3380834":{"post_code":"3380834","prefecture":"SAITAMA KEN","city":"SAITAMA SHI SAKURA KU","town":"SHIBIRAKI","perfecture_jp":"埼玉県","jp_add_1":"さいたま市桜区","jp_add_2":"新開"},"3380825":{"post_code":"3380825","prefecture":"SAITAMA KEN","city":"SAITAMA SHI SAKURA KU","town":"SHIMOOKUBO","perfecture_jp":"埼玉県","jp_add_1":"さいたま市桜区","jp_add_2":"下大久保"},"3380814":{"post_code":"3380814","prefecture":"SAITAMA KEN","city":"SAITAMA SHI SAKURA KU","town":"SHUKU","perfecture_jp":"埼玉県","jp_add_1":"さいたま市桜区","jp_add_2":"宿"},"3380817":{"post_code":"3380817","prefecture":"SAITAMA KEN","city":"SAITAMA SHI SAKURA KU","town":"SHOWA","perfecture_jp":"埼玉県","jp_add_1":"さいたま市桜区","jp_add_2":"昭和"},"3380811":{"post_code":"3380811","prefecture":"SAITAMA KEN","city":"SAITAMA SHI SAKURA KU","town":"SHIRAKUWA","perfecture_jp":"埼玉県","jp_add_1":"さいたま市桜区","jp_add_2":"白鍬"},"3380812":{"post_code":"3380812","prefecture":"SAITAMA KEN","city":"SAITAMA SHI SAKURA KU","town":"JINDE","perfecture_jp":"埼玉県","jp_add_1":"さいたま市桜区","jp_add_2":"神田"},"3380837":{"post_code":"3380837","prefecture":"SAITAMA KEN","city":"SAITAMA SHI SAKURA KU","town":"TAJIMA","perfecture_jp":"埼玉県","jp_add_1":"さいたま市桜区","jp_add_2":"田島"},"3380816":{"post_code":"3380816","prefecture":"SAITAMA KEN","city":"SAITAMA SHI SAKURA KU","town":"TSUKAMOTO","perfecture_jp":"埼玉県","jp_add_1":"さいたま市桜区","jp_add_2":"塚本"},"3380835":{"post_code":"3380835","prefecture":"SAITAMA KEN","city":"SAITAMA SHI SAKURA KU","town":"DOJO","perfecture_jp":"埼玉県","jp_add_1":"さいたま市桜区","jp_add_2":"道場"},"3380822":{"post_code":"3380822","prefecture":"SAITAMA KEN","city":"SAITAMA SHI SAKURA KU","town":"NAKAJIMA","perfecture_jp":"埼玉県","jp_add_1":"さいたま市桜区","jp_add_2":"中島"},"3380832":{"post_code":"3380832","prefecture":"SAITAMA KEN","city":"SAITAMA SHI SAKURA KU","town":"NISHIBORI","perfecture_jp":"埼玉県","jp_add_1":"さいたま市桜区","jp_add_2":"西堀"},"3380836":{"post_code":"3380836","prefecture":"SAITAMA KEN","city":"SAITAMA SHI SAKURA KU","town":"MACHIYA","perfecture_jp":"埼玉県","jp_add_1":"さいたま市桜区","jp_add_2":"町谷"},"3380831":{"post_code":"3380831","prefecture":"SAITAMA KEN","city":"SAITAMA SHI SAKURA KU","town":"MINAMIMOTOJUKU","perfecture_jp":"埼玉県","jp_add_1":"さいたま市桜区","jp_add_2":"南元宿"},"3380821":{"post_code":"3380821","prefecture":"SAITAMA KEN","city":"SAITAMA SHI SAKURA KU","town":"YAMAKUBO","perfecture_jp":"埼玉県","jp_add_1":"さいたま市桜区","jp_add_2":"山久保"}}