{"3390000":{"post_code":"3390000","prefecture":"SAITAMA KEN","city":"SAITAMA SHI IWATSUKI KU","town":"IKANIKEISAIGANAIBAAI","perfecture_jp":"埼玉県","jp_add_1":"さいたま市岩槻区","jp_add_2":""},"3390071":{"post_code":"3390071","prefecture":"SAITAMA KEN","city":"SAITAMA SHI IWATSUKI KU","town":"AINOHARA","perfecture_jp":"埼玉県","jp_add_1":"さいたま市岩槻区","jp_add_2":"相野原"},"3390066":{"post_code":"3390066","prefecture":"SAITAMA KEN","city":"SAITAMA SHI IWATSUKI KU","town":"ATAGOCHO","perfecture_jp":"埼玉県","jp_add_1":"さいたま市岩槻区","jp_add_2":"愛宕町"},"3390031":{"post_code":"3390031","prefecture":"SAITAMA KEN","city":"SAITAMA SHI IWATSUKI KU","town":"IIZUKA","perfecture_jp":"埼玉県","jp_add_1":"さいたま市岩槻区","jp_add_2":"飯塚"},"3390061":{"post_code":"3390061","prefecture":"SAITAMA KEN","city":"SAITAMA SHI IWATSUKI KU","town":"IWATSUKI","perfecture_jp":"埼玉県","jp_add_1":"さいたま市岩槻区","jp_add_2":"岩槻"},"3390073":{"post_code":"3390073","prefecture":"SAITAMA KEN","city":"SAITAMA SHI IWATSUKI KU","town":"UENO","perfecture_jp":"埼玉県","jp_add_1":"さいたま市岩槻区","jp_add_2":"上野"},"3390037":{"post_code":"3390037","prefecture":"SAITAMA KEN","city":"SAITAMA SHI IWATSUKI KU","town":"UKIYA","perfecture_jp":"埼玉県","jp_add_1":"さいたま市岩槻区","jp_add_2":"浮谷"},"3390002":{"post_code":"3390002","prefecture":"SAITAMA KEN","city":"SAITAMA SHI IWATSUKI KU","town":"URAJIONJI","perfecture_jp":"埼玉県","jp_add_1":"さいたま市岩槻区","jp_add_2":"裏慈恩寺"},"3390013":{"post_code":"3390013","prefecture":"SAITAMA KEN","city":"SAITAMA SHI IWATSUKI KU","town":"OGUCHI","perfecture_jp":"埼玉県","jp_add_1":"さいたま市岩槻区","jp_add_2":"大口"},"3390052":{"post_code":"3390052","prefecture":"SAITAMA KEN","city":"SAITAMA SHI IWATSUKI KU","town":"OTA","perfecture_jp":"埼玉県","jp_add_1":"さいたま市岩槻区","jp_add_2":"太田"},"3390014":{"post_code":"3390014","prefecture":"SAITAMA KEN","city":"SAITAMA SHI IWATSUKI KU","town":"OTO","perfecture_jp":"埼玉県","jp_add_1":"さいたま市岩槻区","jp_add_2":"大戸"},"3390018":{"post_code":"3390018","prefecture":"SAITAMA KEN","city":"SAITAMA SHI IWATSUKI KU","town":"ONOJIMA","perfecture_jp":"埼玉県","jp_add_1":"さいたま市岩槻区","jp_add_2":"大野島"},"3390017":{"post_code":"3390017","prefecture":"SAITAMA KEN","city":"SAITAMA SHI IWATSUKI KU","town":"OMORI","perfecture_jp":"埼玉県","jp_add_1":"さいたま市岩槻区","jp_add_2":"大森"},"3390015":{"post_code":"3390015","prefecture":"SAITAMA KEN","city":"SAITAMA SHI IWATSUKI KU","town":"OYA","perfecture_jp":"埼玉県","jp_add_1":"さいたま市岩槻区","jp_add_2":"大谷"},"3390027":{"post_code":"3390027","prefecture":"SAITAMA KEN","city":"SAITAMA SHI IWATSUKI KU","town":"OGASAKI","perfecture_jp":"埼玉県","jp_add_1":"さいたま市岩槻区","jp_add_2":"尾ケ崎"},"3390026":{"post_code":"3390026","prefecture":"SAITAMA KEN","city":"SAITAMA SHI IWATSUKI KU","town":"OGASAKISHINDEN","perfecture_jp":"埼玉県","jp_add_1":"さいたま市岩槻区","jp_add_2":"尾ケ崎新田"},"3390008":{"post_code":"3390008","prefecture":"SAITAMA KEN","city":"SAITAMA SHI IWATSUKI KU","town":"OMOTEJIONJI","perfecture_jp":"埼玉県","jp_add_1":"さいたま市岩槻区","jp_add_2":"表慈恩寺"},"3390024":{"post_code":"3390024","prefecture":"SAITAMA KEN","city":"SAITAMA SHI IWATSUKI KU","town":"KAGIAGE","perfecture_jp":"埼玉県","jp_add_1":"さいたま市岩槻区","jp_add_2":"釣上"},"3390025":{"post_code":"3390025","prefecture":"SAITAMA KEN","city":"SAITAMA SHI IWATSUKI KU","town":"KAGIAGESHINDEN","perfecture_jp":"埼玉県","jp_add_1":"さいたま市岩槻区","jp_add_2":"釣上新田"},"3390056":{"post_code":"3390056","prefecture":"SAITAMA KEN","city":"SAITAMA SHI IWATSUKI KU","town":"KAKURA","perfecture_jp":"埼玉県","jp_add_1":"さいたま市岩槻区","jp_add_2":"加倉"},"3390078":{"post_code":"3390078","prefecture":"SAITAMA KEN","city":"SAITAMA SHI IWATSUKI KU","town":"KAKE","perfecture_jp":"埼玉県","jp_add_1":"さいたま市岩槻区","jp_add_2":"掛"},"3390045":{"post_code":"3390045","prefecture":"SAITAMA KEN","city":"SAITAMA SHI IWATSUKI KU","town":"KASHIWAZAKI","perfecture_jp":"埼玉県","jp_add_1":"さいたま市岩槻区","jp_add_2":"柏崎"},"3390075":{"post_code":"3390075","prefecture":"SAITAMA KEN","city":"SAITAMA SHI IWATSUKI KU","town":"KANASHIGE","perfecture_jp":"埼玉県","jp_add_1":"さいたま市岩槻区","jp_add_2":"金重"},"3390001":{"post_code":"3390001","prefecture":"SAITAMA KEN","city":"SAITAMA SHI IWATSUKI KU","town":"KANAMURO","perfecture_jp":"埼玉県","jp_add_1":"さいたま市岩槻区","jp_add_2":"鹿室"},"3390006":{"post_code":"3390006","prefecture":"SAITAMA KEN","city":"SAITAMA SHI IWATSUKI KU","town":"KAMISATO","perfecture_jp":"埼玉県","jp_add_1":"さいたま市岩槻区","jp_add_2":"上里"},"3390033":{"post_code":"3390033","prefecture":"SAITAMA KEN","city":"SAITAMA SHI IWATSUKI KU","town":"KUROYA","perfecture_jp":"埼玉県","jp_add_1":"さいたま市岩槻区","jp_add_2":"黒谷"},"3390072":{"post_code":"3390072","prefecture":"SAITAMA KEN","city":"SAITAMA SHI IWATSUKI KU","town":"KOKABA","perfecture_jp":"埼玉県","jp_add_1":"さいたま市岩槻区","jp_add_2":"古ケ場"},"3390003":{"post_code":"3390003","prefecture":"SAITAMA KEN","city":"SAITAMA SHI IWATSUKI KU","town":"KOMIZO","perfecture_jp":"埼玉県","jp_add_1":"さいたま市岩槻区","jp_add_2":"小溝"},"3390034":{"post_code":"3390034","prefecture":"SAITAMA KEN","city":"SAITAMA SHI IWATSUKI KU","town":"SASAKUBO","perfecture_jp":"埼玉県","jp_add_1":"さいたま市岩槻区","jp_add_2":"笹久保"},"3390035":{"post_code":"3390035","prefecture":"SAITAMA KEN","city":"SAITAMA SHI IWATSUKI KU","town":"SASAKUBOSHINDEN","perfecture_jp":"埼玉県","jp_add_1":"さいたま市岩槻区","jp_add_2":"笹久保新田"},"3390009":{"post_code":"3390009","prefecture":"SAITAMA KEN","city":"SAITAMA SHI IWATSUKI KU","town":"JIONJI","perfecture_jp":"埼玉県","jp_add_1":"さいたま市岩槻区","jp_add_2":"慈恩寺"},"3390043":{"post_code":"3390043","prefecture":"SAITAMA KEN","city":"SAITAMA SHI IWATSUKI KU","town":"JONAN","perfecture_jp":"埼玉県","jp_add_1":"さいたま市岩槻区","jp_add_2":"城南"},"3390053":{"post_code":"3390053","prefecture":"SAITAMA KEN","city":"SAITAMA SHI IWATSUKI KU","town":"SHIROMACHI","perfecture_jp":"埼玉県","jp_add_1":"さいたま市岩槻区","jp_add_2":"城町"},"3390044":{"post_code":"3390044","prefecture":"SAITAMA KEN","city":"SAITAMA SHI IWATSUKI KU","town":"SHIMPUKUJI","perfecture_jp":"埼玉県","jp_add_1":"さいたま市岩槻区","jp_add_2":"真福寺"},"3390021":{"post_code":"3390021","prefecture":"SAITAMA KEN","city":"SAITAMA SHI IWATSUKI KU","town":"SUEDA","perfecture_jp":"埼玉県","jp_add_1":"さいたま市岩槻区","jp_add_2":"末田"},"3390007":{"post_code":"3390007","prefecture":"SAITAMA KEN","city":"SAITAMA SHI IWATSUKI KU","town":"SUWA","perfecture_jp":"埼玉県","jp_add_1":"さいたま市岩槻区","jp_add_2":"諏訪"},"3390022":{"post_code":"3390022","prefecture":"SAITAMA KEN","city":"SAITAMA SHI IWATSUKI KU","town":"TAKASONE","perfecture_jp":"埼玉県","jp_add_1":"さいたま市岩槻区","jp_add_2":"高曽根"},"3390004":{"post_code":"3390004","prefecture":"SAITAMA KEN","city":"SAITAMA SHI IWATSUKI KU","town":"TOKURIKI","perfecture_jp":"埼玉県","jp_add_1":"さいたま市岩槻区","jp_add_2":"徳力"},"3390054":{"post_code":"3390054","prefecture":"SAITAMA KEN","city":"SAITAMA SHI IWATSUKI KU","town":"NAKACHO","perfecture_jp":"埼玉県","jp_add_1":"さいたま市岩槻区","jp_add_2":"仲町"},"3390011":{"post_code":"3390011","prefecture":"SAITAMA KEN","city":"SAITAMA SHI IWATSUKI KU","town":"NAGAMIYA","perfecture_jp":"埼玉県","jp_add_1":"さいたま市岩槻区","jp_add_2":"長宮"},"3390068":{"post_code":"3390068","prefecture":"SAITAMA KEN","city":"SAITAMA SHI IWATSUKI KU","town":"NAMIKI","perfecture_jp":"埼玉県","jp_add_1":"さいたま市岩槻区","jp_add_2":"並木"},"3390016":{"post_code":"3390016","prefecture":"SAITAMA KEN","city":"SAITAMA SHI IWATSUKI KU","town":"NIIGATASUKA","perfecture_jp":"埼玉県","jp_add_1":"さいたま市岩槻区","jp_add_2":"新方須賀"},"3390081":{"post_code":"3390081","prefecture":"SAITAMA KEN","city":"SAITAMA SHI IWATSUKI KU","town":"NISHIHARA","perfecture_jp":"埼玉県","jp_add_1":"さいたま市岩槻区","jp_add_2":"西原"},"3390082":{"post_code":"3390082","prefecture":"SAITAMA KEN","city":"SAITAMA SHI IWATSUKI KU","town":"NISHIHARADAI","perfecture_jp":"埼玉県","jp_add_1":"さいたま市岩槻区","jp_add_2":"西原台"},"3390067":{"post_code":"3390067","prefecture":"SAITAMA KEN","city":"SAITAMA SHI IWATSUKI KU","town":"NISHIMACHI","perfecture_jp":"埼玉県","jp_add_1":"さいたま市岩槻区","jp_add_2":"西町"},"3390023":{"post_code":"3390023","prefecture":"SAITAMA KEN","city":"SAITAMA SHI IWATSUKI KU","town":"NOMAGO","perfecture_jp":"埼玉県","jp_add_1":"さいたま市岩槻区","jp_add_2":"野孫"},"3390047":{"post_code":"3390047","prefecture":"SAITAMA KEN","city":"SAITAMA SHI IWATSUKI KU","town":"HARAMACHI","perfecture_jp":"埼玉県","jp_add_1":"さいたま市岩槻区","jp_add_2":"原町"},"3390005":{"post_code":"3390005","prefecture":"SAITAMA KEN","city":"SAITAMA SHI IWATSUKI KU","town":"HIGASHIIWATSUKI","perfecture_jp":"埼玉県","jp_add_1":"さいたま市岩槻区","jp_add_2":"東岩槻"},"3390055":{"post_code":"3390055","prefecture":"SAITAMA KEN","city":"SAITAMA SHI IWATSUKI KU","town":"HIGASHICHO","perfecture_jp":"埼玉県","jp_add_1":"さいたま市岩槻区","jp_add_2":"東町"},"3390064":{"post_code":"3390064","prefecture":"SAITAMA KEN","city":"SAITAMA SHI IWATSUKI KU","town":"HINODECHO","perfecture_jp":"埼玉県","jp_add_1":"さいたま市岩槻区","jp_add_2":"日の出町"},"3390042":{"post_code":"3390042","prefecture":"SAITAMA KEN","city":"SAITAMA SHI IWATSUKI KU","town":"FUNAI","perfecture_jp":"埼玉県","jp_add_1":"さいたま市岩槻区","jp_add_2":"府内"},"3390076":{"post_code":"3390076","prefecture":"SAITAMA KEN","city":"SAITAMA SHI IWATSUKI KU","town":"HEIRINJI","perfecture_jp":"埼玉県","jp_add_1":"さいたま市岩槻区","jp_add_2":"平林寺"},"3390074":{"post_code":"3390074","prefecture":"SAITAMA KEN","city":"SAITAMA SHI IWATSUKI KU","town":"HONJUKU","perfecture_jp":"埼玉県","jp_add_1":"さいたま市岩槻区","jp_add_2":"本宿"},"3390057":{"post_code":"3390057","prefecture":"SAITAMA KEN","city":"SAITAMA SHI IWATSUKI KU","town":"HONCHO","perfecture_jp":"埼玉県","jp_add_1":"さいたま市岩槻区","jp_add_2":"本町"},"3390058":{"post_code":"3390058","prefecture":"SAITAMA KEN","city":"SAITAMA SHI IWATSUKI KU","town":"HOMMARU","perfecture_jp":"埼玉県","jp_add_1":"さいたま市岩槻区","jp_add_2":"本丸"},"3390077":{"post_code":"3390077","prefecture":"SAITAMA KEN","city":"SAITAMA SHI IWATSUKI KU","town":"MAGOME","perfecture_jp":"埼玉県","jp_add_1":"さいたま市岩槻区","jp_add_2":"馬込"},"3390012":{"post_code":"3390012","prefecture":"SAITAMA KEN","city":"SAITAMA SHI IWATSUKI KU","town":"MASHINAGA","perfecture_jp":"埼玉県","jp_add_1":"さいたま市岩槻区","jp_add_2":"増長"},"3390032":{"post_code":"3390032","prefecture":"SAITAMA KEN","city":"SAITAMA SHI IWATSUKI KU","town":"MINAMISHIMOARAI","perfecture_jp":"埼玉県","jp_add_1":"さいたま市岩槻区","jp_add_2":"南下新井"},"3390062":{"post_code":"3390062","prefecture":"SAITAMA KEN","city":"SAITAMA SHI IWATSUKI KU","town":"MINAMITSUJI","perfecture_jp":"埼玉県","jp_add_1":"さいたま市岩槻区","jp_add_2":"南辻"},"3390051":{"post_code":"3390051","prefecture":"SAITAMA KEN","city":"SAITAMA SHI IWATSUKI KU","town":"MINAMIHIRANO","perfecture_jp":"埼玉県","jp_add_1":"さいたま市岩槻区","jp_add_2":"南平野"},"3390069":{"post_code":"3390069","prefecture":"SAITAMA KEN","city":"SAITAMA SHI IWATSUKI KU","town":"MINOWA","perfecture_jp":"埼玉県","jp_add_1":"さいたま市岩槻区","jp_add_2":"箕輪"},"3390065":{"post_code":"3390065","prefecture":"SAITAMA KEN","city":"SAITAMA SHI IWATSUKI KU","town":"MIYACHO","perfecture_jp":"埼玉県","jp_add_1":"さいたま市岩槻区","jp_add_2":"宮町"},"3390063":{"post_code":"3390063","prefecture":"SAITAMA KEN","city":"SAITAMA SHI IWATSUKI KU","town":"MIYUKICHO","perfecture_jp":"埼玉県","jp_add_1":"さいたま市岩槻区","jp_add_2":"美幸町"},"3390041":{"post_code":"3390041","prefecture":"SAITAMA KEN","city":"SAITAMA SHI IWATSUKI KU","town":"MURAKUNI","perfecture_jp":"埼玉県","jp_add_1":"さいたま市岩槻区","jp_add_2":"村国"},"3390046":{"post_code":"3390046","prefecture":"SAITAMA KEN","city":"SAITAMA SHI IWATSUKI KU","town":"YAJITA","perfecture_jp":"埼玉県","jp_add_1":"さいたま市岩槻区","jp_add_2":"谷下"},"3390036":{"post_code":"3390036","prefecture":"SAITAMA KEN","city":"SAITAMA SHI IWATSUKI KU","town":"YOKONE","perfecture_jp":"埼玉県","jp_add_1":"さいたま市岩槻区","jp_add_2":"横根"}}