{"3430000":{"post_code":"3430000","prefecture":"SAITAMA KEN","city":"KOSHIGAYA SHI","town":"IKANIKEISAIGANAIBAAI","perfecture_jp":"埼玉県","jp_add_1":"越谷市","jp_add_2":""},"3430807":{"post_code":"3430807","prefecture":"SAITAMA KEN","city":"KOSHIGAYA SHI","town":"AKAYAMACHO","perfecture_jp":"埼玉県","jp_add_1":"越谷市","jp_add_2":"赤山町"},"3430808":{"post_code":"3430808","prefecture":"SAITAMA KEN","city":"KOSHIGAYA SHI","town":"AKAYAMAHONCHO","perfecture_jp":"埼玉県","jp_add_1":"越谷市","jp_add_2":"赤山本町"},"3430826":{"post_code":"3430826","prefecture":"SAITAMA KEN","city":"KOSHIGAYA SHI","town":"AZUMACHO","perfecture_jp":"埼玉県","jp_add_1":"越谷市","jp_add_2":"東町"},"3430831":{"post_code":"3430831","prefecture":"SAITAMA KEN","city":"KOSHIGAYA SHI","town":"IHARA","perfecture_jp":"埼玉県","jp_add_1":"越谷市","jp_add_2":"伊原"},"3430025":{"post_code":"3430025","prefecture":"SAITAMA KEN","city":"KOSHIGAYA SHI","town":"OSAWA","perfecture_jp":"埼玉県","jp_add_1":"越谷市","jp_add_2":"大沢"},"3430031":{"post_code":"3430031","prefecture":"SAITAMA KEN","city":"KOSHIGAYA SHI","town":"OZATO","perfecture_jp":"埼玉県","jp_add_1":"越谷市","jp_add_2":"大里"},"3430005":{"post_code":"3430005","prefecture":"SAITAMA KEN","city":"KOSHIGAYA SHI","town":"OSUGI","perfecture_jp":"埼玉県","jp_add_1":"越谷市","jp_add_2":"大杉"},"3430034":{"post_code":"3430034","prefecture":"SAITAMA KEN","city":"KOSHIGAYA SHI","town":"OTAKE","perfecture_jp":"埼玉県","jp_add_1":"越谷市","jp_add_2":"大竹"},"3430044":{"post_code":"3430044","prefecture":"SAITAMA KEN","city":"KOSHIGAYA SHI","town":"ODOMARI","perfecture_jp":"埼玉県","jp_add_1":"越谷市","jp_add_2":"大泊"},"3430021":{"post_code":"3430021","prefecture":"SAITAMA KEN","city":"KOSHIGAYA SHI","town":"OBAYASHI","perfecture_jp":"埼玉県","jp_add_1":"越谷市","jp_add_2":"大林"},"3430027":{"post_code":"3430027","prefecture":"SAITAMA KEN","city":"KOSHIGAYA SHI","town":"OFUSA","perfecture_jp":"埼玉県","jp_add_1":"越谷市","jp_add_2":"大房"},"3430004":{"post_code":"3430004","prefecture":"SAITAMA KEN","city":"KOSHIGAYA SHI","town":"OMATSU","perfecture_jp":"埼玉県","jp_add_1":"越谷市","jp_add_2":"大松"},"3430844":{"post_code":"3430844","prefecture":"SAITAMA KEN","city":"KOSHIGAYA SHI","town":"OMANOCHO","perfecture_jp":"埼玉県","jp_add_1":"越谷市","jp_add_2":"大間野町"},"3430035":{"post_code":"3430035","prefecture":"SAITAMA KEN","city":"KOSHIGAYA SHI","town":"OMICHI","perfecture_jp":"埼玉県","jp_add_1":"越谷市","jp_add_2":"大道"},"3430008":{"post_code":"3430008","prefecture":"SAITAMA KEN","city":"KOSHIGAYA SHI","town":"OYOSHI","perfecture_jp":"埼玉県","jp_add_1":"越谷市","jp_add_2":"大吉"},"3430802":{"post_code":"3430802","prefecture":"SAITAMA KEN","city":"KOSHIGAYA SHI","town":"OSOGAWA","perfecture_jp":"埼玉県","jp_add_1":"越谷市","jp_add_2":"小曽川"},"3430033":{"post_code":"3430033","prefecture":"SAITAMA KEN","city":"KOSHIGAYA SHI","town":"OMMA","perfecture_jp":"埼玉県","jp_add_1":"越谷市","jp_add_2":"恩間"},"3430037":{"post_code":"3430037","prefecture":"SAITAMA KEN","city":"KOSHIGAYA SHI","town":"OMMASHINDEN","perfecture_jp":"埼玉県","jp_add_1":"越谷市","jp_add_2":"恩間新田"},"3430043":{"post_code":"3430043","prefecture":"SAITAMA KEN","city":"KOSHIGAYA SHI","town":"KAMIMAKURI","perfecture_jp":"埼玉県","jp_add_1":"越谷市","jp_add_2":"上間久里"},"3430838":{"post_code":"3430838","prefecture":"SAITAMA KEN","city":"KOSHIGAYA SHI","town":"GAMO","perfecture_jp":"埼玉県","jp_add_1":"越谷市","jp_add_2":"蒲生"},"3430843":{"post_code":"3430843","prefecture":"SAITAMA KEN","city":"KOSHIGAYA SHI","town":"GAMO AKANECHO","perfecture_jp":"埼玉県","jp_add_1":"越谷市","jp_add_2":"蒲生茜町"},"3430842":{"post_code":"3430842","prefecture":"SAITAMA KEN","city":"KOSHIGAYA SHI","town":"GAMO ASAHICHO","perfecture_jp":"埼玉県","jp_add_1":"越谷市","jp_add_2":"蒲生旭町"},"3430834":{"post_code":"3430834","prefecture":"SAITAMA KEN","city":"KOSHIGAYA SHI","town":"GAMO ATAGOCHO","perfecture_jp":"埼玉県","jp_add_1":"越谷市","jp_add_2":"蒲生愛宕町"},"3430836":{"post_code":"3430836","prefecture":"SAITAMA KEN","city":"KOSHIGAYA SHI","town":"GAMO KOTOBUKICHO","perfecture_jp":"埼玉県","jp_add_1":"越谷市","jp_add_2":"蒲生寿町"},"3430841":{"post_code":"3430841","prefecture":"SAITAMA KEN","city":"KOSHIGAYA SHI","town":"GAMO HIGASHICHO","perfecture_jp":"埼玉県","jp_add_1":"越谷市","jp_add_2":"蒲生東町"},"3430835":{"post_code":"3430835","prefecture":"SAITAMA KEN","city":"KOSHIGAYA SHI","town":"GAMO NISHIMACHI","perfecture_jp":"埼玉県","jp_add_1":"越谷市","jp_add_2":"蒲生西町"},"3430833":{"post_code":"3430833","prefecture":"SAITAMA KEN","city":"KOSHIGAYA SHI","town":"GAMO MINAMICHO","perfecture_jp":"埼玉県","jp_add_1":"越谷市","jp_add_2":"蒲生南町"},"3430837":{"post_code":"3430837","prefecture":"SAITAMA KEN","city":"KOSHIGAYA SHI","town":"GAMO HONCHO","perfecture_jp":"埼玉県","jp_add_1":"越谷市","jp_add_2":"蒲生本町"},"3430827":{"post_code":"3430827","prefecture":"SAITAMA KEN","city":"KOSHIGAYA SHI","town":"KAWAYANAGICHO","perfecture_jp":"埼玉県","jp_add_1":"越谷市","jp_add_2":"川柳町"},"3430821":{"post_code":"3430821","prefecture":"SAITAMA KEN","city":"KOSHIGAYA SHI","town":"KAWARAZONE","perfecture_jp":"埼玉県","jp_add_1":"越谷市","jp_add_2":"瓦曽根"},"3430854":{"post_code":"3430854","prefecture":"SAITAMA KEN","city":"KOSHIGAYA SHI","town":"KITAUSHIROYA","perfecture_jp":"埼玉県","jp_add_1":"越谷市","jp_add_2":"北後谷"},"3430006":{"post_code":"3430006","prefecture":"SAITAMA KEN","city":"KOSHIGAYA SHI","town":"KITAKAWASAKI","perfecture_jp":"埼玉県","jp_add_1":"越谷市","jp_add_2":"北川崎"},"3430026":{"post_code":"3430026","prefecture":"SAITAMA KEN","city":"KOSHIGAYA SHI","town":"KITAKOSHIGAYA","perfecture_jp":"埼玉県","jp_add_1":"越谷市","jp_add_2":"北越谷"},"3430024":{"post_code":"3430024","prefecture":"SAITAMA KEN","city":"KOSHIGAYA SHI","town":"KOSHIGAYA(BANCHI)","perfecture_jp":"埼玉県","jp_add_1":"越谷市","jp_add_2":"越ケ谷"},"3430813":{"post_code":"3430813","prefecture":"SAITAMA KEN","city":"KOSHIGAYA SHI","town":"KOSHIGAYA(CHOME)","perfecture_jp":"埼玉県","jp_add_1":"越谷市","jp_add_2":"越ケ谷"},"3430818":{"post_code":"3430818","prefecture":"SAITAMA KEN","city":"KOSHIGAYA SHI","town":"KOSHIGAYAHONCHO","perfecture_jp":"埼玉県","jp_add_1":"越谷市","jp_add_2":"越ケ谷本町"},"3430811":{"post_code":"3430811","prefecture":"SAITAMA KEN","city":"KOSHIGAYA SHI","town":"GOTENCHO","perfecture_jp":"埼玉県","jp_add_1":"越谷市","jp_add_2":"御殿町"},"3430823":{"post_code":"3430823","prefecture":"SAITAMA KEN","city":"KOSHIGAYA SHI","town":"SAGAMICHO","perfecture_jp":"埼玉県","jp_add_1":"越谷市","jp_add_2":"相模町"},"3430036":{"post_code":"3430036","prefecture":"SAITAMA KEN","city":"KOSHIGAYA SHI","town":"SANNOMIYA","perfecture_jp":"埼玉県","jp_add_1":"越谷市","jp_add_2":"三野宮"},"3430851":{"post_code":"3430851","prefecture":"SAITAMA KEN","city":"KOSHIGAYA SHI","town":"SHICHIZACHO","perfecture_jp":"埼玉県","jp_add_1":"越谷市","jp_add_2":"七左町"},"3430045":{"post_code":"3430045","prefecture":"SAITAMA KEN","city":"KOSHIGAYA SHI","town":"SHIMOMAKURI","perfecture_jp":"埼玉県","jp_add_1":"越谷市","jp_add_2":"下間久里"},"3430852":{"post_code":"3430852","prefecture":"SAITAMA KEN","city":"KOSHIGAYA SHI","town":"SHINKAWACHO","perfecture_jp":"埼玉県","jp_add_1":"越谷市","jp_add_2":"新川町"},"3430805":{"post_code":"3430805","prefecture":"SAITAMA KEN","city":"KOSHIGAYA SHI","town":"SHIMMEICHO","perfecture_jp":"埼玉県","jp_add_1":"越谷市","jp_add_2":"神明町"},"3430803":{"post_code":"3430803","prefecture":"SAITAMA KEN","city":"KOSHIGAYA SHI","town":"SUNAHARA","perfecture_jp":"埼玉県","jp_add_1":"越谷市","jp_add_2":"砂原"},"3430042":{"post_code":"3430042","prefecture":"SAITAMA KEN","city":"KOSHIGAYA SHI","town":"SENGENDAIHIGASHI","perfecture_jp":"埼玉県","jp_add_1":"越谷市","jp_add_2":"千間台東"},"3430041":{"post_code":"3430041","prefecture":"SAITAMA KEN","city":"KOSHIGAYA SHI","town":"SENGENDAINISHI","perfecture_jp":"埼玉県","jp_add_1":"越谷市","jp_add_2":"千間台西"},"3430825":{"post_code":"3430825","prefecture":"SAITAMA KEN","city":"KOSHIGAYA SHI","town":"TAISEICHO","perfecture_jp":"埼玉県","jp_add_1":"越谷市","jp_add_2":"大成町"},"3430013":{"post_code":"3430013","prefecture":"SAITAMA KEN","city":"KOSHIGAYA SHI","town":"NAKAJIMA","perfecture_jp":"埼玉県","jp_add_1":"越谷市","jp_add_2":"中島"},"3430817":{"post_code":"3430817","prefecture":"SAITAMA KEN","city":"KOSHIGAYA SHI","town":"NAKAMACHI","perfecture_jp":"埼玉県","jp_add_1":"越谷市","jp_add_2":"中町"},"3430853":{"post_code":"3430853","prefecture":"SAITAMA KEN","city":"KOSHIGAYA SHI","town":"NAGASHIMA","perfecture_jp":"埼玉県","jp_add_1":"越谷市","jp_add_2":"長島"},"3430855":{"post_code":"3430855","prefecture":"SAITAMA KEN","city":"KOSHIGAYA SHI","town":"NISHIARAI","perfecture_jp":"埼玉県","jp_add_1":"越谷市","jp_add_2":"西新井"},"3430822":{"post_code":"3430822","prefecture":"SAITAMA KEN","city":"KOSHIGAYA SHI","town":"NISHIKATA","perfecture_jp":"埼玉県","jp_add_1":"越谷市","jp_add_2":"西方"},"3430801":{"post_code":"3430801","prefecture":"SAITAMA KEN","city":"KOSHIGAYA SHI","town":"NOJIMA","perfecture_jp":"埼玉県","jp_add_1":"越谷市","jp_add_2":"野島"},"3430846":{"post_code":"3430846","prefecture":"SAITAMA KEN","city":"KOSHIGAYA SHI","town":"NOBORITOCHO","perfecture_jp":"埼玉県","jp_add_1":"越谷市","jp_add_2":"登戸町"},"3430015":{"post_code":"3430015","prefecture":"SAITAMA KEN","city":"KOSHIGAYA SHI","town":"HANATA","perfecture_jp":"埼玉県","jp_add_1":"越谷市","jp_add_2":"花田"},"3430022":{"post_code":"3430022","prefecture":"SAITAMA KEN","city":"KOSHIGAYA SHI","town":"HIGASHIOSAWA","perfecture_jp":"埼玉県","jp_add_1":"越谷市","jp_add_2":"東大沢"},"3430023":{"post_code":"3430023","prefecture":"SAITAMA KEN","city":"KOSHIGAYA SHI","town":"HIGASHIKOSHIGAYA","perfecture_jp":"埼玉県","jp_add_1":"越谷市","jp_add_2":"東越谷"},"3430814":{"post_code":"3430814","prefecture":"SAITAMA KEN","city":"KOSHIGAYA SHI","town":"HIGASHIYANAGIDACHO","perfecture_jp":"埼玉県","jp_add_1":"越谷市","jp_add_2":"東柳田町"},"3430002":{"post_code":"3430002","prefecture":"SAITAMA KEN","city":"KOSHIGAYA SHI","town":"HIRAKATA","perfecture_jp":"埼玉県","jp_add_1":"越谷市","jp_add_2":"平方"},"3430001":{"post_code":"3430001","prefecture":"SAITAMA KEN","city":"KOSHIGAYA SHI","town":"HIRAKATAMINAMICHO","perfecture_jp":"埼玉県","jp_add_1":"越谷市","jp_add_2":"平方南町"},"3430032":{"post_code":"3430032","prefecture":"SAITAMA KEN","city":"KOSHIGAYA SHI","town":"FUKUROYAMA","perfecture_jp":"埼玉県","jp_add_1":"越谷市","jp_add_2":"袋山"},"3430003":{"post_code":"3430003","prefecture":"SAITAMA KEN","city":"KOSHIGAYA SHI","town":"FUNATO","perfecture_jp":"埼玉県","jp_add_1":"越谷市","jp_add_2":"船渡"},"3430011":{"post_code":"3430011","prefecture":"SAITAMA KEN","city":"KOSHIGAYA SHI","town":"MASHIBAYASHI","perfecture_jp":"埼玉県","jp_add_1":"越谷市","jp_add_2":"増林"},"3430012":{"post_code":"3430012","prefecture":"SAITAMA KEN","city":"KOSHIGAYA SHI","town":"MASHIMORI","perfecture_jp":"埼玉県","jp_add_1":"越谷市","jp_add_2":"増森"},"3430804":{"post_code":"3430804","prefecture":"SAITAMA KEN","city":"KOSHIGAYA SHI","town":"MINAMIOGISHIMA","perfecture_jp":"埼玉県","jp_add_1":"越谷市","jp_add_2":"南荻島"},"3430845":{"post_code":"3430845","prefecture":"SAITAMA KEN","city":"KOSHIGAYA SHI","town":"MINAMIKOSHIGAYA","perfecture_jp":"埼玉県","jp_add_1":"越谷市","jp_add_2":"南越谷"},"3430832":{"post_code":"3430832","prefecture":"SAITAMA KEN","city":"KOSHIGAYA SHI","town":"MINAMICHO","perfecture_jp":"埼玉県","jp_add_1":"越谷市","jp_add_2":"南町"},"3430014":{"post_code":"3430014","prefecture":"SAITAMA KEN","city":"KOSHIGAYA SHI","town":"MIYAMAE","perfecture_jp":"埼玉県","jp_add_1":"越谷市","jp_add_2":"宮前"},"3430806":{"post_code":"3430806","prefecture":"SAITAMA KEN","city":"KOSHIGAYA SHI","town":"MIYAMOTOCHO","perfecture_jp":"埼玉県","jp_add_1":"越谷市","jp_add_2":"宮本町"},"3430007":{"post_code":"3430007","prefecture":"SAITAMA KEN","city":"KOSHIGAYA SHI","town":"MUKOBATAKE","perfecture_jp":"埼玉県","jp_add_1":"越谷市","jp_add_2":"向畑"},"3430815":{"post_code":"3430815","prefecture":"SAITAMA KEN","city":"KOSHIGAYA SHI","town":"MOTOYANAGIDACHO","perfecture_jp":"埼玉県","jp_add_1":"越谷市","jp_add_2":"元柳田町"},"3430046":{"post_code":"3430046","prefecture":"SAITAMA KEN","city":"KOSHIGAYA SHI","town":"YASAKACHO","perfecture_jp":"埼玉県","jp_add_1":"越谷市","jp_add_2":"弥栄町"},"3430047":{"post_code":"3430047","prefecture":"SAITAMA KEN","city":"KOSHIGAYA SHI","town":"YAJURO","perfecture_jp":"埼玉県","jp_add_1":"越谷市","jp_add_2":"弥十郎"},"3430856":{"post_code":"3430856","prefecture":"SAITAMA KEN","city":"KOSHIGAYA SHI","town":"YANAKACHO","perfecture_jp":"埼玉県","jp_add_1":"越谷市","jp_add_2":"谷中町"},"3430812":{"post_code":"3430812","prefecture":"SAITAMA KEN","city":"KOSHIGAYA SHI","town":"YANAGICHO","perfecture_jp":"埼玉県","jp_add_1":"越谷市","jp_add_2":"柳町"},"3430816":{"post_code":"3430816","prefecture":"SAITAMA KEN","city":"KOSHIGAYA SHI","town":"YAYOICHO","perfecture_jp":"埼玉県","jp_add_1":"越谷市","jp_add_2":"弥生町"},"3430824":{"post_code":"3430824","prefecture":"SAITAMA KEN","city":"KOSHIGAYA SHI","town":"RYUTSUDANCHI","perfecture_jp":"埼玉県","jp_add_1":"越谷市","jp_add_2":"流通団地"},"3430828":{"post_code":"3430828","prefecture":"SAITAMA KEN","city":"KOSHIGAYA SHI","town":"REIKUTAUN","perfecture_jp":"埼玉県","jp_add_1":"越谷市","jp_add_2":"レイクタウン"},"3430100":{"post_code":"3430100","prefecture":"SAITAMA KEN","city":"KITAKATSUSHIKA GUN MATSUBUSHI MACHI","town":"IKANIKEISAIGANAIBAAI","perfecture_jp":"埼玉県","jp_add_1":"北葛飾郡松伏町","jp_add_2":""},"3430101":{"post_code":"3430101","prefecture":"SAITAMA KEN","city":"KITAKATSUSHIKA GUN MATSUBUSHI MACHI","town":"UONUMA","perfecture_jp":"埼玉県","jp_add_1":"北葛飾郡松伏町","jp_add_2":"魚沼"},"3430106":{"post_code":"3430106","prefecture":"SAITAMA KEN","city":"KITAKATSUSHIKA GUN MATSUBUSHI MACHI","town":"OKAWADO","perfecture_jp":"埼玉県","jp_add_1":"北葛飾郡松伏町","jp_add_2":"大川戸"},"3430103":{"post_code":"3430103","prefecture":"SAITAMA KEN","city":"KITAKATSUSHIKA GUN MATSUBUSHI MACHI","town":"KANASUGI","perfecture_jp":"埼玉県","jp_add_1":"北葛飾郡松伏町","jp_add_2":"金杉"},"3430115":{"post_code":"3430115","prefecture":"SAITAMA KEN","city":"KITAKATSUSHIKA GUN MATSUBUSHI MACHI","town":"KAMIAKAIWA","perfecture_jp":"埼玉県","jp_add_1":"北葛飾郡松伏町","jp_add_2":"上赤岩"},"3430116":{"post_code":"3430116","prefecture":"SAITAMA KEN","city":"KITAKATSUSHIKA GUN MATSUBUSHI MACHI","town":"SHIMOAKAIWA","perfecture_jp":"埼玉県","jp_add_1":"北葛飾郡松伏町","jp_add_2":"下赤岩"},"3430105":{"post_code":"3430105","prefecture":"SAITAMA KEN","city":"KITAKATSUSHIKA GUN MATSUBUSHI MACHI","town":"TAJIMA","perfecture_jp":"埼玉県","jp_add_1":"北葛飾郡松伏町","jp_add_2":"田島"},"3430104":{"post_code":"3430104","prefecture":"SAITAMA KEN","city":"KITAKATSUSHIKA GUN MATSUBUSHI MACHI","town":"TAJIMAHIGASHI","perfecture_jp":"埼玉県","jp_add_1":"北葛飾郡松伏町","jp_add_2":"田島東"},"3430117":{"post_code":"3430117","prefecture":"SAITAMA KEN","city":"KITAKATSUSHIKA GUN MATSUBUSHI MACHI","town":"TANAKA","perfecture_jp":"埼玉県","jp_add_1":"北葛飾郡松伏町","jp_add_2":"田中"},"3430102":{"post_code":"3430102","prefecture":"SAITAMA KEN","city":"KITAKATSUSHIKA GUN MATSUBUSHI MACHI","town":"TSUKIHIJI","perfecture_jp":"埼玉県","jp_add_1":"北葛飾郡松伏町","jp_add_2":"築比地"},"3430112":{"post_code":"3430112","prefecture":"SAITAMA KEN","city":"KITAKATSUSHIKA GUN MATSUBUSHI MACHI","town":"MATSUBA","perfecture_jp":"埼玉県","jp_add_1":"北葛飾郡松伏町","jp_add_2":"松葉"},"3430111":{"post_code":"3430111","prefecture":"SAITAMA KEN","city":"KITAKATSUSHIKA GUN MATSUBUSHI MACHI","town":"MATSUBUSHI","perfecture_jp":"埼玉県","jp_add_1":"北葛飾郡松伏町","jp_add_2":"松伏"},"3430113":{"post_code":"3430113","prefecture":"SAITAMA KEN","city":"KITAKATSUSHIKA GUN MATSUBUSHI MACHI","town":"YUMEMINO","perfecture_jp":"埼玉県","jp_add_1":"北葛飾郡松伏町","jp_add_2":"ゆめみ野"},"3430114":{"post_code":"3430114","prefecture":"SAITAMA KEN","city":"KITAKATSUSHIKA GUN MATSUBUSHI MACHI","town":"YUMEMINOHIGASHI","perfecture_jp":"埼玉県","jp_add_1":"北葛飾郡松伏町","jp_add_2":"ゆめみ野東"}}