{"3440000":{"post_code":"3440000","prefecture":"SAITAMA KEN","city":"KASUKABE SHI","town":"IKANIKEISAIGANAIBAAI","perfecture_jp":"埼玉県","jp_add_1":"春日部市","jp_add_2":""},"3440126":{"post_code":"3440126","prefecture":"SAITAMA KEN","city":"KASUKABE SHI","town":"AKASAKI","perfecture_jp":"埼玉県","jp_add_1":"春日部市","jp_add_2":"赤崎"},"3440015":{"post_code":"3440015","prefecture":"SAITAMA KEN","city":"KASUKABE SHI","town":"AKANUMA","perfecture_jp":"埼玉県","jp_add_1":"春日部市","jp_add_2":"赤沼"},"3440125":{"post_code":"3440125","prefecture":"SAITAMA KEN","city":"KASUKABE SHI","town":"IINUMA","perfecture_jp":"埼玉県","jp_add_1":"春日部市","jp_add_2":"飯沼"},"3440031":{"post_code":"3440031","prefecture":"SAITAMA KEN","city":"KASUKABE SHI","town":"ICHINOWARI","perfecture_jp":"埼玉県","jp_add_1":"春日部市","jp_add_2":"一ノ割"},"3440004":{"post_code":"3440004","prefecture":"SAITAMA KEN","city":"KASUKABE SHI","town":"USHIJIMA","perfecture_jp":"埼玉県","jp_add_1":"春日部市","jp_add_2":"牛島"},"3440051":{"post_code":"3440051","prefecture":"SAITAMA KEN","city":"KASUKABE SHI","town":"UCHIMAKI","perfecture_jp":"埼玉県","jp_add_1":"春日部市","jp_add_2":"内牧"},"3440052":{"post_code":"3440052","prefecture":"SAITAMA KEN","city":"KASUKABE SHI","town":"UMEDA","perfecture_jp":"埼玉県","jp_add_1":"春日部市","jp_add_2":"梅田"},"3440053":{"post_code":"3440053","prefecture":"SAITAMA KEN","city":"KASUKABE SHI","town":"UMEDAHONCHO","perfecture_jp":"埼玉県","jp_add_1":"春日部市","jp_add_2":"梅田本町"},"3440135":{"post_code":"3440135","prefecture":"SAITAMA KEN","city":"KASUKABE SHI","town":"ENOKI","perfecture_jp":"埼玉県","jp_add_1":"春日部市","jp_add_2":"榎"},"3440023":{"post_code":"3440023","prefecture":"SAITAMA KEN","city":"KASUKABE SHI","town":"OEDA","perfecture_jp":"埼玉県","jp_add_1":"春日部市","jp_add_2":"大枝"},"3440038":{"post_code":"3440038","prefecture":"SAITAMA KEN","city":"KASUKABE SHI","town":"ONUMA","perfecture_jp":"埼玉県","jp_add_1":"春日部市","jp_add_2":"大沼"},"3440022":{"post_code":"3440022","prefecture":"SAITAMA KEN","city":"KASUKABE SHI","town":"OHATA","perfecture_jp":"埼玉県","jp_add_1":"春日部市","jp_add_2":"大畑"},"3440021":{"post_code":"3440021","prefecture":"SAITAMA KEN","city":"KASUKABE SHI","town":"OBA","perfecture_jp":"埼玉県","jp_add_1":"春日部市","jp_add_2":"大場"},"3440116":{"post_code":"3440116","prefecture":"SAITAMA KEN","city":"KASUKABE SHI","town":"OBUSUMA","perfecture_jp":"埼玉県","jp_add_1":"春日部市","jp_add_2":"大衾"},"3440061":{"post_code":"3440061","prefecture":"SAITAMA KEN","city":"KASUKABE SHI","town":"KASUKABE","perfecture_jp":"埼玉県","jp_add_1":"春日部市","jp_add_2":"粕壁"},"3440062":{"post_code":"3440062","prefecture":"SAITAMA KEN","city":"KASUKABE SHI","town":"KASUKABEHIGASHI","perfecture_jp":"埼玉県","jp_add_1":"春日部市","jp_add_2":"粕壁東"},"3440117":{"post_code":"3440117","prefecture":"SAITAMA KEN","city":"KASUKABE SHI","town":"KANASAKI","perfecture_jp":"埼玉県","jp_add_1":"春日部市","jp_add_2":"金崎"},"3440037":{"post_code":"3440037","prefecture":"SAITAMA KEN","city":"KASUKABE SHI","town":"KAMIOMASHISHINDEN","perfecture_jp":"埼玉県","jp_add_1":"春日部市","jp_add_2":"上大増新田"},"3440111":{"post_code":"3440111","prefecture":"SAITAMA KEN","city":"KASUKABE SHI","town":"KAMIKANASAKI","perfecture_jp":"埼玉県","jp_add_1":"春日部市","jp_add_2":"上金崎"},"3440103":{"post_code":"3440103","prefecture":"SAITAMA KEN","city":"KASUKABE SHI","town":"KAMIKITSUMA","perfecture_jp":"埼玉県","jp_add_1":"春日部市","jp_add_2":"上吉妻"},"3440046":{"post_code":"3440046","prefecture":"SAITAMA KEN","city":"KASUKABE SHI","town":"KAMIHIRUDA","perfecture_jp":"埼玉県","jp_add_1":"春日部市","jp_add_2":"上蛭田"},"3440121":{"post_code":"3440121","prefecture":"SAITAMA KEN","city":"KASUKABE SHI","town":"KAMIYANAGI","perfecture_jp":"埼玉県","jp_add_1":"春日部市","jp_add_2":"上柳"},"3440132":{"post_code":"3440132","prefecture":"SAITAMA KEN","city":"KASUKABE SHI","town":"KAMMA","perfecture_jp":"埼玉県","jp_add_1":"春日部市","jp_add_2":"神間"},"3440106":{"post_code":"3440106","prefecture":"SAITAMA KEN","city":"KASUKABE SHI","town":"KISAKI","perfecture_jp":"埼玉県","jp_add_1":"春日部市","jp_add_2":"木崎"},"3440133":{"post_code":"3440133","prefecture":"SAITAMA KEN","city":"KASUKABE SHI","town":"KUNUGI","perfecture_jp":"埼玉県","jp_add_1":"春日部市","jp_add_2":"椚"},"3440136":{"post_code":"3440136","prefecture":"SAITAMA KEN","city":"KASUKABE SHI","town":"KURATSUNE","perfecture_jp":"埼玉県","jp_add_1":"春日部市","jp_add_2":"倉常"},"3440105":{"post_code":"3440105","prefecture":"SAITAMA KEN","city":"KASUKABE SHI","town":"KODAIRA","perfecture_jp":"埼玉県","jp_add_1":"春日部市","jp_add_2":"小平"},"3440007":{"post_code":"3440007","prefecture":"SAITAMA KEN","city":"KASUKABE SHI","town":"KOBUCHI","perfecture_jp":"埼玉県","jp_add_1":"春日部市","jp_add_2":"小渕"},"3440124":{"post_code":"3440124","prefecture":"SAITAMA KEN","city":"KASUKABE SHI","town":"KOMESAKI","perfecture_jp":"埼玉県","jp_add_1":"春日部市","jp_add_2":"米崎"},"3440115":{"post_code":"3440115","prefecture":"SAITAMA KEN","city":"KASUKABE SHI","town":"KOMEJIMA","perfecture_jp":"埼玉県","jp_add_1":"春日部市","jp_add_2":"米島"},"3440058":{"post_code":"3440058","prefecture":"SAITAMA KEN","city":"KASUKABE SHI","town":"SAKAECHO","perfecture_jp":"埼玉県","jp_add_1":"春日部市","jp_add_2":"栄町"},"3440036":{"post_code":"3440036","prefecture":"SAITAMA KEN","city":"KASUKABE SHI","town":"SHIMOOMASHISHINDEN","perfecture_jp":"埼玉県","jp_add_1":"春日部市","jp_add_2":"下大増新田"},"3440104":{"post_code":"3440104","prefecture":"SAITAMA KEN","city":"KASUKABE SHI","town":"SHIMOKITSUMA","perfecture_jp":"埼玉県","jp_add_1":"春日部市","jp_add_2":"下吉妻"},"3440043":{"post_code":"3440043","prefecture":"SAITAMA KEN","city":"KASUKABE SHI","town":"SHIMOHIRUDA","perfecture_jp":"埼玉県","jp_add_1":"春日部市","jp_add_2":"下蛭田"},"3440122":{"post_code":"3440122","prefecture":"SAITAMA KEN","city":"KASUKABE SHI","town":"SHIMOYANAGI","perfecture_jp":"埼玉県","jp_add_1":"春日部市","jp_add_2":"下柳"},"3440003":{"post_code":"3440003","prefecture":"SAITAMA KEN","city":"KASUKABE SHI","town":"SHINKAWA","perfecture_jp":"埼玉県","jp_add_1":"春日部市","jp_add_2":"新川"},"3440113":{"post_code":"3440113","prefecture":"SAITAMA KEN","city":"KASUKABE SHI","town":"SHINSHUKUSHINDEN","perfecture_jp":"埼玉県","jp_add_1":"春日部市","jp_add_2":"新宿新田"},"3440127":{"post_code":"3440127","prefecture":"SAITAMA KEN","city":"KASUKABE SHI","town":"SUIKAKU","perfecture_jp":"埼玉県","jp_add_1":"春日部市","jp_add_2":"水角"},"3440034":{"post_code":"3440034","prefecture":"SAITAMA KEN","city":"KASUKABE SHI","town":"SUSUKIYA","perfecture_jp":"埼玉県","jp_add_1":"春日部市","jp_add_2":"薄谷"},"3440024":{"post_code":"3440024","prefecture":"SAITAMA KEN","city":"KASUKABE SHI","town":"SENGEN","perfecture_jp":"埼玉県","jp_add_1":"春日部市","jp_add_2":"千間"},"3440026":{"post_code":"3440026","prefecture":"SAITAMA KEN","city":"KASUKABE SHI","town":"TAKESATONAKANO","perfecture_jp":"埼玉県","jp_add_1":"春日部市","jp_add_2":"武里中野"},"3440134":{"post_code":"3440134","prefecture":"SAITAMA KEN","city":"KASUKABE SHI","town":"TATENO","perfecture_jp":"埼玉県","jp_add_1":"春日部市","jp_add_2":"立野"},"3440067":{"post_code":"3440067","prefecture":"SAITAMA KEN","city":"KASUKABE SHI","town":"CHUO","perfecture_jp":"埼玉県","jp_add_1":"春日部市","jp_add_2":"中央"},"3440013":{"post_code":"3440013","prefecture":"SAITAMA KEN","city":"KASUKABE SHI","town":"CHOSHIGUCHI","perfecture_jp":"埼玉県","jp_add_1":"春日部市","jp_add_2":"銚子口"},"3440107":{"post_code":"3440107","prefecture":"SAITAMA KEN","city":"KASUKABE SHI","town":"TSUKASAKI","perfecture_jp":"埼玉県","jp_add_1":"春日部市","jp_add_2":"塚崎"},"3440045":{"post_code":"3440045","prefecture":"SAITAMA KEN","city":"KASUKABE SHI","town":"DOGUCHIHIRUDA","perfecture_jp":"埼玉県","jp_add_1":"春日部市","jp_add_2":"道口蛭田"},"3440047":{"post_code":"3440047","prefecture":"SAITAMA KEN","city":"KASUKABE SHI","town":"DOJUNKAWADO","perfecture_jp":"埼玉県","jp_add_1":"春日部市","jp_add_2":"道順川戸"},"3440014":{"post_code":"3440014","prefecture":"SAITAMA KEN","city":"KASUKABE SHI","town":"TOYONOCHO","perfecture_jp":"埼玉県","jp_add_1":"春日部市","jp_add_2":"豊野町"},"3440123":{"post_code":"3440123","prefecture":"SAITAMA KEN","city":"KASUKABE SHI","town":"NAGANUMA","perfecture_jp":"埼玉県","jp_add_1":"春日部市","jp_add_2":"永沼"},"3440056":{"post_code":"3440056","prefecture":"SAITAMA KEN","city":"KASUKABE SHI","town":"NIIGATAFUKURO","perfecture_jp":"埼玉県","jp_add_1":"春日部市","jp_add_2":"新方袋"},"3440101":{"post_code":"3440101","prefecture":"SAITAMA KEN","city":"KASUKABE SHI","town":"NISHIOYANOI","perfecture_jp":"埼玉県","jp_add_1":"春日部市","jp_add_2":"西親野井"},"3440112":{"post_code":"3440112","prefecture":"SAITAMA KEN","city":"KASUKABE SHI","town":"NISHIKANANOI","perfecture_jp":"埼玉県","jp_add_1":"春日部市","jp_add_2":"西金野井"},"3440059":{"post_code":"3440059","prefecture":"SAITAMA KEN","city":"KASUKABE SHI","town":"NISHIYAGISAKI","perfecture_jp":"埼玉県","jp_add_1":"春日部市","jp_add_2":"西八木崎"},"3440102":{"post_code":"3440102","prefecture":"SAITAMA KEN","city":"KASUKABE SHI","town":"NISHIHOSHUBANA","perfecture_jp":"埼玉県","jp_add_1":"春日部市","jp_add_2":"西宝珠花"},"3440006":{"post_code":"3440006","prefecture":"SAITAMA KEN","city":"KASUKABE SHI","town":"HATCHOME","perfecture_jp":"埼玉県","jp_add_1":"春日部市","jp_add_2":"八丁目"},"3440044":{"post_code":"3440044","prefecture":"SAITAMA KEN","city":"KASUKABE SHI","town":"HANAZUMI","perfecture_jp":"埼玉県","jp_add_1":"春日部市","jp_add_2":"花積"},"3440054":{"post_code":"3440054","prefecture":"SAITAMA KEN","city":"KASUKABE SHI","town":"HAMAKAWADO","perfecture_jp":"埼玉県","jp_add_1":"春日部市","jp_add_2":"浜川戸"},"3440114":{"post_code":"3440114","prefecture":"SAITAMA KEN","city":"KASUKABE SHI","town":"HIGASHINAKANO","perfecture_jp":"埼玉県","jp_add_1":"春日部市","jp_add_2":"東中野"},"3440005":{"post_code":"3440005","prefecture":"SAITAMA KEN","city":"KASUKABE SHI","town":"HIBORI","perfecture_jp":"埼玉県","jp_add_1":"春日部市","jp_add_2":"樋堀"},"3440002":{"post_code":"3440002","prefecture":"SAITAMA KEN","city":"KASUKABE SHI","town":"HIRO","perfecture_jp":"埼玉県","jp_add_1":"春日部市","jp_add_2":"樋籠"},"3440032":{"post_code":"3440032","prefecture":"SAITAMA KEN","city":"KASUKABE SHI","town":"BINGOHIGASHI","perfecture_jp":"埼玉県","jp_add_1":"春日部市","jp_add_2":"備後東"},"3440033":{"post_code":"3440033","prefecture":"SAITAMA KEN","city":"KASUKABE SHI","town":"BINGONISHI","perfecture_jp":"埼玉県","jp_add_1":"春日部市","jp_add_2":"備後西"},"3440011":{"post_code":"3440011","prefecture":"SAITAMA KEN","city":"KASUKABE SHI","town":"FUJITSUKA","perfecture_jp":"埼玉県","jp_add_1":"春日部市","jp_add_2":"藤塚"},"3440001":{"post_code":"3440001","prefecture":"SAITAMA KEN","city":"KASUKABE SHI","town":"FUDOINNO","perfecture_jp":"埼玉県","jp_add_1":"春日部市","jp_add_2":"不動院野"},"3440016":{"post_code":"3440016","prefecture":"SAITAMA KEN","city":"KASUKABE SHI","town":"HONDENCHO","perfecture_jp":"埼玉県","jp_add_1":"春日部市","jp_add_2":"本田町"},"3440042":{"post_code":"3440042","prefecture":"SAITAMA KEN","city":"KASUKABE SHI","town":"MASHITO","perfecture_jp":"埼玉県","jp_add_1":"春日部市","jp_add_2":"増戸"},"3440041":{"post_code":"3440041","prefecture":"SAITAMA KEN","city":"KASUKABE SHI","town":"MASHITOMI","perfecture_jp":"埼玉県","jp_add_1":"春日部市","jp_add_2":"増富"},"3440025":{"post_code":"3440025","prefecture":"SAITAMA KEN","city":"KASUKABE SHI","town":"MASUDASHINDEN","perfecture_jp":"埼玉県","jp_add_1":"春日部市","jp_add_2":"増田新田"},"3440063":{"post_code":"3440063","prefecture":"SAITAMA KEN","city":"KASUKABE SHI","town":"MIDORICHO","perfecture_jp":"埼玉県","jp_add_1":"春日部市","jp_add_2":"緑町"},"3440064":{"post_code":"3440064","prefecture":"SAITAMA KEN","city":"KASUKABE SHI","town":"MINAMI","perfecture_jp":"埼玉県","jp_add_1":"春日部市","jp_add_2":"南"},"3440057":{"post_code":"3440057","prefecture":"SAITAMA KEN","city":"KASUKABE SHI","town":"MINAMISAKAECHO","perfecture_jp":"埼玉県","jp_add_1":"春日部市","jp_add_2":"南栄町"},"3440048":{"post_code":"3440048","prefecture":"SAITAMA KEN","city":"KASUKABE SHI","town":"MINAMINAKAZONE","perfecture_jp":"埼玉県","jp_add_1":"春日部市","jp_add_2":"南中曽根"},"3440055":{"post_code":"3440055","prefecture":"SAITAMA KEN","city":"KASUKABE SHI","town":"YAGISAKICHO","perfecture_jp":"埼玉県","jp_add_1":"春日部市","jp_add_2":"八木崎町"},"3440065":{"post_code":"3440065","prefecture":"SAITAMA KEN","city":"KASUKABE SHI","town":"YAHARA","perfecture_jp":"埼玉県","jp_add_1":"春日部市","jp_add_2":"谷原"},"3440035":{"post_code":"3440035","prefecture":"SAITAMA KEN","city":"KASUKABE SHI","town":"YAHARASHINDEN","perfecture_jp":"埼玉県","jp_add_1":"春日部市","jp_add_2":"谷原新田"},"3440066":{"post_code":"3440066","prefecture":"SAITAMA KEN","city":"KASUKABE SHI","town":"YUTAKACHO","perfecture_jp":"埼玉県","jp_add_1":"春日部市","jp_add_2":"豊町"},"3440131":{"post_code":"3440131","prefecture":"SAITAMA KEN","city":"KASUKABE SHI","town":"YOSHIHASHI","perfecture_jp":"埼玉県","jp_add_1":"春日部市","jp_add_2":"芦橋"},"3440012":{"post_code":"3440012","prefecture":"SAITAMA KEN","city":"KASUKABE SHI","town":"ROKKENCHO","perfecture_jp":"埼玉県","jp_add_1":"春日部市","jp_add_2":"六軒町"}}