{"3450000":{"post_code":"3450000","prefecture":"SAITAMA KEN","city":"KITAKATSUSHIKA GUN SUGITO MACHI","town":"IKANIKEISAIGANAIBAAI","perfecture_jp":"埼玉県","jp_add_1":"南埼玉郡宮代町","jp_add_2":""},"3450826":{"post_code":"3450826","prefecture":"SAITAMA KEN","city":"MINAMISAITAMA GUN MIYASHIRO MACHI","town":"GAKUENDAI","perfecture_jp":"埼玉県","jp_add_1":"南埼玉郡宮代町","jp_add_2":"学園台"},"3450822":{"post_code":"3450822","prefecture":"SAITAMA KEN","city":"MINAMISAITAMA GUN MIYASHIRO MACHI","town":"KASAHARA","perfecture_jp":"埼玉県","jp_add_1":"南埼玉郡宮代町","jp_add_2":"笠原"},"3450816":{"post_code":"3450816","prefecture":"SAITAMA KEN","city":"MINAMISAITAMA GUN MIYASHIRO MACHI","town":"KANEHARA","perfecture_jp":"埼玉県","jp_add_1":"南埼玉郡宮代町","jp_add_2":"金原"},"3450804":{"post_code":"3450804","prefecture":"SAITAMA KEN","city":"MINAMISAITAMA GUN MIYASHIRO MACHI","town":"KAWABATA","perfecture_jp":"埼玉県","jp_add_1":"南埼玉郡宮代町","jp_add_2":"川端"},"3450834":{"post_code":"3450834","prefecture":"SAITAMA KEN","city":"MINAMISAITAMA GUN MIYASHIRO MACHI","town":"KOKUNO","perfecture_jp":"埼玉県","jp_add_1":"南埼玉郡宮代町","jp_add_2":"国納"},"3450825":{"post_code":"3450825","prefecture":"SAITAMA KEN","city":"MINAMISAITAMA GUN MIYASHIRO MACHI","town":"SAKASAI","perfecture_jp":"埼玉県","jp_add_1":"南埼玉郡宮代町","jp_add_2":"逆井"},"3450831":{"post_code":"3450831","prefecture":"SAITAMA KEN","city":"MINAMISAITAMA GUN MIYASHIRO MACHI","town":"SUKA","perfecture_jp":"埼玉県","jp_add_1":"南埼玉郡宮代町","jp_add_2":"須賀"},"3450821":{"post_code":"3450821","prefecture":"SAITAMA KEN","city":"MINAMISAITAMA GUN MIYASHIRO MACHI","town":"CHUO","perfecture_jp":"埼玉県","jp_add_1":"南埼玉郡宮代町","jp_add_2":"中央"},"3450811":{"post_code":"3450811","prefecture":"SAITAMA KEN","city":"MINAMISAITAMA GUN MIYASHIRO MACHI","town":"DOBUTSU","perfecture_jp":"埼玉県","jp_add_1":"南埼玉郡宮代町","jp_add_2":"道佛"},"3450815":{"post_code":"3450815","prefecture":"SAITAMA KEN","city":"MINAMISAITAMA GUN MIYASHIRO MACHI","town":"NAKA","perfecture_jp":"埼玉県","jp_add_1":"南埼玉郡宮代町","jp_add_2":"中"},"3450802":{"post_code":"3450802","prefecture":"SAITAMA KEN","city":"MINAMISAITAMA GUN MIYASHIRO MACHI","town":"NAKAJIMA","perfecture_jp":"埼玉県","jp_add_1":"南埼玉郡宮代町","jp_add_2":"中島"},"3450833":{"post_code":"3450833","prefecture":"SAITAMA KEN","city":"MINAMISAITAMA GUN MIYASHIRO MACHI","town":"NISHIKUMEHARA","perfecture_jp":"埼玉県","jp_add_1":"南埼玉郡宮代町","jp_add_2":"西粂原"},"3450817":{"post_code":"3450817","prefecture":"SAITAMA KEN","city":"MINAMISAITAMA GUN MIYASHIRO MACHI","town":"NISHIBARA","perfecture_jp":"埼玉県","jp_add_1":"南埼玉郡宮代町","jp_add_2":"西原"},"3450814":{"post_code":"3450814","prefecture":"SAITAMA KEN","city":"MINAMISAITAMA GUN MIYASHIRO MACHI","town":"HIGASHI","perfecture_jp":"埼玉県","jp_add_1":"南埼玉郡宮代町","jp_add_2":"東"},"3450832":{"post_code":"3450832","prefecture":"SAITAMA KEN","city":"MINAMISAITAMA GUN MIYASHIRO MACHI","town":"HIGASHIKUMEHARA","perfecture_jp":"埼玉県","jp_add_1":"南埼玉郡宮代町","jp_add_2":"東粂原"},"3450813":{"post_code":"3450813","prefecture":"SAITAMA KEN","city":"MINAMISAITAMA GUN MIYASHIRO MACHI","town":"HIGASHIHIMEMIYA","perfecture_jp":"埼玉県","jp_add_1":"南埼玉郡宮代町","jp_add_2":"東姫宮"},"3450812":{"post_code":"3450812","prefecture":"SAITAMA KEN","city":"MINAMISAITAMA GUN MIYASHIRO MACHI","town":"HIMEMIYA","perfecture_jp":"埼玉県","jp_add_1":"南埼玉郡宮代町","jp_add_2":"姫宮"},"3450827":{"post_code":"3450827","prefecture":"SAITAMA KEN","city":"MINAMISAITAMA GUN MIYASHIRO MACHI","town":"HONDEN","perfecture_jp":"埼玉県","jp_add_1":"南埼玉郡宮代町","jp_add_2":"本田"},"3450823":{"post_code":"3450823","prefecture":"SAITAMA KEN","city":"MINAMISAITAMA GUN MIYASHIRO MACHI","town":"MIYASHIRO","perfecture_jp":"埼玉県","jp_add_1":"南埼玉郡宮代町","jp_add_2":"宮代"},"3450835":{"post_code":"3450835","prefecture":"SAITAMA KEN","city":"MINAMISAITAMA GUN MIYASHIRO MACHI","town":"MIYASHIRODAI","perfecture_jp":"埼玉県","jp_add_1":"南埼玉郡宮代町","jp_add_2":"宮代台"},"3450803":{"post_code":"3450803","prefecture":"SAITAMA KEN","city":"MINAMISAITAMA GUN MIYASHIRO MACHI","town":"MIYAHIGASHI","perfecture_jp":"埼玉県","jp_add_1":"南埼玉郡宮代町","jp_add_2":"宮東"},"3450801":{"post_code":"3450801","prefecture":"SAITAMA KEN","city":"MINAMISAITAMA GUN MIYASHIRO MACHI","town":"MOMMA","perfecture_jp":"埼玉県","jp_add_1":"南埼玉郡宮代町","jp_add_2":"百間"},"3450824":{"post_code":"3450824","prefecture":"SAITAMA KEN","city":"MINAMISAITAMA GUN MIYASHIRO MACHI","town":"YAMAZAKI","perfecture_jp":"埼玉県","jp_add_1":"南埼玉郡宮代町","jp_add_2":"山崎"},"3450836":{"post_code":"3450836","prefecture":"SAITAMA KEN","city":"MINAMISAITAMA GUN MIYASHIRO MACHI","town":"WADO","perfecture_jp":"埼玉県","jp_add_1":"南埼玉郡宮代町","jp_add_2":"和戸"},"3450035":{"post_code":"3450035","prefecture":"SAITAMA KEN","city":"KITAKATSUSHIKA GUN SUGITO MACHI","town":"UCHIDA","perfecture_jp":"埼玉県","jp_add_1":"北葛飾郡杉戸町","jp_add_2":"内田"},"3450042":{"post_code":"3450042","prefecture":"SAITAMA KEN","city":"KITAKATSUSHIKA GUN SUGITO MACHI","town":"OJIMA","perfecture_jp":"埼玉県","jp_add_1":"北葛飾郡杉戸町","jp_add_2":"大島"},"3450022":{"post_code":"3450022","prefecture":"SAITAMA KEN","city":"KITAKATSUSHIKA GUN SUGITO MACHI","town":"OTSUKA","perfecture_jp":"埼玉県","jp_add_1":"北葛飾郡杉戸町","jp_add_2":"大塚"},"3450021":{"post_code":"3450021","prefecture":"SAITAMA KEN","city":"KITAKATSUSHIKA GUN SUGITO MACHI","town":"KITAHASUNUMA","perfecture_jp":"埼玉県","jp_add_1":"北葛飾郡杉戸町","jp_add_2":"北蓮沼"},"3450001":{"post_code":"3450001","prefecture":"SAITAMA KEN","city":"KITAKATSUSHIKA GUN SUGITO MACHI","town":"KIZUCHI","perfecture_jp":"埼玉県","jp_add_1":"北葛飾郡杉戸町","jp_add_2":"木津内"},"3450003":{"post_code":"3450003","prefecture":"SAITAMA KEN","city":"KITAKATSUSHIKA GUN SUGITO MACHI","town":"KINOKAWA","perfecture_jp":"埼玉県","jp_add_1":"北葛飾郡杉戸町","jp_add_2":"木野川"},"3450034":{"post_code":"3450034","prefecture":"SAITAMA KEN","city":"KITAKATSUSHIKA GUN SUGITO MACHI","town":"KURAMATSU","perfecture_jp":"埼玉県","jp_add_1":"北葛飾郡杉戸町","jp_add_2":"倉松"},"3450014":{"post_code":"3450014","prefecture":"SAITAMA KEN","city":"KITAKATSUSHIKA GUN SUGITO MACHI","town":"SAIBA","perfecture_jp":"埼玉県","jp_add_1":"北葛飾郡杉戸町","jp_add_2":"才羽"},"3450033":{"post_code":"3450033","prefecture":"SAITAMA KEN","city":"KITAKATSUSHIKA GUN SUGITO MACHI","town":"SAZAEMON","perfecture_jp":"埼玉県","jp_add_1":"北葛飾郡杉戸町","jp_add_2":"佐左エ門"},"3450043":{"post_code":"3450043","prefecture":"SAITAMA KEN","city":"KITAKATSUSHIKA GUN SUGITO MACHI","town":"SHIMOTAKANO","perfecture_jp":"埼玉県","jp_add_1":"北葛飾郡杉戸町","jp_add_2":"下高野"},"3450044":{"post_code":"3450044","prefecture":"SAITAMA KEN","city":"KITAKATSUSHIKA GUN SUGITO MACHI","town":"SHIMONO","perfecture_jp":"埼玉県","jp_add_1":"北葛飾郡杉戸町","jp_add_2":"下野"},"3450036":{"post_code":"3450036","prefecture":"SAITAMA KEN","city":"KITAKATSUSHIKA GUN SUGITO MACHI","town":"SUGITO","perfecture_jp":"埼玉県","jp_add_1":"北葛飾郡杉戸町","jp_add_2":"杉戸"},"3450025":{"post_code":"3450025","prefecture":"SAITAMA KEN","city":"KITAKATSUSHIKA GUN SUGITO MACHI","town":"SEIJI","perfecture_jp":"埼玉県","jp_add_1":"北葛飾郡杉戸町","jp_add_2":"清地"},"3450047":{"post_code":"3450047","prefecture":"SAITAMA KEN","city":"KITAKATSUSHIKA GUN SUGITO MACHI","town":"TAKANODAIHIGASHI","perfecture_jp":"埼玉県","jp_add_1":"北葛飾郡杉戸町","jp_add_2":"高野台東"},"3450045":{"post_code":"3450045","prefecture":"SAITAMA KEN","city":"KITAKATSUSHIKA GUN SUGITO MACHI","town":"TAKANODAINISHI","perfecture_jp":"埼玉県","jp_add_1":"北葛飾郡杉戸町","jp_add_2":"高野台西"},"3450046":{"post_code":"3450046","prefecture":"SAITAMA KEN","city":"KITAKATSUSHIKA GUN SUGITO MACHI","town":"TAKANODAIMINAMI","perfecture_jp":"埼玉県","jp_add_1":"北葛飾郡杉戸町","jp_add_2":"高野台南"},"3450024":{"post_code":"3450024","prefecture":"SAITAMA KEN","city":"KITAKATSUSHIKA GUN SUGITO MACHI","town":"TSUTSUMINE","perfecture_jp":"埼玉県","jp_add_1":"北葛飾郡杉戸町","jp_add_2":"堤根"},"3450013":{"post_code":"3450013","prefecture":"SAITAMA KEN","city":"KITAKATSUSHIKA GUN SUGITO MACHI","town":"TSUBAKI","perfecture_jp":"埼玉県","jp_add_1":"北葛飾郡杉戸町","jp_add_2":"椿"},"3450031":{"post_code":"3450031","prefecture":"SAITAMA KEN","city":"KITAKATSUSHIKA GUN SUGITO MACHI","town":"TONO","perfecture_jp":"埼玉県","jp_add_1":"北葛飾郡杉戸町","jp_add_2":"遠野"},"3450015":{"post_code":"3450015","prefecture":"SAITAMA KEN","city":"KITAKATSUSHIKA GUN SUGITO MACHI","town":"NARABITSUKA","perfecture_jp":"埼玉県","jp_add_1":"北葛飾郡杉戸町","jp_add_2":"並塚"},"3450041":{"post_code":"3450041","prefecture":"SAITAMA KEN","city":"KITAKATSUSHIKA GUN SUGITO MACHI","town":"BARAJIMA","perfecture_jp":"埼玉県","jp_add_1":"北葛飾郡杉戸町","jp_add_2":"茨島"},"3450011":{"post_code":"3450011","prefecture":"SAITAMA KEN","city":"KITAKATSUSHIKA GUN SUGITO MACHI","town":"BYOBU","perfecture_jp":"埼玉県","jp_add_1":"北葛飾郡杉戸町","jp_add_2":"屏風"},"3450032":{"post_code":"3450032","prefecture":"SAITAMA KEN","city":"KITAKATSUSHIKA GUN SUGITO MACHI","town":"HIROTONUMA","perfecture_jp":"埼玉県","jp_add_1":"北葛飾郡杉戸町","jp_add_2":"広戸沼"},"3450012":{"post_code":"3450012","prefecture":"SAITAMA KEN","city":"KITAKATSUSHIKA GUN SUGITO MACHI","town":"FUKAWA","perfecture_jp":"埼玉県","jp_add_1":"北葛飾郡杉戸町","jp_add_2":"深輪"},"3450023":{"post_code":"3450023","prefecture":"SAITAMA KEN","city":"KITAKATSUSHIKA GUN SUGITO MACHI","town":"HONGO","perfecture_jp":"埼玉県","jp_add_1":"北葛飾郡杉戸町","jp_add_2":"本郷"},"3450004":{"post_code":"3450004","prefecture":"SAITAMA KEN","city":"KITAKATSUSHIKA GUN SUGITO MACHI","town":"MIYAMAE","perfecture_jp":"埼玉県","jp_add_1":"北葛飾郡杉戸町","jp_add_2":"宮前"},"3450005":{"post_code":"3450005","prefecture":"SAITAMA KEN","city":"KITAKATSUSHIKA GUN SUGITO MACHI","town":"MENUMA","perfecture_jp":"埼玉県","jp_add_1":"北葛飾郡杉戸町","jp_add_2":"目沼"},"3450037":{"post_code":"3450037","prefecture":"SAITAMA KEN","city":"KITAKATSUSHIKA GUN SUGITO MACHI","town":"MOTOJIMA","perfecture_jp":"埼玉県","jp_add_1":"北葛飾郡杉戸町","jp_add_2":"本島"},"3450002":{"post_code":"3450002","prefecture":"SAITAMA KEN","city":"KITAKATSUSHIKA GUN SUGITO MACHI","town":"WASHINOSU","perfecture_jp":"埼玉県","jp_add_1":"北葛飾郡杉戸町","jp_add_2":"鷲巣"}}