{"3501100":{"post_code":"3501100","prefecture":"SAITAMA KEN","city":"KAWAGOE SHI","town":"IKANIKEISAIGANAIBAAI","perfecture_jp":"埼玉県","jp_add_1":"川越市","jp_add_2":""},"3501173":{"post_code":"3501173","prefecture":"SAITAMA KEN","city":"KAWAGOE SHI","town":"AINASHINDEN","perfecture_jp":"埼玉県","jp_add_1":"川越市","jp_add_2":"安比奈新田"},"3501164":{"post_code":"3501164","prefecture":"SAITAMA KEN","city":"KAWAGOE SHI","town":"AOYAGI","perfecture_jp":"埼玉県","jp_add_1":"川越市","jp_add_2":"青柳"},"3501126":{"post_code":"3501126","prefecture":"SAITAMA KEN","city":"KAWAGOE SHI","town":"ASAHICHO","perfecture_jp":"埼玉県","jp_add_1":"川越市","jp_add_2":"旭町"},"3500806":{"post_code":"3500806","prefecture":"SAITAMA KEN","city":"KAWAGOE SHI","town":"AMANUMASHINDEN","perfecture_jp":"埼玉県","jp_add_1":"川越市","jp_add_2":"天沼新田"},"3501125":{"post_code":"3501125","prefecture":"SAITAMA KEN","city":"KAWAGOE SHI","town":"ARAJUKU","perfecture_jp":"埼玉県","jp_add_1":"川越市","jp_add_2":"新宿"},"3501124":{"post_code":"3501124","prefecture":"SAITAMA KEN","city":"KAWAGOE SHI","town":"ARAJUKUMACHI","perfecture_jp":"埼玉県","jp_add_1":"川越市","jp_add_2":"新宿町"},"3501171":{"post_code":"3501171","prefecture":"SAITAMA KEN","city":"KAWAGOE SHI","town":"IKENOBE","perfecture_jp":"埼玉県","jp_add_1":"川越市","jp_add_2":"池辺"},"3500855":{"post_code":"3500855","prefecture":"SAITAMA KEN","city":"KAWAGOE SHI","town":"ISANUMA","perfecture_jp":"埼玉県","jp_add_1":"川越市","jp_add_2":"伊佐沼"},"3500837":{"post_code":"3500837","prefecture":"SAITAMA KEN","city":"KAWAGOE SHI","town":"ISHIDA","perfecture_jp":"埼玉県","jp_add_1":"川越市","jp_add_2":"石田"},"3500835":{"post_code":"3500835","prefecture":"SAITAMA KEN","city":"KAWAGOE SHI","town":"ISHIDAHONGO","perfecture_jp":"埼玉県","jp_add_1":"川越市","jp_add_2":"石田本郷"},"3500824":{"post_code":"3500824","prefecture":"SAITAMA KEN","city":"KAWAGOE SHI","town":"ISHIWARAMACHI","perfecture_jp":"埼玉県","jp_add_1":"川越市","jp_add_2":"石原町"},"3500026":{"post_code":"3500026","prefecture":"SAITAMA KEN","city":"KAWAGOE SHI","town":"IZUMICHO","perfecture_jp":"埼玉県","jp_add_1":"川越市","jp_add_2":"泉町"},"3501108":{"post_code":"3501108","prefecture":"SAITAMA KEN","city":"KAWAGOE SHI","town":"ISEHARACHO","perfecture_jp":"埼玉県","jp_add_1":"川越市","jp_add_2":"伊勢原町"},"3501144":{"post_code":"3501144","prefecture":"SAITAMA KEN","city":"KAWAGOE SHI","town":"INARICHO","perfecture_jp":"埼玉県","jp_add_1":"川越市","jp_add_2":"稲荷町"},"3500015":{"post_code":"3500015","prefecture":"SAITAMA KEN","city":"KAWAGOE SHI","town":"IMAIZUMI","perfecture_jp":"埼玉県","jp_add_1":"川越市","jp_add_2":"今泉"},"3501105":{"post_code":"3501105","prefecture":"SAITAMA KEN","city":"KAWAGOE SHI","town":"IMANARI","perfecture_jp":"埼玉県","jp_add_1":"川越市","jp_add_2":"今成"},"3501151":{"post_code":"3501151","prefecture":"SAITAMA KEN","city":"KAWAGOE SHI","town":"IMAFUKU","perfecture_jp":"埼玉県","jp_add_1":"川越市","jp_add_2":"今福"},"3500017":{"post_code":"3500017","prefecture":"SAITAMA KEN","city":"KAWAGOE SHI","town":"USHIKO","perfecture_jp":"埼玉県","jp_add_1":"川越市","jp_add_2":"牛子"},"3500816":{"post_code":"3500816","prefecture":"SAITAMA KEN","city":"KAWAGOE SHI","town":"UWADO","perfecture_jp":"埼玉県","jp_add_1":"川越市","jp_add_2":"上戸"},"3500817":{"post_code":"3500817","prefecture":"SAITAMA KEN","city":"KAWAGOE SHI","town":"UWADOSHIMMACHI","perfecture_jp":"埼玉県","jp_add_1":"川越市","jp_add_2":"上戸新町"},"3501134":{"post_code":"3501134","prefecture":"SAITAMA KEN","city":"KAWAGOE SHI","town":"OGIGASHI","perfecture_jp":"埼玉県","jp_add_1":"川越市","jp_add_2":"扇河岸"},"3500032":{"post_code":"3500032","prefecture":"SAITAMA KEN","city":"KAWAGOE SHI","town":"OSEMBA","perfecture_jp":"埼玉県","jp_add_1":"川越市","jp_add_2":"大仙波"},"3501128":{"post_code":"3501128","prefecture":"SAITAMA KEN","city":"KAWAGOE SHI","town":"OSEMBASHINDEN","perfecture_jp":"埼玉県","jp_add_1":"川越市","jp_add_2":"大仙波新田"},"3501129":{"post_code":"3501129","prefecture":"SAITAMA KEN","city":"KAWAGOE SHI","town":"OTSUKA","perfecture_jp":"埼玉県","jp_add_1":"川越市","jp_add_2":"大塚"},"3501161":{"post_code":"3501161","prefecture":"SAITAMA KEN","city":"KAWAGOE SHI","town":"OTSUKASHINDEN","perfecture_jp":"埼玉県","jp_add_1":"川越市","jp_add_2":"大塚新田"},"3501178":{"post_code":"3501178","prefecture":"SAITAMA KEN","city":"KAWAGOE SHI","town":"OTSUKASHIMMACHI","perfecture_jp":"埼玉県","jp_add_1":"川越市","jp_add_2":"大塚新町"},"3500057":{"post_code":"3500057","prefecture":"SAITAMA KEN","city":"KAWAGOE SHI","town":"OTEMACHI","perfecture_jp":"埼玉県","jp_add_1":"川越市","jp_add_2":"大手町"},"3500021":{"post_code":"3500021","prefecture":"SAITAMA KEN","city":"KAWAGOE SHI","town":"ONAKAI","perfecture_jp":"埼玉県","jp_add_1":"川越市","jp_add_2":"大中居"},"3501168":{"post_code":"3501168","prefecture":"SAITAMA KEN","city":"KAWAGOE SHI","town":"OFUKURO","perfecture_jp":"埼玉県","jp_add_1":"川越市","jp_add_2":"大袋"},"3501167":{"post_code":"3501167","prefecture":"SAITAMA KEN","city":"KAWAGOE SHI","town":"OFUKUROSHINDEN","perfecture_jp":"埼玉県","jp_add_1":"川越市","jp_add_2":"大袋新田"},"3501104":{"post_code":"3501104","prefecture":"SAITAMA KEN","city":"KAWAGOE SHI","town":"OGAYA","perfecture_jp":"埼玉県","jp_add_1":"川越市","jp_add_2":"小ケ谷"},"3500841":{"post_code":"3500841","prefecture":"SAITAMA KEN","city":"KAWAGOE SHI","town":"ONARICHO","perfecture_jp":"埼玉県","jp_add_1":"川越市","jp_add_2":"御成町"},"3500012":{"post_code":"3500012","prefecture":"SAITAMA KEN","city":"KAWAGOE SHI","town":"KAINUMA","perfecture_jp":"埼玉県","jp_add_1":"川越市","jp_add_2":"萱沼"},"3501175":{"post_code":"3501175","prefecture":"SAITAMA KEN","city":"KAWAGOE SHI","town":"KASAHATA","perfecture_jp":"埼玉県","jp_add_1":"川越市","jp_add_2":"笠幡"},"3501179":{"post_code":"3501179","prefecture":"SAITAMA KEN","city":"KAWAGOE SHI","town":"KASHINODAI","perfecture_jp":"埼玉県","jp_add_1":"川越市","jp_add_2":"かし野台"},"3501103":{"post_code":"3501103","prefecture":"SAITAMA KEN","city":"KAWAGOE SHI","town":"KASUMIGASEKI HIGASHI","perfecture_jp":"埼玉県","jp_add_1":"川越市","jp_add_2":"霞ケ関東"},"3501109":{"post_code":"3501109","prefecture":"SAITAMA KEN","city":"KAWAGOE SHI","town":"KASUMIGASEKI KITA","perfecture_jp":"埼玉県","jp_add_1":"川越市","jp_add_2":"霞ケ関北"},"3501174":{"post_code":"3501174","prefecture":"SAITAMA KEN","city":"KAWAGOE SHI","town":"KASUMINO","perfecture_jp":"埼玉県","jp_add_1":"川越市","jp_add_2":"かすみ野"},"3500845":{"post_code":"3500845","prefecture":"SAITAMA KEN","city":"KAWAGOE SHI","town":"KAMIOIBUKURO","perfecture_jp":"埼玉県","jp_add_1":"川越市","jp_add_2":"上老袋"},"3501135":{"post_code":"3501135","prefecture":"SAITAMA KEN","city":"KAWAGOE SHI","town":"KAMISHINGASHI","perfecture_jp":"埼玉県","jp_add_1":"川越市","jp_add_2":"上新河岸"},"3500826":{"post_code":"3500826","prefecture":"SAITAMA KEN","city":"KAWAGOE SHI","town":"KAMITERAYAMA","perfecture_jp":"埼玉県","jp_add_1":"川越市","jp_add_2":"上寺山"},"3501112":{"post_code":"3501112","prefecture":"SAITAMA KEN","city":"KAWAGOE SHI","town":"KAMINODAMACHI","perfecture_jp":"埼玉県","jp_add_1":"川越市","jp_add_2":"上野田町"},"3501154":{"post_code":"3501154","prefecture":"SAITAMA KEN","city":"KAWAGOE SHI","town":"KAMIMATSUBARA","perfecture_jp":"埼玉県","jp_add_1":"川越市","jp_add_2":"上松原"},"3500844":{"post_code":"3500844","prefecture":"SAITAMA KEN","city":"KAWAGOE SHI","town":"KAMODA","perfecture_jp":"埼玉県","jp_add_1":"川越市","jp_add_2":"鴨田"},"3500852":{"post_code":"3500852","prefecture":"SAITAMA KEN","city":"KAWAGOE SHI","town":"KAWAGOE","perfecture_jp":"埼玉県","jp_add_1":"川越市","jp_add_2":"川越"},"3501176":{"post_code":"3501176","prefecture":"SAITAMA KEN","city":"KAWAGOE SHI","town":"KAWATSURU","perfecture_jp":"埼玉県","jp_add_1":"川越市","jp_add_2":"川鶴"},"3501177":{"post_code":"3501177","prefecture":"SAITAMA KEN","city":"KAWAGOE SHI","town":"KAWATSURUMIYOSHINO","perfecture_jp":"埼玉県","jp_add_1":"川越市","jp_add_2":"かわつる三芳野"},"3501132":{"post_code":"3501132","prefecture":"SAITAMA KEN","city":"KAWAGOE SHI","town":"KISHI","perfecture_jp":"埼玉県","jp_add_1":"川越市","jp_add_2":"岸"},"3501131":{"post_code":"3501131","prefecture":"SAITAMA KEN","city":"KAWAGOE SHI","town":"KISHIMACHI","perfecture_jp":"埼玉県","jp_add_1":"川越市","jp_add_2":"岸町"},"3500842":{"post_code":"3500842","prefecture":"SAITAMA KEN","city":"KAWAGOE SHI","town":"KITATAJIMA","perfecture_jp":"埼玉県","jp_add_1":"川越市","jp_add_2":"北田島"},"3500061":{"post_code":"3500061","prefecture":"SAITAMA KEN","city":"KAWAGOE SHI","town":"KITAMACHI","perfecture_jp":"埼玉県","jp_add_1":"川越市","jp_add_2":"喜多町"},"3500016":{"post_code":"3500016","prefecture":"SAITAMA KEN","city":"KAWAGOE SHI","town":"KINOME","perfecture_jp":"埼玉県","jp_add_1":"川越市","jp_add_2":"木野目"},"3500011":{"post_code":"3500011","prefecture":"SAITAMA KEN","city":"KAWAGOE SHI","town":"KUGEDO","perfecture_jp":"埼玉県","jp_add_1":"川越市","jp_add_2":"久下戸"},"3500815":{"post_code":"3500815","prefecture":"SAITAMA KEN","city":"KAWAGOE SHI","town":"KUJIRAI","perfecture_jp":"埼玉県","jp_add_1":"川越市","jp_add_2":"鯨井"},"3500809":{"post_code":"3500809","prefecture":"SAITAMA KEN","city":"KAWAGOE SHI","town":"KUJIRAISHINDEN","perfecture_jp":"埼玉県","jp_add_1":"川越市","jp_add_2":"鯨井新田"},"3500055":{"post_code":"3500055","prefecture":"SAITAMA KEN","city":"KAWAGOE SHI","town":"KUBOMACHI","perfecture_jp":"埼玉県","jp_add_1":"川越市","jp_add_2":"久保町"},"3501146":{"post_code":"3501146","prefecture":"SAITAMA KEN","city":"KAWAGOE SHI","town":"KUMANOCHO","perfecture_jp":"埼玉県","jp_add_1":"川越市","jp_add_2":"熊野町"},"3500053":{"post_code":"3500053","prefecture":"SAITAMA KEN","city":"KAWAGOE SHI","town":"KURUWAMACHI","perfecture_jp":"埼玉県","jp_add_1":"川越市","jp_add_2":"郭町"},"3501117":{"post_code":"3501117","prefecture":"SAITAMA KEN","city":"KAWAGOE SHI","town":"KOEICHO","perfecture_jp":"埼玉県","jp_add_1":"川越市","jp_add_2":"広栄町"},"3500031":{"post_code":"3500031","prefecture":"SAITAMA KEN","city":"KAWAGOE SHI","town":"KOSEMBA","perfecture_jp":"埼玉県","jp_add_1":"川越市","jp_add_2":"小仙波"},"3500036":{"post_code":"3500036","prefecture":"SAITAMA KEN","city":"KAWAGOE SHI","town":"KOSEMBAMACHI","perfecture_jp":"埼玉県","jp_add_1":"川越市","jp_add_2":"小仙波町"},"3500811":{"post_code":"3500811","prefecture":"SAITAMA KEN","city":"KAWAGOE SHI","town":"KOZUTSUMI","perfecture_jp":"埼玉県","jp_add_1":"川越市","jp_add_2":"小堤"},"3501116":{"post_code":"3501116","prefecture":"SAITAMA KEN","city":"KAWAGOE SHI","town":"KOTOBUKICHO","perfecture_jp":"埼玉県","jp_add_1":"川越市","jp_add_2":"寿町"},"3500022":{"post_code":"3500022","prefecture":"SAITAMA KEN","city":"KAWAGOE SHI","town":"KONAKAI","perfecture_jp":"埼玉県","jp_add_1":"川越市","jp_add_2":"小中居"},"3501106":{"post_code":"3501106","prefecture":"SAITAMA KEN","city":"KAWAGOE SHI","town":"KOMURO","perfecture_jp":"埼玉県","jp_add_1":"川越市","jp_add_2":"小室"},"3500063":{"post_code":"3500063","prefecture":"SAITAMA KEN","city":"KAWAGOE SHI","town":"SAIWAICHO","perfecture_jp":"埼玉県","jp_add_1":"川越市","jp_add_2":"幸町"},"3500803":{"post_code":"3500803","prefecture":"SAITAMA KEN","city":"KAWAGOE SHI","town":"SAKAE","perfecture_jp":"埼玉県","jp_add_1":"川越市","jp_add_2":"栄"},"3500054":{"post_code":"3500054","prefecture":"SAITAMA KEN","city":"KAWAGOE SHI","town":"SANKUBOCHO","perfecture_jp":"埼玉県","jp_add_1":"川越市","jp_add_2":"三久保町"},"3500067":{"post_code":"3500067","prefecture":"SAITAMA KEN","city":"KAWAGOE SHI","town":"SANKOCHO","perfecture_jp":"埼玉県","jp_add_1":"川越市","jp_add_2":"三光町"},"3500834":{"post_code":"3500834","prefecture":"SAITAMA KEN","city":"KAWAGOE SHI","town":"SHISHIKAI","perfecture_jp":"埼玉県","jp_add_1":"川越市","jp_add_2":"鹿飼"},"3500051":{"post_code":"3500051","prefecture":"SAITAMA KEN","city":"KAWAGOE SHI","town":"SHITAMACHI","perfecture_jp":"埼玉県","jp_add_1":"川越市","jp_add_2":"志多町"},"3500013":{"post_code":"3500013","prefecture":"SAITAMA KEN","city":"KAWAGOE SHI","town":"SHIBUI","perfecture_jp":"埼玉県","jp_add_1":"川越市","jp_add_2":"渋井"},"3501145":{"post_code":"3501145","prefecture":"SAITAMA KEN","city":"KAWAGOE SHI","town":"SHIMIZUCHO","perfecture_jp":"埼玉県","jp_add_1":"川越市","jp_add_2":"清水町"},"3501155":{"post_code":"3501155","prefecture":"SAITAMA KEN","city":"KAWAGOE SHI","town":"SHIMOAKASAKA","perfecture_jp":"埼玉県","jp_add_1":"川越市","jp_add_2":"下赤坂"},"3500848":{"post_code":"3500848","prefecture":"SAITAMA KEN","city":"KAWAGOE SHI","town":"SHIMOIBUKURO","perfecture_jp":"埼玉県","jp_add_1":"川越市","jp_add_2":"下老袋"},"3500812":{"post_code":"3500812","prefecture":"SAITAMA KEN","city":"KAWAGOE SHI","town":"SHIMOSAKA","perfecture_jp":"埼玉県","jp_add_1":"川越市","jp_add_2":"下小坂"},"3501136":{"post_code":"3501136","prefecture":"SAITAMA KEN","city":"KAWAGOE SHI","town":"SHIMOSHINGASHI","perfecture_jp":"埼玉県","jp_add_1":"川越市","jp_add_2":"下新河岸"},"3500804":{"post_code":"3500804","prefecture":"SAITAMA KEN","city":"KAWAGOE SHI","town":"SHIMOHIROYA","perfecture_jp":"埼玉県","jp_add_1":"川越市","jp_add_2":"下広谷"},"3501153":{"post_code":"3501153","prefecture":"SAITAMA KEN","city":"KAWAGOE SHI","town":"SHIMOMATSUBARA","perfecture_jp":"埼玉県","jp_add_1":"川越市","jp_add_2":"下松原"},"3500853":{"post_code":"3500853","prefecture":"SAITAMA KEN","city":"KAWAGOE SHI","town":"SHIROSHITAMACHI","perfecture_jp":"埼玉県","jp_add_1":"川越市","jp_add_2":"城下町"},"3500043":{"post_code":"3500043","prefecture":"SAITAMA KEN","city":"KAWAGOE SHI","town":"SHINTOMICHO","perfecture_jp":"埼玉県","jp_add_1":"川越市","jp_add_2":"新富町"},"3500823":{"post_code":"3500823","prefecture":"SAITAMA KEN","city":"KAWAGOE SHI","town":"SHIMMEICHO","perfecture_jp":"埼玉県","jp_add_1":"川越市","jp_add_2":"神明町"},"3500064":{"post_code":"3500064","prefecture":"SAITAMA KEN","city":"KAWAGOE SHI","town":"SUEHIROCHO","perfecture_jp":"埼玉県","jp_add_1":"川越市","jp_add_2":"末広町"},"3500832":{"post_code":"3500832","prefecture":"SAITAMA KEN","city":"KAWAGOE SHI","town":"SUGAMA","perfecture_jp":"埼玉県","jp_add_1":"川越市","jp_add_2":"菅間"},"3500046":{"post_code":"3500046","prefecture":"SAITAMA KEN","city":"KAWAGOE SHI","town":"SUGAWARAMACHI","perfecture_jp":"埼玉県","jp_add_1":"川越市","jp_add_2":"菅原町"},"3501133":{"post_code":"3501133","prefecture":"SAITAMA KEN","city":"KAWAGOE SHI","town":"SUNA","perfecture_jp":"埼玉県","jp_add_1":"川越市","jp_add_2":"砂"},"3501152":{"post_code":"3501152","prefecture":"SAITAMA KEN","city":"KAWAGOE SHI","town":"SUNAKUBO","perfecture_jp":"埼玉県","jp_add_1":"川越市","jp_add_2":"砂久保"},"3501137":{"post_code":"3501137","prefecture":"SAITAMA KEN","city":"KAWAGOE SHI","town":"SUNASHINDEN","perfecture_jp":"埼玉県","jp_add_1":"川越市","jp_add_2":"砂新田"},"3501147":{"post_code":"3501147","prefecture":"SAITAMA KEN","city":"KAWAGOE SHI","town":"SUWACHO","perfecture_jp":"埼玉県","jp_add_1":"川越市","jp_add_2":"諏訪町"},"3500034":{"post_code":"3500034","prefecture":"SAITAMA KEN","city":"KAWAGOE SHI","town":"SEMBAMACHI","perfecture_jp":"埼玉県","jp_add_1":"川越市","jp_add_2":"仙波町"},"3500004":{"post_code":"3500004","prefecture":"SAITAMA KEN","city":"KAWAGOE SHI","town":"TAKASHIMA","perfecture_jp":"埼玉県","jp_add_1":"川越市","jp_add_2":"高島"},"3500801":{"post_code":"3500801","prefecture":"SAITAMA KEN","city":"KAWAGOE SHI","town":"TAKENO","perfecture_jp":"埼玉県","jp_add_1":"川越市","jp_add_2":"竹野"},"3501113":{"post_code":"3501113","prefecture":"SAITAMA KEN","city":"KAWAGOE SHI","town":"TAMACHI","perfecture_jp":"埼玉県","jp_add_1":"川越市","jp_add_2":"田町"},"3500825":{"post_code":"3500825","prefecture":"SAITAMA KEN","city":"KAWAGOE SHI","town":"TSUKIYOSHIMACHI","perfecture_jp":"埼玉県","jp_add_1":"川越市","jp_add_2":"月吉町"},"3500854":{"post_code":"3500854","prefecture":"SAITAMA KEN","city":"KAWAGOE SHI","town":"TERAI","perfecture_jp":"埼玉県","jp_add_1":"川越市","jp_add_2":"寺井"},"3501141":{"post_code":"3501141","prefecture":"SAITAMA KEN","city":"KAWAGOE SHI","town":"TERAO","perfecture_jp":"埼玉県","jp_add_1":"川越市","jp_add_2":"寺尾"},"3500827":{"post_code":"3500827","prefecture":"SAITAMA KEN","city":"KAWAGOE SHI","town":"TERAYAMA","perfecture_jp":"埼玉県","jp_add_1":"川越市","jp_add_2":"寺山"},"3500843":{"post_code":"3500843","prefecture":"SAITAMA KEN","city":"KAWAGOE SHI","town":"TOMYOJI","perfecture_jp":"埼玉県","jp_add_1":"川越市","jp_add_2":"東明寺"},"3500044":{"post_code":"3500044","prefecture":"SAITAMA KEN","city":"KAWAGOE SHI","town":"TORIMACHI","perfecture_jp":"埼玉県","jp_add_1":"川越市","jp_add_2":"通町"},"3501119":{"post_code":"3501119","prefecture":"SAITAMA KEN","city":"KAWAGOE SHI","town":"TOYODASHINDEN","perfecture_jp":"埼玉県","jp_add_1":"川越市","jp_add_2":"豊田新田"},"3501110":{"post_code":"3501110","prefecture":"SAITAMA KEN","city":"KAWAGOE SHI","town":"TOYODACHO","perfecture_jp":"埼玉県","jp_add_1":"川越市","jp_add_2":"豊田町"},"3501118":{"post_code":"3501118","prefecture":"SAITAMA KEN","city":"KAWAGOE SHI","town":"TOYODAHON","perfecture_jp":"埼玉県","jp_add_1":"川越市","jp_add_2":"豊田本"},"3500856":{"post_code":"3500856","prefecture":"SAITAMA KEN","city":"KAWAGOE SHI","town":"TONYAMACHI","perfecture_jp":"埼玉県","jp_add_1":"川越市","jp_add_2":"問屋町"},"3500846":{"post_code":"3500846","prefecture":"SAITAMA KEN","city":"KAWAGOE SHI","town":"NAKAOIBUKURO","perfecture_jp":"埼玉県","jp_add_1":"川越市","jp_add_2":"中老袋"},"3501159":{"post_code":"3501159","prefecture":"SAITAMA KEN","city":"KAWAGOE SHI","town":"NAKADAI","perfecture_jp":"埼玉県","jp_add_1":"川越市","jp_add_2":"中台"},"3501150":{"post_code":"3501150","prefecture":"SAITAMA KEN","city":"KAWAGOE SHI","town":"NAKADAIMINAMI","perfecture_jp":"埼玉県","jp_add_1":"川越市","jp_add_2":"中台南"},"3501138":{"post_code":"3501138","prefecture":"SAITAMA KEN","city":"KAWAGOE SHI","town":"NAKADAIMOTOMACHI","perfecture_jp":"埼玉県","jp_add_1":"川越市","jp_add_2":"中台元町"},"3500065":{"post_code":"3500065","prefecture":"SAITAMA KEN","city":"KAWAGOE SHI","town":"NAKACHO","perfecture_jp":"埼玉県","jp_add_1":"川越市","jp_add_2":"仲町"},"3500042":{"post_code":"3500042","prefecture":"SAITAMA KEN","city":"KAWAGOE SHI","town":"NAKAHARAMACHI","perfecture_jp":"埼玉県","jp_add_1":"川越市","jp_add_2":"中原町"},"3501156":{"post_code":"3501156","prefecture":"SAITAMA KEN","city":"KAWAGOE SHI","town":"NAKAFUKU","perfecture_jp":"埼玉県","jp_add_1":"川越市","jp_add_2":"中福"},"3501157":{"post_code":"3501157","prefecture":"SAITAMA KEN","city":"KAWAGOE SHI","town":"NAKAFUKUHIGASHI","perfecture_jp":"埼玉県","jp_add_1":"川越市","jp_add_2":"中福東"},"3500023":{"post_code":"3500023","prefecture":"SAITAMA KEN","city":"KAWAGOE SHI","town":"NAMIKI","perfecture_jp":"埼玉県","jp_add_1":"川越市","jp_add_2":"並木"},"3500024":{"post_code":"3500024","prefecture":"SAITAMA KEN","city":"KAWAGOE SHI","town":"NAMIKISHIMMACHI","perfecture_jp":"埼玉県","jp_add_1":"川越市","jp_add_2":"並木新町"},"3500025":{"post_code":"3500025","prefecture":"SAITAMA KEN","city":"KAWAGOE SHI","town":"NAMIKINISHIMACHI","perfecture_jp":"埼玉県","jp_add_1":"川越市","jp_add_2":"並木西町"},"3500035":{"post_code":"3500035","prefecture":"SAITAMA KEN","city":"KAWAGOE SHI","town":"NISHIKOSEMBAMACHI","perfecture_jp":"埼玉県","jp_add_1":"川越市","jp_add_2":"西小仙波町"},"3501160":{"post_code":"3501160","prefecture":"SAITAMA KEN","city":"KAWAGOE SHI","town":"NITTOCHO","perfecture_jp":"埼玉県","jp_add_1":"川越市","jp_add_2":"日東町"},"3501111":{"post_code":"3501111","prefecture":"SAITAMA KEN","city":"KAWAGOE SHI","town":"NODA","perfecture_jp":"埼玉県","jp_add_1":"川越市","jp_add_2":"野田"},"3501115":{"post_code":"3501115","prefecture":"SAITAMA KEN","city":"KAWAGOE SHI","town":"NODAMACHI","perfecture_jp":"埼玉県","jp_add_1":"川越市","jp_add_2":"野田町"},"3500851":{"post_code":"3500851","prefecture":"SAITAMA KEN","city":"KAWAGOE SHI","town":"HIKAWACHO","perfecture_jp":"埼玉県","jp_add_1":"川越市","jp_add_2":"氷川町"},"3501114":{"post_code":"3501114","prefecture":"SAITAMA KEN","city":"KAWAGOE SHI","town":"HIGASHITAMACHI","perfecture_jp":"埼玉県","jp_add_1":"川越市","jp_add_2":"東田町"},"3500847":{"post_code":"3500847","prefecture":"SAITAMA KEN","city":"KAWAGOE SHI","town":"HIGASHIHONJUKU","perfecture_jp":"埼玉県","jp_add_1":"川越市","jp_add_2":"東本宿"},"3500814":{"post_code":"3500814","prefecture":"SAITAMA KEN","city":"KAWAGOE SHI","town":"HIRATSUKA","perfecture_jp":"埼玉県","jp_add_1":"川越市","jp_add_2":"平塚"},"3500813":{"post_code":"3500813","prefecture":"SAITAMA KEN","city":"KAWAGOE SHI","town":"HIRATSUKASHINDEN","perfecture_jp":"埼玉県","jp_add_1":"川越市","jp_add_2":"平塚新田"},"3500805":{"post_code":"3500805","prefecture":"SAITAMA KEN","city":"KAWAGOE SHI","town":"HIROYASHIMMACHI","perfecture_jp":"埼玉県","jp_add_1":"川越市","jp_add_2":"広谷新町"},"3500831":{"post_code":"3500831","prefecture":"SAITAMA KEN","city":"KAWAGOE SHI","town":"FUKAWA","perfecture_jp":"埼玉県","jp_add_1":"川越市","jp_add_2":"府川"},"3500821":{"post_code":"3500821","prefecture":"SAITAMA KEN","city":"KAWAGOE SHI","town":"FUKUDA","perfecture_jp":"埼玉県","jp_add_1":"川越市","jp_add_2":"福田"},"3500018":{"post_code":"3500018","prefecture":"SAITAMA KEN","city":"KAWAGOE SHI","town":"FUJIKICHO","perfecture_jp":"埼玉県","jp_add_1":"川越市","jp_add_2":"藤木町"},"3501166":{"post_code":"3501166","prefecture":"SAITAMA KEN","city":"KAWAGOE SHI","town":"FUJIKURA","perfecture_jp":"埼玉県","jp_add_1":"川越市","jp_add_2":"藤倉"},"3501142":{"post_code":"3501142","prefecture":"SAITAMA KEN","city":"KAWAGOE SHI","town":"FUJIMA","perfecture_jp":"埼玉県","jp_add_1":"川越市","jp_add_2":"藤間"},"3500802":{"post_code":"3500802","prefecture":"SAITAMA KEN","city":"KAWAGOE SHI","town":"FUJIMI","perfecture_jp":"埼玉県","jp_add_1":"川越市","jp_add_2":"富士見"},"3500033":{"post_code":"3500033","prefecture":"SAITAMA KEN","city":"KAWAGOE SHI","town":"FUJIMICHO","perfecture_jp":"埼玉県","jp_add_1":"川越市","jp_add_2":"富士見町"},"3501143":{"post_code":"3501143","prefecture":"SAITAMA KEN","city":"KAWAGOE SHI","town":"FUJIWARACHO","perfecture_jp":"埼玉県","jp_add_1":"川越市","jp_add_2":"藤原町"},"3500014":{"post_code":"3500014","prefecture":"SAITAMA KEN","city":"KAWAGOE SHI","town":"FURUICHIBA","perfecture_jp":"埼玉県","jp_add_1":"川越市","jp_add_2":"古市場"},"3500001":{"post_code":"3500001","prefecture":"SAITAMA KEN","city":"KAWAGOE SHI","town":"FURUYAKAMI","perfecture_jp":"埼玉県","jp_add_1":"川越市","jp_add_2":"古谷上"},"3500002":{"post_code":"3500002","prefecture":"SAITAMA KEN","city":"KAWAGOE SHI","town":"FURUYAHONGO","perfecture_jp":"埼玉県","jp_add_1":"川越市","jp_add_2":"古谷本郷"},"3501172":{"post_code":"3501172","prefecture":"SAITAMA KEN","city":"KAWAGOE SHI","town":"MASUKATA","perfecture_jp":"埼玉県","jp_add_1":"川越市","jp_add_2":"増形"},"3500056":{"post_code":"3500056","prefecture":"SAITAMA KEN","city":"KAWAGOE SHI","town":"MATSUECHO","perfecture_jp":"埼玉県","jp_add_1":"川越市","jp_add_2":"松江町"},"3500857":{"post_code":"3500857","prefecture":"SAITAMA KEN","city":"KAWAGOE SHI","town":"MATSUGO","perfecture_jp":"埼玉県","jp_add_1":"川越市","jp_add_2":"松郷"},"3501101":{"post_code":"3501101","prefecture":"SAITAMA KEN","city":"KAWAGOE SHI","town":"MATOBA","perfecture_jp":"埼玉県","jp_add_1":"川越市","jp_add_2":"的場"},"3501107":{"post_code":"3501107","prefecture":"SAITAMA KEN","city":"KAWAGOE SHI","town":"MATOBA SHIMMACHI","perfecture_jp":"埼玉県","jp_add_1":"川越市","jp_add_2":"的場新町"},"3501102":{"post_code":"3501102","prefecture":"SAITAMA KEN","city":"KAWAGOE SHI","town":"MATOBA KITA","perfecture_jp":"埼玉県","jp_add_1":"川越市","jp_add_2":"的場北"},"3501162":{"post_code":"3501162","prefecture":"SAITAMA KEN","city":"KAWAGOE SHI","town":"MINAMIOTSUKA","perfecture_jp":"埼玉県","jp_add_1":"川越市","jp_add_2":"南大塚"},"3500027":{"post_code":"3500027","prefecture":"SAITAMA KEN","city":"KAWAGOE SHI","town":"MINAMITAJIMA","perfecture_jp":"埼玉県","jp_add_1":"川越市","jp_add_2":"南田島"},"3501165":{"post_code":"3501165","prefecture":"SAITAMA KEN","city":"KAWAGOE SHI","town":"MINAMIDAI","perfecture_jp":"埼玉県","jp_add_1":"川越市","jp_add_2":"南台"},"3500045":{"post_code":"3500045","prefecture":"SAITAMA KEN","city":"KAWAGOE SHI","town":"MINAMITORIMACHI","perfecture_jp":"埼玉県","jp_add_1":"川越市","jp_add_2":"南通町"},"3500052":{"post_code":"3500052","prefecture":"SAITAMA KEN","city":"KAWAGOE SHI","town":"MIYASHITAMACHI","perfecture_jp":"埼玉県","jp_add_1":"川越市","jp_add_2":"宮下町"},"3500838":{"post_code":"3500838","prefecture":"SAITAMA KEN","city":"KAWAGOE SHI","town":"MIYAMOTOCHO","perfecture_jp":"埼玉県","jp_add_1":"川越市","jp_add_2":"宮元町"},"3501170":{"post_code":"3501170","prefecture":"SAITAMA KEN","city":"KAWAGOE SHI","town":"MUSASHINO","perfecture_jp":"埼玉県","jp_add_1":"川越市","jp_add_2":"むさし野"},"3501158":{"post_code":"3501158","prefecture":"SAITAMA KEN","city":"KAWAGOE SHI","town":"MUSASHINOMINAMI","perfecture_jp":"埼玉県","jp_add_1":"川越市","jp_add_2":"むさし野南"},"3500062":{"post_code":"3500062","prefecture":"SAITAMA KEN","city":"KAWAGOE SHI","town":"MOTOMACHI","perfecture_jp":"埼玉県","jp_add_1":"川越市","jp_add_2":"元町"},"3500003":{"post_code":"3500003","prefecture":"SAITAMA KEN","city":"KAWAGOE SHI","town":"YATSUSHIMA","perfecture_jp":"埼玉県","jp_add_1":"川越市","jp_add_2":"八ツ島"},"3500836":{"post_code":"3500836","prefecture":"SAITAMA KEN","city":"KAWAGOE SHI","town":"YANAKA","perfecture_jp":"埼玉県","jp_add_1":"川越市","jp_add_2":"谷中"},"3501169":{"post_code":"3501169","prefecture":"SAITAMA KEN","city":"KAWAGOE SHI","town":"YAMASHIRO","perfecture_jp":"埼玉県","jp_add_1":"川越市","jp_add_2":"山城"},"3500822":{"post_code":"3500822","prefecture":"SAITAMA KEN","city":"KAWAGOE SHI","town":"YAMADA","perfecture_jp":"埼玉県","jp_add_1":"川越市","jp_add_2":"山田"},"3500807":{"post_code":"3500807","prefecture":"SAITAMA KEN","city":"KAWAGOE SHI","town":"YOSHIDA","perfecture_jp":"埼玉県","jp_add_1":"川越市","jp_add_2":"吉田"},"3500808":{"post_code":"3500808","prefecture":"SAITAMA KEN","city":"KAWAGOE SHI","town":"YOSHIDASHIMMACHI","perfecture_jp":"埼玉県","jp_add_1":"川越市","jp_add_2":"吉田新町"},"3500833":{"post_code":"3500833","prefecture":"SAITAMA KEN","city":"KAWAGOE SHI","town":"YOSHINODAI","perfecture_jp":"埼玉県","jp_add_1":"川越市","jp_add_2":"芳野台"},"3501163":{"post_code":"3501163","prefecture":"SAITAMA KEN","city":"KAWAGOE SHI","town":"YOTSUYADAI","perfecture_jp":"埼玉県","jp_add_1":"川越市","jp_add_2":"四都野台"},"3500066":{"post_code":"3500066","prefecture":"SAITAMA KEN","city":"KAWAGOE SHI","town":"RENJAKUCHO","perfecture_jp":"埼玉県","jp_add_1":"川越市","jp_add_2":"連雀町"},"3500041":{"post_code":"3500041","prefecture":"SAITAMA KEN","city":"KAWAGOE SHI","town":"ROKKEMMACHI","perfecture_jp":"埼玉県","jp_add_1":"川越市","jp_add_2":"六軒町"},"3501121":{"post_code":"3501121","prefecture":"SAITAMA KEN","city":"KAWAGOE SHI","town":"WAKITA SHIMMACHI","perfecture_jp":"埼玉県","jp_add_1":"川越市","jp_add_2":"脇田新町"},"3501123":{"post_code":"3501123","prefecture":"SAITAMA KEN","city":"KAWAGOE SHI","town":"WAKITA HONCHO","perfecture_jp":"埼玉県","jp_add_1":"川越市","jp_add_2":"脇田本町"},"3501122":{"post_code":"3501122","prefecture":"SAITAMA KEN","city":"KAWAGOE SHI","town":"WAKITAMACHI","perfecture_jp":"埼玉県","jp_add_1":"川越市","jp_add_2":"脇田町"},"3501300":{"post_code":"3501300","prefecture":"SAITAMA KEN","city":"SAYAMA SHI","town":"IKANIKEISAIGANAIBAAI","perfecture_jp":"埼玉県","jp_add_1":"狭山市","jp_add_2":""},"3501301":{"post_code":"3501301","prefecture":"SAITAMA KEN","city":"SAYAMA SHI","town":"AOYAGI","perfecture_jp":"埼玉県","jp_add_1":"狭山市","jp_add_2":"青柳"},"3501324":{"post_code":"3501324","prefecture":"SAITAMA KEN","city":"SAYAMA SHI","town":"INARIYAMA","perfecture_jp":"埼玉県","jp_add_1":"狭山市","jp_add_2":"稲荷山"},"3501305":{"post_code":"3501305","prefecture":"SAITAMA KEN","city":"SAYAMA SHI","town":"IRUMAGAWA","perfecture_jp":"埼玉県","jp_add_1":"狭山市","jp_add_2":"入間川"},"3501323":{"post_code":"3501323","prefecture":"SAITAMA KEN","city":"SAYAMA SHI","town":"UNOKI","perfecture_jp":"埼玉県","jp_add_1":"狭山市","jp_add_2":"鵜ノ木"},"3501314":{"post_code":"3501314","prefecture":"SAITAMA KEN","city":"SAYAMA SHI","town":"KAZASHI","perfecture_jp":"埼玉県","jp_add_1":"狭山市","jp_add_2":"加佐志"},"3501335":{"post_code":"3501335","prefecture":"SAITAMA KEN","city":"SAYAMA SHI","town":"KASHIWABARA","perfecture_jp":"埼玉県","jp_add_1":"狭山市","jp_add_2":"柏原"},"3501336":{"post_code":"3501336","prefecture":"SAITAMA KEN","city":"SAYAMA SHI","town":"KASHIWABARASHINDEN","perfecture_jp":"埼玉県","jp_add_1":"狭山市","jp_add_2":"柏原新田"},"3501313":{"post_code":"3501313","prefecture":"SAITAMA KEN","city":"SAYAMA SHI","town":"KAMIAKASAKA","perfecture_jp":"埼玉県","jp_add_1":"狭山市","jp_add_2":"上赤坂"},"3501333":{"post_code":"3501333","prefecture":"SAITAMA KEN","city":"SAYAMA SHI","town":"KAMIOKUDOMI","perfecture_jp":"埼玉県","jp_add_1":"狭山市","jp_add_2":"上奥富"},"3501321":{"post_code":"3501321","prefecture":"SAITAMA KEN","city":"SAYAMA SHI","town":"KAMIHIROSE","perfecture_jp":"埼玉県","jp_add_1":"狭山市","jp_add_2":"上広瀬"},"3501307":{"post_code":"3501307","prefecture":"SAITAMA KEN","city":"SAYAMA SHI","town":"GION","perfecture_jp":"埼玉県","jp_add_1":"狭山市","jp_add_2":"祇園"},"3501315":{"post_code":"3501315","prefecture":"SAITAMA KEN","city":"SAYAMA SHI","town":"KITAIRISO","perfecture_jp":"埼玉県","jp_add_1":"狭山市","jp_add_2":"北入曽"},"3501327":{"post_code":"3501327","prefecture":"SAITAMA KEN","city":"SAYAMA SHI","town":"SASAI","perfecture_jp":"埼玉県","jp_add_1":"狭山市","jp_add_2":"笹井"},"3501334":{"post_code":"3501334","prefecture":"SAITAMA KEN","city":"SAYAMA SHI","town":"SAYAMA","perfecture_jp":"埼玉県","jp_add_1":"狭山市","jp_add_2":"狭山"},"3501304":{"post_code":"3501304","prefecture":"SAITAMA KEN","city":"SAYAMA SHI","town":"SAYAMADAI","perfecture_jp":"埼玉県","jp_add_1":"狭山市","jp_add_2":"狭山台"},"3501303":{"post_code":"3501303","prefecture":"SAITAMA KEN","city":"SAYAMA SHI","town":"SAWA","perfecture_jp":"埼玉県","jp_add_1":"狭山市","jp_add_2":"沢"},"3501332":{"post_code":"3501332","prefecture":"SAITAMA KEN","city":"SAYAMA SHI","town":"SHIMOKUDOMI","perfecture_jp":"埼玉県","jp_add_1":"狭山市","jp_add_2":"下奥富"},"3501322":{"post_code":"3501322","prefecture":"SAITAMA KEN","city":"SAYAMA SHI","town":"SHIMOHIROSE","perfecture_jp":"埼玉県","jp_add_1":"狭山市","jp_add_2":"下広瀬"},"3501331":{"post_code":"3501331","prefecture":"SAITAMA KEN","city":"SAYAMA SHI","town":"SHINSAYAMA","perfecture_jp":"埼玉県","jp_add_1":"狭山市","jp_add_2":"新狭山"},"3501308":{"post_code":"3501308","prefecture":"SAITAMA KEN","city":"SAYAMA SHI","town":"CHUO","perfecture_jp":"埼玉県","jp_add_1":"狭山市","jp_add_2":"中央"},"3501326":{"post_code":"3501326","prefecture":"SAITAMA KEN","city":"SAYAMA SHI","town":"TSUTSUJINO","perfecture_jp":"埼玉県","jp_add_1":"狭山市","jp_add_2":"つつじ野"},"3501311":{"post_code":"3501311","prefecture":"SAITAMA KEN","city":"SAYAMA SHI","town":"NAKASHINDEN","perfecture_jp":"埼玉県","jp_add_1":"狭山市","jp_add_2":"中新田"},"3501325":{"post_code":"3501325","prefecture":"SAITAMA KEN","city":"SAYAMA SHI","town":"NEGISHI","perfecture_jp":"埼玉県","jp_add_1":"狭山市","jp_add_2":"根岸"},"3501302":{"post_code":"3501302","prefecture":"SAITAMA KEN","city":"SAYAMA SHI","town":"HIGASHIMITSUGI","perfecture_jp":"埼玉県","jp_add_1":"狭山市","jp_add_2":"東三ツ木"},"3501319":{"post_code":"3501319","prefecture":"SAITAMA KEN","city":"SAYAMA SHI","town":"HIROSE","perfecture_jp":"埼玉県","jp_add_1":"狭山市","jp_add_2":"広瀬"},"3501328":{"post_code":"3501328","prefecture":"SAITAMA KEN","city":"SAYAMA SHI","town":"HIROSEDAI","perfecture_jp":"埼玉県","jp_add_1":"狭山市","jp_add_2":"広瀬台"},"3501320":{"post_code":"3501320","prefecture":"SAITAMA KEN","city":"SAYAMA SHI","town":"HIROSEHIGASHI","perfecture_jp":"埼玉県","jp_add_1":"狭山市","jp_add_2":"広瀬東"},"3501306":{"post_code":"3501306","prefecture":"SAITAMA KEN","city":"SAYAMA SHI","town":"FUJIMI","perfecture_jp":"埼玉県","jp_add_1":"狭山市","jp_add_2":"富士見"},"3501312":{"post_code":"3501312","prefecture":"SAITAMA KEN","city":"SAYAMA SHI","town":"HORIGANE","perfecture_jp":"埼玉県","jp_add_1":"狭山市","jp_add_2":"堀兼"},"3501317":{"post_code":"3501317","prefecture":"SAITAMA KEN","city":"SAYAMA SHI","town":"MIZUNO","perfecture_jp":"埼玉県","jp_add_1":"狭山市","jp_add_2":"水野"},"3501316":{"post_code":"3501316","prefecture":"SAITAMA KEN","city":"SAYAMA SHI","town":"MINAMIIRISO","perfecture_jp":"埼玉県","jp_add_1":"狭山市","jp_add_2":"南入曽"},"3500200":{"post_code":"3500200","prefecture":"SAITAMA KEN","city":"SAKADO SHI","town":"IKANIKEISAIGANAIBAAI","perfecture_jp":"埼玉県","jp_add_1":"坂戸市","jp_add_2":""},"3500239":{"post_code":"3500239","prefecture":"SAITAMA KEN","city":"SAKADO SHI","town":"AOTA","perfecture_jp":"埼玉県","jp_add_1":"坂戸市","jp_add_2":"粟生田"},"3500207":{"post_code":"3500207","prefecture":"SAITAMA KEN","city":"SAKADO SHI","town":"AOKI","perfecture_jp":"埼玉県","jp_add_1":"坂戸市","jp_add_2":"青木"},"3500201":{"post_code":"3500201","prefecture":"SAITAMA KEN","city":"SAKADO SHI","town":"AKAO","perfecture_jp":"埼玉県","jp_add_1":"坂戸市","jp_add_2":"赤尾"},"3500238":{"post_code":"3500238","prefecture":"SAITAMA KEN","city":"SAKADO SHI","town":"ASABA","perfecture_jp":"埼玉県","jp_add_1":"坂戸市","jp_add_2":"浅羽"},"3500237":{"post_code":"3500237","prefecture":"SAITAMA KEN","city":"SAKADO SHI","town":"ASABANO","perfecture_jp":"埼玉県","jp_add_1":"坂戸市","jp_add_2":"浅羽野"},"3500273":{"post_code":"3500273","prefecture":"SAITAMA KEN","city":"SAKADO SHI","town":"ASHIYAMACHO","perfecture_jp":"埼玉県","jp_add_1":"坂戸市","jp_add_2":"芦山町"},"3500242":{"post_code":"3500242","prefecture":"SAITAMA KEN","city":"SAKADO SHI","town":"ATSUGAWA","perfecture_jp":"埼玉県","jp_add_1":"坂戸市","jp_add_2":"厚川"},"3500212":{"post_code":"3500212","prefecture":"SAITAMA KEN","city":"SAKADO SHI","town":"ISHII","perfecture_jp":"埼玉県","jp_add_1":"坂戸市","jp_add_2":"石井"},"3500275":{"post_code":"3500275","prefecture":"SAITAMA KEN","city":"SAKADO SHI","town":"IZUNOYAMACHO","perfecture_jp":"埼玉県","jp_add_1":"坂戸市","jp_add_2":"伊豆の山町"},"3500231":{"post_code":"3500231","prefecture":"SAITAMA KEN","city":"SAKADO SHI","town":"IZUMICHO","perfecture_jp":"埼玉県","jp_add_1":"坂戸市","jp_add_2":"泉町"},"3500267":{"post_code":"3500267","prefecture":"SAITAMA KEN","city":"SAKADO SHI","town":"IMANISHI","perfecture_jp":"埼玉県","jp_add_1":"坂戸市","jp_add_2":"今西"},"3500254":{"post_code":"3500254","prefecture":"SAITAMA KEN","city":"SAKADO SHI","town":"KAKENOE","perfecture_jp":"埼玉県","jp_add_1":"坂戸市","jp_add_2":"欠ノ上"},"3500219":{"post_code":"3500219","prefecture":"SAITAMA KEN","city":"SAKADO SHI","town":"KATAYANAGI","perfecture_jp":"埼玉県","jp_add_1":"坂戸市","jp_add_2":"片柳"},"3500218":{"post_code":"3500218","prefecture":"SAITAMA KEN","city":"SAKADO SHI","town":"KATAYANAGISHINDEN","perfecture_jp":"埼玉県","jp_add_1":"坂戸市","jp_add_2":"片柳新田"},"3500268":{"post_code":"3500268","prefecture":"SAITAMA KEN","city":"SAKADO SHI","town":"KANEDA","perfecture_jp":"埼玉県","jp_add_1":"坂戸市","jp_add_2":"金田"},"3500221":{"post_code":"3500221","prefecture":"SAITAMA KEN","city":"SAKADO SHI","town":"KAMAKURACHO","perfecture_jp":"埼玉県","jp_add_1":"坂戸市","jp_add_2":"鎌倉町"},"3500271":{"post_code":"3500271","prefecture":"SAITAMA KEN","city":"SAKADO SHI","town":"KAMIYOSHIDA","perfecture_jp":"埼玉県","jp_add_1":"坂戸市","jp_add_2":"上吉田"},"3500243":{"post_code":"3500243","prefecture":"SAITAMA KEN","city":"SAKADO SHI","town":"KAYAGATA","perfecture_jp":"埼玉県","jp_add_1":"坂戸市","jp_add_2":"萱方"},"3500266":{"post_code":"3500266","prefecture":"SAITAMA KEN","city":"SAKADO SHI","town":"KITAASABA","perfecture_jp":"埼玉県","jp_add_1":"坂戸市","jp_add_2":"北浅羽"},"3500253":{"post_code":"3500253","prefecture":"SAITAMA KEN","city":"SAKADO SHI","town":"KITAOTSUKA","perfecture_jp":"埼玉県","jp_add_1":"坂戸市","jp_add_2":"北大塚"},"3500258":{"post_code":"3500258","prefecture":"SAITAMA KEN","city":"SAKADO SHI","town":"KITAMINE","perfecture_jp":"埼玉県","jp_add_1":"坂戸市","jp_add_2":"北峰"},"3500248":{"post_code":"3500248","prefecture":"SAITAMA KEN","city":"SAKADO SHI","town":"KEYAKIDAI","perfecture_jp":"埼玉県","jp_add_1":"坂戸市","jp_add_2":"けやき台"},"3500204":{"post_code":"3500204","prefecture":"SAITAMA KEN","city":"SAKADO SHI","town":"KOYA","perfecture_jp":"埼玉県","jp_add_1":"坂戸市","jp_add_2":"紺屋"},"3500202":{"post_code":"3500202","prefecture":"SAITAMA KEN","city":"SAKADO SHI","town":"KONUMA","perfecture_jp":"埼玉県","jp_add_1":"坂戸市","jp_add_2":"小沼"},"3500257":{"post_code":"3500257","prefecture":"SAITAMA KEN","city":"SAKADO SHI","town":"KOYAMA","perfecture_jp":"埼玉県","jp_add_1":"坂戸市","jp_add_2":"小山"},"3500213":{"post_code":"3500213","prefecture":"SAITAMA KEN","city":"SAKADO SHI","town":"SAKAE","perfecture_jp":"埼玉県","jp_add_1":"坂戸市","jp_add_2":"栄"},"3500217":{"post_code":"3500217","prefecture":"SAITAMA KEN","city":"SAKADO SHI","town":"SAKADO","perfecture_jp":"埼玉県","jp_add_1":"坂戸市","jp_add_2":"坂戸"},"3500261":{"post_code":"3500261","prefecture":"SAITAMA KEN","city":"SAKADO SHI","town":"SAWAKI","perfecture_jp":"埼玉県","jp_add_1":"坂戸市","jp_add_2":"沢木"},"3500235":{"post_code":"3500235","prefecture":"SAITAMA KEN","city":"SAKADO SHI","town":"SANKOCHO","perfecture_jp":"埼玉県","jp_add_1":"坂戸市","jp_add_2":"三光町"},"3500211":{"post_code":"3500211","prefecture":"SAITAMA KEN","city":"SAKADO SHI","town":"SHIMADA","perfecture_jp":"埼玉県","jp_add_1":"坂戸市","jp_add_2":"島田"},"3500222":{"post_code":"3500222","prefecture":"SAITAMA KEN","city":"SAKADO SHI","town":"SHIMIZUCHO","perfecture_jp":"埼玉県","jp_add_1":"坂戸市","jp_add_2":"清水町"},"3500255":{"post_code":"3500255","prefecture":"SAITAMA KEN","city":"SAKADO SHI","town":"JOGANJI","perfecture_jp":"埼玉県","jp_add_1":"坂戸市","jp_add_2":"成願寺"},"3500278":{"post_code":"3500278","prefecture":"SAITAMA KEN","city":"SAKADO SHI","town":"SHINGAYA","perfecture_jp":"埼玉県","jp_add_1":"坂戸市","jp_add_2":"新ケ谷"},"3500272":{"post_code":"3500272","prefecture":"SAITAMA KEN","city":"SAKADO SHI","town":"SUEHIROCHO","perfecture_jp":"埼玉県","jp_add_1":"坂戸市","jp_add_2":"末広町"},"3500215":{"post_code":"3500215","prefecture":"SAITAMA KEN","city":"SAKADO SHI","town":"SEKIMA","perfecture_jp":"埼玉県","jp_add_1":"坂戸市","jp_add_2":"関間"},"3500256":{"post_code":"3500256","prefecture":"SAITAMA KEN","city":"SAKADO SHI","town":"ZENNOJI","perfecture_jp":"埼玉県","jp_add_1":"坂戸市","jp_add_2":"善能寺"},"3500264":{"post_code":"3500264","prefecture":"SAITAMA KEN","city":"SAKADO SHI","town":"TAKENOCHI","perfecture_jp":"埼玉県","jp_add_1":"坂戸市","jp_add_2":"竹之内"},"3500246":{"post_code":"3500246","prefecture":"SAITAMA KEN","city":"SAKADO SHI","town":"TAWAME","perfecture_jp":"埼玉県","jp_add_1":"坂戸市","jp_add_2":"多和目"},"3500214":{"post_code":"3500214","prefecture":"SAITAMA KEN","city":"SAKADO SHI","town":"CHIYODA","perfecture_jp":"埼玉県","jp_add_1":"坂戸市","jp_add_2":"千代田"},"3500209":{"post_code":"3500209","prefecture":"SAITAMA KEN","city":"SAKADO SHI","town":"TSUKAGOSHI","perfecture_jp":"埼玉県","jp_add_1":"坂戸市","jp_add_2":"塚越"},"3500251":{"post_code":"3500251","prefecture":"SAITAMA KEN","city":"SAKADO SHI","town":"TSUKASAKI","perfecture_jp":"埼玉県","jp_add_1":"坂戸市","jp_add_2":"塚崎"},"3500241":{"post_code":"3500241","prefecture":"SAITAMA KEN","city":"SAKADO SHI","town":"TSURUMAI","perfecture_jp":"埼玉県","jp_add_1":"坂戸市","jp_add_2":"鶴舞"},"3500276":{"post_code":"3500276","prefecture":"SAITAMA KEN","city":"SAKADO SHI","town":"TOGUCHI","perfecture_jp":"埼玉県","jp_add_1":"坂戸市","jp_add_2":"戸口"},"3500208":{"post_code":"3500208","prefecture":"SAITAMA KEN","city":"SAKADO SHI","town":"TOMIYA","perfecture_jp":"埼玉県","jp_add_1":"坂戸市","jp_add_2":"戸宮"},"3500206":{"post_code":"3500206","prefecture":"SAITAMA KEN","city":"SAKADO SHI","town":"NAKAOSAKA","perfecture_jp":"埼玉県","jp_add_1":"坂戸市","jp_add_2":"中小坂"},"3500252":{"post_code":"3500252","prefecture":"SAITAMA KEN","city":"SAKADO SHI","town":"NAKAZATO","perfecture_jp":"埼玉県","jp_add_1":"坂戸市","jp_add_2":"中里"},"3500227":{"post_code":"3500227","prefecture":"SAITAMA KEN","city":"SAKADO SHI","town":"NAKACHO","perfecture_jp":"埼玉県","jp_add_1":"坂戸市","jp_add_2":"仲町"},"3500232":{"post_code":"3500232","prefecture":"SAITAMA KEN","city":"SAKADO SHI","town":"NAKATOMICHO","perfecture_jp":"埼玉県","jp_add_1":"坂戸市","jp_add_2":"中富町"},"3500265":{"post_code":"3500265","prefecture":"SAITAMA KEN","city":"SAKADO SHI","town":"NAGAOKA","perfecture_jp":"埼玉県","jp_add_1":"坂戸市","jp_add_2":"長岡"},"3500262":{"post_code":"3500262","prefecture":"SAITAMA KEN","city":"SAKADO SHI","town":"NIIHORI","perfecture_jp":"埼玉県","jp_add_1":"坂戸市","jp_add_2":"新堀"},"3500247":{"post_code":"3500247","prefecture":"SAITAMA KEN","city":"SAKADO SHI","town":"NISHISAKADO","perfecture_jp":"埼玉県","jp_add_1":"坂戸市","jp_add_2":"西坂戸"},"3500269":{"post_code":"3500269","prefecture":"SAITAMA KEN","city":"SAKADO SHI","town":"NISSAIHANAMIZUKI","perfecture_jp":"埼玉県","jp_add_1":"坂戸市","jp_add_2":"にっさい花みず木"},"3500236":{"post_code":"3500236","prefecture":"SAITAMA KEN","city":"SAKADO SHI","town":"HANAKAGECHO","perfecture_jp":"埼玉県","jp_add_1":"坂戸市","jp_add_2":"花影町"},"3500205":{"post_code":"3500205","prefecture":"SAITAMA KEN","city":"SAKADO SHI","town":"HIGASHISAKADO","perfecture_jp":"埼玉県","jp_add_1":"坂戸市","jp_add_2":"東坂戸"},"3500277":{"post_code":"3500277","prefecture":"SAITAMA KEN","city":"SAKADO SHI","town":"HIGASHIWADA","perfecture_jp":"埼玉県","jp_add_1":"坂戸市","jp_add_2":"東和田"},"3500225":{"post_code":"3500225","prefecture":"SAITAMA KEN","city":"SAKADO SHI","town":"HINODECHO","perfecture_jp":"埼玉県","jp_add_1":"坂戸市","jp_add_2":"日の出町"},"3500263":{"post_code":"3500263","prefecture":"SAITAMA KEN","city":"SAKADO SHI","town":"HORIGOME","perfecture_jp":"埼玉県","jp_add_1":"坂戸市","jp_add_2":"堀込"},"3500226":{"post_code":"3500226","prefecture":"SAITAMA KEN","city":"SAKADO SHI","town":"HONCHO","perfecture_jp":"埼玉県","jp_add_1":"坂戸市","jp_add_2":"本町"},"3500274":{"post_code":"3500274","prefecture":"SAITAMA KEN","city":"SAKADO SHI","town":"MIZOHATACHO","perfecture_jp":"埼玉県","jp_add_1":"坂戸市","jp_add_2":"溝端町"},"3500234":{"post_code":"3500234","prefecture":"SAITAMA KEN","city":"SAKADO SHI","town":"MIDORICHO","perfecture_jp":"埼玉県","jp_add_1":"坂戸市","jp_add_2":"緑町"},"3500233":{"post_code":"3500233","prefecture":"SAITAMA KEN","city":"SAKADO SHI","town":"MINAMICHO","perfecture_jp":"埼玉県","jp_add_1":"坂戸市","jp_add_2":"南町"},"3500228":{"post_code":"3500228","prefecture":"SAITAMA KEN","city":"SAKADO SHI","town":"MOTOCHO","perfecture_jp":"埼玉県","jp_add_1":"坂戸市","jp_add_2":"元町"},"3500244":{"post_code":"3500244","prefecture":"SAITAMA KEN","city":"SAKADO SHI","town":"MORIDO","perfecture_jp":"埼玉県","jp_add_1":"坂戸市","jp_add_2":"森戸"},"3500229":{"post_code":"3500229","prefecture":"SAITAMA KEN","city":"SAKADO SHI","town":"YAKUSHICHO","perfecture_jp":"埼玉県","jp_add_1":"坂戸市","jp_add_2":"薬師町"},"3500216":{"post_code":"3500216","prefecture":"SAITAMA KEN","city":"SAKADO SHI","town":"YANAGICHO","perfecture_jp":"埼玉県","jp_add_1":"坂戸市","jp_add_2":"柳町"},"3500223":{"post_code":"3500223","prefecture":"SAITAMA KEN","city":"SAKADO SHI","town":"YAHATA","perfecture_jp":"埼玉県","jp_add_1":"坂戸市","jp_add_2":"八幡"},"3500224":{"post_code":"3500224","prefecture":"SAITAMA KEN","city":"SAKADO SHI","town":"YAMATACHO","perfecture_jp":"埼玉県","jp_add_1":"坂戸市","jp_add_2":"山田町"},"3500203":{"post_code":"3500203","prefecture":"SAITAMA KEN","city":"SAKADO SHI","town":"YOKONUMA","perfecture_jp":"埼玉県","jp_add_1":"坂戸市","jp_add_2":"横沼"},"3500245":{"post_code":"3500245","prefecture":"SAITAMA KEN","city":"SAKADO SHI","town":"YOKKAICHIBA","perfecture_jp":"埼玉県","jp_add_1":"坂戸市","jp_add_2":"四日市場"},"3502200":{"post_code":"3502200","prefecture":"SAITAMA KEN","city":"TSURUGASHIMA SHI","town":"IKANIKEISAIGANAIBAAI","perfecture_jp":"埼玉県","jp_add_1":"鶴ヶ島市","jp_add_2":""},"3502214":{"post_code":"3502214","prefecture":"SAITAMA KEN","city":"TSURUGASHIMA SHI","town":"OTAGAYA","perfecture_jp":"埼玉県","jp_add_1":"鶴ヶ島市","jp_add_2":"太田ヶ谷"},"3502225":{"post_code":"3502225","prefecture":"SAITAMA KEN","city":"TSURUGASHIMA SHI","town":"KAMISHINDEN","perfecture_jp":"埼玉県","jp_add_1":"鶴ヶ島市","jp_add_2":"上新田"},"3502203":{"post_code":"3502203","prefecture":"SAITAMA KEN","city":"TSURUGASHIMA SHI","town":"KAMIHIROYA","perfecture_jp":"埼玉県","jp_add_1":"鶴ヶ島市","jp_add_2":"上広谷"},"3502212":{"post_code":"3502212","prefecture":"SAITAMA KEN","city":"TSURUGASHIMA SHI","town":"KYOEICHO","perfecture_jp":"埼玉県","jp_add_1":"鶴ヶ島市","jp_add_2":"共栄町"},"3502202":{"post_code":"3502202","prefecture":"SAITAMA KEN","city":"TSURUGASHIMA SHI","town":"GOMIGAYA","perfecture_jp":"埼玉県","jp_add_1":"鶴ヶ島市","jp_add_2":"五味ヶ谷"},"3502222":{"post_code":"3502222","prefecture":"SAITAMA KEN","city":"TSURUGASHIMA SHI","town":"SHIMOSHINDEN","perfecture_jp":"埼玉県","jp_add_1":"鶴ヶ島市","jp_add_2":"下新田"},"3502227":{"post_code":"3502227","prefecture":"SAITAMA KEN","city":"TSURUGASHIMA SHI","town":"SHIMMACHI","perfecture_jp":"埼玉県","jp_add_1":"鶴ヶ島市","jp_add_2":"新町"},"3502213":{"post_code":"3502213","prefecture":"SAITAMA KEN","city":"TSURUGASHIMA SHI","town":"SUNEORI","perfecture_jp":"埼玉県","jp_add_1":"鶴ヶ島市","jp_add_2":"脚折"},"3502211":{"post_code":"3502211","prefecture":"SAITAMA KEN","city":"TSURUGASHIMA SHI","town":"SUNEORICHO","perfecture_jp":"埼玉県","jp_add_1":"鶴ヶ島市","jp_add_2":"脚折町"},"3502223":{"post_code":"3502223","prefecture":"SAITAMA KEN","city":"TSURUGASHIMA SHI","town":"TAKAKURA","perfecture_jp":"埼玉県","jp_add_1":"鶴ヶ島市","jp_add_2":"高倉"},"3502204":{"post_code":"3502204","prefecture":"SAITAMA KEN","city":"TSURUGASHIMA SHI","town":"TSURUGAOKA","perfecture_jp":"埼玉県","jp_add_1":"鶴ヶ島市","jp_add_2":"鶴ヶ丘"},"3502226":{"post_code":"3502226","prefecture":"SAITAMA KEN","city":"TSURUGASHIMA SHI","town":"NAKASHINDEN","perfecture_jp":"埼玉県","jp_add_1":"鶴ヶ島市","jp_add_2":"中新田"},"3502221":{"post_code":"3502221","prefecture":"SAITAMA KEN","city":"TSURUGASHIMA SHI","town":"HANEORICHO","perfecture_jp":"埼玉県","jp_add_1":"鶴ヶ島市","jp_add_2":"羽折町"},"3502206":{"post_code":"3502206","prefecture":"SAITAMA KEN","city":"TSURUGASHIMA SHI","town":"FUJIGANE","perfecture_jp":"埼玉県","jp_add_1":"鶴ヶ島市","jp_add_2":"藤金"},"3502201":{"post_code":"3502201","prefecture":"SAITAMA KEN","city":"TSURUGASHIMA SHI","town":"FUJIMI","perfecture_jp":"埼玉県","jp_add_1":"鶴ヶ島市","jp_add_2":"富士見"},"3502224":{"post_code":"3502224","prefecture":"SAITAMA KEN","city":"TSURUGASHIMA SHI","town":"MACHIYA","perfecture_jp":"埼玉県","jp_add_1":"鶴ヶ島市","jp_add_2":"町屋"},"3502205":{"post_code":"3502205","prefecture":"SAITAMA KEN","city":"TSURUGASHIMA SHI","town":"MATSUGAOKA","perfecture_jp":"埼玉県","jp_add_1":"鶴ヶ島市","jp_add_2":"松ヶ丘"},"3502217":{"post_code":"3502217","prefecture":"SAITAMA KEN","city":"TSURUGASHIMA SHI","town":"MITSUGI","perfecture_jp":"埼玉県","jp_add_1":"鶴ヶ島市","jp_add_2":"三ツ木"},"3502216":{"post_code":"3502216","prefecture":"SAITAMA KEN","city":"TSURUGASHIMA SHI","town":"MITSUGISHINDEN","perfecture_jp":"埼玉県","jp_add_1":"鶴ヶ島市","jp_add_2":"三ツ木新田"},"3502219":{"post_code":"3502219","prefecture":"SAITAMA KEN","city":"TSURUGASHIMA SHI","town":"MITSUGISHIMMACHI","perfecture_jp":"埼玉県","jp_add_1":"鶴ヶ島市","jp_add_2":"三ツ木新町"},"3502215":{"post_code":"3502215","prefecture":"SAITAMA KEN","city":"TSURUGASHIMA SHI","town":"MINAMICHO","perfecture_jp":"埼玉県","jp_add_1":"鶴ヶ島市","jp_add_2":"南町"},"3502218":{"post_code":"3502218","prefecture":"SAITAMA KEN","city":"TSURUGASHIMA SHI","town":"YANAGIDOCHO","perfecture_jp":"埼玉県","jp_add_1":"鶴ヶ島市","jp_add_2":"柳戸町"},"3501200":{"post_code":"3501200","prefecture":"SAITAMA KEN","city":"HIDAKA SHI","town":"IKANIKEISAIGANAIBAAI","perfecture_jp":"埼玉県","jp_add_1":"日高市","jp_add_2":""},"3501203":{"post_code":"3501203","prefecture":"SAITAMA KEN","city":"HIDAKA SHI","town":"ASAHIGAOKA","perfecture_jp":"埼玉県","jp_add_1":"日高市","jp_add_2":"旭ケ丘"},"3501225":{"post_code":"3501225","prefecture":"SAITAMA KEN","city":"HIDAKA SHI","town":"UMAHIKIZAWA","perfecture_jp":"埼玉県","jp_add_1":"日高市","jp_add_2":"馬引沢"},"3501246":{"post_code":"3501246","prefecture":"SAITAMA KEN","city":"HIDAKA SHI","town":"UMEHARA","perfecture_jp":"埼玉県","jp_add_1":"日高市","jp_add_2":"梅原"},"3501222":{"post_code":"3501222","prefecture":"SAITAMA KEN","city":"HIDAKA SHI","town":"OYAZAWA","perfecture_jp":"埼玉県","jp_add_1":"日高市","jp_add_2":"大谷沢"},"3501227":{"post_code":"3501227","prefecture":"SAITAMA KEN","city":"HIDAKA SHI","town":"ONAKAGE","perfecture_jp":"埼玉県","jp_add_1":"日高市","jp_add_2":"女影"},"3501214":{"post_code":"3501214","prefecture":"SAITAMA KEN","city":"HIDAKA SHI","town":"ONAKAGESHINDEN","perfecture_jp":"埼玉県","jp_add_1":"日高市","jp_add_2":"女影新田"},"3501234":{"post_code":"3501234","prefecture":"SAITAMA KEN","city":"HIDAKA SHI","town":"KAMIKAYAMA","perfecture_jp":"埼玉県","jp_add_1":"日高市","jp_add_2":"上鹿山"},"3501231":{"post_code":"3501231","prefecture":"SAITAMA KEN","city":"HIDAKA SHI","town":"KAYAMA","perfecture_jp":"埼玉県","jp_add_1":"日高市","jp_add_2":"鹿山"},"3501242":{"post_code":"3501242","prefecture":"SAITAMA KEN","city":"HIDAKA SHI","town":"KITAHIRASAWA","perfecture_jp":"埼玉県","jp_add_1":"日高市","jp_add_2":"北平沢"},"3501254":{"post_code":"3501254","prefecture":"SAITAMA KEN","city":"HIDAKA SHI","town":"KUBO","perfecture_jp":"埼玉県","jp_add_1":"日高市","jp_add_2":"久保"},"3501245":{"post_code":"3501245","prefecture":"SAITAMA KEN","city":"HIDAKA SHI","town":"KURITSUBO","perfecture_jp":"埼玉県","jp_add_1":"日高市","jp_add_2":"栗坪"},"3501249":{"post_code":"3501249","prefecture":"SAITAMA KEN","city":"HIDAKA SHI","town":"KOMAGAWA","perfecture_jp":"埼玉県","jp_add_1":"日高市","jp_add_2":"高麗川"},"3501202":{"post_code":"3501202","prefecture":"SAITAMA KEN","city":"HIDAKA SHI","town":"KOMADERANOSHINDEN","perfecture_jp":"埼玉県","jp_add_1":"日高市","jp_add_2":"駒寺野新田"},"3501251":{"post_code":"3501251","prefecture":"SAITAMA KEN","city":"HIDAKA SHI","town":"KOMAHONGO","perfecture_jp":"埼玉県","jp_add_1":"日高市","jp_add_2":"高麗本郷"},"3501248":{"post_code":"3501248","prefecture":"SAITAMA KEN","city":"HIDAKA SHI","town":"SHIHOGI","perfecture_jp":"埼玉県","jp_add_1":"日高市","jp_add_2":"四本木"},"3501221":{"post_code":"3501221","prefecture":"SAITAMA KEN","city":"HIDAKA SHI","town":"SHIMOOYAZAWA","perfecture_jp":"埼玉県","jp_add_1":"日高市","jp_add_2":"下大谷沢"},"3501233":{"post_code":"3501233","prefecture":"SAITAMA KEN","city":"HIDAKA SHI","town":"SHIMOKAYAMA","perfecture_jp":"埼玉県","jp_add_1":"日高市","jp_add_2":"下鹿山"},"3501212":{"post_code":"3501212","prefecture":"SAITAMA KEN","city":"HIDAKA SHI","town":"SHIMOTAKAHAGISHINDEN","perfecture_jp":"埼玉県","jp_add_1":"日高市","jp_add_2":"下高萩新田"},"3501252":{"post_code":"3501252","prefecture":"SAITAMA KEN","city":"HIDAKA SHI","town":"SEIRYU","perfecture_jp":"埼玉県","jp_add_1":"日高市","jp_add_2":"清流"},"3501253":{"post_code":"3501253","prefecture":"SAITAMA KEN","city":"HIDAKA SHI","town":"DAI","perfecture_jp":"埼玉県","jp_add_1":"日高市","jp_add_2":"台"},"3501247":{"post_code":"3501247","prefecture":"SAITAMA KEN","city":"HIDAKA SHI","town":"TAKAOKA","perfecture_jp":"埼玉県","jp_add_1":"日高市","jp_add_2":"高岡"},"3501223":{"post_code":"3501223","prefecture":"SAITAMA KEN","city":"HIDAKA SHI","town":"TAKATOMI","perfecture_jp":"埼玉県","jp_add_1":"日高市","jp_add_2":"高富"},"3501213":{"post_code":"3501213","prefecture":"SAITAMA KEN","city":"HIDAKA SHI","town":"TAKAHAGI","perfecture_jp":"埼玉県","jp_add_1":"日高市","jp_add_2":"高萩"},"3501215":{"post_code":"3501215","prefecture":"SAITAMA KEN","city":"HIDAKA SHI","town":"TAKAHAGIHIGASHI","perfecture_jp":"埼玉県","jp_add_1":"日高市","jp_add_2":"高萩東"},"3501224":{"post_code":"3501224","prefecture":"SAITAMA KEN","city":"HIDAKA SHI","town":"TAGI","perfecture_jp":"埼玉県","jp_add_1":"日高市","jp_add_2":"田木"},"3501201":{"post_code":"3501201","prefecture":"SAITAMA KEN","city":"HIDAKA SHI","town":"TABAME","perfecture_jp":"埼玉県","jp_add_1":"日高市","jp_add_2":"田波目"},"3501232":{"post_code":"3501232","prefecture":"SAITAMA KEN","city":"HIDAKA SHI","town":"NAKAKAYAMA","perfecture_jp":"埼玉県","jp_add_1":"日高市","jp_add_2":"中鹿山"},"3501226":{"post_code":"3501226","prefecture":"SAITAMA KEN","city":"HIDAKA SHI","town":"NAKAZAWA","perfecture_jp":"埼玉県","jp_add_1":"日高市","jp_add_2":"中沢"},"3501243":{"post_code":"3501243","prefecture":"SAITAMA KEN","city":"HIDAKA SHI","town":"NIIHORI","perfecture_jp":"埼玉県","jp_add_1":"日高市","jp_add_2":"新堀"},"3501204":{"post_code":"3501204","prefecture":"SAITAMA KEN","city":"HIDAKA SHI","town":"NIIHORISHINDEN","perfecture_jp":"埼玉県","jp_add_1":"日高市","jp_add_2":"新堀新田"},"3501235":{"post_code":"3501235","prefecture":"SAITAMA KEN","city":"HIDAKA SHI","town":"NIREGI","perfecture_jp":"埼玉県","jp_add_1":"日高市","jp_add_2":"楡木"},"3501244":{"post_code":"3501244","prefecture":"SAITAMA KEN","city":"HIDAKA SHI","town":"NONOMIYA","perfecture_jp":"埼玉県","jp_add_1":"日高市","jp_add_2":"野々宮"},"3501205":{"post_code":"3501205","prefecture":"SAITAMA KEN","city":"HIDAKA SHI","town":"HARAJUKU","perfecture_jp":"埼玉県","jp_add_1":"日高市","jp_add_2":"原宿"},"3501206":{"post_code":"3501206","prefecture":"SAITAMA KEN","city":"HIDAKA SHI","town":"MINAMIHIRASAWA","perfecture_jp":"埼玉県","jp_add_1":"日高市","jp_add_2":"南平沢"},"3501255":{"post_code":"3501255","prefecture":"SAITAMA KEN","city":"HIDAKA SHI","town":"MUSASHIDAI","perfecture_jp":"埼玉県","jp_add_1":"日高市","jp_add_2":"武蔵台"},"3501211":{"post_code":"3501211","prefecture":"SAITAMA KEN","city":"HIDAKA SHI","town":"MORIDOSHINDEN","perfecture_jp":"埼玉県","jp_add_1":"日高市","jp_add_2":"森戸新田"},"3501236":{"post_code":"3501236","prefecture":"SAITAMA KEN","city":"HIDAKA SHI","town":"YAENDA","perfecture_jp":"埼玉県","jp_add_1":"日高市","jp_add_2":"猿田"},"3501237":{"post_code":"3501237","prefecture":"SAITAMA KEN","city":"HIDAKA SHI","town":"YAENDAUENODAI","perfecture_jp":"埼玉県","jp_add_1":"日高市","jp_add_2":"猿田上ノ台"},"3501241":{"post_code":"3501241","prefecture":"SAITAMA KEN","city":"HIDAKA SHI","town":"YAMANE","perfecture_jp":"埼玉県","jp_add_1":"日高市","jp_add_2":"山根"},"3501257":{"post_code":"3501257","prefecture":"SAITAMA KEN","city":"HIDAKA SHI","town":"YOKOTE","perfecture_jp":"埼玉県","jp_add_1":"日高市","jp_add_2":"横手"},"3500400":{"post_code":"3500400","prefecture":"SAITAMA KEN","city":"IRUMA GUN OGOSE MACHI","town":"IKANIKEISAIGANAIBAAI","perfecture_jp":"埼玉県","jp_add_1":"入間郡毛呂山町","jp_add_2":""},"3500444":{"post_code":"3500444","prefecture":"SAITAMA KEN","city":"IRUMA GUN MOROYAMA MACHI","town":"ASAHIDAI","perfecture_jp":"埼玉県","jp_add_1":"入間郡毛呂山町","jp_add_2":"旭台"},"3500455":{"post_code":"3500455","prefecture":"SAITAMA KEN","city":"IRUMA GUN MOROYAMA MACHI","town":"ASUWA","perfecture_jp":"埼玉県","jp_add_1":"入間郡毛呂山町","jp_add_2":"阿諏訪"},"3500434":{"post_code":"3500434","prefecture":"SAITAMA KEN","city":"IRUMA GUN MOROYAMA MACHI","town":"ICHIBA","perfecture_jp":"埼玉県","jp_add_1":"入間郡毛呂山町","jp_add_2":"市場"},"3500441":{"post_code":"3500441","prefecture":"SAITAMA KEN","city":"IRUMA GUN MOROYAMA MACHI","town":"IWAI","perfecture_jp":"埼玉県","jp_add_1":"入間郡毛呂山町","jp_add_2":"岩井"},"3500465":{"post_code":"3500465","prefecture":"SAITAMA KEN","city":"IRUMA GUN MOROYAMA MACHI","town":"IWAINISHI","perfecture_jp":"埼玉県","jp_add_1":"入間郡毛呂山町","jp_add_2":"岩井西"},"3500467":{"post_code":"3500467","prefecture":"SAITAMA KEN","city":"IRUMA GUN MOROYAMA MACHI","town":"IWAIHIGASHI","perfecture_jp":"埼玉県","jp_add_1":"入間郡毛呂山町","jp_add_2":"岩井東"},"3500452":{"post_code":"3500452","prefecture":"SAITAMA KEN","city":"IRUMA GUN MOROYAMA MACHI","town":"OYAGI","perfecture_jp":"埼玉県","jp_add_1":"入間郡毛呂山町","jp_add_2":"大谷木"},"3500432":{"post_code":"3500432","prefecture":"SAITAMA KEN","city":"IRUMA GUN MOROYAMA MACHI","town":"ORUI","perfecture_jp":"埼玉県","jp_add_1":"入間郡毛呂山町","jp_add_2":"大類"},"3500436":{"post_code":"3500436","prefecture":"SAITAMA KEN","city":"IRUMA GUN MOROYAMA MACHI","town":"KAWAKADO","perfecture_jp":"埼玉県","jp_add_1":"入間郡毛呂山町","jp_add_2":"川角"},"3500446":{"post_code":"3500446","prefecture":"SAITAMA KEN","city":"IRUMA GUN MOROYAMA MACHI","town":"KODAYA","perfecture_jp":"埼玉県","jp_add_1":"入間郡毛呂山町","jp_add_2":"小田谷"},"3500454":{"post_code":"3500454","prefecture":"SAITAMA KEN","city":"IRUMA GUN MOROYAMA MACHI","town":"GONGENDO","perfecture_jp":"埼玉県","jp_add_1":"入間郡毛呂山町","jp_add_2":"権現堂"},"3500438":{"post_code":"3500438","prefecture":"SAITAMA KEN","city":"IRUMA GUN MOROYAMA MACHI","town":"SAIDO","perfecture_jp":"埼玉県","jp_add_1":"入間郡毛呂山町","jp_add_2":"西戸"},"3500435":{"post_code":"3500435","prefecture":"SAITAMA KEN","city":"IRUMA GUN MOROYAMA MACHI","town":"SHIMOGAWARA","perfecture_jp":"埼玉県","jp_add_1":"入間郡毛呂山町","jp_add_2":"下川原"},"3500453":{"post_code":"3500453","prefecture":"SAITAMA KEN","city":"IRUMA GUN MOROYAMA MACHI","town":"SHUKUYA","perfecture_jp":"埼玉県","jp_add_1":"入間郡毛呂山町","jp_add_2":"宿谷"},"3500456":{"post_code":"3500456","prefecture":"SAITAMA KEN","city":"IRUMA GUN MOROYAMA MACHI","town":"TAKINOIRI","perfecture_jp":"埼玉県","jp_add_1":"入間郡毛呂山町","jp_add_2":"滝ノ入"},"3500461":{"post_code":"3500461","prefecture":"SAITAMA KEN","city":"IRUMA GUN MOROYAMA MACHI","town":"CHUO","perfecture_jp":"埼玉県","jp_add_1":"入間郡毛呂山町","jp_add_2":"中央"},"3500445":{"post_code":"3500445","prefecture":"SAITAMA KEN","city":"IRUMA GUN MOROYAMA MACHI","town":"TSUZURANUKI","perfecture_jp":"埼玉県","jp_add_1":"入間郡毛呂山町","jp_add_2":"葛貫"},"3500443":{"post_code":"3500443","prefecture":"SAITAMA KEN","city":"IRUMA GUN MOROYAMA MACHI","town":"NAGASE","perfecture_jp":"埼玉県","jp_add_1":"入間郡毛呂山町","jp_add_2":"長瀬"},"3500431":{"post_code":"3500431","prefecture":"SAITAMA KEN","city":"IRUMA GUN MOROYAMA MACHI","town":"NIGABAYASHI","perfecture_jp":"埼玉県","jp_add_1":"入間郡毛呂山町","jp_add_2":"苦林"},"3500433":{"post_code":"3500433","prefecture":"SAITAMA KEN","city":"IRUMA GUN MOROYAMA MACHI","town":"NISHIOKUBO","perfecture_jp":"埼玉県","jp_add_1":"入間郡毛呂山町","jp_add_2":"西大久保"},"3500466":{"post_code":"3500466","prefecture":"SAITAMA KEN","city":"IRUMA GUN MOROYAMA MACHI","town":"HIRAYAMA","perfecture_jp":"埼玉県","jp_add_1":"入間郡毛呂山町","jp_add_2":"平山"},"3500442":{"post_code":"3500442","prefecture":"SAITAMA KEN","city":"IRUMA GUN MOROYAMA MACHI","town":"MAEKUBO","perfecture_jp":"埼玉県","jp_add_1":"入間郡毛呂山町","jp_add_2":"前久保"},"3500463":{"post_code":"3500463","prefecture":"SAITAMA KEN","city":"IRUMA GUN MOROYAMA MACHI","town":"MAEKUBOMINAMI","perfecture_jp":"埼玉県","jp_add_1":"入間郡毛呂山町","jp_add_2":"前久保南"},"3500464":{"post_code":"3500464","prefecture":"SAITAMA KEN","city":"IRUMA GUN MOROYAMA MACHI","town":"MINAMIDAI","perfecture_jp":"埼玉県","jp_add_1":"入間郡毛呂山町","jp_add_2":"南台"},"3500437":{"post_code":"3500437","prefecture":"SAITAMA KEN","city":"IRUMA GUN MOROYAMA MACHI","town":"MINOWADA","perfecture_jp":"埼玉県","jp_add_1":"入間郡毛呂山町","jp_add_2":"箕和田"},"3500439":{"post_code":"3500439","prefecture":"SAITAMA KEN","city":"IRUMA GUN MOROYAMA MACHI","town":"MEJIRODAI","perfecture_jp":"埼玉県","jp_add_1":"入間郡毛呂山町","jp_add_2":"目白台"},"3500451":{"post_code":"3500451","prefecture":"SAITAMA KEN","city":"IRUMA GUN MOROYAMA MACHI","town":"MOROHONGO","perfecture_jp":"埼玉県","jp_add_1":"入間郡毛呂山町","jp_add_2":"毛呂本郷"},"3500462":{"post_code":"3500462","prefecture":"SAITAMA KEN","city":"IRUMA GUN MOROYAMA MACHI","town":"WAKAYAMA","perfecture_jp":"埼玉県","jp_add_1":"入間郡毛呂山町","jp_add_2":"若山"},"3500415":{"post_code":"3500415","prefecture":"SAITAMA KEN","city":"IRUMA GUN OGOSE MACHI","town":"UENO","perfecture_jp":"埼玉県","jp_add_1":"入間郡越生町","jp_add_2":"上野"},"3500417":{"post_code":"3500417","prefecture":"SAITAMA KEN","city":"IRUMA GUN OGOSE MACHI","town":"UENOHIGASHI","perfecture_jp":"埼玉県","jp_add_1":"入間郡越生町","jp_add_2":"上野東"},"3500403":{"post_code":"3500403","prefecture":"SAITAMA KEN","city":"IRUMA GUN OGOSE MACHI","town":"OYA","perfecture_jp":"埼玉県","jp_add_1":"入間郡越生町","jp_add_2":"大谷"},"3500416":{"post_code":"3500416","prefecture":"SAITAMA KEN","city":"IRUMA GUN OGOSE MACHI","town":"OGOSE","perfecture_jp":"埼玉県","jp_add_1":"入間郡越生町","jp_add_2":"越生"},"3500414":{"post_code":"3500414","prefecture":"SAITAMA KEN","city":"IRUMA GUN OGOSE MACHI","town":"OGOSEHIGASHI","perfecture_jp":"埼玉県","jp_add_1":"入間郡越生町","jp_add_2":"越生東"},"3500402":{"post_code":"3500402","prefecture":"SAITAMA KEN","city":"IRUMA GUN OGOSE MACHI","town":"KANOSHITA","perfecture_jp":"埼玉県","jp_add_1":"入間郡越生町","jp_add_2":"鹿下"},"3500407":{"post_code":"3500407","prefecture":"SAITAMA KEN","city":"IRUMA GUN OGOSE MACHI","town":"KAMIYATSU","perfecture_jp":"埼玉県","jp_add_1":"入間郡越生町","jp_add_2":"上谷"},"3500411":{"post_code":"3500411","prefecture":"SAITAMA KEN","city":"IRUMA GUN OGOSE MACHI","town":"KUROIWA","perfecture_jp":"埼玉県","jp_add_1":"入間郡越生町","jp_add_2":"黒岩"},"3500424":{"post_code":"3500424","prefecture":"SAITAMA KEN","city":"IRUMA GUN OGOSE MACHI","town":"KUROYAMA","perfecture_jp":"埼玉県","jp_add_1":"入間郡越生町","jp_add_2":"黒山"},"3500422":{"post_code":"3500422","prefecture":"SAITAMA KEN","city":"IRUMA GUN OGOSE MACHI","town":"KOSUGI","perfecture_jp":"埼玉県","jp_add_1":"入間郡越生町","jp_add_2":"小杉"},"3500423":{"post_code":"3500423","prefecture":"SAITAMA KEN","city":"IRUMA GUN OGOSE MACHI","town":"DAIMA","perfecture_jp":"埼玉県","jp_add_1":"入間郡越生町","jp_add_2":"大満"},"3500425":{"post_code":"3500425","prefecture":"SAITAMA KEN","city":"IRUMA GUN OGOSE MACHI","town":"TATSUGAYA","perfecture_jp":"埼玉県","jp_add_1":"入間郡越生町","jp_add_2":"龍ケ谷"},"3500405":{"post_code":"3500405","prefecture":"SAITAMA KEN","city":"IRUMA GUN OGOSE MACHI","town":"TSUKUNE","perfecture_jp":"埼玉県","jp_add_1":"入間郡越生町","jp_add_2":"津久根"},"3500406":{"post_code":"3500406","prefecture":"SAITAMA KEN","city":"IRUMA GUN OGOSE MACHI","town":"DOYAMA","perfecture_jp":"埼玉県","jp_add_1":"入間郡越生町","jp_add_2":"堂山"},"3500404":{"post_code":"3500404","prefecture":"SAITAMA KEN","city":"IRUMA GUN OGOSE MACHI","town":"NARUSE","perfecture_jp":"埼玉県","jp_add_1":"入間郡越生町","jp_add_2":"成瀬"},"3500412":{"post_code":"3500412","prefecture":"SAITAMA KEN","city":"IRUMA GUN OGOSE MACHI","town":"NISHIWADA","perfecture_jp":"埼玉県","jp_add_1":"入間郡越生町","jp_add_2":"西和田"},"3500413":{"post_code":"3500413","prefecture":"SAITAMA KEN","city":"IRUMA GUN OGOSE MACHI","town":"NEOI","perfecture_jp":"埼玉県","jp_add_1":"入間郡越生町","jp_add_2":"如意"},"3500401":{"post_code":"3500401","prefecture":"SAITAMA KEN","city":"IRUMA GUN OGOSE MACHI","town":"FURUIKE","perfecture_jp":"埼玉県","jp_add_1":"入間郡越生町","jp_add_2":"古池"},"3500421":{"post_code":"3500421","prefecture":"SAITAMA KEN","city":"IRUMA GUN OGOSE MACHI","town":"MUGIHARA","perfecture_jp":"埼玉県","jp_add_1":"入間郡越生町","jp_add_2":"麦原"},"3500100":{"post_code":"3500100","prefecture":"SAITAMA KEN","city":"HIKI GUN KAWAJIMA MACHI","town":"IKANIKEISAIGANAIBAAI","perfecture_jp":"埼玉県","jp_add_1":"比企郡川島町","jp_add_2":""},"3500153":{"post_code":"3500153","prefecture":"SAITAMA KEN","city":"HIKI GUN KAWAJIMA MACHI","town":"IIJIMA","perfecture_jp":"埼玉県","jp_add_1":"比企郡川島町","jp_add_2":"飯島"},"3500158":{"post_code":"3500158","prefecture":"SAITAMA KEN","city":"HIKI GUN KAWAJIMA MACHI","town":"IGUSA","perfecture_jp":"埼玉県","jp_add_1":"比企郡川島町","jp_add_2":"伊草"},"3500115":{"post_code":"3500115","prefecture":"SAITAMA KEN","city":"HIKI GUN KAWAJIMA MACHI","town":"IPPONGI","perfecture_jp":"埼玉県","jp_add_1":"比企郡川島町","jp_add_2":"一本木"},"3500127":{"post_code":"3500127","prefecture":"SAITAMA KEN","city":"HIKI GUN KAWAJIMA MACHI","town":"USHIGAYATO","perfecture_jp":"埼玉県","jp_add_1":"比企郡川島町","jp_add_2":"牛ケ谷戸"},"3500101":{"post_code":"3500101","prefecture":"SAITAMA KEN","city":"HIKI GUN KAWAJIMA MACHI","town":"UMENOKI","perfecture_jp":"埼玉県","jp_add_1":"比企郡川島町","jp_add_2":"梅ノ木"},"3500105":{"post_code":"3500105","prefecture":"SAITAMA KEN","city":"HIKI GUN KAWAJIMA MACHI","town":"OMINO","perfecture_jp":"埼玉県","jp_add_1":"比企郡川島町","jp_add_2":"小見野"},"3500133":{"post_code":"3500133","prefecture":"SAITAMA KEN","city":"HIKI GUN KAWAJIMA MACHI","town":"OMOTE","perfecture_jp":"埼玉県","jp_add_1":"比企郡川島町","jp_add_2":"表"},"3500156":{"post_code":"3500156","prefecture":"SAITAMA KEN","city":"HIKI GUN KAWAJIMA MACHI","town":"KAKUSEN","perfecture_jp":"埼玉県","jp_add_1":"比企郡川島町","jp_add_2":"角泉"},"3500107":{"post_code":"3500107","prefecture":"SAITAMA KEN","city":"HIKI GUN KAWAJIMA MACHI","town":"KAGO","perfecture_jp":"埼玉県","jp_add_1":"比企郡川島町","jp_add_2":"加胡"},"3500152":{"post_code":"3500152","prefecture":"SAITAMA KEN","city":"HIKI GUN KAWAJIMA MACHI","town":"KAMIIGUSA","perfecture_jp":"埼玉県","jp_add_1":"比企郡川島町","jp_add_2":"上伊草"},"3500142":{"post_code":"3500142","prefecture":"SAITAMA KEN","city":"HIKI GUN KAWAJIMA MACHI","town":"KAMIOYASHIKI","perfecture_jp":"埼玉県","jp_add_1":"比企郡川島町","jp_add_2":"上大屋敷"},"3500106":{"post_code":"3500106","prefecture":"SAITAMA KEN","city":"HIKI GUN KAWAJIMA MACHI","town":"KAMIOMINO","perfecture_jp":"埼玉県","jp_add_1":"比企郡川島町","jp_add_2":"上小見野"},"3500136":{"post_code":"3500136","prefecture":"SAITAMA KEN","city":"HIKI GUN KAWAJIMA MACHI","town":"KAMIMUJINA","perfecture_jp":"埼玉県","jp_add_1":"比企郡川島町","jp_add_2":"上狢"},"3500121":{"post_code":"3500121","prefecture":"SAITAMA KEN","city":"HIKI GUN KAWAJIMA MACHI","town":"KAMIYATSUBAYASHI","perfecture_jp":"埼玉県","jp_add_1":"比企郡川島町","jp_add_2":"上八ツ林"},"3500168":{"post_code":"3500168","prefecture":"SAITAMA KEN","city":"HIKI GUN KAWAJIMA MACHI","town":"KAWAJIMA","perfecture_jp":"埼玉県","jp_add_1":"比企郡川島町","jp_add_2":"かわじま"},"3500163":{"post_code":"3500163","prefecture":"SAITAMA KEN","city":"HIKI GUN KAWAJIMA MACHI","town":"KITASONOBE","perfecture_jp":"埼玉県","jp_add_1":"比企郡川島町","jp_add_2":"北園部"},"3500155":{"post_code":"3500155","prefecture":"SAITAMA KEN","city":"HIKI GUN KAWAJIMA MACHI","town":"KUGINASHI","perfecture_jp":"埼玉県","jp_add_1":"比企郡川島町","jp_add_2":"釘無"},"3500132":{"post_code":"3500132","prefecture":"SAITAMA KEN","city":"HIKI GUN KAWAJIMA MACHI","town":"SHICHIKU","perfecture_jp":"埼玉県","jp_add_1":"比企郡川島町","jp_add_2":"紫竹"},"3500104":{"post_code":"3500104","prefecture":"SAITAMA KEN","city":"HIKI GUN KAWAJIMA MACHI","town":"SHIBANUMA","perfecture_jp":"埼玉県","jp_add_1":"比企郡川島町","jp_add_2":"芝沼"},"3500157":{"post_code":"3500157","prefecture":"SAITAMA KEN","city":"HIKI GUN KAWAJIMA MACHI","town":"SHIMOIGUSA","perfecture_jp":"埼玉県","jp_add_1":"比企郡川島町","jp_add_2":"下伊草"},"3500144":{"post_code":"3500144","prefecture":"SAITAMA KEN","city":"HIKI GUN KAWAJIMA MACHI","town":"SHIMOOYASHIKI","perfecture_jp":"埼玉県","jp_add_1":"比企郡川島町","jp_add_2":"下大屋敷"},"3500102":{"post_code":"3500102","prefecture":"SAITAMA KEN","city":"HIKI GUN KAWAJIMA MACHI","town":"SHIMOMINO","perfecture_jp":"埼玉県","jp_add_1":"比企郡川島町","jp_add_2":"下小見野"},"3500135":{"post_code":"3500135","prefecture":"SAITAMA KEN","city":"HIKI GUN KAWAJIMA MACHI","town":"SHIMOMUJINA","perfecture_jp":"埼玉県","jp_add_1":"比企郡川島町","jp_add_2":"下狢"},"3500122":{"post_code":"3500122","prefecture":"SAITAMA KEN","city":"HIKI GUN KAWAJIMA MACHI","town":"SHIMOYATSUBAYASHI","perfecture_jp":"埼玉県","jp_add_1":"比企郡川島町","jp_add_2":"下八ツ林"},"3500162":{"post_code":"3500162","prefecture":"SAITAMA KEN","city":"HIKI GUN KAWAJIMA MACHI","town":"SHOJIKI","perfecture_jp":"埼玉県","jp_add_1":"比企郡川島町","jp_add_2":"正直"},"3500128":{"post_code":"3500128","prefecture":"SAITAMA KEN","city":"HIKI GUN KAWAJIMA MACHI","town":"SHIROINUMA","perfecture_jp":"埼玉県","jp_add_1":"比企郡川島町","jp_add_2":"白井沼"},"3500141":{"post_code":"3500141","prefecture":"SAITAMA KEN","city":"HIKI GUN KAWAJIMA MACHI","town":"DEMARUSHIMOGO","perfecture_jp":"埼玉県","jp_add_1":"比企郡川島町","jp_add_2":"出丸下郷"},"3500143":{"post_code":"3500143","prefecture":"SAITAMA KEN","city":"HIKI GUN KAWAJIMA MACHI","town":"DEMARUNAKAGO","perfecture_jp":"埼玉県","jp_add_1":"比企郡川島町","jp_add_2":"出丸中郷"},"3500145":{"post_code":"3500145","prefecture":"SAITAMA KEN","city":"HIKI GUN KAWAJIMA MACHI","town":"DEMARUHON","perfecture_jp":"埼玉県","jp_add_1":"比企郡川島町","jp_add_2":"出丸本"},"3500113":{"post_code":"3500113","prefecture":"SAITAMA KEN","city":"HIKI GUN KAWAJIMA MACHI","town":"TOBU","perfecture_jp":"埼玉県","jp_add_1":"比企郡川島町","jp_add_2":"東部"},"3500117":{"post_code":"3500117","prefecture":"SAITAMA KEN","city":"HIKI GUN KAWAJIMA MACHI","town":"TOBAI","perfecture_jp":"埼玉県","jp_add_1":"比企郡川島町","jp_add_2":"鳥羽井"},"3500112":{"post_code":"3500112","prefecture":"SAITAMA KEN","city":"HIKI GUN KAWAJIMA MACHI","town":"TOBAISHINDEN","perfecture_jp":"埼玉県","jp_add_1":"比企郡川島町","jp_add_2":"鳥羽井新田"},"3500166":{"post_code":"3500166","prefecture":"SAITAMA KEN","city":"HIKI GUN KAWAJIMA MACHI","town":"TOMORI","perfecture_jp":"埼玉県","jp_add_1":"比企郡川島町","jp_add_2":"戸守"},"3500165":{"post_code":"3500165","prefecture":"SAITAMA KEN","city":"HIKI GUN KAWAJIMA MACHI","town":"NAKAYAMA","perfecture_jp":"埼玉県","jp_add_1":"比企郡川島町","jp_add_2":"中山"},"3500161":{"post_code":"3500161","prefecture":"SAITAMA KEN","city":"HIKI GUN KAWAJIMA MACHI","town":"NAGARAKU","perfecture_jp":"埼玉県","jp_add_1":"比企郡川島町","jp_add_2":"長楽"},"3500134":{"post_code":"3500134","prefecture":"SAITAMA KEN","city":"HIKI GUN KAWAJIMA MACHI","town":"NIIBORI","perfecture_jp":"埼玉県","jp_add_1":"比企郡川島町","jp_add_2":"新堀"},"3500147":{"post_code":"3500147","prefecture":"SAITAMA KEN","city":"HIKI GUN KAWAJIMA MACHI","town":"NISHIYA","perfecture_jp":"埼玉県","jp_add_1":"比企郡川島町","jp_add_2":"西谷"},"3500123":{"post_code":"3500123","prefecture":"SAITAMA KEN","city":"HIKI GUN KAWAJIMA MACHI","town":"HATANAKA","perfecture_jp":"埼玉県","jp_add_1":"比企郡川島町","jp_add_2":"畑中"},"3500151":{"post_code":"3500151","prefecture":"SAITAMA KEN","city":"HIKI GUN KAWAJIMA MACHI","town":"HACHIMAN","perfecture_jp":"埼玉県","jp_add_1":"比企郡川島町","jp_add_2":"八幡"},"3500114":{"post_code":"3500114","prefecture":"SAITAMA KEN","city":"HIKI GUN KAWAJIMA MACHI","town":"HIGASHIOZUKA","perfecture_jp":"埼玉県","jp_add_1":"比企郡川島町","jp_add_2":"東大塚"},"3500125":{"post_code":"3500125","prefecture":"SAITAMA KEN","city":"HIKI GUN KAWAJIMA MACHI","town":"HIGASHINO","perfecture_jp":"埼玉県","jp_add_1":"比企郡川島町","jp_add_2":"東野"},"3500131":{"post_code":"3500131","prefecture":"SAITAMA KEN","city":"HIKI GUN KAWAJIMA MACHI","town":"HIRANUMA","perfecture_jp":"埼玉県","jp_add_1":"比企郡川島町","jp_add_2":"平沼"},"3500164":{"post_code":"3500164","prefecture":"SAITAMA KEN","city":"HIKI GUN KAWAJIMA MACHI","town":"FUKIZUKA","perfecture_jp":"埼玉県","jp_add_1":"比企郡川島町","jp_add_2":"吹塚"},"3500146":{"post_code":"3500146","prefecture":"SAITAMA KEN","city":"HIKI GUN KAWAJIMA MACHI","town":"MAGESHI","perfecture_jp":"埼玉県","jp_add_1":"比企郡川島町","jp_add_2":"曲師"},"3500103":{"post_code":"3500103","prefecture":"SAITAMA KEN","city":"HIKI GUN KAWAJIMA MACHI","town":"MATSUNAGA","perfecture_jp":"埼玉県","jp_add_1":"比企郡川島町","jp_add_2":"松永"},"3500167":{"post_code":"3500167","prefecture":"SAITAMA KEN","city":"HIKI GUN KAWAJIMA MACHI","town":"MINAMISONOBE","perfecture_jp":"埼玉県","jp_add_1":"比企郡川島町","jp_add_2":"南園部"},"3500124":{"post_code":"3500124","prefecture":"SAITAMA KEN","city":"HIKI GUN KAWAJIMA MACHI","town":"MIHOYAJUKU","perfecture_jp":"埼玉県","jp_add_1":"比企郡川島町","jp_add_2":"三保谷宿"},"3500137":{"post_code":"3500137","prefecture":"SAITAMA KEN","city":"HIKI GUN KAWAJIMA MACHI","town":"MIYAMAE","perfecture_jp":"埼玉県","jp_add_1":"比企郡川島町","jp_add_2":"宮前"},"3500116":{"post_code":"3500116","prefecture":"SAITAMA KEN","city":"HIKI GUN KAWAJIMA MACHI","town":"MUSHIZUKA","perfecture_jp":"埼玉県","jp_add_1":"比企郡川島町","jp_add_2":"虫塚"},"3500154":{"post_code":"3500154","prefecture":"SAITAMA KEN","city":"HIKI GUN KAWAJIMA MACHI","town":"YASUZUKA","perfecture_jp":"埼玉県","jp_add_1":"比企郡川島町","jp_add_2":"安塚"},"3500111":{"post_code":"3500111","prefecture":"SAITAMA KEN","city":"HIKI GUN KAWAJIMA MACHI","town":"YANAKA","perfecture_jp":"埼玉県","jp_add_1":"比企郡川島町","jp_add_2":"谷中"},"3500126":{"post_code":"3500126","prefecture":"SAITAMA KEN","city":"HIKI GUN KAWAJIMA MACHI","town":"YAMAGAYATO","perfecture_jp":"埼玉県","jp_add_1":"比企郡川島町","jp_add_2":"山ケ谷戸"},"3500138":{"post_code":"3500138","prefecture":"SAITAMA KEN","city":"HIKI GUN KAWAJIMA MACHI","town":"YOSHIWARA","perfecture_jp":"埼玉県","jp_add_1":"比企郡川島町","jp_add_2":"吉原"},"3500300":{"post_code":"3500300","prefecture":"SAITAMA KEN","city":"HIKI GUN HATOYAMA MACHI","town":"IKANIKEISAIGANAIBAAI","perfecture_jp":"埼玉県","jp_add_1":"比企郡鳩山町","jp_add_2":""},"3500321":{"post_code":"3500321","prefecture":"SAITAMA KEN","city":"HIKI GUN HATOYAMA MACHI","town":"AKANUMA","perfecture_jp":"埼玉県","jp_add_1":"比企郡鳩山町","jp_add_2":"赤沼"},"3500311":{"post_code":"3500311","prefecture":"SAITAMA KEN","city":"HIKI GUN HATOYAMA MACHI","town":"ISHIZAKA","perfecture_jp":"埼玉県","jp_add_1":"比企郡鳩山町","jp_add_2":"石坂"},"3500305":{"post_code":"3500305","prefecture":"SAITAMA KEN","city":"HIKI GUN HATOYAMA MACHI","town":"IZUI","perfecture_jp":"埼玉県","jp_add_1":"比企郡鳩山町","jp_add_2":"泉井"},"3500322":{"post_code":"3500322","prefecture":"SAITAMA KEN","city":"HIKI GUN HATOYAMA MACHI","town":"IMAJUKU","perfecture_jp":"埼玉県","jp_add_1":"比企郡鳩山町","jp_add_2":"今宿"},"3500302":{"post_code":"3500302","prefecture":"SAITAMA KEN","city":"HIKI GUN HATOYAMA MACHI","town":"OHASHI","perfecture_jp":"埼玉県","jp_add_1":"比企郡鳩山町","jp_add_2":"大橋"},"3500301":{"post_code":"3500301","prefecture":"SAITAMA KEN","city":"HIKI GUN HATOYAMA MACHI","town":"OKUDA","perfecture_jp":"埼玉県","jp_add_1":"比企郡鳩山町","jp_add_2":"奥田"},"3500314":{"post_code":"3500314","prefecture":"SAITAMA KEN","city":"HIKI GUN HATOYAMA MACHI","town":"KAEDEGAOKA","perfecture_jp":"埼玉県","jp_add_1":"比企郡鳩山町","jp_add_2":"楓ケ丘"},"3500303":{"post_code":"3500303","prefecture":"SAITAMA KEN","city":"HIKI GUN HATOYAMA MACHI","town":"KUMAI","perfecture_jp":"埼玉県","jp_add_1":"比企郡鳩山町","jp_add_2":"熊井"},"3500323":{"post_code":"3500323","prefecture":"SAITAMA KEN","city":"HIKI GUN HATOYAMA MACHI","town":"KOYO","perfecture_jp":"埼玉県","jp_add_1":"比企郡鳩山町","jp_add_2":"小用"},"3500307":{"post_code":"3500307","prefecture":"SAITAMA KEN","city":"HIKI GUN HATOYAMA MACHI","town":"SUE","perfecture_jp":"埼玉県","jp_add_1":"比企郡鳩山町","jp_add_2":"須江"},"3500304":{"post_code":"3500304","prefecture":"SAITAMA KEN","city":"HIKI GUN HATOYAMA MACHI","town":"TAKANOKURA","perfecture_jp":"埼玉県","jp_add_1":"比企郡鳩山町","jp_add_2":"高野倉"},"3500306":{"post_code":"3500306","prefecture":"SAITAMA KEN","city":"HIKI GUN HATOYAMA MACHI","town":"TAKEMOTO","perfecture_jp":"埼玉県","jp_add_1":"比企郡鳩山町","jp_add_2":"竹本"},"3500312":{"post_code":"3500312","prefecture":"SAITAMA KEN","city":"HIKI GUN HATOYAMA MACHI","town":"HATOGAOKA","perfecture_jp":"埼玉県","jp_add_1":"比企郡鳩山町","jp_add_2":"鳩ケ丘"},"3500313":{"post_code":"3500313","prefecture":"SAITAMA KEN","city":"HIKI GUN HATOYAMA MACHI","town":"MATSUGAOKA","perfecture_jp":"埼玉県","jp_add_1":"比企郡鳩山町","jp_add_2":"松ケ丘"},"3500324":{"post_code":"3500324","prefecture":"SAITAMA KEN","city":"HIKI GUN HATOYAMA MACHI","town":"MAMEDO","perfecture_jp":"埼玉県","jp_add_1":"比企郡鳩山町","jp_add_2":"大豆戸"}}