{"3510000":{"post_code":"3510000","prefecture":"SAITAMA KEN","city":"ASAKA SHI","town":"IKANIKEISAIGANAIBAAI","perfecture_jp":"埼玉県","jp_add_1":"朝霞市","jp_add_2":""},"3510016":{"post_code":"3510016","prefecture":"SAITAMA KEN","city":"ASAKA SHI","town":"AOBADAI","perfecture_jp":"埼玉県","jp_add_1":"朝霞市","jp_add_2":"青葉台"},"3510035":{"post_code":"3510035","prefecture":"SAITAMA KEN","city":"ASAKA SHI","town":"ASASHIGAOKA","perfecture_jp":"埼玉県","jp_add_1":"朝霞市","jp_add_2":"朝志ケ丘"},"3510007":{"post_code":"3510007","prefecture":"SAITAMA KEN","city":"ASAKA SHI","town":"OKA","perfecture_jp":"埼玉県","jp_add_1":"朝霞市","jp_add_2":"岡"},"3510001":{"post_code":"3510001","prefecture":"SAITAMA KEN","city":"ASAKA SHI","town":"KAMIUCHIMAGI","perfecture_jp":"埼玉県","jp_add_1":"朝霞市","jp_add_2":"上内間木"},"3510036":{"post_code":"3510036","prefecture":"SAITAMA KEN","city":"ASAKA SHI","town":"KITAHARA","perfecture_jp":"埼玉県","jp_add_1":"朝霞市","jp_add_2":"北原"},"3510015":{"post_code":"3510015","prefecture":"SAITAMA KEN","city":"ASAKA SHI","town":"SAIWAICHO","perfecture_jp":"埼玉県","jp_add_1":"朝霞市","jp_add_2":"幸町"},"3510012":{"post_code":"3510012","prefecture":"SAITAMA KEN","city":"ASAKA SHI","town":"SAKAECHO","perfecture_jp":"埼玉県","jp_add_1":"朝霞市","jp_add_2":"栄町"},"3510002":{"post_code":"3510002","prefecture":"SAITAMA KEN","city":"ASAKA SHI","town":"SHIMOCHIMAGI","perfecture_jp":"埼玉県","jp_add_1":"朝霞市","jp_add_2":"下内間木"},"3510024":{"post_code":"3510024","prefecture":"SAITAMA KEN","city":"ASAKA SHI","town":"SENZUI","perfecture_jp":"埼玉県","jp_add_1":"朝霞市","jp_add_2":"泉水"},"3510003":{"post_code":"3510003","prefecture":"SAITAMA KEN","city":"ASAKA SHI","town":"DAI","perfecture_jp":"埼玉県","jp_add_1":"朝霞市","jp_add_2":"台"},"3510032":{"post_code":"3510032","prefecture":"SAITAMA KEN","city":"ASAKA SHI","town":"TAJIMA","perfecture_jp":"埼玉県","jp_add_1":"朝霞市","jp_add_2":"田島"},"3510006":{"post_code":"3510006","prefecture":"SAITAMA KEN","city":"ASAKA SHI","town":"NAKACHO","perfecture_jp":"埼玉県","jp_add_1":"朝霞市","jp_add_2":"仲町"},"3510034":{"post_code":"3510034","prefecture":"SAITAMA KEN","city":"ASAKA SHI","town":"NISHIHARA","perfecture_jp":"埼玉県","jp_add_1":"朝霞市","jp_add_2":"西原"},"3510021":{"post_code":"3510021","prefecture":"SAITAMA KEN","city":"ASAKA SHI","town":"NISHIBENZAI","perfecture_jp":"埼玉県","jp_add_1":"朝霞市","jp_add_2":"西弁財"},"3510004":{"post_code":"3510004","prefecture":"SAITAMA KEN","city":"ASAKA SHI","town":"NEGISHI","perfecture_jp":"埼玉県","jp_add_1":"朝霞市","jp_add_2":"根岸"},"3510005":{"post_code":"3510005","prefecture":"SAITAMA KEN","city":"ASAKA SHI","town":"NEGISHIDAI","perfecture_jp":"埼玉県","jp_add_1":"朝霞市","jp_add_2":"根岸台"},"3510033":{"post_code":"3510033","prefecture":"SAITAMA KEN","city":"ASAKA SHI","town":"HAMASAKI","perfecture_jp":"埼玉県","jp_add_1":"朝霞市","jp_add_2":"浜崎"},"3510022":{"post_code":"3510022","prefecture":"SAITAMA KEN","city":"ASAKA SHI","town":"HIGASHIBENZAI","perfecture_jp":"埼玉県","jp_add_1":"朝霞市","jp_add_2":"東弁財"},"3510013":{"post_code":"3510013","prefecture":"SAITAMA KEN","city":"ASAKA SHI","town":"HIZAORI","perfecture_jp":"埼玉県","jp_add_1":"朝霞市","jp_add_2":"膝折"},"3510014":{"post_code":"3510014","prefecture":"SAITAMA KEN","city":"ASAKA SHI","town":"HIZAORICHO","perfecture_jp":"埼玉県","jp_add_1":"朝霞市","jp_add_2":"膝折町"},"3510011":{"post_code":"3510011","prefecture":"SAITAMA KEN","city":"ASAKA SHI","town":"HONCHO","perfecture_jp":"埼玉県","jp_add_1":"朝霞市","jp_add_2":"本町"},"3510023":{"post_code":"3510023","prefecture":"SAITAMA KEN","city":"ASAKA SHI","town":"MIZONUMA","perfecture_jp":"埼玉県","jp_add_1":"朝霞市","jp_add_2":"溝沼"},"3510025":{"post_code":"3510025","prefecture":"SAITAMA KEN","city":"ASAKA SHI","town":"MIHARA","perfecture_jp":"埼玉県","jp_add_1":"朝霞市","jp_add_2":"三原"},"3510031":{"post_code":"3510031","prefecture":"SAITAMA KEN","city":"ASAKA SHI","town":"MIYADO","perfecture_jp":"埼玉県","jp_add_1":"朝霞市","jp_add_2":"宮戸"},"3510100":{"post_code":"3510100","prefecture":"SAITAMA KEN","city":"WAKO SHI","town":"IKANIKEISAIGANAIBAAI","perfecture_jp":"埼玉県","jp_add_1":"和光市","jp_add_2":""},"3510111":{"post_code":"3510111","prefecture":"SAITAMA KEN","city":"WAKO SHI","town":"SHIMONIIKURA","perfecture_jp":"埼玉県","jp_add_1":"和光市","jp_add_2":"下新倉"},"3510101":{"post_code":"3510101","prefecture":"SAITAMA KEN","city":"WAKO SHI","town":"SHIRAKO","perfecture_jp":"埼玉県","jp_add_1":"和光市","jp_add_2":"白子"},"3510102":{"post_code":"3510102","prefecture":"SAITAMA KEN","city":"WAKO SHI","town":"SUWA","perfecture_jp":"埼玉県","jp_add_1":"和光市","jp_add_2":"諏訪"},"3510103":{"post_code":"3510103","prefecture":"SAITAMA KEN","city":"WAKO SHI","town":"SUWAHARADANCHI","perfecture_jp":"埼玉県","jp_add_1":"和光市","jp_add_2":"諏訪原団地"},"3510113":{"post_code":"3510113","prefecture":"SAITAMA KEN","city":"WAKO SHI","town":"CHUO","perfecture_jp":"埼玉県","jp_add_1":"和光市","jp_add_2":"中央"},"3510115":{"post_code":"3510115","prefecture":"SAITAMA KEN","city":"WAKO SHI","town":"NIIKURA","perfecture_jp":"埼玉県","jp_add_1":"和光市","jp_add_2":"新倉"},"3510105":{"post_code":"3510105","prefecture":"SAITAMA KEN","city":"WAKO SHI","town":"NISHIYAMATODANCHI","perfecture_jp":"埼玉県","jp_add_1":"和光市","jp_add_2":"西大和団地"},"3510106":{"post_code":"3510106","prefecture":"SAITAMA KEN","city":"WAKO SHI","town":"HIROSAWA","perfecture_jp":"埼玉県","jp_add_1":"和光市","jp_add_2":"広沢"},"3510114":{"post_code":"3510114","prefecture":"SAITAMA KEN","city":"WAKO SHI","town":"HONCHO","perfecture_jp":"埼玉県","jp_add_1":"和光市","jp_add_2":"本町"},"3510116":{"post_code":"3510116","prefecture":"SAITAMA KEN","city":"WAKO SHI","town":"MATSUNOKIJIMACHO","perfecture_jp":"埼玉県","jp_add_1":"和光市","jp_add_2":"松ノ木島町"},"3510112":{"post_code":"3510112","prefecture":"SAITAMA KEN","city":"WAKO SHI","town":"MARUYAMADAI","perfecture_jp":"埼玉県","jp_add_1":"和光市","jp_add_2":"丸山台"},"3510104":{"post_code":"3510104","prefecture":"SAITAMA KEN","city":"WAKO SHI","town":"MINAMI","perfecture_jp":"埼玉県","jp_add_1":"和光市","jp_add_2":"南"}}