{"3520000":{"post_code":"3520000","prefecture":"SAITAMA KEN","city":"NIIZA SHI","town":"IKANIKEISAIGANAIBAAI","perfecture_jp":"埼玉県","jp_add_1":"新座市","jp_add_2":""},"3520021":{"post_code":"3520021","prefecture":"SAITAMA KEN","city":"NIIZA SHI","town":"ATAGO","perfecture_jp":"埼玉県","jp_add_1":"新座市","jp_add_2":"あたご"},"3520015":{"post_code":"3520015","prefecture":"SAITAMA KEN","city":"NIIZA SHI","town":"IKEDA","perfecture_jp":"埼玉県","jp_add_1":"新座市","jp_add_2":"池田"},"3520033":{"post_code":"3520033","prefecture":"SAITAMA KEN","city":"NIIZA SHI","town":"ISHIGAMI","perfecture_jp":"埼玉県","jp_add_1":"新座市","jp_add_2":"石神"},"3520004":{"post_code":"3520004","prefecture":"SAITAMA KEN","city":"NIIZA SHI","town":"OWADA","perfecture_jp":"埼玉県","jp_add_1":"新座市","jp_add_2":"大和田"},"3520025":{"post_code":"3520025","prefecture":"SAITAMA KEN","city":"NIIZA SHI","town":"KATAYAMA","perfecture_jp":"埼玉県","jp_add_1":"新座市","jp_add_2":"片山"},"3520003":{"post_code":"3520003","prefecture":"SAITAMA KEN","city":"NIIZA SHI","town":"KITANO","perfecture_jp":"埼玉県","jp_add_1":"新座市","jp_add_2":"北野"},"3520035":{"post_code":"3520035","prefecture":"SAITAMA KEN","city":"NIIZA SHI","town":"KURIHARA","perfecture_jp":"埼玉県","jp_add_1":"新座市","jp_add_2":"栗原"},"3520014":{"post_code":"3520014","prefecture":"SAITAMA KEN","city":"NIIZA SHI","town":"SAKAE","perfecture_jp":"埼玉県","jp_add_1":"新座市","jp_add_2":"栄"},"3520032":{"post_code":"3520032","prefecture":"SAITAMA KEN","city":"NIIZA SHI","town":"SHIMBORI","perfecture_jp":"埼玉県","jp_add_1":"新座市","jp_add_2":"新堀"},"3520017":{"post_code":"3520017","prefecture":"SAITAMA KEN","city":"NIIZA SHI","town":"SUGASAWA","perfecture_jp":"埼玉県","jp_add_1":"新座市","jp_add_2":"菅沢"},"3520024":{"post_code":"3520024","prefecture":"SAITAMA KEN","city":"NIIZA SHI","town":"DOJO","perfecture_jp":"埼玉県","jp_add_1":"新座市","jp_add_2":"道場"},"3520001":{"post_code":"3520001","prefecture":"SAITAMA KEN","city":"NIIZA SHI","town":"TOHOKU","perfecture_jp":"埼玉県","jp_add_1":"新座市","jp_add_2":"東北"},"3520005":{"post_code":"3520005","prefecture":"SAITAMA KEN","city":"NIIZA SHI","town":"NAKANO","perfecture_jp":"埼玉県","jp_add_1":"新座市","jp_add_2":"中野"},"3520006":{"post_code":"3520006","prefecture":"SAITAMA KEN","city":"NIIZA SHI","town":"NIIZA","perfecture_jp":"埼玉県","jp_add_1":"新座市","jp_add_2":"新座"},"3520013":{"post_code":"3520013","prefecture":"SAITAMA KEN","city":"NIIZA SHI","town":"NIIZUKA","perfecture_jp":"埼玉県","jp_add_1":"新座市","jp_add_2":"新塚"},"3520031":{"post_code":"3520031","prefecture":"SAITAMA KEN","city":"NIIZA SHI","town":"NISHIBORI","perfecture_jp":"埼玉県","jp_add_1":"新座市","jp_add_2":"西堀"},"3520034":{"post_code":"3520034","prefecture":"SAITAMA KEN","city":"NIIZA SHI","town":"NODERA","perfecture_jp":"埼玉県","jp_add_1":"新座市","jp_add_2":"野寺"},"3520011":{"post_code":"3520011","prefecture":"SAITAMA KEN","city":"NIIZA SHI","town":"NOBITOME","perfecture_jp":"埼玉県","jp_add_1":"新座市","jp_add_2":"野火止"},"3520012":{"post_code":"3520012","prefecture":"SAITAMA KEN","city":"NIIZA SHI","town":"HATANAKA","perfecture_jp":"埼玉県","jp_add_1":"新座市","jp_add_2":"畑中"},"3520016":{"post_code":"3520016","prefecture":"SAITAMA KEN","city":"NIIZA SHI","town":"BABA","perfecture_jp":"埼玉県","jp_add_1":"新座市","jp_add_2":"馬場"},"3520002":{"post_code":"3520002","prefecture":"SAITAMA KEN","city":"NIIZA SHI","town":"HIGASHI","perfecture_jp":"埼玉県","jp_add_1":"新座市","jp_add_2":"東"},"3520023":{"post_code":"3520023","prefecture":"SAITAMA KEN","city":"NIIZA SHI","town":"HORINOCHI","perfecture_jp":"埼玉県","jp_add_1":"新座市","jp_add_2":"堀ノ内"},"3520022":{"post_code":"3520022","prefecture":"SAITAMA KEN","city":"NIIZA SHI","town":"HONDA","perfecture_jp":"埼玉県","jp_add_1":"新座市","jp_add_2":"本多"}}