{"3530000":{"post_code":"3530000","prefecture":"SAITAMA KEN","city":"SHIKI SHI","town":"IKANIKEISAIGANAIBAAI","perfecture_jp":"埼玉県","jp_add_1":"志木市","jp_add_2":""},"3530007":{"post_code":"3530007","prefecture":"SAITAMA KEN","city":"SHIKI SHI","town":"KASHIWACHO","perfecture_jp":"埼玉県","jp_add_1":"志木市","jp_add_2":"柏町"},"3530001":{"post_code":"3530001","prefecture":"SAITAMA KEN","city":"SHIKI SHI","town":"KAMIMUNEOKA","perfecture_jp":"埼玉県","jp_add_1":"志木市","jp_add_2":"上宗岡"},"3530005":{"post_code":"3530005","prefecture":"SAITAMA KEN","city":"SHIKI SHI","town":"SAIWAICHO","perfecture_jp":"埼玉県","jp_add_1":"志木市","jp_add_2":"幸町"},"3530003":{"post_code":"3530003","prefecture":"SAITAMA KEN","city":"SHIKI SHI","town":"SHIMOMUNEOKA","perfecture_jp":"埼玉県","jp_add_1":"志木市","jp_add_2":"下宗岡"},"3530006":{"post_code":"3530006","prefecture":"SAITAMA KEN","city":"SHIKI SHI","town":"TATE","perfecture_jp":"埼玉県","jp_add_1":"志木市","jp_add_2":"館"},"3530002":{"post_code":"3530002","prefecture":"SAITAMA KEN","city":"SHIKI SHI","town":"NAKAMUNEOKA","perfecture_jp":"埼玉県","jp_add_1":"志木市","jp_add_2":"中宗岡"},"3530004":{"post_code":"3530004","prefecture":"SAITAMA KEN","city":"SHIKI SHI","town":"HONCHO","perfecture_jp":"埼玉県","jp_add_1":"志木市","jp_add_2":"本町"},"3530008":{"post_code":"3530008","prefecture":"SAITAMA KEN","city":"SHIKI SHI","town":"MUNEOKA","perfecture_jp":"埼玉県","jp_add_1":"志木市","jp_add_2":"宗岡"}}