{"3550000":{"post_code":"3550000","prefecture":"SAITAMA KEN","city":"HIGASHIMATSUYAMA SHI","town":"IKANIKEISAIGANAIBAAI","perfecture_jp":"埼玉県","jp_add_1":"東松山市","jp_add_2":""},"3550048":{"post_code":"3550048","prefecture":"SAITAMA KEN","city":"HIGASHIMATSUYAMA SHI","town":"AZUMACHO","perfecture_jp":"埼玉県","jp_add_1":"東松山市","jp_add_2":"あずま町"},"3550072":{"post_code":"3550072","prefecture":"SAITAMA KEN","city":"HIGASHIMATSUYAMA SHI","town":"ISHIBASHI","perfecture_jp":"埼玉県","jp_add_1":"東松山市","jp_add_2":"石橋"},"3550026":{"post_code":"3550026","prefecture":"SAITAMA KEN","city":"HIGASHIMATSUYAMA SHI","town":"IZUMICHO","perfecture_jp":"埼玉県","jp_add_1":"東松山市","jp_add_2":"和泉町"},"3550006":{"post_code":"3550006","prefecture":"SAITAMA KEN","city":"HIGASHIMATSUYAMA SHI","town":"ICHINOKAWA","perfecture_jp":"埼玉県","jp_add_1":"東松山市","jp_add_2":"市ノ川"},"3550042":{"post_code":"3550042","prefecture":"SAITAMA KEN","city":"HIGASHIMATSUYAMA SHI","town":"IMAIZUMI","perfecture_jp":"埼玉県","jp_add_1":"東松山市","jp_add_2":"今泉"},"3550065":{"post_code":"3550065","prefecture":"SAITAMA KEN","city":"HIGASHIMATSUYAMA SHI","town":"IWADONO","perfecture_jp":"埼玉県","jp_add_1":"東松山市","jp_add_2":"岩殿"},"3550046":{"post_code":"3550046","prefecture":"SAITAMA KEN","city":"HIGASHIMATSUYAMA SHI","town":"OKUROBE","perfecture_jp":"埼玉県","jp_add_1":"東松山市","jp_add_2":"大黒部"},"3550008":{"post_code":"3550008","prefecture":"SAITAMA KEN","city":"HIGASHIMATSUYAMA SHI","town":"OYA","perfecture_jp":"埼玉県","jp_add_1":"東松山市","jp_add_2":"大谷"},"3550001":{"post_code":"3550001","prefecture":"SAITAMA KEN","city":"HIGASHIMATSUYAMA SHI","town":"OKA","perfecture_jp":"埼玉県","jp_add_1":"東松山市","jp_add_2":"岡"},"3550022":{"post_code":"3550022","prefecture":"SAITAMA KEN","city":"HIGASHIMATSUYAMA SHI","town":"OCHAYAMACHO","perfecture_jp":"埼玉県","jp_add_1":"東松山市","jp_add_2":"御茶山町"},"3550034":{"post_code":"3550034","prefecture":"SAITAMA KEN","city":"HIGASHIMATSUYAMA SHI","town":"KASHIWAZAKI","perfecture_jp":"埼玉県","jp_add_1":"東松山市","jp_add_2":"柏崎"},"3550074":{"post_code":"3550074","prefecture":"SAITAMA KEN","city":"HIGASHIMATSUYAMA SHI","town":"KAMIOSHIDARI","perfecture_jp":"埼玉県","jp_add_1":"東松山市","jp_add_2":"上押垂"},"3550077":{"post_code":"3550077","prefecture":"SAITAMA KEN","city":"HIGASHIMATSUYAMA SHI","town":"KAMIGARAKO","perfecture_jp":"埼玉県","jp_add_1":"東松山市","jp_add_2":"上唐子"},"3550011":{"post_code":"3550011","prefecture":"SAITAMA KEN","city":"HIGASHIMATSUYAMA SHI","town":"KAMICHO","perfecture_jp":"埼玉県","jp_add_1":"東松山市","jp_add_2":"加美町"},"3550073":{"post_code":"3550073","prefecture":"SAITAMA KEN","city":"HIGASHIMATSUYAMA SHI","town":"KAMINOMOTO","perfecture_jp":"埼玉県","jp_add_1":"東松山市","jp_add_2":"上野本"},"3550061":{"post_code":"3550061","prefecture":"SAITAMA KEN","city":"HIGASHIMATSUYAMA SHI","town":"KUZUBUKURO","perfecture_jp":"埼玉県","jp_add_1":"東松山市","jp_add_2":"葛袋"},"3550064":{"post_code":"3550064","prefecture":"SAITAMA KEN","city":"HIGASHIMATSUYAMA SHI","town":"KETSUKA","perfecture_jp":"埼玉県","jp_add_1":"東松山市","jp_add_2":"毛塚"},"3550066":{"post_code":"3550066","prefecture":"SAITAMA KEN","city":"HIGASHIMATSUYAMA SHI","town":"GODO","perfecture_jp":"埼玉県","jp_add_1":"東松山市","jp_add_2":"神戸"},"3550031":{"post_code":"3550031","prefecture":"SAITAMA KEN","city":"HIGASHIMATSUYAMA SHI","town":"GORYOCHO","perfecture_jp":"埼玉県","jp_add_1":"東松山市","jp_add_2":"五領町"},"3550013":{"post_code":"3550013","prefecture":"SAITAMA KEN","city":"HIGASHIMATSUYAMA SHI","town":"KOMATSUBARACHO","perfecture_jp":"埼玉県","jp_add_1":"東松山市","jp_add_2":"小松原町"},"3550016":{"post_code":"3550016","prefecture":"SAITAMA KEN","city":"HIGASHIMATSUYAMA SHI","town":"ZAIMOKUCHO","perfecture_jp":"埼玉県","jp_add_1":"東松山市","jp_add_2":"材木町"},"3550025":{"post_code":"3550025","prefecture":"SAITAMA KEN","city":"HIGASHIMATSUYAMA SHI","town":"SAIWAICHO","perfecture_jp":"埼玉県","jp_add_1":"東松山市","jp_add_2":"幸町"},"3550052":{"post_code":"3550052","prefecture":"SAITAMA KEN","city":"HIGASHIMATSUYAMA SHI","town":"SAKURAYAMADAI","perfecture_jp":"埼玉県","jp_add_1":"東松山市","jp_add_2":"桜山台"},"3550004":{"post_code":"3550004","prefecture":"SAITAMA KEN","city":"HIGASHIMATSUYAMA SHI","town":"SAWAGUCHICHO","perfecture_jp":"埼玉県","jp_add_1":"東松山市","jp_add_2":"沢口町"},"3550075":{"post_code":"3550075","prefecture":"SAITAMA KEN","city":"HIGASHIMATSUYAMA SHI","town":"SHIMOODORI","perfecture_jp":"埼玉県","jp_add_1":"東松山市","jp_add_2":"下青鳥"},"3550041":{"post_code":"3550041","prefecture":"SAITAMA KEN","city":"HIGASHIMATSUYAMA SHI","town":"SHIMOSHIDARI","perfecture_jp":"埼玉県","jp_add_1":"東松山市","jp_add_2":"下押垂"},"3550076":{"post_code":"3550076","prefecture":"SAITAMA KEN","city":"HIGASHIMATSUYAMA SHI","town":"SHIMOGARAKO","perfecture_jp":"埼玉県","jp_add_1":"東松山市","jp_add_2":"下唐子"},"3550036":{"post_code":"3550036","prefecture":"SAITAMA KEN","city":"HIGASHIMATSUYAMA SHI","town":"SHIMONOMOTO","perfecture_jp":"埼玉県","jp_add_1":"東松山市","jp_add_2":"下野本"},"3550044":{"post_code":"3550044","prefecture":"SAITAMA KEN","city":"HIGASHIMATSUYAMA SHI","town":"SHODAI","perfecture_jp":"埼玉県","jp_add_1":"東松山市","jp_add_2":"正代"},"3550071":{"post_code":"3550071","prefecture":"SAITAMA KEN","city":"HIGASHIMATSUYAMA SHI","town":"SHINGO","perfecture_jp":"埼玉県","jp_add_1":"東松山市","jp_add_2":"新郷"},"3550032":{"post_code":"3550032","prefecture":"SAITAMA KEN","city":"HIGASHIMATSUYAMA SHI","town":"SHINJUKUCHO","perfecture_jp":"埼玉県","jp_add_1":"東松山市","jp_add_2":"新宿町"},"3550021":{"post_code":"3550021","prefecture":"SAITAMA KEN","city":"HIGASHIMATSUYAMA SHI","town":"SHIMMEICHO","perfecture_jp":"埼玉県","jp_add_1":"東松山市","jp_add_2":"神明町"},"3550019":{"post_code":"3550019","prefecture":"SAITAMA KEN","city":"HIGASHIMATSUYAMA SHI","town":"SUNADACHO","perfecture_jp":"埼玉県","jp_add_1":"東松山市","jp_add_2":"砂田町"},"3550047":{"post_code":"3550047","prefecture":"SAITAMA KEN","city":"HIGASHIMATSUYAMA SHI","town":"TAKASAKA","perfecture_jp":"埼玉県","jp_add_1":"東松山市","jp_add_2":"高坂"},"3550053":{"post_code":"3550053","prefecture":"SAITAMA KEN","city":"HIGASHIMATSUYAMA SHI","town":"TAGI","perfecture_jp":"埼玉県","jp_add_1":"東松山市","jp_add_2":"田木"},"3550003":{"post_code":"3550003","prefecture":"SAITAMA KEN","city":"HIGASHIMATSUYAMA SHI","town":"TONOYAMACHO","perfecture_jp":"埼玉県","jp_add_1":"東松山市","jp_add_2":"殿山町"},"3550062":{"post_code":"3550062","prefecture":"SAITAMA KEN","city":"HIGASHIMATSUYAMA SHI","town":"NISHIMOTOJUKU","perfecture_jp":"埼玉県","jp_add_1":"東松山市","jp_add_2":"西本宿"},"3550007":{"post_code":"3550007","prefecture":"SAITAMA KEN","city":"HIGASHIMATSUYAMA SHI","town":"NODA","perfecture_jp":"埼玉県","jp_add_1":"東松山市","jp_add_2":"野田"},"3550051":{"post_code":"3550051","prefecture":"SAITAMA KEN","city":"HIGASHIMATSUYAMA SHI","town":"HAKUSANDAI","perfecture_jp":"埼玉県","jp_add_1":"東松山市","jp_add_2":"白山台"},"3550054":{"post_code":"3550054","prefecture":"SAITAMA KEN","city":"HIGASHIMATSUYAMA SHI","town":"HATATATEDAI","perfecture_jp":"埼玉県","jp_add_1":"東松山市","jp_add_2":"旗立台"},"3550043":{"post_code":"3550043","prefecture":"SAITAMA KEN","city":"HIGASHIMATSUYAMA SHI","town":"HAYAMATA","perfecture_jp":"埼玉県","jp_add_1":"東松山市","jp_add_2":"早俣"},"3550067":{"post_code":"3550067","prefecture":"SAITAMA KEN","city":"HIGASHIMATSUYAMA SHI","town":"BANDOYAMA","perfecture_jp":"埼玉県","jp_add_1":"東松山市","jp_add_2":"坂東山"},"3550002":{"post_code":"3550002","prefecture":"SAITAMA KEN","city":"HIGASHIMATSUYAMA SHI","town":"HIGASHIDAIRA","perfecture_jp":"埼玉県","jp_add_1":"東松山市","jp_add_2":"東平"},"3550012":{"post_code":"3550012","prefecture":"SAITAMA KEN","city":"HIGASHIMATSUYAMA SHI","town":"HIYOSHICHO","perfecture_jp":"埼玉県","jp_add_1":"東松山市","jp_add_2":"日吉町"},"3550035":{"post_code":"3550035","prefecture":"SAITAMA KEN","city":"HIGASHIMATSUYAMA SHI","town":"FURUKORI","perfecture_jp":"埼玉県","jp_add_1":"東松山市","jp_add_2":"古凍"},"3550015":{"post_code":"3550015","prefecture":"SAITAMA KEN","city":"HIGASHIMATSUYAMA SHI","town":"HONCHO","perfecture_jp":"埼玉県","jp_add_1":"東松山市","jp_add_2":"本町"},"3550055":{"post_code":"3550055","prefecture":"SAITAMA KEN","city":"HIGASHIMATSUYAMA SHI","town":"MATSUKAZEDAI","perfecture_jp":"埼玉県","jp_add_1":"東松山市","jp_add_2":"松風台"},"3550017":{"post_code":"3550017","prefecture":"SAITAMA KEN","city":"HIGASHIMATSUYAMA SHI","town":"MATSUBACHO","perfecture_jp":"埼玉県","jp_add_1":"東松山市","jp_add_2":"松葉町"},"3550014":{"post_code":"3550014","prefecture":"SAITAMA KEN","city":"HIGASHIMATSUYAMA SHI","town":"MATSUMOTOCHO","perfecture_jp":"埼玉県","jp_add_1":"東松山市","jp_add_2":"松本町"},"3550005":{"post_code":"3550005","prefecture":"SAITAMA KEN","city":"HIGASHIMATSUYAMA SHI","town":"MATSUYAMA","perfecture_jp":"埼玉県","jp_add_1":"東松山市","jp_add_2":"松山"},"3550018":{"post_code":"3550018","prefecture":"SAITAMA KEN","city":"HIGASHIMATSUYAMA SHI","town":"MATSUYAMACHO","perfecture_jp":"埼玉県","jp_add_1":"東松山市","jp_add_2":"松山町"},"3550027":{"post_code":"3550027","prefecture":"SAITAMA KEN","city":"HIGASHIMATSUYAMA SHI","town":"MIDORICHO","perfecture_jp":"埼玉県","jp_add_1":"東松山市","jp_add_2":"美土里町"},"3550045":{"post_code":"3550045","prefecture":"SAITAMA KEN","city":"HIGASHIMATSUYAMA SHI","town":"MIYAHANA","perfecture_jp":"埼玉県","jp_add_1":"東松山市","jp_add_2":"宮鼻"},"3550063":{"post_code":"3550063","prefecture":"SAITAMA KEN","city":"HIGASHIMATSUYAMA SHI","town":"MOTOJUKU","perfecture_jp":"埼玉県","jp_add_1":"東松山市","jp_add_2":"元宿"},"3550028":{"post_code":"3550028","prefecture":"SAITAMA KEN","city":"HIGASHIMATSUYAMA SHI","town":"YAKYUCHO","perfecture_jp":"埼玉県","jp_add_1":"東松山市","jp_add_2":"箭弓町"},"3550033":{"post_code":"3550033","prefecture":"SAITAMA KEN","city":"HIGASHIMATSUYAMA SHI","town":"YAMAZAKICHO","perfecture_jp":"埼玉県","jp_add_1":"東松山市","jp_add_2":"山崎町"},"3550023":{"post_code":"3550023","prefecture":"SAITAMA KEN","city":"HIGASHIMATSUYAMA SHI","town":"ROKUTANCHO","perfecture_jp":"埼玉県","jp_add_1":"東松山市","jp_add_2":"六反町"},"3550024":{"post_code":"3550024","prefecture":"SAITAMA KEN","city":"HIGASHIMATSUYAMA SHI","town":"ROKKENCHO","perfecture_jp":"埼玉県","jp_add_1":"東松山市","jp_add_2":"六軒町"},"3550037":{"post_code":"3550037","prefecture":"SAITAMA KEN","city":"HIGASHIMATSUYAMA SHI","town":"WAKAMATSUCHO","perfecture_jp":"埼玉県","jp_add_1":"東松山市","jp_add_2":"若松町"},"3550800":{"post_code":"3550800","prefecture":"SAITAMA KEN","city":"HIKI GUN NAMEGAWA MACHI","town":"IKANIKEISAIGANAIBAAI","perfecture_jp":"埼玉県","jp_add_1":"比企郡滑川町","jp_add_2":""},"3550806":{"post_code":"3550806","prefecture":"SAITAMA KEN","city":"HIKI GUN NAMEGAWA MACHI","town":"IKO","perfecture_jp":"埼玉県","jp_add_1":"比企郡滑川町","jp_add_2":"伊古"},"3550807":{"post_code":"3550807","prefecture":"SAITAMA KEN","city":"HIKI GUN NAMEGAWA MACHI","town":"IZUMI","perfecture_jp":"埼玉県","jp_add_1":"比企郡滑川町","jp_add_2":"和泉"},"3550808":{"post_code":"3550808","prefecture":"SAITAMA KEN","city":"HIKI GUN NAMEGAWA MACHI","town":"SUGADA","perfecture_jp":"埼玉県","jp_add_1":"比企郡滑川町","jp_add_2":"菅田"},"3550813":{"post_code":"3550813","prefecture":"SAITAMA KEN","city":"HIKI GUN NAMEGAWA MACHI","town":"TSUKINOWA","perfecture_jp":"埼玉県","jp_add_1":"比企郡滑川町","jp_add_2":"月輪"},"3550815":{"post_code":"3550815","prefecture":"SAITAMA KEN","city":"HIKI GUN NAMEGAWA MACHI","town":"TSUKINOWA","perfecture_jp":"埼玉県","jp_add_1":"比企郡滑川町","jp_add_2":"月の輪"},"3550801":{"post_code":"3550801","prefecture":"SAITAMA KEN","city":"HIKI GUN NAMEGAWA MACHI","town":"TSUCHISHIO","perfecture_jp":"埼玉県","jp_add_1":"比企郡滑川町","jp_add_2":"土塩"},"3550804":{"post_code":"3550804","prefecture":"SAITAMA KEN","city":"HIKI GUN NAMEGAWA MACHI","town":"NAKAO","perfecture_jp":"埼玉県","jp_add_1":"比企郡滑川町","jp_add_2":"中尾"},"3550811":{"post_code":"3550811","prefecture":"SAITAMA KEN","city":"HIKI GUN NAMEGAWA MACHI","town":"HANEO","perfecture_jp":"埼玉県","jp_add_1":"比企郡滑川町","jp_add_2":"羽尾"},"3550803":{"post_code":"3550803","prefecture":"SAITAMA KEN","city":"HIKI GUN NAMEGAWA MACHI","town":"FUKUDA","perfecture_jp":"埼玉県","jp_add_1":"比企郡滑川町","jp_add_2":"福田"},"3550805":{"post_code":"3550805","prefecture":"SAITAMA KEN","city":"HIKI GUN NAMEGAWA MACHI","town":"MIZUFUSA","perfecture_jp":"埼玉県","jp_add_1":"比企郡滑川町","jp_add_2":"水房"},"3550814":{"post_code":"3550814","prefecture":"SAITAMA KEN","city":"HIKI GUN NAMEGAWA MACHI","town":"MINAMINO","perfecture_jp":"埼玉県","jp_add_1":"比企郡滑川町","jp_add_2":"みなみ野"},"3550812":{"post_code":"3550812","prefecture":"SAITAMA KEN","city":"HIKI GUN NAMEGAWA MACHI","town":"MIYAKO","perfecture_jp":"埼玉県","jp_add_1":"比企郡滑川町","jp_add_2":"都"},"3550802":{"post_code":"3550802","prefecture":"SAITAMA KEN","city":"HIKI GUN NAMEGAWA MACHI","town":"YAMATA","perfecture_jp":"埼玉県","jp_add_1":"比企郡滑川町","jp_add_2":"山田"},"3550200":{"post_code":"3550200","prefecture":"SAITAMA KEN","city":"HIKI GUN RANZAN MACHI","town":"IKANIKEISAIGANAIBAAI","perfecture_jp":"埼玉県","jp_add_1":"比企郡嵐山町","jp_add_2":""},"3550222":{"post_code":"3550222","prefecture":"SAITAMA KEN","city":"HIKI GUN RANZAN MACHI","town":"OKURA","perfecture_jp":"埼玉県","jp_add_1":"比企郡嵐山町","jp_add_2":"大蔵"},"3550206":{"post_code":"3550206","prefecture":"SAITAMA KEN","city":"HIKI GUN RANZAN MACHI","town":"OTSUBATA","perfecture_jp":"埼玉県","jp_add_1":"比企郡嵐山町","jp_add_2":"越畑"},"3550203":{"post_code":"3550203","prefecture":"SAITAMA KEN","city":"HIKI GUN RANZAN MACHI","town":"KACHIDA","perfecture_jp":"埼玉県","jp_add_1":"比企郡嵐山町","jp_add_2":"勝田"},"3550225":{"post_code":"3550225","prefecture":"SAITAMA KEN","city":"HIKI GUN RANZAN MACHI","town":"KAMAGATA","perfecture_jp":"埼玉県","jp_add_1":"比企郡嵐山町","jp_add_2":"鎌形"},"3550213":{"post_code":"3550213","prefecture":"SAITAMA KEN","city":"HIKI GUN RANZAN MACHI","town":"KAWASHIMA","perfecture_jp":"埼玉県","jp_add_1":"比企郡嵐山町","jp_add_2":"川島"},"3550214":{"post_code":"3550214","prefecture":"SAITAMA KEN","city":"HIKI GUN RANZAN MACHI","town":"SHIGA","perfecture_jp":"埼玉県","jp_add_1":"比企郡嵐山町","jp_add_2":"志賀"},"3550224":{"post_code":"3550224","prefecture":"SAITAMA KEN","city":"HIKI GUN RANZAN MACHI","town":"SHOGUNSAWA","perfecture_jp":"埼玉県","jp_add_1":"比企郡嵐山町","jp_add_2":"将軍沢"},"3550221":{"post_code":"3550221","prefecture":"SAITAMA KEN","city":"HIKI GUN RANZAN MACHI","town":"SUGAYA","perfecture_jp":"埼玉県","jp_add_1":"比企郡嵐山町","jp_add_2":"菅谷"},"3550211":{"post_code":"3550211","prefecture":"SAITAMA KEN","city":"HIKI GUN RANZAN MACHI","town":"SUGIYAMA","perfecture_jp":"埼玉県","jp_add_1":"比企郡嵐山町","jp_add_2":"杉山"},"3550227":{"post_code":"3550227","prefecture":"SAITAMA KEN","city":"HIKI GUN RANZAN MACHI","town":"SENJUDO","perfecture_jp":"埼玉県","jp_add_1":"比企郡嵐山町","jp_add_2":"千手堂"},"3550212":{"post_code":"3550212","prefecture":"SAITAMA KEN","city":"HIKI GUN RANZAN MACHI","town":"TAROMARU","perfecture_jp":"埼玉県","jp_add_1":"比企郡嵐山町","jp_add_2":"太郎丸"},"3550226":{"post_code":"3550226","prefecture":"SAITAMA KEN","city":"HIKI GUN RANZAN MACHI","town":"TOYAMA","perfecture_jp":"埼玉県","jp_add_1":"比企郡嵐山町","jp_add_2":"遠山"},"3550223":{"post_code":"3550223","prefecture":"SAITAMA KEN","city":"HIKI GUN RANZAN MACHI","town":"NEGISHI","perfecture_jp":"埼玉県","jp_add_1":"比企郡嵐山町","jp_add_2":"根岸"},"3550204":{"post_code":"3550204","prefecture":"SAITAMA KEN","city":"HIKI GUN RANZAN MACHI","town":"HANAMIDAI","perfecture_jp":"埼玉県","jp_add_1":"比企郡嵐山町","jp_add_2":"花見台"},"3550215":{"post_code":"3550215","prefecture":"SAITAMA KEN","city":"HIKI GUN RANZAN MACHI","town":"HIRASAWA","perfecture_jp":"埼玉県","jp_add_1":"比企郡嵐山町","jp_add_2":"平沢"},"3550205":{"post_code":"3550205","prefecture":"SAITAMA KEN","city":"HIKI GUN RANZAN MACHI","town":"HIRONO","perfecture_jp":"埼玉県","jp_add_1":"比企郡嵐山町","jp_add_2":"広野"},"3550201":{"post_code":"3550201","prefecture":"SAITAMA KEN","city":"HIKI GUN RANZAN MACHI","town":"FURUSATO","perfecture_jp":"埼玉県","jp_add_1":"比企郡嵐山町","jp_add_2":"古里"},"3550216":{"post_code":"3550216","prefecture":"SAITAMA KEN","city":"HIKI GUN RANZAN MACHI","town":"MUSASHIDAI","perfecture_jp":"埼玉県","jp_add_1":"比企郡嵐山町","jp_add_2":"むさし台"},"3550202":{"post_code":"3550202","prefecture":"SAITAMA KEN","city":"HIKI GUN RANZAN MACHI","town":"YOSHIDA","perfecture_jp":"埼玉県","jp_add_1":"比企郡嵐山町","jp_add_2":"吉田"},"3550300":{"post_code":"3550300","prefecture":"SAITAMA KEN","city":"CHICHIBU GUN HIGASHICHICHIBU MURA","town":"IKANIKEISAIGANAIBAAI","perfecture_jp":"埼玉県","jp_add_1":"比企郡小川町","jp_add_2":""},"3550324":{"post_code":"3550324","prefecture":"SAITAMA KEN","city":"HIKI GUN OGAWA MACHI","town":"AOYAMA","perfecture_jp":"埼玉県","jp_add_1":"比企郡小川町","jp_add_2":"青山"},"3550333":{"post_code":"3550333","prefecture":"SAITAMA KEN","city":"HIKI GUN OGAWA MACHI","town":"IIDA","perfecture_jp":"埼玉県","jp_add_1":"比企郡小川町","jp_add_2":"飯田"},"3550304":{"post_code":"3550304","prefecture":"SAITAMA KEN","city":"HIKI GUN OGAWA MACHI","town":"ISENE","perfecture_jp":"埼玉県","jp_add_1":"比企郡小川町","jp_add_2":"伊勢根"},"3550328":{"post_code":"3550328","prefecture":"SAITAMA KEN","city":"HIKI GUN OGAWA MACHI","town":"OTSUKA","perfecture_jp":"埼玉県","jp_add_1":"比企郡小川町","jp_add_2":"大塚"},"3550321":{"post_code":"3550321","prefecture":"SAITAMA KEN","city":"HIKI GUN OGAWA MACHI","town":"OGAWA","perfecture_jp":"埼玉県","jp_add_1":"比企郡小川町","jp_add_2":"小川"},"3550316":{"post_code":"3550316","prefecture":"SAITAMA KEN","city":"HIKI GUN OGAWA MACHI","town":"KAKUYAMA","perfecture_jp":"埼玉県","jp_add_1":"比企郡小川町","jp_add_2":"角山"},"3550334":{"post_code":"3550334","prefecture":"SAITAMA KEN","city":"HIKI GUN OGAWA MACHI","town":"KASAHARA","perfecture_jp":"埼玉県","jp_add_1":"比企郡小川町","jp_add_2":"笠原"},"3550325":{"post_code":"3550325","prefecture":"SAITAMA KEN","city":"HIKI GUN OGAWA MACHI","town":"KAMIFURUTERA","perfecture_jp":"埼玉県","jp_add_1":"比企郡小川町","jp_add_2":"上古寺"},"3550312":{"post_code":"3550312","prefecture":"SAITAMA KEN","city":"HIKI GUN OGAWA MACHI","town":"KAMIYOKOTA","perfecture_jp":"埼玉県","jp_add_1":"比企郡小川町","jp_add_2":"上横田"},"3550335":{"post_code":"3550335","prefecture":"SAITAMA KEN","city":"HIKI GUN OGAWA MACHI","town":"KIBE","perfecture_jp":"埼玉県","jp_add_1":"比企郡小川町","jp_add_2":"木部"},"3550337":{"post_code":"3550337","prefecture":"SAITAMA KEN","city":"HIKI GUN OGAWA MACHI","town":"KIROKO","perfecture_jp":"埼玉県","jp_add_1":"比企郡小川町","jp_add_2":"木呂子"},"3550311":{"post_code":"3550311","prefecture":"SAITAMA KEN","city":"HIKI GUN OGAWA MACHI","town":"KOYA","perfecture_jp":"埼玉県","jp_add_1":"比企郡小川町","jp_add_2":"高谷"},"3550327":{"post_code":"3550327","prefecture":"SAITAMA KEN","city":"HIKI GUN OGAWA MACHI","town":"KOSHIGOE","perfecture_jp":"埼玉県","jp_add_1":"比企郡小川町","jp_add_2":"腰越"},"3550323":{"post_code":"3550323","prefecture":"SAITAMA KEN","city":"HIKI GUN OGAWA MACHI","town":"SHIMOZATO","perfecture_jp":"埼玉県","jp_add_1":"比企郡小川町","jp_add_2":"下里"},"3550326":{"post_code":"3550326","prefecture":"SAITAMA KEN","city":"HIKI GUN OGAWA MACHI","town":"SHIMOFURUTERA","perfecture_jp":"埼玉県","jp_add_1":"比企郡小川町","jp_add_2":"下古寺"},"3550313":{"post_code":"3550313","prefecture":"SAITAMA KEN","city":"HIKI GUN OGAWA MACHI","town":"SHIMOYOKOTA","perfecture_jp":"埼玉県","jp_add_1":"比企郡小川町","jp_add_2":"下横田"},"3550336":{"post_code":"3550336","prefecture":"SAITAMA KEN","city":"HIKI GUN OGAWA MACHI","town":"SUGURO","perfecture_jp":"埼玉県","jp_add_1":"比企郡小川町","jp_add_2":"勝呂"},"3550302":{"post_code":"3550302","prefecture":"SAITAMA KEN","city":"HIKI GUN OGAWA MACHI","town":"TAKANOSU","perfecture_jp":"埼玉県","jp_add_1":"比企郡小川町","jp_add_2":"鷹巣"},"3550306":{"post_code":"3550306","prefecture":"SAITAMA KEN","city":"HIKI GUN OGAWA MACHI","town":"TAKAMI","perfecture_jp":"埼玉県","jp_add_1":"比企郡小川町","jp_add_2":"高見"},"3550314":{"post_code":"3550314","prefecture":"SAITAMA KEN","city":"HIKI GUN OGAWA MACHI","town":"NAKATSUME","perfecture_jp":"埼玉県","jp_add_1":"比企郡小川町","jp_add_2":"中爪"},"3550303":{"post_code":"3550303","prefecture":"SAITAMA KEN","city":"HIKI GUN OGAWA MACHI","town":"NARANASHI","perfecture_jp":"埼玉県","jp_add_1":"比企郡小川町","jp_add_2":"奈良梨"},"3550301":{"post_code":"3550301","prefecture":"SAITAMA KEN","city":"HIKI GUN OGAWA MACHI","town":"NISHIFURUSATO","perfecture_jp":"埼玉県","jp_add_1":"比企郡小川町","jp_add_2":"西古里"},"3550305":{"post_code":"3550305","prefecture":"SAITAMA KEN","city":"HIKI GUN OGAWA MACHI","town":"NOMASU","perfecture_jp":"埼玉県","jp_add_1":"比企郡小川町","jp_add_2":"能増"},"3550317":{"post_code":"3550317","prefecture":"SAITAMA KEN","city":"HIKI GUN OGAWA MACHI","town":"HARAGAWA","perfecture_jp":"埼玉県","jp_add_1":"比企郡小川町","jp_add_2":"原川"},"3550322":{"post_code":"3550322","prefecture":"SAITAMA KEN","city":"HIKI GUN OGAWA MACHI","town":"HIGASHIOGAWA","perfecture_jp":"埼玉県","jp_add_1":"比企郡小川町","jp_add_2":"東小川"},"3550318":{"post_code":"3550318","prefecture":"SAITAMA KEN","city":"HIKI GUN OGAWA MACHI","town":"HIBARIDAI","perfecture_jp":"埼玉県","jp_add_1":"比企郡小川町","jp_add_2":"ひばり台"},"3550332":{"post_code":"3550332","prefecture":"SAITAMA KEN","city":"HIKI GUN OGAWA MACHI","town":"MASUO","perfecture_jp":"埼玉県","jp_add_1":"比企郡小川町","jp_add_2":"増尾"},"3550315":{"post_code":"3550315","prefecture":"SAITAMA KEN","city":"HIKI GUN OGAWA MACHI","town":"MIDORIGAOKA","perfecture_jp":"埼玉県","jp_add_1":"比企郡小川町","jp_add_2":"みどりが丘"},"3550331":{"post_code":"3550331","prefecture":"SAITAMA KEN","city":"HIKI GUN OGAWA MACHI","town":"YUKIE","perfecture_jp":"埼玉県","jp_add_1":"比企郡小川町","jp_add_2":"靱負"},"3550100":{"post_code":"3550100","prefecture":"SAITAMA KEN","city":"HIKI GUN YOSHIMI MACHI","town":"IKANIKEISAIGANAIBAAI","perfecture_jp":"埼玉県","jp_add_1":"比企郡吉見町","jp_add_2":""},"3550131":{"post_code":"3550131","prefecture":"SAITAMA KEN","city":"HIKI GUN YOSHIMI MACHI","town":"ARAKO","perfecture_jp":"埼玉県","jp_add_1":"比企郡吉見町","jp_add_2":"荒子"},"3550132":{"post_code":"3550132","prefecture":"SAITAMA KEN","city":"HIKI GUN YOSHIMI MACHI","town":"IIJIMASHINDEN","perfecture_jp":"埼玉県","jp_add_1":"比企郡吉見町","jp_add_2":"飯島新田"},"3550103":{"post_code":"3550103","prefecture":"SAITAMA KEN","city":"HIKI GUN YOSHIMI MACHI","town":"IMAIZUMI","perfecture_jp":"埼玉県","jp_add_1":"比企郡吉見町","jp_add_2":"今泉"},"3550136":{"post_code":"3550136","prefecture":"SAITAMA KEN","city":"HIKI GUN YOSHIMI MACHI","town":"ETSUNA","perfecture_jp":"埼玉県","jp_add_1":"比企郡吉見町","jp_add_2":"江綱"},"3550133":{"post_code":"3550133","prefecture":"SAITAMA KEN","city":"HIKI GUN YOSHIMI MACHI","town":"EWAI","perfecture_jp":"埼玉県","jp_add_1":"比企郡吉見町","jp_add_2":"江和井"},"3550134":{"post_code":"3550134","prefecture":"SAITAMA KEN","city":"HIKI GUN YOSHIMI MACHI","town":"OKUSHI","perfecture_jp":"埼玉県","jp_add_1":"比企郡吉見町","jp_add_2":"大串"},"3550127":{"post_code":"3550127","prefecture":"SAITAMA KEN","city":"HIKI GUN YOSHIMI MACHI","town":"OWADA","perfecture_jp":"埼玉県","jp_add_1":"比企郡吉見町","jp_add_2":"大和田"},"3550125":{"post_code":"3550125","prefecture":"SAITAMA KEN","city":"HIKI GUN YOSHIMI MACHI","town":"KABAKARIYA","perfecture_jp":"埼玉県","jp_add_1":"比企郡吉見町","jp_add_2":"蚊斗谷"},"3550115":{"post_code":"3550115","prefecture":"SAITAMA KEN","city":"HIKI GUN YOSHIMI MACHI","town":"KAMIGINYA","perfecture_jp":"埼玉県","jp_add_1":"比企郡吉見町","jp_add_2":"上銀谷"},"3550105":{"post_code":"3550105","prefecture":"SAITAMA KEN","city":"HIKI GUN YOSHIMI MACHI","town":"KAMIZUNA","perfecture_jp":"埼玉県","jp_add_1":"比企郡吉見町","jp_add_2":"上砂"},"3550165":{"post_code":"3550165","prefecture":"SAITAMA KEN","city":"HIKI GUN YOSHIMI MACHI","town":"KAMIHOSOYA","perfecture_jp":"埼玉県","jp_add_1":"比企郡吉見町","jp_add_2":"上細谷"},"3550111":{"post_code":"3550111","prefecture":"SAITAMA KEN","city":"HIKI GUN YOSHIMI MACHI","town":"KITASHIMOZUNA","perfecture_jp":"埼玉県","jp_add_1":"比企郡吉見町","jp_add_2":"北下砂"},"3550155":{"post_code":"3550155","prefecture":"SAITAMA KEN","city":"HIKI GUN YOSHIMI MACHI","town":"KITAYOSHIMI","perfecture_jp":"埼玉県","jp_add_1":"比企郡吉見町","jp_add_2":"北吉見"},"3550137":{"post_code":"3550137","prefecture":"SAITAMA KEN","city":"HIKI GUN YOSHIMI MACHI","town":"KUBOTA","perfecture_jp":"埼玉県","jp_add_1":"比企郡吉見町","jp_add_2":"久保田"},"3550124":{"post_code":"3550124","prefecture":"SAITAMA KEN","city":"HIKI GUN YOSHIMI MACHI","town":"KUBOTASHINDEN","perfecture_jp":"埼玉県","jp_add_1":"比企郡吉見町","jp_add_2":"久保田新田"},"3550153":{"post_code":"3550153","prefecture":"SAITAMA KEN","city":"HIKI GUN YOSHIMI MACHI","town":"KUMEDA","perfecture_jp":"埼玉県","jp_add_1":"比企郡吉見町","jp_add_2":"久米田"},"3550166":{"post_code":"3550166","prefecture":"SAITAMA KEN","city":"HIKI GUN YOSHIMI MACHI","town":"KUROIWA","perfecture_jp":"埼玉県","jp_add_1":"比企郡吉見町","jp_add_2":"黒岩"},"3550164":{"post_code":"3550164","prefecture":"SAITAMA KEN","city":"HIKI GUN YOSHIMI MACHI","town":"KOARAI","perfecture_jp":"埼玉県","jp_add_1":"比企郡吉見町","jp_add_2":"小新井"},"3550151":{"post_code":"3550151","prefecture":"SAITAMA KEN","city":"HIKI GUN YOSHIMI MACHI","town":"GOSHO","perfecture_jp":"埼玉県","jp_add_1":"比企郡吉見町","jp_add_2":"御所"},"3550114":{"post_code":"3550114","prefecture":"SAITAMA KEN","city":"HIKI GUN YOSHIMI MACHI","town":"KOMYO","perfecture_jp":"埼玉県","jp_add_1":"比企郡吉見町","jp_add_2":"古名"},"3550113":{"post_code":"3550113","prefecture":"SAITAMA KEN","city":"HIKI GUN YOSHIMI MACHI","town":"KOMYOSHINDEN","perfecture_jp":"埼玉県","jp_add_1":"比企郡吉見町","jp_add_2":"古名新田"},"3550104":{"post_code":"3550104","prefecture":"SAITAMA KEN","city":"HIKI GUN YOSHIMI MACHI","town":"JITOHO","perfecture_jp":"埼玉県","jp_add_1":"比企郡吉見町","jp_add_2":"地頭方"},"3550116":{"post_code":"3550116","prefecture":"SAITAMA KEN","city":"HIKI GUN YOSHIMI MACHI","town":"SHIMOGINYA","perfecture_jp":"埼玉県","jp_add_1":"比企郡吉見町","jp_add_2":"下銀谷"},"3550118":{"post_code":"3550118","prefecture":"SAITAMA KEN","city":"HIKI GUN YOSHIMI MACHI","town":"SHIMOHOSOYA","perfecture_jp":"埼玉県","jp_add_1":"比企郡吉見町","jp_add_2":"下細谷"},"3550123":{"post_code":"3550123","prefecture":"SAITAMA KEN","city":"HIKI GUN YOSHIMI MACHI","town":"SUNOKOSHINDEN","perfecture_jp":"埼玉県","jp_add_1":"比企郡吉見町","jp_add_2":"須ノ子新田"},"3550122":{"post_code":"3550122","prefecture":"SAITAMA KEN","city":"HIKI GUN YOSHIMI MACHI","town":"TAKAOSHINDEN","perfecture_jp":"埼玉県","jp_add_1":"比企郡吉見町","jp_add_2":"高尾新田"},"3550167":{"post_code":"3550167","prefecture":"SAITAMA KEN","city":"HIKI GUN YOSHIMI MACHI","town":"TAKO","perfecture_jp":"埼玉県","jp_add_1":"比企郡吉見町","jp_add_2":"田甲"},"3550119":{"post_code":"3550119","prefecture":"SAITAMA KEN","city":"HIKI GUN YOSHIMI MACHI","town":"NAKAARAI","perfecture_jp":"埼玉県","jp_add_1":"比企郡吉見町","jp_add_2":"中新井"},"3550106":{"post_code":"3550106","prefecture":"SAITAMA KEN","city":"HIKI GUN YOSHIMI MACHI","town":"NAKAZONE","perfecture_jp":"埼玉県","jp_add_1":"比企郡吉見町","jp_add_2":"中曽根"},"3550156":{"post_code":"3550156","prefecture":"SAITAMA KEN","city":"HIKI GUN YOSHIMI MACHI","town":"NAGAYATSU","perfecture_jp":"埼玉県","jp_add_1":"比企郡吉見町","jp_add_2":"長谷"},"3550157":{"post_code":"3550157","prefecture":"SAITAMA KEN","city":"HIKI GUN YOSHIMI MACHI","town":"NISHIYOSHIMI","perfecture_jp":"埼玉県","jp_add_1":"比企郡吉見町","jp_add_2":"西吉見"},"3550121":{"post_code":"3550121","prefecture":"SAITAMA KEN","city":"HIKI GUN YOSHIMI MACHI","town":"HASUNUMASHINDEN","perfecture_jp":"埼玉県","jp_add_1":"比企郡吉見町","jp_add_2":"蓮沼新田"},"3550110":{"post_code":"3550110","prefecture":"SAITAMA KEN","city":"HIKI GUN YOSHIMI MACHI","town":"HIGASHINO","perfecture_jp":"埼玉県","jp_add_1":"比企郡吉見町","jp_add_2":"東野"},"3550101":{"post_code":"3550101","prefecture":"SAITAMA KEN","city":"HIKI GUN YOSHIMI MACHI","town":"HITOTSUGI","perfecture_jp":"埼玉県","jp_add_1":"比企郡吉見町","jp_add_2":"一ツ木"},"3550163":{"post_code":"3550163","prefecture":"SAITAMA KEN","city":"HIKI GUN YOSHIMI MACHI","town":"HONZAWA","perfecture_jp":"埼玉県","jp_add_1":"比企郡吉見町","jp_add_2":"本沢"},"3550135":{"post_code":"3550135","prefecture":"SAITAMA KEN","city":"HIKI GUN YOSHIMI MACHI","town":"MAEGOCHI","perfecture_jp":"埼玉県","jp_add_1":"比企郡吉見町","jp_add_2":"前河内"},"3550162":{"post_code":"3550162","prefecture":"SAITAMA KEN","city":"HIKI GUN YOSHIMI MACHI","town":"MATSUZAKI","perfecture_jp":"埼玉県","jp_add_1":"比企郡吉見町","jp_add_2":"松崎"},"3550112":{"post_code":"3550112","prefecture":"SAITAMA KEN","city":"HIKI GUN YOSHIMI MACHI","town":"MARUNUKI","perfecture_jp":"埼玉県","jp_add_1":"比企郡吉見町","jp_add_2":"丸貫"},"3550126":{"post_code":"3550126","prefecture":"SAITAMA KEN","city":"HIKI GUN YOSHIMI MACHI","town":"MANKOJI","perfecture_jp":"埼玉県","jp_add_1":"比企郡吉見町","jp_add_2":"万光寺"},"3550154":{"post_code":"3550154","prefecture":"SAITAMA KEN","city":"HIKI GUN YOSHIMI MACHI","town":"MINAMIYOSHIMI","perfecture_jp":"埼玉県","jp_add_1":"比企郡吉見町","jp_add_2":"南吉見"},"3550102":{"post_code":"3550102","prefecture":"SAITAMA KEN","city":"HIKI GUN YOSHIMI MACHI","town":"MEISHU","perfecture_jp":"埼玉県","jp_add_1":"比企郡吉見町","jp_add_2":"明秋"},"3550117":{"post_code":"3550117","prefecture":"SAITAMA KEN","city":"HIKI GUN YOSHIMI MACHI","town":"YAGUCHI","perfecture_jp":"埼玉県","jp_add_1":"比企郡吉見町","jp_add_2":"谷口"},"3550161":{"post_code":"3550161","prefecture":"SAITAMA KEN","city":"HIKI GUN YOSHIMI MACHI","town":"YAMANOSHITA","perfecture_jp":"埼玉県","jp_add_1":"比企郡吉見町","jp_add_2":"山ノ下"},"3550152":{"post_code":"3550152","prefecture":"SAITAMA KEN","city":"HIKI GUN YOSHIMI MACHI","town":"WANA","perfecture_jp":"埼玉県","jp_add_1":"比企郡吉見町","jp_add_2":"和名"},"3550363":{"post_code":"3550363","prefecture":"SAITAMA KEN","city":"HIKI GUN TOKIGAWA MACHI","town":"OTSUKI","perfecture_jp":"埼玉県","jp_add_1":"比企郡ときがわ町","jp_add_2":"大附"},"3550366":{"post_code":"3550366","prefecture":"SAITAMA KEN","city":"HIKI GUN TOKIGAWA MACHI","town":"ONO","perfecture_jp":"埼玉県","jp_add_1":"比企郡ときがわ町","jp_add_2":"大野"},"3550365":{"post_code":"3550365","prefecture":"SAITAMA KEN","city":"HIKI GUN TOKIGAWA MACHI","town":"KUNUGIDAIRA","perfecture_jp":"埼玉県","jp_add_1":"比企郡ときがわ町","jp_add_2":"椚平"},"3550351":{"post_code":"3550351","prefecture":"SAITAMA KEN","city":"HIKI GUN TOKIGAWA MACHI","town":"KUMOGAWARA","perfecture_jp":"埼玉県","jp_add_1":"比企郡ときがわ町","jp_add_2":"雲河原"},"3550343":{"post_code":"3550343","prefecture":"SAITAMA KEN","city":"HIKI GUN TOKIGAWA MACHI","town":"GOMYO","perfecture_jp":"埼玉県","jp_add_1":"比企郡ときがわ町","jp_add_2":"五明"},"3550356":{"post_code":"3550356","prefecture":"SAITAMA KEN","city":"HIKI GUN TOKIGAWA MACHI","town":"SEKIBORI","perfecture_jp":"埼玉県","jp_add_1":"比企郡ときがわ町","jp_add_2":"関堀"},"3550358":{"post_code":"3550358","prefecture":"SAITAMA KEN","city":"HIKI GUN TOKIGAWA MACHI","town":"SETOMOTOKAMI","perfecture_jp":"埼玉県","jp_add_1":"比企郡ときがわ町","jp_add_2":"瀬戸元上"},"3550359":{"post_code":"3550359","prefecture":"SAITAMA KEN","city":"HIKI GUN TOKIGAWA MACHI","town":"SETOMOTOSHIMO","perfecture_jp":"埼玉県","jp_add_1":"比企郡ときがわ町","jp_add_2":"瀬戸元下"},"3550341":{"post_code":"3550341","prefecture":"SAITAMA KEN","city":"HIKI GUN TOKIGAWA MACHI","town":"TAGURO","perfecture_jp":"埼玉県","jp_add_1":"比企郡ときがわ町","jp_add_2":"田黒"},"3550357":{"post_code":"3550357","prefecture":"SAITAMA KEN","city":"HIKI GUN TOKIGAWA MACHI","town":"TANAKA","perfecture_jp":"埼玉県","jp_add_1":"比企郡ときがわ町","jp_add_2":"田中"},"3550342":{"post_code":"3550342","prefecture":"SAITAMA KEN","city":"HIKI GUN TOKIGAWA MACHI","town":"TAMAGAWA","perfecture_jp":"埼玉県","jp_add_1":"比企郡ときがわ町","jp_add_2":"玉川"},"3550364":{"post_code":"3550364","prefecture":"SAITAMA KEN","city":"HIKI GUN TOKIGAWA MACHI","town":"NISHIDAIRA","perfecture_jp":"埼玉県","jp_add_1":"比企郡ときがわ町","jp_add_2":"西平"},"3550354":{"post_code":"3550354","prefecture":"SAITAMA KEN","city":"HIKI GUN TOKIGAWA MACHI","town":"BANJO","perfecture_jp":"埼玉県","jp_add_1":"比企郡ときがわ町","jp_add_2":"番匠"},"3550355":{"post_code":"3550355","prefecture":"SAITAMA KEN","city":"HIKI GUN TOKIGAWA MACHI","town":"BAMBA","perfecture_jp":"埼玉県","jp_add_1":"比企郡ときがわ町","jp_add_2":"馬場"},"3550344":{"post_code":"3550344","prefecture":"SAITAMA KEN","city":"HIKI GUN TOKIGAWA MACHI","town":"HIKAGE","perfecture_jp":"埼玉県","jp_add_1":"比企郡ときがわ町","jp_add_2":"日影"},"3550352":{"post_code":"3550352","prefecture":"SAITAMA KEN","city":"HIKI GUN TOKIGAWA MACHI","town":"BESSHO","perfecture_jp":"埼玉県","jp_add_1":"比企郡ときがわ町","jp_add_2":"別所"},"3550353":{"post_code":"3550353","prefecture":"SAITAMA KEN","city":"HIKI GUN TOKIGAWA MACHI","town":"HONGO","perfecture_jp":"埼玉県","jp_add_1":"比企郡ときがわ町","jp_add_2":"本郷"},"3550361":{"post_code":"3550361","prefecture":"SAITAMA KEN","city":"HIKI GUN TOKIGAWA MACHI","town":"MOMONOKI","perfecture_jp":"埼玉県","jp_add_1":"比企郡ときがわ町","jp_add_2":"桃木"},"3550371":{"post_code":"3550371","prefecture":"SAITAMA KEN","city":"CHICHIBU GUN HIGASHICHICHIBU MURA","town":"OUCHIZAWA","perfecture_jp":"埼玉県","jp_add_1":"秩父郡東秩父村","jp_add_2":"大内沢"},"3550373":{"post_code":"3550373","prefecture":"SAITAMA KEN","city":"CHICHIBU GUN HIGASHICHICHIBU MURA","town":"OKUSAWA","perfecture_jp":"埼玉県","jp_add_1":"秩父郡東秩父村","jp_add_2":"奥沢"},"3550376":{"post_code":"3550376","prefecture":"SAITAMA KEN","city":"CHICHIBU GUN HIGASHICHICHIBU MURA","town":"KAIYA","perfecture_jp":"埼玉県","jp_add_1":"秩父郡東秩父村","jp_add_2":"皆谷"},"3550372":{"post_code":"3550372","prefecture":"SAITAMA KEN","city":"CHICHIBU GUN HIGASHICHICHIBU MURA","town":"SAKAMOTO","perfecture_jp":"埼玉県","jp_add_1":"秩父郡東秩父村","jp_add_2":"坂本"},"3550377":{"post_code":"3550377","prefecture":"SAITAMA KEN","city":"CHICHIBU GUN HIGASHICHICHIBU MURA","town":"SHIROISHI","perfecture_jp":"埼玉県","jp_add_1":"秩父郡東秩父村","jp_add_2":"白石"},"3550375":{"post_code":"3550375","prefecture":"SAITAMA KEN","city":"CHICHIBU GUN HIGASHICHICHIBU MURA","town":"MIDO","perfecture_jp":"埼玉県","jp_add_1":"秩父郡東秩父村","jp_add_2":"御堂"},"3550374":{"post_code":"3550374","prefecture":"SAITAMA KEN","city":"CHICHIBU GUN HIGASHICHICHIBU MURA","town":"YASUDO","perfecture_jp":"埼玉県","jp_add_1":"秩父郡東秩父村","jp_add_2":"安戸"}}