{"3590000":{"post_code":"3590000","prefecture":"SAITAMA KEN","city":"TOKOROZAWA SHI","town":"IKANIKEISAIGANAIBAAI","perfecture_jp":"埼玉県","jp_add_1":"所沢市","jp_add_2":""},"3591105":{"post_code":"3591105","prefecture":"SAITAMA KEN","city":"TOKOROZAWA SHI","town":"AOBADAI","perfecture_jp":"埼玉県","jp_add_1":"所沢市","jp_add_2":"青葉台"},"3590036":{"post_code":"3590036","prefecture":"SAITAMA KEN","city":"TOKOROZAWA SHI","town":"ASAHICHO","perfecture_jp":"埼玉県","jp_add_1":"所沢市","jp_add_2":"旭町"},"3591133":{"post_code":"3591133","prefecture":"SAITAMA KEN","city":"TOKOROZAWA SHI","town":"ARAHATA","perfecture_jp":"埼玉県","jp_add_1":"所沢市","jp_add_2":"荒幡"},"3591112":{"post_code":"3591112","prefecture":"SAITAMA KEN","city":"TOKOROZAWA SHI","town":"IZUMICHO","perfecture_jp":"埼玉県","jp_add_1":"所沢市","jp_add_2":"泉町"},"3591102":{"post_code":"3591102","prefecture":"SAITAMA KEN","city":"TOKOROZAWA SHI","town":"IWAOKACHO","perfecture_jp":"埼玉県","jp_add_1":"所沢市","jp_add_2":"岩岡町"},"3590026":{"post_code":"3590026","prefecture":"SAITAMA KEN","city":"TOKOROZAWA SHI","town":"USHINUMA","perfecture_jp":"埼玉県","jp_add_1":"所沢市","jp_add_2":"牛沼"},"3591104":{"post_code":"3591104","prefecture":"SAITAMA KEN","city":"TOKOROZAWA SHI","town":"ENOKICHO","perfecture_jp":"埼玉県","jp_add_1":"所沢市","jp_add_2":"榎町"},"3591128":{"post_code":"3591128","prefecture":"SAITAMA KEN","city":"TOKOROZAWA SHI","town":"KANAYAMACHO","perfecture_jp":"埼玉県","jp_add_1":"所沢市","jp_add_2":"金山町"},"3591142":{"post_code":"3591142","prefecture":"SAITAMA KEN","city":"TOKOROZAWA SHI","town":"KAMIARAI","perfecture_jp":"埼玉県","jp_add_1":"所沢市","jp_add_2":"上新井"},"3590025":{"post_code":"3590025","prefecture":"SAITAMA KEN","city":"TOKOROZAWA SHI","town":"KAMIYASUMATSU","perfecture_jp":"埼玉県","jp_add_1":"所沢市","jp_add_2":"上安松"},"3591153":{"post_code":"3591153","prefecture":"SAITAMA KEN","city":"TOKOROZAWA SHI","town":"KAMIYAMAGUCHI","perfecture_jp":"埼玉県","jp_add_1":"所沢市","jp_add_2":"上山口"},"3590005":{"post_code":"3590005","prefecture":"SAITAMA KEN","city":"TOKOROZAWA SHI","town":"KAMEGANE","perfecture_jp":"埼玉県","jp_add_1":"所沢市","jp_add_2":"神米金"},"3590014":{"post_code":"3590014","prefecture":"SAITAMA KEN","city":"TOKOROZAWA SHI","town":"KAMEGAYA","perfecture_jp":"埼玉県","jp_add_1":"所沢市","jp_add_2":"亀ケ谷"},"3590038":{"post_code":"3590038","prefecture":"SAITAMA KEN","city":"TOKOROZAWA SHI","town":"KITAAKITSU","perfecture_jp":"埼玉県","jp_add_1":"所沢市","jp_add_2":"北秋津"},"3590007":{"post_code":"3590007","prefecture":"SAITAMA KEN","city":"TOKOROZAWA SHI","town":"KITAIWAOKA","perfecture_jp":"埼玉県","jp_add_1":"所沢市","jp_add_2":"北岩岡"},"3590046":{"post_code":"3590046","prefecture":"SAITAMA KEN","city":"TOKOROZAWA SHI","town":"KITATOKOROZAWACHO","perfecture_jp":"埼玉県","jp_add_1":"所沢市","jp_add_2":"北所沢町"},"3591101":{"post_code":"3591101","prefecture":"SAITAMA KEN","city":"TOKOROZAWA SHI","town":"KITANAKA","perfecture_jp":"埼玉県","jp_add_1":"所沢市","jp_add_2":"北中"},"3591152":{"post_code":"3591152","prefecture":"SAITAMA KEN","city":"TOKOROZAWA SHI","town":"KITANO","perfecture_jp":"埼玉県","jp_add_1":"所沢市","jp_add_2":"北野"},"3591155":{"post_code":"3591155","prefecture":"SAITAMA KEN","city":"TOKOROZAWA SHI","town":"KITANOSHIMMACHI","perfecture_jp":"埼玉県","jp_add_1":"所沢市","jp_add_2":"北野新町"},"3591156":{"post_code":"3591156","prefecture":"SAITAMA KEN","city":"TOKOROZAWA SHI","town":"KITANOMINAMI","perfecture_jp":"埼玉県","jp_add_1":"所沢市","jp_add_2":"北野南"},"3590004":{"post_code":"3590004","prefecture":"SAITAMA KEN","city":"TOKOROZAWA SHI","town":"KITAHARACHO","perfecture_jp":"埼玉県","jp_add_1":"所沢市","jp_add_2":"北原町"},"3591113":{"post_code":"3591113","prefecture":"SAITAMA KEN","city":"TOKOROZAWA SHI","town":"KITAMACHI","perfecture_jp":"埼玉県","jp_add_1":"所沢市","jp_add_2":"喜多町"},"3591114":{"post_code":"3591114","prefecture":"SAITAMA KEN","city":"TOKOROZAWA SHI","town":"KITAYURAKUCHO","perfecture_jp":"埼玉県","jp_add_1":"所沢市","jp_add_2":"北有楽町"},"3590037":{"post_code":"3590037","prefecture":"SAITAMA KEN","city":"TOKOROZAWA SHI","town":"KUSUNOKIDAI","perfecture_jp":"埼玉県","jp_add_1":"所沢市","jp_add_2":"くすのき台"},"3591131":{"post_code":"3591131","prefecture":"SAITAMA KEN","city":"TOKOROZAWA SHI","town":"KUME","perfecture_jp":"埼玉県","jp_add_1":"所沢市","jp_add_2":"久米"},"3591118":{"post_code":"3591118","prefecture":"SAITAMA KEN","city":"TOKOROZAWA SHI","town":"KEYAKIDAI","perfecture_jp":"埼玉県","jp_add_1":"所沢市","jp_add_2":"けやき台"},"3591166":{"post_code":"3591166","prefecture":"SAITAMA KEN","city":"TOKOROZAWA SHI","town":"KOJIYA","perfecture_jp":"埼玉県","jp_add_1":"所沢市","jp_add_2":"糀谷"},"3591103":{"post_code":"3591103","prefecture":"SAITAMA KEN","city":"TOKOROZAWA SHI","town":"KOYOCHO","perfecture_jp":"埼玉県","jp_add_1":"所沢市","jp_add_2":"向陽町"},"3591148":{"post_code":"3591148","prefecture":"SAITAMA KEN","city":"TOKOROZAWA SHI","town":"KOTESASHIDAI","perfecture_jp":"埼玉県","jp_add_1":"所沢市","jp_add_2":"小手指台"},"3591141":{"post_code":"3591141","prefecture":"SAITAMA KEN","city":"TOKOROZAWA SHI","town":"KOTESASHICHO","perfecture_jp":"埼玉県","jp_add_1":"所沢市","jp_add_2":"小手指町"},"3591146":{"post_code":"3591146","prefecture":"SAITAMA KEN","city":"TOKOROZAWA SHI","town":"KOTESASHIMINAMI","perfecture_jp":"埼玉県","jp_add_1":"所沢市","jp_add_2":"小手指南"},"3591147":{"post_code":"3591147","prefecture":"SAITAMA KEN","city":"TOKOROZAWA SHI","town":"KOTESASHIMOTOMACHI","perfecture_jp":"埼玉県","jp_add_1":"所沢市","jp_add_2":"小手指元町"},"3591122":{"post_code":"3591122","prefecture":"SAITAMA KEN","city":"TOKOROZAWA SHI","town":"KOTOBUKICHO","perfecture_jp":"埼玉県","jp_add_1":"所沢市","jp_add_2":"寿町"},"3590033":{"post_code":"3590033","prefecture":"SAITAMA KEN","city":"TOKOROZAWA SHI","town":"KOBUSHICHO","perfecture_jp":"埼玉県","jp_add_1":"所沢市","jp_add_2":"こぶし町"},"3590012":{"post_code":"3590012","prefecture":"SAITAMA KEN","city":"TOKOROZAWA SHI","town":"SAKANOSHITA","perfecture_jp":"埼玉県","jp_add_1":"所沢市","jp_add_2":"坂之下"},"3591161":{"post_code":"3591161","prefecture":"SAITAMA KEN","city":"TOKOROZAWA SHI","town":"SAYAMAGAOKA","perfecture_jp":"埼玉県","jp_add_1":"所沢市","jp_add_2":"狭山ケ丘"},"3590031":{"post_code":"3590031","prefecture":"SAITAMA KEN","city":"TOKOROZAWA SHI","town":"SHIMOARAI","perfecture_jp":"埼玉県","jp_add_1":"所沢市","jp_add_2":"下新井"},"3590001":{"post_code":"3590001","prefecture":"SAITAMA KEN","city":"TOKOROZAWA SHI","town":"SHIMOTOMI","perfecture_jp":"埼玉県","jp_add_1":"所沢市","jp_add_2":"下富"},"3590024":{"post_code":"3590024","prefecture":"SAITAMA KEN","city":"TOKOROZAWA SHI","town":"SHIMOYASUMATSU","perfecture_jp":"埼玉県","jp_add_1":"所沢市","jp_add_2":"下安松"},"3591154":{"post_code":"3591154","prefecture":"SAITAMA KEN","city":"TOKOROZAWA SHI","town":"SHORAKUJI","perfecture_jp":"埼玉県","jp_add_1":"所沢市","jp_add_2":"勝楽寺"},"3590013":{"post_code":"3590013","prefecture":"SAITAMA KEN","city":"TOKOROZAWA SHI","town":"SHIRO","perfecture_jp":"埼玉県","jp_add_1":"所沢市","jp_add_2":"城"},"3590016":{"post_code":"3590016","prefecture":"SAITAMA KEN","city":"TOKOROZAWA SHI","town":"SHINGO","perfecture_jp":"埼玉県","jp_add_1":"所沢市","jp_add_2":"新郷"},"3590006":{"post_code":"3590006","prefecture":"SAITAMA KEN","city":"TOKOROZAWA SHI","town":"TOKOROZAWASHIMMACHI","perfecture_jp":"埼玉県","jp_add_1":"所沢市","jp_add_2":"所沢新町"},"3590041":{"post_code":"3590041","prefecture":"SAITAMA KEN","city":"TOKOROZAWA SHI","town":"NAKAARAI","perfecture_jp":"埼玉県","jp_add_1":"所沢市","jp_add_2":"中新井"},"3590002":{"post_code":"3590002","prefecture":"SAITAMA KEN","city":"TOKOROZAWA SHI","town":"NAKATOMI","perfecture_jp":"埼玉県","jp_add_1":"所沢市","jp_add_2":"中富"},"3590003":{"post_code":"3590003","prefecture":"SAITAMA KEN","city":"TOKOROZAWA SHI","town":"NAKATOMIMINAMI","perfecture_jp":"埼玉県","jp_add_1":"所沢市","jp_add_2":"中富南"},"3590042":{"post_code":"3590042","prefecture":"SAITAMA KEN","city":"TOKOROZAWA SHI","town":"NAMIKI","perfecture_jp":"埼玉県","jp_add_1":"所沢市","jp_add_2":"並木"},"3590035":{"post_code":"3590035","prefecture":"SAITAMA KEN","city":"TOKOROZAWA SHI","town":"NISHIARAICHO","perfecture_jp":"埼玉県","jp_add_1":"所沢市","jp_add_2":"西新井町"},"3591163":{"post_code":"3591163","prefecture":"SAITAMA KEN","city":"TOKOROZAWA SHI","town":"NISHISAYAMAGAOKA","perfecture_jp":"埼玉県","jp_add_1":"所沢市","jp_add_2":"西狭山ケ丘"},"3591126":{"post_code":"3591126","prefecture":"SAITAMA KEN","city":"TOKOROZAWA SHI","town":"NISHISUMIYOSHI","perfecture_jp":"埼玉県","jp_add_1":"所沢市","jp_add_2":"西住吉"},"3591144":{"post_code":"3591144","prefecture":"SAITAMA KEN","city":"TOKOROZAWA SHI","town":"NISHITOKOROZAWA","perfecture_jp":"埼玉県","jp_add_1":"所沢市","jp_add_2":"西所沢"},"3590047":{"post_code":"3590047","prefecture":"SAITAMA KEN","city":"TOKOROZAWA SHI","town":"HANAZONO","perfecture_jp":"埼玉県","jp_add_1":"所沢市","jp_add_2":"花園"},"3591167":{"post_code":"3591167","prefecture":"SAITAMA KEN","city":"TOKOROZAWA SHI","town":"HAYASHI","perfecture_jp":"埼玉県","jp_add_1":"所沢市","jp_add_2":"林"},"3590034":{"post_code":"3590034","prefecture":"SAITAMA KEN","city":"TOKOROZAWA SHI","town":"HIGASHIARAICHO","perfecture_jp":"埼玉県","jp_add_1":"所沢市","jp_add_2":"東新井町"},"3591106":{"post_code":"3591106","prefecture":"SAITAMA KEN","city":"TOKOROZAWA SHI","town":"HIGASHISAYAMAGAOKA","perfecture_jp":"埼玉県","jp_add_1":"所沢市","jp_add_2":"東狭山ケ丘"},"3591124":{"post_code":"3591124","prefecture":"SAITAMA KEN","city":"TOKOROZAWA SHI","town":"HIGASHISUMIYOSHI","perfecture_jp":"埼玉県","jp_add_1":"所沢市","jp_add_2":"東住吉"},"3591116":{"post_code":"3591116","prefecture":"SAITAMA KEN","city":"TOKOROZAWA SHI","town":"HIGASHICHO","perfecture_jp":"埼玉県","jp_add_1":"所沢市","jp_add_2":"東町"},"3590021":{"post_code":"3590021","prefecture":"SAITAMA KEN","city":"TOKOROZAWA SHI","town":"HIGASHITOKOROZAWA","perfecture_jp":"埼玉県","jp_add_1":"所沢市","jp_add_2":"東所沢"},"3590023":{"post_code":"3590023","prefecture":"SAITAMA KEN","city":"TOKOROZAWA SHI","town":"HIGASHITOKOROZAWAWADA","perfecture_jp":"埼玉県","jp_add_1":"所沢市","jp_add_2":"東所沢和田"},"3590015":{"post_code":"3590015","prefecture":"SAITAMA KEN","city":"TOKOROZAWA SHI","town":"HIBITA","perfecture_jp":"埼玉県","jp_add_1":"所沢市","jp_add_2":"日比田"},"3591123":{"post_code":"3591123","prefecture":"SAITAMA KEN","city":"TOKOROZAWA SHI","town":"HIYOSHICHO","perfecture_jp":"埼玉県","jp_add_1":"所沢市","jp_add_2":"日吉町"},"3591127":{"post_code":"3591127","prefecture":"SAITAMA KEN","city":"TOKOROZAWA SHI","town":"HOSHINOMIYA","perfecture_jp":"埼玉県","jp_add_1":"所沢市","jp_add_2":"星の宮"},"3591165":{"post_code":"3591165","prefecture":"SAITAMA KEN","city":"TOKOROZAWA SHI","town":"HORINOCHI","perfecture_jp":"埼玉県","jp_add_1":"所沢市","jp_add_2":"堀之内"},"3590022":{"post_code":"3590022","prefecture":"SAITAMA KEN","city":"TOKOROZAWA SHI","town":"HONGO","perfecture_jp":"埼玉県","jp_add_1":"所沢市","jp_add_2":"本郷"},"3591132":{"post_code":"3591132","prefecture":"SAITAMA KEN","city":"TOKOROZAWA SHI","town":"MATSUGAOKA","perfecture_jp":"埼玉県","jp_add_1":"所沢市","jp_add_2":"松が丘"},"3590027":{"post_code":"3590027","prefecture":"SAITAMA KEN","city":"TOKOROZAWA SHI","town":"MATSUGO","perfecture_jp":"埼玉県","jp_add_1":"所沢市","jp_add_2":"松郷"},"3590044":{"post_code":"3590044","prefecture":"SAITAMA KEN","city":"TOKOROZAWA SHI","town":"MATSUBACHO","perfecture_jp":"埼玉県","jp_add_1":"所沢市","jp_add_2":"松葉町"},"3591164":{"post_code":"3591164","prefecture":"SAITAMA KEN","city":"TOKOROZAWA SHI","town":"MIKAJIMA","perfecture_jp":"埼玉県","jp_add_1":"所沢市","jp_add_2":"三ケ島"},"3591111":{"post_code":"3591111","prefecture":"SAITAMA KEN","city":"TOKOROZAWA SHI","town":"MIDORICHO","perfecture_jp":"埼玉県","jp_add_1":"所沢市","jp_add_2":"緑町"},"3591125":{"post_code":"3591125","prefecture":"SAITAMA KEN","city":"TOKOROZAWA SHI","town":"MINAMISUMIYOSHI","perfecture_jp":"埼玉県","jp_add_1":"所沢市","jp_add_2":"南住吉"},"3590011":{"post_code":"3590011","prefecture":"SAITAMA KEN","city":"TOKOROZAWA SHI","town":"MINAMINAGAI","perfecture_jp":"埼玉県","jp_add_1":"所沢市","jp_add_2":"南永井"},"3590045":{"post_code":"3590045","prefecture":"SAITAMA KEN","city":"TOKOROZAWA SHI","town":"MIHARACHO","perfecture_jp":"埼玉県","jp_add_1":"所沢市","jp_add_2":"美原町"},"3591143":{"post_code":"3591143","prefecture":"SAITAMA KEN","city":"TOKOROZAWA SHI","town":"MIYAMOTOCHO","perfecture_jp":"埼玉県","jp_add_1":"所沢市","jp_add_2":"宮本町"},"3591115":{"post_code":"3591115","prefecture":"SAITAMA KEN","city":"TOKOROZAWA SHI","town":"MIYUKICHO","perfecture_jp":"埼玉県","jp_add_1":"所沢市","jp_add_2":"御幸町"},"3591121":{"post_code":"3591121","prefecture":"SAITAMA KEN","city":"TOKOROZAWA SHI","town":"MOTOMACHI","perfecture_jp":"埼玉県","jp_add_1":"所沢市","jp_add_2":"元町"},"3591145":{"post_code":"3591145","prefecture":"SAITAMA KEN","city":"TOKOROZAWA SHI","town":"YAMAGUCHI","perfecture_jp":"埼玉県","jp_add_1":"所沢市","jp_add_2":"山口"},"3590043":{"post_code":"3590043","prefecture":"SAITAMA KEN","city":"TOKOROZAWA SHI","town":"YAYOICHO","perfecture_jp":"埼玉県","jp_add_1":"所沢市","jp_add_2":"弥生町"},"3591117":{"post_code":"3591117","prefecture":"SAITAMA KEN","city":"TOKOROZAWA SHI","town":"YURAKUCHO","perfecture_jp":"埼玉県","jp_add_1":"所沢市","jp_add_2":"有楽町"},"3591151":{"post_code":"3591151","prefecture":"SAITAMA KEN","city":"TOKOROZAWA SHI","town":"WAKASA","perfecture_jp":"埼玉県","jp_add_1":"所沢市","jp_add_2":"若狭"},"3590032":{"post_code":"3590032","prefecture":"SAITAMA KEN","city":"TOKOROZAWA SHI","town":"WAKAMATSUCHO","perfecture_jp":"埼玉県","jp_add_1":"所沢市","jp_add_2":"若松町"},"3591162":{"post_code":"3591162","prefecture":"SAITAMA KEN","city":"TOKOROZAWA SHI","town":"WAGAHARA","perfecture_jp":"埼玉県","jp_add_1":"所沢市","jp_add_2":"和ケ原"}}