{"3620000":{"post_code":"3620000","prefecture":"SAITAMA KEN","city":"AGEO SHI","town":"IKANIKEISAIGANAIBAAI","perfecture_jp":"埼玉県","jp_add_1":"上尾市","jp_add_2":""},"3620025":{"post_code":"3620025","prefecture":"SAITAMA KEN","city":"AGEO SHI","town":"AGEOSHIMO","perfecture_jp":"埼玉県","jp_add_1":"上尾市","jp_add_2":"上尾下"},"3620012":{"post_code":"3620012","prefecture":"SAITAMA KEN","city":"AGEO SHI","town":"AGEOSHUKU","perfecture_jp":"埼玉県","jp_add_1":"上尾市","jp_add_2":"上尾宿"},"3620013":{"post_code":"3620013","prefecture":"SAITAMA KEN","city":"AGEO SHI","town":"AGEOMURA","perfecture_jp":"埼玉県","jp_add_1":"上尾市","jp_add_2":"上尾村"},"3620073":{"post_code":"3620073","prefecture":"SAITAMA KEN","city":"AGEO SHI","town":"ASAMADAI","perfecture_jp":"埼玉県","jp_add_1":"上尾市","jp_add_2":"浅間台"},"3620031":{"post_code":"3620031","prefecture":"SAITAMA KEN","city":"AGEO SHI","town":"AZUMACHO","perfecture_jp":"埼玉県","jp_add_1":"上尾市","jp_add_2":"東町"},"3620065":{"post_code":"3620065","prefecture":"SAITAMA KEN","city":"AGEO SHI","town":"AZEYOSHI","perfecture_jp":"埼玉県","jp_add_1":"上尾市","jp_add_2":"畔吉"},"3620034":{"post_code":"3620034","prefecture":"SAITAMA KEN","city":"AGEO SHI","town":"ATAGO","perfecture_jp":"埼玉県","jp_add_1":"上尾市","jp_add_2":"愛宕"},"3620062":{"post_code":"3620062","prefecture":"SAITAMA KEN","city":"AGEO SHI","town":"IZUMIDAI","perfecture_jp":"埼玉県","jp_add_1":"上尾市","jp_add_2":"泉台"},"3620046":{"post_code":"3620046","prefecture":"SAITAMA KEN","city":"AGEO SHI","town":"ITCHOME","perfecture_jp":"埼玉県","jp_add_1":"上尾市","jp_add_2":"壱丁目"},"3620071":{"post_code":"3620071","prefecture":"SAITAMA KEN","city":"AGEO SHI","town":"IDOGI","perfecture_jp":"埼玉県","jp_add_1":"上尾市","jp_add_2":"井戸木"},"3620047":{"post_code":"3620047","prefecture":"SAITAMA KEN","city":"AGEO SHI","town":"IMAIZUMI","perfecture_jp":"埼玉県","jp_add_1":"上尾市","jp_add_2":"今泉"},"3620058":{"post_code":"3620058","prefecture":"SAITAMA KEN","city":"AGEO SHI","town":"UENO","perfecture_jp":"埼玉県","jp_add_1":"上尾市","jp_add_2":"上野"},"3620056":{"post_code":"3620056","prefecture":"SAITAMA KEN","city":"AGEO SHI","town":"UENOHONGO","perfecture_jp":"埼玉県","jp_add_1":"上尾市","jp_add_2":"上野本郷"},"3620044":{"post_code":"3620044","prefecture":"SAITAMA KEN","city":"AGEO SHI","town":"OYAHONGO","perfecture_jp":"埼玉県","jp_add_1":"上尾市","jp_add_2":"大谷本郷"},"3620075":{"post_code":"3620075","prefecture":"SAITAMA KEN","city":"AGEO SHI","town":"KASHIWAZA","perfecture_jp":"埼玉県","jp_add_1":"上尾市","jp_add_2":"柏座"},"3620074":{"post_code":"3620074","prefecture":"SAITAMA KEN","city":"AGEO SHI","town":"KASUGA","perfecture_jp":"埼玉県","jp_add_1":"上尾市","jp_add_2":"春日"},"3620001":{"post_code":"3620001","prefecture":"SAITAMA KEN","city":"AGEO SHI","town":"KAMI","perfecture_jp":"埼玉県","jp_add_1":"上尾市","jp_add_2":"上"},"3620037":{"post_code":"3620037","prefecture":"SAITAMA KEN","city":"AGEO SHI","town":"KAMICHO","perfecture_jp":"埼玉県","jp_add_1":"上尾市","jp_add_2":"上町"},"3620008":{"post_code":"3620008","prefecture":"SAITAMA KEN","city":"AGEO SHI","town":"KAMIHIRACHUO","perfecture_jp":"埼玉県","jp_add_1":"上尾市","jp_add_2":"上平中央"},"3620048":{"post_code":"3620048","prefecture":"SAITAMA KEN","city":"AGEO SHI","town":"KAWA","perfecture_jp":"埼玉県","jp_add_1":"上尾市","jp_add_2":"川"},"3620022":{"post_code":"3620022","prefecture":"SAITAMA KEN","city":"AGEO SHI","town":"KAWARABUKI","perfecture_jp":"埼玉県","jp_add_1":"上尾市","jp_add_2":"瓦葺"},"3620007":{"post_code":"3620007","prefecture":"SAITAMA KEN","city":"AGEO SHI","town":"KUBO","perfecture_jp":"埼玉県","jp_add_1":"上尾市","jp_add_2":"久保"},"3620063":{"post_code":"3620063","prefecture":"SAITAMA KEN","city":"AGEO SHI","town":"KOIZUMI","perfecture_jp":"埼玉県","jp_add_1":"上尾市","jp_add_2":"小泉"},"3620064":{"post_code":"3620064","prefecture":"SAITAMA KEN","city":"AGEO SHI","town":"KOSHIKIYA","perfecture_jp":"埼玉県","jp_add_1":"上尾市","jp_add_2":"小敷谷"},"3620024":{"post_code":"3620024","prefecture":"SAITAMA KEN","city":"AGEO SHI","town":"GOBANCHO","perfecture_jp":"埼玉県","jp_add_1":"上尾市","jp_add_2":"五番町"},"3620033":{"post_code":"3620033","prefecture":"SAITAMA KEN","city":"AGEO SHI","town":"SAKAECHO","perfecture_jp":"埼玉県","jp_add_1":"上尾市","jp_add_2":"栄町"},"3620051":{"post_code":"3620051","prefecture":"SAITAMA KEN","city":"AGEO SHI","town":"JITOGATA","perfecture_jp":"埼玉県","jp_add_1":"上尾市","jp_add_2":"地頭方"},"3620004":{"post_code":"3620004","prefecture":"SAITAMA KEN","city":"AGEO SHI","town":"SUKAYA","perfecture_jp":"埼玉県","jp_add_1":"上尾市","jp_add_2":"須ケ谷"},"3620003":{"post_code":"3620003","prefecture":"SAITAMA KEN","city":"AGEO SHI","town":"SUGAYA","perfecture_jp":"埼玉県","jp_add_1":"上尾市","jp_add_2":"菅谷"},"3620054":{"post_code":"3620054","prefecture":"SAITAMA KEN","city":"AGEO SHI","town":"TSUTSUMISAKI","perfecture_jp":"埼玉県","jp_add_1":"上尾市","jp_add_2":"堤崎"},"3620053":{"post_code":"3620053","prefecture":"SAITAMA KEN","city":"AGEO SHI","town":"TOSAKI","perfecture_jp":"埼玉県","jp_add_1":"上尾市","jp_add_2":"戸崎"},"3620052":{"post_code":"3620052","prefecture":"SAITAMA KEN","city":"AGEO SHI","town":"NAKAARAI","perfecture_jp":"埼玉県","jp_add_1":"上尾市","jp_add_2":"中新井"},"3620035":{"post_code":"3620035","prefecture":"SAITAMA KEN","city":"AGEO SHI","town":"NAKACHO","perfecture_jp":"埼玉県","jp_add_1":"上尾市","jp_add_2":"仲町"},"3620072":{"post_code":"3620072","prefecture":"SAITAMA KEN","city":"AGEO SHI","town":"NAKAZUMA","perfecture_jp":"埼玉県","jp_add_1":"上尾市","jp_add_2":"中妻"},"3620067":{"post_code":"3620067","prefecture":"SAITAMA KEN","city":"AGEO SHI","town":"NAKABUN","perfecture_jp":"埼玉県","jp_add_1":"上尾市","jp_add_2":"中分"},"3620057":{"post_code":"3620057","prefecture":"SAITAMA KEN","city":"AGEO SHI","town":"NISHIKAIZUKA","perfecture_jp":"埼玉県","jp_add_1":"上尾市","jp_add_2":"西貝塚"},"3620006":{"post_code":"3620006","prefecture":"SAITAMA KEN","city":"AGEO SHI","town":"NISHIKICHO","perfecture_jp":"埼玉県","jp_add_1":"上尾市","jp_add_2":"錦町"},"3620043":{"post_code":"3620043","prefecture":"SAITAMA KEN","city":"AGEO SHI","town":"NISHIMIYASHITA","perfecture_jp":"埼玉県","jp_add_1":"上尾市","jp_add_2":"西宮下"},"3620005":{"post_code":"3620005","prefecture":"SAITAMA KEN","city":"AGEO SHI","town":"NISHIMONZEN","perfecture_jp":"埼玉県","jp_add_1":"上尾市","jp_add_2":"西門前"},"3620021":{"post_code":"3620021","prefecture":"SAITAMA KEN","city":"AGEO SHI","town":"HARAICHI","perfecture_jp":"埼玉県","jp_add_1":"上尾市","jp_add_2":"原市"},"3620026":{"post_code":"3620026","prefecture":"SAITAMA KEN","city":"AGEO SHI","town":"HARAICHIKITA","perfecture_jp":"埼玉県","jp_add_1":"上尾市","jp_add_2":"原市北"},"3620023":{"post_code":"3620023","prefecture":"SAITAMA KEN","city":"AGEO SHI","town":"HARAICHINAKA","perfecture_jp":"埼玉県","jp_add_1":"上尾市","jp_add_2":"原市中"},"3620016":{"post_code":"3620016","prefecture":"SAITAMA KEN","city":"AGEO SHI","town":"HARASHIMMACHI","perfecture_jp":"埼玉県","jp_add_1":"上尾市","jp_add_2":"原新町"},"3620032":{"post_code":"3620032","prefecture":"SAITAMA KEN","city":"AGEO SHI","town":"HINODE","perfecture_jp":"埼玉県","jp_add_1":"上尾市","jp_add_2":"日の出"},"3620059":{"post_code":"3620059","prefecture":"SAITAMA KEN","city":"AGEO SHI","town":"HIRAKATA","perfecture_jp":"埼玉県","jp_add_1":"上尾市","jp_add_2":"平方"},"3620055":{"post_code":"3620055","prefecture":"SAITAMA KEN","city":"AGEO SHI","town":"HIRAKATARYORYOKE","perfecture_jp":"埼玉県","jp_add_1":"上尾市","jp_add_2":"平方領々家"},"3620011":{"post_code":"3620011","prefecture":"SAITAMA KEN","city":"AGEO SHI","town":"HIRATSUKA","perfecture_jp":"埼玉県","jp_add_1":"上尾市","jp_add_2":"平塚"},"3620061":{"post_code":"3620061","prefecture":"SAITAMA KEN","city":"AGEO SHI","town":"FUJINAMI","perfecture_jp":"埼玉県","jp_add_1":"上尾市","jp_add_2":"藤波"},"3620041":{"post_code":"3620041","prefecture":"SAITAMA KEN","city":"AGEO SHI","town":"FUJIMI","perfecture_jp":"埼玉県","jp_add_1":"上尾市","jp_add_2":"富士見"},"3620017":{"post_code":"3620017","prefecture":"SAITAMA KEN","city":"AGEO SHI","town":"FUTATSUMIYA","perfecture_jp":"埼玉県","jp_add_1":"上尾市","jp_add_2":"二ツ宮"},"3620076":{"post_code":"3620076","prefecture":"SAITAMA KEN","city":"AGEO SHI","town":"BENZAI","perfecture_jp":"埼玉県","jp_add_1":"上尾市","jp_add_2":"弁財"},"3620014":{"post_code":"3620014","prefecture":"SAITAMA KEN","city":"AGEO SHI","town":"HONCHO","perfecture_jp":"埼玉県","jp_add_1":"上尾市","jp_add_2":"本町"},"3620015":{"post_code":"3620015","prefecture":"SAITAMA KEN","city":"AGEO SHI","town":"MIDORIGAOKA","perfecture_jp":"埼玉県","jp_add_1":"上尾市","jp_add_2":"緑丘"},"3620002":{"post_code":"3620002","prefecture":"SAITAMA KEN","city":"AGEO SHI","town":"MINAMI","perfecture_jp":"埼玉県","jp_add_1":"上尾市","jp_add_2":"南"},"3620036":{"post_code":"3620036","prefecture":"SAITAMA KEN","city":"AGEO SHI","town":"MIYAMOTOCHO","perfecture_jp":"埼玉県","jp_add_1":"上尾市","jp_add_2":"宮本町"},"3620045":{"post_code":"3620045","prefecture":"SAITAMA KEN","city":"AGEO SHI","town":"MUKOYAMA","perfecture_jp":"埼玉県","jp_add_1":"上尾市","jp_add_2":"向山"},"3620042":{"post_code":"3620042","prefecture":"SAITAMA KEN","city":"AGEO SHI","town":"YATSU","perfecture_jp":"埼玉県","jp_add_1":"上尾市","jp_add_2":"谷津"},"3620066":{"post_code":"3620066","prefecture":"SAITAMA KEN","city":"AGEO SHI","town":"RYOKE","perfecture_jp":"埼玉県","jp_add_1":"上尾市","jp_add_2":"領家"},"3620800":{"post_code":"3620800","prefecture":"SAITAMA KEN","city":"KITAADACHI GUN INA MACHI","town":"IKANIKEISAIGANAIBAAI","perfecture_jp":"埼玉県","jp_add_1":"北足立郡伊奈町","jp_add_2":""},"3620812":{"post_code":"3620812","prefecture":"SAITAMA KEN","city":"KITAADACHI GUN INA MACHI","town":"UCHIJUKUDAI","perfecture_jp":"埼玉県","jp_add_1":"北足立郡伊奈町","jp_add_2":"内宿台"},"3620803":{"post_code":"3620803","prefecture":"SAITAMA KEN","city":"KITAADACHI GUN INA MACHI","town":"OBARI","perfecture_jp":"埼玉県","jp_add_1":"北足立郡伊奈町","jp_add_2":"大針"},"3620813":{"post_code":"3620813","prefecture":"SAITAMA KEN","city":"KITAADACHI GUN INA MACHI","town":"GAKUEN","perfecture_jp":"埼玉県","jp_add_1":"北足立郡伊奈町","jp_add_2":"学園"},"3620807":{"post_code":"3620807","prefecture":"SAITAMA KEN","city":"KITAADACHI GUN INA MACHI","town":"KOTOBUKI","perfecture_jp":"埼玉県","jp_add_1":"北足立郡伊奈町","jp_add_2":"寿"},"3620801":{"post_code":"3620801","prefecture":"SAITAMA KEN","city":"KITAADACHI GUN INA MACHI","town":"KOBARIUCHIJUKU","perfecture_jp":"埼玉県","jp_add_1":"北足立郡伊奈町","jp_add_2":"小針内宿"},"3620808":{"post_code":"3620808","prefecture":"SAITAMA KEN","city":"KITAADACHI GUN INA MACHI","town":"KOBARISHINSHUKU","perfecture_jp":"埼玉県","jp_add_1":"北足立郡伊奈町","jp_add_2":"小針新宿"},"3620806":{"post_code":"3620806","prefecture":"SAITAMA KEN","city":"KITAADACHI GUN INA MACHI","town":"KOMURO","perfecture_jp":"埼玉県","jp_add_1":"北足立郡伊奈町","jp_add_2":"小室"},"3620805":{"post_code":"3620805","prefecture":"SAITAMA KEN","city":"KITAADACHI GUN INA MACHI","town":"SAKAE","perfecture_jp":"埼玉県","jp_add_1":"北足立郡伊奈町","jp_add_2":"栄"},"3620811":{"post_code":"3620811","prefecture":"SAITAMA KEN","city":"KITAADACHI GUN INA MACHI","town":"NISHIKOBARI","perfecture_jp":"埼玉県","jp_add_1":"北足立郡伊奈町","jp_add_2":"西小針"},"3620802":{"post_code":"3620802","prefecture":"SAITAMA KEN","city":"KITAADACHI GUN INA MACHI","town":"HANUKI","perfecture_jp":"埼玉県","jp_add_1":"北足立郡伊奈町","jp_add_2":"羽貫"},"3620804":{"post_code":"3620804","prefecture":"SAITAMA KEN","city":"KITAADACHI GUN INA MACHI","town":"HONCHO","perfecture_jp":"埼玉県","jp_add_1":"北足立郡伊奈町","jp_add_2":"本町"}}