{"3630000":{"post_code":"3630000","prefecture":"SAITAMA KEN","city":"OKEGAWA SHI","town":"IKANIKEISAIGANAIBAAI","perfecture_jp":"埼玉県","jp_add_1":"桶川市","jp_add_2":""},"3630002":{"post_code":"3630002","prefecture":"SAITAMA KEN","city":"OKEGAWA SHI","town":"AKABORI","perfecture_jp":"埼玉県","jp_add_1":"桶川市","jp_add_2":"赤堀"},"3630023":{"post_code":"3630023","prefecture":"SAITAMA KEN","city":"OKEGAWA SHI","town":"ASAHI","perfecture_jp":"埼玉県","jp_add_1":"桶川市","jp_add_2":"朝日"},"3630021":{"post_code":"3630021","prefecture":"SAITAMA KEN","city":"OKEGAWA SHI","town":"IZUMI","perfecture_jp":"埼玉県","jp_add_1":"桶川市","jp_add_2":"泉"},"3630001":{"post_code":"3630001","prefecture":"SAITAMA KEN","city":"OKEGAWA SHI","town":"KANO","perfecture_jp":"埼玉県","jp_add_1":"桶川市","jp_add_2":"加納"},"3630026":{"post_code":"3630026","prefecture":"SAITAMA KEN","city":"OKEGAWA SHI","town":"KAMIHIDEYA","perfecture_jp":"埼玉県","jp_add_1":"桶川市","jp_add_2":"上日出谷"},"3630024":{"post_code":"3630024","prefecture":"SAITAMA KEN","city":"OKEGAWA SHI","town":"KAMOGAWA","perfecture_jp":"埼玉県","jp_add_1":"桶川市","jp_add_2":"鴨川"},"3630027":{"post_code":"3630027","prefecture":"SAITAMA KEN","city":"OKEGAWA SHI","town":"KAWATAYA","perfecture_jp":"埼玉県","jp_add_1":"桶川市","jp_add_2":"川田谷"},"3630011":{"post_code":"3630011","prefecture":"SAITAMA KEN","city":"OKEGAWA SHI","town":"KITA","perfecture_jp":"埼玉県","jp_add_1":"桶川市","jp_add_2":"北"},"3630006":{"post_code":"3630006","prefecture":"SAITAMA KEN","city":"OKEGAWA SHI","town":"KURATA","perfecture_jp":"埼玉県","jp_add_1":"桶川市","jp_add_2":"倉田"},"3630004":{"post_code":"3630004","prefecture":"SAITAMA KEN","city":"OKEGAWA SHI","town":"GOCHODAI","perfecture_jp":"埼玉県","jp_add_1":"桶川市","jp_add_2":"五丁台"},"3630016":{"post_code":"3630016","prefecture":"SAITAMA KEN","city":"OKEGAWA SHI","town":"KOTOBUKI","perfecture_jp":"埼玉県","jp_add_1":"桶川市","jp_add_2":"寿"},"3630007":{"post_code":"3630007","prefecture":"SAITAMA KEN","city":"OKEGAWA SHI","town":"KOBARIRYOKE","perfecture_jp":"埼玉県","jp_add_1":"桶川市","jp_add_2":"小針領家"},"3630008":{"post_code":"3630008","prefecture":"SAITAMA KEN","city":"OKEGAWA SHI","town":"SAKATA","perfecture_jp":"埼玉県","jp_add_1":"桶川市","jp_add_2":"坂田"},"3630009":{"post_code":"3630009","prefecture":"SAITAMA KEN","city":"OKEGAWA SHI","town":"SAKATA HIGASHI","perfecture_jp":"埼玉県","jp_add_1":"桶川市","jp_add_2":"坂田東"},"3630003":{"post_code":"3630003","prefecture":"SAITAMA KEN","city":"OKEGAWA SHI","town":"SHINOZU","perfecture_jp":"埼玉県","jp_add_1":"桶川市","jp_add_2":"篠津"},"3630025":{"post_code":"3630025","prefecture":"SAITAMA KEN","city":"OKEGAWA SHI","town":"SHIMOHIDEYA","perfecture_jp":"埼玉県","jp_add_1":"桶川市","jp_add_2":"下日出谷"},"3630028":{"post_code":"3630028","prefecture":"SAITAMA KEN","city":"OKEGAWA SHI","town":"SHIMOHIDEYA NISHI","perfecture_jp":"埼玉県","jp_add_1":"桶川市","jp_add_2":"下日出谷西"},"3630014":{"post_code":"3630014","prefecture":"SAITAMA KEN","city":"OKEGAWA SHI","town":"SHIMMEI","perfecture_jp":"埼玉県","jp_add_1":"桶川市","jp_add_2":"神明"},"3630012":{"post_code":"3630012","prefecture":"SAITAMA KEN","city":"OKEGAWA SHI","town":"SUEHIRO","perfecture_jp":"埼玉県","jp_add_1":"桶川市","jp_add_2":"末広"},"3630005":{"post_code":"3630005","prefecture":"SAITAMA KEN","city":"OKEGAWA SHI","town":"TONERISHINDEN","perfecture_jp":"埼玉県","jp_add_1":"桶川市","jp_add_2":"舎人新田"},"3630017":{"post_code":"3630017","prefecture":"SAITAMA KEN","city":"OKEGAWA SHI","town":"NISHI","perfecture_jp":"埼玉県","jp_add_1":"桶川市","jp_add_2":"西"},"3630013":{"post_code":"3630013","prefecture":"SAITAMA KEN","city":"OKEGAWA SHI","town":"HIGASHI","perfecture_jp":"埼玉県","jp_add_1":"桶川市","jp_add_2":"東"},"3630015":{"post_code":"3630015","prefecture":"SAITAMA KEN","city":"OKEGAWA SHI","town":"MINAMI","perfecture_jp":"埼玉県","jp_add_1":"桶川市","jp_add_2":"南"},"3630022":{"post_code":"3630022","prefecture":"SAITAMA KEN","city":"OKEGAWA SHI","town":"WAKAMIYA","perfecture_jp":"埼玉県","jp_add_1":"桶川市","jp_add_2":"若宮"}}