{"3640000":{"post_code":"3640000","prefecture":"SAITAMA KEN","city":"KITAMOTO SHI","town":"IKANIKEISAIGANAIBAAI","perfecture_jp":"埼玉県","jp_add_1":"北本市","jp_add_2":""},"3640011":{"post_code":"3640011","prefecture":"SAITAMA KEN","city":"KITAMOTO SHI","town":"ASAHI","perfecture_jp":"埼玉県","jp_add_1":"北本市","jp_add_2":"朝日"},"3640007":{"post_code":"3640007","prefecture":"SAITAMA KEN","city":"KITAMOTO SHI","town":"AZUMA","perfecture_jp":"埼玉県","jp_add_1":"北本市","jp_add_2":"東間"},"3640026":{"post_code":"3640026","prefecture":"SAITAMA KEN","city":"KITAMOTO SHI","town":"ARAI","perfecture_jp":"埼玉県","jp_add_1":"北本市","jp_add_2":"荒井"},"3640024":{"post_code":"3640024","prefecture":"SAITAMA KEN","city":"KITAMOTO SHI","town":"ISHITO","perfecture_jp":"埼玉県","jp_add_1":"北本市","jp_add_2":"石戸"},"3640025":{"post_code":"3640025","prefecture":"SAITAMA KEN","city":"KITAMOTO SHI","town":"ISHITOJUKU","perfecture_jp":"埼玉県","jp_add_1":"北本市","jp_add_2":"石戸宿"},"3640012":{"post_code":"3640012","prefecture":"SAITAMA KEN","city":"KITAMOTO SHI","town":"KITANAKAMARU","perfecture_jp":"埼玉県","jp_add_1":"北本市","jp_add_2":"北中丸"},"3640006":{"post_code":"3640006","prefecture":"SAITAMA KEN","city":"KITAMOTO SHI","town":"KITAMOTO","perfecture_jp":"埼玉県","jp_add_1":"北本市","jp_add_2":"北本"},"3640021":{"post_code":"3640021","prefecture":"SAITAMA KEN","city":"KITAMOTO SHI","town":"KITAMOTOJUKU","perfecture_jp":"埼玉県","jp_add_1":"北本市","jp_add_2":"北本宿"},"3640027":{"post_code":"3640027","prefecture":"SAITAMA KEN","city":"KITAMOTO SHI","town":"SAKAE","perfecture_jp":"埼玉県","jp_add_1":"北本市","jp_add_2":"栄"},"3640022":{"post_code":"3640022","prefecture":"SAITAMA KEN","city":"KITAMOTO SHI","town":"SHIMOISHITO KAMI","perfecture_jp":"埼玉県","jp_add_1":"北本市","jp_add_2":"下石戸上"},"3640023":{"post_code":"3640023","prefecture":"SAITAMA KEN","city":"KITAMOTO SHI","town":"SHIMOISHITO SHIMO","perfecture_jp":"埼玉県","jp_add_1":"北本市","jp_add_2":"下石戸下"},"3640034":{"post_code":"3640034","prefecture":"SAITAMA KEN","city":"KITAMOTO SHI","town":"TAKAO","perfecture_jp":"埼玉県","jp_add_1":"北本市","jp_add_2":"高尾"},"3640031":{"post_code":"3640031","prefecture":"SAITAMA KEN","city":"KITAMOTO SHI","town":"CHUO","perfecture_jp":"埼玉県","jp_add_1":"北本市","jp_add_2":"中央"},"3640013":{"post_code":"3640013","prefecture":"SAITAMA KEN","city":"KITAMOTO SHI","town":"NAKAMARU","perfecture_jp":"埼玉県","jp_add_1":"北本市","jp_add_2":"中丸"},"3640035":{"post_code":"3640035","prefecture":"SAITAMA KEN","city":"KITAMOTO SHI","town":"NISHITAKAO","perfecture_jp":"埼玉県","jp_add_1":"北本市","jp_add_2":"西高尾"},"3640001":{"post_code":"3640001","prefecture":"SAITAMA KEN","city":"KITAMOTO SHI","town":"FUKAI","perfecture_jp":"埼玉県","jp_add_1":"北本市","jp_add_2":"深井"},"3640014":{"post_code":"3640014","prefecture":"SAITAMA KEN","city":"KITAMOTO SHI","town":"FUTATSUYA","perfecture_jp":"埼玉県","jp_add_1":"北本市","jp_add_2":"二ツ家"},"3640003":{"post_code":"3640003","prefecture":"SAITAMA KEN","city":"KITAMOTO SHI","town":"FURUICHIBA","perfecture_jp":"埼玉県","jp_add_1":"北本市","jp_add_2":"古市場"},"3640033":{"post_code":"3640033","prefecture":"SAITAMA KEN","city":"KITAMOTO SHI","town":"HONCHO","perfecture_jp":"埼玉県","jp_add_1":"北本市","jp_add_2":"本町"},"3640032":{"post_code":"3640032","prefecture":"SAITAMA KEN","city":"KITAMOTO SHI","town":"MIDORI","perfecture_jp":"埼玉県","jp_add_1":"北本市","jp_add_2":"緑"},"3640002":{"post_code":"3640002","prefecture":"SAITAMA KEN","city":"KITAMOTO SHI","town":"MIYAUCHI","perfecture_jp":"埼玉県","jp_add_1":"北本市","jp_add_2":"宮内"},"3640005":{"post_code":"3640005","prefecture":"SAITAMA KEN","city":"KITAMOTO SHI","town":"MOTOJUKU","perfecture_jp":"埼玉県","jp_add_1":"北本市","jp_add_2":"本宿"},"3640004":{"post_code":"3640004","prefecture":"SAITAMA KEN","city":"KITAMOTO SHI","town":"YAMANAKA","perfecture_jp":"埼玉県","jp_add_1":"北本市","jp_add_2":"山中"}}