{"3650000":{"post_code":"3650000","prefecture":"SAITAMA KEN","city":"KONOSU SHI","town":"IKANIKEISAIGANAIBAAI","perfecture_jp":"埼玉県","jp_add_1":"鴻巣市","jp_add_2":""},"3650068":{"post_code":"3650068","prefecture":"SAITAMA KEN","city":"KONOSU SHI","town":"AINOMACHI","perfecture_jp":"埼玉県","jp_add_1":"鴻巣市","jp_add_2":"愛の町"},"3650002":{"post_code":"3650002","prefecture":"SAITAMA KEN","city":"KONOSU SHI","town":"AKAGI","perfecture_jp":"埼玉県","jp_add_1":"鴻巣市","jp_add_2":"赤城"},"3650001":{"post_code":"3650001","prefecture":"SAITAMA KEN","city":"KONOSU SHI","town":"AKAGIDAI","perfecture_jp":"埼玉県","jp_add_1":"鴻巣市","jp_add_2":"赤城台"},"3650064":{"post_code":"3650064","prefecture":"SAITAMA KEN","city":"KONOSU SHI","town":"AKAMIDAI","perfecture_jp":"埼玉県","jp_add_1":"鴻巣市","jp_add_2":"赤見台"},"3650011":{"post_code":"3650011","prefecture":"SAITAMA KEN","city":"KONOSU SHI","town":"ARAI","perfecture_jp":"埼玉県","jp_add_1":"鴻巣市","jp_add_2":"新井"},"3650021":{"post_code":"3650021","prefecture":"SAITAMA KEN","city":"KONOSU SHI","town":"ANYOJI","perfecture_jp":"埼玉県","jp_add_1":"鴻巣市","jp_add_2":"安養寺"},"3650072":{"post_code":"3650072","prefecture":"SAITAMA KEN","city":"KONOSU SHI","town":"ICHINONAWA","perfecture_jp":"埼玉県","jp_add_1":"鴻巣市","jp_add_2":"市ノ縄"},"3650063":{"post_code":"3650063","prefecture":"SAITAMA KEN","city":"KONOSU SHI","town":"INARICHO","perfecture_jp":"埼玉県","jp_add_1":"鴻巣市","jp_add_2":"稲荷町"},"3650033":{"post_code":"3650033","prefecture":"SAITAMA KEN","city":"KONOSU SHI","town":"OINEZUKA","perfecture_jp":"埼玉県","jp_add_1":"鴻巣市","jp_add_2":"生出塚"},"3650054":{"post_code":"3650054","prefecture":"SAITAMA KEN","city":"KONOSU SHI","town":"OMA","perfecture_jp":"埼玉県","jp_add_1":"鴻巣市","jp_add_2":"大間"},"3650023":{"post_code":"3650023","prefecture":"SAITAMA KEN","city":"KONOSU SHI","town":"KASAHARA","perfecture_jp":"埼玉県","jp_add_1":"鴻巣市","jp_add_2":"笠原"},"3650078":{"post_code":"3650078","prefecture":"SAITAMA KEN","city":"KONOSU SHI","town":"KAMI","perfecture_jp":"埼玉県","jp_add_1":"鴻巣市","jp_add_2":"加美"},"3650012":{"post_code":"3650012","prefecture":"SAITAMA KEN","city":"KONOSU SHI","town":"KAMIEGE","perfecture_jp":"埼玉県","jp_add_1":"鴻巣市","jp_add_2":"上会下"},"3650034":{"post_code":"3650034","prefecture":"SAITAMA KEN","city":"KONOSU SHI","town":"KAMIOINEZUKA","perfecture_jp":"埼玉県","jp_add_1":"鴻巣市","jp_add_2":"上生出塚"},"3650027":{"post_code":"3650027","prefecture":"SAITAMA KEN","city":"KONOSU SHI","town":"KAMIYA","perfecture_jp":"埼玉県","jp_add_1":"鴻巣市","jp_add_2":"上谷"},"3650061":{"post_code":"3650061","prefecture":"SAITAMA KEN","city":"KONOSU SHI","town":"KAWAZURA","perfecture_jp":"埼玉県","jp_add_1":"鴻巣市","jp_add_2":"川面"},"3650058":{"post_code":"3650058","prefecture":"SAITAMA KEN","city":"KONOSU SHI","town":"KITANAKANO","perfecture_jp":"埼玉県","jp_add_1":"鴻巣市","jp_add_2":"北中野"},"3650003":{"post_code":"3650003","prefecture":"SAITAMA KEN","city":"KONOSU SHI","town":"KITANE","perfecture_jp":"埼玉県","jp_add_1":"鴻巣市","jp_add_2":"北根"},"3650014":{"post_code":"3650014","prefecture":"SAITAMA KEN","city":"KONOSU SHI","town":"KUSU","perfecture_jp":"埼玉県","jp_add_1":"鴻巣市","jp_add_2":"屈巣"},"3650022":{"post_code":"3650022","prefecture":"SAITAMA KEN","city":"KONOSU SHI","town":"GOJI","perfecture_jp":"埼玉県","jp_add_1":"鴻巣市","jp_add_2":"郷地"},"3650028":{"post_code":"3650028","prefecture":"SAITAMA KEN","city":"KONOSU SHI","town":"KONOSU","perfecture_jp":"埼玉県","jp_add_1":"鴻巣市","jp_add_2":"鴻巣"},"3650041":{"post_code":"3650041","prefecture":"SAITAMA KEN","city":"KONOSU SHI","town":"KOMATSU","perfecture_jp":"埼玉県","jp_add_1":"鴻巣市","jp_add_2":"小松"},"3650057":{"post_code":"3650057","prefecture":"SAITAMA KEN","city":"KONOSU SHI","town":"SAIWAICHO","perfecture_jp":"埼玉県","jp_add_1":"鴻巣市","jp_add_2":"幸町"},"3650013":{"post_code":"3650013","prefecture":"SAITAMA KEN","city":"KONOSU SHI","town":"SAKAI","perfecture_jp":"埼玉県","jp_add_1":"鴻巣市","jp_add_2":"境"},"3650055":{"post_code":"3650055","prefecture":"SAITAMA KEN","city":"KONOSU SHI","town":"SAKAECHO","perfecture_jp":"埼玉県","jp_add_1":"鴻巣市","jp_add_2":"栄町"},"3650047":{"post_code":"3650047","prefecture":"SAITAMA KEN","city":"KONOSU SHI","town":"SAKASAGAWA","perfecture_jp":"埼玉県","jp_add_1":"鴻巣市","jp_add_2":"逆川"},"3650035":{"post_code":"3650035","prefecture":"SAITAMA KEN","city":"KONOSU SHI","town":"SHIMOINEZUKA","perfecture_jp":"埼玉県","jp_add_1":"鴻巣市","jp_add_2":"下生出塚"},"3650025":{"post_code":"3650025","prefecture":"SAITAMA KEN","city":"KONOSU SHI","town":"SHIMOYA","perfecture_jp":"埼玉県","jp_add_1":"鴻巣市","jp_add_2":"下谷"},"3650024":{"post_code":"3650024","prefecture":"SAITAMA KEN","city":"KONOSU SHI","town":"JOKO","perfecture_jp":"埼玉県","jp_add_1":"鴻巣市","jp_add_2":"常光"},"3650074":{"post_code":"3650074","prefecture":"SAITAMA KEN","city":"KONOSU SHI","town":"SHIMMEI","perfecture_jp":"埼玉県","jp_add_1":"鴻巣市","jp_add_2":"神明"},"3650067":{"post_code":"3650067","prefecture":"SAITAMA KEN","city":"KONOSU SHI","town":"SUMIRENO","perfecture_jp":"埼玉県","jp_add_1":"鴻巣市","jp_add_2":"すみれ野"},"3650004":{"post_code":"3650004","prefecture":"SAITAMA KEN","city":"KONOSU SHI","town":"SEKISHINDEN","perfecture_jp":"埼玉県","jp_add_1":"鴻巣市","jp_add_2":"関新田"},"3650044":{"post_code":"3650044","prefecture":"SAITAMA KEN","city":"KONOSU SHI","town":"TAKIMAMURO","perfecture_jp":"埼玉県","jp_add_1":"鴻巣市","jp_add_2":"滝馬室"},"3650032":{"post_code":"3650032","prefecture":"SAITAMA KEN","city":"KONOSU SHI","town":"CHUO","perfecture_jp":"埼玉県","jp_add_1":"鴻巣市","jp_add_2":"中央"},"3650056":{"post_code":"3650056","prefecture":"SAITAMA KEN","city":"KONOSU SHI","town":"TSUTSUMICHO","perfecture_jp":"埼玉県","jp_add_1":"鴻巣市","jp_add_2":"堤町"},"3650071":{"post_code":"3650071","prefecture":"SAITAMA KEN","city":"KONOSU SHI","town":"TERAYA","perfecture_jp":"埼玉県","jp_add_1":"鴻巣市","jp_add_2":"寺谷"},"3650036":{"post_code":"3650036","prefecture":"SAITAMA KEN","city":"KONOSU SHI","town":"TENJIN","perfecture_jp":"埼玉県","jp_add_1":"鴻巣市","jp_add_2":"天神"},"3650065":{"post_code":"3650065","prefecture":"SAITAMA KEN","city":"KONOSU SHI","town":"NAKAI","perfecture_jp":"埼玉県","jp_add_1":"鴻巣市","jp_add_2":"中井"},"3650026":{"post_code":"3650026","prefecture":"SAITAMA KEN","city":"KONOSU SHI","town":"NISHINAKAZONE","perfecture_jp":"埼玉県","jp_add_1":"鴻巣市","jp_add_2":"西中曽根"},"3650037":{"post_code":"3650037","prefecture":"SAITAMA KEN","city":"KONOSU SHI","town":"NINGYO","perfecture_jp":"埼玉県","jp_add_1":"鴻巣市","jp_add_2":"人形"},"3650059":{"post_code":"3650059","prefecture":"SAITAMA KEN","city":"KONOSU SHI","town":"NUKATA","perfecture_jp":"埼玉県","jp_add_1":"鴻巣市","jp_add_2":"糠田"},"3650052":{"post_code":"3650052","prefecture":"SAITAMA KEN","city":"KONOSU SHI","town":"NOBORITO","perfecture_jp":"埼玉県","jp_add_1":"鴻巣市","jp_add_2":"登戸"},"3650073":{"post_code":"3650073","prefecture":"SAITAMA KEN","city":"KONOSU SHI","town":"HACHIMANDEN","perfecture_jp":"埼玉県","jp_add_1":"鴻巣市","jp_add_2":"八幡田"},"3650043":{"post_code":"3650043","prefecture":"SAITAMA KEN","city":"KONOSU SHI","town":"HARAMAMURO","perfecture_jp":"埼玉県","jp_add_1":"鴻巣市","jp_add_2":"原馬室"},"3650045":{"post_code":"3650045","prefecture":"SAITAMA KEN","city":"KONOSU SHI","town":"HIKAWACHO","perfecture_jp":"埼玉県","jp_add_1":"鴻巣市","jp_add_2":"氷川町"},"3650039":{"post_code":"3650039","prefecture":"SAITAMA KEN","city":"KONOSU SHI","town":"HIGASHI","perfecture_jp":"埼玉県","jp_add_1":"鴻巣市","jp_add_2":"東"},"3650031":{"post_code":"3650031","prefecture":"SAITAMA KEN","city":"KONOSU SHI","town":"HIBARINO","perfecture_jp":"埼玉県","jp_add_1":"鴻巣市","jp_add_2":"ひばり野"},"3650005":{"post_code":"3650005","prefecture":"SAITAMA KEN","city":"KONOSU SHI","town":"HIRODA","perfecture_jp":"埼玉県","jp_add_1":"鴻巣市","jp_add_2":"広田"},"3650046":{"post_code":"3650046","prefecture":"SAITAMA KEN","city":"KONOSU SHI","town":"FUJIMICHO","perfecture_jp":"埼玉県","jp_add_1":"鴻巣市","jp_add_2":"富士見町"},"3650038":{"post_code":"3650038","prefecture":"SAITAMA KEN","city":"KONOSU SHI","town":"HONCHO","perfecture_jp":"埼玉県","jp_add_1":"鴻巣市","jp_add_2":"本町"},"3650076":{"post_code":"3650076","prefecture":"SAITAMA KEN","city":"KONOSU SHI","town":"HOMMIYACHO","perfecture_jp":"埼玉県","jp_add_1":"鴻巣市","jp_add_2":"本宮町"},"3650042":{"post_code":"3650042","prefecture":"SAITAMA KEN","city":"KONOSU SHI","town":"MATSUBARA","perfecture_jp":"埼玉県","jp_add_1":"鴻巣市","jp_add_2":"松原"},"3650062":{"post_code":"3650062","prefecture":"SAITAMA KEN","city":"KONOSU SHI","town":"MIDA","perfecture_jp":"埼玉県","jp_add_1":"鴻巣市","jp_add_2":"箕田"},"3650066":{"post_code":"3650066","prefecture":"SAITAMA KEN","city":"KONOSU SHI","town":"MITSUGI","perfecture_jp":"埼玉県","jp_add_1":"鴻巣市","jp_add_2":"三ツ木"},"3650053":{"post_code":"3650053","prefecture":"SAITAMA KEN","city":"KONOSU SHI","town":"MIDORICHO","perfecture_jp":"埼玉県","jp_add_1":"鴻巣市","jp_add_2":"緑町"},"3650075":{"post_code":"3650075","prefecture":"SAITAMA KEN","city":"KONOSU SHI","town":"MIYAJI","perfecture_jp":"埼玉県","jp_add_1":"鴻巣市","jp_add_2":"宮地"},"3650051":{"post_code":"3650051","prefecture":"SAITAMA KEN","city":"KONOSU SHI","town":"MIYAMAE","perfecture_jp":"埼玉県","jp_add_1":"鴻巣市","jp_add_2":"宮前"},"3650077":{"post_code":"3650077","prefecture":"SAITAMA KEN","city":"KONOSU SHI","town":"RAIDEN","perfecture_jp":"埼玉県","jp_add_1":"鴻巣市","jp_add_2":"雷電"}}