{"3680000":{"post_code":"3680000","prefecture":"SAITAMA KEN","city":"CHICHIBU GUN YOKOZE MACHI","town":"IKANIKEISAIGANAIBAAI","perfecture_jp":"埼玉県","jp_add_1":"秩父市","jp_add_2":""},"3680026":{"post_code":"3680026","prefecture":"SAITAMA KEN","city":"CHICHIBU SHI","town":"AIOICHO","perfecture_jp":"埼玉県","jp_add_1":"秩父市","jp_add_2":"相生町"},"3680016":{"post_code":"3680016","prefecture":"SAITAMA KEN","city":"CHICHIBU SHI","town":"ABOMACHI","perfecture_jp":"埼玉県","jp_add_1":"秩父市","jp_add_2":"阿保町"},"3680063":{"post_code":"3680063","prefecture":"SAITAMA KEN","city":"CHICHIBU SHI","town":"IKOTA","perfecture_jp":"埼玉県","jp_add_1":"秩父市","jp_add_2":"伊古田"},"3680031":{"post_code":"3680031","prefecture":"SAITAMA KEN","city":"CHICHIBU SHI","town":"UENOMACHI","perfecture_jp":"埼玉県","jp_add_1":"秩父市","jp_add_2":"上野町"},"3680065":{"post_code":"3680065","prefecture":"SAITAMA KEN","city":"CHICHIBU SHI","town":"OTA","perfecture_jp":"埼玉県","jp_add_1":"秩父市","jp_add_2":"太田"},"3680005":{"post_code":"3680005","prefecture":"SAITAMA KEN","city":"CHICHIBU SHI","town":"ONOHARA","perfecture_jp":"埼玉県","jp_add_1":"秩父市","jp_add_2":"大野原"},"3680011":{"post_code":"3680011","prefecture":"SAITAMA KEN","city":"CHICHIBU SHI","town":"OBATAKEMACHI","perfecture_jp":"埼玉県","jp_add_1":"秩父市","jp_add_2":"大畑町"},"3680023":{"post_code":"3680023","prefecture":"SAITAMA KEN","city":"CHICHIBU SHI","town":"OMIYA","perfecture_jp":"埼玉県","jp_add_1":"秩父市","jp_add_2":"大宮"},"3680061":{"post_code":"3680061","prefecture":"SAITAMA KEN","city":"CHICHIBU SHI","town":"OBASHIRA","perfecture_jp":"埼玉県","jp_add_1":"秩父市","jp_add_2":"小柱"},"3680014":{"post_code":"3680014","prefecture":"SAITAMA KEN","city":"CHICHIBU SHI","town":"KANAMUROMACHI","perfecture_jp":"埼玉県","jp_add_1":"秩父市","jp_add_2":"金室町"},"3680035":{"post_code":"3680035","prefecture":"SAITAMA KEN","city":"CHICHIBU SHI","town":"KAMIMACHI","perfecture_jp":"埼玉県","jp_add_1":"秩父市","jp_add_2":"上町"},"3680024":{"post_code":"3680024","prefecture":"SAITAMA KEN","city":"CHICHIBU SHI","town":"KAMIMIYAJIMACHI","perfecture_jp":"埼玉県","jp_add_1":"秩父市","jp_add_2":"上宮地町"},"3680053":{"post_code":"3680053","prefecture":"SAITAMA KEN","city":"CHICHIBU SHI","town":"KUNA","perfecture_jp":"埼玉県","jp_add_1":"秩父市","jp_add_2":"久那"},"3680032":{"post_code":"3680032","prefecture":"SAITAMA KEN","city":"CHICHIBU SHI","town":"KUMAGIMACHI","perfecture_jp":"埼玉県","jp_add_1":"秩父市","jp_add_2":"熊木町"},"3680001":{"post_code":"3680001","prefecture":"SAITAMA KEN","city":"CHICHIBU SHI","town":"KUROYA","perfecture_jp":"埼玉県","jp_add_1":"秩父市","jp_add_2":"黒谷"},"3680025":{"post_code":"3680025","prefecture":"SAITAMA KEN","city":"CHICHIBU SHI","town":"SAKURAGIMACHI","perfecture_jp":"埼玉県","jp_add_1":"秩父市","jp_add_2":"桜木町"},"3680003":{"post_code":"3680003","prefecture":"SAITAMA KEN","city":"CHICHIBU SHI","town":"SADAMINE","perfecture_jp":"埼玉県","jp_add_1":"秩父市","jp_add_2":"定峰"},"3680064":{"post_code":"3680064","prefecture":"SAITAMA KEN","city":"CHICHIBU SHI","town":"SHINAZAWA","perfecture_jp":"埼玉県","jp_add_1":"秩父市","jp_add_2":"品沢"},"3680021":{"post_code":"3680021","prefecture":"SAITAMA KEN","city":"CHICHIBU SHI","town":"SHIMOMIYAJIMACHI","perfecture_jp":"埼玉県","jp_add_1":"秩父市","jp_add_2":"下宮地町"},"3680012":{"post_code":"3680012","prefecture":"SAITAMA KEN","city":"CHICHIBU SHI","town":"TAKINOEMACHI","perfecture_jp":"埼玉県","jp_add_1":"秩父市","jp_add_2":"滝の上町"},"3680055":{"post_code":"3680055","prefecture":"SAITAMA KEN","city":"CHICHIBU SHI","town":"TAMURA","perfecture_jp":"埼玉県","jp_add_1":"秩父市","jp_add_2":"田村"},"3680052":{"post_code":"3680052","prefecture":"SAITAMA KEN","city":"CHICHIBU SHI","town":"CHIKATOMACHI","perfecture_jp":"埼玉県","jp_add_1":"秩父市","jp_add_2":"近戸町"},"3680056":{"post_code":"3680056","prefecture":"SAITAMA KEN","city":"CHICHIBU SHI","town":"TERAO","perfecture_jp":"埼玉県","jp_add_1":"秩父市","jp_add_2":"寺尾"},"3680045":{"post_code":"3680045","prefecture":"SAITAMA KEN","city":"CHICHIBU SHI","town":"DOJOMACHI","perfecture_jp":"埼玉県","jp_add_1":"秩父市","jp_add_2":"道生町"},"3680002":{"post_code":"3680002","prefecture":"SAITAMA KEN","city":"CHICHIBU SHI","town":"TOCHIYA","perfecture_jp":"埼玉県","jp_add_1":"秩父市","jp_add_2":"栃谷"},"3680043":{"post_code":"3680043","prefecture":"SAITAMA KEN","city":"CHICHIBU SHI","town":"NAKAMACHI","perfecture_jp":"埼玉県","jp_add_1":"秩父市","jp_add_2":"中町"},"3680022":{"post_code":"3680022","prefecture":"SAITAMA KEN","city":"CHICHIBU SHI","town":"NAKAMIYAJIMACHI","perfecture_jp":"埼玉県","jp_add_1":"秩父市","jp_add_2":"中宮地町"},"3680051":{"post_code":"3680051","prefecture":"SAITAMA KEN","city":"CHICHIBU SHI","town":"NAKAMURAMACHI","perfecture_jp":"埼玉県","jp_add_1":"秩父市","jp_add_2":"中村町"},"3680013":{"post_code":"3680013","prefecture":"SAITAMA KEN","city":"CHICHIBU SHI","town":"NAGATAMACHI","perfecture_jp":"埼玉県","jp_add_1":"秩父市","jp_add_2":"永田町"},"3680033":{"post_code":"3680033","prefecture":"SAITAMA KEN","city":"CHICHIBU SHI","town":"NOSAKAMACHI","perfecture_jp":"埼玉県","jp_add_1":"秩父市","jp_add_2":"野坂町"},"3680041":{"post_code":"3680041","prefecture":"SAITAMA KEN","city":"CHICHIBU SHI","town":"BAMBAMACHI","perfecture_jp":"埼玉県","jp_add_1":"秩父市","jp_add_2":"番場町"},"3680042":{"post_code":"3680042","prefecture":"SAITAMA KEN","city":"CHICHIBU SHI","town":"HIGASHIMACHI","perfecture_jp":"埼玉県","jp_add_1":"秩父市","jp_add_2":"東町"},"3680034":{"post_code":"3680034","prefecture":"SAITAMA KEN","city":"CHICHIBU SHI","town":"HINODAMACHI","perfecture_jp":"埼玉県","jp_add_1":"秩父市","jp_add_2":"日野田町"},"3680054":{"post_code":"3680054","prefecture":"SAITAMA KEN","city":"CHICHIBU SHI","town":"BESSHO","perfecture_jp":"埼玉県","jp_add_1":"秩父市","jp_add_2":"別所"},"3680066":{"post_code":"3680066","prefecture":"SAITAMA KEN","city":"CHICHIBU SHI","town":"HORIKIRI","perfecture_jp":"埼玉県","jp_add_1":"秩父市","jp_add_2":"堀切"},"3680062":{"post_code":"3680062","prefecture":"SAITAMA KEN","city":"CHICHIBU SHI","town":"MAITA","perfecture_jp":"埼玉県","jp_add_1":"秩父市","jp_add_2":"蒔田"},"3680067":{"post_code":"3680067","prefecture":"SAITAMA KEN","city":"CHICHIBU SHI","town":"MIDORIGAOKA","perfecture_jp":"埼玉県","jp_add_1":"秩父市","jp_add_2":"みどりが丘"},"3680046":{"post_code":"3680046","prefecture":"SAITAMA KEN","city":"CHICHIBU SHI","town":"MIYAKAWACHO","perfecture_jp":"埼玉県","jp_add_1":"秩父市","jp_add_2":"宮側町"},"3680044":{"post_code":"3680044","prefecture":"SAITAMA KEN","city":"CHICHIBU SHI","town":"MOTOMACHI","perfecture_jp":"埼玉県","jp_add_1":"秩父市","jp_add_2":"本町"},"3680015":{"post_code":"3680015","prefecture":"SAITAMA KEN","city":"CHICHIBU SHI","town":"YANAGIDAMACHI","perfecture_jp":"埼玉県","jp_add_1":"秩父市","jp_add_2":"柳田町"},"3680004":{"post_code":"3680004","prefecture":"SAITAMA KEN","city":"CHICHIBU SHI","town":"YAMADA","perfecture_jp":"埼玉県","jp_add_1":"秩父市","jp_add_2":"山田"},"3680071":{"post_code":"3680071","prefecture":"SAITAMA KEN","city":"CHICHIBU GUN YOKOZE MACHI","town":"ASHIGAKUBO","perfecture_jp":"埼玉県","jp_add_1":"秩父郡横瀬町","jp_add_2":"芦ケ久保"},"3680072":{"post_code":"3680072","prefecture":"SAITAMA KEN","city":"CHICHIBU GUN YOKOZE MACHI","town":"YOKOZE","perfecture_jp":"埼玉県","jp_add_1":"秩父郡横瀬町","jp_add_2":"横瀬"},"3680100":{"post_code":"3680100","prefecture":"SAITAMA KEN","city":"CHICHIBU GUN OGANO MACHI","town":"IKANIKEISAIGANAIBAAI","perfecture_jp":"埼玉県","jp_add_1":"秩父郡小鹿野町","jp_add_2":""},"3680111":{"post_code":"3680111","prefecture":"SAITAMA KEN","city":"CHICHIBU GUN OGANO MACHI","town":"IIDA","perfecture_jp":"埼玉県","jp_add_1":"秩父郡小鹿野町","jp_add_2":"飯田"},"3680104":{"post_code":"3680104","prefecture":"SAITAMA KEN","city":"CHICHIBU GUN OGANO MACHI","town":"IZUSAWA","perfecture_jp":"埼玉県","jp_add_1":"秩父郡小鹿野町","jp_add_2":"伊豆沢"},"3680105":{"post_code":"3680105","prefecture":"SAITAMA KEN","city":"CHICHIBU GUN OGANO MACHI","town":"OGANO","perfecture_jp":"埼玉県","jp_add_1":"秩父郡小鹿野町","jp_add_2":"小鹿野"},"3680113":{"post_code":"3680113","prefecture":"SAITAMA KEN","city":"CHICHIBU GUN OGANO MACHI","town":"KAWARASAWA","perfecture_jp":"埼玉県","jp_add_1":"秩父郡小鹿野町","jp_add_2":"河原沢"},"3680112":{"post_code":"3680112","prefecture":"SAITAMA KEN","city":"CHICHIBU GUN OGANO MACHI","town":"SANYAMA","perfecture_jp":"埼玉県","jp_add_1":"秩父郡小鹿野町","jp_add_2":"三山"},"3680101":{"post_code":"3680101","prefecture":"SAITAMA KEN","city":"CHICHIBU GUN OGANO MACHI","town":"SHIMOGANO","perfecture_jp":"埼玉県","jp_add_1":"秩父郡小鹿野町","jp_add_2":"下小鹿野"},"3680102":{"post_code":"3680102","prefecture":"SAITAMA KEN","city":"CHICHIBU GUN OGANO MACHI","town":"NAGARU","perfecture_jp":"埼玉県","jp_add_1":"秩父郡小鹿野町","jp_add_2":"長留"},"3680103":{"post_code":"3680103","prefecture":"SAITAMA KEN","city":"CHICHIBU GUN OGANO MACHI","town":"HANNYA","perfecture_jp":"埼玉県","jp_add_1":"秩父郡小鹿野町","jp_add_2":"般若"},"3680115":{"post_code":"3680115","prefecture":"SAITAMA KEN","city":"CHICHIBU GUN OGANO MACHI","town":"HIO","perfecture_jp":"埼玉県","jp_add_1":"秩父郡小鹿野町","jp_add_2":"日尾"},"3680114":{"post_code":"3680114","prefecture":"SAITAMA KEN","city":"CHICHIBU GUN OGANO MACHI","town":"FUJIKURA","perfecture_jp":"埼玉県","jp_add_1":"秩父郡小鹿野町","jp_add_2":"藤倉"},"3680202":{"post_code":"3680202","prefecture":"SAITAMA KEN","city":"CHICHIBU GUN OGANO MACHI","town":"RYOKAMIKOMORI","perfecture_jp":"埼玉県","jp_add_1":"秩父郡小鹿野町","jp_add_2":"両神小森"},"3680201":{"post_code":"3680201","prefecture":"SAITAMA KEN","city":"CHICHIBU GUN OGANO MACHI","town":"RYOKAMISUSUKI","perfecture_jp":"埼玉県","jp_add_1":"秩父郡小鹿野町","jp_add_2":"両神薄"}}