{"3720000":{"post_code":"3720000","prefecture":"GUMMA KEN","city":"ISESAKI SHI","town":"IKANIKEISAIGANAIBAAI","perfecture_jp":"群馬県","jp_add_1":"伊勢崎市","jp_add_2":""},"3720821":{"post_code":"3720821","prefecture":"GUMMA KEN","city":"ISESAKI SHI","town":"AMIDAIJIMACHI","perfecture_jp":"群馬県","jp_add_1":"伊勢崎市","jp_add_2":"阿弥大寺町"},"3720007":{"post_code":"3720007","prefecture":"GUMMA KEN","city":"ISESAKI SHI","town":"AMBORIMACHI","perfecture_jp":"群馬県","jp_add_1":"伊勢崎市","jp_add_2":"安堀町"},"3720854":{"post_code":"3720854","prefecture":"GUMMA KEN","city":"ISESAKI SHI","town":"IIJIMACHO","perfecture_jp":"群馬県","jp_add_1":"伊勢崎市","jp_add_2":"飯島町"},"3720804":{"post_code":"3720804","prefecture":"GUMMA KEN","city":"ISESAKI SHI","town":"INARICHO","perfecture_jp":"群馬県","jp_add_1":"伊勢崎市","jp_add_2":"稲荷町"},"3720005":{"post_code":"3720005","prefecture":"GUMMA KEN","city":"ISESAKI SHI","town":"INUICHO","perfecture_jp":"群馬県","jp_add_1":"伊勢崎市","jp_add_2":"乾町"},"3720031":{"post_code":"3720031","prefecture":"GUMMA KEN","city":"ISESAKI SHI","town":"IMAIZUMICHO","perfecture_jp":"群馬県","jp_add_1":"伊勢崎市","jp_add_2":"今泉町"},"3720823":{"post_code":"3720823","prefecture":"GUMMA KEN","city":"ISESAKI SHI","town":"IMAICHO","perfecture_jp":"群馬県","jp_add_1":"伊勢崎市","jp_add_2":"今井町"},"3720006":{"post_code":"3720006","prefecture":"GUMMA KEN","city":"ISESAKI SHI","town":"OTAMACHI","perfecture_jp":"群馬県","jp_add_1":"伊勢崎市","jp_add_2":"太田町"},"3720048":{"post_code":"3720048","prefecture":"GUMMA KEN","city":"ISESAKI SHI","town":"OTEMACHI","perfecture_jp":"群馬県","jp_add_1":"伊勢崎市","jp_add_2":"大手町"},"3720015":{"post_code":"3720015","prefecture":"GUMMA KEN","city":"ISESAKI SHI","town":"KASHIMACHO","perfecture_jp":"群馬県","jp_add_1":"伊勢崎市","jp_add_2":"鹿島町"},"3720023":{"post_code":"3720023","prefecture":"GUMMA KEN","city":"ISESAKI SHI","town":"KASUKAWACHO","perfecture_jp":"群馬県","jp_add_1":"伊勢崎市","jp_add_2":"粕川町"},"3720045":{"post_code":"3720045","prefecture":"GUMMA KEN","city":"ISESAKI SHI","town":"KAMIIZUMICHO","perfecture_jp":"群馬県","jp_add_1":"伊勢崎市","jp_add_2":"上泉町"},"3720013":{"post_code":"3720013","prefecture":"GUMMA KEN","city":"ISESAKI SHI","town":"KAMIUEKIHOMMACHI","perfecture_jp":"群馬県","jp_add_1":"伊勢崎市","jp_add_2":"上植木本町"},"3720021":{"post_code":"3720021","prefecture":"GUMMA KEN","city":"ISESAKI SHI","town":"KAMISUWACHO","perfecture_jp":"群馬県","jp_add_1":"伊勢崎市","jp_add_2":"上諏訪町"},"3720851":{"post_code":"3720851","prefecture":"GUMMA KEN","city":"ISESAKI SHI","town":"KAMIHASUCHO","perfecture_jp":"群馬県","jp_add_1":"伊勢崎市","jp_add_2":"上蓮町"},"3720032":{"post_code":"3720032","prefecture":"GUMMA KEN","city":"ISESAKI SHI","town":"KITASENGICHO","perfecture_jp":"群馬県","jp_add_1":"伊勢崎市","jp_add_2":"北千木町"},"3720056":{"post_code":"3720056","prefecture":"GUMMA KEN","city":"ISESAKI SHI","town":"KITAMACHI","perfecture_jp":"群馬県","jp_add_1":"伊勢崎市","jp_add_2":"喜多町"},"3720055":{"post_code":"3720055","prefecture":"GUMMA KEN","city":"ISESAKI SHI","town":"KURUWACHO","perfecture_jp":"群馬県","jp_add_1":"伊勢崎市","jp_add_2":"曲輪町"},"3720003":{"post_code":"3720003","prefecture":"GUMMA KEN","city":"ISESAKI SHI","town":"KEZOJIMACHI","perfecture_jp":"群馬県","jp_add_1":"伊勢崎市","jp_add_2":"華蔵寺町"},"3720843":{"post_code":"3720843","prefecture":"GUMMA KEN","city":"ISESAKI SHI","town":"GEDOJICHO","perfecture_jp":"群馬県","jp_add_1":"伊勢崎市","jp_add_2":"下道寺町"},"3720853":{"post_code":"3720853","prefecture":"GUMMA KEN","city":"ISESAKI SHI","town":"KOKURYOCHO","perfecture_jp":"群馬県","jp_add_1":"伊勢崎市","jp_add_2":"国領町"},"3720052":{"post_code":"3720052","prefecture":"GUMMA KEN","city":"ISESAKI SHI","town":"KOTOBUKICHO","perfecture_jp":"群馬県","jp_add_1":"伊勢崎市","jp_add_2":"寿町"},"3720831":{"post_code":"3720831","prefecture":"GUMMA KEN","city":"ISESAKI SHI","town":"SANNOCHO","perfecture_jp":"群馬県","jp_add_1":"伊勢崎市","jp_add_2":"山王町"},"3720046":{"post_code":"3720046","prefecture":"GUMMA KEN","city":"ISESAKI SHI","town":"SANKOCHO","perfecture_jp":"群馬県","jp_add_1":"伊勢崎市","jp_add_2":"三光町"},"3720011":{"post_code":"3720011","prefecture":"GUMMA KEN","city":"ISESAKI SHI","town":"SANWACHO","perfecture_jp":"群馬県","jp_add_1":"伊勢崎市","jp_add_2":"三和町"},"3720824":{"post_code":"3720824","prefecture":"GUMMA KEN","city":"ISESAKI SHI","town":"SHIBAMACHI","perfecture_jp":"群馬県","jp_add_1":"伊勢崎市","jp_add_2":"柴町"},"3720024":{"post_code":"3720024","prefecture":"GUMMA KEN","city":"ISESAKI SHI","town":"SHIMOEKICHO","perfecture_jp":"群馬県","jp_add_1":"伊勢崎市","jp_add_2":"下植木町"},"3720852":{"post_code":"3720852","prefecture":"GUMMA KEN","city":"ISESAKI SHI","town":"SHIMOHASUCHO","perfecture_jp":"群馬県","jp_add_1":"伊勢崎市","jp_add_2":"下蓮町"},"3720014":{"post_code":"3720014","prefecture":"GUMMA KEN","city":"ISESAKI SHI","town":"SHOWACHO","perfecture_jp":"群馬県","jp_add_1":"伊勢崎市","jp_add_2":"昭和町"},"3720038":{"post_code":"3720038","prefecture":"GUMMA KEN","city":"ISESAKI SHI","town":"SHINEICHO","perfecture_jp":"群馬県","jp_add_1":"伊勢崎市","jp_add_2":"新栄町"},"3720057":{"post_code":"3720057","prefecture":"GUMMA KEN","city":"ISESAKI SHI","town":"SUEHIROCHO","perfecture_jp":"群馬県","jp_add_1":"伊勢崎市","jp_add_2":"末広町"},"3720841":{"post_code":"3720841","prefecture":"GUMMA KEN","city":"ISESAKI SHI","town":"DAISHOJICHO","perfecture_jp":"群馬県","jp_add_1":"伊勢崎市","jp_add_2":"大正寺町"},"3720802":{"post_code":"3720802","prefecture":"GUMMA KEN","city":"ISESAKI SHI","town":"TANAKAJIMAMACHI","perfecture_jp":"群馬県","jp_add_1":"伊勢崎市","jp_add_2":"田中島町"},"3720814":{"post_code":"3720814","prefecture":"GUMMA KEN","city":"ISESAKI SHI","town":"TANAKAMACHI","perfecture_jp":"群馬県","jp_add_1":"伊勢崎市","jp_add_2":"田中町"},"3720042":{"post_code":"3720042","prefecture":"GUMMA KEN","city":"ISESAKI SHI","town":"CHUOCHO","perfecture_jp":"群馬県","jp_add_1":"伊勢崎市","jp_add_2":"中央町"},"3720004":{"post_code":"3720004","prefecture":"GUMMA KEN","city":"ISESAKI SHI","town":"TSUTSUMI SHITACHO","perfecture_jp":"群馬県","jp_add_1":"伊勢崎市","jp_add_2":"堤下町"},"3720002":{"post_code":"3720002","prefecture":"GUMMA KEN","city":"ISESAKI SHI","town":"TSUTSUMI NISHIMACHI","perfecture_jp":"群馬県","jp_add_1":"伊勢崎市","jp_add_2":"堤西町"},"3720817":{"post_code":"3720817","prefecture":"GUMMA KEN","city":"ISESAKI SHI","town":"TSUNATORI HOMMACHI","perfecture_jp":"群馬県","jp_add_1":"伊勢崎市","jp_add_2":"連取本町"},"3720818":{"post_code":"3720818","prefecture":"GUMMA KEN","city":"ISESAKI SHI","town":"TSUNATORI MOTOMACHI","perfecture_jp":"群馬県","jp_add_1":"伊勢崎市","jp_add_2":"連取元町"},"3720812":{"post_code":"3720812","prefecture":"GUMMA KEN","city":"ISESAKI SHI","town":"TSUNATORIMACHI","perfecture_jp":"群馬県","jp_add_1":"伊勢崎市","jp_add_2":"連取町"},"3720833":{"post_code":"3720833","prefecture":"GUMMA KEN","city":"ISESAKI SHI","town":"TOMIZUKACHO","perfecture_jp":"群馬県","jp_add_1":"伊勢崎市","jp_add_2":"富塚町"},"3720825":{"post_code":"3720825","prefecture":"GUMMA KEN","city":"ISESAKI SHI","town":"TOYAZUKAMACHI","perfecture_jp":"群馬県","jp_add_1":"伊勢崎市","jp_add_2":"戸谷塚町"},"3720012":{"post_code":"3720012","prefecture":"GUMMA KEN","city":"ISESAKI SHI","town":"TOYOSHIROCHO","perfecture_jp":"群馬県","jp_add_1":"伊勢崎市","jp_add_2":"豊城町"},"3720822":{"post_code":"3720822","prefecture":"GUMMA KEN","city":"ISESAKI SHI","town":"NAKAMACHI","perfecture_jp":"群馬県","jp_add_1":"伊勢崎市","jp_add_2":"中町"},"3720855":{"post_code":"3720855","prefecture":"GUMMA KEN","city":"ISESAKI SHI","town":"NAGANUMAMACHI","perfecture_jp":"群馬県","jp_add_1":"伊勢崎市","jp_add_2":"長沼町"},"3720816":{"post_code":"3720816","prefecture":"GUMMA KEN","city":"ISESAKI SHI","town":"NISHIKAMINOMIYAMACHI","perfecture_jp":"群馬県","jp_add_1":"伊勢崎市","jp_add_2":"西上之宮町"},"3720058":{"post_code":"3720058","prefecture":"GUMMA KEN","city":"ISESAKI SHI","town":"NISHIDAMACHI","perfecture_jp":"群馬県","jp_add_1":"伊勢崎市","jp_add_2":"西田町"},"3720813":{"post_code":"3720813","prefecture":"GUMMA KEN","city":"ISESAKI SHI","town":"NIRAZUKAMACHI","perfecture_jp":"群馬県","jp_add_1":"伊勢崎市","jp_add_2":"韮塚町"},"3720844":{"post_code":"3720844","prefecture":"GUMMA KEN","city":"ISESAKI SHI","town":"HAGUROCHO","perfecture_jp":"群馬県","jp_add_1":"伊勢崎市","jp_add_2":"羽黒町"},"3720001":{"post_code":"3720001","prefecture":"GUMMA KEN","city":"ISESAKI SHI","town":"HASHIEMACHI","perfecture_jp":"群馬県","jp_add_1":"伊勢崎市","jp_add_2":"波志江町"},"3720815":{"post_code":"3720815","prefecture":"GUMMA KEN","city":"ISESAKI SHI","town":"HIGASHIKAMINOMIYAMACHI","perfecture_jp":"群馬県","jp_add_1":"伊勢崎市","jp_add_2":"東上之宮町"},"3720025":{"post_code":"3720025","prefecture":"GUMMA KEN","city":"ISESAKI SHI","town":"HIGASHIHOMMACHI","perfecture_jp":"群馬県","jp_add_1":"伊勢崎市","jp_add_2":"東本町"},"3720022":{"post_code":"3720022","prefecture":"GUMMA KEN","city":"ISESAKI SHI","town":"HINODECHO","perfecture_jp":"群馬県","jp_add_1":"伊勢崎市","jp_add_2":"日乃出町"},"3720039":{"post_code":"3720039","prefecture":"GUMMA KEN","city":"ISESAKI SHI","town":"HIROSECHO","perfecture_jp":"群馬県","jp_add_1":"伊勢崎市","jp_add_2":"ひろせ町"},"3720826":{"post_code":"3720826","prefecture":"GUMMA KEN","city":"ISESAKI SHI","town":"FUKUJIMAMACHI","perfecture_jp":"群馬県","jp_add_1":"伊勢崎市","jp_add_2":"福島町"},"3720041":{"post_code":"3720041","prefecture":"GUMMA KEN","city":"ISESAKI SHI","town":"HEIWACHO","perfecture_jp":"群馬県","jp_add_1":"伊勢崎市","jp_add_2":"平和町"},"3720834":{"post_code":"3720834","prefecture":"GUMMA KEN","city":"ISESAKI SHI","town":"HORIGUCHIMACHI","perfecture_jp":"群馬県","jp_add_1":"伊勢崎市","jp_add_2":"堀口町"},"3720016":{"post_code":"3720016","prefecture":"GUMMA KEN","city":"ISESAKI SHI","town":"HONSEKICHO","perfecture_jp":"群馬県","jp_add_1":"伊勢崎市","jp_add_2":"本関町"},"3720047":{"post_code":"3720047","prefecture":"GUMMA KEN","city":"ISESAKI SHI","town":"HOMMACHI","perfecture_jp":"群馬県","jp_add_1":"伊勢崎市","jp_add_2":"本町"},"3720842":{"post_code":"3720842","prefecture":"GUMMA KEN","city":"ISESAKI SHI","town":"MAMIZUKAMACHI","perfecture_jp":"群馬県","jp_add_1":"伊勢崎市","jp_add_2":"馬見塚町"},"3720043":{"post_code":"3720043","prefecture":"GUMMA KEN","city":"ISESAKI SHI","town":"MIDORICHO","perfecture_jp":"群馬県","jp_add_1":"伊勢崎市","jp_add_2":"緑町"},"3720033":{"post_code":"3720033","prefecture":"GUMMA KEN","city":"ISESAKI SHI","town":"MINAMISENGICHO","perfecture_jp":"群馬県","jp_add_1":"伊勢崎市","jp_add_2":"南千木町"},"3720037":{"post_code":"3720037","prefecture":"GUMMA KEN","city":"ISESAKI SHI","town":"MIMOROCHO","perfecture_jp":"群馬県","jp_add_1":"伊勢崎市","jp_add_2":"美茂呂町"},"3720801":{"post_code":"3720801","prefecture":"GUMMA KEN","city":"ISESAKI SHI","town":"MIYAKOMACHI","perfecture_jp":"群馬県","jp_add_1":"伊勢崎市","jp_add_2":"宮子町"},"3720803":{"post_code":"3720803","prefecture":"GUMMA KEN","city":"ISESAKI SHI","town":"MIYAFURUMACHI","perfecture_jp":"群馬県","jp_add_1":"伊勢崎市","jp_add_2":"宮古町"},"3720026":{"post_code":"3720026","prefecture":"GUMMA KEN","city":"ISESAKI SHI","town":"MIYAMAECHO","perfecture_jp":"群馬県","jp_add_1":"伊勢崎市","jp_add_2":"宮前町"},"3720053":{"post_code":"3720053","prefecture":"GUMMA KEN","city":"ISESAKI SHI","town":"MUNETAKACHO","perfecture_jp":"群馬県","jp_add_1":"伊勢崎市","jp_add_2":"宗高町"},"3720034":{"post_code":"3720034","prefecture":"GUMMA KEN","city":"ISESAKI SHI","town":"MOROMACHI","perfecture_jp":"群馬県","jp_add_1":"伊勢崎市","jp_add_2":"茂呂町"},"3720036":{"post_code":"3720036","prefecture":"GUMMA KEN","city":"ISESAKI SHI","town":"MOROMINAMICHO","perfecture_jp":"群馬県","jp_add_1":"伊勢崎市","jp_add_2":"茂呂南町"},"3720044":{"post_code":"3720044","prefecture":"GUMMA KEN","city":"ISESAKI SHI","town":"YASAKACHO","perfecture_jp":"群馬県","jp_add_1":"伊勢崎市","jp_add_2":"八坂町"},"3720827":{"post_code":"3720827","prefecture":"GUMMA KEN","city":"ISESAKI SHI","town":"YATTAJIMAMACHI","perfecture_jp":"群馬県","jp_add_1":"伊勢崎市","jp_add_2":"八斗島町"},"3720054":{"post_code":"3720054","prefecture":"GUMMA KEN","city":"ISESAKI SHI","town":"YANAGIHARACHO","perfecture_jp":"群馬県","jp_add_1":"伊勢崎市","jp_add_2":"柳原町"},"3720051":{"post_code":"3720051","prefecture":"GUMMA KEN","city":"ISESAKI SHI","town":"YAHATACHO","perfecture_jp":"群馬県","jp_add_1":"伊勢崎市","jp_add_2":"八幡町"},"3720832":{"post_code":"3720832","prefecture":"GUMMA KEN","city":"ISESAKI SHI","town":"YOGECHO","perfecture_jp":"群馬県","jp_add_1":"伊勢崎市","jp_add_2":"除ケ町"},"3720811":{"post_code":"3720811","prefecture":"GUMMA KEN","city":"ISESAKI SHI","town":"WAKABACHO","perfecture_jp":"群馬県","jp_add_1":"伊勢崎市","jp_add_2":"若葉町"}}