{"3730000":{"post_code":"3730000","prefecture":"GUMMA KEN","city":"OTA SHI","town":"IKANIKEISAIGANAIBAAI","perfecture_jp":"群馬県","jp_add_1":"太田市","jp_add_2":""},"3730814":{"post_code":"3730814","prefecture":"GUMMA KEN","city":"OTA SHI","town":"ASAHICHO","perfecture_jp":"群馬県","jp_add_1":"太田市","jp_add_2":"朝日町"},"3730852":{"post_code":"3730852","prefecture":"GUMMA KEN","city":"OTA SHI","town":"ARAICHO","perfecture_jp":"群馬県","jp_add_1":"太田市","jp_add_2":"新井町"},"3730851":{"post_code":"3730851","prefecture":"GUMMA KEN","city":"OTA SHI","town":"IIDACHO","perfecture_jp":"群馬県","jp_add_1":"太田市","jp_add_2":"飯田町"},"3730817":{"post_code":"3730817","prefecture":"GUMMA KEN","city":"OTA SHI","town":"IIZUKACHO","perfecture_jp":"群馬県","jp_add_1":"太田市","jp_add_2":"飯塚町"},"3730007":{"post_code":"3730007","prefecture":"GUMMA KEN","city":"OTA SHI","town":"ISHIBASHICHO","perfecture_jp":"群馬県","jp_add_1":"太田市","jp_add_2":"石橋町"},"3730808":{"post_code":"3730808","prefecture":"GUMMA KEN","city":"OTA SHI","town":"ISHIHARACHO","perfecture_jp":"群馬県","jp_add_1":"太田市","jp_add_2":"石原町"},"3730845":{"post_code":"3730845","prefecture":"GUMMA KEN","city":"OTA SHI","town":"IZUMICHO","perfecture_jp":"群馬県","jp_add_1":"太田市","jp_add_2":"泉町"},"3730013":{"post_code":"3730013","prefecture":"GUMMA KEN","city":"OTA SHI","town":"ICHIBACHO","perfecture_jp":"群馬県","jp_add_1":"太田市","jp_add_2":"市場町"},"3730841":{"post_code":"3730841","prefecture":"GUMMA KEN","city":"OTA SHI","town":"IWASEGAWACHO","perfecture_jp":"群馬県","jp_add_1":"太田市","jp_add_2":"岩瀬川町"},"3730014":{"post_code":"3730014","prefecture":"GUMMA KEN","city":"OTA SHI","town":"UEKINOCHO","perfecture_jp":"群馬県","jp_add_1":"太田市","jp_add_2":"植木野町"},"3730833":{"post_code":"3730833","prefecture":"GUMMA KEN","city":"OTA SHI","town":"USHIZAWACHO","perfecture_jp":"群馬県","jp_add_1":"太田市","jp_add_2":"牛沢町"},"3730813":{"post_code":"3730813","prefecture":"GUMMA KEN","city":"OTA SHI","town":"UCHIGASHIMACHO","perfecture_jp":"群馬県","jp_add_1":"太田市","jp_add_2":"内ケ島町"},"3730055":{"post_code":"3730055","prefecture":"GUMMA KEN","city":"OTA SHI","town":"OSHIMACHO","perfecture_jp":"群馬県","jp_add_1":"太田市","jp_add_2":"大島町"},"3730075":{"post_code":"3730075","prefecture":"GUMMA KEN","city":"OTA SHI","town":"OWASHICHO","perfecture_jp":"群馬県","jp_add_1":"太田市","jp_add_2":"大鷲町"},"3730045":{"post_code":"3730045","prefecture":"GUMMA KEN","city":"OTA SHI","town":"OKINOCHO","perfecture_jp":"群馬県","jp_add_1":"太田市","jp_add_2":"沖野町"},"3730804":{"post_code":"3730804","prefecture":"GUMMA KEN","city":"OTA SHI","town":"OKINOGOCHO","perfecture_jp":"群馬県","jp_add_1":"太田市","jp_add_2":"沖之郷町"},"3730027":{"post_code":"3730027","prefecture":"GUMMA KEN","city":"OTA SHI","town":"KANAYAMACHO","perfecture_jp":"群馬県","jp_add_1":"太田市","jp_add_2":"金山町"},"3730074":{"post_code":"3730074","prefecture":"GUMMA KEN","city":"OTA SHI","town":"KAMIGODOCHO","perfecture_jp":"群馬県","jp_add_1":"太田市","jp_add_2":"上強戸町"},"3730024":{"post_code":"3730024","prefecture":"GUMMA KEN","city":"OTA SHI","town":"KAMIKOBAYASHICHO","perfecture_jp":"群馬県","jp_add_1":"太田市","jp_add_2":"上小林町"},"3730044":{"post_code":"3730044","prefecture":"GUMMA KEN","city":"OTA SHI","town":"KAMITAJIMACHO","perfecture_jp":"群馬県","jp_add_1":"太田市","jp_add_2":"上田島町"},"3730003":{"post_code":"3730003","prefecture":"GUMMA KEN","city":"OTA SHI","town":"KITAKANAICHO","perfecture_jp":"群馬県","jp_add_1":"太田市","jp_add_2":"北金井町"},"3730012":{"post_code":"3730012","prefecture":"GUMMA KEN","city":"OTA SHI","town":"KIYOHARACHO","perfecture_jp":"群馬県","jp_add_1":"太田市","jp_add_2":"清原町"},"3730025":{"post_code":"3730025","prefecture":"GUMMA KEN","city":"OTA SHI","town":"KUMANOCHO","perfecture_jp":"群馬県","jp_add_1":"太田市","jp_add_2":"熊野町"},"3730004":{"post_code":"3730004","prefecture":"GUMMA KEN","city":"OTA SHI","town":"GODOCHO","perfecture_jp":"群馬県","jp_add_1":"太田市","jp_add_2":"強戸町"},"3730818":{"post_code":"3730818","prefecture":"GUMMA KEN","city":"OTA SHI","town":"KOMAIGICHO","perfecture_jp":"群馬県","jp_add_1":"太田市","jp_add_2":"小舞木町"},"3730807":{"post_code":"3730807","prefecture":"GUMMA KEN","city":"OTA SHI","town":"SHIMOKOBAYASHICHO","perfecture_jp":"群馬県","jp_add_1":"太田市","jp_add_2":"下小林町"},"3730844":{"post_code":"3730844","prefecture":"GUMMA KEN","city":"OTA SHI","town":"SHIMOTAJIMACHO","perfecture_jp":"群馬県","jp_add_1":"太田市","jp_add_2":"下田島町"},"3730821":{"post_code":"3730821","prefecture":"GUMMA KEN","city":"OTA SHI","town":"SHIMOHAMADACHO","perfecture_jp":"群馬県","jp_add_1":"太田市","jp_add_2":"下浜田町"},"3730038":{"post_code":"3730038","prefecture":"GUMMA KEN","city":"OTA SHI","town":"JOSAICHO","perfecture_jp":"群馬県","jp_add_1":"太田市","jp_add_2":"城西町"},"3730822":{"post_code":"3730822","prefecture":"GUMMA KEN","city":"OTA SHI","town":"SHOYAMACHI","perfecture_jp":"群馬県","jp_add_1":"太田市","jp_add_2":"庄屋町"},"3730037":{"post_code":"3730037","prefecture":"GUMMA KEN","city":"OTA SHI","town":"SHINDOCHO","perfecture_jp":"群馬県","jp_add_1":"太田市","jp_add_2":"新道町"},"3730862":{"post_code":"3730862","prefecture":"GUMMA KEN","city":"OTA SHI","town":"SUEHIROCHO","perfecture_jp":"群馬県","jp_add_1":"太田市","jp_add_2":"末広町"},"3730002":{"post_code":"3730002","prefecture":"GUMMA KEN","city":"OTA SHI","town":"SUGASHIOCHO","perfecture_jp":"群馬県","jp_add_1":"太田市","jp_add_2":"菅塩町"},"3730028":{"post_code":"3730028","prefecture":"GUMMA KEN","city":"OTA SHI","town":"SUBARUCHO","perfecture_jp":"群馬県","jp_add_1":"太田市","jp_add_2":"スバル町"},"3730801":{"post_code":"3730801","prefecture":"GUMMA KEN","city":"OTA SHI","town":"DAINOGOCHO","perfecture_jp":"群馬県","jp_add_1":"太田市","jp_add_2":"台之郷町"},"3730072":{"post_code":"3730072","prefecture":"GUMMA KEN","city":"OTA SHI","town":"TAKAZECHO","perfecture_jp":"群馬県","jp_add_1":"太田市","jp_add_2":"高瀬町"},"3730825":{"post_code":"3730825","prefecture":"GUMMA KEN","city":"OTA SHI","town":"TAKAHAYASHI HIGASHICHO","perfecture_jp":"群馬県","jp_add_1":"太田市","jp_add_2":"高林東町"},"3730828":{"post_code":"3730828","prefecture":"GUMMA KEN","city":"OTA SHI","town":"TAKAHAYASHI NISHICHO","perfecture_jp":"群馬県","jp_add_1":"太田市","jp_add_2":"高林西町"},"3730827":{"post_code":"3730827","prefecture":"GUMMA KEN","city":"OTA SHI","town":"TAKAHAYASHI MINAMICHO","perfecture_jp":"群馬県","jp_add_1":"太田市","jp_add_2":"高林南町"},"3730829":{"post_code":"3730829","prefecture":"GUMMA KEN","city":"OTA SHI","town":"TAKAHAYASHI KITACHO","perfecture_jp":"群馬県","jp_add_1":"太田市","jp_add_2":"高林北町"},"3730824":{"post_code":"3730824","prefecture":"GUMMA KEN","city":"OTA SHI","town":"TAKAHAYASHI KOTOBUKICHO","perfecture_jp":"群馬県","jp_add_1":"太田市","jp_add_2":"高林寿町"},"3730042":{"post_code":"3730042","prefecture":"GUMMA KEN","city":"OTA SHI","town":"TAKARAMACHI","perfecture_jp":"群馬県","jp_add_1":"太田市","jp_add_2":"宝町"},"3730011":{"post_code":"3730011","prefecture":"GUMMA KEN","city":"OTA SHI","town":"TADAKARICHO","perfecture_jp":"群馬県","jp_add_1":"太田市","jp_add_2":"只上町"},"3730008":{"post_code":"3730008","prefecture":"GUMMA KEN","city":"OTA SHI","town":"TSURUDACHO","perfecture_jp":"群馬県","jp_add_1":"太田市","jp_add_2":"鶴生田町"},"3730052":{"post_code":"3730052","prefecture":"GUMMA KEN","city":"OTA SHI","town":"TERAICHO","perfecture_jp":"群馬県","jp_add_1":"太田市","jp_add_2":"寺井町"},"3730051":{"post_code":"3730051","prefecture":"GUMMA KEN","city":"OTA SHI","town":"TENRACHO","perfecture_jp":"群馬県","jp_add_1":"太田市","jp_add_2":"天良町"},"3730832":{"post_code":"3730832","prefecture":"GUMMA KEN","city":"OTA SHI","town":"TOMIZAWACHO","perfecture_jp":"群馬県","jp_add_1":"太田市","jp_add_2":"富沢町"},"3730023":{"post_code":"3730023","prefecture":"GUMMA KEN","city":"OTA SHI","town":"TOMIWAKACHO","perfecture_jp":"群馬県","jp_add_1":"太田市","jp_add_2":"富若町"},"3730053":{"post_code":"3730053","prefecture":"GUMMA KEN","city":"OTA SHI","town":"TORIYAMACHO","perfecture_jp":"群馬県","jp_add_1":"太田市","jp_add_2":"鳥山町"},"3730061":{"post_code":"3730061","prefecture":"GUMMA KEN","city":"OTA SHI","town":"TORIYAMAKAMICHO","perfecture_jp":"群馬県","jp_add_1":"太田市","jp_add_2":"鳥山上町"},"3730062":{"post_code":"3730062","prefecture":"GUMMA KEN","city":"OTA SHI","town":"TORIYAMANAKACHO","perfecture_jp":"群馬県","jp_add_1":"太田市","jp_add_2":"鳥山中町"},"3730063":{"post_code":"3730063","prefecture":"GUMMA KEN","city":"OTA SHI","town":"TORIYAMASHIMOCHO","perfecture_jp":"群馬県","jp_add_1":"太田市","jp_add_2":"鳥山下町"},"3730846":{"post_code":"3730846","prefecture":"GUMMA KEN","city":"OTA SHI","town":"NAKANECHO","perfecture_jp":"群馬県","jp_add_1":"太田市","jp_add_2":"中根町"},"3730054":{"post_code":"3730054","prefecture":"GUMMA KEN","city":"OTA SHI","town":"NAGATECHO","perfecture_jp":"群馬県","jp_add_1":"太田市","jp_add_2":"長手町"},"3730006":{"post_code":"3730006","prefecture":"GUMMA KEN","city":"OTA SHI","town":"NARIZUKACHO","perfecture_jp":"群馬県","jp_add_1":"太田市","jp_add_2":"成塚町"},"3730819":{"post_code":"3730819","prefecture":"GUMMA KEN","city":"OTA SHI","town":"NIIJIMACHO","perfecture_jp":"群馬県","jp_add_1":"太田市","jp_add_2":"新島町"},"3730032":{"post_code":"3730032","prefecture":"GUMMA KEN","city":"OTA SHI","town":"NIINOCHO","perfecture_jp":"群馬県","jp_add_1":"太田市","jp_add_2":"新野町"},"3730847":{"post_code":"3730847","prefecture":"GUMMA KEN","city":"OTA SHI","town":"NISHISHIMMACHI","perfecture_jp":"群馬県","jp_add_1":"太田市","jp_add_2":"西新町"},"3730001":{"post_code":"3730001","prefecture":"GUMMA KEN","city":"OTA SHI","town":"NISHINAGAOKACHO","perfecture_jp":"群馬県","jp_add_1":"太田市","jp_add_2":"西長岡町"},"3730043":{"post_code":"3730043","prefecture":"GUMMA KEN","city":"OTA SHI","town":"NISHINOYACHO","perfecture_jp":"群馬県","jp_add_1":"太田市","jp_add_2":"西野谷町"},"3730033":{"post_code":"3730033","prefecture":"GUMMA KEN","city":"OTA SHI","town":"NISHIHONCHO","perfecture_jp":"群馬県","jp_add_1":"太田市","jp_add_2":"西本町"},"3730823":{"post_code":"3730823","prefecture":"GUMMA KEN","city":"OTA SHI","town":"NISHIYAJIMACHO","perfecture_jp":"群馬県","jp_add_1":"太田市","jp_add_2":"西矢島町"},"3730029":{"post_code":"3730029","prefecture":"GUMMA KEN","city":"OTA SHI","town":"NIRAGAWACHO","perfecture_jp":"群馬県","jp_add_1":"太田市","jp_add_2":"韮川町"},"3730056":{"post_code":"3730056","prefecture":"GUMMA KEN","city":"OTA SHI","town":"HACHIMANCHO","perfecture_jp":"群馬県","jp_add_1":"太田市","jp_add_2":"八幡町"},"3730853":{"post_code":"3730853","prefecture":"GUMMA KEN","city":"OTA SHI","town":"HAMACHO","perfecture_jp":"群馬県","jp_add_1":"太田市","jp_add_2":"浜町"},"3730071":{"post_code":"3730071","prefecture":"GUMMA KEN","city":"OTA SHI","town":"HARAJUKUCHO","perfecture_jp":"群馬県","jp_add_1":"太田市","jp_add_2":"原宿町"},"3730021":{"post_code":"3730021","prefecture":"GUMMA KEN","city":"OTA SHI","town":"HIGASHIIMAIZUMICHO","perfecture_jp":"群馬県","jp_add_1":"太田市","jp_add_2":"東今泉町"},"3730022":{"post_code":"3730022","prefecture":"GUMMA KEN","city":"OTA SHI","town":"HIGASHIKANAICHO","perfecture_jp":"群馬県","jp_add_1":"太田市","jp_add_2":"東金井町"},"3730015":{"post_code":"3730015","prefecture":"GUMMA KEN","city":"OTA SHI","town":"HIGASHISHIMMACHI","perfecture_jp":"群馬県","jp_add_1":"太田市","jp_add_2":"東新町"},"3730812":{"post_code":"3730812","prefecture":"GUMMA KEN","city":"OTA SHI","town":"HIGASHINAGAOKACHO","perfecture_jp":"群馬県","jp_add_1":"太田市","jp_add_2":"東長岡町"},"3730815":{"post_code":"3730815","prefecture":"GUMMA KEN","city":"OTA SHI","town":"HIGASHIBESSHOCHO","perfecture_jp":"群馬県","jp_add_1":"太田市","jp_add_2":"東別所町"},"3730026":{"post_code":"3730026","prefecture":"GUMMA KEN","city":"OTA SHI","town":"HIGASHIHONCHO","perfecture_jp":"群馬県","jp_add_1":"太田市","jp_add_2":"東本町"},"3730816":{"post_code":"3730816","prefecture":"GUMMA KEN","city":"OTA SHI","town":"HIGASHIYAJIMACHO","perfecture_jp":"群馬県","jp_add_1":"太田市","jp_add_2":"東矢島町"},"3730831":{"post_code":"3730831","prefecture":"GUMMA KEN","city":"OTA SHI","town":"FUKUZAWACHO","perfecture_jp":"群馬県","jp_add_1":"太田市","jp_add_2":"福沢町"},"3730034":{"post_code":"3730034","prefecture":"GUMMA KEN","city":"OTA SHI","town":"FUJIAGUCHO","perfecture_jp":"群馬県","jp_add_1":"太田市","jp_add_2":"藤阿久町"},"3730035":{"post_code":"3730035","prefecture":"GUMMA KEN","city":"OTA SHI","town":"FUJIKURACHO","perfecture_jp":"群馬県","jp_add_1":"太田市","jp_add_2":"藤久良町"},"3730826":{"post_code":"3730826","prefecture":"GUMMA KEN","city":"OTA SHI","town":"FURUTOCHO","perfecture_jp":"群馬県","jp_add_1":"太田市","jp_add_2":"古戸町"},"3730041":{"post_code":"3730041","prefecture":"GUMMA KEN","city":"OTA SHI","town":"BESSHOCHO","perfecture_jp":"群馬県","jp_add_1":"太田市","jp_add_2":"別所町"},"3730842":{"post_code":"3730842","prefecture":"GUMMA KEN","city":"OTA SHI","town":"HOSOYACHO","perfecture_jp":"群馬県","jp_add_1":"太田市","jp_add_2":"細谷町"},"3730057":{"post_code":"3730057","prefecture":"GUMMA KEN","city":"OTA SHI","town":"HONCHO","perfecture_jp":"群馬県","jp_add_1":"太田市","jp_add_2":"本町"},"3730018":{"post_code":"3730018","prefecture":"GUMMA KEN","city":"OTA SHI","town":"MARUYAMACHO","perfecture_jp":"群馬県","jp_add_1":"太田市","jp_add_2":"丸山町"},"3730073":{"post_code":"3730073","prefecture":"GUMMA KEN","city":"OTA SHI","town":"MIDORICHO","perfecture_jp":"群馬県","jp_add_1":"太田市","jp_add_2":"緑町"},"3730861":{"post_code":"3730861","prefecture":"GUMMA KEN","city":"OTA SHI","town":"MINAMIYAJIMACHO","perfecture_jp":"群馬県","jp_add_1":"太田市","jp_add_2":"南矢島町"},"3730809":{"post_code":"3730809","prefecture":"GUMMA KEN","city":"OTA SHI","town":"MOTEGICHO","perfecture_jp":"群馬県","jp_add_1":"太田市","jp_add_2":"茂木町"},"3730805":{"post_code":"3730805","prefecture":"GUMMA KEN","city":"OTA SHI","town":"YAEGASACHO","perfecture_jp":"群馬県","jp_add_1":"太田市","jp_add_2":"八重笠町"},"3730811":{"post_code":"3730811","prefecture":"GUMMA KEN","city":"OTA SHI","town":"YASURAOKACHO","perfecture_jp":"群馬県","jp_add_1":"太田市","jp_add_2":"安良岡町"},"3730016":{"post_code":"3730016","prefecture":"GUMMA KEN","city":"OTA SHI","town":"YATABORICHO","perfecture_jp":"群馬県","jp_add_1":"太田市","jp_add_2":"矢田堀町"},"3730803":{"post_code":"3730803","prefecture":"GUMMA KEN","city":"OTA SHI","town":"YABACHO","perfecture_jp":"群馬県","jp_add_1":"太田市","jp_add_2":"矢場町"},"3730802":{"post_code":"3730802","prefecture":"GUMMA KEN","city":"OTA SHI","town":"YABASHIMMACHI","perfecture_jp":"群馬県","jp_add_1":"太田市","jp_add_2":"矢場新町"},"3730036":{"post_code":"3730036","prefecture":"GUMMA KEN","city":"OTA SHI","town":"YURACHO","perfecture_jp":"群馬県","jp_add_1":"太田市","jp_add_2":"由良町"},"3730019":{"post_code":"3730019","prefecture":"GUMMA KEN","city":"OTA SHI","town":"YOSHIZAWACHO","perfecture_jp":"群馬県","jp_add_1":"太田市","jp_add_2":"吉沢町"},"3730843":{"post_code":"3730843","prefecture":"GUMMA KEN","city":"OTA SHI","town":"YONEZAWACHO","perfecture_jp":"群馬県","jp_add_1":"太田市","jp_add_2":"米沢町"},"3730806":{"post_code":"3730806","prefecture":"GUMMA KEN","city":"OTA SHI","town":"RYUMAICHO","perfecture_jp":"群馬県","jp_add_1":"太田市","jp_add_2":"龍舞町"},"3730031":{"post_code":"3730031","prefecture":"GUMMA KEN","city":"OTA SHI","town":"WAKIYACHO","perfecture_jp":"群馬県","jp_add_1":"太田市","jp_add_2":"脇屋町"}}