{"3750000":{"post_code":"3750000","prefecture":"GUMMA KEN","city":"FUJIOKA SHI","town":"IKANIKEISAIGANAIBAAI","perfecture_jp":"群馬県","jp_add_1":"藤岡市","jp_add_2":""},"3750042":{"post_code":"3750042","prefecture":"GUMMA KEN","city":"FUJIOKA SHI","town":"AYUGAWA","perfecture_jp":"群馬県","jp_add_1":"藤岡市","jp_add_2":"鮎川"},"3750034":{"post_code":"3750034","prefecture":"GUMMA KEN","city":"FUJIOKA SHI","town":"USHITA","perfecture_jp":"群馬県","jp_add_1":"藤岡市","jp_add_2":"牛田"},"3750011":{"post_code":"3750011","prefecture":"GUMMA KEN","city":"FUJIOKA SHI","town":"OKANOGO","perfecture_jp":"群馬県","jp_add_1":"藤岡市","jp_add_2":"岡之郷"},"3750045":{"post_code":"3750045","prefecture":"GUMMA KEN","city":"FUJIOKA SHI","town":"KANAI","perfecture_jp":"群馬県","jp_add_1":"藤岡市","jp_add_2":"金井"},"3750054":{"post_code":"3750054","prefecture":"GUMMA KEN","city":"FUJIOKA SHI","town":"KAMIOZUKA","perfecture_jp":"群馬県","jp_add_1":"藤岡市","jp_add_2":"上大塚"},"3750057":{"post_code":"3750057","prefecture":"GUMMA KEN","city":"FUJIOKA SHI","town":"KAMIOCHIAI","perfecture_jp":"群馬県","jp_add_1":"藤岡市","jp_add_2":"上落合"},"3750016":{"post_code":"3750016","prefecture":"GUMMA KEN","city":"FUJIOKA SHI","town":"KAMIKURISU","perfecture_jp":"群馬県","jp_add_1":"藤岡市","jp_add_2":"上栗須"},"3750013":{"post_code":"3750013","prefecture":"GUMMA KEN","city":"FUJIOKA SHI","town":"KAMITOZUKA","perfecture_jp":"群馬県","jp_add_1":"藤岡市","jp_add_2":"上戸塚"},"3750047":{"post_code":"3750047","prefecture":"GUMMA KEN","city":"FUJIOKA SHI","town":"KAMIHINO","perfecture_jp":"群馬県","jp_add_1":"藤岡市","jp_add_2":"上日野"},"3750033":{"post_code":"3750033","prefecture":"GUMMA KEN","city":"FUJIOKA SHI","town":"KAWAYOKE","perfecture_jp":"群馬県","jp_add_1":"藤岡市","jp_add_2":"川除"},"3750021":{"post_code":"3750021","prefecture":"GUMMA KEN","city":"FUJIOKA SHI","town":"KOBAYASHI","perfecture_jp":"群馬県","jp_add_1":"藤岡市","jp_add_2":"小林"},"3750037":{"post_code":"3750037","prefecture":"GUMMA KEN","city":"FUJIOKA SHI","town":"SAMBOGI","perfecture_jp":"群馬県","jp_add_1":"藤岡市","jp_add_2":"三本木"},"3750017":{"post_code":"3750017","prefecture":"GUMMA KEN","city":"FUJIOKA SHI","town":"SHINOZUKA","perfecture_jp":"群馬県","jp_add_1":"藤岡市","jp_add_2":"篠塚"},"3750052":{"post_code":"3750052","prefecture":"GUMMA KEN","city":"FUJIOKA SHI","town":"SHIMOOZUKA","perfecture_jp":"群馬県","jp_add_1":"藤岡市","jp_add_2":"下大塚"},"3750014":{"post_code":"3750014","prefecture":"GUMMA KEN","city":"FUJIOKA SHI","town":"SHIMOKURISU","perfecture_jp":"群馬県","jp_add_1":"藤岡市","jp_add_2":"下栗須"},"3750012":{"post_code":"3750012","prefecture":"GUMMA KEN","city":"FUJIOKA SHI","town":"SHIMOTOZUKA","perfecture_jp":"群馬県","jp_add_1":"藤岡市","jp_add_2":"下戸塚"},"3750046":{"post_code":"3750046","prefecture":"GUMMA KEN","city":"FUJIOKA SHI","town":"SHIMOHINO","perfecture_jp":"群馬県","jp_add_1":"藤岡市","jp_add_2":"下日野"},"3750055":{"post_code":"3750055","prefecture":"GUMMA KEN","city":"FUJIOKA SHI","town":"SHIROISHI","perfecture_jp":"群馬県","jp_add_1":"藤岡市","jp_add_2":"白石"},"3750032":{"post_code":"3750032","prefecture":"GUMMA KEN","city":"FUJIOKA SHI","town":"JINDA","perfecture_jp":"群馬県","jp_add_1":"藤岡市","jp_add_2":"神田"},"3750036":{"post_code":"3750036","prefecture":"GUMMA KEN","city":"FUJIOKA SHI","town":"TAKAYAMA","perfecture_jp":"群馬県","jp_add_1":"藤岡市","jp_add_2":"高山"},"3750002":{"post_code":"3750002","prefecture":"GUMMA KEN","city":"FUJIOKA SHI","town":"TATSUISHI","perfecture_jp":"群馬県","jp_add_1":"藤岡市","jp_add_2":"立石"},"3750003":{"post_code":"3750003","prefecture":"GUMMA KEN","city":"FUJIOKA SHI","town":"TATSUISHISHINDEN","perfecture_jp":"群馬県","jp_add_1":"藤岡市","jp_add_2":"立石新田"},"3750005":{"post_code":"3750005","prefecture":"GUMMA KEN","city":"FUJIOKA SHI","town":"NAKA","perfecture_jp":"群馬県","jp_add_1":"藤岡市","jp_add_2":"中"},"3750053":{"post_code":"3750053","prefecture":"GUMMA KEN","city":"FUJIOKA SHI","town":"NAKAOZUKA","perfecture_jp":"群馬県","jp_add_1":"藤岡市","jp_add_2":"中大塚"},"3750015":{"post_code":"3750015","prefecture":"GUMMA KEN","city":"FUJIOKA SHI","town":"NAKAKURISU","perfecture_jp":"群馬県","jp_add_1":"藤岡市","jp_add_2":"中栗須"},"3750001":{"post_code":"3750001","prefecture":"GUMMA KEN","city":"FUJIOKA SHI","town":"NAKAJIMA","perfecture_jp":"群馬県","jp_add_1":"藤岡市","jp_add_2":"中島"},"3750044":{"post_code":"3750044","prefecture":"GUMMA KEN","city":"FUJIOKA SHI","town":"NISHIHIRAI","perfecture_jp":"群馬県","jp_add_1":"藤岡市","jp_add_2":"西平井"},"3750022":{"post_code":"3750022","prefecture":"GUMMA KEN","city":"FUJIOKA SHI","town":"NEGISHI","perfecture_jp":"群馬県","jp_add_1":"藤岡市","jp_add_2":"根岸"},"3750043":{"post_code":"3750043","prefecture":"GUMMA KEN","city":"FUJIOKA SHI","town":"HIGASHIHIRAI","perfecture_jp":"群馬県","jp_add_1":"藤岡市","jp_add_2":"東平井"},"3750024":{"post_code":"3750024","prefecture":"GUMMA KEN","city":"FUJIOKA SHI","town":"FUJIOKA","perfecture_jp":"群馬県","jp_add_1":"藤岡市","jp_add_2":"藤岡"},"3750035":{"post_code":"3750035","prefecture":"GUMMA KEN","city":"FUJIOKA SHI","town":"HOMI","perfecture_jp":"群馬県","jp_add_1":"藤岡市","jp_add_2":"保美"},"3750023":{"post_code":"3750023","prefecture":"GUMMA KEN","city":"FUJIOKA SHI","town":"HONGO","perfecture_jp":"群馬県","jp_add_1":"藤岡市","jp_add_2":"本郷"},"3750056":{"post_code":"3750056","prefecture":"GUMMA KEN","city":"FUJIOKA SHI","town":"MITSUGI","perfecture_jp":"群馬県","jp_add_1":"藤岡市","jp_add_2":"三ツ木"},"3750041":{"post_code":"3750041","prefecture":"GUMMA KEN","city":"FUJIOKA SHI","town":"MIDONO","perfecture_jp":"群馬県","jp_add_1":"藤岡市","jp_add_2":"緑埜"},"3750051":{"post_code":"3750051","prefecture":"GUMMA KEN","city":"FUJIOKA SHI","town":"MOTOYURUGIDO","perfecture_jp":"群馬県","jp_add_1":"藤岡市","jp_add_2":"本動堂"},"3750004":{"post_code":"3750004","prefecture":"GUMMA KEN","city":"FUJIOKA SHI","town":"MORI","perfecture_jp":"群馬県","jp_add_1":"藤岡市","jp_add_2":"森"},"3750006":{"post_code":"3750006","prefecture":"GUMMA KEN","city":"FUJIOKA SHI","town":"MORISHINDEN","perfecture_jp":"群馬県","jp_add_1":"藤岡市","jp_add_2":"森新田"},"3750031":{"post_code":"3750031","prefecture":"GUMMA KEN","city":"FUJIOKA SHI","town":"YABA","perfecture_jp":"群馬県","jp_add_1":"藤岡市","jp_add_2":"矢場"}}