{"3760000":{"post_code":"3760000","prefecture":"GUMMA KEN","city":"KIRYU SHI","town":"IKANIKEISAIGANAIBAAI","perfecture_jp":"群馬県","jp_add_1":"桐生市","jp_add_2":""},"3760011":{"post_code":"3760011","prefecture":"GUMMA KEN","city":"KIRYU SHI","town":"AIOICHO","perfecture_jp":"群馬県","jp_add_1":"桐生市","jp_add_2":"相生町"},"3760037":{"post_code":"3760037","prefecture":"GUMMA KEN","city":"KIRYU SHI","town":"ASAHICHO","perfecture_jp":"群馬県","jp_add_1":"桐生市","jp_add_2":"旭町"},"3760032":{"post_code":"3760032","prefecture":"GUMMA KEN","city":"KIRYU SHI","town":"AZUMACHO","perfecture_jp":"群馬県","jp_add_1":"桐生市","jp_add_2":"東町"},"3760033":{"post_code":"3760033","prefecture":"GUMMA KEN","city":"KIRYU SHI","town":"IZUMICHO","perfecture_jp":"群馬県","jp_add_1":"桐生市","jp_add_2":"泉町"},"3760022":{"post_code":"3760022","prefecture":"GUMMA KEN","city":"KIRYU SHI","town":"INARICHO","perfecture_jp":"群馬県","jp_add_1":"桐生市","jp_add_2":"稲荷町"},"3760601":{"post_code":"3760601","prefecture":"GUMMA KEN","city":"KIRYU SHI","town":"UMEDACHO","perfecture_jp":"群馬県","jp_add_1":"桐生市","jp_add_2":"梅田町"},"3760044":{"post_code":"3760044","prefecture":"GUMMA KEN","city":"KIRYU SHI","town":"EIRAKUCHO","perfecture_jp":"群馬県","jp_add_1":"桐生市","jp_add_2":"永楽町"},"3760024":{"post_code":"3760024","prefecture":"GUMMA KEN","city":"KIRYU SHI","town":"ORIHIMECHO","perfecture_jp":"群馬県","jp_add_1":"桐生市","jp_add_2":"織姫町"},"3760041":{"post_code":"3760041","prefecture":"GUMMA KEN","city":"KIRYU SHI","town":"KAWAUCHICHO","perfecture_jp":"群馬県","jp_add_1":"桐生市","jp_add_2":"川内町"},"3760036":{"post_code":"3760036","prefecture":"GUMMA KEN","city":"KIRYU SHI","town":"KAWAGISHICHO","perfecture_jp":"群馬県","jp_add_1":"桐生市","jp_add_2":"川岸町"},"3760026":{"post_code":"3760026","prefecture":"GUMMA KEN","city":"KIRYU SHI","town":"KIYOSECHO","perfecture_jp":"群馬県","jp_add_1":"桐生市","jp_add_2":"清瀬町"},"3760145":{"post_code":"3760145","prefecture":"GUMMA KEN","city":"KIRYU SHI","town":"KUROHONECHO KAMITAZAWA","perfecture_jp":"群馬県","jp_add_1":"桐生市","jp_add_2":"黒保根町上田沢"},"3760144":{"post_code":"3760144","prefecture":"GUMMA KEN","city":"KIRYU SHI","town":"KUROHONECHO SHIMOTAZAWA","perfecture_jp":"群馬県","jp_add_1":"桐生市","jp_add_2":"黒保根町下田沢"},"3760143":{"post_code":"3760143","prefecture":"GUMMA KEN","city":"KIRYU SHI","town":"KUROHONECHO SHUKUMEGURI","perfecture_jp":"群馬県","jp_add_1":"桐生市","jp_add_2":"黒保根町宿廻"},"3760141":{"post_code":"3760141","prefecture":"GUMMA KEN","city":"KIRYU SHI","town":"KUROHONECHO MIZUNUMA","perfecture_jp":"群馬県","jp_add_1":"桐生市","jp_add_2":"黒保根町水沼"},"3760142":{"post_code":"3760142","prefecture":"GUMMA KEN","city":"KIRYU SHI","town":"KUROHONECHO YAGIHARA","perfecture_jp":"群馬県","jp_add_1":"桐生市","jp_add_2":"黒保根町八木原"},"3760004":{"post_code":"3760004","prefecture":"GUMMA KEN","city":"KIRYU SHI","town":"KOMECHO","perfecture_jp":"群馬県","jp_add_1":"桐生市","jp_add_2":"小梅町"},"3760043":{"post_code":"3760043","prefecture":"GUMMA KEN","city":"KIRYU SHI","town":"KOSONECHO","perfecture_jp":"群馬県","jp_add_1":"桐生市","jp_add_2":"小曾根町"},"3760003":{"post_code":"3760003","prefecture":"GUMMA KEN","city":"KIRYU SHI","town":"KOTOHIRACHO","perfecture_jp":"群馬県","jp_add_1":"桐生市","jp_add_2":"琴平町"},"3760002":{"post_code":"3760002","prefecture":"GUMMA KEN","city":"KIRYU SHI","town":"SAKAINOCHO","perfecture_jp":"群馬県","jp_add_1":"桐生市","jp_add_2":"境野町"},"3760012":{"post_code":"3760012","prefecture":"GUMMA KEN","city":"KIRYU SHI","town":"SAKURAGICHO","perfecture_jp":"群馬県","jp_add_1":"桐生市","jp_add_2":"桜木町"},"3760006":{"post_code":"3760006","prefecture":"GUMMA KEN","city":"KIRYU SHI","town":"SHINSHUKU","perfecture_jp":"群馬県","jp_add_1":"桐生市","jp_add_2":"新宿"},"3760045":{"post_code":"3760045","prefecture":"GUMMA KEN","city":"KIRYU SHI","town":"SUEHIROCHO","perfecture_jp":"群馬県","jp_add_1":"桐生市","jp_add_2":"末広町"},"3760038":{"post_code":"3760038","prefecture":"GUMMA KEN","city":"KIRYU SHI","town":"TAKASAGOCHO","perfecture_jp":"群馬県","jp_add_1":"桐生市","jp_add_2":"高砂町"},"3760042":{"post_code":"3760042","prefecture":"GUMMA KEN","city":"KIRYU SHI","town":"TSUTSUMICHO","perfecture_jp":"群馬県","jp_add_1":"桐生市","jp_add_2":"堤町"},"3760052":{"post_code":"3760052","prefecture":"GUMMA KEN","city":"KIRYU SHI","town":"TENJINCHO","perfecture_jp":"群馬県","jp_add_1":"桐生市","jp_add_2":"天神町"},"3760021":{"post_code":"3760021","prefecture":"GUMMA KEN","city":"KIRYU SHI","town":"TOMOECHO","perfecture_jp":"群馬県","jp_add_1":"桐生市","jp_add_2":"巴町"},"3760035":{"post_code":"3760035","prefecture":"GUMMA KEN","city":"KIRYU SHI","town":"NAKAMACHI","perfecture_jp":"群馬県","jp_add_1":"桐生市","jp_add_2":"仲町"},"3760137":{"post_code":"3760137","prefecture":"GUMMA KEN","city":"KIRYU SHI","town":"NIISATOCHO AKAGISAN","perfecture_jp":"群馬県","jp_add_1":"桐生市","jp_add_2":"新里町赤城山"},"3760136":{"post_code":"3760136","prefecture":"GUMMA KEN","city":"KIRYU SHI","town":"NIISATOCHO ITABASHI","perfecture_jp":"群馬県","jp_add_1":"桐生市","jp_add_2":"新里町板橋"},"3760133":{"post_code":"3760133","prefecture":"GUMMA KEN","city":"KIRYU SHI","town":"NIISATOCHO OKUBO","perfecture_jp":"群馬県","jp_add_1":"桐生市","jp_add_2":"新里町大久保"},"3760131":{"post_code":"3760131","prefecture":"GUMMA KEN","city":"KIRYU SHI","town":"NIISATOCHO OKUZAWA","perfecture_jp":"群馬県","jp_add_1":"桐生市","jp_add_2":"新里町奥沢"},"3760124":{"post_code":"3760124","prefecture":"GUMMA KEN","city":"KIRYU SHI","town":"NIISATOCHO KOBAYASHI","perfecture_jp":"群馬県","jp_add_1":"桐生市","jp_add_2":"新里町小林"},"3760134":{"post_code":"3760134","prefecture":"GUMMA KEN","city":"KIRYU SHI","town":"NIISATOCHO SEKI","perfecture_jp":"群馬県","jp_add_1":"桐生市","jp_add_2":"新里町関"},"3760135":{"post_code":"3760135","prefecture":"GUMMA KEN","city":"KIRYU SHI","town":"NIISATOCHO TAKAIZUMI","perfecture_jp":"群馬県","jp_add_1":"桐生市","jp_add_2":"新里町高泉"},"3760123":{"post_code":"3760123","prefecture":"GUMMA KEN","city":"KIRYU SHI","town":"NIISATOCHO TAKEI","perfecture_jp":"群馬県","jp_add_1":"桐生市","jp_add_2":"新里町武井"},"3760132":{"post_code":"3760132","prefecture":"GUMMA KEN","city":"KIRYU SHI","town":"NIISATOCHO TSURUGAYA","perfecture_jp":"群馬県","jp_add_1":"桐生市","jp_add_2":"新里町鶴ケ谷"},"3760121":{"post_code":"3760121","prefecture":"GUMMA KEN","city":"KIRYU SHI","town":"NIISATOCHO NIKKAWA","perfecture_jp":"群馬県","jp_add_1":"桐生市","jp_add_2":"新里町新川"},"3760122":{"post_code":"3760122","prefecture":"GUMMA KEN","city":"KIRYU SHI","town":"NIISATOCHO NO","perfecture_jp":"群馬県","jp_add_1":"桐生市","jp_add_2":"新里町野"},"3760125":{"post_code":"3760125","prefecture":"GUMMA KEN","city":"KIRYU SHI","town":"NIISATOCHO YAMAKAMI","perfecture_jp":"群馬県","jp_add_1":"桐生市","jp_add_2":"新里町山上"},"3760023":{"post_code":"3760023","prefecture":"GUMMA KEN","city":"KIRYU SHI","town":"NISHIKICHO","perfecture_jp":"群馬県","jp_add_1":"桐生市","jp_add_2":"錦町"},"3760054":{"post_code":"3760054","prefecture":"GUMMA KEN","city":"KIRYU SHI","town":"NISHIHISAKATACHO","perfecture_jp":"群馬県","jp_add_1":"桐生市","jp_add_2":"西久方町"},"3760007":{"post_code":"3760007","prefecture":"GUMMA KEN","city":"KIRYU SHI","town":"HAMAMATSUCHO","perfecture_jp":"群馬県","jp_add_1":"桐生市","jp_add_2":"浜松町"},"3760034":{"post_code":"3760034","prefecture":"GUMMA KEN","city":"KIRYU SHI","town":"HIGASHI","perfecture_jp":"群馬県","jp_add_1":"桐生市","jp_add_2":"東"},"3760053":{"post_code":"3760053","prefecture":"GUMMA KEN","city":"KIRYU SHI","town":"HIGASHIHISAKATACHO","perfecture_jp":"群馬県","jp_add_1":"桐生市","jp_add_2":"東久方町"},"3760001":{"post_code":"3760001","prefecture":"GUMMA KEN","city":"KIRYU SHI","town":"HISHIMACHI","perfecture_jp":"群馬県","jp_add_1":"桐生市","jp_add_2":"菱町"},"3760051":{"post_code":"3760051","prefecture":"GUMMA KEN","city":"KIRYU SHI","town":"HIRAICHO","perfecture_jp":"群馬県","jp_add_1":"桐生市","jp_add_2":"平井町"},"3760013":{"post_code":"3760013","prefecture":"GUMMA KEN","city":"KIRYU SHI","town":"HIROSAWACHO","perfecture_jp":"群馬県","jp_add_1":"桐生市","jp_add_2":"広沢町"},"3760014":{"post_code":"3760014","prefecture":"GUMMA KEN","city":"KIRYU SHI","town":"HIROSAWACHOAINOSHIMA","perfecture_jp":"群馬県","jp_add_1":"桐生市","jp_add_2":"広沢町間ノ島"},"3760031":{"post_code":"3760031","prefecture":"GUMMA KEN","city":"KIRYU SHI","town":"HONCHO","perfecture_jp":"群馬県","jp_add_1":"桐生市","jp_add_2":"本町"},"3760025":{"post_code":"3760025","prefecture":"GUMMA KEN","city":"KIRYU SHI","town":"MIHARACHO","perfecture_jp":"群馬県","jp_add_1":"桐生市","jp_add_2":"美原町"},"3760046":{"post_code":"3760046","prefecture":"GUMMA KEN","city":"KIRYU SHI","town":"MIYAMAECHO","perfecture_jp":"群馬県","jp_add_1":"桐生市","jp_add_2":"宮前町"},"3760056":{"post_code":"3760056","prefecture":"GUMMA KEN","city":"KIRYU SHI","town":"MIYAMOTOCHO","perfecture_jp":"群馬県","jp_add_1":"桐生市","jp_add_2":"宮本町"},"3760005":{"post_code":"3760005","prefecture":"GUMMA KEN","city":"KIRYU SHI","town":"MIYOSHICHO","perfecture_jp":"群馬県","jp_add_1":"桐生市","jp_add_2":"三吉町"},"3760027":{"post_code":"3760027","prefecture":"GUMMA KEN","city":"KIRYU SHI","town":"MOTOJUKUCHO","perfecture_jp":"群馬県","jp_add_1":"桐生市","jp_add_2":"元宿町"},"3760055":{"post_code":"3760055","prefecture":"GUMMA KEN","city":"KIRYU SHI","town":"YOKOYAMACHO","perfecture_jp":"群馬県","jp_add_1":"桐生市","jp_add_2":"横山町"},"3760100":{"post_code":"3760100","prefecture":"GUMMA KEN","city":"MIDORI SHI","town":"IKANIKEISAIGANAIBAAI","perfecture_jp":"群馬県","jp_add_1":"みどり市","jp_add_2":""},"3760306":{"post_code":"3760306","prefecture":"GUMMA KEN","city":"MIDORI SHI","town":"AZUMACHO OGIHARA","perfecture_jp":"群馬県","jp_add_1":"みどり市","jp_add_2":"東町荻原"},"3760302":{"post_code":"3760302","prefecture":"GUMMA KEN","city":"MIDORI SHI","town":"AZUMACHO KUSAGI","perfecture_jp":"群馬県","jp_add_1":"みどり市","jp_add_2":"東町草木"},"3760304":{"post_code":"3760304","prefecture":"GUMMA KEN","city":"MIDORI SHI","town":"AZUMACHO GODO","perfecture_jp":"群馬県","jp_add_1":"みどり市","jp_add_2":"東町神戸"},"3760308":{"post_code":"3760308","prefecture":"GUMMA KEN","city":"MIDORI SHI","town":"AZUMACHO KONAKA","perfecture_jp":"群馬県","jp_add_1":"みどり市","jp_add_2":"東町小中"},"3760303":{"post_code":"3760303","prefecture":"GUMMA KEN","city":"MIDORI SHI","town":"AZUMACHO ZAMA","perfecture_jp":"群馬県","jp_add_1":"みどり市","jp_add_2":"東町座間"},"3760305":{"post_code":"3760305","prefecture":"GUMMA KEN","city":"MIDORI SHI","town":"AZUMACHO SAYADO","perfecture_jp":"群馬県","jp_add_1":"みどり市","jp_add_2":"東町小夜戸"},"3760301":{"post_code":"3760301","prefecture":"GUMMA KEN","city":"MIDORI SHI","town":"AZUMACHO SORI","perfecture_jp":"群馬県","jp_add_1":"みどり市","jp_add_2":"東町沢入"},"3760307":{"post_code":"3760307","prefecture":"GUMMA KEN","city":"MIDORI SHI","town":"AZUMACHO HANAWA","perfecture_jp":"群馬県","jp_add_1":"みどり市","jp_add_2":"東町花輪"},"3760114":{"post_code":"3760114","prefecture":"GUMMA KEN","city":"MIDORI SHI","town":"OMAMACHO ASABARA","perfecture_jp":"群馬県","jp_add_1":"みどり市","jp_add_2":"大間々町浅原"},"3760101":{"post_code":"3760101","prefecture":"GUMMA KEN","city":"MIDORI SHI","town":"OMAMACHO OMAMA","perfecture_jp":"群馬県","jp_add_1":"みどり市","jp_add_2":"大間々町大間々"},"3760111":{"post_code":"3760111","prefecture":"GUMMA KEN","city":"MIDORI SHI","town":"OMAMACHO ODAIRA","perfecture_jp":"群馬県","jp_add_1":"みどり市","jp_add_2":"大間々町小平"},"3760104":{"post_code":"3760104","prefecture":"GUMMA KEN","city":"MIDORI SHI","town":"OMAMACHO KAMIKAMBAI","perfecture_jp":"群馬県","jp_add_1":"みどり市","jp_add_2":"大間々町上神梅"},"3760102":{"post_code":"3760102","prefecture":"GUMMA KEN","city":"MIDORI SHI","town":"OMAMACHO KIRIBARA","perfecture_jp":"群馬県","jp_add_1":"みどり市","jp_add_2":"大間々町桐原"},"3760116":{"post_code":"3760116","prefecture":"GUMMA KEN","city":"MIDORI SHI","town":"OMAMACHO SHIOZAWA","perfecture_jp":"群馬県","jp_add_1":"みどり市","jp_add_2":"大間々町塩沢"},"3760115":{"post_code":"3760115","prefecture":"GUMMA KEN","city":"MIDORI SHI","town":"OMAMACHO SHIOBARA","perfecture_jp":"群馬県","jp_add_1":"みどり市","jp_add_2":"大間々町塩原"},"3760103":{"post_code":"3760103","prefecture":"GUMMA KEN","city":"MIDORI SHI","town":"OMAMACHO SHIMOKAMBAI","perfecture_jp":"群馬県","jp_add_1":"みどり市","jp_add_2":"大間々町下神梅"},"3760113":{"post_code":"3760113","prefecture":"GUMMA KEN","city":"MIDORI SHI","town":"OMAMACHO TAKATSUDO","perfecture_jp":"群馬県","jp_add_1":"みどり市","jp_add_2":"大間々町高津戸"},"3760112":{"post_code":"3760112","prefecture":"GUMMA KEN","city":"MIDORI SHI","town":"OMAMACHO NAGAONE","perfecture_jp":"群馬県","jp_add_1":"みどり市","jp_add_2":"大間々町長尾根"}}