{"3780000":{"post_code":"3780000","prefecture":"GUMMA KEN","city":"NUMATA SHI","town":"IKANIKEISAIGANAIBAAI","perfecture_jp":"群馬県","jp_add_1":"沼田市","jp_add_2":""},"3780076":{"post_code":"3780076","prefecture":"GUMMA KEN","city":"NUMATA SHI","town":"AKIZUKAMACHI","perfecture_jp":"群馬県","jp_add_1":"沼田市","jp_add_2":"秋塚町"},"3780077":{"post_code":"3780077","prefecture":"GUMMA KEN","city":"NUMATA SHI","town":"ISHIZUMIMACHI","perfecture_jp":"群馬県","jp_add_1":"沼田市","jp_add_2":"石墨町"},"3780035":{"post_code":"3780035","prefecture":"GUMMA KEN","city":"NUMATA SHI","town":"IDONOEMACHI","perfecture_jp":"群馬県","jp_add_1":"沼田市","jp_add_2":"井土上町"},"3780025":{"post_code":"3780025","prefecture":"GUMMA KEN","city":"NUMATA SHI","town":"IMAIMACHI","perfecture_jp":"群馬県","jp_add_1":"沼田市","jp_add_2":"今井町"},"3780021":{"post_code":"3780021","prefecture":"GUMMA KEN","city":"NUMATA SHI","town":"IWAMOTOMACHI","perfecture_jp":"群馬県","jp_add_1":"沼田市","jp_add_2":"岩本町"},"3780031":{"post_code":"3780031","prefecture":"GUMMA KEN","city":"NUMATA SHI","town":"USUNEMACHI","perfecture_jp":"群馬県","jp_add_1":"沼田市","jp_add_2":"薄根町"},"3780068":{"post_code":"3780068","prefecture":"GUMMA KEN","city":"NUMATA SHI","town":"USOIMACHI","perfecture_jp":"群馬県","jp_add_1":"沼田市","jp_add_2":"宇楚井町"},"3780067":{"post_code":"3780067","prefecture":"GUMMA KEN","city":"NUMATA SHI","town":"OGAMAMACHI","perfecture_jp":"群馬県","jp_add_1":"沼田市","jp_add_2":"大釜町"},"3780061":{"post_code":"3780061","prefecture":"GUMMA KEN","city":"NUMATA SHI","town":"OKAYAMACHI","perfecture_jp":"群馬県","jp_add_1":"沼田市","jp_add_2":"岡谷町"},"3780034":{"post_code":"3780034","prefecture":"GUMMA KEN","city":"NUMATA SHI","town":"ONDAMACHI","perfecture_jp":"群馬県","jp_add_1":"沼田市","jp_add_2":"恩田町"},"3780018":{"post_code":"3780018","prefecture":"GUMMA KEN","city":"NUMATA SHI","town":"KAJIMACHI","perfecture_jp":"群馬県","jp_add_1":"沼田市","jp_add_2":"鍛冶町"},"3780026":{"post_code":"3780026","prefecture":"GUMMA KEN","city":"NUMATA SHI","town":"KAMIKAWADAMACHI","perfecture_jp":"群馬県","jp_add_1":"沼田市","jp_add_2":"上川田町"},"3780003":{"post_code":"3780003","prefecture":"GUMMA KEN","city":"NUMATA SHI","town":"KAMIKUYAMACHI","perfecture_jp":"群馬県","jp_add_1":"沼田市","jp_add_2":"上久屋町"},"3780011":{"post_code":"3780011","prefecture":"GUMMA KEN","city":"NUMATA SHI","town":"KAMINUMASUMACHI","perfecture_jp":"群馬県","jp_add_1":"沼田市","jp_add_2":"上沼須町"},"3780047":{"post_code":"3780047","prefecture":"GUMMA KEN","city":"NUMATA SHI","town":"KAMINOCHO","perfecture_jp":"群馬県","jp_add_1":"沼田市","jp_add_2":"上之町"},"3780051":{"post_code":"3780051","prefecture":"GUMMA KEN","city":"NUMATA SHI","town":"KAMIHARAMACHI","perfecture_jp":"群馬県","jp_add_1":"沼田市","jp_add_2":"上原町"},"3780071":{"post_code":"3780071","prefecture":"GUMMA KEN","city":"NUMATA SHI","town":"KAMIHOTCHIMACHI","perfecture_jp":"群馬県","jp_add_1":"沼田市","jp_add_2":"上発知町"},"3780005":{"post_code":"3780005","prefecture":"GUMMA KEN","city":"NUMATA SHI","town":"KUYAHARAMACHI","perfecture_jp":"群馬県","jp_add_1":"沼田市","jp_add_2":"久屋原町"},"3780045":{"post_code":"3780045","prefecture":"GUMMA KEN","city":"NUMATA SHI","town":"ZAIMOKUCHO","perfecture_jp":"群馬県","jp_add_1":"沼田市","jp_add_2":"材木町"},"3780014":{"post_code":"3780014","prefecture":"GUMMA KEN","city":"NUMATA SHI","town":"SAKAEMACHI","perfecture_jp":"群馬県","jp_add_1":"沼田市","jp_add_2":"栄町"},"3780052":{"post_code":"3780052","prefecture":"GUMMA KEN","city":"NUMATA SHI","town":"SAKURAMACHI","perfecture_jp":"群馬県","jp_add_1":"沼田市","jp_add_2":"桜町"},"3780023":{"post_code":"3780023","prefecture":"GUMMA KEN","city":"NUMATA SHI","town":"SASAOMACHI","perfecture_jp":"群馬県","jp_add_1":"沼田市","jp_add_2":"篠尾町"},"3780078":{"post_code":"3780078","prefecture":"GUMMA KEN","city":"NUMATA SHI","town":"SAYAMAMACHI","perfecture_jp":"群馬県","jp_add_1":"沼田市","jp_add_2":"佐山町"},"3780016":{"post_code":"3780016","prefecture":"GUMMA KEN","city":"NUMATA SHI","town":"SHIMIZUCHO","perfecture_jp":"群馬県","jp_add_1":"沼田市","jp_add_2":"清水町"},"3780024":{"post_code":"3780024","prefecture":"GUMMA KEN","city":"NUMATA SHI","town":"SHIMOKAWADAMACHI","perfecture_jp":"群馬県","jp_add_1":"沼田市","jp_add_2":"下川田町"},"3780004":{"post_code":"3780004","prefecture":"GUMMA KEN","city":"NUMATA SHI","town":"SHIMOKUYAMACHI","perfecture_jp":"群馬県","jp_add_1":"沼田市","jp_add_2":"下久屋町"},"3780063":{"post_code":"3780063","prefecture":"GUMMA KEN","city":"NUMATA SHI","town":"SHIMONUMATAMACHI","perfecture_jp":"群馬県","jp_add_1":"沼田市","jp_add_2":"下沼田町"},"3780044":{"post_code":"3780044","prefecture":"GUMMA KEN","city":"NUMATA SHI","town":"SHIMONOCHO","perfecture_jp":"群馬県","jp_add_1":"沼田市","jp_add_2":"下之町"},"3780074":{"post_code":"3780074","prefecture":"GUMMA KEN","city":"NUMATA SHI","town":"SHIMOHOTCHIMACHI","perfecture_jp":"群馬県","jp_add_1":"沼田市","jp_add_2":"下発知町"},"3780033":{"post_code":"3780033","prefecture":"GUMMA KEN","city":"NUMATA SHI","town":"SHIRAIWAMACHI","perfecture_jp":"群馬県","jp_add_1":"沼田市","jp_add_2":"白岩町"},"3780123":{"post_code":"3780123","prefecture":"GUMMA KEN","city":"NUMATA SHI","town":"SHIRASAWAMACHI IWAMURO","perfecture_jp":"群馬県","jp_add_1":"沼田市","jp_add_2":"白沢町岩室"},"3780124":{"post_code":"3780124","prefecture":"GUMMA KEN","city":"NUMATA SHI","town":"SHIRASAWAMACHI OAI","perfecture_jp":"群馬県","jp_add_1":"沼田市","jp_add_2":"白沢町尾合"},"3780126":{"post_code":"3780126","prefecture":"GUMMA KEN","city":"NUMATA SHI","town":"SHIRASAWAMACHI KAMIKOKOBU","perfecture_jp":"群馬県","jp_add_1":"沼田市","jp_add_2":"白沢町上古語父"},"3780127":{"post_code":"3780127","prefecture":"GUMMA KEN","city":"NUMATA SHI","town":"SHIRASAWAMACHI SHIMOKOKOBU","perfecture_jp":"群馬県","jp_add_1":"沼田市","jp_add_2":"白沢町下古語父"},"3780121":{"post_code":"3780121","prefecture":"GUMMA KEN","city":"NUMATA SHI","town":"SHIRASAWAMACHI TAKAHIRA","perfecture_jp":"群馬県","jp_add_1":"沼田市","jp_add_2":"白沢町高平"},"3780122":{"post_code":"3780122","prefecture":"GUMMA KEN","city":"NUMATA SHI","town":"SHIRASAWAMACHI NAMAE","perfecture_jp":"群馬県","jp_add_1":"沼田市","jp_add_2":"白沢町生枝"},"3780125":{"post_code":"3780125","prefecture":"GUMMA KEN","city":"NUMATA SHI","town":"SHIRASAWAMACHI HIRAIDE","perfecture_jp":"群馬県","jp_add_1":"沼田市","jp_add_2":"白沢町平出"},"3780013":{"post_code":"3780013","prefecture":"GUMMA KEN","city":"NUMATA SHI","town":"SHIMMACHI","perfecture_jp":"群馬県","jp_add_1":"沼田市","jp_add_2":"新町"},"3780032":{"post_code":"3780032","prefecture":"GUMMA KEN","city":"NUMATA SHI","town":"SUZURIDAMACHI","perfecture_jp":"群馬県","jp_add_1":"沼田市","jp_add_2":"硯田町"},"3780064":{"post_code":"3780064","prefecture":"GUMMA KEN","city":"NUMATA SHI","town":"ZENKEIJIMACHI","perfecture_jp":"群馬県","jp_add_1":"沼田市","jp_add_2":"善桂寺町"},"3780056":{"post_code":"3780056","prefecture":"GUMMA KEN","city":"NUMATA SHI","town":"TAKAHASHIBAMACHI","perfecture_jp":"群馬県","jp_add_1":"沼田市","jp_add_2":"高橋場町"},"3780015":{"post_code":"3780015","prefecture":"GUMMA KEN","city":"NUMATA SHI","town":"TOGANOMACHI","perfecture_jp":"群馬県","jp_add_1":"沼田市","jp_add_2":"戸鹿野町"},"3780001":{"post_code":"3780001","prefecture":"GUMMA KEN","city":"NUMATA SHI","town":"TOKAMIMACHI","perfecture_jp":"群馬県","jp_add_1":"沼田市","jp_add_2":"戸神町"},"3780314":{"post_code":"3780314","prefecture":"GUMMA KEN","city":"NUMATA SHI","town":"TONEMACHI AOKI","perfecture_jp":"群馬県","jp_add_1":"沼田市","jp_add_2":"利根町青木"},"3780305":{"post_code":"3780305","prefecture":"GUMMA KEN","city":"NUMATA SHI","town":"TONEMACHI ANABARA","perfecture_jp":"群馬県","jp_add_1":"沼田市","jp_add_2":"利根町穴原"},"3780326":{"post_code":"3780326","prefecture":"GUMMA KEN","city":"NUMATA SHI","town":"TONEMACHI ISHIDOSHINDEN","perfecture_jp":"群馬県","jp_add_1":"沼田市","jp_add_2":"利根町石戸新田"},"3780322":{"post_code":"3780322","prefecture":"GUMMA KEN","city":"NUMATA SHI","town":"TONEMACHI OIGAMI","perfecture_jp":"群馬県","jp_add_1":"沼田市","jp_add_2":"利根町老神"},"3780323":{"post_code":"3780323","prefecture":"GUMMA KEN","city":"NUMATA SHI","town":"TONEMACHI OHARA","perfecture_jp":"群馬県","jp_add_1":"沼田市","jp_add_2":"利根町大原"},"3780304":{"post_code":"3780304","prefecture":"GUMMA KEN","city":"NUMATA SHI","town":"TONEMACHI OYO","perfecture_jp":"群馬県","jp_add_1":"沼田市","jp_add_2":"利根町大楊"},"3780303":{"post_code":"3780303","prefecture":"GUMMA KEN","city":"NUMATA SHI","town":"TONEMACHI OKKAI","perfecture_jp":"群馬県","jp_add_1":"沼田市","jp_add_2":"利根町追貝"},"3780307":{"post_code":"3780307","prefecture":"GUMMA KEN","city":"NUMATA SHI","town":"TONEMACHI KAKIDAIRA","perfecture_jp":"群馬県","jp_add_1":"沼田市","jp_add_2":"利根町柿平"},"3780311":{"post_code":"3780311","prefecture":"GUMMA KEN","city":"NUMATA SHI","town":"TONEMACHI KOMATSU","perfecture_jp":"群馬県","jp_add_1":"沼田市","jp_add_2":"利根町小松"},"3780315":{"post_code":"3780315","prefecture":"GUMMA KEN","city":"NUMATA SHI","town":"TONEMACHI SUNAGAWA","perfecture_jp":"群馬県","jp_add_1":"沼田市","jp_add_2":"利根町砂川"},"3780324":{"post_code":"3780324","prefecture":"GUMMA KEN","city":"NUMATA SHI","town":"TONEMACHI SONOHARA","perfecture_jp":"群馬県","jp_add_1":"沼田市","jp_add_2":"利根町園原"},"3780321":{"post_code":"3780321","prefecture":"GUMMA KEN","city":"NUMATA SHI","town":"TONEMACHI TAKATOYA","perfecture_jp":"群馬県","jp_add_1":"沼田市","jp_add_2":"利根町高戸谷"},"3780317":{"post_code":"3780317","prefecture":"GUMMA KEN","city":"NUMATA SHI","town":"TONEMACHI TANA","perfecture_jp":"群馬県","jp_add_1":"沼田市","jp_add_2":"利根町多那"},"3780302":{"post_code":"3780302","prefecture":"GUMMA KEN","city":"NUMATA SHI","town":"TONEMACHI CHIDORI","perfecture_jp":"群馬県","jp_add_1":"沼田市","jp_add_2":"利根町千鳥"},"3780316":{"post_code":"3780316","prefecture":"GUMMA KEN","city":"NUMATA SHI","town":"TONEMACHI NIHOMMATSU","perfecture_jp":"群馬県","jp_add_1":"沼田市","jp_add_2":"利根町二本松"},"3780312":{"post_code":"3780312","prefecture":"GUMMA KEN","city":"NUMATA SHI","town":"TONEMACHI NERI","perfecture_jp":"群馬県","jp_add_1":"沼田市","jp_add_2":"利根町根利"},"3780313":{"post_code":"3780313","prefecture":"GUMMA KEN","city":"NUMATA SHI","town":"TONEMACHI HIKAGENANGO","perfecture_jp":"群馬県","jp_add_1":"沼田市","jp_add_2":"利根町日影南郷"},"3780306":{"post_code":"3780306","prefecture":"GUMMA KEN","city":"NUMATA SHI","town":"TONEMACHI HINATANANGO","perfecture_jp":"群馬県","jp_add_1":"沼田市","jp_add_2":"利根町日向南郷"},"3780301":{"post_code":"3780301","prefecture":"GUMMA KEN","city":"NUMATA SHI","town":"TONEMACHI HIRAGAWA","perfecture_jp":"群馬県","jp_add_1":"沼田市","jp_add_2":"利根町平川"},"3780325":{"post_code":"3780325","prefecture":"GUMMA KEN","city":"NUMATA SHI","town":"TONEMACHI WAKUMI","perfecture_jp":"群馬県","jp_add_1":"沼田市","jp_add_2":"利根町輪組"},"3780072":{"post_code":"3780072","prefecture":"GUMMA KEN","city":"NUMATA SHI","town":"NAKAHOTCHIMACHI","perfecture_jp":"群馬県","jp_add_1":"沼田市","jp_add_2":"中発知町"},"3780048":{"post_code":"3780048","prefecture":"GUMMA KEN","city":"NUMATA SHI","town":"NAKAMACHI","perfecture_jp":"群馬県","jp_add_1":"沼田市","jp_add_2":"中町"},"3780075":{"post_code":"3780075","prefecture":"GUMMA KEN","city":"NUMATA SHI","town":"NARAMACHI","perfecture_jp":"群馬県","jp_add_1":"沼田市","jp_add_2":"奈良町"},"3780042":{"post_code":"3780042","prefecture":"GUMMA KEN","city":"NUMATA SHI","town":"NISHIKURAUCHIMACHI","perfecture_jp":"群馬県","jp_add_1":"沼田市","jp_add_2":"西倉内町"},"3780054":{"post_code":"3780054","prefecture":"GUMMA KEN","city":"NUMATA SHI","town":"NISHIHARASHIMMACHI","perfecture_jp":"群馬県","jp_add_1":"沼田市","jp_add_2":"西原新町"},"3780012":{"post_code":"3780012","prefecture":"GUMMA KEN","city":"NUMATA SHI","town":"NUMASUMACHI","perfecture_jp":"群馬県","jp_add_1":"沼田市","jp_add_2":"沼須町"},"3780046":{"post_code":"3780046","prefecture":"GUMMA KEN","city":"NUMATA SHI","town":"BAKUROMACHI","perfecture_jp":"群馬県","jp_add_1":"沼田市","jp_add_2":"馬喰町"},"3780066":{"post_code":"3780066","prefecture":"GUMMA KEN","city":"NUMATA SHI","town":"HARAMACHI","perfecture_jp":"群馬県","jp_add_1":"沼田市","jp_add_2":"原町"},"3780041":{"post_code":"3780041","prefecture":"GUMMA KEN","city":"NUMATA SHI","town":"HARUNAMACHI","perfecture_jp":"群馬県","jp_add_1":"沼田市","jp_add_2":"榛名町"},"3780043":{"post_code":"3780043","prefecture":"GUMMA KEN","city":"NUMATA SHI","town":"HIGASHIKURAUCHIMACHI","perfecture_jp":"群馬県","jp_add_1":"沼田市","jp_add_2":"東倉内町"},"3780053":{"post_code":"3780053","prefecture":"GUMMA KEN","city":"NUMATA SHI","town":"HIGASHIHARASHIMMACHI","perfecture_jp":"群馬県","jp_add_1":"沼田市","jp_add_2":"東原新町"},"3780017":{"post_code":"3780017","prefecture":"GUMMA KEN","city":"NUMATA SHI","town":"BOSHINDEMMACHI","perfecture_jp":"群馬県","jp_add_1":"沼田市","jp_add_2":"坊新田町"},"3780073":{"post_code":"3780073","prefecture":"GUMMA KEN","city":"NUMATA SHI","town":"HOTCHISHINDEMMACHI","perfecture_jp":"群馬県","jp_add_1":"沼田市","jp_add_2":"発知新田町"},"3780065":{"post_code":"3780065","prefecture":"GUMMA KEN","city":"NUMATA SHI","town":"HORIMEGURIMACHI","perfecture_jp":"群馬県","jp_add_1":"沼田市","jp_add_2":"堀廻町"},"3780062":{"post_code":"3780062","prefecture":"GUMMA KEN","city":"NUMATA SHI","town":"MACHIDAMACHI","perfecture_jp":"群馬県","jp_add_1":"沼田市","jp_add_2":"町田町"},"3780022":{"post_code":"3780022","prefecture":"GUMMA KEN","city":"NUMATA SHI","town":"YAKATABARAMACHI","perfecture_jp":"群馬県","jp_add_1":"沼田市","jp_add_2":"屋形原町"},"3780055":{"post_code":"3780055","prefecture":"GUMMA KEN","city":"NUMATA SHI","town":"YANAGIMACHI","perfecture_jp":"群馬県","jp_add_1":"沼田市","jp_add_2":"柳町"},"3780002":{"post_code":"3780002","prefecture":"GUMMA KEN","city":"NUMATA SHI","town":"YOKOZUKAMACHI","perfecture_jp":"群馬県","jp_add_1":"沼田市","jp_add_2":"横塚町"},"3780400":{"post_code":"3780400","prefecture":"GUMMA KEN","city":"TONE GUN KATASHINA MURA","town":"IKANIKEISAIGANAIBAAI","perfecture_jp":"群馬県","jp_add_1":"利根郡片品村","jp_add_2":""},"3780415":{"post_code":"3780415","prefecture":"GUMMA KEN","city":"TONE GUN KATASHINA MURA","town":"KAMADA","perfecture_jp":"群馬県","jp_add_1":"利根郡片品村","jp_add_2":"鎌田"},"3780413":{"post_code":"3780413","prefecture":"GUMMA KEN","city":"TONE GUN KATASHINA MURA","town":"KOSHIMOTO","perfecture_jp":"群馬県","jp_add_1":"利根郡片品村","jp_add_2":"越本"},"3780405":{"post_code":"3780405","prefecture":"GUMMA KEN","city":"TONE GUN KATASHINA MURA","town":"SHIMODAIRA","perfecture_jp":"群馬県","jp_add_1":"利根郡片品村","jp_add_2":"下平"},"3780401":{"post_code":"3780401","prefecture":"GUMMA KEN","city":"TONE GUN KATASHINA MURA","town":"SUKAGAWA","perfecture_jp":"群馬県","jp_add_1":"利根郡片品村","jp_add_2":"須賀川"},"3780403":{"post_code":"3780403","prefecture":"GUMMA KEN","city":"TONE GUN KATASHINA MURA","town":"SUGANUMA","perfecture_jp":"群馬県","jp_add_1":"利根郡片品村","jp_add_2":"菅沼"},"3780406":{"post_code":"3780406","prefecture":"GUMMA KEN","city":"TONE GUN KATASHINA MURA","town":"SURUBUCHI","perfecture_jp":"群馬県","jp_add_1":"利根郡片品村","jp_add_2":"摺淵"},"3780404":{"post_code":"3780404","prefecture":"GUMMA KEN","city":"TONE GUN KATASHINA MURA","town":"TSUIJI","perfecture_jp":"群馬県","jp_add_1":"利根郡片品村","jp_add_2":"築地"},"3780412":{"post_code":"3780412","prefecture":"GUMMA KEN","city":"TONE GUN KATASHINA MURA","town":"TSUCHIIDE","perfecture_jp":"群馬県","jp_add_1":"利根郡片品村","jp_add_2":"土出"},"3780411":{"post_code":"3780411","prefecture":"GUMMA KEN","city":"TONE GUN KATASHINA MURA","town":"TOKURA","perfecture_jp":"群馬県","jp_add_1":"利根郡片品村","jp_add_2":"戸倉"},"3780407":{"post_code":"3780407","prefecture":"GUMMA KEN","city":"TONE GUN KATASHINA MURA","town":"HATAYA","perfecture_jp":"群馬県","jp_add_1":"利根郡片品村","jp_add_2":"幡谷"},"3780408":{"post_code":"3780408","prefecture":"GUMMA KEN","city":"TONE GUN KATASHINA MURA","town":"HANASAKU","perfecture_jp":"群馬県","jp_add_1":"利根郡片品村","jp_add_2":"花咲"},"3780409":{"post_code":"3780409","prefecture":"GUMMA KEN","city":"TONE GUN KATASHINA MURA","town":"HARIYAMA","perfecture_jp":"群馬県","jp_add_1":"利根郡片品村","jp_add_2":"針山"},"3780414":{"post_code":"3780414","prefecture":"GUMMA KEN","city":"TONE GUN KATASHINA MURA","town":"HIGASHIOGAWA","perfecture_jp":"群馬県","jp_add_1":"利根郡片品村","jp_add_2":"東小川"},"3780402":{"post_code":"3780402","prefecture":"GUMMA KEN","city":"TONE GUN KATASHINA MURA","town":"MIZANORI","perfecture_jp":"群馬県","jp_add_1":"利根郡片品村","jp_add_2":"御座入"},"3780100":{"post_code":"3780100","prefecture":"GUMMA KEN","city":"TONE GUN KAWABA MURA","town":"IKANIKEISAIGANAIBAAI","perfecture_jp":"群馬県","jp_add_1":"利根郡川場村","jp_add_2":""},"3780104":{"post_code":"3780104","prefecture":"GUMMA KEN","city":"TONE GUN KAWABA MURA","town":"OTAGAWA","perfecture_jp":"群馬県","jp_add_1":"利根郡川場村","jp_add_2":"太田川"},"3780102":{"post_code":"3780102","prefecture":"GUMMA KEN","city":"TONE GUN KAWABA MURA","town":"KAWABAYUBARA","perfecture_jp":"群馬県","jp_add_1":"利根郡川場村","jp_add_2":"川場湯原"},"3780105":{"post_code":"3780105","prefecture":"GUMMA KEN","city":"TONE GUN KAWABA MURA","town":"KOTAGAWA","perfecture_jp":"群馬県","jp_add_1":"利根郡川場村","jp_add_2":"小田川"},"3780112":{"post_code":"3780112","prefecture":"GUMMA KEN","city":"TONE GUN KAWABA MURA","town":"TATSUIWA","perfecture_jp":"群馬県","jp_add_1":"利根郡川場村","jp_add_2":"立岩"},"3780114":{"post_code":"3780114","prefecture":"GUMMA KEN","city":"TONE GUN KAWABA MURA","town":"TENJIN","perfecture_jp":"群馬県","jp_add_1":"利根郡川場村","jp_add_2":"天神"},"3780103":{"post_code":"3780103","prefecture":"GUMMA KEN","city":"TONE GUN KAWABA MURA","town":"NAKANO","perfecture_jp":"群馬県","jp_add_1":"利根郡川場村","jp_add_2":"中野"},"3780113":{"post_code":"3780113","prefecture":"GUMMA KEN","city":"TONE GUN KAWABA MURA","town":"NAMASHINA","perfecture_jp":"群馬県","jp_add_1":"利根郡川場村","jp_add_2":"生品"},"3780111":{"post_code":"3780111","prefecture":"GUMMA KEN","city":"TONE GUN KAWABA MURA","town":"HAGIMURO","perfecture_jp":"群馬県","jp_add_1":"利根郡川場村","jp_add_2":"萩室"},"3780115":{"post_code":"3780115","prefecture":"GUMMA KEN","city":"TONE GUN KAWABA MURA","town":"MONZEN","perfecture_jp":"群馬県","jp_add_1":"利根郡川場村","jp_add_2":"門前"},"3780101":{"post_code":"3780101","prefecture":"GUMMA KEN","city":"TONE GUN KAWABA MURA","town":"YACHI","perfecture_jp":"群馬県","jp_add_1":"利根郡川場村","jp_add_2":"谷地"}}