{"3792154":{"post_code":"3792154","prefecture":"GUMMA KEN","city":"MAEBASHI SHI","town":"AMAGAWA OSHIMAMACHI","perfecture_jp":"群馬県","jp_add_1":"前橋市","jp_add_2":"天川大島町"},"3792112":{"post_code":"3792112","prefecture":"GUMMA KEN","city":"MAEBASHI SHI","town":"ARAIMACHI","perfecture_jp":"群馬県","jp_add_1":"前橋市","jp_add_2":"新井町"},"3792107":{"post_code":"3792107","prefecture":"GUMMA KEN","city":"MAEBASHI SHI","town":"ARAKUCHIMACHI","perfecture_jp":"群馬県","jp_add_1":"前橋市","jp_add_2":"荒口町"},"3792106":{"post_code":"3792106","prefecture":"GUMMA KEN","city":"MAEBASHI SHI","town":"ARAKOMACHI","perfecture_jp":"群馬県","jp_add_1":"前橋市","jp_add_2":"荒子町"},"3792111":{"post_code":"3792111","prefecture":"GUMMA KEN","city":"MAEBASHI SHI","town":"IIDOIMACHI","perfecture_jp":"群馬県","jp_add_1":"前橋市","jp_add_2":"飯土井町"},"3792101":{"post_code":"3792101","prefecture":"GUMMA KEN","city":"MAEBASHI SHI","town":"IZUMISAWAMACHI","perfecture_jp":"群馬県","jp_add_1":"前橋市","jp_add_2":"泉沢町"},"3792116":{"post_code":"3792116","prefecture":"GUMMA KEN","city":"MAEBASHI SHI","town":"IMAIMACHI","perfecture_jp":"群馬県","jp_add_1":"前橋市","jp_add_2":"今井町"},"3792115":{"post_code":"3792115","prefecture":"GUMMA KEN","city":"MAEBASHI SHI","town":"UTSUBOIMACHI","perfecture_jp":"群馬県","jp_add_1":"前橋市","jp_add_2":"笂井町"},"3792163":{"post_code":"3792163","prefecture":"GUMMA KEN","city":"MAEBASHI SHI","town":"ONAYAMACHI","perfecture_jp":"群馬県","jp_add_1":"前橋市","jp_add_2":"女屋町"},"3792153":{"post_code":"3792153","prefecture":"GUMMA KEN","city":"MAEBASHI SHI","town":"KAMIOSHIMAMACHI","perfecture_jp":"群馬県","jp_add_1":"前橋市","jp_add_2":"上大島町"},"3792165":{"post_code":"3792165","prefecture":"GUMMA KEN","city":"MAEBASHI SHI","town":"KAMINAGAISOMACHI","perfecture_jp":"群馬県","jp_add_1":"前橋市","jp_add_2":"上長磯町"},"3792114":{"post_code":"3792114","prefecture":"GUMMA KEN","city":"MAEBASHI SHI","town":"KAMIMASUDAMACHI","perfecture_jp":"群馬県","jp_add_1":"前橋市","jp_add_2":"上増田町"},"3792147":{"post_code":"3792147","prefecture":"GUMMA KEN","city":"MAEBASHI SHI","town":"KAMESATOMACHI","perfecture_jp":"群馬県","jp_add_1":"前橋市","jp_add_2":"亀里町"},"3792103":{"post_code":"3792103","prefecture":"GUMMA KEN","city":"MAEBASHI SHI","town":"KANZAWANOMORI","perfecture_jp":"群馬県","jp_add_1":"前橋市","jp_add_2":"神沢の森"},"3792146":{"post_code":"3792146","prefecture":"GUMMA KEN","city":"MAEBASHI SHI","town":"KUDEMMACHI","perfecture_jp":"群馬県","jp_add_1":"前橋市","jp_add_2":"公田町"},"3792162":{"post_code":"3792162","prefecture":"GUMMA KEN","city":"MAEBASHI SHI","town":"KOJIMATAMACHI","perfecture_jp":"群馬県","jp_add_1":"前橋市","jp_add_2":"小島田町"},"3792122":{"post_code":"3792122","prefecture":"GUMMA KEN","city":"MAEBASHI SHI","town":"KOMAGATAMACHI","perfecture_jp":"群馬県","jp_add_1":"前橋市","jp_add_2":"駒形町"},"3792121":{"post_code":"3792121","prefecture":"GUMMA KEN","city":"MAEBASHI SHI","town":"KOYAHARAMACHI","perfecture_jp":"群馬県","jp_add_1":"前橋市","jp_add_2":"小屋原町"},"3792123":{"post_code":"3792123","prefecture":"GUMMA KEN","city":"MAEBASHI SHI","town":"SANNOMACHI","perfecture_jp":"群馬県","jp_add_1":"前橋市","jp_add_2":"山王町"},"3792142":{"post_code":"3792142","prefecture":"GUMMA KEN","city":"MAEBASHI SHI","town":"SHIMOAUCHIMACHI","perfecture_jp":"群馬県","jp_add_1":"前橋市","jp_add_2":"下阿内町"},"3792152":{"post_code":"3792152","prefecture":"GUMMA KEN","city":"MAEBASHI SHI","town":"SHIMOOSHIMAMACHI","perfecture_jp":"群馬県","jp_add_1":"前橋市","jp_add_2":"下大島町"},"3792102":{"post_code":"3792102","prefecture":"GUMMA KEN","city":"MAEBASHI SHI","town":"SHIMOOYAMACHI","perfecture_jp":"群馬県","jp_add_1":"前橋市","jp_add_2":"下大屋町"},"3792144":{"post_code":"3792144","prefecture":"GUMMA KEN","city":"MAEBASHI SHI","town":"SHIMOKAWAMACHI","perfecture_jp":"群馬県","jp_add_1":"前橋市","jp_add_2":"下川町"},"3792151":{"post_code":"3792151","prefecture":"GUMMA KEN","city":"MAEBASHI SHI","town":"SHIMONAGAISOMACHI","perfecture_jp":"群馬県","jp_add_1":"前橋市","jp_add_2":"下長磯町"},"3792113":{"post_code":"3792113","prefecture":"GUMMA KEN","city":"MAEBASHI SHI","town":"SHIMOMASUDAMACHI","perfecture_jp":"群馬県","jp_add_1":"前橋市","jp_add_2":"下増田町"},"3792108":{"post_code":"3792108","prefecture":"GUMMA KEN","city":"MAEBASHI SHI","town":"TSURUGAYAMACHI","perfecture_jp":"群馬県","jp_add_1":"前橋市","jp_add_2":"鶴が谷町"},"3792141":{"post_code":"3792141","prefecture":"GUMMA KEN","city":"MAEBASHI SHI","town":"TSURUKOJIMACHI","perfecture_jp":"群馬県","jp_add_1":"前橋市","jp_add_2":"鶴光路町"},"3792135":{"post_code":"3792135","prefecture":"GUMMA KEN","city":"MAEBASHI SHI","town":"TOKUMARUMACHI","perfecture_jp":"群馬県","jp_add_1":"前橋市","jp_add_2":"徳丸町"},"3792161":{"post_code":"3792161","prefecture":"GUMMA KEN","city":"MAEBASHI SHI","town":"TOMIDAMACHI","perfecture_jp":"群馬県","jp_add_1":"前橋市","jp_add_2":"富田町"},"3792133":{"post_code":"3792133","prefecture":"GUMMA KEN","city":"MAEBASHI SHI","town":"NAKAUCHIMACHI","perfecture_jp":"群馬県","jp_add_1":"前橋市","jp_add_2":"中内町"},"3792143":{"post_code":"3792143","prefecture":"GUMMA KEN","city":"MAEBASHI SHI","town":"NIIBORIMACHI","perfecture_jp":"群馬県","jp_add_1":"前橋市","jp_add_2":"新堀町"},"3792104":{"post_code":"3792104","prefecture":"GUMMA KEN","city":"MAEBASHI SHI","town":"NISHIOMUROMACHI","perfecture_jp":"群馬県","jp_add_1":"前橋市","jp_add_2":"西大室町"},"3792131":{"post_code":"3792131","prefecture":"GUMMA KEN","city":"MAEBASHI SHI","town":"NISHIZEMMACHI","perfecture_jp":"群馬県","jp_add_1":"前橋市","jp_add_2":"西善町"},"3792117":{"post_code":"3792117","prefecture":"GUMMA KEN","city":"MAEBASHI SHI","town":"NINOMIYAMACHI","perfecture_jp":"群馬県","jp_add_1":"前橋市","jp_add_2":"二之宮町"},"3792166":{"post_code":"3792166","prefecture":"GUMMA KEN","city":"MAEBASHI SHI","town":"NONAKAMACHI","perfecture_jp":"群馬県","jp_add_1":"前橋市","jp_add_2":"野中町"},"3792164":{"post_code":"3792164","prefecture":"GUMMA KEN","city":"MAEBASHI SHI","town":"HIGASHIUENOMACHI","perfecture_jp":"群馬県","jp_add_1":"前橋市","jp_add_2":"東上野町"},"3792105":{"post_code":"3792105","prefecture":"GUMMA KEN","city":"MAEBASHI SHI","town":"HIGASHIOMUROMACHI","perfecture_jp":"群馬県","jp_add_1":"前橋市","jp_add_2":"東大室町"},"3792132":{"post_code":"3792132","prefecture":"GUMMA KEN","city":"MAEBASHI SHI","town":"HIGASHIZEMMACHI","perfecture_jp":"群馬県","jp_add_1":"前橋市","jp_add_2":"東善町"},"3792136":{"post_code":"3792136","prefecture":"GUMMA KEN","city":"MAEBASHI SHI","town":"BOMARUMACHI","perfecture_jp":"群馬県","jp_add_1":"前橋市","jp_add_2":"房丸町"},"3792145":{"post_code":"3792145","prefecture":"GUMMA KEN","city":"MAEBASHI SHI","town":"YOKOTEMACHI","perfecture_jp":"群馬県","jp_add_1":"前橋市","jp_add_2":"横手町"},"3792134":{"post_code":"3792134","prefecture":"GUMMA KEN","city":"MAEBASHI SHI","town":"RIKIMARUMACHI","perfecture_jp":"群馬県","jp_add_1":"前橋市","jp_add_2":"力丸町"},"3792201":{"post_code":"3792201","prefecture":"GUMMA KEN","city":"ISESAKI SHI","town":"AINOYACHO","perfecture_jp":"群馬県","jp_add_1":"伊勢崎市","jp_add_2":"間野谷町"},"3792215":{"post_code":"3792215","prefecture":"GUMMA KEN","city":"ISESAKI SHI","town":"AKABORIIMAICHO","perfecture_jp":"群馬県","jp_add_1":"伊勢崎市","jp_add_2":"赤堀今井町"},"3792202":{"post_code":"3792202","prefecture":"GUMMA KEN","city":"ISESAKI SHI","town":"AKABORIKASHIMACHO","perfecture_jp":"群馬県","jp_add_1":"伊勢崎市","jp_add_2":"赤堀鹿島町"},"3792231":{"post_code":"3792231","prefecture":"GUMMA KEN","city":"ISESAKI SHI","town":"AZUMACHO","perfecture_jp":"群馬県","jp_add_1":"伊勢崎市","jp_add_2":"東町"},"3792217":{"post_code":"3792217","prefecture":"GUMMA KEN","city":"ISESAKI SHI","town":"ISOCHO","perfecture_jp":"群馬県","jp_add_1":"伊勢崎市","jp_add_2":"磯町"},"3792211":{"post_code":"3792211","prefecture":"GUMMA KEN","city":"ISESAKI SHI","town":"ICHIBACHO","perfecture_jp":"群馬県","jp_add_1":"伊勢崎市","jp_add_2":"市場町"},"3792225":{"post_code":"3792225","prefecture":"GUMMA KEN","city":"ISESAKI SHI","town":"KAMIDACHO","perfecture_jp":"群馬県","jp_add_1":"伊勢崎市","jp_add_2":"上田町"},"3792221":{"post_code":"3792221","prefecture":"GUMMA KEN","city":"ISESAKI SHI","town":"KUNISADAMACHI","perfecture_jp":"群馬県","jp_add_1":"伊勢崎市","jp_add_2":"国定町"},"3792232":{"post_code":"3792232","prefecture":"GUMMA KEN","city":"ISESAKI SHI","town":"KOIZUMICHO","perfecture_jp":"群馬県","jp_add_1":"伊勢崎市","jp_add_2":"小泉町"},"3792206":{"post_code":"3792206","prefecture":"GUMMA KEN","city":"ISESAKI SHI","town":"KOBAYASHICHO","perfecture_jp":"群馬県","jp_add_1":"伊勢崎市","jp_add_2":"香林町"},"3792213":{"post_code":"3792213","prefecture":"GUMMA KEN","city":"ISESAKI SHI","town":"GOMEUSHICHO","perfecture_jp":"群馬県","jp_add_1":"伊勢崎市","jp_add_2":"五目牛町"},"3792214":{"post_code":"3792214","prefecture":"GUMMA KEN","city":"ISESAKI SHI","town":"SHIMOFUREICHO","perfecture_jp":"群馬県","jp_add_1":"伊勢崎市","jp_add_2":"下触町"},"3792222":{"post_code":"3792222","prefecture":"GUMMA KEN","city":"ISESAKI SHI","town":"TABEICHO","perfecture_jp":"群馬県","jp_add_1":"伊勢崎市","jp_add_2":"田部井町"},"3792224":{"post_code":"3792224","prefecture":"GUMMA KEN","city":"ISESAKI SHI","town":"NISHIOBOKATACHO","perfecture_jp":"群馬県","jp_add_1":"伊勢崎市","jp_add_2":"西小保方町"},"3792204":{"post_code":"3792204","prefecture":"GUMMA KEN","city":"ISESAKI SHI","town":"NISHIKUBOCHO","perfecture_jp":"群馬県","jp_add_1":"伊勢崎市","jp_add_2":"西久保町"},"3792216":{"post_code":"3792216","prefecture":"GUMMA KEN","city":"ISESAKI SHI","town":"NISHINOCHO","perfecture_jp":"群馬県","jp_add_1":"伊勢崎市","jp_add_2":"西野町"},"3792205":{"post_code":"3792205","prefecture":"GUMMA KEN","city":"ISESAKI SHI","town":"NOCHO","perfecture_jp":"群馬県","jp_add_1":"伊勢崎市","jp_add_2":"野町"},"3792236":{"post_code":"3792236","prefecture":"GUMMA KEN","city":"ISESAKI SHI","town":"HACHISUCHO","perfecture_jp":"群馬県","jp_add_1":"伊勢崎市","jp_add_2":"八寸町"},"3792234":{"post_code":"3792234","prefecture":"GUMMA KEN","city":"ISESAKI SHI","town":"HIGASHIOBOKATACHO","perfecture_jp":"群馬県","jp_add_1":"伊勢崎市","jp_add_2":"東小保方町"},"3792233":{"post_code":"3792233","prefecture":"GUMMA KEN","city":"ISESAKI SHI","town":"HIRAICHO","perfecture_jp":"群馬県","jp_add_1":"伊勢崎市","jp_add_2":"平井町"},"3792212":{"post_code":"3792212","prefecture":"GUMMA KEN","city":"ISESAKI SHI","town":"HORISHITACHO","perfecture_jp":"群馬県","jp_add_1":"伊勢崎市","jp_add_2":"堀下町"},"3792203":{"post_code":"3792203","prefecture":"GUMMA KEN","city":"ISESAKI SHI","town":"MAGARISAWACHO","perfecture_jp":"群馬県","jp_add_1":"伊勢崎市","jp_add_2":"曲沢町"},"3792235":{"post_code":"3792235","prefecture":"GUMMA KEN","city":"ISESAKI SHI","town":"MIMUROCHO","perfecture_jp":"群馬県","jp_add_1":"伊勢崎市","jp_add_2":"三室町"},"3792306":{"post_code":"3792306","prefecture":"GUMMA KEN","city":"OTA SHI","town":"OKUBOCHO","perfecture_jp":"群馬県","jp_add_1":"太田市","jp_add_2":"大久保町"},"3792304":{"post_code":"3792304","prefecture":"GUMMA KEN","city":"OTA SHI","town":"OBARACHO","perfecture_jp":"群馬県","jp_add_1":"太田市","jp_add_2":"大原町"},"3792301":{"post_code":"3792301","prefecture":"GUMMA KEN","city":"OTA SHI","town":"YABUZUKACHO","perfecture_jp":"群馬県","jp_add_1":"太田市","jp_add_2":"藪塚町"},"3792302":{"post_code":"3792302","prefecture":"GUMMA KEN","city":"OTA SHI","town":"YAMANOKAMICHO","perfecture_jp":"群馬県","jp_add_1":"太田市","jp_add_2":"山之神町"},"3792303":{"post_code":"3792303","prefecture":"GUMMA KEN","city":"OTA SHI","town":"YORIAICHO","perfecture_jp":"群馬県","jp_add_1":"太田市","jp_add_2":"寄合町"},"3792305":{"post_code":"3792305","prefecture":"GUMMA KEN","city":"OTA SHI","town":"ROKUSENGOKUCHO","perfecture_jp":"群馬県","jp_add_1":"太田市","jp_add_2":"六千石町"},"3791122":{"post_code":"3791122","prefecture":"GUMMA KEN","city":"SHIBUKAWA SHI","town":"AKAGIMACHI KATSUHOZAWA","perfecture_jp":"群馬県","jp_add_1":"渋川市","jp_add_2":"赤城町勝保沢"},"3791125":{"post_code":"3791125","prefecture":"GUMMA KEN","city":"SHIBUKAWA SHI","town":"AKAGIMACHI KAMIMIHARADA","perfecture_jp":"群馬県","jp_add_1":"渋川市","jp_add_2":"赤城町上三原田"},"3791111":{"post_code":"3791111","prefecture":"GUMMA KEN","city":"SHIBUKAWA SHI","town":"AKAGIMACHI KITAAKAGISAN","perfecture_jp":"群馬県","jp_add_1":"渋川市","jp_add_2":"赤城町北赤城山"},"3791105":{"post_code":"3791105","prefecture":"GUMMA KEN","city":"SHIBUKAWA SHI","town":"AKAGIMACHI KITAUENO","perfecture_jp":"群馬県","jp_add_1":"渋川市","jp_add_2":"赤城町北上野"},"3791114":{"post_code":"3791114","prefecture":"GUMMA KEN","city":"SHIBUKAWA SHI","town":"AKAGIMACHI SAKAE","perfecture_jp":"群馬県","jp_add_1":"渋川市","jp_add_2":"赤城町栄"},"3791104":{"post_code":"3791104","prefecture":"GUMMA KEN","city":"SHIBUKAWA SHI","town":"AKAGIMACHI SHIKISHIMA","perfecture_jp":"群馬県","jp_add_1":"渋川市","jp_add_2":"赤城町敷島"},"3791124":{"post_code":"3791124","prefecture":"GUMMA KEN","city":"SHIBUKAWA SHI","town":"AKAGIMACHI TAKIZAWA","perfecture_jp":"群馬県","jp_add_1":"渋川市","jp_add_2":"赤城町滝沢"},"3791101":{"post_code":"3791101","prefecture":"GUMMA KEN","city":"SHIBUKAWA SHI","town":"AKAGIMACHI TANASHITA","perfecture_jp":"群馬県","jp_add_1":"渋川市","jp_add_2":"赤城町棚下"},"3791127":{"post_code":"3791127","prefecture":"GUMMA KEN","city":"SHIBUKAWA SHI","town":"AKAGIMACHI TARU","perfecture_jp":"群馬県","jp_add_1":"渋川市","jp_add_2":"赤城町樽"},"3791103":{"post_code":"3791103","prefecture":"GUMMA KEN","city":"SHIBUKAWA SHI","town":"AKAGIMACHI TSUKUDA","perfecture_jp":"群馬県","jp_add_1":"渋川市","jp_add_2":"赤城町津久田"},"3791102":{"post_code":"3791102","prefecture":"GUMMA KEN","city":"SHIBUKAWA SHI","town":"AKAGIMACHI NAGAIOGAWADA","perfecture_jp":"群馬県","jp_add_1":"渋川市","jp_add_2":"赤城町長井小川田"},"3791115":{"post_code":"3791115","prefecture":"GUMMA KEN","city":"SHIBUKAWA SHI","town":"AKAGIMACHI MIZOROKI","perfecture_jp":"群馬県","jp_add_1":"渋川市","jp_add_2":"赤城町溝呂木"},"3791123":{"post_code":"3791123","prefecture":"GUMMA KEN","city":"SHIBUKAWA SHI","town":"AKAGIMACHI MITACHI","perfecture_jp":"群馬県","jp_add_1":"渋川市","jp_add_2":"赤城町見立"},"3791113":{"post_code":"3791113","prefecture":"GUMMA KEN","city":"SHIBUKAWA SHI","town":"AKAGIMACHI MINAMIAKAGISAN","perfecture_jp":"群馬県","jp_add_1":"渋川市","jp_add_2":"赤城町南赤城山"},"3791126":{"post_code":"3791126","prefecture":"GUMMA KEN","city":"SHIBUKAWA SHI","town":"AKAGIMACHI MIHARADA","perfecture_jp":"群馬県","jp_add_1":"渋川市","jp_add_2":"赤城町三原田"},"3791121":{"post_code":"3791121","prefecture":"GUMMA KEN","city":"SHIBUKAWA SHI","town":"AKAGIMACHI MIYADA","perfecture_jp":"群馬県","jp_add_1":"渋川市","jp_add_2":"赤城町宮田"},"3791112":{"post_code":"3791112","prefecture":"GUMMA KEN","city":"SHIBUKAWA SHI","town":"AKAGIMACHI MIYAMA","perfecture_jp":"群馬県","jp_add_1":"渋川市","jp_add_2":"赤城町深山"},"3791116":{"post_code":"3791116","prefecture":"GUMMA KEN","city":"SHIBUKAWA SHI","town":"AKAGIMACHI MOCHIKASHIWAGI","perfecture_jp":"群馬県","jp_add_1":"渋川市","jp_add_2":"赤城町持柏木"},"3790202":{"post_code":"3790202","prefecture":"GUMMA KEN","city":"TOMIOKA SHI","town":"MYOGIMACHI OUSHI","perfecture_jp":"群馬県","jp_add_1":"富岡市","jp_add_2":"妙義町大牛"},"3790205":{"post_code":"3790205","prefecture":"GUMMA KEN","city":"TOMIOKA SHI","town":"MYOGIMACHI KITAYAMA","perfecture_jp":"群馬県","jp_add_1":"富岡市","jp_add_2":"妙義町北山"},"3790208":{"post_code":"3790208","prefecture":"GUMMA KEN","city":"TOMIOKA SHI","town":"MYOGIMACHI SUGAHARA","perfecture_jp":"群馬県","jp_add_1":"富岡市","jp_add_2":"妙義町菅原"},"3790203":{"post_code":"3790203","prefecture":"GUMMA KEN","city":"TOMIOKA SHI","town":"MYOGIMACHI TAKE","perfecture_jp":"群馬県","jp_add_1":"富岡市","jp_add_2":"妙義町岳"},"3790206":{"post_code":"3790206","prefecture":"GUMMA KEN","city":"TOMIOKA SHI","town":"MYOGIMACHI NAKAZATO","perfecture_jp":"群馬県","jp_add_1":"富岡市","jp_add_2":"妙義町中里"},"3790204":{"post_code":"3790204","prefecture":"GUMMA KEN","city":"TOMIOKA SHI","town":"MYOGIMACHI NAMEZAWA","perfecture_jp":"群馬県","jp_add_1":"富岡市","jp_add_2":"妙義町行沢"},"3790207":{"post_code":"3790207","prefecture":"GUMMA KEN","city":"TOMIOKA SHI","town":"MYOGIMACHI FURUTACHI","perfecture_jp":"群馬県","jp_add_1":"富岡市","jp_add_2":"妙義町古立"},"3790201":{"post_code":"3790201","prefecture":"GUMMA KEN","city":"TOMIOKA SHI","town":"MYOGIMACHI MYOGI","perfecture_jp":"群馬県","jp_add_1":"富岡市","jp_add_2":"妙義町妙義"},"3790209":{"post_code":"3790209","prefecture":"GUMMA KEN","city":"TOMIOKA SHI","town":"MYOGIMACHI MOROTO","perfecture_jp":"群馬県","jp_add_1":"富岡市","jp_add_2":"妙義町諸戸"},"3790100":{"post_code":"3790100","prefecture":"GUMMA KEN","city":"ANNAKA SHI","town":"IKANIKEISAIGANAIBAAI","perfecture_jp":"群馬県","jp_add_1":"安中市","jp_add_2":""},"3790109":{"post_code":"3790109","prefecture":"GUMMA KEN","city":"ANNAKA SHI","town":"AKIMAMINORIGAOKA","perfecture_jp":"群馬県","jp_add_1":"安中市","jp_add_2":"秋間みのりが丘"},"3790116":{"post_code":"3790116","prefecture":"GUMMA KEN","city":"ANNAKA SHI","town":"ANNAKA","perfecture_jp":"群馬県","jp_add_1":"安中市","jp_add_2":"安中"},"3790127":{"post_code":"3790127","prefecture":"GUMMA KEN","city":"ANNAKA SHI","town":"ISOBE","perfecture_jp":"群馬県","jp_add_1":"安中市","jp_add_2":"磯部"},"3790111":{"post_code":"3790111","prefecture":"GUMMA KEN","city":"ANNAKA SHI","town":"ITAHANA","perfecture_jp":"群馬県","jp_add_1":"安中市","jp_add_2":"板鼻"},"3790112":{"post_code":"3790112","prefecture":"GUMMA KEN","city":"ANNAKA SHI","town":"IWAI","perfecture_jp":"群馬県","jp_add_1":"安中市","jp_add_2":"岩井"},"3790121":{"post_code":"3790121","prefecture":"GUMMA KEN","city":"ANNAKA SHI","town":"OTAKE","perfecture_jp":"群馬県","jp_add_1":"安中市","jp_add_2":"大竹"},"3790113":{"post_code":"3790113","prefecture":"GUMMA KEN","city":"ANNAKA SHI","town":"OYA","perfecture_jp":"群馬県","jp_add_1":"安中市","jp_add_2":"大谷"},"3790105":{"post_code":"3790105","prefecture":"GUMMA KEN","city":"ANNAKA SHI","town":"OMATA","perfecture_jp":"群馬県","jp_add_1":"安中市","jp_add_2":"小俣"},"3790108":{"post_code":"3790108","prefecture":"GUMMA KEN","city":"ANNAKA SHI","town":"KAMIGOKAN","perfecture_jp":"群馬県","jp_add_1":"安中市","jp_add_2":"上後閑"},"3790123":{"post_code":"3790123","prefecture":"GUMMA KEN","city":"ANNAKA SHI","town":"KAMIMANITA","perfecture_jp":"群馬県","jp_add_1":"安中市","jp_add_2":"上間仁田"},"3790135":{"post_code":"3790135","prefecture":"GUMMA KEN","city":"ANNAKA SHI","town":"GOBARA","perfecture_jp":"群馬県","jp_add_1":"安中市","jp_add_2":"郷原"},"3790132":{"post_code":"3790132","prefecture":"GUMMA KEN","city":"ANNAKA SHI","town":"KOBETSUTO","perfecture_jp":"群馬県","jp_add_1":"安中市","jp_add_2":"高別当"},"3790124":{"post_code":"3790124","prefecture":"GUMMA KEN","city":"ANNAKA SHI","town":"SAGINOMIYA","perfecture_jp":"群馬県","jp_add_1":"安中市","jp_add_2":"鷺宮"},"3790104":{"post_code":"3790104","prefecture":"GUMMA KEN","city":"ANNAKA SHI","town":"SHIMOAKIMA","perfecture_jp":"群馬県","jp_add_1":"安中市","jp_add_2":"下秋間"},"3790129":{"post_code":"3790129","prefecture":"GUMMA KEN","city":"ANNAKA SHI","town":"SHIMOISOBE","perfecture_jp":"群馬県","jp_add_1":"安中市","jp_add_2":"下磯部"},"3790106":{"post_code":"3790106","prefecture":"GUMMA KEN","city":"ANNAKA SHI","town":"SHIMOGOKAN","perfecture_jp":"群馬県","jp_add_1":"安中市","jp_add_2":"下後閑"},"3790122":{"post_code":"3790122","prefecture":"GUMMA KEN","city":"ANNAKA SHI","town":"SHIMOMANITA","perfecture_jp":"群馬県","jp_add_1":"安中市","jp_add_2":"下間仁田"},"3790103":{"post_code":"3790103","prefecture":"GUMMA KEN","city":"ANNAKA SHI","town":"NAKAAKIMA","perfecture_jp":"群馬県","jp_add_1":"安中市","jp_add_2":"中秋間"},"3790107":{"post_code":"3790107","prefecture":"GUMMA KEN","city":"ANNAKA SHI","town":"NAKAGOKAN","perfecture_jp":"群馬県","jp_add_1":"安中市","jp_add_2":"中後閑"},"3790115":{"post_code":"3790115","prefecture":"GUMMA KEN","city":"ANNAKA SHI","town":"NAKAJUKU","perfecture_jp":"群馬県","jp_add_1":"安中市","jp_add_2":"中宿"},"3790125":{"post_code":"3790125","prefecture":"GUMMA KEN","city":"ANNAKA SHI","town":"NAKANOYA","perfecture_jp":"群馬県","jp_add_1":"安中市","jp_add_2":"中野谷"},"3790101":{"post_code":"3790101","prefecture":"GUMMA KEN","city":"ANNAKA SHI","town":"NISHIKAMIAKIMA","perfecture_jp":"群馬県","jp_add_1":"安中市","jp_add_2":"西上秋間"},"3790126":{"post_code":"3790126","prefecture":"GUMMA KEN","city":"ANNAKA SHI","town":"NISHIKAMIISOBE","perfecture_jp":"群馬県","jp_add_1":"安中市","jp_add_2":"西上磯部"},"3790114":{"post_code":"3790114","prefecture":"GUMMA KEN","city":"ANNAKA SHI","town":"NODONO","perfecture_jp":"群馬県","jp_add_1":"安中市","jp_add_2":"野殿"},"3790133":{"post_code":"3790133","prefecture":"GUMMA KEN","city":"ANNAKA SHI","town":"HARAICHI","perfecture_jp":"群馬県","jp_add_1":"安中市","jp_add_2":"原市"},"3790102":{"post_code":"3790102","prefecture":"GUMMA KEN","city":"ANNAKA SHI","town":"HIGASHIKAMIAKIMA","perfecture_jp":"群馬県","jp_add_1":"安中市","jp_add_2":"東上秋間"},"3790128":{"post_code":"3790128","prefecture":"GUMMA KEN","city":"ANNAKA SHI","town":"HIGASHIKAMIISOBE","perfecture_jp":"群馬県","jp_add_1":"安中市","jp_add_2":"東上磯部"},"3790131":{"post_code":"3790131","prefecture":"GUMMA KEN","city":"ANNAKA SHI","town":"FURUYA","perfecture_jp":"群馬県","jp_add_1":"安中市","jp_add_2":"古屋"},"3790216":{"post_code":"3790216","prefecture":"GUMMA KEN","city":"ANNAKA SHI","town":"MATSUIDAMACHI ARAI","perfecture_jp":"群馬県","jp_add_1":"安中市","jp_add_2":"松井田町新井"},"3790305":{"post_code":"3790305","prefecture":"GUMMA KEN","city":"ANNAKA SHI","town":"MATSUIDAMACHI IRIYAMA","perfecture_jp":"群馬県","jp_add_1":"安中市","jp_add_2":"松井田町入山"},"3790226":{"post_code":"3790226","prefecture":"GUMMA KEN","city":"ANNAKA SHI","town":"MATSUIDAMACHI OKUNADA","perfecture_jp":"群馬県","jp_add_1":"安中市","jp_add_2":"松井田町行田"},"3790213":{"post_code":"3790213","prefecture":"GUMMA KEN","city":"ANNAKA SHI","town":"MATSUIDAMACHI OBINATA","perfecture_jp":"群馬県","jp_add_1":"安中市","jp_add_2":"松井田町小日向"},"3790211":{"post_code":"3790211","prefecture":"GUMMA KEN","city":"ANNAKA SHI","town":"MATSUIDAMACHI KAMIMASUDA","perfecture_jp":"群馬県","jp_add_1":"安中市","jp_add_2":"松井田町上増田"},"3790304":{"post_code":"3790304","prefecture":"GUMMA KEN","city":"ANNAKA SHI","town":"MATSUIDAMACHI KITANOMAKI","perfecture_jp":"群馬県","jp_add_1":"安中市","jp_add_2":"松井田町北野牧"},"3790214":{"post_code":"3790214","prefecture":"GUMMA KEN","city":"ANNAKA SHI","town":"MATSUIDAMACHI KOKUGA","perfecture_jp":"群馬県","jp_add_1":"安中市","jp_add_2":"松井田町国衙"},"3790302":{"post_code":"3790302","prefecture":"GUMMA KEN","city":"ANNAKA SHI","town":"MATSUIDAMACHI GORYO","perfecture_jp":"群馬県","jp_add_1":"安中市","jp_add_2":"松井田町五料"},"3790307":{"post_code":"3790307","prefecture":"GUMMA KEN","city":"ANNAKA SHI","town":"MATSUIDAMACHI SAKAMOTO","perfecture_jp":"群馬県","jp_add_1":"安中市","jp_add_2":"松井田町坂本"},"3790212":{"post_code":"3790212","prefecture":"GUMMA KEN","city":"ANNAKA SHI","town":"MATSUIDAMACHI SHIMOMASUDA","perfecture_jp":"群馬県","jp_add_1":"安中市","jp_add_2":"松井田町下増田"},"3790215":{"post_code":"3790215","prefecture":"GUMMA KEN","city":"ANNAKA SHI","town":"MATSUIDAMACHI TAKANASHI","perfecture_jp":"群馬県","jp_add_1":"安中市","jp_add_2":"松井田町高梨子"},"3790221":{"post_code":"3790221","prefecture":"GUMMA KEN","city":"ANNAKA SHI","town":"MATSUIDAMACHI NIIBORI","perfecture_jp":"群馬県","jp_add_1":"安中市","jp_add_2":"松井田町新堀"},"3790223":{"post_code":"3790223","prefecture":"GUMMA KEN","city":"ANNAKA SHI","town":"MATSUIDAMACHI NIKENZAIKE","perfecture_jp":"群馬県","jp_add_1":"安中市","jp_add_2":"松井田町二軒在家"},"3790303":{"post_code":"3790303","prefecture":"GUMMA KEN","city":"ANNAKA SHI","town":"MATSUIDAMACHI NISHINOMAKI","perfecture_jp":"群馬県","jp_add_1":"安中市","jp_add_2":"松井田町西野牧"},"3790306":{"post_code":"3790306","prefecture":"GUMMA KEN","city":"ANNAKA SHI","town":"MATSUIDAMACHI HARA","perfecture_jp":"群馬県","jp_add_1":"安中市","jp_add_2":"松井田町原"},"3790217":{"post_code":"3790217","prefecture":"GUMMA KEN","city":"ANNAKA SHI","town":"MATSUIDAMACHI HIJISHIO","perfecture_jp":"群馬県","jp_add_1":"安中市","jp_add_2":"松井田町土塩"},"3790224":{"post_code":"3790224","prefecture":"GUMMA KEN","city":"ANNAKA SHI","town":"MATSUIDAMACHI HITOMI","perfecture_jp":"群馬県","jp_add_1":"安中市","jp_add_2":"松井田町人見"},"3790222":{"post_code":"3790222","prefecture":"GUMMA KEN","city":"ANNAKA SHI","town":"MATSUIDAMACHI MATSUIDA","perfecture_jp":"群馬県","jp_add_1":"安中市","jp_add_2":"松井田町松井田"},"3790225":{"post_code":"3790225","prefecture":"GUMMA KEN","city":"ANNAKA SHI","town":"MATSUIDAMACHI YASHIRO","perfecture_jp":"群馬県","jp_add_1":"安中市","jp_add_2":"松井田町八城"},"3790301":{"post_code":"3790301","prefecture":"GUMMA KEN","city":"ANNAKA SHI","town":"MATSUIDAMACHI YOKOKAWA","perfecture_jp":"群馬県","jp_add_1":"安中市","jp_add_2":"松井田町横川"},"3790136":{"post_code":"3790136","prefecture":"GUMMA KEN","city":"ANNAKA SHI","town":"MINE","perfecture_jp":"群馬県","jp_add_1":"安中市","jp_add_2":"嶺"},"3790134":{"post_code":"3790134","prefecture":"GUMMA KEN","city":"ANNAKA SHI","town":"YANASE","perfecture_jp":"群馬県","jp_add_1":"安中市","jp_add_2":"簗瀬"},"3792311":{"post_code":"3792311","prefecture":"GUMMA KEN","city":"MIDORI SHI","town":"KASAKAKECHO AZAMI","perfecture_jp":"群馬県","jp_add_1":"みどり市","jp_add_2":"笠懸町阿左美"},"3792312":{"post_code":"3792312","prefecture":"GUMMA KEN","city":"MIDORI SHI","town":"KASAKAKECHO KUGU","perfecture_jp":"群馬県","jp_add_1":"みどり市","jp_add_2":"笠懸町久宮"},"3792314":{"post_code":"3792314","prefecture":"GUMMA KEN","city":"MIDORI SHI","town":"KASAKAKECHO SAISHIKADA","perfecture_jp":"群馬県","jp_add_1":"みどり市","jp_add_2":"笠懸町西鹿田"},"3792313":{"post_code":"3792313","prefecture":"GUMMA KEN","city":"MIDORI SHI","town":"KASAKAKECHO SHIKA","perfecture_jp":"群馬県","jp_add_1":"みどり市","jp_add_2":"笠懸町鹿"},"3791200":{"post_code":"3791200","prefecture":"GUMMA KEN","city":"TONE GUN SHOWA MURA","town":"IKANIKEISAIGANAIBAAI","perfecture_jp":"群馬県","jp_add_1":"利根郡昭和村","jp_add_2":""},"3791207":{"post_code":"3791207","prefecture":"GUMMA KEN","city":"TONE GUN SHOWA MURA","town":"AKAGIHARA","perfecture_jp":"群馬県","jp_add_1":"利根郡昭和村","jp_add_2":"赤城原"},"3791203":{"post_code":"3791203","prefecture":"GUMMA KEN","city":"TONE GUN SHOWA MURA","town":"ITOI","perfecture_jp":"群馬県","jp_add_1":"利根郡昭和村","jp_add_2":"糸井"},"3791201":{"post_code":"3791201","prefecture":"GUMMA KEN","city":"TONE GUN SHOWA MURA","town":"OGOSE","perfecture_jp":"群馬県","jp_add_1":"利根郡昭和村","jp_add_2":"生越"},"3791202":{"post_code":"3791202","prefecture":"GUMMA KEN","city":"TONE GUN SHOWA MURA","town":"KAINOSE","perfecture_jp":"群馬県","jp_add_1":"利根郡昭和村","jp_add_2":"貝野瀬"},"3791205":{"post_code":"3791205","prefecture":"GUMMA KEN","city":"TONE GUN SHOWA MURA","town":"KAWAHAKE","perfecture_jp":"群馬県","jp_add_1":"利根郡昭和村","jp_add_2":"川額"},"3791206":{"post_code":"3791206","prefecture":"GUMMA KEN","city":"TONE GUN SHOWA MURA","town":"TOCHIKUBO","perfecture_jp":"群馬県","jp_add_1":"利根郡昭和村","jp_add_2":"橡久保"},"3791204":{"post_code":"3791204","prefecture":"GUMMA KEN","city":"TONE GUN SHOWA MURA","town":"MORISHITA","perfecture_jp":"群馬県","jp_add_1":"利根郡昭和村","jp_add_2":"森下"},"3791300":{"post_code":"3791300","prefecture":"GUMMA KEN","city":"TONE GUN MINAKAMI MACHI","town":"IKANIKEISAIGANAIBAAI","perfecture_jp":"群馬県","jp_add_1":"利根郡みなかみ町","jp_add_2":""},"3791404":{"post_code":"3791404","prefecture":"GUMMA KEN","city":"TONE GUN MINAKAMI MACHI","town":"AIMATA","perfecture_jp":"群馬県","jp_add_1":"利根郡みなかみ町","jp_add_2":"相俣"},"3791618":{"post_code":"3791618","prefecture":"GUMMA KEN","city":"TONE GUN MINAKAMI MACHI","town":"ANOGAWA","perfecture_jp":"群馬県","jp_add_1":"利根郡みなかみ町","jp_add_2":"阿能川"},"3791411":{"post_code":"3791411","prefecture":"GUMMA KEN","city":"TONE GUN MINAKAMI MACHI","town":"ARAMAKI","perfecture_jp":"群馬県","jp_add_1":"利根郡みなかみ町","jp_add_2":"新巻"},"3791723":{"post_code":"3791723","prefecture":"GUMMA KEN","city":"TONE GUN MINAKAMI MACHI","town":"AWAZAWA","perfecture_jp":"群馬県","jp_add_1":"利根郡みなかみ町","jp_add_2":"粟沢"},"3791311":{"post_code":"3791311","prefecture":"GUMMA KEN","city":"TONE GUN MINAKAMI MACHI","town":"ISHIKURA","perfecture_jp":"群馬県","jp_add_1":"利根郡みなかみ町","jp_add_2":"石倉"},"3791416":{"post_code":"3791416","prefecture":"GUMMA KEN","city":"TONE GUN MINAKAMI MACHI","town":"IRISUKAWA","perfecture_jp":"群馬県","jp_add_1":"利根郡みなかみ町","jp_add_2":"入須川"},"3791727":{"post_code":"3791727","prefecture":"GUMMA KEN","city":"TONE GUN MINAKAMI MACHI","town":"OANA","perfecture_jp":"群馬県","jp_add_1":"利根郡みなかみ町","jp_add_2":"大穴"},"3791302":{"post_code":"3791302","prefecture":"GUMMA KEN","city":"TONE GUN MINAKAMI MACHI","town":"ONUMA","perfecture_jp":"群馬県","jp_add_1":"利根郡みなかみ町","jp_add_2":"大沼"},"3791312":{"post_code":"3791312","prefecture":"GUMMA KEN","city":"TONE GUN MINAKAMI MACHI","town":"OGAWA","perfecture_jp":"群馬県","jp_add_1":"利根郡みなかみ町","jp_add_2":"小川"},"3791612":{"post_code":"3791612","prefecture":"GUMMA KEN","city":"TONE GUN MINAKAMI MACHI","town":"OBINATA","perfecture_jp":"群馬県","jp_add_1":"利根郡みなかみ町","jp_add_2":"小日向"},"3791611":{"post_code":"3791611","prefecture":"GUMMA KEN","city":"TONE GUN MINAKAMI MACHI","town":"KANOSAWA","perfecture_jp":"群馬県","jp_add_1":"利根郡みなかみ町","jp_add_2":"鹿野沢"},"3791315":{"post_code":"3791315","prefecture":"GUMMA KEN","city":"TONE GUN MINAKAMI MACHI","town":"KAMIZU","perfecture_jp":"群馬県","jp_add_1":"利根郡みなかみ町","jp_add_2":"上津"},"3791303":{"post_code":"3791303","prefecture":"GUMMA KEN","city":"TONE GUN MINAKAMI MACHI","town":"KAMIMOKU","perfecture_jp":"群馬県","jp_add_1":"利根郡みなかみ町","jp_add_2":"上牧"},"3791616":{"post_code":"3791616","prefecture":"GUMMA KEN","city":"TONE GUN MINAKAMI MACHI","town":"KAWAKAMI","perfecture_jp":"群馬県","jp_add_1":"利根郡みなかみ町","jp_add_2":"川上"},"3791726":{"post_code":"3791726","prefecture":"GUMMA KEN","city":"TONE GUN MINAKAMI MACHI","town":"KOCHI","perfecture_jp":"群馬県","jp_add_1":"利根郡みなかみ町","jp_add_2":"幸知"},"3791305":{"post_code":"3791305","prefecture":"GUMMA KEN","city":"TONE GUN MINAKAMI MACHI","town":"GOKAN","perfecture_jp":"群馬県","jp_add_1":"利根郡みなかみ町","jp_add_2":"後閑"},"3791615":{"post_code":"3791615","prefecture":"GUMMA KEN","city":"TONE GUN MINAKAMI MACHI","town":"KONITA","perfecture_jp":"群馬県","jp_add_1":"利根郡みなかみ町","jp_add_2":"小仁田"},"3791403":{"post_code":"3791403","prefecture":"GUMMA KEN","city":"TONE GUN MINAKAMI MACHI","town":"SARUGAKYOONSEN","perfecture_jp":"群馬県","jp_add_1":"利根郡みなかみ町","jp_add_2":"猿ケ京温泉"},"3791314":{"post_code":"3791314","prefecture":"GUMMA KEN","city":"TONE GUN MINAKAMI MACHI","town":"SHIMOZU","perfecture_jp":"群馬県","jp_add_1":"利根郡みなかみ町","jp_add_2":"下津"},"3791304":{"post_code":"3791304","prefecture":"GUMMA KEN","city":"TONE GUN MINAKAMI MACHI","town":"SHIMOMOKU","perfecture_jp":"群馬県","jp_add_1":"利根郡みなかみ町","jp_add_2":"下牧"},"3791418":{"post_code":"3791418","prefecture":"GUMMA KEN","city":"TONE GUN MINAKAMI MACHI","town":"SUKAWA","perfecture_jp":"群馬県","jp_add_1":"利根郡みなかみ町","jp_add_2":"須川"},"3791613":{"post_code":"3791613","prefecture":"GUMMA KEN","city":"TONE GUN MINAKAMI MACHI","town":"TAKAHINATA","perfecture_jp":"群馬県","jp_add_1":"利根郡みなかみ町","jp_add_2":"高日向"},"3791619":{"post_code":"3791619","prefecture":"GUMMA KEN","city":"TONE GUN MINAKAMI MACHI","town":"TANIGAWA","perfecture_jp":"群馬県","jp_add_1":"利根郡みなかみ町","jp_add_2":"谷川"},"3791313":{"post_code":"3791313","prefecture":"GUMMA KEN","city":"TONE GUN MINAKAMI MACHI","town":"TSUKIYONO","perfecture_jp":"群馬県","jp_add_1":"利根郡みなかみ町","jp_add_2":"月夜野"},"3791725":{"post_code":"3791725","prefecture":"GUMMA KEN","city":"TONE GUN MINAKAMI MACHI","town":"TSUNAGO","perfecture_jp":"群馬県","jp_add_1":"利根郡みなかみ町","jp_add_2":"綱子"},"3791614":{"post_code":"3791614","prefecture":"GUMMA KEN","city":"TONE GUN MINAKAMI MACHI","town":"TERAMA","perfecture_jp":"群馬県","jp_add_1":"利根郡みなかみ町","jp_add_2":"寺間"},"3791401":{"post_code":"3791401","prefecture":"GUMMA KEN","city":"TONE GUN MINAKAMI MACHI","town":"NAGAI","perfecture_jp":"群馬県","jp_add_1":"利根郡みなかみ町","jp_add_2":"永井"},"3791301":{"post_code":"3791301","prefecture":"GUMMA KEN","city":"TONE GUN MINAKAMI MACHI","town":"NAMEZAWA","perfecture_jp":"群馬県","jp_add_1":"利根郡みなかみ町","jp_add_2":"奈女沢"},"3791415":{"post_code":"3791415","prefecture":"GUMMA KEN","city":"TONE GUN MINAKAMI MACHI","town":"NISHIMINESUKAWA","perfecture_jp":"群馬県","jp_add_1":"利根郡みなかみ町","jp_add_2":"西峰須川"},"3791412":{"post_code":"3791412","prefecture":"GUMMA KEN","city":"TONE GUN MINAKAMI MACHI","town":"HABA","perfecture_jp":"群馬県","jp_add_1":"利根郡みなかみ町","jp_add_2":"羽場"},"3791417":{"post_code":"3791417","prefecture":"GUMMA KEN","city":"TONE GUN MINAKAMI MACHI","town":"HIGASHIMINE","perfecture_jp":"群馬県","jp_add_1":"利根郡みなかみ町","jp_add_2":"東峰"},"3791402":{"post_code":"3791402","prefecture":"GUMMA KEN","city":"TONE GUN MINAKAMI MACHI","town":"FUKURO","perfecture_jp":"群馬県","jp_add_1":"利根郡みなかみ町","jp_add_2":"吹路"},"3791721":{"post_code":"3791721","prefecture":"GUMMA KEN","city":"TONE GUN MINAKAMI MACHI","town":"FUJIWARA","perfecture_jp":"群馬県","jp_add_1":"利根郡みなかみ町","jp_add_2":"藤原"},"3791414":{"post_code":"3791414","prefecture":"GUMMA KEN","city":"TONE GUN MINAKAMI MACHI","town":"FUSE","perfecture_jp":"群馬県","jp_add_1":"利根郡みなかみ町","jp_add_2":"布施"},"3791308":{"post_code":"3791308","prefecture":"GUMMA KEN","city":"TONE GUN MINAKAMI MACHI","town":"MANIWA","perfecture_jp":"群馬県","jp_add_1":"利根郡みなかみ町","jp_add_2":"真庭"},"3791307":{"post_code":"3791307","prefecture":"GUMMA KEN","city":"TONE GUN MINAKAMI MACHI","town":"MANDOKORO","perfecture_jp":"群馬県","jp_add_1":"利根郡みなかみ町","jp_add_2":"政所"},"3791724":{"post_code":"3791724","prefecture":"GUMMA KEN","city":"TONE GUN MINAKAMI MACHI","town":"MUKOYAMA","perfecture_jp":"群馬県","jp_add_1":"利根郡みなかみ町","jp_add_2":"向山"},"3791306":{"post_code":"3791306","prefecture":"GUMMA KEN","city":"TONE GUN MINAKAMI MACHI","town":"MORO","perfecture_jp":"群馬県","jp_add_1":"利根郡みなかみ町","jp_add_2":"師"},"3791413":{"post_code":"3791413","prefecture":"GUMMA KEN","city":"TONE GUN MINAKAMI MACHI","town":"MORODA","perfecture_jp":"群馬県","jp_add_1":"利根郡みなかみ町","jp_add_2":"師田"},"3791409":{"post_code":"3791409","prefecture":"GUMMA KEN","city":"TONE GUN MINAKAMI MACHI","town":"YUJUKUONSEN","perfecture_jp":"群馬県","jp_add_1":"利根郡みなかみ町","jp_add_2":"湯宿温泉"},"3791617":{"post_code":"3791617","prefecture":"GUMMA KEN","city":"TONE GUN MINAKAMI MACHI","town":"YUBARA","perfecture_jp":"群馬県","jp_add_1":"利根郡みなかみ町","jp_add_2":"湯原"},"3791728":{"post_code":"3791728","prefecture":"GUMMA KEN","city":"TONE GUN MINAKAMI MACHI","town":"YUBISO","perfecture_jp":"群馬県","jp_add_1":"利根郡みなかみ町","jp_add_2":"湯桧曽"},"3791722":{"post_code":"3791722","prefecture":"GUMMA KEN","city":"TONE GUN MINAKAMI MACHI","town":"YOGO","perfecture_jp":"群馬県","jp_add_1":"利根郡みなかみ町","jp_add_2":"夜後"},"3791601":{"post_code":"3791601","prefecture":"GUMMA KEN","city":"TONE GUN MINAKAMI MACHI","town":"YOSHIMOTO","perfecture_jp":"群馬県","jp_add_1":"利根郡みなかみ町","jp_add_2":"吉本"}}