{"3820000":{"post_code":"3820000","prefecture":"NAGANO KEN","city":"SUZAKA SHI","town":"IKANIKEISAIGANAIBAAI","perfecture_jp":"長野県","jp_add_1":"須坂市","jp_add_2":""},"3820065":{"post_code":"3820065","prefecture":"NAGANO KEN","city":"SUZAKA SHI","town":"AINOSHIMA","perfecture_jp":"長野県","jp_add_1":"須坂市","jp_add_2":"相之島"},"3820003":{"post_code":"3820003","prefecture":"NAGANO KEN","city":"SUZAKA SHI","town":"ASAHIGAOKA","perfecture_jp":"長野県","jp_add_1":"須坂市","jp_add_2":"旭ケ丘"},"3820045":{"post_code":"3820045","prefecture":"NAGANO KEN","city":"SUZAKA SHI","town":"INOE","perfecture_jp":"長野県","jp_add_1":"須坂市","jp_add_2":"井上"},"3820017":{"post_code":"3820017","prefecture":"NAGANO KEN","city":"SUZAKA SHI","town":"OMORIMACHI","perfecture_jp":"長野県","jp_add_1":"須坂市","jp_add_2":"相森町"},"3820012":{"post_code":"3820012","prefecture":"NAGANO KEN","city":"SUZAKA SHI","town":"OYAMACHI","perfecture_jp":"長野県","jp_add_1":"須坂市","jp_add_2":"大谷町"},"3820071":{"post_code":"3820071","prefecture":"NAGANO KEN","city":"SUZAKA SHI","town":"OGAWARACHO","perfecture_jp":"長野県","jp_add_1":"須坂市","jp_add_2":"小河原町"},"3820025":{"post_code":"3820025","prefecture":"NAGANO KEN","city":"SUZAKA SHI","town":"OBINATAMACHI","perfecture_jp":"長野県","jp_add_1":"須坂市","jp_add_2":"大日向町"},"3820083":{"post_code":"3820083","prefecture":"NAGANO KEN","city":"SUZAKA SHI","town":"KAMINAKAMACHI","perfecture_jp":"長野県","jp_add_1":"須坂市","jp_add_2":"上中町"},"3820044":{"post_code":"3820044","prefecture":"NAGANO KEN","city":"SUZAKA SHI","town":"KAMIHATCHO","perfecture_jp":"長野県","jp_add_1":"須坂市","jp_add_2":"上八町"},"3820033":{"post_code":"3820033","prefecture":"NAGANO KEN","city":"SUZAKA SHI","town":"KAMEKURACHO","perfecture_jp":"長野県","jp_add_1":"須坂市","jp_add_2":"亀倉町"},"3820028":{"post_code":"3820028","prefecture":"NAGANO KEN","city":"SUZAKA SHI","town":"GARYU","perfecture_jp":"長野県","jp_add_1":"須坂市","jp_add_2":"臥竜"},"3820084":{"post_code":"3820084","prefecture":"NAGANO KEN","city":"SUZAKA SHI","town":"KAMMACHI","perfecture_jp":"長野県","jp_add_1":"須坂市","jp_add_2":"上町"},"3820061":{"post_code":"3820061","prefecture":"NAGANO KEN","city":"SUZAKA SHI","town":"KITAAINOSHIMACHO","perfecture_jp":"長野県","jp_add_1":"須坂市","jp_add_2":"北相之島町"},"3820002":{"post_code":"3820002","prefecture":"NAGANO KEN","city":"SUZAKA SHI","town":"KITAASAHIGAOKACHO","perfecture_jp":"長野県","jp_add_1":"須坂市","jp_add_2":"北旭ケ丘町"},"3820092":{"post_code":"3820092","prefecture":"NAGANO KEN","city":"SUZAKA SHI","town":"KITAHARACHO","perfecture_jp":"長野県","jp_add_1":"須坂市","jp_add_2":"北原町"},"3820077":{"post_code":"3820077","prefecture":"NAGANO KEN","city":"SUZAKA SHI","town":"KITAYOKOMACHI","perfecture_jp":"長野県","jp_add_1":"須坂市","jp_add_2":"北横町"},"3820048":{"post_code":"3820048","prefecture":"NAGANO KEN","city":"SUZAKA SHI","town":"KUTANDAMACHI","perfecture_jp":"長野県","jp_add_1":"須坂市","jp_add_2":"九反田町"},"3820047":{"post_code":"3820047","prefecture":"NAGANO KEN","city":"SUZAKA SHI","town":"KOTAKAMACHI","perfecture_jp":"長野県","jp_add_1":"須坂市","jp_add_2":"幸高町"},"3820053":{"post_code":"3820053","prefecture":"NAGANO KEN","city":"SUZAKA SHI","town":"GOKAMMACHI","perfecture_jp":"長野県","jp_add_1":"須坂市","jp_add_2":"五閑町"},"3820085":{"post_code":"3820085","prefecture":"NAGANO KEN","city":"SUZAKA SHI","town":"KOKUMACHI","perfecture_jp":"長野県","jp_add_1":"須坂市","jp_add_2":"穀町"},"3820062":{"post_code":"3820062","prefecture":"NAGANO KEN","city":"SUZAKA SHI","town":"KOJIMAMACHI","perfecture_jp":"長野県","jp_add_1":"須坂市","jp_add_2":"小島町"},"3820026":{"post_code":"3820026","prefecture":"NAGANO KEN","city":"SUZAKA SHI","town":"SAKADAMACHI","perfecture_jp":"長野県","jp_add_1":"須坂市","jp_add_2":"坂田町"},"3820052":{"post_code":"3820052","prefecture":"NAGANO KEN","city":"SUZAKA SHI","town":"SHIOGAWAMACHI","perfecture_jp":"長野県","jp_add_1":"須坂市","jp_add_2":"塩川町"},"3820024":{"post_code":"3820024","prefecture":"NAGANO KEN","city":"SUZAKA SHI","town":"SHIONOMACHI","perfecture_jp":"長野県","jp_add_1":"須坂市","jp_add_2":"塩野町"},"3820043":{"post_code":"3820043","prefecture":"NAGANO KEN","city":"SUZAKA SHI","town":"SHIMOHATCHO","perfecture_jp":"長野県","jp_add_1":"須坂市","jp_add_2":"下八町"},"3820005":{"post_code":"3820005","prefecture":"NAGANO KEN","city":"SUZAKA SHI","town":"SHINDENCHO","perfecture_jp":"長野県","jp_add_1":"須坂市","jp_add_2":"新田町"},"3820014":{"post_code":"3820014","prefecture":"NAGANO KEN","city":"SUZAKA SHI","town":"SHIMMACHI","perfecture_jp":"長野県","jp_add_1":"須坂市","jp_add_2":"新町"},"3820075":{"post_code":"3820075","prefecture":"NAGANO KEN","city":"SUZAKA SHI","town":"SUZAKAHAIRANDOMACHI","perfecture_jp":"長野県","jp_add_1":"須坂市","jp_add_2":"須坂ハイランド町"},"3820099":{"post_code":"3820099","prefecture":"NAGANO KEN","city":"SUZAKA SHI","town":"SUMISAKA","perfecture_jp":"長野県","jp_add_1":"須坂市","jp_add_2":"墨坂"},"3820098":{"post_code":"3820098","prefecture":"NAGANO KEN","city":"SUZAKA SHI","town":"SUMISAKAMINAMI","perfecture_jp":"長野県","jp_add_1":"須坂市","jp_add_2":"墨坂南"},"3820015":{"post_code":"3820015","prefecture":"NAGANO KEN","city":"SUZAKA SHI","town":"TAISHIMACHI","perfecture_jp":"長野県","jp_add_1":"須坂市","jp_add_2":"太子町"},"3820054":{"post_code":"3820054","prefecture":"NAGANO KEN","city":"SUZAKA SHI","town":"TAKANASHIMACHI","perfecture_jp":"長野県","jp_add_1":"須坂市","jp_add_2":"高梨町"},"3820016":{"post_code":"3820016","prefecture":"NAGANO KEN","city":"SUZAKA SHI","town":"TAKAHASHIMACHI","perfecture_jp":"長野県","jp_add_1":"須坂市","jp_add_2":"高橋町"},"3820004":{"post_code":"3820004","prefecture":"NAGANO KEN","city":"SUZAKA SHI","town":"TAKABATAMACHI","perfecture_jp":"長野県","jp_add_1":"須坂市","jp_add_2":"高畑町"},"3820091":{"post_code":"3820091","prefecture":"NAGANO KEN","city":"SUZAKA SHI","town":"TATSUMACHI","perfecture_jp":"長野県","jp_add_1":"須坂市","jp_add_2":"立町"},"3820073":{"post_code":"3820073","prefecture":"NAGANO KEN","city":"SUZAKA SHI","town":"TANOKAMIMACHI","perfecture_jp":"長野県","jp_add_1":"須坂市","jp_add_2":"田の神町"},"3820013":{"post_code":"3820013","prefecture":"NAGANO KEN","city":"SUZAKA SHI","town":"TOKIWACHO","perfecture_jp":"長野県","jp_add_1":"須坂市","jp_add_2":"常盤町"},"3820022":{"post_code":"3820022","prefecture":"NAGANO KEN","city":"SUZAKA SHI","town":"TOYOKAKAMIMACHI","perfecture_jp":"長野県","jp_add_1":"須坂市","jp_add_2":"豊丘上町"},"3820021":{"post_code":"3820021","prefecture":"NAGANO KEN","city":"SUZAKA SHI","town":"TOYOKAMACHI","perfecture_jp":"長野県","jp_add_1":"須坂市","jp_add_2":"豊丘町"},"3820066":{"post_code":"3820066","prefecture":"NAGANO KEN","city":"SUZAKA SHI","town":"TOYOSHIMAMACHI","perfecture_jp":"長野県","jp_add_1":"須坂市","jp_add_2":"豊島町"},"3820055":{"post_code":"3820055","prefecture":"NAGANO KEN","city":"SUZAKA SHI","town":"NAKAJIMAMACHI","perfecture_jp":"長野県","jp_add_1":"須坂市","jp_add_2":"中島町"},"3820082":{"post_code":"3820082","prefecture":"NAGANO KEN","city":"SUZAKA SHI","town":"NAKAMACHI","perfecture_jp":"長野県","jp_add_1":"須坂市","jp_add_2":"中町"},"3820032":{"post_code":"3820032","prefecture":"NAGANO KEN","city":"SUZAKA SHI","town":"NATSUBATACHO","perfecture_jp":"長野県","jp_add_1":"須坂市","jp_add_2":"夏端町"},"3820063":{"post_code":"3820063","prefecture":"NAGANO KEN","city":"SUZAKA SHI","town":"NISHIMACHI","perfecture_jp":"長野県","jp_add_1":"須坂市","jp_add_2":"西町"},"3820046":{"post_code":"3820046","prefecture":"NAGANO KEN","city":"SUZAKA SHI","town":"NIBOKUMACHI","perfecture_jp":"長野県","jp_add_1":"須坂市","jp_add_2":"二睦町"},"3820034":{"post_code":"3820034","prefecture":"NAGANO KEN","city":"SUZAKA SHI","town":"NIREIMACHI(SONOTA)","perfecture_jp":"長野県","jp_add_1":"須坂市","jp_add_2":"仁礼町"},"3820064":{"post_code":"3820064","prefecture":"NAGANO KEN","city":"SUZAKA SHI","town":"NUMAMEMACHI","perfecture_jp":"長野県","jp_add_1":"須坂市","jp_add_2":"沼目町"},"3820037":{"post_code":"3820037","prefecture":"NAGANO KEN","city":"SUZAKA SHI","town":"NOBEMACHI","perfecture_jp":"長野県","jp_add_1":"須坂市","jp_add_2":"野辺町"},"3820076":{"post_code":"3820076","prefecture":"NAGANO KEN","city":"SUZAKA SHI","town":"BABACHO","perfecture_jp":"長野県","jp_add_1":"須坂市","jp_add_2":"馬場町"},"3820074":{"post_code":"3820074","prefecture":"NAGANO KEN","city":"SUZAKA SHI","town":"HARUKIMACHI","perfecture_jp":"長野県","jp_add_1":"須坂市","jp_add_2":"春木町"},"3820006":{"post_code":"3820006","prefecture":"NAGANO KEN","city":"SUZAKA SHI","town":"HIKARIGAOKANYUTAUN","perfecture_jp":"長野県","jp_add_1":"須坂市","jp_add_2":"光ケ丘ニュータウン"},"3820087":{"post_code":"3820087","prefecture":"NAGANO KEN","city":"SUZAKA SHI","town":"HIGASHIYOKOMACHI","perfecture_jp":"長野県","jp_add_1":"須坂市","jp_add_2":"東横町"},"3820056":{"post_code":"3820056","prefecture":"NAGANO KEN","city":"SUZAKA SHI","town":"FUKUJIMAMACHI","perfecture_jp":"長野県","jp_add_1":"須坂市","jp_add_2":"福島町"},"3820042":{"post_code":"3820042","prefecture":"NAGANO KEN","city":"SUZAKA SHI","town":"BOGAKUDAI","perfecture_jp":"長野県","jp_add_1":"須坂市","jp_add_2":"望岳台"},"3820086":{"post_code":"3820086","prefecture":"NAGANO KEN","city":"SUZAKA SHI","town":"HONKAMMACHI","perfecture_jp":"長野県","jp_add_1":"須坂市","jp_add_2":"本上町"},"3820011":{"post_code":"3820011","prefecture":"NAGANO KEN","city":"SUZAKA SHI","town":"HONGOMACHI","perfecture_jp":"長野県","jp_add_1":"須坂市","jp_add_2":"本郷町"},"3820001":{"post_code":"3820001","prefecture":"NAGANO KEN","city":"SUZAKA SHI","town":"MATSUKAWAMACHI","perfecture_jp":"長野県","jp_add_1":"須坂市","jp_add_2":"松川町"},"3820072":{"post_code":"3820072","prefecture":"NAGANO KEN","city":"SUZAKA SHI","town":"MINAMIOGAWARAMACHI","perfecture_jp":"長野県","jp_add_1":"須坂市","jp_add_2":"南小河原町"},"3820027":{"post_code":"3820027","prefecture":"NAGANO KEN","city":"SUZAKA SHI","town":"MINAMIHARAMACHI","perfecture_jp":"長野県","jp_add_1":"須坂市","jp_add_2":"南原町"},"3820097":{"post_code":"3820097","prefecture":"NAGANO KEN","city":"SUZAKA SHI","town":"MINAMIYOKOMACHI","perfecture_jp":"長野県","jp_add_1":"須坂市","jp_add_2":"南横町"},"3820036":{"post_code":"3820036","prefecture":"NAGANO KEN","city":"SUZAKA SHI","town":"MYOTOKUMACHI","perfecture_jp":"長野県","jp_add_1":"須坂市","jp_add_2":"明徳町"},"3820031":{"post_code":"3820031","prefecture":"NAGANO KEN","city":"SUZAKA SHI","town":"MURAISHIMACHI","perfecture_jp":"長野県","jp_add_1":"須坂市","jp_add_2":"村石町"},"3820057":{"post_code":"3820057","prefecture":"NAGANO KEN","city":"SUZAKA SHI","town":"MURAYAMAMACHI","perfecture_jp":"長野県","jp_add_1":"須坂市","jp_add_2":"村山町"},"3820051":{"post_code":"3820051","prefecture":"NAGANO KEN","city":"SUZAKA SHI","town":"YAEMORIMACHI","perfecture_jp":"長野県","jp_add_1":"須坂市","jp_add_2":"八重森町"},"3820094":{"post_code":"3820094","prefecture":"NAGANO KEN","city":"SUZAKA SHI","town":"YABUMACHI","perfecture_jp":"長野県","jp_add_1":"須坂市","jp_add_2":"屋部町"},"3820081":{"post_code":"3820081","prefecture":"NAGANO KEN","city":"SUZAKA SHI","town":"YOKOMACHI","perfecture_jp":"長野県","jp_add_1":"須坂市","jp_add_2":"横町"},"3820023":{"post_code":"3820023","prefecture":"NAGANO KEN","city":"SUZAKA SHI","town":"YONAKOMACHI","perfecture_jp":"長野県","jp_add_1":"須坂市","jp_add_2":"米子町"},"3820041":{"post_code":"3820041","prefecture":"NAGANO KEN","city":"SUZAKA SHI","town":"YONAMOCHIMACHI","perfecture_jp":"長野県","jp_add_1":"須坂市","jp_add_2":"米持町"},"3820800":{"post_code":"3820800","prefecture":"NAGANO KEN","city":"KAMITAKAI GUN TAKAYAMA MURA","town":"IKANIKEISAIGANAIBAAI","perfecture_jp":"長野県","jp_add_1":"上高井郡高山村","jp_add_2":""},"3820832":{"post_code":"3820832","prefecture":"NAGANO KEN","city":"KAMITAKAI GUN TAKAYAMA MURA","town":"AKAWA","perfecture_jp":"長野県","jp_add_1":"上高井郡高山村","jp_add_2":"赤和"},"3820831":{"post_code":"3820831","prefecture":"NAGANO KEN","city":"KAMITAKAI GUN TAKAYAMA MURA","town":"ARAIHARA","perfecture_jp":"長野県","jp_add_1":"上高井郡高山村","jp_add_2":"荒井原"},"3820815":{"post_code":"3820815","prefecture":"NAGANO KEN","city":"KAMITAKAI GUN TAKAYAMA MURA","town":"OGIKUBO","perfecture_jp":"長野県","jp_add_1":"上高井郡高山村","jp_add_2":"荻久保"},"3820833":{"post_code":"3820833","prefecture":"NAGANO KEN","city":"KAMITAKAI GUN TAKAYAMA MURA","town":"KUBO","perfecture_jp":"長野県","jp_add_1":"上高井郡高山村","jp_add_2":"久保"},"3820823":{"post_code":"3820823","prefecture":"NAGANO KEN","city":"KAMITAKAI GUN TAKAYAMA MURA","town":"KUROBE","perfecture_jp":"長野県","jp_add_1":"上高井郡高山村","jp_add_2":"黒部"},"3820801":{"post_code":"3820801","prefecture":"NAGANO KEN","city":"KAMITAKAI GUN TAKAYAMA MURA","town":"KOMABA","perfecture_jp":"長野県","jp_add_1":"上高井郡高山村","jp_add_2":"駒場"},"3820836":{"post_code":"3820836","prefecture":"NAGANO KEN","city":"KAMITAKAI GUN TAKAYAMA MURA","town":"SHIMBORI","perfecture_jp":"長野県","jp_add_1":"上高井郡高山村","jp_add_2":"新堀"},"3820835":{"post_code":"3820835","prefecture":"NAGANO KEN","city":"KAMITAKAI GUN TAKAYAMA MURA","town":"SEMBOMMATSU","perfecture_jp":"長野県","jp_add_1":"上高井郡高山村","jp_add_2":"千本松"},"3820814":{"post_code":"3820814","prefecture":"NAGANO KEN","city":"KAMITAKAI GUN TAKAYAMA MURA","town":"TENJIMBARA","perfecture_jp":"長野県","jp_add_1":"上高井郡高山村","jp_add_2":"天神原"},"3820804":{"post_code":"3820804","prefecture":"NAGANO KEN","city":"KAMITAKAI GUN TAKAYAMA MURA","town":"NAKAHARA","perfecture_jp":"長野県","jp_add_1":"上高井郡高山村","jp_add_2":"中原"},"3820806":{"post_code":"3820806","prefecture":"NAGANO KEN","city":"KAMITAKAI GUN TAKAYAMA MURA","town":"NAKAHIRA","perfecture_jp":"長野県","jp_add_1":"上高井郡高山村","jp_add_2":"なかひら"},"3820822":{"post_code":"3820822","prefecture":"NAGANO KEN","city":"KAMITAKAI GUN TAKAYAMA MURA","town":"FUKUIHARA","perfecture_jp":"長野県","jp_add_1":"上高井郡高山村","jp_add_2":"福井原"},"3820826":{"post_code":"3820826","prefecture":"NAGANO KEN","city":"KAMITAKAI GUN TAKAYAMA MURA","town":"FUTATSUISHI","perfecture_jp":"長野県","jp_add_1":"上高井郡高山村","jp_add_2":"二ツ石"},"3820837":{"post_code":"3820837","prefecture":"NAGANO KEN","city":"KAMITAKAI GUN TAKAYAMA MURA","town":"HORINOCHI","perfecture_jp":"長野県","jp_add_1":"上高井郡高山村","jp_add_2":"堀之内"},"3820821":{"post_code":"3820821","prefecture":"NAGANO KEN","city":"KAMITAKAI GUN TAKAYAMA MURA","town":"MAKI","perfecture_jp":"長野県","jp_add_1":"上高井郡高山村","jp_add_2":"牧"},"3820803":{"post_code":"3820803","prefecture":"NAGANO KEN","city":"KAMITAKAI GUN TAKAYAMA MURA","town":"MASUGATA","perfecture_jp":"長野県","jp_add_1":"上高井郡高山村","jp_add_2":"桝形"},"3820827":{"post_code":"3820827","prefecture":"NAGANO KEN","city":"KAMITAKAI GUN TAKAYAMA MURA","town":"MATSUNAMI","perfecture_jp":"長野県","jp_add_1":"上高井郡高山村","jp_add_2":"松南"},"3820802":{"post_code":"3820802","prefecture":"NAGANO KEN","city":"KAMITAKAI GUN TAKAYAMA MURA","town":"MATSUHARA","perfecture_jp":"長野県","jp_add_1":"上高井郡高山村","jp_add_2":"松原"},"3820805":{"post_code":"3820805","prefecture":"NAGANO KEN","city":"KAMITAKAI GUN TAKAYAMA MURA","town":"MISATO","perfecture_jp":"長野県","jp_add_1":"上高井郡高山村","jp_add_2":"三郷"},"3820834":{"post_code":"3820834","prefecture":"NAGANO KEN","city":"KAMITAKAI GUN TAKAYAMA MURA","town":"MIZUNAKA","perfecture_jp":"長野県","jp_add_1":"上高井郡高山村","jp_add_2":"水中"},"3820824":{"post_code":"3820824","prefecture":"NAGANO KEN","city":"KAMITAKAI GUN TAKAYAMA MURA","town":"MIDORIGAOKA","perfecture_jp":"長野県","jp_add_1":"上高井郡高山村","jp_add_2":"緑ケ丘"},"3820811":{"post_code":"3820811","prefecture":"NAGANO KEN","city":"KAMITAKAI GUN TAKAYAMA MURA","town":"MIYASEKI","perfecture_jp":"長野県","jp_add_1":"上高井郡高山村","jp_add_2":"宮関"},"3820825":{"post_code":"3820825","prefecture":"NAGANO KEN","city":"KAMITAKAI GUN TAKAYAMA MURA","town":"MURASAKI","perfecture_jp":"長野県","jp_add_1":"上高井郡高山村","jp_add_2":"紫"},"3820816":{"post_code":"3820816","prefecture":"NAGANO KEN","city":"KAMITAKAI GUN TAKAYAMA MURA","town":"YAMADAONSEN","perfecture_jp":"長野県","jp_add_1":"上高井郡高山村","jp_add_2":"山田温泉"},"3820817":{"post_code":"3820817","prefecture":"NAGANO KEN","city":"KAMITAKAI GUN TAKAYAMA MURA","town":"YAMADABOKUJO","perfecture_jp":"長野県","jp_add_1":"上高井郡高山村","jp_add_2":"山田牧場"},"3820813":{"post_code":"3820813","prefecture":"NAGANO KEN","city":"KAMITAKAI GUN TAKAYAMA MURA","town":"WARABITAIRA","perfecture_jp":"長野県","jp_add_1":"上高井郡高山村","jp_add_2":"蕨平"}}