{"3840097":{"post_code":"3840097","prefecture":"GUMMA KEN","city":"AGATSUMA GUN TSUMAGOI MURA","town":"KAMBARA(TAKAMINEKOGEN)","perfecture_jp":"群馬県","jp_add_1":"吾妻郡嬬恋村","jp_add_2":"鎌原"},"3840000":{"post_code":"3840000","prefecture":"NAGANO KEN","city":"KOMORO SHI","town":"IKANIKEISAIGANAIBAAI","perfecture_jp":"長野県","jp_add_1":"小諸市","jp_add_2":""},"3840025":{"post_code":"3840025","prefecture":"NAGANO KEN","city":"KOMORO SHI","town":"AIOICHO","perfecture_jp":"長野県","jp_add_1":"小諸市","jp_add_2":"相生町"},"3840011":{"post_code":"3840011","prefecture":"NAGANO KEN","city":"KOMORO SHI","town":"AKASAKA","perfecture_jp":"長野県","jp_add_1":"小諸市","jp_add_2":"赤坂"},"3840021":{"post_code":"3840021","prefecture":"NAGANO KEN","city":"KOMORO SHI","town":"AMAIKE","perfecture_jp":"長野県","jp_add_1":"小諸市","jp_add_2":"天池"},"3840062":{"post_code":"3840062","prefecture":"NAGANO KEN","city":"KOMORO SHI","town":"ARAHORI","perfecture_jp":"長野県","jp_add_1":"小諸市","jp_add_2":"荒堀"},"3840014":{"post_code":"3840014","prefecture":"NAGANO KEN","city":"KOMORO SHI","town":"ARAMACHI","perfecture_jp":"長野県","jp_add_1":"小諸市","jp_add_2":"荒町"},"3840096":{"post_code":"3840096","prefecture":"NAGANO KEN","city":"KOMORO SHI","town":"IKENOMAE","perfecture_jp":"長野県","jp_add_1":"小諸市","jp_add_2":"池ノ前"},"3840047":{"post_code":"3840047","prefecture":"NAGANO KEN","city":"KOMORO SHI","town":"IKO","perfecture_jp":"長野県","jp_add_1":"小諸市","jp_add_2":"井子"},"3840054":{"post_code":"3840054","prefecture":"NAGANO KEN","city":"KOMORO SHI","town":"ISHITOGE","perfecture_jp":"長野県","jp_add_1":"小諸市","jp_add_2":"石峠"},"3840083":{"post_code":"3840083","prefecture":"NAGANO KEN","city":"KOMORO SHI","town":"ICHI","perfecture_jp":"長野県","jp_add_1":"小諸市","jp_add_2":"市"},"3840033":{"post_code":"3840033","prefecture":"NAGANO KEN","city":"KOMORO SHI","town":"ICHIMACHI","perfecture_jp":"長野県","jp_add_1":"小諸市","jp_add_2":"市町"},"3840075":{"post_code":"3840075","prefecture":"NAGANO KEN","city":"KOMORO SHI","town":"UENODAIRA","perfecture_jp":"長野県","jp_add_1":"小諸市","jp_add_2":"上ノ平"},"3840042":{"post_code":"3840042","prefecture":"NAGANO KEN","city":"KOMORO SHI","town":"USHIRODAIRA","perfecture_jp":"長野県","jp_add_1":"小諸市","jp_add_2":"後平"},"3840077":{"post_code":"3840077","prefecture":"NAGANO KEN","city":"KOMORO SHI","town":"OKUI","perfecture_jp":"長野県","jp_add_1":"小諸市","jp_add_2":"大杭"},"3840071":{"post_code":"3840071","prefecture":"NAGANO KEN","city":"KOMORO SHI","town":"OKUBO","perfecture_jp":"長野県","jp_add_1":"小諸市","jp_add_2":"大久保"},"3840031":{"post_code":"3840031","prefecture":"NAGANO KEN","city":"KOMORO SHI","town":"OTE","perfecture_jp":"長野県","jp_add_1":"小諸市","jp_add_2":"大手"},"3840037":{"post_code":"3840037","prefecture":"NAGANO KEN","city":"KOMORO SHI","town":"OSHIDASHI","perfecture_jp":"長野県","jp_add_1":"小諸市","jp_add_2":"押出"},"3840802":{"post_code":"3840802","prefecture":"NAGANO KEN","city":"KOMORO SHI","town":"OTSU","perfecture_jp":"長野県","jp_add_1":"小諸市","jp_add_2":"乙"},"3840004":{"post_code":"3840004","prefecture":"NAGANO KEN","city":"KOMORO SHI","town":"OTOME","perfecture_jp":"長野県","jp_add_1":"小諸市","jp_add_2":"乙女"},"3840055":{"post_code":"3840055","prefecture":"NAGANO KEN","city":"KOMORO SHI","town":"KASHIWAGI","perfecture_jp":"長野県","jp_add_1":"小諸市","jp_add_2":"柏木"},"3840061":{"post_code":"3840061","prefecture":"NAGANO KEN","city":"KOMORO SHI","town":"KAMASU","perfecture_jp":"長野県","jp_add_1":"小諸市","jp_add_2":"加増"},"3840002":{"post_code":"3840002","prefecture":"NAGANO KEN","city":"KOMORO SHI","town":"KARAMATSU","perfecture_jp":"長野県","jp_add_1":"小諸市","jp_add_2":"唐松"},"3840805":{"post_code":"3840805","prefecture":"NAGANO KEN","city":"KOMORO SHI","town":"KI","perfecture_jp":"長野県","jp_add_1":"小諸市","jp_add_2":"己"},"3840076":{"post_code":"3840076","prefecture":"NAGANO KEN","city":"KOMORO SHI","town":"KUBO","perfecture_jp":"長野県","jp_add_1":"小諸市","jp_add_2":"久保"},"3840024":{"post_code":"3840024","prefecture":"NAGANO KEN","city":"KOMORO SHI","town":"KUMANODO","perfecture_jp":"長野県","jp_add_1":"小諸市","jp_add_2":"熊ノ堂"},"3840801":{"post_code":"3840801","prefecture":"NAGANO KEN","city":"KOMORO SHI","town":"KO","perfecture_jp":"長野県","jp_add_1":"小諸市","jp_add_2":"甲"},"3840032":{"post_code":"3840032","prefecture":"NAGANO KEN","city":"KOMORO SHI","town":"KOJO","perfecture_jp":"長野県","jp_add_1":"小諸市","jp_add_2":"古城"},"3840001":{"post_code":"3840001","prefecture":"NAGANO KEN","city":"KOMORO SHI","town":"KOBARA","perfecture_jp":"長野県","jp_add_1":"小諸市","jp_add_2":"小原"},"3840015":{"post_code":"3840015","prefecture":"NAGANO KEN","city":"KOMORO SHI","town":"KONYAMACHI","perfecture_jp":"長野県","jp_add_1":"小諸市","jp_add_2":"紺屋町"},"3840018":{"post_code":"3840018","prefecture":"NAGANO KEN","city":"KOMORO SHI","town":"SAKANOE","perfecture_jp":"長野県","jp_add_1":"小諸市","jp_add_2":"坂ノ上"},"3840806":{"post_code":"3840806","prefecture":"NAGANO KEN","city":"KOMORO SHI","town":"SHIONO","perfecture_jp":"長野県","jp_add_1":"小諸市","jp_add_2":"塩野"},"3840809":{"post_code":"3840809","prefecture":"NAGANO KEN","city":"KOMORO SHI","town":"SHIGENOKO","perfecture_jp":"長野県","jp_add_1":"小諸市","jp_add_2":"滋野甲"},"3840023":{"post_code":"3840023","prefecture":"NAGANO KEN","city":"KOMORO SHI","town":"SHINONOME","perfecture_jp":"長野県","jp_add_1":"小諸市","jp_add_2":"東雲"},"3840046":{"post_code":"3840046","prefecture":"NAGANO KEN","city":"KOMORO SHI","town":"SHIBOTA","perfecture_jp":"長野県","jp_add_1":"小諸市","jp_add_2":"芝生田"},"3840034":{"post_code":"3840034","prefecture":"NAGANO KEN","city":"KOMORO SHI","town":"SHIMMACHI","perfecture_jp":"長野県","jp_add_1":"小諸市","jp_add_2":"新町"},"3840082":{"post_code":"3840082","prefecture":"NAGANO KEN","city":"KOMORO SHI","town":"SUWAYAMA","perfecture_jp":"長野県","jp_add_1":"小諸市","jp_add_2":"諏訪山"},"3840045":{"post_code":"3840045","prefecture":"NAGANO KEN","city":"KOMORO SHI","town":"TAKIBARA","perfecture_jp":"長野県","jp_add_1":"小諸市","jp_add_2":"滝原"},"3840028":{"post_code":"3840028","prefecture":"NAGANO KEN","city":"KOMORO SHI","town":"TAMACHI","perfecture_jp":"長野県","jp_add_1":"小諸市","jp_add_2":"田町"},"3840007":{"post_code":"3840007","prefecture":"NAGANO KEN","city":"KOMORO SHI","town":"TSURUMAKI","perfecture_jp":"長野県","jp_add_1":"小諸市","jp_add_2":"鶴巻"},"3840804":{"post_code":"3840804","prefecture":"NAGANO KEN","city":"KOMORO SHI","town":"TEI","perfecture_jp":"長野県","jp_add_1":"小諸市","jp_add_2":"丁"},"3840072":{"post_code":"3840072","prefecture":"NAGANO KEN","city":"KOMORO SHI","town":"TOKIKUBO","perfecture_jp":"長野県","jp_add_1":"小諸市","jp_add_2":"鴇久保"},"3840038":{"post_code":"3840038","prefecture":"NAGANO KEN","city":"KOMORO SHI","town":"TOCHIGI","perfecture_jp":"長野県","jp_add_1":"小諸市","jp_add_2":"栃木"},"3840074":{"post_code":"3840074","prefecture":"NAGANO KEN","city":"KOMORO SHI","town":"NISHIURA","perfecture_jp":"長野県","jp_add_1":"小諸市","jp_add_2":"西浦"},"3840044":{"post_code":"3840044","prefecture":"NAGANO KEN","city":"KOMORO SHI","town":"NISHIBARA","perfecture_jp":"長野県","jp_add_1":"小諸市","jp_add_2":"西原"},"3840048":{"post_code":"3840048","prefecture":"NAGANO KEN","city":"KOMORO SHI","town":"NUKACHI","perfecture_jp":"長野県","jp_add_1":"小諸市","jp_add_2":"糠地"},"3840064":{"post_code":"3840064","prefecture":"NAGANO KEN","city":"KOMORO SHI","town":"NORISE","perfecture_jp":"長野県","jp_add_1":"小諸市","jp_add_2":"乗瀬"},"3840051":{"post_code":"3840051","prefecture":"NAGANO KEN","city":"KOMORO SHI","town":"HACHIMAN","perfecture_jp":"長野県","jp_add_1":"小諸市","jp_add_2":"八満"},"3840016":{"post_code":"3840016","prefecture":"NAGANO KEN","city":"KOMORO SHI","town":"HACHIMANCHO","perfecture_jp":"長野県","jp_add_1":"小諸市","jp_add_2":"八幡町"},"3840052":{"post_code":"3840052","prefecture":"NAGANO KEN","city":"KOMORO SHI","town":"HIGASHIKU","perfecture_jp":"長野県","jp_add_1":"小諸市","jp_add_2":"東区"},"3840008":{"post_code":"3840008","prefecture":"NAGANO KEN","city":"KOMORO SHI","town":"HIGASHIKOMORO","perfecture_jp":"長野県","jp_add_1":"小諸市","jp_add_2":"東小諸"},"3840003":{"post_code":"3840003","prefecture":"NAGANO KEN","city":"KOMORO SHI","town":"HIGASHIYAMA","perfecture_jp":"長野県","jp_add_1":"小諸市","jp_add_2":"東山"},"3840041":{"post_code":"3840041","prefecture":"NAGANO KEN","city":"KOMORO SHI","town":"HISHIDAIRA","perfecture_jp":"長野県","jp_add_1":"小諸市","jp_add_2":"菱平"},"3840094":{"post_code":"3840094","prefecture":"NAGANO KEN","city":"KOMORO SHI","town":"HITOTSUYA","perfecture_jp":"長野県","jp_add_1":"小諸市","jp_add_2":"一ツ谷"},"3840065":{"post_code":"3840065","prefecture":"NAGANO KEN","city":"KOMORO SHI","town":"HIBARIGAOKA","perfecture_jp":"長野県","jp_add_1":"小諸市","jp_add_2":"ひばりケ丘"},"3840092":{"post_code":"3840092","prefecture":"NAGANO KEN","city":"KOMORO SHI","town":"HIRAHARA","perfecture_jp":"長野県","jp_add_1":"小諸市","jp_add_2":"平原"},"3840053":{"post_code":"3840053","prefecture":"NAGANO KEN","city":"KOMORO SHI","town":"FUJITSUKA","perfecture_jp":"長野県","jp_add_1":"小諸市","jp_add_2":"藤塚"},"3840036":{"post_code":"3840036","prefecture":"NAGANO KEN","city":"KOMORO SHI","town":"FUJIMIDAIRA","perfecture_jp":"長野県","jp_add_1":"小諸市","jp_add_2":"富士見平"},"3840803":{"post_code":"3840803","prefecture":"NAGANO KEN","city":"KOMORO SHI","town":"HEI","perfecture_jp":"長野県","jp_add_1":"小諸市","jp_add_2":"丙"},"3840026":{"post_code":"3840026","prefecture":"NAGANO KEN","city":"KOMORO SHI","town":"HOMMACHI","perfecture_jp":"長野県","jp_add_1":"小諸市","jp_add_2":"本町"},"3840022":{"post_code":"3840022","prefecture":"NAGANO KEN","city":"KOMORO SHI","town":"MATSUI","perfecture_jp":"長野県","jp_add_1":"小諸市","jp_add_2":"松井"},"3840091":{"post_code":"3840091","prefecture":"NAGANO KEN","city":"KOMORO SHI","town":"MIKAGE","perfecture_jp":"長野県","jp_add_1":"小諸市","jp_add_2":"御影"},"3840808":{"post_code":"3840808","prefecture":"NAGANO KEN","city":"KOMORO SHI","town":"MIKAGESHINDEN","perfecture_jp":"長野県","jp_add_1":"小諸市","jp_add_2":"御影新田"},"3840017":{"post_code":"3840017","prefecture":"NAGANO KEN","city":"KOMORO SHI","town":"MITSUWA","perfecture_jp":"長野県","jp_add_1":"小諸市","jp_add_2":"三和"},"3840013":{"post_code":"3840013","prefecture":"NAGANO KEN","city":"KOMORO SHI","town":"MIDORIGAOKA","perfecture_jp":"長野県","jp_add_1":"小諸市","jp_add_2":"緑ケ丘"},"3840063":{"post_code":"3840063","prefecture":"NAGANO KEN","city":"KOMORO SHI","town":"MINAMIGAHARA","perfecture_jp":"長野県","jp_add_1":"小諸市","jp_add_2":"南ケ原"},"3840012":{"post_code":"3840012","prefecture":"NAGANO KEN","city":"KOMORO SHI","town":"MINAMICHO","perfecture_jp":"長野県","jp_add_1":"小諸市","jp_add_2":"南町"},"3840081":{"post_code":"3840081","prefecture":"NAGANO KEN","city":"KOMORO SHI","town":"MIMAKIGAHARA","perfecture_jp":"長野県","jp_add_1":"小諸市","jp_add_2":"御牧ケ原"},"3840084":{"post_code":"3840084","prefecture":"NAGANO KEN","city":"KOMORO SHI","town":"MIMITORI","perfecture_jp":"長野県","jp_add_1":"小諸市","jp_add_2":"耳取"},"3840078":{"post_code":"3840078","prefecture":"NAGANO KEN","city":"KOMORO SHI","town":"MIYAZAWA","perfecture_jp":"長野県","jp_add_1":"小諸市","jp_add_2":"宮沢"},"3840005":{"post_code":"3840005","prefecture":"NAGANO KEN","city":"KOMORO SHI","town":"MIYUKICHO","perfecture_jp":"長野県","jp_add_1":"小諸市","jp_add_2":"御幸町"},"3840085":{"post_code":"3840085","prefecture":"NAGANO KEN","city":"KOMORO SHI","town":"MORIYAMA","perfecture_jp":"長野県","jp_add_1":"小諸市","jp_add_2":"森山"},"3840043":{"post_code":"3840043","prefecture":"NAGANO KEN","city":"KOMORO SHI","town":"MORO","perfecture_jp":"長野県","jp_add_1":"小諸市","jp_add_2":"諸"},"3840095":{"post_code":"3840095","prefecture":"NAGANO KEN","city":"KOMORO SHI","town":"YACHIHARA","perfecture_jp":"長野県","jp_add_1":"小諸市","jp_add_2":"谷地原"},"3840807":{"post_code":"3840807","prefecture":"NAGANO KEN","city":"KOMORO SHI","town":"YAMAURA","perfecture_jp":"長野県","jp_add_1":"小諸市","jp_add_2":"山浦"},"3840056":{"post_code":"3840056","prefecture":"NAGANO KEN","city":"KOMORO SHI","town":"YOTSUYA","perfecture_jp":"長野県","jp_add_1":"小諸市","jp_add_2":"四ツ谷"},"3840006":{"post_code":"3840006","prefecture":"NAGANO KEN","city":"KOMORO SHI","town":"YORAMACHI","perfecture_jp":"長野県","jp_add_1":"小諸市","jp_add_2":"与良町"},"3840035":{"post_code":"3840035","prefecture":"NAGANO KEN","city":"KOMORO SHI","town":"RYOJIN","perfecture_jp":"長野県","jp_add_1":"小諸市","jp_add_2":"両神"},"3840027":{"post_code":"3840027","prefecture":"NAGANO KEN","city":"KOMORO SHI","town":"ROKKU","perfecture_jp":"長野県","jp_add_1":"小諸市","jp_add_2":"六供"},"3840093":{"post_code":"3840093","prefecture":"NAGANO KEN","city":"KOMORO SHI","town":"WADA","perfecture_jp":"長野県","jp_add_1":"小諸市","jp_add_2":"和田"},"3840621":{"post_code":"3840621","prefecture":"NAGANO KEN","city":"SAKU SHI","town":"IRISAWA","perfecture_jp":"長野県","jp_add_1":"佐久市","jp_add_2":"入澤"},"3842201":{"post_code":"3842201","prefecture":"NAGANO KEN","city":"SAKU SHI","town":"INNAI","perfecture_jp":"長野県","jp_add_1":"佐久市","jp_add_2":"印内"},"3840301":{"post_code":"3840301","prefecture":"NAGANO KEN","city":"SAKU SHI","town":"USUDA","perfecture_jp":"長野県","jp_add_1":"佐久市","jp_add_2":"臼田"},"3842205":{"post_code":"3842205","prefecture":"NAGANO KEN","city":"SAKU SHI","town":"KASUGA","perfecture_jp":"長野県","jp_add_1":"佐久市","jp_add_2":"春日"},"3840302":{"post_code":"3840302","prefecture":"NAGANO KEN","city":"SAKU SHI","town":"KATSUMA","perfecture_jp":"長野県","jp_add_1":"佐久市","jp_add_2":"勝間"},"3840306":{"post_code":"3840306","prefecture":"NAGANO KEN","city":"SAKU SHI","town":"KAMIOTAGIRI","perfecture_jp":"長野県","jp_add_1":"佐久市","jp_add_2":"上小田切"},"3840304":{"post_code":"3840304","prefecture":"NAGANO KEN","city":"SAKU SHI","town":"KITAGAWA","perfecture_jp":"長野県","jp_add_1":"佐久市","jp_add_2":"北川"},"3842204":{"post_code":"3842204","prefecture":"NAGANO KEN","city":"SAKU SHI","town":"KYOWA","perfecture_jp":"長野県","jp_add_1":"佐久市","jp_add_2":"協和"},"3840411":{"post_code":"3840411","prefecture":"NAGANO KEN","city":"SAKU SHI","town":"KIYOKAWA","perfecture_jp":"長野県","jp_add_1":"佐久市","jp_add_2":"清川"},"3842101":{"post_code":"3842101","prefecture":"NAGANO KEN","city":"SAKU SHI","town":"KUWAYAMA","perfecture_jp":"長野県","jp_add_1":"佐久市","jp_add_2":"桑山"},"3842104":{"post_code":"3842104","prefecture":"NAGANO KEN","city":"SAKU SHI","town":"KO","perfecture_jp":"長野県","jp_add_1":"佐久市","jp_add_2":"甲"},"3842102":{"post_code":"3842102","prefecture":"NAGANO KEN","city":"SAKU SHI","town":"SHIONADA","perfecture_jp":"長野県","jp_add_1":"佐久市","jp_add_2":"塩名田"},"3840303":{"post_code":"3840303","prefecture":"NAGANO KEN","city":"SAKU SHI","town":"SHIMOTAGIRI","perfecture_jp":"長野県","jp_add_1":"佐久市","jp_add_2":"下小田切"},"3840414":{"post_code":"3840414","prefecture":"NAGANO KEN","city":"SAKU SHI","town":"SHIMOGOE","perfecture_jp":"長野県","jp_add_1":"佐久市","jp_add_2":"下越"},"3840412":{"post_code":"3840412","prefecture":"NAGANO KEN","city":"SAKU SHI","town":"TAGUCHI","perfecture_jp":"長野県","jp_add_1":"佐久市","jp_add_2":"田口"},"3840305":{"post_code":"3840305","prefecture":"NAGANO KEN","city":"SAKU SHI","town":"NAKAOTAGIRI","perfecture_jp":"長野県","jp_add_1":"佐久市","jp_add_2":"中小田切"},"3840622":{"post_code":"3840622","prefecture":"NAGANO KEN","city":"SAKU SHI","town":"HIRABAYASHI","perfecture_jp":"長野県","jp_add_1":"佐久市","jp_add_2":"平林"},"3842203":{"post_code":"3842203","prefecture":"NAGANO KEN","city":"SAKU SHI","town":"FUSE","perfecture_jp":"長野県","jp_add_1":"佐久市","jp_add_2":"布施"},"3840413":{"post_code":"3840413","prefecture":"NAGANO KEN","city":"SAKU SHI","town":"MIBUN","perfecture_jp":"長野県","jp_add_1":"佐久市","jp_add_2":"三分"},"3842103":{"post_code":"3842103","prefecture":"NAGANO KEN","city":"SAKU SHI","town":"MIMAYOSE","perfecture_jp":"長野県","jp_add_1":"佐久市","jp_add_2":"御馬寄"},"3842206":{"post_code":"3842206","prefecture":"NAGANO KEN","city":"SAKU SHI","town":"MOTAI","perfecture_jp":"長野県","jp_add_1":"佐久市","jp_add_2":"茂田井"},"3842202":{"post_code":"3842202","prefecture":"NAGANO KEN","city":"SAKU SHI","town":"MOCHIZUKI","perfecture_jp":"長野県","jp_add_1":"佐久市","jp_add_2":"望月"},"3842105":{"post_code":"3842105","prefecture":"NAGANO KEN","city":"SAKU SHI","town":"YASHIMA","perfecture_jp":"長野県","jp_add_1":"佐久市","jp_add_2":"矢嶋"},"3842106":{"post_code":"3842106","prefecture":"NAGANO KEN","city":"SAKU SHI","town":"YAWATA","perfecture_jp":"長野県","jp_add_1":"佐久市","jp_add_2":"八幡"},"3840307":{"post_code":"3840307","prefecture":"NAGANO KEN","city":"SAKU SHI","town":"YUHARA","perfecture_jp":"長野県","jp_add_1":"佐久市","jp_add_2":"湯原"},"3842107":{"post_code":"3842107","prefecture":"NAGANO KEN","city":"SAKU SHI","town":"YOMOGIDA","perfecture_jp":"長野県","jp_add_1":"佐久市","jp_add_2":"蓬田"},"3841100":{"post_code":"3841100","prefecture":"NAGANO KEN","city":"MINAMISAKU GUN KOMI MACHI","town":"IKANIKEISAIGANAIBAAI","perfecture_jp":"長野県","jp_add_1":"南佐久郡小海町","jp_add_2":""},"3841104":{"post_code":"3841104","prefecture":"NAGANO KEN","city":"MINAMISAKU GUN KOMI MACHI","town":"INAKO","perfecture_jp":"長野県","jp_add_1":"南佐久郡小海町","jp_add_2":"稲子"},"3841102":{"post_code":"3841102","prefecture":"NAGANO KEN","city":"MINAMISAKU GUN KOMI MACHI","town":"KOMI","perfecture_jp":"長野県","jp_add_1":"南佐久郡小海町","jp_add_2":"小海"},"3841105":{"post_code":"3841105","prefecture":"NAGANO KEN","city":"MINAMISAKU GUN KOMI MACHI","town":"CHIYOSATO","perfecture_jp":"長野県","jp_add_1":"南佐久郡小海町","jp_add_2":"千代里"},"3841103":{"post_code":"3841103","prefecture":"NAGANO KEN","city":"MINAMISAKU GUN KOMI MACHI","town":"TOYOSATO","perfecture_jp":"長野県","jp_add_1":"南佐久郡小海町","jp_add_2":"豊里"},"3841101":{"post_code":"3841101","prefecture":"NAGANO KEN","city":"MINAMISAKU GUN KOMI MACHI","town":"HIGASHIMANAGASHI","perfecture_jp":"長野県","jp_add_1":"南佐久郡小海町","jp_add_2":"東馬流"},"3841400":{"post_code":"3841400","prefecture":"NAGANO KEN","city":"MINAMISAKU GUN KAWAKAMI MURA","town":"IKANIKEISAIGANAIBAAI","perfecture_jp":"長野県","jp_add_1":"南佐久郡川上村","jp_add_2":""},"3841403":{"post_code":"3841403","prefecture":"NAGANO KEN","city":"MINAMISAKU GUN KAWAKAMI MURA","town":"AKIYAMA","perfecture_jp":"長野県","jp_add_1":"南佐久郡川上村","jp_add_2":"秋山"},"3841402":{"post_code":"3841402","prefecture":"NAGANO KEN","city":"MINAMISAKU GUN KAWAKAMI MURA","town":"AZUSAYAMA","perfecture_jp":"長野県","jp_add_1":"南佐久郡川上村","jp_add_2":"梓山"},"3841404":{"post_code":"3841404","prefecture":"NAGANO KEN","city":"MINAMISAKU GUN KAWAKAMI MURA","town":"IGURA","perfecture_jp":"長野県","jp_add_1":"南佐久郡川上村","jp_add_2":"居倉"},"3841405":{"post_code":"3841405","prefecture":"NAGANO KEN","city":"MINAMISAKU GUN KAWAKAMI MURA","town":"OMIYAMA","perfecture_jp":"長野県","jp_add_1":"南佐久郡川上村","jp_add_2":"大深山"},"3841401":{"post_code":"3841401","prefecture":"NAGANO KEN","city":"MINAMISAKU GUN KAWAKAMI MURA","town":"KAWAHAKE","perfecture_jp":"長野県","jp_add_1":"南佐久郡川上村","jp_add_2":"川端下"},"3841407":{"post_code":"3841407","prefecture":"NAGANO KEN","city":"MINAMISAKU GUN KAWAKAMI MURA","town":"GOSHODAIRA","perfecture_jp":"長野県","jp_add_1":"南佐久郡川上村","jp_add_2":"御所平"},"3841406":{"post_code":"3841406","prefecture":"NAGANO KEN","city":"MINAMISAKU GUN KAWAKAMI MURA","town":"HARA","perfecture_jp":"長野県","jp_add_1":"南佐久郡川上村","jp_add_2":"原"},"3841408":{"post_code":"3841408","prefecture":"NAGANO KEN","city":"MINAMISAKU GUN KAWAKAMI MURA","town":"HISAWA","perfecture_jp":"長野県","jp_add_1":"南佐久郡川上村","jp_add_2":"樋沢"},"3841300":{"post_code":"3841300","prefecture":"NAGANO KEN","city":"MINAMISAKU GUN MINAMIMAKI MURA","town":"IKANIKEISAIGANAIBAAI","perfecture_jp":"長野県","jp_add_1":"南佐久郡南牧村","jp_add_2":""},"3841304":{"post_code":"3841304","prefecture":"NAGANO KEN","city":"MINAMISAKU GUN MINAMIMAKI MURA","town":"ITABASHI","perfecture_jp":"長野県","jp_add_1":"南佐久郡南牧村","jp_add_2":"板橋"},"3841301":{"post_code":"3841301","prefecture":"NAGANO KEN","city":"MINAMISAKU GUN MINAMIMAKI MURA","town":"UMIJIRI","perfecture_jp":"長野県","jp_add_1":"南佐久郡南牧村","jp_add_2":"海尻"},"3841302":{"post_code":"3841302","prefecture":"NAGANO KEN","city":"MINAMISAKU GUN MINAMIMAKI MURA","town":"UMINOKUCHI","perfecture_jp":"長野県","jp_add_1":"南佐久郡南牧村","jp_add_2":"海ノ口"},"3841305":{"post_code":"3841305","prefecture":"NAGANO KEN","city":"MINAMISAKU GUN MINAMIMAKI MURA","town":"NOBEYAMA","perfecture_jp":"長野県","jp_add_1":"南佐久郡南牧村","jp_add_2":"野辺山"},"3841306":{"post_code":"3841306","prefecture":"NAGANO KEN","city":"MINAMISAKU GUN MINAMIMAKI MURA","town":"HIRASAWA","perfecture_jp":"長野県","jp_add_1":"南佐久郡南牧村","jp_add_2":"平沢"},"3841303":{"post_code":"3841303","prefecture":"NAGANO KEN","city":"MINAMISAKU GUN MINAMIMAKI MURA","town":"HIROSE","perfecture_jp":"長野県","jp_add_1":"南佐久郡南牧村","jp_add_2":"広瀬"},"3841211":{"post_code":"3841211","prefecture":"NAGANO KEN","city":"MINAMISAKU GUN MINAMIAIKI MURA","town":"MINAMIAIKIMURAICHIEN","perfecture_jp":"長野県","jp_add_1":"南佐久郡南相木村","jp_add_2":"南相木村"},"3841201":{"post_code":"3841201","prefecture":"NAGANO KEN","city":"MINAMISAKU GUN KITAAIKI MURA","town":"KITAAIKIMURAICHIEN","perfecture_jp":"長野県","jp_add_1":"南佐久郡北相木村","jp_add_2":"北相木村"},"3840600":{"post_code":"3840600","prefecture":"NAGANO KEN","city":"MINAMISAKU GUN SAKUHO MACHI","town":"IKANIKEISAIGANAIBAAI","perfecture_jp":"長野県","jp_add_1":"南佐久郡佐久穂町","jp_add_2":""},"3840502":{"post_code":"3840502","prefecture":"NAGANO KEN","city":"MINAMISAKU GUN SAKUHO MACHI","town":"OHINATA","perfecture_jp":"長野県","jp_add_1":"南佐久郡佐久穂町","jp_add_2":"大日向"},"3840503":{"post_code":"3840503","prefecture":"NAGANO KEN","city":"MINAMISAKU GUN SAKUHO MACHI","town":"KAIZE","perfecture_jp":"長野県","jp_add_1":"南佐久郡佐久穂町","jp_add_2":"海瀬"},"3840614":{"post_code":"3840614","prefecture":"NAGANO KEN","city":"MINAMISAKU GUN SAKUHO MACHI","town":"KAMI","perfecture_jp":"長野県","jp_add_1":"南佐久郡佐久穂町","jp_add_2":"上"},"3840613":{"post_code":"3840613","prefecture":"NAGANO KEN","city":"MINAMISAKU GUN SAKUHO MACHI","town":"TAKANOMACHI","perfecture_jp":"長野県","jp_add_1":"南佐久郡佐久穂町","jp_add_2":"高野町"},"3840703":{"post_code":"3840703","prefecture":"NAGANO KEN","city":"MINAMISAKU GUN SAKUHO MACHI","town":"CHIYOSATO","perfecture_jp":"長野県","jp_add_1":"南佐久郡佐久穂町","jp_add_2":"千代里"},"3840701":{"post_code":"3840701","prefecture":"NAGANO KEN","city":"MINAMISAKU GUN SAKUHO MACHI","town":"HATA","perfecture_jp":"長野県","jp_add_1":"南佐久郡佐久穂町","jp_add_2":"畑"},"3840611":{"post_code":"3840611","prefecture":"NAGANO KEN","city":"MINAMISAKU GUN SAKUHO MACHI","town":"HIRABAYASHI","perfecture_jp":"長野県","jp_add_1":"南佐久郡佐久穂町","jp_add_2":"平林"},"3840702":{"post_code":"3840702","prefecture":"NAGANO KEN","city":"MINAMISAKU GUN SAKUHO MACHI","town":"HOZUMI","perfecture_jp":"長野県","jp_add_1":"南佐久郡佐久穂町","jp_add_2":"穂積"},"3840704":{"post_code":"3840704","prefecture":"NAGANO KEN","city":"MINAMISAKU GUN SAKUHO MACHI","town":"YAKORI","perfecture_jp":"長野県","jp_add_1":"南佐久郡佐久穂町","jp_add_2":"八郡"},"3840612":{"post_code":"3840612","prefecture":"NAGANO KEN","city":"MINAMISAKU GUN SAKUHO MACHI","town":"YADOIWA","perfecture_jp":"長野県","jp_add_1":"南佐久郡佐久穂町","jp_add_2":"宿岩"},"3840501":{"post_code":"3840501","prefecture":"NAGANO KEN","city":"MINAMISAKU GUN SAKUHO MACHI","town":"YOJI","perfecture_jp":"長野県","jp_add_1":"南佐久郡佐久穂町","jp_add_2":"余地"},"3842300":{"post_code":"3842300","prefecture":"NAGANO KEN","city":"KITASAKU GUN TATESHINA MACHI","town":"IKANIKEISAIGANAIBAAI","perfecture_jp":"長野県","jp_add_1":"北佐久郡立科町","jp_add_2":""},"3842305":{"post_code":"3842305","prefecture":"NAGANO KEN","city":"KITASAKU GUN TATESHINA MACHI","town":"ASHIDA","perfecture_jp":"長野県","jp_add_1":"北佐久郡立科町","jp_add_2":"芦田"},"3842309":{"post_code":"3842309","prefecture":"NAGANO KEN","city":"KITASAKU GUN TATESHINA MACHI","town":"ASHIDAHATSUKANO(SONOTA)","perfecture_jp":"長野県","jp_add_1":"北佐久郡立科町","jp_add_2":"芦田八ケ野"},"3842308":{"post_code":"3842308","prefecture":"NAGANO KEN","city":"KITASAKU GUN TATESHINA MACHI","town":"USHIROKU","perfecture_jp":"長野県","jp_add_1":"北佐久郡立科町","jp_add_2":"牛鹿"},"3842306":{"post_code":"3842306","prefecture":"NAGANO KEN","city":"KITASAKU GUN TATESHINA MACHI","town":"UYAMA","perfecture_jp":"長野県","jp_add_1":"北佐久郡立科町","jp_add_2":"宇山"},"3842301":{"post_code":"3842301","prefecture":"NAGANO KEN","city":"KITASAKU GUN TATESHINA MACHI","town":"KIRIHARA","perfecture_jp":"長野県","jp_add_1":"北佐久郡立科町","jp_add_2":"桐原"},"3842303":{"post_code":"3842303","prefecture":"NAGANO KEN","city":"KITASAKU GUN TATESHINA MACHI","town":"SHIOSAWA","perfecture_jp":"長野県","jp_add_1":"北佐久郡立科町","jp_add_2":"塩沢"},"3842302":{"post_code":"3842302","prefecture":"NAGANO KEN","city":"KITASAKU GUN TATESHINA MACHI","town":"FUJISAWA","perfecture_jp":"長野県","jp_add_1":"北佐久郡立科町","jp_add_2":"藤沢"},"3842304":{"post_code":"3842304","prefecture":"NAGANO KEN","city":"KITASAKU GUN TATESHINA MACHI","town":"<DOTO>)","perfecture_jp":"長野県","jp_add_1":"北佐久郡立科町","jp_add_2":"茂田井"},"3842211":{"post_code":"3842211","prefecture":"NAGANO KEN","city":"KITASAKU GUN TATESHINA MACHI","town":"MOTAI(SONOTA)","perfecture_jp":"長野県","jp_add_1":"北佐久郡立科町","jp_add_2":"茂田井"},"3842307":{"post_code":"3842307","prefecture":"NAGANO KEN","city":"KITASAKU GUN TATESHINA MACHI","town":"YAMABE","perfecture_jp":"長野県","jp_add_1":"北佐久郡立科町","jp_add_2":"山部"}}