{"3870000":{"post_code":"3870000","prefecture":"NAGANO KEN","city":"CHIKUMA SHI","town":"IKANIKEISAIGANAIBAAI","perfecture_jp":"長野県","jp_add_1":"千曲市","jp_add_2":""},"3870001":{"post_code":"3870001","prefecture":"NAGANO KEN","city":"CHIKUMA SHI","town":"AMENOMIYA","perfecture_jp":"長野県","jp_add_1":"千曲市","jp_add_2":"雨宮"},"3870006":{"post_code":"3870006","prefecture":"NAGANO KEN","city":"CHIKUMA SHI","town":"AWASA","perfecture_jp":"長野県","jp_add_1":"千曲市","jp_add_2":"粟佐"},"3870003":{"post_code":"3870003","prefecture":"NAGANO KEN","city":"CHIKUMA SHI","town":"IKIGAYA","perfecture_jp":"長野県","jp_add_1":"千曲市","jp_add_2":"生萱"},"3870021":{"post_code":"3870021","prefecture":"NAGANO KEN","city":"CHIKUMA SHI","town":"INARIYAMA","perfecture_jp":"長野県","jp_add_1":"千曲市","jp_add_2":"稲荷山"},"3870015":{"post_code":"3870015","prefecture":"NAGANO KEN","city":"CHIKUMA SHI","town":"IMOJIYA","perfecture_jp":"長野県","jp_add_1":"千曲市","jp_add_2":"鋳物師屋"},"3870014":{"post_code":"3870014","prefecture":"NAGANO KEN","city":"CHIKUMA SHI","town":"USSAWA","perfecture_jp":"長野県","jp_add_1":"千曲市","jp_add_2":"打沢"},"3870013":{"post_code":"3870013","prefecture":"NAGANO KEN","city":"CHIKUMA SHI","town":"OJIMA","perfecture_jp":"長野県","jp_add_1":"千曲市","jp_add_2":"小島"},"3870011":{"post_code":"3870011","prefecture":"NAGANO KEN","city":"CHIKUMA SHI","town":"KUISEKE","perfecture_jp":"長野県","jp_add_1":"千曲市","jp_add_2":"杭瀬下"},"3870004":{"post_code":"3870004","prefecture":"NAGANO KEN","city":"CHIKUMA SHI","town":"KURASHINA","perfecture_jp":"長野県","jp_add_1":"千曲市","jp_add_2":"倉科"},"3870024":{"post_code":"3870024","prefecture":"NAGANO KEN","city":"CHIKUMA SHI","town":"KUWABARA","perfecture_jp":"長野県","jp_add_1":"千曲市","jp_add_2":"桑原"},"3870012":{"post_code":"3870012","prefecture":"NAGANO KEN","city":"CHIKUMA SHI","town":"SAKURADO","perfecture_jp":"長野県","jp_add_1":"千曲市","jp_add_2":"桜堂"},"3870016":{"post_code":"3870016","prefecture":"NAGANO KEN","city":"CHIKUMA SHI","town":"JAKUMAKU","perfecture_jp":"長野県","jp_add_1":"千曲市","jp_add_2":"寂蒔"},"3870018":{"post_code":"3870018","prefecture":"NAGANO KEN","city":"CHIKUMA SHI","town":"SHINDEN","perfecture_jp":"長野県","jp_add_1":"千曲市","jp_add_2":"新田"},"3870002":{"post_code":"3870002","prefecture":"NAGANO KEN","city":"CHIKUMA SHI","town":"DOGUCHI","perfecture_jp":"長野県","jp_add_1":"千曲市","jp_add_2":"土口"},"3870017":{"post_code":"3870017","prefecture":"NAGANO KEN","city":"CHIKUMA SHI","town":"NAKA","perfecture_jp":"長野県","jp_add_1":"千曲市","jp_add_2":"中"},"3870022":{"post_code":"3870022","prefecture":"NAGANO KEN","city":"CHIKUMA SHI","town":"NOTAKABA","perfecture_jp":"長野県","jp_add_1":"千曲市","jp_add_2":"野高場"},"3870005":{"post_code":"3870005","prefecture":"NAGANO KEN","city":"CHIKUMA SHI","town":"MORI","perfecture_jp":"長野県","jp_add_1":"千曲市","jp_add_2":"森"},"3870007":{"post_code":"3870007","prefecture":"NAGANO KEN","city":"CHIKUMA SHI","town":"YASHIRO","perfecture_jp":"長野県","jp_add_1":"千曲市","jp_add_2":"屋代"},"3870023":{"post_code":"3870023","prefecture":"NAGANO KEN","city":"CHIKUMA SHI","town":"YAWATA","perfecture_jp":"長野県","jp_add_1":"千曲市","jp_add_2":"八幡"}}