{"3888008":{"post_code":"3888008","prefecture":"NAGANO KEN","city":"NAGANO SHI","town":"KASSEMBA","perfecture_jp":"長野県","jp_add_1":"長野市","jp_add_2":"合戦場"},"3888004":{"post_code":"3888004","prefecture":"NAGANO KEN","city":"NAGANO SHI","town":"SHINONOI AI","perfecture_jp":"長野県","jp_add_1":"長野市","jp_add_2":"篠ノ井会"},"3888015":{"post_code":"3888015","prefecture":"NAGANO KEN","city":"NAGANO SHI","town":"SHINONOI ISHIKAWA","perfecture_jp":"長野県","jp_add_1":"長野市","jp_add_2":"篠ノ井石川"},"3888016":{"post_code":"3888016","prefecture":"NAGANO KEN","city":"NAGANO SHI","town":"SHINONOI UTABI","perfecture_jp":"長野県","jp_add_1":"長野市","jp_add_2":"篠ノ井有旅"},"3888006":{"post_code":"3888006","prefecture":"NAGANO KEN","city":"NAGANO SHI","town":"SHINONOI OMBEGAWA","perfecture_jp":"長野県","jp_add_1":"長野市","jp_add_2":"篠ノ井御幣川"},"3888019":{"post_code":"3888019","prefecture":"NAGANO KEN","city":"NAGANO SHI","town":"SHINONOI KINEBUCHI","perfecture_jp":"長野県","jp_add_1":"長野市","jp_add_2":"篠ノ井杵淵"},"3888003":{"post_code":"3888003","prefecture":"NAGANO KEN","city":"NAGANO SHI","town":"SHINONOI KOMORI","perfecture_jp":"長野県","jp_add_1":"長野市","jp_add_2":"篠ノ井小森"},"3888014":{"post_code":"3888014","prefecture":"NAGANO KEN","city":"NAGANO SHI","town":"SHINONOI SHIOZAKI","perfecture_jp":"長野県","jp_add_1":"長野市","jp_add_2":"篠ノ井塩崎"},"3888002":{"post_code":"3888002","prefecture":"NAGANO KEN","city":"NAGANO SHI","town":"SHINONOI TOFUKUJI","perfecture_jp":"長野県","jp_add_1":"長野市","jp_add_2":"篠ノ井東福寺"},"3888018":{"post_code":"3888018","prefecture":"NAGANO KEN","city":"NAGANO SHI","town":"SHINONOI NISHIDERAO","perfecture_jp":"長野県","jp_add_1":"長野市","jp_add_2":"篠ノ井西寺尾"},"3888011":{"post_code":"3888011","prefecture":"NAGANO KEN","city":"NAGANO SHI","town":"SHINONOI FUSEGOMYO","perfecture_jp":"長野県","jp_add_1":"長野市","jp_add_2":"篠ノ井布施五明"},"3888007":{"post_code":"3888007","prefecture":"NAGANO KEN","city":"NAGANO SHI","town":"SHINONOI FUSETAKADA","perfecture_jp":"長野県","jp_add_1":"長野市","jp_add_2":"篠ノ井布施高田"},"3888012":{"post_code":"3888012","prefecture":"NAGANO KEN","city":"NAGANO SHI","town":"SHINONOI FUTATSUYANAGI","perfecture_jp":"長野県","jp_add_1":"長野市","jp_add_2":"篠ノ井二ツ柳"},"3888017":{"post_code":"3888017","prefecture":"NAGANO KEN","city":"NAGANO SHI","town":"SHINONOI YAMABUSE","perfecture_jp":"長野県","jp_add_1":"長野市","jp_add_2":"篠ノ井山布施"},"3888005":{"post_code":"3888005","prefecture":"NAGANO KEN","city":"NAGANO SHI","town":"SHINONOI YOKOTA","perfecture_jp":"長野県","jp_add_1":"長野市","jp_add_2":"篠ノ井横田"},"3888020":{"post_code":"3888020","prefecture":"NAGANO KEN","city":"NAGANO SHI","town":"SHIMMEI","perfecture_jp":"長野県","jp_add_1":"長野市","jp_add_2":"神明"},"3888001":{"post_code":"3888001","prefecture":"NAGANO KEN","city":"NAGANO SHI","town":"HIGASHISAINAMI","perfecture_jp":"長野県","jp_add_1":"長野市","jp_add_2":"東犀南"},"3888013":{"post_code":"3888013","prefecture":"NAGANO KEN","city":"NAGANO SHI","town":"MIKOTOGAWA","perfecture_jp":"長野県","jp_add_1":"長野市","jp_add_2":"みこと川"}}