{"3900812":{"post_code":"3900812","prefecture":"NAGANO KEN","city":"MATSUMOTO SHI","town":"AGATA","perfecture_jp":"長野県","jp_add_1":"松本市","jp_add_2":"県"},"3900802":{"post_code":"3900802","prefecture":"NAGANO KEN","city":"MATSUMOTO SHI","town":"ASAHI","perfecture_jp":"長野県","jp_add_1":"松本市","jp_add_2":"旭"},"3900303":{"post_code":"3900303","prefecture":"NAGANO KEN","city":"MATSUMOTO SHI","town":"ASAMAONSEN","perfecture_jp":"長野県","jp_add_1":"松本市","jp_add_2":"浅間温泉"},"3901702":{"post_code":"3901702","prefecture":"NAGANO KEN","city":"MATSUMOTO SHI","town":"AZUSAGAWA AZUSA","perfecture_jp":"長野県","jp_add_1":"松本市","jp_add_2":"梓川梓"},"3901703":{"post_code":"3901703","prefecture":"NAGANO KEN","city":"MATSUMOTO SHI","town":"AZUSAGAWA UENO","perfecture_jp":"長野県","jp_add_1":"松本市","jp_add_2":"梓川上野"},"3901701":{"post_code":"3901701","prefecture":"NAGANO KEN","city":"MATSUMOTO SHI","town":"AZUSAGAWA YAMATO","perfecture_jp":"長野県","jp_add_1":"松本市","jp_add_2":"梓川倭"},"3901504":{"post_code":"3901504","prefecture":"NAGANO KEN","city":"MATSUMOTO SHI","town":"AZUMI (INEKOKI)","perfecture_jp":"長野県","jp_add_1":"松本市","jp_add_2":"安曇"},"3901501":{"post_code":"3901501","prefecture":"NAGANO KEN","city":"MATSUMOTO SHI","town":"AZUMI (ONOTA)","perfecture_jp":"長野県","jp_add_1":"松本市","jp_add_2":"安曇"},"3901516":{"post_code":"3901516","prefecture":"NAGANO KEN","city":"MATSUMOTO SHI","town":"AZUMI (KAMIKOCHI)","perfecture_jp":"長野県","jp_add_1":"松本市","jp_add_2":"安曇"},"3901514":{"post_code":"3901514","prefecture":"NAGANO KEN","city":"MATSUMOTO SHI","town":"AZUMI (SAWANDO)","perfecture_jp":"長野県","jp_add_1":"松本市","jp_add_2":"安曇"},"3901502":{"post_code":"3901502","prefecture":"NAGANO KEN","city":"MATSUMOTO SHI","town":"AZUMI (SHIMASHIMA)","perfecture_jp":"長野県","jp_add_1":"松本市","jp_add_2":"安曇"},"3901515":{"post_code":"3901515","prefecture":"NAGANO KEN","city":"MATSUMOTO SHI","town":"AZUMI (SHIRAHONE)","perfecture_jp":"長野県","jp_add_1":"松本市","jp_add_2":"安曇"},"3901513":{"post_code":"3901513","prefecture":"NAGANO KEN","city":"MATSUMOTO SHI","town":"AZUMI (SUZURAN)","perfecture_jp":"長野県","jp_add_1":"松本市","jp_add_2":"安曇"},"3901511":{"post_code":"3901511","prefecture":"NAGANO KEN","city":"MATSUMOTO SHI","town":"AZUMI (SENGOKUDAIRA)","perfecture_jp":"長野県","jp_add_1":"松本市","jp_add_2":"安曇"},"3901512":{"post_code":"3901512","prefecture":"NAGANO KEN","city":"MATSUMOTO SHI","town":"AZUMI (NARANOKI)","perfecture_jp":"長野県","jp_add_1":"松本市","jp_add_2":"安曇"},"3901503":{"post_code":"3901503","prefecture":"NAGANO KEN","city":"MATSUMOTO SHI","town":"AZUMI (HASHIBA)","perfecture_jp":"長野県","jp_add_1":"松本市","jp_add_2":"安曇"},"3901506":{"post_code":"3901506","prefecture":"NAGANO KEN","city":"MATSUMOTO SHI","town":"AZUMI (BANDOKORO)","perfecture_jp":"長野県","jp_add_1":"松本市","jp_add_2":"安曇"},"3901507":{"post_code":"3901507","prefecture":"NAGANO KEN","city":"MATSUMOTO SHI","town":"AZUMI (MIYANOHARA)","perfecture_jp":"長野県","jp_add_1":"松本市","jp_add_2":"安曇"},"3901520":{"post_code":"3901520","prefecture":"NAGANO KEN","city":"MATSUMOTO SHI","town":"AZUMI(SONOTA)","perfecture_jp":"長野県","jp_add_1":"松本市","jp_add_2":"安曇"},"3900861":{"post_code":"3900861","prefecture":"NAGANO KEN","city":"MATSUMOTO SHI","town":"ARIGASAKI","perfecture_jp":"長野県","jp_add_1":"松本市","jp_add_2":"蟻ケ崎"},"3900867":{"post_code":"3900867","prefecture":"NAGANO KEN","city":"MATSUMOTO SHI","town":"ARIGASAKIDAI","perfecture_jp":"長野県","jp_add_1":"松本市","jp_add_2":"蟻ケ崎台"},"3900831":{"post_code":"3900831","prefecture":"NAGANO KEN","city":"MATSUMOTO SHI","town":"IGAWAJO","perfecture_jp":"長野県","jp_add_1":"松本市","jp_add_2":"井川城"},"3900845":{"post_code":"3900845","prefecture":"NAGANO KEN","city":"MATSUMOTO SHI","town":"ISHISHIBA(1.2-CHOME)","perfecture_jp":"長野県","jp_add_1":"松本市","jp_add_2":"石芝"},"3900827":{"post_code":"3900827","prefecture":"NAGANO KEN","city":"MATSUMOTO SHI","town":"IDEGAWA","perfecture_jp":"長野県","jp_add_1":"松本市","jp_add_2":"出川"},"3900826":{"post_code":"3900826","prefecture":"NAGANO KEN","city":"MATSUMOTO SHI","town":"IDEGAWAMACHI","perfecture_jp":"長野県","jp_add_1":"松本市","jp_add_2":"出川町"},"3901131":{"post_code":"3901131","prefecture":"NAGANO KEN","city":"MATSUMOTO SHI","town":"IMAI","perfecture_jp":"長野県","jp_add_1":"松本市","jp_add_2":"今井"},"3900222":{"post_code":"3900222","prefecture":"NAGANO KEN","city":"MATSUMOTO SHI","town":"IRIYAMABE","perfecture_jp":"長野県","jp_add_1":"松本市","jp_add_2":"入山辺"},"3900813":{"post_code":"3900813","prefecture":"NAGANO KEN","city":"MATSUMOTO SHI","town":"UZUHASHI","perfecture_jp":"長野県","jp_add_1":"松本市","jp_add_2":"埋橋"},"3900874":{"post_code":"3900874","prefecture":"NAGANO KEN","city":"MATSUMOTO SHI","town":"OTE","perfecture_jp":"長野県","jp_add_1":"松本市","jp_add_2":"大手"},"3900304":{"post_code":"3900304","prefecture":"NAGANO KEN","city":"MATSUMOTO SHI","town":"OMURA","perfecture_jp":"長野県","jp_add_1":"松本市","jp_add_2":"大村"},"3900314":{"post_code":"3900314","prefecture":"NAGANO KEN","city":"MATSUMOTO SHI","town":"OKADAIBUKA","perfecture_jp":"長野県","jp_add_1":"松本市","jp_add_2":"岡田伊深"},"3900313":{"post_code":"3900313","prefecture":"NAGANO KEN","city":"MATSUMOTO SHI","town":"OKADASHIMOKADA","perfecture_jp":"長野県","jp_add_1":"松本市","jp_add_2":"岡田下岡田"},"3900315":{"post_code":"3900315","prefecture":"NAGANO KEN","city":"MATSUMOTO SHI","town":"OKADAMACHI","perfecture_jp":"長野県","jp_add_1":"松本市","jp_add_2":"岡田町"},"3900312":{"post_code":"3900312","prefecture":"NAGANO KEN","city":"MATSUMOTO SHI","town":"OKADAMATSUOKA","perfecture_jp":"長野県","jp_add_1":"松本市","jp_add_2":"岡田松岡"},"3900876":{"post_code":"3900876","prefecture":"NAGANO KEN","city":"MATSUMOTO SHI","town":"KAICHI","perfecture_jp":"長野県","jp_add_1":"松本市","jp_add_2":"開智"},"3900837":{"post_code":"3900837","prefecture":"NAGANO KEN","city":"MATSUMOTO SHI","town":"KAMADA","perfecture_jp":"長野県","jp_add_1":"松本市","jp_add_2":"鎌田"},"3900822":{"post_code":"3900822","prefecture":"NAGANO KEN","city":"MATSUMOTO SHI","town":"KANDA","perfecture_jp":"長野県","jp_add_1":"松本市","jp_add_2":"神田"},"3901243":{"post_code":"3901243","prefecture":"NAGANO KEN","city":"MATSUMOTO SHI","town":"KAMBAYASHI","perfecture_jp":"長野県","jp_add_1":"松本市","jp_add_2":"神林"},"3900872":{"post_code":"3900872","prefecture":"NAGANO KEN","city":"MATSUMOTO SHI","town":"KITAFUKASHI","perfecture_jp":"長野県","jp_add_1":"松本市","jp_add_2":"北深志"},"3900871":{"post_code":"3900871","prefecture":"NAGANO KEN","city":"MATSUMOTO SHI","town":"KIRI","perfecture_jp":"長野県","jp_add_1":"松本市","jp_add_2":"桐"},"3901132":{"post_code":"3901132","prefecture":"NAGANO KEN","city":"MATSUMOTO SHI","town":"KUKOHIGASHI","perfecture_jp":"長野県","jp_add_1":"松本市","jp_add_2":"空港東"},"3900847":{"post_code":"3900847","prefecture":"NAGANO KEN","city":"MATSUMOTO SHI","town":"SASABE","perfecture_jp":"長野県","jp_add_1":"松本市","jp_add_2":"笹部"},"3900221":{"post_code":"3900221","prefecture":"NAGANO KEN","city":"MATSUMOTO SHI","town":"SATOYAMABE","perfecture_jp":"長野県","jp_add_1":"松本市","jp_add_2":"里山辺"},"3900877":{"post_code":"3900877","prefecture":"NAGANO KEN","city":"MATSUMOTO SHI","town":"SAWAMURA","perfecture_jp":"長野県","jp_add_1":"松本市","jp_add_2":"沢村"},"3900301":{"post_code":"3900301","prefecture":"NAGANO KEN","city":"MATSUMOTO SHI","town":"SHINAGURA","perfecture_jp":"長野県","jp_add_1":"松本市","jp_add_2":"稲倉"},"3900851":{"post_code":"3900851","prefecture":"NAGANO KEN","city":"MATSUMOTO SHI","town":"SHIMAUCHI(SONOTA)","perfecture_jp":"長野県","jp_add_1":"松本市","jp_add_2":"島内"},"3900852":{"post_code":"3900852","prefecture":"NAGANO KEN","city":"MATSUMOTO SHI","town":"SHIMADACHI","perfecture_jp":"長野県","jp_add_1":"松本市","jp_add_2":"島立"},"3900805":{"post_code":"3900805","prefecture":"NAGANO KEN","city":"MATSUMOTO SHI","town":"SHIMIZU","perfecture_jp":"長野県","jp_add_1":"松本市","jp_add_2":"清水"},"3900875":{"post_code":"3900875","prefecture":"NAGANO KEN","city":"MATSUMOTO SHI","town":"JOSEI","perfecture_jp":"長野県","jp_add_1":"松本市","jp_add_2":"城西"},"3900807":{"post_code":"3900807","prefecture":"NAGANO KEN","city":"MATSUMOTO SHI","town":"JOTO","perfecture_jp":"長野県","jp_add_1":"松本市","jp_add_2":"城東"},"3900828":{"post_code":"3900828","prefecture":"NAGANO KEN","city":"MATSUMOTO SHI","town":"SHONAI","perfecture_jp":"長野県","jp_add_1":"松本市","jp_add_2":"庄内"},"3900866":{"post_code":"3900866","prefecture":"NAGANO KEN","city":"MATSUMOTO SHI","town":"JOYAMA","perfecture_jp":"長野県","jp_add_1":"松本市","jp_add_2":"城山"},"3900863":{"post_code":"3900863","prefecture":"NAGANO KEN","city":"MATSUMOTO SHI","town":"SHIRAITA","perfecture_jp":"長野県","jp_add_1":"松本市","jp_add_2":"白板"},"3900865":{"post_code":"3900865","prefecture":"NAGANO KEN","city":"MATSUMOTO SHI","town":"SHIMBASHI","perfecture_jp":"長野県","jp_add_1":"松本市","jp_add_2":"新橋"},"3900305":{"post_code":"3900305","prefecture":"NAGANO KEN","city":"MATSUMOTO SHI","town":"SOZA","perfecture_jp":"長野県","jp_add_1":"松本市","jp_add_2":"惣社"},"3900842":{"post_code":"3900842","prefecture":"NAGANO KEN","city":"MATSUMOTO SHI","town":"SOYANO","perfecture_jp":"長野県","jp_add_1":"松本市","jp_add_2":"征矢野"},"3900834":{"post_code":"3900834","prefecture":"NAGANO KEN","city":"MATSUMOTO SHI","town":"TAKAMIYA NAKA","perfecture_jp":"長野県","jp_add_1":"松本市","jp_add_2":"高宮中"},"3900835":{"post_code":"3900835","prefecture":"NAGANO KEN","city":"MATSUMOTO SHI","town":"TAKAMIYA HIGASHI","perfecture_jp":"長野県","jp_add_1":"松本市","jp_add_2":"高宮東"},"3900844":{"post_code":"3900844","prefecture":"NAGANO KEN","city":"MATSUMOTO SHI","town":"TAKAMIYA NISHI","perfecture_jp":"長野県","jp_add_1":"松本市","jp_add_2":"高宮西"},"3900843":{"post_code":"3900843","prefecture":"NAGANO KEN","city":"MATSUMOTO SHI","town":"TAKAMIYA MINAMI","perfecture_jp":"長野県","jp_add_1":"松本市","jp_add_2":"高宮南"},"3900836":{"post_code":"3900836","prefecture":"NAGANO KEN","city":"MATSUMOTO SHI","town":"TAKAMIYA KITA","perfecture_jp":"長野県","jp_add_1":"松本市","jp_add_2":"高宮北"},"3900811":{"post_code":"3900811","prefecture":"NAGANO KEN","city":"MATSUMOTO SHI","town":"CHUO","perfecture_jp":"長野県","jp_add_1":"松本市","jp_add_2":"中央"},"3900821":{"post_code":"3900821","prefecture":"NAGANO KEN","city":"MATSUMOTO SHI","town":"TSUKAMA","perfecture_jp":"長野県","jp_add_1":"松本市","jp_add_2":"筑摩"},"3900816":{"post_code":"3900816","prefecture":"NAGANO KEN","city":"MATSUMOTO SHI","town":"NAKAJO","perfecture_jp":"長野県","jp_add_1":"松本市","jp_add_2":"中条"},"3900823":{"post_code":"3900823","prefecture":"NAGANO KEN","city":"MATSUMOTO SHI","town":"NAKAYAMA","perfecture_jp":"長野県","jp_add_1":"松本市","jp_add_2":"中山"},"3900824":{"post_code":"3900824","prefecture":"NAGANO KEN","city":"MATSUMOTO SHI","town":"NAKAYAMADAI","perfecture_jp":"長野県","jp_add_1":"松本市","jp_add_2":"中山台"},"3901611":{"post_code":"3901611","prefecture":"NAGANO KEN","city":"MATSUMOTO SHI","town":"NAGAWA","perfecture_jp":"長野県","jp_add_1":"松本市","jp_add_2":"奈川"},"3900841":{"post_code":"3900841","prefecture":"NAGANO KEN","city":"MATSUMOTO SHI","town":"NAGISA","perfecture_jp":"長野県","jp_add_1":"松本市","jp_add_2":"渚"},"3900825":{"post_code":"3900825","prefecture":"NAGANO KEN","city":"MATSUMOTO SHI","town":"NAMIYANAGI","perfecture_jp":"長野県","jp_add_1":"松本市","jp_add_2":"並柳"},"3901241":{"post_code":"3901241","prefecture":"NAGANO KEN","city":"MATSUMOTO SHI","town":"NIIMURA","perfecture_jp":"長野県","jp_add_1":"松本市","jp_add_2":"新村"},"3901401":{"post_code":"3901401","prefecture":"NAGANO KEN","city":"MATSUMOTO SHI","town":"HATA","perfecture_jp":"長野県","jp_add_1":"松本市","jp_add_2":"波田"},"3900817":{"post_code":"3900817","prefecture":"NAGANO KEN","city":"MATSUMOTO SHI","town":"HABAUE","perfecture_jp":"長野県","jp_add_1":"松本市","jp_add_2":"巾上"},"3900316":{"post_code":"3900316","prefecture":"NAGANO KEN","city":"MATSUMOTO SHI","town":"HARA","perfecture_jp":"長野県","jp_add_1":"松本市","jp_add_2":"原"},"3900815":{"post_code":"3900815","prefecture":"NAGANO KEN","city":"MATSUMOTO SHI","town":"FUKASHI","perfecture_jp":"長野県","jp_add_1":"松本市","jp_add_2":"深志"},"3900833":{"post_code":"3900833","prefecture":"NAGANO KEN","city":"MATSUMOTO SHI","town":"FUTABA","perfecture_jp":"長野県","jp_add_1":"松本市","jp_add_2":"双葉"},"3900317":{"post_code":"3900317","prefecture":"NAGANO KEN","city":"MATSUMOTO SHI","town":"HORA","perfecture_jp":"長野県","jp_add_1":"松本市","jp_add_2":"洞"},"3900814":{"post_code":"3900814","prefecture":"NAGANO KEN","city":"MATSUMOTO SHI","town":"HONJO","perfecture_jp":"長野県","jp_add_1":"松本市","jp_add_2":"本庄"},"3900873":{"post_code":"3900873","prefecture":"NAGANO KEN","city":"MATSUMOTO SHI","town":"MARUNOCHI","perfecture_jp":"長野県","jp_add_1":"松本市","jp_add_2":"丸の内"},"3900302":{"post_code":"3900302","prefecture":"NAGANO KEN","city":"MATSUMOTO SHI","town":"MISAYAMA","perfecture_jp":"長野県","jp_add_1":"松本市","jp_add_2":"三才山"},"3900801":{"post_code":"3900801","prefecture":"NAGANO KEN","city":"MATSUMOTO SHI","town":"MISUZU","perfecture_jp":"長野県","jp_add_1":"松本市","jp_add_2":"美須々"},"3900311":{"post_code":"3900311","prefecture":"NAGANO KEN","city":"MATSUMOTO SHI","town":"MIZUKUMA","perfecture_jp":"長野県","jp_add_1":"松本市","jp_add_2":"水汲"},"3900306":{"post_code":"3900306","prefecture":"NAGANO KEN","city":"MATSUMOTO SHI","town":"MINAMIASAMA","perfecture_jp":"長野県","jp_add_1":"松本市","jp_add_2":"南浅間"},"3900846":{"post_code":"3900846","prefecture":"NAGANO KEN","city":"MATSUMOTO SHI","town":"MINAMIHARA","perfecture_jp":"長野県","jp_add_1":"松本市","jp_add_2":"南原"},"3900832":{"post_code":"3900832","prefecture":"NAGANO KEN","city":"MATSUMOTO SHI","town":"MINAMIMATSUMOTO","perfecture_jp":"長野県","jp_add_1":"松本市","jp_add_2":"南松本"},"3900862":{"post_code":"3900862","prefecture":"NAGANO KEN","city":"MATSUMOTO SHI","town":"MIYABUCHI","perfecture_jp":"長野県","jp_add_1":"松本市","jp_add_2":"宮渕"},"3900864":{"post_code":"3900864","prefecture":"NAGANO KEN","city":"MATSUMOTO SHI","town":"MIYABUCHIHOMMURA","perfecture_jp":"長野県","jp_add_1":"松本市","jp_add_2":"宮渕本村"},"3900806":{"post_code":"3900806","prefecture":"NAGANO KEN","city":"MATSUMOTO SHI","town":"METOBA","perfecture_jp":"長野県","jp_add_1":"松本市","jp_add_2":"女鳥羽"},"3900803":{"post_code":"3900803","prefecture":"NAGANO KEN","city":"MATSUMOTO SHI","town":"MOTOMACHI","perfecture_jp":"長野県","jp_add_1":"松本市","jp_add_2":"元町"},"3900804":{"post_code":"3900804","prefecture":"NAGANO KEN","city":"MATSUMOTO SHI","town":"YOKOTA","perfecture_jp":"長野県","jp_add_1":"松本市","jp_add_2":"横田"},"3900848":{"post_code":"3900848","prefecture":"NAGANO KEN","city":"MATSUMOTO SHI","town":"RYOSHIMA","perfecture_jp":"長野県","jp_add_1":"松本市","jp_add_2":"両島"},"3901242":{"post_code":"3901242","prefecture":"NAGANO KEN","city":"MATSUMOTO SHI","town":"WADA","perfecture_jp":"長野県","jp_add_1":"松本市","jp_add_2":"和田"},"3901301":{"post_code":"3901301","prefecture":"NAGANO KEN","city":"HIGASHICHIKUMA GUN YAMAGATA MURA","town":"YAMAGATAMURAICHIEN","perfecture_jp":"長野県","jp_add_1":"東筑摩郡山形村","jp_add_2":"山形村"},"3901100":{"post_code":"3901100","prefecture":"NAGANO KEN","city":"HIGASHICHIKUMA GUN ASAHI MURA","town":"IKANIKEISAIGANAIBAAI","perfecture_jp":"長野県","jp_add_1":"東筑摩郡朝日村","jp_add_2":""},"3901102":{"post_code":"3901102","prefecture":"NAGANO KEN","city":"HIGASHICHIKUMA GUN ASAHI MURA","town":"ONOZAWA","perfecture_jp":"長野県","jp_add_1":"東筑摩郡朝日村","jp_add_2":"小野沢"},"3901104":{"post_code":"3901104","prefecture":"NAGANO KEN","city":"HIGASHICHIKUMA GUN ASAHI MURA","town":"KOMI","perfecture_jp":"長野県","jp_add_1":"東筑摩郡朝日村","jp_add_2":"古見"},"3901101":{"post_code":"3901101","prefecture":"NAGANO KEN","city":"HIGASHICHIKUMA GUN ASAHI MURA","town":"NISHISEBA","perfecture_jp":"長野県","jp_add_1":"東筑摩郡朝日村","jp_add_2":"西洗馬"},"3901103":{"post_code":"3901103","prefecture":"NAGANO KEN","city":"HIGASHICHIKUMA GUN ASAHI MURA","town":"HARIO","perfecture_jp":"長野県","jp_add_1":"東筑摩郡朝日村","jp_add_2":"針尾"}}