{"3930000":{"post_code":"3930000","prefecture":"NAGANO KEN","city":"SUWA GUN SHIMOSUWA MACHI","town":"IKANIKEISAIGANAIBAAI","perfecture_jp":"長野県","jp_add_1":"諏訪郡下諏訪町","jp_add_2":""},"3930066":{"post_code":"3930066","prefecture":"NAGANO KEN","city":"SUWA GUN SHIMOSUWA MACHI","town":"AKEBONOCHO","perfecture_jp":"長野県","jp_add_1":"諏訪郡下諏訪町","jp_add_2":"曙町"},"3930068":{"post_code":"3930068","prefecture":"NAGANO KEN","city":"SUWA GUN SHIMOSUWA MACHI","town":"KASUGACHO","perfecture_jp":"長野県","jp_add_1":"諏訪郡下諏訪町","jp_add_2":"春日町"},"3930052":{"post_code":"3930052","prefecture":"NAGANO KEN","city":"SUWA GUN SHIMOSUWA MACHI","town":"KAMIKUBO","perfecture_jp":"長野県","jp_add_1":"諏訪郡下諏訪町","jp_add_2":"上久保"},"3930053":{"post_code":"3930053","prefecture":"NAGANO KEN","city":"SUWA GUN SHIMOSUWA MACHI","town":"KAMIBAPPA","perfecture_jp":"長野県","jp_add_1":"諏訪郡下諏訪町","jp_add_2":"上馬場"},"3930042":{"post_code":"3930042","prefecture":"NAGANO KEN","city":"SUWA GUN SHIMOSUWA MACHI","town":"KITASHIO","perfecture_jp":"長野県","jp_add_1":"諏訪郡下諏訪町","jp_add_2":"北四王"},"3930014":{"post_code":"3930014","prefecture":"NAGANO KEN","city":"SUWA GUN SHIMOSUWA MACHI","town":"KINOSHITA","perfecture_jp":"長野県","jp_add_1":"諏訪郡下諏訪町","jp_add_2":"木の下"},"3930026":{"post_code":"3930026","prefecture":"NAGANO KEN","city":"SUWA GUN SHIMOSUWA MACHI","town":"KUBOKAIDO","perfecture_jp":"長野県","jp_add_1":"諏訪郡下諏訪町","jp_add_2":"久保海道"},"3930024":{"post_code":"3930024","prefecture":"NAGANO KEN","city":"SUWA GUN SHIMOSUWA MACHI","town":"GOKAN","perfecture_jp":"長野県","jp_add_1":"諏訪郡下諏訪町","jp_add_2":"五官"},"3930044":{"post_code":"3930044","prefecture":"NAGANO KEN","city":"SUWA GUN SHIMOSUWA MACHI","town":"KOHANCHO","perfecture_jp":"長野県","jp_add_1":"諏訪郡下諏訪町","jp_add_2":"湖畔町"},"3930013":{"post_code":"3930013","prefecture":"NAGANO KEN","city":"SUWA GUN SHIMOSUWA MACHI","town":"KOYUNOE","perfecture_jp":"長野県","jp_add_1":"諏訪郡下諏訪町","jp_add_2":"小湯の上"},"3930084":{"post_code":"3930084","prefecture":"NAGANO KEN","city":"SUWA GUN SHIMOSUWA MACHI","town":"SAKAECHO","perfecture_jp":"長野県","jp_add_1":"諏訪郡下諏訪町","jp_add_2":"栄町"},"3930065":{"post_code":"3930065","prefecture":"NAGANO KEN","city":"SUWA GUN SHIMOSUWA MACHI","town":"SAKIGAKECHO","perfecture_jp":"長野県","jp_add_1":"諏訪郡下諏訪町","jp_add_2":"魁町"},"3930072":{"post_code":"3930072","prefecture":"NAGANO KEN","city":"SUWA GUN SHIMOSUWA MACHI","town":"SAKURAMACHI","perfecture_jp":"長野県","jp_add_1":"諏訪郡下諏訪町","jp_add_2":"桜町"},"3930086":{"post_code":"3930086","prefecture":"NAGANO KEN","city":"SUWA GUN SHIMOSUWA MACHI","town":"SHIMIZUMACHI","perfecture_jp":"長野県","jp_add_1":"諏訪郡下諏訪町","jp_add_2":"清水町"},"3930007":{"post_code":"3930007","prefecture":"NAGANO KEN","city":"SUWA GUN SHIMOSUWA MACHI","town":"SHIMOYASHIKI","perfecture_jp":"長野県","jp_add_1":"諏訪郡下諏訪町","jp_add_2":"下屋敷"},"3930011":{"post_code":"3930011","prefecture":"NAGANO KEN","city":"SUWA GUN SHIMOSUWA MACHI","town":"SHIMMACHIUE","perfecture_jp":"長野県","jp_add_1":"諏訪郡下諏訪町","jp_add_2":"新町上"},"3930018":{"post_code":"3930018","prefecture":"NAGANO KEN","city":"SUWA GUN SHIMOSUWA MACHI","town":"SHIMMACHISHITA","perfecture_jp":"長野県","jp_add_1":"諏訪郡下諏訪町","jp_add_2":"新町下"},"3930054":{"post_code":"3930054","prefecture":"NAGANO KEN","city":"SUWA GUN SHIMOSUWA MACHI","town":"SUGENOMACHI","perfecture_jp":"長野県","jp_add_1":"諏訪郡下諏訪町","jp_add_2":"菅野町"},"3930022":{"post_code":"3930022","prefecture":"NAGANO KEN","city":"SUWA GUN SHIMOSUWA MACHI","town":"SEKIYA","perfecture_jp":"長野県","jp_add_1":"諏訪郡下諏訪町","jp_add_2":"関屋"},"3930051":{"post_code":"3930051","prefecture":"NAGANO KEN","city":"SUWA GUN SHIMOSUWA MACHI","town":"TAISHADORI","perfecture_jp":"長野県","jp_add_1":"諏訪郡下諏訪町","jp_add_2":"大社通"},"3930092":{"post_code":"3930092","prefecture":"NAGANO KEN","city":"SUWA GUN SHIMOSUWA MACHI","town":"DAIMON","perfecture_jp":"長野県","jp_add_1":"諏訪郡下諏訪町","jp_add_2":"大門"},"3930033":{"post_code":"3930033","prefecture":"NAGANO KEN","city":"SUWA GUN SHIMOSUWA MACHI","town":"TAKAKI","perfecture_jp":"長野県","jp_add_1":"諏訪郡下諏訪町","jp_add_2":"高木"},"3930034":{"post_code":"3930034","prefecture":"NAGANO KEN","city":"SUWA GUN SHIMOSUWA MACHI","town":"TAKAHAMA","perfecture_jp":"長野県","jp_add_1":"諏訪郡下諏訪町","jp_add_2":"高浜"},"3930021":{"post_code":"3930021","prefecture":"NAGANO KEN","city":"SUWA GUN SHIMOSUWA MACHI","town":"TAKEI","perfecture_jp":"長野県","jp_add_1":"諏訪郡下諏訪町","jp_add_2":"武居"},"3930015":{"post_code":"3930015","prefecture":"NAGANO KEN","city":"SUWA GUN SHIMOSUWA MACHI","town":"TATSUMACHI","perfecture_jp":"長野県","jp_add_1":"諏訪郡下諏訪町","jp_add_2":"立町"},"3930078":{"post_code":"3930078","prefecture":"NAGANO KEN","city":"SUWA GUN SHIMOSUWA MACHI","town":"TANAKAMACHI","perfecture_jp":"長野県","jp_add_1":"諏訪郡下諏訪町","jp_add_2":"田中町"},"3930075":{"post_code":"3930075","prefecture":"NAGANO KEN","city":"SUWA GUN SHIMOSUWA MACHI","town":"CHUODORI","perfecture_jp":"長野県","jp_add_1":"諏訪郡下諏訪町","jp_add_2":"中央通"},"3930073":{"post_code":"3930073","prefecture":"NAGANO KEN","city":"SUWA GUN SHIMOSUWA MACHI","town":"TSUKADAMACHI","perfecture_jp":"長野県","jp_add_1":"諏訪郡下諏訪町","jp_add_2":"塚田町"},"3930023":{"post_code":"3930023","prefecture":"NAGANO KEN","city":"SUWA GUN SHIMOSUWA MACHI","town":"TOMIGAOKA","perfecture_jp":"長野県","jp_add_1":"諏訪郡下諏訪町","jp_add_2":"富ケ丘"},"3930057":{"post_code":"3930057","prefecture":"NAGANO KEN","city":"SUWA GUN SHIMOSUWA MACHI","town":"TOMONOMACHI","perfecture_jp":"長野県","jp_add_1":"諏訪郡下諏訪町","jp_add_2":"友之町"},"3930001":{"post_code":"3930001","prefecture":"NAGANO KEN","city":"SUWA GUN SHIMOSUWA MACHI","town":"TOYOHASHI","perfecture_jp":"長野県","jp_add_1":"諏訪郡下諏訪町","jp_add_2":"樋橋"},"3930064":{"post_code":"3930064","prefecture":"NAGANO KEN","city":"SUWA GUN SHIMOSUWA MACHI","town":"NAKASHIOCHO","perfecture_jp":"長野県","jp_add_1":"諏訪郡下諏訪町","jp_add_2":"中汐町"},"3930071":{"post_code":"3930071","prefecture":"NAGANO KEN","city":"SUWA GUN SHIMOSUWA MACHI","town":"NAKAMACHI","perfecture_jp":"長野県","jp_add_1":"諏訪郡下諏訪町","jp_add_2":"仲町"},"3930047":{"post_code":"3930047","prefecture":"NAGANO KEN","city":"SUWA GUN SHIMOSUWA MACHI","town":"NISHIAKASUNA","perfecture_jp":"長野県","jp_add_1":"諏訪郡下諏訪町","jp_add_2":"西赤砂"},"3930041":{"post_code":"3930041","prefecture":"NAGANO KEN","city":"SUWA GUN SHIMOSUWA MACHI","town":"NISHISHIO","perfecture_jp":"長野県","jp_add_1":"諏訪郡下諏訪町","jp_add_2":"西四王"},"3930087":{"post_code":"3930087","prefecture":"NAGANO KEN","city":"SUWA GUN SHIMOSUWA MACHI","town":"NISHITAKANOMACHI","perfecture_jp":"長野県","jp_add_1":"諏訪郡下諏訪町","jp_add_2":"西鷹野町"},"3930032":{"post_code":"3930032","prefecture":"NAGANO KEN","city":"SUWA GUN SHIMOSUWA MACHI","town":"NISHIHAMA","perfecture_jp":"長野県","jp_add_1":"諏訪郡下諏訪町","jp_add_2":"西浜"},"3930082":{"post_code":"3930082","prefecture":"NAGANO KEN","city":"SUWA GUN SHIMOSUWA MACHI","town":"NISHIYAYOICHO","perfecture_jp":"長野県","jp_add_1":"諏訪郡下諏訪町","jp_add_2":"西弥生町"},"3930035":{"post_code":"3930035","prefecture":"NAGANO KEN","city":"SUWA GUN SHIMOSUWA MACHI","town":"NISHIYUTAKA","perfecture_jp":"長野県","jp_add_1":"諏訪郡下諏訪町","jp_add_2":"西豊"},"3930003":{"post_code":"3930003","prefecture":"NAGANO KEN","city":"SUWA GUN SHIMOSUWA MACHI","town":"HAGIKURA","perfecture_jp":"長野県","jp_add_1":"諏訪郡下諏訪町","jp_add_2":"萩倉"},"3930063":{"post_code":"3930063","prefecture":"NAGANO KEN","city":"SUWA GUN SHIMOSUWA MACHI","town":"HANASAKICHO","perfecture_jp":"長野県","jp_add_1":"諏訪郡下諏訪町","jp_add_2":"花咲町"},"3930046":{"post_code":"3930046","prefecture":"NAGANO KEN","city":"SUWA GUN SHIMOSUWA MACHI","town":"HIGASHIAKASUNA","perfecture_jp":"長野県","jp_add_1":"諏訪郡下諏訪町","jp_add_2":"東赤砂"},"3930043":{"post_code":"3930043","prefecture":"NAGANO KEN","city":"SUWA GUN SHIMOSUWA MACHI","town":"HIGASHISHIO","perfecture_jp":"長野県","jp_add_1":"諏訪郡下諏訪町","jp_add_2":"東四王"},"3930085":{"post_code":"3930085","prefecture":"NAGANO KEN","city":"SUWA GUN SHIMOSUWA MACHI","town":"HIGASHITAKANOMACHI","perfecture_jp":"長野県","jp_add_1":"諏訪郡下諏訪町","jp_add_2":"東鷹野町"},"3930002":{"post_code":"3930002","prefecture":"NAGANO KEN","city":"SUWA GUN SHIMOSUWA MACHI","town":"HIGASHIMATA","perfecture_jp":"長野県","jp_add_1":"諏訪郡下諏訪町","jp_add_2":"東俣"},"3930006":{"post_code":"3930006","prefecture":"NAGANO KEN","city":"SUWA GUN SHIMOSUWA MACHI","town":"HIGASHIMACHIUE","perfecture_jp":"長野県","jp_add_1":"諏訪郡下諏訪町","jp_add_2":"東町上"},"3930005":{"post_code":"3930005","prefecture":"NAGANO KEN","city":"SUWA GUN SHIMOSUWA MACHI","town":"HIGASHIMACHINAKA","perfecture_jp":"長野県","jp_add_1":"諏訪郡下諏訪町","jp_add_2":"東町中"},"3930004":{"post_code":"3930004","prefecture":"NAGANO KEN","city":"SUWA GUN SHIMOSUWA MACHI","town":"HIGASHIMACHISHITA","perfecture_jp":"長野県","jp_add_1":"諏訪郡下諏訪町","jp_add_2":"東町下"},"3930093":{"post_code":"3930093","prefecture":"NAGANO KEN","city":"SUWA GUN SHIMOSUWA MACHI","town":"HIGASHIYAMADA","perfecture_jp":"長野県","jp_add_1":"諏訪郡下諏訪町","jp_add_2":"東山田"},"3930083":{"post_code":"3930083","prefecture":"NAGANO KEN","city":"SUWA GUN SHIMOSUWA MACHI","town":"HIGASHIYAYOICHO","perfecture_jp":"長野県","jp_add_1":"諏訪郡下諏訪町","jp_add_2":"東弥生町"},"3930031":{"post_code":"3930031","prefecture":"NAGANO KEN","city":"SUWA GUN SHIMOSUWA MACHI","town":"HIGASHIYUTAKA","perfecture_jp":"長野県","jp_add_1":"諏訪郡下諏訪町","jp_add_2":"東豊"},"3930062":{"post_code":"3930062","prefecture":"NAGANO KEN","city":"SUWA GUN SHIMOSUWA MACHI","town":"HIRASAWACHO","perfecture_jp":"長野県","jp_add_1":"諏訪郡下諏訪町","jp_add_2":"平沢町"},"3930056":{"post_code":"3930056","prefecture":"NAGANO KEN","city":"SUWA GUN SHIMOSUWA MACHI","town":"HIROSECHO","perfecture_jp":"長野県","jp_add_1":"諏訪郡下諏訪町","jp_add_2":"広瀬町"},"3930055":{"post_code":"3930055","prefecture":"NAGANO KEN","city":"SUWA GUN SHIMOSUWA MACHI","town":"FUJIMICHO","perfecture_jp":"長野県","jp_add_1":"諏訪郡下諏訪町","jp_add_2":"富士見町"},"3930091":{"post_code":"3930091","prefecture":"NAGANO KEN","city":"SUWA GUN SHIMOSUWA MACHI","town":"HOSHIGAOKA","perfecture_jp":"長野県","jp_add_1":"諏訪郡下諏訪町","jp_add_2":"星が丘"},"3930025":{"post_code":"3930025","prefecture":"NAGANO KEN","city":"SUWA GUN SHIMOSUWA MACHI","town":"HONGO","perfecture_jp":"長野県","jp_add_1":"諏訪郡下諏訪町","jp_add_2":"本郷"},"3930008":{"post_code":"3930008","prefecture":"NAGANO KEN","city":"SUWA GUN SHIMOSUWA MACHI","town":"MACHIYASHIKI","perfecture_jp":"長野県","jp_add_1":"諏訪郡下諏訪町","jp_add_2":"町屋敷"},"3930061":{"post_code":"3930061","prefecture":"NAGANO KEN","city":"SUWA GUN SHIMOSUWA MACHI","town":"MITAMACHI","perfecture_jp":"長野県","jp_add_1":"諏訪郡下諏訪町","jp_add_2":"御田町"},"3930074":{"post_code":"3930074","prefecture":"NAGANO KEN","city":"SUWA GUN SHIMOSUWA MACHI","town":"MIDORIMACHI","perfecture_jp":"長野県","jp_add_1":"諏訪郡下諏訪町","jp_add_2":"緑町"},"3930045":{"post_code":"3930045","prefecture":"NAGANO KEN","city":"SUWA GUN SHIMOSUWA MACHI","town":"MINAMISHIO","perfecture_jp":"長野県","jp_add_1":"諏訪郡下諏訪町","jp_add_2":"南四王"},"3930067":{"post_code":"3930067","prefecture":"NAGANO KEN","city":"SUWA GUN SHIMOSUWA MACHI","town":"YAGIHIGASHI","perfecture_jp":"長野県","jp_add_1":"諏訪郡下諏訪町","jp_add_2":"矢木東"},"3930076":{"post_code":"3930076","prefecture":"NAGANO KEN","city":"SUWA GUN SHIMOSUWA MACHI","town":"YAGINISHI","perfecture_jp":"長野県","jp_add_1":"諏訪郡下諏訪町","jp_add_2":"矢木西"},"3930077":{"post_code":"3930077","prefecture":"NAGANO KEN","city":"SUWA GUN SHIMOSUWA MACHI","town":"YAGIMACHI","perfecture_jp":"長野県","jp_add_1":"諏訪郡下諏訪町","jp_add_2":"矢木町"},"3930081":{"post_code":"3930081","prefecture":"NAGANO KEN","city":"SUWA GUN SHIMOSUWA MACHI","town":"YASHIROHIGASHIMACHI","perfecture_jp":"長野県","jp_add_1":"諏訪郡下諏訪町","jp_add_2":"社東町"},"3930017":{"post_code":"3930017","prefecture":"NAGANO KEN","city":"SUWA GUN SHIMOSUWA MACHI","town":"YUDANAKAMACHI","perfecture_jp":"長野県","jp_add_1":"諏訪郡下諏訪町","jp_add_2":"湯田仲町"},"3930016":{"post_code":"3930016","prefecture":"NAGANO KEN","city":"SUWA GUN SHIMOSUWA MACHI","town":"YUDAMACHI","perfecture_jp":"長野県","jp_add_1":"諏訪郡下諏訪町","jp_add_2":"湯田町"},"3930012":{"post_code":"3930012","prefecture":"NAGANO KEN","city":"SUWA GUN SHIMOSUWA MACHI","town":"YOKOMACHI","perfecture_jp":"長野県","jp_add_1":"諏訪郡下諏訪町","jp_add_2":"横町"},"3930019":{"post_code":"3930019","prefecture":"NAGANO KEN","city":"SUWA GUN SHIMOSUWA MACHI","town":"YOKOMACHIKINOSHITA","perfecture_jp":"長野県","jp_add_1":"諏訪郡下諏訪町","jp_add_2":"横町木の下"}}