{"3940000":{"post_code":"3940000","prefecture":"NAGANO KEN","city":"OKAYA SHI","town":"IKANIKEISAIGANAIBAAI","perfecture_jp":"長野県","jp_add_1":"岡谷市","jp_add_2":""},"3940091":{"post_code":"3940091","prefecture":"NAGANO KEN","city":"OKAYA SHI","town":"OKAYASHINOTSUGINIBANCHIGAKURUBAAI","perfecture_jp":"長野県","jp_add_1":"岡谷市","jp_add_2":""},"3940002":{"post_code":"3940002","prefecture":"NAGANO KEN","city":"OKAYA SHI","town":"AKAHANE","perfecture_jp":"長野県","jp_add_1":"岡谷市","jp_add_2":"赤羽"},"3940053":{"post_code":"3940053","prefecture":"NAGANO KEN","city":"OKAYA SHI","town":"YOGITOGISAWA","perfecture_jp":"長野県","jp_add_1":"岡谷市","jp_add_2":"芦ノ沢"},"3940001":{"post_code":"3940001","prefecture":"NAGANO KEN","city":"OKAYA SHI","town":"IMAI","perfecture_jp":"長野県","jp_add_1":"岡谷市","jp_add_2":"今井"},"3940055":{"post_code":"3940055","prefecture":"NAGANO KEN","city":"OKAYA SHI","town":"UCHIYAMA","perfecture_jp":"長野県","jp_add_1":"岡谷市","jp_add_2":"内山"},"3940051":{"post_code":"3940051","prefecture":"NAGANO KEN","city":"OKAYA SHI","town":"ENREI","perfecture_jp":"長野県","jp_add_1":"岡谷市","jp_add_2":"塩嶺"},"3940043":{"post_code":"3940043","prefecture":"NAGANO KEN","city":"OKAYA SHI","town":"OKURACHO","perfecture_jp":"長野県","jp_add_1":"岡谷市","jp_add_2":"御倉町"},"3940011":{"post_code":"3940011","prefecture":"NAGANO KEN","city":"OKAYA SHI","town":"OSACHI","perfecture_jp":"長野県","jp_add_1":"岡谷市","jp_add_2":"長地"},"3940089":{"post_code":"3940089","prefecture":"NAGANO KEN","city":"OKAYA SHI","town":"OSACHIIZUHAYA","perfecture_jp":"長野県","jp_add_1":"岡谷市","jp_add_2":"長地出早"},"3940084":{"post_code":"3940084","prefecture":"NAGANO KEN","city":"OKAYA SHI","town":"OSACHIKATAMACHO","perfecture_jp":"長野県","jp_add_1":"岡谷市","jp_add_2":"長地片間町"},"3940082":{"post_code":"3940082","prefecture":"NAGANO KEN","city":"OKAYA SHI","town":"OSACHIGOSHO","perfecture_jp":"長野県","jp_add_1":"岡谷市","jp_add_2":"長地御所"},"3940085":{"post_code":"3940085","prefecture":"NAGANO KEN","city":"OKAYA SHI","town":"OSACHIKOHAGI","perfecture_jp":"長野県","jp_add_1":"岡谷市","jp_add_2":"長地小萩"},"3940081":{"post_code":"3940081","prefecture":"NAGANO KEN","city":"OKAYA SHI","town":"OSACHIGONGENCHO","perfecture_jp":"長野県","jp_add_1":"岡谷市","jp_add_2":"長地権現町"},"3940087":{"post_code":"3940087","prefecture":"NAGANO KEN","city":"OKAYA SHI","town":"OSACHISHIZUME","perfecture_jp":"長野県","jp_add_1":"岡谷市","jp_add_2":"長地鎮"},"3940083":{"post_code":"3940083","prefecture":"NAGANO KEN","city":"OKAYA SHI","town":"OSACHISHIBAMIYA","perfecture_jp":"長野県","jp_add_1":"岡谷市","jp_add_2":"長地柴宮"},"3940088":{"post_code":"3940088","prefecture":"NAGANO KEN","city":"OKAYA SHI","town":"OSACHINASHIKUBO","perfecture_jp":"長野県","jp_add_1":"岡谷市","jp_add_2":"長地梨久保"},"3940086":{"post_code":"3940086","prefecture":"NAGANO KEN","city":"OKAYA SHI","town":"OSACHIMINAMOTO","perfecture_jp":"長野県","jp_add_1":"岡谷市","jp_add_2":"長地源"},"3940003":{"post_code":"3940003","prefecture":"NAGANO KEN","city":"OKAYA SHI","town":"KAMOCHO","perfecture_jp":"長野県","jp_add_1":"岡谷市","jp_add_2":"加茂町"},"3940048":{"post_code":"3940048","prefecture":"NAGANO KEN","city":"OKAYA SHI","town":"KAWAGISHIKAMI","perfecture_jp":"長野県","jp_add_1":"岡谷市","jp_add_2":"川岸上"},"3940047":{"post_code":"3940047","prefecture":"NAGANO KEN","city":"OKAYA SHI","town":"KAWAGISHINAKA","perfecture_jp":"長野県","jp_add_1":"岡谷市","jp_add_2":"川岸中"},"3940045":{"post_code":"3940045","prefecture":"NAGANO KEN","city":"OKAYA SHI","town":"KAWAGISHIHIGASHI","perfecture_jp":"長野県","jp_add_1":"岡谷市","jp_add_2":"川岸東"},"3940046":{"post_code":"3940046","prefecture":"NAGANO KEN","city":"OKAYA SHI","town":"KAWAGISHINISHI","perfecture_jp":"長野県","jp_add_1":"岡谷市","jp_add_2":"川岸西"},"3940022":{"post_code":"3940022","prefecture":"NAGANO KEN","city":"OKAYA SHI","town":"GINZA","perfecture_jp":"長野県","jp_add_1":"岡谷市","jp_add_2":"銀座"},"3940021":{"post_code":"3940021","prefecture":"NAGANO KEN","city":"OKAYA SHI","town":"GODA","perfecture_jp":"長野県","jp_add_1":"岡谷市","jp_add_2":"郷田"},"3940034":{"post_code":"3940034","prefecture":"NAGANO KEN","city":"OKAYA SHI","town":"KOHAN","perfecture_jp":"長野県","jp_add_1":"岡谷市","jp_add_2":"湖畔"},"3940029":{"post_code":"3940029","prefecture":"NAGANO KEN","city":"OKAYA SHI","town":"SAIWAICHO","perfecture_jp":"長野県","jp_add_1":"岡谷市","jp_add_2":"幸町"},"3940004":{"post_code":"3940004","prefecture":"NAGANO KEN","city":"OKAYA SHI","town":"SHIMMEICHO","perfecture_jp":"長野県","jp_add_1":"岡谷市","jp_add_2":"神明町"},"3940025":{"post_code":"3940025","prefecture":"NAGANO KEN","city":"OKAYA SHI","town":"DAIEICHO","perfecture_jp":"長野県","jp_add_1":"岡谷市","jp_add_2":"大栄町"},"3940031":{"post_code":"3940031","prefecture":"NAGANO KEN","city":"OKAYA SHI","town":"TANAKACHO","perfecture_jp":"長野県","jp_add_1":"岡谷市","jp_add_2":"田中町"},"3940027":{"post_code":"3940027","prefecture":"NAGANO KEN","city":"OKAYA SHI","town":"CHUOCHO","perfecture_jp":"長野県","jp_add_1":"岡谷市","jp_add_2":"中央町"},"3940026":{"post_code":"3940026","prefecture":"NAGANO KEN","city":"OKAYA SHI","town":"TSUKAMACHO","perfecture_jp":"長野県","jp_add_1":"岡谷市","jp_add_2":"塚間町"},"3940035":{"post_code":"3940035","prefecture":"NAGANO KEN","city":"OKAYA SHI","town":"TENRYUCHO","perfecture_jp":"長野県","jp_add_1":"岡谷市","jp_add_2":"天竜町"},"3940042":{"post_code":"3940042","prefecture":"NAGANO KEN","city":"OKAYA SHI","town":"NARUTACHO","perfecture_jp":"長野県","jp_add_1":"岡谷市","jp_add_2":"成田町"},"3940033":{"post_code":"3940033","prefecture":"NAGANO KEN","city":"OKAYA SHI","town":"NANGU","perfecture_jp":"長野県","jp_add_1":"岡谷市","jp_add_2":"南宮"},"3940052":{"post_code":"3940052","prefecture":"NAGANO KEN","city":"OKAYA SHI","town":"NISHIBAYASHI","perfecture_jp":"長野県","jp_add_1":"岡谷市","jp_add_2":"西林"},"3940054":{"post_code":"3940054","prefecture":"NAGANO KEN","city":"OKAYA SHI","town":"HANNOKI","perfecture_jp":"長野県","jp_add_1":"岡谷市","jp_add_2":"半ノ木"},"3940023":{"post_code":"3940023","prefecture":"NAGANO KEN","city":"OKAYA SHI","town":"HIGASHIGINZA","perfecture_jp":"長野県","jp_add_1":"岡谷市","jp_add_2":"東銀座"},"3940056":{"post_code":"3940056","prefecture":"NAGANO KEN","city":"OKAYA SHI","town":"HIZAWA","perfecture_jp":"長野県","jp_add_1":"岡谷市","jp_add_2":"樋沢"},"3940024":{"post_code":"3940024","prefecture":"NAGANO KEN","city":"OKAYA SHI","town":"HORINOCHI","perfecture_jp":"長野県","jp_add_1":"岡谷市","jp_add_2":"堀ノ内"},"3940028":{"post_code":"3940028","prefecture":"NAGANO KEN","city":"OKAYA SHI","town":"HONCHO","perfecture_jp":"長野県","jp_add_1":"岡谷市","jp_add_2":"本町"},"3940044":{"post_code":"3940044","prefecture":"NAGANO KEN","city":"OKAYA SHI","town":"MINATO","perfecture_jp":"長野県","jp_add_1":"岡谷市","jp_add_2":"湊"},"3940005":{"post_code":"3940005","prefecture":"NAGANO KEN","city":"OKAYA SHI","town":"YAMASHITACHO","perfecture_jp":"長野県","jp_add_1":"岡谷市","jp_add_2":"山下町"},"3940041":{"post_code":"3940041","prefecture":"NAGANO KEN","city":"OKAYA SHI","town":"YAMATECHO","perfecture_jp":"長野県","jp_add_1":"岡谷市","jp_add_2":"山手町"},"3940032":{"post_code":"3940032","prefecture":"NAGANO KEN","city":"OKAYA SHI","town":"WAKAMIYA","perfecture_jp":"長野県","jp_add_1":"岡谷市","jp_add_2":"若宮"}}