{"3950000":{"post_code":"3950000","prefecture":"NAGANO KEN","city":"IIDA SHI","town":"IKANIKEISAIGANAIBAAI","perfecture_jp":"長野県","jp_add_1":"飯田市","jp_add_2":""},"3950072":{"post_code":"3950072","prefecture":"NAGANO KEN","city":"IIDA SHI","town":"AKEBONOCHO","perfecture_jp":"長野県","jp_add_1":"飯田市","jp_add_2":"曙町"},"3950055":{"post_code":"3950055","prefecture":"NAGANO KEN","city":"IIDA SHI","town":"ASAHIMACHI","perfecture_jp":"長野県","jp_add_1":"飯田市","jp_add_2":"旭町"},"3950085":{"post_code":"3950085","prefecture":"NAGANO KEN","city":"IIDA SHI","town":"AZUMACHO","perfecture_jp":"長野県","jp_add_1":"飯田市","jp_add_2":"吾妻町"},"3950036":{"post_code":"3950036","prefecture":"NAGANO KEN","city":"IIDA SHI","town":"ATAGOCHO","perfecture_jp":"長野県","jp_add_1":"飯田市","jp_add_2":"愛宕町"},"3950152":{"post_code":"3950152","prefecture":"NAGANO KEN","city":"IIDA SHI","town":"IKURACHO","perfecture_jp":"長野県","jp_add_1":"飯田市","jp_add_2":"育良町"},"3950071":{"post_code":"3950071","prefecture":"NAGANO KEN","city":"IIDA SHI","town":"IMAMIYACHO","perfecture_jp":"長野県","jp_add_1":"飯田市","jp_add_2":"今宮町"},"3950023":{"post_code":"3950023","prefecture":"NAGANO KEN","city":"IIDA SHI","town":"EDOHAMACHO","perfecture_jp":"長野県","jp_add_1":"飯田市","jp_add_2":"江戸浜町"},"3950015":{"post_code":"3950015","prefecture":"NAGANO KEN","city":"IIDA SHI","town":"EDOMACHI","perfecture_jp":"長野県","jp_add_1":"飯田市","jp_add_2":"江戸町"},"3950046":{"post_code":"3950046","prefecture":"NAGANO KEN","city":"IIDA SHI","town":"OGIMACHI","perfecture_jp":"長野県","jp_add_1":"飯田市","jp_add_2":"扇町"},"3950034":{"post_code":"3950034","prefecture":"NAGANO KEN","city":"IIDA SHI","town":"OTEMACHI","perfecture_jp":"長野県","jp_add_1":"飯田市","jp_add_2":"追手町"},"3950053":{"post_code":"3950053","prefecture":"NAGANO KEN","city":"IIDA SHI","town":"OKUBOCHO","perfecture_jp":"長野県","jp_add_1":"飯田市","jp_add_2":"大久保町"},"3950157":{"post_code":"3950157","prefecture":"NAGANO KEN","city":"IIDA SHI","town":"OSEGI","perfecture_jp":"長野県","jp_add_1":"飯田市","jp_add_2":"大瀬木"},"3950056":{"post_code":"3950056","prefecture":"NAGANO KEN","city":"IIDA SHI","town":"ODORI","perfecture_jp":"長野県","jp_add_1":"飯田市","jp_add_2":"大通"},"3950068":{"post_code":"3950068","prefecture":"NAGANO KEN","city":"IIDA SHI","town":"OYASUMI","perfecture_jp":"長野県","jp_add_1":"飯田市","jp_add_2":"大休"},"3950028":{"post_code":"3950028","prefecture":"NAGANO KEN","city":"IIDA SHI","town":"OSAHIMECHO","perfecture_jp":"長野県","jp_add_1":"飯田市","jp_add_2":"長姫町"},"3950805":{"post_code":"3950805","prefecture":"NAGANO KEN","city":"IIDA SHI","town":"KANAEISSHIKI","perfecture_jp":"長野県","jp_add_1":"飯田市","jp_add_2":"鼎一色"},"3950808":{"post_code":"3950808","prefecture":"NAGANO KEN","city":"IIDA SHI","town":"KANAEKAMICHAYA","perfecture_jp":"長野県","jp_add_1":"飯田市","jp_add_2":"鼎上茶屋"},"3950802":{"post_code":"3950802","prefecture":"NAGANO KEN","city":"IIDA SHI","town":"KANAESHIMOCHAYA","perfecture_jp":"長野県","jp_add_1":"飯田市","jp_add_2":"鼎下茶屋"},"3950806":{"post_code":"3950806","prefecture":"NAGANO KEN","city":"IIDA SHI","town":"KANAEKAMIYAMA","perfecture_jp":"長野県","jp_add_1":"飯田市","jp_add_2":"鼎上山"},"3950803":{"post_code":"3950803","prefecture":"NAGANO KEN","city":"IIDA SHI","town":"KANAESHIMOYAMA","perfecture_jp":"長野県","jp_add_1":"飯田市","jp_add_2":"鼎下山"},"3950807":{"post_code":"3950807","prefecture":"NAGANO KEN","city":"IIDA SHI","town":"KANAEKIRIISHI","perfecture_jp":"長野県","jp_add_1":"飯田市","jp_add_2":"鼎切石"},"3950801":{"post_code":"3950801","prefecture":"NAGANO KEN","city":"IIDA SHI","town":"KANAENAKADAIRA","perfecture_jp":"長野県","jp_add_1":"飯田市","jp_add_2":"鼎中平"},"3950804":{"post_code":"3950804","prefecture":"NAGANO KEN","city":"IIDA SHI","town":"KANAENAGOKUMA","perfecture_jp":"長野県","jp_add_1":"飯田市","jp_add_2":"鼎名古熊"},"3950817":{"post_code":"3950817","prefecture":"NAGANO KEN","city":"IIDA SHI","town":"KANAEHIGASHIKANAE","perfecture_jp":"長野県","jp_add_1":"飯田市","jp_add_2":"鼎東鼎"},"3950026":{"post_code":"3950026","prefecture":"NAGANO KEN","city":"IIDA SHI","town":"KANAENISHIKANAE","perfecture_jp":"長野県","jp_add_1":"飯田市","jp_add_2":"鼎西鼎"},"3950002":{"post_code":"3950002","prefecture":"NAGANO KEN","city":"IIDA SHI","town":"KAMISATO IINUMA","perfecture_jp":"長野県","jp_add_1":"飯田市","jp_add_2":"上郷飯沼"},"3950003":{"post_code":"3950003","prefecture":"NAGANO KEN","city":"IIDA SHI","town":"KAMISATOBEPPU","perfecture_jp":"長野県","jp_add_1":"飯田市","jp_add_2":"上郷別府"},"3950004":{"post_code":"3950004","prefecture":"NAGANO KEN","city":"IIDA SHI","town":"KAMISATOKURODA","perfecture_jp":"長野県","jp_add_1":"飯田市","jp_add_2":"上郷黒田"},"3950153":{"post_code":"3950153","prefecture":"NAGANO KEN","city":"IIDA SHI","town":"KAMITONOKA","perfecture_jp":"長野県","jp_add_1":"飯田市","jp_add_2":"上殿岡"},"3950151":{"post_code":"3950151","prefecture":"NAGANO KEN","city":"IIDA SHI","town":"KITAGATA","perfecture_jp":"長野県","jp_add_1":"飯田市","jp_add_2":"北方"},"3950031":{"post_code":"3950031","prefecture":"NAGANO KEN","city":"IIDA SHI","town":"GINZA","perfecture_jp":"長野県","jp_add_1":"飯田市","jp_add_2":"銀座"},"3950241":{"post_code":"3950241","prefecture":"NAGANO KEN","city":"IIDA SHI","town":"KUME","perfecture_jp":"長野県","jp_add_1":"飯田市","jp_add_2":"久米"},"3950813":{"post_code":"3950813","prefecture":"NAGANO KEN","city":"IIDA SHI","town":"KEGA","perfecture_jp":"長野県","jp_add_1":"飯田市","jp_add_2":"毛賀"},"3950013":{"post_code":"3950013","prefecture":"NAGANO KEN","city":"IIDA SHI","town":"KODEMMACHO","perfecture_jp":"長野県","jp_add_1":"飯田市","jp_add_2":"小伝馬町"},"3950014":{"post_code":"3950014","prefecture":"NAGANO KEN","city":"IIDA SHI","town":"SAKURAMACHI","perfecture_jp":"長野県","jp_add_1":"飯田市","jp_add_2":"桜町"},"3950001":{"post_code":"3950001","prefecture":"NAGANO KEN","city":"IIDA SHI","town":"ZAKOJI","perfecture_jp":"長野県","jp_add_1":"飯田市","jp_add_2":"座光寺"},"3950154":{"post_code":"3950154","prefecture":"NAGANO KEN","city":"IIDA SHI","town":"SHIMOTONOKA","perfecture_jp":"長野県","jp_add_1":"飯田市","jp_add_2":"下殿岡"},"3950061":{"post_code":"3950061","prefecture":"NAGANO KEN","city":"IIDA SHI","town":"SHOEICHO","perfecture_jp":"長野県","jp_add_1":"飯田市","jp_add_2":"正永町"},"3950084":{"post_code":"3950084","prefecture":"NAGANO KEN","city":"IIDA SHI","town":"SUZUKACHO","perfecture_jp":"長野県","jp_add_1":"飯田市","jp_add_2":"鈴加町"},"3950062":{"post_code":"3950062","prefecture":"NAGANO KEN","city":"IIDA SHI","town":"SUNAHARAICHO","perfecture_jp":"長野県","jp_add_1":"飯田市","jp_add_2":"砂払町"},"3950018":{"post_code":"3950018","prefecture":"NAGANO KEN","city":"IIDA SHI","town":"SUWACHO","perfecture_jp":"長野県","jp_add_1":"飯田市","jp_add_2":"諏訪町"},"3950012":{"post_code":"3950012","prefecture":"NAGANO KEN","city":"IIDA SHI","town":"DAIOJI","perfecture_jp":"長野県","jp_add_1":"飯田市","jp_add_2":"大王路"},"3950011":{"post_code":"3950011","prefecture":"NAGANO KEN","city":"IIDA SHI","town":"DAIMONCHO","perfecture_jp":"長野県","jp_add_1":"飯田市","jp_add_2":"大門町"},"3950051":{"post_code":"3950051","prefecture":"NAGANO KEN","city":"IIDA SHI","town":"TAKAHACHO","perfecture_jp":"長野県","jp_add_1":"飯田市","jp_add_2":"高羽町"},"3950048":{"post_code":"3950048","prefecture":"NAGANO KEN","city":"IIDA SHI","town":"TAKINOSAWA","perfecture_jp":"長野県","jp_add_1":"飯田市","jp_add_2":"滝の沢"},"3950242":{"post_code":"3950242","prefecture":"NAGANO KEN","city":"IIDA SHI","town":"TAKESA","perfecture_jp":"長野県","jp_add_1":"飯田市","jp_add_2":"竹佐"},"3950032":{"post_code":"3950032","prefecture":"NAGANO KEN","city":"IIDA SHI","town":"CHIKARAMACHI","perfecture_jp":"長野県","jp_add_1":"飯田市","jp_add_2":"主税町"},"3950045":{"post_code":"3950045","prefecture":"NAGANO KEN","city":"IIDA SHI","town":"CHIKUMACHI","perfecture_jp":"長野県","jp_add_1":"飯田市","jp_add_2":"知久町"},"3950041":{"post_code":"3950041","prefecture":"NAGANO KEN","city":"IIDA SHI","town":"CHUODORI","perfecture_jp":"長野県","jp_add_1":"飯田市","jp_add_2":"中央通り"},"3950016":{"post_code":"3950016","prefecture":"NAGANO KEN","city":"IIDA SHI","town":"TEMMACHO","perfecture_jp":"長野県","jp_add_1":"飯田市","jp_add_2":"伝馬町"},"3950024":{"post_code":"3950024","prefecture":"NAGANO KEN","city":"IIDA SHI","town":"TOEICHO","perfecture_jp":"長野県","jp_add_1":"飯田市","jp_add_2":"東栄町"},"3950017":{"post_code":"3950017","prefecture":"NAGANO KEN","city":"IIDA SHI","town":"TOSHINCHO","perfecture_jp":"長野県","jp_add_1":"飯田市","jp_add_2":"東新町"},"3950086":{"post_code":"3950086","prefecture":"NAGANO KEN","city":"IIDA SHI","town":"TOWACHO","perfecture_jp":"長野県","jp_add_1":"飯田市","jp_add_2":"東和町"},"3950043":{"post_code":"3950043","prefecture":"NAGANO KEN","city":"IIDA SHI","town":"TORIMACHI","perfecture_jp":"長野県","jp_add_1":"飯田市","jp_add_2":"通り町"},"3950033":{"post_code":"3950033","prefecture":"NAGANO KEN","city":"IIDA SHI","town":"TOKIWAMACHI","perfecture_jp":"長野県","jp_add_1":"飯田市","jp_add_2":"常盤町"},"3950021":{"post_code":"3950021","prefecture":"NAGANO KEN","city":"IIDA SHI","town":"NAKANOCHO","perfecture_jp":"長野県","jp_add_1":"飯田市","jp_add_2":"仲ノ町"},"3950156":{"post_code":"3950156","prefecture":"NAGANO KEN","city":"IIDA SHI","town":"NAKAMURA","perfecture_jp":"長野県","jp_add_1":"飯田市","jp_add_2":"中村"},"3950083":{"post_code":"3950083","prefecture":"NAGANO KEN","city":"IIDA SHI","town":"NISHIKICHO","perfecture_jp":"長野県","jp_add_1":"飯田市","jp_add_2":"錦町"},"3950029":{"post_code":"3950029","prefecture":"NAGANO KEN","city":"IIDA SHI","town":"NIHOMMATSU","perfecture_jp":"長野県","jp_add_1":"飯田市","jp_add_2":"二本松"},"3950076":{"post_code":"3950076","prefecture":"NAGANO KEN","city":"IIDA SHI","town":"HAKUSANCHO","perfecture_jp":"長野県","jp_add_1":"飯田市","jp_add_2":"白山町"},"3950075":{"post_code":"3950075","prefecture":"NAGANO KEN","city":"IIDA SHI","town":"HAKUSANDORI","perfecture_jp":"長野県","jp_add_1":"飯田市","jp_add_2":"白山通り"},"3950243":{"post_code":"3950243","prefecture":"NAGANO KEN","city":"IIDA SHI","town":"HAKOGAWA","perfecture_jp":"長野県","jp_add_1":"飯田市","jp_add_2":"箱川"},"3950066":{"post_code":"3950066","prefecture":"NAGANO KEN","city":"IIDA SHI","town":"HABAAKASAKA","perfecture_jp":"長野県","jp_add_1":"飯田市","jp_add_2":"羽場赤坂"},"3950065":{"post_code":"3950065","prefecture":"NAGANO KEN","city":"IIDA SHI","town":"HABAKAMIGAWARA","perfecture_jp":"長野県","jp_add_1":"飯田市","jp_add_2":"羽場上河原"},"3950067":{"post_code":"3950067","prefecture":"NAGANO KEN","city":"IIDA SHI","town":"HABAGONGEN","perfecture_jp":"長野県","jp_add_1":"飯田市","jp_add_2":"羽場権現"},"3950073":{"post_code":"3950073","prefecture":"NAGANO KEN","city":"IIDA SHI","town":"HABAZAKACHO","perfecture_jp":"長野県","jp_add_1":"飯田市","jp_add_2":"羽場坂町"},"3950063":{"post_code":"3950063","prefecture":"NAGANO KEN","city":"IIDA SHI","town":"HABACHO","perfecture_jp":"長野県","jp_add_1":"飯田市","jp_add_2":"羽場町"},"3950064":{"post_code":"3950064","prefecture":"NAGANO KEN","city":"IIDA SHI","town":"HABANAKAHATA","perfecture_jp":"長野県","jp_add_1":"飯田市","jp_add_2":"羽場仲畑"},"3950027":{"post_code":"3950027","prefecture":"NAGANO KEN","city":"IIDA SHI","town":"BABANCHO","perfecture_jp":"長野県","jp_add_1":"飯田市","jp_add_2":"馬場町"},"3950022":{"post_code":"3950022","prefecture":"NAGANO KEN","city":"IIDA SHI","town":"HAMAICHO","perfecture_jp":"長野県","jp_add_1":"飯田市","jp_add_2":"浜井町"},"3950025":{"post_code":"3950025","prefecture":"NAGANO KEN","city":"IIDA SHI","town":"HIGASHICHUODORI","perfecture_jp":"長野県","jp_add_1":"飯田市","jp_add_2":"東中央通り"},"3950044":{"post_code":"3950044","prefecture":"NAGANO KEN","city":"IIDA SHI","town":"HOMMACHI","perfecture_jp":"長野県","jp_add_1":"飯田市","jp_add_2":"本町"},"3950811":{"post_code":"3950811","prefecture":"NAGANO KEN","city":"IIDA SHI","town":"MATSUOAGEMIZO","perfecture_jp":"長野県","jp_add_1":"飯田市","jp_add_2":"松尾上溝"},"3950821":{"post_code":"3950821","prefecture":"NAGANO KEN","city":"IIDA SHI","town":"MATSUOARAI","perfecture_jp":"長野県","jp_add_1":"飯田市","jp_add_2":"松尾新井"},"3950824":{"post_code":"3950824","prefecture":"NAGANO KEN","city":"IIDA SHI","town":"MATSUOSHIMIZU","perfecture_jp":"長野県","jp_add_1":"飯田市","jp_add_2":"松尾清水"},"3950812":{"post_code":"3950812","prefecture":"NAGANO KEN","city":"IIDA SHI","town":"MATSUOSHIRODA","perfecture_jp":"長野県","jp_add_1":"飯田市","jp_add_2":"松尾代田"},"3950825":{"post_code":"3950825","prefecture":"NAGANO KEN","city":"IIDA SHI","town":"MATSUOJO","perfecture_jp":"長野県","jp_add_1":"飯田市","jp_add_2":"松尾城"},"3950822":{"post_code":"3950822","prefecture":"NAGANO KEN","city":"IIDA SHI","town":"MATSUOTERADOKO","perfecture_jp":"長野県","jp_add_1":"飯田市","jp_add_2":"松尾寺所"},"3950815":{"post_code":"3950815","prefecture":"NAGANO KEN","city":"IIDA SHI","town":"MATSUOTOKIWADAI","perfecture_jp":"長野県","jp_add_1":"飯田市","jp_add_2":"松尾常盤台"},"3950816":{"post_code":"3950816","prefecture":"NAGANO KEN","city":"IIDA SHI","town":"MATSUOHISAI","perfecture_jp":"長野県","jp_add_1":"飯田市","jp_add_2":"松尾久井"},"3950042":{"post_code":"3950042","prefecture":"NAGANO KEN","city":"IIDA SHI","town":"MATSUOMACHI","perfecture_jp":"長野県","jp_add_1":"飯田市","jp_add_2":"松尾町"},"3950826":{"post_code":"3950826","prefecture":"NAGANO KEN","city":"IIDA SHI","town":"MATSUOMISAJIRO","perfecture_jp":"長野県","jp_add_1":"飯田市","jp_add_2":"松尾水城"},"3950823":{"post_code":"3950823","prefecture":"NAGANO KEN","city":"IIDA SHI","town":"MATSUOMYO","perfecture_jp":"長野県","jp_add_1":"飯田市","jp_add_2":"松尾明"},"3950074":{"post_code":"3950074","prefecture":"NAGANO KEN","city":"IIDA SHI","town":"MATSUKAWACHO","perfecture_jp":"長野県","jp_add_1":"飯田市","jp_add_2":"松川町"},"3950077":{"post_code":"3950077","prefecture":"NAGANO KEN","city":"IIDA SHI","town":"MARUYAMACHO","perfecture_jp":"長野県","jp_add_1":"飯田市","jp_add_2":"丸山町"},"3950035":{"post_code":"3950035","prefecture":"NAGANO KEN","city":"IIDA SHI","town":"MIZUNOTECHO","perfecture_jp":"長野県","jp_add_1":"飯田市","jp_add_2":"水の手町"},"3950155":{"post_code":"3950155","prefecture":"NAGANO KEN","city":"IIDA SHI","town":"MIKKAICHIBA","perfecture_jp":"長野県","jp_add_1":"飯田市","jp_add_2":"三日市場"},"3950037":{"post_code":"3950037","prefecture":"NAGANO KEN","city":"IIDA SHI","town":"MINAMITOKIWAMACHI","perfecture_jp":"長野県","jp_add_1":"飯田市","jp_add_2":"南常盤町"},"3950054":{"post_code":"3950054","prefecture":"NAGANO KEN","city":"IIDA SHI","town":"MINOZECHO","perfecture_jp":"長野県","jp_add_1":"飯田市","jp_add_2":"箕瀬町"},"3950081":{"post_code":"3950081","prefecture":"NAGANO KEN","city":"IIDA SHI","town":"MIYANOE","perfecture_jp":"長野県","jp_add_1":"飯田市","jp_add_2":"宮ノ上"},"3950082":{"post_code":"3950082","prefecture":"NAGANO KEN","city":"IIDA SHI","town":"MIYANOMAE","perfecture_jp":"長野県","jp_add_1":"飯田市","jp_add_2":"宮の前"},"3950052":{"post_code":"3950052","prefecture":"NAGANO KEN","city":"IIDA SHI","town":"MOTOMACHI","perfecture_jp":"長野県","jp_add_1":"飯田市","jp_add_2":"元町"},"3950244":{"post_code":"3950244","prefecture":"NAGANO KEN","city":"IIDA SHI","town":"YAMAMOTO","perfecture_jp":"長野県","jp_add_1":"飯田市","jp_add_2":"山本"},"3950245":{"post_code":"3950245","prefecture":"NAGANO KEN","city":"IIDA SHI","town":"YAMAMOTOFUTATSUYAMADANCHI","perfecture_jp":"長野県","jp_add_1":"飯田市","jp_add_2":"山本二ツ山団地"},"3950814":{"post_code":"3950814","prefecture":"NAGANO KEN","city":"IIDA SHI","town":"YAWATAMACHI","perfecture_jp":"長野県","jp_add_1":"飯田市","jp_add_2":"八幡町"},"3950300":{"post_code":"3950300","prefecture":"NAGANO KEN","city":"SHIMOINA GUN ACHI MURA","town":"IKANIKEISAIGANAIBAAI","perfecture_jp":"長野県","jp_add_1":"下伊那郡阿智村","jp_add_2":""},"3950301":{"post_code":"3950301","prefecture":"NAGANO KEN","city":"SHIMOINA GUN ACHI MURA","town":"KASUGA","perfecture_jp":"長野県","jp_add_1":"下伊那郡阿智村","jp_add_2":"春日"},"3950302":{"post_code":"3950302","prefecture":"NAGANO KEN","city":"SHIMOINA GUN ACHI MURA","town":"GOKA","perfecture_jp":"長野県","jp_add_1":"下伊那郡阿智村","jp_add_2":"伍和"},"3950305":{"post_code":"3950305","prefecture":"NAGANO KEN","city":"SHIMOINA GUN ACHI MURA","town":"KOMA","perfecture_jp":"長野県","jp_add_1":"下伊那郡阿智村","jp_add_2":"駒"},"3950303":{"post_code":"3950303","prefecture":"NAGANO KEN","city":"SHIMOINA GUN ACHI MURA","town":"KOMABA","perfecture_jp":"長野県","jp_add_1":"下伊那郡阿智村","jp_add_2":"駒場"},"3950401":{"post_code":"3950401","prefecture":"NAGANO KEN","city":"SHIMOINA GUN ACHI MURA","town":"SEINAIJI","perfecture_jp":"長野県","jp_add_1":"下伊那郡阿智村","jp_add_2":"清内路"},"3950304":{"post_code":"3950304","prefecture":"NAGANO KEN","city":"SHIMOINA GUN ACHI MURA","town":"CHISATO","perfecture_jp":"長野県","jp_add_1":"下伊那郡阿智村","jp_add_2":"智里"},"3950501":{"post_code":"3950501","prefecture":"NAGANO KEN","city":"SHIMOINA GUN ACHI MURA","town":"NAMIAI","perfecture_jp":"長野県","jp_add_1":"下伊那郡阿智村","jp_add_2":"浪合"},"3950601":{"post_code":"3950601","prefecture":"NAGANO KEN","city":"SHIMOINA GUN HIRAYA MURA","town":"HIRAYAMURAICHIEN","perfecture_jp":"長野県","jp_add_1":"下伊那郡平谷村","jp_add_2":"平谷村"},"3950701":{"post_code":"3950701","prefecture":"NAGANO KEN","city":"SHIMOINA GUN NEBA MURA","town":"NEBAMURAICHIEN","perfecture_jp":"長野県","jp_add_1":"下伊那郡根羽村","jp_add_2":"根羽村"},"3951100":{"post_code":"3951100","prefecture":"NAGANO KEN","city":"SHIMOINA GUN TAKAGI MURA","town":"IKANIKEISAIGANAIBAAI","perfecture_jp":"長野県","jp_add_1":"下伊那郡喬木村","jp_add_2":""},"3951101":{"post_code":"3951101","prefecture":"NAGANO KEN","city":"SHIMOINA GUN TAKAGI MURA","town":"AJIMA","perfecture_jp":"長野県","jp_add_1":"下伊那郡喬木村","jp_add_2":"阿島"},"3951108":{"post_code":"3951108","prefecture":"NAGANO KEN","city":"SHIMOINA GUN TAKAGI MURA","town":"IKUMA","perfecture_jp":"長野県","jp_add_1":"下伊那郡喬木村","jp_add_2":"伊久間"},"3951104":{"post_code":"3951104","prefecture":"NAGANO KEN","city":"SHIMOINA GUN TAKAGI MURA","town":"UJINORI","perfecture_jp":"長野県","jp_add_1":"下伊那郡喬木村","jp_add_2":"氏乗"},"3951103":{"post_code":"3951103","prefecture":"NAGANO KEN","city":"SHIMOINA GUN TAKAGI MURA","town":"OSHIMA","perfecture_jp":"長野県","jp_add_1":"下伊那郡喬木村","jp_add_2":"大島"},"3951105":{"post_code":"3951105","prefecture":"NAGANO KEN","city":"SHIMOINA GUN TAKAGI MURA","town":"OWACHI","perfecture_jp":"長野県","jp_add_1":"下伊那郡喬木村","jp_add_2":"大和知"},"3951107":{"post_code":"3951107","prefecture":"NAGANO KEN","city":"SHIMOINA GUN TAKAGI MURA","town":"OGAWA","perfecture_jp":"長野県","jp_add_1":"下伊那郡喬木村","jp_add_2":"小川"},"3951102":{"post_code":"3951102","prefecture":"NAGANO KEN","city":"SHIMOINA GUN TAKAGI MURA","town":"KAKASU","perfecture_jp":"長野県","jp_add_1":"下伊那郡喬木村","jp_add_2":"加々須"},"3951106":{"post_code":"3951106","prefecture":"NAGANO KEN","city":"SHIMOINA GUN TAKAGI MURA","town":"TOMIDA","perfecture_jp":"長野県","jp_add_1":"下伊那郡喬木村","jp_add_2":"富田"}}