{"3960000":{"post_code":"3960000","prefecture":"NAGANO KEN","city":"INA SHI","town":"IKANIKEISAIGANAIBAAI","perfecture_jp":"長野県","jp_add_1":"伊那市","jp_add_2":""},"3960025":{"post_code":"3960025","prefecture":"NAGANO KEN","city":"INA SHI","town":"ARAI","perfecture_jp":"長野県","jp_add_1":"伊那市","jp_add_2":"荒井"},"3960028":{"post_code":"3960028","prefecture":"NAGANO KEN","city":"INA SHI","town":"ARAIUCHINOKAYA","perfecture_jp":"長野県","jp_add_1":"伊那市","jp_add_2":"荒井内の萱"},"3960021":{"post_code":"3960021","prefecture":"NAGANO KEN","city":"INA SHI","town":"INA","perfecture_jp":"長野県","jp_add_1":"伊那市","jp_add_2":"伊那"},"3960011":{"post_code":"3960011","prefecture":"NAGANO KEN","city":"INA SHI","town":"INABE","perfecture_jp":"長野県","jp_add_1":"伊那市","jp_add_2":"伊那部"},"3960008":{"post_code":"3960008","prefecture":"NAGANO KEN","city":"INA SHI","town":"UENOHARA","perfecture_jp":"長野県","jp_add_1":"伊那市","jp_add_2":"上の原"},"3960032":{"post_code":"3960032","prefecture":"NAGANO KEN","city":"INA SHI","town":"OZAWA","perfecture_jp":"長野県","jp_add_1":"伊那市","jp_add_2":"小沢"},"3960012":{"post_code":"3960012","prefecture":"NAGANO KEN","city":"INA SHI","town":"KAMISHINDEN","perfecture_jp":"長野県","jp_add_1":"伊那市","jp_add_2":"上新田"},"3960006":{"post_code":"3960006","prefecture":"NAGANO KEN","city":"INA SHI","town":"KAMIMAKI","perfecture_jp":"長野県","jp_add_1":"伊那市","jp_add_2":"上牧"},"3960014":{"post_code":"3960014","prefecture":"NAGANO KEN","city":"INA SHI","town":"KITSUNEJIMA","perfecture_jp":"長野県","jp_add_1":"伊那市","jp_add_2":"狐島"},"3960033":{"post_code":"3960033","prefecture":"NAGANO KEN","city":"INA SHI","town":"KOSHIROKUBO","perfecture_jp":"長野県","jp_add_1":"伊那市","jp_add_2":"小四郎久保"},"3960010":{"post_code":"3960010","prefecture":"NAGANO KEN","city":"INA SHI","town":"SAKAI","perfecture_jp":"長野県","jp_add_1":"伊那市","jp_add_2":"境"},"3960024":{"post_code":"3960024","prefecture":"NAGANO KEN","city":"INA SHI","town":"SAKASHITA","perfecture_jp":"長野県","jp_add_1":"伊那市","jp_add_2":"坂下"},"3960013":{"post_code":"3960013","prefecture":"NAGANO KEN","city":"INA SHI","town":"SHIMOSHINDEN","perfecture_jp":"長野県","jp_add_1":"伊那市","jp_add_2":"下新田"},"3960114":{"post_code":"3960114","prefecture":"NAGANO KEN","city":"INA SHI","town":"SEMMI","perfecture_jp":"長野県","jp_add_1":"伊那市","jp_add_2":"仙美"},"3960212":{"post_code":"3960212","prefecture":"NAGANO KEN","city":"INA SHI","town":"TAKATOMACHI OSAFUJI(1-658-BANCHI)","perfecture_jp":"長野県","jp_add_1":"伊那市","jp_add_2":"高遠町長藤"},"3960305":{"post_code":"3960305","prefecture":"NAGANO KEN","city":"INA SHI","town":"TAKATOMACHI OSAFUJI(SONOTA)","perfecture_jp":"長野県","jp_add_1":"伊那市","jp_add_2":"高遠町長藤"},"3960215":{"post_code":"3960215","prefecture":"NAGANO KEN","city":"INA SHI","town":"TAKATOMACHI OBARA","perfecture_jp":"長野県","jp_add_1":"伊那市","jp_add_2":"高遠町小原"},"3960214":{"post_code":"3960214","prefecture":"NAGANO KEN","city":"INA SHI","town":"TAKATOMACHI KATSUMA","perfecture_jp":"長野県","jp_add_1":"伊那市","jp_add_2":"高遠町勝間"},"3960217":{"post_code":"3960217","prefecture":"NAGANO KEN","city":"INA SHI","town":"TAKATOMACHI KAMIYAMADA","perfecture_jp":"長野県","jp_add_1":"伊那市","jp_add_2":"高遠町上山田"},"3960302":{"post_code":"3960302","prefecture":"NAGANO KEN","city":"INA SHI","town":"TAKATOMACHI SHIBIRA","perfecture_jp":"長野県","jp_add_1":"伊那市","jp_add_2":"高遠町芝平"},"3960216":{"post_code":"3960216","prefecture":"NAGANO KEN","city":"INA SHI","town":"TAKATOMACHI SHIMOYAMADA","perfecture_jp":"長野県","jp_add_1":"伊那市","jp_add_2":"高遠町下山田"},"3960211":{"post_code":"3960211","prefecture":"NAGANO KEN","city":"INA SHI","town":"TAKATOMACHI NISHITAKATO","perfecture_jp":"長野県","jp_add_1":"伊那市","jp_add_2":"高遠町西高遠"},"3960303":{"post_code":"3960303","prefecture":"NAGANO KEN","city":"INA SHI","town":"TAKATOMACHI BARAGUCHI","perfecture_jp":"長野県","jp_add_1":"伊那市","jp_add_2":"高遠町荊口"},"3960213":{"post_code":"3960213","prefecture":"NAGANO KEN","city":"INA SHI","town":"TAKATOMACHI HIGASHITAKATO","perfecture_jp":"長野県","jp_add_1":"伊那市","jp_add_2":"高遠町東高遠"},"3960301":{"post_code":"3960301","prefecture":"NAGANO KEN","city":"INA SHI","town":"TAKATOMACHI FUJISAWA","perfecture_jp":"長野県","jp_add_1":"伊那市","jp_add_2":"高遠町藤沢"},"3960304":{"post_code":"3960304","prefecture":"NAGANO KEN","city":"INA SHI","town":"TAKATOMACHI YAMAMURO","perfecture_jp":"長野県","jp_add_1":"伊那市","jp_add_2":"高遠町山室"},"3960015":{"post_code":"3960015","prefecture":"NAGANO KEN","city":"INA SHI","town":"CHUO","perfecture_jp":"長野県","jp_add_1":"伊那市","jp_add_2":"中央"},"3960002":{"post_code":"3960002","prefecture":"NAGANO KEN","city":"INA SHI","town":"TERA SAWAOKA","perfecture_jp":"長野県","jp_add_1":"伊那市","jp_add_2":"手良沢岡"},"3960004":{"post_code":"3960004","prefecture":"NAGANO KEN","city":"INA SHI","town":"TERA NAKATSUBO","perfecture_jp":"長野県","jp_add_1":"伊那市","jp_add_2":"手良中坪"},"3960003":{"post_code":"3960003","prefecture":"NAGANO KEN","city":"INA SHI","town":"TERA NOGUCHI","perfecture_jp":"長野県","jp_add_1":"伊那市","jp_add_2":"手良野口"},"3960621":{"post_code":"3960621","prefecture":"NAGANO KEN","city":"INA SHI","town":"TOMIGATA","perfecture_jp":"長野県","jp_add_1":"伊那市","jp_add_2":"富県"},"3960031":{"post_code":"3960031","prefecture":"NAGANO KEN","city":"INA SHI","town":"NAKANOHARA","perfecture_jp":"長野県","jp_add_1":"伊那市","jp_add_2":"中の原"},"3960026":{"post_code":"3960026","prefecture":"NAGANO KEN","city":"INA SHI","town":"NISHIMACHI","perfecture_jp":"長野県","jp_add_1":"伊那市","jp_add_2":"西町"},"3960005":{"post_code":"3960005","prefecture":"NAGANO KEN","city":"INA SHI","town":"NOSOKO","perfecture_jp":"長野県","jp_add_1":"伊那市","jp_add_2":"野底"},"3960405":{"post_code":"3960405","prefecture":"NAGANO KEN","city":"INA SHI","town":"HASE ICHINOSE","perfecture_jp":"長野県","jp_add_1":"伊那市","jp_add_2":"長谷市野瀬"},"3960407":{"post_code":"3960407","prefecture":"NAGANO KEN","city":"INA SHI","town":"HASE URA","perfecture_jp":"長野県","jp_add_1":"伊那市","jp_add_2":"長谷浦"},"3960403":{"post_code":"3960403","prefecture":"NAGANO KEN","city":"INA SHI","town":"HASE KUROGOCHI","perfecture_jp":"長野県","jp_add_1":"伊那市","jp_add_2":"長谷黒河内"},"3960406":{"post_code":"3960406","prefecture":"NAGANO KEN","city":"INA SHI","town":"HASE SUGISHIMA","perfecture_jp":"長野県","jp_add_1":"伊那市","jp_add_2":"長谷杉島"},"3960404":{"post_code":"3960404","prefecture":"NAGANO KEN","city":"INA SHI","town":"HASE NAKAO","perfecture_jp":"長野県","jp_add_1":"伊那市","jp_add_2":"長谷中尾"},"3960401":{"post_code":"3960401","prefecture":"NAGANO KEN","city":"INA SHI","town":"HASE HIJI","perfecture_jp":"長野県","jp_add_1":"伊那市","jp_add_2":"長谷非持"},"3960402":{"post_code":"3960402","prefecture":"NAGANO KEN","city":"INA SHI","town":"HASE MIZOKUCHI","perfecture_jp":"長野県","jp_add_1":"伊那市","jp_add_2":"長谷溝口"},"3960009":{"post_code":"3960009","prefecture":"NAGANO KEN","city":"INA SHI","town":"HIKAGE","perfecture_jp":"長野県","jp_add_1":"伊那市","jp_add_2":"日影"},"3960030":{"post_code":"3960030","prefecture":"NAGANO KEN","city":"INA SHI","town":"HIRASAWA","perfecture_jp":"長野県","jp_add_1":"伊那市","jp_add_2":"平沢"},"3960001":{"post_code":"3960001","prefecture":"NAGANO KEN","city":"INA SHI","town":"FUKUJIMA","perfecture_jp":"長野県","jp_add_1":"伊那市","jp_add_2":"福島"},"3960112":{"post_code":"3960112","prefecture":"NAGANO KEN","city":"INA SHI","town":"MAEHARA","perfecture_jp":"長野県","jp_add_1":"伊那市","jp_add_2":"前原"},"3960027":{"post_code":"3960027","prefecture":"NAGANO KEN","city":"INA SHI","town":"MASUMIGAOKA","perfecture_jp":"長野県","jp_add_1":"伊那市","jp_add_2":"ますみヶ丘"},"3960111":{"post_code":"3960111","prefecture":"NAGANO KEN","city":"INA SHI","town":"MISUZU","perfecture_jp":"長野県","jp_add_1":"伊那市","jp_add_2":"美篶"},"3960022":{"post_code":"3960022","prefecture":"NAGANO KEN","city":"INA SHI","town":"MISONO","perfecture_jp":"長野県","jp_add_1":"伊那市","jp_add_2":"御園"},"3960113":{"post_code":"3960113","prefecture":"NAGANO KEN","city":"INA SHI","town":"MIHARA","perfecture_jp":"長野県","jp_add_1":"伊那市","jp_add_2":"美原"},"3960023":{"post_code":"3960023","prefecture":"NAGANO KEN","city":"INA SHI","town":"YAMADERA","perfecture_jp":"長野県","jp_add_1":"伊那市","jp_add_2":"山寺"},"3960029":{"post_code":"3960029","prefecture":"NAGANO KEN","city":"INA SHI","town":"YOKOYAMA","perfecture_jp":"長野県","jp_add_1":"伊那市","jp_add_2":"横山"},"3960007":{"post_code":"3960007","prefecture":"NAGANO KEN","city":"INA SHI","town":"WAKAMIYA","perfecture_jp":"長野県","jp_add_1":"伊那市","jp_add_2":"若宮"}}