{"3970201":{"post_code":"3970201","prefecture":"NAGANO KEN","city":"KISO GUN OTAKI MURA","town":"OTAKIMURAICHIEN","perfecture_jp":"長野県","jp_add_1":"木曽郡王滝村","jp_add_2":"王滝村"},"3970000":{"post_code":"3970000","prefecture":"NAGANO KEN","city":"KISO GUN KISO MACHI","town":"IKANIKEISAIGANAIBAAI","perfecture_jp":"長野県","jp_add_1":"木曽郡木曽町","jp_add_2":""},"3970301":{"post_code":"3970301","prefecture":"NAGANO KEN","city":"KISO GUN KISO MACHI","town":"KAIDAKOGEN SUEKAWA","perfecture_jp":"長野県","jp_add_1":"木曽郡木曽町","jp_add_2":"開田高原末川"},"3970302":{"post_code":"3970302","prefecture":"NAGANO KEN","city":"KISO GUN KISO MACHI","town":"KAIDAKOGEN NISHINO","perfecture_jp":"長野県","jp_add_1":"木曽郡木曽町","jp_add_2":"開田高原西野"},"3970002":{"post_code":"3970002","prefecture":"NAGANO KEN","city":"KISO GUN KISO MACHI","town":"SHINKAI","perfecture_jp":"長野県","jp_add_1":"木曽郡木曽町","jp_add_2":"新開"},"3970003":{"post_code":"3970003","prefecture":"NAGANO KEN","city":"KISO GUN KISO MACHI","town":"SHINKAIFUKU","perfecture_jp":"長野県","jp_add_1":"木曽郡木曽町","jp_add_2":"新開福"},"3970001":{"post_code":"3970001","prefecture":"NAGANO KEN","city":"KISO GUN KISO MACHI","town":"FUKUSHIMA","perfecture_jp":"長野県","jp_add_1":"木曽郡木曽町","jp_add_2":"福島"},"3970101":{"post_code":"3970101","prefecture":"NAGANO KEN","city":"KISO GUN KISO MACHI","town":"MITAKE","perfecture_jp":"長野県","jp_add_1":"木曽郡木曽町","jp_add_2":"三岳"}}