{"4010000":{"post_code":"4010000","prefecture":"YAMANASHI KEN","city":"OTSUKI SHI","town":"IKANIKEISAIGANAIBAAI","perfecture_jp":"山梨県","jp_add_1":"大月市","jp_add_2":""},"4010013":{"post_code":"4010013","prefecture":"YAMANASHI KEN","city":"OTSUKI SHI","town":"OTSUKI(1-3-CHOME)","perfecture_jp":"山梨県","jp_add_1":"大月市","jp_add_2":"大月"},"4010014":{"post_code":"4010014","prefecture":"YAMANASHI KEN","city":"OTSUKI SHI","town":"OTSUKIMACHI OTSUKI","perfecture_jp":"山梨県","jp_add_1":"大月市","jp_add_2":"大月町大月"},"4010015":{"post_code":"4010015","prefecture":"YAMANASHI KEN","city":"OTSUKI SHI","town":"OTSUKIMACHI HANASAKI","perfecture_jp":"山梨県","jp_add_1":"大月市","jp_add_2":"大月町花咲"},"4010016":{"post_code":"4010016","prefecture":"YAMANASHI KEN","city":"OTSUKI SHI","town":"OTSUKIMACHI MAGI","perfecture_jp":"山梨県","jp_add_1":"大月市","jp_add_2":"大月町真木"},"4010011":{"post_code":"4010011","prefecture":"YAMANASHI KEN","city":"OTSUKI SHI","town":"KOMAHASHI","perfecture_jp":"山梨県","jp_add_1":"大月市","jp_add_2":"駒橋"},"4010025":{"post_code":"4010025","prefecture":"YAMANASHI KEN","city":"OTSUKI SHI","town":"SASAGOMACHI KURONODA","perfecture_jp":"山梨県","jp_add_1":"大月市","jp_add_2":"笹子町黒野田"},"4010023":{"post_code":"4010023","prefecture":"YAMANASHI KEN","city":"OTSUKI SHI","town":"SASAGOMACHI SHIRANO","perfecture_jp":"山梨県","jp_add_1":"大月市","jp_add_2":"笹子町白野"},"4010024":{"post_code":"4010024","prefecture":"YAMANASHI KEN","city":"OTSUKI SHI","town":"SASAGOMACHI YOSHIKUBO","perfecture_jp":"山梨県","jp_add_1":"大月市","jp_add_2":"笹子町吉久保"},"4010005":{"post_code":"4010005","prefecture":"YAMANASHI KEN","city":"OTSUKI SHI","town":"NIGIOKAMACHI ASARI","perfecture_jp":"山梨県","jp_add_1":"大月市","jp_add_2":"賑岡町浅利"},"4010002":{"post_code":"4010002","prefecture":"YAMANASHI KEN","city":"OTSUKI SHI","town":"NIGIOKAMACHI IWADONO","perfecture_jp":"山梨県","jp_add_1":"大月市","jp_add_2":"賑岡町岩殿"},"4010006":{"post_code":"4010006","prefecture":"YAMANASHI KEN","city":"OTSUKI SHI","town":"NIGIOKAMACHI OKUYAMA","perfecture_jp":"山梨県","jp_add_1":"大月市","jp_add_2":"賑岡町奥山"},"4010004":{"post_code":"4010004","prefecture":"YAMANASHI KEN","city":"OTSUKI SHI","town":"NIGIOKAMACHI KOWAZE","perfecture_jp":"山梨県","jp_add_1":"大月市","jp_add_2":"賑岡町強瀬"},"4010001":{"post_code":"4010001","prefecture":"YAMANASHI KEN","city":"OTSUKI SHI","town":"NIGIOKAMACHI HATAGURA","perfecture_jp":"山梨県","jp_add_1":"大月市","jp_add_2":"賑岡町畑倉"},"4010003":{"post_code":"4010003","prefecture":"YAMANASHI KEN","city":"OTSUKI SHI","town":"NIGIOKAMACHI YURIGAOKA","perfecture_jp":"山梨県","jp_add_1":"大月市","jp_add_2":"賑岡町ゆりケ丘"},"4010021":{"post_code":"4010021","prefecture":"YAMANASHI KEN","city":"OTSUKI SHI","town":"HATSUKARIMACHI SHIMOHATSUKARI","perfecture_jp":"山梨県","jp_add_1":"大月市","jp_add_2":"初狩町下初狩"},"4010022":{"post_code":"4010022","prefecture":"YAMANASHI KEN","city":"OTSUKI SHI","town":"HATSUKARIMACHI NAKAHATSUKARI","perfecture_jp":"山梨県","jp_add_1":"大月市","jp_add_2":"初狩町中初狩"},"4010012":{"post_code":"4010012","prefecture":"YAMANASHI KEN","city":"OTSUKI SHI","town":"MITACHI","perfecture_jp":"山梨県","jp_add_1":"大月市","jp_add_2":"御太刀"},"4010201":{"post_code":"4010201","prefecture":"YAMANASHI KEN","city":"UENOHARA SHI","town":"AKIYAMA","perfecture_jp":"山梨県","jp_add_1":"上野原市","jp_add_2":"秋山"},"4010500":{"post_code":"4010500","prefecture":"YAMANASHI KEN","city":"MINAMITSURU GUN YAMANAKAKO MURA","town":"IKANIKEISAIGANAIBAAI","perfecture_jp":"山梨県","jp_add_1":"南都留郡忍野村","jp_add_2":""},"4010512":{"post_code":"4010512","prefecture":"YAMANASHI KEN","city":"MINAMITSURU GUN OSHINO MURA","town":"UCHINO","perfecture_jp":"山梨県","jp_add_1":"南都留郡忍野村","jp_add_2":"内野"},"4010511":{"post_code":"4010511","prefecture":"YAMANASHI KEN","city":"MINAMITSURU GUN OSHINO MURA","town":"SHIBOKUSA","perfecture_jp":"山梨県","jp_add_1":"南都留郡忍野村","jp_add_2":"忍草"},"4010502":{"post_code":"4010502","prefecture":"YAMANASHI KEN","city":"MINAMITSURU GUN YAMANAKAKO MURA","town":"HIRANO","perfecture_jp":"山梨県","jp_add_1":"南都留郡山中湖村","jp_add_2":"平野"},"4010501":{"post_code":"4010501","prefecture":"YAMANASHI KEN","city":"MINAMITSURU GUN YAMANAKAKO MURA","town":"YAMANAKA","perfecture_jp":"山梨県","jp_add_1":"南都留郡山中湖村","jp_add_2":"山中"},"4010320":{"post_code":"4010320","prefecture":"YAMANASHI KEN","city":"MINAMITSURU GUN NARUSAWA MURA","town":"NARUSAWAMURAICHIEN","perfecture_jp":"山梨県","jp_add_1":"南都留郡鳴沢村","jp_add_2":"鳴沢村"},"4010300":{"post_code":"4010300","prefecture":"YAMANASHI KEN","city":"MINAMITSURU GUN FUJIKAWAGUCHIKO MAC","town":"IKANIKEISAIGANAIBAAI","perfecture_jp":"山梨県","jp_add_1":"南都留郡富士河口湖町","jp_add_2":""},"4010303":{"post_code":"4010303","prefecture":"YAMANASHI KEN","city":"MINAMITSURU GUN FUJIKAWAGUCHIKO MAC","town":"AZAGAWA","perfecture_jp":"山梨県","jp_add_1":"南都留郡富士河口湖町","jp_add_2":"浅川"},"4010335":{"post_code":"4010335","prefecture":"YAMANASHI KEN","city":"MINAMITSURU GUN FUJIKAWAGUCHIKO MAC","town":"OARASHI","perfecture_jp":"山梨県","jp_add_1":"南都留郡富士河口湖町","jp_add_2":"大嵐"},"4010305":{"post_code":"4010305","prefecture":"YAMANASHI KEN","city":"MINAMITSURU GUN FUJIKAWAGUCHIKO MAC","town":"OISHI","perfecture_jp":"山梨県","jp_add_1":"南都留郡富士河口湖町","jp_add_2":"大石"},"4010310":{"post_code":"4010310","prefecture":"YAMANASHI KEN","city":"MINAMITSURU GUN FUJIKAWAGUCHIKO MAC","town":"KATSUYAMA","perfecture_jp":"山梨県","jp_add_1":"南都留郡富士河口湖町","jp_add_2":"勝山"},"4010304":{"post_code":"4010304","prefecture":"YAMANASHI KEN","city":"MINAMITSURU GUN FUJIKAWAGUCHIKO MAC","town":"KAWAGUCHI","perfecture_jp":"山梨県","jp_add_1":"南都留郡富士河口湖町","jp_add_2":"河口"},"4010302":{"post_code":"4010302","prefecture":"YAMANASHI KEN","city":"MINAMITSURU GUN FUJIKAWAGUCHIKO MAC","town":"KODACHI","perfecture_jp":"山梨県","jp_add_1":"南都留郡富士河口湖町","jp_add_2":"小立"},"4010332":{"post_code":"4010332","prefecture":"YAMANASHI KEN","city":"MINAMITSURU GUN FUJIKAWAGUCHIKO MAC","town":"SAIKO","perfecture_jp":"山梨県","jp_add_1":"南都留郡富士河口湖町","jp_add_2":"西湖"},"4010333":{"post_code":"4010333","prefecture":"YAMANASHI KEN","city":"MINAMITSURU GUN FUJIKAWAGUCHIKO MAC","town":"SAIKO NISHI","perfecture_jp":"山梨県","jp_add_1":"南都留郡富士河口湖町","jp_add_2":"西湖西"},"4010334":{"post_code":"4010334","prefecture":"YAMANASHI KEN","city":"MINAMITSURU GUN FUJIKAWAGUCHIKO MAC","town":"SAIKO MINAMI","perfecture_jp":"山梨県","jp_add_1":"南都留郡富士河口湖町","jp_add_2":"西湖南"},"4010336":{"post_code":"4010336","prefecture":"YAMANASHI KEN","city":"MINAMITSURU GUN FUJIKAWAGUCHIKO MAC","town":"SHOJI","perfecture_jp":"山梨県","jp_add_1":"南都留郡富士河口湖町","jp_add_2":"精進"},"4010331":{"post_code":"4010331","prefecture":"YAMANASHI KEN","city":"MINAMITSURU GUN FUJIKAWAGUCHIKO MAC","town":"NAGAHAMA","perfecture_jp":"山梨県","jp_add_1":"南都留郡富士河口湖町","jp_add_2":"長浜"},"4010338":{"post_code":"4010338","prefecture":"YAMANASHI KEN","city":"MINAMITSURU GUN FUJIKAWAGUCHIKO MAC","town":"FUJIGANE","perfecture_jp":"山梨県","jp_add_1":"南都留郡富士河口湖町","jp_add_2":"富士ケ嶺"},"4010301":{"post_code":"4010301","prefecture":"YAMANASHI KEN","city":"MINAMITSURU GUN FUJIKAWAGUCHIKO MAC","town":"FUNATSU","perfecture_jp":"山梨県","jp_add_1":"南都留郡富士河口湖町","jp_add_2":"船津"},"4010337":{"post_code":"4010337","prefecture":"YAMANASHI KEN","city":"MINAMITSURU GUN FUJIKAWAGUCHIKO MAC","town":"MOTOSU","perfecture_jp":"山梨県","jp_add_1":"南都留郡富士河口湖町","jp_add_2":"本栖"}}