{"4020000":{"post_code":"4020000","prefecture":"YAMANASHI KEN","city":"TSURU SHI","town":"IKANIKEISAIGANAIBAAI","perfecture_jp":"山梨県","jp_add_1":"都留市","jp_add_2":""},"4020015":{"post_code":"4020015","prefecture":"YAMANASHI KEN","city":"TSURU SHI","town":"ASAHI SOSHI","perfecture_jp":"山梨県","jp_add_1":"都留市","jp_add_2":"朝日曽雌"},"4020014":{"post_code":"4020014","prefecture":"YAMANASHI KEN","city":"TSURU SHI","town":"ASAHI BABA","perfecture_jp":"山梨県","jp_add_1":"都留市","jp_add_2":"朝日馬場"},"4020042":{"post_code":"4020042","prefecture":"YAMANASHI KEN","city":"TSURU SHI","town":"ATSUHARA","perfecture_jp":"山梨県","jp_add_1":"都留市","jp_add_2":"厚原"},"4020011":{"post_code":"4020011","prefecture":"YAMANASHI KEN","city":"TSURU SHI","town":"IGURA","perfecture_jp":"山梨県","jp_add_1":"都留市","jp_add_2":"井倉"},"4020023":{"post_code":"4020023","prefecture":"YAMANASHI KEN","city":"TSURU SHI","town":"ONO","perfecture_jp":"山梨県","jp_add_1":"都留市","jp_add_2":"大野"},"4020045":{"post_code":"4020045","prefecture":"YAMANASHI KEN","city":"TSURU SHI","town":"OHATA","perfecture_jp":"山梨県","jp_add_1":"都留市","jp_add_2":"大幡"},"4020002":{"post_code":"4020002","prefecture":"YAMANASHI KEN","city":"TSURU SHI","town":"OHARA","perfecture_jp":"山梨県","jp_add_1":"都留市","jp_add_2":"大原"},"4020006":{"post_code":"4020006","prefecture":"YAMANASHI KEN","city":"TSURU SHI","town":"OGATAYAMA","perfecture_jp":"山梨県","jp_add_1":"都留市","jp_add_2":"小形山"},"4020024":{"post_code":"4020024","prefecture":"YAMANASHI KEN","city":"TSURU SHI","town":"ONO","perfecture_jp":"山梨県","jp_add_1":"都留市","jp_add_2":"小野"},"4020034":{"post_code":"4020034","prefecture":"YAMANASHI KEN","city":"TSURU SHI","town":"KATSURAMACHI","perfecture_jp":"山梨県","jp_add_1":"都留市","jp_add_2":"桂町"},"4020041":{"post_code":"4020041","prefecture":"YAMANASHI KEN","city":"TSURU SHI","town":"KANAI","perfecture_jp":"山梨県","jp_add_1":"都留市","jp_add_2":"金井"},"4020044":{"post_code":"4020044","prefecture":"YAMANASHI KEN","city":"TSURU SHI","town":"KAHATA","perfecture_jp":"山梨県","jp_add_1":"都留市","jp_add_2":"加畑"},"4020053":{"post_code":"4020053","prefecture":"YAMANASHI KEN","city":"TSURU SHI","town":"KAMIYA","perfecture_jp":"山梨県","jp_add_1":"都留市","jp_add_2":"上谷"},"4020055":{"post_code":"4020055","prefecture":"YAMANASHI KEN","city":"TSURU SHI","town":"KAWADANA","perfecture_jp":"山梨県","jp_add_1":"都留市","jp_add_2":"川棚"},"4020003":{"post_code":"4020003","prefecture":"YAMANASHI KEN","city":"TSURU SHI","town":"KAWAMO","perfecture_jp":"山梨県","jp_add_1":"都留市","jp_add_2":"川茂"},"4020033":{"post_code":"4020033","prefecture":"YAMANASHI KEN","city":"TSURU SHI","town":"SAKAI","perfecture_jp":"山梨県","jp_add_1":"都留市","jp_add_2":"境"},"4020032":{"post_code":"4020032","prefecture":"YAMANASHI KEN","city":"TSURU SHI","town":"SHISHIDOME","perfecture_jp":"山梨県","jp_add_1":"都留市","jp_add_2":"鹿留"},"4020051":{"post_code":"4020051","prefecture":"YAMANASHI KEN","city":"TSURU SHI","town":"SHIMOYA","perfecture_jp":"山梨県","jp_add_1":"都留市","jp_add_2":"下谷"},"4020001":{"post_code":"4020001","prefecture":"YAMANASHI KEN","city":"TSURU SHI","town":"TANOKURA","perfecture_jp":"山梨県","jp_add_1":"都留市","jp_add_2":"田野倉"},"4020054":{"post_code":"4020054","prefecture":"YAMANASHI KEN","city":"TSURU SHI","town":"TAHARA","perfecture_jp":"山梨県","jp_add_1":"都留市","jp_add_2":"田原"},"4020021":{"post_code":"4020021","prefecture":"YAMANASHI KEN","city":"TSURU SHI","town":"TAMAGAWA","perfecture_jp":"山梨県","jp_add_1":"都留市","jp_add_2":"玉川"},"4020052":{"post_code":"4020052","prefecture":"YAMANASHI KEN","city":"TSURU SHI","town":"CHUO","perfecture_jp":"山梨県","jp_add_1":"都留市","jp_add_2":"中央"},"4020056":{"post_code":"4020056","prefecture":"YAMANASHI KEN","city":"TSURU SHI","town":"TSURU","perfecture_jp":"山梨県","jp_add_1":"都留市","jp_add_2":"つる"},"4020031":{"post_code":"4020031","prefecture":"YAMANASHI KEN","city":"TSURU SHI","town":"TOKAICHIBA","perfecture_jp":"山梨県","jp_add_1":"都留市","jp_add_2":"十日市場"},"4020022":{"post_code":"4020022","prefecture":"YAMANASHI KEN","city":"TSURU SHI","town":"TOZAWA","perfecture_jp":"山梨県","jp_add_1":"都留市","jp_add_2":"戸沢"},"4020046":{"post_code":"4020046","prefecture":"YAMANASHI KEN","city":"TSURU SHI","town":"NAKATSUMORI","perfecture_jp":"山梨県","jp_add_1":"都留市","jp_add_2":"中津森"},"4020035":{"post_code":"4020035","prefecture":"YAMANASHI KEN","city":"TSURU SHI","town":"NATSUGARI","perfecture_jp":"山梨県","jp_add_1":"都留市","jp_add_2":"夏狩"},"4020043":{"post_code":"4020043","prefecture":"YAMANASHI KEN","city":"TSURU SHI","town":"HIRAGURI","perfecture_jp":"山梨県","jp_add_1":"都留市","jp_add_2":"平栗"},"4020004":{"post_code":"4020004","prefecture":"YAMANASHI KEN","city":"TSURU SHI","town":"FURUKAWADO","perfecture_jp":"山梨県","jp_add_1":"都留市","jp_add_2":"古川渡"},"4020025":{"post_code":"4020025","prefecture":"YAMANASHI KEN","city":"TSURU SHI","town":"HONO","perfecture_jp":"山梨県","jp_add_1":"都留市","jp_add_2":"法能"},"4020013":{"post_code":"4020013","prefecture":"YAMANASHI KEN","city":"TSURU SHI","town":"MORISATO","perfecture_jp":"山梨県","jp_add_1":"都留市","jp_add_2":"盛里"},"4020005":{"post_code":"4020005","prefecture":"YAMANASHI KEN","city":"TSURU SHI","town":"YOKKAICHIBA","perfecture_jp":"山梨県","jp_add_1":"都留市","jp_add_2":"四日市場"},"4020012":{"post_code":"4020012","prefecture":"YAMANASHI KEN","city":"TSURU SHI","town":"YONAWA","perfecture_jp":"山梨県","jp_add_1":"都留市","jp_add_2":"与縄"},"4020200":{"post_code":"4020200","prefecture":"YAMANASHI KEN","city":"MINAMITSURU GUN DOSHI MURA","town":"IKANIKEISAIGANAIBAAI","perfecture_jp":"山梨県","jp_add_1":"南都留郡道志村","jp_add_2":""},"4020225":{"post_code":"4020225","prefecture":"YAMANASHI KEN","city":"MINAMITSURU GUN DOSHI MURA","town":"ITABASHI","perfecture_jp":"山梨県","jp_add_1":"南都留郡道志村","jp_add_2":"板橋"},"4020207":{"post_code":"4020207","prefecture":"YAMANASHI KEN","city":"MINAMITSURU GUN DOSHI MURA","town":"OGURI","perfecture_jp":"山梨県","jp_add_1":"南都留郡道志村","jp_add_2":"大栗"},"4020215":{"post_code":"4020215","prefecture":"YAMANASHI KEN","city":"MINAMITSURU GUN DOSHI MURA","town":"OZASU","perfecture_jp":"山梨県","jp_add_1":"南都留郡道志村","jp_add_2":"大指"},"4020202":{"post_code":"4020202","prefecture":"YAMANASHI KEN","city":"MINAMITSURU GUN DOSHI MURA","town":"ONO","perfecture_jp":"山梨県","jp_add_1":"南都留郡道志村","jp_add_2":"大野"},"4020204":{"post_code":"4020204","prefecture":"YAMANASHI KEN","city":"MINAMITSURU GUN DOSHI MURA","town":"OMUROZASU","perfecture_jp":"山梨県","jp_add_1":"南都留郡道志村","jp_add_2":"大室指"},"4020214":{"post_code":"4020214","prefecture":"YAMANASHI KEN","city":"MINAMITSURU GUN DOSHI MURA","town":"KAWARAHATA","perfecture_jp":"山梨県","jp_add_1":"南都留郡道志村","jp_add_2":"川原畑"},"4020216":{"post_code":"4020216","prefecture":"YAMANASHI KEN","city":"MINAMITSURU GUN DOSHI MURA","town":"KAMANOMAE","perfecture_jp":"山梨県","jp_add_1":"南都留郡道志村","jp_add_2":"釜之前"},"4020227":{"post_code":"4020227","prefecture":"YAMANASHI KEN","city":"MINAMITSURU GUN DOSHI MURA","town":"KAMISHIROITAIRA","perfecture_jp":"山梨県","jp_add_1":"南都留郡道志村","jp_add_2":"上白井平"},"4020223":{"post_code":"4020223","prefecture":"YAMANASHI KEN","city":"MINAMITSURU GUN DOSHI MURA","town":"KAMIZENNOKI","perfecture_jp":"山梨県","jp_add_1":"南都留郡道志村","jp_add_2":"上善之木"},"4020221":{"post_code":"4020221","prefecture":"YAMANASHI KEN","city":"MINAMITSURU GUN DOSHI MURA","town":"KAMINAKAYAMA","perfecture_jp":"山梨県","jp_add_1":"南都留郡道志村","jp_add_2":"上中山"},"4020224":{"post_code":"4020224","prefecture":"YAMANASHI KEN","city":"MINAMITSURU GUN DOSHI MURA","town":"KAWAMURA","perfecture_jp":"山梨県","jp_add_1":"南都留郡道志村","jp_add_2":"川村"},"4020203":{"post_code":"4020203","prefecture":"YAMANASHI KEN","city":"MINAMITSURU GUN DOSHI MURA","town":"KUBO","perfecture_jp":"山梨県","jp_add_1":"南都留郡道志村","jp_add_2":"久保"},"4020206":{"post_code":"4020206","prefecture":"YAMANASHI KEN","city":"MINAMITSURU GUN DOSHI MURA","town":"KOZENJI","perfecture_jp":"山梨県","jp_add_1":"南都留郡道志村","jp_add_2":"小善地"},"4020226":{"post_code":"4020226","prefecture":"YAMANASHI KEN","city":"MINAMITSURU GUN DOSHI MURA","town":"SHIMOSHIROITAIRA","perfecture_jp":"山梨県","jp_add_1":"南都留郡道志村","jp_add_2":"下白井平"},"4020222":{"post_code":"4020222","prefecture":"YAMANASHI KEN","city":"MINAMITSURU GUN DOSHI MURA","town":"SHIMOZENNOKI","perfecture_jp":"山梨県","jp_add_1":"南都留郡道志村","jp_add_2":"下善之木"},"4020219":{"post_code":"4020219","prefecture":"YAMANASHI KEN","city":"MINAMITSURU GUN DOSHI MURA","town":"SHIMONAKAYAMA","perfecture_jp":"山梨県","jp_add_1":"南都留郡道志村","jp_add_2":"下中山"},"4020209":{"post_code":"4020209","prefecture":"YAMANASHI KEN","city":"MINAMITSURU GUN DOSHI MURA","town":"TAKENOMOTO","perfecture_jp":"山梨県","jp_add_1":"南都留郡道志村","jp_add_2":"竹之本"},"4020201":{"post_code":"4020201","prefecture":"YAMANASHI KEN","city":"MINAMITSURU GUN DOSHI MURA","town":"TSUKIYONO","perfecture_jp":"山梨県","jp_add_1":"南都留郡道志村","jp_add_2":"月夜野"},"4020205":{"post_code":"4020205","prefecture":"YAMANASHI KEN","city":"MINAMITSURU GUN DOSHI MURA","town":"TSUBAKI","perfecture_jp":"山梨県","jp_add_1":"南都留郡道志村","jp_add_2":"椿"},"4020218":{"post_code":"4020218","prefecture":"YAMANASHI KEN","city":"MINAMITSURU GUN DOSHI MURA","town":"NAKAKANJI","perfecture_jp":"山梨県","jp_add_1":"南都留郡道志村","jp_add_2":"中神地"},"4020228":{"post_code":"4020228","prefecture":"YAMANASHI KEN","city":"MINAMITSURU GUN DOSHI MURA","town":"NAGAMATA","perfecture_jp":"山梨県","jp_add_1":"南都留郡道志村","jp_add_2":"長又"},"4020212":{"post_code":"4020212","prefecture":"YAMANASHI KEN","city":"MINAMITSURU GUN DOSHI MURA","town":"NISHIWADEMURA","perfecture_jp":"山梨県","jp_add_1":"南都留郡道志村","jp_add_2":"西和出村"},"4020208":{"post_code":"4020208","prefecture":"YAMANASHI KEN","city":"MINAMITSURU GUN DOSHI MURA","town":"BAMBA","perfecture_jp":"山梨県","jp_add_1":"南都留郡道志村","jp_add_2":"馬場"},"4020217":{"post_code":"4020217","prefecture":"YAMANASHI KEN","city":"MINAMITSURU GUN DOSHI MURA","town":"HIGASHIKANJI","perfecture_jp":"山梨県","jp_add_1":"南都留郡道志村","jp_add_2":"東神地"},"4020211":{"post_code":"4020211","prefecture":"YAMANASHI KEN","city":"MINAMITSURU GUN DOSHI MURA","town":"HIGASHIWADEMURA","perfecture_jp":"山梨県","jp_add_1":"南都留郡道志村","jp_add_2":"東和出村"},"4020213":{"post_code":"4020213","prefecture":"YAMANASHI KEN","city":"MINAMITSURU GUN DOSHI MURA","town":"YASO","perfecture_jp":"山梨県","jp_add_1":"南都留郡道志村","jp_add_2":"谷相"}}