{"4030000":{"post_code":"4030000","prefecture":"YAMANASHI KEN","city":"MINAMITSURU GUN NISHIKATSURA CHO","town":"IKANIKEISAIGANAIBAAI","perfecture_jp":"山梨県","jp_add_1":"富士吉田市","jp_add_2":""},"4030012":{"post_code":"4030012","prefecture":"YAMANASHI KEN","city":"FUJIYOSHIDA SHI","town":"ASAHI","perfecture_jp":"山梨県","jp_add_1":"富士吉田市","jp_add_2":"旭"},"4030011":{"post_code":"4030011","prefecture":"YAMANASHI KEN","city":"FUJIYOSHIDA SHI","town":"ARAKURA","perfecture_jp":"山梨県","jp_add_1":"富士吉田市","jp_add_2":"新倉"},"4030006":{"post_code":"4030006","prefecture":"YAMANASHI KEN","city":"FUJIYOSHIDA SHI","town":"ARAYA","perfecture_jp":"山梨県","jp_add_1":"富士吉田市","jp_add_2":"新屋"},"4030003":{"post_code":"4030003","prefecture":"YAMANASHI KEN","city":"FUJIYOSHIDA SHI","town":"OASUMI","perfecture_jp":"山梨県","jp_add_1":"富士吉田市","jp_add_2":"大明見"},"4030001":{"post_code":"4030001","prefecture":"YAMANASHI KEN","city":"FUJIYOSHIDA SHI","town":"KAMIKURECHI","perfecture_jp":"山梨県","jp_add_1":"富士吉田市","jp_add_2":"上暮地"},"4030005":{"post_code":"4030005","prefecture":"YAMANASHI KEN","city":"FUJIYOSHIDA SHI","town":"KAMIYOSHIDA","perfecture_jp":"山梨県","jp_add_1":"富士吉田市","jp_add_2":"上吉田"},"4030002":{"post_code":"4030002","prefecture":"YAMANASHI KEN","city":"FUJIYOSHIDA SHI","town":"KOASUMI","perfecture_jp":"山梨県","jp_add_1":"富士吉田市","jp_add_2":"小明見"},"4030004":{"post_code":"4030004","prefecture":"YAMANASHI KEN","city":"FUJIYOSHIDA SHI","town":"SHIMOYOSHIDA","perfecture_jp":"山梨県","jp_add_1":"富士吉田市","jp_add_2":"下吉田"},"4030008":{"post_code":"4030008","prefecture":"YAMANASHI KEN","city":"FUJIYOSHIDA SHI","town":"SHIMOYOSHIDAHIGASHI","perfecture_jp":"山梨県","jp_add_1":"富士吉田市","jp_add_2":"下吉田東"},"4030017":{"post_code":"4030017","prefecture":"YAMANASHI KEN","city":"FUJIYOSHIDA SHI","town":"SHINNISHIHARA","perfecture_jp":"山梨県","jp_add_1":"富士吉田市","jp_add_2":"新西原"},"4030014":{"post_code":"4030014","prefecture":"YAMANASHI KEN","city":"FUJIYOSHIDA SHI","town":"TATSUGAOKA","perfecture_jp":"山梨県","jp_add_1":"富士吉田市","jp_add_2":"竜ケ丘"},"4030015":{"post_code":"4030015","prefecture":"YAMANASHI KEN","city":"FUJIYOSHIDA SHI","town":"TOKIWADAI","perfecture_jp":"山梨県","jp_add_1":"富士吉田市","jp_add_2":"ときわ台"},"4030007":{"post_code":"4030007","prefecture":"YAMANASHI KEN","city":"FUJIYOSHIDA SHI","town":"NAKAZONE","perfecture_jp":"山梨県","jp_add_1":"富士吉田市","jp_add_2":"中曽根"},"4030009":{"post_code":"4030009","prefecture":"YAMANASHI KEN","city":"FUJIYOSHIDA SHI","town":"FUJIMI","perfecture_jp":"山梨県","jp_add_1":"富士吉田市","jp_add_2":"富士見"},"4030016":{"post_code":"4030016","prefecture":"YAMANASHI KEN","city":"FUJIYOSHIDA SHI","town":"MATSUYAMA","perfecture_jp":"山梨県","jp_add_1":"富士吉田市","jp_add_2":"松山"},"4030013":{"post_code":"4030013","prefecture":"YAMANASHI KEN","city":"FUJIYOSHIDA SHI","town":"MIDORIGAOKA","perfecture_jp":"山梨県","jp_add_1":"富士吉田市","jp_add_2":"緑ケ丘"},"4030022":{"post_code":"4030022","prefecture":"YAMANASHI KEN","city":"MINAMITSURU GUN NISHIKATSURA CHO","town":"ONUMA","perfecture_jp":"山梨県","jp_add_1":"南都留郡西桂町","jp_add_2":"小沼"},"4030023":{"post_code":"4030023","prefecture":"YAMANASHI KEN","city":"MINAMITSURU GUN NISHIKATSURA CHO","town":"KURAMI","perfecture_jp":"山梨県","jp_add_1":"南都留郡西桂町","jp_add_2":"倉見"},"4030021":{"post_code":"4030021","prefecture":"YAMANASHI KEN","city":"MINAMITSURU GUN NISHIKATSURA CHO","town":"SHIMOKURECHI","perfecture_jp":"山梨県","jp_add_1":"南都留郡西桂町","jp_add_2":"下暮地"}}