{"4040007":{"post_code":"4040007","prefecture":"YAMANASHI KEN","city":"YAMANASHI SHI","town":"MAKIOKACHO KITABARA","perfecture_jp":"山梨県","jp_add_1":"山梨市","jp_add_2":"牧丘町北原"},"4040013":{"post_code":"4040013","prefecture":"YAMANASHI KEN","city":"YAMANASHI SHI","town":"MAKIOKACHO KUBODAIRA","perfecture_jp":"山梨県","jp_add_1":"山梨市","jp_add_2":"牧丘町窪平"},"4040003":{"post_code":"4040003","prefecture":"YAMANASHI KEN","city":"YAMANASHI SHI","town":"MAKIOKACHO KURASHINA","perfecture_jp":"山梨県","jp_add_1":"山梨市","jp_add_2":"牧丘町倉科"},"4040015":{"post_code":"4040015","prefecture":"YAMANASHI KEN","city":"YAMANASHI SHI","town":"MAKIOKACHO JOKOJI","perfecture_jp":"山梨県","jp_add_1":"山梨市","jp_add_2":"牧丘町城古寺"},"4040002":{"post_code":"4040002","prefecture":"YAMANASHI KEN","city":"YAMANASHI SHI","town":"MAKIOKACHO SOMAGUCHI","perfecture_jp":"山梨県","jp_add_1":"山梨市","jp_add_2":"牧丘町杣口"},"4040016":{"post_code":"4040016","prefecture":"YAMANASHI KEN","city":"YAMANASHI SHI","town":"MAKIOKACHO CHINONOMIYA","perfecture_jp":"山梨県","jp_add_1":"山梨市","jp_add_2":"牧丘町千野々宮"},"4040011":{"post_code":"4040011","prefecture":"YAMANASHI KEN","city":"YAMANASHI SHI","town":"MAKIOKACHO NARUSAWA","perfecture_jp":"山梨県","jp_add_1":"山梨市","jp_add_2":"牧丘町成沢"},"4040004":{"post_code":"4040004","prefecture":"YAMANASHI KEN","city":"YAMANASHI SHI","town":"MAKIOKACHO NISHIHOSHIMO","perfecture_jp":"山梨県","jp_add_1":"山梨市","jp_add_2":"牧丘町西保下"},"4040005":{"post_code":"4040005","prefecture":"YAMANASHI KEN","city":"YAMANASHI SHI","town":"MAKIOKACHO NISHIHONAKA","perfecture_jp":"山梨県","jp_add_1":"山梨市","jp_add_2":"牧丘町西保中"},"4040014":{"post_code":"4040014","prefecture":"YAMANASHI KEN","city":"YAMANASHI SHI","town":"MAKIOKACHO HAYABUSA","perfecture_jp":"山梨県","jp_add_1":"山梨市","jp_add_2":"牧丘町隼"},"4040006":{"post_code":"4040006","prefecture":"YAMANASHI KEN","city":"YAMANASHI SHI","town":"MAKIOKACHO MAKIDAIRA","perfecture_jp":"山梨県","jp_add_1":"山梨市","jp_add_2":"牧丘町牧平"},"4040012":{"post_code":"4040012","prefecture":"YAMANASHI KEN","city":"YAMANASHI SHI","town":"MAKIOKACHO MUROFUSHI","perfecture_jp":"山梨県","jp_add_1":"山梨市","jp_add_2":"牧丘町室伏"},"4040001":{"post_code":"4040001","prefecture":"YAMANASHI KEN","city":"YAMANASHI SHI","town":"MAKIOKACHO YANAGIDAIRA","perfecture_jp":"山梨県","jp_add_1":"山梨市","jp_add_2":"牧丘町柳平"},"4040206":{"post_code":"4040206","prefecture":"YAMANASHI KEN","city":"YAMANASHI SHI","town":"MITOMI KAMIKAMAKUCHI","perfecture_jp":"山梨県","jp_add_1":"山梨市","jp_add_2":"三富上釜口"},"4040202":{"post_code":"4040202","prefecture":"YAMANASHI KEN","city":"YAMANASHI SHI","town":"MITOMI KAMIYUNOKI","perfecture_jp":"山梨県","jp_add_1":"山梨市","jp_add_2":"三富上柚木"},"4040201":{"post_code":"4040201","prefecture":"YAMANASHI KEN","city":"YAMANASHI SHI","town":"MITOMI KAWAURA","perfecture_jp":"山梨県","jp_add_1":"山梨市","jp_add_2":"三富川浦"},"4040203":{"post_code":"4040203","prefecture":"YAMANASHI KEN","city":"YAMANASHI SHI","town":"MITOMI SHIMOGIHARA","perfecture_jp":"山梨県","jp_add_1":"山梨市","jp_add_2":"三富下荻原"},"4040204":{"post_code":"4040204","prefecture":"YAMANASHI KEN","city":"YAMANASHI SHI","town":"MITOMI SHIMOKAMAKUCHI","perfecture_jp":"山梨県","jp_add_1":"山梨市","jp_add_2":"三富下釜口"},"4040205":{"post_code":"4040205","prefecture":"YAMANASHI KEN","city":"YAMANASHI SHI","town":"MITOMI TOKUWA","perfecture_jp":"山梨県","jp_add_1":"山梨市","jp_add_2":"三富徳和"},"4040000":{"post_code":"4040000","prefecture":"YAMANASHI KEN","city":"KOSHU SHI","town":"IKANIKEISAIGANAIBAAI","perfecture_jp":"山梨県","jp_add_1":"甲州市","jp_add_2":""},"4040033":{"post_code":"4040033","prefecture":"YAMANASHI KEN","city":"KOSHU SHI","town":"ENZAN AKAO","perfecture_jp":"山梨県","jp_add_1":"甲州市","jp_add_2":"塩山赤尾"},"4040021":{"post_code":"4040021","prefecture":"YAMANASHI KEN","city":"KOSHU SHI","town":"ENZAN ICHINOSETAKAHASHI","perfecture_jp":"山梨県","jp_add_1":"甲州市","jp_add_2":"塩山一之瀬高橋"},"4040034":{"post_code":"4040034","prefecture":"YAMANASHI KEN","city":"KOSHU SHI","town":"ENZAN USHIOKU(SONOTA)","perfecture_jp":"山梨県","jp_add_1":"甲州市","jp_add_2":"塩山牛奥"},"4040211":{"post_code":"4040211","prefecture":"YAMANASHI KEN","city":"KOSHU SHI","town":"ENZAN OYASHIKI(NAMEZAWA)","perfecture_jp":"山梨県","jp_add_1":"甲州市","jp_add_2":"塩山小屋敷"},"4040053":{"post_code":"4040053","prefecture":"YAMANASHI KEN","city":"KOSHU SHI","town":"ENZAN OYASHIKI(SONOTA)","perfecture_jp":"山梨県","jp_add_1":"甲州市","jp_add_2":"塩山小屋敷"},"4040031":{"post_code":"4040031","prefecture":"YAMANASHI KEN","city":"KOSHU SHI","town":"ENZAN KAMIAONO","perfecture_jp":"山梨県","jp_add_1":"甲州市","jp_add_2":"塩山上粟生野"},"4040046":{"post_code":"4040046","prefecture":"YAMANASHI KEN","city":"KOSHU SHI","town":"ENZAN KAMIIJIRI","perfecture_jp":"山梨県","jp_add_1":"甲州市","jp_add_2":"塩山上井尻"},"4040042":{"post_code":"4040042","prefecture":"YAMANASHI KEN","city":"KOSHU SHI","town":"ENZAN KAMIOZO","perfecture_jp":"山梨県","jp_add_1":"甲州市","jp_add_2":"塩山上於曽"},"4040026":{"post_code":"4040026","prefecture":"YAMANASHI KEN","city":"KOSHU SHI","town":"ENZAN KAMIODAWARA","perfecture_jp":"山梨県","jp_add_1":"甲州市","jp_add_2":"塩山上小田原"},"4040045":{"post_code":"4040045","prefecture":"YAMANASHI KEN","city":"KOSHU SHI","town":"ENZAN KAMISHIOGO","perfecture_jp":"山梨県","jp_add_1":"甲州市","jp_add_2":"塩山上塩後"},"4040022":{"post_code":"4040022","prefecture":"YAMANASHI KEN","city":"KOSHU SHI","town":"ENZAN KAMIHAGIHARA(SONOTA)","perfecture_jp":"山梨県","jp_add_1":"甲州市","jp_add_2":"塩山上萩原"},"4040037":{"post_code":"4040037","prefecture":"YAMANASHI KEN","city":"KOSHU SHI","town":"ENZAN KAWADA","perfecture_jp":"山梨県","jp_add_1":"甲州市","jp_add_2":"塩山西広門田"},"4040036":{"post_code":"4040036","prefecture":"YAMANASHI KEN","city":"KOSHU SHI","town":"ENZAN KUMANO","perfecture_jp":"山梨県","jp_add_1":"甲州市","jp_add_2":"塩山熊野"},"4040032":{"post_code":"4040032","prefecture":"YAMANASHI KEN","city":"KOSHU SHI","town":"ENZAN SHIMOAONO","perfecture_jp":"山梨県","jp_add_1":"甲州市","jp_add_2":"塩山下粟生野"},"4040043":{"post_code":"4040043","prefecture":"YAMANASHI KEN","city":"KOSHU SHI","town":"ENZAN SHIMOZO","perfecture_jp":"山梨県","jp_add_1":"甲州市","jp_add_2":"塩山下於曽"},"4040025":{"post_code":"4040025","prefecture":"YAMANASHI KEN","city":"KOSHU SHI","town":"ENZAN SHIMODAWARA","perfecture_jp":"山梨県","jp_add_1":"甲州市","jp_add_2":"塩山下小田原"},"4040044":{"post_code":"4040044","prefecture":"YAMANASHI KEN","city":"KOSHU SHI","town":"ENZAN SHIMOSHIOGO","perfecture_jp":"山梨県","jp_add_1":"甲州市","jp_add_2":"塩山下塩後"},"4040024":{"post_code":"4040024","prefecture":"YAMANASHI KEN","city":"KOSHU SHI","town":"ENZAN SHIMOHAGIHARA","perfecture_jp":"山梨県","jp_add_1":"甲州市","jp_add_2":"塩山下萩原"},"4040055":{"post_code":"4040055","prefecture":"YAMANASHI KEN","city":"KOSHU SHI","town":"ENZAN SHIMOYUNOKI","perfecture_jp":"山梨県","jp_add_1":"甲州市","jp_add_2":"塩山下柚木"},"4040051":{"post_code":"4040051","prefecture":"YAMANASHI KEN","city":"KOSHU SHI","town":"ENZAN TAKEMORI","perfecture_jp":"山梨県","jp_add_1":"甲州市","jp_add_2":"塩山竹森"},"4040041":{"post_code":"4040041","prefecture":"YAMANASHI KEN","city":"KOSHU SHI","town":"ENZAN CHINO","perfecture_jp":"山梨県","jp_add_1":"甲州市","jp_add_2":"塩山千野"},"4040023":{"post_code":"4040023","prefecture":"YAMANASHI KEN","city":"KOSHU SHI","town":"ENZAN NAKAHAGIHARA(SONOTA)","perfecture_jp":"山梨県","jp_add_1":"甲州市","jp_add_2":"塩山中萩原"},"4040035":{"post_code":"4040035","prefecture":"YAMANASHI KEN","city":"KOSHU SHI","town":"ENZAN NISHINOHARA","perfecture_jp":"山梨県","jp_add_1":"甲州市","jp_add_2":"塩山西野原"},"4040052":{"post_code":"4040052","prefecture":"YAMANASHI KEN","city":"KOSHU SHI","town":"ENZAN HIRASAWA","perfecture_jp":"山梨県","jp_add_1":"甲州市","jp_add_2":"塩山平沢"},"4040056":{"post_code":"4040056","prefecture":"YAMANASHI KEN","city":"KOSHU SHI","town":"ENZAN FUKUORI","perfecture_jp":"山梨県","jp_add_1":"甲州市","jp_add_2":"塩山福生里"},"4040054":{"post_code":"4040054","prefecture":"YAMANASHI KEN","city":"KOSHU SHI","town":"ENZAN FUJIKI","perfecture_jp":"山梨県","jp_add_1":"甲州市","jp_add_2":"塩山藤木"},"4040047":{"post_code":"4040047","prefecture":"YAMANASHI KEN","city":"KOSHU SHI","town":"ENZAN MIKKAICHIBA","perfecture_jp":"山梨県","jp_add_1":"甲州市","jp_add_2":"塩山三日市場"}}