{"4093711":{"post_code":"4093711","prefecture":"YAMANASHI KEN","city":"KOFU SHI","town":"KAKEHASHIMACHI","perfecture_jp":"山梨県","jp_add_1":"甲府市","jp_add_2":"梯町"},"4093712":{"post_code":"4093712","prefecture":"YAMANASHI KEN","city":"KOFU SHI","town":"FURUSEKIMACHI","perfecture_jp":"山梨県","jp_add_1":"甲府市","jp_add_2":"古関町"},"4090615":{"post_code":"4090615","prefecture":"YAMANASHI KEN","city":"OTSUKI SHI","town":"SARUHASHIMACHI ASAHIOZAWA","perfecture_jp":"山梨県","jp_add_1":"大月市","jp_add_2":"猿橋町朝日小沢"},"4090613":{"post_code":"4090613","prefecture":"YAMANASHI KEN","city":"OTSUKI SHI","town":"SARUHASHIMACHI IRABARA","perfecture_jp":"山梨県","jp_add_1":"大月市","jp_add_2":"猿橋町伊良原"},"4090616":{"post_code":"4090616","prefecture":"YAMANASHI KEN","city":"OTSUKI SHI","town":"SARUHASHIMACHI OZAWA","perfecture_jp":"山梨県","jp_add_1":"大月市","jp_add_2":"猿橋町小沢"},"4090611":{"post_code":"4090611","prefecture":"YAMANASHI KEN","city":"OTSUKI SHI","town":"SARUHASHIMACHI OSHINO","perfecture_jp":"山梨県","jp_add_1":"大月市","jp_add_2":"猿橋町小篠"},"4090618":{"post_code":"4090618","prefecture":"YAMANASHI KEN","city":"OTSUKI SHI","town":"SARUHASHIMACHI KATSURADAI","perfecture_jp":"山梨県","jp_add_1":"大月市","jp_add_2":"猿橋町桂台"},"4090614":{"post_code":"4090614","prefecture":"YAMANASHI KEN","city":"OTSUKI SHI","town":"SARUHASHIMACHI SARUHASHI","perfecture_jp":"山梨県","jp_add_1":"大月市","jp_add_2":"猿橋町猿橋"},"4090617":{"post_code":"4090617","prefecture":"YAMANASHI KEN","city":"OTSUKI SHI","town":"SARUHASHIMACHI TONOE","perfecture_jp":"山梨県","jp_add_1":"大月市","jp_add_2":"猿橋町殿上"},"4090612":{"post_code":"4090612","prefecture":"YAMANASHI KEN","city":"OTSUKI SHI","town":"SARUHASHIMACHI FUJISAKI","perfecture_jp":"山梨県","jp_add_1":"大月市","jp_add_2":"猿橋町藤崎"},"4090502":{"post_code":"4090502","prefecture":"YAMANASHI KEN","city":"OTSUKI SHI","town":"TOMIHAMAMACHI TORISAWA","perfecture_jp":"山梨県","jp_add_1":"大月市","jp_add_2":"富浜町鳥沢"},"4090501":{"post_code":"4090501","prefecture":"YAMANASHI KEN","city":"OTSUKI SHI","town":"TOMIHAMAMACHI MIYATANI","perfecture_jp":"山梨県","jp_add_1":"大月市","jp_add_2":"富浜町宮谷"},"4090621":{"post_code":"4090621","prefecture":"YAMANASHI KEN","city":"OTSUKI SHI","town":"NANAHOMACHI ASAKAWA","perfecture_jp":"山梨県","jp_add_1":"大月市","jp_add_2":"七保町浅川"},"4090623":{"post_code":"4090623","prefecture":"YAMANASHI KEN","city":"OTSUKI SHI","town":"NANAHOMACHI KAZUNO","perfecture_jp":"山梨県","jp_add_1":"大月市","jp_add_2":"七保町葛野"},"4090627":{"post_code":"4090627","prefecture":"YAMANASHI KEN","city":"OTSUKI SHI","town":"NANAHOMACHI KOMAMIYA","perfecture_jp":"山梨県","jp_add_1":"大月市","jp_add_2":"七保町駒宮"},"4090622":{"post_code":"4090622","prefecture":"YAMANASHI KEN","city":"OTSUKI SHI","town":"NANAHOMACHI SHIMOWADA","perfecture_jp":"山梨県","jp_add_1":"大月市","jp_add_2":"七保町下和田"},"4090626":{"post_code":"4090626","prefecture":"YAMANASHI KEN","city":"OTSUKI SHI","town":"NANAHOMACHI SETO","perfecture_jp":"山梨県","jp_add_1":"大月市","jp_add_2":"七保町瀬戸"},"4090625":{"post_code":"4090625","prefecture":"YAMANASHI KEN","city":"OTSUKI SHI","town":"NANAHOMACHI NARAGO","perfecture_jp":"山梨県","jp_add_1":"大月市","jp_add_2":"七保町奈良子"},"4090624":{"post_code":"4090624","prefecture":"YAMANASHI KEN","city":"OTSUKI SHI","town":"NANAHOMACHI HAYASHI","perfecture_jp":"山梨県","jp_add_1":"大月市","jp_add_2":"七保町林"},"4090504":{"post_code":"4090504","prefecture":"YAMANASHI KEN","city":"OTSUKI SHI","town":"YANAGAWAMACHI ARAKURA","perfecture_jp":"山梨県","jp_add_1":"大月市","jp_add_2":"梁川町新倉"},"4090505":{"post_code":"4090505","prefecture":"YAMANASHI KEN","city":"OTSUKI SHI","town":"YANAGAWAMACHI SHIOZE","perfecture_jp":"山梨県","jp_add_1":"大月市","jp_add_2":"梁川町塩瀬"},"4090506":{"post_code":"4090506","prefecture":"YAMANASHI KEN","city":"OTSUKI SHI","town":"YANAGAWAMACHI TACHINO","perfecture_jp":"山梨県","jp_add_1":"大月市","jp_add_2":"梁川町立野"},"4090503":{"post_code":"4090503","prefecture":"YAMANASHI KEN","city":"OTSUKI SHI","town":"YANAGAWAMACHI TSUNANOE","perfecture_jp":"山梨県","jp_add_1":"大月市","jp_add_2":"梁川町綱の上"},"4091501":{"post_code":"4091501","prefecture":"YAMANASHI KEN","city":"HOKUTO SHI","town":"OIZUMICHO NISHIIDE(SONOTA)","perfecture_jp":"山梨県","jp_add_1":"北杜市","jp_add_2":"大泉町西井出"},"4091502":{"post_code":"4091502","prefecture":"YAMANASHI KEN","city":"HOKUTO SHI","town":"OIZUMICHO YATO","perfecture_jp":"山梨県","jp_add_1":"北杜市","jp_add_2":"大泉町谷戸"},"4093702":{"post_code":"4093702","prefecture":"YAMANASHI KEN","city":"FUEFUKI SHI","town":"ASHIGAWACHO ARAIBARA","perfecture_jp":"山梨県","jp_add_1":"笛吹市","jp_add_2":"芦川町新井原"},"4093704":{"post_code":"4093704","prefecture":"YAMANASHI KEN","city":"FUEFUKI SHI","town":"ASHIGAWACHO OSHUKU","perfecture_jp":"山梨県","jp_add_1":"笛吹市","jp_add_2":"芦川町鶯宿"},"4093701":{"post_code":"4093701","prefecture":"YAMANASHI KEN","city":"FUEFUKI SHI","town":"ASHIGAWACHO KAMIASHIGAWA","perfecture_jp":"山梨県","jp_add_1":"笛吹市","jp_add_2":"芦川町上芦川"},"4093703":{"post_code":"4093703","prefecture":"YAMANASHI KEN","city":"FUEFUKI SHI","town":"ASHIGAWACHO NAKAASHIGAWA","perfecture_jp":"山梨県","jp_add_1":"笛吹市","jp_add_2":"芦川町中芦川"},"4090100":{"post_code":"4090100","prefecture":"YAMANASHI KEN","city":"UENOHARA SHI","town":"IKANIKEISAIGANAIBAAI","perfecture_jp":"山梨県","jp_add_1":"上野原市","jp_add_2":""},"4090135":{"post_code":"4090135","prefecture":"YAMANASHI KEN","city":"UENOHARA SHI","town":"ASHIGAKI","perfecture_jp":"山梨県","jp_add_1":"上野原市","jp_add_2":"芦垣"},"4090113":{"post_code":"4090113","prefecture":"YAMANASHI KEN","city":"UENOHARA SHI","town":"ARATA","perfecture_jp":"山梨県","jp_add_1":"上野原市","jp_add_2":"新田"},"4090124":{"post_code":"4090124","prefecture":"YAMANASHI KEN","city":"UENOHARA SHI","town":"INUME","perfecture_jp":"山梨県","jp_add_1":"上野原市","jp_add_2":"犬目"},"4090112":{"post_code":"4090112","prefecture":"YAMANASHI KEN","city":"UENOHARA SHI","town":"UENOHARA","perfecture_jp":"山梨県","jp_add_1":"上野原市","jp_add_2":"上野原"},"4090134":{"post_code":"4090134","prefecture":"YAMANASHI KEN","city":"UENOHARA SHI","town":"OKUNUGI","perfecture_jp":"山梨県","jp_add_1":"上野原市","jp_add_2":"大椚"},"4090138":{"post_code":"4090138","prefecture":"YAMANASHI KEN","city":"UENOHARA SHI","town":"OKURA","perfecture_jp":"山梨県","jp_add_1":"上野原市","jp_add_2":"大倉"},"4090131":{"post_code":"4090131","prefecture":"YAMANASHI KEN","city":"UENOHARA SHI","town":"OZONE","perfecture_jp":"山梨県","jp_add_1":"上野原市","jp_add_2":"大曽根"},"4090123":{"post_code":"4090123","prefecture":"YAMANASHI KEN","city":"UENOHARA SHI","town":"ONO","perfecture_jp":"山梨県","jp_add_1":"上野原市","jp_add_2":"大野"},"4090122":{"post_code":"4090122","prefecture":"YAMANASHI KEN","city":"UENOHARA SHI","town":"KAWAI","perfecture_jp":"山梨県","jp_add_1":"上野原市","jp_add_2":"川合"},"4090136":{"post_code":"4090136","prefecture":"YAMANASHI KEN","city":"UENOHARA SHI","town":"KUWAKUBO","perfecture_jp":"山梨県","jp_add_1":"上野原市","jp_add_2":"桑久保"},"4090126":{"post_code":"4090126","prefecture":"YAMANASHI KEN","city":"UENOHARA SHI","town":"KOMOASHIOTSU","perfecture_jp":"山梨県","jp_add_1":"上野原市","jp_add_2":"コモアしおつ"},"4090141":{"post_code":"4090141","prefecture":"YAMANASHI KEN","city":"UENOHARA SHI","town":"SAIHARA","perfecture_jp":"山梨県","jp_add_1":"上野原市","jp_add_2":"西原"},"4090121":{"post_code":"4090121","prefecture":"YAMANASHI KEN","city":"UENOHARA SHI","town":"SHIOTSU","perfecture_jp":"山梨県","jp_add_1":"上野原市","jp_add_2":"四方津"},"4090132":{"post_code":"4090132","prefecture":"YAMANASHI KEN","city":"UENOHARA SHI","town":"TSURUGAWA","perfecture_jp":"山梨県","jp_add_1":"上野原市","jp_add_2":"鶴川"},"4090114":{"post_code":"4090114","prefecture":"YAMANASHI KEN","city":"UENOHARA SHI","town":"TSURUSHIMA","perfecture_jp":"山梨県","jp_add_1":"上野原市","jp_add_2":"鶴島"},"4090125":{"post_code":"4090125","prefecture":"YAMANASHI KEN","city":"UENOHARA SHI","town":"NOTAJIRI","perfecture_jp":"山梨県","jp_add_1":"上野原市","jp_add_2":"野田尻"},"4090115":{"post_code":"4090115","prefecture":"YAMANASHI KEN","city":"UENOHARA SHI","town":"MATSUDOME","perfecture_jp":"山梨県","jp_add_1":"上野原市","jp_add_2":"松留"},"4090133":{"post_code":"4090133","prefecture":"YAMANASHI KEN","city":"UENOHARA SHI","town":"YATSUSAWA","perfecture_jp":"山梨県","jp_add_1":"上野原市","jp_add_2":"八ツ沢"},"4090111":{"post_code":"4090111","prefecture":"YAMANASHI KEN","city":"UENOHARA SHI","town":"YUZURIHARA","perfecture_jp":"山梨県","jp_add_1":"上野原市","jp_add_2":"棡原"},"4090137":{"post_code":"4090137","prefecture":"YAMANASHI KEN","city":"UENOHARA SHI","town":"WAMI","perfecture_jp":"山梨県","jp_add_1":"上野原市","jp_add_2":"和見"},"4091213":{"post_code":"4091213","prefecture":"YAMANASHI KEN","city":"KOSHU SHI","town":"ENZAN USHIOKU(5532-5550.OKUNOTAKAIT","perfecture_jp":"山梨県","jp_add_1":"甲州市","jp_add_2":"塩山牛奥"},"4091321":{"post_code":"4091321","prefecture":"YAMANASHI KEN","city":"KOSHU SHI","town":"-2.5289-15)","perfecture_jp":"山梨県","jp_add_1":"甲州市","jp_add_2":"塩山牛奥"},"4091211":{"post_code":"4091211","prefecture":"YAMANASHI KEN","city":"KOSHU SHI","town":"ENZAN KAMIHAGIHARA(4051.4783.4784.S","perfecture_jp":"山梨県","jp_add_1":"甲州市","jp_add_2":"塩山上萩原"},"4091212":{"post_code":"4091212","prefecture":"YAMANASHI KEN","city":"KOSHU SHI","town":"ENZAN NAKAHAGIHARA(HIKAWAKOYA)","perfecture_jp":"山梨県","jp_add_1":"甲州市","jp_add_2":"塩山中萩原"},"4091303":{"post_code":"4091303","prefecture":"YAMANASHI KEN","city":"KOSHU SHI","town":"KATSUNUMACHO OSADE","perfecture_jp":"山梨県","jp_add_1":"甲州市","jp_add_2":"勝沼町小佐手"},"4091316":{"post_code":"4091316","prefecture":"YAMANASHI KEN","city":"KOSHU SHI","town":"KATSUNUMACHO KATSUNUMA","perfecture_jp":"山梨県","jp_add_1":"甲州市","jp_add_2":"勝沼町勝沼"},"4091312":{"post_code":"4091312","prefecture":"YAMANASHI KEN","city":"KOSHU SHI","town":"KATSUNUMACHO KAMIIWASAKI","perfecture_jp":"山梨県","jp_add_1":"甲州市","jp_add_2":"勝沼町上岩崎"},"4091304":{"post_code":"4091304","prefecture":"YAMANASHI KEN","city":"KOSHU SHI","town":"KATSUNUMACHO KYUSOKU","perfecture_jp":"山梨県","jp_add_1":"甲州市","jp_add_2":"勝沼町休息"},"4091313":{"post_code":"4091313","prefecture":"YAMANASHI KEN","city":"KOSHU SHI","town":"KATSUNUMACHO SHIMOIWASAKI","perfecture_jp":"山梨県","jp_add_1":"甲州市","jp_add_2":"勝沼町下岩崎"},"4091315":{"post_code":"4091315","prefecture":"YAMANASHI KEN","city":"KOSHU SHI","town":"KATSUNUMACHO TODOROKI","perfecture_jp":"山梨県","jp_add_1":"甲州市","jp_add_2":"勝沼町等々力"},"4091301":{"post_code":"4091301","prefecture":"YAMANASHI KEN","city":"KOSHU SHI","town":"KATSUNUMACHO NAKAHARA","perfecture_jp":"山梨県","jp_add_1":"甲州市","jp_add_2":"勝沼町中原"},"4091302":{"post_code":"4091302","prefecture":"YAMANASHI KEN","city":"KOSHU SHI","town":"KATSUNUMACHO HISHIYAMA","perfecture_jp":"山梨県","jp_add_1":"甲州市","jp_add_2":"勝沼町菱山"},"4091311":{"post_code":"4091311","prefecture":"YAMANASHI KEN","city":"KOSHU SHI","town":"KATSUNUMACHO FUKASAWA","perfecture_jp":"山梨県","jp_add_1":"甲州市","jp_add_2":"勝沼町深沢"},"4091314":{"post_code":"4091314","prefecture":"YAMANASHI KEN","city":"KOSHU SHI","town":"KATSUNUMACHO FUJII","perfecture_jp":"山梨県","jp_add_1":"甲州市","jp_add_2":"勝沼町藤井"},"4091306":{"post_code":"4091306","prefecture":"YAMANASHI KEN","city":"KOSHU SHI","town":"KATSUNUMACHO YAMA","perfecture_jp":"山梨県","jp_add_1":"甲州市","jp_add_2":"勝沼町山"},"4091305":{"post_code":"4091305","prefecture":"YAMANASHI KEN","city":"KOSHU SHI","town":"KATSUNUMACHO WATAZUKA","perfecture_jp":"山梨県","jp_add_1":"甲州市","jp_add_2":"勝沼町綿塚"},"4091202":{"post_code":"4091202","prefecture":"YAMANASHI KEN","city":"KOSHU SHI","town":"YAMATOCHO TANO","perfecture_jp":"山梨県","jp_add_1":"甲州市","jp_add_2":"大和町田野"},"4091205":{"post_code":"4091205","prefecture":"YAMANASHI KEN","city":"KOSHU SHI","town":"YAMATOCHO TSURUSE","perfecture_jp":"山梨県","jp_add_1":"甲州市","jp_add_2":"大和町鶴瀬"},"4091201":{"post_code":"4091201","prefecture":"YAMANASHI KEN","city":"KOSHU SHI","town":"YAMATOCHO TOKUSA","perfecture_jp":"山梨県","jp_add_1":"甲州市","jp_add_2":"大和町木賊"},"4091203":{"post_code":"4091203","prefecture":"YAMANASHI KEN","city":"KOSHU SHI","town":"YAMATOCHO HAJIKANO","perfecture_jp":"山梨県","jp_add_1":"甲州市","jp_add_2":"大和町初鹿野"},"4091204":{"post_code":"4091204","prefecture":"YAMANASHI KEN","city":"KOSHU SHI","town":"YAMATOCHO HIKAGE","perfecture_jp":"山梨県","jp_add_1":"甲州市","jp_add_2":"大和町日影"},"4093800":{"post_code":"4093800","prefecture":"YAMANASHI KEN","city":"NAKAKOMA GUN SHOWA CHO","town":"IKANIKEISAIGANAIBAAI","perfecture_jp":"山梨県","jp_add_1":"中央市","jp_add_2":""},"4093813":{"post_code":"4093813","prefecture":"YAMANASHI KEN","city":"CHUO SHI","town":"ITCHOHATA","perfecture_jp":"山梨県","jp_add_1":"中央市","jp_add_2":"一町畑"},"4093804":{"post_code":"4093804","prefecture":"YAMANASHI KEN","city":"CHUO SHI","town":"INOKUCHI","perfecture_jp":"山梨県","jp_add_1":"中央市","jp_add_2":"井之口"},"4093834":{"post_code":"4093834","prefecture":"YAMANASHI KEN","city":"CHUO SHI","town":"IMAFUKU","perfecture_jp":"山梨県","jp_add_1":"中央市","jp_add_2":"今福"},"4093835":{"post_code":"4093835","prefecture":"YAMANASHI KEN","city":"CHUO SHI","town":"IMAFUKUSHINDEN","perfecture_jp":"山梨県","jp_add_1":"中央市","jp_add_2":"今福新田"},"4093844":{"post_code":"4093844","prefecture":"YAMANASHI KEN","city":"CHUO SHI","town":"USUIAWARA","perfecture_jp":"山梨県","jp_add_1":"中央市","jp_add_2":"臼井阿原"},"4093831":{"post_code":"4093831","prefecture":"YAMANASHI KEN","city":"CHUO SHI","town":"ODAWA","perfecture_jp":"山梨県","jp_add_1":"中央市","jp_add_2":"大田和"},"4093812":{"post_code":"4093812","prefecture":"YAMANASHI KEN","city":"CHUO SHI","town":"OTOGURO","perfecture_jp":"山梨県","jp_add_1":"中央市","jp_add_2":"乙黒"},"4093823":{"post_code":"4093823","prefecture":"YAMANASHI KEN","city":"CHUO SHI","town":"KAMISANJO","perfecture_jp":"山梨県","jp_add_1":"中央市","jp_add_2":"上三條"},"4093811":{"post_code":"4093811","prefecture":"YAMANASHI KEN","city":"CHUO SHI","town":"GOKURAKUJI","perfecture_jp":"山梨県","jp_add_1":"中央市","jp_add_2":"極楽寺"},"4093821":{"post_code":"4093821","prefecture":"YAMANASHI KEN","city":"CHUO SHI","town":"SHIMOKATO","perfecture_jp":"山梨県","jp_add_1":"中央市","jp_add_2":"下河東"},"4093822":{"post_code":"4093822","prefecture":"YAMANASHI KEN","city":"CHUO SHI","town":"SHIMOSANJO","perfecture_jp":"山梨県","jp_add_1":"中央市","jp_add_2":"下三條"},"4093801":{"post_code":"4093801","prefecture":"YAMANASHI KEN","city":"CHUO SHI","town":"NAKADATE","perfecture_jp":"山梨県","jp_add_1":"中央市","jp_add_2":"中楯"},"4093815":{"post_code":"4093815","prefecture":"YAMANASHI KEN","city":"CHUO SHI","town":"NARUSHIMA","perfecture_jp":"山梨県","jp_add_1":"中央市","jp_add_2":"成島"},"4093802":{"post_code":"4093802","prefecture":"YAMANASHI KEN","city":"CHUO SHI","town":"NISHIARAI","perfecture_jp":"山梨県","jp_add_1":"中央市","jp_add_2":"西新居"},"4093843":{"post_code":"4093843","prefecture":"YAMANASHI KEN","city":"CHUO SHI","town":"NISHIHANAWA","perfecture_jp":"山梨県","jp_add_1":"中央市","jp_add_2":"西花輪"},"4093842":{"post_code":"4093842","prefecture":"YAMANASHI KEN","city":"CHUO SHI","town":"HIGASHIHANAWA","perfecture_jp":"山梨県","jp_add_1":"中央市","jp_add_2":"東花輪"},"4093833":{"post_code":"4093833","prefecture":"YAMANASHI KEN","city":"CHUO SHI","town":"FUJIMAKI","perfecture_jp":"山梨県","jp_add_1":"中央市","jp_add_2":"藤巻"},"4093841":{"post_code":"4093841","prefecture":"YAMANASHI KEN","city":"CHUO SHI","town":"FUSE","perfecture_jp":"山梨県","jp_add_1":"中央市","jp_add_2":"布施"},"4093832":{"post_code":"4093832","prefecture":"YAMANASHI KEN","city":"CHUO SHI","town":"MAGOME","perfecture_jp":"山梨県","jp_add_1":"中央市","jp_add_2":"馬籠"},"4093814":{"post_code":"4093814","prefecture":"YAMANASHI KEN","city":"CHUO SHI","town":"MACHINOTA","perfecture_jp":"山梨県","jp_add_1":"中央市","jp_add_2":"町之田"},"4093845":{"post_code":"4093845","prefecture":"YAMANASHI KEN","city":"CHUO SHI","town":"YAMANOKAMI","perfecture_jp":"山梨県","jp_add_1":"中央市","jp_add_2":"山之神"},"4093803":{"post_code":"4093803","prefecture":"YAMANASHI KEN","city":"CHUO SHI","town":"WAKAMIYA","perfecture_jp":"山梨県","jp_add_1":"中央市","jp_add_2":"若宮"},"4093600":{"post_code":"4093600","prefecture":"YAMANASHI KEN","city":"NISHIYATSUSHIRO GUN ICHIKAWAMISATO","town":"IKANIKEISAIGANAIBAAI","perfecture_jp":"山梨県","jp_add_1":"西八代郡市川三郷町","jp_add_2":""},"4093601":{"post_code":"4093601","prefecture":"YAMANASHI KEN","city":"NISHIYATSUSHIRO GUN ICHIKAWAMISATO","town":"ICHIKAWADAIMON","perfecture_jp":"山梨県","jp_add_1":"西八代郡市川三郷町","jp_add_2":"市川大門"},"4093234":{"post_code":"4093234","prefecture":"YAMANASHI KEN","city":"NISHIYATSUSHIRO GUN ICHIKAWAMISATO","town":"IWASHITA","perfecture_jp":"山梨県","jp_add_1":"西八代郡市川三郷町","jp_add_2":"岩下"},"4093244":{"post_code":"4093244","prefecture":"YAMANASHI KEN","city":"NISHIYATSUSHIRO GUN ICHIKAWAMISATO","town":"IWAMA","perfecture_jp":"山梨県","jp_add_1":"西八代郡市川三郷町","jp_add_2":"岩間"},"4093607":{"post_code":"4093607","prefecture":"YAMANASHI KEN","city":"NISHIYATSUSHIRO GUN ICHIKAWAMISATO","town":"INZAWA","perfecture_jp":"山梨県","jp_add_1":"西八代郡市川三郷町","jp_add_2":"印沢"},"4093612":{"post_code":"4093612","prefecture":"YAMANASHI KEN","city":"NISHIYATSUSHIRO GUN ICHIKAWAMISATO","town":"UENO","perfecture_jp":"山梨県","jp_add_1":"西八代郡市川三郷町","jp_add_2":"上野"},"4093611":{"post_code":"4093611","prefecture":"YAMANASHI KEN","city":"NISHIYATSUSHIRO GUN ICHIKAWAMISATO","town":"OTSUKA","perfecture_jp":"山梨県","jp_add_1":"西八代郡市川三郷町","jp_add_2":"大塚"},"4093231":{"post_code":"4093231","prefecture":"YAMANASHI KEN","city":"NISHIYATSUSHIRO GUN ICHIKAWAMISATO","town":"OCHII","perfecture_jp":"山梨県","jp_add_1":"西八代郡市川三郷町","jp_add_2":"落居"},"4093243":{"post_code":"4093243","prefecture":"YAMANASHI KEN","city":"NISHIYATSUSHIRO GUN ICHIKAWAMISATO","town":"KAMOGARITSUMUGI","perfecture_jp":"山梨県","jp_add_1":"西八代郡市川三郷町","jp_add_2":"鴨狩津向"},"4093245":{"post_code":"4093245","prefecture":"YAMANASHI KEN","city":"NISHIYATSUSHIRO GUN ICHIKAWAMISATO","town":"KUSUHO","perfecture_jp":"山梨県","jp_add_1":"西八代郡市川三郷町","jp_add_2":"楠甫"},"4093603":{"post_code":"4093603","prefecture":"YAMANASHI KEN","city":"NISHIYATSUSHIRO GUN ICHIKAWAMISATO","town":"KUROZAWA","perfecture_jp":"山梨県","jp_add_1":"西八代郡市川三郷町","jp_add_2":"黒沢"},"4093233":{"post_code":"4093233","prefecture":"YAMANASHI KEN","city":"NISHIYATSUSHIRO GUN ICHIKAWAMISATO","town":"GOHACHI","perfecture_jp":"山梨県","jp_add_1":"西八代郡市川三郷町","jp_add_2":"五八"},"4093622":{"post_code":"4093622","prefecture":"YAMANASHI KEN","city":"NISHIYATSUSHIRO GUN ICHIKAWAMISATO","town":"SANCHO","perfecture_jp":"山梨県","jp_add_1":"西八代郡市川三郷町","jp_add_2":"三帳"},"4093621":{"post_code":"4093621","prefecture":"YAMANASHI KEN","city":"NISHIYATSUSHIRO GUN ICHIKAWAMISATO","town":"SHIMOASHIGAWA","perfecture_jp":"山梨県","jp_add_1":"西八代郡市川三郷町","jp_add_2":"下芦川"},"4093605":{"post_code":"4093605","prefecture":"YAMANASHI KEN","city":"NISHIYATSUSHIRO GUN ICHIKAWAMISATO","town":"SHIMOODORII","perfecture_jp":"山梨県","jp_add_1":"西八代郡市川三郷町","jp_add_2":"下大鳥居"},"4093606":{"post_code":"4093606","prefecture":"YAMANASHI KEN","city":"NISHIYATSUSHIRO GUN ICHIKAWAMISATO","town":"TAKATA","perfecture_jp":"山梨県","jp_add_1":"西八代郡市川三郷町","jp_add_2":"高田"},"4093623":{"post_code":"4093623","prefecture":"YAMANASHI KEN","city":"NISHIYATSUSHIRO GUN ICHIKAWAMISATO","town":"TAKAHAGI","perfecture_jp":"山梨県","jp_add_1":"西八代郡市川三郷町","jp_add_2":"高萩"},"4093241":{"post_code":"4093241","prefecture":"YAMANASHI KEN","city":"NISHIYATSUSHIRO GUN ICHIKAWAMISATO","town":"TSUZURASAWA","perfecture_jp":"山梨県","jp_add_1":"西八代郡市川三郷町","jp_add_2":"葛籠沢"},"4093232":{"post_code":"4093232","prefecture":"YAMANASHI KEN","city":"NISHIYATSUSHIRO GUN ICHIKAWAMISATO","town":"TERADOKO","perfecture_jp":"山梨県","jp_add_1":"西八代郡市川三郷町","jp_add_2":"寺所"},"4093625":{"post_code":"4093625","prefecture":"YAMANASHI KEN","city":"NISHIYATSUSHIRO GUN ICHIKAWAMISATO","town":"NAKAYAMA","perfecture_jp":"山梨県","jp_add_1":"西八代郡市川三郷町","jp_add_2":"中山"},"4093624":{"post_code":"4093624","prefecture":"YAMANASHI KEN","city":"NISHIYATSUSHIRO GUN ICHIKAWAMISATO","town":"NUTA","perfecture_jp":"山梨県","jp_add_1":"西八代郡市川三郷町","jp_add_2":"垈"},"4093626":{"post_code":"4093626","prefecture":"YAMANASHI KEN","city":"NISHIYATSUSHIRO GUN ICHIKAWAMISATO","town":"HATAKUMA","perfecture_jp":"山梨県","jp_add_1":"西八代郡市川三郷町","jp_add_2":"畑熊"},"4093604":{"post_code":"4093604","prefecture":"YAMANASHI KEN","city":"NISHIYATSUSHIRO GUN ICHIKAWAMISATO","town":"HACHINOSHIRI","perfecture_jp":"山梨県","jp_add_1":"西八代郡市川三郷町","jp_add_2":"八之尻"},"4093242":{"post_code":"4093242","prefecture":"YAMANASHI KEN","city":"NISHIYATSUSHIRO GUN ICHIKAWAMISATO","town":"MIYABARA","perfecture_jp":"山梨県","jp_add_1":"西八代郡市川三郷町","jp_add_2":"宮原"},"4093602":{"post_code":"4093602","prefecture":"YAMANASHI KEN","city":"NISHIYATSUSHIRO GUN ICHIKAWAMISATO","town":"YAMAHO","perfecture_jp":"山梨県","jp_add_1":"西八代郡市川三郷町","jp_add_2":"山保"},"4092700":{"post_code":"4092700","prefecture":"YAMANASHI KEN","city":"MINAMIKOMA GUN HAYAKAWA CHO","town":"IKANIKEISAIGANAIBAAI","perfecture_jp":"山梨県","jp_add_1":"南巨摩郡早川町","jp_add_2":""},"4092733":{"post_code":"4092733","prefecture":"YAMANASHI KEN","city":"MINAMIKOMA GUN HAYAKAWA CHO","town":"AKASAWA","perfecture_jp":"山梨県","jp_add_1":"南巨摩郡早川町","jp_add_2":"赤沢"},"4092734":{"post_code":"4092734","prefecture":"YAMANASHI KEN","city":"MINAMIKOMA GUN HAYAKAWA CHO","town":"AMEHATA","perfecture_jp":"山梨県","jp_add_1":"南巨摩郡早川町","jp_add_2":"雨畑"},"4092703":{"post_code":"4092703","prefecture":"YAMANASHI KEN","city":"MINAMIKOMA GUN HAYAKAWA CHO","town":"ARAKURA","perfecture_jp":"山梨県","jp_add_1":"南巨摩郡早川町","jp_add_2":"新倉"},"4092731":{"post_code":"4092731","prefecture":"YAMANASHI KEN","city":"MINAMIKOMA GUN HAYAKAWA CHO","town":"OSHIMA","perfecture_jp":"山梨県","jp_add_1":"南巨摩郡早川町","jp_add_2":"大島"},"4092704":{"post_code":"4092704","prefecture":"YAMANASHI KEN","city":"MINAMIKOMA GUN HAYAKAWA CHO","town":"OHARANO","perfecture_jp":"山梨県","jp_add_1":"南巨摩郡早川町","jp_add_2":"大原野"},"4092715":{"post_code":"4092715","prefecture":"YAMANASHI KEN","city":"MINAMIKOMA GUN HAYAKAWA CHO","town":"KYOGASHIMA","perfecture_jp":"山梨県","jp_add_1":"南巨摩郡早川町","jp_add_2":"京ケ島"},"4092714":{"post_code":"4092714","prefecture":"YAMANASHI KEN","city":"MINAMIKOMA GUN HAYAKAWA CHO","town":"KUSASHIO","perfecture_jp":"山梨県","jp_add_1":"南巨摩郡早川町","jp_add_2":"草塩"},"4092723":{"post_code":"4092723","prefecture":"YAMANASHI KEN","city":"MINAMIKOMA GUN HAYAKAWA CHO","town":"KURETSUBO","perfecture_jp":"山梨県","jp_add_1":"南巨摩郡早川町","jp_add_2":"榑坪"},"4092732":{"post_code":"4092732","prefecture":"YAMANASHI KEN","city":"MINAMIKOMA GUN HAYAKAWA CHO","town":"KOJU","perfecture_jp":"山梨県","jp_add_1":"南巨摩郡早川町","jp_add_2":"高住"},"4092725":{"post_code":"4092725","prefecture":"YAMANASHI KEN","city":"MINAMIKOMA GUN HAYAKAWA CHO","town":"KONAWA","perfecture_jp":"山梨県","jp_add_1":"南巨摩郡早川町","jp_add_2":"小縄"},"4092722":{"post_code":"4092722","prefecture":"YAMANASHI KEN","city":"MINAMIKOMA GUN HAYAKAWA CHO","town":"SASABASHIRI","perfecture_jp":"山梨県","jp_add_1":"南巨摩郡早川町","jp_add_2":"笹走"},"4092721":{"post_code":"4092721","prefecture":"YAMANASHI KEN","city":"MINAMIKOMA GUN HAYAKAWA CHO","town":"SHIONOE","perfecture_jp":"山梨県","jp_add_1":"南巨摩郡早川町","jp_add_2":"塩之上"},"4092726":{"post_code":"4092726","prefecture":"YAMANASHI KEN","city":"MINAMIKOMA GUN HAYAKAWA CHO","town":"SENZUWA","perfecture_jp":"山梨県","jp_add_1":"南巨摩郡早川町","jp_add_2":"千須和"},"4092711":{"post_code":"4092711","prefecture":"YAMANASHI KEN","city":"MINAMIKOMA GUN HAYAKAWA CHO","town":"TSUZURA","perfecture_jp":"山梨県","jp_add_1":"南巨摩郡早川町","jp_add_2":"黒桂"},"4092701":{"post_code":"4092701","prefecture":"YAMANASHI KEN","city":"MINAMIKOMA GUN HAYAKAWA CHO","town":"NARADA","perfecture_jp":"山梨県","jp_add_1":"南巨摩郡早川町","jp_add_2":"奈良田"},"4092712":{"post_code":"4092712","prefecture":"YAMANASHI KEN","city":"MINAMIKOMA GUN HAYAKAWA CHO","town":"NISHINOMIYA","perfecture_jp":"山梨県","jp_add_1":"南巨摩郡早川町","jp_add_2":"西之宮"},"4092724":{"post_code":"4092724","prefecture":"YAMANASHI KEN","city":"MINAMIKOMA GUN HAYAKAWA CHO","town":"HAJIKAJIMA","perfecture_jp":"山梨県","jp_add_1":"南巨摩郡早川町","jp_add_2":"初鹿島"},"4092705":{"post_code":"4092705","prefecture":"YAMANASHI KEN","city":"MINAMIKOMA GUN HAYAKAWA CHO","town":"HAYAKAWA","perfecture_jp":"山梨県","jp_add_1":"南巨摩郡早川町","jp_add_2":"早川"},"4092713":{"post_code":"4092713","prefecture":"YAMANASHI KEN","city":"MINAMIKOMA GUN HAYAKAWA CHO","town":"HO","perfecture_jp":"山梨県","jp_add_1":"南巨摩郡早川町","jp_add_2":"保"},"4092727":{"post_code":"4092727","prefecture":"YAMANASHI KEN","city":"MINAMIKOMA GUN HAYAKAWA CHO","town":"MINAI","perfecture_jp":"山梨県","jp_add_1":"南巨摩郡早川町","jp_add_2":"薬袋"},"4092702":{"post_code":"4092702","prefecture":"YAMANASHI KEN","city":"MINAMIKOMA GUN HAYAKAWA CHO","town":"YUJIMA","perfecture_jp":"山梨県","jp_add_1":"南巨摩郡早川町","jp_add_2":"湯島"},"4092500":{"post_code":"4092500","prefecture":"YAMANASHI KEN","city":"MINAMIKOMA GUN MINOBU CHO","town":"IKANIKEISAIGANAIBAAI","perfecture_jp":"山梨県","jp_add_1":"南巨摩郡身延町","jp_add_2":""},"4092536":{"post_code":"4092536","prefecture":"YAMANASHI KEN","city":"MINAMIKOMA GUN MINOBU CHO","town":"AIMATA","perfecture_jp":"山梨県","jp_add_1":"南巨摩郡身延町","jp_add_2":"相又"},"4092521":{"post_code":"4092521","prefecture":"YAMANASHI KEN","city":"MINAMIKOMA GUN MINOBU CHO","town":"AWAGURA","perfecture_jp":"山梨県","jp_add_1":"南巨摩郡身延町","jp_add_2":"粟倉"},"4093423":{"post_code":"4093423","prefecture":"YAMANASHI KEN","city":"MINAMIKOMA GUN MINOBU CHO","town":"IITOMI","perfecture_jp":"山梨県","jp_add_1":"南巨摩郡身延町","jp_add_2":"飯富"},"4092938":{"post_code":"4092938","prefecture":"YAMANASHI KEN","city":"MINAMIKOMA GUN MINOBU CHO","town":"ICHINOSE","perfecture_jp":"山梨県","jp_add_1":"南巨摩郡身延町","jp_add_2":"市之瀬"},"4092937":{"post_code":"4092937","prefecture":"YAMANASHI KEN","city":"MINAMIKOMA GUN MINOBU CHO","town":"ISSHIKI","perfecture_jp":"山梨県","jp_add_1":"南巨摩郡身延町","jp_add_2":"一色"},"4093424":{"post_code":"4093424","prefecture":"YAMANASHI KEN","city":"MINAMIKOMA GUN MINOBU CHO","town":"INUMA","perfecture_jp":"山梨県","jp_add_1":"南巨摩郡身延町","jp_add_2":"伊沼"},"4092933":{"post_code":"4092933","prefecture":"YAMANASHI KEN","city":"MINAMIKOMA GUN MINOBU CHO","town":"IWAKAKE","perfecture_jp":"山梨県","jp_add_1":"南巨摩郡身延町","jp_add_2":"岩欠"},"4092947":{"post_code":"4092947","prefecture":"YAMANASHI KEN","city":"MINAMIKOMA GUN MINOBU CHO","town":"UENOTAIRA","perfecture_jp":"山梨県","jp_add_1":"南巨摩郡身延町","jp_add_2":"上之平"},"4092531":{"post_code":"4092531","prefecture":"YAMANASHI KEN","city":"MINAMIKOMA GUN MINOBU CHO","town":"UMEDAIRA","perfecture_jp":"山梨県","jp_add_1":"南巨摩郡身延町","jp_add_2":"梅平"},"4093434":{"post_code":"4093434","prefecture":"YAMANASHI KEN","city":"MINAMIKOMA GUN MINOBU CHO","town":"EJIRIKUBO","perfecture_jp":"山梨県","jp_add_1":"南巨摩郡身延町","jp_add_2":"江尻窪"},"4092934":{"post_code":"4092934","prefecture":"YAMANASHI KEN","city":"MINAMIKOMA GUN MINOBU CHO","town":"OIDAIRA","perfecture_jp":"山梨県","jp_add_1":"南巨摩郡身延町","jp_add_2":"大炊平"},"4093111":{"post_code":"4093111","prefecture":"YAMANASHI KEN","city":"MINAMIKOMA GUN MINOBU CHO","town":"OISOKOISO","perfecture_jp":"山梨県","jp_add_1":"南巨摩郡身延町","jp_add_2":"大磯小磯"},"4092406":{"post_code":"4092406","prefecture":"YAMANASHI KEN","city":"MINAMIKOMA GUN MINOBU CHO","town":"OKUZURE","perfecture_jp":"山梨県","jp_add_1":"南巨摩郡身延町","jp_add_2":"大崩"},"4093311":{"post_code":"4093311","prefecture":"YAMANASHI KEN","city":"MINAMIKOMA GUN MINOBU CHO","town":"OSHIO","perfecture_jp":"山梨県","jp_add_1":"南巨摩郡身延町","jp_add_2":"大塩"},"4092415":{"post_code":"4092415","prefecture":"YAMANASHI KEN","city":"MINAMIKOMA GUN MINOBU CHO","town":"OSHIMA","perfecture_jp":"山梨県","jp_add_1":"南巨摩郡身延町","jp_add_2":"大島"},"4092537":{"post_code":"4092537","prefecture":"YAMANASHI KEN","city":"MINAMIKOMA GUN MINOBU CHO","town":"OJIRO","perfecture_jp":"山梨県","jp_add_1":"南巨摩郡身延町","jp_add_2":"大城"},"4092404":{"post_code":"4092404","prefecture":"YAMANASHI KEN","city":"MINAMIKOMA GUN MINOBU CHO","town":"ONUTA","perfecture_jp":"山梨県","jp_add_1":"南巨摩郡身延町","jp_add_2":"大垈"},"4092532":{"post_code":"4092532","prefecture":"YAMANASHI KEN","city":"MINAMIKOMA GUN MINOBU CHO","town":"ONO","perfecture_jp":"山梨県","jp_add_1":"南巨摩郡身延町","jp_add_2":"大野"},"4093121":{"post_code":"4093121","prefecture":"YAMANASHI KEN","city":"MINAMIKOMA GUN MINOBU CHO","town":"OYAMA","perfecture_jp":"山梨県","jp_add_1":"南巨摩郡身延町","jp_add_2":"大山"},"4093433":{"post_code":"4093433","prefecture":"YAMANASHI KEN","city":"MINAMIKOMA GUN MINOBU CHO","town":"OSOZAWA","perfecture_jp":"山梨県","jp_add_1":"南巨摩郡身延町","jp_add_2":"遅沢"},"4092539":{"post_code":"4092539","prefecture":"YAMANASHI KEN","city":"MINAMIKOMA GUN MINOBU CHO","town":"ODAFUNAHARA","perfecture_jp":"山梨県","jp_add_1":"南巨摩郡身延町","jp_add_2":"小田船原"},"4092403":{"post_code":"4092403","prefecture":"YAMANASHI KEN","city":"MINAMIKOMA GUN MINOBU CHO","town":"OBIKANE","perfecture_jp":"山梨県","jp_add_1":"南巨摩郡身延町","jp_add_2":"帯金"},"4093101":{"post_code":"4093101","prefecture":"YAMANASHI KEN","city":"MINAMIKOMA GUN MINOBU CHO","town":"ORIKADO","perfecture_jp":"山梨県","jp_add_1":"南巨摩郡身延町","jp_add_2":"折門"},"4092538":{"post_code":"4092538","prefecture":"YAMANASHI KEN","city":"MINAMIKOMA GUN MINOBU CHO","town":"KADONO","perfecture_jp":"山梨県","jp_add_1":"南巨摩郡身延町","jp_add_2":"門野"},"4093105":{"post_code":"4093105","prefecture":"YAMANASHI KEN","city":"MINAMIKOMA GUN MINOBU CHO","town":"KAMAHITAI","perfecture_jp":"山梨県","jp_add_1":"南巨摩郡身延町","jp_add_2":"釜額"},"4093118":{"post_code":"4093118","prefecture":"YAMANASHI KEN","city":"MINAMIKOMA GUN MINOBU CHO","town":"KAMITAMBARA","perfecture_jp":"山梨県","jp_add_1":"南巨摩郡身延町","jp_add_2":"上田原"},"4092401":{"post_code":"4092401","prefecture":"YAMANASHI KEN","city":"MINAMIKOMA GUN MINOBU CHO","town":"KAMIYAGISAWA","perfecture_jp":"山梨県","jp_add_1":"南巨摩郡身延町","jp_add_2":"上八木沢"},"4092943":{"post_code":"4092943","prefecture":"YAMANASHI KEN","city":"MINAMIKOMA GUN MINOBU CHO","town":"KAWAMUKI","perfecture_jp":"山梨県","jp_add_1":"南巨摩郡身延町","jp_add_2":"川向"},"4092931":{"post_code":"4092931","prefecture":"YAMANASHI KEN","city":"MINAMIKOMA GUN MINOBU CHO","town":"KITAGAWA","perfecture_jp":"山梨県","jp_add_1":"南巨摩郡身延町","jp_add_2":"北川"},"4092935":{"post_code":"4092935","prefecture":"YAMANASHI KEN","city":"MINAMIKOMA GUN MINOBU CHO","town":"KIYOZAWA","perfecture_jp":"山梨県","jp_add_1":"南巨摩郡身延町","jp_add_2":"清沢"},"4093304":{"post_code":"4093304","prefecture":"YAMANASHI KEN","city":"MINAMIKOMA GUN MINOBU CHO","town":"KIRIISHI","perfecture_jp":"山梨県","jp_add_1":"南巨摩郡身延町","jp_add_2":"切石"},"4093115":{"post_code":"4093115","prefecture":"YAMANASHI KEN","city":"MINAMIKOMA GUN MINOBU CHO","town":"KIRIFUSAGI","perfecture_jp":"山梨県","jp_add_1":"南巨摩郡身延町","jp_add_2":"切房木"},"4093312":{"post_code":"4093312","prefecture":"YAMANASHI KEN","city":"MINAMIKOMA GUN MINOBU CHO","town":"KUNARI","perfecture_jp":"山梨県","jp_add_1":"南巨摩郡身延町","jp_add_2":"久成"},"4093122":{"post_code":"4093122","prefecture":"YAMANASHI KEN","city":"MINAMIKOMA GUN MINOBU CHO","town":"KUBO","perfecture_jp":"山梨県","jp_add_1":"南巨摩郡身延町","jp_add_2":"久保"},"4093123":{"post_code":"4093123","prefecture":"YAMANASHI KEN","city":"MINAMIKOMA GUN MINOBU CHO","town":"KUMAZAWA","perfecture_jp":"山梨県","jp_add_1":"南巨摩郡身延町","jp_add_2":"熊沢"},"4093116":{"post_code":"4093116","prefecture":"YAMANASHI KEN","city":"MINAMIKOMA GUN MINOBU CHO","town":"KURUMADA","perfecture_jp":"山梨県","jp_add_1":"南巨摩郡身延町","jp_add_2":"車田"},"4093112":{"post_code":"4093112","prefecture":"YAMANASHI KEN","city":"MINAMIKOMA GUN MINOBU CHO","town":"SHIBAKUSA","perfecture_jp":"山梨県","jp_add_1":"南巨摩郡身延町","jp_add_2":"芝草"},"4093305":{"post_code":"4093305","prefecture":"YAMANASHI KEN","city":"MINAMIKOMA GUN MINOBU CHO","town":"SHIMOTAMBARA","perfecture_jp":"山梨県","jp_add_1":"南巨摩郡身延町","jp_add_2":"下田原"},"4092942":{"post_code":"4092942","prefecture":"YAMANASHI KEN","city":"MINAMIKOMA GUN MINOBU CHO","town":"SHIMOBE","perfecture_jp":"山梨県","jp_add_1":"南巨摩郡身延町","jp_add_2":"下部"},"4092402":{"post_code":"4092402","prefecture":"YAMANASHI KEN","city":"MINAMIKOMA GUN MINOBU CHO","town":"SHIMOYAGISAWA","perfecture_jp":"山梨県","jp_add_1":"南巨摩郡身延町","jp_add_2":"下八木沢"},"4092522":{"post_code":"4092522","prefecture":"YAMANASHI KEN","city":"MINAMIKOMA GUN MINOBU CHO","town":"SHIMOYAMA","perfecture_jp":"山梨県","jp_add_1":"南巨摩郡身延町","jp_add_2":"下山"},"4092932":{"post_code":"4092932","prefecture":"YAMANASHI KEN","city":"MINAMIKOMA GUN MINOBU CHO","town":"SUGIYAMA","perfecture_jp":"山梨県","jp_add_1":"南巨摩郡身延町","jp_add_2":"杉山"},"4092533":{"post_code":"4092533","prefecture":"YAMANASHI KEN","city":"MINAMIKOMA GUN MINOBU CHO","town":"SEIGO","perfecture_jp":"山梨県","jp_add_1":"南巨摩郡身延町","jp_add_2":"清子"},"4093107":{"post_code":"4093107","prefecture":"YAMANASHI KEN","city":"MINAMIKOMA GUN MINOBU CHO","town":"SETO","perfecture_jp":"山梨県","jp_add_1":"南巨摩郡身延町","jp_add_2":"瀬戸"},"4092946":{"post_code":"4092946","prefecture":"YAMANASHI KEN","city":"MINAMIKOMA GUN MINOBU CHO","town":"DAIGO","perfecture_jp":"山梨県","jp_add_1":"南巨摩郡身延町","jp_add_2":"大子"},"4092412":{"post_code":"4092412","prefecture":"YAMANASHI KEN","city":"MINAMIKOMA GUN MINOBU CHO","town":"TSUNOCHI","perfecture_jp":"山梨県","jp_add_1":"南巨摩郡身延町","jp_add_2":"角打"},"4092405":{"post_code":"4092405","prefecture":"YAMANASHI KEN","city":"MINAMIKOMA GUN MINOBU CHO","town":"TSUBAKIZORI","perfecture_jp":"山梨県","jp_add_1":"南巨摩郡身延町","jp_add_2":"椿草里"},"4093302":{"post_code":"4093302","prefecture":"YAMANASHI KEN","city":"MINAMIKOMA GUN MINOBU CHO","town":"TEUCHIZAWA","perfecture_jp":"山梨県","jp_add_1":"南巨摩郡身延町","jp_add_2":"手打沢"},"4093303":{"post_code":"4093303","prefecture":"YAMANASHI KEN","city":"MINAMIKOMA GUN MINOBU CHO","town":"TERASAWA","perfecture_jp":"山梨県","jp_add_1":"南巨摩郡身延町","jp_add_2":"寺沢"},"4093124":{"post_code":"4093124","prefecture":"YAMANASHI KEN","city":"MINAMIKOMA GUN MINOBU CHO","town":"TOIDA","perfecture_jp":"山梨県","jp_add_1":"南巨摩郡身延町","jp_add_2":"樋田"},"4092936":{"post_code":"4092936","prefecture":"YAMANASHI KEN","city":"MINAMIKOMA GUN MINOBU CHO","town":"TOKIWA","perfecture_jp":"山梨県","jp_add_1":"南巨摩郡身延町","jp_add_2":"常葉"},"4093104":{"post_code":"4093104","prefecture":"YAMANASHI KEN","city":"MINAMIKOMA GUN MINOBU CHO","town":"NAKANOKURA","perfecture_jp":"山梨県","jp_add_1":"南巨摩郡身延町","jp_add_2":"中之倉"},"4093432":{"post_code":"4093432","prefecture":"YAMANASHI KEN","city":"MINAMIKOMA GUN MINOBU CHO","town":"NAKAYAMA","perfecture_jp":"山梨県","jp_add_1":"南巨摩郡身延町","jp_add_2":"中山"},"4093435":{"post_code":"4093435","prefecture":"YAMANASHI KEN","city":"MINAMIKOMA GUN MINOBU CHO","town":"NASHIGO","perfecture_jp":"山梨県","jp_add_1":"南巨摩郡身延町","jp_add_2":"梨子"},"4093301":{"post_code":"4093301","prefecture":"YAMANASHI KEN","city":"MINAMIKOMA GUN MINOBU CHO","town":"NISHIJIMA","perfecture_jp":"山梨県","jp_add_1":"南巨摩郡身延町","jp_add_2":"西嶋"},"4093103":{"post_code":"4093103","prefecture":"YAMANASHI KEN","city":"MINAMIKOMA GUN MINOBU CHO","town":"NEKKO","perfecture_jp":"山梨県","jp_add_1":"南巨摩郡身延町","jp_add_2":"根子"},"4092523":{"post_code":"4092523","prefecture":"YAMANASHI KEN","city":"MINAMIKOMA GUN MINOBU CHO","town":"HAKII","perfecture_jp":"山梨県","jp_add_1":"南巨摩郡身延町","jp_add_2":"波木井"},"4092945":{"post_code":"4092945","prefecture":"YAMANASHI KEN","city":"MINAMIKOMA GUN MINOBU CHO","town":"HADAKAJIMA","perfecture_jp":"山梨県","jp_add_1":"南巨摩郡身延町","jp_add_2":"波高島"},"4093102":{"post_code":"4093102","prefecture":"YAMANASHI KEN","city":"MINAMIKOMA GUN MINOBU CHO","town":"HASSAKA","perfecture_jp":"山梨県","jp_add_1":"南巨摩郡身延町","jp_add_2":"八坂"},"4093307":{"post_code":"4093307","prefecture":"YAMANASHI KEN","city":"MINAMIKOMA GUN MINOBU CHO","town":"HINATAMINAMIZAWA","perfecture_jp":"山梨県","jp_add_1":"南巨摩郡身延町","jp_add_2":"日向南沢"},"4092414":{"post_code":"4092414","prefecture":"YAMANASHI KEN","city":"MINAMIKOMA GUN MINOBU CHO","town":"HINOE","perfecture_jp":"山梨県","jp_add_1":"南巨摩郡身延町","jp_add_2":"樋之上"},"4093313":{"post_code":"4093313","prefecture":"YAMANASHI KEN","city":"MINAMIKOMA GUN MINOBU CHO","town":"HIRASU","perfecture_jp":"山梨県","jp_add_1":"南巨摩郡身延町","jp_add_2":"平須"},"4093436":{"post_code":"4093436","prefecture":"YAMANASHI KEN","city":"MINAMIKOMA GUN MINOBU CHO","town":"FUKUHARA","perfecture_jp":"山梨県","jp_add_1":"南巨摩郡身延町","jp_add_2":"福原"},"4093106":{"post_code":"4093106","prefecture":"YAMANASHI KEN","city":"MINAMIKOMA GUN MINOBU CHO","town":"FURUSEKI","perfecture_jp":"山梨県","jp_add_1":"南巨摩郡身延町","jp_add_2":"古関"},"4093437":{"post_code":"4093437","prefecture":"YAMANASHI KEN","city":"MINAMIKOMA GUN MINOBU CHO","town":"FURUHASE","perfecture_jp":"山梨県","jp_add_1":"南巨摩郡身延町","jp_add_2":"古長谷"},"4092411":{"post_code":"4092411","prefecture":"YAMANASHI KEN","city":"MINAMIKOMA GUN MINOBU CHO","town":"MARUTAKI","perfecture_jp":"山梨県","jp_add_1":"南巨摩郡身延町","jp_add_2":"丸滝"},"4093117":{"post_code":"4093117","prefecture":"YAMANASHI KEN","city":"MINAMIKOMA GUN MINOBU CHO","town":"MISAWA","perfecture_jp":"山梨県","jp_add_1":"南巨摩郡身延町","jp_add_2":"三沢"},"4093113":{"post_code":"4093113","prefecture":"YAMANASHI KEN","city":"MINAMIKOMA GUN MINOBU CHO","town":"MIZUFUNE","perfecture_jp":"山梨県","jp_add_1":"南巨摩郡身延町","jp_add_2":"水船"},"4093114":{"post_code":"4093114","prefecture":"YAMANASHI KEN","city":"MINAMIKOMA GUN MINOBU CHO","town":"MICHI","perfecture_jp":"山梨県","jp_add_1":"南巨摩郡身延町","jp_add_2":"道"},"4092534":{"post_code":"4092534","prefecture":"YAMANASHI KEN","city":"MINAMIKOMA GUN MINOBU CHO","town":"MITSUGOZAWA","perfecture_jp":"山梨県","jp_add_1":"南巨摩郡身延町","jp_add_2":"光子沢"},"4093125":{"post_code":"4093125","prefecture":"YAMANASHI KEN","city":"MINAMIKOMA GUN MINOBU CHO","town":"MINE","perfecture_jp":"山梨県","jp_add_1":"南巨摩郡身延町","jp_add_2":"嶺"},"4092524":{"post_code":"4092524","prefecture":"YAMANASHI KEN","city":"MINAMIKOMA GUN MINOBU CHO","town":"MINOBU","perfecture_jp":"山梨県","jp_add_1":"南巨摩郡身延町","jp_add_2":"身延"},"4093422":{"post_code":"4093422","prefecture":"YAMANASHI KEN","city":"MINAMIKOMA GUN MINOBU CHO","town":"MIYAKI","perfecture_jp":"山梨県","jp_add_1":"南巨摩郡身延町","jp_add_2":"宮木"},"4092944":{"post_code":"4092944","prefecture":"YAMANASHI KEN","city":"MINAMIKOMA GUN MINOBU CHO","town":"MOMOGAKUBO","perfecture_jp":"山梨県","jp_add_1":"南巨摩郡身延町","jp_add_2":"桃ケ窪"},"4093431":{"post_code":"4093431","prefecture":"YAMANASHI KEN","city":"MINAMIKOMA GUN MINOBU CHO","town":"YASAIKU","perfecture_jp":"山梨県","jp_add_1":"南巨摩郡身延町","jp_add_2":"矢細工"},"4093126":{"post_code":"4093126","prefecture":"YAMANASHI KEN","city":"MINAMIKOMA GUN MINOBU CHO","town":"YAMAGA","perfecture_jp":"山梨県","jp_add_1":"南巨摩郡身延町","jp_add_2":"山家"},"4092941":{"post_code":"4092941","prefecture":"YAMANASHI KEN","city":"MINAMIKOMA GUN MINOBU CHO","town":"YUNOKU","perfecture_jp":"山梨県","jp_add_1":"南巨摩郡身延町","jp_add_2":"湯之奥"},"4093421":{"post_code":"4093421","prefecture":"YAMANASHI KEN","city":"MINAMIKOMA GUN MINOBU CHO","town":"YOKAICHIBA","perfecture_jp":"山梨県","jp_add_1":"南巨摩郡身延町","jp_add_2":"八日市場"},"4093306":{"post_code":"4093306","prefecture":"YAMANASHI KEN","city":"MINAMIKOMA GUN MINOBU CHO","town":"YOGOSAWA","perfecture_jp":"山梨県","jp_add_1":"南巨摩郡身延町","jp_add_2":"夜子沢"},"4092535":{"post_code":"4092535","prefecture":"YAMANASHI KEN","city":"MINAMIKOMA GUN MINOBU CHO","town":"YOKONENAKA","perfecture_jp":"山梨県","jp_add_1":"南巨摩郡身延町","jp_add_2":"横根中"},"4092413":{"post_code":"4092413","prefecture":"YAMANASHI KEN","city":"MINAMIKOMA GUN MINOBU CHO","town":"WADA","perfecture_jp":"山梨県","jp_add_1":"南巨摩郡身延町","jp_add_2":"和田"},"4092100":{"post_code":"4092100","prefecture":"YAMANASHI KEN","city":"MINAMIKOMA GUN NAMBU CHO","town":"IKANIKEISAIGANAIBAAI","perfecture_jp":"山梨県","jp_add_1":"南巨摩郡南部町","jp_add_2":""},"4092304":{"post_code":"4092304","prefecture":"YAMANASHI KEN","city":"MINAMIKOMA GUN NAMBU CHO","town":"IDE","perfecture_jp":"山梨県","jp_add_1":"南巨摩郡南部町","jp_add_2":"井出"},"4092305":{"post_code":"4092305","prefecture":"YAMANASHI KEN","city":"MINAMIKOMA GUN NAMBU CHO","town":"UTSUBUNA","perfecture_jp":"山梨県","jp_add_1":"南巨摩郡南部町","jp_add_2":"内船"},"4092213":{"post_code":"4092213","prefecture":"YAMANASHI KEN","city":"MINAMIKOMA GUN NAMBU CHO","town":"OWA","perfecture_jp":"山梨県","jp_add_1":"南巨摩郡南部町","jp_add_2":"大和"},"4092101":{"post_code":"4092101","prefecture":"YAMANASHI KEN","city":"MINAMIKOMA GUN NAMBU CHO","town":"KAZONE","perfecture_jp":"山梨県","jp_add_1":"南巨摩郡南部町","jp_add_2":"楮根"},"4092301":{"post_code":"4092301","prefecture":"YAMANASHI KEN","city":"MINAMIKOMA GUN NAMBU CHO","town":"KAMISANO","perfecture_jp":"山梨県","jp_add_1":"南巨摩郡南部町","jp_add_2":"上佐野"},"4092214":{"post_code":"4092214","prefecture":"YAMANASHI KEN","city":"MINAMIKOMA GUN NAMBU CHO","town":"SHIOZAWA","perfecture_jp":"山梨県","jp_add_1":"南巨摩郡南部町","jp_add_2":"塩沢"},"4092302":{"post_code":"4092302","prefecture":"YAMANASHI KEN","city":"MINAMIKOMA GUN NAMBU CHO","town":"SHIMOSANO","perfecture_jp":"山梨県","jp_add_1":"南巨摩郡南部町","jp_add_2":"下佐野"},"4092303":{"post_code":"4092303","prefecture":"YAMANASHI KEN","city":"MINAMIKOMA GUN NAMBU CHO","town":"TOSHIMA","perfecture_jp":"山梨県","jp_add_1":"南巨摩郡南部町","jp_add_2":"十島"},"4092211":{"post_code":"4092211","prefecture":"YAMANASHI KEN","city":"MINAMIKOMA GUN NAMBU CHO","town":"NAKANO","perfecture_jp":"山梨県","jp_add_1":"南巨摩郡南部町","jp_add_2":"中野"},"4092216":{"post_code":"4092216","prefecture":"YAMANASHI KEN","city":"MINAMIKOMA GUN NAMBU CHO","town":"NARUSHIMA","perfecture_jp":"山梨県","jp_add_1":"南巨摩郡南部町","jp_add_2":"成島"},"4092212":{"post_code":"4092212","prefecture":"YAMANASHI KEN","city":"MINAMIKOMA GUN NAMBU CHO","town":"NAMBU","perfecture_jp":"山梨県","jp_add_1":"南巨摩郡南部町","jp_add_2":"南部"},"4092102":{"post_code":"4092102","prefecture":"YAMANASHI KEN","city":"MINAMIKOMA GUN NAMBU CHO","town":"FUKUSHI","perfecture_jp":"山梨県","jp_add_1":"南巨摩郡南部町","jp_add_2":"福士"},"4092217":{"post_code":"4092217","prefecture":"YAMANASHI KEN","city":"MINAMIKOMA GUN NAMBU CHO","town":"HONGO","perfecture_jp":"山梨県","jp_add_1":"南巨摩郡南部町","jp_add_2":"本郷"},"4092103":{"post_code":"4092103","prefecture":"YAMANASHI KEN","city":"MINAMIKOMA GUN NAMBU CHO","town":"MANZAWA","perfecture_jp":"山梨県","jp_add_1":"南巨摩郡南部町","jp_add_2":"万沢"},"4092215":{"post_code":"4092215","prefecture":"YAMANASHI KEN","city":"MINAMIKOMA GUN NAMBU CHO","town":"YANAGISHIMA","perfecture_jp":"山梨県","jp_add_1":"南巨摩郡南部町","jp_add_2":"柳島"},"4093852":{"post_code":"4093852","prefecture":"YAMANASHI KEN","city":"NAKAKOMA GUN SHOWA CHO","town":"IKKUI","perfecture_jp":"山梨県","jp_add_1":"中巨摩郡昭和町","jp_add_2":"飯喰"},"4093864":{"post_code":"4093864","prefecture":"YAMANASHI KEN","city":"NAKAKOMA GUN SHOWA CHO","town":"OSHIKOSHI","perfecture_jp":"山梨県","jp_add_1":"中巨摩郡昭和町","jp_add_2":"押越"},"4093851":{"post_code":"4093851","prefecture":"YAMANASHI KEN","city":"NAKAKOMA GUN SHOWA CHO","town":"KASAI","perfecture_jp":"山梨県","jp_add_1":"中巨摩郡昭和町","jp_add_2":"河西"},"4093863":{"post_code":"4093863","prefecture":"YAMANASHI KEN","city":"NAKAKOMA GUN SHOWA CHO","town":"KATONAKAJIMA","perfecture_jp":"山梨県","jp_add_1":"中巨摩郡昭和町","jp_add_2":"河東中島"},"4093862":{"post_code":"4093862","prefecture":"YAMANASHI KEN","city":"NAKAKOMA GUN SHOWA CHO","town":"KAMIGATO","perfecture_jp":"山梨県","jp_add_1":"中巨摩郡昭和町","jp_add_2":"上河東"},"4093861":{"post_code":"4093861","prefecture":"YAMANASHI KEN","city":"NAKAKOMA GUN SHOWA CHO","town":"KAMISUKIAWARA","perfecture_jp":"山梨県","jp_add_1":"中巨摩郡昭和町","jp_add_2":"紙漉阿原"},"4093866":{"post_code":"4093866","prefecture":"YAMANASHI KEN","city":"NAKAKOMA GUN SHOWA CHO","town":"SAIJO","perfecture_jp":"山梨県","jp_add_1":"中巨摩郡昭和町","jp_add_2":"西条"},"4093865":{"post_code":"4093865","prefecture":"YAMANASHI KEN","city":"NAKAKOMA GUN SHOWA CHO","town":"SAIJOSHINDEN","perfecture_jp":"山梨県","jp_add_1":"中巨摩郡昭和町","jp_add_2":"西条新田"},"4093867":{"post_code":"4093867","prefecture":"YAMANASHI KEN","city":"NAKAKOMA GUN SHOWA CHO","town":"SHIMIZUARAI","perfecture_jp":"山梨県","jp_add_1":"中巨摩郡昭和町","jp_add_2":"清水新居"},"4093853":{"post_code":"4093853","prefecture":"YAMANASHI KEN","city":"NAKAKOMA GUN SHOWA CHO","town":"TSUIJIARAI","perfecture_jp":"山梨県","jp_add_1":"中巨摩郡昭和町","jp_add_2":"築地新居"},"4093854":{"post_code":"4093854","prefecture":"YAMANASHI KEN","city":"NAKAKOMA GUN SHOWA CHO","town":"TSUIJISHINDEN","perfecture_jp":"山梨県","jp_add_1":"中巨摩郡昭和町","jp_add_2":"築地新田"},"4090200":{"post_code":"4090200","prefecture":"YAMANASHI KEN","city":"KITATSURU GUN KOSUGE MURA","town":"IKANIKEISAIGANAIBAAI","perfecture_jp":"山梨県","jp_add_1":"北都留郡小菅村","jp_add_2":""},"4090142":{"post_code":"4090142","prefecture":"YAMANASHI KEN","city":"KITATSURU GUN KOSUGE MURA","town":"KOSUGEMURA(1-663)","perfecture_jp":"山梨県","jp_add_1":"北都留郡小菅村","jp_add_2":"小菅村"},"4090211":{"post_code":"4090211","prefecture":"YAMANASHI KEN","city":"KITATSURU GUN KOSUGE MURA","town":"KOSUGEMURA(664-IJO)","perfecture_jp":"山梨県","jp_add_1":"北都留郡小菅村","jp_add_2":"小菅村"},"4090300":{"post_code":"4090300","prefecture":"YAMANASHI KEN","city":"KITATSURU GUN TABAYAMA MURA","town":"IKANIKEISAIGANAIBAAI","perfecture_jp":"山梨県","jp_add_1":"北都留郡丹波山村","jp_add_2":""},"4090301":{"post_code":"4090301","prefecture":"YAMANASHI KEN","city":"KITATSURU GUN TABAYAMA MURA","town":"OKUAKI","perfecture_jp":"山梨県","jp_add_1":"北都留郡丹波山村","jp_add_2":"奥秋"},"4090306":{"post_code":"4090306","prefecture":"YAMANASHI KEN","city":"KITATSURU GUN TABAYAMA MURA","town":"OSHIGAITO","perfecture_jp":"山梨県","jp_add_1":"北都留郡丹波山村","jp_add_2":"押垣外"},"4090314":{"post_code":"4090314","prefecture":"YAMANASHI KEN","city":"KITATSURU GUN TABAYAMA MURA","town":"OMATSURI","perfecture_jp":"山梨県","jp_add_1":"北都留郡丹波山村","jp_add_2":"御祭"},"4090313":{"post_code":"4090313","prefecture":"YAMANASHI KEN","city":"KITATSURU GUN TABAYAMA MURA","town":"OYAGAWA","perfecture_jp":"山梨県","jp_add_1":"北都留郡丹波山村","jp_add_2":"親川"},"4090302":{"post_code":"4090302","prefecture":"YAMANASHI KEN","city":"KITATSURU GUN TABAYAMA MURA","town":"KAMIGUMI","perfecture_jp":"山梨県","jp_add_1":"北都留郡丹波山村","jp_add_2":"上組"},"4090318":{"post_code":"4090318","prefecture":"YAMANASHI KEN","city":"KITATSURU GUN TABAYAMA MURA","town":"KAMOSAWA","perfecture_jp":"山梨県","jp_add_1":"北都留郡丹波山村","jp_add_2":"鴨沢"},"4090317":{"post_code":"4090317","prefecture":"YAMANASHI KEN","city":"KITATSURU GUN TABAYAMA MURA","town":"KOSODE","perfecture_jp":"山梨県","jp_add_1":"北都留郡丹波山村","jp_add_2":"小袖"},"4090304":{"post_code":"4090304","prefecture":"YAMANASHI KEN","city":"KITATSURU GUN TABAYAMA MURA","town":"SHIMOGUMI","perfecture_jp":"山梨県","jp_add_1":"北都留郡丹波山村","jp_add_2":"下組"},"4090315":{"post_code":"4090315","prefecture":"YAMANASHI KEN","city":"KITATSURU GUN TABAYAMA MURA","town":"SUGINAKUBO","perfecture_jp":"山梨県","jp_add_1":"北都留郡丹波山村","jp_add_2":"杉奈久保"},"4090305":{"post_code":"4090305","prefecture":"YAMANASHI KEN","city":"KITATSURU GUN TABAYAMA MURA","town":"TAKAO","perfecture_jp":"山梨県","jp_add_1":"北都留郡丹波山村","jp_add_2":"高尾"},"4090312":{"post_code":"4090312","prefecture":"YAMANASHI KEN","city":"KITATSURU GUN TABAYAMA MURA","town":"TAKAHATA","perfecture_jp":"山梨県","jp_add_1":"北都留郡丹波山村","jp_add_2":"高畑"},"4090316":{"post_code":"4090316","prefecture":"YAMANASHI KEN","city":"KITATSURU GUN TABAYAMA MURA","town":"TOKOROHATA","perfecture_jp":"山梨県","jp_add_1":"北都留郡丹波山村","jp_add_2":"所畑"},"4090303":{"post_code":"4090303","prefecture":"YAMANASHI KEN","city":"KITATSURU GUN TABAYAMA MURA","town":"NAKAGUMI","perfecture_jp":"山梨県","jp_add_1":"北都留郡丹波山村","jp_add_2":"中組"},"4090311":{"post_code":"4090311","prefecture":"YAMANASHI KEN","city":"KITATSURU GUN TABAYAMA MURA","town":"HONOSE","perfecture_jp":"山梨県","jp_add_1":"北都留郡丹波山村","jp_add_2":"保之瀬"}}