{"4100000":{"post_code":"4100000","prefecture":"SHIZUOKA KEN","city":"NUMAZU SHI","town":"IKANIKEISAIGANAIBAAI","perfecture_jp":"静岡県","jp_add_1":"沼津市","jp_add_2":""},"4100802":{"post_code":"4100802","prefecture":"SHIZUOKA KEN","city":"NUMAZU SHI","town":"AGETSUCHICHO","perfecture_jp":"静岡県","jp_add_1":"沼津市","jp_add_2":"上土町"},"4100852":{"post_code":"4100852","prefecture":"SHIZUOKA KEN","city":"NUMAZU SHI","town":"ASAHICHO","perfecture_jp":"静岡県","jp_add_1":"沼津市","jp_add_2":"旭町"},"4100001":{"post_code":"4100001","prefecture":"SHIZUOKA KEN","city":"NUMAZU SHI","town":"ASHITAKA","perfecture_jp":"静岡県","jp_add_1":"沼津市","jp_add_2":"足高"},"4100317":{"post_code":"4100317","prefecture":"SHIZUOKA KEN","city":"NUMAZU SHI","town":"ISHIKAWA","perfecture_jp":"静岡県","jp_add_1":"沼津市","jp_add_2":"石川"},"4100045":{"post_code":"4100045","prefecture":"SHIZUOKA KEN","city":"NUMAZU SHI","town":"IZUMICHO","perfecture_jp":"静岡県","jp_add_1":"沼津市","jp_add_2":"泉町"},"4103401":{"post_code":"4103401","prefecture":"SHIZUOKA KEN","city":"NUMAZU SHI","town":"ITA","perfecture_jp":"静岡県","jp_add_1":"沼津市","jp_add_2":"井田"},"4100831":{"post_code":"4100831","prefecture":"SHIZUOKA KEN","city":"NUMAZU SHI","town":"ICHIBACHO","perfecture_jp":"静岡県","jp_add_1":"沼津市","jp_add_2":"市場町"},"4100866":{"post_code":"4100866","prefecture":"SHIZUOKA KEN","city":"NUMAZU SHI","town":"ICHIMICHI","perfecture_jp":"静岡県","jp_add_1":"沼津市","jp_add_2":"市道"},"4100314":{"post_code":"4100314","prefecture":"SHIZUOKA KEN","city":"NUMAZU SHI","town":"IPPOMMATSU","perfecture_jp":"静岡県","jp_add_1":"沼津市","jp_add_2":"一本松"},"4100319":{"post_code":"4100319","prefecture":"SHIZUOKA KEN","city":"NUMAZU SHI","town":"IDE","perfecture_jp":"静岡県","jp_add_1":"沼津市","jp_add_2":"井出"},"4100875":{"post_code":"4100875","prefecture":"SHIZUOKA KEN","city":"NUMAZU SHI","town":"IMAZAWA","perfecture_jp":"静岡県","jp_add_1":"沼津市","jp_add_2":"今沢"},"4100316":{"post_code":"4100316","prefecture":"SHIZUOKA KEN","city":"NUMAZU SHI","town":"UEDA","perfecture_jp":"静岡県","jp_add_1":"沼津市","jp_add_2":"植田"},"4100892":{"post_code":"4100892","prefecture":"SHIZUOKA KEN","city":"NUMAZU SHI","town":"UOCHO","perfecture_jp":"静岡県","jp_add_1":"沼津市","jp_add_2":"魚町"},"4100225":{"post_code":"4100225","prefecture":"SHIZUOKA KEN","city":"NUMAZU SHI","town":"UCHIURA OMOSU","perfecture_jp":"静岡県","jp_add_1":"沼津市","jp_add_2":"内浦重須"},"4100222":{"post_code":"4100222","prefecture":"SHIZUOKA KEN","city":"NUMAZU SHI","town":"UCHIURA KOMI","perfecture_jp":"静岡県","jp_add_1":"沼津市","jp_add_2":"内浦小海"},"4100221":{"post_code":"4100221","prefecture":"SHIZUOKA KEN","city":"NUMAZU SHI","town":"UCHIURA SHIGEDERA","perfecture_jp":"静岡県","jp_add_1":"沼津市","jp_add_2":"内浦重寺"},"4100224":{"post_code":"4100224","prefecture":"SHIZUOKA KEN","city":"NUMAZU SHI","town":"UCHIURA NAGAHAMA","perfecture_jp":"静岡県","jp_add_1":"沼津市","jp_add_2":"内浦長浜"},"4100223":{"post_code":"4100223","prefecture":"SHIZUOKA KEN","city":"NUMAZU SHI","town":"UCHIURA MITO","perfecture_jp":"静岡県","jp_add_1":"沼津市","jp_add_2":"内浦三津"},"4100103":{"post_code":"4100103","prefecture":"SHIZUOKA KEN","city":"NUMAZU SHI","town":"ENORA","perfecture_jp":"静岡県","jp_add_1":"沼津市","jp_add_2":"江浦"},"4100049":{"post_code":"4100049","prefecture":"SHIZUOKA KEN","city":"NUMAZU SHI","town":"EBARACHO","perfecture_jp":"静岡県","jp_add_1":"沼津市","jp_add_2":"江原町"},"4100022":{"post_code":"4100022","prefecture":"SHIZUOKA KEN","city":"NUMAZU SHI","town":"OOKA","perfecture_jp":"静岡県","jp_add_1":"沼津市","jp_add_2":"大岡"},"4100873":{"post_code":"4100873","prefecture":"SHIZUOKA KEN","city":"NUMAZU SHI","town":"OZUWA","perfecture_jp":"静岡県","jp_add_1":"沼津市","jp_add_2":"大諏訪"},"4100306":{"post_code":"4100306","prefecture":"SHIZUOKA KEN","city":"NUMAZU SHI","town":"OTSUKA","perfecture_jp":"静岡県","jp_add_1":"沼津市","jp_add_2":"大塚"},"4100801":{"post_code":"4100801","prefecture":"SHIZUOKA KEN","city":"NUMAZU SHI","town":"OTEMACHI","perfecture_jp":"静岡県","jp_add_1":"沼津市","jp_add_2":"大手町"},"4100307":{"post_code":"4100307","prefecture":"SHIZUOKA KEN","city":"NUMAZU SHI","town":"ONO","perfecture_jp":"静岡県","jp_add_1":"沼津市","jp_add_2":"青野"},"4100821":{"post_code":"4100821","prefecture":"SHIZUOKA KEN","city":"NUMAZU SHI","town":"OHIRA","perfecture_jp":"静岡県","jp_add_1":"沼津市","jp_add_2":"大平"},"4100012":{"post_code":"4100012","prefecture":"SHIZUOKA KEN","city":"NUMAZU SHI","town":"OKAISSHIKI","perfecture_jp":"静岡県","jp_add_1":"沼津市","jp_add_2":"岡一色"},"4100011":{"post_code":"4100011","prefecture":"SHIZUOKA KEN","city":"NUMAZU SHI","town":"OKANOMIYA","perfecture_jp":"静岡県","jp_add_1":"沼津市","jp_add_2":"岡宮"},"4100844":{"post_code":"4100844","prefecture":"SHIZUOKA KEN","city":"NUMAZU SHI","town":"KASUGACHO","perfecture_jp":"静岡県","jp_add_1":"沼津市","jp_add_2":"春日町"},"4100823":{"post_code":"4100823","prefecture":"SHIZUOKA KEN","city":"NUMAZU SHI","town":"GANYUDO","perfecture_jp":"静岡県","jp_add_1":"沼津市","jp_add_2":"我入道"},"4100824":{"post_code":"4100824","prefecture":"SHIZUOKA KEN","city":"NUMAZU SHI","town":"KANUKIGAOKA","perfecture_jp":"静岡県","jp_add_1":"沼津市","jp_add_2":"香貫が丘"},"4100813":{"post_code":"4100813","prefecture":"SHIZUOKA KEN","city":"NUMAZU SHI","town":"KAMIKANUKI","perfecture_jp":"静岡県","jp_add_1":"沼津市","jp_add_2":"上香貫"},"4100042":{"post_code":"4100042","prefecture":"SHIZUOKA KEN","city":"NUMAZU SHI","town":"KANDACHO","perfecture_jp":"静岡県","jp_add_1":"沼津市","jp_add_2":"神田町"},"4100876":{"post_code":"4100876","prefecture":"SHIZUOKA KEN","city":"NUMAZU SHI","town":"KITAIMAZAWA","perfecture_jp":"静岡県","jp_add_1":"沼津市","jp_add_2":"北今沢"},"4100061":{"post_code":"4100061","prefecture":"SHIZUOKA KEN","city":"NUMAZU SHI","town":"KITAZONOCHO","perfecture_jp":"静岡県","jp_add_1":"沼津市","jp_add_2":"北園町"},"4100054":{"post_code":"4100054","prefecture":"SHIZUOKA KEN","city":"NUMAZU SHI","town":"KITATAKASHIMACHO","perfecture_jp":"静岡県","jp_add_1":"沼津市","jp_add_2":"北高島町"},"4100064":{"post_code":"4100064","prefecture":"SHIZUOKA KEN","city":"NUMAZU SHI","town":"KYOEICHO","perfecture_jp":"静岡県","jp_add_1":"沼津市","jp_add_2":"共栄町"},"4100102":{"post_code":"4100102","prefecture":"SHIZUOKA KEN","city":"NUMAZU SHI","town":"KUCHINO","perfecture_jp":"静岡県","jp_add_1":"沼津市","jp_add_2":"口野"},"4100893":{"post_code":"4100893","prefecture":"SHIZUOKA KEN","city":"NUMAZU SHI","town":"KUMADAKACHO","perfecture_jp":"静岡県","jp_add_1":"沼津市","jp_add_2":"くまだか町"},"4100819":{"post_code":"4100819","prefecture":"SHIZUOKA KEN","city":"NUMAZU SHI","town":"KUROSECHO","perfecture_jp":"静岡県","jp_add_1":"沼津市","jp_add_2":"黒瀬町"},"4100872":{"post_code":"4100872","prefecture":"SHIZUOKA KEN","city":"NUMAZU SHI","town":"KOZUWA","perfecture_jp":"静岡県","jp_add_1":"沼津市","jp_add_2":"小諏訪"},"4100053":{"post_code":"4100053","prefecture":"SHIZUOKA KEN","city":"NUMAZU SHI","town":"KOTOBUKICHO","perfecture_jp":"静岡県","jp_add_1":"沼津市","jp_add_2":"寿町"},"4100021":{"post_code":"4100021","prefecture":"SHIZUOKA KEN","city":"NUMAZU SHI","town":"KOBAYASHIDAI","perfecture_jp":"静岡県","jp_add_1":"沼津市","jp_add_2":"小林台"},"4100804":{"post_code":"4100804","prefecture":"SHIZUOKA KEN","city":"NUMAZU SHI","town":"SAIJOCHO","perfecture_jp":"静岡県","jp_add_1":"沼津市","jp_add_2":"西条町"},"4100862":{"post_code":"4100862","prefecture":"SHIZUOKA KEN","city":"NUMAZU SHI","town":"SAIWAICHO","perfecture_jp":"静岡県","jp_add_1":"沼津市","jp_add_2":"幸町"},"4100044":{"post_code":"4100044","prefecture":"SHIZUOKA KEN","city":"NUMAZU SHI","town":"SATSUKICHO","perfecture_jp":"静岡県","jp_add_1":"沼津市","jp_add_2":"五月町"},"4100052":{"post_code":"4100052","prefecture":"SHIZUOKA KEN","city":"NUMAZU SHI","town":"SAWADACHO","perfecture_jp":"静岡県","jp_add_1":"沼津市","jp_add_2":"沢田町"},"4100035":{"post_code":"4100035","prefecture":"SHIZUOKA KEN","city":"NUMAZU SHI","town":"SANNODAI","perfecture_jp":"静岡県","jp_add_1":"沼津市","jp_add_2":"山王台"},"4100031":{"post_code":"4100031","prefecture":"SHIZUOKA KEN","city":"NUMAZU SHI","town":"SAMMAIBASHI","perfecture_jp":"静岡県","jp_add_1":"沼津市","jp_add_2":"三枚橋"},"4100037":{"post_code":"4100037","prefecture":"SHIZUOKA KEN","city":"NUMAZU SHI","town":"SAMMAIBASHICHO","perfecture_jp":"静岡県","jp_add_1":"沼津市","jp_add_2":"三枚橋町"},"4100106":{"post_code":"4100106","prefecture":"SHIZUOKA KEN","city":"NUMAZU SHI","town":"SHIGE","perfecture_jp":"静岡県","jp_add_1":"沼津市","jp_add_2":"志下"},"4100104":{"post_code":"4100104","prefecture":"SHIZUOKA KEN","city":"NUMAZU SHI","town":"SHISHIHAMA","perfecture_jp":"静岡県","jp_add_1":"沼津市","jp_add_2":"獅子浜"},"4100867":{"post_code":"4100867","prefecture":"SHIZUOKA KEN","city":"NUMAZU SHI","town":"MATSUSHITAHICHITANDA","perfecture_jp":"静岡県","jp_add_1":"沼津市","jp_add_2":"下小路町"},"4100863":{"post_code":"4100863","prefecture":"SHIZUOKA KEN","city":"NUMAZU SHI","town":"SHIMOITCHODA","perfecture_jp":"静岡県","jp_add_1":"沼津市","jp_add_2":"下一丁田"},"4100822":{"post_code":"4100822","prefecture":"SHIZUOKA KEN","city":"NUMAZU SHI","town":"SHIMOKANUKI","perfecture_jp":"静岡県","jp_add_1":"沼津市","jp_add_2":"下香貫"},"4100841":{"post_code":"4100841","prefecture":"SHIZUOKA KEN","city":"NUMAZU SHI","town":"SHIMOGAWARACHO","perfecture_jp":"静岡県","jp_add_1":"沼津市","jp_add_2":"下河原町"},"4100885":{"post_code":"4100885","prefecture":"SHIZUOKA KEN","city":"NUMAZU SHI","town":"SHIMOHONCHO","perfecture_jp":"静岡県","jp_add_1":"沼津市","jp_add_2":"下本町"},"4100842":{"post_code":"4100842","prefecture":"SHIZUOKA KEN","city":"NUMAZU SHI","town":"JAMATSUCHO","perfecture_jp":"静岡県","jp_add_1":"沼津市","jp_add_2":"蛇松町"},"4100047":{"post_code":"4100047","prefecture":"SHIZUOKA KEN","city":"NUMAZU SHI","town":"SHOEICHO","perfecture_jp":"静岡県","jp_add_1":"沼津市","jp_add_2":"庄栄町"},"4100805":{"post_code":"4100805","prefecture":"SHIZUOKA KEN","city":"NUMAZU SHI","town":"SHIROGANECHO","perfecture_jp":"静岡県","jp_add_1":"沼津市","jp_add_2":"白銀町"},"4100003":{"post_code":"4100003","prefecture":"SHIZUOKA KEN","city":"NUMAZU SHI","town":"SHINSAWADACHO","perfecture_jp":"静岡県","jp_add_1":"沼津市","jp_add_2":"新沢田町"},"4100048":{"post_code":"4100048","prefecture":"SHIZUOKA KEN","city":"NUMAZU SHI","town":"SHINJUKUCHO","perfecture_jp":"静岡県","jp_add_1":"沼津市","jp_add_2":"新宿町"},"4100895":{"post_code":"4100895","prefecture":"SHIZUOKA KEN","city":"NUMAZU SHI","town":"SHINCHO","perfecture_jp":"静岡県","jp_add_1":"沼津市","jp_add_2":"新町"},"4100888":{"post_code":"4100888","prefecture":"SHIZUOKA KEN","city":"NUMAZU SHI","town":"SUEHIROCHO","perfecture_jp":"静岡県","jp_add_1":"沼津市","jp_add_2":"末広町"},"4100033":{"post_code":"4100033","prefecture":"SHIZUOKA KEN","city":"NUMAZU SHI","town":"SUGIZAKICHO","perfecture_jp":"静岡県","jp_add_1":"沼津市","jp_add_2":"杉崎町"},"4100816":{"post_code":"4100816","prefecture":"SHIZUOKA KEN","city":"NUMAZU SHI","town":"SUMIYOSHICHO","perfecture_jp":"静岡県","jp_add_1":"沼津市","jp_add_2":"住吉町"},"4100015":{"post_code":"4100015","prefecture":"SHIZUOKA KEN","city":"NUMAZU SHI","town":"SURUGADAI","perfecture_jp":"静岡県","jp_add_1":"沼津市","jp_add_2":"駿河台"},"4100886":{"post_code":"4100886","prefecture":"SHIZUOKA KEN","city":"NUMAZU SHI","town":"SENGENCHO","perfecture_jp":"静岡県","jp_add_1":"沼津市","jp_add_2":"浅間町"},"4100854":{"post_code":"4100854","prefecture":"SHIZUOKA KEN","city":"NUMAZU SHI","town":"SEMBON TOKIWACHO","perfecture_jp":"静岡県","jp_add_1":"沼津市","jp_add_2":"千本常盤町"},"4100847":{"post_code":"4100847","prefecture":"SHIZUOKA KEN","city":"NUMAZU SHI","town":"SEMBON NAKACHO","perfecture_jp":"静岡県","jp_add_1":"沼津市","jp_add_2":"千本中町"},"4100846":{"post_code":"4100846","prefecture":"SHIZUOKA KEN","city":"NUMAZU SHI","town":"SEMBON HIGASHICHO","perfecture_jp":"静岡県","jp_add_1":"沼津市","jp_add_2":"千本東町"},"4100848":{"post_code":"4100848","prefecture":"SHIZUOKA KEN","city":"NUMAZU SHI","town":"SEMBON NISHICHO","perfecture_jp":"静岡県","jp_add_1":"沼津市","jp_add_2":"千本西町"},"4100855":{"post_code":"4100855","prefecture":"SHIZUOKA KEN","city":"NUMAZU SHI","town":"SEMBON MIDORICHO","perfecture_jp":"静岡県","jp_add_1":"沼津市","jp_add_2":"千本緑町"},"4100845":{"post_code":"4100845","prefecture":"SHIZUOKA KEN","city":"NUMAZU SHI","town":"SEMBON MINATOMACHI","perfecture_jp":"静岡県","jp_add_1":"沼津市","jp_add_2":"千本港町"},"4100849":{"post_code":"4100849","prefecture":"SHIZUOKA KEN","city":"NUMAZU SHI","town":"SEMBONGORIN","perfecture_jp":"静岡県","jp_add_1":"沼津市","jp_add_2":"千本郷林"},"4100803":{"post_code":"4100803","prefecture":"SHIZUOKA KEN","city":"NUMAZU SHI","town":"SOECHICHO","perfecture_jp":"静岡県","jp_add_1":"沼津市","jp_add_2":"添地町"},"4100883":{"post_code":"4100883","prefecture":"SHIZUOKA KEN","city":"NUMAZU SHI","town":"DAIMONCHO","perfecture_jp":"静岡県","jp_add_1":"沼津市","jp_add_2":"大門町"},"4100017":{"post_code":"4100017","prefecture":"SHIZUOKA KEN","city":"NUMAZU SHI","town":"TAKAODAI","perfecture_jp":"静岡県","jp_add_1":"沼津市","jp_add_2":"高尾台"},"4100016":{"post_code":"4100016","prefecture":"SHIZUOKA KEN","city":"NUMAZU SHI","town":"TAKASAGOCHO","perfecture_jp":"静岡県","jp_add_1":"沼津市","jp_add_2":"高砂町"},"4100057":{"post_code":"4100057","prefecture":"SHIZUOKA KEN","city":"NUMAZU SHI","town":"TAKAZAWACHO","perfecture_jp":"静岡県","jp_add_1":"沼津市","jp_add_2":"高沢町"},"4100056":{"post_code":"4100056","prefecture":"SHIZUOKA KEN","city":"NUMAZU SHI","town":"TAKASHIMACHO","perfecture_jp":"静岡県","jp_add_1":"沼津市","jp_add_2":"高島町"},"4100055":{"post_code":"4100055","prefecture":"SHIZUOKA KEN","city":"NUMAZU SHI","town":"TAKASHIMAHONCHO","perfecture_jp":"静岡県","jp_add_1":"沼津市","jp_add_2":"高島本町"},"4100843":{"post_code":"4100843","prefecture":"SHIZUOKA KEN","city":"NUMAZU SHI","town":"TADEHARACHO","perfecture_jp":"静岡県","jp_add_1":"沼津市","jp_add_2":"蓼原町"},"4100101":{"post_code":"4100101","prefecture":"SHIZUOKA KEN","city":"NUMAZU SHI","town":"TABI","perfecture_jp":"静岡県","jp_add_1":"沼津市","jp_add_2":"多比"},"4100814":{"post_code":"4100814","prefecture":"SHIZUOKA KEN","city":"NUMAZU SHI","town":"TAMAECHO","perfecture_jp":"静岡県","jp_add_1":"沼津市","jp_add_2":"玉江町"},"4100041":{"post_code":"4100041","prefecture":"SHIZUOKA KEN","city":"NUMAZU SHI","town":"TSUTSUICHO","perfecture_jp":"静岡県","jp_add_1":"沼津市","jp_add_2":"筒井町"},"4100891":{"post_code":"4100891","prefecture":"SHIZUOKA KEN","city":"NUMAZU SHI","town":"TORIYOKOCHO","perfecture_jp":"静岡県","jp_add_1":"沼津市","jp_add_2":"通横町"},"4100853":{"post_code":"4100853","prefecture":"SHIZUOKA KEN","city":"NUMAZU SHI","town":"TOKIWACHO","perfecture_jp":"静岡県","jp_add_1":"沼津市","jp_add_2":"常盤町"},"4100305":{"post_code":"4100305","prefecture":"SHIZUOKA KEN","city":"NUMAZU SHI","town":"TOYA","perfecture_jp":"静岡県","jp_add_1":"沼津市","jp_add_2":"鳥谷"},"4100006":{"post_code":"4100006","prefecture":"SHIZUOKA KEN","city":"NUMAZU SHI","town":"NAKASAWADA","perfecture_jp":"静岡県","jp_add_1":"沼津市","jp_add_2":"中沢田"},"4100811":{"post_code":"4100811","prefecture":"SHIZUOKA KEN","city":"NUMAZU SHI","town":"NAKASECHO","perfecture_jp":"静岡県","jp_add_1":"沼津市","jp_add_2":"中瀬町"},"4100894":{"post_code":"4100894","prefecture":"SHIZUOKA KEN","city":"NUMAZU SHI","town":"NAKACHO","perfecture_jp":"静岡県","jp_add_1":"沼津市","jp_add_2":"仲町"},"4100818":{"post_code":"4100818","prefecture":"SHIZUOKA KEN","city":"NUMAZU SHI","town":"NAKAHARACHO","perfecture_jp":"静岡県","jp_add_1":"沼津市","jp_add_2":"中原町"},"4100242":{"post_code":"4100242","prefecture":"SHIZUOKA KEN","city":"NUMAZU SHI","town":"NISHIURA ASHIBO","perfecture_jp":"静岡県","jp_add_1":"沼津市","jp_add_2":"西浦足保"},"4100244":{"post_code":"4100244","prefecture":"SHIZUOKA KEN","city":"NUMAZU SHI","town":"NISHIURAOSE","perfecture_jp":"静岡県","jp_add_1":"沼津市","jp_add_2":"西浦江梨"},"4100231":{"post_code":"4100231","prefecture":"SHIZUOKA KEN","city":"NUMAZU SHI","town":"NISHIURA KISHO","perfecture_jp":"静岡県","jp_add_1":"沼津市","jp_add_2":"西浦木負"},"4100233":{"post_code":"4100233","prefecture":"SHIZUOKA KEN","city":"NUMAZU SHI","town":"NISHIURA KUZURA","perfecture_jp":"静岡県","jp_add_1":"沼津市","jp_add_2":"西浦久連"},"4100243":{"post_code":"4100243","prefecture":"SHIZUOKA KEN","city":"NUMAZU SHI","town":"NISHIURA KURYO","perfecture_jp":"静岡県","jp_add_1":"沼津市","jp_add_2":"西浦久料"},"4100241":{"post_code":"4100241","prefecture":"SHIZUOKA KEN","city":"NUMAZU SHI","town":"NISHIURA KO","perfecture_jp":"静岡県","jp_add_1":"沼津市","jp_add_2":"西浦古宇"},"4100232":{"post_code":"4100232","prefecture":"SHIZUOKA KEN","city":"NUMAZU SHI","town":"NISHIURA KOCHI","perfecture_jp":"静岡県","jp_add_1":"沼津市","jp_add_2":"西浦河内"},"4100235":{"post_code":"4100235","prefecture":"SHIZUOKA KEN","city":"NUMAZU SHI","town":"NISHIURA TACHIBO","perfecture_jp":"静岡県","jp_add_1":"沼津市","jp_add_2":"西浦立保"},"4100234":{"post_code":"4100234","prefecture":"SHIZUOKA KEN","city":"NUMAZU SHI","town":"NISHIURA HIRASAWA","perfecture_jp":"静岡県","jp_add_1":"沼津市","jp_add_2":"西浦平沢"},"4100807":{"post_code":"4100807","prefecture":"SHIZUOKA KEN","city":"NUMAZU SHI","town":"NISHIKICHO","perfecture_jp":"静岡県","jp_add_1":"沼津市","jp_add_2":"錦町"},"4100051":{"post_code":"4100051","prefecture":"SHIZUOKA KEN","city":"NUMAZU SHI","town":"NISHIKUMANDO","perfecture_jp":"静岡県","jp_add_1":"沼津市","jp_add_2":"西熊堂"},"4100007":{"post_code":"4100007","prefecture":"SHIZUOKA KEN","city":"NUMAZU SHI","town":"NISHISAWADA","perfecture_jp":"静岡県","jp_add_1":"沼津市","jp_add_2":"西沢田"},"4100303":{"post_code":"4100303","prefecture":"SHIZUOKA KEN","city":"NUMAZU SHI","town":"NISHISHIIJI","perfecture_jp":"静岡県","jp_add_1":"沼津市","jp_add_2":"西椎路"},"4100835":{"post_code":"4100835","prefecture":"SHIZUOKA KEN","city":"NUMAZU SHI","town":"NISHIJIMACHO","perfecture_jp":"静岡県","jp_add_1":"沼津市","jp_add_2":"西島町"},"4100313":{"post_code":"4100313","prefecture":"SHIZUOKA KEN","city":"NUMAZU SHI","town":"NISHIZOECHO","perfecture_jp":"静岡県","jp_add_1":"沼津市","jp_add_2":"西添町"},"4100321":{"post_code":"4100321","prefecture":"SHIZUOKA KEN","city":"NUMAZU SHI","town":"NISHINO","perfecture_jp":"静岡県","jp_add_1":"沼津市","jp_add_2":"西野"},"4100871":{"post_code":"4100871","prefecture":"SHIZUOKA KEN","city":"NUMAZU SHI","town":"NISHIMAKADO","perfecture_jp":"静岡県","jp_add_1":"沼津市","jp_add_2":"西間門"},"4100058":{"post_code":"4100058","prefecture":"SHIZUOKA KEN","city":"NUMAZU SHI","town":"NUMAKITACHO","perfecture_jp":"静岡県","jp_add_1":"沼津市","jp_add_2":"沼北町"},"4100309":{"post_code":"4100309","prefecture":"SHIZUOKA KEN","city":"NUMAZU SHI","town":"NEGOYA","perfecture_jp":"静岡県","jp_add_1":"沼津市","jp_add_2":"根古屋"},"4100881":{"post_code":"4100881","prefecture":"SHIZUOKA KEN","city":"NUMAZU SHI","town":"HACHIMANCHO","perfecture_jp":"静岡県","jp_add_1":"沼津市","jp_add_2":"八幡町"},"4100065":{"post_code":"4100065","prefecture":"SHIZUOKA KEN","city":"NUMAZU SHI","town":"HANAZONOCHO","perfecture_jp":"静岡県","jp_add_1":"沼津市","jp_add_2":"花園町"},"4100312":{"post_code":"4100312","prefecture":"SHIZUOKA KEN","city":"NUMAZU SHI","town":"HARA","perfecture_jp":"静岡県","jp_add_1":"沼津市","jp_add_2":"原"},"4100311":{"post_code":"4100311","prefecture":"SHIZUOKA KEN","city":"NUMAZU SHI","town":"HARAMACHINAKA","perfecture_jp":"静岡県","jp_add_1":"沼津市","jp_add_2":"原町中"},"4100013":{"post_code":"4100013","prefecture":"SHIZUOKA KEN","city":"NUMAZU SHI","town":"HIGASHIKUMANDO","perfecture_jp":"静岡県","jp_add_1":"沼津市","jp_add_2":"東熊堂"},"4100002":{"post_code":"4100002","prefecture":"SHIZUOKA KEN","city":"NUMAZU SHI","town":"HIGASHISAWADA","perfecture_jp":"静岡県","jp_add_1":"沼津市","jp_add_2":"東沢田"},"4100302":{"post_code":"4100302","prefecture":"SHIZUOKA KEN","city":"NUMAZU SHI","town":"HIGASHISHIIJI","perfecture_jp":"静岡県","jp_add_1":"沼津市","jp_add_2":"東椎路"},"4100304":{"post_code":"4100304","prefecture":"SHIZUOKA KEN","city":"NUMAZU SHI","town":"HIGASHIBARA","perfecture_jp":"静岡県","jp_add_1":"沼津市","jp_add_2":"東原"},"4100865":{"post_code":"4100865","prefecture":"SHIZUOKA KEN","city":"NUMAZU SHI","town":"HIGASHIMAKADO","perfecture_jp":"静岡県","jp_add_1":"沼津市","jp_add_2":"東間門"},"4100887":{"post_code":"4100887","prefecture":"SHIZUOKA KEN","city":"NUMAZU SHI","town":"HIGASHIMIYAUSHIROCHO","perfecture_jp":"静岡県","jp_add_1":"沼津市","jp_add_2":"東宮後町"},"4100032":{"post_code":"4100032","prefecture":"SHIZUOKA KEN","city":"NUMAZU SHI","town":"HINODECHO","perfecture_jp":"静岡県","jp_add_1":"沼津市","jp_add_2":"日の出町"},"4100318":{"post_code":"4100318","prefecture":"SHIZUOKA KEN","city":"NUMAZU SHI","town":"HIRANUMA","perfecture_jp":"静岡県","jp_add_1":"沼津市","jp_add_2":"平沼"},"4100036":{"post_code":"4100036","prefecture":"SHIZUOKA KEN","city":"NUMAZU SHI","town":"HIRAMACHI","perfecture_jp":"静岡県","jp_add_1":"沼津市","jp_add_2":"平町"},"4100034":{"post_code":"4100034","prefecture":"SHIZUOKA KEN","city":"NUMAZU SHI","town":"FUJIMICHO","perfecture_jp":"静岡県","jp_add_1":"沼津市","jp_add_2":"富士見町"},"4100005":{"post_code":"4100005","prefecture":"SHIZUOKA KEN","city":"NUMAZU SHI","town":"FUTABACHO","perfecture_jp":"静岡県","jp_add_1":"沼津市","jp_add_2":"双葉町"},"4103402":{"post_code":"4103402","prefecture":"SHIZUOKA KEN","city":"NUMAZU SHI","town":"HEDA","perfecture_jp":"静岡県","jp_add_1":"沼津市","jp_add_2":"戸田"},"4100817":{"post_code":"4100817","prefecture":"SHIZUOKA KEN","city":"NUMAZU SHI","town":"HONGOCHO","perfecture_jp":"静岡県","jp_add_1":"沼津市","jp_add_2":"本郷町"},"4100004":{"post_code":"4100004","prefecture":"SHIZUOKA KEN","city":"NUMAZU SHI","town":"HONTAMACHI","perfecture_jp":"静岡県","jp_add_1":"沼津市","jp_add_2":"本田町"},"4100884":{"post_code":"4100884","prefecture":"SHIZUOKA KEN","city":"NUMAZU SHI","town":"HONCHO","perfecture_jp":"静岡県","jp_add_1":"沼津市","jp_add_2":"本町"},"4100834":{"post_code":"4100834","prefecture":"SHIZUOKA KEN","city":"NUMAZU SHI","town":"MAKIJIMACHO","perfecture_jp":"静岡県","jp_add_1":"沼津市","jp_add_2":"槇島町"},"4100105":{"post_code":"4100105","prefecture":"SHIZUOKA KEN","city":"NUMAZU SHI","town":"MAGOME","perfecture_jp":"静岡県","jp_add_1":"沼津市","jp_add_2":"馬込"},"4100861":{"post_code":"4100861","prefecture":"SHIZUOKA KEN","city":"NUMAZU SHI","town":"MASAGOCHO","perfecture_jp":"静岡県","jp_add_1":"沼津市","jp_add_2":"真砂町"},"4100882":{"post_code":"4100882","prefecture":"SHIZUOKA KEN","city":"NUMAZU SHI","town":"MACHIKATAMACHI","perfecture_jp":"静岡県","jp_add_1":"沼津市","jp_add_2":"町方町"},"4100014":{"post_code":"4100014","prefecture":"SHIZUOKA KEN","city":"NUMAZU SHI","town":"MATSUSAWACHO","perfecture_jp":"静岡県","jp_add_1":"沼津市","jp_add_2":"松沢町"},"4100864":{"post_code":"4100864","prefecture":"SHIZUOKA KEN","city":"NUMAZU SHI","town":"MATSUSHITA","perfecture_jp":"静岡県","jp_add_1":"沼津市","jp_add_2":"松下"},"4100874":{"post_code":"4100874","prefecture":"SHIZUOKA KEN","city":"NUMAZU SHI","town":"MATSUNAGA","perfecture_jp":"静岡県","jp_add_1":"沼津市","jp_add_2":"松長"},"4100806":{"post_code":"4100806","prefecture":"SHIZUOKA KEN","city":"NUMAZU SHI","town":"MARUKOCHO","perfecture_jp":"静岡県","jp_add_1":"沼津市","jp_add_2":"丸子町"},"4100833":{"post_code":"4100833","prefecture":"SHIZUOKA KEN","city":"NUMAZU SHI","town":"MISONOCHO","perfecture_jp":"静岡県","jp_add_1":"沼津市","jp_add_2":"三園町"},"4100063":{"post_code":"4100063","prefecture":"SHIZUOKA KEN","city":"NUMAZU SHI","town":"MIDORIGAOKA","perfecture_jp":"静岡県","jp_add_1":"沼津市","jp_add_2":"緑ケ丘"},"4100815":{"post_code":"4100815","prefecture":"SHIZUOKA KEN","city":"NUMAZU SHI","town":"MINAMIHONGOCHO","perfecture_jp":"静岡県","jp_add_1":"沼津市","jp_add_2":"南本郷町"},"4100062":{"post_code":"4100062","prefecture":"SHIZUOKA KEN","city":"NUMAZU SHI","town":"MIYAMAECHO","perfecture_jp":"静岡県","jp_add_1":"沼津市","jp_add_2":"宮前町"},"4100851":{"post_code":"4100851","prefecture":"SHIZUOKA KEN","city":"NUMAZU SHI","town":"MIYAMACHI","perfecture_jp":"静岡県","jp_add_1":"沼津市","jp_add_2":"宮町"},"4100301":{"post_code":"4100301","prefecture":"SHIZUOKA KEN","city":"NUMAZU SHI","town":"MIYAMOTO","perfecture_jp":"静岡県","jp_add_1":"沼津市","jp_add_2":"宮本"},"4100832":{"post_code":"4100832","prefecture":"SHIZUOKA KEN","city":"NUMAZU SHI","town":"MIYUKICHO","perfecture_jp":"静岡県","jp_add_1":"沼津市","jp_add_2":"御幸町"},"4100038":{"post_code":"4100038","prefecture":"SHIZUOKA KEN","city":"NUMAZU SHI","town":"MIYOSHICHO","perfecture_jp":"静岡県","jp_add_1":"沼津市","jp_add_2":"三芳町"},"4100315":{"post_code":"4100315","prefecture":"SHIZUOKA KEN","city":"NUMAZU SHI","town":"MOMOZATO","perfecture_jp":"静岡県","jp_add_1":"沼津市","jp_add_2":"桃里"},"4100308":{"post_code":"4100308","prefecture":"SHIZUOKA KEN","city":"NUMAZU SHI","town":"YANAGISAWA","perfecture_jp":"静岡県","jp_add_1":"沼津市","jp_add_2":"柳沢"},"4100043":{"post_code":"4100043","prefecture":"SHIZUOKA KEN","city":"NUMAZU SHI","town":"YANAGICHO","perfecture_jp":"静岡県","jp_add_1":"沼津市","jp_add_2":"柳町"},"4100812":{"post_code":"4100812","prefecture":"SHIZUOKA KEN","city":"NUMAZU SHI","town":"YAMAGASHITACHO","perfecture_jp":"静岡県","jp_add_1":"沼津市","jp_add_2":"山ケ下町"},"4100018":{"post_code":"4100018","prefecture":"SHIZUOKA KEN","city":"NUMAZU SHI","town":"YUTAKACHO","perfecture_jp":"静岡県","jp_add_1":"沼津市","jp_add_2":"豊町"},"4100836":{"post_code":"4100836","prefecture":"SHIZUOKA KEN","city":"NUMAZU SHI","town":"YOSHIDACHO","perfecture_jp":"静岡県","jp_add_1":"沼津市","jp_add_2":"吉田町"},"4100046":{"post_code":"4100046","prefecture":"SHIZUOKA KEN","city":"NUMAZU SHI","town":"YONEYAMACHO","perfecture_jp":"静岡県","jp_add_1":"沼津市","jp_add_2":"米山町"},"4100059":{"post_code":"4100059","prefecture":"SHIZUOKA KEN","city":"NUMAZU SHI","town":"WAKABACHO","perfecture_jp":"静岡県","jp_add_1":"沼津市","jp_add_2":"若葉町"},"4101100":{"post_code":"4101100","prefecture":"SHIZUOKA KEN","city":"SUSONO SHI","town":"IKANIKEISAIGANAIBAAI","perfecture_jp":"静岡県","jp_add_1":"裾野市","jp_add_2":""},"4101108":{"post_code":"4101108","prefecture":"SHIZUOKA KEN","city":"SUSONO SHI","town":"AGETA","perfecture_jp":"静岡県","jp_add_1":"裾野市","jp_add_2":"上ケ田"},"4101117":{"post_code":"4101117","prefecture":"SHIZUOKA KEN","city":"SUSONO SHI","town":"ISHIWAKI","perfecture_jp":"静岡県","jp_add_1":"裾野市","jp_add_2":"石脇"},"4101123":{"post_code":"4101123","prefecture":"SHIZUOKA KEN","city":"SUSONO SHI","town":"IZUSHIMATA","perfecture_jp":"静岡県","jp_add_1":"裾野市","jp_add_2":"伊豆島田"},"4101113":{"post_code":"4101113","prefecture":"SHIZUOKA KEN","city":"SUSONO SHI","town":"INARI","perfecture_jp":"静岡県","jp_add_1":"裾野市","jp_add_2":"稲荷"},"4101104":{"post_code":"4101104","prefecture":"SHIZUOKA KEN","city":"SUSONO SHI","town":"IMAZATO","perfecture_jp":"静岡県","jp_add_1":"裾野市","jp_add_2":"今里"},"4101101":{"post_code":"4101101","prefecture":"SHIZUOKA KEN","city":"SUSONO SHI","town":"IWANAMI","perfecture_jp":"静岡県","jp_add_1":"裾野市","jp_add_2":"岩波"},"4101114":{"post_code":"4101114","prefecture":"SHIZUOKA KEN","city":"SUSONO SHI","town":"OHATA","perfecture_jp":"静岡県","jp_add_1":"裾野市","jp_add_2":"大畑"},"4101103":{"post_code":"4101103","prefecture":"SHIZUOKA KEN","city":"SUSONO SHI","town":"KAZURAYAMA","perfecture_jp":"静岡県","jp_add_1":"裾野市","jp_add_2":"葛山"},"4101106":{"post_code":"4101106","prefecture":"SHIZUOKA KEN","city":"SUSONO SHI","town":"KANEZAWA","perfecture_jp":"静岡県","jp_add_1":"裾野市","jp_add_2":"金沢"},"4101111":{"post_code":"4101111","prefecture":"SHIZUOKA KEN","city":"SUSONO SHI","town":"KUNE","perfecture_jp":"静岡県","jp_add_1":"裾野市","jp_add_2":"久根"},"4101112":{"post_code":"4101112","prefecture":"SHIZUOKA KEN","city":"SUSONO SHI","town":"KUMOMYO","perfecture_jp":"静岡県","jp_add_1":"裾野市","jp_add_2":"公文名"},"4101118":{"post_code":"4101118","prefecture":"SHIZUOKA KEN","city":"SUSONO SHI","town":"SANO","perfecture_jp":"静岡県","jp_add_1":"裾野市","jp_add_2":"佐野"},"4101105":{"post_code":"4101105","prefecture":"SHIZUOKA KEN","city":"SUSONO SHI","town":"SHIMOWADA","perfecture_jp":"静岡県","jp_add_1":"裾野市","jp_add_2":"下和田"},"4101231":{"post_code":"4101231","prefecture":"SHIZUOKA KEN","city":"SUSONO SHI","town":"SUYAMA","perfecture_jp":"静岡県","jp_add_1":"裾野市","jp_add_2":"須山"},"4101116":{"post_code":"4101116","prefecture":"SHIZUOKA KEN","city":"SUSONO SHI","town":"SEMPUKU","perfecture_jp":"静岡県","jp_add_1":"裾野市","jp_add_2":"千福"},"4101115":{"post_code":"4101115","prefecture":"SHIZUOKA KEN","city":"SUSONO SHI","town":"SEMPUKUGAOKA","perfecture_jp":"静岡県","jp_add_1":"裾野市","jp_add_2":"千福が丘"},"4101121":{"post_code":"4101121","prefecture":"SHIZUOKA KEN","city":"SUSONO SHI","town":"CHABATAKE","perfecture_jp":"静岡県","jp_add_1":"裾野市","jp_add_2":"茶畑"},"4101125":{"post_code":"4101125","prefecture":"SHIZUOKA KEN","city":"SUSONO SHI","town":"TOMIZAWA","perfecture_jp":"静岡県","jp_add_1":"裾野市","jp_add_2":"富沢"},"4101127":{"post_code":"4101127","prefecture":"SHIZUOKA KEN","city":"SUSONO SHI","town":"HIRAMATSU","perfecture_jp":"静岡県","jp_add_1":"裾野市","jp_add_2":"平松"},"4101102":{"post_code":"4101102","prefecture":"SHIZUOKA KEN","city":"SUSONO SHI","town":"FUKARA","perfecture_jp":"静岡県","jp_add_1":"裾野市","jp_add_2":"深良"},"4101128":{"post_code":"4101128","prefecture":"SHIZUOKA KEN","city":"SUSONO SHI","town":"FUTATSUYA","perfecture_jp":"静岡県","jp_add_1":"裾野市","jp_add_2":"二ツ屋"},"4101107":{"post_code":"4101107","prefecture":"SHIZUOKA KEN","city":"SUSONO SHI","town":"MISHUKU","perfecture_jp":"静岡県","jp_add_1":"裾野市","jp_add_2":"御宿"},"4101124":{"post_code":"4101124","prefecture":"SHIZUOKA KEN","city":"SUSONO SHI","town":"MIZUKUBO","perfecture_jp":"静岡県","jp_add_1":"裾野市","jp_add_2":"水窪"},"4101122":{"post_code":"4101122","prefecture":"SHIZUOKA KEN","city":"SUSONO SHI","town":"MUGITSUKA","perfecture_jp":"静岡県","jp_add_1":"裾野市","jp_add_2":"麦塚"},"4101126":{"post_code":"4101126","prefecture":"SHIZUOKA KEN","city":"SUSONO SHI","town":"MOMOZONO","perfecture_jp":"静岡県","jp_add_1":"裾野市","jp_add_2":"桃園"},"4101109":{"post_code":"4101109","prefecture":"SHIZUOKA KEN","city":"SUSONO SHI","town":"YOBIKO","perfecture_jp":"静岡県","jp_add_1":"裾野市","jp_add_2":"呼子"},"4102400":{"post_code":"4102400","prefecture":"SHIZUOKA KEN","city":"IZU SHI","town":"IKANIKEISAIGANAIBAAI","perfecture_jp":"静岡県","jp_add_1":"伊豆市","jp_add_2":""},"4103213":{"post_code":"4103213","prefecture":"SHIZUOKA KEN","city":"IZU SHI","town":"AOBANE","perfecture_jp":"静岡県","jp_add_1":"伊豆市","jp_add_2":"青羽根"},"4102516":{"post_code":"4102516","prefecture":"SHIZUOKA KEN","city":"IZU SHI","town":"IKADABA","perfecture_jp":"静岡県","jp_add_1":"伊豆市","jp_add_2":"筏場"},"4103205":{"post_code":"4103205","prefecture":"SHIZUOKA KEN","city":"IZU SHI","town":"ICHIYAMA","perfecture_jp":"静岡県","jp_add_1":"伊豆市","jp_add_2":"市山"},"4102509":{"post_code":"4102509","prefecture":"SHIZUOKA KEN","city":"IZU SHI","town":"UMEGI","perfecture_jp":"静岡県","jp_add_1":"伊豆市","jp_add_2":"梅木"},"4102412":{"post_code":"4102412","prefecture":"SHIZUOKA KEN","city":"IZU SHI","town":"URYUNO","perfecture_jp":"静岡県","jp_add_1":"伊豆市","jp_add_2":"瓜生野"},"4102417":{"post_code":"4102417","prefecture":"SHIZUOKA KEN","city":"IZU SHI","town":"OSAWA","perfecture_jp":"静岡県","jp_add_1":"伊豆市","jp_add_2":"大沢"},"4102415":{"post_code":"4102415","prefecture":"SHIZUOKA KEN","city":"IZU SHI","town":"ODAIRA","perfecture_jp":"静岡県","jp_add_1":"伊豆市","jp_add_2":"大平"},"4103217":{"post_code":"4103217","prefecture":"SHIZUOKA KEN","city":"IZU SHI","town":"ODAIRAKAKIGI","perfecture_jp":"静岡県","jp_add_1":"伊豆市","jp_add_2":"大平柿木"},"4102402":{"post_code":"4102402","prefecture":"SHIZUOKA KEN","city":"IZU SHI","town":"ONO","perfecture_jp":"静岡県","jp_add_1":"伊豆市","jp_add_2":"大野"},"4103301":{"post_code":"4103301","prefecture":"SHIZUOKA KEN","city":"IZU SHI","town":"ODOI","perfecture_jp":"静岡県","jp_add_1":"伊豆市","jp_add_2":"小土肥"},"4102407":{"post_code":"4102407","prefecture":"SHIZUOKA KEN","city":"IZU SHI","town":"KASHIWAKUBO","perfecture_jp":"静岡県","jp_add_1":"伊豆市","jp_add_2":"柏久保"},"4102405":{"post_code":"4102405","prefecture":"SHIZUOKA KEN","city":"IZU SHI","town":"KADONO","perfecture_jp":"静岡県","jp_add_1":"伊豆市","jp_add_2":"加殿"},"4103209":{"post_code":"4103209","prefecture":"SHIZUOKA KEN","city":"IZU SHI","town":"KADONOHARA","perfecture_jp":"静岡県","jp_add_1":"伊豆市","jp_add_2":"門野原"},"4102502":{"post_code":"4102502","prefecture":"SHIZUOKA KEN","city":"IZU SHI","town":"KAMISHIRAIWA","perfecture_jp":"静岡県","jp_add_1":"伊豆市","jp_add_2":"上白岩"},"4103216":{"post_code":"4103216","prefecture":"SHIZUOKA KEN","city":"IZU SHI","town":"KAMIFUNABARA","perfecture_jp":"静岡県","jp_add_1":"伊豆市","jp_add_2":"上船原"},"4102517":{"post_code":"4102517","prefecture":"SHIZUOKA KEN","city":"IZU SHI","town":"KISOBO","perfecture_jp":"静岡県","jp_add_1":"伊豆市","jp_add_2":"貴僧坊"},"4102411":{"post_code":"4102411","prefecture":"SHIZUOKA KEN","city":"IZU SHI","town":"KUMASAKA","perfecture_jp":"静岡県","jp_add_1":"伊豆市","jp_add_2":"熊坂"},"4103202":{"post_code":"4103202","prefecture":"SHIZUOKA KEN","city":"IZU SHI","town":"KUMOGANE","perfecture_jp":"静岡県","jp_add_1":"伊豆市","jp_add_2":"雲金"},"4103304":{"post_code":"4103304","prefecture":"SHIZUOKA KEN","city":"IZU SHI","town":"KOSHIMODA","perfecture_jp":"静岡県","jp_add_1":"伊豆市","jp_add_2":"小下田"},"4102413":{"post_code":"4102413","prefecture":"SHIZUOKA KEN","city":"IZU SHI","town":"KODACHINO","perfecture_jp":"静岡県","jp_add_1":"伊豆市","jp_add_2":"小立野"},"4103201":{"post_code":"4103201","prefecture":"SHIZUOKA KEN","city":"IZU SHI","town":"SANO","perfecture_jp":"静岡県","jp_add_1":"伊豆市","jp_add_2":"佐野"},"4102515":{"post_code":"4102515","prefecture":"SHIZUOKA KEN","city":"IZU SHI","town":"JIZODO","perfecture_jp":"静岡県","jp_add_1":"伊豆市","jp_add_2":"地蔵堂"},"4102501":{"post_code":"4102501","prefecture":"SHIZUOKA KEN","city":"IZU SHI","town":"SHIMOSHIRAIWA","perfecture_jp":"静岡県","jp_add_1":"伊豆市","jp_add_2":"下白岩"},"4103214":{"post_code":"4103214","prefecture":"SHIZUOKA KEN","city":"IZU SHI","town":"SHIMOFUNABARA","perfecture_jp":"静岡県","jp_add_1":"伊豆市","jp_add_2":"下船原"},"4102416":{"post_code":"4102416","prefecture":"SHIZUOKA KEN","city":"IZU SHI","town":"SHUZENJI","perfecture_jp":"静岡県","jp_add_1":"伊豆市","jp_add_2":"修善寺"},"4102503":{"post_code":"4102503","prefecture":"SHIZUOKA KEN","city":"IZU SHI","town":"JO","perfecture_jp":"静岡県","jp_add_1":"伊豆市","jp_add_2":"城"},"4102513":{"post_code":"4102513","prefecture":"SHIZUOKA KEN","city":"IZU SHI","town":"SUGEHIKI","perfecture_jp":"静岡県","jp_add_1":"伊豆市","jp_add_2":"菅引"},"4102504":{"post_code":"4102504","prefecture":"SHIZUOKA KEN","city":"IZU SHI","town":"SEKINO","perfecture_jp":"静岡県","jp_add_1":"伊豆市","jp_add_2":"関野"},"4103204":{"post_code":"4103204","prefecture":"SHIZUOKA KEN","city":"IZU SHI","town":"TAZAWA","perfecture_jp":"静岡県","jp_add_1":"伊豆市","jp_add_2":"田沢"},"4102404":{"post_code":"4102404","prefecture":"SHIZUOKA KEN","city":"IZU SHI","town":"TASHIRO","perfecture_jp":"静岡県","jp_add_1":"伊豆市","jp_add_2":"田代"},"4103215":{"post_code":"4103215","prefecture":"SHIZUOKA KEN","city":"IZU SHI","town":"TSUKIGASE","perfecture_jp":"静岡県","jp_add_1":"伊豆市","jp_add_2":"月ケ瀬"},"4103302":{"post_code":"4103302","prefecture":"SHIZUOKA KEN","city":"IZU SHI","town":"TOI","perfecture_jp":"静岡県","jp_add_1":"伊豆市","jp_add_2":"土肥"},"4102506":{"post_code":"4102506","prefecture":"SHIZUOKA KEN","city":"IZU SHI","town":"TOKUNAGA","perfecture_jp":"静岡県","jp_add_1":"伊豆市","jp_add_2":"徳永"},"4102519":{"post_code":"4102519","prefecture":"SHIZUOKA KEN","city":"IZU SHI","town":"TOKURANO","perfecture_jp":"静岡県","jp_add_1":"伊豆市","jp_add_2":"戸倉野"},"4102403":{"post_code":"4102403","prefecture":"SHIZUOKA KEN","city":"IZU SHI","town":"TOSHIGAWA","perfecture_jp":"静岡県","jp_add_1":"伊豆市","jp_add_2":"年川"},"4102512":{"post_code":"4102512","prefecture":"SHIZUOKA KEN","city":"IZU SHI","town":"NAKAHARATO","perfecture_jp":"静岡県","jp_add_1":"伊豆市","jp_add_2":"中原戸"},"4102505":{"post_code":"4102505","prefecture":"SHIZUOKA KEN","city":"IZU SHI","town":"HATSUMA","perfecture_jp":"静岡県","jp_add_1":"伊豆市","jp_add_2":"八幡"},"4102507":{"post_code":"4102507","prefecture":"SHIZUOKA KEN","city":"IZU SHI","town":"HIEKAWA","perfecture_jp":"静岡県","jp_add_1":"伊豆市","jp_add_2":"冷川"},"4102406":{"post_code":"4102406","prefecture":"SHIZUOKA KEN","city":"IZU SHI","town":"HINATA","perfecture_jp":"静岡県","jp_add_1":"伊豆市","jp_add_2":"日向"},"4102518":{"post_code":"4102518","prefecture":"SHIZUOKA KEN","city":"IZU SHI","town":"HIMENOYU","perfecture_jp":"静岡県","jp_add_1":"伊豆市","jp_add_2":"姫之湯"},"4102418":{"post_code":"4102418","prefecture":"SHIZUOKA KEN","city":"IZU SHI","town":"HORIGIRI","perfecture_jp":"静岡県","jp_add_1":"伊豆市","jp_add_2":"堀切"},"4103212":{"post_code":"4103212","prefecture":"SHIZUOKA KEN","city":"IZU SHI","town":"HONKAKIGI","perfecture_jp":"静岡県","jp_add_1":"伊豆市","jp_add_2":"本柿木"},"4102414":{"post_code":"4102414","prefecture":"SHIZUOKA KEN","city":"IZU SHI","town":"HONDACHINO","perfecture_jp":"静岡県","jp_add_1":"伊豆市","jp_add_2":"本立野"},"4102401":{"post_code":"4102401","prefecture":"SHIZUOKA KEN","city":"IZU SHI","town":"MAKINOKO","perfecture_jp":"静岡県","jp_add_1":"伊豆市","jp_add_2":"牧之郷"},"4103211":{"post_code":"4103211","prefecture":"SHIZUOKA KEN","city":"IZU SHI","town":"MATSUGASE","perfecture_jp":"静岡県","jp_add_1":"伊豆市","jp_add_2":"松ケ瀬"},"4102511":{"post_code":"4102511","prefecture":"SHIZUOKA KEN","city":"IZU SHI","town":"MIYAKAMI","perfecture_jp":"静岡県","jp_add_1":"伊豆市","jp_add_2":"宮上"},"4103207":{"post_code":"4103207","prefecture":"SHIZUOKA KEN","city":"IZU SHI","town":"MOCHIKOSHI","perfecture_jp":"静岡県","jp_add_1":"伊豆市","jp_add_2":"持越"},"4103303":{"post_code":"4103303","prefecture":"SHIZUOKA KEN","city":"IZU SHI","town":"YAGISAWA","perfecture_jp":"静岡県","jp_add_1":"伊豆市","jp_add_2":"八木沢"},"4103203":{"post_code":"4103203","prefecture":"SHIZUOKA KEN","city":"IZU SHI","town":"YAGUMA","perfecture_jp":"静岡県","jp_add_1":"伊豆市","jp_add_2":"矢熊"},"4102508":{"post_code":"4102508","prefecture":"SHIZUOKA KEN","city":"IZU SHI","town":"YANASE","perfecture_jp":"静岡県","jp_add_1":"伊豆市","jp_add_2":"柳瀬"},"4103206":{"post_code":"4103206","prefecture":"SHIZUOKA KEN","city":"IZU SHI","town":"YUGASHIMA","perfecture_jp":"静岡県","jp_add_1":"伊豆市","jp_add_2":"湯ケ島"},"4103208":{"post_code":"4103208","prefecture":"SHIZUOKA KEN","city":"IZU SHI","town":"YOSHINA","perfecture_jp":"静岡県","jp_add_1":"伊豆市","jp_add_2":"吉奈"},"4102514":{"post_code":"4102514","prefecture":"SHIZUOKA KEN","city":"IZU SHI","town":"WARABO","perfecture_jp":"静岡県","jp_add_1":"伊豆市","jp_add_2":"原保"},"4102200":{"post_code":"4102200","prefecture":"SHIZUOKA KEN","city":"IZUNOKUNI SHI","town":"IKANIKEISAIGANAIBAAI","perfecture_jp":"静岡県","jp_add_1":"伊豆の国市","jp_add_2":""},"4102202":{"post_code":"4102202","prefecture":"SHIZUOKA KEN","city":"IZUNOKUNI SHI","town":"AMANO","perfecture_jp":"静岡県","jp_add_1":"伊豆の国市","jp_add_2":"天野"},"4102311":{"post_code":"4102311","prefecture":"SHIZUOKA KEN","city":"IZUNOKUNI SHI","town":"UKIHASHI","perfecture_jp":"静岡県","jp_add_1":"伊豆の国市","jp_add_2":"浮橋"},"4102112":{"post_code":"4102112","prefecture":"SHIZUOKA KEN","city":"IZUNOKUNI SHI","town":"UCHINAKA","perfecture_jp":"静岡県","jp_add_1":"伊豆の国市","jp_add_2":"内中"},"4102103":{"post_code":"4102103","prefecture":"SHIZUOKA KEN","city":"IZUNOKUNI SHI","town":"EMERARUDOTAUN","perfecture_jp":"静岡県","jp_add_1":"伊豆の国市","jp_add_2":"エメラルドタウン"},"4102323":{"post_code":"4102323","prefecture":"SHIZUOKA KEN","city":"IZUNOKUNI SHI","town":"OHITO","perfecture_jp":"静岡県","jp_add_1":"伊豆の国市","jp_add_2":"大仁"},"4102203":{"post_code":"4102203","prefecture":"SHIZUOKA KEN","city":"IZUNOKUNI SHI","town":"OSAKA","perfecture_jp":"静岡県","jp_add_1":"伊豆の国市","jp_add_2":"小坂"},"4102325":{"post_code":"4102325","prefecture":"SHIZUOKA KEN","city":"IZUNOKUNI SHI","town":"KAMISHIMA","perfecture_jp":"静岡県","jp_add_1":"伊豆の国市","jp_add_2":"神島"},"4102223":{"post_code":"4102223","prefecture":"SHIZUOKA KEN","city":"IZUNOKUNI SHI","town":"KITAEMA","perfecture_jp":"静岡県","jp_add_1":"伊豆の国市","jp_add_2":"北江間"},"4102201":{"post_code":"4102201","prefecture":"SHIZUOKA KEN","city":"IZUNOKUNI SHI","town":"KONA","perfecture_jp":"静岡県","jp_add_1":"伊豆の国市","jp_add_2":"古奈"},"4102101":{"post_code":"4102101","prefecture":"SHIZUOKA KEN","city":"IZUNOKUNI SHI","town":"KOMATSUGAHARA","perfecture_jp":"静岡県","jp_add_1":"伊豆の国市","jp_add_2":"小松ケ原"},"4102122":{"post_code":"4102122","prefecture":"SHIZUOKA KEN","city":"IZUNOKUNI SHI","town":"JIKE","perfecture_jp":"静岡県","jp_add_1":"伊豆の国市","jp_add_2":"寺家"},"4102314":{"post_code":"4102314","prefecture":"SHIZUOKA KEN","city":"IZUNOKUNI SHI","town":"SHIMOHATA","perfecture_jp":"静岡県","jp_add_1":"伊豆の国市","jp_add_2":"下畑"},"4102318":{"post_code":"4102318","prefecture":"SHIZUOKA KEN","city":"IZUNOKUNI SHI","town":"SHIRAYAMADO","perfecture_jp":"静岡県","jp_add_1":"伊豆の国市","jp_add_2":"白山堂"},"4102302":{"post_code":"4102302","prefecture":"SHIZUOKA KEN","city":"IZUNOKUNI SHI","town":"SOKOJI","perfecture_jp":"静岡県","jp_add_1":"伊豆の国市","jp_add_2":"宗光寺"},"4102304":{"post_code":"4102304","prefecture":"SHIZUOKA KEN","city":"IZUNOKUNI SHI","town":"SOKOJI(SEIWA)","perfecture_jp":"静岡県","jp_add_1":"伊豆の国市","jp_add_2":"宗光寺"},"4102315":{"post_code":"4102315","prefecture":"SHIZUOKA KEN","city":"IZUNOKUNI SHI","town":"TAKYO","perfecture_jp":"静岡県","jp_add_1":"伊豆の国市","jp_add_2":"田京"},"4102303":{"post_code":"4102303","prefecture":"SHIZUOKA KEN","city":"IZUNOKUNI SHI","town":"TACHIBANA","perfecture_jp":"静岡県","jp_add_1":"伊豆の国市","jp_add_2":"立花"},"4102111":{"post_code":"4102111","prefecture":"SHIZUOKA KEN","city":"IZUNOKUNI SHI","town":"TACHIBANADAI","perfecture_jp":"静岡県","jp_add_1":"伊豆の国市","jp_add_2":"立花台"},"4102301":{"post_code":"4102301","prefecture":"SHIZUOKA KEN","city":"IZUNOKUNI SHI","town":"TANAKAYAMA","perfecture_jp":"静岡県","jp_add_1":"伊豆の国市","jp_add_2":"田中山"},"4102313":{"post_code":"4102313","prefecture":"SHIZUOKA KEN","city":"IZUNOKUNI SHI","town":"TAWARANO","perfecture_jp":"静岡県","jp_add_1":"伊豆の国市","jp_add_2":"田原野"},"4102121":{"post_code":"4102121","prefecture":"SHIZUOKA KEN","city":"IZUNOKUNI SHI","town":"CHUJO","perfecture_jp":"静岡県","jp_add_1":"伊豆の国市","jp_add_2":"中條"},"4102312":{"post_code":"4102312","prefecture":"SHIZUOKA KEN","city":"IZUNOKUNI SHI","town":"CHOJAGAHARA","perfecture_jp":"静岡県","jp_add_1":"伊豆の国市","jp_add_2":"長者原"},"4102213":{"post_code":"4102213","prefecture":"SHIZUOKA KEN","city":"IZUNOKUNI SHI","town":"TOSAWA","perfecture_jp":"静岡県","jp_add_1":"伊豆の国市","jp_add_2":"戸沢"},"4102113":{"post_code":"4102113","prefecture":"SHIZUOKA KEN","city":"IZUNOKUNI SHI","town":"NAKA","perfecture_jp":"静岡県","jp_add_1":"伊豆の国市","jp_add_2":"中"},"4102211":{"post_code":"4102211","prefecture":"SHIZUOKA KEN","city":"IZUNOKUNI SHI","town":"NAGAOKA","perfecture_jp":"静岡県","jp_add_1":"伊豆の国市","jp_add_2":"長岡"},"4102131":{"post_code":"4102131","prefecture":"SHIZUOKA KEN","city":"IZUNOKUNI SHI","town":"NAGASAKI","perfecture_jp":"静岡県","jp_add_1":"伊豆の国市","jp_add_2":"長崎"},"4102324":{"post_code":"4102324","prefecture":"SHIZUOKA KEN","city":"IZUNOKUNI SHI","town":"NAKAJIMA","perfecture_jp":"静岡県","jp_add_1":"伊豆の国市","jp_add_2":"中島"},"4102212":{"post_code":"4102212","prefecture":"SHIZUOKA KEN","city":"IZUNOKUNI SHI","town":"NAGASE","perfecture_jp":"静岡県","jp_add_1":"伊豆の国市","jp_add_2":"長瀬"},"4102132":{"post_code":"4102132","prefecture":"SHIZUOKA KEN","city":"IZUNOKUNI SHI","town":"NAGOYA","perfecture_jp":"静岡県","jp_add_1":"伊豆の国市","jp_add_2":"奈古谷"},"4102114":{"post_code":"4102114","prefecture":"SHIZUOKA KEN","city":"IZUNOKUNI SHI","town":"NANJO","perfecture_jp":"静岡県","jp_add_1":"伊豆の国市","jp_add_2":"南條"},"4102142":{"post_code":"4102142","prefecture":"SHIZUOKA KEN","city":"IZUNOKUNI SHI","town":"NIRAYAMAKANAYA","perfecture_jp":"静岡県","jp_add_1":"伊豆の国市","jp_add_2":"韮山金谷"},"4102133":{"post_code":"4102133","prefecture":"SHIZUOKA KEN","city":"IZUNOKUNI SHI","town":"NIRAYAMATADA","perfecture_jp":"静岡県","jp_add_1":"伊豆の国市","jp_add_2":"韮山多田"},"4102144":{"post_code":"4102144","prefecture":"SHIZUOKA KEN","city":"IZUNOKUNI SHI","town":"NIRAYAMADOTEWADA","perfecture_jp":"静岡県","jp_add_1":"伊豆の国市","jp_add_2":"韮山土手和田"},"4102143":{"post_code":"4102143","prefecture":"SHIZUOKA KEN","city":"IZUNOKUNI SHI","town":"NIRAYAMANIRAYAMA","perfecture_jp":"静岡県","jp_add_1":"伊豆の国市","jp_add_2":"韮山韮山"},"4102141":{"post_code":"4102141","prefecture":"SHIZUOKA KEN","city":"IZUNOKUNI SHI","town":"NIRAYAMAYAMAKI","perfecture_jp":"静岡県","jp_add_1":"伊豆の国市","jp_add_2":"韮山山木"},"4102214":{"post_code":"4102214","prefecture":"SHIZUOKA KEN","city":"IZUNOKUNI SHI","town":"HANASAKA","perfecture_jp":"静岡県","jp_add_1":"伊豆の国市","jp_add_2":"花坂"},"4102124":{"post_code":"4102124","prefecture":"SHIZUOKA KEN","city":"IZUNOKUNI SHI","town":"BARAKI","perfecture_jp":"静岡県","jp_add_1":"伊豆の国市","jp_add_2":"原木"},"4102205":{"post_code":"4102205","prefecture":"SHIZUOKA KEN","city":"IZUNOKUNI SHI","town":"FUJIMI","perfecture_jp":"静岡県","jp_add_1":"伊豆の国市","jp_add_2":"富士見"},"4102102":{"post_code":"4102102","prefecture":"SHIZUOKA KEN","city":"IZUNOKUNI SHI","town":"FUJIMINYUTAUN","perfecture_jp":"静岡県","jp_add_1":"伊豆の国市","jp_add_2":"富士見ニュータウン"},"4102204":{"post_code":"4102204","prefecture":"SHIZUOKA KEN","city":"IZUNOKUNI SHI","town":"MAMANOE","perfecture_jp":"静岡県","jp_add_1":"伊豆の国市","jp_add_2":"墹之上"},"4102316":{"post_code":"4102316","prefecture":"SHIZUOKA KEN","city":"IZUNOKUNI SHI","town":"MIKADO","perfecture_jp":"静岡県","jp_add_1":"伊豆の国市","jp_add_2":"御門"},"4102221":{"post_code":"4102221","prefecture":"SHIZUOKA KEN","city":"IZUNOKUNI SHI","town":"MINAMIEMA","perfecture_jp":"静岡県","jp_add_1":"伊豆の国市","jp_add_2":"南江間"},"4102321":{"post_code":"4102321","prefecture":"SHIZUOKA KEN","city":"IZUNOKUNI SHI","town":"MIFUKU","perfecture_jp":"静岡県","jp_add_1":"伊豆の国市","jp_add_2":"三福"},"4102317":{"post_code":"4102317","prefecture":"SHIZUOKA KEN","city":"IZUNOKUNI SHI","town":"MORIKI","perfecture_jp":"静岡県","jp_add_1":"伊豆の国市","jp_add_2":"守木"},"4102322":{"post_code":"4102322","prefecture":"SHIZUOKA KEN","city":"IZUNOKUNI SHI","town":"YOSHIDA","perfecture_jp":"静岡県","jp_add_1":"伊豆の国市","jp_add_2":"吉田"},"4102123":{"post_code":"4102123","prefecture":"SHIZUOKA KEN","city":"IZUNOKUNI SHI","town":"YOKKAMACHI","perfecture_jp":"静岡県","jp_add_1":"伊豆の国市","jp_add_2":"四日町"},"4103600":{"post_code":"4103600","prefecture":"SHIZUOKA KEN","city":"KAMO GUN MATSUZAKI CHO","town":"IKANIKEISAIGANAIBAAI","perfecture_jp":"静岡県","jp_add_1":"賀茂郡松崎町","jp_add_2":""},"4103603":{"post_code":"4103603","prefecture":"SHIZUOKA KEN","city":"KAMO GUN MATSUZAKI CHO","town":"AKEBUSHI","perfecture_jp":"静岡県","jp_add_1":"賀茂郡松崎町","jp_add_2":"明伏"},"4103601":{"post_code":"4103601","prefecture":"SHIZUOKA KEN","city":"KAMO GUN MATSUZAKI CHO","town":"IKESHIRO","perfecture_jp":"静岡県","jp_add_1":"賀茂郡松崎町","jp_add_2":"池代"},"4103616":{"post_code":"4103616","prefecture":"SHIZUOKA KEN","city":"KAMO GUN MATSUZAKI CHO","town":"ISHIBU","perfecture_jp":"静岡県","jp_add_1":"賀茂郡松崎町","jp_add_2":"石部"},"4103614":{"post_code":"4103614","prefecture":"SHIZUOKA KEN","city":"KAMO GUN MATSUZAKI CHO","town":"IWASHINANANSOKU","perfecture_jp":"静岡県","jp_add_1":"賀茂郡松崎町","jp_add_2":"岩科南側"},"4103613":{"post_code":"4103613","prefecture":"SHIZUOKA KEN","city":"KAMO GUN MATSUZAKI CHO","town":"IWASHINAHOKUSOKU","perfecture_jp":"静岡県","jp_add_1":"賀茂郡松崎町","jp_add_2":"岩科北側"},"4103617":{"post_code":"4103617","prefecture":"SHIZUOKA KEN","city":"KAMO GUN MATSUZAKI CHO","town":"IWACHI","perfecture_jp":"静岡県","jp_add_1":"賀茂郡松崎町","jp_add_2":"岩地"},"4103624":{"post_code":"4103624","prefecture":"SHIZUOKA KEN","city":"KAMO GUN MATSUZAKI CHO","town":"ENA","perfecture_jp":"静岡県","jp_add_1":"賀茂郡松崎町","jp_add_2":"江奈"},"4103604":{"post_code":"4103604","prefecture":"SHIZUOKA KEN","city":"KAMO GUN MATSUZAKI CHO","town":"OSAWA","perfecture_jp":"静岡県","jp_add_1":"賀茂郡松崎町","jp_add_2":"大沢"},"4103607":{"post_code":"4103607","prefecture":"SHIZUOKA KEN","city":"KAMO GUN MATSUZAKI CHO","town":"KADONO","perfecture_jp":"静岡県","jp_add_1":"賀茂郡松崎町","jp_add_2":"門野"},"4103615":{"post_code":"4103615","prefecture":"SHIZUOKA KEN","city":"KAMO GUN MATSUZAKI CHO","town":"KUMOMI","perfecture_jp":"静岡県","jp_add_1":"賀茂郡松崎町","jp_add_2":"雲見"},"4103627":{"post_code":"4103627","prefecture":"SHIZUOKA KEN","city":"KAMO GUN MATSUZAKI CHO","town":"KENKYUJI","perfecture_jp":"静岡県","jp_add_1":"賀茂郡松崎町","jp_add_2":"建久寺"},"4103602":{"post_code":"4103602","prefecture":"SHIZUOKA KEN","city":"KAMO GUN MATSUZAKI CHO","town":"KOSUGIHARA","perfecture_jp":"静岡県","jp_add_1":"賀茂郡松崎町","jp_add_2":"小杉原"},"4103625":{"post_code":"4103625","prefecture":"SHIZUOKA KEN","city":"KAMO GUN MATSUZAKI CHO","town":"SAKURADA","perfecture_jp":"静岡県","jp_add_1":"賀茂郡松崎町","jp_add_2":"桜田"},"4103623":{"post_code":"4103623","prefecture":"SHIZUOKA KEN","city":"KAMO GUN MATSUZAKI CHO","town":"SHIKURA","perfecture_jp":"静岡県","jp_add_1":"賀茂郡松崎町","jp_add_2":"伏倉"},"4103626":{"post_code":"4103626","prefecture":"SHIZUOKA KEN","city":"KAMO GUN MATSUZAKI CHO","town":"NAKA","perfecture_jp":"静岡県","jp_add_1":"賀茂郡松崎町","jp_add_2":"那賀"},"4103622":{"post_code":"4103622","prefecture":"SHIZUOKA KEN","city":"KAMO GUN MATSUZAKI CHO","town":"NANGO","perfecture_jp":"静岡県","jp_add_1":"賀茂郡松崎町","jp_add_2":"南郷"},"4103606":{"post_code":"4103606","prefecture":"SHIZUOKA KEN","city":"KAMO GUN MATSUZAKI CHO","town":"FUNATA","perfecture_jp":"静岡県","jp_add_1":"賀茂郡松崎町","jp_add_2":"船田"},"4103611":{"post_code":"4103611","prefecture":"SHIZUOKA KEN","city":"KAMO GUN MATSUZAKI CHO","town":"MATSUZAKI","perfecture_jp":"静岡県","jp_add_1":"賀茂郡松崎町","jp_add_2":"松崎"},"4103618":{"post_code":"4103618","prefecture":"SHIZUOKA KEN","city":"KAMO GUN MATSUZAKI CHO","town":"MICHIBU","perfecture_jp":"静岡県","jp_add_1":"賀茂郡松崎町","jp_add_2":"道部"},"4103605":{"post_code":"4103605","prefecture":"SHIZUOKA KEN","city":"KAMO GUN MATSUZAKI CHO","town":"MINEWA","perfecture_jp":"静岡県","jp_add_1":"賀茂郡松崎町","jp_add_2":"峰輪"},"4103612":{"post_code":"4103612","prefecture":"SHIZUOKA KEN","city":"KAMO GUN MATSUZAKI CHO","town":"MIYAUCHI","perfecture_jp":"静岡県","jp_add_1":"賀茂郡松崎町","jp_add_2":"宮内"},"4103621":{"post_code":"4103621","prefecture":"SHIZUOKA KEN","city":"KAMO GUN MATSUZAKI CHO","town":"YOSHIDA","perfecture_jp":"静岡県","jp_add_1":"賀茂郡松崎町","jp_add_2":"吉田"},"4103500":{"post_code":"4103500","prefecture":"SHIZUOKA KEN","city":"KAMO GUN NISHIIZU CHO","town":"IKANIKEISAIGANAIBAAI","perfecture_jp":"静岡県","jp_add_1":"賀茂郡西伊豆町","jp_add_2":""},"4103502":{"post_code":"4103502","prefecture":"SHIZUOKA KEN","city":"KAMO GUN NISHIIZU CHO","town":"ARARI","perfecture_jp":"静岡県","jp_add_1":"賀茂郡西伊豆町","jp_add_2":"安良里"},"4103512":{"post_code":"4103512","prefecture":"SHIZUOKA KEN","city":"KAMO GUN NISHIIZU CHO","town":"ISHIKI","perfecture_jp":"静岡県","jp_add_1":"賀茂郡西伊豆町","jp_add_2":"一色"},"4103501":{"post_code":"4103501","prefecture":"SHIZUOKA KEN","city":"KAMO GUN NISHIIZU CHO","town":"UGUSU","perfecture_jp":"静岡県","jp_add_1":"賀茂郡西伊豆町","jp_add_2":"宇久須"},"4103511":{"post_code":"4103511","prefecture":"SHIZUOKA KEN","city":"KAMO GUN NISHIIZU CHO","town":"OSORI","perfecture_jp":"静岡県","jp_add_1":"賀茂郡西伊豆町","jp_add_2":"大沢里"},"4103515":{"post_code":"4103515","prefecture":"SHIZUOKA KEN","city":"KAMO GUN NISHIIZU CHO","town":"TAGO","perfecture_jp":"静岡県","jp_add_1":"賀茂郡西伊豆町","jp_add_2":"田子"},"4103513":{"post_code":"4103513","prefecture":"SHIZUOKA KEN","city":"KAMO GUN NISHIIZU CHO","town":"NAKA","perfecture_jp":"静岡県","jp_add_1":"賀茂郡西伊豆町","jp_add_2":"中"},"4103514":{"post_code":"4103514","prefecture":"SHIZUOKA KEN","city":"KAMO GUN NISHIIZU CHO","town":"NISHINA","perfecture_jp":"静岡県","jp_add_1":"賀茂郡西伊豆町","jp_add_2":"仁科"},"4101300":{"post_code":"4101300","prefecture":"SHIZUOKA KEN","city":"SUNTO GUN OYAMA CHO","town":"IKANIKEISAIGANAIBAAI","perfecture_jp":"静岡県","jp_add_1":"駿東郡小山町","jp_add_2":""},"4101321":{"post_code":"4101321","prefecture":"SHIZUOKA KEN","city":"SUNTO GUN OYAMA CHO","town":"ADANO","perfecture_jp":"静岡県","jp_add_1":"駿東郡小山町","jp_add_2":"阿多野"},"4101314":{"post_code":"4101314","prefecture":"SHIZUOKA KEN","city":"SUNTO GUN OYAMA CHO","town":"ARASHIBA","perfecture_jp":"静岡県","jp_add_1":"駿東郡小山町","jp_add_2":"新柴"},"4101303":{"post_code":"4101303","prefecture":"SHIZUOKA KEN","city":"SUNTO GUN OYAMA CHO","town":"IKIDO","perfecture_jp":"静岡県","jp_add_1":"駿東郡小山町","jp_add_2":"生土"},"4101325":{"post_code":"4101325","prefecture":"SHIZUOKA KEN","city":"SUNTO GUN OYAMA CHO","town":"ISHIKI","perfecture_jp":"静岡県","jp_add_1":"駿東郡小山町","jp_add_2":"一色"},"4101306":{"post_code":"4101306","prefecture":"SHIZUOKA KEN","city":"SUNTO GUN OYAMA CHO","town":"UENO","perfecture_jp":"静岡県","jp_add_1":"駿東郡小山町","jp_add_2":"上野"},"4101317":{"post_code":"4101317","prefecture":"SHIZUOKA KEN","city":"SUNTO GUN OYAMA CHO","town":"OGODA","perfecture_jp":"静岡県","jp_add_1":"駿東郡小山町","jp_add_2":"大胡田"},"4101308":{"post_code":"4101308","prefecture":"SHIZUOKA KEN","city":"SUNTO GUN OYAMA CHO","town":"OMIKA","perfecture_jp":"静岡県","jp_add_1":"駿東郡小山町","jp_add_2":"大御神"},"4101311":{"post_code":"4101311","prefecture":"SHIZUOKA KEN","city":"SUNTO GUN OYAMA CHO","town":"OYAMA","perfecture_jp":"静岡県","jp_add_1":"駿東郡小山町","jp_add_2":"小山"},"4101323":{"post_code":"4101323","prefecture":"SHIZUOKA KEN","city":"SUNTO GUN OYAMA CHO","town":"KAMIFURUSHIRO","perfecture_jp":"静岡県","jp_add_1":"駿東郡小山町","jp_add_2":"上古城"},"4101315":{"post_code":"4101315","prefecture":"SHIZUOKA KEN","city":"SUNTO GUN OYAMA CHO","town":"KUWAGI","perfecture_jp":"静岡県","jp_add_1":"駿東郡小山町","jp_add_2":"桑木"},"4101432":{"post_code":"4101432","prefecture":"SHIZUOKA KEN","city":"SUNTO GUN OYAMA CHO","town":"JIEITAIFUJIGAKKO","perfecture_jp":"静岡県","jp_add_1":"駿東郡小山町","jp_add_2":"自衛隊富士学校"},"4101324":{"post_code":"4101324","prefecture":"SHIZUOKA KEN","city":"SUNTO GUN OYAMA CHO","town":"SHIMOKOBAYASHI","perfecture_jp":"静岡県","jp_add_1":"駿東郡小山町","jp_add_2":"下小林"},"4101316":{"post_code":"4101316","prefecture":"SHIZUOKA KEN","city":"SUNTO GUN OYAMA CHO","town":"SHIMOFURUSHIRO","perfecture_jp":"静岡県","jp_add_1":"駿東郡小山町","jp_add_2":"下古城"},"4101312":{"post_code":"4101312","prefecture":"SHIZUOKA KEN","city":"SUNTO GUN OYAMA CHO","town":"SUGANUMA","perfecture_jp":"静岡県","jp_add_1":"駿東郡小山町","jp_add_2":"菅沼"},"4101431":{"post_code":"4101431","prefecture":"SHIZUOKA KEN","city":"SUNTO GUN OYAMA CHO","town":"SUBASHIRI","perfecture_jp":"静岡県","jp_add_1":"駿東郡小山町","jp_add_2":"須走"},"4101313":{"post_code":"4101313","prefecture":"SHIZUOKA KEN","city":"SUNTO GUN OYAMA CHO","town":"TAKENOSHITA","perfecture_jp":"静岡県","jp_add_1":"駿東郡小山町","jp_add_2":"竹之下"},"4101327":{"post_code":"4101327","prefecture":"SHIZUOKA KEN","city":"SUNTO GUN OYAMA CHO","town":"TANAGASHIRA","perfecture_jp":"静岡県","jp_add_1":"駿東郡小山町","jp_add_2":"棚頭"},"4101302":{"post_code":"4101302","prefecture":"SHIZUOKA KEN","city":"SUNTO GUN OYAMA CHO","town":"NAKAJIMA","perfecture_jp":"静岡県","jp_add_1":"駿東郡小山町","jp_add_2":"中島"},"4101307":{"post_code":"4101307","prefecture":"SHIZUOKA KEN","city":"SUNTO GUN OYAMA CHO","town":"NAKAHINATA","perfecture_jp":"静岡県","jp_add_1":"駿東郡小山町","jp_add_2":"中日向"},"4101304":{"post_code":"4101304","prefecture":"SHIZUOKA KEN","city":"SUNTO GUN OYAMA CHO","town":"FUJIMAGARI","perfecture_jp":"静岡県","jp_add_1":"駿東郡小山町","jp_add_2":"藤曲"},"4101301":{"post_code":"4101301","prefecture":"SHIZUOKA KEN","city":"SUNTO GUN OYAMA CHO","town":"YANAGISHIMA","perfecture_jp":"静岡県","jp_add_1":"駿東郡小山町","jp_add_2":"柳島"},"4101305":{"post_code":"4101305","prefecture":"SHIZUOKA KEN","city":"SUNTO GUN OYAMA CHO","town":"YUBUNE","perfecture_jp":"静岡県","jp_add_1":"駿東郡小山町","jp_add_2":"湯船"},"4101326":{"post_code":"4101326","prefecture":"SHIZUOKA KEN","city":"SUNTO GUN OYAMA CHO","town":"YOSAWA","perfecture_jp":"静岡県","jp_add_1":"駿東郡小山町","jp_add_2":"用沢"},"4101322":{"post_code":"4101322","prefecture":"SHIZUOKA KEN","city":"SUNTO GUN OYAMA CHO","town":"YOSHIKUBO","perfecture_jp":"静岡県","jp_add_1":"駿東郡小山町","jp_add_2":"吉久保"}}