{"4110000":{"post_code":"4110000","prefecture":"SHIZUOKA KEN","city":"SUNTO GUN NAGAIZUMI CHO","town":"IKANIKEISAIGANAIBAAI","perfecture_jp":"静岡県","jp_add_1":"三島市","jp_add_2":""},"4110811":{"post_code":"4110811","prefecture":"SHIZUOKA KEN","city":"MISHIMA SHI","town":"AOKI","perfecture_jp":"静岡県","jp_add_1":"三島市","jp_add_2":"青木"},"4110020":{"post_code":"4110020","prefecture":"SHIZUOKA KEN","city":"MISHIMA SHI","town":"ASAHIGAOKA","perfecture_jp":"静岡県","jp_add_1":"三島市","jp_add_2":"旭ケ丘"},"4110834":{"post_code":"4110834","prefecture":"SHIZUOKA KEN","city":"MISHIMA SHI","town":"ARAYA","perfecture_jp":"静岡県","jp_add_1":"三島市","jp_add_2":"新谷"},"4110037":{"post_code":"4110037","prefecture":"SHIZUOKA KEN","city":"MISHIMA SHI","town":"IZUMICHO","perfecture_jp":"静岡県","jp_add_1":"三島市","jp_add_2":"泉町"},"4110015":{"post_code":"4110015","prefecture":"SHIZUOKA KEN","city":"MISHIMA SHI","town":"ICHINOYAMASHINDEN","perfecture_jp":"静岡県","jp_add_1":"三島市","jp_add_2":"市山新田"},"4110036":{"post_code":"4110036","prefecture":"SHIZUOKA KEN","city":"MISHIMA SHI","town":"ICHIBANCHO","perfecture_jp":"静岡県","jp_add_1":"三島市","jp_add_2":"一番町"},"4110025":{"post_code":"4110025","prefecture":"SHIZUOKA KEN","city":"MISHIMA SHI","town":"ITCHODA","perfecture_jp":"静岡県","jp_add_1":"三島市","jp_add_2":"壱町田"},"4110816":{"post_code":"4110816","prefecture":"SHIZUOKA KEN","city":"MISHIMA SHI","town":"UMENA","perfecture_jp":"静岡県","jp_add_1":"三島市","jp_add_2":"梅名"},"4110035":{"post_code":"4110035","prefecture":"SHIZUOKA KEN","city":"MISHIMA SHI","town":"OMIYACHO","perfecture_jp":"静岡県","jp_add_1":"三島市","jp_add_2":"大宮町"},"4110023":{"post_code":"4110023","prefecture":"SHIZUOKA KEN","city":"MISHIMA SHI","town":"KAMO","perfecture_jp":"静岡県","jp_add_1":"三島市","jp_add_2":"加茂"},"4110034":{"post_code":"4110034","prefecture":"SHIZUOKA KEN","city":"MISHIMA SHI","town":"KAMOGAWACHO","perfecture_jp":"静岡県","jp_add_1":"三島市","jp_add_2":"加茂川町"},"4110845":{"post_code":"4110845","prefecture":"SHIZUOKA KEN","city":"MISHIMA SHI","town":"KAYAMACHI","perfecture_jp":"静岡県","jp_add_1":"三島市","jp_add_2":"加屋町"},"4110022":{"post_code":"4110022","prefecture":"SHIZUOKA KEN","city":"MISHIMA SHI","town":"KAWAHARAGAYA","perfecture_jp":"静岡県","jp_add_1":"三島市","jp_add_2":"川原ケ谷"},"4110805":{"post_code":"4110805","prefecture":"SHIZUOKA KEN","city":"MISHIMA SHI","town":"KITAZAWA","perfecture_jp":"静岡県","jp_add_1":"三島市","jp_add_2":"北沢"},"4110854":{"post_code":"4110854","prefecture":"SHIZUOKA KEN","city":"MISHIMA SHI","town":"KITATAMACHI","perfecture_jp":"静岡県","jp_add_1":"三島市","jp_add_2":"北田町"},"4110844":{"post_code":"4110844","prefecture":"SHIZUOKA KEN","city":"MISHIMA SHI","town":"KIYOZUMICHO","perfecture_jp":"静岡県","jp_add_1":"三島市","jp_add_2":"清住町"},"4110031":{"post_code":"4110031","prefecture":"SHIZUOKA KEN","city":"MISHIMA SHI","town":"KOBARACHO","perfecture_jp":"静岡県","jp_add_1":"三島市","jp_add_2":"幸原町"},"4110039":{"post_code":"4110039","prefecture":"SHIZUOKA KEN","city":"MISHIMA SHI","town":"KOTOBUKICHO","perfecture_jp":"静岡県","jp_add_1":"三島市","jp_add_2":"寿町"},"4110846":{"post_code":"4110846","prefecture":"SHIZUOKA KEN","city":"MISHIMA SHI","town":"SAKAECHO","perfecture_jp":"静岡県","jp_add_1":"三島市","jp_add_2":"栄町"},"4110012":{"post_code":"4110012","prefecture":"SHIZUOKA KEN","city":"MISHIMA SHI","town":"SASAHARASHINDEN","perfecture_jp":"静岡県","jp_add_1":"三島市","jp_add_2":"笹原新田"},"4110047":{"post_code":"4110047","prefecture":"SHIZUOKA KEN","city":"MISHIMA SHI","town":"SANO","perfecture_jp":"静岡県","jp_add_1":"三島市","jp_add_2":"佐野"},"4110041":{"post_code":"4110041","prefecture":"SHIZUOKA KEN","city":"MISHIMA SHI","town":"SANO MIHARASHIDAI","perfecture_jp":"静岡県","jp_add_1":"三島市","jp_add_2":"佐野見晴台"},"4110043":{"post_code":"4110043","prefecture":"SHIZUOKA KEN","city":"MISHIMA SHI","town":"SAWAJI","perfecture_jp":"静岡県","jp_add_1":"三島市","jp_add_2":"沢地"},"4110017":{"post_code":"4110017","prefecture":"SHIZUOKA KEN","city":"MISHIMA SHI","town":"SANKEIDAI","perfecture_jp":"静岡県","jp_add_1":"三島市","jp_add_2":"三恵台"},"4110857":{"post_code":"4110857","prefecture":"SHIZUOKA KEN","city":"MISHIMA SHI","town":"SHIBAHONCHO","perfecture_jp":"静岡県","jp_add_1":"三島市","jp_add_2":"芝本町"},"4110032":{"post_code":"4110032","prefecture":"SHIZUOKA KEN","city":"MISHIMA SHI","town":"SUEHIROCHO","perfecture_jp":"静岡県","jp_add_1":"三島市","jp_add_2":"末広町"},"4110027":{"post_code":"4110027","prefecture":"SHIZUOKA KEN","city":"MISHIMA SHI","town":"SEMMAIBARA","perfecture_jp":"静岡県","jp_add_1":"三島市","jp_add_2":"千枚原"},"4110853":{"post_code":"4110853","prefecture":"SHIZUOKA KEN","city":"MISHIMA SHI","town":"TAISHACHO","perfecture_jp":"静岡県","jp_add_1":"三島市","jp_add_2":"大社町"},"4110803":{"post_code":"4110803","prefecture":"SHIZUOKA KEN","city":"MISHIMA SHI","town":"DAIBA","perfecture_jp":"静岡県","jp_add_1":"三島市","jp_add_2":"大場"},"4110807":{"post_code":"4110807","prefecture":"SHIZUOKA KEN","city":"MISHIMA SHI","town":"TAKEKURA","perfecture_jp":"静岡県","jp_add_1":"三島市","jp_add_2":"竹倉"},"4110835":{"post_code":"4110835","prefecture":"SHIZUOKA KEN","city":"MISHIMA SHI","town":"TAMAGAWA","perfecture_jp":"静岡県","jp_add_1":"三島市","jp_add_2":"玉川"},"4110014":{"post_code":"4110014","prefecture":"SHIZUOKA KEN","city":"MISHIMA SHI","town":"TAMAZAWA","perfecture_jp":"静岡県","jp_add_1":"三島市","jp_add_2":"玉沢"},"4110804":{"post_code":"4110804","prefecture":"SHIZUOKA KEN","city":"MISHIMA SHI","town":"TARO","perfecture_jp":"静岡県","jp_add_1":"三島市","jp_add_2":"多呂"},"4110858":{"post_code":"4110858","prefecture":"SHIZUOKA KEN","city":"MISHIMA SHI","town":"CHUOCHO","perfecture_jp":"静岡県","jp_add_1":"三島市","jp_add_2":"中央町"},"4110016":{"post_code":"4110016","prefecture":"SHIZUOKA KEN","city":"MISHIMA SHI","town":"TSUKAHARASHINDEN","perfecture_jp":"静岡県","jp_add_1":"三島市","jp_add_2":"塚原新田"},"4110813":{"post_code":"4110813","prefecture":"SHIZUOKA KEN","city":"MISHIMA SHI","town":"TSURUHAMI","perfecture_jp":"静岡県","jp_add_1":"三島市","jp_add_2":"鶴喰"},"4110044":{"post_code":"4110044","prefecture":"SHIZUOKA KEN","city":"MISHIMA SHI","town":"TOKURA","perfecture_jp":"静岡県","jp_add_1":"三島市","jp_add_2":"徳倉"},"4110836":{"post_code":"4110836","prefecture":"SHIZUOKA KEN","city":"MISHIMA SHI","town":"TOMITAMACHI","perfecture_jp":"静岡県","jp_add_1":"三島市","jp_add_2":"富田町"},"4110833":{"post_code":"4110833","prefecture":"SHIZUOKA KEN","city":"MISHIMA SHI","town":"NAKA","perfecture_jp":"静岡県","jp_add_1":"三島市","jp_add_2":"中"},"4110814":{"post_code":"4110814","prefecture":"SHIZUOKA KEN","city":"MISHIMA SHI","town":"NAKAJIMA","perfecture_jp":"静岡県","jp_add_1":"三島市","jp_add_2":"中島"},"4110838":{"post_code":"4110838","prefecture":"SHIZUOKA KEN","city":"MISHIMA SHI","town":"NAKATAMACHI","perfecture_jp":"静岡県","jp_add_1":"三島市","jp_add_2":"中田町"},"4110824":{"post_code":"4110824","prefecture":"SHIZUOKA KEN","city":"MISHIMA SHI","town":"NAGABUSE","perfecture_jp":"静岡県","jp_add_1":"三島市","jp_add_2":"長伏"},"4110030":{"post_code":"4110030","prefecture":"SHIZUOKA KEN","city":"MISHIMA SHI","town":"NISHIASAHIGAOKACHO","perfecture_jp":"静岡県","jp_add_1":"三島市","jp_add_2":"西旭ケ丘町"},"4110808":{"post_code":"4110808","prefecture":"SHIZUOKA KEN","city":"MISHIMA SHI","town":"NISHIKIGAOKA","perfecture_jp":"静岡県","jp_add_1":"三島市","jp_add_2":"錦が丘"},"4110847":{"post_code":"4110847","prefecture":"SHIZUOKA KEN","city":"MISHIMA SHI","town":"NISHIHONCHO","perfecture_jp":"静岡県","jp_add_1":"三島市","jp_add_2":"西本町"},"4110038":{"post_code":"4110038","prefecture":"SHIZUOKA KEN","city":"MISHIMA SHI","town":"NISHIWAKACHO","perfecture_jp":"静岡県","jp_add_1":"三島市","jp_add_2":"西若町"},"4110045":{"post_code":"4110045","prefecture":"SHIZUOKA KEN","city":"MISHIMA SHI","town":"HAGI","perfecture_jp":"静岡県","jp_add_1":"三島市","jp_add_2":"萩"},"4110817":{"post_code":"4110817","prefecture":"SHIZUOKA KEN","city":"MISHIMA SHI","town":"HATTABATA","perfecture_jp":"静岡県","jp_add_1":"三島市","jp_add_2":"八反畑"},"4110018":{"post_code":"4110018","prefecture":"SHIZUOKA KEN","city":"MISHIMA SHI","town":"HATSUNEDAI","perfecture_jp":"静岡県","jp_add_1":"三島市","jp_add_2":"初音台"},"4110029":{"post_code":"4110029","prefecture":"SHIZUOKA KEN","city":"MISHIMA SHI","town":"HIKARIGAOKA","perfecture_jp":"静岡県","jp_add_1":"三島市","jp_add_2":"光ケ丘"},"4110026":{"post_code":"4110026","prefecture":"SHIZUOKA KEN","city":"MISHIMA SHI","town":"HIGASHIITCHODA","perfecture_jp":"静岡県","jp_add_1":"三島市","jp_add_2":"東壱町田"},"4110802":{"post_code":"4110802","prefecture":"SHIZUOKA KEN","city":"MISHIMA SHI","town":"HIGASHIDAIBA","perfecture_jp":"静岡県","jp_add_1":"三島市","jp_add_2":"東大場"},"4110852":{"post_code":"4110852","prefecture":"SHIZUOKA KEN","city":"MISHIMA SHI","town":"HIGASHICHO","perfecture_jp":"静岡県","jp_add_1":"三島市","jp_add_2":"東町"},"4110831":{"post_code":"4110831","prefecture":"SHIZUOKA KEN","city":"MISHIMA SHI","town":"HIGASHIHONCHO","perfecture_jp":"静岡県","jp_add_1":"三島市","jp_add_2":"東本町"},"4110851":{"post_code":"4110851","prefecture":"SHIZUOKA KEN","city":"MISHIMA SHI","town":"HINODECHO","perfecture_jp":"静岡県","jp_add_1":"三島市","jp_add_2":"日の出町"},"4110821":{"post_code":"4110821","prefecture":"SHIZUOKA KEN","city":"MISHIMA SHI","town":"HIRATA","perfecture_jp":"静岡県","jp_add_1":"三島市","jp_add_2":"平田"},"4110856":{"post_code":"4110856","prefecture":"SHIZUOKA KEN","city":"MISHIMA SHI","town":"HIROKOJICHO","perfecture_jp":"静岡県","jp_add_1":"三島市","jp_add_2":"広小路町"},"4110812":{"post_code":"4110812","prefecture":"SHIZUOKA KEN","city":"MISHIMA SHI","town":"FUJISHIROCHO","perfecture_jp":"静岡県","jp_add_1":"三島市","jp_add_2":"藤代町"},"4110028":{"post_code":"4110028","prefecture":"SHIZUOKA KEN","city":"MISHIMA SHI","town":"FUJIBIREJJI","perfecture_jp":"静岡県","jp_add_1":"三島市","jp_add_2":"富士ビレッジ"},"4110021":{"post_code":"4110021","prefecture":"SHIZUOKA KEN","city":"MISHIMA SHI","town":"FUJIMIDAI","perfecture_jp":"静岡県","jp_add_1":"三島市","jp_add_2":"富士見台"},"4110046":{"post_code":"4110046","prefecture":"SHIZUOKA KEN","city":"MISHIMA SHI","town":"FUYODAI","perfecture_jp":"静岡県","jp_add_1":"三島市","jp_add_2":"芙蓉台"},"4110033":{"post_code":"4110033","prefecture":"SHIZUOKA KEN","city":"MISHIMA SHI","town":"BUNKYOCHO","perfecture_jp":"静岡県","jp_add_1":"三島市","jp_add_2":"文教町"},"4110042":{"post_code":"4110042","prefecture":"SHIZUOKA KEN","city":"MISHIMA SHI","town":"HEISEIDAI","perfecture_jp":"静岡県","jp_add_1":"三島市","jp_add_2":"平成台"},"4110855":{"post_code":"4110855","prefecture":"SHIZUOKA KEN","city":"MISHIMA SHI","town":"HONCHO","perfecture_jp":"静岡県","jp_add_1":"三島市","jp_add_2":"本町"},"4110019":{"post_code":"4110019","prefecture":"SHIZUOKA KEN","city":"MISHIMA SHI","town":"MATSUGAOKA","perfecture_jp":"静岡県","jp_add_1":"三島市","jp_add_2":"松が丘"},"4110822":{"post_code":"4110822","prefecture":"SHIZUOKA KEN","city":"MISHIMA SHI","town":"MATSUMOTO","perfecture_jp":"静岡県","jp_add_1":"三島市","jp_add_2":"松本"},"4110823":{"post_code":"4110823","prefecture":"SHIZUOKA KEN","city":"MISHIMA SHI","town":"MISONO","perfecture_jp":"静岡県","jp_add_1":"三島市","jp_add_2":"御園"},"4110013":{"post_code":"4110013","prefecture":"SHIZUOKA KEN","city":"MISHIMA SHI","town":"MITSUYASHINDEN","perfecture_jp":"静岡県","jp_add_1":"三島市","jp_add_2":"三ツ谷新田"},"4110848":{"post_code":"4110848","prefecture":"SHIZUOKA KEN","city":"MISHIMA SHI","town":"MIDORICHO","perfecture_jp":"静岡県","jp_add_1":"三島市","jp_add_2":"緑町"},"4110837":{"post_code":"4110837","prefecture":"SHIZUOKA KEN","city":"MISHIMA SHI","town":"MINAMITAMACHI","perfecture_jp":"静岡県","jp_add_1":"三島市","jp_add_2":"南田町"},"4110842":{"post_code":"4110842","prefecture":"SHIZUOKA KEN","city":"MISHIMA SHI","town":"MINAMICHO","perfecture_jp":"静岡県","jp_add_1":"三島市","jp_add_2":"南町"},"4110832":{"post_code":"4110832","prefecture":"SHIZUOKA KEN","city":"MISHIMA SHI","town":"MINAMIFUTSUKAMACHI","perfecture_jp":"静岡県","jp_add_1":"三島市","jp_add_2":"南二日町"},"4110841":{"post_code":"4110841","prefecture":"SHIZUOKA KEN","city":"MISHIMA SHI","town":"MINAMIHONCHO","perfecture_jp":"静岡県","jp_add_1":"三島市","jp_add_2":"南本町"},"4110843":{"post_code":"4110843","prefecture":"SHIZUOKA KEN","city":"MISHIMA SHI","town":"MIYOSHICHO","perfecture_jp":"静岡県","jp_add_1":"三島市","jp_add_2":"三好町"},"4110815":{"post_code":"4110815","prefecture":"SHIZUOKA KEN","city":"MISHIMA SHI","town":"YASUHISA","perfecture_jp":"静岡県","jp_add_1":"三島市","jp_add_2":"安久"},"4110801":{"post_code":"4110801","prefecture":"SHIZUOKA KEN","city":"MISHIMA SHI","town":"YATA","perfecture_jp":"静岡県","jp_add_1":"三島市","jp_add_2":"谷田"},"4110806":{"post_code":"4110806","prefecture":"SHIZUOKA KEN","city":"MISHIMA SHI","town":"YANAGIGOCHI","perfecture_jp":"静岡県","jp_add_1":"三島市","jp_add_2":"柳郷地"},"4110011":{"post_code":"4110011","prefecture":"SHIZUOKA KEN","city":"MISHIMA SHI","town":"YAMANAKASHINDEN","perfecture_jp":"静岡県","jp_add_1":"三島市","jp_add_2":"山中新田"},"4110024":{"post_code":"4110024","prefecture":"SHIZUOKA KEN","city":"MISHIMA SHI","town":"WAKAMATSUCHO","perfecture_jp":"静岡県","jp_add_1":"三島市","jp_add_2":"若松町"},"4110001":{"post_code":"4110001","prefecture":"SHIZUOKA KEN","city":"TAGATA GUN KANNAMI CHO","town":"KUWAHARA(HAKONETOGE)","perfecture_jp":"静岡県","jp_add_1":"田方郡函南町","jp_add_2":"桑原"},"4110912":{"post_code":"4110912","prefecture":"SHIZUOKA KEN","city":"SUNTO GUN SHIMIZU CHO","town":"OROSHIDANCHI","perfecture_jp":"静岡県","jp_add_1":"駿東郡清水町","jp_add_2":"卸団地"},"4110904":{"post_code":"4110904","prefecture":"SHIZUOKA KEN","city":"SUNTO GUN SHIMIZU CHO","town":"KAKIDA","perfecture_jp":"静岡県","jp_add_1":"駿東郡清水町","jp_add_2":"柿田"},"4110911":{"post_code":"4110911","prefecture":"SHIZUOKA KEN","city":"SUNTO GUN SHIMIZU CHO","town":"KUMAIDEN","perfecture_jp":"静岡県","jp_add_1":"駿東郡清水町","jp_add_2":"久米田"},"4110901":{"post_code":"4110901","prefecture":"SHIZUOKA KEN","city":"SUNTO GUN SHIMIZU CHO","town":"SHINSHUKU","perfecture_jp":"静岡県","jp_add_1":"駿東郡清水町","jp_add_2":"新宿"},"4110902":{"post_code":"4110902","prefecture":"SHIZUOKA KEN","city":"SUNTO GUN SHIMIZU CHO","town":"TAMAGAWA","perfecture_jp":"静岡県","jp_add_1":"駿東郡清水町","jp_add_2":"玉川"},"4110903":{"post_code":"4110903","prefecture":"SHIZUOKA KEN","city":"SUNTO GUN SHIMIZU CHO","town":"DONIWA","perfecture_jp":"静岡県","jp_add_1":"駿東郡清水町","jp_add_2":"堂庭"},"4110917":{"post_code":"4110917","prefecture":"SHIZUOKA KEN","city":"SUNTO GUN SHIMIZU CHO","town":"TOKURA(KAMITOKURA.SHIMOTOKURA.SOTOH","perfecture_jp":"静岡県","jp_add_1":"駿東郡清水町","jp_add_2":"徳倉"},"4110913":{"post_code":"4110913","prefecture":"SHIZUOKA KEN","city":"SUNTO GUN SHIMIZU CHO","town":"TODA","perfecture_jp":"静岡県","jp_add_1":"駿東郡清水町","jp_add_2":"戸田"},"4110916":{"post_code":"4110916","prefecture":"SHIZUOKA KEN","city":"SUNTO GUN SHIMIZU CHO","town":"NAKATOKURA","perfecture_jp":"静岡県","jp_add_1":"駿東郡清水町","jp_add_2":"中徳倉"},"4110905":{"post_code":"4110905","prefecture":"SHIZUOKA KEN","city":"SUNTO GUN SHIMIZU CHO","town":"NAGASAWA","perfecture_jp":"静岡県","jp_add_1":"駿東郡清水町","jp_add_2":"長沢"},"4110914":{"post_code":"4110914","prefecture":"SHIZUOKA KEN","city":"SUNTO GUN SHIMIZU CHO","town":"HATAKENAKA","perfecture_jp":"静岡県","jp_add_1":"駿東郡清水町","jp_add_2":"畑中"},"4110907":{"post_code":"4110907","prefecture":"SHIZUOKA KEN","city":"SUNTO GUN SHIMIZU CHO","town":"FUSHIMI","perfecture_jp":"静岡県","jp_add_1":"駿東郡清水町","jp_add_2":"伏見"},"4110915":{"post_code":"4110915","prefecture":"SHIZUOKA KEN","city":"SUNTO GUN SHIMIZU CHO","town":"MATOBA","perfecture_jp":"静岡県","jp_add_1":"駿東郡清水町","jp_add_2":"的場"},"4110906":{"post_code":"4110906","prefecture":"SHIZUOKA KEN","city":"SUNTO GUN SHIMIZU CHO","town":"YAHATA","perfecture_jp":"静岡県","jp_add_1":"駿東郡清水町","jp_add_2":"八幡"},"4110918":{"post_code":"4110918","prefecture":"SHIZUOKA KEN","city":"SUNTO GUN SHIMIZU CHO","town":"YUKAWA","perfecture_jp":"静岡県","jp_add_1":"駿東郡清水町","jp_add_2":"湯川"},"4110941":{"post_code":"4110941","prefecture":"SHIZUOKA KEN","city":"SUNTO GUN NAGAIZUMI CHO","town":"KAMITOGARI","perfecture_jp":"静岡県","jp_add_1":"駿東郡長泉町","jp_add_2":"上土狩"},"4110935":{"post_code":"4110935","prefecture":"SHIZUOKA KEN","city":"SUNTO GUN NAGAIZUMI CHO","town":"KAMINAGAKUBO","perfecture_jp":"静岡県","jp_add_1":"駿東郡長泉町","jp_add_2":"上長窪"},"4110951":{"post_code":"4110951","prefecture":"SHIZUOKA KEN","city":"SUNTO GUN NAGAIZUMI CHO","town":"SAKURAZUTSUMI","perfecture_jp":"静岡県","jp_add_1":"駿東郡長泉町","jp_add_2":"桜堤"},"4110943":{"post_code":"4110943","prefecture":"SHIZUOKA KEN","city":"SUNTO GUN NAGAIZUMI CHO","town":"SHIMOTOGARI","perfecture_jp":"静岡県","jp_add_1":"駿東郡長泉町","jp_add_2":"下土狩"},"4110934":{"post_code":"4110934","prefecture":"SHIZUOKA KEN","city":"SUNTO GUN NAGAIZUMI CHO","town":"SHIMONAGAKUBO","perfecture_jp":"静岡県","jp_add_1":"駿東郡長泉町","jp_add_2":"下長窪"},"4110944":{"post_code":"4110944","prefecture":"SHIZUOKA KEN","city":"SUNTO GUN NAGAIZUMI CHO","town":"TAKEHARA","perfecture_jp":"静岡県","jp_add_1":"駿東郡長泉町","jp_add_2":"竹原"},"4110942":{"post_code":"4110942","prefecture":"SHIZUOKA KEN","city":"SUNTO GUN NAGAIZUMI CHO","town":"NAKATOGARI","perfecture_jp":"静岡県","jp_add_1":"駿東郡長泉町","jp_add_2":"中土狩"},"4110933":{"post_code":"4110933","prefecture":"SHIZUOKA KEN","city":"SUNTO GUN NAGAIZUMI CHO","town":"NAMERI","perfecture_jp":"静岡県","jp_add_1":"駿東郡長泉町","jp_add_2":"納米里"},"4110931":{"post_code":"4110931","prefecture":"SHIZUOKA KEN","city":"SUNTO GUN NAGAIZUMI CHO","town":"HIGASHINO","perfecture_jp":"静岡県","jp_add_1":"駿東郡長泉町","jp_add_2":"東野"},"4110945":{"post_code":"4110945","prefecture":"SHIZUOKA KEN","city":"SUNTO GUN NAGAIZUMI CHO","town":"HONJUKU","perfecture_jp":"静岡県","jp_add_1":"駿東郡長泉町","jp_add_2":"本宿"},"4110932":{"post_code":"4110932","prefecture":"SHIZUOKA KEN","city":"SUNTO GUN NAGAIZUMI CHO","town":"MINAMIISHIKI","perfecture_jp":"静岡県","jp_add_1":"駿東郡長泉町","jp_add_2":"南一色"},"4110936":{"post_code":"4110936","prefecture":"SHIZUOKA KEN","city":"SUNTO GUN NAGAIZUMI CHO","town":"MOTONAGAKUBO","perfecture_jp":"静岡県","jp_add_1":"駿東郡長泉町","jp_add_2":"元長窪"}}