{"4150000":{"post_code":"4150000","prefecture":"SHIZUOKA KEN","city":"SHIMODA SHI","town":"IKANIKEISAIGANAIBAAI","perfecture_jp":"静岡県","jp_add_1":"下田市","jp_add_2":""},"4150001":{"post_code":"4150001","prefecture":"SHIZUOKA KEN","city":"SHIMODA SHI","town":"SHIMODASHINOTSUGINIBANCHIGAKURUBAAI","perfecture_jp":"静岡県","jp_add_1":"下田市","jp_add_2":""},"4150021":{"post_code":"4150021","prefecture":"SHIZUOKA KEN","city":"SHIMODA SHI","town":"ITCHOME","perfecture_jp":"静岡県","jp_add_1":"下田市","jp_add_2":"一丁目"},"4150038":{"post_code":"4150038","prefecture":"SHIZUOKA KEN","city":"SHIMODA SHI","town":"OGAMO","perfecture_jp":"静岡県","jp_add_1":"下田市","jp_add_2":"大賀茂"},"4150039":{"post_code":"4150039","prefecture":"SHIZUOKA KEN","city":"SHIMODA SHI","town":"OSAWA","perfecture_jp":"静岡県","jp_add_1":"下田市","jp_add_2":"大沢"},"4150013":{"post_code":"4150013","prefecture":"SHIZUOKA KEN","city":"SHIMODA SHI","town":"KAKISAKI","perfecture_jp":"静岡県","jp_add_1":"下田市","jp_add_2":"柿崎"},"4150028":{"post_code":"4150028","prefecture":"SHIZUOKA KEN","city":"SHIMODA SHI","town":"KISAMI","perfecture_jp":"静岡県","jp_add_1":"下田市","jp_add_2":"吉佐美"},"4150027":{"post_code":"4150027","prefecture":"SHIZUOKA KEN","city":"SHIMODA SHI","town":"KYUOKAGATAMURA","perfecture_jp":"静岡県","jp_add_1":"下田市","jp_add_2":"旧岡方村"},"4150011":{"post_code":"4150011","prefecture":"SHIZUOKA KEN","city":"SHIMODA SHI","town":"KOCHI","perfecture_jp":"静岡県","jp_add_1":"下田市","jp_add_2":"河内"},"4150025":{"post_code":"4150025","prefecture":"SHIZUOKA KEN","city":"SHIMODA SHI","town":"GOCHOME","perfecture_jp":"静岡県","jp_add_1":"下田市","jp_add_2":"五丁目"},"4150023":{"post_code":"4150023","prefecture":"SHIZUOKA KEN","city":"SHIMODA SHI","town":"SANCHOME","perfecture_jp":"静岡県","jp_add_1":"下田市","jp_add_2":"三丁目"},"4150037":{"post_code":"4150037","prefecture":"SHIZUOKA KEN","city":"SHIMODA SHI","town":"SHIKINE","perfecture_jp":"静岡県","jp_add_1":"下田市","jp_add_2":"敷根"},"4150012":{"post_code":"4150012","prefecture":"SHIZUOKA KEN","city":"SHIMODA SHI","town":"SHIRAHAMA","perfecture_jp":"静岡県","jp_add_1":"下田市","jp_add_2":"白浜"},"4150014":{"post_code":"4150014","prefecture":"SHIZUOKA KEN","city":"SHIMODA SHI","town":"SUZAKI","perfecture_jp":"静岡県","jp_add_1":"下田市","jp_add_2":"須崎"},"4150015":{"post_code":"4150015","prefecture":"SHIZUOKA KEN","city":"SHIMODA SHI","town":"TAKEGAHAMA","perfecture_jp":"静岡県","jp_add_1":"下田市","jp_add_2":"武ガ浜"},"4150034":{"post_code":"4150034","prefecture":"SHIZUOKA KEN","city":"SHIMODA SHI","town":"TAKOMA","perfecture_jp":"静岡県","jp_add_1":"下田市","jp_add_2":"高馬"},"4150032":{"post_code":"4150032","prefecture":"SHIZUOKA KEN","city":"SHIMODA SHI","town":"TACHINO","perfecture_jp":"静岡県","jp_add_1":"下田市","jp_add_2":"立野"},"4150029":{"post_code":"4150029","prefecture":"SHIZUOKA KEN","city":"SHIMODA SHI","town":"TOJI","perfecture_jp":"静岡県","jp_add_1":"下田市","jp_add_2":"田牛"},"4150016":{"post_code":"4150016","prefecture":"SHIZUOKA KEN","city":"SHIMODA SHI","town":"NAKA","perfecture_jp":"静岡県","jp_add_1":"下田市","jp_add_2":"中"},"4150018":{"post_code":"4150018","prefecture":"SHIZUOKA KEN","city":"SHIMODA SHI","town":"NISHINAKA","perfecture_jp":"静岡県","jp_add_1":"下田市","jp_add_2":"西中"},"4150036":{"post_code":"4150036","prefecture":"SHIZUOKA KEN","city":"SHIMODA SHI","town":"NISHIHONGO","perfecture_jp":"静岡県","jp_add_1":"下田市","jp_add_2":"西本郷"},"4150022":{"post_code":"4150022","prefecture":"SHIZUOKA KEN","city":"SHIMODA SHI","town":"NICHOME","perfecture_jp":"静岡県","jp_add_1":"下田市","jp_add_2":"二丁目"},"4150017":{"post_code":"4150017","prefecture":"SHIZUOKA KEN","city":"SHIMODA SHI","town":"HIGASHINAKA","perfecture_jp":"静岡県","jp_add_1":"下田市","jp_add_2":"東中"},"4150035":{"post_code":"4150035","prefecture":"SHIZUOKA KEN","city":"SHIMODA SHI","town":"HIGASHIHONGO","perfecture_jp":"静岡県","jp_add_1":"下田市","jp_add_2":"東本郷"},"4150033":{"post_code":"4150033","prefecture":"SHIZUOKA KEN","city":"SHIMODA SHI","town":"HONGO","perfecture_jp":"静岡県","jp_add_1":"下田市","jp_add_2":"本郷"},"4150024":{"post_code":"4150024","prefecture":"SHIZUOKA KEN","city":"SHIMODA SHI","town":"YONCHOME","perfecture_jp":"静岡県","jp_add_1":"下田市","jp_add_2":"四丁目"},"4150031":{"post_code":"4150031","prefecture":"SHIZUOKA KEN","city":"SHIMODA SHI","town":"RENDAIJI","perfecture_jp":"静岡県","jp_add_1":"下田市","jp_add_2":"蓮台寺"},"4150026":{"post_code":"4150026","prefecture":"SHIZUOKA KEN","city":"SHIMODA SHI","town":"ROKUCHOME","perfecture_jp":"静岡県","jp_add_1":"下田市","jp_add_2":"六丁目"},"4150300":{"post_code":"4150300","prefecture":"SHIZUOKA KEN","city":"KAMO GUN MINAMIIZU CHO","town":"IKANIKEISAIGANAIBAAI","perfecture_jp":"静岡県","jp_add_1":"賀茂郡南伊豆町","jp_add_2":""},"4150151":{"post_code":"4150151","prefecture":"SHIZUOKA KEN","city":"KAMO GUN MINAMIIZU CHO","town":"AOICHI","perfecture_jp":"静岡県","jp_add_1":"賀茂郡南伊豆町","jp_add_2":"青市"},"4150327":{"post_code":"4150327","prefecture":"SHIZUOKA KEN","city":"KAMO GUN MINAMIIZU CHO","town":"AONO","perfecture_jp":"静岡県","jp_add_1":"賀茂郡南伊豆町","jp_add_2":"青野"},"4150306":{"post_code":"4150306","prefecture":"SHIZUOKA KEN","city":"KAMO GUN MINAMIIZU CHO","town":"ISHII","perfecture_jp":"静岡県","jp_add_1":"賀茂郡南伊豆町","jp_add_2":"石井"},"4150313":{"post_code":"4150313","prefecture":"SHIZUOKA KEN","city":"KAMO GUN MINAMIIZU CHO","town":"ISHIKI","perfecture_jp":"静岡県","jp_add_1":"賀茂郡南伊豆町","jp_add_2":"一色"},"4150301":{"post_code":"4150301","prefecture":"SHIZUOKA KEN","city":"KAMO GUN MINAMIIZU CHO","town":"ICHIJO","perfecture_jp":"静岡県","jp_add_1":"賀茂郡南伊豆町","jp_add_2":"一條"},"4150325":{"post_code":"4150325","prefecture":"SHIZUOKA KEN","city":"KAMO GUN MINAMIIZU CHO","town":"HIRADO","perfecture_jp":"静岡県","jp_add_1":"賀茂郡南伊豆町","jp_add_2":"市之瀬"},"4150531":{"post_code":"4150531","prefecture":"SHIZUOKA KEN","city":"KAMO GUN MINAMIIZU CHO","town":"TENJIMBARA","perfecture_jp":"静岡県","jp_add_1":"賀茂郡南伊豆町","jp_add_2":"一町田"},"4150312":{"post_code":"4150312","prefecture":"SHIZUOKA KEN","city":"KAMO GUN MINAMIIZU CHO","town":"SASHIDA","perfecture_jp":"静岡県","jp_add_1":"賀茂郡南伊豆町","jp_add_2":"入間"},"4150156":{"post_code":"4150156","prefecture":"SHIZUOKA KEN","city":"KAMO GUN MINAMIIZU CHO","town":"IROZAKI","perfecture_jp":"静岡県","jp_add_1":"賀茂郡南伊豆町","jp_add_2":"石廊崎"},"4150322":{"post_code":"4150322","prefecture":"SHIZUOKA KEN","city":"KAMO GUN MINAMIIZU CHO","town":"IWADONO","perfecture_jp":"静岡県","jp_add_1":"賀茂郡南伊豆町","jp_add_2":"岩殿"},"4150155":{"post_code":"4150155","prefecture":"SHIZUOKA KEN","city":"KAMO GUN MINAMIIZU CHO","town":"OSE","perfecture_jp":"静岡県","jp_add_1":"賀茂郡南伊豆町","jp_add_2":"大瀬"},"4150304":{"post_code":"4150304","prefecture":"SHIZUOKA KEN","city":"KAMO GUN MINAMIIZU CHO","town":"KANO","perfecture_jp":"静岡県","jp_add_1":"賀茂郡南伊豆町","jp_add_2":"加納"},"4150324":{"post_code":"4150324","prefecture":"SHIZUOKA KEN","city":"KAMO GUN MINAMIIZU CHO","town":"KAMIONO","perfecture_jp":"静岡県","jp_add_1":"賀茂郡南伊豆町","jp_add_2":"上小野"},"4150302":{"post_code":"4150302","prefecture":"SHIZUOKA KEN","city":"KAMO GUN MINAMIIZU CHO","town":"KAMIGAMO","perfecture_jp":"静岡県","jp_add_1":"賀茂郡南伊豆町","jp_add_2":"上賀茂"},"4150323":{"post_code":"4150323","prefecture":"SHIZUOKA KEN","city":"KAMO GUN MINAMIIZU CHO","town":"SHIMONO","perfecture_jp":"静岡県","jp_add_1":"賀茂郡南伊豆町","jp_add_2":"川合野"},"4150321":{"post_code":"4150321","prefecture":"SHIZUOKA KEN","city":"KAMO GUN MINAMIIZU CHO","town":"KEGURANO","perfecture_jp":"静岡県","jp_add_1":"賀茂郡南伊豆町","jp_add_2":"毛倉野"},"4150532":{"post_code":"4150532","prefecture":"SHIZUOKA KEN","city":"KAMO GUN MINAMIIZU CHO","town":"KORA","perfecture_jp":"静岡県","jp_add_1":"賀茂郡南伊豆町","jp_add_2":"子浦"},"4150154":{"post_code":"4150154","prefecture":"SHIZUOKA KEN","city":"KAMO GUN MINAMIIZU CHO","town":"SHITARU","perfecture_jp":"静岡県","jp_add_1":"賀茂郡南伊豆町","jp_add_2":"下流"},"4150303":{"post_code":"4150303","prefecture":"SHIZUOKA KEN","city":"KAMO GUN MINAMIIZU CHO","town":"SHIMOGAMO","perfecture_jp":"静岡県","jp_add_1":"賀茂郡南伊豆町","jp_add_2":"下賀茂"},"4150326":{"post_code":"4150326","prefecture":"SHIZUOKA KEN","city":"KAMO GUN MINAMIIZU CHO","town":"JAISHI","perfecture_jp":"静岡県","jp_add_1":"賀茂郡南伊豆町","jp_add_2":"蛇石"},"4150533":{"post_code":"4150533","prefecture":"SHIZUOKA KEN","city":"KAMO GUN MINAMIIZU CHO","town":"YOSHIDA","perfecture_jp":"静岡県","jp_add_1":"賀茂郡南伊豆町","jp_add_2":"立岩"},"4150314":{"post_code":"4150314","prefecture":"SHIZUOKA KEN","city":"KAMO GUN MINAMIIZU CHO","town":"CHOGANO","perfecture_jp":"静岡県","jp_add_1":"賀茂郡南伊豆町","jp_add_2":"蝶ケ野"},"4150153":{"post_code":"4150153","prefecture":"SHIZUOKA KEN","city":"KAMO GUN MINAMIIZU CHO","town":"TEISHI","perfecture_jp":"静岡県","jp_add_1":"賀茂郡南伊豆町","jp_add_2":"手石"},"4150311":{"post_code":"4150311","prefecture":"SHIZUOKA KEN","city":"KAMO GUN MINAMIIZU CHO","town":"NAKAGI","perfecture_jp":"静岡県","jp_add_1":"賀茂郡南伊豆町","jp_add_2":"中木"},"4150305":{"post_code":"4150305","prefecture":"SHIZUOKA KEN","city":"KAMO GUN MINAMIIZU CHO","town":"NIJO","perfecture_jp":"静岡県","jp_add_1":"賀茂郡南伊豆町","jp_add_2":"二條"},"4150152":{"post_code":"4150152","prefecture":"SHIZUOKA KEN","city":"KAMO GUN MINAMIIZU CHO","town":"MINATO","perfecture_jp":"静岡県","jp_add_1":"賀茂郡南伊豆町","jp_add_2":"湊"}}