{"4160952":{"post_code":"4160952","prefecture":"SHIZUOKA KEN","city":"FUJI SHI","town":"AOBACHO","perfecture_jp":"静岡県","jp_add_1":"富士市","jp_add_2":"青葉町"},"4160901":{"post_code":"4160901","prefecture":"SHIZUOKA KEN","city":"FUJI SHI","town":"IWAMOTO","perfecture_jp":"静岡県","jp_add_1":"富士市","jp_add_2":"岩本"},"4160912":{"post_code":"4160912","prefecture":"SHIZUOKA KEN","city":"FUJI SHI","town":"KAJIMACHO","perfecture_jp":"静岡県","jp_add_1":"富士市","jp_add_2":"加島町"},"4160942":{"post_code":"4160942","prefecture":"SHIZUOKA KEN","city":"FUJI SHI","town":"KAMIYOKOWARI","perfecture_jp":"静岡県","jp_add_1":"富士市","jp_add_2":"上横割"},"4160939":{"post_code":"4160939","prefecture":"SHIZUOKA KEN","city":"FUJI SHI","town":"KAWANARIJIMA","perfecture_jp":"静岡県","jp_add_1":"富士市","jp_add_2":"川成島"},"4160955":{"post_code":"4160955","prefecture":"SHIZUOKA KEN","city":"FUJI SHI","town":"KAWANARISHIMMACHI","perfecture_jp":"静岡県","jp_add_1":"富士市","jp_add_2":"川成新町"},"4160946":{"post_code":"4160946","prefecture":"SHIZUOKA KEN","city":"FUJI SHI","town":"GOKANJIMA","perfecture_jp":"静岡県","jp_add_1":"富士市","jp_add_2":"五貫島"},"4160905":{"post_code":"4160905","prefecture":"SHIZUOKA KEN","city":"FUJI SHI","town":"GOMIJIMA","perfecture_jp":"静岡県","jp_add_1":"富士市","jp_add_2":"五味島"},"4160934":{"post_code":"4160934","prefecture":"SHIZUOKA KEN","city":"FUJI SHI","town":"SAMEJIMA","perfecture_jp":"静岡県","jp_add_1":"富士市","jp_add_2":"鮫島"},"4160943":{"post_code":"4160943","prefecture":"SHIZUOKA KEN","city":"FUJI SHI","town":"SHIMOYOKOWARI","perfecture_jp":"静岡県","jp_add_1":"富士市","jp_add_2":"下横割"},"4160941":{"post_code":"4160941","prefecture":"SHIZUOKA KEN","city":"FUJI SHI","town":"JUBEE","perfecture_jp":"静岡県","jp_add_1":"富士市","jp_add_2":"十兵衛"},"4160935":{"post_code":"4160935","prefecture":"SHIZUOKA KEN","city":"FUJI SHI","town":"TAGO","perfecture_jp":"静岡県","jp_add_1":"富士市","jp_add_2":"田子"},"4160931":{"post_code":"4160931","prefecture":"SHIZUOKA KEN","city":"FUJI SHI","town":"TADEHARA","perfecture_jp":"静岡県","jp_add_1":"富士市","jp_add_2":"蓼原"},"4160953":{"post_code":"4160953","prefecture":"SHIZUOKA KEN","city":"FUJI SHI","town":"TADEHARACHO","perfecture_jp":"静岡県","jp_add_1":"富士市","jp_add_2":"蓼原町"},"4160936":{"post_code":"4160936","prefecture":"SHIZUOKA KEN","city":"FUJI SHI","town":"NAKAKAWAHARA(SONOTA)","perfecture_jp":"静岡県","jp_add_1":"富士市","jp_add_2":"中河原"},"4160907":{"post_code":"4160907","prefecture":"SHIZUOKA KEN","city":"FUJI SHI","town":"NAKAJIMA","perfecture_jp":"静岡県","jp_add_1":"富士市","jp_add_2":"中島"},"4160933":{"post_code":"4160933","prefecture":"SHIZUOKA KEN","city":"FUJI SHI","town":"NAKAMARU","perfecture_jp":"静岡県","jp_add_1":"富士市","jp_add_2":"中丸"},"4160902":{"post_code":"4160902","prefecture":"SHIZUOKA KEN","city":"FUJI SHI","town":"NAGADORI","perfecture_jp":"静岡県","jp_add_1":"富士市","jp_add_2":"長通"},"4160911":{"post_code":"4160911","prefecture":"SHIZUOKA KEN","city":"FUJI SHI","town":"HACHIMANCHO","perfecture_jp":"静岡県","jp_add_1":"富士市","jp_add_2":"八幡町"},"4160938":{"post_code":"4160938","prefecture":"SHIZUOKA KEN","city":"FUJI SHI","town":"HAMADACHO","perfecture_jp":"静岡県","jp_add_1":"富士市","jp_add_2":"浜田町"},"4160915":{"post_code":"4160915","prefecture":"SHIZUOKA KEN","city":"FUJI SHI","town":"FUJICHO","perfecture_jp":"静岡県","jp_add_1":"富士市","jp_add_2":"富士町"},"4160916":{"post_code":"4160916","prefecture":"SHIZUOKA KEN","city":"FUJI SHI","town":"HEIGAKI","perfecture_jp":"静岡県","jp_add_1":"富士市","jp_add_2":"平垣"},"4160918":{"post_code":"4160918","prefecture":"SHIZUOKA KEN","city":"FUJI SHI","town":"HEIGAKICHO","perfecture_jp":"静岡県","jp_add_1":"富士市","jp_add_2":"平垣町"},"4160913":{"post_code":"4160913","prefecture":"SHIZUOKA KEN","city":"FUJI SHI","town":"HEIGAKIHONCHO","perfecture_jp":"静岡県","jp_add_1":"富士市","jp_add_2":"平垣本町"},"4160914":{"post_code":"4160914","prefecture":"SHIZUOKA KEN","city":"FUJI SHI","town":"HONCHO","perfecture_jp":"静岡県","jp_add_1":"富士市","jp_add_2":"本町"},"4160937":{"post_code":"4160937","prefecture":"SHIZUOKA KEN","city":"FUJI SHI","town":"MAEDA","perfecture_jp":"静岡県","jp_add_1":"富士市","jp_add_2":"前田"},"4160909":{"post_code":"4160909","prefecture":"SHIZUOKA KEN","city":"FUJI SHI","town":"MATSUOKA","perfecture_jp":"静岡県","jp_add_1":"富士市","jp_add_2":"松岡"},"4160919":{"post_code":"4160919","prefecture":"SHIZUOKA KEN","city":"FUJI SHI","town":"MATSUTOMIMACHI","perfecture_jp":"静岡県","jp_add_1":"富士市","jp_add_2":"松富町"},"4160903":{"post_code":"4160903","prefecture":"SHIZUOKA KEN","city":"FUJI SHI","town":"MATSUMOTO","perfecture_jp":"静岡県","jp_add_1":"富士市","jp_add_2":"松本"},"4160921":{"post_code":"4160921","prefecture":"SHIZUOKA KEN","city":"FUJI SHI","town":"MITOJIMA","perfecture_jp":"静岡県","jp_add_1":"富士市","jp_add_2":"水戸島"},"4160924":{"post_code":"4160924","prefecture":"SHIZUOKA KEN","city":"FUJI SHI","town":"MITOJIMAHONCHO","perfecture_jp":"静岡県","jp_add_1":"富士市","jp_add_2":"水戸島本町"},"4160922":{"post_code":"4160922","prefecture":"SHIZUOKA KEN","city":"FUJI SHI","town":"MITOJIMAMOTOCHO","perfecture_jp":"静岡県","jp_add_1":"富士市","jp_add_2":"水戸島元町"},"4160947":{"post_code":"4160947","prefecture":"SHIZUOKA KEN","city":"FUJI SHI","town":"MIYASHITA","perfecture_jp":"静岡県","jp_add_1":"富士市","jp_add_2":"宮下"},"4160945":{"post_code":"4160945","prefecture":"SHIZUOKA KEN","city":"FUJI SHI","town":"MIYAJIMA","perfecture_jp":"静岡県","jp_add_1":"富士市","jp_add_2":"宮島"},"4160906":{"post_code":"4160906","prefecture":"SHIZUOKA KEN","city":"FUJI SHI","town":"MOTOICHIBA","perfecture_jp":"静岡県","jp_add_1":"富士市","jp_add_2":"本市場"},"4160904":{"post_code":"4160904","prefecture":"SHIZUOKA KEN","city":"FUJI SHI","town":"MOTOICHIBASHINDEN","perfecture_jp":"静岡県","jp_add_1":"富士市","jp_add_2":"本市場新田"},"4160954":{"post_code":"4160954","prefecture":"SHIZUOKA KEN","city":"FUJI SHI","town":"MOTOICHIBACHO","perfecture_jp":"静岡県","jp_add_1":"富士市","jp_add_2":"本市場町"},"4160917":{"post_code":"4160917","prefecture":"SHIZUOKA KEN","city":"FUJI SHI","town":"MOTOCHO","perfecture_jp":"静岡県","jp_add_1":"富士市","jp_add_2":"元町"},"4160949":{"post_code":"4160949","prefecture":"SHIZUOKA KEN","city":"FUJI SHI","town":"MORISHITA","perfecture_jp":"静岡県","jp_add_1":"富士市","jp_add_2":"森下"},"4160948":{"post_code":"4160948","prefecture":"SHIZUOKA KEN","city":"FUJI SHI","town":"MORIJIMA","perfecture_jp":"静岡県","jp_add_1":"富士市","jp_add_2":"森島"},"4160932":{"post_code":"4160932","prefecture":"SHIZUOKA KEN","city":"FUJI SHI","town":"YANAGISHIMA","perfecture_jp":"静岡県","jp_add_1":"富士市","jp_add_2":"柳島"},"4160908":{"post_code":"4160908","prefecture":"SHIZUOKA KEN","city":"FUJI SHI","town":"YUNOKI","perfecture_jp":"静岡県","jp_add_1":"富士市","jp_add_2":"柚木"},"4160944":{"post_code":"4160944","prefecture":"SHIZUOKA KEN","city":"FUJI SHI","town":"YOKOWARI","perfecture_jp":"静岡県","jp_add_1":"富士市","jp_add_2":"横割"},"4160923":{"post_code":"4160923","prefecture":"SHIZUOKA KEN","city":"FUJI SHI","town":"YOKOWARIHONCHO","perfecture_jp":"静岡県","jp_add_1":"富士市","jp_add_2":"横割本町"},"4160951":{"post_code":"4160951","prefecture":"SHIZUOKA KEN","city":"FUJI SHI","town":"YONENOMIYACHO","perfecture_jp":"静岡県","jp_add_1":"富士市","jp_add_2":"米之宮町"}}