{"4180000":{"post_code":"4180000","prefecture":"SHIZUOKA KEN","city":"FUJINOMIYA SHI","town":"IKANIKEISAIGANAIBAAI","perfecture_jp":"静岡県","jp_add_1":"富士宮市","jp_add_2":""},"4180047":{"post_code":"4180047","prefecture":"SHIZUOKA KEN","city":"FUJINOMIYA SHI","town":"AOKI","perfecture_jp":"静岡県","jp_add_1":"富士宮市","jp_add_2":"青木"},"4180048":{"post_code":"4180048","prefecture":"SHIZUOKA KEN","city":"FUJINOMIYA SHI","town":"AOKIDAIRA","perfecture_jp":"静岡県","jp_add_1":"富士宮市","jp_add_2":"青木平"},"4180016":{"post_code":"4180016","prefecture":"SHIZUOKA KEN","city":"FUJINOMIYA SHI","town":"AKOJI","perfecture_jp":"静岡県","jp_add_1":"富士宮市","jp_add_2":"阿幸地"},"4180078":{"post_code":"4180078","prefecture":"SHIZUOKA KEN","city":"FUJINOMIYA SHI","town":"AKOJICHO","perfecture_jp":"静岡県","jp_add_1":"富士宮市","jp_add_2":"阿幸地町"},"4180037":{"post_code":"4180037","prefecture":"SHIZUOKA KEN","city":"FUJINOMIYA SHI","town":"AGOYAMA","perfecture_jp":"静岡県","jp_add_1":"富士宮市","jp_add_2":"安居山"},"4180057":{"post_code":"4180057","prefecture":"SHIZUOKA KEN","city":"FUJINOMIYA SHI","town":"ASAHICHO","perfecture_jp":"静岡県","jp_add_1":"富士宮市","jp_add_2":"朝日町"},"4180032":{"post_code":"4180032","prefecture":"SHIZUOKA KEN","city":"FUJINOMIYA SHI","town":"ASAMACHO","perfecture_jp":"静岡県","jp_add_1":"富士宮市","jp_add_2":"浅間町"},"4180011":{"post_code":"4180011","prefecture":"SHIZUOKA KEN","city":"FUJINOMIYA SHI","town":"AWAKURA","perfecture_jp":"静岡県","jp_add_1":"富士宮市","jp_add_2":"粟倉"},"4180018":{"post_code":"4180018","prefecture":"SHIZUOKA KEN","city":"FUJINOMIYA SHI","town":"AWAKURAMINAMICHO","perfecture_jp":"静岡県","jp_add_1":"富士宮市","jp_add_2":"粟倉南町"},"4180043":{"post_code":"4180043","prefecture":"SHIZUOKA KEN","city":"FUJINOMIYA SHI","town":"IZUMICHO","perfecture_jp":"静岡県","jp_add_1":"富士宮市","jp_add_2":"泉町"},"4180108":{"post_code":"4180108","prefecture":"SHIZUOKA KEN","city":"FUJINOMIYA SHI","town":"INOKASHIRA","perfecture_jp":"静岡県","jp_add_1":"富士宮市","jp_add_2":"猪之頭"},"4180104":{"post_code":"4180104","prefecture":"SHIZUOKA KEN","city":"FUJINOMIYA SHI","town":"UTSUNO","perfecture_jp":"静岡県","jp_add_1":"富士宮市","jp_add_2":"内野"},"4180113":{"post_code":"4180113","prefecture":"SHIZUOKA KEN","city":"FUJINOMIYA SHI","town":"UMAMIZUKA","perfecture_jp":"静岡県","jp_add_1":"富士宮市","jp_add_2":"馬見塚"},"4180013":{"post_code":"4180013","prefecture":"SHIZUOKA KEN","city":"FUJINOMIYA SHI","town":"OIWA","perfecture_jp":"静岡県","jp_add_1":"富士宮市","jp_add_2":"大岩"},"4180044":{"post_code":"4180044","prefecture":"SHIZUOKA KEN","city":"FUJINOMIYA SHI","town":"ONAKAZATO","perfecture_jp":"静岡県","jp_add_1":"富士宮市","jp_add_2":"大中里"},"4180066":{"post_code":"4180066","prefecture":"SHIZUOKA KEN","city":"FUJINOMIYA SHI","town":"OMIYACHO","perfecture_jp":"静岡県","jp_add_1":"富士宮市","jp_add_2":"大宮町"},"4180103":{"post_code":"4180103","prefecture":"SHIZUOKA KEN","city":"FUJINOMIYA SHI","town":"KAMIIDE","perfecture_jp":"静岡県","jp_add_1":"富士宮市","jp_add_2":"上井出"},"4180116":{"post_code":"4180116","prefecture":"SHIZUOKA KEN","city":"FUJINOMIYA SHI","town":"KAMIJO","perfecture_jp":"静岡県","jp_add_1":"富士宮市","jp_add_2":"上条"},"4180117":{"post_code":"4180117","prefecture":"SHIZUOKA KEN","city":"FUJINOMIYA SHI","town":"KARIYADO","perfecture_jp":"静岡県","jp_add_1":"富士宮市","jp_add_2":"狩宿"},"4180031":{"post_code":"4180031","prefecture":"SHIZUOKA KEN","city":"FUJINOMIYA SHI","town":"KANDAGAWACHO","perfecture_jp":"静岡県","jp_add_1":"富士宮市","jp_add_2":"神田川町"},"4180061":{"post_code":"4180061","prefecture":"SHIZUOKA KEN","city":"FUJINOMIYA SHI","town":"KITAMACHI","perfecture_jp":"静岡県","jp_add_1":"富士宮市","jp_add_2":"北町"},"4180112":{"post_code":"4180112","prefecture":"SHIZUOKA KEN","city":"FUJINOMIYA SHI","town":"KITAYAMA","perfecture_jp":"静岡県","jp_add_1":"富士宮市","jp_add_2":"北山"},"4180042":{"post_code":"4180042","prefecture":"SHIZUOKA KEN","city":"FUJINOMIYA SHI","town":"KIBUNECHO","perfecture_jp":"静岡県","jp_add_1":"富士宮市","jp_add_2":"貴船町"},"4180034":{"post_code":"4180034","prefecture":"SHIZUOKA KEN","city":"FUJINOMIYA SHI","town":"KURODA","perfecture_jp":"静岡県","jp_add_1":"富士宮市","jp_add_2":"黒田"},"4180074":{"post_code":"4180074","prefecture":"SHIZUOKA KEN","city":"FUJINOMIYA SHI","town":"GENDOJICHO","perfecture_jp":"静岡県","jp_add_1":"富士宮市","jp_add_2":"源道寺町"},"4180022":{"post_code":"4180022","prefecture":"SHIZUOKA KEN","city":"FUJINOMIYA SHI","town":"KOIZUMI","perfecture_jp":"静岡県","jp_add_1":"富士宮市","jp_add_2":"小泉"},"4180107":{"post_code":"4180107","prefecture":"SHIZUOKA KEN","city":"FUJINOMIYA SHI","town":"SAORI","perfecture_jp":"静岡県","jp_add_1":"富士宮市","jp_add_2":"佐折"},"4180114":{"post_code":"4180114","prefecture":"SHIZUOKA KEN","city":"FUJINOMIYA SHI","town":"SHIMOJO","perfecture_jp":"静岡県","jp_add_1":"富士宮市","jp_add_2":"下条"},"4180115":{"post_code":"4180115","prefecture":"SHIZUOKA KEN","city":"FUJINOMIYA SHI","town":"SHOJINGAWA","perfecture_jp":"静岡県","jp_add_1":"富士宮市","jp_add_2":"精進川"},"4180062":{"post_code":"4180062","prefecture":"SHIZUOKA KEN","city":"FUJINOMIYA SHI","town":"JOHOKUCHO","perfecture_jp":"静岡県","jp_add_1":"富士宮市","jp_add_2":"城北町"},"4180021":{"post_code":"4180021","prefecture":"SHIZUOKA KEN","city":"FUJINOMIYA SHI","town":"SUGITA","perfecture_jp":"静岡県","jp_add_1":"富士宮市","jp_add_2":"杉田"},"4180055":{"post_code":"4180055","prefecture":"SHIZUOKA KEN","city":"FUJINOMIYA SHI","town":"TAKARAMACHI","perfecture_jp":"静岡県","jp_add_1":"富士宮市","jp_add_2":"宝町"},"4180075":{"post_code":"4180075","prefecture":"SHIZUOKA KEN","city":"FUJINOMIYA SHI","town":"TANAKACHO","perfecture_jp":"静岡県","jp_add_1":"富士宮市","jp_add_2":"田中町"},"4180065":{"post_code":"4180065","prefecture":"SHIZUOKA KEN","city":"FUJINOMIYA SHI","town":"CHUOCHO","perfecture_jp":"静岡県","jp_add_1":"富士宮市","jp_add_2":"中央町"},"4180006":{"post_code":"4180006","prefecture":"SHIZUOKA KEN","city":"FUJINOMIYA SHI","town":"TOGAMI","perfecture_jp":"静岡県","jp_add_1":"富士宮市","jp_add_2":"外神"},"4180007":{"post_code":"4180007","prefecture":"SHIZUOKA KEN","city":"FUJINOMIYA SHI","town":"TOGAMIHIGASHICHO","perfecture_jp":"静岡県","jp_add_1":"富士宮市","jp_add_2":"外神東町"},"4180046":{"post_code":"4180046","prefecture":"SHIZUOKA KEN","city":"FUJINOMIYA SHI","town":"NAKAZATOHIGASHICHO","perfecture_jp":"静岡県","jp_add_1":"富士宮市","jp_add_2":"中里東町"},"4180045":{"post_code":"4180045","prefecture":"SHIZUOKA KEN","city":"FUJINOMIYA SHI","town":"NAKAJIMACHO","perfecture_jp":"静岡県","jp_add_1":"富士宮市","jp_add_2":"中島町"},"4180002":{"post_code":"4180002","prefecture":"SHIZUOKA KEN","city":"FUJINOMIYA SHI","town":"NAKAHARACHO","perfecture_jp":"静岡県","jp_add_1":"富士宮市","jp_add_2":"中原町"},"4180019":{"post_code":"4180019","prefecture":"SHIZUOKA KEN","city":"FUJINOMIYA SHI","town":"NANRYO","perfecture_jp":"静岡県","jp_add_1":"富士宮市","jp_add_2":"南陵"},"4180076":{"post_code":"4180076","prefecture":"SHIZUOKA KEN","city":"FUJINOMIYA SHI","town":"NISHIKICHO","perfecture_jp":"静岡県","jp_add_1":"富士宮市","jp_add_2":"錦町"},"4180026":{"post_code":"4180026","prefecture":"SHIZUOKA KEN","city":"FUJINOMIYA SHI","town":"NISHIKOIZUMICHO","perfecture_jp":"静岡県","jp_add_1":"富士宮市","jp_add_2":"西小泉町"},"4180056":{"post_code":"4180056","prefecture":"SHIZUOKA KEN","city":"FUJINOMIYA SHI","town":"NISHIMACHI","perfecture_jp":"静岡県","jp_add_1":"富士宮市","jp_add_2":"西町"},"4180024":{"post_code":"4180024","prefecture":"SHIZUOKA KEN","city":"FUJINOMIYA SHI","town":"NUKUDO","perfecture_jp":"静岡県","jp_add_1":"富士宮市","jp_add_2":"貫戸"},"4180036":{"post_code":"4180036","prefecture":"SHIZUOKA KEN","city":"FUJINOMIYA SHI","town":"NUMAKUBO","perfecture_jp":"静岡県","jp_add_1":"富士宮市","jp_add_2":"沼久保"},"4180101":{"post_code":"4180101","prefecture":"SHIZUOKA KEN","city":"FUJINOMIYA SHI","town":"NEBARA","perfecture_jp":"静岡県","jp_add_1":"富士宮市","jp_add_2":"根原"},"4180039":{"post_code":"4180039","prefecture":"SHIZUOKA KEN","city":"FUJINOMIYA SHI","town":"NONAKA","perfecture_jp":"静岡県","jp_add_1":"富士宮市","jp_add_2":"野中"},"4180038":{"post_code":"4180038","prefecture":"SHIZUOKA KEN","city":"FUJINOMIYA SHI","town":"NONAKACHO","perfecture_jp":"静岡県","jp_add_1":"富士宮市","jp_add_2":"野中町"},"4180033":{"post_code":"4180033","prefecture":"SHIZUOKA KEN","city":"FUJINOMIYA SHI","town":"NONAKAHIGASHICHO","perfecture_jp":"静岡県","jp_add_1":"富士宮市","jp_add_2":"野中東町"},"4180105":{"post_code":"4180105","prefecture":"SHIZUOKA KEN","city":"FUJINOMIYA SHI","town":"HARA","perfecture_jp":"静岡県","jp_add_1":"富士宮市","jp_add_2":"原"},"4180106":{"post_code":"4180106","prefecture":"SHIZUOKA KEN","city":"FUJINOMIYA SHI","town":"HANNO","perfecture_jp":"静岡県","jp_add_1":"富士宮市","jp_add_2":"半野"},"4180054":{"post_code":"4180054","prefecture":"SHIZUOKA KEN","city":"FUJINOMIYA SHI","town":"HIKARICHO","perfecture_jp":"静岡県","jp_add_1":"富士宮市","jp_add_2":"光町"},"4180071":{"post_code":"4180071","prefecture":"SHIZUOKA KEN","city":"FUJINOMIYA SHI","town":"HIGASHIAKOJI","perfecture_jp":"静岡県","jp_add_1":"富士宮市","jp_add_2":"東阿幸地"},"4180077":{"post_code":"4180077","prefecture":"SHIZUOKA KEN","city":"FUJINOMIYA SHI","town":"HIGASHICHO","perfecture_jp":"静岡県","jp_add_1":"富士宮市","jp_add_2":"東町"},"4180102":{"post_code":"4180102","prefecture":"SHIZUOKA KEN","city":"FUJINOMIYA SHI","town":"HITOANA","perfecture_jp":"静岡県","jp_add_1":"富士宮市","jp_add_2":"人穴"},"4180003":{"post_code":"4180003","prefecture":"SHIZUOKA KEN","city":"FUJINOMIYA SHI","town":"HIBARIGAOKA","perfecture_jp":"静岡県","jp_add_1":"富士宮市","jp_add_2":"ひばりが丘"},"4180014":{"post_code":"4180014","prefecture":"SHIZUOKA KEN","city":"FUJINOMIYA SHI","town":"FUJIMIGAOKA","perfecture_jp":"静岡県","jp_add_1":"富士宮市","jp_add_2":"富士見ケ丘"},"4180017":{"post_code":"4180017","prefecture":"SHIZUOKA KEN","city":"FUJINOMIYA SHI","town":"FUNAKUBOCHO","perfecture_jp":"静岡県","jp_add_1":"富士宮市","jp_add_2":"舟久保町"},"4180109":{"post_code":"4180109","prefecture":"SHIZUOKA KEN","city":"FUJINOMIYA SHI","town":"FUMOTO","perfecture_jp":"静岡県","jp_add_1":"富士宮市","jp_add_2":"麓"},"4180035":{"post_code":"4180035","prefecture":"SHIZUOKA KEN","city":"FUJINOMIYA SHI","town":"HOSHIYAMA","perfecture_jp":"静岡県","jp_add_1":"富士宮市","jp_add_2":"星山"},"4180058":{"post_code":"4180058","prefecture":"SHIZUOKA KEN","city":"FUJINOMIYA SHI","town":"HONAMICHO","perfecture_jp":"静岡県","jp_add_1":"富士宮市","jp_add_2":"穂波町"},"4180015":{"post_code":"4180015","prefecture":"SHIZUOKA KEN","city":"FUJINOMIYA SHI","town":"MAIMAIGICHO","perfecture_jp":"静岡県","jp_add_1":"富士宮市","jp_add_2":"舞々木町"},"4180025":{"post_code":"4180025","prefecture":"SHIZUOKA KEN","city":"FUJINOMIYA SHI","town":"MAEDACHO","perfecture_jp":"静岡県","jp_add_1":"富士宮市","jp_add_2":"前田町"},"4180001":{"post_code":"4180001","prefecture":"SHIZUOKA KEN","city":"FUJINOMIYA SHI","town":"MANNOHARASHINDEN","perfecture_jp":"静岡県","jp_add_1":"富士宮市","jp_add_2":"万野原新田"},"4180004":{"post_code":"4180004","prefecture":"SHIZUOKA KEN","city":"FUJINOMIYA SHI","town":"MISONODAIRA","perfecture_jp":"静岡県","jp_add_1":"富士宮市","jp_add_2":"三園平"},"4180053":{"post_code":"4180053","prefecture":"SHIZUOKA KEN","city":"FUJINOMIYA SHI","town":"MIYAKITACHO","perfecture_jp":"静岡県","jp_add_1":"富士宮市","jp_add_2":"宮北町"},"4180067":{"post_code":"4180067","prefecture":"SHIZUOKA KEN","city":"FUJINOMIYA SHI","town":"MIYACHO","perfecture_jp":"静岡県","jp_add_1":"富士宮市","jp_add_2":"宮町"},"4180005":{"post_code":"4180005","prefecture":"SHIZUOKA KEN","city":"FUJINOMIYA SHI","town":"MIYAHARA","perfecture_jp":"静岡県","jp_add_1":"富士宮市","jp_add_2":"宮原"},"4180012":{"post_code":"4180012","prefecture":"SHIZUOKA KEN","city":"FUJINOMIYA SHI","town":"MURAYAMA","perfecture_jp":"静岡県","jp_add_1":"富士宮市","jp_add_2":"村山"},"4180064":{"post_code":"4180064","prefecture":"SHIZUOKA KEN","city":"FUJINOMIYA SHI","town":"MOTOSHIROCHO","perfecture_jp":"静岡県","jp_add_1":"富士宮市","jp_add_2":"元城町"},"4180072":{"post_code":"4180072","prefecture":"SHIZUOKA KEN","city":"FUJINOMIYA SHI","town":"YATATECHO","perfecture_jp":"静岡県","jp_add_1":"富士宮市","jp_add_2":"矢立町"},"4180111":{"post_code":"4180111","prefecture":"SHIZUOKA KEN","city":"FUJINOMIYA SHI","town":"YAMAMIYA","perfecture_jp":"静岡県","jp_add_1":"富士宮市","jp_add_2":"山宮"},"4180023":{"post_code":"4180023","prefecture":"SHIZUOKA KEN","city":"FUJINOMIYA SHI","town":"YAMAMOTO","perfecture_jp":"静岡県","jp_add_1":"富士宮市","jp_add_2":"山本"},"4180068":{"post_code":"4180068","prefecture":"SHIZUOKA KEN","city":"FUJINOMIYA SHI","town":"YUTAKACHO","perfecture_jp":"静岡県","jp_add_1":"富士宮市","jp_add_2":"豊町"},"4180073":{"post_code":"4180073","prefecture":"SHIZUOKA KEN","city":"FUJINOMIYA SHI","town":"YUMIZAWACHO","perfecture_jp":"静岡県","jp_add_1":"富士宮市","jp_add_2":"弓沢町"},"4180041":{"post_code":"4180041","prefecture":"SHIZUOKA KEN","city":"FUJINOMIYA SHI","town":"YODOGAWACHO","perfecture_jp":"静岡県","jp_add_1":"富士宮市","jp_add_2":"淀川町"},"4180051":{"post_code":"4180051","prefecture":"SHIZUOKA KEN","city":"FUJINOMIYA SHI","town":"YODOSHI","perfecture_jp":"静岡県","jp_add_1":"富士宮市","jp_add_2":"淀師"},"4180052":{"post_code":"4180052","prefecture":"SHIZUOKA KEN","city":"FUJINOMIYA SHI","town":"YODOHIRACHO","perfecture_jp":"静岡県","jp_add_1":"富士宮市","jp_add_2":"淀平町"},"4180063":{"post_code":"4180063","prefecture":"SHIZUOKA KEN","city":"FUJINOMIYA SHI","town":"WAKANOMIYACHO","perfecture_jp":"静岡県","jp_add_1":"富士宮市","jp_add_2":"若の宮町"}}