{"4190317":{"post_code":"4190317","prefecture":"SHIZUOKA KEN","city":"FUJINOMIYA SHI","town":"UTSUBUSA","perfecture_jp":"静岡県","jp_add_1":"富士宮市","jp_add_2":"内房"},"4190314":{"post_code":"4190314","prefecture":"SHIZUOKA KEN","city":"FUJINOMIYA SHI","town":"OKUBO","perfecture_jp":"静岡県","jp_add_1":"富士宮市","jp_add_2":"大久保"},"4190303":{"post_code":"4190303","prefecture":"SHIZUOKA KEN","city":"FUJINOMIYA SHI","town":"OSHIKAKUBO","perfecture_jp":"静岡県","jp_add_1":"富士宮市","jp_add_2":"大鹿窪"},"4190311":{"post_code":"4190311","prefecture":"SHIZUOKA KEN","city":"FUJINOMIYA SHI","town":"KAMIINAKO","perfecture_jp":"静岡県","jp_add_1":"富士宮市","jp_add_2":"上稲子"},"4190301":{"post_code":"4190301","prefecture":"SHIZUOKA KEN","city":"FUJINOMIYA SHI","town":"KAMIYUNO","perfecture_jp":"静岡県","jp_add_1":"富士宮市","jp_add_2":"上柚野"},"4190312":{"post_code":"4190312","prefecture":"SHIZUOKA KEN","city":"FUJINOMIYA SHI","town":"SHIMOINAKO","perfecture_jp":"静岡県","jp_add_1":"富士宮市","jp_add_2":"下稲子"},"4190305":{"post_code":"4190305","prefecture":"SHIZUOKA KEN","city":"FUJINOMIYA SHI","town":"SHIMOYUNO","perfecture_jp":"静岡県","jp_add_1":"富士宮市","jp_add_2":"下柚野"},"4190304":{"post_code":"4190304","prefecture":"SHIZUOKA KEN","city":"FUJINOMIYA SHI","town":"TORINAMI","perfecture_jp":"静岡県","jp_add_1":"富士宮市","jp_add_2":"鳥並"},"4190315":{"post_code":"4190315","prefecture":"SHIZUOKA KEN","city":"FUJINOMIYA SHI","town":"NAGANUKI","perfecture_jp":"静岡県","jp_add_1":"富士宮市","jp_add_2":"長貫"},"4190313":{"post_code":"4190313","prefecture":"SHIZUOKA KEN","city":"FUJINOMIYA SHI","town":"NISHIYAMA","perfecture_jp":"静岡県","jp_add_1":"富士宮市","jp_add_2":"西山"},"4190302":{"post_code":"4190302","prefecture":"SHIZUOKA KEN","city":"FUJINOMIYA SHI","town":"NEKOZAWA","perfecture_jp":"静岡県","jp_add_1":"富士宮市","jp_add_2":"猫沢"},"4190316":{"post_code":"4190316","prefecture":"SHIZUOKA KEN","city":"FUJINOMIYA SHI","town":"HABUNA","perfecture_jp":"静岡県","jp_add_1":"富士宮市","jp_add_2":"羽鮒"},"4190201":{"post_code":"4190201","prefecture":"SHIZUOKA KEN","city":"FUJI SHI","town":"ATSUHARA","perfecture_jp":"静岡県","jp_add_1":"富士市","jp_add_2":"厚原"},"4190204":{"post_code":"4190204","prefecture":"SHIZUOKA KEN","city":"FUJI SHI","town":"IRIYAMASE","perfecture_jp":"静岡県","jp_add_1":"富士市","jp_add_2":"入山瀬"},"4190202":{"post_code":"4190202","prefecture":"SHIZUOKA KEN","city":"FUJI SHI","town":"KUZAWA","perfecture_jp":"静岡県","jp_add_1":"富士市","jp_add_2":"久沢"},"4190203":{"post_code":"4190203","prefecture":"SHIZUOKA KEN","city":"FUJI SHI","town":"TAKAOKAHONCHO","perfecture_jp":"静岡県","jp_add_1":"富士市","jp_add_2":"鷹岡本町"},"4190205":{"post_code":"4190205","prefecture":"SHIZUOKA KEN","city":"FUJI SHI","town":"TEMMA","perfecture_jp":"静岡県","jp_add_1":"富士市","jp_add_2":"天間"},"4190100":{"post_code":"4190100","prefecture":"SHIZUOKA KEN","city":"TAGATA GUN KANNAMI CHO","town":"IKANIKEISAIGANAIBAAI","perfecture_jp":"静岡県","jp_add_1":"田方郡函南町","jp_add_2":""},"4190121":{"post_code":"4190121","prefecture":"SHIZUOKA KEN","city":"TAGATA GUN KANNAMI CHO","town":"OTAKE","perfecture_jp":"静岡県","jp_add_1":"田方郡函南町","jp_add_2":"大竹"},"4190113":{"post_code":"4190113","prefecture":"SHIZUOKA KEN","city":"TAGATA GUN KANNAMI CHO","town":"ODOI","perfecture_jp":"静岡県","jp_add_1":"田方郡函南町","jp_add_2":"大土肥"},"4190112":{"post_code":"4190112","prefecture":"SHIZUOKA KEN","city":"TAGATA GUN KANNAMI CHO","town":"KASHIYA","perfecture_jp":"静岡県","jp_add_1":"田方郡函南町","jp_add_2":"柏谷"},"4190122":{"post_code":"4190122","prefecture":"SHIZUOKA KEN","city":"TAGATA GUN KANNAMI CHO","town":"KAMISAWA","perfecture_jp":"静岡県","jp_add_1":"田方郡函南町","jp_add_2":"上沢"},"4190103":{"post_code":"4190103","prefecture":"SHIZUOKA KEN","city":"TAGATA GUN KANNAMI CHO","town":"KARUISAWA","perfecture_jp":"静岡県","jp_add_1":"田方郡函南町","jp_add_2":"軽井沢"},"4190101":{"post_code":"4190101","prefecture":"SHIZUOKA KEN","city":"TAGATA GUN KANNAMI CHO","town":"KUWAHARA(SONOTA)","perfecture_jp":"静岡県","jp_add_1":"田方郡函南町","jp_add_2":"桑原"},"4190115":{"post_code":"4190115","prefecture":"SHIZUOKA KEN","city":"TAGATA GUN KANNAMI CHO","town":"SHINDEN","perfecture_jp":"静岡県","jp_add_1":"田方郡函南町","jp_add_2":"新田"},"4190102":{"post_code":"4190102","prefecture":"SHIZUOKA KEN","city":"TAGATA GUN KANNAMI CHO","town":"TASHIRO","perfecture_jp":"静岡県","jp_add_1":"田方郡函南町","jp_add_2":"田代"},"4190105":{"post_code":"4190105","prefecture":"SHIZUOKA KEN","city":"TAGATA GUN KANNAMI CHO","town":"TANNA","perfecture_jp":"静岡県","jp_add_1":"田方郡函南町","jp_add_2":"丹那"},"4190124":{"post_code":"4190124","prefecture":"SHIZUOKA KEN","city":"TAGATA GUN KANNAMI CHO","town":"TSUKAMOTO","perfecture_jp":"静岡県","jp_add_1":"田方郡函南町","jp_add_2":"塚本"},"4190114":{"post_code":"4190114","prefecture":"SHIZUOKA KEN","city":"TAGATA GUN KANNAMI CHO","town":"NITTA","perfecture_jp":"静岡県","jp_add_1":"田方郡函南町","jp_add_2":"仁田"},"4190104":{"post_code":"4190104","prefecture":"SHIZUOKA KEN","city":"TAGATA GUN KANNAMI CHO","town":"HATA","perfecture_jp":"静岡県","jp_add_1":"田方郡函南町","jp_add_2":"畑"},"4190111":{"post_code":"4190111","prefecture":"SHIZUOKA KEN","city":"TAGATA GUN KANNAMI CHO","town":"HATAKE","perfecture_jp":"静岡県","jp_add_1":"田方郡函南町","jp_add_2":"畑毛"},"4190125":{"post_code":"4190125","prefecture":"SHIZUOKA KEN","city":"TAGATA GUN KANNAMI CHO","town":"HITA","perfecture_jp":"静岡県","jp_add_1":"田方郡函南町","jp_add_2":"肥田"},"4190116":{"post_code":"4190116","prefecture":"SHIZUOKA KEN","city":"TAGATA GUN KANNAMI CHO","town":"HIMORI","perfecture_jp":"静岡県","jp_add_1":"田方郡函南町","jp_add_2":"日守"},"4190107":{"post_code":"4190107","prefecture":"SHIZUOKA KEN","city":"TAGATA GUN KANNAMI CHO","town":"HIRAI","perfecture_jp":"静岡県","jp_add_1":"田方郡函南町","jp_add_2":"平井"},"4190123":{"post_code":"4190123","prefecture":"SHIZUOKA KEN","city":"TAGATA GUN KANNAMI CHO","town":"MAMIYA","perfecture_jp":"静岡県","jp_add_1":"田方郡函南町","jp_add_2":"間宮"},"4190106":{"post_code":"4190106","prefecture":"SHIZUOKA KEN","city":"TAGATA GUN KANNAMI CHO","town":"MINAMIHAKONEDAIYARANDO","perfecture_jp":"静岡県","jp_add_1":"田方郡函南町","jp_add_2":"南箱根ダイヤランド"}}