{"4212309":{"post_code":"4212309","prefecture":"SHIZUOKA KEN","city":"SHIZUOKA SHI AOI KU","town":"AIBUCHI","perfecture_jp":"静岡県","jp_add_1":"静岡市葵区","jp_add_2":"相淵"},"4211307":{"post_code":"4211307","prefecture":"SHIZUOKA KEN","city":"SHIZUOKA SHI AOI KU","town":"AIMATA","perfecture_jp":"静岡県","jp_add_1":"静岡市葵区","jp_add_2":"相俣"},"4211305":{"post_code":"4211305","prefecture":"SHIZUOKA KEN","city":"SHIZUOKA SHI AOI KU","town":"AKAZAWA","perfecture_jp":"静岡県","jp_add_1":"静岡市葵区","jp_add_2":"赤沢"},"4212125":{"post_code":"4212125","prefecture":"SHIZUOKA KEN","city":"SHIZUOKA SHI AOI KU","town":"ASHIKUBO OKUGUMI","perfecture_jp":"静岡県","jp_add_1":"静岡市葵区","jp_add_2":"足久保奥組"},"4212124":{"post_code":"4212124","prefecture":"SHIZUOKA KEN","city":"SHIZUOKA SHI AOI KU","town":"ASHIKUBO KUCHIGUMI","perfecture_jp":"静岡県","jp_add_1":"静岡市葵区","jp_add_2":"足久保口組"},"4212114":{"post_code":"4212114","prefecture":"SHIZUOKA KEN","city":"SHIZUOKA SHI AOI KU","town":"ABEGUCHI SHINDEN","perfecture_jp":"静岡県","jp_add_1":"静岡市葵区","jp_add_2":"安倍口新田"},"4212113":{"post_code":"4212113","prefecture":"SHIZUOKA KEN","city":"SHIZUOKA SHI AOI KU","town":"ABEGUCHI DANCHI","perfecture_jp":"静岡県","jp_add_1":"静岡市葵区","jp_add_2":"安倍口団地"},"4212106":{"post_code":"4212106","prefecture":"SHIZUOKA KEN","city":"SHIZUOKA SHI AOI KU","town":"USHIZUMA","perfecture_jp":"静岡県","jp_add_1":"静岡市葵区","jp_add_2":"牛妻"},"4212118":{"post_code":"4212118","prefecture":"SHIZUOKA KEN","city":"SHIZUOKA SHI AOI KU","town":"UCHIMAKI","perfecture_jp":"静岡県","jp_add_1":"静岡市葵区","jp_add_2":"内牧"},"4212303":{"post_code":"4212303","prefecture":"SHIZUOKA KEN","city":"SHIZUOKA SHI AOI KU","town":"UTOGI","perfecture_jp":"静岡県","jp_add_1":"静岡市葵区","jp_add_2":"有東木"},"4211222":{"post_code":"4211222","prefecture":"SHIZUOKA KEN","city":"SHIZUOKA SHI AOI KU","town":"UBUME","perfecture_jp":"静岡県","jp_add_1":"静岡市葵区","jp_add_2":"産女"},"4212301":{"post_code":"4212301","prefecture":"SHIZUOKA KEN","city":"SHIZUOKA SHI AOI KU","town":"UMEGASHIMA","perfecture_jp":"静岡県","jp_add_1":"静岡市葵区","jp_add_2":"梅ケ島"},"4212112":{"post_code":"4212112","prefecture":"SHIZUOKA KEN","city":"SHIZUOKA SHI AOI KU","town":"ENDOSHINDEN","perfecture_jp":"静岡県","jp_add_1":"静岡市葵区","jp_add_2":"遠藤新田"},"4212227":{"post_code":"4212227","prefecture":"SHIZUOKA KEN","city":"SHIZUOKA SHI AOI KU","town":"OSAWA","perfecture_jp":"静岡県","jp_add_1":"静岡市葵区","jp_add_2":"大沢"},"4211314":{"post_code":"4211314","prefecture":"SHIZUOKA KEN","city":"SHIZUOKA SHI AOI KU","town":"OHARA","perfecture_jp":"静岡県","jp_add_1":"静岡市葵区","jp_add_2":"大原"},"4211401":{"post_code":"4211401","prefecture":"SHIZUOKA KEN","city":"SHIZUOKA SHI AOI KU","town":"OMA","perfecture_jp":"静岡県","jp_add_1":"静岡市葵区","jp_add_2":"大間"},"4212215":{"post_code":"4212215","prefecture":"SHIZUOKA KEN","city":"SHIZUOKA SHI AOI KU","town":"OKUIKEGAYA","perfecture_jp":"静岡県","jp_add_1":"静岡市葵区","jp_add_2":"奥池ケ谷"},"4212201":{"post_code":"4212201","prefecture":"SHIZUOKA KEN","city":"SHIZUOKA SHI AOI KU","town":"OKUSEMMATA","perfecture_jp":"静岡県","jp_add_1":"静岡市葵区","jp_add_2":"奥仙俣"},"4212223":{"post_code":"4212223","prefecture":"SHIZUOKA KEN","city":"SHIZUOKA SHI AOI KU","town":"OCHIAI","perfecture_jp":"静岡県","jp_add_1":"静岡市葵区","jp_add_2":"落合"},"4211302":{"post_code":"4211302","prefecture":"SHIZUOKA KEN","city":"SHIZUOKA SHI AOI KU","town":"KAGIANA","perfecture_jp":"静岡県","jp_add_1":"静岡市葵区","jp_add_2":"鍵穴"},"4212214":{"post_code":"4212214","prefecture":"SHIZUOKA KEN","city":"SHIZUOKA SHI AOI KU","town":"KAKISHIMA","perfecture_jp":"静岡県","jp_add_1":"静岡市葵区","jp_add_2":"柿島"},"4212107":{"post_code":"4212107","prefecture":"SHIZUOKA KEN","city":"SHIZUOKA SHI AOI KU","town":"KADOYA","perfecture_jp":"静岡県","jp_add_1":"静岡市葵区","jp_add_2":"門屋"},"4212211":{"post_code":"4212211","prefecture":"SHIZUOKA KEN","city":"SHIZUOKA SHI AOI KU","town":"KAMIOCHIAI","perfecture_jp":"静岡県","jp_add_1":"静岡市葵区","jp_add_2":"上落合"},"4212222":{"post_code":"4212222","prefecture":"SHIZUOKA KEN","city":"SHIZUOKA SHI AOI KU","town":"KAYAMA","perfecture_jp":"静岡県","jp_add_1":"静岡市葵区","jp_add_2":"桂山"},"4211408":{"post_code":"4211408","prefecture":"SHIZUOKA KEN","city":"SHIZUOKA SHI AOI KU","town":"KUZURENO","perfecture_jp":"静岡県","jp_add_1":"静岡市葵区","jp_add_2":"崩野"},"4212203":{"post_code":"4212203","prefecture":"SHIZUOKA KEN","city":"SHIZUOKA SHI AOI KU","town":"KUCHISAKAMOTO","perfecture_jp":"静岡県","jp_add_1":"静岡市葵区","jp_add_2":"口坂本"},"4212202":{"post_code":"4212202","prefecture":"SHIZUOKA KEN","city":"SHIZUOKA SHI AOI KU","town":"KUCHISEMMATA","perfecture_jp":"静岡県","jp_add_1":"静岡市葵区","jp_add_2":"口仙俣"},"4211308":{"post_code":"4211308","prefecture":"SHIZUOKA KEN","city":"SHIZUOKA SHI AOI KU","town":"KUROMATA","perfecture_jp":"静岡県","jp_add_1":"静岡市葵区","jp_add_2":"黒俣"},"4212117":{"post_code":"4212117","prefecture":"SHIZUOKA KEN","city":"SHIZUOKA SHI AOI KU","town":"KOANSHINDEN","perfecture_jp":"静岡県","jp_add_1":"静岡市葵区","jp_add_2":"幸庵新田"},"4212105":{"post_code":"4212105","prefecture":"SHIZUOKA KEN","city":"SHIZUOKA SHI AOI KU","town":"GOJIMA","perfecture_jp":"静岡県","jp_add_1":"静岡市葵区","jp_add_2":"郷島"},"4212225":{"post_code":"4212225","prefecture":"SHIZUOKA KEN","city":"SHIZUOKA SHI AOI KU","town":"KOSHIGOE","perfecture_jp":"静岡県","jp_add_1":"静岡市葵区","jp_add_2":"腰越"},"4211301":{"post_code":"4211301","prefecture":"SHIZUOKA KEN","city":"SHIZUOKA SHI AOI KU","town":"KOJIMA","perfecture_jp":"静岡県","jp_add_1":"静岡市葵区","jp_add_2":"小島"},"4211225":{"post_code":"4211225","prefecture":"SHIZUOKA KEN","city":"SHIZUOKA SHI AOI KU","town":"KOZETO","perfecture_jp":"静岡県","jp_add_1":"静岡市葵区","jp_add_2":"小瀬戸"},"4211316":{"post_code":"4211316","prefecture":"SHIZUOKA KEN","city":"SHIZUOKA SHI AOI KU","town":"KOBUSUGI","perfecture_jp":"静岡県","jp_add_1":"静岡市葵区","jp_add_2":"小布杉"},"4211405":{"post_code":"4211405","prefecture":"SHIZUOKA KEN","city":"SHIZUOKA SHI AOI KU","town":"SAKANOKAMI","perfecture_jp":"静岡県","jp_add_1":"静岡市葵区","jp_add_2":"坂ノ上"},"4211303":{"post_code":"4211303","prefecture":"SHIZUOKA KEN","city":"SHIZUOKA SHI AOI KU","town":"SAKAMOTO","perfecture_jp":"静岡県","jp_add_1":"静岡市葵区","jp_add_2":"坂本"},"4211211":{"post_code":"4211211","prefecture":"SHIZUOKA KEN","city":"SHIZUOKA SHI AOI KU","town":"SHIINO","perfecture_jp":"静岡県","jp_add_1":"静岡市葵区","jp_add_2":"慈悲尾"},"4212108":{"post_code":"4212108","prefecture":"SHIZUOKA KEN","city":"SHIZUOKA SHI AOI KU","town":"SHIMO","perfecture_jp":"静岡県","jp_add_1":"静岡市葵区","jp_add_2":"下"},"4211201":{"post_code":"4211201","prefecture":"SHIZUOKA KEN","city":"SHIZUOKA SHI AOI KU","town":"SHIMMA","perfecture_jp":"静岡県","jp_add_1":"静岡市葵区","jp_add_2":"新間"},"4211309":{"post_code":"4211309","prefecture":"SHIZUOKA KEN","city":"SHIZUOKA SHI AOI KU","town":"SUGIO","perfecture_jp":"静岡県","jp_add_1":"静岡市葵区","jp_add_2":"杉尾"},"4211212":{"post_code":"4211212","prefecture":"SHIZUOKA KEN","city":"SHIZUOKA SHI AOI KU","town":"SENDAI","perfecture_jp":"静岡県","jp_add_1":"静岡市葵区","jp_add_2":"千代"},"4211214":{"post_code":"4211214","prefecture":"SHIZUOKA KEN","city":"SHIZUOKA SHI AOI KU","town":"TAKYO","perfecture_jp":"静岡県","jp_add_1":"静岡市葵区","jp_add_2":"建穂"},"4212224":{"post_code":"4212224","prefecture":"SHIZUOKA KEN","city":"SHIZUOKA SHI AOI KU","town":"TAKUMI","perfecture_jp":"静岡県","jp_add_1":"静岡市葵区","jp_add_2":"内匠"},"4212103":{"post_code":"4212103","prefecture":"SHIZUOKA KEN","city":"SHIZUOKA SHI AOI KU","town":"TAWARAZAWA","perfecture_jp":"静岡県","jp_add_1":"静岡市葵区","jp_add_2":"俵沢"},"4212101":{"post_code":"4212101","prefecture":"SHIZUOKA KEN","city":"SHIZUOKA SHI AOI KU","town":"TAWARAMINE","perfecture_jp":"静岡県","jp_add_1":"静岡市葵区","jp_add_2":"俵峰"},"4212121":{"post_code":"4212121","prefecture":"SHIZUOKA KEN","city":"SHIZUOKA SHI AOI KU","town":"TSUDONO","perfecture_jp":"静岡県","jp_add_1":"静岡市葵区","jp_add_2":"津渡野"},"4211304":{"post_code":"4211304","prefecture":"SHIZUOKA KEN","city":"SHIZUOKA SHI AOI KU","town":"TERAJIMA","perfecture_jp":"静岡県","jp_add_1":"静岡市葵区","jp_add_2":"寺島"},"4212304":{"post_code":"4212304","prefecture":"SHIZUOKA KEN","city":"SHIZUOKA SHI AOI KU","town":"DO","perfecture_jp":"静岡県","jp_add_1":"静岡市葵区","jp_add_2":"渡"},"4211404":{"post_code":"4211404","prefecture":"SHIZUOKA KEN","city":"SHIZUOKA SHI AOI KU","town":"TOCHIZAWA","perfecture_jp":"静岡県","jp_add_1":"静岡市葵区","jp_add_2":"栃沢"},"4211311":{"post_code":"4211311","prefecture":"SHIZUOKA KEN","city":"SHIZUOKA SHI AOI KU","town":"TONZAWA","perfecture_jp":"静岡県","jp_add_1":"静岡市葵区","jp_add_2":"富沢"},"4212216":{"post_code":"4212216","prefecture":"SHIZUOKA KEN","city":"SHIZUOKA SHI AOI KU","town":"NAGAKUMA","perfecture_jp":"静岡県","jp_add_1":"静岡市葵区","jp_add_2":"長熊"},"4212221":{"post_code":"4212221","prefecture":"SHIZUOKA KEN","city":"SHIZUOKA SHI AOI KU","town":"NAKAZAWA","perfecture_jp":"静岡県","jp_add_1":"静岡市葵区","jp_add_2":"中沢"},"4212213":{"post_code":"4212213","prefecture":"SHIZUOKA KEN","city":"SHIZUOKA SHI AOI KU","town":"NAGATSUMATA","perfecture_jp":"静岡県","jp_add_1":"静岡市葵区","jp_add_2":"長妻田"},"4212111":{"post_code":"4212111","prefecture":"SHIZUOKA KEN","city":"SHIZUOKA SHI AOI KU","town":"NAKANOGO","perfecture_jp":"静岡県","jp_add_1":"静岡市葵区","jp_add_2":"中ノ郷"},"4212305":{"post_code":"4212305","prefecture":"SHIZUOKA KEN","city":"SHIZUOKA SHI AOI KU","town":"NAKAHIRA","perfecture_jp":"静岡県","jp_add_1":"静岡市葵区","jp_add_2":"中平"},"4211407":{"post_code":"4211407","prefecture":"SHIZUOKA KEN","city":"SHIZUOKA SHI AOI KU","town":"NARAO","perfecture_jp":"静岡県","jp_add_1":"静岡市葵区","jp_add_2":"楢尾"},"4211312":{"post_code":"4211312","prefecture":"SHIZUOKA KEN","city":"SHIZUOKA SHI AOI KU","town":"NARAMA","perfecture_jp":"静岡県","jp_add_1":"静岡市葵区","jp_add_2":"奈良間"},"4212116":{"post_code":"4212116","prefecture":"SHIZUOKA KEN","city":"SHIZUOKA SHI AOI KU","town":"NISHIGAYA","perfecture_jp":"静岡県","jp_add_1":"静岡市葵区","jp_add_2":"西ケ谷"},"4211226":{"post_code":"4211226","prefecture":"SHIZUOKA KEN","city":"SHIZUOKA SHI AOI KU","town":"NISHIMATA","perfecture_jp":"静岡県","jp_add_1":"静岡市葵区","jp_add_2":"西又"},"4212302":{"post_code":"4212302","prefecture":"SHIZUOKA KEN","city":"SHIZUOKA SHI AOI KU","town":"NYUJIMA","perfecture_jp":"静岡県","jp_add_1":"静岡市葵区","jp_add_2":"入島"},"4212104":{"post_code":"4212104","prefecture":"SHIZUOKA KEN","city":"SHIZUOKA SHI AOI KU","town":"NOTAHIRA","perfecture_jp":"静岡県","jp_add_1":"静岡市葵区","jp_add_2":"野田平"},"4211215":{"post_code":"4211215","prefecture":"SHIZUOKA KEN","city":"SHIZUOKA SHI AOI KU","town":"HATORI","perfecture_jp":"静岡県","jp_add_1":"静岡市葵区","jp_add_2":"羽鳥"},"4211216":{"post_code":"4211216","prefecture":"SHIZUOKA KEN","city":"SHIZUOKA SHI AOI KU","town":"HATORIDAIMONCHO","perfecture_jp":"静岡県","jp_add_1":"静岡市葵区","jp_add_2":"羽鳥大門町"},"4211217":{"post_code":"4211217","prefecture":"SHIZUOKA KEN","city":"SHIZUOKA SHI AOI KU","town":"HATORIHONCHO","perfecture_jp":"静岡県","jp_add_1":"静岡市葵区","jp_add_2":"羽鳥本町"},"4211224":{"post_code":"4211224","prefecture":"SHIZUOKA KEN","city":"SHIZUOKA SHI AOI KU","town":"HAMMA","perfecture_jp":"静岡県","jp_add_1":"静岡市葵区","jp_add_2":"飯間"},"4211403":{"post_code":"4211403","prefecture":"SHIZUOKA KEN","city":"SHIZUOKA SHI AOI KU","town":"HINATA","perfecture_jp":"静岡県","jp_add_1":"静岡市葵区","jp_add_2":"日向"},"4212306":{"post_code":"4212306","prefecture":"SHIZUOKA KEN","city":"SHIZUOKA SHI AOI KU","town":"HIRANO","perfecture_jp":"静岡県","jp_add_1":"静岡市葵区","jp_add_2":"平野"},"4211306":{"post_code":"4211306","prefecture":"SHIZUOKA KEN","city":"SHIZUOKA SHI AOI KU","town":"HIRUIDO","perfecture_jp":"静岡県","jp_add_1":"静岡市葵区","jp_add_2":"昼居渡"},"4212109":{"post_code":"4212109","prefecture":"SHIZUOKA KEN","city":"SHIZUOKA SHI AOI KU","town":"FUKUDAGAYA","perfecture_jp":"静岡県","jp_add_1":"静岡市葵区","jp_add_2":"福田ケ谷"},"4211315":{"post_code":"4211315","prefecture":"SHIZUOKA KEN","city":"SHIZUOKA SHI AOI KU","town":"FUKORI","perfecture_jp":"静岡県","jp_add_1":"静岡市葵区","jp_add_2":"富厚里"},"4211221":{"post_code":"4211221","prefecture":"SHIZUOKA KEN","city":"SHIZUOKA SHI AOI KU","town":"MAKIGAYA","perfecture_jp":"静岡県","jp_add_1":"静岡市葵区","jp_add_2":"牧ケ谷"},"4212122":{"post_code":"4212122","prefecture":"SHIZUOKA KEN","city":"SHIZUOKA SHI AOI KU","town":"MATSUNO","perfecture_jp":"静岡県","jp_add_1":"静岡市葵区","jp_add_2":"松野"},"4211313":{"post_code":"4211313","prefecture":"SHIZUOKA KEN","city":"SHIZUOKA SHI AOI KU","town":"MIZUMIIRO","perfecture_jp":"静岡県","jp_add_1":"静岡市葵区","jp_add_2":"水見色"},"4212217":{"post_code":"4212217","prefecture":"SHIZUOKA KEN","city":"SHIZUOKA SHI AOI KU","town":"MORIKOSHI","perfecture_jp":"静岡県","jp_add_1":"静岡市葵区","jp_add_2":"森腰"},"4211402":{"post_code":"4211402","prefecture":"SHIZUOKA KEN","city":"SHIZUOKA SHI AOI KU","town":"MOROKOZAWA","perfecture_jp":"静岡県","jp_add_1":"静岡市葵区","jp_add_2":"諸子沢"},"4211409":{"post_code":"4211409","prefecture":"SHIZUOKA KEN","city":"SHIZUOKA SHI AOI KU","town":"YAKUSA","perfecture_jp":"静岡県","jp_add_1":"静岡市葵区","jp_add_2":"八草"},"4211202":{"post_code":"4211202","prefecture":"SHIZUOKA KEN","city":"SHIZUOKA SHI AOI KU","town":"YATSU","perfecture_jp":"静岡県","jp_add_1":"静岡市葵区","jp_add_2":"谷津"},"4211213":{"post_code":"4211213","prefecture":"SHIZUOKA KEN","city":"SHIZUOKA SHI AOI KU","town":"YAMAZAKI","perfecture_jp":"静岡県","jp_add_1":"静岡市葵区","jp_add_2":"山崎"},"4212102":{"post_code":"4212102","prefecture":"SHIZUOKA KEN","city":"SHIZUOKA SHI AOI KU","town":"YUJIMA","perfecture_jp":"静岡県","jp_add_1":"静岡市葵区","jp_add_2":"油島"},"4212212":{"post_code":"4212212","prefecture":"SHIZUOKA KEN","city":"SHIZUOKA SHI AOI KU","town":"YUNO","perfecture_jp":"静岡県","jp_add_1":"静岡市葵区","jp_add_2":"油野"},"4211406":{"post_code":"4211406","prefecture":"SHIZUOKA KEN","city":"SHIZUOKA SHI AOI KU","town":"YUNOSHIMA","perfecture_jp":"静岡県","jp_add_1":"静岡市葵区","jp_add_2":"湯ノ島"},"4212123":{"post_code":"4212123","prefecture":"SHIZUOKA KEN","city":"SHIZUOKA SHI AOI KU","town":"YUYAMA","perfecture_jp":"静岡県","jp_add_1":"静岡市葵区","jp_add_2":"油山"},"4212226":{"post_code":"4212226","prefecture":"SHIZUOKA KEN","city":"SHIZUOKA SHI AOI KU","town":"YOKOSAWA","perfecture_jp":"静岡県","jp_add_1":"静岡市葵区","jp_add_2":"横沢"},"4212307":{"post_code":"4212307","prefecture":"SHIZUOKA KEN","city":"SHIZUOKA SHI AOI KU","town":"YOKOYAMA","perfecture_jp":"静岡県","jp_add_1":"静岡市葵区","jp_add_2":"横山"},"4212115":{"post_code":"4212115","prefecture":"SHIZUOKA KEN","city":"SHIZUOKA SHI AOI KU","town":"YOZAEMONSHINDEN","perfecture_jp":"静岡県","jp_add_1":"静岡市葵区","jp_add_2":"与左衛門新田"},"4211223":{"post_code":"4211223","prefecture":"SHIZUOKA KEN","city":"SHIZUOKA SHI AOI KU","town":"YOSHIZU","perfecture_jp":"静岡県","jp_add_1":"静岡市葵区","jp_add_2":"吉津"},"4212308":{"post_code":"4212308","prefecture":"SHIZUOKA KEN","city":"SHIZUOKA SHI AOI KU","town":"WARABINO","perfecture_jp":"静岡県","jp_add_1":"静岡市葵区","jp_add_2":"蕨野"},"4210134":{"post_code":"4210134","prefecture":"SHIZUOKA KEN","city":"SHIZUOKA SHI SURUGA KU","town":"AOKI","perfecture_jp":"静岡県","jp_add_1":"静岡市駿河区","jp_add_2":"青木"},"4210105":{"post_code":"4210105","prefecture":"SHIZUOKA KEN","city":"SHIZUOKA SHI SURUGA KU","town":"UTSUNOYA","perfecture_jp":"静岡県","jp_add_1":"静岡市駿河区","jp_add_2":"宇津ノ谷"},"4210136":{"post_code":"4210136","prefecture":"SHIZUOKA KEN","city":"SHIZUOKA SHI SURUGA KU","town":"OWADA","perfecture_jp":"静岡県","jp_add_1":"静岡市駿河区","jp_add_2":"大和田"},"4210135":{"post_code":"4210135","prefecture":"SHIZUOKA KEN","city":"SHIZUOKA SHI SURUGA KU","town":"OSAKA","perfecture_jp":"静岡県","jp_add_1":"静岡市駿河区","jp_add_2":"小坂"},"4210133":{"post_code":"4210133","prefecture":"SHIZUOKA KEN","city":"SHIZUOKA SHI SURUGA KU","town":"KAMATA","perfecture_jp":"静岡県","jp_add_1":"静岡市駿河区","jp_add_2":"鎌田"},"4210132":{"post_code":"4210132","prefecture":"SHIZUOKA KEN","city":"SHIZUOKA SHI SURUGA KU","town":"KAMIKAWAHARA","perfecture_jp":"静岡県","jp_add_1":"静岡市駿河区","jp_add_2":"上川原"},"4210106":{"post_code":"4210106","prefecture":"SHIZUOKA KEN","city":"SHIZUOKA SHI SURUGA KU","town":"KITAMARIKO","perfecture_jp":"静岡県","jp_add_1":"静岡市駿河区","jp_add_2":"北丸子"},"4210116":{"post_code":"4210116","prefecture":"SHIZUOKA KEN","city":"SHIZUOKA SHI SURUGA KU","town":"KOYOCHO","perfecture_jp":"静岡県","jp_add_1":"静岡市駿河区","jp_add_2":"光陽町"},"4210113":{"post_code":"4210113","prefecture":"SHIZUOKA KEN","city":"SHIZUOKA SHI SURUGA KU","town":"SHIMOKAWAHARA","perfecture_jp":"静岡県","jp_add_1":"静岡市駿河区","jp_add_2":"下川原"},"4210117":{"post_code":"4210117","prefecture":"SHIZUOKA KEN","city":"SHIZUOKA SHI SURUGA KU","town":"SHIMOKAWAHARAMINAMI","perfecture_jp":"静岡県","jp_add_1":"静岡市駿河区","jp_add_2":"下川原南"},"4210123":{"post_code":"4210123","prefecture":"SHIZUOKA KEN","city":"SHIZUOKA SHI SURUGA KU","town":"SEKIBE","perfecture_jp":"静岡県","jp_add_1":"静岡市駿河区","jp_add_2":"石部"},"4210102":{"post_code":"4210102","prefecture":"SHIZUOKA KEN","city":"SHIZUOKA SHI SURUGA KU","town":"TEGOSHI","perfecture_jp":"静岡県","jp_add_1":"静岡市駿河区","jp_add_2":"手越"},"4210131":{"post_code":"4210131","prefecture":"SHIZUOKA KEN","city":"SHIZUOKA SHI SURUGA KU","town":"TEGOSHIHARA","perfecture_jp":"静岡県","jp_add_1":"静岡市駿河区","jp_add_2":"手越原"},"4210137":{"post_code":"4210137","prefecture":"SHIZUOKA KEN","city":"SHIZUOKA SHI SURUGA KU","town":"TERADA","perfecture_jp":"静岡県","jp_add_1":"静岡市駿河区","jp_add_2":"寺田"},"4210112":{"post_code":"4210112","prefecture":"SHIZUOKA KEN","city":"SHIZUOKA SHI SURUGA KU","town":"TOSHINDEN","perfecture_jp":"静岡県","jp_add_1":"静岡市駿河区","jp_add_2":"東新田"},"4210121":{"post_code":"4210121","prefecture":"SHIZUOKA KEN","city":"SHIZUOKA SHI SURUGA KU","town":"HIRONO","perfecture_jp":"静岡県","jp_add_1":"静岡市駿河区","jp_add_2":"広野"},"4210103":{"post_code":"4210103","prefecture":"SHIZUOKA KEN","city":"SHIZUOKA SHI SURUGA KU","town":"MARIKO","perfecture_jp":"静岡県","jp_add_1":"静岡市駿河区","jp_add_2":"丸子"},"4210111":{"post_code":"4210111","prefecture":"SHIZUOKA KEN","city":"SHIZUOKA SHI SURUGA KU","town":"MARIKOSHINDEN","perfecture_jp":"静岡県","jp_add_1":"静岡市駿河区","jp_add_2":"丸子新田"},"4210104":{"post_code":"4210104","prefecture":"SHIZUOKA KEN","city":"SHIZUOKA SHI SURUGA KU","town":"MARIKOSERIGAYACHO","perfecture_jp":"静岡県","jp_add_1":"静岡市駿河区","jp_add_2":"丸子芹が谷町"},"4210115":{"post_code":"4210115","prefecture":"SHIZUOKA KEN","city":"SHIZUOKA SHI SURUGA KU","town":"MIZUHO","perfecture_jp":"静岡県","jp_add_1":"静岡市駿河区","jp_add_2":"みずほ"},"4210101":{"post_code":"4210101","prefecture":"SHIZUOKA KEN","city":"SHIZUOKA SHI SURUGA KU","town":"MUKOSHIKIJI","perfecture_jp":"静岡県","jp_add_1":"静岡市駿河区","jp_add_2":"向敷地"},"4210122":{"post_code":"4210122","prefecture":"SHIZUOKA KEN","city":"SHIZUOKA SHI SURUGA KU","town":"MOCHIMUNE","perfecture_jp":"静岡県","jp_add_1":"静岡市駿河区","jp_add_2":"用宗"},"4210125":{"post_code":"4210125","prefecture":"SHIZUOKA KEN","city":"SHIZUOKA SHI SURUGA KU","town":"MOCHIMUNE KOISHICHO","perfecture_jp":"静岡県","jp_add_1":"静岡市駿河区","jp_add_2":"用宗小石町"},"4210124":{"post_code":"4210124","prefecture":"SHIZUOKA KEN","city":"SHIZUOKA SHI SURUGA KU","town":"MOCHIMUNE SHIROYAMACHO","perfecture_jp":"静岡県","jp_add_1":"静岡市駿河区","jp_add_2":"用宗城山町"},"4210126":{"post_code":"4210126","prefecture":"SHIZUOKA KEN","city":"SHIZUOKA SHI SURUGA KU","town":"MOCHIMUNE TOMOECHO","perfecture_jp":"静岡県","jp_add_1":"静岡市駿河区","jp_add_2":"用宗巴町"},"4210114":{"post_code":"4210114","prefecture":"SHIZUOKA KEN","city":"SHIZUOKA SHI SURUGA KU","town":"MOMOZONOCHO","perfecture_jp":"静岡県","jp_add_1":"静岡市駿河区","jp_add_2":"桃園町"},"4213203":{"post_code":"4213203","prefecture":"SHIZUOKA KEN","city":"SHIZUOKA SHI SHIMIZU KU","town":"KAMBARA","perfecture_jp":"静岡県","jp_add_1":"静岡市清水区","jp_add_2":"蒲原"},"4213215":{"post_code":"4213215","prefecture":"SHIZUOKA KEN","city":"SHIZUOKA SHI SHIMIZU KU","town":"KAMBARA KANZAWA","perfecture_jp":"静岡県","jp_add_1":"静岡市清水区","jp_add_2":"蒲原神沢"},"4213212":{"post_code":"4213212","prefecture":"SHIZUOKA KEN","city":"SHIZUOKA SHI SHIMIZU KU","town":"KAMBARA KOGANE","perfecture_jp":"静岡県","jp_add_1":"静岡市清水区","jp_add_2":"蒲原小金"},"4213202":{"post_code":"4213202","prefecture":"SHIZUOKA KEN","city":"SHIZUOKA SHI SHIMIZU KU","town":"KAMBARA SHINEI","perfecture_jp":"静岡県","jp_add_1":"静岡市清水区","jp_add_2":"蒲原新栄"},"4213211":{"post_code":"4213211","prefecture":"SHIZUOKA KEN","city":"SHIZUOKA SHI SHIMIZU KU","town":"KAMBARA SHINDEN","perfecture_jp":"静岡県","jp_add_1":"静岡市清水区","jp_add_2":"蒲原新田"},"4213214":{"post_code":"4213214","prefecture":"SHIZUOKA KEN","city":"SHIZUOKA SHI SHIMIZU KU","town":"KAMBARA SEGIZAWA","perfecture_jp":"静岡県","jp_add_1":"静岡市清水区","jp_add_2":"蒲原堰沢"},"4213213":{"post_code":"4213213","prefecture":"SHIZUOKA KEN","city":"SHIZUOKA SHI SHIMIZU KU","town":"KAMBARA NAKA","perfecture_jp":"静岡県","jp_add_1":"静岡市清水区","jp_add_2":"蒲原中"},"4213201":{"post_code":"4213201","prefecture":"SHIZUOKA KEN","city":"SHIZUOKA SHI SHIMIZU KU","town":"KAMBARA HIGASHI","perfecture_jp":"静岡県","jp_add_1":"静岡市清水区","jp_add_2":"蒲原東"},"4213103":{"post_code":"4213103","prefecture":"SHIZUOKA KEN","city":"SHIZUOKA SHI SHIMIZU KU","town":"YUI","perfecture_jp":"静岡県","jp_add_1":"静岡市清水区","jp_add_2":"由比"},"4213107":{"post_code":"4213107","prefecture":"SHIZUOKA KEN","city":"SHIZUOKA SHI SHIMIZU KU","town":"YUI ASO","perfecture_jp":"静岡県","jp_add_1":"静岡市清水区","jp_add_2":"由比阿僧"},"4213111":{"post_code":"4213111","prefecture":"SHIZUOKA KEN","city":"SHIZUOKA SHI SHIMIZU KU","town":"YUI IMAJUKU","perfecture_jp":"静岡県","jp_add_1":"静岡市清水区","jp_add_2":"由比今宿"},"4213101":{"post_code":"4213101","prefecture":"SHIZUOKA KEN","city":"SHIZUOKA SHI SHIMIZU KU","town":"YUI IRIYAMA","perfecture_jp":"静岡県","jp_add_1":"静岡市清水区","jp_add_2":"由比入山"},"4213104":{"post_code":"4213104","prefecture":"SHIZUOKA KEN","city":"SHIZUOKA SHI SHIMIZU KU","town":"YUI KITADA","perfecture_jp":"静岡県","jp_add_1":"静岡市清水区","jp_add_2":"由比北田"},"4213112":{"post_code":"4213112","prefecture":"SHIZUOKA KEN","city":"SHIZUOKA SHI SHIMIZU KU","town":"YUI TERAO","perfecture_jp":"静岡県","jp_add_1":"静岡市清水区","jp_add_2":"由比寺尾"},"4213115":{"post_code":"4213115","prefecture":"SHIZUOKA KEN","city":"SHIZUOKA SHI SHIMIZU KU","town":"YUI NISHIKURASAWA","perfecture_jp":"静岡県","jp_add_1":"静岡市清水区","jp_add_2":"由比西倉澤"},"4213106":{"post_code":"4213106","prefecture":"SHIZUOKA KEN","city":"SHIZUOKA SHI SHIMIZU KU","town":"YUI NISHIYAMADERA","perfecture_jp":"静岡県","jp_add_1":"静岡市清水区","jp_add_2":"由比西山寺"},"4213114":{"post_code":"4213114","prefecture":"SHIZUOKA KEN","city":"SHIZUOKA SHI SHIMIZU KU","town":"YUI HIGASHIKURASAWA","perfecture_jp":"静岡県","jp_add_1":"静岡市清水区","jp_add_2":"由比東倉澤"},"4213102":{"post_code":"4213102","prefecture":"SHIZUOKA KEN","city":"SHIZUOKA SHI SHIMIZU KU","town":"YUI HIGASHIYAMADERA","perfecture_jp":"静岡県","jp_add_1":"静岡市清水区","jp_add_2":"由比東山寺"},"4213105":{"post_code":"4213105","prefecture":"SHIZUOKA KEN","city":"SHIZUOKA SHI SHIMIZU KU","town":"YUI MACHIYAHARA","perfecture_jp":"静岡県","jp_add_1":"静岡市清水区","jp_add_2":"由比町屋原"},"4213305":{"post_code":"4213305","prefecture":"SHIZUOKA KEN","city":"FUJI SHI","town":"IWABUCHI","perfecture_jp":"静岡県","jp_add_1":"富士市","jp_add_2":"岩淵"},"4213304":{"post_code":"4213304","prefecture":"SHIZUOKA KEN","city":"FUJI SHI","town":"KIJIMA","perfecture_jp":"静岡県","jp_add_1":"富士市","jp_add_2":"木島"},"4213301":{"post_code":"4213301","prefecture":"SHIZUOKA KEN","city":"FUJI SHI","town":"KITAMATSUNO","perfecture_jp":"静岡県","jp_add_1":"富士市","jp_add_2":"北松野"},"4213306":{"post_code":"4213306","prefecture":"SHIZUOKA KEN","city":"FUJI SHI","town":"NAKANOGO","perfecture_jp":"静岡県","jp_add_1":"富士市","jp_add_2":"中之郷"},"4213302":{"post_code":"4213302","prefecture":"SHIZUOKA KEN","city":"FUJI SHI","town":"NAKANODAI","perfecture_jp":"静岡県","jp_add_1":"富士市","jp_add_2":"中野台"},"4213303":{"post_code":"4213303","prefecture":"SHIZUOKA KEN","city":"FUJI SHI","town":"MINAMIMATSUNO","perfecture_jp":"静岡県","jp_add_1":"富士市","jp_add_2":"南松野"},"4210216":{"post_code":"4210216","prefecture":"SHIZUOKA KEN","city":"YAIZU SHI","town":"AIKAWA","perfecture_jp":"静岡県","jp_add_1":"焼津市","jp_add_2":"相川"},"4210217":{"post_code":"4210217","prefecture":"SHIZUOKA KEN","city":"YAIZU SHI","town":"KAMIIZUMI","perfecture_jp":"静岡県","jp_add_1":"焼津市","jp_add_2":"上泉"},"4210201":{"post_code":"4210201","prefecture":"SHIZUOKA KEN","city":"YAIZU SHI","town":"KAMIKOSUGI","perfecture_jp":"静岡県","jp_add_1":"焼津市","jp_add_2":"上小杉"},"4210206":{"post_code":"4210206","prefecture":"SHIZUOKA KEN","city":"YAIZU SHI","town":"KAMISHINDEN","perfecture_jp":"静岡県","jp_add_1":"焼津市","jp_add_2":"上新田"},"4210218":{"post_code":"4210218","prefecture":"SHIZUOKA KEN","city":"YAIZU SHI","town":"SHIMOEDOME","perfecture_jp":"静岡県","jp_add_1":"焼津市","jp_add_2":"下江留"},"4210202":{"post_code":"4210202","prefecture":"SHIZUOKA KEN","city":"YAIZU SHI","town":"SHIMOKOSUGI","perfecture_jp":"静岡県","jp_add_1":"焼津市","jp_add_2":"下小杉"},"4210204":{"post_code":"4210204","prefecture":"SHIZUOKA KEN","city":"YAIZU SHI","town":"TAKASHINDEN","perfecture_jp":"静岡県","jp_add_1":"焼津市","jp_add_2":"高新田"},"4210214":{"post_code":"4210214","prefecture":"SHIZUOKA KEN","city":"YAIZU SHI","town":"NAKAJIMA","perfecture_jp":"静岡県","jp_add_1":"焼津市","jp_add_2":"中島"},"4210215":{"post_code":"4210215","prefecture":"SHIZUOKA KEN","city":"YAIZU SHI","town":"NISHIJIMA","perfecture_jp":"静岡県","jp_add_1":"焼津市","jp_add_2":"西島"},"4210213":{"post_code":"4210213","prefecture":"SHIZUOKA KEN","city":"YAIZU SHI","town":"HABUCHI","perfecture_jp":"静岡県","jp_add_1":"焼津市","jp_add_2":"飯淵"},"4210203":{"post_code":"4210203","prefecture":"SHIZUOKA KEN","city":"YAIZU SHI","town":"FUJIMORI","perfecture_jp":"静岡県","jp_add_1":"焼津市","jp_add_2":"藤守"},"4210205":{"post_code":"4210205","prefecture":"SHIZUOKA KEN","city":"YAIZU SHI","town":"MUNADAKA","perfecture_jp":"静岡県","jp_add_1":"焼津市","jp_add_2":"宗高"},"4210211":{"post_code":"4210211","prefecture":"SHIZUOKA KEN","city":"YAIZU SHI","town":"YOSHINAGA","perfecture_jp":"静岡県","jp_add_1":"焼津市","jp_add_2":"吉永"},"4210212":{"post_code":"4210212","prefecture":"SHIZUOKA KEN","city":"YAIZU SHI","town":"RIEMON","perfecture_jp":"静岡県","jp_add_1":"焼津市","jp_add_2":"利右衛門"},"4211103":{"post_code":"4211103","prefecture":"SHIZUOKA KEN","city":"FUJIEDA SHI","town":"OKABECHO AOHANE","perfecture_jp":"静岡県","jp_add_1":"藤枝市","jp_add_2":"岡部町青羽根"},"4211123":{"post_code":"4211123","prefecture":"SHIZUOKA KEN","city":"FUJIEDA SHI","town":"OKABECHO IRINO","perfecture_jp":"静岡県","jp_add_1":"藤枝市","jp_add_2":"岡部町入野"},"4211131":{"post_code":"4211131","prefecture":"SHIZUOKA KEN","city":"FUJIEDA SHI","town":"OKABECHO UTSUTANI","perfecture_jp":"静岡県","jp_add_1":"藤枝市","jp_add_2":"岡部町内谷"},"4211121":{"post_code":"4211121","prefecture":"SHIZUOKA KEN","city":"FUJIEDA SHI","town":"OKABECHO OKABE","perfecture_jp":"静岡県","jp_add_1":"藤枝市","jp_add_2":"岡部町岡部"},"4211113":{"post_code":"4211113","prefecture":"SHIZUOKA KEN","city":"FUJIEDA SHI","town":"OKABECHO KATSURASHIMA","perfecture_jp":"静岡県","jp_add_1":"藤枝市","jp_add_2":"岡部町桂島"},"4211122":{"post_code":"4211122","prefecture":"SHIZUOKA KEN","city":"FUJIEDA SHI","town":"OKABECHO KOMOCHIZAKA","perfecture_jp":"静岡県","jp_add_1":"藤枝市","jp_add_2":"岡部町子持坂"},"4211101":{"post_code":"4211101","prefecture":"SHIZUOKA KEN","city":"FUJIEDA SHI","town":"OKABECHO TAMATORI","perfecture_jp":"静岡県","jp_add_1":"藤枝市","jp_add_2":"岡部町玉取"},"4211112":{"post_code":"4211112","prefecture":"SHIZUOKA KEN","city":"FUJIEDA SHI","town":"OKABECHO TONO","perfecture_jp":"静岡県","jp_add_1":"藤枝市","jp_add_2":"岡部町殿"},"4211115":{"post_code":"4211115","prefecture":"SHIZUOKA KEN","city":"FUJIEDA SHI","town":"OKABECHO NYUFUNE","perfecture_jp":"静岡県","jp_add_1":"藤枝市","jp_add_2":"岡部町新舟"},"4211111":{"post_code":"4211111","prefecture":"SHIZUOKA KEN","city":"FUJIEDA SHI","town":"OKABECHO NOTAZAWA","perfecture_jp":"静岡県","jp_add_1":"藤枝市","jp_add_2":"岡部町野田沢"},"4211114":{"post_code":"4211114","prefecture":"SHIZUOKA KEN","city":"FUJIEDA SHI","town":"OKABECHO HASAMA","perfecture_jp":"静岡県","jp_add_1":"藤枝市","jp_add_2":"岡部町羽佐間"},"4211102":{"post_code":"4211102","prefecture":"SHIZUOKA KEN","city":"FUJIEDA SHI","town":"OKABECHO MIYAJIMA","perfecture_jp":"静岡県","jp_add_1":"藤枝市","jp_add_2":"岡部町宮島"},"4211132":{"post_code":"4211132","prefecture":"SHIZUOKA KEN","city":"FUJIEDA SHI","town":"OKABECHO MIWA","perfecture_jp":"静岡県","jp_add_1":"藤枝市","jp_add_2":"岡部町三輪"},"4211124":{"post_code":"4211124","prefecture":"SHIZUOKA KEN","city":"FUJIEDA SHI","town":"OKABECHO MURARA","perfecture_jp":"静岡県","jp_add_1":"藤枝市","jp_add_2":"岡部町村良"},"4210500":{"post_code":"4210500","prefecture":"SHIZUOKA KEN","city":"MAKINOHARA SHI","town":"IKANIKEISAIGANAIBAAI","perfecture_jp":"静岡県","jp_add_1":"牧之原市","jp_add_2":""},"4210512":{"post_code":"4210512","prefecture":"SHIZUOKA KEN","city":"MAKINOHARA SHI","town":"OE","perfecture_jp":"静岡県","jp_add_1":"牧之原市","jp_add_2":"大江"},"4210526":{"post_code":"4210526","prefecture":"SHIZUOKA KEN","city":"MAKINOHARA SHI","town":"OSAWA","perfecture_jp":"静岡県","jp_add_1":"牧之原市","jp_add_2":"大沢"},"4210506":{"post_code":"4210506","prefecture":"SHIZUOKA KEN","city":"MAKINOHARA SHI","town":"OYORI","perfecture_jp":"静岡県","jp_add_1":"牧之原市","jp_add_2":"大寄"},"4210517":{"post_code":"4210517","prefecture":"SHIZUOKA KEN","city":"MAKINOHARA SHI","town":"OKAMI","perfecture_jp":"静岡県","jp_add_1":"牧之原市","jp_add_2":"男神"},"4210531":{"post_code":"4210531","prefecture":"SHIZUOKA KEN","city":"MAKINOHARA SHI","town":"OCHII","perfecture_jp":"静岡県","jp_add_1":"牧之原市","jp_add_2":"落居"},"4210535":{"post_code":"4210535","prefecture":"SHIZUOKA KEN","city":"MAKINOHARA SHI","town":"KASANA","perfecture_jp":"静岡県","jp_add_1":"牧之原市","jp_add_2":"笠名"},"4210511":{"post_code":"4210511","prefecture":"SHIZUOKA KEN","city":"MAKINOHARA SHI","town":"KATAHAMA","perfecture_jp":"静岡県","jp_add_1":"牧之原市","jp_add_2":"片浜"},"4210406":{"post_code":"4210406","prefecture":"SHIZUOKA KEN","city":"MAKINOHARA SHI","town":"KATSUTA","perfecture_jp":"静岡県","jp_add_1":"牧之原市","jp_add_2":"勝田"},"4210402":{"post_code":"4210402","prefecture":"SHIZUOKA KEN","city":"MAKINOHARA SHI","town":"KATSUMA","perfecture_jp":"静岡県","jp_add_1":"牧之原市","jp_add_2":"勝間"},"4210414":{"post_code":"4210414","prefecture":"SHIZUOKA KEN","city":"MAKINOHARA SHI","town":"KATSUMATA","perfecture_jp":"静岡県","jp_add_1":"牧之原市","jp_add_2":"勝俣"},"4210525":{"post_code":"4210525","prefecture":"SHIZUOKA KEN","city":"MAKINOHARA SHI","town":"KIJOSHINDEN","perfecture_jp":"静岡県","jp_add_1":"牧之原市","jp_add_2":"鬼女新田"},"4210401":{"post_code":"4210401","prefecture":"SHIZUOKA KEN","city":"MAKINOHARA SHI","town":"KIRIYAMA","perfecture_jp":"静岡県","jp_add_1":"牧之原市","jp_add_2":"切山"},"4210504":{"post_code":"4210504","prefecture":"SHIZUOKA KEN","city":"MAKINOHARA SHI","town":"KUROKO","perfecture_jp":"静岡県","jp_add_1":"牧之原市","jp_add_2":"黒子"},"4210515":{"post_code":"4210515","prefecture":"SHIZUOKA KEN","city":"MAKINOHARA SHI","town":"SAISANJI","perfecture_jp":"静岡県","jp_add_1":"牧之原市","jp_add_2":"西山寺"},"4210411":{"post_code":"4210411","prefecture":"SHIZUOKA KEN","city":"MAKINOHARA SHI","town":"SAKAGUCHI","perfecture_jp":"静岡県","jp_add_1":"牧之原市","jp_add_2":"坂口"},"4210412":{"post_code":"4210412","prefecture":"SHIZUOKA KEN","city":"MAKINOHARA SHI","town":"SAKABE","perfecture_jp":"静岡県","jp_add_1":"牧之原市","jp_add_2":"坂部"},"4210522":{"post_code":"4210522","prefecture":"SHIZUOKA KEN","city":"MAKINOHARA SHI","town":"SAGARA","perfecture_jp":"静岡県","jp_add_1":"牧之原市","jp_add_2":"相良"},"4210527":{"post_code":"4210527","prefecture":"SHIZUOKA KEN","city":"MAKINOHARA SHI","town":"SHIOMIDAI","perfecture_jp":"静岡県","jp_add_1":"牧之原市","jp_add_2":"汐見台"},"4210404":{"post_code":"4210404","prefecture":"SHIZUOKA KEN","city":"MAKINOHARA SHI","town":"SHIZUTANI","perfecture_jp":"静岡県","jp_add_1":"牧之原市","jp_add_2":"静谷"},"4210422":{"post_code":"4210422","prefecture":"SHIZUOKA KEN","city":"MAKINOHARA SHI","town":"SHIZUNAMI","perfecture_jp":"静岡県","jp_add_1":"牧之原市","jp_add_2":"静波"},"4210532":{"post_code":"4210532","prefecture":"SHIZUOKA KEN","city":"MAKINOHARA SHI","town":"JITOGATA","perfecture_jp":"静岡県","jp_add_1":"牧之原市","jp_add_2":"地頭方"},"4210408":{"post_code":"4210408","prefecture":"SHIZUOKA KEN","city":"MAKINOHARA SHI","town":"SHIMA","perfecture_jp":"静岡県","jp_add_1":"牧之原市","jp_add_2":"嶋"},"4210405":{"post_code":"4210405","prefecture":"SHIZUOKA KEN","city":"MAKINOHARA SHI","town":"SHIRAI(1291-1682.1839-1840-BANCHI)","perfecture_jp":"静岡県","jp_add_1":"牧之原市","jp_add_2":"白井"},"4210502":{"post_code":"4210502","prefecture":"SHIZUOKA KEN","city":"MAKINOHARA SHI","town":"SHIRAI(SONOTA)","perfecture_jp":"静岡県","jp_add_1":"牧之原市","jp_add_2":"白井"},"4210533":{"post_code":"4210533","prefecture":"SHIZUOKA KEN","city":"MAKINOHARA SHI","town":"SHINSHO","perfecture_jp":"静岡県","jp_add_1":"牧之原市","jp_add_2":"新庄"},"4210514":{"post_code":"4210514","prefecture":"SHIZUOKA KEN","city":"MAKINOHARA SHI","town":"SUGEGAYA","perfecture_jp":"静岡県","jp_add_1":"牧之原市","jp_add_2":"菅ケ谷"},"4210524":{"post_code":"4210524","prefecture":"SHIZUOKA KEN","city":"MAKINOHARA SHI","town":"SUSUKI","perfecture_jp":"静岡県","jp_add_1":"牧之原市","jp_add_2":"須々木"},"4210415":{"post_code":"4210415","prefecture":"SHIZUOKA KEN","city":"MAKINOHARA SHI","town":"DOJO","perfecture_jp":"静岡県","jp_add_1":"牧之原市","jp_add_2":"道場"},"4210403":{"post_code":"4210403","prefecture":"SHIZUOKA KEN","city":"MAKINOHARA SHI","town":"NAKA","perfecture_jp":"静岡県","jp_add_1":"牧之原市","jp_add_2":"中"},"4210505":{"post_code":"4210505","prefecture":"SHIZUOKA KEN","city":"MAKINOHARA SHI","town":"NAKANISHI","perfecture_jp":"静岡県","jp_add_1":"牧之原市","jp_add_2":"中西"},"4210508":{"post_code":"4210508","prefecture":"SHIZUOKA KEN","city":"MAKINOHARA SHI","town":"NISHIHAGIMA","perfecture_jp":"静岡県","jp_add_1":"牧之原市","jp_add_2":"西萩間"},"4210413":{"post_code":"4210413","prefecture":"SHIZUOKA KEN","city":"MAKINOHARA SHI","town":"NITA","perfecture_jp":"静岡県","jp_add_1":"牧之原市","jp_add_2":"仁田"},"4210407":{"post_code":"4210407","prefecture":"SHIZUOKA KEN","city":"MAKINOHARA SHI","town":"NUNOHIKIHARA","perfecture_jp":"静岡県","jp_add_1":"牧之原市","jp_add_2":"布引原"},"4210523":{"post_code":"4210523","prefecture":"SHIZUOKA KEN","city":"MAKINOHARA SHI","town":"HAZU","perfecture_jp":"静岡県","jp_add_1":"牧之原市","jp_add_2":"波津"},"4210501":{"post_code":"4210501","prefecture":"SHIZUOKA KEN","city":"MAKINOHARA SHI","town":"HIGASHIHAGIMA","perfecture_jp":"静岡県","jp_add_1":"牧之原市","jp_add_2":"東萩間"},"4210503":{"post_code":"4210503","prefecture":"SHIZUOKA KEN","city":"MAKINOHARA SHI","town":"HIRUGAYA","perfecture_jp":"静岡県","jp_add_1":"牧之原市","jp_add_2":"蛭ケ谷"},"4210521":{"post_code":"4210521","prefecture":"SHIZUOKA KEN","city":"MAKINOHARA SHI","town":"FUKUOKA","perfecture_jp":"静岡県","jp_add_1":"牧之原市","jp_add_2":"福岡"},"4210421":{"post_code":"4210421","prefecture":"SHIZUOKA KEN","city":"MAKINOHARA SHI","town":"HOSOE","perfecture_jp":"静岡県","jp_add_1":"牧之原市","jp_add_2":"細江"},"4210534":{"post_code":"4210534","prefecture":"SHIZUOKA KEN","city":"MAKINOHARA SHI","town":"HORINOSHINDEN","perfecture_jp":"静岡県","jp_add_1":"牧之原市","jp_add_2":"堀野新田"},"4210509":{"post_code":"4210509","prefecture":"SHIZUOKA KEN","city":"MAKINOHARA SHI","town":"MAKINOHARA(136-144-BANCHI)","perfecture_jp":"静岡県","jp_add_1":"牧之原市","jp_add_2":"牧之原"},"4210409":{"post_code":"4210409","prefecture":"SHIZUOKA KEN","city":"MAKINOHARA SHI","town":"MAKINOHARA(SONOTA)","perfecture_jp":"静岡県","jp_add_1":"牧之原市","jp_add_2":"牧之原"},"4210513":{"post_code":"4210513","prefecture":"SHIZUOKA KEN","city":"MAKINOHARA SHI","town":"MATSUMOTO","perfecture_jp":"静岡県","jp_add_1":"牧之原市","jp_add_2":"松本"},"4210516":{"post_code":"4210516","prefecture":"SHIZUOKA KEN","city":"MAKINOHARA SHI","town":"MEKAMI","perfecture_jp":"静岡県","jp_add_1":"牧之原市","jp_add_2":"女神"},"4210507":{"post_code":"4210507","prefecture":"SHIZUOKA KEN","city":"MAKINOHARA SHI","town":"WADA","perfecture_jp":"静岡県","jp_add_1":"牧之原市","jp_add_2":"和田"},"4210300":{"post_code":"4210300","prefecture":"SHIZUOKA KEN","city":"HAIBARA GUN YOSHIDA CHO","town":"IKANIKEISAIGANAIBAAI","perfecture_jp":"静岡県","jp_add_1":"榛原郡吉田町","jp_add_2":""},"4210305":{"post_code":"4210305","prefecture":"SHIZUOKA KEN","city":"HAIBARA GUN YOSHIDA CHO","town":"OHATA","perfecture_jp":"静岡県","jp_add_1":"榛原郡吉田町","jp_add_2":"大幡"},"4210303":{"post_code":"4210303","prefecture":"SHIZUOKA KEN","city":"HAIBARA GUN YOSHIDA CHO","town":"KATAOKA","perfecture_jp":"静岡県","jp_add_1":"榛原郡吉田町","jp_add_2":"片岡"},"4210302":{"post_code":"4210302","prefecture":"SHIZUOKA KEN","city":"HAIBARA GUN YOSHIDA CHO","town":"KAWASHIRI","perfecture_jp":"静岡県","jp_add_1":"榛原郡吉田町","jp_add_2":"川尻"},"4210304":{"post_code":"4210304","prefecture":"SHIZUOKA KEN","city":"HAIBARA GUN YOSHIDA CHO","town":"KANDO","perfecture_jp":"静岡県","jp_add_1":"榛原郡吉田町","jp_add_2":"神戸"},"4210301":{"post_code":"4210301","prefecture":"SHIZUOKA KEN","city":"HAIBARA GUN YOSHIDA CHO","town":"SUMIYOSHI","perfecture_jp":"静岡県","jp_add_1":"榛原郡吉田町","jp_add_2":"住吉"}}