{"4220000":{"post_code":"4220000","prefecture":"SHIZUOKA KEN","city":"SHIZUOKA SHI SHIMIZU KU","town":"IKANIKEISAIGANAIBAAI","perfecture_jp":"静岡県","jp_add_1":"静岡市葵区","jp_add_2":""},"4228014":{"post_code":"4228014","prefecture":"SHIZUOKA KEN","city":"SHIZUOKA SHI SURUGA KU","town":"AOSAWA","perfecture_jp":"静岡県","jp_add_1":"静岡市駿河区","jp_add_2":"青沢"},"4228012":{"post_code":"4228012","prefecture":"SHIZUOKA KEN","city":"SHIZUOKA SHI SURUGA KU","town":"AGO","perfecture_jp":"静岡県","jp_add_1":"静岡市駿河区","jp_add_2":"安居"},"4228031":{"post_code":"4228031","prefecture":"SHIZUOKA KEN","city":"SHIZUOKA SHI SURUGA KU","town":"ARIAKECHO","perfecture_jp":"静岡県","jp_add_1":"静岡市駿河区","jp_add_2":"有明町"},"4228005":{"post_code":"4228005","prefecture":"SHIZUOKA KEN","city":"SHIZUOKA SHI SURUGA KU","town":"IKEDA","perfecture_jp":"静岡県","jp_add_1":"静岡市駿河区","jp_add_2":"池田"},"4228042":{"post_code":"4228042","prefecture":"SHIZUOKA KEN","city":"SHIZUOKA SHI SURUGA KU","town":"ISHIDA","perfecture_jp":"静岡県","jp_add_1":"静岡市駿河区","jp_add_2":"石田"},"4228066":{"post_code":"4228066","prefecture":"SHIZUOKA KEN","city":"SHIZUOKA SHI SURUGA KU","town":"IZUMICHO","perfecture_jp":"静岡県","jp_add_1":"静岡市駿河区","jp_add_2":"泉町"},"4228062":{"post_code":"4228062","prefecture":"SHIZUOKA KEN","city":"SHIZUOKA SHI SURUGA KU","town":"INAGAWA","perfecture_jp":"静岡県","jp_add_1":"静岡市駿河区","jp_add_2":"稲川"},"4228032":{"post_code":"4228032","prefecture":"SHIZUOKA KEN","city":"SHIZUOKA SHI SURUGA KU","town":"UTO","perfecture_jp":"静岡県","jp_add_1":"静岡市駿河区","jp_add_2":"有東"},"4228075":{"post_code":"4228075","prefecture":"SHIZUOKA KEN","city":"SHIZUOKA SHI SURUGA KU","town":"OTSUBOCHO","perfecture_jp":"静岡県","jp_add_1":"静岡市駿河区","jp_add_2":"大坪町"},"4228017":{"post_code":"4228017","prefecture":"SHIZUOKA KEN","city":"SHIZUOKA SHI SURUGA KU","town":"OYA","perfecture_jp":"静岡県","jp_add_1":"静岡市駿河区","jp_add_2":"大谷"},"4228072":{"post_code":"4228072","prefecture":"SHIZUOKA KEN","city":"SHIZUOKA SHI SURUGA KU","town":"OGURO","perfecture_jp":"静岡県","jp_add_1":"静岡市駿河区","jp_add_2":"小黒"},"4228021":{"post_code":"4228021","prefecture":"SHIZUOKA KEN","city":"SHIZUOKA SHI SURUGA KU","town":"OSHIKA","perfecture_jp":"静岡県","jp_add_1":"静岡市駿河区","jp_add_2":"小鹿"},"4228022":{"post_code":"4228022","prefecture":"SHIZUOKA KEN","city":"SHIZUOKA SHI SURUGA KU","town":"ONDABARA","perfecture_jp":"静岡県","jp_add_1":"静岡市駿河区","jp_add_2":"恩田原"},"4228023":{"post_code":"4228023","prefecture":"SHIZUOKA KEN","city":"SHIZUOKA SHI SURUGA KU","town":"KATAYAMA","perfecture_jp":"静岡県","jp_add_1":"静岡市駿河区","jp_add_2":"片山"},"4228004":{"post_code":"4228004","prefecture":"SHIZUOKA KEN","city":"SHIZUOKA SHI SURUGA KU","town":"KUNIYOSHIDA","perfecture_jp":"静岡県","jp_add_1":"静岡市駿河区","jp_add_2":"国吉田"},"4228008":{"post_code":"4228008","prefecture":"SHIZUOKA KEN","city":"SHIZUOKA SHI SURUGA KU","town":"KURIHARA","perfecture_jp":"静岡県","jp_add_1":"静岡市駿河区","jp_add_2":"栗原"},"4228055":{"post_code":"4228055","prefecture":"SHIZUOKA KEN","city":"SHIZUOKA SHI SURUGA KU","town":"KOTOBUKICHO","perfecture_jp":"静岡県","jp_add_1":"静岡市駿河区","jp_add_2":"寿町"},"4228078":{"post_code":"4228078","prefecture":"SHIZUOKA KEN","city":"SHIZUOKA SHI SURUGA KU","town":"SATSUKICHO","perfecture_jp":"静岡県","jp_add_1":"静岡市駿河区","jp_add_2":"さつき町"},"4228036":{"post_code":"4228036","prefecture":"SHIZUOKA KEN","city":"SHIZUOKA SHI SURUGA KU","town":"SHIKIJI","perfecture_jp":"静岡県","jp_add_1":"静岡市駿河区","jp_add_2":"敷地"},"4228037":{"post_code":"4228037","prefecture":"SHIZUOKA KEN","city":"SHIZUOKA SHI SURUGA KU","town":"SHIMOJIMA","perfecture_jp":"静岡県","jp_add_1":"静岡市駿河区","jp_add_2":"下島"},"4228064":{"post_code":"4228064","prefecture":"SHIZUOKA KEN","city":"SHIZUOKA SHI SURUGA KU","town":"SHINKAWA","perfecture_jp":"静岡県","jp_add_1":"静岡市駿河区","jp_add_2":"新川"},"4228034":{"post_code":"4228034","prefecture":"SHIZUOKA KEN","city":"SHIZUOKA SHI SURUGA KU","town":"TAKAMATSU","perfecture_jp":"静岡県","jp_add_1":"静岡市駿河区","jp_add_2":"高松"},"4228056":{"post_code":"4228056","prefecture":"SHIZUOKA KEN","city":"SHIZUOKA SHI SURUGA KU","town":"TSUSHIMACHO","perfecture_jp":"静岡県","jp_add_1":"静岡市駿河区","jp_add_2":"津島町"},"4228027":{"post_code":"4228027","prefecture":"SHIZUOKA KEN","city":"SHIZUOKA SHI SURUGA KU","town":"TOYODA","perfecture_jp":"静岡県","jp_add_1":"静岡市駿河区","jp_add_2":"豊田"},"4228071":{"post_code":"4228071","prefecture":"SHIZUOKA KEN","city":"SHIZUOKA SHI SURUGA KU","town":"TOYOHARACHO","perfecture_jp":"静岡県","jp_add_1":"静岡市駿河区","jp_add_2":"豊原町"},"4228033":{"post_code":"4228033","prefecture":"SHIZUOKA KEN","city":"SHIZUOKA SHI SURUGA KU","town":"TORO","perfecture_jp":"静岡県","jp_add_1":"静岡市駿河区","jp_add_2":"登呂"},"4228046":{"post_code":"4228046","prefecture":"SHIZUOKA KEN","city":"SHIZUOKA SHI SURUGA KU","town":"NAKAJIMA","perfecture_jp":"静岡県","jp_add_1":"静岡市駿河区","jp_add_2":"中島"},"4228041":{"post_code":"4228041","prefecture":"SHIZUOKA KEN","city":"SHIZUOKA SHI SURUGA KU","town":"NAKADA","perfecture_jp":"静岡県","jp_add_1":"静岡市駿河区","jp_add_2":"中田"},"4228043":{"post_code":"4228043","prefecture":"SHIZUOKA KEN","city":"SHIZUOKA SHI SURUGA KU","town":"NAKADAHONCHO","perfecture_jp":"静岡県","jp_add_1":"静岡市駿河区","jp_add_2":"中田本町"},"4228051":{"post_code":"4228051","prefecture":"SHIZUOKA KEN","city":"SHIZUOKA SHI SURUGA KU","town":"NAKANOSHINDEN","perfecture_jp":"静岡県","jp_add_1":"静岡市駿河区","jp_add_2":"中野新田"},"4228058":{"post_code":"4228058","prefecture":"SHIZUOKA KEN","city":"SHIZUOKA SHI SURUGA KU","town":"NAKAHARA","perfecture_jp":"静岡県","jp_add_1":"静岡市駿河区","jp_add_2":"中原"},"4228015":{"post_code":"4228015","prefecture":"SHIZUOKA KEN","city":"SHIZUOKA SHI SURUGA KU","town":"NAKAHIRAMATSU","perfecture_jp":"静岡県","jp_add_1":"静岡市駿河区","jp_add_2":"中平松"},"4228047":{"post_code":"4228047","prefecture":"SHIZUOKA KEN","city":"SHIZUOKA SHI SURUGA KU","town":"NAKAMURACHO","perfecture_jp":"静岡県","jp_add_1":"静岡市駿河区","jp_add_2":"中村町"},"4228001":{"post_code":"4228001","prefecture":"SHIZUOKA KEN","city":"SHIZUOKA SHI SURUGA KU","town":"NAKAYOSHIDA","perfecture_jp":"静岡県","jp_add_1":"静岡市駿河区","jp_add_2":"中吉田"},"4228018":{"post_code":"4228018","prefecture":"SHIZUOKA KEN","city":"SHIZUOKA SHI SURUGA KU","town":"NISHIOYA","perfecture_jp":"静岡県","jp_add_1":"静岡市駿河区","jp_add_2":"西大谷"},"4228045":{"post_code":"4228045","prefecture":"SHIZUOKA KEN","city":"SHIZUOKA SHI SURUGA KU","town":"NISHIJIMA","perfecture_jp":"静岡県","jp_add_1":"静岡市駿河区","jp_add_2":"西島"},"4228053":{"post_code":"4228053","prefecture":"SHIZUOKA KEN","city":"SHIZUOKA SHI SURUGA KU","town":"NISHINAKAHARA","perfecture_jp":"静岡県","jp_add_1":"静岡市駿河区","jp_add_2":"西中原"},"4228016":{"post_code":"4228016","prefecture":"SHIZUOKA KEN","city":"SHIZUOKA SHI SURUGA KU","town":"NISHIHIRAMATSU","perfecture_jp":"静岡県","jp_add_1":"静岡市駿河区","jp_add_2":"西平松"},"4228044":{"post_code":"4228044","prefecture":"SHIZUOKA KEN","city":"SHIZUOKA SHI SURUGA KU","town":"NISHIWAKI","perfecture_jp":"静岡県","jp_add_1":"静岡市駿河区","jp_add_2":"西脇"},"4228011":{"post_code":"4228011","prefecture":"SHIZUOKA KEN","city":"SHIZUOKA SHI SURUGA KU","town":"NEGOYA","perfecture_jp":"静岡県","jp_add_1":"静岡市駿河区","jp_add_2":"根古屋"},"4228007":{"post_code":"4228007","prefecture":"SHIZUOKA KEN","city":"SHIZUOKA SHI SURUGA KU","town":"HIJIRIISSHIKI","perfecture_jp":"静岡県","jp_add_1":"静岡市駿河区","jp_add_2":"聖一色"},"4228003":{"post_code":"4228003","prefecture":"SHIZUOKA KEN","city":"SHIZUOKA SHI SURUGA KU","town":"HIRASAWA","perfecture_jp":"静岡県","jp_add_1":"静岡市駿河区","jp_add_2":"平沢"},"4228026":{"post_code":"4228026","prefecture":"SHIZUOKA KEN","city":"SHIZUOKA SHI SURUGA KU","town":"FUJIMIDAI","perfecture_jp":"静岡県","jp_add_1":"静岡市駿河区","jp_add_2":"富士見台"},"4228013":{"post_code":"4228013","prefecture":"SHIZUOKA KEN","city":"SHIZUOKA SHI SURUGA KU","town":"FURUYADO","perfecture_jp":"静岡県","jp_add_1":"静岡市駿河区","jp_add_2":"古宿"},"4228006":{"post_code":"4228006","prefecture":"SHIZUOKA KEN","city":"SHIZUOKA SHI SURUGA KU","town":"MAGARIKANE","perfecture_jp":"静岡県","jp_add_1":"静岡市駿河区","jp_add_2":"曲金"},"4228063":{"post_code":"4228063","prefecture":"SHIZUOKA KEN","city":"SHIZUOKA SHI SURUGA KU","town":"MABUCHI","perfecture_jp":"静岡県","jp_add_1":"静岡市駿河区","jp_add_2":"馬渕"},"4228025":{"post_code":"4228025","prefecture":"SHIZUOKA KEN","city":"SHIZUOKA SHI SURUGA KU","town":"MIZUKAMI","perfecture_jp":"静岡県","jp_add_1":"静岡市駿河区","jp_add_2":"水上"},"4228057":{"post_code":"4228057","prefecture":"SHIZUOKA KEN","city":"SHIZUOKA SHI SURUGA KU","town":"MISE","perfecture_jp":"静岡県","jp_add_1":"静岡市駿河区","jp_add_2":"見瀬"},"4228052":{"post_code":"4228052","prefecture":"SHIZUOKA KEN","city":"SHIZUOKA SHI SURUGA KU","town":"MIDORIGAOKACHO","perfecture_jp":"静岡県","jp_add_1":"静岡市駿河区","jp_add_2":"緑が丘町"},"4228054":{"post_code":"4228054","prefecture":"SHIZUOKA KEN","city":"SHIZUOKA SHI SURUGA KU","town":"MINAMIABE(3-CHOME)","perfecture_jp":"静岡県","jp_add_1":"静岡市駿河区","jp_add_2":"南安倍"},"4228067":{"post_code":"4228067","prefecture":"SHIZUOKA KEN","city":"SHIZUOKA SHI SURUGA KU","town":"MINAMICHO","perfecture_jp":"静岡県","jp_add_1":"静岡市駿河区","jp_add_2":"南町"},"4228074":{"post_code":"4228074","prefecture":"SHIZUOKA KEN","city":"SHIZUOKA SHI SURUGA KU","town":"MINAMIYAHATACHO","perfecture_jp":"静岡県","jp_add_1":"静岡市駿河区","jp_add_2":"南八幡町"},"4228024":{"post_code":"4228024","prefecture":"SHIZUOKA KEN","city":"SHIZUOKA SHI SURUGA KU","town":"MIYAGAWA","perfecture_jp":"静岡県","jp_add_1":"静岡市駿河区","jp_add_2":"宮川"},"4228035":{"post_code":"4228035","prefecture":"SHIZUOKA KEN","city":"SHIZUOKA SHI SURUGA KU","town":"MIYATAKE","perfecture_jp":"静岡県","jp_add_1":"静岡市駿河区","jp_add_2":"宮竹"},"4228065":{"post_code":"4228065","prefecture":"SHIZUOKA KEN","city":"SHIZUOKA SHI SURUGA KU","town":"MIYAMOTOCHO","perfecture_jp":"静岡県","jp_add_1":"静岡市駿河区","jp_add_2":"宮本町"},"4228061":{"post_code":"4228061","prefecture":"SHIZUOKA KEN","city":"SHIZUOKA SHI SURUGA KU","town":"MORISHITACHO","perfecture_jp":"静岡県","jp_add_1":"静岡市駿河区","jp_add_2":"森下町"},"4228002":{"post_code":"4228002","prefecture":"SHIZUOKA KEN","city":"SHIZUOKA SHI SURUGA KU","town":"YADA","perfecture_jp":"静岡県","jp_add_1":"静岡市駿河区","jp_add_2":"谷田"},"4228076":{"post_code":"4228076","prefecture":"SHIZUOKA KEN","city":"SHIZUOKA SHI SURUGA KU","town":"YAHATA","perfecture_jp":"静岡県","jp_add_1":"静岡市駿河区","jp_add_2":"八幡"},"4228073":{"post_code":"4228073","prefecture":"SHIZUOKA KEN","city":"SHIZUOKA SHI SURUGA KU","town":"YAHATAYAMA","perfecture_jp":"静岡県","jp_add_1":"静岡市駿河区","jp_add_2":"八幡山"},"4228077":{"post_code":"4228077","prefecture":"SHIZUOKA KEN","city":"SHIZUOKA SHI SURUGA KU","town":"YAMATO","perfecture_jp":"静岡県","jp_add_1":"静岡市駿河区","jp_add_2":"大和"},"4228009":{"post_code":"4228009","prefecture":"SHIZUOKA KEN","city":"SHIZUOKA SHI SURUGA KU","town":"YAYOICHO","perfecture_jp":"静岡県","jp_add_1":"静岡市駿河区","jp_add_2":"弥生町"}}