{"4250000":{"post_code":"4250000","prefecture":"SHIZUOKA KEN","city":"YAIZU SHI","town":"IKANIKEISAIGANAIBAAI","perfecture_jp":"静岡県","jp_add_1":"焼津市","jp_add_2":""},"4250023":{"post_code":"4250023","prefecture":"SHIZUOKA KEN","city":"YAIZU SHI","town":"ARAYA","perfecture_jp":"静岡県","jp_add_1":"焼津市","jp_add_2":"新屋"},"4250041":{"post_code":"4250041","prefecture":"SHIZUOKA KEN","city":"YAIZU SHI","town":"ISHIZU","perfecture_jp":"静岡県","jp_add_1":"焼津市","jp_add_2":"石津"},"4250043":{"post_code":"4250043","prefecture":"SHIZUOKA KEN","city":"YAIZU SHI","town":"ISHIZU NAKACHO","perfecture_jp":"静岡県","jp_add_1":"焼津市","jp_add_2":"石津中町"},"4250042":{"post_code":"4250042","prefecture":"SHIZUOKA KEN","city":"YAIZU SHI","town":"ISHIZU MINATOCHO","perfecture_jp":"静岡県","jp_add_1":"焼津市","jp_add_2":"石津港町"},"4250044":{"post_code":"4250044","prefecture":"SHIZUOKA KEN","city":"YAIZU SHI","town":"ISHIZU MUKAICHO","perfecture_jp":"静岡県","jp_add_1":"焼津市","jp_add_2":"石津向町"},"4250015":{"post_code":"4250015","prefecture":"SHIZUOKA KEN","city":"YAIZU SHI","town":"ISHIWAKI KAMI","perfecture_jp":"静岡県","jp_add_1":"焼津市","jp_add_2":"石脇上"},"4250016":{"post_code":"4250016","prefecture":"SHIZUOKA KEN","city":"YAIZU SHI","town":"ISHIWAKI SHIMO","perfecture_jp":"静岡県","jp_add_1":"焼津市","jp_add_2":"石脇下"},"4250054":{"post_code":"4250054","prefecture":"SHIZUOKA KEN","city":"YAIZU SHI","town":"ISSHIKI","perfecture_jp":"静岡県","jp_add_1":"焼津市","jp_add_2":"一色"},"4250032":{"post_code":"4250032","prefecture":"SHIZUOKA KEN","city":"YAIZU SHI","town":"IWASHIGASHIMA","perfecture_jp":"静岡県","jp_add_1":"焼津市","jp_add_2":"鰯ケ島"},"4250028":{"post_code":"4250028","prefecture":"SHIZUOKA KEN","city":"YAIZU SHI","town":"EKIKITA","perfecture_jp":"静岡県","jp_add_1":"焼津市","jp_add_2":"駅北"},"4250092":{"post_code":"4250092","prefecture":"SHIZUOKA KEN","city":"YAIZU SHI","town":"ECHIGOSHIMA","perfecture_jp":"静岡県","jp_add_1":"焼津市","jp_add_2":"越後島"},"4250083":{"post_code":"4250083","prefecture":"SHIZUOKA KEN","city":"YAIZU SHI","town":"O","perfecture_jp":"静岡県","jp_add_1":"焼津市","jp_add_2":"大"},"4250066":{"post_code":"4250066","prefecture":"SHIZUOKA KEN","city":"YAIZU SHI","town":"OJIMA","perfecture_jp":"静岡県","jp_add_1":"焼津市","jp_add_2":"大島"},"4250069":{"post_code":"4250069","prefecture":"SHIZUOKA KEN","city":"YAIZU SHI","town":"OSHIMASHINDEN","perfecture_jp":"静岡県","jp_add_1":"焼津市","jp_add_2":"大島新田"},"4250072":{"post_code":"4250072","prefecture":"SHIZUOKA KEN","city":"YAIZU SHI","town":"OZUMI","perfecture_jp":"静岡県","jp_add_1":"焼津市","jp_add_2":"大住"},"4250082":{"post_code":"4250082","prefecture":"SHIZUOKA KEN","city":"YAIZU SHI","town":"OMURA","perfecture_jp":"静岡県","jp_add_1":"焼津市","jp_add_2":"大村"},"4250084":{"post_code":"4250084","prefecture":"SHIZUOKA KEN","city":"YAIZU SHI","town":"OMURASHINDEN","perfecture_jp":"静岡県","jp_add_1":"焼津市","jp_add_2":"大村新田"},"4250013":{"post_code":"4250013","prefecture":"SHIZUOKA KEN","city":"YAIZU SHI","town":"OKATOME","perfecture_jp":"静岡県","jp_add_1":"焼津市","jp_add_2":"岡当目"},"4250011":{"post_code":"4250011","prefecture":"SHIZUOKA KEN","city":"YAIZU SHI","town":"OBAMA","perfecture_jp":"静岡県","jp_add_1":"焼津市","jp_add_2":"小浜"},"4250073":{"post_code":"4250073","prefecture":"SHIZUOKA KEN","city":"YAIZU SHI","town":"OYAIZU","perfecture_jp":"静岡県","jp_add_1":"焼津市","jp_add_2":"小柳津"},"4250005":{"post_code":"4250005","prefecture":"SHIZUOKA KEN","city":"YAIZU SHI","town":"KATANOKAMI","perfecture_jp":"静岡県","jp_add_1":"焼津市","jp_add_2":"方ノ上"},"4250058":{"post_code":"4250058","prefecture":"SHIZUOKA KEN","city":"YAIZU SHI","town":"KITASHINDEN","perfecture_jp":"静岡県","jp_add_1":"焼津市","jp_add_2":"北新田"},"4250024":{"post_code":"4250024","prefecture":"SHIZUOKA KEN","city":"YAIZU SHI","town":"KITAHAMADORI","perfecture_jp":"静岡県","jp_add_1":"焼津市","jp_add_2":"北浜通"},"4250077":{"post_code":"4250077","prefecture":"SHIZUOKA KEN","city":"YAIZU SHI","town":"GOKAHORINOCHI","perfecture_jp":"静岡県","jp_add_1":"焼津市","jp_add_2":"五ケ堀之内"},"4250033":{"post_code":"4250033","prefecture":"SHIZUOKA KEN","city":"YAIZU SHI","town":"KOGAWA","perfecture_jp":"静岡県","jp_add_1":"焼津市","jp_add_2":"小川"},"4250031":{"post_code":"4250031","prefecture":"SHIZUOKA KEN","city":"YAIZU SHI","town":"KOGAWASHIMMACHI","perfecture_jp":"静岡県","jp_add_1":"焼津市","jp_add_2":"小川新町"},"4250086":{"post_code":"4250086","prefecture":"SHIZUOKA KEN","city":"YAIZU SHI","town":"KOHIJI","perfecture_jp":"静岡県","jp_add_1":"焼津市","jp_add_2":"小土"},"4250076":{"post_code":"4250076","prefecture":"SHIZUOKA KEN","city":"YAIZU SHI","town":"KOYASHIKI","perfecture_jp":"静岡県","jp_add_1":"焼津市","jp_add_2":"小屋敷"},"4250027":{"post_code":"4250027","prefecture":"SHIZUOKA KEN","city":"YAIZU SHI","town":"SAKAEMACHI","perfecture_jp":"静岡県","jp_add_1":"焼津市","jp_add_2":"栄町"},"4250004":{"post_code":"4250004","prefecture":"SHIZUOKA KEN","city":"YAIZU SHI","town":"SAKAMOTO","perfecture_jp":"静岡県","jp_add_1":"焼津市","jp_add_2":"坂本"},"4250046":{"post_code":"4250046","prefecture":"SHIZUOKA KEN","city":"YAIZU SHI","town":"SANUEMONSHINDEN","perfecture_jp":"静岡県","jp_add_1":"焼津市","jp_add_2":"三右衛門新田"},"4250071":{"post_code":"4250071","prefecture":"SHIZUOKA KEN","city":"YAIZU SHI","town":"SANGAMYO","perfecture_jp":"静岡県","jp_add_1":"焼津市","jp_add_2":"三ケ名"},"4250085":{"post_code":"4250085","prefecture":"SHIZUOKA KEN","city":"YAIZU SHI","town":"SHIOTSU","perfecture_jp":"静岡県","jp_add_1":"焼津市","jp_add_2":"塩津"},"4250057":{"post_code":"4250057","prefecture":"SHIZUOKA KEN","city":"YAIZU SHI","town":"SHIMODA","perfecture_jp":"静岡県","jp_add_1":"焼津市","jp_add_2":"下小田"},"4250056":{"post_code":"4250056","prefecture":"SHIZUOKA KEN","city":"YAIZU SHI","town":"SHIMODANAKAMACHI","perfecture_jp":"静岡県","jp_add_1":"焼津市","jp_add_2":"下小田中町"},"4250067":{"post_code":"4250067","prefecture":"SHIZUOKA KEN","city":"YAIZU SHI","town":"JICHOUKESHO","perfecture_jp":"静岡県","jp_add_1":"焼津市","jp_add_2":"治長請所"},"4250025":{"post_code":"4250025","prefecture":"SHIZUOKA KEN","city":"YAIZU SHI","town":"JONOKOSHI","perfecture_jp":"静岡県","jp_add_1":"焼津市","jp_add_2":"城之腰"},"4250053":{"post_code":"4250053","prefecture":"SHIZUOKA KEN","city":"YAIZU SHI","town":"SUMIREDAI","perfecture_jp":"静岡県","jp_add_1":"焼津市","jp_add_2":"すみれ台"},"4250006":{"post_code":"4250006","prefecture":"SHIZUOKA KEN","city":"YAIZU SHI","town":"SEKIGATA","perfecture_jp":"静岡県","jp_add_1":"焼津市","jp_add_2":"関方"},"4250065":{"post_code":"4250065","prefecture":"SHIZUOKA KEN","city":"YAIZU SHI","town":"SOUEMON","perfecture_jp":"静岡県","jp_add_1":"焼津市","jp_add_2":"惣右衛門"},"4250081":{"post_code":"4250081","prefecture":"SHIZUOKA KEN","city":"YAIZU SHI","town":"DAIEICHO","perfecture_jp":"静岡県","jp_add_1":"焼津市","jp_add_2":"大栄町"},"4250088":{"post_code":"4250088","prefecture":"SHIZUOKA KEN","city":"YAIZU SHI","town":"DAIKAKUJI","perfecture_jp":"静岡県","jp_add_1":"焼津市","jp_add_2":"大覚寺"},"4250003":{"post_code":"4250003","prefecture":"SHIZUOKA KEN","city":"YAIZU SHI","town":"TAKASAKI","perfecture_jp":"静岡県","jp_add_1":"焼津市","jp_add_2":"高崎"},"4250052":{"post_code":"4250052","prefecture":"SHIZUOKA KEN","city":"YAIZU SHI","town":"TAJIRI","perfecture_jp":"静岡県","jp_add_1":"焼津市","jp_add_2":"田尻"},"4250051":{"post_code":"4250051","prefecture":"SHIZUOKA KEN","city":"YAIZU SHI","town":"TAJIRIKITA","perfecture_jp":"静岡県","jp_add_1":"焼津市","jp_add_2":"田尻北"},"4250055":{"post_code":"4250055","prefecture":"SHIZUOKA KEN","city":"YAIZU SHI","town":"DOBARA","perfecture_jp":"静岡県","jp_add_1":"焼津市","jp_add_2":"道原"},"4250014":{"post_code":"4250014","prefecture":"SHIZUOKA KEN","city":"YAIZU SHI","town":"NAKAZATO","perfecture_jp":"静岡県","jp_add_1":"焼津市","jp_add_2":"中里"},"4250068":{"post_code":"4250068","prefecture":"SHIZUOKA KEN","city":"YAIZU SHI","town":"NAKASHINDEN","perfecture_jp":"静岡県","jp_add_1":"焼津市","jp_add_2":"中新田"},"4250061":{"post_code":"4250061","prefecture":"SHIZUOKA KEN","city":"YAIZU SHI","town":"NAKANE","perfecture_jp":"静岡県","jp_add_1":"焼津市","jp_add_2":"中根"},"4250062":{"post_code":"4250062","prefecture":"SHIZUOKA KEN","city":"YAIZU SHI","town":"NAKANESHINDEN","perfecture_jp":"静岡県","jp_add_1":"焼津市","jp_add_2":"中根新田"},"4250021":{"post_code":"4250021","prefecture":"SHIZUOKA KEN","city":"YAIZU SHI","town":"NAKAMINATO","perfecture_jp":"静岡県","jp_add_1":"焼津市","jp_add_2":"中港"},"4250036":{"post_code":"4250036","prefecture":"SHIZUOKA KEN","city":"YAIZU SHI","town":"NISHIKOGAWA","perfecture_jp":"静岡県","jp_add_1":"焼津市","jp_add_2":"西小川"},"4250075":{"post_code":"4250075","prefecture":"SHIZUOKA KEN","city":"YAIZU SHI","town":"NISHIYAIZU","perfecture_jp":"静岡県","jp_add_1":"焼津市","jp_add_2":"西焼津"},"4250045":{"post_code":"4250045","prefecture":"SHIZUOKA KEN","city":"YAIZU SHI","town":"NEGISHIMA","perfecture_jp":"静岡県","jp_add_1":"焼津市","jp_add_2":"祢宜島"},"4250017":{"post_code":"4250017","prefecture":"SHIZUOKA KEN","city":"YAIZU SHI","town":"NOAKI","perfecture_jp":"静岡県","jp_add_1":"焼津市","jp_add_2":"野秋"},"4250001":{"post_code":"4250001","prefecture":"SHIZUOKA KEN","city":"YAIZU SHI","town":"HANAZAWA","perfecture_jp":"静岡県","jp_add_1":"焼津市","jp_add_2":"花沢"},"4250012":{"post_code":"4250012","prefecture":"SHIZUOKA KEN","city":"YAIZU SHI","town":"HAMATOME","perfecture_jp":"静岡県","jp_add_1":"焼津市","jp_add_2":"浜当目"},"4250035":{"post_code":"4250035","prefecture":"SHIZUOKA KEN","city":"YAIZU SHI","town":"HIGASHIKOGAWA","perfecture_jp":"静岡県","jp_add_1":"焼津市","jp_add_2":"東小川"},"4250087":{"post_code":"4250087","prefecture":"SHIZUOKA KEN","city":"YAIZU SHI","town":"HOFUKUJIMA","perfecture_jp":"静岡県","jp_add_1":"焼津市","jp_add_2":"保福島"},"4250063":{"post_code":"4250063","prefecture":"SHIZUOKA KEN","city":"YAIZU SHI","town":"HONNAKANE","perfecture_jp":"静岡県","jp_add_1":"焼津市","jp_add_2":"本中根"},"4250022":{"post_code":"4250022","prefecture":"SHIZUOKA KEN","city":"YAIZU SHI","town":"HOMMACHI","perfecture_jp":"静岡県","jp_add_1":"焼津市","jp_add_2":"本町"},"4250064":{"post_code":"4250064","prefecture":"SHIZUOKA KEN","city":"YAIZU SHI","town":"MIWA","perfecture_jp":"静岡県","jp_add_1":"焼津市","jp_add_2":"三和"},"4250007":{"post_code":"4250007","prefecture":"SHIZUOKA KEN","city":"YAIZU SHI","town":"MUCHIUSHI","perfecture_jp":"静岡県","jp_add_1":"焼津市","jp_add_2":"策牛"},"4250026":{"post_code":"4250026","prefecture":"SHIZUOKA KEN","city":"YAIZU SHI","town":"YAIZU","perfecture_jp":"静岡県","jp_add_1":"焼津市","jp_add_2":"焼津"},"4250091":{"post_code":"4250091","prefecture":"SHIZUOKA KEN","city":"YAIZU SHI","town":"YAGUSU","perfecture_jp":"静岡県","jp_add_1":"焼津市","jp_add_2":"八楠"},"4250074":{"post_code":"4250074","prefecture":"SHIZUOKA KEN","city":"YAIZU SHI","town":"YANAGIARAYA","perfecture_jp":"静岡県","jp_add_1":"焼津市","jp_add_2":"柳新屋"},"4250002":{"post_code":"4250002","prefecture":"SHIZUOKA KEN","city":"YAIZU SHI","town":"YOSHIZU","perfecture_jp":"静岡県","jp_add_1":"焼津市","jp_add_2":"吉津"},"4250034":{"post_code":"4250034","prefecture":"SHIZUOKA KEN","city":"YAIZU SHI","town":"YOSOJI","perfecture_jp":"静岡県","jp_add_1":"焼津市","jp_add_2":"与惣次"}}