{"4270000":{"post_code":"4270000","prefecture":"SHIZUOKA KEN","city":"SHIMADA SHI","town":"IKANIKEISAIGANAIBAAI","perfecture_jp":"静岡県","jp_add_1":"島田市","jp_add_2":""},"4270018":{"post_code":"4270018","prefecture":"SHIZUOKA KEN","city":"SHIMADA SHI","town":"ASAHI","perfecture_jp":"静岡県","jp_add_1":"島田市","jp_add_2":"旭"},"4270006":{"post_code":"4270006","prefecture":"SHIZUOKA KEN","city":"SHIMADA SHI","town":"ACHIGAYA","perfecture_jp":"静岡県","jp_add_1":"島田市","jp_add_2":"阿知ケ谷"},"4270232":{"post_code":"4270232","prefecture":"SHIZUOKA KEN","city":"SHIMADA SHI","town":"IKUMI","perfecture_jp":"静岡県","jp_add_1":"島田市","jp_add_2":"伊久美"},"4270104":{"post_code":"4270104","prefecture":"SHIZUOKA KEN","city":"SHIMADA SHI","town":"IGUCHI","perfecture_jp":"静岡県","jp_add_1":"島田市","jp_add_2":"井口"},"4270034":{"post_code":"4270034","prefecture":"SHIZUOKA KEN","city":"SHIMADA SHI","town":"ITA","perfecture_jp":"静岡県","jp_add_1":"島田市","jp_add_2":"伊太"},"4270038":{"post_code":"4270038","prefecture":"SHIZUOKA KEN","city":"SHIMADA SHI","town":"INARI","perfecture_jp":"静岡県","jp_add_1":"島田市","jp_add_2":"稲荷"},"4270031":{"post_code":"4270031","prefecture":"SHIZUOKA KEN","city":"SHIMADA SHI","town":"UAMI","perfecture_jp":"静岡県","jp_add_1":"島田市","jp_add_2":"鵜網"},"4270026":{"post_code":"4270026","prefecture":"SHIZUOKA KEN","city":"SHIMADA SHI","town":"OGIMACHI","perfecture_jp":"静岡県","jp_add_1":"島田市","jp_add_2":"扇町"},"4270013":{"post_code":"4270013","prefecture":"SHIZUOKA KEN","city":"SHIMADA SHI","town":"OKE","perfecture_jp":"静岡県","jp_add_1":"島田市","jp_add_2":"御請"},"4270025":{"post_code":"4270025","prefecture":"SHIZUOKA KEN","city":"SHIMADA SHI","town":"OICHO","perfecture_jp":"静岡県","jp_add_1":"島田市","jp_add_2":"大井町"},"4270033":{"post_code":"4270033","prefecture":"SHIZUOKA KEN","city":"SHIMADA SHI","town":"OKA","perfecture_jp":"静岡県","jp_add_1":"島田市","jp_add_2":"相賀"},"4270023":{"post_code":"4270023","prefecture":"SHIZUOKA KEN","city":"SHIMADA SHI","town":"OKAWACHO","perfecture_jp":"静岡県","jp_add_1":"島田市","jp_add_2":"大川町"},"4270002":{"post_code":"4270002","prefecture":"SHIZUOKA KEN","city":"SHIMADA SHI","town":"OKUSA","perfecture_jp":"静岡県","jp_add_1":"島田市","jp_add_2":"大草"},"4270056":{"post_code":"4270056","prefecture":"SHIZUOKA KEN","city":"SHIMADA SHI","town":"OTSUDORI","perfecture_jp":"静岡県","jp_add_1":"島田市","jp_add_2":"大津通"},"4270101":{"post_code":"4270101","prefecture":"SHIZUOKA KEN","city":"SHIMADA SHI","town":"OYANAGI","perfecture_jp":"静岡県","jp_add_1":"島田市","jp_add_2":"大柳"},"4270102":{"post_code":"4270102","prefecture":"SHIZUOKA KEN","city":"SHIMADA SHI","town":"OYANAGIMINAMI","perfecture_jp":"静岡県","jp_add_1":"島田市","jp_add_2":"大柳南"},"4270106":{"post_code":"4270106","prefecture":"SHIZUOKA KEN","city":"SHIMADA SHI","town":"OKADA","perfecture_jp":"静岡県","jp_add_1":"島田市","jp_add_2":"岡田"},"4270053":{"post_code":"4270053","prefecture":"SHIZUOKA KEN","city":"SHIMADA SHI","town":"OKARIYACHO","perfecture_jp":"静岡県","jp_add_1":"島田市","jp_add_2":"御仮屋町"},"4270009":{"post_code":"4270009","prefecture":"SHIZUOKA KEN","city":"SHIMADA SHI","town":"OGAWA","perfecture_jp":"静岡県","jp_add_1":"島田市","jp_add_2":"尾川"},"4270008":{"post_code":"4270008","prefecture":"SHIZUOKA KEN","city":"SHIMADA SHI","town":"OCHIAI","perfecture_jp":"静岡県","jp_add_1":"島田市","jp_add_2":"落合"},"4270037":{"post_code":"4270037","prefecture":"SHIZUOKA KEN","city":"SHIMADA SHI","town":"KAWARA","perfecture_jp":"静岡県","jp_add_1":"島田市","jp_add_2":"河原"},"4270032":{"post_code":"4270032","prefecture":"SHIZUOKA KEN","city":"SHIMADA SHI","town":"KANZA","perfecture_jp":"静岡県","jp_add_1":"島田市","jp_add_2":"神座"},"4270058":{"post_code":"4270058","prefecture":"SHIZUOKA KEN","city":"SHIMADA SHI","town":"GIONCHO","perfecture_jp":"静岡県","jp_add_1":"島田市","jp_add_2":"祇園町"},"4270004":{"post_code":"4270004","prefecture":"SHIZUOKA KEN","city":"SHIMADA SHI","town":"KISHI","perfecture_jp":"静岡県","jp_add_1":"島田市","jp_add_2":"岸"},"4270005":{"post_code":"4270005","prefecture":"SHIZUOKA KEN","city":"SHIMADA SHI","town":"KISHICHO","perfecture_jp":"静岡県","jp_add_1":"島田市","jp_add_2":"岸町"},"4270027":{"post_code":"4270027","prefecture":"SHIZUOKA KEN","city":"SHIMADA SHI","town":"SAIWAIMACHI","perfecture_jp":"静岡県","jp_add_1":"島田市","jp_add_2":"幸町"},"4270028":{"post_code":"4270028","prefecture":"SHIZUOKA KEN","city":"SHIMADA SHI","town":"SAKAECHO","perfecture_jp":"静岡県","jp_add_1":"島田市","jp_add_2":"栄町"},"4270111":{"post_code":"4270111","prefecture":"SHIZUOKA KEN","city":"SHIMADA SHI","town":"SAKAMOTO","perfecture_jp":"静岡県","jp_add_1":"島田市","jp_add_2":"阪本"},"4270231":{"post_code":"4270231","prefecture":"SHIZUOKA KEN","city":"SHIMADA SHI","town":"SASAMASHIMO","perfecture_jp":"静岡県","jp_add_1":"島田市","jp_add_2":"笹間下"},"4270059":{"post_code":"4270059","prefecture":"SHIZUOKA KEN","city":"SHIMADA SHI","town":"SHINDENCHO","perfecture_jp":"静岡県","jp_add_1":"島田市","jp_add_2":"新田町"},"4270055":{"post_code":"4270055","prefecture":"SHIZUOKA KEN","city":"SHIMADA SHI","town":"SHIMMACHIDORI","perfecture_jp":"静岡県","jp_add_1":"島田市","jp_add_2":"新町通"},"4270054":{"post_code":"4270054","prefecture":"SHIZUOKA KEN","city":"SHIMADA SHI","town":"TAKASAGOCHO","perfecture_jp":"静岡県","jp_add_1":"島田市","jp_add_2":"高砂町"},"4270015":{"post_code":"4270015","prefecture":"SHIZUOKA KEN","city":"SHIMADA SHI","town":"TAKAJIMACHO","perfecture_jp":"静岡県","jp_add_1":"島田市","jp_add_2":"高島町"},"4270001":{"post_code":"4270001","prefecture":"SHIZUOKA KEN","city":"SHIMADA SHI","town":"CHIBA","perfecture_jp":"静岡県","jp_add_1":"島田市","jp_add_2":"千葉"},"4270042":{"post_code":"4270042","prefecture":"SHIZUOKA KEN","city":"SHIMADA SHI","town":"CHUOCHO","perfecture_jp":"静岡県","jp_add_1":"島田市","jp_add_2":"中央町"},"4270112":{"post_code":"4270112","prefecture":"SHIZUOKA KEN","city":"SHIMADA SHI","town":"TSUKISAKA","perfecture_jp":"静岡県","jp_add_1":"島田市","jp_add_2":"月坂"},"4270019":{"post_code":"4270019","prefecture":"SHIZUOKA KEN","city":"SHIMADA SHI","town":"DOETSU","perfecture_jp":"静岡県","jp_add_1":"島田市","jp_add_2":"道悦"},"4270014":{"post_code":"4270014","prefecture":"SHIZUOKA KEN","city":"SHIMADA SHI","town":"DOETSUJIMA","perfecture_jp":"静岡県","jp_add_1":"島田市","jp_add_2":"道悦島"},"4270003":{"post_code":"4270003","prefecture":"SHIZUOKA KEN","city":"SHIMADA SHI","town":"TOKOJI","perfecture_jp":"静岡県","jp_add_1":"島田市","jp_add_2":"東光寺"},"4270103":{"post_code":"4270103","prefecture":"SHIZUOKA KEN","city":"SHIMADA SHI","town":"NAKAGAWA","perfecture_jp":"静岡県","jp_add_1":"島田市","jp_add_2":"中河"},"4270041":{"post_code":"4270041","prefecture":"SHIZUOKA KEN","city":"SHIMADA SHI","town":"NAKAGAWACHO","perfecture_jp":"静岡県","jp_add_1":"島田市","jp_add_2":"中河町"},"4270043":{"post_code":"4270043","prefecture":"SHIZUOKA KEN","city":"SHIMADA SHI","town":"NAKAMIZO","perfecture_jp":"静岡県","jp_add_1":"島田市","jp_add_2":"中溝"},"4270047":{"post_code":"4270047","prefecture":"SHIZUOKA KEN","city":"SHIMADA SHI","town":"NAKAMIZOCHO","perfecture_jp":"静岡県","jp_add_1":"島田市","jp_add_2":"中溝町"},"4270007":{"post_code":"4270007","prefecture":"SHIZUOKA KEN","city":"SHIMADA SHI","town":"NODA","perfecture_jp":"静岡県","jp_add_1":"島田市","jp_add_2":"野田"},"4270048":{"post_code":"4270048","prefecture":"SHIZUOKA KEN","city":"SHIMADA SHI","town":"HASSASHI","perfecture_jp":"静岡県","jp_add_1":"島田市","jp_add_2":"旗指"},"4270061":{"post_code":"4270061","prefecture":"SHIZUOKA KEN","city":"SHIMADA SHI","town":"BARANOKA","perfecture_jp":"静岡県","jp_add_1":"島田市","jp_add_2":"ばらの丘"},"4270011":{"post_code":"4270011","prefecture":"SHIZUOKA KEN","city":"SHIMADA SHI","town":"HIGASHICHO","perfecture_jp":"静岡県","jp_add_1":"島田市","jp_add_2":"東町"},"4270029":{"post_code":"4270029","prefecture":"SHIZUOKA KEN","city":"SHIMADA SHI","town":"HINODECHO","perfecture_jp":"静岡県","jp_add_1":"島田市","jp_add_2":"日之出町"},"4270107":{"post_code":"4270107","prefecture":"SHIZUOKA KEN","city":"SHIMADA SHI","town":"FUNAKI","perfecture_jp":"静岡県","jp_add_1":"島田市","jp_add_2":"船木"},"4270016":{"post_code":"4270016","prefecture":"SHIZUOKA KEN","city":"SHIMADA SHI","town":"HORAICHO","perfecture_jp":"静岡県","jp_add_1":"島田市","jp_add_2":"宝来町"},"4270012":{"post_code":"4270012","prefecture":"SHIZUOKA KEN","city":"SHIMADA SHI","town":"HOSOJIMA","perfecture_jp":"静岡県","jp_add_1":"島田市","jp_add_2":"細島"},"4270022":{"post_code":"4270022","prefecture":"SHIZUOKA KEN","city":"SHIMADA SHI","town":"HONTORI","perfecture_jp":"静岡県","jp_add_1":"島田市","jp_add_2":"本通"},"4270108":{"post_code":"4270108","prefecture":"SHIZUOKA KEN","city":"SHIMADA SHI","town":"MAKINOHARA(SONOTA)","perfecture_jp":"静岡県","jp_add_1":"島田市","jp_add_2":"牧之原"},"4270052":{"post_code":"4270052","prefecture":"SHIZUOKA KEN","city":"SHIMADA SHI","town":"MATSUBACHO","perfecture_jp":"静岡県","jp_add_1":"島田市","jp_add_2":"松葉町"},"4270036":{"post_code":"4270036","prefecture":"SHIZUOKA KEN","city":"SHIMADA SHI","town":"MITSUAICHO","perfecture_jp":"静岡県","jp_add_1":"島田市","jp_add_2":"三ツ合町"},"4270017":{"post_code":"4270017","prefecture":"SHIZUOKA KEN","city":"SHIMADA SHI","town":"MINAMI","perfecture_jp":"静岡県","jp_add_1":"島田市","jp_add_2":"南"},"4270105":{"post_code":"4270105","prefecture":"SHIZUOKA KEN","city":"SHIMADA SHI","town":"MINAMIHARA","perfecture_jp":"静岡県","jp_add_1":"島田市","jp_add_2":"南原"},"4270233":{"post_code":"4270233","prefecture":"SHIZUOKA KEN","city":"SHIMADA SHI","town":"MINARI","perfecture_jp":"静岡県","jp_add_1":"島田市","jp_add_2":"身成"},"4270044":{"post_code":"4270044","prefecture":"SHIZUOKA KEN","city":"SHIMADA SHI","town":"MIYAGAWACHO","perfecture_jp":"静岡県","jp_add_1":"島田市","jp_add_2":"宮川町"},"4270045":{"post_code":"4270045","prefecture":"SHIZUOKA KEN","city":"SHIMADA SHI","town":"MUKAIJIMACHO","perfecture_jp":"静岡県","jp_add_1":"島田市","jp_add_2":"向島町"},"4270039":{"post_code":"4270039","prefecture":"SHIZUOKA KEN","city":"SHIMADA SHI","town":"MUKUYA","perfecture_jp":"静岡県","jp_add_1":"島田市","jp_add_2":"向谷"},"4270035":{"post_code":"4270035","prefecture":"SHIZUOKA KEN","city":"SHIMADA SHI","town":"MUKUYAMOTOMACHI","perfecture_jp":"静岡県","jp_add_1":"島田市","jp_add_2":"向谷元町"},"4270057":{"post_code":"4270057","prefecture":"SHIZUOKA KEN","city":"SHIMADA SHI","town":"MOTOSHIMADA","perfecture_jp":"静岡県","jp_add_1":"島田市","jp_add_2":"元島田"},"4270051":{"post_code":"4270051","prefecture":"SHIZUOKA KEN","city":"SHIMADA SHI","town":"MOTOSHIMADAHIGASHICHO","perfecture_jp":"静岡県","jp_add_1":"島田市","jp_add_2":"元島田東町"},"4270021":{"post_code":"4270021","prefecture":"SHIZUOKA KEN","city":"SHIMADA SHI","town":"YANAGIMACHI","perfecture_jp":"静岡県","jp_add_1":"島田市","jp_add_2":"柳町"},"4270113":{"post_code":"4270113","prefecture":"SHIZUOKA KEN","city":"SHIMADA SHI","town":"YUI","perfecture_jp":"静岡県","jp_add_1":"島田市","jp_add_2":"湯日"},"4270024":{"post_code":"4270024","prefecture":"SHIZUOKA KEN","city":"SHIMADA SHI","town":"YOKOI","perfecture_jp":"静岡県","jp_add_1":"島田市","jp_add_2":"横井"},"4270046":{"post_code":"4270046","prefecture":"SHIZUOKA KEN","city":"SHIMADA SHI","town":"WAKAMATSUCHO","perfecture_jp":"静岡県","jp_add_1":"島田市","jp_add_2":"若松町"}}