{"4313121":{"post_code":"4313121","prefecture":"SHIZUOKA KEN","city":"HAMAMATSU SHI HIGASHI KU","town":"ARITAMA KITAMACHI","perfecture_jp":"静岡県","jp_add_1":"浜松市東区","jp_add_2":"有玉北町"},"4313126":{"post_code":"4313126","prefecture":"SHIZUOKA KEN","city":"HAMAMATSU SHI HIGASHI KU","town":"ARITAMADAI","perfecture_jp":"静岡県","jp_add_1":"浜松市東区","jp_add_2":"有玉台"},"4313123":{"post_code":"4313123","prefecture":"SHIZUOKA KEN","city":"HAMAMATSU SHI HIGASHI KU","town":"ARITAMA NISHIMACHI","perfecture_jp":"静岡県","jp_add_1":"浜松市東区","jp_add_2":"有玉西町"},"4313122":{"post_code":"4313122","prefecture":"SHIZUOKA KEN","city":"HAMAMATSU SHI HIGASHI KU","town":"ARITAMA MINAMIMACHI","perfecture_jp":"静岡県","jp_add_1":"浜松市東区","jp_add_2":"有玉南町"},"4313112":{"post_code":"4313112","prefecture":"SHIZUOKA KEN","city":"HAMAMATSU SHI HIGASHI KU","town":"OSHIMACHO","perfecture_jp":"静岡県","jp_add_1":"浜松市東区","jp_add_2":"大島町"},"4313113":{"post_code":"4313113","prefecture":"SHIZUOKA KEN","city":"HAMAMATSU SHI HIGASHI KU","town":"OSECHO","perfecture_jp":"静岡県","jp_add_1":"浜松市東区","jp_add_2":"大瀬町"},"4313106":{"post_code":"4313106","prefecture":"SHIZUOKA KEN","city":"HAMAMATSU SHI HIGASHI KU","town":"KASAI KAMIMACHI","perfecture_jp":"静岡県","jp_add_1":"浜松市東区","jp_add_2":"笠井上町"},"4313105":{"post_code":"4313105","prefecture":"SHIZUOKA KEN","city":"HAMAMATSU SHI HIGASHI KU","town":"KASAI SHINDENCHO","perfecture_jp":"静岡県","jp_add_1":"浜松市東区","jp_add_2":"笠井新田町"},"4313107":{"post_code":"4313107","prefecture":"SHIZUOKA KEN","city":"HAMAMATSU SHI HIGASHI KU","town":"KASAICHO","perfecture_jp":"静岡県","jp_add_1":"浜松市東区","jp_add_2":"笠井町"},"4313104":{"post_code":"4313104","prefecture":"SHIZUOKA KEN","city":"HAMAMATSU SHI HIGASHI KU","town":"KIHEICHO","perfecture_jp":"静岡県","jp_add_1":"浜松市東区","jp_add_2":"貴平町"},"4313103":{"post_code":"4313103","prefecture":"SHIZUOKA KEN","city":"HAMAMATSU SHI HIGASHI KU","town":"JOKOCHO","perfecture_jp":"静岡県","jp_add_1":"浜松市東区","jp_add_2":"常光町"},"4313114":{"post_code":"4313114","prefecture":"SHIZUOKA KEN","city":"HAMAMATSU SHI HIGASHI KU","town":"SEKISHICHO","perfecture_jp":"静岡県","jp_add_1":"浜松市東区","jp_add_2":"積志町"},"4313108":{"post_code":"4313108","prefecture":"SHIZUOKA KEN","city":"HAMAMATSU SHI HIGASHI KU","town":"TSUNETAKECHO","perfecture_jp":"静岡県","jp_add_1":"浜松市東区","jp_add_2":"恒武町"},"4313102":{"post_code":"4313102","prefecture":"SHIZUOKA KEN","city":"HAMAMATSU SHI HIGASHI KU","town":"TOYONISHICHO","perfecture_jp":"静岡県","jp_add_1":"浜松市東区","jp_add_2":"豊西町"},"4313111":{"post_code":"4313111","prefecture":"SHIZUOKA KEN","city":"HAMAMATSU SHI HIGASHI KU","town":"NAKAGORICHO","perfecture_jp":"静岡県","jp_add_1":"浜松市東区","jp_add_2":"中郡町"},"4313115":{"post_code":"4313115","prefecture":"SHIZUOKA KEN","city":"HAMAMATSU SHI HIGASHI KU","town":"NISHIGASAKICHO","perfecture_jp":"静岡県","jp_add_1":"浜松市東区","jp_add_2":"西ケ崎町"},"4313124":{"post_code":"4313124","prefecture":"SHIZUOKA KEN","city":"HAMAMATSU SHI HIGASHI KU","town":"HANDACHO","perfecture_jp":"静岡県","jp_add_1":"浜松市東区","jp_add_2":"半田町"},"4313125":{"post_code":"4313125","prefecture":"SHIZUOKA KEN","city":"HAMAMATSU SHI HIGASHI KU","town":"HANDAYAMA","perfecture_jp":"静岡県","jp_add_1":"浜松市東区","jp_add_2":"半田山"},"4313101":{"post_code":"4313101","prefecture":"SHIZUOKA KEN","city":"HAMAMATSU SHI HIGASHI KU","town":"YUTAKACHO","perfecture_jp":"静岡県","jp_add_1":"浜松市東区","jp_add_2":"豊町"},"4311111":{"post_code":"4311111","prefecture":"SHIZUOKA KEN","city":"HAMAMATSU SHI NISHI KU","town":"ISAJICHO","perfecture_jp":"静岡県","jp_add_1":"浜松市西区","jp_add_2":"伊左地町"},"4311112":{"post_code":"4311112","prefecture":"SHIZUOKA KEN","city":"HAMAMATSU SHI NISHI KU","town":"OHITOMICHO","perfecture_jp":"静岡県","jp_add_1":"浜松市西区","jp_add_2":"大人見町"},"4311102":{"post_code":"4311102","prefecture":"SHIZUOKA KEN","city":"HAMAMATSU SHI NISHI KU","town":"OYAMACHO","perfecture_jp":"静岡県","jp_add_1":"浜松市西区","jp_add_2":"大山町"},"4311209":{"post_code":"4311209","prefecture":"SHIZUOKA KEN","city":"HAMAMATSU SHI NISHI KU","town":"KANZANJICHO","perfecture_jp":"静岡県","jp_add_1":"浜松市西区","jp_add_2":"舘山寺町"},"4311205":{"post_code":"4311205","prefecture":"SHIZUOKA KEN","city":"HAMAMATSU SHI NISHI KU","town":"KYOWACHO","perfecture_jp":"静岡県","jp_add_1":"浜松市西区","jp_add_2":"協和町"},"4311202":{"post_code":"4311202","prefecture":"SHIZUOKA KEN","city":"HAMAMATSU SHI NISHI KU","town":"KUREMATSUCHO","perfecture_jp":"静岡県","jp_add_1":"浜松市西区","jp_add_2":"呉松町"},"4311103":{"post_code":"4311103","prefecture":"SHIZUOKA KEN","city":"HAMAMATSU SHI NISHI KU","town":"KOTOCHO","perfecture_jp":"静岡県","jp_add_1":"浜松市西区","jp_add_2":"湖東町"},"4311113":{"post_code":"4311113","prefecture":"SHIZUOKA KEN","city":"HAMAMATSU SHI NISHI KU","town":"KOHITOMICHO","perfecture_jp":"静岡県","jp_add_1":"浜松市西区","jp_add_2":"古人見町"},"4311104":{"post_code":"4311104","prefecture":"SHIZUOKA KEN","city":"HAMAMATSU SHI NISHI KU","town":"SAKURADAI","perfecture_jp":"静岡県","jp_add_1":"浜松市西区","jp_add_2":"桜台"},"4311114":{"post_code":"4311114","prefecture":"SHIZUOKA KEN","city":"HAMAMATSU SHI NISHI KU","town":"SAHAMACHO","perfecture_jp":"静岡県","jp_add_1":"浜松市西区","jp_add_2":"佐浜町"},"4310201":{"post_code":"4310201","prefecture":"SHIZUOKA KEN","city":"HAMAMATSU SHI NISHI KU","town":"SHINOHARACHO","perfecture_jp":"静岡県","jp_add_1":"浜松市西区","jp_add_2":"篠原町"},"4311208":{"post_code":"4311208","prefecture":"SHIZUOKA KEN","city":"HAMAMATSU SHI NISHI KU","town":"SHONAICHO","perfecture_jp":"静岡県","jp_add_1":"浜松市西区","jp_add_2":"庄内町"},"4311206":{"post_code":"4311206","prefecture":"SHIZUOKA KEN","city":"HAMAMATSU SHI NISHI KU","town":"SHOWACHO","perfecture_jp":"静岡県","jp_add_1":"浜松市西区","jp_add_2":"庄和町"},"4311204":{"post_code":"4311204","prefecture":"SHIZUOKA KEN","city":"HAMAMATSU SHI NISHI KU","town":"SHIRASUCHO","perfecture_jp":"静岡県","jp_add_1":"浜松市西区","jp_add_2":"白洲町"},"4310202":{"post_code":"4310202","prefecture":"SHIZUOKA KEN","city":"HAMAMATSU SHI NISHI KU","town":"TSUBOICHO","perfecture_jp":"静岡県","jp_add_1":"浜松市西区","jp_add_2":"坪井町"},"4311203":{"post_code":"4311203","prefecture":"SHIZUOKA KEN","city":"HAMAMATSU SHI NISHI KU","town":"HIRAMATSUCHO","perfecture_jp":"静岡県","jp_add_1":"浜松市西区","jp_add_2":"平松町"},"4311201":{"post_code":"4311201","prefecture":"SHIZUOKA KEN","city":"HAMAMATSU SHI NISHI KU","town":"FUKAHAGICHO","perfecture_jp":"静岡県","jp_add_1":"浜松市西区","jp_add_2":"深萩町"},"4310212":{"post_code":"4310212","prefecture":"SHIZUOKA KEN","city":"HAMAMATSU SHI NISHI KU","town":"MAISAKACHO CHOJUSHINDEN","perfecture_jp":"静岡県","jp_add_1":"浜松市西区","jp_add_2":"舞阪町長十新田"},"4310213":{"post_code":"4310213","prefecture":"SHIZUOKA KEN","city":"HAMAMATSU SHI NISHI KU","town":"MAISAKACHO HAMADA","perfecture_jp":"静岡県","jp_add_1":"浜松市西区","jp_add_2":"舞阪町浜田"},"4310214":{"post_code":"4310214","prefecture":"SHIZUOKA KEN","city":"HAMAMATSU SHI NISHI KU","town":"MAISAKACHO BENTENJIMA","perfecture_jp":"静岡県","jp_add_1":"浜松市西区","jp_add_2":"舞阪町弁天島"},"4310211":{"post_code":"4310211","prefecture":"SHIZUOKA KEN","city":"HAMAMATSU SHI NISHI KU","town":"MAISAKACHO MAISAKA","perfecture_jp":"静岡県","jp_add_1":"浜松市西区","jp_add_2":"舞阪町舞阪"},"4310203":{"post_code":"4310203","prefecture":"SHIZUOKA KEN","city":"HAMAMATSU SHI NISHI KU","town":"MAGORICHO","perfecture_jp":"静岡県","jp_add_1":"浜松市西区","jp_add_2":"馬郡町"},"4311207":{"post_code":"4311207","prefecture":"SHIZUOKA KEN","city":"HAMAMATSU SHI NISHI KU","town":"MURAKUSHICHO","perfecture_jp":"静岡県","jp_add_1":"浜松市西区","jp_add_2":"村櫛町"},"4310103":{"post_code":"4310103","prefecture":"SHIZUOKA KEN","city":"HAMAMATSU SHI NISHI KU","town":"YUTO","perfecture_jp":"静岡県","jp_add_1":"浜松市西区","jp_add_2":"雄踏"},"4310102":{"post_code":"4310102","prefecture":"SHIZUOKA KEN","city":"HAMAMATSU SHI NISHI KU","town":"YUTOCHO UBUMI","perfecture_jp":"静岡県","jp_add_1":"浜松市西区","jp_add_2":"雄踏町宇布見"},"4310101":{"post_code":"4310101","prefecture":"SHIZUOKA KEN","city":"HAMAMATSU SHI NISHI KU","town":"YUTOCHO YAMAZAKI","perfecture_jp":"静岡県","jp_add_1":"浜松市西区","jp_add_2":"雄踏町山崎"},"4311101":{"post_code":"4311101","prefecture":"SHIZUOKA KEN","city":"HAMAMATSU SHI NISHI KU","town":"WAKOCHO","perfecture_jp":"静岡県","jp_add_1":"浜松市西区","jp_add_2":"和光町"},"4311115":{"post_code":"4311115","prefecture":"SHIZUOKA KEN","city":"HAMAMATSU SHI NISHI KU","town":"WAJICHO","perfecture_jp":"静岡県","jp_add_1":"浜松市西区","jp_add_2":"和地町"},"4312212":{"post_code":"4312212","prefecture":"SHIZUOKA KEN","city":"HAMAMATSU SHI KITA KU","town":"INASACHO IINOYA","perfecture_jp":"静岡県","jp_add_1":"浜松市北区","jp_add_2":"引佐町井伊谷"},"4312205":{"post_code":"4312205","prefecture":"SHIZUOKA KEN","city":"HAMAMATSU SHI KITA KU","town":"INASACHO IDAIRA","perfecture_jp":"静岡県","jp_add_1":"浜松市北区","jp_add_2":"引佐町伊平"},"4312224":{"post_code":"4312224","prefecture":"SHIZUOKA KEN","city":"HAMAMATSU SHI KITA KU","town":"INASACHO OKUYAMA","perfecture_jp":"静岡県","jp_add_1":"浜松市北区","jp_add_2":"引佐町奥山"},"4312213":{"post_code":"4312213","prefecture":"SHIZUOKA KEN","city":"HAMAMATSU SHI KITA KU","town":"INASACHO KANASASHI","perfecture_jp":"静岡県","jp_add_1":"浜松市北区","jp_add_2":"引佐町金指"},"4312225":{"post_code":"4312225","prefecture":"SHIZUOKA KEN","city":"HAMAMATSU SHI KITA KU","town":"INASACHO KARISHUKU","perfecture_jp":"静岡県","jp_add_1":"浜松市北区","jp_add_2":"引佐町狩宿"},"4312202":{"post_code":"4312202","prefecture":"SHIZUOKA KEN","city":"HAMAMATSU SHI KITA KU","town":"INASACHO KAWANA","perfecture_jp":"静岡県","jp_add_1":"浜松市北区","jp_add_2":"引佐町川名"},"4312222":{"post_code":"4312222","prefecture":"SHIZUOKA KEN","city":"HAMAMATSU SHI KITA KU","town":"INASACHO KUROBUCHI","perfecture_jp":"静岡県","jp_add_1":"浜松市北区","jp_add_2":"引佐町黒渕"},"4312537":{"post_code":"4312537","prefecture":"SHIZUOKA KEN","city":"HAMAMATSU SHI KITA KU","town":"INASACHO SHIBUKAWA","perfecture_jp":"静岡県","jp_add_1":"浜松市北区","jp_add_2":"引佐町渋川"},"4312533":{"post_code":"4312533","prefecture":"SHIZUOKA KEN","city":"HAMAMATSU SHI KITA KU","town":"INASACHO SHIHOJO","perfecture_jp":"静岡県","jp_add_1":"浜松市北区","jp_add_2":"引佐町四方浄"},"4312215":{"post_code":"4312215","prefecture":"SHIZUOKA KEN","city":"HAMAMATSU SHI KITA KU","town":"INASACHO SHIRAIWA","perfecture_jp":"静岡県","jp_add_1":"浜松市北区","jp_add_2":"引佐町白岩"},"4312536":{"post_code":"4312536","prefecture":"SHIZUOKA KEN","city":"HAMAMATSU SHI KITA KU","town":"INASACHO TAZAWA","perfecture_jp":"静岡県","jp_add_1":"浜松市北区","jp_add_2":"引佐町田沢"},"4312221":{"post_code":"4312221","prefecture":"SHIZUOKA KEN","city":"HAMAMATSU SHI KITA KU","town":"INASACHO TABATAKE","perfecture_jp":"静岡県","jp_add_1":"浜松市北区","jp_add_2":"引佐町田畑"},"4312223":{"post_code":"4312223","prefecture":"SHIZUOKA KEN","city":"HAMAMATSU SHI KITA KU","town":"INASACHO TOCHIKUBO","perfecture_jp":"静岡県","jp_add_1":"浜松市北区","jp_add_2":"引佐町栃窪"},"4312204":{"post_code":"4312204","prefecture":"SHIZUOKA KEN","city":"HAMAMATSU SHI KITA KU","town":"INASACHO TOKKA","perfecture_jp":"静岡県","jp_add_1":"浜松市北区","jp_add_2":"引佐町兎荷"},"4312532":{"post_code":"4312532","prefecture":"SHIZUOKA KEN","city":"HAMAMATSU SHI KITA KU","town":"INASACHO NISHIKURUMEKI","perfecture_jp":"静岡県","jp_add_1":"浜松市北区","jp_add_2":"引佐町西久留女木"},"4312206":{"post_code":"4312206","prefecture":"SHIZUOKA KEN","city":"HAMAMATSU SHI KITA KU","town":"INASACHO NISHIKURODA","perfecture_jp":"静岡県","jp_add_1":"浜松市北区","jp_add_2":"引佐町西黒田"},"4312211":{"post_code":"4312211","prefecture":"SHIZUOKA KEN","city":"HAMAMATSU SHI KITA KU","town":"INASACHO HANADAIRA","perfecture_jp":"静岡県","jp_add_1":"浜松市北区","jp_add_2":"引佐町花平"},"4312531":{"post_code":"4312531","prefecture":"SHIZUOKA KEN","city":"HAMAMATSU SHI KITA KU","town":"INASACHO HIGASHIKURUMEKI(372-799-BA","perfecture_jp":"静岡県","jp_add_1":"浜松市北区","jp_add_2":"引佐町東久留女木"},"4312201":{"post_code":"4312201","prefecture":"SHIZUOKA KEN","city":"HAMAMATSU SHI KITA KU","town":"INASACHO HIGASHIKURUMEKI(SONOTA)","perfecture_jp":"静岡県","jp_add_1":"浜松市北区","jp_add_2":"引佐町東久留女木"},"4312207":{"post_code":"4312207","prefecture":"SHIZUOKA KEN","city":"HAMAMATSU SHI KITA KU","town":"INASACHO HIGASHIKURODA","perfecture_jp":"静岡県","jp_add_1":"浜松市北区","jp_add_2":"引佐町東黒田"},"4312534":{"post_code":"4312534","prefecture":"SHIZUOKA KEN","city":"HAMAMATSU SHI KITA KU","town":"INASACHO BESSHIYO","perfecture_jp":"静岡県","jp_add_1":"浜松市北区","jp_add_2":"引佐町別所"},"4312535":{"post_code":"4312535","prefecture":"SHIZUOKA KEN","city":"HAMAMATSU SHI KITA KU","town":"INASACHO MATOBA","perfecture_jp":"静岡県","jp_add_1":"浜松市北区","jp_add_2":"引佐町的場"},"4312203":{"post_code":"4312203","prefecture":"SHIZUOKA KEN","city":"HAMAMATSU SHI KITA KU","town":"INASACHO MITAKE","perfecture_jp":"静岡県","jp_add_1":"浜松市北区","jp_add_2":"引佐町三岳"},"4312226":{"post_code":"4312226","prefecture":"SHIZUOKA KEN","city":"HAMAMATSU SHI KITA KU","town":"INASACHO YAZAWA","perfecture_jp":"静岡県","jp_add_1":"浜松市北区","jp_add_2":"引佐町谷沢"},"4312214":{"post_code":"4312214","prefecture":"SHIZUOKA KEN","city":"HAMAMATSU SHI KITA KU","town":"INASACHO YOKO","perfecture_jp":"静岡県","jp_add_1":"浜松市北区","jp_add_2":"引佐町横尾"},"4312216":{"post_code":"4312216","prefecture":"SHIZUOKA KEN","city":"HAMAMATSU SHI KITA KU","town":"JINGUJICHO","perfecture_jp":"静岡県","jp_add_1":"浜松市北区","jp_add_2":"神宮寺町"},"4312103":{"post_code":"4312103","prefecture":"SHIZUOKA KEN","city":"HAMAMATSU SHI KITA KU","town":"SHIMMIYAKODA","perfecture_jp":"静岡県","jp_add_1":"浜松市北区","jp_add_2":"新都田"},"4312101":{"post_code":"4312101","prefecture":"SHIZUOKA KEN","city":"HAMAMATSU SHI KITA KU","town":"TAKISAWACHO","perfecture_jp":"静岡県","jp_add_1":"浜松市北区","jp_add_2":"滝沢町"},"4311301":{"post_code":"4311301","prefecture":"SHIZUOKA KEN","city":"HAMAMATSU SHI KITA KU","town":"HOSOECHO ONO","perfecture_jp":"静岡県","jp_add_1":"浜松市北区","jp_add_2":"細江町小野"},"4311305":{"post_code":"4311305","prefecture":"SHIZUOKA KEN","city":"HAMAMATSU SHI KITA KU","town":"HOSOECHO KIGA","perfecture_jp":"静岡県","jp_add_1":"浜松市北区","jp_add_2":"細江町気賀"},"4311304":{"post_code":"4311304","prefecture":"SHIZUOKA KEN","city":"HAMAMATSU SHI KITA KU","town":"HOSOECHO NAKAGAWA","perfecture_jp":"静岡県","jp_add_1":"浜松市北区","jp_add_2":"細江町中川"},"4311302":{"post_code":"4311302","prefecture":"SHIZUOKA KEN","city":"HAMAMATSU SHI KITA KU","town":"HOSOECHO HIROKA","perfecture_jp":"静岡県","jp_add_1":"浜松市北区","jp_add_2":"細江町広岡"},"4311303":{"post_code":"4311303","prefecture":"SHIZUOKA KEN","city":"HAMAMATSU SHI KITA KU","town":"HOSOECHO MIWA","perfecture_jp":"静岡県","jp_add_1":"浜松市北区","jp_add_2":"細江町三和"},"4311404":{"post_code":"4311404","prefecture":"SHIZUOKA KEN","city":"HAMAMATSU SHI KITA KU","town":"MIKKABICHO USHI","perfecture_jp":"静岡県","jp_add_1":"浜松市北区","jp_add_2":"三ヶ日町宇志"},"4311403":{"post_code":"4311403","prefecture":"SHIZUOKA KEN","city":"HAMAMATSU SHI KITA KU","town":"MIKKABICHO OSAKI","perfecture_jp":"静岡県","jp_add_1":"浜松市北区","jp_add_2":"三ヶ日町大崎"},"4311407":{"post_code":"4311407","prefecture":"SHIZUOKA KEN","city":"HAMAMATSU SHI KITA KU","town":"MIKKABICHO OYA","perfecture_jp":"静岡県","jp_add_1":"浜松市北区","jp_add_2":"三ヶ日町大谷"},"4311415":{"post_code":"4311415","prefecture":"SHIZUOKA KEN","city":"HAMAMATSU SHI KITA KU","town":"MIKKABICHO OKAMOTO","perfecture_jp":"静岡県","jp_add_1":"浜松市北区","jp_add_2":"三ヶ日町岡本"},"4311425":{"post_code":"4311425","prefecture":"SHIZUOKA KEN","city":"HAMAMATSU SHI KITA KU","town":"MIKKABICHO KAMIONA","perfecture_jp":"静岡県","jp_add_1":"浜松市北区","jp_add_2":"三ヶ日町上尾奈"},"4311406":{"post_code":"4311406","prefecture":"SHIZUOKA KEN","city":"HAMAMATSU SHI KITA KU","town":"MIKKABICHO KOMABA","perfecture_jp":"静岡県","jp_add_1":"浜松市北区","jp_add_2":"三ヶ日町駒場"},"4311401":{"post_code":"4311401","prefecture":"SHIZUOKA KEN","city":"HAMAMATSU SHI KITA KU","town":"MIKKABICHO SAKUME","perfecture_jp":"静岡県","jp_add_1":"浜松市北区","jp_add_2":"三ヶ日町佐久米"},"4311424":{"post_code":"4311424","prefecture":"SHIZUOKA KEN","city":"HAMAMATSU SHI KITA KU","town":"MIKKABICHO SHIMONA","perfecture_jp":"静岡県","jp_add_1":"浜松市北区","jp_add_2":"三ヶ日町下尾奈"},"4311412":{"post_code":"4311412","prefecture":"SHIZUOKA KEN","city":"HAMAMATSU SHI KITA KU","town":"MIKKABICHO TADAKI","perfecture_jp":"静岡県","jp_add_1":"浜松市北区","jp_add_2":"三ヶ日町只木"},"4311402":{"post_code":"4311402","prefecture":"SHIZUOKA KEN","city":"HAMAMATSU SHI KITA KU","town":"MIKKABICHO TSUZUKI","perfecture_jp":"静岡県","jp_add_1":"浜松市北区","jp_add_2":"三ヶ日町都筑"},"4311405":{"post_code":"4311405","prefecture":"SHIZUOKA KEN","city":"HAMAMATSU SHI KITA KU","town":"MIKKABICHO TSUZUSAKI","perfecture_jp":"静岡県","jp_add_1":"浜松市北区","jp_add_2":"三ヶ日町津々崎"},"4311416":{"post_code":"4311416","prefecture":"SHIZUOKA KEN","city":"HAMAMATSU SHI KITA KU","town":"MIKKABICHO TSURI","perfecture_jp":"静岡県","jp_add_1":"浜松市北区","jp_add_2":"三ヶ日町釣"},"4311423":{"post_code":"4311423","prefecture":"SHIZUOKA KEN","city":"HAMAMATSU SHI KITA KU","town":"MIKKABICHO NUESHIRO","perfecture_jp":"静岡県","jp_add_1":"浜松市北区","jp_add_2":"三ヶ日町鵺代"},"4311422":{"post_code":"4311422","prefecture":"SHIZUOKA KEN","city":"HAMAMATSU SHI KITA KU","town":"MIKKABICHO HIBISAWA","perfecture_jp":"静岡県","jp_add_1":"浜松市北区","jp_add_2":"三ヶ日町日比沢"},"4311417":{"post_code":"4311417","prefecture":"SHIZUOKA KEN","city":"HAMAMATSU SHI KITA KU","town":"MIKKABICHO HIRAYAMA","perfecture_jp":"静岡県","jp_add_1":"浜松市北区","jp_add_2":"三ヶ日町平山"},"4311411":{"post_code":"4311411","prefecture":"SHIZUOKA KEN","city":"HAMAMATSU SHI KITA KU","town":"MIKKABICHO FUKUNAGA","perfecture_jp":"静岡県","jp_add_1":"浜松市北区","jp_add_2":"三ヶ日町福長"},"4311421":{"post_code":"4311421","prefecture":"SHIZUOKA KEN","city":"HAMAMATSU SHI KITA KU","town":"MIKKABICHO HONZAKA","perfecture_jp":"静岡県","jp_add_1":"浜松市北区","jp_add_2":"三ヶ日町本坂"},"4311413":{"post_code":"4311413","prefecture":"SHIZUOKA KEN","city":"HAMAMATSU SHI KITA KU","town":"MIKKABICHO MAKAYA","perfecture_jp":"静岡県","jp_add_1":"浜松市北区","jp_add_2":"三ヶ日町摩訶耶"},"4311414":{"post_code":"4311414","prefecture":"SHIZUOKA KEN","city":"HAMAMATSU SHI KITA KU","town":"MIKKABICHO MIKKABI","perfecture_jp":"静岡県","jp_add_1":"浜松市北区","jp_add_2":"三ヶ日町三ヶ日"},"4312102":{"post_code":"4312102","prefecture":"SHIZUOKA KEN","city":"HAMAMATSU SHI KITA KU","town":"MIYAKODACHO","perfecture_jp":"静岡県","jp_add_1":"浜松市北区","jp_add_2":"都田町"},"4312104":{"post_code":"4312104","prefecture":"SHIZUOKA KEN","city":"HAMAMATSU SHI KITA KU","town":"WASHIZAWACHO","perfecture_jp":"静岡県","jp_add_1":"浜松市北区","jp_add_2":"鷲沢町"},"4313425":{"post_code":"4313425","prefecture":"SHIZUOKA KEN","city":"HAMAMATSU SHI TENRYU KU","town":"AOYA","perfecture_jp":"静岡県","jp_add_1":"浜松市天竜区","jp_add_2":"青谷"},"4313535":{"post_code":"4313535","prefecture":"SHIZUOKA KEN","city":"HAMAMATSU SHI TENRYU KU","town":"ASHIKUBO","perfecture_jp":"静岡県","jp_add_1":"浜松市天竜区","jp_add_2":"芦窪"},"4313536":{"post_code":"4313536","prefecture":"SHIZUOKA KEN","city":"HAMAMATSU SHI TENRYU KU","town":"ATERA","perfecture_jp":"静岡県","jp_add_1":"浜松市天竜区","jp_add_2":"阿寺"},"4313428":{"post_code":"4313428","prefecture":"SHIZUOKA KEN","city":"HAMAMATSU SHI TENRYU KU","town":"ISHIGAMI","perfecture_jp":"静岡県","jp_add_1":"浜松市天竜区","jp_add_2":"石神"},"4313762":{"post_code":"4313762","prefecture":"SHIZUOKA KEN","city":"HAMAMATSU SHI TENRYU KU","town":"ISUKA","perfecture_jp":"静岡県","jp_add_1":"浜松市天竜区","jp_add_2":"伊砂"},"4313755":{"post_code":"4313755","prefecture":"SHIZUOKA KEN","city":"HAMAMATSU SHI TENRYU KU","town":"OKAWA","perfecture_jp":"静岡県","jp_add_1":"浜松市天竜区","jp_add_2":"大川"},"4313642":{"post_code":"4313642","prefecture":"SHIZUOKA KEN","city":"HAMAMATSU SHI TENRYU KU","town":"OGURIYASU","perfecture_jp":"静岡県","jp_add_1":"浜松市天竜区","jp_add_2":"大栗安"},"4313305":{"post_code":"4313305","prefecture":"SHIZUOKA KEN","city":"HAMAMATSU SHI TENRYU KU","town":"OYA","perfecture_jp":"静岡県","jp_add_1":"浜松市天竜区","jp_add_2":"大谷"},"4313752":{"post_code":"4313752","prefecture":"SHIZUOKA KEN","city":"HAMAMATSU SHI TENRYU KU","town":"OGAWA","perfecture_jp":"静岡県","jp_add_1":"浜松市天竜区","jp_add_2":"小川"},"4313427":{"post_code":"4313427","prefecture":"SHIZUOKA KEN","city":"HAMAMATSU SHI TENRYU KU","town":"KAMINO","perfecture_jp":"静岡県","jp_add_1":"浜松市天竜区","jp_add_2":"上野"},"4313643":{"post_code":"4313643","prefecture":"SHIZUOKA KEN","city":"HAMAMATSU SHI TENRYU KU","town":"KANZAWA","perfecture_jp":"静岡県","jp_add_1":"浜松市天竜区","jp_add_2":"神沢"},"4313641":{"post_code":"4313641","prefecture":"SHIZUOKA KEN","city":"HAMAMATSU SHI TENRYU KU","town":"KUMA","perfecture_jp":"静岡県","jp_add_1":"浜松市天竜区","jp_add_2":"熊"},"4313753":{"post_code":"4313753","prefecture":"SHIZUOKA KEN","city":"HAMAMATSU SHI TENRYU KU","town":"SAKU","perfecture_jp":"静岡県","jp_add_1":"浜松市天竜区","jp_add_2":"佐久"},"4314111":{"post_code":"4314111","prefecture":"SHIZUOKA KEN","city":"HAMAMATSU SHI TENRYU KU","town":"SAKUMACHO AIZUKI","perfecture_jp":"静岡県","jp_add_1":"浜松市天竜区","jp_add_2":"佐久間町相月"},"4313906":{"post_code":"4313906","prefecture":"SHIZUOKA KEN","city":"HAMAMATSU SHI TENRYU KU","town":"SAKUMACHO URAKAWA","perfecture_jp":"静岡県","jp_add_1":"浜松市天竜区","jp_add_2":"佐久間町浦川"},"4313902":{"post_code":"4313902","prefecture":"SHIZUOKA KEN","city":"HAMAMATSU SHI TENRYU KU","town":"SAKUMACHO OI","perfecture_jp":"静岡県","jp_add_1":"浜松市天竜区","jp_add_2":"佐久間町大井"},"4314112":{"post_code":"4314112","prefecture":"SHIZUOKA KEN","city":"HAMAMATSU SHI TENRYU KU","town":"SAKUMACHO OKURYOKE","perfecture_jp":"静岡県","jp_add_1":"浜松市天竜区","jp_add_2":"佐久間町奥領家"},"4313903":{"post_code":"4313903","prefecture":"SHIZUOKA KEN","city":"HAMAMATSU SHI TENRYU KU","town":"SAKUMACHO KAMIHIRAYAMA","perfecture_jp":"静岡県","jp_add_1":"浜松市天竜区","jp_add_2":"佐久間町上平山"},"4313907":{"post_code":"4313907","prefecture":"SHIZUOKA KEN","city":"HAMAMATSU SHI TENRYU KU","town":"SAKUMACHO KAWAI","perfecture_jp":"静岡県","jp_add_1":"浜松市天竜区","jp_add_2":"佐久間町川合"},"4313901":{"post_code":"4313901","prefecture":"SHIZUOKA KEN","city":"HAMAMATSU SHI TENRYU KU","town":"SAKUMACHO SAKUMA","perfecture_jp":"静岡県","jp_add_1":"浜松市天竜区","jp_add_2":"佐久間町佐久間"},"4313904":{"post_code":"4313904","prefecture":"SHIZUOKA KEN","city":"HAMAMATSU SHI TENRYU KU","town":"SAKUMACHO TOGUCHI","perfecture_jp":"静岡県","jp_add_1":"浜松市天竜区","jp_add_2":"佐久間町戸口"},"4313908":{"post_code":"4313908","prefecture":"SHIZUOKA KEN","city":"HAMAMATSU SHI TENRYU KU","town":"SAKUMACHO NAKABE","perfecture_jp":"静岡県","jp_add_1":"浜松市天竜区","jp_add_2":"佐久間町中部"},"4313905":{"post_code":"4313905","prefecture":"SHIZUOKA KEN","city":"HAMAMATSU SHI TENRYU KU","town":"SAKUMACHO HAMBA","perfecture_jp":"静岡県","jp_add_1":"浜松市天竜区","jp_add_2":"佐久間町半場"},"4313304":{"post_code":"4313304","prefecture":"SHIZUOKA KEN","city":"HAMAMATSU SHI TENRYU KU","town":"JIROHACHISHINDEN","perfecture_jp":"静岡県","jp_add_1":"浜松市天竜区","jp_add_2":"次郎八新田"},"4313754":{"post_code":"4313754","prefecture":"SHIZUOKA KEN","city":"HAMAMATSU SHI TENRYU KU","town":"SOZU","perfecture_jp":"静岡県","jp_add_1":"浜松市天竜区","jp_add_2":"相津"},"4313302":{"post_code":"4313302","prefecture":"SHIZUOKA KEN","city":"HAMAMATSU SHI TENRYU KU","town":"TADARAI","perfecture_jp":"静岡県","jp_add_1":"浜松市天竜区","jp_add_2":"只来"},"4313804":{"post_code":"4313804","prefecture":"SHIZUOKA KEN","city":"HAMAMATSU SHI TENRYU KU","town":"TATSUYAMACHO OMINE","perfecture_jp":"静岡県","jp_add_1":"浜松市天竜区","jp_add_2":"龍山町大嶺"},"4313802":{"post_code":"4313802","prefecture":"SHIZUOKA KEN","city":"HAMAMATSU SHI TENRYU KU","town":"TATSUYAMACHO SHIMOHIRAYAMA","perfecture_jp":"静岡県","jp_add_1":"浜松市天竜区","jp_add_2":"龍山町下平山"},"4313801":{"post_code":"4313801","prefecture":"SHIZUOKA KEN","city":"HAMAMATSU SHI TENRYU KU","town":"TATSUYAMACHO SEJIRI","perfecture_jp":"静岡県","jp_add_1":"浜松市天竜区","jp_add_2":"龍山町瀬尻"},"4313803":{"post_code":"4313803","prefecture":"SHIZUOKA KEN","city":"HAMAMATSU SHI TENRYU KU","town":"TATSUYAMACHO TOKURA","perfecture_jp":"静岡県","jp_add_1":"浜松市天竜区","jp_add_2":"龍山町戸倉"},"4313763":{"post_code":"4313763","prefecture":"SHIZUOKA KEN","city":"HAMAMATSU SHI TENRYU KU","town":"TSUKI","perfecture_jp":"静岡県","jp_add_1":"浜松市天竜区","jp_add_2":"月"},"4313533":{"post_code":"4313533","prefecture":"SHIZUOKA KEN","city":"HAMAMATSU SHI TENRYU KU","town":"NAGASAWA","perfecture_jp":"静岡県","jp_add_1":"浜松市天竜区","jp_add_2":"長沢"},"4313761":{"post_code":"4313761","prefecture":"SHIZUOKA KEN","city":"HAMAMATSU SHI TENRYU KU","town":"NISHIUNNA","perfecture_jp":"静岡県","jp_add_1":"浜松市天竜区","jp_add_2":"西雲名"},"4313532":{"post_code":"4313532","prefecture":"SHIZUOKA KEN","city":"HAMAMATSU SHI TENRYU KU","town":"NISHIFUJIDAIRA","perfecture_jp":"静岡県","jp_add_1":"浜松市天竜区","jp_add_2":"西藤平"},"4313421":{"post_code":"4313421","prefecture":"SHIZUOKA KEN","city":"HAMAMATSU SHI TENRYU KU","town":"HIARI","perfecture_jp":"静岡県","jp_add_1":"浜松市天竜区","jp_add_2":"日明"},"4313751":{"post_code":"4313751","prefecture":"SHIZUOKA KEN","city":"HAMAMATSU SHI TENRYU KU","town":"HIGASHIUNNA","perfecture_jp":"静岡県","jp_add_1":"浜松市天竜区","jp_add_2":"東雲名"},"4313531":{"post_code":"4313531","prefecture":"SHIZUOKA KEN","city":"HAMAMATSU SHI TENRYU KU","town":"HIGASHIFUJIDAIRA","perfecture_jp":"静岡県","jp_add_1":"浜松市天竜区","jp_add_2":"東藤平"},"4313311":{"post_code":"4313311","prefecture":"SHIZUOKA KEN","city":"HAMAMATSU SHI TENRYU KU","town":"FUTAMATACHO AKURA","perfecture_jp":"静岡県","jp_add_1":"浜松市天竜区","jp_add_2":"二俣町阿蔵"},"4313315":{"post_code":"4313315","prefecture":"SHIZUOKA KEN","city":"HAMAMATSU SHI TENRYU KU","town":"FUTAMATACHO OSONO","perfecture_jp":"静岡県","jp_add_1":"浜松市天竜区","jp_add_2":"二俣町大園"},"4313313":{"post_code":"4313313","prefecture":"SHIZUOKA KEN","city":"HAMAMATSU SHI TENRYU KU","town":"FUTAMATACHO KAJIMA","perfecture_jp":"静岡県","jp_add_1":"浜松市天竜区","jp_add_2":"二俣町鹿島"},"4313314":{"post_code":"4313314","prefecture":"SHIZUOKA KEN","city":"HAMAMATSU SHI TENRYU KU","town":"FUTAMATACHO FUTAMATA","perfecture_jp":"静岡県","jp_add_1":"浜松市天竜区","jp_add_2":"二俣町二俣"},"4313312":{"post_code":"4313312","prefecture":"SHIZUOKA KEN","city":"HAMAMATSU SHI TENRYU KU","town":"FUTAMATACHO MINAMIKAJIMA","perfecture_jp":"静岡県","jp_add_1":"浜松市天竜区","jp_add_2":"二俣町南鹿島"},"4313534":{"post_code":"4313534","prefecture":"SHIZUOKA KEN","city":"HAMAMATSU SHI TENRYU KU","town":"FUTOKOROYAMA","perfecture_jp":"静岡県","jp_add_1":"浜松市天竜区","jp_add_2":"懐山"},"4313306":{"post_code":"4313306","prefecture":"SHIZUOKA KEN","city":"HAMAMATSU SHI TENRYU KU","town":"FUNAGIRA","perfecture_jp":"静岡県","jp_add_1":"浜松市天竜区","jp_add_2":"船明"},"4314101":{"post_code":"4314101","prefecture":"SHIZUOKA KEN","city":"HAMAMATSU SHI TENRYU KU","town":"MISAKUBOCHO OKURYOKE","perfecture_jp":"静岡県","jp_add_1":"浜松市天竜区","jp_add_2":"水窪町奥領家"},"4314102":{"post_code":"4314102","prefecture":"SHIZUOKA KEN","city":"HAMAMATSU SHI TENRYU KU","town":"MISAKUBOCHO JITOGATA","perfecture_jp":"静岡県","jp_add_1":"浜松市天竜区","jp_add_2":"水窪町地頭方"},"4314103":{"post_code":"4314103","prefecture":"SHIZUOKA KEN","city":"HAMAMATSU SHI TENRYU KU","town":"MISAKUBOCHO YAMAZUMI","perfecture_jp":"静岡県","jp_add_1":"浜松市天竜区","jp_add_2":"水窪町山住"},"4313422":{"post_code":"4313422","prefecture":"SHIZUOKA KEN","city":"HAMAMATSU SHI TENRYU KU","town":"MINAZAWA","perfecture_jp":"静岡県","jp_add_1":"浜松市天竜区","jp_add_2":"米沢"},"4313303":{"post_code":"4313303","prefecture":"SHIZUOKA KEN","city":"HAMAMATSU SHI TENRYU KU","town":"YAMAHIGASHI","perfecture_jp":"静岡県","jp_add_1":"浜松市天竜区","jp_add_2":"山東"},"4313756":{"post_code":"4313756","prefecture":"SHIZUOKA KEN","city":"HAMAMATSU SHI TENRYU KU","town":"YAYAMA","perfecture_jp":"静岡県","jp_add_1":"浜松市天竜区","jp_add_2":"谷山"},"4313301":{"post_code":"4313301","prefecture":"SHIZUOKA KEN","city":"HAMAMATSU SHI TENRYU KU","town":"YOKOKAWA","perfecture_jp":"静岡県","jp_add_1":"浜松市天竜区","jp_add_2":"横川"},"4313764":{"post_code":"4313764","prefecture":"SHIZUOKA KEN","city":"HAMAMATSU SHI TENRYU KU","town":"YOKOYAMACHO","perfecture_jp":"静岡県","jp_add_1":"浜松市天竜区","jp_add_2":"横山町"},"4313426":{"post_code":"4313426","prefecture":"SHIZUOKA KEN","city":"HAMAMATSU SHI TENRYU KU","town":"RYOSHIMA","perfecture_jp":"静岡県","jp_add_1":"浜松市天竜区","jp_add_2":"両島"},"4313424":{"post_code":"4313424","prefecture":"SHIZUOKA KEN","city":"HAMAMATSU SHI TENRYU KU","town":"RYOKUKEIDAI","perfecture_jp":"静岡県","jp_add_1":"浜松市天竜区","jp_add_2":"緑恵台"},"4313423":{"post_code":"4313423","prefecture":"SHIZUOKA KEN","city":"HAMAMATSU SHI TENRYU KU","town":"WATAGASHIMA","perfecture_jp":"静岡県","jp_add_1":"浜松市天竜区","jp_add_2":"渡ケ島"},"4310400":{"post_code":"4310400","prefecture":"SHIZUOKA KEN","city":"KOSAI SHI","town":"IKANIKEISAIGANAIBAAI","perfecture_jp":"静岡県","jp_add_1":"湖西市","jp_add_2":""},"4310302":{"post_code":"4310302","prefecture":"SHIZUOKA KEN","city":"KOSAI SHI","town":"ARAICHO ARAI","perfecture_jp":"静岡県","jp_add_1":"湖西市","jp_add_2":"新居町新居"},"4310304":{"post_code":"4310304","prefecture":"SHIZUOKA KEN","city":"KOSAI SHI","town":"ARAICHO UCHIYAMA","perfecture_jp":"静岡県","jp_add_1":"湖西市","jp_add_2":"新居町内山"},"4310301":{"post_code":"4310301","prefecture":"SHIZUOKA KEN","city":"KOSAI SHI","town":"ARAICHO NAKANOGO","perfecture_jp":"静岡県","jp_add_1":"湖西市","jp_add_2":"新居町中之郷"},"4310303":{"post_code":"4310303","prefecture":"SHIZUOKA KEN","city":"KOSAI SHI","town":"ARAICHO HAMANA","perfecture_jp":"静岡県","jp_add_1":"湖西市","jp_add_2":"新居町浜名"},"4310411":{"post_code":"4310411","prefecture":"SHIZUOKA KEN","city":"KOSAI SHI","town":"IRIDE","perfecture_jp":"静岡県","jp_add_1":"湖西市","jp_add_2":"入出"},"4310412":{"post_code":"4310412","prefecture":"SHIZUOKA KEN","city":"KOSAI SHI","town":"UCHIURA","perfecture_jp":"静岡県","jp_add_1":"湖西市","jp_add_2":"内浦"},"4310425":{"post_code":"4310425","prefecture":"SHIZUOKA KEN","city":"KOSAI SHI","town":"UMEDA","perfecture_jp":"静岡県","jp_add_1":"湖西市","jp_add_2":"梅田"},"4310427":{"post_code":"4310427","prefecture":"SHIZUOKA KEN","city":"KOSAI SHI","town":"EKIMINAMI","perfecture_jp":"静岡県","jp_add_1":"湖西市","jp_add_2":"駅南"},"4310404":{"post_code":"4310404","prefecture":"SHIZUOKA KEN","city":"KOSAI SHI","town":"OTA","perfecture_jp":"静岡県","jp_add_1":"湖西市","jp_add_2":"太田"},"4310403":{"post_code":"4310403","prefecture":"SHIZUOKA KEN","city":"KOSAI SHI","town":"OCHIBA","perfecture_jp":"静岡県","jp_add_1":"湖西市","jp_add_2":"大知波"},"4310422":{"post_code":"4310422","prefecture":"SHIZUOKA KEN","city":"KOSAI SHI","town":"OKASAKI","perfecture_jp":"静岡県","jp_add_1":"湖西市","jp_add_2":"岡崎"},"4310432":{"post_code":"4310432","prefecture":"SHIZUOKA KEN","city":"KOSAI SHI","town":"KAZENOMORI","perfecture_jp":"静岡県","jp_add_1":"湖西市","jp_add_2":"風の杜"},"4310405":{"post_code":"4310405","prefecture":"SHIZUOKA KEN","city":"KOSAI SHI","town":"KANZA","perfecture_jp":"静岡県","jp_add_1":"湖西市","jp_add_2":"神座"},"4310441":{"post_code":"4310441","prefecture":"SHIZUOKA KEN","city":"KOSAI SHI","town":"KIBI","perfecture_jp":"静岡県","jp_add_1":"湖西市","jp_add_2":"吉美"},"4310442":{"post_code":"4310442","prefecture":"SHIZUOKA KEN","city":"KOSAI SHI","town":"KOMI","perfecture_jp":"静岡県","jp_add_1":"湖西市","jp_add_2":"古見"},"4310452":{"post_code":"4310452","prefecture":"SHIZUOKA KEN","city":"KOSAI SHI","town":"SAKAIJUKU","perfecture_jp":"静岡県","jp_add_1":"湖西市","jp_add_2":"境宿"},"4310451":{"post_code":"4310451","prefecture":"SHIZUOKA KEN","city":"KOSAI SHI","town":"SHIRASUKA","perfecture_jp":"静岡県","jp_add_1":"湖西市","jp_add_2":"白須賀"},"4310421":{"post_code":"4310421","prefecture":"SHIZUOKA KEN","city":"KOSAI SHI","town":"SHINJO","perfecture_jp":"静岡県","jp_add_1":"湖西市","jp_add_2":"新所"},"4310423":{"post_code":"4310423","prefecture":"SHIZUOKA KEN","city":"KOSAI SHI","town":"SHINJO.OKASAKI.UMEDANYUKAICHI","perfecture_jp":"静岡県","jp_add_1":"湖西市","jp_add_2":"新所・岡崎・梅田入会地"},"4310424":{"post_code":"4310424","prefecture":"SHIZUOKA KEN","city":"KOSAI SHI","town":"SHINJOHARA","perfecture_jp":"静岡県","jp_add_1":"湖西市","jp_add_2":"新所原"},"4310426":{"post_code":"4310426","prefecture":"SHIZUOKA KEN","city":"KOSAI SHI","town":"SHINJOHARA HIGASHI","perfecture_jp":"静岡県","jp_add_1":"湖西市","jp_add_2":"新所原東"},"4310428":{"post_code":"4310428","prefecture":"SHIZUOKA KEN","city":"KOSAI SHI","town":"TOKIWA","perfecture_jp":"静岡県","jp_add_1":"湖西市","jp_add_2":"ときわ"},"4310444":{"post_code":"4310444","prefecture":"SHIZUOKA KEN","city":"KOSAI SHI","town":"BOZE","perfecture_jp":"静岡県","jp_add_1":"湖西市","jp_add_2":"坊瀬"},"4310429":{"post_code":"4310429","prefecture":"SHIZUOKA KEN","city":"KOSAI SHI","town":"MINAMIDAI","perfecture_jp":"静岡県","jp_add_1":"湖西市","jp_add_2":"南台"},"4310443":{"post_code":"4310443","prefecture":"SHIZUOKA KEN","city":"KOSAI SHI","town":"YAMAGUCHI","perfecture_jp":"静岡県","jp_add_1":"湖西市","jp_add_2":"山口"},"4310401":{"post_code":"4310401","prefecture":"SHIZUOKA KEN","city":"KOSAI SHI","town":"YOKOYAMA","perfecture_jp":"静岡県","jp_add_1":"湖西市","jp_add_2":"横山"},"4310402":{"post_code":"4310402","prefecture":"SHIZUOKA KEN","city":"KOSAI SHI","town":"RIKI","perfecture_jp":"静岡県","jp_add_1":"湖西市","jp_add_2":"利木"},"4310431":{"post_code":"4310431","prefecture":"SHIZUOKA KEN","city":"KOSAI SHI","town":"WASHIZU","perfecture_jp":"静岡県","jp_add_1":"湖西市","jp_add_2":"鷲津"},"4314121":{"post_code":"4314121","prefecture":"AICHI KEN","city":"KITASHITARA GUN TOYONE MURA","town":"TOMIYAMA","perfecture_jp":"愛知県","jp_add_1":"北設楽郡豊根村","jp_add_2":"富山"}}