{"4350055":{"post_code":"4350055","prefecture":"SHIZUOKA KEN","city":"HAMAMATSU SHI NAKA KU","town":"JIKKENCHO","perfecture_jp":"静岡県","jp_add_1":"浜松市中区","jp_add_2":"十軒町"},"4350054":{"post_code":"4350054","prefecture":"SHIZUOKA KEN","city":"HAMAMATSU SHI NAKA KU","town":"SODECHO","perfecture_jp":"静岡県","jp_add_1":"浜松市中区","jp_add_2":"早出町"},"4350045":{"post_code":"4350045","prefecture":"SHIZUOKA KEN","city":"HAMAMATSU SHI NAKA KU","town":"HOSOJIMACHO","perfecture_jp":"静岡県","jp_add_1":"浜松市中区","jp_add_2":"細島町"},"4350005":{"post_code":"4350005","prefecture":"SHIZUOKA KEN","city":"HAMAMATSU SHI HIGASHI KU","town":"ANSHINCHO","perfecture_jp":"静岡県","jp_add_1":"浜松市東区","jp_add_2":"安新町"},"4350012":{"post_code":"4350012","prefecture":"SHIZUOKA KEN","city":"HAMAMATSU SHI HIGASHI KU","town":"AMMACHO","perfecture_jp":"静岡県","jp_add_1":"浜松市東区","jp_add_2":"安間町"},"4350051":{"post_code":"4350051","prefecture":"SHIZUOKA KEN","city":"HAMAMATSU SHI HIGASHI KU","town":"ICHINOCHO","perfecture_jp":"静岡県","jp_add_1":"浜松市東区","jp_add_2":"市野町"},"4350014":{"post_code":"4350014","prefecture":"SHIZUOKA KEN","city":"HAMAMATSU SHI HIGASHI KU","town":"OKABACHO","perfecture_jp":"静岡県","jp_add_1":"浜松市東区","jp_add_2":"大蒲町"},"4350053":{"post_code":"4350053","prefecture":"SHIZUOKA KEN","city":"HAMAMATSU SHI HIGASHI KU","town":"KAMIARAYACHO","perfecture_jp":"静岡県","jp_add_1":"浜松市東区","jp_add_2":"上新屋町"},"4350001":{"post_code":"4350001","prefecture":"SHIZUOKA KEN","city":"HAMAMATSU SHI HIGASHI KU","town":"KAMIISHIDACHO","perfecture_jp":"静岡県","jp_add_1":"浜松市東区","jp_add_2":"上石田町"},"4350048":{"post_code":"4350048","prefecture":"SHIZUOKA KEN","city":"HAMAMATSU SHI HIGASHI KU","town":"KAMINISHICHO","perfecture_jp":"静岡県","jp_add_1":"浜松市東区","jp_add_2":"上西町"},"4350041":{"post_code":"4350041","prefecture":"SHIZUOKA KEN","city":"HAMAMATSU SHI HIGASHI KU","town":"KITAJIMACHO","perfecture_jp":"静岡県","jp_add_1":"浜松市東区","jp_add_2":"北島町"},"4350011":{"post_code":"4350011","prefecture":"SHIZUOKA KEN","city":"HAMAMATSU SHI HIGASHI KU","town":"KUNIYOSHICHO","perfecture_jp":"静岡県","jp_add_1":"浜松市東区","jp_add_2":"国吉町"},"4350056":{"post_code":"4350056","prefecture":"SHIZUOKA KEN","city":"HAMAMATSU SHI HIGASHI KU","town":"KOIKECHO","perfecture_jp":"静岡県","jp_add_1":"浜松市東区","jp_add_2":"小池町"},"4350015":{"post_code":"4350015","prefecture":"SHIZUOKA KEN","city":"HAMAMATSU SHI HIGASHI KU","town":"KOYASUCHO","perfecture_jp":"静岡県","jp_add_1":"浜松市東区","jp_add_2":"子安町"},"4350021":{"post_code":"4350021","prefecture":"SHIZUOKA KEN","city":"HAMAMATSU SHI HIGASHI KU","town":"ZAIMOKUCHO","perfecture_jp":"静岡県","jp_add_1":"浜松市東区","jp_add_2":"材木町"},"4350042":{"post_code":"4350042","prefecture":"SHIZUOKA KEN","city":"HAMAMATSU SHI HIGASHI KU","town":"SASAGASECHO","perfecture_jp":"静岡県","jp_add_1":"浜松市東区","jp_add_2":"篠ケ瀬町"},"4350006":{"post_code":"4350006","prefecture":"SHIZUOKA KEN","city":"HAMAMATSU SHI HIGASHI KU","town":"SHIMOISHIDACHO","perfecture_jp":"静岡県","jp_add_1":"浜松市東区","jp_add_2":"下石田町"},"4350002":{"post_code":"4350002","prefecture":"SHIZUOKA KEN","city":"HAMAMATSU SHI HIGASHI KU","town":"SHIROTORICHO","perfecture_jp":"静岡県","jp_add_1":"浜松市東区","jp_add_2":"白鳥町"},"4350052":{"post_code":"4350052","prefecture":"SHIZUOKA KEN","city":"HAMAMATSU SHI HIGASHI KU","town":"TENNOCHO","perfecture_jp":"静岡県","jp_add_1":"浜松市東区","jp_add_2":"天王町"},"4350013":{"post_code":"4350013","prefecture":"SHIZUOKA KEN","city":"HAMAMATSU SHI HIGASHI KU","town":"TENRYUGAWACHO","perfecture_jp":"静岡県","jp_add_1":"浜松市東区","jp_add_2":"天龍川町"},"4350003":{"post_code":"4350003","prefecture":"SHIZUOKA KEN","city":"HAMAMATSU SHI HIGASHI KU","town":"NAKASATOCHO","perfecture_jp":"静岡県","jp_add_1":"浜松市東区","jp_add_2":"中里町"},"4350057":{"post_code":"4350057","prefecture":"SHIZUOKA KEN","city":"HAMAMATSU SHI HIGASHI KU","town":"NAKADACHO","perfecture_jp":"静岡県","jp_add_1":"浜松市東区","jp_add_2":"中田町"},"4350031":{"post_code":"4350031","prefecture":"SHIZUOKA KEN","city":"HAMAMATSU SHI HIGASHI KU","town":"NAGATSURUCHO","perfecture_jp":"静岡県","jp_add_1":"浜松市東区","jp_add_2":"長鶴町"},"4350004":{"post_code":"4350004","prefecture":"SHIZUOKA KEN","city":"HAMAMATSU SHI HIGASHI KU","town":"NAKANOMACHI","perfecture_jp":"静岡県","jp_add_1":"浜松市東区","jp_add_2":"中野町"},"4350044":{"post_code":"4350044","prefecture":"SHIZUOKA KEN","city":"HAMAMATSU SHI HIGASHI KU","town":"NISHIZUKACHO","perfecture_jp":"静岡県","jp_add_1":"浜松市東区","jp_add_2":"西塚町"},"4350047":{"post_code":"4350047","prefecture":"SHIZUOKA KEN","city":"HAMAMATSU SHI HIGASHI KU","town":"BARAJIMACHO","perfecture_jp":"静岡県","jp_add_1":"浜松市東区","jp_add_2":"原島町"},"4350008":{"post_code":"4350008","prefecture":"SHIZUOKA KEN","city":"HAMAMATSU SHI HIGASHI KU","town":"MATSUKOIKECHO","perfecture_jp":"静岡県","jp_add_1":"浜松市東区","jp_add_2":"松小池町"},"4350046":{"post_code":"4350046","prefecture":"SHIZUOKA KEN","city":"HAMAMATSU SHI HIGASHI KU","town":"MARUZUKACHO","perfecture_jp":"静岡県","jp_add_1":"浜松市東区","jp_add_2":"丸塚町"},"4350043":{"post_code":"4350043","prefecture":"SHIZUOKA KEN","city":"HAMAMATSU SHI HIGASHI KU","town":"MIYATAKECHO","perfecture_jp":"静岡県","jp_add_1":"浜松市東区","jp_add_2":"宮竹町"},"4350017":{"post_code":"4350017","prefecture":"SHIZUOKA KEN","city":"HAMAMATSU SHI HIGASHI KU","town":"YAKUSHICHO","perfecture_jp":"静岡県","jp_add_1":"浜松市東区","jp_add_2":"薬師町"},"4350018":{"post_code":"4350018","prefecture":"SHIZUOKA KEN","city":"HAMAMATSU SHI HIGASHI KU","town":"YAKUSHINCHO","perfecture_jp":"静岡県","jp_add_1":"浜松市東区","jp_add_2":"薬新町"},"4350029":{"post_code":"4350029","prefecture":"SHIZUOKA KEN","city":"HAMAMATSU SHI HIGASHI KU","town":"RYUKOCHO","perfecture_jp":"静岡県","jp_add_1":"浜松市東区","jp_add_2":"龍光町"},"4350007":{"post_code":"4350007","prefecture":"SHIZUOKA KEN","city":"HAMAMATSU SHI HIGASHI KU","town":"RYUTSUMOTOMACHI","perfecture_jp":"静岡県","jp_add_1":"浜松市東区","jp_add_2":"流通元町"},"4350016":{"post_code":"4350016","prefecture":"SHIZUOKA KEN","city":"HAMAMATSU SHI HIGASHI KU","town":"WADACHO","perfecture_jp":"静岡県","jp_add_1":"浜松市東区","jp_add_2":"和田町"},"4350037":{"post_code":"4350037","prefecture":"SHIZUOKA KEN","city":"HAMAMATSU SHI MINAMI KU","town":"AOYACHO","perfecture_jp":"静岡県","jp_add_1":"浜松市南区","jp_add_2":"青屋町"},"4350028":{"post_code":"4350028","prefecture":"SHIZUOKA KEN","city":"HAMAMATSU SHI MINAMI KU","town":"IIDACHO","perfecture_jp":"静岡県","jp_add_1":"浜松市南区","jp_add_2":"飯田町"},"4350033":{"post_code":"4350033","prefecture":"SHIZUOKA KEN","city":"HAMAMATSU SHI MINAMI KU","town":"ISHIHARACHO","perfecture_jp":"静岡県","jp_add_1":"浜松市南区","jp_add_2":"石原町"},"4350025":{"post_code":"4350025","prefecture":"SHIZUOKA KEN","city":"HAMAMATSU SHI MINAMI KU","town":"OIMACHO","perfecture_jp":"静岡県","jp_add_1":"浜松市南区","jp_add_2":"老間町"},"4350024":{"post_code":"4350024","prefecture":"SHIZUOKA KEN","city":"HAMAMATSU SHI MINAMI KU","town":"OTSUKACHO","perfecture_jp":"静岡県","jp_add_1":"浜松市南区","jp_add_2":"大塚町"},"4350026":{"post_code":"4350026","prefecture":"SHIZUOKA KEN","city":"HAMAMATSU SHI MINAMI KU","town":"KANAORICHO","perfecture_jp":"静岡県","jp_add_1":"浜松市南区","jp_add_2":"金折町"},"4350038":{"post_code":"4350038","prefecture":"SHIZUOKA KEN","city":"HAMAMATSU SHI MINAMI KU","town":"SANWACHO","perfecture_jp":"静岡県","jp_add_1":"浜松市南区","jp_add_2":"三和町"},"4350027":{"post_code":"4350027","prefecture":"SHIZUOKA KEN","city":"HAMAMATSU SHI MINAMI KU","town":"SHIMOIIDACHO","perfecture_jp":"静岡県","jp_add_1":"浜松市南区","jp_add_2":"下飯田町"},"4350023":{"post_code":"4350023","prefecture":"SHIZUOKA KEN","city":"HAMAMATSU SHI MINAMI KU","town":"SHINGAICHO","perfecture_jp":"静岡県","jp_add_1":"浜松市南区","jp_add_2":"新貝町"},"4350035":{"post_code":"4350035","prefecture":"SHIZUOKA KEN","city":"HAMAMATSU SHI MINAMI KU","town":"SEIDENJICHO","perfecture_jp":"静岡県","jp_add_1":"浜松市南区","jp_add_2":"西伝寺町"},"4350022":{"post_code":"4350022","prefecture":"SHIZUOKA KEN","city":"HAMAMATSU SHI MINAMI KU","town":"TSURUMICHO","perfecture_jp":"静岡県","jp_add_1":"浜松市南区","jp_add_2":"鶴見町"},"4350032":{"post_code":"4350032","prefecture":"SHIZUOKA KEN","city":"HAMAMATSU SHI MINAMI KU","town":"FURUKAWACHO","perfecture_jp":"静岡県","jp_add_1":"浜松市南区","jp_add_2":"古川町"},"4350034":{"post_code":"4350034","prefecture":"SHIZUOKA KEN","city":"HAMAMATSU SHI MINAMI KU","town":"YASUMATSUCHO","perfecture_jp":"静岡県","jp_add_1":"浜松市南区","jp_add_2":"安松町"},"4350036":{"post_code":"4350036","prefecture":"SHIZUOKA KEN","city":"HAMAMATSU SHI MINAMI KU","town":"WATASECHO","perfecture_jp":"静岡県","jp_add_1":"浜松市南区","jp_add_2":"渡瀬町"}}