{"4380000":{"post_code":"4380000","prefecture":"SHIZUOKA KEN","city":"IWATA SHI","town":"IKANIKEISAIGANAIBAAI","perfecture_jp":"静岡県","jp_add_1":"磐田市","jp_add_2":""},"4380824":{"post_code":"4380824","prefecture":"SHIZUOKA KEN","city":"IWATA SHI","town":"AKAIKE","perfecture_jp":"静岡県","jp_add_1":"磐田市","jp_add_2":"赤池"},"4380017":{"post_code":"4380017","prefecture":"SHIZUOKA KEN","city":"IWATA SHI","town":"AKURO","perfecture_jp":"静岡県","jp_add_1":"磐田市","jp_add_2":"安久路"},"4380078":{"post_code":"4380078","prefecture":"SHIZUOKA KEN","city":"IWATA SHI","town":"HOMMACHI","perfecture_jp":"静岡県","jp_add_1":"磐田市","jp_add_2":"旭ケ丘"},"4380062":{"post_code":"4380062","prefecture":"SHIZUOKA KEN","city":"IWATA SHI","town":"ARASHIMA","perfecture_jp":"静岡県","jp_add_1":"磐田市","jp_add_2":"新島"},"4380105":{"post_code":"4380105","prefecture":"SHIZUOKA KEN","city":"IWATA SHI","town":"IETA","perfecture_jp":"静岡県","jp_add_1":"磐田市","jp_add_2":"家田"},"4380805":{"post_code":"4380805","prefecture":"SHIZUOKA KEN","city":"IWATA SHI","town":"IKEDA","perfecture_jp":"静岡県","jp_add_1":"磐田市","jp_add_2":"池田"},"4380086":{"post_code":"4380086","prefecture":"SHIZUOKA KEN","city":"IWATA SHI","town":"MOTOMIYACHO","perfecture_jp":"静岡県","jp_add_1":"磐田市","jp_add_2":"一番町"},"4380116":{"post_code":"4380116","prefecture":"SHIZUOKA KEN","city":"IWATA SHI","town":"IKKANJI","perfecture_jp":"静岡県","jp_add_1":"磐田市","jp_add_2":"壱貫地"},"4380071":{"post_code":"4380071","prefecture":"SHIZUOKA KEN","city":"IWATA SHI","town":"IMANORA","perfecture_jp":"静岡県","jp_add_1":"磐田市","jp_add_2":"今之浦"},"4380016":{"post_code":"4380016","prefecture":"SHIZUOKA KEN","city":"IWATA SHI","town":"IWAI","perfecture_jp":"静岡県","jp_add_1":"磐田市","jp_add_2":"岩井"},"4380104":{"post_code":"4380104","prefecture":"SHIZUOKA KEN","city":"IWATA SHI","town":"IWAMURO","perfecture_jp":"静岡県","jp_add_1":"磐田市","jp_add_2":"岩室"},"4380223":{"post_code":"4380223","prefecture":"SHIZUOKA KEN","city":"IWATA SHI","town":"UKEOISHINDEN","perfecture_jp":"静岡県","jp_add_1":"磐田市","jp_add_2":"請負新田"},"4380212":{"post_code":"4380212","prefecture":"SHIZUOKA KEN","city":"IWATA SHI","town":"EBIJIMA","perfecture_jp":"静岡県","jp_add_1":"磐田市","jp_add_2":"海老島"},"4380812":{"post_code":"4380812","prefecture":"SHIZUOKA KEN","city":"IWATA SHI","town":"EBITSUKA","perfecture_jp":"静岡県","jp_add_1":"磐田市","jp_add_2":"海老塚"},"4380103":{"post_code":"4380103","prefecture":"SHIZUOKA KEN","city":"IWATA SHI","town":"OIDAIRA","perfecture_jp":"静岡県","jp_add_1":"磐田市","jp_add_2":"大平"},"4380044":{"post_code":"4380044","prefecture":"SHIZUOKA KEN","city":"IWATA SHI","town":"OIZUMICHO","perfecture_jp":"静岡県","jp_add_1":"磐田市","jp_add_2":"大泉町"},"4380002":{"post_code":"4380002","prefecture":"SHIZUOKA KEN","city":"IWATA SHI","town":"OKUBO","perfecture_jp":"静岡県","jp_add_1":"磐田市","jp_add_2":"大久保"},"4380036":{"post_code":"4380036","prefecture":"SHIZUOKA KEN","city":"IWATA SHI","town":"ODATENO","perfecture_jp":"静岡県","jp_add_1":"磐田市","jp_add_2":"大立野"},"4380107":{"post_code":"4380107","prefecture":"SHIZUOKA KEN","city":"IWATA SHI","town":"OTOSHO","perfecture_jp":"静岡県","jp_add_1":"磐田市","jp_add_2":"大当所"},"4380214":{"post_code":"4380214","prefecture":"SHIZUOKA KEN","city":"IWATA SHI","town":"ONAKAZE","perfecture_jp":"静岡県","jp_add_1":"磐田市","jp_add_2":"大中瀬"},"4380043":{"post_code":"4380043","prefecture":"SHIZUOKA KEN","city":"IWATA SHI","town":"OWARA(1-BANCHI-2061-BANCHI.2757-BAN","perfecture_jp":"静岡県","jp_add_1":"磐田市","jp_add_2":"大原"},"4380204":{"post_code":"4380204","prefecture":"SHIZUOKA KEN","city":"IWATA SHI","town":"OKA","perfecture_jp":"静岡県","jp_add_1":"磐田市","jp_add_2":"岡"},"4380124":{"post_code":"4380124","prefecture":"SHIZUOKA KEN","city":"IWATA SHI","town":"KAKESHITA","perfecture_jp":"静岡県","jp_add_1":"磐田市","jp_add_2":"掛下"},"4380234":{"post_code":"4380234","prefecture":"SHIZUOKA KEN","city":"IWATA SHI","town":"KAKETSUKA","perfecture_jp":"静岡県","jp_add_1":"磐田市","jp_add_2":"掛塚"},"4380011":{"post_code":"4380011","prefecture":"SHIZUOKA KEN","city":"IWATA SHI","town":"KASAUME","perfecture_jp":"静岡県","jp_add_1":"磐田市","jp_add_2":"笠梅"},"4380038":{"post_code":"4380038","prefecture":"SHIZUOKA KEN","city":"IWATA SHI","town":"KAMADA","perfecture_jp":"静岡県","jp_add_1":"磐田市","jp_add_2":"鎌田"},"4380831":{"post_code":"4380831","prefecture":"SHIZUOKA KEN","city":"IWATA SHI","town":"KAMIARAYA","perfecture_jp":"静岡県","jp_add_1":"磐田市","jp_add_2":"上新屋"},"4380051":{"post_code":"4380051","prefecture":"SHIZUOKA KEN","city":"IWATA SHI","town":"KAMIONOGO","perfecture_jp":"静岡県","jp_add_1":"磐田市","jp_add_2":"上大之郷"},"4380045":{"post_code":"4380045","prefecture":"SHIZUOKA KEN","city":"IWATA SHI","town":"KAMIOKATA","perfecture_jp":"静岡県","jp_add_1":"磐田市","jp_add_2":"上岡田"},"4380115":{"post_code":"4380115","prefecture":"SHIZUOKA KEN","city":"IWATA SHI","town":"KAMIKANZO","perfecture_jp":"静岡県","jp_add_1":"磐田市","jp_add_2":"上神増"},"4380111":{"post_code":"4380111","prefecture":"SHIZUOKA KEN","city":"IWATA SHI","town":"KAMINOBE","perfecture_jp":"静岡県","jp_add_1":"磐田市","jp_add_2":"上野部"},"4380822":{"post_code":"4380822","prefecture":"SHIZUOKA KEN","city":"IWATA SHI","town":"KAMIHONGO","perfecture_jp":"静岡県","jp_add_1":"磐田市","jp_add_2":"上本郷"},"4380817":{"post_code":"4380817","prefecture":"SHIZUOKA KEN","city":"IWATA SHI","town":"KAMIMANNO","perfecture_jp":"静岡県","jp_add_1":"磐田市","jp_add_2":"上万能"},"4380042":{"post_code":"4380042","prefecture":"SHIZUOKA KEN","city":"IWATA SHI","town":"KAMIMINAMIDA","perfecture_jp":"静岡県","jp_add_1":"磐田市","jp_add_2":"上南田"},"4380804":{"post_code":"4380804","prefecture":"SHIZUOKA KEN","city":"IWATA SHI","town":"KAMO","perfecture_jp":"静岡県","jp_add_1":"磐田市","jp_add_2":"加茂"},"4380232":{"post_code":"4380232","prefecture":"SHIZUOKA KEN","city":"IWATA SHI","town":"KAWABUKURO","perfecture_jp":"静岡県","jp_add_1":"磐田市","jp_add_2":"川袋"},"4380121":{"post_code":"4380121","prefecture":"SHIZUOKA KEN","city":"IWATA SHI","town":"KANZO","perfecture_jp":"静岡県","jp_add_1":"磐田市","jp_add_2":"神増"},"4380064":{"post_code":"4380064","prefecture":"SHIZUOKA KEN","city":"IWATA SHI","town":"KITAJIMA","perfecture_jp":"静岡県","jp_add_1":"磐田市","jp_add_2":"北島"},"4380084":{"post_code":"4380084","prefecture":"SHIZUOKA KEN","city":"IWATA SHI","town":"KINOSAKI","perfecture_jp":"静岡県","jp_add_1":"磐田市","jp_add_2":"城之崎"},"4380061":{"post_code":"4380061","prefecture":"SHIZUOKA KEN","city":"IWATA SHI","town":"GYOBUJIMA","perfecture_jp":"静岡県","jp_add_1":"磐田市","jp_add_2":"刑部島"},"4380067":{"post_code":"4380067","prefecture":"SHIZUOKA KEN","city":"IWATA SHI","town":"KUSASAKI","perfecture_jp":"静岡県","jp_add_1":"磐田市","jp_add_2":"草崎"},"4380814":{"post_code":"4380814","prefecture":"SHIZUOKA KEN","city":"IWATA SHI","town":"KEGOJIMA","perfecture_jp":"静岡県","jp_add_1":"磐田市","jp_add_2":"気子島"},"4380837":{"post_code":"4380837","prefecture":"SHIZUOKA KEN","city":"IWATA SHI","town":"GEMPEISHINDEN","perfecture_jp":"静岡県","jp_add_1":"磐田市","jp_add_2":"源平新田"},"4380114":{"post_code":"4380114","prefecture":"SHIZUOKA KEN","city":"IWATA SHI","town":"GODAIJIMA","perfecture_jp":"静岡県","jp_add_1":"磐田市","jp_add_2":"合代島"},"4380077":{"post_code":"4380077","prefecture":"SHIZUOKA KEN","city":"IWATA SHI","town":"KONODAI","perfecture_jp":"静岡県","jp_add_1":"磐田市","jp_add_2":"国府台"},"4380056":{"post_code":"4380056","prefecture":"SHIZUOKA KEN","city":"IWATA SHI","town":"KOJIMA","perfecture_jp":"静岡県","jp_add_1":"磐田市","jp_add_2":"小島"},"4380838":{"post_code":"4380838","prefecture":"SHIZUOKA KEN","city":"IWATA SHI","town":"KODATENO","perfecture_jp":"静岡県","jp_add_1":"磐田市","jp_add_2":"小立野"},"4380215":{"post_code":"4380215","prefecture":"SHIZUOKA KEN","city":"IWATA SHI","town":"KONAKAZE","perfecture_jp":"静岡県","jp_add_1":"磐田市","jp_add_2":"小中瀬"},"4380233":{"post_code":"4380233","prefecture":"SHIZUOKA KEN","city":"IWATA SHI","town":"KOMABA","perfecture_jp":"静岡県","jp_add_1":"磐田市","jp_add_2":"駒場"},"4380005":{"post_code":"4380005","prefecture":"SHIZUOKA KEN","city":"IWATA SHI","town":"SAGISAKA KAMI","perfecture_jp":"静岡県","jp_add_1":"磐田市","jp_add_2":"匂坂上"},"4380003":{"post_code":"4380003","prefecture":"SHIZUOKA KEN","city":"IWATA SHI","town":"SAGISAKA SHIN","perfecture_jp":"静岡県","jp_add_1":"磐田市","jp_add_2":"匂坂新"},"4380004":{"post_code":"4380004","prefecture":"SHIZUOKA KEN","city":"IWATA SHI","town":"SAGISAKA NAKA","perfecture_jp":"静岡県","jp_add_1":"磐田市","jp_add_2":"匂坂中"},"4380813":{"post_code":"4380813","prefecture":"SHIZUOKA KEN","city":"IWATA SHI","town":"SASAHARAJIMA","perfecture_jp":"静岡県","jp_add_1":"磐田市","jp_add_2":"笹原島"},"4380055":{"post_code":"4380055","prefecture":"SHIZUOKA KEN","city":"IWATA SHI","town":"SAMEJIMA","perfecture_jp":"静岡県","jp_add_1":"磐田市","jp_add_2":"鮫島"},"4380106":{"post_code":"4380106","prefecture":"SHIZUOKA KEN","city":"IWATA SHI","town":"SHIKIJI","perfecture_jp":"静岡県","jp_add_1":"磐田市","jp_add_2":"敷地"},"4380015":{"post_code":"4380015","prefecture":"SHIZUOKA KEN","city":"IWATA SHI","town":"SHINOHARA","perfecture_jp":"静岡県","jp_add_1":"磐田市","jp_add_2":"篠原"},"4380052":{"post_code":"4380052","prefecture":"SHIZUOKA KEN","city":"IWATA SHI","town":"SHIMOONOGO","perfecture_jp":"静岡県","jp_add_1":"磐田市","jp_add_2":"下大之郷"},"4380046":{"post_code":"4380046","prefecture":"SHIZUOKA KEN","city":"IWATA SHI","town":"SHIMOKATA","perfecture_jp":"静岡県","jp_add_1":"磐田市","jp_add_2":"下岡田"},"4380126":{"post_code":"4380126","prefecture":"SHIZUOKA KEN","city":"IWATA SHI","town":"SHIMOKANZO","perfecture_jp":"静岡県","jp_add_1":"磐田市","jp_add_2":"下神増"},"4380112":{"post_code":"4380112","prefecture":"SHIZUOKA KEN","city":"IWATA SHI","town":"SHIMONOBE","perfecture_jp":"静岡県","jp_add_1":"磐田市","jp_add_2":"下野部"},"4380823":{"post_code":"4380823","prefecture":"SHIZUOKA KEN","city":"IWATA SHI","town":"SHIMOHONGO","perfecture_jp":"静岡県","jp_add_1":"磐田市","jp_add_2":"下本郷"},"4380818":{"post_code":"4380818","prefecture":"SHIZUOKA KEN","city":"IWATA SHI","town":"SHIMOMANNO","perfecture_jp":"静岡県","jp_add_1":"磐田市","jp_add_2":"下万能"},"4380236":{"post_code":"4380236","prefecture":"SHIZUOKA KEN","city":"IWATA SHI","town":"JUROJIMA","perfecture_jp":"静岡県","jp_add_1":"磐田市","jp_add_2":"十郎島"},"4380066":{"post_code":"4380066","prefecture":"SHIZUOKA KEN","city":"IWATA SHI","town":"SHIRABYOSHI","perfecture_jp":"静岡県","jp_add_1":"磐田市","jp_add_2":"白拍子"},"4380235":{"post_code":"4380235","prefecture":"SHIZUOKA KEN","city":"IWATA SHI","town":"SHIROWA","perfecture_jp":"静岡県","jp_add_1":"磐田市","jp_add_2":"白羽"},"4380113":{"post_code":"4380113","prefecture":"SHIZUOKA KEN","city":"IWATA SHI","town":"SHINKAI","perfecture_jp":"静岡県","jp_add_1":"磐田市","jp_add_2":"新開"},"4380025":{"post_code":"4380025","prefecture":"SHIZUOKA KEN","city":"IWATA SHI","town":"SHINGAI","perfecture_jp":"静岡県","jp_add_1":"磐田市","jp_add_2":"新貝"},"4380063":{"post_code":"4380063","prefecture":"SHIZUOKA KEN","city":"IWATA SHI","town":"SHINKOJI","perfecture_jp":"静岡県","jp_add_1":"磐田市","jp_add_2":"真光寺"},"4380033":{"post_code":"4380033","prefecture":"SHIZUOKA KEN","city":"IWATA SHI","town":"SHINDE","perfecture_jp":"静岡県","jp_add_1":"磐田市","jp_add_2":"新出"},"4380222":{"post_code":"4380222","prefecture":"SHIZUOKA KEN","city":"IWATA SHI","town":"SUESHINDEN","perfecture_jp":"静岡県","jp_add_1":"磐田市","jp_add_2":"須恵新田"},"4380057":{"post_code":"4380057","prefecture":"SHIZUOKA KEN","city":"IWATA SHI","town":"SENZUDO","perfecture_jp":"静岡県","jp_add_1":"磐田市","jp_add_2":"千手堂"},"4380122":{"post_code":"4380122","prefecture":"SHIZUOKA KEN","city":"IWATA SHI","town":"SOBEESHIMOSHINDEN","perfecture_jp":"静岡県","jp_add_1":"磐田市","jp_add_2":"惣兵衛下新田"},"4380202":{"post_code":"4380202","prefecture":"SHIZUOKA KEN","city":"IWATA SHI","town":"TAKAGI","perfecture_jp":"静岡県","jp_add_1":"磐田市","jp_add_2":"高木"},"4380801":{"post_code":"4380801","prefecture":"SHIZUOKA KEN","city":"IWATA SHI","town":"TAKAMIGAOKA","perfecture_jp":"静岡県","jp_add_1":"磐田市","jp_add_2":"高見丘"},"4380821":{"post_code":"4380821","prefecture":"SHIZUOKA KEN","city":"IWATA SHI","town":"TATENO","perfecture_jp":"静岡県","jp_add_1":"磐田市","jp_add_2":"立野"},"4380021":{"post_code":"4380021","prefecture":"SHIZUOKA KEN","city":"IWATA SHI","town":"TAMAKOSHI","perfecture_jp":"静岡県","jp_add_1":"磐田市","jp_add_2":"玉越"},"4380006":{"post_code":"4380006","prefecture":"SHIZUOKA KEN","city":"IWATA SHI","town":"TERADANI","perfecture_jp":"静岡県","jp_add_1":"磐田市","jp_add_2":"寺谷"},"4380007":{"post_code":"4380007","prefecture":"SHIZUOKA KEN","city":"IWATA SHI","town":"TERADANISHINDEN","perfecture_jp":"静岡県","jp_add_1":"磐田市","jp_add_2":"寺谷新田"},"4380075":{"post_code":"4380075","prefecture":"SHIZUOKA KEN","city":"IWATA SHI","town":"TENRYU","perfecture_jp":"静岡県","jp_add_1":"磐田市","jp_add_2":"天龍"},"4380039":{"post_code":"4380039","prefecture":"SHIZUOKA KEN","city":"IWATA SHI","town":"TOSHINCHO","perfecture_jp":"静岡県","jp_add_1":"磐田市","jp_add_2":"東新町"},"4380806":{"post_code":"4380806","prefecture":"SHIZUOKA KEN","city":"IWATA SHI","town":"TOMEI","perfecture_jp":"静岡県","jp_add_1":"磐田市","jp_add_2":"東名"},"4380216":{"post_code":"4380216","prefecture":"SHIZUOKA KEN","city":"IWATA SHI","town":"TOBIHIRAMATSU","perfecture_jp":"静岡県","jp_add_1":"磐田市","jp_add_2":"飛平松"},"4380803":{"post_code":"4380803","prefecture":"SHIZUOKA KEN","city":"IWATA SHI","town":"TOMIGAOKA","perfecture_jp":"静岡県","jp_add_1":"磐田市","jp_add_2":"富丘"},"4380807":{"post_code":"4380807","prefecture":"SHIZUOKA KEN","city":"IWATA SHI","town":"TOMISATO","perfecture_jp":"静岡県","jp_add_1":"磐田市","jp_add_2":"富里"},"4380231":{"post_code":"4380231","prefecture":"SHIZUOKA KEN","city":"IWATA SHI","town":"TOYOKA","perfecture_jp":"静岡県","jp_add_1":"磐田市","jp_add_2":"豊岡"},"4380047":{"post_code":"4380047","prefecture":"SHIZUOKA KEN","city":"IWATA SHI","town":"TOYOSHIMA","perfecture_jp":"静岡県","jp_add_1":"磐田市","jp_add_2":"豊島"},"4380808":{"post_code":"4380808","prefecture":"SHIZUOKA KEN","city":"IWATA SHI","town":"TOYODA","perfecture_jp":"静岡県","jp_add_1":"磐田市","jp_add_2":"豊田"},"4380835":{"post_code":"4380835","prefecture":"SHIZUOKA KEN","city":"IWATA SHI","town":"TOYODANISHINOSHIMA","perfecture_jp":"静岡県","jp_add_1":"磐田市","jp_add_2":"豊田西之島"},"4380072":{"post_code":"4380072","prefecture":"SHIZUOKA KEN","city":"IWATA SHI","town":"TORINOSE","perfecture_jp":"静岡県","jp_add_1":"磐田市","jp_add_2":"鳥之瀬"},"4380053":{"post_code":"4380053","prefecture":"SHIZUOKA KEN","city":"IWATA SHI","town":"NAKANO","perfecture_jp":"静岡県","jp_add_1":"磐田市","jp_add_2":"中野"},"4380218":{"post_code":"4380218","prefecture":"SHIZUOKA KEN","city":"IWATA SHI","town":"NAKAHIRAMATSU","perfecture_jp":"静岡県","jp_add_1":"磐田市","jp_add_2":"中平松"},"4380836":{"post_code":"4380836","prefecture":"SHIZUOKA KEN","city":"IWATA SHI","town":"NAGAMORI","perfecture_jp":"静岡県","jp_add_1":"磐田市","jp_add_2":"長森"},"4380069":{"post_code":"4380069","prefecture":"SHIZUOKA KEN","city":"IWATA SHI","town":"NAGASUKA","perfecture_jp":"静岡県","jp_add_1":"磐田市","jp_add_2":"長須賀"},"4380815":{"post_code":"4380815","prefecture":"SHIZUOKA KEN","city":"IWATA SHI","town":"NAKADA","perfecture_jp":"静岡県","jp_add_1":"磐田市","jp_add_2":"中田"},"4380026":{"post_code":"4380026","prefecture":"SHIZUOKA KEN","city":"IWATA SHI","town":"NISHIKAIZUKA","perfecture_jp":"静岡県","jp_add_1":"磐田市","jp_add_2":"西貝塚"},"4380022":{"post_code":"4380022","prefecture":"SHIZUOKA KEN","city":"IWATA SHI","town":"NISHIJIMA","perfecture_jp":"静岡県","jp_add_1":"磐田市","jp_add_2":"西島"},"4380041":{"post_code":"4380041","prefecture":"SHIZUOKA KEN","city":"IWATA SHI","town":"NISHINOSHIMA","perfecture_jp":"静岡県","jp_add_1":"磐田市","jp_add_2":"西之島"},"4380217":{"post_code":"4380217","prefecture":"SHIZUOKA KEN","city":"IWATA SHI","town":"NISHIHIRAMATSU","perfecture_jp":"静岡県","jp_add_1":"磐田市","jp_add_2":"西平松"},"4380074":{"post_code":"4380074","prefecture":"SHIZUOKA KEN","city":"IWATA SHI","town":"NINOMIYASENGEN","perfecture_jp":"静岡県","jp_add_1":"磐田市","jp_add_2":"二之宮"},"4380073":{"post_code":"4380073","prefecture":"SHIZUOKA KEN","city":"IWATA SHI","town":"NINOMIYAHIGASHI","perfecture_jp":"静岡県","jp_add_1":"磐田市","jp_add_2":"二之宮東"},"4380065":{"post_code":"4380065","prefecture":"SHIZUOKA KEN","city":"IWATA SHI","town":"NOBAKO","perfecture_jp":"静岡県","jp_add_1":"磐田市","jp_add_2":"野箱"},"4380224":{"post_code":"4380224","prefecture":"SHIZUOKA KEN","city":"IWATA SHI","town":"HAMASHINDEN","perfecture_jp":"静岡県","jp_add_1":"磐田市","jp_add_2":"浜新田"},"4380054":{"post_code":"4380054","prefecture":"SHIZUOKA KEN","city":"IWATA SHI","town":"HAMABE","perfecture_jp":"静岡県","jp_add_1":"磐田市","jp_add_2":"浜部"},"4380031":{"post_code":"4380031","prefecture":"SHIZUOKA KEN","city":"IWATA SHI","town":"HIEBARA","perfecture_jp":"静岡県","jp_add_1":"磐田市","jp_add_2":"稗原"},"4380035":{"post_code":"4380035","prefecture":"SHIZUOKA KEN","city":"IWATA SHI","town":"HIGASHIARAYA","perfecture_jp":"静岡県","jp_add_1":"磐田市","jp_add_2":"東新屋"},"4380037":{"post_code":"4380037","prefecture":"SHIZUOKA KEN","city":"IWATA SHI","town":"HIGASHIKAIZUKA","perfecture_jp":"静岡県","jp_add_1":"磐田市","jp_add_2":"東貝塚"},"4380802":{"post_code":"4380802","prefecture":"SHIZUOKA KEN","city":"IWATA SHI","town":"HIGASHIBARA","perfecture_jp":"静岡県","jp_add_1":"磐田市","jp_add_2":"東原"},"4380211":{"post_code":"4380211","prefecture":"SHIZUOKA KEN","city":"IWATA SHI","town":"HIGASHIHIRAMATSU","perfecture_jp":"静岡県","jp_add_1":"磐田市","jp_add_2":"東平松"},"4380028":{"post_code":"4380028","prefecture":"SHIZUOKA KEN","city":"IWATA SHI","town":"HIGASHIYAMA","perfecture_jp":"静岡県","jp_add_1":"磐田市","jp_add_2":"東山"},"4380032":{"post_code":"4380032","prefecture":"SHIZUOKA KEN","city":"IWATA SHI","town":"HIGASHIWAKI","perfecture_jp":"静岡県","jp_add_1":"磐田市","jp_add_2":"東脇"},"4380023":{"post_code":"4380023","prefecture":"SHIZUOKA KEN","city":"IWATA SHI","town":"HIKOJIMA","perfecture_jp":"静岡県","jp_add_1":"磐田市","jp_add_2":"彦島"},"4380811":{"post_code":"4380811","prefecture":"SHIZUOKA KEN","city":"IWATA SHI","town":"HITOKOTO","perfecture_jp":"静岡県","jp_add_1":"磐田市","jp_add_2":"一言"},"4380203":{"post_code":"4380203","prefecture":"SHIZUOKA KEN","city":"IWATA SHI","town":"HIRAMA","perfecture_jp":"静岡県","jp_add_1":"磐田市","jp_add_2":"平間"},"4380123":{"post_code":"4380123","prefecture":"SHIZUOKA KEN","city":"IWATA SHI","town":"HIRAMATSU","perfecture_jp":"静岡県","jp_add_1":"磐田市","jp_add_2":"平松"},"4380008":{"post_code":"4380008","prefecture":"SHIZUOKA KEN","city":"IWATA SHI","town":"HIRAMATSUKAKESHITAIRISAKU","perfecture_jp":"静岡県","jp_add_1":"磐田市","jp_add_2":"平松掛下入作"},"4380001":{"post_code":"4380001","prefecture":"SHIZUOKA KEN","city":"IWATA SHI","town":"FUJIKAMBARA","perfecture_jp":"静岡県","jp_add_1":"磐田市","jp_add_2":"藤上原"},"4380088":{"post_code":"4380088","prefecture":"SHIZUOKA KEN","city":"IWATA SHI","town":"FUJIMIDAI","perfecture_jp":"静岡県","jp_add_1":"磐田市","jp_add_2":"富士見台"},"4380083":{"post_code":"4380083","prefecture":"SHIZUOKA KEN","city":"IWATA SHI","town":"FUJIMICHO","perfecture_jp":"静岡県","jp_add_1":"磐田市","jp_add_2":"富士見町"},"4380205":{"post_code":"4380205","prefecture":"SHIZUOKA KEN","city":"IWATA SHI","town":"HORINOCHI","perfecture_jp":"静岡県","jp_add_1":"磐田市","jp_add_2":"堀之内"},"4380068":{"post_code":"4380068","prefecture":"SHIZUOKA KEN","city":"IWATA SHI","town":"MAENO","perfecture_jp":"静岡県","jp_add_1":"磐田市","jp_add_2":"前野"},"4380125":{"post_code":"4380125","prefecture":"SHIZUOKA KEN","city":"IWATA SHI","town":"MATSUNOKIJIMA","perfecture_jp":"静岡県","jp_add_1":"磐田市","jp_add_2":"松之木島"},"4380206":{"post_code":"4380206","prefecture":"SHIZUOKA KEN","city":"IWATA SHI","town":"MATSUMOTO","perfecture_jp":"静岡県","jp_add_1":"磐田市","jp_add_2":"松本"},"4380058":{"post_code":"4380058","prefecture":"SHIZUOKA KEN","city":"IWATA SHI","town":"MANSHOJI","perfecture_jp":"静岡県","jp_add_1":"磐田市","jp_add_2":"万正寺"},"4380101":{"post_code":"4380101","prefecture":"SHIZUOKA KEN","city":"IWATA SHI","town":"MANZE","perfecture_jp":"静岡県","jp_add_1":"磐田市","jp_add_2":"万瀬"},"4380027":{"post_code":"4380027","prefecture":"SHIZUOKA KEN","city":"IWATA SHI","town":"MIKANO","perfecture_jp":"静岡県","jp_add_1":"磐田市","jp_add_2":"三ケ野"},"4380018":{"post_code":"4380018","prefecture":"SHIZUOKA KEN","city":"IWATA SHI","town":"MIKANODAI","perfecture_jp":"静岡県","jp_add_1":"磐田市","jp_add_2":"三ケ野台"},"4380085":{"post_code":"4380085","prefecture":"SHIZUOKA KEN","city":"IWATA SHI","town":"MIZUHORI","perfecture_jp":"静岡県","jp_add_1":"磐田市","jp_add_2":"水堀"},"4380127":{"post_code":"4380127","prefecture":"SHIZUOKA KEN","city":"IWATA SHI","town":"MITSUE","perfecture_jp":"静岡県","jp_add_1":"磐田市","jp_add_2":"三家"},"4380081":{"post_code":"4380081","prefecture":"SHIZUOKA KEN","city":"IWATA SHI","town":"MIDORIGAOKA","perfecture_jp":"静岡県","jp_add_1":"磐田市","jp_add_2":"緑ケ丘"},"4380221":{"post_code":"4380221","prefecture":"SHIZUOKA KEN","city":"IWATA SHI","town":"MINAMIHIRAMATSU","perfecture_jp":"静岡県","jp_add_1":"磐田市","jp_add_2":"南平松"},"4380816":{"post_code":"4380816","prefecture":"SHIZUOKA KEN","city":"IWATA SHI","town":"MIYANOISHIKI","perfecture_jp":"静岡県","jp_add_1":"磐田市","jp_add_2":"宮之一色"},"4380207":{"post_code":"4380207","prefecture":"SHIZUOKA KEN","city":"IWATA SHI","town":"MIYAMOTO","perfecture_jp":"静岡県","jp_add_1":"磐田市","jp_add_2":"宮本"},"4380024":{"post_code":"4380024","prefecture":"SHIZUOKA KEN","city":"IWATA SHI","town":"MYOGAJIMA","perfecture_jp":"静岡県","jp_add_1":"磐田市","jp_add_2":"明ケ島"},"4380019":{"post_code":"4380019","prefecture":"SHIZUOKA KEN","city":"IWATA SHI","town":"MYOGAJIMAHARA","perfecture_jp":"静岡県","jp_add_1":"磐田市","jp_add_2":"明ケ島原"},"4380012":{"post_code":"4380012","prefecture":"SHIZUOKA KEN","city":"IWATA SHI","town":"MUKASA ARAYA","perfecture_jp":"静岡県","jp_add_1":"磐田市","jp_add_2":"向笠新屋"},"4380013":{"post_code":"4380013","prefecture":"SHIZUOKA KEN","city":"IWATA SHI","town":"MUKASA TAKENOCHI","perfecture_jp":"静岡県","jp_add_1":"磐田市","jp_add_2":"向笠竹之内"},"4380014":{"post_code":"4380014","prefecture":"SHIZUOKA KEN","city":"IWATA SHI","town":"MUKASA NISHI","perfecture_jp":"静岡県","jp_add_1":"磐田市","jp_add_2":"向笠西"},"4380102":{"post_code":"4380102","prefecture":"SHIZUOKA KEN","city":"IWATA SHI","town":"MUSHU","perfecture_jp":"静岡県","jp_add_1":"磐田市","jp_add_2":"虫生"},"4380082":{"post_code":"4380082","prefecture":"SHIZUOKA KEN","city":"IWATA SHI","town":"MOTOTENJINCHO","perfecture_jp":"静岡県","jp_add_1":"磐田市","jp_add_2":"元天神町"},"4380832":{"post_code":"4380832","prefecture":"SHIZUOKA KEN","city":"IWATA SHI","town":"MORIOKA","perfecture_jp":"静岡県","jp_add_1":"磐田市","jp_add_2":"森岡"},"4380834":{"post_code":"4380834","prefecture":"SHIZUOKA KEN","city":"IWATA SHI","town":"MORISHITA","perfecture_jp":"静岡県","jp_add_1":"磐田市","jp_add_2":"森下"},"4380825":{"post_code":"4380825","prefecture":"SHIZUOKA KEN","city":"IWATA SHI","town":"MORIMOTO","perfecture_jp":"静岡県","jp_add_1":"磐田市","jp_add_2":"森本"},"4380108":{"post_code":"4380108","prefecture":"SHIZUOKA KEN","city":"IWATA SHI","town":"YASHIROYAMA","perfecture_jp":"静岡県","jp_add_1":"磐田市","jp_add_2":"社山"},"4380833":{"post_code":"4380833","prefecture":"SHIZUOKA KEN","city":"IWATA SHI","town":"YATOTAJIMA","perfecture_jp":"静岡県","jp_add_1":"磐田市","jp_add_2":"弥藤太島"},"4380201":{"post_code":"4380201","prefecture":"SHIZUOKA KEN","city":"IWATA SHI","town":"RYUYONAKAJIMA","perfecture_jp":"静岡県","jp_add_1":"磐田市","jp_add_2":"竜洋中島"},"4380213":{"post_code":"4380213","prefecture":"SHIZUOKA KEN","city":"IWATA SHI","town":"RYUYOHIEBARA","perfecture_jp":"静岡県","jp_add_1":"磐田市","jp_add_2":"竜洋稗原"},"4380034":{"post_code":"4380034","prefecture":"SHIZUOKA KEN","city":"IWATA SHI","town":"WAGUCHI","perfecture_jp":"静岡県","jp_add_1":"磐田市","jp_add_2":"和口"}}