{"4390000":{"post_code":"4390000","prefecture":"SHIZUOKA KEN","city":"KIKUGAWA SHI","town":"IKANIKEISAIGANAIBAAI","perfecture_jp":"静岡県","jp_add_1":"菊川市","jp_add_2":""},"4390012":{"post_code":"4390012","prefecture":"SHIZUOKA KEN","city":"KIKUGAWA SHI","town":"AOBADAI","perfecture_jp":"静岡県","jp_add_1":"菊川市","jp_add_2":"青葉台"},"4390017":{"post_code":"4390017","prefecture":"SHIZUOKA KEN","city":"KIKUGAWA SHI","town":"ASAHI","perfecture_jp":"静岡県","jp_add_1":"菊川市","jp_add_2":"朝日"},"4390013":{"post_code":"4390013","prefecture":"SHIZUOKA KEN","city":"KIKUGAWA SHI","town":"USHIBUCHI","perfecture_jp":"静岡県","jp_add_1":"菊川市","jp_add_2":"牛渕"},"4390021":{"post_code":"4390021","prefecture":"SHIZUOKA KEN","city":"KIKUGAWA SHI","town":"OIDE","perfecture_jp":"静岡県","jp_add_1":"菊川市","jp_add_2":"小出"},"4390031":{"post_code":"4390031","prefecture":"SHIZUOKA KEN","city":"KIKUGAWA SHI","town":"KAMO","perfecture_jp":"静岡県","jp_add_1":"菊川市","jp_add_2":"加茂"},"4390016":{"post_code":"4390016","prefecture":"SHIZUOKA KEN","city":"KIKUGAWA SHI","town":"KANNO","perfecture_jp":"静岡県","jp_add_1":"菊川市","jp_add_2":"神尾"},"4390002":{"post_code":"4390002","prefecture":"SHIZUOKA KEN","city":"KIKUGAWA SHI","town":"KURASAWA","perfecture_jp":"静岡県","jp_add_1":"菊川市","jp_add_2":"倉沢"},"4390014":{"post_code":"4390014","prefecture":"SHIZUOKA KEN","city":"KIKUGAWA SHI","town":"KOZAWA","perfecture_jp":"静岡県","jp_add_1":"菊川市","jp_add_2":"小沢"},"4390003":{"post_code":"4390003","prefecture":"SHIZUOKA KEN","city":"KIKUGAWA SHI","town":"SABAKA","perfecture_jp":"静岡県","jp_add_1":"菊川市","jp_add_2":"沢水加"},"4390034":{"post_code":"4390034","prefecture":"SHIZUOKA KEN","city":"KIKUGAWA SHI","town":"SHIMOCHIDA","perfecture_jp":"静岡県","jp_add_1":"菊川市","jp_add_2":"下内田"},"4390005":{"post_code":"4390005","prefecture":"SHIZUOKA KEN","city":"KIKUGAWA SHI","town":"CHOKAIJI","perfecture_jp":"静岡県","jp_add_1":"菊川市","jp_add_2":"潮海寺"},"4390032":{"post_code":"4390032","prefecture":"SHIZUOKA KEN","city":"KIKUGAWA SHI","town":"TSUKIOKA","perfecture_jp":"静岡県","jp_add_1":"菊川市","jp_add_2":"月岡"},"4390025":{"post_code":"4390025","prefecture":"SHIZUOKA KEN","city":"KIKUGAWA SHI","town":"TSUCHIHASHI","perfecture_jp":"静岡県","jp_add_1":"菊川市","jp_add_2":"土橋"},"4390001":{"post_code":"4390001","prefecture":"SHIZUOKA KEN","city":"KIKUGAWA SHI","town":"TOMITA","perfecture_jp":"静岡県","jp_add_1":"菊川市","jp_add_2":"富田"},"4390008":{"post_code":"4390008","prefecture":"SHIZUOKA KEN","city":"KIKUGAWA SHI","town":"TOMODA","perfecture_jp":"静岡県","jp_add_1":"菊川市","jp_add_2":"友田"},"4390036":{"post_code":"4390036","prefecture":"SHIZUOKA KEN","city":"KIKUGAWA SHI","town":"NAKAUCHIDA","perfecture_jp":"静岡県","jp_add_1":"菊川市","jp_add_2":"中内田"},"4390011":{"post_code":"4390011","prefecture":"SHIZUOKA KEN","city":"KIKUGAWA SHI","town":"NAKAJIMA","perfecture_jp":"静岡県","jp_add_1":"菊川市","jp_add_2":"仲島"},"4390024":{"post_code":"4390024","prefecture":"SHIZUOKA KEN","city":"KIKUGAWA SHI","town":"NARANO","perfecture_jp":"静岡県","jp_add_1":"菊川市","jp_add_2":"奈良野"},"4390037":{"post_code":"4390037","prefecture":"SHIZUOKA KEN","city":"KIKUGAWA SHI","town":"NISHIKATA","perfecture_jp":"静岡県","jp_add_1":"菊川市","jp_add_2":"西方"},"4390026":{"post_code":"4390026","prefecture":"SHIZUOKA KEN","city":"KIKUGAWA SHI","town":"NISHIYOKOJI","perfecture_jp":"静岡県","jp_add_1":"菊川市","jp_add_2":"西横地"},"4390019":{"post_code":"4390019","prefecture":"SHIZUOKA KEN","city":"KIKUGAWA SHI","town":"HANSEI","perfecture_jp":"静岡県","jp_add_1":"菊川市","jp_add_2":"半済"},"4390022":{"post_code":"4390022","prefecture":"SHIZUOKA KEN","city":"KIKUGAWA SHI","town":"HIGASHIYOKOJI","perfecture_jp":"静岡県","jp_add_1":"菊川市","jp_add_2":"東横地"},"4390035":{"post_code":"4390035","prefecture":"SHIZUOKA KEN","city":"KIKUGAWA SHI","town":"HIRAO","perfecture_jp":"静岡県","jp_add_1":"菊川市","jp_add_2":"平尾"},"4390006":{"post_code":"4390006","prefecture":"SHIZUOKA KEN","city":"KIKUGAWA SHI","town":"HORINOCHI","perfecture_jp":"静岡県","jp_add_1":"菊川市","jp_add_2":"堀之内"},"4390018":{"post_code":"4390018","prefecture":"SHIZUOKA KEN","city":"KIKUGAWA SHI","town":"HONJO","perfecture_jp":"静岡県","jp_add_1":"菊川市","jp_add_2":"本所"},"4390015":{"post_code":"4390015","prefecture":"SHIZUOKA KEN","city":"KIKUGAWA SHI","town":"MAKINOHARA","perfecture_jp":"静岡県","jp_add_1":"菊川市","jp_add_2":"牧之原"},"4390023":{"post_code":"4390023","prefecture":"SHIZUOKA KEN","city":"KIKUGAWA SHI","town":"MISAWA","perfecture_jp":"静岡県","jp_add_1":"菊川市","jp_add_2":"三沢"},"4390033":{"post_code":"4390033","prefecture":"SHIZUOKA KEN","city":"KIKUGAWA SHI","town":"MIMIGAWA","perfecture_jp":"静岡県","jp_add_1":"菊川市","jp_add_2":"耳川"},"4390007":{"post_code":"4390007","prefecture":"SHIZUOKA KEN","city":"KIKUGAWA SHI","town":"YANAGI","perfecture_jp":"静岡県","jp_add_1":"菊川市","jp_add_2":"柳"},"4390009":{"post_code":"4390009","prefecture":"SHIZUOKA KEN","city":"KIKUGAWA SHI","town":"YOSHISAWA","perfecture_jp":"静岡県","jp_add_1":"菊川市","jp_add_2":"吉沢"},"4390004":{"post_code":"4390004","prefecture":"SHIZUOKA KEN","city":"KIKUGAWA SHI","town":"WADA","perfecture_jp":"静岡県","jp_add_1":"菊川市","jp_add_2":"和田"}}