{"4420000":{"post_code":"4420000","prefecture":"AICHI KEN","city":"TOYOKAWA SHI","town":"IKANIKEISAIGANAIBAAI","perfecture_jp":"愛知県","jp_add_1":"豊川市","jp_add_2":""},"4420054":{"post_code":"4420054","prefecture":"AICHI KEN","city":"TOYOKAWA SHI","town":"AKASHIROCHO","perfecture_jp":"愛知県","jp_add_1":"豊川市","jp_add_2":"赤代町"},"4420887":{"post_code":"4420887","prefecture":"AICHI KEN","city":"TOYOKAWA SHI","town":"AKENOCHO","perfecture_jp":"愛知県","jp_add_1":"豊川市","jp_add_2":"明野町"},"4420015":{"post_code":"4420015","prefecture":"AICHI KEN","city":"TOYOKAWA SHI","town":"AKEBONOCHO","perfecture_jp":"愛知県","jp_add_1":"豊川市","jp_add_2":"曙町"},"4420041":{"post_code":"4420041","prefecture":"AICHI KEN","city":"TOYOKAWA SHI","town":"ASAHIMACHI","perfecture_jp":"愛知県","jp_add_1":"豊川市","jp_add_2":"旭町"},"4420802":{"post_code":"4420802","prefecture":"AICHI KEN","city":"TOYOKAWA SHI","town":"ASODACHO","perfecture_jp":"愛知県","jp_add_1":"豊川市","jp_add_2":"麻生田町"},"4420862":{"post_code":"4420862","prefecture":"AICHI KEN","city":"TOYOKAWA SHI","town":"ICHIDACHO","perfecture_jp":"愛知県","jp_add_1":"豊川市","jp_add_2":"市田町"},"4420023":{"post_code":"4420023","prefecture":"AICHI KEN","city":"TOYOKAWA SHI","town":"INARIDORI","perfecture_jp":"愛知県","jp_add_1":"豊川市","jp_add_2":"稲荷通"},"4420814":{"post_code":"4420814","prefecture":"AICHI KEN","city":"TOYOKAWA SHI","town":"INNOKOCHO","perfecture_jp":"愛知県","jp_add_1":"豊川市","jp_add_2":"院之子町"},"4420801":{"post_code":"4420801","prefecture":"AICHI KEN","city":"TOYOKAWA SHI","town":"UENO","perfecture_jp":"愛知県","jp_add_1":"豊川市","jp_add_2":"上野"},"4420886":{"post_code":"4420886","prefecture":"AICHI KEN","city":"TOYOKAWA SHI","town":"USHIKUBOEKIDORI","perfecture_jp":"愛知県","jp_add_1":"豊川市","jp_add_2":"牛久保駅通"},"4420826":{"post_code":"4420826","prefecture":"AICHI KEN","city":"TOYOKAWA SHI","town":"USHIKUBOCHO","perfecture_jp":"愛知県","jp_add_1":"豊川市","jp_add_2":"牛久保町"},"4420045":{"post_code":"4420045","prefecture":"AICHI KEN","city":"TOYOKAWA SHI","town":"EKIMAEDORI","perfecture_jp":"愛知県","jp_add_1":"豊川市","jp_add_2":"駅前通"},"4420007":{"post_code":"4420007","prefecture":"AICHI KEN","city":"TOYOKAWA SHI","town":"OSAKICHO","perfecture_jp":"愛知県","jp_add_1":"豊川市","jp_add_2":"大崎町"},"4420809":{"post_code":"4420809","prefecture":"AICHI KEN","city":"TOYOKAWA SHI","town":"OHASHICHO","perfecture_jp":"愛知県","jp_add_1":"豊川市","jp_add_2":"大橋町"},"4420013":{"post_code":"4420013","prefecture":"AICHI KEN","city":"TOYOKAWA SHI","town":"OBORICHO","perfecture_jp":"愛知県","jp_add_1":"豊川市","jp_add_2":"大堀町"},"4420844":{"post_code":"4420844","prefecture":"AICHI KEN","city":"TOYOKAWA SHI","town":"ODABUCHICHO","perfecture_jp":"愛知県","jp_add_1":"豊川市","jp_add_2":"小田渕町"},"4420048":{"post_code":"4420048","prefecture":"AICHI KEN","city":"TOYOKAWA SHI","town":"KAIUNDORI","perfecture_jp":"愛知県","jp_add_1":"豊川市","jp_add_2":"開運通"},"4420872":{"post_code":"4420872","prefecture":"AICHI KEN","city":"TOYOKAWA SHI","town":"KANAZUKACHO","perfecture_jp":"愛知県","jp_add_1":"豊川市","jp_add_2":"金塚町"},"4420053":{"post_code":"4420053","prefecture":"AICHI KEN","city":"TOYOKAWA SHI","town":"KANAYACHO","perfecture_jp":"愛知県","jp_add_1":"豊川市","jp_add_2":"金屋町"},"4420067":{"post_code":"4420067","prefecture":"AICHI KEN","city":"TOYOKAWA SHI","town":"KANAYANISHIMACHI","perfecture_jp":"愛知県","jp_add_1":"豊川市","jp_add_2":"金屋西町"},"4420055":{"post_code":"4420055","prefecture":"AICHI KEN","city":"TOYOKAWA SHI","town":"KANAYABASHICHO","perfecture_jp":"愛知県","jp_add_1":"豊川市","jp_add_2":"金屋橋町"},"4420052":{"post_code":"4420052","prefecture":"AICHI KEN","city":"TOYOKAWA SHI","town":"KANAYAHOMMACHI","perfecture_jp":"愛知県","jp_add_1":"豊川市","jp_add_2":"金屋本町"},"4420066":{"post_code":"4420066","prefecture":"AICHI KEN","city":"TOYOKAWA SHI","town":"KANAYAMOTOMACHI","perfecture_jp":"愛知県","jp_add_1":"豊川市","jp_add_2":"金屋元町"},"4420837":{"post_code":"4420837","prefecture":"AICHI KEN","city":"TOYOKAWA SHI","town":"KAWAHANACHO","perfecture_jp":"愛知県","jp_add_1":"豊川市","jp_add_2":"川花町"},"4420042":{"post_code":"4420042","prefecture":"AICHI KEN","city":"TOYOKAWA SHI","town":"KITAURACHO","perfecture_jp":"愛知県","jp_add_1":"豊川市","jp_add_2":"北浦町"},"4420822":{"post_code":"4420822","prefecture":"AICHI KEN","city":"TOYOKAWA SHI","town":"GYOMEICHO","perfecture_jp":"愛知県","jp_add_1":"豊川市","jp_add_2":"行明町"},"4420856":{"post_code":"4420856","prefecture":"AICHI KEN","city":"TOYOKAWA SHI","town":"KUBOCHO","perfecture_jp":"愛知県","jp_add_1":"豊川市","jp_add_2":"久保町"},"4420882":{"post_code":"4420882","prefecture":"AICHI KEN","city":"TOYOKAWA SHI","town":"KOKICHO","perfecture_jp":"愛知県","jp_add_1":"豊川市","jp_add_2":"光輝町"},"4420828":{"post_code":"4420828","prefecture":"AICHI KEN","city":"TOYOKAWA SHI","town":"KOJICHO","perfecture_jp":"愛知県","jp_add_1":"豊川市","jp_add_2":"柑子町"},"4420854":{"post_code":"4420854","prefecture":"AICHI KEN","city":"TOYOKAWA SHI","town":"KOCHO","perfecture_jp":"愛知県","jp_add_1":"豊川市","jp_add_2":"国府町"},"4420852":{"post_code":"4420852","prefecture":"AICHI KEN","city":"TOYOKAWA SHI","town":"KOMINAMI","perfecture_jp":"愛知県","jp_add_1":"豊川市","jp_add_2":"国府南"},"4420884":{"post_code":"4420884","prefecture":"AICHI KEN","city":"TOYOKAWA SHI","town":"KOMEICHO","perfecture_jp":"愛知県","jp_add_1":"豊川市","jp_add_2":"光明町"},"4420038":{"post_code":"4420038","prefecture":"AICHI KEN","city":"TOYOKAWA SHI","town":"KOYOCHO","perfecture_jp":"愛知県","jp_add_1":"豊川市","jp_add_2":"光陽町"},"4420021":{"post_code":"4420021","prefecture":"AICHI KEN","city":"TOYOKAWA SHI","town":"KOZAKURACHO","perfecture_jp":"愛知県","jp_add_1":"豊川市","jp_add_2":"小桜町"},"4420832":{"post_code":"4420832","prefecture":"AICHI KEN","city":"TOYOKAWA SHI","town":"KOTOBUKIDORI","perfecture_jp":"愛知県","jp_add_1":"豊川市","jp_add_2":"寿通"},"4420861":{"post_code":"4420861","prefecture":"AICHI KEN","city":"TOYOKAWA SHI","town":"ZAIKACHO","perfecture_jp":"愛知県","jp_add_1":"豊川市","jp_add_2":"財賀町"},"4420046":{"post_code":"4420046","prefecture":"AICHI KEN","city":"TOYOKAWA SHI","town":"SAIWAICHO","perfecture_jp":"愛知県","jp_add_1":"豊川市","jp_add_2":"幸町"},"4420836":{"post_code":"4420836","prefecture":"AICHI KEN","city":"TOYOKAWA SHI","town":"SAKAIMACHI","perfecture_jp":"愛知県","jp_add_1":"豊川市","jp_add_2":"堺町"},"4420064":{"post_code":"4420064","prefecture":"AICHI KEN","city":"TOYOKAWA SHI","town":"SAKURAGAOKACHO","perfecture_jp":"愛知県","jp_add_1":"豊川市","jp_add_2":"桜ケ丘町"},"4420027":{"post_code":"4420027","prefecture":"AICHI KEN","city":"TOYOKAWA SHI","town":"SAKURAGIDORI","perfecture_jp":"愛知県","jp_add_1":"豊川市","jp_add_2":"桜木通"},"4420843":{"post_code":"4420843","prefecture":"AICHI KEN","city":"TOYOKAWA SHI","town":"SAKURAMACHI","perfecture_jp":"愛知県","jp_add_1":"豊川市","jp_add_2":"桜町"},"4420017":{"post_code":"4420017","prefecture":"AICHI KEN","city":"TOYOKAWA SHI","town":"SADOCHO","perfecture_jp":"愛知県","jp_add_1":"豊川市","jp_add_2":"佐土町"},"4420875":{"post_code":"4420875","prefecture":"AICHI KEN","city":"TOYOKAWA SHI","town":"SANAGAWACHO","perfecture_jp":"愛知県","jp_add_1":"豊川市","jp_add_2":"佐奈川町"},"4420006":{"post_code":"4420006","prefecture":"AICHI KEN","city":"TOYOKAWA SHI","town":"SANZOGOCHO","perfecture_jp":"愛知県","jp_add_1":"豊川市","jp_add_2":"三蔵子町"},"4420824":{"post_code":"4420824","prefecture":"AICHI KEN","city":"TOYOKAWA SHI","town":"SHIMONAGAYAMACHO","perfecture_jp":"愛知県","jp_add_1":"豊川市","jp_add_2":"下長山町"},"4420877":{"post_code":"4420877","prefecture":"AICHI KEN","city":"TOYOKAWA SHI","town":"SHIMONOGAWACHO","perfecture_jp":"愛知県","jp_add_1":"豊川市","jp_add_2":"下野川町"},"4420018":{"post_code":"4420018","prefecture":"AICHI KEN","city":"TOYOKAWA SHI","town":"SHIRAKUMOCHO","perfecture_jp":"愛知県","jp_add_1":"豊川市","jp_add_2":"白雲町"},"4420847":{"post_code":"4420847","prefecture":"AICHI KEN","city":"TOYOKAWA SHI","town":"SHIROTORI","perfecture_jp":"愛知県","jp_add_1":"豊川市","jp_add_2":"白鳥"},"4420848":{"post_code":"4420848","prefecture":"AICHI KEN","city":"TOYOKAWA SHI","town":"SHIROTORICHO","perfecture_jp":"愛知県","jp_add_1":"豊川市","jp_add_2":"白鳥町"},"4420853":{"post_code":"4420853","prefecture":"AICHI KEN","city":"TOYOKAWA SHI","town":"SHINAOMACHO","perfecture_jp":"愛知県","jp_add_1":"豊川市","jp_add_2":"新青馬町"},"4420855":{"post_code":"4420855","prefecture":"AICHI KEN","city":"TOYOKAWA SHI","town":"SHINSAKAEMACHI","perfecture_jp":"愛知県","jp_add_1":"豊川市","jp_add_2":"新栄町"},"4420835":{"post_code":"4420835","prefecture":"AICHI KEN","city":"TOYOKAWA SHI","town":"SHINSAKURAMACHIDORI","perfecture_jp":"愛知県","jp_add_1":"豊川市","jp_add_2":"新桜町通"},"4420043":{"post_code":"4420043","prefecture":"AICHI KEN","city":"TOYOKAWA SHI","town":"SHINJUKUCHO","perfecture_jp":"愛知県","jp_add_1":"豊川市","jp_add_2":"新宿町"},"4420878":{"post_code":"4420878","prefecture":"AICHI KEN","city":"TOYOKAWA SHI","town":"SHIMMICHICHO","perfecture_jp":"愛知県","jp_add_1":"豊川市","jp_add_2":"新道町"},"4420012":{"post_code":"4420012","prefecture":"AICHI KEN","city":"TOYOKAWA SHI","town":"SHINYUTAKAMACHI","perfecture_jp":"愛知県","jp_add_1":"豊川市","jp_add_2":"新豊町"},"4420029":{"post_code":"4420029","prefecture":"AICHI KEN","city":"TOYOKAWA SHI","town":"SUEHIRODORI","perfecture_jp":"愛知県","jp_add_1":"豊川市","jp_add_2":"末広通"},"4420819":{"post_code":"4420819","prefecture":"AICHI KEN","city":"TOYOKAWA SHI","town":"SUMIYOSHICHO","perfecture_jp":"愛知県","jp_add_1":"豊川市","jp_add_2":"住吉町"},"4420068":{"post_code":"4420068","prefecture":"AICHI KEN","city":"TOYOKAWA SHI","town":"SUWA","perfecture_jp":"愛知県","jp_add_1":"豊川市","jp_add_2":"諏訪"},"4420069":{"post_code":"4420069","prefecture":"AICHI KEN","city":"TOYOKAWA SHI","town":"SUWANISHIMACHI","perfecture_jp":"愛知県","jp_add_1":"豊川市","jp_add_2":"諏訪西町"},"4420815":{"post_code":"4420815","prefecture":"AICHI KEN","city":"TOYOKAWA SHI","town":"SEGICHO","perfecture_jp":"愛知県","jp_add_1":"豊川市","jp_add_2":"瀬木町"},"4420842":{"post_code":"4420842","prefecture":"AICHI KEN","city":"TOYOKAWA SHI","town":"ZOSHI","perfecture_jp":"愛知県","jp_add_1":"豊川市","jp_add_2":"蔵子"},"4420841":{"post_code":"4420841","prefecture":"AICHI KEN","city":"TOYOKAWA SHI","town":"DAIDACHO","perfecture_jp":"愛知県","jp_add_1":"豊川市","jp_add_2":"代田町"},"4420883":{"post_code":"4420883","prefecture":"AICHI KEN","city":"TOYOKAWA SHI","town":"TAKAMICHO","perfecture_jp":"愛知県","jp_add_1":"豊川市","jp_add_2":"高見町"},"4420845":{"post_code":"4420845","prefecture":"AICHI KEN","city":"TOYOKAWA SHI","town":"TAMETOCHO","perfecture_jp":"愛知県","jp_add_1":"豊川市","jp_add_2":"為当町"},"4420004":{"post_code":"4420004","prefecture":"AICHI KEN","city":"TOYOKAWA SHI","town":"TARUICHO","perfecture_jp":"愛知県","jp_add_1":"豊川市","jp_add_2":"樽井町"},"4420001":{"post_code":"4420001","prefecture":"AICHI KEN","city":"TOYOKAWA SHI","town":"CHIGIRICHO","perfecture_jp":"愛知県","jp_add_1":"豊川市","jp_add_2":"千両町"},"4420888":{"post_code":"4420888","prefecture":"AICHI KEN","city":"TOYOKAWA SHI","town":"CHITOSEDORI","perfecture_jp":"愛知県","jp_add_1":"豊川市","jp_add_2":"千歳通"},"4420051":{"post_code":"4420051","prefecture":"AICHI KEN","city":"TOYOKAWA SHI","town":"CHUODORI","perfecture_jp":"愛知県","jp_add_1":"豊川市","jp_add_2":"中央通"},"4420818":{"post_code":"4420818","prefecture":"AICHI KEN","city":"TOYOKAWA SHI","town":"CHUJOCHO","perfecture_jp":"愛知県","jp_add_1":"豊川市","jp_add_2":"中条町"},"4420876":{"post_code":"4420876","prefecture":"AICHI KEN","city":"TOYOKAWA SHI","town":"CHUBUCHO","perfecture_jp":"愛知県","jp_add_1":"豊川市","jp_add_2":"中部町"},"4420039":{"post_code":"4420039","prefecture":"AICHI KEN","city":"TOYOKAWA SHI","town":"TENJINCHO","perfecture_jp":"愛知県","jp_add_1":"豊川市","jp_add_2":"天神町"},"4420022":{"post_code":"4420022","prefecture":"AICHI KEN","city":"TOYOKAWA SHI","town":"TOKOCHO","perfecture_jp":"愛知県","jp_add_1":"豊川市","jp_add_2":"東光町"},"4420821":{"post_code":"4420821","prefecture":"AICHI KEN","city":"TOYOKAWA SHI","town":"TOGOCHO","perfecture_jp":"愛知県","jp_add_1":"豊川市","jp_add_2":"当古町"},"4420026":{"post_code":"4420026","prefecture":"AICHI KEN","city":"TOYOKAWA SHI","town":"TOSHINCHO","perfecture_jp":"愛知県","jp_add_1":"豊川市","jp_add_2":"東新町"},"4420881":{"post_code":"4420881","prefecture":"AICHI KEN","city":"TOYOKAWA SHI","town":"TONOGICHO","perfecture_jp":"愛知県","jp_add_1":"豊川市","jp_add_2":"塔ノ木町"},"4420019":{"post_code":"4420019","prefecture":"AICHI KEN","city":"TOYOKAWA SHI","town":"TOMEICHO","perfecture_jp":"愛知県","jp_add_1":"豊川市","jp_add_2":"東名町"},"4420813":{"post_code":"4420813","prefecture":"AICHI KEN","city":"TOYOKAWA SHI","town":"DODOCHO","perfecture_jp":"愛知県","jp_add_1":"豊川市","jp_add_2":"土筒町"},"4420036":{"post_code":"4420036","prefecture":"AICHI KEN","city":"TOYOKAWA SHI","town":"TOYOKAWA SAKAEMACHI","perfecture_jp":"愛知県","jp_add_1":"豊川市","jp_add_2":"豊川栄町"},"4420032":{"post_code":"4420032","prefecture":"AICHI KEN","city":"TOYOKAWA SHI","town":"TOYOKAWA NAKAMACHI","perfecture_jp":"愛知県","jp_add_1":"豊川市","jp_add_2":"豊川仲町"},"4420031":{"post_code":"4420031","prefecture":"AICHI KEN","city":"TOYOKAWA SHI","town":"TOYOKAWA NISHIMACHI","perfecture_jp":"愛知県","jp_add_1":"豊川市","jp_add_2":"豊川西町"},"4420035":{"post_code":"4420035","prefecture":"AICHI KEN","city":"TOYOKAWA SHI","town":"TOYOKAWA MOTOMACHI","perfecture_jp":"愛知県","jp_add_1":"豊川市","jp_add_2":"豊川元町"},"4420033":{"post_code":"4420033","prefecture":"AICHI KEN","city":"TOYOKAWA SHI","town":"TOYOKAWACHO","perfecture_jp":"愛知県","jp_add_1":"豊川市","jp_add_2":"豊川町"},"4420003":{"post_code":"4420003","prefecture":"AICHI KEN","city":"TOYOKAWA SHI","town":"NAGAKUSACHO","perfecture_jp":"愛知県","jp_add_1":"豊川市","jp_add_2":"長草町"},"4420885":{"post_code":"4420885","prefecture":"AICHI KEN","city":"TOYOKAWA SHI","town":"NAKANOGAWACHO","perfecture_jp":"愛知県","jp_add_1":"豊川市","jp_add_2":"中野川町"},"4420833":{"post_code":"4420833","prefecture":"AICHI KEN","city":"TOYOKAWA SHI","town":"NISHIGUCHICHO","perfecture_jp":"愛知県","jp_add_1":"豊川市","jp_add_2":"西口町"},"4420834":{"post_code":"4420834","prefecture":"AICHI KEN","city":"TOYOKAWA SHI","town":"NISHIKONOGICHO","perfecture_jp":"愛知県","jp_add_1":"豊川市","jp_add_2":"西香ノ木町"},"4420063":{"post_code":"4420063","prefecture":"AICHI KEN","city":"TOYOKAWA SHI","town":"NISHISAKURAGICHO","perfecture_jp":"愛知県","jp_add_1":"豊川市","jp_add_2":"西桜木町"},"4420827":{"post_code":"4420827","prefecture":"AICHI KEN","city":"TOYOKAWA SHI","town":"NISHIJIMACHO","perfecture_jp":"愛知県","jp_add_1":"豊川市","jp_add_2":"西島町"},"4420838":{"post_code":"4420838","prefecture":"AICHI KEN","city":"TOYOKAWA SHI","town":"NISHIZUKACHO","perfecture_jp":"愛知県","jp_add_1":"豊川市","jp_add_2":"西塚町"},"4420034":{"post_code":"4420034","prefecture":"AICHI KEN","city":"TOYOKAWA SHI","town":"NISHIHOMMACHI","perfecture_jp":"愛知県","jp_add_1":"豊川市","jp_add_2":"西本町"},"4420024":{"post_code":"4420024","prefecture":"AICHI KEN","city":"TOYOKAWA SHI","town":"NISHIYUTAKAMACHI","perfecture_jp":"愛知県","jp_add_1":"豊川市","jp_add_2":"西豊町"},"4420851":{"post_code":"4420851","prefecture":"AICHI KEN","city":"TOYOKAWA SHI","town":"NOGUCHICHO","perfecture_jp":"愛知県","jp_add_1":"豊川市","jp_add_2":"野口町"},"4420879":{"post_code":"4420879","prefecture":"AICHI KEN","city":"TOYOKAWA SHI","town":"HAGIYAMACHO","perfecture_jp":"愛知県","jp_add_1":"豊川市","jp_add_2":"萩山町"},"4420816":{"post_code":"4420816","prefecture":"AICHI KEN","city":"TOYOKAWA SHI","town":"HANAICHO","perfecture_jp":"愛知県","jp_add_1":"豊川市","jp_add_2":"花井町"},"4420811":{"post_code":"4420811","prefecture":"AICHI KEN","city":"TOYOKAWA SHI","town":"BABACHO","perfecture_jp":"愛知県","jp_add_1":"豊川市","jp_add_2":"馬場町"},"4420011":{"post_code":"4420011","prefecture":"AICHI KEN","city":"TOYOKAWA SHI","town":"HIGASHIAKEBONOCHO","perfecture_jp":"愛知県","jp_add_1":"豊川市","jp_add_2":"東曙町"},"4420028":{"post_code":"4420028","prefecture":"AICHI KEN","city":"TOYOKAWA SHI","town":"HIGASHISAKURAGICHO","perfecture_jp":"愛知県","jp_add_1":"豊川市","jp_add_2":"東桜木町"},"4420025":{"post_code":"4420025","prefecture":"AICHI KEN","city":"TOYOKAWA SHI","town":"HIGASHIYUTAKAMACHI","perfecture_jp":"愛知県","jp_add_1":"豊川市","jp_add_2":"東豊町"},"4420863":{"post_code":"4420863","prefecture":"AICHI KEN","city":"TOYOKAWA SHI","town":"HIRAOCHO","perfecture_jp":"愛知県","jp_add_1":"豊川市","jp_add_2":"平尾町"},"4420804":{"post_code":"4420804","prefecture":"AICHI KEN","city":"TOYOKAWA SHI","town":"FUTABACHO","perfecture_jp":"愛知県","jp_add_1":"豊川市","jp_add_2":"二葉町"},"4420044":{"post_code":"4420044","prefecture":"AICHI KEN","city":"TOYOKAWA SHI","town":"FUTAMICHO","perfecture_jp":"愛知県","jp_add_1":"豊川市","jp_add_2":"二見町"},"4420817":{"post_code":"4420817","prefecture":"AICHI KEN","city":"TOYOKAWA SHI","town":"FURUJUKUCHO","perfecture_jp":"愛知県","jp_add_1":"豊川市","jp_add_2":"古宿町"},"4420014":{"post_code":"4420014","prefecture":"AICHI KEN","city":"TOYOKAWA SHI","town":"HOEICHO","perfecture_jp":"愛知県","jp_add_1":"豊川市","jp_add_2":"豊栄町"},"4420061":{"post_code":"4420061","prefecture":"AICHI KEN","city":"TOYOKAWA SHI","town":"HONOHARA","perfecture_jp":"愛知県","jp_add_1":"豊川市","jp_add_2":"穂ノ原"},"4420005":{"post_code":"4420005","prefecture":"AICHI KEN","city":"TOYOKAWA SHI","town":"HONNOGAHARA","perfecture_jp":"愛知県","jp_add_1":"豊川市","jp_add_2":"本野ケ原"},"4420062":{"post_code":"4420062","prefecture":"AICHI KEN","city":"TOYOKAWA SHI","town":"HONNOCHO","perfecture_jp":"愛知県","jp_add_1":"豊川市","jp_add_2":"本野町"},"4420806":{"post_code":"4420806","prefecture":"AICHI KEN","city":"TOYOKAWA SHI","town":"MAKINOCHO","perfecture_jp":"愛知県","jp_add_1":"豊川市","jp_add_2":"牧野町"},"4420823":{"post_code":"4420823","prefecture":"AICHI KEN","city":"TOYOKAWA SHI","town":"MASAOKACHO","perfecture_jp":"愛知県","jp_add_1":"豊川市","jp_add_2":"正岡町"},"4420871":{"post_code":"4420871","prefecture":"AICHI KEN","city":"TOYOKAWA SHI","town":"MATSUKAZECHO","perfecture_jp":"愛知県","jp_add_1":"豊川市","jp_add_2":"松風町"},"4420874":{"post_code":"4420874","prefecture":"AICHI KEN","city":"TOYOKAWA SHI","town":"MATSUHISACHO","perfecture_jp":"愛知県","jp_add_1":"豊川市","jp_add_2":"松久町"},"4420812":{"post_code":"4420812","prefecture":"AICHI KEN","city":"TOYOKAWA SHI","town":"MIKAMICHO","perfecture_jp":"愛知県","jp_add_1":"豊川市","jp_add_2":"三上町"},"4420049":{"post_code":"4420049","prefecture":"AICHI KEN","city":"TOYOKAWA SHI","town":"MIDORIMACHI","perfecture_jp":"愛知県","jp_add_1":"豊川市","jp_add_2":"緑町"},"4420889":{"post_code":"4420889","prefecture":"AICHI KEN","city":"TOYOKAWA SHI","town":"MINAMIODORI","perfecture_jp":"愛知県","jp_add_1":"豊川市","jp_add_2":"南大通"},"4420008":{"post_code":"4420008","prefecture":"AICHI KEN","city":"TOYOKAWA SHI","town":"MINAMICHIGIRI","perfecture_jp":"愛知県","jp_add_1":"豊川市","jp_add_2":"南千両"},"4420805":{"post_code":"4420805","prefecture":"AICHI KEN","city":"TOYOKAWA SHI","town":"MIYAHARACHO","perfecture_jp":"愛知県","jp_add_1":"豊川市","jp_add_2":"三谷原町"},"4420016":{"post_code":"4420016","prefecture":"AICHI KEN","city":"TOYOKAWA SHI","town":"MIYUKICHO","perfecture_jp":"愛知県","jp_add_1":"豊川市","jp_add_2":"美幸町"},"4420825":{"post_code":"4420825","prefecture":"AICHI KEN","city":"TOYOKAWA SHI","town":"MIWADORI","perfecture_jp":"愛知県","jp_add_1":"豊川市","jp_add_2":"美和通"},"4420803":{"post_code":"4420803","prefecture":"AICHI KEN","city":"TOYOKAWA SHI","town":"MUKOGAWARACHO","perfecture_jp":"愛知県","jp_add_1":"豊川市","jp_add_2":"向河原町"},"4420846":{"post_code":"4420846","prefecture":"AICHI KEN","city":"TOYOKAWA SHI","town":"MORI","perfecture_jp":"愛知県","jp_add_1":"豊川市","jp_add_2":"森"},"4420037":{"post_code":"4420037","prefecture":"AICHI KEN","city":"TOYOKAWA SHI","town":"MONZENCHO","perfecture_jp":"愛知県","jp_add_1":"豊川市","jp_add_2":"門前町"},"4420807":{"post_code":"4420807","prefecture":"AICHI KEN","city":"TOYOKAWA SHI","town":"YAGAWACHO","perfecture_jp":"愛知県","jp_add_1":"豊川市","jp_add_2":"谷川町"},"4420873":{"post_code":"4420873","prefecture":"AICHI KEN","city":"TOYOKAWA SHI","town":"YAMAMICHICHO","perfecture_jp":"愛知県","jp_add_1":"豊川市","jp_add_2":"山道町"},"4420831":{"post_code":"4420831","prefecture":"AICHI KEN","city":"TOYOKAWA SHI","town":"YAYOICHO","perfecture_jp":"愛知県","jp_add_1":"豊川市","jp_add_2":"弥生町"},"4420857":{"post_code":"4420857","prefecture":"AICHI KEN","city":"TOYOKAWA SHI","town":"YAWATACHO","perfecture_jp":"愛知県","jp_add_1":"豊川市","jp_add_2":"八幡町"},"4420808":{"post_code":"4420808","prefecture":"AICHI KEN","city":"TOYOKAWA SHI","town":"YUTAKAGAOKACHO","perfecture_jp":"愛知県","jp_add_1":"豊川市","jp_add_2":"豊が丘町"},"4420839":{"post_code":"4420839","prefecture":"AICHI KEN","city":"TOYOKAWA SHI","town":"YOTSUYACHO","perfecture_jp":"愛知県","jp_add_1":"豊川市","jp_add_2":"四ツ谷町"},"4420002":{"post_code":"4420002","prefecture":"AICHI KEN","city":"TOYOKAWA SHI","town":"ROKKAKUCHO","perfecture_jp":"愛知県","jp_add_1":"豊川市","jp_add_2":"六角町"},"4420065":{"post_code":"4420065","prefecture":"AICHI KEN","city":"TOYOKAWA SHI","town":"WAKABATOCHO","perfecture_jp":"愛知県","jp_add_1":"豊川市","jp_add_2":"若鳩町"},"4420047":{"post_code":"4420047","prefecture":"AICHI KEN","city":"TOYOKAWA SHI","town":"WAKAMIYACHO","perfecture_jp":"愛知県","jp_add_1":"豊川市","jp_add_2":"若宮町"}}