{"4430000":{"post_code":"4430000","prefecture":"AICHI KEN","city":"GAMAGORI SHI","town":"IKANIKEISAIGANAIBAAI","perfecture_jp":"愛知県","jp_add_1":"蒲郡市","jp_add_2":""},"4430045":{"post_code":"4430045","prefecture":"AICHI KEN","city":"GAMAGORI SHI","town":"ASAHIMACHI","perfecture_jp":"愛知県","jp_add_1":"蒲郡市","jp_add_2":"旭町"},"4430051":{"post_code":"4430051","prefecture":"AICHI KEN","city":"GAMAGORI SHI","town":"ARAIGATACHO","perfecture_jp":"愛知県","jp_add_1":"蒲郡市","jp_add_2":"新井形町"},"4430052":{"post_code":"4430052","prefecture":"AICHI KEN","city":"GAMAGORI SHI","town":"ARAICHO","perfecture_jp":"愛知県","jp_add_1":"蒲郡市","jp_add_2":"新井町"},"4430101":{"post_code":"4430101","prefecture":"AICHI KEN","city":"GAMAGORI SHI","town":"ISHIKICHO","perfecture_jp":"愛知県","jp_add_1":"蒲郡市","jp_add_2":"一色町"},"4430058":{"post_code":"4430058","prefecture":"AICHI KEN","city":"GAMAGORI SHI","town":"UEHOMMACHI","perfecture_jp":"愛知県","jp_add_1":"蒲郡市","jp_add_2":"上本町"},"4430013":{"post_code":"4430013","prefecture":"AICHI KEN","city":"GAMAGORI SHI","town":"OTSUKACHO","perfecture_jp":"愛知県","jp_add_1":"蒲郡市","jp_add_2":"大塚町"},"4430014":{"post_code":"4430014","prefecture":"AICHI KEN","city":"GAMAGORI SHI","town":"KAIYOCHO","perfecture_jp":"愛知県","jp_add_1":"蒲郡市","jp_add_2":"海陽町"},"4430037":{"post_code":"4430037","prefecture":"AICHI KEN","city":"GAMAGORI SHI","town":"KASHIMACHO","perfecture_jp":"愛知県","jp_add_1":"蒲郡市","jp_add_2":"鹿島町"},"4430008":{"post_code":"4430008","prefecture":"AICHI KEN","city":"GAMAGORI SHI","town":"KASHIWABARACHO","perfecture_jp":"愛知県","jp_add_1":"蒲郡市","jp_add_2":"柏原町"},"4430104":{"post_code":"4430104","prefecture":"AICHI KEN","city":"GAMAGORI SHI","town":"KATAHARACHO","perfecture_jp":"愛知県","jp_add_1":"蒲郡市","jp_add_2":"形原町"},"4430106":{"post_code":"4430106","prefecture":"AICHI KEN","city":"GAMAGORI SHI","town":"KATAHARACHOKASUGAURA","perfecture_jp":"愛知県","jp_add_1":"蒲郡市","jp_add_2":"形原町春日浦"},"4430103":{"post_code":"4430103","prefecture":"AICHI KEN","city":"GAMAGORI SHI","town":"KATAHARACHO KITAHAMA","perfecture_jp":"愛知県","jp_add_1":"蒲郡市","jp_add_2":"形原町北浜"},"4430102":{"post_code":"4430102","prefecture":"AICHI KEN","city":"GAMAGORI SHI","town":"KANEHIRACHO","perfecture_jp":"愛知県","jp_add_1":"蒲郡市","jp_add_2":"金平町"},"4430006":{"post_code":"4430006","prefecture":"AICHI KEN","city":"GAMAGORI SHI","town":"GAMAGORICHO","perfecture_jp":"愛知県","jp_add_1":"蒲郡市","jp_add_2":"蒲郡町"},"4430007":{"post_code":"4430007","prefecture":"AICHI KEN","city":"GAMAGORI SHI","town":"KAMINOGOCHO","perfecture_jp":"愛知県","jp_add_1":"蒲郡市","jp_add_2":"神ノ郷町"},"4430003":{"post_code":"4430003","prefecture":"AICHI KEN","city":"GAMAGORI SHI","town":"GOICHO","perfecture_jp":"愛知県","jp_add_1":"蒲郡市","jp_add_2":"五井町"},"4430035":{"post_code":"4430035","prefecture":"AICHI KEN","city":"GAMAGORI SHI","town":"SAKAEMACHI","perfecture_jp":"愛知県","jp_add_1":"蒲郡市","jp_add_2":"栄町"},"4430001":{"post_code":"4430001","prefecture":"AICHI KEN","city":"GAMAGORI SHI","town":"SAKAMOTOCHO","perfecture_jp":"愛知県","jp_add_1":"蒲郡市","jp_add_2":"坂本町"},"4430012":{"post_code":"4430012","prefecture":"AICHI KEN","city":"GAMAGORI SHI","town":"SAGARACHO","perfecture_jp":"愛知県","jp_add_1":"蒲郡市","jp_add_2":"相楽町"},"4430056":{"post_code":"4430056","prefecture":"AICHI KEN","city":"GAMAGORI SHI","town":"SHIMMEICHO","perfecture_jp":"愛知県","jp_add_1":"蒲郡市","jp_add_2":"神明町"},"4430002":{"post_code":"4430002","prefecture":"AICHI KEN","city":"GAMAGORI SHI","town":"SEIDACHO","perfecture_jp":"愛知県","jp_add_1":"蒲郡市","jp_add_2":"清田町"},"4430044":{"post_code":"4430044","prefecture":"AICHI KEN","city":"GAMAGORI SHI","town":"TAKARAMACHI","perfecture_jp":"愛知県","jp_add_1":"蒲郡市","jp_add_2":"宝町"},"4430031":{"post_code":"4430031","prefecture":"AICHI KEN","city":"GAMAGORI SHI","town":"TAKESHIMACHO","perfecture_jp":"愛知県","jp_add_1":"蒲郡市","jp_add_2":"竹島町"},"4430046":{"post_code":"4430046","prefecture":"AICHI KEN","city":"GAMAGORI SHI","town":"TAKENOYACHO","perfecture_jp":"愛知県","jp_add_1":"蒲郡市","jp_add_2":"竹谷町"},"4430057":{"post_code":"4430057","prefecture":"AICHI KEN","city":"GAMAGORI SHI","town":"CHUOHOMMACHI","perfecture_jp":"愛知県","jp_add_1":"蒲郡市","jp_add_2":"中央本町"},"4430011":{"post_code":"4430011","prefecture":"AICHI KEN","city":"GAMAGORI SHI","town":"TOYOKACHO","perfecture_jp":"愛知県","jp_add_1":"蒲郡市","jp_add_2":"豊岡町"},"4430105":{"post_code":"4430105","prefecture":"AICHI KEN","city":"GAMAGORI SHI","town":"NISHIURACHO","perfecture_jp":"愛知県","jp_add_1":"蒲郡市","jp_add_2":"西浦町"},"4430047":{"post_code":"4430047","prefecture":"AICHI KEN","city":"GAMAGORI SHI","town":"NISHIHASAMACHO","perfecture_jp":"愛知県","jp_add_1":"蒲郡市","jp_add_2":"西迫町"},"4430036":{"post_code":"4430036","prefecture":"AICHI KEN","city":"GAMAGORI SHI","town":"HAMACHO","perfecture_jp":"愛知県","jp_add_1":"蒲郡市","jp_add_2":"浜町"},"4430004":{"post_code":"4430004","prefecture":"AICHI KEN","city":"GAMAGORI SHI","town":"HIRATACHO","perfecture_jp":"愛知県","jp_add_1":"蒲郡市","jp_add_2":"平田町"},"4430038":{"post_code":"4430038","prefecture":"AICHI KEN","city":"GAMAGORI SHI","town":"HIROISHICHO","perfecture_jp":"愛知県","jp_add_1":"蒲郡市","jp_add_2":"拾石町"},"4430054":{"post_code":"4430054","prefecture":"AICHI KEN","city":"GAMAGORI SHI","town":"FUSOCHO","perfecture_jp":"愛知県","jp_add_1":"蒲郡市","jp_add_2":"府相町"},"4430053":{"post_code":"4430053","prefecture":"AICHI KEN","city":"GAMAGORI SHI","town":"HORIGOMICHO","perfecture_jp":"愛知県","jp_add_1":"蒲郡市","jp_add_2":"堀込町"},"4430059":{"post_code":"4430059","prefecture":"AICHI KEN","city":"GAMAGORI SHI","town":"HOMMACHI","perfecture_jp":"愛知県","jp_add_1":"蒲郡市","jp_add_2":"本町"},"4430033":{"post_code":"4430033","prefecture":"AICHI KEN","city":"GAMAGORI SHI","town":"MATSUBARACHO","perfecture_jp":"愛知県","jp_add_1":"蒲郡市","jp_add_2":"松原町"},"4430032":{"post_code":"4430032","prefecture":"AICHI KEN","city":"GAMAGORI SHI","town":"MARUYAMACHO","perfecture_jp":"愛知県","jp_add_1":"蒲郡市","jp_add_2":"丸山町"},"4430005":{"post_code":"4430005","prefecture":"AICHI KEN","city":"GAMAGORI SHI","town":"MIZUTAKECHO","perfecture_jp":"愛知県","jp_add_1":"蒲郡市","jp_add_2":"水竹町"},"4430048":{"post_code":"4430048","prefecture":"AICHI KEN","city":"GAMAGORI SHI","town":"MIDORIMACHI","perfecture_jp":"愛知県","jp_add_1":"蒲郡市","jp_add_2":"緑町"},"4430034":{"post_code":"4430034","prefecture":"AICHI KEN","city":"GAMAGORI SHI","town":"MINATOMACHI","perfecture_jp":"愛知県","jp_add_1":"蒲郡市","jp_add_2":"港町"},"4430022":{"post_code":"4430022","prefecture":"AICHI KEN","city":"GAMAGORI SHI","town":"MIYAKITADORI","perfecture_jp":"愛知県","jp_add_1":"蒲郡市","jp_add_2":"三谷北通"},"4430021":{"post_code":"4430021","prefecture":"AICHI KEN","city":"GAMAGORI SHI","town":"MIYACHO","perfecture_jp":"愛知県","jp_add_1":"蒲郡市","jp_add_2":"三谷町"},"4430041":{"post_code":"4430041","prefecture":"AICHI KEN","city":"GAMAGORI SHI","town":"MIYANARICHO","perfecture_jp":"愛知県","jp_add_1":"蒲郡市","jp_add_2":"宮成町"},"4430042":{"post_code":"4430042","prefecture":"AICHI KEN","city":"GAMAGORI SHI","town":"MIYUKICHO","perfecture_jp":"愛知県","jp_add_1":"蒲郡市","jp_add_2":"御幸町"},"4430043":{"post_code":"4430043","prefecture":"AICHI KEN","city":"GAMAGORI SHI","town":"MOTOMACHI","perfecture_jp":"愛知県","jp_add_1":"蒲郡市","jp_add_2":"元町"},"4430055":{"post_code":"4430055","prefecture":"AICHI KEN","city":"GAMAGORI SHI","town":"YAOTOMICHO","perfecture_jp":"愛知県","jp_add_1":"蒲郡市","jp_add_2":"八百富町"}}