{"4450000":{"post_code":"4450000","prefecture":"AICHI KEN","city":"NISHIO SHI","town":"IKANIKEISAIGANAIBAAI","perfecture_jp":"愛知県","jp_add_1":"西尾市","jp_add_2":""},"4450863":{"post_code":"4450863","prefecture":"AICHI KEN","city":"NISHIO SHI","town":"AOICHO","perfecture_jp":"愛知県","jp_add_1":"西尾市","jp_add_2":"葵町"},"4450861":{"post_code":"4450861","prefecture":"AICHI KEN","city":"NISHIO SHI","town":"AZUMACHO","perfecture_jp":"愛知県","jp_add_1":"西尾市","jp_add_2":"吾妻町"},"4450824":{"post_code":"4450824","prefecture":"AICHI KEN","city":"NISHIO SHI","town":"IZUMICHO","perfecture_jp":"愛知県","jp_add_1":"西尾市","jp_add_2":"和泉町"},"4450055":{"post_code":"4450055","prefecture":"AICHI KEN","city":"NISHIO SHI","town":"ICHIGOCHO","perfecture_jp":"愛知県","jp_add_1":"西尾市","jp_add_2":"市子町"},"4450807":{"post_code":"4450807","prefecture":"AICHI KEN","city":"NISHIO SHI","town":"ITO","perfecture_jp":"愛知県","jp_add_1":"西尾市","jp_add_2":"伊藤"},"4450806":{"post_code":"4450806","prefecture":"AICHI KEN","city":"NISHIO SHI","town":"ITOCHO","perfecture_jp":"愛知県","jp_add_1":"西尾市","jp_add_2":"伊藤町"},"4450822":{"post_code":"4450822","prefecture":"AICHI KEN","city":"NISHIO SHI","town":"IBUNCHO","perfecture_jp":"愛知県","jp_add_1":"西尾市","jp_add_2":"伊文町"},"4450063":{"post_code":"4450063","prefecture":"AICHI KEN","city":"NISHIO SHI","town":"IMAGAWACHO","perfecture_jp":"愛知県","jp_add_1":"西尾市","jp_add_2":"今川町"},"4450043":{"post_code":"4450043","prefecture":"AICHI KEN","city":"NISHIO SHI","town":"UGAIKECHO","perfecture_jp":"愛知県","jp_add_1":"西尾市","jp_add_2":"鵜ケ池町"},"4450854":{"post_code":"4450854","prefecture":"AICHI KEN","city":"NISHIO SHI","town":"EIRAKUCHO","perfecture_jp":"愛知県","jp_add_1":"西尾市","jp_add_2":"永楽町"},"4450031":{"post_code":"4450031","prefecture":"AICHI KEN","city":"NISHIO SHI","town":"ETAKECHO","perfecture_jp":"愛知県","jp_add_1":"西尾市","jp_add_2":"家武町"},"4450026":{"post_code":"4450026","prefecture":"AICHI KEN","city":"NISHIO SHI","town":"EWARACHO","perfecture_jp":"愛知県","jp_add_1":"西尾市","jp_add_2":"江原町"},"4450024":{"post_code":"4450024","prefecture":"AICHI KEN","city":"NISHIO SHI","town":"OWADACHO","perfecture_jp":"愛知県","jp_add_1":"西尾市","jp_add_2":"大和田町"},"4450022":{"post_code":"4450022","prefecture":"AICHI KEN","city":"NISHIO SHI","town":"OKAJIMACHO","perfecture_jp":"愛知県","jp_add_1":"西尾市","jp_add_2":"岡島町"},"4450831":{"post_code":"4450831","prefecture":"AICHI KEN","city":"NISHIO SHI","town":"OGYUCHO","perfecture_jp":"愛知県","jp_add_1":"西尾市","jp_add_2":"大給町"},"4450006":{"post_code":"4450006","prefecture":"AICHI KEN","city":"NISHIO SHI","town":"OJIMACHO","perfecture_jp":"愛知県","jp_add_1":"西尾市","jp_add_2":"小島町"},"4450027":{"post_code":"4450027","prefecture":"AICHI KEN","city":"NISHIO SHI","town":"OBANACHO","perfecture_jp":"愛知県","jp_add_1":"西尾市","jp_add_2":"尾花町"},"4450893":{"post_code":"4450893","prefecture":"AICHI KEN","city":"NISHIO SHI","town":"OMACHO","perfecture_jp":"愛知県","jp_add_1":"西尾市","jp_add_2":"小間町"},"4450825":{"post_code":"4450825","prefecture":"AICHI KEN","city":"NISHIO SHI","town":"KAISEICHO","perfecture_jp":"愛知県","jp_add_1":"西尾市","jp_add_2":"会生町"},"4450013":{"post_code":"4450013","prefecture":"AICHI KEN","city":"NISHIO SHI","town":"KAIFUKUCHO","perfecture_jp":"愛知県","jp_add_1":"西尾市","jp_add_2":"貝吹町"},"4450044":{"post_code":"4450044","prefecture":"AICHI KEN","city":"NISHIO SHI","town":"KAMAYACHO","perfecture_jp":"愛知県","jp_add_1":"西尾市","jp_add_2":"鎌谷町"},"4450823":{"post_code":"4450823","prefecture":"AICHI KEN","city":"NISHIO SHI","town":"KAMISHITACHO","perfecture_jp":"愛知県","jp_add_1":"西尾市","jp_add_2":"神下町"},"4450882":{"post_code":"4450882","prefecture":"AICHI KEN","city":"NISHIO SHI","town":"KAMIDOMEKICHO","perfecture_jp":"愛知県","jp_add_1":"西尾市","jp_add_2":"上道目記町"},"4450017":{"post_code":"4450017","prefecture":"AICHI KEN","city":"NISHIO SHI","town":"KAMINAGARACHO","perfecture_jp":"愛知県","jp_add_1":"西尾市","jp_add_2":"上永良町"},"4450011":{"post_code":"4450011","prefecture":"AICHI KEN","city":"NISHIO SHI","town":"KAMIHASUMICHO","perfecture_jp":"愛知県","jp_add_1":"西尾市","jp_add_2":"上羽角町"},"4450894":{"post_code":"4450894","prefecture":"AICHI KEN","city":"NISHIO SHI","town":"KAMIMACHI","perfecture_jp":"愛知県","jp_add_1":"西尾市","jp_add_2":"上町"},"4450847":{"post_code":"4450847","prefecture":"AICHI KEN","city":"NISHIO SHI","town":"KAMEZAWACHO","perfecture_jp":"愛知県","jp_add_1":"西尾市","jp_add_2":"亀沢町"},"4450873":{"post_code":"4450873","prefecture":"AICHI KEN","city":"NISHIO SHI","town":"KAWAGUCHICHO","perfecture_jp":"愛知県","jp_add_1":"西尾市","jp_add_2":"川口町"},"4450832":{"post_code":"4450832","prefecture":"AICHI KEN","city":"NISHIO SHI","town":"KAWARAMACHI","perfecture_jp":"愛知県","jp_add_1":"西尾市","jp_add_2":"瓦町"},"4450857":{"post_code":"4450857","prefecture":"AICHI KEN","city":"NISHIO SHI","town":"KITAASAHIMACHI","perfecture_jp":"愛知県","jp_add_1":"西尾市","jp_add_2":"北旭町"},"4450885":{"post_code":"4450885","prefecture":"AICHI KEN","city":"NISHIO SHI","town":"GYOYOCHO","perfecture_jp":"愛知県","jp_add_1":"西尾市","jp_add_2":"行用町"},"4450864":{"post_code":"4450864","prefecture":"AICHI KEN","city":"NISHIO SHI","town":"KINJOCHO","perfecture_jp":"愛知県","jp_add_1":"西尾市","jp_add_2":"錦城町"},"4450071":{"post_code":"4450071","prefecture":"AICHI KEN","city":"NISHIO SHI","town":"KUMAMICHO","perfecture_jp":"愛知県","jp_add_1":"西尾市","jp_add_2":"熊味町"},"4450035":{"post_code":"4450035","prefecture":"AICHI KEN","city":"NISHIO SHI","town":"KEZOJICHO","perfecture_jp":"愛知県","jp_add_1":"西尾市","jp_add_2":"花蔵寺町"},"4450021":{"post_code":"4450021","prefecture":"AICHI KEN","city":"NISHIO SHI","town":"KOMAMBACHO","perfecture_jp":"愛知県","jp_add_1":"西尾市","jp_add_2":"駒場町"},"4450005":{"post_code":"4450005","prefecture":"AICHI KEN","city":"NISHIO SHI","town":"KOMENOCHO","perfecture_jp":"愛知県","jp_add_1":"西尾市","jp_add_2":"米野町"},"4450041":{"post_code":"4450041","prefecture":"AICHI KEN","city":"NISHIO SHI","town":"KOYAKENOCHO","perfecture_jp":"愛知県","jp_add_1":"西尾市","jp_add_2":"小焼野町"},"4450056":{"post_code":"4450056","prefecture":"AICHI KEN","city":"NISHIO SHI","town":"SAITOCHO","perfecture_jp":"愛知県","jp_add_1":"西尾市","jp_add_2":"斉藤町"},"4450827":{"post_code":"4450827","prefecture":"AICHI KEN","city":"NISHIO SHI","town":"SAIWAICHO","perfecture_jp":"愛知県","jp_add_1":"西尾市","jp_add_2":"幸町"},"4450835":{"post_code":"4450835","prefecture":"AICHI KEN","city":"NISHIO SHI","town":"SAKANAMACHI","perfecture_jp":"愛知県","jp_add_1":"西尾市","jp_add_2":"肴町"},"4450853":{"post_code":"4450853","prefecture":"AICHI KEN","city":"NISHIO SHI","town":"SAKURAGICHO","perfecture_jp":"愛知県","jp_add_1":"西尾市","jp_add_2":"桜木町"},"4450803":{"post_code":"4450803","prefecture":"AICHI KEN","city":"NISHIO SHI","town":"SAKURAMACHI","perfecture_jp":"愛知県","jp_add_1":"西尾市","jp_add_2":"桜町"},"4450053":{"post_code":"4450053","prefecture":"AICHI KEN","city":"NISHIO SHI","town":"SASAZONECHO","perfecture_jp":"愛知県","jp_add_1":"西尾市","jp_add_2":"笹曽根町"},"4450866":{"post_code":"4450866","prefecture":"AICHI KEN","city":"NISHIO SHI","town":"SHIOMACHI","perfecture_jp":"愛知県","jp_add_1":"西尾市","jp_add_2":"塩町"},"4450084":{"post_code":"4450084","prefecture":"AICHI KEN","city":"NISHIO SHI","town":"SHIKINOCHO","perfecture_jp":"愛知県","jp_add_1":"西尾市","jp_add_2":"志貴野町"},"4450081":{"post_code":"4450081","prefecture":"AICHI KEN","city":"NISHIO SHI","town":"SHIKOYACHO","perfecture_jp":"愛知県","jp_add_1":"西尾市","jp_add_2":"志籠谷町"},"4450883":{"post_code":"4450883","prefecture":"AICHI KEN","city":"NISHIO SHI","town":"SHIMODOMEKICHO","perfecture_jp":"愛知県","jp_add_1":"西尾市","jp_add_2":"下道目記町"},"4450016":{"post_code":"4450016","prefecture":"AICHI KEN","city":"NISHIO SHI","town":"SHIMONAGARACHO","perfecture_jp":"愛知県","jp_add_1":"西尾市","jp_add_2":"下永良町"},"4450012":{"post_code":"4450012","prefecture":"AICHI KEN","city":"NISHIO SHI","town":"SHIMOHASUMICHO","perfecture_jp":"愛知県","jp_add_1":"西尾市","jp_add_2":"下羽角町"},"4450891":{"post_code":"4450891","prefecture":"AICHI KEN","city":"NISHIO SHI","town":"SHIMOMACHI","perfecture_jp":"愛知県","jp_add_1":"西尾市","jp_add_2":"下町"},"4450045":{"post_code":"4450045","prefecture":"AICHI KEN","city":"NISHIO SHI","town":"JUROSHIMACHO","perfecture_jp":"愛知県","jp_add_1":"西尾市","jp_add_2":"十郎島町"},"4450834":{"post_code":"4450834","prefecture":"AICHI KEN","city":"NISHIO SHI","town":"JUNKAIMACHI","perfecture_jp":"愛知県","jp_add_1":"西尾市","jp_add_2":"順海町"},"4450065":{"post_code":"4450065","prefecture":"AICHI KEN","city":"NISHIO SHI","town":"SHIROSAKICHO","perfecture_jp":"愛知県","jp_add_1":"西尾市","jp_add_2":"城崎町"},"4450878":{"post_code":"4450878","prefecture":"AICHI KEN","city":"NISHIO SHI","town":"SHINZAIKE","perfecture_jp":"愛知県","jp_add_1":"西尾市","jp_add_2":"新在家"},"4450076":{"post_code":"4450076","prefecture":"AICHI KEN","city":"NISHIO SHI","town":"SHINDOBA","perfecture_jp":"愛知県","jp_add_1":"西尾市","jp_add_2":"新渡場"},"4450077":{"post_code":"4450077","prefecture":"AICHI KEN","city":"NISHIO SHI","town":"SHINDOBACHO","perfecture_jp":"愛知県","jp_add_1":"西尾市","jp_add_2":"新渡場町"},"4450002":{"post_code":"4450002","prefecture":"AICHI KEN","city":"NISHIO SHI","town":"SHIMMURACHO","perfecture_jp":"愛知県","jp_add_1":"西尾市","jp_add_2":"新村町"},"4450814":{"post_code":"4450814","prefecture":"AICHI KEN","city":"NISHIO SHI","town":"SHINYASHIKICHO","perfecture_jp":"愛知県","jp_add_1":"西尾市","jp_add_2":"新屋敷町"},"4450844":{"post_code":"4450844","prefecture":"AICHI KEN","city":"NISHIO SHI","town":"SUEHIROCHO","perfecture_jp":"愛知県","jp_add_1":"西尾市","jp_add_2":"末広町"},"4450815":{"post_code":"4450815","prefecture":"AICHI KEN","city":"NISHIO SHI","town":"SUGAWARACHO","perfecture_jp":"愛知県","jp_add_1":"西尾市","jp_add_2":"菅原町"},"4450862":{"post_code":"4450862","prefecture":"AICHI KEN","city":"NISHIO SHI","town":"SUDACHO","perfecture_jp":"愛知県","jp_add_1":"西尾市","jp_add_2":"須田町"},"4450879":{"post_code":"4450879","prefecture":"AICHI KEN","city":"NISHIO SHI","town":"SUMISAKI","perfecture_jp":"愛知県","jp_add_1":"西尾市","jp_add_2":"住崎"},"4450876":{"post_code":"4450876","prefecture":"AICHI KEN","city":"NISHIO SHI","town":"SUMISAKICHO","perfecture_jp":"愛知県","jp_add_1":"西尾市","jp_add_2":"住崎町"},"4450851":{"post_code":"4450851","prefecture":"AICHI KEN","city":"NISHIO SHI","town":"SUMIYOSHICHO","perfecture_jp":"愛知県","jp_add_1":"西尾市","jp_add_2":"住吉町"},"4450046":{"post_code":"4450046","prefecture":"AICHI KEN","city":"NISHIO SHI","town":"SUWAKICHO","perfecture_jp":"愛知県","jp_add_1":"西尾市","jp_add_2":"須脇町"},"4450034":{"post_code":"4450034","prefecture":"AICHI KEN","city":"NISHIO SHI","town":"ZEMMYOCHO","perfecture_jp":"愛知県","jp_add_1":"西尾市","jp_add_2":"善明町"},"4450001":{"post_code":"4450001","prefecture":"AICHI KEN","city":"NISHIO SHI","town":"TAKAOCHICHO","perfecture_jp":"愛知県","jp_add_1":"西尾市","jp_add_2":"高落町"},"4450023":{"post_code":"4450023","prefecture":"AICHI KEN","city":"NISHIO SHI","town":"TAKAGAWARACHO","perfecture_jp":"愛知県","jp_add_1":"西尾市","jp_add_2":"高河原町"},"4450856":{"post_code":"4450856","prefecture":"AICHI KEN","city":"NISHIO SHI","town":"TAKASAGOCHO","perfecture_jp":"愛知県","jp_add_1":"西尾市","jp_add_2":"高砂町"},"4450064":{"post_code":"4450064","prefecture":"AICHI KEN","city":"NISHIO SHI","town":"TAKABATACHO","perfecture_jp":"愛知県","jp_add_1":"西尾市","jp_add_2":"高畠町"},"4450042":{"post_code":"4450042","prefecture":"AICHI KEN","city":"NISHIO SHI","town":"TAKUNOSHIMACHO","perfecture_jp":"愛知県","jp_add_1":"西尾市","jp_add_2":"宅野島町"},"4450015":{"post_code":"4450015","prefecture":"AICHI KEN","city":"NISHIO SHI","town":"TAKEYAMACHO","perfecture_jp":"愛知県","jp_add_1":"西尾市","jp_add_2":"竹山町"},"4450846":{"post_code":"4450846","prefecture":"AICHI KEN","city":"NISHIO SHI","town":"CHITOSECHO","perfecture_jp":"愛知県","jp_add_1":"西尾市","jp_add_2":"千歳町"},"4450062":{"post_code":"4450062","prefecture":"AICHI KEN","city":"NISHIO SHI","town":"CHODACHO","perfecture_jp":"愛知県","jp_add_1":"西尾市","jp_add_2":"丁田町"},"4450014":{"post_code":"4450014","prefecture":"AICHI KEN","city":"NISHIO SHI","town":"TSUKUSHIGAOKA","perfecture_jp":"愛知県","jp_add_1":"西尾市","jp_add_2":"つくしが丘"},"4450837":{"post_code":"4450837","prefecture":"AICHI KEN","city":"NISHIO SHI","town":"TSURUGASAKICHO","perfecture_jp":"愛知県","jp_add_1":"西尾市","jp_add_2":"鶴ケ崎町"},"4450805":{"post_code":"4450805","prefecture":"AICHI KEN","city":"NISHIO SHI","town":"TSURUSHIROCHO","perfecture_jp":"愛知県","jp_add_1":"西尾市","jp_add_2":"鶴城町"},"4450845":{"post_code":"4450845","prefecture":"AICHI KEN","city":"NISHIO SHI","town":"TSURUMAICHO","perfecture_jp":"愛知県","jp_add_1":"西尾市","jp_add_2":"鶴舞町"},"4450051":{"post_code":"4450051","prefecture":"AICHI KEN","city":"NISHIO SHI","town":"TENJIKUCHO","perfecture_jp":"愛知県","jp_add_1":"西尾市","jp_add_2":"天竹町"},"4450843":{"post_code":"4450843","prefecture":"AICHI KEN","city":"NISHIO SHI","town":"TENJINCHO","perfecture_jp":"愛知県","jp_add_1":"西尾市","jp_add_2":"天神町"},"4450833":{"post_code":"4450833","prefecture":"AICHI KEN","city":"NISHIO SHI","town":"TENNOMACHI","perfecture_jp":"愛知県","jp_add_1":"西尾市","jp_add_2":"天王町"},"4450812":{"post_code":"4450812","prefecture":"AICHI KEN","city":"NISHIO SHI","town":"DOKOJI","perfecture_jp":"愛知県","jp_add_1":"西尾市","jp_add_2":"道光寺"},"4450811":{"post_code":"4450811","prefecture":"AICHI KEN","city":"NISHIO SHI","town":"DOKOJICHO","perfecture_jp":"愛知県","jp_add_1":"西尾市","jp_add_2":"道光寺町"},"4450075":{"post_code":"4450075","prefecture":"AICHI KEN","city":"NISHIO SHI","town":"TOGASAKI","perfecture_jp":"愛知県","jp_add_1":"西尾市","jp_add_2":"戸ケ崎"},"4450074":{"post_code":"4450074","prefecture":"AICHI KEN","city":"NISHIO SHI","town":"TOGASAKICHO","perfecture_jp":"愛知県","jp_add_1":"西尾市","jp_add_2":"戸ケ崎町"},"4450072":{"post_code":"4450072","prefecture":"AICHI KEN","city":"NISHIO SHI","town":"TOKUTSUGICHO","perfecture_jp":"愛知県","jp_add_1":"西尾市","jp_add_2":"徳次町"},"4450887":{"post_code":"4450887","prefecture":"AICHI KEN","city":"NISHIO SHI","town":"NAGANAWACHO","perfecture_jp":"愛知県","jp_add_1":"西尾市","jp_add_2":"長縄町"},"4450083":{"post_code":"4450083","prefecture":"AICHI KEN","city":"NISHIO SHI","town":"NAKAHARACHO","perfecture_jp":"愛知県","jp_add_1":"西尾市","jp_add_2":"中原町"},"4450836":{"post_code":"4450836","prefecture":"AICHI KEN","city":"NISHIO SHI","town":"NAKAMACHI","perfecture_jp":"愛知県","jp_add_1":"西尾市","jp_add_2":"中町"},"4450870":{"post_code":"4450870","prefecture":"AICHI KEN","city":"NISHIO SHI","town":"NAGAYOSHI","perfecture_jp":"愛知県","jp_add_1":"西尾市","jp_add_2":"永吉"},"4450871":{"post_code":"4450871","prefecture":"AICHI KEN","city":"NISHIO SHI","town":"NAGAYOSHICHO","perfecture_jp":"愛知県","jp_add_1":"西尾市","jp_add_2":"永吉町"},"4450881":{"post_code":"4450881","prefecture":"AICHI KEN","city":"NISHIO SHI","town":"NIIKECHO","perfecture_jp":"愛知県","jp_add_1":"西尾市","jp_add_2":"熱池町"},"4450004":{"post_code":"4450004","prefecture":"AICHI KEN","city":"NISHIO SHI","town":"NISHIAZAICHO","perfecture_jp":"愛知県","jp_add_1":"西尾市","jp_add_2":"西浅井町"},"4450057":{"post_code":"4450057","prefecture":"AICHI KEN","city":"NISHIO SHI","town":"NONOMIYACHO","perfecture_jp":"愛知県","jp_add_1":"西尾市","jp_add_2":"野々宮町"},"4450884":{"post_code":"4450884","prefecture":"AICHI KEN","city":"NISHIO SHI","town":"HACHIGASHIRICHO","perfecture_jp":"愛知県","jp_add_1":"西尾市","jp_add_2":"八ケ尻町"},"4450852":{"post_code":"4450852","prefecture":"AICHI KEN","city":"NISHIO SHI","town":"HANANOKICHO","perfecture_jp":"愛知県","jp_add_1":"西尾市","jp_add_2":"花ノ木町"},"4450841":{"post_code":"4450841","prefecture":"AICHI KEN","city":"NISHIO SHI","town":"BABACHO","perfecture_jp":"愛知県","jp_add_1":"西尾市","jp_add_2":"馬場町"},"4450886":{"post_code":"4450886","prefecture":"AICHI KEN","city":"NISHIO SHI","town":"HARIZONECHO","perfecture_jp":"愛知県","jp_add_1":"西尾市","jp_add_2":"針曽根町"},"4450003":{"post_code":"4450003","prefecture":"AICHI KEN","city":"NISHIO SHI","town":"HIGASHIAZAICHO","perfecture_jp":"愛知県","jp_add_1":"西尾市","jp_add_2":"東浅井町"},"4450874":{"post_code":"4450874","prefecture":"AICHI KEN","city":"NISHIO SHI","town":"HISHIIKECHO","perfecture_jp":"愛知県","jp_add_1":"西尾市","jp_add_2":"菱池町"},"4450054":{"post_code":"4450054","prefecture":"AICHI KEN","city":"NISHIO SHI","town":"HIRAKUCHICHO","perfecture_jp":"愛知県","jp_add_1":"西尾市","jp_add_2":"平口町"},"4450032":{"post_code":"4450032","prefecture":"AICHI KEN","city":"NISHIO SHI","town":"HIRAHARACHO","perfecture_jp":"愛知県","jp_add_1":"西尾市","jp_add_2":"平原町"},"4450875":{"post_code":"4450875","prefecture":"AICHI KEN","city":"NISHIO SHI","town":"FUKAIKECHO","perfecture_jp":"愛知県","jp_add_1":"西尾市","jp_add_2":"深池町"},"4450892":{"post_code":"4450892","prefecture":"AICHI KEN","city":"NISHIO SHI","town":"HOKOJICHO","perfecture_jp":"愛知県","jp_add_1":"西尾市","jp_add_2":"法光寺町"},"4450047":{"post_code":"4450047","prefecture":"AICHI KEN","city":"NISHIO SHI","town":"HOSOIKECHO","perfecture_jp":"愛知県","jp_add_1":"西尾市","jp_add_2":"細池町"},"4450865":{"post_code":"4450865","prefecture":"AICHI KEN","city":"NISHIO SHI","town":"HOMMACHI","perfecture_jp":"愛知県","jp_add_1":"西尾市","jp_add_2":"本町"},"4450826":{"post_code":"4450826","prefecture":"AICHI KEN","city":"NISHIO SHI","town":"MANZENCHO","perfecture_jp":"愛知県","jp_add_1":"西尾市","jp_add_2":"満全町"},"4450804":{"post_code":"4450804","prefecture":"AICHI KEN","city":"NISHIO SHI","town":"MIDORIMACHI","perfecture_jp":"愛知県","jp_add_1":"西尾市","jp_add_2":"緑町"},"4450855":{"post_code":"4450855","prefecture":"AICHI KEN","city":"NISHIO SHI","town":"MINAMIASAHIMACHI","perfecture_jp":"愛知県","jp_add_1":"西尾市","jp_add_2":"南旭町"},"4450801":{"post_code":"4450801","prefecture":"AICHI KEN","city":"NISHIO SHI","town":"MINAMINAKANECHO","perfecture_jp":"愛知県","jp_add_1":"西尾市","jp_add_2":"南中根町"},"4450816":{"post_code":"4450816","prefecture":"AICHI KEN","city":"NISHIO SHI","town":"MIYAMACHI","perfecture_jp":"愛知県","jp_add_1":"西尾市","jp_add_2":"宮町"},"4450033":{"post_code":"4450033","prefecture":"AICHI KEN","city":"NISHIO SHI","town":"MUROCHO","perfecture_jp":"愛知県","jp_add_1":"西尾市","jp_add_2":"室町"},"4450872":{"post_code":"4450872","prefecture":"AICHI KEN","city":"NISHIO SHI","town":"YAZONECHO","perfecture_jp":"愛知県","jp_add_1":"西尾市","jp_add_2":"矢曽根町"},"4450082":{"post_code":"4450082","prefecture":"AICHI KEN","city":"NISHIO SHI","town":"YATSUOMOTECHO","perfecture_jp":"愛知県","jp_add_1":"西尾市","jp_add_2":"八ツ面町"},"4450821":{"post_code":"4450821","prefecture":"AICHI KEN","city":"NISHIO SHI","town":"YABACHO","perfecture_jp":"愛知県","jp_add_1":"西尾市","jp_add_2":"矢場町"},"4450877":{"post_code":"4450877","prefecture":"AICHI KEN","city":"NISHIO SHI","town":"YAMASHITACHO","perfecture_jp":"愛知県","jp_add_1":"西尾市","jp_add_2":"山下町"},"4450842":{"post_code":"4450842","prefecture":"AICHI KEN","city":"NISHIO SHI","town":"YAYOICHO","perfecture_jp":"愛知県","jp_add_1":"西尾市","jp_add_2":"弥生町"},"4450052":{"post_code":"4450052","prefecture":"AICHI KEN","city":"NISHIO SHI","town":"YOKOTECHO","perfecture_jp":"愛知県","jp_add_1":"西尾市","jp_add_2":"横手町"},"4450802":{"post_code":"4450802","prefecture":"AICHI KEN","city":"NISHIO SHI","town":"YONEZUCHO","perfecture_jp":"愛知県","jp_add_1":"西尾市","jp_add_2":"米津町"},"4450073":{"post_code":"4450073","prefecture":"AICHI KEN","city":"NISHIO SHI","town":"YORIZUMICHO","perfecture_jp":"愛知県","jp_add_1":"西尾市","jp_add_2":"寄住町"},"4450061":{"post_code":"4450061","prefecture":"AICHI KEN","city":"NISHIO SHI","town":"YORICHIKACHO","perfecture_jp":"愛知県","jp_add_1":"西尾市","jp_add_2":"寄近町"},"4450813":{"post_code":"4450813","prefecture":"AICHI KEN","city":"NISHIO SHI","town":"WAKAMATSUCHO","perfecture_jp":"愛知県","jp_add_1":"西尾市","jp_add_2":"若松町"},"4450025":{"post_code":"4450025","prefecture":"AICHI KEN","city":"NISHIO SHI","town":"WAKICHO","perfecture_jp":"愛知県","jp_add_1":"西尾市","jp_add_2":"和気町"}}