{"4460000":{"post_code":"4460000","prefecture":"AICHI KEN","city":"ANJO SHI","town":"IKANIKEISAIGANAIBAAI","perfecture_jp":"愛知県","jp_add_1":"安城市","jp_add_2":""},"4460037":{"post_code":"4460037","prefecture":"AICHI KEN","city":"ANJO SHI","town":"AIOICHO","perfecture_jp":"愛知県","jp_add_1":"安城市","jp_add_2":"相生町"},"4460046":{"post_code":"4460046","prefecture":"AICHI KEN","city":"ANJO SHI","town":"AKAMATSUCHO","perfecture_jp":"愛知県","jp_add_1":"安城市","jp_add_2":"赤松町"},"4460031":{"post_code":"4460031","prefecture":"AICHI KEN","city":"ANJO SHI","town":"ASAHIMACHI","perfecture_jp":"愛知県","jp_add_1":"安城市","jp_add_2":"朝日町"},"4460026":{"post_code":"4460026","prefecture":"AICHI KEN","city":"ANJO SHI","town":"ANJOCHO","perfecture_jp":"愛知県","jp_add_1":"安城市","jp_add_2":"安城町"},"4460074":{"post_code":"4460074","prefecture":"AICHI KEN","city":"ANJO SHI","town":"IGUIYAMACHO","perfecture_jp":"愛知県","jp_add_1":"安城市","jp_add_2":"井杭山町"},"4460066":{"post_code":"4460066","prefecture":"AICHI KEN","city":"ANJO SHI","town":"IKEURACHO","perfecture_jp":"愛知県","jp_add_1":"安城市","jp_add_2":"池浦町"},"4460071":{"post_code":"4460071","prefecture":"AICHI KEN","city":"ANJO SHI","town":"IMAIKECHO","perfecture_jp":"愛知県","jp_add_1":"安城市","jp_add_2":"今池町"},"4460008":{"post_code":"4460008","prefecture":"AICHI KEN","city":"ANJO SHI","town":"IMAHOMMACHI","perfecture_jp":"愛知県","jp_add_1":"安城市","jp_add_2":"今本町"},"4460005":{"post_code":"4460005","prefecture":"AICHI KEN","city":"ANJO SHI","town":"UTOCHAYACHO","perfecture_jp":"愛知県","jp_add_1":"安城市","jp_add_2":"宇頭茶屋町"},"4460017":{"post_code":"4460017","prefecture":"AICHI KEN","city":"ANJO SHI","town":"OOKACHO","perfecture_jp":"愛知県","jp_add_1":"安城市","jp_add_2":"大岡町"},"4460042":{"post_code":"4460042","prefecture":"AICHI KEN","city":"ANJO SHI","town":"OYAMACHO","perfecture_jp":"愛知県","jp_add_1":"安城市","jp_add_2":"大山町"},"4460004":{"post_code":"4460004","prefecture":"AICHI KEN","city":"ANJO SHI","town":"OZAKICHO","perfecture_jp":"愛知県","jp_add_1":"安城市","jp_add_2":"尾崎町"},"4460003":{"post_code":"4460003","prefecture":"AICHI KEN","city":"ANJO SHI","town":"KAKISAKICHO","perfecture_jp":"愛知県","jp_add_1":"安城市","jp_add_2":"柿さき町"},"4460024":{"post_code":"4460024","prefecture":"AICHI KEN","city":"ANJO SHI","town":"KAWANOCHO","perfecture_jp":"愛知県","jp_add_1":"安城市","jp_add_2":"河野町"},"4460011":{"post_code":"4460011","prefecture":"AICHI KEN","city":"ANJO SHI","town":"KITAYAMAZAKICHO","perfecture_jp":"愛知県","jp_add_1":"安城市","jp_add_2":"北山崎町"},"4460036":{"post_code":"4460036","prefecture":"AICHI KEN","city":"ANJO SHI","town":"KOZUTSUMICHO","perfecture_jp":"愛知県","jp_add_1":"安城市","jp_add_2":"小堤町"},"4460041":{"post_code":"4460041","prefecture":"AICHI KEN","city":"ANJO SHI","town":"SAKURAMACHI","perfecture_jp":"愛知県","jp_add_1":"安城市","jp_add_2":"桜町"},"4460073":{"post_code":"4460073","prefecture":"AICHI KEN","city":"ANJO SHI","town":"SASAMECHO","perfecture_jp":"愛知県","jp_add_1":"安城市","jp_add_2":"篠目町"},"4460001":{"post_code":"4460001","prefecture":"AICHI KEN","city":"ANJO SHI","town":"SATOCHO","perfecture_jp":"愛知県","jp_add_1":"安城市","jp_add_2":"里町"},"4460023":{"post_code":"4460023","prefecture":"AICHI KEN","city":"ANJO SHI","town":"JOJOCHO","perfecture_jp":"愛知県","jp_add_1":"安城市","jp_add_2":"上条町"},"4460043":{"post_code":"4460043","prefecture":"AICHI KEN","city":"ANJO SHI","town":"JONANCHO","perfecture_jp":"愛知県","jp_add_1":"安城市","jp_add_2":"城南町"},"4460063":{"post_code":"4460063","prefecture":"AICHI KEN","city":"ANJO SHI","town":"SHOWACHO","perfecture_jp":"愛知県","jp_add_1":"安城市","jp_add_2":"昭和町"},"4460061":{"post_code":"4460061","prefecture":"AICHI KEN","city":"ANJO SHI","town":"SHINDENCHO","perfecture_jp":"愛知県","jp_add_1":"安城市","jp_add_2":"新田町"},"4460019":{"post_code":"4460019","prefecture":"AICHI KEN","city":"ANJO SHI","town":"SHIMMEICHO","perfecture_jp":"愛知県","jp_add_1":"安城市","jp_add_2":"新明町"},"4460038":{"post_code":"4460038","prefecture":"AICHI KEN","city":"ANJO SHI","town":"SUEHIROCHO","perfecture_jp":"愛知県","jp_add_1":"安城市","jp_add_2":"末広町"},"4460072":{"post_code":"4460072","prefecture":"AICHI KEN","city":"ANJO SHI","town":"SUMIYOSHICHO","perfecture_jp":"愛知県","jp_add_1":"安城市","jp_add_2":"住吉町"},"4460065":{"post_code":"4460065","prefecture":"AICHI KEN","city":"ANJO SHI","town":"DAITOCHO","perfecture_jp":"愛知県","jp_add_1":"安城市","jp_add_2":"大東町"},"4460015":{"post_code":"4460015","prefecture":"AICHI KEN","city":"ANJO SHI","town":"TAKAGICHO","perfecture_jp":"愛知県","jp_add_1":"安城市","jp_add_2":"高木町"},"4460053":{"post_code":"4460053","prefecture":"AICHI KEN","city":"ANJO SHI","town":"TAKATANACHO","perfecture_jp":"愛知県","jp_add_1":"安城市","jp_add_2":"高棚町"},"4460007":{"post_code":"4460007","prefecture":"AICHI KEN","city":"ANJO SHI","town":"TOEICHO","perfecture_jp":"愛知県","jp_add_1":"安城市","jp_add_2":"東栄町"},"4460018":{"post_code":"4460018","prefecture":"AICHI KEN","city":"ANJO SHI","town":"TOSHINCHO","perfecture_jp":"愛知県","jp_add_1":"安城市","jp_add_2":"東新町"},"4460027":{"post_code":"4460027","prefecture":"AICHI KEN","city":"ANJO SHI","town":"TOMEICHO","perfecture_jp":"愛知県","jp_add_1":"安城市","jp_add_2":"東明町"},"4460035":{"post_code":"4460035","prefecture":"AICHI KEN","city":"ANJO SHI","town":"NISHIKIMACHI","perfecture_jp":"愛知県","jp_add_1":"安城市","jp_add_2":"錦町"},"4460012":{"post_code":"4460012","prefecture":"AICHI KEN","city":"ANJO SHI","town":"NISHIBESSHOCHO","perfecture_jp":"愛知県","jp_add_1":"安城市","jp_add_2":"西別所町"},"4460075":{"post_code":"4460075","prefecture":"AICHI KEN","city":"ANJO SHI","town":"NIHONGISHIMMACHI","perfecture_jp":"愛知県","jp_add_1":"安城市","jp_add_2":"二本木新町"},"4460054":{"post_code":"4460054","prefecture":"AICHI KEN","city":"ANJO SHI","town":"NIHONGICHO","perfecture_jp":"愛知県","jp_add_1":"安城市","jp_add_2":"二本木町"},"4460002":{"post_code":"4460002","prefecture":"AICHI KEN","city":"ANJO SHI","town":"HASHIMECHO","perfecture_jp":"愛知県","jp_add_1":"安城市","jp_add_2":"橋目町"},"4460039":{"post_code":"4460039","prefecture":"AICHI KEN","city":"ANJO SHI","town":"HANANOKICHO","perfecture_jp":"愛知県","jp_add_1":"安城市","jp_add_2":"花ノ木町"},"4460022":{"post_code":"4460022","prefecture":"AICHI KEN","city":"ANJO SHI","town":"HAMATOMICHO","perfecture_jp":"愛知県","jp_add_1":"安城市","jp_add_2":"浜富町"},"4460006":{"post_code":"4460006","prefecture":"AICHI KEN","city":"ANJO SHI","town":"HAMAYACHO","perfecture_jp":"愛知県","jp_add_1":"安城市","jp_add_2":"浜屋町"},"4460013":{"post_code":"4460013","prefecture":"AICHI KEN","city":"ANJO SHI","town":"HIGASHIBESSHOCHO","perfecture_jp":"愛知県","jp_add_1":"安城市","jp_add_2":"東別所町"},"4460033":{"post_code":"4460033","prefecture":"AICHI KEN","city":"ANJO SHI","town":"HINODECHO","perfecture_jp":"愛知県","jp_add_1":"安城市","jp_add_2":"日の出町"},"4460044":{"post_code":"4460044","prefecture":"AICHI KEN","city":"ANJO SHI","town":"HYAKKOKUCHO","perfecture_jp":"愛知県","jp_add_1":"安城市","jp_add_2":"百石町"},"4460052":{"post_code":"4460052","prefecture":"AICHI KEN","city":"ANJO SHI","town":"FUKAMACHO","perfecture_jp":"愛知県","jp_add_1":"安城市","jp_add_2":"福釜町"},"4460025":{"post_code":"4460025","prefecture":"AICHI KEN","city":"ANJO SHI","town":"FURUICHO","perfecture_jp":"愛知県","jp_add_1":"安城市","jp_add_2":"古井町"},"4460014":{"post_code":"4460014","prefecture":"AICHI KEN","city":"ANJO SHI","town":"BETSUGOCHO","perfecture_jp":"愛知県","jp_add_1":"安城市","jp_add_2":"別郷町"},"4460064":{"post_code":"4460064","prefecture":"AICHI KEN","city":"ANJO SHI","town":"BENTENCHO","perfecture_jp":"愛知県","jp_add_1":"安城市","jp_add_2":"弁天町"},"4460021":{"post_code":"4460021","prefecture":"AICHI KEN","city":"ANJO SHI","town":"HORENCHO","perfecture_jp":"愛知県","jp_add_1":"安城市","jp_add_2":"法連町"},"4460056":{"post_code":"4460056","prefecture":"AICHI KEN","city":"ANJO SHI","town":"MIKAWAANJOCHO","perfecture_jp":"愛知県","jp_add_1":"安城市","jp_add_2":"三河安城町"},"4460057":{"post_code":"4460057","prefecture":"AICHI KEN","city":"ANJO SHI","town":"MIKAWAANJOHIGASHIMACHI","perfecture_jp":"愛知県","jp_add_1":"安城市","jp_add_2":"三河安城東町"},"4460059":{"post_code":"4460059","prefecture":"AICHI KEN","city":"ANJO SHI","town":"MIKAWAANJOHOMMACHI","perfecture_jp":"愛知県","jp_add_1":"安城市","jp_add_2":"三河安城本町"},"4460058":{"post_code":"4460058","prefecture":"AICHI KEN","city":"ANJO SHI","town":"MIKAWAANJOMINAMIMACHI","perfecture_jp":"愛知県","jp_add_1":"安城市","jp_add_2":"三河安城南町"},"4460076":{"post_code":"4460076","prefecture":"AICHI KEN","city":"ANJO SHI","town":"MISONOCHO","perfecture_jp":"愛知県","jp_add_1":"安城市","jp_add_2":"美園町"},"4460055":{"post_code":"4460055","prefecture":"AICHI KEN","city":"ANJO SHI","town":"MIDORICHO","perfecture_jp":"愛知県","jp_add_1":"安城市","jp_add_2":"緑町"},"4460034":{"post_code":"4460034","prefecture":"AICHI KEN","city":"ANJO SHI","town":"MINAMIMACHI","perfecture_jp":"愛知県","jp_add_1":"安城市","jp_add_2":"南町"},"4460051":{"post_code":"4460051","prefecture":"AICHI KEN","city":"ANJO SHI","town":"MINOWACHO","perfecture_jp":"愛知県","jp_add_1":"安城市","jp_add_2":"箕輪町"},"4460032":{"post_code":"4460032","prefecture":"AICHI KEN","city":"ANJO SHI","town":"MIYUKIHOMMACHI","perfecture_jp":"愛知県","jp_add_1":"安城市","jp_add_2":"御幸本町"},"4460062":{"post_code":"4460062","prefecture":"AICHI KEN","city":"ANJO SHI","town":"MEIJIHOMMACHI","perfecture_jp":"愛知県","jp_add_1":"安城市","jp_add_2":"明治本町"},"4460016":{"post_code":"4460016","prefecture":"AICHI KEN","city":"ANJO SHI","town":"YAMAZAKICHO","perfecture_jp":"愛知県","jp_add_1":"安城市","jp_add_2":"山崎町"},"4460045":{"post_code":"4460045","prefecture":"AICHI KEN","city":"ANJO SHI","town":"YOKOYAMACHO","perfecture_jp":"愛知県","jp_add_1":"安城市","jp_add_2":"横山町"}}