{"4530000":{"post_code":"4530000","prefecture":"AICHI KEN","city":"NAGOYA SHI NAKAMURA KU","town":"IKANIKEISAIGANAIBAAI","perfecture_jp":"愛知県","jp_add_1":"名古屋市中村区","jp_add_2":""},"4530848":{"post_code":"4530848","prefecture":"AICHI KEN","city":"NAGOYA SHI NAKAMURA KU","town":"ARAWAICHO","perfecture_jp":"愛知県","jp_add_1":"名古屋市中村区","jp_add_2":"荒輪井町"},"4530066":{"post_code":"4530066","prefecture":"AICHI KEN","city":"NAGOYA SHI NAKAMURA KU","town":"INAKAMICHO","perfecture_jp":"愛知県","jp_add_1":"名古屋市中村区","jp_add_2":"稲上町"},"4530849":{"post_code":"4530849","prefecture":"AICHI KEN","city":"NAGOYA SHI NAKAMURA KU","town":"INANISHICHO","perfecture_jp":"愛知県","jp_add_1":"名古屋市中村区","jp_add_2":"稲西町"},"4530841":{"post_code":"4530841","prefecture":"AICHI KEN","city":"NAGOYA SHI NAKAMURA KU","town":"INABAJICHO","perfecture_jp":"愛知県","jp_add_1":"名古屋市中村区","jp_add_2":"稲葉地町"},"4530057":{"post_code":"4530057","prefecture":"AICHI KEN","city":"NAGOYA SHI NAKAMURA KU","town":"INABAJIHONTORI","perfecture_jp":"愛知県","jp_add_1":"名古屋市中村区","jp_add_2":"稲葉地本通"},"4530832":{"post_code":"4530832","prefecture":"AICHI KEN","city":"NAGOYA SHI NAKAMURA KU","town":"INUIDECHO","perfecture_jp":"愛知県","jp_add_1":"名古屋市中村区","jp_add_2":"乾出町"},"4530038":{"post_code":"4530038","prefecture":"AICHI KEN","city":"NAGOYA SHI NAKAMURA KU","town":"INOKOSHICHO","perfecture_jp":"愛知県","jp_add_1":"名古屋市中村区","jp_add_2":"猪之越町"},"4530012":{"post_code":"4530012","prefecture":"AICHI KEN","city":"NAGOYA SHI NAKAMURA KU","town":"IBUKACHO","perfecture_jp":"愛知県","jp_add_1":"名古屋市中村区","jp_add_2":"井深町"},"4530847":{"post_code":"4530847","prefecture":"AICHI KEN","city":"NAGOYA SHI NAKAMURA KU","town":"IWAKAMICHO","perfecture_jp":"愛知県","jp_add_1":"名古屋市中村区","jp_add_2":"岩上町"},"4530862":{"post_code":"4530862","prefecture":"AICHI KEN","city":"NAGOYA SHI NAKAMURA KU","town":"IWATSUKACHO","perfecture_jp":"愛知県","jp_add_1":"名古屋市中村区","jp_add_2":"岩塚町"},"4530861":{"post_code":"4530861","prefecture":"AICHI KEN","city":"NAGOYA SHI NAKAMURA KU","town":"IWATSUKAHONTORI","perfecture_jp":"愛知県","jp_add_1":"名古屋市中村区","jp_add_2":"岩塚本通"},"4530853":{"post_code":"4530853","prefecture":"AICHI KEN","city":"NAGOYA SHI NAKAMURA KU","town":"USHIDATORI","perfecture_jp":"愛知県","jp_add_1":"名古屋市中村区","jp_add_2":"牛田通"},"4530804":{"post_code":"4530804","prefecture":"AICHI KEN","city":"NAGOYA SHI NAKAMURA KU","town":"OGONDORI","perfecture_jp":"愛知県","jp_add_1":"名古屋市中村区","jp_add_2":"黄金通"},"4530042":{"post_code":"4530042","prefecture":"AICHI KEN","city":"NAGOYA SHI NAKAMURA KU","town":"OAKICHO","perfecture_jp":"愛知県","jp_add_1":"名古屋市中村区","jp_add_2":"大秋町"},"4530821":{"post_code":"4530821","prefecture":"AICHI KEN","city":"NAGOYA SHI NAKAMURA KU","town":"OMIYACHO","perfecture_jp":"愛知県","jp_add_1":"名古屋市中村区","jp_add_2":"大宮町"},"4530027":{"post_code":"4530027","prefecture":"AICHI KEN","city":"NAGOYA SHI NAKAMURA KU","town":"OMONCHO","perfecture_jp":"愛知県","jp_add_1":"名古屋市中村区","jp_add_2":"大門町"},"4530825":{"post_code":"4530825","prefecture":"AICHI KEN","city":"NAGOYA SHI NAKAMURA KU","town":"OKITACHO","perfecture_jp":"愛知県","jp_add_1":"名古屋市中村区","jp_add_2":"沖田町"},"4530833":{"post_code":"4530833","prefecture":"AICHI KEN","city":"NAGOYA SHI NAKAMURA KU","town":"OSHIKIDACHO","perfecture_jp":"愛知県","jp_add_1":"名古屋市中村区","jp_add_2":"押木田町"},"4530852":{"post_code":"4530852","prefecture":"AICHI KEN","city":"NAGOYA SHI NAKAMURA KU","town":"KAKUWARICHO","perfecture_jp":"愛知県","jp_add_1":"名古屋市中村区","jp_add_2":"角割町"},"4530855":{"post_code":"4530855","prefecture":"AICHI KEN","city":"NAGOYA SHI NAKAMURA KU","town":"KASUMORICHO","perfecture_jp":"愛知県","jp_add_1":"名古屋市中村区","jp_add_2":"烏森町"},"4530055":{"post_code":"4530055","prefecture":"AICHI KEN","city":"NAGOYA SHI NAKAMURA KU","town":"KATORICHO","perfecture_jp":"愛知県","jp_add_1":"名古屋市中村区","jp_add_2":"香取町"},"4530835":{"post_code":"4530835","prefecture":"AICHI KEN","city":"NAGOYA SHI NAKAMURA KU","town":"KAMIISHIKAWACHO","perfecture_jp":"愛知県","jp_add_1":"名古屋市中村区","jp_add_2":"上石川町"},"4530809":{"post_code":"4530809","prefecture":"AICHI KEN","city":"NAGOYA SHI NAKAMURA KU","town":"KAMIKOMENOCHO","perfecture_jp":"愛知県","jp_add_1":"名古屋市中村区","jp_add_2":"上米野町"},"4530043":{"post_code":"4530043","prefecture":"AICHI KEN","city":"NAGOYA SHI NAKAMURA KU","town":"KAMINOMIYACHO","perfecture_jp":"愛知県","jp_add_1":"名古屋市中村区","jp_add_2":"上ノ宮町"},"4530013":{"post_code":"4530013","prefecture":"AICHI KEN","city":"NAGOYA SHI NAKAMURA KU","town":"KAMEJIMA","perfecture_jp":"愛知県","jp_add_1":"名古屋市中村区","jp_add_2":"亀島"},"4530843":{"post_code":"4530843","prefecture":"AICHI KEN","city":"NAGOYA SHI NAKAMURA KU","town":"KAMOTSUKICHO","perfecture_jp":"愛知県","jp_add_1":"名古屋市中村区","jp_add_2":"鴨付町"},"4530865":{"post_code":"4530865","prefecture":"AICHI KEN","city":"NAGOYA SHI NAKAMURA KU","town":"KAWAMAECHO","perfecture_jp":"愛知県","jp_add_1":"名古屋市中村区","jp_add_2":"川前町"},"4530068":{"post_code":"4530068","prefecture":"AICHI KEN","city":"NAGOYA SHI NAKAMURA KU","town":"KIKUSUICHO","perfecture_jp":"愛知県","jp_add_1":"名古屋市中村区","jp_add_2":"菊水町"},"4530824":{"post_code":"4530824","prefecture":"AICHI KEN","city":"NAGOYA SHI NAKAMURA KU","town":"KITAURACHO","perfecture_jp":"愛知県","jp_add_1":"名古屋市中村区","jp_add_2":"北浦町"},"4530815":{"post_code":"4530815","prefecture":"AICHI KEN","city":"NAGOYA SHI NAKAMURA KU","town":"KITAHATACHO","perfecture_jp":"愛知県","jp_add_1":"名古屋市中村区","jp_add_2":"北畑町"},"4530816":{"post_code":"4530816","prefecture":"AICHI KEN","city":"NAGOYA SHI NAKAMURA KU","town":"KYODENCHO","perfecture_jp":"愛知県","jp_add_1":"名古屋市中村区","jp_add_2":"京田町"},"4530064":{"post_code":"4530064","prefecture":"AICHI KEN","city":"NAGOYA SHI NAKAMURA KU","town":"KUSANAGICHO","perfecture_jp":"愛知県","jp_add_1":"名古屋市中村区","jp_add_2":"草薙町"},"4530814":{"post_code":"4530814","prefecture":"AICHI KEN","city":"NAGOYA SHI NAKAMURA KU","town":"KUMANOCHO","perfecture_jp":"愛知県","jp_add_1":"名古屋市中村区","jp_add_2":"熊野町"},"4530808":{"post_code":"4530808","prefecture":"AICHI KEN","city":"NAGOYA SHI NAKAMURA KU","town":"GOMAECHO","perfecture_jp":"愛知県","jp_add_1":"名古屋市中村区","jp_add_2":"郷前町"},"4530844":{"post_code":"4530844","prefecture":"AICHI KEN","city":"NAGOYA SHI NAKAMURA KU","town":"KOKAMOCHO","perfecture_jp":"愛知県","jp_add_1":"名古屋市中村区","jp_add_2":"小鴨町"},"4530836":{"post_code":"4530836","prefecture":"AICHI KEN","city":"NAGOYA SHI NAKAMURA KU","town":"GOTANJOCHO","perfecture_jp":"愛知県","jp_add_1":"名古屋市中村区","jp_add_2":"五反城町"},"4530028":{"post_code":"4530028","prefecture":"AICHI KEN","city":"NAGOYA SHI NAKAMURA KU","town":"KOTOBUKICHO","perfecture_jp":"愛知県","jp_add_1":"名古屋市中村区","jp_add_2":"寿町"},"4530807":{"post_code":"4530807","prefecture":"AICHI KEN","city":"NAGOYA SHI NAKAMURA KU","town":"GONGENTORI","perfecture_jp":"愛知県","jp_add_1":"名古屋市中村区","jp_add_2":"権現通"},"4530033":{"post_code":"4530033","prefecture":"AICHI KEN","city":"NAGOYA SHI NAKAMURA KU","town":"SAKOCHO","perfecture_jp":"愛知県","jp_add_1":"名古屋市中村区","jp_add_2":"栄生町"},"4530018":{"post_code":"4530018","prefecture":"AICHI KEN","city":"NAGOYA SHI NAKAMURA KU","town":"SAKOMAECHO","perfecture_jp":"愛知県","jp_add_1":"名古屋市中村区","jp_add_2":"佐古前町"},"4530032":{"post_code":"4530032","prefecture":"AICHI KEN","city":"NAGOYA SHI NAKAMURA KU","town":"SHIOIKECHO","perfecture_jp":"愛知県","jp_add_1":"名古屋市中村区","jp_add_2":"塩池町"},"4530802":{"post_code":"4530802","prefecture":"AICHI KEN","city":"NAGOYA SHI NAKAMURA KU","town":"SHIMOKOMENOCHO","perfecture_jp":"愛知県","jp_add_1":"名古屋市中村区","jp_add_2":"下米野町"},"4530827":{"post_code":"4530827","prefecture":"AICHI KEN","city":"NAGOYA SHI NAKAMURA KU","town":"SHIMONAKAMURACHO","perfecture_jp":"愛知県","jp_add_1":"名古屋市中村区","jp_add_2":"下中村町"},"4530035":{"post_code":"4530035","prefecture":"AICHI KEN","city":"NAGOYA SHI NAKAMURA KU","town":"JUOCHO","perfecture_jp":"愛知県","jp_add_1":"名古屋市中村区","jp_add_2":"十王町"},"4530067":{"post_code":"4530067","prefecture":"AICHI KEN","city":"NAGOYA SHI NAKAMURA KU","town":"SHUKUATOCHO","perfecture_jp":"愛知県","jp_add_1":"名古屋市中村区","jp_add_2":"宿跡町"},"4530819":{"post_code":"4530819","prefecture":"AICHI KEN","city":"NAGOYA SHI NAKAMURA KU","town":"JOSHUCHO","perfecture_jp":"愛知県","jp_add_1":"名古屋市中村区","jp_add_2":"城主町"},"4530817":{"post_code":"4530817","prefecture":"AICHI KEN","city":"NAGOYA SHI NAKAMURA KU","town":"SHIRAKOCHO","perfecture_jp":"愛知県","jp_add_1":"名古屋市中村区","jp_add_2":"白子町"},"4530058":{"post_code":"4530058","prefecture":"AICHI KEN","city":"NAGOYA SHI NAKAMURA KU","town":"SHIROYASHIKICHO","perfecture_jp":"愛知県","jp_add_1":"名古屋市中村区","jp_add_2":"城屋敷町"},"4530031":{"post_code":"4530031","prefecture":"AICHI KEN","city":"NAGOYA SHI NAKAMURA KU","town":"SHINTOMICHO","perfecture_jp":"愛知県","jp_add_1":"名古屋市中村区","jp_add_2":"新富町"},"4530056":{"post_code":"4530056","prefecture":"AICHI KEN","city":"NAGOYA SHI NAKAMURA KU","town":"SUNADACHO","perfecture_jp":"愛知県","jp_add_1":"名古屋市中村区","jp_add_2":"砂田町"},"4530062":{"post_code":"4530062","prefecture":"AICHI KEN","city":"NAGOYA SHI NAKAMURA KU","town":"SUWACHO","perfecture_jp":"愛知県","jp_add_1":"名古屋市中村区","jp_add_2":"諏訪町"},"4530818":{"post_code":"4530818","prefecture":"AICHI KEN","city":"NAGOYA SHI NAKAMURA KU","town":"SENNARITORI","perfecture_jp":"愛知県","jp_add_1":"名古屋市中村区","jp_add_2":"千成通"},"4530801":{"post_code":"4530801","prefecture":"AICHI KEN","city":"NAGOYA SHI NAKAMURA KU","town":"TAIKO","perfecture_jp":"愛知県","jp_add_1":"名古屋市中村区","jp_add_2":"太閤"},"4530811":{"post_code":"4530811","prefecture":"AICHI KEN","city":"NAGOYA SHI NAKAMURA KU","town":"TAIKOTORI","perfecture_jp":"愛知県","jp_add_1":"名古屋市中村区","jp_add_2":"太閤通"},"4530806":{"post_code":"4530806","prefecture":"AICHI KEN","city":"NAGOYA SHI NAKAMURA KU","town":"TAISHOCHO","perfecture_jp":"愛知県","jp_add_1":"名古屋市中村区","jp_add_2":"大正町"},"4530034":{"post_code":"4530034","prefecture":"AICHI KEN","city":"NAGOYA SHI NAKAMURA KU","town":"DAINICHICHO","perfecture_jp":"愛知県","jp_add_1":"名古屋市中村区","jp_add_2":"大日町"},"4530854":{"post_code":"4530854","prefecture":"AICHI KEN","city":"NAGOYA SHI NAKAMURA KU","town":"TAKASUKACHO","perfecture_jp":"愛知県","jp_add_1":"名古屋市中村区","jp_add_2":"高須賀町"},"4530037":{"post_code":"4530037","prefecture":"AICHI KEN","city":"NAGOYA SHI NAKAMURA KU","town":"TAKAMICHICHO","perfecture_jp":"愛知県","jp_add_1":"名古屋市中村区","jp_add_2":"高道町"},"4530016":{"post_code":"4530016","prefecture":"AICHI KEN","city":"NAGOYA SHI NAKAMURA KU","town":"TAKEBASHICHO","perfecture_jp":"愛知県","jp_add_1":"名古屋市中村区","jp_add_2":"竹橋町"},"4530011":{"post_code":"4530011","prefecture":"AICHI KEN","city":"NAGOYA SHI NAKAMURA KU","town":"CHIHARACHO","perfecture_jp":"愛知県","jp_add_1":"名古屋市中村区","jp_add_2":"千原町"},"4530015":{"post_code":"4530015","prefecture":"AICHI KEN","city":"NAGOYA SHI NAKAMURA KU","town":"TSUBAKICHO","perfecture_jp":"愛知県","jp_add_1":"名古屋市中村区","jp_add_2":"椿町"},"4530842":{"post_code":"4530842","prefecture":"AICHI KEN","city":"NAGOYA SHI NAKAMURA KU","town":"TSURUGICHO","perfecture_jp":"愛知県","jp_add_1":"名古屋市中村区","jp_add_2":"剣町"},"4530834":{"post_code":"4530834","prefecture":"AICHI KEN","city":"NAGOYA SHI NAKAMURA KU","town":"TOYOKUNITORI","perfecture_jp":"愛知県","jp_add_1":"名古屋市中村区","jp_add_2":"豊国通"},"4530051":{"post_code":"4530051","prefecture":"AICHI KEN","city":"NAGOYA SHI NAKAMURA KU","town":"TOYOBATACHO","perfecture_jp":"愛知県","jp_add_1":"名古屋市中村区","jp_add_2":"豊幡町"},"4530044":{"post_code":"4530044","prefecture":"AICHI KEN","city":"NAGOYA SHI NAKAMURA KU","town":"TORIITORI","perfecture_jp":"愛知県","jp_add_1":"名古屋市中村区","jp_add_2":"鳥居通"},"4530054":{"post_code":"4530054","prefecture":"AICHI KEN","city":"NAGOYA SHI NAKAMURA KU","town":"TORIINISHITORI","perfecture_jp":"愛知県","jp_add_1":"名古屋市中村区","jp_add_2":"鳥居西通"},"4530022":{"post_code":"4530022","prefecture":"AICHI KEN","city":"NAGOYA SHI NAKAMURA KU","town":"NAKAJIMACHO","perfecture_jp":"愛知県","jp_add_1":"名古屋市中村区","jp_add_2":"中島町"},"4530053":{"post_code":"4530053","prefecture":"AICHI KEN","city":"NAGOYA SHI NAKAMURA KU","town":"NAKAMURACHO","perfecture_jp":"愛知県","jp_add_1":"名古屋市中村区","jp_add_2":"中村町"},"4530831":{"post_code":"4530831","prefecture":"AICHI KEN","city":"NAGOYA SHI NAKAMURA KU","town":"NAKAMURANAKAMACHI","perfecture_jp":"愛知県","jp_add_1":"名古屋市中村区","jp_add_2":"中村中町"},"4530828":{"post_code":"4530828","prefecture":"AICHI KEN","city":"NAGOYA SHI NAKAMURA KU","town":"NAKAMURAHOMMACHI","perfecture_jp":"愛知県","jp_add_1":"名古屋市中村区","jp_add_2":"中村本町"},"4530839":{"post_code":"4530839","prefecture":"AICHI KEN","city":"NAGOYA SHI NAKAMURA KU","town":"NAGAOSACHO","perfecture_jp":"愛知県","jp_add_1":"名古屋市中村区","jp_add_2":"長筬町"},"4530857":{"post_code":"4530857","prefecture":"AICHI KEN","city":"NAGOYA SHI NAKAMURA KU","town":"NAGAKUSACHO","perfecture_jp":"愛知県","jp_add_1":"名古屋市中村区","jp_add_2":"長草町"},"4530803":{"post_code":"4530803","prefecture":"AICHI KEN","city":"NAGOYA SHI NAKAMURA KU","town":"NAGATOICHO","perfecture_jp":"愛知県","jp_add_1":"名古屋市中村区","jp_add_2":"長戸井町"},"4530856":{"post_code":"4530856","prefecture":"AICHI KEN","city":"NAGOYA SHI NAKAMURA KU","town":"NAMIKI","perfecture_jp":"愛知県","jp_add_1":"名古屋市中村区","jp_add_2":"並木"},"4530025":{"post_code":"4530025","prefecture":"AICHI KEN","city":"NAGOYA SHI NAKAMURA KU","town":"NIGIWAICHO","perfecture_jp":"愛知県","jp_add_1":"名古屋市中村区","jp_add_2":"賑町"},"4530812":{"post_code":"4530812","prefecture":"AICHI KEN","city":"NAGOYA SHI NAKAMURA KU","town":"NISHIKOMENOCHO","perfecture_jp":"愛知県","jp_add_1":"名古屋市中村区","jp_add_2":"西米野町"},"4530846":{"post_code":"4530846","prefecture":"AICHI KEN","city":"NAGOYA SHI NAKAMURA KU","town":"NISHISAKAECHO","perfecture_jp":"愛知県","jp_add_1":"名古屋市中村区","jp_add_2":"西栄町"},"4530826":{"post_code":"4530826","prefecture":"AICHI KEN","city":"NAGOYA SHI NAKAMURA KU","town":"NIBUIKECHO","perfecture_jp":"愛知県","jp_add_1":"名古屋市中村区","jp_add_2":"鈍池町"},"4530859":{"post_code":"4530859","prefecture":"AICHI KEN","city":"NAGOYA SHI NAKAMURA KU","town":"NOGAMICHO","perfecture_jp":"愛知県","jp_add_1":"名古屋市中村区","jp_add_2":"野上町"},"4530858":{"post_code":"4530858","prefecture":"AICHI KEN","city":"NAGOYA SHI NAKAMURA KU","town":"NODACHO","perfecture_jp":"愛知県","jp_add_1":"名古屋市中村区","jp_add_2":"野田町"},"4530014":{"post_code":"4530014","prefecture":"AICHI KEN","city":"NAGOYA SHI NAKAMURA KU","town":"NORITAKE","perfecture_jp":"愛知県","jp_add_1":"名古屋市中村区","jp_add_2":"則武"},"4530017":{"post_code":"4530017","prefecture":"AICHI KEN","city":"NAGOYA SHI NAKAMURA KU","town":"NORITAKEHONTORI","perfecture_jp":"愛知県","jp_add_1":"名古屋市中村区","jp_add_2":"則武本通"},"4530026":{"post_code":"4530026","prefecture":"AICHI KEN","city":"NAGOYA SHI NAKAMURA KU","town":"HAGOROMOCHO","perfecture_jp":"愛知県","jp_add_1":"名古屋市中村区","jp_add_2":"羽衣町"},"4530069":{"post_code":"4530069","prefecture":"AICHI KEN","city":"NAGOYA SHI NAKAMURA KU","town":"HASHISHITACHO","perfecture_jp":"愛知県","jp_add_1":"名古屋市中村区","jp_add_2":"橋下町"},"4530851":{"post_code":"4530851","prefecture":"AICHI KEN","city":"NAGOYA SHI NAKAMURA KU","town":"HATAETORI","perfecture_jp":"愛知県","jp_add_1":"名古屋市中村区","jp_add_2":"畑江通"},"4530863":{"post_code":"4530863","prefecture":"AICHI KEN","city":"NAGOYA SHI NAKAMURA KU","town":"HASSHA","perfecture_jp":"愛知県","jp_add_1":"名古屋市中村区","jp_add_2":"八社"},"4530063":{"post_code":"4530063","prefecture":"AICHI KEN","city":"NAGOYA SHI NAKAMURA KU","town":"HIGASHIJUKUCHO","perfecture_jp":"愛知県","jp_add_1":"名古屋市中村区","jp_add_2":"東宿町"},"4530823":{"post_code":"4530823","prefecture":"AICHI KEN","city":"NAGOYA SHI NAKAMURA KU","town":"HINOMIYACHO","perfecture_jp":"愛知県","jp_add_1":"名古屋市中村区","jp_add_2":"日ノ宮町"},"4530061":{"post_code":"4530061","prefecture":"AICHI KEN","city":"NAGOYA SHI NAKAMURA KU","town":"HIBITSUCHO","perfecture_jp":"愛知県","jp_add_1":"名古屋市中村区","jp_add_2":"日比津町"},"4530029":{"post_code":"4530029","prefecture":"AICHI KEN","city":"NAGOYA SHI NAKAMURA KU","town":"HIYOSHICHO","perfecture_jp":"愛知県","jp_add_1":"名古屋市中村区","jp_add_2":"日吉町"},"4530872":{"post_code":"4530872","prefecture":"AICHI KEN","city":"NAGOYA SHI NAKAMURA KU","town":"HIRAIKECHO","perfecture_jp":"愛知県","jp_add_1":"名古屋市中村区","jp_add_2":"平池町"},"4530805":{"post_code":"4530805","prefecture":"AICHI KEN","city":"NAGOYA SHI NAKAMURA KU","town":"FUKAGAWACHO","perfecture_jp":"愛知県","jp_add_1":"名古屋市中村区","jp_add_2":"深川町"},"4530045":{"post_code":"4530045","prefecture":"AICHI KEN","city":"NAGOYA SHI NAKAMURA KU","town":"FUJIECHO","perfecture_jp":"愛知県","jp_add_1":"名古屋市中村区","jp_add_2":"藤江町"},"4530837":{"post_code":"4530837","prefecture":"AICHI KEN","city":"NAGOYA SHI NAKAMURA KU","town":"FUTASECHO","perfecture_jp":"愛知県","jp_add_1":"名古屋市中村区","jp_add_2":"二瀬町"},"4530813":{"post_code":"4530813","prefecture":"AICHI KEN","city":"NAGOYA SHI NAKAMURA KU","town":"FUTATSUBASHICHO","perfecture_jp":"愛知県","jp_add_1":"名古屋市中村区","jp_add_2":"二ツ橋町"},"4530041":{"post_code":"4530041","prefecture":"AICHI KEN","city":"NAGOYA SHI NAKAMURA KU","town":"HONJINTORI","perfecture_jp":"愛知県","jp_add_1":"名古屋市中村区","jp_add_2":"本陣通"},"4530871":{"post_code":"4530871","prefecture":"AICHI KEN","city":"NAGOYA SHI NAKAMURA KU","town":"MAKINOCHO","perfecture_jp":"愛知県","jp_add_1":"名古屋市中村区","jp_add_2":"牧野町"},"4530021":{"post_code":"4530021","prefecture":"AICHI KEN","city":"NAGOYA SHI NAKAMURA KU","town":"MATSUBARACHO","perfecture_jp":"愛知県","jp_add_1":"名古屋市中村区","jp_add_2":"松原町"},"4530046":{"post_code":"4530046","prefecture":"AICHI KEN","city":"NAGOYA SHI NAKAMURA KU","town":"MICHISHITACHO","perfecture_jp":"愛知県","jp_add_1":"名古屋市中村区","jp_add_2":"道下町"},"4530845":{"post_code":"4530845","prefecture":"AICHI KEN","city":"NAGOYA SHI NAKAMURA KU","town":"MIYATSUKACHO","perfecture_jp":"愛知県","jp_add_1":"名古屋市中村区","jp_add_2":"宮塚町"},"4530838":{"post_code":"4530838","prefecture":"AICHI KEN","city":"NAGOYA SHI NAKAMURA KU","town":"MUKOJIMACHO","perfecture_jp":"愛知県","jp_add_1":"名古屋市中村区","jp_add_2":"向島町"},"4530002":{"post_code":"4530002","prefecture":"AICHI KEN","city":"NAGOYA SHI NAKAMURA KU","town":"1-3-7)","perfecture_jp":"愛知県","jp_add_1":"名古屋市中村区","jp_add_2":"名駅"},"4530822":{"post_code":"4530822","prefecture":"AICHI KEN","city":"NAGOYA SHI NAKAMURA KU","town":"MEISEITORI","perfecture_jp":"愛知県","jp_add_1":"名古屋市中村区","jp_add_2":"名西通"},"4530024":{"post_code":"4530024","prefecture":"AICHI KEN","city":"NAGOYA SHI NAKAMURA KU","town":"MEIRAKUCHO","perfecture_jp":"愛知県","jp_add_1":"名古屋市中村区","jp_add_2":"名楽町"},"4530047":{"post_code":"4530047","prefecture":"AICHI KEN","city":"NAGOYA SHI NAKAMURA KU","town":"MOTONAKAMURACHO","perfecture_jp":"愛知県","jp_add_1":"名古屋市中村区","jp_add_2":"元中村町"},"4530052":{"post_code":"4530052","prefecture":"AICHI KEN","city":"NAGOYA SHI NAKAMURA KU","town":"MORISUECHO","perfecture_jp":"愛知県","jp_add_1":"名古屋市中村区","jp_add_2":"森末町"},"4530036":{"post_code":"4530036","prefecture":"AICHI KEN","city":"NAGOYA SHI NAKAMURA KU","town":"MORITACHO","perfecture_jp":"愛知県","jp_add_1":"名古屋市中村区","jp_add_2":"森田町"},"4530065":{"post_code":"4530065","prefecture":"AICHI KEN","city":"NAGOYA SHI NAKAMURA KU","town":"YASUKUNICHO","perfecture_jp":"愛知県","jp_add_1":"名古屋市中村区","jp_add_2":"靖国町"},"4530866":{"post_code":"4530866","prefecture":"AICHI KEN","city":"NAGOYA SHI NAKAMURA KU","town":"YOKOI","perfecture_jp":"愛知県","jp_add_1":"名古屋市中村区","jp_add_2":"横井"},"4530867":{"post_code":"4530867","prefecture":"AICHI KEN","city":"NAGOYA SHI NAKAMURA KU","town":"YOKOICHO","perfecture_jp":"愛知県","jp_add_1":"名古屋市中村区","jp_add_2":"横井町"},"4530864":{"post_code":"4530864","prefecture":"AICHI KEN","city":"NAGOYA SHI NAKAMURA KU","town":"YOKOMAECHO","perfecture_jp":"愛知県","jp_add_1":"名古屋市中村区","jp_add_2":"横前町"},"4530023":{"post_code":"4530023","prefecture":"AICHI KEN","city":"NAGOYA SHI NAKAMURA KU","town":"WAKAMIYACHO","perfecture_jp":"愛知県","jp_add_1":"名古屋市中村区","jp_add_2":"若宮町"}}