{"4540000":{"post_code":"4540000","prefecture":"AICHI KEN","city":"NAGOYA SHI NAKAGAWA KU","town":"IKANIKEISAIGANAIBAAI","perfecture_jp":"愛知県","jp_add_1":"名古屋市中川区","jp_add_2":""},"4540807":{"post_code":"4540807","prefecture":"AICHI KEN","city":"NAGOYA SHI NAKAGAWA KU","town":"AICHICHO","perfecture_jp":"愛知県","jp_add_1":"名古屋市中川区","jp_add_2":"愛知町"},"4540057":{"post_code":"4540057","prefecture":"AICHI KEN","city":"NAGOYA SHI NAKAGAWA KU","town":"ATSUTASHINDENHIGASHIGUMI","perfecture_jp":"愛知県","jp_add_1":"名古屋市中川区","jp_add_2":"熱田新田東組"},"4540032":{"post_code":"4540032","prefecture":"AICHI KEN","city":"NAGOYA SHI NAKAGAWA KU","town":"ARAECHO","perfecture_jp":"愛知県","jp_add_1":"名古屋市中川区","jp_add_2":"荒江町"},"4540869":{"post_code":"4540869","prefecture":"AICHI KEN","city":"NAGOYA SHI NAKAGAWA KU","town":"ARAKO","perfecture_jp":"愛知県","jp_add_1":"名古屋市中川区","jp_add_2":"荒子"},"4540044":{"post_code":"4540044","prefecture":"AICHI KEN","city":"NAGOYA SHI NAKAGAWA KU","town":"ARAKOSHICHO","perfecture_jp":"愛知県","jp_add_1":"名古屋市中川区","jp_add_2":"荒越町"},"4540861":{"post_code":"4540861","prefecture":"AICHI KEN","city":"NAGOYA SHI NAKAGAWA KU","town":"ARAKOCHO","perfecture_jp":"愛知県","jp_add_1":"名古屋市中川区","jp_add_2":"荒子町"},"4540922":{"post_code":"4540922","prefecture":"AICHI KEN","city":"NAGOYA SHI NAKAGAWA KU","town":"ARANAKACHO","perfecture_jp":"愛知県","jp_add_1":"名古屋市中川区","jp_add_2":"荒中町"},"4540946":{"post_code":"4540946","prefecture":"AICHI KEN","city":"NAGOYA SHI NAKAGAWA KU","town":"ISHIKISHIMMACHI","perfecture_jp":"愛知県","jp_add_1":"名古屋市中川区","jp_add_2":"一色新町"},"4540023":{"post_code":"4540023","prefecture":"AICHI KEN","city":"NAGOYA SHI NAKAGAWA KU","town":"ISHIBACHO","perfecture_jp":"愛知県","jp_add_1":"名古屋市中川区","jp_add_2":"石場町"},"4540905":{"post_code":"4540905","prefecture":"AICHI KEN","city":"NAGOYA SHI NAKAGAWA KU","town":"ICHIYANAGIDORI","perfecture_jp":"愛知県","jp_add_1":"名古屋市中川区","jp_add_2":"一柳通"},"4540901":{"post_code":"4540901","prefecture":"AICHI KEN","city":"NAGOYA SHI NAKAGAWA KU","town":"IWATSUKACHO(HONJI)","perfecture_jp":"愛知県","jp_add_1":"名古屋市中川区","jp_add_2":"岩塚町"},"4540043":{"post_code":"4540043","prefecture":"AICHI KEN","city":"NAGOYA SHI NAKAGAWA KU","town":"USHIDATECHO","perfecture_jp":"愛知県","jp_add_1":"名古屋市中川区","jp_add_2":"牛立町"},"4540926":{"post_code":"4540926","prefecture":"AICHI KEN","city":"NAGOYA SHI NAKAGAWA KU","town":"UCHIDE","perfecture_jp":"愛知県","jp_add_1":"名古屋市中川区","jp_add_2":"打出"},"4540924":{"post_code":"4540924","prefecture":"AICHI KEN","city":"NAGOYA SHI NAKAGAWA KU","town":"UCHIDECHO","perfecture_jp":"愛知県","jp_add_1":"名古屋市中川区","jp_add_2":"打出町"},"4540923":{"post_code":"4540923","prefecture":"AICHI KEN","city":"NAGOYA SHI NAKAGAWA KU","town":"UCHIDEHOMMACHI","perfecture_jp":"愛知県","jp_add_1":"名古屋市中川区","jp_add_2":"打出本町"},"4540927":{"post_code":"4540927","prefecture":"AICHI KEN","city":"NAGOYA SHI NAKAGAWA KU","town":"UCHINAKA","perfecture_jp":"愛知県","jp_add_1":"名古屋市中川区","jp_add_2":"打中"},"4540845":{"post_code":"4540845","prefecture":"AICHI KEN","city":"NAGOYA SHI NAKAGAWA KU","town":"UMATECHO","perfecture_jp":"愛知県","jp_add_1":"名古屋市中川区","jp_add_2":"馬手町"},"4540001":{"post_code":"4540001","prefecture":"AICHI KEN","city":"NAGOYA SHI NAKAGAWA KU","town":"UNGACHO","perfecture_jp":"愛知県","jp_add_1":"名古屋市中川区","jp_add_2":"運河町"},"4540002":{"post_code":"4540002","prefecture":"AICHI KEN","city":"NAGOYA SHI NAKAGAWA KU","town":"UNGATORI","perfecture_jp":"愛知県","jp_add_1":"名古屋市中川区","jp_add_2":"運河通"},"4540951":{"post_code":"4540951","prefecture":"AICHI KEN","city":"NAGOYA SHI NAKAGAWA KU","town":"ENOKIZUNISHIMACHI","perfecture_jp":"愛知県","jp_add_1":"名古屋市中川区","jp_add_2":"榎津西町"},"4540952":{"post_code":"4540952","prefecture":"AICHI KEN","city":"NAGOYA SHI NAKAGAWA KU","town":"ENOKIMATSUCHO","perfecture_jp":"愛知県","jp_add_1":"名古屋市中川区","jp_add_2":"榎松町"},"4540954":{"post_code":"4540954","prefecture":"AICHI KEN","city":"NAGOYA SHI NAKAGAWA KU","town":"TOMIDACHO EMATSU","perfecture_jp":"愛知県","jp_add_1":"名古屋市中川区","jp_add_2":"江松"},"4540959":{"post_code":"4540959","prefecture":"AICHI KEN","city":"NAGOYA SHI NAKAGAWA KU","town":"EMATSUNISHIMACHI","perfecture_jp":"愛知県","jp_add_1":"名古屋市中川区","jp_add_2":"江松西町"},"4540026":{"post_code":"4540026","prefecture":"AICHI KEN","city":"NAGOYA SHI NAKAGAWA KU","town":"OISECHO","perfecture_jp":"愛知県","jp_add_1":"名古屋市中川区","jp_add_2":"笈瀬町"},"4540042":{"post_code":"4540042","prefecture":"AICHI KEN","city":"NAGOYA SHI NAKAGAWA KU","town":"OJINCHO","perfecture_jp":"愛知県","jp_add_1":"名古屋市中川区","jp_add_2":"応仁町"},"4540863":{"post_code":"4540863","prefecture":"AICHI KEN","city":"NAGOYA SHI NAKAGAWA KU","town":"OSHIOCHO","perfecture_jp":"愛知県","jp_add_1":"名古屋市中川区","jp_add_2":"大塩町"},"4540843":{"post_code":"4540843","prefecture":"AICHI KEN","city":"NAGOYA SHI NAKAGAWA KU","town":"OHATACHO","perfecture_jp":"愛知県","jp_add_1":"名古屋市中川区","jp_add_2":"大畑町"},"4540051":{"post_code":"4540051","prefecture":"AICHI KEN","city":"NAGOYA SHI NAKAGAWA KU","town":"OYAMACHO","perfecture_jp":"愛知県","jp_add_1":"名古屋市中川区","jp_add_2":"大山町"},"4540841":{"post_code":"4540841","prefecture":"AICHI KEN","city":"NAGOYA SHI NAKAGAWA KU","town":"OSHIMOTOCHO","perfecture_jp":"愛知県","jp_add_1":"名古屋市中川区","jp_add_2":"押元町"},"4540012":{"post_code":"4540012","prefecture":"AICHI KEN","city":"NAGOYA SHI NAKAGAWA KU","town":"OTOBASHI","perfecture_jp":"愛知県","jp_add_1":"名古屋市中川区","jp_add_2":"尾頭橋"},"4540829":{"post_code":"4540829","prefecture":"AICHI KEN","city":"NAGOYA SHI NAKAGAWA KU","town":"OMOTOCHO","perfecture_jp":"愛知県","jp_add_1":"名古屋市中川区","jp_add_2":"小本町"},"4540906":{"post_code":"4540906","prefecture":"AICHI KEN","city":"NAGOYA SHI NAKAGAWA KU","town":"KAIHEICHO","perfecture_jp":"愛知県","jp_add_1":"名古屋市中川区","jp_add_2":"開平町"},"4540865":{"post_code":"4540865","prefecture":"AICHI KEN","city":"NAGOYA SHI NAKAGAWA KU","town":"KAKEIRICHO","perfecture_jp":"愛知県","jp_add_1":"名古屋市中川区","jp_add_2":"掛入町"},"4540819":{"post_code":"4540819","prefecture":"AICHI KEN","city":"NAGOYA SHI NAKAGAWA KU","town":"KASUMORICHO","perfecture_jp":"愛知県","jp_add_1":"名古屋市中川区","jp_add_2":"烏森町"},"4540957":{"post_code":"4540957","prefecture":"AICHI KEN","city":"NAGOYA SHI NAKAGAWA KU","town":"KANOSATO","perfecture_jp":"愛知県","jp_add_1":"名古屋市中川区","jp_add_2":"かの里"},"4540873":{"post_code":"4540873","prefecture":"AICHI KEN","city":"NAGOYA SHI NAKAGAWA KU","town":"KAMITAKABATA","perfecture_jp":"愛知県","jp_add_1":"名古屋市中川区","jp_add_2":"上高畑"},"4540846":{"post_code":"4540846","prefecture":"AICHI KEN","city":"NAGOYA SHI NAKAGAWA KU","town":"KAMINAGARECHO","perfecture_jp":"愛知県","jp_add_1":"名古屋市中川区","jp_add_2":"上流町"},"4540833":{"post_code":"4540833","prefecture":"AICHI KEN","city":"NAGOYA SHI NAKAGAWA KU","town":"KAMIWAKICHO","perfecture_jp":"愛知県","jp_add_1":"名古屋市中川区","jp_add_2":"上脇町"},"4540916":{"post_code":"4540916","prefecture":"AICHI KEN","city":"NAGOYA SHI NAKAGAWA KU","town":"KAWAMAECHO","perfecture_jp":"愛知県","jp_add_1":"名古屋市中川区","jp_add_2":"川前町"},"4540851":{"post_code":"4540851","prefecture":"AICHI KEN","city":"NAGOYA SHI NAKAGAWA KU","town":"KITAECHO","perfecture_jp":"愛知県","jp_add_1":"名古屋市中川区","jp_add_2":"北江町"},"4540049":{"post_code":"4540049","prefecture":"AICHI KEN","city":"NAGOYA SHI NAKAGAWA KU","town":"KIYOKAWACHO","perfecture_jp":"愛知県","jp_add_1":"名古屋市中川区","jp_add_2":"清川町"},"4540832":{"post_code":"4540832","prefecture":"AICHI KEN","city":"NAGOYA SHI NAKAGAWA KU","town":"KIYOFUNECHO","perfecture_jp":"愛知県","jp_add_1":"名古屋市中川区","jp_add_2":"清船町"},"4540874":{"post_code":"4540874","prefecture":"AICHI KEN","city":"NAGOYA SHI NAKAGAWA KU","town":"KIRACHO","perfecture_jp":"愛知県","jp_add_1":"名古屋市中川区","jp_add_2":"吉良町"},"4540868":{"post_code":"4540868","prefecture":"AICHI KEN","city":"NAGOYA SHI NAKAGAWA KU","town":"KUSAHIRACHO","perfecture_jp":"愛知県","jp_add_1":"名古屋市中川区","jp_add_2":"草平町"},"4540984":{"post_code":"4540984","prefecture":"AICHI KEN","city":"NAGOYA SHI NAKAGAWA KU","town":"KUMAIDEN","perfecture_jp":"愛知県","jp_add_1":"名古屋市中川区","jp_add_2":"供米田"},"4540856":{"post_code":"4540856","prefecture":"AICHI KEN","city":"NAGOYA SHI NAKAGAWA KU","town":"KOSUDORI","perfecture_jp":"愛知県","jp_add_1":"名古屋市中川区","jp_add_2":"小碓通"},"4540808":{"post_code":"4540808","prefecture":"AICHI KEN","city":"NAGOYA SHI NAKAGAWA KU","town":"KOKONOECHO","perfecture_jp":"愛知県","jp_add_1":"名古屋市中川区","jp_add_2":"九重町"},"4540875":{"post_code":"4540875","prefecture":"AICHI KEN","city":"NAGOYA SHI NAKAGAWA KU","town":"KOSHIROCHO","perfecture_jp":"愛知県","jp_add_1":"名古屋市中川区","jp_add_2":"小城町"},"4540849":{"post_code":"4540849","prefecture":"AICHI KEN","city":"NAGOYA SHI NAKAGAWA KU","town":"KOZUKACHO","perfecture_jp":"愛知県","jp_add_1":"名古屋市中川区","jp_add_2":"小塚町"},"4540033":{"post_code":"4540033","prefecture":"AICHI KEN","city":"NAGOYA SHI NAKAGAWA KU","town":"GONYOSHI","perfecture_jp":"愛知県","jp_add_1":"名古屋市中川区","jp_add_2":"五女子"},"4540034":{"post_code":"4540034","prefecture":"AICHI KEN","city":"NAGOYA SHI NAKAGAWA KU","town":"GONYOSHICHO","perfecture_jp":"愛知県","jp_add_1":"名古屋市中川区","jp_add_2":"五女子町"},"4540828":{"post_code":"4540828","prefecture":"AICHI KEN","city":"NAGOYA SHI NAKAGAWA KU","town":"KOMOTO","perfecture_jp":"愛知県","jp_add_1":"名古屋市中川区","jp_add_2":"小本"},"4540826":{"post_code":"4540826","prefecture":"AICHI KEN","city":"NAGOYA SHI NAKAGAWA KU","town":"KOMOTOHOMMACHI","perfecture_jp":"愛知県","jp_add_1":"名古屋市中川区","jp_add_2":"小本本町"},"4540812":{"post_code":"4540812","prefecture":"AICHI KEN","city":"NAGOYA SHI NAKAGAWA KU","town":"SATSUKITORI","perfecture_jp":"愛知県","jp_add_1":"名古屋市中川区","jp_add_2":"五月通"},"4540814":{"post_code":"4540814","prefecture":"AICHI KEN","city":"NAGOYA SHI NAKAGAWA KU","town":"SATSUKIMINAMITORI","perfecture_jp":"愛知県","jp_add_1":"名古屋市中川区","jp_add_2":"五月南通"},"4540011":{"post_code":"4540011","prefecture":"AICHI KEN","city":"NAGOYA SHI NAKAGAWA KU","town":"SANNO","perfecture_jp":"愛知県","jp_add_1":"名古屋市中川区","jp_add_2":"山王"},"4540822":{"post_code":"4540822","prefecture":"AICHI KEN","city":"NAGOYA SHI NAKAGAWA KU","town":"SHINYOSHICHO","perfecture_jp":"愛知県","jp_add_1":"名古屋市中川区","jp_add_2":"四女子町"},"4540839":{"post_code":"4540839","prefecture":"AICHI KEN","city":"NAGOYA SHI NAKAGAWA KU","town":"SHINOHARABASHITORI","perfecture_jp":"愛知県","jp_add_1":"名古屋市中川区","jp_add_2":"篠原橋通"},"4540974":{"post_code":"4540974","prefecture":"AICHI KEN","city":"NAGOYA SHI NAKAGAWA KU","town":"SHIMAICHO","perfecture_jp":"愛知県","jp_add_1":"名古屋市中川区","jp_add_2":"島井町"},"4540945":{"post_code":"4540945","prefecture":"AICHI KEN","city":"NAGOYA SHI NAKAGAWA KU","town":"SHIMONOISSHIKICHO","perfecture_jp":"愛知県","jp_add_1":"名古屋市中川区","jp_add_2":"下之一色町"},"4540858":{"post_code":"4540858","prefecture":"AICHI KEN","city":"NAGOYA SHI NAKAGAWA KU","town":"SHOTOKUCHO","perfecture_jp":"愛知県","jp_add_1":"名古屋市中川区","jp_add_2":"正徳町"},"4540854":{"post_code":"4540854","prefecture":"AICHI KEN","city":"NAGOYA SHI NAKAGAWA KU","town":"SHONENCHO","perfecture_jp":"愛知県","jp_add_1":"名古屋市中川区","jp_add_2":"松年町"},"4540855":{"post_code":"4540855","prefecture":"AICHI KEN","city":"NAGOYA SHI NAKAGAWA KU","town":"SHOMEICHO","perfecture_jp":"愛知県","jp_add_1":"名古屋市中川区","jp_add_2":"昭明町"},"4540852":{"post_code":"4540852","prefecture":"AICHI KEN","city":"NAGOYA SHI NAKAGAWA KU","town":"SHOWABASHITORI","perfecture_jp":"愛知県","jp_add_1":"名古屋市中川区","jp_add_2":"昭和橋通"},"4540046":{"post_code":"4540046","prefecture":"AICHI KEN","city":"NAGOYA SHI NAKAGAWA KU","town":"SHINGOCHO","perfecture_jp":"愛知県","jp_add_1":"名古屋市中川区","jp_add_2":"神郷町"},"4540055":{"post_code":"4540055","prefecture":"AICHI KEN","city":"NAGOYA SHI NAKAGAWA KU","town":"JUBANCHO","perfecture_jp":"愛知県","jp_add_1":"名古屋市中川区","jp_add_2":"十番町"},"4540056":{"post_code":"4540056","prefecture":"AICHI KEN","city":"NAGOYA SHI NAKAGAWA KU","town":"JUICHIBANCHO","perfecture_jp":"愛知県","jp_add_1":"名古屋市中川区","jp_add_2":"十一番町"},"4540947":{"post_code":"4540947","prefecture":"AICHI KEN","city":"NAGOYA SHI NAKAGAWA KU","town":"SUKEMITSU","perfecture_jp":"愛知県","jp_add_1":"名古屋市中川区","jp_add_2":"助光"},"4540806":{"post_code":"4540806","prefecture":"AICHI KEN","city":"NAGOYA SHI NAKAGAWA KU","town":"SUMIIKECHO","perfecture_jp":"愛知県","jp_add_1":"名古屋市中川区","jp_add_2":"澄池町"},"4540821":{"post_code":"4540821","prefecture":"AICHI KEN","city":"NAGOYA SHI NAKAGAWA KU","town":"SOENCHO","perfecture_jp":"愛知県","jp_add_1":"名古屋市中川区","jp_add_2":"宗円町"},"4540053":{"post_code":"4540053","prefecture":"AICHI KEN","city":"NAGOYA SHI NAKAGAWA KU","town":"SOTOSHINCHO","perfecture_jp":"愛知県","jp_add_1":"名古屋市中川区","jp_add_2":"外新町"},"4540991":{"post_code":"4540991","prefecture":"AICHI KEN","city":"NAGOYA SHI NAKAGAWA KU","town":"DAICHI","perfecture_jp":"愛知県","jp_add_1":"名古屋市中川区","jp_add_2":"大地"},"4540943":{"post_code":"4540943","prefecture":"AICHI KEN","city":"NAGOYA SHI NAKAGAWA KU","town":"DAITORO","perfecture_jp":"愛知県","jp_add_1":"名古屋市中川区","jp_add_2":"大当郎"},"4540944":{"post_code":"4540944","prefecture":"AICHI KEN","city":"NAGOYA SHI NAKAGAWA KU","town":"DAITOROCHO","perfecture_jp":"愛知県","jp_add_1":"名古屋市中川区","jp_add_2":"大蟷螂町"},"4540838":{"post_code":"4540838","prefecture":"AICHI KEN","city":"NAGOYA SHI NAKAGAWA KU","town":"TAIHEITORI","perfecture_jp":"愛知県","jp_add_1":"名古屋市中川区","jp_add_2":"太平通"},"4540936":{"post_code":"4540936","prefecture":"AICHI KEN","city":"NAGOYA SHI NAKAGAWA KU","town":"TAKASUGICHO","perfecture_jp":"愛知県","jp_add_1":"名古屋市中川区","jp_add_2":"高杉町"},"4540911":{"post_code":"4540911","prefecture":"AICHI KEN","city":"NAGOYA SHI NAKAGAWA KU","town":"TAKABATA","perfecture_jp":"愛知県","jp_add_1":"名古屋市中川区","jp_add_2":"高畑"},"4540058":{"post_code":"4540058","prefecture":"AICHI KEN","city":"NAGOYA SHI NAKAGAWA KU","town":"TAMAKAWACHO","perfecture_jp":"愛知県","jp_add_1":"名古屋市中川区","jp_add_2":"玉川町"},"4540853":{"post_code":"4540853","prefecture":"AICHI KEN","city":"NAGOYA SHI NAKAGAWA KU","town":"TAMAFUNECHO","perfecture_jp":"愛知県","jp_add_1":"名古屋市中川区","jp_add_2":"玉船町"},"4540045":{"post_code":"4540045","prefecture":"AICHI KEN","city":"NAGOYA SHI NAKAGAWA KU","town":"TANGOCHO","perfecture_jp":"愛知県","jp_add_1":"名古屋市中川区","jp_add_2":"丹後町"},"4540816":{"post_code":"4540816","prefecture":"AICHI KEN","city":"NAGOYA SHI NAKAGAWA KU","town":"CHUKYOMINAMITORI","perfecture_jp":"愛知県","jp_add_1":"名古屋市中川区","jp_add_2":"中京南通"},"4540921":{"post_code":"4540921","prefecture":"AICHI KEN","city":"NAGOYA SHI NAKAGAWA KU","town":"CHUGO","perfecture_jp":"愛知県","jp_add_1":"名古屋市中川区","jp_add_2":"中郷"},"4540804":{"post_code":"4540804","prefecture":"AICHI KEN","city":"NAGOYA SHI NAKAGAWA KU","town":"TSUKISHIMACHO","perfecture_jp":"愛知県","jp_add_1":"名古屋市中川区","jp_add_2":"月島町"},"4540827":{"post_code":"4540827","prefecture":"AICHI KEN","city":"NAGOYA SHI NAKAGAWA KU","town":"TSUJIBATACHO","perfecture_jp":"愛知県","jp_add_1":"名古屋市中川区","jp_add_2":"辻畑町"},"4540824":{"post_code":"4540824","prefecture":"AICHI KEN","city":"NAGOYA SHI NAKAGAWA KU","town":"TSUTAMOTOCHO","perfecture_jp":"愛知県","jp_add_1":"名古屋市中川区","jp_add_2":"蔦元町"},"4540913":{"post_code":"4540913","prefecture":"AICHI KEN","city":"NAGOYA SHI NAKAGAWA KU","town":"TSUCHINOCHO","perfecture_jp":"愛知県","jp_add_1":"名古屋市中川区","jp_add_2":"土野町"},"4540022":{"post_code":"4540022","prefecture":"AICHI KEN","city":"NAGOYA SHI NAKAGAWA KU","town":"TSUYUHASHI","perfecture_jp":"愛知県","jp_add_1":"名古屋市中川区","jp_add_2":"露橋"},"4540028":{"post_code":"4540028","prefecture":"AICHI KEN","city":"NAGOYA SHI NAKAGAWA KU","town":"TSUYUHASHICHO","perfecture_jp":"愛知県","jp_add_1":"名古屋市中川区","jp_add_2":"露橋町"},"4540962":{"post_code":"4540962","prefecture":"AICHI KEN","city":"NAGOYA SHI NAKAGAWA KU","town":"TODA","perfecture_jp":"愛知県","jp_add_1":"名古屋市中川区","jp_add_2":"戸田"},"4540967":{"post_code":"4540967","prefecture":"AICHI KEN","city":"NAGOYA SHI NAKAGAWA KU","town":"TODANISHI","perfecture_jp":"愛知県","jp_add_1":"名古屋市中川区","jp_add_2":"戸田西"},"4540961":{"post_code":"4540961","prefecture":"AICHI KEN","city":"NAGOYA SHI NAKAGAWA KU","town":"TOMIDACHO TODA","perfecture_jp":"愛知県","jp_add_1":"名古屋市中川区","jp_add_2":"戸田明正"},"4540966":{"post_code":"4540966","prefecture":"AICHI KEN","city":"NAGOYA SHI NAKAGAWA KU","town":"TODAYUTAKA","perfecture_jp":"愛知県","jp_add_1":"名古屋市中川区","jp_add_2":"戸田ゆたか"},"4540037":{"post_code":"4540037","prefecture":"AICHI KEN","city":"NAGOYA SHI NAKAGAWA KU","town":"TOMIKAWACHO","perfecture_jp":"愛知県","jp_add_1":"名古屋市中川区","jp_add_2":"富川町"},"4540955":{"post_code":"4540955","prefecture":"AICHI KEN","city":"NAGOYA SHI NAKAGAWA KU","town":"TOMIDACHO KANOSATO","perfecture_jp":"愛知県","jp_add_1":"名古屋市中川区","jp_add_2":"富田町包里"},"4540956":{"post_code":"4540956","prefecture":"AICHI KEN","city":"NAGOYA SHI NAKAGAWA KU","town":"TOMIDACHO KUMAIDEN","perfecture_jp":"愛知県","jp_add_1":"名古屋市中川区","jp_add_2":"富田町供米田"},"4540971":{"post_code":"4540971","prefecture":"AICHI KEN","city":"NAGOYA SHI NAKAGAWA KU","town":"TOMIDACHO SENNONJI","perfecture_jp":"愛知県","jp_add_1":"名古屋市中川区","jp_add_2":"富田町千音寺"},"4540973":{"post_code":"4540973","prefecture":"AICHI KEN","city":"NAGOYA SHI NAKAGAWA KU","town":"TOMIDACHO HATTORI","perfecture_jp":"愛知県","jp_add_1":"名古屋市中川区","jp_add_2":"富田町服部"},"4540986":{"post_code":"4540986","prefecture":"AICHI KEN","city":"NAGOYA SHI NAKAGAWA KU","town":"TOMIDACHO HARUTA","perfecture_jp":"愛知県","jp_add_1":"名古屋市中川区","jp_add_2":"富田町春田"},"4540995":{"post_code":"4540995","prefecture":"AICHI KEN","city":"NAGOYA SHI NAKAGAWA KU","town":"TOMIDACHO FUSHIYA","perfecture_jp":"愛知県","jp_add_1":"名古屋市中川区","jp_add_2":"富田町伏屋"},"4540942":{"post_code":"4540942","prefecture":"AICHI KEN","city":"NAGOYA SHI NAKAGAWA KU","town":"TOMIDACHO MAEDA","perfecture_jp":"愛知県","jp_add_1":"名古屋市中川区","jp_add_2":"富田町前田"},"4540993":{"post_code":"4540993","prefecture":"AICHI KEN","city":"NAGOYA SHI NAKAGAWA KU","town":"TOMIDACHO MATSUSHITA","perfecture_jp":"愛知県","jp_add_1":"名古屋市中川区","jp_add_2":"富田町松下"},"4540992":{"post_code":"4540992","prefecture":"AICHI KEN","city":"NAGOYA SHI NAKAGAWA KU","town":"TOMIDACHO MAMBA","perfecture_jp":"愛知県","jp_add_1":"名古屋市中川区","jp_add_2":"富田町万場"},"4540953":{"post_code":"4540953","prefecture":"AICHI KEN","city":"NAGOYA SHI NAKAGAWA KU","town":"TOMIDACHO YONOKIZU","perfecture_jp":"愛知県","jp_add_1":"名古屋市中川区","jp_add_2":"富田町榎津"},"4540964":{"post_code":"4540964","prefecture":"AICHI KEN","city":"NAGOYA SHI NAKAGAWA KU","town":"TOMINAGA","perfecture_jp":"愛知県","jp_add_1":"名古屋市中川区","jp_add_2":"富永"},"4540823":{"post_code":"4540823","prefecture":"AICHI KEN","city":"NAGOYA SHI NAKAGAWA KU","town":"TOMIFUNECHO","perfecture_jp":"愛知県","jp_add_1":"名古屋市中川区","jp_add_2":"富船町"},"4540932":{"post_code":"4540932","prefecture":"AICHI KEN","city":"NAGOYA SHI NAKAGAWA KU","town":"NAKAJIMASHINCHO","perfecture_jp":"愛知県","jp_add_1":"名古屋市中川区","jp_add_2":"中島新町"},"4540994":{"post_code":"4540994","prefecture":"AICHI KEN","city":"NAGOYA SHI NAKAGAWA KU","town":"NAGASUKA","perfecture_jp":"愛知県","jp_add_1":"名古屋市中川区","jp_add_2":"長須賀"},"4540925":{"post_code":"4540925","prefecture":"AICHI KEN","city":"NAGOYA SHI NAKAGAWA KU","town":"NAKASUCHO","perfecture_jp":"愛知県","jp_add_1":"名古屋市中川区","jp_add_2":"中須町"},"4540837":{"post_code":"4540837","prefecture":"AICHI KEN","city":"NAGOYA SHI NAKAGAWA KU","town":"NAKANOSHINCHO","perfecture_jp":"愛知県","jp_add_1":"名古屋市中川区","jp_add_2":"中野新町"},"4540047":{"post_code":"4540047","prefecture":"AICHI KEN","city":"NAGOYA SHI NAKAGAWA KU","town":"NAKANOHOMMACHI","perfecture_jp":"愛知県","jp_add_1":"名古屋市中川区","jp_add_2":"中野本町"},"4540931":{"post_code":"4540931","prefecture":"AICHI KEN","city":"NAGOYA SHI NAKAGAWA KU","town":"NAKAHANACHO","perfecture_jp":"愛知県","jp_add_1":"名古屋市中川区","jp_add_2":"中花町"},"4540815":{"post_code":"4540815","prefecture":"AICHI KEN","city":"NAGOYA SHI NAKAGAWA KU","town":"NAGARACHO","perfecture_jp":"愛知県","jp_add_1":"名古屋市中川区","jp_add_2":"長良町"},"4540972":{"post_code":"4540972","prefecture":"AICHI KEN","city":"NAGOYA SHI NAKAGAWA KU","town":"NIIE","perfecture_jp":"愛知県","jp_add_1":"名古屋市中川区","jp_add_2":"新家"},"4540934":{"post_code":"4540934","prefecture":"AICHI KEN","city":"NAGOYA SHI NAKAGAWA KU","town":"NISHINAKAJIMA","perfecture_jp":"愛知県","jp_add_1":"名古屋市中川区","jp_add_2":"西中島"},"4540004":{"post_code":"4540004","prefecture":"AICHI KEN","city":"NAGOYA SHI NAKAGAWA KU","town":"NISHIHIOKI","perfecture_jp":"愛知県","jp_add_1":"名古屋市中川区","jp_add_2":"西日置"},"4540005":{"post_code":"4540005","prefecture":"AICHI KEN","city":"NAGOYA SHI NAKAGAWA KU","town":"NISHIHIOKICHO","perfecture_jp":"愛知県","jp_add_1":"名古屋市中川区","jp_add_2":"西日置町"},"4540982":{"post_code":"4540982","prefecture":"AICHI KEN","city":"NAGOYA SHI NAKAGAWA KU","town":"NISHIFUSHIYA","perfecture_jp":"愛知県","jp_add_1":"名古屋市中川区","jp_add_2":"西伏屋"},"4540036":{"post_code":"4540036","prefecture":"AICHI KEN","city":"NAGOYA SHI NAKAGAWA KU","town":"NINYOSHICHO","perfecture_jp":"愛知県","jp_add_1":"名古屋市中川区","jp_add_2":"二女子町"},"4540912":{"post_code":"4540912","prefecture":"AICHI KEN","city":"NAGOYA SHI NAKAGAWA KU","town":"NODA","perfecture_jp":"愛知県","jp_add_1":"名古屋市中川区","jp_add_2":"野田"},"4540813":{"post_code":"4540813","prefecture":"AICHI KEN","city":"NAGOYA SHI NAKAGAWA KU","town":"NORIKOSHICHO","perfecture_jp":"愛知県","jp_add_1":"名古屋市中川区","jp_add_2":"乗越町"},"4540844":{"post_code":"4540844","prefecture":"AICHI KEN","city":"NAGOYA SHI NAKAGAWA KU","town":"HAIKECHO","perfecture_jp":"愛知県","jp_add_1":"名古屋市中川区","jp_add_2":"葉池町"},"4540860":{"post_code":"4540860","prefecture":"AICHI KEN","city":"NAGOYA SHI NAKAGAWA KU","town":"HATADACHO","perfecture_jp":"愛知県","jp_add_1":"名古屋市中川区","jp_add_2":"畑田町"},"4540016":{"post_code":"4540016","prefecture":"AICHI KEN","city":"NAGOYA SHI NAKAGAWA KU","town":"HATANOCHO","perfecture_jp":"愛知県","jp_add_1":"名古屋市中川区","jp_add_2":"幡野町"},"4540054":{"post_code":"4540054","prefecture":"AICHI KEN","city":"NAGOYA SHI NAKAGAWA KU","town":"HACHIKENCHO","perfecture_jp":"愛知県","jp_add_1":"名古屋市中川区","jp_add_2":"八剱町"},"4540877":{"post_code":"4540877","prefecture":"AICHI KEN","city":"NAGOYA SHI NAKAGAWA KU","town":"HATTACHO","perfecture_jp":"愛知県","jp_add_1":"名古屋市中川区","jp_add_2":"八田町"},"4540904":{"post_code":"4540904","prefecture":"AICHI KEN","city":"NAGOYA SHI NAKAGAWA KU","town":"HATTAHOMMACHI","perfecture_jp":"愛知県","jp_add_1":"名古屋市中川区","jp_add_2":"八田本町"},"4540976":{"post_code":"4540976","prefecture":"AICHI KEN","city":"NAGOYA SHI NAKAGAWA KU","town":"HATTORI","perfecture_jp":"愛知県","jp_add_1":"名古屋市中川区","jp_add_2":"服部"},"4540902":{"post_code":"4540902","prefecture":"AICHI KEN","city":"NAGOYA SHI NAKAGAWA KU","town":"HANAIKECHO","perfecture_jp":"愛知県","jp_add_1":"名古屋市中川区","jp_add_2":"花池町"},"4540052":{"post_code":"4540052","prefecture":"AICHI KEN","city":"NAGOYA SHI NAKAGAWA KU","town":"HANAZUKACHO","perfecture_jp":"愛知県","jp_add_1":"名古屋市中川区","jp_add_2":"花塚町"},"4540985":{"post_code":"4540985","prefecture":"AICHI KEN","city":"NAGOYA SHI NAKAGAWA KU","town":"HARUTA","perfecture_jp":"愛知県","jp_add_1":"名古屋市中川区","jp_add_2":"春田"},"4540935":{"post_code":"4540935","prefecture":"AICHI KEN","city":"NAGOYA SHI NAKAGAWA KU","town":"HIGASHIOKOSHICHO","perfecture_jp":"愛知県","jp_add_1":"名古屋市中川区","jp_add_2":"東起町"},"4540958":{"post_code":"4540958","prefecture":"AICHI KEN","city":"NAGOYA SHI NAKAGAWA KU","town":"HIGASHIKANOSATOCHO","perfecture_jp":"愛知県","jp_add_1":"名古屋市中川区","jp_add_2":"東かの里町"},"4540866":{"post_code":"4540866","prefecture":"AICHI KEN","city":"NAGOYA SHI NAKAGAWA KU","town":"HIGASHINAKAJIMACHO","perfecture_jp":"愛知県","jp_add_1":"名古屋市中川区","jp_add_2":"東中島町"},"4540983":{"post_code":"4540983","prefecture":"AICHI KEN","city":"NAGOYA SHI NAKAGAWA KU","town":"HIGASHIHARUTA","perfecture_jp":"愛知県","jp_add_1":"名古屋市中川区","jp_add_2":"東春田"},"4540975":{"post_code":"4540975","prefecture":"AICHI KEN","city":"NAGOYA SHI NAKAGAWA KU","town":"HICHITANDACHO","perfecture_jp":"愛知県","jp_add_1":"名古屋市中川区","jp_add_2":"七反田町"},"4540864":{"post_code":"4540864","prefecture":"AICHI KEN","city":"NAGOYA SHI NAKAGAWA KU","town":"HIRATOCHO","perfecture_jp":"愛知県","jp_add_1":"名古屋市中川区","jp_add_2":"平戸町"},"4540027":{"post_code":"4540027","prefecture":"AICHI KEN","city":"NAGOYA SHI NAKAGAWA KU","town":"HIROKAWACHO","perfecture_jp":"愛知県","jp_add_1":"名古屋市中川区","jp_add_2":"広川町"},"4540007":{"post_code":"4540007","prefecture":"AICHI KEN","city":"NAGOYA SHI NAKAGAWA KU","town":"HIROSUMICHO","perfecture_jp":"愛知県","jp_add_1":"名古屋市中川区","jp_add_2":"広住町"},"4540867":{"post_code":"4540867","prefecture":"AICHI KEN","city":"NAGOYA SHI NAKAGAWA KU","town":"HIROTACHO","perfecture_jp":"愛知県","jp_add_1":"名古屋市中川区","jp_add_2":"広田町"},"4540059":{"post_code":"4540059","prefecture":"AICHI KEN","city":"NAGOYA SHI NAKAGAWA KU","town":"FUKUKAWACHO","perfecture_jp":"愛知県","jp_add_1":"名古屋市中川区","jp_add_2":"福川町"},"4540965":{"post_code":"4540965","prefecture":"AICHI KEN","city":"NAGOYA SHI NAKAGAWA KU","town":"FUKUSHIMA","perfecture_jp":"愛知県","jp_add_1":"名古屋市中川区","jp_add_2":"福島"},"4540802":{"post_code":"4540802","prefecture":"AICHI KEN","city":"NAGOYA SHI NAKAGAWA KU","town":"FUKUZUMICHO","perfecture_jp":"愛知県","jp_add_1":"名古屋市中川区","jp_add_2":"福住町"},"4540836":{"post_code":"4540836","prefecture":"AICHI KEN","city":"NAGOYA SHI NAKAGAWA KU","town":"FUKUFUNECHO","perfecture_jp":"愛知県","jp_add_1":"名古屋市中川区","jp_add_2":"福船町"},"4540996":{"post_code":"4540996","prefecture":"AICHI KEN","city":"NAGOYA SHI NAKAGAWA KU","town":"FUSHIYA","perfecture_jp":"愛知県","jp_add_1":"名古屋市中川区","jp_add_2":"伏屋"},"4540805":{"post_code":"4540805","prefecture":"AICHI KEN","city":"NAGOYA SHI NAKAGAWA KU","town":"FUNATOCHO","perfecture_jp":"愛知県","jp_add_1":"名古屋市中川区","jp_add_2":"舟戸町"},"4540803":{"post_code":"4540803","prefecture":"AICHI KEN","city":"NAGOYA SHI NAKAGAWA KU","town":"HOSEICHO","perfecture_jp":"愛知県","jp_add_1":"名古屋市中川区","jp_add_2":"豊成町"},"4540859":{"post_code":"4540859","prefecture":"AICHI KEN","city":"NAGOYA SHI NAKAGAWA KU","town":"HOZOCHO","perfecture_jp":"愛知県","jp_add_1":"名古屋市中川区","jp_add_2":"法蔵町"},"4540847":{"post_code":"4540847","prefecture":"AICHI KEN","city":"NAGOYA SHI NAKAGAWA KU","town":"HOSOKOMECHO","perfecture_jp":"愛知県","jp_add_1":"名古屋市中川区","jp_add_2":"細米町"},"4540933":{"post_code":"4540933","prefecture":"AICHI KEN","city":"NAGOYA SHI NAKAGAWA KU","town":"HOKKE","perfecture_jp":"愛知県","jp_add_1":"名古屋市中川区","jp_add_2":"法華"},"4540937":{"post_code":"4540937","prefecture":"AICHI KEN","city":"NAGOYA SHI NAKAGAWA KU","town":"HOKKENISHIMACHI","perfecture_jp":"愛知県","jp_add_1":"名古屋市中川区","jp_add_2":"法華西町"},"4540914":{"post_code":"4540914","prefecture":"AICHI KEN","city":"NAGOYA SHI NAKAGAWA KU","town":"HOMMAEDACHO","perfecture_jp":"愛知県","jp_add_1":"名古屋市中川区","jp_add_2":"本前田町"},"4540941":{"post_code":"4540941","prefecture":"AICHI KEN","city":"NAGOYA SHI NAKAGAWA KU","town":"MAEDANISHIMACHI","perfecture_jp":"愛知県","jp_add_1":"名古屋市中川区","jp_add_2":"前田西町"},"4540025":{"post_code":"4540025","prefecture":"AICHI KEN","city":"NAGOYA SHI NAKAGAWA KU","town":"MAENAMICHO","perfecture_jp":"愛知県","jp_add_1":"名古屋市中川区","jp_add_2":"前並町"},"4540003":{"post_code":"4540003","prefecture":"AICHI KEN","city":"NAGOYA SHI NAKAGAWA KU","town":"MATSUSHIGECHO","perfecture_jp":"愛知県","jp_add_1":"名古屋市中川区","jp_add_2":"松重町"},"4540848":{"post_code":"4540848","prefecture":"AICHI KEN","city":"NAGOYA SHI NAKAGAWA KU","town":"MATSUNOKICHO","perfecture_jp":"愛知県","jp_add_1":"名古屋市中川区","jp_add_2":"松ノ木町"},"4540818":{"post_code":"4540818","prefecture":"AICHI KEN","city":"NAGOYA SHI NAKAGAWA KU","town":"MATSUBACHO","perfecture_jp":"愛知県","jp_add_1":"名古屋市中川区","jp_add_2":"松葉町"},"4540862":{"post_code":"4540862","prefecture":"AICHI KEN","city":"NAGOYA SHI NAKAGAWA KU","town":"MATOBACHO","perfecture_jp":"愛知県","jp_add_1":"名古屋市中川区","jp_add_2":"的場町"},"4540834":{"post_code":"4540834","prefecture":"AICHI KEN","city":"NAGOYA SHI NAKAGAWA KU","town":"MARUKOMECHO","perfecture_jp":"愛知県","jp_add_1":"名古屋市中川区","jp_add_2":"丸米町"},"4540872":{"post_code":"4540872","prefecture":"AICHI KEN","city":"NAGOYA SHI NAKAGAWA KU","town":"MANCHO","perfecture_jp":"愛知県","jp_add_1":"名古屋市中川区","jp_add_2":"万町"},"4540997":{"post_code":"4540997","prefecture":"AICHI KEN","city":"NAGOYA SHI NAKAGAWA KU","town":"MAMBA","perfecture_jp":"愛知県","jp_add_1":"名古屋市中川区","jp_add_2":"万場"},"4540963":{"post_code":"4540963","prefecture":"AICHI KEN","city":"NAGOYA SHI NAKAGAWA KU","town":"MIZUSATO","perfecture_jp":"愛知県","jp_add_1":"名古屋市中川区","jp_add_2":"水里"},"4540811":{"post_code":"4540811","prefecture":"AICHI KEN","city":"NAGOYA SHI NAKAGAWA KU","town":"MITSUIKECHO","perfecture_jp":"愛知県","jp_add_1":"名古屋市中川区","jp_add_2":"三ツ池町"},"4540831":{"post_code":"4540831","prefecture":"AICHI KEN","city":"NAGOYA SHI NAKAGAWA KU","town":"MITSUYACHO","perfecture_jp":"愛知県","jp_add_1":"名古屋市中川区","jp_add_2":"三ツ屋町"},"4540015":{"post_code":"4540015","prefecture":"AICHI KEN","city":"NAGOYA SHI NAKAGAWA KU","town":"MINAMIYAGUMACHO","perfecture_jp":"愛知県","jp_add_1":"名古屋市中川区","jp_add_2":"南八熊町"},"4540817":{"post_code":"4540817","prefecture":"AICHI KEN","city":"NAGOYA SHI NAKAGAWA KU","town":"MINAMIWAKICHO","perfecture_jp":"愛知県","jp_add_1":"名古屋市中川区","jp_add_2":"南脇町"},"4540842":{"post_code":"4540842","prefecture":"AICHI KEN","city":"NAGOYA SHI NAKAGAWA KU","town":"MIYAWAKICHO","perfecture_jp":"愛知県","jp_add_1":"名古屋市中川区","jp_add_2":"宮脇町"},"4540857":{"post_code":"4540857","prefecture":"AICHI KEN","city":"NAGOYA SHI NAKAGAWA KU","town":"MEITOKUCHO","perfecture_jp":"愛知県","jp_add_1":"名古屋市中川区","jp_add_2":"明徳町"},"4540048":{"post_code":"4540048","prefecture":"AICHI KEN","city":"NAGOYA SHI NAKAGAWA KU","town":"MOTONAKANOCHO","perfecture_jp":"愛知県","jp_add_1":"名古屋市中川区","jp_add_2":"元中野町"},"4540801":{"post_code":"4540801","prefecture":"AICHI KEN","city":"NAGOYA SHI NAKAGAWA KU","town":"MOMOFUNECHO","perfecture_jp":"愛知県","jp_add_1":"名古屋市中川区","jp_add_2":"百船町"},"4540041":{"post_code":"4540041","prefecture":"AICHI KEN","city":"NAGOYA SHI NAKAGAWA KU","town":"YAGAMICHO","perfecture_jp":"愛知県","jp_add_1":"名古屋市中川区","jp_add_2":"八神町"},"4540013":{"post_code":"4540013","prefecture":"AICHI KEN","city":"NAGOYA SHI NAKAGAWA KU","town":"YAGUMA","perfecture_jp":"愛知県","jp_add_1":"名古屋市中川区","jp_add_2":"八熊"},"4540035":{"post_code":"4540035","prefecture":"AICHI KEN","city":"NAGOYA SHI NAKAGAWA KU","town":"YAGUMADORI","perfecture_jp":"愛知県","jp_add_1":"名古屋市中川区","jp_add_2":"八熊通"},"4540835":{"post_code":"4540835","prefecture":"AICHI KEN","city":"NAGOYA SHI NAKAGAWA KU","town":"YATSUYACHO","perfecture_jp":"愛知県","jp_add_1":"名古屋市中川区","jp_add_2":"八家町"},"4540014":{"post_code":"4540014","prefecture":"AICHI KEN","city":"NAGOYA SHI NAKAGAWA KU","town":"YANAGAWACHO","perfecture_jp":"愛知県","jp_add_1":"名古屋市中川区","jp_add_2":"柳川町"},"4540024":{"post_code":"4540024","prefecture":"AICHI KEN","city":"NAGOYA SHI NAKAGAWA KU","town":"YANAGISHIMACHO","perfecture_jp":"愛知県","jp_add_1":"名古屋市中川区","jp_add_2":"柳島町"},"4540907":{"post_code":"4540907","prefecture":"AICHI KEN","city":"NAGOYA SHI NAKAGAWA KU","town":"YANAGIDACHO","perfecture_jp":"愛知県","jp_add_1":"名古屋市中川区","jp_add_2":"柳田町"},"4540006":{"post_code":"4540006","prefecture":"AICHI KEN","city":"NAGOYA SHI NAKAGAWA KU","town":"YANAGIBORICHO","perfecture_jp":"愛知県","jp_add_1":"名古屋市中川区","jp_add_2":"柳堀町"},"4540903":{"post_code":"4540903","prefecture":"AICHI KEN","city":"NAGOYA SHI NAKAGAWA KU","town":"YANASECHO","perfecture_jp":"愛知県","jp_add_1":"名古屋市中川区","jp_add_2":"柳瀬町"},"4540871":{"post_code":"4540871","prefecture":"AICHI KEN","city":"NAGOYA SHI NAKAGAWA KU","town":"YANAMORICHO","perfecture_jp":"愛知県","jp_add_1":"名古屋市中川区","jp_add_2":"柳森町"},"4540031":{"post_code":"4540031","prefecture":"AICHI KEN","city":"NAGOYA SHI NAKAGAWA KU","town":"YAHATAHONTORI","perfecture_jp":"愛知県","jp_add_1":"名古屋市中川区","jp_add_2":"八幡本通"},"4540915":{"post_code":"4540915","prefecture":"AICHI KEN","city":"NAGOYA SHI NAKAGAWA KU","town":"YOKOI","perfecture_jp":"愛知県","jp_add_1":"名古屋市中川区","jp_add_2":"横井"},"4540021":{"post_code":"4540021","prefecture":"AICHI KEN","city":"NAGOYA SHI NAKAGAWA KU","town":"YOKOBORICHO","perfecture_jp":"愛知県","jp_add_1":"名古屋市中川区","jp_add_2":"横堀町"},"4540917":{"post_code":"4540917","prefecture":"AICHI KEN","city":"NAGOYA SHI NAKAGAWA KU","town":"YOKOMAECHO","perfecture_jp":"愛知県","jp_add_1":"名古屋市中川区","jp_add_2":"横前町"},"4540981":{"post_code":"4540981","prefecture":"AICHI KEN","city":"NAGOYA SHI NAKAGAWA KU","town":"YOSHIZU","perfecture_jp":"愛知県","jp_add_1":"名古屋市中川区","jp_add_2":"吉津"},"4540825":{"post_code":"4540825","prefecture":"AICHI KEN","city":"NAGOYA SHI NAKAGAWA KU","town":"YOSHIMOTOCHO","perfecture_jp":"愛知県","jp_add_1":"名古屋市中川区","jp_add_2":"好本町"},"4540876":{"post_code":"4540876","prefecture":"AICHI KEN","city":"NAGOYA SHI NAKAGAWA KU","town":"WAKAYAMACHO","perfecture_jp":"愛知県","jp_add_1":"名古屋市中川区","jp_add_2":"若山町"}}