{"4550000":{"post_code":"4550000","prefecture":"AICHI KEN","city":"NAGOYA SHI MINATO KU","town":"IKANIKEISAIGANAIBAAI","perfecture_jp":"愛知県","jp_add_1":"名古屋市港区","jp_add_2":""},"4550857":{"post_code":"4550857","prefecture":"AICHI KEN","city":"NAGOYA SHI MINATO KU","town":"AKIHA","perfecture_jp":"愛知県","jp_add_1":"名古屋市港区","jp_add_2":"秋葉"},"4550035":{"post_code":"4550035","prefecture":"AICHI KEN","city":"NAGOYA SHI MINATO KU","town":"ATSUTAMAESHINDEN","perfecture_jp":"愛知県","jp_add_1":"名古屋市港区","jp_add_2":"熱田前新田"},"4550815":{"post_code":"4550815","prefecture":"AICHI KEN","city":"NAGOYA SHI MINATO KU","town":"ABURAYACHO","perfecture_jp":"愛知県","jp_add_1":"名古屋市港区","jp_add_2":"油屋町"},"4550823":{"post_code":"4550823","prefecture":"AICHI KEN","city":"NAGOYA SHI MINATO KU","town":"ISHINCHO","perfecture_jp":"愛知県","jp_add_1":"名古屋市港区","jp_add_2":"惟信町"},"4550841":{"post_code":"4550841","prefecture":"AICHI KEN","city":"NAGOYA SHI MINATO KU","town":"ISSHUCHO","perfecture_jp":"愛知県","jp_add_1":"名古屋市港区","jp_add_2":"一州町"},"4550842":{"post_code":"4550842","prefecture":"AICHI KEN","city":"NAGOYA SHI MINATO KU","town":"INAEI","perfecture_jp":"愛知県","jp_add_1":"名古屋市港区","jp_add_2":"稲永"},"4550803":{"post_code":"4550803","prefecture":"AICHI KEN","city":"NAGOYA SHI MINATO KU","town":"IRIBA","perfecture_jp":"愛知県","jp_add_1":"名古屋市港区","jp_add_2":"入場"},"4550802":{"post_code":"4550802","prefecture":"AICHI KEN","city":"NAGOYA SHI MINATO KU","town":"IRIBACHO","perfecture_jp":"愛知県","jp_add_1":"名古屋市港区","jp_add_2":"入場町"},"4550032":{"post_code":"4550032","prefecture":"AICHI KEN","city":"NAGOYA SHI MINATO KU","town":"IRIFUNE","perfecture_jp":"愛知県","jp_add_1":"名古屋市港区","jp_add_2":"入船"},"4550052":{"post_code":"4550052","prefecture":"AICHI KEN","city":"NAGOYA SHI MINATO KU","town":"IROHACHO","perfecture_jp":"愛知県","jp_add_1":"名古屋市港区","jp_add_2":"いろは町"},"4550054":{"post_code":"4550054","prefecture":"AICHI KEN","city":"NAGOYA SHI MINATO KU","town":"ENJAKUCHO","perfecture_jp":"愛知県","jp_add_1":"名古屋市港区","jp_add_2":"遠若町"},"4550801":{"post_code":"4550801","prefecture":"AICHI KEN","city":"NAGOYA SHI MINATO KU","town":"OSU","perfecture_jp":"愛知県","jp_add_1":"名古屋市港区","jp_add_2":"小碓"},"4550062":{"post_code":"4550062","prefecture":"AICHI KEN","city":"NAGOYA SHI MINATO KU","town":"OSUCHO","perfecture_jp":"愛知県","jp_add_1":"名古屋市港区","jp_add_2":"小碓町"},"4550024":{"post_code":"4550024","prefecture":"AICHI KEN","city":"NAGOYA SHI MINATO KU","town":"OECHO","perfecture_jp":"愛知県","jp_add_1":"名古屋市港区","jp_add_2":"大江町"},"4550046":{"post_code":"4550046","prefecture":"AICHI KEN","city":"NAGOYA SHI MINATO KU","town":"OTEMACHI","perfecture_jp":"愛知県","jp_add_1":"名古屋市港区","jp_add_2":"大手町"},"4550861":{"post_code":"4550861","prefecture":"AICHI KEN","city":"NAGOYA SHI MINATO KU","town":"ONISHI","perfecture_jp":"愛知県","jp_add_1":"名古屋市港区","jp_add_2":"大西"},"4550864":{"post_code":"4550864","prefecture":"AICHI KEN","city":"NAGOYA SHI MINATO KU","town":"OGAWA","perfecture_jp":"愛知県","jp_add_1":"名古屋市港区","jp_add_2":"小川"},"4550017":{"post_code":"4550017","prefecture":"AICHI KEN","city":"NAGOYA SHI MINATO KU","town":"KANEKAWACHO","perfecture_jp":"愛知県","jp_add_1":"名古屋市港区","jp_add_2":"金川町"},"4550063":{"post_code":"4550063","prefecture":"AICHI KEN","city":"NAGOYA SHI MINATO KU","town":"KANEFUNECHO","perfecture_jp":"愛知県","jp_add_1":"名古屋市港区","jp_add_2":"金船町"},"4550016":{"post_code":"4550016","prefecture":"AICHI KEN","city":"NAGOYA SHI MINATO KU","town":"KAWAKUCHICHO","perfecture_jp":"愛知県","jp_add_1":"名古屋市港区","jp_add_2":"河口町"},"4550856":{"post_code":"4550856","prefecture":"AICHI KEN","city":"NAGOYA SHI MINATO KU","town":"KAWASONO","perfecture_jp":"愛知県","jp_add_1":"名古屋市港区","jp_add_2":"川園"},"4550073":{"post_code":"4550073","prefecture":"AICHI KEN","city":"NAGOYA SHI MINATO KU","town":"KAWANISHIDORI","perfecture_jp":"愛知県","jp_add_1":"名古屋市港区","jp_add_2":"川西通"},"4550076":{"post_code":"4550076","prefecture":"AICHI KEN","city":"NAGOYA SHI MINATO KU","town":"KAWAMACHO","perfecture_jp":"愛知県","jp_add_1":"名古屋市港区","jp_add_2":"川間町"},"4550066":{"post_code":"4550066","prefecture":"AICHI KEN","city":"NAGOYA SHI MINATO KU","town":"KANSEICHO","perfecture_jp":"愛知県","jp_add_1":"名古屋市港区","jp_add_2":"寛政町"},"4550021":{"post_code":"4550021","prefecture":"AICHI KEN","city":"NAGOYA SHI MINATO KU","town":"KIBACHO","perfecture_jp":"愛知県","jp_add_1":"名古屋市港区","jp_add_2":"木場町"},"4550869":{"post_code":"4550869","prefecture":"AICHI KEN","city":"NAGOYA SHI MINATO KU","town":"KYOWA","perfecture_jp":"愛知県","jp_add_1":"名古屋市港区","jp_add_2":"協和"},"4550848":{"post_code":"4550848","prefecture":"AICHI KEN","city":"NAGOYA SHI MINATO KU","town":"KINJOFUTO","perfecture_jp":"愛知県","jp_add_1":"名古屋市港区","jp_add_2":"金城ふ頭"},"4550008":{"post_code":"4550008","prefecture":"AICHI KEN","city":"NAGOYA SHI MINATO KU","town":"KUBANCHO","perfecture_jp":"愛知県","jp_add_1":"名古屋市港区","jp_add_2":"九番町"},"4550015":{"post_code":"4550015","prefecture":"AICHI KEN","city":"NAGOYA SHI MINATO KU","town":"KOEI","perfecture_jp":"愛知県","jp_add_1":"名古屋市港区","jp_add_2":"港栄"},"4550067":{"post_code":"4550067","prefecture":"AICHI KEN","city":"NAGOYA SHI MINATO KU","town":"KOHOKUCHO","perfecture_jp":"愛知県","jp_add_1":"名古屋市港区","jp_add_2":"港北町"},"4550018":{"post_code":"4550018","prefecture":"AICHI KEN","city":"NAGOYA SHI MINATO KU","town":"KOMEI","perfecture_jp":"愛知県","jp_add_1":"名古屋市港区","jp_add_2":"港明"},"4550013":{"post_code":"4550013","prefecture":"AICHI KEN","city":"NAGOYA SHI MINATO KU","town":"KOYO","perfecture_jp":"愛知県","jp_add_1":"名古屋市港区","jp_add_2":"港陽"},"4550014":{"post_code":"4550014","prefecture":"AICHI KEN","city":"NAGOYA SHI MINATO KU","town":"KORAKU","perfecture_jp":"愛知県","jp_add_1":"名古屋市港区","jp_add_2":"港楽"},"4550882":{"post_code":"4550882","prefecture":"AICHI KEN","city":"NAGOYA SHI MINATO KU","town":"KOGASU","perfecture_jp":"愛知県","jp_add_1":"名古屋市港区","jp_add_2":"小賀須"},"4550077":{"post_code":"4550077","prefecture":"AICHI KEN","city":"NAGOYA SHI MINATO KU","town":"KOWARIDORI","perfecture_jp":"愛知県","jp_add_1":"名古屋市港区","jp_add_2":"小割通"},"4550041":{"post_code":"4550041","prefecture":"AICHI KEN","city":"NAGOYA SHI MINATO KU","town":"SAIWAICHO","perfecture_jp":"愛知県","jp_add_1":"名古屋市港区","jp_add_2":"幸町"},"4550043":{"post_code":"4550043","prefecture":"AICHI KEN","city":"NAGOYA SHI MINATO KU","town":"SAKIGAKECHO","perfecture_jp":"愛知県","jp_add_1":"名古屋市港区","jp_add_2":"魁町"},"4550012":{"post_code":"4550012","prefecture":"AICHI KEN","city":"NAGOYA SHI MINATO KU","town":"SAKURACHO","perfecture_jp":"愛知県","jp_add_1":"名古屋市港区","jp_add_2":"作倉町"},"4550042":{"post_code":"4550042","prefecture":"AICHI KEN","city":"NAGOYA SHI MINATO KU","town":"SANOMACHI","perfecture_jp":"愛知県","jp_add_1":"名古屋市港区","jp_add_2":"佐野町"},"4550846":{"post_code":"4550846","prefecture":"AICHI KEN","city":"NAGOYA SHI MINATO KU","town":"SHIOTOMECHO","perfecture_jp":"愛知県","jp_add_1":"名古屋市港区","jp_add_2":"汐止町"},"4550844":{"post_code":"4550844","prefecture":"AICHI KEN","city":"NAGOYA SHI MINATO KU","town":"SHIONAGICHO","perfecture_jp":"愛知県","jp_add_1":"名古屋市港区","jp_add_2":"潮凪町"},"4550028":{"post_code":"4550028","prefecture":"AICHI KEN","city":"NAGOYA SHI MINATO KU","town":"SHIOMICHO","perfecture_jp":"愛知県","jp_add_1":"名古屋市港区","jp_add_2":"潮見町"},"4550884":{"post_code":"4550884","prefecture":"AICHI KEN","city":"NAGOYA SHI MINATO KU","town":"SHICHITANNO","perfecture_jp":"愛知県","jp_add_1":"名古屋市港区","jp_add_2":"七反野"},"4550001":{"post_code":"4550001","prefecture":"AICHI KEN","city":"NAGOYA SHI MINATO KU","town":"SHICHIBANCHO","perfecture_jp":"愛知県","jp_add_1":"名古屋市港区","jp_add_2":"七番町"},"4550055":{"post_code":"4550055","prefecture":"AICHI KEN","city":"NAGOYA SHI MINATO KU","town":"SHINAGAWACHO","perfecture_jp":"愛知県","jp_add_1":"名古屋市港区","jp_add_2":"品川町"},"4550831":{"post_code":"4550831","prefecture":"AICHI KEN","city":"NAGOYA SHI MINATO KU","town":"JUICHIYA","perfecture_jp":"愛知県","jp_add_1":"名古屋市港区","jp_add_2":"十一屋"},"4550835":{"post_code":"4550835","prefecture":"AICHI KEN","city":"NAGOYA SHI MINATO KU","town":"JUICHIYACHO","perfecture_jp":"愛知県","jp_add_1":"名古屋市港区","jp_add_2":"十一屋町"},"4550075":{"post_code":"4550075","prefecture":"AICHI KEN","city":"NAGOYA SHI MINATO KU","town":"SHOTOKUCHO","perfecture_jp":"愛知県","jp_add_1":"名古屋市港区","jp_add_2":"正徳町"},"4550074":{"post_code":"4550074","prefecture":"AICHI KEN","city":"NAGOYA SHI MINATO KU","town":"SHOHOCHO","perfecture_jp":"愛知県","jp_add_1":"名古屋市港区","jp_add_2":"正保町"},"4550026":{"post_code":"4550026","prefecture":"AICHI KEN","city":"NAGOYA SHI MINATO KU","town":"SHOWACHO","perfecture_jp":"愛知県","jp_add_1":"名古屋市港区","jp_add_2":"昭和町"},"4550005":{"post_code":"4550005","prefecture":"AICHI KEN","city":"NAGOYA SHI MINATO KU","town":"SHINKAWACHO","perfecture_jp":"愛知県","jp_add_1":"名古屋市港区","jp_add_2":"新川町"},"4550834":{"post_code":"4550834","prefecture":"AICHI KEN","city":"NAGOYA SHI MINATO KU","town":"JINGUJI","perfecture_jp":"愛知県","jp_add_1":"名古屋市港区","jp_add_2":"神宮寺"},"4550863":{"post_code":"4550863","prefecture":"AICHI KEN","city":"NAGOYA SHI MINATO KU","town":"SHINCHAYA","perfecture_jp":"愛知県","jp_add_1":"名古屋市港区","jp_add_2":"新茶屋"},"4550071":{"post_code":"4550071","prefecture":"AICHI KEN","city":"NAGOYA SHI MINATO KU","town":"SHINFUNECHO","perfecture_jp":"愛知県","jp_add_1":"名古屋市港区","jp_add_2":"新船町"},"4550822":{"post_code":"4550822","prefecture":"AICHI KEN","city":"NAGOYA SHI MINATO KU","town":"JIMBEETORI","perfecture_jp":"愛知県","jp_add_1":"名古屋市港区","jp_add_2":"甚兵衛通"},"4550056":{"post_code":"4550056","prefecture":"AICHI KEN","city":"NAGOYA SHI MINATO KU","town":"SUNAMICHO","perfecture_jp":"愛知県","jp_add_1":"名古屋市港区","jp_add_2":"砂美町"},"4550072":{"post_code":"4550072","prefecture":"AICHI KEN","city":"NAGOYA SHI MINATO KU","town":"SUNARICHO","perfecture_jp":"愛知県","jp_add_1":"名古屋市港区","jp_add_2":"須成町"},"4550811":{"post_code":"4550811","prefecture":"AICHI KEN","city":"NAGOYA SHI MINATO KU","town":"ZENSHINCHO","perfecture_jp":"愛知県","jp_add_1":"名古屋市港区","jp_add_2":"善進町"},"4550813":{"post_code":"4550813","prefecture":"AICHI KEN","city":"NAGOYA SHI MINATO KU","town":"ZENSHINHOMMACHI","perfecture_jp":"愛知県","jp_add_1":"名古屋市港区","jp_add_2":"善進本町"},"4550881":{"post_code":"4550881","prefecture":"AICHI KEN","city":"NAGOYA SHI MINATO KU","town":"SENDOBA","perfecture_jp":"愛知県","jp_add_1":"名古屋市港区","jp_add_2":"船頭場"},"4550814":{"post_code":"4550814","prefecture":"AICHI KEN","city":"NAGOYA SHI MINATO KU","town":"ZENNANCHO","perfecture_jp":"愛知県","jp_add_1":"名古屋市港区","jp_add_2":"善南町"},"4550812":{"post_code":"4550812","prefecture":"AICHI KEN","city":"NAGOYA SHI MINATO KU","town":"ZENHOKUCHO","perfecture_jp":"愛知県","jp_add_1":"名古屋市港区","jp_add_2":"善北町"},"4550847":{"post_code":"4550847","prefecture":"AICHI KEN","city":"NAGOYA SHI MINATO KU","town":"SORAMICHO","perfecture_jp":"愛知県","jp_add_1":"名古屋市港区","jp_add_2":"空見町"},"4550069":{"post_code":"4550069","prefecture":"AICHI KEN","city":"NAGOYA SHI MINATO KU","town":"TAIMEICHO","perfecture_jp":"愛知県","jp_add_1":"名古屋市港区","jp_add_2":"泰明町"},"4550821":{"post_code":"4550821","prefecture":"AICHI KEN","city":"NAGOYA SHI MINATO KU","town":"TAKAGICHO","perfecture_jp":"愛知県","jp_add_1":"名古屋市港区","jp_add_2":"高木町"},"4550825":{"post_code":"4550825","prefecture":"AICHI KEN","city":"NAGOYA SHI MINATO KU","town":"TAKARAURACHO","perfecture_jp":"愛知県","jp_add_1":"名古屋市港区","jp_add_2":"多加良浦町"},"4550003":{"post_code":"4550003","prefecture":"AICHI KEN","city":"NAGOYA SHI MINATO KU","town":"TATSUMICHO","perfecture_jp":"愛知県","jp_add_1":"名古屋市港区","jp_add_2":"辰巳町"},"4550057":{"post_code":"4550057","prefecture":"AICHI KEN","city":"NAGOYA SHI MINATO KU","town":"CHIKUMORICHO","perfecture_jp":"愛知県","jp_add_1":"名古屋市港区","jp_add_2":"築盛町"},"4550883":{"post_code":"4550883","prefecture":"AICHI KEN","city":"NAGOYA SHI MINATO KU","town":"CHITA","perfecture_jp":"愛知県","jp_add_1":"名古屋市港区","jp_add_2":"知多"},"4550011":{"post_code":"4550011","prefecture":"AICHI KEN","city":"NAGOYA SHI MINATO KU","town":"CHITOSE","perfecture_jp":"愛知県","jp_add_1":"名古屋市港区","jp_add_2":"千年"},"4550031":{"post_code":"4550031","prefecture":"AICHI KEN","city":"NAGOYA SHI MINATO KU","town":"CHIDORI","perfecture_jp":"愛知県","jp_add_1":"名古屋市港区","jp_add_2":"千鳥"},"4550004":{"post_code":"4550004","prefecture":"AICHI KEN","city":"NAGOYA SHI MINATO KU","town":"TSUKANE","perfecture_jp":"愛知県","jp_add_1":"名古屋市港区","jp_add_2":"津金"},"4550044":{"post_code":"4550044","prefecture":"AICHI KEN","city":"NAGOYA SHI MINATO KU","town":"TSUKISANCHO","perfecture_jp":"愛知県","jp_add_1":"名古屋市港区","jp_add_2":"築三町"},"4550045":{"post_code":"4550045","prefecture":"AICHI KEN","city":"NAGOYA SHI MINATO KU","town":"TSUKIJICHO","perfecture_jp":"愛知県","jp_add_1":"名古屋市港区","jp_add_2":"築地町"},"4550875":{"post_code":"4550875","prefecture":"AICHI KEN","city":"NAGOYA SHI MINATO KU","town":"TERAMAECHO","perfecture_jp":"愛知県","jp_add_1":"名古屋市港区","jp_add_2":"寺前町"},"4550865":{"post_code":"4550865","prefecture":"AICHI KEN","city":"NAGOYA SHI MINATO KU","town":"TEMMOKUCHO","perfecture_jp":"愛知県","jp_add_1":"名古屋市港区","jp_add_2":"天目町"},"4550002":{"post_code":"4550002","prefecture":"AICHI KEN","city":"NAGOYA SHI MINATO KU","town":"TOKAIDORI","perfecture_jp":"愛知県","jp_add_1":"名古屋市港区","jp_add_2":"東海通"},"4550804":{"post_code":"4550804","prefecture":"AICHI KEN","city":"NAGOYA SHI MINATO KU","town":"TOCHI","perfecture_jp":"愛知県","jp_add_1":"名古屋市港区","jp_add_2":"当知"},"4550805":{"post_code":"4550805","prefecture":"AICHI KEN","city":"NAGOYA SHI MINATO KU","town":"TOCHICHO","perfecture_jp":"愛知県","jp_add_1":"名古屋市港区","jp_add_2":"当知町"},"4550068":{"post_code":"4550068","prefecture":"AICHI KEN","city":"NAGOYA SHI MINATO KU","town":"DONGOCHO","perfecture_jp":"愛知県","jp_add_1":"名古屋市港区","jp_add_2":"土古町"},"4550051":{"post_code":"4550051","prefecture":"AICHI KEN","city":"NAGOYA SHI MINATO KU","town":"NAKAGAWAHOMMACHI","perfecture_jp":"愛知県","jp_add_1":"名古屋市港区","jp_add_2":"中川本町"},"4550047":{"post_code":"4550047","prefecture":"AICHI KEN","city":"NAGOYA SHI MINATO KU","town":"NAKANOJIMATORI","perfecture_jp":"愛知県","jp_add_1":"名古屋市港区","jp_add_2":"中之島通"},"4550852":{"post_code":"4550852","prefecture":"AICHI KEN","city":"NAGOYA SHI MINATO KU","town":"NANASHIMA","perfecture_jp":"愛知県","jp_add_1":"名古屋市港区","jp_add_2":"七島"},"4550862":{"post_code":"4550862","prefecture":"AICHI KEN","city":"NAGOYA SHI MINATO KU","town":"NANYOCHO CHAYASHINDEN","perfecture_jp":"愛知県","jp_add_1":"名古屋市港区","jp_add_2":"南陽町茶屋新田"},"4550866":{"post_code":"4550866","prefecture":"AICHI KEN","city":"NAGOYA SHI MINATO KU","town":"NANYOCHO CHAYANOCHISHINDEN","perfecture_jp":"愛知県","jp_add_1":"名古屋市港区","jp_add_2":"南陽町茶屋後新田"},"4550853":{"post_code":"4550853","prefecture":"AICHI KEN","city":"NAGOYA SHI MINATO KU","town":"NANYOCHO NANASHIMASHINDEN","perfecture_jp":"愛知県","jp_add_1":"名古屋市港区","jp_add_2":"南陽町七島新田"},"4550868":{"post_code":"4550868","prefecture":"AICHI KEN","city":"NAGOYA SHI MINATO KU","town":"NANYOCHO NISHIFUKUTA","perfecture_jp":"愛知県","jp_add_1":"名古屋市港区","jp_add_2":"南陽町西福田"},"4550871":{"post_code":"4550871","prefecture":"AICHI KEN","city":"NAGOYA SHI MINATO KU","town":"NANYOCHO FUKUTA","perfecture_jp":"愛知県","jp_add_1":"名古屋市港区","jp_add_2":"南陽町福田"},"4550867":{"post_code":"4550867","prefecture":"AICHI KEN","city":"NAGOYA SHI MINATO KU","town":"NANYOCHO FUKUDAMAESHINDEN","perfecture_jp":"愛知県","jp_add_1":"名古屋市港区","jp_add_2":"南陽町福田前新田"},"4550872":{"post_code":"4550872","prefecture":"AICHI KEN","city":"NAGOYA SHI MINATO KU","town":"NISHIKANITA","perfecture_jp":"愛知県","jp_add_1":"名古屋市港区","jp_add_2":"西蟹田"},"4550824":{"post_code":"4550824","prefecture":"AICHI KEN","city":"NAGOYA SHI MINATO KU","town":"NISHIKAWACHO","perfecture_jp":"愛知県","jp_add_1":"名古屋市港区","jp_add_2":"西川町"},"4550843":{"post_code":"4550843","prefecture":"AICHI KEN","city":"NAGOYA SHI MINATO KU","town":"NISHIKIMACHI","perfecture_jp":"愛知県","jp_add_1":"名古屋市港区","jp_add_2":"錦町"},"4550034":{"post_code":"4550034","prefecture":"AICHI KEN","city":"NAGOYA SHI MINATO KU","town":"NISHIKURACHO","perfecture_jp":"愛知県","jp_add_1":"名古屋市港区","jp_add_2":"西倉町"},"4550858":{"post_code":"4550858","prefecture":"AICHI KEN","city":"NAGOYA SHI MINATO KU","town":"NISHICHAYA","perfecture_jp":"愛知県","jp_add_1":"名古屋市港区","jp_add_2":"西茶屋"},"4550874":{"post_code":"4550874","prefecture":"AICHI KEN","city":"NAGOYA SHI MINATO KU","town":"NISHIFUKUTA","perfecture_jp":"愛知県","jp_add_1":"名古屋市港区","jp_add_2":"西福田"},"4550845":{"post_code":"4550845","prefecture":"AICHI KEN","city":"NAGOYA SHI MINATO KU","town":"NOSEKI","perfecture_jp":"愛知県","jp_add_1":"名古屋市港区","jp_add_2":"野跡"},"4550879":{"post_code":"4550879","prefecture":"AICHI KEN","city":"NAGOYA SHI MINATO KU","town":"HATANAKA","perfecture_jp":"愛知県","jp_add_1":"名古屋市港区","jp_add_2":"畑中"},"4550885":{"post_code":"4550885","prefecture":"AICHI KEN","city":"NAGOYA SHI MINATO KU","town":"HAPPYAKUJIMA","perfecture_jp":"愛知県","jp_add_1":"名古屋市港区","jp_add_2":"八百島"},"4550036":{"post_code":"4550036","prefecture":"AICHI KEN","city":"NAGOYA SHI MINATO KU","town":"HAMA","perfecture_jp":"愛知県","jp_add_1":"名古屋市港区","jp_add_2":"浜"},"4550873":{"post_code":"4550873","prefecture":"AICHI KEN","city":"NAGOYA SHI MINATO KU","town":"HARUTANO","perfecture_jp":"愛知県","jp_add_1":"名古屋市港区","jp_add_2":"春田野"},"4550886":{"post_code":"4550886","prefecture":"AICHI KEN","city":"NAGOYA SHI MINATO KU","town":"HIGASHIKANITA","perfecture_jp":"愛知県","jp_add_1":"名古屋市港区","jp_add_2":"東蟹田"},"4550851":{"post_code":"4550851","prefecture":"AICHI KEN","city":"NAGOYA SHI MINATO KU","town":"HIGASHICHAYA","perfecture_jp":"愛知県","jp_add_1":"名古屋市港区","jp_add_2":"東茶屋"},"4550023":{"post_code":"4550023","prefecture":"AICHI KEN","city":"NAGOYA SHI MINATO KU","town":"HIGASHITSUKIJICHO","perfecture_jp":"愛知県","jp_add_1":"名古屋市港区","jp_add_2":"東築地町"},"4550061":{"post_code":"4550061","prefecture":"AICHI KEN","city":"NAGOYA SHI MINATO KU","town":"HIGASHIDONGOCHO","perfecture_jp":"愛知県","jp_add_1":"名古屋市港区","jp_add_2":"東土古町"},"4550887":{"post_code":"4550887","prefecture":"AICHI KEN","city":"NAGOYA SHI MINATO KU","town":"FUKUTA","perfecture_jp":"愛知県","jp_add_1":"名古屋市港区","jp_add_2":"福田"},"4550878":{"post_code":"4550878","prefecture":"AICHI KEN","city":"NAGOYA SHI MINATO KU","town":"FUKUMAE","perfecture_jp":"愛知県","jp_add_1":"名古屋市港区","jp_add_2":"福前"},"4550876":{"post_code":"4550876","prefecture":"AICHI KEN","city":"NAGOYA SHI MINATO KU","town":"FUKUYA","perfecture_jp":"愛知県","jp_add_1":"名古屋市港区","jp_add_2":"福屋"},"4550854":{"post_code":"4550854","prefecture":"AICHI KEN","city":"NAGOYA SHI MINATO KU","town":"FUJITAKA","perfecture_jp":"愛知県","jp_add_1":"名古屋市港区","jp_add_2":"藤高"},"4550855":{"post_code":"4550855","prefecture":"AICHI KEN","city":"NAGOYA SHI MINATO KU","town":"FUJIMAE","perfecture_jp":"愛知県","jp_add_1":"名古屋市港区","jp_add_2":"藤前"},"4550027":{"post_code":"4550027","prefecture":"AICHI KEN","city":"NAGOYA SHI MINATO KU","town":"FUNAMICHO","perfecture_jp":"愛知県","jp_add_1":"名古屋市港区","jp_add_2":"船見町"},"4550832":{"post_code":"4550832","prefecture":"AICHI KEN","city":"NAGOYA SHI MINATO KU","town":"HOJIN","perfecture_jp":"愛知県","jp_add_1":"名古屋市港区","jp_add_2":"宝神"},"4550833":{"post_code":"4550833","prefecture":"AICHI KEN","city":"NAGOYA SHI MINATO KU","town":"HOJINCHO","perfecture_jp":"愛知県","jp_add_1":"名古屋市港区","jp_add_2":"宝神町"},"4550065":{"post_code":"4550065","prefecture":"AICHI KEN","city":"NAGOYA SHI MINATO KU","town":"HONGUSHIMMACHI","perfecture_jp":"愛知県","jp_add_1":"名古屋市港区","jp_add_2":"本宮新町"},"4550064":{"post_code":"4550064","prefecture":"AICHI KEN","city":"NAGOYA SHI MINATO KU","town":"HONGUCHO","perfecture_jp":"愛知県","jp_add_1":"名古屋市港区","jp_add_2":"本宮町"},"4550078":{"post_code":"4550078","prefecture":"AICHI KEN","city":"NAGOYA SHI MINATO KU","town":"MARUIKECHO","perfecture_jp":"愛知県","jp_add_1":"名古屋市港区","jp_add_2":"丸池町"},"4550033":{"post_code":"4550033","prefecture":"AICHI KEN","city":"NAGOYA SHI MINATO KU","town":"MINATOMACHI","perfecture_jp":"愛知県","jp_add_1":"名古屋市港区","jp_add_2":"港町"},"4550007":{"post_code":"4550007","prefecture":"AICHI KEN","city":"NAGOYA SHI MINATO KU","town":"MINAMI10-BANCHO","perfecture_jp":"愛知県","jp_add_1":"名古屋市港区","jp_add_2":"南十番町"},"4550006":{"post_code":"4550006","prefecture":"AICHI KEN","city":"NAGOYA SHI MINATO KU","town":"MINAMI11-BANCHO","perfecture_jp":"愛知県","jp_add_1":"名古屋市港区","jp_add_2":"南十一番町"},"4550037":{"post_code":"4550037","prefecture":"AICHI KEN","city":"NAGOYA SHI MINATO KU","town":"MEIKO","perfecture_jp":"愛知県","jp_add_1":"名古屋市港区","jp_add_2":"名港"},"4550053":{"post_code":"4550053","prefecture":"AICHI KEN","city":"NAGOYA SHI MINATO KU","town":"MEISHICHO","perfecture_jp":"愛知県","jp_add_1":"名古屋市港区","jp_add_2":"名四町"},"4550806":{"post_code":"4550806","prefecture":"AICHI KEN","city":"NAGOYA SHI MINATO KU","town":"MEISHO","perfecture_jp":"愛知県","jp_add_1":"名古屋市港区","jp_add_2":"明正"},"4550025":{"post_code":"4550025","prefecture":"AICHI KEN","city":"NAGOYA SHI MINATO KU","town":"MOTOHOSHIZAKICHO","perfecture_jp":"愛知県","jp_add_1":"名古屋市港区","jp_add_2":"本星崎町"},"4550022":{"post_code":"4550022","prefecture":"AICHI KEN","city":"NAGOYA SHI MINATO KU","town":"RYUGUCHO","perfecture_jp":"愛知県","jp_add_1":"名古屋市港区","jp_add_2":"竜宮町"},"4550877":{"post_code":"4550877","prefecture":"AICHI KEN","city":"NAGOYA SHI MINATO KU","town":"ROKKENYA","perfecture_jp":"愛知県","jp_add_1":"名古屋市港区","jp_add_2":"六軒家"}}