{"4560000":{"post_code":"4560000","prefecture":"AICHI KEN","city":"NAGOYA SHI ATSUTA KU","town":"IKANIKEISAIGANAIBAAI","perfecture_jp":"愛知県","jp_add_1":"名古屋市熱田区","jp_add_2":""},"4560075":{"post_code":"4560075","prefecture":"AICHI KEN","city":"NAGOYA SHI ATSUTA KU","town":"AOIKECHO","perfecture_jp":"愛知県","jp_add_1":"名古屋市熱田区","jp_add_2":"青池町"},"4560071":{"post_code":"4560071","prefecture":"AICHI KEN","city":"NAGOYA SHI ATSUTA KU","town":"AKENOCHO","perfecture_jp":"愛知県","jp_add_1":"名古屋市熱田区","jp_add_2":"明野町"},"4560037":{"post_code":"4560037","prefecture":"AICHI KEN","city":"NAGOYA SHI ATSUTA KU","town":"ATSUTA SHINDENHIGASHIGUMI","perfecture_jp":"愛知県","jp_add_1":"名古屋市熱田区","jp_add_2":"熱田新田東組"},"4560036":{"post_code":"4560036","prefecture":"AICHI KEN","city":"NAGOYA SHI ATSUTA KU","town":"ATSUTA NISHIMACHI","perfecture_jp":"愛知県","jp_add_1":"名古屋市熱田区","jp_add_2":"熱田西町"},"4560005":{"post_code":"4560005","prefecture":"AICHI KEN","city":"NAGOYA SHI ATSUTA KU","town":"IKEUCHICHO","perfecture_jp":"愛知県","jp_add_1":"名古屋市熱田区","jp_add_2":"池内町"},"4560053":{"post_code":"4560053","prefecture":"AICHI KEN","city":"NAGOYA SHI ATSUTA KU","town":"ICHIBAN","perfecture_jp":"愛知県","jp_add_1":"名古屋市熱田区","jp_add_2":"一番"},"4560044":{"post_code":"4560044","prefecture":"AICHI KEN","city":"NAGOYA SHI ATSUTA KU","town":"UCHIDACHO","perfecture_jp":"愛知県","jp_add_1":"名古屋市熱田区","jp_add_2":"内田町"},"4560045":{"post_code":"4560045","prefecture":"AICHI KEN","city":"NAGOYA SHI ATSUTA KU","town":"OSEKOCHO","perfecture_jp":"愛知県","jp_add_1":"名古屋市熱田区","jp_add_2":"大瀬子町"},"4560017":{"post_code":"4560017","prefecture":"AICHI KEN","city":"NAGOYA SHI ATSUTA KU","town":"OTOCHO","perfecture_jp":"愛知県","jp_add_1":"名古屋市熱田区","jp_add_2":"尾頭町"},"4560001":{"post_code":"4560001","prefecture":"AICHI KEN","city":"NAGOYA SHI ATSUTA KU","town":"KANAYAMA","perfecture_jp":"愛知県","jp_add_1":"名古屋市熱田区","jp_add_2":"金山"},"4560002":{"post_code":"4560002","prefecture":"AICHI KEN","city":"NAGOYA SHI ATSUTA KU","town":"KANAYAMACHO","perfecture_jp":"愛知県","jp_add_1":"名古屋市熱田区","jp_add_2":"金山町"},"4560065":{"post_code":"4560065","prefecture":"AICHI KEN","city":"NAGOYA SHI ATSUTA KU","town":"KAWADACHO","perfecture_jp":"愛知県","jp_add_1":"名古屋市熱田区","jp_add_2":"河田町"},"4560072":{"post_code":"4560072","prefecture":"AICHI KEN","city":"NAGOYA SHI ATSUTA KU","town":"KAWANAMICHO","perfecture_jp":"愛知県","jp_add_1":"名古屋市熱田区","jp_add_2":"川並町"},"4560046":{"post_code":"4560046","prefecture":"AICHI KEN","city":"NAGOYA SHI ATSUTA KU","town":"KINOMECHO","perfecture_jp":"愛知県","jp_add_1":"名古屋市熱田区","jp_add_2":"木之免町"},"4560076":{"post_code":"4560076","prefecture":"AICHI KEN","city":"NAGOYA SHI ATSUTA KU","town":"KIRETOCHO","perfecture_jp":"愛知県","jp_add_1":"名古屋市熱田区","jp_add_2":"切戸町"},"4560043":{"post_code":"4560043","prefecture":"AICHI KEN","city":"NAGOYA SHI ATSUTA KU","town":"GODOCHO","perfecture_jp":"愛知県","jp_add_1":"名古屋市熱田区","jp_add_2":"神戸町"},"4560064":{"post_code":"4560064","prefecture":"AICHI KEN","city":"NAGOYA SHI ATSUTA KU","town":"KOSHINCHO","perfecture_jp":"愛知県","jp_add_1":"名古屋市熱田区","jp_add_2":"古新町"},"4560057":{"post_code":"4560057","prefecture":"AICHI KEN","city":"NAGOYA SHI ATSUTA KU","town":"GOBANCHO","perfecture_jp":"愛知県","jp_add_1":"名古屋市熱田区","jp_add_2":"五番町"},"4560016":{"post_code":"4560016","prefecture":"AICHI KEN","city":"NAGOYA SHI ATSUTA KU","town":"GOHOMMATSUCHO","perfecture_jp":"愛知県","jp_add_1":"名古屋市熱田区","jp_add_2":"五本松町"},"4560061":{"post_code":"4560061","prefecture":"AICHI KEN","city":"NAGOYA SHI ATSUTA KU","town":"SAIKOTORI","perfecture_jp":"愛知県","jp_add_1":"名古屋市熱田区","jp_add_2":"西郊通"},"4560004":{"post_code":"4560004","prefecture":"AICHI KEN","city":"NAGOYA SHI ATSUTA KU","town":"SAKURADACHO","perfecture_jp":"愛知県","jp_add_1":"名古屋市熱田区","jp_add_2":"桜田町"},"4560012":{"post_code":"4560012","prefecture":"AICHI KEN","city":"NAGOYA SHI ATSUTA KU","town":"SAWAKAMI","perfecture_jp":"愛知県","jp_add_1":"名古屋市熱田区","jp_add_2":"沢上"},"4560006":{"post_code":"4560006","prefecture":"AICHI KEN","city":"NAGOYA SHI ATSUTA KU","town":"SAWASHITACHO","perfecture_jp":"愛知県","jp_add_1":"名古屋市熱田区","jp_add_2":"沢下町"},"4560056":{"post_code":"4560056","prefecture":"AICHI KEN","city":"NAGOYA SHI ATSUTA KU","town":"SAMBANCHO","perfecture_jp":"愛知県","jp_add_1":"名古屋市熱田区","jp_add_2":"三番町"},"4560032":{"post_code":"4560032","prefecture":"AICHI KEN","city":"NAGOYA SHI ATSUTA KU","town":"SAMBOMMATSUCHO","perfecture_jp":"愛知県","jp_add_1":"名古屋市熱田区","jp_add_2":"三本松町"},"4560035":{"post_code":"4560035","prefecture":"AICHI KEN","city":"NAGOYA SHI ATSUTA KU","town":"SHIROTORI","perfecture_jp":"愛知県","jp_add_1":"名古屋市熱田区","jp_add_2":"白鳥"},"4560048":{"post_code":"4560048","prefecture":"AICHI KEN","city":"NAGOYA SHI ATSUTA KU","town":"SHIROTORICHO","perfecture_jp":"愛知県","jp_add_1":"名古屋市熱田区","jp_add_2":"白鳥町"},"4560018":{"post_code":"4560018","prefecture":"AICHI KEN","city":"NAGOYA SHI ATSUTA KU","town":"SHINOTO","perfecture_jp":"愛知県","jp_add_1":"名古屋市熱田区","jp_add_2":"新尾頭"},"4560031":{"post_code":"4560031","prefecture":"AICHI KEN","city":"NAGOYA SHI ATSUTA KU","town":"JINGU","perfecture_jp":"愛知県","jp_add_1":"名古屋市熱田区","jp_add_2":"神宮"},"4560068":{"post_code":"4560068","prefecture":"AICHI KEN","city":"NAGOYA SHI ATSUTA KU","town":"JINNOCHO","perfecture_jp":"愛知県","jp_add_1":"名古屋市熱田区","jp_add_2":"神野町"},"4560042":{"post_code":"4560042","prefecture":"AICHI KEN","city":"NAGOYA SHI ATSUTA KU","town":"SUKACHO","perfecture_jp":"愛知県","jp_add_1":"名古屋市熱田区","jp_add_2":"須賀町"},"4560013":{"post_code":"4560013","prefecture":"AICHI KEN","city":"NAGOYA SHI ATSUTA KU","town":"SOTODOICHO","perfecture_jp":"愛知県","jp_add_1":"名古屋市熱田区","jp_add_2":"外土居町"},"4560062":{"post_code":"4560062","prefecture":"AICHI KEN","city":"NAGOYA SHI ATSUTA KU","town":"TAIHO","perfecture_jp":"愛知県","jp_add_1":"名古屋市熱田区","jp_add_2":"大宝"},"4560015":{"post_code":"4560015","prefecture":"AICHI KEN","city":"NAGOYA SHI ATSUTA KU","town":"TAKAKURACHO","perfecture_jp":"愛知県","jp_add_1":"名古屋市熱田区","jp_add_2":"高蔵町"},"4560047":{"post_code":"4560047","prefecture":"AICHI KEN","city":"NAGOYA SHI ATSUTA KU","town":"TANAKACHO","perfecture_jp":"愛知県","jp_add_1":"名古屋市熱田区","jp_add_2":"田中町"},"4560025":{"post_code":"4560025","prefecture":"AICHI KEN","city":"NAGOYA SHI ATSUTA KU","town":"TAMANOICHO","perfecture_jp":"愛知県","jp_add_1":"名古屋市熱田区","jp_add_2":"玉の井町"},"4560054":{"post_code":"4560054","prefecture":"AICHI KEN","city":"NAGOYA SHI ATSUTA KU","town":"CHITOSE","perfecture_jp":"愛知県","jp_add_1":"名古屋市熱田区","jp_add_2":"千年"},"4560073":{"post_code":"4560073","prefecture":"AICHI KEN","city":"NAGOYA SHI ATSUTA KU","town":"CHIYODACHO","perfecture_jp":"愛知県","jp_add_1":"名古屋市熱田区","jp_add_2":"千代田町"},"4560034":{"post_code":"4560034","prefecture":"AICHI KEN","city":"NAGOYA SHI ATSUTA KU","town":"TEMMA","perfecture_jp":"愛知県","jp_add_1":"名古屋市熱田区","jp_add_2":"伝馬"},"4560041":{"post_code":"4560041","prefecture":"AICHI KEN","city":"NAGOYA SHI ATSUTA KU","town":"NAKASECHO","perfecture_jp":"愛知県","jp_add_1":"名古屋市熱田区","jp_add_2":"中瀬町"},"4560014":{"post_code":"4560014","prefecture":"AICHI KEN","city":"NAGOYA SHI ATSUTA KU","town":"NAKATACHO","perfecture_jp":"愛知県","jp_add_1":"名古屋市熱田区","jp_add_2":"中田町"},"4560067":{"post_code":"4560067","prefecture":"AICHI KEN","city":"NAGOYA SHI ATSUTA KU","town":"NAKADECHO","perfecture_jp":"愛知県","jp_add_1":"名古屋市熱田区","jp_add_2":"中出町"},"4560069":{"post_code":"4560069","prefecture":"AICHI KEN","city":"NAGOYA SHI ATSUTA KU","town":"NAKANOSHINCHO","perfecture_jp":"愛知県","jp_add_1":"名古屋市熱田区","jp_add_2":"中野新町"},"4560003":{"post_code":"4560003","prefecture":"AICHI KEN","city":"NAGOYA SHI ATSUTA KU","town":"NAMIYOSECHO","perfecture_jp":"愛知県","jp_add_1":"名古屋市熱田区","jp_add_2":"波寄町"},"4560063":{"post_code":"4560063","prefecture":"AICHI KEN","city":"NAGOYA SHI ATSUTA KU","town":"NISHINOCHO","perfecture_jp":"愛知県","jp_add_1":"名古屋市熱田区","jp_add_2":"西野町"},"4560052":{"post_code":"4560052","prefecture":"AICHI KEN","city":"NAGOYA SHI ATSUTA KU","town":"NIBAN","perfecture_jp":"愛知県","jp_add_1":"名古屋市熱田区","jp_add_2":"二番"},"4560066":{"post_code":"4560066","prefecture":"AICHI KEN","city":"NAGOYA SHI ATSUTA KU","town":"NODATECHO","perfecture_jp":"愛知県","jp_add_1":"名古屋市熱田区","jp_add_2":"野立町"},"4560077":{"post_code":"4560077","prefecture":"AICHI KEN","city":"NAGOYA SHI ATSUTA KU","town":"HATANOCHO","perfecture_jp":"愛知県","jp_add_1":"名古屋市熱田区","jp_add_2":"幡野町"},"4560027":{"post_code":"4560027","prefecture":"AICHI KEN","city":"NAGOYA SHI ATSUTA KU","town":"HATAYA","perfecture_jp":"愛知県","jp_add_1":"名古屋市熱田区","jp_add_2":"旗屋"},"4560026":{"post_code":"4560026","prefecture":"AICHI KEN","city":"NAGOYA SHI ATSUTA KU","town":"HATAYACHO","perfecture_jp":"愛知県","jp_add_1":"名古屋市熱田区","jp_add_2":"旗屋町"},"4560059":{"post_code":"4560059","prefecture":"AICHI KEN","city":"NAGOYA SHI ATSUTA KU","town":"HACHIBAN","perfecture_jp":"愛知県","jp_add_1":"名古屋市熱田区","jp_add_2":"八番"},"4560033":{"post_code":"4560033","prefecture":"AICHI KEN","city":"NAGOYA SHI ATSUTA KU","town":"HANAOMOTECHO","perfecture_jp":"愛知県","jp_add_1":"名古屋市熱田区","jp_add_2":"花表町"},"4560011":{"post_code":"4560011","prefecture":"AICHI KEN","city":"NAGOYA SHI ATSUTA KU","town":"HANACHO","perfecture_jp":"愛知県","jp_add_1":"名古屋市熱田区","jp_add_2":"花町"},"4560074":{"post_code":"4560074","prefecture":"AICHI KEN","city":"NAGOYA SHI ATSUTA KU","town":"HIBINOCHO","perfecture_jp":"愛知県","jp_add_1":"名古屋市熱田区","jp_add_2":"比々野町"},"4560055":{"post_code":"4560055","prefecture":"AICHI KEN","city":"NAGOYA SHI ATSUTA KU","town":"MINAMIICHIBANCHO","perfecture_jp":"愛知県","jp_add_1":"名古屋市熱田区","jp_add_2":"南一番町"},"4560078":{"post_code":"4560078","prefecture":"AICHI KEN","city":"NAGOYA SHI ATSUTA KU","town":"MINAMIYAGUMACHO","perfecture_jp":"愛知県","jp_add_1":"名古屋市熱田区","jp_add_2":"南八熊町"},"4560023":{"post_code":"4560023","prefecture":"AICHI KEN","city":"NAGOYA SHI ATSUTA KU","town":"MUTSUNO","perfecture_jp":"愛知県","jp_add_1":"名古屋市熱田区","jp_add_2":"六野"},"4560024":{"post_code":"4560024","prefecture":"AICHI KEN","city":"NAGOYA SHI ATSUTA KU","town":"MORIGOCHO","perfecture_jp":"愛知県","jp_add_1":"名古屋市熱田区","jp_add_2":"森後町"},"4560022":{"post_code":"4560022","prefecture":"AICHI KEN","city":"NAGOYA SHI ATSUTA KU","town":"YOKOTA","perfecture_jp":"愛知県","jp_add_1":"名古屋市熱田区","jp_add_2":"横田"},"4560021":{"post_code":"4560021","prefecture":"AICHI KEN","city":"NAGOYA SHI ATSUTA KU","town":"YOSAMUCHO","perfecture_jp":"愛知県","jp_add_1":"名古屋市熱田区","jp_add_2":"夜寒町"},"4560051":{"post_code":"4560051","prefecture":"AICHI KEN","city":"NAGOYA SHI ATSUTA KU","town":"YOMBAN","perfecture_jp":"愛知県","jp_add_1":"名古屋市熱田区","jp_add_2":"四番"},"4560058":{"post_code":"4560058","prefecture":"AICHI KEN","city":"NAGOYA SHI ATSUTA KU","town":"ROKUBAN","perfecture_jp":"愛知県","jp_add_1":"名古屋市熱田区","jp_add_2":"六番"}}