{"4580000":{"post_code":"4580000","prefecture":"AICHI KEN","city":"NAGOYA SHI MIDORI KU","town":"IKANIKEISAIGANAIBAAI","perfecture_jp":"愛知県","jp_add_1":"名古屋市緑区","jp_add_2":""},"4580011":{"post_code":"4580011","prefecture":"AICHI KEN","city":"NAGOYA SHI MIDORI KU","town":"AIKAWA","perfecture_jp":"愛知県","jp_add_1":"名古屋市緑区","jp_add_2":"相川"},"4580033":{"post_code":"4580033","prefecture":"AICHI KEN","city":"NAGOYA SHI MIDORI KU","town":"AIBARAGO","perfecture_jp":"愛知県","jp_add_1":"名古屋市緑区","jp_add_2":"相原郷"},"4580833":{"post_code":"4580833","prefecture":"AICHI KEN","city":"NAGOYA SHI MIDORI KU","town":"AOYAMA","perfecture_jp":"愛知県","jp_add_1":"名古屋市緑区","jp_add_2":"青山"},"4580837":{"post_code":"4580837","prefecture":"AICHI KEN","city":"NAGOYA SHI MIDORI KU","town":"AKAMATSU","perfecture_jp":"愛知県","jp_add_1":"名古屋市緑区","jp_add_2":"赤松"},"4580031":{"post_code":"4580031","prefecture":"AICHI KEN","city":"NAGOYA SHI MIDORI KU","town":"ASAHIDE","perfecture_jp":"愛知県","jp_add_1":"名古屋市緑区","jp_add_2":"旭出"},"4580924":{"post_code":"4580924","prefecture":"AICHI KEN","city":"NAGOYA SHI MIDORI KU","town":"ARIMATSU","perfecture_jp":"愛知県","jp_add_1":"名古屋市緑区","jp_add_2":"有松"},"4580903":{"post_code":"4580903","prefecture":"AICHI KEN","city":"NAGOYA SHI MIDORI KU","town":"ARIMATSUATAGO","perfecture_jp":"愛知県","jp_add_1":"名古屋市緑区","jp_add_2":"有松愛宕"},"4580902":{"post_code":"4580902","prefecture":"AICHI KEN","city":"NAGOYA SHI MIDORI KU","town":"ARIMATSUSANCHOYAMA","perfecture_jp":"愛知県","jp_add_1":"名古屋市緑区","jp_add_2":"有松三丁山"},"4580901":{"post_code":"4580901","prefecture":"AICHI KEN","city":"NAGOYA SHI MIDORI KU","town":"ARIMATSUCHOARIMATSU","perfecture_jp":"愛知県","jp_add_1":"名古屋市緑区","jp_add_2":"有松町有松"},"4580916":{"post_code":"4580916","prefecture":"AICHI KEN","city":"NAGOYA SHI MIDORI KU","town":"ARIMATSUCHOOKEHAZAMA(ATAGONISHI)","perfecture_jp":"愛知県","jp_add_1":"名古屋市緑区","jp_add_2":"有松町桶狭間"},"4580912":{"post_code":"4580912","prefecture":"AICHI KEN","city":"NAGOYA SHI MIDORI KU","town":"ARIMATSUCHOOKEHAZAMA(HAEYAMA)","perfecture_jp":"愛知県","jp_add_1":"名古屋市緑区","jp_add_2":"有松町桶狭間"},"4580911":{"post_code":"4580911","prefecture":"AICHI KEN","city":"NAGOYA SHI MIDORI KU","town":"ARIMATSUCHOOKEHAZAMA(SONOTA)","perfecture_jp":"愛知県","jp_add_1":"名古屋市緑区","jp_add_2":"有松町桶狭間"},"4580044":{"post_code":"4580044","prefecture":"AICHI KEN","city":"NAGOYA SHI MIDORI KU","town":"IKEGAMIDAI","perfecture_jp":"愛知県","jp_add_1":"名古屋市緑区","jp_add_2":"池上台"},"4580830":{"post_code":"4580830","prefecture":"AICHI KEN","city":"NAGOYA SHI MIDORI KU","town":"UBAKOYAMA","perfecture_jp":"愛知県","jp_add_1":"名古屋市緑区","jp_add_2":"姥子山"},"4580001":{"post_code":"4580001","prefecture":"AICHI KEN","city":"NAGOYA SHI MIDORI KU","town":"UMESATO","perfecture_jp":"愛知県","jp_add_1":"名古屋市緑区","jp_add_2":"梅里"},"4580847":{"post_code":"4580847","prefecture":"AICHI KEN","city":"NAGOYA SHI MIDORI KU","town":"URASATO","perfecture_jp":"愛知県","jp_add_1":"名古屋市緑区","jp_add_2":"浦里"},"4580832":{"post_code":"4580832","prefecture":"AICHI KEN","city":"NAGOYA SHI MIDORI KU","town":"URUSHIYAMA","perfecture_jp":"愛知県","jp_add_1":"名古屋市緑区","jp_add_2":"漆山"},"4580032":{"post_code":"4580032","prefecture":"AICHI KEN","city":"NAGOYA SHI MIDORI KU","town":"OGATAYAMA","perfecture_jp":"愛知県","jp_add_1":"名古屋市緑区","jp_add_2":"大形山"},"4580805":{"post_code":"4580805","prefecture":"AICHI KEN","city":"NAGOYA SHI MIDORI KU","town":"OSHIMIZU","perfecture_jp":"愛知県","jp_add_1":"名古屋市緑区","jp_add_2":"大清水"},"4580806":{"post_code":"4580806","prefecture":"AICHI KEN","city":"NAGOYA SHI MIDORI KU","town":"OSHIMIZUNISHI","perfecture_jp":"愛知県","jp_add_1":"名古屋市緑区","jp_add_2":"大清水西"},"4580849":{"post_code":"4580849","prefecture":"AICHI KEN","city":"NAGOYA SHI MIDORI KU","town":"OSHIMIZUHIGASHI","perfecture_jp":"愛知県","jp_add_1":"名古屋市緑区","jp_add_2":"大清水東"},"4580925":{"post_code":"4580925","prefecture":"AICHI KEN","city":"NAGOYA SHI MIDORI KU","town":"OKEHAZAMA","perfecture_jp":"愛知県","jp_add_1":"名古屋市緑区","jp_add_2":"桶狭間"},"4580926":{"post_code":"4580926","prefecture":"AICHI KEN","city":"NAGOYA SHI MIDORI KU","town":"OKEHAZAMAUENOYAMA","perfecture_jp":"愛知県","jp_add_1":"名古屋市緑区","jp_add_2":"桶狭間上の山"},"4580913":{"post_code":"4580913","prefecture":"AICHI KEN","city":"NAGOYA SHI MIDORI KU","town":"OKEHAZAMAKITA","perfecture_jp":"愛知県","jp_add_1":"名古屋市緑区","jp_add_2":"桶狭間北"},"4580922":{"post_code":"4580922","prefecture":"AICHI KEN","city":"NAGOYA SHI MIDORI KU","town":"OKEHAZAMAKIRITO","perfecture_jp":"愛知県","jp_add_1":"名古屋市緑区","jp_add_2":"桶狭間切戸"},"4580921":{"post_code":"4580921","prefecture":"AICHI KEN","city":"NAGOYA SHI MIDORI KU","town":"OKEHAZAMASHIMIZUYAMA","perfecture_jp":"愛知県","jp_add_1":"名古屋市緑区","jp_add_2":"桶狭間清水山"},"4580919":{"post_code":"4580919","prefecture":"AICHI KEN","city":"NAGOYA SHI MIDORI KU","town":"OKEHAZAMASHIMMEI","perfecture_jp":"愛知県","jp_add_1":"名古屋市緑区","jp_add_2":"桶狭間神明"},"4580927":{"post_code":"4580927","prefecture":"AICHI KEN","city":"NAGOYA SHI MIDORI KU","town":"OKEHAZAMAMINAMI","perfecture_jp":"愛知県","jp_add_1":"名古屋市緑区","jp_add_2":"桶狭間南"},"4580910":{"post_code":"4580910","prefecture":"AICHI KEN","city":"NAGOYA SHI MIDORI KU","town":"OKEHAZAMAMORIMAE","perfecture_jp":"愛知県","jp_add_1":"名古屋市緑区","jp_add_2":"桶狭間森前"},"4580024":{"post_code":"4580024","prefecture":"AICHI KEN","city":"NAGOYA SHI MIDORI KU","town":"OZAKIYAMA","perfecture_jp":"愛知県","jp_add_1":"名古屋市緑区","jp_add_2":"尾崎山"},"4580803":{"post_code":"4580803","prefecture":"AICHI KEN","city":"NAGOYA SHI MIDORI KU","town":"KAGAMIDA","perfecture_jp":"愛知県","jp_add_1":"名古屋市緑区","jp_add_2":"鏡田"},"4580007":{"post_code":"4580007","prefecture":"AICHI KEN","city":"NAGOYA SHI MIDORI KU","town":"KAGOYAMA","perfecture_jp":"愛知県","jp_add_1":"名古屋市緑区","jp_add_2":"篭山"},"4580829":{"post_code":"4580829","prefecture":"AICHI KEN","city":"NAGOYA SHI MIDORI KU","town":"KAMAKURADAI","perfecture_jp":"愛知県","jp_add_1":"名古屋市緑区","jp_add_2":"鎌倉台"},"4580016":{"post_code":"4580016","prefecture":"AICHI KEN","city":"NAGOYA SHI MIDORI KU","town":"KAMIASAHI","perfecture_jp":"愛知県","jp_add_1":"名古屋市緑区","jp_add_2":"上旭"},"4580014":{"post_code":"4580014","prefecture":"AICHI KEN","city":"NAGOYA SHI MIDORI KU","town":"KAMISAWA","perfecture_jp":"愛知県","jp_add_1":"名古屋市緑区","jp_add_2":"神沢"},"4580812":{"post_code":"4580812","prefecture":"AICHI KEN","city":"NAGOYA SHI MIDORI KU","town":"KAMINOKURA","perfecture_jp":"愛知県","jp_add_1":"名古屋市緑区","jp_add_2":"神の倉"},"4580804":{"post_code":"4580804","prefecture":"AICHI KEN","city":"NAGOYA SHI MIDORI KU","town":"KAMEGAHORA","perfecture_jp":"愛知県","jp_add_1":"名古屋市緑区","jp_add_2":"亀が洞"},"4580003":{"post_code":"4580003","prefecture":"AICHI KEN","city":"NAGOYA SHI MIDORI KU","town":"KUROSAWADAI","perfecture_jp":"愛知県","jp_add_1":"名古屋市緑区","jp_add_2":"黒沢台"},"4580023":{"post_code":"4580023","prefecture":"AICHI KEN","city":"NAGOYA SHI MIDORI KU","town":"KOBUTSUME","perfecture_jp":"愛知県","jp_add_1":"名古屋市緑区","jp_add_2":"鴻仏目"},"4580022":{"post_code":"4580022","prefecture":"AICHI KEN","city":"NAGOYA SHI MIDORI KU","town":"KOSAKA","perfecture_jp":"愛知県","jp_add_1":"名古屋市緑区","jp_add_2":"小坂"},"4580047":{"post_code":"4580047","prefecture":"AICHI KEN","city":"NAGOYA SHI MIDORI KU","town":"KONARUMI","perfecture_jp":"愛知県","jp_add_1":"名古屋市緑区","jp_add_2":"古鳴海"},"4580820":{"post_code":"4580820","prefecture":"AICHI KEN","city":"NAGOYA SHI MIDORI KU","town":"SAKAIMATSU","perfecture_jp":"愛知県","jp_add_1":"名古屋市緑区","jp_add_2":"境松"},"4580825":{"post_code":"4580825","prefecture":"AICHI KEN","city":"NAGOYA SHI MIDORI KU","town":"SAKYOYAMA","perfecture_jp":"愛知県","jp_add_1":"名古屋市緑区","jp_add_2":"左京山"},"4580038":{"post_code":"4580038","prefecture":"AICHI KEN","city":"NAGOYA SHI MIDORI KU","town":"SAKUNOYAMACHO","perfecture_jp":"愛知県","jp_add_1":"名古屋市緑区","jp_add_2":"作の山町"},"4580037":{"post_code":"4580037","prefecture":"AICHI KEN","city":"NAGOYA SHI MIDORI KU","town":"SHIOMIGAOKA","perfecture_jp":"愛知県","jp_add_1":"名古屋市緑区","jp_add_2":"潮見が丘"},"4580045":{"post_code":"4580045","prefecture":"AICHI KEN","city":"NAGOYA SHI MIDORI KU","town":"SHIKAYAMA","perfecture_jp":"愛知県","jp_add_1":"名古屋市緑区","jp_add_2":"鹿山"},"4580015":{"post_code":"4580015","prefecture":"AICHI KEN","city":"NAGOYA SHI MIDORI KU","town":"SHINONOKAZE","perfecture_jp":"愛知県","jp_add_1":"名古屋市緑区","jp_add_2":"篠の風"},"4580039":{"post_code":"4580039","prefecture":"AICHI KEN","city":"NAGOYA SHI MIDORI KU","town":"SHIHONGI","perfecture_jp":"愛知県","jp_add_1":"名古屋市緑区","jp_add_2":"四本木"},"4580836":{"post_code":"4580836","prefecture":"AICHI KEN","city":"NAGOYA SHI MIDORI KU","town":"SHIROTSUCHI","perfecture_jp":"愛知県","jp_add_1":"名古屋市緑区","jp_add_2":"白土"},"4580807":{"post_code":"4580807","prefecture":"AICHI KEN","city":"NAGOYA SHI MIDORI KU","town":"SUNADA","perfecture_jp":"愛知県","jp_add_1":"名古屋市緑区","jp_add_2":"砂田"},"4580035":{"post_code":"4580035","prefecture":"AICHI KEN","city":"NAGOYA SHI MIDORI KU","town":"SONE","perfecture_jp":"愛知県","jp_add_1":"名古屋市緑区","jp_add_2":"曽根"},"4580823":{"post_code":"4580823","prefecture":"AICHI KEN","city":"NAGOYA SHI MIDORI KU","town":"TAISHI","perfecture_jp":"愛知県","jp_add_1":"名古屋市緑区","jp_add_2":"太子"},"4580822":{"post_code":"4580822","prefecture":"AICHI KEN","city":"NAGOYA SHI MIDORI KU","town":"TAISHOGANE","perfecture_jp":"愛知県","jp_add_1":"名古屋市緑区","jp_add_2":"大将ケ根"},"4580042":{"post_code":"4580042","prefecture":"AICHI KEN","city":"NAGOYA SHI MIDORI KU","town":"TAKANEDAI","perfecture_jp":"愛知県","jp_add_1":"名古屋市緑区","jp_add_2":"高根台"},"4580021":{"post_code":"4580021","prefecture":"AICHI KEN","city":"NAGOYA SHI MIDORI KU","town":"TAKINOMIZU","perfecture_jp":"愛知県","jp_add_1":"名古屋市緑区","jp_add_2":"滝ノ水"},"4580917":{"post_code":"4580917","prefecture":"AICHI KEN","city":"NAGOYA SHI MIDORI KU","town":"TAKEJICHO","perfecture_jp":"愛知県","jp_add_1":"名古屋市緑区","jp_add_2":"武路町"},"4580814":{"post_code":"4580814","prefecture":"AICHI KEN","city":"NAGOYA SHI MIDORI KU","town":"TSURUGASAWA","perfecture_jp":"愛知県","jp_add_1":"名古屋市緑区","jp_add_2":"鶴が沢"},"4580815":{"post_code":"4580815","prefecture":"AICHI KEN","city":"NAGOYA SHI MIDORI KU","town":"TOKUSHIGE","perfecture_jp":"愛知県","jp_add_1":"名古屋市緑区","jp_add_2":"徳重"},"4580025":{"post_code":"4580025","prefecture":"AICHI KEN","city":"NAGOYA SHI MIDORI KU","town":"TORISUMI","perfecture_jp":"愛知県","jp_add_1":"名古屋市緑区","jp_add_2":"鳥澄"},"4580046":{"post_code":"4580046","prefecture":"AICHI KEN","city":"NAGOYA SHI MIDORI KU","town":"NAGANECHO","perfecture_jp":"愛知県","jp_add_1":"名古屋市緑区","jp_add_2":"長根町"},"4580005":{"post_code":"4580005","prefecture":"AICHI KEN","city":"NAGOYA SHI MIDORI KU","town":"NARUOKA","perfecture_jp":"愛知県","jp_add_1":"名古屋市緑区","jp_add_2":"鳴丘"},"4580041":{"post_code":"4580041","prefecture":"AICHI KEN","city":"NAGOYA SHI MIDORI KU","town":"NARUKOCHO","perfecture_jp":"愛知県","jp_add_1":"名古屋市緑区","jp_add_2":"鳴子町"},"4580845":{"post_code":"4580845","prefecture":"AICHI KEN","city":"NAGOYA SHI MIDORI KU","town":"NARUMICHO (AKATSUKA)","perfecture_jp":"愛知県","jp_add_1":"名古屋市緑区","jp_add_2":"鳴海町"},"4580824":{"post_code":"4580824","prefecture":"AICHI KEN","city":"NAGOYA SHI MIDORI KU","town":"NARUMICHO (ARIMATSURA)","perfecture_jp":"愛知県","jp_add_1":"名古屋市緑区","jp_add_2":"鳴海町"},"4580842":{"post_code":"4580842","prefecture":"AICHI KEN","city":"NAGOYA SHI MIDORI KU","town":"NARUMICHO (UENOYAMA)","perfecture_jp":"愛知県","jp_add_1":"名古屋市緑区","jp_add_2":"鳴海町"},"4580828":{"post_code":"4580828","prefecture":"AICHI KEN","city":"NAGOYA SHI MIDORI KU","town":"NARUMICHO (UBAKOYAMA)","perfecture_jp":"愛知県","jp_add_1":"名古屋市緑区","jp_add_2":"鳴海町"},"4580818":{"post_code":"4580818","prefecture":"AICHI KEN","city":"NAGOYA SHI MIDORI KU","town":"NARUMICHO (OSHIMIZU)","perfecture_jp":"愛知県","jp_add_1":"名古屋市緑区","jp_add_2":"鳴海町"},"4580821":{"post_code":"4580821","prefecture":"AICHI KEN","city":"NAGOYA SHI MIDORI KU","town":"NARUMICHO (OZAKIYAMA)","perfecture_jp":"愛知県","jp_add_1":"名古屋市緑区","jp_add_2":"鳴海町"},"4580835":{"post_code":"4580835","prefecture":"AICHI KEN","city":"NAGOYA SHI MIDORI KU","town":"NARUMICHO (KAMISHIOTA)","perfecture_jp":"愛知県","jp_add_1":"名古屋市緑区","jp_add_2":"鳴海町"},"4580811":{"post_code":"4580811","prefecture":"AICHI KEN","city":"NAGOYA SHI MIDORI KU","town":"NARUMICHO (KANNOKURA)","perfecture_jp":"愛知県","jp_add_1":"名古屋市緑区","jp_add_2":"鳴海町"},"4580841":{"post_code":"4580841","prefecture":"AICHI KEN","city":"NAGOYA SHI MIDORI KU","town":"NARUMICHO (KOMORI)","perfecture_jp":"愛知県","jp_add_1":"名古屋市緑区","jp_add_2":"鳴海町"},"4580834":{"post_code":"4580834","prefecture":"AICHI KEN","city":"NAGOYA SHI MIDORI KU","town":"NARUMICHO (ZENNOWA)","perfecture_jp":"愛知県","jp_add_1":"名古屋市緑区","jp_add_2":"鳴海町"},"4580844":{"post_code":"4580844","prefecture":"AICHI KEN","city":"NAGOYA SHI MIDORI KU","town":"NARUMICHO (DENJIYAMA)","perfecture_jp":"愛知県","jp_add_1":"名古屋市緑区","jp_add_2":"鳴海町"},"4580827":{"post_code":"4580827","prefecture":"AICHI KEN","city":"NAGOYA SHI MIDORI KU","town":"NARUMICHO (HOSONE)","perfecture_jp":"愛知県","jp_add_1":"名古屋市緑区","jp_add_2":"鳴海町"},"4580831":{"post_code":"4580831","prefecture":"AICHI KEN","city":"NAGOYA SHI MIDORI KU","town":"NARUMICHO (MUKAEDA)","perfecture_jp":"愛知県","jp_add_1":"名古屋市緑区","jp_add_2":"鳴海町"},"4580817":{"post_code":"4580817","prefecture":"AICHI KEN","city":"NAGOYA SHI MIDORI KU","town":"MORONOKI","perfecture_jp":"愛知県","jp_add_1":"名古屋市緑区","jp_add_2":"鳴海町"},"4580846":{"post_code":"4580846","prefecture":"AICHI KEN","city":"NAGOYA SHI MIDORI KU","town":"NARUMICHO (YAKUSHIYAMA)","perfecture_jp":"愛知県","jp_add_1":"名古屋市緑区","jp_add_2":"鳴海町"},"4580819":{"post_code":"4580819","prefecture":"AICHI KEN","city":"NAGOYA SHI MIDORI KU","town":"NARUMICHO (YATSUMATSU)","perfecture_jp":"愛知県","jp_add_1":"名古屋市緑区","jp_add_2":"鳴海町"},"4580801":{"post_code":"4580801","prefecture":"AICHI KEN","city":"NAGOYA SHI MIDORI KU","town":"NARUMICHO (SONOTA)","perfecture_jp":"愛知県","jp_add_1":"名古屋市緑区","jp_add_2":"鳴海町"},"4580918":{"post_code":"4580918","prefecture":"AICHI KEN","city":"NAGOYA SHI MIDORI KU","town":"NANRYO","perfecture_jp":"愛知県","jp_add_1":"名古屋市緑区","jp_add_2":"南陵"},"4580809":{"post_code":"4580809","prefecture":"AICHI KEN","city":"NAGOYA SHI MIDORI KU","town":"NISHIKAMINOKURA","perfecture_jp":"愛知県","jp_add_1":"名古屋市緑区","jp_add_2":"西神の倉"},"4580915":{"post_code":"4580915","prefecture":"AICHI KEN","city":"NAGOYA SHI MIDORI KU","town":"NOZUECHO","perfecture_jp":"愛知県","jp_add_1":"名古屋市緑区","jp_add_2":"野末町"},"4580004":{"post_code":"4580004","prefecture":"AICHI KEN","city":"NAGOYA SHI MIDORI KU","town":"NORIKURA","perfecture_jp":"愛知県","jp_add_1":"名古屋市緑区","jp_add_2":"乗鞍"},"4580808":{"post_code":"4580808","prefecture":"AICHI KEN","city":"NAGOYA SHI MIDORI KU","town":"HIGASHIKAMINOKURA","perfecture_jp":"愛知県","jp_add_1":"名古屋市緑区","jp_add_2":"東神の倉"},"4580012":{"post_code":"4580012","prefecture":"AICHI KEN","city":"NAGOYA SHI MIDORI KU","town":"HISAKATA","perfecture_jp":"愛知県","jp_add_1":"名古屋市緑区","jp_add_2":"久方"},"4580802":{"post_code":"4580802","prefecture":"AICHI KEN","city":"NAGOYA SHI MIDORI KU","town":"HYOGO","perfecture_jp":"愛知県","jp_add_1":"名古屋市緑区","jp_add_2":"兵庫"},"4580826":{"post_code":"4580826","prefecture":"AICHI KEN","city":"NAGOYA SHI MIDORI KU","town":"HIRAKOGAOKA","perfecture_jp":"愛知県","jp_add_1":"名古屋市緑区","jp_add_2":"平子が丘"},"4580009":{"post_code":"4580009","prefecture":"AICHI KEN","city":"NAGOYA SHI MIDORI KU","town":"HIRATEMINAMI","perfecture_jp":"愛知県","jp_add_1":"名古屋市緑区","jp_add_2":"平手南"},"4580008":{"post_code":"4580008","prefecture":"AICHI KEN","city":"NAGOYA SHI MIDORI KU","town":"HIRATEKITA","perfecture_jp":"愛知県","jp_add_1":"名古屋市緑区","jp_add_2":"平手北"},"4580813":{"post_code":"4580813","prefecture":"AICHI KEN","city":"NAGOYA SHI MIDORI KU","town":"FUJIZUKA","perfecture_jp":"愛知県","jp_add_1":"名古屋市緑区","jp_add_2":"藤塚"},"4580006":{"post_code":"4580006","prefecture":"AICHI KEN","city":"NAGOYA SHI MIDORI KU","town":"HOSOGUCHI","perfecture_jp":"愛知県","jp_add_1":"名古屋市緑区","jp_add_2":"細口"},"4580013":{"post_code":"4580013","prefecture":"AICHI KEN","city":"NAGOYA SHI MIDORI KU","town":"HORAGAI","perfecture_jp":"愛知県","jp_add_1":"名古屋市緑区","jp_add_2":"ほら貝"},"4580843":{"post_code":"4580843","prefecture":"AICHI KEN","city":"NAGOYA SHI MIDORI KU","town":"MATSUGANEDAI","perfecture_jp":"愛知県","jp_add_1":"名古屋市緑区","jp_add_2":"松が根台"},"4580043":{"post_code":"4580043","prefecture":"AICHI KEN","city":"NAGOYA SHI MIDORI KU","town":"MAMBAYAMA","perfecture_jp":"愛知県","jp_add_1":"名古屋市緑区","jp_add_2":"万場山"},"4580848":{"post_code":"4580848","prefecture":"AICHI KEN","city":"NAGOYA SHI MIDORI KU","town":"MIZUHIRO","perfecture_jp":"愛知県","jp_add_1":"名古屋市緑区","jp_add_2":"水広"},"4580002":{"post_code":"4580002","prefecture":"AICHI KEN","city":"NAGOYA SHI MIDORI KU","town":"MOMOYAMA","perfecture_jp":"愛知県","jp_add_1":"名古屋市緑区","jp_add_2":"桃山"},"4580810":{"post_code":"4580810","prefecture":"AICHI KEN","city":"NAGOYA SHI MIDORI KU","town":"YATSUMATSU","perfecture_jp":"愛知県","jp_add_1":"名古屋市緑区","jp_add_2":"八つ松"},"4580816":{"post_code":"4580816","prefecture":"AICHI KEN","city":"NAGOYA SHI MIDORI KU","town":"YOKOBUKICHO","perfecture_jp":"愛知県","jp_add_1":"名古屋市緑区","jp_add_2":"横吹町"},"4580036":{"post_code":"4580036","prefecture":"AICHI KEN","city":"NAGOYA SHI MIDORI KU","town":"ROKUDEN","perfecture_jp":"愛知県","jp_add_1":"名古屋市緑区","jp_add_2":"六田"},"4580034":{"post_code":"4580034","prefecture":"AICHI KEN","city":"NAGOYA SHI MIDORI KU","town":"WAKATA","perfecture_jp":"愛知県","jp_add_1":"名古屋市緑区","jp_add_2":"若田"}}