{"4598004":{"post_code":"4598004","prefecture":"AICHI KEN","city":"NAGOYA SHI MIDORI KU","town":"ARIMATSUMINAMI","perfecture_jp":"愛知県","jp_add_1":"名古屋市緑区","jp_add_2":"有松南"},"4598012":{"post_code":"4598012","prefecture":"AICHI KEN","city":"NAGOYA SHI MIDORI KU","town":"IBARADANIYAMA","perfecture_jp":"愛知県","jp_add_1":"名古屋市緑区","jp_add_2":"茨谷山"},"4598003":{"post_code":"4598003","prefecture":"AICHI KEN","city":"NAGOYA SHI MIDORI KU","town":"ODAKADAI","perfecture_jp":"愛知県","jp_add_1":"名古屋市緑区","jp_add_2":"大高台"},"4598001":{"post_code":"4598001","prefecture":"AICHI KEN","city":"NAGOYA SHI MIDORI KU","town":"ODAKACHO","perfecture_jp":"愛知県","jp_add_1":"名古屋市緑区","jp_add_2":"大高町"},"4598007":{"post_code":"4598007","prefecture":"AICHI KEN","city":"NAGOYA SHI MIDORI KU","town":"ONEYAMA","perfecture_jp":"愛知県","jp_add_1":"名古屋市緑区","jp_add_2":"大根山"},"4598006":{"post_code":"4598006","prefecture":"AICHI KEN","city":"NAGOYA SHI MIDORI KU","town":"KURASAKA","perfecture_jp":"愛知県","jp_add_1":"名古屋市緑区","jp_add_2":"倉坂"},"4598009":{"post_code":"4598009","prefecture":"AICHI KEN","city":"NAGOYA SHI MIDORI KU","town":"SHIMIZUYAMA","perfecture_jp":"愛知県","jp_add_1":"名古屋市緑区","jp_add_2":"清水山"},"4598011":{"post_code":"4598011","prefecture":"AICHI KEN","city":"NAGOYA SHI MIDORI KU","town":"JONOYAMA","perfecture_jp":"愛知県","jp_add_1":"名古屋市緑区","jp_add_2":"定納山"},"4598013":{"post_code":"4598013","prefecture":"AICHI KEN","city":"NAGOYA SHI MIDORI KU","town":"TAKANEYAMA","perfecture_jp":"愛知県","jp_add_1":"名古屋市緑区","jp_add_2":"高根山"},"4598014":{"post_code":"4598014","prefecture":"AICHI KEN","city":"NAGOYA SHI MIDORI KU","town":"CHUJIYAMA","perfecture_jp":"愛知県","jp_add_1":"名古屋市緑区","jp_add_2":"忠治山"},"4598008":{"post_code":"4598008","prefecture":"AICHI KEN","city":"NAGOYA SHI MIDORI KU","town":"BUNKYUYAMA","perfecture_jp":"愛知県","jp_add_1":"名古屋市緑区","jp_add_2":"文久山"},"4598015":{"post_code":"4598015","prefecture":"AICHI KEN","city":"NAGOYA SHI MIDORI KU","town":"BESSHOYAMA","perfecture_jp":"愛知県","jp_add_1":"名古屋市緑区","jp_add_2":"別所山"},"4598016":{"post_code":"4598016","prefecture":"AICHI KEN","city":"NAGOYA SHI MIDORI KU","town":"MINAMIODAKA","perfecture_jp":"愛知県","jp_add_1":"名古屋市緑区","jp_add_2":"南大高"},"4598002":{"post_code":"4598002","prefecture":"AICHI KEN","city":"NAGOYA SHI MIDORI KU","town":"MORINOSATO","perfecture_jp":"愛知県","jp_add_1":"名古屋市緑区","jp_add_2":"森の里"},"4598005":{"post_code":"4598005","prefecture":"AICHI KEN","city":"NAGOYA SHI MIDORI KU","town":"RYOKKADAI","perfecture_jp":"愛知県","jp_add_1":"名古屋市緑区","jp_add_2":"緑花台"}}