{"4620000":{"post_code":"4620000","prefecture":"AICHI KEN","city":"NAGOYA SHI KITA KU","town":"IKANIKEISAIGANAIBAAI","perfecture_jp":"愛知県","jp_add_1":"名古屋市北区","jp_add_2":""},"4620856":{"post_code":"4620856","prefecture":"AICHI KEN","city":"NAGOYA SHI KITA KU","town":"ASHIBECHO","perfecture_jp":"愛知県","jp_add_1":"名古屋市北区","jp_add_2":"芦辺町"},"4620005":{"post_code":"4620005","prefecture":"AICHI KEN","city":"NAGOYA SHI KITA KU","town":"IKEHANACHO","perfecture_jp":"愛知県","jp_add_1":"名古屋市北区","jp_add_2":"池花町"},"4620832":{"post_code":"4620832","prefecture":"AICHI KEN","city":"NAGOYA SHI KITA KU","town":"IKOMACHO","perfecture_jp":"愛知県","jp_add_1":"名古屋市北区","jp_add_2":"生駒町"},"4620855":{"post_code":"4620855","prefecture":"AICHI KEN","city":"NAGOYA SHI KITA KU","town":"ISONOCHO","perfecture_jp":"愛知県","jp_add_1":"名古屋市北区","jp_add_2":"石園町"},"4620064":{"post_code":"4620064","prefecture":"AICHI KEN","city":"NAGOYA SHI KITA KU","town":"OGAMACHO","perfecture_jp":"愛知県","jp_add_1":"名古屋市北区","jp_add_2":"大我麻町"},"4620858":{"post_code":"4620858","prefecture":"AICHI KEN","city":"NAGOYA SHI KITA KU","town":"OKURACHO","perfecture_jp":"愛知県","jp_add_1":"名古屋市北区","jp_add_2":"大蔵町"},"4620837":{"post_code":"4620837","prefecture":"AICHI KEN","city":"NAGOYA SHI KITA KU","town":"OSUGI","perfecture_jp":"愛知県","jp_add_1":"名古屋市北区","jp_add_2":"大杉"},"4620836":{"post_code":"4620836","prefecture":"AICHI KEN","city":"NAGOYA SHI KITA KU","town":"OSUGICHO","perfecture_jp":"愛知県","jp_add_1":"名古屋市北区","jp_add_2":"大杉町"},"4620825":{"post_code":"4620825","prefecture":"AICHI KEN","city":"NAGOYA SHI KITA KU","town":"OZONE","perfecture_jp":"愛知県","jp_add_1":"名古屋市北区","jp_add_2":"大曽根"},"4620035":{"post_code":"4620035","prefecture":"AICHI KEN","city":"NAGOYA SHI KITA KU","town":"ONOCHO","perfecture_jp":"愛知県","jp_add_1":"名古屋市北区","jp_add_2":"大野町"},"4620017":{"post_code":"4620017","prefecture":"AICHI KEN","city":"NAGOYA SHI KITA KU","town":"OCHIAICHO","perfecture_jp":"愛知県","jp_add_1":"名古屋市北区","jp_add_2":"落合町"},"4620807":{"post_code":"4620807","prefecture":"AICHI KEN","city":"NAGOYA SHI KITA KU","town":"ONARITORI","perfecture_jp":"愛知県","jp_add_1":"名古屋市北区","jp_add_2":"御成通"},"4620863":{"post_code":"4620863","prefecture":"AICHI KEN","city":"NAGOYA SHI KITA KU","town":"ONOECHO","perfecture_jp":"愛知県","jp_add_1":"名古屋市北区","jp_add_2":"尾上町"},"4620864":{"post_code":"4620864","prefecture":"AICHI KEN","city":"NAGOYA SHI KITA KU","town":"OBECHO","perfecture_jp":"愛知県","jp_add_1":"名古屋市北区","jp_add_2":"織部町"},"4620061":{"post_code":"4620061","prefecture":"AICHI KEN","city":"NAGOYA SHI KITA KU","town":"KAISHOCHO","perfecture_jp":"愛知県","jp_add_1":"名古屋市北区","jp_add_2":"会所町"},"4620867":{"post_code":"4620867","prefecture":"AICHI KEN","city":"NAGOYA SHI KITA KU","town":"GAIDOCHO","perfecture_jp":"愛知県","jp_add_1":"名古屋市北区","jp_add_2":"垣戸町"},"4620033":{"post_code":"4620033","prefecture":"AICHI KEN","city":"NAGOYA SHI KITA KU","town":"KANEDACHO","perfecture_jp":"愛知県","jp_add_1":"名古屋市北区","jp_add_2":"金田町"},"4620808":{"post_code":"4620808","prefecture":"AICHI KEN","city":"NAGOYA SHI KITA KU","town":"KAMIIIDATORI","perfecture_jp":"愛知県","jp_add_1":"名古屋市北区","jp_add_2":"上飯田通"},"4620803":{"post_code":"4620803","prefecture":"AICHI KEN","city":"NAGOYA SHI KITA KU","town":"KAMIIIDAHIGASHIMACHI","perfecture_jp":"愛知県","jp_add_1":"名古屋市北区","jp_add_2":"上飯田東町"},"4620809":{"post_code":"4620809","prefecture":"AICHI KEN","city":"NAGOYA SHI KITA KU","town":"KAMIIIDANISHIMACHI","perfecture_jp":"愛知県","jp_add_1":"名古屋市北区","jp_add_2":"上飯田西町"},"4620804":{"post_code":"4620804","prefecture":"AICHI KEN","city":"NAGOYA SHI KITA KU","town":"KAMIIIDAMINAMIMACHI","perfecture_jp":"愛知県","jp_add_1":"名古屋市北区","jp_add_2":"上飯田南町"},"4620802":{"post_code":"4620802","prefecture":"AICHI KEN","city":"NAGOYA SHI KITA KU","town":"KAMIIIDAKITAMACHI","perfecture_jp":"愛知県","jp_add_1":"名古屋市北区","jp_add_2":"上飯田北町"},"4620022":{"post_code":"4620022","prefecture":"AICHI KEN","city":"NAGOYA SHI KITA KU","town":"KAWANAKACHO","perfecture_jp":"愛知県","jp_add_1":"名古屋市北区","jp_add_2":"川中町"},"4620065":{"post_code":"4620065","prefecture":"AICHI KEN","city":"NAGOYA SHI KITA KU","town":"KISOJI","perfecture_jp":"愛知県","jp_add_1":"名古屋市北区","jp_add_2":"喜惣治"},"4620001":{"post_code":"4620001","prefecture":"AICHI KEN","city":"NAGOYA SHI KITA KU","town":"KITAKUTECHO","perfecture_jp":"愛知県","jp_add_1":"名古屋市北区","jp_add_2":"北久手町"},"4620851":{"post_code":"4620851","prefecture":"AICHI KEN","city":"NAGOYA SHI KITA KU","town":"KIZUNECHO","perfecture_jp":"愛知県","jp_add_1":"名古屋市北区","jp_add_2":"木津根町"},"4620003":{"post_code":"4620003","prefecture":"AICHI KEN","city":"NAGOYA SHI KITA KU","town":"KIRIHATACHO","perfecture_jp":"愛知県","jp_add_1":"名古屋市北区","jp_add_2":"桐畑町"},"4620847":{"post_code":"4620847","prefecture":"AICHI KEN","city":"NAGOYA SHI KITA KU","town":"KINJO","perfecture_jp":"愛知県","jp_add_1":"名古屋市北区","jp_add_2":"金城"},"4620047":{"post_code":"4620047","prefecture":"AICHI KEN","city":"NAGOYA SHI KITA KU","town":"KINJOCHO","perfecture_jp":"愛知県","jp_add_1":"名古屋市北区","jp_add_2":"金城町"},"4620012":{"post_code":"4620012","prefecture":"AICHI KEN","city":"NAGOYA SHI KITA KU","town":"KUSUNOKI","perfecture_jp":"愛知県","jp_add_1":"名古屋市北区","jp_add_2":"楠"},"4620014":{"post_code":"4620014","prefecture":"AICHI KEN","city":"NAGOYA SHI KITA KU","town":"KUSUNOKIAJIMA","perfecture_jp":"愛知県","jp_add_1":"名古屋市北区","jp_add_2":"楠味鋺"},"4620066":{"post_code":"4620066","prefecture":"AICHI KEN","city":"NAGOYA SHI KITA KU","town":"KUSUNOKICHO KISOJISHINDEN","perfecture_jp":"愛知県","jp_add_1":"名古屋市北区","jp_add_2":"楠町喜惣治新田"},"4620841":{"post_code":"4620841","prefecture":"AICHI KEN","city":"NAGOYA SHI KITA KU","town":"KUROKAWAHONTORI","perfecture_jp":"愛知県","jp_add_1":"名古屋市北区","jp_add_2":"黒川本通"},"4620018":{"post_code":"4620018","prefecture":"AICHI KEN","city":"NAGOYA SHI KITA KU","town":"GEMBACHO","perfecture_jp":"愛知県","jp_add_1":"名古屋市北区","jp_add_2":"玄馬町"},"4620857":{"post_code":"4620857","prefecture":"AICHI KEN","city":"NAGOYA SHI KITA KU","town":"KOUNCHO","perfecture_jp":"愛知県","jp_add_1":"名古屋市北区","jp_add_2":"紅雲町"},"4620053":{"post_code":"4620053","prefecture":"AICHI KEN","city":"NAGOYA SHI KITA KU","town":"KOONJICHO","perfecture_jp":"愛知県","jp_add_1":"名古屋市北区","jp_add_2":"光音寺町"},"4620011":{"post_code":"4620011","prefecture":"AICHI KEN","city":"NAGOYA SHI KITA KU","town":"GOTANDACHO","perfecture_jp":"愛知県","jp_add_1":"名古屋市北区","jp_add_2":"五反田町"},"4620059":{"post_code":"4620059","prefecture":"AICHI KEN","city":"NAGOYA SHI KITA KU","town":"KOMADOMECHO","perfecture_jp":"愛知県","jp_add_1":"名古屋市北区","jp_add_2":"駒止町"},"4620031":{"post_code":"4620031","prefecture":"AICHI KEN","city":"NAGOYA SHI KITA KU","town":"KOMEGASECHO","perfecture_jp":"愛知県","jp_add_1":"名古屋市北区","jp_add_2":"米が瀬町"},"4620818":{"post_code":"4620818","prefecture":"AICHI KEN","city":"NAGOYA SHI KITA KU","town":"SAIKOBASHITORI","perfecture_jp":"愛知県","jp_add_1":"名古屋市北区","jp_add_2":"彩紅橋通"},"4620852":{"post_code":"4620852","prefecture":"AICHI KEN","city":"NAGOYA SHI KITA KU","town":"SANAGECHO","perfecture_jp":"愛知県","jp_add_1":"名古屋市北区","jp_add_2":"猿投町"},"4620004":{"post_code":"4620004","prefecture":"AICHI KEN","city":"NAGOYA SHI KITA KU","town":"SANGENCHO","perfecture_jp":"愛知県","jp_add_1":"名古屋市北区","jp_add_2":"三軒町"},"4620037":{"post_code":"4620037","prefecture":"AICHI KEN","city":"NAGOYA SHI KITA KU","town":"SHIGACHO","perfecture_jp":"愛知県","jp_add_1":"名古屋市北区","jp_add_2":"志賀町"},"4620853":{"post_code":"4620853","prefecture":"AICHI KEN","city":"NAGOYA SHI KITA KU","town":"SHIGAHONTORI","perfecture_jp":"愛知県","jp_add_1":"名古屋市北区","jp_add_2":"志賀本通"},"4620842":{"post_code":"4620842","prefecture":"AICHI KEN","city":"NAGOYA SHI KITA KU","town":"SHIGAMINAMITORI","perfecture_jp":"愛知県","jp_add_1":"名古屋市北区","jp_add_2":"志賀南通"},"4620045":{"post_code":"4620045","prefecture":"AICHI KEN","city":"NAGOYA SHI KITA KU","town":"SHIKISHIMACHO","perfecture_jp":"愛知県","jp_add_1":"名古屋市北区","jp_add_2":"敷島町"},"4620844":{"post_code":"4620844","prefecture":"AICHI KEN","city":"NAGOYA SHI KITA KU","town":"SHIMIZU","perfecture_jp":"愛知県","jp_add_1":"名古屋市北区","jp_add_2":"清水"},"4620865":{"post_code":"4620865","prefecture":"AICHI KEN","city":"NAGOYA SHI KITA KU","town":"SHIMOIIDACHO","perfecture_jp":"愛知県","jp_add_1":"名古屋市北区","jp_add_2":"下飯田町"},"4620021":{"post_code":"4620021","prefecture":"AICHI KEN","city":"NAGOYA SHI KITA KU","town":"JOGANJI","perfecture_jp":"愛知県","jp_add_1":"名古屋市北区","jp_add_2":"成願寺"},"4620831":{"post_code":"4620831","prefecture":"AICHI KEN","city":"NAGOYA SHI KITA KU","town":"JOTOCHO","perfecture_jp":"愛知県","jp_add_1":"名古屋市北区","jp_add_2":"城東町"},"4620046":{"post_code":"4620046","prefecture":"AICHI KEN","city":"NAGOYA SHI KITA KU","town":"SHIROMITORI","perfecture_jp":"愛知県","jp_add_1":"名古屋市北区","jp_add_2":"城見通"},"4620062":{"post_code":"4620062","prefecture":"AICHI KEN","city":"NAGOYA SHI KITA KU","town":"SHINNUMACHO","perfecture_jp":"愛知県","jp_add_1":"名古屋市北区","jp_add_2":"新沼町"},"4620801":{"post_code":"4620801","prefecture":"AICHI KEN","city":"NAGOYA SHI KITA KU","town":"SHIMBORICHO","perfecture_jp":"愛知県","jp_add_1":"名古屋市北区","jp_add_2":"新堀町"},"4620859":{"post_code":"4620859","prefecture":"AICHI KEN","city":"NAGOYA SHI KITA KU","town":"SHIMMEICHO","perfecture_jp":"愛知県","jp_add_1":"名古屋市北区","jp_add_2":"神明町"},"4620829":{"post_code":"4620829","prefecture":"AICHI KEN","city":"NAGOYA SHI KITA KU","town":"SUGISAKAECHO","perfecture_jp":"愛知県","jp_add_1":"名古屋市北区","jp_add_2":"杉栄町"},"4620835":{"post_code":"4620835","prefecture":"AICHI KEN","city":"NAGOYA SHI KITA KU","town":"SUGIMURA","perfecture_jp":"愛知県","jp_add_1":"名古屋市北区","jp_add_2":"杉村"},"4620869":{"post_code":"4620869","prefecture":"AICHI KEN","city":"NAGOYA SHI KITA KU","town":"TATSUNOKUCHICHO","perfecture_jp":"愛知県","jp_add_1":"名古屋市北区","jp_add_2":"龍ノ口町"},"4620843":{"post_code":"4620843","prefecture":"AICHI KEN","city":"NAGOYA SHI KITA KU","town":"TABATA","perfecture_jp":"愛知県","jp_add_1":"名古屋市北区","jp_add_2":"田幡"},"4620038":{"post_code":"4620038","prefecture":"AICHI KEN","city":"NAGOYA SHI KITA KU","town":"CHIGONOMIYATORI","perfecture_jp":"愛知県","jp_add_1":"名古屋市北区","jp_add_2":"稚児宮通"},"4620056":{"post_code":"4620056","prefecture":"AICHI KEN","city":"NAGOYA SHI KITA KU","town":"CHUMARUCHO","perfecture_jp":"愛知県","jp_add_1":"名古屋市北区","jp_add_2":"中丸町"},"4620834":{"post_code":"4620834","prefecture":"AICHI KEN","city":"NAGOYA SHI KITA KU","town":"CHODACHO","perfecture_jp":"愛知県","jp_add_1":"名古屋市北区","jp_add_2":"長田町"},"4620032":{"post_code":"4620032","prefecture":"AICHI KEN","city":"NAGOYA SHI KITA KU","town":"TSUJICHO","perfecture_jp":"愛知県","jp_add_1":"名古屋市北区","jp_add_2":"辻町"},"4620861":{"post_code":"4620861","prefecture":"AICHI KEN","city":"NAGOYA SHI KITA KU","town":"TSUJIHONDORI","perfecture_jp":"愛知県","jp_add_1":"名古屋市北区","jp_add_2":"辻本通"},"4620034":{"post_code":"4620034","prefecture":"AICHI KEN","city":"NAGOYA SHI KITA KU","town":"TENDOCHO","perfecture_jp":"愛知県","jp_add_1":"名古屋市北区","jp_add_2":"天道町"},"4620868":{"post_code":"4620868","prefecture":"AICHI KEN","city":"NAGOYA SHI KITA KU","town":"DOBANCHO","perfecture_jp":"愛知県","jp_add_1":"名古屋市北区","jp_add_2":"憧旛町"},"4620009":{"post_code":"4620009","prefecture":"AICHI KEN","city":"NAGOYA SHI KITA KU","town":"NAEDACHO","perfecture_jp":"愛知県","jp_add_1":"名古屋市北区","jp_add_2":"苗田町"},"4620015":{"post_code":"4620015","prefecture":"AICHI KEN","city":"NAGOYA SHI KITA KU","town":"NAKAAJIMA","perfecture_jp":"愛知県","jp_add_1":"名古屋市北区","jp_add_2":"中味鋺"},"4620051":{"post_code":"4620051","prefecture":"AICHI KEN","city":"NAGOYA SHI KITA KU","town":"NAKAGIRICHO","perfecture_jp":"愛知県","jp_add_1":"名古屋市北区","jp_add_2":"中切町"},"4620838":{"post_code":"4620838","prefecture":"AICHI KEN","city":"NAGOYA SHI KITA KU","town":"NAKASUGICHO","perfecture_jp":"愛知県","jp_add_1":"名古屋市北区","jp_add_2":"中杉町"},"4620036":{"post_code":"4620036","prefecture":"AICHI KEN","city":"NAGOYA SHI KITA KU","town":"NAGAKICHO","perfecture_jp":"愛知県","jp_add_1":"名古屋市北区","jp_add_2":"長喜町"},"4620041":{"post_code":"4620041","prefecture":"AICHI KEN","city":"NAGOYA SHI KITA KU","town":"NAMIUCHICHO","perfecture_jp":"愛知県","jp_add_1":"名古屋市北区","jp_add_2":"浪打町"},"4620016":{"post_code":"4620016","prefecture":"AICHI KEN","city":"NAGOYA SHI KITA KU","town":"NISHIAJIMA","perfecture_jp":"愛知県","jp_add_1":"名古屋市北区","jp_add_2":"西味鋺"},"4620058":{"post_code":"4620058","prefecture":"AICHI KEN","city":"NAGOYA SHI KITA KU","town":"NISHISHIGACHO","perfecture_jp":"愛知県","jp_add_1":"名古屋市北区","jp_add_2":"西志賀町"},"4620007":{"post_code":"4620007","prefecture":"AICHI KEN","city":"NAGOYA SHI KITA KU","town":"NYOI","perfecture_jp":"愛知県","jp_add_1":"名古屋市北区","jp_add_2":"如意"},"4620008":{"post_code":"4620008","prefecture":"AICHI KEN","city":"NAGOYA SHI KITA KU","town":"NYORAICHO","perfecture_jp":"愛知県","jp_add_1":"名古屋市北区","jp_add_2":"如来町"},"4620054":{"post_code":"4620054","prefecture":"AICHI KEN","city":"NAGOYA SHI KITA KU","town":"NOKATATORI","perfecture_jp":"愛知県","jp_add_1":"名古屋市北区","jp_add_2":"野方通"},"4620026":{"post_code":"4620026","prefecture":"AICHI KEN","city":"NAGOYA SHI KITA KU","town":"HAGINOTORI","perfecture_jp":"愛知県","jp_add_1":"名古屋市北区","jp_add_2":"萩野通"},"4620805":{"post_code":"4620805","prefecture":"AICHI KEN","city":"NAGOYA SHI KITA KU","town":"HACHIRYUCHO","perfecture_jp":"愛知県","jp_add_1":"名古屋市北区","jp_add_2":"八龍町"},"4620024":{"post_code":"4620024","prefecture":"AICHI KEN","city":"NAGOYA SHI KITA KU","town":"HATOKA","perfecture_jp":"愛知県","jp_add_1":"名古屋市北区","jp_add_2":"鳩岡"},"4620025":{"post_code":"4620025","prefecture":"AICHI KEN","city":"NAGOYA SHI KITA KU","town":"HATOKACHO","perfecture_jp":"愛知県","jp_add_1":"名古屋市北区","jp_add_2":"鳩岡町"},"4620013":{"post_code":"4620013","prefecture":"AICHI KEN","city":"NAGOYA SHI KITA KU","town":"HIGASHIAJIMA","perfecture_jp":"愛知県","jp_add_1":"名古屋市北区","jp_add_2":"東味鋺"},"4620826":{"post_code":"4620826","prefecture":"AICHI KEN","city":"NAGOYA SHI KITA KU","town":"HIGASHIOSUGICHO","perfecture_jp":"愛知県","jp_add_1":"名古屋市北区","jp_add_2":"東大杉町"},"4620823":{"post_code":"4620823","prefecture":"AICHI KEN","city":"NAGOYA SHI KITA KU","town":"HIGASHIOZONECHOKAMI","perfecture_jp":"愛知県","jp_add_1":"名古屋市北区","jp_add_2":"東大曽根町上"},"4620827":{"post_code":"4620827","prefecture":"AICHI KEN","city":"NAGOYA SHI KITA KU","town":"HIGASHICHODACHO","perfecture_jp":"愛知県","jp_add_1":"名古屋市北区","jp_add_2":"東長田町"},"4620828":{"post_code":"4620828","prefecture":"AICHI KEN","city":"NAGOYA SHI KITA KU","town":"HIGASHIMIZUKIRICHO","perfecture_jp":"愛知県","jp_add_1":"名古屋市北区","jp_add_2":"東水切町"},"4620057":{"post_code":"4620057","prefecture":"AICHI KEN","city":"NAGOYA SHI KITA KU","town":"HIRATECHO","perfecture_jp":"愛知県","jp_add_1":"名古屋市北区","jp_add_2":"平手町"},"4620052":{"post_code":"4620052","prefecture":"AICHI KEN","city":"NAGOYA SHI KITA KU","town":"FUKUTOKUCHO","perfecture_jp":"愛知県","jp_add_1":"名古屋市北区","jp_add_2":"福徳町"},"4620819":{"post_code":"4620819","prefecture":"AICHI KEN","city":"NAGOYA SHI KITA KU","town":"HEIAN","perfecture_jp":"愛知県","jp_add_1":"名古屋市北区","jp_add_2":"平安"},"4620816":{"post_code":"4620816","prefecture":"AICHI KEN","city":"NAGOYA SHI KITA KU","town":"HEIANTORI","perfecture_jp":"愛知県","jp_add_1":"名古屋市北区","jp_add_2":"平安通"},"4620862":{"post_code":"4620862","prefecture":"AICHI KEN","city":"NAGOYA SHI KITA KU","town":"MAGUROCHO","perfecture_jp":"愛知県","jp_add_1":"名古屋市北区","jp_add_2":"真畔町"},"4620055":{"post_code":"4620055","prefecture":"AICHI KEN","city":"NAGOYA SHI KITA KU","town":"MASUGATACHO","perfecture_jp":"愛知県","jp_add_1":"名古屋市北区","jp_add_2":"桝形町"},"4620063":{"post_code":"4620063","prefecture":"AICHI KEN","city":"NAGOYA SHI KITA KU","town":"MARUSHINCHO","perfecture_jp":"愛知県","jp_add_1":"名古屋市北区","jp_add_2":"丸新町"},"4620833":{"post_code":"4620833","prefecture":"AICHI KEN","city":"NAGOYA SHI KITA KU","town":"MIZUKIRICHO","perfecture_jp":"愛知県","jp_add_1":"名古屋市北区","jp_add_2":"水切町"},"4620042":{"post_code":"4620042","prefecture":"AICHI KEN","city":"NAGOYA SHI KITA KU","town":"MIZUKUSACHO","perfecture_jp":"愛知県","jp_add_1":"名古屋市北区","jp_add_2":"水草町"},"4620846":{"post_code":"4620846","prefecture":"AICHI KEN","city":"NAGOYA SHI KITA KU","town":"MEIJO","perfecture_jp":"愛知県","jp_add_1":"名古屋市北区","jp_add_2":"名城"},"4620044":{"post_code":"4620044","prefecture":"AICHI KEN","city":"NAGOYA SHI KITA KU","town":"MOTOSHIGACHO","perfecture_jp":"愛知県","jp_add_1":"名古屋市北区","jp_add_2":"元志賀町"},"4620043":{"post_code":"4620043","prefecture":"AICHI KEN","city":"NAGOYA SHI KITA KU","town":"YASHIROCHO","perfecture_jp":"愛知県","jp_add_1":"名古屋市北区","jp_add_2":"八代町"},"4620023":{"post_code":"4620023","prefecture":"AICHI KEN","city":"NAGOYA SHI KITA KU","town":"YASUI","perfecture_jp":"愛知県","jp_add_1":"名古屋市北区","jp_add_2":"安井"},"4620812":{"post_code":"4620812","prefecture":"AICHI KEN","city":"NAGOYA SHI KITA KU","town":"YADACHO","perfecture_jp":"愛知県","jp_add_1":"名古屋市北区","jp_add_2":"矢田町"},"4620845":{"post_code":"4620845","prefecture":"AICHI KEN","city":"NAGOYA SHI KITA KU","town":"YANAGIHARA","perfecture_jp":"愛知県","jp_add_1":"名古屋市北区","jp_add_2":"柳原"},"4620810":{"post_code":"4620810","prefecture":"AICHI KEN","city":"NAGOYA SHI KITA KU","town":"YAMADA","perfecture_jp":"愛知県","jp_add_1":"名古屋市北区","jp_add_2":"山田"},"4620813":{"post_code":"4620813","prefecture":"AICHI KEN","city":"NAGOYA SHI KITA KU","town":"YAMADACHO","perfecture_jp":"愛知県","jp_add_1":"名古屋市北区","jp_add_2":"山田町"},"4620814":{"post_code":"4620814","prefecture":"AICHI KEN","city":"NAGOYA SHI KITA KU","town":"YAMADANISHIMACHI","perfecture_jp":"愛知県","jp_add_1":"名古屋市北区","jp_add_2":"山田西町"},"4620811":{"post_code":"4620811","prefecture":"AICHI KEN","city":"NAGOYA SHI KITA KU","town":"YAMADAKITAMACHI","perfecture_jp":"愛知県","jp_add_1":"名古屋市北区","jp_add_2":"山田北町"},"4620824":{"post_code":"4620824","prefecture":"AICHI KEN","city":"NAGOYA SHI KITA KU","town":"YOSHINO","perfecture_jp":"愛知県","jp_add_1":"名古屋市北区","jp_add_2":"芳野"},"4620866":{"post_code":"4620866","prefecture":"AICHI KEN","city":"NAGOYA SHI KITA KU","town":"RURIKOCHO","perfecture_jp":"愛知県","jp_add_1":"名古屋市北区","jp_add_2":"瑠璃光町"},"4620002":{"post_code":"4620002","prefecture":"AICHI KEN","city":"NAGOYA SHI KITA KU","town":"ROKUGAIKECHO","perfecture_jp":"愛知県","jp_add_1":"名古屋市北区","jp_add_2":"六が池町"},"4620006":{"post_code":"4620006","prefecture":"AICHI KEN","city":"NAGOYA SHI KITA KU","town":"WAKAZURUCHO","perfecture_jp":"愛知県","jp_add_1":"名古屋市北区","jp_add_2":"若鶴町"},"4620854":{"post_code":"4620854","prefecture":"AICHI KEN","city":"NAGOYA SHI KITA KU","town":"WAKABATORI","perfecture_jp":"愛知県","jp_add_1":"名古屋市北区","jp_add_2":"若葉通"}}