{"4650000":{"post_code":"4650000","prefecture":"AICHI KEN","city":"NAGOYA SHI MEITO KU","town":"IKANIKEISAIGANAIBAAI","perfecture_jp":"愛知県","jp_add_1":"名古屋市名東区","jp_add_2":""},"4650016":{"post_code":"4650016","prefecture":"AICHI KEN","city":"NAGOYA SHI MEITO KU","town":"AKAMATSUDAI","perfecture_jp":"愛知県","jp_add_1":"名古屋市名東区","jp_add_2":"赤松台"},"4650033":{"post_code":"4650033","prefecture":"AICHI KEN","city":"NAGOYA SHI MEITO KU","town":"AKEGAOKA","perfecture_jp":"愛知県","jp_add_1":"名古屋市名東区","jp_add_2":"明が丘"},"4650041":{"post_code":"4650041","prefecture":"AICHI KEN","city":"NAGOYA SHI MEITO KU","town":"ASAHIGAOKA","perfecture_jp":"愛知県","jp_add_1":"名古屋市名東区","jp_add_2":"朝日が丘"},"4650023":{"post_code":"4650023","prefecture":"AICHI KEN","city":"NAGOYA SHI MEITO KU","town":"ISHIGANECHO","perfecture_jp":"愛知県","jp_add_1":"名古屋市名東区","jp_add_2":"石が根町"},"4650052":{"post_code":"4650052","prefecture":"AICHI KEN","city":"NAGOYA SHI MEITO KU","town":"ITAKACHO KAMIYASHIRO","perfecture_jp":"愛知県","jp_add_1":"名古屋市名東区","jp_add_2":"猪高町上社"},"4650067":{"post_code":"4650067","prefecture":"AICHI KEN","city":"NAGOYA SHI MEITO KU","town":"ITAKACHO TAKABARI","perfecture_jp":"愛知県","jp_add_1":"名古屋市名東区","jp_add_2":"猪高町高針"},"4650028":{"post_code":"4650028","prefecture":"AICHI KEN","city":"NAGOYA SHI MEITO KU","town":"IDAKADAI","perfecture_jp":"愛知県","jp_add_1":"名古屋市名東区","jp_add_2":"猪高台"},"4650093":{"post_code":"4650093","prefecture":"AICHI KEN","city":"NAGOYA SHI MEITO KU","town":"ISSHA","perfecture_jp":"愛知県","jp_add_1":"名古屋市名東区","jp_add_2":"一社"},"4650021":{"post_code":"4650021","prefecture":"AICHI KEN","city":"NAGOYA SHI MEITO KU","town":"INOKOISHI","perfecture_jp":"愛知県","jp_add_1":"名古屋市名東区","jp_add_2":"猪子石"},"4650008":{"post_code":"4650008","prefecture":"AICHI KEN","city":"NAGOYA SHI MEITO KU","town":"INOKOISHIHARA","perfecture_jp":"愛知県","jp_add_1":"名古屋市名東区","jp_add_2":"猪子石原"},"4650077":{"post_code":"4650077","prefecture":"AICHI KEN","city":"NAGOYA SHI MEITO KU","town":"UESONOCHO","perfecture_jp":"愛知県","jp_add_1":"名古屋市名東区","jp_add_2":"植園町"},"4650065":{"post_code":"4650065","prefecture":"AICHI KEN","city":"NAGOYA SHI MEITO KU","town":"UMEMORIZAKA","perfecture_jp":"愛知県","jp_add_1":"名古屋市名東区","jp_add_2":"梅森坂"},"4650066":{"post_code":"4650066","prefecture":"AICHI KEN","city":"NAGOYA SHI MEITO KU","town":"UMEMORIZAKANISHI","perfecture_jp":"愛知県","jp_add_1":"名古屋市名東区","jp_add_2":"梅森坂西"},"4650003":{"post_code":"4650003","prefecture":"AICHI KEN","city":"NAGOYA SHI MEITO KU","town":"ENJUCHO","perfecture_jp":"愛知県","jp_add_1":"名古屋市名東区","jp_add_2":"延珠町"},"4650076":{"post_code":"4650076","prefecture":"AICHI KEN","city":"NAGOYA SHI MEITO KU","town":"OGIMACHI","perfecture_jp":"愛知県","jp_add_1":"名古屋市名東区","jp_add_2":"扇町"},"4650064":{"post_code":"4650064","prefecture":"AICHI KEN","city":"NAGOYA SHI MEITO KU","town":"OBARI","perfecture_jp":"愛知県","jp_add_1":"名古屋市名東区","jp_add_2":"大針"},"4650005":{"post_code":"4650005","prefecture":"AICHI KEN","city":"NAGOYA SHI MEITO KU","town":"KANARE","perfecture_jp":"愛知県","jp_add_1":"名古屋市名東区","jp_add_2":"香流"},"4650083":{"post_code":"4650083","prefecture":"AICHI KEN","city":"NAGOYA SHI MEITO KU","town":"KAMIOKACHO","perfecture_jp":"愛知県","jp_add_1":"名古屋市名東区","jp_add_2":"神丘町"},"4650082":{"post_code":"4650082","prefecture":"AICHI KEN","city":"NAGOYA SHI MEITO KU","town":"KAMISATO","perfecture_jp":"愛知県","jp_add_1":"名古屋市名東区","jp_add_2":"神里"},"4650014":{"post_code":"4650014","prefecture":"AICHI KEN","city":"NAGOYA SHI MEITO KU","town":"KAMISUGE","perfecture_jp":"愛知県","jp_add_1":"名古屋市名東区","jp_add_2":"上菅"},"4650025":{"post_code":"4650025","prefecture":"AICHI KEN","city":"NAGOYA SHI MEITO KU","town":"KAMIYASHIRO","perfecture_jp":"愛知県","jp_add_1":"名古屋市名東区","jp_add_2":"上社"},"4650094":{"post_code":"4650094","prefecture":"AICHI KEN","city":"NAGOYA SHI MEITO KU","town":"KAMENOI","perfecture_jp":"愛知県","jp_add_1":"名古屋市名東区","jp_add_2":"亀の井"},"4650058":{"post_code":"4650058","prefecture":"AICHI KEN","city":"NAGOYA SHI MEITO KU","town":"KIFUNE","perfecture_jp":"愛知県","jp_add_1":"名古屋市名東区","jp_add_2":"貴船"},"4650047":{"post_code":"4650047","prefecture":"AICHI KEN","city":"NAGOYA SHI MEITO KU","town":"KOIKECHO","perfecture_jp":"愛知県","jp_add_1":"名古屋市名東区","jp_add_2":"小池町"},"4650044":{"post_code":"4650044","prefecture":"AICHI KEN","city":"NAGOYA SHI MEITO KU","town":"KOIBORICHO","perfecture_jp":"愛知県","jp_add_1":"名古屋市名東区","jp_add_2":"小井堀町"},"4650007":{"post_code":"4650007","prefecture":"AICHI KEN","city":"NAGOYA SHI MEITO KU","town":"KOSAKA","perfecture_jp":"愛知県","jp_add_1":"名古屋市名東区","jp_add_2":"香坂"},"4650004":{"post_code":"4650004","prefecture":"AICHI KEN","city":"NAGOYA SHI MEITO KU","town":"KONAN","perfecture_jp":"愛知県","jp_add_1":"名古屋市名東区","jp_add_2":"香南"},"4650053":{"post_code":"4650053","prefecture":"AICHI KEN","city":"NAGOYA SHI MEITO KU","town":"GOKURAKU","perfecture_jp":"愛知県","jp_add_1":"名古屋市名東区","jp_add_2":"極楽"},"4650096":{"post_code":"4650096","prefecture":"AICHI KEN","city":"NAGOYA SHI MEITO KU","town":"SAKURAGAOKA","perfecture_jp":"愛知県","jp_add_1":"名古屋市名東区","jp_add_2":"桜が丘"},"4650074":{"post_code":"4650074","prefecture":"AICHI KEN","city":"NAGOYA SHI MEITO KU","town":"SANKOCHO","perfecture_jp":"愛知県","jp_add_1":"名古屋市名東区","jp_add_2":"山香町"},"4650006":{"post_code":"4650006","prefecture":"AICHI KEN","city":"NAGOYA SHI MEITO KU","town":"SHINGETSUCHO","perfecture_jp":"愛知県","jp_add_1":"名古屋市名東区","jp_add_2":"神月町"},"4650063":{"post_code":"4650063","prefecture":"AICHI KEN","city":"NAGOYA SHI MEITO KU","town":"SHINJUKU","perfecture_jp":"愛知県","jp_add_1":"名古屋市名東区","jp_add_2":"新宿"},"4650055":{"post_code":"4650055","prefecture":"AICHI KEN","city":"NAGOYA SHI MEITO KU","town":"SEKOBO","perfecture_jp":"愛知県","jp_add_1":"名古屋市名東区","jp_add_2":"勢子坊"},"4650086":{"post_code":"4650086","prefecture":"AICHI KEN","city":"NAGOYA SHI MEITO KU","town":"DAIMANCHO","perfecture_jp":"愛知県","jp_add_1":"名古屋市名東区","jp_add_2":"代万町"},"4650061":{"post_code":"4650061","prefecture":"AICHI KEN","city":"NAGOYA SHI MEITO KU","town":"TAKABARI","perfecture_jp":"愛知県","jp_add_1":"名古屋市名東区","jp_add_2":"高針"},"4650069":{"post_code":"4650069","prefecture":"AICHI KEN","city":"NAGOYA SHI MEITO KU","town":"TAKABARIARATA","perfecture_jp":"愛知県","jp_add_1":"名古屋市名東区","jp_add_2":"高針荒田"},"4650054":{"post_code":"4650054","prefecture":"AICHI KEN","city":"NAGOYA SHI MEITO KU","town":"TAKABARIDAI","perfecture_jp":"愛知県","jp_add_1":"名古屋市名東区","jp_add_2":"高針台"},"4650073":{"post_code":"4650073","prefecture":"AICHI KEN","city":"NAGOYA SHI MEITO KU","town":"TAKABARIHARA","perfecture_jp":"愛知県","jp_add_1":"名古屋市名東区","jp_add_2":"高針原"},"4650081":{"post_code":"4650081","prefecture":"AICHI KEN","city":"NAGOYA SHI MEITO KU","town":"TAKAMACHO","perfecture_jp":"愛知県","jp_add_1":"名古屋市名東区","jp_add_2":"高間町"},"4650095":{"post_code":"4650095","prefecture":"AICHI KEN","city":"NAGOYA SHI MEITO KU","town":"TAKAYASHIRO","perfecture_jp":"愛知県","jp_add_1":"名古屋市名東区","jp_add_2":"高社"},"4650034":{"post_code":"4650034","prefecture":"AICHI KEN","city":"NAGOYA SHI MEITO KU","town":"TAKAYANAGICHO","perfecture_jp":"愛知県","jp_add_1":"名古屋市名東区","jp_add_2":"高柳町"},"4650043":{"post_code":"4650043","prefecture":"AICHI KEN","city":"NAGOYA SHI MEITO KU","town":"TAKARAGAOKA","perfecture_jp":"愛知県","jp_add_1":"名古屋市名東区","jp_add_2":"宝が丘"},"4650027":{"post_code":"4650027","prefecture":"AICHI KEN","city":"NAGOYA SHI MEITO KU","town":"CHODACHO","perfecture_jp":"愛知県","jp_add_1":"名古屋市名東区","jp_add_2":"丁田町"},"4650017":{"post_code":"4650017","prefecture":"AICHI KEN","city":"NAGOYA SHI MEITO KU","town":"TSUTSUJIGAOKA","perfecture_jp":"愛知県","jp_add_1":"名古屋市名東区","jp_add_2":"つつじが丘"},"4650042":{"post_code":"4650042","prefecture":"AICHI KEN","city":"NAGOYA SHI MEITO KU","town":"TERUGAOKA","perfecture_jp":"愛知県","jp_add_1":"名古屋市名東区","jp_add_2":"照が丘"},"4650009":{"post_code":"4650009","prefecture":"AICHI KEN","city":"NAGOYA SHI MEITO KU","town":"TENJINSHITA","perfecture_jp":"愛知県","jp_add_1":"名古屋市名東区","jp_add_2":"天神下"},"4650031":{"post_code":"4650031","prefecture":"AICHI KEN","city":"NAGOYA SHI MEITO KU","town":"TOMIGAOKA","perfecture_jp":"愛知県","jp_add_1":"名古屋市名東区","jp_add_2":"富が丘"},"4650084":{"post_code":"4650084","prefecture":"AICHI KEN","city":"NAGOYA SHI MEITO KU","town":"NISHISATOCHO","perfecture_jp":"愛知県","jp_add_1":"名古屋市名東区","jp_add_2":"西里町"},"4650071":{"post_code":"4650071","prefecture":"AICHI KEN","city":"NAGOYA SHI MEITO KU","town":"NISHIYAMADAI","perfecture_jp":"愛知県","jp_add_1":"名古屋市名東区","jp_add_2":"西山台"},"4650085":{"post_code":"4650085","prefecture":"AICHI KEN","city":"NAGOYA SHI MEITO KU","town":"NISHIYAMAHONTORI","perfecture_jp":"愛知県","jp_add_1":"名古屋市名東区","jp_add_2":"西山本通"},"4650078":{"post_code":"4650078","prefecture":"AICHI KEN","city":"NAGOYA SHI MEITO KU","town":"NIJIGAOKA","perfecture_jp":"愛知県","jp_add_1":"名古屋市名東区","jp_add_2":"にじが丘"},"4650046":{"post_code":"4650046","prefecture":"AICHI KEN","city":"NAGOYA SHI MEITO KU","town":"NOZOMIGAOKA","perfecture_jp":"愛知県","jp_add_1":"名古屋市名東区","jp_add_2":"望が丘"},"4650056":{"post_code":"4650056","prefecture":"AICHI KEN","city":"NAGOYA SHI MEITO KU","town":"NOMACHO","perfecture_jp":"愛知県","jp_add_1":"名古屋市名東区","jp_add_2":"野間町"},"4650018":{"post_code":"4650018","prefecture":"AICHI KEN","city":"NAGOYA SHI MEITO KU","town":"HACHIMAE","perfecture_jp":"愛知県","jp_add_1":"名古屋市名東区","jp_add_2":"八前"},"4650002":{"post_code":"4650002","prefecture":"AICHI KEN","city":"NAGOYA SHI MEITO KU","town":"HIKIYAMA","perfecture_jp":"愛知県","jp_add_1":"名古屋市名東区","jp_add_2":"引山"},"4650045":{"post_code":"4650045","prefecture":"AICHI KEN","city":"NAGOYA SHI MEITO KU","town":"HIMEWAKACHO","perfecture_jp":"愛知県","jp_add_1":"名古屋市名東区","jp_add_2":"姫若町"},"4650037":{"post_code":"4650037","prefecture":"AICHI KEN","city":"NAGOYA SHI MEITO KU","town":"FUJIKACHO","perfecture_jp":"愛知県","jp_add_1":"名古屋市名東区","jp_add_2":"藤香町"},"4650032":{"post_code":"4650032","prefecture":"AICHI KEN","city":"NAGOYA SHI MEITO KU","town":"FUJIGAOKA","perfecture_jp":"愛知県","jp_add_1":"名古屋市名東区","jp_add_2":"藤が丘"},"4650036":{"post_code":"4650036","prefecture":"AICHI KEN","city":"NAGOYA SHI MEITO KU","town":"FUJISATOCHO","perfecture_jp":"愛知県","jp_add_1":"名古屋市名東区","jp_add_2":"藤里町"},"4650075":{"post_code":"4650075","prefecture":"AICHI KEN","city":"NAGOYA SHI MEITO KU","town":"FUJIMAKICHO","perfecture_jp":"愛知県","jp_add_1":"名古屋市名東区","jp_add_2":"藤巻町"},"4650048":{"post_code":"4650048","prefecture":"AICHI KEN","city":"NAGOYA SHI MEITO KU","town":"FUJIMIGAOKA","perfecture_jp":"愛知県","jp_add_1":"名古屋市名東区","jp_add_2":"藤見が丘"},"4650026":{"post_code":"4650026","prefecture":"AICHI KEN","city":"NAGOYA SHI MEITO KU","town":"FUJIMORI","perfecture_jp":"愛知県","jp_add_1":"名古屋市名東区","jp_add_2":"藤森"},"4650022":{"post_code":"4650022","prefecture":"AICHI KEN","city":"NAGOYA SHI MEITO KU","town":"FUJIMORINISHIMACHI","perfecture_jp":"愛知県","jp_add_1":"名古屋市名東区","jp_add_2":"藤森西町"},"4650012":{"post_code":"4650012","prefecture":"AICHI KEN","city":"NAGOYA SHI MEITO KU","town":"BUNKYODAI","perfecture_jp":"愛知県","jp_add_1":"名古屋市名東区","jp_add_2":"文教台"},"4650097":{"post_code":"4650097","prefecture":"AICHI KEN","city":"NAGOYA SHI MEITO KU","town":"HEIWAGAOKA","perfecture_jp":"愛知県","jp_add_1":"名古屋市名東区","jp_add_2":"平和が丘"},"4650024":{"post_code":"4650024","prefecture":"AICHI KEN","city":"NAGOYA SHI MEITO KU","town":"HONGO","perfecture_jp":"愛知県","jp_add_1":"名古屋市名東区","jp_add_2":"本郷"},"4650068":{"post_code":"4650068","prefecture":"AICHI KEN","city":"NAGOYA SHI MEITO KU","town":"MAKINOSATO","perfecture_jp":"愛知県","jp_add_1":"名古屋市名東区","jp_add_2":"牧の里"},"4650072":{"post_code":"4650072","prefecture":"AICHI KEN","city":"NAGOYA SHI MEITO KU","town":"MAKINOHARA","perfecture_jp":"愛知県","jp_add_1":"名古屋市名東区","jp_add_2":"牧の原"},"4650062":{"post_code":"4650062","prefecture":"AICHI KEN","city":"NAGOYA SHI MEITO KU","town":"MATSUICHO","perfecture_jp":"愛知県","jp_add_1":"名古屋市名東区","jp_add_2":"松井町"},"4650087":{"post_code":"4650087","prefecture":"AICHI KEN","city":"NAGOYA SHI MEITO KU","town":"MEITOHONDORI","perfecture_jp":"愛知県","jp_add_1":"名古屋市名東区","jp_add_2":"名東本通"},"4650088":{"post_code":"4650088","prefecture":"AICHI KEN","city":"NAGOYA SHI MEITO KU","town":"MEITOHOMMACHI","perfecture_jp":"愛知県","jp_add_1":"名古屋市名東区","jp_add_2":"名東本町"},"4650051":{"post_code":"4650051","prefecture":"AICHI KEN","city":"NAGOYA SHI MEITO KU","town":"YASHIROGAOKA","perfecture_jp":"愛知県","jp_add_1":"名古屋市名東区","jp_add_2":"社が丘"},"4650013":{"post_code":"4650013","prefecture":"AICHI KEN","city":"NAGOYA SHI MEITO KU","town":"YASHIROGUCHI","perfecture_jp":"愛知県","jp_add_1":"名古屋市名東区","jp_add_2":"社口"},"4650092":{"post_code":"4650092","prefecture":"AICHI KEN","city":"NAGOYA SHI MEITO KU","town":"YASHIRODAI","perfecture_jp":"愛知県","jp_add_1":"名古屋市名東区","jp_add_2":"社台"},"4650011":{"post_code":"4650011","prefecture":"AICHI KEN","city":"NAGOYA SHI MEITO KU","town":"YAMANOTE","perfecture_jp":"愛知県","jp_add_1":"名古屋市名東区","jp_add_2":"山の手"},"4650035":{"post_code":"4650035","prefecture":"AICHI KEN","city":"NAGOYA SHI MEITO KU","town":"YUTAKAGAOKA","perfecture_jp":"愛知県","jp_add_1":"名古屋市名東区","jp_add_2":"豊が丘"},"4650091":{"post_code":"4650091","prefecture":"AICHI KEN","city":"NAGOYA SHI MEITO KU","town":"YOMOGIDAI","perfecture_jp":"愛知県","jp_add_1":"名古屋市名東区","jp_add_2":"よもぎ台"},"4650057":{"post_code":"4650057","prefecture":"AICHI KEN","city":"NAGOYA SHI MEITO KU","town":"RIKUMAECHO","perfecture_jp":"愛知県","jp_add_1":"名古屋市名東区","jp_add_2":"陸前町"},"4650015":{"post_code":"4650015","prefecture":"AICHI KEN","city":"NAGOYA SHI MEITO KU","town":"WAKABADAI","perfecture_jp":"愛知県","jp_add_1":"名古屋市名東区","jp_add_2":"若葉台"}}