{"4660000":{"post_code":"4660000","prefecture":"AICHI KEN","city":"NAGOYA SHI SHOWA KU","town":"IKANIKEISAIGANAIBAAI","perfecture_jp":"愛知県","jp_add_1":"名古屋市昭和区","jp_add_2":""},"4660003":{"post_code":"4660003","prefecture":"AICHI KEN","city":"NAGOYA SHI SHOWA KU","town":"AKEBONOCHO","perfecture_jp":"愛知県","jp_add_1":"名古屋市昭和区","jp_add_2":"曙町"},"4660027":{"post_code":"4660027","prefecture":"AICHI KEN","city":"NAGOYA SHI SHOWA KU","town":"AYUCHITORI","perfecture_jp":"愛知県","jp_add_1":"名古屋市昭和区","jp_add_2":"阿由知通"},"4660844":{"post_code":"4660844","prefecture":"AICHI KEN","city":"NAGOYA SHI SHOWA KU","town":"ARATACHO","perfecture_jp":"愛知県","jp_add_1":"名古屋市昭和区","jp_add_2":"荒田町"},"4660805":{"post_code":"4660805","prefecture":"AICHI KEN","city":"NAGOYA SHI SHOWA KU","town":"IKATSUCHO","perfecture_jp":"愛知県","jp_add_1":"名古屋市昭和区","jp_add_2":"伊勝町"},"4660043":{"post_code":"4660043","prefecture":"AICHI KEN","city":"NAGOYA SHI SHOWA KU","town":"IKEBATACHO","perfecture_jp":"愛知県","jp_add_1":"名古屋市昭和区","jp_add_2":"池端町"},"4660023":{"post_code":"4660023","prefecture":"AICHI KEN","city":"NAGOYA SHI SHOWA KU","town":"ISHIBOTOKECHO","perfecture_jp":"愛知県","jp_add_1":"名古屋市昭和区","jp_add_2":"石仏町"},"4660047":{"post_code":"4660047","prefecture":"AICHI KEN","city":"NAGOYA SHI SHOWA KU","town":"EIKINCHO","perfecture_jp":"愛知県","jp_add_1":"名古屋市昭和区","jp_add_2":"永金町"},"4660037":{"post_code":"4660037","prefecture":"AICHI KEN","city":"NAGOYA SHI SHOWA KU","town":"EHOCHO","perfecture_jp":"愛知県","jp_add_1":"名古屋市昭和区","jp_add_2":"恵方町"},"4660054":{"post_code":"4660054","prefecture":"AICHI KEN","city":"NAGOYA SHI SHOWA KU","town":"ENJOCHO","perfecture_jp":"愛知県","jp_add_1":"名古屋市昭和区","jp_add_2":"円上町"},"4660858":{"post_code":"4660858","prefecture":"AICHI KEN","city":"NAGOYA SHI SHOWA KU","town":"ORIDOCHO","perfecture_jp":"愛知県","jp_add_1":"名古屋市昭和区","jp_add_2":"折戸町"},"4660802":{"post_code":"4660802","prefecture":"AICHI KEN","city":"NAGOYA SHI SHOWA KU","town":"KAMIMURACHO","perfecture_jp":"愛知県","jp_add_1":"名古屋市昭和区","jp_add_2":"神村町"},"4660836":{"post_code":"4660836","prefecture":"AICHI KEN","city":"NAGOYA SHI SHOWA KU","town":"KAMIYAMACHO","perfecture_jp":"愛知県","jp_add_1":"名古屋市昭和区","jp_add_2":"上山町"},"4660856":{"post_code":"4660856","prefecture":"AICHI KEN","city":"NAGOYA SHI SHOWA KU","town":"KAWANACHO","perfecture_jp":"愛知県","jp_add_1":"名古屋市昭和区","jp_add_2":"川名町"},"4660855":{"post_code":"4660855","prefecture":"AICHI KEN","city":"NAGOYA SHI SHOWA KU","town":"KAWANAHOMMACHI","perfecture_jp":"愛知県","jp_add_1":"名古屋市昭和区","jp_add_2":"川名本町"},"4660827":{"post_code":"4660827","prefecture":"AICHI KEN","city":"NAGOYA SHI SHOWA KU","town":"KAWANAYAMACHO","perfecture_jp":"愛知県","jp_add_1":"名古屋市昭和区","jp_add_2":"川名山町"},"4660853":{"post_code":"4660853","prefecture":"AICHI KEN","city":"NAGOYA SHI SHOWA KU","town":"KAWAHARATORI","perfecture_jp":"愛知県","jp_add_1":"名古屋市昭和区","jp_add_2":"川原通"},"4660843":{"post_code":"4660843","prefecture":"AICHI KEN","city":"NAGOYA SHI SHOWA KU","town":"KIKUZONOCHO","perfecture_jp":"愛知県","jp_add_1":"名古屋市昭和区","jp_add_2":"菊園町"},"4660006":{"post_code":"4660006","prefecture":"AICHI KEN","city":"NAGOYA SHI SHOWA KU","town":"KITAYAMACHO","perfecture_jp":"愛知県","jp_add_1":"名古屋市昭和区","jp_add_2":"北山町"},"4660016":{"post_code":"4660016","prefecture":"AICHI KEN","city":"NAGOYA SHI SHOWA KU","town":"KITAYAMAHOMMACHI","perfecture_jp":"愛知県","jp_add_1":"名古屋市昭和区","jp_add_2":"北山本町"},"4660001":{"post_code":"4660001","prefecture":"AICHI KEN","city":"NAGOYA SHI SHOWA KU","town":"KURUMADACHO","perfecture_jp":"愛知県","jp_add_1":"名古屋市昭和区","jp_add_2":"車田町"},"4660031":{"post_code":"4660031","prefecture":"AICHI KEN","city":"NAGOYA SHI SHOWA KU","town":"KOBAICHO","perfecture_jp":"愛知県","jp_add_1":"名古屋市昭和区","jp_add_2":"紅梅町"},"4660051":{"post_code":"4660051","prefecture":"AICHI KEN","city":"NAGOYA SHI SHOWA KU","town":"GOKISO","perfecture_jp":"愛知県","jp_add_1":"名古屋市昭和区","jp_add_2":"御器所"},"4660061":{"post_code":"4660061","prefecture":"AICHI KEN","city":"NAGOYA SHI SHOWA KU","town":"GOKISOCHO","perfecture_jp":"愛知県","jp_add_1":"名古屋市昭和区","jp_add_2":"御器所町"},"4660015":{"post_code":"4660015","prefecture":"AICHI KEN","city":"NAGOYA SHI SHOWA KU","town":"GOKISOTORI","perfecture_jp":"愛知県","jp_add_1":"名古屋市昭和区","jp_add_2":"御器所通"},"4660838":{"post_code":"4660838","prefecture":"AICHI KEN","city":"NAGOYA SHI SHOWA KU","town":"GOKENYACHO","perfecture_jp":"愛知県","jp_add_1":"名古屋市昭和区","jp_add_2":"五軒家町"},"4660021":{"post_code":"4660021","prefecture":"AICHI KEN","city":"NAGOYA SHI SHOWA KU","town":"KOSAKACHO","perfecture_jp":"愛知県","jp_add_1":"名古屋市昭和区","jp_add_2":"小坂町"},"4660012":{"post_code":"4660012","prefecture":"AICHI KEN","city":"NAGOYA SHI SHOWA KU","town":"KOSAKURACHO","perfecture_jp":"愛知県","jp_add_1":"名古屋市昭和区","jp_add_2":"小桜町"},"4660832":{"post_code":"4660832","prefecture":"AICHI KEN","city":"NAGOYA SHI SHOWA KU","town":"KOMAGATACHO","perfecture_jp":"愛知県","jp_add_1":"名古屋市昭和区","jp_add_2":"駒方町"},"4660044":{"post_code":"4660044","prefecture":"AICHI KEN","city":"NAGOYA SHI SHOWA KU","town":"SAKURAYAMACHO","perfecture_jp":"愛知県","jp_add_1":"名古屋市昭和区","jp_add_2":"桜山町"},"4660022":{"post_code":"4660022","prefecture":"AICHI KEN","city":"NAGOYA SHI SHOWA KU","town":"SHIOTSUKETORI","perfecture_jp":"愛知県","jp_add_1":"名古屋市昭和区","jp_add_2":"塩付通"},"4660837":{"post_code":"4660837","prefecture":"AICHI KEN","city":"NAGOYA SHI SHOWA KU","town":"SHIOMICHO","perfecture_jp":"愛知県","jp_add_1":"名古屋市昭和区","jp_add_2":"汐見町"},"4660025":{"post_code":"4660025","prefecture":"AICHI KEN","city":"NAGOYA SHI SHOWA KU","town":"SHIMOGAMAECHO","perfecture_jp":"愛知県","jp_add_1":"名古屋市昭和区","jp_add_2":"下構町"},"4660058":{"post_code":"4660058","prefecture":"AICHI KEN","city":"NAGOYA SHI SHOWA KU","town":"SHIRAKANE","perfecture_jp":"愛知県","jp_add_1":"名古屋市昭和区","jp_add_2":"白金"},"4660033":{"post_code":"4660033","prefecture":"AICHI KEN","city":"NAGOYA SHI SHOWA KU","town":"DAIMACHI","perfecture_jp":"愛知県","jp_add_1":"名古屋市昭和区","jp_add_2":"台町"},"4660801":{"post_code":"4660801","prefecture":"AICHI KEN","city":"NAGOYA SHI SHOWA KU","town":"TAOMOCHO","perfecture_jp":"愛知県","jp_add_1":"名古屋市昭和区","jp_add_2":"田面町"},"4660057":{"post_code":"4660057","prefecture":"AICHI KEN","city":"NAGOYA SHI SHOWA KU","town":"TAKATSUJICHO","perfecture_jp":"愛知県","jp_add_1":"名古屋市昭和区","jp_add_2":"高辻町"},"4660811":{"post_code":"4660811","prefecture":"AICHI KEN","city":"NAGOYA SHI SHOWA KU","town":"TAKAMINECHO","perfecture_jp":"愛知県","jp_add_1":"名古屋市昭和区","jp_add_2":"高峯町"},"4660826":{"post_code":"4660826","prefecture":"AICHI KEN","city":"NAGOYA SHI SHOWA KU","town":"TAKIKAWACHO","perfecture_jp":"愛知県","jp_add_1":"名古屋市昭和区","jp_add_2":"滝川町"},"4660053":{"post_code":"4660053","prefecture":"AICHI KEN","city":"NAGOYA SHI SHOWA KU","town":"TAKIKOCHO","perfecture_jp":"愛知県","jp_add_1":"名古屋市昭和区","jp_add_2":"滝子町"},"4660055":{"post_code":"4660055","prefecture":"AICHI KEN","city":"NAGOYA SHI SHOWA KU","town":"TAKIGOTORI","perfecture_jp":"愛知県","jp_add_1":"名古屋市昭和区","jp_add_2":"滝子通"},"4660842":{"post_code":"4660842","prefecture":"AICHI KEN","city":"NAGOYA SHI SHOWA KU","town":"DANKEITORI","perfecture_jp":"愛知県","jp_add_1":"名古屋市昭和区","jp_add_2":"檀溪通"},"4660011":{"post_code":"4660011","prefecture":"AICHI KEN","city":"NAGOYA SHI SHOWA KU","town":"TSURUHACHO","perfecture_jp":"愛知県","jp_add_1":"名古屋市昭和区","jp_add_2":"鶴羽町"},"4660064":{"post_code":"4660064","prefecture":"AICHI KEN","city":"NAGOYA SHI SHOWA KU","town":"TSURUMAI","perfecture_jp":"愛知県","jp_add_1":"名古屋市昭和区","jp_add_2":"鶴舞"},"4660065":{"post_code":"4660065","prefecture":"AICHI KEN","city":"NAGOYA SHI SHOWA KU","town":"TSURUMAICHO","perfecture_jp":"愛知県","jp_add_1":"名古屋市昭和区","jp_add_2":"鶴舞町"},"4660041":{"post_code":"4660041","prefecture":"AICHI KEN","city":"NAGOYA SHI SHOWA KU","town":"DEGUCHICHO","perfecture_jp":"愛知県","jp_add_1":"名古屋市昭和区","jp_add_2":"出口町"},"4660032":{"post_code":"4660032","prefecture":"AICHI KEN","city":"NAGOYA SHI SHOWA KU","town":"TENJINCHO","perfecture_jp":"愛知県","jp_add_1":"名古屋市昭和区","jp_add_2":"天神町"},"4660056":{"post_code":"4660056","prefecture":"AICHI KEN","city":"NAGOYA SHI SHOWA KU","town":"TOKOTORI","perfecture_jp":"愛知県","jp_add_1":"名古屋市昭和区","jp_add_2":"東郊通"},"4660026":{"post_code":"4660026","prefecture":"AICHI KEN","city":"NAGOYA SHI SHOWA KU","town":"TOSEICHO","perfecture_jp":"愛知県","jp_add_1":"名古屋市昭和区","jp_add_2":"陶生町"},"4660014":{"post_code":"4660014","prefecture":"AICHI KEN","city":"NAGOYA SHI SHOWA KU","town":"TOHATACHO","perfecture_jp":"愛知県","jp_add_1":"名古屋市昭和区","jp_add_2":"東畑町"},"4660846":{"post_code":"4660846","prefecture":"AICHI KEN","city":"NAGOYA SHI SHOWA KU","town":"TODACHO","perfecture_jp":"愛知県","jp_add_1":"名古屋市昭和区","jp_add_2":"戸田町"},"4660847":{"post_code":"4660847","prefecture":"AICHI KEN","city":"NAGOYA SHI SHOWA KU","town":"NAGAIKECHO","perfecture_jp":"愛知県","jp_add_1":"名古屋市昭和区","jp_add_2":"長池町"},"4660848":{"post_code":"4660848","prefecture":"AICHI KEN","city":"NAGOYA SHI SHOWA KU","town":"NAGATOCHO","perfecture_jp":"愛知県","jp_add_1":"名古屋市昭和区","jp_add_2":"長戸町"},"4660806":{"post_code":"4660806","prefecture":"AICHI KEN","city":"NAGOYA SHI SHOWA KU","town":"NISHIBATACHO","perfecture_jp":"愛知県","jp_add_1":"名古屋市昭和区","jp_add_2":"西畑町"},"4660852":{"post_code":"4660852","prefecture":"AICHI KEN","city":"NAGOYA SHI SHOWA KU","town":"HAGIWARACHO","perfecture_jp":"愛知県","jp_add_1":"名古屋市昭和区","jp_add_2":"萩原町"},"4660062":{"post_code":"4660062","prefecture":"AICHI KEN","city":"NAGOYA SHI SHOWA KU","town":"HAZAMACHO","perfecture_jp":"愛知県","jp_add_1":"名古屋市昭和区","jp_add_2":"狭間町"},"4660831":{"post_code":"4660831","prefecture":"AICHI KEN","city":"NAGOYA SHI SHOWA KU","town":"HANAMITORI","perfecture_jp":"愛知県","jp_add_1":"名古屋市昭和区","jp_add_2":"花見通"},"4660833":{"post_code":"4660833","prefecture":"AICHI KEN","city":"NAGOYA SHI SHOWA KU","town":"HAYATOCHO","perfecture_jp":"愛知県","jp_add_1":"名古屋市昭和区","jp_add_2":"隼人町"},"4660042":{"post_code":"4660042","prefecture":"AICHI KEN","city":"NAGOYA SHI SHOWA KU","town":"HIROIKECHO","perfecture_jp":"愛知県","jp_add_1":"名古屋市昭和区","jp_add_2":"広池町"},"4660834":{"post_code":"4660834","prefecture":"AICHI KEN","city":"NAGOYA SHI SHOWA KU","town":"HIROJICHO","perfecture_jp":"愛知県","jp_add_1":"名古屋市昭和区","jp_add_2":"広路町"},"4660854":{"post_code":"4660854","prefecture":"AICHI KEN","city":"NAGOYA SHI SHOWA KU","town":"HIROJITORI","perfecture_jp":"愛知県","jp_add_1":"名古屋市昭和区","jp_add_2":"広路通"},"4660841":{"post_code":"4660841","prefecture":"AICHI KEN","city":"NAGOYA SHI SHOWA KU","town":"HIROJIHOMMACHI","perfecture_jp":"愛知県","jp_add_1":"名古屋市昭和区","jp_add_2":"広路本町"},"4660004":{"post_code":"4660004","prefecture":"AICHI KEN","city":"NAGOYA SHI SHOWA KU","town":"HIROSECHO","perfecture_jp":"愛知県","jp_add_1":"名古屋市昭和区","jp_add_2":"広瀬町"},"4660046":{"post_code":"4660046","prefecture":"AICHI KEN","city":"NAGOYA SHI SHOWA KU","town":"HIROMICHO","perfecture_jp":"愛知県","jp_add_1":"名古屋市昭和区","jp_add_2":"広見町"},"4660002":{"post_code":"4660002","prefecture":"AICHI KEN","city":"NAGOYA SHI SHOWA KU","town":"FUKIAGECHO","perfecture_jp":"愛知県","jp_add_1":"名古屋市昭和区","jp_add_2":"吹上町"},"4660059":{"post_code":"4660059","prefecture":"AICHI KEN","city":"NAGOYA SHI SHOWA KU","town":"FUKUE","perfecture_jp":"愛知県","jp_add_1":"名古屋市昭和区","jp_add_2":"福江"},"4660803":{"post_code":"4660803","prefecture":"AICHI KEN","city":"NAGOYA SHI SHOWA KU","town":"FUKUHARACHO","perfecture_jp":"愛知県","jp_add_1":"名古屋市昭和区","jp_add_2":"福原町"},"4660845":{"post_code":"4660845","prefecture":"AICHI KEN","city":"NAGOYA SHI SHOWA KU","town":"FUJINARITORI","perfecture_jp":"愛知県","jp_add_1":"名古屋市昭和区","jp_add_2":"藤成通"},"4660821":{"post_code":"4660821","prefecture":"AICHI KEN","city":"NAGOYA SHI SHOWA KU","town":"MAEYAMACHO","perfecture_jp":"愛知県","jp_add_1":"名古屋市昭和区","jp_add_2":"前山町"},"4660035":{"post_code":"4660035","prefecture":"AICHI KEN","city":"NAGOYA SHI SHOWA KU","town":"MATSUKAZECHO","perfecture_jp":"愛知県","jp_add_1":"名古屋市昭和区","jp_add_2":"松風町"},"4660045":{"post_code":"4660045","prefecture":"AICHI KEN","city":"NAGOYA SHI SHOWA KU","town":"MARUYACHO","perfecture_jp":"愛知県","jp_add_1":"名古屋市昭和区","jp_add_2":"丸屋町"},"4660013":{"post_code":"4660013","prefecture":"AICHI KEN","city":"NAGOYA SHI SHOWA KU","town":"MIDORICHO","perfecture_jp":"愛知県","jp_add_1":"名古屋市昭和区","jp_add_2":"緑町"},"4660835":{"post_code":"4660835","prefecture":"AICHI KEN","city":"NAGOYA SHI SHOWA KU","town":"MINAMIYAMACHO","perfecture_jp":"愛知県","jp_add_1":"名古屋市昭和区","jp_add_2":"南山町"},"4660849":{"post_code":"4660849","prefecture":"AICHI KEN","city":"NAGOYA SHI SHOWA KU","town":"MINAMIWAKECHO","perfecture_jp":"愛知県","jp_add_1":"名古屋市昭和区","jp_add_2":"南分町"},"4660804":{"post_code":"4660804","prefecture":"AICHI KEN","city":"NAGOYA SHI SHOWA KU","town":"MIYAHIGASHICHO","perfecture_jp":"愛知県","jp_add_1":"名古屋市昭和区","jp_add_2":"宮東町"},"4660814":{"post_code":"4660814","prefecture":"AICHI KEN","city":"NAGOYA SHI SHOWA KU","town":"MYOKENCHO","perfecture_jp":"愛知県","jp_add_1":"名古屋市昭和区","jp_add_2":"妙見町"},"4660829":{"post_code":"4660829","prefecture":"AICHI KEN","city":"NAGOYA SHI SHOWA KU","town":"MUKAIYAMACHO","perfecture_jp":"愛知県","jp_add_1":"名古屋市昭和区","jp_add_2":"向山町"},"4660052":{"post_code":"4660052","prefecture":"AICHI KEN","city":"NAGOYA SHI SHOWA KU","town":"MURAKUMOCHO","perfecture_jp":"愛知県","jp_add_1":"名古屋市昭和区","jp_add_2":"村雲町"},"4660034":{"post_code":"4660034","prefecture":"AICHI KEN","city":"NAGOYA SHI SHOWA KU","town":"MEIGETSUCHO","perfecture_jp":"愛知県","jp_add_1":"名古屋市昭和区","jp_add_2":"明月町"},"4660851":{"post_code":"4660851","prefecture":"AICHI KEN","city":"NAGOYA SHI SHOWA KU","town":"MOTOMIYACHO","perfecture_jp":"愛知県","jp_add_1":"名古屋市昭和区","jp_add_2":"元宮町"},"4660823":{"post_code":"4660823","prefecture":"AICHI KEN","city":"NAGOYA SHI SHOWA KU","town":"YAKUMOCHO","perfecture_jp":"愛知県","jp_add_1":"名古屋市昭和区","jp_add_2":"八雲町"},"4660812":{"post_code":"4660812","prefecture":"AICHI KEN","city":"NAGOYA SHI SHOWA KU","town":"YAGOTOFUJIMI","perfecture_jp":"愛知県","jp_add_1":"名古屋市昭和区","jp_add_2":"八事富士見"},"4660825":{"post_code":"4660825","prefecture":"AICHI KEN","city":"NAGOYA SHI SHOWA KU","town":"YAGOTOHOMMACHI","perfecture_jp":"愛知県","jp_add_1":"名古屋市昭和区","jp_add_2":"八事本町"},"4660857":{"post_code":"4660857","prefecture":"AICHI KEN","city":"NAGOYA SHI SHOWA KU","town":"YASUDATORI","perfecture_jp":"愛知県","jp_add_1":"名古屋市昭和区","jp_add_2":"安田通"},"4660824":{"post_code":"4660824","prefecture":"AICHI KEN","city":"NAGOYA SHI SHOWA KU","town":"YAMAZATOCHO","perfecture_jp":"愛知県","jp_add_1":"名古屋市昭和区","jp_add_2":"山里町"},"4660024":{"post_code":"4660024","prefecture":"AICHI KEN","city":"NAGOYA SHI SHOWA KU","town":"YAMATOCHO","perfecture_jp":"愛知県","jp_add_1":"名古屋市昭和区","jp_add_2":"大和町"},"4660828":{"post_code":"4660828","prefecture":"AICHI KEN","city":"NAGOYA SHI SHOWA KU","town":"YAMANAKACHO","perfecture_jp":"愛知県","jp_add_1":"名古屋市昭和区","jp_add_2":"山中町"},"4660815":{"post_code":"4660815","prefecture":"AICHI KEN","city":"NAGOYA SHI SHOWA KU","town":"YAMANOTETORI","perfecture_jp":"愛知県","jp_add_1":"名古屋市昭和区","jp_add_2":"山手通"},"4660807":{"post_code":"4660807","prefecture":"AICHI KEN","city":"NAGOYA SHI SHOWA KU","town":"YAMAHANACHO","perfecture_jp":"愛知県","jp_add_1":"名古屋市昭和区","jp_add_2":"山花町"},"4660063":{"post_code":"4660063","prefecture":"AICHI KEN","city":"NAGOYA SHI SHOWA KU","town":"YAMAWAKICHO","perfecture_jp":"愛知県","jp_add_1":"名古屋市昭和区","jp_add_2":"山脇町"},"4660005":{"post_code":"4660005","prefecture":"AICHI KEN","city":"NAGOYA SHI SHOWA KU","town":"YUKIMICHO","perfecture_jp":"愛知県","jp_add_1":"名古屋市昭和区","jp_add_2":"雪見町"},"4660822":{"post_code":"4660822","prefecture":"AICHI KEN","city":"NAGOYA SHI SHOWA KU","town":"RAKUENCHO","perfecture_jp":"愛知県","jp_add_1":"名古屋市昭和区","jp_add_2":"楽園町"},"4660036":{"post_code":"4660036","prefecture":"AICHI KEN","city":"NAGOYA SHI SHOWA KU","town":"WAKAYAGICHO","perfecture_jp":"愛知県","jp_add_1":"名古屋市昭和区","jp_add_2":"若柳町"}}