{"4670000":{"post_code":"4670000","prefecture":"AICHI KEN","city":"NAGOYA SHI MIZUHO KU","town":"IKANIKEISAIGANAIBAAI","perfecture_jp":"愛知県","jp_add_1":"名古屋市瑞穂区","jp_add_2":""},"4670846":{"post_code":"4670846","prefecture":"AICHI KEN","city":"NAGOYA SHI MIZUHO KU","town":"ARASAKICHO","perfecture_jp":"愛知県","jp_add_1":"名古屋市瑞穂区","jp_add_2":"荒崎町"},"4670005":{"post_code":"4670005","prefecture":"AICHI KEN","city":"NAGOYA SHI MIZUHO KU","town":"ISHIKAWACHO","perfecture_jp":"愛知県","jp_add_1":"名古屋市瑞穂区","jp_add_2":"石川町"},"4670067":{"post_code":"4670067","prefecture":"AICHI KEN","city":"NAGOYA SHI MIZUHO KU","town":"ISHIDACHO","perfecture_jp":"愛知県","jp_add_1":"名古屋市瑞穂区","jp_add_2":"石田町"},"4670063":{"post_code":"4670063","prefecture":"AICHI KEN","city":"NAGOYA SHI MIZUHO KU","town":"ICHIOKACHO","perfecture_jp":"愛知県","jp_add_1":"名古屋市瑞穂区","jp_add_2":"市丘町"},"4670835":{"post_code":"4670835","prefecture":"AICHI KEN","city":"NAGOYA SHI MIZUHO KU","town":"IDOTACHO","perfecture_jp":"愛知県","jp_add_1":"名古屋市瑞穂区","jp_add_2":"井戸田町"},"4670057":{"post_code":"4670057","prefecture":"AICHI KEN","city":"NAGOYA SHI MIZUHO KU","town":"INOMOTOCHO","perfecture_jp":"愛知県","jp_add_1":"名古屋市瑞穂区","jp_add_2":"井の元町"},"4670045":{"post_code":"4670045","prefecture":"AICHI KEN","city":"NAGOYA SHI MIZUHO KU","town":"IBARAGICHO","perfecture_jp":"愛知県","jp_add_1":"名古屋市瑞穂区","jp_add_2":"茨木町"},"4670854":{"post_code":"4670854","prefecture":"AICHI KEN","city":"NAGOYA SHI MIZUHO KU","town":"UKISHIMACHO","perfecture_jp":"愛知県","jp_add_1":"名古屋市瑞穂区","jp_add_2":"浮島町"},"4670863":{"post_code":"4670863","prefecture":"AICHI KEN","city":"NAGOYA SHI MIZUHO KU","town":"USHIMAKICHO","perfecture_jp":"愛知県","jp_add_1":"名古屋市瑞穂区","jp_add_2":"牛巻町"},"4670068":{"post_code":"4670068","prefecture":"AICHI KEN","city":"NAGOYA SHI MIZUHO KU","town":"UCHIKATACHO","perfecture_jp":"愛知県","jp_add_1":"名古屋市瑞穂区","jp_add_2":"内方町"},"4670853":{"post_code":"4670853","prefecture":"AICHI KEN","city":"NAGOYA SHI MIZUHO KU","town":"UCHIHAMACHO","perfecture_jp":"愛知県","jp_add_1":"名古屋市瑞穂区","jp_add_2":"内浜町"},"4670874":{"post_code":"4670874","prefecture":"AICHI KEN","city":"NAGOYA SHI MIZUHO KU","town":"OTACHO","perfecture_jp":"愛知県","jp_add_1":"名古屋市瑞穂区","jp_add_2":"太田町"},"4670006":{"post_code":"4670006","prefecture":"AICHI KEN","city":"NAGOYA SHI MIZUHO KU","town":"OTABAKOCHO","perfecture_jp":"愛知県","jp_add_1":"名古屋市瑞穂区","jp_add_2":"御莨町"},"4670007":{"post_code":"4670007","prefecture":"AICHI KEN","city":"NAGOYA SHI MIZUHO KU","town":"OTODOMACHI","perfecture_jp":"愛知県","jp_add_1":"名古屋市瑞穂区","jp_add_2":"大殿町"},"4670833":{"post_code":"4670833","prefecture":"AICHI KEN","city":"NAGOYA SHI MIZUHO KU","town":"KAGITACHO","perfecture_jp":"愛知県","jp_add_1":"名古屋市瑞穂区","jp_add_2":"鍵田町"},"4670044":{"post_code":"4670044","prefecture":"AICHI KEN","city":"NAGOYA SHI MIZUHO KU","town":"KASHIWAGICHO","perfecture_jp":"愛知県","jp_add_1":"名古屋市瑞穂区","jp_add_2":"柏木町"},"4670052":{"post_code":"4670052","prefecture":"AICHI KEN","city":"NAGOYA SHI MIZUHO KU","town":"KATASAKACHO","perfecture_jp":"愛知県","jp_add_1":"名古屋市瑞穂区","jp_add_2":"片坂町"},"4670824":{"post_code":"4670824","prefecture":"AICHI KEN","city":"NAGOYA SHI MIZUHO KU","town":"KABUTOYAMACHO","perfecture_jp":"愛知県","jp_add_1":"名古屋市瑞穂区","jp_add_2":"甲山町"},"4670051":{"post_code":"4670051","prefecture":"AICHI KEN","city":"NAGOYA SHI MIZUHO KU","town":"KAMAZUKACHO","perfecture_jp":"愛知県","jp_add_1":"名古屋市瑞穂区","jp_add_2":"釜塚町"},"4670821":{"post_code":"4670821","prefecture":"AICHI KEN","city":"NAGOYA SHI MIZUHO KU","town":"KAMISAKACHO","perfecture_jp":"愛知県","jp_add_1":"名古屋市瑞穂区","jp_add_2":"上坂町"},"4670847":{"post_code":"4670847","prefecture":"AICHI KEN","city":"NAGOYA SHI MIZUHO KU","town":"KAMIHOCHO","perfecture_jp":"愛知県","jp_add_1":"名古屋市瑞穂区","jp_add_2":"神穂町"},"4670832":{"post_code":"4670832","prefecture":"AICHI KEN","city":"NAGOYA SHI MIZUHO KU","town":"KAMIMAECHO","perfecture_jp":"愛知県","jp_add_1":"名古屋市瑞穂区","jp_add_2":"神前町"},"4670022":{"post_code":"4670022","prefecture":"AICHI KEN","city":"NAGOYA SHI MIZUHO KU","town":"KAMIYAMACHO","perfecture_jp":"愛知県","jp_add_1":"名古屋市瑞穂区","jp_add_2":"上山町"},"4670876":{"post_code":"4670876","prefecture":"AICHI KEN","city":"NAGOYA SHI MIZUHO KU","town":"KAMESHIROCHO","perfecture_jp":"愛知県","jp_add_1":"名古屋市瑞穂区","jp_add_2":"亀城町"},"4670845":{"post_code":"4670845","prefecture":"AICHI KEN","city":"NAGOYA SHI MIZUHO KU","town":"KAWAGISHI","perfecture_jp":"愛知県","jp_add_1":"名古屋市瑞穂区","jp_add_2":"河岸"},"4670844":{"post_code":"4670844","prefecture":"AICHI KEN","city":"NAGOYA SHI MIZUHO KU","town":"KAWAGISHICHO","perfecture_jp":"愛知県","jp_add_1":"名古屋市瑞穂区","jp_add_2":"河岸町"},"4670002":{"post_code":"4670002","prefecture":"AICHI KEN","city":"NAGOYA SHI MIZUHO KU","town":"KAWASUMICHO","perfecture_jp":"愛知県","jp_add_1":"名古屋市瑞穂区","jp_add_2":"川澄町"},"4670877":{"post_code":"4670877","prefecture":"AICHI KEN","city":"NAGOYA SHI MIZUHO KU","town":"GAMMICHICHO","perfecture_jp":"愛知県","jp_add_1":"名古屋市瑞穂区","jp_add_2":"雁道町"},"4670811":{"post_code":"4670811","prefecture":"AICHI KEN","city":"NAGOYA SHI MIZUHO KU","town":"KITAHARACHO","perfecture_jp":"愛知県","jp_add_1":"名古屋市瑞穂区","jp_add_2":"北原町"},"4670059":{"post_code":"4670059","prefecture":"AICHI KEN","city":"NAGOYA SHI MIZUHO KU","town":"GUNSUICHO","perfecture_jp":"愛知県","jp_add_1":"名古屋市瑞穂区","jp_add_2":"軍水町"},"4670807":{"post_code":"4670807","prefecture":"AICHI KEN","city":"NAGOYA SHI MIZUHO KU","town":"KOMABACHO","perfecture_jp":"愛知県","jp_add_1":"名古屋市瑞穂区","jp_add_2":"駒場町"},"4670805":{"post_code":"4670805","prefecture":"AICHI KEN","city":"NAGOYA SHI MIZUHO KU","town":"SAKURAMICHO","perfecture_jp":"愛知県","jp_add_1":"名古屋市瑞穂区","jp_add_2":"桜見町"},"4670812":{"post_code":"4670812","prefecture":"AICHI KEN","city":"NAGOYA SHI MIZUHO KU","town":"SATSUMACHO","perfecture_jp":"愛知県","jp_add_1":"名古屋市瑞穂区","jp_add_2":"薩摩町"},"4670016":{"post_code":"4670016","prefecture":"AICHI KEN","city":"NAGOYA SHI MIZUHO KU","town":"SAWATARICHO","perfecture_jp":"愛知県","jp_add_1":"名古屋市瑞穂区","jp_add_2":"佐渡町"},"4670851":{"post_code":"4670851","prefecture":"AICHI KEN","city":"NAGOYA SHI MIZUHO KU","town":"SHIOIRICHO","perfecture_jp":"愛知県","jp_add_1":"名古屋市瑞穂区","jp_add_2":"塩入町"},"4670003":{"post_code":"4670003","prefecture":"AICHI KEN","city":"NAGOYA SHI MIZUHO KU","town":"SHIOJICHO","perfecture_jp":"愛知県","jp_add_1":"名古屋市瑞穂区","jp_add_2":"汐路町"},"4670827":{"post_code":"4670827","prefecture":"AICHI KEN","city":"NAGOYA SHI MIZUHO KU","town":"SHIMOSAKACHO","perfecture_jp":"愛知県","jp_add_1":"名古屋市瑞穂区","jp_add_2":"下坂町"},"4670049":{"post_code":"4670049","prefecture":"AICHI KEN","city":"NAGOYA SHI MIZUHO KU","town":"SHIMOYAMACHO","perfecture_jp":"愛知県","jp_add_1":"名古屋市瑞穂区","jp_add_2":"下山町"},"4670867":{"post_code":"4670867","prefecture":"AICHI KEN","city":"NAGOYA SHI MIZUHO KU","town":"SHUNKOCHO","perfecture_jp":"愛知県","jp_add_1":"名古屋市瑞穂区","jp_add_2":"春敲町"},"4670004":{"post_code":"4670004","prefecture":"AICHI KEN","city":"NAGOYA SHI MIZUHO KU","town":"SHOGETSUCHO","perfecture_jp":"愛知県","jp_add_1":"名古屋市瑞穂区","jp_add_2":"松月町"},"4670056":{"post_code":"4670056","prefecture":"AICHI KEN","city":"NAGOYA SHI MIZUHO KU","town":"SHIRASUNACHO","perfecture_jp":"愛知県","jp_add_1":"名古屋市瑞穂区","jp_add_2":"白砂町"},"4670014":{"post_code":"4670014","prefecture":"AICHI KEN","city":"NAGOYA SHI MIZUHO KU","town":"SHIRAHANECHO","perfecture_jp":"愛知県","jp_add_1":"名古屋市瑞穂区","jp_add_2":"白羽根町"},"4670856":{"post_code":"4670856","prefecture":"AICHI KEN","city":"NAGOYA SHI MIZUHO KU","town":"SHINKAICHO","perfecture_jp":"愛知県","jp_add_1":"名古屋市瑞穂区","jp_add_2":"新開町"},"4670804":{"post_code":"4670804","prefecture":"AICHI KEN","city":"NAGOYA SHI MIZUHO KU","town":"SUGUMOCHO","perfecture_jp":"愛知県","jp_add_1":"名古屋市瑞穂区","jp_add_2":"洲雲町"},"4670871":{"post_code":"4670871","prefecture":"AICHI KEN","city":"NAGOYA SHI MIZUHO KU","town":"SUDACHO","perfecture_jp":"愛知県","jp_add_1":"名古屋市瑞穂区","jp_add_2":"須田町"},"4670066":{"post_code":"4670066","prefecture":"AICHI KEN","city":"NAGOYA SHI MIZUHO KU","town":"SUYAMACHO","perfecture_jp":"愛知県","jp_add_1":"名古屋市瑞穂区","jp_add_2":"洲山町"},"4670058":{"post_code":"4670058","prefecture":"AICHI KEN","city":"NAGOYA SHI MIZUHO KU","town":"SEKITORICHO","perfecture_jp":"愛知県","jp_add_1":"名古屋市瑞穂区","jp_add_2":"関取町"},"4670013":{"post_code":"4670013","prefecture":"AICHI KEN","city":"NAGOYA SHI MIZUHO KU","town":"ZENDANACHO","perfecture_jp":"愛知県","jp_add_1":"名古屋市瑞穂区","jp_add_2":"膳棚町"},"4670831":{"post_code":"4670831","prefecture":"AICHI KEN","city":"NAGOYA SHI MIZUHO KU","town":"SOSAKUCHO","perfecture_jp":"愛知県","jp_add_1":"名古屋市瑞穂区","jp_add_2":"惣作町"},"4670015":{"post_code":"4670015","prefecture":"AICHI KEN","city":"NAGOYA SHI MIZUHO KU","town":"SOROCHO","perfecture_jp":"愛知県","jp_add_1":"名古屋市瑞穂区","jp_add_2":"十六町"},"4670868":{"post_code":"4670868","prefecture":"AICHI KEN","city":"NAGOYA SHI MIZUHO KU","town":"DAIGISHINCHO","perfecture_jp":"愛知県","jp_add_1":"名古屋市瑞穂区","jp_add_2":"大喜新町"},"4670822":{"post_code":"4670822","prefecture":"AICHI KEN","city":"NAGOYA SHI MIZUHO KU","town":"DAIGICHO","perfecture_jp":"愛知県","jp_add_1":"名古屋市瑞穂区","jp_add_2":"大喜町"},"4670808":{"post_code":"4670808","prefecture":"AICHI KEN","city":"NAGOYA SHI MIZUHO KU","town":"TAKATACHO","perfecture_jp":"愛知県","jp_add_1":"名古屋市瑞穂区","jp_add_2":"高田町"},"4670872":{"post_code":"4670872","prefecture":"AICHI KEN","city":"NAGOYA SHI MIZUHO KU","town":"TAKATSUJICHO","perfecture_jp":"愛知県","jp_add_1":"名古屋市瑞穂区","jp_add_2":"高辻町"},"4670873":{"post_code":"4670873","prefecture":"AICHI KEN","city":"NAGOYA SHI MIZUHO KU","town":"TAKEDACHO","perfecture_jp":"愛知県","jp_add_1":"名古屋市瑞穂区","jp_add_2":"竹田町"},"4670043":{"post_code":"4670043","prefecture":"AICHI KEN","city":"NAGOYA SHI MIZUHO KU","town":"TAKEMICHO","perfecture_jp":"愛知県","jp_add_1":"名古屋市瑞穂区","jp_add_2":"岳見町"},"4670828":{"post_code":"4670828","prefecture":"AICHI KEN","city":"NAGOYA SHI MIZUHO KU","town":"TAKOCHO","perfecture_jp":"愛知県","jp_add_1":"名古屋市瑞穂区","jp_add_2":"田光町"},"4670027":{"post_code":"4670027","prefecture":"AICHI KEN","city":"NAGOYA SHI MIZUHO KU","town":"TANABETORI","perfecture_jp":"愛知県","jp_add_1":"名古屋市瑞穂区","jp_add_2":"田辺通"},"4670046":{"post_code":"4670046","prefecture":"AICHI KEN","city":"NAGOYA SHI MIZUHO KU","town":"TAMAMIZUCHO","perfecture_jp":"愛知県","jp_add_1":"名古屋市瑞穂区","jp_add_2":"玉水町"},"4670021":{"post_code":"4670021","prefecture":"AICHI KEN","city":"NAGOYA SHI MIZUHO KU","town":"DANKEITORI","perfecture_jp":"愛知県","jp_add_1":"名古屋市瑞穂区","jp_add_2":"檀渓通"},"4670823":{"post_code":"4670823","prefecture":"AICHI KEN","city":"NAGOYA SHI MIZUHO KU","town":"TSUKATACHO","perfecture_jp":"愛知県","jp_add_1":"名古屋市瑞穂区","jp_add_2":"津賀田町"},"4670836":{"post_code":"4670836","prefecture":"AICHI KEN","city":"NAGOYA SHI MIZUHO KU","town":"TSUKUDACHO","perfecture_jp":"愛知県","jp_add_1":"名古屋市瑞穂区","jp_add_2":"佃町"},"4670843":{"post_code":"4670843","prefecture":"AICHI KEN","city":"NAGOYA SHI MIZUHO KU","town":"DOICHICHO","perfecture_jp":"愛知県","jp_add_1":"名古屋市瑞穂区","jp_add_2":"土市町"},"4670017":{"post_code":"4670017","prefecture":"AICHI KEN","city":"NAGOYA SHI MIZUHO KU","town":"TOEICHO","perfecture_jp":"愛知県","jp_add_1":"名古屋市瑞穂区","jp_add_2":"東栄町"},"4670012":{"post_code":"4670012","prefecture":"AICHI KEN","city":"NAGOYA SHI MIZUHO KU","town":"TOYOKADORI","perfecture_jp":"愛知県","jp_add_1":"名古屋市瑞穂区","jp_add_2":"豊岡通"},"4670841":{"post_code":"4670841","prefecture":"AICHI KEN","city":"NAGOYA SHI MIZUHO KU","town":"NAESHIROCHO","perfecture_jp":"愛知県","jp_add_1":"名古屋市瑞穂区","jp_add_2":"苗代町"},"4670865":{"post_code":"4670865","prefecture":"AICHI KEN","city":"NAGOYA SHI MIZUHO KU","town":"NAORAICHO","perfecture_jp":"愛知県","jp_add_1":"名古屋市瑞穂区","jp_add_2":"直来町"},"4670055":{"post_code":"4670055","prefecture":"AICHI KEN","city":"NAGOYA SHI MIZUHO KU","town":"NAKANECHO","perfecture_jp":"愛知県","jp_add_1":"名古屋市瑞穂区","jp_add_2":"中根町"},"4670803":{"post_code":"4670803","prefecture":"AICHI KEN","city":"NAGOYA SHI MIZUHO KU","town":"NAKAYAMACHO","perfecture_jp":"愛知県","jp_add_1":"名古屋市瑞穂区","jp_add_2":"中山町"},"4670813":{"post_code":"4670813","prefecture":"AICHI KEN","city":"NAGOYA SHI MIZUHO KU","town":"NISHINOWARICHO","perfecture_jp":"愛知県","jp_add_1":"名古屋市瑞穂区","jp_add_2":"西ノ割町"},"4670053":{"post_code":"4670053","prefecture":"AICHI KEN","city":"NAGOYA SHI MIZUHO KU","town":"NISHOCHO","perfecture_jp":"愛知県","jp_add_1":"名古屋市瑞穂区","jp_add_2":"仁所町"},"4670011":{"post_code":"4670011","prefecture":"AICHI KEN","city":"NAGOYA SHI MIZUHO KU","town":"HAGIYAMACHO","perfecture_jp":"愛知県","jp_add_1":"名古屋市瑞穂区","jp_add_2":"萩山町"},"4670826":{"post_code":"4670826","prefecture":"AICHI KEN","city":"NAGOYA SHI MIZUHO KU","town":"HAKURYUCHO","perfecture_jp":"愛知県","jp_add_1":"名古屋市瑞穂区","jp_add_2":"白龍町"},"4670042":{"post_code":"4670042","prefecture":"AICHI KEN","city":"NAGOYA SHI MIZUHO KU","town":"HASSHOTORI","perfecture_jp":"愛知県","jp_add_1":"名古屋市瑞穂区","jp_add_2":"八勝通"},"4670028":{"post_code":"4670028","prefecture":"AICHI KEN","city":"NAGOYA SHI MIZUHO KU","town":"HATSUHICHO","perfecture_jp":"愛知県","jp_add_1":"名古屋市瑞穂区","jp_add_2":"初日町"},"4670837":{"post_code":"4670837","prefecture":"AICHI KEN","city":"NAGOYA SHI MIZUHO KU","town":"HANAMECHO","perfecture_jp":"愛知県","jp_add_1":"名古屋市瑞穂区","jp_add_2":"花目町"},"4670024":{"post_code":"4670024","prefecture":"AICHI KEN","city":"NAGOYA SHI MIZUHO KU","town":"HARUYAMACHO","perfecture_jp":"愛知県","jp_add_1":"名古屋市瑞穂区","jp_add_2":"春山町"},"4670047":{"post_code":"4670047","prefecture":"AICHI KEN","city":"NAGOYA SHI MIZUHO KU","town":"HINATAMACHI","perfecture_jp":"愛知県","jp_add_1":"名古屋市瑞穂区","jp_add_2":"日向町"},"4670834":{"post_code":"4670834","prefecture":"AICHI KEN","city":"NAGOYA SHI MIZUHO KU","town":"HIMEMIYACHO","perfecture_jp":"愛知県","jp_add_1":"名古屋市瑞穂区","jp_add_2":"姫宮町"},"4670861":{"post_code":"4670861","prefecture":"AICHI KEN","city":"NAGOYA SHI MIZUHO KU","town":"FUTANOCHO","perfecture_jp":"愛知県","jp_add_1":"名古屋市瑞穂区","jp_add_2":"二野町"},"4670878":{"post_code":"4670878","prefecture":"AICHI KEN","city":"NAGOYA SHI MIZUHO KU","town":"FUNABARACHO","perfecture_jp":"愛知県","jp_add_1":"名古屋市瑞穂区","jp_add_2":"船原町"},"4670879":{"post_code":"4670879","prefecture":"AICHI KEN","city":"NAGOYA SHI MIZUHO KU","town":"HEIGOCHO","perfecture_jp":"愛知県","jp_add_1":"名古屋市瑞穂区","jp_add_2":"平郷町"},"4670866":{"post_code":"4670866","prefecture":"AICHI KEN","city":"NAGOYA SHI MIZUHO KU","town":"HODENCHO","perfecture_jp":"愛知県","jp_add_1":"名古屋市瑞穂区","jp_add_2":"宝田町"},"4670862":{"post_code":"4670862","prefecture":"AICHI KEN","city":"NAGOYA SHI MIZUHO KU","town":"HORITATORI","perfecture_jp":"愛知県","jp_add_1":"名古屋市瑞穂区","jp_add_2":"堀田通"},"4670814":{"post_code":"4670814","prefecture":"AICHI KEN","city":"NAGOYA SHI MIZUHO KU","town":"HONGANJICHO","perfecture_jp":"愛知県","jp_add_1":"名古屋市瑞穂区","jp_add_2":"本願寺町"},"4670815":{"post_code":"4670815","prefecture":"AICHI KEN","city":"NAGOYA SHI MIZUHO KU","town":"MAEDACHO","perfecture_jp":"愛知県","jp_add_1":"名古屋市瑞穂区","jp_add_2":"前田町"},"4670816":{"post_code":"4670816","prefecture":"AICHI KEN","city":"NAGOYA SHI MIZUHO KU","town":"MAKICHO","perfecture_jp":"愛知県","jp_add_1":"名古屋市瑞穂区","jp_add_2":"牧町"},"4670025":{"post_code":"4670025","prefecture":"AICHI KEN","city":"NAGOYA SHI MIZUHO KU","town":"MATSUSAKAECHO","perfecture_jp":"愛知県","jp_add_1":"名古屋市瑞穂区","jp_add_2":"松栄町"},"4670065":{"post_code":"4670065","prefecture":"AICHI KEN","city":"NAGOYA SHI MIZUHO KU","town":"MATSUSONOCHO","perfecture_jp":"愛知県","jp_add_1":"名古屋市瑞穂区","jp_add_2":"松園町"},"4670864":{"post_code":"4670864","prefecture":"AICHI KEN","city":"NAGOYA SHI MIZUHO KU","town":"MAMEDACHO","perfecture_jp":"愛知県","jp_add_1":"名古屋市瑞穂区","jp_add_2":"豆田町"},"4670054":{"post_code":"4670054","prefecture":"AICHI KEN","city":"NAGOYA SHI MIZUHO KU","town":"MARUNECHO","perfecture_jp":"愛知県","jp_add_1":"名古屋市瑞穂区","jp_add_2":"丸根町"},"4670041":{"post_code":"4670041","prefecture":"AICHI KEN","city":"NAGOYA SHI MIZUHO KU","town":"MIKANYAMACHO","perfecture_jp":"愛知県","jp_add_1":"名古屋市瑞穂区","jp_add_2":"密柑山町"},"4670001":{"post_code":"4670001","prefecture":"AICHI KEN","city":"NAGOYA SHI MIZUHO KU","town":"MIZUHOCHO(KAWASUMI)","perfecture_jp":"愛知県","jp_add_1":"名古屋市瑞穂区","jp_add_2":"瑞穂町"},"4670801":{"post_code":"4670801","prefecture":"AICHI KEN","city":"NAGOYA SHI MIZUHO KU","town":"MIZUHOCHO(NISHIFUJITSUKA)","perfecture_jp":"愛知県","jp_add_1":"名古屋市瑞穂区","jp_add_2":"瑞穂町"},"4670802":{"post_code":"4670802","prefecture":"AICHI KEN","city":"NAGOYA SHI MIZUHO KU","town":"MIZUHOCHO(YAMANOBATA)","perfecture_jp":"愛知県","jp_add_1":"名古屋市瑞穂区","jp_add_2":"瑞穂町"},"4670806":{"post_code":"4670806","prefecture":"AICHI KEN","city":"NAGOYA SHI MIZUHO KU","town":"MIZUHOTORI","perfecture_jp":"愛知県","jp_add_1":"名古屋市瑞穂区","jp_add_2":"瑞穂通"},"4670875":{"post_code":"4670875","prefecture":"AICHI KEN","city":"NAGOYA SHI MIZUHO KU","town":"MITSURUGICHO","perfecture_jp":"愛知県","jp_add_1":"名古屋市瑞穂区","jp_add_2":"御劔町"},"4670023":{"post_code":"4670023","prefecture":"AICHI KEN","city":"NAGOYA SHI MIZUHO KU","town":"MINAMIYAMACHO","perfecture_jp":"愛知県","jp_add_1":"名古屋市瑞穂区","jp_add_2":"南山町"},"4670842":{"post_code":"4670842","prefecture":"AICHI KEN","city":"NAGOYA SHI MIZUHO KU","town":"MYOONTORI","perfecture_jp":"愛知県","jp_add_1":"名古屋市瑞穂区","jp_add_2":"妙音通"},"4670008":{"post_code":"4670008","prefecture":"AICHI KEN","city":"NAGOYA SHI MIZUHO KU","town":"MURAKAMICHO","perfecture_jp":"愛知県","jp_add_1":"名古屋市瑞穂区","jp_add_2":"村上町"},"4670852":{"post_code":"4670852","prefecture":"AICHI KEN","city":"NAGOYA SHI MIZUHO KU","town":"MEIZENCHO","perfecture_jp":"愛知県","jp_add_1":"名古屋市瑞穂区","jp_add_2":"明前町"},"4670855":{"post_code":"4670855","prefecture":"AICHI KEN","city":"NAGOYA SHI MIZUHO KU","town":"MOMOZONOCHO","perfecture_jp":"愛知県","jp_add_1":"名古屋市瑞穂区","jp_add_2":"桃園町"},"4670061":{"post_code":"4670061","prefecture":"AICHI KEN","city":"NAGOYA SHI MIZUHO KU","town":"MORONAGACHO","perfecture_jp":"愛知県","jp_add_1":"名古屋市瑞穂区","jp_add_2":"師長町"},"4670048":{"post_code":"4670048","prefecture":"AICHI KEN","city":"NAGOYA SHI MIZUHO KU","town":"YATOMIGAOKACHO","perfecture_jp":"愛知県","jp_add_1":"名古屋市瑞穂区","jp_add_2":"弥富ケ丘町"},"4670036":{"post_code":"4670036","prefecture":"AICHI KEN","city":"NAGOYA SHI MIZUHO KU","town":"YATOMICHO MIKANYAMA","perfecture_jp":"愛知県","jp_add_1":"名古屋市瑞穂区","jp_add_2":"弥富町密柑山"},"4670039":{"post_code":"4670039","prefecture":"AICHI KEN","city":"NAGOYA SHI MIZUHO KU","town":"YATOMICHO IBARAYAMA","perfecture_jp":"愛知県","jp_add_1":"名古屋市瑞穂区","jp_add_2":"弥富町茨山"},"4670037":{"post_code":"4670037","prefecture":"AICHI KEN","city":"NAGOYA SHI MIZUHO KU","town":"YATOMICHO KAMIYAMA","perfecture_jp":"愛知県","jp_add_1":"名古屋市瑞穂区","jp_add_2":"弥富町上山"},"4670032":{"post_code":"4670032","prefecture":"AICHI KEN","city":"NAGOYA SHI MIZUHO KU","town":"YATOMICHO KOYOEN","perfecture_jp":"愛知県","jp_add_1":"名古屋市瑞穂区","jp_add_2":"弥富町紅葉園"},"4670034":{"post_code":"4670034","prefecture":"AICHI KEN","city":"NAGOYA SHI MIZUHO KU","town":"YATOMICHO SAKURAGAOKA","perfecture_jp":"愛知県","jp_add_1":"名古屋市瑞穂区","jp_add_2":"弥富町桜ケ岡"},"4670038":{"post_code":"4670038","prefecture":"AICHI KEN","city":"NAGOYA SHI MIZUHO KU","town":"YATOMICHO SHIMIZUGAOKA","perfecture_jp":"愛知県","jp_add_1":"名古屋市瑞穂区","jp_add_2":"弥富町清水ケ岡"},"4670035":{"post_code":"4670035","prefecture":"AICHI KEN","city":"NAGOYA SHI MIZUHO KU","town":"YATOMICHO TSUKIMIGAOKA","perfecture_jp":"愛知県","jp_add_1":"名古屋市瑞穂区","jp_add_2":"弥富町月見ケ岡"},"4670033":{"post_code":"4670033","prefecture":"AICHI KEN","city":"NAGOYA SHI MIZUHO KU","town":"YATOMICHO MARUYAMA","perfecture_jp":"愛知県","jp_add_1":"名古屋市瑞穂区","jp_add_2":"弥富町円山"},"4670031":{"post_code":"4670031","prefecture":"AICHI KEN","city":"NAGOYA SHI MIZUHO KU","town":"YATOMICHO MIDORIGAOKA","perfecture_jp":"愛知県","jp_add_1":"名古屋市瑞穂区","jp_add_2":"弥富町緑ケ岡"},"4670064":{"post_code":"4670064","prefecture":"AICHI KEN","city":"NAGOYA SHI MIZUHO KU","town":"YATOMIDORI","perfecture_jp":"愛知県","jp_add_1":"名古屋市瑞穂区","jp_add_2":"弥富通"},"4670825":{"post_code":"4670825","prefecture":"AICHI KEN","city":"NAGOYA SHI MIZUHO KU","town":"YANAGAECHO","perfecture_jp":"愛知県","jp_add_1":"名古屋市瑞穂区","jp_add_2":"柳ケ枝町"},"4670062":{"post_code":"4670062","prefecture":"AICHI KEN","city":"NAGOYA SHI MIZUHO KU","town":"YAMASHITADORI","perfecture_jp":"愛知県","jp_add_1":"名古屋市瑞穂区","jp_add_2":"山下通"},"4670026":{"post_code":"4670026","prefecture":"AICHI KEN","city":"NAGOYA SHI MIZUHO KU","town":"YOMEICHO","perfecture_jp":"愛知県","jp_add_1":"名古屋市瑞穂区","jp_add_2":"陽明町"}}