{"4700335":{"post_code":"4700335","prefecture":"AICHI KEN","city":"TOYOTA SHI","town":"AOKICHO","perfecture_jp":"愛知県","jp_add_1":"豊田市","jp_add_2":"青木町"},"4700333":{"post_code":"4700333","prefecture":"AICHI KEN","city":"TOYOTA SHI","town":"ARAICHO","perfecture_jp":"愛知県","jp_add_1":"豊田市","jp_add_2":"荒井町"},"4700471":{"post_code":"4700471","prefecture":"AICHI KEN","city":"TOYOTA SHI","town":"ISHIDATAMICHO","perfecture_jp":"愛知県","jp_add_1":"豊田市","jp_add_2":"石畳町"},"4700463":{"post_code":"4700463","prefecture":"AICHI KEN","city":"TOYOTA SHI","town":"ISHITOBICHO","perfecture_jp":"愛知県","jp_add_1":"豊田市","jp_add_2":"石飛町"},"4700329":{"post_code":"4700329","prefecture":"AICHI KEN","city":"TOYOTA SHI","town":"ISHINOCHO","perfecture_jp":"愛知県","jp_add_1":"豊田市","jp_add_2":"石野町"},"4700574":{"post_code":"4700574","prefecture":"AICHI KEN","city":"TOYOTA SHI","town":"ICHIBACHO","perfecture_jp":"愛知県","jp_add_1":"豊田市","jp_add_2":"市場町"},"4700372":{"post_code":"4700372","prefecture":"AICHI KEN","city":"TOYOTA SHI","town":"INOECHO","perfecture_jp":"愛知県","jp_add_1":"豊田市","jp_add_2":"井上町"},"4700374":{"post_code":"4700374","prefecture":"AICHI KEN","city":"TOYOTA SHI","town":"IBOCHO","perfecture_jp":"愛知県","jp_add_1":"豊田市","jp_add_2":"伊保町"},"4700515":{"post_code":"4700515","prefecture":"AICHI KEN","city":"TOYOTA SHI","town":"IWASHITACHO","perfecture_jp":"愛知県","jp_add_1":"豊田市","jp_add_2":"岩下町"},"4701211":{"post_code":"4701211","prefecture":"AICHI KEN","city":"TOYOTA SHI","town":"UNEBE HIGASHIMACHI","perfecture_jp":"愛知県","jp_add_1":"豊田市","jp_add_2":"畝部東町"},"4701219":{"post_code":"4701219","prefecture":"AICHI KEN","city":"TOYOTA SHI","town":"UNEBE NISHIMACHI","perfecture_jp":"愛知県","jp_add_1":"豊田市","jp_add_2":"畝部西町"},"4700341":{"post_code":"4700341","prefecture":"AICHI KEN","city":"TOYOTA SHI","town":"UWAHARACHO","perfecture_jp":"愛知県","jp_add_1":"豊田市","jp_add_2":"上原町"},"4700562":{"post_code":"4700562","prefecture":"AICHI KEN","city":"TOYOTA SHI","town":"EITAROCHO","perfecture_jp":"愛知県","jp_add_1":"豊田市","jp_add_2":"永太郎町"},"4701206":{"post_code":"4701206","prefecture":"AICHI KEN","city":"TOYOTA SHI","town":"EKAKUSHIMMACHI","perfecture_jp":"愛知県","jp_add_1":"豊田市","jp_add_2":"永覚新町"},"4701205":{"post_code":"4701205","prefecture":"AICHI KEN","city":"TOYOTA SHI","town":"EKAKUCHO","perfecture_jp":"愛知県","jp_add_1":"豊田市","jp_add_2":"永覚町"},"4700401":{"post_code":"4700401","prefecture":"AICHI KEN","city":"TOYOTA SHI","town":"OIWACHO","perfecture_jp":"愛知県","jp_add_1":"豊田市","jp_add_2":"大岩町"},"4700511":{"post_code":"4700511","prefecture":"AICHI KEN","city":"TOYOTA SHI","town":"OGAZORECHO","perfecture_jp":"愛知県","jp_add_1":"豊田市","jp_add_2":"大ケ蔵連町"},"4700532":{"post_code":"4700532","prefecture":"AICHI KEN","city":"TOYOTA SHI","town":"OSAKACHO","perfecture_jp":"愛知県","jp_add_1":"豊田市","jp_add_2":"大坂町"},"4700342":{"post_code":"4700342","prefecture":"AICHI KEN","city":"TOYOTA SHI","town":"OSHIMIZUCHO","perfecture_jp":"愛知県","jp_add_1":"豊田市","jp_add_2":"大清水町"},"4700555":{"post_code":"4700555","prefecture":"AICHI KEN","city":"TOYOTA SHI","town":"ODAIRACHO","perfecture_jp":"愛知県","jp_add_1":"豊田市","jp_add_2":"大平町"},"4700355":{"post_code":"4700355","prefecture":"AICHI KEN","city":"TOYOTA SHI","town":"OBATACHO","perfecture_jp":"愛知県","jp_add_1":"豊田市","jp_add_2":"大畑町"},"4700553":{"post_code":"4700553","prefecture":"AICHI KEN","city":"TOYOTA SHI","town":"OBORACHO","perfecture_jp":"愛知県","jp_add_1":"豊田市","jp_add_2":"大洞町"},"4700552":{"post_code":"4700552","prefecture":"AICHI KEN","city":"TOYOTA SHI","town":"OKABAYASHICHO","perfecture_jp":"愛知県","jp_add_1":"豊田市","jp_add_2":"乙ケ林町"},"4701207":{"post_code":"4701207","prefecture":"AICHI KEN","city":"TOYOTA SHI","town":"OSHIKAMOCHO","perfecture_jp":"愛知県","jp_add_1":"豊田市","jp_add_2":"鴛鴨町"},"4700303":{"post_code":"4700303","prefecture":"AICHI KEN","city":"TOYOTA SHI","town":"OSHIZAWACHO","perfecture_jp":"愛知県","jp_add_1":"豊田市","jp_add_2":"押沢町"},"4700346":{"post_code":"4700346","prefecture":"AICHI KEN","city":"TOYOTA SHI","town":"OTOBEGAOKA","perfecture_jp":"愛知県","jp_add_1":"豊田市","jp_add_2":"乙部ケ丘"},"4700347":{"post_code":"4700347","prefecture":"AICHI KEN","city":"TOYOTA SHI","town":"OTOBECHO","perfecture_jp":"愛知県","jp_add_1":"豊田市","jp_add_2":"乙部町"},"4700572":{"post_code":"4700572","prefecture":"AICHI KEN","city":"TOYOTA SHI","town":"OBARAOKURACHO","perfecture_jp":"愛知県","jp_add_1":"豊田市","jp_add_2":"小原大倉町"},"4700502":{"post_code":"4700502","prefecture":"AICHI KEN","city":"TOYOTA SHI","town":"OBARAKITACHO","perfecture_jp":"愛知県","jp_add_1":"豊田市","jp_add_2":"小原北町"},"4700501":{"post_code":"4700501","prefecture":"AICHI KEN","city":"TOYOTA SHI","town":"OBARATASHIROCHO","perfecture_jp":"愛知県","jp_add_1":"豊田市","jp_add_2":"小原田代町"},"4700531":{"post_code":"4700531","prefecture":"AICHI KEN","city":"TOYOTA SHI","town":"OBARACHO","perfecture_jp":"愛知県","jp_add_1":"豊田市","jp_add_2":"小原町"},"4700464":{"post_code":"4700464","prefecture":"AICHI KEN","city":"TOYOTA SHI","town":"ORIDAIRACHO","perfecture_jp":"愛知県","jp_add_1":"豊田市","jp_add_2":"折平町"},"4700323":{"post_code":"4700323","prefecture":"AICHI KEN","city":"TOYOTA SHI","town":"OROCHO","perfecture_jp":"愛知県","jp_add_1":"豊田市","jp_add_2":"小呂町"},"4700348":{"post_code":"4700348","prefecture":"AICHI KEN","city":"TOYOTA SHI","town":"KAIZUCHO","perfecture_jp":"愛知県","jp_add_1":"豊田市","jp_add_2":"貝津町"},"4700505":{"post_code":"4700505","prefecture":"AICHI KEN","city":"TOYOTA SHI","town":"KASHIGAHORACHO","perfecture_jp":"愛知県","jp_add_1":"豊田市","jp_add_2":"柏ケ洞町"},"4700533":{"post_code":"4700533","prefecture":"AICHI KEN","city":"TOYOTA SHI","town":"KAJIYASHIKICHO","perfecture_jp":"愛知県","jp_add_1":"豊田市","jp_add_2":"鍛治屋敷町"},"4701216":{"post_code":"4701216","prefecture":"AICHI KEN","city":"TOYOTA SHI","town":"KAZUECHO","perfecture_jp":"愛知県","jp_add_1":"豊田市","jp_add_2":"和会町"},"4700364":{"post_code":"4700364","prefecture":"AICHI KEN","city":"TOYOTA SHI","town":"KANOCHO","perfecture_jp":"愛知県","jp_add_1":"豊田市","jp_add_2":"加納町"},"4700421":{"post_code":"4700421","prefecture":"AICHI KEN","city":"TOYOTA SHI","town":"KAMIKAWAGUCHICHO","perfecture_jp":"愛知県","jp_add_1":"豊田市","jp_add_2":"上川口町"},"4701218":{"post_code":"4701218","prefecture":"AICHI KEN","city":"TOYOTA SHI","town":"KAMIGOCHO","perfecture_jp":"愛知県","jp_add_1":"豊田市","jp_add_2":"上郷町"},"4700322":{"post_code":"4700322","prefecture":"AICHI KEN","city":"TOYOTA SHI","town":"KAMITAKACHO","perfecture_jp":"愛知県","jp_add_1":"豊田市","jp_add_2":"上高町"},"4700462":{"post_code":"4700462","prefecture":"AICHI KEN","city":"TOYOTA SHI","town":"KAMIDOAICHO","perfecture_jp":"愛知県","jp_add_1":"豊田市","jp_add_2":"上渡合町"},"4700561":{"post_code":"4700561","prefecture":"AICHI KEN","city":"TOYOTA SHI","town":"KAMINIGICHO","perfecture_jp":"愛知県","jp_add_1":"豊田市","jp_add_2":"上仁木町"},"4700375":{"post_code":"4700375","prefecture":"AICHI KEN","city":"TOYOTA SHI","town":"KAMEKUBICHO","perfecture_jp":"愛知県","jp_add_1":"豊田市","jp_add_2":"亀首町"},"4700513":{"post_code":"4700513","prefecture":"AICHI KEN","city":"TOYOTA SHI","town":"KARUKAYACHO","perfecture_jp":"愛知県","jp_add_1":"豊田市","jp_add_2":"苅萱町"},"4700575":{"post_code":"4700575","prefecture":"AICHI KEN","city":"TOYOTA SHI","town":"KAWASHIMOCHO","perfecture_jp":"愛知県","jp_add_1":"豊田市","jp_add_2":"川下町"},"4700328":{"post_code":"4700328","prefecture":"AICHI KEN","city":"TOYOTA SHI","town":"KAMPACHICHO","perfecture_jp":"愛知県","jp_add_1":"豊田市","jp_add_2":"勘八町"},"4700542":{"post_code":"4700542","prefecture":"AICHI KEN","city":"TOYOTA SHI","town":"KISADAIRACHO","perfecture_jp":"愛知県","jp_add_1":"豊田市","jp_add_2":"喜佐平町"},"4700411":{"post_code":"4700411","prefecture":"AICHI KEN","city":"TOYOTA SHI","town":"KISECHO","perfecture_jp":"愛知県","jp_add_1":"豊田市","jp_add_2":"木瀬町"},"4700453":{"post_code":"4700453","prefecture":"AICHI KEN","city":"TOYOTA SHI","town":"KITAISHIKICHO","perfecture_jp":"愛知県","jp_add_1":"豊田市","jp_add_2":"北一色町"},"4700573":{"post_code":"4700573","prefecture":"AICHI KEN","city":"TOYOTA SHI","town":"KITAONOCHO","perfecture_jp":"愛知県","jp_add_1":"豊田市","jp_add_2":"北大野町"},"4700543":{"post_code":"4700543","prefecture":"AICHI KEN","city":"TOYOTA SHI","town":"KITASASADAIRACHO","perfecture_jp":"愛知県","jp_add_1":"豊田市","jp_add_2":"北篠平町"},"4700305":{"post_code":"4700305","prefecture":"AICHI KEN","city":"TOYOTA SHI","town":"KUNITSUKICHO","perfecture_jp":"愛知県","jp_add_1":"豊田市","jp_add_2":"国附町"},"4700522":{"post_code":"4700522","prefecture":"AICHI KEN","city":"TOYOTA SHI","town":"KUREMATACHO","perfecture_jp":"愛知県","jp_add_1":"豊田市","jp_add_2":"榑俣町"},"4700332":{"post_code":"4700332","prefecture":"AICHI KEN","city":"TOYOTA SHI","town":"KOSHIDOCHO","perfecture_jp":"愛知県","jp_add_1":"豊田市","jp_add_2":"越戸町"},"4700306":{"post_code":"4700306","prefecture":"AICHI KEN","city":"TOYOTA SHI","town":"KOMINECHO","perfecture_jp":"愛知県","jp_add_1":"豊田市","jp_add_2":"小峯町"},"4701203":{"post_code":"4701203","prefecture":"AICHI KEN","city":"TOYOTA SHI","town":"SAIWAICHO","perfecture_jp":"愛知県","jp_add_1":"豊田市","jp_add_2":"幸町"},"4700352":{"post_code":"4700352","prefecture":"AICHI KEN","city":"TOYOTA SHI","town":"SASABARACHO","perfecture_jp":"愛知県","jp_add_1":"豊田市","jp_add_2":"篠原町"},"4700504":{"post_code":"4700504","prefecture":"AICHI KEN","city":"TOYOTA SHI","town":"ZASSHIKICHO","perfecture_jp":"愛知県","jp_add_1":"豊田市","jp_add_2":"雑敷町"},"4700361":{"post_code":"4700361","prefecture":"AICHI KEN","city":"TOYOTA SHI","town":"SANAGECHO","perfecture_jp":"愛知県","jp_add_1":"豊田市","jp_add_2":"猿投町"},"4700564":{"post_code":"4700564","prefecture":"AICHI KEN","city":"TOYOTA SHI","town":"SAWADACHO","perfecture_jp":"愛知県","jp_add_1":"豊田市","jp_add_2":"沢田町"},"4700402":{"post_code":"4700402","prefecture":"AICHI KEN","city":"TOYOTA SHI","town":"SANGACHO","perfecture_jp":"愛知県","jp_add_1":"豊田市","jp_add_2":"三箇町"},"4700373":{"post_code":"4700373","prefecture":"AICHI KEN","city":"TOYOTA SHI","town":"SHIGOCHO","perfecture_jp":"愛知県","jp_add_1":"豊田市","jp_add_2":"四郷町"},"4700308":{"post_code":"4700308","prefecture":"AICHI KEN","city":"TOYOTA SHI","town":"SHIDARECHO","perfecture_jp":"愛知県","jp_add_1":"豊田市","jp_add_2":"枝下町"},"4700422":{"post_code":"4700422","prefecture":"AICHI KEN","city":"TOYOTA SHI","town":"SHIMOKAWAGUCHICHO","perfecture_jp":"愛知県","jp_add_1":"豊田市","jp_add_2":"下川口町"},"4700565":{"post_code":"4700565","prefecture":"AICHI KEN","city":"TOYOTA SHI","town":"SHIMONIGICHO","perfecture_jp":"愛知県","jp_add_1":"豊田市","jp_add_2":"下仁木町"},"4700319":{"post_code":"4700319","prefecture":"AICHI KEN","city":"TOYOTA SHI","town":"SHIMOMUROCHO","perfecture_jp":"愛知県","jp_add_1":"豊田市","jp_add_2":"下室町"},"4700343":{"post_code":"4700343","prefecture":"AICHI KEN","city":"TOYOTA SHI","town":"JOSUICHO","perfecture_jp":"愛知県","jp_add_1":"豊田市","jp_add_2":"浄水町"},"4700403":{"post_code":"4700403","prefecture":"AICHI KEN","city":"TOYOTA SHI","town":"SHIRAKAWACHO","perfecture_jp":"愛知県","jp_add_1":"豊田市","jp_add_2":"白川町"},"4700313":{"post_code":"4700313","prefecture":"AICHI KEN","city":"TOYOTA SHI","town":"SHIROMICHO","perfecture_jp":"愛知県","jp_add_1":"豊田市","jp_add_2":"城見町"},"4700534":{"post_code":"4700534","prefecture":"AICHI KEN","city":"TOYOTA SHI","town":"SUMOMOCHO","perfecture_jp":"愛知県","jp_add_1":"豊田市","jp_add_2":"李町"},"4700506":{"post_code":"4700506","prefecture":"AICHI KEN","city":"TOYOTA SHI","town":"SEMMICHO","perfecture_jp":"愛知県","jp_add_1":"豊田市","jp_add_2":"川見町"},"4701217":{"post_code":"4701217","prefecture":"AICHI KEN","city":"TOYOTA SHI","town":"TAISEICHO","perfecture_jp":"愛知県","jp_add_1":"豊田市","jp_add_2":"大成町"},"4700376":{"post_code":"4700376","prefecture":"AICHI KEN","city":"TOYOTA SHI","town":"TAKAMACHI","perfecture_jp":"愛知県","jp_add_1":"豊田市","jp_add_2":"高町"},"4700324":{"post_code":"4700324","prefecture":"AICHI KEN","city":"TOYOTA SHI","town":"TAKIMICHO","perfecture_jp":"愛知県","jp_add_1":"豊田市","jp_add_2":"滝見町"},"4700423":{"post_code":"4700423","prefecture":"AICHI KEN","city":"TOYOTA SHI","town":"TAMODAIRACHO","perfecture_jp":"愛知県","jp_add_1":"豊田市","jp_add_2":"田茂平町"},"4700354":{"post_code":"4700354","prefecture":"AICHI KEN","city":"TOYOTA SHI","town":"TAMOMICHO","perfecture_jp":"愛知県","jp_add_1":"豊田市","jp_add_2":"田籾町"},"4700545":{"post_code":"4700545","prefecture":"AICHI KEN","city":"TOYOTA SHI","town":"CHIARAICHO","perfecture_jp":"愛知県","jp_add_1":"豊田市","jp_add_2":"千洗町"},"4700318":{"post_code":"4700318","prefecture":"AICHI KEN","city":"TOYOTA SHI","town":"CHIKARAISHICHO","perfecture_jp":"愛知県","jp_add_1":"豊田市","jp_add_2":"力石町"},"4700316":{"post_code":"4700316","prefecture":"AICHI KEN","city":"TOYOTA SHI","town":"CHIDORICHO","perfecture_jp":"愛知県","jp_add_1":"豊田市","jp_add_2":"千鳥町"},"4700327":{"post_code":"4700327","prefecture":"AICHI KEN","city":"TOYOTA SHI","town":"TERASHITACHO","perfecture_jp":"愛知県","jp_add_1":"豊田市","jp_add_2":"寺下町"},"4700544":{"post_code":"4700544","prefecture":"AICHI KEN","city":"TOYOTA SHI","town":"TERADAIRACHO","perfecture_jp":"愛知県","jp_add_1":"豊田市","jp_add_2":"寺平町"},"4700325":{"post_code":"4700325","prefecture":"AICHI KEN","city":"TOYOTA SHI","town":"TEROCHO","perfecture_jp":"愛知県","jp_add_1":"豊田市","jp_add_2":"手呂町"},"4700326":{"post_code":"4700326","prefecture":"AICHI KEN","city":"TOYOTA SHI","town":"TEROCHOTOITA","perfecture_jp":"愛知県","jp_add_1":"豊田市","jp_add_2":"手呂町樋田"},"4700512":{"post_code":"4700512","prefecture":"AICHI KEN","city":"TOYOTA SHI","town":"TOGOCHO","perfecture_jp":"愛知県","jp_add_1":"豊田市","jp_add_2":"東郷町"},"4700535":{"post_code":"4700535","prefecture":"AICHI KEN","city":"TOYOTA SHI","town":"DOZUKICHO","perfecture_jp":"愛知県","jp_add_1":"豊田市","jp_add_2":"百月町"},"4701202":{"post_code":"4701202","prefecture":"AICHI KEN","city":"TOYOTA SHI","town":"TOGARICHO","perfecture_jp":"愛知県","jp_add_1":"豊田市","jp_add_2":"渡刈町"},"4700304":{"post_code":"4700304","prefecture":"AICHI KEN","city":"TOYOTA SHI","town":"TOMIDACHO","perfecture_jp":"愛知県","jp_add_1":"豊田市","jp_add_2":"富田町"},"4700312":{"post_code":"4700312","prefecture":"AICHI KEN","city":"TOYOTA SHI","town":"NAKAGANECHO","perfecture_jp":"愛知県","jp_add_1":"豊田市","jp_add_2":"中金町"},"4700315":{"post_code":"4700315","prefecture":"AICHI KEN","city":"TOYOTA SHI","town":"NAKAGIRICHO","perfecture_jp":"愛知県","jp_add_1":"豊田市","jp_add_2":"中切町"},"4700317":{"post_code":"4700317","prefecture":"AICHI KEN","city":"TOYOTA SHI","town":"NARAICHO","perfecture_jp":"愛知県","jp_add_1":"豊田市","jp_add_2":"成合町"},"4700554":{"post_code":"4700554","prefecture":"AICHI KEN","city":"TOYOTA SHI","town":"NIKAKECHO","perfecture_jp":"愛知県","jp_add_1":"豊田市","jp_add_2":"荷掛町"},"4700404":{"post_code":"4700404","prefecture":"AICHI KEN","city":"TOYOTA SHI","town":"NISHIICHINONOCHO","perfecture_jp":"愛知県","jp_add_1":"豊田市","jp_add_2":"西市野々町"},"4700521":{"post_code":"4700521","prefecture":"AICHI KEN","city":"TOYOTA SHI","town":"NISHITAMBACHO","perfecture_jp":"愛知県","jp_add_1":"豊田市","jp_add_2":"西丹波町"},"4700431":{"post_code":"4700431","prefecture":"AICHI KEN","city":"TOYOTA SHI","town":"NISHINAKAYAMACHO","perfecture_jp":"愛知県","jp_add_1":"豊田市","jp_add_2":"西中山町"},"4700541":{"post_code":"4700541","prefecture":"AICHI KEN","city":"TOYOTA SHI","town":"NISHIHAGINOHIRACHO","perfecture_jp":"愛知県","jp_add_1":"豊田市","jp_add_2":"西萩平町"},"4700309":{"post_code":"4700309","prefecture":"AICHI KEN","city":"TOYOTA SHI","town":"NISHIHIROSECHO","perfecture_jp":"愛知県","jp_add_1":"豊田市","jp_add_2":"西広瀬町"},"4700526":{"post_code":"4700526","prefecture":"AICHI KEN","city":"TOYOTA SHI","town":"NISHIHOSODACHO","perfecture_jp":"愛知県","jp_add_1":"豊田市","jp_add_2":"西細田町"},"4700314":{"post_code":"4700314","prefecture":"AICHI KEN","city":"TOYOTA SHI","town":"NOGUCHICHO","perfecture_jp":"愛知県","jp_add_1":"豊田市","jp_add_2":"野口町"},"4701204":{"post_code":"4701204","prefecture":"AICHI KEN","city":"TOYOTA SHI","town":"HAIZUCHO","perfecture_jp":"愛知県","jp_add_1":"豊田市","jp_add_2":"配津町"},"4700452":{"post_code":"4700452","prefecture":"AICHI KEN","city":"TOYOTA SHI","town":"HASAMACHO","perfecture_jp":"愛知県","jp_add_1":"豊田市","jp_add_2":"迫町"},"4700334":{"post_code":"4700334","prefecture":"AICHI KEN","city":"TOYOTA SHI","town":"HANAMOTOCHO","perfecture_jp":"愛知県","jp_add_1":"豊田市","jp_add_2":"花本町"},"4700524":{"post_code":"4700524","prefecture":"AICHI KEN","city":"TOYOTA SHI","town":"HIOMOCHO","perfecture_jp":"愛知県","jp_add_1":"豊田市","jp_add_2":"日面町"},"4700307":{"post_code":"4700307","prefecture":"AICHI KEN","city":"TOYOTA SHI","town":"HIGASHIHIROSECHO","perfecture_jp":"愛知県","jp_add_1":"豊田市","jp_add_2":"東広瀬町"},"4700345":{"post_code":"4700345","prefecture":"AICHI KEN","city":"TOYOTA SHI","town":"HIGASHIHOMICHO","perfecture_jp":"愛知県","jp_add_1":"豊田市","jp_add_2":"東保見町"},"4700514":{"post_code":"4700514","prefecture":"AICHI KEN","city":"TOYOTA SHI","town":"HIRAIWACHO","perfecture_jp":"愛知県","jp_add_1":"豊田市","jp_add_2":"平岩町"},"4700331":{"post_code":"4700331","prefecture":"AICHI KEN","city":"TOYOTA SHI","town":"HIRATOBASHICHO","perfecture_jp":"愛知県","jp_add_1":"豊田市","jp_add_2":"平戸橋町"},"4700523":{"post_code":"4700523","prefecture":"AICHI KEN","city":"TOYOTA SHI","town":"HIRAHATACHO","perfecture_jp":"愛知県","jp_add_1":"豊田市","jp_add_2":"平畑町"},"4700351":{"post_code":"4700351","prefecture":"AICHI KEN","city":"TOYOTA SHI","town":"HIROHATACHO","perfecture_jp":"愛知県","jp_add_1":"豊田市","jp_add_2":"広幡町"},"4701215":{"post_code":"4701215","prefecture":"AICHI KEN","city":"TOYOTA SHI","town":"HIROMICHO","perfecture_jp":"愛知県","jp_add_1":"豊田市","jp_add_2":"広美町"},"4700441":{"post_code":"4700441","prefecture":"AICHI KEN","city":"TOYOTA SHI","town":"FUKAMICHO","perfecture_jp":"愛知県","jp_add_1":"豊田市","jp_add_2":"深見町"},"4701214":{"post_code":"4701214","prefecture":"AICHI KEN","city":"TOYOTA SHI","town":"FUKUJUCHO","perfecture_jp":"愛知県","jp_add_1":"豊田市","jp_add_2":"福受町"},"4700451":{"post_code":"4700451","prefecture":"AICHI KEN","city":"TOYOTA SHI","town":"FUJIOKAIINOCHO","perfecture_jp":"愛知県","jp_add_1":"豊田市","jp_add_2":"藤岡飯野町"},"4700302":{"post_code":"4700302","prefecture":"AICHI KEN","city":"TOYOTA SHI","town":"FUJISAWACHO","perfecture_jp":"愛知県","jp_add_1":"豊田市","jp_add_2":"藤沢町"},"4701201":{"post_code":"4701201","prefecture":"AICHI KEN","city":"TOYOTA SHI","town":"HOEICHO","perfecture_jp":"愛知県","jp_add_1":"豊田市","jp_add_2":"豊栄町"},"4700311":{"post_code":"4700311","prefecture":"AICHI KEN","city":"TOYOTA SHI","town":"HOYUCHO","perfecture_jp":"愛知県","jp_add_1":"豊田市","jp_add_2":"芳友町"},"4700461":{"post_code":"4700461","prefecture":"AICHI KEN","city":"TOYOTA SHI","town":"HOKUSOGICHO","perfecture_jp":"愛知県","jp_add_1":"豊田市","jp_add_2":"北曽木町"},"4700353":{"post_code":"4700353","prefecture":"AICHI KEN","city":"TOYOTA SHI","town":"HOMIGAOKA","perfecture_jp":"愛知県","jp_add_1":"豊田市","jp_add_2":"保見ケ丘"},"4700344":{"post_code":"4700344","prefecture":"AICHI KEN","city":"TOYOTA SHI","town":"HOMICHO","perfecture_jp":"愛知県","jp_add_1":"豊田市","jp_add_2":"保見町"},"4700363":{"post_code":"4700363","prefecture":"AICHI KEN","city":"TOYOTA SHI","town":"HONTOKUCHO","perfecture_jp":"愛知県","jp_add_1":"豊田市","jp_add_2":"本徳町"},"4700362":{"post_code":"4700362","prefecture":"AICHI KEN","city":"TOYOTA SHI","town":"MAIGICHO","perfecture_jp":"愛知県","jp_add_1":"豊田市","jp_add_2":"舞木町"},"4700503":{"post_code":"4700503","prefecture":"AICHI KEN","city":"TOYOTA SHI","town":"MAEBORACHO","perfecture_jp":"愛知県","jp_add_1":"豊田市","jp_add_2":"前洞町"},"4701212":{"post_code":"4701212","prefecture":"AICHI KEN","city":"TOYOTA SHI","town":"MASUZUKA HIGASHIMACHI","perfecture_jp":"愛知県","jp_add_1":"豊田市","jp_add_2":"桝塚東町"},"4701213":{"post_code":"4701213","prefecture":"AICHI KEN","city":"TOYOTA SHI","town":"MASUZUKA NISHIMACHI","perfecture_jp":"愛知県","jp_add_1":"豊田市","jp_add_2":"桝塚西町"},"4700571":{"post_code":"4700571","prefecture":"AICHI KEN","city":"TOYOTA SHI","town":"MATSUNACHO","perfecture_jp":"愛知県","jp_add_1":"豊田市","jp_add_2":"松名町"},"4700301":{"post_code":"4700301","prefecture":"AICHI KEN","city":"TOYOTA SHI","town":"MATSUMINECHO","perfecture_jp":"愛知県","jp_add_1":"豊田市","jp_add_2":"松嶺町"},"4700551":{"post_code":"4700551","prefecture":"AICHI KEN","city":"TOYOTA SHI","town":"MITSUKUBOCHO","perfecture_jp":"愛知県","jp_add_1":"豊田市","jp_add_2":"三ツ久保町"},"4700424":{"post_code":"4700424","prefecture":"AICHI KEN","city":"TOYOTA SHI","town":"MITSUKURICHO","perfecture_jp":"愛知県","jp_add_1":"豊田市","jp_add_2":"御作町"},"4700371":{"post_code":"4700371","prefecture":"AICHI KEN","city":"TOYOTA SHI","town":"MIFUNECHO","perfecture_jp":"愛知県","jp_add_1":"豊田市","jp_add_2":"御船町"},"4700516":{"post_code":"4700516","prefecture":"AICHI KEN","city":"TOYOTA SHI","town":"MIYASHIROCHO","perfecture_jp":"愛知県","jp_add_1":"豊田市","jp_add_2":"宮代町"},"4700356":{"post_code":"4700356","prefecture":"AICHI KEN","city":"TOYOTA SHI","town":"YAKUSACHO","perfecture_jp":"愛知県","jp_add_1":"豊田市","jp_add_2":"八草町"},"4700525":{"post_code":"4700525","prefecture":"AICHI KEN","city":"TOYOTA SHI","town":"YANADAIRACHO","perfecture_jp":"愛知県","jp_add_1":"豊田市","jp_add_2":"簗平町"},"4700321":{"post_code":"4700321","prefecture":"AICHI KEN","city":"TOYOTA SHI","town":"YAMANAKACHO","perfecture_jp":"愛知県","jp_add_1":"豊田市","jp_add_2":"山中町"},"4700563":{"post_code":"4700563","prefecture":"AICHI KEN","city":"TOYOTA SHI","town":"YUYACHO","perfecture_jp":"愛知県","jp_add_1":"豊田市","jp_add_2":"遊屋町"},"4701100":{"post_code":"4701100","prefecture":"AICHI KEN","city":"TOYOAKE SHI","town":"IKANIKEISAIGANAIBAAI","perfecture_jp":"愛知県","jp_add_1":"豊明市","jp_add_2":""},"4701141":{"post_code":"4701141","prefecture":"AICHI KEN","city":"TOYOAKE SHI","town":"ANOCHO","perfecture_jp":"愛知県","jp_add_1":"豊明市","jp_add_2":"阿野町"},"4701144":{"post_code":"4701144","prefecture":"AICHI KEN","city":"TOYOAKE SHI","town":"ANOCHO(INABA)","perfecture_jp":"愛知県","jp_add_1":"豊明市","jp_add_2":"阿野町"},"4701145":{"post_code":"4701145","prefecture":"AICHI KEN","city":"TOYOAKE SHI","town":"ANOCHO(KITAUENOYAMA)","perfecture_jp":"愛知県","jp_add_1":"豊明市","jp_add_2":"阿野町"},"4701146":{"post_code":"4701146","prefecture":"AICHI KEN","city":"TOYOAKE SHI","town":"ANOCHO(KUROBE)","perfecture_jp":"愛知県","jp_add_1":"豊明市","jp_add_2":"阿野町"},"4701147":{"post_code":"4701147","prefecture":"AICHI KEN","city":"TOYOAKE SHI","town":"ANOCHO(SAKABE)","perfecture_jp":"愛知県","jp_add_1":"豊明市","jp_add_2":"阿野町"},"4701143":{"post_code":"4701143","prefecture":"AICHI KEN","city":"TOYOAKE SHI","town":"ANOCHO(JONO)","perfecture_jp":"愛知県","jp_add_1":"豊明市","jp_add_2":"阿野町"},"4701148":{"post_code":"4701148","prefecture":"AICHI KEN","city":"TOYOAKE SHI","town":"ANOCHO(NAMERI)","perfecture_jp":"愛知県","jp_add_1":"豊明市","jp_add_2":"阿野町"},"4701142":{"post_code":"4701142","prefecture":"AICHI KEN","city":"TOYOAKE SHI","town":"ANOCHO(HIGASHIANO)","perfecture_jp":"愛知県","jp_add_1":"豊明市","jp_add_2":"阿野町"},"4701111":{"post_code":"4701111","prefecture":"AICHI KEN","city":"TOYOAKE SHI","town":"OKUTECHO","perfecture_jp":"愛知県","jp_add_1":"豊明市","jp_add_2":"大久伝町"},"4701101":{"post_code":"4701101","prefecture":"AICHI KEN","city":"TOYOAKE SHI","town":"KUTSUKAKECHO","perfecture_jp":"愛知県","jp_add_1":"豊明市","jp_add_2":"沓掛町"},"4701108":{"post_code":"4701108","prefecture":"AICHI KEN","city":"TOYOAKE SHI","town":"KUTSUKAKECHO(ARAI)","perfecture_jp":"愛知県","jp_add_1":"豊明市","jp_add_2":"沓掛町"},"4701107":{"post_code":"4701107","prefecture":"AICHI KEN","city":"TOYOAKE SHI","town":"KUTSUKAKECHO(IZUMI)","perfecture_jp":"愛知県","jp_add_1":"豊明市","jp_add_2":"沓掛町"},"4701105":{"post_code":"4701105","prefecture":"AICHI KEN","city":"TOYOAKE SHI","town":"KUTSUKAKECHO(KAMITAKANE)","perfecture_jp":"愛知県","jp_add_1":"豊明市","jp_add_2":"沓掛町"},"4701106":{"post_code":"4701106","prefecture":"AICHI KEN","city":"TOYOAKE SHI","town":"KUTSUKAKECHO(SHIMOTAKANE)","perfecture_jp":"愛知県","jp_add_1":"豊明市","jp_add_2":"沓掛町"},"4701103":{"post_code":"4701103","prefecture":"AICHI KEN","city":"TOYOAKE SHI","town":"KUTSUKAKECHO(KOHAZAMA)","perfecture_jp":"愛知県","jp_add_1":"豊明市","jp_add_2":"沓掛町"},"4701104":{"post_code":"4701104","prefecture":"AICHI KEN","city":"TOYOAKE SHI","town":"KUTSUKAKECHO(GOTANDA)","perfecture_jp":"愛知県","jp_add_1":"豊明市","jp_add_2":"沓掛町"},"4701109":{"post_code":"4701109","prefecture":"AICHI KEN","city":"TOYOAKE SHI","town":"KUTSUKAKECHO(SHUKU)","perfecture_jp":"愛知県","jp_add_1":"豊明市","jp_add_2":"沓掛町"},"4701102":{"post_code":"4701102","prefecture":"AICHI KEN","city":"TOYOAKE SHI","town":"KUTSUKAKECHO(CHOKUSHI)","perfecture_jp":"愛知県","jp_add_1":"豊明市","jp_add_2":"沓掛町"},"4701161":{"post_code":"4701161","prefecture":"AICHI KEN","city":"TOYOAKE SHI","town":"SAKAECHO","perfecture_jp":"愛知県","jp_add_1":"豊明市","jp_add_2":"栄町"},"4701165":{"post_code":"4701165","prefecture":"AICHI KEN","city":"TOYOAKE SHI","town":"SAKAECHO(UCHIYAMA)","perfecture_jp":"愛知県","jp_add_1":"豊明市","jp_add_2":"栄町"},"4701163":{"post_code":"4701163","prefecture":"AICHI KEN","city":"TOYOAKE SHI","town":"SAKAECHO(UBAKO)","perfecture_jp":"愛知県","jp_add_1":"豊明市","jp_add_2":"栄町"},"4701164":{"post_code":"4701164","prefecture":"AICHI KEN","city":"TOYOAKE SHI","town":"SAKAECHO(OGURASHITA)","perfecture_jp":"愛知県","jp_add_1":"豊明市","jp_add_2":"栄町"},"4701166":{"post_code":"4701166","prefecture":"AICHI KEN","city":"TOYOAKE SHI","town":"SAKAECHO(ONE)","perfecture_jp":"愛知県","jp_add_1":"豊明市","jp_add_2":"栄町"},"4701162":{"post_code":"4701162","prefecture":"AICHI KEN","city":"TOYOAKE SHI","town":"SAKAECHO(KAMIUBAKO)","perfecture_jp":"愛知県","jp_add_1":"豊明市","jp_add_2":"栄町"},"4701167":{"post_code":"4701167","prefecture":"AICHI KEN","city":"TOYOAKE SHI","town":"SAKAECHO(NISHIONE)","perfecture_jp":"愛知県","jp_add_1":"豊明市","jp_add_2":"栄町"},"4701168":{"post_code":"4701168","prefecture":"AICHI KEN","city":"TOYOAKE SHI","town":"SAKAECHO(MINAMIYAKATA)","perfecture_jp":"愛知県","jp_add_1":"豊明市","jp_add_2":"栄町"},"4701154":{"post_code":"4701154","prefecture":"AICHI KEN","city":"TOYOAKE SHI","town":"SHINSAKAECHO","perfecture_jp":"愛知県","jp_add_1":"豊明市","jp_add_2":"新栄町"},"4701112":{"post_code":"4701112","prefecture":"AICHI KEN","city":"TOYOAKE SHI","town":"SHINDENCHO","perfecture_jp":"愛知県","jp_add_1":"豊明市","jp_add_2":"新田町"},"4701113":{"post_code":"4701113","prefecture":"AICHI KEN","city":"TOYOAKE SHI","town":"SHINDENCHO(NISHIKI)","perfecture_jp":"愛知県","jp_add_1":"豊明市","jp_add_2":"新田町"},"4701114":{"post_code":"4701114","prefecture":"AICHI KEN","city":"TOYOAKE SHI","town":"SHINDENCHO(HIRONAGA)","perfecture_jp":"愛知県","jp_add_1":"豊明市","jp_add_2":"新田町"},"4701115":{"post_code":"4701115","prefecture":"AICHI KEN","city":"TOYOAKE SHI","town":"SHINDENCHO(MAEBARA)","perfecture_jp":"愛知県","jp_add_1":"豊明市","jp_add_2":"新田町"},"4701116":{"post_code":"4701116","prefecture":"AICHI KEN","city":"TOYOAKE SHI","town":"SHINDENCHO(YOSHIIKE)","perfecture_jp":"愛知県","jp_add_1":"豊明市","jp_add_2":"新田町"},"4701151":{"post_code":"4701151","prefecture":"AICHI KEN","city":"TOYOAKE SHI","town":"ZENGOCHO","perfecture_jp":"愛知県","jp_add_1":"豊明市","jp_add_2":"前後町"},"4701152":{"post_code":"4701152","prefecture":"AICHI KEN","city":"TOYOAKE SHI","town":"ZENGOCHO(SENNINZUKA)","perfecture_jp":"愛知県","jp_add_1":"豊明市","jp_add_2":"前後町"},"4701153":{"post_code":"4701153","prefecture":"AICHI KEN","city":"TOYOAKE SHI","town":"ZENGOCHO(MITSUYA)","perfecture_jp":"愛知県","jp_add_1":"豊明市","jp_add_2":"前後町"},"4701121":{"post_code":"4701121","prefecture":"AICHI KEN","city":"TOYOAKE SHI","town":"NISHIGAWACHO","perfecture_jp":"愛知県","jp_add_1":"豊明市","jp_add_2":"西川町"},"4701122":{"post_code":"4701122","prefecture":"AICHI KEN","city":"TOYOAKE SHI","town":"NISHIGAWACHO(OSADA)","perfecture_jp":"愛知県","jp_add_1":"豊明市","jp_add_2":"西川町"},"4701123":{"post_code":"4701123","prefecture":"AICHI KEN","city":"TOYOAKE SHI","town":"NISHIGAWACHO(SASAHARA)","perfecture_jp":"愛知県","jp_add_1":"豊明市","jp_add_2":"西川町"},"4701131":{"post_code":"4701131","prefecture":"AICHI KEN","city":"TOYOAKE SHI","town":"FUTAMURADAI","perfecture_jp":"愛知県","jp_add_1":"豊明市","jp_add_2":"二村台"},"4701132":{"post_code":"4701132","prefecture":"AICHI KEN","city":"TOYOAKE SHI","town":"MAGOMECHO","perfecture_jp":"愛知県","jp_add_1":"豊明市","jp_add_2":"間米町"},"4701133":{"post_code":"4701133","prefecture":"AICHI KEN","city":"TOYOAKE SHI","town":"MAGOMECHO(TSURUNE)","perfecture_jp":"愛知県","jp_add_1":"豊明市","jp_add_2":"間米町"},"4701124":{"post_code":"4701124","prefecture":"AICHI KEN","city":"TOYOAKE SHI","town":"MISAKICHO","perfecture_jp":"愛知県","jp_add_1":"豊明市","jp_add_2":"三崎町"},"4701126":{"post_code":"4701126","prefecture":"AICHI KEN","city":"TOYOAKE SHI","town":"MISAKICHO(TAKAGAMO)","perfecture_jp":"愛知県","jp_add_1":"豊明市","jp_add_2":"三崎町"},"4701125":{"post_code":"4701125","prefecture":"AICHI KEN","city":"TOYOAKE SHI","town":"MISAKICHO(NAKANOTSUBO)","perfecture_jp":"愛知県","jp_add_1":"豊明市","jp_add_2":"三崎町"},"4701127":{"post_code":"4701127","prefecture":"AICHI KEN","city":"TOYOAKE SHI","town":"MISAKICHO(YUTAKADAI)","perfecture_jp":"愛知県","jp_add_1":"豊明市","jp_add_2":"三崎町"},"4700100":{"post_code":"4700100","prefecture":"AICHI KEN","city":"AICHI GUN TOGO CHO","town":"IKANIKEISAIGANAIBAAI","perfecture_jp":"愛知県","jp_add_1":"日進市","jp_add_2":""},"4700125":{"post_code":"4700125","prefecture":"AICHI KEN","city":"NISSHIN SHI","town":"AKAIKE","perfecture_jp":"愛知県","jp_add_1":"日進市","jp_add_2":"赤池"},"4700126":{"post_code":"4700126","prefecture":"AICHI KEN","city":"NISSHIN SHI","town":"AKAIKECHO","perfecture_jp":"愛知県","jp_add_1":"日進市","jp_add_2":"赤池町"},"4700127":{"post_code":"4700127","prefecture":"AICHI KEN","city":"NISSHIN SHI","town":"AKAIKEMINAMI","perfecture_jp":"愛知県","jp_add_1":"日進市","jp_add_2":"赤池南"},"4700124":{"post_code":"4700124","prefecture":"AICHI KEN","city":"NISSHIN SHI","town":"ASADACHO","perfecture_jp":"愛知県","jp_add_1":"日進市","jp_add_2":"浅田町"},"4700128":{"post_code":"4700128","prefecture":"AICHI KEN","city":"NISSHIN SHI","town":"ASADAHIRAKO","perfecture_jp":"愛知県","jp_add_1":"日進市","jp_add_2":"浅田平子"},"4700135":{"post_code":"4700135","prefecture":"AICHI KEN","city":"NISSHIN SHI","town":"IWASAKIDAI","perfecture_jp":"愛知県","jp_add_1":"日進市","jp_add_2":"岩崎台"},"4700131":{"post_code":"4700131","prefecture":"AICHI KEN","city":"NISSHIN SHI","town":"IWASAKICHO","perfecture_jp":"愛知県","jp_add_1":"日進市","jp_add_2":"岩崎町"},"4700104":{"post_code":"4700104","prefecture":"AICHI KEN","city":"NISSHIN SHI","town":"IWAFUJICHO","perfecture_jp":"愛知県","jp_add_1":"日進市","jp_add_2":"岩藤町"},"4700133":{"post_code":"4700133","prefecture":"AICHI KEN","city":"NISSHIN SHI","town":"UMEMORIDAI","perfecture_jp":"愛知県","jp_add_1":"日進市","jp_add_2":"梅森台"},"4700132":{"post_code":"4700132","prefecture":"AICHI KEN","city":"NISSHIN SHI","town":"UMEMORICHO","perfecture_jp":"愛知県","jp_add_1":"日進市","jp_add_2":"梅森町"},"4700115":{"post_code":"4700115","prefecture":"AICHI KEN","city":"NISSHIN SHI","town":"ORIDOCHO","perfecture_jp":"愛知県","jp_add_1":"日進市","jp_add_2":"折戸町"},"4700134":{"post_code":"4700134","prefecture":"AICHI KEN","city":"NISSHIN SHI","town":"KAGUYAMA","perfecture_jp":"愛知県","jp_add_1":"日進市","jp_add_2":"香久山"},"4700122":{"post_code":"4700122","prefecture":"AICHI KEN","city":"NISSHIN SHI","town":"KANIKOCHO","perfecture_jp":"愛知県","jp_add_1":"日進市","jp_add_2":"蟹甲町"},"4700103":{"post_code":"4700103","prefecture":"AICHI KEN","city":"NISSHIN SHI","town":"KITASHINCHO","perfecture_jp":"愛知県","jp_add_1":"日進市","jp_add_2":"北新町"},"4700105":{"post_code":"4700105","prefecture":"AICHI KEN","city":"NISSHIN SHI","town":"GOSHIKIEN","perfecture_jp":"愛知県","jp_add_1":"日進市","jp_add_2":"五色園"},"4700111":{"post_code":"4700111","prefecture":"AICHI KEN","city":"NISSHIN SHI","town":"KOMENOKICHO","perfecture_jp":"愛知県","jp_add_1":"日進市","jp_add_2":"米野木町"},"4700113":{"post_code":"4700113","prefecture":"AICHI KEN","city":"NISSHIN SHI","town":"SAKAE","perfecture_jp":"愛知県","jp_add_1":"日進市","jp_add_2":"栄"},"4700101":{"post_code":"4700101","prefecture":"AICHI KEN","city":"NISSHIN SHI","town":"SAMBONGICHO","perfecture_jp":"愛知県","jp_add_1":"日進市","jp_add_2":"三本木町"},"4700136":{"post_code":"4700136","prefecture":"AICHI KEN","city":"NISSHIN SHI","town":"TAKENOYAMA","perfecture_jp":"愛知県","jp_add_1":"日進市","jp_add_2":"竹の山"},"4700123":{"post_code":"4700123","prefecture":"AICHI KEN","city":"NISSHIN SHI","town":"NOKATACHO","perfecture_jp":"愛知県","jp_add_1":"日進市","jp_add_2":"野方町"},"4700116":{"post_code":"4700116","prefecture":"AICHI KEN","city":"NISSHIN SHI","town":"HIGASHIYAMA","perfecture_jp":"愛知県","jp_add_1":"日進市","jp_add_2":"東山"},"4700112":{"post_code":"4700112","prefecture":"AICHI KEN","city":"NISSHIN SHI","town":"FUJIEDACHO","perfecture_jp":"愛知県","jp_add_1":"日進市","jp_add_2":"藤枝町"},"4700102":{"post_code":"4700102","prefecture":"AICHI KEN","city":"NISSHIN SHI","town":"FUJISHIMACHO","perfecture_jp":"愛知県","jp_add_1":"日進市","jp_add_2":"藤島町"},"4700117":{"post_code":"4700117","prefecture":"AICHI KEN","city":"NISSHIN SHI","town":"FUJITSUKA","perfecture_jp":"愛知県","jp_add_1":"日進市","jp_add_2":"藤塚"},"4700121":{"post_code":"4700121","prefecture":"AICHI KEN","city":"NISSHIN SHI","town":"HONGOCHO","perfecture_jp":"愛知県","jp_add_1":"日進市","jp_add_2":"本郷町"},"4700114":{"post_code":"4700114","prefecture":"AICHI KEN","city":"NISSHIN SHI","town":"MINAMIGAOKA","perfecture_jp":"愛知県","jp_add_1":"日進市","jp_add_2":"南ケ丘"},"4700200":{"post_code":"4700200","prefecture":"AICHI KEN","city":"MIYOSHI SHI","town":"IKANIKEISAIGANAIBAAI","perfecture_jp":"愛知県","jp_add_1":"みよし市","jp_add_2":""},"4700206":{"post_code":"4700206","prefecture":"AICHI KEN","city":"MIYOSHI SHI","town":"AZABUCHO","perfecture_jp":"愛知県","jp_add_1":"みよし市","jp_add_2":"莇生町"},"4700207":{"post_code":"4700207","prefecture":"AICHI KEN","city":"MIYOSHI SHI","town":"UKIGAICHO","perfecture_jp":"愛知県","jp_add_1":"みよし市","jp_add_2":"福谷町"},"4700213":{"post_code":"4700213","prefecture":"AICHI KEN","city":"MIYOSHI SHI","town":"UCHIKOSHICHO","perfecture_jp":"愛知県","jp_add_1":"みよし市","jp_add_2":"打越町"},"4700231":{"post_code":"4700231","prefecture":"AICHI KEN","city":"MIYOSHI SHI","town":"KUROZASA","perfecture_jp":"愛知県","jp_add_1":"みよし市","jp_add_2":"黒笹"},"4700232":{"post_code":"4700232","prefecture":"AICHI KEN","city":"MIYOSHI SHI","town":"KUROZASA IZUMI","perfecture_jp":"愛知県","jp_add_1":"みよし市","jp_add_2":"黒笹いずみ"},"4700201":{"post_code":"4700201","prefecture":"AICHI KEN","city":"MIYOSHI SHI","town":"KUROZASACHO","perfecture_jp":"愛知県","jp_add_1":"みよし市","jp_add_2":"黒笹町"},"4700209":{"post_code":"4700209","prefecture":"AICHI KEN","city":"MIYOSHI SHI","town":"SHIOMI","perfecture_jp":"愛知県","jp_add_1":"みよし市","jp_add_2":"潮見"},"4700227":{"post_code":"4700227","prefecture":"AICHI KEN","city":"MIYOSHI SHI","town":"SONOHARA","perfecture_jp":"愛知県","jp_add_1":"みよし市","jp_add_2":"園原"},"4700211":{"post_code":"4700211","prefecture":"AICHI KEN","city":"MIYOSHI SHI","town":"TENNODAI","perfecture_jp":"愛知県","jp_add_1":"みよし市","jp_add_2":"天王台"},"4700226":{"post_code":"4700226","prefecture":"AICHI KEN","city":"MIYOSHI SHI","town":"NISHIISHIKICHO","perfecture_jp":"愛知県","jp_add_1":"みよし市","jp_add_2":"西一色町"},"4700221":{"post_code":"4700221","prefecture":"AICHI KEN","city":"MIYOSHI SHI","town":"NISHIJINTORIYAMA","perfecture_jp":"愛知県","jp_add_1":"みよし市","jp_add_2":"西陣取山"},"4700217":{"post_code":"4700217","prefecture":"AICHI KEN","city":"MIYOSHI SHI","town":"NEURAMACHI","perfecture_jp":"愛知県","jp_add_1":"みよし市","jp_add_2":"根浦町"},"4700222":{"post_code":"4700222","prefecture":"AICHI KEN","city":"MIYOSHI SHI","town":"HIGASHIJINTORIYAMA","perfecture_jp":"愛知県","jp_add_1":"みよし市","jp_add_2":"東陣取山"},"4700223":{"post_code":"4700223","prefecture":"AICHI KEN","city":"MIYOSHI SHI","town":"HIGASHIHACHIGAIKE","perfecture_jp":"愛知県","jp_add_1":"みよし市","jp_add_2":"東蜂ヶ池"},"4700212":{"post_code":"4700212","prefecture":"AICHI KEN","city":"MIYOSHI SHI","town":"HIGASHIYAMADAI","perfecture_jp":"愛知県","jp_add_1":"みよし市","jp_add_2":"東山台"},"4700208":{"post_code":"4700208","prefecture":"AICHI KEN","city":"MIYOSHI SHI","town":"HIBARIGAOKA","perfecture_jp":"愛知県","jp_add_1":"みよし市","jp_add_2":"ひばりヶ丘"},"4700225":{"post_code":"4700225","prefecture":"AICHI KEN","city":"MIYOSHI SHI","town":"FUKUTACHO","perfecture_jp":"愛知県","jp_add_1":"みよし市","jp_add_2":"福田町"},"4700216":{"post_code":"4700216","prefecture":"AICHI KEN","city":"MIYOSHI SHI","town":"MINAMIDAI","perfecture_jp":"愛知県","jp_add_1":"みよし市","jp_add_2":"南台"},"4700215":{"post_code":"4700215","prefecture":"AICHI KEN","city":"MIYOSHI SHI","town":"MINAYOSHIDAI","perfecture_jp":"愛知県","jp_add_1":"みよし市","jp_add_2":"みなよし台"},"4700214":{"post_code":"4700214","prefecture":"AICHI KEN","city":"MIYOSHI SHI","town":"MYOCHICHO","perfecture_jp":"愛知県","jp_add_1":"みよし市","jp_add_2":"明知町"},"4700202":{"post_code":"4700202","prefecture":"AICHI KEN","city":"MIYOSHI SHI","town":"MIYOSHIGAOKA","perfecture_jp":"愛知県","jp_add_1":"みよし市","jp_add_2":"三好丘"},"4700233":{"post_code":"4700233","prefecture":"AICHI KEN","city":"MIYOSHI SHI","town":"MIYOSHIGAOKA AOBA","perfecture_jp":"愛知県","jp_add_1":"みよし市","jp_add_2":"三好丘あおば"},"4700203":{"post_code":"4700203","prefecture":"AICHI KEN","city":"MIYOSHI SHI","town":"MIYOSHIGAOKA ASAHI","perfecture_jp":"愛知県","jp_add_1":"みよし市","jp_add_2":"三好丘旭"},"4700204":{"post_code":"4700204","prefecture":"AICHI KEN","city":"MIYOSHI SHI","town":"MIYOSHIGAOKA SAKURA","perfecture_jp":"愛知県","jp_add_1":"みよし市","jp_add_2":"三好丘桜"},"4700205":{"post_code":"4700205","prefecture":"AICHI KEN","city":"MIYOSHI SHI","town":"MIYOSHIGAOKA MIDORI","perfecture_jp":"愛知県","jp_add_1":"みよし市","jp_add_2":"三好丘緑"},"4700224":{"post_code":"4700224","prefecture":"AICHI KEN","city":"MIYOSHI SHI","town":"MIYOSHICHO","perfecture_jp":"愛知県","jp_add_1":"みよし市","jp_add_2":"三好町"},"4700152":{"post_code":"4700152","prefecture":"AICHI KEN","city":"AICHI GUN TOGO CHO","town":"KITAYAMADAI","perfecture_jp":"愛知県","jp_add_1":"愛知郡東郷町","jp_add_2":"北山台"},"4700155":{"post_code":"4700155","prefecture":"AICHI KEN","city":"AICHI GUN TOGO CHO","town":"SHIRATORI","perfecture_jp":"愛知県","jp_add_1":"愛知郡東郷町","jp_add_2":"白鳥"},"4700165":{"post_code":"4700165","prefecture":"AICHI KEN","city":"AICHI GUN TOGO CHO","town":"SHIMIZU","perfecture_jp":"愛知県","jp_add_1":"愛知郡東郷町","jp_add_2":"清水"},"4700163":{"post_code":"4700163","prefecture":"AICHI KEN","city":"AICHI GUN TOGO CHO","town":"SUZUMIMATSU","perfecture_jp":"愛知県","jp_add_1":"愛知郡東郷町","jp_add_2":"涼松"},"4700162":{"post_code":"4700162","prefecture":"AICHI KEN","city":"AICHI GUN TOGO CHO","town":"HARUKI","perfecture_jp":"愛知県","jp_add_1":"愛知郡東郷町","jp_add_2":"春木"},"4700161":{"post_code":"4700161","prefecture":"AICHI KEN","city":"AICHI GUN TOGO CHO","town":"HARUKIDAI","perfecture_jp":"愛知県","jp_add_1":"愛知郡東郷町","jp_add_2":"春木台"},"4700166":{"post_code":"4700166","prefecture":"AICHI KEN","city":"AICHI GUN TOGO CHO","town":"HYOGO","perfecture_jp":"愛知県","jp_add_1":"愛知郡東郷町","jp_add_2":"兵庫"},"4700156":{"post_code":"4700156","prefecture":"AICHI KEN","city":"AICHI GUN TOGO CHO","town":"MITAKE","perfecture_jp":"愛知県","jp_add_1":"愛知郡東郷町","jp_add_2":"御岳"},"4700164":{"post_code":"4700164","prefecture":"AICHI KEN","city":"AICHI GUN TOGO CHO","town":"MITSUIKE","perfecture_jp":"愛知県","jp_add_1":"愛知郡東郷町","jp_add_2":"三ツ池"},"4700151":{"post_code":"4700151","prefecture":"AICHI KEN","city":"AICHI GUN TOGO CHO","town":"MOROWA","perfecture_jp":"愛知県","jp_add_1":"愛知郡東郷町","jp_add_2":"諸輪"},"4700153":{"post_code":"4700153","prefecture":"AICHI KEN","city":"AICHI GUN TOGO CHO","town":"WAGO","perfecture_jp":"愛知県","jp_add_1":"愛知郡東郷町","jp_add_2":"和合"},"4700154":{"post_code":"4700154","prefecture":"AICHI KEN","city":"AICHI GUN TOGO CHO","town":"WAGOGAOKA","perfecture_jp":"愛知県","jp_add_1":"愛知郡東郷町","jp_add_2":"和合ケ丘"},"4702200":{"post_code":"4702200","prefecture":"AICHI KEN","city":"CHITA GUN AGUI CHO","town":"IKANIKEISAIGANAIBAAI","perfecture_jp":"愛知県","jp_add_1":"知多郡阿久比町","jp_add_2":""},"4702213":{"post_code":"4702213","prefecture":"AICHI KEN","city":"CHITA GUN AGUI CHO","town":"AGUI","perfecture_jp":"愛知県","jp_add_1":"知多郡阿久比町","jp_add_2":"阿久比"},"4702203":{"post_code":"4702203","prefecture":"AICHI KEN","city":"CHITA GUN AGUI CHO","town":"ITAYAMA","perfecture_jp":"愛知県","jp_add_1":"知多郡阿久比町","jp_add_2":"板山"},"4702216":{"post_code":"4702216","prefecture":"AICHI KEN","city":"CHITA GUN AGUI CHO","town":"UEDAI","perfecture_jp":"愛知県","jp_add_1":"知多郡阿久比町","jp_add_2":"植大"},"4702212":{"post_code":"4702212","prefecture":"AICHI KEN","city":"CHITA GUN AGUI CHO","town":"USAKA","perfecture_jp":"愛知県","jp_add_1":"知多郡阿久比町","jp_add_2":"卯坂"},"4702217":{"post_code":"4702217","prefecture":"AICHI KEN","city":"CHITA GUN AGUI CHO","town":"USAKAMINAMI","perfecture_jp":"愛知県","jp_add_1":"知多郡阿久比町","jp_add_2":"卯坂南"},"4702211":{"post_code":"4702211","prefecture":"AICHI KEN","city":"CHITA GUN AGUI CHO","town":"KUSAGI","perfecture_jp":"愛知県","jp_add_1":"知多郡阿久比町","jp_add_2":"草木"},"4702201":{"post_code":"4702201","prefecture":"AICHI KEN","city":"CHITA GUN AGUI CHO","town":"SHIRASAWA","perfecture_jp":"愛知県","jp_add_1":"知多郡阿久比町","jp_add_2":"白沢"},"4702205":{"post_code":"4702205","prefecture":"AICHI KEN","city":"CHITA GUN AGUI CHO","town":"HAGI","perfecture_jp":"愛知県","jp_add_1":"知多郡阿久比町","jp_add_2":"萩"},"4702207":{"post_code":"4702207","prefecture":"AICHI KEN","city":"CHITA GUN AGUI CHO","town":"HINATANOKA","perfecture_jp":"愛知県","jp_add_1":"知多郡阿久比町","jp_add_2":"陽なたの丘"},"4702202":{"post_code":"4702202","prefecture":"AICHI KEN","city":"CHITA GUN AGUI CHO","town":"FUKUSUMI","perfecture_jp":"愛知県","jp_add_1":"知多郡阿久比町","jp_add_2":"福住"},"4702204":{"post_code":"4702204","prefecture":"AICHI KEN","city":"CHITA GUN AGUI CHO","town":"MIYAZU","perfecture_jp":"愛知県","jp_add_1":"知多郡阿久比町","jp_add_2":"宮津"},"4702214":{"post_code":"4702214","prefecture":"AICHI KEN","city":"CHITA GUN AGUI CHO","town":"MUKUOKA","perfecture_jp":"愛知県","jp_add_1":"知多郡阿久比町","jp_add_2":"椋岡"},"4702215":{"post_code":"4702215","prefecture":"AICHI KEN","city":"CHITA GUN AGUI CHO","town":"YATAKA","perfecture_jp":"愛知県","jp_add_1":"知多郡阿久比町","jp_add_2":"矢高"},"4702206":{"post_code":"4702206","prefecture":"AICHI KEN","city":"CHITA GUN AGUI CHO","town":"YOKOMATSU","perfecture_jp":"愛知県","jp_add_1":"知多郡阿久比町","jp_add_2":"横松"},"4702100":{"post_code":"4702100","prefecture":"AICHI KEN","city":"CHITA GUN HIGASHIURA CHO","town":"IKANIKEISAIGANAIBAAI","perfecture_jp":"愛知県","jp_add_1":"知多郡東浦町","jp_add_2":""},"4702104":{"post_code":"4702104","prefecture":"AICHI KEN","city":"CHITA GUN HIGASHIURA CHO","town":"IKUJI","perfecture_jp":"愛知県","jp_add_1":"知多郡東浦町","jp_add_2":"生路"},"4702103":{"post_code":"4702103","prefecture":"AICHI KEN","city":"CHITA GUN HIGASHIURA CHO","town":"ISHIHAMA","perfecture_jp":"愛知県","jp_add_1":"知多郡東浦町","jp_add_2":"石浜"},"4702102":{"post_code":"4702102","prefecture":"AICHI KEN","city":"CHITA GUN HIGASHIURA CHO","town":"OGAWA","perfecture_jp":"愛知県","jp_add_1":"知多郡東浦町","jp_add_2":"緒川"},"4702105":{"post_code":"4702105","prefecture":"AICHI KEN","city":"CHITA GUN HIGASHIURA CHO","town":"FUJIE","perfecture_jp":"愛知県","jp_add_1":"知多郡東浦町","jp_add_2":"藤江"},"4702101":{"post_code":"4702101","prefecture":"AICHI KEN","city":"CHITA GUN HIGASHIURA CHO","town":"MORIOKA","perfecture_jp":"愛知県","jp_add_1":"知多郡東浦町","jp_add_2":"森岡"},"4703300":{"post_code":"4703300","prefecture":"AICHI KEN","city":"CHITA GUN MINAMICHITA CHO","town":"IKANIKEISAIGANAIBAAI","perfecture_jp":"愛知県","jp_add_1":"知多郡南知多町","jp_add_2":""},"4703321":{"post_code":"4703321","prefecture":"AICHI KEN","city":"CHITA GUN MINAMICHITA CHO","town":"UTSUMI","perfecture_jp":"愛知県","jp_add_1":"知多郡南知多町","jp_add_2":"内海"},"4703501":{"post_code":"4703501","prefecture":"AICHI KEN","city":"CHITA GUN MINAMICHITA CHO","town":"OI","perfecture_jp":"愛知県","jp_add_1":"知多郡南知多町","jp_add_2":"大井"},"4703502":{"post_code":"4703502","prefecture":"AICHI KEN","city":"CHITA GUN MINAMICHITA CHO","town":"KATANA","perfecture_jp":"愛知県","jp_add_1":"知多郡南知多町","jp_add_2":"片名"},"4703505":{"post_code":"4703505","prefecture":"AICHI KEN","city":"CHITA GUN MINAMICHITA CHO","town":"SHINOJIMA","perfecture_jp":"愛知県","jp_add_1":"知多郡南知多町","jp_add_2":"篠島"},"4703411":{"post_code":"4703411","prefecture":"AICHI KEN","city":"CHITA GUN MINAMICHITA CHO","town":"TOYOKA","perfecture_jp":"愛知県","jp_add_1":"知多郡南知多町","jp_add_2":"豊丘"},"4703412":{"post_code":"4703412","prefecture":"AICHI KEN","city":"CHITA GUN MINAMICHITA CHO","town":"TOYOHAMA","perfecture_jp":"愛知県","jp_add_1":"知多郡南知多町","jp_add_2":"豊浜"},"4703504":{"post_code":"4703504","prefecture":"AICHI KEN","city":"CHITA GUN MINAMICHITA CHO","town":"HIMAKAJIMA","perfecture_jp":"愛知県","jp_add_1":"知多郡南知多町","jp_add_2":"日間賀島"},"4703503":{"post_code":"4703503","prefecture":"AICHI KEN","city":"CHITA GUN MINAMICHITA CHO","town":"MOROZAKI","perfecture_jp":"愛知県","jp_add_1":"知多郡南知多町","jp_add_2":"師崎"},"4703322":{"post_code":"4703322","prefecture":"AICHI KEN","city":"CHITA GUN MINAMICHITA CHO","town":"YAMAMI","perfecture_jp":"愛知県","jp_add_1":"知多郡南知多町","jp_add_2":"山海"},"4703200":{"post_code":"4703200","prefecture":"AICHI KEN","city":"CHITA GUN MIHAMA CHO","town":"IKANIKEISAIGANAIBAAI","perfecture_jp":"愛知県","jp_add_1":"知多郡美浜町","jp_add_2":""},"4702412":{"post_code":"4702412","prefecture":"AICHI KEN","city":"CHITA GUN MIHAMA CHO","town":"URATO","perfecture_jp":"愛知県","jp_add_1":"知多郡美浜町","jp_add_2":"浦戸"},"4703233":{"post_code":"4703233","prefecture":"AICHI KEN","city":"CHITA GUN MIHAMA CHO","town":"OKUDA","perfecture_jp":"愛知県","jp_add_1":"知多郡美浜町","jp_add_2":"奥田"},"4703236":{"post_code":"4703236","prefecture":"AICHI KEN","city":"CHITA GUN MIHAMA CHO","town":"ONORA","perfecture_jp":"愛知県","jp_add_1":"知多郡美浜町","jp_add_2":"小野浦"},"4703231":{"post_code":"4703231","prefecture":"AICHI KEN","city":"CHITA GUN MIHAMA CHO","town":"KAMINOMA","perfecture_jp":"愛知県","jp_add_1":"知多郡美浜町","jp_add_2":"上野間"},"4702403":{"post_code":"4702403","prefecture":"AICHI KEN","city":"CHITA GUN MIHAMA CHO","town":"KITAGATA","perfecture_jp":"愛知県","jp_add_1":"知多郡美浜町","jp_add_2":"北方"},"4702413":{"post_code":"4702413","prefecture":"AICHI KEN","city":"CHITA GUN MIHAMA CHO","town":"KO","perfecture_jp":"愛知県","jp_add_1":"知多郡美浜町","jp_add_2":"古布"},"4702404":{"post_code":"4702404","prefecture":"AICHI KEN","city":"CHITA GUN MIHAMA CHO","town":"KOWA","perfecture_jp":"愛知県","jp_add_1":"知多郡美浜町","jp_add_2":"河和"},"4702409":{"post_code":"4702409","prefecture":"AICHI KEN","city":"CHITA GUN MIHAMA CHO","town":"KOWA(KAMIMAEDA)","perfecture_jp":"愛知県","jp_add_1":"知多郡美浜町","jp_add_2":"河和"},"4702406":{"post_code":"4702406","prefecture":"AICHI KEN","city":"CHITA GUN MIHAMA CHO","town":"KOWA(KITADAMEN)","perfecture_jp":"愛知県","jp_add_1":"知多郡美浜町","jp_add_2":"河和"},"4702407":{"post_code":"4702407","prefecture":"AICHI KEN","city":"CHITA GUN MIHAMA CHO","town":"KOWA(KITAYASHIKI)","perfecture_jp":"愛知県","jp_add_1":"知多郡美浜町","jp_add_2":"河和"},"4702408":{"post_code":"4702408","prefecture":"AICHI KEN","city":"CHITA GUN MIHAMA CHO","town":"KOWA(MINAMIYASHIKI)","perfecture_jp":"愛知県","jp_add_1":"知多郡美浜町","jp_add_2":"河和"},"4702405":{"post_code":"4702405","prefecture":"AICHI KEN","city":"CHITA GUN MIHAMA CHO","town":"KOWADAI","perfecture_jp":"愛知県","jp_add_1":"知多郡美浜町","jp_add_2":"河和台"},"4702411":{"post_code":"4702411","prefecture":"AICHI KEN","city":"CHITA GUN MIHAMA CHO","town":"SHINURATO","perfecture_jp":"愛知県","jp_add_1":"知多郡美浜町","jp_add_2":"新浦戸"},"4703234":{"post_code":"4703234","prefecture":"AICHI KEN","city":"CHITA GUN MIHAMA CHO","town":"SHINSAKAE","perfecture_jp":"愛知県","jp_add_1":"知多郡美浜町","jp_add_2":"新栄"},"4702402":{"post_code":"4702402","prefecture":"AICHI KEN","city":"CHITA GUN MIHAMA CHO","town":"TOKISHI","perfecture_jp":"愛知県","jp_add_1":"知多郡美浜町","jp_add_2":"時志"},"4702414":{"post_code":"4702414","prefecture":"AICHI KEN","city":"CHITA GUN MIHAMA CHO","town":"TOYOKA","perfecture_jp":"愛知県","jp_add_1":"知多郡美浜町","jp_add_2":"豊丘"},"4703235":{"post_code":"4703235","prefecture":"AICHI KEN","city":"CHITA GUN MIHAMA CHO","town":"NOMA","perfecture_jp":"愛知県","jp_add_1":"知多郡美浜町","jp_add_2":"野間"},"4702401":{"post_code":"4702401","prefecture":"AICHI KEN","city":"CHITA GUN MIHAMA CHO","town":"FUTTO","perfecture_jp":"愛知県","jp_add_1":"知多郡美浜町","jp_add_2":"布土"},"4703232":{"post_code":"4703232","prefecture":"AICHI KEN","city":"CHITA GUN MIHAMA CHO","town":"MIHAMARYOKUEN","perfecture_jp":"愛知県","jp_add_1":"知多郡美浜町","jp_add_2":"美浜緑苑"},"4702300":{"post_code":"4702300","prefecture":"AICHI KEN","city":"CHITA GUN TAKETOYO CHO","town":"IKANIKEISAIGANAIBAAI","perfecture_jp":"愛知県","jp_add_1":"知多郡武豊町","jp_add_2":""},"4702384":{"post_code":"4702384","prefecture":"AICHI KEN","city":"CHITA GUN TAKETOYO CHO","town":"AOKIGAOKA","perfecture_jp":"愛知県","jp_add_1":"知多郡武豊町","jp_add_2":"青木ケ丘"},"4702332":{"post_code":"4702332","prefecture":"AICHI KEN","city":"CHITA GUN TAKETOYO CHO","town":"AGE","perfecture_jp":"愛知県","jp_add_1":"知多郡武豊町","jp_add_2":"上ケ"},"4702514":{"post_code":"4702514","prefecture":"AICHI KEN","city":"CHITA GUN TAKETOYO CHO","town":"ASAHI","perfecture_jp":"愛知県","jp_add_1":"知多郡武豊町","jp_add_2":"旭"},"4702363":{"post_code":"4702363","prefecture":"AICHI KEN","city":"CHITA GUN TAKETOYO CHO","town":"ASAHIGAOKA","perfecture_jp":"愛知県","jp_add_1":"知多郡武豊町","jp_add_2":"旭ケ丘"},"4702314":{"post_code":"4702314","prefecture":"AICHI KEN","city":"CHITA GUN TAKETOYO CHO","town":"ASAMIZU","perfecture_jp":"愛知県","jp_add_1":"知多郡武豊町","jp_add_2":"浅水"},"4702329":{"post_code":"4702329","prefecture":"AICHI KEN","city":"CHITA GUN TAKETOYO CHO","town":"IKEDA","perfecture_jp":"愛知県","jp_add_1":"知多郡武豊町","jp_add_2":"池田"},"4702311":{"post_code":"4702311","prefecture":"AICHI KEN","city":"CHITA GUN TAKETOYO CHO","town":"ISHIKAWA","perfecture_jp":"愛知県","jp_add_1":"知多郡武豊町","jp_add_2":"石川"},"4702551":{"post_code":"4702551","prefecture":"AICHI KEN","city":"CHITA GUN TAKETOYO CHO","town":"ISHIDA","perfecture_jp":"愛知県","jp_add_1":"知多郡武豊町","jp_add_2":"石田"},"4702513":{"post_code":"4702513","prefecture":"AICHI KEN","city":"CHITA GUN TAKETOYO CHO","town":"ICHIGOCHI","perfecture_jp":"愛知県","jp_add_1":"知多郡武豊町","jp_add_2":"一号地"},"4702301":{"post_code":"4702301","prefecture":"AICHI KEN","city":"CHITA GUN TAKETOYO CHO","town":"ITCHODA","perfecture_jp":"愛知県","jp_add_1":"知多郡武豊町","jp_add_2":"壱町田"},"4702506":{"post_code":"4702506","prefecture":"AICHI KEN","city":"CHITA GUN TAKETOYO CHO","town":"USHIRODA","perfecture_jp":"愛知県","jp_add_1":"知多郡武豊町","jp_add_2":"後田"},"4702503":{"post_code":"4702503","prefecture":"AICHI KEN","city":"CHITA GUN TAKETOYO CHO","town":"USHIROBATA","perfecture_jp":"愛知県","jp_add_1":"知多郡武豊町","jp_add_2":"後畑"},"4702324":{"post_code":"4702324","prefecture":"AICHI KEN","city":"CHITA GUN TAKETOYO CHO","town":"UCHIKANNA","perfecture_jp":"愛知県","jp_add_1":"知多郡武豊町","jp_add_2":"内鉋"},"4702377":{"post_code":"4702377","prefecture":"AICHI KEN","city":"CHITA GUN TAKETOYO CHO","town":"EGE","perfecture_jp":"愛知県","jp_add_1":"知多郡武豊町","jp_add_2":"会下"},"4702337":{"post_code":"4702337","prefecture":"AICHI KEN","city":"CHITA GUN TAKETOYO CHO","town":"EGEYASHIKI","perfecture_jp":"愛知県","jp_add_1":"知多郡武豊町","jp_add_2":"ヱケ屋敷"},"4702366":{"post_code":"4702366","prefecture":"AICHI KEN","city":"CHITA GUN TAKETOYO CHO","town":"OGAKE","perfecture_jp":"愛知県","jp_add_1":"知多郡武豊町","jp_add_2":"ヲヲガケ"},"4702543":{"post_code":"4702543","prefecture":"AICHI KEN","city":"CHITA GUN TAKETOYO CHO","town":"OYASHIKI","perfecture_jp":"愛知県","jp_add_1":"知多郡武豊町","jp_add_2":"大屋敷"},"4702344":{"post_code":"4702344","prefecture":"AICHI KEN","city":"CHITA GUN TAKETOYO CHO","town":"KANAGE","perfecture_jp":"愛知県","jp_add_1":"知多郡武豊町","jp_add_2":"金下"},"4702302":{"post_code":"4702302","prefecture":"AICHI KEN","city":"CHITA GUN TAKETOYO CHO","town":"KANOKODA","perfecture_jp":"愛知県","jp_add_1":"知多郡武豊町","jp_add_2":"鹿ノ子田"},"4702364":{"post_code":"4702364","prefecture":"AICHI KEN","city":"CHITA GUN TAKETOYO CHO","town":"KAMIOKOSHI","perfecture_jp":"愛知県","jp_add_1":"知多郡武豊町","jp_add_2":"上起"},"4702376":{"post_code":"4702376","prefecture":"AICHI KEN","city":"CHITA GUN TAKETOYO CHO","town":"KAMIHARA","perfecture_jp":"愛知県","jp_add_1":"知多郡武豊町","jp_add_2":"上原"},"4702387":{"post_code":"4702387","prefecture":"AICHI KEN","city":"CHITA GUN TAKETOYO CHO","town":"KAMIYAMA","perfecture_jp":"愛知県","jp_add_1":"知多郡武豊町","jp_add_2":"上山"},"4702306":{"post_code":"4702306","prefecture":"AICHI KEN","city":"CHITA GUN TAKETOYO CHO","town":"KAMIYAMANOTA","perfecture_jp":"愛知県","jp_add_1":"知多郡武豊町","jp_add_2":"上山ノ田"},"4702354":{"post_code":"4702354","prefecture":"AICHI KEN","city":"CHITA GUN TAKETOYO CHO","town":"KAWAJIRI","perfecture_jp":"愛知県","jp_add_1":"知多郡武豊町","jp_add_2":"川尻"},"4702508":{"post_code":"4702508","prefecture":"AICHI KEN","city":"CHITA GUN TAKETOYO CHO","town":"KAWAWAKI","perfecture_jp":"愛知県","jp_add_1":"知多郡武豊町","jp_add_2":"川脇"},"4702312":{"post_code":"4702312","prefecture":"AICHI KEN","city":"CHITA GUN TAKETOYO CHO","town":"KITAGURUWA","perfecture_jp":"愛知県","jp_add_1":"知多郡武豊町","jp_add_2":"北曲輪"},"4702379":{"post_code":"4702379","prefecture":"AICHI KEN","city":"CHITA GUN TAKETOYO CHO","town":"KITAKOMATSUDANI","perfecture_jp":"愛知県","jp_add_1":"知多郡武豊町","jp_add_2":"北小松谷"},"4702547":{"post_code":"4702547","prefecture":"AICHI KEN","city":"CHITA GUN TAKETOYO CHO","town":"KITASHINDEN","perfecture_jp":"愛知県","jp_add_1":"知多郡武豊町","jp_add_2":"北新田"},"4702385":{"post_code":"4702385","prefecture":"AICHI KEN","city":"CHITA GUN TAKETOYO CHO","town":"KITANAKANE","perfecture_jp":"愛知県","jp_add_1":"知多郡武豊町","jp_add_2":"北中根"},"4702383":{"post_code":"4702383","prefecture":"AICHI KEN","city":"CHITA GUN TAKETOYO CHO","town":"KITANAGAMUNE","perfecture_jp":"愛知県","jp_add_1":"知多郡武豊町","jp_add_2":"北長宗"},"4702313":{"post_code":"4702313","prefecture":"AICHI KEN","city":"CHITA GUN TAKETOYO CHO","town":"KYUGOCHI","perfecture_jp":"愛知県","jp_add_1":"知多郡武豊町","jp_add_2":"九号地"},"4702552":{"post_code":"4702552","prefecture":"AICHI KEN","city":"CHITA GUN TAKETOYO CHO","town":"KUSAGUCHI","perfecture_jp":"愛知県","jp_add_1":"知多郡武豊町","jp_add_2":"草口"},"4702358":{"post_code":"4702358","prefecture":"AICHI KEN","city":"CHITA GUN TAKETOYO CHO","town":"KUSUNOKI","perfecture_jp":"愛知県","jp_add_1":"知多郡武豊町","jp_add_2":"楠"},"4702323":{"post_code":"4702323","prefecture":"AICHI KEN","city":"CHITA GUN TAKETOYO CHO","town":"KUCHIDA","perfecture_jp":"愛知県","jp_add_1":"知多郡武豊町","jp_add_2":"口田"},"4702504":{"post_code":"4702504","prefecture":"AICHI KEN","city":"CHITA GUN TAKETOYO CHO","town":"KUMANO","perfecture_jp":"愛知県","jp_add_1":"知多郡武豊町","jp_add_2":"熊野"},"4702357":{"post_code":"4702357","prefecture":"AICHI KEN","city":"CHITA GUN TAKETOYO CHO","town":"KOYO","perfecture_jp":"愛知県","jp_add_1":"知多郡武豊町","jp_add_2":"向陽"},"4702341":{"post_code":"4702341","prefecture":"AICHI KEN","city":"CHITA GUN TAKETOYO CHO","town":"GOGOCHI","perfecture_jp":"愛知県","jp_add_1":"知多郡武豊町","jp_add_2":"五号地"},"4702343":{"post_code":"4702343","prefecture":"AICHI KEN","city":"CHITA GUN TAKETOYO CHO","town":"KOMUKAE","perfecture_jp":"愛知県","jp_add_1":"知多郡武豊町","jp_add_2":"小迎"},"4702359":{"post_code":"4702359","prefecture":"AICHI KEN","city":"CHITA GUN TAKETOYO CHO","town":"SAKURAGAOKA","perfecture_jp":"愛知県","jp_add_1":"知多郡武豊町","jp_add_2":"桜ケ丘"},"4702544":{"post_code":"4702544","prefecture":"AICHI KEN","city":"CHITA GUN TAKETOYO CHO","town":"SATONAKA","perfecture_jp":"愛知県","jp_add_1":"知多郡武豊町","jp_add_2":"里中"},"4702342":{"post_code":"4702342","prefecture":"AICHI KEN","city":"CHITA GUN TAKETOYO CHO","town":"SAWADASHINDEN","perfecture_jp":"愛知県","jp_add_1":"知多郡武豊町","jp_add_2":"沢田新田"},"4702322":{"post_code":"4702322","prefecture":"AICHI KEN","city":"CHITA GUN TAKETOYO CHO","town":"SHIOTA","perfecture_jp":"愛知県","jp_add_1":"知多郡武豊町","jp_add_2":"塩田"},"4702339":{"post_code":"4702339","prefecture":"AICHI KEN","city":"CHITA GUN TAKETOYO CHO","town":"SHITAMON","perfecture_jp":"愛知県","jp_add_1":"知多郡武豊町","jp_add_2":"下門"},"4702373":{"post_code":"4702373","prefecture":"AICHI KEN","city":"CHITA GUN TAKETOYO CHO","town":"SHIMADA","perfecture_jp":"愛知県","jp_add_1":"知多郡武豊町","jp_add_2":"嶋田"},"4702356":{"post_code":"4702356","prefecture":"AICHI KEN","city":"CHITA GUN TAKETOYO CHO","town":"SHIMOKOSHI","perfecture_jp":"愛知県","jp_add_1":"知多郡武豊町","jp_add_2":"下起"},"4702515":{"post_code":"4702515","prefecture":"AICHI KEN","city":"CHITA GUN TAKETOYO CHO","town":"SHIMODA","perfecture_jp":"愛知県","jp_add_1":"知多郡武豊町","jp_add_2":"下田"},"4702371":{"post_code":"4702371","prefecture":"AICHI KEN","city":"CHITA GUN TAKETOYO CHO","town":"SHIMOHARA","perfecture_jp":"愛知県","jp_add_1":"知多郡武豊町","jp_add_2":"下原"},"4702305":{"post_code":"4702305","prefecture":"AICHI KEN","city":"CHITA GUN TAKETOYO CHO","town":"SHIMOYAMANOTA","perfecture_jp":"愛知県","jp_add_1":"知多郡武豊町","jp_add_2":"下山ノ田"},"4702317":{"post_code":"4702317","prefecture":"AICHI KEN","city":"CHITA GUN TAKETOYO CHO","town":"SUNAGAWA","perfecture_jp":"愛知県","jp_add_1":"知多郡武豊町","jp_add_2":"砂川"},"4702348":{"post_code":"4702348","prefecture":"AICHI KEN","city":"CHITA GUN TAKETOYO CHO","town":"SEGI","perfecture_jp":"愛知県","jp_add_1":"知多郡武豊町","jp_add_2":"瀬木"},"4702555":{"post_code":"4702555","prefecture":"AICHI KEN","city":"CHITA GUN TAKETOYO CHO","town":"DAIMONDA","perfecture_jp":"愛知県","jp_add_1":"知多郡武豊町","jp_add_2":"大門田"},"4702361":{"post_code":"4702361","prefecture":"AICHI KEN","city":"CHITA GUN TAKETOYO CHO","town":"TAGA","perfecture_jp":"愛知県","jp_add_1":"知多郡武豊町","jp_add_2":"多賀"},"4702333":{"post_code":"4702333","prefecture":"AICHI KEN","city":"CHITA GUN TAKETOYO CHO","town":"TAKANOMAE","perfecture_jp":"愛知県","jp_add_1":"知多郡武豊町","jp_add_2":"高野前"},"4702505":{"post_code":"4702505","prefecture":"AICHI KEN","city":"CHITA GUN TAKETOYO CHO","town":"TAZAKI","perfecture_jp":"愛知県","jp_add_1":"知多郡武豊町","jp_add_2":"田崎"},"4702335":{"post_code":"4702335","prefecture":"AICHI KEN","city":"CHITA GUN TAKETOYO CHO","town":"TANIGUCHI","perfecture_jp":"愛知県","jp_add_1":"知多郡武豊町","jp_add_2":"谷口"},"4702512":{"post_code":"4702512","prefecture":"AICHI KEN","city":"CHITA GUN TAKETOYO CHO","town":"CHUSHIRODA","perfecture_jp":"愛知県","jp_add_1":"知多郡武豊町","jp_add_2":"忠白田"},"4702319":{"post_code":"4702319","prefecture":"AICHI KEN","city":"CHITA GUN TAKETOYO CHO","town":"CHUREN","perfecture_jp":"愛知県","jp_add_1":"知多郡武豊町","jp_add_2":"中蓮"},"4702307":{"post_code":"4702307","prefecture":"AICHI KEN","city":"CHITA GUN TAKETOYO CHO","town":"JAGATANI","perfecture_jp":"愛知県","jp_add_1":"知多郡武豊町","jp_add_2":"蛇ケ谷"},"4702328":{"post_code":"4702328","prefecture":"AICHI KEN","city":"CHITA GUN TAKETOYO CHO","town":"JABUCHI","perfecture_jp":"愛知県","jp_add_1":"知多郡武豊町","jp_add_2":"蛇渕"},"4702372":{"post_code":"4702372","prefecture":"AICHI KEN","city":"CHITA GUN TAKETOYO CHO","town":"JINDA","perfecture_jp":"愛知県","jp_add_1":"知多郡武豊町","jp_add_2":"甚田"},"4702542":{"post_code":"4702542","prefecture":"AICHI KEN","city":"CHITA GUN TAKETOYO CHO","town":"TSUCHIANA","perfecture_jp":"愛知県","jp_add_1":"知多郡武豊町","jp_add_2":"土穴"},"4702327":{"post_code":"4702327","prefecture":"AICHI KEN","city":"CHITA GUN TAKETOYO CHO","town":"TENJIMMAE","perfecture_jp":"愛知県","jp_add_1":"知多郡武豊町","jp_add_2":"天神前"},"4702347":{"post_code":"4702347","prefecture":"AICHI KEN","city":"CHITA GUN TAKETOYO CHO","town":"DOSAKI","perfecture_jp":"愛知県","jp_add_1":"知多郡武豊町","jp_add_2":"道崎"},"4702353":{"post_code":"4702353","prefecture":"AICHI KEN","city":"CHITA GUN TAKETOYO CHO","town":"DOSAKIDA","perfecture_jp":"愛知県","jp_add_1":"知多郡武豊町","jp_add_2":"道崎田"},"4702511":{"post_code":"4702511","prefecture":"AICHI KEN","city":"CHITA GUN TAKETOYO CHO","town":"DOSENDA","perfecture_jp":"愛知県","jp_add_1":"知多郡武豊町","jp_add_2":"道仙田"},"4702334":{"post_code":"4702334","prefecture":"AICHI KEN","city":"CHITA GUN TAKETOYO CHO","town":"NAKANE","perfecture_jp":"愛知県","jp_add_1":"知多郡武豊町","jp_add_2":"中根"},"4702315":{"post_code":"4702315","prefecture":"AICHI KEN","city":"CHITA GUN TAKETOYO CHO","town":"NAKABASAMI","perfecture_jp":"愛知県","jp_add_1":"知多郡武豊町","jp_add_2":"中狭"},"4702388":{"post_code":"4702388","prefecture":"AICHI KEN","city":"CHITA GUN TAKETOYO CHO","town":"NAKAYAMA","perfecture_jp":"愛知県","jp_add_1":"知多郡武豊町","jp_add_2":"中山"},"4702346":{"post_code":"4702346","prefecture":"AICHI KEN","city":"CHITA GUN TAKETOYO CHO","town":"NAGAOYAMA","perfecture_jp":"愛知県","jp_add_1":"知多郡武豊町","jp_add_2":"長尾山"},"4702517":{"post_code":"4702517","prefecture":"AICHI KEN","city":"CHITA GUN TAKETOYO CHO","town":"NAGAMINE","perfecture_jp":"愛知県","jp_add_1":"知多郡武豊町","jp_add_2":"長峰"},"4702389":{"post_code":"4702389","prefecture":"AICHI KEN","city":"CHITA GUN TAKETOYO CHO","town":"NAGAMUNE","perfecture_jp":"愛知県","jp_add_1":"知多郡武豊町","jp_add_2":"長宗"},"4702309":{"post_code":"4702309","prefecture":"AICHI KEN","city":"CHITA GUN TAKETOYO CHO","town":"NASHINOKI","perfecture_jp":"愛知県","jp_add_1":"知多郡武豊町","jp_add_2":"梨子ノ木"},"4702321":{"post_code":"4702321","prefecture":"AICHI KEN","city":"CHITA GUN TAKETOYO CHO","town":"NANAGOCHI","perfecture_jp":"愛知県","jp_add_1":"知多郡武豊町","jp_add_2":"七号地"},"4702316":{"post_code":"4702316","prefecture":"AICHI KEN","city":"CHITA GUN TAKETOYO CHO","town":"NIGASAKI","perfecture_jp":"愛知県","jp_add_1":"知多郡武豊町","jp_add_2":"二ケ崎"},"4702349":{"post_code":"4702349","prefecture":"AICHI KEN","city":"CHITA GUN TAKETOYO CHO","town":"NISHITAZAKI","perfecture_jp":"愛知県","jp_add_1":"知多郡武豊町","jp_add_2":"西田崎"},"4702345":{"post_code":"4702345","prefecture":"AICHI KEN","city":"CHITA GUN TAKETOYO CHO","town":"NISHIMON","perfecture_jp":"愛知県","jp_add_1":"知多郡武豊町","jp_add_2":"西門"},"4702554":{"post_code":"4702554","prefecture":"AICHI KEN","city":"CHITA GUN TAKETOYO CHO","town":"HAKUSAN","perfecture_jp":"愛知県","jp_add_1":"知多郡武豊町","jp_add_2":"白山"},"4702516":{"post_code":"4702516","prefecture":"AICHI KEN","city":"CHITA GUN TAKETOYO CHO","town":"HAZAMA","perfecture_jp":"愛知県","jp_add_1":"知多郡武豊町","jp_add_2":"廻間"},"4702374":{"post_code":"4702374","prefecture":"AICHI KEN","city":"CHITA GUN TAKETOYO CHO","town":"HARADA","perfecture_jp":"愛知県","jp_add_1":"知多郡武豊町","jp_add_2":"原田"},"4702375":{"post_code":"4702375","prefecture":"AICHI KEN","city":"CHITA GUN TAKETOYO CHO","town":"HARAYASHIKI","perfecture_jp":"愛知県","jp_add_1":"知多郡武豊町","jp_add_2":"原屋敷"},"4702521":{"post_code":"4702521","prefecture":"AICHI KEN","city":"CHITA GUN TAKETOYO CHO","town":"HIGASHIODAKA","perfecture_jp":"愛知県","jp_add_1":"知多郡武豊町","jp_add_2":"東大高"},"4702382":{"post_code":"4702382","prefecture":"AICHI KEN","city":"CHITA GUN TAKETOYO CHO","town":"HIGASHINAGAMUNE","perfecture_jp":"愛知県","jp_add_1":"知多郡武豊町","jp_add_2":"東長宗"},"4702331":{"post_code":"4702331","prefecture":"AICHI KEN","city":"CHITA GUN TAKETOYO CHO","town":"HIJIRIDA","perfecture_jp":"愛知県","jp_add_1":"知多郡武豊町","jp_add_2":"ヒジリ田"},"4702365":{"post_code":"4702365","prefecture":"AICHI KEN","city":"CHITA GUN TAKETOYO CHO","town":"HITOSEMACHI","perfecture_jp":"愛知県","jp_add_1":"知多郡武豊町","jp_add_2":"壱畝町"},"4702380":{"post_code":"4702380","prefecture":"AICHI KEN","city":"CHITA GUN TAKETOYO CHO","town":"HIRAI","perfecture_jp":"愛知県","jp_add_1":"知多郡武豊町","jp_add_2":"平井"},"4702304":{"post_code":"4702304","prefecture":"AICHI KEN","city":"CHITA GUN TAKETOYO CHO","town":"HIRAIDA","perfecture_jp":"愛知県","jp_add_1":"知多郡武豊町","jp_add_2":"平井田"},"4702326":{"post_code":"4702326","prefecture":"AICHI KEN","city":"CHITA GUN TAKETOYO CHO","town":"HIRAIBATA","perfecture_jp":"愛知県","jp_add_1":"知多郡武豊町","jp_add_2":"平井畑"},"4702531":{"post_code":"4702531","prefecture":"AICHI KEN","city":"CHITA GUN TAKETOYO CHO","town":"FUKI","perfecture_jp":"愛知県","jp_add_1":"知多郡武豊町","jp_add_2":"冨貴"},"4702308":{"post_code":"4702308","prefecture":"AICHI KEN","city":"CHITA GUN TAKETOYO CHO","town":"FUTATSUMINE","perfecture_jp":"愛知県","jp_add_1":"知多郡武豊町","jp_add_2":"二ツ峰"},"4702507":{"post_code":"4702507","prefecture":"AICHI KEN","city":"CHITA GUN TAKETOYO CHO","town":"HEIKAIDO","perfecture_jp":"愛知県","jp_add_1":"知多郡武豊町","jp_add_2":"平海道"},"4702318":{"post_code":"4702318","prefecture":"AICHI KEN","city":"CHITA GUN TAKETOYO CHO","town":"HOSEI","perfecture_jp":"愛知県","jp_add_1":"知多郡武豊町","jp_add_2":"豊成"},"4702303":{"post_code":"4702303","prefecture":"AICHI KEN","city":"CHITA GUN TAKETOYO CHO","town":"HOKORAMINE","perfecture_jp":"愛知県","jp_add_1":"知多郡武豊町","jp_add_2":"祠峯"},"4702501":{"post_code":"4702501","prefecture":"AICHI KEN","city":"CHITA GUN TAKETOYO CHO","town":"HORIWARI","perfecture_jp":"愛知県","jp_add_1":"知多郡武豊町","jp_add_2":"堀割"},"4702338":{"post_code":"4702338","prefecture":"AICHI KEN","city":"CHITA GUN TAKETOYO CHO","town":"MAEDA","perfecture_jp":"愛知県","jp_add_1":"知多郡武豊町","jp_add_2":"前田"},"4702545":{"post_code":"4702545","prefecture":"AICHI KEN","city":"CHITA GUN TAKETOYO CHO","town":"MAEHATA","perfecture_jp":"愛知県","jp_add_1":"知多郡武豊町","jp_add_2":"前畑"},"4702386":{"post_code":"4702386","prefecture":"AICHI KEN","city":"CHITA GUN TAKETOYO CHO","town":"MIDORIDAI","perfecture_jp":"愛知県","jp_add_1":"知多郡武豊町","jp_add_2":"緑台"},"4702556":{"post_code":"4702556","prefecture":"AICHI KEN","city":"CHITA GUN TAKETOYO CHO","town":"MINAMIOKOSHI","perfecture_jp":"愛知県","jp_add_1":"知多郡武豊町","jp_add_2":"南起"},"4702378":{"post_code":"4702378","prefecture":"AICHI KEN","city":"CHITA GUN TAKETOYO CHO","town":"MINAMIKOMATSUDANI","perfecture_jp":"愛知県","jp_add_1":"知多郡武豊町","jp_add_2":"南小松谷"},"4702351":{"post_code":"4702351","prefecture":"AICHI KEN","city":"CHITA GUN TAKETOYO CHO","town":"MINAMINAKANE","perfecture_jp":"愛知県","jp_add_1":"知多郡武豊町","jp_add_2":"南中根"},"4702502":{"post_code":"4702502","prefecture":"AICHI KEN","city":"CHITA GUN TAKETOYO CHO","town":"MYOJINDO","perfecture_jp":"愛知県","jp_add_1":"知多郡武豊町","jp_add_2":"明神戸"},"4702355":{"post_code":"4702355","prefecture":"AICHI KEN","city":"CHITA GUN TAKETOYO CHO","town":"MUKAIDA","perfecture_jp":"愛知県","jp_add_1":"知多郡武豊町","jp_add_2":"向田"},"4702352":{"post_code":"4702352","prefecture":"AICHI KEN","city":"CHITA GUN TAKETOYO CHO","town":"MUKAEDO","perfecture_jp":"愛知県","jp_add_1":"知多郡武豊町","jp_add_2":"迎戸"},"4702541":{"post_code":"4702541","prefecture":"AICHI KEN","city":"CHITA GUN TAKETOYO CHO","town":"MEBORI","perfecture_jp":"愛知県","jp_add_1":"知多郡武豊町","jp_add_2":"目堀"},"4702546":{"post_code":"4702546","prefecture":"AICHI KEN","city":"CHITA GUN TAKETOYO CHO","town":"YAMAOKOSHI","perfecture_jp":"愛知県","jp_add_1":"知多郡武豊町","jp_add_2":"山起"},"4702336":{"post_code":"4702336","prefecture":"AICHI KEN","city":"CHITA GUN TAKETOYO CHO","town":"YAMANOKAMI","perfecture_jp":"愛知県","jp_add_1":"知多郡武豊町","jp_add_2":"山ノ神"},"4702553":{"post_code":"4702553","prefecture":"AICHI KEN","city":"CHITA GUN TAKETOYO CHO","town":"YOSE","perfecture_jp":"愛知県","jp_add_1":"知多郡武豊町","jp_add_2":"四畝"},"4702532":{"post_code":"4702532","prefecture":"AICHI KEN","city":"CHITA GUN TAKETOYO CHO","town":"RYUGU","perfecture_jp":"愛知県","jp_add_1":"知多郡武豊町","jp_add_2":"竜宮"},"4702362":{"post_code":"4702362","prefecture":"AICHI KEN","city":"CHITA GUN TAKETOYO CHO","town":"ROKKANYAMA","perfecture_jp":"愛知県","jp_add_1":"知多郡武豊町","jp_add_2":"六貫山"},"4702325":{"post_code":"4702325","prefecture":"AICHI KEN","city":"CHITA GUN TAKETOYO CHO","town":"WAKAMIYA","perfecture_jp":"愛知県","jp_add_1":"知多郡武豊町","jp_add_2":"若宮"}}