{"4720000":{"post_code":"4720000","prefecture":"AICHI KEN","city":"CHIRYU SHI","town":"IKANIKEISAIGANAIBAAI","perfecture_jp":"愛知県","jp_add_1":"知立市","jp_add_2":""},"4720021":{"post_code":"4720021","prefecture":"AICHI KEN","city":"CHIRYU SHI","town":"AIZUMACHO","perfecture_jp":"愛知県","jp_add_1":"知立市","jp_add_2":"逢妻町"},"4720025":{"post_code":"4720025","prefecture":"AICHI KEN","city":"CHIRYU SHI","town":"IKEHATA","perfecture_jp":"愛知県","jp_add_1":"知立市","jp_add_2":"池端"},"4720003":{"post_code":"4720003","prefecture":"AICHI KEN","city":"CHIRYU SHI","town":"USHIDA","perfecture_jp":"愛知県","jp_add_1":"知立市","jp_add_2":"牛田"},"4720007":{"post_code":"4720007","prefecture":"AICHI KEN","city":"CHIRYU SHI","town":"USHITACHO","perfecture_jp":"愛知県","jp_add_1":"知立市","jp_add_2":"牛田町"},"4720042":{"post_code":"4720042","prefecture":"AICHI KEN","city":"CHIRYU SHI","town":"UCHISAIWAICHO","perfecture_jp":"愛知県","jp_add_1":"知立市","jp_add_2":"内幸町"},"4720058":{"post_code":"4720058","prefecture":"AICHI KEN","city":"CHIRYU SHI","town":"KAMISHIGEHARA","perfecture_jp":"愛知県","jp_add_1":"知立市","jp_add_2":"上重原"},"4720026":{"post_code":"4720026","prefecture":"AICHI KEN","city":"CHIRYU SHI","town":"KAMISHIGEHARACHO","perfecture_jp":"愛知県","jp_add_1":"知立市","jp_add_2":"上重原町"},"4720034":{"post_code":"4720034","prefecture":"AICHI KEN","city":"CHIRYU SHI","town":"KOEI","perfecture_jp":"愛知県","jp_add_1":"知立市","jp_add_2":"弘栄"},"4720052":{"post_code":"4720052","prefecture":"AICHI KEN","city":"CHIRYU SHI","town":"KOBO","perfecture_jp":"愛知県","jp_add_1":"知立市","jp_add_2":"弘法"},"4720046":{"post_code":"4720046","prefecture":"AICHI KEN","city":"CHIRYU SHI","town":"KOBOCHO","perfecture_jp":"愛知県","jp_add_1":"知立市","jp_add_2":"弘法町"},"4720037":{"post_code":"4720037","prefecture":"AICHI KEN","city":"CHIRYU SHI","town":"SAKAE","perfecture_jp":"愛知県","jp_add_1":"知立市","jp_add_2":"栄"},"4720031":{"post_code":"4720031","prefecture":"AICHI KEN","city":"CHIRYU SHI","town":"SAKURAGICHO","perfecture_jp":"愛知県","jp_add_1":"知立市","jp_add_2":"桜木町"},"4720011":{"post_code":"4720011","prefecture":"AICHI KEN","city":"CHIRYU SHI","town":"SHOWA","perfecture_jp":"愛知県","jp_add_1":"知立市","jp_add_2":"昭和"},"4720005":{"post_code":"4720005","prefecture":"AICHI KEN","city":"CHIRYU SHI","town":"SHINIKE","perfecture_jp":"愛知県","jp_add_1":"知立市","jp_add_2":"新池"},"4720041":{"post_code":"4720041","prefecture":"AICHI KEN","city":"CHIRYU SHI","town":"SHINCHICHO","perfecture_jp":"愛知県","jp_add_1":"知立市","jp_add_2":"新地町"},"4720047":{"post_code":"4720047","prefecture":"AICHI KEN","city":"CHIRYU SHI","town":"SHINTOMI","perfecture_jp":"愛知県","jp_add_1":"知立市","jp_add_2":"新富"},"4720017":{"post_code":"4720017","prefecture":"AICHI KEN","city":"CHIRYU SHI","town":"SHIMBAYASHICHO","perfecture_jp":"愛知県","jp_add_1":"知立市","jp_add_2":"新林町"},"4720056":{"post_code":"4720056","prefecture":"AICHI KEN","city":"CHIRYU SHI","town":"TAKARA","perfecture_jp":"愛知県","jp_add_1":"知立市","jp_add_2":"宝"},"4720024":{"post_code":"4720024","prefecture":"AICHI KEN","city":"CHIRYU SHI","town":"TAKARAMACHI","perfecture_jp":"愛知県","jp_add_1":"知立市","jp_add_2":"宝町"},"4720043":{"post_code":"4720043","prefecture":"AICHI KEN","city":"CHIRYU SHI","town":"TOEI","perfecture_jp":"愛知県","jp_add_1":"知立市","jp_add_2":"東栄"},"4720055":{"post_code":"4720055","prefecture":"AICHI KEN","city":"CHIRYU SHI","town":"TORII","perfecture_jp":"愛知県","jp_add_1":"知立市","jp_add_2":"鳥居"},"4720033":{"post_code":"4720033","prefecture":"AICHI KEN","city":"CHIRYU SHI","town":"NAKAMACHI","perfecture_jp":"愛知県","jp_add_1":"知立市","jp_add_2":"中町"},"4720032":{"post_code":"4720032","prefecture":"AICHI KEN","city":"CHIRYU SHI","town":"NAKAYAMAMACHI","perfecture_jp":"愛知県","jp_add_1":"知立市","jp_add_2":"中山町"},"4720045":{"post_code":"4720045","prefecture":"AICHI KEN","city":"CHIRYU SHI","town":"NAGASHINOCHO","perfecture_jp":"愛知県","jp_add_1":"知立市","jp_add_2":"長篠町"},"4720035":{"post_code":"4720035","prefecture":"AICHI KEN","city":"CHIRYU SHI","town":"NAGATA","perfecture_jp":"愛知県","jp_add_1":"知立市","jp_add_2":"長田"},"4720004":{"post_code":"4720004","prefecture":"AICHI KEN","city":"CHIRYU SHI","town":"NANYO","perfecture_jp":"愛知県","jp_add_1":"知立市","jp_add_2":"南陽"},"4720057":{"post_code":"4720057","prefecture":"AICHI KEN","city":"CHIRYU SHI","town":"NISHI","perfecture_jp":"愛知県","jp_add_1":"知立市","jp_add_2":"西"},"4720027":{"post_code":"4720027","prefecture":"AICHI KEN","city":"CHIRYU SHI","town":"NISHIOKACHO","perfecture_jp":"愛知県","jp_add_1":"知立市","jp_add_2":"西丘町"},"4720016":{"post_code":"4720016","prefecture":"AICHI KEN","city":"CHIRYU SHI","town":"NISHINAKACHO","perfecture_jp":"愛知県","jp_add_1":"知立市","jp_add_2":"西中町"},"4720023":{"post_code":"4720023","prefecture":"AICHI KEN","city":"CHIRYU SHI","town":"NISHIMACHI","perfecture_jp":"愛知県","jp_add_1":"知立市","jp_add_2":"西町"},"4720054":{"post_code":"4720054","prefecture":"AICHI KEN","city":"CHIRYU SHI","town":"HIGASHIKAMISHIGEHARA","perfecture_jp":"愛知県","jp_add_1":"知立市","jp_add_2":"東上重原"},"4720051":{"post_code":"4720051","prefecture":"AICHI KEN","city":"CHIRYU SHI","town":"HIGASHINAGASHINO","perfecture_jp":"愛知県","jp_add_1":"知立市","jp_add_2":"東長篠"},"4720044":{"post_code":"4720044","prefecture":"AICHI KEN","city":"CHIRYU SHI","town":"HIROMI","perfecture_jp":"愛知県","jp_add_1":"知立市","jp_add_2":"広見"},"4720036":{"post_code":"4720036","prefecture":"AICHI KEN","city":"CHIRYU SHI","town":"HORIKIRI","perfecture_jp":"愛知県","jp_add_1":"知立市","jp_add_2":"堀切"},"4720038":{"post_code":"4720038","prefecture":"AICHI KEN","city":"CHIRYU SHI","town":"HOMMACHI","perfecture_jp":"愛知県","jp_add_1":"知立市","jp_add_2":"本町"},"4720053":{"post_code":"4720053","prefecture":"AICHI KEN","city":"CHIRYU SHI","town":"MINAMISHINCHI","perfecture_jp":"愛知県","jp_add_1":"知立市","jp_add_2":"南新地"},"4720013":{"post_code":"4720013","prefecture":"AICHI KEN","city":"CHIRYU SHI","town":"YATACHO","perfecture_jp":"愛知県","jp_add_1":"知立市","jp_add_2":"谷田町"},"4720015":{"post_code":"4720015","prefecture":"AICHI KEN","city":"CHIRYU SHI","town":"YATACHOHOMBAYASHI","perfecture_jp":"愛知県","jp_add_1":"知立市","jp_add_2":"谷田町本林"},"4720014":{"post_code":"4720014","prefecture":"AICHI KEN","city":"CHIRYU SHI","town":"YATACHONISHI","perfecture_jp":"愛知県","jp_add_1":"知立市","jp_add_2":"谷田町西"},"4720012":{"post_code":"4720012","prefecture":"AICHI KEN","city":"CHIRYU SHI","town":"YATSUDACHO","perfecture_jp":"愛知県","jp_add_1":"知立市","jp_add_2":"八ツ田町"},"4720001":{"post_code":"4720001","prefecture":"AICHI KEN","city":"CHIRYU SHI","town":"YATSUHASHICHO","perfecture_jp":"愛知県","jp_add_1":"知立市","jp_add_2":"八橋町"},"4720006":{"post_code":"4720006","prefecture":"AICHI KEN","city":"CHIRYU SHI","town":"YAMAMACHI","perfecture_jp":"愛知県","jp_add_1":"知立市","jp_add_2":"山町"},"4720022":{"post_code":"4720022","prefecture":"AICHI KEN","city":"CHIRYU SHI","town":"YAMAYASHIKICHO","perfecture_jp":"愛知県","jp_add_1":"知立市","jp_add_2":"山屋敷町"},"4720002":{"post_code":"4720002","prefecture":"AICHI KEN","city":"CHIRYU SHI","town":"RAIKOJICHO","perfecture_jp":"愛知県","jp_add_1":"知立市","jp_add_2":"来迎寺町"}}