{"4730928":{"post_code":"4730928","prefecture":"AICHI KEN","city":"TOYOTA SHI","town":"IKOMACHO","perfecture_jp":"愛知県","jp_add_1":"豊田市","jp_add_2":"生駒町"},"4730935":{"post_code":"4730935","prefecture":"AICHI KEN","city":"TOYOTA SHI","town":"OSHIMACHO","perfecture_jp":"愛知県","jp_add_1":"豊田市","jp_add_2":"大島町"},"4730902":{"post_code":"4730902","prefecture":"AICHI KEN","city":"TOYOTA SHI","town":"OBAYASHICHO","perfecture_jp":"愛知県","jp_add_1":"豊田市","jp_add_2":"大林町"},"4730931":{"post_code":"4730931","prefecture":"AICHI KEN","city":"TOYOTA SHI","town":"KAMIOKACHO","perfecture_jp":"愛知県","jp_add_1":"豊田市","jp_add_2":"上丘町"},"4730926":{"post_code":"4730926","prefecture":"AICHI KEN","city":"TOYOTA SHI","town":"KOMASHINCHO","perfecture_jp":"愛知県","jp_add_1":"豊田市","jp_add_2":"駒新町"},"4730925":{"post_code":"4730925","prefecture":"AICHI KEN","city":"TOYOTA SHI","town":"KOMABACHO","perfecture_jp":"愛知県","jp_add_1":"豊田市","jp_add_2":"駒場町"},"4730905":{"post_code":"4730905","prefecture":"AICHI KEN","city":"TOYOTA SHI","town":"SUMIYOSHICHO","perfecture_jp":"愛知県","jp_add_1":"豊田市","jp_add_2":"住吉町"},"4730921":{"post_code":"4730921","prefecture":"AICHI KEN","city":"TOYOTA SHI","town":"TAKAOKASHIMMACHI","perfecture_jp":"愛知県","jp_add_1":"豊田市","jp_add_2":"高丘新町"},"4730933":{"post_code":"4730933","prefecture":"AICHI KEN","city":"TOYOTA SHI","town":"TAKAOKACHO","perfecture_jp":"愛知県","jp_add_1":"豊田市","jp_add_2":"高岡町"},"4730922":{"post_code":"4730922","prefecture":"AICHI KEN","city":"TOYOTA SHI","town":"TAKAOKAHOMMACHI","perfecture_jp":"愛知県","jp_add_1":"豊田市","jp_add_2":"高岡本町"},"4730918":{"post_code":"4730918","prefecture":"AICHI KEN","city":"TOYOTA SHI","town":"TAKAMICHO","perfecture_jp":"愛知県","jp_add_1":"豊田市","jp_add_2":"高美町"},"4730908":{"post_code":"4730908","prefecture":"AICHI KEN","city":"TOYOTA SHI","town":"TAKARAMACHI","perfecture_jp":"愛知県","jp_add_1":"豊田市","jp_add_2":"宝町"},"4730906":{"post_code":"4730906","prefecture":"AICHI KEN","city":"TOYOTA SHI","town":"TAKECHO","perfecture_jp":"愛知県","jp_add_1":"豊田市","jp_add_2":"竹町"},"4730913":{"post_code":"4730913","prefecture":"AICHI KEN","city":"TOYOTA SHI","town":"TAKEMOTOCHO","perfecture_jp":"愛知県","jp_add_1":"豊田市","jp_add_2":"竹元町"},"4730932":{"post_code":"4730932","prefecture":"AICHI KEN","city":"TOYOTA SHI","town":"TSUTSUMICHO","perfecture_jp":"愛知県","jp_add_1":"豊田市","jp_add_2":"堤町"},"4730939":{"post_code":"4730939","prefecture":"AICHI KEN","city":"TOYOTA SHI","town":"TSUTSUMIHOMMACHI","perfecture_jp":"愛知県","jp_add_1":"豊田市","jp_add_2":"堤本町"},"4730927":{"post_code":"4730927","prefecture":"AICHI KEN","city":"TOYOTA SHI","town":"NAKADACHO","perfecture_jp":"愛知県","jp_add_1":"豊田市","jp_add_2":"中田町"},"4730923":{"post_code":"4730923","prefecture":"AICHI KEN","city":"TOYOTA SHI","town":"NAKANECHO","perfecture_jp":"愛知県","jp_add_1":"豊田市","jp_add_2":"中根町"},"4730904":{"post_code":"4730904","prefecture":"AICHI KEN","city":"TOYOTA SHI","town":"NAKAMACHI","perfecture_jp":"愛知県","jp_add_1":"豊田市","jp_add_2":"中町"},"4730936":{"post_code":"4730936","prefecture":"AICHI KEN","city":"TOYOTA SHI","town":"NISHIOKACHO","perfecture_jp":"愛知県","jp_add_1":"豊田市","jp_add_2":"西岡町"},"4730937":{"post_code":"4730937","prefecture":"AICHI KEN","city":"TOYOTA SHI","town":"NISHIOKACHOHOSHIGAOKA","perfecture_jp":"愛知県","jp_add_1":"豊田市","jp_add_2":"西岡町星ケ丘"},"4730903":{"post_code":"4730903","prefecture":"AICHI KEN","city":"TOYOTA SHI","town":"NISHIDACHO","perfecture_jp":"愛知県","jp_add_1":"豊田市","jp_add_2":"西田町"},"4730924":{"post_code":"4730924","prefecture":"AICHI KEN","city":"TOYOTA SHI","town":"HANAZONOCHO","perfecture_jp":"愛知県","jp_add_1":"豊田市","jp_add_2":"花園町"},"4730912":{"post_code":"4730912","prefecture":"AICHI KEN","city":"TOYOTA SHI","town":"HIROTACHO","perfecture_jp":"愛知県","jp_add_1":"豊田市","jp_add_2":"広田町"},"4730938":{"post_code":"4730938","prefecture":"AICHI KEN","city":"TOYOTA SHI","town":"HONDACHO","perfecture_jp":"愛知県","jp_add_1":"豊田市","jp_add_2":"本田町"},"4730911":{"post_code":"4730911","prefecture":"AICHI KEN","city":"TOYOTA SHI","town":"HOMMACHI","perfecture_jp":"愛知県","jp_add_1":"豊田市","jp_add_2":"本町"},"4730934":{"post_code":"4730934","prefecture":"AICHI KEN","city":"TOYOTA SHI","town":"MAEBAYASHICHO","perfecture_jp":"愛知県","jp_add_1":"豊田市","jp_add_2":"前林町"},"4730901":{"post_code":"4730901","prefecture":"AICHI KEN","city":"TOYOTA SHI","town":"MIYUKIHOMMACHI","perfecture_jp":"愛知県","jp_add_1":"豊田市","jp_add_2":"御幸本町"},"4730916":{"post_code":"4730916","prefecture":"AICHI KEN","city":"TOYOTA SHI","town":"YOSHIWARACHO","perfecture_jp":"愛知県","jp_add_1":"豊田市","jp_add_2":"吉原町"},"4730907":{"post_code":"4730907","prefecture":"AICHI KEN","city":"TOYOTA SHI","town":"RYUJINCHO","perfecture_jp":"愛知県","jp_add_1":"豊田市","jp_add_2":"竜神町"},"4730914":{"post_code":"4730914","prefecture":"AICHI KEN","city":"TOYOTA SHI","town":"WAKABAYASHI HIGASHIMACHI","perfecture_jp":"愛知県","jp_add_1":"豊田市","jp_add_2":"若林東町"},"4730917":{"post_code":"4730917","prefecture":"AICHI KEN","city":"TOYOTA SHI","town":"WAKABAYASHI NISHIMACHI","perfecture_jp":"愛知県","jp_add_1":"豊田市","jp_add_2":"若林西町"},"4730915":{"post_code":"4730915","prefecture":"AICHI KEN","city":"TOYOTA SHI","town":"WAKABAYASHIHIGASHIMACHINAKASOTONE","perfecture_jp":"愛知県","jp_add_1":"豊田市","jp_add_2":"若林東町中外根"}}