{"4740000":{"post_code":"4740000","prefecture":"AICHI KEN","city":"OBU SHI","town":"IKANIKEISAIGANAIBAAI","perfecture_jp":"愛知県","jp_add_1":"大府市","jp_add_2":""},"4740024":{"post_code":"4740024","prefecture":"AICHI KEN","city":"OBU SHI","town":"ASAHICHO","perfecture_jp":"愛知県","jp_add_1":"大府市","jp_add_2":"朝日町"},"4740045":{"post_code":"4740045","prefecture":"AICHI KEN","city":"OBU SHI","town":"UMAIKECHO","perfecture_jp":"愛知県","jp_add_1":"大府市","jp_add_2":"馬池町"},"4740035":{"post_code":"4740035","prefecture":"AICHI KEN","city":"OBU SHI","town":"EBATACHO","perfecture_jp":"愛知県","jp_add_1":"大府市","jp_add_2":"江端町"},"4740027":{"post_code":"4740027","prefecture":"AICHI KEN","city":"OBU SHI","town":"OIWAKECHO","perfecture_jp":"愛知県","jp_add_1":"大府市","jp_add_2":"追分町"},"4740051":{"post_code":"4740051","prefecture":"AICHI KEN","city":"OBU SHI","town":"OBUMACHI","perfecture_jp":"愛知県","jp_add_1":"大府市","jp_add_2":"大府町"},"4740071":{"post_code":"4740071","prefecture":"AICHI KEN","city":"OBU SHI","town":"KAJITACHO","perfecture_jp":"愛知県","jp_add_1":"大府市","jp_add_2":"梶田町"},"4740003":{"post_code":"4740003","prefecture":"AICHI KEN","city":"OBU SHI","town":"KANDACHO","perfecture_jp":"愛知県","jp_add_1":"大府市","jp_add_2":"神田町"},"4740002":{"post_code":"4740002","prefecture":"AICHI KEN","city":"OBU SHI","town":"KITASAKICHO(CHOME)","perfecture_jp":"愛知県","jp_add_1":"大府市","jp_add_2":"北崎町"},"4740001":{"post_code":"4740001","prefecture":"AICHI KEN","city":"OBU SHI","town":"KITASAKIMACHI","perfecture_jp":"愛知県","jp_add_1":"大府市","jp_add_2":"北崎町"},"4740072":{"post_code":"4740072","prefecture":"AICHI KEN","city":"OBU SHI","town":"KITAYAMACHO","perfecture_jp":"愛知県","jp_add_1":"大府市","jp_add_2":"北山町"},"4740074":{"post_code":"4740074","prefecture":"AICHI KEN","city":"OBU SHI","town":"KYOEICHO","perfecture_jp":"愛知県","jp_add_1":"大府市","jp_add_2":"共栄町"},"4740062":{"post_code":"4740062","prefecture":"AICHI KEN","city":"OBU SHI","town":"KYOSEICHO","perfecture_jp":"愛知県","jp_add_1":"大府市","jp_add_2":"共西町"},"4740061":{"post_code":"4740061","prefecture":"AICHI KEN","city":"OBU SHI","town":"KYOWACHO(CHOME)","perfecture_jp":"愛知県","jp_add_1":"大府市","jp_add_2":"共和町"},"4740057":{"post_code":"4740057","prefecture":"AICHI KEN","city":"OBU SHI","town":"KYOWAMACHI(KYOWAMACHI)","perfecture_jp":"愛知県","jp_add_1":"大府市","jp_add_2":"共和町"},"4740043":{"post_code":"4740043","prefecture":"AICHI KEN","city":"OBU SHI","town":"KOMEDACHO","perfecture_jp":"愛知県","jp_add_1":"大府市","jp_add_2":"米田町"},"4740044":{"post_code":"4740044","prefecture":"AICHI KEN","city":"OBU SHI","town":"SAKURAGICHO","perfecture_jp":"愛知県","jp_add_1":"大府市","jp_add_2":"桜木町"},"4740023":{"post_code":"4740023","prefecture":"AICHI KEN","city":"OBU SHI","town":"DAITOCHO","perfecture_jp":"愛知県","jp_add_1":"大府市","jp_add_2":"大東町"},"4740042":{"post_code":"4740042","prefecture":"AICHI KEN","city":"OBU SHI","town":"TAKAOKACHO","perfecture_jp":"愛知県","jp_add_1":"大府市","jp_add_2":"高丘町"},"4740025":{"post_code":"4740025","prefecture":"AICHI KEN","city":"OBU SHI","town":"CHUOCHO","perfecture_jp":"愛知県","jp_add_1":"大府市","jp_add_2":"中央町"},"4740036":{"post_code":"4740036","prefecture":"AICHI KEN","city":"OBU SHI","town":"TSUKIMICHO","perfecture_jp":"愛知県","jp_add_1":"大府市","jp_add_2":"月見町"},"4740073":{"post_code":"4740073","prefecture":"AICHI KEN","city":"OBU SHI","town":"TOSHINCHO","perfecture_jp":"愛知県","jp_add_1":"大府市","jp_add_2":"東新町"},"4740052":{"post_code":"4740052","prefecture":"AICHI KEN","city":"OBU SHI","town":"NAGAKUSAMACHI","perfecture_jp":"愛知県","jp_add_1":"大府市","jp_add_2":"長草町"},"4740021":{"post_code":"4740021","prefecture":"AICHI KEN","city":"OBU SHI","town":"NAGANECHO","perfecture_jp":"愛知県","jp_add_1":"大府市","jp_add_2":"長根町"},"4740037":{"post_code":"4740037","prefecture":"AICHI KEN","city":"OBU SHI","town":"HANTSUKICHO","perfecture_jp":"愛知県","jp_add_1":"大府市","jp_add_2":"半月町"},"4740053":{"post_code":"4740053","prefecture":"AICHI KEN","city":"OBU SHI","town":"HIIRAGIYAMACHO","perfecture_jp":"愛知県","jp_add_1":"大府市","jp_add_2":"柊山町"},"4740055":{"post_code":"4740055","prefecture":"AICHI KEN","city":"OBU SHI","town":"HITOTSUYACHO","perfecture_jp":"愛知県","jp_add_1":"大府市","jp_add_2":"一屋町"},"4740047":{"post_code":"4740047","prefecture":"AICHI KEN","city":"OBU SHI","town":"MIYAUCHICHO","perfecture_jp":"愛知県","jp_add_1":"大府市","jp_add_2":"宮内町"},"4740056":{"post_code":"4740056","prefecture":"AICHI KEN","city":"OBU SHI","town":"MEISEICHO","perfecture_jp":"愛知県","jp_add_1":"大府市","jp_add_2":"明成町"},"4740026":{"post_code":"4740026","prefecture":"AICHI KEN","city":"OBU SHI","town":"MOMOYAMACHO","perfecture_jp":"愛知県","jp_add_1":"大府市","jp_add_2":"桃山町"},"4740038":{"post_code":"4740038","prefecture":"AICHI KEN","city":"OBU SHI","town":"MORIOKACHO(CHOME)","perfecture_jp":"愛知県","jp_add_1":"大府市","jp_add_2":"森岡町"},"4740031":{"post_code":"4740031","prefecture":"AICHI KEN","city":"OBU SHI","town":"MORIOKAMACHI(SONOTA)","perfecture_jp":"愛知県","jp_add_1":"大府市","jp_add_2":"森岡町"},"4740011":{"post_code":"4740011","prefecture":"AICHI KEN","city":"OBU SHI","town":"YOKONEMACHI","perfecture_jp":"愛知県","jp_add_1":"大府市","jp_add_2":"横根町"},"4740046":{"post_code":"4740046","prefecture":"AICHI KEN","city":"OBU SHI","town":"YOSHIKAWACHO","perfecture_jp":"愛知県","jp_add_1":"大府市","jp_add_2":"吉川町"},"4740048":{"post_code":"4740048","prefecture":"AICHI KEN","city":"OBU SHI","town":"YOSHIDACHO (1-6-CHOME)","perfecture_jp":"愛知県","jp_add_1":"大府市","jp_add_2":"吉田町"},"4740041":{"post_code":"4740041","prefecture":"AICHI KEN","city":"OBU SHI","town":"YOSHIDAMACHI (SONOTA)","perfecture_jp":"愛知県","jp_add_1":"大府市","jp_add_2":"吉田町"},"4740022":{"post_code":"4740022","prefecture":"AICHI KEN","city":"OBU SHI","town":"WAKAKUSACHO","perfecture_jp":"愛知県","jp_add_1":"大府市","jp_add_2":"若草町"}}