{"4750000":{"post_code":"4750000","prefecture":"AICHI KEN","city":"HANDA SHI","town":"IKANIKEISAIGANAIBAAI","perfecture_jp":"愛知県","jp_add_1":"半田市","jp_add_2":""},"4750836":{"post_code":"4750836","prefecture":"AICHI KEN","city":"HANDA SHI","town":"AOYAMA","perfecture_jp":"愛知県","jp_add_1":"半田市","jp_add_2":"青山"},"4750838":{"post_code":"4750838","prefecture":"AICHI KEN","city":"HANDA SHI","town":"ASAHIMACHI","perfecture_jp":"愛知県","jp_add_1":"半田市","jp_add_2":"旭町"},"4750039":{"post_code":"4750039","prefecture":"AICHI KEN","city":"HANDA SHI","town":"ARAICHO","perfecture_jp":"愛知県","jp_add_1":"半田市","jp_add_2":"新居町"},"4750881":{"post_code":"4750881","prefecture":"AICHI KEN","city":"HANDA SHI","town":"ARAKOCHO","perfecture_jp":"愛知県","jp_add_1":"半田市","jp_add_2":"荒古町"},"4750017":{"post_code":"4750017","prefecture":"AICHI KEN","city":"HANDA SHI","town":"ARIWAKICHO","perfecture_jp":"愛知県","jp_add_1":"半田市","jp_add_2":"有脇町"},"4750031":{"post_code":"4750031","prefecture":"AICHI KEN","city":"HANDA SHI","town":"AWARACHO","perfecture_jp":"愛知県","jp_add_1":"半田市","jp_add_2":"阿原町"},"4750062":{"post_code":"4750062","prefecture":"AICHI KEN","city":"HANDA SHI","town":"IIMORICHO","perfecture_jp":"愛知県","jp_add_1":"半田市","jp_add_2":"飯森町"},"4750945":{"post_code":"4750945","prefecture":"AICHI KEN","city":"HANDA SHI","town":"IKEDACHO","perfecture_jp":"愛知県","jp_add_1":"半田市","jp_add_2":"池田町"},"4750001":{"post_code":"4750001","prefecture":"AICHI KEN","city":"HANDA SHI","town":"ISHIZUKACHO","perfecture_jp":"愛知県","jp_add_1":"半田市","jp_add_2":"石塚町"},"4750858":{"post_code":"4750858","prefecture":"AICHI KEN","city":"HANDA SHI","town":"IZUMIMACHI","perfecture_jp":"愛知県","jp_add_1":"半田市","jp_add_2":"泉町"},"4750936":{"post_code":"4750936","prefecture":"AICHI KEN","city":"HANDA SHI","town":"ITAYAMACHO","perfecture_jp":"愛知県","jp_add_1":"半田市","jp_add_2":"板山町"},"4750061":{"post_code":"4750061","prefecture":"AICHI KEN","city":"HANDA SHI","town":"ICHINOKUSACHO","perfecture_jp":"愛知県","jp_add_1":"半田市","jp_add_2":"一ノ草町"},"4750014":{"post_code":"4750014","prefecture":"AICHI KEN","city":"HANDA SHI","town":"IPPONGICHO","perfecture_jp":"愛知県","jp_add_1":"半田市","jp_add_2":"一本木町"},"4750011":{"post_code":"4750011","prefecture":"AICHI KEN","city":"HANDA SHI","town":"INAHOCHO","perfecture_jp":"愛知県","jp_add_1":"半田市","jp_add_2":"稲穂町"},"4750835":{"post_code":"4750835","prefecture":"AICHI KEN","city":"HANDA SHI","town":"INARICHO","perfecture_jp":"愛知県","jp_add_1":"半田市","jp_add_2":"稲荷町"},"4750958":{"post_code":"4750958","prefecture":"AICHI KEN","city":"HANDA SHI","town":"UNOIKECHO","perfecture_jp":"愛知県","jp_add_1":"半田市","jp_add_2":"鵜ノ池町"},"4750952":{"post_code":"4750952","prefecture":"AICHI KEN","city":"HANDA SHI","town":"UMASUTECHO","perfecture_jp":"愛知県","jp_add_1":"半田市","jp_add_2":"馬捨町"},"4750915":{"post_code":"4750915","prefecture":"AICHI KEN","city":"HANDA SHI","town":"EDAYAMACHO","perfecture_jp":"愛知県","jp_add_1":"半田市","jp_add_2":"枝山町"},"4750867":{"post_code":"4750867","prefecture":"AICHI KEN","city":"HANDA SHI","town":"ENOKISHITACHO","perfecture_jp":"愛知県","jp_add_1":"半田市","jp_add_2":"榎下町"},"4750087":{"post_code":"4750087","prefecture":"AICHI KEN","city":"HANDA SHI","town":"OIKECHO","perfecture_jp":"愛知県","jp_add_1":"半田市","jp_add_2":"大池町"},"4750015":{"post_code":"4750015","prefecture":"AICHI KEN","city":"HANDA SHI","town":"ODAKACHO","perfecture_jp":"愛知県","jp_add_1":"半田市","jp_add_2":"大高町"},"4750904":{"post_code":"4750904","prefecture":"AICHI KEN","city":"HANDA SHI","town":"OTSUBOCHO","perfecture_jp":"愛知県","jp_add_1":"半田市","jp_add_2":"大坪町"},"4750071":{"post_code":"4750071","prefecture":"AICHI KEN","city":"HANDA SHI","town":"ODENNECHO","perfecture_jp":"愛知県","jp_add_1":"半田市","jp_add_2":"大伝根町"},"4750083":{"post_code":"4750083","prefecture":"AICHI KEN","city":"HANDA SHI","town":"OMATSUCHO","perfecture_jp":"愛知県","jp_add_1":"半田市","jp_add_2":"大松町"},"4750935":{"post_code":"4750935","prefecture":"AICHI KEN","city":"HANDA SHI","town":"OYUCHO","perfecture_jp":"愛知県","jp_add_1":"半田市","jp_add_2":"大湯町"},"4750957":{"post_code":"4750957","prefecture":"AICHI KEN","city":"HANDA SHI","town":"OKUMACHI","perfecture_jp":"愛知県","jp_add_1":"半田市","jp_add_2":"奥町"},"4750056":{"post_code":"4750056","prefecture":"AICHI KEN","city":"HANDA SHI","town":"OTSUKAWA ISHIKICHO","perfecture_jp":"愛知県","jp_add_1":"半田市","jp_add_2":"乙川一色町"},"4750046":{"post_code":"4750046","prefecture":"AICHI KEN","city":"HANDA SHI","town":"OTSUKAWA ICHIBACHO","perfecture_jp":"愛知県","jp_add_1":"半田市","jp_add_2":"乙川市場町"},"4750053":{"post_code":"4750053","prefecture":"AICHI KEN","city":"HANDA SHI","town":"OTSUKAWA UCHIYAMACHO","perfecture_jp":"愛知県","jp_add_1":"半田市","jp_add_2":"乙川内山町"},"4750041":{"post_code":"4750041","prefecture":"AICHI KEN","city":"HANDA SHI","town":"OTSUKAWA OTACHO","perfecture_jp":"愛知県","jp_add_1":"半田市","jp_add_2":"乙川太田町"},"4750047":{"post_code":"4750047","prefecture":"AICHI KEN","city":"HANDA SHI","town":"OTSUKAWA KITAGAWACHO","perfecture_jp":"愛知県","jp_add_1":"半田市","jp_add_2":"乙川北側町"},"4750066":{"post_code":"4750066","prefecture":"AICHI KEN","city":"HANDA SHI","town":"OTSUKAWA GENNAIBAYASHICHO","perfecture_jp":"愛知県","jp_add_1":"半田市","jp_add_2":"乙川源内林町"},"4750051":{"post_code":"4750051","prefecture":"AICHI KEN","city":"HANDA SHI","town":"OTSUKAWA SAKAEMACHI","perfecture_jp":"愛知県","jp_add_1":"半田市","jp_add_2":"乙川栄町"},"4750057":{"post_code":"4750057","prefecture":"AICHI KEN","city":"HANDA SHI","town":"OTSUKAWA SHIMMACHI","perfecture_jp":"愛知県","jp_add_1":"半田市","jp_add_2":"乙川新町"},"4750803":{"post_code":"4750803","prefecture":"AICHI KEN","city":"HANDA SHI","town":"OTSUKAWA SUEHIROCHO","perfecture_jp":"愛知県","jp_add_1":"半田市","jp_add_2":"乙川末広町"},"4750052":{"post_code":"4750052","prefecture":"AICHI KEN","city":"HANDA SHI","town":"OTSUKAWA TAKARAMACHI","perfecture_jp":"愛知県","jp_add_1":"半田市","jp_add_2":"乙川高良町"},"4750045":{"post_code":"4750045","prefecture":"AICHI KEN","city":"HANDA SHI","town":"OTSUKAWA TONOMACHI","perfecture_jp":"愛知県","jp_add_1":"半田市","jp_add_2":"乙川殿町"},"4750068":{"post_code":"4750068","prefecture":"AICHI KEN","city":"HANDA SHI","town":"OTSUKAWA NISHINOMIYACHO","perfecture_jp":"愛知県","jp_add_1":"半田市","jp_add_2":"乙川西ノ宮町"},"4750067":{"post_code":"4750067","prefecture":"AICHI KEN","city":"HANDA SHI","town":"OTSUKAWA HATADACHO","perfecture_jp":"愛知県","jp_add_1":"半田市","jp_add_2":"乙川畑田町"},"4750044":{"post_code":"4750044","prefecture":"AICHI KEN","city":"HANDA SHI","town":"OTSUKAWA HACHIMANCHO","perfecture_jp":"愛知県","jp_add_1":"半田市","jp_add_2":"乙川八幡町"},"4750043":{"post_code":"4750043","prefecture":"AICHI KEN","city":"HANDA SHI","town":"OTSUKAWA HAMAGAWACHO","perfecture_jp":"愛知県","jp_add_1":"半田市","jp_add_2":"乙川浜側町"},"4750048":{"post_code":"4750048","prefecture":"AICHI KEN","city":"HANDA SHI","town":"OTSUKAWA HIEDACHO","perfecture_jp":"愛知県","jp_add_1":"半田市","jp_add_2":"乙川稗田町"},"4750065":{"post_code":"4750065","prefecture":"AICHI KEN","city":"HANDA SHI","town":"OTSUKAWA FUKADACHO","perfecture_jp":"愛知県","jp_add_1":"半田市","jp_add_2":"乙川深田町"},"4750042":{"post_code":"4750042","prefecture":"AICHI KEN","city":"HANDA SHI","town":"OTSUKAWA MUKAIDACHO","perfecture_jp":"愛知県","jp_add_1":"半田市","jp_add_2":"乙川向田町"},"4750064":{"post_code":"4750064","prefecture":"AICHI KEN","city":"HANDA SHI","town":"OTSUKAWA YAKUSHICHO","perfecture_jp":"愛知県","jp_add_1":"半田市","jp_add_2":"乙川薬師町"},"4750058":{"post_code":"4750058","prefecture":"AICHI KEN","city":"HANDA SHI","town":"OTSUKAWA YOSHINOCHO","perfecture_jp":"愛知県","jp_add_1":"半田市","jp_add_2":"乙川吉野町"},"4750063":{"post_code":"4750063","prefecture":"AICHI KEN","city":"HANDA SHI","town":"OTSUKAWA WAKAMIYACHO","perfecture_jp":"愛知県","jp_add_1":"半田市","jp_add_2":"乙川若宮町"},"4750054":{"post_code":"4750054","prefecture":"AICHI KEN","city":"HANDA SHI","town":"OTSUKAWACHO","perfecture_jp":"愛知県","jp_add_1":"半田市","jp_add_2":"乙川町"},"4750967":{"post_code":"4750967","prefecture":"AICHI KEN","city":"HANDA SHI","town":"KAKEGASHITACHO","perfecture_jp":"愛知県","jp_add_1":"半田市","jp_add_2":"欠ケ下町"},"4750923":{"post_code":"4750923","prefecture":"AICHI KEN","city":"HANDA SHI","town":"KASUGACHO","perfecture_jp":"愛知県","jp_add_1":"半田市","jp_add_2":"春日町"},"4750953":{"post_code":"4750953","prefecture":"AICHI KEN","city":"HANDA SHI","town":"KANAYAMACHO","perfecture_jp":"愛知県","jp_add_1":"半田市","jp_add_2":"金山町"},"4750004":{"post_code":"4750004","prefecture":"AICHI KEN","city":"HANDA SHI","town":"KAMIIKECHO","perfecture_jp":"愛知県","jp_add_1":"半田市","jp_add_2":"上池町"},"4750944":{"post_code":"4750944","prefecture":"AICHI KEN","city":"HANDA SHI","town":"KAMISHIROCHO","perfecture_jp":"愛知県","jp_add_1":"半田市","jp_add_2":"神代町"},"4750009":{"post_code":"4750009","prefecture":"AICHI KEN","city":"HANDA SHI","town":"KAMIJOKOCHO","perfecture_jp":"愛知県","jp_add_1":"半田市","jp_add_2":"上定光町"},"4750804":{"post_code":"4750804","prefecture":"AICHI KEN","city":"HANDA SHI","town":"KAMIHAMACHO","perfecture_jp":"愛知県","jp_add_1":"半田市","jp_add_2":"上浜町"},"4750028":{"post_code":"4750028","prefecture":"AICHI KEN","city":"HANDA SHI","town":"KAMEZAKI AIOICHO","perfecture_jp":"愛知県","jp_add_1":"半田市","jp_add_2":"亀崎相生町"},"4750025":{"post_code":"4750025","prefecture":"AICHI KEN","city":"HANDA SHI","town":"KAMEZAKI OBORACHO","perfecture_jp":"愛知県","jp_add_1":"半田市","jp_add_2":"亀崎大洞町"},"4750027":{"post_code":"4750027","prefecture":"AICHI KEN","city":"HANDA SHI","town":"KAMEZAKI KITAURACHO","perfecture_jp":"愛知県","jp_add_1":"半田市","jp_add_2":"亀崎北浦町"},"4750026":{"post_code":"4750026","prefecture":"AICHI KEN","city":"HANDA SHI","town":"KAMEZAKI SHINDENCHO","perfecture_jp":"愛知県","jp_add_1":"半田市","jp_add_2":"亀崎新田町"},"4750024":{"post_code":"4750024","prefecture":"AICHI KEN","city":"HANDA SHI","town":"KAMEZAKI TAKANECHO","perfecture_jp":"愛知県","jp_add_1":"半田市","jp_add_2":"亀崎高根町"},"4750022":{"post_code":"4750022","prefecture":"AICHI KEN","city":"HANDA SHI","town":"KAMEZAKI TSUKIMICHO","perfecture_jp":"愛知県","jp_add_1":"半田市","jp_add_2":"亀崎月見町"},"4750029":{"post_code":"4750029","prefecture":"AICHI KEN","city":"HANDA SHI","town":"KAMEZAKI TOKIWACHO","perfecture_jp":"愛知県","jp_add_1":"半田市","jp_add_2":"亀崎常盤町"},"4750023":{"post_code":"4750023","prefecture":"AICHI KEN","city":"HANDA SHI","town":"KAMEZAKICHO","perfecture_jp":"愛知県","jp_add_1":"半田市","jp_add_2":"亀崎町"},"4750932":{"post_code":"4750932","prefecture":"AICHI KEN","city":"HANDA SHI","town":"KARASUNECHO","perfecture_jp":"愛知県","jp_add_1":"半田市","jp_add_2":"鴉根町"},"4750918":{"post_code":"4750918","prefecture":"AICHI KEN","city":"HANDA SHI","town":"KARIYADOCHO","perfecture_jp":"愛知県","jp_add_1":"半田市","jp_add_2":"雁宿町"},"4750832":{"post_code":"4750832","prefecture":"AICHI KEN","city":"HANDA SHI","town":"KAWASAKICHO","perfecture_jp":"愛知県","jp_add_1":"半田市","jp_add_2":"川崎町"},"4750808":{"post_code":"4750808","prefecture":"AICHI KEN","city":"HANDA SHI","town":"KAWADACHO","perfecture_jp":"愛知県","jp_add_1":"半田市","jp_add_2":"川田町"},"4750937":{"post_code":"4750937","prefecture":"AICHI KEN","city":"HANDA SHI","town":"KANDACHO","perfecture_jp":"愛知県","jp_add_1":"半田市","jp_add_2":"神田町"},"4750877":{"post_code":"4750877","prefecture":"AICHI KEN","city":"HANDA SHI","town":"KANNAICHO","perfecture_jp":"愛知県","jp_add_1":"半田市","jp_add_2":"勘内町"},"4750008":{"post_code":"4750008","prefecture":"AICHI KEN","city":"HANDA SHI","town":"KITAOYACHICHO","perfecture_jp":"愛知県","jp_add_1":"半田市","jp_add_2":"北大矢知町"},"4750852":{"post_code":"4750852","prefecture":"AICHI KEN","city":"HANDA SHI","town":"KITASUEHIROCHO","perfecture_jp":"愛知県","jp_add_1":"半田市","jp_add_2":"北末広町"},"4750972":{"post_code":"4750972","prefecture":"AICHI KEN","city":"HANDA SHI","town":"KITANAMESOCHO","perfecture_jp":"愛知県","jp_add_1":"半田市","jp_add_2":"北滑草町"},"4750055":{"post_code":"4750055","prefecture":"AICHI KEN","city":"HANDA SHI","town":"KITAHAMADACHO","perfecture_jp":"愛知県","jp_add_1":"半田市","jp_add_2":"北浜田町"},"4750927":{"post_code":"4750927","prefecture":"AICHI KEN","city":"HANDA SHI","town":"KITAFUTATSUSAKACHO","perfecture_jp":"愛知県","jp_add_1":"半田市","jp_add_2":"北二ツ坂町"},"4750977":{"post_code":"4750977","prefecture":"AICHI KEN","city":"HANDA SHI","town":"KITTACHO","perfecture_jp":"愛知県","jp_add_1":"半田市","jp_add_2":"吉田町"},"4750938":{"post_code":"4750938","prefecture":"AICHI KEN","city":"HANDA SHI","town":"KIMIGAHASHICHO","perfecture_jp":"愛知県","jp_add_1":"半田市","jp_add_2":"君ケ橋町"},"4750955":{"post_code":"4750955","prefecture":"AICHI KEN","city":"HANDA SHI","town":"GYONINCHO","perfecture_jp":"愛知県","jp_add_1":"半田市","jp_add_2":"行人町"},"4750854":{"post_code":"4750854","prefecture":"AICHI KEN","city":"HANDA SHI","town":"KYOWACHO","perfecture_jp":"愛知県","jp_add_1":"半田市","jp_add_2":"協和町"},"4750928":{"post_code":"4750928","prefecture":"AICHI KEN","city":"HANDA SHI","town":"KIRIGAOKA","perfecture_jp":"愛知県","jp_add_1":"半田市","jp_add_2":"桐ケ丘"},"4750874":{"post_code":"4750874","prefecture":"AICHI KEN","city":"HANDA SHI","town":"GINZAHOMMACHI","perfecture_jp":"愛知県","jp_add_1":"半田市","jp_add_2":"銀座本町"},"4750976":{"post_code":"4750976","prefecture":"AICHI KEN","city":"HANDA SHI","town":"KUROISHICHO","perfecture_jp":"愛知県","jp_add_1":"半田市","jp_add_2":"黒石町"},"4750816":{"post_code":"4750816","prefecture":"AICHI KEN","city":"HANDA SHI","town":"GEMPEICHO","perfecture_jp":"愛知県","jp_add_1":"半田市","jp_add_2":"源平町"},"4750086":{"post_code":"4750086","prefecture":"AICHI KEN","city":"HANDA SHI","town":"KOSHINCHO","perfecture_jp":"愛知県","jp_add_1":"半田市","jp_add_2":"庚申町"},"4750856":{"post_code":"4750856","prefecture":"AICHI KEN","city":"HANDA SHI","town":"KOSEICHO","perfecture_jp":"愛知県","jp_add_1":"半田市","jp_add_2":"更生町"},"4750842":{"post_code":"4750842","prefecture":"AICHI KEN","city":"HANDA SHI","town":"GONAKACHO","perfecture_jp":"愛知県","jp_add_1":"半田市","jp_add_2":"郷中町"},"4750085":{"post_code":"4750085","prefecture":"AICHI KEN","city":"HANDA SHI","town":"KOSHINCHO","perfecture_jp":"愛知県","jp_add_1":"半田市","jp_add_2":"小神町"},"4750806":{"post_code":"4750806","prefecture":"AICHI KEN","city":"HANDA SHI","town":"KOHAMACHO","perfecture_jp":"愛知県","jp_add_1":"半田市","jp_add_2":"古浜町"},"4750814":{"post_code":"4750814","prefecture":"AICHI KEN","city":"HANDA SHI","town":"SAIWAICHO","perfecture_jp":"愛知県","jp_add_1":"半田市","jp_add_2":"幸町"},"4750846":{"post_code":"4750846","prefecture":"AICHI KEN","city":"HANDA SHI","town":"SAKAEMACHI","perfecture_jp":"愛知県","jp_add_1":"半田市","jp_add_2":"栄町"},"4750934":{"post_code":"4750934","prefecture":"AICHI KEN","city":"HANDA SHI","town":"SHIINOKICHO","perfecture_jp":"愛知県","jp_add_1":"半田市","jp_add_2":"椎ノ木町"},"4750032":{"post_code":"4750032","prefecture":"AICHI KEN","city":"HANDA SHI","town":"SHIOHICHO","perfecture_jp":"愛知県","jp_add_1":"半田市","jp_add_2":"潮干町"},"4750072":{"post_code":"4750072","prefecture":"AICHI KEN","city":"HANDA SHI","town":"SHICHIHONGICHO","perfecture_jp":"愛知県","jp_add_1":"半田市","jp_add_2":"七本木町"},"4750872":{"post_code":"4750872","prefecture":"AICHI KEN","city":"HANDA SHI","town":"SHINONOMECHO","perfecture_jp":"愛知県","jp_add_1":"半田市","jp_add_2":"東雲町"},"4750869":{"post_code":"4750869","prefecture":"AICHI KEN","city":"HANDA SHI","town":"SHIMIZU HIGASHIMACHI","perfecture_jp":"愛知県","jp_add_1":"半田市","jp_add_2":"清水東町"},"4750865":{"post_code":"4750865","prefecture":"AICHI KEN","city":"HANDA SHI","town":"SHIMIZU NISHIMACHI","perfecture_jp":"愛知県","jp_add_1":"半田市","jp_add_2":"清水西町"},"4750866":{"post_code":"4750866","prefecture":"AICHI KEN","city":"HANDA SHI","town":"SHIMIZU KITAMACHI","perfecture_jp":"愛知県","jp_add_1":"半田市","jp_add_2":"清水北町"},"4750922":{"post_code":"4750922","prefecture":"AICHI KEN","city":"HANDA SHI","town":"SHOWACHO","perfecture_jp":"愛知県","jp_add_1":"半田市","jp_add_2":"昭和町"},"4750078":{"post_code":"4750078","prefecture":"AICHI KEN","city":"HANDA SHI","town":"SHINIKECHO","perfecture_jp":"愛知県","jp_add_1":"半田市","jp_add_2":"新池町"},"4750886":{"post_code":"4750886","prefecture":"AICHI KEN","city":"HANDA SHI","town":"SHINKAWACHO","perfecture_jp":"愛知県","jp_add_1":"半田市","jp_add_2":"新川町"},"4750931":{"post_code":"4750931","prefecture":"AICHI KEN","city":"HANDA SHI","town":"SHINGUCHO","perfecture_jp":"愛知県","jp_add_1":"半田市","jp_add_2":"新宮町"},"4750815":{"post_code":"4750815","prefecture":"AICHI KEN","city":"HANDA SHI","town":"SHINSAKAEMACHI","perfecture_jp":"愛知県","jp_add_1":"半田市","jp_add_2":"新栄町"},"4750965":{"post_code":"4750965","prefecture":"AICHI KEN","city":"HANDA SHI","town":"SHINSEICHO","perfecture_jp":"愛知県","jp_add_1":"半田市","jp_add_2":"新生町"},"4750824":{"post_code":"4750824","prefecture":"AICHI KEN","city":"HANDA SHI","town":"SHINHAMACHO","perfecture_jp":"愛知県","jp_add_1":"半田市","jp_add_2":"新浜町"},"4750826":{"post_code":"4750826","prefecture":"AICHI KEN","city":"HANDA SHI","town":"SHIMMEICHO","perfecture_jp":"愛知県","jp_add_1":"半田市","jp_add_2":"神明町"},"4750831":{"post_code":"4750831","prefecture":"AICHI KEN","city":"HANDA SHI","town":"JUICHIGOCHI","perfecture_jp":"愛知県","jp_add_1":"半田市","jp_add_2":"十一号地"},"4750954":{"post_code":"4750954","prefecture":"AICHI KEN","city":"HANDA SHI","town":"JUSANZUKACHO","perfecture_jp":"愛知県","jp_add_1":"半田市","jp_add_2":"十三塚町"},"4750947":{"post_code":"4750947","prefecture":"AICHI KEN","city":"HANDA SHI","town":"SUNADANICHO","perfecture_jp":"愛知県","jp_add_1":"半田市","jp_add_2":"砂谷町"},"4750021":{"post_code":"4750021","prefecture":"AICHI KEN","city":"HANDA SHI","town":"SUNOSAKICHO","perfecture_jp":"愛知県","jp_add_1":"半田市","jp_add_2":"州の崎町"},"4750862":{"post_code":"4750862","prefecture":"AICHI KEN","city":"HANDA SHI","town":"SUMIYOSHICHO","perfecture_jp":"愛知県","jp_add_1":"半田市","jp_add_2":"住吉町"},"4750917":{"post_code":"4750917","prefecture":"AICHI KEN","city":"HANDA SHI","town":"SEISHIROCHO","perfecture_jp":"愛知県","jp_add_1":"半田市","jp_add_2":"清城町"},"4750801":{"post_code":"4750801","prefecture":"AICHI KEN","city":"HANDA SHI","town":"SOGACHO","perfecture_jp":"愛知県","jp_add_1":"半田市","jp_add_2":"相賀町"},"4750036":{"post_code":"4750036","prefecture":"AICHI KEN","city":"HANDA SHI","town":"TAKASAGOCHO","perfecture_jp":"愛知県","jp_add_1":"半田市","jp_add_2":"高砂町"},"4750943":{"post_code":"4750943","prefecture":"AICHI KEN","city":"HANDA SHI","town":"TAKAMINECHO","perfecture_jp":"愛知県","jp_add_1":"半田市","jp_add_2":"高峯町"},"4750948":{"post_code":"4750948","prefecture":"AICHI KEN","city":"HANDA SHI","town":"TASHIROCHO","perfecture_jp":"愛知県","jp_add_1":"半田市","jp_add_2":"田代町"},"4750968":{"post_code":"4750968","prefecture":"AICHI KEN","city":"HANDA SHI","town":"CHODACHO","perfecture_jp":"愛知県","jp_add_1":"半田市","jp_add_2":"丁田町"},"4750903":{"post_code":"4750903","prefecture":"AICHI KEN","city":"HANDA SHI","town":"DEGUCHICHO","perfecture_jp":"愛知県","jp_add_1":"半田市","jp_add_2":"出口町"},"4750844":{"post_code":"4750844","prefecture":"AICHI KEN","city":"HANDA SHI","town":"TERAMACHI","perfecture_jp":"愛知県","jp_add_1":"半田市","jp_add_2":"寺町"},"4750921":{"post_code":"4750921","prefecture":"AICHI KEN","city":"HANDA SHI","town":"TENJINCHO","perfecture_jp":"愛知県","jp_add_1":"半田市","jp_add_2":"天神町"},"4750859":{"post_code":"4750859","prefecture":"AICHI KEN","city":"HANDA SHI","town":"TENNOCHO","perfecture_jp":"愛知県","jp_add_1":"半田市","jp_add_2":"天王町"},"4750914":{"post_code":"4750914","prefecture":"AICHI KEN","city":"HANDA SHI","town":"DOIYAMACHO","perfecture_jp":"愛知県","jp_add_1":"半田市","jp_add_2":"土井山町"},"4750924":{"post_code":"4750924","prefecture":"AICHI KEN","city":"HANDA SHI","town":"TOGOCHO","perfecture_jp":"愛知県","jp_add_1":"半田市","jp_add_2":"東郷町"},"4750817":{"post_code":"4750817","prefecture":"AICHI KEN","city":"HANDA SHI","town":"TOYOCHO","perfecture_jp":"愛知県","jp_add_1":"半田市","jp_add_2":"東洋町"},"4750075":{"post_code":"4750075","prefecture":"AICHI KEN","city":"HANDA SHI","town":"NAESHIROCHO","perfecture_jp":"愛知県","jp_add_1":"半田市","jp_add_2":"苗代町"},"4750037":{"post_code":"4750037","prefecture":"AICHI KEN","city":"HANDA SHI","town":"NAKAUMACHO","perfecture_jp":"愛知県","jp_add_1":"半田市","jp_add_2":"中午町"},"4750035":{"post_code":"4750035","prefecture":"AICHI KEN","city":"HANDA SHI","town":"NAKAOKUDACHO","perfecture_jp":"愛知県","jp_add_1":"半田市","jp_add_2":"中億田町"},"4750843":{"post_code":"4750843","prefecture":"AICHI KEN","city":"HANDA SHI","town":"NAKASHIMACHO","perfecture_jp":"愛知県","jp_add_1":"半田市","jp_add_2":"中島町"},"4750929":{"post_code":"4750929","prefecture":"AICHI KEN","city":"HANDA SHI","town":"NAKATACHO","perfecture_jp":"愛知県","jp_add_1":"半田市","jp_add_2":"仲田町"},"4750018":{"post_code":"4750018","prefecture":"AICHI KEN","city":"HANDA SHI","town":"NAKAHAEMICHO","perfecture_jp":"愛知県","jp_add_1":"半田市","jp_add_2":"中生見町"},"4750855":{"post_code":"4750855","prefecture":"AICHI KEN","city":"HANDA SHI","town":"NAKAMACHI","perfecture_jp":"愛知県","jp_add_1":"半田市","jp_add_2":"中町"},"4750873":{"post_code":"4750873","prefecture":"AICHI KEN","city":"HANDA SHI","town":"NAKAMURACHO","perfecture_jp":"愛知県","jp_add_1":"半田市","jp_add_2":"中村町"},"4750074":{"post_code":"4750074","prefecture":"AICHI KEN","city":"HANDA SHI","town":"NAGANECHO","perfecture_jp":"愛知県","jp_add_1":"半田市","jp_add_2":"長根町"},"4750941":{"post_code":"4750941","prefecture":"AICHI KEN","city":"HANDA SHI","town":"NAMESOCHO","perfecture_jp":"愛知県","jp_add_1":"半田市","jp_add_2":"滑楚町"},"4750845":{"post_code":"4750845","prefecture":"AICHI KEN","city":"HANDA SHI","town":"NARAWA HIGASHIMACHI","perfecture_jp":"愛知県","jp_add_1":"半田市","jp_add_2":"成岩東町"},"4750848":{"post_code":"4750848","prefecture":"AICHI KEN","city":"HANDA SHI","town":"NARAWA HOMMACHI","perfecture_jp":"愛知県","jp_add_1":"半田市","jp_add_2":"成岩本町"},"4750933":{"post_code":"4750933","prefecture":"AICHI KEN","city":"HANDA SHI","town":"NIINOCHO","perfecture_jp":"愛知県","jp_add_1":"半田市","jp_add_2":"新野町"},"4750007":{"post_code":"4750007","prefecture":"AICHI KEN","city":"HANDA SHI","town":"NISHIOYACHICHO","perfecture_jp":"愛知県","jp_add_1":"半田市","jp_add_2":"西大矢知町"},"4750802":{"post_code":"4750802","prefecture":"AICHI KEN","city":"HANDA SHI","town":"NISHIOKUDACHO","perfecture_jp":"愛知県","jp_add_1":"半田市","jp_add_2":"西億田町"},"4750868":{"post_code":"4750868","prefecture":"AICHI KEN","city":"HANDA SHI","town":"NISHISHIMMACHI","perfecture_jp":"愛知県","jp_add_1":"半田市","jp_add_2":"西新町"},"4750016":{"post_code":"4750016","prefecture":"AICHI KEN","city":"HANDA SHI","town":"NISHIHAEMICHO","perfecture_jp":"愛知県","jp_add_1":"半田市","jp_add_2":"西生見町"},"4750884":{"post_code":"4750884","prefecture":"AICHI KEN","city":"HANDA SHI","town":"NISHIBATACHO","perfecture_jp":"愛知県","jp_add_1":"半田市","jp_add_2":"西端町"},"4750033":{"post_code":"4750033","prefecture":"AICHI KEN","city":"HANDA SHI","town":"NITTOCHO","perfecture_jp":"愛知県","jp_add_1":"半田市","jp_add_2":"日東町"},"4750038":{"post_code":"4750038","prefecture":"AICHI KEN","city":"HANDA SHI","town":"NEGICHO","perfecture_jp":"愛知県","jp_add_1":"半田市","jp_add_2":"祢宜町"},"4750019":{"post_code":"4750019","prefecture":"AICHI KEN","city":"HANDA SHI","town":"NOZOMIGAOKA","perfecture_jp":"愛知県","jp_add_1":"半田市","jp_add_2":"のぞみが丘"},"4750912":{"post_code":"4750912","prefecture":"AICHI KEN","city":"HANDA SHI","town":"HAKUSANCHO","perfecture_jp":"愛知県","jp_add_1":"半田市","jp_add_2":"白山町"},"4750077":{"post_code":"4750077","prefecture":"AICHI KEN","city":"HANDA SHI","town":"HAGEYAMACHO","perfecture_jp":"愛知県","jp_add_1":"半田市","jp_add_2":"兀山町"},"4750847":{"post_code":"4750847","prefecture":"AICHI KEN","city":"HANDA SHI","town":"HATAAICHO","perfecture_jp":"愛知県","jp_add_1":"半田市","jp_add_2":"畑合町"},"4750807":{"post_code":"4750807","prefecture":"AICHI KEN","city":"HANDA SHI","town":"HACHIKENCHO","perfecture_jp":"愛知県","jp_add_1":"半田市","jp_add_2":"八軒町"},"4750833":{"post_code":"4750833","prefecture":"AICHI KEN","city":"HANDA SHI","town":"HANAZONOCHO","perfecture_jp":"愛知県","jp_add_1":"半田市","jp_add_2":"花園町"},"4750088":{"post_code":"4750088","prefecture":"AICHI KEN","city":"HANDA SHI","town":"HANADACHO","perfecture_jp":"愛知県","jp_add_1":"半田市","jp_add_2":"花田町"},"4750805":{"post_code":"4750805","prefecture":"AICHI KEN","city":"HANDA SHI","town":"HAMADACHO","perfecture_jp":"愛知県","jp_add_1":"半田市","jp_add_2":"浜田町"},"4750822":{"post_code":"4750822","prefecture":"AICHI KEN","city":"HANDA SHI","town":"HAMAMACHI","perfecture_jp":"愛知県","jp_add_1":"半田市","jp_add_2":"浜町"},"4750916":{"post_code":"4750916","prefecture":"AICHI KEN","city":"HANDA SHI","town":"HIIRAGICHO","perfecture_jp":"愛知県","jp_add_1":"半田市","jp_add_2":"柊町"},"4750003":{"post_code":"4750003","prefecture":"AICHI KEN","city":"HANDA SHI","town":"HIGASHIOYACHICHO","perfecture_jp":"愛知県","jp_add_1":"半田市","jp_add_2":"東大矢知町"},"4750034":{"post_code":"4750034","prefecture":"AICHI KEN","city":"HANDA SHI","town":"HIGASHIOKUDACHO","perfecture_jp":"愛知県","jp_add_1":"半田市","jp_add_2":"東億田町"},"4750861":{"post_code":"4750861","prefecture":"AICHI KEN","city":"HANDA SHI","town":"HIGASHISHIMMACHI","perfecture_jp":"愛知県","jp_add_1":"半田市","jp_add_2":"東新町"},"4750876":{"post_code":"4750876","prefecture":"AICHI KEN","city":"HANDA SHI","town":"HIGASHITENNOCHO","perfecture_jp":"愛知県","jp_add_1":"半田市","jp_add_2":"東天王町"},"4750012":{"post_code":"4750012","prefecture":"AICHI KEN","city":"HANDA SHI","town":"HIGASHIHAEMICHO","perfecture_jp":"愛知県","jp_add_1":"半田市","jp_add_2":"東生見町"},"4750813":{"post_code":"4750813","prefecture":"AICHI KEN","city":"HANDA SHI","town":"HIGASHIHAMACHO","perfecture_jp":"愛知県","jp_add_1":"半田市","jp_add_2":"東浜町"},"4750878":{"post_code":"4750878","prefecture":"AICHI KEN","city":"HANDA SHI","town":"HIGASHIHOMMACHI","perfecture_jp":"愛知県","jp_add_1":"半田市","jp_add_2":"東本町"},"4750975":{"post_code":"4750975","prefecture":"AICHI KEN","city":"HANDA SHI","town":"HIKOZUCHO","perfecture_jp":"愛知県","jp_add_1":"半田市","jp_add_2":"彦洲町"},"4750819":{"post_code":"4750819","prefecture":"AICHI KEN","city":"HANDA SHI","town":"HINODECHO","perfecture_jp":"愛知県","jp_add_1":"半田市","jp_add_2":"日ノ出町"},"4750964":{"post_code":"4750964","prefecture":"AICHI KEN","city":"HANDA SHI","town":"HIRAICHO","perfecture_jp":"愛知県","jp_add_1":"半田市","jp_add_2":"平井町"},"4750081":{"post_code":"4750081","prefecture":"AICHI KEN","city":"HANDA SHI","town":"HIRACHICHO","perfecture_jp":"愛知県","jp_add_1":"半田市","jp_add_2":"平地町"},"4750013":{"post_code":"4750013","prefecture":"AICHI KEN","city":"HANDA SHI","town":"HIRACHIBAMBACHO","perfecture_jp":"愛知県","jp_add_1":"半田市","jp_add_2":"平地馬場町"},"4750857":{"post_code":"4750857","prefecture":"AICHI KEN","city":"HANDA SHI","town":"HIROKOJICHO","perfecture_jp":"愛知県","jp_add_1":"半田市","jp_add_2":"広小路町"},"4750971":{"post_code":"4750971","prefecture":"AICHI KEN","city":"HANDA SHI","town":"FUKADANICHO","perfecture_jp":"愛知県","jp_add_1":"半田市","jp_add_2":"深谷町"},"4750978":{"post_code":"4750978","prefecture":"AICHI KEN","city":"HANDA SHI","town":"FUKUCHICHO","perfecture_jp":"愛知県","jp_add_1":"半田市","jp_add_2":"福地町"},"4750834":{"post_code":"4750834","prefecture":"AICHI KEN","city":"HANDA SHI","town":"FUJIGAOKA","perfecture_jp":"愛知県","jp_add_1":"半田市","jp_add_2":"冨士ケ丘"},"4750821":{"post_code":"4750821","prefecture":"AICHI KEN","city":"HANDA SHI","town":"FUNAIRICHO","perfecture_jp":"愛知県","jp_add_1":"半田市","jp_add_2":"船入町"},"4750963":{"post_code":"4750963","prefecture":"AICHI KEN","city":"HANDA SHI","town":"HEIWACHO","perfecture_jp":"愛知県","jp_add_1":"半田市","jp_add_2":"平和町"},"4750951":{"post_code":"4750951","prefecture":"AICHI KEN","city":"HANDA SHI","town":"HORAICHO","perfecture_jp":"愛知県","jp_add_1":"半田市","jp_add_2":"宝来町"},"4750911":{"post_code":"4750911","prefecture":"AICHI KEN","city":"HANDA SHI","town":"HOSHIZAKICHO","perfecture_jp":"愛知県","jp_add_1":"半田市","jp_add_2":"星崎町"},"4750851":{"post_code":"4750851","prefecture":"AICHI KEN","city":"HANDA SHI","town":"HORISAKICHO","perfecture_jp":"愛知県","jp_add_1":"半田市","jp_add_2":"堀崎町"},"4750871":{"post_code":"4750871","prefecture":"AICHI KEN","city":"HANDA SHI","town":"HOMMACHI","perfecture_jp":"愛知県","jp_add_1":"半田市","jp_add_2":"本町"},"4750825":{"post_code":"4750825","prefecture":"AICHI KEN","city":"HANDA SHI","town":"MAEGATACHO","perfecture_jp":"愛知県","jp_add_1":"半田市","jp_add_2":"前潟町"},"4750863":{"post_code":"4750863","prefecture":"AICHI KEN","city":"HANDA SHI","town":"MAEZAKI HIGASHIMACHI","perfecture_jp":"愛知県","jp_add_1":"半田市","jp_add_2":"前崎東町"},"4750864":{"post_code":"4750864","prefecture":"AICHI KEN","city":"HANDA SHI","town":"MAEZAKI NISHIMACHI","perfecture_jp":"愛知県","jp_add_1":"半田市","jp_add_2":"前崎西町"},"4750082":{"post_code":"4750082","prefecture":"AICHI KEN","city":"HANDA SHI","town":"MAEDACHO","perfecture_jp":"愛知県","jp_add_1":"半田市","jp_add_2":"前田町"},"4750942":{"post_code":"4750942","prefecture":"AICHI KEN","city":"HANDA SHI","town":"MATSUBORICHO","perfecture_jp":"愛知県","jp_add_1":"半田市","jp_add_2":"松堀町"},"4750828":{"post_code":"4750828","prefecture":"AICHI KEN","city":"HANDA SHI","town":"MIZUHOCHO","perfecture_jp":"愛知県","jp_add_1":"半田市","jp_add_2":"瑞穂町"},"4750956":{"post_code":"4750956","prefecture":"AICHI KEN","city":"HANDA SHI","town":"MITSUIKECHO","perfecture_jp":"愛知県","jp_add_1":"半田市","jp_add_2":"三ツ池町"},"4750002":{"post_code":"4750002","prefecture":"AICHI KEN","city":"HANDA SHI","town":"MIDORIGAOKA","perfecture_jp":"愛知県","jp_add_1":"半田市","jp_add_2":"緑ケ丘"},"4750827":{"post_code":"4750827","prefecture":"AICHI KEN","city":"HANDA SHI","town":"MINATOHOMMACHI","perfecture_jp":"愛知県","jp_add_1":"半田市","jp_add_2":"港本町"},"4750823":{"post_code":"4750823","prefecture":"AICHI KEN","city":"HANDA SHI","town":"MINATOMACHI","perfecture_jp":"愛知県","jp_add_1":"半田市","jp_add_2":"港町"},"4750006":{"post_code":"4750006","prefecture":"AICHI KEN","city":"HANDA SHI","town":"MINAMIOYACHICHO","perfecture_jp":"愛知県","jp_add_1":"半田市","jp_add_2":"南大矢知町"},"4750853":{"post_code":"4750853","prefecture":"AICHI KEN","city":"HANDA SHI","town":"MINAMISUEHIROCHO","perfecture_jp":"愛知県","jp_add_1":"半田市","jp_add_2":"南末広町"},"4750926":{"post_code":"4750926","prefecture":"AICHI KEN","city":"HANDA SHI","town":"MINAMIFUTATSUZAKACHO","perfecture_jp":"愛知県","jp_add_1":"半田市","jp_add_2":"南二ツ坂町"},"4750882":{"post_code":"4750882","prefecture":"AICHI KEN","city":"HANDA SHI","town":"MINAMIHOMMACHI","perfecture_jp":"愛知県","jp_add_1":"半田市","jp_add_2":"南本町"},"4750073":{"post_code":"4750073","prefecture":"AICHI KEN","city":"HANDA SHI","town":"MIHARACHO","perfecture_jp":"愛知県","jp_add_1":"半田市","jp_add_2":"美原町"},"4750902":{"post_code":"4750902","prefecture":"AICHI KEN","city":"HANDA SHI","town":"MIYAJICHO","perfecture_jp":"愛知県","jp_add_1":"半田市","jp_add_2":"宮路町"},"4750925":{"post_code":"4750925","prefecture":"AICHI KEN","city":"HANDA SHI","town":"MIYAMOTOCHO","perfecture_jp":"愛知県","jp_add_1":"半田市","jp_add_2":"宮本町"},"4750887":{"post_code":"4750887","prefecture":"AICHI KEN","city":"HANDA SHI","town":"MIYUKIMACHI","perfecture_jp":"愛知県","jp_add_1":"半田市","jp_add_2":"御幸町"},"4750883":{"post_code":"4750883","prefecture":"AICHI KEN","city":"HANDA SHI","town":"MYOKENCHO","perfecture_jp":"愛知県","jp_add_1":"半田市","jp_add_2":"妙見町"},"4750084":{"post_code":"4750084","prefecture":"AICHI KEN","city":"HANDA SHI","town":"MUKAIYAMACHO","perfecture_jp":"愛知県","jp_add_1":"半田市","jp_add_2":"向山町"},"4750959":{"post_code":"4750959","prefecture":"AICHI KEN","city":"HANDA SHI","town":"MOMOYAMACHO","perfecture_jp":"愛知県","jp_add_1":"半田市","jp_add_2":"桃山町"},"4750962":{"post_code":"4750962","prefecture":"AICHI KEN","city":"HANDA SHI","town":"YANABE TAKAYAMACHO","perfecture_jp":"愛知県","jp_add_1":"半田市","jp_add_2":"岩滑高山町"},"4750961":{"post_code":"4750961","prefecture":"AICHI KEN","city":"HANDA SHI","town":"YANABE NAKAMACHI","perfecture_jp":"愛知県","jp_add_1":"半田市","jp_add_2":"岩滑中町"},"4750905":{"post_code":"4750905","prefecture":"AICHI KEN","city":"HANDA SHI","town":"YANABE HIGASHIMACHI","perfecture_jp":"愛知県","jp_add_1":"半田市","jp_add_2":"岩滑東町"},"4750966":{"post_code":"4750966","prefecture":"AICHI KEN","city":"HANDA SHI","town":"YANABE NISHIMACHI","perfecture_jp":"愛知県","jp_add_1":"半田市","jp_add_2":"岩滑西町"},"4750901":{"post_code":"4750901","prefecture":"AICHI KEN","city":"HANDA SHI","town":"YANABE MINAMIHAMACHO","perfecture_jp":"愛知県","jp_add_1":"半田市","jp_add_2":"岩滑南浜町"},"4750906":{"post_code":"4750906","prefecture":"AICHI KEN","city":"HANDA SHI","town":"YANABE KITAHAMACHO","perfecture_jp":"愛知県","jp_add_1":"半田市","jp_add_2":"岩滑北浜町"},"4750875":{"post_code":"4750875","prefecture":"AICHI KEN","city":"HANDA SHI","town":"YAMAZAKICHO","perfecture_jp":"愛知県","jp_add_1":"半田市","jp_add_2":"山崎町"},"4750974":{"post_code":"4750974","prefecture":"AICHI KEN","city":"HANDA SHI","town":"YAMASHIROCHO","perfecture_jp":"愛知県","jp_add_1":"半田市","jp_add_2":"山代町"},"4750841":{"post_code":"4750841","prefecture":"AICHI KEN","city":"HANDA SHI","town":"YAMATOCHO","perfecture_jp":"愛知県","jp_add_1":"半田市","jp_add_2":"大和町"},"4750885":{"post_code":"4750885","prefecture":"AICHI KEN","city":"HANDA SHI","town":"YAMANOKAMICHO","perfecture_jp":"愛知県","jp_add_1":"半田市","jp_add_2":"山ノ神町"},"4750837":{"post_code":"4750837","prefecture":"AICHI KEN","city":"HANDA SHI","town":"YURAKUCHO","perfecture_jp":"愛知県","jp_add_1":"半田市","jp_add_2":"有楽町"},"4750005":{"post_code":"4750005","prefecture":"AICHI KEN","city":"HANDA SHI","town":"YOKOGAWACHO","perfecture_jp":"愛知県","jp_add_1":"半田市","jp_add_2":"横川町"},"4750076":{"post_code":"4750076","prefecture":"AICHI KEN","city":"HANDA SHI","town":"YOKOMATSUKAMICHO","perfecture_jp":"愛知県","jp_add_1":"半田市","jp_add_2":"横松上町"},"4750946":{"post_code":"4750946","prefecture":"AICHI KEN","city":"HANDA SHI","town":"YOKOYAMACHO","perfecture_jp":"愛知県","jp_add_1":"半田市","jp_add_2":"横山町"},"4750973":{"post_code":"4750973","prefecture":"AICHI KEN","city":"HANDA SHI","town":"YOSHIDANICHO","perfecture_jp":"愛知県","jp_add_1":"半田市","jp_add_2":"葭谷町"},"4750939":{"post_code":"4750939","prefecture":"AICHI KEN","city":"HANDA SHI","town":"YOMOGICHO","perfecture_jp":"愛知県","jp_add_1":"半田市","jp_add_2":"四方木町"}}