{"4801217":{"post_code":"4801217","prefecture":"AICHI KEN","city":"SETO SHI","town":"IYAMACHO","perfecture_jp":"愛知県","jp_add_1":"瀬戸市","jp_add_2":"井山町"},"4801215":{"post_code":"4801215","prefecture":"AICHI KEN","city":"SETO SHI","town":"IWAYACHO","perfecture_jp":"愛知県","jp_add_1":"瀬戸市","jp_add_2":"岩屋町"},"4801205":{"post_code":"4801205","prefecture":"AICHI KEN","city":"SETO SHI","town":"OCHIAICHO","perfecture_jp":"愛知県","jp_add_1":"瀬戸市","jp_add_2":"落合町"},"4801212":{"post_code":"4801212","prefecture":"AICHI KEN","city":"SETO SHI","town":"KATAKUSACHO","perfecture_jp":"愛知県","jp_add_1":"瀬戸市","jp_add_2":"片草町"},"4801219":{"post_code":"4801219","prefecture":"AICHI KEN","city":"SETO SHI","town":"KAMAMACHI","perfecture_jp":"愛知県","jp_add_1":"瀬戸市","jp_add_2":"窯町"},"4801214":{"post_code":"4801214","prefecture":"AICHI KEN","city":"SETO SHI","town":"KAMISHINANOCHO","perfecture_jp":"愛知県","jp_add_1":"瀬戸市","jp_add_2":"上品野町"},"4801211":{"post_code":"4801211","prefecture":"AICHI KEN","city":"SETO SHI","town":"KAMIHADAGAWACHO","perfecture_jp":"愛知県","jp_add_1":"瀬戸市","jp_add_2":"上半田川町"},"4801204":{"post_code":"4801204","prefecture":"AICHI KEN","city":"SETO SHI","town":"KITAOKACHO","perfecture_jp":"愛知県","jp_add_1":"瀬戸市","jp_add_2":"北丘町"},"4801207":{"post_code":"4801207","prefecture":"AICHI KEN","city":"SETO SHI","town":"SHINANOCHO","perfecture_jp":"愛知県","jp_add_1":"瀬戸市","jp_add_2":"品野町"},"4801202":{"post_code":"4801202","prefecture":"AICHI KEN","city":"SETO SHI","town":"SHIMOHADAGAWACHO","perfecture_jp":"愛知県","jp_add_1":"瀬戸市","jp_add_2":"下半田川町"},"4801201":{"post_code":"4801201","prefecture":"AICHI KEN","city":"SETO SHI","town":"JOKOJICHO","perfecture_jp":"愛知県","jp_add_1":"瀬戸市","jp_add_2":"定光寺町"},"4801213":{"post_code":"4801213","prefecture":"AICHI KEN","city":"SETO SHI","town":"SHIRAIWACHO","perfecture_jp":"愛知県","jp_add_1":"瀬戸市","jp_add_2":"白岩町"},"4801216":{"post_code":"4801216","prefecture":"AICHI KEN","city":"SETO SHI","town":"TORIHARACHO","perfecture_jp":"愛知県","jp_add_1":"瀬戸市","jp_add_2":"鳥原町"},"4801218":{"post_code":"4801218","prefecture":"AICHI KEN","city":"SETO SHI","town":"NAKASHINANOCHO","perfecture_jp":"愛知県","jp_add_1":"瀬戸市","jp_add_2":"中品野町"},"4801203":{"post_code":"4801203","prefecture":"AICHI KEN","city":"SETO SHI","town":"HIRONOTACHO","perfecture_jp":"愛知県","jp_add_1":"瀬戸市","jp_add_2":"広之田町"},"4801206":{"post_code":"4801206","prefecture":"AICHI KEN","city":"SETO SHI","town":"YATOKOCHO","perfecture_jp":"愛知県","jp_add_1":"瀬戸市","jp_add_2":"八床町"},"4800303":{"post_code":"4800303","prefecture":"AICHI KEN","city":"KASUGAI SHI","town":"AKECHICHO","perfecture_jp":"愛知県","jp_add_1":"春日井市","jp_add_2":"明知町"},"4800306":{"post_code":"4800306","prefecture":"AICHI KEN","city":"KASUGAI SHI","town":"UENOCHO","perfecture_jp":"愛知県","jp_add_1":"春日井市","jp_add_2":"上野町"},"4800301":{"post_code":"4800301","prefecture":"AICHI KEN","city":"KASUGAI SHI","town":"UTSUTSUCHO","perfecture_jp":"愛知県","jp_add_1":"春日井市","jp_add_2":"内津町"},"4800304":{"post_code":"4800304","prefecture":"AICHI KEN","city":"KASUGAI SHI","town":"KAGIYACHO","perfecture_jp":"愛知県","jp_add_1":"春日井市","jp_add_2":"神屋町"},"4800302":{"post_code":"4800302","prefecture":"AICHI KEN","city":"KASUGAI SHI","town":"SAIOCHO","perfecture_jp":"愛知県","jp_add_1":"春日井市","jp_add_2":"西尾町"},"4800305":{"post_code":"4800305","prefecture":"AICHI KEN","city":"KASUGAI SHI","town":"SAKASHITACHO","perfecture_jp":"愛知県","jp_add_1":"春日井市","jp_add_2":"坂下町"},"4801100":{"post_code":"4801100","prefecture":"AICHI KEN","city":"NAGAKUTE SHI","town":"IKANIKEISAIGANAIBAAI","perfecture_jp":"愛知県","jp_add_1":"長久手市","jp_add_2":""},"4801323":{"post_code":"4801323","prefecture":"AICHI KEN","city":"NAGAKUTE SHI","town":"ABATA","perfecture_jp":"愛知県","jp_add_1":"長久手市","jp_add_2":"阿畑"},"4801331":{"post_code":"4801331","prefecture":"AICHI KEN","city":"NAGAKUTE SHI","town":"AMAZUTSUMI","perfecture_jp":"愛知県","jp_add_1":"長久手市","jp_add_2":"雨堤"},"4801161":{"post_code":"4801161","prefecture":"AICHI KEN","city":"NAGAKUTE SHI","town":"ARATA","perfecture_jp":"愛知県","jp_add_1":"長久手市","jp_add_2":"荒田"},"4801182":{"post_code":"4801182","prefecture":"AICHI KEN","city":"NAGAKUTE SHI","town":"IKEDA","perfecture_jp":"愛知県","jp_add_1":"長久手市","jp_add_2":"池田"},"4801343":{"post_code":"4801343","prefecture":"AICHI KEN","city":"NAGAKUTE SHI","town":"ISHIBA","perfecture_jp":"愛知県","jp_add_1":"長久手市","jp_add_2":"石場"},"4801147":{"post_code":"4801147","prefecture":"AICHI KEN","city":"NAGAKUTE SHI","town":"ICHIGAHORA","perfecture_jp":"愛知県","jp_add_1":"長久手市","jp_add_2":"市が洞"},"4801342":{"post_code":"4801342","prefecture":"AICHI KEN","city":"NAGAKUTE SHI","town":"IBARAGABASAMA","perfecture_jp":"愛知県","jp_add_1":"長久手市","jp_add_2":"茨ケ廻間"},"4801143":{"post_code":"4801143","prefecture":"AICHI KEN","city":"NAGAKUTE SHI","town":"IBORI","perfecture_jp":"愛知県","jp_add_1":"長久手市","jp_add_2":"井堀"},"4801116":{"post_code":"4801116","prefecture":"AICHI KEN","city":"NAGAKUTE SHI","town":"IRIGAIKE","perfecture_jp":"愛知県","jp_add_1":"長久手市","jp_add_2":"杁ケ池"},"4801325":{"post_code":"4801325","prefecture":"AICHI KEN","city":"NAGAKUTE SHI","town":"IRIGANE","perfecture_jp":"愛知県","jp_add_1":"長久手市","jp_add_2":"杁ケ根"},"4801302":{"post_code":"4801302","prefecture":"AICHI KEN","city":"NAGAKUTE SHI","town":"IRINOHORA","perfecture_jp":"愛知県","jp_add_1":"長久手市","jp_add_2":"杁ノ洞"},"4801308":{"post_code":"4801308","prefecture":"AICHI KEN","city":"NAGAKUTE SHI","town":"IWABASAMA","perfecture_jp":"愛知県","jp_add_1":"長久手市","jp_add_2":"岩廻間"},"4801125":{"post_code":"4801125","prefecture":"AICHI KEN","city":"NAGAKUTE SHI","town":"UJIGAMIMAE","perfecture_jp":"愛知県","jp_add_1":"長久手市","jp_add_2":"氏神前"},"4801152":{"post_code":"4801152","prefecture":"AICHI KEN","city":"NAGAKUTE SHI","town":"UCHIKOSHI","perfecture_jp":"愛知県","jp_add_1":"長久手市","jp_add_2":"打越"},"4801145":{"post_code":"4801145","prefecture":"AICHI KEN","city":"NAGAKUTE SHI","town":"UZUKA","perfecture_jp":"愛知県","jp_add_1":"長久手市","jp_add_2":"卯塚"},"4801314":{"post_code":"4801314","prefecture":"AICHI KEN","city":"NAGAKUTE SHI","town":"UMAZUTSUMI","perfecture_jp":"愛知県","jp_add_1":"長久手市","jp_add_2":"馬堤"},"4801334":{"post_code":"4801334","prefecture":"AICHI KEN","city":"NAGAKUTE SHI","town":"ENOSHITA","perfecture_jp":"愛知県","jp_add_1":"長久手市","jp_add_2":"榎ノ下"},"4801333":{"post_code":"4801333","prefecture":"AICHI KEN","city":"NAGAKUTE SHI","town":"EBISU","perfecture_jp":"愛知県","jp_add_1":"長久手市","jp_add_2":"蛭子"},"4801106":{"post_code":"4801106","prefecture":"AICHI KEN","city":"NAGAKUTE SHI","town":"OKUTE","perfecture_jp":"愛知県","jp_add_1":"長久手市","jp_add_2":"大久手"},"4801146":{"post_code":"4801146","prefecture":"AICHI KEN","city":"NAGAKUTE SHI","town":"KATAHIRA","perfecture_jp":"愛知県","jp_add_1":"長久手市","jp_add_2":"片平"},"4801142":{"post_code":"4801142","prefecture":"AICHI KEN","city":"NAGAKUTE SHI","town":"KANIHARA","perfecture_jp":"愛知県","jp_add_1":"長久手市","jp_add_2":"蟹原"},"4801132":{"post_code":"4801132","prefecture":"AICHI KEN","city":"NAGAKUTE SHI","town":"KAMIKAWAHARA","perfecture_jp":"愛知県","jp_add_1":"長久手市","jp_add_2":"上川原"},"4801165":{"post_code":"4801165","prefecture":"AICHI KEN","city":"NAGAKUTE SHI","town":"KAMODA","perfecture_jp":"愛知県","jp_add_1":"長久手市","jp_add_2":"鴨田"},"4801327":{"post_code":"4801327","prefecture":"AICHI KEN","city":"NAGAKUTE SHI","town":"KANNONDO","perfecture_jp":"愛知県","jp_add_1":"長久手市","jp_add_2":"観音堂"},"4801301":{"post_code":"4801301","prefecture":"AICHI KEN","city":"NAGAKUTE SHI","town":"KITAURA","perfecture_jp":"愛知県","jp_add_1":"長久手市","jp_add_2":"北浦"},"4801339":{"post_code":"4801339","prefecture":"AICHI KEN","city":"NAGAKUTE SHI","town":"KITAGUMA","perfecture_jp":"愛知県","jp_add_1":"長久手市","jp_add_2":"北熊"},"4801117":{"post_code":"4801117","prefecture":"AICHI KEN","city":"NAGAKUTE SHI","town":"KIBUTAKE","perfecture_jp":"愛知県","jp_add_1":"長久手市","jp_add_2":"喜婦嶽"},"4801184":{"post_code":"4801184","prefecture":"AICHI KEN","city":"NAGAKUTE SHI","town":"KUSAKAKE","perfecture_jp":"愛知県","jp_add_1":"長久手市","jp_add_2":"草掛"},"4801151":{"post_code":"4801151","prefecture":"AICHI KEN","city":"NAGAKUTE SHI","town":"KUBOYAMA","perfecture_jp":"愛知県","jp_add_1":"長久手市","jp_add_2":"久保山"},"4801144":{"post_code":"4801144","prefecture":"AICHI KEN","city":"NAGAKUTE SHI","town":"KUMADA","perfecture_jp":"愛知県","jp_add_1":"長久手市","jp_add_2":"熊田"},"4801312":{"post_code":"4801312","prefecture":"AICHI KEN","city":"NAGAKUTE SHI","town":"KUMAHARIFUKADA","perfecture_jp":"愛知県","jp_add_1":"長久手市","jp_add_2":"熊張深田"},"4801347":{"post_code":"4801347","prefecture":"AICHI KEN","city":"NAGAKUTE SHI","town":"KOIGABASAMA","perfecture_jp":"愛知県","jp_add_1":"長久手市","jp_add_2":"鯉ケ廻間"},"4801336":{"post_code":"4801336","prefecture":"AICHI KEN","city":"NAGAKUTE SHI","town":"KOINABA","perfecture_jp":"愛知県","jp_add_1":"長久手市","jp_add_2":"小稲葉"},"4801304":{"post_code":"4801304","prefecture":"AICHI KEN","city":"NAGAKUTE SHI","town":"GOMAE","perfecture_jp":"愛知県","jp_add_1":"長久手市","jp_add_2":"郷前"},"4801176":{"post_code":"4801176","prefecture":"AICHI KEN","city":"NAGAKUTE SHI","town":"KOKE","perfecture_jp":"愛知県","jp_add_1":"長久手市","jp_add_2":"香桶"},"4801156":{"post_code":"4801156","prefecture":"AICHI KEN","city":"NAGAKUTE SHI","town":"GOGOIKE","perfecture_jp":"愛知県","jp_add_1":"長久手市","jp_add_2":"五合池"},"4801313":{"post_code":"4801313","prefecture":"AICHI KEN","city":"NAGAKUTE SHI","town":"KOBUKE","perfecture_jp":"愛知県","jp_add_1":"長久手市","jp_add_2":"小深"},"4801153":{"post_code":"4801153","prefecture":"AICHI KEN","city":"NAGAKUTE SHI","town":"SAKUTA","perfecture_jp":"愛知県","jp_add_1":"長久手市","jp_add_2":"作田"},"4801157":{"post_code":"4801157","prefecture":"AICHI KEN","city":"NAGAKUTE SHI","town":"SAKURATSUKURI","perfecture_jp":"愛知県","jp_add_1":"長久手市","jp_add_2":"桜作"},"4801329":{"post_code":"4801329","prefecture":"AICHI KEN","city":"NAGAKUTE SHI","town":"SARUHIRA","perfecture_jp":"愛知県","jp_add_1":"長久手市","jp_add_2":"申平"},"4801322":{"post_code":"4801322","prefecture":"AICHI KEN","city":"NAGAKUTE SHI","town":"SHIOMIZAKA","perfecture_jp":"愛知県","jp_add_1":"長久手市","jp_add_2":"汐見坂"},"4801137":{"post_code":"4801137","prefecture":"AICHI KEN","city":"NAGAKUTE SHI","town":"SHIMOGAWARA","perfecture_jp":"愛知県","jp_add_1":"長久手市","jp_add_2":"下川原"},"4801107":{"post_code":"4801107","prefecture":"AICHI KEN","city":"NAGAKUTE SHI","town":"SHIMOGONDA","perfecture_jp":"愛知県","jp_add_1":"長久手市","jp_add_2":"下権田"},"4801338":{"post_code":"4801338","prefecture":"AICHI KEN","city":"NAGAKUTE SHI","town":"SHIMODA","perfecture_jp":"愛知県","jp_add_1":"長久手市","jp_add_2":"下田"},"4801135":{"post_code":"4801135","prefecture":"AICHI KEN","city":"NAGAKUTE SHI","town":"SHIMOYAMA","perfecture_jp":"愛知県","jp_add_1":"長久手市","jp_add_2":"下山"},"4801128":{"post_code":"4801128","prefecture":"AICHI KEN","city":"NAGAKUTE SHI","town":"SHONYUZUKA","perfecture_jp":"愛知県","jp_add_1":"長久手市","jp_add_2":"勝入塚"},"4801115":{"post_code":"4801115","prefecture":"AICHI KEN","city":"NAGAKUTE SHI","town":"SHOBUIKE","perfecture_jp":"愛知県","jp_add_1":"長久手市","jp_add_2":"菖蒲池"},"4801122":{"post_code":"4801122","prefecture":"AICHI KEN","city":"NAGAKUTE SHI","town":"SHIROYASHIKI","perfecture_jp":"愛知県","jp_add_1":"長久手市","jp_add_2":"城屋敷"},"4801306":{"post_code":"4801306","prefecture":"AICHI KEN","city":"NAGAKUTE SHI","town":"SHINGYODA","perfecture_jp":"愛知県","jp_add_1":"長久手市","jp_add_2":"真行田"},"4801321":{"post_code":"4801321","prefecture":"AICHI KEN","city":"NAGAKUTE SHI","town":"SHIMMEI","perfecture_jp":"愛知県","jp_add_1":"長久手市","jp_add_2":"神明"},"4801332":{"post_code":"4801332","prefecture":"AICHI KEN","city":"NAGAKUTE SHI","town":"JIMMOMMAE","perfecture_jp":"愛知県","jp_add_1":"長久手市","jp_add_2":"神門前"},"4801127":{"post_code":"4801127","prefecture":"AICHI KEN","city":"NAGAKUTE SHI","town":"SUGAIKE","perfecture_jp":"愛知県","jp_add_1":"長久手市","jp_add_2":"菅池"},"4801326":{"post_code":"4801326","prefecture":"AICHI KEN","city":"NAGAKUTE SHI","town":"SUKEROKU","perfecture_jp":"愛知県","jp_add_1":"長久手市","jp_add_2":"助六"},"4801112":{"post_code":"4801112","prefecture":"AICHI KEN","city":"NAGAKUTE SHI","town":"SUNAGO","perfecture_jp":"愛知県","jp_add_1":"長久手市","jp_add_2":"砂子"},"4801175":{"post_code":"4801175","prefecture":"AICHI KEN","city":"NAGAKUTE SHI","town":"SENDATSU","perfecture_jp":"愛知県","jp_add_1":"長久手市","jp_add_2":"先達"},"4801335":{"post_code":"4801335","prefecture":"AICHI KEN","city":"NAGAKUTE SHI","town":"DAINICHI","perfecture_jp":"愛知県","jp_add_1":"長久手市","jp_add_2":"大日"},"4801324":{"post_code":"4801324","prefecture":"AICHI KEN","city":"NAGAKUTE SHI","town":"DANTOME","perfecture_jp":"愛知県","jp_add_1":"長久手市","jp_add_2":"段留"},"4801162":{"post_code":"4801162","prefecture":"AICHI KEN","city":"NAGAKUTE SHI","town":"DANNOE","perfecture_jp":"愛知県","jp_add_1":"長久手市","jp_add_2":"段の上"},"4801178":{"post_code":"4801178","prefecture":"AICHI KEN","city":"NAGAKUTE SHI","town":"CHOSHIDA","perfecture_jp":"愛知県","jp_add_1":"長久手市","jp_add_2":"丁子田"},"4801114":{"post_code":"4801114","prefecture":"AICHI KEN","city":"NAGAKUTE SHI","town":"CHOHAI","perfecture_jp":"愛知県","jp_add_1":"長久手市","jp_add_2":"長配"},"4801154":{"post_code":"4801154","prefecture":"AICHI KEN","city":"NAGAKUTE SHI","town":"TSUKADA","perfecture_jp":"愛知県","jp_add_1":"長久手市","jp_add_2":"塚田"},"4801346":{"post_code":"4801346","prefecture":"AICHI KEN","city":"NAGAKUTE SHI","town":"DOWAKI","perfecture_jp":"愛知県","jp_add_1":"長久手市","jp_add_2":"堂脇"},"4801124":{"post_code":"4801124","prefecture":"AICHI KEN","city":"NAGAKUTE SHI","town":"TODAGAI","perfecture_jp":"愛知県","jp_add_1":"長久手市","jp_add_2":"戸田谷"},"4801305":{"post_code":"4801305","prefecture":"AICHI KEN","city":"NAGAKUTE SHI","town":"NAKAI","perfecture_jp":"愛知県","jp_add_1":"長久手市","jp_add_2":"中井"},"4801108":{"post_code":"4801108","prefecture":"AICHI KEN","city":"NAGAKUTE SHI","town":"NAKAIKE","perfecture_jp":"愛知県","jp_add_1":"長久手市","jp_add_2":"中池"},"4801139":{"post_code":"4801139","prefecture":"AICHI KEN","city":"NAGAKUTE SHI","town":"NAKAGAWARA","perfecture_jp":"愛知県","jp_add_1":"長久手市","jp_add_2":"中川原"},"4801167":{"post_code":"4801167","prefecture":"AICHI KEN","city":"NAGAKUTE SHI","town":"NAKATA","perfecture_jp":"愛知県","jp_add_1":"長久手市","jp_add_2":"仲田"},"4801337":{"post_code":"4801337","prefecture":"AICHI KEN","city":"NAGAKUTE SHI","town":"NAKAYA","perfecture_jp":"愛知県","jp_add_1":"長久手市","jp_add_2":"中屋"},"4801171":{"post_code":"4801171","prefecture":"AICHI KEN","city":"NAGAKUTE SHI","town":"NISHIURA","perfecture_jp":"愛知県","jp_add_1":"長久手市","jp_add_2":"西浦"},"4801183":{"post_code":"4801183","prefecture":"AICHI KEN","city":"NAGAKUTE SHI","town":"NISHIHARA","perfecture_jp":"愛知県","jp_add_1":"長久手市","jp_add_2":"西原"},"4801138":{"post_code":"4801138","prefecture":"AICHI KEN","city":"NAGAKUTE SHI","town":"NISHIHARAYAMA","perfecture_jp":"愛知県","jp_add_1":"長久手市","jp_add_2":"西原山"},"4801148":{"post_code":"4801148","prefecture":"AICHI KEN","city":"NAGAKUTE SHI","town":"NETAKE","perfecture_jp":"愛知県","jp_add_1":"長久手市","jp_add_2":"根嶽"},"4801141":{"post_code":"4801141","prefecture":"AICHI KEN","city":"NAGAKUTE SHI","town":"NENOGAMI","perfecture_jp":"愛知県","jp_add_1":"長久手市","jp_add_2":"根の神"},"4801166":{"post_code":"4801166","prefecture":"AICHI KEN","city":"NAGAKUTE SHI","town":"NODANO","perfecture_jp":"愛知県","jp_add_1":"長久手市","jp_add_2":"野田農"},"4801163":{"post_code":"4801163","prefecture":"AICHI KEN","city":"NAGAKUTE SHI","town":"HARAYASHIKI","perfecture_jp":"愛知県","jp_add_1":"長久手市","jp_add_2":"原邸"},"4801133":{"post_code":"4801133","prefecture":"AICHI KEN","city":"NAGAKUTE SHI","town":"HARAYAMA","perfecture_jp":"愛知県","jp_add_1":"長久手市","jp_add_2":"原山"},"4801174":{"post_code":"4801174","prefecture":"AICHI KEN","city":"NAGAKUTE SHI","town":"HIGASHIURA","perfecture_jp":"愛知県","jp_add_1":"長久手市","jp_add_2":"東浦"},"4801303":{"post_code":"4801303","prefecture":"AICHI KEN","city":"NAGAKUTE SHI","town":"HIGASHIDA","perfecture_jp":"愛知県","jp_add_1":"長久手市","jp_add_2":"東田"},"4801123":{"post_code":"4801123","prefecture":"AICHI KEN","city":"NAGAKUTE SHI","town":"HIGASHIHAZAMA","perfecture_jp":"愛知県","jp_add_1":"長久手市","jp_add_2":"東狭間"},"4801181":{"post_code":"4801181","prefecture":"AICHI KEN","city":"NAGAKUTE SHI","town":"HIGASHIHARA","perfecture_jp":"愛知県","jp_add_1":"長久手市","jp_add_2":"東原"},"4801158":{"post_code":"4801158","prefecture":"AICHI KEN","city":"NAGAKUTE SHI","town":"HIGASHIHARAYAMA","perfecture_jp":"愛知県","jp_add_1":"長久手市","jp_add_2":"東原山"},"4801315":{"post_code":"4801315","prefecture":"AICHI KEN","city":"NAGAKUTE SHI","town":"HIGASHIHIRACHI","perfecture_jp":"愛知県","jp_add_1":"長久手市","jp_add_2":"東平地"},"4801318":{"post_code":"4801318","prefecture":"AICHI KEN","city":"NAGAKUTE SHI","town":"HIGASHIYAMA","perfecture_jp":"愛知県","jp_add_1":"長久手市","jp_add_2":"東山"},"4801155":{"post_code":"4801155","prefecture":"AICHI KEN","city":"NAGAKUTE SHI","town":"HIRAIKE","perfecture_jp":"愛知県","jp_add_1":"長久手市","jp_add_2":"平池"},"4801316":{"post_code":"4801316","prefecture":"AICHI KEN","city":"NAGAKUTE SHI","town":"HIRACHI","perfecture_jp":"愛知県","jp_add_1":"長久手市","jp_add_2":"平地"},"4801344":{"post_code":"4801344","prefecture":"AICHI KEN","city":"NAGAKUTE SHI","town":"HIROTA","perfecture_jp":"愛知県","jp_add_1":"長久手市","jp_add_2":"広田"},"4801126":{"post_code":"4801126","prefecture":"AICHI KEN","city":"NAGAKUTE SHI","town":"FUKADA","perfecture_jp":"愛知県","jp_add_1":"長久手市","jp_add_2":"深田"},"4801119":{"post_code":"4801119","prefecture":"AICHI KEN","city":"NAGAKUTE SHI","town":"FUKABASAMA","perfecture_jp":"愛知県","jp_add_1":"長久手市","jp_add_2":"深廻間"},"4801311":{"post_code":"4801311","prefecture":"AICHI KEN","city":"NAGAKUTE SHI","town":"FUKUI","perfecture_jp":"愛知県","jp_add_1":"長久手市","jp_add_2":"福井"},"4801173":{"post_code":"4801173","prefecture":"AICHI KEN","city":"NAGAKUTE SHI","town":"FUJIURA","perfecture_jp":"愛知県","jp_add_1":"長久手市","jp_add_2":"富士浦"},"4801168":{"post_code":"4801168","prefecture":"AICHI KEN","city":"NAGAKUTE SHI","town":"BONOSHIRO","perfecture_jp":"愛知県","jp_add_1":"長久手市","jp_add_2":"坊の後"},"4801104":{"post_code":"4801104","prefecture":"AICHI KEN","city":"NAGAKUTE SHI","town":"BOFURI","perfecture_jp":"愛知県","jp_add_1":"長久手市","jp_add_2":"棒振"},"4801177":{"post_code":"4801177","prefecture":"AICHI KEN","city":"NAGAKUTE SHI","town":"HOTOKEGANE","perfecture_jp":"愛知県","jp_add_1":"長久手市","jp_add_2":"仏が根"},"4801102":{"post_code":"4801102","prefecture":"AICHI KEN","city":"NAGAKUTE SHI","town":"MAEGUMA MIZOSHITA","perfecture_jp":"愛知県","jp_add_1":"長久手市","jp_add_2":"前熊一ノ井"},"4801317":{"post_code":"4801317","prefecture":"AICHI KEN","city":"NAGAKUTE SHI","town":"MATSUIRI","perfecture_jp":"愛知県","jp_add_1":"長久手市","jp_add_2":"松杁"},"4801105":{"post_code":"4801105","prefecture":"AICHI KEN","city":"NAGAKUTE SHI","town":"MARUNE","perfecture_jp":"愛知県","jp_add_1":"長久手市","jp_add_2":"丸根"},"4801345":{"post_code":"4801345","prefecture":"AICHI KEN","city":"NAGAKUTE SHI","town":"MARUYAMA","perfecture_jp":"愛知県","jp_add_1":"長久手市","jp_add_2":"丸山"},"4801309":{"post_code":"4801309","prefecture":"AICHI KEN","city":"NAGAKUTE SHI","town":"MIZONOIRI","perfecture_jp":"愛知県","jp_add_1":"長久手市","jp_add_2":"溝之杁"},"4801134":{"post_code":"4801134","prefecture":"AICHI KEN","city":"NAGAKUTE SHI","town":"MINAMIHARAYAMA","perfecture_jp":"愛知県","jp_add_1":"長久手市","jp_add_2":"南原山"},"4801172":{"post_code":"4801172","prefecture":"AICHI KEN","city":"NAGAKUTE SHI","town":"MIYAWAKI","perfecture_jp":"愛知県","jp_add_1":"長久手市","jp_add_2":"宮脇"},"4801121":{"post_code":"4801121","prefecture":"AICHI KEN","city":"NAGAKUTE SHI","town":"MUSASHIZUKA","perfecture_jp":"愛知県","jp_add_1":"長久手市","jp_add_2":"武蔵塚"},"4801103":{"post_code":"4801103","prefecture":"AICHI KEN","city":"NAGAKUTE SHI","town":"YAZAKO WASEDA","perfecture_jp":"愛知県","jp_add_1":"長久手市","jp_add_2":"岩作石田"},"4801164":{"post_code":"4801164","prefecture":"AICHI KEN","city":"NAGAKUTE SHI","town":"YAMAOKE","perfecture_jp":"愛知県","jp_add_1":"長久手市","jp_add_2":"山桶"},"4801111":{"post_code":"4801111","prefecture":"AICHI KEN","city":"NAGAKUTE SHI","town":"YAMAGOE","perfecture_jp":"愛知県","jp_add_1":"長久手市","jp_add_2":"山越"},"4801113":{"post_code":"4801113","prefecture":"AICHI KEN","city":"NAGAKUTE SHI","town":"YAMANOTA","perfecture_jp":"愛知県","jp_add_1":"長久手市","jp_add_2":"山野田"},"4801118":{"post_code":"4801118","prefecture":"AICHI KEN","city":"NAGAKUTE SHI","town":"YOKOMICHI","perfecture_jp":"愛知県","jp_add_1":"長久手市","jp_add_2":"横道"},"4801129":{"post_code":"4801129","prefecture":"AICHI KEN","city":"NAGAKUTE SHI","town":"YOSHIIKE","perfecture_jp":"愛知県","jp_add_1":"長久手市","jp_add_2":"よし池"},"4801341":{"post_code":"4801341","prefecture":"AICHI KEN","city":"NAGAKUTE SHI","town":"YOSHIGABASAMA","perfecture_jp":"愛知県","jp_add_1":"長久手市","jp_add_2":"葭ケ廻間"},"4801307":{"post_code":"4801307","prefecture":"AICHI KEN","city":"NAGAKUTE SHI","town":"RIKKA","perfecture_jp":"愛知県","jp_add_1":"長久手市","jp_add_2":"立花"},"4801136":{"post_code":"4801136","prefecture":"AICHI KEN","city":"NAGAKUTE SHI","town":"ROBOKU","perfecture_jp":"愛知県","jp_add_1":"長久手市","jp_add_2":"櫨木"},"4801328":{"post_code":"4801328","prefecture":"AICHI KEN","city":"NAGAKUTE SHI","town":"WASEDA","perfecture_jp":"愛知県","jp_add_1":"長久手市","jp_add_2":"早稲田"},"4800200":{"post_code":"4800200","prefecture":"AICHI KEN","city":"NISHIKASUGAI GUN TOYOYAMA CHO","town":"IKANIKEISAIGANAIBAAI","perfecture_jp":"愛知県","jp_add_1":"西春日井郡豊山町","jp_add_2":""},"4800201":{"post_code":"4800201","prefecture":"AICHI KEN","city":"NISHIKASUGAI GUN TOYOYAMA CHO","town":"AOYAMA","perfecture_jp":"愛知県","jp_add_1":"西春日井郡豊山町","jp_add_2":"青山"},"4800202":{"post_code":"4800202","prefecture":"AICHI KEN","city":"NISHIKASUGAI GUN TOYOYAMA CHO","town":"TOYOBA","perfecture_jp":"愛知県","jp_add_1":"西春日井郡豊山町","jp_add_2":"豊場"},"4800100":{"post_code":"4800100","prefecture":"AICHI KEN","city":"NIWA GUN FUSO CHO","town":"IKANIKEISAIGANAIBAAI","perfecture_jp":"愛知県","jp_add_1":"丹羽郡大口町","jp_add_2":""},"4800132":{"post_code":"4800132","prefecture":"AICHI KEN","city":"NIWA GUN OGUCHI CHO","town":"AKITA","perfecture_jp":"愛知県","jp_add_1":"丹羽郡大口町","jp_add_2":"秋田"},"4800137":{"post_code":"4800137","prefecture":"AICHI KEN","city":"NIWA GUN OGUCHI CHO","town":"OYASHIKI","perfecture_jp":"愛知県","jp_add_1":"丹羽郡大口町","jp_add_2":"大屋敷"},"4800148":{"post_code":"4800148","prefecture":"AICHI KEN","city":"NIWA GUN OGUCHI CHO","town":"OGUCHI","perfecture_jp":"愛知県","jp_add_1":"丹羽郡大口町","jp_add_2":"小口"},"4800138":{"post_code":"4800138","prefecture":"AICHI KEN","city":"NIWA GUN OGUCHI CHO","town":"OMIDO","perfecture_jp":"愛知県","jp_add_1":"丹羽郡大口町","jp_add_2":"大御堂"},"4800133":{"post_code":"4800133","prefecture":"AICHI KEN","city":"NIWA GUN OGUCHI CHO","town":"KAECHI","perfecture_jp":"愛知県","jp_add_1":"丹羽郡大口町","jp_add_2":"替地"},"4800149":{"post_code":"4800149","prefecture":"AICHI KEN","city":"NIWA GUN OGUCHI CHO","town":"KAKITA","perfecture_jp":"愛知県","jp_add_1":"丹羽郡大口町","jp_add_2":"垣田"},"4800141":{"post_code":"4800141","prefecture":"AICHI KEN","city":"NIWA GUN OGUCHI CHO","town":"KAMIOGUCHI","perfecture_jp":"愛知県","jp_add_1":"丹羽郡大口町","jp_add_2":"上小口"},"4800121":{"post_code":"4800121","prefecture":"AICHI KEN","city":"NIWA GUN OGUCHI CHO","town":"KOGITA","perfecture_jp":"愛知県","jp_add_1":"丹羽郡大口町","jp_add_2":"河北"},"4800135":{"post_code":"4800135","prefecture":"AICHI KEN","city":"NIWA GUN OGUCHI CHO","town":"GOGOSHO","perfecture_jp":"愛知県","jp_add_1":"丹羽郡大口町","jp_add_2":"御供所"},"4800151":{"post_code":"4800151","prefecture":"AICHI KEN","city":"NIWA GUN OGUCHI CHO","town":"SATSUKIGAOKA","perfecture_jp":"愛知県","jp_add_1":"丹羽郡大口町","jp_add_2":"さつきケ丘"},"4800144":{"post_code":"4800144","prefecture":"AICHI KEN","city":"NIWA GUN OGUCHI CHO","town":"SHIMOGUCHI","perfecture_jp":"愛知県","jp_add_1":"丹羽郡大口町","jp_add_2":"下小口"},"4800143":{"post_code":"4800143","prefecture":"AICHI KEN","city":"NIWA GUN OGUCHI CHO","town":"SHIROYASHIKI","perfecture_jp":"愛知県","jp_add_1":"丹羽郡大口町","jp_add_2":"城屋敷"},"4800127":{"post_code":"4800127","prefecture":"AICHI KEN","city":"NIWA GUN OGUCHI CHO","town":"SHIMMIYA","perfecture_jp":"愛知県","jp_add_1":"丹羽郡大口町","jp_add_2":"新宮"},"4800131":{"post_code":"4800131","prefecture":"AICHI KEN","city":"NIWA GUN OGUCHI CHO","town":"TAKAHASHI","perfecture_jp":"愛知県","jp_add_1":"丹羽郡大口町","jp_add_2":"高橋"},"4800147":{"post_code":"4800147","prefecture":"AICHI KEN","city":"NIWA GUN OGUCHI CHO","town":"TAKEDA","perfecture_jp":"愛知県","jp_add_1":"丹羽郡大口町","jp_add_2":"竹田"},"4800126":{"post_code":"4800126","prefecture":"AICHI KEN","city":"NIWA GUN OGUCHI CHO","town":"DENNE","perfecture_jp":"愛知県","jp_add_1":"丹羽郡大口町","jp_add_2":"伝右"},"4800125":{"post_code":"4800125","prefecture":"AICHI KEN","city":"NIWA GUN OGUCHI CHO","town":"TOTSUBO","perfecture_jp":"愛知県","jp_add_1":"丹羽郡大口町","jp_add_2":"外坪"},"4800134":{"post_code":"4800134","prefecture":"AICHI KEN","city":"NIWA GUN OGUCHI CHO","town":"TOYOTA","perfecture_jp":"愛知県","jp_add_1":"丹羽郡大口町","jp_add_2":"豊田"},"4800122":{"post_code":"4800122","prefecture":"AICHI KEN","city":"NIWA GUN OGUCHI CHO","town":"NAKAOKI","perfecture_jp":"愛知県","jp_add_1":"丹羽郡大口町","jp_add_2":"仲沖"},"4800142":{"post_code":"4800142","prefecture":"AICHI KEN","city":"NIWA GUN OGUCHI CHO","town":"NAKAOGUCHI","perfecture_jp":"愛知県","jp_add_1":"丹羽郡大口町","jp_add_2":"中小口"},"4800139":{"post_code":"4800139","prefecture":"AICHI KEN","city":"NIWA GUN OGUCHI CHO","town":"NARASHI","perfecture_jp":"愛知県","jp_add_1":"丹羽郡大口町","jp_add_2":"奈良子"},"4800124":{"post_code":"4800124","prefecture":"AICHI KEN","city":"NIWA GUN OGUCHI CHO","town":"HAGISHIMA","perfecture_jp":"愛知県","jp_add_1":"丹羽郡大口町","jp_add_2":"萩島"},"4800123":{"post_code":"4800123","prefecture":"AICHI KEN","city":"NIWA GUN OGUCHI CHO","town":"FUTATSUYA","perfecture_jp":"愛知県","jp_add_1":"丹羽郡大口町","jp_add_2":"二ツ屋"},"4800136":{"post_code":"4800136","prefecture":"AICHI KEN","city":"NIWA GUN OGUCHI CHO","town":"HORIOSEKI","perfecture_jp":"愛知県","jp_add_1":"丹羽郡大口町","jp_add_2":"堀尾跡"},"4800145":{"post_code":"4800145","prefecture":"AICHI KEN","city":"NIWA GUN OGUCHI CHO","town":"MARU","perfecture_jp":"愛知県","jp_add_1":"丹羽郡大口町","jp_add_2":"丸"},"4800146":{"post_code":"4800146","prefecture":"AICHI KEN","city":"NIWA GUN OGUCHI CHO","town":"YONO","perfecture_jp":"愛知県","jp_add_1":"丹羽郡大口町","jp_add_2":"余野"},"4800106":{"post_code":"4800106","prefecture":"AICHI KEN","city":"NIWA GUN FUSO CHO","town":"OBUCHI","perfecture_jp":"愛知県","jp_add_1":"丹羽郡扶桑町","jp_add_2":"小淵"},"4800103":{"post_code":"4800103","prefecture":"AICHI KEN","city":"NIWA GUN FUSO CHO","town":"KASHIWAMORI","perfecture_jp":"愛知県","jp_add_1":"丹羽郡扶桑町","jp_add_2":"柏森"},"4800104":{"post_code":"4800104","prefecture":"AICHI KEN","city":"NIWA GUN FUSO CHO","town":"SAITO","perfecture_jp":"愛知県","jp_add_1":"丹羽郡扶桑町","jp_add_2":"斎藤"},"4800102":{"post_code":"4800102","prefecture":"AICHI KEN","city":"NIWA GUN FUSO CHO","town":"TAKAO","perfecture_jp":"愛知県","jp_add_1":"丹羽郡扶桑町","jp_add_2":"高雄"},"4800107":{"post_code":"4800107","prefecture":"AICHI KEN","city":"NIWA GUN FUSO CHO","town":"TAKAGI","perfecture_jp":"愛知県","jp_add_1":"丹羽郡扶桑町","jp_add_2":"高木"},"4800105":{"post_code":"4800105","prefecture":"AICHI KEN","city":"NIWA GUN FUSO CHO","town":"MINAMIYANA","perfecture_jp":"愛知県","jp_add_1":"丹羽郡扶桑町","jp_add_2":"南山名"},"4800101":{"post_code":"4800101","prefecture":"AICHI KEN","city":"NIWA GUN FUSO CHO","town":"YAMANA","perfecture_jp":"愛知県","jp_add_1":"丹羽郡扶桑町","jp_add_2":"山那"}}