{"4810000":{"post_code":"4810000","prefecture":"AICHI KEN","city":"KITANAGOYA SHI","town":"IKANIKEISAIGANAIBAAI","perfecture_jp":"愛知県","jp_add_1":"北名古屋市","jp_add_2":""},"4810046":{"post_code":"4810046","prefecture":"AICHI KEN","city":"KITANAGOYA SHI","town":"ISHIBASHI","perfecture_jp":"愛知県","jp_add_1":"北名古屋市","jp_add_2":"石橋"},"4810014":{"post_code":"4810014","prefecture":"AICHI KEN","city":"KITANAGOYA SHI","town":"ISEGI","perfecture_jp":"愛知県","jp_add_1":"北名古屋市","jp_add_2":"井瀬木"},"4810035":{"post_code":"4810035","prefecture":"AICHI KEN","city":"KITANAGOYA SHI","town":"UBUKUJI","perfecture_jp":"愛知県","jp_add_1":"北名古屋市","jp_add_2":"宇福寺"},"4810043":{"post_code":"4810043","prefecture":"AICHI KEN","city":"KITANAGOYA SHI","town":"OKIMURA","perfecture_jp":"愛知県","jp_add_1":"北名古屋市","jp_add_2":"沖村"},"4810037":{"post_code":"4810037","prefecture":"AICHI KEN","city":"KITANAGOYA SHI","town":"KAJIGAISHIKI","perfecture_jp":"愛知県","jp_add_1":"北名古屋市","jp_add_2":"鍜治ケ一色"},"4810044":{"post_code":"4810044","prefecture":"AICHI KEN","city":"KITANAGOYA SHI","town":"KASHIMASHINDEN","perfecture_jp":"愛知県","jp_add_1":"北名古屋市","jp_add_2":"加島新田"},"4810002":{"post_code":"4810002","prefecture":"AICHI KEN","city":"KITANAGOYA SHI","town":"KATABA","perfecture_jp":"愛知県","jp_add_1":"北名古屋市","jp_add_2":"片場"},"4810034":{"post_code":"4810034","prefecture":"AICHI KEN","city":"KITANAGOYA SHI","town":"KITANO","perfecture_jp":"愛知県","jp_add_1":"北名古屋市","jp_add_2":"北野"},"4810012":{"post_code":"4810012","prefecture":"AICHI KEN","city":"KITANAGOYA SHI","town":"KUJINO","perfecture_jp":"愛知県","jp_add_1":"北名古屋市","jp_add_2":"久地野"},"4810041":{"post_code":"4810041","prefecture":"AICHI KEN","city":"KITANAGOYA SHI","town":"KUNOTSUBO","perfecture_jp":"愛知県","jp_add_1":"北名古屋市","jp_add_2":"九之坪"},"4810006":{"post_code":"4810006","prefecture":"AICHI KEN","city":"KITANAGOYA SHI","town":"KUMANOSHO","perfecture_jp":"愛知県","jp_add_1":"北名古屋市","jp_add_2":"熊之庄"},"4810004":{"post_code":"4810004","prefecture":"AICHI KEN","city":"KITANAGOYA SHI","town":"SHIKATA","perfecture_jp":"愛知県","jp_add_1":"北名古屋市","jp_add_2":"鹿田"},"4810011":{"post_code":"4810011","prefecture":"AICHI KEN","city":"KITANAGOYA SHI","town":"TAKADAJI","perfecture_jp":"愛知県","jp_add_1":"北名古屋市","jp_add_2":"高田寺"},"4810038":{"post_code":"4810038","prefecture":"AICHI KEN","city":"KITANAGOYA SHI","town":"TOKUSHIGE","perfecture_jp":"愛知県","jp_add_1":"北名古屋市","jp_add_2":"徳重"},"4810045":{"post_code":"4810045","prefecture":"AICHI KEN","city":"KITANAGOYA SHI","town":"NAKANOGO","perfecture_jp":"愛知県","jp_add_1":"北名古屋市","jp_add_2":"中之郷"},"4810033":{"post_code":"4810033","prefecture":"AICHI KEN","city":"KITANAGOYA SHI","town":"NISHINOHO","perfecture_jp":"愛知県","jp_add_1":"北名古屋市","jp_add_2":"西之保"},"4810003":{"post_code":"4810003","prefecture":"AICHI KEN","city":"KITANAGOYA SHI","town":"NODA","perfecture_jp":"愛知県","jp_add_1":"北名古屋市","jp_add_2":"能田"},"4810042":{"post_code":"4810042","prefecture":"AICHI KEN","city":"KITANAGOYA SHI","town":"NOZAKI","perfecture_jp":"愛知県","jp_add_1":"北名古屋市","jp_add_2":"野崎"},"4810013":{"post_code":"4810013","prefecture":"AICHI KEN","city":"KITANAGOYA SHI","town":"FUTAGO","perfecture_jp":"愛知県","jp_add_1":"北名古屋市","jp_add_2":"二子"},"4810039":{"post_code":"4810039","prefecture":"AICHI KEN","city":"KITANAGOYA SHI","town":"HOJOJI","perfecture_jp":"愛知県","jp_add_1":"北名古屋市","jp_add_2":"法成寺"},"4810032":{"post_code":"4810032","prefecture":"AICHI KEN","city":"KITANAGOYA SHI","town":"MIROKUJINISHI","perfecture_jp":"愛知県","jp_add_1":"北名古屋市","jp_add_2":"弥勒寺西"},"4810031":{"post_code":"4810031","prefecture":"AICHI KEN","city":"KITANAGOYA SHI","town":"MIROKUJIHIGASHI","perfecture_jp":"愛知県","jp_add_1":"北名古屋市","jp_add_2":"弥勒寺東"},"4810001":{"post_code":"4810001","prefecture":"AICHI KEN","city":"KITANAGOYA SHI","town":"MUTSUSHI","perfecture_jp":"愛知県","jp_add_1":"北名古屋市","jp_add_2":"六ツ師"},"4810005":{"post_code":"4810005","prefecture":"AICHI KEN","city":"KITANAGOYA SHI","town":"YAKUSHIJI","perfecture_jp":"愛知県","jp_add_1":"北名古屋市","jp_add_2":"薬師寺"},"4810036":{"post_code":"4810036","prefecture":"AICHI KEN","city":"KITANAGOYA SHI","town":"YAMANOKOSHI","perfecture_jp":"愛知県","jp_add_1":"北名古屋市","jp_add_2":"山之腰"}}