{"4820000":{"post_code":"4820000","prefecture":"AICHI KEN","city":"IWAKURA SHI","town":"IKANIKEISAIGANAIBAAI","perfecture_jp":"愛知県","jp_add_1":"岩倉市","jp_add_2":""},"4820024":{"post_code":"4820024","prefecture":"AICHI KEN","city":"IWAKURA SHI","town":"ASAHIMACHI","perfecture_jp":"愛知県","jp_add_1":"岩倉市","jp_add_2":"旭町"},"4820034":{"post_code":"4820034","prefecture":"AICHI KEN","city":"IWAKURA SHI","town":"ISHIBOTOKECHO","perfecture_jp":"愛知県","jp_add_1":"岩倉市","jp_add_2":"石仏町"},"4820045":{"post_code":"4820045","prefecture":"AICHI KEN","city":"IWAKURA SHI","town":"IZUMICHO","perfecture_jp":"愛知県","jp_add_1":"岩倉市","jp_add_2":"泉町"},"4820012":{"post_code":"4820012","prefecture":"AICHI KEN","city":"IWAKURA SHI","town":"INARICHO","perfecture_jp":"愛知県","jp_add_1":"岩倉市","jp_add_2":"稲荷町"},"4820006":{"post_code":"4820006","prefecture":"AICHI KEN","city":"IWAKURA SHI","town":"INARICHOHANE","perfecture_jp":"愛知県","jp_add_1":"岩倉市","jp_add_2":"稲荷町羽根"},"4820032":{"post_code":"4820032","prefecture":"AICHI KEN","city":"IWAKURA SHI","town":"INOECHO","perfecture_jp":"愛知県","jp_add_1":"岩倉市","jp_add_2":"井上町"},"4820033":{"post_code":"4820033","prefecture":"AICHI KEN","city":"IWAKURA SHI","town":"KAMINOCHO","perfecture_jp":"愛知県","jp_add_1":"岩倉市","jp_add_2":"神野町"},"4820015":{"post_code":"4820015","prefecture":"AICHI KEN","city":"IWAKURA SHI","town":"KAWAICHO","perfecture_jp":"愛知県","jp_add_1":"岩倉市","jp_add_2":"川井町"},"4820017":{"post_code":"4820017","prefecture":"AICHI KEN","city":"IWAKURA SHI","town":"KITAJIMACHO","perfecture_jp":"愛知県","jp_add_1":"岩倉市","jp_add_2":"北島町"},"4820004":{"post_code":"4820004","prefecture":"AICHI KEN","city":"IWAKURA SHI","town":"GOJOCHO","perfecture_jp":"愛知県","jp_add_1":"岩倉市","jp_add_2":"五条町"},"4820036":{"post_code":"4820036","prefecture":"AICHI KEN","city":"IWAKURA SHI","town":"SAICHICHO","perfecture_jp":"愛知県","jp_add_1":"岩倉市","jp_add_2":"西市町"},"4820022":{"post_code":"4820022","prefecture":"AICHI KEN","city":"IWAKURA SHI","town":"SAKAEMACHI","perfecture_jp":"愛知県","jp_add_1":"岩倉市","jp_add_2":"栄町"},"4820005":{"post_code":"4820005","prefecture":"AICHI KEN","city":"IWAKURA SHI","town":"SHIMOHOMMACHI","perfecture_jp":"愛知県","jp_add_1":"岩倉市","jp_add_2":"下本町"},"4820011":{"post_code":"4820011","prefecture":"AICHI KEN","city":"IWAKURA SHI","town":"SHOWACHO","perfecture_jp":"愛知県","jp_add_1":"岩倉市","jp_add_2":"昭和町"},"4820021":{"post_code":"4820021","prefecture":"AICHI KEN","city":"IWAKURA SHI","town":"SHINYANAGICHO","perfecture_jp":"愛知県","jp_add_1":"岩倉市","jp_add_2":"新柳町"},"4820035":{"post_code":"4820035","prefecture":"AICHI KEN","city":"IWAKURA SHI","town":"SUZUICHO","perfecture_jp":"愛知県","jp_add_1":"岩倉市","jp_add_2":"鈴井町"},"4820003":{"post_code":"4820003","prefecture":"AICHI KEN","city":"IWAKURA SHI","town":"SONOCHO","perfecture_jp":"愛知県","jp_add_1":"岩倉市","jp_add_2":"曽野町"},"4820002":{"post_code":"4820002","prefecture":"AICHI KEN","city":"IWAKURA SHI","town":"DAIICHIBACHO","perfecture_jp":"愛知県","jp_add_1":"岩倉市","jp_add_2":"大市場町"},"4820014":{"post_code":"4820014","prefecture":"AICHI KEN","city":"IWAKURA SHI","town":"TAISANJICHO","perfecture_jp":"愛知県","jp_add_1":"岩倉市","jp_add_2":"大山寺町"},"4820018":{"post_code":"4820018","prefecture":"AICHI KEN","city":"IWAKURA SHI","town":"TAISANJIHOMMACHI","perfecture_jp":"愛知県","jp_add_1":"岩倉市","jp_add_2":"大山寺本町"},"4820007":{"post_code":"4820007","prefecture":"AICHI KEN","city":"IWAKURA SHI","town":"TAISANJIMOTOMACHI","perfecture_jp":"愛知県","jp_add_1":"岩倉市","jp_add_2":"大山寺元町"},"4820025":{"post_code":"4820025","prefecture":"AICHI KEN","city":"IWAKURA SHI","town":"DAICHISHIMMACHI","perfecture_jp":"愛知県","jp_add_1":"岩倉市","jp_add_2":"大地新町"},"4820026":{"post_code":"4820026","prefecture":"AICHI KEN","city":"IWAKURA SHI","town":"DAICHICHO","perfecture_jp":"愛知県","jp_add_1":"岩倉市","jp_add_2":"大地町"},"4820023":{"post_code":"4820023","prefecture":"AICHI KEN","city":"IWAKURA SHI","town":"CHUOCHO","perfecture_jp":"愛知県","jp_add_1":"岩倉市","jp_add_2":"中央町"},"4820046":{"post_code":"4820046","prefecture":"AICHI KEN","city":"IWAKURA SHI","town":"NAKANOCHO","perfecture_jp":"愛知県","jp_add_1":"岩倉市","jp_add_2":"中野町"},"4820042":{"post_code":"4820042","prefecture":"AICHI KEN","city":"IWAKURA SHI","town":"NAKAHOMMACHI","perfecture_jp":"愛知県","jp_add_1":"岩倉市","jp_add_2":"中本町"},"4820016":{"post_code":"4820016","prefecture":"AICHI KEN","city":"IWAKURA SHI","town":"NOYORICHO","perfecture_jp":"愛知県","jp_add_1":"岩倉市","jp_add_2":"野寄町"},"4820001":{"post_code":"4820001","prefecture":"AICHI KEN","city":"IWAKURA SHI","town":"HIGASHISHIMMACHI","perfecture_jp":"愛知県","jp_add_1":"岩倉市","jp_add_2":"東新町"},"4820041":{"post_code":"4820041","prefecture":"AICHI KEN","city":"IWAKURA SHI","town":"HIGASHIMACHI","perfecture_jp":"愛知県","jp_add_1":"岩倉市","jp_add_2":"東町"},"4820043":{"post_code":"4820043","prefecture":"AICHI KEN","city":"IWAKURA SHI","town":"HOMMACHI","perfecture_jp":"愛知県","jp_add_1":"岩倉市","jp_add_2":"本町"},"4820013":{"post_code":"4820013","prefecture":"AICHI KEN","city":"IWAKURA SHI","town":"MINAMISHIMMACHI","perfecture_jp":"愛知県","jp_add_1":"岩倉市","jp_add_2":"南新町"},"4820044":{"post_code":"4820044","prefecture":"AICHI KEN","city":"IWAKURA SHI","town":"MIYAMAECHO","perfecture_jp":"愛知県","jp_add_1":"岩倉市","jp_add_2":"宮前町"},"4820031":{"post_code":"4820031","prefecture":"AICHI KEN","city":"IWAKURA SHI","town":"YATSURUGICHO","perfecture_jp":"愛知県","jp_add_1":"岩倉市","jp_add_2":"八剱町"}}