{"4840000":{"post_code":"4840000","prefecture":"AICHI KEN","city":"INUYAMA SHI","town":"IKANIKEISAIGANAIBAAI","perfecture_jp":"愛知県","jp_add_1":"犬山市","jp_add_2":""},"4840945":{"post_code":"4840945","prefecture":"AICHI KEN","city":"INUYAMA SHI","town":"AOTSUKA","perfecture_jp":"愛知県","jp_add_1":"犬山市","jp_add_2":"青塚"},"4840921":{"post_code":"4840921","prefecture":"AICHI KEN","city":"INUYAMA SHI","town":"AJIKATA","perfecture_jp":"愛知県","jp_add_1":"犬山市","jp_add_2":"味加田"},"4840837":{"post_code":"4840837","prefecture":"AICHI KEN","city":"INUYAMA SHI","town":"ARAI","perfecture_jp":"愛知県","jp_add_1":"犬山市","jp_add_2":"荒井"},"4840887":{"post_code":"4840887","prefecture":"AICHI KEN","city":"INUYAMA SHI","town":"IKEDA","perfecture_jp":"愛知県","jp_add_1":"犬山市","jp_add_2":"池田"},"4840032":{"post_code":"4840032","prefecture":"AICHI KEN","city":"INUYAMA SHI","town":"IKENOAZUKUSHI","perfecture_jp":"愛知県","jp_add_1":"犬山市","jp_add_2":"池野安楽寺"},"4840862":{"post_code":"4840862","prefecture":"AICHI KEN","city":"INUYAMA SHI","town":"ISHIZUKA","perfecture_jp":"愛知県","jp_add_1":"犬山市","jp_add_2":"石塚"},"4840053":{"post_code":"4840053","prefecture":"AICHI KEN","city":"INUYAMA SHI","town":"ISHIHATA","perfecture_jp":"愛知県","jp_add_1":"犬山市","jp_add_2":"石畑"},"4840056":{"post_code":"4840056","prefecture":"AICHI KEN","city":"INUYAMA SHI","town":"INAHOSHIBA","perfecture_jp":"愛知県","jp_add_1":"犬山市","jp_add_2":"稲干場"},"4840081":{"post_code":"4840081","prefecture":"AICHI KEN","city":"INUYAMA SHI","town":"INUYAMA","perfecture_jp":"愛知県","jp_add_1":"犬山市","jp_add_2":"犬山"},"4840033":{"post_code":"4840033","prefecture":"AICHI KEN","city":"INUYAMA SHI","town":"INOMOTO","perfecture_jp":"愛知県","jp_add_1":"犬山市","jp_add_2":"井ノ元"},"4840005":{"post_code":"4840005","prefecture":"AICHI KEN","city":"INUYAMA SHI","town":"IMAI","perfecture_jp":"愛知県","jp_add_1":"犬山市","jp_add_2":"今井"},"4840021":{"post_code":"4840021","prefecture":"AICHI KEN","city":"INUYAMA SHI","town":"IRISHITA","perfecture_jp":"愛知県","jp_add_1":"犬山市","jp_add_2":"杁下"},"4840008":{"post_code":"4840008","prefecture":"AICHI KEN","city":"INUYAMA SHI","town":"IWAANA","perfecture_jp":"愛知県","jp_add_1":"犬山市","jp_add_2":"岩穴"},"4840872":{"post_code":"4840872","prefecture":"AICHI KEN","city":"INUYAMA SHI","town":"IWATA","perfecture_jp":"愛知県","jp_add_1":"犬山市","jp_add_2":"岩田"},"4840055":{"post_code":"4840055","prefecture":"AICHI KEN","city":"INUYAMA SHI","town":"USHIIWA","perfecture_jp":"愛知県","jp_add_1":"犬山市","jp_add_2":"牛岩"},"4840047":{"post_code":"4840047","prefecture":"AICHI KEN","city":"INUYAMA SHI","town":"UCHIKUBO","perfecture_jp":"愛知県","jp_add_1":"犬山市","jp_add_2":"内久保"},"4840071":{"post_code":"4840071","prefecture":"AICHI KEN","city":"INUYAMA SHI","town":"UCHIDAHIGASHIMACHI","perfecture_jp":"愛知県","jp_add_1":"犬山市","jp_add_2":"内田東町"},"4840026":{"post_code":"4840026","prefecture":"AICHI KEN","city":"INUYAMA SHI","town":"UCHIYASHIKI","perfecture_jp":"愛知県","jp_add_1":"犬山市","jp_add_2":"内屋敷"},"4840074":{"post_code":"4840074","prefecture":"AICHI KEN","city":"INUYAMA SHI","town":"UMETSUBO","perfecture_jp":"愛知県","jp_add_1":"犬山市","jp_add_2":"梅坪"},"4840854":{"post_code":"4840854","prefecture":"AICHI KEN","city":"INUYAMA SHI","town":"URANOMON","perfecture_jp":"愛知県","jp_add_1":"犬山市","jp_add_2":"裏之門"},"4840035":{"post_code":"4840035","prefecture":"AICHI KEN","city":"INUYAMA SHI","town":"URAYAMA","perfecture_jp":"愛知県","jp_add_1":"犬山市","jp_add_2":"裏山"},"4840902":{"post_code":"4840902","prefecture":"AICHI KEN","city":"INUYAMA SHI","town":"OIWAKE","perfecture_jp":"愛知県","jp_add_1":"犬山市","jp_add_2":"追分"},"4840903":{"post_code":"4840903","prefecture":"AICHI KEN","city":"INUYAMA SHI","town":"OIWAKEHIGASHI","perfecture_jp":"愛知県","jp_add_1":"犬山市","jp_add_2":"追分東"},"4840034":{"post_code":"4840034","prefecture":"AICHI KEN","city":"INUYAMA SHI","town":"OBORA","perfecture_jp":"愛知県","jp_add_1":"犬山市","jp_add_2":"大洞"},"4840962":{"post_code":"4840962","prefecture":"AICHI KEN","city":"INUYAMA SHI","town":"OCHIZOE","perfecture_jp":"愛知県","jp_add_1":"犬山市","jp_add_2":"落添"},"4840001":{"post_code":"4840001","prefecture":"AICHI KEN","city":"INUYAMA SHI","town":"KAKINOCHI","perfecture_jp":"愛知県","jp_add_1":"犬山市","jp_add_2":"垣ノ内"},"4840901":{"post_code":"4840901","prefecture":"AICHI KEN","city":"INUYAMA SHI","town":"KAKIBATA","perfecture_jp":"愛知県","jp_add_1":"犬山市","jp_add_2":"柿畑"},"4840955":{"post_code":"4840955","prefecture":"AICHI KEN","city":"INUYAMA SHI","town":"KAKUIKE","perfecture_jp":"愛知県","jp_add_1":"犬山市","jp_add_2":"角池"},"4840936":{"post_code":"4840936","prefecture":"AICHI KEN","city":"INUYAMA SHI","town":"GAKUDENAOTSUKA","perfecture_jp":"愛知県","jp_add_1":"犬山市","jp_add_2":"楽田青塚"},"4840944":{"post_code":"4840944","prefecture":"AICHI KEN","city":"INUYAMA SHI","town":"GAKUDENANSHI","perfecture_jp":"愛知県","jp_add_1":"犬山市","jp_add_2":"楽田安師"},"4840926":{"post_code":"4840926","prefecture":"AICHI KEN","city":"INUYAMA SHI","town":"GAKUDENISHIKIURA","perfecture_jp":"愛知県","jp_add_1":"犬山市","jp_add_2":"楽田一色浦"},"4840874":{"post_code":"4840874","prefecture":"AICHI KEN","city":"INUYAMA SHI","town":"GAKUDENIMAMURA","perfecture_jp":"愛知県","jp_add_1":"犬山市","jp_add_2":"楽田今村"},"4840048":{"post_code":"4840048","prefecture":"AICHI KEN","city":"INUYAMA SHI","town":"GAKUDENUCHIKUBO","perfecture_jp":"愛知県","jp_add_1":"犬山市","jp_add_2":"楽田内久保"},"4840843":{"post_code":"4840843","prefecture":"AICHI KEN","city":"INUYAMA SHI","town":"GAKUDENUCHIKOSHI","perfecture_jp":"愛知県","jp_add_1":"犬山市","jp_add_2":"楽田打越"},"4840924":{"post_code":"4840924","prefecture":"AICHI KEN","city":"INUYAMA SHI","town":"GAKUDENOHASHI","perfecture_jp":"愛知県","jp_add_1":"犬山市","jp_add_2":"楽田大橋"},"4840904":{"post_code":"4840904","prefecture":"AICHI KEN","city":"INUYAMA SHI","town":"GAKUDENKACHIBEMAE","perfecture_jp":"愛知県","jp_add_1":"犬山市","jp_add_2":"楽田勝部前"},"4840915":{"post_code":"4840915","prefecture":"AICHI KEN","city":"INUYAMA SHI","town":"GAKUDENKAMINUMA","perfecture_jp":"愛知県","jp_add_1":"犬山市","jp_add_2":"楽田上沼"},"4840841":{"post_code":"4840841","prefecture":"AICHI KEN","city":"INUYAMA SHI","town":"GAKUDENKOBARI","perfecture_jp":"愛知県","jp_add_1":"犬山市","jp_add_2":"楽田小針"},"4840907":{"post_code":"4840907","prefecture":"AICHI KEN","city":"INUYAMA SHI","town":"GAKUDENJIZOIKE","perfecture_jp":"愛知県","jp_add_1":"犬山市","jp_add_2":"楽田地蔵池"},"4840947":{"post_code":"4840947","prefecture":"AICHI KEN","city":"INUYAMA SHI","town":"GAKUDENDAIEN","perfecture_jp":"愛知県","jp_add_1":"犬山市","jp_add_2":"楽田大円"},"4840963":{"post_code":"4840963","prefecture":"AICHI KEN","city":"INUYAMA SHI","town":"GAKUDENTSURUIKE","perfecture_jp":"愛知県","jp_add_1":"犬山市","jp_add_2":"楽田鶴池"},"4840856":{"post_code":"4840856","prefecture":"AICHI KEN","city":"INUYAMA SHI","town":"GAKUDENTENJIN","perfecture_jp":"愛知県","jp_add_1":"犬山市","jp_add_2":"楽田天神"},"4840811":{"post_code":"4840811","prefecture":"AICHI KEN","city":"INUYAMA SHI","town":"GAKUDENNAGATSUKAHIGASHI","perfecture_jp":"愛知県","jp_add_1":"犬山市","jp_add_2":"楽田長塚東"},"4840819":{"post_code":"4840819","prefecture":"AICHI KEN","city":"INUYAMA SHI","town":"GAKUDENNAGATSUKANISHI","perfecture_jp":"愛知県","jp_add_1":"犬山市","jp_add_2":"楽田長塚西"},"4840916":{"post_code":"4840916","prefecture":"AICHI KEN","city":"INUYAMA SHI","town":"GAKUDENNISHIURA","perfecture_jp":"愛知県","jp_add_1":"犬山市","jp_add_2":"楽田西浦"},"4840925":{"post_code":"4840925","prefecture":"AICHI KEN","city":"INUYAMA SHI","town":"GAKUDENNISHINO","perfecture_jp":"愛知県","jp_add_1":"犬山市","jp_add_2":"楽田西野"},"4840942":{"post_code":"4840942","prefecture":"AICHI KEN","city":"INUYAMA SHI","town":"GAKUDENHABA","perfecture_jp":"愛知県","jp_add_1":"犬山市","jp_add_2":"楽田巾"},"4840816":{"post_code":"4840816","prefecture":"AICHI KEN","city":"INUYAMA SHI","town":"GAKUDENHARAHIGASHI","perfecture_jp":"愛知県","jp_add_1":"犬山市","jp_add_2":"楽田原東"},"4840885":{"post_code":"4840885","prefecture":"AICHI KEN","city":"INUYAMA SHI","town":"GAKUDENHARANISHI","perfecture_jp":"愛知県","jp_add_1":"犬山市","jp_add_2":"楽田原西"},"4840877":{"post_code":"4840877","prefecture":"AICHI KEN","city":"INUYAMA SHI","town":"GAKUDENHIGASHIOIWAKE","perfecture_jp":"愛知県","jp_add_1":"犬山市","jp_add_2":"楽田東追分"},"4840879":{"post_code":"4840879","prefecture":"AICHI KEN","city":"INUYAMA SHI","town":"GAKUDEMMITSUZUKA","perfecture_jp":"愛知県","jp_add_1":"犬山市","jp_add_2":"楽田三ツ塚"},"4840846":{"post_code":"4840846","prefecture":"AICHI KEN","city":"INUYAMA SHI","town":"GAKUDENYAMANOTA","perfecture_jp":"愛知県","jp_add_1":"犬山市","jp_add_2":"楽田山ノ田"},"4840964":{"post_code":"4840964","prefecture":"AICHI KEN","city":"INUYAMA SHI","town":"KAMIENOKIJIMA","perfecture_jp":"愛知県","jp_add_1":"犬山市","jp_add_2":"上榎島"},"4840059":{"post_code":"4840059","prefecture":"AICHI KEN","city":"INUYAMA SHI","town":"KAMISAKACHO","perfecture_jp":"愛知県","jp_add_1":"犬山市","jp_add_2":"上坂町"},"4840077":{"post_code":"4840077","prefecture":"AICHI KEN","city":"INUYAMA SHI","town":"KAMINO","perfecture_jp":"愛知県","jp_add_1":"犬山市","jp_add_2":"上野"},"4840078":{"post_code":"4840078","prefecture":"AICHI KEN","city":"INUYAMA SHI","town":"KAMINOSHIMMACHI","perfecture_jp":"愛知県","jp_add_1":"犬山市","jp_add_2":"上野新町"},"4840043":{"post_code":"4840043","prefecture":"AICHI KEN","city":"INUYAMA SHI","town":"KAMINOTA","perfecture_jp":"愛知県","jp_add_1":"犬山市","jp_add_2":"上ノ田"},"4840952":{"post_code":"4840952","prefecture":"AICHI KEN","city":"INUYAMA SHI","town":"KAMIBUTAI","perfecture_jp":"愛知県","jp_add_1":"犬山市","jp_add_2":"上舞台"},"4840851":{"post_code":"4840851","prefecture":"AICHI KEN","city":"INUYAMA SHI","town":"KARASUMORI","perfecture_jp":"愛知県","jp_add_1":"犬山市","jp_add_2":"烏杜"},"4840914":{"post_code":"4840914","prefecture":"AICHI KEN","city":"INUYAMA SHI","town":"KANNONURA","perfecture_jp":"愛知県","jp_add_1":"犬山市","jp_add_2":"観音浦"},"4840818":{"post_code":"4840818","prefecture":"AICHI KEN","city":"INUYAMA SHI","town":"KITAURA","perfecture_jp":"愛知県","jp_add_1":"犬山市","jp_add_2":"北浦"},"4840922":{"post_code":"4840922","prefecture":"AICHI KEN","city":"INUYAMA SHI","town":"KITAOHASHI","perfecture_jp":"愛知県","jp_add_1":"犬山市","jp_add_2":"北大橋"},"4840082":{"post_code":"4840082","prefecture":"AICHI KEN","city":"INUYAMA SHI","town":"KITAKOKEN","perfecture_jp":"愛知県","jp_add_1":"犬山市","jp_add_2":"北古券"},"4840011":{"post_code":"4840011","prefecture":"AICHI KEN","city":"INUYAMA SHI","town":"KITATAKANE","perfecture_jp":"愛知県","jp_add_1":"犬山市","jp_add_2":"北高根"},"4840823":{"post_code":"4840823","prefecture":"AICHI KEN","city":"INUYAMA SHI","town":"KITADAIMON","perfecture_jp":"愛知県","jp_add_1":"犬山市","jp_add_2":"北大門"},"4840911":{"post_code":"4840911","prefecture":"AICHI KEN","city":"INUYAMA SHI","town":"KITANOMON","perfecture_jp":"愛知県","jp_add_1":"犬山市","jp_add_2":"北之門"},"4840959":{"post_code":"4840959","prefecture":"AICHI KEN","city":"INUYAMA SHI","town":"KITAHIRATSUKA","perfecture_jp":"愛知県","jp_add_1":"犬山市","jp_add_2":"北平塚"},"4840824":{"post_code":"4840824","prefecture":"AICHI KEN","city":"INUYAMA SHI","town":"KITABORA","perfecture_jp":"愛知県","jp_add_1":"犬山市","jp_add_2":"北洞"},"4840024":{"post_code":"4840024","prefecture":"AICHI KEN","city":"INUYAMA SHI","town":"KIROKUYASHIKI","perfecture_jp":"愛知県","jp_add_1":"犬山市","jp_add_2":"喜六屋敷"},"4840867":{"post_code":"4840867","prefecture":"AICHI KEN","city":"INUYAMA SHI","town":"KUZAEMOMMAWARI","perfecture_jp":"愛知県","jp_add_1":"犬山市","jp_add_2":"九左エ門廻り"},"4840027":{"post_code":"4840027","prefecture":"AICHI KEN","city":"INUYAMA SHI","town":"KURASOBORA","perfecture_jp":"愛知県","jp_add_1":"犬山市","jp_add_2":"倉曽洞"},"4840002":{"post_code":"4840002","prefecture":"AICHI KEN","city":"INUYAMA SHI","town":"KURISU","perfecture_jp":"愛知県","jp_add_1":"犬山市","jp_add_2":"栗栖"},"4840878":{"post_code":"4840878","prefecture":"AICHI KEN","city":"INUYAMA SHI","town":"KURIBAYASHI","perfecture_jp":"愛知県","jp_add_1":"犬山市","jp_add_2":"栗林"},"4840014":{"post_code":"4840014","prefecture":"AICHI KEN","city":"INUYAMA SHI","town":"GONAKA","perfecture_jp":"愛知県","jp_add_1":"犬山市","jp_add_2":"郷中"},"4840815":{"post_code":"4840815","prefecture":"AICHI KEN","city":"INUYAMA SHI","town":"GOHIGASHI","perfecture_jp":"愛知県","jp_add_1":"犬山市","jp_add_2":"郷東"},"4840817":{"post_code":"4840817","prefecture":"AICHI KEN","city":"INUYAMA SHI","town":"GONISHI","perfecture_jp":"愛知県","jp_add_1":"犬山市","jp_add_2":"郷西"},"4840838":{"post_code":"4840838","prefecture":"AICHI KEN","city":"INUYAMA SHI","town":"KOJI","perfecture_jp":"愛知県","jp_add_1":"犬山市","jp_add_2":"小路"},"4840957":{"post_code":"4840957","prefecture":"AICHI KEN","city":"INUYAMA SHI","town":"GOTANDA","perfecture_jp":"愛知県","jp_add_1":"犬山市","jp_add_2":"五反田"},"4840079":{"post_code":"4840079","prefecture":"AICHI KEN","city":"INUYAMA SHI","town":"KOTTSU","perfecture_jp":"愛知県","jp_add_1":"犬山市","jp_add_2":"木津"},"4840015":{"post_code":"4840015","prefecture":"AICHI KEN","city":"INUYAMA SHI","town":"GOTENYASHIKI","perfecture_jp":"愛知県","jp_add_1":"犬山市","jp_add_2":"御殿屋敷"},"4840855":{"post_code":"4840855","prefecture":"AICHI KEN","city":"INUYAMA SHI","town":"KOBORA","perfecture_jp":"愛知県","jp_add_1":"犬山市","jp_add_2":"小洞"},"4840066":{"post_code":"4840066","prefecture":"AICHI KEN","city":"INUYAMA SHI","town":"GOROMARU","perfecture_jp":"愛知県","jp_add_1":"犬山市","jp_add_2":"五郎丸"},"4840966":{"post_code":"4840966","prefecture":"AICHI KEN","city":"INUYAMA SHI","town":"GOROMARUFUTAMATA","perfecture_jp":"愛知県","jp_add_1":"犬山市","jp_add_2":"五郎丸二タ俣"},"4840065":{"post_code":"4840065","prefecture":"AICHI KEN","city":"INUYAMA SHI","town":"GOROMARUHIGASHI","perfecture_jp":"愛知県","jp_add_1":"犬山市","jp_add_2":"五郎丸東"},"4840018":{"post_code":"4840018","prefecture":"AICHI KEN","city":"INUYAMA SHI","town":"SAGASE","perfecture_jp":"愛知県","jp_add_1":"犬山市","jp_add_2":"佐ケ瀬"},"4840844":{"post_code":"4840844","prefecture":"AICHI KEN","city":"INUYAMA SHI","town":"SAGIYAMA","perfecture_jp":"愛知県","jp_add_1":"犬山市","jp_add_2":"鷺山"},"4840019":{"post_code":"4840019","prefecture":"AICHI KEN","city":"INUYAMA SHI","town":"SHIKINOKA","perfecture_jp":"愛知県","jp_add_1":"犬山市","jp_add_2":"四季の丘"},"4840017":{"post_code":"4840017","prefecture":"AICHI KEN","city":"INUYAMA SHI","town":"SHINODAIRA","perfecture_jp":"愛知県","jp_add_1":"犬山市","jp_add_2":"篠平"},"4840965":{"post_code":"4840965","prefecture":"AICHI KEN","city":"INUYAMA SHI","town":"SHIMOENOKIJIMA","perfecture_jp":"愛知県","jp_add_1":"犬山市","jp_add_2":"下榎島"},"4840842":{"post_code":"4840842","prefecture":"AICHI KEN","city":"INUYAMA SHI","town":"SHIMOKOBARI","perfecture_jp":"愛知県","jp_add_1":"犬山市","jp_add_2":"下小針"},"4840923":{"post_code":"4840923","prefecture":"AICHI KEN","city":"INUYAMA SHI","town":"SHIMONUMA","perfecture_jp":"愛知県","jp_add_1":"犬山市","jp_add_2":"下沼"},"4840953":{"post_code":"4840953","prefecture":"AICHI KEN","city":"INUYAMA SHI","town":"SHIMOBUTAI","perfecture_jp":"愛知県","jp_add_1":"犬山市","jp_add_2":"下舞台"},"4840044":{"post_code":"4840044","prefecture":"AICHI KEN","city":"INUYAMA SHI","town":"SHIMOYASHIKI","perfecture_jp":"愛知県","jp_add_1":"犬山市","jp_add_2":"下屋敷"},"4840007":{"post_code":"4840007","prefecture":"AICHI KEN","city":"INUYAMA SHI","town":"JUSANZUKA","perfecture_jp":"愛知県","jp_add_1":"犬山市","jp_add_2":"十三塚"},"4840825":{"post_code":"4840825","prefecture":"AICHI KEN","city":"INUYAMA SHI","town":"JOFUKUJIBORA","perfecture_jp":"愛知県","jp_add_1":"犬山市","jp_add_2":"常福寺洞"},"4840858":{"post_code":"4840858","prefecture":"AICHI KEN","city":"INUYAMA SHI","town":"SHIROYAMA","perfecture_jp":"愛知県","jp_add_1":"犬山市","jp_add_2":"城山"},"4840956":{"post_code":"4840956","prefecture":"AICHI KEN","city":"INUYAMA SHI","town":"SHINKAWA","perfecture_jp":"愛知県","jp_add_1":"犬山市","jp_add_2":"新川"},"4840003":{"post_code":"4840003","prefecture":"AICHI KEN","city":"INUYAMA SHI","town":"ZENJINO","perfecture_jp":"愛知県","jp_add_1":"犬山市","jp_add_2":"善師野"},"4840004":{"post_code":"4840004","prefecture":"AICHI KEN","city":"INUYAMA SHI","town":"ZENJINODAI","perfecture_jp":"愛知県","jp_add_1":"犬山市","jp_add_2":"善師野台"},"4840869":{"post_code":"4840869","prefecture":"AICHI KEN","city":"INUYAMA SHI","town":"SOSAKU","perfecture_jp":"愛知県","jp_add_1":"犬山市","jp_add_2":"惣作"},"4840908":{"post_code":"4840908","prefecture":"AICHI KEN","city":"INUYAMA SHI","town":"DAIJODO","perfecture_jp":"愛知県","jp_add_1":"犬山市","jp_add_2":"大上戸"},"4840058":{"post_code":"4840058","prefecture":"AICHI KEN","city":"INUYAMA SHI","town":"DAIMON","perfecture_jp":"愛知県","jp_add_1":"犬山市","jp_add_2":"大門"},"4840845":{"post_code":"4840845","prefecture":"AICHI KEN","city":"INUYAMA SHI","town":"TAKATSUBO","perfecture_jp":"愛知県","jp_add_1":"犬山市","jp_add_2":"高坪"},"4840814":{"post_code":"4840814","prefecture":"AICHI KEN","city":"INUYAMA SHI","town":"TAKANE","perfecture_jp":"愛知県","jp_add_1":"犬山市","jp_add_2":"高根"},"4840961":{"post_code":"4840961","prefecture":"AICHI KEN","city":"INUYAMA SHI","town":"TAKICHIYASHIKI","perfecture_jp":"愛知県","jp_add_1":"犬山市","jp_add_2":"太吉屋敷"},"4840009":{"post_code":"4840009","prefecture":"AICHI KEN","city":"INUYAMA SHI","town":"TAGUCHI","perfecture_jp":"愛知県","jp_add_1":"犬山市","jp_add_2":"田口"},"4840041":{"post_code":"4840041","prefecture":"AICHI KEN","city":"INUYAMA SHI","town":"CHOJAMACHI","perfecture_jp":"愛知県","jp_add_1":"犬山市","jp_add_2":"長者町"},"4840091":{"post_code":"4840091","prefecture":"AICHI KEN","city":"INUYAMA SHI","town":"TSUGAO","perfecture_jp":"愛知県","jp_add_1":"犬山市","jp_add_2":"継鹿尾"},"4840917":{"post_code":"4840917","prefecture":"AICHI KEN","city":"INUYAMA SHI","town":"TSUCHITORI","perfecture_jp":"愛知県","jp_add_1":"犬山市","jp_add_2":"土取"},"4840023":{"post_code":"4840023","prefecture":"AICHI KEN","city":"INUYAMA SHI","town":"TSUTSUMISHITA","perfecture_jp":"愛知県","jp_add_1":"犬山市","jp_add_2":"堤下"},"4840013":{"post_code":"4840013","prefecture":"AICHI KEN","city":"INUYAMA SHI","town":"TERABORA","perfecture_jp":"愛知県","jp_add_1":"犬山市","jp_add_2":"寺洞"},"4840866":{"post_code":"4840866","prefecture":"AICHI KEN","city":"INUYAMA SHI","town":"TERANISHI","perfecture_jp":"愛知県","jp_add_1":"犬山市","jp_add_2":"寺西"},"4840873":{"post_code":"4840873","prefecture":"AICHI KEN","city":"INUYAMA SHI","town":"TENOMAE","perfecture_jp":"愛知県","jp_add_1":"犬山市","jp_add_2":"天王前"},"4840073":{"post_code":"4840073","prefecture":"AICHI KEN","city":"INUYAMA SHI","town":"TENJINCHO","perfecture_jp":"愛知県","jp_add_1":"犬山市","jp_add_2":"天神町"},"4840094":{"post_code":"4840094","prefecture":"AICHI KEN","city":"INUYAMA SHI","town":"TONOJI","perfecture_jp":"愛知県","jp_add_1":"犬山市","jp_add_2":"塔野地"},"4840095":{"post_code":"4840095","prefecture":"AICHI KEN","city":"INUYAMA SHI","town":"TONOJISUGI","perfecture_jp":"愛知県","jp_add_1":"犬山市","jp_add_2":"塔野地杉"},"4840096":{"post_code":"4840096","prefecture":"AICHI KEN","city":"INUYAMA SHI","town":"TONOJINISHI","perfecture_jp":"愛知県","jp_add_1":"犬山市","jp_add_2":"塔野地西"},"4840097":{"post_code":"4840097","prefecture":"AICHI KEN","city":"INUYAMA SHI","town":"TONOJIKITA","perfecture_jp":"愛知県","jp_add_1":"犬山市","jp_add_2":"塔野地北"},"4840831":{"post_code":"4840831","prefecture":"AICHI KEN","city":"INUYAMA SHI","town":"DOYASHIKI","perfecture_jp":"愛知県","jp_add_1":"犬山市","jp_add_2":"堂屋敷"},"4840092":{"post_code":"4840092","prefecture":"AICHI KEN","city":"INUYAMA SHI","town":"TOMIOKA","perfecture_jp":"愛知県","jp_add_1":"犬山市","jp_add_2":"富岡"},"4840099":{"post_code":"4840099","prefecture":"AICHI KEN","city":"INUYAMA SHI","town":"TOMIOKASHIMMACHI","perfecture_jp":"愛知県","jp_add_1":"犬山市","jp_add_2":"富岡新町"},"4840093":{"post_code":"4840093","prefecture":"AICHI KEN","city":"INUYAMA SHI","town":"TOMIOKAHIGASHI","perfecture_jp":"愛知県","jp_add_1":"犬山市","jp_add_2":"富岡東"},"4840098":{"post_code":"4840098","prefecture":"AICHI KEN","city":"INUYAMA SHI","town":"TOMIOKAMINAMI","perfecture_jp":"愛知県","jp_add_1":"犬山市","jp_add_2":"富岡南"},"4840857":{"post_code":"4840857","prefecture":"AICHI KEN","city":"INUYAMA SHI","town":"TOYASHIKI","perfecture_jp":"愛知県","jp_add_1":"犬山市","jp_add_2":"外屋敷"},"4840913":{"post_code":"4840913","prefecture":"AICHI KEN","city":"INUYAMA SHI","town":"TORIYAKOSHI","perfecture_jp":"愛知県","jp_add_1":"犬山市","jp_add_2":"鳥屋越"},"4840934":{"post_code":"4840934","prefecture":"AICHI KEN","city":"INUYAMA SHI","town":"NAKAGARASO","perfecture_jp":"愛知県","jp_add_1":"犬山市","jp_add_2":"中唐曽"},"4840822":{"post_code":"4840822","prefecture":"AICHI KEN","city":"INUYAMA SHI","town":"NAKAGIRI","perfecture_jp":"愛知県","jp_add_1":"犬山市","jp_add_2":"中切"},"4840852":{"post_code":"4840852","prefecture":"AICHI KEN","city":"INUYAMA SHI","town":"NAKAKOBARI","perfecture_jp":"愛知県","jp_add_1":"犬山市","jp_add_2":"中小針"},"4840045":{"post_code":"4840045","prefecture":"AICHI KEN","city":"INUYAMA SHI","town":"NAKAHATA","perfecture_jp":"愛知県","jp_add_1":"犬山市","jp_add_2":"仲畑"},"4840919":{"post_code":"4840919","prefecture":"AICHI KEN","city":"INUYAMA SHI","town":"NAKAMICHI","perfecture_jp":"愛知県","jp_add_1":"犬山市","jp_add_2":"中道"},"4840054":{"post_code":"4840054","prefecture":"AICHI KEN","city":"INUYAMA SHI","town":"NAKAYASHIKI","perfecture_jp":"愛知県","jp_add_1":"犬山市","jp_add_2":"仲屋敷"},"4840087":{"post_code":"4840087","prefecture":"AICHI KEN","city":"INUYAMA SHI","town":"NAKAYAMACHO","perfecture_jp":"愛知県","jp_add_1":"犬山市","jp_add_2":"中山町"},"4840928":{"post_code":"4840928","prefecture":"AICHI KEN","city":"INUYAMA SHI","town":"NANATSUYA","perfecture_jp":"愛知県","jp_add_1":"犬山市","jp_add_2":"七ツ屋"},"4840037":{"post_code":"4840037","prefecture":"AICHI KEN","city":"INUYAMA SHI","town":"NISHIKATAKUSA","perfecture_jp":"愛知県","jp_add_1":"犬山市","jp_add_2":"西片草"},"4840935":{"post_code":"4840935","prefecture":"AICHI KEN","city":"INUYAMA SHI","town":"NISHIGARASO","perfecture_jp":"愛知県","jp_add_1":"犬山市","jp_add_2":"西唐曽"},"4840905":{"post_code":"4840905","prefecture":"AICHI KEN","city":"INUYAMA SHI","town":"NISHIKITANO","perfecture_jp":"愛知県","jp_add_1":"犬山市","jp_add_2":"西北野"},"4840036":{"post_code":"4840036","prefecture":"AICHI KEN","city":"INUYAMA SHI","town":"NISHIKUWABARA","perfecture_jp":"愛知県","jp_add_1":"犬山市","jp_add_2":"西桑原"},"4840085":{"post_code":"4840085","prefecture":"AICHI KEN","city":"INUYAMA SHI","town":"NISHIKOKEN","perfecture_jp":"愛知県","jp_add_1":"犬山市","jp_add_2":"西古券"},"4840948":{"post_code":"4840948","prefecture":"AICHI KEN","city":"INUYAMA SHI","town":"NISHIDAIEN","perfecture_jp":"愛知県","jp_add_1":"犬山市","jp_add_2":"西大円"},"4840932":{"post_code":"4840932","prefecture":"AICHI KEN","city":"INUYAMA SHI","town":"NISHINO","perfecture_jp":"愛知県","jp_add_1":"犬山市","jp_add_2":"西野"},"4840029":{"post_code":"4840029","prefecture":"AICHI KEN","city":"INUYAMA SHI","town":"NISHIBORA","perfecture_jp":"愛知県","jp_add_1":"犬山市","jp_add_2":"西洞"},"4840918":{"post_code":"4840918","prefecture":"AICHI KEN","city":"INUYAMA SHI","town":"NITANDA","perfecture_jp":"愛知県","jp_add_1":"犬山市","jp_add_2":"ニタ田"},"4840042":{"post_code":"4840042","prefecture":"AICHI KEN","city":"INUYAMA SHI","town":"NIHONGI","perfecture_jp":"愛知県","jp_add_1":"犬山市","jp_add_2":"二本木"},"4840863":{"post_code":"4840863","prefecture":"AICHI KEN","city":"INUYAMA SHI","town":"NODA","perfecture_jp":"愛知県","jp_add_1":"犬山市","jp_add_2":"野田"},"4840025":{"post_code":"4840025","prefecture":"AICHI KEN","city":"INUYAMA SHI","town":"NONAKA","perfecture_jp":"愛知県","jp_add_1":"犬山市","jp_add_2":"野中"},"4840022":{"post_code":"4840022","prefecture":"AICHI KEN","city":"INUYAMA SHI","town":"HAKUSAMBORA","perfecture_jp":"愛知県","jp_add_1":"犬山市","jp_add_2":"白山洞"},"4840894":{"post_code":"4840894","prefecture":"AICHI KEN","city":"INUYAMA SHI","town":"HAGURO","perfecture_jp":"愛知県","jp_add_1":"犬山市","jp_add_2":"羽黒"},"4840806":{"post_code":"4840806","prefecture":"AICHI KEN","city":"INUYAMA SHI","town":"HAGUROASAHI","perfecture_jp":"愛知県","jp_add_1":"犬山市","jp_add_2":"羽黒朝日"},"4840899":{"post_code":"4840899","prefecture":"AICHI KEN","city":"INUYAMA SHI","town":"HAGUROINABAHIGASHI","perfecture_jp":"愛知県","jp_add_1":"犬山市","jp_add_2":"羽黒稲葉東"},"4840898":{"post_code":"4840898","prefecture":"AICHI KEN","city":"INUYAMA SHI","town":"HAGUROINABANISHI","perfecture_jp":"愛知県","jp_add_1":"犬山市","jp_add_2":"羽黒稲葉西"},"4840884":{"post_code":"4840884","prefecture":"AICHI KEN","city":"INUYAMA SHI","town":"HAGUROKOSHI","perfecture_jp":"愛知県","jp_add_1":"犬山市","jp_add_2":"羽黒起"},"4840891":{"post_code":"4840891","prefecture":"AICHI KEN","city":"INUYAMA SHI","town":"HAGURONDASHIMA","perfecture_jp":"愛知県","jp_add_1":"犬山市","jp_add_2":"羽黒恩田島"},"4840882":{"post_code":"4840882","prefecture":"AICHI KEN","city":"INUYAMA SHI","town":"HAGUROKIKUKAWA","perfecture_jp":"愛知県","jp_add_1":"犬山市","jp_add_2":"羽黒菊川"},"4840893":{"post_code":"4840893","prefecture":"AICHI KEN","city":"INUYAMA SHI","town":"HAGUROSAKAE","perfecture_jp":"愛知県","jp_add_1":"犬山市","jp_add_2":"羽黒栄"},"4840804":{"post_code":"4840804","prefecture":"AICHI KEN","city":"INUYAMA SHI","town":"HAGUROSAKURAKAIDO","perfecture_jp":"愛知県","jp_add_1":"犬山市","jp_add_2":"羽黒桜海道"},"4840803":{"post_code":"4840803","prefecture":"AICHI KEN","city":"INUYAMA SHI","town":"HAGUROSHINAKASAKA","perfecture_jp":"愛知県","jp_add_1":"犬山市","jp_add_2":"羽黒新赤坂"},"4840888":{"post_code":"4840888","prefecture":"AICHI KEN","city":"INUYAMA SHI","town":"HAGUROSHINDEN","perfecture_jp":"愛知県","jp_add_1":"犬山市","jp_add_2":"羽黒新田"},"4840805":{"post_code":"4840805","prefecture":"AICHI KEN","city":"INUYAMA SHI","town":"HAGUROSHINTOYAMA","perfecture_jp":"愛知県","jp_add_1":"犬山市","jp_add_2":"羽黒新外山"},"4840895":{"post_code":"4840895","prefecture":"AICHI KEN","city":"INUYAMA SHI","town":"HAGUROSURUSUMI","perfecture_jp":"愛知県","jp_add_1":"犬山市","jp_add_2":"羽黒摺墨"},"4840892":{"post_code":"4840892","prefecture":"AICHI KEN","city":"INUYAMA SHI","town":"HAGUROSOSAKAI","perfecture_jp":"愛知県","jp_add_1":"犬山市","jp_add_2":"羽黒惣境"},"4840889":{"post_code":"4840889","prefecture":"AICHI KEN","city":"INUYAMA SHI","town":"HAGUROTAKAHASHI","perfecture_jp":"愛知県","jp_add_1":"犬山市","jp_add_2":"羽黒高橋"},"4840897":{"post_code":"4840897","prefecture":"AICHI KEN","city":"INUYAMA SHI","town":"HAGURODOMAE","perfecture_jp":"愛知県","jp_add_1":"犬山市","jp_add_2":"羽黒堂前"},"4840881":{"post_code":"4840881","prefecture":"AICHI KEN","city":"INUYAMA SHI","town":"HAGURONARUMINISHI","perfecture_jp":"愛知県","jp_add_1":"犬山市","jp_add_2":"羽黒成海西"},"4840883":{"post_code":"4840883","prefecture":"AICHI KEN","city":"INUYAMA SHI","town":"HAGURONARUMIMINAMI","perfecture_jp":"愛知県","jp_add_1":"犬山市","jp_add_2":"羽黒成海南"},"4840807":{"post_code":"4840807","prefecture":"AICHI KEN","city":"INUYAMA SHI","town":"HAGUROHOKOZOE","perfecture_jp":"愛知県","jp_add_1":"犬山市","jp_add_2":"羽黒鉾添"},"4840802":{"post_code":"4840802","prefecture":"AICHI KEN","city":"INUYAMA SHI","town":"HAGUROYASUDONISHI","perfecture_jp":"愛知県","jp_add_1":"犬山市","jp_add_2":"羽黒安戸西"},"4840801":{"post_code":"4840801","prefecture":"AICHI KEN","city":"INUYAMA SHI","town":"HAGUROYASUDOMINAMI","perfecture_jp":"愛知県","jp_add_1":"犬山市","jp_add_2":"羽黒安戸南"},"4840896":{"post_code":"4840896","prefecture":"AICHI KEN","city":"INUYAMA SHI","town":"HAGUROYOMACHI","perfecture_jp":"愛知県","jp_add_1":"犬山市","jp_add_2":"羽黒余町"},"4840076":{"post_code":"4840076","prefecture":"AICHI KEN","city":"INUYAMA SHI","town":"HASHIZUME","perfecture_jp":"愛知県","jp_add_1":"犬山市","jp_add_2":"橋爪"},"4840075":{"post_code":"4840075","prefecture":"AICHI KEN","city":"INUYAMA SHI","town":"HASHIZUMEHIGASHI","perfecture_jp":"愛知県","jp_add_1":"犬山市","jp_add_2":"橋爪東"},"4840835":{"post_code":"4840835","prefecture":"AICHI KEN","city":"INUYAMA SHI","town":"HASUIKE","perfecture_jp":"愛知県","jp_add_1":"犬山市","jp_add_2":"蓮池"},"4840006":{"post_code":"4840006","prefecture":"AICHI KEN","city":"INUYAMA SHI","town":"HASSO","perfecture_jp":"愛知県","jp_add_1":"犬山市","jp_add_2":"八曽"},"4840951":{"post_code":"4840951","prefecture":"AICHI KEN","city":"INUYAMA SHI","town":"HATTANDA","perfecture_jp":"愛知県","jp_add_1":"犬山市","jp_add_2":"八反田"},"4840943":{"post_code":"4840943","prefecture":"AICHI KEN","city":"INUYAMA SHI","town":"HABAMAE","perfecture_jp":"愛知県","jp_add_1":"犬山市","jp_add_2":"巾前"},"4840941":{"post_code":"4840941","prefecture":"AICHI KEN","city":"INUYAMA SHI","town":"HABAMAWARI","perfecture_jp":"愛知県","jp_add_1":"犬山市","jp_add_2":"巾廻り"},"4840864":{"post_code":"4840864","prefecture":"AICHI KEN","city":"INUYAMA SHI","town":"BAMMAE","perfecture_jp":"愛知県","jp_add_1":"犬山市","jp_add_2":"番前"},"4840038":{"post_code":"4840038","prefecture":"AICHI KEN","city":"INUYAMA SHI","town":"HIGASHIKATAKUSA","perfecture_jp":"愛知県","jp_add_1":"犬山市","jp_add_2":"東片草"},"4840933":{"post_code":"4840933","prefecture":"AICHI KEN","city":"INUYAMA SHI","town":"HIGASHIGARASO","perfecture_jp":"愛知県","jp_add_1":"犬山市","jp_add_2":"東唐曽"},"4840868":{"post_code":"4840868","prefecture":"AICHI KEN","city":"INUYAMA SHI","town":"HIGASHIKITANO","perfecture_jp":"愛知県","jp_add_1":"犬山市","jp_add_2":"東北野"},"4840031":{"post_code":"4840031","prefecture":"AICHI KEN","city":"INUYAMA SHI","town":"HIGASHIKUWABARA","perfecture_jp":"愛知県","jp_add_1":"犬山市","jp_add_2":"東桑原"},"4840083":{"post_code":"4840083","prefecture":"AICHI KEN","city":"INUYAMA SHI","town":"HIGASHIKOKEN","perfecture_jp":"愛知県","jp_add_1":"犬山市","jp_add_2":"東古券"},"4840946":{"post_code":"4840946","prefecture":"AICHI KEN","city":"INUYAMA SHI","town":"HIGASHIDAIEN","perfecture_jp":"愛知県","jp_add_1":"犬山市","jp_add_2":"東大円"},"4840958":{"post_code":"4840958","prefecture":"AICHI KEN","city":"INUYAMA SHI","town":"HIRATSUKA","perfecture_jp":"愛知県","jp_add_1":"犬山市","jp_add_2":"平塚"},"4840836":{"post_code":"4840836","prefecture":"AICHI KEN","city":"INUYAMA SHI","town":"FUEDA","perfecture_jp":"愛知県","jp_add_1":"犬山市","jp_add_2":"笛田"},"4840057":{"post_code":"4840057","prefecture":"AICHI KEN","city":"INUYAMA SHI","town":"FUJIYAMA","perfecture_jp":"愛知県","jp_add_1":"犬山市","jp_add_2":"富士山"},"4840912":{"post_code":"4840912","prefecture":"AICHI KEN","city":"INUYAMA SHI","town":"FUNADA","perfecture_jp":"愛知県","jp_add_1":"犬山市","jp_add_2":"舟田"},"4840049":{"post_code":"4840049","prefecture":"AICHI KEN","city":"INUYAMA SHI","town":"MAEDAMEN","perfecture_jp":"愛知県","jp_add_1":"犬山市","jp_add_2":"前田面"},"4840871":{"post_code":"4840871","prefecture":"AICHI KEN","city":"INUYAMA SHI","town":"MAENAMI","perfecture_jp":"愛知県","jp_add_1":"犬山市","jp_add_2":"前並"},"4840061":{"post_code":"4840061","prefecture":"AICHI KEN","city":"INUYAMA SHI","town":"MAEHARA","perfecture_jp":"愛知県","jp_add_1":"犬山市","jp_add_2":"前原"},"4840062":{"post_code":"4840062","prefecture":"AICHI KEN","city":"INUYAMA SHI","town":"MAEHARAAJIKA","perfecture_jp":"愛知県","jp_add_1":"犬山市","jp_add_2":"前原味鹿"},"4840064":{"post_code":"4840064","prefecture":"AICHI KEN","city":"INUYAMA SHI","town":"MAEHARANISHI","perfecture_jp":"愛知県","jp_add_1":"犬山市","jp_add_2":"前原西"},"4840063":{"post_code":"4840063","prefecture":"AICHI KEN","city":"INUYAMA SHI","town":"MAEHARAMINAMI","perfecture_jp":"愛知県","jp_add_1":"犬山市","jp_add_2":"前原南"},"4840086":{"post_code":"4840086","prefecture":"AICHI KEN","city":"INUYAMA SHI","town":"MATSUMOTOCHO","perfecture_jp":"愛知県","jp_add_1":"犬山市","jp_add_2":"松本町"},"4840927":{"post_code":"4840927","prefecture":"AICHI KEN","city":"INUYAMA SHI","town":"MATOBA","perfecture_jp":"愛知県","jp_add_1":"犬山市","jp_add_2":"的場"},"4840072":{"post_code":"4840072","prefecture":"AICHI KEN","city":"INUYAMA SHI","town":"MARUYAMATEMPAKUCHO","perfecture_jp":"愛知県","jp_add_1":"犬山市","jp_add_2":"丸山天白町"},"4840931":{"post_code":"4840931","prefecture":"AICHI KEN","city":"INUYAMA SHI","town":"MINAMIOHASHI","perfecture_jp":"愛知県","jp_add_1":"犬山市","jp_add_2":"南大橋"},"4840084":{"post_code":"4840084","prefecture":"AICHI KEN","city":"INUYAMA SHI","town":"MINAMIKOKEN","perfecture_jp":"愛知県","jp_add_1":"犬山市","jp_add_2":"南古券"},"4840012":{"post_code":"4840012","prefecture":"AICHI KEN","city":"INUYAMA SHI","town":"MINAMITAKANE","perfecture_jp":"愛知県","jp_add_1":"犬山市","jp_add_2":"南高根"},"4840051":{"post_code":"4840051","prefecture":"AICHI KEN","city":"INUYAMA SHI","town":"MIYAURA","perfecture_jp":"愛知県","jp_add_1":"犬山市","jp_add_2":"宮裏"},"4840886":{"post_code":"4840886","prefecture":"AICHI KEN","city":"INUYAMA SHI","town":"MIYAURA","perfecture_jp":"愛知県","jp_add_1":"犬山市","jp_add_2":"宮浦"},"4840834":{"post_code":"4840834","prefecture":"AICHI KEN","city":"INUYAMA SHI","town":"MIYAYAMA","perfecture_jp":"愛知県","jp_add_1":"犬山市","jp_add_2":"宮山"},"4840937":{"post_code":"4840937","prefecture":"AICHI KEN","city":"INUYAMA SHI","town":"MIYAHIGASHI","perfecture_jp":"愛知県","jp_add_1":"犬山市","jp_add_2":"宮東"},"4840833":{"post_code":"4840833","prefecture":"AICHI KEN","city":"INUYAMA SHI","town":"MIYANISHI","perfecture_jp":"愛知県","jp_add_1":"犬山市","jp_add_2":"宮西"},"4840028":{"post_code":"4840028","prefecture":"AICHI KEN","city":"INUYAMA SHI","town":"MUKODA","perfecture_jp":"愛知県","jp_add_1":"犬山市","jp_add_2":"向田"},"4840832":{"post_code":"4840832","prefecture":"AICHI KEN","city":"INUYAMA SHI","town":"MUKOYAMA","perfecture_jp":"愛知県","jp_add_1":"犬山市","jp_add_2":"向山"},"4840020":{"post_code":"4840020","prefecture":"AICHI KEN","city":"INUYAMA SHI","town":"MOEGIGAOKA","perfecture_jp":"愛知県","jp_add_1":"犬山市","jp_add_2":"もえぎケ丘"},"4840954":{"post_code":"4840954","prefecture":"AICHI KEN","city":"INUYAMA SHI","town":"MOTOSAMMAE","perfecture_jp":"愛知県","jp_add_1":"犬山市","jp_add_2":"元散前"},"4840839":{"post_code":"4840839","prefecture":"AICHI KEN","city":"INUYAMA SHI","town":"MOMOYAMADAI","perfecture_jp":"愛知県","jp_add_1":"犬山市","jp_add_2":"桃山台"},"4840828":{"post_code":"4840828","prefecture":"AICHI KEN","city":"INUYAMA SHI","town":"YAKUSHIURA","perfecture_jp":"愛知県","jp_add_1":"犬山市","jp_add_2":"薬師浦"},"4840827":{"post_code":"4840827","prefecture":"AICHI KEN","city":"INUYAMA SHI","town":"YAKUSHIMAE","perfecture_jp":"愛知県","jp_add_1":"犬山市","jp_add_2":"薬師前"},"4840906":{"post_code":"4840906","prefecture":"AICHI KEN","city":"INUYAMA SHI","town":"YAKENO","perfecture_jp":"愛知県","jp_add_1":"犬山市","jp_add_2":"焼野"},"4840046":{"post_code":"4840046","prefecture":"AICHI KEN","city":"INUYAMA SHI","town":"YASHIKIURA","perfecture_jp":"愛知県","jp_add_1":"犬山市","jp_add_2":"屋敷裏"},"4840016":{"post_code":"4840016","prefecture":"AICHI KEN","city":"INUYAMA SHI","town":"YABUGAHORA","perfecture_jp":"愛知県","jp_add_1":"犬山市","jp_add_2":"藪ケ洞"},"4840865":{"post_code":"4840865","prefecture":"AICHI KEN","city":"INUYAMA SHI","town":"YABUGURO","perfecture_jp":"愛知県","jp_add_1":"犬山市","jp_add_2":"藪畔"},"4840876":{"post_code":"4840876","prefecture":"AICHI KEN","city":"INUYAMA SHI","town":"YAMAGAMI","perfecture_jp":"愛知県","jp_add_1":"犬山市","jp_add_2":"山神"},"4840821":{"post_code":"4840821","prefecture":"AICHI KEN","city":"INUYAMA SHI","town":"YAMAZAKINISHI","perfecture_jp":"愛知県","jp_add_1":"犬山市","jp_add_2":"山崎西"},"4840812":{"post_code":"4840812","prefecture":"AICHI KEN","city":"INUYAMA SHI","town":"YAMANOTA","perfecture_jp":"愛知県","jp_add_1":"犬山市","jp_add_2":"山ノ田"},"4840813":{"post_code":"4840813","prefecture":"AICHI KEN","city":"INUYAMA SHI","town":"YAMANOTAGOSHI","perfecture_jp":"愛知県","jp_add_1":"犬山市","jp_add_2":"山ノ田腰"},"4840826":{"post_code":"4840826","prefecture":"AICHI KEN","city":"INUYAMA SHI","town":"YAMANOHANA","perfecture_jp":"愛知県","jp_add_1":"犬山市","jp_add_2":"山ノ鼻"},"4840853":{"post_code":"4840853","prefecture":"AICHI KEN","city":"INUYAMA SHI","town":"YOKOMACHI","perfecture_jp":"愛知県","jp_add_1":"犬山市","jp_add_2":"横町"},"4840875":{"post_code":"4840875","prefecture":"AICHI KEN","city":"INUYAMA SHI","town":"RINGOZUKA","perfecture_jp":"愛知県","jp_add_1":"犬山市","jp_add_2":"林吾塚"},"4840861":{"post_code":"4840861","prefecture":"AICHI KEN","city":"INUYAMA SHI","town":"WAKAMIYA","perfecture_jp":"愛知県","jp_add_1":"犬山市","jp_add_2":"若宮"},"4840052":{"post_code":"4840052","prefecture":"AICHI KEN","city":"INUYAMA SHI","town":"WASEDA","perfecture_jp":"愛知県","jp_add_1":"犬山市","jp_add_2":"早稲田"}}