{"4890000":{"post_code":"4890000","prefecture":"AICHI KEN","city":"SETO SHI","town":"IKANIKEISAIGANAIBAAI","perfecture_jp":"愛知県","jp_add_1":"瀬戸市","jp_add_2":""},"4890878":{"post_code":"4890878","prefecture":"AICHI KEN","city":"SETO SHI","town":"AKASHIGECHO","perfecture_jp":"愛知県","jp_add_1":"瀬戸市","jp_add_2":"赤重町"},"4890071":{"post_code":"4890071","prefecture":"AICHI KEN","city":"SETO SHI","town":"AKATSUKICHO","perfecture_jp":"愛知県","jp_add_1":"瀬戸市","jp_add_2":"暁町"},"4890022":{"post_code":"4890022","prefecture":"AICHI KEN","city":"SETO SHI","town":"AKAZUCHO","perfecture_jp":"愛知県","jp_add_1":"瀬戸市","jp_add_2":"赤津町"},"4890898":{"post_code":"4890898","prefecture":"AICHI KEN","city":"SETO SHI","town":"AKIBACHO","perfecture_jp":"愛知県","jp_add_1":"瀬戸市","jp_add_2":"秋葉町"},"4890043":{"post_code":"4890043","prefecture":"AICHI KEN","city":"SETO SHI","town":"ASAHIMACHI","perfecture_jp":"愛知県","jp_add_1":"瀬戸市","jp_add_2":"朝日町"},"4890847":{"post_code":"4890847","prefecture":"AICHI KEN","city":"SETO SHI","town":"AZUMACHO","perfecture_jp":"愛知県","jp_add_1":"瀬戸市","jp_add_2":"東町"},"4890801":{"post_code":"4890801","prefecture":"AICHI KEN","city":"SETO SHI","town":"ASEBICHO","perfecture_jp":"愛知県","jp_add_1":"瀬戸市","jp_add_2":"汗干町"},"4890003":{"post_code":"4890003","prefecture":"AICHI KEN","city":"SETO SHI","town":"ANADACHO","perfecture_jp":"愛知県","jp_add_1":"瀬戸市","jp_add_2":"穴田町"},"4890952":{"post_code":"4890952","prefecture":"AICHI KEN","city":"SETO SHI","town":"IKEDACHO","perfecture_jp":"愛知県","jp_add_1":"瀬戸市","jp_add_2":"池田町"},"4890951":{"post_code":"4890951","prefecture":"AICHI KEN","city":"SETO SHI","town":"ISHIDACHO","perfecture_jp":"愛知県","jp_add_1":"瀬戸市","jp_add_2":"石田町"},"4890073":{"post_code":"4890073","prefecture":"AICHI KEN","city":"SETO SHI","town":"IZUMICHO","perfecture_jp":"愛知県","jp_add_1":"瀬戸市","jp_add_2":"泉町"},"4890922":{"post_code":"4890922","prefecture":"AICHI KEN","city":"SETO SHI","town":"ICHIBACHO","perfecture_jp":"愛知県","jp_add_1":"瀬戸市","jp_add_2":"市場町"},"4890817":{"post_code":"4890817","prefecture":"AICHI KEN","city":"SETO SHI","town":"ICHONOKICHO","perfecture_jp":"愛知県","jp_add_1":"瀬戸市","jp_add_2":"銀杏木町"},"4890836":{"post_code":"4890836","prefecture":"AICHI KEN","city":"SETO SHI","town":"ICHIRIZUKACHO","perfecture_jp":"愛知県","jp_add_1":"瀬戸市","jp_add_2":"一里塚町"},"4890976":{"post_code":"4890976","prefecture":"AICHI KEN","city":"SETO SHI","town":"IDOGANECHO","perfecture_jp":"愛知県","jp_add_1":"瀬戸市","jp_add_2":"井戸金町"},"4890802":{"post_code":"4890802","prefecture":"AICHI KEN","city":"SETO SHI","town":"IMAIKECHO","perfecture_jp":"愛知県","jp_add_1":"瀬戸市","jp_add_2":"今池町"},"4890868":{"post_code":"4890868","prefecture":"AICHI KEN","city":"SETO SHI","town":"IMABAYASHICHO","perfecture_jp":"愛知県","jp_add_1":"瀬戸市","jp_add_2":"今林町"},"4890964":{"post_code":"4890964","prefecture":"AICHI KEN","city":"SETO SHI","town":"UENOYAMACHO","perfecture_jp":"愛知県","jp_add_1":"瀬戸市","jp_add_2":"上之山町"},"4890902":{"post_code":"4890902","prefecture":"AICHI KEN","city":"SETO SHI","town":"UCHIDACHO","perfecture_jp":"愛知県","jp_add_1":"瀬戸市","jp_add_2":"内田町"},"4890021":{"post_code":"4890021","prefecture":"AICHI KEN","city":"SETO SHI","town":"UMAGAJOCHO","perfecture_jp":"愛知県","jp_add_1":"瀬戸市","jp_add_2":"馬ケ城町"},"4890826":{"post_code":"4890826","prefecture":"AICHI KEN","city":"SETO SHI","town":"EBISUCHO","perfecture_jp":"愛知県","jp_add_1":"瀬戸市","jp_add_2":"蛭子町"},"4890803":{"post_code":"4890803","prefecture":"AICHI KEN","city":"SETO SHI","town":"OIWAKECHO","perfecture_jp":"愛知県","jp_add_1":"瀬戸市","jp_add_2":"追分町"},"4890832":{"post_code":"4890832","prefecture":"AICHI KEN","city":"SETO SHI","town":"OJINOSAWACHO","perfecture_jp":"愛知県","jp_add_1":"瀬戸市","jp_add_2":"王子沢町"},"4890867":{"post_code":"4890867","prefecture":"AICHI KEN","city":"SETO SHI","town":"OSAKACHO","perfecture_jp":"愛知県","jp_add_1":"瀬戸市","jp_add_2":"大坂町"},"4890962":{"post_code":"4890962","prefecture":"AICHI KEN","city":"SETO SHI","town":"OTSUBOCHO","perfecture_jp":"愛知県","jp_add_1":"瀬戸市","jp_add_2":"大坪町"},"4890064":{"post_code":"4890064","prefecture":"AICHI KEN","city":"SETO SHI","town":"OGANECHO","perfecture_jp":"愛知県","jp_add_1":"瀬戸市","jp_add_2":"小金町"},"4890067":{"post_code":"4890067","prefecture":"AICHI KEN","city":"SETO SHI","town":"ODAZUMACHO","perfecture_jp":"愛知県","jp_add_1":"瀬戸市","jp_add_2":"小田妻町"},"4890855":{"post_code":"4890855","prefecture":"AICHI KEN","city":"SETO SHI","town":"KAISHOCHO","perfecture_jp":"愛知県","jp_add_1":"瀬戸市","jp_add_2":"海上町"},"4890966":{"post_code":"4890966","prefecture":"AICHI KEN","city":"SETO SHI","town":"KAKESHITACHO","perfecture_jp":"愛知県","jp_add_1":"瀬戸市","jp_add_2":"掛下町"},"4890845":{"post_code":"4890845","prefecture":"AICHI KEN","city":"SETO SHI","town":"KANEBACHO","perfecture_jp":"愛知県","jp_add_1":"瀬戸市","jp_add_2":"鐘場町"},"4890007":{"post_code":"4890007","prefecture":"AICHI KEN","city":"SETO SHI","town":"KANORICHO","perfecture_jp":"愛知県","jp_add_1":"瀬戸市","jp_add_2":"鹿乗町"},"4890048":{"post_code":"4890048","prefecture":"AICHI KEN","city":"SETO SHI","town":"KAMAGAMICHO","perfecture_jp":"愛知県","jp_add_1":"瀬戸市","jp_add_2":"窯神町"},"4890023":{"post_code":"4890023","prefecture":"AICHI KEN","city":"SETO SHI","town":"KAMAMOTOCHO","perfecture_jp":"愛知県","jp_add_1":"瀬戸市","jp_add_2":"窯元町"},"4890933":{"post_code":"4890933","prefecture":"AICHI KEN","city":"SETO SHI","town":"KAMIKAWACHO","perfecture_jp":"愛知県","jp_add_1":"瀬戸市","jp_add_2":"神川町"},"4890063":{"post_code":"4890063","prefecture":"AICHI KEN","city":"SETO SHI","town":"KAMIJINYACHO","perfecture_jp":"愛知県","jp_add_1":"瀬戸市","jp_add_2":"上陣屋町"},"4890892":{"post_code":"4890892","prefecture":"AICHI KEN","city":"SETO SHI","town":"KAMINOKIRICHO","perfecture_jp":"愛知県","jp_add_1":"瀬戸市","jp_add_2":"上ノ切町"},"4890061":{"post_code":"4890061","prefecture":"AICHI KEN","city":"SETO SHI","town":"KAMIHOMMACHI","perfecture_jp":"愛知県","jp_add_1":"瀬戸市","jp_add_2":"上本町"},"4890068":{"post_code":"4890068","prefecture":"AICHI KEN","city":"SETO SHI","town":"KAMIMATSUYAMACHO","perfecture_jp":"愛知県","jp_add_1":"瀬戸市","jp_add_2":"上松山町"},"4890062":{"post_code":"4890062","prefecture":"AICHI KEN","city":"SETO SHI","town":"KAMIMIZUNOCHO","perfecture_jp":"愛知県","jp_add_1":"瀬戸市","jp_add_2":"上水野町"},"4890853":{"post_code":"4890853","prefecture":"AICHI KEN","city":"SETO SHI","town":"KAMIYAMAJICHO","perfecture_jp":"愛知県","jp_add_1":"瀬戸市","jp_add_2":"上山路町"},"4890894":{"post_code":"4890894","prefecture":"AICHI KEN","city":"SETO SHI","town":"KAWAICHO","perfecture_jp":"愛知県","jp_add_1":"瀬戸市","jp_add_2":"川合町"},"4890927":{"post_code":"4890927","prefecture":"AICHI KEN","city":"SETO SHI","town":"KAWAKITACHO","perfecture_jp":"愛知県","jp_add_1":"瀬戸市","jp_add_2":"川北町"},"4890926":{"post_code":"4890926","prefecture":"AICHI KEN","city":"SETO SHI","town":"KAWANISHICHO","perfecture_jp":"愛知県","jp_add_1":"瀬戸市","jp_add_2":"川西町"},"4890919":{"post_code":"4890919","prefecture":"AICHI KEN","city":"SETO SHI","town":"KAWABATACHO","perfecture_jp":"愛知県","jp_add_1":"瀬戸市","jp_add_2":"川端町"},"4890001":{"post_code":"4890001","prefecture":"AICHI KEN","city":"SETO SHI","town":"KAWAHIRACHO","perfecture_jp":"愛知県","jp_add_1":"瀬戸市","jp_add_2":"川平町"},"4890908":{"post_code":"4890908","prefecture":"AICHI KEN","city":"SETO SHI","town":"KIKYODAI","perfecture_jp":"愛知県","jp_add_1":"瀬戸市","jp_add_2":"ききょう台"},"4890915":{"post_code":"4890915","prefecture":"AICHI KEN","city":"SETO SHI","town":"KITAURACHO","perfecture_jp":"愛知県","jp_add_1":"瀬戸市","jp_add_2":"北浦町"},"4890014":{"post_code":"4890014","prefecture":"AICHI KEN","city":"SETO SHI","town":"KITASHIRASAKACHO","perfecture_jp":"愛知県","jp_add_1":"瀬戸市","jp_add_2":"北白坂町"},"4890911":{"post_code":"4890911","prefecture":"AICHI KEN","city":"SETO SHI","town":"KITAMATSUYAMACHO","perfecture_jp":"愛知県","jp_add_1":"瀬戸市","jp_add_2":"北松山町"},"4890910":{"post_code":"4890910","prefecture":"AICHI KEN","city":"SETO SHI","town":"KITAMIZUNOZAKA","perfecture_jp":"愛知県","jp_add_1":"瀬戸市","jp_add_2":"北みずの坂"},"4890984":{"post_code":"4890984","prefecture":"AICHI KEN","city":"SETO SHI","town":"KITAYAMACHO","perfecture_jp":"愛知県","jp_add_1":"瀬戸市","jp_add_2":"北山町"},"4890918":{"post_code":"4890918","prefecture":"AICHI KEN","city":"SETO SHI","town":"KITAWAKICHO","perfecture_jp":"愛知県","jp_add_1":"瀬戸市","jp_add_2":"北脇町"},"4890809":{"post_code":"4890809","prefecture":"AICHI KEN","city":"SETO SHI","town":"KYOEIDORI","perfecture_jp":"愛知県","jp_add_1":"瀬戸市","jp_add_2":"共栄通"},"4890804":{"post_code":"4890804","prefecture":"AICHI KEN","city":"SETO SHI","town":"KYOMACHI","perfecture_jp":"愛知県","jp_add_1":"瀬戸市","jp_add_2":"京町"},"4890881":{"post_code":"4890881","prefecture":"AICHI KEN","city":"SETO SHI","town":"KUMANOCHO","perfecture_jp":"愛知県","jp_add_1":"瀬戸市","jp_add_2":"熊野町"},"4890813":{"post_code":"4890813","prefecture":"AICHI KEN","city":"SETO SHI","town":"KURASHOCHO","perfecture_jp":"愛知県","jp_add_1":"瀬戸市","jp_add_2":"蔵所町"},"4890031":{"post_code":"4890031","prefecture":"AICHI KEN","city":"SETO SHI","town":"GOIZUKACHO","perfecture_jp":"愛知県","jp_add_1":"瀬戸市","jp_add_2":"五位塚町"},"4890917":{"post_code":"4890917","prefecture":"AICHI KEN","city":"SETO SHI","town":"KOHANCHO","perfecture_jp":"愛知県","jp_add_1":"瀬戸市","jp_add_2":"效範町"},"4890978":{"post_code":"4890978","prefecture":"AICHI KEN","city":"SETO SHI","town":"KOSAKACHO","perfecture_jp":"愛知県","jp_add_1":"瀬戸市","jp_add_2":"小坂町"},"4890032":{"post_code":"4890032","prefecture":"AICHI KEN","city":"SETO SHI","town":"KOSETOCHO","perfecture_jp":"愛知県","jp_add_1":"瀬戸市","jp_add_2":"古瀬戸町"},"4890842":{"post_code":"4890842","prefecture":"AICHI KEN","city":"SETO SHI","town":"KOSORACHO","perfecture_jp":"愛知県","jp_add_1":"瀬戸市","jp_add_2":"小空町"},"4890879":{"post_code":"4890879","prefecture":"AICHI KEN","city":"SETO SHI","town":"KOBUKICHO","perfecture_jp":"愛知県","jp_add_1":"瀬戸市","jp_add_2":"瘤木町"},"4890974":{"post_code":"4890974","prefecture":"AICHI KEN","city":"SETO SHI","town":"KOMAMAECHO","perfecture_jp":"愛知県","jp_add_1":"瀬戸市","jp_add_2":"駒前町"},"4890035":{"post_code":"4890035","prefecture":"AICHI KEN","city":"SETO SHI","town":"KONYADACHO","perfecture_jp":"愛知県","jp_add_1":"瀬戸市","jp_add_2":"紺屋田町"},"4890818":{"post_code":"4890818","prefecture":"AICHI KEN","city":"SETO SHI","town":"SAIWAICHO","perfecture_jp":"愛知県","jp_add_1":"瀬戸市","jp_add_2":"幸町"},"4890977":{"post_code":"4890977","prefecture":"AICHI KEN","city":"SETO SHI","town":"SAKAUECHO","perfecture_jp":"愛知県","jp_add_1":"瀬戸市","jp_add_2":"坂上町"},"4890044":{"post_code":"4890044","prefecture":"AICHI KEN","city":"SETO SHI","town":"SAKAEMACHI","perfecture_jp":"愛知県","jp_add_1":"瀬戸市","jp_add_2":"栄町"},"4890982":{"post_code":"4890982","prefecture":"AICHI KEN","city":"SETO SHI","town":"SATSUKIDAI","perfecture_jp":"愛知県","jp_add_1":"瀬戸市","jp_add_2":"さつき台"},"4890895":{"post_code":"4890895","prefecture":"AICHI KEN","city":"SETO SHI","town":"SHIOKUSACHO","perfecture_jp":"愛知県","jp_add_1":"瀬戸市","jp_add_2":"塩草町"},"4890901":{"post_code":"4890901","prefecture":"AICHI KEN","city":"SETO SHI","town":"JIKKENCHO","perfecture_jp":"愛知県","jp_add_1":"瀬戸市","jp_add_2":"十軒町"},"4890051":{"post_code":"4890051","prefecture":"AICHI KEN","city":"SETO SHI","town":"SHIMOJINYACHO","perfecture_jp":"愛知県","jp_add_1":"瀬戸市","jp_add_2":"下陣屋町"},"4890017":{"post_code":"4890017","prefecture":"AICHI KEN","city":"SETO SHI","town":"SHIRASAKACHO","perfecture_jp":"愛知県","jp_add_1":"瀬戸市","jp_add_2":"白坂町"},"4890924":{"post_code":"4890924","prefecture":"AICHI KEN","city":"SETO SHI","town":"SHIROGANECHO","perfecture_jp":"愛知県","jp_add_1":"瀬戸市","jp_add_2":"城ケ根町"},"4890923":{"post_code":"4890923","prefecture":"AICHI KEN","city":"SETO SHI","town":"SHIROYASHIKICHO","perfecture_jp":"愛知県","jp_add_1":"瀬戸市","jp_add_2":"城屋敷町"},"4890873":{"post_code":"4890873","prefecture":"AICHI KEN","city":"SETO SHI","town":"SHINGOCHO","perfecture_jp":"愛知県","jp_add_1":"瀬戸市","jp_add_2":"新郷町"},"4890949":{"post_code":"4890949","prefecture":"AICHI KEN","city":"SETO SHI","town":"SHINDENCHO","perfecture_jp":"愛知県","jp_add_1":"瀬戸市","jp_add_2":"新田町"},"4890058":{"post_code":"4890058","prefecture":"AICHI KEN","city":"SETO SHI","town":"SHINTOCHO","perfecture_jp":"愛知県","jp_add_1":"瀬戸市","jp_add_2":"進陶町"},"4890075":{"post_code":"4890075","prefecture":"AICHI KEN","city":"SETO SHI","town":"SHINDOCHO","perfecture_jp":"愛知県","jp_add_1":"瀬戸市","jp_add_2":"新道町"},"4890849":{"post_code":"4890849","prefecture":"AICHI KEN","city":"SETO SHI","town":"SHIMMEICHO","perfecture_jp":"愛知県","jp_add_1":"瀬戸市","jp_add_2":"新明町"},"4890913":{"post_code":"4890913","prefecture":"AICHI KEN","city":"SETO SHI","town":"SUINANCHO","perfecture_jp":"愛知県","jp_add_1":"瀬戸市","jp_add_2":"水南町"},"4890009":{"post_code":"4890009","prefecture":"AICHI KEN","city":"SETO SHI","town":"SUIHOKUCHO","perfecture_jp":"愛知県","jp_add_1":"瀬戸市","jp_add_2":"水北町"},"4890814":{"post_code":"4890814","prefecture":"AICHI KEN","city":"SETO SHI","town":"SUEHIROCHO","perfecture_jp":"愛知県","jp_add_1":"瀬戸市","jp_add_2":"末広町"},"4890822":{"post_code":"4890822","prefecture":"AICHI KEN","city":"SETO SHI","town":"SUGITSUKACHO","perfecture_jp":"愛知県","jp_add_1":"瀬戸市","jp_add_2":"杉塚町"},"4890033":{"post_code":"4890033","prefecture":"AICHI KEN","city":"SETO SHI","town":"SUHARACHO","perfecture_jp":"愛知県","jp_add_1":"瀬戸市","jp_add_2":"須原町"},"4890904":{"post_code":"4890904","prefecture":"AICHI KEN","city":"SETO SHI","town":"SUMIREDAI","perfecture_jp":"愛知県","jp_add_1":"瀬戸市","jp_add_2":"すみれ台"},"4890863":{"post_code":"4890863","prefecture":"AICHI KEN","city":"SETO SHI","town":"SEIREICHO","perfecture_jp":"愛知県","jp_add_1":"瀬戸市","jp_add_2":"せいれい町"},"4890041":{"post_code":"4890041","prefecture":"AICHI KEN","city":"SETO SHI","town":"SETOGAWACHO","perfecture_jp":"愛知県","jp_add_1":"瀬戸市","jp_add_2":"背戸側町"},"4890941":{"post_code":"4890941","prefecture":"AICHI KEN","city":"SETO SHI","town":"SETOGUCHICHO","perfecture_jp":"愛知県","jp_add_1":"瀬戸市","jp_add_2":"瀬戸口町"},"4890843":{"post_code":"4890843","prefecture":"AICHI KEN","city":"SETO SHI","town":"SOSAKUCHO","perfecture_jp":"愛知県","jp_add_1":"瀬戸市","jp_add_2":"惣作町"},"4890008":{"post_code":"4890008","prefecture":"AICHI KEN","city":"SETO SHI","town":"SONOCHO","perfecture_jp":"愛知県","jp_add_1":"瀬戸市","jp_add_2":"曽野町"},"4890825":{"post_code":"4890825","prefecture":"AICHI KEN","city":"SETO SHI","town":"SOBOKAICHO","perfecture_jp":"愛知県","jp_add_1":"瀬戸市","jp_add_2":"祖母懐町"},"4890846":{"post_code":"4890846","prefecture":"AICHI KEN","city":"SETO SHI","town":"TAISHICHO","perfecture_jp":"愛知県","jp_add_1":"瀬戸市","jp_add_2":"太子町"},"4890954":{"post_code":"4890954","prefecture":"AICHI KEN","city":"SETO SHI","town":"DAIROKUCHO","perfecture_jp":"愛知県","jp_add_1":"瀬戸市","jp_add_2":"台六町"},"4890931":{"post_code":"4890931","prefecture":"AICHI KEN","city":"SETO SHI","town":"TAKANECHO","perfecture_jp":"愛知県","jp_add_1":"瀬戸市","jp_add_2":"高根町"},"4890896":{"post_code":"4890896","prefecture":"AICHI KEN","city":"SETO SHI","town":"TAKARAGAOKACHO","perfecture_jp":"愛知県","jp_add_1":"瀬戸市","jp_add_2":"宝ケ丘町"},"4890055":{"post_code":"4890055","prefecture":"AICHI KEN","city":"SETO SHI","town":"TAKINOYUCHO","perfecture_jp":"愛知県","jp_add_1":"瀬戸市","jp_add_2":"滝之湯町"},"4890025":{"post_code":"4890025","prefecture":"AICHI KEN","city":"SETO SHI","town":"TAKOYAMACHO","perfecture_jp":"愛知県","jp_add_1":"瀬戸市","jp_add_2":"凧山町"},"4890961":{"post_code":"4890961","prefecture":"AICHI KEN","city":"SETO SHI","town":"TANAKACHO","perfecture_jp":"愛知県","jp_add_1":"瀬戸市","jp_add_2":"田中町"},"4890921":{"post_code":"4890921","prefecture":"AICHI KEN","city":"SETO SHI","town":"TABATACHO","perfecture_jp":"愛知県","jp_add_1":"瀬戸市","jp_add_2":"田端町"},"4890838":{"post_code":"4890838","prefecture":"AICHI KEN","city":"SETO SHI","town":"TERAMOTOCHO","perfecture_jp":"愛知県","jp_add_1":"瀬戸市","jp_add_2":"寺本町"},"4890891":{"post_code":"4890891","prefecture":"AICHI KEN","city":"SETO SHI","town":"TOEICHO","perfecture_jp":"愛知県","jp_add_1":"瀬戸市","jp_add_2":"陶栄町"},"4890805":{"post_code":"4890805","prefecture":"AICHI KEN","city":"SETO SHI","town":"TOGENCHO","perfecture_jp":"愛知県","jp_add_1":"瀬戸市","jp_add_2":"陶原町"},"4890823":{"post_code":"4890823","prefecture":"AICHI KEN","city":"SETO SHI","town":"TOGOCHO","perfecture_jp":"愛知県","jp_add_1":"瀬戸市","jp_add_2":"東郷町"},"4890831":{"post_code":"4890831","prefecture":"AICHI KEN","city":"SETO SHI","town":"TOSHIROCHO","perfecture_jp":"愛知県","jp_add_1":"瀬戸市","jp_add_2":"藤四郎町"},"4890827":{"post_code":"4890827","prefecture":"AICHI KEN","city":"SETO SHI","town":"TOSEICHO","perfecture_jp":"愛知県","jp_add_1":"瀬戸市","jp_add_2":"陶生町"},"4890054":{"post_code":"4890054","prefecture":"AICHI KEN","city":"SETO SHI","town":"DOSENCHO","perfecture_jp":"愛知県","jp_add_1":"瀬戸市","jp_add_2":"道泉町"},"4890045":{"post_code":"4890045","prefecture":"AICHI KEN","city":"SETO SHI","town":"TOHONCHO","perfecture_jp":"愛知県","jp_add_1":"瀬戸市","jp_add_2":"陶本町"},"4890026":{"post_code":"4890026","prefecture":"AICHI KEN","city":"SETO SHI","town":"TOMEICHO","perfecture_jp":"愛知県","jp_add_1":"瀬戸市","jp_add_2":"東明町"},"4890983":{"post_code":"4890983","prefecture":"AICHI KEN","city":"SETO SHI","town":"NAEBACHO","perfecture_jp":"愛知県","jp_add_1":"瀬戸市","jp_add_2":"苗場町"},"4890042":{"post_code":"4890042","prefecture":"AICHI KEN","city":"SETO SHI","town":"NAKAGIRICHO","perfecture_jp":"愛知県","jp_add_1":"瀬戸市","jp_add_2":"仲切町"},"4890824":{"post_code":"4890824","prefecture":"AICHI KEN","city":"SETO SHI","town":"NAKAGOCHO","perfecture_jp":"愛知県","jp_add_1":"瀬戸市","jp_add_2":"仲郷町"},"4890013":{"post_code":"4890013","prefecture":"AICHI KEN","city":"SETO SHI","town":"NAKASHIRASAKACHO","perfecture_jp":"愛知県","jp_add_1":"瀬戸市","jp_add_2":"中白坂町"},"4890029":{"post_code":"4890029","prefecture":"AICHI KEN","city":"SETO SHI","town":"NAKABATACHO","perfecture_jp":"愛知県","jp_add_1":"瀬戸市","jp_add_2":"中畑町"},"4890833":{"post_code":"4890833","prefecture":"AICHI KEN","city":"SETO SHI","town":"NAKABORACHO","perfecture_jp":"愛知県","jp_add_1":"瀬戸市","jp_add_2":"仲洞町"},"4890005":{"post_code":"4890005","prefecture":"AICHI KEN","city":"SETO SHI","town":"NAKAMIZUNOCHO","perfecture_jp":"愛知県","jp_add_1":"瀬戸市","jp_add_2":"中水野町"},"4890835":{"post_code":"4890835","prefecture":"AICHI KEN","city":"SETO SHI","town":"NAKAYAMACHO","perfecture_jp":"愛知県","jp_add_1":"瀬戸市","jp_add_2":"中山町"},"4890884":{"post_code":"4890884","prefecture":"AICHI KEN","city":"SETO SHI","town":"NISHIIBARACHO","perfecture_jp":"愛知県","jp_add_1":"瀬戸市","jp_add_2":"西茨町"},"4890079":{"post_code":"4890079","prefecture":"AICHI KEN","city":"SETO SHI","town":"NISHIINZOCHO","perfecture_jp":"愛知県","jp_add_1":"瀬戸市","jp_add_2":"西印所町"},"4890065":{"post_code":"4890065","prefecture":"AICHI KEN","city":"SETO SHI","town":"NISHIOIWAKECHO","perfecture_jp":"愛知県","jp_add_1":"瀬戸市","jp_add_2":"西追分町"},"4890028":{"post_code":"4890028","prefecture":"AICHI KEN","city":"SETO SHI","town":"NISHIGAMACHO","perfecture_jp":"愛知県","jp_add_1":"瀬戸市","jp_add_2":"西窯町"},"4890812":{"post_code":"4890812","prefecture":"AICHI KEN","city":"SETO SHI","town":"NISHIKURASHOCHO","perfecture_jp":"愛知県","jp_add_1":"瀬戸市","jp_add_2":"西蔵所町"},"4890036":{"post_code":"4890036","prefecture":"AICHI KEN","city":"SETO SHI","town":"NISHIKOSETOCHO","perfecture_jp":"愛知県","jp_add_1":"瀬戸市","jp_add_2":"西古瀬戸町"},"4890943":{"post_code":"4890943","prefecture":"AICHI KEN","city":"SETO SHI","town":"NISHIKOMEIZUMICHO","perfecture_jp":"愛知県","jp_add_1":"瀬戸市","jp_add_2":"西米泉町"},"4890829":{"post_code":"4890829","prefecture":"AICHI KEN","city":"SETO SHI","town":"NISHIGOCHO","perfecture_jp":"愛知県","jp_add_1":"瀬戸市","jp_add_2":"西郷町"},"4890882":{"post_code":"4890882","prefecture":"AICHI KEN","city":"SETO SHI","town":"NISHIGONGENCHO","perfecture_jp":"愛知県","jp_add_1":"瀬戸市","jp_add_2":"西権現町"},"4890018":{"post_code":"4890018","prefecture":"AICHI KEN","city":"SETO SHI","town":"NISHISHIRASAKACHO","perfecture_jp":"愛知県","jp_add_1":"瀬戸市","jp_add_2":"西白坂町"},"4890047":{"post_code":"4890047","prefecture":"AICHI KEN","city":"SETO SHI","town":"NISHIDANICHO","perfecture_jp":"愛知県","jp_add_1":"瀬戸市","jp_add_2":"西谷町"},"4890925":{"post_code":"4890925","prefecture":"AICHI KEN","city":"SETO SHI","town":"NISHITERAYAMACHO","perfecture_jp":"愛知県","jp_add_1":"瀬戸市","jp_add_2":"西寺山町"},"4890057":{"post_code":"4890057","prefecture":"AICHI KEN","city":"SETO SHI","town":"NISHITOMIZUKACHO","perfecture_jp":"愛知県","jp_add_1":"瀬戸市","jp_add_2":"西十三塚町"},"4890929":{"post_code":"4890929","prefecture":"AICHI KEN","city":"SETO SHI","town":"NISHINAGANECHO","perfecture_jp":"愛知県","jp_add_1":"瀬戸市","jp_add_2":"西長根町"},"4890848":{"post_code":"4890848","prefecture":"AICHI KEN","city":"SETO SHI","town":"NISHIHAITOCHO","perfecture_jp":"愛知県","jp_add_1":"瀬戸市","jp_add_2":"西拝戸町"},"4890972":{"post_code":"4890972","prefecture":"AICHI KEN","city":"SETO SHI","town":"NISHIHARACHO","perfecture_jp":"愛知県","jp_add_1":"瀬戸市","jp_add_2":"西原町"},"4890971":{"post_code":"4890971","prefecture":"AICHI KEN","city":"SETO SHI","town":"NISHIHONJICHO","perfecture_jp":"愛知県","jp_add_1":"瀬戸市","jp_add_2":"西本地町"},"4890819":{"post_code":"4890819","prefecture":"AICHI KEN","city":"SETO SHI","town":"NISHIHOMMACHI","perfecture_jp":"愛知県","jp_add_1":"瀬戸市","jp_add_2":"西本町"},"4890837":{"post_code":"4890837","prefecture":"AICHI KEN","city":"SETO SHI","town":"NISHIBORACHO","perfecture_jp":"愛知県","jp_add_1":"瀬戸市","jp_add_2":"西洞町"},"4890912":{"post_code":"4890912","prefecture":"AICHI KEN","city":"SETO SHI","town":"NISHIMATSUYAMACHO","perfecture_jp":"愛知県","jp_add_1":"瀬戸市","jp_add_2":"西松山町"},"4890851":{"post_code":"4890851","prefecture":"AICHI KEN","city":"SETO SHI","town":"NISHIYAMAJICHO","perfecture_jp":"愛知県","jp_add_1":"瀬戸市","jp_add_2":"西山路町"},"4890987":{"post_code":"4890987","prefecture":"AICHI KEN","city":"SETO SHI","town":"NISHIYAMACHO","perfecture_jp":"愛知県","jp_add_1":"瀬戸市","jp_add_2":"西山町"},"4890807":{"post_code":"4890807","prefecture":"AICHI KEN","city":"SETO SHI","town":"NISHIYOSHIDACHO","perfecture_jp":"愛知県","jp_add_1":"瀬戸市","jp_add_2":"西吉田町"},"4890936":{"post_code":"4890936","prefecture":"AICHI KEN","city":"SETO SHI","town":"NISHIWAKICHO","perfecture_jp":"愛知県","jp_add_1":"瀬戸市","jp_add_2":"西脇町"},"4890885":{"post_code":"4890885","prefecture":"AICHI KEN","city":"SETO SHI","town":"HAGIDONOCHO","perfecture_jp":"愛知県","jp_add_1":"瀬戸市","jp_add_2":"萩殿町"},"4890905":{"post_code":"4890905","prefecture":"AICHI KEN","city":"SETO SHI","town":"HAGINODAI","perfecture_jp":"愛知県","jp_add_1":"瀬戸市","jp_add_2":"はぎの台"},"4890886":{"post_code":"4890886","prefecture":"AICHI KEN","city":"SETO SHI","town":"HAGIYAMADAI","perfecture_jp":"愛知県","jp_add_1":"瀬戸市","jp_add_2":"萩山台"},"4890876":{"post_code":"4890876","prefecture":"AICHI KEN","city":"SETO SHI","town":"HAKUSANCHO","perfecture_jp":"愛知県","jp_add_1":"瀬戸市","jp_add_2":"白山町"},"4890852":{"post_code":"4890852","prefecture":"AICHI KEN","city":"SETO SHI","town":"HAZAMACHO","perfecture_jp":"愛知県","jp_add_1":"瀬戸市","jp_add_2":"巡間町"},"4890012":{"post_code":"4890012","prefecture":"AICHI KEN","city":"SETO SHI","town":"HASEGUCHICHO","perfecture_jp":"愛知県","jp_add_1":"瀬戸市","jp_add_2":"長谷口町"},"4890946":{"post_code":"4890946","prefecture":"AICHI KEN","city":"SETO SHI","town":"HATANAKACHO","perfecture_jp":"愛知県","jp_add_1":"瀬戸市","jp_add_2":"幡中町"},"4890938":{"post_code":"4890938","prefecture":"AICHI KEN","city":"SETO SHI","town":"HATANISHICHO","perfecture_jp":"愛知県","jp_add_1":"瀬戸市","jp_add_2":"幡西町"},"4890874":{"post_code":"4890874","prefecture":"AICHI KEN","city":"SETO SHI","town":"HATANOCHO","perfecture_jp":"愛知県","jp_add_1":"瀬戸市","jp_add_2":"幡野町"},"4890948":{"post_code":"4890948","prefecture":"AICHI KEN","city":"SETO SHI","town":"HATAYAMACHO","perfecture_jp":"愛知県","jp_add_1":"瀬戸市","jp_add_2":"幡山町"},"4890024":{"post_code":"4890024","prefecture":"AICHI KEN","city":"SETO SHI","town":"HACHIOJICHO","perfecture_jp":"愛知県","jp_add_1":"瀬戸市","jp_add_2":"八王子町"},"4890861":{"post_code":"4890861","prefecture":"AICHI KEN","city":"SETO SHI","town":"HACHIMANDAI","perfecture_jp":"愛知県","jp_add_1":"瀬戸市","jp_add_2":"八幡台"},"4890862":{"post_code":"4890862","prefecture":"AICHI KEN","city":"SETO SHI","town":"HACHIMANCHO","perfecture_jp":"愛知県","jp_add_1":"瀬戸市","jp_add_2":"八幡町"},"4890034":{"post_code":"4890034","prefecture":"AICHI KEN","city":"SETO SHI","town":"HANEDACHO","perfecture_jp":"愛知県","jp_add_1":"瀬戸市","jp_add_2":"刎田町"},"4890947":{"post_code":"4890947","prefecture":"AICHI KEN","city":"SETO SHI","town":"HANECHO","perfecture_jp":"愛知県","jp_add_1":"瀬戸市","jp_add_2":"羽根町"},"4890888":{"post_code":"4890888","prefecture":"AICHI KEN","city":"SETO SHI","town":"HARAYAMADAI","perfecture_jp":"愛知県","jp_add_1":"瀬戸市","jp_add_2":"原山台"},"4890889":{"post_code":"4890889","prefecture":"AICHI KEN","city":"SETO SHI","town":"HARAYAMACHO","perfecture_jp":"愛知県","jp_add_1":"瀬戸市","jp_add_2":"原山町"},"4890011":{"post_code":"4890011","prefecture":"AICHI KEN","city":"SETO SHI","town":"HARIHARACHO","perfecture_jp":"愛知県","jp_add_1":"瀬戸市","jp_add_2":"針原町"},"4890893":{"post_code":"4890893","prefecture":"AICHI KEN","city":"SETO SHI","town":"HARUSAMECHO","perfecture_jp":"愛知県","jp_add_1":"瀬戸市","jp_add_2":"春雨町"},"4890877":{"post_code":"4890877","prefecture":"AICHI KEN","city":"SETO SHI","town":"HIGASHIAKASHIGECHO","perfecture_jp":"愛知県","jp_add_1":"瀬戸市","jp_add_2":"東赤重町"},"4890897":{"post_code":"4890897","prefecture":"AICHI KEN","city":"SETO SHI","town":"HIGASHIIBARACHO","perfecture_jp":"愛知県","jp_add_1":"瀬戸市","jp_add_2":"東茨町"},"4890072":{"post_code":"4890072","prefecture":"AICHI KEN","city":"SETO SHI","town":"HIGASHIINZOCHO","perfecture_jp":"愛知県","jp_add_1":"瀬戸市","jp_add_2":"東印所町"},"4890037":{"post_code":"4890037","prefecture":"AICHI KEN","city":"SETO SHI","town":"HIGASHIKOSETOCHO","perfecture_jp":"愛知県","jp_add_1":"瀬戸市","jp_add_2":"東古瀬戸町"},"4890944":{"post_code":"4890944","prefecture":"AICHI KEN","city":"SETO SHI","town":"HIGASHIKOMEIZUMICHO","perfecture_jp":"愛知県","jp_add_1":"瀬戸市","jp_add_2":"東米泉町"},"4890883":{"post_code":"4890883","prefecture":"AICHI KEN","city":"SETO SHI","town":"HIGASHIGONGENCHO","perfecture_jp":"愛知県","jp_add_1":"瀬戸市","jp_add_2":"東権現町"},"4890015":{"post_code":"4890015","prefecture":"AICHI KEN","city":"SETO SHI","town":"HIGASHISHIRASAKACHO","perfecture_jp":"愛知県","jp_add_1":"瀬戸市","jp_add_2":"東白坂町"},"4890928":{"post_code":"4890928","prefecture":"AICHI KEN","city":"SETO SHI","town":"HIGASHITERAYAMACHO","perfecture_jp":"愛知県","jp_add_1":"瀬戸市","jp_add_2":"東寺山町"},"4890056":{"post_code":"4890056","prefecture":"AICHI KEN","city":"SETO SHI","town":"HIGASHITOMIZUKACHO","perfecture_jp":"愛知県","jp_add_1":"瀬戸市","jp_add_2":"東十三塚町"},"4890871":{"post_code":"4890871","prefecture":"AICHI KEN","city":"SETO SHI","town":"HIGASHINAGANECHO","perfecture_jp":"愛知県","jp_add_1":"瀬戸市","jp_add_2":"東長根町"},"4890027":{"post_code":"4890027","prefecture":"AICHI KEN","city":"SETO SHI","town":"HIGASHIHAIDOCHO","perfecture_jp":"愛知県","jp_add_1":"瀬戸市","jp_add_2":"東拝戸町"},"4890942":{"post_code":"4890942","prefecture":"AICHI KEN","city":"SETO SHI","town":"HIGASHIHISHINOCHO","perfecture_jp":"愛知県","jp_add_1":"瀬戸市","jp_add_2":"東菱野町"},"4890973":{"post_code":"4890973","prefecture":"AICHI KEN","city":"SETO SHI","town":"HIGASHIHONJICHO","perfecture_jp":"愛知県","jp_add_1":"瀬戸市","jp_add_2":"東本地町"},"4890816":{"post_code":"4890816","prefecture":"AICHI KEN","city":"SETO SHI","town":"HIGASHIHOMMACHI","perfecture_jp":"愛知県","jp_add_1":"瀬戸市","jp_add_2":"東本町"},"4890841":{"post_code":"4890841","prefecture":"AICHI KEN","city":"SETO SHI","town":"HIGASHIBORACHO","perfecture_jp":"愛知県","jp_add_1":"瀬戸市","jp_add_2":"東洞町"},"4890069":{"post_code":"4890069","prefecture":"AICHI KEN","city":"SETO SHI","town":"HIGASHIMATSUYAMACHO","perfecture_jp":"愛知県","jp_add_1":"瀬戸市","jp_add_2":"東松山町"},"4890053":{"post_code":"4890053","prefecture":"AICHI KEN","city":"SETO SHI","town":"HIGASHIYASUDOCHO","perfecture_jp":"愛知県","jp_add_1":"瀬戸市","jp_add_2":"東安戸町"},"4890854":{"post_code":"4890854","prefecture":"AICHI KEN","city":"SETO SHI","town":"HIGASHIYAMAJICHO","perfecture_jp":"愛知県","jp_add_1":"瀬戸市","jp_add_2":"東山路町"},"4890988":{"post_code":"4890988","prefecture":"AICHI KEN","city":"SETO SHI","town":"HIGASHIYAMACHO","perfecture_jp":"愛知県","jp_add_1":"瀬戸市","jp_add_2":"東山町"},"4890066":{"post_code":"4890066","prefecture":"AICHI KEN","city":"SETO SHI","town":"HIGASHIYOKOYAMACHO","perfecture_jp":"愛知県","jp_add_1":"瀬戸市","jp_add_2":"東横山町"},"4890806":{"post_code":"4890806","prefecture":"AICHI KEN","city":"SETO SHI","town":"HIGASHIYOSHIDACHO","perfecture_jp":"愛知県","jp_add_1":"瀬戸市","jp_add_2":"東吉田町"},"4890887":{"post_code":"4890887","prefecture":"AICHI KEN","city":"SETO SHI","town":"HISHINODAI","perfecture_jp":"愛知県","jp_add_1":"瀬戸市","jp_add_2":"菱野台"},"4890934":{"post_code":"4890934","prefecture":"AICHI KEN","city":"SETO SHI","town":"HISHINOCHO","perfecture_jp":"愛知県","jp_add_1":"瀬戸市","jp_add_2":"菱野町"},"4890004":{"post_code":"4890004","prefecture":"AICHI KEN","city":"SETO SHI","town":"HINODECHO","perfecture_jp":"愛知県","jp_add_1":"瀬戸市","jp_add_2":"日の出町"},"4890981":{"post_code":"4890981","prefecture":"AICHI KEN","city":"SETO SHI","town":"HIMAWARIDAI","perfecture_jp":"愛知県","jp_add_1":"瀬戸市","jp_add_2":"ひまわり台"},"4890916":{"post_code":"4890916","prefecture":"AICHI KEN","city":"SETO SHI","town":"HIRAMACHI","perfecture_jp":"愛知県","jp_add_1":"瀬戸市","jp_add_2":"平町"},"4890856":{"post_code":"4890856","prefecture":"AICHI KEN","city":"SETO SHI","town":"HIROKUTECHO","perfecture_jp":"愛知県","jp_add_1":"瀬戸市","jp_add_2":"広久手町"},"4890076":{"post_code":"4890076","prefecture":"AICHI KEN","city":"SETO SHI","town":"FUKAGAWACHO","perfecture_jp":"愛知県","jp_add_1":"瀬戸市","jp_add_2":"深川町"},"4890935":{"post_code":"4890935","prefecture":"AICHI KEN","city":"SETO SHI","town":"FUKUMOTOCHO","perfecture_jp":"愛知県","jp_add_1":"瀬戸市","jp_add_2":"福元町"},"4890907":{"post_code":"4890907","prefecture":"AICHI KEN","city":"SETO SHI","town":"FUJINODAI","perfecture_jp":"愛知県","jp_add_1":"瀬戸市","jp_add_2":"ふじの台"},"4890945":{"post_code":"4890945","prefecture":"AICHI KEN","city":"SETO SHI","town":"BENTENCHO","perfecture_jp":"愛知県","jp_add_1":"瀬戸市","jp_add_2":"弁天町"},"4890979":{"post_code":"4890979","prefecture":"AICHI KEN","city":"SETO SHI","town":"BOGANECHO","perfecture_jp":"愛知県","jp_add_1":"瀬戸市","jp_add_2":"坊金町"},"4890906":{"post_code":"4890906","prefecture":"AICHI KEN","city":"SETO SHI","town":"HONGOCHO","perfecture_jp":"愛知県","jp_add_1":"瀬戸市","jp_add_2":"本郷町"},"4890828":{"post_code":"4890828","prefecture":"AICHI KEN","city":"SETO SHI","town":"MAEDACHO","perfecture_jp":"愛知県","jp_add_1":"瀬戸市","jp_add_2":"前田町"},"4890914":{"post_code":"4890914","prefecture":"AICHI KEN","city":"SETO SHI","town":"MAGOTACHO","perfecture_jp":"愛知県","jp_add_1":"瀬戸市","jp_add_2":"孫田町"},"4890985":{"post_code":"4890985","prefecture":"AICHI KEN","city":"SETO SHI","town":"MATSUBARACHO","perfecture_jp":"愛知県","jp_add_1":"瀬戸市","jp_add_2":"松原町"},"4890006":{"post_code":"4890006","prefecture":"AICHI KEN","city":"SETO SHI","town":"MISAWACHO","perfecture_jp":"愛知県","jp_add_1":"瀬戸市","jp_add_2":"三沢町"},"4890909":{"post_code":"4890909","prefecture":"AICHI KEN","city":"SETO SHI","town":"MIZUNOZAKA","perfecture_jp":"愛知県","jp_add_1":"瀬戸市","jp_add_2":"みずの坂"},"4890808":{"post_code":"4890808","prefecture":"AICHI KEN","city":"SETO SHI","town":"MITSUKECHO","perfecture_jp":"愛知県","jp_add_1":"瀬戸市","jp_add_2":"見付町"},"4890875":{"post_code":"4890875","prefecture":"AICHI KEN","city":"SETO SHI","town":"MIDORICHO","perfecture_jp":"愛知県","jp_add_1":"瀬戸市","jp_add_2":"緑町"},"4890872":{"post_code":"4890872","prefecture":"AICHI KEN","city":"SETO SHI","town":"MINASECHO","perfecture_jp":"愛知県","jp_add_1":"瀬戸市","jp_add_2":"水無瀬町"},"4890834":{"post_code":"4890834","prefecture":"AICHI KEN","city":"SETO SHI","town":"MINAMIAZUMACHO","perfecture_jp":"愛知県","jp_add_1":"瀬戸市","jp_add_2":"南東町"},"4890955":{"post_code":"4890955","prefecture":"AICHI KEN","city":"SETO SHI","town":"MINAMIGAOKACHO","perfecture_jp":"愛知県","jp_add_1":"瀬戸市","jp_add_2":"南ケ丘町"},"4890016":{"post_code":"4890016","prefecture":"AICHI KEN","city":"SETO SHI","town":"MINAMISHIRASAKACHO","perfecture_jp":"愛知県","jp_add_1":"瀬戸市","jp_add_2":"南白坂町"},"4890815":{"post_code":"4890815","prefecture":"AICHI KEN","city":"SETO SHI","town":"MINAMINAKANOKIRICHO","perfecture_jp":"愛知県","jp_add_1":"瀬戸市","jp_add_2":"南仲之切町"},"4890937":{"post_code":"4890937","prefecture":"AICHI KEN","city":"SETO SHI","town":"MINAMIHISHINOCHO","perfecture_jp":"愛知県","jp_add_1":"瀬戸市","jp_add_2":"南菱野町"},"4890965":{"post_code":"4890965","prefecture":"AICHI KEN","city":"SETO SHI","town":"MINAMIYAMAGUCHICHO","perfecture_jp":"愛知県","jp_add_1":"瀬戸市","jp_add_2":"南山口町"},"4890986":{"post_code":"4890986","prefecture":"AICHI KEN","city":"SETO SHI","town":"MINAMIYAMACHO","perfecture_jp":"愛知県","jp_add_1":"瀬戸市","jp_add_2":"南山町"},"4890932":{"post_code":"4890932","prefecture":"AICHI KEN","city":"SETO SHI","town":"MINONOIKECHO","perfecture_jp":"愛知県","jp_add_1":"瀬戸市","jp_add_2":"美濃池町"},"4890077":{"post_code":"4890077","prefecture":"AICHI KEN","city":"SETO SHI","town":"MIYAZATOCHO","perfecture_jp":"愛知県","jp_add_1":"瀬戸市","jp_add_2":"宮里町"},"4890963":{"post_code":"4890963","prefecture":"AICHI KEN","city":"SETO SHI","town":"MIYAJICHO","perfecture_jp":"愛知県","jp_add_1":"瀬戸市","jp_add_2":"宮地町"},"4890074":{"post_code":"4890074","prefecture":"AICHI KEN","city":"SETO SHI","town":"MIYAWAKICHO","perfecture_jp":"愛知県","jp_add_1":"瀬戸市","jp_add_2":"宮脇町"},"4890046":{"post_code":"4890046","prefecture":"AICHI KEN","city":"SETO SHI","town":"MOTOMACHI","perfecture_jp":"愛知県","jp_add_1":"瀬戸市","jp_add_2":"元町"},"4890844":{"post_code":"4890844","prefecture":"AICHI KEN","city":"SETO SHI","town":"MONZENCHO","perfecture_jp":"愛知県","jp_add_1":"瀬戸市","jp_add_2":"門前町"},"4890866":{"post_code":"4890866","prefecture":"AICHI KEN","city":"SETO SHI","town":"YAKATACHO","perfecture_jp":"愛知県","jp_add_1":"瀬戸市","jp_add_2":"矢形町"},"4890821":{"post_code":"4890821","prefecture":"AICHI KEN","city":"SETO SHI","town":"YAKUSHIMACHI","perfecture_jp":"愛知県","jp_add_1":"瀬戸市","jp_add_2":"薬師町"},"4890052":{"post_code":"4890052","prefecture":"AICHI KEN","city":"SETO SHI","town":"YASUDOCHO","perfecture_jp":"愛知県","jp_add_1":"瀬戸市","jp_add_2":"安戸町"},"4890858":{"post_code":"4890858","prefecture":"AICHI KEN","city":"SETO SHI","town":"YATOCHO","perfecture_jp":"愛知県","jp_add_1":"瀬戸市","jp_add_2":"屋戸町"},"4890953":{"post_code":"4890953","prefecture":"AICHI KEN","city":"SETO SHI","town":"YANAGATSUBOCHO","perfecture_jp":"愛知県","jp_add_1":"瀬戸市","jp_add_2":"柳ケ坪町"},"4890865":{"post_code":"4890865","prefecture":"AICHI KEN","city":"SETO SHI","town":"YAMAGUCHICHO","perfecture_jp":"愛知県","jp_add_1":"瀬戸市","jp_add_2":"山口町"},"4890859":{"post_code":"4890859","prefecture":"AICHI KEN","city":"SETO SHI","town":"YAMAJICHO","perfecture_jp":"愛知県","jp_add_1":"瀬戸市","jp_add_2":"山路町"},"4890980":{"post_code":"4890980","prefecture":"AICHI KEN","city":"SETO SHI","town":"YAMATEZAKA","perfecture_jp":"愛知県","jp_add_1":"瀬戸市","jp_add_2":"やまて坂"},"4890989":{"post_code":"4890989","prefecture":"AICHI KEN","city":"SETO SHI","town":"YAMATECHO","perfecture_jp":"愛知県","jp_add_1":"瀬戸市","jp_add_2":"山手町"},"4890975":{"post_code":"4890975","prefecture":"AICHI KEN","city":"SETO SHI","town":"YAMANOTACHO","perfecture_jp":"愛知県","jp_add_1":"瀬戸市","jp_add_2":"山の田町"},"4890811":{"post_code":"4890811","prefecture":"AICHI KEN","city":"SETO SHI","town":"YAMAWAKICHO","perfecture_jp":"愛知県","jp_add_1":"瀬戸市","jp_add_2":"山脇町"},"4890078":{"post_code":"4890078","prefecture":"AICHI KEN","city":"SETO SHI","town":"YUNONECHO","perfecture_jp":"愛知県","jp_add_1":"瀬戸市","jp_add_2":"湯之根町"},"4890903":{"post_code":"4890903","prefecture":"AICHI KEN","city":"SETO SHI","town":"YURINODAI","perfecture_jp":"愛知県","jp_add_1":"瀬戸市","jp_add_2":"ゆりの台"},"4890857":{"post_code":"4890857","prefecture":"AICHI KEN","city":"SETO SHI","town":"YOSHINOCHO","perfecture_jp":"愛知県","jp_add_1":"瀬戸市","jp_add_2":"吉野町"},"4890002":{"post_code":"4890002","prefecture":"AICHI KEN","city":"SETO SHI","town":"YODOKOCHO","perfecture_jp":"愛知県","jp_add_1":"瀬戸市","jp_add_2":"余床町"},"4890864":{"post_code":"4890864","prefecture":"AICHI KEN","city":"SETO SHI","town":"WAKAMIYACHO","perfecture_jp":"愛知県","jp_add_1":"瀬戸市","jp_add_2":"若宮町"}}