{"4901303":{"post_code":"4901303","prefecture":"AICHI KEN","city":"INAZAWA SHI","town":"HEIWACHO KAMIMIYAKE","perfecture_jp":"愛知県","jp_add_1":"稲沢市","jp_add_2":"平和町上三宅"},"4901302":{"post_code":"4901302","prefecture":"AICHI KEN","city":"INAZAWA SHI","town":"HEIWACHO KANNONDO","perfecture_jp":"愛知県","jp_add_1":"稲沢市","jp_add_2":"平和町観音堂"},"4901314":{"post_code":"4901314","prefecture":"AICHI KEN","city":"INAZAWA SHI","town":"HEIWACHO SAIKOBO","perfecture_jp":"愛知県","jp_add_1":"稲沢市","jp_add_2":"平和町西光坊"},"4901312":{"post_code":"4901312","prefecture":"AICHI KEN","city":"INAZAWA SHI","town":"HEIWACHO SHIMOMIYAKE","perfecture_jp":"愛知県","jp_add_1":"稲沢市","jp_add_2":"平和町下三宅"},"4901301":{"post_code":"4901301","prefecture":"AICHI KEN","city":"INAZAWA SHI","town":"HEIWACHO SUKATANI","perfecture_jp":"愛知県","jp_add_1":"稲沢市","jp_add_2":"平和町須ケ谷"},"4901321":{"post_code":"4901321","prefecture":"AICHI KEN","city":"INAZAWA SHI","town":"HEIWACHO TOJO","perfecture_jp":"愛知県","jp_add_1":"稲沢市","jp_add_2":"平和町東城"},"4901311":{"post_code":"4901311","prefecture":"AICHI KEN","city":"INAZAWA SHI","town":"HEIWACHO NAKAMIYAKE","perfecture_jp":"愛知県","jp_add_1":"稲沢市","jp_add_2":"平和町中三宅"},"4901315":{"post_code":"4901315","prefecture":"AICHI KEN","city":"INAZAWA SHI","town":"HEIWACHO HIRAIKE","perfecture_jp":"愛知県","jp_add_1":"稲沢市","jp_add_2":"平和町平池"},"4901304":{"post_code":"4901304","prefecture":"AICHI KEN","city":"INAZAWA SHI","town":"HEIWACHO HORYU","perfecture_jp":"愛知県","jp_add_1":"稲沢市","jp_add_2":"平和町法立"},"4901313":{"post_code":"4901313","prefecture":"AICHI KEN","city":"INAZAWA SHI","town":"HEIWACHO YOKOIKE","perfecture_jp":"愛知県","jp_add_1":"稲沢市","jp_add_2":"平和町横池"},"4901322":{"post_code":"4901322","prefecture":"AICHI KEN","city":"INAZAWA SHI","town":"HEIWACHO(KAMIMAENAMI.SHIMOMAENAMI)","perfecture_jp":"愛知県","jp_add_1":"稲沢市","jp_add_2":"平和町"},"4901323":{"post_code":"4901323","prefecture":"AICHI KEN","city":"INAZAWA SHI","town":"SHIRONOCHI.SUKAWAKI.NAKORA.HEIROKU.","perfecture_jp":"愛知県","jp_add_1":"稲沢市","jp_add_2":"平和町"},"4901305":{"post_code":"4901305","prefecture":"AICHI KEN","city":"INAZAWA SHI","town":"HEIWACHO(MARUBUCHIKAMI.MARUBUCHISHI","perfecture_jp":"愛知県","jp_add_1":"稲沢市","jp_add_2":"平和町"},"4901404":{"post_code":"4901404","prefecture":"AICHI KEN","city":"YATOMI SHI","town":"IKADABA","perfecture_jp":"愛知県","jp_add_1":"弥富市","jp_add_2":"桴場"},"4901412":{"post_code":"4901412","prefecture":"AICHI KEN","city":"YATOMI SHI","town":"UMAGANJI","perfecture_jp":"愛知県","jp_add_1":"弥富市","jp_add_2":"馬ケ地"},"4901423":{"post_code":"4901423","prefecture":"AICHI KEN","city":"YATOMI SHI","town":"KAIOKUCHO","perfecture_jp":"愛知県","jp_add_1":"弥富市","jp_add_2":"海屋"},"4901421":{"post_code":"4901421","prefecture":"AICHI KEN","city":"YATOMI SHI","town":"KAMIOSHIHAGICHO","perfecture_jp":"愛知県","jp_add_1":"弥富市","jp_add_2":"上押萩"},"4901424":{"post_code":"4901424","prefecture":"AICHI KEN","city":"YATOMI SHI","town":"KAMEGANJI","perfecture_jp":"愛知県","jp_add_1":"弥富市","jp_add_2":"亀ケ地"},"4901405":{"post_code":"4901405","prefecture":"AICHI KEN","city":"YATOMI SHI","town":"KANDOCHO","perfecture_jp":"愛知県","jp_add_1":"弥富市","jp_add_2":"神戸"},"4901413":{"post_code":"4901413","prefecture":"AICHI KEN","city":"YATOMI SHI","town":"KODAKARACHO","perfecture_jp":"愛知県","jp_add_1":"弥富市","jp_add_2":"子宝"},"4901402":{"post_code":"4901402","prefecture":"AICHI KEN","city":"YATOMI SHI","town":"GOTOYAMA","perfecture_jp":"愛知県","jp_add_1":"弥富市","jp_add_2":"五斗山"},"4901414":{"post_code":"4901414","prefecture":"AICHI KEN","city":"YATOMI SHI","town":"SAKANAKAJICHO","perfecture_jp":"愛知県","jp_add_1":"弥富市","jp_add_2":"坂中地"},"4901415":{"post_code":"4901415","prefecture":"AICHI KEN","city":"YATOMI SHI","town":"SAMEGANJICHO","perfecture_jp":"愛知県","jp_add_1":"弥富市","jp_add_2":"鮫ケ地"},"4901407":{"post_code":"4901407","prefecture":"AICHI KEN","city":"YATOMI SHI","town":"SAMBYAKUJIMA","perfecture_jp":"愛知県","jp_add_1":"弥富市","jp_add_2":"三百島"},"4901422":{"post_code":"4901422","prefecture":"AICHI KEN","city":"YATOMI SHI","town":"SHIMOSHIHAGICHO","perfecture_jp":"愛知県","jp_add_1":"弥富市","jp_add_2":"下押萩"},"4901426":{"post_code":"4901426","prefecture":"AICHI KEN","city":"YATOMI SHI","town":"SHIROBEECHO","perfecture_jp":"愛知県","jp_add_1":"弥富市","jp_add_2":"四郎兵衛"},"4901411":{"post_code":"4901411","prefecture":"AICHI KEN","city":"YATOMI SHI","town":"ZENTACHO","perfecture_jp":"愛知県","jp_add_1":"弥富市","jp_add_2":"善太町"},"4901428":{"post_code":"4901428","prefecture":"AICHI KEN","city":"YATOMI SHI","town":"TAKETA","perfecture_jp":"愛知県","jp_add_1":"弥富市","jp_add_2":"竹田"},"4901403":{"post_code":"4901403","prefecture":"AICHI KEN","city":"YATOMI SHI","town":"TORIGANJICHO","perfecture_jp":"愛知県","jp_add_1":"弥富市","jp_add_2":"鳥ケ地"},"4901406":{"post_code":"4901406","prefecture":"AICHI KEN","city":"YATOMI SHI","town":"NABEHIRA","perfecture_jp":"愛知県","jp_add_1":"弥富市","jp_add_2":"鍋平"},"4901427":{"post_code":"4901427","prefecture":"AICHI KEN","city":"YATOMI SHI","town":"NISHISHIJIMI","perfecture_jp":"愛知県","jp_add_1":"弥富市","jp_add_2":"西蜆"},"4901425":{"post_code":"4901425","prefecture":"AICHI KEN","city":"YATOMI SHI","town":"HIGASHISHIJIMI","perfecture_jp":"愛知県","jp_add_1":"弥富市","jp_add_2":"東蜆"},"4901401":{"post_code":"4901401","prefecture":"AICHI KEN","city":"YATOMI SHI","town":"ROKUJOCHO","perfecture_jp":"愛知県","jp_add_1":"弥富市","jp_add_2":"六條町"},"4901200":{"post_code":"4901200","prefecture":"AICHI KEN","city":"AMA SHI","town":"IKANIKEISAIGANAIBAAI","perfecture_jp":"愛知県","jp_add_1":"あま市","jp_add_2":""},"4901102":{"post_code":"4901102","prefecture":"AICHI KEN","city":"AMA SHI","town":"ISHITSUKURI","perfecture_jp":"愛知県","jp_add_1":"あま市","jp_add_2":"石作"},"4901213":{"post_code":"4901213","prefecture":"AICHI KEN","city":"AMA SHI","town":"OTONOKO","perfecture_jp":"愛知県","jp_add_1":"あま市","jp_add_2":"乙之子"},"4901221":{"post_code":"4901221","prefecture":"AICHI KEN","city":"AMA SHI","town":"KANAIWA","perfecture_jp":"愛知県","jp_add_1":"あま市","jp_add_2":"金岩"},"4901112":{"post_code":"4901112","prefecture":"AICHI KEN","city":"AMA SHI","town":"KAMIKAYAZU","perfecture_jp":"愛知県","jp_add_1":"あま市","jp_add_2":"上萱津"},"4901203":{"post_code":"4901203","prefecture":"AICHI KEN","city":"AMA SHI","town":"KIORI","perfecture_jp":"愛知県","jp_add_1":"あま市","jp_add_2":"木折"},"4901222":{"post_code":"4901222","prefecture":"AICHI KEN","city":"AMA SHI","town":"KIDA","perfecture_jp":"愛知県","jp_add_1":"あま市","jp_add_2":"木田"},"4901214":{"post_code":"4901214","prefecture":"AICHI KEN","city":"AMA SHI","town":"KITAGARI","perfecture_jp":"愛知県","jp_add_1":"あま市","jp_add_2":"北苅"},"4901212":{"post_code":"4901212","prefecture":"AICHI KEN","city":"AMA SHI","town":"KOBASHIGATA","perfecture_jp":"愛知県","jp_add_1":"あま市","jp_add_2":"小橋方"},"4901103":{"post_code":"4901103","prefecture":"AICHI KEN","city":"AMA SHI","town":"SAKAE","perfecture_jp":"愛知県","jp_add_1":"あま市","jp_add_2":"栄"},"4901115":{"post_code":"4901115","prefecture":"AICHI KEN","city":"AMA SHI","town":"SAKAMAKI","perfecture_jp":"愛知県","jp_add_1":"あま市","jp_add_2":"坂牧"},"4901211":{"post_code":"4901211","prefecture":"AICHI KEN","city":"AMA SHI","town":"SHINODA","perfecture_jp":"愛知県","jp_add_1":"あま市","jp_add_2":"篠田"},"4901114":{"post_code":"4901114","prefecture":"AICHI KEN","city":"AMA SHI","town":"SHIMOKAYAZU","perfecture_jp":"愛知県","jp_add_1":"あま市","jp_add_2":"下萱津"},"4901111":{"post_code":"4901111","prefecture":"AICHI KEN","city":"AMA SHI","town":"JIMOKUJI","perfecture_jp":"愛知県","jp_add_1":"あま市","jp_add_2":"甚目寺"},"4901106":{"post_code":"4901106","prefecture":"AICHI KEN","city":"AMA SHI","town":"SHOJI","perfecture_jp":"愛知県","jp_add_1":"あま市","jp_add_2":"小路"},"4901224":{"post_code":"4901224","prefecture":"AICHI KEN","city":"AMA SHI","town":"TAMBA","perfecture_jp":"愛知県","jp_add_1":"あま市","jp_add_2":"丹波"},"4901202":{"post_code":"4901202","prefecture":"AICHI KEN","city":"AMA SHI","town":"TOMITSUKA","perfecture_jp":"愛知県","jp_add_1":"あま市","jp_add_2":"富塚"},"4901113":{"post_code":"4901113","prefecture":"AICHI KEN","city":"AMA SHI","town":"NAKAKAYAZU","perfecture_jp":"愛知県","jp_add_1":"あま市","jp_add_2":"中萱津"},"4901226":{"post_code":"4901226","prefecture":"AICHI KEN","city":"AMA SHI","town":"NAKAHASHI","perfecture_jp":"愛知県","jp_add_1":"あま市","jp_add_2":"中橋"},"4901105":{"post_code":"4901105","prefecture":"AICHI KEN","city":"AMA SHI","town":"NIIYA","perfecture_jp":"愛知県","jp_add_1":"あま市","jp_add_2":"新居屋"},"4901104":{"post_code":"4901104","prefecture":"AICHI KEN","city":"AMA SHI","town":"NISHIIMAJUKU","perfecture_jp":"愛知県","jp_add_1":"あま市","jp_add_2":"西今宿"},"4901225":{"post_code":"4901225","prefecture":"AICHI KEN","city":"AMA SHI","town":"HACHISUKA","perfecture_jp":"愛知県","jp_add_1":"あま市","jp_add_2":"蜂須賀"},"4901204":{"post_code":"4901204","prefecture":"AICHI KEN","city":"AMA SHI","town":"HANAOSA","perfecture_jp":"愛知県","jp_add_1":"あま市","jp_add_2":"花長"},"4901205":{"post_code":"4901205","prefecture":"AICHI KEN","city":"AMA SHI","town":"HANAMASA","perfecture_jp":"愛知県","jp_add_1":"あま市","jp_add_2":"花正"},"4901206":{"post_code":"4901206","prefecture":"AICHI KEN","city":"AMA SHI","town":"HIGASHIMIZOGUCHI","perfecture_jp":"愛知県","jp_add_1":"あま市","jp_add_2":"東溝口"},"4901207":{"post_code":"4901207","prefecture":"AICHI KEN","city":"AMA SHI","town":"FUTATSUDERA","perfecture_jp":"愛知県","jp_add_1":"あま市","jp_add_2":"二ツ寺"},"4901201":{"post_code":"4901201","prefecture":"AICHI KEN","city":"AMA SHI","town":"FURUMICHI","perfecture_jp":"愛知県","jp_add_1":"あま市","jp_add_2":"古道"},"4901101":{"post_code":"4901101","prefecture":"AICHI KEN","city":"AMA SHI","town":"HORYO","perfecture_jp":"愛知県","jp_add_1":"あま市","jp_add_2":"方領"},"4901116":{"post_code":"4901116","prefecture":"AICHI KEN","city":"AMA SHI","town":"HONGO","perfecture_jp":"愛知県","jp_add_1":"あま市","jp_add_2":"本郷"},"4901107":{"post_code":"4901107","prefecture":"AICHI KEN","city":"AMA SHI","town":"MORI","perfecture_jp":"愛知県","jp_add_1":"あま市","jp_add_2":"森"},"4901223":{"post_code":"4901223","prefecture":"AICHI KEN","city":"AMA SHI","town":"MORIYAMA","perfecture_jp":"愛知県","jp_add_1":"あま市","jp_add_2":"森山"},"4901100":{"post_code":"4901100","prefecture":"AICHI KEN","city":"AMA GUN OHARU CHO","town":"IKANIKEISAIGANAIBAAI","perfecture_jp":"愛知県","jp_add_1":"海部郡大治町","jp_add_2":""},"4901135":{"post_code":"4901135","prefecture":"AICHI KEN","city":"AMA GUN OHARU CHO","town":"KAMASUKA","perfecture_jp":"愛知県","jp_add_1":"海部郡大治町","jp_add_2":"鎌須賀"},"4901132":{"post_code":"4901132","prefecture":"AICHI KEN","city":"AMA GUN OHARU CHO","town":"KITAMAJIMA","perfecture_jp":"愛知県","jp_add_1":"海部郡大治町","jp_add_2":"北間島"},"4901142":{"post_code":"4901142","prefecture":"AICHI KEN","city":"AMA GUN OHARU CHO","town":"SAMBONGI","perfecture_jp":"愛知県","jp_add_1":"海部郡大治町","jp_add_2":"三本木"},"4901143":{"post_code":"4901143","prefecture":"AICHI KEN","city":"AMA GUN OHARU CHO","town":"SUNAGO","perfecture_jp":"愛知県","jp_add_1":"海部郡大治町","jp_add_2":"砂子"},"4901145":{"post_code":"4901145","prefecture":"AICHI KEN","city":"AMA GUN OHARU CHO","town":"NAKAJIMA","perfecture_jp":"愛知県","jp_add_1":"海部郡大治町","jp_add_2":"中島"},"4901131":{"post_code":"4901131","prefecture":"AICHI KEN","city":"AMA GUN OHARU CHO","town":"NAGAMAKI","perfecture_jp":"愛知県","jp_add_1":"海部郡大治町","jp_add_2":"長牧"},"4901144":{"post_code":"4901144","prefecture":"AICHI KEN","city":"AMA GUN OHARU CHO","town":"NISHIJO","perfecture_jp":"愛知県","jp_add_1":"海部郡大治町","jp_add_2":"西條"},"4901136":{"post_code":"4901136","prefecture":"AICHI KEN","city":"AMA GUN OHARU CHO","town":"HANATSUNE","perfecture_jp":"愛知県","jp_add_1":"海部郡大治町","jp_add_2":"花常"},"4901134":{"post_code":"4901134","prefecture":"AICHI KEN","city":"AMA GUN OHARU CHO","town":"HIGASHIJO","perfecture_jp":"愛知県","jp_add_1":"海部郡大治町","jp_add_2":"東條"},"4901137":{"post_code":"4901137","prefecture":"AICHI KEN","city":"AMA GUN OHARU CHO","town":"HORINOCHI","perfecture_jp":"愛知県","jp_add_1":"海部郡大治町","jp_add_2":"堀之内"},"4901141":{"post_code":"4901141","prefecture":"AICHI KEN","city":"AMA GUN OHARU CHO","town":"MAJIMA","perfecture_jp":"愛知県","jp_add_1":"海部郡大治町","jp_add_2":"馬島"},"4901133":{"post_code":"4901133","prefecture":"AICHI KEN","city":"AMA GUN OHARU CHO","town":"YATSUYA","perfecture_jp":"愛知県","jp_add_1":"海部郡大治町","jp_add_2":"八ツ屋"},"4901400":{"post_code":"4901400","prefecture":"AICHI KEN","city":"AMA GUN TOBISHIMA MURA","town":"IKANIKEISAIGANAIBAAI","perfecture_jp":"愛知県","jp_add_1":"海部郡飛島村","jp_add_2":""},"4901435":{"post_code":"4901435","prefecture":"AICHI KEN","city":"AMA GUN TOBISHIMA MURA","town":"UMENOGO","perfecture_jp":"愛知県","jp_add_1":"海部郡飛島村","jp_add_2":"梅之郷"},"4901438":{"post_code":"4901438","prefecture":"AICHI KEN","city":"AMA GUN TOBISHIMA MURA","town":"ODAKARA","perfecture_jp":"愛知県","jp_add_1":"海部郡飛島村","jp_add_2":"大宝"},"4901445":{"post_code":"4901445","prefecture":"AICHI KEN","city":"AMA GUN TOBISHIMA MURA","town":"KANAOKA","perfecture_jp":"愛知県","jp_add_1":"海部郡飛島村","jp_add_2":"金岡"},"4901444":{"post_code":"4901444","prefecture":"AICHI KEN","city":"AMA GUN TOBISHIMA MURA","town":"KIBA","perfecture_jp":"愛知県","jp_add_1":"海部郡飛島村","jp_add_2":"木場"},"4901442":{"post_code":"4901442","prefecture":"AICHI KEN","city":"AMA GUN TOBISHIMA MURA","town":"KOMASANARI","perfecture_jp":"愛知県","jp_add_1":"海部郡飛島村","jp_add_2":"古政成"},"4901443":{"post_code":"4901443","prefecture":"AICHI KEN","city":"AMA GUN TOBISHIMA MURA","town":"SHIMMASANARI","perfecture_jp":"愛知県","jp_add_1":"海部郡飛島村","jp_add_2":"新政成"},"4901436":{"post_code":"4901436","prefecture":"AICHI KEN","city":"AMA GUN TOBISHIMA MURA","town":"TAKENOGO","perfecture_jp":"愛知県","jp_add_1":"海部郡飛島村","jp_add_2":"竹之郷"},"4901437":{"post_code":"4901437","prefecture":"AICHI KEN","city":"AMA GUN TOBISHIMA MURA","town":"MOTOKI","perfecture_jp":"愛知県","jp_add_1":"海部郡飛島村","jp_add_2":"飛島新田"},"4901433":{"post_code":"4901433","prefecture":"AICHI KEN","city":"AMA GUN TOBISHIMA MURA","town":"NAGISA","perfecture_jp":"愛知県","jp_add_1":"海部郡飛島村","jp_add_2":"渚"},"4901447":{"post_code":"4901447","prefecture":"AICHI KEN","city":"AMA GUN TOBISHIMA MURA","town":"NISHIHAMA","perfecture_jp":"愛知県","jp_add_1":"海部郡飛島村","jp_add_2":"西浜"},"4901446":{"post_code":"4901446","prefecture":"AICHI KEN","city":"AMA GUN TOBISHIMA MURA","town":"HIGASHIHAMA","perfecture_jp":"愛知県","jp_add_1":"海部郡飛島村","jp_add_2":"東浜"},"4901431":{"post_code":"4901431","prefecture":"AICHI KEN","city":"AMA GUN TOBISHIMA MURA","town":"FUKUOKA","perfecture_jp":"愛知県","jp_add_1":"海部郡飛島村","jp_add_2":"服岡"},"4901441":{"post_code":"4901441","prefecture":"AICHI KEN","city":"AMA GUN TOBISHIMA MURA","town":"MASANARI","perfecture_jp":"愛知県","jp_add_1":"海部郡飛島村","jp_add_2":"政成"},"4901434":{"post_code":"4901434","prefecture":"AICHI KEN","city":"AMA GUN TOBISHIMA MURA","town":"MATSUNOGO","perfecture_jp":"愛知県","jp_add_1":"海部郡飛島村","jp_add_2":"松之郷"},"4901432":{"post_code":"4901432","prefecture":"AICHI KEN","city":"AMA GUN TOBISHIMA MURA","town":"MIFUKU","perfecture_jp":"愛知県","jp_add_1":"海部郡飛島村","jp_add_2":"三福"}}