{"4920000":{"post_code":"4920000","prefecture":"AICHI KEN","city":"INAZAWA SHI","town":"IKANIKEISAIGANAIBAAI","perfecture_jp":"愛知県","jp_add_1":"稲沢市","jp_add_2":""},"4928008":{"post_code":"4928008","prefecture":"AICHI KEN","city":"INAZAWA SHI","town":"AKAIKECHO","perfecture_jp":"愛知県","jp_add_1":"稲沢市","jp_add_2":"赤池町"},"4928001":{"post_code":"4928001","prefecture":"AICHI KEN","city":"INAZAWA SHI","town":"AKAIKE IKEDACHO","perfecture_jp":"愛知県","jp_add_1":"稲沢市","jp_add_2":"赤池池田町"},"4928002":{"post_code":"4928002","prefecture":"AICHI KEN","city":"INAZAWA SHI","town":"AKAIKE IMICHICHO","perfecture_jp":"愛知県","jp_add_1":"稲沢市","jp_add_2":"赤池居道町"},"4928004":{"post_code":"4928004","prefecture":"AICHI KEN","city":"INAZAWA SHI","town":"AKAIKE URADACHO","perfecture_jp":"愛知県","jp_add_1":"稲沢市","jp_add_2":"赤池裏田町"},"4928015":{"post_code":"4928015","prefecture":"AICHI KEN","city":"INAZAWA SHI","town":"AKAIKE KITAIKEDACHO","perfecture_jp":"愛知県","jp_add_1":"稲沢市","jp_add_2":"赤池北池田町"},"4928014":{"post_code":"4928014","prefecture":"AICHI KEN","city":"INAZAWA SHI","town":"AKAIKE KITAMACHI","perfecture_jp":"愛知県","jp_add_1":"稲沢市","jp_add_2":"赤池北町"},"4928022":{"post_code":"4928022","prefecture":"AICHI KEN","city":"INAZAWA SHI","town":"AKAIKE SAKAHATACHO","perfecture_jp":"愛知県","jp_add_1":"稲沢市","jp_add_2":"赤池坂畑町"},"4928005":{"post_code":"4928005","prefecture":"AICHI KEN","city":"INAZAWA SHI","town":"AKAIKE JINDECHO","perfecture_jp":"愛知県","jp_add_1":"稲沢市","jp_add_2":"赤池陣出町"},"4928013":{"post_code":"4928013","prefecture":"AICHI KEN","city":"INAZAWA SHI","town":"AKAIKE TERAHIGASHICHO","perfecture_jp":"愛知県","jp_add_1":"稲沢市","jp_add_2":"赤池寺東町"},"4928012":{"post_code":"4928012","prefecture":"AICHI KEN","city":"INAZAWA SHI","town":"AKAIKE TENNOCHO","perfecture_jp":"愛知県","jp_add_1":"稲沢市","jp_add_2":"赤池天王町"},"4928025":{"post_code":"4928025","prefecture":"AICHI KEN","city":"INAZAWA SHI","town":"AKAIKE NAKAMACHI","perfecture_jp":"愛知県","jp_add_1":"稲沢市","jp_add_2":"赤池中町"},"4928003":{"post_code":"4928003","prefecture":"AICHI KEN","city":"INAZAWA SHI","town":"AKAIKE NISHIDECHO","perfecture_jp":"愛知県","jp_add_1":"稲沢市","jp_add_2":"赤池西出町"},"4928017":{"post_code":"4928017","prefecture":"AICHI KEN","city":"INAZAWA SHI","town":"AKAIKE HATAYACHO","perfecture_jp":"愛知県","jp_add_1":"稲沢市","jp_add_2":"赤池旗屋町"},"4928021":{"post_code":"4928021","prefecture":"AICHI KEN","city":"INAZAWA SHI","town":"AKAIKE HIGASHIYAMACHO","perfecture_jp":"愛知県","jp_add_1":"稲沢市","jp_add_2":"赤池東山町"},"4928023":{"post_code":"4928023","prefecture":"AICHI KEN","city":"INAZAWA SHI","town":"AKAIKE HIROHATACHO","perfecture_jp":"愛知県","jp_add_1":"稲沢市","jp_add_2":"赤池広畑町"},"4928011":{"post_code":"4928011","prefecture":"AICHI KEN","city":"INAZAWA SHI","town":"AKAIKE MAEYAMACHO","perfecture_jp":"愛知県","jp_add_1":"稲沢市","jp_add_2":"赤池前山町"},"4928006":{"post_code":"4928006","prefecture":"AICHI KEN","city":"INAZAWA SHI","town":"AKAIKE MATSUSAKICHO","perfecture_jp":"愛知県","jp_add_1":"稲沢市","jp_add_2":"赤池真崎町"},"4928024":{"post_code":"4928024","prefecture":"AICHI KEN","city":"INAZAWA SHI","town":"AKAIKE MINAMIMACHI","perfecture_jp":"愛知県","jp_add_1":"稲沢市","jp_add_2":"赤池南町"},"4928016":{"post_code":"4928016","prefecture":"AICHI KEN","city":"INAZAWA SHI","town":"AKAIKE MIYANISHICHO","perfecture_jp":"愛知県","jp_add_1":"稲沢市","jp_add_2":"赤池宮西町"},"4928007":{"post_code":"4928007","prefecture":"AICHI KEN","city":"INAZAWA SHI","town":"AKAIKE YAMANAKACHO","perfecture_jp":"愛知県","jp_add_1":"稲沢市","jp_add_2":"赤池山中町"},"4928318":{"post_code":"4928318","prefecture":"AICHI KEN","city":"INAZAWA SHI","town":"ASAICHO","perfecture_jp":"愛知県","jp_add_1":"稲沢市","jp_add_2":"浅井町"},"4928268":{"post_code":"4928268","prefecture":"AICHI KEN","city":"INAZAWA SHI","town":"AZABUCHO","perfecture_jp":"愛知県","jp_add_1":"稲沢市","jp_add_2":"朝府町"},"4928278":{"post_code":"4928278","prefecture":"AICHI KEN","city":"INAZAWA SHI","town":"AMAIKE KANAYAMACHO","perfecture_jp":"愛知県","jp_add_1":"稲沢市","jp_add_2":"天池金山町"},"4928274":{"post_code":"4928274","prefecture":"AICHI KEN","city":"INAZAWA SHI","town":"AMAIKE KODACHO","perfecture_jp":"愛知県","jp_add_1":"稲沢市","jp_add_2":"天池光田町"},"4928275":{"post_code":"4928275","prefecture":"AICHI KEN","city":"INAZAWA SHI","town":"AMAIKE GOTANDACHO","perfecture_jp":"愛知県","jp_add_1":"稲沢市","jp_add_2":"天池五反田町"},"4928281":{"post_code":"4928281","prefecture":"AICHI KEN","city":"INAZAWA SHI","town":"AMAIKE DENDAICHO","perfecture_jp":"愛知県","jp_add_1":"稲沢市","jp_add_2":"天池伝代町"},"4928279":{"post_code":"4928279","prefecture":"AICHI KEN","city":"INAZAWA SHI","town":"AMAIKE TOMATSUCHO","perfecture_jp":"愛知県","jp_add_1":"稲沢市","jp_add_2":"天池遠松町"},"4928283":{"post_code":"4928283","prefecture":"AICHI KEN","city":"INAZAWA SHI","town":"AMAIKE NAMIYOSECHO","perfecture_jp":"愛知県","jp_add_1":"稲沢市","jp_add_2":"天池浪寄町"},"4928282":{"post_code":"4928282","prefecture":"AICHI KEN","city":"INAZAWA SHI","town":"AMAIKE HIGASHIMACHI","perfecture_jp":"愛知県","jp_add_1":"稲沢市","jp_add_2":"天池東町"},"4928284":{"post_code":"4928284","prefecture":"AICHI KEN","city":"INAZAWA SHI","town":"AMAIKE NISHIMACHI","perfecture_jp":"愛知県","jp_add_1":"稲沢市","jp_add_2":"天池西町"},"4928277":{"post_code":"4928277","prefecture":"AICHI KEN","city":"INAZAWA SHI","town":"AMAIKE MAKITSUKURICHO","perfecture_jp":"愛知県","jp_add_1":"稲沢市","jp_add_2":"天池牧作町"},"4928276":{"post_code":"4928276","prefecture":"AICHI KEN","city":"INAZAWA SHI","town":"AMAIKECHO","perfecture_jp":"愛知県","jp_add_1":"稲沢市","jp_add_2":"天池町"},"4928262":{"post_code":"4928262","prefecture":"AICHI KEN","city":"INAZAWA SHI","town":"IKEBECHO","perfecture_jp":"愛知県","jp_add_1":"稲沢市","jp_add_2":"池部町"},"4928362":{"post_code":"4928362","prefecture":"AICHI KEN","city":"INAZAWA SHI","town":"ISHIKI AOKAICHO","perfecture_jp":"愛知県","jp_add_1":"稲沢市","jp_add_2":"一色青海町"},"4928363":{"post_code":"4928363","prefecture":"AICHI KEN","city":"INAZAWA SHI","town":"ISHIKI ATONOKUCHICHO","perfecture_jp":"愛知県","jp_add_1":"稲沢市","jp_add_2":"一色跡之口町"},"4928356":{"post_code":"4928356","prefecture":"AICHI KEN","city":"INAZAWA SHI","town":"ISHIKI ICHIBACHO","perfecture_jp":"愛知県","jp_add_1":"稲沢市","jp_add_2":"一色市場町"},"4928371":{"post_code":"4928371","prefecture":"AICHI KEN","city":"INAZAWA SHI","town":"ISHIKI KAMIGATACHO","perfecture_jp":"愛知県","jp_add_1":"稲沢市","jp_add_2":"一色上方町"},"4928366":{"post_code":"4928366","prefecture":"AICHI KEN","city":"INAZAWA SHI","town":"ISHIKI KAWAMATACHO","perfecture_jp":"愛知県","jp_add_1":"稲沢市","jp_add_2":"一色川俣町"},"4928354":{"post_code":"4928354","prefecture":"AICHI KEN","city":"INAZAWA SHI","town":"ISHIKI SANTANDACHO","perfecture_jp":"愛知県","jp_add_1":"稲沢市","jp_add_2":"一色三反田町"},"4928365":{"post_code":"4928365","prefecture":"AICHI KEN","city":"INAZAWA SHI","town":"ISHIKI SHIMOKATACHO","perfecture_jp":"愛知県","jp_add_1":"稲沢市","jp_add_2":"一色下方町"},"4928375":{"post_code":"4928375","prefecture":"AICHI KEN","city":"INAZAWA SHI","town":"ISHIKI JUNKENCHO","perfecture_jp":"愛知県","jp_add_1":"稲沢市","jp_add_2":"一色巡見町"},"4928352":{"post_code":"4928352","prefecture":"AICHI KEN","city":"INAZAWA SHI","town":"ISHIKI JINGUCHO","perfecture_jp":"愛知県","jp_add_1":"稲沢市","jp_add_2":"一色神宮町"},"4928351":{"post_code":"4928351","prefecture":"AICHI KEN","city":"INAZAWA SHI","town":"ISHIKI TAKEHASHICHO","perfecture_jp":"愛知県","jp_add_1":"稲沢市","jp_add_2":"一色竹橋町"},"4928373":{"post_code":"4928373","prefecture":"AICHI KEN","city":"INAZAWA SHI","town":"ISHIKI NAKADORICHO","perfecture_jp":"愛知県","jp_add_1":"稲沢市","jp_add_2":"一色中通町"},"4928372":{"post_code":"4928372","prefecture":"AICHI KEN","city":"INAZAWA SHI","town":"ISHIKI NAKAYASHIKICHO","perfecture_jp":"愛知県","jp_add_1":"稲沢市","jp_add_2":"一色中屋敷町"},"4928361":{"post_code":"4928361","prefecture":"AICHI KEN","city":"INAZAWA SHI","town":"ISHIKI NAGAHATACHO","perfecture_jp":"愛知県","jp_add_1":"稲沢市","jp_add_2":"一色長畑町"},"4928374":{"post_code":"4928374","prefecture":"AICHI KEN","city":"INAZAWA SHI","town":"ISHIKI NISHIMACHI","perfecture_jp":"愛知県","jp_add_1":"稲沢市","jp_add_2":"一色西町"},"4928358":{"post_code":"4928358","prefecture":"AICHI KEN","city":"INAZAWA SHI","town":"ISHIKI HAKUSANCHO","perfecture_jp":"愛知県","jp_add_1":"稲沢市","jp_add_2":"一色白山町"},"4928353":{"post_code":"4928353","prefecture":"AICHI KEN","city":"INAZAWA SHI","town":"ISHIKI FUJITSUKACHO","perfecture_jp":"愛知県","jp_add_1":"稲沢市","jp_add_2":"一色藤塚町"},"4928357":{"post_code":"4928357","prefecture":"AICHI KEN","city":"INAZAWA SHI","town":"ISHIKI MICHIKAMICHO","perfecture_jp":"愛知県","jp_add_1":"稲沢市","jp_add_2":"一色道上町"},"4928364":{"post_code":"4928364","prefecture":"AICHI KEN","city":"INAZAWA SHI","town":"ISHIKI MORIYAMACHO","perfecture_jp":"愛知県","jp_add_1":"稲沢市","jp_add_2":"一色森山町"},"4928271":{"post_code":"4928271","prefecture":"AICHI KEN","city":"INAZAWA SHI","town":"ISHIBASHI","perfecture_jp":"愛知県","jp_add_1":"稲沢市","jp_add_2":"石橋"},"4928451":{"post_code":"4928451","prefecture":"AICHI KEN","city":"INAZAWA SHI","town":"ITABUKICHO","perfecture_jp":"愛知県","jp_add_1":"稲沢市","jp_add_2":"板葺町"},"4928217":{"post_code":"4928217","prefecture":"AICHI KEN","city":"INAZAWA SHI","town":"INAZAWACHO","perfecture_jp":"愛知県","jp_add_1":"稲沢市","jp_add_2":"稲沢町"},"4928211":{"post_code":"4928211","prefecture":"AICHI KEN","city":"INAZAWA SHI","town":"INAZAWACHO KITAYAMA","perfecture_jp":"愛知県","jp_add_1":"稲沢市","jp_add_2":"稲沢町北山"},"4928229":{"post_code":"4928229","prefecture":"AICHI KEN","city":"INAZAWA SHI","town":"INAJIMA","perfecture_jp":"愛知県","jp_add_1":"稲沢市","jp_add_2":"稲島"},"4928207":{"post_code":"4928207","prefecture":"AICHI KEN","city":"INAZAWA SHI","town":"INAJIMACHO","perfecture_jp":"愛知県","jp_add_1":"稲沢市","jp_add_2":"稲島町"},"4928230":{"post_code":"4928230","prefecture":"AICHI KEN","city":"INAZAWA SHI","town":"INAJIMAHIGASHI","perfecture_jp":"愛知県","jp_add_1":"稲沢市","jp_add_2":"稲島東"},"4928206":{"post_code":"4928206","prefecture":"AICHI KEN","city":"INAZAWA SHI","town":"INAJIMAHOJOJICHO","perfecture_jp":"愛知県","jp_add_1":"稲沢市","jp_add_2":"稲島法成寺町"},"4928219":{"post_code":"4928219","prefecture":"AICHI KEN","city":"INAZAWA SHI","town":"INABA","perfecture_jp":"愛知県","jp_add_1":"稲沢市","jp_add_2":"稲葉"},"4928269":{"post_code":"4928269","prefecture":"AICHI KEN","city":"INAZAWA SHI","town":"INABUCHO","perfecture_jp":"愛知県","jp_add_1":"稲沢市","jp_add_2":"稲府町"},"4928163":{"post_code":"4928163","prefecture":"AICHI KEN","city":"INAZAWA SHI","town":"INOKUCHI ISHIZUKACHO","perfecture_jp":"愛知県","jp_add_1":"稲沢市","jp_add_2":"井之口石塚町"},"4928164":{"post_code":"4928164","prefecture":"AICHI KEN","city":"INAZAWA SHI","town":"INOKUCHI OTSUBOCHO","perfecture_jp":"愛知県","jp_add_1":"稲沢市","jp_add_2":"井之口大坪町"},"4928152":{"post_code":"4928152","prefecture":"AICHI KEN","city":"INAZAWA SHI","town":"INOKUCHI OMIYACHO","perfecture_jp":"愛知県","jp_add_1":"稲沢市","jp_add_2":"井之口大宮町"},"4928166":{"post_code":"4928166","prefecture":"AICHI KEN","city":"INAZAWA SHI","town":"INOKUCHI OKINOTACHO","perfecture_jp":"愛知県","jp_add_1":"稲沢市","jp_add_2":"井之口沖ノ田町"},"4928156":{"post_code":"4928156","prefecture":"AICHI KEN","city":"INAZAWA SHI","town":"INOKUCHI OYABATACHO","perfecture_jp":"愛知県","jp_add_1":"稲沢市","jp_add_2":"井之口親畑町"},"4928157":{"post_code":"4928157","prefecture":"AICHI KEN","city":"INAZAWA SHI","town":"INOKUCHI KAKINOKICHO","perfecture_jp":"愛知県","jp_add_1":"稲沢市","jp_add_2":"井之口柿ノ木町"},"4928151":{"post_code":"4928151","prefecture":"AICHI KEN","city":"INAZAWA SHI","town":"INOKUCHI KITABATACHO","perfecture_jp":"愛知県","jp_add_1":"稲沢市","jp_add_2":"井之口北畑町"},"4928162":{"post_code":"4928162","prefecture":"AICHI KEN","city":"INAZAWA SHI","town":"INOKUCHI KOBANDOCHO","perfecture_jp":"愛知県","jp_add_1":"稲沢市","jp_add_2":"井之口小番戸町"},"4928165":{"post_code":"4928165","prefecture":"AICHI KEN","city":"INAZAWA SHI","town":"INOKUCHI TSURUDENCHO","perfecture_jp":"愛知県","jp_add_1":"稲沢市","jp_add_2":"井之口鶴田町"},"4928158":{"post_code":"4928158","prefecture":"AICHI KEN","city":"INAZAWA SHI","town":"INOKUCHI HAKUSANCHO","perfecture_jp":"愛知県","jp_add_1":"稲沢市","jp_add_2":"井之口白山町"},"4928154":{"post_code":"4928154","prefecture":"AICHI KEN","city":"INAZAWA SHI","town":"INOKUCHI HOMMACHI","perfecture_jp":"愛知県","jp_add_1":"稲沢市","jp_add_2":"井之口本町"},"4928155":{"post_code":"4928155","prefecture":"AICHI KEN","city":"INAZAWA SHI","town":"INOKUCHI YOTSUYACHO","perfecture_jp":"愛知県","jp_add_1":"稲沢市","jp_add_2":"井之口四家町"},"4928153":{"post_code":"4928153","prefecture":"AICHI KEN","city":"INAZAWA SHI","town":"INOKUCHICHO","perfecture_jp":"愛知県","jp_add_1":"稲沢市","jp_add_2":"井之口町"},"4928465":{"post_code":"4928465","prefecture":"AICHI KEN","city":"INAZAWA SHI","town":"IBORI INUSHIROCHO","perfecture_jp":"愛知県","jp_add_1":"稲沢市","jp_add_2":"井堀犬城町"},"4928466":{"post_code":"4928466","prefecture":"AICHI KEN","city":"INAZAWA SHI","town":"IBORI ENISHICHO","perfecture_jp":"愛知県","jp_add_1":"稲沢市","jp_add_2":"井堀江西町"},"4928406":{"post_code":"4928406","prefecture":"AICHI KEN","city":"INAZAWA SHI","town":"IBORI ONAWACHO","perfecture_jp":"愛知県","jp_add_1":"稲沢市","jp_add_2":"井堀大縄町"},"4928467":{"post_code":"4928467","prefecture":"AICHI KEN","city":"INAZAWA SHI","town":"IBORI GAMAROKUCHO","perfecture_jp":"愛知県","jp_add_1":"稲沢市","jp_add_2":"井堀蒲六町"},"4928408":{"post_code":"4928408","prefecture":"AICHI KEN","city":"INAZAWA SHI","town":"IBORI KAWAHIGASHICHO","perfecture_jp":"愛知県","jp_add_1":"稲沢市","jp_add_2":"井堀川東町"},"4928461":{"post_code":"4928461","prefecture":"AICHI KEN","city":"INAZAWA SHI","town":"IBORI KITADECHO","perfecture_jp":"愛知県","jp_add_1":"稲沢市","jp_add_2":"井堀北出町"},"4928464":{"post_code":"4928464","prefecture":"AICHI KEN","city":"INAZAWA SHI","town":"IBORI SHIMOGOCHO","perfecture_jp":"愛知県","jp_add_1":"稲沢市","jp_add_2":"井堀下郷町"},"4928407":{"post_code":"4928407","prefecture":"AICHI KEN","city":"INAZAWA SHI","town":"IBORI SHUKUZUKACHO","perfecture_jp":"愛知県","jp_add_1":"稲沢市","jp_add_2":"井堀宿塚町"},"4928462":{"post_code":"4928462","prefecture":"AICHI KEN","city":"INAZAWA SHI","town":"IBORI TAKAMICHO","perfecture_jp":"愛知県","jp_add_1":"稲沢市","jp_add_2":"井堀高見町"},"4928463":{"post_code":"4928463","prefecture":"AICHI KEN","city":"INAZAWA SHI","town":"IBORI NAKAGOCHO","perfecture_jp":"愛知県","jp_add_1":"稲沢市","jp_add_2":"井堀中郷町"},"4928468":{"post_code":"4928468","prefecture":"AICHI KEN","city":"INAZAWA SHI","town":"IBORI NOGUCHICHO","perfecture_jp":"愛知県","jp_add_1":"稲沢市","jp_add_2":"井堀野口町"},"4928409":{"post_code":"4928409","prefecture":"AICHI KEN","city":"INAZAWA SHI","town":"IBORI HASHISHIMOCHO","perfecture_jp":"愛知県","jp_add_1":"稲沢市","jp_add_2":"井堀橋下町"},"4928453":{"post_code":"4928453","prefecture":"AICHI KEN","city":"INAZAWA SHI","town":"IMAMURACHO","perfecture_jp":"愛知県","jp_add_1":"稲沢市","jp_add_2":"今村町"},"4928443":{"post_code":"4928443","prefecture":"AICHI KEN","city":"INAZAWA SHI","town":"USHIBUMICHO","perfecture_jp":"愛知県","jp_add_1":"稲沢市","jp_add_2":"牛踏町"},"4928143":{"post_code":"4928143","prefecture":"AICHI KEN","city":"INAZAWA SHI","town":"EKIMAE","perfecture_jp":"愛知県","jp_add_1":"稲沢市","jp_add_2":"駅前"},"4928214":{"post_code":"4928214","prefecture":"AICHI KEN","city":"INAZAWA SHI","town":"OTSUKA MINAMI","perfecture_jp":"愛知県","jp_add_1":"稲沢市","jp_add_2":"大塚南"},"4928215":{"post_code":"4928215","prefecture":"AICHI KEN","city":"INAZAWA SHI","town":"OTSUKA KITA","perfecture_jp":"愛知県","jp_add_1":"稲沢市","jp_add_2":"大塚北"},"4928216":{"post_code":"4928216","prefecture":"AICHI KEN","city":"INAZAWA SHI","town":"OTSUKACHO","perfecture_jp":"愛知県","jp_add_1":"稲沢市","jp_add_2":"大塚町"},"4928415":{"post_code":"4928415","prefecture":"AICHI KEN","city":"INAZAWA SHI","town":"OYA AOYAMACHO","perfecture_jp":"愛知県","jp_add_1":"稲沢市","jp_add_2":"大矢青山町"},"4928413":{"post_code":"4928413","prefecture":"AICHI KEN","city":"INAZAWA SHI","town":"OYA ENISHICHO","perfecture_jp":"愛知県","jp_add_1":"稲沢市","jp_add_2":"大矢江西町"},"4928418":{"post_code":"4928418","prefecture":"AICHI KEN","city":"INAZAWA SHI","town":"OYA KODACHO","perfecture_jp":"愛知県","jp_add_1":"稲沢市","jp_add_2":"大矢高田町"},"4928414":{"post_code":"4928414","prefecture":"AICHI KEN","city":"INAZAWA SHI","town":"OYA JODOJICHO","perfecture_jp":"愛知県","jp_add_1":"稲沢市","jp_add_2":"大矢浄土寺町"},"4928416":{"post_code":"4928416","prefecture":"AICHI KEN","city":"INAZAWA SHI","town":"OYA SHIROYAMACHO","perfecture_jp":"愛知県","jp_add_1":"稲沢市","jp_add_2":"大矢白山町"},"4928419":{"post_code":"4928419","prefecture":"AICHI KEN","city":"INAZAWA SHI","town":"OYA SHINGUCHO","perfecture_jp":"愛知県","jp_add_1":"稲沢市","jp_add_2":"大矢真宮町"},"4928417":{"post_code":"4928417","prefecture":"AICHI KEN","city":"INAZAWA SHI","town":"OYA SENGUCHICHO","perfecture_jp":"愛知県","jp_add_1":"稲沢市","jp_add_2":"大矢仙口町"},"4928412":{"post_code":"4928412","prefecture":"AICHI KEN","city":"INAZAWA SHI","town":"OYACHO","perfecture_jp":"愛知県","jp_add_1":"稲沢市","jp_add_2":"大矢町"},"4928223":{"post_code":"4928223","prefecture":"AICHI KEN","city":"INAZAWA SHI","town":"OKUDA INOSHITACHO","perfecture_jp":"愛知県","jp_add_1":"稲沢市","jp_add_2":"奥田井之下町"},"4928224":{"post_code":"4928224","prefecture":"AICHI KEN","city":"INAZAWA SHI","town":"OKUDA OSAWACHO","perfecture_jp":"愛知県","jp_add_1":"稲沢市","jp_add_2":"奥田大沢町"},"4928253":{"post_code":"4928253","prefecture":"AICHI KEN","city":"INAZAWA SHI","town":"OKUDA KAMINOKICHO","perfecture_jp":"愛知県","jp_add_1":"稲沢市","jp_add_2":"奥田神ノ木町"},"4928256":{"post_code":"4928256","prefecture":"AICHI KEN","city":"INAZAWA SHI","town":"OKUDA KITAHANANOKICHO","perfecture_jp":"愛知県","jp_add_1":"稲沢市","jp_add_2":"奥田北花ノ木町"},"4928243":{"post_code":"4928243","prefecture":"AICHI KEN","city":"INAZAWA SHI","town":"OKUDA KIZUKACHO","perfecture_jp":"愛知県","jp_add_1":"稲沢市","jp_add_2":"奥田木塚町"},"4928234":{"post_code":"4928234","prefecture":"AICHI KEN","city":"INAZAWA SHI","town":"OKUDA KIRITACHO","perfecture_jp":"愛知県","jp_add_1":"稲沢市","jp_add_2":"奥田切田町"},"4928246":{"post_code":"4928246","prefecture":"AICHI KEN","city":"INAZAWA SHI","town":"OKUDA KEIYOCHO","perfecture_jp":"愛知県","jp_add_1":"稲沢市","jp_add_2":"奥田計用町"},"4928232":{"post_code":"4928232","prefecture":"AICHI KEN","city":"INAZAWA SHI","town":"OKUDA SAKAICHO","perfecture_jp":"愛知県","jp_add_1":"稲沢市","jp_add_2":"奥田酒伊町"},"4928257":{"post_code":"4928257","prefecture":"AICHI KEN","city":"INAZAWA SHI","town":"OKUDA SHIMAZAKICHO","perfecture_jp":"愛知県","jp_add_1":"稲沢市","jp_add_2":"奥田島崎町"},"4928244":{"post_code":"4928244","prefecture":"AICHI KEN","city":"INAZAWA SHI","town":"OKUDA SHIMOKAWACHO","perfecture_jp":"愛知県","jp_add_1":"稲沢市","jp_add_2":"奥田下河町"},"4928225":{"post_code":"4928225","prefecture":"AICHI KEN","city":"INAZAWA SHI","town":"OKUDA ZENTANACHO","perfecture_jp":"愛知県","jp_add_1":"稲沢市","jp_add_2":"奥田膳棚町"},"4928226":{"post_code":"4928226","prefecture":"AICHI KEN","city":"INAZAWA SHI","town":"OKUDA DAIMONCHO","perfecture_jp":"愛知県","jp_add_1":"稲沢市","jp_add_2":"奥田大門町"},"4928235":{"post_code":"4928235","prefecture":"AICHI KEN","city":"INAZAWA SHI","town":"OKUDA TATEOSACHO","perfecture_jp":"愛知県","jp_add_1":"稲沢市","jp_add_2":"奥田立長町"},"4928241":{"post_code":"4928241","prefecture":"AICHI KEN","city":"INAZAWA SHI","town":"OKUDA TABATACHO","perfecture_jp":"愛知県","jp_add_1":"稲沢市","jp_add_2":"奥田田畑町"},"4928236":{"post_code":"4928236","prefecture":"AICHI KEN","city":"INAZAWA SHI","town":"OKUDA TERAGIRICHO","perfecture_jp":"愛知県","jp_add_1":"稲沢市","jp_add_2":"奥田寺切町"},"4928255":{"post_code":"4928255","prefecture":"AICHI KEN","city":"INAZAWA SHI","town":"OKUDA TENJINCHO","perfecture_jp":"愛知県","jp_add_1":"稲沢市","jp_add_2":"奥田天神町"},"4928222":{"post_code":"4928222","prefecture":"AICHI KEN","city":"INAZAWA SHI","town":"OKUDA TEMMOKUJICHO","perfecture_jp":"愛知県","jp_add_1":"稲沢市","jp_add_2":"奥田天目寺町"},"4928239":{"post_code":"4928239","prefecture":"AICHI KEN","city":"INAZAWA SHI","town":"OKUDA NAKAKIRICHO","perfecture_jp":"愛知県","jp_add_1":"稲沢市","jp_add_2":"奥田中切町"},"4928228":{"post_code":"4928228","prefecture":"AICHI KEN","city":"INAZAWA SHI","town":"OKUDA NAGAZUMICHO","perfecture_jp":"愛知県","jp_add_1":"稲沢市","jp_add_2":"奥田長角町"},"4928231":{"post_code":"4928231","prefecture":"AICHI KEN","city":"INAZAWA SHI","town":"OKUDA NAGARECHO","perfecture_jp":"愛知県","jp_add_1":"稲沢市","jp_add_2":"奥田流町"},"4928227":{"post_code":"4928227","prefecture":"AICHI KEN","city":"INAZAWA SHI","town":"OKUDA HAKUSANCHO","perfecture_jp":"愛知県","jp_add_1":"稲沢市","jp_add_2":"奥田白山町"},"4928237":{"post_code":"4928237","prefecture":"AICHI KEN","city":"INAZAWA SHI","town":"OKUDA BAMBACHO","perfecture_jp":"愛知県","jp_add_1":"稲沢市","jp_add_2":"奥田馬場町"},"4928238":{"post_code":"4928238","prefecture":"AICHI KEN","city":"INAZAWA SHI","town":"OKUDA HORIBATACHO","perfecture_jp":"愛知県","jp_add_1":"稲沢市","jp_add_2":"奥田堀畑町"},"4928245":{"post_code":"4928245","prefecture":"AICHI KEN","city":"INAZAWA SHI","town":"OKUDA MINAMIHANANOKICHO","perfecture_jp":"愛知県","jp_add_1":"稲沢市","jp_add_2":"奥田南花ノ木町"},"4928254":{"post_code":"4928254","prefecture":"AICHI KEN","city":"INAZAWA SHI","town":"OKUDA MIYANAGACHO","perfecture_jp":"愛知県","jp_add_1":"稲沢市","jp_add_2":"奥田宮長町"},"4928233":{"post_code":"4928233","prefecture":"AICHI KEN","city":"INAZAWA SHI","town":"OKUDACHO","perfecture_jp":"愛知県","jp_add_1":"稲沢市","jp_add_2":"奥田町"},"4928242":{"post_code":"4928242","prefecture":"AICHI KEN","city":"INAZAWA SHI","town":"OKUDACHO BUNHICHINISHI","perfecture_jp":"愛知県","jp_add_1":"稲沢市","jp_add_2":"奥田町田畑切"},"4928081":{"post_code":"4928081","prefecture":"AICHI KEN","city":"INAZAWA SHI","town":"ORIZU ABURADENCHO","perfecture_jp":"愛知県","jp_add_1":"稲沢市","jp_add_2":"下津油田町"},"4928058":{"post_code":"4928058","prefecture":"AICHI KEN","city":"INAZAWA SHI","town":"ORIZU USHIARAICHO","perfecture_jp":"愛知県","jp_add_1":"稲沢市","jp_add_2":"下津牛洗町"},"4928054":{"post_code":"4928054","prefecture":"AICHI KEN","city":"INAZAWA SHI","town":"ORIZU KATAMACHI","perfecture_jp":"愛知県","jp_add_1":"稲沢市","jp_add_2":"下津片町"},"4928072":{"post_code":"4928072","prefecture":"AICHI KEN","city":"INAZAWA SHI","town":"ORIZU KITASHINSHOJICHO","perfecture_jp":"愛知県","jp_add_1":"稲沢市","jp_add_2":"下津北信正寺町"},"4928094":{"post_code":"4928094","prefecture":"AICHI KEN","city":"INAZAWA SHI","town":"ORIZU KITAYAMA","perfecture_jp":"愛知県","jp_add_1":"稲沢市","jp_add_2":"下津北山"},"4928067":{"post_code":"4928067","prefecture":"AICHI KEN","city":"INAZAWA SHI","town":"ORIZU KITAYAMACHO","perfecture_jp":"愛知県","jp_add_1":"稲沢市","jp_add_2":"下津北山町"},"4928091":{"post_code":"4928091","prefecture":"AICHI KEN","city":"INAZAWA SHI","town":"ORIZU KURAKAKE","perfecture_jp":"愛知県","jp_add_1":"稲沢市","jp_add_2":"下津鞍掛"},"4928056":{"post_code":"4928056","prefecture":"AICHI KEN","city":"INAZAWA SHI","town":"ORIZU KURAKAKECHO","perfecture_jp":"愛知県","jp_add_1":"稲沢市","jp_add_2":"下津鞍掛町"},"4928093":{"post_code":"4928093","prefecture":"AICHI KEN","city":"INAZAWA SHI","town":"ORIZU KOIDO","perfecture_jp":"愛知県","jp_add_1":"稲沢市","jp_add_2":"下津小井戸"},"4928068":{"post_code":"4928068","prefecture":"AICHI KEN","city":"INAZAWA SHI","town":"ORIZU KOIDOCHO","perfecture_jp":"愛知県","jp_add_1":"稲沢市","jp_add_2":"下津小井戸町"},"4928051":{"post_code":"4928051","prefecture":"AICHI KEN","city":"INAZAWA SHI","town":"ORIZU KOMYOJICHO","perfecture_jp":"愛知県","jp_add_1":"稲沢市","jp_add_2":"下津光明寺町"},"4928053":{"post_code":"4928053","prefecture":"AICHI KEN","city":"INAZAWA SHI","town":"ORIZU JAIKECHO","perfecture_jp":"愛知県","jp_add_1":"稲沢市","jp_add_2":"下津蛇池町"},"4928066":{"post_code":"4928066","prefecture":"AICHI KEN","city":"INAZAWA SHI","town":"ORIZU SHIMMACHI","perfecture_jp":"愛知県","jp_add_1":"稲沢市","jp_add_2":"下津新町"},"4928062":{"post_code":"4928062","prefecture":"AICHI KEN","city":"INAZAWA SHI","town":"ORIZU SUMIYOSHICHO","perfecture_jp":"愛知県","jp_add_1":"稲沢市","jp_add_2":"下津住吉町"},"4928065":{"post_code":"4928065","prefecture":"AICHI KEN","city":"INAZAWA SHI","town":"ORIZU DAIMONCHO","perfecture_jp":"愛知県","jp_add_1":"稲沢市","jp_add_2":"下津大門町"},"4928061":{"post_code":"4928061","prefecture":"AICHI KEN","city":"INAZAWA SHI","town":"ORIZU TAKADOCHO","perfecture_jp":"愛知県","jp_add_1":"稲沢市","jp_add_2":"下津高戸町"},"4928085":{"post_code":"4928085","prefecture":"AICHI KEN","city":"INAZAWA SHI","town":"ORIZU TANGEDACHO","perfecture_jp":"愛知県","jp_add_1":"稲沢市","jp_add_2":"下津丹下田町"},"4928078":{"post_code":"4928078","prefecture":"AICHI KEN","city":"INAZAWA SHI","town":"ORIZU TERAMAECHO","perfecture_jp":"愛知県","jp_add_1":"稲沢市","jp_add_2":"下津寺前町"},"4928077":{"post_code":"4928077","prefecture":"AICHI KEN","city":"INAZAWA SHI","town":"ORIZU DOYAMACHO","perfecture_jp":"愛知県","jp_add_1":"稲沢市","jp_add_2":"下津土山町"},"4928057":{"post_code":"4928057","prefecture":"AICHI KEN","city":"INAZAWA SHI","town":"ORIZU NAGATACHO","perfecture_jp":"愛知県","jp_add_1":"稲沢市","jp_add_2":"下津長田町"},"4928064":{"post_code":"4928064","prefecture":"AICHI KEN","city":"INAZAWA SHI","town":"ORIZU NIHONSUGICHO","perfecture_jp":"愛知県","jp_add_1":"稲沢市","jp_add_2":"下津二本杉町"},"4928052":{"post_code":"4928052","prefecture":"AICHI KEN","city":"INAZAWA SHI","town":"ORIZU FUJITSUKACHO","perfecture_jp":"愛知県","jp_add_1":"稲沢市","jp_add_2":"下津ふじ塚町"},"4928092":{"post_code":"4928092","prefecture":"AICHI KEN","city":"INAZAWA SHI","town":"ORIZU HODOKORO","perfecture_jp":"愛知県","jp_add_1":"稲沢市","jp_add_2":"下津穂所"},"4928055":{"post_code":"4928055","prefecture":"AICHI KEN","city":"INAZAWA SHI","town":"ORIZU HODOKOROCHO","perfecture_jp":"愛知県","jp_add_1":"稲沢市","jp_add_2":"下津穂所町"},"4928071":{"post_code":"4928071","prefecture":"AICHI KEN","city":"INAZAWA SHI","town":"ORIZU HONGOCHO","perfecture_jp":"愛知県","jp_add_1":"稲沢市","jp_add_2":"下津本郷町"},"4928073":{"post_code":"4928073","prefecture":"AICHI KEN","city":"INAZAWA SHI","town":"ORIZU MINAMISHINSHOJICHO","perfecture_jp":"愛知県","jp_add_1":"稲沢市","jp_add_2":"下津南信正寺町"},"4928095":{"post_code":"4928095","prefecture":"AICHI KEN","city":"INAZAWA SHI","town":"ORIZU MINAMIYAMA","perfecture_jp":"愛知県","jp_add_1":"稲沢市","jp_add_2":"下津南山"},"4928084":{"post_code":"4928084","prefecture":"AICHI KEN","city":"INAZAWA SHI","town":"ORIZU MINAMIYAMACHO","perfecture_jp":"愛知県","jp_add_1":"稲沢市","jp_add_2":"下津南山町"},"4928076":{"post_code":"4928076","prefecture":"AICHI KEN","city":"INAZAWA SHI","town":"ORIZU MIYANISHICHO","perfecture_jp":"愛知県","jp_add_1":"稲沢市","jp_add_2":"下津宮西町"},"4928083":{"post_code":"4928083","prefecture":"AICHI KEN","city":"INAZAWA SHI","town":"ORIZU MORIMACHI","perfecture_jp":"愛知県","jp_add_1":"稲沢市","jp_add_2":"下津森町"},"4928063":{"post_code":"4928063","prefecture":"AICHI KEN","city":"INAZAWA SHI","town":"ORIZU YAGUCHICHO","perfecture_jp":"愛知県","jp_add_1":"稲沢市","jp_add_2":"下津矢口町"},"4928074":{"post_code":"4928074","prefecture":"AICHI KEN","city":"INAZAWA SHI","town":"ORIZUSHIMOMACHI HIGASHI","perfecture_jp":"愛知県","jp_add_1":"稲沢市","jp_add_2":"下津下町東"},"4928082":{"post_code":"4928082","prefecture":"AICHI KEN","city":"INAZAWA SHI","town":"ORIZUSHIMOMACHI NISHI","perfecture_jp":"愛知県","jp_add_1":"稲沢市","jp_add_2":"下津下町西"},"4928075":{"post_code":"4928075","prefecture":"AICHI KEN","city":"INAZAWA SHI","town":"ORIZUCHO","perfecture_jp":"愛知県","jp_add_1":"稲沢市","jp_add_2":"下津町"},"4928355":{"post_code":"4928355","prefecture":"AICHI KEN","city":"INAZAWA SHI","town":"KATAHARAISHIKICHO","perfecture_jp":"愛知県","jp_add_1":"稲沢市","jp_add_2":"片原一色町"},"4928174":{"post_code":"4928174","prefecture":"AICHI KEN","city":"INAZAWA SHI","town":"KITAICHIBA NISHIMACHI","perfecture_jp":"愛知県","jp_add_1":"稲沢市","jp_add_2":"北市場西町"},"4928178":{"post_code":"4928178","prefecture":"AICHI KEN","city":"INAZAWA SHI","town":"KITAICHIBA HOMMACHI","perfecture_jp":"愛知県","jp_add_1":"稲沢市","jp_add_2":"北市場本町"},"4928175":{"post_code":"4928175","prefecture":"AICHI KEN","city":"INAZAWA SHI","town":"KITAICHIBA MINAMIMACHI","perfecture_jp":"愛知県","jp_add_1":"稲沢市","jp_add_2":"北市場南町"},"4928173":{"post_code":"4928173","prefecture":"AICHI KEN","city":"INAZAWA SHI","town":"KITAICHIBACHO","perfecture_jp":"愛知県","jp_add_1":"稲沢市","jp_add_2":"北市場町"},"4928448":{"post_code":"4928448","prefecture":"AICHI KEN","city":"INAZAWA SHI","town":"KITAOMICHO","perfecture_jp":"愛知県","jp_add_1":"稲沢市","jp_add_2":"北麻績町"},"4928410":{"post_code":"4928410","prefecture":"AICHI KEN","city":"INAZAWA SHI","town":"KITAJIMA","perfecture_jp":"愛知県","jp_add_1":"稲沢市","jp_add_2":"北島"},"4928411":{"post_code":"4928411","prefecture":"AICHI KEN","city":"INAZAWA SHI","town":"KITAJIMACHO","perfecture_jp":"愛知県","jp_add_1":"稲沢市","jp_add_2":"北島町"},"4928349":{"post_code":"4928349","prefecture":"AICHI KEN","city":"INAZAWA SHI","town":"GICHO","perfecture_jp":"愛知県","jp_add_1":"稲沢市","jp_add_2":"儀長"},"4928210":{"post_code":"4928210","prefecture":"AICHI KEN","city":"INAZAWA SHI","town":"KIMATA","perfecture_jp":"愛知県","jp_add_1":"稲沢市","jp_add_2":"木全"},"4928209":{"post_code":"4928209","prefecture":"AICHI KEN","city":"INAZAWA SHI","town":"KIMATACHO","perfecture_jp":"愛知県","jp_add_1":"稲沢市","jp_add_2":"木全町"},"4928033":{"post_code":"4928033","prefecture":"AICHI KEN","city":"INAZAWA SHI","town":"KUGATA ICHIRIYAMACHO","perfecture_jp":"愛知県","jp_add_1":"稲沢市","jp_add_2":"陸田一里山町"},"4928043":{"post_code":"4928043","prefecture":"AICHI KEN","city":"INAZAWA SHI","town":"KUGATA UMAYAMACHO","perfecture_jp":"愛知県","jp_add_1":"稲沢市","jp_add_2":"陸田馬山町"},"4928034":{"post_code":"4928034","prefecture":"AICHI KEN","city":"INAZAWA SHI","town":"KUGATA KURIBAYASHICHO","perfecture_jp":"愛知県","jp_add_1":"稲沢市","jp_add_2":"陸田栗林町"},"4928031":{"post_code":"4928031","prefecture":"AICHI KEN","city":"INAZAWA SHI","town":"KUGATA TAKABATACHO","perfecture_jp":"愛知県","jp_add_1":"稲沢市","jp_add_2":"陸田高畑町"},"4928037":{"post_code":"4928037","prefecture":"AICHI KEN","city":"INAZAWA SHI","town":"KUGATA HAKUSANCHO","perfecture_jp":"愛知県","jp_add_1":"稲沢市","jp_add_2":"陸田白山町"},"4928042":{"post_code":"4928042","prefecture":"AICHI KEN","city":"INAZAWA SHI","town":"KUGATA HANAZUKACHO","perfecture_jp":"愛知県","jp_add_1":"稲沢市","jp_add_2":"陸田花塚町"},"4928032":{"post_code":"4928032","prefecture":"AICHI KEN","city":"INAZAWA SHI","town":"KUGATA HIGASHIDECHO","perfecture_jp":"愛知県","jp_add_1":"稲沢市","jp_add_2":"陸田東出町"},"4928036":{"post_code":"4928036","prefecture":"AICHI KEN","city":"INAZAWA SHI","town":"KUGATA HOMMACHI","perfecture_jp":"愛知県","jp_add_1":"稲沢市","jp_add_2":"陸田本町"},"4928041":{"post_code":"4928041","prefecture":"AICHI KEN","city":"INAZAWA SHI","town":"KUGATA MARUNOCHICHO","perfecture_jp":"愛知県","jp_add_1":"稲沢市","jp_add_2":"陸田丸之内町"},"4928044":{"post_code":"4928044","prefecture":"AICHI KEN","city":"INAZAWA SHI","town":"KUGATA MIYAMAE","perfecture_jp":"愛知県","jp_add_1":"稲沢市","jp_add_2":"陸田宮前"},"4928035":{"post_code":"4928035","prefecture":"AICHI KEN","city":"INAZAWA SHI","town":"KUGATA MIYAMAECHO","perfecture_jp":"愛知県","jp_add_1":"稲沢市","jp_add_2":"陸田宮前町"},"4928038":{"post_code":"4928038","prefecture":"AICHI KEN","city":"INAZAWA SHI","town":"KUGATACHO","perfecture_jp":"愛知県","jp_add_1":"稲沢市","jp_add_2":"陸田町"},"4928177":{"post_code":"4928177","prefecture":"AICHI KEN","city":"INAZAWA SHI","town":"KUSAKABE HIGASHIMACHI","perfecture_jp":"愛知県","jp_add_1":"稲沢市","jp_add_2":"日下部東町"},"4928185":{"post_code":"4928185","prefecture":"AICHI KEN","city":"INAZAWA SHI","town":"KUSAKABE NISHIMACHI","perfecture_jp":"愛知県","jp_add_1":"稲沢市","jp_add_2":"日下部西町"},"4928183":{"post_code":"4928183","prefecture":"AICHI KEN","city":"INAZAWA SHI","town":"KUSAKABE MINAMIMACHI","perfecture_jp":"愛知県","jp_add_1":"稲沢市","jp_add_2":"日下部南町"},"4928181":{"post_code":"4928181","prefecture":"AICHI KEN","city":"INAZAWA SHI","town":"KUSAKABE KITAMACHI","perfecture_jp":"愛知県","jp_add_1":"稲沢市","jp_add_2":"日下部北町"},"4928182":{"post_code":"4928182","prefecture":"AICHI KEN","city":"INAZAWA SHI","town":"KUSAKABE NAKAMACHI","perfecture_jp":"愛知県","jp_add_1":"稲沢市","jp_add_2":"日下部中町"},"4928176":{"post_code":"4928176","prefecture":"AICHI KEN","city":"INAZAWA SHI","town":"KUSAKABE HANANOKICHO","perfecture_jp":"愛知県","jp_add_1":"稲沢市","jp_add_2":"日下部花ノ木町"},"4928184":{"post_code":"4928184","prefecture":"AICHI KEN","city":"INAZAWA SHI","town":"KUSAKABE MATSUNOCHO","perfecture_jp":"愛知県","jp_add_1":"稲沢市","jp_add_2":"日下部松野町"},"4928186":{"post_code":"4928186","prefecture":"AICHI KEN","city":"INAZAWA SHI","town":"KUSAKABECHO","perfecture_jp":"愛知県","jp_add_1":"稲沢市","jp_add_2":"日下部町"},"4928144":{"post_code":"4928144","prefecture":"AICHI KEN","city":"INAZAWA SHI","town":"KOIKE","perfecture_jp":"愛知県","jp_add_1":"稲沢市","jp_add_2":"小池"},"4928136":{"post_code":"4928136","prefecture":"AICHI KEN","city":"INAZAWA SHI","town":"KOIKESHOMEIJIKITAKAIDO","perfecture_jp":"愛知県","jp_add_1":"稲沢市","jp_add_2":"小池正明寺北街道"},"4928147":{"post_code":"4928147","prefecture":"AICHI KEN","city":"INAZAWA SHI","town":"KOIKESHOMEIJICHO","perfecture_jp":"愛知県","jp_add_1":"稲沢市","jp_add_2":"小池正明寺町"},"4928137":{"post_code":"4928137","prefecture":"AICHI KEN","city":"INAZAWA SHI","town":"KONOMIYA","perfecture_jp":"愛知県","jp_add_1":"稲沢市","jp_add_2":"国府宮"},"4928139":{"post_code":"4928139","prefecture":"AICHI KEN","city":"INAZAWA SHI","town":"KONOMIYAJINDENCHO","perfecture_jp":"愛知県","jp_add_1":"稲沢市","jp_add_2":"国府宮神田町"},"4928138":{"post_code":"4928138","prefecture":"AICHI KEN","city":"INAZAWA SHI","town":"KONOMIYACHO","perfecture_jp":"愛知県","jp_add_1":"稲沢市","jp_add_2":"国府宮町"},"4928101":{"post_code":"4928101","prefecture":"AICHI KEN","city":"INAZAWA SHI","town":"KOWA IKEDACHO","perfecture_jp":"愛知県","jp_add_1":"稲沢市","jp_add_2":"子生和池田町"},"4928105":{"post_code":"4928105","prefecture":"AICHI KEN","city":"INAZAWA SHI","town":"KOWA EMBACHO","perfecture_jp":"愛知県","jp_add_1":"稲沢市","jp_add_2":"子生和円場町"},"4928111":{"post_code":"4928111","prefecture":"AICHI KEN","city":"INAZAWA SHI","town":"KOWA KOHARACHO","perfecture_jp":"愛知県","jp_add_1":"稲沢市","jp_add_2":"子生和小原町"},"4928108":{"post_code":"4928108","prefecture":"AICHI KEN","city":"INAZAWA SHI","town":"KOWA KOYASUGACHO","perfecture_jp":"愛知県","jp_add_1":"稲沢市","jp_add_2":"子生和子安賀町"},"4928112":{"post_code":"4928112","prefecture":"AICHI KEN","city":"INAZAWA SHI","town":"KOWA SAKATACHO","perfecture_jp":"愛知県","jp_add_1":"稲沢市","jp_add_2":"子生和坂田町"},"4928109":{"post_code":"4928109","prefecture":"AICHI KEN","city":"INAZAWA SHI","town":"KOWA SANNOCHO","perfecture_jp":"愛知県","jp_add_1":"稲沢市","jp_add_2":"子生和山王町"},"4928102":{"post_code":"4928102","prefecture":"AICHI KEN","city":"INAZAWA SHI","town":"KOWA SHIMMEICHO","perfecture_jp":"愛知県","jp_add_1":"稲沢市","jp_add_2":"子生和神明町"},"4928107":{"post_code":"4928107","prefecture":"AICHI KEN","city":"INAZAWA SHI","town":"KOWA SUMIYOSHICHO","perfecture_jp":"愛知県","jp_add_1":"稲沢市","jp_add_2":"子生和住吉町"},"4928103":{"post_code":"4928103","prefecture":"AICHI KEN","city":"INAZAWA SHI","town":"KOWA MIZOSHICHO","perfecture_jp":"愛知県","jp_add_1":"稲沢市","jp_add_2":"子生和溝師町"},"4928104":{"post_code":"4928104","prefecture":"AICHI KEN","city":"INAZAWA SHI","town":"KOWA YASHIMACHO","perfecture_jp":"愛知県","jp_add_1":"稲沢市","jp_add_2":"子生和八島町"},"4928106":{"post_code":"4928106","prefecture":"AICHI KEN","city":"INAZAWA SHI","town":"KOWACHO","perfecture_jp":"愛知県","jp_add_1":"稲沢市","jp_add_2":"子生和町"},"4928146":{"post_code":"4928146","prefecture":"AICHI KEN","city":"INAZAWA SHI","town":"GOKUSHOCHO","perfecture_jp":"愛知県","jp_add_1":"稲沢市","jp_add_2":"御供所町"},"4928212":{"post_code":"4928212","prefecture":"AICHI KEN","city":"INAZAWA SHI","town":"KOZAWA","perfecture_jp":"愛知県","jp_add_1":"稲沢市","jp_add_2":"小沢"},"4928265":{"post_code":"4928265","prefecture":"AICHI KEN","city":"INAZAWA SHI","town":"KODERACHO","perfecture_jp":"愛知県","jp_add_1":"稲沢市","jp_add_2":"小寺町"},"4928444":{"post_code":"4928444","prefecture":"AICHI KEN","city":"INAZAWA SHI","town":"KOMINOCHO","perfecture_jp":"愛知県","jp_add_1":"稲沢市","jp_add_2":"込野町"},"4928221":{"post_code":"4928221","prefecture":"AICHI KEN","city":"INAZAWA SHI","town":"SAIWAICHO","perfecture_jp":"愛知県","jp_add_1":"稲沢市","jp_add_2":"幸町"},"4928454":{"post_code":"4928454","prefecture":"AICHI KEN","city":"INAZAWA SHI","town":"SAKATACHO","perfecture_jp":"愛知県","jp_add_1":"稲沢市","jp_add_2":"坂田町"},"4928272":{"post_code":"4928272","prefecture":"AICHI KEN","city":"INAZAWA SHI","town":"SAKURAGI","perfecture_jp":"愛知県","jp_add_1":"稲沢市","jp_add_2":"桜木"},"4928273":{"post_code":"4928273","prefecture":"AICHI KEN","city":"INAZAWA SHI","town":"SAKURAGIMIYAMAECHO","perfecture_jp":"愛知県","jp_add_1":"稲沢市","jp_add_2":"桜木宮前町"},"4928261":{"post_code":"4928261","prefecture":"AICHI KEN","city":"INAZAWA SHI","town":"SHIGEMOTO","perfecture_jp":"愛知県","jp_add_1":"稲沢市","jp_add_2":"重本"},"4928203":{"post_code":"4928203","prefecture":"AICHI KEN","city":"INAZAWA SHI","town":"SHIMA KOHARACHO","perfecture_jp":"愛知県","jp_add_1":"稲沢市","jp_add_2":"島小原町"},"4928201":{"post_code":"4928201","prefecture":"AICHI KEN","city":"INAZAWA SHI","town":"SHIMA KOYASUKACHO","perfecture_jp":"愛知県","jp_add_1":"稲沢市","jp_add_2":"島子安賀町"},"4928204":{"post_code":"4928204","prefecture":"AICHI KEN","city":"INAZAWA SHI","town":"SHIMA TAKASUKACHO","perfecture_jp":"愛知県","jp_add_1":"稲沢市","jp_add_2":"島高須賀町"},"4928202":{"post_code":"4928202","prefecture":"AICHI KEN","city":"INAZAWA SHI","town":"SHIMA HIGASHINOGOCHO","perfecture_jp":"愛知県","jp_add_1":"稲沢市","jp_add_2":"島東之郷町"},"4928205":{"post_code":"4928205","prefecture":"AICHI KEN","city":"INAZAWA SHI","town":"SHIMACHO","perfecture_jp":"愛知県","jp_add_1":"稲沢市","jp_add_2":"島町"},"4928313":{"post_code":"4928313","prefecture":"AICHI KEN","city":"INAZAWA SHI","town":"SHIMIZU AWARACHO","perfecture_jp":"愛知県","jp_add_1":"稲沢市","jp_add_2":"清水阿原町"},"4928315":{"post_code":"4928315","prefecture":"AICHI KEN","city":"INAZAWA SHI","town":"SHIMIZU GONISHICHO","perfecture_jp":"愛知県","jp_add_1":"稲沢市","jp_add_2":"清水郷西町"},"4928316":{"post_code":"4928316","prefecture":"AICHI KEN","city":"INAZAWA SHI","town":"SHIMIZU TERAMAECHO","perfecture_jp":"愛知県","jp_add_1":"稲沢市","jp_add_2":"清水寺前町"},"4928311":{"post_code":"4928311","prefecture":"AICHI KEN","city":"INAZAWA SHI","town":"SHIMIZU NISHIKAWARACHO","perfecture_jp":"愛知県","jp_add_1":"稲沢市","jp_add_2":"清水西川原町"},"4928312":{"post_code":"4928312","prefecture":"AICHI KEN","city":"INAZAWA SHI","town":"SHIMIZU HACHIJIRICHO","perfecture_jp":"愛知県","jp_add_1":"稲沢市","jp_add_2":"清水八尻町"},"4928317":{"post_code":"4928317","prefecture":"AICHI KEN","city":"INAZAWA SHI","town":"SHIMIZU YAGAMICHO","perfecture_jp":"愛知県","jp_add_1":"稲沢市","jp_add_2":"清水八神町"},"4928314":{"post_code":"4928314","prefecture":"AICHI KEN","city":"INAZAWA SHI","town":"SHIMIZUCHO","perfecture_jp":"愛知県","jp_add_1":"稲沢市","jp_add_2":"清水町"},"4928310":{"post_code":"4928310","prefecture":"AICHI KEN","city":"INAZAWA SHI","town":"SHIMOYA","perfecture_jp":"愛知県","jp_add_1":"稲沢市","jp_add_2":"下屋"},"4928319":{"post_code":"4928319","prefecture":"AICHI KEN","city":"INAZAWA SHI","town":"SHIMOYACHO","perfecture_jp":"愛知県","jp_add_1":"稲沢市","jp_add_2":"下屋町"},"4928145":{"post_code":"4928145","prefecture":"AICHI KEN","city":"INAZAWA SHI","town":"SHOMEIJI","perfecture_jp":"愛知県","jp_add_1":"稲沢市","jp_add_2":"正明寺"},"4928135":{"post_code":"4928135","prefecture":"AICHI KEN","city":"INAZAWA SHI","town":"JIROMARU ISHIZUKACHO","perfecture_jp":"愛知県","jp_add_1":"稲沢市","jp_add_2":"治郎丸石塚町"},"4928134":{"post_code":"4928134","prefecture":"AICHI KEN","city":"INAZAWA SHI","town":"JIROMARU OSUMICHO","perfecture_jp":"愛知県","jp_add_1":"稲沢市","jp_add_2":"治郎丸大角町"},"4928115":{"post_code":"4928115","prefecture":"AICHI KEN","city":"INAZAWA SHI","town":"JIROMARU HIGASHIMACHI","perfecture_jp":"愛知県","jp_add_1":"稲沢市","jp_add_2":"治郎丸東町"},"4928116":{"post_code":"4928116","prefecture":"AICHI KEN","city":"INAZAWA SHI","town":"JIROMARU NISHIMACHI","perfecture_jp":"愛知県","jp_add_1":"稲沢市","jp_add_2":"治郎丸西町"},"4928127":{"post_code":"4928127","prefecture":"AICHI KEN","city":"INAZAWA SHI","town":"JIROMARU MINAMIMACHI","perfecture_jp":"愛知県","jp_add_1":"稲沢市","jp_add_2":"治郎丸南町"},"4928118":{"post_code":"4928118","prefecture":"AICHI KEN","city":"INAZAWA SHI","town":"JIROMARU KITAMACHI","perfecture_jp":"愛知県","jp_add_1":"稲沢市","jp_add_2":"治郎丸北町"},"4928126":{"post_code":"4928126","prefecture":"AICHI KEN","city":"INAZAWA SHI","town":"JIROMARU GOMAECHO","perfecture_jp":"愛知県","jp_add_1":"稲沢市","jp_add_2":"治郎丸郷前町"},"4928113":{"post_code":"4928113","prefecture":"AICHI KEN","city":"INAZAWA SHI","town":"JIROMARU SHIMBOKUCHO","perfecture_jp":"愛知県","jp_add_1":"稲沢市","jp_add_2":"治郎丸神木町"},"4928125":{"post_code":"4928125","prefecture":"AICHI KEN","city":"INAZAWA SHI","town":"JIROMARU SEISHIKICHO","perfecture_jp":"愛知県","jp_add_1":"稲沢市","jp_add_2":"治郎丸清敷町"},"4928119":{"post_code":"4928119","prefecture":"AICHI KEN","city":"INAZAWA SHI","town":"JIROMARU DAIMYOCHO","perfecture_jp":"愛知県","jp_add_1":"稲沢市","jp_add_2":"治郎丸大明町"},"4928117":{"post_code":"4928117","prefecture":"AICHI KEN","city":"INAZAWA SHI","town":"JIROMARU TAKASUCHO","perfecture_jp":"愛知県","jp_add_1":"稲沢市","jp_add_2":"治郎丸高須町"},"4928114":{"post_code":"4928114","prefecture":"AICHI KEN","city":"INAZAWA SHI","town":"JIROMARU TSUBAKICHO","perfecture_jp":"愛知県","jp_add_1":"稲沢市","jp_add_2":"治郎丸椿町"},"4928132":{"post_code":"4928132","prefecture":"AICHI KEN","city":"INAZAWA SHI","town":"JIROMARU TENJINCHO","perfecture_jp":"愛知県","jp_add_1":"稲沢市","jp_add_2":"治郎丸天神町"},"4928124":{"post_code":"4928124","prefecture":"AICHI KEN","city":"INAZAWA SHI","town":"JIROMARU DOIMACHI","perfecture_jp":"愛知県","jp_add_1":"稲沢市","jp_add_2":"治郎丸土井町"},"4928128":{"post_code":"4928128","prefecture":"AICHI KEN","city":"INAZAWA SHI","town":"JIROMARU NAKAMACHI","perfecture_jp":"愛知県","jp_add_1":"稲沢市","jp_add_2":"治郎丸中町"},"4928123":{"post_code":"4928123","prefecture":"AICHI KEN","city":"INAZAWA SHI","town":"JIROMARU HAKUSANCHO","perfecture_jp":"愛知県","jp_add_1":"稲沢市","jp_add_2":"治郎丸白山町"},"4928131":{"post_code":"4928131","prefecture":"AICHI KEN","city":"INAZAWA SHI","town":"JIROMARU FURUECHO","perfecture_jp":"愛知県","jp_add_1":"稲沢市","jp_add_2":"治郎丸古江町"},"4928133":{"post_code":"4928133","prefecture":"AICHI KEN","city":"INAZAWA SHI","town":"JIROMARU HOSOMICHICHO","perfecture_jp":"愛知県","jp_add_1":"稲沢市","jp_add_2":"治郎丸細道町"},"4928122":{"post_code":"4928122","prefecture":"AICHI KEN","city":"INAZAWA SHI","town":"JIROMARU MOTOMACHI","perfecture_jp":"愛知県","jp_add_1":"稲沢市","jp_add_2":"治郎丸元町"},"4928121":{"post_code":"4928121","prefecture":"AICHI KEN","city":"INAZAWA SHI","town":"JIROMARU YANAGICHO","perfecture_jp":"愛知県","jp_add_1":"稲沢市","jp_add_2":"治郎丸柳町"},"4928403":{"post_code":"4928403","prefecture":"AICHI KEN","city":"INAZAWA SHI","town":"SENDAI","perfecture_jp":"愛知県","jp_add_1":"稲沢市","jp_add_2":"千代"},"4928404":{"post_code":"4928404","prefecture":"AICHI KEN","city":"INAZAWA SHI","town":"SENDAI NISHIMACHI","perfecture_jp":"愛知県","jp_add_1":"稲沢市","jp_add_2":"千代西町"},"4928402":{"post_code":"4928402","prefecture":"AICHI KEN","city":"INAZAWA SHI","town":"SENDAICHO","perfecture_jp":"愛知県","jp_add_1":"稲沢市","jp_add_2":"千代町"},"4928339":{"post_code":"4928339","prefecture":"AICHI KEN","city":"INAZAWA SHI","town":"TAIRA EMUKAECHO","perfecture_jp":"愛知県","jp_add_1":"稲沢市","jp_add_2":"平江向町"},"4928332":{"post_code":"4928332","prefecture":"AICHI KEN","city":"INAZAWA SHI","town":"TAIRA OGARICHO","perfecture_jp":"愛知県","jp_add_1":"稲沢市","jp_add_2":"平尾苅町"},"4928338":{"post_code":"4928338","prefecture":"AICHI KEN","city":"INAZAWA SHI","town":"TAIRA KANAMORICHO","perfecture_jp":"愛知県","jp_add_1":"稲沢市","jp_add_2":"平金森町"},"4928336":{"post_code":"4928336","prefecture":"AICHI KEN","city":"INAZAWA SHI","town":"TAIRA KARITACHO","perfecture_jp":"愛知県","jp_add_1":"稲沢市","jp_add_2":"平苅田町"},"4928337":{"post_code":"4928337","prefecture":"AICHI KEN","city":"INAZAWA SHI","town":"TAIRA SAIKUZOCHO","perfecture_jp":"愛知県","jp_add_1":"稲沢市","jp_add_2":"平細工蔵町"},"4928334":{"post_code":"4928334","prefecture":"AICHI KEN","city":"INAZAWA SHI","town":"TAIRA TAKAMICHICHO","perfecture_jp":"愛知県","jp_add_1":"稲沢市","jp_add_2":"平高道町"},"4928333":{"post_code":"4928333","prefecture":"AICHI KEN","city":"INAZAWA SHI","town":"TAIRA HACHINOTSUBOCHO","perfecture_jp":"愛知県","jp_add_1":"稲沢市","jp_add_2":"平蜂ノ坪町"},"4928331":{"post_code":"4928331","prefecture":"AICHI KEN","city":"INAZAWA SHI","town":"TAIRA BUKUDENCHO","perfecture_jp":"愛知県","jp_add_1":"稲沢市","jp_add_2":"平佛供田町"},"4928423":{"post_code":"4928423","prefecture":"AICHI KEN","city":"INAZAWA SHI","town":"TAKASHIGE NAKAMACHI","perfecture_jp":"愛知県","jp_add_1":"稲沢市","jp_add_2":"高重中町"},"4928424":{"post_code":"4928424","prefecture":"AICHI KEN","city":"INAZAWA SHI","town":"TAKASHIGE HIGASHIMACHI","perfecture_jp":"愛知県","jp_add_1":"稲沢市","jp_add_2":"高重東町"},"4928421":{"post_code":"4928421","prefecture":"AICHI KEN","city":"INAZAWA SHI","town":"TAKASHIGE NISHIMACHI","perfecture_jp":"愛知県","jp_add_1":"稲沢市","jp_add_2":"高重西町"},"4928422":{"post_code":"4928422","prefecture":"AICHI KEN","city":"INAZAWA SHI","town":"TAKASHIGECHO","perfecture_jp":"愛知県","jp_add_1":"稲沢市","jp_add_2":"高重町"},"4928213":{"post_code":"4928213","prefecture":"AICHI KEN","city":"INAZAWA SHI","town":"TAKAMIDO","perfecture_jp":"愛知県","jp_add_1":"稲沢市","jp_add_2":"高御堂"},"4928285":{"post_code":"4928285","prefecture":"AICHI KEN","city":"INAZAWA SHI","town":"TAKENOKOSHI HIGASHIMACHI","perfecture_jp":"愛知県","jp_add_1":"稲沢市","jp_add_2":"竹腰東町"},"4928287":{"post_code":"4928287","prefecture":"AICHI KEN","city":"INAZAWA SHI","town":"TAKENOKOSHI NISHIMACHI","perfecture_jp":"愛知県","jp_add_1":"稲沢市","jp_add_2":"竹腰西町"},"4928288":{"post_code":"4928288","prefecture":"AICHI KEN","city":"INAZAWA SHI","town":"TAKENOKOSHI KITAMACHI","perfecture_jp":"愛知県","jp_add_1":"稲沢市","jp_add_2":"竹腰北町"},"4928286":{"post_code":"4928286","prefecture":"AICHI KEN","city":"INAZAWA SHI","town":"TAKENOKOSHI NAKAMACHI","perfecture_jp":"愛知県","jp_add_1":"稲沢市","jp_add_2":"竹腰中町"},"4928289":{"post_code":"4928289","prefecture":"AICHI KEN","city":"INAZAWA SHI","town":"TAKENOKOSHI HOMMACHI","perfecture_jp":"愛知県","jp_add_1":"稲沢市","jp_add_2":"竹腰本町"},"4928455":{"post_code":"4928455","prefecture":"AICHI KEN","city":"INAZAWA SHI","town":"TASHIRO","perfecture_jp":"愛知県","jp_add_1":"稲沢市","jp_add_2":"田代"},"4928442":{"post_code":"4928442","prefecture":"AICHI KEN","city":"INAZAWA SHI","town":"TSUKESHIMACHO","perfecture_jp":"愛知県","jp_add_1":"稲沢市","jp_add_2":"附島町"},"4928391":{"post_code":"4928391","prefecture":"AICHI KEN","city":"INAZAWA SHI","town":"NAKANOKAWABATACHO","perfecture_jp":"愛知県","jp_add_1":"稲沢市","jp_add_2":"中野川端町"},"4928436":{"post_code":"4928436","prefecture":"AICHI KEN","city":"INAZAWA SHI","town":"NAKANOSHO KAIDOCHO","perfecture_jp":"愛知県","jp_add_1":"稲沢市","jp_add_2":"中之庄海道町"},"4928431":{"post_code":"4928431","prefecture":"AICHI KEN","city":"INAZAWA SHI","town":"NAKANOSHO TAKABATACHO","perfecture_jp":"愛知県","jp_add_1":"稲沢市","jp_add_2":"中之庄高畑町"},"4928434":{"post_code":"4928434","prefecture":"AICHI KEN","city":"INAZAWA SHI","town":"NAKANOSHO TSUTSUMIGUROCHO","perfecture_jp":"愛知県","jp_add_1":"稲沢市","jp_add_2":"中之庄堤畔町"},"4928437":{"post_code":"4928437","prefecture":"AICHI KEN","city":"INAZAWA SHI","town":"NAKANOSHO NAGATSUTSUMICHO","perfecture_jp":"愛知県","jp_add_1":"稲沢市","jp_add_2":"中之庄長堤町"},"4928432":{"post_code":"4928432","prefecture":"AICHI KEN","city":"INAZAWA SHI","town":"NAKANOSHO HANDACHO","perfecture_jp":"愛知県","jp_add_1":"稲沢市","jp_add_2":"中之庄半田町"},"4928433":{"post_code":"4928433","prefecture":"AICHI KEN","city":"INAZAWA SHI","town":"NAKANOSHO MOTOYASHIKICHO","perfecture_jp":"愛知県","jp_add_1":"稲沢市","jp_add_2":"中之庄元屋敷町"},"4928435":{"post_code":"4928435","prefecture":"AICHI KEN","city":"INAZAWA SHI","town":"NAKANOSHOCHO","perfecture_jp":"愛知県","jp_add_1":"稲沢市","jp_add_2":"中之庄町"},"4928142":{"post_code":"4928142","prefecture":"AICHI KEN","city":"INAZAWA SHI","town":"NAGANO","perfecture_jp":"愛知県","jp_add_1":"稲沢市","jp_add_2":"長野"},"4928141":{"post_code":"4928141","prefecture":"AICHI KEN","city":"INAZAWA SHI","town":"NAGANOCHO","perfecture_jp":"愛知県","jp_add_1":"稲沢市","jp_add_2":"長野町"},"4928393":{"post_code":"4928393","prefecture":"AICHI KEN","city":"INAZAWA SHI","town":"NAKANOMIYAMACHI","perfecture_jp":"愛知県","jp_add_1":"稲沢市","jp_add_2":"中野宮町"},"4928392":{"post_code":"4928392","prefecture":"AICHI KEN","city":"INAZAWA SHI","town":"NAKANOMOTOMACHI","perfecture_jp":"愛知県","jp_add_1":"稲沢市","jp_add_2":"中野元町"},"4928167":{"post_code":"4928167","prefecture":"AICHI KEN","city":"INAZAWA SHI","town":"NAZUKACHO","perfecture_jp":"愛知県","jp_add_1":"稲沢市","jp_add_2":"長束町"},"4928439":{"post_code":"4928439","prefecture":"AICHI KEN","city":"INAZAWA SHI","town":"NANATSUDERACHO","perfecture_jp":"愛知県","jp_add_1":"稲沢市","jp_add_2":"七ツ寺町"},"4928328":{"post_code":"4928328","prefecture":"AICHI KEN","city":"INAZAWA SHI","town":"NISHIJIMA","perfecture_jp":"愛知県","jp_add_1":"稲沢市","jp_add_2":"西島"},"4928323":{"post_code":"4928323","prefecture":"AICHI KEN","city":"INAZAWA SHI","town":"NISHIJIMA SHIMMACHI","perfecture_jp":"愛知県","jp_add_1":"稲沢市","jp_add_2":"西島新町"},"4928322":{"post_code":"4928322","prefecture":"AICHI KEN","city":"INAZAWA SHI","town":"NISHIJIMA DEMACHI","perfecture_jp":"愛知県","jp_add_1":"稲沢市","jp_add_2":"西島出町"},"4928327":{"post_code":"4928327","prefecture":"AICHI KEN","city":"INAZAWA SHI","town":"NISHIJIMA NAKAMACHI","perfecture_jp":"愛知県","jp_add_1":"稲沢市","jp_add_2":"西島中町"},"4928325":{"post_code":"4928325","prefecture":"AICHI KEN","city":"INAZAWA SHI","town":"NISHIJIMA HIGASHIMACHI","perfecture_jp":"愛知県","jp_add_1":"稲沢市","jp_add_2":"西島東町"},"4928321":{"post_code":"4928321","prefecture":"AICHI KEN","city":"INAZAWA SHI","town":"NISHIJIMA KITAMACHI","perfecture_jp":"愛知県","jp_add_1":"稲沢市","jp_add_2":"西島北町"},"4928326":{"post_code":"4928326","prefecture":"AICHI KEN","city":"INAZAWA SHI","town":"NISHIJIMA HOMMACHI","perfecture_jp":"愛知県","jp_add_1":"稲沢市","jp_add_2":"西島本町"},"4928329":{"post_code":"4928329","prefecture":"AICHI KEN","city":"INAZAWA SHI","town":"NISHIJIMACHO","perfecture_jp":"愛知県","jp_add_1":"稲沢市","jp_add_2":"西島町"},"4928218":{"post_code":"4928218","prefecture":"AICHI KEN","city":"INAZAWA SHI","town":"NISHIMACHI","perfecture_jp":"愛知県","jp_add_1":"稲沢市","jp_add_2":"西町"},"4928452":{"post_code":"4928452","prefecture":"AICHI KEN","city":"INAZAWA SHI","town":"NISHIMIZOGUCHICHO","perfecture_jp":"愛知県","jp_add_1":"稲沢市","jp_add_2":"西溝口町"},"4928447":{"post_code":"4928447","prefecture":"AICHI KEN","city":"INAZAWA SHI","town":"NOSAKICHO","perfecture_jp":"愛知県","jp_add_1":"稲沢市","jp_add_2":"野崎町"},"4928307":{"post_code":"4928307","prefecture":"AICHI KEN","city":"INAZAWA SHI","town":"HAIDE KAMIYAMACHO","perfecture_jp":"愛知県","jp_add_1":"稲沢市","jp_add_2":"生出上山町"},"4928305":{"post_code":"4928305","prefecture":"AICHI KEN","city":"INAZAWA SHI","town":"HAIDE GOMAECHO","perfecture_jp":"愛知県","jp_add_1":"稲沢市","jp_add_2":"生出郷前町"},"4928308":{"post_code":"4928308","prefecture":"AICHI KEN","city":"INAZAWA SHI","town":"HAIDE KOEDOCHO","perfecture_jp":"愛知県","jp_add_1":"稲沢市","jp_add_2":"生出河戸町"},"4928302":{"post_code":"4928302","prefecture":"AICHI KEN","city":"INAZAWA SHI","town":"HAIDE NISHIDONECHO","perfecture_jp":"愛知県","jp_add_1":"稲沢市","jp_add_2":"生出西道根町"},"4928303":{"post_code":"4928303","prefecture":"AICHI KEN","city":"INAZAWA SHI","town":"HAIDE HIGASHIDONECHO","perfecture_jp":"愛知県","jp_add_1":"稲沢市","jp_add_2":"生出東道根町"},"4928301":{"post_code":"4928301","prefecture":"AICHI KEN","city":"INAZAWA SHI","town":"HAIDE HOMMACHI","perfecture_jp":"愛知県","jp_add_1":"稲沢市","jp_add_2":"生出本町"},"4928304":{"post_code":"4928304","prefecture":"AICHI KEN","city":"INAZAWA SHI","town":"HAIDE YAMADACHO","perfecture_jp":"愛知県","jp_add_1":"稲沢市","jp_add_2":"生出山田町"},"4928306":{"post_code":"4928306","prefecture":"AICHI KEN","city":"INAZAWA SHI","town":"HAIDE YOKONISHICHO","perfecture_jp":"愛知県","jp_add_1":"稲沢市","jp_add_2":"生出横西町"},"4928348":{"post_code":"4928348","prefecture":"AICHI KEN","city":"INAZAWA SHI","town":"BAMBA","perfecture_jp":"愛知県","jp_add_1":"稲沢市","jp_add_2":"馬場"},"4928341":{"post_code":"4928341","prefecture":"AICHI KEN","city":"INAZAWA SHI","town":"BAMBACHO","perfecture_jp":"愛知県","jp_add_1":"稲沢市","jp_add_2":"馬場町"},"4928251":{"post_code":"4928251","prefecture":"AICHI KEN","city":"INAZAWA SHI","town":"HIGASHIMIDORIMACHI","perfecture_jp":"愛知県","jp_add_1":"稲沢市","jp_add_2":"東緑町"},"4928161":{"post_code":"4928161","prefecture":"AICHI KEN","city":"INAZAWA SHI","town":"HISHIMACHI","perfecture_jp":"愛知県","jp_add_1":"稲沢市","jp_add_2":"菱町"},"4928456":{"post_code":"4928456","prefecture":"AICHI KEN","city":"INAZAWA SHI","town":"HIMUROCHO","perfecture_jp":"愛知県","jp_add_1":"稲沢市","jp_add_2":"氷室町"},"4928263":{"post_code":"4928263","prefecture":"AICHI KEN","city":"INAZAWA SHI","town":"HIRANO","perfecture_jp":"愛知県","jp_add_1":"稲沢市","jp_add_2":"平野"},"4928264":{"post_code":"4928264","prefecture":"AICHI KEN","city":"INAZAWA SHI","town":"HIRANOCHO","perfecture_jp":"愛知県","jp_add_1":"稲沢市","jp_add_2":"平野町"},"4928441":{"post_code":"4928441","prefecture":"AICHI KEN","city":"INAZAWA SHI","town":"FUKUJIMACHO","perfecture_jp":"愛知県","jp_add_1":"稲沢市","jp_add_2":"福島町"},"4928267":{"post_code":"4928267","prefecture":"AICHI KEN","city":"INAZAWA SHI","town":"FUNABASHICHO","perfecture_jp":"愛知県","jp_add_1":"稲沢市","jp_add_2":"船橋町"},"4928335":{"post_code":"4928335","prefecture":"AICHI KEN","city":"INAZAWA SHI","town":"HOKKEJICHO","perfecture_jp":"愛知県","jp_add_1":"稲沢市","jp_add_2":"法花寺町"},"4928438":{"post_code":"4928438","prefecture":"AICHI KEN","city":"INAZAWA SHI","town":"HOTTACHO","perfecture_jp":"愛知県","jp_add_1":"稲沢市","jp_add_2":"堀田町"},"4928405":{"post_code":"4928405","prefecture":"AICHI KEN","city":"INAZAWA SHI","town":"HORINOCHICHO","perfecture_jp":"愛知県","jp_add_1":"稲沢市","jp_add_2":"堀之内町"},"4928220":{"post_code":"4928220","prefecture":"AICHI KEN","city":"INAZAWA SHI","town":"MAEDA","perfecture_jp":"愛知県","jp_add_1":"稲沢市","jp_add_2":"前田"},"4928426":{"post_code":"4928426","prefecture":"AICHI KEN","city":"INAZAWA SHI","town":"MASHITA HIGASHIMACHI","perfecture_jp":"愛知県","jp_add_1":"稲沢市","jp_add_2":"増田東町"},"4928429":{"post_code":"4928429","prefecture":"AICHI KEN","city":"INAZAWA SHI","town":"MASHITA NISHIMACHI","perfecture_jp":"愛知県","jp_add_1":"稲沢市","jp_add_2":"増田西町"},"4928427":{"post_code":"4928427","prefecture":"AICHI KEN","city":"INAZAWA SHI","town":"MASHITA MINAMIMACHI","perfecture_jp":"愛知県","jp_add_1":"稲沢市","jp_add_2":"増田南町"},"4928425":{"post_code":"4928425","prefecture":"AICHI KEN","city":"INAZAWA SHI","town":"MASHITA KITAMACHI","perfecture_jp":"愛知県","jp_add_1":"稲沢市","jp_add_2":"増田北町"},"4928428":{"post_code":"4928428","prefecture":"AICHI KEN","city":"INAZAWA SHI","town":"MASHITACHO","perfecture_jp":"愛知県","jp_add_1":"稲沢市","jp_add_2":"増田町"},"4928208":{"post_code":"4928208","prefecture":"AICHI KEN","city":"INAZAWA SHI","town":"MATSUSHITA","perfecture_jp":"愛知県","jp_add_1":"稲沢市","jp_add_2":"松下"},"4928252":{"post_code":"4928252","prefecture":"AICHI KEN","city":"INAZAWA SHI","town":"MIDORIMACHI","perfecture_jp":"愛知県","jp_add_1":"稲沢市","jp_add_2":"緑町"},"4928445":{"post_code":"4928445","prefecture":"AICHI KEN","city":"INAZAWA SHI","town":"MINAMIOMICHO","perfecture_jp":"愛知県","jp_add_1":"稲沢市","jp_add_2":"南麻績町"},"4928446":{"post_code":"4928446","prefecture":"AICHI KEN","city":"INAZAWA SHI","town":"MUKUICHO","perfecture_jp":"愛知県","jp_add_1":"稲沢市","jp_add_2":"目比町"},"4928401":{"post_code":"4928401","prefecture":"AICHI KEN","city":"INAZAWA SHI","town":"MESUKACHO","perfecture_jp":"愛知県","jp_add_1":"稲沢市","jp_add_2":"梅須賀町"},"4928346":{"post_code":"4928346","prefecture":"AICHI KEN","city":"INAZAWA SHI","town":"YAMAGUCHI HOMMACHI","perfecture_jp":"愛知県","jp_add_1":"稲沢市","jp_add_2":"山口本町"},"4928344":{"post_code":"4928344","prefecture":"AICHI KEN","city":"INAZAWA SHI","town":"YAMAGUCHI MINAMIMACHI","perfecture_jp":"愛知県","jp_add_1":"稲沢市","jp_add_2":"山口南町"},"4928345":{"post_code":"4928345","prefecture":"AICHI KEN","city":"INAZAWA SHI","town":"YAMAGUCHI MIYAMAECHO","perfecture_jp":"愛知県","jp_add_1":"稲沢市","jp_add_2":"山口宮前町"},"4928347":{"post_code":"4928347","prefecture":"AICHI KEN","city":"INAZAWA SHI","town":"YAMAGUCHICHO","perfecture_jp":"愛知県","jp_add_1":"稲沢市","jp_add_2":"山口町"},"4928342":{"post_code":"4928342","prefecture":"AICHI KEN","city":"INAZAWA SHI","town":"YAWASECHO","perfecture_jp":"愛知県","jp_add_1":"稲沢市","jp_add_2":"矢合町"},"4928266":{"post_code":"4928266","prefecture":"AICHI KEN","city":"INAZAWA SHI","town":"YOKOCHI","perfecture_jp":"愛知県","jp_add_1":"稲沢市","jp_add_2":"横地"},"4928385":{"post_code":"4928385","prefecture":"AICHI KEN","city":"INAZAWA SHI","town":"YOKONO KAWARACHO","perfecture_jp":"愛知県","jp_add_1":"稲沢市","jp_add_2":"横野河原町"},"4928388":{"post_code":"4928388","prefecture":"AICHI KEN","city":"INAZAWA SHI","town":"YOKONO SAKAIZUKACHO","perfecture_jp":"愛知県","jp_add_1":"稲沢市","jp_add_2":"横野境塚町"},"4928387":{"post_code":"4928387","prefecture":"AICHI KEN","city":"INAZAWA SHI","town":"YOKONO JINDENCHO","perfecture_jp":"愛知県","jp_add_1":"稲沢市","jp_add_2":"横野神田町"},"4928382":{"post_code":"4928382","prefecture":"AICHI KEN","city":"INAZAWA SHI","town":"YOKONO DONECHO","perfecture_jp":"愛知県","jp_add_1":"稲沢市","jp_add_2":"横野堂根町"},"4928381":{"post_code":"4928381","prefecture":"AICHI KEN","city":"INAZAWA SHI","town":"YOKONO NISHIGOCHO","perfecture_jp":"愛知県","jp_add_1":"稲沢市","jp_add_2":"横野西郷町"},"4928384":{"post_code":"4928384","prefecture":"AICHI KEN","city":"INAZAWA SHI","town":"YOKONO HIGASHIGOCHO","perfecture_jp":"愛知県","jp_add_1":"稲沢市","jp_add_2":"横野東郷町"},"4928383":{"post_code":"4928383","prefecture":"AICHI KEN","city":"INAZAWA SHI","town":"YOKONO HIGASHIDECHO","perfecture_jp":"愛知県","jp_add_1":"稲沢市","jp_add_2":"横野東出町"},"4928386":{"post_code":"4928386","prefecture":"AICHI KEN","city":"INAZAWA SHI","town":"YOKONO MATSUMAECHO","perfecture_jp":"愛知県","jp_add_1":"稲沢市","jp_add_2":"横野松前町"},"4928389":{"post_code":"4928389","prefecture":"AICHI KEN","city":"INAZAWA SHI","town":"YOKONOCHO","perfecture_jp":"愛知県","jp_add_1":"稲沢市","jp_add_2":"横野町"},"4928172":{"post_code":"4928172","prefecture":"AICHI KEN","city":"INAZAWA SHI","town":"ROKKAKUDO HIGASHIMACHI","perfecture_jp":"愛知県","jp_add_1":"稲沢市","jp_add_2":"六角堂東町"},"4928171":{"post_code":"4928171","prefecture":"AICHI KEN","city":"INAZAWA SHI","town":"ROKKAKUDO NISHIMACHI","perfecture_jp":"愛知県","jp_add_1":"稲沢市","jp_add_2":"六角堂西町"}}