{"4930006":{"post_code":"4930006","prefecture":"AICHI KEN","city":"ICHINOMIYA SHI","town":"KISOGAWACHO UCHIWARIDEN","perfecture_jp":"愛知県","jp_add_1":"一宮市","jp_add_2":"木曽川町内割田"},"4930002":{"post_code":"4930002","prefecture":"AICHI KEN","city":"ICHINOMIYA SHI","town":"KISOGAWACHO KADOMA","perfecture_jp":"愛知県","jp_add_1":"一宮市","jp_add_2":"木曽川町門間"},"4930001":{"post_code":"4930001","prefecture":"AICHI KEN","city":"ICHINOMIYA SHI","town":"KISOGAWACHO KURODA","perfecture_jp":"愛知県","jp_add_1":"一宮市","jp_add_2":"木曽川町黒田"},"4930005":{"post_code":"4930005","prefecture":"AICHI KEN","city":"ICHINOMIYA SHI","town":"KISOGAWACHO SATOKOMAKI","perfecture_jp":"愛知県","jp_add_1":"一宮市","jp_add_2":"木曽川町里小牧"},"4930007":{"post_code":"4930007","prefecture":"AICHI KEN","city":"ICHINOMIYA SHI","town":"KISOGAWACHO SOTOWARIDEN","perfecture_jp":"愛知県","jp_add_1":"一宮市","jp_add_2":"木曽川町外割田"},"4930004":{"post_code":"4930004","prefecture":"AICHI KEN","city":"ICHINOMIYA SHI","town":"KISOGAWACHO TAMANOI","perfecture_jp":"愛知県","jp_add_1":"一宮市","jp_add_2":"木曽川町玉ノ井"},"4930003":{"post_code":"4930003","prefecture":"AICHI KEN","city":"ICHINOMIYA SHI","town":"KISOGAWACHO MITSUHOJI","perfecture_jp":"愛知県","jp_add_1":"一宮市","jp_add_2":"木曽川町三ツ法寺"},"4938001":{"post_code":"4938001","prefecture":"AICHI KEN","city":"ICHINOMIYA SHI","town":"KITAGATACHO KITAGATA","perfecture_jp":"愛知県","jp_add_1":"一宮市","jp_add_2":"北方町北方"},"4938002":{"post_code":"4938002","prefecture":"AICHI KEN","city":"ICHINOMIYA SHI","town":"KITAGATACHO SONE","perfecture_jp":"愛知県","jp_add_1":"一宮市","jp_add_2":"北方町曽根"},"4938003":{"post_code":"4938003","prefecture":"AICHI KEN","city":"ICHINOMIYA SHI","town":"KITAGATACHO NAKAJIMA","perfecture_jp":"愛知県","jp_add_1":"一宮市","jp_add_2":"北方町中島"}}