{"4940006":{"post_code":"4940006","prefecture":"AICHI KEN","city":"ICHINOMIYA SHI","town":"OKOSHI","perfecture_jp":"愛知県","jp_add_1":"一宮市","jp_add_2":"起"},"4940001":{"post_code":"4940001","prefecture":"AICHI KEN","city":"ICHINOMIYA SHI","town":"KAIMEI","perfecture_jp":"愛知県","jp_add_1":"一宮市","jp_add_2":"開明"},"4940002":{"post_code":"4940002","prefecture":"AICHI KEN","city":"ICHINOMIYA SHI","town":"KAGOYA","perfecture_jp":"愛知県","jp_add_1":"一宮市","jp_add_2":"篭屋"},"4940014":{"post_code":"4940014","prefecture":"AICHI KEN","city":"ICHINOMIYA SHI","town":"KAMISOBUE","perfecture_jp":"愛知県","jp_add_1":"一宮市","jp_add_2":"上祖父江"},"4940004":{"post_code":"4940004","prefecture":"AICHI KEN","city":"ICHINOMIYA SHI","town":"KITAIMA","perfecture_jp":"愛知県","jp_add_1":"一宮市","jp_add_2":"北今"},"4940007":{"post_code":"4940007","prefecture":"AICHI KEN","city":"ICHINOMIYA SHI","town":"KONOBUNAKASHIMA","perfecture_jp":"愛知県","jp_add_1":"一宮市","jp_add_2":"小信中島"},"4940003":{"post_code":"4940003","prefecture":"AICHI KEN","city":"ICHINOMIYA SHI","town":"SANJO","perfecture_jp":"愛知県","jp_add_1":"一宮市","jp_add_2":"三条"},"4940013":{"post_code":"4940013","prefecture":"AICHI KEN","city":"ICHINOMIYA SHI","town":"TAMANO","perfecture_jp":"愛知県","jp_add_1":"一宮市","jp_add_2":"玉野"},"4940018":{"post_code":"4940018","prefecture":"AICHI KEN","city":"ICHINOMIYA SHI","town":"TOMIDA","perfecture_jp":"愛知県","jp_add_1":"一宮市","jp_add_2":"冨田"},"4940005":{"post_code":"4940005","prefecture":"AICHI KEN","city":"ICHINOMIYA SHI","town":"NISHIITSUSHIRO","perfecture_jp":"愛知県","jp_add_1":"一宮市","jp_add_2":"西五城"},"4940015":{"post_code":"4940015","prefecture":"AICHI KEN","city":"ICHINOMIYA SHI","town":"NISHINAKANO","perfecture_jp":"愛知県","jp_add_1":"一宮市","jp_add_2":"西中野"},"4940011":{"post_code":"4940011","prefecture":"AICHI KEN","city":"ICHINOMIYA SHI","town":"NISHIHAGIWARA","perfecture_jp":"愛知県","jp_add_1":"一宮市","jp_add_2":"西萩原"},"4940019":{"post_code":"4940019","prefecture":"AICHI KEN","city":"ICHINOMIYA SHI","town":"HASUIKE","perfecture_jp":"愛知県","jp_add_1":"一宮市","jp_add_2":"蓮池"},"4940008":{"post_code":"4940008","prefecture":"AICHI KEN","city":"ICHINOMIYA SHI","town":"HIGASHIITSUSHIRO","perfecture_jp":"愛知県","jp_add_1":"一宮市","jp_add_2":"東五城"},"4940016":{"post_code":"4940016","prefecture":"AICHI KEN","city":"ICHINOMIYA SHI","town":"HIGASHIKAGANOI","perfecture_jp":"愛知県","jp_add_1":"一宮市","jp_add_2":"東加賀野井"},"4940012":{"post_code":"4940012","prefecture":"AICHI KEN","city":"ICHINOMIYA SHI","town":"MEICHI","perfecture_jp":"愛知県","jp_add_1":"一宮市","jp_add_2":"明地"},"4940017":{"post_code":"4940017","prefecture":"AICHI KEN","city":"ICHINOMIYA SHI","town":"YUKU","perfecture_jp":"愛知県","jp_add_1":"一宮市","jp_add_2":"祐久"}}