{"4950014":{"post_code":"4950014","prefecture":"AICHI KEN","city":"INAZAWA SHI","town":"SOBUECHO OMAKI","perfecture_jp":"愛知県","jp_add_1":"稲沢市","jp_add_2":"祖父江町大牧"},"4950022":{"post_code":"4950022","prefecture":"AICHI KEN","city":"INAZAWA SHI","town":"SOBUECHO KABUTOSHINDEN","perfecture_jp":"愛知県","jp_add_1":"稲沢市","jp_add_2":"祖父江町甲新田"},"4950031":{"post_code":"4950031","prefecture":"AICHI KEN","city":"INAZAWA SHI","town":"SOBUECHO KAMMAKI","perfecture_jp":"愛知県","jp_add_1":"稲沢市","jp_add_2":"祖父江町上牧"},"4950015":{"post_code":"4950015","prefecture":"AICHI KEN","city":"INAZAWA SHI","town":"SOBUECHO SAKURAGATA","perfecture_jp":"愛知県","jp_add_1":"稲沢市","jp_add_2":"祖父江町桜方"},"4950021":{"post_code":"4950021","prefecture":"AICHI KEN","city":"INAZAWA SHI","town":"SOBUECHO SAMMARUBUCHI","perfecture_jp":"愛知県","jp_add_1":"稲沢市","jp_add_2":"祖父江町三丸渕"},"4950037":{"post_code":"4950037","prefecture":"AICHI KEN","city":"INAZAWA SHI","town":"SOBUECHO JITCHONO","perfecture_jp":"愛知県","jp_add_1":"稲沢市","jp_add_2":"祖父江町拾町野"},"4950023":{"post_code":"4950023","prefecture":"AICHI KEN","city":"INAZAWA SHI","town":"SOBUECHO SHIMAMOTO","perfecture_jp":"愛知県","jp_add_1":"稲沢市","jp_add_2":"祖父江町島本"},"4950035":{"post_code":"4950035","prefecture":"AICHI KEN","city":"INAZAWA SHI","town":"SOBUECHO SHIMMYOZU","perfecture_jp":"愛知県","jp_add_1":"稲沢市","jp_add_2":"祖父江町神明津"},"4950001":{"post_code":"4950001","prefecture":"AICHI KEN","city":"INAZAWA SHI","town":"SOBUECHO SOBUE","perfecture_jp":"愛知県","jp_add_1":"稲沢市","jp_add_2":"祖父江町祖父江"},"4950032":{"post_code":"4950032","prefecture":"AICHI KEN","city":"INAZAWA SHI","town":"SOBUECHO NAKAMAKI","perfecture_jp":"愛知県","jp_add_1":"稲沢市","jp_add_2":"祖父江町中牧"},"4950034":{"post_code":"4950034","prefecture":"AICHI KEN","city":"INAZAWA SHI","town":"SOBUECHO NISHIUNOMOTO","perfecture_jp":"愛知県","jp_add_1":"稲沢市","jp_add_2":"祖父江町西鵜之本"},"4950024":{"post_code":"4950024","prefecture":"AICHI KEN","city":"INAZAWA SHI","town":"SOBUECHO NODA","perfecture_jp":"愛知県","jp_add_1":"稲沢市","jp_add_2":"祖父江町野田"},"4950013":{"post_code":"4950013","prefecture":"AICHI KEN","city":"INAZAWA SHI","town":"SOBUECHO FUTAMATA","perfecture_jp":"愛知県","jp_add_1":"稲沢市","jp_add_2":"祖父江町二俣"},"4950012":{"post_code":"4950012","prefecture":"AICHI KEN","city":"INAZAWA SHI","town":"SOBUECHO HONKO","perfecture_jp":"愛知県","jp_add_1":"稲沢市","jp_add_2":"祖父江町本甲"},"4950036":{"post_code":"4950036","prefecture":"AICHI KEN","city":"INAZAWA SHI","town":"SOBUECHO MAKAI","perfecture_jp":"愛知県","jp_add_1":"稲沢市","jp_add_2":"祖父江町馬飼"},"4950011":{"post_code":"4950011","prefecture":"AICHI KEN","city":"INAZAWA SHI","town":"SOBUECHO MORIKAMI","perfecture_jp":"愛知県","jp_add_1":"稲沢市","jp_add_2":"祖父江町森上"},"4950002":{"post_code":"4950002","prefecture":"AICHI KEN","city":"INAZAWA SHI","town":"SOBUECHO YAMAZAKI","perfecture_jp":"愛知県","jp_add_1":"稲沢市","jp_add_2":"祖父江町山崎"},"4950033":{"post_code":"4950033","prefecture":"AICHI KEN","city":"INAZAWA SHI","town":"SOBUECHO YOTSUNOKI","perfecture_jp":"愛知県","jp_add_1":"稲沢市","jp_add_2":"祖父江町四貫"},"4950025":{"post_code":"4950025","prefecture":"AICHI KEN","city":"INAZAWA SHI","town":"SOBUECHO RYOJINAI","perfecture_jp":"愛知県","jp_add_1":"稲沢市","jp_add_2":"祖父江町両寺内"}}