{"4960000":{"post_code":"4960000","prefecture":"AICHI KEN","city":"AISAI SHI","town":"IKANIKEISAIGANAIBAAI","perfecture_jp":"愛知県","jp_add_1":"津島市","jp_add_2":""},"4960001":{"post_code":"4960001","prefecture":"AICHI KEN","city":"TSUSHIMA SHI","town":"AOTSUKACHO","perfecture_jp":"愛知県","jp_add_1":"津島市","jp_add_2":"青塚町"},"4960036":{"post_code":"4960036","prefecture":"AICHI KEN","city":"TSUSHIMA SHI","town":"ATAGOCHO","perfecture_jp":"愛知県","jp_add_1":"津島市","jp_add_2":"愛宕町"},"4960842":{"post_code":"4960842","prefecture":"AICHI KEN","city":"TSUSHIMA SHI","town":"IKADABACHO","perfecture_jp":"愛知県","jp_add_1":"津島市","jp_add_2":"筏場町"},"4960828":{"post_code":"4960828","prefecture":"AICHI KEN","city":"TSUSHIMA SHI","town":"IKESUCHO","perfecture_jp":"愛知県","jp_add_1":"津島市","jp_add_2":"池須町"},"4960806":{"post_code":"4960806","prefecture":"AICHI KEN","city":"TSUSHIMA SHI","town":"IKEFUCHO","perfecture_jp":"愛知県","jp_add_1":"津島市","jp_add_2":"池麩町"},"4960873":{"post_code":"4960873","prefecture":"AICHI KEN","city":"TSUSHIMA SHI","town":"IPPONGICHO","perfecture_jp":"愛知県","jp_add_1":"津島市","jp_add_2":"一本木町"},"4960803":{"post_code":"4960803","prefecture":"AICHI KEN","city":"TSUSHIMA SHI","town":"IMAICHIBACHO","perfecture_jp":"愛知県","jp_add_1":"津島市","jp_add_2":"今市場町"},"4960033":{"post_code":"4960033","prefecture":"AICHI KEN","city":"TSUSHIMA SHI","town":"IRIMAECHO","perfecture_jp":"愛知県","jp_add_1":"津島市","jp_add_2":"杁前町"},"4960018":{"post_code":"4960018","prefecture":"AICHI KEN","city":"TSUSHIMA SHI","town":"USHIDACHO","perfecture_jp":"愛知県","jp_add_1":"津島市","jp_add_2":"牛田町"},"4960008":{"post_code":"4960008","prefecture":"AICHI KEN","city":"TSUSHIMA SHI","town":"UJICHO","perfecture_jp":"愛知県","jp_add_1":"津島市","jp_add_2":"宇治町"},"4960031":{"post_code":"4960031","prefecture":"AICHI KEN","city":"TSUSHIMA SHI","town":"UMEDACHO","perfecture_jp":"愛知県","jp_add_1":"津島市","jp_add_2":"埋田町"},"4960827":{"post_code":"4960827","prefecture":"AICHI KEN","city":"TSUSHIMA SHI","town":"URAKATACHO","perfecture_jp":"愛知県","jp_add_1":"津島市","jp_add_2":"浦方町"},"4960845":{"post_code":"4960845","prefecture":"AICHI KEN","city":"TSUSHIMA SHI","town":"EIRAKUCHO","perfecture_jp":"愛知県","jp_add_1":"津島市","jp_add_2":"永楽町"},"4960867":{"post_code":"4960867","prefecture":"AICHI KEN","city":"TSUSHIMA SHI","town":"EGAWACHO","perfecture_jp":"愛知県","jp_add_1":"津島市","jp_add_2":"江川町"},"4960855":{"post_code":"4960855","prefecture":"AICHI KEN","city":"TSUSHIMA SHI","town":"ETOCHO","perfecture_jp":"愛知県","jp_add_1":"津島市","jp_add_2":"江東町"},"4960874":{"post_code":"4960874","prefecture":"AICHI KEN","city":"TSUSHIMA SHI","town":"ENISHICHO","perfecture_jp":"愛知県","jp_add_1":"津島市","jp_add_2":"江西町"},"4960854":{"post_code":"4960854","prefecture":"AICHI KEN","city":"TSUSHIMA SHI","town":"OIMATSUCHO","perfecture_jp":"愛知県","jp_add_1":"津島市","jp_add_2":"老松町"},"4960012":{"post_code":"4960012","prefecture":"AICHI KEN","city":"TSUSHIMA SHI","town":"OTSUBOCHO","perfecture_jp":"愛知県","jp_add_1":"津島市","jp_add_2":"大坪町"},"4960876":{"post_code":"4960876","prefecture":"AICHI KEN","city":"TSUSHIMA SHI","town":"ONAWACHO","perfecture_jp":"愛知県","jp_add_1":"津島市","jp_add_2":"大縄町"},"4960813":{"post_code":"4960813","prefecture":"AICHI KEN","city":"TSUSHIMA SHI","town":"KATAOKACHO","perfecture_jp":"愛知県","jp_add_1":"津島市","jp_add_2":"片岡町"},"4960826":{"post_code":"4960826","prefecture":"AICHI KEN","city":"TSUSHIMA SHI","town":"KATAMACHI","perfecture_jp":"愛知県","jp_add_1":"津島市","jp_add_2":"片町"},"4960824":{"post_code":"4960824","prefecture":"AICHI KEN","city":"TSUSHIMA SHI","town":"KANAMACHI","perfecture_jp":"愛知県","jp_add_1":"津島市","jp_add_2":"金町"},"4960014":{"post_code":"4960014","prefecture":"AICHI KEN","city":"TSUSHIMA SHI","town":"KANAYANAGICHO","perfecture_jp":"愛知県","jp_add_1":"津島市","jp_add_2":"金柳町"},"4960812":{"post_code":"4960812","prefecture":"AICHI KEN","city":"TSUSHIMA SHI","town":"KANEHIRACHO","perfecture_jp":"愛知県","jp_add_1":"津島市","jp_add_2":"兼平町"},"4960023":{"post_code":"4960023","prefecture":"AICHI KEN","city":"TSUSHIMA SHI","town":"KABUTOCHO","perfecture_jp":"愛知県","jp_add_1":"津島市","jp_add_2":"鹿伏兎町"},"4960823":{"post_code":"4960823","prefecture":"AICHI KEN","city":"TSUSHIMA SHI","town":"KAMIGAWARACHO","perfecture_jp":"愛知県","jp_add_1":"津島市","jp_add_2":"上河原町"},"4960871":{"post_code":"4960871","prefecture":"AICHI KEN","city":"TSUSHIMA SHI","town":"KAMISHINDENCHO","perfecture_jp":"愛知県","jp_add_1":"津島市","jp_add_2":"上新田町"},"4960863":{"post_code":"4960863","prefecture":"AICHI KEN","city":"TSUSHIMA SHI","town":"KAMINOMACHI","perfecture_jp":"愛知県","jp_add_1":"津島市","jp_add_2":"上之町"},"4960005":{"post_code":"4960005","prefecture":"AICHI KEN","city":"TSUSHIMA SHI","town":"KAMORICHO","perfecture_jp":"愛知県","jp_add_1":"津島市","jp_add_2":"神守町"},"4960026":{"post_code":"4960026","prefecture":"AICHI KEN","city":"TSUSHIMA SHI","town":"KARAUSUCHO","perfecture_jp":"愛知県","jp_add_1":"津島市","jp_add_2":"唐臼町"},"4960877":{"post_code":"4960877","prefecture":"AICHI KEN","city":"TSUSHIMA SHI","town":"KAWADACHO","perfecture_jp":"愛知県","jp_add_1":"津島市","jp_add_2":"河田町"},"4960869":{"post_code":"4960869","prefecture":"AICHI KEN","city":"TSUSHIMA SHI","town":"KAWARACHO","perfecture_jp":"愛知県","jp_add_1":"津島市","jp_add_2":"河原町"},"4960013":{"post_code":"4960013","prefecture":"AICHI KEN","city":"TSUSHIMA SHI","town":"KANNOCHO","perfecture_jp":"愛知県","jp_add_1":"津島市","jp_add_2":"神尾町"},"4960861":{"post_code":"4960861","prefecture":"AICHI KEN","city":"TSUSHIMA SHI","town":"KANNONCHO","perfecture_jp":"愛知県","jp_add_1":"津島市","jp_add_2":"観音町"},"4960817":{"post_code":"4960817","prefecture":"AICHI KEN","city":"TSUSHIMA SHI","town":"KITAMACHI","perfecture_jp":"愛知県","jp_add_1":"津島市","jp_add_2":"北町"},"4960811":{"post_code":"4960811","prefecture":"AICHI KEN","city":"TSUSHIMA SHI","town":"KIRAKUCHO","perfecture_jp":"愛知県","jp_add_1":"津島市","jp_add_2":"喜楽町"},"4960007":{"post_code":"4960007","prefecture":"AICHI KEN","city":"TSUSHIMA SHI","town":"KOSHOJICHO","perfecture_jp":"愛知県","jp_add_1":"津島市","jp_add_2":"光正寺町"},"4960015":{"post_code":"4960015","prefecture":"AICHI KEN","city":"TSUSHIMA SHI","town":"KOTAIJICHO","perfecture_jp":"愛知県","jp_add_1":"津島市","jp_add_2":"高台寺町"},"4960022":{"post_code":"4960022","prefecture":"AICHI KEN","city":"TSUSHIMA SHI","town":"KOSHIZUCHO","perfecture_jp":"愛知県","jp_add_1":"津島市","jp_add_2":"越津町"},"4960829":{"post_code":"4960829","prefecture":"AICHI KEN","city":"TSUSHIMA SHI","town":"KOTOBUKICHO","perfecture_jp":"愛知県","jp_add_1":"津島市","jp_add_2":"寿町"},"4960815":{"post_code":"4960815","prefecture":"AICHI KEN","city":"TSUSHIMA SHI","town":"KOMENOZACHO","perfecture_jp":"愛知県","jp_add_1":"津島市","jp_add_2":"米之座町"},"4960816":{"post_code":"4960816","prefecture":"AICHI KEN","city":"TSUSHIMA SHI","town":"KOMEMACHI","perfecture_jp":"愛知県","jp_add_1":"津島市","jp_add_2":"米町"},"4960868":{"post_code":"4960868","prefecture":"AICHI KEN","city":"TSUSHIMA SHI","town":"SARUZUKACHO","perfecture_jp":"愛知県","jp_add_1":"津島市","jp_add_2":"申塚町"},"4960029":{"post_code":"4960029","prefecture":"AICHI KEN","city":"TSUSHIMA SHI","town":"SHIMOGIRICHO","perfecture_jp":"愛知県","jp_add_1":"津島市","jp_add_2":"下切町"},"4960875":{"post_code":"4960875","prefecture":"AICHI KEN","city":"TSUSHIMA SHI","town":"SHIMOSHINDENCHO","perfecture_jp":"愛知県","jp_add_1":"津島市","jp_add_2":"下新田町"},"4960809":{"post_code":"4960809","prefecture":"AICHI KEN","city":"TSUSHIMA SHI","town":"SHOWACHO","perfecture_jp":"愛知県","jp_add_1":"津島市","jp_add_2":"昭和町"},"4960016":{"post_code":"4960016","prefecture":"AICHI KEN","city":"TSUSHIMA SHI","town":"SHIRAHAMACHO","perfecture_jp":"愛知県","jp_add_1":"津島市","jp_add_2":"白浜町"},"4960821":{"post_code":"4960821","prefecture":"AICHI KEN","city":"TSUSHIMA SHI","town":"SHIRONOKOSHICHO","perfecture_jp":"愛知県","jp_add_1":"津島市","jp_add_2":"城之越町"},"4960862":{"post_code":"4960862","prefecture":"AICHI KEN","city":"TSUSHIMA SHI","town":"SHIROYAMACHO","perfecture_jp":"愛知県","jp_add_1":"津島市","jp_add_2":"城山町"},"4960027":{"post_code":"4960027","prefecture":"AICHI KEN","city":"TSUSHIMA SHI","town":"TSUSHIMA","perfecture_jp":"愛知県","jp_add_1":"津島市","jp_add_2":"新開"},"4960071":{"post_code":"4960071","prefecture":"AICHI KEN","city":"TSUSHIMA SHI","town":"SHINGAICHO","perfecture_jp":"愛知県","jp_add_1":"津島市","jp_add_2":"新開町"},"4960851":{"post_code":"4960851","prefecture":"AICHI KEN","city":"TSUSHIMA SHI","town":"SHIMMEICHO","perfecture_jp":"愛知県","jp_add_1":"津島市","jp_add_2":"神明町"},"4960006":{"post_code":"4960006","prefecture":"AICHI KEN","city":"TSUSHIMA SHI","town":"DAIGICHO","perfecture_jp":"愛知県","jp_add_1":"津島市","jp_add_2":"大木町"},"4960848":{"post_code":"4960848","prefecture":"AICHI KEN","city":"TSUSHIMA SHI","town":"TAIKEIJICHO","perfecture_jp":"愛知県","jp_add_1":"津島市","jp_add_2":"大慶寺町"},"4960837":{"post_code":"4960837","prefecture":"AICHI KEN","city":"TSUSHIMA SHI","town":"TAISEICHO","perfecture_jp":"愛知県","jp_add_1":"津島市","jp_add_2":"大政町"},"4960041":{"post_code":"4960041","prefecture":"AICHI KEN","city":"TSUSHIMA SHI","town":"TAKAHATACHO","perfecture_jp":"愛知県","jp_add_1":"津島市","jp_add_2":"高畑町"},"4960822":{"post_code":"4960822","prefecture":"AICHI KEN","city":"TSUSHIMA SHI","town":"TAKAYASHIKICHO","perfecture_jp":"愛知県","jp_add_1":"津島市","jp_add_2":"高屋敷町"},"4960808":{"post_code":"4960808","prefecture":"AICHI KEN","city":"TSUSHIMA SHI","town":"TAKARAMACHI","perfecture_jp":"愛知県","jp_add_1":"津島市","jp_add_2":"宝町"},"4960038":{"post_code":"4960038","prefecture":"AICHI KEN","city":"TSUSHIMA SHI","town":"TACHIBANACHO","perfecture_jp":"愛知県","jp_add_1":"津島市","jp_add_2":"橘町"},"4960044":{"post_code":"4960044","prefecture":"AICHI KEN","city":"TSUSHIMA SHI","town":"TATEKOMICHO","perfecture_jp":"愛知県","jp_add_1":"津島市","jp_add_2":"立込町"},"4960021":{"post_code":"4960021","prefecture":"AICHI KEN","city":"TSUSHIMA SHI","town":"TSUBAICHICHO","perfecture_jp":"愛知県","jp_add_1":"津島市","jp_add_2":"椿市町"},"4960003":{"post_code":"4960003","prefecture":"AICHI KEN","city":"TSUSHIMA SHI","town":"TERANOCHO","perfecture_jp":"愛知県","jp_add_1":"津島市","jp_add_2":"寺野町"},"4960042":{"post_code":"4960042","prefecture":"AICHI KEN","city":"TSUSHIMA SHI","town":"TERAMAECHO","perfecture_jp":"愛知県","jp_add_1":"津島市","jp_add_2":"寺前町"},"4960807":{"post_code":"4960807","prefecture":"AICHI KEN","city":"TSUSHIMA SHI","town":"TENNODORI","perfecture_jp":"愛知県","jp_add_1":"津島市","jp_add_2":"天王通"},"4960832":{"post_code":"4960832","prefecture":"AICHI KEN","city":"TSUSHIMA SHI","town":"TOYOCHO","perfecture_jp":"愛知県","jp_add_1":"津島市","jp_add_2":"東洋町"},"4960833":{"post_code":"4960833","prefecture":"AICHI KEN","city":"TSUSHIMA SHI","town":"TOKIWACHO","perfecture_jp":"愛知県","jp_add_1":"津島市","jp_add_2":"常盤町"},"4960025":{"post_code":"4960025","prefecture":"AICHI KEN","city":"TSUSHIMA SHI","town":"NAKAISHIKICHO","perfecture_jp":"愛知県","jp_add_1":"津島市","jp_add_2":"中一色町"},"4960847":{"post_code":"4960847","prefecture":"AICHI KEN","city":"TSUSHIMA SHI","town":"NAKAJICHO","perfecture_jp":"愛知県","jp_add_1":"津島市","jp_add_2":"中地町"},"4960836":{"post_code":"4960836","prefecture":"AICHI KEN","city":"TSUSHIMA SHI","town":"NAKANOCHO","perfecture_jp":"愛知県","jp_add_1":"津島市","jp_add_2":"中野町"},"4960864":{"post_code":"4960864","prefecture":"AICHI KEN","city":"TSUSHIMA SHI","town":"NAKANOMACHI","perfecture_jp":"愛知県","jp_add_1":"津島市","jp_add_2":"中之町"},"4960037":{"post_code":"4960037","prefecture":"AICHI KEN","city":"TSUSHIMA SHI","town":"NISHIATAGOCHO","perfecture_jp":"愛知県","jp_add_1":"津島市","jp_add_2":"西愛宕町"},"4960802":{"post_code":"4960802","prefecture":"AICHI KEN","city":"TSUSHIMA SHI","town":"NISHIKIMACHI","perfecture_jp":"愛知県","jp_add_1":"津島市","jp_add_2":"錦町"},"4960849":{"post_code":"4960849","prefecture":"AICHI KEN","city":"TSUSHIMA SHI","town":"NISHIMIDOCHO","perfecture_jp":"愛知県","jp_add_1":"津島市","jp_add_2":"西御堂町"},"4960047":{"post_code":"4960047","prefecture":"AICHI KEN","city":"TSUSHIMA SHI","town":"NISHIYANAGIHARACHO","perfecture_jp":"愛知県","jp_add_1":"津島市","jp_add_2":"西柳原町"},"4960028":{"post_code":"4960028","prefecture":"AICHI KEN","city":"TSUSHIMA SHI","town":"NIKKO","perfecture_jp":"愛知県","jp_add_1":"津島市","jp_add_2":"日光"},"4960852":{"post_code":"4960852","prefecture":"AICHI KEN","city":"TSUSHIMA SHI","town":"NEGIMACHI","perfecture_jp":"愛知県","jp_add_1":"津島市","jp_add_2":"祢宜町"},"4960009":{"post_code":"4960009","prefecture":"AICHI KEN","city":"TSUSHIMA SHI","town":"HAKARICHO","perfecture_jp":"愛知県","jp_add_1":"津島市","jp_add_2":"葉苅町"},"4960825":{"post_code":"4960825","prefecture":"AICHI KEN","city":"TSUSHIMA SHI","town":"HASHIZUMECHO","perfecture_jp":"愛知県","jp_add_1":"津島市","jp_add_2":"橋詰町"},"4960865":{"post_code":"4960865","prefecture":"AICHI KEN","city":"TSUSHIMA SHI","town":"BABACHO","perfecture_jp":"愛知県","jp_add_1":"津島市","jp_add_2":"馬場町"},"4960024":{"post_code":"4960024","prefecture":"AICHI KEN","city":"TSUSHIMA SHI","town":"HANGASHIRACHO","perfecture_jp":"愛知県","jp_add_1":"津島市","jp_add_2":"半頭町"},"4960011":{"post_code":"4960011","prefecture":"AICHI KEN","city":"TSUSHIMA SHI","town":"BAIBARACHO","perfecture_jp":"愛知県","jp_add_1":"津島市","jp_add_2":"莪原町"},"4960035":{"post_code":"4960035","prefecture":"AICHI KEN","city":"TSUSHIMA SHI","town":"HIGASHIADAGOCHO","perfecture_jp":"愛知県","jp_add_1":"津島市","jp_add_2":"東愛宕町"},"4960846":{"post_code":"4960846","prefecture":"AICHI KEN","city":"TSUSHIMA SHI","town":"HIGASHINAKAJICHO","perfecture_jp":"愛知県","jp_add_1":"津島市","jp_add_2":"東中地町"},"4960045":{"post_code":"4960045","prefecture":"AICHI KEN","city":"TSUSHIMA SHI","town":"HIGASHIYANAGIHARACHO","perfecture_jp":"愛知県","jp_add_1":"津島市","jp_add_2":"東柳原町"},"4960017":{"post_code":"4960017","prefecture":"AICHI KEN","city":"TSUSHIMA SHI","town":"HYAKUCHO","perfecture_jp":"愛知県","jp_add_1":"津島市","jp_add_2":"百町"},"4960004":{"post_code":"4960004","prefecture":"AICHI KEN","city":"TSUSHIMA SHI","town":"HIRUMACHO","perfecture_jp":"愛知県","jp_add_1":"津島市","jp_add_2":"蛭間町"},"4960032":{"post_code":"4960032","prefecture":"AICHI KEN","city":"TSUSHIMA SHI","town":"FUKATSUBOCHO","perfecture_jp":"愛知県","jp_add_1":"津島市","jp_add_2":"深坪町"},"4960839":{"post_code":"4960839","prefecture":"AICHI KEN","city":"TSUSHIMA SHI","town":"FUJIKAWACHO","perfecture_jp":"愛知県","jp_add_1":"津島市","jp_add_2":"藤川町"},"4960048":{"post_code":"4960048","prefecture":"AICHI KEN","city":"TSUSHIMA SHI","town":"FUJISATOCHO","perfecture_jp":"愛知県","jp_add_1":"津島市","jp_add_2":"藤里町"},"4960801":{"post_code":"4960801","prefecture":"AICHI KEN","city":"TSUSHIMA SHI","town":"FUJINAMICHO","perfecture_jp":"愛知県","jp_add_1":"津島市","jp_add_2":"藤浪町"},"4960843":{"post_code":"4960843","prefecture":"AICHI KEN","city":"TSUSHIMA SHI","town":"FUNADOCHO","perfecture_jp":"愛知県","jp_add_1":"津島市","jp_add_2":"舟戸町"},"4960043":{"post_code":"4960043","prefecture":"AICHI KEN","city":"TSUSHIMA SHI","town":"FURUKAWACHO","perfecture_jp":"愛知県","jp_add_1":"津島市","jp_add_2":"古川"},"4960805":{"post_code":"4960805","prefecture":"AICHI KEN","city":"TSUSHIMA SHI","town":"HOMMACHI","perfecture_jp":"愛知県","jp_add_1":"津島市","jp_add_2":"本町"},"4960002":{"post_code":"4960002","prefecture":"AICHI KEN","city":"TSUSHIMA SHI","town":"MAKINOCHO","perfecture_jp":"愛知県","jp_add_1":"津島市","jp_add_2":"牧野町"},"4960819":{"post_code":"4960819","prefecture":"AICHI KEN","city":"TSUSHIMA SHI","town":"MATAKICHICHO","perfecture_jp":"愛知県","jp_add_1":"津島市","jp_add_2":"又吉町"},"4960872":{"post_code":"4960872","prefecture":"AICHI KEN","city":"TSUSHIMA SHI","town":"MATSUGASHITACHO","perfecture_jp":"愛知県","jp_add_1":"津島市","jp_add_2":"松ケ下町"},"4960818":{"post_code":"4960818","prefecture":"AICHI KEN","city":"TSUSHIMA SHI","town":"MATSUBARACHO","perfecture_jp":"愛知県","jp_add_1":"津島市","jp_add_2":"松原町"},"4960831":{"post_code":"4960831","prefecture":"AICHI KEN","city":"TSUSHIMA SHI","town":"MIZUHOCHO","perfecture_jp":"愛知県","jp_add_1":"津島市","jp_add_2":"瑞穂町"},"4960835":{"post_code":"4960835","prefecture":"AICHI KEN","city":"TSUSHIMA SHI","town":"MINATOCHO","perfecture_jp":"愛知県","jp_add_1":"津島市","jp_add_2":"皆戸町"},"4960072":{"post_code":"4960072","prefecture":"AICHI KEN","city":"TSUSHIMA SHI","town":"MINAMISHINGAICHO","perfecture_jp":"愛知県","jp_add_1":"津島市","jp_add_2":"南新開町"},"4960834":{"post_code":"4960834","prefecture":"AICHI KEN","city":"TSUSHIMA SHI","town":"MINAMIHOMMACHI","perfecture_jp":"愛知県","jp_add_1":"津島市","jp_add_2":"南本町"},"4960857":{"post_code":"4960857","prefecture":"AICHI KEN","city":"TSUSHIMA SHI","town":"MINAMIMONZENCHO","perfecture_jp":"愛知県","jp_add_1":"津島市","jp_add_2":"南門前町"},"4960853":{"post_code":"4960853","prefecture":"AICHI KEN","city":"TSUSHIMA SHI","town":"MIYAGAWACHO","perfecture_jp":"愛知県","jp_add_1":"津島市","jp_add_2":"宮川町"},"4960838":{"post_code":"4960838","prefecture":"AICHI KEN","city":"TSUSHIMA SHI","town":"MEITENCHO","perfecture_jp":"愛知県","jp_add_1":"津島市","jp_add_2":"明天町"},"4960034":{"post_code":"4960034","prefecture":"AICHI KEN","city":"TSUSHIMA SHI","town":"MOTODERACHO","perfecture_jp":"愛知県","jp_add_1":"津島市","jp_add_2":"元寺町"},"4960019":{"post_code":"4960019","prefecture":"AICHI KEN","city":"TSUSHIMA SHI","town":"MOMOJIMACHO","perfecture_jp":"愛知県","jp_add_1":"津島市","jp_add_2":"百島町"},"4960844":{"post_code":"4960844","prefecture":"AICHI KEN","city":"TSUSHIMA SHI","town":"YAKUSHICHO","perfecture_jp":"愛知県","jp_add_1":"津島市","jp_add_2":"薬師町"},"4960046":{"post_code":"4960046","prefecture":"AICHI KEN","city":"TSUSHIMA SHI","town":"YANAGIHARACHO","perfecture_jp":"愛知県","jp_add_1":"津島市","jp_add_2":"柳原町"},"4960866":{"post_code":"4960866","prefecture":"AICHI KEN","city":"TSUSHIMA SHI","town":"YAMATOCHO","perfecture_jp":"愛知県","jp_add_1":"津島市","jp_add_2":"大和町"},"4960804":{"post_code":"4960804","prefecture":"AICHI KEN","city":"TSUSHIMA SHI","town":"YAYOICHO","perfecture_jp":"愛知県","jp_add_1":"津島市","jp_add_2":"弥生町"},"4960841":{"post_code":"4960841","prefecture":"AICHI KEN","city":"TSUSHIMA SHI","town":"YOKOMACHI","perfecture_jp":"愛知県","jp_add_1":"津島市","jp_add_2":"横町"},"4960814":{"post_code":"4960814","prefecture":"AICHI KEN","city":"TSUSHIMA SHI","town":"RYOOCHO","perfecture_jp":"愛知県","jp_add_1":"津島市","jp_add_2":"良王町"},"4960856":{"post_code":"4960856","prefecture":"AICHI KEN","city":"TSUSHIMA SHI","town":"RURIKOJICHO","perfecture_jp":"愛知県","jp_add_1":"津島市","jp_add_2":"瑠璃小路町"},"4968046":{"post_code":"4968046","prefecture":"AICHI KEN","city":"AISAI SHI","town":"AKAMECHO","perfecture_jp":"愛知県","jp_add_1":"愛西市","jp_add_2":"赤目町"},"4960938":{"post_code":"4960938","prefecture":"AICHI KEN","city":"AISAI SHI","town":"ISHIDACHO","perfecture_jp":"愛知県","jp_add_1":"愛西市","jp_add_2":"石田町"},"4960907":{"post_code":"4960907","prefecture":"AICHI KEN","city":"AISAI SHI","town":"INABACHO","perfecture_jp":"愛知県","jp_add_1":"愛西市","jp_add_2":"稲葉町"},"4960923":{"post_code":"4960923","prefecture":"AICHI KEN","city":"AISAI SHI","town":"IWASHIECHO","perfecture_jp":"愛知県","jp_add_1":"愛西市","jp_add_2":"鰯江町"},"4968033":{"post_code":"4968033","prefecture":"AICHI KEN","city":"AISAI SHI","town":"UTASUCHO","perfecture_jp":"愛知県","jp_add_1":"愛西市","jp_add_2":"鵜多須町"},"4960903":{"post_code":"4960903","prefecture":"AICHI KEN","city":"AISAI SHI","town":"UCHIZAYACHO","perfecture_jp":"愛知県","jp_add_1":"愛西市","jp_add_2":"内佐屋町"},"4968044":{"post_code":"4968044","prefecture":"AICHI KEN","city":"AISAI SHI","town":"ENISHICHO","perfecture_jp":"愛知県","jp_add_1":"愛西市","jp_add_2":"江西町"},"4960921":{"post_code":"4960921","prefecture":"AICHI KEN","city":"AISAI SHI","town":"OICHO","perfecture_jp":"愛知県","jp_add_1":"愛西市","jp_add_2":"大井町"},"4960922":{"post_code":"4960922","prefecture":"AICHI KEN","city":"AISAI SHI","town":"ONOCHO","perfecture_jp":"愛知県","jp_add_1":"愛西市","jp_add_2":"大野町"},"4968017":{"post_code":"4968017","prefecture":"AICHI KEN","city":"AISAI SHI","town":"ONOYAMACHO","perfecture_jp":"愛知県","jp_add_1":"愛西市","jp_add_2":"大野山町"},"4960909":{"post_code":"4960909","prefecture":"AICHI KEN","city":"AISAI SHI","town":"OCHIAICHO","perfecture_jp":"愛知県","jp_add_1":"愛西市","jp_add_2":"落合町"},"4968009":{"post_code":"4968009","prefecture":"AICHI KEN","city":"AISAI SHI","town":"OZUCHO","perfecture_jp":"愛知県","jp_add_1":"愛西市","jp_add_2":"小津町"},"4960932":{"post_code":"4960932","prefecture":"AICHI KEN","city":"AISAI SHI","town":"KATSURAGICHO","perfecture_jp":"愛知県","jp_add_1":"愛西市","jp_add_2":"葛木町"},"4960908":{"post_code":"4960908","prefecture":"AICHI KEN","city":"AISAI SHI","town":"KAMURAICHO","perfecture_jp":"愛知県","jp_add_1":"愛西市","jp_add_2":"金棒町"},"4968031":{"post_code":"4968031","prefecture":"AICHI KEN","city":"AISAI SHI","town":"KAMIHIGASHIGAWACHO","perfecture_jp":"愛知県","jp_add_1":"愛西市","jp_add_2":"上東川町"},"4968039":{"post_code":"4968039","prefecture":"AICHI KEN","city":"AISAI SHI","town":"KAWAKITACHO","perfecture_jp":"愛知県","jp_add_1":"愛西市","jp_add_2":"川北町"},"4960905":{"post_code":"4960905","prefecture":"AICHI KEN","city":"AISAI SHI","town":"KITAISHIKICHO","perfecture_jp":"愛知県","jp_add_1":"愛西市","jp_add_2":"北一色町"},"4968008":{"post_code":"4968008","prefecture":"AICHI KEN","city":"AISAI SHI","town":"KITAGOTACHO","perfecture_jp":"愛知県","jp_add_1":"愛西市","jp_add_2":"北河田町"},"4968042":{"post_code":"4968042","prefecture":"AICHI KEN","city":"AISAI SHI","town":"KYUBUCHO","perfecture_jp":"愛知県","jp_add_1":"愛西市","jp_add_2":"給父町"},"4968015":{"post_code":"4968015","prefecture":"AICHI KEN","city":"AISAI SHI","town":"KUSAHIRACHO","perfecture_jp":"愛知県","jp_add_1":"愛西市","jp_add_2":"草平町"},"4968004":{"post_code":"4968004","prefecture":"AICHI KEN","city":"AISAI SHI","town":"KOSECHO","perfecture_jp":"愛知県","jp_add_1":"愛西市","jp_add_2":"古瀬町"},"4960944":{"post_code":"4960944","prefecture":"AICHI KEN","city":"AISAI SHI","town":"KOMOICHO","perfecture_jp":"愛知県","jp_add_1":"愛西市","jp_add_2":"小茂井町"},"4968002":{"post_code":"4968002","prefecture":"AICHI KEN","city":"AISAI SHI","town":"SAORICHO","perfecture_jp":"愛知県","jp_add_1":"愛西市","jp_add_2":"佐折町"},"4960901":{"post_code":"4960901","prefecture":"AICHI KEN","city":"AISAI SHI","town":"SAYACHO","perfecture_jp":"愛知県","jp_add_1":"愛西市","jp_add_2":"佐屋町"},"4968049":{"post_code":"4968049","prefecture":"AICHI KEN","city":"AISAI SHI","town":"SHIOTACHO","perfecture_jp":"愛知県","jp_add_1":"愛西市","jp_add_2":"塩田町"},"4960935":{"post_code":"4960935","prefecture":"AICHI KEN","city":"AISAI SHI","town":"SHIMOISHIKICHO","perfecture_jp":"愛知県","jp_add_1":"愛西市","jp_add_2":"下一色町"},"4968048":{"post_code":"4968048","prefecture":"AICHI KEN","city":"AISAI SHI","town":"SHIMOOMAKICHO","perfecture_jp":"愛知県","jp_add_1":"愛西市","jp_add_2":"下大牧町"},"4968032":{"post_code":"4968032","prefecture":"AICHI KEN","city":"AISAI SHI","town":"SHIMOHIGASHIGAWACHO","perfecture_jp":"愛知県","jp_add_1":"愛西市","jp_add_2":"下東川町"},"4968001":{"post_code":"4968001","prefecture":"AICHI KEN","city":"AISAI SHI","town":"SHOBATACHO","perfecture_jp":"愛知県","jp_add_1":"愛西市","jp_add_2":"勝幡町"},"4960934":{"post_code":"4960934","prefecture":"AICHI KEN","city":"AISAI SHI","town":"SHINUEMONSHINDENCHO","perfecture_jp":"愛知県","jp_add_1":"愛西市","jp_add_2":"新右エ門新田町"},"4960902":{"post_code":"4960902","prefecture":"AICHI KEN","city":"AISAI SHI","town":"SUECHO","perfecture_jp":"愛知県","jp_add_1":"愛西市","jp_add_2":"須依町"},"4960941":{"post_code":"4960941","prefecture":"AICHI KEN","city":"AISAI SHI","town":"SUZUGAMORICHO","perfecture_jp":"愛知県","jp_add_1":"愛西市","jp_add_2":"雀ケ森町"},"4968011":{"post_code":"4968011","prefecture":"AICHI KEN","city":"AISAI SHI","town":"SUWACHO","perfecture_jp":"愛知県","jp_add_1":"愛西市","jp_add_2":"諏訪町"},"4960924":{"post_code":"4960924","prefecture":"AICHI KEN","city":"AISAI SHI","town":"ZENTASHINDENCHO","perfecture_jp":"愛知県","jp_add_1":"愛西市","jp_add_2":"善太新田町"},"4968003":{"post_code":"4968003","prefecture":"AICHI KEN","city":"AISAI SHI","town":"SEMBIKICHO","perfecture_jp":"愛知県","jp_add_1":"愛西市","jp_add_2":"千引町"},"4968043":{"post_code":"4968043","prefecture":"AICHI KEN","city":"AISAI SHI","town":"TAKABATACHO","perfecture_jp":"愛知県","jp_add_1":"愛西市","jp_add_2":"高畑町"},"4968016":{"post_code":"4968016","prefecture":"AICHI KEN","city":"AISAI SHI","town":"TAKABACHO","perfecture_jp":"愛知県","jp_add_1":"愛西市","jp_add_2":"鷹場町"},"4960946":{"post_code":"4960946","prefecture":"AICHI KEN","city":"AISAI SHI","town":"TATSUDACHO","perfecture_jp":"愛知県","jp_add_1":"愛西市","jp_add_2":"立田町"},"4968047":{"post_code":"4968047","prefecture":"AICHI KEN","city":"AISAI SHI","town":"TATEISHICHO","perfecture_jp":"愛知県","jp_add_1":"愛西市","jp_add_2":"立石町"},"4960933":{"post_code":"4960933","prefecture":"AICHI KEN","city":"AISAI SHI","town":"TOKURACHO","perfecture_jp":"愛知県","jp_add_1":"愛西市","jp_add_2":"戸倉町"},"4968019":{"post_code":"4968019","prefecture":"AICHI KEN","city":"AISAI SHI","town":"NISHIKAWABATACHO","perfecture_jp":"愛知県","jp_add_1":"愛西市","jp_add_2":"西川端町"},"4960913":{"post_code":"4960913","prefecture":"AICHI KEN","city":"AISAI SHI","town":"NISHIJOCHO","perfecture_jp":"愛知県","jp_add_1":"愛西市","jp_add_2":"西條町"},"4960911":{"post_code":"4960911","prefecture":"AICHI KEN","city":"AISAI SHI","town":"NISHIHOCHO","perfecture_jp":"愛知県","jp_add_1":"愛西市","jp_add_2":"西保町"},"4968012":{"post_code":"4968012","prefecture":"AICHI KEN","city":"AISAI SHI","town":"NEDAKACHO","perfecture_jp":"愛知県","jp_add_1":"愛西市","jp_add_2":"根高町"},"4960931":{"post_code":"4960931","prefecture":"AICHI KEN","city":"AISAI SHI","town":"HAYAOCHO","perfecture_jp":"愛知県","jp_add_1":"愛西市","jp_add_2":"早尾町"},"4960914":{"post_code":"4960914","prefecture":"AICHI KEN","city":"AISAI SHI","town":"HIGASHIJOCHO","perfecture_jp":"愛知県","jp_add_1":"愛西市","jp_add_2":"東條町"},"4960912":{"post_code":"4960912","prefecture":"AICHI KEN","city":"AISAI SHI","town":"HIGASHIHOCHO","perfecture_jp":"愛知県","jp_add_1":"愛西市","jp_add_2":"東保町"},"4960939":{"post_code":"4960939","prefecture":"AICHI KEN","city":"AISAI SHI","town":"HITSUECHO","perfecture_jp":"愛知県","jp_add_1":"愛西市","jp_add_2":"後江町"},"4960947":{"post_code":"4960947","prefecture":"AICHI KEN","city":"AISAI SHI","town":"FUKUHARASHINDENCHO","perfecture_jp":"愛知県","jp_add_1":"愛西市","jp_add_2":"福原新田町"},"4968041":{"post_code":"4968041","prefecture":"AICHI KEN","city":"AISAI SHI","town":"FUJIGASECHO","perfecture_jp":"愛知県","jp_add_1":"愛西市","jp_add_2":"藤ケ瀬町"},"4968035":{"post_code":"4968035","prefecture":"AICHI KEN","city":"AISAI SHI","town":"FUTAGOCHO KAMIMARUJIMA","perfecture_jp":"愛知県","jp_add_1":"愛西市","jp_add_2":"二子町上丸島"},"4968034":{"post_code":"4968034","prefecture":"AICHI KEN","city":"AISAI SHI","town":"FUTAGOCHO KOBANYAMA","perfecture_jp":"愛知県","jp_add_1":"愛西市","jp_add_2":"二子町小判山"},"4968038":{"post_code":"4968038","prefecture":"AICHI KEN","city":"AISAI SHI","town":"FUTAGOCHO JONO","perfecture_jp":"愛知県","jp_add_1":"愛西市","jp_add_2":"二子町定納"},"4968037":{"post_code":"4968037","prefecture":"AICHI KEN","city":"AISAI SHI","town":"FUTAGOCHO SHINDEN","perfecture_jp":"愛知県","jp_add_1":"愛西市","jp_add_2":"二子町新田"},"4968040":{"post_code":"4968040","prefecture":"AICHI KEN","city":"AISAI SHI","town":"FUTAGOCHO MATSUBARA","perfecture_jp":"愛知県","jp_add_1":"愛西市","jp_add_2":"二子町松原"},"4968036":{"post_code":"4968036","prefecture":"AICHI KEN","city":"AISAI SHI","town":"FUTAGOCHO MARUJIMA","perfecture_jp":"愛知県","jp_add_1":"愛西市","jp_add_2":"二子町丸島"},"4968030":{"post_code":"4968030","prefecture":"AICHI KEN","city":"AISAI SHI","town":"FUTAGOCHO YANAGIHARA","perfecture_jp":"愛知県","jp_add_1":"愛西市","jp_add_2":"二子町柳原"},"4968018":{"post_code":"4968018","prefecture":"AICHI KEN","city":"AISAI SHI","town":"FUCHIDAKACHO","perfecture_jp":"愛知県","jp_add_1":"愛西市","jp_add_2":"渕高町"},"4968020":{"post_code":"4968020","prefecture":"AICHI KEN","city":"AISAI SHI","town":"HEIWACHO","perfecture_jp":"愛知県","jp_add_1":"愛西市","jp_add_2":"平和町"},"4960906":{"post_code":"4960906","prefecture":"AICHI KEN","city":"AISAI SHI","town":"HEKICHO","perfecture_jp":"愛知県","jp_add_1":"愛西市","jp_add_2":"日置町"},"4960915":{"post_code":"4960915","prefecture":"AICHI KEN","city":"AISAI SHI","town":"HOMBUTACHO","perfecture_jp":"愛知県","jp_add_1":"愛西市","jp_add_2":"本部田町"},"4968014":{"post_code":"4968014","prefecture":"AICHI KEN","city":"AISAI SHI","town":"MACHIKATACHO","perfecture_jp":"愛知県","jp_add_1":"愛西市","jp_add_2":"町方町"},"4968013":{"post_code":"4968013","prefecture":"AICHI KEN","city":"AISAI SHI","town":"MIKOSHICHO","perfecture_jp":"愛知県","jp_add_1":"愛西市","jp_add_2":"見越町"},"4960945":{"post_code":"4960945","prefecture":"AICHI KEN","city":"AISAI SHI","town":"MITSUWACHO","perfecture_jp":"愛知県","jp_add_1":"愛西市","jp_add_2":"三和町"},"4968007":{"post_code":"4968007","prefecture":"AICHI KEN","city":"AISAI SHI","town":"MINAMIGOTACHO","perfecture_jp":"愛知県","jp_add_1":"愛西市","jp_add_2":"南河田町"},"4960937":{"post_code":"4960937","prefecture":"AICHI KEN","city":"AISAI SHI","town":"MIYAJICHO","perfecture_jp":"愛知県","jp_add_1":"愛西市","jp_add_2":"宮地町"},"4968006":{"post_code":"4968006","prefecture":"AICHI KEN","city":"AISAI SHI","town":"MOTCHUCHO","perfecture_jp":"愛知県","jp_add_1":"愛西市","jp_add_2":"持中町"},"4968045":{"post_code":"4968045","prefecture":"AICHI KEN","city":"AISAI SHI","town":"MOTOAKAMECHO","perfecture_jp":"愛知県","jp_add_1":"愛西市","jp_add_2":"元赤目町"},"4960943":{"post_code":"4960943","prefecture":"AICHI KEN","city":"AISAI SHI","town":"MORIKAWACHO","perfecture_jp":"愛知県","jp_add_1":"愛西市","jp_add_2":"森川町"},"4968005":{"post_code":"4968005","prefecture":"AICHI KEN","city":"AISAI SHI","town":"MOROKUWACHO","perfecture_jp":"愛知県","jp_add_1":"愛西市","jp_add_2":"諸桑町"},"4960942":{"post_code":"4960942","prefecture":"AICHI KEN","city":"AISAI SHI","town":"YAMAJICHO","perfecture_jp":"愛知県","jp_add_1":"愛西市","jp_add_2":"山路町"},"4960904":{"post_code":"4960904","prefecture":"AICHI KEN","city":"AISAI SHI","town":"YUGICHO","perfecture_jp":"愛知県","jp_add_1":"愛西市","jp_add_2":"柚木町"},"4960936":{"post_code":"4960936","prefecture":"AICHI KEN","city":"AISAI SHI","town":"YOTSUECHO","perfecture_jp":"愛知県","jp_add_1":"愛西市","jp_add_2":"四会町"},"4968010":{"post_code":"4968010","prefecture":"AICHI KEN","city":"AISAI SHI","town":"ROKUWACHO","perfecture_jp":"愛知県","jp_add_1":"愛西市","jp_add_2":"六輪町"}}