{"5020001":{"post_code":"5020001","prefecture":"GIFU KEN","city":"GIFU SHI","town":"AWANO","perfecture_jp":"岐阜県","jp_add_1":"岐阜市","jp_add_2":"粟野"},"5020002":{"post_code":"5020002","prefecture":"GIFU KEN","city":"GIFU SHI","town":"AWANO HIGASHI","perfecture_jp":"岐阜県","jp_add_1":"岐阜市","jp_add_2":"粟野東"},"5020006":{"post_code":"5020006","prefecture":"GIFU KEN","city":"GIFU SHI","town":"AWANO NISHI","perfecture_jp":"岐阜県","jp_add_1":"岐阜市","jp_add_2":"粟野西"},"5020007":{"post_code":"5020007","prefecture":"GIFU KEN","city":"GIFU SHI","town":"AWANODAI","perfecture_jp":"岐阜県","jp_add_1":"岐阜市","jp_add_2":"粟野台"},"5020906":{"post_code":"5020906","prefecture":"GIFU KEN","city":"GIFU SHI","town":"IKENOECHO","perfecture_jp":"岐阜県","jp_add_1":"岐阜市","jp_add_2":"池ノ上町"},"5020844":{"post_code":"5020844","prefecture":"GIFU KEN","city":"GIFU SHI","town":"IWAKURACHO","perfecture_jp":"岐阜県","jp_add_1":"岐阜市","jp_add_2":"岩倉町"},"5020005":{"post_code":"5020005","prefecture":"GIFU KEN","city":"GIFU SHI","town":"IWASAKI","perfecture_jp":"岐阜県","jp_add_1":"岐阜市","jp_add_2":"岩崎"},"5020837":{"post_code":"5020837","prefecture":"GIFU KEN","city":"GIFU SHI","town":"UKAWACHO","perfecture_jp":"岐阜県","jp_add_1":"岐阜市","jp_add_2":"鵜川町"},"5020802":{"post_code":"5020802","prefecture":"GIFU KEN","city":"GIFU SHI","town":"UCHIKOSHI","perfecture_jp":"岐阜県","jp_add_1":"岐阜市","jp_add_2":"打越"},"5020915":{"post_code":"5020915","prefecture":"GIFU KEN","city":"GIFU SHI","town":"EGUCHI","perfecture_jp":"岐阜県","jp_add_1":"岐阜市","jp_add_2":"江口"},"5020835":{"post_code":"5020835","prefecture":"GIFU KEN","city":"GIFU SHI","town":"ODAMACHI","perfecture_jp":"岐阜県","jp_add_1":"岐阜市","jp_add_2":"織田町"},"5020016":{"post_code":"5020016","prefecture":"GIFU KEN","city":"GIFU SHI","town":"OBUSA SAKURAMACHI","perfecture_jp":"岐阜県","jp_add_1":"岐阜市","jp_add_2":"雄総桜町"},"5020014":{"post_code":"5020014","prefecture":"GIFU KEN","city":"GIFU SHI","town":"OBUSA MIDORIMACHI","perfecture_jp":"岐阜県","jp_add_1":"岐阜市","jp_add_2":"雄総緑町"},"5020015":{"post_code":"5020015","prefecture":"GIFU KEN","city":"GIFU SHI","town":"OBUSA YANAGIMACHI","perfecture_jp":"岐阜県","jp_add_1":"岐阜市","jp_add_2":"雄総柳町"},"5020841":{"post_code":"5020841","prefecture":"GIFU KEN","city":"GIFU SHI","town":"GAKUENCHO","perfecture_jp":"岐阜県","jp_add_1":"岐阜市","jp_add_2":"学園町"},"5020862":{"post_code":"5020862","prefecture":"GIFU KEN","city":"GIFU SHI","town":"KAMIKIDAIJI NAKA","perfecture_jp":"岐阜県","jp_add_1":"岐阜市","jp_add_2":"上城田寺中"},"5020863":{"post_code":"5020863","prefecture":"GIFU KEN","city":"GIFU SHI","town":"KAMIKIDAIJI NISHI","perfecture_jp":"岐阜県","jp_add_1":"岐阜市","jp_add_2":"上城田寺西"},"5020864":{"post_code":"5020864","prefecture":"GIFU KEN","city":"GIFU SHI","town":"KAMIKIDAIJI HIGASHI","perfecture_jp":"岐阜県","jp_add_1":"岐阜市","jp_add_2":"上城田寺東"},"5020861":{"post_code":"5020861","prefecture":"GIFU KEN","city":"GIFU SHI","town":"KAMIKIDAIJI MINAMI","perfecture_jp":"岐阜県","jp_add_1":"岐阜市","jp_add_2":"上城田寺南"},"5020803":{"post_code":"5020803","prefecture":"GIFU KEN","city":"GIFU SHI","town":"KAMITSUCHII","perfecture_jp":"岐阜県","jp_add_1":"岐阜市","jp_add_2":"上土居"},"5020938":{"post_code":"5020938","prefecture":"GIFU KEN","city":"GIFU SHI","town":"KAYABA KITAMACHI","perfecture_jp":"岐阜県","jp_add_1":"岐阜市","jp_add_2":"萱場北町"},"5020935":{"post_code":"5020935","prefecture":"GIFU KEN","city":"GIFU SHI","town":"KAYABA HIGASHIMACHI","perfecture_jp":"岐阜県","jp_add_1":"岐阜市","jp_add_2":"萱場東町"},"5020936":{"post_code":"5020936","prefecture":"GIFU KEN","city":"GIFU SHI","town":"KAYABAMINAMI","perfecture_jp":"岐阜県","jp_add_1":"岐阜市","jp_add_2":"萱場南"},"5020937":{"post_code":"5020937","prefecture":"GIFU KEN","city":"GIFU SHI","town":"KAYABACHO","perfecture_jp":"岐阜県","jp_add_1":"岐阜市","jp_add_2":"萱場町"},"5020831":{"post_code":"5020831","prefecture":"GIFU KEN","city":"GIFU SHI","town":"KIKUSUICHO","perfecture_jp":"岐阜県","jp_add_1":"岐阜市","jp_add_2":"菊水町"},"5020911":{"post_code":"5020911","prefecture":"GIFU KEN","city":"GIFU SHI","town":"KITAJIMA","perfecture_jp":"岐阜県","jp_add_1":"岐阜市","jp_add_2":"北島"},"5020859":{"post_code":"5020859","prefecture":"GIFU KEN","city":"GIFU SHI","town":"KIDAIJI","perfecture_jp":"岐阜県","jp_add_1":"岐阜市","jp_add_2":"城田寺"},"5020828":{"post_code":"5020828","prefecture":"GIFU KEN","city":"GIFU SHI","town":"KINKACHO","perfecture_jp":"岐阜県","jp_add_1":"岐阜市","jp_add_2":"金華町"},"5020826":{"post_code":"5020826","prefecture":"GIFU KEN","city":"GIFU SHI","town":"KUSUNOKICHO","perfecture_jp":"岐阜県","jp_add_1":"岐阜市","jp_add_2":"楠町"},"5020823":{"post_code":"5020823","prefecture":"GIFU KEN","city":"GIFU SHI","town":"KOEICHO","perfecture_jp":"岐阜県","jp_add_1":"岐阜市","jp_add_2":"光栄町"},"5020908":{"post_code":"5020908","prefecture":"GIFU KEN","city":"GIFU SHI","town":"GONNOSHIMA","perfecture_jp":"岐阜県","jp_add_1":"岐阜市","jp_add_2":"近島"},"5020021":{"post_code":"5020021","prefecture":"GIFU KEN","city":"GIFU SHI","town":"SAIGOCHO","perfecture_jp":"岐阜県","jp_add_1":"岐阜市","jp_add_2":"西後町"},"5020849":{"post_code":"5020849","prefecture":"GIFU KEN","city":"GIFU SHI","town":"SAKAESHIMMACHI","perfecture_jp":"岐阜県","jp_add_1":"岐阜市","jp_add_2":"栄新町"},"5020851":{"post_code":"5020851","prefecture":"GIFU KEN","city":"GIFU SHI","town":"SAGIYAMA","perfecture_jp":"岐阜県","jp_add_1":"岐阜市","jp_add_2":"鷺山"},"5020872":{"post_code":"5020872","prefecture":"GIFU KEN","city":"GIFU SHI","town":"SAGIYAMA KITAMACHI","perfecture_jp":"岐阜県","jp_add_1":"岐阜市","jp_add_2":"鷺山北町"},"5020853":{"post_code":"5020853","prefecture":"GIFU KEN","city":"GIFU SHI","town":"SAGIYAMA KIYOSUCHO","perfecture_jp":"岐阜県","jp_add_1":"岐阜市","jp_add_2":"鷺山清洲町"},"5020871":{"post_code":"5020871","prefecture":"GIFU KEN","city":"GIFU SHI","town":"SAGIYAMA SHIMMACHI","perfecture_jp":"岐阜県","jp_add_1":"岐阜市","jp_add_2":"鷺山新町"},"5020855":{"post_code":"5020855","prefecture":"GIFU KEN","city":"GIFU SHI","town":"SAGIYAMA MIDORIGAOKA","perfecture_jp":"岐阜県","jp_add_1":"岐阜市","jp_add_2":"鷺山緑ケ丘"},"5020856":{"post_code":"5020856","prefecture":"GIFU KEN","city":"GIFU SHI","town":"SAGIYAMA MIDORIGAOKASHIMMACHI","perfecture_jp":"岐阜県","jp_add_1":"岐阜市","jp_add_2":"鷺山緑ケ丘新町"},"5020854":{"post_code":"5020854","prefecture":"GIFU KEN","city":"GIFU SHI","town":"SAGIYAMA MUKAICHO","perfecture_jp":"岐阜県","jp_add_1":"岐阜市","jp_add_2":"鷺山向井町"},"5020850":{"post_code":"5020850","prefecture":"GIFU KEN","city":"GIFU SHI","town":"SAGIYAMAHIGASHI","perfecture_jp":"岐阜県","jp_add_1":"岐阜市","jp_add_2":"鷺山東"},"5020904":{"post_code":"5020904","prefecture":"GIFU KEN","city":"GIFU SHI","town":"SHIMASAKAEMACHI","perfecture_jp":"岐阜県","jp_add_1":"岐阜市","jp_add_2":"島栄町"},"5020907":{"post_code":"5020907","prefecture":"GIFU KEN","city":"GIFU SHI","town":"SHIMASHIMMACHI","perfecture_jp":"岐阜県","jp_add_1":"岐阜市","jp_add_2":"島新町"},"5020917":{"post_code":"5020917","prefecture":"GIFU KEN","city":"GIFU SHI","town":"SHIMADA","perfecture_jp":"岐阜県","jp_add_1":"岐阜市","jp_add_2":"島田"},"5020858":{"post_code":"5020858","prefecture":"GIFU KEN","city":"GIFU SHI","town":"SHIMOTSUCHII","perfecture_jp":"岐阜県","jp_add_1":"岐阜市","jp_add_2":"下土居"},"5020909":{"post_code":"5020909","prefecture":"GIFU KEN","city":"GIFU SHI","town":"SHIRAGIKUCHO","perfecture_jp":"岐阜県","jp_add_1":"岐阜市","jp_add_2":"白菊町"},"5020023":{"post_code":"5020023","prefecture":"GIFU KEN","city":"GIFU SHI","town":"SHIROMAECHO","perfecture_jp":"岐阜県","jp_add_1":"岐阜市","jp_add_2":"城前町"},"5020914":{"post_code":"5020914","prefecture":"GIFU KEN","city":"GIFU SHI","town":"SUGO","perfecture_jp":"岐阜県","jp_add_1":"岐阜市","jp_add_2":"菅生"},"5020842":{"post_code":"5020842","prefecture":"GIFU KEN","city":"GIFU SHI","town":"SODEN(SONOTA)","perfecture_jp":"岐阜県","jp_add_1":"岐阜市","jp_add_2":"早田"},"5020902":{"post_code":"5020902","prefecture":"GIFU KEN","city":"GIFU SHI","town":"SODEN ODORI","perfecture_jp":"岐阜県","jp_add_1":"岐阜市","jp_add_2":"早田大通"},"5020847":{"post_code":"5020847","prefecture":"GIFU KEN","city":"GIFU SHI","town":"SODEN SAKAEMACHI","perfecture_jp":"岐阜県","jp_add_1":"岐阜市","jp_add_2":"早田栄町"},"5020843":{"post_code":"5020843","prefecture":"GIFU KEN","city":"GIFU SHI","town":"SODEN HIGASHIMACHI","perfecture_jp":"岐阜県","jp_add_1":"岐阜市","jp_add_2":"早田東町"},"5020848":{"post_code":"5020848","prefecture":"GIFU KEN","city":"GIFU SHI","town":"SODEN HOMMACHI","perfecture_jp":"岐阜県","jp_add_1":"岐阜市","jp_add_2":"早田本町"},"5020845":{"post_code":"5020845","prefecture":"GIFU KEN","city":"GIFU SHI","town":"SODENCHO","perfecture_jp":"岐阜県","jp_add_1":"岐阜市","jp_add_2":"早田町"},"5020934":{"post_code":"5020934","prefecture":"GIFU KEN","city":"GIFU SHI","town":"DAIFUKUCHO","perfecture_jp":"岐阜県","jp_add_1":"岐阜市","jp_add_2":"大福町"},"5020821":{"post_code":"5020821","prefecture":"GIFU KEN","city":"GIFU SHI","town":"TAIHEICHO","perfecture_jp":"岐阜県","jp_add_1":"岐阜市","jp_add_2":"太平町"},"5020926":{"post_code":"5020926","prefecture":"GIFU KEN","city":"GIFU SHI","town":"DANNOSHIMA","perfecture_jp":"岐阜県","jp_add_1":"岐阜市","jp_add_2":"旦島"},"5020928":{"post_code":"5020928","prefecture":"GIFU KEN","city":"GIFU SHI","town":"DANNOSHIMANAKA","perfecture_jp":"岐阜県","jp_add_1":"岐阜市","jp_add_2":"旦島中"},"5020925":{"post_code":"5020925","prefecture":"GIFU KEN","city":"GIFU SHI","town":"DANNOSHIMA NAKAMACHI","perfecture_jp":"岐阜県","jp_add_1":"岐阜市","jp_add_2":"旦島中町"},"5020927":{"post_code":"5020927","prefecture":"GIFU KEN","city":"GIFU SHI","town":"DANNOSHIMA NISHIMACHI","perfecture_jp":"岐阜県","jp_add_1":"岐阜市","jp_add_2":"旦島西町"},"5020924":{"post_code":"5020924","prefecture":"GIFU KEN","city":"GIFU SHI","town":"DANNOSHIMA MIYAMACHI","perfecture_jp":"岐阜県","jp_add_1":"岐阜市","jp_add_2":"旦島宮町"},"5020832":{"post_code":"5020832","prefecture":"GIFU KEN","city":"GIFU SHI","town":"CHIYODAMACHI","perfecture_jp":"岐阜県","jp_add_1":"岐阜市","jp_add_2":"千代田町"},"5020846":{"post_code":"5020846","prefecture":"GIFU KEN","city":"GIFU SHI","town":"TSUSHIMACHO","perfecture_jp":"岐阜県","jp_add_1":"岐阜市","jp_add_2":"津島町"},"5020801":{"post_code":"5020801","prefecture":"GIFU KEN","city":"GIFU SHI","town":"TSUBAKIBORA","perfecture_jp":"岐阜県","jp_add_1":"岐阜市","jp_add_2":"椿洞"},"5020816":{"post_code":"5020816","prefecture":"GIFU KEN","city":"GIFU SHI","town":"DOSANCHO","perfecture_jp":"岐阜県","jp_add_1":"岐阜市","jp_add_2":"道三町"},"5020013":{"post_code":"5020013","prefecture":"GIFU KEN","city":"GIFU SHI","town":"NAKAGAWARA","perfecture_jp":"岐阜県","jp_add_1":"岐阜市","jp_add_2":"中川原"},"5020081":{"post_code":"5020081","prefecture":"GIFU KEN","city":"GIFU SHI","town":"NAGARA(CHOME)","perfecture_jp":"岐阜県","jp_add_1":"岐阜市","jp_add_2":"長良"},"5020071":{"post_code":"5020071","prefecture":"GIFU KEN","city":"GIFU SHI","town":"NAGARA(BANCHI)","perfecture_jp":"岐阜県","jp_add_1":"岐阜市","jp_add_2":"長良"},"5020047":{"post_code":"5020047","prefecture":"GIFU KEN","city":"GIFU SHI","town":"NAGARA AOICHO","perfecture_jp":"岐阜県","jp_add_1":"岐阜市","jp_add_2":"長良葵町"},"5020034":{"post_code":"5020034","prefecture":"GIFU KEN","city":"GIFU SHI","town":"NAGARA ARIAKECHO","perfecture_jp":"岐阜県","jp_add_1":"岐阜市","jp_add_2":"長良有明町"},"5020054":{"post_code":"5020054","prefecture":"GIFU KEN","city":"GIFU SHI","town":"NAGARA IDA","perfecture_jp":"岐阜県","jp_add_1":"岐阜市","jp_add_2":"長良井田"},"5020063":{"post_code":"5020063","prefecture":"GIFU KEN","city":"GIFU SHI","town":"NAGARA ICHIRAKU","perfecture_jp":"岐阜県","jp_add_1":"岐阜市","jp_add_2":"長良一楽"},"5020031":{"post_code":"5020031","prefecture":"GIFU KEN","city":"GIFU SHI","town":"NAGARA OJI","perfecture_jp":"岐阜県","jp_add_1":"岐阜市","jp_add_2":"長良大路"},"5020036":{"post_code":"5020036","prefecture":"GIFU KEN","city":"GIFU SHI","town":"NAGARA OMAECHO","perfecture_jp":"岐阜県","jp_add_1":"岐阜市","jp_add_2":"長良大前町"},"5020838":{"post_code":"5020838","prefecture":"GIFU KEN","city":"GIFU SHI","town":"NAGARA OKA","perfecture_jp":"岐阜県","jp_add_1":"岐阜市","jp_add_2":"長良丘"},"5020077":{"post_code":"5020077","prefecture":"GIFU KEN","city":"GIFU SHI","town":"NAGARA OKUGO","perfecture_jp":"岐阜県","jp_add_1":"岐阜市","jp_add_2":"長良奥郷"},"5020017":{"post_code":"5020017","prefecture":"GIFU KEN","city":"GIFU SHI","town":"NAGARA OBUSA","perfecture_jp":"岐阜県","jp_add_1":"岐阜市","jp_add_2":"長良雄総"},"5020041":{"post_code":"5020041","prefecture":"GIFU KEN","city":"GIFU SHI","town":"NAGARA KAIYOCHO","perfecture_jp":"岐阜県","jp_add_1":"岐阜市","jp_add_2":"長良海用町"},"5020037":{"post_code":"5020037","prefecture":"GIFU KEN","city":"GIFU SHI","town":"NAGARA KIMPEKICHO","perfecture_jp":"岐阜県","jp_add_1":"岐阜市","jp_add_2":"長良金碧町"},"5020045":{"post_code":"5020045","prefecture":"GIFU KEN","city":"GIFU SHI","town":"NAGARA KOZENCHO","perfecture_jp":"岐阜県","jp_add_1":"岐阜市","jp_add_2":"長良校前町"},"5020044":{"post_code":"5020044","prefecture":"GIFU KEN","city":"GIFU SHI","town":"NAGARA KOBUNCHO","perfecture_jp":"岐阜県","jp_add_1":"岐阜市","jp_add_2":"長良校文町"},"5020051":{"post_code":"5020051","prefecture":"GIFU KEN","city":"GIFU SHI","town":"NAGARA KOWACHO","perfecture_jp":"岐阜県","jp_add_1":"岐阜市","jp_add_2":"長良幸和町"},"5020075":{"post_code":"5020075","prefecture":"GIFU KEN","city":"GIFU SHI","town":"NAGARA KOSHOGA","perfecture_jp":"岐阜県","jp_add_1":"岐阜市","jp_add_2":"長良子正賀"},"5020052":{"post_code":"5020052","prefecture":"GIFU KEN","city":"GIFU SHI","town":"NAGARA KOMATSUCHO","perfecture_jp":"岐阜県","jp_add_1":"岐阜市","jp_add_2":"長良小松町"},"5020026":{"post_code":"5020026","prefecture":"GIFU KEN","city":"GIFU SHI","town":"NAGARA SAKURAICHO","perfecture_jp":"岐阜県","jp_add_1":"岐阜市","jp_add_2":"長良桜井町"},"5020012":{"post_code":"5020012","prefecture":"GIFU KEN","city":"GIFU SHI","town":"NAGARA SHIDAMI","perfecture_jp":"岐阜県","jp_add_1":"岐阜市","jp_add_2":"長良志段見"},"5020028":{"post_code":"5020028","prefecture":"GIFU KEN","city":"GIFU SHI","town":"NAGARA SHIRATAECHO","perfecture_jp":"岐阜県","jp_add_1":"岐阜市","jp_add_2":"長良白妙町"},"5020042":{"post_code":"5020042","prefecture":"GIFU KEN","city":"GIFU SHI","town":"NAGARA SHIRONISHICHO","perfecture_jp":"岐阜県","jp_add_1":"岐阜市","jp_add_2":"長良城西町"},"5020056":{"post_code":"5020056","prefecture":"GIFU KEN","city":"GIFU SHI","town":"NAGARA SHINSEICHO","perfecture_jp":"岐阜県","jp_add_1":"岐阜市","jp_add_2":"長良真生町"},"5020046":{"post_code":"5020046","prefecture":"GIFU KEN","city":"GIFU SHI","town":"NAGARA SUGINOCHO","perfecture_jp":"岐阜県","jp_add_1":"岐阜市","jp_add_2":"長良杉乃町"},"5020066":{"post_code":"5020066","prefecture":"GIFU KEN","city":"GIFU SHI","town":"NAGARA SENDAMACHI","perfecture_jp":"岐阜県","jp_add_1":"岐阜市","jp_add_2":"長良仙田町"},"5020032":{"post_code":"5020032","prefecture":"GIFU KEN","city":"GIFU SHI","town":"NAGARA TAKAMINECHO","perfecture_jp":"岐阜県","jp_add_1":"岐阜市","jp_add_2":"長良高嶺町"},"5020073":{"post_code":"5020073","prefecture":"GIFU KEN","city":"GIFU SHI","town":"NAGARA TANAKA","perfecture_jp":"岐阜県","jp_add_1":"岐阜市","jp_add_2":"長良田中"},"5020064":{"post_code":"5020064","prefecture":"GIFU KEN","city":"GIFU SHI","town":"NAGARA TANAKAMAE","perfecture_jp":"岐阜県","jp_add_1":"岐阜市","jp_add_2":"長良田中前"},"5020022":{"post_code":"5020022","prefecture":"GIFU KEN","city":"GIFU SHI","town":"NAGARA TOGOCHO","perfecture_jp":"岐阜県","jp_add_1":"岐阜市","jp_add_2":"長良東郷町"},"5020076":{"post_code":"5020076","prefecture":"GIFU KEN","city":"GIFU SHI","town":"NAGARA TOMOSE","perfecture_jp":"岐阜県","jp_add_1":"岐阜市","jp_add_2":"長良友瀬"},"5020035":{"post_code":"5020035","prefecture":"GIFU KEN","city":"GIFU SHI","town":"NAGARA NANYOCHO","perfecture_jp":"岐阜県","jp_add_1":"岐阜市","jp_add_2":"長良南陽町"},"5020067":{"post_code":"5020067","prefecture":"GIFU KEN","city":"GIFU SHI","town":"NAGARA NISHINOMAE","perfecture_jp":"岐阜県","jp_add_1":"岐阜市","jp_add_2":"長良西野前"},"5020074":{"post_code":"5020074","prefecture":"GIFU KEN","city":"GIFU SHI","town":"NAGARA NISHIYAMAMAE","perfecture_jp":"岐阜県","jp_add_1":"岐阜市","jp_add_2":"長良西山前"},"5020062":{"post_code":"5020062","prefecture":"GIFU KEN","city":"GIFU SHI","town":"NAGARA HARUTA","perfecture_jp":"岐阜県","jp_add_1":"岐阜市","jp_add_2":"長良春田"},"5020082":{"post_code":"5020082","prefecture":"GIFU KEN","city":"GIFU SHI","town":"NAGARA HIGASHI","perfecture_jp":"岐阜県","jp_add_1":"岐阜市","jp_add_2":"長良東"},"5020043":{"post_code":"5020043","prefecture":"GIFU KEN","city":"GIFU SHI","town":"NAGARA HIGASHIMACHI","perfecture_jp":"岐阜県","jp_add_1":"岐阜市","jp_add_2":"長良東町"},"5020072":{"post_code":"5020072","prefecture":"GIFU KEN","city":"GIFU SHI","town":"NAGARA FUKUIZUMI","perfecture_jp":"岐阜県","jp_add_1":"岐阜市","jp_add_2":"長良福泉"},"5020055":{"post_code":"5020055","prefecture":"GIFU KEN","city":"GIFU SHI","town":"NAGARA FUKUECHO","perfecture_jp":"岐阜県","jp_add_1":"岐阜市","jp_add_2":"長良福江町"},"5020817":{"post_code":"5020817","prefecture":"GIFU KEN","city":"GIFU SHI","town":"NAGARA FUKUMITSU","perfecture_jp":"岐阜県","jp_add_1":"岐阜市","jp_add_2":"長良福光"},"5020011":{"post_code":"5020011","prefecture":"GIFU KEN","city":"GIFU SHI","town":"NAGARA FURUTSU","perfecture_jp":"岐阜県","jp_add_1":"岐阜市","jp_add_2":"長良古津"},"5020038":{"post_code":"5020038","prefecture":"GIFU KEN","city":"GIFU SHI","town":"NAGARA HOKYUJICHO","perfecture_jp":"岐阜県","jp_add_1":"岐阜市","jp_add_2":"長良法久寺町"},"5020027":{"post_code":"5020027","prefecture":"GIFU KEN","city":"GIFU SHI","town":"NAGARA MIYAGUCHICHO","perfecture_jp":"岐阜県","jp_add_1":"岐阜市","jp_add_2":"長良宮口町"},"5020053":{"post_code":"5020053","prefecture":"GIFU KEN","city":"GIFU SHI","town":"NAGARA MIYAJICHO","perfecture_jp":"岐阜県","jp_add_1":"岐阜市","jp_add_2":"長良宮路町"},"5020065":{"post_code":"5020065","prefecture":"GIFU KEN","city":"GIFU SHI","town":"NAGARA MORIMACHI","perfecture_jp":"岐阜県","jp_add_1":"岐阜市","jp_add_2":"長良森町"},"5020033":{"post_code":"5020033","prefecture":"GIFU KEN","city":"GIFU SHI","town":"NAGARA YURAKUCHO","perfecture_jp":"岐阜県","jp_add_1":"岐阜市","jp_add_2":"長良有楽町"},"5020061":{"post_code":"5020061","prefecture":"GIFU KEN","city":"GIFU SHI","town":"NAGARA RYUTOCHO","perfecture_jp":"岐阜県","jp_add_1":"岐阜市","jp_add_2":"長良竜東町"},"5020029":{"post_code":"5020029","prefecture":"GIFU KEN","city":"GIFU SHI","town":"NAGARA WAKABACHO","perfecture_jp":"岐阜県","jp_add_1":"岐阜市","jp_add_2":"長良若葉町"},"5020912":{"post_code":"5020912","prefecture":"GIFU KEN","city":"GIFU SHI","town":"NISHIJIMACHO","perfecture_jp":"岐阜県","jp_add_1":"岐阜市","jp_add_2":"西島町"},"5020916":{"post_code":"5020916","prefecture":"GIFU KEN","city":"GIFU SHI","town":"NISHINAKAJIMA","perfecture_jp":"岐阜県","jp_add_1":"岐阜市","jp_add_2":"西中島"},"5020933":{"post_code":"5020933","prefecture":"GIFU KEN","city":"GIFU SHI","town":"NIKKOCHO","perfecture_jp":"岐阜県","jp_add_1":"岐阜市","jp_add_2":"日光町"},"5020931":{"post_code":"5020931","prefecture":"GIFU KEN","city":"GIFU SHI","town":"NORITAKE","perfecture_jp":"岐阜県","jp_add_1":"岐阜市","jp_add_2":"則武"},"5020932":{"post_code":"5020932","prefecture":"GIFU KEN","city":"GIFU SHI","town":"NORITAKENAKA","perfecture_jp":"岐阜県","jp_add_1":"岐阜市","jp_add_2":"則武中"},"5020939":{"post_code":"5020939","prefecture":"GIFU KEN","city":"GIFU SHI","town":"NORITAKENISHI","perfecture_jp":"岐阜県","jp_add_1":"岐阜市","jp_add_2":"則武西"},"5020929":{"post_code":"5020929","prefecture":"GIFU KEN","city":"GIFU SHI","town":"NORITAKEHIGASHI","perfecture_jp":"岐阜県","jp_add_1":"岐阜市","jp_add_2":"則武東"},"5020825":{"post_code":"5020825","prefecture":"GIFU KEN","city":"GIFU SHI","town":"HATSUHIMACHI","perfecture_jp":"岐阜県","jp_add_1":"岐阜市","jp_add_2":"初日町"},"5020824":{"post_code":"5020824","prefecture":"GIFU KEN","city":"GIFU SHI","town":"HANANOKICHO","perfecture_jp":"岐阜県","jp_add_1":"岐阜市","jp_add_2":"花ノ木町"},"5020829":{"post_code":"5020829","prefecture":"GIFU KEN","city":"GIFU SHI","town":"BANDAICHO","perfecture_jp":"岐阜県","jp_add_1":"岐阜市","jp_add_2":"万代町"},"5020901":{"post_code":"5020901","prefecture":"GIFU KEN","city":"GIFU SHI","town":"HIKARIMACHI","perfecture_jp":"岐阜県","jp_add_1":"岐阜市","jp_add_2":"光町"},"5020913":{"post_code":"5020913","prefecture":"GIFU KEN","city":"GIFU SHI","town":"HIGASHIJIMA","perfecture_jp":"岐阜県","jp_add_1":"岐阜市","jp_add_2":"東島"},"5020822":{"post_code":"5020822","prefecture":"GIFU KEN","city":"GIFU SHI","town":"FUKUTAMACHI","perfecture_jp":"岐阜県","jp_add_1":"岐阜市","jp_add_2":"福田町"},"5020813":{"post_code":"5020813","prefecture":"GIFU KEN","city":"GIFU SHI","town":"FUKUMITSU HIGASHI","perfecture_jp":"岐阜県","jp_add_1":"岐阜市","jp_add_2":"福光東"},"5020814":{"post_code":"5020814","prefecture":"GIFU KEN","city":"GIFU SHI","town":"FUKUMITSU NISHI","perfecture_jp":"岐阜県","jp_add_1":"岐阜市","jp_add_2":"福光西"},"5020815":{"post_code":"5020815","prefecture":"GIFU KEN","city":"GIFU SHI","town":"FUKUMITSUMINAMIMACHI","perfecture_jp":"岐阜県","jp_add_1":"岐阜市","jp_add_2":"福光南町"},"5020827":{"post_code":"5020827","prefecture":"GIFU KEN","city":"GIFU SHI","town":"HEIWADORI","perfecture_jp":"岐阜県","jp_add_1":"岐阜市","jp_add_2":"平和通"},"5020024":{"post_code":"5020024","prefecture":"GIFU KEN","city":"GIFU SHI","town":"HORITAMACHI","perfecture_jp":"岐阜県","jp_add_1":"岐阜市","jp_add_2":"堀田町"},"5020857":{"post_code":"5020857","prefecture":"GIFU KEN","city":"GIFU SHI","town":"MASAKI","perfecture_jp":"岐阜県","jp_add_1":"岐阜市","jp_add_2":"正木"},"5020881":{"post_code":"5020881","prefecture":"GIFU KEN","city":"GIFU SHI","town":"MASAKI KITAMACHI","perfecture_jp":"岐阜県","jp_add_1":"岐阜市","jp_add_2":"正木北町"},"5020865":{"post_code":"5020865","prefecture":"GIFU KEN","city":"GIFU SHI","town":"MASAKI NISHIMACHI","perfecture_jp":"岐阜県","jp_add_1":"岐阜市","jp_add_2":"正木西町"},"5020882":{"post_code":"5020882","prefecture":"GIFU KEN","city":"GIFU SHI","town":"MASAKINAKA","perfecture_jp":"岐阜県","jp_add_1":"岐阜市","jp_add_2":"正木中"},"5020866":{"post_code":"5020866","prefecture":"GIFU KEN","city":"GIFU SHI","town":"MASAKIMINAMI","perfecture_jp":"岐阜県","jp_add_1":"岐阜市","jp_add_2":"正木南"},"5020833":{"post_code":"5020833","prefecture":"GIFU KEN","city":"GIFU SHI","town":"MATSUKAZECHO","perfecture_jp":"岐阜県","jp_add_1":"岐阜市","jp_add_2":"松風町"},"5020903":{"post_code":"5020903","prefecture":"GIFU KEN","city":"GIFU SHI","town":"MISHIMACHO","perfecture_jp":"岐阜県","jp_add_1":"岐阜市","jp_add_2":"美島町"},"5020004":{"post_code":"5020004","prefecture":"GIFU KEN","city":"GIFU SHI","town":"MITAHORA","perfecture_jp":"岐阜県","jp_add_1":"岐阜市","jp_add_2":"三田洞"},"5020003":{"post_code":"5020003","prefecture":"GIFU KEN","city":"GIFU SHI","town":"MITAHORAHIGASHI","perfecture_jp":"岐阜県","jp_add_1":"岐阜市","jp_add_2":"三田洞東"},"5020852":{"post_code":"5020852","prefecture":"GIFU KEN","city":"GIFU SHI","town":"MINAMISEMI","perfecture_jp":"岐阜県","jp_add_1":"岐阜市","jp_add_2":"南蝉"},"5020923":{"post_code":"5020923","prefecture":"GIFU KEN","city":"GIFU SHI","town":"MIYAURACHO","perfecture_jp":"岐阜県","jp_add_1":"岐阜市","jp_add_2":"宮浦町"},"5020922":{"post_code":"5020922","prefecture":"GIFU KEN","city":"GIFU SHI","town":"MYOJINCHO","perfecture_jp":"岐阜県","jp_add_1":"岐阜市","jp_add_2":"明神町"},"5020921":{"post_code":"5020921","prefecture":"GIFU KEN","city":"GIFU SHI","town":"MORIGUCHICHO","perfecture_jp":"岐阜県","jp_add_1":"岐阜市","jp_add_2":"守口町"},"5020812":{"post_code":"5020812","prefecture":"GIFU KEN","city":"GIFU SHI","town":"YASHIRO","perfecture_jp":"岐阜県","jp_add_1":"岐阜市","jp_add_2":"八代"},"5020025":{"post_code":"5020025","prefecture":"GIFU KEN","city":"GIFU SHI","town":"YAMASAKICHO","perfecture_jp":"岐阜県","jp_add_1":"岐阜市","jp_add_2":"山先町"},"5020905":{"post_code":"5020905","prefecture":"GIFU KEN","city":"GIFU SHI","town":"YAMABUKICHO","perfecture_jp":"岐阜県","jp_add_1":"岐阜市","jp_add_2":"山吹町"},"5020834":{"post_code":"5020834","prefecture":"GIFU KEN","city":"GIFU SHI","town":"YOROCHO","perfecture_jp":"岐阜県","jp_add_1":"岐阜市","jp_add_2":"養老町"},"5020836":{"post_code":"5020836","prefecture":"GIFU KEN","city":"GIFU SHI","town":"WAKATAKECHO","perfecture_jp":"岐阜県","jp_add_1":"岐阜市","jp_add_2":"若竹町"},"5020811":{"post_code":"5020811","prefecture":"GIFU KEN","city":"GIFU SHI","town":"WAKAFUKUCHO","perfecture_jp":"岐阜県","jp_add_1":"岐阜市","jp_add_2":"若福町"}}