{"5030000":{"post_code":"5030000","prefecture":"GIFU KEN","city":"OGAKI SHI","town":"IKANIKEISAIGANAIBAAI","perfecture_jp":"岐阜県","jp_add_1":"大垣市","jp_add_2":""},"5032202":{"post_code":"5032202","prefecture":"GIFU KEN","city":"OGAKI SHI","town":"AOKICHO","perfecture_jp":"岐阜県","jp_add_1":"大垣市","jp_add_2":"青木町"},"5032227":{"post_code":"5032227","prefecture":"GIFU KEN","city":"OGAKI SHI","town":"AONOCHO","perfecture_jp":"岐阜県","jp_add_1":"大垣市","jp_add_2":"青野町"},"5032221":{"post_code":"5032221","prefecture":"GIFU KEN","city":"OGAKI SHI","town":"AOHAKACHO","perfecture_jp":"岐阜県","jp_add_1":"大垣市","jp_add_2":"青墓町"},"5030961":{"post_code":"5030961","prefecture":"GIFU KEN","city":"OGAKI SHI","town":"AOYANAGICHO","perfecture_jp":"岐阜県","jp_add_1":"大垣市","jp_add_2":"青柳町"},"5032214":{"post_code":"5032214","prefecture":"GIFU KEN","city":"OGAKI SHI","town":"AKASAKA SHINDEN","perfecture_jp":"岐阜県","jp_add_1":"大垣市","jp_add_2":"赤坂新田"},"5032206":{"post_code":"5032206","prefecture":"GIFU KEN","city":"OGAKI SHI","town":"AKASAKA SHIMMACHI","perfecture_jp":"岐阜県","jp_add_1":"大垣市","jp_add_2":"赤坂新町"},"5032215":{"post_code":"5032215","prefecture":"GIFU KEN","city":"OGAKI SHI","town":"AKASAKA DAIMON","perfecture_jp":"岐阜県","jp_add_1":"大垣市","jp_add_2":"赤坂大門"},"5032212":{"post_code":"5032212","prefecture":"GIFU KEN","city":"OGAKI SHI","town":"AKASAKA HIGASHIMACHI","perfecture_jp":"岐阜県","jp_add_1":"大垣市","jp_add_2":"赤坂東町"},"5032213":{"post_code":"5032213","prefecture":"GIFU KEN","city":"OGAKI SHI","town":"AKASAKACHO","perfecture_jp":"岐阜県","jp_add_1":"大垣市","jp_add_2":"赤坂町"},"5030013":{"post_code":"5030013","prefecture":"GIFU KEN","city":"OGAKI SHI","town":"AKABANACHO","perfecture_jp":"岐阜県","jp_add_1":"大垣市","jp_add_2":"赤花町"},"5030947":{"post_code":"5030947","prefecture":"GIFU KEN","city":"OGAKI SHI","town":"ASAKUSA","perfecture_jp":"岐阜県","jp_add_1":"大垣市","jp_add_2":"浅草"},"5030946":{"post_code":"5030946","prefecture":"GIFU KEN","city":"OGAKI SHI","town":"ASANAKA","perfecture_jp":"岐阜県","jp_add_1":"大垣市","jp_add_2":"浅中"},"5030824":{"post_code":"5030824","prefecture":"GIFU KEN","city":"OGAKI SHI","town":"ASAHIMACHI","perfecture_jp":"岐阜県","jp_add_1":"大垣市","jp_add_2":"旭町"},"5030945":{"post_code":"5030945","prefecture":"GIFU KEN","city":"OGAKI SHI","town":"ASANISHI","perfecture_jp":"岐阜県","jp_add_1":"大垣市","jp_add_2":"浅西"},"5030802":{"post_code":"5030802","prefecture":"GIFU KEN","city":"OGAKI SHI","town":"AZUMACHO","perfecture_jp":"岐阜県","jp_add_1":"大垣市","jp_add_2":"東町"},"5030984":{"post_code":"5030984","prefecture":"GIFU KEN","city":"OGAKI SHI","town":"AYANO","perfecture_jp":"岐阜県","jp_add_1":"大垣市","jp_add_2":"綾野"},"5030994":{"post_code":"5030994","prefecture":"GIFU KEN","city":"OGAKI SHI","town":"AYANOCHO","perfecture_jp":"岐阜県","jp_add_1":"大垣市","jp_add_2":"綾野町"},"5030035":{"post_code":"5030035","prefecture":"GIFU KEN","city":"OGAKI SHI","town":"ARAOTAMAIKE","perfecture_jp":"岐阜県","jp_add_1":"大垣市","jp_add_2":"荒尾玉池"},"5030034":{"post_code":"5030034","prefecture":"GIFU KEN","city":"OGAKI SHI","town":"ARAOCHO","perfecture_jp":"岐阜県","jp_add_1":"大垣市","jp_add_2":"荒尾町"},"5030993":{"post_code":"5030993","prefecture":"GIFU KEN","city":"OGAKI SHI","town":"ARAKAWACHO","perfecture_jp":"岐阜県","jp_add_1":"大垣市","jp_add_2":"荒川町"},"5032204":{"post_code":"5032204","prefecture":"GIFU KEN","city":"OGAKI SHI","town":"IKEJIRICHO","perfecture_jp":"岐阜県","jp_add_1":"大垣市","jp_add_2":"池尻町"},"5032224":{"post_code":"5032224","prefecture":"GIFU KEN","city":"OGAKI SHI","town":"INABA HIGASHI","perfecture_jp":"岐阜県","jp_add_1":"大垣市","jp_add_2":"稲葉東"},"5032225":{"post_code":"5032225","prefecture":"GIFU KEN","city":"OGAKI SHI","town":"INABA NISHI","perfecture_jp":"岐阜県","jp_add_1":"大垣市","jp_add_2":"稲葉西"},"5032226":{"post_code":"5032226","prefecture":"GIFU KEN","city":"OGAKI SHI","town":"INABA KITA","perfecture_jp":"岐阜県","jp_add_1":"大垣市","jp_add_2":"稲葉北"},"5030834":{"post_code":"5030834","prefecture":"GIFU KEN","city":"OGAKI SHI","town":"INUGABUCHICHO","perfecture_jp":"岐阜県","jp_add_1":"大垣市","jp_add_2":"犬ケ渕町"},"5030874":{"post_code":"5030874","prefecture":"GIFU KEN","city":"OGAKI SHI","town":"IMAOKACHO","perfecture_jp":"岐阜県","jp_add_1":"大垣市","jp_add_2":"今岡町"},"5030807":{"post_code":"5030807","prefecture":"GIFU KEN","city":"OGAKI SHI","town":"IMAJUKU","perfecture_jp":"岐阜県","jp_add_1":"大垣市","jp_add_2":"今宿"},"5030843":{"post_code":"5030843","prefecture":"GIFU KEN","city":"OGAKI SHI","town":"IMAFUKUCHO","perfecture_jp":"岐阜県","jp_add_1":"大垣市","jp_add_2":"今福町"},"5030924":{"post_code":"5030924","prefecture":"GIFU KEN","city":"OGAKI SHI","town":"IMAMACHI","perfecture_jp":"岐阜県","jp_add_1":"大垣市","jp_add_2":"今町"},"5030962":{"post_code":"5030962","prefecture":"GIFU KEN","city":"OGAKI SHI","town":"IRIKATA","perfecture_jp":"岐阜県","jp_add_1":"大垣市","jp_add_2":"入方"},"5030871":{"post_code":"5030871","prefecture":"GIFU KEN","city":"OGAKI SHI","town":"UOYACHO","perfecture_jp":"岐阜県","jp_add_1":"大垣市","jp_add_2":"魚屋町"},"5030936":{"post_code":"5030936","prefecture":"GIFU KEN","city":"OGAKI SHI","town":"UCHIWARA","perfecture_jp":"岐阜県","jp_add_1":"大垣市","jp_add_2":"内原"},"5030842":{"post_code":"5030842","prefecture":"GIFU KEN","city":"OGAKI SHI","town":"UMANOSECHO","perfecture_jp":"岐阜県","jp_add_1":"大垣市","jp_add_2":"馬の瀬町"},"5030838":{"post_code":"5030838","prefecture":"GIFU KEN","city":"OGAKI SHI","town":"EZAKICHO","perfecture_jp":"岐阜県","jp_add_1":"大垣市","jp_add_2":"江崎町"},"5032207":{"post_code":"5032207","prefecture":"GIFU KEN","city":"OGAKI SHI","town":"EDAGO","perfecture_jp":"岐阜県","jp_add_1":"大垣市","jp_add_2":"枝郷"},"5030828":{"post_code":"5030828","prefecture":"GIFU KEN","city":"OGAKI SHI","town":"EBISUCHO","perfecture_jp":"岐阜県","jp_add_1":"大垣市","jp_add_2":"恵比寿町"},"5030827":{"post_code":"5030827","prefecture":"GIFU KEN","city":"OGAKI SHI","town":"EBISUCHO MINAMI","perfecture_jp":"岐阜県","jp_add_1":"大垣市","jp_add_2":"恵比寿町南"},"5030826":{"post_code":"5030826","prefecture":"GIFU KEN","city":"OGAKI SHI","town":"EBISUCHO KITA","perfecture_jp":"岐阜県","jp_add_1":"大垣市","jp_add_2":"恵比寿町北"},"5030836":{"post_code":"5030836","prefecture":"GIFU KEN","city":"OGAKI SHI","town":"OI","perfecture_jp":"岐阜県","jp_add_1":"大垣市","jp_add_2":"大井"},"5030863":{"post_code":"5030863","prefecture":"GIFU KEN","city":"OGAKI SHI","town":"OIKECHO","perfecture_jp":"岐阜県","jp_add_1":"大垣市","jp_add_2":"大池町"},"5030001":{"post_code":"5030001","prefecture":"GIFU KEN","city":"OGAKI SHI","town":"OSHIMACHO","perfecture_jp":"岐阜県","jp_add_1":"大垣市","jp_add_2":"大島町"},"5030956":{"post_code":"5030956","prefecture":"GIFU KEN","city":"OGAKI SHI","town":"OTOBA","perfecture_jp":"岐阜県","jp_add_1":"大垣市","jp_add_2":"大外羽"},"5030814":{"post_code":"5030814","prefecture":"GIFU KEN","city":"OGAKI SHI","town":"OMURA","perfecture_jp":"岐阜県","jp_add_1":"大垣市","jp_add_2":"大村"},"5030898":{"post_code":"5030898","prefecture":"GIFU KEN","city":"OGAKI SHI","town":"OKACHIMACHI","perfecture_jp":"岐阜県","jp_add_1":"大垣市","jp_add_2":"歩行町"},"5030007":{"post_code":"5030007","prefecture":"GIFU KEN","city":"OGAKI SHI","town":"KAIZONECHO","perfecture_jp":"岐阜県","jp_add_1":"大垣市","jp_add_2":"貝曽根町"},"5030002":{"post_code":"5030002","prefecture":"GIFU KEN","city":"OGAKI SHI","town":"KAIHATSUCHO","perfecture_jp":"岐阜県","jp_add_1":"大垣市","jp_add_2":"開発町"},"5030006":{"post_code":"5030006","prefecture":"GIFU KEN","city":"OGAKI SHI","town":"KAGANO","perfecture_jp":"岐阜県","jp_add_1":"大垣市","jp_add_2":"加賀野"},"5030008":{"post_code":"5030008","prefecture":"GIFU KEN","city":"OGAKI SHI","town":"GAKUDENCHO","perfecture_jp":"岐阜県","jp_add_1":"大垣市","jp_add_2":"楽田町"},"5030023":{"post_code":"5030023","prefecture":"GIFU KEN","city":"OGAKI SHI","town":"KASAGICHO","perfecture_jp":"岐阜県","jp_add_1":"大垣市","jp_add_2":"笠木町"},"5030027":{"post_code":"5030027","prefecture":"GIFU KEN","city":"OGAKI SHI","town":"KASANUICHO","perfecture_jp":"岐阜県","jp_add_1":"大垣市","jp_add_2":"笠縫町"},"5030823":{"post_code":"5030823","prefecture":"GIFU KEN","city":"OGAKI SHI","town":"KASHIMACHO","perfecture_jp":"岐阜県","jp_add_1":"大垣市","jp_add_2":"鹿島町"},"5030021":{"post_code":"5030021","prefecture":"GIFU KEN","city":"OGAKI SHI","town":"GAMACHO","perfecture_jp":"岐阜県","jp_add_1":"大垣市","jp_add_2":"河間町"},"5030937":{"post_code":"5030937","prefecture":"GIFU KEN","city":"OGAKI SHI","town":"KAMAFUE","perfecture_jp":"岐阜県","jp_add_1":"大垣市","jp_add_2":"釜笛"},"5031614":{"post_code":"5031614","prefecture":"GIFU KEN","city":"OGAKI SHI","town":"KAMIISHIZUCHO ICHINOSE","perfecture_jp":"岐阜県","jp_add_1":"大垣市","jp_add_2":"上石津町一之瀬"},"5031633":{"post_code":"5031633","prefecture":"GIFU KEN","city":"OGAKI SHI","town":"KAMIISHIZUCHO UCHIAGE","perfecture_jp":"岐阜県","jp_add_1":"大垣市","jp_add_2":"上石津町打上"},"5031622":{"post_code":"5031622","prefecture":"GIFU KEN","city":"OGAKI SHI","town":"KAMIISHIZUCHO UWAHARA","perfecture_jp":"岐阜県","jp_add_1":"大垣市","jp_add_2":"上石津町上原"},"5031611":{"post_code":"5031611","prefecture":"GIFU KEN","city":"OGAKI SHI","town":"KAMIISHIZUCHO OKU","perfecture_jp":"岐阜県","jp_add_1":"大垣市","jp_add_2":"上石津町奥"},"5031601":{"post_code":"5031601","prefecture":"GIFU KEN","city":"OGAKI SHI","town":"KAMIISHIZUCHO OTSUSAKA","perfecture_jp":"岐阜県","jp_add_1":"大垣市","jp_add_2":"上石津町乙坂"},"5031638":{"post_code":"5031638","prefecture":"GIFU KEN","city":"OGAKI SHI","town":"KAMIISHIZUCHO KAMI","perfecture_jp":"岐阜県","jp_add_1":"大垣市","jp_add_2":"上石津町上"},"5031613":{"post_code":"5031613","prefecture":"GIFU KEN","city":"OGAKI SHI","town":"KAMIISHIZUCHO KAMIKAJIYA","perfecture_jp":"岐阜県","jp_add_1":"大垣市","jp_add_2":"上石津町上鍛治屋"},"5031623":{"post_code":"5031623","prefecture":"GIFU KEN","city":"OGAKI SHI","town":"KAMIISHIZUCHO KAMITARA","perfecture_jp":"岐阜県","jp_add_1":"大垣市","jp_add_2":"上石津町上多良"},"5031621":{"post_code":"5031621","prefecture":"GIFU KEN","city":"OGAKI SHI","town":"KAMIISHIZUCHO SHIMOTARA","perfecture_jp":"岐阜県","jp_add_1":"大垣市","jp_add_2":"上石津町下多良"},"5031632":{"post_code":"5031632","prefecture":"GIFU KEN","city":"OGAKI SHI","town":"KAMIISHIZUCHO SHIMOYAMA","perfecture_jp":"岐阜県","jp_add_1":"大垣市","jp_add_2":"上石津町下山"},"5031612":{"post_code":"5031612","prefecture":"GIFU KEN","city":"OGAKI SHI","town":"KAMIISHIZUCHO TANIHATA","perfecture_jp":"岐阜県","jp_add_1":"大垣市","jp_add_2":"上石津町谷畑"},"5031637":{"post_code":"5031637","prefecture":"GIFU KEN","city":"OGAKI SHI","town":"KAMIISHIZUCHO DONOE","perfecture_jp":"岐阜県","jp_add_1":"大垣市","jp_add_2":"上石津町堂之上"},"5031635":{"post_code":"5031635","prefecture":"GIFU KEN","city":"OGAKI SHI","town":"KAMIISHIZUCHO TOKIYAMA","perfecture_jp":"岐阜県","jp_add_1":"大垣市","jp_add_2":"上石津町時山"},"5031636":{"post_code":"5031636","prefecture":"GIFU KEN","city":"OGAKI SHI","town":"KAMIISHIZUCHO NISHIYAMA","perfecture_jp":"岐阜県","jp_add_1":"大垣市","jp_add_2":"上石津町西山"},"5031626":{"post_code":"5031626","prefecture":"GIFU KEN","city":"OGAKI SHI","town":"KAMIISHIZUCHO NEGIKAMI","perfecture_jp":"岐阜県","jp_add_1":"大垣市","jp_add_2":"上石津町祢宜上"},"5031634":{"post_code":"5031634","prefecture":"GIFU KEN","city":"OGAKI SHI","town":"KAMIISHIZUCHO HOSONO","perfecture_jp":"岐阜県","jp_add_1":"大垣市","jp_add_2":"上石津町細野"},"5031631":{"post_code":"5031631","prefecture":"GIFU KEN","city":"OGAKI SHI","town":"KAMIISHIZUCHO MAEGASE","perfecture_jp":"岐阜県","jp_add_1":"大垣市","jp_add_2":"上石津町前ケ瀬"},"5031602":{"post_code":"5031602","prefecture":"GIFU KEN","city":"OGAKI SHI","town":"KAMIISHIZUCHO MAKIDA","perfecture_jp":"岐阜県","jp_add_1":"大垣市","jp_add_2":"上石津町牧田"},"5031624":{"post_code":"5031624","prefecture":"GIFU KEN","city":"OGAKI SHI","town":"KAMIISHIZUCHO MITSUSATO","perfecture_jp":"岐阜県","jp_add_1":"大垣市","jp_add_2":"上石津町三ツ里"},"5031625":{"post_code":"5031625","prefecture":"GIFU KEN","city":"OGAKI SHI","town":"KAMIISHIZUCHO MIYA","perfecture_jp":"岐阜県","jp_add_1":"大垣市","jp_add_2":"上石津町宮"},"5030964":{"post_code":"5030964","prefecture":"GIFU KEN","city":"OGAKI SHI","town":"KAMIGASA","perfecture_jp":"岐阜県","jp_add_1":"大垣市","jp_add_2":"上笠"},"5030957":{"post_code":"5030957","prefecture":"GIFU KEN","city":"OGAKI SHI","town":"KAMIYA","perfecture_jp":"岐阜県","jp_add_1":"大垣市","jp_add_2":"上屋"},"5030941":{"post_code":"5030941","prefecture":"GIFU KEN","city":"OGAKI SHI","town":"KAWAGUCHI","perfecture_jp":"岐阜県","jp_add_1":"大垣市","jp_add_2":"川口"},"5030917":{"post_code":"5030917","prefecture":"GIFU KEN","city":"OGAKI SHI","town":"KANDACHO","perfecture_jp":"岐阜県","jp_add_1":"大垣市","jp_add_2":"神田町"},"5030019":{"post_code":"5030019","prefecture":"GIFU KEN","city":"OGAKI SHI","town":"KITAGATACHO","perfecture_jp":"岐阜県","jp_add_1":"大垣市","jp_add_2":"北方町"},"5030915":{"post_code":"5030915","prefecture":"GIFU KEN","city":"OGAKI SHI","town":"KITAKIRIISHICHO","perfecture_jp":"岐阜県","jp_add_1":"大垣市","jp_add_2":"北切石町"},"5030973":{"post_code":"5030973","prefecture":"GIFU KEN","city":"OGAKI SHI","town":"KIDOCHO","perfecture_jp":"岐阜県","jp_add_1":"大垣市","jp_add_2":"木戸町"},"5030881":{"post_code":"5030881","prefecture":"GIFU KEN","city":"OGAKI SHI","town":"GIFUMACHI","perfecture_jp":"岐阜県","jp_add_1":"大垣市","jp_add_2":"岐阜町"},"5030982":{"post_code":"5030982","prefecture":"GIFU KEN","city":"OGAKI SHI","town":"KYUTOKUCHO","perfecture_jp":"岐阜県","jp_add_1":"大垣市","jp_add_2":"久徳町"},"5030926":{"post_code":"5030926","prefecture":"GIFU KEN","city":"OGAKI SHI","town":"KIRIISHICHO","perfecture_jp":"岐阜県","jp_add_1":"大垣市","jp_add_2":"切石町"},"5030904":{"post_code":"5030904","prefecture":"GIFU KEN","city":"OGAKI SHI","town":"KIRIGASAKICHO","perfecture_jp":"岐阜県","jp_add_1":"大垣市","jp_add_2":"桐ケ崎町"},"5030991":{"post_code":"5030991","prefecture":"GIFU KEN","city":"OGAKI SHI","town":"KIROCHO","perfecture_jp":"岐阜県","jp_add_1":"大垣市","jp_add_2":"木呂町"},"5030974":{"post_code":"5030974","prefecture":"GIFU KEN","city":"OGAKI SHI","town":"KUZEGAWACHO","perfecture_jp":"岐阜県","jp_add_1":"大垣市","jp_add_2":"久瀬川町"},"5030032":{"post_code":"5030032","prefecture":"GIFU KEN","city":"OGAKI SHI","town":"KUMANOCHO","perfecture_jp":"岐阜県","jp_add_1":"大垣市","jp_add_2":"熊野町"},"5030902":{"post_code":"5030902","prefecture":"GIFU KEN","city":"OGAKI SHI","town":"KURIYACHO","perfecture_jp":"岐阜県","jp_add_1":"大垣市","jp_add_2":"栗屋町"},"5030887":{"post_code":"5030887","prefecture":"GIFU KEN","city":"OGAKI SHI","town":"KURUWAMACHI","perfecture_jp":"岐阜県","jp_add_1":"大垣市","jp_add_2":"郭町"},"5030886":{"post_code":"5030886","prefecture":"GIFU KEN","city":"OGAKI SHI","town":"KURUWAMACHIHIGASHI","perfecture_jp":"岐阜県","jp_add_1":"大垣市","jp_add_2":"郭町東"},"5030816":{"post_code":"5030816","prefecture":"GIFU KEN","city":"OGAKI SHI","town":"KOIZUMICHO","perfecture_jp":"岐阜県","jp_add_1":"大垣市","jp_add_2":"小泉町"},"5032203":{"post_code":"5032203","prefecture":"GIFU KEN","city":"OGAKI SHI","town":"KOFUKUJICHO","perfecture_jp":"岐阜県","jp_add_1":"大垣市","jp_add_2":"興福地町"},"5030036":{"post_code":"5030036","prefecture":"GIFU KEN","city":"OGAKI SHI","town":"KOCHIMARU","perfecture_jp":"岐阜県","jp_add_1":"大垣市","jp_add_2":"古知丸"},"5030877":{"post_code":"5030877","prefecture":"GIFU KEN","city":"OGAKI SHI","town":"GOTEMMACHI","perfecture_jp":"岐阜県","jp_add_1":"大垣市","jp_add_2":"御殿町"},"5030832":{"post_code":"5030832","prefecture":"GIFU KEN","city":"OGAKI SHI","town":"KOTOBUKICHO","perfecture_jp":"岐阜県","jp_add_1":"大垣市","jp_add_2":"寿町"},"5030803":{"post_code":"5030803","prefecture":"GIFU KEN","city":"OGAKI SHI","town":"KONO","perfecture_jp":"岐阜県","jp_add_1":"大垣市","jp_add_2":"小野"},"5030847":{"post_code":"5030847","prefecture":"GIFU KEN","city":"OGAKI SHI","town":"KOMENOCHO","perfecture_jp":"岐阜県","jp_add_1":"大垣市","jp_add_2":"米野町"},"5030009":{"post_code":"5030009","prefecture":"GIFU KEN","city":"OGAKI SHI","town":"SAKASHITACHO","perfecture_jp":"岐阜県","jp_add_1":"大垣市","jp_add_2":"坂下町"},"5030821":{"post_code":"5030821","prefecture":"GIFU KEN","city":"OGAKI SHI","town":"SANAECHO","perfecture_jp":"岐阜県","jp_add_1":"大垣市","jp_add_2":"早苗町"},"5030813":{"post_code":"5030813","prefecture":"GIFU KEN","city":"OGAKI SHI","town":"SAMBONGI","perfecture_jp":"岐阜県","jp_add_1":"大垣市","jp_add_2":"三本木"},"5030983":{"post_code":"5030983","prefecture":"GIFU KEN","city":"OGAKI SHI","town":"SHIZUSATOCHO","perfecture_jp":"岐阜県","jp_add_1":"大垣市","jp_add_2":"静里町"},"5030865":{"post_code":"5030865","prefecture":"GIFU KEN","city":"OGAKI SHI","town":"JINAICHO","perfecture_jp":"岐阜県","jp_add_1":"大垣市","jp_add_2":"寺内町"},"5030935":{"post_code":"5030935","prefecture":"GIFU KEN","city":"OGAKI SHI","town":"SHIMAZATO","perfecture_jp":"岐阜県","jp_add_1":"大垣市","jp_add_2":"島里"},"5030996":{"post_code":"5030996","prefecture":"GIFU KEN","city":"OGAKI SHI","town":"SHIMACHO","perfecture_jp":"岐阜県","jp_add_1":"大垣市","jp_add_2":"島町"},"5030883":{"post_code":"5030883","prefecture":"GIFU KEN","city":"OGAKI SHI","town":"SHIMIZUCHO","perfecture_jp":"岐阜県","jp_add_1":"大垣市","jp_add_2":"清水町"},"5030995":{"post_code":"5030995","prefecture":"GIFU KEN","city":"OGAKI SHI","town":"JUROKUCHO","perfecture_jp":"岐阜県","jp_add_1":"大垣市","jp_add_2":"十六町"},"5030024":{"post_code":"5030024","prefecture":"GIFU KEN","city":"OGAKI SHI","town":"SHUKUJICHO","perfecture_jp":"岐阜県","jp_add_1":"大垣市","jp_add_2":"宿地町"},"5030817":{"post_code":"5030817","prefecture":"GIFU KEN","city":"OGAKI SHI","town":"JOMEN","perfecture_jp":"岐阜県","jp_add_1":"大垣市","jp_add_2":"上面"},"5030942":{"post_code":"5030942","prefecture":"GIFU KEN","city":"OGAKI SHI","town":"SHOWA","perfecture_jp":"岐阜県","jp_add_1":"大垣市","jp_add_2":"昭和"},"5030004":{"post_code":"5030004","prefecture":"GIFU KEN","city":"OGAKI SHI","town":"SHINKAICHO","perfecture_jp":"岐阜県","jp_add_1":"大垣市","jp_add_2":"新開町"},"5030894":{"post_code":"5030894","prefecture":"GIFU KEN","city":"OGAKI SHI","town":"SHINCHICHO","perfecture_jp":"岐阜県","jp_add_1":"大垣市","jp_add_2":"新地町"},"5030856":{"post_code":"5030856","prefecture":"GIFU KEN","city":"OGAKI SHI","town":"SHINDENCHO","perfecture_jp":"岐阜県","jp_add_1":"大垣市","jp_add_2":"新田町"},"5030831":{"post_code":"5030831","prefecture":"GIFU KEN","city":"OGAKI SHI","town":"SHINNAGASAWACHO","perfecture_jp":"岐阜県","jp_add_1":"大垣市","jp_add_2":"新長沢町"},"5030992":{"post_code":"5030992","prefecture":"GIFU KEN","city":"OGAKI SHI","town":"SHINNAGAMATSU","perfecture_jp":"岐阜県","jp_add_1":"大垣市","jp_add_2":"新長松"},"5030921":{"post_code":"5030921","prefecture":"GIFU KEN","city":"OGAKI SHI","town":"SHIMBABACHO","perfecture_jp":"岐阜県","jp_add_1":"大垣市","jp_add_2":"新馬場町"},"5030872":{"post_code":"5030872","prefecture":"GIFU KEN","city":"OGAKI SHI","town":"SHIMMACHI","perfecture_jp":"岐阜県","jp_add_1":"大垣市","jp_add_2":"新町"},"5032205":{"post_code":"5032205","prefecture":"GIFU KEN","city":"OGAKI SHI","town":"SHIMMEI","perfecture_jp":"岐阜県","jp_add_1":"大垣市","jp_add_2":"神明"},"5032208":{"post_code":"5032208","prefecture":"GIFU KEN","city":"OGAKI SHI","town":"SUGANO","perfecture_jp":"岐阜県","jp_add_1":"大垣市","jp_add_2":"菅野"},"5030815":{"post_code":"5030815","prefecture":"GIFU KEN","city":"OGAKI SHI","town":"SUGUECHO","perfecture_jp":"岐阜県","jp_add_1":"大垣市","jp_add_2":"直江町"},"5030103":{"post_code":"5030103","prefecture":"GIFU KEN","city":"OGAKI SHI","town":"SUNOMATACHO KAMIJUKU","perfecture_jp":"岐阜県","jp_add_1":"大垣市","jp_add_2":"墨俣町上宿"},"5030106":{"post_code":"5030106","prefecture":"GIFU KEN","city":"OGAKI SHI","town":"SUNOMATACHO SAIKAWA","perfecture_jp":"岐阜県","jp_add_1":"大垣市","jp_add_2":"墨俣町さい川"},"5030104":{"post_code":"5030104","prefecture":"GIFU KEN","city":"OGAKI SHI","town":"SUNOMATACHO SHIMOJUKU","perfecture_jp":"岐阜県","jp_add_1":"大垣市","jp_add_2":"墨俣町下宿"},"5030102":{"post_code":"5030102","prefecture":"GIFU KEN","city":"OGAKI SHI","town":"SUNOMATACHO SUNOMATA","perfecture_jp":"岐阜県","jp_add_1":"大垣市","jp_add_2":"墨俣町墨俣"},"5030101":{"post_code":"5030101","prefecture":"GIFU KEN","city":"OGAKI SHI","town":"SUNOMATACHO SENIRIKATA","perfecture_jp":"岐阜県","jp_add_1":"大垣市","jp_add_2":"墨俣町先入方"},"5030105":{"post_code":"5030105","prefecture":"GIFU KEN","city":"OGAKI SHI","town":"SUNOMATACHO FUTATSUGI","perfecture_jp":"岐阜県","jp_add_1":"大垣市","jp_add_2":"墨俣町二ツ木"},"5030822":{"post_code":"5030822","prefecture":"GIFU KEN","city":"OGAKI SHI","town":"SUMIYOSHICHO","perfecture_jp":"岐阜県","jp_add_1":"大垣市","jp_add_2":"住吉町"},"5032201":{"post_code":"5032201","prefecture":"GIFU KEN","city":"OGAKI SHI","town":"SODOJIMACHO","perfecture_jp":"岐阜県","jp_add_1":"大垣市","jp_add_2":"草道島町"},"5030933":{"post_code":"5030933","prefecture":"GIFU KEN","city":"OGAKI SHI","town":"SOTONO","perfecture_jp":"岐阜県","jp_add_1":"大垣市","jp_add_2":"外野"},"5030951":{"post_code":"5030951","prefecture":"GIFU KEN","city":"OGAKI SHI","town":"SOTONOCHO","perfecture_jp":"岐阜県","jp_add_1":"大垣市","jp_add_2":"外野町"},"5030011":{"post_code":"5030011","prefecture":"GIFU KEN","city":"OGAKI SHI","town":"SONECHO","perfecture_jp":"岐阜県","jp_add_1":"大垣市","jp_add_2":"曽根町"},"5030934":{"post_code":"5030934","prefecture":"GIFU KEN","city":"OGAKI SHI","town":"SOBUTSU","perfecture_jp":"岐阜県","jp_add_1":"大垣市","jp_add_2":"外渕"},"5030895":{"post_code":"5030895","prefecture":"GIFU KEN","city":"OGAKI SHI","town":"DAIKANCHO","perfecture_jp":"岐阜県","jp_add_1":"大垣市","jp_add_2":"代官町"},"5030889":{"post_code":"5030889","prefecture":"GIFU KEN","city":"OGAKI SHI","town":"TAKASAGOCHO","perfecture_jp":"岐阜県","jp_add_1":"大垣市","jp_add_2":"高砂町"},"5030913":{"post_code":"5030913","prefecture":"GIFU KEN","city":"OGAKI SHI","town":"TAKAJOCHO","perfecture_jp":"岐阜県","jp_add_1":"大垣市","jp_add_2":"鷹匠町"},"5030896":{"post_code":"5030896","prefecture":"GIFU KEN","city":"OGAKI SHI","town":"TAKAHASHICHO","perfecture_jp":"岐阜県","jp_add_1":"大垣市","jp_add_2":"高橋町"},"5030958":{"post_code":"5030958","prefecture":"GIFU KEN","city":"OGAKI SHI","town":"TAKABUCHI","perfecture_jp":"岐阜県","jp_add_1":"大垣市","jp_add_2":"高渕"},"5030959":{"post_code":"5030959","prefecture":"GIFU KEN","city":"OGAKI SHI","town":"TAKABUCHICHO","perfecture_jp":"岐阜県","jp_add_1":"大垣市","jp_add_2":"高渕町"},"5030901":{"post_code":"5030901","prefecture":"GIFU KEN","city":"OGAKI SHI","town":"TAKAYACHO","perfecture_jp":"岐阜県","jp_add_1":"大垣市","jp_add_2":"高屋町"},"5030965":{"post_code":"5030965","prefecture":"GIFU KEN","city":"OGAKI SHI","town":"TAGISHIMA","perfecture_jp":"岐阜県","jp_add_1":"大垣市","jp_add_2":"多芸島"},"5030853":{"post_code":"5030853","prefecture":"GIFU KEN","city":"OGAKI SHI","town":"TAGUCHICHO","perfecture_jp":"岐阜県","jp_add_1":"大垣市","jp_add_2":"田口町"},"5030878":{"post_code":"5030878","prefecture":"GIFU KEN","city":"OGAKI SHI","town":"TAKEJIMACHO","perfecture_jp":"岐阜県","jp_add_1":"大垣市","jp_add_2":"竹島町"},"5030892":{"post_code":"5030892","prefecture":"GIFU KEN","city":"OGAKI SHI","town":"TACHIBANACHO","perfecture_jp":"岐阜県","jp_add_1":"大垣市","jp_add_2":"橘町"},"5030875":{"post_code":"5030875","prefecture":"GIFU KEN","city":"OGAKI SHI","town":"TAMACHI","perfecture_jp":"岐阜県","jp_add_1":"大垣市","jp_add_2":"田町"},"5030876":{"post_code":"5030876","prefecture":"GIFU KEN","city":"OGAKI SHI","town":"TAWARAMACHI","perfecture_jp":"岐阜県","jp_add_1":"大垣市","jp_add_2":"俵町"},"5030891":{"post_code":"5030891","prefecture":"GIFU KEN","city":"OGAKI SHI","town":"CHIDORICHO","perfecture_jp":"岐阜県","jp_add_1":"大垣市","jp_add_2":"千鳥町"},"5030854":{"post_code":"5030854","prefecture":"GIFU KEN","city":"OGAKI SHI","town":"TSUKIZUTECHO","perfecture_jp":"岐阜県","jp_add_1":"大垣市","jp_add_2":"築捨町"},"5030003":{"post_code":"5030003","prefecture":"GIFU KEN","city":"OGAKI SHI","town":"TSUMURACHO","perfecture_jp":"岐阜県","jp_add_1":"大垣市","jp_add_2":"津村町"},"5030805":{"post_code":"5030805","prefecture":"GIFU KEN","city":"OGAKI SHI","town":"TSURUMICHO","perfecture_jp":"岐阜県","jp_add_1":"大垣市","jp_add_2":"鶴見町"},"5030897":{"post_code":"5030897","prefecture":"GIFU KEN","city":"OGAKI SHI","town":"TEMMACHO","perfecture_jp":"岐阜県","jp_add_1":"大垣市","jp_add_2":"伝馬町"},"5030855":{"post_code":"5030855","prefecture":"GIFU KEN","city":"OGAKI SHI","town":"TOIYAMACHI","perfecture_jp":"岐阜県","jp_add_1":"大垣市","jp_add_2":"問屋町"},"5030954":{"post_code":"5030954","prefecture":"GIFU KEN","city":"OGAKI SHI","town":"TOBANA","perfecture_jp":"岐阜県","jp_add_1":"大垣市","jp_add_2":"外花"},"5030955":{"post_code":"5030955","prefecture":"GIFU KEN","city":"OGAKI SHI","town":"TOMOE","perfecture_jp":"岐阜県","jp_add_1":"大垣市","jp_add_2":"友江"},"5030839":{"post_code":"5030839","prefecture":"GIFU KEN","city":"OGAKI SHI","town":"NAGAICHO","perfecture_jp":"岐阜県","jp_add_1":"大垣市","jp_add_2":"長井町"},"5030017":{"post_code":"5030017","prefecture":"GIFU KEN","city":"OGAKI SHI","town":"NAKAGAWACHO","perfecture_jp":"岐阜県","jp_add_1":"大垣市","jp_add_2":"中川町"},"5030833":{"post_code":"5030833","prefecture":"GIFU KEN","city":"OGAKI SHI","town":"NAGASAWACHO","perfecture_jp":"岐阜県","jp_add_1":"大垣市","jp_add_2":"長沢町"},"5030986":{"post_code":"5030986","prefecture":"GIFU KEN","city":"OGAKI SHI","town":"NAKAZONECHO","perfecture_jp":"岐阜県","jp_add_1":"大垣市","jp_add_2":"中曽根町"},"5030804":{"post_code":"5030804","prefecture":"GIFU KEN","city":"OGAKI SHI","town":"NAKANOE","perfecture_jp":"岐阜県","jp_add_1":"大垣市","jp_add_2":"中ノ江"},"5030022":{"post_code":"5030022","prefecture":"GIFU KEN","city":"OGAKI SHI","town":"NAKANOCHO","perfecture_jp":"岐阜県","jp_add_1":"大垣市","jp_add_2":"中野町"},"5030884":{"post_code":"5030884","prefecture":"GIFU KEN","city":"OGAKI SHI","town":"NAKAMACHI","perfecture_jp":"岐阜県","jp_add_1":"大垣市","jp_add_2":"中町"},"5030997":{"post_code":"5030997","prefecture":"GIFU KEN","city":"OGAKI SHI","town":"NAGAMATSUCHO","perfecture_jp":"岐阜県","jp_add_1":"大垣市","jp_add_2":"長松町"},"5030844":{"post_code":"5030844","prefecture":"GIFU KEN","city":"OGAKI SHI","town":"NAMBANOCHO","perfecture_jp":"岐阜県","jp_add_1":"大垣市","jp_add_2":"難波野町"},"5030963":{"post_code":"5030963","prefecture":"GIFU KEN","city":"OGAKI SHI","town":"NISHIOTOBA","perfecture_jp":"岐阜県","jp_add_1":"大垣市","jp_add_2":"西大外羽"},"5030899":{"post_code":"5030899","prefecture":"GIFU KEN","city":"OGAKI SHI","town":"NISHIKIMACHI","perfecture_jp":"岐阜県","jp_add_1":"大垣市","jp_add_2":"錦町"},"5030918":{"post_code":"5030918","prefecture":"GIFU KEN","city":"OGAKI SHI","town":"NISHIZAKICHO","perfecture_jp":"岐阜県","jp_add_1":"大垣市","jp_add_2":"西崎町"},"5030908":{"post_code":"5030908","prefecture":"GIFU KEN","city":"OGAKI SHI","town":"NISHITOGAWACHO","perfecture_jp":"岐阜県","jp_add_1":"大垣市","jp_add_2":"西外側町"},"5030914":{"post_code":"5030914","prefecture":"GIFU KEN","city":"OGAKI SHI","town":"NISHINAGACHO","perfecture_jp":"岐阜県","jp_add_1":"大垣市","jp_add_2":"西長町"},"5030018":{"post_code":"5030018","prefecture":"GIFU KEN","city":"OGAKI SHI","town":"NISHINOKAWACHO","perfecture_jp":"岐阜県","jp_add_1":"大垣市","jp_add_2":"西之川町"},"5030851":{"post_code":"5030851","prefecture":"GIFU KEN","city":"OGAKI SHI","town":"NOGINOMORI","perfecture_jp":"岐阜県","jp_add_1":"大垣市","jp_add_2":"禾森"},"5030852":{"post_code":"5030852","prefecture":"GIFU KEN","city":"OGAKI SHI","town":"NOGINOMORICHO","perfecture_jp":"岐阜県","jp_add_1":"大垣市","jp_add_2":"禾森町"},"5030985":{"post_code":"5030985","prefecture":"GIFU KEN","city":"OGAKI SHI","town":"NOGUCHI","perfecture_jp":"岐阜県","jp_add_1":"大垣市","jp_add_2":"野口"},"5030861":{"post_code":"5030861","prefecture":"GIFU KEN","city":"OGAKI SHI","town":"HAGOROMOCHO","perfecture_jp":"岐阜県","jp_add_1":"大垣市","jp_add_2":"羽衣町"},"5030811":{"post_code":"5030811","prefecture":"GIFU KEN","city":"OGAKI SHI","town":"HASU","perfecture_jp":"岐阜県","jp_add_1":"大垣市","jp_add_2":"波須"},"5030912":{"post_code":"5030912","prefecture":"GIFU KEN","city":"OGAKI SHI","town":"HATOBEYACHO","perfecture_jp":"岐阜県","jp_add_1":"大垣市","jp_add_2":"鳩部屋町"},"5030825":{"post_code":"5030825","prefecture":"GIFU KEN","city":"OGAKI SHI","town":"HANAZONOCHO","perfecture_jp":"岐阜県","jp_add_1":"大垣市","jp_add_2":"花園町"},"5030922":{"post_code":"5030922","prefecture":"GIFU KEN","city":"OGAKI SHI","town":"BABACHO","perfecture_jp":"岐阜県","jp_add_1":"大垣市","jp_add_2":"馬場町"},"5030015":{"post_code":"5030015","prefecture":"GIFU KEN","city":"OGAKI SHI","town":"HAYASHIMACHI","perfecture_jp":"岐阜県","jp_add_1":"大垣市","jp_add_2":"林町"},"5030907":{"post_code":"5030907","prefecture":"GIFU KEN","city":"OGAKI SHI","town":"BANGUMICHO","perfecture_jp":"岐阜県","jp_add_1":"大垣市","jp_add_2":"番組町"},"5030903":{"post_code":"5030903","prefecture":"GIFU KEN","city":"OGAKI SHI","town":"HIGASHITOGAWACHO","perfecture_jp":"岐阜県","jp_add_1":"大垣市","jp_add_2":"東外側町"},"5030882":{"post_code":"5030882","prefecture":"GIFU KEN","city":"OGAKI SHI","town":"HIGASHINAGACHO","perfecture_jp":"岐阜県","jp_add_1":"大垣市","jp_add_2":"東長町"},"5030835":{"post_code":"5030835","prefecture":"GIFU KEN","city":"OGAKI SHI","town":"HIGASHIMAE","perfecture_jp":"岐阜県","jp_add_1":"大垣市","jp_add_2":"東前"},"5030849":{"post_code":"5030849","prefecture":"GIFU KEN","city":"OGAKI SHI","town":"HIGASHIMAECHO","perfecture_jp":"岐阜県","jp_add_1":"大垣市","jp_add_2":"東前町"},"5030981":{"post_code":"5030981","prefecture":"GIFU KEN","city":"OGAKI SHI","town":"HINOKICHO","perfecture_jp":"岐阜県","jp_add_1":"大垣市","jp_add_2":"桧町"},"5030916":{"post_code":"5030916","prefecture":"GIFU KEN","city":"OGAKI SHI","town":"HINODECHO","perfecture_jp":"岐阜県","jp_add_1":"大垣市","jp_add_2":"日の出町"},"5030141":{"post_code":"5030141","prefecture":"GIFU KEN","city":"OGAKI SHI","town":"HIRAMACHI(IBIGAWAHIGASHI)","perfecture_jp":"岐阜県","jp_add_1":"大垣市","jp_add_2":"平町"},"5030841":{"post_code":"5030841","prefecture":"GIFU KEN","city":"OGAKI SHI","town":"HIRAMACHI(SONOTA)","perfecture_jp":"岐阜県","jp_add_1":"大垣市","jp_add_2":"平町"},"5032216":{"post_code":"5032216","prefecture":"GIFU KEN","city":"OGAKI SHI","town":"HIRUICHO","perfecture_jp":"岐阜県","jp_add_1":"大垣市","jp_add_2":"昼飯町"},"5030846":{"post_code":"5030846","prefecture":"GIFU KEN","city":"OGAKI SHI","town":"FUKAIKECHO","perfecture_jp":"岐阜県","jp_add_1":"大垣市","jp_add_2":"深池町"},"5030033":{"post_code":"5030033","prefecture":"GIFU KEN","city":"OGAKI SHI","town":"FUKUTACHO","perfecture_jp":"岐阜県","jp_add_1":"大垣市","jp_add_2":"福田町"},"5030893":{"post_code":"5030893","prefecture":"GIFU KEN","city":"OGAKI SHI","town":"FUJIECHO","perfecture_jp":"岐阜県","jp_add_1":"大垣市","jp_add_2":"藤江町"},"5030862":{"post_code":"5030862","prefecture":"GIFU KEN","city":"OGAKI SHI","town":"FUTABACHO","perfecture_jp":"岐阜県","jp_add_1":"大垣市","jp_add_2":"二葉町"},"5030923":{"post_code":"5030923","prefecture":"GIFU KEN","city":"OGAKI SHI","town":"FUNAMACHI","perfecture_jp":"岐阜県","jp_add_1":"大垣市","jp_add_2":"船町"},"5030848":{"post_code":"5030848","prefecture":"GIFU KEN","city":"OGAKI SHI","town":"FURUMIYACHO","perfecture_jp":"岐阜県","jp_add_1":"大垣市","jp_add_2":"古宮町"},"5030972":{"post_code":"5030972","prefecture":"GIFU KEN","city":"OGAKI SHI","town":"HOWACHO","perfecture_jp":"岐阜県","jp_add_1":"大垣市","jp_add_2":"宝和町"},"5030885":{"post_code":"5030885","prefecture":"GIFU KEN","city":"OGAKI SHI","town":"HOMMACHI","perfecture_jp":"岐阜県","jp_add_1":"大垣市","jp_add_2":"本町"},"5030845":{"post_code":"5030845","prefecture":"GIFU KEN","city":"OGAKI SHI","town":"MAKISHINDENCHO","perfecture_jp":"岐阜県","jp_add_1":"大垣市","jp_add_2":"牧新田町"},"5030031":{"post_code":"5030031","prefecture":"GIFU KEN","city":"OGAKI SHI","town":"MAKINOCHO","perfecture_jp":"岐阜県","jp_add_1":"大垣市","jp_add_2":"牧野町"},"5030888":{"post_code":"5030888","prefecture":"GIFU KEN","city":"OGAKI SHI","town":"MARUNOCHI","perfecture_jp":"岐阜県","jp_add_1":"大垣市","jp_add_2":"丸の内"},"5030812":{"post_code":"5030812","prefecture":"GIFU KEN","city":"OGAKI SHI","town":"MANGOKU","perfecture_jp":"岐阜県","jp_add_1":"大垣市","jp_add_2":"万石"},"5030808":{"post_code":"5030808","prefecture":"GIFU KEN","city":"OGAKI SHI","town":"MITSUZUKACHO","perfecture_jp":"岐阜県","jp_add_1":"大垣市","jp_add_2":"三塚町"},"5030012":{"post_code":"5030012","prefecture":"GIFU KEN","city":"OGAKI SHI","town":"MITSUYACHO","perfecture_jp":"岐阜県","jp_add_1":"大垣市","jp_add_2":"三津屋町"},"5030806":{"post_code":"5030806","prefecture":"GIFU KEN","city":"OGAKI SHI","town":"MIDORIEN","perfecture_jp":"岐阜県","jp_add_1":"大垣市","jp_add_2":"緑園"},"5030025":{"post_code":"5030025","prefecture":"GIFU KEN","city":"OGAKI SHI","town":"MIDORICHO","perfecture_jp":"岐阜県","jp_add_1":"大垣市","jp_add_2":"見取町"},"5032211":{"post_code":"5032211","prefecture":"GIFU KEN","city":"OGAKI SHI","town":"MINAMIICHIHASHICHO","perfecture_jp":"岐阜県","jp_add_1":"大垣市","jp_add_2":"南市橋町"},"5030971":{"post_code":"5030971","prefecture":"GIFU KEN","city":"OGAKI SHI","town":"MINAMIISSHIKICHO","perfecture_jp":"岐阜県","jp_add_1":"大垣市","jp_add_2":"南一色町"},"5030925":{"post_code":"5030925","prefecture":"GIFU KEN","city":"OGAKI SHI","town":"MINAMIKIRIISHICHO","perfecture_jp":"岐阜県","jp_add_1":"大垣市","jp_add_2":"南切石町"},"5030873":{"post_code":"5030873","prefecture":"GIFU KEN","city":"OGAKI SHI","town":"MINAMITAKAHASHICHO","perfecture_jp":"岐阜県","jp_add_1":"大垣市","jp_add_2":"南高橋町"},"5030864":{"post_code":"5030864","prefecture":"GIFU KEN","city":"OGAKI SHI","town":"MINAMINOKAWACHO","perfecture_jp":"岐阜県","jp_add_1":"大垣市","jp_add_2":"南頬町"},"5030977":{"post_code":"5030977","prefecture":"GIFU KEN","city":"OGAKI SHI","town":"MINAMIWAKAMORI","perfecture_jp":"岐阜県","jp_add_1":"大垣市","jp_add_2":"南若森"},"5030976":{"post_code":"5030976","prefecture":"GIFU KEN","city":"OGAKI SHI","town":"MINAMIWAKAMORICHO","perfecture_jp":"岐阜県","jp_add_1":"大垣市","jp_add_2":"南若森町"},"5030905":{"post_code":"5030905","prefecture":"GIFU KEN","city":"OGAKI SHI","town":"MIYAMACHI","perfecture_jp":"岐阜県","jp_add_1":"大垣市","jp_add_2":"宮町"},"5030857":{"post_code":"5030857","prefecture":"GIFU KEN","city":"OGAKI SHI","town":"MIWACHO","perfecture_jp":"岐阜県","jp_add_1":"大垣市","jp_add_2":"美和町"},"5030911":{"post_code":"5030911","prefecture":"GIFU KEN","city":"OGAKI SHI","town":"MUROHOMMACHI","perfecture_jp":"岐阜県","jp_add_1":"大垣市","jp_add_2":"室本町"},"5030906":{"post_code":"5030906","prefecture":"GIFU KEN","city":"OGAKI SHI","town":"MUROMACHI","perfecture_jp":"岐阜県","jp_add_1":"大垣市","jp_add_2":"室町"},"5030026":{"post_code":"5030026","prefecture":"GIFU KEN","city":"OGAKI SHI","town":"MUROMURACHO","perfecture_jp":"岐阜県","jp_add_1":"大垣市","jp_add_2":"室村町"},"5030931":{"post_code":"5030931","prefecture":"GIFU KEN","city":"OGAKI SHI","town":"MOTOIMA","perfecture_jp":"岐阜県","jp_add_1":"大垣市","jp_add_2":"本今"},"5030932":{"post_code":"5030932","prefecture":"GIFU KEN","city":"OGAKI SHI","town":"MOTOIMACHO","perfecture_jp":"岐阜県","jp_add_1":"大垣市","jp_add_2":"本今町"},"5030016":{"post_code":"5030016","prefecture":"GIFU KEN","city":"OGAKI SHI","town":"YASHIMACHO","perfecture_jp":"岐阜県","jp_add_1":"大垣市","jp_add_2":"八島町"},"5030837":{"post_code":"5030837","prefecture":"GIFU KEN","city":"OGAKI SHI","town":"YASUICHO","perfecture_jp":"岐阜県","jp_add_1":"大垣市","jp_add_2":"安井町"},"5032223":{"post_code":"5032223","prefecture":"GIFU KEN","city":"OGAKI SHI","town":"YAMICHICHO","perfecture_jp":"岐阜県","jp_add_1":"大垣市","jp_add_2":"矢道町"},"5030944":{"post_code":"5030944","prefecture":"GIFU KEN","city":"OGAKI SHI","town":"YOKOZONE","perfecture_jp":"岐阜県","jp_add_1":"大垣市","jp_add_2":"横曽根"},"5030943":{"post_code":"5030943","prefecture":"GIFU KEN","city":"OGAKI SHI","town":"YOKOZONECHO","perfecture_jp":"岐阜県","jp_add_1":"大垣市","jp_add_2":"横曽根町"},"5032222":{"post_code":"5032222","prefecture":"GIFU KEN","city":"OGAKI SHI","town":"YONOKIDOCHO","perfecture_jp":"岐阜県","jp_add_1":"大垣市","jp_add_2":"榎戸町"},"5030858":{"post_code":"5030858","prefecture":"GIFU KEN","city":"OGAKI SHI","town":"YOYASUCHO","perfecture_jp":"岐阜県","jp_add_1":"大垣市","jp_add_2":"世安町"},"5030014":{"post_code":"5030014","prefecture":"GIFU KEN","city":"OGAKI SHI","town":"RYOKECHO","perfecture_jp":"岐阜県","jp_add_1":"大垣市","jp_add_2":"領家町"},"5030975":{"post_code":"5030975","prefecture":"GIFU KEN","city":"OGAKI SHI","town":"WAKAMORICHO","perfecture_jp":"岐阜県","jp_add_1":"大垣市","jp_add_2":"若森町"},"5030801":{"post_code":"5030801","prefecture":"GIFU KEN","city":"OGAKI SHI","town":"WAGO SHIMMACHI","perfecture_jp":"岐阜県","jp_add_1":"大垣市","jp_add_2":"和合新町"},"5030005":{"post_code":"5030005","prefecture":"GIFU KEN","city":"OGAKI SHI","town":"WAGO HOMMACHI","perfecture_jp":"岐阜県","jp_add_1":"大垣市","jp_add_2":"和合本町"},"5030953":{"post_code":"5030953","prefecture":"GIFU KEN","city":"OGAKI SHI","town":"WARIDEN","perfecture_jp":"岐阜県","jp_add_1":"大垣市","jp_add_2":"割田"},"5030952":{"post_code":"5030952","prefecture":"GIFU KEN","city":"OGAKI SHI","town":"WARIDENCHO","perfecture_jp":"岐阜県","jp_add_1":"大垣市","jp_add_2":"割田町"},"5030600":{"post_code":"5030600","prefecture":"GIFU KEN","city":"KAIZU SHI","town":"IKANIKEISAIGANAIBAAI","perfecture_jp":"岐阜県","jp_add_1":"海津市","jp_add_2":""},"5030611":{"post_code":"5030611","prefecture":"GIFU KEN","city":"KAIZU SHI","town":"KAIZUCHO AKIE","perfecture_jp":"岐阜県","jp_add_1":"海津市","jp_add_2":"海津町秋江"},"5030625":{"post_code":"5030625","prefecture":"GIFU KEN","city":"KAIZU SHI","town":"KAIZUCHO ABURAJIMA","perfecture_jp":"岐阜県","jp_add_1":"海津市","jp_add_2":"海津町油島"},"5030629":{"post_code":"5030629","prefecture":"GIFU KEN","city":"KAIZU SHI","town":"KAIZUCHO ISHIGAME","perfecture_jp":"岐阜県","jp_add_1":"海津市","jp_add_2":"海津町石亀"},"5030631":{"post_code":"5030631","prefecture":"GIFU KEN","city":"KAIZU SHI","town":"KAIZUCHO INAYAMA","perfecture_jp":"岐阜県","jp_add_1":"海津市","jp_add_2":"海津町稲山"},"5030635":{"post_code":"5030635","prefecture":"GIFU KEN","city":"KAIZU SHI","town":"KAIZUCHO EHIGASHI","perfecture_jp":"岐阜県","jp_add_1":"海津市","jp_add_2":"海津町江東"},"5030612":{"post_code":"5030612","prefecture":"GIFU KEN","city":"KAIZU SHI","town":"KAIZUCHO OWADA","perfecture_jp":"岐阜県","jp_add_1":"海津市","jp_add_2":"海津町大和田"},"5030624":{"post_code":"5030624","prefecture":"GIFU KEN","city":"KAIZU SHI","town":"KAIZUCHO KANAMAWARI","perfecture_jp":"岐阜県","jp_add_1":"海津市","jp_add_2":"海津町金廻"},"5030608":{"post_code":"5030608","prefecture":"GIFU KEN","city":"KAIZU SHI","town":"KAIZUCHO KANO","perfecture_jp":"岐阜県","jp_add_1":"海津市","jp_add_2":"海津町鹿野"},"5030603":{"post_code":"5030603","prefecture":"GIFU KEN","city":"KAIZU SHI","town":"KAIZUCHO KAMIGIRI","perfecture_jp":"岐阜県","jp_add_1":"海津市","jp_add_2":"海津町神桐"},"5030646":{"post_code":"5030646","prefecture":"GIFU KEN","city":"KAIZU SHI","town":"KAIZUCHO KAYANO","perfecture_jp":"岐阜県","jp_add_1":"海津市","jp_add_2":"海津町萱野"},"5030618":{"post_code":"5030618","prefecture":"GIFU KEN","city":"KAIZU SHI","town":"KAIZUCHO KUSABA","perfecture_jp":"岐阜県","jp_add_1":"海津市","jp_add_2":"海津町草場"},"5030645":{"post_code":"5030645","prefecture":"GIFU KEN","city":"KAIZU SHI","town":"KAIZUCHO GOCHO","perfecture_jp":"岐阜県","jp_add_1":"海津市","jp_add_2":"海津町五町"},"5030613":{"post_code":"5030613","prefecture":"GIFU KEN","city":"KAIZU SHI","town":"KAIZUCHO KOMAGAE","perfecture_jp":"岐阜県","jp_add_1":"海津市","jp_add_2":"海津町駒ケ江"},"5030627":{"post_code":"5030627","prefecture":"GIFU KEN","city":"KAIZU SHI","town":"KAIZUCHO SHICHIUEMONSHINDEN","perfecture_jp":"岐阜県","jp_add_1":"海津市","jp_add_2":"海津町七右衛門新田"},"5030602":{"post_code":"5030602","prefecture":"GIFU KEN","city":"KAIZU SHI","town":"KAIZUCHO SEKO","perfecture_jp":"岐阜県","jp_add_1":"海津市","jp_add_2":"海津町瀬古"},"5030621":{"post_code":"5030621","prefecture":"GIFU KEN","city":"KAIZU SHI","town":"KAIZUCHO SOTOHAMA","perfecture_jp":"岐阜県","jp_add_1":"海津市","jp_add_2":"海津町外浜"},"5030654":{"post_code":"5030654","prefecture":"GIFU KEN","city":"KAIZU SHI","town":"KAIZUCHO TAKASU","perfecture_jp":"岐阜県","jp_add_1":"海津市","jp_add_2":"海津町高須"},"5030653":{"post_code":"5030653","prefecture":"GIFU KEN","city":"KAIZU SHI","town":"KAIZUCHO TAKASUMACHI","perfecture_jp":"岐阜県","jp_add_1":"海津市","jp_add_2":"海津町高須町"},"5030617":{"post_code":"5030617","prefecture":"GIFU KEN","city":"KAIZU SHI","town":"KAIZUCHO TATENO","perfecture_jp":"岐阜県","jp_add_1":"海津市","jp_add_2":"海津町立野"},"5030606":{"post_code":"5030606","prefecture":"GIFU KEN","city":"KAIZU SHI","town":"KAIZUCHO TANAKA","perfecture_jp":"岐阜県","jp_add_1":"海津市","jp_add_2":"海津町田中"},"5030641":{"post_code":"5030641","prefecture":"GIFU KEN","city":"KAIZU SHI","town":"KAIZUCHO NAIKI","perfecture_jp":"岐阜県","jp_add_1":"海津市","jp_add_2":"海津町内記"},"5030616":{"post_code":"5030616","prefecture":"GIFU KEN","city":"KAIZU SHI","town":"KAIZUCHO NAGAKUBO","perfecture_jp":"岐阜県","jp_add_1":"海津市","jp_add_2":"海津町長久保"},"5030614":{"post_code":"5030614","prefecture":"GIFU KEN","city":"KAIZU SHI","town":"KAIZUCHO NAGASE","perfecture_jp":"岐阜県","jp_add_1":"海津市","jp_add_2":"海津町長瀬"},"5030604":{"post_code":"5030604","prefecture":"GIFU KEN","city":"KAIZU SHI","town":"KAIZUCHO NARITO","perfecture_jp":"岐阜県","jp_add_1":"海津市","jp_add_2":"海津町成戸"},"5030648":{"post_code":"5030648","prefecture":"GIFU KEN","city":"KAIZU SHI","town":"KAIZUCHO NISHIOJIMA","perfecture_jp":"岐阜県","jp_add_1":"海津市","jp_add_2":"海津町西小島"},"5030634":{"post_code":"5030634","prefecture":"GIFU KEN","city":"KAIZU SHI","town":"KAIZUCHO NUMASHINDEN","perfecture_jp":"岐阜県","jp_add_1":"海津市","jp_add_2":"海津町沼新田"},"5030647":{"post_code":"5030647","prefecture":"GIFU KEN","city":"KAIZU SHI","town":"KAIZUCHO HIGASHIOJIMA","perfecture_jp":"岐阜県","jp_add_1":"海津市","jp_add_2":"海津町東小島"},"5030651":{"post_code":"5030651","prefecture":"GIFU KEN","city":"KAIZU SHI","town":"KAIZUCHO HIRAHARA","perfecture_jp":"岐阜県","jp_add_1":"海津市","jp_add_2":"海津町平原"},"5030615":{"post_code":"5030615","prefecture":"GIFU KEN","city":"KAIZU SHI","town":"KAIZUCHO HIWARA","perfecture_jp":"岐阜県","jp_add_1":"海津市","jp_add_2":"海津町日原"},"5030644":{"post_code":"5030644","prefecture":"GIFU KEN","city":"KAIZU SHI","town":"KAIZUCHO FUKAHAMA","perfecture_jp":"岐阜県","jp_add_1":"海津市","jp_add_2":"海津町深浜"},"5030605":{"post_code":"5030605","prefecture":"GIFU KEN","city":"KAIZU SHI","town":"KAIZUCHO FUKUISHIKI","perfecture_jp":"岐阜県","jp_add_1":"海津市","jp_add_2":"海津町福一色"},"5030628":{"post_code":"5030628","prefecture":"GIFU KEN","city":"KAIZU SHI","town":"KAIZUCHO FUKUE","perfecture_jp":"岐阜県","jp_add_1":"海津市","jp_add_2":"海津町福江"},"5030655":{"post_code":"5030655","prefecture":"GIFU KEN","city":"KAIZU SHI","town":"KAIZUCHO FUKUOKA","perfecture_jp":"岐阜県","jp_add_1":"海津市","jp_add_2":"海津町福岡"},"5030643":{"post_code":"5030643","prefecture":"GIFU KEN","city":"KAIZU SHI","town":"KAIZUCHO FUDANO","perfecture_jp":"岐阜県","jp_add_1":"海津市","jp_add_2":"海津町札野"},"5030623":{"post_code":"5030623","prefecture":"GIFU KEN","city":"KAIZU SHI","town":"KAIZUCHO FURUNAKAJIMA","perfecture_jp":"岐阜県","jp_add_1":"海津市","jp_add_2":"海津町古中島"},"5030636":{"post_code":"5030636","prefecture":"GIFU KEN","city":"KAIZU SHI","town":"KAIZUCHO HOBIKISHINDEN","perfecture_jp":"岐阜県","jp_add_1":"海津市","jp_add_2":"海津町帆引新田"},"5030633":{"post_code":"5030633","prefecture":"GIFU KEN","city":"KAIZU SHI","town":"KAIZUCHO HONNAMISHINDEN","perfecture_jp":"岐阜県","jp_add_1":"海津市","jp_add_2":"海津町本阿弥新田"},"5030601":{"post_code":"5030601","prefecture":"GIFU KEN","city":"KAIZU SHI","town":"KAIZUCHO MATSUNOKI","perfecture_jp":"岐阜県","jp_add_1":"海津市","jp_add_2":"海津町松木"},"5030652":{"post_code":"5030652","prefecture":"GIFU KEN","city":"KAIZU SHI","town":"KAIZUCHO MANOME","perfecture_jp":"岐阜県","jp_add_1":"海津市","jp_add_2":"海津町馬目"},"5030626":{"post_code":"5030626","prefecture":"GIFU KEN","city":"KAIZU SHI","town":"KAIZUCHO MANJUSHINDEN","perfecture_jp":"岐阜県","jp_add_1":"海津市","jp_add_2":"海津町万寿新田"},"5030632":{"post_code":"5030632","prefecture":"GIFU KEN","city":"KAIZU SHI","town":"KAIZUCHO MIYAJI","perfecture_jp":"岐阜県","jp_add_1":"海津市","jp_add_2":"海津町宮地"},"5030622":{"post_code":"5030622","prefecture":"GIFU KEN","city":"KAIZU SHI","town":"KAIZUCHO MORISHITA","perfecture_jp":"岐阜県","jp_add_1":"海津市","jp_add_2":"海津町森下"},"5030637":{"post_code":"5030637","prefecture":"GIFU KEN","city":"KAIZU SHI","town":"KAIZUCHO YASUDA","perfecture_jp":"岐阜県","jp_add_1":"海津市","jp_add_2":"海津町安田"},"5030638":{"post_code":"5030638","prefecture":"GIFU KEN","city":"KAIZU SHI","town":"KAIZUCHO YASUDASHINDEN","perfecture_jp":"岐阜県","jp_add_1":"海津市","jp_add_2":"海津町安田新田"},"5030414":{"post_code":"5030414","prefecture":"GIFU KEN","city":"KAIZU SHI","town":"NANNOCHO UENOKOZU","perfecture_jp":"岐阜県","jp_add_1":"海津市","jp_add_2":"南濃町上野河戸"},"5030532":{"post_code":"5030532","prefecture":"GIFU KEN","city":"KAIZU SHI","town":"NANNOCHO OTA","perfecture_jp":"岐阜県","jp_add_1":"海津市","jp_add_2":"南濃町太田"},"5030412":{"post_code":"5030412","prefecture":"GIFU KEN","city":"KAIZU SHI","town":"NANNOCHO OKUJO","perfecture_jp":"岐阜県","jp_add_1":"海津市","jp_add_2":"南濃町奥条"},"5030411":{"post_code":"5030411","prefecture":"GIFU KEN","city":"KAIZU SHI","town":"NANNOCHO KOMANO","perfecture_jp":"岐阜県","jp_add_1":"海津市","jp_add_2":"南濃町駒野"},"5030405":{"post_code":"5030405","prefecture":"GIFU KEN","city":"KAIZU SHI","town":"NANNOCHO KOMANOSHINDEN","perfecture_jp":"岐阜県","jp_add_1":"海津市","jp_add_2":"南濃町駒野新田"},"5030534":{"post_code":"5030534","prefecture":"GIFU KEN","city":"KAIZU SHI","town":"NANNOCHO SAKAI","perfecture_jp":"岐阜県","jp_add_1":"海津市","jp_add_2":"南濃町境"},"5030403":{"post_code":"5030403","prefecture":"GIFU KEN","city":"KAIZU SHI","town":"NANNOCHO SHIZU","perfecture_jp":"岐阜県","jp_add_1":"海津市","jp_add_2":"南濃町志津"},"5030402":{"post_code":"5030402","prefecture":"GIFU KEN","city":"KAIZU SHI","town":"NANNOCHO SHIZUSHINDEN","perfecture_jp":"岐阜県","jp_add_1":"海津市","jp_add_2":"南濃町志津新田"},"5030533":{"post_code":"5030533","prefecture":"GIFU KEN","city":"KAIZU SHI","town":"NANNOCHO TAZURU","perfecture_jp":"岐阜県","jp_add_1":"海津市","jp_add_2":"南濃町田鶴"},"5030401":{"post_code":"5030401","prefecture":"GIFU KEN","city":"KAIZU SHI","town":"NANNOCHO TSUYA","perfecture_jp":"岐阜県","jp_add_1":"海津市","jp_add_2":"南濃町津屋"},"5030407":{"post_code":"5030407","prefecture":"GIFU KEN","city":"KAIZU SHI","town":"NANNOCHO TOKUDA","perfecture_jp":"岐阜県","jp_add_1":"海津市","jp_add_2":"南濃町徳田"},"5030406":{"post_code":"5030406","prefecture":"GIFU KEN","city":"KAIZU SHI","town":"NANNOCHO TODA","perfecture_jp":"岐阜県","jp_add_1":"海津市","jp_add_2":"南濃町戸田"},"5030408":{"post_code":"5030408","prefecture":"GIFU KEN","city":"KAIZU SHI","town":"NANNOCHO NIWADA","perfecture_jp":"岐阜県","jp_add_1":"海津市","jp_add_2":"南濃町庭田"},"5030413":{"post_code":"5030413","prefecture":"GIFU KEN","city":"KAIZU SHI","town":"NANNOCHO HAZAWA","perfecture_jp":"岐阜県","jp_add_1":"海津市","jp_add_2":"南濃町羽沢"},"5030404":{"post_code":"5030404","prefecture":"GIFU KEN","city":"KAIZU SHI","town":"NANNOCHO HAYASE","perfecture_jp":"岐阜県","jp_add_1":"海津市","jp_add_2":"南濃町早瀬"},"5030535":{"post_code":"5030535","prefecture":"GIFU KEN","city":"KAIZU SHI","town":"NANNOCHO MATSUYAMA","perfecture_jp":"岐阜県","jp_add_1":"海津市","jp_add_2":"南濃町松山"},"5030531":{"post_code":"5030531","prefecture":"GIFU KEN","city":"KAIZU SHI","town":"NANNOCHO YASUE","perfecture_jp":"岐阜県","jp_add_1":"海津市","jp_add_2":"南濃町安江"},"5030415":{"post_code":"5030415","prefecture":"GIFU KEN","city":"KAIZU SHI","town":"NANNOCHO YAMAZAKI","perfecture_jp":"岐阜県","jp_add_1":"海津市","jp_add_2":"南濃町山崎"},"5030536":{"post_code":"5030536","prefecture":"GIFU KEN","city":"KAIZU SHI","town":"NANNOCHO YOSHIDA","perfecture_jp":"岐阜県","jp_add_1":"海津市","jp_add_2":"南濃町吉田"},"5030321":{"post_code":"5030321","prefecture":"GIFU KEN","city":"KAIZU SHI","town":"HIRATACHO IMAO","perfecture_jp":"岐阜県","jp_add_1":"海津市","jp_add_2":"平田町今尾"},"5030307":{"post_code":"5030307","prefecture":"GIFU KEN","city":"KAIZU SHI","town":"HIRATACHO OKA","perfecture_jp":"岐阜県","jp_add_1":"海津市","jp_add_2":"平田町岡"},"5030302":{"post_code":"5030302","prefecture":"GIFU KEN","city":"KAIZU SHI","town":"HIRATACHO KATSUGA","perfecture_jp":"岐阜県","jp_add_1":"海津市","jp_add_2":"平田町勝賀"},"5030312":{"post_code":"5030312","prefecture":"GIFU KEN","city":"KAIZU SHI","town":"HIRATACHO SANGO","perfecture_jp":"岐阜県","jp_add_1":"海津市","jp_add_2":"平田町三郷"},"5030306":{"post_code":"5030306","prefecture":"GIFU KEN","city":"KAIZU SHI","town":"HIRATACHO JAIKE","perfecture_jp":"岐阜県","jp_add_1":"海津市","jp_add_2":"平田町蛇池"},"5030305":{"post_code":"5030305","prefecture":"GIFU KEN","city":"KAIZU SHI","town":"HIRATACHO JAKETSU","perfecture_jp":"岐阜県","jp_add_1":"海津市","jp_add_2":"平田町者結"},"5030301":{"post_code":"5030301","prefecture":"GIFU KEN","city":"KAIZU SHI","town":"HIRATACHO SUKA","perfecture_jp":"岐阜県","jp_add_1":"海津市","jp_add_2":"平田町須賀"},"5030313":{"post_code":"5030313","prefecture":"GIFU KEN","city":"KAIZU SHI","town":"HIRATACHO TAKADA","perfecture_jp":"岐阜県","jp_add_1":"海津市","jp_add_2":"平田町高田"},"5030322":{"post_code":"5030322","prefecture":"GIFU KEN","city":"KAIZU SHI","town":"HIRATACHO TSUCHIKURA","perfecture_jp":"岐阜県","jp_add_1":"海津市","jp_add_2":"平田町土倉"},"5030314":{"post_code":"5030314","prefecture":"GIFU KEN","city":"KAIZU SHI","town":"HIRATACHO NISHIJIMA","perfecture_jp":"岐阜県","jp_add_1":"海津市","jp_add_2":"平田町西島"},"5030303":{"post_code":"5030303","prefecture":"GIFU KEN","city":"KAIZU SHI","town":"HIRATACHO NODERA","perfecture_jp":"岐阜県","jp_add_1":"海津市","jp_add_2":"平田町野寺"},"5030304":{"post_code":"5030304","prefecture":"GIFU KEN","city":"KAIZU SHI","town":"HIRATACHO HATAOSA","perfecture_jp":"岐阜県","jp_add_1":"海津市","jp_add_2":"平田町幡長"},"5030311":{"post_code":"5030311","prefecture":"GIFU KEN","city":"KAIZU SHI","town":"HIRATACHO BUSHIGAWA","perfecture_jp":"岐阜県","jp_add_1":"海津市","jp_add_2":"平田町仏師川"},"5030323":{"post_code":"5030323","prefecture":"GIFU KEN","city":"KAIZU SHI","town":"HIRATACHO WAKINO","perfecture_jp":"岐阜県","jp_add_1":"海津市","jp_add_2":"平田町脇野"},"5031300":{"post_code":"5031300","prefecture":"GIFU KEN","city":"YORO GUN YORO CHO","town":"IKANIKEISAIGANAIBAAI","perfecture_jp":"岐阜県","jp_add_1":"養老郡養老町","jp_add_2":""},"5031277":{"post_code":"5031277","prefecture":"GIFU KEN","city":"YORO GUN YORO CHO","town":"ARIO","perfecture_jp":"岐阜県","jp_add_1":"養老郡養老町","jp_add_2":"有尾"},"5031304":{"post_code":"5031304","prefecture":"GIFU KEN","city":"YORO GUN YORO CHO","town":"IIDA","perfecture_jp":"岐阜県","jp_add_1":"養老郡養老町","jp_add_2":"飯田"},"5031336":{"post_code":"5031336","prefecture":"GIFU KEN","city":"YORO GUN YORO CHO","town":"IIZUMI","perfecture_jp":"岐阜県","jp_add_1":"養老郡養老町","jp_add_2":"飯積"},"5031251":{"post_code":"5031251","prefecture":"GIFU KEN","city":"YORO GUN YORO CHO","town":"ISHIBATA","perfecture_jp":"岐阜県","jp_add_1":"養老郡養老町","jp_add_2":"石畑"},"5031311":{"post_code":"5031311","prefecture":"GIFU KEN","city":"YORO GUN YORO CHO","town":"IZUMIMACHI","perfecture_jp":"岐阜県","jp_add_1":"養老郡養老町","jp_add_2":"泉町"},"5031243":{"post_code":"5031243","prefecture":"GIFU KEN","city":"YORO GUN YORO CHO","town":"ITSUKAICHI","perfecture_jp":"岐阜県","jp_add_1":"養老郡養老町","jp_add_2":"五日市"},"5031264":{"post_code":"5031264","prefecture":"GIFU KEN","city":"YORO GUN YORO CHO","town":"ISSHIKI","perfecture_jp":"岐阜県","jp_add_1":"養老郡養老町","jp_add_2":"一色"},"5031333":{"post_code":"5031333","prefecture":"GIFU KEN","city":"YORO GUN YORO CHO","town":"IROME","perfecture_jp":"岐阜県","jp_add_1":"養老郡養老町","jp_add_2":"色目"},"5031321":{"post_code":"5031321","prefecture":"GIFU KEN","city":"YORO GUN YORO CHO","town":"IWAMICHI","perfecture_jp":"岐阜県","jp_add_1":"養老郡養老町","jp_add_2":"岩道"},"5031335":{"post_code":"5031335","prefecture":"GIFU KEN","city":"YORO GUN YORO CHO","town":"UTA","perfecture_jp":"岐阜県","jp_add_1":"養老郡養老町","jp_add_2":"宇田"},"5031245":{"post_code":"5031245","prefecture":"GIFU KEN","city":"YORO GUN YORO CHO","town":"UWAGATA","perfecture_jp":"岐阜県","jp_add_1":"養老郡養老町","jp_add_2":"上方"},"5031306":{"post_code":"5031306","prefecture":"GIFU KEN","city":"YORO GUN YORO CHO","town":"ETSUKI","perfecture_jp":"岐阜県","jp_add_1":"養老郡養老町","jp_add_2":"江月"},"5031324":{"post_code":"5031324","prefecture":"GIFU KEN","city":"YORO GUN YORO CHO","town":"OATO","perfecture_jp":"岐阜県","jp_add_1":"養老郡養老町","jp_add_2":"大跡"},"5031302":{"post_code":"5031302","prefecture":"GIFU KEN","city":"YORO GUN YORO CHO","town":"OTSUBO","perfecture_jp":"岐阜県","jp_add_1":"養老郡養老町","jp_add_2":"大坪"},"5031383":{"post_code":"5031383","prefecture":"GIFU KEN","city":"YORO GUN YORO CHO","town":"ONO","perfecture_jp":"岐阜県","jp_add_1":"養老郡養老町","jp_add_2":"大野"},"5031272":{"post_code":"5031272","prefecture":"GIFU KEN","city":"YORO GUN YORO CHO","town":"OBA","perfecture_jp":"岐阜県","jp_add_1":"養老郡養老町","jp_add_2":"大場"},"5031275":{"post_code":"5031275","prefecture":"GIFU KEN","city":"YORO GUN YORO CHO","town":"OMAKI","perfecture_jp":"岐阜県","jp_add_1":"養老郡養老町","jp_add_2":"大巻"},"5031262":{"post_code":"5031262","prefecture":"GIFU KEN","city":"YORO GUN YORO CHO","town":"OGURA","perfecture_jp":"岐阜県","jp_add_1":"養老郡養老町","jp_add_2":"小倉"},"5031316":{"post_code":"5031316","prefecture":"GIFU KEN","city":"YORO GUN YORO CHO","town":"OSHIKOSHI","perfecture_jp":"岐阜県","jp_add_1":"養老郡養老町","jp_add_2":"押越"},"5031253":{"post_code":"5031253","prefecture":"GIFU KEN","city":"YORO GUN YORO CHO","town":"KASHIWAO","perfecture_jp":"岐阜県","jp_add_1":"養老郡養老町","jp_add_2":"柏尾"},"5031339":{"post_code":"5031339","prefecture":"GIFU KEN","city":"YORO GUN YORO CHO","town":"KANAYA","perfecture_jp":"岐阜県","jp_add_1":"養老郡養老町","jp_add_2":"金屋"},"5031276":{"post_code":"5031276","prefecture":"GIFU KEN","city":"YORO GUN YORO CHO","town":"KAMADAN","perfecture_jp":"岐阜県","jp_add_1":"養老郡養老町","jp_add_2":"釜段"},"5031385":{"post_code":"5031385","prefecture":"GIFU KEN","city":"YORO GUN YORO CHO","town":"KAMINOGO","perfecture_jp":"岐阜県","jp_add_1":"養老郡養老町","jp_add_2":"上之郷"},"5031315":{"post_code":"5031315","prefecture":"GIFU KEN","city":"YORO GUN YORO CHO","town":"KARASUE","perfecture_jp":"岐阜県","jp_add_1":"養老郡養老町","jp_add_2":"烏江"},"5031266":{"post_code":"5031266","prefecture":"GIFU KEN","city":"YORO GUN YORO CHO","town":"KYOGAWAKI","perfecture_jp":"岐阜県","jp_add_1":"養老郡養老町","jp_add_2":"京ケ脇"},"5031323":{"post_code":"5031323","prefecture":"GIFU KEN","city":"YORO GUN YORO CHO","town":"KUCHIGASHIMA","perfecture_jp":"岐阜県","jp_add_1":"養老郡養老町","jp_add_2":"口ケ島"},"5031381":{"post_code":"5031381","prefecture":"GIFU KEN","city":"YORO GUN YORO CHO","town":"KURIGASA","perfecture_jp":"岐阜県","jp_add_1":"養老郡養老町","jp_add_2":"栗笠"},"5031242":{"post_code":"5031242","prefecture":"GIFU KEN","city":"YORO GUN YORO CHO","town":"SAKURAI","perfecture_jp":"岐阜県","jp_add_1":"養老郡養老町","jp_add_2":"桜井"},"5031241":{"post_code":"5031241","prefecture":"GIFU KEN","city":"YORO GUN YORO CHO","town":"SAWADA","perfecture_jp":"岐阜県","jp_add_1":"養老郡養老町","jp_add_2":"沢田"},"5031384":{"post_code":"5031384","prefecture":"GIFU KEN","city":"YORO GUN YORO CHO","town":"SHIMOGASA","perfecture_jp":"岐阜県","jp_add_1":"養老郡養老町","jp_add_2":"下笠"},"5031303":{"post_code":"5031303","prefecture":"GIFU KEN","city":"YORO GUN YORO CHO","town":"JAMOCHI","perfecture_jp":"岐阜県","jp_add_1":"養老郡養老町","jp_add_2":"蛇持"},"5031256":{"post_code":"5031256","prefecture":"GIFU KEN","city":"YORO GUN YORO CHO","town":"SEISHI","perfecture_jp":"岐阜県","jp_add_1":"養老郡養老町","jp_add_2":"勢至"},"5031305":{"post_code":"5031305","prefecture":"GIFU KEN","city":"YORO GUN YORO CHO","town":"SOBUE","perfecture_jp":"岐阜県","jp_add_1":"養老郡養老町","jp_add_2":"祖父江"},"5031271":{"post_code":"5031271","prefecture":"GIFU KEN","city":"YORO GUN YORO CHO","town":"TA","perfecture_jp":"岐阜県","jp_add_1":"養老郡養老町","jp_add_2":"田"},"5031314":{"post_code":"5031314","prefecture":"GIFU KEN","city":"YORO GUN YORO CHO","town":"TAKADA","perfecture_jp":"岐阜県","jp_add_1":"養老郡養老町","jp_add_2":"高田"},"5031313":{"post_code":"5031313","prefecture":"GIFU KEN","city":"YORO GUN YORO CHO","town":"TAKADABABACHO","perfecture_jp":"岐阜県","jp_add_1":"養老郡養老町","jp_add_2":"高田馬場町"},"5031267":{"post_code":"5031267","prefecture":"GIFU KEN","city":"YORO GUN YORO CHO","town":"TAKABAYASHI","perfecture_jp":"岐阜県","jp_add_1":"養老郡養老町","jp_add_2":"高林"},"5031317":{"post_code":"5031317","prefecture":"GIFU KEN","city":"YORO GUN YORO CHO","town":"TAKIMIMACHI","perfecture_jp":"岐阜県","jp_add_1":"養老郡養老町","jp_add_2":"滝見町"},"5031334":{"post_code":"5031334","prefecture":"GIFU KEN","city":"YORO GUN YORO CHO","town":"TOYO","perfecture_jp":"岐阜県","jp_add_1":"養老郡養老町","jp_add_2":"豊"},"5031337":{"post_code":"5031337","prefecture":"GIFU KEN","city":"YORO GUN YORO CHO","town":"NAOE","perfecture_jp":"岐阜県","jp_add_1":"養老郡養老町","jp_add_2":"直江"},"5031332":{"post_code":"5031332","prefecture":"GIFU KEN","city":"YORO GUN YORO CHO","town":"NAKA","perfecture_jp":"岐阜県","jp_add_1":"養老郡養老町","jp_add_2":"中"},"5031322":{"post_code":"5031322","prefecture":"GIFU KEN","city":"YORO GUN YORO CHO","town":"NISHIIWAMICHI","perfecture_jp":"岐阜県","jp_add_1":"養老郡養老町","jp_add_2":"西岩道"},"5031268":{"post_code":"5031268","prefecture":"GIFU KEN","city":"YORO GUN YORO CHO","town":"NISHIOGURA","perfecture_jp":"岐阜県","jp_add_1":"養老郡養老町","jp_add_2":"西小倉"},"5031273":{"post_code":"5031273","prefecture":"GIFU KEN","city":"YORO GUN YORO CHO","town":"NEKOJI","perfecture_jp":"岐阜県","jp_add_1":"養老郡養老町","jp_add_2":"根古地"},"5031331":{"post_code":"5031331","prefecture":"GIFU KEN","city":"YORO GUN YORO CHO","town":"HASHIZUME","perfecture_jp":"岐阜県","jp_add_1":"養老郡養老町","jp_add_2":"橋爪"},"5031325":{"post_code":"5031325","prefecture":"GIFU KEN","city":"YORO GUN YORO CHO","town":"HANNOKI","perfecture_jp":"岐阜県","jp_add_1":"養老郡養老町","jp_add_2":"飯ノ木"},"5031382":{"post_code":"5031382","prefecture":"GIFU KEN","city":"YORO GUN YORO CHO","town":"FUNATSUKE","perfecture_jp":"岐阜県","jp_add_1":"養老郡養老町","jp_add_2":"船附"},"5031263":{"post_code":"5031263","prefecture":"GIFU KEN","city":"YORO GUN YORO CHO","town":"FUNAMI","perfecture_jp":"岐阜県","jp_add_1":"養老郡養老町","jp_add_2":"船見"},"5031312":{"post_code":"5031312","prefecture":"GIFU KEN","city":"YORO GUN YORO CHO","town":"MIKAMIMACHI","perfecture_jp":"岐阜県","jp_add_1":"養老郡養老町","jp_add_2":"三神町"},"5031274":{"post_code":"5031274","prefecture":"GIFU KEN","city":"YORO GUN YORO CHO","town":"MIZUHO","perfecture_jp":"岐阜県","jp_add_1":"養老郡養老町","jp_add_2":"瑞穂"},"5031252":{"post_code":"5031252","prefecture":"GIFU KEN","city":"YORO GUN YORO CHO","town":"MYOTOKU","perfecture_jp":"岐阜県","jp_add_1":"養老郡養老町","jp_add_2":"明徳"},"5031301":{"post_code":"5031301","prefecture":"GIFU KEN","city":"YORO GUN YORO CHO","town":"MUROHARA","perfecture_jp":"岐阜県","jp_add_1":"養老郡養老町","jp_add_2":"室原"},"5031338":{"post_code":"5031338","prefecture":"GIFU KEN","city":"YORO GUN YORO CHO","town":"YASUHISA","perfecture_jp":"岐阜県","jp_add_1":"養老郡養老町","jp_add_2":"安久"},"5031255":{"post_code":"5031255","prefecture":"GIFU KEN","city":"YORO GUN YORO CHO","town":"YORO","perfecture_jp":"岐阜県","jp_add_1":"養老郡養老町","jp_add_2":"養老"},"5031254":{"post_code":"5031254","prefecture":"GIFU KEN","city":"YORO GUN YORO CHO","town":"YOROKOEN","perfecture_jp":"岐阜県","jp_add_1":"養老郡養老町","jp_add_2":"養老公園"},"5031278":{"post_code":"5031278","prefecture":"GIFU KEN","city":"YORO GUN YORO CHO","town":"YOKOYA","perfecture_jp":"岐阜県","jp_add_1":"養老郡養老町","jp_add_2":"横屋"},"5031244":{"post_code":"5031244","prefecture":"GIFU KEN","city":"YORO GUN YORO CHO","town":"RYUSENJI","perfecture_jp":"岐阜県","jp_add_1":"養老郡養老町","jp_add_2":"竜泉寺"},"5031265":{"post_code":"5031265","prefecture":"GIFU KEN","city":"YORO GUN YORO CHO","town":"WAKAMIYA","perfecture_jp":"岐阜県","jp_add_1":"養老郡養老町","jp_add_2":"若宮"},"5031261":{"post_code":"5031261","prefecture":"GIFU KEN","city":"YORO GUN YORO CHO","town":"WASHINOSU","perfecture_jp":"岐阜県","jp_add_1":"養老郡養老町","jp_add_2":"鷲巣"},"5032100":{"post_code":"5032100","prefecture":"GIFU KEN","city":"FUWA GUN TARUI CHO","town":"IKANIKEISAIGANAIBAAI","perfecture_jp":"岐阜県","jp_add_1":"不破郡垂井町","jp_add_2":""},"5032121":{"post_code":"5032121","prefecture":"GIFU KEN","city":"FUWA GUN TARUI CHO","town":"TARUICHONOTSUGINIBANCHIGAKURUBAAI","perfecture_jp":"岐阜県","jp_add_1":"不破郡垂井町","jp_add_2":""},"5032112":{"post_code":"5032112","prefecture":"GIFU KEN","city":"FUWA GUN TARUI CHO","town":"AYADO","perfecture_jp":"岐阜県","jp_add_1":"不破郡垂井町","jp_add_2":"綾戸"},"5032105":{"post_code":"5032105","prefecture":"GIFU KEN","city":"FUWA GUN TARUI CHO","town":"ARAI","perfecture_jp":"岐阜県","jp_add_1":"不破郡垂井町","jp_add_2":"新井"},"5032104":{"post_code":"5032104","prefecture":"GIFU KEN","city":"FUWA GUN TARUI CHO","town":"ICHINO","perfecture_jp":"岐阜県","jp_add_1":"不破郡垂井町","jp_add_2":"市之尾"},"5032106":{"post_code":"5032106","prefecture":"GIFU KEN","city":"FUWA GUN TARUI CHO","town":"IBUKI","perfecture_jp":"岐阜県","jp_add_1":"不破郡垂井町","jp_add_2":"伊吹"},"5032107":{"post_code":"5032107","prefecture":"GIFU KEN","city":"FUWA GUN TARUI CHO","town":"IWADE","perfecture_jp":"岐阜県","jp_add_1":"不破郡垂井町","jp_add_2":"岩手"},"5032103":{"post_code":"5032103","prefecture":"GIFU KEN","city":"FUWA GUN TARUI CHO","town":"UMETANI","perfecture_jp":"岐阜県","jp_add_1":"不破郡垂井町","jp_add_2":"梅谷"},"5032108":{"post_code":"5032108","prefecture":"GIFU KEN","city":"FUWA GUN TARUI CHO","town":"OISHI","perfecture_jp":"岐阜県","jp_add_1":"不破郡垂井町","jp_add_2":"大石"},"5032101":{"post_code":"5032101","prefecture":"GIFU KEN","city":"FUWA GUN TARUI CHO","town":"OTAKI","perfecture_jp":"岐阜県","jp_add_1":"不破郡垂井町","jp_add_2":"大滝"},"5032122":{"post_code":"5032122","prefecture":"GIFU KEN","city":"FUWA GUN TARUI CHO","town":"OSA","perfecture_jp":"岐阜県","jp_add_1":"不破郡垂井町","jp_add_2":"表佐"},"5032123":{"post_code":"5032123","prefecture":"GIFU KEN","city":"FUWA GUN TARUI CHO","town":"KURIHARA","perfecture_jp":"岐阜県","jp_add_1":"不破郡垂井町","jp_add_2":"栗原"},"5032102":{"post_code":"5032102","prefecture":"GIFU KEN","city":"FUWA GUN TARUI CHO","town":"SHIKIHARA","perfecture_jp":"岐阜県","jp_add_1":"不破郡垂井町","jp_add_2":"敷原"},"5032113":{"post_code":"5032113","prefecture":"GIFU KEN","city":"FUWA GUN TARUI CHO","town":"SHIMIZU","perfecture_jp":"岐阜県","jp_add_1":"不破郡垂井町","jp_add_2":"清水"},"5032125":{"post_code":"5032125","prefecture":"GIFU KEN","city":"FUWA GUN TARUI CHO","town":"HIGASHIKANDA","perfecture_jp":"岐阜県","jp_add_1":"不破郡垂井町","jp_add_2":"東神田"},"5032111":{"post_code":"5032111","prefecture":"GIFU KEN","city":"FUWA GUN TARUI CHO","town":"HIRAO","perfecture_jp":"岐阜県","jp_add_1":"不破郡垂井町","jp_add_2":"平尾"},"5032114":{"post_code":"5032114","prefecture":"GIFU KEN","city":"FUWA GUN TARUI CHO","town":"FUCHU","perfecture_jp":"岐阜県","jp_add_1":"不破郡垂井町","jp_add_2":"府中"},"5032109":{"post_code":"5032109","prefecture":"GIFU KEN","city":"FUWA GUN TARUI CHO","town":"MINAMIARAI","perfecture_jp":"岐阜県","jp_add_1":"不破郡垂井町","jp_add_2":"南新井"},"5032124":{"post_code":"5032124","prefecture":"GIFU KEN","city":"FUWA GUN TARUI CHO","town":"MIYASHIRO","perfecture_jp":"岐阜県","jp_add_1":"不破郡垂井町","jp_add_2":"宮代"},"5031500":{"post_code":"5031500","prefecture":"GIFU KEN","city":"FUWA GUN SEKIGAHARA CHO","town":"IKANIKEISAIGANAIBAAI","perfecture_jp":"岐阜県","jp_add_1":"不破郡関ケ原町","jp_add_2":""},"5031514":{"post_code":"5031514","prefecture":"GIFU KEN","city":"FUWA GUN SEKIGAHARA CHO","town":"NISHIMACHI","perfecture_jp":"岐阜県","jp_add_1":"不破郡関ケ原町","jp_add_2":"稲荷"},"5031543":{"post_code":"5031543","prefecture":"GIFU KEN","city":"FUWA GUN SEKIGAHARA CHO","town":"IMASU","perfecture_jp":"岐阜県","jp_add_1":"不破郡関ケ原町","jp_add_2":"今須"},"5031531":{"post_code":"5031531","prefecture":"GIFU KEN","city":"FUWA GUN SEKIGAHARA CHO","town":"ODAKA","perfecture_jp":"岐阜県","jp_add_1":"不破郡関ケ原町","jp_add_2":"大高"},"5031512":{"post_code":"5031512","prefecture":"GIFU KEN","city":"FUWA GUN SEKIGAHARA CHO","town":"KUMON","perfecture_jp":"岐阜県","jp_add_1":"不破郡関ケ原町","jp_add_2":"公門"},"5031523":{"post_code":"5031523","prefecture":"GIFU KEN","city":"FUWA GUN SEKIGAHARA CHO","town":"KOZEKI","perfecture_jp":"岐阜県","jp_add_1":"不破郡関ケ原町","jp_add_2":"小池"},"5031524":{"post_code":"5031524","prefecture":"GIFU KEN","city":"FUWA GUN SEKIGAHARA CHO","town":"MIDORIGAOKA","perfecture_jp":"岐阜県","jp_add_1":"不破郡関ケ原町","jp_add_2":"御祭田"},"5031522":{"post_code":"5031522","prefecture":"GIFU KEN","city":"FUWA GUN SEKIGAHARA CHO","town":"JIMBANO","perfecture_jp":"岐阜県","jp_add_1":"不破郡関ケ原町","jp_add_2":"陣場野"},"5031501":{"post_code":"5031501","prefecture":"GIFU KEN","city":"FUWA GUN SEKIGAHARA CHO","town":"SEKIGAHARA","perfecture_jp":"岐阜県","jp_add_1":"不破郡関ケ原町","jp_add_2":"関ケ原"},"5031545":{"post_code":"5031545","prefecture":"GIFU KEN","city":"FUWA GUN SEKIGAHARA CHO","town":"TAMA","perfecture_jp":"岐阜県","jp_add_1":"不破郡関ケ原町","jp_add_2":"玉"},"5031542":{"post_code":"5031542","prefecture":"GIFU KEN","city":"FUWA GUN SEKIGAHARA CHO","town":"TOGE","perfecture_jp":"岐阜県","jp_add_1":"不破郡関ケ原町","jp_add_2":"藤下"},"5031515":{"post_code":"5031515","prefecture":"GIFU KEN","city":"FUWA GUN SEKIGAHARA CHO","town":"NAKAMACHI","perfecture_jp":"岐阜県","jp_add_1":"不破郡関ケ原町","jp_add_2":"中町"},"5031513":{"post_code":"5031513","prefecture":"GIFU KEN","city":"FUWA GUN SEKIGAHARA CHO","town":"NAKAYAMA","perfecture_jp":"岐阜県","jp_add_1":"不破郡関ケ原町","jp_add_2":"中山"},"5031532":{"post_code":"5031532","prefecture":"GIFU KEN","city":"FUWA GUN SEKIGAHARA CHO","town":"NOGAMI","perfecture_jp":"岐阜県","jp_add_1":"不破郡関ケ原町","jp_add_2":"野上"},"5031511":{"post_code":"5031511","prefecture":"GIFU KEN","city":"FUWA GUN SEKIGAHARA CHO","town":"HIGASHIMACHI","perfecture_jp":"岐阜県","jp_add_1":"不破郡関ケ原町","jp_add_2":"東町"},"5031521":{"post_code":"5031521","prefecture":"GIFU KEN","city":"FUWA GUN SEKIGAHARA CHO","town":"HOYU","perfecture_jp":"岐阜県","jp_add_1":"不破郡関ケ原町","jp_add_2":"宝有"},"5031541":{"post_code":"5031541","prefecture":"GIFU KEN","city":"FUWA GUN SEKIGAHARA CHO","town":"MATSUO","perfecture_jp":"岐阜県","jp_add_1":"不破郡関ケ原町","jp_add_2":"松尾"},"5031544":{"post_code":"5031544","prefecture":"GIFU KEN","city":"FUWA GUN SEKIGAHARA CHO","town":"YAMANAKA","perfecture_jp":"岐阜県","jp_add_1":"不破郡関ケ原町","jp_add_2":"山中"},"5032300":{"post_code":"5032300","prefecture":"GIFU KEN","city":"AMPACHI GUN GODO CHO","town":"IKANIKEISAIGANAIBAAI","perfecture_jp":"岐阜県","jp_add_1":"安八郡神戸町","jp_add_2":""},"5032327":{"post_code":"5032327","prefecture":"GIFU KEN","city":"AMPACHI GUN GODO CHO","town":"IZUMI","perfecture_jp":"岐阜県","jp_add_1":"安八郡神戸町","jp_add_2":"和泉"},"5032314":{"post_code":"5032314","prefecture":"GIFU KEN","city":"AMPACHI GUN GODO CHO","town":"OCHIAI","perfecture_jp":"岐阜県","jp_add_1":"安八郡神戸町","jp_add_2":"落合"},"5032325":{"post_code":"5032325","prefecture":"GIFU KEN","city":"AMPACHI GUN GODO CHO","town":"KANO","perfecture_jp":"岐阜県","jp_add_1":"安八郡神戸町","jp_add_2":"加納"},"5032311":{"post_code":"5032311","prefecture":"GIFU KEN","city":"AMPACHI GUN GODO CHO","town":"KAWANISHI","perfecture_jp":"岐阜県","jp_add_1":"安八郡神戸町","jp_add_2":"川西"},"5032306":{"post_code":"5032306","prefecture":"GIFU KEN","city":"AMPACHI GUN GODO CHO","town":"KITAISHIKI","perfecture_jp":"岐阜県","jp_add_1":"安八郡神戸町","jp_add_2":"北一色"},"5032305":{"post_code":"5032305","prefecture":"GIFU KEN","city":"AMPACHI GUN GODO CHO","town":"GODO","perfecture_jp":"岐阜県","jp_add_1":"安八郡神戸町","jp_add_2":"神戸"},"5032316":{"post_code":"5032316","prefecture":"GIFU KEN","city":"AMPACHI GUN GODO CHO","town":"SAIDA","perfecture_jp":"岐阜県","jp_add_1":"安八郡神戸町","jp_add_2":"斉田"},"5032322":{"post_code":"5032322","prefecture":"GIFU KEN","city":"AMPACHI GUN GODO CHO","town":"SARAYASHIKI","perfecture_jp":"岐阜県","jp_add_1":"安八郡神戸町","jp_add_2":"更屋敷"},"5032312":{"post_code":"5032312","prefecture":"GIFU KEN","city":"AMPACHI GUN GODO CHO","town":"SHIMOMIYA","perfecture_jp":"岐阜県","jp_add_1":"安八郡神戸町","jp_add_2":"下宮"},"5032304":{"post_code":"5032304","prefecture":"GIFU KEN","city":"AMPACHI GUN GODO CHO","town":"JOROKUDO","perfecture_jp":"岐阜県","jp_add_1":"安八郡神戸町","jp_add_2":"丈六道"},"5032313":{"post_code":"5032313","prefecture":"GIFU KEN","city":"AMPACHI GUN GODO CHO","town":"SHINYASHIKI","perfecture_jp":"岐阜県","jp_add_1":"安八郡神戸町","jp_add_2":"新屋敷"},"5032321":{"post_code":"5032321","prefecture":"GIFU KEN","city":"AMPACHI GUN GODO CHO","town":"SUEMORI","perfecture_jp":"岐阜県","jp_add_1":"安八郡神戸町","jp_add_2":"末守"},"5032318":{"post_code":"5032318","prefecture":"GIFU KEN","city":"AMPACHI GUN GODO CHO","town":"SEKO","perfecture_jp":"岐阜県","jp_add_1":"安八郡神戸町","jp_add_2":"瀬古"},"5032302":{"post_code":"5032302","prefecture":"GIFU KEN","city":"AMPACHI GUN GODO CHO","town":"TA","perfecture_jp":"岐阜県","jp_add_1":"安八郡神戸町","jp_add_2":"田"},"5032315":{"post_code":"5032315","prefecture":"GIFU KEN","city":"AMPACHI GUN GODO CHO","town":"TSUKIYORI","perfecture_jp":"岐阜県","jp_add_1":"安八郡神戸町","jp_add_2":"付寄"},"5032326":{"post_code":"5032326","prefecture":"GIFU KEN","city":"AMPACHI GUN GODO CHO","town":"NAKAZAWA","perfecture_jp":"岐阜県","jp_add_1":"安八郡神戸町","jp_add_2":"中沢"},"5032341":{"post_code":"5032341","prefecture":"GIFU KEN","city":"AMPACHI GUN GODO CHO","town":"NISHIZAKURA","perfecture_jp":"岐阜県","jp_add_1":"安八郡神戸町","jp_add_2":"西座倉"},"5032323":{"post_code":"5032323","prefecture":"GIFU KEN","city":"AMPACHI GUN GODO CHO","town":"NISHINOHO","perfecture_jp":"岐阜県","jp_add_1":"安八郡神戸町","jp_add_2":"西保"},"5032324":{"post_code":"5032324","prefecture":"GIFU KEN","city":"AMPACHI GUN GODO CHO","town":"HACHIJO","perfecture_jp":"岐阜県","jp_add_1":"安八郡神戸町","jp_add_2":"八条"},"5032319":{"post_code":"5032319","prefecture":"GIFU KEN","city":"AMPACHI GUN GODO CHO","town":"MAEDA","perfecture_jp":"岐阜県","jp_add_1":"安八郡神戸町","jp_add_2":"前田"},"5032328":{"post_code":"5032328","prefecture":"GIFU KEN","city":"AMPACHI GUN GODO CHO","town":"MINAMIGATA","perfecture_jp":"岐阜県","jp_add_1":"安八郡神戸町","jp_add_2":"南方"},"5032303":{"post_code":"5032303","prefecture":"GIFU KEN","city":"AMPACHI GUN GODO CHO","town":"YASUTSUGU","perfecture_jp":"岐阜県","jp_add_1":"安八郡神戸町","jp_add_2":"安次"},"5032317":{"post_code":"5032317","prefecture":"GIFU KEN","city":"AMPACHI GUN GODO CHO","town":"YANAZE","perfecture_jp":"岐阜県","jp_add_1":"安八郡神戸町","jp_add_2":"柳瀬"},"5032301":{"post_code":"5032301","prefecture":"GIFU KEN","city":"AMPACHI GUN GODO CHO","town":"YOKOI","perfecture_jp":"岐阜県","jp_add_1":"安八郡神戸町","jp_add_2":"横井"},"5030200":{"post_code":"5030200","prefecture":"GIFU KEN","city":"AMPACHI GUN WANOCHI CHO","town":"IKANIKEISAIGANAIBAAI","perfecture_jp":"岐阜県","jp_add_1":"安八郡輪之内町","jp_add_2":""},"5030202":{"post_code":"5030202","prefecture":"GIFU KEN","city":"AMPACHI GUN WANOCHI CHO","town":"OYABU","perfecture_jp":"岐阜県","jp_add_1":"安八郡輪之内町","jp_add_2":"大藪"},"5030216":{"post_code":"5030216","prefecture":"GIFU KEN","city":"AMPACHI GUN WANOCHI CHO","town":"OYOSHISHINDEN","perfecture_jp":"岐阜県","jp_add_1":"安八郡輪之内町","jp_add_2":"大吉新田"},"5030234":{"post_code":"5030234","prefecture":"GIFU KEN","city":"AMPACHI GUN WANOCHI CHO","town":"SATO","perfecture_jp":"岐阜県","jp_add_1":"安八郡輪之内町","jp_add_2":"里"},"5030236":{"post_code":"5030236","prefecture":"GIFU KEN","city":"AMPACHI GUN WANOCHI CHO","town":"SHIOBAMI","perfecture_jp":"岐阜県","jp_add_1":"安八郡輪之内町","jp_add_2":"塩喰"},"5030205":{"post_code":"5030205","prefecture":"GIFU KEN","city":"AMPACHI GUN WANOCHI CHO","town":"SHIMOOGURE","perfecture_jp":"岐阜県","jp_add_1":"安八郡輪之内町","jp_add_2":"下大榑"},"5030206":{"post_code":"5030206","prefecture":"GIFU KEN","city":"AMPACHI GUN WANOCHI CHO","town":"SHIMOOGURESHINDEN","perfecture_jp":"岐阜県","jp_add_1":"安八郡輪之内町","jp_add_2":"下大榑新田"},"5030233":{"post_code":"5030233","prefecture":"GIFU KEN","city":"AMPACHI GUN WANOCHI CHO","town":"NAKAGO","perfecture_jp":"岐阜県","jp_add_1":"安八郡輪之内町","jp_add_2":"中郷"},"5030212":{"post_code":"5030212","prefecture":"GIFU KEN","city":"AMPACHI GUN WANOCHI CHO","town":"NAKAGOSHINDEN","perfecture_jp":"岐阜県","jp_add_1":"安八郡輪之内町","jp_add_2":"中郷新田"},"5030231":{"post_code":"5030231","prefecture":"GIFU KEN","city":"AMPACHI GUN WANOCHI CHO","town":"NAMBA","perfecture_jp":"岐阜県","jp_add_1":"安八郡輪之内町","jp_add_2":"南波"},"5030201":{"post_code":"5030201","prefecture":"GIFU KEN","city":"AMPACHI GUN WANOCHI CHO","town":"NIREMATA","perfecture_jp":"岐阜県","jp_add_1":"安八郡輪之内町","jp_add_2":"楡俣"},"5030203":{"post_code":"5030203","prefecture":"GIFU KEN","city":"AMPACHI GUN WANOCHI CHO","town":"NIREMATASHINDEN","perfecture_jp":"岐阜県","jp_add_1":"安八郡輪之内町","jp_add_2":"楡俣新田"},"5030235":{"post_code":"5030235","prefecture":"GIFU KEN","city":"AMPACHI GUN WANOCHI CHO","town":"FUKUZUKA","perfecture_jp":"岐阜県","jp_add_1":"安八郡輪之内町","jp_add_2":"福束"},"5030211":{"post_code":"5030211","prefecture":"GIFU KEN","city":"AMPACHI GUN WANOCHI CHO","town":"FUKUZUKASHINDEN","perfecture_jp":"岐阜県","jp_add_1":"安八郡輪之内町","jp_add_2":"福束新田"},"5030232":{"post_code":"5030232","prefecture":"GIFU KEN","city":"AMPACHI GUN WANOCHI CHO","town":"HONDO","perfecture_jp":"岐阜県","jp_add_1":"安八郡輪之内町","jp_add_2":"本戸"},"5030215":{"post_code":"5030215","prefecture":"GIFU KEN","city":"AMPACHI GUN WANOCHI CHO","town":"MATSUCHI","perfecture_jp":"岐阜県","jp_add_1":"安八郡輪之内町","jp_add_2":"松内"},"5030214":{"post_code":"5030214","prefecture":"GIFU KEN","city":"AMPACHI GUN WANOCHI CHO","town":"MIRUSHINDEN","perfecture_jp":"岐阜県","jp_add_1":"安八郡輪之内町","jp_add_2":"海松新田"},"5030213":{"post_code":"5030213","prefecture":"GIFU KEN","city":"AMPACHI GUN WANOCHI CHO","town":"MOIKESHINDEN","perfecture_jp":"岐阜県","jp_add_1":"安八郡輪之内町","jp_add_2":"藻池新田"},"5030204":{"post_code":"5030204","prefecture":"GIFU KEN","city":"AMPACHI GUN WANOCHI CHO","town":"YOGO","perfecture_jp":"岐阜県","jp_add_1":"安八郡輪之内町","jp_add_2":"四郷"},"5030100":{"post_code":"5030100","prefecture":"GIFU KEN","city":"AMPACHI GUN AMPACHI CHO","town":"IKANIKEISAIGANAIBAAI","perfecture_jp":"岐阜県","jp_add_1":"安八郡安八町","jp_add_2":""},"5030128":{"post_code":"5030128","prefecture":"GIFU KEN","city":"AMPACHI GUN AMPACHI CHO","town":"ONO","perfecture_jp":"岐阜県","jp_add_1":"安八郡安八町","jp_add_2":"大野"},"5030116":{"post_code":"5030116","prefecture":"GIFU KEN","city":"AMPACHI GUN AMPACHI CHO","town":"OMORI","perfecture_jp":"岐阜県","jp_add_1":"安八郡安八町","jp_add_2":"大森"},"5030113":{"post_code":"5030113","prefecture":"GIFU KEN","city":"AMPACHI GUN AMPACHI CHO","town":"KITAIMAGAFUCHI","perfecture_jp":"岐阜県","jp_add_1":"安八郡安八町","jp_add_2":"北今ケ渕"},"5030121":{"post_code":"5030121","prefecture":"GIFU KEN","city":"AMPACHI GUN AMPACHI CHO","town":"KORITORI","perfecture_jp":"岐阜県","jp_add_1":"安八郡安八町","jp_add_2":"氷取"},"5030112":{"post_code":"5030112","prefecture":"GIFU KEN","city":"AMPACHI GUN AMPACHI CHO","town":"HIGASHIMUSUBU","perfecture_jp":"岐阜県","jp_add_1":"安八郡安八町","jp_add_2":"芝原"},"5030127":{"post_code":"5030127","prefecture":"GIFU KEN","city":"AMPACHI GUN AMPACHI CHO","town":"SHIRO","perfecture_jp":"岐阜県","jp_add_1":"安八郡安八町","jp_add_2":"城"},"5030122":{"post_code":"5030122","prefecture":"GIFU KEN","city":"AMPACHI GUN AMPACHI CHO","town":"ZENKO","perfecture_jp":"岐阜県","jp_add_1":"安八郡安八町","jp_add_2":"善光"},"5030129":{"post_code":"5030129","prefecture":"GIFU KEN","city":"AMPACHI GUN AMPACHI CHO","town":"SOTOZENKO","perfecture_jp":"岐阜県","jp_add_1":"安八郡安八町","jp_add_2":"外善光"},"5030117":{"post_code":"5030117","prefecture":"GIFU KEN","city":"AMPACHI GUN AMPACHI CHO","town":"DAIMYOJIN","perfecture_jp":"岐阜県","jp_add_1":"安八郡安八町","jp_add_2":"大明神"},"5030124":{"post_code":"5030124","prefecture":"GIFU KEN","city":"AMPACHI GUN AMPACHI CHO","town":"NAKA","perfecture_jp":"岐阜県","jp_add_1":"安八郡安八町","jp_add_2":"中"},"5030126":{"post_code":"5030126","prefecture":"GIFU KEN","city":"AMPACHI GUN AMPACHI CHO","town":"NAKAZU","perfecture_jp":"岐阜県","jp_add_1":"安八郡安八町","jp_add_2":"中須"},"5030111":{"post_code":"5030111","prefecture":"GIFU KEN","city":"AMPACHI GUN AMPACHI CHO","town":"NISHIMUSUBU","perfecture_jp":"岐阜県","jp_add_1":"安八郡安八町","jp_add_2":"西結"},"5030118":{"post_code":"5030118","prefecture":"GIFU KEN","city":"AMPACHI GUN AMPACHI CHO","town":"HOE","perfecture_jp":"岐阜県","jp_add_1":"安八郡安八町","jp_add_2":"宝江"},"5030125":{"post_code":"5030125","prefecture":"GIFU KEN","city":"AMPACHI GUN AMPACHI CHO","town":"MAKI","perfecture_jp":"岐阜県","jp_add_1":"安八郡安八町","jp_add_2":"牧"},"5030115":{"post_code":"5030115","prefecture":"GIFU KEN","city":"AMPACHI GUN AMPACHI CHO","town":"MINAMIIMAGAFUCHI","perfecture_jp":"岐阜県","jp_add_1":"安八郡安八町","jp_add_2":"南今ケ渕"},"5030123":{"post_code":"5030123","prefecture":"GIFU KEN","city":"AMPACHI GUN AMPACHI CHO","town":"MINAMIJO","perfecture_jp":"岐阜県","jp_add_1":"安八郡安八町","jp_add_2":"南條"},"5030114":{"post_code":"5030114","prefecture":"GIFU KEN","city":"AMPACHI GUN AMPACHI CHO","town":"MORIBE","perfecture_jp":"岐阜県","jp_add_1":"安八郡安八町","jp_add_2":"森部"},"5032503":{"post_code":"5032503","prefecture":"GIFU KEN","city":"IBI GUN IBIGAWA CHO","town":"KASUGA KAWAI","perfecture_jp":"岐阜県","jp_add_1":"揖斐郡揖斐川町","jp_add_2":"春日川合"},"5032506":{"post_code":"5032506","prefecture":"GIFU KEN","city":"IBI GUN IBIGAWA CHO","town":"KASUGA KOROKU","perfecture_jp":"岐阜県","jp_add_1":"揖斐郡揖斐川町","jp_add_2":"春日香六"},"5032505":{"post_code":"5032505","prefecture":"GIFU KEN","city":"IBI GUN IBIGAWA CHO","town":"KASUGA KOMIYAKAMI","perfecture_jp":"岐阜県","jp_add_1":"揖斐郡揖斐川町","jp_add_2":"春日小宮神"},"5032504":{"post_code":"5032504","prefecture":"GIFU KEN","city":"IBI GUN IBIGAWA CHO","town":"KASUGA NAKAYAMA","perfecture_jp":"岐阜県","jp_add_1":"揖斐郡揖斐川町","jp_add_2":"春日中山"},"5032501":{"post_code":"5032501","prefecture":"GIFU KEN","city":"IBI GUN IBIGAWA CHO","town":"KASUGA MITSUKA","perfecture_jp":"岐阜県","jp_add_1":"揖斐郡揖斐川町","jp_add_2":"春日美束"},"5032502":{"post_code":"5032502","prefecture":"GIFU KEN","city":"IBI GUN IBIGAWA CHO","town":"KASUGA ROKUGO","perfecture_jp":"岐阜県","jp_add_1":"揖斐郡揖斐川町","jp_add_2":"春日六合"},"5032400":{"post_code":"5032400","prefecture":"GIFU KEN","city":"IBI GUN IKEDA CHO","town":"IKANIKEISAIGANAIBAAI","perfecture_jp":"岐阜県","jp_add_1":"揖斐郡池田町","jp_add_2":""},"5032423":{"post_code":"5032423","prefecture":"GIFU KEN","city":"IBI GUN IKEDA CHO","town":"AOYANAGI","perfecture_jp":"岐阜県","jp_add_1":"揖斐郡池田町","jp_add_2":"青柳"},"5032424":{"post_code":"5032424","prefecture":"GIFU KEN","city":"IBI GUN IKEDA CHO","town":"IKENO","perfecture_jp":"岐阜県","jp_add_1":"揖斐郡池田町","jp_add_2":"池野"},"5032427":{"post_code":"5032427","prefecture":"GIFU KEN","city":"IBI GUN IKEDA CHO","town":"ICHIHASHI","perfecture_jp":"岐阜県","jp_add_1":"揖斐郡池田町","jp_add_2":"市橋"},"5032415":{"post_code":"5032415","prefecture":"GIFU KEN","city":"IBI GUN IKEDA CHO","town":"UEDA","perfecture_jp":"岐阜県","jp_add_1":"揖斐郡池田町","jp_add_2":"上田"},"5032402":{"post_code":"5032402","prefecture":"GIFU KEN","city":"IBI GUN IKEDA CHO","town":"KASUGAHARA","perfecture_jp":"岐阜県","jp_add_1":"揖斐郡池田町","jp_add_2":"粕ケ原"},"5032428":{"post_code":"5032428","prefecture":"GIFU KEN","city":"IBI GUN IKEDA CHO","town":"KATAYAMA","perfecture_jp":"岐阜県","jp_add_1":"揖斐郡池田町","jp_add_2":"片山"},"5032405":{"post_code":"5032405","prefecture":"GIFU KEN","city":"IBI GUN IKEDA CHO","town":"GANJOJI","perfecture_jp":"岐阜県","jp_add_1":"揖斐郡池田町","jp_add_2":"願成寺"},"5032418":{"post_code":"5032418","prefecture":"GIFU KEN","city":"IBI GUN IKEDA CHO","town":"KUSABUKA","perfecture_jp":"岐阜県","jp_add_1":"揖斐郡池田町","jp_add_2":"草深"},"5032401":{"post_code":"5032401","prefecture":"GIFU KEN","city":"IBI GUN IKEDA CHO","town":"KUTSUI","perfecture_jp":"岐阜県","jp_add_1":"揖斐郡池田町","jp_add_2":"沓井"},"5032404":{"post_code":"5032404","prefecture":"GIFU KEN","city":"IBI GUN IKEDA CHO","town":"KOJI","perfecture_jp":"岐阜県","jp_add_1":"揖斐郡池田町","jp_add_2":"小牛"},"5032419":{"post_code":"5032419","prefecture":"GIFU KEN","city":"IBI GUN IKEDA CHO","town":"KODERA","perfecture_jp":"岐阜県","jp_add_1":"揖斐郡池田町","jp_add_2":"小寺"},"5032414":{"post_code":"5032414","prefecture":"GIFU KEN","city":"IBI GUN IKEDA CHO","town":"SHIMOHIGASHINO","perfecture_jp":"岐阜県","jp_add_1":"揖斐郡池田町","jp_add_2":"下東野"},"5032413":{"post_code":"5032413","prefecture":"GIFU KEN","city":"IBI GUN IKEDA CHO","town":"SHIROTORI","perfecture_jp":"岐阜県","jp_add_1":"揖斐郡池田町","jp_add_2":"白鳥"},"5032411":{"post_code":"5032411","prefecture":"GIFU KEN","city":"IBI GUN IKEDA CHO","town":"SUGINO","perfecture_jp":"岐阜県","jp_add_1":"揖斐郡池田町","jp_add_2":"杉野"},"5032412":{"post_code":"5032412","prefecture":"GIFU KEN","city":"IBI GUN IKEDA CHO","town":"SUNABATA","perfecture_jp":"岐阜県","jp_add_1":"揖斐郡池田町","jp_add_2":"砂畑"},"5032403":{"post_code":"5032403","prefecture":"GIFU KEN","city":"IBI GUN IKEDA CHO","town":"TANAKA","perfecture_jp":"岐阜県","jp_add_1":"揖斐郡池田町","jp_add_2":"田中"},"5032422":{"post_code":"5032422","prefecture":"GIFU KEN","city":"IBI GUN IKEDA CHO","town":"TABATA","perfecture_jp":"岐阜県","jp_add_1":"揖斐郡池田町","jp_add_2":"田畑"},"5032408":{"post_code":"5032408","prefecture":"GIFU KEN","city":"IBI GUN IKEDA CHO","town":"DAN","perfecture_jp":"岐阜県","jp_add_1":"揖斐郡池田町","jp_add_2":"段"},"5032416":{"post_code":"5032416","prefecture":"GIFU KEN","city":"IBI GUN IKEDA CHO","town":"HAGIWARA","perfecture_jp":"岐阜県","jp_add_1":"揖斐郡池田町","jp_add_2":"萩原"},"5032407":{"post_code":"5032407","prefecture":"GIFU KEN","city":"IBI GUN IKEDA CHO","town":"HANNYABATA","perfecture_jp":"岐阜県","jp_add_1":"揖斐郡池田町","jp_add_2":"般若畑"},"5032429":{"post_code":"5032429","prefecture":"GIFU KEN","city":"IBI GUN IKEDA CHO","town":"FUJISHIRO","perfecture_jp":"岐阜県","jp_add_1":"揖斐郡池田町","jp_add_2":"藤代"},"5032409":{"post_code":"5032409","prefecture":"GIFU KEN","city":"IBI GUN IKEDA CHO","town":"FUNAGO","perfecture_jp":"岐阜県","jp_add_1":"揖斐郡池田町","jp_add_2":"舟子"},"5032417":{"post_code":"5032417","prefecture":"GIFU KEN","city":"IBI GUN IKEDA CHO","town":"HONGO","perfecture_jp":"岐阜県","jp_add_1":"揖斐郡池田町","jp_add_2":"本郷"},"5032406":{"post_code":"5032406","prefecture":"GIFU KEN","city":"IBI GUN IKEDA CHO","town":"MIYAJI","perfecture_jp":"岐阜県","jp_add_1":"揖斐郡池田町","jp_add_2":"宮地"},"5032421":{"post_code":"5032421","prefecture":"GIFU KEN","city":"IBI GUN IKEDA CHO","town":"YAMAHORA","perfecture_jp":"岐阜県","jp_add_1":"揖斐郡池田町","jp_add_2":"山洞"},"5032426":{"post_code":"5032426","prefecture":"GIFU KEN","city":"IBI GUN IKEDA CHO","town":"YAWATA","perfecture_jp":"岐阜県","jp_add_1":"揖斐郡池田町","jp_add_2":"八幡"},"5032425":{"post_code":"5032425","prefecture":"GIFU KEN","city":"IBI GUN IKEDA CHO","town":"ROKUNOI","perfecture_jp":"岐阜県","jp_add_1":"揖斐郡池田町","jp_add_2":"六之井"}}