{"5110000":{"post_code":"5110000","prefecture":"MIE KEN","city":"KUWANA SHI","town":"IKANIKEISAIGANAIBAAI","perfecture_jp":"三重県","jp_add_1":"桑名市","jp_add_2":""},"5110016":{"post_code":"5110016","prefecture":"MIE KEN","city":"KUWANA SHI","town":"AIOICHO","perfecture_jp":"三重県","jp_add_1":"桑名市","jp_add_2":"相生町"},"5110052":{"post_code":"5110052","prefecture":"MIE KEN","city":"KUWANA SHI","town":"AIKAWACHO","perfecture_jp":"三重県","jp_add_1":"桑名市","jp_add_2":"相川町"},"5110817":{"post_code":"5110817","prefecture":"MIE KEN","city":"KUWANA SHI","town":"AOBACHO","perfecture_jp":"三重県","jp_add_1":"桑名市","jp_add_2":"青葉町"},"5110033":{"post_code":"5110033","prefecture":"MIE KEN","city":"KUWANA SHI","town":"AKASUKA","perfecture_jp":"三重県","jp_add_1":"桑名市","jp_add_2":"赤須賀"},"5110934":{"post_code":"5110934","prefecture":"MIE KEN","city":"KUWANA SHI","town":"AKO","perfecture_jp":"三重県","jp_add_1":"桑名市","jp_add_2":"赤尾"},"5110935":{"post_code":"5110935","prefecture":"MIE KEN","city":"KUWANA SHI","town":"AKODAI","perfecture_jp":"三重県","jp_add_1":"桑名市","jp_add_2":"赤尾台"},"5110084":{"post_code":"5110084","prefecture":"MIE KEN","city":"KUWANA SHI","town":"ABURAMACHI","perfecture_jp":"三重県","jp_add_1":"桑名市","jp_add_2":"油町"},"5110036":{"post_code":"5110036","prefecture":"MIE KEN","city":"KUWANA SHI","town":"IGAMACHI","perfecture_jp":"三重県","jp_add_1":"桑名市","jp_add_2":"伊賀町"},"5110838":{"post_code":"5110838","prefecture":"MIE KEN","city":"KUWANA SHI","town":"IZUMI","perfecture_jp":"三重県","jp_add_1":"桑名市","jp_add_2":"和泉"},"5110046":{"post_code":"5110046","prefecture":"MIE KEN","city":"KUWANA SHI","town":"ISSHIKIMACHI","perfecture_jp":"三重県","jp_add_1":"桑名市","jp_add_2":"一色町"},"5110017":{"post_code":"5110017","prefecture":"MIE KEN","city":"KUWANA SHI","town":"IMAKATAMACHI","perfecture_jp":"三重県","jp_add_1":"桑名市","jp_add_2":"今片町"},"5110006":{"post_code":"5110006","prefecture":"MIE KEN","city":"KUWANA SHI","town":"IMAKITAMACHI","perfecture_jp":"三重県","jp_add_1":"桑名市","jp_add_2":"今北町"},"5110801":{"post_code":"5110801","prefecture":"MIE KEN","city":"KUWANA SHI","town":"IMAJIMA","perfecture_jp":"三重県","jp_add_1":"桑名市","jp_add_2":"今島"},"5110018":{"post_code":"5110018","prefecture":"MIE KEN","city":"KUWANA SHI","town":"IMANAKAMACHI","perfecture_jp":"三重県","jp_add_1":"桑名市","jp_add_2":"今中町"},"5110086":{"post_code":"5110086","prefecture":"MIE KEN","city":"KUWANA SHI","town":"IRIEYOSHIMACHI","perfecture_jp":"三重県","jp_add_1":"桑名市","jp_add_2":"入江葭町"},"5110825":{"post_code":"5110825","prefecture":"MIE KEN","city":"KUWANA SHI","town":"UENO","perfecture_jp":"三重県","jp_add_1":"桑名市","jp_add_2":"上野"},"5110038":{"post_code":"5110038","prefecture":"MIE KEN","city":"KUWANA SHI","town":"UCHIBORI","perfecture_jp":"三重県","jp_add_1":"桑名市","jp_add_2":"内堀"},"5110822":{"post_code":"5110822","prefecture":"MIE KEN","city":"KUWANA SHI","town":"UMAMICHI","perfecture_jp":"三重県","jp_add_1":"桑名市","jp_add_2":"馬道"},"5110815":{"post_code":"5110815","prefecture":"MIE KEN","city":"KUWANA SHI","town":"UMEZONODORI","perfecture_jp":"三重県","jp_add_1":"桑名市","jp_add_2":"梅園通"},"5110071":{"post_code":"5110071","prefecture":"MIE KEN","city":"KUWANA SHI","town":"EKIMOTOCHO","perfecture_jp":"三重県","jp_add_1":"桑名市","jp_add_2":"駅元町"},"5110022":{"post_code":"5110022","prefecture":"MIE KEN","city":"KUWANA SHI","town":"EDOMACHI","perfecture_jp":"三重県","jp_add_1":"桑名市","jp_add_2":"江戸町"},"5110836":{"post_code":"5110836","prefecture":"MIE KEN","city":"KUWANA SHI","town":"EBA","perfecture_jp":"三重県","jp_add_1":"桑名市","jp_add_2":"江場"},"5110848":{"post_code":"5110848","prefecture":"MIE KEN","city":"KUWANA SHI","town":"OGAISU","perfecture_jp":"三重県","jp_add_1":"桑名市","jp_add_2":"大貝須"},"5110947":{"post_code":"5110947","prefecture":"MIE KEN","city":"KUWANA SHI","town":"ONAKASHINDEN","perfecture_jp":"三重県","jp_add_1":"桑名市","jp_add_2":"大仲新田"},"5110903":{"post_code":"5110903","prefecture":"MIE KEN","city":"KUWANA SHI","town":"OYAMADA","perfecture_jp":"三重県","jp_add_1":"桑名市","jp_add_2":"大山田"},"5110812":{"post_code":"5110812","prefecture":"MIE KEN","city":"KUWANA SHI","town":"ONOYAMA","perfecture_jp":"三重県","jp_add_1":"桑名市","jp_add_2":"尾野山"},"5110861":{"post_code":"5110861","prefecture":"MIE KEN","city":"KUWANA SHI","town":"KAKIZUKASHINDEN","perfecture_jp":"三重県","jp_add_1":"桑名市","jp_add_2":"蠣塚新田"},"5110829":{"post_code":"5110829","prefecture":"MIE KEN","city":"KUWANA SHI","town":"KAGURACHO","perfecture_jp":"三重県","jp_add_1":"桑名市","jp_add_2":"神楽町"},"5110067":{"post_code":"5110067","prefecture":"MIE KEN","city":"KUWANA SHI","town":"KAKEHI","perfecture_jp":"三重県","jp_add_1":"桑名市","jp_add_2":"掛樋"},"5110047":{"post_code":"5110047","prefecture":"MIE KEN","city":"KUWANA SHI","town":"KAJIMACHI","perfecture_jp":"三重県","jp_add_1":"桑名市","jp_add_2":"鍛冶町"},"5110012":{"post_code":"5110012","prefecture":"MIE KEN","city":"KUWANA SHI","town":"KASUGACHO","perfecture_jp":"三重県","jp_add_1":"桑名市","jp_add_2":"春日町"},"5110827":{"post_code":"5110827","prefecture":"MIE KEN","city":"KUWANA SHI","town":"KASUMICHO","perfecture_jp":"三重県","jp_add_1":"桑名市","jp_add_2":"霞町"},"5110081":{"post_code":"5110081","prefecture":"MIE KEN","city":"KUWANA SHI","town":"KATAMACHI","perfecture_jp":"三重県","jp_add_1":"桑名市","jp_add_2":"片町"},"5110001":{"post_code":"5110001","prefecture":"MIE KEN","city":"KUWANA SHI","town":"KAMINOWASHINDEN","perfecture_jp":"三重県","jp_add_1":"桑名市","jp_add_2":"上之輪新田"},"5110809":{"post_code":"5110809","prefecture":"MIE KEN","city":"KUWANA SHI","town":"KAMIFUKAYABE","perfecture_jp":"三重県","jp_add_1":"桑名市","jp_add_2":"上深谷部"},"5110044":{"post_code":"5110044","prefecture":"MIE KEN","city":"KUWANA SHI","town":"KAYAMACHI","perfecture_jp":"三重県","jp_add_1":"桑名市","jp_add_2":"萱町"},"5110941":{"post_code":"5110941","prefecture":"MIE KEN","city":"KUWANA SHI","town":"KAREGAWA","perfecture_jp":"三重県","jp_add_1":"桑名市","jp_add_2":"嘉例川"},"5110021":{"post_code":"5110021","prefecture":"MIE KEN","city":"KUWANA SHI","town":"KAWAGUCHICHO","perfecture_jp":"三重県","jp_add_1":"桑名市","jp_add_2":"川口町"},"5110802":{"post_code":"5110802","prefecture":"MIE KEN","city":"KUWANA SHI","town":"KAWASAKICHO","perfecture_jp":"三重県","jp_add_1":"桑名市","jp_add_2":"川崎町"},"5110024":{"post_code":"5110024","prefecture":"MIE KEN","city":"KUWANA SHI","town":"KITAUOMACHI","perfecture_jp":"三重県","jp_add_1":"桑名市","jp_add_2":"北魚町"},"5110804":{"post_code":"5110804","prefecture":"MIE KEN","city":"KUWANA SHI","town":"KITAGAWARADAI","perfecture_jp":"三重県","jp_add_1":"桑名市","jp_add_2":"北川原台"},"5110073":{"post_code":"5110073","prefecture":"MIE KEN","city":"KUWANA SHI","town":"KITATERAMACHI","perfecture_jp":"三重県","jp_add_1":"桑名市","jp_add_2":"北寺町"},"5110066":{"post_code":"5110066","prefecture":"MIE KEN","city":"KUWANA SHI","town":"KITANABEYAMACHI","perfecture_jp":"三重県","jp_add_1":"桑名市","jp_add_2":"北鍋屋町"},"5110819":{"post_code":"5110819","prefecture":"MIE KEN","city":"KUWANA SHI","town":"KITABESSHIYO","perfecture_jp":"三重県","jp_add_1":"桑名市","jp_add_2":"北別所"},"5110851":{"post_code":"5110851","prefecture":"MIE KEN","city":"KUWANA SHI","town":"NISHIBESSHIYO","perfecture_jp":"三重県","jp_add_1":"桑名市","jp_add_2":"希望ケ丘"},"5110063":{"post_code":"5110063","prefecture":"MIE KEN","city":"KUWANA SHI","town":"KYOBASHICHO","perfecture_jp":"三重県","jp_add_1":"桑名市","jp_add_2":"京橋町"},"5110039":{"post_code":"5110039","prefecture":"MIE KEN","city":"KUWANA SHI","town":"KYOMACHI","perfecture_jp":"三重県","jp_add_1":"桑名市","jp_add_2":"京町"},"5110810":{"post_code":"5110810","prefecture":"MIE KEN","city":"KUWANA SHI","town":"KIYOTAKENOKA","perfecture_jp":"三重県","jp_add_1":"桑名市","jp_add_2":"清竹の丘"},"5110009":{"post_code":"5110009","prefecture":"MIE KEN","city":"KUWANA SHI","town":"KUWANA","perfecture_jp":"三重県","jp_add_1":"桑名市","jp_add_2":"桑名"},"5110923":{"post_code":"5110923","prefecture":"MIE KEN","city":"KUWANA SHI","town":"KUWABE","perfecture_jp":"三重県","jp_add_1":"桑名市","jp_add_2":"桑部"},"5110837":{"post_code":"5110837","prefecture":"MIE KEN","city":"KUWANA SHI","town":"KOIZUMI","perfecture_jp":"三重県","jp_add_1":"桑名市","jp_add_2":"小泉"},"5110841":{"post_code":"5110841","prefecture":"MIE KEN","city":"KUWANA SHI","town":"KOGAISU","perfecture_jp":"三重県","jp_add_1":"桑名市","jp_add_2":"小貝須"},"5110946":{"post_code":"5110946","prefecture":"MIE KEN","city":"KUWANA SHI","town":"GOTANDA","perfecture_jp":"三重県","jp_add_1":"桑名市","jp_add_2":"五反田"},"5110061":{"post_code":"5110061","prefecture":"MIE KEN","city":"KUWANA SHI","town":"KOTOBUKICHO","perfecture_jp":"三重県","jp_add_1":"桑名市","jp_add_2":"寿町"},"5110085":{"post_code":"5110085","prefecture":"MIE KEN","city":"KUWANA SHI","town":"KONYAMACHI","perfecture_jp":"三重県","jp_add_1":"桑名市","jp_add_2":"紺屋町"},"5110939":{"post_code":"5110939","prefecture":"MIE KEN","city":"KUWANA SHI","town":"SAKAI","perfecture_jp":"三重県","jp_add_1":"桑名市","jp_add_2":"坂井"},"5110813":{"post_code":"5110813","prefecture":"MIE KEN","city":"KUWANA SHI","town":"SAKURADORI","perfecture_jp":"三重県","jp_add_1":"桑名市","jp_add_2":"桜通"},"5110913":{"post_code":"5110913","prefecture":"MIE KEN","city":"KUWANA SHI","town":"SATOMACHI","perfecture_jp":"三重県","jp_add_1":"桑名市","jp_add_2":"里町"},"5110075":{"post_code":"5110075","prefecture":"MIE KEN","city":"KUWANA SHI","town":"SANEICHO","perfecture_jp":"三重県","jp_add_1":"桑名市","jp_add_2":"三栄町"},"5110007":{"post_code":"5110007","prefecture":"MIE KEN","city":"KUWANA SHI","town":"SANGUDORI","perfecture_jp":"三重県","jp_add_1":"桑名市","jp_add_2":"参宮通"},"5110031":{"post_code":"5110031","prefecture":"MIE KEN","city":"KUWANA SHI","town":"SANNOMARU","perfecture_jp":"三重県","jp_add_1":"桑名市","jp_add_2":"三之丸"},"5110816":{"post_code":"5110816","prefecture":"MIE KEN","city":"KUWANA SHI","town":"SHIOMICHO","perfecture_jp":"三重県","jp_add_1":"桑名市","jp_add_2":"汐見町"},"5110824":{"post_code":"5110824","prefecture":"MIE KEN","city":"KUWANA SHI","town":"SHIGEMATSUSHINDEN","perfecture_jp":"三重県","jp_add_1":"桑名市","jp_add_2":"繁松新田"},"5110034":{"post_code":"5110034","prefecture":"MIE KEN","city":"KUWANA SHI","town":"JIZO","perfecture_jp":"三重県","jp_add_1":"桑名市","jp_add_2":"地蔵"},"5110937":{"post_code":"5110937","prefecture":"MIE KEN","city":"KUWANA SHI","town":"SHICHI","perfecture_jp":"三重県","jp_add_1":"桑名市","jp_add_2":"志知"},"5110936":{"post_code":"5110936","prefecture":"MIE KEN","city":"KUWANA SHI","town":"SHIMADA","perfecture_jp":"三重県","jp_add_1":"桑名市","jp_add_2":"島田"},"5110019":{"post_code":"5110019","prefecture":"MIE KEN","city":"KUWANA SHI","town":"SHIMIZUCHO","perfecture_jp":"三重県","jp_add_1":"桑名市","jp_add_2":"清水町"},"5110808":{"post_code":"5110808","prefecture":"MIE KEN","city":"KUWANA SHI","town":"SHIMOFUKAYABE","perfecture_jp":"三重県","jp_add_1":"桑名市","jp_add_2":"下深谷部"},"5110846":{"post_code":"5110846","prefecture":"MIE KEN","city":"KUWANA SHI","town":"JONANKAYAMACHI","perfecture_jp":"三重県","jp_add_1":"桑名市","jp_add_2":"城南萱町"},"5110083":{"post_code":"5110083","prefecture":"MIE KEN","city":"KUWANA SHI","town":"SHOKUNIMMACHI","perfecture_jp":"三重県","jp_add_1":"桑名市","jp_add_2":"職人町"},"5110924":{"post_code":"5110924","prefecture":"MIE KEN","city":"KUWANA SHI","town":"SHIROYAMADAI","perfecture_jp":"三重県","jp_add_1":"桑名市","jp_add_2":"城山台"},"5110855":{"post_code":"5110855","prefecture":"MIE KEN","city":"KUWANA SHI","town":"SHINKURAMOCHI","perfecture_jp":"三重県","jp_add_1":"桑名市","jp_add_2":"新倉持"},"5110866":{"post_code":"5110866","prefecture":"MIE KEN","city":"KUWANA SHI","town":"SHINSEICHO","perfecture_jp":"三重県","jp_add_1":"桑名市","jp_add_2":"神成町"},"5110832":{"post_code":"5110832","prefecture":"MIE KEN","city":"KUWANA SHI","town":"SHINCHI","perfecture_jp":"三重県","jp_add_1":"桑名市","jp_add_2":"新地"},"5110064":{"post_code":"5110064","prefecture":"MIE KEN","city":"KUWANA SHI","town":"SHINCHIKUCHO","perfecture_jp":"三重県","jp_add_1":"桑名市","jp_add_2":"新築町"},"5110863":{"post_code":"5110863","prefecture":"MIE KEN","city":"KUWANA SHI","town":"SHINNISHIKATA","perfecture_jp":"三重県","jp_add_1":"桑名市","jp_add_2":"新西方"},"5110048":{"post_code":"5110048","prefecture":"MIE KEN","city":"KUWANA SHI","town":"SHIMMACHI","perfecture_jp":"三重県","jp_add_1":"桑名市","jp_add_2":"新町"},"5110043":{"post_code":"5110043","prefecture":"MIE KEN","city":"KUWANA SHI","town":"SHINYASHIKI","perfecture_jp":"三重県","jp_add_1":"桑名市","jp_add_2":"新屋敷"},"5110069":{"post_code":"5110069","prefecture":"MIE KEN","city":"KUWANA SHI","town":"SHINYADA","perfecture_jp":"三重県","jp_add_1":"桑名市","jp_add_2":"新矢田"},"5110077":{"post_code":"5110077","prefecture":"MIE KEN","city":"KUWANA SHI","town":"SUEHIROCHO","perfecture_jp":"三重県","jp_add_1":"桑名市","jp_add_2":"末広町"},"5110004":{"post_code":"5110004","prefecture":"MIE KEN","city":"KUWANA SHI","town":"SUMIYOSHICHO","perfecture_jp":"三重県","jp_add_1":"桑名市","jp_add_2":"住吉町"},"5110011":{"post_code":"5110011","prefecture":"MIE KEN","city":"KUWANA SHI","town":"SEMBACHO","perfecture_jp":"三重県","jp_add_1":"桑名市","jp_add_2":"船馬町"},"5110078":{"post_code":"5110078","prefecture":"MIE KEN","city":"KUWANA SHI","town":"SOEICHO","perfecture_jp":"三重県","jp_add_1":"桑名市","jp_add_2":"桑栄町"},"5110041":{"post_code":"5110041","prefecture":"MIE KEN","city":"KUWANA SHI","town":"SOTOBORI","perfecture_jp":"三重県","jp_add_1":"桑名市","jp_add_2":"外堀"},"5110065":{"post_code":"5110065","prefecture":"MIE KEN","city":"KUWANA SHI","town":"DAIOCHO","perfecture_jp":"三重県","jp_add_1":"桑名市","jp_add_2":"大央町"},"5110005":{"post_code":"5110005","prefecture":"MIE KEN","city":"KUWANA SHI","town":"TAICHIMARU","perfecture_jp":"三重県","jp_add_1":"桑名市","jp_add_2":"太一丸"},"5110834":{"post_code":"5110834","prefecture":"MIE KEN","city":"KUWANA SHI","town":"DAIFUKU","perfecture_jp":"三重県","jp_add_1":"桑名市","jp_add_2":"大福"},"5110843":{"post_code":"5110843","prefecture":"MIE KEN","city":"KUWANA SHI","town":"TAIHEICHO","perfecture_jp":"三重県","jp_add_1":"桑名市","jp_add_2":"太平町"},"5110818":{"post_code":"5110818","prefecture":"MIE KEN","city":"KUWANA SHI","town":"TAKATSUKACHO","perfecture_jp":"三重県","jp_add_1":"桑名市","jp_add_2":"高塚町"},"5110828":{"post_code":"5110828","prefecture":"MIE KEN","city":"KUWANA SHI","town":"TACHIBANACHO","perfecture_jp":"三重県","jp_add_1":"桑名市","jp_add_2":"立花町"},"5110842":{"post_code":"5110842","prefecture":"MIE KEN","city":"KUWANA SHI","town":"TATSUTACHO","perfecture_jp":"三重県","jp_add_1":"桑名市","jp_add_2":"立田町"},"5110124":{"post_code":"5110124","prefecture":"MIE KEN","city":"KUWANA SHI","town":"TADOCHO IKAI","perfecture_jp":"三重県","jp_add_1":"桑名市","jp_add_2":"多度町猪飼"},"5110116":{"post_code":"5110116","prefecture":"MIE KEN","city":"KUWANA SHI","town":"TADOCHO ODORII","perfecture_jp":"三重県","jp_add_1":"桑名市","jp_add_2":"多度町大鳥居"},"5110105":{"post_code":"5110105","prefecture":"MIE KEN","city":"KUWANA SHI","town":"TADOCHO OYAMA","perfecture_jp":"三重県","jp_add_1":"桑名市","jp_add_2":"多度町小山"},"5110102":{"post_code":"5110102","prefecture":"MIE KEN","city":"KUWANA SHI","town":"TADOCHO KATORI","perfecture_jp":"三重県","jp_add_1":"桑名市","jp_add_2":"多度町香取"},"5110113":{"post_code":"5110113","prefecture":"MIE KEN","city":"KUWANA SHI","town":"TADOCHO KAMINOGO","perfecture_jp":"三重県","jp_add_1":"桑名市","jp_add_2":"多度町上之郷"},"5110123":{"post_code":"5110123","prefecture":"MIE KEN","city":"KUWANA SHI","town":"TADOCHO KITAIKAI","perfecture_jp":"三重県","jp_add_1":"桑名市","jp_add_2":"多度町北猪飼"},"5110122":{"post_code":"5110122","prefecture":"MIE KEN","city":"KUWANA SHI","town":"TADOCHO KONO","perfecture_jp":"三重県","jp_add_1":"桑名市","jp_add_2":"多度町古野"},"5110117":{"post_code":"5110117","prefecture":"MIE KEN","city":"KUWANA SHI","town":"TADOCHO SHIMONOSHIRO","perfecture_jp":"三重県","jp_add_1":"桑名市","jp_add_2":"多度町下野代"},"5110106":{"post_code":"5110106","prefecture":"MIE KEN","city":"KUWANA SHI","town":"TADOCHO TADO","perfecture_jp":"三重県","jp_add_1":"桑名市","jp_add_2":"多度町多度"},"5110125":{"post_code":"5110125","prefecture":"MIE KEN","city":"KUWANA SHI","town":"TADOCHO CHIKARAO","perfecture_jp":"三重県","jp_add_1":"桑名市","jp_add_2":"多度町力尾"},"5110103":{"post_code":"5110103","prefecture":"MIE KEN","city":"KUWANA SHI","town":"TADOCHO TOZU","perfecture_jp":"三重県","jp_add_1":"桑名市","jp_add_2":"多度町戸津"},"5110114":{"post_code":"5110114","prefecture":"MIE KEN","city":"KUWANA SHI","town":"TADOCHO NAKAZU","perfecture_jp":"三重県","jp_add_1":"桑名市","jp_add_2":"多度町中須"},"5110104":{"post_code":"5110104","prefecture":"MIE KEN","city":"KUWANA SHI","town":"TADOCHO HIJIE","perfecture_jp":"三重県","jp_add_1":"桑名市","jp_add_2":"多度町肱江"},"5110111":{"post_code":"5110111","prefecture":"MIE KEN","city":"KUWANA SHI","town":"TADOCHO HIRAKO","perfecture_jp":"三重県","jp_add_1":"桑名市","jp_add_2":"多度町平古"},"5110121":{"post_code":"5110121","prefecture":"MIE KEN","city":"KUWANA SHI","town":"TADOCHO BIROKU","perfecture_jp":"三重県","jp_add_1":"桑名市","jp_add_2":"多度町美鹿"},"5110112":{"post_code":"5110112","prefecture":"MIE KEN","city":"KUWANA SHI","town":"TADOCHO FUKUNAGA","perfecture_jp":"三重県","jp_add_1":"桑名市","jp_add_2":"多度町福永"},"5110118":{"post_code":"5110118","prefecture":"MIE KEN","city":"KUWANA SHI","town":"TADOCHO MIZONO","perfecture_jp":"三重県","jp_add_1":"桑名市","jp_add_2":"多度町御衣野"},"5110115":{"post_code":"5110115","prefecture":"MIE KEN","city":"KUWANA SHI","town":"TADOCHO MINAMINOGO","perfecture_jp":"三重県","jp_add_1":"桑名市","jp_add_2":"多度町南之郷"},"5110101":{"post_code":"5110101","prefecture":"MIE KEN","city":"KUWANA SHI","town":"TADOCHO YUI","perfecture_jp":"三重県","jp_add_1":"桑名市","jp_add_2":"多度町柚井"},"5110089":{"post_code":"5110089","prefecture":"MIE KEN","city":"KUWANA SHI","town":"TAMACHI","perfecture_jp":"三重県","jp_add_1":"桑名市","jp_add_2":"田町"},"5110826":{"post_code":"5110826","prefecture":"MIE KEN","city":"KUWANA SHI","town":"TAYU","perfecture_jp":"三重県","jp_add_1":"桑名市","jp_add_2":"太夫"},"5110068":{"post_code":"5110068","prefecture":"MIE KEN","city":"KUWANA SHI","town":"CHUOCHO","perfecture_jp":"三重県","jp_add_1":"桑名市","jp_add_2":"中央町"},"5110058":{"post_code":"5110058","prefecture":"MIE KEN","city":"KUWANA SHI","town":"CHIYODACHO","perfecture_jp":"三重県","jp_add_1":"桑名市","jp_add_2":"千代田町"},"5110945":{"post_code":"5110945","prefecture":"MIE KEN","city":"KUWANA SHI","town":"TSUKUSHI","perfecture_jp":"三重県","jp_add_1":"桑名市","jp_add_2":"筑紫"},"5110901":{"post_code":"5110901","prefecture":"MIE KEN","city":"KUWANA SHI","town":"TSUTSUO","perfecture_jp":"三重県","jp_add_1":"桑名市","jp_add_2":"筒尾"},"5110072":{"post_code":"5110072","prefecture":"MIE KEN","city":"KUWANA SHI","town":"TSUTSUMIHARA","perfecture_jp":"三重県","jp_add_1":"桑名市","jp_add_2":"堤原"},"5110045":{"post_code":"5110045","prefecture":"MIE KEN","city":"KUWANA SHI","town":"TEMMACHO","perfecture_jp":"三重県","jp_add_1":"桑名市","jp_add_2":"伝馬町"},"5110062":{"post_code":"5110062","prefecture":"MIE KEN","city":"KUWANA SHI","town":"TOKIWACHO","perfecture_jp":"三重県","jp_add_1":"桑名市","jp_add_2":"常盤町"},"5110015":{"post_code":"5110015","prefecture":"MIE KEN","city":"KUWANA SHI","town":"TONOMACHI","perfecture_jp":"三重県","jp_add_1":"桑名市","jp_add_2":"殿町"},"5110938":{"post_code":"5110938","prefecture":"MIE KEN","city":"KUWANA SHI","town":"TOMOMURA","perfecture_jp":"三重県","jp_add_1":"桑名市","jp_add_2":"友村"},"5111131":{"post_code":"5111131","prefecture":"MIE KEN","city":"KUWANA SHI","town":"NAGASHIMACHO AKAJI","perfecture_jp":"三重県","jp_add_1":"桑名市","jp_add_2":"長島町赤地"},"5111135":{"post_code":"5111135","prefecture":"MIE KEN","city":"KUWANA SHI","town":"NAGASHIMACHO URAYASU","perfecture_jp":"三重県","jp_add_1":"桑名市","jp_add_2":"長島町浦安"},"5111112":{"post_code":"5111112","prefecture":"MIE KEN","city":"KUWANA SHI","town":"NAGASHIMACHO OKURA","perfecture_jp":"三重県","jp_add_1":"桑名市","jp_add_2":"長島町大倉"},"5111145":{"post_code":"5111145","prefecture":"MIE KEN","city":"KUWANA SHI","town":"NAGASHIMACHO OJIMA","perfecture_jp":"三重県","jp_add_1":"桑名市","jp_add_2":"長島町大島"},"5111113":{"post_code":"5111113","prefecture":"MIE KEN","city":"KUWANA SHI","town":"NAGASHIMACHO OSHITSUKE","perfecture_jp":"三重県","jp_add_1":"桑名市","jp_add_2":"長島町押付"},"5111123":{"post_code":"5111123","prefecture":"MIE KEN","city":"KUWANA SHI","town":"NAGASHIMACHO KAMAGANJI","perfecture_jp":"三重県","jp_add_1":"桑名市","jp_add_2":"長島町鎌ケ地"},"5111107":{"post_code":"5111107","prefecture":"MIE KEN","city":"KUWANA SHI","town":"NAGASHIMACHO KAMISAKATE","perfecture_jp":"三重県","jp_add_1":"桑名市","jp_add_2":"長島町上坂手"},"5111148":{"post_code":"5111148","prefecture":"MIE KEN","city":"KUWANA SHI","town":"NAGASHIMACHO KITATONOME","perfecture_jp":"三重県","jp_add_1":"桑名市","jp_add_2":"長島町北殿名"},"5111125":{"post_code":"5111125","prefecture":"MIE KEN","city":"KUWANA SHI","town":"NAGASHIMACHO GEMBEDOMO","perfecture_jp":"三重県","jp_add_1":"桑名市","jp_add_2":"長島町源部外面"},"5111104":{"post_code":"5111104","prefecture":"MIE KEN","city":"KUWANA SHI","town":"NAGASHIMACHO KOZA","perfecture_jp":"三重県","jp_add_1":"桑名市","jp_add_2":"長島町高座"},"5111111":{"post_code":"5111111","prefecture":"MIE KEN","city":"KUWANA SHI","town":"NAGASHIMACHO KOJIMA","perfecture_jp":"三重県","jp_add_1":"桑名市","jp_add_2":"長島町小島"},"5111144":{"post_code":"5111144","prefecture":"MIE KEN","city":"KUWANA SHI","town":"NAGASHIMACHO KOMAE","perfecture_jp":"三重県","jp_add_1":"桑名市","jp_add_2":"長島町駒江"},"5111106":{"post_code":"5111106","prefecture":"MIE KEN","city":"KUWANA SHI","town":"NAGASHIMACHO SHIMOSAKATE","perfecture_jp":"三重県","jp_add_1":"桑名市","jp_add_2":"長島町下坂手"},"5111101":{"post_code":"5111101","prefecture":"MIE KEN","city":"KUWANA SHI","town":"NAGASHIMACHO SHINSHO","perfecture_jp":"三重県","jp_add_1":"桑名市","jp_add_2":"長島町新所"},"5111108":{"post_code":"5111108","prefecture":"MIE KEN","city":"KUWANA SHI","town":"NAGASHIMACHO SUGIE","perfecture_jp":"三重県","jp_add_1":"桑名市","jp_add_2":"長島町杉江"},"5111105":{"post_code":"5111105","prefecture":"MIE KEN","city":"KUWANA SHI","town":"NAGASHIMACHO CHIKURA","perfecture_jp":"三重県","jp_add_1":"桑名市","jp_add_2":"長島町千倉"},"5111142":{"post_code":"5111142","prefecture":"MIE KEN","city":"KUWANA SHI","town":"NAGASHIMACHO DEGUCHI","perfecture_jp":"三重県","jp_add_1":"桑名市","jp_add_2":"長島町出口"},"5111146":{"post_code":"5111146","prefecture":"MIE KEN","city":"KUWANA SHI","town":"NAGASHIMACHO TOKADOMO","perfecture_jp":"三重県","jp_add_1":"桑名市","jp_add_2":"長島町十日外面"},"5111127":{"post_code":"5111127","prefecture":"MIE KEN","city":"KUWANA SHI","town":"NAGASHIMACHO TONOME","perfecture_jp":"三重県","jp_add_1":"桑名市","jp_add_2":"長島町殿名"},"5111103":{"post_code":"5111103","prefecture":"MIE KEN","city":"KUWANA SHI","town":"NAGASHIMACHO NAKAGAWA","perfecture_jp":"三重県","jp_add_1":"桑名市","jp_add_2":"長島町中川"},"5111116":{"post_code":"5111116","prefecture":"MIE KEN","city":"KUWANA SHI","town":"NAGASHIMACHO NAGASHIMAKAYAMACHI","perfecture_jp":"三重県","jp_add_1":"桑名市","jp_add_2":"長島町長島萱町"},"5111114":{"post_code":"5111114","prefecture":"MIE KEN","city":"KUWANA SHI","town":"NAGASHIMACHO NAGASHIMASHIMOMACHI","perfecture_jp":"三重県","jp_add_1":"桑名市","jp_add_2":"長島町長島下町"},"5111115":{"post_code":"5111115","prefecture":"MIE KEN","city":"KUWANA SHI","town":"NAGASHIMACHO NAGASHIMANAKAMACHI","perfecture_jp":"三重県","jp_add_1":"桑名市","jp_add_2":"長島町長島中町"},"5111102":{"post_code":"5111102","prefecture":"MIE KEN","city":"KUWANA SHI","town":"NAGASHIMACHO NISHIKAWA","perfecture_jp":"三重県","jp_add_1":"桑名市","jp_add_2":"長島町西川"},"5111143":{"post_code":"5111143","prefecture":"MIE KEN","city":"KUWANA SHI","town":"NAGASHIMACHO NISHIDOMO","perfecture_jp":"三重県","jp_add_1":"桑名市","jp_add_2":"長島町西外面"},"5111149":{"post_code":"5111149","prefecture":"MIE KEN","city":"KUWANA SHI","town":"NAGASHIMACHO NISHIDOMOSHIGAI","perfecture_jp":"三重県","jp_add_1":"桑名市","jp_add_2":"長島町西外面市街"},"5111136":{"post_code":"5111136","prefecture":"MIE KEN","city":"KUWANA SHI","town":"NAGASHIMACHO HAKKE","perfecture_jp":"三重県","jp_add_1":"桑名市","jp_add_2":"長島町白鶏"},"5111121":{"post_code":"5111121","prefecture":"MIE KEN","city":"KUWANA SHI","town":"NAGASHIMACHO HIGASHITONOME","perfecture_jp":"三重県","jp_add_1":"桑名市","jp_add_2":"長島町東殿名"},"5111147":{"post_code":"5111147","prefecture":"MIE KEN","city":"KUWANA SHI","town":"NAGASHIMACHO HIRAKATA","perfecture_jp":"三重県","jp_add_1":"桑名市","jp_add_2":"長島町平方"},"5111132":{"post_code":"5111132","prefecture":"MIE KEN","city":"KUWANA SHI","town":"NAGASHIMACHO FUKUTOYO","perfecture_jp":"三重県","jp_add_1":"桑名市","jp_add_2":"長島町福豊"},"5111137":{"post_code":"5111137","prefecture":"MIE KEN","city":"KUWANA SHI","town":"NAGASHIMACHO FUKUYOSHI","perfecture_jp":"三重県","jp_add_1":"桑名市","jp_add_2":"長島町福吉"},"5111126":{"post_code":"5111126","prefecture":"MIE KEN","city":"KUWANA SHI","town":"NAGASHIMACHO MATAGI","perfecture_jp":"三重県","jp_add_1":"桑名市","jp_add_2":"長島町又木"},"5111128":{"post_code":"5111128","prefecture":"MIE KEN","city":"KUWANA SHI","town":"NAGASHIMACHO MATAGISHIGAI","perfecture_jp":"三重県","jp_add_1":"桑名市","jp_add_2":"長島町又木市街"},"5111134":{"post_code":"5111134","prefecture":"MIE KEN","city":"KUWANA SHI","town":"NAGASHIMACHO MATSUKAGE","perfecture_jp":"三重県","jp_add_1":"桑名市","jp_add_2":"長島町松蔭"},"5111122":{"post_code":"5111122","prefecture":"MIE KEN","city":"KUWANA SHI","town":"NAGASHIMACHO MATSUGASHIMA","perfecture_jp":"三重県","jp_add_1":"桑名市","jp_add_2":"長島町松ケ島"},"5111109":{"post_code":"5111109","prefecture":"MIE KEN","city":"KUWANA SHI","town":"NAGASHIMACHO MATSUNOKI","perfecture_jp":"三重県","jp_add_1":"桑名市","jp_add_2":"長島町松之木"},"5111141":{"post_code":"5111141","prefecture":"MIE KEN","city":"KUWANA SHI","town":"NAGASHIMACHO MAMA","perfecture_jp":"三重県","jp_add_1":"桑名市","jp_add_2":"長島町間々"},"5111133":{"post_code":"5111133","prefecture":"MIE KEN","city":"KUWANA SHI","town":"NAGASHIMACHO YOKOMAKURA","perfecture_jp":"三重県","jp_add_1":"桑名市","jp_add_2":"長島町横満蔵"},"5111124":{"post_code":"5111124","prefecture":"MIE KEN","city":"KUWANA SHI","town":"NAGASHIMACHO YOSHIGASU","perfecture_jp":"三重県","jp_add_1":"桑名市","jp_add_2":"長島町葭ケ須"},"5110914":{"post_code":"5110914","prefecture":"MIE KEN","city":"KUWANA SHI","town":"NAKAYAMACHO","perfecture_jp":"三重県","jp_add_1":"桑名市","jp_add_2":"中山町"},"5110864":{"post_code":"5110864","prefecture":"MIE KEN","city":"KUWANA SHI","town":"NISHIKATA","perfecture_jp":"三重県","jp_add_1":"桑名市","jp_add_2":"西方"},"5110922":{"post_code":"5110922","prefecture":"MIE KEN","city":"KUWANA SHI","town":"NISHIKANAI","perfecture_jp":"三重県","jp_add_1":"桑名市","jp_add_2":"西金井"},"5110933":{"post_code":"5110933","prefecture":"MIE KEN","city":"KUWANA SHI","town":"NISHISEIWADAI","perfecture_jp":"三重県","jp_add_1":"桑名市","jp_add_2":"西正和台"},"5110054":{"post_code":"5110054","prefecture":"MIE KEN","city":"KUWANA SHI","town":"NISHINABEYAMACHI","perfecture_jp":"三重県","jp_add_1":"桑名市","jp_add_2":"西鍋屋町"},"5110056":{"post_code":"5110056","prefecture":"MIE KEN","city":"KUWANA SHI","town":"NISHIYADAMACHI","perfecture_jp":"三重県","jp_add_1":"桑名市","jp_add_2":"西矢田町"},"5110807":{"post_code":"5110807","prefecture":"MIE KEN","city":"KUWANA SHI","town":"NISHIYURIAGE","perfecture_jp":"三重県","jp_add_1":"桑名市","jp_add_2":"西汰上"},"5110911":{"post_code":"5110911","prefecture":"MIE KEN","city":"KUWANA SHI","town":"NUKATA","perfecture_jp":"三重県","jp_add_1":"桑名市","jp_add_2":"額田"},"5110904":{"post_code":"5110904","prefecture":"MIE KEN","city":"KUWANA SHI","town":"NODA","perfecture_jp":"三重県","jp_add_1":"桑名市","jp_add_2":"野田"},"5110931":{"post_code":"5110931","prefecture":"MIE KEN","city":"KUWANA SHI","town":"NOMBE","perfecture_jp":"三重県","jp_add_1":"桑名市","jp_add_2":"能部"},"5110944":{"post_code":"5110944","prefecture":"MIE KEN","city":"KUWANA SHI","town":"HAGASAKI","perfecture_jp":"三重県","jp_add_1":"桑名市","jp_add_2":"芳ケ崎"},"5110008":{"post_code":"5110008","prefecture":"MIE KEN","city":"KUWANA SHI","town":"HASUMICHO","perfecture_jp":"三重県","jp_add_1":"桑名市","jp_add_2":"蓮見町"},"5110076":{"post_code":"5110076","prefecture":"MIE KEN","city":"KUWANA SHI","town":"HACHIKENDORI","perfecture_jp":"三重県","jp_add_1":"桑名市","jp_add_2":"八間通"},"5110049":{"post_code":"5110049","prefecture":"MIE KEN","city":"KUWANA SHI","town":"HACHIMANCHO","perfecture_jp":"三重県","jp_add_1":"桑名市","jp_add_2":"八幡町"},"5110862":{"post_code":"5110862","prefecture":"MIE KEN","city":"KUWANA SHI","town":"HARIMA","perfecture_jp":"三重県","jp_add_1":"桑名市","jp_add_2":"播磨"},"5110852":{"post_code":"5110852","prefecture":"MIE KEN","city":"KUWANA SHI","town":"HIEDA","perfecture_jp":"三重県","jp_add_1":"桑名市","jp_add_2":"稗田"},"5110811":{"post_code":"5110811","prefecture":"MIE KEN","city":"KUWANA SHI","town":"HIGASHIKATA","perfecture_jp":"三重県","jp_add_1":"桑名市","jp_add_2":"東方"},"5110921":{"post_code":"5110921","prefecture":"MIE KEN","city":"KUWANA SHI","town":"HIGASHIKANAI","perfecture_jp":"三重県","jp_add_1":"桑名市","jp_add_2":"東金井"},"5110932":{"post_code":"5110932","prefecture":"MIE KEN","city":"KUWANA SHI","town":"HIGASHISEIWADAI","perfecture_jp":"三重県","jp_add_1":"桑名市","jp_add_2":"東正和台"},"5110003":{"post_code":"5110003","prefecture":"MIE KEN","city":"KUWANA SHI","town":"HIGASHITAICHIMARU","perfecture_jp":"三重県","jp_add_1":"桑名市","jp_add_2":"東太一丸"},"5110053":{"post_code":"5110053","prefecture":"MIE KEN","city":"KUWANA SHI","town":"HIGASHINABEYAMACHI","perfecture_jp":"三重県","jp_add_1":"桑名市","jp_add_2":"東鍋屋町"},"5110035":{"post_code":"5110035","prefecture":"MIE KEN","city":"KUWANA SHI","town":"HIGASHINO","perfecture_jp":"三重県","jp_add_1":"桑名市","jp_add_2":"東野"},"5110055":{"post_code":"5110055","prefecture":"MIE KEN","city":"KUWANA SHI","town":"HIGASHIYADAMACHI","perfecture_jp":"三重県","jp_add_1":"桑名市","jp_add_2":"東矢田町"},"5110806":{"post_code":"5110806","prefecture":"MIE KEN","city":"KUWANA SHI","town":"HIGASHIYURIAGE","perfecture_jp":"三重県","jp_add_1":"桑名市","jp_add_2":"東汰上"},"5110867":{"post_code":"5110867","prefecture":"MIE KEN","city":"KUWANA SHI","town":"HIDAMARINOKA","perfecture_jp":"三重県","jp_add_1":"桑名市","jp_add_2":"陽だまりの丘"},"5110942":{"post_code":"5110942","prefecture":"MIE KEN","city":"KUWANA SHI","town":"HIROMIGAOKA","perfecture_jp":"三重県","jp_add_1":"桑名市","jp_add_2":"広見ケ丘"},"5110803":{"post_code":"5110803","prefecture":"MIE KEN","city":"KUWANA SHI","town":"BIWAJIMADAI","perfecture_jp":"三重県","jp_add_1":"桑名市","jp_add_2":"枇杷島台"},"5110805":{"post_code":"5110805","prefecture":"MIE KEN","city":"KUWANA SHI","town":"FUKAYACHO","perfecture_jp":"三重県","jp_add_1":"桑名市","jp_add_2":"深谷町"},"5110847":{"post_code":"5110847","prefecture":"MIE KEN","city":"KUWANA SHI","town":"FUKUE","perfecture_jp":"三重県","jp_add_1":"桑名市","jp_add_2":"福江"},"5110833":{"post_code":"5110833","prefecture":"MIE KEN","city":"KUWANA SHI","town":"FUKUEMACHI","perfecture_jp":"三重県","jp_add_1":"桑名市","jp_add_2":"福江町"},"5110844":{"post_code":"5110844","prefecture":"MIE KEN","city":"KUWANA SHI","town":"FUKUOKACHO","perfecture_jp":"三重県","jp_add_1":"桑名市","jp_add_2":"福岡町"},"5110002":{"post_code":"5110002","prefecture":"MIE KEN","city":"KUWANA SHI","town":"FUKUJIMA","perfecture_jp":"三重県","jp_add_1":"桑名市","jp_add_2":"福島"},"5110027":{"post_code":"5110027","prefecture":"MIE KEN","city":"KUWANA SHI","town":"FUKUJIMASHIMMACHI","perfecture_jp":"三重県","jp_add_1":"桑名市","jp_add_2":"福島新町"},"5110845":{"post_code":"5110845","prefecture":"MIE KEN","city":"KUWANA SHI","town":"FUKUCHI","perfecture_jp":"三重県","jp_add_1":"桑名市","jp_add_2":"福地"},"5110865":{"post_code":"5110865","prefecture":"MIE KEN","city":"KUWANA SHI","town":"FUJIGAOKA","perfecture_jp":"三重県","jp_add_1":"桑名市","jp_add_2":"藤が丘"},"5110025":{"post_code":"5110025","prefecture":"MIE KEN","city":"KUWANA SHI","town":"FUROMACHI","perfecture_jp":"三重県","jp_add_1":"桑名市","jp_add_2":"風呂町"},"5110013":{"post_code":"5110013","prefecture":"MIE KEN","city":"KUWANA SHI","town":"HODEMMACHI","perfecture_jp":"三重県","jp_add_1":"桑名市","jp_add_2":"宝殿町"},"5110912":{"post_code":"5110912","prefecture":"MIE KEN","city":"KUWANA SHI","town":"HOSHIMIGAOKA","perfecture_jp":"三重県","jp_add_1":"桑名市","jp_add_2":"星川"},"5110835":{"post_code":"5110835","prefecture":"MIE KEN","city":"KUWANA SHI","town":"HONGANJI","perfecture_jp":"三重県","jp_add_1":"桑名市","jp_add_2":"本願寺"},"5110023":{"post_code":"5110023","prefecture":"MIE KEN","city":"KUWANA SHI","town":"HOMMACHI","perfecture_jp":"三重県","jp_add_1":"桑名市","jp_add_2":"本町"},"5110831":{"post_code":"5110831","prefecture":"MIE KEN","city":"KUWANA SHI","town":"MASUOCHO","perfecture_jp":"三重県","jp_add_1":"桑名市","jp_add_2":"益生町"},"5110853":{"post_code":"5110853","prefecture":"MIE KEN","city":"KUWANA SHI","town":"MASUDA","perfecture_jp":"三重県","jp_add_1":"桑名市","jp_add_2":"増田"},"5110814":{"post_code":"5110814","prefecture":"MIE KEN","city":"KUWANA SHI","town":"MATSUNAMICHO","perfecture_jp":"三重県","jp_add_1":"桑名市","jp_add_2":"松並町"},"5110902":{"post_code":"5110902","prefecture":"MIE KEN","city":"KUWANA SHI","town":"MATSUNOKI","perfecture_jp":"三重県","jp_add_1":"桑名市","jp_add_2":"松ノ木"},"5110014":{"post_code":"5110014","prefecture":"MIE KEN","city":"KUWANA SHI","town":"MISAKIDORI","perfecture_jp":"三重県","jp_add_1":"桑名市","jp_add_2":"三崎通"},"5110057":{"post_code":"5110057","prefecture":"MIE KEN","city":"KUWANA SHI","town":"MITSUYABASHI","perfecture_jp":"三重県","jp_add_1":"桑名市","jp_add_2":"三ツ矢橋"},"5110088":{"post_code":"5110088","prefecture":"MIE KEN","city":"KUWANA SHI","town":"MINAMIUOMACHI","perfecture_jp":"三重県","jp_add_1":"桑名市","jp_add_2":"南魚町"},"5110074":{"post_code":"5110074","prefecture":"MIE KEN","city":"KUWANA SHI","town":"MINAMITERAMACHI","perfecture_jp":"三重県","jp_add_1":"桑名市","jp_add_2":"南寺町"},"5110082":{"post_code":"5110082","prefecture":"MIE KEN","city":"KUWANA SHI","town":"MIYADORI","perfecture_jp":"三重県","jp_add_1":"桑名市","jp_add_2":"宮通"},"5110026":{"post_code":"5110026","prefecture":"MIE KEN","city":"KUWANA SHI","town":"MIYAMACHI","perfecture_jp":"三重県","jp_add_1":"桑名市","jp_add_2":"宮町"},"5110823":{"post_code":"5110823","prefecture":"MIE KEN","city":"KUWANA SHI","town":"MEISEICHO","perfecture_jp":"三重県","jp_add_1":"桑名市","jp_add_2":"明正町"},"5110037":{"post_code":"5110037","prefecture":"MIE KEN","city":"KUWANA SHI","town":"MOTOAKASUKA","perfecture_jp":"三重県","jp_add_1":"桑名市","jp_add_2":"元赤須賀"},"5110943":{"post_code":"5110943","prefecture":"MIE KEN","city":"KUWANA SHI","town":"MORITADA","perfecture_jp":"三重県","jp_add_1":"桑名市","jp_add_2":"森忠"},"5110839":{"post_code":"5110839","prefecture":"MIE KEN","city":"KUWANA SHI","town":"YASUNAGA","perfecture_jp":"三重県","jp_add_1":"桑名市","jp_add_2":"安永"},"5110821":{"post_code":"5110821","prefecture":"MIE KEN","city":"KUWANA SHI","town":"YADA","perfecture_jp":"三重県","jp_add_1":"桑名市","jp_add_2":"矢田"},"5110051":{"post_code":"5110051","prefecture":"MIE KEN","city":"KUWANA SHI","town":"YADAKAWARA","perfecture_jp":"三重県","jp_add_1":"桑名市","jp_add_2":"矢田磧"},"5110042":{"post_code":"5110042","prefecture":"MIE KEN","city":"KUWANA SHI","town":"YANAGIHARA","perfecture_jp":"三重県","jp_add_1":"桑名市","jp_add_2":"柳原"},"5110079":{"post_code":"5110079","prefecture":"MIE KEN","city":"KUWANA SHI","town":"YURAKUCHO","perfecture_jp":"三重県","jp_add_1":"桑名市","jp_add_2":"有楽町"},"5110032":{"post_code":"5110032","prefecture":"MIE KEN","city":"KUWANA SHI","town":"YOSHINOMARU","perfecture_jp":"三重県","jp_add_1":"桑名市","jp_add_2":"吉之丸"},"5110087":{"post_code":"5110087","prefecture":"MIE KEN","city":"KUWANA SHI","town":"YOTSUYACHO","perfecture_jp":"三重県","jp_add_1":"桑名市","jp_add_2":"吉津屋町"},"5110854":{"post_code":"5110854","prefecture":"MIE KEN","city":"KUWANA SHI","town":"RENGEJI","perfecture_jp":"三重県","jp_add_1":"桑名市","jp_add_2":"蓮花寺"},"5110200":{"post_code":"5110200","prefecture":"MIE KEN","city":"INABE GUN TOIN CHO","town":"IKANIKEISAIGANAIBAAI","perfecture_jp":"三重県","jp_add_1":"いなべ市","jp_add_2":""},"5110204":{"post_code":"5110204","prefecture":"MIE KEN","city":"INABE SHI","town":"INABECHO ISHIBOTOKE","perfecture_jp":"三重県","jp_add_1":"いなべ市","jp_add_2":"員弁町石仏"},"5110201":{"post_code":"5110201","prefecture":"MIE KEN","city":"INABE SHI","town":"INABECHO ICHINOHARA","perfecture_jp":"三重県","jp_add_1":"いなべ市","jp_add_2":"員弁町市之原"},"5110206":{"post_code":"5110206","prefecture":"MIE KEN","city":"INABE SHI","town":"INABECHO UNO","perfecture_jp":"三重県","jp_add_1":"いなべ市","jp_add_2":"員弁町宇野"},"5110224":{"post_code":"5110224","prefecture":"MIE KEN","city":"INABE SHI","town":"INABECHO OIZUMI","perfecture_jp":"三重県","jp_add_1":"いなべ市","jp_add_2":"員弁町大泉"},"5110217":{"post_code":"5110217","prefecture":"MIE KEN","city":"INABE SHI","town":"INABECHO OIZUMISHINDEN","perfecture_jp":"三重県","jp_add_1":"いなべ市","jp_add_2":"員弁町大泉新田"},"5110214":{"post_code":"5110214","prefecture":"MIE KEN","city":"INABE SHI","town":"INABECHO OKACHODA","perfecture_jp":"三重県","jp_add_1":"いなべ市","jp_add_2":"員弁町岡丁田"},"5110205":{"post_code":"5110205","prefecture":"MIE KEN","city":"INABE SHI","town":"INABECHO KASADASHINDEN","perfecture_jp":"三重県","jp_add_1":"いなべ市","jp_add_2":"員弁町笠田新田"},"5110207":{"post_code":"5110207","prefecture":"MIE KEN","city":"INABE SHI","town":"INABECHO KAMIKASADA","perfecture_jp":"三重県","jp_add_1":"いなべ市","jp_add_2":"員弁町上笠田"},"5110223":{"post_code":"5110223","prefecture":"MIE KEN","city":"INABE SHI","town":"INABECHO KITAKANAI","perfecture_jp":"三重県","jp_add_1":"いなべ市","jp_add_2":"員弁町北金井"},"5110213":{"post_code":"5110213","prefecture":"MIE KEN","city":"INABE SHI","town":"INABECHO KURAGARI","perfecture_jp":"三重県","jp_add_1":"いなべ市","jp_add_2":"員弁町暮明"},"5110221":{"post_code":"5110221","prefecture":"MIE KEN","city":"INABE SHI","town":"INABECHO SHIMOKASADA","perfecture_jp":"三重県","jp_add_1":"いなべ市","jp_add_2":"員弁町下笠田"},"5110202":{"post_code":"5110202","prefecture":"MIE KEN","city":"INABE SHI","town":"INABECHO SOHARA","perfecture_jp":"三重県","jp_add_1":"いなべ市","jp_add_2":"員弁町楚原"},"5110225":{"post_code":"5110225","prefecture":"MIE KEN","city":"INABE SHI","town":"INABECHO NISHIGATA","perfecture_jp":"三重県","jp_add_1":"いなべ市","jp_add_2":"員弁町西方"},"5110203":{"post_code":"5110203","prefecture":"MIE KEN","city":"INABE SHI","town":"INABECHO HATASHINDEN","perfecture_jp":"三重県","jp_add_1":"いなべ市","jp_add_2":"員弁町畑新田"},"5110208":{"post_code":"5110208","prefecture":"MIE KEN","city":"INABE SHI","town":"INABECHO BANDOSHINDEN","perfecture_jp":"三重県","jp_add_1":"いなべ市","jp_add_2":"員弁町坂東新田"},"5110215":{"post_code":"5110215","prefecture":"MIE KEN","city":"INABE SHI","town":"INABECHO HIGASHIISSHIKI","perfecture_jp":"三重県","jp_add_1":"いなべ市","jp_add_2":"員弁町東一色"},"5110212":{"post_code":"5110212","prefecture":"MIE KEN","city":"INABE SHI","town":"INABECHO HIRAKO","perfecture_jp":"三重県","jp_add_1":"いなべ市","jp_add_2":"員弁町平古"},"5110211":{"post_code":"5110211","prefecture":"MIE KEN","city":"INABE SHI","town":"INABECHO MATSUNASHINDEN","perfecture_jp":"三重県","jp_add_1":"いなべ市","jp_add_2":"員弁町松名新田"},"5110216":{"post_code":"5110216","prefecture":"MIE KEN","city":"INABE SHI","town":"INABECHO MATSUNOKI","perfecture_jp":"三重県","jp_add_1":"いなべ市","jp_add_2":"員弁町松之木"},"5110222":{"post_code":"5110222","prefecture":"MIE KEN","city":"INABE SHI","town":"INABECHO MISONO","perfecture_jp":"三重県","jp_add_1":"いなべ市","jp_add_2":"員弁町御薗"},"5110267":{"post_code":"5110267","prefecture":"MIE KEN","city":"INABE SHI","town":"DAIANCHO ISHIGUREKITAYAMA","perfecture_jp":"三重県","jp_add_1":"いなべ市","jp_add_2":"大安町石榑北山"},"5110276":{"post_code":"5110276","prefecture":"MIE KEN","city":"INABE SHI","town":"DAIANCHO ISHIGURESHIMO","perfecture_jp":"三重県","jp_add_1":"いなべ市","jp_add_2":"大安町石榑下"},"5110264":{"post_code":"5110264","prefecture":"MIE KEN","city":"INABE SHI","town":"DAIANCHO ISHIGUREHIGASHI","perfecture_jp":"三重県","jp_add_1":"いなべ市","jp_add_2":"大安町石榑東"},"5110266":{"post_code":"5110266","prefecture":"MIE KEN","city":"INABE SHI","town":"DAIANCHO ISHIGUREMINAMI","perfecture_jp":"三重県","jp_add_1":"いなべ市","jp_add_2":"大安町石榑南"},"5110265":{"post_code":"5110265","prefecture":"MIE KEN","city":"INABE SHI","town":"DAIANCHO ISHIGUREKITA","perfecture_jp":"三重県","jp_add_1":"いなべ市","jp_add_2":"大安町石榑北"},"5110286":{"post_code":"5110286","prefecture":"MIE KEN","city":"INABE SHI","town":"DAIANCHO UGA","perfecture_jp":"三重県","jp_add_1":"いなべ市","jp_add_2":"大安町宇賀"},"5110285":{"post_code":"5110285","prefecture":"MIE KEN","city":"INABE SHI","town":"DAIANCHO UGASHINDEN","perfecture_jp":"三重県","jp_add_1":"いなべ市","jp_add_2":"大安町宇賀新田"},"5110284":{"post_code":"5110284","prefecture":"MIE KEN","city":"INABE SHI","town":"DAIANCHO UMEDO","perfecture_jp":"三重県","jp_add_1":"いなべ市","jp_add_2":"大安町梅戸"},"5110282":{"post_code":"5110282","prefecture":"MIE KEN","city":"INABE SHI","town":"DAIANCHO OIZUMI","perfecture_jp":"三重県","jp_add_1":"いなべ市","jp_add_2":"大安町大泉"},"5110274":{"post_code":"5110274","prefecture":"MIE KEN","city":"INABE SHI","town":"DAIANCHO OIDA","perfecture_jp":"三重県","jp_add_1":"いなべ市","jp_add_2":"大安町大井田"},"5110271":{"post_code":"5110271","prefecture":"MIE KEN","city":"INABE SHI","town":"DAIANCHO KATAHI","perfecture_jp":"三重県","jp_add_1":"いなべ市","jp_add_2":"大安町片樋"},"5110272":{"post_code":"5110272","prefecture":"MIE KEN","city":"INABE SHI","town":"DAIANCHO TAKAYANAGI","perfecture_jp":"三重県","jp_add_1":"いなべ市","jp_add_2":"大安町高柳"},"5110287":{"post_code":"5110287","prefecture":"MIE KEN","city":"INABE SHI","town":"DAIANCHO CHUOGAOKA","perfecture_jp":"三重県","jp_add_1":"いなべ市","jp_add_2":"大安町中央ケ丘"},"5110275":{"post_code":"5110275","prefecture":"MIE KEN","city":"INABE SHI","town":"DAIANCHO NABESAKA","perfecture_jp":"三重県","jp_add_1":"いなべ市","jp_add_2":"大安町鍋坂"},"5110261":{"post_code":"5110261","prefecture":"MIE KEN","city":"INABE SHI","town":"DAIANCHO NYUGAWAKAMI","perfecture_jp":"三重県","jp_add_1":"いなべ市","jp_add_2":"大安町丹生川上"},"5110262":{"post_code":"5110262","prefecture":"MIE KEN","city":"INABE SHI","town":"DAIANCHO NYUGAWANAKA","perfecture_jp":"三重県","jp_add_1":"いなべ市","jp_add_2":"大安町丹生川中"},"5110263":{"post_code":"5110263","prefecture":"MIE KEN","city":"INABE SHI","town":"DAIANCHO NYUGAWAHISAKA","perfecture_jp":"三重県","jp_add_1":"いなべ市","jp_add_2":"大安町丹生川久下"},"5110273":{"post_code":"5110273","prefecture":"MIE KEN","city":"INABE SHI","town":"DAIANCHO HIRATSUKA","perfecture_jp":"三重県","jp_add_1":"いなべ市","jp_add_2":"大安町平塚"},"5110283":{"post_code":"5110283","prefecture":"MIE KEN","city":"INABE SHI","town":"DAIANCHO MINAMIKANAI","perfecture_jp":"三重県","jp_add_1":"いなべ市","jp_add_2":"大安町南金井"},"5110281":{"post_code":"5110281","prefecture":"MIE KEN","city":"INABE SHI","town":"DAIANCHO MONZEN","perfecture_jp":"三重県","jp_add_1":"いなべ市","jp_add_2":"大安町門前"},"5110514":{"post_code":"5110514","prefecture":"MIE KEN","city":"INABE SHI","town":"FUJIWARACHO ISHIKAWA","perfecture_jp":"三重県","jp_add_1":"いなべ市","jp_add_2":"藤原町石川"},"5110511":{"post_code":"5110511","prefecture":"MIE KEN","city":"INABE SHI","town":"FUJIWARACHO ICHIBA","perfecture_jp":"三重県","jp_add_1":"いなべ市","jp_add_2":"藤原町市場"},"5110507":{"post_code":"5110507","prefecture":"MIE KEN","city":"INABE SHI","town":"FUJIWARACHO UENOYAMADA","perfecture_jp":"三重県","jp_add_1":"いなべ市","jp_add_2":"藤原町上之山田"},"5110517":{"post_code":"5110517","prefecture":"MIE KEN","city":"INABE SHI","town":"FUJIWARACHO OGAITO","perfecture_jp":"三重県","jp_add_1":"いなべ市","jp_add_2":"藤原町大貝戸"},"5110501":{"post_code":"5110501","prefecture":"MIE KEN","city":"INABE SHI","town":"FUJIWARACHO KANAE","perfecture_jp":"三重県","jp_add_1":"いなべ市","jp_add_2":"藤原町鼎"},"5110502":{"post_code":"5110502","prefecture":"MIE KEN","city":"INABE SHI","town":"FUJIWARACHO KAMIAIBA","perfecture_jp":"三重県","jp_add_1":"いなべ市","jp_add_2":"藤原町上相場"},"5110504":{"post_code":"5110504","prefecture":"MIE KEN","city":"INABE SHI","town":"FUJIWARACHO KAWAI","perfecture_jp":"三重県","jp_add_1":"いなべ市","jp_add_2":"藤原町川合"},"5110518":{"post_code":"5110518","prefecture":"MIE KEN","city":"INABE SHI","town":"FUJIWARACHO SAKAMOTO","perfecture_jp":"三重県","jp_add_1":"いなべ市","jp_add_2":"藤原町坂本"},"5110522":{"post_code":"5110522","prefecture":"MIE KEN","city":"INABE SHI","town":"FUJIWARACHO SHINODACHI","perfecture_jp":"三重県","jp_add_1":"いなべ市","jp_add_2":"藤原町篠立"},"5110503":{"post_code":"5110503","prefecture":"MIE KEN","city":"INABE SHI","town":"FUJIWARACHO SHIMOAIBA","perfecture_jp":"三重県","jp_add_1":"いなべ市","jp_add_2":"藤原町下相場"},"5110513":{"post_code":"5110513","prefecture":"MIE KEN","city":"INABE SHI","town":"FUJIWARACHO SHIMONOJIRI","perfecture_jp":"三重県","jp_add_1":"いなべ市","jp_add_2":"藤原町下野尻"},"5110512":{"post_code":"5110512","prefecture":"MIE KEN","city":"INABE SHI","town":"FUJIWARACHO SHIREISHISHINDEN","perfecture_jp":"三重県","jp_add_1":"いなべ市","jp_add_2":"藤原町志礼石新田"},"5110515":{"post_code":"5110515","prefecture":"MIE KEN","city":"INABE SHI","town":"FUJIWARACHO TOZENJI","perfecture_jp":"三重県","jp_add_1":"いなべ市","jp_add_2":"藤原町東禅寺"},"5110506":{"post_code":"5110506","prefecture":"MIE KEN","city":"INABE SHI","town":"FUJIWARACHO NAGAO","perfecture_jp":"三重県","jp_add_1":"いなべ市","jp_add_2":"藤原町長尾"},"5110516":{"post_code":"5110516","prefecture":"MIE KEN","city":"INABE SHI","town":"FUJIWARACHO NISHINOJIRI","perfecture_jp":"三重県","jp_add_1":"いなべ市","jp_add_2":"藤原町西野尻"},"5110505":{"post_code":"5110505","prefecture":"MIE KEN","city":"INABE SHI","town":"FUJIWARACHO HINAI","perfecture_jp":"三重県","jp_add_1":"いなべ市","jp_add_2":"藤原町日内"},"5110508":{"post_code":"5110508","prefecture":"MIE KEN","city":"INABE SHI","town":"FUJIWARACHO FUJIGAOKA","perfecture_jp":"三重県","jp_add_1":"いなべ市","jp_add_2":"藤原町藤ケ丘"},"5110521":{"post_code":"5110521","prefecture":"MIE KEN","city":"INABE SHI","town":"FUJIWARACHO FURUTA","perfecture_jp":"三重県","jp_add_1":"いなべ市","jp_add_2":"藤原町古田"},"5110519":{"post_code":"5110519","prefecture":"MIE KEN","city":"INABE SHI","town":"FUJIWARACHO BETSUMYO","perfecture_jp":"三重県","jp_add_1":"いなべ市","jp_add_2":"藤原町別名"},"5110523":{"post_code":"5110523","prefecture":"MIE KEN","city":"INABE SHI","town":"FUJIWARACHO HONGO","perfecture_jp":"三重県","jp_add_1":"いなべ市","jp_add_2":"藤原町本郷"},"5110524":{"post_code":"5110524","prefecture":"MIE KEN","city":"INABE SHI","town":"FUJIWARACHO YAMAGUCHI","perfecture_jp":"三重県","jp_add_1":"いなべ市","jp_add_2":"藤原町山口"},"5110428":{"post_code":"5110428","prefecture":"MIE KEN","city":"INABE SHI","town":"HOKUSEICHO AGEKI","perfecture_jp":"三重県","jp_add_1":"いなべ市","jp_add_2":"北勢町阿下喜"},"5110416":{"post_code":"5110416","prefecture":"MIE KEN","city":"INABE SHI","town":"HOKUSEICHO IGURA","perfecture_jp":"三重県","jp_add_1":"いなべ市","jp_add_2":"北勢町飯倉"},"5110427":{"post_code":"5110427","prefecture":"MIE KEN","city":"INABE SHI","town":"HOKUSEICHO ODA","perfecture_jp":"三重県","jp_add_1":"いなべ市","jp_add_2":"北勢町麻生田"},"5110425":{"post_code":"5110425","prefecture":"MIE KEN","city":"INABE SHI","town":"HOKUSEICHO OTSUJISHINDEN","perfecture_jp":"三重県","jp_add_1":"いなべ市","jp_add_2":"北勢町大辻新田"},"5110435":{"post_code":"5110435","prefecture":"MIE KEN","city":"INABE SHI","town":"HOKUSEICHO OKUMURA","perfecture_jp":"三重県","jp_add_1":"いなべ市","jp_add_2":"北勢町奥村"},"5110437":{"post_code":"5110437","prefecture":"MIE KEN","city":"INABE SHI","town":"HOKUSEICHO KAITO","perfecture_jp":"三重県","jp_add_1":"いなべ市","jp_add_2":"北勢町垣内"},"5110401":{"post_code":"5110401","prefecture":"MIE KEN","city":"INABE SHI","town":"HOKUSEICHO KAWAHARA","perfecture_jp":"三重県","jp_add_1":"いなべ市","jp_add_2":"北勢町川原"},"5110422":{"post_code":"5110422","prefecture":"MIE KEN","city":"INABE SHI","town":"HOKUSEICHO KITANAKATSUHARA","perfecture_jp":"三重県","jp_add_1":"いなべ市","jp_add_2":"北勢町北中津原"},"5110411":{"post_code":"5110411","prefecture":"MIE KEN","city":"INABE SHI","town":"HOKUSEICHO KYOGANOSHINDEN","perfecture_jp":"三重県","jp_add_1":"いなべ市","jp_add_2":"北勢町京ケ野新田"},"5110404":{"post_code":"5110404","prefecture":"MIE KEN","city":"INABE SHI","town":"HOKUSEICHO KOHARAISSHIKI","perfecture_jp":"三重県","jp_add_1":"いなべ市","jp_add_2":"北勢町小原一色"},"5110406":{"post_code":"5110406","prefecture":"MIE KEN","city":"INABE SHI","town":"HOKUSEICHO SHIOSAKI","perfecture_jp":"三重県","jp_add_1":"いなべ市","jp_add_2":"北勢町塩崎"},"5110418":{"post_code":"5110418","prefecture":"MIE KEN","city":"INABE SHI","town":"HOKUSEICHO SHIMOHIRA","perfecture_jp":"三重県","jp_add_1":"いなべ市","jp_add_2":"北勢町下平"},"5110436":{"post_code":"5110436","prefecture":"MIE KEN","city":"INABE SHI","town":"HOKUSEICHO SHIMMACHI","perfecture_jp":"三重県","jp_add_1":"いなべ市","jp_add_2":"北勢町新町"},"5110417":{"post_code":"5110417","prefecture":"MIE KEN","city":"INABE SHI","town":"HOKUSEICHO SEGI","perfecture_jp":"三重県","jp_add_1":"いなべ市","jp_add_2":"北勢町瀬木"},"5110402":{"post_code":"5110402","prefecture":"MIE KEN","city":"INABE SHI","town":"HOKUSEICHO SENJIGURESHINDEN","perfecture_jp":"三重県","jp_add_1":"いなべ市","jp_add_2":"北勢町千司久連新田"},"5110426":{"post_code":"5110426","prefecture":"MIE KEN","city":"INABE SHI","town":"HOKUSEICHO SONOHARA","perfecture_jp":"三重県","jp_add_1":"いなべ市","jp_add_2":"北勢町其原"},"5110405":{"post_code":"5110405","prefecture":"MIE KEN","city":"INABE SHI","town":"HOKUSEICHO TANABE","perfecture_jp":"三重県","jp_add_1":"いなべ市","jp_add_2":"北勢町田辺"},"5110421":{"post_code":"5110421","prefecture":"MIE KEN","city":"INABE SHI","town":"HOKUSEICHO TSUZUMI","perfecture_jp":"三重県","jp_add_1":"いなべ市","jp_add_2":"北勢町皷"},"5110433":{"post_code":"5110433","prefecture":"MIE KEN","city":"INABE SHI","town":"HOKUSEICHO NAKAYAMA","perfecture_jp":"三重県","jp_add_1":"いなべ市","jp_add_2":"北勢町中山"},"5110414":{"post_code":"5110414","prefecture":"MIE KEN","city":"INABE SHI","town":"HOKUSEICHO NISHIKAINO","perfecture_jp":"三重県","jp_add_1":"いなべ市","jp_add_2":"北勢町西貝野"},"5110403":{"post_code":"5110403","prefecture":"MIE KEN","city":"INABE SHI","town":"HOKUSEICHO NINOSE","perfecture_jp":"三重県","jp_add_1":"いなべ市","jp_add_2":"北勢町二之瀬"},"5110413":{"post_code":"5110413","prefecture":"MIE KEN","city":"INABE SHI","town":"HOKUSEICHO HATAKE","perfecture_jp":"三重県","jp_add_1":"いなべ市","jp_add_2":"北勢町畑毛"},"5110438":{"post_code":"5110438","prefecture":"MIE KEN","city":"INABE SHI","town":"HOKUSEICHO HATTADOMO","perfecture_jp":"三重県","jp_add_1":"いなべ市","jp_add_2":"北勢町治田外面"},"5110415":{"post_code":"5110415","prefecture":"MIE KEN","city":"INABE SHI","town":"HOKUSEICHO HIGASHIKAINO","perfecture_jp":"三重県","jp_add_1":"いなべ市","jp_add_2":"北勢町東貝野"},"5110432":{"post_code":"5110432","prefecture":"MIE KEN","city":"INABE SHI","town":"HOKUSEICHO HIGASHIMURA","perfecture_jp":"三重県","jp_add_1":"いなべ市","jp_add_2":"北勢町東村"},"5110423":{"post_code":"5110423","prefecture":"MIE KEN","city":"INABE SHI","town":"HOKUSEICHO HIRANOSHINDEN","perfecture_jp":"三重県","jp_add_1":"いなべ市","jp_add_2":"北勢町平野新田"},"5110434":{"post_code":"5110434","prefecture":"MIE KEN","city":"INABE SHI","town":"HOKUSEICHO FUMOTOMURA","perfecture_jp":"三重県","jp_add_1":"いなべ市","jp_add_2":"北勢町麓村"},"5110431":{"post_code":"5110431","prefecture":"MIE KEN","city":"INABE SHI","town":"HOKUSEICHO BETSUMYO","perfecture_jp":"三重県","jp_add_1":"いなべ市","jp_add_2":"北勢町別名"},"5110424":{"post_code":"5110424","prefecture":"MIE KEN","city":"INABE SHI","town":"HOKUSEICHO MINAMINAKATSUHARA","perfecture_jp":"三重県","jp_add_1":"いなべ市","jp_add_2":"北勢町南中津原"},"5110412":{"post_code":"5110412","prefecture":"MIE KEN","city":"INABE SHI","town":"HOKUSEICHO MUKOHIRA","perfecture_jp":"三重県","jp_add_1":"いなべ市","jp_add_2":"北勢町向平"},"5110243":{"post_code":"5110243","prefecture":"MIE KEN","city":"INABE GUN TOIN CHO","town":"ANO","perfecture_jp":"三重県","jp_add_1":"員弁郡東員町","jp_add_2":"穴太"},"5110244":{"post_code":"5110244","prefecture":"MIE KEN","city":"INABE GUN TOIN CHO","town":"OKI","perfecture_jp":"三重県","jp_add_1":"員弁郡東員町","jp_add_2":"大木"},"5110257":{"post_code":"5110257","prefecture":"MIE KEN","city":"INABE GUN TOIN CHO","town":"KITAOYASHIRO","perfecture_jp":"三重県","jp_add_1":"員弁郡東員町","jp_add_2":"北大社"},"5110251":{"post_code":"5110251","prefecture":"MIE KEN","city":"INABE GUN TOIN CHO","town":"YAMADA","perfecture_jp":"三重県","jp_add_1":"員弁郡東員町","jp_add_2":"北山田"},"5110232":{"post_code":"5110232","prefecture":"MIE KEN","city":"INABE GUN TOIN CHO","town":"SASAOHIGASHI","perfecture_jp":"三重県","jp_add_1":"員弁郡東員町","jp_add_2":"笹尾東"},"5110231":{"post_code":"5110231","prefecture":"MIE KEN","city":"INABE GUN TOIN CHO","town":"SASAONISHI","perfecture_jp":"三重県","jp_add_1":"員弁郡東員町","jp_add_2":"笹尾西"},"5110233":{"post_code":"5110233","prefecture":"MIE KEN","city":"INABE GUN TOIN CHO","town":"SHIROYAMA","perfecture_jp":"三重県","jp_add_1":"員弁郡東員町","jp_add_2":"城山"},"5110252":{"post_code":"5110252","prefecture":"MIE KEN","city":"INABE GUN TOIN CHO","town":"SEKOIZUMI","perfecture_jp":"三重県","jp_add_1":"員弁郡東員町","jp_add_2":"瀬古泉"},"5110253":{"post_code":"5110253","prefecture":"MIE KEN","city":"INABE GUN TOIN CHO","town":"TSUKUSHI","perfecture_jp":"三重県","jp_add_1":"員弁郡東員町","jp_add_2":"筑紫"},"5110241":{"post_code":"5110241","prefecture":"MIE KEN","city":"INABE GUN TOIN CHO","town":"TOTTORI","perfecture_jp":"三重県","jp_add_1":"員弁郡東員町","jp_add_2":"鳥取"},"5110254":{"post_code":"5110254","prefecture":"MIE KEN","city":"INABE GUN TOIN CHO","town":"NAKAGAMI","perfecture_jp":"三重県","jp_add_1":"員弁郡東員町","jp_add_2":"中上"},"5110255":{"post_code":"5110255","prefecture":"MIE KEN","city":"INABE GUN TOIN CHO","town":"NAGAFUKE","perfecture_jp":"三重県","jp_add_1":"員弁郡東員町","jp_add_2":"長深"},"5110245":{"post_code":"5110245","prefecture":"MIE KEN","city":"INABE GUN TOIN CHO","town":"HACHIMANSHINDEN","perfecture_jp":"三重県","jp_add_1":"員弁郡東員町","jp_add_2":"八幡新田"},"5110256":{"post_code":"5110256","prefecture":"MIE KEN","city":"INABE GUN TOIN CHO","town":"MINAMIOYASHIRO","perfecture_jp":"三重県","jp_add_1":"員弁郡東員町","jp_add_2":"南大社"},"5110242":{"post_code":"5110242","prefecture":"MIE KEN","city":"INABE GUN TOIN CHO","town":"ROPPANOSHINDEN","perfecture_jp":"三重県","jp_add_1":"員弁郡東員町","jp_add_2":"六把野新田"}}