{"5128046":{"post_code":"5128046","prefecture":"MIE KEN","city":"YOKKAICHI SHI","town":"AKATSUKIDAI","perfecture_jp":"三重県","jp_add_1":"四日市市","jp_add_2":"あかつき台"},"5121202":{"post_code":"5121202","prefecture":"MIE KEN","city":"YOKKAICHI SHI","town":"AGATAGAOKA","perfecture_jp":"三重県","jp_add_1":"四日市市","jp_add_2":"あがたが丘"},"5121204":{"post_code":"5121204","prefecture":"MIE KEN","city":"YOKKAICHI SHI","town":"AKOZUCHO","perfecture_jp":"三重県","jp_add_1":"四日市市","jp_add_2":"赤水町"},"5128055":{"post_code":"5128055","prefecture":"MIE KEN","city":"YOKKAICHI SHI","town":"ASAKEGAOKA","perfecture_jp":"三重県","jp_add_1":"四日市市","jp_add_2":"あさけが丘"},"5128054":{"post_code":"5128054","prefecture":"MIE KEN","city":"YOKKAICHI SHI","town":"ASAKECHO","perfecture_jp":"三重県","jp_add_1":"四日市市","jp_add_2":"朝明町"},"5120911":{"post_code":"5120911","prefecture":"MIE KEN","city":"YOKKAICHI SHI","town":"IKUWACHO","perfecture_jp":"三重県","jp_add_1":"四日市市","jp_add_2":"生桑町"},"5128066":{"post_code":"5128066","prefecture":"MIE KEN","city":"YOKKAICHI SHI","town":"ISAKADAI","perfecture_jp":"三重県","jp_add_1":"四日市市","jp_add_2":"伊坂台"},"5128064":{"post_code":"5128064","prefecture":"MIE KEN","city":"YOKKAICHI SHI","town":"ISAKACHO","perfecture_jp":"三重県","jp_add_1":"四日市市","jp_add_2":"伊坂町"},"5121302":{"post_code":"5121302","prefecture":"MIE KEN","city":"YOKKAICHI SHI","town":"ICHIBACHO","perfecture_jp":"三重県","jp_add_1":"四日市市","jp_add_2":"市場町"},"5120931":{"post_code":"5120931","prefecture":"MIE KEN","city":"YOKKAICHI SHI","town":"UKIHASHI","perfecture_jp":"三重県","jp_add_1":"四日市市","jp_add_2":"浮橋"},"5121101":{"post_code":"5121101","prefecture":"MIE KEN","city":"YOKKAICHI SHI","town":"UCHIYAMACHO","perfecture_jp":"三重県","jp_add_1":"四日市市","jp_add_2":"内山町"},"5121206":{"post_code":"5121206","prefecture":"MIE KEN","city":"YOKKAICHI SHI","town":"EMURACHO","perfecture_jp":"三重県","jp_add_1":"四日市市","jp_add_2":"江村町"},"5121216":{"post_code":"5121216","prefecture":"MIE KEN","city":"YOKKAICHI SHI","town":"OKADAI","perfecture_jp":"三重県","jp_add_1":"四日市市","jp_add_2":"桜花台"},"5128053":{"post_code":"5128053","prefecture":"MIE KEN","city":"YOKKAICHI SHI","town":"OGANECHO","perfecture_jp":"三重県","jp_add_1":"四日市市","jp_add_2":"大鐘町"},"5120901":{"post_code":"5120901","prefecture":"MIE KEN","city":"YOKKAICHI SHI","town":"OTANIDAI","perfecture_jp":"三重県","jp_add_1":"四日市市","jp_add_2":"大谷台"},"5120921":{"post_code":"5120921","prefecture":"MIE KEN","city":"YOKKAICHI SHI","town":"OBIRACHO","perfecture_jp":"三重県","jp_add_1":"四日市市","jp_add_2":"尾平町"},"5121102":{"post_code":"5121102","prefecture":"MIE KEN","city":"YOKKAICHI SHI","town":"OYAMACHO","perfecture_jp":"三重県","jp_add_1":"四日市市","jp_add_2":"小山町"},"5121201":{"post_code":"5121201","prefecture":"MIE KEN","city":"YOKKAICHI SHI","town":"KAMIEBICHO","perfecture_jp":"三重県","jp_add_1":"四日市市","jp_add_2":"上海老町"},"5128045":{"post_code":"5128045","prefecture":"MIE KEN","city":"YOKKAICHI SHI","town":"KAYOCHO","perfecture_jp":"三重県","jp_add_1":"四日市市","jp_add_2":"萱生町"},"5120935":{"post_code":"5120935","prefecture":"MIE KEN","city":"YOKKAICHI SHI","town":"KAWASHIMASHIMMACHI","perfecture_jp":"三重県","jp_add_1":"四日市市","jp_add_2":"川島新町"},"5120934":{"post_code":"5120934","prefecture":"MIE KEN","city":"YOKKAICHI SHI","town":"KAWASHIMACHO","perfecture_jp":"三重県","jp_add_1":"四日市市","jp_add_2":"川島町"},"5121208":{"post_code":"5121208","prefecture":"MIE KEN","city":"YOKKAICHI SHI","town":"KITANOCHO","perfecture_jp":"三重県","jp_add_1":"四日市市","jp_add_2":"北野町"},"5128051":{"post_code":"5128051","prefecture":"MIE KEN","city":"YOKKAICHI SHI","town":"KITAYAMACHO","perfecture_jp":"三重県","jp_add_1":"四日市市","jp_add_2":"北山町"},"5121207":{"post_code":"5121207","prefecture":"MIE KEN","city":"YOKKAICHI SHI","town":"KURODACHO","perfecture_jp":"三重県","jp_add_1":"四日市市","jp_add_2":"黒田町"},"5128062":{"post_code":"5128062","prefecture":"MIE KEN","city":"YOKKAICHI SHI","town":"KOGANECHO","perfecture_jp":"三重県","jp_add_1":"四日市市","jp_add_2":"黄金町"},"5120903":{"post_code":"5120903","prefecture":"MIE KEN","city":"YOKKAICHI SHI","town":"KOSUGISHIMMACHI","perfecture_jp":"三重県","jp_add_1":"四日市市","jp_add_2":"小杉新町"},"5120902":{"post_code":"5120902","prefecture":"MIE KEN","city":"YOKKAICHI SHI","town":"KOSUGICHO","perfecture_jp":"三重県","jp_add_1":"四日市市","jp_add_2":"小杉町"},"5121303":{"post_code":"5121303","prefecture":"MIE KEN","city":"YOKKAICHI SHI","town":"KOMAKICHO","perfecture_jp":"三重県","jp_add_1":"四日市市","jp_add_2":"小牧町"},"5120932":{"post_code":"5120932","prefecture":"MIE KEN","city":"YOKKAICHI SHI","town":"KOMOCHO","perfecture_jp":"三重県","jp_add_1":"四日市市","jp_add_2":"小生町"},"5120905":{"post_code":"5120905","prefecture":"MIE KEN","city":"YOKKAICHI SHI","town":"SAKABEGAOKA","perfecture_jp":"三重県","jp_add_1":"四日市市","jp_add_2":"坂部が丘"},"5120908":{"post_code":"5120908","prefecture":"MIE KEN","city":"YOKKAICHI SHI","town":"SAKABEDAI","perfecture_jp":"三重県","jp_add_1":"四日市市","jp_add_2":"坂部台"},"5121215":{"post_code":"5121215","prefecture":"MIE KEN","city":"YOKKAICHI SHI","town":"SAKURASHIMMACHI","perfecture_jp":"三重県","jp_add_1":"四日市市","jp_add_2":"桜新町"},"5121214":{"post_code":"5121214","prefecture":"MIE KEN","city":"YOKKAICHI SHI","town":"SAKURADAI","perfecture_jp":"三重県","jp_add_1":"四日市市","jp_add_2":"桜台"},"5121213":{"post_code":"5121213","prefecture":"MIE KEN","city":"YOKKAICHI SHI","town":"SAKURADAIHOMMACHI","perfecture_jp":"三重県","jp_add_1":"四日市市","jp_add_2":"桜台本町"},"5121211":{"post_code":"5121211","prefecture":"MIE KEN","city":"YOKKAICHI SHI","town":"SAKURACHO","perfecture_jp":"三重県","jp_add_1":"四日市市","jp_add_2":"桜町"},"5128056":{"post_code":"5128056","prefecture":"MIE KEN","city":"YOKKAICHI SHI","town":"SATSUBACHO","perfecture_jp":"三重県","jp_add_1":"四日市市","jp_add_2":"札場町"},"5121113":{"post_code":"5121113","prefecture":"MIE KEN","city":"YOKKAICHI SHI","town":"SHIKAMACHO","perfecture_jp":"三重県","jp_add_1":"四日市市","jp_add_2":"鹿間町"},"5121203":{"post_code":"5121203","prefecture":"MIE KEN","city":"YOKKAICHI SHI","town":"SHIMOEBICHO","perfecture_jp":"三重県","jp_add_1":"四日市市","jp_add_2":"下海老町"},"5121105":{"post_code":"5121105","prefecture":"MIE KEN","city":"YOKKAICHI SHI","town":"SUIZAWACHO","perfecture_jp":"三重県","jp_add_1":"四日市市","jp_add_2":"水沢町"},"5120301":{"post_code":"5120301","prefecture":"MIE KEN","city":"YOKKAICHI SHI","town":"SUIZAWANODACHO","perfecture_jp":"三重県","jp_add_1":"四日市市","jp_add_2":"水沢野田町"},"5120925":{"post_code":"5120925","prefecture":"MIE KEN","city":"YOKKAICHI SHI","town":"SUGAHARACHO","perfecture_jp":"三重県","jp_add_1":"四日市市","jp_add_2":"菅原町"},"5120922":{"post_code":"5120922","prefecture":"MIE KEN","city":"YOKKAICHI SHI","town":"SOICHO","perfecture_jp":"三重県","jp_add_1":"四日市市","jp_add_2":"曽井町"},"5120923":{"post_code":"5120923","prefecture":"MIE KEN","city":"YOKKAICHI SHI","town":"TAKATSUNOCHO","perfecture_jp":"三重県","jp_add_1":"四日市市","jp_add_2":"高角町"},"5121301":{"post_code":"5121301","prefecture":"MIE KEN","city":"YOKKAICHI SHI","town":"TAKAMIDAI","perfecture_jp":"三重県","jp_add_1":"四日市市","jp_add_2":"高見台"},"5121212":{"post_code":"5121212","prefecture":"MIE KEN","city":"YOKKAICHI SHI","town":"CHISHAKUCHO","perfecture_jp":"三重県","jp_add_1":"四日市市","jp_add_2":"智積町"},"5128065":{"post_code":"5128065","prefecture":"MIE KEN","city":"YOKKAICHI SHI","town":"CHIYODACHO","perfecture_jp":"三重県","jp_add_1":"四日市市","jp_add_2":"千代田町"},"5120924":{"post_code":"5120924","prefecture":"MIE KEN","city":"YOKKAICHI SHI","town":"TERAGATACHO","perfecture_jp":"三重県","jp_add_1":"四日市市","jp_add_2":"寺方町"},"5121115":{"post_code":"5121115","prefecture":"MIE KEN","city":"YOKKAICHI SHI","town":"DOGAYAMACHO","perfecture_jp":"三重県","jp_add_1":"四日市市","jp_add_2":"堂ケ山町"},"5121304":{"post_code":"5121304","prefecture":"MIE KEN","city":"YOKKAICHI SHI","town":"NAKANOCHO","perfecture_jp":"三重県","jp_add_1":"四日市市","jp_add_2":"中野町"},"5128044":{"post_code":"5128044","prefecture":"MIE KEN","city":"YOKKAICHI SHI","town":"NAKAMURACHO","perfecture_jp":"三重県","jp_add_1":"四日市市","jp_add_2":"中村町"},"5128052":{"post_code":"5128052","prefecture":"MIE KEN","city":"YOKKAICHI SHI","town":"NISHIOGANECHO","perfecture_jp":"三重県","jp_add_1":"四日市市","jp_add_2":"西大鐘町"},"5120913":{"post_code":"5120913","prefecture":"MIE KEN","city":"YOKKAICHI SHI","town":"NISHISAKABECHO","perfecture_jp":"三重県","jp_add_1":"四日市市","jp_add_2":"西坂部町"},"5121305":{"post_code":"5121305","prefecture":"MIE KEN","city":"YOKKAICHI SHI","town":"NISHIMURACHO","perfecture_jp":"三重県","jp_add_1":"四日市市","jp_add_2":"西村町"},"5121103":{"post_code":"5121103","prefecture":"MIE KEN","city":"YOKKAICHI SHI","town":"NISHIYAMACHO","perfecture_jp":"三重県","jp_add_1":"四日市市","jp_add_2":"西山町"},"5120907":{"post_code":"5120907","prefecture":"MIE KEN","city":"YOKKAICHI SHI","town":"HIGASHIGATANI","perfecture_jp":"三重県","jp_add_1":"四日市市","jp_add_2":"東ケ谷"},"5120904":{"post_code":"5120904","prefecture":"MIE KEN","city":"YOKKAICHI SHI","town":"HIGASHISAKABECHO","perfecture_jp":"三重県","jp_add_1":"四日市市","jp_add_2":"東坂部町"},"5121205":{"post_code":"5121205","prefecture":"MIE KEN","city":"YOKKAICHI SHI","town":"HIRAOCHO","perfecture_jp":"三重県","jp_add_1":"四日市市","jp_add_2":"平尾町"},"5128061":{"post_code":"5128061","prefecture":"MIE KEN","city":"YOKKAICHI SHI","town":"HIRONAGACHO","perfecture_jp":"三重県","jp_add_1":"四日市市","jp_add_2":"広永町"},"5128043":{"post_code":"5128043","prefecture":"MIE KEN","city":"YOKKAICHI SHI","town":"HEIZUSHIMMACHI","perfecture_jp":"三重県","jp_add_1":"四日市市","jp_add_2":"平津新町"},"5128042":{"post_code":"5128042","prefecture":"MIE KEN","city":"YOKKAICHI SHI","town":"HEIZUCHO","perfecture_jp":"三重県","jp_add_1":"四日市市","jp_add_2":"平津町"},"5120936":{"post_code":"5120936","prefecture":"MIE KEN","city":"YOKKAICHI SHI","town":"BETSUYAMA","perfecture_jp":"三重県","jp_add_1":"四日市市","jp_add_2":"別山"},"5121306":{"post_code":"5121306","prefecture":"MIE KEN","city":"YOKKAICHI SHI","town":"MAKINOKIDAI","perfecture_jp":"三重県","jp_add_1":"四日市市","jp_add_2":"まきの木台"},"5120912":{"post_code":"5120912","prefecture":"MIE KEN","city":"YOKKAICHI SHI","town":"MIE","perfecture_jp":"三重県","jp_add_1":"四日市市","jp_add_2":"三重"},"5121104":{"post_code":"5121104","prefecture":"MIE KEN","city":"YOKKAICHI SHI","town":"MISATOCHO","perfecture_jp":"三重県","jp_add_1":"四日市市","jp_add_2":"美里町"},"5120933":{"post_code":"5120933","prefecture":"MIE KEN","city":"YOKKAICHI SHI","town":"MITAKIDAI","perfecture_jp":"三重県","jp_add_1":"四日市市","jp_add_2":"三滝台"},"5120914":{"post_code":"5120914","prefecture":"MIE KEN","city":"YOKKAICHI SHI","town":"MINAMISAKABECHO","perfecture_jp":"三重県","jp_add_1":"四日市市","jp_add_2":"南坂部町"},"5128047":{"post_code":"5128047","prefecture":"MIE KEN","city":"YOKKAICHI SHI","town":"YACHIYODAI","perfecture_jp":"三重県","jp_add_1":"四日市市","jp_add_2":"八千代台"},"5128041":{"post_code":"5128041","prefecture":"MIE KEN","city":"YOKKAICHI SHI","town":"YAMAKECHO","perfecture_jp":"三重県","jp_add_1":"四日市市","jp_add_2":"山分町"},"5128048":{"post_code":"5128048","prefecture":"MIE KEN","city":"YOKKAICHI SHI","town":"YAMAJOCHO","perfecture_jp":"三重県","jp_add_1":"四日市市","jp_add_2":"山城町"},"5121111":{"post_code":"5121111","prefecture":"MIE KEN","city":"YOKKAICHI SHI","town":"YAMADACHO","perfecture_jp":"三重県","jp_add_1":"四日市市","jp_add_2":"山田町"},"5120906":{"post_code":"5120906","prefecture":"MIE KEN","city":"YOKKAICHI SHI","town":"YAMANOISSHIKICHO","perfecture_jp":"三重県","jp_add_1":"四日市市","jp_add_2":"山之一色町"},"5128063":{"post_code":"5128063","prefecture":"MIE KEN","city":"YOKKAICHI SHI","town":"YAMAMURACHO","perfecture_jp":"三重県","jp_add_1":"四日市市","jp_add_2":"山村町"},"5121116":{"post_code":"5121116","prefecture":"MIE KEN","city":"YOKKAICHI SHI","town":"ROKUMYOCHO","perfecture_jp":"三重県","jp_add_1":"四日市市","jp_add_2":"六名町"},"5121114":{"post_code":"5121114","prefecture":"MIE KEN","city":"YOKKAICHI SHI","town":"WANDACHO","perfecture_jp":"三重県","jp_add_1":"四日市市","jp_add_2":"和無田町"}}