{"5140000":{"post_code":"5140000","prefecture":"MIE KEN","city":"TSU SHI","town":"IKANIKEISAIGANAIBAAI","perfecture_jp":"三重県","jp_add_1":"津市","jp_add_2":""},"5140017":{"post_code":"5140017","prefecture":"MIE KEN","city":"TSU SHI","town":"AIOICHO","perfecture_jp":"三重県","jp_add_1":"津市","jp_add_2":"相生町"},"5141139":{"post_code":"5141139","prefecture":"MIE KEN","city":"TSU SHI","town":"AOBADAI","perfecture_jp":"三重県","jp_add_1":"津市","jp_add_2":"青葉台"},"5140811":{"post_code":"5140811","prefecture":"MIE KEN","city":"TSU SHI","town":"AKOGIMACHI","perfecture_jp":"三重県","jp_add_1":"津市","jp_add_2":"阿漕町"},"5140022":{"post_code":"5140022","prefecture":"MIE KEN","city":"TSU SHI","town":"ATAGOCHO","perfecture_jp":"三重県","jp_add_1":"津市","jp_add_2":"愛宕町"},"5142302":{"post_code":"5142302","prefecture":"MIE KEN","city":"TSU SHI","town":"ANOCHO ANO","perfecture_jp":"三重県","jp_add_1":"津市","jp_add_2":"安濃町安濃"},"5142327":{"post_code":"5142327","prefecture":"MIE KEN","city":"TSU SHI","town":"ANOCHO ABE","perfecture_jp":"三重県","jp_add_1":"津市","jp_add_2":"安濃町安部"},"5142301":{"post_code":"5142301","prefecture":"MIE KEN","city":"TSU SHI","town":"ANOCHO ARAKI","perfecture_jp":"三重県","jp_add_1":"津市","jp_add_2":"安濃町荒木"},"5142303":{"post_code":"5142303","prefecture":"MIE KEN","city":"TSU SHI","town":"ANOCHO UCHIDA","perfecture_jp":"三重県","jp_add_1":"津市","jp_add_2":"安濃町内多"},"5142324":{"post_code":"5142324","prefecture":"MIE KEN","city":"TSU SHI","town":"ANOCHO OKA","perfecture_jp":"三重県","jp_add_1":"津市","jp_add_2":"安濃町粟加"},"5142304":{"post_code":"5142304","prefecture":"MIE KEN","city":"TSU SHI","town":"ANOCHO OTA","perfecture_jp":"三重県","jp_add_1":"津市","jp_add_2":"安濃町太田"},"5142323":{"post_code":"5142323","prefecture":"MIE KEN","city":"TSU SHI","town":"ANOCHO OTSUKA","perfecture_jp":"三重県","jp_add_1":"津市","jp_add_2":"安濃町大塚"},"5142308":{"post_code":"5142308","prefecture":"MIE KEN","city":"TSU SHI","town":"ANOCHO KAWANISHI","perfecture_jp":"三重県","jp_add_1":"津市","jp_add_2":"安濃町川西"},"5142328":{"post_code":"5142328","prefecture":"MIE KEN","city":"TSU SHI","town":"ANOCHO KUSAWA","perfecture_jp":"三重県","jp_add_1":"津市","jp_add_2":"安濃町草生"},"5142311":{"post_code":"5142311","prefecture":"MIE KEN","city":"TSU SHI","town":"ANOCHO KODA","perfecture_jp":"三重県","jp_add_1":"津市","jp_add_2":"安濃町神田"},"5142315":{"post_code":"5142315","prefecture":"MIE KEN","city":"TSU SHI","town":"ANOCHO KOMYOJI","perfecture_jp":"三重県","jp_add_1":"津市","jp_add_2":"安濃町光明寺"},"5142313":{"post_code":"5142313","prefecture":"MIE KEN","city":"TSU SHI","town":"ANOCHO KONDOKU","perfecture_jp":"三重県","jp_add_1":"津市","jp_add_2":"安濃町今徳"},"5142305":{"post_code":"5142305","prefecture":"MIE KEN","city":"TSU SHI","town":"ANOCHO SHIMIZU","perfecture_jp":"三重県","jp_add_1":"津市","jp_add_2":"安濃町清水"},"5142307":{"post_code":"5142307","prefecture":"MIE KEN","city":"TSU SHI","town":"ANOCHO JODOJI","perfecture_jp":"三重県","jp_add_1":"津市","jp_add_2":"安濃町浄土寺"},"5142306":{"post_code":"5142306","prefecture":"MIE KEN","city":"TSU SHI","town":"ANOCHO SONE","perfecture_jp":"三重県","jp_add_1":"津市","jp_add_2":"安濃町曽根"},"5142325":{"post_code":"5142325","prefecture":"MIE KEN","city":"TSU SHI","town":"ANOCHO TABATAUENO","perfecture_jp":"三重県","jp_add_1":"津市","jp_add_2":"安濃町田端上野"},"5142312":{"post_code":"5142312","prefecture":"MIE KEN","city":"TSU SHI","town":"ANOCHO TSURABE","perfecture_jp":"三重県","jp_add_1":"津市","jp_add_2":"安濃町連部"},"5142326":{"post_code":"5142326","prefecture":"MIE KEN","city":"TSU SHI","town":"ANOCHO TOKANONJI","perfecture_jp":"三重県","jp_add_1":"津市","jp_add_2":"安濃町東観音寺"},"5142322":{"post_code":"5142322","prefecture":"MIE KEN","city":"TSU SHI","town":"ANOCHO TOSHIMA","perfecture_jp":"三重県","jp_add_1":"津市","jp_add_2":"安濃町戸島"},"5142318":{"post_code":"5142318","prefecture":"MIE KEN","city":"TSU SHI","town":"ANOCHO NAKAGAWA","perfecture_jp":"三重県","jp_add_1":"津市","jp_add_2":"安濃町中川"},"5142321":{"post_code":"5142321","prefecture":"MIE KEN","city":"TSU SHI","town":"ANOCHO NOGUCHI","perfecture_jp":"三重県","jp_add_1":"津市","jp_add_2":"安濃町野口"},"5142317":{"post_code":"5142317","prefecture":"MIE KEN","city":"TSU SHI","town":"ANOCHO MAENO","perfecture_jp":"三重県","jp_add_1":"津市","jp_add_2":"安濃町前野"},"5142316":{"post_code":"5142316","prefecture":"MIE KEN","city":"TSU SHI","town":"ANOCHO MINAMIKOYAMA","perfecture_jp":"三重県","jp_add_1":"津市","jp_add_2":"安濃町南神山"},"5142314":{"post_code":"5142314","prefecture":"MIE KEN","city":"TSU SHI","town":"ANOCHO MYOHOJI","perfecture_jp":"三重県","jp_add_1":"津市","jp_add_2":"安濃町妙法寺"},"5140131":{"post_code":"5140131","prefecture":"MIE KEN","city":"TSU SHI","town":"ANOTSUDAI","perfecture_jp":"三重県","jp_add_1":"津市","jp_add_2":"あのつ台"},"5140058":{"post_code":"5140058","prefecture":"MIE KEN","city":"TSU SHI","town":"ANTOCHO","perfecture_jp":"三重県","jp_add_1":"津市","jp_add_2":"安東町"},"5140113":{"post_code":"5140113","prefecture":"MIE KEN","city":"TSU SHI","town":"ISSHINDEN OGOSO","perfecture_jp":"三重県","jp_add_1":"津市","jp_add_2":"一身田大古曽"},"5140061":{"post_code":"5140061","prefecture":"MIE KEN","city":"TSU SHI","town":"ISSHINDEN KOZUBETA","perfecture_jp":"三重県","jp_add_1":"津市","jp_add_2":"一身田上津部田"},"5140115":{"post_code":"5140115","prefecture":"MIE KEN","city":"TSU SHI","town":"ISSHINDEN TOYONO","perfecture_jp":"三重県","jp_add_1":"津市","jp_add_2":"一身田豊野"},"5140112":{"post_code":"5140112","prefecture":"MIE KEN","city":"TSU SHI","town":"ISSHINDEN NAKANO","perfecture_jp":"三重県","jp_add_1":"津市","jp_add_2":"一身田中野"},"5140111":{"post_code":"5140111","prefecture":"MIE KEN","city":"TSU SHI","town":"ISSHINDEN HIRANO","perfecture_jp":"三重県","jp_add_1":"津市","jp_add_2":"一身田平野"},"5140114":{"post_code":"5140114","prefecture":"MIE KEN","city":"TSU SHI","town":"ISSHINDENCHO","perfecture_jp":"三重県","jp_add_1":"津市","jp_add_2":"一身田町"},"5140057":{"post_code":"5140057","prefecture":"MIE KEN","city":"TSU SHI","town":"ISSHIKICHO","perfecture_jp":"三重県","jp_add_1":"津市","jp_add_2":"一色町"},"5141252":{"post_code":"5141252","prefecture":"MIE KEN","city":"TSU SHI","town":"INABACHO","perfecture_jp":"三重県","jp_add_1":"津市","jp_add_2":"稲葉町"},"5140838":{"post_code":"5140838","prefecture":"MIE KEN","city":"TSU SHI","town":"IWATA","perfecture_jp":"三重県","jp_add_1":"津市","jp_add_2":"岩田"},"5140076":{"post_code":"5140076","prefecture":"MIE KEN","city":"TSU SHI","town":"UBUSHINA","perfecture_jp":"三重県","jp_add_1":"津市","jp_add_2":"産品"},"5140001":{"post_code":"5140001","prefecture":"MIE KEN","city":"TSU SHI","town":"EDOBASHI","perfecture_jp":"三重県","jp_add_1":"津市","jp_add_2":"江戸橋"},"5140834":{"post_code":"5140834","prefecture":"MIE KEN","city":"TSU SHI","town":"OKURA","perfecture_jp":"三重県","jp_add_1":"津市","jp_add_2":"大倉"},"5140124":{"post_code":"5140124","prefecture":"MIE KEN","city":"TSU SHI","town":"OZATO KAWAKITACHO","perfecture_jp":"三重県","jp_add_1":"津市","jp_add_2":"大里川北町"},"5140125":{"post_code":"5140125","prefecture":"MIE KEN","city":"TSU SHI","town":"OZATO KUBOTACHO","perfecture_jp":"三重県","jp_add_1":"津市","jp_add_2":"大里窪田町"},"5140123":{"post_code":"5140123","prefecture":"MIE KEN","city":"TSU SHI","town":"OZATO KONODACHO","perfecture_jp":"三重県","jp_add_1":"津市","jp_add_2":"大里小野田町"},"5140122":{"post_code":"5140122","prefecture":"MIE KEN","city":"TSU SHI","town":"OZATO NODACHO","perfecture_jp":"三重県","jp_add_1":"津市","jp_add_2":"大里野田町"},"5140126":{"post_code":"5140126","prefecture":"MIE KEN","city":"TSU SHI","town":"OZATO MUTSUAICHO","perfecture_jp":"三重県","jp_add_1":"津市","jp_add_2":"大里睦合町"},"5140121":{"post_code":"5140121","prefecture":"MIE KEN","city":"TSU SHI","town":"OZATO YAMAMUROCHO","perfecture_jp":"三重県","jp_add_1":"津市","jp_add_2":"大里山室町"},"5140046":{"post_code":"5140046","prefecture":"MIE KEN","city":"TSU SHI","town":"OZONOCHO","perfecture_jp":"三重県","jp_add_1":"津市","jp_add_2":"大園町"},"5140007":{"post_code":"5140007","prefecture":"MIE KEN","city":"TSU SHI","town":"OTANICHO","perfecture_jp":"三重県","jp_add_1":"津市","jp_add_2":"大谷町"},"5141257":{"post_code":"5141257","prefecture":"MIE KEN","city":"TSU SHI","town":"ODORICHO","perfecture_jp":"三重県","jp_add_1":"津市","jp_add_2":"大鳥町"},"5140039":{"post_code":"5140039","prefecture":"MIE KEN","city":"TSU SHI","town":"OSHIKABECHO","perfecture_jp":"三重県","jp_add_1":"津市","jp_add_2":"押加部町"},"5140016":{"post_code":"5140016","prefecture":"MIE KEN","city":"TSU SHI","town":"OTOBE","perfecture_jp":"三重県","jp_add_1":"津市","jp_add_2":"乙部"},"5140072":{"post_code":"5140072","prefecture":"MIE KEN","city":"TSU SHI","town":"OBUNE","perfecture_jp":"三重県","jp_add_1":"津市","jp_add_2":"小舟"},"5140013":{"post_code":"5140013","prefecture":"MIE KEN","city":"TSU SHI","town":"KAIGANCHO","perfecture_jp":"三重県","jp_add_1":"津市","jp_add_2":"海岸町"},"5140082":{"post_code":"5140082","prefecture":"MIE KEN","city":"TSU SHI","town":"KATADA IDOCHO","perfecture_jp":"三重県","jp_add_1":"津市","jp_add_2":"片田井戸町"},"5140085":{"post_code":"5140085","prefecture":"MIE KEN","city":"TSU SHI","town":"KATADA KUBOCHO","perfecture_jp":"三重県","jp_add_1":"津市","jp_add_2":"片田久保町"},"5140075":{"post_code":"5140075","prefecture":"MIE KEN","city":"TSU SHI","town":"KATADA SHIBUKUROCHO","perfecture_jp":"三重県","jp_add_1":"津市","jp_add_2":"片田志袋町"},"5140083":{"post_code":"5140083","prefecture":"MIE KEN","city":"TSU SHI","town":"KATADA SHIMMACHI","perfecture_jp":"三重県","jp_add_1":"津市","jp_add_2":"片田新町"},"5140081":{"post_code":"5140081","prefecture":"MIE KEN","city":"TSU SHI","town":"KATADA TANAKACHO","perfecture_jp":"三重県","jp_add_1":"津市","jp_add_2":"片田田中町"},"5140077":{"post_code":"5140077","prefecture":"MIE KEN","city":"TSU SHI","town":"KATADA HASECHO","perfecture_jp":"三重県","jp_add_1":"津市","jp_add_2":"片田長谷町"},"5140074":{"post_code":"5140074","prefecture":"MIE KEN","city":"TSU SHI","town":"KATADA HASEBACHO","perfecture_jp":"三重県","jp_add_1":"津市","jp_add_2":"片田長谷場町"},"5140086":{"post_code":"5140086","prefecture":"MIE KEN","city":"TSU SHI","town":"KATADA YAKUOJICHO","perfecture_jp":"三重県","jp_add_1":"津市","jp_add_2":"片田薬王寺町"},"5140084":{"post_code":"5140084","prefecture":"MIE KEN","city":"TSU SHI","town":"KATADACHO","perfecture_jp":"三重県","jp_add_1":"津市","jp_add_2":"片田町"},"5140054":{"post_code":"5140054","prefecture":"MIE KEN","city":"TSU SHI","town":"KANO","perfecture_jp":"三重県","jp_add_1":"津市","jp_add_2":"神納"},"5140052":{"post_code":"5140052","prefecture":"MIE KEN","city":"TSU SHI","town":"KANOCHO","perfecture_jp":"三重県","jp_add_1":"津市","jp_add_2":"神納町"},"5140008":{"post_code":"5140008","prefecture":"MIE KEN","city":"TSU SHI","town":"KAMIHAMACHO","perfecture_jp":"三重県","jp_add_1":"津市","jp_add_2":"上浜町"},"5140806":{"post_code":"5140806","prefecture":"MIE KEN","city":"TSU SHI","town":"KAMIBEZAICHO","perfecture_jp":"三重県","jp_add_1":"津市","jp_add_2":"上弁財町"},"5140804":{"post_code":"5140804","prefecture":"MIE KEN","city":"TSU SHI","town":"KAMIBEZAIMACHI TSUOKI","perfecture_jp":"三重県","jp_add_1":"津市","jp_add_2":"上弁財町津興"},"5140311":{"post_code":"5140311","prefecture":"MIE KEN","city":"TSU SHI","town":"KARASUCHO (INABA)","perfecture_jp":"三重県","jp_add_1":"津市","jp_add_2":"香良洲町"},"5140326":{"post_code":"5140326","prefecture":"MIE KEN","city":"TSU SHI","town":"KARASUCHO (KAWAHARA)","perfecture_jp":"三重県","jp_add_1":"津市","jp_add_2":"香良洲町"},"5140312":{"post_code":"5140312","prefecture":"MIE KEN","city":"TSU SHI","town":"KARASUCHO (KOMATSU)","perfecture_jp":"三重県","jp_add_1":"津市","jp_add_2":"香良洲町"},"5140325":{"post_code":"5140325","prefecture":"MIE KEN","city":"TSU SHI","town":"KARASUCHO (SAKURAMACHI)","perfecture_jp":"三重県","jp_add_1":"津市","jp_add_2":"香良洲町"},"5140324":{"post_code":"5140324","prefecture":"MIE KEN","city":"TSU SHI","town":"KARASUCHO (JIKE)","perfecture_jp":"三重県","jp_add_1":"津市","jp_add_2":"香良洲町"},"5140321":{"post_code":"5140321","prefecture":"MIE KEN","city":"TSU SHI","town":"KARASUCHO (SUNAHARA)","perfecture_jp":"三重県","jp_add_1":"津市","jp_add_2":"香良洲町"},"5140314":{"post_code":"5140314","prefecture":"MIE KEN","city":"TSU SHI","town":"KARASUCHO (TAKASAGO)","perfecture_jp":"三重県","jp_add_1":"津市","jp_add_2":"香良洲町"},"5140323":{"post_code":"5140323","prefecture":"MIE KEN","city":"TSU SHI","town":"KARASUCHO (BABA)","perfecture_jp":"三重県","jp_add_1":"津市","jp_add_2":"香良洲町"},"5140313":{"post_code":"5140313","prefecture":"MIE KEN","city":"TSU SHI","town":"KARASUCHO (HAMAURA)","perfecture_jp":"三重県","jp_add_1":"津市","jp_add_2":"香良洲町"},"5140315":{"post_code":"5140315","prefecture":"MIE KEN","city":"TSU SHI","town":"KARASUCHO(SONOTA)","perfecture_jp":"三重県","jp_add_1":"津市","jp_add_2":"香良洲町"},"5141122":{"post_code":"5141122","prefecture":"MIE KEN","city":"TSU SHI","town":"KAWAKATACHO","perfecture_jp":"三重県","jp_add_1":"津市","jp_add_2":"川方町"},"5140044":{"post_code":"5140044","prefecture":"MIE KEN","city":"TSU SHI","town":"KAWAZOECHO","perfecture_jp":"三重県","jp_add_1":"津市","jp_add_2":"川添町"},"5140062":{"post_code":"5140062","prefecture":"MIE KEN","city":"TSU SHI","town":"KANONJICHO","perfecture_jp":"三重県","jp_add_1":"津市","jp_add_2":"観音寺町"},"5140824":{"post_code":"5140824","prefecture":"MIE KEN","city":"TSU SHI","town":"KAMBE","perfecture_jp":"三重県","jp_add_1":"津市","jp_add_2":"神戸"},"5140056":{"post_code":"5140056","prefecture":"MIE KEN","city":"TSU SHI","town":"KITAKOJICHO","perfecture_jp":"三重県","jp_add_1":"津市","jp_add_2":"北河路町"},"5140023":{"post_code":"5140023","prefecture":"MIE KEN","city":"TSU SHI","town":"KITAMACHI TSU","perfecture_jp":"三重県","jp_add_1":"津市","jp_add_2":"北町津"},"5140031":{"post_code":"5140031","prefecture":"MIE KEN","city":"TSU SHI","town":"KITAMARUNOCHI","perfecture_jp":"三重県","jp_add_1":"津市","jp_add_2":"北丸之内"},"5140302":{"post_code":"5140302","prefecture":"MIE KEN","city":"TSU SHI","town":"KUMOZU IGURAZUCHO","perfecture_jp":"三重県","jp_add_1":"津市","jp_add_2":"雲出伊倉津町"},"5140301":{"post_code":"5140301","prefecture":"MIE KEN","city":"TSU SHI","town":"KUMOZU KOKANCHO","perfecture_jp":"三重県","jp_add_1":"津市","jp_add_2":"雲出鋼管町"},"5140305":{"post_code":"5140305","prefecture":"MIE KEN","city":"TSU SHI","town":"KUMOZU SHIMANUKICHO","perfecture_jp":"三重県","jp_add_1":"津市","jp_add_2":"雲出島貫町"},"5140303":{"post_code":"5140303","prefecture":"MIE KEN","city":"TSU SHI","town":"KUMOZU NAGATSUNECHO","perfecture_jp":"三重県","jp_add_1":"津市","jp_add_2":"雲出長常町"},"5140304":{"post_code":"5140304","prefecture":"MIE KEN","city":"TSU SHI","town":"KUMOZU HONGOCHO","perfecture_jp":"三重県","jp_add_1":"津市","jp_add_2":"雲出本郷町"},"5140104":{"post_code":"5140104","prefecture":"MIE KEN","city":"TSU SHI","town":"KURIMA KOGAWACHO","perfecture_jp":"三重県","jp_add_1":"津市","jp_add_2":"栗真小川町"},"5140103":{"post_code":"5140103","prefecture":"MIE KEN","city":"TSU SHI","town":"KURIMA NAKAYAMACHO","perfecture_jp":"三重県","jp_add_1":"津市","jp_add_2":"栗真中山町"},"5140102":{"post_code":"5140102","prefecture":"MIE KEN","city":"TSU SHI","town":"KURIMA MACHIYACHO","perfecture_jp":"三重県","jp_add_1":"津市","jp_add_2":"栗真町屋町"},"5142204":{"post_code":"5142204","prefecture":"MIE KEN","city":"TSU SHI","town":"GEINOCHO UJII","perfecture_jp":"三重県","jp_add_1":"津市","jp_add_2":"芸濃町雲林院"},"5142212":{"post_code":"5142212","prefecture":"MIE KEN","city":"TSU SHI","town":"GEINOCHO OKAMOTO","perfecture_jp":"三重県","jp_add_1":"津市","jp_add_2":"芸濃町岡本"},"5142208":{"post_code":"5142208","prefecture":"MIE KEN","city":"TSU SHI","town":"GEINOCHO OSHIDA","perfecture_jp":"三重県","jp_add_1":"津市","jp_add_2":"芸濃町忍田"},"5142206":{"post_code":"5142206","prefecture":"MIE KEN","city":"TSU SHI","town":"GEINOCHO ONOHIRA","perfecture_jp":"三重県","jp_add_1":"津市","jp_add_2":"芸濃町小野平"},"5142213":{"post_code":"5142213","prefecture":"MIE KEN","city":"TSU SHI","town":"GEINOCHO KITAKOYAMA","perfecture_jp":"三重県","jp_add_1":"津市","jp_add_2":"芸濃町北神山"},"5142201":{"post_code":"5142201","prefecture":"MIE KEN","city":"TSU SHI","town":"GEINOCHO KUSUWARA","perfecture_jp":"三重県","jp_add_1":"津市","jp_add_2":"芸濃町楠原"},"5142207":{"post_code":"5142207","prefecture":"MIE KEN","city":"TSU SHI","town":"GEINOCHO KOCHI","perfecture_jp":"三重県","jp_add_1":"津市","jp_add_2":"芸濃町河内"},"5142205":{"post_code":"5142205","prefecture":"MIE KEN","city":"TSU SHI","town":"GEINOCHO TAMON","perfecture_jp":"三重県","jp_add_1":"津市","jp_add_2":"芸濃町多門"},"5142203":{"post_code":"5142203","prefecture":"MIE KEN","city":"TSU SHI","town":"GEINOCHO NAKANAWA","perfecture_jp":"三重県","jp_add_1":"津市","jp_add_2":"芸濃町中縄"},"5142214":{"post_code":"5142214","prefecture":"MIE KEN","city":"TSU SHI","town":"GEINOCHO HAGINO","perfecture_jp":"三重県","jp_add_1":"津市","jp_add_2":"芸濃町萩野"},"5142202":{"post_code":"5142202","prefecture":"MIE KEN","city":"TSU SHI","town":"GEINOCHO HAYASHI","perfecture_jp":"三重県","jp_add_1":"津市","jp_add_2":"芸濃町林"},"5142211":{"post_code":"5142211","prefecture":"MIE KEN","city":"TSU SHI","town":"GEINOCHO MUKUMOTO","perfecture_jp":"三重県","jp_add_1":"津市","jp_add_2":"芸濃町椋本"},"5140065":{"post_code":"5140065","prefecture":"MIE KEN","city":"TSU SHI","town":"KOBECHO","perfecture_jp":"三重県","jp_add_1":"津市","jp_add_2":"河辺町"},"5140006":{"post_code":"5140006","prefecture":"MIE KEN","city":"TSU SHI","town":"KOMEICHO","perfecture_jp":"三重県","jp_add_1":"津市","jp_add_2":"広明町"},"5141115":{"post_code":"5141115","prefecture":"MIE KEN","city":"TSU SHI","town":"KOTSUKURICHO","perfecture_jp":"三重県","jp_add_1":"津市","jp_add_2":"木造町"},"5140015":{"post_code":"5140015","prefecture":"MIE KEN","city":"TSU SHI","town":"KOTOBUKICHO","perfecture_jp":"三重県","jp_add_1":"津市","jp_add_2":"寿町"},"5140835":{"post_code":"5140835","prefecture":"MIE KEN","city":"TSU SHI","town":"SAIWAICHO","perfecture_jp":"三重県","jp_add_1":"津市","jp_add_2":"幸町"},"5140004":{"post_code":"5140004","prefecture":"MIE KEN","city":"TSU SHI","town":"SAKAEMACHI","perfecture_jp":"三重県","jp_add_1":"津市","jp_add_2":"栄町"},"5141251":{"post_code":"5141251","prefecture":"MIE KEN","city":"TSU SHI","town":"SAKAKIBARACHO","perfecture_jp":"三重県","jp_add_1":"津市","jp_add_2":"榊原町"},"5140047":{"post_code":"5140047","prefecture":"MIE KEN","city":"TSU SHI","town":"SAKURADACHO","perfecture_jp":"三重県","jp_add_1":"津市","jp_add_2":"桜田町"},"5140003":{"post_code":"5140003","prefecture":"MIE KEN","city":"TSU SHI","town":"SAKURABASHI","perfecture_jp":"三重県","jp_add_1":"津市","jp_add_2":"桜橋"},"5140063":{"post_code":"5140063","prefecture":"MIE KEN","city":"TSU SHI","town":"SHIBUMICHO","perfecture_jp":"三重県","jp_add_1":"津市","jp_add_2":"渋見町"},"5140002":{"post_code":"5140002","prefecture":"MIE KEN","city":"TSU SHI","town":"SHIMAZAKICHO","perfecture_jp":"三重県","jp_add_1":"津市","jp_add_2":"島崎町"},"5140805":{"post_code":"5140805","prefecture":"MIE KEN","city":"TSU SHI","town":"SHIMOBEZAIMACHI TSUOKI","perfecture_jp":"三重県","jp_add_1":"津市","jp_add_2":"下弁財町津興"},"5140837":{"post_code":"5140837","prefecture":"MIE KEN","city":"TSU SHI","town":"SHUSEICHO","perfecture_jp":"三重県","jp_add_1":"津市","jp_add_2":"修成町"},"5141255":{"post_code":"5141255","prefecture":"MIE KEN","city":"TSU SHI","town":"SHODACHO","perfecture_jp":"三重県","jp_add_1":"津市","jp_add_2":"庄田町"},"5140101":{"post_code":"5140101","prefecture":"MIE KEN","city":"TSU SHI","town":"SHIRATSUKACHO","perfecture_jp":"三重県","jp_add_1":"津市","jp_add_2":"白塚町"},"5140818":{"post_code":"5140818","prefecture":"MIE KEN","city":"TSU SHI","town":"SHIROYAMA","perfecture_jp":"三重県","jp_add_1":"津市","jp_add_2":"城山"},"5140024":{"post_code":"5140024","prefecture":"MIE KEN","city":"TSU SHI","town":"SHINTATEMACHI TSU","perfecture_jp":"三重県","jp_add_1":"津市","jp_add_2":"新立町津"},"5140026":{"post_code":"5140026","prefecture":"MIE KEN","city":"TSU SHI","town":"SHINHIGASHIMACHI TOSE","perfecture_jp":"三重県","jp_add_1":"津市","jp_add_2":"新東町塔世"},"5140042":{"post_code":"5140042","prefecture":"MIE KEN","city":"TSU SHI","town":"SHIMMACHI","perfecture_jp":"三重県","jp_add_1":"津市","jp_add_2":"新町"},"5140012":{"post_code":"5140012","prefecture":"MIE KEN","city":"TSU SHI","town":"SUEHIROCHO","perfecture_jp":"三重県","jp_add_1":"津市","jp_add_2":"末広町"},"5141124":{"post_code":"5141124","prefecture":"MIE KEN","city":"TSU SHI","town":"SUGAZECHO","perfecture_jp":"三重県","jp_add_1":"津市","jp_add_2":"須ケ瀬町"},"5140019":{"post_code":"5140019","prefecture":"MIE KEN","city":"TSU SHI","town":"SUMIYOSHICHO","perfecture_jp":"三重県","jp_add_1":"津市","jp_add_2":"住吉町"},"5140801":{"post_code":"5140801","prefecture":"MIE KEN","city":"TSU SHI","town":"SENDOMACHI TSUOKI","perfecture_jp":"三重県","jp_add_1":"津市","jp_add_2":"船頭町津興"},"5140027":{"post_code":"5140027","prefecture":"MIE KEN","city":"TSU SHI","town":"DAIMON","perfecture_jp":"三重県","jp_add_1":"津市","jp_add_2":"大門"},"5140011":{"post_code":"5140011","prefecture":"MIE KEN","city":"TSU SHI","town":"TAKASUCHO","perfecture_jp":"三重県","jp_add_1":"津市","jp_add_2":"高洲町"},"5140819":{"post_code":"5140819","prefecture":"MIE KEN","city":"TSU SHI","town":"TAKAJAYA","perfecture_jp":"三重県","jp_add_1":"津市","jp_add_2":"高茶屋"},"5140816":{"post_code":"5140816","prefecture":"MIE KEN","city":"TSU SHI","town":"TAKAJAYAKOMORIUENOCHO","perfecture_jp":"三重県","jp_add_1":"津市","jp_add_2":"高茶屋小森上野町"},"5140817":{"post_code":"5140817","prefecture":"MIE KEN","city":"TSU SHI","town":"TAKAJAYAKOMORICHO","perfecture_jp":"三重県","jp_add_1":"津市","jp_add_2":"高茶屋小森町"},"5142221":{"post_code":"5142221","prefecture":"MIE KEN","city":"TSU SHI","town":"TAKANOCHO","perfecture_jp":"三重県","jp_add_1":"津市","jp_add_2":"高野尾町"},"5140821":{"post_code":"5140821","prefecture":"MIE KEN","city":"TSU SHI","town":"TARUMI","perfecture_jp":"三重県","jp_add_1":"津市","jp_add_2":"垂水"},"5140032":{"post_code":"5140032","prefecture":"MIE KEN","city":"TSU SHI","town":"CHUO","perfecture_jp":"三重県","jp_add_1":"津市","jp_add_2":"中央"},"5140812":{"post_code":"5140812","prefecture":"MIE KEN","city":"TSU SHI","town":"TSUOKI","perfecture_jp":"三重県","jp_add_1":"津市","jp_add_2":"津興"},"5140073":{"post_code":"5140073","prefecture":"MIE KEN","city":"TSU SHI","town":"TONOMURA","perfecture_jp":"三重県","jp_add_1":"津市","jp_add_2":"殿村"},"5142222":{"post_code":"5142222","prefecture":"MIE KEN","city":"TSU SHI","town":"TOYOGAOKA","perfecture_jp":"三重県","jp_add_1":"津市","jp_add_2":"豊が丘"},"5140005":{"post_code":"5140005","prefecture":"MIE KEN","city":"TSU SHI","town":"TORIICHO","perfecture_jp":"三重県","jp_add_1":"津市","jp_add_2":"鳥居町"},"5140018":{"post_code":"5140018","prefecture":"MIE KEN","city":"TSU SHI","town":"NAKAGAWARA","perfecture_jp":"三重県","jp_add_1":"津市","jp_add_2":"中河原"},"5141256":{"post_code":"5141256","prefecture":"MIE KEN","city":"TSU SHI","town":"NAKAMURACHO","perfecture_jp":"三重県","jp_add_1":"津市","jp_add_2":"中村町"},"5140064":{"post_code":"5140064","prefecture":"MIE KEN","city":"TSU SHI","town":"NAGAOKACHO","perfecture_jp":"三重県","jp_add_1":"津市","jp_add_2":"長岡町"},"5140010":{"post_code":"5140010","prefecture":"MIE KEN","city":"TSU SHI","town":"NAGISAMACHI","perfecture_jp":"三重県","jp_add_1":"津市","jp_add_2":"なぎさまち"},"5140833":{"post_code":"5140833","prefecture":"MIE KEN","city":"TSU SHI","town":"NISHIAKOGICHO IWATA","perfecture_jp":"三重県","jp_add_1":"津市","jp_add_2":"西阿漕町岩田"},"5140038":{"post_code":"5140038","prefecture":"MIE KEN","city":"TSU SHI","town":"NISHIFURUKAWACHO","perfecture_jp":"三重県","jp_add_1":"津市","jp_add_2":"西古河町"},"5140035":{"post_code":"5140035","prefecture":"MIE KEN","city":"TSU SHI","town":"NISHIMARUNOCHI","perfecture_jp":"三重県","jp_add_1":"津市","jp_add_2":"西丸之内"},"5141116":{"post_code":"5141116","prefecture":"MIE KEN","city":"TSU SHI","town":"NINOMICHO","perfecture_jp":"三重県","jp_add_1":"津市","jp_add_2":"新家町"},"5140051":{"post_code":"5140051","prefecture":"MIE KEN","city":"TSU SHI","town":"NOSOCHO","perfecture_jp":"三重県","jp_add_1":"津市","jp_add_2":"納所町"},"5140836":{"post_code":"5140836","prefecture":"MIE KEN","city":"TSU SHI","town":"NOZAKIGAITO IWATA","perfecture_jp":"三重県","jp_add_1":"津市","jp_add_2":"野崎垣内岩田"},"5140826":{"post_code":"5140826","prefecture":"MIE KEN","city":"TSU SHI","town":"NODA","perfecture_jp":"三重県","jp_add_1":"津市","jp_add_2":"野田"},"5140053":{"post_code":"5140053","prefecture":"MIE KEN","city":"TSU SHI","town":"HAKATACHO","perfecture_jp":"三重県","jp_add_1":"津市","jp_add_2":"博多町"},"5140041":{"post_code":"5140041","prefecture":"MIE KEN","city":"TSU SHI","town":"HATCHO","perfecture_jp":"三重県","jp_add_1":"津市","jp_add_2":"八町"},"5140009":{"post_code":"5140009","prefecture":"MIE KEN","city":"TSU SHI","town":"HADOKOROCHO","perfecture_jp":"三重県","jp_add_1":"津市","jp_add_2":"羽所町"},"5140823":{"post_code":"5140823","prefecture":"MIE KEN","city":"TSU SHI","town":"HANDA","perfecture_jp":"三重県","jp_add_1":"津市","jp_add_2":"半田"},"5140037":{"post_code":"5140037","prefecture":"MIE KEN","city":"TSU SHI","town":"HIGASHIFURUKAWACHO","perfecture_jp":"三重県","jp_add_1":"津市","jp_add_2":"東古河町"},"5140025":{"post_code":"5140025","prefecture":"MIE KEN","city":"TSU SHI","town":"HIGASHIMACHI TSU","perfecture_jp":"三重県","jp_add_1":"津市","jp_add_2":"東町津"},"5140028":{"post_code":"5140028","prefecture":"MIE KEN","city":"TSU SHI","town":"HIGASHIMARUNOCHI","perfecture_jp":"三重県","jp_add_1":"津市","jp_add_2":"東丸之内"},"5141103":{"post_code":"5141103","prefecture":"MIE KEN","city":"TSU SHI","town":"HISAI AIKAWACHO","perfecture_jp":"三重県","jp_add_1":"津市","jp_add_2":"久居相川町"},"5141253":{"post_code":"5141253","prefecture":"MIE KEN","city":"TSU SHI","town":"HISAI ISSHIKICHO","perfecture_jp":"三重県","jp_add_1":"津市","jp_add_2":"久居一色町"},"5141114":{"post_code":"5141114","prefecture":"MIE KEN","city":"TSU SHI","town":"HISAI IDOYAMACHO","perfecture_jp":"三重県","jp_add_1":"津市","jp_add_2":"久居井戸山町"},"5141108":{"post_code":"5141108","prefecture":"MIE KEN","city":"TSU SHI","town":"HISAI IBACHO","perfecture_jp":"三重県","jp_add_1":"津市","jp_add_2":"久居射場町"},"5141109":{"post_code":"5141109","prefecture":"MIE KEN","city":"TSU SHI","town":"HISAI KARASUGICHO","perfecture_jp":"三重県","jp_add_1":"津市","jp_add_2":"久居烏木町"},"5141105":{"post_code":"5141105","prefecture":"MIE KEN","city":"TSU SHI","town":"HISAI KITAGUCHICHO","perfecture_jp":"三重県","jp_add_1":"津市","jp_add_2":"久居北口町"},"5141112":{"post_code":"5141112","prefecture":"MIE KEN","city":"TSU SHI","town":"HISAI KONOMBECHO","perfecture_jp":"三重県","jp_add_1":"津市","jp_add_2":"久居小野辺町"},"5141137":{"post_code":"5141137","prefecture":"MIE KEN","city":"TSU SHI","town":"HISAI KOBEKICHO","perfecture_jp":"三重県","jp_add_1":"津市","jp_add_2":"久居小戸木町"},"5141111":{"post_code":"5141111","prefecture":"MIE KEN","city":"TSU SHI","town":"HISAI SAKURAGAOKACHO","perfecture_jp":"三重県","jp_add_1":"津市","jp_add_2":"久居桜が丘町"},"5141132":{"post_code":"5141132","prefecture":"MIE KEN","city":"TSU SHI","town":"HISAI SAYAMACHI","perfecture_jp":"三重県","jp_add_1":"津市","jp_add_2":"久居幸町"},"5141118":{"post_code":"5141118","prefecture":"MIE KEN","city":"TSU SHI","town":"HISAI SHIMMACHI","perfecture_jp":"三重県","jp_add_1":"津市","jp_add_2":"久居新町"},"5141106":{"post_code":"5141106","prefecture":"MIE KEN","city":"TSU SHI","town":"HISAI TERAMACHI","perfecture_jp":"三重県","jp_add_1":"津市","jp_add_2":"久居寺町"},"5141107":{"post_code":"5141107","prefecture":"MIE KEN","city":"TSU SHI","town":"HISAI NAKAMACHI","perfecture_jp":"三重県","jp_add_1":"津市","jp_add_2":"久居中町"},"5141131":{"post_code":"5141131","prefecture":"MIE KEN","city":"TSU SHI","town":"HISAI NISHITAKATOMACHI","perfecture_jp":"三重県","jp_add_1":"津市","jp_add_2":"久居西鷹跡町"},"5141121":{"post_code":"5141121","prefecture":"MIE KEN","city":"TSU SHI","town":"HISAI NINOMACHI","perfecture_jp":"三重県","jp_add_1":"津市","jp_add_2":"久居二ノ町"},"5141117":{"post_code":"5141117","prefecture":"MIE KEN","city":"TSU SHI","town":"HISAI NOGUCHICHO","perfecture_jp":"三重県","jp_add_1":"津市","jp_add_2":"久居野口町"},"5141113":{"post_code":"5141113","prefecture":"MIE KEN","city":"TSU SHI","town":"HISAI NOMURACHO","perfecture_jp":"三重県","jp_add_1":"津市","jp_add_2":"久居野村町"},"5141134":{"post_code":"5141134","prefecture":"MIE KEN","city":"TSU SHI","town":"HISAI HATAGOMACHI","perfecture_jp":"三重県","jp_add_1":"津市","jp_add_2":"久居旅籠町"},"5141136":{"post_code":"5141136","prefecture":"MIE KEN","city":"TSU SHI","town":"HISAI HIGASHITAKATOMACHI","perfecture_jp":"三重県","jp_add_1":"津市","jp_add_2":"久居東鷹跡町"},"5141102":{"post_code":"5141102","prefecture":"MIE KEN","city":"TSU SHI","town":"HISAI FUJIGAOKACHO","perfecture_jp":"三重県","jp_add_1":"津市","jp_add_2":"久居藤ケ丘町"},"5141135":{"post_code":"5141135","prefecture":"MIE KEN","city":"TSU SHI","town":"HISAI HOMMACHI","perfecture_jp":"三重県","jp_add_1":"津市","jp_add_2":"久居本町"},"5141258":{"post_code":"5141258","prefecture":"MIE KEN","city":"TSU SHI","town":"HISAI MIDORIGAOKACHO","perfecture_jp":"三重県","jp_add_1":"津市","jp_add_2":"久居緑が丘町"},"5141101":{"post_code":"5141101","prefecture":"MIE KEN","city":"TSU SHI","town":"HISAI MYOJINCHO","perfecture_jp":"三重県","jp_add_1":"津市","jp_add_2":"久居明神町"},"5141104":{"post_code":"5141104","prefecture":"MIE KEN","city":"TSU SHI","town":"HISAI MOCHIKAWACHO","perfecture_jp":"三重県","jp_add_1":"津市","jp_add_2":"久居持川町"},"5141125":{"post_code":"5141125","prefecture":"MIE KEN","city":"TSU SHI","town":"HISAI MOTOMACHI","perfecture_jp":"三重県","jp_add_1":"津市","jp_add_2":"久居元町"},"5141133":{"post_code":"5141133","prefecture":"MIE KEN","city":"TSU SHI","town":"HISAI YOROZUMACHI","perfecture_jp":"三重県","jp_add_1":"津市","jp_add_2":"久居万町"},"5140814":{"post_code":"5140814","prefecture":"MIE KEN","city":"TSU SHI","town":"FUJIEDACHO","perfecture_jp":"三重県","jp_add_1":"津市","jp_add_2":"藤枝町"},"5140815":{"post_code":"5140815","prefecture":"MIE KEN","city":"TSU SHI","town":"FUJIKATA","perfecture_jp":"三重県","jp_add_1":"津市","jp_add_2":"藤方"},"5141138":{"post_code":"5141138","prefecture":"MIE KEN","city":"TSU SHI","town":"HEKICHO","perfecture_jp":"三重県","jp_add_1":"津市","jp_add_2":"戸木町"},"5140831":{"post_code":"5140831","prefecture":"MIE KEN","city":"TSU SHI","town":"HOMMACHI","perfecture_jp":"三重県","jp_add_1":"津市","jp_add_2":"本町"},"5141123":{"post_code":"5141123","prefecture":"MIE KEN","city":"TSU SHI","town":"MAKICHO","perfecture_jp":"三重県","jp_add_1":"津市","jp_add_2":"牧町"},"5140033":{"post_code":"5140033","prefecture":"MIE KEN","city":"TSU SHI","town":"MARUNOCHI","perfecture_jp":"三重県","jp_add_1":"津市","jp_add_2":"丸之内"},"5140036":{"post_code":"5140036","prefecture":"MIE KEN","city":"TSU SHI","town":"MARUNOCHI YOSEICHO","perfecture_jp":"三重県","jp_add_1":"津市","jp_add_2":"丸之内養正町"},"5140802":{"post_code":"5140802","prefecture":"MIE KEN","city":"TSU SHI","town":"MIECHO TSUOKI","perfecture_jp":"三重県","jp_add_1":"津市","jp_add_2":"三重町津興"},"5140045":{"post_code":"5140045","prefecture":"MIE KEN","city":"TSU SHI","town":"MIKAWACHO","perfecture_jp":"三重県","jp_add_1":"津市","jp_add_2":"美川町"},"5142106":{"post_code":"5142106","prefecture":"MIE KEN","city":"TSU SHI","town":"MISATOCHO ASHIZAKA","perfecture_jp":"三重県","jp_add_1":"津市","jp_add_2":"美里町足坂"},"5142107":{"post_code":"5142107","prefecture":"MIE KEN","city":"TSU SHI","town":"MISATOCHO ANAKURA","perfecture_jp":"三重県","jp_add_1":"津市","jp_add_2":"美里町穴倉"},"5142104":{"post_code":"5142104","prefecture":"MIE KEN","city":"TSU SHI","town":"MISATOCHO IEDOKORO","perfecture_jp":"三重県","jp_add_1":"津市","jp_add_2":"美里町家所"},"5142105":{"post_code":"5142105","prefecture":"MIE KEN","city":"TSU SHI","town":"MISATOCHO IONO","perfecture_jp":"三重県","jp_add_1":"津市","jp_add_2":"美里町五百野"},"5142115":{"post_code":"5142115","prefecture":"MIE KEN","city":"TSU SHI","town":"MISATOCHO KATSURAHATA","perfecture_jp":"三重県","jp_add_1":"津市","jp_add_2":"美里町桂畑"},"5142112":{"post_code":"5142112","prefecture":"MIE KEN","city":"TSU SHI","town":"MISATOCHO KITANAGANO","perfecture_jp":"三重県","jp_add_1":"津市","jp_add_2":"美里町北長野"},"5142101":{"post_code":"5142101","prefecture":"MIE KEN","city":"TSU SHI","town":"MISATOCHO KOZAWARA","perfecture_jp":"三重県","jp_add_1":"津市","jp_add_2":"美里町高座原"},"5142103":{"post_code":"5142103","prefecture":"MIE KEN","city":"TSU SHI","town":"MISATOCHO HINATA","perfecture_jp":"三重県","jp_add_1":"津市","jp_add_2":"美里町日南田"},"5142111":{"post_code":"5142111","prefecture":"MIE KEN","city":"TSU SHI","town":"MISATOCHO HIRAGI","perfecture_jp":"三重県","jp_add_1":"津市","jp_add_2":"美里町平木"},"5142102":{"post_code":"5142102","prefecture":"MIE KEN","city":"TSU SHI","town":"MISATOCHO FUNAYAMA","perfecture_jp":"三重県","jp_add_1":"津市","jp_add_2":"美里町船山"},"5142113":{"post_code":"5142113","prefecture":"MIE KEN","city":"TSU SHI","town":"MISATOCHO MISATO","perfecture_jp":"三重県","jp_add_1":"津市","jp_add_2":"美里町三郷"},"5142114":{"post_code":"5142114","prefecture":"MIE KEN","city":"TSU SHI","town":"MISATOCHO MINAMINAGANO","perfecture_jp":"三重県","jp_add_1":"津市","jp_add_2":"美里町南長野"},"5140825":{"post_code":"5140825","prefecture":"MIE KEN","city":"TSU SHI","town":"MIDORIGAOKA","perfecture_jp":"三重県","jp_add_1":"津市","jp_add_2":"緑が丘"},"5140014":{"post_code":"5140014","prefecture":"MIE KEN","city":"TSU SHI","town":"MINATOMACHI","perfecture_jp":"三重県","jp_add_1":"津市","jp_add_2":"港町"},"5140822":{"post_code":"5140822","prefecture":"MIE KEN","city":"TSU SHI","town":"MINAMIGAOKA","perfecture_jp":"三重県","jp_add_1":"津市","jp_add_2":"南が丘"},"5140055":{"post_code":"5140055","prefecture":"MIE KEN","city":"TSU SHI","town":"MINAMIKOJI","perfecture_jp":"三重県","jp_add_1":"津市","jp_add_2":"南河路"},"5140043":{"post_code":"5140043","prefecture":"MIE KEN","city":"TSU SHI","town":"MINAMISHIMMACHI","perfecture_jp":"三重県","jp_add_1":"津市","jp_add_2":"南新町"},"5140832":{"post_code":"5140832","prefecture":"MIE KEN","city":"TSU SHI","town":"MINAMICHUO","perfecture_jp":"三重県","jp_add_1":"津市","jp_add_2":"南中央"},"5140034":{"post_code":"5140034","prefecture":"MIE KEN","city":"TSU SHI","town":"MINAMIMARUNOCHI","perfecture_jp":"三重県","jp_add_1":"津市","jp_add_2":"南丸之内"},"5141254":{"post_code":"5141254","prefecture":"MIE KEN","city":"TSU SHI","town":"MORICHO","perfecture_jp":"三重県","jp_add_1":"津市","jp_add_2":"森町"},"5140803":{"post_code":"5140803","prefecture":"MIE KEN","city":"TSU SHI","town":"YANAGIYAMA TSUOKI","perfecture_jp":"三重県","jp_add_1":"津市","jp_add_2":"柳山津興"},"5140813":{"post_code":"5140813","prefecture":"MIE KEN","city":"TSU SHI","town":"YAHATACHO","perfecture_jp":"三重県","jp_add_1":"津市","jp_add_2":"八幡町"},"5140116":{"post_code":"5140116","prefecture":"MIE KEN","city":"TSU SHI","town":"YUMEGAOKA","perfecture_jp":"三重県","jp_add_1":"津市","jp_add_2":"夢が丘"},"5140021":{"post_code":"5140021","prefecture":"MIE KEN","city":"TSU SHI","town":"YOROZUMACHI TSU","perfecture_jp":"三重県","jp_add_1":"津市","jp_add_2":"万町津"},"5140071":{"post_code":"5140071","prefecture":"MIE KEN","city":"TSU SHI","town":"WAKEBE","perfecture_jp":"三重県","jp_add_1":"津市","jp_add_2":"分部"}}