{"5170081":{"post_code":"5170081","prefecture":"MIE KEN","city":"ISE SHI","town":"ASAMACHO(IKENORA.MINOSE)","perfecture_jp":"三重県","jp_add_1":"伊勢市","jp_add_2":"朝熊町"},"5170000":{"post_code":"5170000","prefecture":"MIE KEN","city":"TOBA SHI","town":"IKANIKEISAIGANAIBAAI","perfecture_jp":"三重県","jp_add_1":"鳥羽市","jp_add_2":""},"5170033":{"post_code":"5170033","prefecture":"MIE KEN","city":"TOBA SHI","town":"ADAKOCHO","perfecture_jp":"三重県","jp_add_1":"鳥羽市","jp_add_2":"畔蛸町"},"5170021":{"post_code":"5170021","prefecture":"MIE KEN","city":"TOBA SHI","town":"ARASHIMACHO","perfecture_jp":"三重県","jp_add_1":"鳥羽市","jp_add_2":"安楽島町"},"5170012":{"post_code":"5170012","prefecture":"MIE KEN","city":"TOBA SHI","town":"IKEGAMICHO","perfecture_jp":"三重県","jp_add_1":"鳥羽市","jp_add_2":"池上町"},"5170026":{"post_code":"5170026","prefecture":"MIE KEN","city":"TOBA SHI","town":"IJIKACHO","perfecture_jp":"三重県","jp_add_1":"鳥羽市","jp_add_2":"石鏡町"},"5170041":{"post_code":"5170041","prefecture":"MIE KEN","city":"TOBA SHI","town":"IWAKURACHO","perfecture_jp":"三重県","jp_add_1":"鳥羽市","jp_add_2":"岩倉町"},"5170025":{"post_code":"5170025","prefecture":"MIE KEN","city":"TOBA SHI","town":"URAMURACHO","perfecture_jp":"三重県","jp_add_1":"鳥羽市","jp_add_2":"浦村町"},"5170022":{"post_code":"5170022","prefecture":"MIE KEN","city":"TOBA SHI","town":"OAKI HIGASHIMACHI","perfecture_jp":"三重県","jp_add_1":"鳥羽市","jp_add_2":"大明東町"},"5170023":{"post_code":"5170023","prefecture":"MIE KEN","city":"TOBA SHI","town":"OAKI NISHIMACHI","perfecture_jp":"三重県","jp_add_1":"鳥羽市","jp_add_2":"大明西町"},"5170032":{"post_code":"5170032","prefecture":"MIE KEN","city":"TOBA SHI","town":"OSATSUCHO","perfecture_jp":"三重県","jp_add_1":"鳥羽市","jp_add_2":"相差町"},"5170015":{"post_code":"5170015","prefecture":"MIE KEN","city":"TOBA SHI","town":"OHAMACHO","perfecture_jp":"三重県","jp_add_1":"鳥羽市","jp_add_2":"小浜町"},"5170014":{"post_code":"5170014","prefecture":"MIE KEN","city":"TOBA SHI","town":"KATAKAMICHO","perfecture_jp":"三重県","jp_add_1":"鳥羽市","jp_add_2":"堅神町"},"5170035":{"post_code":"5170035","prefecture":"MIE KEN","city":"TOBA SHI","town":"KATAKOCHO","perfecture_jp":"三重県","jp_add_1":"鳥羽市","jp_add_2":"堅子町"},"5170001":{"post_code":"5170001","prefecture":"MIE KEN","city":"TOBA SHI","town":"KAMIJIMACHO","perfecture_jp":"三重県","jp_add_1":"鳥羽市","jp_add_2":"神島町"},"5170031":{"post_code":"5170031","prefecture":"MIE KEN","city":"TOBA SHI","town":"KUZAKICHO","perfecture_jp":"三重県","jp_add_1":"鳥羽市","jp_add_2":"国崎町"},"5170044":{"post_code":"5170044","prefecture":"MIE KEN","city":"TOBA SHI","town":"KOCHICHO","perfecture_jp":"三重県","jp_add_1":"鳥羽市","jp_add_2":"河内町"},"5170005":{"post_code":"5170005","prefecture":"MIE KEN","city":"TOBA SHI","town":"SAKATECHO","perfecture_jp":"三重県","jp_add_1":"鳥羽市","jp_add_2":"坂手町"},"5170046":{"post_code":"5170046","prefecture":"MIE KEN","city":"TOBA SHI","town":"SACHIGAOKA","perfecture_jp":"三重県","jp_add_1":"鳥羽市","jp_add_2":"幸丘"},"5170043":{"post_code":"5170043","prefecture":"MIE KEN","city":"TOBA SHI","town":"SHIRAKICHO","perfecture_jp":"三重県","jp_add_1":"鳥羽市","jp_add_2":"白木町"},"5170004":{"post_code":"5170004","prefecture":"MIE KEN","city":"TOBA SHI","town":"SUGASHIMACHO","perfecture_jp":"三重県","jp_add_1":"鳥羽市","jp_add_2":"菅島町"},"5170034":{"post_code":"5170034","prefecture":"MIE KEN","city":"TOBA SHI","town":"SENGACHO","perfecture_jp":"三重県","jp_add_1":"鳥羽市","jp_add_2":"千賀町"},"5170024":{"post_code":"5170024","prefecture":"MIE KEN","city":"TOBA SHI","town":"TAKAOKACHO","perfecture_jp":"三重県","jp_add_1":"鳥羽市","jp_add_2":"高丘町"},"5170002":{"post_code":"5170002","prefecture":"MIE KEN","city":"TOBA SHI","town":"TOSHICHO","perfecture_jp":"三重県","jp_add_1":"鳥羽市","jp_add_2":"答志町"},"5170011":{"post_code":"5170011","prefecture":"MIE KEN","city":"TOBA SHI","town":"TOBA","perfecture_jp":"三重県","jp_add_1":"鳥羽市","jp_add_2":"鳥羽"},"5170045":{"post_code":"5170045","prefecture":"MIE KEN","city":"TOBA SHI","town":"FUNATSUCHO","perfecture_jp":"三重県","jp_add_1":"鳥羽市","jp_add_2":"船津町"},"5170042":{"post_code":"5170042","prefecture":"MIE KEN","city":"TOBA SHI","town":"MATSUOCHO","perfecture_jp":"三重県","jp_add_1":"鳥羽市","jp_add_2":"松尾町"},"5170003":{"post_code":"5170003","prefecture":"MIE KEN","city":"TOBA SHI","town":"MOMOTORICHO","perfecture_jp":"三重県","jp_add_1":"鳥羽市","jp_add_2":"桃取町"},"5170013":{"post_code":"5170013","prefecture":"MIE KEN","city":"TOBA SHI","town":"YANAICHO","perfecture_jp":"三重県","jp_add_1":"鳥羽市","jp_add_2":"屋内町"},"5170047":{"post_code":"5170047","prefecture":"MIE KEN","city":"TOBA SHI","town":"WAKASUGICHO","perfecture_jp":"三重県","jp_add_1":"鳥羽市","jp_add_2":"若杉町"},"5170500":{"post_code":"5170500","prefecture":"MIE KEN","city":"SHIMA SHI","town":"IKANIKEISAIGANAIBAAI","perfecture_jp":"三重県","jp_add_1":"志摩市","jp_add_2":""},"5170507":{"post_code":"5170507","prefecture":"MIE KEN","city":"SHIMA SHI","town":"AGOCHO ANORI","perfecture_jp":"三重県","jp_add_1":"志摩市","jp_add_2":"阿児町安乗"},"5170501":{"post_code":"5170501","prefecture":"MIE KEN","city":"SHIMA SHI","town":"AGOCHO UGATA","perfecture_jp":"三重県","jp_add_1":"志摩市","jp_add_2":"阿児町鵜方"},"5170506":{"post_code":"5170506","prefecture":"MIE KEN","city":"SHIMA SHI","town":"AGOCHO KO","perfecture_jp":"三重県","jp_add_1":"志摩市","jp_add_2":"阿児町国府"},"5170505":{"post_code":"5170505","prefecture":"MIE KEN","city":"SHIMA SHI","town":"AGOCHO KOKA","perfecture_jp":"三重県","jp_add_1":"志摩市","jp_add_2":"阿児町甲賀"},"5170504":{"post_code":"5170504","prefecture":"MIE KEN","city":"SHIMA SHI","town":"AGOCHO SHIJIMA","perfecture_jp":"三重県","jp_add_1":"志摩市","jp_add_2":"阿児町志島"},"5170502":{"post_code":"5170502","prefecture":"MIE KEN","city":"SHIMA SHI","town":"AGOCHO SHIMMEI","perfecture_jp":"三重県","jp_add_1":"志摩市","jp_add_2":"阿児町神明"},"5170503":{"post_code":"5170503","prefecture":"MIE KEN","city":"SHIMA SHI","town":"AGOCHO TATEGAMI","perfecture_jp":"三重県","jp_add_1":"志摩市","jp_add_2":"阿児町立神"},"5170213":{"post_code":"5170213","prefecture":"MIE KEN","city":"SHIMA SHI","town":"ISOBECHO ANAGAWA","perfecture_jp":"三重県","jp_add_1":"志摩市","jp_add_2":"磯部町穴川"},"5170206":{"post_code":"5170206","prefecture":"MIE KEN","city":"SHIMA SHI","town":"ISOBECHO IIHAMA","perfecture_jp":"三重県","jp_add_1":"志摩市","jp_add_2":"磯部町飯浜"},"5170209":{"post_code":"5170209","prefecture":"MIE KEN","city":"SHIMA SHI","town":"ISOBECHO ERIHARA","perfecture_jp":"三重県","jp_add_1":"志摩市","jp_add_2":"磯部町恵利原"},"5170208":{"post_code":"5170208","prefecture":"MIE KEN","city":"SHIMA SHI","town":"ISOBECHO KAMINOGO","perfecture_jp":"三重県","jp_add_1":"志摩市","jp_add_2":"磯部町上之郷"},"5170202":{"post_code":"5170202","prefecture":"MIE KEN","city":"SHIMA SHI","town":"ISOBECHO KUTSUKAKE","perfecture_jp":"三重県","jp_add_1":"志摩市","jp_add_2":"磯部町沓掛"},"5170216":{"post_code":"5170216","prefecture":"MIE KEN","city":"SHIMA SHI","town":"ISOBECHO KURIKIHIRO","perfecture_jp":"三重県","jp_add_1":"志摩市","jp_add_2":"磯部町栗木広"},"5170201":{"post_code":"5170201","prefecture":"MIE KEN","city":"SHIMA SHI","town":"ISOBECHO GOCHI","perfecture_jp":"三重県","jp_add_1":"志摩市","jp_add_2":"磯部町五知"},"5170212":{"post_code":"5170212","prefecture":"MIE KEN","city":"SHIMA SHI","town":"ISOBECHO SAKAZAKI","perfecture_jp":"三重県","jp_add_1":"志摩市","jp_add_2":"磯部町坂崎"},"5170211":{"post_code":"5170211","prefecture":"MIE KEN","city":"SHIMA SHI","town":"ISOBECHO SANGASHO","perfecture_jp":"三重県","jp_add_1":"志摩市","jp_add_2":"磯部町三ケ所"},"5170207":{"post_code":"5170207","prefecture":"MIE KEN","city":"SHIMA SHI","town":"ISOBECHO SHIMONOGO","perfecture_jp":"三重県","jp_add_1":"志摩市","jp_add_2":"磯部町下之郷"},"5170218":{"post_code":"5170218","prefecture":"MIE KEN","city":"SHIMA SHI","town":"ISOBECHO TSUIJI","perfecture_jp":"三重県","jp_add_1":"志摩市","jp_add_2":"磯部町築地"},"5170214":{"post_code":"5170214","prefecture":"MIE KEN","city":"SHIMA SHI","town":"ISOBECHO HASAMA","perfecture_jp":"三重県","jp_add_1":"志摩市","jp_add_2":"磯部町迫間"},"5170215":{"post_code":"5170215","prefecture":"MIE KEN","city":"SHIMA SHI","town":"ISOBECHO HIYAMA","perfecture_jp":"三重県","jp_add_1":"志摩市","jp_add_2":"磯部町檜山"},"5170204":{"post_code":"5170204","prefecture":"MIE KEN","city":"SHIMA SHI","town":"ISOBECHO MATOYA","perfecture_jp":"三重県","jp_add_1":"志摩市","jp_add_2":"磯部町的矢"},"5170203":{"post_code":"5170203","prefecture":"MIE KEN","city":"SHIMA SHI","town":"ISOBECHO YAMADA","perfecture_jp":"三重県","jp_add_1":"志摩市","jp_add_2":"磯部町山田"},"5170217":{"post_code":"5170217","prefecture":"MIE KEN","city":"SHIMA SHI","town":"ISOBECHO YAMAHARA","perfecture_jp":"三重県","jp_add_1":"志摩市","jp_add_2":"磯部町山原"},"5170205":{"post_code":"5170205","prefecture":"MIE KEN","city":"SHIMA SHI","town":"ISOBECHO WATAKANO","perfecture_jp":"三重県","jp_add_1":"志摩市","jp_add_2":"磯部町渡鹿野"},"5170701":{"post_code":"5170701","prefecture":"MIE KEN","city":"SHIMA SHI","town":"SHIMACHO KATADA","perfecture_jp":"三重県","jp_add_1":"志摩市","jp_add_2":"志摩町片田"},"5170705":{"post_code":"5170705","prefecture":"MIE KEN","city":"SHIMA SHI","town":"SHIMACHO GOZA","perfecture_jp":"三重県","jp_add_1":"志摩市","jp_add_2":"志摩町御座"},"5170704":{"post_code":"5170704","prefecture":"MIE KEN","city":"SHIMA SHI","town":"SHIMACHO KOSHIKA","perfecture_jp":"三重県","jp_add_1":"志摩市","jp_add_2":"志摩町越賀"},"5170702":{"post_code":"5170702","prefecture":"MIE KEN","city":"SHIMA SHI","town":"SHIMACHO FUSEDA","perfecture_jp":"三重県","jp_add_1":"志摩市","jp_add_2":"志摩町布施田"},"5170703":{"post_code":"5170703","prefecture":"MIE KEN","city":"SHIMA SHI","town":"SHIMACHO WAGU","perfecture_jp":"三重県","jp_add_1":"志摩市","jp_add_2":"志摩町和具"},"5170601":{"post_code":"5170601","prefecture":"MIE KEN","city":"SHIMA SHI","town":"DAIOCHO AZENA","perfecture_jp":"三重県","jp_add_1":"志摩市","jp_add_2":"大王町畔名"},"5170603":{"post_code":"5170603","prefecture":"MIE KEN","city":"SHIMA SHI","town":"DAIOCHO NAKIRI","perfecture_jp":"三重県","jp_add_1":"志摩市","jp_add_2":"大王町波切"},"5170602":{"post_code":"5170602","prefecture":"MIE KEN","city":"SHIMA SHI","town":"DAIOCHO NATA","perfecture_jp":"三重県","jp_add_1":"志摩市","jp_add_2":"大王町名田"},"5170604":{"post_code":"5170604","prefecture":"MIE KEN","city":"SHIMA SHI","town":"DAIOCHO FUNAKOSHI","perfecture_jp":"三重県","jp_add_1":"志摩市","jp_add_2":"大王町船越"},"5170402":{"post_code":"5170402","prefecture":"MIE KEN","city":"SHIMA SHI","town":"HAMAJIMACHO SHIOYA","perfecture_jp":"三重県","jp_add_1":"志摩市","jp_add_2":"浜島町塩屋"},"5170405":{"post_code":"5170405","prefecture":"MIE KEN","city":"SHIMA SHI","town":"HAMAJIMACHO NAMBARI","perfecture_jp":"三重県","jp_add_1":"志摩市","jp_add_2":"浜島町南張"},"5170403":{"post_code":"5170403","prefecture":"MIE KEN","city":"SHIMA SHI","town":"HAMAJIMACHO HAZAKO","perfecture_jp":"三重県","jp_add_1":"志摩市","jp_add_2":"浜島町迫子"},"5170404":{"post_code":"5170404","prefecture":"MIE KEN","city":"SHIMA SHI","town":"HAMAJIMACHO HAMAJIMA","perfecture_jp":"三重県","jp_add_1":"志摩市","jp_add_2":"浜島町浜島"},"5170401":{"post_code":"5170401","prefecture":"MIE KEN","city":"SHIMA SHI","town":"HAMAJIMACHO HIYAMAJI","perfecture_jp":"三重県","jp_add_1":"志摩市","jp_add_2":"浜島町桧山路"}}