{"5180400":{"post_code":"5180400","prefecture":"MIE KEN","city":"NABARI SHI","town":"IKANIKEISAIGANAIBAAI","perfecture_jp":"三重県","jp_add_1":"名張市","jp_add_2":""},"5180468":{"post_code":"5180468","prefecture":"MIE KEN","city":"NABARI SHI","town":"AKAMECHO ICHINOI","perfecture_jp":"三重県","jp_add_1":"名張市","jp_add_2":"赤目町一ノ井"},"5180464":{"post_code":"5180464","prefecture":"MIE KEN","city":"NABARI SHI","town":"AKAMECHO KASHIWARA","perfecture_jp":"三重県","jp_add_1":"名張市","jp_add_2":"赤目町柏原"},"5180467":{"post_code":"5180467","prefecture":"MIE KEN","city":"NABARI SHI","town":"AKAMECHO SAGARA","perfecture_jp":"三重県","jp_add_1":"名張市","jp_add_2":"赤目町相楽"},"5180466":{"post_code":"5180466","prefecture":"MIE KEN","city":"NABARI SHI","town":"AKAMECHO SHINKAWA","perfecture_jp":"三重県","jp_add_1":"名張市","jp_add_2":"赤目町新川"},"5180465":{"post_code":"5180465","prefecture":"MIE KEN","city":"NABARI SHI","town":"AKAMECHO JOROKU","perfecture_jp":"三重県","jp_add_1":"名張市","jp_add_2":"赤目町丈六"},"5180461":{"post_code":"5180461","prefecture":"MIE KEN","city":"NABARI SHI","town":"AKAMECHO SUMIREGAOKA","perfecture_jp":"三重県","jp_add_1":"名張市","jp_add_2":"赤目町すみれが丘"},"5180463":{"post_code":"5180463","prefecture":"MIE KEN","city":"NABARI SHI","town":"AKAMECHO DAN","perfecture_jp":"三重県","jp_add_1":"名張市","jp_add_2":"赤目町檀"},"5180469":{"post_code":"5180469","prefecture":"MIE KEN","city":"NABARI SHI","town":"AKAMECHO NAGASAKA","perfecture_jp":"三重県","jp_add_1":"名張市","jp_add_2":"赤目町長坂"},"5180462":{"post_code":"5180462","prefecture":"MIE KEN","city":"NABARI SHI","town":"AKAMECHO HOSHIKAWA","perfecture_jp":"三重県","jp_add_1":"名張市","jp_add_2":"赤目町星川"},"5180721":{"post_code":"5180721","prefecture":"MIE KEN","city":"NABARI SHI","town":"ASAHIMACHI","perfecture_jp":"三重県","jp_add_1":"名張市","jp_add_2":"朝日町"},"5180737":{"post_code":"5180737","prefecture":"MIE KEN","city":"NABARI SHI","town":"ABETA","perfecture_jp":"三重県","jp_add_1":"名張市","jp_add_2":"安部田"},"5180607":{"post_code":"5180607","prefecture":"MIE KEN","city":"NABARI SHI","town":"KUZUO","perfecture_jp":"三重県","jp_add_1":"名張市","jp_add_2":"家野"},"5180736":{"post_code":"5180736","prefecture":"MIE KEN","city":"NABARI SHI","town":"IDE","perfecture_jp":"三重県","jp_add_1":"名張市","jp_add_2":"井手"},"5180716":{"post_code":"5180716","prefecture":"MIE KEN","city":"NABARI SHI","town":"UEHOMMACHI","perfecture_jp":"三重県","jp_add_1":"名張市","jp_add_2":"上本町"},"5180746":{"post_code":"5180746","prefecture":"MIE KEN","city":"NABARI SHI","town":"UMEGAOKAKITA 1-BANCHO","perfecture_jp":"三重県","jp_add_1":"名張市","jp_add_2":"梅が丘北１番町"},"5180747":{"post_code":"5180747","prefecture":"MIE KEN","city":"NABARI SHI","town":"UMEGAOKAKITA 2-BANCHO","perfecture_jp":"三重県","jp_add_1":"名張市","jp_add_2":"梅が丘北２番町"},"5180748":{"post_code":"5180748","prefecture":"MIE KEN","city":"NABARI SHI","town":"UMEGAOKAKITA 3-BANCHO","perfecture_jp":"三重県","jp_add_1":"名張市","jp_add_2":"梅が丘北３番町"},"5180749":{"post_code":"5180749","prefecture":"MIE KEN","city":"NABARI SHI","town":"UMEGAOKAKITA 4-BANCHO","perfecture_jp":"三重県","jp_add_1":"名張市","jp_add_2":"梅が丘北４番町"},"5180740":{"post_code":"5180740","prefecture":"MIE KEN","city":"NABARI SHI","town":"UMEGAOKAKITA 5-BANCHO","perfecture_jp":"三重県","jp_add_1":"名張市","jp_add_2":"梅が丘北５番町"},"5180741":{"post_code":"5180741","prefecture":"MIE KEN","city":"NABARI SHI","town":"UMEGAOKAMINAMI 1-BANCHO","perfecture_jp":"三重県","jp_add_1":"名張市","jp_add_2":"梅が丘南１番町"},"5180742":{"post_code":"5180742","prefecture":"MIE KEN","city":"NABARI SHI","town":"UMEGAOKAMINAMI2-BANCHO","perfecture_jp":"三重県","jp_add_1":"名張市","jp_add_2":"梅が丘南２番町"},"5180743":{"post_code":"5180743","prefecture":"MIE KEN","city":"NABARI SHI","town":"UMEGAOKAMINAMI3-BANCHO","perfecture_jp":"三重県","jp_add_1":"名張市","jp_add_2":"梅が丘南３番町"},"5180744":{"post_code":"5180744","prefecture":"MIE KEN","city":"NABARI SHI","town":"UMEGAOKAMINAMI4-BANCHO","perfecture_jp":"三重県","jp_add_1":"名張市","jp_add_2":"梅が丘南４番町"},"5180745":{"post_code":"5180745","prefecture":"MIE KEN","city":"NABARI SHI","town":"UMEGAOKAMINAMI5-BANCHO","perfecture_jp":"三重県","jp_add_1":"名張市","jp_add_2":"梅が丘南５番町"},"5180608":{"post_code":"5180608","prefecture":"MIE KEN","city":"NABARI SHI","town":"UYAMA","perfecture_jp":"三重県","jp_add_1":"名張市","jp_add_2":"鵜山"},"5180733":{"post_code":"5180733","prefecture":"MIE KEN","city":"NABARI SHI","town":"OYADO","perfecture_jp":"三重県","jp_add_1":"名張市","jp_add_2":"大屋戸"},"5180714":{"post_code":"5180714","prefecture":"MIE KEN","city":"NABARI SHI","town":"KAJIMACHI","perfecture_jp":"三重県","jp_add_1":"名張市","jp_add_2":"鍛冶町"},"5180453":{"post_code":"5180453","prefecture":"MIE KEN","city":"NABARI SHI","town":"KASUGAOKA1-BANCHO","perfecture_jp":"三重県","jp_add_1":"名張市","jp_add_2":"春日丘１番町"},"5180454":{"post_code":"5180454","prefecture":"MIE KEN","city":"NABARI SHI","town":"KASUGAOKA2-BANCHO","perfecture_jp":"三重県","jp_add_1":"名張市","jp_add_2":"春日丘２番町"},"5180455":{"post_code":"5180455","prefecture":"MIE KEN","city":"NABARI SHI","town":"KASUGAOKA3-BANCHO","perfecture_jp":"三重県","jp_add_1":"名張市","jp_add_2":"春日丘３番町"},"5180456":{"post_code":"5180456","prefecture":"MIE KEN","city":"NABARI SHI","town":"KASUGAOKA4-BANCHO","perfecture_jp":"三重県","jp_add_1":"名張市","jp_add_2":"春日丘４番町"},"5180457":{"post_code":"5180457","prefecture":"MIE KEN","city":"NABARI SHI","town":"KASUGAOKA5-BANCHO","perfecture_jp":"三重県","jp_add_1":"名張市","jp_add_2":"春日丘５番町"},"5180458":{"post_code":"5180458","prefecture":"MIE KEN","city":"NABARI SHI","town":"KASUGAOKA6-BANCHO","perfecture_jp":"三重県","jp_add_1":"名張市","jp_add_2":"春日丘６番町"},"5180459":{"post_code":"5180459","prefecture":"MIE KEN","city":"NABARI SHI","town":"KASUGAOKA7-BANCHO","perfecture_jp":"三重県","jp_add_1":"名張市","jp_add_2":"春日丘７番町"},"5180613":{"post_code":"5180613","prefecture":"MIE KEN","city":"NABARI SHI","town":"KAMIOBATA","perfecture_jp":"三重県","jp_add_1":"名張市","jp_add_2":"上小波田"},"5180502":{"post_code":"5180502","prefecture":"MIE KEN","city":"NABARI SHI","town":"KAMINAGASE","perfecture_jp":"三重県","jp_add_1":"名張市","jp_add_2":"上長瀬"},"5180710":{"post_code":"5180710","prefecture":"MIE KEN","city":"NABARI SHI","town":"KAMIHATCHO","perfecture_jp":"三重県","jp_add_1":"名張市","jp_add_2":"上八町"},"5180412":{"post_code":"5180412","prefecture":"MIE KEN","city":"NABARI SHI","town":"KAMIHINACHI","perfecture_jp":"三重県","jp_add_1":"名張市","jp_add_2":"上比奈知"},"5180762":{"post_code":"5180762","prefecture":"MIE KEN","city":"NABARI SHI","town":"KAMIMITANI","perfecture_jp":"三重県","jp_add_1":"名張市","jp_add_2":"上三谷"},"5180504":{"post_code":"5180504","prefecture":"MIE KEN","city":"NABARI SHI","town":"KAMIYA","perfecture_jp":"三重県","jp_add_1":"名張市","jp_add_2":"神屋"},"5180771":{"post_code":"5180771","prefecture":"MIE KEN","city":"NABARI SHI","town":"KIODAI 1-BANCHO","perfecture_jp":"三重県","jp_add_1":"名張市","jp_add_2":"希央台１番町"},"5180772":{"post_code":"5180772","prefecture":"MIE KEN","city":"NABARI SHI","town":"KIODAI 2-BANCHO","perfecture_jp":"三重県","jp_add_1":"名張市","jp_add_2":"希央台２番町"},"5180773":{"post_code":"5180773","prefecture":"MIE KEN","city":"NABARI SHI","town":"KIODAI 3-BANCHO","perfecture_jp":"三重県","jp_add_1":"名張市","jp_add_2":"希央台３番町"},"5180774":{"post_code":"5180774","prefecture":"MIE KEN","city":"NABARI SHI","town":"KIODAI 4-BANCHO","perfecture_jp":"三重県","jp_add_1":"名張市","jp_add_2":"希央台４番町"},"5180775":{"post_code":"5180775","prefecture":"MIE KEN","city":"NABARI SHI","town":"KIODAI 5-BANCHO","perfecture_jp":"三重県","jp_add_1":"名張市","jp_add_2":"希央台５番町"},"5180621":{"post_code":"5180621","prefecture":"MIE KEN","city":"NABARI SHI","town":"KIKYOGAOKA 1-BANCHO","perfecture_jp":"三重県","jp_add_1":"名張市","jp_add_2":"桔梗が丘１番町"},"5180622":{"post_code":"5180622","prefecture":"MIE KEN","city":"NABARI SHI","town":"KIKYOGAOKA 2-BANCHO","perfecture_jp":"三重県","jp_add_1":"名張市","jp_add_2":"桔梗が丘２番町"},"5180623":{"post_code":"5180623","prefecture":"MIE KEN","city":"NABARI SHI","town":"KIKYOGAOKA 3-BANCHO","perfecture_jp":"三重県","jp_add_1":"名張市","jp_add_2":"桔梗が丘３番町"},"5180624":{"post_code":"5180624","prefecture":"MIE KEN","city":"NABARI SHI","town":"KIKYOGAOKA 4-BANCHO","perfecture_jp":"三重県","jp_add_1":"名張市","jp_add_2":"桔梗が丘４番町"},"5180625":{"post_code":"5180625","prefecture":"MIE KEN","city":"NABARI SHI","town":"KIKYOGAOKA 5-BANCHO","perfecture_jp":"三重県","jp_add_1":"名張市","jp_add_2":"桔梗が丘５番町"},"5180626":{"post_code":"5180626","prefecture":"MIE KEN","city":"NABARI SHI","town":"KIKYOGAOKA 6-BANCHO","perfecture_jp":"三重県","jp_add_1":"名張市","jp_add_2":"桔梗が丘６番町"},"5180627":{"post_code":"5180627","prefecture":"MIE KEN","city":"NABARI SHI","town":"KIKYOGAOKA 7-BANCHO","perfecture_jp":"三重県","jp_add_1":"名張市","jp_add_2":"桔梗が丘７番町"},"5180628":{"post_code":"5180628","prefecture":"MIE KEN","city":"NABARI SHI","town":"KIKYOGAOKA 8-BANCHO","perfecture_jp":"三重県","jp_add_1":"名張市","jp_add_2":"桔梗が丘８番町"},"5180641":{"post_code":"5180641","prefecture":"MIE KEN","city":"NABARI SHI","town":"KIKYOGAOKANISHI 1-BANCHO","perfecture_jp":"三重県","jp_add_1":"名張市","jp_add_2":"桔梗が丘西１番町"},"5180642":{"post_code":"5180642","prefecture":"MIE KEN","city":"NABARI SHI","town":"KIKYOGAOKANISHI 2-BANCHO","perfecture_jp":"三重県","jp_add_1":"名張市","jp_add_2":"桔梗が丘西２番町"},"5180643":{"post_code":"5180643","prefecture":"MIE KEN","city":"NABARI SHI","town":"KIKYOGAOKANISHI 3-BANCHO","perfecture_jp":"三重県","jp_add_1":"名張市","jp_add_2":"桔梗が丘西３番町"},"5180644":{"post_code":"5180644","prefecture":"MIE KEN","city":"NABARI SHI","town":"KIKYOGAOKANISHI 4-BANCHO","perfecture_jp":"三重県","jp_add_1":"名張市","jp_add_2":"桔梗が丘西４番町"},"5180645":{"post_code":"5180645","prefecture":"MIE KEN","city":"NABARI SHI","town":"KIKYOGAOKANISHI 5-BANCHO","perfecture_jp":"三重県","jp_add_1":"名張市","jp_add_2":"桔梗が丘西５番町"},"5180646":{"post_code":"5180646","prefecture":"MIE KEN","city":"NABARI SHI","town":"KIKYOGAOKANISHI 6-BANCHO","perfecture_jp":"三重県","jp_add_1":"名張市","jp_add_2":"桔梗が丘西６番町"},"5180647":{"post_code":"5180647","prefecture":"MIE KEN","city":"NABARI SHI","town":"KIKYOGAOKANISHI 7-BANCHO","perfecture_jp":"三重県","jp_add_1":"名張市","jp_add_2":"桔梗が丘西７番町"},"5180631":{"post_code":"5180631","prefecture":"MIE KEN","city":"NABARI SHI","town":"KIKYOGAOKAMINAMI 1-BANCHO","perfecture_jp":"三重県","jp_add_1":"名張市","jp_add_2":"桔梗が丘南１番町"},"5180632":{"post_code":"5180632","prefecture":"MIE KEN","city":"NABARI SHI","town":"KIKYOGAOKAMINAMI 2-BANCHO","perfecture_jp":"三重県","jp_add_1":"名張市","jp_add_2":"桔梗が丘南２番町"},"5180633":{"post_code":"5180633","prefecture":"MIE KEN","city":"NABARI SHI","town":"KIKYOGAOKAMINAMI 3-BANCHO","perfecture_jp":"三重県","jp_add_1":"名張市","jp_add_2":"桔梗が丘南３番町"},"5180634":{"post_code":"5180634","prefecture":"MIE KEN","city":"NABARI SHI","town":"KIKYOGAOKAMINAMI 4-BANCHO","perfecture_jp":"三重県","jp_add_1":"名張市","jp_add_2":"桔梗が丘南４番町"},"5180723":{"post_code":"5180723","prefecture":"MIE KEN","city":"NABARI SHI","town":"KIYAMACHI","perfecture_jp":"三重県","jp_add_1":"名張市","jp_add_2":"木屋町"},"5180753":{"post_code":"5180753","prefecture":"MIE KEN","city":"NABARI SHI","town":"KURAMOCHICHO SATO","perfecture_jp":"三重県","jp_add_1":"名張市","jp_add_2":"蔵持町里"},"5180751":{"post_code":"5180751","prefecture":"MIE KEN","city":"NABARI SHI","town":"KURAMOCHICHO SHIBADE","perfecture_jp":"三重県","jp_add_1":"名張市","jp_add_2":"蔵持町芝出"},"5180752":{"post_code":"5180752","prefecture":"MIE KEN","city":"NABARI SHI","town":"KURAMOCHICHO HARADE","perfecture_jp":"三重県","jp_add_1":"名張市","jp_add_2":"蔵持町原出"},"5180734":{"post_code":"5180734","prefecture":"MIE KEN","city":"NABARI SHI","town":"KURODA","perfecture_jp":"三重県","jp_add_1":"名張市","jp_add_2":"黒田"},"5180735":{"post_code":"5180735","prefecture":"MIE KEN","city":"NABARI SHI","town":"KECHIBA","perfecture_jp":"三重県","jp_add_1":"名張市","jp_add_2":"結馬"},"5180701":{"post_code":"5180701","prefecture":"MIE KEN","city":"NABARI SHI","town":"KONODAI 1-BANCHO","perfecture_jp":"三重県","jp_add_1":"名張市","jp_add_2":"鴻之台１番町"},"5180702":{"post_code":"5180702","prefecture":"MIE KEN","city":"NABARI SHI","town":"KONODAI 2-BANCHO","perfecture_jp":"三重県","jp_add_1":"名張市","jp_add_2":"鴻之台２番町"},"5180703":{"post_code":"5180703","prefecture":"MIE KEN","city":"NABARI SHI","town":"KONODAI 3-BANCHO","perfecture_jp":"三重県","jp_add_1":"名張市","jp_add_2":"鴻之台３番町"},"5180704":{"post_code":"5180704","prefecture":"MIE KEN","city":"NABARI SHI","town":"KONODAI 4-BANCHO","perfecture_jp":"三重県","jp_add_1":"名張市","jp_add_2":"鴻之台４番町"},"5180705":{"post_code":"5180705","prefecture":"MIE KEN","city":"NABARI SHI","town":"KONODAI 5-BANCHO","perfecture_jp":"三重県","jp_add_1":"名張市","jp_add_2":"鴻之台５番町"},"5180606":{"post_code":"5180606","prefecture":"MIE KEN","city":"NABARI SHI","town":"KOMO","perfecture_jp":"三重県","jp_add_1":"名張市","jp_add_2":"薦生"},"5180719":{"post_code":"5180719","prefecture":"MIE KEN","city":"NABARI SHI","town":"SAKAEMACHI","perfecture_jp":"三重県","jp_add_1":"名張市","jp_add_2":"栄町"},"5180724":{"post_code":"5180724","prefecture":"MIE KEN","city":"NABARI SHI","town":"SAKAKIMACHI","perfecture_jp":"三重県","jp_add_1":"名張市","jp_add_2":"榊町"},"5180712":{"post_code":"5180712","prefecture":"MIE KEN","city":"NABARI SHI","town":"SAKURAGAOKA","perfecture_jp":"三重県","jp_add_1":"名張市","jp_add_2":"桜ケ丘"},"5180604":{"post_code":"5180604","prefecture":"MIE KEN","city":"NABARI SHI","town":"SATSUKIDAI","perfecture_jp":"三重県","jp_add_1":"名張市","jp_add_2":"さつき台"},"5180612":{"post_code":"5180612","prefecture":"MIE KEN","city":"NABARI SHI","town":"SHIMOBATA","perfecture_jp":"三重県","jp_add_1":"名張市","jp_add_2":"下小波田"},"5180413":{"post_code":"5180413","prefecture":"MIE KEN","city":"NABARI SHI","town":"SHIMOHINACHI","perfecture_jp":"三重県","jp_add_1":"名張市","jp_add_2":"下比奈知"},"5180739":{"post_code":"5180739","prefecture":"MIE KEN","city":"NABARI SHI","town":"SHIMOMITANI","perfecture_jp":"三重県","jp_add_1":"名張市","jp_add_2":"下三谷"},"5180443":{"post_code":"5180443","prefecture":"MIE KEN","city":"NABARI SHI","town":"SHORENJI","perfecture_jp":"三重県","jp_add_1":"名張市","jp_add_2":"青蓮寺"},"5180611":{"post_code":"5180611","prefecture":"MIE KEN","city":"NABARI SHI","town":"SHINDEN","perfecture_jp":"三重県","jp_add_1":"名張市","jp_add_2":"新田"},"5180727":{"post_code":"5180727","prefecture":"MIE KEN","city":"NABARI SHI","town":"SHIMMACHI","perfecture_jp":"三重県","jp_add_1":"名張市","jp_add_2":"新町"},"5180406":{"post_code":"5180406","prefecture":"MIE KEN","city":"NABARI SHI","town":"SUZURANDAINISHI 1-BANCHO","perfecture_jp":"三重県","jp_add_1":"名張市","jp_add_2":"すずらん台西１番町"},"5180407":{"post_code":"5180407","prefecture":"MIE KEN","city":"NABARI SHI","town":"SUZURANDAINISHI 2-BANCHO","perfecture_jp":"三重県","jp_add_1":"名張市","jp_add_2":"すずらん台西２番町"},"5180408":{"post_code":"5180408","prefecture":"MIE KEN","city":"NABARI SHI","town":"SUZURANDAINISHI 3-BANCHO","perfecture_jp":"三重県","jp_add_1":"名張市","jp_add_2":"すずらん台西３番町"},"5180409":{"post_code":"5180409","prefecture":"MIE KEN","city":"NABARI SHI","town":"SUZURANDAINISHI 4-BANCHO","perfecture_jp":"三重県","jp_add_1":"名張市","jp_add_2":"すずらん台西４番町"},"5180401":{"post_code":"5180401","prefecture":"MIE KEN","city":"NABARI SHI","town":"SUZURANDAIHIGASHI 1-BANCHO","perfecture_jp":"三重県","jp_add_1":"名張市","jp_add_2":"すずらん台東１番町"},"5180402":{"post_code":"5180402","prefecture":"MIE KEN","city":"NABARI SHI","town":"SUZURANDAIHIGASHI 2-BANCHO","perfecture_jp":"三重県","jp_add_1":"名張市","jp_add_2":"すずらん台東２番町"},"5180403":{"post_code":"5180403","prefecture":"MIE KEN","city":"NABARI SHI","town":"SUZURANDAIHIGASHI 3-BANCHO","perfecture_jp":"三重県","jp_add_1":"名張市","jp_add_2":"すずらん台東３番町"},"5180404":{"post_code":"5180404","prefecture":"MIE KEN","city":"NABARI SHI","town":"SUZURANDAIHIGASHI 4-BANCHO","perfecture_jp":"三重県","jp_add_1":"名張市","jp_add_2":"すずらん台東４番町"},"5180405":{"post_code":"5180405","prefecture":"MIE KEN","city":"NABARI SHI","town":"SUZURANDAIHIGASHI 5-BANCHO","perfecture_jp":"三重県","jp_add_1":"名張市","jp_add_2":"すずらん台東５番町"},"5180445":{"post_code":"5180445","prefecture":"MIE KEN","city":"NABARI SHI","town":"SEKOGUCHI","perfecture_jp":"三重県","jp_add_1":"名張市","jp_add_2":"瀬古口"},"5180411":{"post_code":"5180411","prefecture":"MIE KEN","city":"NABARI SHI","town":"TAKINOHARA","perfecture_jp":"三重県","jp_add_1":"名張市","jp_add_2":"滝之原"},"5180431":{"post_code":"5180431","prefecture":"MIE KEN","city":"NABARI SHI","town":"TSUTSUJIGAOKAKITA 1-BANCHO","perfecture_jp":"三重県","jp_add_1":"名張市","jp_add_2":"つつじが丘北１番町"},"5180432":{"post_code":"5180432","prefecture":"MIE KEN","city":"NABARI SHI","town":"TSUTSUJIGAOKAKITA 2-BANCHO","perfecture_jp":"三重県","jp_add_1":"名張市","jp_add_2":"つつじが丘北２番町"},"5180433":{"post_code":"5180433","prefecture":"MIE KEN","city":"NABARI SHI","town":"TSUTSUJIGAOKAKITA 3-BANCHO","perfecture_jp":"三重県","jp_add_1":"名張市","jp_add_2":"つつじが丘北３番町"},"5180434":{"post_code":"5180434","prefecture":"MIE KEN","city":"NABARI SHI","town":"TSUTSUJIGAOKAKITA 4-BANCHO","perfecture_jp":"三重県","jp_add_1":"名張市","jp_add_2":"つつじが丘北４番町"},"5180435":{"post_code":"5180435","prefecture":"MIE KEN","city":"NABARI SHI","town":"TSUTSUJIGAOKAKITA 5-BANCHO","perfecture_jp":"三重県","jp_add_1":"名張市","jp_add_2":"つつじが丘北５番町"},"5180436":{"post_code":"5180436","prefecture":"MIE KEN","city":"NABARI SHI","town":"TSUTSUJIGAOKAKITA 6-BANCHO","perfecture_jp":"三重県","jp_add_1":"名張市","jp_add_2":"つつじが丘北６番町"},"5180437":{"post_code":"5180437","prefecture":"MIE KEN","city":"NABARI SHI","town":"TSUTSUJIGAOKAKITA 7-BANCHO","perfecture_jp":"三重県","jp_add_1":"名張市","jp_add_2":"つつじが丘北７番町"},"5180438":{"post_code":"5180438","prefecture":"MIE KEN","city":"NABARI SHI","town":"TSUTSUJIGAOKAKITA 8-BANCHO","perfecture_jp":"三重県","jp_add_1":"名張市","jp_add_2":"つつじが丘北８番町"},"5180439":{"post_code":"5180439","prefecture":"MIE KEN","city":"NABARI SHI","town":"TSUTSUJIGAOKAKITA 9-BANCHO","perfecture_jp":"三重県","jp_add_1":"名張市","jp_add_2":"つつじが丘北９番町"},"5180430":{"post_code":"5180430","prefecture":"MIE KEN","city":"NABARI SHI","town":"TSUTSUJIGAOKAKITA 10-BANCHO","perfecture_jp":"三重県","jp_add_1":"名張市","jp_add_2":"つつじが丘北１０番町"},"5180421":{"post_code":"5180421","prefecture":"MIE KEN","city":"NABARI SHI","town":"TSUTSUJIGAOKAMINAMI 1-BANCHO","perfecture_jp":"三重県","jp_add_1":"名張市","jp_add_2":"つつじが丘南１番町"},"5180422":{"post_code":"5180422","prefecture":"MIE KEN","city":"NABARI SHI","town":"TSUTSUJIGAOKAMINAMI 2-BANCHO","perfecture_jp":"三重県","jp_add_1":"名張市","jp_add_2":"つつじが丘南２番町"},"5180423":{"post_code":"5180423","prefecture":"MIE KEN","city":"NABARI SHI","town":"TSUTSUJIGAOKAMINAMI 3-BANCHO","perfecture_jp":"三重県","jp_add_1":"名張市","jp_add_2":"つつじが丘南３番町"},"5180424":{"post_code":"5180424","prefecture":"MIE KEN","city":"NABARI SHI","town":"TSUTSUJIGAOKAMINAMI 4-BANCHO","perfecture_jp":"三重県","jp_add_1":"名張市","jp_add_2":"つつじが丘南４番町"},"5180425":{"post_code":"5180425","prefecture":"MIE KEN","city":"NABARI SHI","town":"TSUTSUJIGAOKAMINAMI 5-BANCHO","perfecture_jp":"三重県","jp_add_1":"名張市","jp_add_2":"つつじが丘南５番町"},"5180426":{"post_code":"5180426","prefecture":"MIE KEN","city":"NABARI SHI","town":"TSUTSUJIGAOKAMINAMI 6-BANCHO","perfecture_jp":"三重県","jp_add_1":"名張市","jp_add_2":"つつじが丘南６番町"},"5180427":{"post_code":"5180427","prefecture":"MIE KEN","city":"NABARI SHI","town":"TSUTSUJIGAOKAMINAMI 7-BANCHO","perfecture_jp":"三重県","jp_add_1":"名張市","jp_add_2":"つつじが丘南７番町"},"5180428":{"post_code":"5180428","prefecture":"MIE KEN","city":"NABARI SHI","town":"TSUTSUJIGAOKAMINAMI 8-BANCHO","perfecture_jp":"三重県","jp_add_1":"名張市","jp_add_2":"つつじが丘南８番町"},"5180442":{"post_code":"5180442","prefecture":"MIE KEN","city":"NABARI SHI","town":"NAKACHIYAMA","perfecture_jp":"三重県","jp_add_1":"名張市","jp_add_2":"中知山"},"5180717":{"post_code":"5180717","prefecture":"MIE KEN","city":"NABARI SHI","town":"NAKAMACHI","perfecture_jp":"三重県","jp_add_1":"名張市","jp_add_2":"中町"},"5180505":{"post_code":"5180505","prefecture":"MIE KEN","city":"NABARI SHI","town":"NAGAKI","perfecture_jp":"三重県","jp_add_1":"名張市","jp_add_2":"奈垣"},"5180501":{"post_code":"5180501","prefecture":"MIE KEN","city":"NABARI SHI","town":"NAGASE","perfecture_jp":"三重県","jp_add_1":"名張市","jp_add_2":"長瀬"},"5180731":{"post_code":"5180731","prefecture":"MIE KEN","city":"NABARI SHI","town":"NATSUAKI","perfecture_jp":"三重県","jp_add_1":"名張市","jp_add_2":"夏秋"},"5180441":{"post_code":"5180441","prefecture":"MIE KEN","city":"NABARI SHI","town":"NATSUMI","perfecture_jp":"三重県","jp_add_1":"名張市","jp_add_2":"夏見"},"5180609":{"post_code":"5180609","prefecture":"MIE KEN","city":"NABARI SHI","town":"NISHITAWARA","perfecture_jp":"三重県","jp_add_1":"名張市","jp_add_2":"西田原"},"5180603":{"post_code":"5180603","prefecture":"MIE KEN","city":"NABARI SHI","town":"NISHIWARACHO","perfecture_jp":"三重県","jp_add_1":"名張市","jp_add_2":"西原町"},"5180602":{"post_code":"5180602","prefecture":"MIE KEN","city":"NABARI SHI","town":"HIGASHITAWARA","perfecture_jp":"三重県","jp_add_1":"名張市","jp_add_2":"東田原"},"5180711":{"post_code":"5180711","prefecture":"MIE KEN","city":"NABARI SHI","town":"HIGASHIMACHI","perfecture_jp":"三重県","jp_add_1":"名張市","jp_add_2":"東町"},"5180713":{"post_code":"5180713","prefecture":"MIE KEN","city":"NABARI SHI","town":"HIRAO","perfecture_jp":"三重県","jp_add_1":"名張市","jp_add_2":"平尾"},"5180414":{"post_code":"5180414","prefecture":"MIE KEN","city":"NABARI SHI","town":"FUKIGAOKA 1-BANCHO","perfecture_jp":"三重県","jp_add_1":"名張市","jp_add_2":"富貴ケ丘１番町"},"5180415":{"post_code":"5180415","prefecture":"MIE KEN","city":"NABARI SHI","town":"FUKIGAOKA 2-BANCHO","perfecture_jp":"三重県","jp_add_1":"名張市","jp_add_2":"富貴ケ丘２番町"},"5180416":{"post_code":"5180416","prefecture":"MIE KEN","city":"NABARI SHI","town":"FUKIGAOKA 3-BANCHO","perfecture_jp":"三重県","jp_add_1":"名張市","jp_add_2":"富貴ケ丘３番町"},"5180417":{"post_code":"5180417","prefecture":"MIE KEN","city":"NABARI SHI","town":"FUKIGAOKA 4-BANCHO","perfecture_jp":"三重県","jp_add_1":"名張市","jp_add_2":"富貴ケ丘４番町"},"5180418":{"post_code":"5180418","prefecture":"MIE KEN","city":"NABARI SHI","town":"FUKIGAOKA 5-BANCHO","perfecture_jp":"三重県","jp_add_1":"名張市","jp_add_2":"富貴ケ丘５番町"},"5180419":{"post_code":"5180419","prefecture":"MIE KEN","city":"NABARI SHI","town":"FUKIGAOKA 6-BANCHO","perfecture_jp":"三重県","jp_add_1":"名張市","jp_add_2":"富貴ケ丘６番町"},"5180503":{"post_code":"5180503","prefecture":"MIE KEN","city":"NABARI SHI","town":"FUNO","perfecture_jp":"三重県","jp_add_1":"名張市","jp_add_2":"布生"},"5180728":{"post_code":"5180728","prefecture":"MIE KEN","city":"NABARI SHI","town":"BUNGOMACHI","perfecture_jp":"三重県","jp_add_1":"名張市","jp_add_2":"豊後町"},"5180726":{"post_code":"5180726","prefecture":"MIE KEN","city":"NABARI SHI","town":"HOMMACHI","perfecture_jp":"三重県","jp_add_1":"名張市","jp_add_2":"本町"},"5180722":{"post_code":"5180722","prefecture":"MIE KEN","city":"NABARI SHI","town":"MATSUSAKIMACHI","perfecture_jp":"三重県","jp_add_1":"名張市","jp_add_2":"松崎町"},"5180732":{"post_code":"5180732","prefecture":"MIE KEN","city":"NABARI SHI","town":"MATSUBARACHO","perfecture_jp":"三重県","jp_add_1":"名張市","jp_add_2":"松原町"},"5180718":{"post_code":"5180718","prefecture":"MIE KEN","city":"NABARI SHI","town":"MARUNOCHI","perfecture_jp":"三重県","jp_add_1":"名張市","jp_add_2":"丸之内"},"5180738":{"post_code":"5180738","prefecture":"MIE KEN","city":"NABARI SHI","town":"MIJIKANO","perfecture_jp":"三重県","jp_add_1":"名張市","jp_add_2":"短野"},"5180755":{"post_code":"5180755","prefecture":"MIE KEN","city":"NABARI SHI","town":"MIDORIGAOKA NAKA","perfecture_jp":"三重県","jp_add_1":"名張市","jp_add_2":"緑が丘中"},"5180756":{"post_code":"5180756","prefecture":"MIE KEN","city":"NABARI SHI","town":"MIDORIGAOKA HIGASHI","perfecture_jp":"三重県","jp_add_1":"名張市","jp_add_2":"緑が丘東"},"5180754":{"post_code":"5180754","prefecture":"MIE KEN","city":"NABARI SHI","town":"MIDORIGAOKA NISHI","perfecture_jp":"三重県","jp_add_1":"名張市","jp_add_2":"緑が丘西"},"5180601":{"post_code":"5180601","prefecture":"MIE KEN","city":"NABARI SHI","town":"MINAMIFURUYAMA","perfecture_jp":"三重県","jp_add_1":"名張市","jp_add_2":"南古山"},"5180729":{"post_code":"5180729","prefecture":"MIE KEN","city":"NABARI SHI","town":"MINAMIMACHI","perfecture_jp":"三重県","jp_add_1":"名張市","jp_add_2":"南町"},"5180446":{"post_code":"5180446","prefecture":"MIE KEN","city":"NABARI SHI","town":"MINAMIYURIGAOKA","perfecture_jp":"三重県","jp_add_1":"名張市","jp_add_2":"南百合が丘"},"5180444":{"post_code":"5180444","prefecture":"MIE KEN","city":"NABARI SHI","town":"MINOWA NAKAMURA","perfecture_jp":"三重県","jp_add_1":"名張市","jp_add_2":"箕曲中村"},"5180615":{"post_code":"5180615","prefecture":"MIE KEN","city":"NABARI SHI","town":"MIHATA NAKAMURA","perfecture_jp":"三重県","jp_add_1":"名張市","jp_add_2":"美旗中村"},"5180614":{"post_code":"5180614","prefecture":"MIE KEN","city":"NABARI SHI","town":"MIHATACHO IKENODAINISHI","perfecture_jp":"三重県","jp_add_1":"名張市","jp_add_2":"美旗町池の台東"},"5180610":{"post_code":"5180610","prefecture":"MIE KEN","city":"NABARI SHI","town":"MIHATACHO FUJIGAOKA","perfecture_jp":"三重県","jp_add_1":"名張市","jp_add_2":"美旗町藤が丘"},"5180616":{"post_code":"5180616","prefecture":"MIE KEN","city":"NABARI SHI","town":"MIHATACHO MINAMINISHIHARA","perfecture_jp":"三重県","jp_add_1":"名張市","jp_add_2":"美旗町南西原"},"5180617":{"post_code":"5180617","prefecture":"MIE KEN","city":"NABARI SHI","town":"MIHATACHONAKA 1-BAN","perfecture_jp":"三重県","jp_add_1":"名張市","jp_add_2":"美旗町中１番"},"5180618":{"post_code":"5180618","prefecture":"MIE KEN","city":"NABARI SHI","town":"MIHATACHONAKA 2-BAN","perfecture_jp":"三重県","jp_add_1":"名張市","jp_add_2":"美旗町中２番"},"5180619":{"post_code":"5180619","prefecture":"MIE KEN","city":"NABARI SHI","town":"MIHATACHONAKA 3-BAN","perfecture_jp":"三重県","jp_add_1":"名張市","jp_add_2":"美旗町中３番"},"5180725":{"post_code":"5180725","prefecture":"MIE KEN","city":"NABARI SHI","town":"MOTOMACHI","perfecture_jp":"三重県","jp_add_1":"名張市","jp_add_2":"元町"},"5180763":{"post_code":"5180763","prefecture":"MIE KEN","city":"NABARI SHI","town":"YAGAWA","perfecture_jp":"三重県","jp_add_1":"名張市","jp_add_2":"矢川"},"5180715":{"post_code":"5180715","prefecture":"MIE KEN","city":"NABARI SHI","town":"YANAGIHARACHO","perfecture_jp":"三重県","jp_add_1":"名張市","jp_add_2":"柳原町"},"5180605":{"post_code":"5180605","prefecture":"MIE KEN","city":"NABARI SHI","town":"YABATA","perfecture_jp":"三重県","jp_add_1":"名張市","jp_add_2":"八幡"},"5180481":{"post_code":"5180481","prefecture":"MIE KEN","city":"NABARI SHI","town":"YURIGAOKANISHI 1-BANCHO","perfecture_jp":"三重県","jp_add_1":"名張市","jp_add_2":"百合が丘西１番町"},"5180482":{"post_code":"5180482","prefecture":"MIE KEN","city":"NABARI SHI","town":"YURIGAOKANISHI 2-BANCHO","perfecture_jp":"三重県","jp_add_1":"名張市","jp_add_2":"百合が丘西２番町"},"5180483":{"post_code":"5180483","prefecture":"MIE KEN","city":"NABARI SHI","town":"YURIGAOKANISHI 3-BANCHO","perfecture_jp":"三重県","jp_add_1":"名張市","jp_add_2":"百合が丘西３番町"},"5180484":{"post_code":"5180484","prefecture":"MIE KEN","city":"NABARI SHI","town":"YURIGAOKANISHI 4-BANCHO","perfecture_jp":"三重県","jp_add_1":"名張市","jp_add_2":"百合が丘西４番町"},"5180485":{"post_code":"5180485","prefecture":"MIE KEN","city":"NABARI SHI","town":"YURIGAOKANISHI 5-BANCHO","perfecture_jp":"三重県","jp_add_1":"名張市","jp_add_2":"百合が丘西５番町"},"5180486":{"post_code":"5180486","prefecture":"MIE KEN","city":"NABARI SHI","town":"YURIGAOKANISHI 6-BANCHO","perfecture_jp":"三重県","jp_add_1":"名張市","jp_add_2":"百合が丘西６番町"},"5180471":{"post_code":"5180471","prefecture":"MIE KEN","city":"NABARI SHI","town":"YURIGAOKAHIGASHI 1-BANCHO","perfecture_jp":"三重県","jp_add_1":"名張市","jp_add_2":"百合が丘東１番町"},"5180472":{"post_code":"5180472","prefecture":"MIE KEN","city":"NABARI SHI","town":"YURIGAOKAHIGASHI 2-BANCHO","perfecture_jp":"三重県","jp_add_1":"名張市","jp_add_2":"百合が丘東２番町"},"5180473":{"post_code":"5180473","prefecture":"MIE KEN","city":"NABARI SHI","town":"YURIGAOKAHIGASHI 3-BANCHO","perfecture_jp":"三重県","jp_add_1":"名張市","jp_add_2":"百合が丘東３番町"},"5180474":{"post_code":"5180474","prefecture":"MIE KEN","city":"NABARI SHI","town":"YURIGAOKAHIGASHI 4-BANCHO","perfecture_jp":"三重県","jp_add_1":"名張市","jp_add_2":"百合が丘東４番町"},"5180475":{"post_code":"5180475","prefecture":"MIE KEN","city":"NABARI SHI","town":"YURIGAOKAHIGASHI 5-BANCHO","perfecture_jp":"三重県","jp_add_1":"名張市","jp_add_2":"百合が丘東５番町"},"5180476":{"post_code":"5180476","prefecture":"MIE KEN","city":"NABARI SHI","town":"YURIGAOKAHIGASHI 6-BANCHO","perfecture_jp":"三重県","jp_add_1":"名張市","jp_add_2":"百合が丘東６番町"},"5180477":{"post_code":"5180477","prefecture":"MIE KEN","city":"NABARI SHI","town":"YURIGAOKAHIGASHI 7-BANCHO","perfecture_jp":"三重県","jp_add_1":"名張市","jp_add_2":"百合が丘東７番町"},"5180478":{"post_code":"5180478","prefecture":"MIE KEN","city":"NABARI SHI","town":"YURIGAOKAHIGASHI 8-BANCHO","perfecture_jp":"三重県","jp_add_1":"名張市","jp_add_2":"百合が丘東８番町"},"5180479":{"post_code":"5180479","prefecture":"MIE KEN","city":"NABARI SHI","town":"YURIGAOKAHIGASHI 9-BANCHO","perfecture_jp":"三重県","jp_add_1":"名張市","jp_add_2":"百合が丘東９番町"},"5180761":{"post_code":"5180761","prefecture":"MIE KEN","city":"NABARI SHI","town":"RYUGUCHI","perfecture_jp":"三重県","jp_add_1":"名張市","jp_add_2":"竜口"},"5180000":{"post_code":"5180000","prefecture":"MIE KEN","city":"IGA SHI","town":"IKANIKEISAIGANAIBAAI","perfecture_jp":"三重県","jp_add_1":"伊賀市","jp_add_2":""},"5180226":{"post_code":"5180226","prefecture":"MIE KEN","city":"IGA SHI","town":"AO","perfecture_jp":"三重県","jp_add_1":"伊賀市","jp_add_2":"阿保"},"5180227":{"post_code":"5180227","prefecture":"MIE KEN","city":"IGA SHI","town":"AOYAMAHANE","perfecture_jp":"三重県","jp_add_1":"伊賀市","jp_add_2":"青山羽根"},"5180114":{"post_code":"5180114","prefecture":"MIE KEN","city":"IGA SHI","town":"ASAHIGAOKACHO","perfecture_jp":"三重県","jp_add_1":"伊賀市","jp_add_2":"朝日ケ丘町"},"5181316":{"post_code":"5181316","prefecture":"MIE KEN","city":"IGA SHI","town":"AYAMAHAITSU","perfecture_jp":"三重県","jp_add_1":"伊賀市","jp_add_2":"阿山ハイツ"},"5180818":{"post_code":"5180818","prefecture":"MIE KEN","city":"IGA SHI","town":"ARAKI","perfecture_jp":"三重県","jp_add_1":"伊賀市","jp_add_2":"荒木"},"5181323":{"post_code":"5181323","prefecture":"MIE KEN","city":"IGA SHI","town":"ISHIKAWA","perfecture_jp":"三重県","jp_add_1":"伊賀市","jp_add_2":"石川"},"5180008":{"post_code":"5180008","prefecture":"MIE KEN","city":"IGA SHI","town":"IJIRO","perfecture_jp":"三重県","jp_add_1":"伊賀市","jp_add_2":"印代"},"5181407":{"post_code":"5181407","prefecture":"MIE KEN","city":"IGA SHI","town":"IZUGO","perfecture_jp":"三重県","jp_add_1":"伊賀市","jp_add_2":"出後"},"5180205":{"post_code":"5180205","prefecture":"MIE KEN","city":"IGA SHI","town":"ISEJI","perfecture_jp":"三重県","jp_add_1":"伊賀市","jp_add_2":"伊勢路"},"5180123":{"post_code":"5180123","prefecture":"MIE KEN","city":"IGA SHI","town":"IDA","perfecture_jp":"三重県","jp_add_1":"伊賀市","jp_add_2":"猪田"},"5180003":{"post_code":"5180003","prefecture":"MIE KEN","city":"IGA SHI","town":"ICHINOMIYA","perfecture_jp":"三重県","jp_add_1":"伊賀市","jp_add_2":"一之宮"},"5180102":{"post_code":"5180102","prefecture":"MIE KEN","city":"IGA SHI","town":"ICHIBE","perfecture_jp":"三重県","jp_add_1":"伊賀市","jp_add_2":"市部"},"5180101":{"post_code":"5180101","prefecture":"MIE KEN","city":"IGA SHI","town":"INAGU","perfecture_jp":"三重県","jp_add_1":"伊賀市","jp_add_2":"依那具"},"5180026":{"post_code":"5180026","prefecture":"MIE KEN","city":"IGA SHI","town":"IWAKURA","perfecture_jp":"三重県","jp_add_1":"伊賀市","jp_add_2":"岩倉"},"5180859":{"post_code":"5180859","prefecture":"MIE KEN","city":"IGA SHI","town":"UENO AIOICHO","perfecture_jp":"三重県","jp_add_1":"伊賀市","jp_add_2":"上野相生町"},"5180871":{"post_code":"5180871","prefecture":"MIE KEN","city":"IGA SHI","town":"UENO AKASAKACHO","perfecture_jp":"三重県","jp_add_1":"伊賀市","jp_add_2":"上野赤坂町"},"5180846":{"post_code":"5180846","prefecture":"MIE KEN","city":"IGA SHI","town":"UENO ATAGOMACHI","perfecture_jp":"三重県","jp_add_1":"伊賀市","jp_add_2":"上野愛宕町"},"5180853":{"post_code":"5180853","prefecture":"MIE KEN","city":"IGA SHI","town":"UENO IKEMACHI","perfecture_jp":"三重県","jp_add_1":"伊賀市","jp_add_2":"上野池町"},"5180852":{"post_code":"5180852","prefecture":"MIE KEN","city":"IGA SHI","town":"UENO IYOMACHI","perfecture_jp":"三重県","jp_add_1":"伊賀市","jp_add_2":"上野伊予町"},"5180865":{"post_code":"5180865","prefecture":"MIE KEN","city":"IGA SHI","town":"UENO UOMACHI","perfecture_jp":"三重県","jp_add_1":"伊賀市","jp_add_2":"上野魚町"},"5180841":{"post_code":"5180841","prefecture":"MIE KEN","city":"IGA SHI","town":"UENO EBISUMACHI","perfecture_jp":"三重県","jp_add_1":"伊賀市","jp_add_2":"上野恵美須町"},"5180864":{"post_code":"5180864","prefecture":"MIE KEN","city":"IGA SHI","town":"UENO KAJIMACHI","perfecture_jp":"三重県","jp_add_1":"伊賀市","jp_add_2":"上野鍛冶町"},"5180862":{"post_code":"5180862","prefecture":"MIE KEN","city":"IGA SHI","town":"UENO KATAHARAMACHI","perfecture_jp":"三重県","jp_add_1":"伊賀市","jp_add_2":"上野片原町"},"5180838":{"post_code":"5180838","prefecture":"MIE KEN","city":"IGA SHI","town":"UENO KAYAMACHI","perfecture_jp":"三重県","jp_add_1":"伊賀市","jp_add_2":"上野茅町"},"5180832":{"post_code":"5180832","prefecture":"MIE KEN","city":"IGA SHI","town":"UENO KURUMAZAKACHO","perfecture_jp":"三重県","jp_add_1":"伊賀市","jp_add_2":"上野車坂町"},"5180842":{"post_code":"5180842","prefecture":"MIE KEN","city":"IGA SHI","town":"UENO KUWAMACHI","perfecture_jp":"三重県","jp_add_1":"伊賀市","jp_add_2":"上野桑町"},"5180872":{"post_code":"5180872","prefecture":"MIE KEN","city":"IGA SHI","town":"UENO GEMBAMACHI","perfecture_jp":"三重県","jp_add_1":"伊賀市","jp_add_2":"上野玄蕃町"},"5180874":{"post_code":"5180874","prefecture":"MIE KEN","city":"IGA SHI","town":"UENO KOSAKAMACHI","perfecture_jp":"三重県","jp_add_1":"伊賀市","jp_add_2":"上野幸坂町"},"5180866":{"post_code":"5180866","prefecture":"MIE KEN","city":"IGA SHI","town":"UENO KODAMACHO","perfecture_jp":"三重県","jp_add_1":"伊賀市","jp_add_2":"上野小玉町"},"5180858":{"post_code":"5180858","prefecture":"MIE KEN","city":"IGA SHI","town":"UENO KONYAMACHI","perfecture_jp":"三重県","jp_add_1":"伊賀市","jp_add_2":"上野紺屋町"},"5180857":{"post_code":"5180857","prefecture":"MIE KEN","city":"IGA SHI","town":"UENO SANNONISHIMACHI","perfecture_jp":"三重県","jp_add_1":"伊賀市","jp_add_2":"上野三之西町"},"5180854":{"post_code":"5180854","prefecture":"MIE KEN","city":"IGA SHI","town":"UENO SHINOBICHO","perfecture_jp":"三重県","jp_add_1":"伊賀市","jp_add_2":"上野忍町"},"5180877":{"post_code":"5180877","prefecture":"MIE KEN","city":"IGA SHI","town":"UENO SHIMOKOSAKAMACHI","perfecture_jp":"三重県","jp_add_1":"伊賀市","jp_add_2":"上野下幸坂町"},"5180863":{"post_code":"5180863","prefecture":"MIE KEN","city":"IGA SHI","town":"UENO SHIMMACHI","perfecture_jp":"三重県","jp_add_1":"伊賀市","jp_add_2":"上野新町"},"5180839":{"post_code":"5180839","prefecture":"MIE KEN","city":"IGA SHI","town":"UENO TABATACHO","perfecture_jp":"三重県","jp_add_1":"伊賀市","jp_add_2":"上野田端町"},"5180847":{"post_code":"5180847","prefecture":"MIE KEN","city":"IGA SHI","town":"UENO TEPPOMACHI","perfecture_jp":"三重県","jp_add_1":"伊賀市","jp_add_2":"上野鉄砲町"},"5180851":{"post_code":"5180851","prefecture":"MIE KEN","city":"IGA SHI","town":"UENO TERAMACHI","perfecture_jp":"三重県","jp_add_1":"伊賀市","jp_add_2":"上野寺町"},"5180856":{"post_code":"5180856","prefecture":"MIE KEN","city":"IGA SHI","town":"UENO TOKUICHO","perfecture_jp":"三重県","jp_add_1":"伊賀市","jp_add_2":"上野徳居町"},"5180869":{"post_code":"5180869","prefecture":"MIE KEN","city":"IGA SHI","town":"UENO NAKAMACHI","perfecture_jp":"三重県","jp_add_1":"伊賀市","jp_add_2":"上野中町"},"5180878":{"post_code":"5180878","prefecture":"MIE KEN","city":"IGA SHI","town":"UENO NISHIOTECHO","perfecture_jp":"三重県","jp_add_1":"伊賀市","jp_add_2":"上野西大手町"},"5180848":{"post_code":"5180848","prefecture":"MIE KEN","city":"IGA SHI","town":"UENO NISHIHINATAMACHI","perfecture_jp":"三重県","jp_add_1":"伊賀市","jp_add_2":"上野西日南町"},"5180868":{"post_code":"5180868","prefecture":"MIE KEN","city":"IGA SHI","town":"UENO NISHIMACHI","perfecture_jp":"三重県","jp_add_1":"伊賀市","jp_add_2":"上野西町"},"5180831":{"post_code":"5180831","prefecture":"MIE KEN","city":"IGA SHI","town":"UENO NONIMMACHI","perfecture_jp":"三重県","jp_add_1":"伊賀市","jp_add_2":"上野農人町"},"5180849":{"post_code":"5180849","prefecture":"MIE KEN","city":"IGA SHI","town":"UENO HIGASHIHINATAMACHI","perfecture_jp":"三重県","jp_add_1":"伊賀市","jp_add_2":"上野東日南町"},"5180861":{"post_code":"5180861","prefecture":"MIE KEN","city":"IGA SHI","town":"UENO HIGASHIMACHI","perfecture_jp":"三重県","jp_add_1":"伊賀市","jp_add_2":"上野東町"},"5180867":{"post_code":"5180867","prefecture":"MIE KEN","city":"IGA SHI","town":"UENO FUKUICHO","perfecture_jp":"三重県","jp_add_1":"伊賀市","jp_add_2":"上野福居町"},"5180873":{"post_code":"5180873","prefecture":"MIE KEN","city":"IGA SHI","town":"UENO MARUNOCHI","perfecture_jp":"三重県","jp_add_1":"伊賀市","jp_add_2":"上野丸之内"},"5180875":{"post_code":"5180875","prefecture":"MIE KEN","city":"IGA SHI","town":"UENO MUKAIJIMACHO","perfecture_jp":"三重県","jp_add_1":"伊賀市","jp_add_2":"上野向島町"},"5180855":{"post_code":"5180855","prefecture":"MIE KEN","city":"IGA SHI","town":"UENO YOROZUMACHI","perfecture_jp":"三重県","jp_add_1":"伊賀市","jp_add_2":"上野万町"},"5180112":{"post_code":"5180112","prefecture":"MIE KEN","city":"IGA SHI","town":"UEBAYASHI","perfecture_jp":"三重県","jp_add_1":"伊賀市","jp_add_2":"上林"},"5181321":{"post_code":"5181321","prefecture":"MIE KEN","city":"IGA SHI","town":"UCHIHO","perfecture_jp":"三重県","jp_add_1":"伊賀市","jp_add_2":"内保"},"5181314":{"post_code":"5181314","prefecture":"MIE KEN","city":"IGA SHI","town":"ENTOKUIN","perfecture_jp":"三重県","jp_add_1":"伊賀市","jp_add_2":"円徳院"},"5180219":{"post_code":"5180219","prefecture":"MIE KEN","city":"IGA SHI","town":"OIKAWA","perfecture_jp":"三重県","jp_add_1":"伊賀市","jp_add_2":"老川"},"5180034":{"post_code":"5180034","prefecture":"MIE KEN","city":"IGA SHI","town":"OUCHI","perfecture_jp":"三重県","jp_add_1":"伊賀市","jp_add_2":"大内"},"5181317":{"post_code":"5181317","prefecture":"MIE KEN","city":"IGA SHI","town":"OE","perfecture_jp":"三重県","jp_add_1":"伊賀市","jp_add_2":"大江"},"5181154":{"post_code":"5181154","prefecture":"MIE KEN","city":"IGA SHI","town":"OTAKI","perfecture_jp":"三重県","jp_add_1":"伊賀市","jp_add_2":"大滝"},"5180017":{"post_code":"5180017","prefecture":"MIE KEN","city":"IGA SHI","town":"OTANI","perfecture_jp":"三重県","jp_add_1":"伊賀市","jp_add_2":"大谷"},"5180033":{"post_code":"5180033","prefecture":"MIE KEN","city":"IGA SHI","town":"ONOGI","perfecture_jp":"三重県","jp_add_1":"伊賀市","jp_add_2":"大野木"},"5180223":{"post_code":"5180223","prefecture":"MIE KEN","city":"IGA SHI","town":"OKADA","perfecture_jp":"三重県","jp_add_1":"伊賀市","jp_add_2":"岡田"},"5180106":{"post_code":"5180106","prefecture":"MIE KEN","city":"IGA SHI","town":"OKANAMI","perfecture_jp":"三重県","jp_add_1":"伊賀市","jp_add_2":"岡波"},"5180103":{"post_code":"5180103","prefecture":"MIE KEN","city":"IGA SHI","town":"OKI","perfecture_jp":"三重県","jp_add_1":"伊賀市","jp_add_2":"沖"},"5180211":{"post_code":"5180211","prefecture":"MIE KEN","city":"IGA SHI","town":"OKUGANO","perfecture_jp":"三重県","jp_add_1":"伊賀市","jp_add_2":"奥鹿野"},"5181427":{"post_code":"5181427","prefecture":"MIE KEN","city":"IGA SHI","town":"OKUBANO","perfecture_jp":"三重県","jp_add_1":"伊賀市","jp_add_2":"奥馬野"},"5180825":{"post_code":"5180825","prefecture":"MIE KEN","city":"IGA SHI","town":"OTACHO","perfecture_jp":"三重県","jp_add_1":"伊賀市","jp_add_2":"小田町"},"5181324":{"post_code":"5181324","prefecture":"MIE KEN","city":"IGA SHI","town":"OTOWA","perfecture_jp":"三重県","jp_add_1":"伊賀市","jp_add_2":"音羽"},"5180815":{"post_code":"5180815","prefecture":"MIE KEN","city":"IGA SHI","town":"KAIGE","perfecture_jp":"三重県","jp_add_1":"伊賀市","jp_add_2":"界外"},"5180122":{"post_code":"5180122","prefecture":"MIE KEN","city":"IGA SHI","town":"KASABE","perfecture_jp":"三重県","jp_add_1":"伊賀市","jp_add_2":"笠部"},"5180224":{"post_code":"5180224","prefecture":"MIE KEN","city":"IGA SHI","town":"KASHIO","perfecture_jp":"三重県","jp_add_1":"伊賀市","jp_add_2":"柏尾"},"5181403":{"post_code":"5181403","prefecture":"MIE KEN","city":"IGA SHI","town":"KASHIKIMURA","perfecture_jp":"三重県","jp_add_1":"伊賀市","jp_add_2":"炊村"},"5181143":{"post_code":"5181143","prefecture":"MIE KEN","city":"IGA SHI","town":"KAJIYA","perfecture_jp":"三重県","jp_add_1":"伊賀市","jp_add_2":"鍛冶屋"},"5180203":{"post_code":"5180203","prefecture":"MIE KEN","city":"IGA SHI","town":"KACHIJI","perfecture_jp":"三重県","jp_add_1":"伊賀市","jp_add_2":"勝地"},"5181153":{"post_code":"5181153","prefecture":"MIE KEN","city":"IGA SHI","town":"KATSURA","perfecture_jp":"三重県","jp_add_1":"伊賀市","jp_add_2":"桂"},"5181412":{"post_code":"5181412","prefecture":"MIE KEN","city":"IGA SHI","town":"KAMIAWA","perfecture_jp":"三重県","jp_add_1":"伊賀市","jp_add_2":"上阿波"},"5180116":{"post_code":"5180116","prefecture":"MIE KEN","city":"IGA SHI","town":"KAMIKAMBE","perfecture_jp":"三重県","jp_add_1":"伊賀市","jp_add_2":"上神戸"},"5180125":{"post_code":"5180125","prefecture":"MIE KEN","city":"IGA SHI","town":"KAMIGORI","perfecture_jp":"三重県","jp_add_1":"伊賀市","jp_add_2":"上郡"},"5181303":{"post_code":"5181303","prefecture":"MIE KEN","city":"IGA SHI","town":"KAMITOMODA","perfecture_jp":"三重県","jp_add_1":"伊賀市","jp_add_2":"上友田"},"5180814":{"post_code":"5180814","prefecture":"MIE KEN","city":"IGA SHI","town":"KAMITOMONO","perfecture_jp":"三重県","jp_add_1":"伊賀市","jp_add_2":"上友生"},"5180121":{"post_code":"5180121","prefecture":"MIE KEN","city":"IGA SHI","town":"KAMINOSHO","perfecture_jp":"三重県","jp_add_1":"伊賀市","jp_add_2":"上之庄"},"5181315":{"post_code":"5181315","prefecture":"MIE KEN","city":"IGA SHI","town":"KAWAI","perfecture_jp":"三重県","jp_add_1":"伊賀市","jp_add_2":"川合"},"5181307":{"post_code":"5181307","prefecture":"MIE KEN","city":"IGA SHI","town":"KAWAI(HIGASHIYAMATAUN)","perfecture_jp":"三重県","jp_add_1":"伊賀市","jp_add_2":"川合"},"5180218":{"post_code":"5180218","prefecture":"MIE KEN","city":"IGA SHI","town":"KAWAKAMI","perfecture_jp":"三重県","jp_add_1":"伊賀市","jp_add_2":"川上"},"5181425":{"post_code":"5181425","prefecture":"MIE KEN","city":"IGA SHI","town":"KAWAKITA","perfecture_jp":"三重県","jp_add_1":"伊賀市","jp_add_2":"川北"},"5180845":{"post_code":"5180845","prefecture":"MIE KEN","city":"IGA SHI","town":"KIKOCHO","perfecture_jp":"三重県","jp_add_1":"伊賀市","jp_add_2":"木興町"},"5180204":{"post_code":"5180204","prefecture":"MIE KEN","city":"IGA SHI","town":"KITAYAMA","perfecture_jp":"三重県","jp_add_1":"伊賀市","jp_add_2":"北山"},"5180225":{"post_code":"5180225","prefecture":"MIE KEN","city":"IGA SHI","town":"KIRIGAOKA","perfecture_jp":"三重県","jp_add_1":"伊賀市","jp_add_2":"桐ケ丘"},"5180215":{"post_code":"5180215","prefecture":"MIE KEN","city":"IGA SHI","town":"KIRYU","perfecture_jp":"三重県","jp_add_1":"伊賀市","jp_add_2":"霧生"},"5180843":{"post_code":"5180843","prefecture":"MIE KEN","city":"IGA SHI","town":"KUMECHO","perfecture_jp":"三重県","jp_add_1":"伊賀市","jp_add_2":"久米町"},"5181147":{"post_code":"5181147","prefecture":"MIE KEN","city":"IGA SHI","town":"KURANAWATE","perfecture_jp":"三重県","jp_add_1":"伊賀市","jp_add_2":"蔵縄手"},"5181404":{"post_code":"5181404","prefecture":"MIE KEN","city":"IGA SHI","town":"KONO","perfecture_jp":"三重県","jp_add_1":"伊賀市","jp_add_2":"甲野"},"5180214":{"post_code":"5180214","prefecture":"MIE KEN","city":"IGA SHI","town":"KOSHIYAMA","perfecture_jp":"三重県","jp_add_1":"伊賀市","jp_add_2":"腰山"},"5180809":{"post_code":"5180809","prefecture":"MIE KEN","city":"IGA SHI","town":"SAIMYOJI","perfecture_jp":"三重県","jp_add_1":"伊賀市","jp_add_2":"西明寺"},"5180108":{"post_code":"5180108","prefecture":"MIE KEN","city":"IGA SHI","town":"ZAIRYO","perfecture_jp":"三重県","jp_add_1":"伊賀市","jp_add_2":"才良"},"5181429":{"post_code":"5181429","prefecture":"MIE KEN","city":"IGA SHI","town":"SAKAGE","perfecture_jp":"三重県","jp_add_1":"伊賀市","jp_add_2":"坂下"},"5180012":{"post_code":"5180012","prefecture":"MIE KEN","city":"IGA SHI","town":"SAKANOSHITA","perfecture_jp":"三重県","jp_add_1":"伊賀市","jp_add_2":"坂之下"},"5180001":{"post_code":"5180001","prefecture":"MIE KEN","city":"IGA SHI","town":"SANAGUCHO","perfecture_jp":"三重県","jp_add_1":"伊賀市","jp_add_2":"佐那具町"},"5180823":{"post_code":"5180823","prefecture":"MIE KEN","city":"IGA SHI","town":"SHIJUKUCHO","perfecture_jp":"三重県","jp_add_1":"伊賀市","jp_add_2":"四十九町"},"5180035":{"post_code":"5180035","prefecture":"MIE KEN","city":"IGA SHI","town":"SHICHIHONGI","perfecture_jp":"三重県","jp_add_1":"伊賀市","jp_add_2":"七本木"},"5181416":{"post_code":"5181416","prefecture":"MIE KEN","city":"IGA SHI","town":"SHIMOAWA","perfecture_jp":"三重県","jp_add_1":"伊賀市","jp_add_2":"下阿波"},"5180206":{"post_code":"5180206","prefecture":"MIE KEN","city":"IGA SHI","town":"SHIMOGAWARA","perfecture_jp":"三重県","jp_add_1":"伊賀市","jp_add_2":"下川原"},"5180111":{"post_code":"5180111","prefecture":"MIE KEN","city":"IGA SHI","town":"SHIMOKAMBE","perfecture_jp":"三重県","jp_add_1":"伊賀市","jp_add_2":"下神戸"},"5180124":{"post_code":"5180124","prefecture":"MIE KEN","city":"IGA SHI","town":"SHIMOGORI","perfecture_jp":"三重県","jp_add_1":"伊賀市","jp_add_2":"下郡"},"5181305":{"post_code":"5181305","prefecture":"MIE KEN","city":"IGA SHI","town":"SHIMOTOMODA","perfecture_jp":"三重県","jp_add_1":"伊賀市","jp_add_2":"下友田"},"5180817":{"post_code":"5180817","prefecture":"MIE KEN","city":"IGA SHI","town":"SHIMOTOMONO","perfecture_jp":"三重県","jp_add_1":"伊賀市","jp_add_2":"下友生"},"5181141":{"post_code":"5181141","prefecture":"MIE KEN","city":"IGA SHI","town":"SHOBUIKE","perfecture_jp":"三重県","jp_add_1":"伊賀市","jp_add_2":"菖蒲池"},"5181151":{"post_code":"5181151","prefecture":"MIE KEN","city":"IGA SHI","town":"SHIRAKASHI","perfecture_jp":"三重県","jp_add_1":"伊賀市","jp_add_2":"白樫"},"5180104":{"post_code":"5180104","prefecture":"MIE KEN","city":"IGA SHI","town":"SURUMI","perfecture_jp":"三重県","jp_add_1":"伊賀市","jp_add_2":"摺見"},"5180021":{"post_code":"5180021","prefecture":"MIE KEN","city":"IGA SHI","town":"SUWA","perfecture_jp":"三重県","jp_add_1":"伊賀市","jp_add_2":"諏訪"},"5181319":{"post_code":"5181319","prefecture":"MIE KEN","city":"IGA SHI","town":"SEGAI","perfecture_jp":"三重県","jp_add_1":"伊賀市","jp_add_2":"千貝"},"5180002":{"post_code":"5180002","prefecture":"MIE KEN","city":"IGA SHI","town":"SENZAI","perfecture_jp":"三重県","jp_add_1":"伊賀市","jp_add_2":"千歳"},"5181401":{"post_code":"5181401","prefecture":"MIE KEN","city":"IGA SHI","town":"SENDO","perfecture_jp":"三重県","jp_add_1":"伊賀市","jp_add_2":"千戸"},"5180216":{"post_code":"5180216","prefecture":"MIE KEN","city":"IGA SHI","town":"TAKAO","perfecture_jp":"三重県","jp_add_1":"伊賀市","jp_add_2":"高尾"},"5180005":{"post_code":"5180005","prefecture":"MIE KEN","city":"IGA SHI","town":"TAKAHATA","perfecture_jp":"三重県","jp_add_1":"伊賀市","jp_add_2":"高畑"},"5180812":{"post_code":"5180812","prefecture":"MIE KEN","city":"IGA SHI","town":"TAKAYAMA","perfecture_jp":"三重県","jp_add_1":"伊賀市","jp_add_2":"高山"},"5180201":{"post_code":"5180201","prefecture":"MIE KEN","city":"IGA SHI","town":"TAKI","perfecture_jp":"三重県","jp_add_1":"伊賀市","jp_add_2":"瀧"},"5180217":{"post_code":"5180217","prefecture":"MIE KEN","city":"IGA SHI","town":"TANAO","perfecture_jp":"三重県","jp_add_1":"伊賀市","jp_add_2":"種生"},"5181312":{"post_code":"5181312","prefecture":"MIE KEN","city":"IGA SHI","town":"TANAKA","perfecture_jp":"三重県","jp_add_1":"伊賀市","jp_add_2":"田中"},"5181322":{"post_code":"5181322","prefecture":"MIE KEN","city":"IGA SHI","town":"TAMATAKI","perfecture_jp":"三重県","jp_add_1":"伊賀市","jp_add_2":"玉滝"},"5180032":{"post_code":"5180032","prefecture":"MIE KEN","city":"IGA SHI","town":"CHOYA","perfecture_jp":"三重県","jp_add_1":"伊賀市","jp_add_2":"朝屋"},"5180015":{"post_code":"5180015","prefecture":"MIE KEN","city":"IGA SHI","town":"TSUCHIHASHI","perfecture_jp":"三重県","jp_add_1":"伊賀市","jp_add_2":"土橋"},"5180004":{"post_code":"5180004","prefecture":"MIE KEN","city":"IGA SHI","town":"TERADA","perfecture_jp":"三重県","jp_add_1":"伊賀市","jp_add_2":"寺田"},"5180222":{"post_code":"5180222","prefecture":"MIE KEN","city":"IGA SHI","town":"TERAWAKI","perfecture_jp":"三重県","jp_add_1":"伊賀市","jp_add_2":"寺脇"},"5181424":{"post_code":"5181424","prefecture":"MIE KEN","city":"IGA SHI","town":"TOMIOKA","perfecture_jp":"三重県","jp_add_1":"伊賀市","jp_add_2":"富岡"},"5181417":{"post_code":"5181417","prefecture":"MIE KEN","city":"IGA SHI","town":"TOMINAGA","perfecture_jp":"三重県","jp_add_1":"伊賀市","jp_add_2":"富永"},"5180011":{"post_code":"5180011","prefecture":"MIE KEN","city":"IGA SHI","town":"TOYAMA","perfecture_jp":"三重県","jp_add_1":"伊賀市","jp_add_2":"外山"},"5180822":{"post_code":"5180822","prefecture":"MIE KEN","city":"IGA SHI","town":"TONYAMACHI","perfecture_jp":"三重県","jp_add_1":"伊賀市","jp_add_2":"問屋町"},"5180031":{"post_code":"5180031","prefecture":"MIE KEN","city":"IGA SHI","town":"NAGATA","perfecture_jp":"三重県","jp_add_1":"伊賀市","jp_add_2":"長田"},"5181304":{"post_code":"5181304","prefecture":"MIE KEN","city":"IGA SHI","town":"NAKATOMODA","perfecture_jp":"三重県","jp_add_1":"伊賀市","jp_add_2":"中友田"},"5180816":{"post_code":"5180816","prefecture":"MIE KEN","city":"IGA SHI","town":"NAKATOMONO","perfecture_jp":"三重県","jp_add_1":"伊賀市","jp_add_2":"中友生"},"5181428":{"post_code":"5181428","prefecture":"MIE KEN","city":"IGA SHI","town":"NAKABANO","perfecture_jp":"三重県","jp_add_1":"伊賀市","jp_add_2":"中馬野"},"5181406":{"post_code":"5181406","prefecture":"MIE KEN","city":"IGA SHI","town":"NAKAMURA","perfecture_jp":"三重県","jp_add_1":"伊賀市","jp_add_2":"中村"},"5180014":{"post_code":"5180014","prefecture":"MIE KEN","city":"IGA SHI","town":"NISHIJO","perfecture_jp":"三重県","jp_add_1":"伊賀市","jp_add_2":"西条"},"5180025":{"post_code":"5180025","prefecture":"MIE KEN","city":"IGA SHI","town":"NISHITAKAKURA","perfecture_jp":"三重県","jp_add_1":"伊賀市","jp_add_2":"西高倉"},"5180027":{"post_code":"5180027","prefecture":"MIE KEN","city":"IGA SHI","town":"NISHIYAMA","perfecture_jp":"三重県","jp_add_1":"伊賀市","jp_add_2":"西山"},"5181301":{"post_code":"5181301","prefecture":"MIE KEN","city":"IGA SHI","town":"NISHIYUBUNE","perfecture_jp":"三重県","jp_add_1":"伊賀市","jp_add_2":"西湯舟"},"5180023":{"post_code":"5180023","prefecture":"MIE KEN","city":"IGA SHI","town":"NOMA","perfecture_jp":"三重県","jp_add_1":"伊賀市","jp_add_2":"野間"},"5181318":{"post_code":"5181318","prefecture":"MIE KEN","city":"IGA SHI","town":"HAJIKINO","perfecture_jp":"三重県","jp_add_1":"伊賀市","jp_add_2":"波敷野"},"5180813":{"post_code":"5180813","prefecture":"MIE KEN","city":"IGA SHI","town":"HASUIKE","perfecture_jp":"三重県","jp_add_1":"伊賀市","jp_add_2":"蓮池"},"5181311":{"post_code":"5181311","prefecture":"MIE KEN","city":"IGA SHI","town":"BATA","perfecture_jp":"三重県","jp_add_1":"伊賀市","jp_add_2":"馬田"},"5181408":{"post_code":"5181408","prefecture":"MIE KEN","city":"IGA SHI","town":"HATAMURA","perfecture_jp":"三重県","jp_add_1":"伊賀市","jp_add_2":"畑村"},"5181155":{"post_code":"5181155","prefecture":"MIE KEN","city":"IGA SHI","town":"HATTA","perfecture_jp":"三重県","jp_add_1":"伊賀市","jp_add_2":"治田"},"5180007":{"post_code":"5180007","prefecture":"MIE KEN","city":"IGA SHI","town":"HATTORICHO","perfecture_jp":"三重県","jp_add_1":"伊賀市","jp_add_2":"服部町"},"5180006":{"post_code":"5180006","prefecture":"MIE KEN","city":"IGA SHI","town":"HANE","perfecture_jp":"三重県","jp_add_1":"伊賀市","jp_add_2":"羽根"},"5181313":{"post_code":"5181313","prefecture":"MIE KEN","city":"IGA SHI","town":"BABA","perfecture_jp":"三重県","jp_add_1":"伊賀市","jp_add_2":"馬場"},"5180013":{"post_code":"5180013","prefecture":"MIE KEN","city":"IGA SHI","town":"HIGASHIJO","perfecture_jp":"三重県","jp_add_1":"伊賀市","jp_add_2":"東条"},"5180024":{"post_code":"5180024","prefecture":"MIE KEN","city":"IGA SHI","town":"HIGASHITAKAKURA","perfecture_jp":"三重県","jp_add_1":"伊賀市","jp_add_2":"東高倉"},"5181144":{"post_code":"5181144","prefecture":"MIE KEN","city":"IGA SHI","town":"HIGASHIDANI","perfecture_jp":"三重県","jp_add_1":"伊賀市","jp_add_2":"東谷"},"5181302":{"post_code":"5181302","prefecture":"MIE KEN","city":"IGA SHI","town":"HIGASHIYUBUNE","perfecture_jp":"三重県","jp_add_1":"伊賀市","jp_add_2":"東湯舟"},"5180105":{"post_code":"5180105","prefecture":"MIE KEN","city":"IGA SHI","town":"HIJIKI","perfecture_jp":"三重県","jp_add_1":"伊賀市","jp_add_2":"比自岐"},"5180107":{"post_code":"5180107","prefecture":"MIE KEN","city":"IGA SHI","town":"HIJIKIGAWA","perfecture_jp":"三重県","jp_add_1":"伊賀市","jp_add_2":"枅川"},"5180115":{"post_code":"5180115","prefecture":"MIE KEN","city":"IGA SHI","town":"HIDO","perfecture_jp":"三重県","jp_add_1":"伊賀市","jp_add_2":"比土"},"5181422":{"post_code":"5181422","prefecture":"MIE KEN","city":"IGA SHI","town":"HIRATA","perfecture_jp":"三重県","jp_add_1":"伊賀市","jp_add_2":"平田"},"5180807":{"post_code":"5180807","prefecture":"MIE KEN","city":"IGA SHI","town":"HIRANO KAMIGAWARA","perfecture_jp":"三重県","jp_add_1":"伊賀市","jp_add_2":"平野上川原"},"5180826":{"post_code":"5180826","prefecture":"MIE KEN","city":"IGA SHI","town":"HIRANO KITADANI","perfecture_jp":"三重県","jp_add_1":"伊賀市","jp_add_2":"平野北谷"},"5180808":{"post_code":"5180808","prefecture":"MIE KEN","city":"IGA SHI","town":"HIRANO KURAGAITO","perfecture_jp":"三重県","jp_add_1":"伊賀市","jp_add_2":"平野蔵垣内"},"5180827":{"post_code":"5180827","prefecture":"MIE KEN","city":"IGA SHI","town":"HIRANO SHOZU","perfecture_jp":"三重県","jp_add_1":"伊賀市","jp_add_2":"平野清水"},"5180830":{"post_code":"5180830","prefecture":"MIE KEN","city":"IGA SHI","town":"HIRANO JOHOKUCHO","perfecture_jp":"三重県","jp_add_1":"伊賀市","jp_add_2":"平野城北町"},"5180828":{"post_code":"5180828","prefecture":"MIE KEN","city":"IGA SHI","town":"HIRANO NAKAGAWARA","perfecture_jp":"三重県","jp_add_1":"伊賀市","jp_add_2":"平野中川原"},"5180820":{"post_code":"5180820","prefecture":"MIE KEN","city":"IGA SHI","town":"HIRANO NISHIMACHI","perfecture_jp":"三重県","jp_add_1":"伊賀市","jp_add_2":"平野西町"},"5180810":{"post_code":"5180810","prefecture":"MIE KEN","city":"IGA SHI","town":"HIRANO HIGASHIMACHI","perfecture_jp":"三重県","jp_add_1":"伊賀市","jp_add_2":"平野東町"},"5180802":{"post_code":"5180802","prefecture":"MIE KEN","city":"IGA SHI","town":"HIRANO HINOKUCHI","perfecture_jp":"三重県","jp_add_1":"伊賀市","jp_add_2":"平野樋之口"},"5180801":{"post_code":"5180801","prefecture":"MIE KEN","city":"IGA SHI","town":"HIRANO MINO","perfecture_jp":"三重県","jp_add_1":"伊賀市","jp_add_2":"平野見能"},"5180829":{"post_code":"5180829","prefecture":"MIE KEN","city":"IGA SHI","town":"HIRANO YAMANOSHITA","perfecture_jp":"三重県","jp_add_1":"伊賀市","jp_add_2":"平野山之下"},"5180804":{"post_code":"5180804","prefecture":"MIE KEN","city":"IGA SHI","town":"HIRANO ROKUTANDA","perfecture_jp":"三重県","jp_add_1":"伊賀市","jp_add_2":"平野六反田"},"5181426":{"post_code":"5181426","prefecture":"MIE KEN","city":"IGA SHI","town":"HIROSE","perfecture_jp":"三重県","jp_add_1":"伊賀市","jp_add_2":"広瀬"},"5180212":{"post_code":"5180212","prefecture":"MIE KEN","city":"IGA SHI","town":"FUKUGAWA","perfecture_jp":"三重県","jp_add_1":"伊賀市","jp_add_2":"福川"},"5180113":{"post_code":"5180113","prefecture":"MIE KEN","city":"IGA SHI","town":"FURUKORI","perfecture_jp":"三重県","jp_add_1":"伊賀市","jp_add_2":"古郡"},"5180821":{"post_code":"5180821","prefecture":"MIE KEN","city":"IGA SHI","town":"FURUSATO","perfecture_jp":"三重県","jp_add_1":"伊賀市","jp_add_2":"生琉里"},"5181142":{"post_code":"5181142","prefecture":"MIE KEN","city":"IGA SHI","town":"FURUYAMAKAIGE","perfecture_jp":"三重県","jp_add_1":"伊賀市","jp_add_2":"古山界外"},"5180221":{"post_code":"5180221","prefecture":"MIE KEN","city":"IGA SHI","town":"BEFU","perfecture_jp":"三重県","jp_add_1":"伊賀市","jp_add_2":"別府"},"5181405":{"post_code":"5181405","prefecture":"MIE KEN","city":"IGA SHI","town":"BOJI","perfecture_jp":"三重県","jp_add_1":"伊賀市","jp_add_2":"鳳凰寺"},"5180811":{"post_code":"5180811","prefecture":"MIE KEN","city":"IGA SHI","town":"HOJIRO","perfecture_jp":"三重県","jp_add_1":"伊賀市","jp_add_2":"喰代"},"5180036":{"post_code":"5180036","prefecture":"MIE KEN","city":"IGA SHI","town":"HOKKE","perfecture_jp":"三重県","jp_add_1":"伊賀市","jp_add_2":"法花"},"5181326":{"post_code":"5181326","prefecture":"MIE KEN","city":"IGA SHI","town":"MAKIYAMA","perfecture_jp":"三重県","jp_add_1":"伊賀市","jp_add_2":"槙山"},"5181414":{"post_code":"5181414","prefecture":"MIE KEN","city":"IGA SHI","town":"MASHINO","perfecture_jp":"三重県","jp_add_1":"伊賀市","jp_add_2":"猿野"},"5181325":{"post_code":"5181325","prefecture":"MIE KEN","city":"IGA SHI","town":"MARUBASHIRA","perfecture_jp":"三重県","jp_add_1":"伊賀市","jp_add_2":"丸柱"},"5180022":{"post_code":"5180022","prefecture":"MIE KEN","city":"IGA SHI","town":"MITA","perfecture_jp":"三重県","jp_add_1":"伊賀市","jp_add_2":"三田"},"5180834":{"post_code":"5180834","prefecture":"MIE KEN","city":"IGA SHI","town":"MIDORIGAOKA NAKAMACHI","perfecture_jp":"三重県","jp_add_1":"伊賀市","jp_add_2":"緑ケ丘中町"},"5180837":{"post_code":"5180837","prefecture":"MIE KEN","city":"IGA SHI","town":"MIDORIGAOKA NISHIMACHI","perfecture_jp":"三重県","jp_add_1":"伊賀市","jp_add_2":"緑ケ丘西町"},"5180833":{"post_code":"5180833","prefecture":"MIE KEN","city":"IGA SHI","town":"MIDORIGAOKA HIGASHIMACHI","perfecture_jp":"三重県","jp_add_1":"伊賀市","jp_add_2":"緑ケ丘東町"},"5180836":{"post_code":"5180836","prefecture":"MIE KEN","city":"IGA SHI","town":"MIDORIGAOKA HOMMACHI","perfecture_jp":"三重県","jp_add_1":"伊賀市","jp_add_2":"緑ケ丘本町"},"5180835":{"post_code":"5180835","prefecture":"MIE KEN","city":"IGA SHI","town":"MIDORIGAOKA MINAMIMACHI","perfecture_jp":"三重県","jp_add_1":"伊賀市","jp_add_2":"緑ケ丘南町"},"5181421":{"post_code":"5181421","prefecture":"MIE KEN","city":"IGA SHI","town":"MIDORO","perfecture_jp":"三重県","jp_add_1":"伊賀市","jp_add_2":"真泥"},"5180202":{"post_code":"5180202","prefecture":"MIE KEN","city":"IGA SHI","town":"MYORAKUJI","perfecture_jp":"三重県","jp_add_1":"伊賀市","jp_add_2":"妙楽地"},"5180824":{"post_code":"5180824","prefecture":"MIE KEN","city":"IGA SHI","town":"MORITACHO","perfecture_jp":"三重県","jp_add_1":"伊賀市","jp_add_2":"守田町"},"5180126":{"post_code":"5180126","prefecture":"MIE KEN","city":"IGA SHI","town":"MORIDERA","perfecture_jp":"三重県","jp_add_1":"伊賀市","jp_add_2":"森寺"},"5180213":{"post_code":"5180213","prefecture":"MIE KEN","city":"IGA SHI","town":"MOROKI","perfecture_jp":"三重県","jp_add_1":"伊賀市","jp_add_2":"諸木"},"5180016":{"post_code":"5180016","prefecture":"MIE KEN","city":"IGA SHI","town":"YAGAMI","perfecture_jp":"三重県","jp_add_1":"伊賀市","jp_add_2":"山神"},"5181145":{"post_code":"5181145","prefecture":"MIE KEN","city":"IGA SHI","town":"YASUBA","perfecture_jp":"三重県","jp_add_1":"伊賀市","jp_add_2":"安場"},"5180844":{"post_code":"5180844","prefecture":"MIE KEN","city":"IGA SHI","town":"YAHATACHO","perfecture_jp":"三重県","jp_add_1":"伊賀市","jp_add_2":"八幡町"},"5180127":{"post_code":"5180127","prefecture":"MIE KEN","city":"IGA SHI","town":"YAMADE","perfecture_jp":"三重県","jp_add_1":"伊賀市","jp_add_2":"山出"},"5181306":{"post_code":"5181306","prefecture":"MIE KEN","city":"IGA SHI","town":"YUBUNE","perfecture_jp":"三重県","jp_add_1":"伊賀市","jp_add_2":"湯舟"},"5180131":{"post_code":"5180131","prefecture":"MIE KEN","city":"IGA SHI","town":"YUMEGAOKA","perfecture_jp":"三重県","jp_add_1":"伊賀市","jp_add_2":"ゆめが丘"},"5181146":{"post_code":"5181146","prefecture":"MIE KEN","city":"IGA SHI","town":"YUYADANI","perfecture_jp":"三重県","jp_add_1":"伊賀市","jp_add_2":"湯屋谷"},"5180840":{"post_code":"5180840","prefecture":"MIE KEN","city":"IGA SHI","town":"YOKODAI","perfecture_jp":"三重県","jp_add_1":"伊賀市","jp_add_2":"陽光台"},"5181152":{"post_code":"5181152","prefecture":"MIE KEN","city":"IGA SHI","town":"YONO","perfecture_jp":"三重県","jp_add_1":"伊賀市","jp_add_2":"予野"}}