{"5200000":{"post_code":"5200000","prefecture":"SHIGA KEN","city":"OTSU SHI","town":"IKANIKEISAIGANAIBAAI","perfecture_jp":"滋賀県","jp_add_1":"大津市","jp_add_2":""},"5202101":{"post_code":"5202101","prefecture":"SHIGA KEN","city":"OTSU SHI","town":"AOYAMA","perfecture_jp":"滋賀県","jp_add_1":"大津市","jp_add_2":"青山"},"5200864":{"post_code":"5200864","prefecture":"SHIGA KEN","city":"OTSU SHI","town":"AKAOCHO","perfecture_jp":"滋賀県","jp_add_1":"大津市","jp_add_2":"赤尾町"},"5200003":{"post_code":"5200003","prefecture":"SHIGA KEN","city":"OTSU SHI","town":"AKANECHO","perfecture_jp":"滋賀県","jp_add_1":"大津市","jp_add_2":"あかね町"},"5200822":{"post_code":"5200822","prefecture":"SHIGA KEN","city":"OTSU SHI","town":"AKIBADAI","perfecture_jp":"滋賀県","jp_add_1":"大津市","jp_add_2":"秋葉台"},"5200533":{"post_code":"5200533","prefecture":"SHIGA KEN","city":"OTSU SHI","town":"ASAHI","perfecture_jp":"滋賀県","jp_add_1":"大津市","jp_add_2":"朝日"},"5200052":{"post_code":"5200052","prefecture":"SHIGA KEN","city":"OTSU SHI","town":"ASAHIGAOKA","perfecture_jp":"滋賀県","jp_add_1":"大津市","jp_add_2":"朝日が丘"},"5200114":{"post_code":"5200114","prefecture":"SHIGA KEN","city":"OTSU SHI","town":"ANO","perfecture_jp":"滋賀県","jp_add_1":"大津市","jp_add_2":"穴太"},"5200513":{"post_code":"5200513","prefecture":"SHIGA KEN","city":"OTSU SHI","town":"ARAKAWA","perfecture_jp":"滋賀県","jp_add_1":"大津市","jp_add_2":"荒川"},"5200832":{"post_code":"5200832","prefecture":"SHIGA KEN","city":"OTSU SHI","town":"AWAZUCHO","perfecture_jp":"滋賀県","jp_add_1":"大津市","jp_add_2":"粟津町"},"5200356":{"post_code":"5200356","prefecture":"SHIGA KEN","city":"OTSU SHI","town":"IKADACHI KAMIZAIJICHO","perfecture_jp":"滋賀県","jp_add_1":"大津市","jp_add_2":"伊香立上在地町"},"5200352":{"post_code":"5200352","prefecture":"SHIGA KEN","city":"OTSU SHI","town":"IKADACHI SHIMOZAIJICHO","perfecture_jp":"滋賀県","jp_add_1":"大津市","jp_add_2":"伊香立下在地町"},"5200362":{"post_code":"5200362","prefecture":"SHIGA KEN","city":"OTSU SHI","town":"IKADACHI KAMIRYUGECHO","perfecture_jp":"滋賀県","jp_add_1":"大津市","jp_add_2":"伊香立上龍華町"},"5200363":{"post_code":"5200363","prefecture":"SHIGA KEN","city":"OTSU SHI","town":"IKADACHI SHIMORYUGECHO","perfecture_jp":"滋賀県","jp_add_1":"大津市","jp_add_2":"伊香立下龍華町"},"5200351":{"post_code":"5200351","prefecture":"SHIGA KEN","city":"OTSU SHI","town":"IKADACHI KITAZAIJICHO","perfecture_jp":"滋賀県","jp_add_1":"大津市","jp_add_2":"伊香立北在地町"},"5200361":{"post_code":"5200361","prefecture":"SHIGA KEN","city":"OTSU SHI","town":"IKADACHI TOCHUCHO","perfecture_jp":"滋賀県","jp_add_1":"大津市","jp_add_2":"伊香立途中町"},"5200355":{"post_code":"5200355","prefecture":"SHIGA KEN","city":"OTSU SHI","town":"IKADACHI NAMAZUCHO","perfecture_jp":"滋賀県","jp_add_1":"大津市","jp_add_2":"伊香立生津町"},"5200354":{"post_code":"5200354","prefecture":"SHIGA KEN","city":"OTSU SHI","town":"IKADACHI MINAMISHOCHO","perfecture_jp":"滋賀県","jp_add_1":"大津市","jp_add_2":"伊香立南庄町"},"5200353":{"post_code":"5200353","prefecture":"SHIGA KEN","city":"OTSU SHI","town":"IKADACHI MUKAIZAIJICHO","perfecture_jp":"滋賀県","jp_add_1":"大津市","jp_add_2":"伊香立向在地町"},"5200827":{"post_code":"5200827","prefecture":"SHIGA KEN","city":"OTSU SHI","town":"IKENOSATO","perfecture_jp":"滋賀県","jp_add_1":"大津市","jp_add_2":"池の里"},"5202272":{"post_code":"5202272","prefecture":"SHIGA KEN","city":"OTSU SHI","town":"ISHIZUE","perfecture_jp":"滋賀県","jp_add_1":"大津市","jp_add_2":"石居"},"5200805":{"post_code":"5200805","prefecture":"SHIGA KEN","city":"OTSU SHI","town":"ISHIBA","perfecture_jp":"滋賀県","jp_add_1":"大津市","jp_add_2":"石場"},"5200869":{"post_code":"5200869","prefecture":"SHIGA KEN","city":"OTSU SHI","town":"ISHIYAMA UCHIHATACHO","perfecture_jp":"滋賀県","jp_add_1":"大津市","jp_add_2":"石山内畑町"},"5200860":{"post_code":"5200860","prefecture":"SHIGA KEN","city":"OTSU SHI","town":"ISHIYAMA SENCHO","perfecture_jp":"滋賀県","jp_add_1":"大津市","jp_add_2":"石山千町"},"5200868":{"post_code":"5200868","prefecture":"SHIGA KEN","city":"OTSU SHI","town":"ISHIYAMA SOTOHATACHO","perfecture_jp":"滋賀県","jp_add_1":"大津市","jp_add_2":"石山外畑町"},"5200861":{"post_code":"5200861","prefecture":"SHIGA KEN","city":"OTSU SHI","town":"ISHIYAMADERA","perfecture_jp":"滋賀県","jp_add_1":"大津市","jp_add_2":"石山寺"},"5200866":{"post_code":"5200866","prefecture":"SHIGA KEN","city":"OTSU SHI","town":"ISHIYAMA TERABECHO","perfecture_jp":"滋賀県","jp_add_1":"大津市","jp_add_2":"石山寺辺町"},"5202153":{"post_code":"5202153","prefecture":"SHIGA KEN","city":"OTSU SHI","town":"ICHIRIYAMA","perfecture_jp":"滋賀県","jp_add_1":"大津市","jp_add_2":"一里山"},"5202271":{"post_code":"5202271","prefecture":"SHIGA KEN","city":"OTSU SHI","town":"INAZU","perfecture_jp":"滋賀県","jp_add_1":"大津市","jp_add_2":"稲津"},"5200065":{"post_code":"5200065","prefecture":"SHIGA KEN","city":"OTSU SHI","town":"INABADAI","perfecture_jp":"滋賀県","jp_add_1":"大津市","jp_add_2":"稲葉台"},"5200241":{"post_code":"5200241","prefecture":"SHIGA KEN","city":"OTSU SHI","town":"IMAKATATA","perfecture_jp":"滋賀県","jp_add_1":"大津市","jp_add_2":"今堅田"},"5200806":{"post_code":"5200806","prefecture":"SHIGA KEN","city":"OTSU SHI","town":"UCHIDEHAMA","perfecture_jp":"滋賀県","jp_add_1":"大津市","jp_add_2":"打出浜"},"5200051":{"post_code":"5200051","prefecture":"SHIGA KEN","city":"OTSU SHI","town":"UMEBAYASHI","perfecture_jp":"滋賀県","jp_add_1":"大津市","jp_add_2":"梅林"},"5202275":{"post_code":"5202275","prefecture":"SHIGA KEN","city":"OTSU SHI","town":"EDA","perfecture_jp":"滋賀県","jp_add_1":"大津市","jp_add_2":"枝"},"5200064":{"post_code":"5200064","prefecture":"SHIGA KEN","city":"OTSU SHI","town":"OIWAKECHO","perfecture_jp":"滋賀県","jp_add_1":"大津市","jp_add_2":"追分町"},"5200054":{"post_code":"5200054","prefecture":"SHIGA KEN","city":"OTSU SHI","town":"OSAKA","perfecture_jp":"滋賀県","jp_add_1":"大津市","jp_add_2":"逢坂"},"5200025":{"post_code":"5200025","prefecture":"SHIGA KEN","city":"OTSU SHI","town":"OJIGAOKA","perfecture_jp":"滋賀県","jp_add_1":"大津市","jp_add_2":"皇子が丘"},"5202267":{"post_code":"5202267","prefecture":"SHIGA KEN","city":"OTSU SHI","town":"OISHI ODAWARACHO","perfecture_jp":"滋賀県","jp_add_1":"大津市","jp_add_2":"大石小田原"},"5202261":{"post_code":"5202261","prefecture":"SHIGA KEN","city":"OTSU SHI","town":"OISHI SOTSUKACHO","perfecture_jp":"滋賀県","jp_add_1":"大津市","jp_add_2":"大石曽束"},"5202265":{"post_code":"5202265","prefecture":"SHIGA KEN","city":"OTSU SHI","town":"OISHI TOMIKAWACHO","perfecture_jp":"滋賀県","jp_add_1":"大津市","jp_add_2":"大石富川"},"5202263":{"post_code":"5202263","prefecture":"SHIGA KEN","city":"OTSU SHI","town":"OISHINAKA","perfecture_jp":"滋賀県","jp_add_1":"大津市","jp_add_2":"大石中"},"5202264":{"post_code":"5202264","prefecture":"SHIGA KEN","city":"OTSU SHI","town":"OISHIHIGASHI","perfecture_jp":"滋賀県","jp_add_1":"大津市","jp_add_2":"大石東"},"5202262":{"post_code":"5202262","prefecture":"SHIGA KEN","city":"OTSU SHI","town":"OISHIYODOCHO","perfecture_jp":"滋賀県","jp_add_1":"大津市","jp_add_2":"大石淀"},"5202266":{"post_code":"5202266","prefecture":"SHIGA KEN","city":"OTSU SHI","town":"OISHIRYUMON","perfecture_jp":"滋賀県","jp_add_1":"大津市","jp_add_2":"大石龍門"},"5202141":{"post_code":"5202141","prefecture":"SHIGA KEN","city":"OTSU SHI","town":"OE","perfecture_jp":"滋賀県","jp_add_1":"大津市","jp_add_2":"大江"},"5202144":{"post_code":"5202144","prefecture":"SHIGA KEN","city":"OTSU SHI","town":"OGAYA","perfecture_jp":"滋賀県","jp_add_1":"大津市","jp_add_2":"大萱"},"5200247":{"post_code":"5200247","prefecture":"SHIGA KEN","city":"OTSU SHI","town":"OGI","perfecture_jp":"滋賀県","jp_add_1":"大津市","jp_add_2":"仰木"},"5200245":{"post_code":"5200245","prefecture":"SHIGA KEN","city":"OTSU SHI","town":"OGICHO","perfecture_jp":"滋賀県","jp_add_1":"大津市","jp_add_2":"仰木町"},"5200246":{"post_code":"5200246","prefecture":"SHIGA KEN","city":"OTSU SHI","town":"OGINOSATO","perfecture_jp":"滋賀県","jp_add_1":"大津市","jp_add_2":"仰木の里"},"5200248":{"post_code":"5200248","prefecture":"SHIGA KEN","city":"OTSU SHI","town":"OGINOSATOHIGASHI","perfecture_jp":"滋賀県","jp_add_1":"大津市","jp_add_2":"仰木の里東"},"5200062":{"post_code":"5200062","prefecture":"SHIGA KEN","city":"OTSU SHI","town":"OTANICHO","perfecture_jp":"滋賀県","jp_add_1":"大津市","jp_add_2":"大谷町"},"5202118":{"post_code":"5202118","prefecture":"SHIGA KEN","city":"OTSU SHI","town":"ODORII","perfecture_jp":"滋賀県","jp_add_1":"大津市","jp_add_2":"大鳥居"},"5200867":{"post_code":"5200867","prefecture":"SHIGA KEN","city":"OTSU SHI","town":"OHIRA","perfecture_jp":"滋賀県","jp_add_1":"大津市","jp_add_2":"大平"},"5200101":{"post_code":"5200101","prefecture":"SHIGA KEN","city":"OTSU SHI","town":"OGOTO","perfecture_jp":"滋賀県","jp_add_1":"大津市","jp_add_2":"雄琴"},"5200107":{"post_code":"5200107","prefecture":"SHIGA KEN","city":"OTSU SHI","town":"OGOTOKITA","perfecture_jp":"滋賀県","jp_add_1":"大津市","jp_add_2":"雄琴北"},"5200053":{"post_code":"5200053","prefecture":"SHIGA KEN","city":"OTSU SHI","town":"OTOWADAI","perfecture_jp":"滋賀県","jp_add_1":"大津市","jp_add_2":"音羽台"},"5200525":{"post_code":"5200525","prefecture":"SHIGA KEN","city":"OTSU SHI","town":"ONO","perfecture_jp":"滋賀県","jp_add_1":"大津市","jp_add_2":"小野"},"5200031":{"post_code":"5200031","prefecture":"SHIGA KEN","city":"OTSU SHI","town":"OBANAGAWA","perfecture_jp":"滋賀県","jp_add_1":"大津市","jp_add_2":"尾花川"},"5200036":{"post_code":"5200036","prefecture":"SHIGA KEN","city":"OTSU SHI","town":"ONJOJICHO","perfecture_jp":"滋賀県","jp_add_1":"大津市","jp_add_2":"園城寺町"},"5200012":{"post_code":"5200012","prefecture":"SHIGA KEN","city":"OTSU SHI","town":"KAGAMIGAHAMA","perfecture_jp":"滋賀県","jp_add_1":"大津市","jp_add_2":"鏡が浜"},"5200055":{"post_code":"5200055","prefecture":"SHIGA KEN","city":"OTSU SHI","town":"KASUGACHO","perfecture_jp":"滋賀県","jp_add_1":"大津市","jp_add_2":"春日町"},"5200243":{"post_code":"5200243","prefecture":"SHIGA KEN","city":"OTSU SHI","town":"KATATA","perfecture_jp":"滋賀県","jp_add_1":"大津市","jp_add_2":"堅田"},"5200473":{"post_code":"5200473","prefecture":"SHIGA KEN","city":"OTSU SHI","town":"KATSURAGAWA UMENOKICHO","perfecture_jp":"滋賀県","jp_add_1":"大津市","jp_add_2":"葛川梅ノ木町"},"5200477":{"post_code":"5200477","prefecture":"SHIGA KEN","city":"OTSU SHI","town":"KATSURAGAWA KIDOGUCHICHO","perfecture_jp":"滋賀県","jp_add_1":"大津市","jp_add_2":"葛川木戸口町"},"5200478":{"post_code":"5200478","prefecture":"SHIGA KEN","city":"OTSU SHI","town":"KATSURAGAWA SAKASHITACHO","perfecture_jp":"滋賀県","jp_add_1":"大津市","jp_add_2":"葛川坂下町"},"5200476":{"post_code":"5200476","prefecture":"SHIGA KEN","city":"OTSU SHI","town":"KATSURAGAWA NAKAMURACHO","perfecture_jp":"滋賀県","jp_add_1":"大津市","jp_add_2":"葛川中村町"},"5200472":{"post_code":"5200472","prefecture":"SHIGA KEN","city":"OTSU SHI","town":"KATSURAGAWA NUKUICHO","perfecture_jp":"滋賀県","jp_add_1":"大津市","jp_add_2":"葛川貫井町"},"5200471":{"post_code":"5200471","prefecture":"SHIGA KEN","city":"OTSU SHI","town":"KATSURAGAWA HOSOKAWACHO","perfecture_jp":"滋賀県","jp_add_1":"大津市","jp_add_2":"葛川細川町"},"5200475":{"post_code":"5200475","prefecture":"SHIGA KEN","city":"OTSU SHI","town":"KATSURAGAWA BOMURACHO","perfecture_jp":"滋賀県","jp_add_1":"大津市","jp_add_2":"葛川坊村町"},"5200474":{"post_code":"5200474","prefecture":"SHIGA KEN","city":"OTSU SHI","town":"KATSURAGAWA MACHIICHO","perfecture_jp":"滋賀県","jp_add_1":"大津市","jp_add_2":"葛川町居町"},"5202161":{"post_code":"5202161","prefecture":"SHIGA KEN","city":"OTSU SHI","town":"KAMITANAKAMI KIRYUCHO","perfecture_jp":"滋賀県","jp_add_1":"大津市","jp_add_2":"上田上桐生町"},"5202167":{"post_code":"5202167","prefecture":"SHIGA KEN","city":"OTSU SHI","town":"KAMITANAKAMI SHIBAHARACHO","perfecture_jp":"滋賀県","jp_add_1":"大津市","jp_add_2":"上田上芝原町"},"5202165":{"post_code":"5202165","prefecture":"SHIGA KEN","city":"OTSU SHI","town":"KAMITANAKAMI SHIMMECHO","perfecture_jp":"滋賀県","jp_add_1":"大津市","jp_add_2":"上田上新免町"},"5202166":{"post_code":"5202166","prefecture":"SHIGA KEN","city":"OTSU SHI","town":"KAMITANAKAMI DOCHO","perfecture_jp":"滋賀県","jp_add_1":"大津市","jp_add_2":"上田上堂町"},"5202164":{"post_code":"5202164","prefecture":"SHIGA KEN","city":"OTSU SHI","town":"KAMITANAKAMI NAKANOCHO","perfecture_jp":"滋賀県","jp_add_1":"大津市","jp_add_2":"上田上中野町"},"5202163":{"post_code":"5202163","prefecture":"SHIGA KEN","city":"OTSU SHI","town":"KAMITANAKAMI HIRANOCHO","perfecture_jp":"滋賀県","jp_add_1":"大津市","jp_add_2":"上田上平野町"},"5202162":{"post_code":"5202162","prefecture":"SHIGA KEN","city":"OTSU SHI","town":"KAMITANAKAMI MAKICHO","perfecture_jp":"滋賀県","jp_add_1":"大津市","jp_add_2":"上田上牧町"},"5200061":{"post_code":"5200061","prefecture":"SHIGA KEN","city":"OTSU SHI","town":"KAMIDEHIRAKIMACHI","perfecture_jp":"滋賀県","jp_add_1":"大津市","jp_add_2":"神出開町"},"5202143":{"post_code":"5202143","prefecture":"SHIGA KEN","city":"OTSU SHI","town":"KAYANORA","perfecture_jp":"滋賀県","jp_add_1":"大津市","jp_add_2":"萱野浦"},"5200106":{"post_code":"5200106","prefecture":"SHIGA KEN","city":"OTSU SHI","town":"KARASAKI","perfecture_jp":"滋賀県","jp_add_1":"大津市","jp_add_2":"唐崎"},"5200851":{"post_code":"5200851","prefecture":"SHIGA KEN","city":"OTSU SHI","town":"KARAHASHICHO","perfecture_jp":"滋賀県","jp_add_1":"大津市","jp_add_2":"唐橋町"},"5200013":{"post_code":"5200013","prefecture":"SHIGA KEN","city":"OTSU SHI","town":"KANGAKU","perfecture_jp":"滋賀県","jp_add_1":"大津市","jp_add_2":"勧学"},"5200032":{"post_code":"5200032","prefecture":"SHIGA KEN","city":"OTSU SHI","town":"KANNONJI","perfecture_jp":"滋賀県","jp_add_1":"大津市","jp_add_2":"観音寺"},"5200843":{"post_code":"5200843","prefecture":"SHIGA KEN","city":"OTSU SHI","town":"KITAOJI","perfecture_jp":"滋賀県","jp_add_1":"大津市","jp_add_2":"北大路"},"5200501":{"post_code":"5200501","prefecture":"SHIGA KEN","city":"OTSU SHI","town":"KITAKOMATSU","perfecture_jp":"滋賀県","jp_add_1":"大津市","jp_add_2":"北小松"},"5200503":{"post_code":"5200503","prefecture":"SHIGA KEN","city":"OTSU SHI","town":"KITAHIRA","perfecture_jp":"滋賀県","jp_add_1":"大津市","jp_add_2":"北比良"},"5200514":{"post_code":"5200514","prefecture":"SHIGA KEN","city":"OTSU SHI","town":"KIDO","perfecture_jp":"滋賀県","jp_add_1":"大津市","jp_add_2":"木戸"},"5200244":{"post_code":"5200244","prefecture":"SHIGA KEN","city":"OTSU SHI","town":"KINUGAWA","perfecture_jp":"滋賀県","jp_add_1":"大津市","jp_add_2":"衣川"},"5200812":{"post_code":"5200812","prefecture":"SHIGA KEN","city":"OTSU SHI","town":"KINOSHITACHO","perfecture_jp":"滋賀県","jp_add_1":"大津市","jp_add_2":"木下町"},"5200044":{"post_code":"5200044","prefecture":"SHIGA KEN","city":"OTSU SHI","town":"KYOMACHI","perfecture_jp":"滋賀県","jp_add_1":"大津市","jp_add_2":"京町"},"5202111":{"post_code":"5202111","prefecture":"SHIGA KEN","city":"OTSU SHI","town":"KIRYU","perfecture_jp":"滋賀県","jp_add_1":"大津市","jp_add_2":"桐生"},"5202151":{"post_code":"5202151","prefecture":"SHIGA KEN","city":"OTSU SHI","town":"KURIBAYASHICHO","perfecture_jp":"滋賀県","jp_add_1":"大津市","jp_add_2":"栗林町"},"5200527":{"post_code":"5200527","prefecture":"SHIGA KEN","city":"OTSU SHI","town":"KURIHARA","perfecture_jp":"滋賀県","jp_add_1":"大津市","jp_add_2":"栗原"},"5202279":{"post_code":"5202279","prefecture":"SHIGA KEN","city":"OTSU SHI","town":"KUROZU","perfecture_jp":"滋賀県","jp_add_1":"大津市","jp_add_2":"黒津"},"5200224":{"post_code":"5200224","prefecture":"SHIGA KEN","city":"OTSU SHI","town":"KOYOCHO","perfecture_jp":"滋賀県","jp_add_1":"大津市","jp_add_2":"向陽町"},"5200844":{"post_code":"5200844","prefecture":"SHIGA KEN","city":"OTSU SHI","town":"KOKUBU","perfecture_jp":"滋賀県","jp_add_1":"大津市","jp_add_2":"国分"},"5200821":{"post_code":"5200821","prefecture":"SHIGA KEN","city":"OTSU SHI","town":"KOJOGAOKA","perfecture_jp":"滋賀県","jp_add_1":"大津市","jp_add_2":"湖城が丘"},"5200532":{"post_code":"5200532","prefecture":"SHIGA KEN","city":"OTSU SHI","town":"KOSEI","perfecture_jp":"滋賀県","jp_add_1":"大津市","jp_add_2":"湖青"},"5200035":{"post_code":"5200035","prefecture":"SHIGA KEN","city":"OTSU SHI","town":"KOZEKICHO","perfecture_jp":"滋賀県","jp_add_1":"大津市","jp_add_2":"小関町"},"5200834":{"post_code":"5200834","prefecture":"SHIGA KEN","city":"OTSU SHI","town":"GOTENHAMA","perfecture_jp":"滋賀県","jp_add_1":"大津市","jp_add_2":"御殿浜"},"5200103":{"post_code":"5200103","prefecture":"SHIGA KEN","city":"OTSU SHI","town":"KONOKACHO","perfecture_jp":"滋賀県","jp_add_1":"大津市","jp_add_2":"木の岡町"},"5200037":{"post_code":"5200037","prefecture":"SHIGA KEN","city":"OTSU SHI","town":"GORYOCHO","perfecture_jp":"滋賀県","jp_add_1":"大津市","jp_add_2":"御陵町"},"5200002":{"post_code":"5200002","prefecture":"SHIGA KEN","city":"OTSU SHI","town":"SAIGAWA","perfecture_jp":"滋賀県","jp_add_1":"大津市","jp_add_2":"際川"},"5200855":{"post_code":"5200855","prefecture":"SHIGA KEN","city":"OTSU SHI","town":"SAKAEMACHI","perfecture_jp":"滋賀県","jp_add_1":"大津市","jp_add_2":"栄町"},"5200113":{"post_code":"5200113","prefecture":"SHIGA KEN","city":"OTSU SHI","town":"SAKAMOTO","perfecture_jp":"滋賀県","jp_add_1":"大津市","jp_add_2":"坂本"},"5200116":{"post_code":"5200116","prefecture":"SHIGA KEN","city":"OTSU SHI","town":"SAKAMOTOHOMMACHI","perfecture_jp":"滋賀県","jp_add_1":"大津市","jp_add_2":"坂本本町"},"5200816":{"post_code":"5200816","prefecture":"SHIGA KEN","city":"OTSU SHI","town":"SAGAMICHO","perfecture_jp":"滋賀県","jp_add_1":"大津市","jp_add_2":"相模町"},"5200026":{"post_code":"5200026","prefecture":"SHIGA KEN","city":"OTSU SHI","town":"SAKURANOCHO","perfecture_jp":"滋賀県","jp_add_1":"大津市","jp_add_2":"桜野町"},"5202276":{"post_code":"5202276","prefecture":"SHIGA KEN","city":"OTSU SHI","town":"SATO","perfecture_jp":"滋賀県","jp_add_1":"大津市","jp_add_2":"里"},"5202131":{"post_code":"5202131","prefecture":"SHIGA KEN","city":"OTSU SHI","town":"SANDAIJI","perfecture_jp":"滋賀県","jp_add_1":"大津市","jp_add_2":"三大寺"},"5200006":{"post_code":"5200006","prefecture":"SHIGA KEN","city":"OTSU SHI","town":"SHIGASATO","perfecture_jp":"滋賀県","jp_add_1":"大津市","jp_add_2":"滋賀里"},"5202117":{"post_code":"5202117","prefecture":"SHIGA KEN","city":"OTSU SHI","town":"SHIBAHARA","perfecture_jp":"滋賀県","jp_add_1":"大津市","jp_add_2":"芝原"},"5200042":{"post_code":"5200042","prefecture":"SHIGA KEN","city":"OTSU SHI","town":"SHIMANOSEKI","perfecture_jp":"滋賀県","jp_add_1":"大津市","jp_add_2":"島の関"},"5200105":{"post_code":"5200105","prefecture":"SHIGA KEN","city":"OTSU SHI","town":"SHIMOSAKAMOTO","perfecture_jp":"滋賀県","jp_add_1":"大津市","jp_add_2":"下阪本"},"5202135":{"post_code":"5202135","prefecture":"SHIGA KEN","city":"OTSU SHI","town":"SHOYO","perfecture_jp":"滋賀県","jp_add_1":"大津市","jp_add_2":"松陽"},"5200817":{"post_code":"5200817","prefecture":"SHIGA KEN","city":"OTSU SHI","town":"SHOWACHO","perfecture_jp":"滋賀県","jp_add_1":"大津市","jp_add_2":"昭和町"},"5200015":{"post_code":"5200015","prefecture":"SHIGA KEN","city":"OTSU SHI","town":"JINGUCHO","perfecture_jp":"滋賀県","jp_add_1":"大津市","jp_add_2":"神宮町"},"5202115":{"post_code":"5202115","prefecture":"SHIGA KEN","city":"OTSU SHI","town":"SHIMMEN","perfecture_jp":"滋賀県","jp_add_1":"大津市","jp_add_2":"新免"},"5202132":{"post_code":"5202132","prefecture":"SHIGA KEN","city":"OTSU SHI","town":"JINRYO","perfecture_jp":"滋賀県","jp_add_1":"大津市","jp_add_2":"神領"},"5200531":{"post_code":"5200531","prefecture":"SHIGA KEN","city":"OTSU SHI","town":"SUIMEI","perfecture_jp":"滋賀県","jp_add_1":"大津市","jp_add_2":"水明"},"5200056":{"post_code":"5200056","prefecture":"SHIGA KEN","city":"OTSU SHI","town":"SUEHIROCHO","perfecture_jp":"滋賀県","jp_add_1":"大津市","jp_add_2":"末広町"},"5200836":{"post_code":"5200836","prefecture":"SHIGA KEN","city":"OTSU SHI","town":"SUGIURACHO","perfecture_jp":"滋賀県","jp_add_1":"大津市","jp_add_2":"杉浦町"},"5200225":{"post_code":"5200225","prefecture":"SHIGA KEN","city":"OTSU SHI","town":"SEIFUCHO","perfecture_jp":"滋賀県","jp_add_1":"大津市","jp_add_2":"清風町"},"5200833":{"post_code":"5200833","prefecture":"SHIGA KEN","city":"OTSU SHI","town":"SEIRAN","perfecture_jp":"滋賀県","jp_add_1":"大津市","jp_add_2":"晴嵐"},"5200227":{"post_code":"5200227","prefecture":"SHIGA KEN","city":"OTSU SHI","town":"SEIWACHO","perfecture_jp":"滋賀県","jp_add_1":"大津市","jp_add_2":"清和町"},"5202277":{"post_code":"5202277","prefecture":"SHIGA KEN","city":"OTSU SHI","town":"SEKINOTSU","perfecture_jp":"滋賀県","jp_add_1":"大津市","jp_add_2":"関津"},"5200815":{"post_code":"5200815","prefecture":"SHIGA KEN","city":"OTSU SHI","town":"ZEZE","perfecture_jp":"滋賀県","jp_add_1":"大津市","jp_add_2":"膳所"},"5200825":{"post_code":"5200825","prefecture":"SHIGA KEN","city":"OTSU SHI","town":"ZEZE IKENOCHICHO","perfecture_jp":"滋賀県","jp_add_1":"大津市","jp_add_2":"膳所池ノ内町"},"5200823":{"post_code":"5200823","prefecture":"SHIGA KEN","city":"OTSU SHI","town":"ZEZE KAMIBEPPOCHO","perfecture_jp":"滋賀県","jp_add_1":"大津市","jp_add_2":"膳所上別保町"},"5200824":{"post_code":"5200824","prefecture":"SHIGA KEN","city":"OTSU SHI","town":"ZEZE HIRAOCHO","perfecture_jp":"滋賀県","jp_add_1":"大津市","jp_add_2":"膳所平尾町"},"5202134":{"post_code":"5202134","prefecture":"SHIGA KEN","city":"OTSU SHI","town":"SETA","perfecture_jp":"滋賀県","jp_add_1":"大津市","jp_add_2":"瀬田"},"5202123":{"post_code":"5202123","prefecture":"SHIGA KEN","city":"OTSU SHI","town":"SETA OECHO","perfecture_jp":"滋賀県","jp_add_1":"大津市","jp_add_2":"瀬田大江町"},"5202124":{"post_code":"5202124","prefecture":"SHIGA KEN","city":"OTSU SHI","town":"SETA JINRYOCHO","perfecture_jp":"滋賀県","jp_add_1":"大津市","jp_add_2":"瀬田神領町"},"5202121":{"post_code":"5202121","prefecture":"SHIGA KEN","city":"OTSU SHI","town":"SETA TSUKINOWACHO","perfecture_jp":"滋賀県","jp_add_1":"大津市","jp_add_2":"瀬田月輪町"},"5202125":{"post_code":"5202125","prefecture":"SHIGA KEN","city":"OTSU SHI","town":"SETA HASHIMOTOCHO","perfecture_jp":"滋賀県","jp_add_1":"大津市","jp_add_2":"瀬田橋本町"},"5202122":{"post_code":"5202122","prefecture":"SHIGA KEN","city":"OTSU SHI","town":"SETA MINAMIOGAYACHO","perfecture_jp":"滋賀県","jp_add_1":"大津市","jp_add_2":"瀬田南大萱町"},"5200028":{"post_code":"5200028","prefecture":"SHIGA KEN","city":"OTSU SHI","town":"SENGOKUDAI","perfecture_jp":"滋賀県","jp_add_1":"大津市","jp_add_2":"千石台"},"5200863":{"post_code":"5200863","prefecture":"SHIGA KEN","city":"OTSU SHI","town":"SENCHO","perfecture_jp":"滋賀県","jp_add_1":"大津市","jp_add_2":"千町"},"5200842":{"post_code":"5200842","prefecture":"SHIGA KEN","city":"OTSU SHI","town":"SONOYAMA","perfecture_jp":"滋賀県","jp_add_1":"大津市","jp_add_2":"園山"},"5202278":{"post_code":"5202278","prefecture":"SHIGA KEN","city":"OTSU SHI","town":"TAISHI","perfecture_jp":"滋賀県","jp_add_1":"大津市","jp_add_2":"太子"},"5200512":{"post_code":"5200512","prefecture":"SHIGA KEN","city":"OTSU SHI","town":"DAIMOTSU","perfecture_jp":"滋賀県","jp_add_1":"大津市","jp_add_2":"大物"},"5200033":{"post_code":"5200033","prefecture":"SHIGA KEN","city":"OTSU SHI","town":"DAIMONDORI","perfecture_jp":"滋賀県","jp_add_1":"大津市","jp_add_2":"大門通"},"5200005":{"post_code":"5200005","prefecture":"SHIGA KEN","city":"OTSU SHI","town":"TAKASAGOCHO","perfecture_jp":"滋賀県","jp_add_1":"大津市","jp_add_2":"高砂町"},"5200803":{"post_code":"5200803","prefecture":"SHIGA KEN","city":"OTSU SHI","town":"TATSUGAOKA","perfecture_jp":"滋賀県","jp_add_1":"大津市","jp_add_2":"竜が丘"},"5200852":{"post_code":"5200852","prefecture":"SHIGA KEN","city":"OTSU SHI","town":"TANABECHO","perfecture_jp":"滋賀県","jp_add_1":"大津市","jp_add_2":"田辺町"},"5202142":{"post_code":"5202142","prefecture":"SHIGA KEN","city":"OTSU SHI","town":"TAMANORA","perfecture_jp":"滋賀県","jp_add_1":"大津市","jp_add_2":"玉野浦"},"5202145":{"post_code":"5202145","prefecture":"SHIGA KEN","city":"OTSU SHI","town":"TAISHOGUN","perfecture_jp":"滋賀県","jp_add_1":"大津市","jp_add_2":"大将軍"},"5200111":{"post_code":"5200111","prefecture":"SHIGA KEN","city":"OTSU SHI","town":"CHINO","perfecture_jp":"滋賀県","jp_add_1":"大津市","jp_add_2":"千野"},"5200023":{"post_code":"5200023","prefecture":"SHIGA KEN","city":"OTSU SHI","town":"CHAGASAKI","perfecture_jp":"滋賀県","jp_add_1":"大津市","jp_add_2":"茶が崎"},"5200066":{"post_code":"5200066","prefecture":"SHIGA KEN","city":"OTSU SHI","town":"CHADOCHO","perfecture_jp":"滋賀県","jp_add_1":"大津市","jp_add_2":"茶戸町"},"5200043":{"post_code":"5200043","prefecture":"SHIGA KEN","city":"OTSU SHI","town":"CHUO","perfecture_jp":"滋賀県","jp_add_1":"大津市","jp_add_2":"中央"},"5202152":{"post_code":"5202152","prefecture":"SHIGA KEN","city":"OTSU SHI","town":"TSUKINOWA","perfecture_jp":"滋賀県","jp_add_1":"大津市","jp_add_2":"月輪"},"5200826":{"post_code":"5200826","prefecture":"SHIGA KEN","city":"OTSU SHI","town":"TSURUNOSATO","perfecture_jp":"滋賀県","jp_add_1":"大津市","jp_add_2":"鶴の里"},"5202116":{"post_code":"5202116","prefecture":"SHIGA KEN","city":"OTSU SHI","town":"DO","perfecture_jp":"滋賀県","jp_add_1":"大津市","jp_add_2":"堂"},"5200854":{"post_code":"5200854","prefecture":"SHIGA KEN","city":"OTSU SHI","town":"TORIIGAWACHO","perfecture_jp":"滋賀県","jp_add_1":"大津市","jp_add_2":"鳥居川町"},"5200837":{"post_code":"5200837","prefecture":"SHIGA KEN","city":"OTSU SHI","town":"NAKASHO","perfecture_jp":"滋賀県","jp_add_1":"大津市","jp_add_2":"中庄"},"5202114":{"post_code":"5202114","prefecture":"SHIGA KEN","city":"OTSU SHI","town":"NAKANO","perfecture_jp":"滋賀県","jp_add_1":"大津市","jp_add_2":"中野"},"5200046":{"post_code":"5200046","prefecture":"SHIGA KEN","city":"OTSU SHI","town":"NAGARA","perfecture_jp":"滋賀県","jp_add_1":"大津市","jp_add_2":"長等"},"5200865":{"post_code":"5200865","prefecture":"SHIGA KEN","city":"OTSU SHI","town":"NANGO","perfecture_jp":"滋賀県","jp_add_1":"大津市","jp_add_2":"南郷"},"5200871":{"post_code":"5200871","prefecture":"SHIGA KEN","city":"OTSU SHI","town":"NANGOKAMIYAMACHO","perfecture_jp":"滋賀県","jp_add_1":"大津市","jp_add_2":"南郷上山町"},"5200801":{"post_code":"5200801","prefecture":"SHIGA KEN","city":"OTSU SHI","town":"NIONOHAMA","perfecture_jp":"滋賀県","jp_add_1":"大津市","jp_add_2":"におの浜"},"5200027":{"post_code":"5200027","prefecture":"SHIGA KEN","city":"OTSU SHI","town":"NISHIKORI","perfecture_jp":"滋賀県","jp_add_1":"大津市","jp_add_2":"錦織"},"5200818":{"post_code":"5200818","prefecture":"SHIGA KEN","city":"OTSU SHI","town":"NISHINOSHO","perfecture_jp":"滋賀県","jp_add_1":"大津市","jp_add_2":"西の庄"},"5200021":{"post_code":"5200021","prefecture":"SHIGA KEN","city":"OTSU SHI","town":"NIHOMMATSU","perfecture_jp":"滋賀県","jp_add_1":"大津市","jp_add_2":"二本松"},"5200102":{"post_code":"5200102","prefecture":"SHIGA KEN","city":"OTSU SHI","town":"NOKA","perfecture_jp":"滋賀県","jp_add_1":"大津市","jp_add_2":"苗鹿"},"5202133":{"post_code":"5202133","prefecture":"SHIGA KEN","city":"OTSU SHI","town":"NOGOHARA","perfecture_jp":"滋賀県","jp_add_1":"大津市","jp_add_2":"野郷原"},"5202273":{"post_code":"5202273","prefecture":"SHIGA KEN","city":"OTSU SHI","town":"HAGURI","perfecture_jp":"滋賀県","jp_add_1":"大津市","jp_add_2":"羽栗"},"5200001":{"post_code":"5200001","prefecture":"SHIGA KEN","city":"OTSU SHI","town":"HASUIKECHO","perfecture_jp":"滋賀県","jp_add_1":"大津市","jp_add_2":"蓮池町"},"5200515":{"post_code":"5200515","prefecture":"SHIGA KEN","city":"OTSU SHI","town":"HACHIYADO","perfecture_jp":"滋賀県","jp_add_1":"大津市","jp_add_2":"八屋戸"},"5200222":{"post_code":"5200222","prefecture":"SHIGA KEN","city":"OTSU SHI","town":"HANAZONOCHO","perfecture_jp":"滋賀県","jp_add_1":"大津市","jp_add_2":"花園町"},"5200047":{"post_code":"5200047","prefecture":"SHIGA KEN","city":"OTSU SHI","town":"HAMAOTSU","perfecture_jp":"滋賀県","jp_add_1":"大津市","jp_add_2":"浜大津"},"5200041":{"post_code":"5200041","prefecture":"SHIGA KEN","city":"OTSU SHI","town":"HAMAMACHI","perfecture_jp":"滋賀県","jp_add_1":"大津市","jp_add_2":"浜町"},"5200802":{"post_code":"5200802","prefecture":"SHIGA KEN","city":"OTSU SHI","town":"BAMBA","perfecture_jp":"滋賀県","jp_add_1":"大津市","jp_add_2":"馬場"},"5200016":{"post_code":"5200016","prefecture":"SHIGA KEN","city":"OTSU SHI","town":"HIEIDAIRA","perfecture_jp":"滋賀県","jp_add_1":"大津市","jp_add_2":"比叡平"},"5200104":{"post_code":"5200104","prefecture":"SHIGA KEN","city":"OTSU SHI","town":"HIEITSUJI","perfecture_jp":"滋賀県","jp_add_1":"大津市","jp_add_2":"比叡辻"},"5200856":{"post_code":"5200856","prefecture":"SHIGA KEN","city":"OTSU SHI","town":"HIKARIGAOKACHO","perfecture_jp":"滋賀県","jp_add_1":"大津市","jp_add_2":"光が丘町"},"5200112":{"post_code":"5200112","prefecture":"SHIGA KEN","city":"OTSU SHI","town":"HIYOSHIDAI","perfecture_jp":"滋賀県","jp_add_1":"大津市","jp_add_2":"日吉台"},"5200862":{"post_code":"5200862","prefecture":"SHIGA KEN","city":"OTSU SHI","town":"HIRATSU","perfecture_jp":"滋賀県","jp_add_1":"大津市","jp_add_2":"平津"},"5202113":{"post_code":"5202113","prefecture":"SHIGA KEN","city":"OTSU SHI","town":"HIRANO","perfecture_jp":"滋賀県","jp_add_1":"大津市","jp_add_2":"平野"},"5200067":{"post_code":"5200067","prefecture":"SHIGA KEN","city":"OTSU SHI","town":"FUJIO OKUMACHI","perfecture_jp":"滋賀県","jp_add_1":"大津市","jp_add_2":"藤尾奥町"},"5200846":{"post_code":"5200846","prefecture":"SHIGA KEN","city":"OTSU SHI","town":"FUJIMIDAI","perfecture_jp":"滋賀県","jp_add_1":"大津市","jp_add_2":"富士見台"},"5200045":{"post_code":"5200045","prefecture":"SHIGA KEN","city":"OTSU SHI","town":"FUDANOTSUJI","perfecture_jp":"滋賀県","jp_add_1":"大津市","jp_add_2":"札の辻"},"5200835":{"post_code":"5200835","prefecture":"SHIGA KEN","city":"OTSU SHI","town":"BETSUPO","perfecture_jp":"滋賀県","jp_add_1":"大津市","jp_add_2":"別保"},"5200853":{"post_code":"5200853","prefecture":"SHIGA KEN","city":"OTSU SHI","town":"HOTARUDANI","perfecture_jp":"滋賀県","jp_add_1":"大津市","jp_add_2":"螢谷"},"5200242":{"post_code":"5200242","prefecture":"SHIGA KEN","city":"OTSU SHI","town":"HONKATATA","perfecture_jp":"滋賀県","jp_add_1":"大津市","jp_add_2":"本堅田"},"5200814":{"post_code":"5200814","prefecture":"SHIGA KEN","city":"OTSU SHI","town":"HOMMARUCHO","perfecture_jp":"滋賀県","jp_add_1":"大津市","jp_add_2":"本丸町"},"5202112":{"post_code":"5202112","prefecture":"SHIGA KEN","city":"OTSU SHI","town":"MAKI","perfecture_jp":"滋賀県","jp_add_1":"大津市","jp_add_2":"牧"},"5202102":{"post_code":"5202102","prefecture":"SHIGA KEN","city":"OTSU SHI","town":"MATSUGAOKA","perfecture_jp":"滋賀県","jp_add_1":"大津市","jp_add_2":"松が丘"},"5200831":{"post_code":"5200831","prefecture":"SHIGA KEN","city":"OTSU SHI","town":"MATSUBARACHO","perfecture_jp":"滋賀県","jp_add_1":"大津市","jp_add_2":"松原町"},"5200807":{"post_code":"5200807","prefecture":"SHIGA KEN","city":"OTSU SHI","town":"MATSUMOTO","perfecture_jp":"滋賀県","jp_add_1":"大津市","jp_add_2":"松本"},"5200024":{"post_code":"5200024","prefecture":"SHIGA KEN","city":"OTSU SHI","town":"MATSUYAMACHO","perfecture_jp":"滋賀県","jp_add_1":"大津市","jp_add_2":"松山町"},"5200232":{"post_code":"5200232","prefecture":"SHIGA KEN","city":"OTSU SHI","town":"MANO","perfecture_jp":"滋賀県","jp_add_1":"大津市","jp_add_2":"真野"},"5200234":{"post_code":"5200234","prefecture":"SHIGA KEN","city":"OTSU SHI","town":"MANO IEDACHO","perfecture_jp":"滋賀県","jp_add_1":"大津市","jp_add_2":"真野家田町"},"5200235":{"post_code":"5200235","prefecture":"SHIGA KEN","city":"OTSU SHI","town":"MANO ONO","perfecture_jp":"滋賀県","jp_add_1":"大津市","jp_add_2":"真野大野"},"5200236":{"post_code":"5200236","prefecture":"SHIGA KEN","city":"OTSU SHI","town":"MANO SAGAWACHO","perfecture_jp":"滋賀県","jp_add_1":"大津市","jp_add_2":"真野佐川町"},"5200233":{"post_code":"5200233","prefecture":"SHIGA KEN","city":"OTSU SHI","town":"MANO TANIGUCHICHO","perfecture_jp":"滋賀県","jp_add_1":"大津市","jp_add_2":"真野谷口町"},"5200231":{"post_code":"5200231","prefecture":"SHIGA KEN","city":"OTSU SHI","town":"MANO FUMON","perfecture_jp":"滋賀県","jp_add_1":"大津市","jp_add_2":"真野普門"},"5200813":{"post_code":"5200813","prefecture":"SHIGA KEN","city":"OTSU SHI","town":"MARUNOCHICHO","perfecture_jp":"滋賀県","jp_add_1":"大津市","jp_add_2":"丸の内町"},"5200034":{"post_code":"5200034","prefecture":"SHIGA KEN","city":"OTSU SHI","town":"MIIDERACHO","perfecture_jp":"滋賀県","jp_add_1":"大津市","jp_add_2":"三井寺町"},"5200841":{"post_code":"5200841","prefecture":"SHIGA KEN","city":"OTSU SHI","town":"MISAKICHO","perfecture_jp":"滋賀県","jp_add_1":"大津市","jp_add_2":"美崎町"},"5200004":{"post_code":"5200004","prefecture":"SHIGA KEN","city":"OTSU SHI","town":"MISE","perfecture_jp":"滋賀県","jp_add_1":"大津市","jp_add_2":"見世"},"5200223":{"post_code":"5200223","prefecture":"SHIGA KEN","city":"OTSU SHI","town":"MISORACHO","perfecture_jp":"滋賀県","jp_add_1":"大津市","jp_add_2":"美空町"},"5200221":{"post_code":"5200221","prefecture":"SHIGA KEN","city":"OTSU SHI","town":"MIDORICHO","perfecture_jp":"滋賀県","jp_add_1":"大津市","jp_add_2":"緑町"},"5200502":{"post_code":"5200502","prefecture":"SHIGA KEN","city":"OTSU SHI","town":"MINAMIKOMATSU","perfecture_jp":"滋賀県","jp_add_1":"大津市","jp_add_2":"南小松"},"5200011":{"post_code":"5200011","prefecture":"SHIGA KEN","city":"OTSU SHI","town":"MINAMISHIGA","perfecture_jp":"滋賀県","jp_add_1":"大津市","jp_add_2":"南志賀"},"5200018":{"post_code":"5200018","prefecture":"SHIGA KEN","city":"OTSU SHI","town":"MINAMISHIGACHO","perfecture_jp":"滋賀県","jp_add_1":"大津市","jp_add_2":"南滋賀町"},"5200511":{"post_code":"5200511","prefecture":"SHIGA KEN","city":"OTSU SHI","town":"MINAMIHIRA","perfecture_jp":"滋賀県","jp_add_1":"大津市","jp_add_2":"南比良"},"5200516":{"post_code":"5200516","prefecture":"SHIGA KEN","city":"OTSU SHI","town":"MINAMIFUNAJI","perfecture_jp":"滋賀県","jp_add_1":"大津市","jp_add_2":"南船路"},"5200057":{"post_code":"5200057","prefecture":"SHIGA KEN","city":"OTSU SHI","town":"MIYUKICHO","perfecture_jp":"滋賀県","jp_add_1":"大津市","jp_add_2":"御幸町"},"5200804":{"post_code":"5200804","prefecture":"SHIGA KEN","city":"OTSU SHI","town":"MOTOMIYA","perfecture_jp":"滋賀県","jp_add_1":"大津市","jp_add_2":"本宮"},"5202274":{"post_code":"5202274","prefecture":"SHIGA KEN","city":"OTSU SHI","town":"MORI","perfecture_jp":"滋賀県","jp_add_1":"大津市","jp_add_2":"森"},"5200022":{"post_code":"5200022","prefecture":"SHIGA KEN","city":"OTSU SHI","town":"YANAGASAKI","perfecture_jp":"滋賀県","jp_add_1":"大津市","jp_add_2":"柳が崎"},"5200014":{"post_code":"5200014","prefecture":"SHIGA KEN","city":"OTSU SHI","town":"YANAGAWA","perfecture_jp":"滋賀県","jp_add_1":"大津市","jp_add_2":"柳川"},"5200038":{"post_code":"5200038","prefecture":"SHIGA KEN","city":"OTSU SHI","town":"YAMAGAMICHO","perfecture_jp":"滋賀県","jp_add_1":"大津市","jp_add_2":"山上町"},"5200017":{"post_code":"5200017","prefecture":"SHIGA KEN","city":"OTSU SHI","town":"YAMANAKACHO","perfecture_jp":"滋賀県","jp_add_1":"大津市","jp_add_2":"山中町"},"5200357":{"post_code":"5200357","prefecture":"SHIGA KEN","city":"OTSU SHI","town":"YAMAYURINOKA","perfecture_jp":"滋賀県","jp_add_1":"大津市","jp_add_2":"山百合の丘"},"5200115":{"post_code":"5200115","prefecture":"SHIGA KEN","city":"OTSU SHI","town":"YAYOICHO","perfecture_jp":"滋賀県","jp_add_1":"大津市","jp_add_2":"弥生町"},"5200811":{"post_code":"5200811","prefecture":"SHIGA KEN","city":"OTSU SHI","town":"YUMIHAMA","perfecture_jp":"滋賀県","jp_add_1":"大津市","jp_add_2":"由美浜"},"5200226":{"post_code":"5200226","prefecture":"SHIGA KEN","city":"OTSU SHI","town":"YOMEICHO","perfecture_jp":"滋賀県","jp_add_1":"大津市","jp_add_2":"陽明町"},"5200063":{"post_code":"5200063","prefecture":"SHIGA KEN","city":"OTSU SHI","town":"YOKOGI","perfecture_jp":"滋賀県","jp_add_1":"大津市","jp_add_2":"横木"},"5200845":{"post_code":"5200845","prefecture":"SHIGA KEN","city":"OTSU SHI","town":"WAKABADAI","perfecture_jp":"滋賀県","jp_add_1":"大津市","jp_add_2":"若葉台"},"5200524":{"post_code":"5200524","prefecture":"SHIGA KEN","city":"OTSU SHI","town":"WANIIMAJUKU","perfecture_jp":"滋賀県","jp_add_1":"大津市","jp_add_2":"和邇今宿"},"5200529":{"post_code":"5200529","prefecture":"SHIGA KEN","city":"OTSU SHI","town":"WANIKASUGA","perfecture_jp":"滋賀県","jp_add_1":"大津市","jp_add_2":"和邇春日"},"5200521":{"post_code":"5200521","prefecture":"SHIGA KEN","city":"OTSU SHI","town":"WANIKITAHAMA","perfecture_jp":"滋賀県","jp_add_1":"大津市","jp_add_2":"和邇北浜"},"5200528":{"post_code":"5200528","prefecture":"SHIGA KEN","city":"OTSU SHI","town":"WANITAKASHIRO","perfecture_jp":"滋賀県","jp_add_1":"大津市","jp_add_2":"和邇高城"},"5200526":{"post_code":"5200526","prefecture":"SHIGA KEN","city":"OTSU SHI","town":"WANINAKA","perfecture_jp":"滋賀県","jp_add_1":"大津市","jp_add_2":"和邇中"},"5200522":{"post_code":"5200522","prefecture":"SHIGA KEN","city":"OTSU SHI","town":"WANINAKAHAMA","perfecture_jp":"滋賀県","jp_add_1":"大津市","jp_add_2":"和邇中浜"},"5200523":{"post_code":"5200523","prefecture":"SHIGA KEN","city":"OTSU SHI","town":"WANIMINAMIHAMA","perfecture_jp":"滋賀県","jp_add_1":"大津市","jp_add_2":"和邇南浜"},"5203000":{"post_code":"5203000","prefecture":"SHIGA KEN","city":"RITTO SHI","town":"IKANIKEISAIGANAIBAAI","perfecture_jp":"滋賀県","jp_add_1":"栗東市","jp_add_2":""},"5203003":{"post_code":"5203003","prefecture":"SHIGA KEN","city":"RITTO SHI","town":"ARAHARI","perfecture_jp":"滋賀県","jp_add_1":"栗東市","jp_add_2":"荒張"},"5203015":{"post_code":"5203015","prefecture":"SHIGA KEN","city":"RITTO SHI","town":"ANYOJI","perfecture_jp":"滋賀県","jp_add_1":"栗東市","jp_add_2":"安養寺"},"5203044":{"post_code":"5203044","prefecture":"SHIGA KEN","city":"RITTO SHI","town":"ISEOCHI","perfecture_jp":"滋賀県","jp_add_1":"栗東市","jp_add_2":"伊勢落"},"5203006":{"post_code":"5203006","prefecture":"SHIGA KEN","city":"RITTO SHI","town":"INOE","perfecture_jp":"滋賀県","jp_add_1":"栗東市","jp_add_2":"井上"},"5203046":{"post_code":"5203046","prefecture":"SHIGA KEN","city":"RITTO SHI","town":"OHASHI","perfecture_jp":"滋賀県","jp_add_1":"栗東市","jp_add_2":"大橋"},"5203012":{"post_code":"5203012","prefecture":"SHIGA KEN","city":"RITTO SHI","town":"OKA","perfecture_jp":"滋賀県","jp_add_1":"栗東市","jp_add_2":"岡"},"5203024":{"post_code":"5203024","prefecture":"SHIGA KEN","city":"RITTO SHI","town":"OGAKI","perfecture_jp":"滋賀県","jp_add_1":"栗東市","jp_add_2":"小柿"},"5203016":{"post_code":"5203016","prefecture":"SHIGA KEN","city":"RITTO SHI","town":"ONO","perfecture_jp":"滋賀県","jp_add_1":"栗東市","jp_add_2":"小野"},"5203033":{"post_code":"5203033","prefecture":"SHIGA KEN","city":"RITTO SHI","town":"KASAGAWA","perfecture_jp":"滋賀県","jp_add_1":"栗東市","jp_add_2":"笠川"},"5203004":{"post_code":"5203004","prefecture":"SHIGA KEN","city":"RITTO SHI","town":"KAMITOYAMA","perfecture_jp":"滋賀県","jp_add_1":"栗東市","jp_add_2":"上砥山"},"5203022":{"post_code":"5203022","prefecture":"SHIGA KEN","city":"RITTO SHI","town":"KAMIMAGARI","perfecture_jp":"滋賀県","jp_add_1":"栗東市","jp_add_2":"上鈎"},"5203032":{"post_code":"5203032","prefecture":"SHIGA KEN","city":"RITTO SHI","town":"KARIHARA","perfecture_jp":"滋賀県","jp_add_1":"栗東市","jp_add_2":"苅原"},"5203014":{"post_code":"5203014","prefecture":"SHIGA KEN","city":"RITTO SHI","town":"KAWAZURA","perfecture_jp":"滋賀県","jp_add_1":"栗東市","jp_add_2":"川辺"},"5203002":{"post_code":"5203002","prefecture":"SHIGA KEN","city":"RITTO SHI","town":"KANONJI","perfecture_jp":"滋賀県","jp_add_1":"栗東市","jp_add_2":"観音寺"},"5203037":{"post_code":"5203037","prefecture":"SHIGA KEN","city":"RITTO SHI","town":"KITANAKAKOJI","perfecture_jp":"滋賀県","jp_add_1":"栗東市","jp_add_2":"北中小路"},"5203034":{"post_code":"5203034","prefecture":"SHIGA KEN","city":"RITTO SHI","town":"KOBIRAI","perfecture_jp":"滋賀県","jp_add_1":"栗東市","jp_add_2":"小平井"},"5203011":{"post_code":"5203011","prefecture":"SHIGA KEN","city":"RITTO SHI","town":"SHIMODOYAMA","perfecture_jp":"滋賀県","jp_add_1":"栗東市","jp_add_2":"下戸山"},"5203026":{"post_code":"5203026","prefecture":"SHIGA KEN","city":"RITTO SHI","town":"SHIMOMAGARI","perfecture_jp":"滋賀県","jp_add_1":"栗東市","jp_add_2":"下鈎"},"5203036":{"post_code":"5203036","prefecture":"SHIGA KEN","city":"RITTO SHI","town":"JURI","perfecture_jp":"滋賀県","jp_add_1":"栗東市","jp_add_2":"十里"},"5203045":{"post_code":"5203045","prefecture":"SHIGA KEN","city":"RITTO SHI","town":"TAKANO","perfecture_jp":"滋賀県","jp_add_1":"栗東市","jp_add_2":"高野"},"5203042":{"post_code":"5203042","prefecture":"SHIGA KEN","city":"RITTO SHI","town":"TSUJI","perfecture_jp":"滋賀県","jp_add_1":"栗東市","jp_add_2":"辻"},"5203041":{"post_code":"5203041","prefecture":"SHIGA KEN","city":"RITTO SHI","town":"DEBA","perfecture_jp":"滋賀県","jp_add_1":"栗東市","jp_add_2":"出庭"},"5203047":{"post_code":"5203047","prefecture":"SHIGA KEN","city":"RITTO SHI","town":"TEHARA","perfecture_jp":"滋賀県","jp_add_1":"栗東市","jp_add_2":"手原"},"5203025":{"post_code":"5203025","prefecture":"SHIGA KEN","city":"RITTO SHI","town":"NAKAZAWA","perfecture_jp":"滋賀県","jp_add_1":"栗東市","jp_add_2":"中沢"},"5203027":{"post_code":"5203027","prefecture":"SHIGA KEN","city":"RITTO SHI","town":"NOJIRI","perfecture_jp":"滋賀県","jp_add_1":"栗東市","jp_add_2":"野尻"},"5203021":{"post_code":"5203021","prefecture":"SHIGA KEN","city":"RITTO SHI","town":"HACHIYA","perfecture_jp":"滋賀県","jp_add_1":"栗東市","jp_add_2":"蜂屋"},"5203043":{"post_code":"5203043","prefecture":"SHIGA KEN","city":"RITTO SHI","town":"HAYASHI","perfecture_jp":"滋賀県","jp_add_1":"栗東市","jp_add_2":"林"},"5203001":{"post_code":"5203001","prefecture":"SHIGA KEN","city":"RITTO SHI","town":"HIGASHISAKA","perfecture_jp":"滋賀県","jp_add_1":"栗東市","jp_add_2":"東坂"},"5203031":{"post_code":"5203031","prefecture":"SHIGA KEN","city":"RITTO SHI","town":"HESO","perfecture_jp":"滋賀県","jp_add_1":"栗東市","jp_add_2":"綣"},"5203023":{"post_code":"5203023","prefecture":"SHIGA KEN","city":"RITTO SHI","town":"BOBUKURO","perfecture_jp":"滋賀県","jp_add_1":"栗東市","jp_add_2":"坊袋"},"5203005":{"post_code":"5203005","prefecture":"SHIGA KEN","city":"RITTO SHI","town":"MISONO","perfecture_jp":"滋賀県","jp_add_1":"栗東市","jp_add_2":"御園"},"5203013":{"post_code":"5203013","prefecture":"SHIGA KEN","city":"RITTO SHI","town":"MEGAWA","perfecture_jp":"滋賀県","jp_add_1":"栗東市","jp_add_2":"目川"},"5203035":{"post_code":"5203035","prefecture":"SHIGA KEN","city":"RITTO SHI","town":"RYOSENJI","perfecture_jp":"滋賀県","jp_add_1":"栗東市","jp_add_2":"霊仙寺"},"5203017":{"post_code":"5203017","prefecture":"SHIGA KEN","city":"RITTO SHI","town":"ROKUJIZO","perfecture_jp":"滋賀県","jp_add_1":"栗東市","jp_add_2":"六地蔵"},"5203413":{"post_code":"5203413","prefecture":"SHIGA KEN","city":"KOKA SHI","town":"KOKACHO ABURAHI","perfecture_jp":"滋賀県","jp_add_1":"甲賀市","jp_add_2":"甲賀町油日"},"5203412":{"post_code":"5203412","prefecture":"SHIGA KEN","city":"KOKA SHI","town":"KOKACHO ICHINO","perfecture_jp":"滋賀県","jp_add_1":"甲賀市","jp_add_2":"甲賀町櫟野"},"5203401":{"post_code":"5203401","prefecture":"SHIGA KEN","city":"KOKA SHI","town":"KOKACHO IWAMURO","perfecture_jp":"滋賀県","jp_add_1":"甲賀市","jp_add_2":"甲賀町岩室"},"5203421":{"post_code":"5203421","prefecture":"SHIGA KEN","city":"KOKA SHI","town":"KOKACHO UENO","perfecture_jp":"滋賀県","jp_add_1":"甲賀市","jp_add_2":"甲賀町上野"},"5203414":{"post_code":"5203414","prefecture":"SHIGA KEN","city":"KOKA SHI","town":"KOKACHO OKUBO","perfecture_jp":"滋賀県","jp_add_1":"甲賀市","jp_add_2":"甲賀町大久保"},"5203433":{"post_code":"5203433","prefecture":"SHIGA KEN","city":"KOKA SHI","town":"KOKACHO OHARAICHIBA","perfecture_jp":"滋賀県","jp_add_1":"甲賀市","jp_add_2":"甲賀町大原市場"},"5203415":{"post_code":"5203415","prefecture":"SHIGA KEN","city":"KOKA SHI","town":"KOKACHO OHARAUEDA","perfecture_jp":"滋賀県","jp_add_1":"甲賀市","jp_add_2":"甲賀町大原上田"},"5203431":{"post_code":"5203431","prefecture":"SHIGA KEN","city":"KOKA SHI","town":"KOKACHO OHARANAKA","perfecture_jp":"滋賀県","jp_add_1":"甲賀市","jp_add_2":"甲賀町大原中"},"5203405":{"post_code":"5203405","prefecture":"SHIGA KEN","city":"KOKA SHI","town":"KOKACHO OKI","perfecture_jp":"滋賀県","jp_add_1":"甲賀市","jp_add_2":"甲賀町隠岐"},"5203427":{"post_code":"5203427","prefecture":"SHIGA KEN","city":"KOKA SHI","town":"KOKACHO KAFUKADAI","perfecture_jp":"滋賀県","jp_add_1":"甲賀市","jp_add_2":"甲賀町鹿深台"},"5203411":{"post_code":"5203411","prefecture":"SHIGA KEN","city":"KOKA SHI","town":"KOKACHO KAMI","perfecture_jp":"滋賀県","jp_add_1":"甲賀市","jp_add_2":"甲賀町神"},"5203402":{"post_code":"5203402","prefecture":"SHIGA KEN","city":"KOKA SHI","town":"KOKACHO KOSAJI","perfecture_jp":"滋賀県","jp_add_1":"甲賀市","jp_add_2":"甲賀町小佐治"},"5203423":{"post_code":"5203423","prefecture":"SHIGA KEN","city":"KOKA SHI","town":"KOKACHO GOTANDA","perfecture_jp":"滋賀県","jp_add_1":"甲賀市","jp_add_2":"甲賀町五反田"},"5203435":{"post_code":"5203435","prefecture":"SHIGA KEN","city":"KOKA SHI","town":"KOKACHO SAGAMI","perfecture_jp":"滋賀県","jp_add_1":"甲賀市","jp_add_2":"甲賀町相模"},"5203404":{"post_code":"5203404","prefecture":"SHIGA KEN","city":"KOKA SHI","town":"KOKACHO JIMBO","perfecture_jp":"滋賀県","jp_add_1":"甲賀市","jp_add_2":"甲賀町神保"},"5203434":{"post_code":"5203434","prefecture":"SHIGA KEN","city":"KOKA SHI","town":"KOKACHO TAKANO","perfecture_jp":"滋賀県","jp_add_1":"甲賀市","jp_add_2":"甲賀町高野"},"5203424":{"post_code":"5203424","prefecture":"SHIGA KEN","city":"KOKA SHI","town":"KOKACHO TAKAMINE","perfecture_jp":"滋賀県","jp_add_1":"甲賀市","jp_add_2":"甲賀町高嶺"},"5203432":{"post_code":"5203432","prefecture":"SHIGA KEN","city":"KOKA SHI","town":"KOKACHO TAKI","perfecture_jp":"滋賀県","jp_add_1":"甲賀市","jp_add_2":"甲賀町滝"},"5203426":{"post_code":"5203426","prefecture":"SHIGA KEN","city":"KOKA SHI","town":"KOKACHO TADONO","perfecture_jp":"滋賀県","jp_add_1":"甲賀市","jp_add_2":"甲賀町田堵野"},"5203403":{"post_code":"5203403","prefecture":"SHIGA KEN","city":"KOKA SHI","town":"KOKACHO TORIINO","perfecture_jp":"滋賀県","jp_add_1":"甲賀市","jp_add_2":"甲賀町鳥居野"},"5203436":{"post_code":"5203436","prefecture":"SHIGA KEN","city":"KOKA SHI","town":"KOKACHO HAISAKA","perfecture_jp":"滋賀県","jp_add_1":"甲賀市","jp_add_2":"甲賀町拝坂"},"5203425":{"post_code":"5203425","prefecture":"SHIGA KEN","city":"KOKA SHI","town":"KOKACHO MOBIRA","perfecture_jp":"滋賀県","jp_add_1":"甲賀市","jp_add_2":"甲賀町毛枚"},"5203422":{"post_code":"5203422","prefecture":"SHIGA KEN","city":"KOKA SHI","town":"KOKACHO WATA","perfecture_jp":"滋賀県","jp_add_1":"甲賀市","jp_add_2":"甲賀町和田"},"5203302":{"post_code":"5203302","prefecture":"SHIGA KEN","city":"KOKA SHI","town":"KONANCHO IKEDA","perfecture_jp":"滋賀県","jp_add_1":"甲賀市","jp_add_2":"甲南町池田"},"5203312":{"post_code":"5203312","prefecture":"SHIGA KEN","city":"KOKA SHI","town":"KONANCHO ISO","perfecture_jp":"滋賀県","jp_add_1":"甲賀市","jp_add_2":"甲南町磯尾"},"5203316":{"post_code":"5203316","prefecture":"SHIGA KEN","city":"KOKA SHI","town":"KONANCHO ICHIHARA","perfecture_jp":"滋賀県","jp_add_1":"甲賀市","jp_add_2":"甲南町市原"},"5203321":{"post_code":"5203321","prefecture":"SHIGA KEN","city":"KOKA SHI","town":"KONANCHO KAZURAKI","perfecture_jp":"滋賀県","jp_add_1":"甲賀市","jp_add_2":"甲南町葛木"},"5203303":{"post_code":"5203303","prefecture":"SHIGA KEN","city":"KOKA SHI","town":"KONANCHO KAMIMASUGI","perfecture_jp":"滋賀県","jp_add_1":"甲賀市","jp_add_2":"甲南町上馬杉"},"5203333":{"post_code":"5203333","prefecture":"SHIGA KEN","city":"KOKA SHI","town":"KONANCHO KIBOGAOKA","perfecture_jp":"滋賀県","jp_add_1":"甲賀市","jp_add_2":"甲南町希望ケ丘"},"5203332":{"post_code":"5203332","prefecture":"SHIGA KEN","city":"KOKA SHI","town":"KONANCHO KIBOGAOKAHOMMACHI","perfecture_jp":"滋賀県","jp_add_1":"甲賀市","jp_add_2":"甲南町希望ケ丘本町"},"5203326":{"post_code":"5203326","prefecture":"SHIGA KEN","city":"KOKA SHI","town":"KONANCHO KOSHIN","perfecture_jp":"滋賀県","jp_add_1":"甲賀市","jp_add_2":"甲南町耕心"},"5203306":{"post_code":"5203306","prefecture":"SHIGA KEN","city":"KOKA SHI","town":"KONANCHO KOJI","perfecture_jp":"滋賀県","jp_add_1":"甲賀市","jp_add_2":"甲南町柑子"},"5203315":{"post_code":"5203315","prefecture":"SHIGA KEN","city":"KOKA SHI","town":"KONANCHO SHIONO","perfecture_jp":"滋賀県","jp_add_1":"甲賀市","jp_add_2":"甲南町塩野"},"5203304":{"post_code":"5203304","prefecture":"SHIGA KEN","city":"KOKA SHI","town":"KONANCHO SHIMOMASUGI","perfecture_jp":"滋賀県","jp_add_1":"甲賀市","jp_add_2":"甲南町下馬杉"},"5203313":{"post_code":"5203313","prefecture":"SHIGA KEN","city":"KOKA SHI","town":"KONANCHO SHINJI","perfecture_jp":"滋賀県","jp_add_1":"甲賀市","jp_add_2":"甲南町新治"},"5203314":{"post_code":"5203314","prefecture":"SHIGA KEN","city":"KOKA SHI","town":"KONANCHO SUGITANI","perfecture_jp":"滋賀県","jp_add_1":"甲賀市","jp_add_2":"甲南町杉谷"},"5203301":{"post_code":"5203301","prefecture":"SHIGA KEN","city":"KOKA SHI","town":"KONANCHO TERASHO","perfecture_jp":"滋賀県","jp_add_1":"甲賀市","jp_add_2":"甲南町寺庄"},"5203305":{"post_code":"5203305","prefecture":"SHIGA KEN","city":"KOKA SHI","town":"KONANCHO NOGAWA","perfecture_jp":"滋賀県","jp_add_1":"甲賀市","jp_add_2":"甲南町野川"},"5203307":{"post_code":"5203307","prefecture":"SHIGA KEN","city":"KOKA SHI","town":"KONANCHO NOJIRI","perfecture_jp":"滋賀県","jp_add_1":"甲賀市","jp_add_2":"甲南町野尻"},"5203308":{"post_code":"5203308","prefecture":"SHIGA KEN","city":"KOKA SHI","town":"KONANCHO NODA","perfecture_jp":"滋賀県","jp_add_1":"甲賀市","jp_add_2":"甲南町野田"},"5203331":{"post_code":"5203331","prefecture":"SHIGA KEN","city":"KOKA SHI","town":"KONANCHO HIEDANI","perfecture_jp":"滋賀県","jp_add_1":"甲賀市","jp_add_2":"甲南町稗谷"},"5203322":{"post_code":"5203322","prefecture":"SHIGA KEN","city":"KOKA SHI","town":"KONANCHO FUKAWA","perfecture_jp":"滋賀県","jp_add_1":"甲賀市","jp_add_2":"甲南町深川"},"5203323":{"post_code":"5203323","prefecture":"SHIGA KEN","city":"KOKA SHI","town":"KONANCHO FUKAWAICHIBA","perfecture_jp":"滋賀県","jp_add_1":"甲賀市","jp_add_2":"甲南町深川市場"},"5203325":{"post_code":"5203325","prefecture":"SHIGA KEN","city":"KOKA SHI","town":"KONANCHO HONOKI","perfecture_jp":"滋賀県","jp_add_1":"甲賀市","jp_add_2":"甲南町宝木"},"5203324":{"post_code":"5203324","prefecture":"SHIGA KEN","city":"KOKA SHI","town":"KONANCHO MORISHIRI","perfecture_jp":"滋賀県","jp_add_1":"甲賀市","jp_add_2":"甲南町森尻"},"5203311":{"post_code":"5203311","prefecture":"SHIGA KEN","city":"KOKA SHI","town":"KONANCHO RYUBOSHI","perfecture_jp":"滋賀県","jp_add_1":"甲賀市","jp_add_2":"甲南町竜法師"},"5202300":{"post_code":"5202300","prefecture":"SHIGA KEN","city":"YASU SHI","town":"IKANIKEISAIGANAIBAAI","perfecture_jp":"滋賀県","jp_add_1":"野洲市","jp_add_2":""},"5202411":{"post_code":"5202411","prefecture":"SHIGA KEN","city":"YASU SHI","town":"AWAJI","perfecture_jp":"滋賀県","jp_add_1":"野洲市","jp_add_2":"安治"},"5202362":{"post_code":"5202362","prefecture":"SHIGA KEN","city":"YASU SHI","town":"ICHIMIYAKE","perfecture_jp":"滋賀県","jp_add_1":"野洲市","jp_add_2":"市三宅"},"5202414":{"post_code":"5202414","prefecture":"SHIGA KEN","city":"YASU SHI","town":"INOKUCHI","perfecture_jp":"滋賀県","jp_add_1":"野洲市","jp_add_2":"井口"},"5202312":{"post_code":"5202312","prefecture":"SHIGA KEN","city":"YASU SHI","town":"IRIMACHI","perfecture_jp":"滋賀県","jp_add_1":"野洲市","jp_add_2":"入町"},"5202324":{"post_code":"5202324","prefecture":"SHIGA KEN","city":"YASU SHI","town":"OMIFUJI","perfecture_jp":"滋賀県","jp_add_1":"野洲市","jp_add_2":"近江富士"},"5202313":{"post_code":"5202313","prefecture":"SHIGA KEN","city":"YASU SHI","town":"OSHINOHARA","perfecture_jp":"滋賀県","jp_add_1":"野洲市","jp_add_2":"大篠原"},"5202343":{"post_code":"5202343","prefecture":"SHIGA KEN","city":"YASU SHI","town":"OHATA","perfecture_jp":"滋賀県","jp_add_1":"野洲市","jp_add_2":"大畑"},"5202435":{"post_code":"5202435","prefecture":"SHIGA KEN","city":"YASU SHI","town":"OCHIKUBO","perfecture_jp":"滋賀県","jp_add_1":"野洲市","jp_add_2":"乙窪"},"5202316":{"post_code":"5202316","prefecture":"SHIGA KEN","city":"YASU SHI","town":"KAMIYA","perfecture_jp":"滋賀県","jp_add_1":"野洲市","jp_add_2":"上屋"},"5202305":{"post_code":"5202305","prefecture":"SHIGA KEN","city":"YASU SHI","town":"KITA","perfecture_jp":"滋賀県","jp_add_1":"野洲市","jp_add_2":"北"},"5202321":{"post_code":"5202321","prefecture":"SHIGA KEN","city":"YASU SHI","town":"KITAZAKURA","perfecture_jp":"滋賀県","jp_add_1":"野洲市","jp_add_2":"北桜"},"5202361":{"post_code":"5202361","prefecture":"SHIGA KEN","city":"YASU SHI","town":"KITANO","perfecture_jp":"滋賀県","jp_add_1":"野洲市","jp_add_2":"北野"},"5202436":{"post_code":"5202436","prefecture":"SHIGA KEN","city":"YASU SHI","town":"KITAHIE","perfecture_jp":"滋賀県","jp_add_1":"野洲市","jp_add_2":"北比江"},"5202431":{"post_code":"5202431","prefecture":"SHIGA KEN","city":"YASU SHI","town":"KIBE","perfecture_jp":"滋賀県","jp_add_1":"野洲市","jp_add_2":"木部"},"5202353":{"post_code":"5202353","prefecture":"SHIGA KEN","city":"YASU SHI","town":"KUNOBE","perfecture_jp":"滋賀県","jp_add_1":"野洲市","jp_add_2":"久野部"},"5202331":{"post_code":"5202331","prefecture":"SHIGA KEN","city":"YASU SHI","town":"KOSHINOHARA","perfecture_jp":"滋賀県","jp_add_1":"野洲市","jp_add_2":"小篠原"},"5202424":{"post_code":"5202424","prefecture":"SHIGA KEN","city":"YASU SHI","town":"GOJO","perfecture_jp":"滋賀県","jp_add_1":"野洲市","jp_add_2":"五条"},"5202314":{"post_code":"5202314","prefecture":"SHIGA KEN","city":"YASU SHI","town":"KOZUTSUMI","perfecture_jp":"滋賀県","jp_add_1":"野洲市","jp_add_2":"小堤"},"5202364":{"post_code":"5202364","prefecture":"SHIGA KEN","city":"YASU SHI","town":"GONORI","perfecture_jp":"滋賀県","jp_add_1":"野洲市","jp_add_2":"五之里"},"5202437":{"post_code":"5202437","prefecture":"SHIGA KEN","city":"YASU SHI","town":"KOBIE","perfecture_jp":"滋賀県","jp_add_1":"野洲市","jp_add_2":"小比江"},"5202301":{"post_code":"5202301","prefecture":"SHIGA KEN","city":"YASU SHI","town":"KOMINAMI","perfecture_jp":"滋賀県","jp_add_1":"野洲市","jp_add_2":"小南"},"5202333":{"post_code":"5202333","prefecture":"SHIGA KEN","city":"YASU SHI","town":"SAKAE","perfecture_jp":"滋賀県","jp_add_1":"野洲市","jp_add_2":"栄"},"5202417":{"post_code":"5202417","prefecture":"SHIGA KEN","city":"YASU SHI","town":"SHIMOZUTSUMI","perfecture_jp":"滋賀県","jp_add_1":"野洲市","jp_add_2":"下堤"},"5202415":{"post_code":"5202415","prefecture":"SHIGA KEN","city":"YASU SHI","town":"SUWARA","perfecture_jp":"滋賀県","jp_add_1":"野洲市","jp_add_2":"須原"},"5202302":{"post_code":"5202302","prefecture":"SHIGA KEN","city":"YASU SHI","town":"TAKAGI","perfecture_jp":"滋賀県","jp_add_1":"野洲市","jp_add_2":"高木"},"5202365":{"post_code":"5202365","prefecture":"SHIGA KEN","city":"YASU SHI","town":"TAKEGAOKA","perfecture_jp":"滋賀県","jp_add_1":"野洲市","jp_add_2":"竹ヶ丘"},"5202363":{"post_code":"5202363","prefecture":"SHIGA KEN","city":"YASU SHI","town":"TAKEJO","perfecture_jp":"滋賀県","jp_add_1":"野洲市","jp_add_2":"竹生"},"5202315":{"post_code":"5202315","prefecture":"SHIGA KEN","city":"YASU SHI","town":"TSUJIMACHI","perfecture_jp":"滋賀県","jp_add_1":"野洲市","jp_add_2":"辻町"},"5202416":{"post_code":"5202416","prefecture":"SHIGA KEN","city":"YASU SHI","town":"TSUTSUMI","perfecture_jp":"滋賀県","jp_add_1":"野洲市","jp_add_2":"堤"},"5202351":{"post_code":"5202351","prefecture":"SHIGA KEN","city":"YASU SHI","town":"TOBAKO","perfecture_jp":"滋賀県","jp_add_1":"野洲市","jp_add_2":"冨波甲"},"5202352":{"post_code":"5202352","prefecture":"SHIGA KEN","city":"YASU SHI","town":"TOBAOTSU","perfecture_jp":"滋賀県","jp_add_1":"野洲市","jp_add_2":"冨波乙"},"5202303":{"post_code":"5202303","prefecture":"SHIGA KEN","city":"YASU SHI","town":"NAKAKITA","perfecture_jp":"滋賀県","jp_add_1":"野洲市","jp_add_2":"中北"},"5202311":{"post_code":"5202311","prefecture":"SHIGA KEN","city":"YASU SHI","town":"NAGASHIMA","perfecture_jp":"滋賀県","jp_add_1":"野洲市","jp_add_2":"長島"},"5202304":{"post_code":"5202304","prefecture":"SHIGA KEN","city":"YASU SHI","town":"NAGAHARA","perfecture_jp":"滋賀県","jp_add_1":"野洲市","jp_add_2":"永原"},"5202423":{"post_code":"5202423","prefecture":"SHIGA KEN","city":"YASU SHI","town":"NISHIGAWARA","perfecture_jp":"滋賀県","jp_add_1":"野洲市","jp_add_2":"西河原"},"5202421":{"post_code":"5202421","prefecture":"SHIGA KEN","city":"YASU SHI","town":"NODA","perfecture_jp":"滋賀県","jp_add_1":"野洲市","jp_add_2":"野田"},"5202434":{"post_code":"5202434","prefecture":"SHIGA KEN","city":"YASU SHI","town":"HIE","perfecture_jp":"滋賀県","jp_add_1":"野洲市","jp_add_2":"比江"},"5202422":{"post_code":"5202422","prefecture":"SHIGA KEN","city":"YASU SHI","town":"HIRUTA","perfecture_jp":"滋賀県","jp_add_1":"野洲市","jp_add_2":"比留田"},"5202323":{"post_code":"5202323","prefecture":"SHIGA KEN","city":"YASU SHI","town":"MIKAMI","perfecture_jp":"滋賀県","jp_add_1":"野洲市","jp_add_2":"三上"},"5202322":{"post_code":"5202322","prefecture":"SHIGA KEN","city":"YASU SHI","town":"MINAMIZAKURA","perfecture_jp":"滋賀県","jp_add_1":"野洲市","jp_add_2":"南桜"},"5202332":{"post_code":"5202332","prefecture":"SHIGA KEN","city":"YASU SHI","town":"MYOKOJI","perfecture_jp":"滋賀県","jp_add_1":"野洲市","jp_add_2":"妙光寺"},"5202432":{"post_code":"5202432","prefecture":"SHIGA KEN","city":"YASU SHI","town":"MUSHU","perfecture_jp":"滋賀県","jp_add_1":"野洲市","jp_add_2":"虫生"},"5202342":{"post_code":"5202342","prefecture":"SHIGA KEN","city":"YASU SHI","town":"YASU","perfecture_jp":"滋賀県","jp_add_1":"野洲市","jp_add_2":"野洲"},"5202433":{"post_code":"5202433","prefecture":"SHIGA KEN","city":"YASU SHI","town":"YABU","perfecture_jp":"滋賀県","jp_add_1":"野洲市","jp_add_2":"八夫"},"5202341":{"post_code":"5202341","prefecture":"SHIGA KEN","city":"YASU SHI","town":"YUKIHATA","perfecture_jp":"滋賀県","jp_add_1":"野洲市","jp_add_2":"行畑"},"5202413":{"post_code":"5202413","prefecture":"SHIGA KEN","city":"YASU SHI","town":"YOSHIJI","perfecture_jp":"滋賀県","jp_add_1":"野洲市","jp_add_2":"吉地"},"5202412":{"post_code":"5202412","prefecture":"SHIGA KEN","city":"YASU SHI","town":"ROKUJO","perfecture_jp":"滋賀県","jp_add_1":"野洲市","jp_add_2":"六条"},"5203200":{"post_code":"5203200","prefecture":"SHIGA KEN","city":"KONAN SHI","town":"IKANIKEISAIGANAIBAAI","perfecture_jp":"滋賀県","jp_add_1":"湖南市","jp_add_2":""},"5203251":{"post_code":"5203251","prefecture":"SHIGA KEN","city":"KONAN SHI","town":"ASAKUNI","perfecture_jp":"滋賀県","jp_add_1":"湖南市","jp_add_2":"朝国"},"5203116":{"post_code":"5203116","prefecture":"SHIGA KEN","city":"KONAN SHI","town":"AMEYAMA","perfecture_jp":"滋賀県","jp_add_1":"湖南市","jp_add_2":"雨山"},"5203101":{"post_code":"5203101","prefecture":"SHIGA KEN","city":"KONAN SHI","town":"ISHIBE","perfecture_jp":"滋賀県","jp_add_1":"湖南市","jp_add_2":"石部"},"5203109":{"post_code":"5203109","prefecture":"SHIGA KEN","city":"KONAN SHI","town":"ISHIBEGAOKA","perfecture_jp":"滋賀県","jp_add_1":"湖南市","jp_add_2":"石部が丘"},"5203113":{"post_code":"5203113","prefecture":"SHIGA KEN","city":"KONAN SHI","town":"ISHIBEKITA","perfecture_jp":"滋賀県","jp_add_1":"湖南市","jp_add_2":"石部北"},"5203114":{"post_code":"5203114","prefecture":"SHIGA KEN","city":"KONAN SHI","town":"ISHIBEGUCHI","perfecture_jp":"滋賀県","jp_add_1":"湖南市","jp_add_2":"石部口"},"5203106":{"post_code":"5203106","prefecture":"SHIGA KEN","city":"KONAN SHI","town":"ISHIBECHUO","perfecture_jp":"滋賀県","jp_add_1":"湖南市","jp_add_2":"石部中央"},"5203105":{"post_code":"5203105","prefecture":"SHIGA KEN","city":"KONAN SHI","town":"ISHIBENISHI","perfecture_jp":"滋賀県","jp_add_1":"湖南市","jp_add_2":"石部西"},"5203107":{"post_code":"5203107","prefecture":"SHIGA KEN","city":"KONAN SHI","town":"ISHIBEHIGASHI","perfecture_jp":"滋賀県","jp_add_1":"湖南市","jp_add_2":"石部東"},"5203115":{"post_code":"5203115","prefecture":"SHIGA KEN","city":"KONAN SHI","town":"ISHIBEMIDORIDAI","perfecture_jp":"滋賀県","jp_add_1":"湖南市","jp_add_2":"石部緑台"},"5203108":{"post_code":"5203108","prefecture":"SHIGA KEN","city":"KONAN SHI","town":"ISHIBEMINAMI","perfecture_jp":"滋賀県","jp_add_1":"湖南市","jp_add_2":"石部南"},"5203252":{"post_code":"5203252","prefecture":"SHIGA KEN","city":"KONAN SHI","town":"IWANE","perfecture_jp":"滋賀県","jp_add_1":"湖南市","jp_add_2":"岩根"},"5203254":{"post_code":"5203254","prefecture":"SHIGA KEN","city":"KONAN SHI","town":"IWANECHUO","perfecture_jp":"滋賀県","jp_add_1":"湖南市","jp_add_2":"岩根中央"},"5203214":{"post_code":"5203214","prefecture":"SHIGA KEN","city":"KONAN SHI","town":"UMEKAGECHO","perfecture_jp":"滋賀県","jp_add_1":"湖南市","jp_add_2":"梅影町"},"5203245":{"post_code":"5203245","prefecture":"SHIGA KEN","city":"KONAN SHI","town":"OMIDAI","perfecture_jp":"滋賀県","jp_add_1":"湖南市","jp_add_2":"近江台"},"5203213":{"post_code":"5203213","prefecture":"SHIGA KEN","city":"KONAN SHI","town":"OIKECHO","perfecture_jp":"滋賀県","jp_add_1":"湖南市","jp_add_2":"大池町"},"5203104":{"post_code":"5203104","prefecture":"SHIGA KEN","city":"KONAN SHI","town":"OKADE","perfecture_jp":"滋賀県","jp_add_1":"湖南市","jp_add_2":"岡出"},"5203241":{"post_code":"5203241","prefecture":"SHIGA KEN","city":"KONAN SHI","town":"KITAYAMADAI","perfecture_jp":"滋賀県","jp_add_1":"湖南市","jp_add_2":"北山台"},"5203233":{"post_code":"5203233","prefecture":"SHIGA KEN","city":"KONAN SHI","town":"KOJIBUKURO","perfecture_jp":"滋賀県","jp_add_1":"湖南市","jp_add_2":"柑子袋"},"5203212":{"post_code":"5203212","prefecture":"SHIGA KEN","city":"KONAN SHI","town":"KOSUNACHO","perfecture_jp":"滋賀県","jp_add_1":"湖南市","jp_add_2":"小砂町"},"5203244":{"post_code":"5203244","prefecture":"SHIGA KEN","city":"KONAN SHI","town":"SAIDOTAUN","perfecture_jp":"滋賀県","jp_add_1":"湖南市","jp_add_2":"サイドタウン"},"5203201":{"post_code":"5203201","prefecture":"SHIGA KEN","city":"KONAN SHI","town":"SHIMODA","perfecture_jp":"滋賀県","jp_add_1":"湖南市","jp_add_2":"下田"},"5203253":{"post_code":"5203253","prefecture":"SHIGA KEN","city":"KONAN SHI","town":"SHOFUKUJI","perfecture_jp":"滋賀県","jp_add_1":"湖南市","jp_add_2":"正福寺"},"5203211":{"post_code":"5203211","prefecture":"SHIGA KEN","city":"KONAN SHI","town":"TAKAMATSUCHO","perfecture_jp":"滋賀県","jp_add_1":"湖南市","jp_add_2":"高松町"},"5203234":{"post_code":"5203234","prefecture":"SHIGA KEN","city":"KONAN SHI","town":"CHUO","perfecture_jp":"滋賀県","jp_add_1":"湖南市","jp_add_2":"中央"},"5203223":{"post_code":"5203223","prefecture":"SHIGA KEN","city":"KONAN SHI","town":"NATSUMI","perfecture_jp":"滋賀県","jp_add_1":"湖南市","jp_add_2":"夏見"},"5203121":{"post_code":"5203121","prefecture":"SHIGA KEN","city":"KONAN SHI","town":"NISHITERA","perfecture_jp":"滋賀県","jp_add_1":"湖南市","jp_add_2":"西寺"},"5203202":{"post_code":"5203202","prefecture":"SHIGA KEN","city":"KONAN SHI","town":"NISHIMINECHO","perfecture_jp":"滋賀県","jp_add_1":"湖南市","jp_add_2":"西峰町"},"5203231":{"post_code":"5203231","prefecture":"SHIGA KEN","city":"KONAN SHI","town":"HARI","perfecture_jp":"滋賀県","jp_add_1":"湖南市","jp_add_2":"針"},"5203203":{"post_code":"5203203","prefecture":"SHIGA KEN","city":"KONAN SHI","town":"HIECHO","perfecture_jp":"滋賀県","jp_add_1":"湖南市","jp_add_2":"日枝町"},"5203111":{"post_code":"5203111","prefecture":"SHIGA KEN","city":"KONAN SHI","town":"HIGASHITERA","perfecture_jp":"滋賀県","jp_add_1":"湖南市","jp_add_2":"東寺"},"5203232":{"post_code":"5203232","prefecture":"SHIGA KEN","city":"KONAN SHI","town":"HIRAMATSU","perfecture_jp":"滋賀県","jp_add_1":"湖南市","jp_add_2":"平松"},"5203235":{"post_code":"5203235","prefecture":"SHIGA KEN","city":"KONAN SHI","town":"HIRAMATSUKITA","perfecture_jp":"滋賀県","jp_add_1":"湖南市","jp_add_2":"平松北"},"5203103":{"post_code":"5203103","prefecture":"SHIGA KEN","city":"KONAN SHI","town":"HORAIZAKA","perfecture_jp":"滋賀県","jp_add_1":"湖南市","jp_add_2":"宝来坂"},"5203242":{"post_code":"5203242","prefecture":"SHIGA KEN","city":"KONAN SHI","town":"BODAIJI","perfecture_jp":"滋賀県","jp_add_1":"湖南市","jp_add_2":"菩提寺"},"5203246":{"post_code":"5203246","prefecture":"SHIGA KEN","city":"KONAN SHI","town":"BODAIJIKITA","perfecture_jp":"滋賀県","jp_add_1":"湖南市","jp_add_2":"菩提寺北"},"5203248":{"post_code":"5203248","prefecture":"SHIGA KEN","city":"KONAN SHI","town":"BODAIJINISHI","perfecture_jp":"滋賀県","jp_add_1":"湖南市","jp_add_2":"菩提寺西"},"5203247":{"post_code":"5203247","prefecture":"SHIGA KEN","city":"KONAN SHI","town":"BODAIJIHIGASHI","perfecture_jp":"滋賀県","jp_add_1":"湖南市","jp_add_2":"菩提寺東"},"5203112":{"post_code":"5203112","prefecture":"SHIGA KEN","city":"KONAN SHI","town":"MARUYAMA","perfecture_jp":"滋賀県","jp_add_1":"湖南市","jp_add_2":"丸山"},"5203221":{"post_code":"5203221","prefecture":"SHIGA KEN","city":"KONAN SHI","town":"MIKUMO","perfecture_jp":"滋賀県","jp_add_1":"湖南市","jp_add_2":"三雲"},"5203215":{"post_code":"5203215","prefecture":"SHIGA KEN","city":"KONAN SHI","town":"MITOCHO","perfecture_jp":"滋賀県","jp_add_1":"湖南市","jp_add_2":"水戸町"},"5203102":{"post_code":"5203102","prefecture":"SHIGA KEN","city":"KONAN SHI","town":"MIYANOMORI","perfecture_jp":"滋賀県","jp_add_1":"湖南市","jp_add_2":"宮の森"},"5203222":{"post_code":"5203222","prefecture":"SHIGA KEN","city":"KONAN SHI","town":"YOSHINAGA","perfecture_jp":"滋賀県","jp_add_1":"湖南市","jp_add_2":"吉永"},"5203216":{"post_code":"5203216","prefecture":"SHIGA KEN","city":"KONAN SHI","town":"WAKATAKECHO","perfecture_jp":"滋賀県","jp_add_1":"湖南市","jp_add_2":"若竹町"},"5201100":{"post_code":"5201100","prefecture":"SHIGA KEN","city":"TAKASHIMA SHI","town":"IKANIKEISAIGANAIBAAI","perfecture_jp":"滋賀県","jp_add_1":"高島市","jp_add_2":""},"5201221":{"post_code":"5201221","prefecture":"SHIGA KEN","city":"TAKASHIMA SHI","town":"ADOGAWACHO AOYAGI","perfecture_jp":"滋賀県","jp_add_1":"高島市","jp_add_2":"安曇川町青柳"},"5201224":{"post_code":"5201224","prefecture":"SHIGA KEN","city":"TAKASHIMA SHI","town":"ADOGAWACHO KAMIOGAWA","perfecture_jp":"滋賀県","jp_add_1":"高島市","jp_add_2":"安曇川町上小川"},"5201201":{"post_code":"5201201","prefecture":"SHIGA KEN","city":"TAKASHIMA SHI","town":"ADOGAWACHO KAMIKOGA","perfecture_jp":"滋賀県","jp_add_1":"高島市","jp_add_2":"安曇川町上古賀"},"5201231":{"post_code":"5201231","prefecture":"SHIGA KEN","city":"TAKASHIMA SHI","town":"ADOGAWACHO KAWASHIMA","perfecture_jp":"滋賀県","jp_add_1":"高島市","jp_add_2":"安曇川町川島"},"5201232":{"post_code":"5201232","prefecture":"SHIGA KEN","city":"TAKASHIMA SHI","town":"ADOGAWACHO KITAFUNAKI","perfecture_jp":"滋賀県","jp_add_1":"高島市","jp_add_2":"安曇川町北船木"},"5201213":{"post_code":"5201213","prefecture":"SHIGA KEN","city":"TAKASHIMA SHI","town":"ADOGAWACHO GOBANRYO","perfecture_jp":"滋賀県","jp_add_1":"高島市","jp_add_2":"安曇川町五番領"},"5201223":{"post_code":"5201223","prefecture":"SHIGA KEN","city":"TAKASHIMA SHI","town":"ADOGAWACHO SHIMOGAWA","perfecture_jp":"滋賀県","jp_add_1":"高島市","jp_add_2":"安曇川町下小川"},"5201202":{"post_code":"5201202","prefecture":"SHIGA KEN","city":"TAKASHIMA SHI","town":"ADOGAWACHO SHIMOKOGA","perfecture_jp":"滋賀県","jp_add_1":"高島市","jp_add_2":"安曇川町下古賀"},"5201214":{"post_code":"5201214","prefecture":"SHIGA KEN","city":"TAKASHIMA SHI","town":"ADOGAWACHO SUEHIRO","perfecture_jp":"滋賀県","jp_add_1":"高島市","jp_add_2":"安曇川町末広"},"5201217":{"post_code":"5201217","prefecture":"SHIGA KEN","city":"TAKASHIMA SHI","town":"ADOGAWACHO TANAKA","perfecture_jp":"滋賀県","jp_add_1":"高島市","jp_add_2":"安曇川町田中"},"5201216":{"post_code":"5201216","prefecture":"SHIGA KEN","city":"TAKASHIMA SHI","town":"ADOGAWACHO CHUO","perfecture_jp":"滋賀県","jp_add_1":"高島市","jp_add_2":"安曇川町中央"},"5201211":{"post_code":"5201211","prefecture":"SHIGA KEN","city":"TAKASHIMA SHI","town":"ADOGAWACHO TOKIWAGI","perfecture_jp":"滋賀県","jp_add_1":"高島市","jp_add_2":"安曇川町常磐木"},"5201205":{"post_code":"5201205","prefecture":"SHIGA KEN","city":"TAKASHIMA SHI","town":"ADOGAWACHO NAGAO","perfecture_jp":"滋賀県","jp_add_1":"高島市","jp_add_2":"安曇川町長尾"},"5201204":{"post_code":"5201204","prefecture":"SHIGA KEN","city":"TAKASHIMA SHI","town":"ADOGAWACHO NAKANO","perfecture_jp":"滋賀県","jp_add_1":"高島市","jp_add_2":"安曇川町中野"},"5201212":{"post_code":"5201212","prefecture":"SHIGA KEN","city":"TAKASHIMA SHI","town":"ADOGAWACHO NISHIYURUGI","perfecture_jp":"滋賀県","jp_add_1":"高島市","jp_add_2":"安曇川町西万木"},"5201215":{"post_code":"5201215","prefecture":"SHIGA KEN","city":"TAKASHIMA SHI","town":"ADOGAWACHO MIOZATO","perfecture_jp":"滋賀県","jp_add_1":"高島市","jp_add_2":"安曇川町三尾里"},"5201203":{"post_code":"5201203","prefecture":"SHIGA KEN","city":"TAKASHIMA SHI","town":"ADOGAWACHO MINAMIKOGA","perfecture_jp":"滋賀県","jp_add_1":"高島市","jp_add_2":"安曇川町南古賀"},"5201233":{"post_code":"5201233","prefecture":"SHIGA KEN","city":"TAKASHIMA SHI","town":"ADOGAWACHO MINAMIFUNAKI","perfecture_jp":"滋賀県","jp_add_1":"高島市","jp_add_2":"安曇川町南船木"},"5201222":{"post_code":"5201222","prefecture":"SHIGA KEN","city":"TAKASHIMA SHI","town":"ADOGAWACHO YOKOE","perfecture_jp":"滋賀県","jp_add_1":"高島市","jp_add_2":"安曇川町横江"},"5201235":{"post_code":"5201235","prefecture":"SHIGA KEN","city":"TAKASHIMA SHI","town":"ADOGAWACHO YOKOEHAMA","perfecture_jp":"滋賀県","jp_add_1":"高島市","jp_add_2":"安曇川町横江浜"},"5201234":{"post_code":"5201234","prefecture":"SHIGA KEN","city":"TAKASHIMA SHI","town":"ADOGAWACHO YOTSUGAWA","perfecture_jp":"滋賀県","jp_add_1":"高島市","jp_add_2":"安曇川町四津川"},"5201647":{"post_code":"5201647","prefecture":"SHIGA KEN","city":"TAKASHIMA SHI","town":"IMAZUCHO AMASUGAWA","perfecture_jp":"滋賀県","jp_add_1":"高島市","jp_add_2":"今津町天増川"},"5201621":{"post_code":"5201621","prefecture":"SHIGA KEN","city":"TAKASHIMA SHI","town":"IMAZUCHO IMAZU","perfecture_jp":"滋賀県","jp_add_1":"高島市","jp_add_2":"今津町今津"},"5201654":{"post_code":"5201654","prefecture":"SHIGA KEN","city":"TAKASHIMA SHI","town":"IMAZUCHO UMEHARA","perfecture_jp":"滋賀県","jp_add_1":"高島市","jp_add_2":"今津町梅原"},"5201635":{"post_code":"5201635","prefecture":"SHIGA KEN","city":"TAKASHIMA SHI","town":"IMAZUCHO OTOMO","perfecture_jp":"滋賀県","jp_add_1":"高島市","jp_add_2":"今津町大供"},"5201634":{"post_code":"5201634","prefecture":"SHIGA KEN","city":"TAKASHIMA SHI","town":"IMAZUCHO OTOMODAIMON","perfecture_jp":"滋賀県","jp_add_1":"高島市","jp_add_2":"今津町大供大門"},"5201602":{"post_code":"5201602","prefecture":"SHIGA KEN","city":"TAKASHIMA SHI","town":"IMAZUCHO KATSURA","perfecture_jp":"滋賀県","jp_add_1":"高島市","jp_add_2":"今津町桂"},"5201613":{"post_code":"5201613","prefecture":"SHIGA KEN","city":"TAKASHIMA SHI","town":"IMAZUCHO KAMIHIROBE","perfecture_jp":"滋賀県","jp_add_1":"高島市","jp_add_2":"今津町上弘部"},"5201653":{"post_code":"5201653","prefecture":"SHIGA KEN","city":"TAKASHIMA SHI","town":"IMAZUCHO KISHIWAKI","perfecture_jp":"滋賀県","jp_add_1":"高島市","jp_add_2":"今津町岸脇"},"5201642":{"post_code":"5201642","prefecture":"SHIGA KEN","city":"TAKASHIMA SHI","town":"IMAZUCHO KITAUMI","perfecture_jp":"滋賀県","jp_add_1":"高島市","jp_add_2":"今津町北生見"},"5201603":{"post_code":"5201603","prefecture":"SHIGA KEN","city":"TAKASHIMA SHI","town":"IMAZUCHO KITOGE","perfecture_jp":"滋賀県","jp_add_1":"高島市","jp_add_2":"今津町北仰"},"5201632":{"post_code":"5201632","prefecture":"SHIGA KEN","city":"TAKASHIMA SHI","town":"IMAZUCHO SAKURAMACHI","perfecture_jp":"滋賀県","jp_add_1":"高島市","jp_add_2":"今津町桜町"},"5201651":{"post_code":"5201651","prefecture":"SHIGA KEN","city":"TAKASHIMA SHI","town":"IMAZUCHO SANAMI","perfecture_jp":"滋賀県","jp_add_1":"高島市","jp_add_2":"今津町酒波"},"5201612":{"post_code":"5201612","prefecture":"SHIGA KEN","city":"TAKASHIMA SHI","town":"IMAZUCHO SHIMOHIROBE","perfecture_jp":"滋賀県","jp_add_1":"高島市","jp_add_2":"今津町下弘部"},"5201633":{"post_code":"5201633","prefecture":"SHIGA KEN","city":"TAKASHIMA SHI","town":"IMAZUCHO SHOYODAI","perfecture_jp":"滋賀県","jp_add_1":"高島市","jp_add_2":"今津町松陽台"},"5201646":{"post_code":"5201646","prefecture":"SHIGA KEN","city":"TAKASHIMA SHI","town":"IMAZUCHO SUGIYAMA","perfecture_jp":"滋賀県","jp_add_1":"高島市","jp_add_2":"今津町杉山"},"5201623":{"post_code":"5201623","prefecture":"SHIGA KEN","city":"TAKASHIMA SHI","town":"IMAZUCHO SUMIYOSHI","perfecture_jp":"滋賀県","jp_add_1":"高島市","jp_add_2":"今津町住吉"},"5201648":{"post_code":"5201648","prefecture":"SHIGA KEN","city":"TAKASHIMA SHI","town":"IMAZUCHO TSUNOGAWA","perfecture_jp":"滋賀県","jp_add_1":"高島市","jp_add_2":"今津町角川"},"5201644":{"post_code":"5201644","prefecture":"SHIGA KEN","city":"TAKASHIMA SHI","town":"IMAZUCHO TOCHUDANI","perfecture_jp":"滋賀県","jp_add_1":"高島市","jp_add_2":"今津町途中谷"},"5201622":{"post_code":"5201622","prefecture":"SHIGA KEN","city":"TAKASHIMA SHI","town":"IMAZUCHO NAKANUMA","perfecture_jp":"滋賀県","jp_add_1":"高島市","jp_add_2":"今津町中沼"},"5201631":{"post_code":"5201631","prefecture":"SHIGA KEN","city":"TAKASHIMA SHI","town":"IMAZUCHO NAKOJI","perfecture_jp":"滋賀県","jp_add_1":"高島市","jp_add_2":"今津町名小路"},"5201604":{"post_code":"5201604","prefecture":"SHIGA KEN","city":"TAKASHIMA SHI","town":"IMAZUCHO HAMABUN","perfecture_jp":"滋賀県","jp_add_1":"高島市","jp_add_2":"今津町浜分"},"5201655":{"post_code":"5201655","prefecture":"SHIGA KEN","city":"TAKASHIMA SHI","town":"IMAZUCHO HIOKIMAE","perfecture_jp":"滋賀県","jp_add_1":"高島市","jp_add_2":"今津町日置前"},"5201611":{"post_code":"5201611","prefecture":"SHIGA KEN","city":"TAKASHIMA SHI","town":"IMAZUCHO HIROKAWA","perfecture_jp":"滋賀県","jp_add_1":"高島市","jp_add_2":"今津町弘川"},"5201601":{"post_code":"5201601","prefecture":"SHIGA KEN","city":"TAKASHIMA SHI","town":"IMAZUCHO FUKASHIMIZU","perfecture_jp":"滋賀県","jp_add_1":"高島市","jp_add_2":"今津町深清水"},"5201652":{"post_code":"5201652","prefecture":"SHIGA KEN","city":"TAKASHIMA SHI","town":"IMAZUCHO FUKUOKA","perfecture_jp":"滋賀県","jp_add_1":"高島市","jp_add_2":"今津町福岡"},"5201636":{"post_code":"5201636","prefecture":"SHIGA KEN","city":"TAKASHIMA SHI","town":"IMAZUCHO FUNABASHI","perfecture_jp":"滋賀県","jp_add_1":"高島市","jp_add_2":"今津町舟橋"},"5201643":{"post_code":"5201643","prefecture":"SHIGA KEN","city":"TAKASHIMA SHI","town":"IMAZUCHO HOZAKA","perfecture_jp":"滋賀県","jp_add_1":"高島市","jp_add_2":"今津町保坂"},"5201641":{"post_code":"5201641","prefecture":"SHIGA KEN","city":"TAKASHIMA SHI","town":"IMAZUCHO MINAMIUMI","perfecture_jp":"滋賀県","jp_add_1":"高島市","jp_add_2":"今津町南生見"},"5201605":{"post_code":"5201605","prefecture":"SHIGA KEN","city":"TAKASHIMA SHI","town":"IMAZUCHO MINAMISHIMBO","perfecture_jp":"滋賀県","jp_add_1":"高島市","jp_add_2":"今津町南新保"},"5201645":{"post_code":"5201645","prefecture":"SHIGA KEN","city":"TAKASHIMA SHI","town":"IMAZUCHO MUKUGAWA","perfecture_jp":"滋賀県","jp_add_1":"高島市","jp_add_2":"今津町椋川"},"5201614":{"post_code":"5201614","prefecture":"SHIGA KEN","city":"TAKASHIMA SHI","town":"IMAZUCHO YU","perfecture_jp":"滋賀県","jp_add_1":"高島市","jp_add_2":"今津町藺生"},"5201122":{"post_code":"5201122","prefecture":"SHIGA KEN","city":"TAKASHIMA SHI","town":"UKAWA","perfecture_jp":"滋賀県","jp_add_1":"高島市","jp_add_2":"鵜川"},"5201131":{"post_code":"5201131","prefecture":"SHIGA KEN","city":"TAKASHIMA SHI","town":"OTOWA","perfecture_jp":"滋賀県","jp_add_1":"高島市","jp_add_2":"音羽"},"5201121":{"post_code":"5201121","prefecture":"SHIGA KEN","city":"TAKASHIMA SHI","town":"KATSUNO","perfecture_jp":"滋賀県","jp_add_1":"高島市","jp_add_2":"勝野"},"5201111":{"post_code":"5201111","prefecture":"SHIGA KEN","city":"TAKASHIMA SHI","town":"KAMO","perfecture_jp":"滋賀県","jp_add_1":"高島市","jp_add_2":"鴨"},"5201133":{"post_code":"5201133","prefecture":"SHIGA KEN","city":"TAKASHIMA SHI","town":"KAMOGAWADAIRA","perfecture_jp":"滋賀県","jp_add_1":"高島市","jp_add_2":"鴨川平"},"5201451":{"post_code":"5201451","prefecture":"SHIGA KEN","city":"TAKASHIMA SHI","town":"KUTSUKI ASO","perfecture_jp":"滋賀県","jp_add_1":"高島市","jp_add_2":"朽木麻生"},"5201411":{"post_code":"5201411","prefecture":"SHIGA KEN","city":"TAKASHIMA SHI","town":"KUTSUKI ARAKAWA","perfecture_jp":"滋賀県","jp_add_1":"高島市","jp_add_2":"朽木荒川"},"5201401":{"post_code":"5201401","prefecture":"SHIGA KEN","city":"TAKASHIMA SHI","town":"KUTSUKI ICHIBA","perfecture_jp":"滋賀県","jp_add_1":"高島市","jp_add_2":"朽木市場"},"5201421":{"post_code":"5201421","prefecture":"SHIGA KEN","city":"TAKASHIMA SHI","town":"KUTSUKI IWASE","perfecture_jp":"滋賀県","jp_add_1":"高島市","jp_add_2":"朽木岩瀬"},"5201413":{"post_code":"5201413","prefecture":"SHIGA KEN","city":"TAKASHIMA SHI","town":"KUTSUKI UENO","perfecture_jp":"滋賀県","jp_add_1":"高島市","jp_add_2":"朽木上野"},"5201453":{"post_code":"5201453","prefecture":"SHIGA KEN","city":"TAKASHIMA SHI","town":"KUTSUKI UTODANI","perfecture_jp":"滋賀県","jp_add_1":"高島市","jp_add_2":"朽木雲洞谷"},"5201442":{"post_code":"5201442","prefecture":"SHIGA KEN","city":"TAKASHIMA SHI","town":"KUTSUKI OISUGI","perfecture_jp":"滋賀県","jp_add_1":"高島市","jp_add_2":"朽木生杉"},"5201423":{"post_code":"5201423","prefecture":"SHIGA KEN","city":"TAKASHIMA SHI","town":"KUTSUKI ONO","perfecture_jp":"滋賀県","jp_add_1":"高島市","jp_add_2":"朽木大野"},"5201443":{"post_code":"5201443","prefecture":"SHIGA KEN","city":"TAKASHIMA SHI","town":"KUTSUKI ONYUDANI","perfecture_jp":"滋賀県","jp_add_1":"高島市","jp_add_2":"朽木小入谷"},"5201415":{"post_code":"5201415","prefecture":"SHIGA KEN","city":"TAKASHIMA SHI","town":"KUTSUKI KASE","perfecture_jp":"滋賀県","jp_add_1":"高島市","jp_add_2":"朽木柏"},"5201455":{"post_code":"5201455","prefecture":"SHIGA KEN","city":"TAKASHIMA SHI","town":"KUTSUKI KIJIYAMA","perfecture_jp":"滋賀県","jp_add_1":"高島市","jp_add_2":"朽木木地山"},"5201433":{"post_code":"5201433","prefecture":"SHIGA KEN","city":"TAKASHIMA SHI","town":"KUTSUKI KUWABARA","perfecture_jp":"滋賀県","jp_add_1":"高島市","jp_add_2":"朽木桑原"},"5201431":{"post_code":"5201431","prefecture":"SHIGA KEN","city":"TAKASHIMA SHI","town":"KUTSUKI KOGAWA","perfecture_jp":"滋賀県","jp_add_1":"高島市","jp_add_2":"朽木小川"},"5201452":{"post_code":"5201452","prefecture":"SHIGA KEN","city":"TAKASHIMA SHI","town":"KUTSUKI JISHIHARA","perfecture_jp":"滋賀県","jp_add_1":"高島市","jp_add_2":"朽木地子原"},"5201425":{"post_code":"5201425","prefecture":"SHIGA KEN","city":"TAKASHIMA SHI","town":"KUTSUKI TOCHU","perfecture_jp":"滋賀県","jp_add_1":"高島市","jp_add_2":"朽木栃生"},"5201444":{"post_code":"5201444","prefecture":"SHIGA KEN","city":"TAKASHIMA SHI","town":"KUTSUKI NAKAMAKI","perfecture_jp":"滋賀県","jp_add_1":"高島市","jp_add_2":"朽木中牧"},"5201454":{"post_code":"5201454","prefecture":"SHIGA KEN","city":"TAKASHIMA SHI","town":"KUTSUKI NOGE","perfecture_jp":"滋賀県","jp_add_1":"高島市","jp_add_2":"朽木能家"},"5201412":{"post_code":"5201412","prefecture":"SHIGA KEN","city":"TAKASHIMA SHI","town":"KUTSUKI NOJIRI","perfecture_jp":"滋賀県","jp_add_1":"高島市","jp_add_2":"朽木野尻"},"5201422":{"post_code":"5201422","prefecture":"SHIGA KEN","city":"TAKASHIMA SHI","town":"KUTSUKI FURUKAWA","perfecture_jp":"滋賀県","jp_add_1":"高島市","jp_add_2":"朽木古川"},"5201441":{"post_code":"5201441","prefecture":"SHIGA KEN","city":"TAKASHIMA SHI","town":"KUTSUKI FURUYA","perfecture_jp":"滋賀県","jp_add_1":"高島市","jp_add_2":"朽木古屋"},"5201432":{"post_code":"5201432","prefecture":"SHIGA KEN","city":"TAKASHIMA SHI","town":"KUTSUKI HERA","perfecture_jp":"滋賀県","jp_add_1":"高島市","jp_add_2":"朽木平良"},"5201414":{"post_code":"5201414","prefecture":"SHIGA KEN","city":"TAKASHIMA SHI","town":"KUTSUKI MIYAMAEBO","perfecture_jp":"滋賀県","jp_add_1":"高島市","jp_add_2":"朽木宮前坊"},"5201424":{"post_code":"5201424","prefecture":"SHIGA KEN","city":"TAKASHIMA SHI","town":"KUTSUKI MURAI","perfecture_jp":"滋賀県","jp_add_1":"高島市","jp_add_2":"朽木村井"},"5201143":{"post_code":"5201143","prefecture":"SHIGA KEN","city":"TAKASHIMA SHI","town":"KURODANI","perfecture_jp":"滋賀県","jp_add_1":"高島市","jp_add_2":"黒谷"},"5201142":{"post_code":"5201142","prefecture":"SHIGA KEN","city":"TAKASHIMA SHI","town":"SHISHIGASE","perfecture_jp":"滋賀県","jp_add_1":"高島市","jp_add_2":"鹿ケ瀬"},"5201123":{"post_code":"5201123","prefecture":"SHIGA KEN","city":"TAKASHIMA SHI","town":"SHIROYAMADAI","perfecture_jp":"滋賀県","jp_add_1":"高島市","jp_add_2":"城山台"},"5201531":{"post_code":"5201531","prefecture":"SHIGA KEN","city":"TAKASHIMA SHI","town":"SHINASAHICHO AIBA","perfecture_jp":"滋賀県","jp_add_1":"高島市","jp_add_2":"新旭町饗庭"},"5201501":{"post_code":"5201501","prefecture":"SHIGA KEN","city":"TAKASHIMA SHI","town":"SHINASAHICHO ASAHI","perfecture_jp":"滋賀県","jp_add_1":"高島市","jp_add_2":"新旭町旭"},"5201512":{"post_code":"5201512","prefecture":"SHIGA KEN","city":"TAKASHIMA SHI","town":"SHINASAHICHO OTA","perfecture_jp":"滋賀県","jp_add_1":"高島市","jp_add_2":"新旭町太田"},"5201521":{"post_code":"5201521","prefecture":"SHIGA KEN","city":"TAKASHIMA SHI","town":"SHINASAHICHO KITABATA","perfecture_jp":"滋賀県","jp_add_1":"高島市","jp_add_2":"新旭町北畑"},"5201532":{"post_code":"5201532","prefecture":"SHIGA KEN","city":"TAKASHIMA SHI","town":"SHINASAHICHO KUMANOMOTO","perfecture_jp":"滋賀県","jp_add_1":"高島市","jp_add_2":"新旭町熊野本"},"5201522":{"post_code":"5201522","prefecture":"SHIGA KEN","city":"TAKASHIMA SHI","town":"SHINASAHICHO SHINJO","perfecture_jp":"滋賀県","jp_add_1":"高島市","jp_add_2":"新旭町新庄"},"5201502":{"post_code":"5201502","prefecture":"SHIGA KEN","city":"TAKASHIMA SHI","town":"SHINASAHICHO HARIE","perfecture_jp":"滋賀県","jp_add_1":"高島市","jp_add_2":"新旭町針江"},"5201503":{"post_code":"5201503","prefecture":"SHIGA KEN","city":"TAKASHIMA SHI","town":"SHINASAHICHO FUKAMIZO","perfecture_jp":"滋賀県","jp_add_1":"高島市","jp_add_2":"新旭町深溝"},"5201533":{"post_code":"5201533","prefecture":"SHIGA KEN","city":"TAKASHIMA SHI","town":"SHINASAHICHO YASUIGAWA","perfecture_jp":"滋賀県","jp_add_1":"高島市","jp_add_2":"新旭町安井川"},"5201511":{"post_code":"5201511","prefecture":"SHIGA KEN","city":"TAKASHIMA SHI","town":"SHINASAHICHO WARASONO","perfecture_jp":"滋賀県","jp_add_1":"高島市","jp_add_2":"新旭町藁園"},"5201141":{"post_code":"5201141","prefecture":"SHIGA KEN","city":"TAKASHIMA SHI","town":"TAKASHIMA","perfecture_jp":"滋賀県","jp_add_1":"高島市","jp_add_2":"高島"},"5201112":{"post_code":"5201112","prefecture":"SHIGA KEN","city":"TAKASHIMA SHI","town":"NAGATA","perfecture_jp":"滋賀県","jp_add_1":"高島市","jp_add_2":"永田"},"5201102":{"post_code":"5201102","prefecture":"SHIGA KEN","city":"TAKASHIMA SHI","town":"NODA","perfecture_jp":"滋賀県","jp_add_1":"高島市","jp_add_2":"野田"},"5201132":{"post_code":"5201132","prefecture":"SHIGA KEN","city":"TAKASHIMA SHI","town":"HAIDO","perfecture_jp":"滋賀県","jp_add_1":"高島市","jp_add_2":"拝戸"},"5201144":{"post_code":"5201144","prefecture":"SHIGA KEN","city":"TAKASHIMA SHI","town":"HATA","perfecture_jp":"滋賀県","jp_add_1":"高島市","jp_add_2":"畑"},"5201801":{"post_code":"5201801","prefecture":"SHIGA KEN","city":"TAKASHIMA SHI","town":"MAKINOCHO ARIHARA","perfecture_jp":"滋賀県","jp_add_1":"高島市","jp_add_2":"マキノ町在原"},"5201835":{"post_code":"5201835","prefecture":"SHIGA KEN","city":"TAKASHIMA SHI","town":"MAKINOCHO ISHIBA","perfecture_jp":"滋賀県","jp_add_1":"高島市","jp_add_2":"マキノ町石庭"},"5201804":{"post_code":"5201804","prefecture":"SHIGA KEN","city":"TAKASHIMA SHI","town":"MAKINOCHO URA","perfecture_jp":"滋賀県","jp_add_1":"高島市","jp_add_2":"マキノ町浦"},"5201824":{"post_code":"5201824","prefecture":"SHIGA KEN","city":"TAKASHIMA SHI","town":"MAKINOCHO ONUMA","perfecture_jp":"滋賀県","jp_add_1":"高島市","jp_add_2":"マキノ町大沼"},"5201811":{"post_code":"5201811","prefecture":"SHIGA KEN","city":"TAKASHIMA SHI","town":"MAKINOCHO KAIZU","perfecture_jp":"滋賀県","jp_add_1":"高島市","jp_add_2":"マキノ町海津"},"5201831":{"post_code":"5201831","prefecture":"SHIGA KEN","city":"TAKASHIMA SHI","town":"MAKINOCHO KAMIKAIDE","perfecture_jp":"滋賀県","jp_add_1":"高島市","jp_add_2":"マキノ町上開田"},"5201803":{"post_code":"5201803","prefecture":"SHIGA KEN","city":"TAKASHIMA SHI","town":"MAKINOCHO KOARAJI","perfecture_jp":"滋賀県","jp_add_1":"高島市","jp_add_2":"マキノ町小荒路"},"5201821":{"post_code":"5201821","prefecture":"SHIGA KEN","city":"TAKASHIMA SHI","town":"MAKINOCHO SAWA","perfecture_jp":"滋賀県","jp_add_1":"高島市","jp_add_2":"マキノ町沢"},"5201805":{"post_code":"5201805","prefecture":"SHIGA KEN","city":"TAKASHIMA SHI","town":"MAKINOCHO SHIMO","perfecture_jp":"滋賀県","jp_add_1":"高島市","jp_add_2":"マキノ町下"},"5201832":{"post_code":"5201832","prefecture":"SHIGA KEN","city":"TAKASHIMA SHI","town":"MAKINOCHO SHIMOKAIDE","perfecture_jp":"滋賀県","jp_add_1":"高島市","jp_add_2":"マキノ町下開田"},"5201837":{"post_code":"5201837","prefecture":"SHIGA KEN","city":"TAKASHIMA SHI","town":"MAKINOCHO SHIRATANI","perfecture_jp":"滋賀県","jp_add_1":"高島市","jp_add_2":"マキノ町白谷"},"5201822":{"post_code":"5201822","prefecture":"SHIGA KEN","city":"TAKASHIMA SHI","town":"MAKINOCHO SHIMBO","perfecture_jp":"滋賀県","jp_add_1":"高島市","jp_add_2":"マキノ町新保"},"5201813":{"post_code":"5201813","prefecture":"SHIGA KEN","city":"TAKASHIMA SHI","town":"MAKINOCHO TAKAGIHAMA","perfecture_jp":"滋賀県","jp_add_1":"高島市","jp_add_2":"マキノ町高木浜"},"5201814":{"post_code":"5201814","prefecture":"SHIGA KEN","city":"TAKASHIMA SHI","town":"MAKINOCHO CHINAI","perfecture_jp":"滋賀県","jp_add_1":"高島市","jp_add_2":"マキノ町知内"},"5201826":{"post_code":"5201826","prefecture":"SHIGA KEN","city":"TAKASHIMA SHI","town":"MAKINOCHO TSUJI","perfecture_jp":"滋賀県","jp_add_1":"高島市","jp_add_2":"マキノ町辻"},"5201834":{"post_code":"5201834","prefecture":"SHIGA KEN","city":"TAKASHIMA SHI","town":"MAKINOCHO TERAKUBO","perfecture_jp":"滋賀県","jp_add_1":"高島市","jp_add_2":"マキノ町寺久保"},"5201823":{"post_code":"5201823","prefecture":"SHIGA KEN","city":"TAKASHIMA SHI","town":"MAKINOCHO NAKASHO","perfecture_jp":"滋賀県","jp_add_1":"高島市","jp_add_2":"マキノ町中庄"},"5201812":{"post_code":"5201812","prefecture":"SHIGA KEN","city":"TAKASHIMA SHI","town":"MAKINOCHO NISHIHAMA","perfecture_jp":"滋賀県","jp_add_1":"高島市","jp_add_2":"マキノ町西浜"},"5201802":{"post_code":"5201802","prefecture":"SHIGA KEN","city":"TAKASHIMA SHI","town":"MAKINOCHO NOGUCHI","perfecture_jp":"滋賀県","jp_add_1":"高島市","jp_add_2":"マキノ町野口"},"5201833":{"post_code":"5201833","prefecture":"SHIGA KEN","city":"TAKASHIMA SHI","town":"MAKINOCHO HIRUGUCHI","perfecture_jp":"滋賀県","jp_add_1":"高島市","jp_add_2":"マキノ町蛭口"},"5201836":{"post_code":"5201836","prefecture":"SHIGA KEN","city":"TAKASHIMA SHI","town":"MAKINOCHO MAKINO","perfecture_jp":"滋賀県","jp_add_1":"高島市","jp_add_2":"マキノ町牧野"},"5201825":{"post_code":"5201825","prefecture":"SHIGA KEN","city":"TAKASHIMA SHI","town":"MAKINOCHO MORINISHI","perfecture_jp":"滋賀県","jp_add_1":"高島市","jp_add_2":"マキノ町森西"},"5201806":{"post_code":"5201806","prefecture":"SHIGA KEN","city":"TAKASHIMA SHI","town":"MAKINOCHO YAMANAKA","perfecture_jp":"滋賀県","jp_add_1":"高島市","jp_add_2":"マキノ町山中"},"5201103":{"post_code":"5201103","prefecture":"SHIGA KEN","city":"TAKASHIMA SHI","town":"MIYANO","perfecture_jp":"滋賀県","jp_add_1":"高島市","jp_add_2":"宮野"},"5201101":{"post_code":"5201101","prefecture":"SHIGA KEN","city":"TAKASHIMA SHI","town":"MUSOYOKOYAMA","perfecture_jp":"滋賀県","jp_add_1":"高島市","jp_add_2":"武曽横山"},"5202500":{"post_code":"5202500","prefecture":"SHIGA KEN","city":"GAMO GUN RYUO CHO","town":"IKANIKEISAIGANAIBAAI","perfecture_jp":"滋賀県","jp_add_1":"蒲生郡竜王町","jp_add_2":""},"5202524":{"post_code":"5202524","prefecture":"SHIGA KEN","city":"GAMO GUN RYUO CHO","town":"AYADO","perfecture_jp":"滋賀県","jp_add_1":"蒲生郡竜王町","jp_add_2":"綾戸"},"5202522":{"post_code":"5202522","prefecture":"SHIGA KEN","city":"GAMO GUN RYUO CHO","town":"IWAI","perfecture_jp":"滋賀県","jp_add_1":"蒲生郡竜王町","jp_add_2":"岩井"},"5202562":{"post_code":"5202562","prefecture":"SHIGA KEN","city":"GAMO GUN RYUO CHO","town":"UKAWA","perfecture_jp":"滋賀県","jp_add_1":"蒲生郡竜王町","jp_add_2":"鵜川"},"5202541":{"post_code":"5202541","prefecture":"SHIGA KEN","city":"GAMO GUN RYUO CHO","town":"OKAYA","perfecture_jp":"滋賀県","jp_add_1":"蒲生郡竜王町","jp_add_2":"岡屋"},"5202552":{"post_code":"5202552","prefecture":"SHIGA KEN","city":"GAMO GUN RYUO CHO","town":"OGUCHI","perfecture_jp":"滋賀県","jp_add_1":"蒲生郡竜王町","jp_add_2":"小口"},"5202573":{"post_code":"5202573","prefecture":"SHIGA KEN","city":"GAMO GUN RYUO CHO","town":"KAGAMI","perfecture_jp":"滋賀県","jp_add_1":"蒲生郡竜王町","jp_add_2":"鏡"},"5202512":{"post_code":"5202512","prefecture":"SHIGA KEN","city":"GAMO GUN RYUO CHO","town":"KAYOCHO","perfecture_jp":"滋賀県","jp_add_1":"蒲生郡竜王町","jp_add_2":"駕輿丁"},"5202504":{"post_code":"5202504","prefecture":"SHIGA KEN","city":"GAMO GUN RYUO CHO","town":"KAWAKAMI","perfecture_jp":"滋賀県","jp_add_1":"蒲生郡竜王町","jp_add_2":"川上"},"5202521":{"post_code":"5202521","prefecture":"SHIGA KEN","city":"GAMO GUN RYUO CHO","town":"KAWAMORI","perfecture_jp":"滋賀県","jp_add_1":"蒲生郡竜王町","jp_add_2":"川守"},"5202551":{"post_code":"5202551","prefecture":"SHIGA KEN","city":"GAMO GUN RYUO CHO","town":"KUZUSHI","perfecture_jp":"滋賀県","jp_add_1":"蒲生郡竜王町","jp_add_2":"薬師"},"5202563":{"post_code":"5202563","prefecture":"SHIGA KEN","city":"GAMO GUN RYUO CHO","town":"SHICHIRI","perfecture_jp":"滋賀県","jp_add_1":"蒲生郡竜王町","jp_add_2":"七里"},"5202503":{"post_code":"5202503","prefecture":"SHIGA KEN","city":"GAMO GUN RYUO CHO","town":"SHINANO","perfecture_jp":"滋賀県","jp_add_1":"蒲生郡竜王町","jp_add_2":"信濃"},"5202513":{"post_code":"5202513","prefecture":"SHIGA KEN","city":"GAMO GUN RYUO CHO","town":"SHIMA","perfecture_jp":"滋賀県","jp_add_1":"蒲生郡竜王町","jp_add_2":"島"},"5202502":{"post_code":"5202502","prefecture":"SHIGA KEN","city":"GAMO GUN RYUO CHO","town":"SHO","perfecture_jp":"滋賀県","jp_add_1":"蒲生郡竜王町","jp_add_2":"庄"},"5202561":{"post_code":"5202561","prefecture":"SHIGA KEN","city":"GAMO GUN RYUO CHO","town":"SUE","perfecture_jp":"滋賀県","jp_add_1":"蒲生郡竜王町","jp_add_2":"須恵"},"5202523":{"post_code":"5202523","prefecture":"SHIGA KEN","city":"GAMO GUN RYUO CHO","town":"TANAKA","perfecture_jp":"滋賀県","jp_add_1":"蒲生郡竜王町","jp_add_2":"田中"},"5202572":{"post_code":"5202572","prefecture":"SHIGA KEN","city":"GAMO GUN RYUO CHO","town":"NISHIGAWA","perfecture_jp":"滋賀県","jp_add_1":"蒲生郡竜王町","jp_add_2":"西川"},"5202571":{"post_code":"5202571","prefecture":"SHIGA KEN","city":"GAMO GUN RYUO CHO","town":"NISHIYOKOZEKI","perfecture_jp":"滋賀県","jp_add_1":"蒲生郡竜王町","jp_add_2":"西横関"},"5202514":{"post_code":"5202514","prefecture":"SHIGA KEN","city":"GAMO GUN RYUO CHO","town":"HASHIMOTO","perfecture_jp":"滋賀県","jp_add_1":"蒲生郡竜王町","jp_add_2":"橋本"},"5202511":{"post_code":"5202511","prefecture":"SHIGA KEN","city":"GAMO GUN RYUO CHO","town":"HAYASHI","perfecture_jp":"滋賀県","jp_add_1":"蒲生郡竜王町","jp_add_2":"林"},"5202564":{"post_code":"5202564","prefecture":"SHIGA KEN","city":"GAMO GUN RYUO CHO","town":"YAMAZURA","perfecture_jp":"滋賀県","jp_add_1":"蒲生郡竜王町","jp_add_2":"山面"},"5202542":{"post_code":"5202542","prefecture":"SHIGA KEN","city":"GAMO GUN RYUO CHO","town":"YAMANAKA","perfecture_jp":"滋賀県","jp_add_1":"蒲生郡竜王町","jp_add_2":"山中"},"5202531":{"post_code":"5202531","prefecture":"SHIGA KEN","city":"GAMO GUN RYUO CHO","town":"YAMANOE","perfecture_jp":"滋賀県","jp_add_1":"蒲生郡竜王町","jp_add_2":"山之上"},"5202501":{"post_code":"5202501","prefecture":"SHIGA KEN","city":"GAMO GUN RYUO CHO","town":"YUGE","perfecture_jp":"滋賀県","jp_add_1":"蒲生郡竜王町","jp_add_2":"弓削"},"5200465":{"post_code":"5200465","prefecture":"KYOTO FU","city":"KYOTO SHI SAKYO KU","town":"KUTA KAMINOCHO","perfecture_jp":"京都府","jp_add_1":"京都市左京区","jp_add_2":"久多上の町"},"5200464":{"post_code":"5200464","prefecture":"KYOTO FU","city":"KYOTO SHI SAKYO KU","town":"KUTA NAKANOCHO","perfecture_jp":"京都府","jp_add_1":"京都市左京区","jp_add_2":"久多中の町"},"5200462":{"post_code":"5200462","prefecture":"KYOTO FU","city":"KYOTO SHI SAKYO KU","town":"KUTA SHIMONOCHO","perfecture_jp":"京都府","jp_add_1":"京都市左京区","jp_add_2":"久多下の町"},"5200461":{"post_code":"5200461","prefecture":"KYOTO FU","city":"KYOTO SHI SAKYO KU","town":"KUTA KAWAICHO","perfecture_jp":"京都府","jp_add_1":"京都市左京区","jp_add_2":"久多川合町"},"5200463":{"post_code":"5200463","prefecture":"KYOTO FU","city":"KYOTO SHI SAKYO KU","town":"KUTA MIYANOCHO","perfecture_jp":"京都府","jp_add_1":"京都市左京区","jp_add_2":"久多宮の町"}}