{"5220000":{"post_code":"5220000","prefecture":"SHIGA KEN","city":"HIKONE SHI","town":"IKANIKEISAIGANAIBAAI","perfecture_jp":"滋賀県","jp_add_1":"彦根市","jp_add_2":""},"5220073":{"post_code":"5220073","prefecture":"SHIGA KEN","city":"HIKONE SHI","town":"ASAHIMACHI","perfecture_jp":"滋賀県","jp_add_1":"彦根市","jp_add_2":"旭町"},"5220065":{"post_code":"5220065","prefecture":"SHIGA KEN","city":"HIKONE SHI","town":"IKESUCHO","perfecture_jp":"滋賀県","jp_add_1":"彦根市","jp_add_2":"池州町"},"5220236":{"post_code":"5220236","prefecture":"SHIGA KEN","city":"HIKONE SHI","town":"INUKATACHO","perfecture_jp":"滋賀県","jp_add_1":"彦根市","jp_add_2":"犬方町"},"5220239":{"post_code":"5220239","prefecture":"SHIGA KEN","city":"HIKONE SHI","town":"UOCHO(897-BANCHIOYOBINAKAJIMA505-51","perfecture_jp":"滋賀県","jp_add_1":"彦根市","jp_add_2":"宇尾町"},"5220045":{"post_code":"5220045","prefecture":"SHIGA KEN","city":"HIKONE SHI","town":"UOCHO(SONOTA)","perfecture_jp":"滋賀県","jp_add_1":"彦根市","jp_add_2":"宇尾町"},"5220034":{"post_code":"5220034","prefecture":"SHIGA KEN","city":"HIKONE SHI","town":"OHASHIMACHI","perfecture_jp":"滋賀県","jp_add_1":"彦根市","jp_add_2":"大橋町"},"5220026":{"post_code":"5220026","prefecture":"SHIGA KEN","city":"HIKONE SHI","town":"OBORICHO","perfecture_jp":"滋賀県","jp_add_1":"彦根市","jp_add_2":"大堀町"},"5220053":{"post_code":"5220053","prefecture":"SHIGA KEN","city":"HIKONE SHI","town":"OYABUCHO","perfecture_jp":"滋賀県","jp_add_1":"彦根市","jp_add_2":"大藪町"},"5220017":{"post_code":"5220017","prefecture":"SHIGA KEN","city":"HIKONE SHI","town":"ORICHO","perfecture_jp":"滋賀県","jp_add_1":"彦根市","jp_add_2":"男鬼町"},"5220037":{"post_code":"5220037","prefecture":"SHIGA KEN","city":"HIKONE SHI","town":"OKAMACHI","perfecture_jp":"滋賀県","jp_add_1":"彦根市","jp_add_2":"岡町"},"5220001":{"post_code":"5220001","prefecture":"SHIGA KEN","city":"HIKONE SHI","town":"OSUECHO","perfecture_jp":"滋賀県","jp_add_1":"彦根市","jp_add_2":"尾末町"},"5220005":{"post_code":"5220005","prefecture":"SHIGA KEN","city":"HIKONE SHI","town":"ONOCHO","perfecture_jp":"滋賀県","jp_add_1":"彦根市","jp_add_2":"小野町"},"5220056":{"post_code":"5220056","prefecture":"SHIGA KEN","city":"HIKONE SHI","town":"KAIDEIMACHO","perfecture_jp":"滋賀県","jp_add_1":"彦根市","jp_add_2":"開出今町"},"5220223":{"post_code":"5220223","prefecture":"SHIGA KEN","city":"HIKONE SHI","town":"KAWASEBABACHO","perfecture_jp":"滋賀県","jp_add_1":"彦根市","jp_add_2":"川瀬馬場町"},"5220083":{"post_code":"5220083","prefecture":"SHIGA KEN","city":"HIKONE SHI","town":"KAWARA","perfecture_jp":"滋賀県","jp_add_1":"彦根市","jp_add_2":"河原"},"5220046":{"post_code":"5220046","prefecture":"SHIGA KEN","city":"HIKONE SHI","town":"KANROCHO","perfecture_jp":"滋賀県","jp_add_1":"彦根市","jp_add_2":"甘呂町"},"5220081":{"post_code":"5220081","prefecture":"SHIGA KEN","city":"HIKONE SHI","town":"KYOMACHI","perfecture_jp":"滋賀県","jp_add_1":"彦根市","jp_add_2":"京町"},"5220088":{"post_code":"5220088","prefecture":"SHIGA KEN","city":"HIKONE SHI","town":"GINZACHO","perfecture_jp":"滋賀県","jp_add_1":"彦根市","jp_add_2":"銀座町"},"5220043":{"post_code":"5220043","prefecture":"SHIGA KEN","city":"HIKONE SHI","town":"KOIZUMICHO","perfecture_jp":"滋賀県","jp_add_1":"彦根市","jp_add_2":"小泉町"},"5220012":{"post_code":"5220012","prefecture":"SHIGA KEN","city":"HIKONE SHI","town":"KOTACHO","perfecture_jp":"滋賀県","jp_add_1":"彦根市","jp_add_2":"甲田町"},"5220238":{"post_code":"5220238","prefecture":"SHIGA KEN","city":"HIKONE SHI","town":"KONOCHO","perfecture_jp":"滋賀県","jp_add_1":"彦根市","jp_add_2":"広野町"},"5220231":{"post_code":"5220231","prefecture":"SHIGA KEN","city":"HIKONE SHI","town":"GOKURAKUJICHO","perfecture_jp":"滋賀県","jp_add_1":"彦根市","jp_add_2":"極楽寺町"},"5220086":{"post_code":"5220086","prefecture":"SHIGA KEN","city":"HIKONE SHI","town":"GOSANJOCHO","perfecture_jp":"滋賀県","jp_add_1":"彦根市","jp_add_2":"後三条町"},"5220061":{"post_code":"5220061","prefecture":"SHIGA KEN","city":"HIKONE SHI","town":"KONKICHO","perfecture_jp":"滋賀県","jp_add_1":"彦根市","jp_add_2":"金亀町"},"5220235":{"post_code":"5220235","prefecture":"SHIGA KEN","city":"HIKONE SHI","town":"KONGOJICHO","perfecture_jp":"滋賀県","jp_add_1":"彦根市","jp_add_2":"金剛寺町"},"5220021":{"post_code":"5220021","prefecture":"SHIGA KEN","city":"HIKONE SHI","town":"SAIWAICHO","perfecture_jp":"滋賀県","jp_add_1":"彦根市","jp_add_2":"幸町"},"5220066":{"post_code":"5220066","prefecture":"SHIGA KEN","city":"HIKONE SHI","town":"SAKAEMACHI","perfecture_jp":"滋賀県","jp_add_1":"彦根市","jp_add_2":"栄町"},"5220019":{"post_code":"5220019","prefecture":"SHIGA KEN","city":"HIKONE SHI","town":"SASAOCHO","perfecture_jp":"滋賀県","jp_add_1":"彦根市","jp_add_2":"笹尾町"},"5220022":{"post_code":"5220022","prefecture":"SHIGA KEN","city":"HIKONE SHI","town":"SATONECHO","perfecture_jp":"滋賀県","jp_add_1":"彦根市","jp_add_2":"里根町"},"5220075":{"post_code":"5220075","prefecture":"SHIGA KEN","city":"HIKONE SHI","town":"SAWACHO","perfecture_jp":"滋賀県","jp_add_1":"彦根市","jp_add_2":"佐和町"},"5220006":{"post_code":"5220006","prefecture":"SHIGA KEN","city":"HIKONE SHI","town":"SAWAYAMACHO","perfecture_jp":"滋賀県","jp_add_1":"彦根市","jp_add_2":"佐和山町"},"5220029":{"post_code":"5220029","prefecture":"SHIGA KEN","city":"HIKONE SHI","town":"JIZOCHO","perfecture_jp":"滋賀県","jp_add_1":"彦根市","jp_add_2":"地蔵町"},"5220011":{"post_code":"5220011","prefecture":"SHIGA KEN","city":"HIKONE SHI","town":"SHIMOYAGURACHO","perfecture_jp":"滋賀県","jp_add_1":"彦根市","jp_add_2":"下矢倉町"},"5220015":{"post_code":"5220015","prefecture":"SHIGA KEN","city":"HIKONE SHI","town":"SHOGONJICHO","perfecture_jp":"滋賀県","jp_add_1":"彦根市","jp_add_2":"荘厳寺町"},"5220024":{"post_code":"5220024","prefecture":"SHIGA KEN","city":"HIKONE SHI","town":"SHOBOJICHO","perfecture_jp":"滋賀県","jp_add_1":"彦根市","jp_add_2":"正法寺町"},"5220068":{"post_code":"5220068","prefecture":"SHIGA KEN","city":"HIKONE SHI","town":"SHIROMACHI","perfecture_jp":"滋賀県","jp_add_1":"彦根市","jp_add_2":"城町"},"5220085":{"post_code":"5220085","prefecture":"SHIGA KEN","city":"HIKONE SHI","town":"SHIMMACHI","perfecture_jp":"滋賀県","jp_add_1":"彦根市","jp_add_2":"新町"},"5220058":{"post_code":"5220058","prefecture":"SHIGA KEN","city":"HIKONE SHI","town":"SUGOSHICHO","perfecture_jp":"滋賀県","jp_add_1":"彦根市","jp_add_2":"須越町"},"5220033":{"post_code":"5220033","prefecture":"SHIGA KEN","city":"HIKONE SHI","town":"SERIKAWACHO","perfecture_jp":"滋賀県","jp_add_1":"彦根市","jp_add_2":"芹川町"},"5220031":{"post_code":"5220031","prefecture":"SHIGA KEN","city":"HIKONE SHI","town":"SERINAKAMACHI","perfecture_jp":"滋賀県","jp_add_1":"彦根市","jp_add_2":"芹中町"},"5220087":{"post_code":"5220087","prefecture":"SHIGA KEN","city":"HIKONE SHI","town":"SERIBASHI","perfecture_jp":"滋賀県","jp_add_1":"彦根市","jp_add_2":"芹橋"},"5220032":{"post_code":"5220032","prefecture":"SHIGA KEN","city":"HIKONE SHI","town":"SERIMACHI","perfecture_jp":"滋賀県","jp_add_1":"彦根市","jp_add_2":"芹町"},"5220014":{"post_code":"5220014","prefecture":"SHIGA KEN","city":"HIKONE SHI","town":"ZENDANICHO","perfecture_jp":"滋賀県","jp_add_1":"彦根市","jp_add_2":"善谷町"},"5220074":{"post_code":"5220074","prefecture":"SHIGA KEN","city":"HIKONE SHI","town":"DAITOCHO","perfecture_jp":"滋賀県","jp_add_1":"彦根市","jp_add_2":"大東町"},"5220201":{"post_code":"5220201","prefecture":"SHIGA KEN","city":"HIKONE SHI","town":"TAKAMIYACHO","perfecture_jp":"滋賀県","jp_add_1":"彦根市","jp_add_2":"高宮町"},"5220044":{"post_code":"5220044","prefecture":"SHIGA KEN","city":"HIKONE SHI","town":"TAKEGAHANACHO","perfecture_jp":"滋賀県","jp_add_1":"彦根市","jp_add_2":"竹ケ鼻町"},"5220062":{"post_code":"5220062","prefecture":"SHIGA KEN","city":"HIKONE SHI","town":"TACHIBANACHO","perfecture_jp":"滋賀県","jp_add_1":"彦根市","jp_add_2":"立花町"},"5220063":{"post_code":"5220063","prefecture":"SHIGA KEN","city":"HIKONE SHI","town":"CHUOCHO","perfecture_jp":"滋賀県","jp_add_1":"彦根市","jp_add_2":"中央町"},"5220233":{"post_code":"5220233","prefecture":"SHIGA KEN","city":"HIKONE SHI","town":"TSUJIDOCHO","perfecture_jp":"滋賀県","jp_add_1":"彦根市","jp_add_2":"辻堂町"},"5220212":{"post_code":"5220212","prefecture":"SHIGA KEN","city":"HIKONE SHI","town":"TSUZURAMACHI","perfecture_jp":"滋賀県","jp_add_1":"彦根市","jp_add_2":"葛籠町"},"5220214":{"post_code":"5220214","prefecture":"SHIGA KEN","city":"HIKONE SHI","town":"DEMACHI","perfecture_jp":"滋賀県","jp_add_1":"彦根市","jp_add_2":"出町"},"5220042":{"post_code":"5220042","prefecture":"SHIGA KEN","city":"HIKONE SHI","town":"TOGACHO","perfecture_jp":"滋賀県","jp_add_1":"彦根市","jp_add_2":"戸賀町"},"5220009":{"post_code":"5220009","prefecture":"SHIGA KEN","city":"HIKONE SHI","town":"TOMACHI","perfecture_jp":"滋賀県","jp_add_1":"彦根市","jp_add_2":"外町"},"5220004":{"post_code":"5220004","prefecture":"SHIGA KEN","city":"HIKONE SHI","town":"TORIIMOTOCHO","perfecture_jp":"滋賀県","jp_add_1":"彦根市","jp_add_2":"鳥居本町"},"5220051":{"post_code":"5220051","prefecture":"SHIGA KEN","city":"HIKONE SHI","town":"NAKAYABUCHO","perfecture_jp":"滋賀県","jp_add_1":"彦根市","jp_add_2":"中藪"},"5220013":{"post_code":"5220013","prefecture":"SHIGA KEN","city":"HIKONE SHI","town":"NAKAYAMACHO","perfecture_jp":"滋賀県","jp_add_1":"彦根市","jp_add_2":"中山町"},"5220067":{"post_code":"5220067","prefecture":"SHIGA KEN","city":"HIKONE SHI","town":"NAGASONECHO","perfecture_jp":"滋賀県","jp_add_1":"彦根市","jp_add_2":"長曽根町"},"5220052":{"post_code":"5220052","prefecture":"SHIGA KEN","city":"HIKONE SHI","town":"NAGASONEMINAMICHO","perfecture_jp":"滋賀県","jp_add_1":"彦根市","jp_add_2":"長曽根南町"},"5220054":{"post_code":"5220054","prefecture":"SHIGA KEN","city":"HIKONE SHI","town":"NISHIIMACHO","perfecture_jp":"滋賀県","jp_add_1":"彦根市","jp_add_2":"西今町"},"5220089":{"post_code":"5220089","prefecture":"SHIGA KEN","city":"HIKONE SHI","town":"NISHIKIMACHI","perfecture_jp":"滋賀県","jp_add_1":"彦根市","jp_add_2":"錦町"},"5220213":{"post_code":"5220213","prefecture":"SHIGA KEN","city":"HIKONE SHI","town":"NISHITSUZURAMACHI","perfecture_jp":"滋賀県","jp_add_1":"彦根市","jp_add_2":"西葛籠町"},"5220038":{"post_code":"5220038","prefecture":"SHIGA KEN","city":"HIKONE SHI","town":"YAMANOWAKICHO","perfecture_jp":"滋賀県","jp_add_1":"彦根市","jp_add_2":"西沼波町"},"5220221":{"post_code":"5220221","prefecture":"SHIGA KEN","city":"HIKONE SHI","town":"NOGUCHICHO","perfecture_jp":"滋賀県","jp_add_1":"彦根市","jp_add_2":"野口町"},"5220055":{"post_code":"5220055","prefecture":"SHIGA KEN","city":"HIKONE SHI","town":"NOSECHO","perfecture_jp":"滋賀県","jp_add_1":"彦根市","jp_add_2":"野瀬町"},"5220025":{"post_code":"5220025","prefecture":"SHIGA KEN","city":"HIKONE SHI","town":"NODAYAMACHO","perfecture_jp":"滋賀県","jp_add_1":"彦根市","jp_add_2":"野田山町"},"5220036":{"post_code":"5220036","prefecture":"SHIGA KEN","city":"HIKONE SHI","town":"NONAMIMACHI","perfecture_jp":"滋賀県","jp_add_1":"彦根市","jp_add_2":"沼波町"},"5220084":{"post_code":"5220084","prefecture":"SHIGA KEN","city":"HIKONE SHI","town":"HASHIMUKAICHO","perfecture_jp":"滋賀県","jp_add_1":"彦根市","jp_add_2":"橋向町"},"5220057":{"post_code":"5220057","prefecture":"SHIGA KEN","city":"HIKONE SHI","town":"HASSAKACHO","perfecture_jp":"滋賀県","jp_add_1":"彦根市","jp_add_2":"八坂町"},"5220023":{"post_code":"5220023","prefecture":"SHIGA KEN","city":"HIKONE SHI","town":"HARACHO","perfecture_jp":"滋賀県","jp_add_1":"彦根市","jp_add_2":"原町"},"5220069":{"post_code":"5220069","prefecture":"SHIGA KEN","city":"HIKONE SHI","town":"BAMBA","perfecture_jp":"滋賀県","jp_add_1":"彦根市","jp_add_2":"馬場"},"5220027":{"post_code":"5220027","prefecture":"SHIGA KEN","city":"HIKONE SHI","town":"HIGASHINONAMICHO","perfecture_jp":"滋賀県","jp_add_1":"彦根市","jp_add_2":"東沼波町"},"5220047":{"post_code":"5220047","prefecture":"SHIGA KEN","city":"HIKONE SHI","town":"HINATSUCHO","perfecture_jp":"滋賀県","jp_add_1":"彦根市","jp_add_2":"日夏町"},"5220041":{"post_code":"5220041","prefecture":"SHIGA KEN","city":"HIKONE SHI","town":"HIRATACHO","perfecture_jp":"滋賀県","jp_add_1":"彦根市","jp_add_2":"平田町"},"5220018":{"post_code":"5220018","prefecture":"SHIGA KEN","city":"HIKONE SHI","town":"BUTSUSHOJICHO","perfecture_jp":"滋賀県","jp_add_1":"彦根市","jp_add_2":"仏生寺町"},"5220016":{"post_code":"5220016","prefecture":"SHIGA KEN","city":"HIKONE SHI","town":"BUNACHO","perfecture_jp":"滋賀県","jp_add_1":"彦根市","jp_add_2":"武奈町"},"5220072":{"post_code":"5220072","prefecture":"SHIGA KEN","city":"HIKONE SHI","town":"FUNAMACHI","perfecture_jp":"滋賀県","jp_add_1":"彦根市","jp_add_2":"船町"},"5220007":{"post_code":"5220007","prefecture":"SHIGA KEN","city":"HIKONE SHI","town":"FURUSAWACHO","perfecture_jp":"滋賀県","jp_add_1":"彦根市","jp_add_2":"古沢町"},"5220211":{"post_code":"5220211","prefecture":"SHIGA KEN","city":"HIKONE SHI","town":"HOZECHO","perfecture_jp":"滋賀県","jp_add_1":"彦根市","jp_add_2":"法士町"},"5220237":{"post_code":"5220237","prefecture":"SHIGA KEN","city":"HIKONE SHI","town":"HORICHO","perfecture_jp":"滋賀県","jp_add_1":"彦根市","jp_add_2":"堀町"},"5220064":{"post_code":"5220064","prefecture":"SHIGA KEN","city":"HIKONE SHI","town":"HOMMACHI","perfecture_jp":"滋賀県","jp_add_1":"彦根市","jp_add_2":"本町"},"5220002":{"post_code":"5220002","prefecture":"SHIGA KEN","city":"HIKONE SHI","town":"MATSUBARACHO","perfecture_jp":"滋賀県","jp_add_1":"彦根市","jp_add_2":"松原"},"5220059":{"post_code":"5220059","prefecture":"SHIGA KEN","city":"HIKONE SHI","town":"MITSUYACHO","perfecture_jp":"滋賀県","jp_add_1":"彦根市","jp_add_2":"三津屋町"},"5220222":{"post_code":"5220222","prefecture":"SHIGA KEN","city":"HIKONE SHI","town":"MINAMIKAWASECHO","perfecture_jp":"滋賀県","jp_add_1":"彦根市","jp_add_2":"南川瀬町"},"5220003":{"post_code":"5220003","prefecture":"SHIGA KEN","city":"HIKONE SHI","town":"MIYATACHO","perfecture_jp":"滋賀県","jp_add_1":"彦根市","jp_add_2":"宮田町"},"5220035":{"post_code":"5220035","prefecture":"SHIGA KEN","city":"HIKONE SHI","town":"MOTOKAMACHI","perfecture_jp":"滋賀県","jp_add_1":"彦根市","jp_add_2":"元岡町"},"5220071":{"post_code":"5220071","prefecture":"SHIGA KEN","city":"HIKONE SHI","town":"MOTOMACHI","perfecture_jp":"滋賀県","jp_add_1":"彦根市","jp_add_2":"元町"},"5220234":{"post_code":"5220234","prefecture":"SHIGA KEN","city":"HIKONE SHI","town":"MORIDOCHO","perfecture_jp":"滋賀県","jp_add_1":"彦根市","jp_add_2":"森堂町"},"5220082":{"post_code":"5220082","prefecture":"SHIGA KEN","city":"HIKONE SHI","town":"YASUKIYOCHO","perfecture_jp":"滋賀県","jp_add_1":"彦根市","jp_add_2":"安清町"},"5220008":{"post_code":"5220008","prefecture":"SHIGA KEN","city":"HIKONE SHI","town":"YASUKIYOHIGASHIMACHI","perfecture_jp":"滋賀県","jp_add_1":"彦根市","jp_add_2":"安清東町"},"5220232":{"post_code":"5220232","prefecture":"SHIGA KEN","city":"HIKONE SHI","town":"RENDAIJICHO","perfecture_jp":"滋賀県","jp_add_1":"彦根市","jp_add_2":"蓮台寺町"},"5220039":{"post_code":"5220039","prefecture":"SHIGA KEN","city":"HIKONE SHI","town":"WADACHO","perfecture_jp":"滋賀県","jp_add_1":"彦根市","jp_add_2":"和田町"},"5220200":{"post_code":"5220200","prefecture":"SHIGA KEN","city":"INUKAMI GUN KORA CHO","town":"IKANIKEISAIGANAIBAAI","perfecture_jp":"滋賀県","jp_add_1":"犬上郡甲良町","jp_add_2":""},"5220242":{"post_code":"5220242","prefecture":"SHIGA KEN","city":"INUKAMI GUN KORA CHO","town":"AMAGO","perfecture_jp":"滋賀県","jp_add_1":"犬上郡甲良町","jp_add_2":"尼子"},"5220254":{"post_code":"5220254","prefecture":"SHIGA KEN","city":"INUKAMI GUN KORA CHO","town":"IKEDERA","perfecture_jp":"滋賀県","jp_add_1":"犬上郡甲良町","jp_add_2":"池寺"},"5220261":{"post_code":"5220261","prefecture":"SHIGA KEN","city":"INUKAMI GUN KORA CHO","town":"OSADERA","perfecture_jp":"滋賀県","jp_add_1":"犬上郡甲良町","jp_add_2":"長寺"},"5220252":{"post_code":"5220252","prefecture":"SHIGA KEN","city":"INUKAMI GUN KORA CHO","town":"KANAYA","perfecture_jp":"滋賀県","jp_add_1":"犬上郡甲良町","jp_add_2":"金屋"},"5220251":{"post_code":"5220251","prefecture":"SHIGA KEN","city":"INUKAMI GUN KORA CHO","town":"KITAOCHI","perfecture_jp":"滋賀県","jp_add_1":"犬上郡甲良町","jp_add_2":"北落"},"5220241":{"post_code":"5220241","prefecture":"SHIGA KEN","city":"INUKAMI GUN KORA CHO","town":"KURETAKE","perfecture_jp":"滋賀県","jp_add_1":"犬上郡甲良町","jp_add_2":"呉竹"},"5220243":{"post_code":"5220243","prefecture":"SHIGA KEN","city":"INUKAMI GUN KORA CHO","town":"KOGAWAHARA","perfecture_jp":"滋賀県","jp_add_1":"犬上郡甲良町","jp_add_2":"小川原"},"5220244":{"post_code":"5220244","prefecture":"SHIGA KEN","city":"INUKAMI GUN KORA CHO","town":"ZAIJI","perfecture_jp":"滋賀県","jp_add_1":"犬上郡甲良町","jp_add_2":"在士"},"5220271":{"post_code":"5220271","prefecture":"SHIGA KEN","city":"INUKAMI GUN KORA CHO","town":"SHIMONOGO","perfecture_jp":"滋賀県","jp_add_1":"犬上郡甲良町","jp_add_2":"下之郷"},"5220253":{"post_code":"5220253","prefecture":"SHIGA KEN","city":"INUKAMI GUN KORA CHO","town":"SHORAKUJI","perfecture_jp":"滋賀県","jp_add_1":"犬上郡甲良町","jp_add_2":"正楽寺"},"5220263":{"post_code":"5220263","prefecture":"SHIGA KEN","city":"INUKAMI GUN KORA CHO","town":"HOYOJI","perfecture_jp":"滋賀県","jp_add_1":"犬上郡甲良町","jp_add_2":"法養寺"},"5220262":{"post_code":"5220262","prefecture":"SHIGA KEN","city":"INUKAMI GUN KORA CHO","town":"YOKOZEKI","perfecture_jp":"滋賀県","jp_add_1":"犬上郡甲良町","jp_add_2":"横関"},"5220300":{"post_code":"5220300","prefecture":"SHIGA KEN","city":"INUKAMI GUN TAGA CHO","town":"IKANIKEISAIGANAIBAAI","perfecture_jp":"滋賀県","jp_add_1":"犬上郡多賀町","jp_add_2":""},"5220317":{"post_code":"5220317","prefecture":"SHIGA KEN","city":"INUKAMI GUN TAGA CHO","town":"ICHIEN","perfecture_jp":"滋賀県","jp_add_1":"犬上郡多賀町","jp_add_2":""},"5220323":{"post_code":"5220323","prefecture":"SHIGA KEN","city":"INUKAMI GUN TAGA CHO","town":"ICHINOSE","perfecture_jp":"滋賀県","jp_add_1":"犬上郡多賀町","jp_add_2":"一ノ瀬"},"5220304":{"post_code":"5220304","prefecture":"SHIGA KEN","city":"INUKAMI GUN TAGA CHO","town":"USHIRODANI","perfecture_jp":"滋賀県","jp_add_1":"犬上郡多賀町","jp_add_2":"後谷"},"5220315":{"post_code":"5220315","prefecture":"SHIGA KEN","city":"INUKAMI GUN TAGA CHO","town":"OOKA","perfecture_jp":"滋賀県","jp_add_1":"犬上郡多賀町","jp_add_2":"大岡"},"5220331":{"post_code":"5220331","prefecture":"SHIGA KEN","city":"INUKAMI GUN TAGA CHO","town":"OSUGI","perfecture_jp":"滋賀県","jp_add_1":"犬上郡多賀町","jp_add_2":"大杉"},"5220321":{"post_code":"5220321","prefecture":"SHIGA KEN","city":"INUKAMI GUN TAGA CHO","town":"OJIGAHATA","perfecture_jp":"滋賀県","jp_add_1":"犬上郡多賀町","jp_add_2":"大君ケ畑"},"5220333":{"post_code":"5220333","prefecture":"SHIGA KEN","city":"INUKAMI GUN TAGA CHO","town":"KAIHARA","perfecture_jp":"滋賀県","jp_add_1":"犬上郡多賀町","jp_add_2":"萱原"},"5220301":{"post_code":"5220301","prefecture":"SHIGA KEN","city":"INUKAMI GUN TAGA CHO","town":"KAWACHI","perfecture_jp":"滋賀県","jp_add_1":"犬上郡多賀町","jp_add_2":"河内"},"5220324":{"post_code":"5220324","prefecture":"SHIGA KEN","city":"INUKAMI GUN TAGA CHO","town":"KAWANAI","perfecture_jp":"滋賀県","jp_add_1":"犬上郡多賀町","jp_add_2":"川相"},"5220356":{"post_code":"5220356","prefecture":"SHIGA KEN","city":"INUKAMI GUN TAGA CHO","town":"KISO","perfecture_jp":"滋賀県","jp_add_1":"犬上郡多賀町","jp_add_2":"木曽"},"5220352":{"post_code":"5220352","prefecture":"SHIGA KEN","city":"INUKAMI GUN TAGA CHO","town":"KYUTOKU","perfecture_jp":"滋賀県","jp_add_1":"犬上郡多賀町","jp_add_2":"久徳"},"5220316":{"post_code":"5220316","prefecture":"SHIGA KEN","city":"INUKAMI GUN TAGA CHO","town":"KURUSU","perfecture_jp":"滋賀県","jp_add_1":"犬上郡多賀町","jp_add_2":"栗栖"},"5220305":{"post_code":"5220305","prefecture":"SHIGA KEN","city":"INUKAMI GUN TAGA CHO","town":"KOZUKURA","perfecture_jp":"滋賀県","jp_add_1":"犬上郡多賀町","jp_add_2":"甲頭倉"},"5220311":{"post_code":"5220311","prefecture":"SHIGA KEN","city":"INUKAMI GUN TAGA CHO","town":"GOSO","perfecture_jp":"滋賀県","jp_add_1":"犬上郡多賀町","jp_add_2":"五僧"},"5220325":{"post_code":"5220325","prefecture":"SHIGA KEN","city":"INUKAMI GUN TAGA CHO","town":"KOHARA","perfecture_jp":"滋賀県","jp_add_1":"犬上郡多賀町","jp_add_2":"小原"},"5220322":{"post_code":"5220322","prefecture":"SHIGA KEN","city":"INUKAMI GUN TAGA CHO","town":"SAME","perfecture_jp":"滋賀県","jp_add_1":"犬上郡多賀町","jp_add_2":"佐目"},"5220343":{"post_code":"5220343","prefecture":"SHIGA KEN","city":"INUKAMI GUN TAGA CHO","town":"SARUGI","perfecture_jp":"滋賀県","jp_add_1":"犬上郡多賀町","jp_add_2":"猿木"},"5220314":{"post_code":"5220314","prefecture":"SHIGA KEN","city":"INUKAMI GUN TAGA CHO","town":"SHIDE","perfecture_jp":"滋賀県","jp_add_1":"犬上郡多賀町","jp_add_2":"四手"},"5220326":{"post_code":"5220326","prefecture":"SHIGA KEN","city":"INUKAMI GUN TAGA CHO","town":"SHIMOGAHARA","perfecture_jp":"滋賀県","jp_add_1":"犬上郡多賀町","jp_add_2":"霜ケ原"},"5220318":{"post_code":"5220318","prefecture":"SHIGA KEN","city":"INUKAMI GUN TAGA CHO","town":"SUIDANI","perfecture_jp":"滋賀県","jp_add_1":"犬上郡多賀町","jp_add_2":"水谷"},"5220313":{"post_code":"5220313","prefecture":"SHIGA KEN","city":"INUKAMI GUN TAGA CHO","town":"SUGI","perfecture_jp":"滋賀県","jp_add_1":"犬上郡多賀町","jp_add_2":"杉"},"5220341":{"post_code":"5220341","prefecture":"SHIGA KEN","city":"INUKAMI GUN TAGA CHO","town":"TAGA","perfecture_jp":"滋賀県","jp_add_1":"犬上郡多賀町","jp_add_2":"多賀"},"5220353":{"post_code":"5220353","prefecture":"SHIGA KEN","city":"INUKAMI GUN TAGA CHO","town":"TSUKINOKI","perfecture_jp":"滋賀県","jp_add_1":"犬上郡多賀町","jp_add_2":"月之木"},"5220354":{"post_code":"5220354","prefecture":"SHIGA KEN","city":"INUKAMI GUN TAGA CHO","town":"TSUCHIDA","perfecture_jp":"滋賀県","jp_add_1":"犬上郡多賀町","jp_add_2":"土田"},"5220338":{"post_code":"5220338","prefecture":"SHIGA KEN","city":"INUKAMI GUN TAGA CHO","town":"TSUBO","perfecture_jp":"滋賀県","jp_add_1":"犬上郡多賀町","jp_add_2":"壺"},"5220337":{"post_code":"5220337","prefecture":"SHIGA KEN","city":"INUKAMI GUN TAGA CHO","town":"TOMINO","perfecture_jp":"滋賀県","jp_add_1":"犬上郡多賀町","jp_add_2":"富之尾"},"5220355":{"post_code":"5220355","prefecture":"SHIGA KEN","city":"INUKAMI GUN TAGA CHO","town":"NAKAGAWARA","perfecture_jp":"滋賀県","jp_add_1":"犬上郡多賀町","jp_add_2":"中川原"},"5220336":{"post_code":"5220336","prefecture":"SHIGA KEN","city":"INUKAMI GUN TAGA CHO","town":"NARASAKI","perfecture_jp":"滋賀県","jp_add_1":"犬上郡多賀町","jp_add_2":"楢崎"},"5220332":{"post_code":"5220332","prefecture":"SHIGA KEN","city":"INUKAMI GUN TAGA CHO","town":"HIDA","perfecture_jp":"滋賀県","jp_add_1":"犬上郡多賀町","jp_add_2":"樋田"},"5220303":{"post_code":"5220303","prefecture":"SHIGA KEN","city":"INUKAMI GUN TAGA CHO","town":"BYOBU","perfecture_jp":"滋賀県","jp_add_1":"犬上郡多賀町","jp_add_2":"屏風"},"5220342":{"post_code":"5220342","prefecture":"SHIGA KEN","city":"INUKAMI GUN TAGA CHO","town":"BIMMANJI","perfecture_jp":"滋賀県","jp_add_1":"犬上郡多賀町","jp_add_2":"敏満寺"},"5220335":{"post_code":"5220335","prefecture":"SHIGA KEN","city":"INUKAMI GUN TAGA CHO","town":"FUJISE","perfecture_jp":"滋賀県","jp_add_1":"犬上郡多賀町","jp_add_2":"藤瀬"},"5220312":{"post_code":"5220312","prefecture":"SHIGA KEN","city":"INUKAMI GUN TAGA CHO","town":"HOZUKI","perfecture_jp":"滋賀県","jp_add_1":"犬上郡多賀町","jp_add_2":"保月"},"5220334":{"post_code":"5220334","prefecture":"SHIGA KEN","city":"INUKAMI GUN TAGA CHO","town":"HOTOKERA","perfecture_jp":"滋賀県","jp_add_1":"犬上郡多賀町","jp_add_2":"仏ケ後"},"5220327":{"post_code":"5220327","prefecture":"SHIGA KEN","city":"INUKAMI GUN TAGA CHO","town":"MINAMIUSHIRODANI","perfecture_jp":"滋賀県","jp_add_1":"犬上郡多賀町","jp_add_2":"南後谷"},"5220302":{"post_code":"5220302","prefecture":"SHIGA KEN","city":"INUKAMI GUN TAGA CHO","town":"MUKAINOKURA","perfecture_jp":"滋賀県","jp_add_1":"犬上郡多賀町","jp_add_2":"向之倉"},"5220319":{"post_code":"5220319","prefecture":"SHIGA KEN","city":"INUKAMI GUN TAGA CHO","town":"MOBARA","perfecture_jp":"滋賀県","jp_add_1":"犬上郡多賀町","jp_add_2":"桃原"},"5220351":{"post_code":"5220351","prefecture":"SHIGA KEN","city":"INUKAMI GUN TAGA CHO","town":"YAENERI","perfecture_jp":"滋賀県","jp_add_1":"犬上郡多賀町","jp_add_2":"八重練"},"5220306":{"post_code":"5220306","prefecture":"SHIGA KEN","city":"INUKAMI GUN TAGA CHO","town":"RYOZEN","perfecture_jp":"滋賀県","jp_add_1":"犬上郡多賀町","jp_add_2":"霊仙"}}