{"5230000":{"post_code":"5230000","prefecture":"SHIGA KEN","city":"OMIHACHIMAN SHI","town":"IKANIKEISAIGANAIBAAI","perfecture_jp":"滋賀県","jp_add_1":"近江八幡市","jp_add_2":""},"5230836":{"post_code":"5230836","prefecture":"SHIGA KEN","city":"OMIHACHIMAN SHI","town":"AINOMACHI","perfecture_jp":"滋賀県","jp_add_1":"近江八幡市","jp_add_2":"間之町"},"5230052":{"post_code":"5230052","prefecture":"SHIGA KEN","city":"OMIHACHIMAN SHI","town":"AKOCHO","perfecture_jp":"滋賀県","jp_add_1":"近江八幡市","jp_add_2":"赤尾町"},"5230817":{"post_code":"5230817","prefecture":"SHIGA KEN","city":"OMIHACHIMAN SHI","town":"ASAGOICHO","perfecture_jp":"滋賀県","jp_add_1":"近江八幡市","jp_add_2":"浅小井町"},"5230045":{"post_code":"5230045","prefecture":"SHIGA KEN","city":"OMIHACHIMAN SHI","town":"ANYOJICHO","perfecture_jp":"滋賀県","jp_add_1":"近江八幡市","jp_add_2":"安養寺町"},"5230823":{"post_code":"5230823","prefecture":"SHIGA KEN","city":"OMIHACHIMAN SHI","town":"IKESUCHO","perfecture_jp":"滋賀県","jp_add_1":"近江八幡市","jp_add_2":"生須町"},"5230043":{"post_code":"5230043","prefecture":"SHIGA KEN","city":"OMIHACHIMAN SHI","town":"IKEDAHOMMACHI","perfecture_jp":"滋賀県","jp_add_1":"近江八幡市","jp_add_2":"池田本町"},"5230877":{"post_code":"5230877","prefecture":"SHIGA KEN","city":"OMIHACHIMAN SHI","town":"IKEDAMACHI","perfecture_jp":"滋賀県","jp_add_1":"近江八幡市","jp_add_2":"池田町"},"5230866":{"post_code":"5230866","prefecture":"SHIGA KEN","city":"OMIHACHIMAN SHI","town":"ISHINCHO KAMI","perfecture_jp":"滋賀県","jp_add_1":"近江八幡市","jp_add_2":"為心町上"},"5230865":{"post_code":"5230865","prefecture":"SHIGA KEN","city":"OMIHACHIMAN SHI","town":"ISHINCHO NAKA","perfecture_jp":"滋賀県","jp_add_1":"近江八幡市","jp_add_2":"為心町中"},"5230864":{"post_code":"5230864","prefecture":"SHIGA KEN","city":"OMIHACHIMAN SHI","town":"ISHINCHO MOTO","perfecture_jp":"滋賀県","jp_add_1":"近江八幡市","jp_add_2":"為心町元"},"5230885":{"post_code":"5230885","prefecture":"SHIGA KEN","city":"OMIHACHIMAN SHI","town":"ITAYACHO","perfecture_jp":"滋賀県","jp_add_1":"近江八幡市","jp_add_2":"板屋町"},"5230851":{"post_code":"5230851","prefecture":"SHIGA KEN","city":"OMIHACHIMAN SHI","town":"ICHIICHO","perfecture_jp":"滋賀県","jp_add_1":"近江八幡市","jp_add_2":"市井町"},"5230015":{"post_code":"5230015","prefecture":"SHIGA KEN","city":"OMIHACHIMAN SHI","town":"UEDACHO","perfecture_jp":"滋賀県","jp_add_1":"近江八幡市","jp_add_2":"上田町"},"5230046":{"post_code":"5230046","prefecture":"SHIGA KEN","city":"OMIHACHIMAN SHI","town":"UENOCHO","perfecture_jp":"滋賀県","jp_add_1":"近江八幡市","jp_add_2":"上野町"},"5230026":{"post_code":"5230026","prefecture":"SHIGA KEN","city":"OMIHACHIMAN SHI","town":"UEHATACHO","perfecture_jp":"滋賀県","jp_add_1":"近江八幡市","jp_add_2":"上畑町"},"5230895":{"post_code":"5230895","prefecture":"SHIGA KEN","city":"OMIHACHIMAN SHI","town":"UTSUROCHO","perfecture_jp":"滋賀県","jp_add_1":"近江八幡市","jp_add_2":"宇津呂町"},"5230869":{"post_code":"5230869","prefecture":"SHIGA KEN","city":"OMIHACHIMAN SHI","town":"UWAICHO KAMI","perfecture_jp":"滋賀県","jp_add_1":"近江八幡市","jp_add_2":"魚屋町上"},"5230868":{"post_code":"5230868","prefecture":"SHIGA KEN","city":"OMIHACHIMAN SHI","town":"UWAICHO NAKA","perfecture_jp":"滋賀県","jp_add_1":"近江八幡市","jp_add_2":"魚屋町中"},"5230867":{"post_code":"5230867","prefecture":"SHIGA KEN","city":"OMIHACHIMAN SHI","town":"UWAICHO MOTO","perfecture_jp":"滋賀県","jp_add_1":"近江八幡市","jp_add_2":"魚屋町元"},"5230061":{"post_code":"5230061","prefecture":"SHIGA KEN","city":"OMIHACHIMAN SHI","town":"EGASHIRACHO","perfecture_jp":"滋賀県","jp_add_1":"近江八幡市","jp_add_2":"江頭町"},"5230832":{"post_code":"5230832","prefecture":"SHIGA KEN","city":"OMIHACHIMAN SHI","town":"ENAMICHO","perfecture_jp":"滋賀県","jp_add_1":"近江八幡市","jp_add_2":"江南町"},"5230837":{"post_code":"5230837","prefecture":"SHIGA KEN","city":"OMIHACHIMAN SHI","town":"OSUGICHO","perfecture_jp":"滋賀県","jp_add_1":"近江八幡市","jp_add_2":"大杉町"},"5230071":{"post_code":"5230071","prefecture":"SHIGA KEN","city":"OMIHACHIMAN SHI","town":"OBUSACHO","perfecture_jp":"滋賀県","jp_add_1":"近江八幡市","jp_add_2":"大房町"},"5230042":{"post_code":"5230042","prefecture":"SHIGA KEN","city":"OMIHACHIMAN SHI","town":"OMORICHO","perfecture_jp":"滋賀県","jp_add_1":"近江八幡市","jp_add_2":"大森町"},"5230801":{"post_code":"5230801","prefecture":"SHIGA KEN","city":"OMIHACHIMAN SHI","town":"OKISHIMACHO","perfecture_jp":"滋賀県","jp_add_1":"近江八幡市","jp_add_2":"沖島町"},"5230811":{"post_code":"5230811","prefecture":"SHIGA KEN","city":"OMIHACHIMAN SHI","town":"OSADACHO","perfecture_jp":"滋賀県","jp_add_1":"近江八幡市","jp_add_2":"長田町"},"5230064":{"post_code":"5230064","prefecture":"SHIGA KEN","city":"OMIHACHIMAN SHI","town":"ODACHO","perfecture_jp":"滋賀県","jp_add_1":"近江八幡市","jp_add_2":"小田町"},"5230856":{"post_code":"5230856","prefecture":"SHIGA KEN","city":"OMIHACHIMAN SHI","town":"OTOWACHO","perfecture_jp":"滋賀県","jp_add_1":"近江八幡市","jp_add_2":"音羽町"},"5230875":{"post_code":"5230875","prefecture":"SHIGA KEN","city":"OMIHACHIMAN SHI","town":"OBATACHO KAMI","perfecture_jp":"滋賀県","jp_add_1":"近江八幡市","jp_add_2":"小幡町上"},"5230874":{"post_code":"5230874","prefecture":"SHIGA KEN","city":"OMIHACHIMAN SHI","town":"OBATACHO NAKA","perfecture_jp":"滋賀県","jp_add_1":"近江八幡市","jp_add_2":"小幡町中"},"5230852":{"post_code":"5230852","prefecture":"SHIGA KEN","city":"OMIHACHIMAN SHI","town":"KAGINOTECHO","perfecture_jp":"滋賀県","jp_add_1":"近江八幡市","jp_add_2":"鍵之手町"},"5230833":{"post_code":"5230833","prefecture":"SHIGA KEN","city":"OMIHACHIMAN SHI","town":"KAJIYACHO","perfecture_jp":"滋賀県","jp_add_1":"近江八幡市","jp_add_2":"鍛治屋町"},"5230058":{"post_code":"5230058","prefecture":"SHIGA KEN","city":"OMIHACHIMAN SHI","town":"KAMOCHO","perfecture_jp":"滋賀県","jp_add_1":"近江八幡市","jp_add_2":"加茂町"},"5230047":{"post_code":"5230047","prefecture":"SHIGA KEN","city":"OMIHACHIMAN SHI","town":"KAWARAMACHI","perfecture_jp":"滋賀県","jp_add_1":"近江八幡市","jp_add_2":"川原町"},"5230884":{"post_code":"5230884","prefecture":"SHIGA KEN","city":"OMIHACHIMAN SHI","town":"KITASUECHO","perfecture_jp":"滋賀県","jp_add_1":"近江八幡市","jp_add_2":"北末町"},"5230087":{"post_code":"5230087","prefecture":"SHIGA KEN","city":"OMIHACHIMAN SHI","town":"KITATSUDACHO","perfecture_jp":"滋賀県","jp_add_1":"近江八幡市","jp_add_2":"北津田町"},"5230806":{"post_code":"5230806","prefecture":"SHIGA KEN","city":"OMIHACHIMAN SHI","town":"KITANOSHOCHO","perfecture_jp":"滋賀県","jp_add_1":"近江八幡市","jp_add_2":"北之庄町"},"5230883":{"post_code":"5230883","prefecture":"SHIGA KEN","city":"OMIHACHIMAN SHI","town":"KITAMOTOCHO","perfecture_jp":"滋賀県","jp_add_1":"近江八幡市","jp_add_2":"北元町"},"5230023":{"post_code":"5230023","prefecture":"SHIGA KEN","city":"OMIHACHIMAN SHI","town":"KURAHASHIBECHO","perfecture_jp":"滋賀県","jp_add_1":"近江八幡市","jp_add_2":"倉橋部町"},"5230003":{"post_code":"5230003","prefecture":"SHIGA KEN","city":"OMIHACHIMAN SHI","town":"GOSHOCHICHO","perfecture_jp":"滋賀県","jp_add_1":"近江八幡市","jp_add_2":"御所内町"},"5230083":{"post_code":"5230083","prefecture":"SHIGA KEN","city":"OMIHACHIMAN SHI","town":"KOBUNAKICHO","perfecture_jp":"滋賀県","jp_add_1":"近江八幡市","jp_add_2":"小船木町"},"5230001":{"post_code":"5230001","prefecture":"SHIGA KEN","city":"OMIHACHIMAN SHI","town":"KONGOJICHO","perfecture_jp":"滋賀県","jp_add_1":"近江八幡市","jp_add_2":"金剛寺町"},"5230881":{"post_code":"5230881","prefecture":"SHIGA KEN","city":"OMIHACHIMAN SHI","town":"SAKUMACHO","perfecture_jp":"滋賀県","jp_add_1":"近江八幡市","jp_add_2":"佐久間町"},"5230893":{"post_code":"5230893","prefecture":"SHIGA KEN","city":"OMIHACHIMAN SHI","town":"SAKURAMIYACHO","perfecture_jp":"滋賀県","jp_add_1":"近江八幡市","jp_add_2":"桜宮町"},"5230076":{"post_code":"5230076","prefecture":"SHIGA KEN","city":"OMIHACHIMAN SHI","town":"SABAECHO","perfecture_jp":"滋賀県","jp_add_1":"近江八幡市","jp_add_2":"佐波江町"},"5230843":{"post_code":"5230843","prefecture":"SHIGA KEN","city":"OMIHACHIMAN SHI","town":"JIONJICHO KAMI","perfecture_jp":"滋賀県","jp_add_1":"近江八幡市","jp_add_2":"慈恩寺町上"},"5230842":{"post_code":"5230842","prefecture":"SHIGA KEN","city":"OMIHACHIMAN SHI","town":"JIONJICHO NAKA","perfecture_jp":"滋賀県","jp_add_1":"近江八幡市","jp_add_2":"慈恩寺町中"},"5230841":{"post_code":"5230841","prefecture":"SHIGA KEN","city":"OMIHACHIMAN SHI","town":"JIONJICHO MOTO","perfecture_jp":"滋賀県","jp_add_1":"近江八幡市","jp_add_2":"慈恩寺町元"},"5230044":{"post_code":"5230044","prefecture":"SHIGA KEN","city":"OMIHACHIMAN SHI","town":"SHINOHARACHO","perfecture_jp":"滋賀県","jp_add_1":"近江八幡市","jp_add_2":"篠原町"},"5230804":{"post_code":"5230804","prefecture":"SHIGA KEN","city":"OMIHACHIMAN SHI","town":"SHIMACHO","perfecture_jp":"滋賀県","jp_add_1":"近江八幡市","jp_add_2":"島町"},"5230063":{"post_code":"5230063","prefecture":"SHIGA KEN","city":"OMIHACHIMAN SHI","town":"JUOCHO","perfecture_jp":"滋賀県","jp_add_1":"近江八幡市","jp_add_2":"十王町"},"5230873":{"post_code":"5230873","prefecture":"SHIGA KEN","city":"OMIHACHIMAN SHI","town":"SHOGAMICHO","perfecture_jp":"滋賀県","jp_add_1":"近江八幡市","jp_add_2":"正神町"},"5230024":{"post_code":"5230024","prefecture":"SHIGA KEN","city":"OMIHACHIMAN SHI","town":"JODOJICHO","perfecture_jp":"滋賀県","jp_add_1":"近江八幡市","jp_add_2":"浄土寺町"},"5230803":{"post_code":"5230803","prefecture":"SHIGA KEN","city":"OMIHACHIMAN SHI","town":"SHIRAOCHO","perfecture_jp":"滋賀県","jp_add_1":"近江八幡市","jp_add_2":"白王町"},"5230032":{"post_code":"5230032","prefecture":"SHIGA KEN","city":"OMIHACHIMAN SHI","town":"SHIRATORICHO","perfecture_jp":"滋賀県","jp_add_1":"近江八幡市","jp_add_2":"白鳥町"},"5230825":{"post_code":"5230825","prefecture":"SHIGA KEN","city":"OMIHACHIMAN SHI","town":"SHINZAEMONCHO","perfecture_jp":"滋賀県","jp_add_1":"近江八幡市","jp_add_2":"新左衛門町"},"5230081":{"post_code":"5230081","prefecture":"SHIGA KEN","city":"OMIHACHIMAN SHI","town":"SHINSAKAEMACHI","perfecture_jp":"滋賀県","jp_add_1":"近江八幡市","jp_add_2":"新栄町"},"5230025":{"post_code":"5230025","prefecture":"SHIGA KEN","city":"OMIHACHIMAN SHI","town":"SHIMMAKICHO","perfecture_jp":"滋賀県","jp_add_1":"近江八幡市","jp_add_2":"新巻町"},"5230871":{"post_code":"5230871","prefecture":"SHIGA KEN","city":"OMIHACHIMAN SHI","town":"SHIMMACHI","perfecture_jp":"滋賀県","jp_add_1":"近江八幡市","jp_add_2":"新町"},"5230074":{"post_code":"5230074","prefecture":"SHIGA KEN","city":"OMIHACHIMAN SHI","town":"SUIKEICHO","perfecture_jp":"滋賀県","jp_add_1":"近江八幡市","jp_add_2":"水茎町"},"5230005":{"post_code":"5230005","prefecture":"SHIGA KEN","city":"OMIHACHIMAN SHI","town":"SUEHIROCHO","perfecture_jp":"滋賀県","jp_add_1":"近江八幡市","jp_add_2":"末広町"},"5230812":{"post_code":"5230812","prefecture":"SHIGA KEN","city":"OMIHACHIMAN SHI","town":"SUGINOMORICHO","perfecture_jp":"滋賀県","jp_add_1":"近江八幡市","jp_add_2":"杉森町"},"5230863":{"post_code":"5230863","prefecture":"SHIGA KEN","city":"OMIHACHIMAN SHI","town":"SUWAICHO KAMI","perfecture_jp":"滋賀県","jp_add_1":"近江八幡市","jp_add_2":"仲屋町上"},"5230862":{"post_code":"5230862","prefecture":"SHIGA KEN","city":"OMIHACHIMAN SHI","town":"SUWAICHO NAKA","perfecture_jp":"滋賀県","jp_add_1":"近江八幡市","jp_add_2":"仲屋町中"},"5230861":{"post_code":"5230861","prefecture":"SHIGA KEN","city":"OMIHACHIMAN SHI","town":"SUWAICHO MOTO","perfecture_jp":"滋賀県","jp_add_1":"近江八幡市","jp_add_2":"仲屋町元"},"5230016":{"post_code":"5230016","prefecture":"SHIGA KEN","city":"OMIHACHIMAN SHI","town":"SENZOKUCHO","perfecture_jp":"滋賀県","jp_add_1":"近江八幡市","jp_add_2":"千僧供町"},"5230824":{"post_code":"5230824","prefecture":"SHIGA KEN","city":"OMIHACHIMAN SHI","town":"DAIKUCHO","perfecture_jp":"滋賀県","jp_add_1":"近江八幡市","jp_add_2":"大工町"},"5230802":{"post_code":"5230802","prefecture":"SHIGA KEN","city":"OMIHACHIMAN SHI","town":"DAINAKACHO","perfecture_jp":"滋賀県","jp_add_1":"近江八幡市","jp_add_2":"大中町"},"5230891":{"post_code":"5230891","prefecture":"SHIGA KEN","city":"OMIHACHIMAN SHI","town":"TAKAKAICHO","perfecture_jp":"滋賀県","jp_add_1":"近江八幡市","jp_add_2":"鷹飼町"},"5230896":{"post_code":"5230896","prefecture":"SHIGA KEN","city":"OMIHACHIMAN SHI","town":"TAKAKAICHO KITA","perfecture_jp":"滋賀県","jp_add_1":"近江八幡市","jp_add_2":"鷹飼町北"},"5230897":{"post_code":"5230897","prefecture":"SHIGA KEN","city":"OMIHACHIMAN SHI","town":"TAKAKAICHO HIGASHI","perfecture_jp":"滋賀県","jp_add_1":"近江八幡市","jp_add_2":"鷹飼町東"},"5230898":{"post_code":"5230898","prefecture":"SHIGA KEN","city":"OMIHACHIMAN SHI","town":"TAKAKAICHO MINAMI","perfecture_jp":"滋賀県","jp_add_1":"近江八幡市","jp_add_2":"鷹飼町南"},"5230821":{"post_code":"5230821","prefecture":"SHIGA KEN","city":"OMIHACHIMAN SHI","town":"TAGACHO","perfecture_jp":"滋賀県","jp_add_1":"近江八幡市","jp_add_2":"多賀町"},"5230036":{"post_code":"5230036","prefecture":"SHIGA KEN","city":"OMIHACHIMAN SHI","town":"TAKECHO","perfecture_jp":"滋賀県","jp_add_1":"近江八幡市","jp_add_2":"竹町"},"5230057":{"post_code":"5230057","prefecture":"SHIGA KEN","city":"OMIHACHIMAN SHI","town":"TANAKAECHO","perfecture_jp":"滋賀県","jp_add_1":"近江八幡市","jp_add_2":"田中江町"},"5230872":{"post_code":"5230872","prefecture":"SHIGA KEN","city":"OMIHACHIMAN SHI","town":"TAMAKICHO","perfecture_jp":"滋賀県","jp_add_1":"近江八幡市","jp_add_2":"玉木町"},"5230831":{"post_code":"5230831","prefecture":"SHIGA KEN","city":"OMIHACHIMAN SHI","town":"TAMAYACHO","perfecture_jp":"滋賀県","jp_add_1":"近江八幡市","jp_add_2":"玉屋町"},"5230013":{"post_code":"5230013","prefecture":"SHIGA KEN","city":"OMIHACHIMAN SHI","town":"CHOKOJICHO","perfecture_jp":"滋賀県","jp_add_1":"近江八幡市","jp_add_2":"長光寺町"},"5230021":{"post_code":"5230021","prefecture":"SHIGA KEN","city":"OMIHACHIMAN SHI","town":"CHOFUKUJICHO","perfecture_jp":"滋賀県","jp_add_1":"近江八幡市","jp_add_2":"長福寺町"},"5230808":{"post_code":"5230808","prefecture":"SHIGA KEN","city":"OMIHACHIMAN SHI","town":"CHOMEIJICHO","perfecture_jp":"滋賀県","jp_add_1":"近江八幡市","jp_add_2":"長命寺町"},"5230086":{"post_code":"5230086","prefecture":"SHIGA KEN","city":"OMIHACHIMAN SHI","town":"TSUDACHO","perfecture_jp":"滋賀県","jp_add_1":"近江八幡市","jp_add_2":"津田町"},"5230082":{"post_code":"5230082","prefecture":"SHIGA KEN","city":"OMIHACHIMAN SHI","town":"TSUCHIDACHO","perfecture_jp":"滋賀県","jp_add_1":"近江八幡市","jp_add_2":"土田町"},"5230827":{"post_code":"5230827","prefecture":"SHIGA KEN","city":"OMIHACHIMAN SHI","town":"TEPPOCHO","perfecture_jp":"滋賀県","jp_add_1":"近江八幡市","jp_add_2":"鉄炮町"},"5230892":{"post_code":"5230892","prefecture":"SHIGA KEN","city":"OMIHACHIMAN SHI","town":"DEMACHI","perfecture_jp":"滋賀県","jp_add_1":"近江八幡市","jp_add_2":"出町"},"5230011":{"post_code":"5230011","prefecture":"SHIGA KEN","city":"OMIHACHIMAN SHI","town":"TOMOSADACHO","perfecture_jp":"滋賀県","jp_add_1":"近江八幡市","jp_add_2":"友定町"},"5230041":{"post_code":"5230041","prefecture":"SHIGA KEN","city":"OMIHACHIMAN SHI","town":"NAKAKOMORICHO","perfecture_jp":"滋賀県","jp_add_1":"近江八幡市","jp_add_2":"中小森町"},"5230807":{"post_code":"5230807","prefecture":"SHIGA KEN","city":"OMIHACHIMAN SHI","town":"NAKANOSHOCHO","perfecture_jp":"滋賀県","jp_add_1":"近江八幡市","jp_add_2":"中之庄町"},"5230849":{"post_code":"5230849","prefecture":"SHIGA KEN","city":"OMIHACHIMAN SHI","town":"NAGAHARACHO KAMI","perfecture_jp":"滋賀県","jp_add_1":"近江八幡市","jp_add_2":"永原町上"},"5230848":{"post_code":"5230848","prefecture":"SHIGA KEN","city":"OMIHACHIMAN SHI","town":"NAGAHARACHO NAKA","perfecture_jp":"滋賀県","jp_add_1":"近江八幡市","jp_add_2":"永原町中"},"5230847":{"post_code":"5230847","prefecture":"SHIGA KEN","city":"OMIHACHIMAN SHI","town":"NAGAHARACHO MOTO","perfecture_jp":"滋賀県","jp_add_1":"近江八幡市","jp_add_2":"永原町元"},"5230894":{"post_code":"5230894","prefecture":"SHIGA KEN","city":"OMIHACHIMAN SHI","town":"NAKAMURACHO","perfecture_jp":"滋賀県","jp_add_1":"近江八幡市","jp_add_2":"中村町"},"5230855":{"post_code":"5230855","prefecture":"SHIGA KEN","city":"OMIHACHIMAN SHI","town":"NAWATECHO SUE","perfecture_jp":"滋賀県","jp_add_1":"近江八幡市","jp_add_2":"縄手町末"},"5230854":{"post_code":"5230854","prefecture":"SHIGA KEN","city":"OMIHACHIMAN SHI","town":"NAWATECHO NAKA","perfecture_jp":"滋賀県","jp_add_1":"近江八幡市","jp_add_2":"縄手町中"},"5230853":{"post_code":"5230853","prefecture":"SHIGA KEN","city":"OMIHACHIMAN SHI","town":"NAWATECHO MOTO","perfecture_jp":"滋賀県","jp_add_1":"近江八幡市","jp_add_2":"縄手町元"},"5230014":{"post_code":"5230014","prefecture":"SHIGA KEN","city":"OMIHACHIMAN SHI","town":"NISHIJUKUCHO","perfecture_jp":"滋賀県","jp_add_1":"近江八幡市","jp_add_2":"西宿町"},"5230886":{"post_code":"5230886","prefecture":"SHIGA KEN","city":"OMIHACHIMAN SHI","town":"NISHISUECHO","perfecture_jp":"滋賀県","jp_add_1":"近江八幡市","jp_add_2":"西末町"},"5230835":{"post_code":"5230835","prefecture":"SHIGA KEN","city":"OMIHACHIMAN SHI","town":"NISHITATAMIYACHO","perfecture_jp":"滋賀県","jp_add_1":"近江八幡市","jp_add_2":"西畳屋町"},"5230816":{"post_code":"5230816","prefecture":"SHIGA KEN","city":"OMIHACHIMAN SHI","town":"NISHINOSHOCHO","perfecture_jp":"滋賀県","jp_add_1":"近江八幡市","jp_add_2":"西庄町"},"5230813":{"post_code":"5230813","prefecture":"SHIGA KEN","city":"OMIHACHIMAN SHI","town":"NISHIHONGOCHO","perfecture_jp":"滋賀県","jp_add_1":"近江八幡市","jp_add_2":"西本郷町"},"5230819":{"post_code":"5230819","prefecture":"SHIGA KEN","city":"OMIHACHIMAN SHI","town":"NISHIHONGOCHO NISHI","perfecture_jp":"滋賀県","jp_add_1":"近江八幡市","jp_add_2":"西本郷町西"},"5230818":{"post_code":"5230818","prefecture":"SHIGA KEN","city":"OMIHACHIMAN SHI","town":"NISHIHONGOCHO HIGASHI","perfecture_jp":"滋賀県","jp_add_1":"近江八幡市","jp_add_2":"西本郷町東"},"5230887":{"post_code":"5230887","prefecture":"SHIGA KEN","city":"OMIHACHIMAN SHI","town":"NISHIMOTOCHO","perfecture_jp":"滋賀県","jp_add_1":"近江八幡市","jp_add_2":"西元町"},"5230004":{"post_code":"5230004","prefecture":"SHIGA KEN","city":"OMIHACHIMAN SHI","town":"NISHORAICHO","perfecture_jp":"滋賀県","jp_add_1":"近江八幡市","jp_add_2":"西生来町"},"5230002":{"post_code":"5230002","prefecture":"SHIGA KEN","city":"OMIHACHIMAN SHI","town":"NODACHO","perfecture_jp":"滋賀県","jp_add_1":"近江八幡市","jp_add_2":"野田町"},"5230075":{"post_code":"5230075","prefecture":"SHIGA KEN","city":"OMIHACHIMAN SHI","town":"NOMURACHO","perfecture_jp":"滋賀県","jp_add_1":"近江八幡市","jp_add_2":"野村町"},"5230846":{"post_code":"5230846","prefecture":"SHIGA KEN","city":"OMIHACHIMAN SHI","town":"BAKUROCHO KAMI","perfecture_jp":"滋賀県","jp_add_1":"近江八幡市","jp_add_2":"博労町上"},"5230845":{"post_code":"5230845","prefecture":"SHIGA KEN","city":"OMIHACHIMAN SHI","town":"BAKUROCHO NAKA","perfecture_jp":"滋賀県","jp_add_1":"近江八幡市","jp_add_2":"博労町中"},"5230844":{"post_code":"5230844","prefecture":"SHIGA KEN","city":"OMIHACHIMAN SHI","town":"BAKUROCHO MOTO","perfecture_jp":"滋賀県","jp_add_1":"近江八幡市","jp_add_2":"博労町元"},"5230857":{"post_code":"5230857","prefecture":"SHIGA KEN","city":"OMIHACHIMAN SHI","town":"HACHIMANCHO","perfecture_jp":"滋賀県","jp_add_1":"近江八幡市","jp_add_2":"八幡町"},"5230027":{"post_code":"5230027","prefecture":"SHIGA KEN","city":"OMIHACHIMAN SHI","town":"HIGASHIGAWACHO","perfecture_jp":"滋賀県","jp_add_1":"近江八幡市","jp_add_2":"東川町"},"5230834":{"post_code":"5230834","prefecture":"SHIGA KEN","city":"OMIHACHIMAN SHI","town":"HIGASHITATAMIYACHO","perfecture_jp":"滋賀県","jp_add_1":"近江八幡市","jp_add_2":"東畳屋町"},"5230037":{"post_code":"5230037","prefecture":"SHIGA KEN","city":"OMIHACHIMAN SHI","town":"HIGASHICHO","perfecture_jp":"滋賀県","jp_add_1":"近江八幡市","jp_add_2":"東町"},"5230035":{"post_code":"5230035","prefecture":"SHIGA KEN","city":"OMIHACHIMAN SHI","town":"HIGASHIYOKOZEKICHO","perfecture_jp":"滋賀県","jp_add_1":"近江八幡市","jp_add_2":"東横関町"},"5230889":{"post_code":"5230889","prefecture":"SHIGA KEN","city":"OMIHACHIMAN SHI","town":"HISUGICHO","perfecture_jp":"滋賀県","jp_add_1":"近江八幡市","jp_add_2":"日杉町"},"5230033":{"post_code":"5230033","prefecture":"SHIGA KEN","city":"OMIHACHIMAN SHI","town":"HIYONOCHO","perfecture_jp":"滋賀県","jp_add_1":"近江八幡市","jp_add_2":"日吉野町"},"5230084":{"post_code":"5230084","prefecture":"SHIGA KEN","city":"OMIHACHIMAN SHI","town":"FUNAKICHO","perfecture_jp":"滋賀県","jp_add_1":"近江八幡市","jp_add_2":"船木町"},"5230822":{"post_code":"5230822","prefecture":"SHIGA KEN","city":"OMIHACHIMAN SHI","town":"FUNAMACHI","perfecture_jp":"滋賀県","jp_add_1":"近江八幡市","jp_add_2":"船町"},"5230056":{"post_code":"5230056","prefecture":"SHIGA KEN","city":"OMIHACHIMAN SHI","town":"FURUKAWACHO","perfecture_jp":"滋賀県","jp_add_1":"近江八幡市","jp_add_2":"古川町"},"5230031":{"post_code":"5230031","prefecture":"SHIGA KEN","city":"OMIHACHIMAN SHI","town":"HORIKAMICHO","perfecture_jp":"滋賀県","jp_add_1":"近江八幡市","jp_add_2":"堀上町"},"5230876":{"post_code":"5230876","prefecture":"SHIGA KEN","city":"OMIHACHIMAN SHI","town":"HOMMACHI","perfecture_jp":"滋賀県","jp_add_1":"近江八幡市","jp_add_2":"本町"},"5230072":{"post_code":"5230072","prefecture":"SHIGA KEN","city":"OMIHACHIMAN SHI","town":"MAKICHO","perfecture_jp":"滋賀県","jp_add_1":"近江八幡市","jp_add_2":"牧町"},"5230888":{"post_code":"5230888","prefecture":"SHIGA KEN","city":"OMIHACHIMAN SHI","town":"MAGOHEIJICHO","perfecture_jp":"滋賀県","jp_add_1":"近江八幡市","jp_add_2":"孫平治町"},"5230053":{"post_code":"5230053","prefecture":"SHIGA KEN","city":"OMIHACHIMAN SHI","town":"MASUDACHO","perfecture_jp":"滋賀県","jp_add_1":"近江八幡市","jp_add_2":"益田町"},"5230022":{"post_code":"5230022","prefecture":"SHIGA KEN","city":"OMIHACHIMAN SHI","town":"MABUCHICHO","perfecture_jp":"滋賀県","jp_add_1":"近江八幡市","jp_add_2":"馬淵町"},"5230062":{"post_code":"5230062","prefecture":"SHIGA KEN","city":"OMIHACHIMAN SHI","town":"MARUNOCHICHO","perfecture_jp":"滋賀県","jp_add_1":"近江八幡市","jp_add_2":"丸の内町"},"5230805":{"post_code":"5230805","prefecture":"SHIGA KEN","city":"OMIHACHIMAN SHI","town":"MARUYAMACHO","perfecture_jp":"滋賀県","jp_add_1":"近江八幡市","jp_add_2":"円山町"},"5230048":{"post_code":"5230048","prefecture":"SHIGA KEN","city":"OMIHACHIMAN SHI","town":"MIDORIMACHI","perfecture_jp":"滋賀県","jp_add_1":"近江八幡市","jp_add_2":"緑町"},"5230085":{"post_code":"5230085","prefecture":"SHIGA KEN","city":"OMIHACHIMAN SHI","town":"MINAMITSUDACHO","perfecture_jp":"滋賀県","jp_add_1":"近江八幡市","jp_add_2":"南津田町"},"5230814":{"post_code":"5230814","prefecture":"SHIGA KEN","city":"OMIHACHIMAN SHI","town":"MINAMIHONGOCHO","perfecture_jp":"滋賀県","jp_add_1":"近江八幡市","jp_add_2":"南本郷町"},"5230828":{"post_code":"5230828","prefecture":"SHIGA KEN","city":"OMIHACHIMAN SHI","town":"MIYAUCHICHO","perfecture_jp":"滋賀県","jp_add_1":"近江八幡市","jp_add_2":"宮内町"},"5230012":{"post_code":"5230012","prefecture":"SHIGA KEN","city":"OMIHACHIMAN SHI","town":"MUSACHO","perfecture_jp":"滋賀県","jp_add_1":"近江八幡市","jp_add_2":"武佐町"},"5230073":{"post_code":"5230073","prefecture":"SHIGA KEN","city":"OMIHACHIMAN SHI","town":"MOTOSUIKEICHO","perfecture_jp":"滋賀県","jp_add_1":"近江八幡市","jp_add_2":"元水茎町"},"5230882":{"post_code":"5230882","prefecture":"SHIGA KEN","city":"OMIHACHIMAN SHI","town":"MOTOTAMAYACHO","perfecture_jp":"滋賀県","jp_add_1":"近江八幡市","jp_add_2":"元玉屋町"},"5230054":{"post_code":"5230054","prefecture":"SHIGA KEN","city":"OMIHACHIMAN SHI","town":"MORIJIRICHO","perfecture_jp":"滋賀県","jp_add_1":"近江八幡市","jp_add_2":"森尻町"},"5230051":{"post_code":"5230051","prefecture":"SHIGA KEN","city":"OMIHACHIMAN SHI","town":"YAGICHO","perfecture_jp":"滋賀県","jp_add_1":"近江八幡市","jp_add_2":"八木町"},"5230826":{"post_code":"5230826","prefecture":"SHIGA KEN","city":"OMIHACHIMAN SHI","town":"YAKUSHICHO","perfecture_jp":"滋賀県","jp_add_1":"近江八幡市","jp_add_2":"薬師町"},"5230055":{"post_code":"5230055","prefecture":"SHIGA KEN","city":"OMIHACHIMAN SHI","town":"YANAGIMACHI","perfecture_jp":"滋賀県","jp_add_1":"近江八幡市","jp_add_2":"柳町"},"5230815":{"post_code":"5230815","prefecture":"SHIGA KEN","city":"OMIHACHIMAN SHI","town":"WAKABACHO","perfecture_jp":"滋賀県","jp_add_1":"近江八幡市","jp_add_2":"若葉町"},"5230034":{"post_code":"5230034","prefecture":"SHIGA KEN","city":"OMIHACHIMAN SHI","town":"WAKAMIYACHO","perfecture_jp":"滋賀県","jp_add_1":"近江八幡市","jp_add_2":"若宮町"}}