{"5250000":{"post_code":"5250000","prefecture":"SHIGA KEN","city":"KUSATSU SHI","town":"IKANIKEISAIGANAIBAAI","perfecture_jp":"滋賀県","jp_add_1":"草津市","jp_add_2":""},"5250041":{"post_code":"5250041","prefecture":"SHIGA KEN","city":"KUSATSU SHI","town":"AOJICHO","perfecture_jp":"滋賀県","jp_add_1":"草津市","jp_add_2":"青地町"},"5250002":{"post_code":"5250002","prefecture":"SHIGA KEN","city":"KUSATSU SHI","town":"ASHIURACHO","perfecture_jp":"滋賀県","jp_add_1":"草津市","jp_add_2":"芦浦町"},"5250015":{"post_code":"5250015","prefecture":"SHIGA KEN","city":"KUSATSU SHI","town":"ATSUMARICHO","perfecture_jp":"滋賀県","jp_add_1":"草津市","jp_add_2":"集町"},"5250012":{"post_code":"5250012","prefecture":"SHIGA KEN","city":"KUSATSU SHI","town":"ANAMURACHO","perfecture_jp":"滋賀県","jp_add_1":"草津市","jp_add_2":"穴村町"},"5250047":{"post_code":"5250047","prefecture":"SHIGA KEN","city":"KUSATSU SHI","town":"OIWAKE","perfecture_jp":"滋賀県","jp_add_1":"草津市","jp_add_2":"追分"},"5250048":{"post_code":"5250048","prefecture":"SHIGA KEN","city":"KUSATSU SHI","town":"OIWAKEMINAMI","perfecture_jp":"滋賀県","jp_add_1":"草津市","jp_add_2":"追分南"},"5250032":{"post_code":"5250032","prefecture":"SHIGA KEN","city":"KUSATSU SHI","town":"OJI","perfecture_jp":"滋賀県","jp_add_1":"草津市","jp_add_2":"大路"},"5250044":{"post_code":"5250044","prefecture":"SHIGA KEN","city":"KUSATSU SHI","town":"OKAMOTOCHO","perfecture_jp":"滋賀県","jp_add_1":"草津市","jp_add_2":"岡本町"},"5250001":{"post_code":"5250001","prefecture":"SHIGA KEN","city":"KUSATSU SHI","town":"OROSHIMOCHO","perfecture_jp":"滋賀県","jp_add_1":"草津市","jp_add_2":"下物町"},"5250072":{"post_code":"5250072","prefecture":"SHIGA KEN","city":"KUSATSU SHI","town":"KASAYAMA","perfecture_jp":"滋賀県","jp_add_1":"草津市","jp_add_2":"笠山"},"5250011":{"post_code":"5250011","prefecture":"SHIGA KEN","city":"KUSATSU SHI","town":"KATAOKACHO","perfecture_jp":"滋賀県","jp_add_1":"草津市","jp_add_2":"片岡町"},"5250028":{"post_code":"5250028","prefecture":"SHIGA KEN","city":"KUSATSU SHI","town":"KAMIGASA","perfecture_jp":"滋賀県","jp_add_1":"草津市","jp_add_2":"上笠"},"5250004":{"post_code":"5250004","prefecture":"SHIGA KEN","city":"KUSATSU SHI","town":"KAMIDERACHO","perfecture_jp":"滋賀県","jp_add_1":"草津市","jp_add_2":"上寺町"},"5250021":{"post_code":"5250021","prefecture":"SHIGA KEN","city":"KUSATSU SHI","town":"KAWARA","perfecture_jp":"滋賀県","jp_add_1":"草津市","jp_add_2":"川原"},"5250022":{"post_code":"5250022","prefecture":"SHIGA KEN","city":"KUSATSU SHI","town":"KAWARACHO","perfecture_jp":"滋賀県","jp_add_1":"草津市","jp_add_2":"川原町"},"5250016":{"post_code":"5250016","prefecture":"SHIGA KEN","city":"KUSATSU SHI","town":"KITAOGAYACHO","perfecture_jp":"滋賀県","jp_add_1":"草津市","jp_add_2":"北大萱町"},"5250061":{"post_code":"5250061","prefecture":"SHIGA KEN","city":"KUSATSU SHI","town":"KITAYAMADACHO","perfecture_jp":"滋賀県","jp_add_1":"草津市","jp_add_2":"北山田町"},"5250051":{"post_code":"5250051","prefecture":"SHIGA KEN","city":"KUSATSU SHI","town":"KINOKAWACHO","perfecture_jp":"滋賀県","jp_add_1":"草津市","jp_add_2":"木川町"},"5250034":{"post_code":"5250034","prefecture":"SHIGA KEN","city":"KUSATSU SHI","town":"KUSATSU","perfecture_jp":"滋賀県","jp_add_1":"草津市","jp_add_2":"草津"},"5250036":{"post_code":"5250036","prefecture":"SHIGA KEN","city":"KUSATSU SHI","town":"KUSATSUCHO","perfecture_jp":"滋賀県","jp_add_1":"草津市","jp_add_2":"草津町"},"5250014":{"post_code":"5250014","prefecture":"SHIGA KEN","city":"KUSATSU SHI","town":"KOMAIZAWACHO","perfecture_jp":"滋賀県","jp_add_1":"草津市","jp_add_2":"駒井沢町"},"5250057":{"post_code":"5250057","prefecture":"SHIGA KEN","city":"KUSATSU SHI","town":"SAKURAGAOKA","perfecture_jp":"滋賀県","jp_add_1":"草津市","jp_add_2":"桜ケ丘"},"5250005":{"post_code":"5250005","prefecture":"SHIGA KEN","city":"KUSATSU SHI","town":"SHINACHO","perfecture_jp":"滋賀県","jp_add_1":"草津市","jp_add_2":"志那町"},"5250006":{"post_code":"5250006","prefecture":"SHIGA KEN","city":"KUSATSU SHI","town":"SHINANAKACHO","perfecture_jp":"滋賀県","jp_add_1":"草津市","jp_add_2":"志那中町"},"5250026":{"post_code":"5250026","prefecture":"SHIGA KEN","city":"KUSATSU SHI","town":"SHIBUKAWA","perfecture_jp":"滋賀県","jp_add_1":"草津市","jp_add_2":"渋川"},"5250029":{"post_code":"5250029","prefecture":"SHIGA KEN","city":"KUSATSU SHI","town":"SHIMOGASACHO","perfecture_jp":"滋賀県","jp_add_1":"草津市","jp_add_2":"下笠町"},"5250007":{"post_code":"5250007","prefecture":"SHIGA KEN","city":"KUSATSU SHI","town":"SHIMODERACHO","perfecture_jp":"滋賀県","jp_add_1":"草津市","jp_add_2":"下寺町"},"5250013":{"post_code":"5250013","prefecture":"SHIGA KEN","city":"KUSATSU SHI","town":"SHINDOCHO","perfecture_jp":"滋賀県","jp_add_1":"草津市","jp_add_2":"新堂町"},"5250067":{"post_code":"5250067","prefecture":"SHIGA KEN","city":"KUSATSU SHI","town":"SHINHAMACHO","perfecture_jp":"滋賀県","jp_add_1":"草津市","jp_add_2":"新浜町"},"5250003":{"post_code":"5250003","prefecture":"SHIGA KEN","city":"KUSATSU SHI","town":"NATSUKACHO","perfecture_jp":"滋賀県","jp_add_1":"草津市","jp_add_2":"長束町"},"5250037":{"post_code":"5250037","prefecture":"SHIGA KEN","city":"KUSATSU SHI","town":"NISHIOJICHO","perfecture_jp":"滋賀県","jp_add_1":"草津市","jp_add_2":"西大路町"},"5250035":{"post_code":"5250035","prefecture":"SHIGA KEN","city":"KUSATSU SHI","town":"NISHIKUSATSU","perfecture_jp":"滋賀県","jp_add_1":"草津市","jp_add_2":"西草津"},"5250025":{"post_code":"5250025","prefecture":"SHIGA KEN","city":"KUSATSU SHI","town":"NISHISHIBUKAWA","perfecture_jp":"滋賀県","jp_add_1":"草津市","jp_add_2":"西渋川"},"5250052":{"post_code":"5250052","prefecture":"SHIGA KEN","city":"KUSATSU SHI","town":"NISHIYAGURA","perfecture_jp":"滋賀県","jp_add_1":"草津市","jp_add_2":"西矢倉"},"5250059":{"post_code":"5250059","prefecture":"SHIGA KEN","city":"KUSATSU SHI","town":"NOJI","perfecture_jp":"滋賀県","jp_add_1":"草津市","jp_add_2":"野路"},"5250055":{"post_code":"5250055","prefecture":"SHIGA KEN","city":"KUSATSU SHI","town":"NOJICHO","perfecture_jp":"滋賀県","jp_add_1":"草津市","jp_add_2":"野路町"},"5250058":{"post_code":"5250058","prefecture":"SHIGA KEN","city":"KUSATSU SHI","town":"NOJIHIGASHI","perfecture_jp":"滋賀県","jp_add_1":"草津市","jp_add_2":"野路東"},"5250027":{"post_code":"5250027","prefecture":"SHIGA KEN","city":"KUSATSU SHI","town":"NOMURA","perfecture_jp":"滋賀県","jp_add_1":"草津市","jp_add_2":"野村"},"5250065":{"post_code":"5250065","prefecture":"SHIGA KEN","city":"KUSATSU SHI","town":"HASHIOKACHO","perfecture_jp":"滋賀県","jp_add_1":"草津市","jp_add_2":"橋岡町"},"5250043":{"post_code":"5250043","prefecture":"SHIGA KEN","city":"KUSATSU SHI","town":"BAMBACHO","perfecture_jp":"滋賀県","jp_add_1":"草津市","jp_add_2":"馬場町"},"5250033":{"post_code":"5250033","prefecture":"SHIGA KEN","city":"KUSATSU SHI","town":"HIGASHIKUSATSU","perfecture_jp":"滋賀県","jp_add_1":"草津市","jp_add_2":"東草津"},"5250054":{"post_code":"5250054","prefecture":"SHIGA KEN","city":"KUSATSU SHI","town":"HIGASHIYAGURA","perfecture_jp":"滋賀県","jp_add_1":"草津市","jp_add_2":"東矢倉"},"5250023":{"post_code":"5250023","prefecture":"SHIGA KEN","city":"KUSATSU SHI","town":"HIRAI","perfecture_jp":"滋賀県","jp_add_1":"草津市","jp_add_2":"平井"},"5250024":{"post_code":"5250024","prefecture":"SHIGA KEN","city":"KUSATSU SHI","town":"HIRAICHO","perfecture_jp":"滋賀県","jp_add_1":"草津市","jp_add_2":"平井町"},"5250064":{"post_code":"5250064","prefecture":"SHIGA KEN","city":"KUSATSU SHI","town":"MIKURACHO","perfecture_jp":"滋賀県","jp_add_1":"草津市","jp_add_2":"御倉町"},"5250056":{"post_code":"5250056","prefecture":"SHIGA KEN","city":"KUSATSU SHI","town":"MINAMIGASACHO","perfecture_jp":"滋賀県","jp_add_1":"草津市","jp_add_2":"南笠町"},"5250071":{"post_code":"5250071","prefecture":"SHIGA KEN","city":"KUSATSU SHI","town":"MINAMIGASAHIGASHI","perfecture_jp":"滋賀県","jp_add_1":"草津市","jp_add_2":"南笠東"},"5250050":{"post_code":"5250050","prefecture":"SHIGA KEN","city":"KUSATSU SHI","town":"MINAMIKUSATSU","perfecture_jp":"滋賀県","jp_add_1":"草津市","jp_add_2":"南草津"},"5250063":{"post_code":"5250063","prefecture":"SHIGA KEN","city":"KUSATSU SHI","town":"MINAMIYAMADACHO","perfecture_jp":"滋賀県","jp_add_1":"草津市","jp_add_2":"南山田町"},"5250053":{"post_code":"5250053","prefecture":"SHIGA KEN","city":"KUSATSU SHI","town":"YAGURA","perfecture_jp":"滋賀県","jp_add_1":"草津市","jp_add_2":"矢倉"},"5250066":{"post_code":"5250066","prefecture":"SHIGA KEN","city":"KUSATSU SHI","town":"YABASECHO","perfecture_jp":"滋賀県","jp_add_1":"草津市","jp_add_2":"矢橋町"},"5250062":{"post_code":"5250062","prefecture":"SHIGA KEN","city":"KUSATSU SHI","town":"YAMADACHO","perfecture_jp":"滋賀県","jp_add_1":"草津市","jp_add_2":"山田町"},"5250042":{"post_code":"5250042","prefecture":"SHIGA KEN","city":"KUSATSU SHI","town":"YAMADERACHO","perfecture_jp":"滋賀県","jp_add_1":"草津市","jp_add_2":"山寺町"},"5250045":{"post_code":"5250045","prefecture":"SHIGA KEN","city":"KUSATSU SHI","town":"WAKAKUSA","perfecture_jp":"滋賀県","jp_add_1":"草津市","jp_add_2":"若草"},"5250031":{"post_code":"5250031","prefecture":"SHIGA KEN","city":"KUSATSU SHI","town":"WAKATAKECHO","perfecture_jp":"滋賀県","jp_add_1":"草津市","jp_add_2":"若竹町"}}