{"5260000":{"post_code":"5260000","prefecture":"SHIGA KEN","city":"NAGAHAMA SHI","town":"IKANIKEISAIGANAIBAAI","perfecture_jp":"滋賀県","jp_add_1":"長浜市","jp_add_2":""},"5260222":{"post_code":"5260222","prefecture":"SHIGA KEN","city":"NAGAHAMA SHI","town":"AZAIKOGEN","perfecture_jp":"滋賀県","jp_add_1":"長浜市","jp_add_2":"浅井高原"},"5260056":{"post_code":"5260056","prefecture":"SHIGA KEN","city":"NAGAHAMA SHI","town":"ASAHICHO","perfecture_jp":"滋賀県","jp_add_1":"長浜市","jp_add_2":"朝日町"},"5260126":{"post_code":"5260126","prefecture":"SHIGA KEN","city":"NAGAHAMA SHI","town":"ANYOJICHO","perfecture_jp":"滋賀県","jp_add_1":"長浜市","jp_add_2":"安養寺町"},"5260274":{"post_code":"5260274","prefecture":"SHIGA KEN","city":"NAGAHAMA SHI","town":"IKEOKUCHO","perfecture_jp":"滋賀県","jp_add_1":"長浜市","jp_add_2":"池奥町"},"5260814":{"post_code":"5260814","prefecture":"SHIGA KEN","city":"NAGAHAMA SHI","town":"ISHIDACHO","perfecture_jp":"滋賀県","jp_add_1":"長浜市","jp_add_2":"石田町"},"5260003":{"post_code":"5260003","prefecture":"SHIGA KEN","city":"NAGAHAMA SHI","town":"IZUMICHO","perfecture_jp":"滋賀県","jp_add_1":"長浜市","jp_add_2":"泉町"},"5260051":{"post_code":"5260051","prefecture":"SHIGA KEN","city":"NAGAHAMA SHI","town":"ICHINOMIYACHO","perfecture_jp":"滋賀県","jp_add_1":"長浜市","jp_add_2":"一の宮町"},"5260133":{"post_code":"5260133","prefecture":"SHIGA KEN","city":"NAGAHAMA SHI","town":"INABACHO","perfecture_jp":"滋賀県","jp_add_1":"長浜市","jp_add_2":"稲葉町"},"5260816":{"post_code":"5260816","prefecture":"SHIGA KEN","city":"NAGAHAMA SHI","town":"IMAGAWACHO","perfecture_jp":"滋賀県","jp_add_1":"長浜市","jp_add_2":"今川町"},"5260233":{"post_code":"5260233","prefecture":"SHIGA KEN","city":"NAGAHAMA SHI","town":"IMAJOCHO","perfecture_jp":"滋賀県","jp_add_1":"長浜市","jp_add_2":"今荘町"},"5260806":{"post_code":"5260806","prefecture":"SHIGA KEN","city":"NAGAHAMA SHI","town":"IMACHO","perfecture_jp":"滋賀県","jp_add_1":"長浜市","jp_add_2":"今町"},"5260211":{"post_code":"5260211","prefecture":"SHIGA KEN","city":"NAGAHAMA SHI","town":"IYAMACHO","perfecture_jp":"滋賀県","jp_add_1":"長浜市","jp_add_2":"飯山町"},"5260244":{"post_code":"5260244","prefecture":"SHIGA KEN","city":"NAGAHAMA SHI","town":"UCHIBOCHO","perfecture_jp":"滋賀県","jp_add_1":"長浜市","jp_add_2":"内保町"},"5260275":{"post_code":"5260275","prefecture":"SHIGA KEN","city":"NAGAHAMA SHI","town":"URYUCHO","perfecture_jp":"滋賀県","jp_add_1":"長浜市","jp_add_2":"瓜生町"},"5260264":{"post_code":"5260264","prefecture":"SHIGA KEN","city":"NAGAHAMA SHI","town":"UWANOCHO","perfecture_jp":"滋賀県","jp_add_1":"長浜市","jp_add_2":"上野町"},"5260833":{"post_code":"5260833","prefecture":"SHIGA KEN","city":"NAGAHAMA SHI","town":"EIKYUJICHO","perfecture_jp":"滋賀県","jp_add_1":"長浜市","jp_add_2":"永久寺町"},"5260805":{"post_code":"5260805","prefecture":"SHIGA KEN","city":"NAGAHAMA SHI","town":"ENOKICHO","perfecture_jp":"滋賀県","jp_add_1":"長浜市","jp_add_2":"榎木町"},"5260043":{"post_code":"5260043","prefecture":"SHIGA KEN","city":"NAGAHAMA SHI","town":"OINUICHO","perfecture_jp":"滋賀県","jp_add_1":"長浜市","jp_add_2":"大戌亥町"},"5260066":{"post_code":"5260066","prefecture":"SHIGA KEN","city":"NAGAHAMA SHI","town":"OSHIMACHO","perfecture_jp":"滋賀県","jp_add_1":"長浜市","jp_add_2":"大島町"},"5260207":{"post_code":"5260207","prefecture":"SHIGA KEN","city":"NAGAHAMA SHI","town":"OTACHO","perfecture_jp":"滋賀県","jp_add_1":"長浜市","jp_add_2":"太田町"},"5260834":{"post_code":"5260834","prefecture":"SHIGA KEN","city":"NAGAHAMA SHI","town":"OTATSUMICHO","perfecture_jp":"滋賀県","jp_add_1":"長浜市","jp_add_2":"大辰巳町"},"5260115":{"post_code":"5260115","prefecture":"SHIGA KEN","city":"NAGAHAMA SHI","town":"OHAMACHO","perfecture_jp":"滋賀県","jp_add_1":"長浜市","jp_add_2":"大浜町"},"5260832":{"post_code":"5260832","prefecture":"SHIGA KEN","city":"NAGAHAMA SHI","town":"OHIGASHICHO","perfecture_jp":"滋賀県","jp_add_1":"長浜市","jp_add_2":"大東町"},"5260054":{"post_code":"5260054","prefecture":"SHIGA KEN","city":"NAGAHAMA SHI","town":"OMIYACHO","perfecture_jp":"滋賀県","jp_add_1":"長浜市","jp_add_2":"大宮町"},"5260251":{"post_code":"5260251","prefecture":"SHIGA KEN","city":"NAGAHAMA SHI","town":"OYORICHO","perfecture_jp":"滋賀県","jp_add_1":"長浜市","jp_add_2":"大依町"},"5260205":{"post_code":"5260205","prefecture":"SHIGA KEN","city":"NAGAHAMA SHI","town":"OKADANICHO","perfecture_jp":"滋賀県","jp_add_1":"長浜市","jp_add_2":"岡谷町"},"5260102":{"post_code":"5260102","prefecture":"SHIGA KEN","city":"NAGAHAMA SHI","town":"OCHIAICHO","perfecture_jp":"滋賀県","jp_add_1":"長浜市","jp_add_2":"落合町"},"5260243":{"post_code":"5260243","prefecture":"SHIGA KEN","city":"NAGAHAMA SHI","town":"OCHICHO","perfecture_jp":"滋賀県","jp_add_1":"長浜市","jp_add_2":"大路町"},"5260221":{"post_code":"5260221","prefecture":"SHIGA KEN","city":"NAGAHAMA SHI","town":"ONODERACHO","perfecture_jp":"滋賀県","jp_add_1":"長浜市","jp_add_2":"小野寺町"},"5260811":{"post_code":"5260811","prefecture":"SHIGA KEN","city":"NAGAHAMA SHI","town":"KAIGOMECHO","perfecture_jp":"滋賀県","jp_add_1":"長浜市","jp_add_2":"垣籠町"},"5260204":{"post_code":"5260204","prefecture":"SHIGA KEN","city":"NAGAHAMA SHI","town":"KAJIYACHO","perfecture_jp":"滋賀県","jp_add_1":"長浜市","jp_add_2":"鍛冶屋町"},"5260827":{"post_code":"5260827","prefecture":"SHIGA KEN","city":"NAGAHAMA SHI","town":"KADAIMACHO","perfecture_jp":"滋賀県","jp_add_1":"長浜市","jp_add_2":"加田今町"},"5260828":{"post_code":"5260828","prefecture":"SHIGA KEN","city":"NAGAHAMA SHI","town":"KADACHO","perfecture_jp":"滋賀県","jp_add_1":"長浜市","jp_add_2":"加田町"},"5260042":{"post_code":"5260042","prefecture":"SHIGA KEN","city":"NAGAHAMA SHI","town":"KATSUCHO","perfecture_jp":"滋賀県","jp_add_1":"長浜市","jp_add_2":"勝町"},"5260068":{"post_code":"5260068","prefecture":"SHIGA KEN","city":"NAGAHAMA SHI","town":"KANEBOCHO","perfecture_jp":"滋賀県","jp_add_1":"長浜市","jp_add_2":"鐘紡町"},"5260804":{"post_code":"5260804","prefecture":"SHIGA KEN","city":"NAGAHAMA SHI","town":"KANOCHO","perfecture_jp":"滋賀県","jp_add_1":"長浜市","jp_add_2":"加納町"},"5260015":{"post_code":"5260015","prefecture":"SHIGA KEN","city":"NAGAHAMA SHI","town":"KAMITERUCHO","perfecture_jp":"滋賀県","jp_add_1":"長浜市","jp_add_2":"神照町"},"5260122":{"post_code":"5260122","prefecture":"SHIGA KEN","city":"NAGAHAMA SHI","town":"KAMIYAGICHO","perfecture_jp":"滋賀県","jp_add_1":"長浜市","jp_add_2":"上八木町"},"5260846":{"post_code":"5260846","prefecture":"SHIGA KEN","city":"NAGAHAMA SHI","town":"KAWASAKICHO","perfecture_jp":"滋賀県","jp_add_1":"長浜市","jp_add_2":"川崎町"},"5260111":{"post_code":"5260111","prefecture":"SHIGA KEN","city":"NAGAHAMA SHI","town":"KAWAMICHICHO","perfecture_jp":"滋賀県","jp_add_1":"長浜市","jp_add_2":"川道町"},"5260265":{"post_code":"5260265","prefecture":"SHIGA KEN","city":"NAGAHAMA SHI","town":"KIOCHO","perfecture_jp":"滋賀県","jp_add_1":"長浜市","jp_add_2":"木尾町"},"5260061":{"post_code":"5260061","prefecture":"SHIGA KEN","city":"NAGAHAMA SHI","town":"GIONCHO","perfecture_jp":"滋賀県","jp_add_1":"長浜市","jp_add_2":"祇園町"},"5260231":{"post_code":"5260231","prefecture":"SHIGA KEN","city":"NAGAHAMA SHI","town":"KITAIKECHO","perfecture_jp":"滋賀県","jp_add_1":"長浜市","jp_add_2":"北池町"},"5260214":{"post_code":"5260214","prefecture":"SHIGA KEN","city":"NAGAHAMA SHI","town":"KITANOGOCHO","perfecture_jp":"滋賀県","jp_add_1":"長浜市","jp_add_2":"北ノ郷町"},"5260272":{"post_code":"5260272","prefecture":"SHIGA KEN","city":"NAGAHAMA SHI","town":"KITANOCHO","perfecture_jp":"滋賀県","jp_add_1":"長浜市","jp_add_2":"北野町"},"5260057":{"post_code":"5260057","prefecture":"SHIGA KEN","city":"NAGAHAMA SHI","town":"KITAFUNACHO","perfecture_jp":"滋賀県","jp_add_1":"長浜市","jp_add_2":"北船町"},"5260202":{"post_code":"5260202","prefecture":"SHIGA KEN","city":"NAGAHAMA SHI","town":"KUSANOCHO","perfecture_jp":"滋賀県","jp_add_1":"長浜市","jp_add_2":"草野町"},"5260001":{"post_code":"5260001","prefecture":"SHIGA KEN","city":"NAGAHAMA SHI","town":"KUNITOMOCHO","perfecture_jp":"滋賀県","jp_add_1":"長浜市","jp_add_2":"国友町"},"5260014":{"post_code":"5260014","prefecture":"SHIGA KEN","city":"NAGAHAMA SHI","town":"KUMODECHO","perfecture_jp":"滋賀県","jp_add_1":"長浜市","jp_add_2":"口分田町"},"5260262":{"post_code":"5260262","prefecture":"SHIGA KEN","city":"NAGAHAMA SHI","town":"KUROBECHO","perfecture_jp":"滋賀県","jp_add_1":"長浜市","jp_add_2":"黒部町"},"5260826":{"post_code":"5260826","prefecture":"SHIGA KEN","city":"NAGAHAMA SHI","town":"KOICHIJOCHO","perfecture_jp":"滋賀県","jp_add_1":"長浜市","jp_add_2":"小一条町"},"5260065":{"post_code":"5260065","prefecture":"SHIGA KEN","city":"NAGAHAMA SHI","town":"KOENCHO","perfecture_jp":"滋賀県","jp_add_1":"長浜市","jp_add_2":"公園町"},"5260132":{"post_code":"5260132","prefecture":"SHIGA KEN","city":"NAGAHAMA SHI","town":"KOKEIJICHO","perfecture_jp":"滋賀県","jp_add_1":"長浜市","jp_add_2":"香花寺町"},"5260206":{"post_code":"5260206","prefecture":"SHIGA KEN","city":"NAGAHAMA SHI","town":"GONOCHO","perfecture_jp":"滋賀県","jp_add_1":"長浜市","jp_add_2":"郷野町"},"5260134":{"post_code":"5260134","prefecture":"SHIGA KEN","city":"NAGAHAMA SHI","town":"KOKANNONJICHO","perfecture_jp":"滋賀県","jp_add_1":"長浜市","jp_add_2":"小観音寺町"},"5260004":{"post_code":"5260004","prefecture":"SHIGA KEN","city":"NAGAHAMA SHI","town":"KOZAWACHO","perfecture_jp":"滋賀県","jp_add_1":"長浜市","jp_add_2":"小沢町"},"5260845":{"post_code":"5260845","prefecture":"SHIGA KEN","city":"NAGAHAMA SHI","town":"KOBORICHO","perfecture_jp":"滋賀県","jp_add_1":"長浜市","jp_add_2":"小堀町"},"5260263":{"post_code":"5260263","prefecture":"SHIGA KEN","city":"NAGAHAMA SHI","town":"KOMUROCHO","perfecture_jp":"滋賀県","jp_add_1":"長浜市","jp_add_2":"小室町"},"5260235":{"post_code":"5260235","prefecture":"SHIGA KEN","city":"NAGAHAMA SHI","town":"SANOCHO","perfecture_jp":"滋賀県","jp_add_1":"長浜市","jp_add_2":"佐野町"},"5260055":{"post_code":"5260055","prefecture":"SHIGA KEN","city":"NAGAHAMA SHI","town":"SANWACHO","perfecture_jp":"滋賀県","jp_add_1":"長浜市","jp_add_2":"三和町"},"5260817":{"post_code":"5260817","prefecture":"SHIGA KEN","city":"NAGAHAMA SHI","town":"SHICHIJOCHO","perfecture_jp":"滋賀県","jp_add_1":"長浜市","jp_add_2":"七条町"},"5260036":{"post_code":"5260036","prefecture":"SHIGA KEN","city":"NAGAHAMA SHI","town":"JIFUKUJICHO","perfecture_jp":"滋賀県","jp_add_1":"長浜市","jp_add_2":"地福寺町"},"5260044":{"post_code":"5260044","prefecture":"SHIGA KEN","city":"NAGAHAMA SHI","town":"SHIMOSAKA NAKACHO","perfecture_jp":"滋賀県","jp_add_1":"長浜市","jp_add_2":"下坂中町"},"5260047":{"post_code":"5260047","prefecture":"SHIGA KEN","city":"NAGAHAMA SHI","town":"SHIMOSAKA HAMACHO","perfecture_jp":"滋賀県","jp_add_1":"長浜市","jp_add_2":"下坂浜町"},"5260005":{"post_code":"5260005","prefecture":"SHIGA KEN","city":"NAGAHAMA SHI","town":"SHIMONOGOCHO","perfecture_jp":"滋賀県","jp_add_1":"長浜市","jp_add_2":"下之郷町"},"5260123":{"post_code":"5260123","prefecture":"SHIGA KEN","city":"NAGAHAMA SHI","town":"SHIMOYAGICHO","perfecture_jp":"滋賀県","jp_add_1":"長浜市","jp_add_2":"下八木町"},"5260016":{"post_code":"5260016","prefecture":"SHIGA KEN","city":"NAGAHAMA SHI","town":"JURICHO","perfecture_jp":"滋賀県","jp_add_1":"長浜市","jp_add_2":"十里町"},"5260121":{"post_code":"5260121","prefecture":"SHIGA KEN","city":"NAGAHAMA SHI","town":"JUKKUCHO","perfecture_jp":"滋賀県","jp_add_1":"長浜市","jp_add_2":"十九町"},"5260823":{"post_code":"5260823","prefecture":"SHIGA KEN","city":"NAGAHAMA SHI","town":"JOGICHO","perfecture_jp":"滋賀県","jp_add_1":"長浜市","jp_add_2":"常喜町"},"5260013":{"post_code":"5260013","prefecture":"SHIGA KEN","city":"NAGAHAMA SHI","town":"SHINJO TERACHO","perfecture_jp":"滋賀県","jp_add_1":"長浜市","jp_add_2":"新庄寺町"},"5260012":{"post_code":"5260012","prefecture":"SHIGA KEN","city":"NAGAHAMA SHI","town":"SHINJO NAKACHO","perfecture_jp":"滋賀県","jp_add_1":"長浜市","jp_add_2":"新庄中町"},"5260011":{"post_code":"5260011","prefecture":"SHIGA KEN","city":"NAGAHAMA SHI","town":"SHINJO BAMBACHO","perfecture_jp":"滋賀県","jp_add_1":"長浜市","jp_add_2":"新庄馬場町"},"5260052":{"post_code":"5260052","prefecture":"SHIGA KEN","city":"NAGAHAMA SHI","town":"SHINZENCHO","perfecture_jp":"滋賀県","jp_add_1":"長浜市","jp_add_2":"神前町"},"5260241":{"post_code":"5260241","prefecture":"SHIGA KEN","city":"NAGAHAMA SHI","town":"SHIMMITA","perfecture_jp":"滋賀県","jp_add_1":"長浜市","jp_add_2":"新三田"},"5260063":{"post_code":"5260063","prefecture":"SHIGA KEN","city":"NAGAHAMA SHI","town":"SUEHIROCHO","perfecture_jp":"滋賀県","jp_add_1":"長浜市","jp_add_2":"末広町"},"5260277":{"post_code":"5260277","prefecture":"SHIGA KEN","city":"NAGAHAMA SHI","town":"SUGATANICHO","perfecture_jp":"滋賀県","jp_add_1":"長浜市","jp_add_2":"須賀谷町"},"5260017":{"post_code":"5260017","prefecture":"SHIGA KEN","city":"NAGAHAMA SHI","town":"SUMAICHO","perfecture_jp":"滋賀県","jp_add_1":"長浜市","jp_add_2":"相撲町"},"5260234":{"post_code":"5260234","prefecture":"SHIGA KEN","city":"NAGAHAMA SHI","town":"SUMAINIWACHO","perfecture_jp":"滋賀県","jp_add_1":"長浜市","jp_add_2":"相撲庭町"},"5260103":{"post_code":"5260103","prefecture":"SHIGA KEN","city":"NAGAHAMA SHI","town":"SONECHO","perfecture_jp":"滋賀県","jp_add_1":"長浜市","jp_add_2":"曽根町"},"5260256":{"post_code":"5260256","prefecture":"SHIGA KEN","city":"NAGAHAMA SHI","town":"SONSHOJICHO","perfecture_jp":"滋賀県","jp_add_1":"長浜市","jp_add_2":"尊勝寺町"},"5260254":{"post_code":"5260254","prefecture":"SHIGA KEN","city":"NAGAHAMA SHI","town":"SONNOCHO","perfecture_jp":"滋賀県","jp_add_1":"長浜市","jp_add_2":"尊野町"},"5260213":{"post_code":"5260213","prefecture":"SHIGA KEN","city":"NAGAHAMA SHI","town":"DAIGOCHO","perfecture_jp":"滋賀県","jp_add_1":"長浜市","jp_add_2":"醍醐町"},"5260216":{"post_code":"5260216","prefecture":"SHIGA KEN","city":"NAGAHAMA SHI","town":"DAIMONCHO","perfecture_jp":"滋賀県","jp_add_1":"長浜市","jp_add_2":"大門町"},"5260037":{"post_code":"5260037","prefecture":"SHIGA KEN","city":"NAGAHAMA SHI","town":"TAKADACHO","perfecture_jp":"滋賀県","jp_add_1":"長浜市","jp_add_2":"高田町"},"5260046":{"post_code":"5260046","prefecture":"SHIGA KEN","city":"NAGAHAMA SHI","town":"TAKAHASHICHO","perfecture_jp":"滋賀県","jp_add_1":"長浜市","jp_add_2":"高橋町"},"5260273":{"post_code":"5260273","prefecture":"SHIGA KEN","city":"NAGAHAMA SHI","town":"TAKAHATACHO","perfecture_jp":"滋賀県","jp_add_1":"長浜市","jp_add_2":"高畑町"},"5260201":{"post_code":"5260201","prefecture":"SHIGA KEN","city":"NAGAHAMA SHI","town":"TAKAYAMACHO","perfecture_jp":"滋賀県","jp_add_1":"長浜市","jp_add_2":"高山町"},"5260276":{"post_code":"5260276","prefecture":"SHIGA KEN","city":"NAGAHAMA SHI","town":"TAGAWACHO","perfecture_jp":"滋賀県","jp_add_1":"長浜市","jp_add_2":"田川町"},"5260271":{"post_code":"5260271","prefecture":"SHIGA KEN","city":"NAGAHAMA SHI","town":"TANIGUCHICHO","perfecture_jp":"滋賀県","jp_add_1":"長浜市","jp_add_2":"谷口町"},"5260829":{"post_code":"5260829","prefecture":"SHIGA KEN","city":"NAGAHAMA SHI","town":"TAMURACHO","perfecture_jp":"滋賀県","jp_add_1":"長浜市","jp_add_2":"田村町"},"5260801":{"post_code":"5260801","prefecture":"SHIGA KEN","city":"NAGAHAMA SHI","town":"CHIKUSACHO","perfecture_jp":"滋賀県","jp_add_1":"長浜市","jp_add_2":"千草町"},"5260112":{"post_code":"5260112","prefecture":"SHIGA KEN","city":"NAGAHAMA SHI","town":"TSURUGASHIMA","perfecture_jp":"滋賀県","jp_add_1":"長浜市","jp_add_2":"鶴が島"},"5260209":{"post_code":"5260209","prefecture":"SHIGA KEN","city":"NAGAHAMA SHI","town":"TERASHICHO","perfecture_jp":"滋賀県","jp_add_1":"長浜市","jp_add_2":"寺師町"},"5260045":{"post_code":"5260045","prefecture":"SHIGA KEN","city":"NAGAHAMA SHI","town":"TERADACHO","perfecture_jp":"滋賀県","jp_add_1":"長浜市","jp_add_2":"寺田町"},"5260215":{"post_code":"5260215","prefecture":"SHIGA KEN","city":"NAGAHAMA SHI","town":"TOMECHO","perfecture_jp":"滋賀県","jp_add_1":"長浜市","jp_add_2":"当目町"},"5260212":{"post_code":"5260212","prefecture":"SHIGA KEN","city":"NAGAHAMA SHI","town":"TOKUYAMACHO","perfecture_jp":"滋賀県","jp_add_1":"長浜市","jp_add_2":"徳山町"},"5260064":{"post_code":"5260064","prefecture":"SHIGA KEN","city":"NAGAHAMA SHI","town":"TONOCHO","perfecture_jp":"滋賀県","jp_add_1":"長浜市","jp_add_2":"殿町"},"5260822":{"post_code":"5260822","prefecture":"SHIGA KEN","city":"NAGAHAMA SHI","town":"TOBAKAMICHO","perfecture_jp":"滋賀県","jp_add_1":"長浜市","jp_add_2":"鳥羽上町"},"5260131":{"post_code":"5260131","prefecture":"SHIGA KEN","city":"NAGAHAMA SHI","town":"TONDACHO","perfecture_jp":"滋賀県","jp_add_1":"長浜市","jp_add_2":"富田町"},"5260114":{"post_code":"5260114","prefecture":"SHIGA KEN","city":"NAGAHAMA SHI","town":"NAKAHAMA","perfecture_jp":"滋賀県","jp_add_1":"長浜市","jp_add_2":"中浜"},"5260022":{"post_code":"5260022","prefecture":"SHIGA KEN","city":"NAGAHAMA SHI","town":"NAKAYAMACHO","perfecture_jp":"滋賀県","jp_add_1":"長浜市","jp_add_2":"中山町"},"5260824":{"post_code":"5260824","prefecture":"SHIGA KEN","city":"NAGAHAMA SHI","town":"NAGOSHICHO","perfecture_jp":"滋賀県","jp_add_1":"長浜市","jp_add_2":"名越町"},"5260225":{"post_code":"5260225","prefecture":"SHIGA KEN","city":"NAGAHAMA SHI","town":"NANGOCHO","perfecture_jp":"滋賀県","jp_add_1":"長浜市","jp_add_2":"南郷町"},"5260108":{"post_code":"5260108","prefecture":"SHIGA KEN","city":"NAGAHAMA SHI","town":"NAMBACHO","perfecture_jp":"滋賀県","jp_add_1":"長浜市","jp_add_2":"難波町"},"5260841":{"post_code":"5260841","prefecture":"SHIGA KEN","city":"NAGAHAMA SHI","town":"NIISAKACHO","perfecture_jp":"滋賀県","jp_add_1":"長浜市","jp_add_2":"新栄町"},"5260227":{"post_code":"5260227","prefecture":"SHIGA KEN","city":"NAGAHAMA SHI","town":"NISHIKAZUECHO","perfecture_jp":"滋賀県","jp_add_1":"長浜市","jp_add_2":"西主計町"},"5260803":{"post_code":"5260803","prefecture":"SHIGA KEN","city":"NAGAHAMA SHI","town":"NISHIKOZAKACHO","perfecture_jp":"滋賀県","jp_add_1":"長浜市","jp_add_2":"西上坂町"},"5260101":{"post_code":"5260101","prefecture":"SHIGA KEN","city":"NAGAHAMA SHI","town":"NISHIKORICHO","perfecture_jp":"滋賀県","jp_add_1":"長浜市","jp_add_2":"錦織町"},"5260246":{"post_code":"5260246","prefecture":"SHIGA KEN","city":"NAGAHAMA SHI","town":"NISHISHIMMITA","perfecture_jp":"滋賀県","jp_add_1":"長浜市","jp_add_2":"西新三田"},"5260255":{"post_code":"5260255","prefecture":"SHIGA KEN","city":"NAGAHAMA SHI","town":"NISHINOCHO","perfecture_jp":"滋賀県","jp_add_1":"長浜市","jp_add_2":"西野町"},"5260208":{"post_code":"5260208","prefecture":"SHIGA KEN","city":"NAGAHAMA SHI","town":"NISHIMURACHO","perfecture_jp":"滋賀県","jp_add_1":"長浜市","jp_add_2":"西村町"},"5260107":{"post_code":"5260107","prefecture":"SHIGA KEN","city":"NAGAHAMA SHI","town":"NINOICHO","perfecture_jp":"滋賀県","jp_add_1":"長浜市","jp_add_2":"新居町"},"5260217":{"post_code":"5260217","prefecture":"SHIGA KEN","city":"NAGAHAMA SHI","town":"NOSEKURACHO","perfecture_jp":"滋賀県","jp_add_1":"長浜市","jp_add_2":"乗倉町"},"5260203":{"post_code":"5260203","prefecture":"SHIGA KEN","city":"NAGAHAMA SHI","town":"NOSECHO","perfecture_jp":"滋賀県","jp_add_1":"長浜市","jp_add_2":"野瀬町"},"5260266":{"post_code":"5260266","prefecture":"SHIGA KEN","city":"NAGAHAMA SHI","town":"NODACHO","perfecture_jp":"滋賀県","jp_add_1":"長浜市","jp_add_2":"野田町"},"5260106":{"post_code":"5260106","prefecture":"SHIGA KEN","city":"NAGAHAMA SHI","town":"NODERACHO","perfecture_jp":"滋賀県","jp_add_1":"長浜市","jp_add_2":"野寺町"},"5260236":{"post_code":"5260236","prefecture":"SHIGA KEN","city":"NAGAHAMA SHI","town":"NOMURACHO","perfecture_jp":"滋賀県","jp_add_1":"長浜市","jp_add_2":"野村町"},"5260815":{"post_code":"5260815","prefecture":"SHIGA KEN","city":"NAGAHAMA SHI","town":"HACHIJOCHO","perfecture_jp":"滋賀県","jp_add_1":"長浜市","jp_add_2":"八条町"},"5260124":{"post_code":"5260124","prefecture":"SHIGA KEN","city":"NAGAHAMA SHI","town":"HAYAZAKICHO","perfecture_jp":"滋賀県","jp_add_1":"長浜市","jp_add_2":"早崎町"},"5260842":{"post_code":"5260842","prefecture":"SHIGA KEN","city":"NAGAHAMA SHI","town":"HARUCHIKACHO","perfecture_jp":"滋賀県","jp_add_1":"長浜市","jp_add_2":"春近町"},"5260226":{"post_code":"5260226","prefecture":"SHIGA KEN","city":"NAGAHAMA SHI","town":"HIGASHIKAZUECHO","perfecture_jp":"滋賀県","jp_add_1":"長浜市","jp_add_2":"東主計町"},"5260802":{"post_code":"5260802","prefecture":"SHIGA KEN","city":"NAGAHAMA SHI","town":"HIGASHIKOZAKACHO","perfecture_jp":"滋賀県","jp_add_1":"長浜市","jp_add_2":"東上坂町"},"5260224":{"post_code":"5260224","prefecture":"SHIGA KEN","city":"NAGAHAMA SHI","town":"HIGASHINOCHO","perfecture_jp":"滋賀県","jp_add_1":"長浜市","jp_add_2":"東野町"},"5260035":{"post_code":"5260035","prefecture":"SHIGA KEN","city":"NAGAHAMA SHI","town":"HIRAKATA MINAMICHO","perfecture_jp":"滋賀県","jp_add_1":"長浜市","jp_add_2":"平方南町"},"5260033":{"post_code":"5260033","prefecture":"SHIGA KEN","city":"NAGAHAMA SHI","town":"HIRAKATACHO","perfecture_jp":"滋賀県","jp_add_1":"長浜市","jp_add_2":"平方町"},"5260253":{"post_code":"5260253","prefecture":"SHIGA KEN","city":"NAGAHAMA SHI","town":"HIRATSUKACHO","perfecture_jp":"滋賀県","jp_add_1":"長浜市","jp_add_2":"平塚町"},"5260825":{"post_code":"5260825","prefecture":"SHIGA KEN","city":"NAGAHAMA SHI","town":"FUSECHO","perfecture_jp":"滋賀県","jp_add_1":"長浜市","jp_add_2":"布勢町"},"5260025":{"post_code":"5260025","prefecture":"SHIGA KEN","city":"NAGAHAMA SHI","town":"BUNGICHO","perfecture_jp":"滋賀県","jp_add_1":"長浜市","jp_add_2":"分木町"},"5260002":{"post_code":"5260002","prefecture":"SHIGA KEN","city":"NAGAHAMA SHI","town":"HODECHO","perfecture_jp":"滋賀県","jp_add_1":"長浜市","jp_add_2":"保田町"},"5260223":{"post_code":"5260223","prefecture":"SHIGA KEN","city":"NAGAHAMA SHI","town":"HORAKUJICHO","perfecture_jp":"滋賀県","jp_add_1":"長浜市","jp_add_2":"法楽寺町"},"5260105":{"post_code":"5260105","prefecture":"SHIGA KEN","city":"NAGAHAMA SHI","town":"HOSOECHO","perfecture_jp":"滋賀県","jp_add_1":"長浜市","jp_add_2":"細江町"},"5260812":{"post_code":"5260812","prefecture":"SHIGA KEN","city":"NAGAHAMA SHI","town":"HODACHO","perfecture_jp":"滋賀県","jp_add_1":"長浜市","jp_add_2":"保多町"},"5260813":{"post_code":"5260813","prefecture":"SHIGA KEN","city":"NAGAHAMA SHI","town":"HORIBECHO","perfecture_jp":"滋賀県","jp_add_1":"長浜市","jp_add_2":"堀部町"},"5260821":{"post_code":"5260821","prefecture":"SHIGA KEN","city":"NAGAHAMA SHI","town":"HONJOCHO","perfecture_jp":"滋賀県","jp_add_1":"長浜市","jp_add_2":"本庄町"},"5260125":{"post_code":"5260125","prefecture":"SHIGA KEN","city":"NAGAHAMA SHI","town":"MASUDACHO","perfecture_jp":"滋賀県","jp_add_1":"長浜市","jp_add_2":"益田町"},"5260104":{"post_code":"5260104","prefecture":"SHIGA KEN","city":"NAGAHAMA SHI","town":"MITACHI","perfecture_jp":"滋賀県","jp_add_1":"長浜市","jp_add_2":"御館"},"5260242":{"post_code":"5260242","prefecture":"SHIGA KEN","city":"NAGAHAMA SHI","town":"MITACHO","perfecture_jp":"滋賀県","jp_add_1":"長浜市","jp_add_2":"三田町"},"5260023":{"post_code":"5260023","prefecture":"SHIGA KEN","city":"NAGAHAMA SHI","town":"MITSUYACHO","perfecture_jp":"滋賀県","jp_add_1":"長浜市","jp_add_2":"三ツ矢町"},"5260024":{"post_code":"5260024","prefecture":"SHIGA KEN","city":"NAGAHAMA SHI","town":"MITSUYAMOTOCHO","perfecture_jp":"滋賀県","jp_add_1":"長浜市","jp_add_2":"三ツ矢元町"},"5260067":{"post_code":"5260067","prefecture":"SHIGA KEN","city":"NAGAHAMA SHI","town":"MINATOCHO","perfecture_jp":"滋賀県","jp_add_1":"長浜市","jp_add_2":"港町"},"5260232":{"post_code":"5260232","prefecture":"SHIGA KEN","city":"NAGAHAMA SHI","town":"MINAMIIKECHO","perfecture_jp":"滋賀県","jp_add_1":"長浜市","jp_add_2":"南池町"},"5260843":{"post_code":"5260843","prefecture":"SHIGA KEN","city":"NAGAHAMA SHI","town":"MINAMIKOASHICHO","perfecture_jp":"滋賀県","jp_add_1":"長浜市","jp_add_2":"南小足町"},"5260058":{"post_code":"5260058","prefecture":"SHIGA KEN","city":"NAGAHAMA SHI","town":"MINAMIGOFUKUCHO","perfecture_jp":"滋賀県","jp_add_1":"長浜市","jp_add_2":"南呉服町"},"5260032":{"post_code":"5260032","prefecture":"SHIGA KEN","city":"NAGAHAMA SHI","town":"MINAMITAKADACHO","perfecture_jp":"滋賀県","jp_add_1":"長浜市","jp_add_2":"南高田町"},"5260844":{"post_code":"5260844","prefecture":"SHIGA KEN","city":"NAGAHAMA SHI","town":"MINAMITAZUKECHO","perfecture_jp":"滋賀県","jp_add_1":"長浜市","jp_add_2":"南田附町"},"5260113":{"post_code":"5260113","prefecture":"SHIGA KEN","city":"NAGAHAMA SHI","town":"MINAMIHAMACHO","perfecture_jp":"滋賀県","jp_add_1":"長浜市","jp_add_2":"南浜町"},"5260831":{"post_code":"5260831","prefecture":"SHIGA KEN","city":"NAGAHAMA SHI","town":"MIYASHICHO","perfecture_jp":"滋賀県","jp_add_1":"長浜市","jp_add_2":"宮司町"},"5260053":{"post_code":"5260053","prefecture":"SHIGA KEN","city":"NAGAHAMA SHI","town":"MIYAMAECHO","perfecture_jp":"滋賀県","jp_add_1":"長浜市","jp_add_2":"宮前町"},"5260835":{"post_code":"5260835","prefecture":"SHIGA KEN","city":"NAGAHAMA SHI","town":"MUROCHO","perfecture_jp":"滋賀県","jp_add_1":"長浜市","jp_add_2":"室町"},"5260059":{"post_code":"5260059","prefecture":"SHIGA KEN","city":"NAGAHAMA SHI","town":"MOTOHAMACHO","perfecture_jp":"滋賀県","jp_add_1":"長浜市","jp_add_2":"元浜町"},"5260018":{"post_code":"5260018","prefecture":"SHIGA KEN","city":"NAGAHAMA SHI","town":"MORICHO","perfecture_jp":"滋賀県","jp_add_1":"長浜市","jp_add_2":"森町"},"5260116":{"post_code":"5260116","prefecture":"SHIGA KEN","city":"NAGAHAMA SHI","town":"YAGIHAMACHO","perfecture_jp":"滋賀県","jp_add_1":"長浜市","jp_add_2":"八木浜町"},"5260252":{"post_code":"5260252","prefecture":"SHIGA KEN","city":"NAGAHAMA SHI","town":"YASHIMACHO","perfecture_jp":"滋賀県","jp_add_1":"長浜市","jp_add_2":"八島町"},"5260034":{"post_code":"5260034","prefecture":"SHIGA KEN","city":"NAGAHAMA SHI","town":"YATAKACHO","perfecture_jp":"滋賀県","jp_add_1":"長浜市","jp_add_2":"弥高町"},"5260847":{"post_code":"5260847","prefecture":"SHIGA KEN","city":"NAGAHAMA SHI","town":"YAMASHINACHO","perfecture_jp":"滋賀県","jp_add_1":"長浜市","jp_add_2":"山階町"},"5260257":{"post_code":"5260257","prefecture":"SHIGA KEN","city":"NAGAHAMA SHI","town":"YAMANOMAECHO","perfecture_jp":"滋賀県","jp_add_1":"長浜市","jp_add_2":"山ノ前町"},"5260021":{"post_code":"5260021","prefecture":"SHIGA KEN","city":"NAGAHAMA SHI","town":"YAWATA NAKAYAMACHO","perfecture_jp":"滋賀県","jp_add_1":"長浜市","jp_add_2":"八幡中山町"},"5260031":{"post_code":"5260031","prefecture":"SHIGA KEN","city":"NAGAHAMA SHI","town":"YAWATA HIGASHICHO","perfecture_jp":"滋賀県","jp_add_1":"長浜市","jp_add_2":"八幡東町"},"5260135":{"post_code":"5260135","prefecture":"SHIGA KEN","city":"NAGAHAMA SHI","town":"YUGECHO","perfecture_jp":"滋賀県","jp_add_1":"長浜市","jp_add_2":"弓削町"},"5260245":{"post_code":"5260245","prefecture":"SHIGA KEN","city":"NAGAHAMA SHI","town":"YUSUKICHO","perfecture_jp":"滋賀県","jp_add_1":"長浜市","jp_add_2":"湯次町"},"5260041":{"post_code":"5260041","prefecture":"SHIGA KEN","city":"NAGAHAMA SHI","town":"YOTSUZUKACHO","perfecture_jp":"滋賀県","jp_add_1":"長浜市","jp_add_2":"四ツ塚町"},"5260267":{"post_code":"5260267","prefecture":"SHIGA KEN","city":"NAGAHAMA SHI","town":"RIKIMARUCHO","perfecture_jp":"滋賀県","jp_add_1":"長浜市","jp_add_2":"力丸町"},"5260261":{"post_code":"5260261","prefecture":"SHIGA KEN","city":"NAGAHAMA SHI","town":"RYUANJICHO","perfecture_jp":"滋賀県","jp_add_1":"長浜市","jp_add_2":"竜安寺町"},"5260062":{"post_code":"5260062","prefecture":"SHIGA KEN","city":"NAGAHAMA SHI","town":"RETSUKECHO","perfecture_jp":"滋賀県","jp_add_1":"長浜市","jp_add_2":"列見町"}}