{"5291152":{"post_code":"5291152","prefecture":"SHIGA KEN","city":"HIKONE SHI","town":"ANJIKINAKAMACHI","perfecture_jp":"滋賀県","jp_add_1":"彦根市","jp_add_2":"安食中町"},"5291155":{"post_code":"5291155","prefecture":"SHIGA KEN","city":"HIKONE SHI","town":"KATAYAMACHO","perfecture_jp":"滋賀県","jp_add_1":"彦根市","jp_add_2":"賀田山町"},"5291156":{"post_code":"5291156","prefecture":"SHIGA KEN","city":"HIKONE SHI","town":"KIYOSAKICHO","perfecture_jp":"滋賀県","jp_add_1":"彦根市","jp_add_2":"清崎町"},"5291153":{"post_code":"5291153","prefecture":"SHIGA KEN","city":"HIKONE SHI","town":"TAIDOCHO","perfecture_jp":"滋賀県","jp_add_1":"彦根市","jp_add_2":"太堂町"},"5291154":{"post_code":"5291154","prefecture":"SHIGA KEN","city":"HIKONE SHI","town":"CHIHIROCHO","perfecture_jp":"滋賀県","jp_add_1":"彦根市","jp_add_2":"千尋町"},"5291151":{"post_code":"5291151","prefecture":"SHIGA KEN","city":"HIKONE SHI","town":"NIRECHO","perfecture_jp":"滋賀県","jp_add_1":"彦根市","jp_add_2":"楡町"},"5290113":{"post_code":"5290113","prefecture":"SHIGA KEN","city":"NAGAHAMA SHI","town":"OICHO","perfecture_jp":"滋賀県","jp_add_1":"長浜市","jp_add_2":"大井町"},"5290301":{"post_code":"5290301","prefecture":"SHIGA KEN","city":"NAGAHAMA SHI","town":"ODANIKAMIYAMADACHO","perfecture_jp":"滋賀県","jp_add_1":"長浜市","jp_add_2":"小谷上山田町"},"5290312":{"post_code":"5290312","prefecture":"SHIGA KEN","city":"NAGAHAMA SHI","town":"ODANIGUJOCHO","perfecture_jp":"滋賀県","jp_add_1":"長浜市","jp_add_2":"小谷郡上町"},"5290311":{"post_code":"5290311","prefecture":"SHIGA KEN","city":"NAGAHAMA SHI","town":"ODANIMINOYAMACHO","perfecture_jp":"滋賀県","jp_add_1":"長浜市","jp_add_2":"小谷美濃山町"},"5290304":{"post_code":"5290304","prefecture":"SHIGA KEN","city":"NAGAHAMA SHI","town":"ODANIYONOCHO","perfecture_jp":"滋賀県","jp_add_1":"長浜市","jp_add_2":"小谷丁野町"},"5290131":{"post_code":"5290131","prefecture":"SHIGA KEN","city":"NAGAHAMA SHI","town":"KAKINOKI","perfecture_jp":"滋賀県","jp_add_1":"長浜市","jp_add_2":"柿ノ木"},"5290101":{"post_code":"5290101","prefecture":"SHIGA KEN","city":"NAGAHAMA SHI","town":"KARAKUNICHO","perfecture_jp":"滋賀県","jp_add_1":"長浜市","jp_add_2":"唐国町"},"5290435":{"post_code":"5290435","prefecture":"SHIGA KEN","city":"NAGAHAMA SHI","town":"KINOMOTOCHO AKAO","perfecture_jp":"滋賀県","jp_add_1":"長浜市","jp_add_2":"木之本町赤尾"},"5290421":{"post_code":"5290421","prefecture":"SHIGA KEN","city":"NAGAHAMA SHI","town":"KINOMOTOCHO ATTORI","perfecture_jp":"滋賀県","jp_add_1":"長浜市","jp_add_2":"木之本町アットリ"},"5290412":{"post_code":"5290412","prefecture":"SHIGA KEN","city":"NAGAHAMA SHI","town":"KINOMOTOCHO ISHIMICHI","perfecture_jp":"滋賀県","jp_add_1":"長浜市","jp_add_2":"木之本町石道"},"5290431":{"post_code":"5290431","prefecture":"SHIGA KEN","city":"NAGAHAMA SHI","town":"KINOMOTOCHO OTO","perfecture_jp":"滋賀県","jp_add_1":"長浜市","jp_add_2":"木之本町大音"},"5290415":{"post_code":"5290415","prefecture":"SHIGA KEN","city":"NAGAHAMA SHI","town":"KINOMOTOCHO OMI","perfecture_jp":"滋賀県","jp_add_1":"長浜市","jp_add_2":"木之本町大見"},"5290403":{"post_code":"5290403","prefecture":"SHIGA KEN","city":"NAGAHAMA SHI","town":"KINOMOTOCHO OTOWA","perfecture_jp":"滋賀県","jp_add_1":"長浜市","jp_add_2":"木之本町音羽"},"5290401":{"post_code":"5290401","prefecture":"SHIGA KEN","city":"NAGAHAMA SHI","town":"KINOMOTOCHO KANEIHARA","perfecture_jp":"滋賀県","jp_add_1":"長浜市","jp_add_2":"木之本町金居原"},"5290414":{"post_code":"5290414","prefecture":"SHIGA KEN","city":"NAGAHAMA SHI","town":"KINOMOTOCHO KAWAI","perfecture_jp":"滋賀県","jp_add_1":"長浜市","jp_add_2":"木之本町川合"},"5290434":{"post_code":"5290434","prefecture":"SHIGA KEN","city":"NAGAHAMA SHI","town":"KINOMOTOCHO KITAFUSE","perfecture_jp":"滋賀県","jp_add_1":"長浜市","jp_add_2":"木之本町北布施"},"5290425":{"post_code":"5290425","prefecture":"SHIGA KEN","city":"NAGAHAMA SHI","town":"KINOMOTOCHO KINOMOTO","perfecture_jp":"滋賀県","jp_add_1":"長浜市","jp_add_2":"木之本町木之本"},"5290426":{"post_code":"5290426","prefecture":"SHIGA KEN","city":"NAGAHAMA SHI","town":"KINOMOTOCHO KURODA","perfecture_jp":"滋賀県","jp_add_1":"長浜市","jp_add_2":"木之本町黒田"},"5290413":{"post_code":"5290413","prefecture":"SHIGA KEN","city":"NAGAHAMA SHI","town":"KINOMOTOCHO KOYAMA","perfecture_jp":"滋賀県","jp_add_1":"長浜市","jp_add_2":"木之本町小山"},"5290402":{"post_code":"5290402","prefecture":"SHIGA KEN","city":"NAGAHAMA SHI","town":"KINOMOTOCHO SUGINO","perfecture_jp":"滋賀県","jp_add_1":"長浜市","jp_add_2":"木之本町杉野"},"5290404":{"post_code":"5290404","prefecture":"SHIGA KEN","city":"NAGAHAMA SHI","town":"KINOMOTOCHO SUGIMOTO","perfecture_jp":"滋賀県","jp_add_1":"長浜市","jp_add_2":"木之本町杉本"},"5290423":{"post_code":"5290423","prefecture":"SHIGA KEN","city":"NAGAHAMA SHI","town":"KINOMOTOCHO SENDA","perfecture_jp":"滋賀県","jp_add_1":"長浜市","jp_add_2":"木之本町千田"},"5290432":{"post_code":"5290432","prefecture":"SHIGA KEN","city":"NAGAHAMA SHI","town":"KINOMOTOCHO TAI","perfecture_jp":"滋賀県","jp_add_1":"長浜市","jp_add_2":"木之本町田居"},"5290422":{"post_code":"5290422","prefecture":"SHIGA KEN","city":"NAGAHAMA SHI","town":"KINOMOTOCHO TABE","perfecture_jp":"滋賀県","jp_add_1":"長浜市","jp_add_2":"木之本町田部"},"5290433":{"post_code":"5290433","prefecture":"SHIGA KEN","city":"NAGAHAMA SHI","town":"KINOMOTOCHO NISHIYAMA","perfecture_jp":"滋賀県","jp_add_1":"長浜市","jp_add_2":"木之本町西山"},"5290541":{"post_code":"5290541","prefecture":"SHIGA KEN","city":"NAGAHAMA SHI","town":"KINOMOTOCHO HANNORA(SAKAJIRI)","perfecture_jp":"滋賀県","jp_add_1":"長浜市","jp_add_2":"木之本町飯浦"},"5290437":{"post_code":"5290437","prefecture":"SHIGA KEN","city":"NAGAHAMA SHI","town":"KINOMOTOCHO HANNORA(SONOTA)","perfecture_jp":"滋賀県","jp_add_1":"長浜市","jp_add_2":"木之本町飯浦"},"5290424":{"post_code":"5290424","prefecture":"SHIGA KEN","city":"NAGAHAMA SHI","town":"KINOMOTOCHO HIROSE","perfecture_jp":"滋賀県","jp_add_1":"長浜市","jp_add_2":"木之本町廣瀬"},"5290411":{"post_code":"5290411","prefecture":"SHIGA KEN","city":"NAGAHAMA SHI","town":"KINOMOTOCHO FURUHASHI","perfecture_jp":"滋賀県","jp_add_1":"長浜市","jp_add_2":"木之本町古橋"},"5290436":{"post_code":"5290436","prefecture":"SHIGA KEN","city":"NAGAHAMA SHI","town":"KINOMOTOCHO YAMANASHI","perfecture_jp":"滋賀県","jp_add_1":"長浜市","jp_add_2":"木之本町山梨子"},"5290333":{"post_code":"5290333","prefecture":"SHIGA KEN","city":"NAGAHAMA SHI","town":"KOHOKUIMACHO","perfecture_jp":"滋賀県","jp_add_1":"長浜市","jp_add_2":"湖北今町"},"5290342":{"post_code":"5290342","prefecture":"SHIGA KEN","city":"NAGAHAMA SHI","town":"KOHOKUTAKATACHO","perfecture_jp":"滋賀県","jp_add_1":"長浜市","jp_add_2":"湖北高田町"},"5290332":{"post_code":"5290332","prefecture":"SHIGA KEN","city":"NAGAHAMA SHI","town":"KOHOKUCHO AONA","perfecture_jp":"滋賀県","jp_add_1":"長浜市","jp_add_2":"湖北町青名"},"5290361":{"post_code":"5290361","prefecture":"SHIGA KEN","city":"NAGAHAMA SHI","town":"KOHOKUCHO ISHIKAWA","perfecture_jp":"滋賀県","jp_add_1":"長浜市","jp_add_2":"湖北町石川"},"5290313":{"post_code":"5290313","prefecture":"SHIGA KEN","city":"NAGAHAMA SHI","town":"KOHOKUCHO IBE","perfecture_jp":"滋賀県","jp_add_1":"長浜市","jp_add_2":"湖北町伊部"},"5290365":{"post_code":"5290365","prefecture":"SHIGA KEN","city":"NAGAHAMA SHI","town":"KOHOKUCHO IMANISHI","perfecture_jp":"滋賀県","jp_add_1":"長浜市","jp_add_2":"湖北町今西"},"5290367":{"post_code":"5290367","prefecture":"SHIGA KEN","city":"NAGAHAMA SHI","town":"KOHOKUCHO EBIE","perfecture_jp":"滋賀県","jp_add_1":"長浜市","jp_add_2":"湖北町海老江"},"5290366":{"post_code":"5290366","prefecture":"SHIGA KEN","city":"NAGAHAMA SHI","town":"KOHOKUCHO ENSHOJI","perfecture_jp":"滋賀県","jp_add_1":"長浜市","jp_add_2":"湖北町延勝寺"},"5290343":{"post_code":"5290343","prefecture":"SHIGA KEN","city":"NAGAHAMA SHI","town":"KOHOKUCHO OGURA","perfecture_jp":"滋賀県","jp_add_1":"長浜市","jp_add_2":"湖北町小倉"},"5290364":{"post_code":"5290364","prefecture":"SHIGA KEN","city":"NAGAHAMA SHI","town":"KOHOKUCHO ONOE","perfecture_jp":"滋賀県","jp_add_1":"長浜市","jp_add_2":"湖北町尾上"},"5290321":{"post_code":"5290321","prefecture":"SHIGA KEN","city":"NAGAHAMA SHI","town":"KOHOKUCHO KA","perfecture_jp":"滋賀県","jp_add_1":"長浜市","jp_add_2":"湖北町賀"},"5290316":{"post_code":"5290316","prefecture":"SHIGA KEN","city":"NAGAHAMA SHI","town":"KOHOKUCHO KAWAKE","perfecture_jp":"滋賀県","jp_add_1":"長浜市","jp_add_2":"湖北町河毛"},"5290322":{"post_code":"5290322","prefecture":"SHIGA KEN","city":"NAGAHAMA SHI","town":"KOHOKUCHO KOIMA","perfecture_jp":"滋賀県","jp_add_1":"長浜市","jp_add_2":"湖北町小今"},"5290352":{"post_code":"5290352","prefecture":"SHIGA KEN","city":"NAGAHAMA SHI","town":"KOHOKUCHO GONOTSUBO","perfecture_jp":"滋賀県","jp_add_1":"長浜市","jp_add_2":"湖北町五坪"},"5290334":{"post_code":"5290334","prefecture":"SHIGA KEN","city":"NAGAHAMA SHI","town":"KOHOKUCHO SAWA","perfecture_jp":"滋賀県","jp_add_1":"長浜市","jp_add_2":"湖北町沢"},"5290345":{"post_code":"5290345","prefecture":"SHIGA KEN","city":"NAGAHAMA SHI","town":"KOHOKUCHO DAIANJI","perfecture_jp":"滋賀県","jp_add_1":"長浜市","jp_add_2":"湖北町大安寺"},"5290353":{"post_code":"5290353","prefecture":"SHIGA KEN","city":"NAGAHAMA SHI","town":"KOHOKUCHO TANAKA","perfecture_jp":"滋賀県","jp_add_1":"長浜市","jp_add_2":"湖北町田中"},"5290362":{"post_code":"5290362","prefecture":"SHIGA KEN","city":"NAGAHAMA SHI","town":"KOHOKUCHO TSUNOSATO","perfecture_jp":"滋賀県","jp_add_1":"長浜市","jp_add_2":"湖北町津里"},"5290314":{"post_code":"5290314","prefecture":"SHIGA KEN","city":"NAGAHAMA SHI","town":"KOHOKUCHO TODOME","perfecture_jp":"滋賀県","jp_add_1":"長浜市","jp_add_2":"湖北町留目"},"5290335":{"post_code":"5290335","prefecture":"SHIGA KEN","city":"NAGAHAMA SHI","town":"KOHOKUCHO NEKOGUCHI","perfecture_jp":"滋賀県","jp_add_1":"長浜市","jp_add_2":"湖北町猫口"},"5290341":{"post_code":"5290341","prefecture":"SHIGA KEN","city":"NAGAHAMA SHI","town":"KOHOKUCHO HAYAMI","perfecture_jp":"滋賀県","jp_add_1":"長浜市","jp_add_2":"湖北町速水"},"5290303":{"post_code":"5290303","prefecture":"SHIGA KEN","city":"NAGAHAMA SHI","town":"KOHOKUCHO FUTAMATA","perfecture_jp":"滋賀県","jp_add_1":"長浜市","jp_add_2":"湖北町二俣"},"5290315":{"post_code":"5290315","prefecture":"SHIGA KEN","city":"NAGAHAMA SHI","town":"KOHOKUCHO BESSHIYO","perfecture_jp":"滋賀県","jp_add_1":"長浜市","jp_add_2":"湖北町別所"},"5290346":{"post_code":"5290346","prefecture":"SHIGA KEN","city":"NAGAHAMA SHI","town":"KOHOKUCHO MINAMIHAYAMI","perfecture_jp":"滋賀県","jp_add_1":"長浜市","jp_add_2":"湖北町南速水"},"5290344":{"post_code":"5290344","prefecture":"SHIGA KEN","city":"NAGAHAMA SHI","town":"KOHOKUCHO MOTARI","perfecture_jp":"滋賀県","jp_add_1":"長浜市","jp_add_2":"湖北町馬渡"},"5290354":{"post_code":"5290354","prefecture":"SHIGA KEN","city":"NAGAHAMA SHI","town":"KOHOKUCHO YAMAMOTO","perfecture_jp":"滋賀県","jp_add_1":"長浜市","jp_add_2":"湖北町山本"},"5290317":{"post_code":"5290317","prefecture":"SHIGA KEN","city":"NAGAHAMA SHI","town":"KOHOKUCHO YAMAWAKI","perfecture_jp":"滋賀県","jp_add_1":"長浜市","jp_add_2":"湖北町山脇"},"5290331":{"post_code":"5290331","prefecture":"SHIGA KEN","city":"NAGAHAMA SHI","town":"KOHOKUCHO YOKAICHI","perfecture_jp":"滋賀県","jp_add_1":"長浜市","jp_add_2":"湖北町八日市"},"5290363":{"post_code":"5290363","prefecture":"SHIGA KEN","city":"NAGAHAMA SHI","town":"KOHOKUHIGASHIONOECHO","perfecture_jp":"滋賀県","jp_add_1":"長浜市","jp_add_2":"湖北東尾上町"},"5290141":{"post_code":"5290141","prefecture":"SHIGA KEN","city":"NAGAHAMA SHI","town":"GOMURA","perfecture_jp":"滋賀県","jp_add_1":"長浜市","jp_add_2":"五村"},"5290121":{"post_code":"5290121","prefecture":"SHIGA KEN","city":"NAGAHAMA SHI","town":"SAKURACHO","perfecture_jp":"滋賀県","jp_add_1":"長浜市","jp_add_2":"桜町"},"5290302":{"post_code":"5290302","prefecture":"SHIGA KEN","city":"NAGAHAMA SHI","town":"SHIMOYAMADA","perfecture_jp":"滋賀県","jp_add_1":"長浜市","jp_add_2":"下山田"},"5290133":{"post_code":"5290133","prefecture":"SHIGA KEN","city":"NAGAHAMA SHI","town":"SHINASAHIMACHI","perfecture_jp":"滋賀県","jp_add_1":"長浜市","jp_add_2":"新旭町"},"5290122":{"post_code":"5290122","prefecture":"SHIGA KEN","city":"NAGAHAMA SHI","town":"SU","perfecture_jp":"滋賀県","jp_add_1":"長浜市","jp_add_2":"酢"},"5290351":{"post_code":"5290351","prefecture":"SHIGA KEN","city":"NAGAHAMA SHI","town":"DAIKOJICHO","perfecture_jp":"滋賀県","jp_add_1":"長浜市","jp_add_2":"大光寺町"},"5290144":{"post_code":"5290144","prefecture":"SHIGA KEN","city":"NAGAHAMA SHI","town":"DAIJICHO","perfecture_jp":"滋賀県","jp_add_1":"長浜市","jp_add_2":"大寺町"},"5290222":{"post_code":"5290222","prefecture":"SHIGA KEN","city":"NAGAHAMA SHI","town":"TAKATSUKICHO AMENOMORI","perfecture_jp":"滋賀県","jp_add_1":"長浜市","jp_add_2":"高月町雨森"},"5290203":{"post_code":"5290203","prefecture":"SHIGA KEN","city":"NAGAHAMA SHI","town":"TAKATSUKICHO ISONO","perfecture_jp":"滋賀県","jp_add_1":"長浜市","jp_add_2":"高月町磯野"},"5290212":{"post_code":"5290212","prefecture":"SHIGA KEN","city":"NAGAHAMA SHI","town":"TAKATSUKICHO INOKUCHI","perfecture_jp":"滋賀県","jp_add_1":"長浜市","jp_add_2":"高月町井口"},"5290251":{"post_code":"5290251","prefecture":"SHIGA KEN","city":"NAGAHAMA SHI","town":"TAKATSUKICHO UNE","perfecture_jp":"滋賀県","jp_add_1":"長浜市","jp_add_2":"高月町宇根"},"5290232":{"post_code":"5290232","prefecture":"SHIGA KEN","city":"NAGAHAMA SHI","town":"TAKATSUKICHO OCHIKAWA","perfecture_jp":"滋賀県","jp_add_1":"長浜市","jp_add_2":"高月町落川"},"5290215":{"post_code":"5290215","prefecture":"SHIGA KEN","city":"NAGAHAMA SHI","town":"TAKATSUKICHO OYAMA","perfecture_jp":"滋賀県","jp_add_1":"長浜市","jp_add_2":"高月町尾山"},"5290234":{"post_code":"5290234","prefecture":"SHIGA KEN","city":"NAGAHAMA SHI","town":"TAKATSUKICHO KASHIHARA","perfecture_jp":"滋賀県","jp_add_1":"長浜市","jp_add_2":"高月町柏原"},"5290272":{"post_code":"5290272","prefecture":"SHIGA KEN","city":"NAGAHAMA SHI","town":"TAKATSUKICHO KATAYAMA","perfecture_jp":"滋賀県","jp_add_1":"長浜市","jp_add_2":"高月町片山"},"5290205":{"post_code":"5290205","prefecture":"SHIGA KEN","city":"NAGAHAMA SHI","town":"TAKATSUKICHO KARAKAWA","perfecture_jp":"滋賀県","jp_add_1":"長浜市","jp_add_2":"高月町唐川"},"5290271":{"post_code":"5290271","prefecture":"SHIGA KEN","city":"NAGAHAMA SHI","town":"TAKATSUKICHO KUMANO","perfecture_jp":"滋賀県","jp_add_1":"長浜市","jp_add_2":"高月町熊野"},"5290275":{"post_code":"5290275","prefecture":"SHIGA KEN","city":"NAGAHAMA SHI","town":"TAKATSUKICHO SHIGENORI","perfecture_jp":"滋賀県","jp_add_1":"長浜市","jp_add_2":"高月町重則"},"5290241":{"post_code":"5290241","prefecture":"SHIGA KEN","city":"NAGAHAMA SHI","town":"TAKATSUKICHO TAKATSUKI","perfecture_jp":"滋賀県","jp_add_1":"長浜市","jp_add_2":"高月町高月"},"5290221":{"post_code":"5290221","prefecture":"SHIGA KEN","city":"NAGAHAMA SHI","town":"TAKATSUKICHO TAKANO","perfecture_jp":"滋賀県","jp_add_1":"長浜市","jp_add_2":"高月町高野"},"5290233":{"post_code":"5290233","prefecture":"SHIGA KEN","city":"NAGAHAMA SHI","town":"TAKATSUKICHO DOGANJI","perfecture_jp":"滋賀県","jp_add_1":"長浜市","jp_add_2":"高月町渡岸寺"},"5290253":{"post_code":"5290253","prefecture":"SHIGA KEN","city":"NAGAHAMA SHI","town":"TAKATSUKICHO NISHIATSUJI","perfecture_jp":"滋賀県","jp_add_1":"長浜市","jp_add_2":"高月町西阿閉"},"5290273":{"post_code":"5290273","prefecture":"SHIGA KEN","city":"NAGAHAMA SHI","town":"TAKATSUKICHO NISHINO","perfecture_jp":"滋賀県","jp_add_1":"長浜市","jp_add_2":"高月町西野"},"5290262":{"post_code":"5290262","prefecture":"SHIGA KEN","city":"NAGAHAMA SHI","town":"TAKATSUKICHO NISHIMONOBE","perfecture_jp":"滋賀県","jp_add_1":"長浜市","jp_add_2":"高月町西物部"},"5290265":{"post_code":"5290265","prefecture":"SHIGA KEN","city":"NAGAHAMA SHI","town":"TAKATSUKICHO NISHIYANAGINO","perfecture_jp":"滋賀県","jp_add_1":"長浜市","jp_add_2":"高月町西柳野"},"5290252":{"post_code":"5290252","prefecture":"SHIGA KEN","city":"NAGAHAMA SHI","town":"TAKATSUKICHO HIGASHIATSUJI","perfecture_jp":"滋賀県","jp_add_1":"長浜市","jp_add_2":"高月町東阿閉"},"5290202":{"post_code":"5290202","prefecture":"SHIGA KEN","city":"NAGAHAMA SHI","town":"TAKATSUKICHO HIGASHITAKATA","perfecture_jp":"滋賀県","jp_add_1":"長浜市","jp_add_2":"高月町東高田"},"5290261":{"post_code":"5290261","prefecture":"SHIGA KEN","city":"NAGAHAMA SHI","town":"TAKATSUKICHO HIGASHIMONOBE","perfecture_jp":"滋賀県","jp_add_1":"長浜市","jp_add_2":"高月町東物部"},"5290263":{"post_code":"5290263","prefecture":"SHIGA KEN","city":"NAGAHAMA SHI","town":"TAKATSUKICHO HIGASHIYANAGINO","perfecture_jp":"滋賀県","jp_add_1":"長浜市","jp_add_2":"高月町東柳野"},"5290204":{"post_code":"5290204","prefecture":"SHIGA KEN","city":"NAGAHAMA SHI","town":"TAKATSUKICHO FUSE","perfecture_jp":"滋賀県","jp_add_1":"長浜市","jp_add_2":"高月町布施"},"5290211":{"post_code":"5290211","prefecture":"SHIGA KEN","city":"NAGAHAMA SHI","town":"TAKATSUKICHO HOENJI","perfecture_jp":"滋賀県","jp_add_1":"長浜市","jp_add_2":"高月町保延寺"},"5290214":{"post_code":"5290214","prefecture":"SHIGA KEN","city":"NAGAHAMA SHI","town":"TAKATSUKICHO HORADO","perfecture_jp":"滋賀県","jp_add_1":"長浜市","jp_add_2":"高月町洞戸"},"5290223":{"post_code":"5290223","prefecture":"SHIGA KEN","city":"NAGAHAMA SHI","town":"TAKATSUKICHO MAKE","perfecture_jp":"滋賀県","jp_add_1":"長浜市","jp_add_2":"高月町馬上"},"5290274":{"post_code":"5290274","prefecture":"SHIGA KEN","city":"NAGAHAMA SHI","town":"TAKATSUKICHO MATSUO","perfecture_jp":"滋賀県","jp_add_1":"長浜市","jp_add_2":"高月町松尾"},"5290213":{"post_code":"5290213","prefecture":"SHIGA KEN","city":"NAGAHAMA SHI","town":"TAKATSUKICHO MOCHIDERA","perfecture_jp":"滋賀県","jp_add_1":"長浜市","jp_add_2":"高月町持寺"},"5290231":{"post_code":"5290231","prefecture":"SHIGA KEN","city":"NAGAHAMA SHI","town":"TAKATSUKICHO MORIMOTO","perfecture_jp":"滋賀県","jp_add_1":"長浜市","jp_add_2":"高月町森本"},"5290264":{"post_code":"5290264","prefecture":"SHIGA KEN","city":"NAGAHAMA SHI","town":"TAKATSUKICHO YANAGINONAKA","perfecture_jp":"滋賀県","jp_add_1":"長浜市","jp_add_2":"高月町柳野中"},"5290201":{"post_code":"5290201","prefecture":"SHIGA KEN","city":"NAGAHAMA SHI","town":"TAKATSUKICHO YOKOYAMA","perfecture_jp":"滋賀県","jp_add_1":"長浜市","jp_add_2":"高月町横山"},"5290142":{"post_code":"5290142","prefecture":"SHIGA KEN","city":"NAGAHAMA SHI","town":"TACHO","perfecture_jp":"滋賀県","jp_add_1":"長浜市","jp_add_2":"田町"},"5290102":{"post_code":"5290102","prefecture":"SHIGA KEN","city":"NAGAHAMA SHI","town":"TSUKIGASECHO","perfecture_jp":"滋賀県","jp_add_1":"長浜市","jp_add_2":"月ヶ瀬町"},"5290132":{"post_code":"5290132","prefecture":"SHIGA KEN","city":"NAGAHAMA SHI","town":"NAGATACHO","perfecture_jp":"滋賀県","jp_add_1":"長浜市","jp_add_2":"長田町"},"5290103":{"post_code":"5290103","prefecture":"SHIGA KEN","city":"NAGAHAMA SHI","town":"NAKANOCHO","perfecture_jp":"滋賀県","jp_add_1":"長浜市","jp_add_2":"中野町"},"5290721":{"post_code":"5290721","prefecture":"SHIGA KEN","city":"NAGAHAMA SHI","town":"NISHIAZAICHO OURA","perfecture_jp":"滋賀県","jp_add_1":"長浜市","jp_add_2":"西浅井町大浦"},"5290714":{"post_code":"5290714","prefecture":"SHIGA KEN","city":"NAGAHAMA SHI","town":"NISHIAZAICHO OYAMA","perfecture_jp":"滋賀県","jp_add_1":"長浜市","jp_add_2":"西浅井町小山"},"5290708":{"post_code":"5290708","prefecture":"SHIGA KEN","city":"NAGAHAMA SHI","town":"NISHIAZAICHO KUTSUKAKE","perfecture_jp":"滋賀県","jp_add_1":"長浜市","jp_add_2":"西浅井町沓掛"},"5290725":{"post_code":"5290725","prefecture":"SHIGA KEN","city":"NAGAHAMA SHI","town":"NISHIAZAICHO KUROYAMA","perfecture_jp":"滋賀県","jp_add_1":"長浜市","jp_add_2":"西浅井町黒山"},"5290704":{"post_code":"5290704","prefecture":"SHIGA KEN","city":"NAGAHAMA SHI","town":"NISHIAZAICHO SHIOTSUNAKA","perfecture_jp":"滋賀県","jp_add_1":"長浜市","jp_add_2":"西浅井町塩津中"},"5290701":{"post_code":"5290701","prefecture":"SHIGA KEN","city":"NAGAHAMA SHI","town":"NISHIAZAICHO SHIOTSUHAMA","perfecture_jp":"滋賀県","jp_add_1":"長浜市","jp_add_2":"西浅井町塩津浜"},"5290707":{"post_code":"5290707","prefecture":"SHIGA KEN","city":"NAGAHAMA SHI","town":"NISHIAZAICHO SHUFUKUJI","perfecture_jp":"滋賀県","jp_add_1":"長浜市","jp_add_2":"西浅井町集福寺"},"5290722":{"post_code":"5290722","prefecture":"SHIGA KEN","city":"NAGAHAMA SHI","town":"NISHIAZAICHO SHO","perfecture_jp":"滋賀県","jp_add_1":"長浜市","jp_add_2":"西浅井町庄"},"5290726":{"post_code":"5290726","prefecture":"SHIGA KEN","city":"NAGAHAMA SHI","town":"NISHIAZAICHO SUGAURA","perfecture_jp":"滋賀県","jp_add_1":"長浜市","jp_add_2":"西浅井町菅浦"},"5290712":{"post_code":"5290712","prefecture":"SHIGA KEN","city":"NAGAHAMA SHI","town":"NISHIAZAICHO TSUKIDE","perfecture_jp":"滋賀県","jp_add_1":"長浜市","jp_add_2":"西浅井町月出"},"5290723":{"post_code":"5290723","prefecture":"SHIGA KEN","city":"NAGAHAMA SHI","town":"NISHIAZAICHO NAKA","perfecture_jp":"滋賀県","jp_add_1":"長浜市","jp_add_2":"西浅井町中"},"5290703":{"post_code":"5290703","prefecture":"SHIGA KEN","city":"NAGAHAMA SHI","town":"NISHIAZAICHO NOZAKA","perfecture_jp":"滋賀県","jp_add_1":"長浜市","jp_add_2":"西浅井町野坂"},"5290713":{"post_code":"5290713","prefecture":"SHIGA KEN","city":"NAGAHAMA SHI","town":"NISHIAZAICHO HATABE","perfecture_jp":"滋賀県","jp_add_1":"長浜市","jp_add_2":"西浅井町八田部"},"5290702":{"post_code":"5290702","prefecture":"SHIGA KEN","city":"NAGAHAMA SHI","town":"NISHIAZAICHO HORIYAMA","perfecture_jp":"滋賀県","jp_add_1":"長浜市","jp_add_2":"西浅井町祝山"},"5290711":{"post_code":"5290711","prefecture":"SHIGA KEN","city":"NAGAHAMA SHI","town":"NISHIAZAICHO YANOKUMA","perfecture_jp":"滋賀県","jp_add_1":"長浜市","jp_add_2":"西浅井町岩熊"},"5290724":{"post_code":"5290724","prefecture":"SHIGA KEN","city":"NAGAHAMA SHI","town":"NISHIAZAICHO YAMAKADO","perfecture_jp":"滋賀県","jp_add_1":"長浜市","jp_add_2":"西浅井町山門"},"5290715":{"post_code":"5290715","prefecture":"SHIGA KEN","city":"NAGAHAMA SHI","town":"NISHIAZAICHO YAMADA","perfecture_jp":"滋賀県","jp_add_1":"長浜市","jp_add_2":"西浅井町山田"},"5290706":{"post_code":"5290706","prefecture":"SHIGA KEN","city":"NAGAHAMA SHI","town":"NISHIAZAICHO YO","perfecture_jp":"滋賀県","jp_add_1":"長浜市","jp_add_2":"西浅井町余"},"5290705":{"post_code":"5290705","prefecture":"SHIGA KEN","city":"NAGAHAMA SHI","town":"NISHIAZAICHO YOKONAMI","perfecture_jp":"滋賀県","jp_add_1":"長浜市","jp_add_2":"西浅井町横波"},"5290123":{"post_code":"5290123","prefecture":"SHIGA KEN","city":"NAGAHAMA SHI","town":"NISHIOICHO","perfecture_jp":"滋賀県","jp_add_1":"長浜市","jp_add_2":"西大井町"},"5290143":{"post_code":"5290143","prefecture":"SHIGA KEN","city":"NAGAHAMA SHI","town":"HONCHO","perfecture_jp":"滋賀県","jp_add_1":"長浜市","jp_add_2":"本町"},"5290111":{"post_code":"5290111","prefecture":"SHIGA KEN","city":"NAGAHAMA SHI","town":"MIKAWACHO","perfecture_jp":"滋賀県","jp_add_1":"長浜市","jp_add_2":"三川町"},"5290112":{"post_code":"5290112","prefecture":"SHIGA KEN","city":"NAGAHAMA SHI","town":"MIYABECHO","perfecture_jp":"滋賀県","jp_add_1":"長浜市","jp_add_2":"宮部町"},"5290536":{"post_code":"5290536","prefecture":"SHIGA KEN","city":"NAGAHAMA SHI","town":"YOGOCHO IKEHARA","perfecture_jp":"滋賀県","jp_add_1":"長浜市","jp_add_2":"余呉町池原"},"5290535":{"post_code":"5290535","prefecture":"SHIGA KEN","city":"NAGAHAMA SHI","town":"YOGOCHO IMAICHI","perfecture_jp":"滋賀県","jp_add_1":"長浜市","jp_add_2":"余呉町今市"},"5290534":{"post_code":"5290534","prefecture":"SHIGA KEN","city":"NAGAHAMA SHI","town":"YOGOCHO OTANI","perfecture_jp":"滋賀県","jp_add_1":"長浜市","jp_add_2":"余呉町小谷"},"5290503":{"post_code":"5290503","prefecture":"SHIGA KEN","city":"NAGAHAMA SHI","town":"YOGOCHO OKUKAWANAMI","perfecture_jp":"滋賀県","jp_add_1":"長浜市","jp_add_2":"余呉町奥川並"},"5290502":{"post_code":"5290502","prefecture":"SHIGA KEN","city":"NAGAHAMA SHI","town":"YOGOCHO OBANASHI","perfecture_jp":"滋賀県","jp_add_1":"長浜市","jp_add_2":"余呉町尾羽梨"},"5290505":{"post_code":"5290505","prefecture":"SHIGA KEN","city":"NAGAHAMA SHI","town":"YOGOCHO OHARA","perfecture_jp":"滋賀県","jp_add_1":"長浜市","jp_add_2":"余呉町小原"},"5290512":{"post_code":"5290512","prefecture":"SHIGA KEN","city":"NAGAHAMA SHI","town":"YOGOCHO KAMINYU","perfecture_jp":"滋賀県","jp_add_1":"長浜市","jp_add_2":"余呉町上丹生"},"5290523":{"post_code":"5290523","prefecture":"SHIGA KEN","city":"NAGAHAMA SHI","town":"YOGOCHO KAWANAMI","perfecture_jp":"滋賀県","jp_add_1":"長浜市","jp_add_2":"余呉町川並"},"5290526":{"post_code":"5290526","prefecture":"SHIGA KEN","city":"NAGAHAMA SHI","town":"YOGOCHO KUNIYASU","perfecture_jp":"滋賀県","jp_add_1":"長浜市","jp_add_2":"余呉町国安"},"5290522":{"post_code":"5290522","prefecture":"SHIGA KEN","city":"NAGAHAMA SHI","town":"YOGOCHO SAKAGUCHI","perfecture_jp":"滋賀県","jp_add_1":"長浜市","jp_add_2":"余呉町坂口"},"5290514":{"post_code":"5290514","prefecture":"SHIGA KEN","city":"NAGAHAMA SHI","town":"YOGOCHO SHIMONYU","perfecture_jp":"滋賀県","jp_add_1":"長浜市","jp_add_2":"余呉町下丹生"},"5290521":{"post_code":"5290521","prefecture":"SHIGA KEN","city":"NAGAHAMA SHI","town":"YOGOCHO SHIMOYOGO","perfecture_jp":"滋賀県","jp_add_1":"長浜市","jp_add_2":"余呉町下余呉"},"5290537":{"post_code":"5290537","prefecture":"SHIGA KEN","city":"NAGAHAMA SHI","town":"YOGOCHO SHINDO","perfecture_jp":"滋賀県","jp_add_1":"長浜市","jp_add_2":"余呉町新堂"},"5290511":{"post_code":"5290511","prefecture":"SHIGA KEN","city":"NAGAHAMA SHI","town":"YOGOCHO SUGANAMI","perfecture_jp":"滋賀県","jp_add_1":"長浜市","jp_add_2":"余呉町菅並"},"5290513":{"post_code":"5290513","prefecture":"SHIGA KEN","city":"NAGAHAMA SHI","town":"YOGOCHO SURUSUMI","perfecture_jp":"滋賀県","jp_add_1":"長浜市","jp_add_2":"余呉町摺墨"},"5290504":{"post_code":"5290504","prefecture":"SHIGA KEN","city":"NAGAHAMA SHI","town":"YOGOCHO TADO","perfecture_jp":"滋賀県","jp_add_1":"長浜市","jp_add_2":"余呉町田戸"},"5290532":{"post_code":"5290532","prefecture":"SHIGA KEN","city":"NAGAHAMA SHI","town":"YOGOCHO TSUBAKIZAKA","perfecture_jp":"滋賀県","jp_add_1":"長浜市","jp_add_2":"余呉町椿坂"},"5290531":{"post_code":"5290531","prefecture":"SHIGA KEN","city":"NAGAHAMA SHI","town":"YOGOCHO NAKANOKAWACHI","perfecture_jp":"滋賀県","jp_add_1":"長浜市","jp_add_2":"余呉町中河内"},"5290515":{"post_code":"5290515","prefecture":"SHIGA KEN","city":"NAGAHAMA SHI","town":"YOGOCHO NAKANOGO","perfecture_jp":"滋賀県","jp_add_1":"長浜市","jp_add_2":"余呉町中之郷"},"5290501":{"post_code":"5290501","prefecture":"SHIGA KEN","city":"NAGAHAMA SHI","town":"YOGOCHO HARIKAWA","perfecture_jp":"滋賀県","jp_add_1":"長浜市","jp_add_2":"余呉町針川"},"5290527":{"post_code":"5290527","prefecture":"SHIGA KEN","city":"NAGAHAMA SHI","town":"YOGOCHO HIGASHINO","perfecture_jp":"滋賀県","jp_add_1":"長浜市","jp_add_2":"余呉町東野"},"5290525":{"post_code":"5290525","prefecture":"SHIGA KEN","city":"NAGAHAMA SHI","town":"YOGOCHO FUMURO","perfecture_jp":"滋賀県","jp_add_1":"長浜市","jp_add_2":"余呉町文室"},"5290524":{"post_code":"5290524","prefecture":"SHIGA KEN","city":"NAGAHAMA SHI","town":"YOGOCHO YATO","perfecture_jp":"滋賀県","jp_add_1":"長浜市","jp_add_2":"余呉町八戸"},"5290533":{"post_code":"5290533","prefecture":"SHIGA KEN","city":"NAGAHAMA SHI","town":"YOGOCHO YANAGASE","perfecture_jp":"滋賀県","jp_add_1":"長浜市","jp_add_2":"余呉町柳ケ瀬"},"5290506":{"post_code":"5290506","prefecture":"SHIGA KEN","city":"NAGAHAMA SHI","town":"YOGOCHO WASHIMI","perfecture_jp":"滋賀県","jp_add_1":"長浜市","jp_add_2":"余呉町鷲見"},"5291811":{"post_code":"5291811","prefecture":"SHIGA KEN","city":"KOKA SHI","town":"SHIGARAKICHO EDA","perfecture_jp":"滋賀県","jp_add_1":"甲賀市","jp_add_2":"信楽町江田"},"5291833":{"post_code":"5291833","prefecture":"SHIGA KEN","city":"KOKA SHI","town":"SHIGARAKICHO OGAWA","perfecture_jp":"滋賀県","jp_add_1":"甲賀市","jp_add_2":"信楽町小川"},"5291832":{"post_code":"5291832","prefecture":"SHIGA KEN","city":"KOKA SHI","town":"SHIGARAKICHO OGAWADE","perfecture_jp":"滋賀県","jp_add_1":"甲賀市","jp_add_2":"信楽町小川出"},"5291841":{"post_code":"5291841","prefecture":"SHIGA KEN","city":"KOKA SHI","town":"SHIGARAKICHO KAMIASAMIYA","perfecture_jp":"滋賀県","jp_add_1":"甲賀市","jp_add_2":"信楽町上朝宮"},"5291802":{"post_code":"5291802","prefecture":"SHIGA KEN","city":"KOKA SHI","town":"SHIGARAKICHO KINOSE","perfecture_jp":"滋賀県","jp_add_1":"甲賀市","jp_add_2":"信楽町黄瀬"},"5291812":{"post_code":"5291812","prefecture":"SHIGA KEN","city":"KOKA SHI","town":"SHIGARAKICHO KOYAMA","perfecture_jp":"滋賀県","jp_add_1":"甲賀市","jp_add_2":"信楽町神山"},"5291842":{"post_code":"5291842","prefecture":"SHIGA KEN","city":"KOKA SHI","town":"SHIGARAKICHO SHIMOASAMIYA","perfecture_jp":"滋賀県","jp_add_1":"甲賀市","jp_add_2":"信楽町下朝宮"},"5291834":{"post_code":"5291834","prefecture":"SHIGA KEN","city":"KOKA SHI","town":"SHIGARAKICHO SUGIYAMA","perfecture_jp":"滋賀県","jp_add_1":"甲賀市","jp_add_2":"信楽町杉山"},"5291814":{"post_code":"5291814","prefecture":"SHIGA KEN","city":"KOKA SHI","town":"SHIGARAKICHO TASHIRO","perfecture_jp":"滋賀県","jp_add_1":"甲賀市","jp_add_2":"信楽町田代"},"5291821":{"post_code":"5291821","prefecture":"SHIGA KEN","city":"KOKA SHI","town":"SHIGARAKICHO TARAO","perfecture_jp":"滋賀県","jp_add_1":"甲賀市","jp_add_2":"信楽町多羅尾"},"5291804":{"post_code":"5291804","prefecture":"SHIGA KEN","city":"KOKA SHI","town":"SHIGARAKICHO CHOKUSHI","perfecture_jp":"滋賀県","jp_add_1":"甲賀市","jp_add_2":"信楽町勅旨"},"5291835":{"post_code":"5291835","prefecture":"SHIGA KEN","city":"KOKA SHI","town":"SHIGARAKICHO NAKANO","perfecture_jp":"滋賀県","jp_add_1":"甲賀市","jp_add_2":"信楽町中野"},"5291851":{"post_code":"5291851","prefecture":"SHIGA KEN","city":"KOKA SHI","town":"SHIGARAKICHO NAGANO","perfecture_jp":"滋賀県","jp_add_1":"甲賀市","jp_add_2":"信楽町長野"},"5291831":{"post_code":"5291831","prefecture":"SHIGA KEN","city":"KOKA SHI","town":"SHIGARAKICHO NISHI","perfecture_jp":"滋賀県","jp_add_1":"甲賀市","jp_add_2":"信楽町西"},"5291813":{"post_code":"5291813","prefecture":"SHIGA KEN","city":"KOKA SHI","town":"SHIGARAKICHO HATA","perfecture_jp":"滋賀県","jp_add_1":"甲賀市","jp_add_2":"信楽町畑"},"5291836":{"post_code":"5291836","prefecture":"SHIGA KEN","city":"KOKA SHI","town":"SHIGARAKICHO HOSOHARA","perfecture_jp":"滋賀県","jp_add_1":"甲賀市","jp_add_2":"信楽町柞原"},"5291803":{"post_code":"5291803","prefecture":"SHIGA KEN","city":"KOKA SHI","town":"SHIGARAKICHO MAKI","perfecture_jp":"滋賀県","jp_add_1":"甲賀市","jp_add_2":"信楽町牧"},"5291843":{"post_code":"5291843","prefecture":"SHIGA KEN","city":"KOKA SHI","town":"SHIGARAKICHO MIYAJIRI","perfecture_jp":"滋賀県","jp_add_1":"甲賀市","jp_add_2":"信楽町宮尻"},"5291801":{"post_code":"5291801","prefecture":"SHIGA KEN","city":"KOKA SHI","town":"SHIGARAKICHO MIYAMACHI","perfecture_jp":"滋賀県","jp_add_1":"甲賀市","jp_add_2":"信楽町宮町"},"5291501":{"post_code":"5291501","prefecture":"SHIGA KEN","city":"HIGASHIOMI SHI","town":"ISHIDOCHO","perfecture_jp":"滋賀県","jp_add_1":"東近江市","jp_add_2":"石塔町"},"5291533":{"post_code":"5291533","prefecture":"SHIGA KEN","city":"HIGASHIOMI SHI","town":"ICHIKOKICHO","perfecture_jp":"滋賀県","jp_add_1":"東近江市","jp_add_2":"市子沖町"},"5291531":{"post_code":"5291531","prefecture":"SHIGA KEN","city":"HIGASHIOMI SHI","town":"ICHIKOKAWARACHO","perfecture_jp":"滋賀県","jp_add_1":"東近江市","jp_add_2":"市子川原町"},"5291537":{"post_code":"5291537","prefecture":"SHIGA KEN","city":"HIGASHIOMI SHI","town":"ICHIKOTONOCHO","perfecture_jp":"滋賀県","jp_add_1":"東近江市","jp_add_2":"市子殿町"},"5291532":{"post_code":"5291532","prefecture":"SHIGA KEN","city":"HIGASHIOMI SHI","town":"ICHIKOMATSUICHO","perfecture_jp":"滋賀県","jp_add_1":"東近江市","jp_add_2":"市子松井町"},"5291561":{"post_code":"5291561","prefecture":"SHIGA KEN","city":"HIGASHIOMI SHI","town":"INATARICHO","perfecture_jp":"滋賀県","jp_add_1":"東近江市","jp_add_2":"稲垂町"},"5291522":{"post_code":"5291522","prefecture":"SHIGA KEN","city":"HIGASHIOMI SHI","town":"IMONOSHICHO","perfecture_jp":"滋賀県","jp_add_1":"東近江市","jp_add_2":"鋳物師町"},"5291512":{"post_code":"5291512","prefecture":"SHIGA KEN","city":"HIGASHIOMI SHI","town":"OTSUKACHO","perfecture_jp":"滋賀県","jp_add_1":"東近江市","jp_add_2":"大塚町"},"5291566":{"post_code":"5291566","prefecture":"SHIGA KEN","city":"HIGASHIOMI SHI","town":"KAZURAMAKICHO","perfecture_jp":"滋賀県","jp_add_1":"東近江市","jp_add_2":"葛巻町"},"5291503":{"post_code":"5291503","prefecture":"SHIGA KEN","city":"HIGASHIOMI SHI","town":"KABATACHO","perfecture_jp":"滋賀県","jp_add_1":"東近江市","jp_add_2":"綺田町"},"5291523":{"post_code":"5291523","prefecture":"SHIGA KEN","city":"HIGASHIOMI SHI","town":"KAMIASOCHO","perfecture_jp":"滋賀県","jp_add_1":"東近江市","jp_add_2":"上麻生町"},"5291535":{"post_code":"5291535","prefecture":"SHIGA KEN","city":"HIGASHIOMI SHI","town":"KAMINACHO","perfecture_jp":"滋賀県","jp_add_1":"東近江市","jp_add_2":"上南町"},"5291514":{"post_code":"5291514","prefecture":"SHIGA KEN","city":"HIGASHIOMI SHI","town":"GAMOOMORICHO","perfecture_jp":"滋賀県","jp_add_1":"東近江市","jp_add_2":"蒲生大森町"},"5291521":{"post_code":"5291521","prefecture":"SHIGA KEN","city":"HIGASHIOMI SHI","town":"GAMOOKAMOTOCHO","perfecture_jp":"滋賀県","jp_add_1":"東近江市","jp_add_2":"蒲生岡本町"},"5291504":{"post_code":"5291504","prefecture":"SHIGA KEN","city":"HIGASHIOMI SHI","town":"GAMOTERAMACHI","perfecture_jp":"滋賀県","jp_add_1":"東近江市","jp_add_2":"蒲生寺町"},"5291541":{"post_code":"5291541","prefecture":"SHIGA KEN","city":"HIGASHIOMI SHI","town":"KAMODOCHO","perfecture_jp":"滋賀県","jp_add_1":"東近江市","jp_add_2":"蒲生堂町"},"5291571":{"post_code":"5291571","prefecture":"SHIGA KEN","city":"HIGASHIOMI SHI","town":"KAWAICHO","perfecture_jp":"滋賀県","jp_add_1":"東近江市","jp_add_2":"川合町"},"5291562":{"post_code":"5291562","prefecture":"SHIGA KEN","city":"HIGASHIOMI SHI","town":"KIMURACHO","perfecture_jp":"滋賀県","jp_add_1":"東近江市","jp_add_2":"木村町"},"5291536":{"post_code":"5291536","prefecture":"SHIGA KEN","city":"HIGASHIOMI SHI","town":"GODOCHO","perfecture_jp":"滋賀県","jp_add_1":"東近江市","jp_add_2":"合戸町"},"5291425":{"post_code":"5291425","prefecture":"SHIGA KEN","city":"HIGASHIOMI SHI","town":"GOKASHO ISHIKAWACHO","perfecture_jp":"滋賀県","jp_add_1":"東近江市","jp_add_2":"五個荘石川町"},"5291444":{"post_code":"5291444","prefecture":"SHIGA KEN","city":"HIGASHIOMI SHI","town":"GOKASHO ISHIZUKACHO","perfecture_jp":"滋賀県","jp_add_1":"東近江市","jp_add_2":"五個荘石塚町"},"5291401":{"post_code":"5291401","prefecture":"SHIGA KEN","city":"HIGASHIOMI SHI","town":"GOKASHO ISHIBAJICHO","perfecture_jp":"滋賀県","jp_add_1":"東近江市","jp_add_2":"五個荘石馬寺町"},"5291435":{"post_code":"5291435","prefecture":"SHIGA KEN","city":"HIGASHIOMI SHI","town":"GOKASHO INOBECHO","perfecture_jp":"滋賀県","jp_add_1":"東近江市","jp_add_2":"五個荘伊野部町"},"5291423":{"post_code":"5291423","prefecture":"SHIGA KEN","city":"HIGASHIOMI SHI","town":"GOKASHO OKUCHO","perfecture_jp":"滋賀県","jp_add_1":"東近江市","jp_add_2":"五個荘奥町"},"5291422":{"post_code":"5291422","prefecture":"SHIGA KEN","city":"HIGASHIOMI SHI","town":"GOKASHO OBATACHO","perfecture_jp":"滋賀県","jp_add_1":"東近江市","jp_add_2":"五個荘小幡町"},"5291411":{"post_code":"5291411","prefecture":"SHIGA KEN","city":"HIGASHIOMI SHI","town":"GOKASHO KAMAGARICHO","perfecture_jp":"滋賀県","jp_add_1":"東近江市","jp_add_2":"五個荘河曲町"},"5291441":{"post_code":"5291441","prefecture":"SHIGA KEN","city":"HIGASHIOMI SHI","town":"GOKASHO KAWANAMICHO","perfecture_jp":"滋賀県","jp_add_1":"東近江市","jp_add_2":"五個荘川並町"},"5291443":{"post_code":"5291443","prefecture":"SHIGA KEN","city":"HIGASHIOMI SHI","town":"GOKASHO KITAMACHIYACHO","perfecture_jp":"滋賀県","jp_add_1":"東近江市","jp_add_2":"五個荘北町屋町"},"5291433":{"post_code":"5291433","prefecture":"SHIGA KEN","city":"HIGASHIOMI SHI","town":"GOKASHO KINAGASECHO","perfecture_jp":"滋賀県","jp_add_1":"東近江市","jp_add_2":"五個荘木流町"},"5291415":{"post_code":"5291415","prefecture":"SHIGA KEN","city":"HIGASHIOMI SHI","town":"GOKASHO GOIDECHO","perfecture_jp":"滋賀県","jp_add_1":"東近江市","jp_add_2":"五個荘五位田町"},"5291405":{"post_code":"5291405","prefecture":"SHIGA KEN","city":"HIGASHIOMI SHI","town":"GOKASHO KONDOCHO","perfecture_jp":"滋賀県","jp_add_1":"東近江市","jp_add_2":"五個荘金堂町"},"5291402":{"post_code":"5291402","prefecture":"SHIGA KEN","city":"HIGASHIOMI SHI","town":"GOKASHO SHICHIRICHO","perfecture_jp":"滋賀県","jp_add_1":"東近江市","jp_add_2":"五個荘七里町"},"5291445":{"post_code":"5291445","prefecture":"SHIGA KEN","city":"HIGASHIOMI SHI","town":"GOKASHO SHIMIZUHANACHO","perfecture_jp":"滋賀県","jp_add_1":"東近江市","jp_add_2":"五個荘清水鼻町"},"5291432":{"post_code":"5291432","prefecture":"SHIGA KEN","city":"HIGASHIOMI SHI","town":"GOKASHO SHINDOCHO","perfecture_jp":"滋賀県","jp_add_1":"東近江市","jp_add_2":"五個荘新堂町"},"5291421":{"post_code":"5291421","prefecture":"SHIGA KEN","city":"HIGASHIOMI SHI","town":"GOKASHO TATSUTACHO","perfecture_jp":"滋賀県","jp_add_1":"東近江市","jp_add_2":"五個荘竜田町"},"5291442":{"post_code":"5291442","prefecture":"SHIGA KEN","city":"HIGASHIOMI SHI","town":"GOKASHO TSUKAMOTOCHO","perfecture_jp":"滋賀県","jp_add_1":"東近江市","jp_add_2":"五個荘塚本町"},"5291414":{"post_code":"5291414","prefecture":"SHIGA KEN","city":"HIGASHIOMI SHI","town":"GOKASHO NAKACHO","perfecture_jp":"滋賀県","jp_add_1":"東近江市","jp_add_2":"五個荘中町"},"5291403":{"post_code":"5291403","prefecture":"SHIGA KEN","city":"HIGASHIOMI SHI","town":"GOKASHO HIYOSHICHO","perfecture_jp":"滋賀県","jp_add_1":"東近江市","jp_add_2":"五個荘日吉町"},"5291434":{"post_code":"5291434","prefecture":"SHIGA KEN","city":"HIGASHIOMI SHI","town":"GOKASHO HIRASAKACHO","perfecture_jp":"滋賀県","jp_add_1":"東近江市","jp_add_2":"五個荘平阪町"},"5291424":{"post_code":"5291424","prefecture":"SHIGA KEN","city":"HIGASHIOMI SHI","town":"GOKASHO MITSUMATACHO","perfecture_jp":"滋賀県","jp_add_1":"東近江市","jp_add_2":"五個荘三俣町"},"5291413":{"post_code":"5291413","prefecture":"SHIGA KEN","city":"HIGASHIOMI SHI","town":"GOKASHO YANAZECHO","perfecture_jp":"滋賀県","jp_add_1":"東近江市","jp_add_2":"五個荘簗瀬町"},"5291431":{"post_code":"5291431","prefecture":"SHIGA KEN","city":"HIGASHIOMI SHI","town":"GOKASHO YAMAMOTOCHO","perfecture_jp":"滋賀県","jp_add_1":"東近江市","jp_add_2":"五個荘山本町"},"5291412":{"post_code":"5291412","prefecture":"SHIGA KEN","city":"HIGASHIOMI SHI","town":"GOKASHO WADACHO","perfecture_jp":"滋賀県","jp_add_1":"東近江市","jp_add_2":"五個荘和田町"},"5291572":{"post_code":"5291572","prefecture":"SHIGA KEN","city":"HIGASHIOMI SHI","town":"SAKURAGAWANISHICHO","perfecture_jp":"滋賀県","jp_add_1":"東近江市","jp_add_2":"桜川西町"},"5291511":{"post_code":"5291511","prefecture":"SHIGA KEN","city":"HIGASHIOMI SHI","town":"SAKURAGAWAHIGASHICHO","perfecture_jp":"滋賀県","jp_add_1":"東近江市","jp_add_2":"桜川東町"},"5291524":{"post_code":"5291524","prefecture":"SHIGA KEN","city":"HIGASHIOMI SHI","town":"SHIMOASOCHO","perfecture_jp":"滋賀県","jp_add_1":"東近江市","jp_add_2":"下麻生町"},"5291534":{"post_code":"5291534","prefecture":"SHIGA KEN","city":"HIGASHIOMI SHI","town":"SUZUCHO","perfecture_jp":"滋賀県","jp_add_1":"東近江市","jp_add_2":"鈴町"},"5291513":{"post_code":"5291513","prefecture":"SHIGA KEN","city":"HIGASHIOMI SHI","town":"TAICHO","perfecture_jp":"滋賀県","jp_add_1":"東近江市","jp_add_2":"田井町"},"5291565":{"post_code":"5291565","prefecture":"SHIGA KEN","city":"HIGASHIOMI SHI","town":"TONOHARACHO","perfecture_jp":"滋賀県","jp_add_1":"東近江市","jp_add_2":"外原町"},"5291502":{"post_code":"5291502","prefecture":"SHIGA KEN","city":"HIGASHIOMI SHI","town":"HIRABAYASHICHO","perfecture_jp":"滋賀県","jp_add_1":"東近江市","jp_add_2":"平林町"},"5291564":{"post_code":"5291564","prefecture":"SHIGA KEN","city":"HIGASHIOMI SHI","town":"MIYAICHO","perfecture_jp":"滋賀県","jp_add_1":"東近江市","jp_add_2":"宮井町"},"5291551":{"post_code":"5291551","prefecture":"SHIGA KEN","city":"HIGASHIOMI SHI","town":"MIYAGAWACHO","perfecture_jp":"滋賀県","jp_add_1":"東近江市","jp_add_2":"宮川町"},"5291404":{"post_code":"5291404","prefecture":"SHIGA KEN","city":"HIGASHIOMI SHI","town":"MIYASHOCHO","perfecture_jp":"滋賀県","jp_add_1":"東近江市","jp_add_2":"宮荘町"},"5291563":{"post_code":"5291563","prefecture":"SHIGA KEN","city":"HIGASHIOMI SHI","town":"YOKOYAMACHO","perfecture_jp":"滋賀県","jp_add_1":"東近江市","jp_add_2":"横山町"},"5291600":{"post_code":"5291600","prefecture":"SHIGA KEN","city":"GAMO GUN HINO CHO","town":"IKANIKEISAIGANAIBAAI","perfecture_jp":"滋賀県","jp_add_1":"蒲生郡日野町","jp_add_2":""},"5291661":{"post_code":"5291661","prefecture":"SHIGA KEN","city":"GAMO GUN HINO CHO","town":"ABEI","perfecture_jp":"滋賀県","jp_add_1":"蒲生郡日野町","jp_add_2":"安部居"},"5291655":{"post_code":"5291655","prefecture":"SHIGA KEN","city":"GAMO GUN HINO CHO","town":"ISHIHARA","perfecture_jp":"滋賀県","jp_add_1":"蒲生郡日野町","jp_add_2":"石原"},"5291648":{"post_code":"5291648","prefecture":"SHIGA KEN","city":"GAMO GUN HINO CHO","town":"ISENO","perfecture_jp":"滋賀県","jp_add_1":"蒲生郡日野町","jp_add_2":"いせの"},"5291644":{"post_code":"5291644","prefecture":"SHIGA KEN","city":"GAMO GUN HINO CHO","town":"UCHIIKE","perfecture_jp":"滋賀県","jp_add_1":"蒲生郡日野町","jp_add_2":"内池"},"5291605":{"post_code":"5291605","prefecture":"SHIGA KEN","city":"GAMO GUN HINO CHO","town":"OIGUCHI","perfecture_jp":"滋賀県","jp_add_1":"蒲生郡日野町","jp_add_2":"小井口"},"5291603":{"post_code":"5291603","prefecture":"SHIGA KEN","city":"GAMO GUN HINO CHO","town":"OKUBO","perfecture_jp":"滋賀県","jp_add_1":"蒲生郡日野町","jp_add_2":"大窪"},"5291608":{"post_code":"5291608","prefecture":"SHIGA KEN","city":"GAMO GUN HINO CHO","town":"OTANI","perfecture_jp":"滋賀県","jp_add_1":"蒲生郡日野町","jp_add_2":"大谷"},"5291616":{"post_code":"5291616","prefecture":"SHIGA KEN","city":"GAMO GUN HINO CHO","town":"OKUSHI","perfecture_jp":"滋賀県","jp_add_1":"蒲生郡日野町","jp_add_2":"奥師"},"5291610":{"post_code":"5291610","prefecture":"SHIGA KEN","city":"GAMO GUN HINO CHO","town":"OKUNOIKE","perfecture_jp":"滋賀県","jp_add_1":"蒲生郡日野町","jp_add_2":"奥之池"},"5291626":{"post_code":"5291626","prefecture":"SHIGA KEN","city":"GAMO GUN HINO CHO","town":"OTOWA","perfecture_jp":"滋賀県","jp_add_1":"蒲生郡日野町","jp_add_2":"音羽"},"5291631":{"post_code":"5291631","prefecture":"SHIGA KEN","city":"GAMO GUN HINO CHO","town":"KAIGAKE","perfecture_jp":"滋賀県","jp_add_1":"蒲生郡日野町","jp_add_2":"鎌掛"},"5291632":{"post_code":"5291632","prefecture":"SHIGA KEN","city":"GAMO GUN HINO CHO","town":"KAMIKOMAZUKI","perfecture_jp":"滋賀県","jp_add_1":"蒲生郡日野町","jp_add_2":"上駒月"},"5291613":{"post_code":"5291613","prefecture":"SHIGA KEN","city":"GAMO GUN HINO CHO","town":"KAWARA","perfecture_jp":"滋賀県","jp_add_1":"蒲生郡日野町","jp_add_2":"川原"},"5291602":{"post_code":"5291602","prefecture":"SHIGA KEN","city":"GAMO GUN HINO CHO","town":"KAWARA","perfecture_jp":"滋賀県","jp_add_1":"蒲生郡日野町","jp_add_2":"河原"},"5291622":{"post_code":"5291622","prefecture":"SHIGA KEN","city":"GAMO GUN HINO CHO","town":"KITABATA","perfecture_jp":"滋賀県","jp_add_1":"蒲生郡日野町","jp_add_2":"北畑"},"5291663":{"post_code":"5291663","prefecture":"SHIGA KEN","city":"GAMO GUN HINO CHO","town":"KITAWAKI","perfecture_jp":"滋賀県","jp_add_1":"蒲生郡日野町","jp_add_2":"北脇"},"5291607":{"post_code":"5291607","prefecture":"SHIGA KEN","city":"GAMO GUN HINO CHO","town":"KIZU","perfecture_jp":"滋賀県","jp_add_1":"蒲生郡日野町","jp_add_2":"木津"},"5291636":{"post_code":"5291636","prefecture":"SHIGA KEN","city":"GAMO GUN HINO CHO","town":"KIYOTA","perfecture_jp":"滋賀県","jp_add_1":"蒲生郡日野町","jp_add_2":"清田"},"5291623":{"post_code":"5291623","prefecture":"SHIGA KEN","city":"GAMO GUN HINO CHO","town":"KUMANO","perfecture_jp":"滋賀県","jp_add_1":"蒲生郡日野町","jp_add_2":"熊野"},"5291642":{"post_code":"5291642","prefecture":"SHIGA KEN","city":"GAMO GUN HINO CHO","town":"KOZUKEDA","perfecture_jp":"滋賀県","jp_add_1":"蒲生郡日野町","jp_add_2":"上野田"},"5291654":{"post_code":"5291654","prefecture":"SHIGA KEN","city":"GAMO GUN HINO CHO","town":"KODANI","perfecture_jp":"滋賀県","jp_add_1":"蒲生郡日野町","jp_add_2":"小谷"},"5291615":{"post_code":"5291615","prefecture":"SHIGA KEN","city":"GAMO GUN HINO CHO","town":"KONO","perfecture_jp":"滋賀県","jp_add_1":"蒲生郡日野町","jp_add_2":"小野"},"5291652":{"post_code":"5291652","prefecture":"SHIGA KEN","city":"GAMO GUN HINO CHO","town":"KOMIKADO","perfecture_jp":"滋賀県","jp_add_1":"蒲生郡日野町","jp_add_2":"小御門"},"5291621":{"post_code":"5291621","prefecture":"SHIGA KEN","city":"GAMO GUN HINO CHO","town":"SAIMYOJI","perfecture_jp":"滋賀県","jp_add_1":"蒲生郡日野町","jp_add_2":"西明寺"},"5291625":{"post_code":"5291625","prefecture":"SHIGA KEN","city":"GAMO GUN HINO CHO","town":"ZAO","perfecture_jp":"滋賀県","jp_add_1":"蒲生郡日野町","jp_add_2":"蔵王"},"5291619":{"post_code":"5291619","prefecture":"SHIGA KEN","city":"GAMO GUN HINO CHO","town":"SAKURA","perfecture_jp":"滋賀県","jp_add_1":"蒲生郡日野町","jp_add_2":"佐久良"},"5291643":{"post_code":"5291643","prefecture":"SHIGA KEN","city":"GAMO GUN HINO CHO","town":"SATOGUCHI","perfecture_jp":"滋賀県","jp_add_1":"蒲生郡日野町","jp_add_2":"里口"},"5291633":{"post_code":"5291633","prefecture":"SHIGA KEN","city":"GAMO GUN HINO CHO","town":"SHIMOKOMAZUKI","perfecture_jp":"滋賀県","jp_add_1":"蒲生郡日野町","jp_add_2":"下駒月"},"5291645":{"post_code":"5291645","prefecture":"SHIGA KEN","city":"GAMO GUN HINO CHO","town":"JUZENJI","perfecture_jp":"滋賀県","jp_add_1":"蒲生郡日野町","jp_add_2":"十禅師"},"5291612":{"post_code":"5291612","prefecture":"SHIGA KEN","city":"GAMO GUN HINO CHO","town":"SUGI","perfecture_jp":"滋賀県","jp_add_1":"蒲生郡日野町","jp_add_2":"杉"},"5291611":{"post_code":"5291611","prefecture":"SHIGA KEN","city":"GAMO GUN HINO CHO","town":"SOMA","perfecture_jp":"滋賀県","jp_add_1":"蒲生郡日野町","jp_add_2":"杣"},"5291606":{"post_code":"5291606","prefecture":"SHIGA KEN","city":"GAMO GUN HINO CHO","town":"TERAJIRI","perfecture_jp":"滋賀県","jp_add_1":"蒲生郡日野町","jp_add_2":"寺尻"},"5291657":{"post_code":"5291657","prefecture":"SHIGA KEN","city":"GAMO GUN HINO CHO","town":"TOYOTA","perfecture_jp":"滋賀県","jp_add_1":"蒲生郡日野町","jp_add_2":"豊田"},"5291618":{"post_code":"5291618","prefecture":"SHIGA KEN","city":"GAMO GUN HINO CHO","town":"TORIIHIRA","perfecture_jp":"滋賀県","jp_add_1":"蒲生郡日野町","jp_add_2":"鳥居平"},"5291662":{"post_code":"5291662","prefecture":"SHIGA KEN","city":"GAMO GUN HINO CHO","town":"NAKAZAIJI","perfecture_jp":"滋賀県","jp_add_1":"蒲生郡日野町","jp_add_2":"中在寺"},"5291617":{"post_code":"5291617","prefecture":"SHIGA KEN","city":"GAMO GUN HINO CHO","town":"NAKANOGO","perfecture_jp":"滋賀県","jp_add_1":"蒲生郡日野町","jp_add_2":"中之郷"},"5291609":{"post_code":"5291609","prefecture":"SHIGA KEN","city":"GAMO GUN HINO CHO","town":"NAKAMICHI","perfecture_jp":"滋賀県","jp_add_1":"蒲生郡日野町","jp_add_2":"中道"},"5291658":{"post_code":"5291658","prefecture":"SHIGA KEN","city":"GAMO GUN HINO CHO","town":"NAKAYAMA","perfecture_jp":"滋賀県","jp_add_1":"蒲生郡日野町","jp_add_2":"中山"},"5291628":{"post_code":"5291628","prefecture":"SHIGA KEN","city":"GAMO GUN HINO CHO","town":"NISHIOJI","perfecture_jp":"滋賀県","jp_add_1":"蒲生郡日野町","jp_add_2":"西大路"},"5291627":{"post_code":"5291627","prefecture":"SHIGA KEN","city":"GAMO GUN HINO CHO","town":"NIHONGI","perfecture_jp":"滋賀県","jp_add_1":"蒲生郡日野町","jp_add_2":"仁本木"},"5291646":{"post_code":"5291646","prefecture":"SHIGA KEN","city":"GAMO GUN HINO CHO","town":"NEKODA","perfecture_jp":"滋賀県","jp_add_1":"蒲生郡日野町","jp_add_2":"猫田"},"5291665":{"post_code":"5291665","prefecture":"SHIGA KEN","city":"GAMO GUN HINO CHO","town":"NODE","perfecture_jp":"滋賀県","jp_add_1":"蒲生郡日野町","jp_add_2":"野出"},"5291635":{"post_code":"5291635","prefecture":"SHIGA KEN","city":"GAMO GUN HINO CHO","town":"HASAMA","perfecture_jp":"滋賀県","jp_add_1":"蒲生郡日野町","jp_add_2":"迫"},"5291614":{"post_code":"5291614","prefecture":"SHIGA KEN","city":"GAMO GUN HINO CHO","town":"HARA","perfecture_jp":"滋賀県","jp_add_1":"蒲生郡日野町","jp_add_2":"原"},"5291641":{"post_code":"5291641","prefecture":"SHIGA KEN","city":"GAMO GUN HINO CHO","town":"HIDA","perfecture_jp":"滋賀県","jp_add_1":"蒲生郡日野町","jp_add_2":"日田"},"5291624":{"post_code":"5291624","prefecture":"SHIGA KEN","city":"GAMO GUN HINO CHO","town":"HIRAKO","perfecture_jp":"滋賀県","jp_add_1":"蒲生郡日野町","jp_add_2":"平子"},"5291647":{"post_code":"5291647","prefecture":"SHIGA KEN","city":"GAMO GUN HINO CHO","town":"BESSHIYO","perfecture_jp":"滋賀県","jp_add_1":"蒲生郡日野町","jp_add_2":"別所"},"5291656":{"post_code":"5291656","prefecture":"SHIGA KEN","city":"GAMO GUN HINO CHO","town":"MASHIDA","perfecture_jp":"滋賀県","jp_add_1":"蒲生郡日野町","jp_add_2":"増田"},"5291601":{"post_code":"5291601","prefecture":"SHIGA KEN","city":"GAMO GUN HINO CHO","town":"MATSUO","perfecture_jp":"滋賀県","jp_add_1":"蒲生郡日野町","jp_add_2":"松尾"},"5291653":{"post_code":"5291653","prefecture":"SHIGA KEN","city":"GAMO GUN HINO CHO","town":"MISOTSU","perfecture_jp":"滋賀県","jp_add_1":"蒲生郡日野町","jp_add_2":"三十坪"},"5291634":{"post_code":"5291634","prefecture":"SHIGA KEN","city":"GAMO GUN HINO CHO","town":"MIYAMAGUCHI","perfecture_jp":"滋賀県","jp_add_1":"蒲生郡日野町","jp_add_2":"深山口"},"5291604":{"post_code":"5291604","prefecture":"SHIGA KEN","city":"GAMO GUN HINO CHO","town":"MURAI","perfecture_jp":"滋賀県","jp_add_1":"蒲生郡日野町","jp_add_2":"村井"},"5291651":{"post_code":"5291651","prefecture":"SHIGA KEN","city":"GAMO GUN HINO CHO","town":"YAMAMOTO","perfecture_jp":"滋賀県","jp_add_1":"蒲生郡日野町","jp_add_2":"山本"},"5291664":{"post_code":"5291664","prefecture":"SHIGA KEN","city":"GAMO GUN HINO CHO","town":"RENGEJI","perfecture_jp":"滋賀県","jp_add_1":"蒲生郡日野町","jp_add_2":"蓮花寺"},"5291300":{"post_code":"5291300","prefecture":"SHIGA KEN","city":"ECHI GUN AISHO CHO","town":"IKANIKEISAIGANAIBAAI","perfecture_jp":"滋賀県","jp_add_1":"愛知郡愛荘町","jp_add_2":""},"5291234":{"post_code":"5291234","prefecture":"SHIGA KEN","city":"ECHI GUN AISHO CHO","town":"ABIKO","perfecture_jp":"滋賀県","jp_add_1":"愛知郡愛荘町","jp_add_2":"安孫子"},"5291311":{"post_code":"5291311","prefecture":"SHIGA KEN","city":"ECHI GUN AISHO CHO","town":"ISHIHASHI","perfecture_jp":"滋賀県","jp_add_1":"愛知郡愛荘町","jp_add_2":"石橋"},"5291313":{"post_code":"5291313","prefecture":"SHIGA KEN","city":"ECHI GUN AISHO CHO","town":"ICHI","perfecture_jp":"滋賀県","jp_add_1":"愛知郡愛荘町","jp_add_2":"市"},"5291207":{"post_code":"5291207","prefecture":"SHIGA KEN","city":"ECHI GUN AISHO CHO","town":"IWAKURA","perfecture_jp":"滋賀県","jp_add_1":"愛知郡愛荘町","jp_add_2":"岩倉"},"5291331":{"post_code":"5291331","prefecture":"SHIGA KEN","city":"ECHI GUN AISHO CHO","town":"ECHIGAWA","perfecture_jp":"滋賀県","jp_add_1":"愛知郡愛荘町","jp_add_2":"愛知川"},"5291231":{"post_code":"5291231","prefecture":"SHIGA KEN","city":"ECHI GUN AISHO CHO","town":"ENJOJI","perfecture_jp":"滋賀県","jp_add_1":"愛知郡愛荘町","jp_add_2":"円城寺"},"5291213":{"post_code":"5291213","prefecture":"SHIGA KEN","city":"ECHI GUN AISHO CHO","town":"OKI","perfecture_jp":"滋賀県","jp_add_1":"愛知郡愛荘町","jp_add_2":"沖"},"5291206":{"post_code":"5291206","prefecture":"SHIGA KEN","city":"ECHI GUN AISHO CHO","town":"KANO","perfecture_jp":"滋賀県","jp_add_1":"愛知郡愛荘町","jp_add_2":"蚊野"},"5291204":{"post_code":"5291204","prefecture":"SHIGA KEN","city":"ECHI GUN AISHO CHO","town":"KANOTONO","perfecture_jp":"滋賀県","jp_add_1":"愛知郡愛荘町","jp_add_2":"蚊野外"},"5291203":{"post_code":"5291203","prefecture":"SHIGA KEN","city":"ECHI GUN AISHO CHO","town":"KAMIGANO","perfecture_jp":"滋賀県","jp_add_1":"愛知郡愛荘町","jp_add_2":"上蚊野"},"5291324":{"post_code":"5291324","prefecture":"SHIGA KEN","city":"ECHI GUN AISHO CHO","town":"KARIMA","perfecture_jp":"滋賀県","jp_add_1":"愛知郡愛荘町","jp_add_2":"苅間"},"5291205":{"post_code":"5291205","prefecture":"SHIGA KEN","city":"ECHI GUN AISHO CHO","town":"KARUNO","perfecture_jp":"滋賀県","jp_add_1":"愛知郡愛荘町","jp_add_2":"軽野"},"5291312":{"post_code":"5291312","prefecture":"SHIGA KEN","city":"ECHI GUN AISHO CHO","town":"KAWAKUBO","perfecture_jp":"滋賀県","jp_add_1":"愛知郡愛荘町","jp_add_2":"川久保"},"5291302":{"post_code":"5291302","prefecture":"SHIGA KEN","city":"ECHI GUN AISHO CHO","town":"KAWARA","perfecture_jp":"滋賀県","jp_add_1":"愛知郡愛荘町","jp_add_2":"川原"},"5291222":{"post_code":"5291222","prefecture":"SHIGA KEN","city":"ECHI GUN AISHO CHO","town":"KITAYAGI","perfecture_jp":"滋賀県","jp_add_1":"愛知郡愛荘町","jp_add_2":"北八木"},"5291315":{"post_code":"5291315","prefecture":"SHIGA KEN","city":"ECHI GUN AISHO CHO","town":"KUTSUKAKE","perfecture_jp":"滋賀県","jp_add_1":"愛知郡愛荘町","jp_add_2":"沓掛"},"5291225":{"post_code":"5291225","prefecture":"SHIGA KEN","city":"ECHI GUN AISHO CHO","town":"KURITA","perfecture_jp":"滋賀県","jp_add_1":"愛知郡愛荘町","jp_add_2":"栗田"},"5291211":{"post_code":"5291211","prefecture":"SHIGA KEN","city":"ECHI GUN AISHO CHO","town":"KONOSHO","perfecture_jp":"滋賀県","jp_add_1":"愛知郡愛荘町","jp_add_2":"香之庄"},"5291223":{"post_code":"5291223","prefecture":"SHIGA KEN","city":"ECHI GUN AISHO CHO","town":"SHIMAGAWA","perfecture_jp":"滋賀県","jp_add_1":"愛知郡愛荘町","jp_add_2":"島川"},"5291221":{"post_code":"5291221","prefecture":"SHIGA KEN","city":"ECHI GUN AISHO CHO","town":"SHIMOYAGI","perfecture_jp":"滋賀県","jp_add_1":"愛知郡愛荘町","jp_add_2":"下八木"},"5291232":{"post_code":"5291232","prefecture":"SHIGA KEN","city":"ECHI GUN AISHO CHO","town":"JOANJI","perfecture_jp":"滋賀県","jp_add_1":"愛知郡愛荘町","jp_add_2":"常安寺"},"5291208":{"post_code":"5291208","prefecture":"SHIGA KEN","city":"ECHI GUN AISHO CHO","town":"TAKEHARA","perfecture_jp":"滋賀県","jp_add_1":"愛知郡愛荘町","jp_add_2":"竹原"},"5291325":{"post_code":"5291325","prefecture":"SHIGA KEN","city":"ECHI GUN AISHO CHO","town":"TOENDO","perfecture_jp":"滋賀県","jp_add_1":"愛知郡愛荘町","jp_add_2":"東円堂"},"5291321":{"post_code":"5291321","prefecture":"SHIGA KEN","city":"ECHI GUN AISHO CHO","town":"TOYOMITSU","perfecture_jp":"滋賀県","jp_add_1":"愛知郡愛荘町","jp_add_2":"豊満"},"5291314":{"post_code":"5291314","prefecture":"SHIGA KEN","city":"ECHI GUN AISHO CHO","town":"NAKAJUKU","perfecture_jp":"滋賀県","jp_add_1":"愛知郡愛荘町","jp_add_2":"中宿"},"5291224":{"post_code":"5291224","prefecture":"SHIGA KEN","city":"ECHI GUN AISHO CHO","town":"NAGATSUKA","perfecture_jp":"滋賀県","jp_add_1":"愛知郡愛荘町","jp_add_2":"長塚"},"5291303":{"post_code":"5291303","prefecture":"SHIGA KEN","city":"ECHI GUN AISHO CHO","town":"NAGANO","perfecture_jp":"滋賀県","jp_add_1":"愛知郡愛荘町","jp_add_2":"長野"},"5291237":{"post_code":"5291237","prefecture":"SHIGA KEN","city":"ECHI GUN AISHO CHO","town":"NISHIDE","perfecture_jp":"滋賀県","jp_add_1":"愛知郡愛荘町","jp_add_2":"西出"},"5291227":{"post_code":"5291227","prefecture":"SHIGA KEN","city":"ECHI GUN AISHO CHO","town":"NONOME","perfecture_jp":"滋賀県","jp_add_1":"愛知郡愛荘町","jp_add_2":"野々目"},"5291323":{"post_code":"5291323","prefecture":"SHIGA KEN","city":"ECHI GUN AISHO CHO","town":"HATAKEDA","perfecture_jp":"滋賀県","jp_add_1":"愛知郡愛荘町","jp_add_2":"畑田"},"5291233":{"post_code":"5291233","prefecture":"SHIGA KEN","city":"ECHI GUN AISHO CHO","town":"HIGASHIDE","perfecture_jp":"滋賀県","jp_add_1":"愛知郡愛荘町","jp_add_2":"東出"},"5291322":{"post_code":"5291322","prefecture":"SHIGA KEN","city":"ECHI GUN AISHO CHO","town":"HIRAI","perfecture_jp":"滋賀県","jp_add_1":"愛知郡愛荘町","jp_add_2":"平居"},"5291236":{"post_code":"5291236","prefecture":"SHIGA KEN","city":"ECHI GUN AISHO CHO","town":"FUKOSO","perfecture_jp":"滋賀県","jp_add_1":"愛知郡愛荘町","jp_add_2":"深草"},"5291202":{"post_code":"5291202","prefecture":"SHIGA KEN","city":"ECHI GUN AISHO CHO","town":"MATSUOJI","perfecture_jp":"滋賀県","jp_add_1":"愛知郡愛荘町","jp_add_2":"松尾寺"},"5291226":{"post_code":"5291226","prefecture":"SHIGA KEN","city":"ECHI GUN AISHO CHO","town":"MINAMINONOME","perfecture_jp":"滋賀県","jp_add_1":"愛知郡愛荘町","jp_add_2":"南野々目"},"5291214":{"post_code":"5291214","prefecture":"SHIGA KEN","city":"ECHI GUN AISHO CHO","town":"MIYAUSHIRO","perfecture_jp":"滋賀県","jp_add_1":"愛知郡愛荘町","jp_add_2":"宮後"},"5291235":{"post_code":"5291235","prefecture":"SHIGA KEN","city":"ECHI GUN AISHO CHO","town":"MEKADA","perfecture_jp":"滋賀県","jp_add_1":"愛知郡愛荘町","jp_add_2":"目加田"},"5291212":{"post_code":"5291212","prefecture":"SHIGA KEN","city":"ECHI GUN AISHO CHO","town":"MOTOMOCHI","perfecture_jp":"滋賀県","jp_add_1":"愛知郡愛荘町","jp_add_2":"元持"},"5291301":{"post_code":"5291301","prefecture":"SHIGA KEN","city":"ECHI GUN AISHO CHO","town":"YAMAGAWARA","perfecture_jp":"滋賀県","jp_add_1":"愛知郡愛荘町","jp_add_2":"山川原"},"5291228":{"post_code":"5291228","prefecture":"SHIGA KEN","city":"ECHI GUN AISHO CHO","town":"YAMORI","perfecture_jp":"滋賀県","jp_add_1":"愛知郡愛荘町","jp_add_2":"矢守"},"5291201":{"post_code":"5291201","prefecture":"SHIGA KEN","city":"ECHI GUN AISHO CHO","town":"YOKITOGI","perfecture_jp":"滋賀県","jp_add_1":"愛知郡愛荘町","jp_add_2":"斧磨"},"5291100":{"post_code":"5291100","prefecture":"SHIGA KEN","city":"INUKAMI GUN TOYOSATO CHO","town":"IKANIKEISAIGANAIBAAI","perfecture_jp":"滋賀県","jp_add_1":"犬上郡豊郷町","jp_add_2":""},"5291163":{"post_code":"5291163","prefecture":"SHIGA KEN","city":"INUKAMI GUN TOYOSATO CHO","town":"AMEFURINO","perfecture_jp":"滋賀県","jp_add_1":"犬上郡豊郷町","jp_add_2":"雨降野"},"5291171":{"post_code":"5291171","prefecture":"SHIGA KEN","city":"INUKAMI GUN TOYOSATO CHO","town":"ANJIKINISHI","perfecture_jp":"滋賀県","jp_add_1":"犬上郡豊郷町","jp_add_2":"安食西"},"5291172":{"post_code":"5291172","prefecture":"SHIGA KEN","city":"INUKAMI GUN TOYOSATO CHO","town":"ANJIKIMINAMI","perfecture_jp":"滋賀県","jp_add_1":"犬上郡豊郷町","jp_add_2":"安食南"},"5291169":{"post_code":"5291169","prefecture":"SHIGA KEN","city":"INUKAMI GUN TOYOSATO CHO","town":"ISHIBATAKE","perfecture_jp":"滋賀県","jp_add_1":"犬上郡豊郷町","jp_add_2":"石畑"},"5291176":{"post_code":"5291176","prefecture":"SHIGA KEN","city":"INUKAMI GUN TOYOSATO CHO","town":"OMACHI","perfecture_jp":"滋賀県","jp_add_1":"犬上郡豊郷町","jp_add_2":"大町"},"5291166":{"post_code":"5291166","prefecture":"SHIGA KEN","city":"INUKAMI GUN TOYOSATO CHO","town":"KAMIEDA","perfecture_jp":"滋賀県","jp_add_1":"犬上郡豊郷町","jp_add_2":"上枝"},"5291175":{"post_code":"5291175","prefecture":"SHIGA KEN","city":"INUKAMI GUN TOYOSATO CHO","town":"SAWA","perfecture_jp":"滋賀県","jp_add_1":"犬上郡豊郷町","jp_add_2":"沢"},"5291161":{"post_code":"5291161","prefecture":"SHIGA KEN","city":"INUKAMI GUN TOYOSATO CHO","town":"SHIJUKUIN","perfecture_jp":"滋賀県","jp_add_1":"犬上郡豊郷町","jp_add_2":"四十九院"},"5291174":{"post_code":"5291174","prefecture":"SHIGA KEN","city":"INUKAMI GUN TOYOSATO CHO","town":"SHIMOEDA","perfecture_jp":"滋賀県","jp_add_1":"犬上郡豊郷町","jp_add_2":"下枝"},"5291167":{"post_code":"5291167","prefecture":"SHIGA KEN","city":"INUKAMI GUN TOYOSATO CHO","town":"SUGI","perfecture_jp":"滋賀県","jp_add_1":"犬上郡豊郷町","jp_add_2":"杉"},"5291173":{"post_code":"5291173","prefecture":"SHIGA KEN","city":"INUKAMI GUN TOYOSATO CHO","town":"TAKANOSE","perfecture_jp":"滋賀県","jp_add_1":"犬上郡豊郷町","jp_add_2":"高野瀬"},"5291168":{"post_code":"5291168","prefecture":"SHIGA KEN","city":"INUKAMI GUN TOYOSATO CHO","town":"HACHIME","perfecture_jp":"滋賀県","jp_add_1":"犬上郡豊郷町","jp_add_2":"八目"},"5291162":{"post_code":"5291162","prefecture":"SHIGA KEN","city":"INUKAMI GUN TOYOSATO CHO","town":"HATCHO","perfecture_jp":"滋賀県","jp_add_1":"犬上郡豊郷町","jp_add_2":"八町"},"5291164":{"post_code":"5291164","prefecture":"SHIGA KEN","city":"INUKAMI GUN TOYOSATO CHO","town":"HIE","perfecture_jp":"滋賀県","jp_add_1":"犬上郡豊郷町","jp_add_2":"日栄"},"5291177":{"post_code":"5291177","prefecture":"SHIGA KEN","city":"INUKAMI GUN TOYOSATO CHO","town":"MITSUIKE","perfecture_jp":"滋賀県","jp_add_1":"犬上郡豊郷町","jp_add_2":"三ツ池"},"5291165":{"post_code":"5291165","prefecture":"SHIGA KEN","city":"INUKAMI GUN TOYOSATO CHO","town":"YOSHIDA","perfecture_jp":"滋賀県","jp_add_1":"犬上郡豊郷町","jp_add_2":"吉田"}}