{"5310076":{"post_code":"5310076","prefecture":"OSAKA FU","city":"OSAKA SHI KITA KU","town":"OYODONAKA (TSUGINOBIRUONOZOKU)","perfecture_jp":"大阪府","jp_add_1":"大阪市北区","jp_add_2":"大淀中"},"5316090":{"post_code":"5316090","prefecture":"OSAKA FU","city":"OSAKA SHI KITA KU","town":"OYODONAKA UMEDASUKAIBIRUTAWAISUTO(C","perfecture_jp":"大阪府","jp_add_1":"大阪市北区","jp_add_2":"大淀中梅田スカイビルタワーイースト"},"5316001":{"post_code":"5316001","prefecture":"OSAKA FU","city":"OSAKA SHI KITA KU","town":"OYODONAKA UMEDASUKAIBIRUTAWAISUTO(1","perfecture_jp":"大阪府","jp_add_1":"大阪市北区","jp_add_2":"大淀中梅田スカイビルタワーイースト１階"},"5316002":{"post_code":"5316002","prefecture":"OSAKA FU","city":"OSAKA SHI KITA KU","town":"OYODONAKA UMEDASUKAIBIRUTAWAISUTO(2","perfecture_jp":"大阪府","jp_add_1":"大阪市北区","jp_add_2":"大淀中梅田スカイビルタワーイースト２階"},"5316003":{"post_code":"5316003","prefecture":"OSAKA FU","city":"OSAKA SHI KITA KU","town":"OYODONAKA UMEDASUKAIBIRUTAWAISUTO(3","perfecture_jp":"大阪府","jp_add_1":"大阪市北区","jp_add_2":"大淀中梅田スカイビルタワーイースト３階"},"5316004":{"post_code":"5316004","prefecture":"OSAKA FU","city":"OSAKA SHI KITA KU","town":"OYODONAKA UMEDASUKAIBIRUTAWAISUTO(4","perfecture_jp":"大阪府","jp_add_1":"大阪市北区","jp_add_2":"大淀中梅田スカイビルタワーイースト４階"},"5316005":{"post_code":"5316005","prefecture":"OSAKA FU","city":"OSAKA SHI KITA KU","town":"OYODONAKA UMEDASUKAIBIRUTAWAISUTO(5","perfecture_jp":"大阪府","jp_add_1":"大阪市北区","jp_add_2":"大淀中梅田スカイビルタワーイースト５階"},"5316006":{"post_code":"5316006","prefecture":"OSAKA FU","city":"OSAKA SHI KITA KU","town":"OYODONAKA UMEDASUKAIBIRUTAWAISUTO(6","perfecture_jp":"大阪府","jp_add_1":"大阪市北区","jp_add_2":"大淀中梅田スカイビルタワーイースト６階"},"5316007":{"post_code":"5316007","prefecture":"OSAKA FU","city":"OSAKA SHI KITA KU","town":"OYODONAKA UMEDASUKAIBIRUTAWAISUTO(7","perfecture_jp":"大阪府","jp_add_1":"大阪市北区","jp_add_2":"大淀中梅田スカイビルタワーイースト７階"},"5316008":{"post_code":"5316008","prefecture":"OSAKA FU","city":"OSAKA SHI KITA KU","town":"OYODONAKA UMEDASUKAIBIRUTAWAISUTO(8","perfecture_jp":"大阪府","jp_add_1":"大阪市北区","jp_add_2":"大淀中梅田スカイビルタワーイースト８階"},"5316009":{"post_code":"5316009","prefecture":"OSAKA FU","city":"OSAKA SHI KITA KU","town":"OYODONAKA UMEDASUKAIBIRUTAWAISUTO(9","perfecture_jp":"大阪府","jp_add_1":"大阪市北区","jp_add_2":"大淀中梅田スカイビルタワーイースト９階"},"5316010":{"post_code":"5316010","prefecture":"OSAKA FU","city":"OSAKA SHI KITA KU","town":"OYODONAKA UMEDASUKAIBIRUTAWAISUTO(1","perfecture_jp":"大阪府","jp_add_1":"大阪市北区","jp_add_2":"大淀中梅田スカイビルタワーイースト１０階"},"5316011":{"post_code":"5316011","prefecture":"OSAKA FU","city":"OSAKA SHI KITA KU","town":"OYODONAKA UMEDASUKAIBIRUTAWAISUTO(1","perfecture_jp":"大阪府","jp_add_1":"大阪市北区","jp_add_2":"大淀中梅田スカイビルタワーイースト１１階"},"5316012":{"post_code":"5316012","prefecture":"OSAKA FU","city":"OSAKA SHI KITA KU","town":"OYODONAKA UMEDASUKAIBIRUTAWAISUTO(1","perfecture_jp":"大阪府","jp_add_1":"大阪市北区","jp_add_2":"大淀中梅田スカイビルタワーイースト１２階"},"5316013":{"post_code":"5316013","prefecture":"OSAKA FU","city":"OSAKA SHI KITA KU","town":"OYODONAKA UMEDASUKAIBIRUTAWAISUTO(1","perfecture_jp":"大阪府","jp_add_1":"大阪市北区","jp_add_2":"大淀中梅田スカイビルタワーイースト１３階"},"5316014":{"post_code":"5316014","prefecture":"OSAKA FU","city":"OSAKA SHI KITA KU","town":"OYODONAKA UMEDASUKAIBIRUTAWAISUTO(1","perfecture_jp":"大阪府","jp_add_1":"大阪市北区","jp_add_2":"大淀中梅田スカイビルタワーイースト１４階"},"5316015":{"post_code":"5316015","prefecture":"OSAKA FU","city":"OSAKA SHI KITA KU","town":"OYODONAKA UMEDASUKAIBIRUTAWAISUTO(1","perfecture_jp":"大阪府","jp_add_1":"大阪市北区","jp_add_2":"大淀中梅田スカイビルタワーイースト１５階"},"5316016":{"post_code":"5316016","prefecture":"OSAKA FU","city":"OSAKA SHI KITA KU","town":"OYODONAKA UMEDASUKAIBIRUTAWAISUTO(1","perfecture_jp":"大阪府","jp_add_1":"大阪市北区","jp_add_2":"大淀中梅田スカイビルタワーイースト１６階"},"5316017":{"post_code":"5316017","prefecture":"OSAKA FU","city":"OSAKA SHI KITA KU","town":"OYODONAKA UMEDASUKAIBIRUTAWAISUTO(1","perfecture_jp":"大阪府","jp_add_1":"大阪市北区","jp_add_2":"大淀中梅田スカイビルタワーイースト１７階"},"5316018":{"post_code":"5316018","prefecture":"OSAKA FU","city":"OSAKA SHI KITA KU","town":"OYODONAKA UMEDASUKAIBIRUTAWAISUTO(1","perfecture_jp":"大阪府","jp_add_1":"大阪市北区","jp_add_2":"大淀中梅田スカイビルタワーイースト１８階"},"5316019":{"post_code":"5316019","prefecture":"OSAKA FU","city":"OSAKA SHI KITA KU","town":"OYODONAKA UMEDASUKAIBIRUTAWAISUTO(1","perfecture_jp":"大阪府","jp_add_1":"大阪市北区","jp_add_2":"大淀中梅田スカイビルタワーイースト１９階"},"5316020":{"post_code":"5316020","prefecture":"OSAKA FU","city":"OSAKA SHI KITA KU","town":"OYODONAKA UMEDASUKAIBIRUTAWAISUTO(2","perfecture_jp":"大阪府","jp_add_1":"大阪市北区","jp_add_2":"大淀中梅田スカイビルタワーイースト２０階"},"5316021":{"post_code":"5316021","prefecture":"OSAKA FU","city":"OSAKA SHI KITA KU","town":"OYODONAKA UMEDASUKAIBIRUTAWAISUTO(2","perfecture_jp":"大阪府","jp_add_1":"大阪市北区","jp_add_2":"大淀中梅田スカイビルタワーイースト２１階"},"5316022":{"post_code":"5316022","prefecture":"OSAKA FU","city":"OSAKA SHI KITA KU","town":"OYODONAKA UMEDASUKAIBIRUTAWAISUTO(2","perfecture_jp":"大阪府","jp_add_1":"大阪市北区","jp_add_2":"大淀中梅田スカイビルタワーイースト２２階"},"5316023":{"post_code":"5316023","prefecture":"OSAKA FU","city":"OSAKA SHI KITA KU","town":"OYODONAKA UMEDASUKAIBIRUTAWAISUTO(2","perfecture_jp":"大阪府","jp_add_1":"大阪市北区","jp_add_2":"大淀中梅田スカイビルタワーイースト２３階"},"5316024":{"post_code":"5316024","prefecture":"OSAKA FU","city":"OSAKA SHI KITA KU","town":"OYODONAKA UMEDASUKAIBIRUTAWAISUTO(2","perfecture_jp":"大阪府","jp_add_1":"大阪市北区","jp_add_2":"大淀中梅田スカイビルタワーイースト２４階"},"5316025":{"post_code":"5316025","prefecture":"OSAKA FU","city":"OSAKA SHI KITA KU","town":"OYODONAKA UMEDASUKAIBIRUTAWAISUTO(2","perfecture_jp":"大阪府","jp_add_1":"大阪市北区","jp_add_2":"大淀中梅田スカイビルタワーイースト２５階"},"5316026":{"post_code":"5316026","prefecture":"OSAKA FU","city":"OSAKA SHI KITA KU","town":"OYODONAKA UMEDASUKAIBIRUTAWAISUTO(2","perfecture_jp":"大阪府","jp_add_1":"大阪市北区","jp_add_2":"大淀中梅田スカイビルタワーイースト２６階"},"5316027":{"post_code":"5316027","prefecture":"OSAKA FU","city":"OSAKA SHI KITA KU","town":"OYODONAKA UMEDASUKAIBIRUTAWAISUTO(2","perfecture_jp":"大阪府","jp_add_1":"大阪市北区","jp_add_2":"大淀中梅田スカイビルタワーイースト２７階"},"5316028":{"post_code":"5316028","prefecture":"OSAKA FU","city":"OSAKA SHI KITA KU","town":"OYODONAKA UMEDASUKAIBIRUTAWAISUTO(2","perfecture_jp":"大阪府","jp_add_1":"大阪市北区","jp_add_2":"大淀中梅田スカイビルタワーイースト２８階"},"5316029":{"post_code":"5316029","prefecture":"OSAKA FU","city":"OSAKA SHI KITA KU","town":"OYODONAKA UMEDASUKAIBIRUTAWAISUTO(2","perfecture_jp":"大阪府","jp_add_1":"大阪市北区","jp_add_2":"大淀中梅田スカイビルタワーイースト２９階"},"5316030":{"post_code":"5316030","prefecture":"OSAKA FU","city":"OSAKA SHI KITA KU","town":"OYODONAKA UMEDASUKAIBIRUTAWAISUTO(3","perfecture_jp":"大阪府","jp_add_1":"大阪市北区","jp_add_2":"大淀中梅田スカイビルタワーイースト３０階"},"5316031":{"post_code":"5316031","prefecture":"OSAKA FU","city":"OSAKA SHI KITA KU","town":"OYODONAKA UMEDASUKAIBIRUTAWAISUTO(3","perfecture_jp":"大阪府","jp_add_1":"大阪市北区","jp_add_2":"大淀中梅田スカイビルタワーイースト３１階"},"5316032":{"post_code":"5316032","prefecture":"OSAKA FU","city":"OSAKA SHI KITA KU","town":"OYODONAKA UMEDASUKAIBIRUTAWAISUTO(3","perfecture_jp":"大阪府","jp_add_1":"大阪市北区","jp_add_2":"大淀中梅田スカイビルタワーイースト３２階"},"5316033":{"post_code":"5316033","prefecture":"OSAKA FU","city":"OSAKA SHI KITA KU","town":"OYODONAKA UMEDASUKAIBIRUTAWAISUTO(3","perfecture_jp":"大阪府","jp_add_1":"大阪市北区","jp_add_2":"大淀中梅田スカイビルタワーイースト３３階"},"5316034":{"post_code":"5316034","prefecture":"OSAKA FU","city":"OSAKA SHI KITA KU","town":"OYODONAKA UMEDASUKAIBIRUTAWAISUTO(3","perfecture_jp":"大阪府","jp_add_1":"大阪市北区","jp_add_2":"大淀中梅田スカイビルタワーイースト３４階"},"5316035":{"post_code":"5316035","prefecture":"OSAKA FU","city":"OSAKA SHI KITA KU","town":"OYODONAKA UMEDASUKAIBIRUTAWAISUTO(3","perfecture_jp":"大阪府","jp_add_1":"大阪市北区","jp_add_2":"大淀中梅田スカイビルタワーイースト３５階"},"5316036":{"post_code":"5316036","prefecture":"OSAKA FU","city":"OSAKA SHI KITA KU","town":"OYODONAKA UMEDASUKAIBIRUTAWAISUTO(3","perfecture_jp":"大阪府","jp_add_1":"大阪市北区","jp_add_2":"大淀中梅田スカイビルタワーイースト３６階"},"5316037":{"post_code":"5316037","prefecture":"OSAKA FU","city":"OSAKA SHI KITA KU","town":"OYODONAKA UMEDASUKAIBIRUTAWAISUTO(3","perfecture_jp":"大阪府","jp_add_1":"大阪市北区","jp_add_2":"大淀中梅田スカイビルタワーイースト３７階"},"5316038":{"post_code":"5316038","prefecture":"OSAKA FU","city":"OSAKA SHI KITA KU","town":"OYODONAKA UMEDASUKAIBIRUTAWAISUTO(3","perfecture_jp":"大阪府","jp_add_1":"大阪市北区","jp_add_2":"大淀中梅田スカイビルタワーイースト３８階"},"5316039":{"post_code":"5316039","prefecture":"OSAKA FU","city":"OSAKA SHI KITA KU","town":"OYODONAKA UMEDASUKAIBIRUTAWAISUTO(3","perfecture_jp":"大阪府","jp_add_1":"大阪市北区","jp_add_2":"大淀中梅田スカイビルタワーイースト３９階"},"5316190":{"post_code":"5316190","prefecture":"OSAKA FU","city":"OSAKA SHI KITA KU","town":"OYODONAKA UMEDASUKAIBIRUTAWAUESUTO(","perfecture_jp":"大阪府","jp_add_1":"大阪市北区","jp_add_2":"大淀中梅田スカイビルタワーウエスト"},"5316101":{"post_code":"5316101","prefecture":"OSAKA FU","city":"OSAKA SHI KITA KU","town":"OYODONAKA UMEDASUKAIBIRUTAWAUESUTO(","perfecture_jp":"大阪府","jp_add_1":"大阪市北区","jp_add_2":"大淀中梅田スカイビルタワーウエスト１階"},"5316102":{"post_code":"5316102","prefecture":"OSAKA FU","city":"OSAKA SHI KITA KU","town":"OYODONAKA UMEDASUKAIBIRUTAWAUESUTO(","perfecture_jp":"大阪府","jp_add_1":"大阪市北区","jp_add_2":"大淀中梅田スカイビルタワーウエスト２階"},"5316103":{"post_code":"5316103","prefecture":"OSAKA FU","city":"OSAKA SHI KITA KU","town":"OYODONAKA UMEDASUKAIBIRUTAWAUESUTO(","perfecture_jp":"大阪府","jp_add_1":"大阪市北区","jp_add_2":"大淀中梅田スカイビルタワーウエスト３階"},"5316104":{"post_code":"5316104","prefecture":"OSAKA FU","city":"OSAKA SHI KITA KU","town":"OYODONAKA UMEDASUKAIBIRUTAWAUESUTO(","perfecture_jp":"大阪府","jp_add_1":"大阪市北区","jp_add_2":"大淀中梅田スカイビルタワーウエスト４階"},"5316105":{"post_code":"5316105","prefecture":"OSAKA FU","city":"OSAKA SHI KITA KU","town":"OYODONAKA UMEDASUKAIBIRUTAWAUESUTO(","perfecture_jp":"大阪府","jp_add_1":"大阪市北区","jp_add_2":"大淀中梅田スカイビルタワーウエスト５階"},"5316106":{"post_code":"5316106","prefecture":"OSAKA FU","city":"OSAKA SHI KITA KU","town":"OYODONAKA UMEDASUKAIBIRUTAWAUESUTO(","perfecture_jp":"大阪府","jp_add_1":"大阪市北区","jp_add_2":"大淀中梅田スカイビルタワーウエスト６階"},"5316107":{"post_code":"5316107","prefecture":"OSAKA FU","city":"OSAKA SHI KITA KU","town":"OYODONAKA UMEDASUKAIBIRUTAWAUESUTO(","perfecture_jp":"大阪府","jp_add_1":"大阪市北区","jp_add_2":"大淀中梅田スカイビルタワーウエスト７階"},"5316108":{"post_code":"5316108","prefecture":"OSAKA FU","city":"OSAKA SHI KITA KU","town":"OYODONAKA UMEDASUKAIBIRUTAWAUESUTO(","perfecture_jp":"大阪府","jp_add_1":"大阪市北区","jp_add_2":"大淀中梅田スカイビルタワーウエスト８階"},"5316109":{"post_code":"5316109","prefecture":"OSAKA FU","city":"OSAKA SHI KITA KU","town":"OYODONAKA UMEDASUKAIBIRUTAWAUESUTO(","perfecture_jp":"大阪府","jp_add_1":"大阪市北区","jp_add_2":"大淀中梅田スカイビルタワーウエスト９階"},"5316110":{"post_code":"5316110","prefecture":"OSAKA FU","city":"OSAKA SHI KITA KU","town":"OYODONAKA UMEDASUKAIBIRUTAWAUESUTO(","perfecture_jp":"大阪府","jp_add_1":"大阪市北区","jp_add_2":"大淀中梅田スカイビルタワーウエスト１０階"},"5316111":{"post_code":"5316111","prefecture":"OSAKA FU","city":"OSAKA SHI KITA KU","town":"OYODONAKA UMEDASUKAIBIRUTAWAUESUTO(","perfecture_jp":"大阪府","jp_add_1":"大阪市北区","jp_add_2":"大淀中梅田スカイビルタワーウエスト１１階"},"5316112":{"post_code":"5316112","prefecture":"OSAKA FU","city":"OSAKA SHI KITA KU","town":"OYODONAKA UMEDASUKAIBIRUTAWAUESUTO(","perfecture_jp":"大阪府","jp_add_1":"大阪市北区","jp_add_2":"大淀中梅田スカイビルタワーウエスト１２階"},"5316113":{"post_code":"5316113","prefecture":"OSAKA FU","city":"OSAKA SHI KITA KU","town":"OYODONAKA UMEDASUKAIBIRUTAWAUESUTO(","perfecture_jp":"大阪府","jp_add_1":"大阪市北区","jp_add_2":"大淀中梅田スカイビルタワーウエスト１３階"},"5316114":{"post_code":"5316114","prefecture":"OSAKA FU","city":"OSAKA SHI KITA KU","town":"OYODONAKA UMEDASUKAIBIRUTAWAUESUTO(","perfecture_jp":"大阪府","jp_add_1":"大阪市北区","jp_add_2":"大淀中梅田スカイビルタワーウエスト１４階"},"5316115":{"post_code":"5316115","prefecture":"OSAKA FU","city":"OSAKA SHI KITA KU","town":"OYODONAKA UMEDASUKAIBIRUTAWAUESUTO(","perfecture_jp":"大阪府","jp_add_1":"大阪市北区","jp_add_2":"大淀中梅田スカイビルタワーウエスト１５階"},"5316116":{"post_code":"5316116","prefecture":"OSAKA FU","city":"OSAKA SHI KITA KU","town":"OYODONAKA UMEDASUKAIBIRUTAWAUESUTO(","perfecture_jp":"大阪府","jp_add_1":"大阪市北区","jp_add_2":"大淀中梅田スカイビルタワーウエスト１６階"},"5316117":{"post_code":"5316117","prefecture":"OSAKA FU","city":"OSAKA SHI KITA KU","town":"OYODONAKA UMEDASUKAIBIRUTAWAUESUTO(","perfecture_jp":"大阪府","jp_add_1":"大阪市北区","jp_add_2":"大淀中梅田スカイビルタワーウエスト１７階"},"5316118":{"post_code":"5316118","prefecture":"OSAKA FU","city":"OSAKA SHI KITA KU","town":"OYODONAKA UMEDASUKAIBIRUTAWAUESUTO(","perfecture_jp":"大阪府","jp_add_1":"大阪市北区","jp_add_2":"大淀中梅田スカイビルタワーウエスト１８階"},"5316119":{"post_code":"5316119","prefecture":"OSAKA FU","city":"OSAKA SHI KITA KU","town":"OYODONAKA UMEDASUKAIBIRUTAWAUESUTO(","perfecture_jp":"大阪府","jp_add_1":"大阪市北区","jp_add_2":"大淀中梅田スカイビルタワーウエスト１９階"},"5316120":{"post_code":"5316120","prefecture":"OSAKA FU","city":"OSAKA SHI KITA KU","town":"OYODONAKA UMEDASUKAIBIRUTAWAUESUTO(","perfecture_jp":"大阪府","jp_add_1":"大阪市北区","jp_add_2":"大淀中梅田スカイビルタワーウエスト２０階"},"5316121":{"post_code":"5316121","prefecture":"OSAKA FU","city":"OSAKA SHI KITA KU","town":"OYODONAKA UMEDASUKAIBIRUTAWAUESUTO(","perfecture_jp":"大阪府","jp_add_1":"大阪市北区","jp_add_2":"大淀中梅田スカイビルタワーウエスト２１階"},"5316122":{"post_code":"5316122","prefecture":"OSAKA FU","city":"OSAKA SHI KITA KU","town":"OYODONAKA UMEDASUKAIBIRUTAWAUESUTO(","perfecture_jp":"大阪府","jp_add_1":"大阪市北区","jp_add_2":"大淀中梅田スカイビルタワーウエスト２２階"},"5316123":{"post_code":"5316123","prefecture":"OSAKA FU","city":"OSAKA SHI KITA KU","town":"OYODONAKA UMEDASUKAIBIRUTAWAUESUTO(","perfecture_jp":"大阪府","jp_add_1":"大阪市北区","jp_add_2":"大淀中梅田スカイビルタワーウエスト２３階"},"5316124":{"post_code":"5316124","prefecture":"OSAKA FU","city":"OSAKA SHI KITA KU","town":"OYODONAKA UMEDASUKAIBIRUTAWAUESUTO(","perfecture_jp":"大阪府","jp_add_1":"大阪市北区","jp_add_2":"大淀中梅田スカイビルタワーウエスト２４階"},"5316125":{"post_code":"5316125","prefecture":"OSAKA FU","city":"OSAKA SHI KITA KU","town":"OYODONAKA UMEDASUKAIBIRUTAWAUESUTO(","perfecture_jp":"大阪府","jp_add_1":"大阪市北区","jp_add_2":"大淀中梅田スカイビルタワーウエスト２５階"},"5316126":{"post_code":"5316126","prefecture":"OSAKA FU","city":"OSAKA SHI KITA KU","town":"OYODONAKA UMEDASUKAIBIRUTAWAUESUTO(","perfecture_jp":"大阪府","jp_add_1":"大阪市北区","jp_add_2":"大淀中梅田スカイビルタワーウエスト２６階"},"5316127":{"post_code":"5316127","prefecture":"OSAKA FU","city":"OSAKA SHI KITA KU","town":"OYODONAKA UMEDASUKAIBIRUTAWAUESUTO(","perfecture_jp":"大阪府","jp_add_1":"大阪市北区","jp_add_2":"大淀中梅田スカイビルタワーウエスト２７階"},"5316128":{"post_code":"5316128","prefecture":"OSAKA FU","city":"OSAKA SHI KITA KU","town":"OYODONAKA UMEDASUKAIBIRUTAWAUESUTO(","perfecture_jp":"大阪府","jp_add_1":"大阪市北区","jp_add_2":"大淀中梅田スカイビルタワーウエスト２８階"},"5316129":{"post_code":"5316129","prefecture":"OSAKA FU","city":"OSAKA SHI KITA KU","town":"OYODONAKA UMEDASUKAIBIRUTAWAUESUTO(","perfecture_jp":"大阪府","jp_add_1":"大阪市北区","jp_add_2":"大淀中梅田スカイビルタワーウエスト２９階"},"5316130":{"post_code":"5316130","prefecture":"OSAKA FU","city":"OSAKA SHI KITA KU","town":"OYODONAKA UMEDASUKAIBIRUTAWAUESUTO(","perfecture_jp":"大阪府","jp_add_1":"大阪市北区","jp_add_2":"大淀中梅田スカイビルタワーウエスト３０階"},"5316131":{"post_code":"5316131","prefecture":"OSAKA FU","city":"OSAKA SHI KITA KU","town":"OYODONAKA UMEDASUKAIBIRUTAWAUESUTO(","perfecture_jp":"大阪府","jp_add_1":"大阪市北区","jp_add_2":"大淀中梅田スカイビルタワーウエスト３１階"},"5316132":{"post_code":"5316132","prefecture":"OSAKA FU","city":"OSAKA SHI KITA KU","town":"OYODONAKA UMEDASUKAIBIRUTAWAUESUTO(","perfecture_jp":"大阪府","jp_add_1":"大阪市北区","jp_add_2":"大淀中梅田スカイビルタワーウエスト３２階"},"5316133":{"post_code":"5316133","prefecture":"OSAKA FU","city":"OSAKA SHI KITA KU","town":"OYODONAKA UMEDASUKAIBIRUTAWAUESUTO(","perfecture_jp":"大阪府","jp_add_1":"大阪市北区","jp_add_2":"大淀中梅田スカイビルタワーウエスト３３階"},"5316134":{"post_code":"5316134","prefecture":"OSAKA FU","city":"OSAKA SHI KITA KU","town":"OYODONAKA UMEDASUKAIBIRUTAWAUESUTO(","perfecture_jp":"大阪府","jp_add_1":"大阪市北区","jp_add_2":"大淀中梅田スカイビルタワーウエスト３４階"},"5316135":{"post_code":"5316135","prefecture":"OSAKA FU","city":"OSAKA SHI KITA KU","town":"OYODONAKA UMEDASUKAIBIRUTAWAUESUTO(","perfecture_jp":"大阪府","jp_add_1":"大阪市北区","jp_add_2":"大淀中梅田スカイビルタワーウエスト３５階"},"5316136":{"post_code":"5316136","prefecture":"OSAKA FU","city":"OSAKA SHI KITA KU","town":"OYODONAKA UMEDASUKAIBIRUTAWAUESUTO(","perfecture_jp":"大阪府","jp_add_1":"大阪市北区","jp_add_2":"大淀中梅田スカイビルタワーウエスト３６階"},"5316137":{"post_code":"5316137","prefecture":"OSAKA FU","city":"OSAKA SHI KITA KU","town":"OYODONAKA UMEDASUKAIBIRUTAWAUESUTO(","perfecture_jp":"大阪府","jp_add_1":"大阪市北区","jp_add_2":"大淀中梅田スカイビルタワーウエスト３７階"},"5316138":{"post_code":"5316138","prefecture":"OSAKA FU","city":"OSAKA SHI KITA KU","town":"OYODONAKA UMEDASUKAIBIRUTAWAUESUTO(","perfecture_jp":"大阪府","jp_add_1":"大阪市北区","jp_add_2":"大淀中梅田スカイビルタワーウエスト３８階"},"5316139":{"post_code":"5316139","prefecture":"OSAKA FU","city":"OSAKA SHI KITA KU","town":"OYODONAKA UMEDASUKAIBIRUTAWAUESUTO(","perfecture_jp":"大阪府","jp_add_1":"大阪市北区","jp_add_2":"大淀中梅田スカイビルタワーウエスト３９階"},"5310075":{"post_code":"5310075","prefecture":"OSAKA FU","city":"OSAKA SHI KITA KU","town":"OYODOMINAMI","perfecture_jp":"大阪府","jp_add_1":"大阪市北区","jp_add_2":"大淀南"},"5310077":{"post_code":"5310077","prefecture":"OSAKA FU","city":"OSAKA SHI KITA KU","town":"OYODOKITA","perfecture_jp":"大阪府","jp_add_1":"大阪市北区","jp_add_2":"大淀北"},"5310064":{"post_code":"5310064","prefecture":"OSAKA FU","city":"OSAKA SHI KITA KU","town":"KOKUBUNJI","perfecture_jp":"大阪府","jp_add_1":"大阪市北区","jp_add_2":"国分寺"},"5310041":{"post_code":"5310041","prefecture":"OSAKA FU","city":"OSAKA SHI KITA KU","town":"TENJIMBASHI(7.8-CHOME)","perfecture_jp":"大阪府","jp_add_1":"大阪市北区","jp_add_2":"天神橋"},"5310072":{"post_code":"5310072","prefecture":"OSAKA FU","city":"OSAKA SHI KITA KU","town":"TOYOSAKI","perfecture_jp":"大阪府","jp_add_1":"大阪市北区","jp_add_2":"豊崎"},"5310071":{"post_code":"5310071","prefecture":"OSAKA FU","city":"OSAKA SHI KITA KU","town":"NAKATSU","perfecture_jp":"大阪府","jp_add_1":"大阪市北区","jp_add_2":"中津"},"5310062":{"post_code":"5310062","prefecture":"OSAKA FU","city":"OSAKA SHI KITA KU","town":"NAGARANAKA","perfecture_jp":"大阪府","jp_add_1":"大阪市北区","jp_add_2":"長柄中"},"5310063":{"post_code":"5310063","prefecture":"OSAKA FU","city":"OSAKA SHI KITA KU","town":"NAGARAHIGASHI","perfecture_jp":"大阪府","jp_add_1":"大阪市北区","jp_add_2":"長柄東"},"5310061":{"post_code":"5310061","prefecture":"OSAKA FU","city":"OSAKA SHI KITA KU","town":"NAGARANISHI","perfecture_jp":"大阪府","jp_add_1":"大阪市北区","jp_add_2":"長柄西"},"5310074":{"post_code":"5310074","prefecture":"OSAKA FU","city":"OSAKA SHI KITA KU","town":"HONJOHIGASHI","perfecture_jp":"大阪府","jp_add_1":"大阪市北区","jp_add_2":"本庄東"},"5310073":{"post_code":"5310073","prefecture":"OSAKA FU","city":"OSAKA SHI KITA KU","town":"HONJONISHI","perfecture_jp":"大阪府","jp_add_1":"大阪市北区","jp_add_2":"本庄西"}}