{"5320000":{"post_code":"5320000","prefecture":"OSAKA FU","city":"OSAKA SHI YODOGAWA KU","town":"IKANIKEISAIGANAIBAAI","perfecture_jp":"大阪府","jp_add_1":"大阪市淀川区","jp_add_2":""},"5320031":{"post_code":"5320031","prefecture":"OSAKA FU","city":"OSAKA SHI YODOGAWA KU","town":"KASHIMA","perfecture_jp":"大阪府","jp_add_1":"大阪市淀川区","jp_add_2":"加島"},"5320012":{"post_code":"5320012","prefecture":"OSAKA FU","city":"OSAKA SHI YODOGAWA KU","town":"KIKAWAHIGASHI","perfecture_jp":"大阪府","jp_add_1":"大阪市淀川区","jp_add_2":"木川東"},"5320013":{"post_code":"5320013","prefecture":"OSAKA FU","city":"OSAKA SHI YODOGAWA KU","town":"KIKAWANISHI","perfecture_jp":"大阪府","jp_add_1":"大阪市淀川区","jp_add_2":"木川西"},"5320025":{"post_code":"5320025","prefecture":"OSAKA FU","city":"OSAKA SHI YODOGAWA KU","town":"SHINKITANO","perfecture_jp":"大阪府","jp_add_1":"大阪市淀川区","jp_add_2":"新北野"},"5320024":{"post_code":"5320024","prefecture":"OSAKA FU","city":"OSAKA SHI YODOGAWA KU","town":"JUSOHOMMACHI","perfecture_jp":"大阪府","jp_add_1":"大阪市淀川区","jp_add_2":"十三本町"},"5320028":{"post_code":"5320028","prefecture":"OSAKA FU","city":"OSAKA SHI YODOGAWA KU","town":"JUSOMOTOIMAZATO","perfecture_jp":"大阪府","jp_add_1":"大阪市淀川区","jp_add_2":"十三元今里"},"5320023":{"post_code":"5320023","prefecture":"OSAKA FU","city":"OSAKA SHI YODOGAWA KU","town":"JUSOHIGASHI","perfecture_jp":"大阪府","jp_add_1":"大阪市淀川区","jp_add_2":"十三東"},"5320001":{"post_code":"5320001","prefecture":"OSAKA FU","city":"OSAKA SHI YODOGAWA KU","town":"JUHACHIJO","perfecture_jp":"大阪府","jp_add_1":"大阪市淀川区","jp_add_2":"十八条"},"5320027":{"post_code":"5320027","prefecture":"OSAKA FU","city":"OSAKA SHI YODOGAWA KU","town":"TAGAWA","perfecture_jp":"大阪府","jp_add_1":"大阪市淀川区","jp_add_2":"田川"},"5320021":{"post_code":"5320021","prefecture":"OSAKA FU","city":"OSAKA SHI YODOGAWA KU","town":"TAGAWAKITA","perfecture_jp":"大阪府","jp_add_1":"大阪市淀川区","jp_add_2":"田川北"},"5320026":{"post_code":"5320026","prefecture":"OSAKA FU","city":"OSAKA SHI YODOGAWA KU","town":"TSUKAMOTO","perfecture_jp":"大阪府","jp_add_1":"大阪市淀川区","jp_add_2":"塚本"},"5320033":{"post_code":"5320033","prefecture":"OSAKA FU","city":"OSAKA SHI YODOGAWA KU","town":"NIITAKA","perfecture_jp":"大阪府","jp_add_1":"大阪市淀川区","jp_add_2":"新高"},"5320011":{"post_code":"5320011","prefecture":"OSAKA FU","city":"OSAKA SHI YODOGAWA KU","town":"NISHINAKAJIMA","perfecture_jp":"大阪府","jp_add_1":"大阪市淀川区","jp_add_2":"西中島"},"5320006":{"post_code":"5320006","prefecture":"OSAKA FU","city":"OSAKA SHI YODOGAWA KU","town":"NISHIMIKUNI","perfecture_jp":"大阪府","jp_add_1":"大阪市淀川区","jp_add_2":"西三国"},"5320004":{"post_code":"5320004","prefecture":"OSAKA FU","city":"OSAKA SHI YODOGAWA KU","town":"NISHIMIYAHARA","perfecture_jp":"大阪府","jp_add_1":"大阪市淀川区","jp_add_2":"西宮原"},"5320022":{"post_code":"5320022","prefecture":"OSAKA FU","city":"OSAKA SHI YODOGAWA KU","town":"NONAKAMINAMI","perfecture_jp":"大阪府","jp_add_1":"大阪市淀川区","jp_add_2":"野中南"},"5320034":{"post_code":"5320034","prefecture":"OSAKA FU","city":"OSAKA SHI YODOGAWA KU","town":"NONAKAKITA","perfecture_jp":"大阪府","jp_add_1":"大阪市淀川区","jp_add_2":"野中北"},"5320002":{"post_code":"5320002","prefecture":"OSAKA FU","city":"OSAKA SHI YODOGAWA KU","town":"HIGASHIMIKUNI","perfecture_jp":"大阪府","jp_add_1":"大阪市淀川区","jp_add_2":"東三国"},"5320005":{"post_code":"5320005","prefecture":"OSAKA FU","city":"OSAKA SHI YODOGAWA KU","town":"MIKUNIHOMMACHI","perfecture_jp":"大阪府","jp_add_1":"大阪市淀川区","jp_add_2":"三国本町"},"5320036":{"post_code":"5320036","prefecture":"OSAKA FU","city":"OSAKA SHI YODOGAWA KU","town":"MITSUYANAKA","perfecture_jp":"大阪府","jp_add_1":"大阪市淀川区","jp_add_2":"三津屋中"},"5320035":{"post_code":"5320035","prefecture":"OSAKA FU","city":"OSAKA SHI YODOGAWA KU","town":"MITSUYAMINAMI","perfecture_jp":"大阪府","jp_add_1":"大阪市淀川区","jp_add_2":"三津屋南"},"5320032":{"post_code":"5320032","prefecture":"OSAKA FU","city":"OSAKA SHI YODOGAWA KU","town":"MITSUYAKITA","perfecture_jp":"大阪府","jp_add_1":"大阪市淀川区","jp_add_2":"三津屋北"},"5320003":{"post_code":"5320003","prefecture":"OSAKA FU","city":"OSAKA SHI YODOGAWA KU","town":"MIYAHARA","perfecture_jp":"大阪府","jp_add_1":"大阪市淀川区","jp_add_2":"宮原"}}