{"5330000":{"post_code":"5330000","prefecture":"OSAKA FU","city":"OSAKA SHI HIGASHIYODOGAWA KU","town":"IKANIKEISAIGANAIBAAI","perfecture_jp":"大阪府","jp_add_1":"大阪市東淀川区","jp_add_2":""},"5330007":{"post_code":"5330007","prefecture":"OSAKA FU","city":"OSAKA SHI HIGASHIYODOGAWA KU","town":"AIKAWA","perfecture_jp":"大阪府","jp_add_1":"大阪市東淀川区","jp_add_2":"相川"},"5330032":{"post_code":"5330032","prefecture":"OSAKA FU","city":"OSAKA SHI HIGASHIYODOGAWA KU","town":"AWAJI","perfecture_jp":"大阪府","jp_add_1":"大阪市東淀川区","jp_add_2":"淡路"},"5330001":{"post_code":"5330001","prefecture":"OSAKA FU","city":"OSAKA SHI HIGASHIYODOGAWA KU","town":"ITAKANO","perfecture_jp":"大阪府","jp_add_1":"大阪市東淀川区","jp_add_2":"井高野"},"5330015":{"post_code":"5330015","prefecture":"OSAKA FU","city":"OSAKA SHI HIGASHIYODOGAWA KU","town":"OSUMI","perfecture_jp":"大阪府","jp_add_1":"大阪市東淀川区","jp_add_2":"大隅"},"5330006":{"post_code":"5330006","prefecture":"OSAKA FU","city":"OSAKA SHI HIGASHIYODOGAWA KU","town":"KAMISHINJO","perfecture_jp":"大阪府","jp_add_1":"大阪市東淀川区","jp_add_2":"上新庄"},"5330002":{"post_code":"5330002","prefecture":"OSAKA FU","city":"OSAKA SHI HIGASHIYODOGAWA KU","town":"KITAEGUCHI","perfecture_jp":"大阪府","jp_add_1":"大阪市東淀川区","jp_add_2":"北江口"},"5330024":{"post_code":"5330024","prefecture":"OSAKA FU","city":"OSAKA SHI HIGASHIYODOGAWA KU","town":"KUNIJIMA","perfecture_jp":"大阪府","jp_add_1":"大阪市東淀川区","jp_add_2":"柴島"},"5330004":{"post_code":"5330004","prefecture":"OSAKA FU","city":"OSAKA SHI HIGASHIYODOGAWA KU","town":"KOMATSU","perfecture_jp":"大阪府","jp_add_1":"大阪市東淀川区","jp_add_2":"小松"},"5330021":{"post_code":"5330021","prefecture":"OSAKA FU","city":"OSAKA SHI HIGASHIYODOGAWA KU","town":"SHIMOSHINJO","perfecture_jp":"大阪府","jp_add_1":"大阪市東淀川区","jp_add_2":"下新庄"},"5330005":{"post_code":"5330005","prefecture":"OSAKA FU","city":"OSAKA SHI HIGASHIYODOGAWA KU","town":"ZUIKO","perfecture_jp":"大阪府","jp_add_1":"大阪市東淀川区","jp_add_2":"瑞光"},"5330022":{"post_code":"5330022","prefecture":"OSAKA FU","city":"OSAKA SHI HIGASHIYODOGAWA KU","town":"SUGAHARA","perfecture_jp":"大阪府","jp_add_1":"大阪市東淀川区","jp_add_2":"菅原"},"5330011":{"post_code":"5330011","prefecture":"OSAKA FU","city":"OSAKA SHI HIGASHIYODOGAWA KU","town":"DAIDO","perfecture_jp":"大阪府","jp_add_1":"大阪市東淀川区","jp_add_2":"大桐"},"5330012":{"post_code":"5330012","prefecture":"OSAKA FU","city":"OSAKA SHI HIGASHIYODOGAWA KU","town":"DAIDOMINAMI","perfecture_jp":"大阪府","jp_add_1":"大阪市東淀川区","jp_add_2":"大道南"},"5330013":{"post_code":"5330013","prefecture":"OSAKA FU","city":"OSAKA SHI HIGASHIYODOGAWA KU","town":"TOYOSATO","perfecture_jp":"大阪府","jp_add_1":"大阪市東淀川区","jp_add_2":"豊里"},"5330031":{"post_code":"5330031","prefecture":"OSAKA FU","city":"OSAKA SHI HIGASHIYODOGAWA KU","town":"NISHIAWAJI","perfecture_jp":"大阪府","jp_add_1":"大阪市東淀川区","jp_add_2":"西淡路"},"5330023":{"post_code":"5330023","prefecture":"OSAKA FU","city":"OSAKA SHI HIGASHIYODOGAWA KU","town":"HIGASHIAWAJI","perfecture_jp":"大阪府","jp_add_1":"大阪市東淀川区","jp_add_2":"東淡路"},"5330033":{"post_code":"5330033","prefecture":"OSAKA FU","city":"OSAKA SHI HIGASHIYODOGAWA KU","town":"HIGASHINAKAJIMA","perfecture_jp":"大阪府","jp_add_1":"大阪市東淀川区","jp_add_2":"東中島"},"5330014":{"post_code":"5330014","prefecture":"OSAKA FU","city":"OSAKA SHI HIGASHIYODOGAWA KU","town":"HOSHIN","perfecture_jp":"大阪府","jp_add_1":"大阪市東淀川区","jp_add_2":"豊新"},"5330003":{"post_code":"5330003","prefecture":"OSAKA FU","city":"OSAKA SHI HIGASHIYODOGAWA KU","town":"MINAMIEGUCHI","perfecture_jp":"大阪府","jp_add_1":"大阪市東淀川区","jp_add_2":"南江口"}}