{"5340000":{"post_code":"5340000","prefecture":"OSAKA FU","city":"OSAKA SHI MIYAKOJIMA KU","town":"IKANIKEISAIGANAIBAAI","perfecture_jp":"大阪府","jp_add_1":"大阪市都島区","jp_add_2":""},"5340026":{"post_code":"5340026","prefecture":"OSAKA FU","city":"OSAKA SHI MIYAKOJIMA KU","town":"AMIJIMACHO","perfecture_jp":"大阪府","jp_add_1":"大阪市都島区","jp_add_2":"網島町"},"5340013":{"post_code":"5340013","prefecture":"OSAKA FU","city":"OSAKA SHI MIYAKOJIMA KU","town":"UCHINDAICHO","perfecture_jp":"大阪府","jp_add_1":"大阪市都島区","jp_add_2":"内代町"},"5340025":{"post_code":"5340025","prefecture":"OSAKA FU","city":"OSAKA SHI MIYAKOJIMA KU","town":"KATAMACHI","perfecture_jp":"大阪府","jp_add_1":"大阪市都島区","jp_add_2":"片町"},"5340001":{"post_code":"5340001","prefecture":"OSAKA FU","city":"OSAKA SHI MIYAKOJIMA KU","town":"KEMACHO","perfecture_jp":"大阪府","jp_add_1":"大阪市都島区","jp_add_2":"毛馬町"},"5340015":{"post_code":"5340015","prefecture":"OSAKA FU","city":"OSAKA SHI MIYAKOJIMA KU","town":"ZENGENJICHO","perfecture_jp":"大阪府","jp_add_1":"大阪市都島区","jp_add_2":"善源寺町"},"5340002":{"post_code":"5340002","prefecture":"OSAKA FU","city":"OSAKA SHI MIYAKOJIMA KU","town":"DAITOCHO","perfecture_jp":"大阪府","jp_add_1":"大阪市都島区","jp_add_2":"大東町"},"5340011":{"post_code":"5340011","prefecture":"OSAKA FU","city":"OSAKA SHI MIYAKOJIMA KU","town":"TAKAKURACHO","perfecture_jp":"大阪府","jp_add_1":"大阪市都島区","jp_add_2":"高倉町"},"5340016":{"post_code":"5340016","prefecture":"OSAKA FU","city":"OSAKA SHI MIYAKOJIMA KU","town":"TOMOBUCHICHO","perfecture_jp":"大阪府","jp_add_1":"大阪市都島区","jp_add_2":"友渕町"},"5340027":{"post_code":"5340027","prefecture":"OSAKA FU","city":"OSAKA SHI MIYAKOJIMA KU","town":"NAKANOCHO","perfecture_jp":"大阪府","jp_add_1":"大阪市都島区","jp_add_2":"中野町"},"5340024":{"post_code":"5340024","prefecture":"OSAKA FU","city":"OSAKA SHI MIYAKOJIMA KU","town":"HIGASHINODAMACHI","perfecture_jp":"大阪府","jp_add_1":"大阪市都島区","jp_add_2":"東野田町"},"5340022":{"post_code":"5340022","prefecture":"OSAKA FU","city":"OSAKA SHI MIYAKOJIMA KU","town":"MIYAKOJIMANAKADORI","perfecture_jp":"大阪府","jp_add_1":"大阪市都島区","jp_add_2":"都島中通"},"5340021":{"post_code":"5340021","prefecture":"OSAKA FU","city":"OSAKA SHI MIYAKOJIMA KU","town":"MIYAKOJIMAHONDORI","perfecture_jp":"大阪府","jp_add_1":"大阪市都島区","jp_add_2":"都島本通"},"5340023":{"post_code":"5340023","prefecture":"OSAKA FU","city":"OSAKA SHI MIYAKOJIMA KU","town":"MIYAKOJIMAMINAMIDORI","perfecture_jp":"大阪府","jp_add_1":"大阪市都島区","jp_add_2":"都島南通"},"5340014":{"post_code":"5340014","prefecture":"OSAKA FU","city":"OSAKA SHI MIYAKOJIMA KU","town":"MIYAKOJIMAKITADORI","perfecture_jp":"大阪府","jp_add_1":"大阪市都島区","jp_add_2":"都島北通"},"5340012":{"post_code":"5340012","prefecture":"OSAKA FU","city":"OSAKA SHI MIYAKOJIMA KU","town":"MIYUKICHO","perfecture_jp":"大阪府","jp_add_1":"大阪市都島区","jp_add_2":"御幸町"}}