{"5350000":{"post_code":"5350000","prefecture":"OSAKA FU","city":"OSAKA SHI ASAHI KU","town":"IKANIKEISAIGANAIBAAI","perfecture_jp":"大阪府","jp_add_1":"大阪市旭区","jp_add_2":""},"5350005":{"post_code":"5350005","prefecture":"OSAKA FU","city":"OSAKA SHI ASAHI KU","town":"AKAGAWA","perfecture_jp":"大阪府","jp_add_1":"大阪市旭区","jp_add_2":"赤川"},"5350004":{"post_code":"5350004","prefecture":"OSAKA FU","city":"OSAKA SHI ASAHI KU","town":"IKUE","perfecture_jp":"大阪府","jp_add_1":"大阪市旭区","jp_add_2":"生江"},"5350011":{"post_code":"5350011","prefecture":"OSAKA FU","city":"OSAKA SHI ASAHI KU","town":"IMAICHI","perfecture_jp":"大阪府","jp_add_1":"大阪市旭区","jp_add_2":"今市"},"5350002":{"post_code":"5350002","prefecture":"OSAKA FU","city":"OSAKA SHI ASAHI KU","town":"OMIYA","perfecture_jp":"大阪府","jp_add_1":"大阪市旭区","jp_add_2":"大宮"},"5350021":{"post_code":"5350021","prefecture":"OSAKA FU","city":"OSAKA SHI ASAHI KU","town":"SHIMIZU","perfecture_jp":"大阪府","jp_add_1":"大阪市旭区","jp_add_2":"清水"},"5350022":{"post_code":"5350022","prefecture":"OSAKA FU","city":"OSAKA SHI ASAHI KU","town":"SHIMMORI","perfecture_jp":"大阪府","jp_add_1":"大阪市旭区","jp_add_2":"新森"},"5350012":{"post_code":"5350012","prefecture":"OSAKA FU","city":"OSAKA SHI ASAHI KU","town":"SEMBAYASHI","perfecture_jp":"大阪府","jp_add_1":"大阪市旭区","jp_add_2":"千林"},"5350001":{"post_code":"5350001","prefecture":"OSAKA FU","city":"OSAKA SHI ASAHI KU","town":"TAISHIBASHI","perfecture_jp":"大阪府","jp_add_1":"大阪市旭区","jp_add_2":"太子橋"},"5350031":{"post_code":"5350031","prefecture":"OSAKA FU","city":"OSAKA SHI ASAHI KU","town":"TAKADONO","perfecture_jp":"大阪府","jp_add_1":"大阪市旭区","jp_add_2":"高殿"},"5350003":{"post_code":"5350003","prefecture":"OSAKA FU","city":"OSAKA SHI ASAHI KU","town":"NAKAMIYA","perfecture_jp":"大阪府","jp_add_1":"大阪市旭区","jp_add_2":"中宮"},"5350013":{"post_code":"5350013","prefecture":"OSAKA FU","city":"OSAKA SHI ASAHI KU","town":"MORISHOJI","perfecture_jp":"大阪府","jp_add_1":"大阪市旭区","jp_add_2":"森小路"}}