{"5410052":{"post_code":"5410052","prefecture":"OSAKA FU","city":"OSAKA SHI CHUO KU","town":"AZUCHIMACHI","perfecture_jp":"大阪府","jp_add_1":"大阪市中央区","jp_add_2":"安土町"},"5410047":{"post_code":"5410047","prefecture":"OSAKA FU","city":"OSAKA SHI CHUO KU","town":"AWAJIMACHI","perfecture_jp":"大阪府","jp_add_1":"大阪市中央区","jp_add_2":"淡路町"},"5410042":{"post_code":"5410042","prefecture":"OSAKA FU","city":"OSAKA SHI CHUO KU","town":"IMABASHI","perfecture_jp":"大阪府","jp_add_1":"大阪市中央区","jp_add_2":"今橋"},"5410048":{"post_code":"5410048","prefecture":"OSAKA FU","city":"OSAKA SHI CHUO KU","town":"KAWARAMACHI","perfecture_jp":"大阪府","jp_add_1":"大阪市中央区","jp_add_2":"瓦町"},"5410057":{"post_code":"5410057","prefecture":"OSAKA FU","city":"OSAKA SHI CHUO KU","town":"KITAKYUHOJIMACHI","perfecture_jp":"大阪府","jp_add_1":"大阪市中央区","jp_add_2":"北久宝寺町"},"5410041":{"post_code":"5410041","prefecture":"OSAKA FU","city":"OSAKA SHI CHUO KU","town":"KITAHAMA","perfecture_jp":"大阪府","jp_add_1":"大阪市中央区","jp_add_2":"北浜"},"5410056":{"post_code":"5410056","prefecture":"OSAKA FU","city":"OSAKA SHI CHUO KU","town":"KYUTAROMACHI","perfecture_jp":"大阪府","jp_add_1":"大阪市中央区","jp_add_2":"久太郎町"},"5410043":{"post_code":"5410043","prefecture":"OSAKA FU","city":"OSAKA SHI CHUO KU","town":"KORAIBASHI","perfecture_jp":"大阪府","jp_add_1":"大阪市中央区","jp_add_2":"高麗橋"},"5410055":{"post_code":"5410055","prefecture":"OSAKA FU","city":"OSAKA SHI CHUO KU","town":"SEMBACHUO","perfecture_jp":"大阪府","jp_add_1":"大阪市中央区","jp_add_2":"船場中央"},"5410045":{"post_code":"5410045","prefecture":"OSAKA FU","city":"OSAKA SHI CHUO KU","town":"DOSHOMACHI","perfecture_jp":"大阪府","jp_add_1":"大阪市中央区","jp_add_2":"道修町"},"5410059":{"post_code":"5410059","prefecture":"OSAKA FU","city":"OSAKA SHI CHUO KU","town":"BAKUROMACHI","perfecture_jp":"大阪府","jp_add_1":"大阪市中央区","jp_add_2":"博労町"},"5410046":{"post_code":"5410046","prefecture":"OSAKA FU","city":"OSAKA SHI CHUO KU","town":"HIRANOMACHI","perfecture_jp":"大阪府","jp_add_1":"大阪市中央区","jp_add_2":"平野町"},"5410051":{"post_code":"5410051","prefecture":"OSAKA FU","city":"OSAKA SHI CHUO KU","town":"BINGOMACHI","perfecture_jp":"大阪府","jp_add_1":"大阪市中央区","jp_add_2":"備後町"},"5410044":{"post_code":"5410044","prefecture":"OSAKA FU","city":"OSAKA SHI CHUO KU","town":"FUSHIMIMACHI","perfecture_jp":"大阪府","jp_add_1":"大阪市中央区","jp_add_2":"伏見町"},"5410053":{"post_code":"5410053","prefecture":"OSAKA FU","city":"OSAKA SHI CHUO KU","town":"HOMMACHI","perfecture_jp":"大阪府","jp_add_1":"大阪市中央区","jp_add_2":"本町"},"5410058":{"post_code":"5410058","prefecture":"OSAKA FU","city":"OSAKA SHI CHUO KU","town":"MINAMIKYUHOJIMACHI","perfecture_jp":"大阪府","jp_add_1":"大阪市中央区","jp_add_2":"南久宝寺町"},"5410054":{"post_code":"5410054","prefecture":"OSAKA FU","city":"OSAKA SHI CHUO KU","town":"MINAMIHOMMACHI","perfecture_jp":"大阪府","jp_add_1":"大阪市中央区","jp_add_2":"南本町"}}