{"5420061":{"post_code":"5420061","prefecture":"OSAKA FU","city":"OSAKA SHI CHUO KU","town":"ANDOJIMACHI","perfecture_jp":"大阪府","jp_add_1":"大阪市中央区","jp_add_2":"安堂寺町"},"5420064":{"post_code":"5420064","prefecture":"OSAKA FU","city":"OSAKA SHI CHUO KU","town":"UESHIO","perfecture_jp":"大阪府","jp_add_1":"大阪市中央区","jp_add_2":"上汐"},"5420062":{"post_code":"5420062","prefecture":"OSAKA FU","city":"OSAKA SHI CHUO KU","town":"UEHOMMACHINISHI","perfecture_jp":"大阪府","jp_add_1":"大阪市中央区","jp_add_2":"上本町西"},"5420066":{"post_code":"5420066","prefecture":"OSAKA FU","city":"OSAKA SHI CHUO KU","town":"KAWARAYAMACHI","perfecture_jp":"大阪府","jp_add_1":"大阪市中央区","jp_add_2":"瓦屋町"},"5420072":{"post_code":"5420072","prefecture":"OSAKA FU","city":"OSAKA SHI CHUO KU","town":"KOZU","perfecture_jp":"大阪府","jp_add_1":"大阪市中央区","jp_add_2":"高津"},"5420082":{"post_code":"5420082","prefecture":"OSAKA FU","city":"OSAKA SHI CHUO KU","town":"SHIMANOCHI","perfecture_jp":"大阪府","jp_add_1":"大阪市中央区","jp_add_2":"島之内"},"5420085":{"post_code":"5420085","prefecture":"OSAKA FU","city":"OSAKA SHI CHUO KU","town":"SHINSAIBASHISUJI","perfecture_jp":"大阪府","jp_add_1":"大阪市中央区","jp_add_2":"心斎橋筋"},"5420074":{"post_code":"5420074","prefecture":"OSAKA FU","city":"OSAKA SHI CHUO KU","town":"SENNICHIMAE","perfecture_jp":"大阪府","jp_add_1":"大阪市中央区","jp_add_2":"千日前"},"5420084":{"post_code":"5420084","prefecture":"OSAKA FU","city":"OSAKA SHI CHUO KU","town":"SOEMONCHO","perfecture_jp":"大阪府","jp_add_1":"大阪市中央区","jp_add_2":"宗右衛門町"},"5420012":{"post_code":"5420012","prefecture":"OSAKA FU","city":"OSAKA SHI CHUO KU","town":"TANIMACHI(6-9-CHOME)","perfecture_jp":"大阪府","jp_add_1":"大阪市中央区","jp_add_2":"谷町"},"5420063":{"post_code":"5420063","prefecture":"OSAKA FU","city":"OSAKA SHI CHUO KU","town":"TOHEI","perfecture_jp":"大阪府","jp_add_1":"大阪市中央区","jp_add_2":"東平"},"5420077":{"post_code":"5420077","prefecture":"OSAKA FU","city":"OSAKA SHI CHUO KU","town":"DOTOMBORI(1-CHOMEHIGASHI)","perfecture_jp":"大阪府","jp_add_1":"大阪市中央区","jp_add_2":"道頓堀"},"5420071":{"post_code":"5420071","prefecture":"OSAKA FU","city":"OSAKA SHI CHUO KU","town":"DOTOMBORI(SONOTA)","perfecture_jp":"大阪府","jp_add_1":"大阪市中央区","jp_add_2":"道頓堀"},"5420065":{"post_code":"5420065","prefecture":"OSAKA FU","city":"OSAKA SHI CHUO KU","town":"NAKADERA","perfecture_jp":"大阪府","jp_add_1":"大阪市中央区","jp_add_2":"中寺"},"5420076":{"post_code":"5420076","prefecture":"OSAKA FU","city":"OSAKA SHI CHUO KU","town":"NAMBA","perfecture_jp":"大阪府","jp_add_1":"大阪市中央区","jp_add_2":"難波"},"5420075":{"post_code":"5420075","prefecture":"OSAKA FU","city":"OSAKA SHI CHUO KU","town":"NAMBASENNICHIMAE","perfecture_jp":"大阪府","jp_add_1":"大阪市中央区","jp_add_2":"難波千日前"},"5420086":{"post_code":"5420086","prefecture":"OSAKA FU","city":"OSAKA SHI CHUO KU","town":"NISHISHINSAIBASHI","perfecture_jp":"大阪府","jp_add_1":"大阪市中央区","jp_add_2":"西心斎橋"},"5420073":{"post_code":"5420073","prefecture":"OSAKA FU","city":"OSAKA SHI CHUO KU","town":"NIPPOMBASHI","perfecture_jp":"大阪府","jp_add_1":"大阪市中央区","jp_add_2":"日本橋"},"5420083":{"post_code":"5420083","prefecture":"OSAKA FU","city":"OSAKA SHI CHUO KU","town":"HIGASHISHINSAIBASHI","perfecture_jp":"大阪府","jp_add_1":"大阪市中央区","jp_add_2":"東心斎橋"},"5420067":{"post_code":"5420067","prefecture":"OSAKA FU","city":"OSAKA SHI CHUO KU","town":"MATSUYAMACHI","perfecture_jp":"大阪府","jp_add_1":"大阪市中央区","jp_add_2":"松屋町"},"5420081":{"post_code":"5420081","prefecture":"OSAKA FU","city":"OSAKA SHI CHUO KU","town":"MINAMISEMBA","perfecture_jp":"大阪府","jp_add_1":"大阪市中央区","jp_add_2":"南船場"}}