{"5440000":{"post_code":"5440000","prefecture":"OSAKA FU","city":"OSAKA SHI IKUNO KU","town":"IKANIKEISAIGANAIBAAI","perfecture_jp":"大阪府","jp_add_1":"大阪市生野区","jp_add_2":""},"5440025":{"post_code":"5440025","prefecture":"OSAKA FU","city":"OSAKA SHI IKUNO KU","town":"IKUNOHIGASHI","perfecture_jp":"大阪府","jp_add_1":"大阪市生野区","jp_add_2":"生野東"},"5440024":{"post_code":"5440024","prefecture":"OSAKA FU","city":"OSAKA SHI IKUNO KU","town":"IKUNONISHI","perfecture_jp":"大阪府","jp_add_1":"大阪市生野区","jp_add_2":"生野西"},"5440021":{"post_code":"5440021","prefecture":"OSAKA FU","city":"OSAKA SHI IKUNO KU","town":"KATSUYAMAMINAMI","perfecture_jp":"大阪府","jp_add_1":"大阪市生野区","jp_add_2":"勝山南"},"5440033":{"post_code":"5440033","prefecture":"OSAKA FU","city":"OSAKA SHI IKUNO KU","town":"KATSUYAMAKITA","perfecture_jp":"大阪府","jp_add_1":"大阪市生野区","jp_add_2":"勝山北"},"5440022":{"post_code":"5440022","prefecture":"OSAKA FU","city":"OSAKA SHI IKUNO KU","town":"SHARIJI","perfecture_jp":"大阪府","jp_add_1":"大阪市生野区","jp_add_2":"舎利寺"},"5440002":{"post_code":"5440002","prefecture":"OSAKA FU","city":"OSAKA SHI IKUNO KU","town":"SHOJI","perfecture_jp":"大阪府","jp_add_1":"大阪市生野区","jp_add_2":"小路"},"5440003":{"post_code":"5440003","prefecture":"OSAKA FU","city":"OSAKA SHI IKUNO KU","town":"SHOJIHIGASHI","perfecture_jp":"大阪府","jp_add_1":"大阪市生野区","jp_add_2":"小路東"},"5440001":{"post_code":"5440001","prefecture":"OSAKA FU","city":"OSAKA SHI IKUNO KU","town":"SHINIMAZATO","perfecture_jp":"大阪府","jp_add_1":"大阪市生野区","jp_add_2":"新今里"},"5440011":{"post_code":"5440011","prefecture":"OSAKA FU","city":"OSAKA SHI IKUNO KU","town":"TAJIMA","perfecture_jp":"大阪府","jp_add_1":"大阪市生野区","jp_add_2":"田島"},"5440013":{"post_code":"5440013","prefecture":"OSAKA FU","city":"OSAKA SHI IKUNO KU","town":"TATSUMINAKA","perfecture_jp":"大阪府","jp_add_1":"大阪市生野区","jp_add_2":"巽中"},"5440014":{"post_code":"5440014","prefecture":"OSAKA FU","city":"OSAKA SHI IKUNO KU","town":"TATSUMIHIGASHI","perfecture_jp":"大阪府","jp_add_1":"大阪市生野区","jp_add_2":"巽東"},"5440012":{"post_code":"5440012","prefecture":"OSAKA FU","city":"OSAKA SHI IKUNO KU","town":"TATSUMINISHI","perfecture_jp":"大阪府","jp_add_1":"大阪市生野区","jp_add_2":"巽西"},"5440015":{"post_code":"5440015","prefecture":"OSAKA FU","city":"OSAKA SHI IKUNO KU","town":"TATSUMIMINAMI","perfecture_jp":"大阪府","jp_add_1":"大阪市生野区","jp_add_2":"巽南"},"5440004":{"post_code":"5440004","prefecture":"OSAKA FU","city":"OSAKA SHI IKUNO KU","town":"TATSUMIKITA","perfecture_jp":"大阪府","jp_add_1":"大阪市生野区","jp_add_2":"巽北"},"5440031":{"post_code":"5440031","prefecture":"OSAKA FU","city":"OSAKA SHI IKUNO KU","town":"TSURUHASHI","perfecture_jp":"大阪府","jp_add_1":"大阪市生野区","jp_add_2":"鶴橋"},"5440005":{"post_code":"5440005","prefecture":"OSAKA FU","city":"OSAKA SHI IKUNO KU","town":"NAKAGAWA","perfecture_jp":"大阪府","jp_add_1":"大阪市生野区","jp_add_2":"中川"},"5440006":{"post_code":"5440006","prefecture":"OSAKA FU","city":"OSAKA SHI IKUNO KU","town":"NAKAGAWAHIGASHI","perfecture_jp":"大阪府","jp_add_1":"大阪市生野区","jp_add_2":"中川東"},"5440032":{"post_code":"5440032","prefecture":"OSAKA FU","city":"OSAKA SHI IKUNO KU","town":"NAKAGAWANISHI","perfecture_jp":"大阪府","jp_add_1":"大阪市生野区","jp_add_2":"中川西"},"5440023":{"post_code":"5440023","prefecture":"OSAKA FU","city":"OSAKA SHI IKUNO KU","town":"HAYASHIJI","perfecture_jp":"大阪府","jp_add_1":"大阪市生野区","jp_add_2":"林寺"},"5440034":{"post_code":"5440034","prefecture":"OSAKA FU","city":"OSAKA SHI IKUNO KU","town":"MOMODANI","perfecture_jp":"大阪府","jp_add_1":"大阪市生野区","jp_add_2":"桃谷"}}