{"5460000":{"post_code":"5460000","prefecture":"OSAKA FU","city":"OSAKA SHI HIGASHISUMIYOSHI KU","town":"IKANIKEISAIGANAIBAAI","perfecture_jp":"大阪府","jp_add_1":"大阪市東住吉区","jp_add_2":""},"5460003":{"post_code":"5460003","prefecture":"OSAKA FU","city":"OSAKA SHI HIGASHISUMIYOSHI KU","town":"IMAGAWA","perfecture_jp":"大阪府","jp_add_1":"大阪市東住吉区","jp_add_2":"今川"},"5460001":{"post_code":"5460001","prefecture":"OSAKA FU","city":"OSAKA SHI HIGASHISUMIYOSHI KU","town":"IMABAYASHI","perfecture_jp":"大阪府","jp_add_1":"大阪市東住吉区","jp_add_2":"今林"},"5460044":{"post_code":"5460044","prefecture":"OSAKA FU","city":"OSAKA SHI HIGASHISUMIYOSHI KU","town":"KITATANABE","perfecture_jp":"大阪府","jp_add_1":"大阪市東住吉区","jp_add_2":"北田辺"},"5460002":{"post_code":"5460002","prefecture":"OSAKA FU","city":"OSAKA SHI HIGASHISUMIYOSHI KU","town":"KUMATA","perfecture_jp":"大阪府","jp_add_1":"大阪市東住吉区","jp_add_2":"杭全"},"5460041":{"post_code":"5460041","prefecture":"OSAKA FU","city":"OSAKA SHI HIGASHISUMIYOSHI KU","town":"KUWAZU","perfecture_jp":"大阪府","jp_add_1":"大阪市東住吉区","jp_add_2":"桑津"},"5460024":{"post_code":"5460024","prefecture":"OSAKA FU","city":"OSAKA SHI HIGASHISUMIYOSHI KU","town":"KOEMMINAMIYATA","perfecture_jp":"大阪府","jp_add_1":"大阪市東住吉区","jp_add_2":"公園南矢田"},"5460043":{"post_code":"5460043","prefecture":"OSAKA FU","city":"OSAKA SHI HIGASHISUMIYOSHI KU","town":"KOMAGAWA","perfecture_jp":"大阪府","jp_add_1":"大阪市東住吉区","jp_add_2":"駒川"},"5460022":{"post_code":"5460022","prefecture":"OSAKA FU","city":"OSAKA SHI HIGASHISUMIYOSHI KU","town":"SUNJIYATA","perfecture_jp":"大阪府","jp_add_1":"大阪市東住吉区","jp_add_2":"住道矢田"},"5460014":{"post_code":"5460014","prefecture":"OSAKA FU","city":"OSAKA SHI HIGASHISUMIYOSHI KU","town":"TAKAAI","perfecture_jp":"大阪府","jp_add_1":"大阪市東住吉区","jp_add_2":"鷹合"},"5460031":{"post_code":"5460031","prefecture":"OSAKA FU","city":"OSAKA SHI HIGASHISUMIYOSHI KU","town":"TANABE","perfecture_jp":"大阪府","jp_add_1":"大阪市東住吉区","jp_add_2":"田辺"},"5460021":{"post_code":"5460021","prefecture":"OSAKA FU","city":"OSAKA SHI HIGASHISUMIYOSHI KU","town":"TERUGAOKAYATA","perfecture_jp":"大阪府","jp_add_1":"大阪市東住吉区","jp_add_2":"照ケ丘矢田"},"5460012":{"post_code":"5460012","prefecture":"OSAKA FU","city":"OSAKA SHI HIGASHISUMIYOSHI KU","town":"NAKANO","perfecture_jp":"大阪府","jp_add_1":"大阪市東住吉区","jp_add_2":"中野"},"5460034":{"post_code":"5460034","prefecture":"OSAKA FU","city":"OSAKA SHI HIGASHISUMIYOSHI KU","town":"NAGAIKOEN","perfecture_jp":"大阪府","jp_add_1":"大阪市東住吉区","jp_add_2":"長居公園"},"5460042":{"post_code":"5460042","prefecture":"OSAKA FU","city":"OSAKA SHI HIGASHISUMIYOSHI KU","town":"NISHIIMAGAWA","perfecture_jp":"大阪府","jp_add_1":"大阪市東住吉区","jp_add_2":"西今川"},"5460011":{"post_code":"5460011","prefecture":"OSAKA FU","city":"OSAKA SHI HIGASHISUMIYOSHI KU","town":"HARINAKANO","perfecture_jp":"大阪府","jp_add_1":"大阪市東住吉区","jp_add_2":"針中野"},"5460032":{"post_code":"5460032","prefecture":"OSAKA FU","city":"OSAKA SHI HIGASHISUMIYOSHI KU","town":"HIGASHITANABE","perfecture_jp":"大阪府","jp_add_1":"大阪市東住吉区","jp_add_2":"東田辺"},"5460033":{"post_code":"5460033","prefecture":"OSAKA FU","city":"OSAKA SHI HIGASHISUMIYOSHI KU","town":"MINAMITANABE","perfecture_jp":"大阪府","jp_add_1":"大阪市東住吉区","jp_add_2":"南田辺"},"5460023":{"post_code":"5460023","prefecture":"OSAKA FU","city":"OSAKA SHI HIGASHISUMIYOSHI KU","town":"YATA","perfecture_jp":"大阪府","jp_add_1":"大阪市東住吉区","jp_add_2":"矢田"},"5460035":{"post_code":"5460035","prefecture":"OSAKA FU","city":"OSAKA SHI HIGASHISUMIYOSHI KU","town":"YAMASAKA","perfecture_jp":"大阪府","jp_add_1":"大阪市東住吉区","jp_add_2":"山坂"},"5460013":{"post_code":"5460013","prefecture":"OSAKA FU","city":"OSAKA SHI HIGASHISUMIYOSHI KU","town":"YUZATO","perfecture_jp":"大阪府","jp_add_1":"大阪市東住吉区","jp_add_2":"湯里"}}