{"5470000":{"post_code":"5470000","prefecture":"OSAKA FU","city":"OSAKA SHI HIRANO KU","town":"IKANIKEISAIGANAIBAAI","perfecture_jp":"大阪府","jp_add_1":"大阪市平野区","jp_add_2":""},"5470024":{"post_code":"5470024","prefecture":"OSAKA FU","city":"OSAKA SHI HIRANO KU","town":"URIWARI","perfecture_jp":"大阪府","jp_add_1":"大阪市平野区","jp_add_2":"瓜破"},"5470022":{"post_code":"5470022","prefecture":"OSAKA FU","city":"OSAKA SHI HIRANO KU","town":"URIWARIHIGASHI","perfecture_jp":"大阪府","jp_add_1":"大阪市平野区","jp_add_2":"瓜破東"},"5470025":{"post_code":"5470025","prefecture":"OSAKA FU","city":"OSAKA SHI HIRANO KU","town":"URIWARINISHI","perfecture_jp":"大阪府","jp_add_1":"大阪市平野区","jp_add_2":"瓜破西"},"5470023":{"post_code":"5470023","prefecture":"OSAKA FU","city":"OSAKA SHI HIRANO KU","town":"URIWARIMINAMI","perfecture_jp":"大阪府","jp_add_1":"大阪市平野区","jp_add_2":"瓜破南"},"5470004":{"post_code":"5470004","prefecture":"OSAKA FU","city":"OSAKA SHI HIRANO KU","town":"KAMIKURATSUKURI","perfecture_jp":"大阪府","jp_add_1":"大阪市平野区","jp_add_2":"加美鞍作"},"5470006":{"post_code":"5470006","prefecture":"OSAKA FU","city":"OSAKA SHI HIRANO KU","town":"KAMISHOGAKUJI","perfecture_jp":"大阪府","jp_add_1":"大阪市平野区","jp_add_2":"加美正覚寺"},"5470002":{"post_code":"5470002","prefecture":"OSAKA FU","city":"OSAKA SHI HIRANO KU","town":"KAMIHIGASHI","perfecture_jp":"大阪府","jp_add_1":"大阪市平野区","jp_add_2":"加美東"},"5470005":{"post_code":"5470005","prefecture":"OSAKA FU","city":"OSAKA SHI HIRANO KU","town":"KAMINISHI","perfecture_jp":"大阪府","jp_add_1":"大阪市平野区","jp_add_2":"加美西"},"5470003":{"post_code":"5470003","prefecture":"OSAKA FU","city":"OSAKA SHI HIRANO KU","town":"KAMIMINAMI","perfecture_jp":"大阪府","jp_add_1":"大阪市平野区","jp_add_2":"加美南"},"5470001":{"post_code":"5470001","prefecture":"OSAKA FU","city":"OSAKA SHI HIRANO KU","town":"KAMIKITA","perfecture_jp":"大阪府","jp_add_1":"大阪市平野区","jp_add_2":"加美北"},"5470027":{"post_code":"5470027","prefecture":"OSAKA FU","city":"OSAKA SHI HIRANO KU","town":"KIRE","perfecture_jp":"大阪府","jp_add_1":"大阪市平野区","jp_add_2":"喜連"},"5470021":{"post_code":"5470021","prefecture":"OSAKA FU","city":"OSAKA SHI HIRANO KU","town":"KIREHIGASHI","perfecture_jp":"大阪府","jp_add_1":"大阪市平野区","jp_add_2":"喜連東"},"5470026":{"post_code":"5470026","prefecture":"OSAKA FU","city":"OSAKA SHI HIRANO KU","town":"KIRENISHI","perfecture_jp":"大阪府","jp_add_1":"大阪市平野区","jp_add_2":"喜連西"},"5470034":{"post_code":"5470034","prefecture":"OSAKA FU","city":"OSAKA SHI HIRANO KU","town":"SETOGUCHI","perfecture_jp":"大阪府","jp_add_1":"大阪市平野区","jp_add_2":"背戸口"},"5470014":{"post_code":"5470014","prefecture":"OSAKA FU","city":"OSAKA SHI HIRANO KU","town":"NAGAYOSHIKAWANABE","perfecture_jp":"大阪府","jp_add_1":"大阪市平野区","jp_add_2":"長吉川辺"},"5470011":{"post_code":"5470011","prefecture":"OSAKA FU","city":"OSAKA SHI HIRANO KU","town":"NAGAYOSHIDETO","perfecture_jp":"大阪府","jp_add_1":"大阪市平野区","jp_add_2":"長吉出戸"},"5470016":{"post_code":"5470016","prefecture":"OSAKA FU","city":"OSAKA SHI HIRANO KU","town":"NAGAYOSHINAGAHARA","perfecture_jp":"大阪府","jp_add_1":"大阪市平野区","jp_add_2":"長吉長原"},"5470013":{"post_code":"5470013","prefecture":"OSAKA FU","city":"OSAKA SHI HIRANO KU","town":"NAGAYOSHINAGAHARAHIGASHI","perfecture_jp":"大阪府","jp_add_1":"大阪市平野区","jp_add_2":"長吉長原東"},"5470015":{"post_code":"5470015","prefecture":"OSAKA FU","city":"OSAKA SHI HIRANO KU","town":"NAGAYOSHINAGAHARANISHI","perfecture_jp":"大阪府","jp_add_1":"大阪市平野区","jp_add_2":"長吉長原西"},"5470012":{"post_code":"5470012","prefecture":"OSAKA FU","city":"OSAKA SHI HIRANO KU","town":"NAGAYOSHIROKUTAN","perfecture_jp":"大阪府","jp_add_1":"大阪市平野区","jp_add_2":"長吉六反"},"5470032":{"post_code":"5470032","prefecture":"OSAKA FU","city":"OSAKA SHI HIRANO KU","town":"NAGAREMACHI","perfecture_jp":"大阪府","jp_add_1":"大阪市平野区","jp_add_2":"流町"},"5470035":{"post_code":"5470035","prefecture":"OSAKA FU","city":"OSAKA SHI HIRANO KU","town":"NISHIWAKI","perfecture_jp":"大阪府","jp_add_1":"大阪市平野区","jp_add_2":"西脇"},"5470042":{"post_code":"5470042","prefecture":"OSAKA FU","city":"OSAKA SHI HIRANO KU","town":"HIRANOICHIMACHI","perfecture_jp":"大阪府","jp_add_1":"大阪市平野区","jp_add_2":"平野市町"},"5470045":{"post_code":"5470045","prefecture":"OSAKA FU","city":"OSAKA SHI HIRANO KU","town":"HIRANOEMACHI","perfecture_jp":"大阪府","jp_add_1":"大阪市平野区","jp_add_2":"平野上町"},"5470048":{"post_code":"5470048","prefecture":"OSAKA FU","city":"OSAKA SHI HIRANO KU","town":"HIRANOBABA","perfecture_jp":"大阪府","jp_add_1":"大阪市平野区","jp_add_2":"平野馬場"},"5470044":{"post_code":"5470044","prefecture":"OSAKA FU","city":"OSAKA SHI HIRANO KU","town":"HIRANOHOMMACHI","perfecture_jp":"大阪府","jp_add_1":"大阪市平野区","jp_add_2":"平野本町"},"5470046":{"post_code":"5470046","prefecture":"OSAKA FU","city":"OSAKA SHI HIRANO KU","town":"HIRANOMIYAMACHI","perfecture_jp":"大阪府","jp_add_1":"大阪市平野区","jp_add_2":"平野宮町"},"5470047":{"post_code":"5470047","prefecture":"OSAKA FU","city":"OSAKA SHI HIRANO KU","town":"HIRANOMOTOMACHI","perfecture_jp":"大阪府","jp_add_1":"大阪市平野区","jp_add_2":"平野元町"},"5470043":{"post_code":"5470043","prefecture":"OSAKA FU","city":"OSAKA SHI HIRANO KU","town":"HIRANOHIGASHI","perfecture_jp":"大阪府","jp_add_1":"大阪市平野区","jp_add_2":"平野東"},"5470033":{"post_code":"5470033","prefecture":"OSAKA FU","city":"OSAKA SHI HIRANO KU","town":"HIRANONISHI","perfecture_jp":"大阪府","jp_add_1":"大阪市平野区","jp_add_2":"平野西"},"5470031":{"post_code":"5470031","prefecture":"OSAKA FU","city":"OSAKA SHI HIRANO KU","town":"HIRANOMINAMI","perfecture_jp":"大阪府","jp_add_1":"大阪市平野区","jp_add_2":"平野南"},"5470041":{"post_code":"5470041","prefecture":"OSAKA FU","city":"OSAKA SHI HIRANO KU","town":"HIRANOKITA","perfecture_jp":"大阪府","jp_add_1":"大阪市平野区","jp_add_2":"平野北"}}