{"5500000":{"post_code":"5500000","prefecture":"OSAKA FU","city":"OSAKA SHI NISHI KU","town":"IKANIKEISAIGANAIBAAI","perfecture_jp":"大阪府","jp_add_1":"大阪市西区","jp_add_2":""},"5500026":{"post_code":"5500026","prefecture":"OSAKA FU","city":"OSAKA SHI NISHI KU","town":"AJIGAWA","perfecture_jp":"大阪府","jp_add_1":"大阪市西区","jp_add_2":"安治川"},"5500011":{"post_code":"5500011","prefecture":"OSAKA FU","city":"OSAKA SHI NISHI KU","town":"AWAZA","perfecture_jp":"大阪府","jp_add_1":"大阪市西区","jp_add_2":"阿波座"},"5500012":{"post_code":"5500012","prefecture":"OSAKA FU","city":"OSAKA SHI NISHI KU","town":"ITACHIBORI","perfecture_jp":"大阪府","jp_add_1":"大阪市西区","jp_add_2":"立売堀"},"5500004":{"post_code":"5500004","prefecture":"OSAKA FU","city":"OSAKA SHI NISHI KU","town":"UTSUBOHOMMACHI","perfecture_jp":"大阪府","jp_add_1":"大阪市西区","jp_add_2":"靱本町"},"5500002":{"post_code":"5500002","prefecture":"OSAKA FU","city":"OSAKA SHI NISHI KU","town":"EDOBORI","perfecture_jp":"大阪府","jp_add_1":"大阪市西区","jp_add_2":"江戸堀"},"5500006":{"post_code":"5500006","prefecture":"OSAKA FU","city":"OSAKA SHI NISHI KU","town":"ENOKOJIMA","perfecture_jp":"大阪府","jp_add_1":"大阪市西区","jp_add_2":"江之子島"},"5500021":{"post_code":"5500021","prefecture":"OSAKA FU","city":"OSAKA SHI NISHI KU","town":"KAWAGUCHI","perfecture_jp":"大阪府","jp_add_1":"大阪市西区","jp_add_2":"川口"},"5500014":{"post_code":"5500014","prefecture":"OSAKA FU","city":"OSAKA SHI NISHI KU","town":"KITAHORIE","perfecture_jp":"大阪府","jp_add_1":"大阪市西区","jp_add_2":"北堀江"},"5500003":{"post_code":"5500003","prefecture":"OSAKA FU","city":"OSAKA SHI NISHI KU","town":"KYOMACHIBORI","perfecture_jp":"大阪府","jp_add_1":"大阪市西区","jp_add_2":"京町堀"},"5500027":{"post_code":"5500027","prefecture":"OSAKA FU","city":"OSAKA SHI NISHI KU","town":"KUJO","perfecture_jp":"大阪府","jp_add_1":"大阪市西区","jp_add_2":"九条"},"5500025":{"post_code":"5500025","prefecture":"OSAKA FU","city":"OSAKA SHI NISHI KU","town":"KUJOMINAMI","perfecture_jp":"大阪府","jp_add_1":"大阪市西区","jp_add_2":"九条南"},"5500024":{"post_code":"5500024","prefecture":"OSAKA FU","city":"OSAKA SHI NISHI KU","town":"SAKAIGAWA","perfecture_jp":"大阪府","jp_add_1":"大阪市西区","jp_add_2":"境川"},"5500013":{"post_code":"5500013","prefecture":"OSAKA FU","city":"OSAKA SHI NISHI KU","town":"SHIMMACHI","perfecture_jp":"大阪府","jp_add_1":"大阪市西区","jp_add_2":"新町"},"5500023":{"post_code":"5500023","prefecture":"OSAKA FU","city":"OSAKA SHI NISHI KU","town":"CHIYOZAKI","perfecture_jp":"大阪府","jp_add_1":"大阪市西区","jp_add_2":"千代崎"},"5500001":{"post_code":"5500001","prefecture":"OSAKA FU","city":"OSAKA SHI NISHI KU","town":"TOSABORI","perfecture_jp":"大阪府","jp_add_1":"大阪市西区","jp_add_2":"土佐堀"},"5500005":{"post_code":"5500005","prefecture":"OSAKA FU","city":"OSAKA SHI NISHI KU","town":"NISHIHOMMACHI","perfecture_jp":"大阪府","jp_add_1":"大阪市西区","jp_add_2":"西本町"},"5500022":{"post_code":"5500022","prefecture":"OSAKA FU","city":"OSAKA SHI NISHI KU","town":"HONDEN","perfecture_jp":"大阪府","jp_add_1":"大阪市西区","jp_add_2":"本田"},"5500015":{"post_code":"5500015","prefecture":"OSAKA FU","city":"OSAKA SHI NISHI KU","town":"MINAMIHORIE","perfecture_jp":"大阪府","jp_add_1":"大阪市西区","jp_add_2":"南堀江"}}