{"5540000":{"post_code":"5540000","prefecture":"OSAKA FU","city":"OSAKA SHI KONOHANA KU","town":"IKANIKEISAIGANAIBAAI","perfecture_jp":"大阪府","jp_add_1":"大阪市此花区","jp_add_2":""},"5540011":{"post_code":"5540011","prefecture":"OSAKA FU","city":"OSAKA SHI KONOHANA KU","town":"ASAHI","perfecture_jp":"大阪府","jp_add_1":"大阪市此花区","jp_add_2":"朝日"},"5540032":{"post_code":"5540032","prefecture":"OSAKA FU","city":"OSAKA SHI KONOHANA KU","town":"UMEMACHI","perfecture_jp":"大阪府","jp_add_1":"大阪市此花区","jp_add_2":"梅町"},"5540022":{"post_code":"5540022","prefecture":"OSAKA FU","city":"OSAKA SHI KONOHANA KU","town":"KASUGADENAKA","perfecture_jp":"大阪府","jp_add_1":"大阪市此花区","jp_add_2":"春日出中"},"5540023":{"post_code":"5540023","prefecture":"OSAKA FU","city":"OSAKA SHI KONOHANA KU","town":"KASUGADEMINAMI","perfecture_jp":"大阪府","jp_add_1":"大阪市此花区","jp_add_2":"春日出南"},"5540021":{"post_code":"5540021","prefecture":"OSAKA FU","city":"OSAKA SHI KONOHANA KU","town":"KASUGADEKITA","perfecture_jp":"大阪府","jp_add_1":"大阪市此花区","jp_add_2":"春日出北"},"5540031":{"post_code":"5540031","prefecture":"OSAKA FU","city":"OSAKA SHI KONOHANA KU","town":"SAKURAJIMA","perfecture_jp":"大阪府","jp_add_1":"大阪市此花区","jp_add_2":"桜島"},"5540014":{"post_code":"5540014","prefecture":"OSAKA FU","city":"OSAKA SHI KONOHANA KU","town":"SHIKANJIMA","perfecture_jp":"大阪府","jp_add_1":"大阪市此花区","jp_add_2":"四貫島"},"5540024":{"post_code":"5540024","prefecture":"OSAKA FU","city":"OSAKA SHI KONOHANA KU","town":"SHIMAYA","perfecture_jp":"大阪府","jp_add_1":"大阪市此花区","jp_add_2":"島屋"},"5540001":{"post_code":"5540001","prefecture":"OSAKA FU","city":"OSAKA SHI KONOHANA KU","town":"TAKAMI","perfecture_jp":"大阪府","jp_add_1":"大阪市此花区","jp_add_2":"高見"},"5540052":{"post_code":"5540052","prefecture":"OSAKA FU","city":"OSAKA SHI KONOHANA KU","town":"TSUNEYOSHI","perfecture_jp":"大阪府","jp_add_1":"大阪市此花区","jp_add_2":"常吉"},"5540002":{"post_code":"5540002","prefecture":"OSAKA FU","city":"OSAKA SHI KONOHANA KU","town":"DEMPO","perfecture_jp":"大阪府","jp_add_1":"大阪市此花区","jp_add_2":"伝法"},"5540051":{"post_code":"5540051","prefecture":"OSAKA FU","city":"OSAKA SHI KONOHANA KU","town":"TORISHIMA","perfecture_jp":"大阪府","jp_add_1":"大阪市此花区","jp_add_2":"酉島"},"5540012":{"post_code":"5540012","prefecture":"OSAKA FU","city":"OSAKA SHI KONOHANA KU","town":"NISHIKUJO","perfecture_jp":"大阪府","jp_add_1":"大阪市此花区","jp_add_2":"西九条"},"5540013":{"post_code":"5540013","prefecture":"OSAKA FU","city":"OSAKA SHI KONOHANA KU","town":"BAIKA","perfecture_jp":"大阪府","jp_add_1":"大阪市此花区","jp_add_2":"梅香"},"5540033":{"post_code":"5540033","prefecture":"OSAKA FU","city":"OSAKA SHI KONOHANA KU","town":"HOKUKO","perfecture_jp":"大阪府","jp_add_1":"大阪市此花区","jp_add_2":"北港"},"5540041":{"post_code":"5540041","prefecture":"OSAKA FU","city":"OSAKA SHI KONOHANA KU","town":"HOKUKO SHIRATSU","perfecture_jp":"大阪府","jp_add_1":"大阪市此花区","jp_add_2":"北港白津"},"5540042":{"post_code":"5540042","prefecture":"OSAKA FU","city":"OSAKA SHI KONOHANA KU","town":"HOKUKO RYOKUCHI","perfecture_jp":"大阪府","jp_add_1":"大阪市此花区","jp_add_2":"北港緑地"},"5540043":{"post_code":"5540043","prefecture":"OSAKA FU","city":"OSAKA SHI KONOHANA KU","town":"YUMESHIMAHIGASHI","perfecture_jp":"大阪府","jp_add_1":"大阪市此花区","jp_add_2":"夢洲東"}}