{"5550000":{"post_code":"5550000","prefecture":"OSAKA FU","city":"OSAKA SHI NISHIYODOGAWA KU","town":"IKANIKEISAIGANAIBAAI","perfecture_jp":"大阪府","jp_add_1":"大阪市西淀川区","jp_add_2":""},"5550021":{"post_code":"5550021","prefecture":"OSAKA FU","city":"OSAKA SHI NISHIYODOGAWA KU","town":"UTAJIMA","perfecture_jp":"大阪府","jp_add_1":"大阪市西淀川区","jp_add_2":"歌島"},"5550043":{"post_code":"5550043","prefecture":"OSAKA FU","city":"OSAKA SHI NISHIYODOGAWA KU","town":"ONO","perfecture_jp":"大阪府","jp_add_1":"大阪市西淀川区","jp_add_2":"大野"},"5550032":{"post_code":"5550032","prefecture":"OSAKA FU","city":"OSAKA SHI NISHIYODOGAWA KU","town":"OWADA","perfecture_jp":"大阪府","jp_add_1":"大阪市西淀川区","jp_add_2":"大和田"},"5550022":{"post_code":"5550022","prefecture":"OSAKA FU","city":"OSAKA SHI NISHIYODOGAWA KU","town":"KASHIWAZATO","perfecture_jp":"大阪府","jp_add_1":"大阪市西淀川区","jp_add_2":"柏里"},"5550011":{"post_code":"5550011","prefecture":"OSAKA FU","city":"OSAKA SHI NISHIYODOGAWA KU","town":"TAKESHIMA","perfecture_jp":"大阪府","jp_add_1":"大阪市西淀川区","jp_add_2":"竹島"},"5550013":{"post_code":"5550013","prefecture":"OSAKA FU","city":"OSAKA SHI NISHIYODOGAWA KU","town":"CHIBUNE","perfecture_jp":"大阪府","jp_add_1":"大阪市西淀川区","jp_add_2":"千舟"},"5550001":{"post_code":"5550001","prefecture":"OSAKA FU","city":"OSAKA SHI NISHIYODOGAWA KU","town":"TSUKUDA","perfecture_jp":"大阪府","jp_add_1":"大阪市西淀川区","jp_add_2":"佃"},"5550031":{"post_code":"5550031","prefecture":"OSAKA FU","city":"OSAKA SHI NISHIYODOGAWA KU","town":"DEKIJIMA","perfecture_jp":"大阪府","jp_add_1":"大阪市西淀川区","jp_add_2":"出来島"},"5550041":{"post_code":"5550041","prefecture":"OSAKA FU","city":"OSAKA SHI NISHIYODOGAWA KU","town":"NAKASHIMA","perfecture_jp":"大阪府","jp_add_1":"大阪市西淀川区","jp_add_2":"中島"},"5550042":{"post_code":"5550042","prefecture":"OSAKA FU","city":"OSAKA SHI NISHIYODOGAWA KU","town":"NISHISHIMA","perfecture_jp":"大阪府","jp_add_1":"大阪市西淀川区","jp_add_2":"西島"},"5550024":{"post_code":"5550024","prefecture":"OSAKA FU","city":"OSAKA SHI NISHIYODOGAWA KU","town":"NOZATO","perfecture_jp":"大阪府","jp_add_1":"大阪市西淀川区","jp_add_2":"野里"},"5550023":{"post_code":"5550023","prefecture":"OSAKA FU","city":"OSAKA SHI NISHIYODOGAWA KU","town":"HANAKAWA","perfecture_jp":"大阪府","jp_add_1":"大阪市西淀川区","jp_add_2":"花川"},"5550025":{"post_code":"5550025","prefecture":"OSAKA FU","city":"OSAKA SHI NISHIYODOGAWA KU","town":"HIMESATO","perfecture_jp":"大阪府","jp_add_1":"大阪市西淀川区","jp_add_2":"姫里"},"5550033":{"post_code":"5550033","prefecture":"OSAKA FU","city":"OSAKA SHI NISHIYODOGAWA KU","town":"HIMESHIMA","perfecture_jp":"大阪府","jp_add_1":"大阪市西淀川区","jp_add_2":"姫島"},"5550044":{"post_code":"5550044","prefecture":"OSAKA FU","city":"OSAKA SHI NISHIYODOGAWA KU","town":"HYAKUSHIMA","perfecture_jp":"大阪府","jp_add_1":"大阪市西淀川区","jp_add_2":"百島"},"5550034":{"post_code":"5550034","prefecture":"OSAKA FU","city":"OSAKA SHI NISHIYODOGAWA KU","town":"FUKUMACHI","perfecture_jp":"大阪府","jp_add_1":"大阪市西淀川区","jp_add_2":"福町"},"5550012":{"post_code":"5550012","prefecture":"OSAKA FU","city":"OSAKA SHI NISHIYODOGAWA KU","town":"MITEJIMA","perfecture_jp":"大阪府","jp_add_1":"大阪市西淀川区","jp_add_2":"御幣島"}}