{"5560000":{"post_code":"5560000","prefecture":"OSAKA FU","city":"OSAKA SHI NANIWA KU","town":"IKANIKEISAIGANAIBAAI","perfecture_jp":"大阪府","jp_add_1":"大阪市浪速区","jp_add_2":""},"5560029":{"post_code":"5560029","prefecture":"OSAKA FU","city":"OSAKA SHI NANIWA KU","town":"ASHIHARA","perfecture_jp":"大阪府","jp_add_1":"大阪市浪速区","jp_add_2":"芦原"},"5560023":{"post_code":"5560023","prefecture":"OSAKA FU","city":"OSAKA SHI NANIWA KU","town":"INARI","perfecture_jp":"大阪府","jp_add_1":"大阪市浪速区","jp_add_2":"稲荷"},"5560013":{"post_code":"5560013","prefecture":"OSAKA FU","city":"OSAKA SHI NANIWA KU","town":"EBISUHOMMACHI","perfecture_jp":"大阪府","jp_add_1":"大阪市浪速区","jp_add_2":"戎本町"},"5560002":{"post_code":"5560002","prefecture":"OSAKA FU","city":"OSAKA SHI NANIWA KU","town":"EBISUHIGASHI","perfecture_jp":"大阪府","jp_add_1":"大阪市浪速区","jp_add_2":"恵美須東"},"5560003":{"post_code":"5560003","prefecture":"OSAKA FU","city":"OSAKA SHI NANIWA KU","town":"EBISUNISHI","perfecture_jp":"大阪府","jp_add_1":"大阪市浪速区","jp_add_2":"恵美須西"},"5560027":{"post_code":"5560027","prefecture":"OSAKA FU","city":"OSAKA SHI NANIWA KU","town":"KIZUGAWA","perfecture_jp":"大阪府","jp_add_1":"大阪市浪速区","jp_add_2":"木津川"},"5560028":{"post_code":"5560028","prefecture":"OSAKA FU","city":"OSAKA SHI NANIWA KU","town":"KUBOYOSHI","perfecture_jp":"大阪府","jp_add_1":"大阪市浪速区","jp_add_2":"久保吉"},"5560021":{"post_code":"5560021","prefecture":"OSAKA FU","city":"OSAKA SHI NANIWA KU","town":"SAIWAICHO","perfecture_jp":"大阪府","jp_add_1":"大阪市浪速区","jp_add_2":"幸町"},"5560022":{"post_code":"5560022","prefecture":"OSAKA FU","city":"OSAKA SHI NANIWA KU","town":"SAKURAGAWA","perfecture_jp":"大阪府","jp_add_1":"大阪市浪速区","jp_add_2":"桜川"},"5560024":{"post_code":"5560024","prefecture":"OSAKA FU","city":"OSAKA SHI NANIWA KU","town":"SHIOKUSA","perfecture_jp":"大阪府","jp_add_1":"大阪市浪速区","jp_add_2":"塩草"},"5560012":{"post_code":"5560012","prefecture":"OSAKA FU","city":"OSAKA SHI NANIWA KU","town":"SHIKITSUHIGASHI","perfecture_jp":"大阪府","jp_add_1":"大阪市浪速区","jp_add_2":"敷津東"},"5560015":{"post_code":"5560015","prefecture":"OSAKA FU","city":"OSAKA SHI NANIWA KU","town":"SHIKITSUNISHI","perfecture_jp":"大阪府","jp_add_1":"大阪市浪速区","jp_add_2":"敷津西"},"5560001":{"post_code":"5560001","prefecture":"OSAKA FU","city":"OSAKA SHI NANIWA KU","town":"SHIMODERA","perfecture_jp":"大阪府","jp_add_1":"大阪市浪速区","jp_add_2":"下寺"},"5560014":{"post_code":"5560014","prefecture":"OSAKA FU","city":"OSAKA SHI NANIWA KU","town":"DAIKOKU","perfecture_jp":"大阪府","jp_add_1":"大阪市浪速区","jp_add_2":"大国"},"5560020":{"post_code":"5560020","prefecture":"OSAKA FU","city":"OSAKA SHI NANIWA KU","town":"TATEBA","perfecture_jp":"大阪府","jp_add_1":"大阪市浪速区","jp_add_2":"立葉"},"5560025":{"post_code":"5560025","prefecture":"OSAKA FU","city":"OSAKA SHI NANIWA KU","town":"NANIWAHIGASHI","perfecture_jp":"大阪府","jp_add_1":"大阪市浪速区","jp_add_2":"浪速東"},"5560026":{"post_code":"5560026","prefecture":"OSAKA FU","city":"OSAKA SHI NANIWA KU","town":"NANIWANISHI","perfecture_jp":"大阪府","jp_add_1":"大阪市浪速区","jp_add_2":"浪速西"},"5560011":{"post_code":"5560011","prefecture":"OSAKA FU","city":"OSAKA SHI NANIWA KU","town":"NAMBANAKA","perfecture_jp":"大阪府","jp_add_1":"大阪市浪速区","jp_add_2":"難波中"},"5560005":{"post_code":"5560005","prefecture":"OSAKA FU","city":"OSAKA SHI NANIWA KU","town":"NIPPOMBASHI","perfecture_jp":"大阪府","jp_add_1":"大阪市浪速区","jp_add_2":"日本橋"},"5560006":{"post_code":"5560006","prefecture":"OSAKA FU","city":"OSAKA SHI NANIWA KU","town":"NIPPOMBASHIHIGASHI","perfecture_jp":"大阪府","jp_add_1":"大阪市浪速区","jp_add_2":"日本橋東"},"5560004":{"post_code":"5560004","prefecture":"OSAKA FU","city":"OSAKA SHI NANIWA KU","town":"NIPPOMBASHINISHI","perfecture_jp":"大阪府","jp_add_1":"大阪市浪速区","jp_add_2":"日本橋西"},"5560017":{"post_code":"5560017","prefecture":"OSAKA FU","city":"OSAKA SHI NANIWA KU","town":"MINATOMACHI","perfecture_jp":"大阪府","jp_add_1":"大阪市浪速区","jp_add_2":"湊町"},"5560016":{"post_code":"5560016","prefecture":"OSAKA FU","city":"OSAKA SHI NANIWA KU","town":"MOTOMACHI","perfecture_jp":"大阪府","jp_add_1":"大阪市浪速区","jp_add_2":"元町"}}