{"5570000":{"post_code":"5570000","prefecture":"OSAKA FU","city":"OSAKA SHI NISHINARI KU","town":"IKANIKEISAIGANAIBAAI","perfecture_jp":"大阪府","jp_add_1":"大阪市西成区","jp_add_2":""},"5570032":{"post_code":"5570032","prefecture":"OSAKA FU","city":"OSAKA SHI NISHINARI KU","town":"ASAHI","perfecture_jp":"大阪府","jp_add_1":"大阪市西成区","jp_add_2":"旭"},"5570041":{"post_code":"5570041","prefecture":"OSAKA FU","city":"OSAKA SHI NISHINARI KU","town":"KISHINOSATO","perfecture_jp":"大阪府","jp_add_1":"大阪市西成区","jp_add_2":"岸里"},"5570042":{"post_code":"5570042","prefecture":"OSAKA FU","city":"OSAKA SHI NISHINARI KU","town":"KISHINOSATOHIGASHI","perfecture_jp":"大阪府","jp_add_1":"大阪市西成区","jp_add_2":"岸里東"},"5570061":{"post_code":"5570061","prefecture":"OSAKA FU","city":"OSAKA SHI NISHINARI KU","town":"KITATSUMORI","perfecture_jp":"大阪府","jp_add_1":"大阪市西成区","jp_add_2":"北津守"},"5570021":{"post_code":"5570021","prefecture":"OSAKA FU","city":"OSAKA SHI NISHINARI KU","town":"KITABIRAKI","perfecture_jp":"大阪府","jp_add_1":"大阪市西成区","jp_add_2":"北開"},"5570001":{"post_code":"5570001","prefecture":"OSAKA FU","city":"OSAKA SHI NISHINARI KU","town":"SANNO","perfecture_jp":"大阪府","jp_add_1":"大阪市西成区","jp_add_2":"山王"},"5570052":{"post_code":"5570052","prefecture":"OSAKA FU","city":"OSAKA SHI NISHINARI KU","town":"SHIOJI","perfecture_jp":"大阪府","jp_add_1":"大阪市西成区","jp_add_2":"潮路"},"5570012":{"post_code":"5570012","prefecture":"OSAKA FU","city":"OSAKA SHI NISHINARI KU","town":"SHOTENSHITA","perfecture_jp":"大阪府","jp_add_1":"大阪市西成区","jp_add_2":"聖天下"},"5570054":{"post_code":"5570054","prefecture":"OSAKA FU","city":"OSAKA SHI NISHINARI KU","town":"SEMBONNAKA","perfecture_jp":"大阪府","jp_add_1":"大阪市西成区","jp_add_2":"千本中"},"5570055":{"post_code":"5570055","prefecture":"OSAKA FU","city":"OSAKA SHI NISHINARI KU","town":"SEMBOMMINAMI","perfecture_jp":"大阪府","jp_add_1":"大阪市西成区","jp_add_2":"千本南"},"5570053":{"post_code":"5570053","prefecture":"OSAKA FU","city":"OSAKA SHI NISHINARI KU","town":"SEMBONKITA","perfecture_jp":"大阪府","jp_add_1":"大阪市西成区","jp_add_2":"千本北"},"5570002":{"post_code":"5570002","prefecture":"OSAKA FU","city":"OSAKA SHI NISHINARI KU","town":"TAISHI","perfecture_jp":"大阪府","jp_add_1":"大阪市西成区","jp_add_2":"太子"},"5570051":{"post_code":"5570051","prefecture":"OSAKA FU","city":"OSAKA SHI NISHINARI KU","town":"TACHIBANA","perfecture_jp":"大阪府","jp_add_1":"大阪市西成区","jp_add_2":"橘"},"5570044":{"post_code":"5570044","prefecture":"OSAKA FU","city":"OSAKA SHI NISHINARI KU","town":"TAMADENAKA","perfecture_jp":"大阪府","jp_add_1":"大阪市西成区","jp_add_2":"玉出中"},"5570043":{"post_code":"5570043","prefecture":"OSAKA FU","city":"OSAKA SHI NISHINARI KU","town":"TAMADEHIGASHI","perfecture_jp":"大阪府","jp_add_1":"大阪市西成区","jp_add_2":"玉出東"},"5570045":{"post_code":"5570045","prefecture":"OSAKA FU","city":"OSAKA SHI NISHINARI KU","town":"TAMADENISHI","perfecture_jp":"大阪府","jp_add_1":"大阪市西成区","jp_add_2":"玉出西"},"5570062":{"post_code":"5570062","prefecture":"OSAKA FU","city":"OSAKA SHI NISHINARI KU","town":"TSUMORI","perfecture_jp":"大阪府","jp_add_1":"大阪市西成区","jp_add_2":"津守"},"5570031":{"post_code":"5570031","prefecture":"OSAKA FU","city":"OSAKA SHI NISHINARI KU","town":"TSURUMIBASHI","perfecture_jp":"大阪府","jp_add_1":"大阪市西成区","jp_add_2":"鶴見橋"},"5570024":{"post_code":"5570024","prefecture":"OSAKA FU","city":"OSAKA SHI NISHINARI KU","town":"DESHIRO","perfecture_jp":"大阪府","jp_add_1":"大阪市西成区","jp_add_2":"出城"},"5570014":{"post_code":"5570014","prefecture":"OSAKA FU","city":"OSAKA SHI NISHINARI KU","town":"TENGACHAYA","perfecture_jp":"大阪府","jp_add_1":"大阪市西成区","jp_add_2":"天下茶屋"},"5570011":{"post_code":"5570011","prefecture":"OSAKA FU","city":"OSAKA SHI NISHINARI KU","town":"TENGACHAYAHIGASHI","perfecture_jp":"大阪府","jp_add_1":"大阪市西成区","jp_add_2":"天下茶屋東"},"5570003":{"post_code":"5570003","prefecture":"OSAKA FU","city":"OSAKA SHI NISHINARI KU","town":"TENGACHAYAKITA","perfecture_jp":"大阪府","jp_add_1":"大阪市西成区","jp_add_2":"天下茶屋北"},"5570013":{"post_code":"5570013","prefecture":"OSAKA FU","city":"OSAKA SHI NISHINARI KU","town":"TENJINNOMORI","perfecture_jp":"大阪府","jp_add_1":"大阪市西成区","jp_add_2":"天神ノ森"},"5570022":{"post_code":"5570022","prefecture":"OSAKA FU","city":"OSAKA SHI NISHINARI KU","town":"NAKABIRAKI","perfecture_jp":"大阪府","jp_add_1":"大阪市西成区","jp_add_2":"中開"},"5570025":{"post_code":"5570025","prefecture":"OSAKA FU","city":"OSAKA SHI NISHINARI KU","town":"NAGAHASHI","perfecture_jp":"大阪府","jp_add_1":"大阪市西成区","jp_add_2":"長橋"},"5570033":{"post_code":"5570033","prefecture":"OSAKA FU","city":"OSAKA SHI NISHINARI KU","town":"BAINAN","perfecture_jp":"大阪府","jp_add_1":"大阪市西成区","jp_add_2":"梅南"},"5570004":{"post_code":"5570004","prefecture":"OSAKA FU","city":"OSAKA SHI NISHINARI KU","town":"HAGINOCHAYA","perfecture_jp":"大阪府","jp_add_1":"大阪市西成区","jp_add_2":"萩之茶屋"},"5570015":{"post_code":"5570015","prefecture":"OSAKA FU","city":"OSAKA SHI NISHINARI KU","town":"HANAZONOMINAMI","perfecture_jp":"大阪府","jp_add_1":"大阪市西成区","jp_add_2":"花園南"},"5570016":{"post_code":"5570016","prefecture":"OSAKA FU","city":"OSAKA SHI NISHINARI KU","town":"HANAZONOKITA","perfecture_jp":"大阪府","jp_add_1":"大阪市西成区","jp_add_2":"花園北"},"5570034":{"post_code":"5570034","prefecture":"OSAKA FU","city":"OSAKA SHI NISHINARI KU","town":"MATSU","perfecture_jp":"大阪府","jp_add_1":"大阪市西成区","jp_add_2":"松"},"5570063":{"post_code":"5570063","prefecture":"OSAKA FU","city":"OSAKA SHI NISHINARI KU","town":"MINAMITSUMORI","perfecture_jp":"大阪府","jp_add_1":"大阪市西成区","jp_add_2":"南津守"},"5570023":{"post_code":"5570023","prefecture":"OSAKA FU","city":"OSAKA SHI NISHINARI KU","town":"MINAMIBIRAKI","perfecture_jp":"大阪府","jp_add_1":"大阪市西成区","jp_add_2":"南開"}}