{"5600000":{"post_code":"5600000","prefecture":"OSAKA FU","city":"TOYONAKA SHI","town":"IKANIKEISAIGANAIBAAI","perfecture_jp":"大阪府","jp_add_1":"豊中市","jp_add_2":""},"5600015":{"post_code":"5600015","prefecture":"OSAKA FU","city":"TOYONAKA SHI","town":"AKASAKA","perfecture_jp":"大阪府","jp_add_1":"豊中市","jp_add_2":"赤阪"},"5600042":{"post_code":"5600042","prefecture":"OSAKA FU","city":"TOYONAKA SHI","town":"ISHIBASHIASADACHO","perfecture_jp":"大阪府","jp_add_1":"豊中市","jp_add_2":"石橋麻田町"},"5600013":{"post_code":"5600013","prefecture":"OSAKA FU","city":"TOYONAKA SHI","town":"UENO HIGASHI","perfecture_jp":"大阪府","jp_add_1":"豊中市","jp_add_2":"上野東"},"5600011":{"post_code":"5600011","prefecture":"OSAKA FU","city":"TOYONAKA SHI","town":"UENO NISHI","perfecture_jp":"大阪府","jp_add_1":"豊中市","jp_add_2":"上野西"},"5600012":{"post_code":"5600012","prefecture":"OSAKA FU","city":"TOYONAKA SHI","town":"UENOSAKA","perfecture_jp":"大阪府","jp_add_1":"豊中市","jp_add_2":"上野坂"},"5600051":{"post_code":"5600051","prefecture":"OSAKA FU","city":"TOYONAKA SHI","town":"EIRAKUSO","perfecture_jp":"大阪府","jp_add_1":"豊中市","jp_add_2":"永楽荘"},"5600023":{"post_code":"5600023","prefecture":"OSAKA FU","city":"TOYONAKA SHI","town":"OKAKAMINOCHO","perfecture_jp":"大阪府","jp_add_1":"豊中市","jp_add_2":"岡上の町"},"5600052":{"post_code":"5600052","prefecture":"OSAKA FU","city":"TOYONAKA SHI","town":"KASUGACHO","perfecture_jp":"大阪府","jp_add_1":"豊中市","jp_add_2":"春日町"},"5600085":{"post_code":"5600085","prefecture":"OSAKA FU","city":"TOYONAKA SHI","town":"KAMISHINDEN","perfecture_jp":"大阪府","jp_add_1":"豊中市","jp_add_2":"上新田"},"5600022":{"post_code":"5600022","prefecture":"OSAKA FU","city":"TOYONAKA SHI","town":"KITASAKURAZUKA","perfecture_jp":"大阪府","jp_add_1":"豊中市","jp_add_2":"北桜塚"},"5600001":{"post_code":"5600001","prefecture":"OSAKA FU","city":"TOYONAKA SHI","town":"KITAMIDORIGAOKA","perfecture_jp":"大阪府","jp_add_1":"豊中市","jp_add_2":"北緑丘"},"5600014":{"post_code":"5600014","prefecture":"OSAKA FU","city":"TOYONAKA SHI","town":"KUMANOCHO","perfecture_jp":"大阪府","jp_add_1":"豊中市","jp_add_2":"熊野町"},"5600016":{"post_code":"5600016","prefecture":"OSAKA FU","city":"TOYONAKA SHI","town":"KURIGAOKACHO","perfecture_jp":"大阪府","jp_add_1":"豊中市","jp_add_2":"栗ケ丘町"},"5600054":{"post_code":"5600054","prefecture":"OSAKA FU","city":"TOYONAKA SHI","town":"SAKURANOCHO","perfecture_jp":"大阪府","jp_add_1":"豊中市","jp_add_2":"桜の町"},"5600055":{"post_code":"5600055","prefecture":"OSAKA FU","city":"TOYONAKA SHI","town":"SHIBAHARACHO","perfecture_jp":"大阪府","jp_add_1":"豊中市","jp_add_2":"柴原町"},"5600004":{"post_code":"5600004","prefecture":"OSAKA FU","city":"TOYONAKA SHI","town":"SHOJI","perfecture_jp":"大阪府","jp_add_1":"豊中市","jp_add_2":"少路"},"5600082":{"post_code":"5600082","prefecture":"OSAKA FU","city":"TOYONAKA SHI","town":"SHINSENRI HIGASHIMACHI","perfecture_jp":"大阪府","jp_add_1":"豊中市","jp_add_2":"新千里東町"},"5600083":{"post_code":"5600083","prefecture":"OSAKA FU","city":"TOYONAKA SHI","town":"SHINSENRI NISHIMACHI","perfecture_jp":"大阪府","jp_add_1":"豊中市","jp_add_2":"新千里西町"},"5600084":{"post_code":"5600084","prefecture":"OSAKA FU","city":"TOYONAKA SHI","town":"SHINSENRI MINAMIMACHI","perfecture_jp":"大阪府","jp_add_1":"豊中市","jp_add_2":"新千里南町"},"5600081":{"post_code":"5600081","prefecture":"OSAKA FU","city":"TOYONAKA SHI","town":"SHINSENRI KITAMACHI","perfecture_jp":"大阪府","jp_add_1":"豊中市","jp_add_2":"新千里北町"},"5600024":{"post_code":"5600024","prefecture":"OSAKA FU","city":"TOYONAKA SHI","town":"SUEHIROCHO","perfecture_jp":"大阪府","jp_add_1":"豊中市","jp_add_2":"末広町"},"5600041":{"post_code":"5600041","prefecture":"OSAKA FU","city":"TOYONAKA SHI","town":"SEIFUSO","perfecture_jp":"大阪府","jp_add_1":"豊中市","jp_add_2":"清風荘"},"5600046":{"post_code":"5600046","prefecture":"OSAKA FU","city":"TOYONAKA SHI","town":"SENRIEN","perfecture_jp":"大阪府","jp_add_1":"豊中市","jp_add_2":"千里園"},"5600025":{"post_code":"5600025","prefecture":"OSAKA FU","city":"TOYONAKA SHI","town":"TACHIBANACHO","perfecture_jp":"大阪府","jp_add_1":"豊中市","jp_add_2":"立花町"},"5600026":{"post_code":"5600026","prefecture":"OSAKA FU","city":"TOYONAKA SHI","town":"TAMAICHO","perfecture_jp":"大阪府","jp_add_1":"豊中市","jp_add_2":"玉井町"},"5600045":{"post_code":"5600045","prefecture":"OSAKA FU","city":"TOYONAKA SHI","town":"TONEYAMA","perfecture_jp":"大阪府","jp_add_1":"豊中市","jp_add_2":"刀根山"},"5600044":{"post_code":"5600044","prefecture":"OSAKA FU","city":"TOYONAKA SHI","town":"TONEYAMAMOTOMACHI","perfecture_jp":"大阪府","jp_add_1":"豊中市","jp_add_2":"刀根山元町"},"5600005":{"post_code":"5600005","prefecture":"OSAKA FU","city":"TOYONAKA SHI","town":"NISHIMIDORIGAOKA","perfecture_jp":"大阪府","jp_add_1":"豊中市","jp_add_2":"西緑丘"},"5600003":{"post_code":"5600003","prefecture":"OSAKA FU","city":"TOYONAKA SHI","town":"HIGASHITOYONAKACHO","perfecture_jp":"大阪府","jp_add_1":"豊中市","jp_add_2":"東豊中町"},"5600032":{"post_code":"5600032","prefecture":"OSAKA FU","city":"TOYONAKA SHI","town":"HOTARUGAIKEHIGASHIMACHI","perfecture_jp":"大阪府","jp_add_1":"豊中市","jp_add_2":"蛍池東町"},"5600036":{"post_code":"5600036","prefecture":"OSAKA FU","city":"TOYONAKA SHI","town":"HOTARUGAIKENISHIMACHI","perfecture_jp":"大阪府","jp_add_1":"豊中市","jp_add_2":"蛍池西町"},"5600034":{"post_code":"5600034","prefecture":"OSAKA FU","city":"TOYONAKA SHI","town":"HOTARUGAIKEMINAMIMACHI","perfecture_jp":"大阪府","jp_add_1":"豊中市","jp_add_2":"蛍池南町"},"5600031":{"post_code":"5600031","prefecture":"OSAKA FU","city":"TOYONAKA SHI","town":"HOTARUGAIKEKITAMACHI","perfecture_jp":"大阪府","jp_add_1":"豊中市","jp_add_2":"蛍池北町"},"5600033":{"post_code":"5600033","prefecture":"OSAKA FU","city":"TOYONAKA SHI","town":"HOTARUGAIKENAKAMACHI","perfecture_jp":"大阪府","jp_add_1":"豊中市","jp_add_2":"蛍池中町"},"5600021":{"post_code":"5600021","prefecture":"OSAKA FU","city":"TOYONAKA SHI","town":"HOMMACHI","perfecture_jp":"大阪府","jp_add_1":"豊中市","jp_add_2":"本町"},"5600043":{"post_code":"5600043","prefecture":"OSAKA FU","city":"TOYONAKA SHI","town":"MACHIKANEYAMACHO","perfecture_jp":"大阪府","jp_add_1":"豊中市","jp_add_2":"待兼山町"},"5600002":{"post_code":"5600002","prefecture":"OSAKA FU","city":"TOYONAKA SHI","town":"MIDORIGAOKA","perfecture_jp":"大阪府","jp_add_1":"豊中市","jp_add_2":"緑丘"},"5600035":{"post_code":"5600035","prefecture":"OSAKA FU","city":"TOYONAKA SHI","town":"MINOWA","perfecture_jp":"大阪府","jp_add_1":"豊中市","jp_add_2":"箕輪"},"5600056":{"post_code":"5600056","prefecture":"OSAKA FU","city":"TOYONAKA SHI","town":"MIYAYAMACHO","perfecture_jp":"大阪府","jp_add_1":"豊中市","jp_add_2":"宮山町"},"5600053":{"post_code":"5600053","prefecture":"OSAKA FU","city":"TOYONAKA SHI","town":"MUKAIGAOKA","perfecture_jp":"大阪府","jp_add_1":"豊中市","jp_add_2":"向丘"}}