{"5640000":{"post_code":"5640000","prefecture":"OSAKA FU","city":"SUITA SHI","town":"IKANIKEISAIGANAIBAAI","perfecture_jp":"大阪府","jp_add_1":"吹田市","jp_add_2":""},"5640083":{"post_code":"5640083","prefecture":"OSAKA FU","city":"SUITA SHI","town":"ASAHIGAOKACHO","perfecture_jp":"大阪府","jp_add_1":"吹田市","jp_add_2":"朝日が丘町"},"5640027":{"post_code":"5640027","prefecture":"OSAKA FU","city":"SUITA SHI","town":"ASAHIMACHI","perfecture_jp":"大阪府","jp_add_1":"吹田市","jp_add_2":"朝日町"},"5640041":{"post_code":"5640041","prefecture":"OSAKA FU","city":"SUITA SHI","town":"IZUMICHO","perfecture_jp":"大阪府","jp_add_1":"吹田市","jp_add_2":"泉町"},"5640032":{"post_code":"5640032","prefecture":"OSAKA FU","city":"SUITA SHI","town":"UCHIHOMMACHI","perfecture_jp":"大阪府","jp_add_1":"吹田市","jp_add_2":"内本町"},"5640063":{"post_code":"5640063","prefecture":"OSAKA FU","city":"SUITA SHI","town":"ESAKACHO","perfecture_jp":"大阪府","jp_add_1":"吹田市","jp_add_2":"江坂町"},"5640053":{"post_code":"5640053","prefecture":"OSAKA FU","city":"SUITA SHI","town":"ENOKICHO","perfecture_jp":"大阪府","jp_add_1":"吹田市","jp_add_2":"江の木町"},"5640082":{"post_code":"5640082","prefecture":"OSAKA FU","city":"SUITA SHI","town":"KATAYAMACHO","perfecture_jp":"大阪府","jp_add_1":"吹田市","jp_add_2":"片山町"},"5640045":{"post_code":"5640045","prefecture":"OSAKA FU","city":"SUITA SHI","town":"KANEDENCHO","perfecture_jp":"大阪府","jp_add_1":"吹田市","jp_add_2":"金田町"},"5640037":{"post_code":"5640037","prefecture":"OSAKA FU","city":"SUITA SHI","town":"KAWAGISHICHO","perfecture_jp":"大阪府","jp_add_1":"吹田市","jp_add_2":"川岸町"},"5640013":{"post_code":"5640013","prefecture":"OSAKA FU","city":"SUITA SHI","town":"KAWAZONOCHO","perfecture_jp":"大阪府","jp_add_1":"吹田市","jp_add_2":"川園町"},"5640002":{"post_code":"5640002","prefecture":"OSAKA FU","city":"SUITA SHI","town":"KISHIBE NAKA","perfecture_jp":"大阪府","jp_add_1":"吹田市","jp_add_2":"岸部中"},"5640011":{"post_code":"5640011","prefecture":"OSAKA FU","city":"SUITA SHI","town":"KISHIBE MINAMI","perfecture_jp":"大阪府","jp_add_1":"吹田市","jp_add_2":"岸部南"},"5640001":{"post_code":"5640001","prefecture":"OSAKA FU","city":"SUITA SHI","town":"KISHIBE KITA","perfecture_jp":"大阪府","jp_add_1":"吹田市","jp_add_2":"岸部北"},"5640018":{"post_code":"5640018","prefecture":"OSAKA FU","city":"SUITA SHI","town":"KISHIBESHIMMACHI","perfecture_jp":"大阪府","jp_add_1":"吹田市","jp_add_2":"岸部新町"},"5640036":{"post_code":"5640036","prefecture":"OSAKA FU","city":"SUITA SHI","town":"KOTOBUKICHO","perfecture_jp":"大阪府","jp_add_1":"吹田市","jp_add_2":"寿町"},"5640015":{"post_code":"5640015","prefecture":"OSAKA FU","city":"SUITA SHI","town":"SAIWAICHO","perfecture_jp":"大阪府","jp_add_1":"吹田市","jp_add_2":"幸町"},"5640017":{"post_code":"5640017","prefecture":"OSAKA FU","city":"SUITA SHI","town":"SHIBATACHO","perfecture_jp":"大阪府","jp_add_1":"吹田市","jp_add_2":"芝田町"},"5640028":{"post_code":"5640028","prefecture":"OSAKA FU","city":"SUITA SHI","town":"SHOWACHO","perfecture_jp":"大阪府","jp_add_1":"吹田市","jp_add_2":"昭和町"},"5640014":{"post_code":"5640014","prefecture":"OSAKA FU","city":"SUITA SHI","town":"SUITOCHO","perfecture_jp":"大阪府","jp_add_1":"吹田市","jp_add_2":"吹東町"},"5640022":{"post_code":"5640022","prefecture":"OSAKA FU","city":"SUITA SHI","town":"SUEHIROCHO","perfecture_jp":"大阪府","jp_add_1":"吹田市","jp_add_2":"末広町"},"5640039":{"post_code":"5640039","prefecture":"OSAKA FU","city":"SUITA SHI","town":"SEIWAENCHO","perfecture_jp":"大阪府","jp_add_1":"吹田市","jp_add_2":"清和園町"},"5640024":{"post_code":"5640024","prefecture":"OSAKA FU","city":"SUITA SHI","town":"TAKASHIROCHO","perfecture_jp":"大阪府","jp_add_1":"吹田市","jp_add_2":"高城町"},"5640026":{"post_code":"5640026","prefecture":"OSAKA FU","city":"SUITA SHI","town":"TAKAHAMACHO","perfecture_jp":"大阪府","jp_add_1":"吹田市","jp_add_2":"高浜町"},"5640062":{"post_code":"5640062","prefecture":"OSAKA FU","city":"SUITA SHI","town":"TARUMICHO","perfecture_jp":"大阪府","jp_add_1":"吹田市","jp_add_2":"垂水町"},"5640072":{"post_code":"5640072","prefecture":"OSAKA FU","city":"SUITA SHI","town":"DEGUCHICHO","perfecture_jp":"大阪府","jp_add_1":"吹田市","jp_add_2":"出口町"},"5640003":{"post_code":"5640003","prefecture":"OSAKA FU","city":"SUITA SHI","town":"TENDOCHO","perfecture_jp":"大阪府","jp_add_1":"吹田市","jp_add_2":"天道町"},"5640051":{"post_code":"5640051","prefecture":"OSAKA FU","city":"SUITA SHI","town":"TOYOTSUCHO","perfecture_jp":"大阪府","jp_add_1":"吹田市","jp_add_2":"豊津町"},"5640035":{"post_code":"5640035","prefecture":"OSAKA FU","city":"SUITA SHI","town":"NAKANOSHIMACHO","perfecture_jp":"大阪府","jp_add_1":"吹田市","jp_add_2":"中の島町"},"5640034":{"post_code":"5640034","prefecture":"OSAKA FU","city":"SUITA SHI","town":"NISHIOTABICHO","perfecture_jp":"大阪府","jp_add_1":"吹田市","jp_add_2":"西御旅町"},"5640071":{"post_code":"5640071","prefecture":"OSAKA FU","city":"SUITA SHI","town":"NISHINOSHOCHO","perfecture_jp":"大阪府","jp_add_1":"吹田市","jp_add_2":"西の庄町"},"5640004":{"post_code":"5640004","prefecture":"OSAKA FU","city":"SUITA SHI","town":"HARACHO","perfecture_jp":"大阪府","jp_add_1":"吹田市","jp_add_2":"原町"},"5640033":{"post_code":"5640033","prefecture":"OSAKA FU","city":"SUITA SHI","town":"HIGASHIOTABICHO","perfecture_jp":"大阪府","jp_add_1":"吹田市","jp_add_2":"東御旅町"},"5640023":{"post_code":"5640023","prefecture":"OSAKA FU","city":"SUITA SHI","town":"HINODECHO","perfecture_jp":"大阪府","jp_add_1":"吹田市","jp_add_2":"日の出町"},"5640016":{"post_code":"5640016","prefecture":"OSAKA FU","city":"SUITA SHI","town":"HIRAMATSUCHO","perfecture_jp":"大阪府","jp_add_1":"吹田市","jp_add_2":"平松町"},"5640052":{"post_code":"5640052","prefecture":"OSAKA FU","city":"SUITA SHI","town":"HIROSHIBACHO","perfecture_jp":"大阪府","jp_add_1":"吹田市","jp_add_2":"広芝町"},"5640081":{"post_code":"5640081","prefecture":"OSAKA FU","city":"SUITA SHI","town":"FUJIGAOKACHO","perfecture_jp":"大阪府","jp_add_1":"吹田市","jp_add_2":"藤が丘町"},"5640042":{"post_code":"5640042","prefecture":"OSAKA FU","city":"SUITA SHI","town":"HONAMICHO","perfecture_jp":"大阪府","jp_add_1":"吹田市","jp_add_2":"穂波町"},"5640061":{"post_code":"5640061","prefecture":"OSAKA FU","city":"SUITA SHI","town":"MARUYAMACHO","perfecture_jp":"大阪府","jp_add_1":"吹田市","jp_add_2":"円山町"},"5640044":{"post_code":"5640044","prefecture":"OSAKA FU","city":"SUITA SHI","town":"MINAMIKANEDEN","perfecture_jp":"大阪府","jp_add_1":"吹田市","jp_add_2":"南金田"},"5640012":{"post_code":"5640012","prefecture":"OSAKA FU","city":"SUITA SHI","town":"MINAMISHOJAKU","perfecture_jp":"大阪府","jp_add_1":"吹田市","jp_add_2":"南正雀"},"5640043":{"post_code":"5640043","prefecture":"OSAKA FU","city":"SUITA SHI","town":"MINAMISUITA","perfecture_jp":"大阪府","jp_add_1":"吹田市","jp_add_2":"南吹田"},"5640038":{"post_code":"5640038","prefecture":"OSAKA FU","city":"SUITA SHI","town":"MINAMISEIWAENCHO","perfecture_jp":"大阪府","jp_add_1":"吹田市","jp_add_2":"南清和園町"},"5640025":{"post_code":"5640025","prefecture":"OSAKA FU","city":"SUITA SHI","town":"MINAMITAKAHAMACHO","perfecture_jp":"大阪府","jp_add_1":"吹田市","jp_add_2":"南高浜町"},"5640021":{"post_code":"5640021","prefecture":"OSAKA FU","city":"SUITA SHI","town":"MEDAWARACHO","perfecture_jp":"大阪府","jp_add_1":"吹田市","jp_add_2":"目俵町"},"5640031":{"post_code":"5640031","prefecture":"OSAKA FU","city":"SUITA SHI","town":"MOTOMACHI","perfecture_jp":"大阪府","jp_add_1":"吹田市","jp_add_2":"元町"},"5640073":{"post_code":"5640073","prefecture":"OSAKA FU","city":"SUITA SHI","town":"YAMATECHO","perfecture_jp":"大阪府","jp_add_1":"吹田市","jp_add_2":"山手町"},"5640054":{"post_code":"5640054","prefecture":"OSAKA FU","city":"SUITA SHI","town":"YOSHINOCHO","perfecture_jp":"大阪府","jp_add_1":"吹田市","jp_add_2":"芳野町"}}