{"5690000":{"post_code":"5690000","prefecture":"OSAKA FU","city":"TAKATSUKI SHI","town":"IKANIKEISAIGANAIBAAI","perfecture_jp":"大阪府","jp_add_1":"高槻市","jp_add_2":""},"5691146":{"post_code":"5691146","prefecture":"OSAKA FU","city":"TAKATSUKI SHI","town":"AKAOJICHO","perfecture_jp":"大阪府","jp_add_1":"高槻市","jp_add_2":"赤大路町"},"5691123":{"post_code":"5691123","prefecture":"OSAKA FU","city":"TAKATSUKI SHI","town":"AKUTAGAWACHO","perfecture_jp":"大阪府","jp_add_1":"高槻市","jp_add_2":"芥川町"},"5690806":{"post_code":"5690806","prefecture":"OSAKA FU","city":"TAKATSUKI SHI","town":"AKETACHO","perfecture_jp":"大阪府","jp_add_1":"高槻市","jp_add_2":"明田町"},"5690082":{"post_code":"5690082","prefecture":"OSAKA FU","city":"TAKATSUKI SHI","town":"AKENOCHO","perfecture_jp":"大阪府","jp_add_1":"高槻市","jp_add_2":"明野町"},"5691134":{"post_code":"5691134","prefecture":"OSAKA FU","city":"TAKATSUKI SHI","town":"ASAHIMACHI","perfecture_jp":"大阪府","jp_add_1":"高槻市","jp_add_2":"朝日町"},"5691045":{"post_code":"5691045","prefecture":"OSAKA FU","city":"TAKATSUKI SHI","town":"ABUNO","perfecture_jp":"大阪府","jp_add_1":"高槻市","jp_add_2":"阿武野"},"5691102":{"post_code":"5691102","prefecture":"OSAKA FU","city":"TAKATSUKI SHI","town":"AMA IWATECHO","perfecture_jp":"大阪府","jp_add_1":"高槻市","jp_add_2":"安満磐手町"},"5691101":{"post_code":"5691101","prefecture":"OSAKA FU","city":"TAKATSUKI SHI","town":"AMA GOSHONOCHO","perfecture_jp":"大阪府","jp_add_1":"高槻市","jp_add_2":"安満御所の町"},"5691106":{"post_code":"5691106","prefecture":"OSAKA FU","city":"TAKATSUKI SHI","town":"AMA SHIMMACHI","perfecture_jp":"大阪府","jp_add_1":"高槻市","jp_add_2":"安満新町"},"5691105":{"post_code":"5691105","prefecture":"OSAKA FU","city":"TAKATSUKI SHI","town":"AMA NAKANOCHO","perfecture_jp":"大阪府","jp_add_1":"高槻市","jp_add_2":"安満中の町"},"5691104":{"post_code":"5691104","prefecture":"OSAKA FU","city":"TAKATSUKI SHI","town":"AMA HIGASHINOCHO","perfecture_jp":"大阪府","jp_add_1":"高槻市","jp_add_2":"安満東の町"},"5691107":{"post_code":"5691107","prefecture":"OSAKA FU","city":"TAKATSUKI SHI","town":"AMA NISHINOCHO","perfecture_jp":"大阪府","jp_add_1":"高槻市","jp_add_2":"安満西の町"},"5691108":{"post_code":"5691108","prefecture":"OSAKA FU","city":"TAKATSUKI SHI","town":"AMA KITANOCHO","perfecture_jp":"大阪府","jp_add_1":"高槻市","jp_add_2":"安満北の町"},"5690027":{"post_code":"5690027","prefecture":"OSAKA FU","city":"TAKATSUKI SHI","town":"AMAGAWASHIMMACHI","perfecture_jp":"大阪府","jp_add_1":"高槻市","jp_add_2":"天川新町"},"5690026":{"post_code":"5690026","prefecture":"OSAKA FU","city":"TAKATSUKI SHI","town":"AMAGAWACHO","perfecture_jp":"大阪府","jp_add_1":"高槻市","jp_add_2":"天川町"},"5691029":{"post_code":"5691029","prefecture":"OSAKA FU","city":"TAKATSUKI SHI","town":"ANKOJICHO","perfecture_jp":"大阪府","jp_add_1":"高槻市","jp_add_2":"安岡寺町"},"5690015":{"post_code":"5690015","prefecture":"OSAKA FU","city":"TAKATSUKI SHI","town":"IJIRI","perfecture_jp":"大阪府","jp_add_1":"高槻市","jp_add_2":"井尻"},"5691003":{"post_code":"5691003","prefecture":"OSAKA FU","city":"TAKATSUKI SHI","town":"IZURIHA","perfecture_jp":"大阪府","jp_add_1":"高槻市","jp_add_2":"出灰"},"5691135":{"post_code":"5691135","prefecture":"OSAKA FU","city":"TAKATSUKI SHI","town":"IMASHIROCHO","perfecture_jp":"大阪府","jp_add_1":"高槻市","jp_add_2":"今城町"},"5691111":{"post_code":"5691111","prefecture":"OSAKA FU","city":"TAKATSUKI SHI","town":"UTSUKUSHIGAOKA","perfecture_jp":"大阪府","jp_add_1":"高槻市","jp_add_2":"美しが丘"},"5691027":{"post_code":"5691027","prefecture":"OSAKA FU","city":"TAKATSUKI SHI","town":"URADO","perfecture_jp":"大阪府","jp_add_1":"高槻市","jp_add_2":"浦堂"},"5691028":{"post_code":"5691028","prefecture":"OSAKA FU","city":"TAKATSUKI SHI","town":"URADOHOMMACHI","perfecture_jp":"大阪府","jp_add_1":"高槻市","jp_add_2":"浦堂本町"},"5690083":{"post_code":"5690083","prefecture":"OSAKA FU","city":"TAKATSUKI SHI","town":"EIRAKUCHO","perfecture_jp":"大阪府","jp_add_1":"高槻市","jp_add_2":"永楽町"},"5690031":{"post_code":"5690031","prefecture":"OSAKA FU","city":"TAKATSUKI SHI","town":"OKAMMURICHO","perfecture_jp":"大阪府","jp_add_1":"高槻市","jp_add_2":"大冠町"},"5690034":{"post_code":"5690034","prefecture":"OSAKA FU","city":"TAKATSUKI SHI","town":"OTSUKACHO","perfecture_jp":"大阪府","jp_add_1":"高槻市","jp_add_2":"大塚町"},"5690078":{"post_code":"5690078","prefecture":"OSAKA FU","city":"TAKATSUKI SHI","town":"OTECHO","perfecture_jp":"大阪府","jp_add_1":"高槻市","jp_add_2":"大手町"},"5691144":{"post_code":"5691144","prefecture":"OSAKA FU","city":"TAKATSUKI SHI","town":"OHATACHO","perfecture_jp":"大阪府","jp_add_1":"高槻市","jp_add_2":"大畑町"},"5691137":{"post_code":"5691137","prefecture":"OSAKA FU","city":"TAKATSUKI SHI","town":"OKAMOTOCHO","perfecture_jp":"大阪府","jp_add_1":"高槻市","jp_add_2":"岡本町"},"5691118":{"post_code":"5691118","prefecture":"OSAKA FU","city":"TAKATSUKI SHI","town":"OKUTENJINCHO","perfecture_jp":"大阪府","jp_add_1":"高槻市","jp_add_2":"奥天神町"},"5690091":{"post_code":"5690091","prefecture":"OSAKA FU","city":"TAKATSUKI SHI","town":"KAJIHARA","perfecture_jp":"大阪府","jp_add_1":"高槻市","jp_add_2":"梶原"},"5690092":{"post_code":"5690092","prefecture":"OSAKA FU","city":"TAKATSUKI SHI","town":"KAJIHARANAKAMURACHO","perfecture_jp":"大阪府","jp_add_1":"高槻市","jp_add_2":"梶原中村町"},"5690053":{"post_code":"5690053","prefecture":"OSAKA FU","city":"TAKATSUKI SHI","town":"KASUGACHO","perfecture_jp":"大阪府","jp_add_1":"高槻市","jp_add_2":"春日町"},"5690805":{"post_code":"5690805","prefecture":"OSAKA FU","city":"TAKATSUKI SHI","town":"KAMITANABECHO","perfecture_jp":"大阪府","jp_add_1":"高槻市","jp_add_2":"上田辺町"},"5691044":{"post_code":"5691044","prefecture":"OSAKA FU","city":"TAKATSUKI SHI","town":"KAMIHAMURO","perfecture_jp":"大阪府","jp_add_1":"高槻市","jp_add_2":"上土室"},"5690073":{"post_code":"5690073","prefecture":"OSAKA FU","city":"TAKATSUKI SHI","town":"KAMIHOMMACHI","perfecture_jp":"大阪府","jp_add_1":"高槻市","jp_add_2":"上本町"},"5690834":{"post_code":"5690834","prefecture":"OSAKA FU","city":"TAKATSUKI SHI","town":"KARASAKI","perfecture_jp":"大阪府","jp_add_1":"高槻市","jp_add_2":"唐崎"},"5690832":{"post_code":"5690832","prefecture":"OSAKA FU","city":"TAKATSUKI SHI","town":"KARASAKI NAKA","perfecture_jp":"大阪府","jp_add_1":"高槻市","jp_add_2":"唐崎中"},"5690836":{"post_code":"5690836","prefecture":"OSAKA FU","city":"TAKATSUKI SHI","town":"KARASAKI NISHI","perfecture_jp":"大阪府","jp_add_1":"高槻市","jp_add_2":"唐崎西"},"5690833":{"post_code":"5690833","prefecture":"OSAKA FU","city":"TAKATSUKI SHI","town":"KARASAKI MINAMI","perfecture_jp":"大阪府","jp_add_1":"高槻市","jp_add_2":"唐崎南"},"5690831":{"post_code":"5690831","prefecture":"OSAKA FU","city":"TAKATSUKI SHI","town":"KARASAKI KITA","perfecture_jp":"大阪府","jp_add_1":"高槻市","jp_add_2":"唐崎北"},"5691018":{"post_code":"5691018","prefecture":"OSAKA FU","city":"TAKATSUKI SHI","town":"KARINEN","perfecture_jp":"大阪府","jp_add_1":"高槻市","jp_add_2":"花林苑"},"5691011":{"post_code":"5691011","prefecture":"OSAKA FU","city":"TAKATSUKI SHI","town":"KAWAKUBO","perfecture_jp":"大阪府","jp_add_1":"高槻市","jp_add_2":"川久保"},"5690824":{"post_code":"5690824","prefecture":"OSAKA FU","city":"TAKATSUKI SHI","town":"KAWAZOE","perfecture_jp":"大阪府","jp_add_1":"高槻市","jp_add_2":"川添"},"5691133":{"post_code":"5691133","prefecture":"OSAKA FU","city":"TAKATSUKI SHI","town":"KAWANISHICHO","perfecture_jp":"大阪府","jp_add_1":"高槻市","jp_add_2":"川西町"},"5690004":{"post_code":"5690004","prefecture":"OSAKA FU","city":"TAKATSUKI SHI","town":"KAMMAKI MINAMIEKIMAECHO","perfecture_jp":"大阪府","jp_add_1":"高槻市","jp_add_2":"上牧南駅前町"},"5690005":{"post_code":"5690005","prefecture":"OSAKA FU","city":"TAKATSUKI SHI","town":"KAMMAKI KITAEKIMAECHO","perfecture_jp":"大阪府","jp_add_1":"高槻市","jp_add_2":"上牧北駅前町"},"5690006":{"post_code":"5690006","prefecture":"OSAKA FU","city":"TAKATSUKI SHI","town":"KAMMAKI YAMATECHO","perfecture_jp":"大阪府","jp_add_1":"高槻市","jp_add_2":"上牧山手町"},"5690003":{"post_code":"5690003","prefecture":"OSAKA FU","city":"TAKATSUKI SHI","town":"KAMMAKICHO","perfecture_jp":"大阪府","jp_add_1":"高槻市","jp_add_2":"上牧町"},"5690041":{"post_code":"5690041","prefecture":"OSAKA FU","city":"TAKATSUKI SHI","town":"KITAOHICHO","perfecture_jp":"大阪府","jp_add_1":"高槻市","jp_add_2":"北大樋町"},"5690816":{"post_code":"5690816","prefecture":"OSAKA FU","city":"TAKATSUKI SHI","town":"KITASHOWADAICHO","perfecture_jp":"大阪府","jp_add_1":"高槻市","jp_add_2":"北昭和台町"},"5690802":{"post_code":"5690802","prefecture":"OSAKA FU","city":"TAKATSUKI SHI","town":"KITASONOMACHI","perfecture_jp":"大阪府","jp_add_1":"高槻市","jp_add_2":"北園町"},"5690852":{"post_code":"5690852","prefecture":"OSAKA FU","city":"TAKATSUKI SHI","town":"KITAYANAGAWACHO","perfecture_jp":"大阪府","jp_add_1":"高槻市","jp_add_2":"北柳川町"},"5690072":{"post_code":"5690072","prefecture":"OSAKA FU","city":"TAKATSUKI SHI","town":"KYOGUCHIMACHI","perfecture_jp":"大阪府","jp_add_1":"高槻市","jp_add_2":"京口町"},"5691136":{"post_code":"5691136","prefecture":"OSAKA FU","city":"TAKATSUKI SHI","town":"GUNGE SHIMMACHI","perfecture_jp":"大阪府","jp_add_1":"高槻市","jp_add_2":"郡家新町"},"5691131":{"post_code":"5691131","prefecture":"OSAKA FU","city":"TAKATSUKI SHI","town":"GUNGE HOMMACHI","perfecture_jp":"大阪府","jp_add_1":"高槻市","jp_add_2":"郡家本町"},"5690061":{"post_code":"5690061","prefecture":"OSAKA FU","city":"TAKATSUKI SHI","town":"KOSAICHO","perfecture_jp":"大阪府","jp_add_1":"高槻市","jp_add_2":"高西町"},"5690007":{"post_code":"5690007","prefecture":"OSAKA FU","city":"TAKATSUKI SHI","town":"KONAI","perfecture_jp":"大阪府","jp_add_1":"高槻市","jp_add_2":"神内"},"5691038":{"post_code":"5691038","prefecture":"OSAKA FU","city":"TAKATSUKI SHI","town":"KOGANENOSATO","perfecture_jp":"大阪府","jp_add_1":"高槻市","jp_add_2":"黄金の里"},"5691115":{"post_code":"5691115","prefecture":"OSAKA FU","city":"TAKATSUKI SHI","town":"KOSOBECHO","perfecture_jp":"大阪府","jp_add_1":"高槻市","jp_add_2":"古曽部町"},"5690826":{"post_code":"5690826","prefecture":"OSAKA FU","city":"TAKATSUKI SHI","town":"KOTOBUKICHO","perfecture_jp":"大阪府","jp_add_1":"高槻市","jp_add_2":"寿町"},"5690016":{"post_code":"5690016","prefecture":"OSAKA FU","city":"TAKATSUKI SHI","town":"GORYOCHO","perfecture_jp":"大阪府","jp_add_1":"高槻市","jp_add_2":"五領町"},"5690804":{"post_code":"5690804","prefecture":"OSAKA FU","city":"TAKATSUKI SHI","town":"KONYAMACHI","perfecture_jp":"大阪府","jp_add_1":"高槻市","jp_add_2":"紺屋町"},"5690842":{"post_code":"5690842","prefecture":"OSAKA FU","city":"TAKATSUKI SHI","town":"SAIME NAKA","perfecture_jp":"大阪府","jp_add_1":"高槻市","jp_add_2":"西面中"},"5690847":{"post_code":"5690847","prefecture":"OSAKA FU","city":"TAKATSUKI SHI","town":"SAIME MINAMI","perfecture_jp":"大阪府","jp_add_1":"高槻市","jp_add_2":"西面南"},"5690841":{"post_code":"5690841","prefecture":"OSAKA FU","city":"TAKATSUKI SHI","town":"SAIME KITA","perfecture_jp":"大阪府","jp_add_1":"高槻市","jp_add_2":"西面北"},"5691143":{"post_code":"5691143","prefecture":"OSAKA FU","city":"TAKATSUKI SHI","town":"SAIWAICHO","perfecture_jp":"大阪府","jp_add_1":"高槻市","jp_add_2":"幸町"},"5690825":{"post_code":"5690825","prefecture":"OSAKA FU","city":"TAKATSUKI SHI","town":"SAKAEMACHI","perfecture_jp":"大阪府","jp_add_1":"高槻市","jp_add_2":"栄町"},"5690818":{"post_code":"5690818","prefecture":"OSAKA FU","city":"TAKATSUKI SHI","town":"SAKURAGAOKA MINAMIMACHI","perfecture_jp":"大阪府","jp_add_1":"高槻市","jp_add_2":"桜ケ丘南町"},"5690817":{"post_code":"5690817","prefecture":"OSAKA FU","city":"TAKATSUKI SHI","town":"SAKURAGAOKA KITAMACHI","perfecture_jp":"大阪府","jp_add_1":"高槻市","jp_add_2":"桜ケ丘北町"},"5690807":{"post_code":"5690807","prefecture":"OSAKA FU","city":"TAKATSUKI SHI","town":"SAKURAMACHI","perfecture_jp":"大阪府","jp_add_1":"高槻市","jp_add_2":"桜町"},"5690084":{"post_code":"5690084","prefecture":"OSAKA FU","city":"TAKATSUKI SHI","town":"SAWARAGICHO","perfecture_jp":"大阪府","jp_add_1":"高槻市","jp_add_2":"沢良木町"},"5690843":{"post_code":"5690843","prefecture":"OSAKA FU","city":"TAKATSUKI SHI","town":"SANGAMAKI","perfecture_jp":"大阪府","jp_add_1":"高槻市","jp_add_2":"三箇牧"},"5691025":{"post_code":"5691025","prefecture":"OSAKA FU","city":"TAKATSUKI SHI","town":"SHIBATANICHO","perfecture_jp":"大阪府","jp_add_1":"高槻市","jp_add_2":"芝谷町"},"5690823":{"post_code":"5690823","prefecture":"OSAKA FU","city":"TAKATSUKI SHI","town":"SHIBOCHO","perfecture_jp":"大阪府","jp_add_1":"高槻市","jp_add_2":"芝生町"},"5691039":{"post_code":"5691039","prefecture":"OSAKA FU","city":"TAKATSUKI SHI","town":"SHIMIZUDAI","perfecture_jp":"大阪府","jp_add_1":"高槻市","jp_add_2":"清水台"},"5690062":{"post_code":"5690062","prefecture":"OSAKA FU","city":"TAKATSUKI SHI","town":"SHIMOTANABECHO","perfecture_jp":"大阪府","jp_add_1":"高槻市","jp_add_2":"下田部町"},"5690064":{"post_code":"5690064","prefecture":"OSAKA FU","city":"TAKATSUKI SHI","town":"SHODOKOROCHO","perfecture_jp":"大阪府","jp_add_1":"高槻市","jp_add_2":"庄所町"},"5690815":{"post_code":"5690815","prefecture":"OSAKA FU","city":"TAKATSUKI SHI","town":"SHOWADAICHO","perfecture_jp":"大阪府","jp_add_1":"高槻市","jp_add_2":"昭和台町"},"5690052":{"post_code":"5690052","prefecture":"OSAKA FU","city":"TAKATSUKI SHI","town":"JOTOCHO","perfecture_jp":"大阪府","jp_add_1":"高槻市","jp_add_2":"城東町"},"5690065":{"post_code":"5690065","prefecture":"OSAKA FU","city":"TAKATSUKI SHI","town":"JOSAICHO","perfecture_jp":"大阪府","jp_add_1":"高槻市","jp_add_2":"城西町"},"5690056":{"post_code":"5690056","prefecture":"OSAKA FU","city":"TAKATSUKI SHI","town":"JONANCHO","perfecture_jp":"大阪府","jp_add_1":"高槻市","jp_add_2":"城南町"},"5690071":{"post_code":"5690071","prefecture":"OSAKA FU","city":"TAKATSUKI SHI","town":"JOHOKUCHO","perfecture_jp":"大阪府","jp_add_1":"高槻市","jp_add_2":"城北町"},"5690075":{"post_code":"5690075","prefecture":"OSAKA FU","city":"TAKATSUKI SHI","town":"JONAICHO","perfecture_jp":"大阪府","jp_add_1":"高槻市","jp_add_2":"城内町"},"5690022":{"post_code":"5690022","prefecture":"OSAKA FU","city":"TAKATSUKI SHI","town":"SUGACHO","perfecture_jp":"大阪府","jp_add_1":"高槻市","jp_add_2":"須賀町"},"5691005":{"post_code":"5691005","prefecture":"OSAKA FU","city":"TAKATSUKI SHI","town":"SUGIO","perfecture_jp":"大阪府","jp_add_1":"高槻市","jp_add_2":"杉生"},"5690036":{"post_code":"5690036","prefecture":"OSAKA FU","city":"TAKATSUKI SHI","town":"ZUSHI","perfecture_jp":"大阪府","jp_add_1":"高槻市","jp_add_2":"辻子"},"5691132":{"post_code":"5691132","prefecture":"OSAKA FU","city":"TAKATSUKI SHI","town":"SEIFUKUJICHO","perfecture_jp":"大阪府","jp_add_1":"高槻市","jp_add_2":"清福寺町"},"5690097":{"post_code":"5690097","prefecture":"OSAKA FU","city":"TAKATSUKI SHI","town":"TAKAGAKICHO","perfecture_jp":"大阪府","jp_add_1":"高槻市","jp_add_2":"高垣町"},"5690803":{"post_code":"5690803","prefecture":"OSAKA FU","city":"TAKATSUKI SHI","town":"TAKATSUKIMACHI","perfecture_jp":"大阪府","jp_add_1":"高槻市","jp_add_2":"高槻町"},"5691020":{"post_code":"5691020","prefecture":"OSAKA FU","city":"TAKATSUKI SHI","town":"TAKAMIDAI","perfecture_jp":"大阪府","jp_add_1":"高槻市","jp_add_2":"高見台"},"5690043":{"post_code":"5690043","prefecture":"OSAKA FU","city":"TAKATSUKI SHI","town":"TAKENOCHICHO","perfecture_jp":"大阪府","jp_add_1":"高槻市","jp_add_2":"竹の内町"},"5690801":{"post_code":"5690801","prefecture":"OSAKA FU","city":"TAKATSUKI SHI","town":"DAIGAKUMACHI","perfecture_jp":"大阪府","jp_add_1":"高槻市","jp_add_2":"大学町"},"5691034":{"post_code":"5691034","prefecture":"OSAKA FU","city":"TAKATSUKI SHI","town":"DAIZOJI","perfecture_jp":"大阪府","jp_add_1":"高槻市","jp_add_2":"大蔵司"},"5691047":{"post_code":"5691047","prefecture":"OSAKA FU","city":"TAKATSUKI SHI","town":"DAIWA","perfecture_jp":"大阪府","jp_add_1":"高槻市","jp_add_2":"大和"},"5691002":{"post_code":"5691002","prefecture":"OSAKA FU","city":"TAKATSUKI SHI","town":"TANO","perfecture_jp":"大阪府","jp_add_1":"高槻市","jp_add_2":"田能"},"5690857":{"post_code":"5690857","prefecture":"OSAKA FU","city":"TAKATSUKI SHI","town":"TAMAGAWA","perfecture_jp":"大阪府","jp_add_1":"高槻市","jp_add_2":"玉川"},"5690856":{"post_code":"5690856","prefecture":"OSAKA FU","city":"TAKATSUKI SHI","town":"TAMAGAWASHIMMACHI","perfecture_jp":"大阪府","jp_add_1":"高槻市","jp_add_2":"玉川新町"},"5690087":{"post_code":"5690087","prefecture":"OSAKA FU","city":"TAKATSUKI SHI","town":"CHIYODACHO","perfecture_jp":"大阪府","jp_add_1":"高槻市","jp_add_2":"千代田町"},"5691046":{"post_code":"5691046","prefecture":"OSAKA FU","city":"TAKATSUKI SHI","town":"TSUKAHARA","perfecture_jp":"大阪府","jp_add_1":"高槻市","jp_add_2":"塚原"},"5691036":{"post_code":"5691036","prefecture":"OSAKA FU","city":"TAKATSUKI SHI","town":"TSUKAWAKI","perfecture_jp":"大阪府","jp_add_1":"高槻市","jp_add_2":"塚脇"},"5691122":{"post_code":"5691122","prefecture":"OSAKA FU","city":"TAKATSUKI SHI","town":"TSUKIMICHO","perfecture_jp":"大阪府","jp_add_1":"高槻市","jp_add_2":"月見町"},"5690047":{"post_code":"5690047","prefecture":"OSAKA FU","city":"TAKATSUKI SHI","town":"TSUTSUMICHO","perfecture_jp":"大阪府","jp_add_1":"高槻市","jp_add_2":"堤町"},"5690821":{"post_code":"5690821","prefecture":"OSAKA FU","city":"TAKATSUKI SHI","town":"TSUNOEKITAMACHI","perfecture_jp":"大阪府","jp_add_1":"高槻市","jp_add_2":"津之江北町"},"5690822":{"post_code":"5690822","prefecture":"OSAKA FU","city":"TAKATSUKI SHI","town":"TSUNOECHO","perfecture_jp":"大阪府","jp_add_1":"高槻市","jp_add_2":"津之江町"},"5690076":{"post_code":"5690076","prefecture":"OSAKA FU","city":"TAKATSUKI SHI","town":"DEMARUCHO","perfecture_jp":"大阪府","jp_add_1":"高槻市","jp_add_2":"出丸町"},"5691024":{"post_code":"5691024","prefecture":"OSAKA FU","city":"TAKATSUKI SHI","town":"TERATANICHO","perfecture_jp":"大阪府","jp_add_1":"高槻市","jp_add_2":"寺谷町"},"5691117":{"post_code":"5691117","prefecture":"OSAKA FU","city":"TAKATSUKI SHI","town":"TENJIMMACHI","perfecture_jp":"大阪府","jp_add_1":"高槻市","jp_add_2":"天神町"},"5690088":{"post_code":"5690088","prefecture":"OSAKA FU","city":"TAKATSUKI SHI","town":"TENNOCHO","perfecture_jp":"大阪府","jp_add_1":"高槻市","jp_add_2":"天王町"},"5690011":{"post_code":"5690011","prefecture":"OSAKA FU","city":"TAKATSUKI SHI","town":"DOUCHO","perfecture_jp":"大阪府","jp_add_1":"高槻市","jp_add_2":"道鵜町"},"5690067":{"post_code":"5690067","prefecture":"OSAKA FU","city":"TAKATSUKI SHI","town":"TOENCHO","perfecture_jp":"大阪府","jp_add_1":"高槻市","jp_add_2":"桃園町"},"5690032":{"post_code":"5690032","prefecture":"OSAKA FU","city":"TAKATSUKI SHI","town":"TOWACHO","perfecture_jp":"大阪府","jp_add_1":"高槻市","jp_add_2":"東和町"},"5691126":{"post_code":"5691126","prefecture":"OSAKA FU","city":"TAKATSUKI SHI","town":"TONOMACHI","perfecture_jp":"大阪府","jp_add_1":"高槻市","jp_add_2":"殿町"},"5690057":{"post_code":"5690057","prefecture":"OSAKA FU","city":"TAKATSUKI SHI","town":"DOBASHICHO","perfecture_jp":"大阪府","jp_add_1":"高槻市","jp_add_2":"土橋町"},"5690812":{"post_code":"5690812","prefecture":"OSAKA FU","city":"TAKATSUKI SHI","town":"TOMINOSATOCHO","perfecture_jp":"大阪府","jp_add_1":"高槻市","jp_add_2":"登美の里町"},"5691145":{"post_code":"5691145","prefecture":"OSAKA FU","city":"TAKATSUKI SHI","town":"TONDAOKAMACHI","perfecture_jp":"大阪府","jp_add_1":"高槻市","jp_add_2":"富田丘町"},"5690814":{"post_code":"5690814","prefecture":"OSAKA FU","city":"TAKATSUKI SHI","town":"TONDACHO","perfecture_jp":"大阪府","jp_add_1":"高槻市","jp_add_2":"富田町"},"5690066":{"post_code":"5690066","prefecture":"OSAKA FU","city":"TAKATSUKI SHI","town":"NAKAGAWACHO","perfecture_jp":"大阪府","jp_add_1":"高槻市","jp_add_2":"中川町"},"5691001":{"post_code":"5691001","prefecture":"OSAKA FU","city":"TAKATSUKI SHI","town":"NAKAHATA","perfecture_jp":"大阪府","jp_add_1":"高槻市","jp_add_2":"中畑"},"5691041":{"post_code":"5691041","prefecture":"OSAKA FU","city":"TAKATSUKI SHI","town":"NASAHARA","perfecture_jp":"大阪府","jp_add_1":"高槻市","jp_add_2":"奈佐原"},"5691043":{"post_code":"5691043","prefecture":"OSAKA FU","city":"TAKATSUKI SHI","town":"NASAHARAMOTOMACHI","perfecture_jp":"大阪府","jp_add_1":"高槻市","jp_add_2":"奈佐原元町"},"5691012":{"post_code":"5691012","prefecture":"OSAKA FU","city":"TAKATSUKI SHI","town":"NARIAI","perfecture_jp":"大阪府","jp_add_1":"高槻市","jp_add_2":"成合"},"5691014":{"post_code":"5691014","prefecture":"OSAKA FU","city":"TAKATSUKI SHI","town":"NARIAI HIGASHINOCHO","perfecture_jp":"大阪府","jp_add_1":"高槻市","jp_add_2":"成合東の町"},"5691016":{"post_code":"5691016","prefecture":"OSAKA FU","city":"TAKATSUKI SHI","town":"NARIAI NISHINOCHO","perfecture_jp":"大阪府","jp_add_1":"高槻市","jp_add_2":"成合西の町"},"5691013":{"post_code":"5691013","prefecture":"OSAKA FU","city":"TAKATSUKI SHI","town":"NARIAI MINAMINOCHO","perfecture_jp":"大阪府","jp_add_1":"高槻市","jp_add_2":"成合南の町"},"5691017":{"post_code":"5691017","prefecture":"OSAKA FU","city":"TAKATSUKI SHI","town":"NARIAI KITANOCHO","perfecture_jp":"大阪府","jp_add_1":"高槻市","jp_add_2":"成合北の町"},"5691015":{"post_code":"5691015","prefecture":"OSAKA FU","city":"TAKATSUKI SHI","town":"NARIAI NAKANOCHO","perfecture_jp":"大阪府","jp_add_1":"高槻市","jp_add_2":"成合中の町"},"5691042":{"post_code":"5691042","prefecture":"OSAKA FU","city":"TAKATSUKI SHI","town":"NAMPEIDAI","perfecture_jp":"大阪府","jp_add_1":"高槻市","jp_add_2":"南平台"},"5690045":{"post_code":"5690045","prefecture":"OSAKA FU","city":"TAKATSUKI SHI","town":"NISHIOHICHO","perfecture_jp":"大阪府","jp_add_1":"高槻市","jp_add_2":"西大樋町"},"5690055":{"post_code":"5690055","prefecture":"OSAKA FU","city":"TAKATSUKI SHI","town":"NISHIKAMMURI","perfecture_jp":"大阪府","jp_add_1":"高槻市","jp_add_2":"西冠"},"5691035":{"post_code":"5691035","prefecture":"OSAKA FU","city":"TAKATSUKI SHI","town":"NISHINOKAWARA","perfecture_jp":"大阪府","jp_add_1":"高槻市","jp_add_2":"西之川原"},"5691127":{"post_code":"5691127","prefecture":"OSAKA FU","city":"TAKATSUKI SHI","town":"NISHIMAKAMI","perfecture_jp":"大阪府","jp_add_1":"高槻市","jp_add_2":"西真上"},"5690854":{"post_code":"5690854","prefecture":"OSAKA FU","city":"TAKATSUKI SHI","town":"NISHIMACHI","perfecture_jp":"大阪府","jp_add_1":"高槻市","jp_add_2":"西町"},"5690813":{"post_code":"5690813","prefecture":"OSAKA FU","city":"TAKATSUKI SHI","town":"NISHIYOSUMICHO","perfecture_jp":"大阪府","jp_add_1":"高槻市","jp_add_2":"西五百住町"},"5690827":{"post_code":"5690827","prefecture":"OSAKA FU","city":"TAKATSUKI SHI","town":"NYOZECHO","perfecture_jp":"大阪府","jp_add_1":"高槻市","jp_add_2":"如是町"},"5691004":{"post_code":"5691004","prefecture":"OSAKA FU","city":"TAKATSUKI SHI","town":"NIRYO","perfecture_jp":"大阪府","jp_add_1":"高槻市","jp_add_2":"二料"},"5690013":{"post_code":"5690013","prefecture":"OSAKA FU","city":"TAKATSUKI SHI","town":"NODA","perfecture_jp":"大阪府","jp_add_1":"高槻市","jp_add_2":"野田"},"5690014":{"post_code":"5690014","prefecture":"OSAKA FU","city":"TAKATSUKI SHI","town":"NODAHIGASHI","perfecture_jp":"大阪府","jp_add_1":"高槻市","jp_add_2":"野田東"},"5690046":{"post_code":"5690046","prefecture":"OSAKA FU","city":"TAKATSUKI SHI","town":"NOBORIMACHI","perfecture_jp":"大阪府","jp_add_1":"高槻市","jp_add_2":"登町"},"5690077":{"post_code":"5690077","prefecture":"OSAKA FU","city":"TAKATSUKI SHI","town":"NOMICHO","perfecture_jp":"大阪府","jp_add_1":"高槻市","jp_add_2":"野見町"},"5691054":{"post_code":"5691054","prefecture":"OSAKA FU","city":"TAKATSUKI SHI","town":"HAGITANI","perfecture_jp":"大阪府","jp_add_1":"高槻市","jp_add_2":"萩谷"},"5691053":{"post_code":"5691053","prefecture":"OSAKA FU","city":"TAKATSUKI SHI","town":"HAGITANITSUKIMIDAI","perfecture_jp":"大阪府","jp_add_1":"高槻市","jp_add_2":"萩谷月見台"},"5690093":{"post_code":"5690093","prefecture":"OSAKA FU","city":"TAKATSUKI SHI","town":"HAGINOSHO","perfecture_jp":"大阪府","jp_add_1":"高槻市","jp_add_2":"萩之庄"},"5691116":{"post_code":"5691116","prefecture":"OSAKA FU","city":"TAKATSUKI SHI","town":"HAKUBAICHO","perfecture_jp":"大阪府","jp_add_1":"高槻市","jp_add_2":"白梅町"},"5690844":{"post_code":"5690844","prefecture":"OSAKA FU","city":"TAKATSUKI SHI","town":"HASHIRAMOTO","perfecture_jp":"大阪府","jp_add_1":"高槻市","jp_add_2":"柱本"},"5690846":{"post_code":"5690846","prefecture":"OSAKA FU","city":"TAKATSUKI SHI","town":"HASHIRAMOTO SHIMMACHI","perfecture_jp":"大阪府","jp_add_1":"高槻市","jp_add_2":"柱本新町"},"5690845":{"post_code":"5690845","prefecture":"OSAKA FU","city":"TAKATSUKI SHI","town":"HASHIRAMOTO MINAMIMACHI","perfecture_jp":"大阪府","jp_add_1":"高槻市","jp_add_2":"柱本南町"},"5690096":{"post_code":"5690096","prefecture":"OSAKA FU","city":"TAKATSUKI SHI","town":"HATCHONAWATECHO","perfecture_jp":"大阪府","jp_add_1":"高槻市","jp_add_2":"八丁畷町"},"5690095":{"post_code":"5690095","prefecture":"OSAKA FU","city":"TAKATSUKI SHI","town":"HATCHONISHIMACHI","perfecture_jp":"大阪府","jp_add_1":"高槻市","jp_add_2":"八丁西町"},"5691147":{"post_code":"5691147","prefecture":"OSAKA FU","city":"TAKATSUKI SHI","town":"HAMUROCHO","perfecture_jp":"大阪府","jp_add_1":"高槻市","jp_add_2":"土室町"},"5691051":{"post_code":"5691051","prefecture":"OSAKA FU","city":"TAKATSUKI SHI","town":"HARA","perfecture_jp":"大阪府","jp_add_1":"高槻市","jp_add_2":"原"},"5690044":{"post_code":"5690044","prefecture":"OSAKA FU","city":"TAKATSUKI SHI","town":"BANDA","perfecture_jp":"大阪府","jp_add_1":"高槻市","jp_add_2":"番田"},"5690012":{"post_code":"5690012","prefecture":"OSAKA FU","city":"TAKATSUKI SHI","town":"HIGASHIAMAGAWA","perfecture_jp":"大阪府","jp_add_1":"高槻市","jp_add_2":"東天川"},"5690002":{"post_code":"5690002","prefecture":"OSAKA FU","city":"TAKATSUKI SHI","town":"HIGASHIKAMMAKI","perfecture_jp":"大阪府","jp_add_1":"高槻市","jp_add_2":"東上牧"},"5691037":{"post_code":"5691037","prefecture":"OSAKA FU","city":"TAKATSUKI SHI","town":"HIGASHISHIROYAMACHO","perfecture_jp":"大阪府","jp_add_1":"高槻市","jp_add_2":"東城山町"},"5690811":{"post_code":"5690811","prefecture":"OSAKA FU","city":"TAKATSUKI SHI","town":"HIGASHIYOSUMICHO","perfecture_jp":"大阪府","jp_add_1":"高槻市","jp_add_2":"東五百住町"},"5691141":{"post_code":"5691141","prefecture":"OSAKA FU","city":"TAKATSUKI SHI","town":"HIMUROCHO","perfecture_jp":"大阪府","jp_add_1":"高槻市","jp_add_2":"氷室町"},"5690024":{"post_code":"5690024","prefecture":"OSAKA FU","city":"TAKATSUKI SHI","town":"HYUGACHO","perfecture_jp":"大阪府","jp_add_1":"高槻市","jp_add_2":"日向町"},"5691022":{"post_code":"5691022","prefecture":"OSAKA FU","city":"TAKATSUKI SHI","town":"HIYOSHIDAI","perfecture_jp":"大阪府","jp_add_1":"高槻市","jp_add_2":"日吉台"},"5690035":{"post_code":"5690035","prefecture":"OSAKA FU","city":"TAKATSUKI SHI","town":"FUKAZAWACHO","perfecture_jp":"大阪府","jp_add_1":"高槻市","jp_add_2":"深沢町"},"5690033":{"post_code":"5690033","prefecture":"OSAKA FU","city":"TAKATSUKI SHI","town":"FUKAZAWAHOMMACHI","perfecture_jp":"大阪府","jp_add_1":"高槻市","jp_add_2":"深沢本町"},"5690025":{"post_code":"5690025","prefecture":"OSAKA FU","city":"TAKATSUKI SHI","town":"FUJINOSATOCHO","perfecture_jp":"大阪府","jp_add_1":"高槻市","jp_add_2":"藤の里町"},"5691114":{"post_code":"5691114","prefecture":"OSAKA FU","city":"TAKATSUKI SHI","town":"BESSHIYO SHIMMACHI","perfecture_jp":"大阪府","jp_add_1":"高槻市","jp_add_2":"別所新町"},"5691113":{"post_code":"5691113","prefecture":"OSAKA FU","city":"TAKATSUKI SHI","town":"BESSHIYO NAKANOCHO","perfecture_jp":"大阪府","jp_add_1":"高槻市","jp_add_2":"別所中の町"},"5691112":{"post_code":"5691112","prefecture":"OSAKA FU","city":"TAKATSUKI SHI","town":"BESSHO HOMMACHI","perfecture_jp":"大阪府","jp_add_1":"高槻市","jp_add_2":"別所本町"},"5691109":{"post_code":"5691109","prefecture":"OSAKA FU","city":"TAKATSUKI SHI","town":"BENITAKECHO","perfecture_jp":"大阪府","jp_add_1":"高槻市","jp_add_2":"紅茸町"},"5690074":{"post_code":"5690074","prefecture":"OSAKA FU","city":"TAKATSUKI SHI","town":"HOMMACHI","perfecture_jp":"大阪府","jp_add_1":"高槻市","jp_add_2":"本町"},"5690021":{"post_code":"5690021","prefecture":"OSAKA FU","city":"TAKATSUKI SHI","town":"MAESHIMA","perfecture_jp":"大阪府","jp_add_1":"高槻市","jp_add_2":"前島"},"5691121":{"post_code":"5691121","prefecture":"OSAKA FU","city":"TAKATSUKI SHI","town":"MAKAMICHO","perfecture_jp":"大阪府","jp_add_1":"高槻市","jp_add_2":"真上町"},"5690855":{"post_code":"5690855","prefecture":"OSAKA FU","city":"TAKATSUKI SHI","town":"MAKITACHO","perfecture_jp":"大阪府","jp_add_1":"高槻市","jp_add_2":"牧田町"},"5690023":{"post_code":"5690023","prefecture":"OSAKA FU","city":"TAKATSUKI SHI","town":"MATSUKAWACHO","perfecture_jp":"大阪府","jp_add_1":"高槻市","jp_add_2":"松川町"},"5691031":{"post_code":"5691031","prefecture":"OSAKA FU","city":"TAKATSUKI SHI","town":"MATSUGAOKA","perfecture_jp":"大阪府","jp_add_1":"高槻市","jp_add_2":"松が丘"},"5690086":{"post_code":"5690086","prefecture":"OSAKA FU","city":"TAKATSUKI SHI","town":"MATSUBARACHO","perfecture_jp":"大阪府","jp_add_1":"高槻市","jp_add_2":"松原町"},"5690835":{"post_code":"5690835","prefecture":"OSAKA FU","city":"TAKATSUKI SHI","town":"MISHIMAE","perfecture_jp":"大阪府","jp_add_1":"高槻市","jp_add_2":"三島江"},"5691026":{"post_code":"5691026","prefecture":"OSAKA FU","city":"TAKATSUKI SHI","town":"MIDORIGAOKA","perfecture_jp":"大阪府","jp_add_1":"高槻市","jp_add_2":"緑が丘"},"5690094":{"post_code":"5690094","prefecture":"OSAKA FU","city":"TAKATSUKI SHI","town":"MIDORICHO","perfecture_jp":"大阪府","jp_add_1":"高槻市","jp_add_2":"緑町"},"5691124":{"post_code":"5691124","prefecture":"OSAKA FU","city":"TAKATSUKI SHI","town":"MINAMIAKUTAGAWACHO","perfecture_jp":"大阪府","jp_add_1":"高槻市","jp_add_2":"南芥川町"},"5690042":{"post_code":"5690042","prefecture":"OSAKA FU","city":"TAKATSUKI SHI","town":"MINAMIOHICHO","perfecture_jp":"大阪府","jp_add_1":"高槻市","jp_add_2":"南大樋町"},"5690063":{"post_code":"5690063","prefecture":"OSAKA FU","city":"TAKATSUKI SHI","town":"MINAMISHODOKOROCHO","perfecture_jp":"大阪府","jp_add_1":"高槻市","jp_add_2":"南庄所町"},"5690851":{"post_code":"5690851","prefecture":"OSAKA FU","city":"TAKATSUKI SHI","town":"MINAMISOJIJICHO","perfecture_jp":"大阪府","jp_add_1":"高槻市","jp_add_2":"南総持寺町"},"5690085":{"post_code":"5690085","prefecture":"OSAKA FU","city":"TAKATSUKI SHI","town":"MINAMIMATSUBARACHO","perfecture_jp":"大阪府","jp_add_1":"高槻市","jp_add_2":"南松原町"},"5691023":{"post_code":"5691023","prefecture":"OSAKA FU","city":"TAKATSUKI SHI","town":"MIYAGADANICHO","perfecture_jp":"大阪府","jp_add_1":"高槻市","jp_add_2":"宮が谷町"},"5691142":{"post_code":"5691142","prefecture":"OSAKA FU","city":"TAKATSUKI SHI","town":"MIYADACHO","perfecture_jp":"大阪府","jp_add_1":"高槻市","jp_add_2":"宮田町"},"5691032":{"post_code":"5691032","prefecture":"OSAKA FU","city":"TAKATSUKI SHI","town":"MIYANOKAWARA","perfecture_jp":"大阪府","jp_add_1":"高槻市","jp_add_2":"宮之川原"},"5691033":{"post_code":"5691033","prefecture":"OSAKA FU","city":"TAKATSUKI SHI","town":"MIYANOKAWARAMOTOMACHI","perfecture_jp":"大阪府","jp_add_1":"高槻市","jp_add_2":"宮之川原元町"},"5690081":{"post_code":"5690081","prefecture":"OSAKA FU","city":"TAKATSUKI SHI","town":"MIYANOCHO","perfecture_jp":"大阪府","jp_add_1":"高槻市","jp_add_2":"宮野町"},"5691125":{"post_code":"5691125","prefecture":"OSAKA FU","city":"TAKATSUKI SHI","town":"MURASAKICHO","perfecture_jp":"大阪府","jp_add_1":"高槻市","jp_add_2":"紫町"},"5691128":{"post_code":"5691128","prefecture":"OSAKA FU","city":"TAKATSUKI SHI","town":"MEISHINCHO","perfecture_jp":"大阪府","jp_add_1":"高槻市","jp_add_2":"名神町"},"5690853":{"post_code":"5690853","prefecture":"OSAKA FU","city":"TAKATSUKI SHI","town":"YANAGAWACHO","perfecture_jp":"大阪府","jp_add_1":"高槻市","jp_add_2":"柳川町"},"5690051":{"post_code":"5690051","prefecture":"OSAKA FU","city":"TAKATSUKI SHI","town":"YAHATAMACHI","perfecture_jp":"大阪府","jp_add_1":"高槻市","jp_add_2":"八幡町"},"5691103":{"post_code":"5691103","prefecture":"OSAKA FU","city":"TAKATSUKI SHI","town":"YAMATECHO","perfecture_jp":"大阪府","jp_add_1":"高槻市","jp_add_2":"山手町"},"5691021":{"post_code":"5691021","prefecture":"OSAKA FU","city":"TAKATSUKI SHI","town":"YAYOIGAOKACHO","perfecture_jp":"大阪府","jp_add_1":"高槻市","jp_add_2":"弥生が丘町"},"5690001":{"post_code":"5690001","prefecture":"OSAKA FU","city":"TAKATSUKI SHI","town":"YODONOHARACHO","perfecture_jp":"大阪府","jp_add_1":"高槻市","jp_add_2":"淀の原町"},"5691052":{"post_code":"5691052","prefecture":"OSAKA FU","city":"TAKATSUKI SHI","town":"RYOZENJICHO","perfecture_jp":"大阪府","jp_add_1":"高槻市","jp_add_2":"霊仙寺町"},"5690054":{"post_code":"5690054","prefecture":"OSAKA FU","city":"TAKATSUKI SHI","town":"WAKAMATSUCHO","perfecture_jp":"大阪府","jp_add_1":"高槻市","jp_add_2":"若松町"}}