{"5700000":{"post_code":"5700000","prefecture":"OSAKA FU","city":"MORIGUCHI SHI","town":"IKANIKEISAIGANAIBAAI","perfecture_jp":"大阪府","jp_add_1":"守口市","jp_add_2":""},"5700022":{"post_code":"5700022","prefecture":"OSAKA FU","city":"MORIGUCHI SHI","town":"AKATSUKICHO","perfecture_jp":"大阪府","jp_add_1":"守口市","jp_add_2":"暁町"},"5700071":{"post_code":"5700071","prefecture":"OSAKA FU","city":"MORIGUCHI SHI","town":"IWAIMACHI","perfecture_jp":"大阪府","jp_add_1":"守口市","jp_add_2":"祝町"},"5700066":{"post_code":"5700066","prefecture":"OSAKA FU","city":"MORIGUCHI SHI","town":"UMEZONOCHO","perfecture_jp":"大阪府","jp_add_1":"守口市","jp_add_2":"梅園町"},"5700087":{"post_code":"5700087","prefecture":"OSAKA FU","city":"MORIGUCHI SHI","town":"UMEMACHI","perfecture_jp":"大阪府","jp_add_1":"守口市","jp_add_2":"梅町"},"5700036":{"post_code":"5700036","prefecture":"OSAKA FU","city":"MORIGUCHI SHI","town":"OEDA HIGASHIMACHI","perfecture_jp":"大阪府","jp_add_1":"守口市","jp_add_2":"大枝東町"},"5700054":{"post_code":"5700054","prefecture":"OSAKA FU","city":"MORIGUCHI SHI","town":"OEDA NISHIMACHI","perfecture_jp":"大阪府","jp_add_1":"守口市","jp_add_2":"大枝西町"},"5700051":{"post_code":"5700051","prefecture":"OSAKA FU","city":"MORIGUCHI SHI","town":"OEDA MINAMIMACHI","perfecture_jp":"大阪府","jp_add_1":"守口市","jp_add_2":"大枝南町"},"5700037":{"post_code":"5700037","prefecture":"OSAKA FU","city":"MORIGUCHI SHI","town":"OEDA KITAMACHI","perfecture_jp":"大阪府","jp_add_1":"守口市","jp_add_2":"大枝北町"},"5700012":{"post_code":"5700012","prefecture":"OSAKA FU","city":"MORIGUCHI SHI","town":"OKUBOCHO","perfecture_jp":"大阪府","jp_add_1":"守口市","jp_add_2":"大久保町"},"5700009":{"post_code":"5700009","prefecture":"OSAKA FU","city":"MORIGUCHI SHI","town":"OBACHO","perfecture_jp":"大阪府","jp_add_1":"守口市","jp_add_2":"大庭町"},"5700033":{"post_code":"5700033","prefecture":"OSAKA FU","city":"MORIGUCHI SHI","town":"OMIYADORI","perfecture_jp":"大阪府","jp_add_1":"守口市","jp_add_2":"大宮通"},"5700015":{"post_code":"5700015","prefecture":"OSAKA FU","city":"MORIGUCHI SHI","town":"KAJIMACHI","perfecture_jp":"大阪府","jp_add_1":"守口市","jp_add_2":"梶町"},"5700055":{"post_code":"5700055","prefecture":"OSAKA FU","city":"MORIGUCHI SHI","town":"KASUGACHO","perfecture_jp":"大阪府","jp_add_1":"守口市","jp_add_2":"春日町"},"5700079":{"post_code":"5700079","prefecture":"OSAKA FU","city":"MORIGUCHI SHI","town":"KANESHITACHO","perfecture_jp":"大阪府","jp_add_1":"守口市","jp_add_2":"金下町"},"5700024":{"post_code":"5700024","prefecture":"OSAKA FU","city":"MORIGUCHI SHI","town":"KAMIKICHO","perfecture_jp":"大阪府","jp_add_1":"守口市","jp_add_2":"神木町"},"5700038":{"post_code":"5700038","prefecture":"OSAKA FU","city":"MORIGUCHI SHI","town":"KAWAHARACHO","perfecture_jp":"大阪府","jp_add_1":"守口市","jp_add_2":"河原町"},"5700032":{"post_code":"5700032","prefecture":"OSAKA FU","city":"MORIGUCHI SHI","town":"KIKUSUIDORI","perfecture_jp":"大阪府","jp_add_1":"守口市","jp_add_2":"菊水通"},"5700011":{"post_code":"5700011","prefecture":"OSAKA FU","city":"MORIGUCHI SHI","town":"KINDACHO","perfecture_jp":"大阪府","jp_add_1":"守口市","jp_add_2":"金田町"},"5700094":{"post_code":"5700094","prefecture":"OSAKA FU","city":"MORIGUCHI SHI","town":"KEIHAN KITAHONDORI","perfecture_jp":"大阪府","jp_add_1":"守口市","jp_add_2":"京阪北本通"},"5700083":{"post_code":"5700083","prefecture":"OSAKA FU","city":"MORIGUCHI SHI","town":"KEIHAN HONDORI","perfecture_jp":"大阪府","jp_add_1":"守口市","jp_add_2":"京阪本通"},"5700077":{"post_code":"5700077","prefecture":"OSAKA FU","city":"MORIGUCHI SHI","town":"KOTOBUKICHO","perfecture_jp":"大阪府","jp_add_1":"守口市","jp_add_2":"寿町"},"5700061":{"post_code":"5700061","prefecture":"OSAKA FU","city":"MORIGUCHI SHI","town":"KOHARUCHO","perfecture_jp":"大阪府","jp_add_1":"守口市","jp_add_2":"小春町"},"5700034":{"post_code":"5700034","prefecture":"OSAKA FU","city":"MORIGUCHI SHI","town":"SAIGODORI","perfecture_jp":"大阪府","jp_add_1":"守口市","jp_add_2":"西郷通"},"5700027":{"post_code":"5700027","prefecture":"OSAKA FU","city":"MORIGUCHI SHI","town":"SAKURAMACHI","perfecture_jp":"大阪府","jp_add_1":"守口市","jp_add_2":"桜町"},"5700002":{"post_code":"5700002","prefecture":"OSAKA FU","city":"MORIGUCHI SHI","town":"SATA NAKAMACHI","perfecture_jp":"大阪府","jp_add_1":"守口市","jp_add_2":"佐太中町"},"5700017":{"post_code":"5700017","prefecture":"OSAKA FU","city":"MORIGUCHI SHI","town":"SATA HIGASHIMACHI","perfecture_jp":"大阪府","jp_add_1":"守口市","jp_add_2":"佐太東町"},"5700001":{"post_code":"5700001","prefecture":"OSAKA FU","city":"MORIGUCHI SHI","town":"SATA NISHIMACHI","perfecture_jp":"大阪府","jp_add_1":"守口市","jp_add_2":"佐太西町"},"5700072":{"post_code":"5700072","prefecture":"OSAKA FU","city":"MORIGUCHI SHI","town":"SANAECHO","perfecture_jp":"大阪府","jp_add_1":"守口市","jp_add_2":"早苗町"},"5700056":{"post_code":"5700056","prefecture":"OSAKA FU","city":"MORIGUCHI SHI","town":"JINAICHO","perfecture_jp":"大阪府","jp_add_1":"守口市","jp_add_2":"寺内町"},"5700007":{"post_code":"5700007","prefecture":"OSAKA FU","city":"MORIGUCHI SHI","town":"SHIMOJIMACHO","perfecture_jp":"大阪府","jp_add_1":"守口市","jp_add_2":"下島町"},"5700026":{"post_code":"5700026","prefecture":"OSAKA FU","city":"MORIGUCHI SHI","town":"SHOGETSUCHO","perfecture_jp":"大阪府","jp_add_1":"守口市","jp_add_2":"松月町"},"5700098":{"post_code":"5700098","prefecture":"OSAKA FU","city":"MORIGUCHI SHI","town":"SHINHASHIDERACHO","perfecture_jp":"大阪府","jp_add_1":"守口市","jp_add_2":"新橋寺町"},"5700096":{"post_code":"5700096","prefecture":"OSAKA FU","city":"MORIGUCHI SHI","town":"SOTOJIMACHO","perfecture_jp":"大阪府","jp_add_1":"守口市","jp_add_2":"外島町"},"5700003":{"post_code":"5700003","prefecture":"OSAKA FU","city":"MORIGUCHI SHI","town":"DAINICHICHO","perfecture_jp":"大阪府","jp_add_1":"守口市","jp_add_2":"大日町"},"5700016":{"post_code":"5700016","prefecture":"OSAKA FU","city":"MORIGUCHI SHI","town":"DAINICHIHIGASHIMACHI","perfecture_jp":"大阪府","jp_add_1":"守口市","jp_add_2":"大日東町"},"5700063":{"post_code":"5700063","prefecture":"OSAKA FU","city":"MORIGUCHI SHI","town":"DAIMONCHO","perfecture_jp":"大阪府","jp_add_1":"守口市","jp_add_2":"大門町"},"5700043":{"post_code":"5700043","prefecture":"OSAKA FU","city":"MORIGUCHI SHI","town":"MINAMITERAKATA HIGASHIDORI","perfecture_jp":"大阪府","jp_add_1":"守口市","jp_add_2":"高瀬旧大枝"},"5700053":{"post_code":"5700053","prefecture":"OSAKA FU","city":"MORIGUCHI SHI","town":"TAKASECHO","perfecture_jp":"大阪府","jp_add_1":"守口市","jp_add_2":"高瀬町"},"5700076":{"post_code":"5700076","prefecture":"OSAKA FU","city":"MORIGUCHI SHI","town":"TAKII NISHIMACHI","perfecture_jp":"大阪府","jp_add_1":"守口市","jp_add_2":"滝井西町"},"5700065":{"post_code":"5700065","prefecture":"OSAKA FU","city":"MORIGUCHI SHI","town":"TAKII MOTOMACHI","perfecture_jp":"大阪府","jp_add_1":"守口市","jp_add_2":"滝井元町"},"5700086":{"post_code":"5700086","prefecture":"OSAKA FU","city":"MORIGUCHI SHI","town":"TAKEMACHI","perfecture_jp":"大阪府","jp_add_1":"守口市","jp_add_2":"竹町"},"5700025":{"post_code":"5700025","prefecture":"OSAKA FU","city":"MORIGUCHI SHI","town":"TATSUTADORI","perfecture_jp":"大阪府","jp_add_1":"守口市","jp_add_2":"竜田通"},"5700042":{"post_code":"5700042","prefecture":"OSAKA FU","city":"MORIGUCHI SHI","town":"TERAKATA NISHIKIDORI","perfecture_jp":"大阪府","jp_add_1":"守口市","jp_add_2":"寺方錦通"},"5700048":{"post_code":"5700048","prefecture":"OSAKA FU","city":"MORIGUCHI SHI","town":"TERAKATA HONDORI","perfecture_jp":"大阪府","jp_add_1":"守口市","jp_add_2":"寺方本通"},"5700047":{"post_code":"5700047","prefecture":"OSAKA FU","city":"MORIGUCHI SHI","town":"TERAKATA MOTOMACHI","perfecture_jp":"大阪府","jp_add_1":"守口市","jp_add_2":"寺方元町"},"5700073":{"post_code":"5700073","prefecture":"OSAKA FU","city":"MORIGUCHI SHI","town":"DOICHO","perfecture_jp":"大阪府","jp_add_1":"守口市","jp_add_2":"土居町"},"5700035":{"post_code":"5700035","prefecture":"OSAKA FU","city":"MORIGUCHI SHI","town":"TOKOCHO","perfecture_jp":"大阪府","jp_add_1":"守口市","jp_add_2":"東光町"},"5700041":{"post_code":"5700041","prefecture":"OSAKA FU","city":"MORIGUCHI SHI","town":"TOGODORI","perfecture_jp":"大阪府","jp_add_1":"守口市","jp_add_2":"東郷通"},"5700014":{"post_code":"5700014","prefecture":"OSAKA FU","city":"MORIGUCHI SHI","town":"TODACHO","perfecture_jp":"大阪府","jp_add_1":"守口市","jp_add_2":"藤田町"},"5700082":{"post_code":"5700082","prefecture":"OSAKA FU","city":"MORIGUCHI SHI","town":"TOYOHIDECHO","perfecture_jp":"大阪府","jp_add_1":"守口市","jp_add_2":"豊秀町"},"5700064":{"post_code":"5700064","prefecture":"OSAKA FU","city":"MORIGUCHI SHI","town":"NAGAIKECHO","perfecture_jp":"大阪府","jp_add_1":"守口市","jp_add_2":"長池町"},"5700092":{"post_code":"5700092","prefecture":"OSAKA FU","city":"MORIGUCHI SHI","town":"NIKKOCHO","perfecture_jp":"大阪府","jp_add_1":"守口市","jp_add_2":"日光町"},"5700031":{"post_code":"5700031","prefecture":"OSAKA FU","city":"MORIGUCHI SHI","town":"HASHIBA HIGASHINOCHO","perfecture_jp":"大阪府","jp_add_1":"守口市","jp_add_2":"橋波東之町"},"5700039":{"post_code":"5700039","prefecture":"OSAKA FU","city":"MORIGUCHI SHI","town":"HASHIBA NISHINOCHO","perfecture_jp":"大阪府","jp_add_1":"守口市","jp_add_2":"橋波西之町"},"5700093":{"post_code":"5700093","prefecture":"OSAKA FU","city":"MORIGUCHI SHI","town":"HAMAMACHI","perfecture_jp":"大阪府","jp_add_1":"守口市","jp_add_2":"浜町"},"5700062":{"post_code":"5700062","prefecture":"OSAKA FU","city":"MORIGUCHI SHI","town":"BABACHO","perfecture_jp":"大阪府","jp_add_1":"守口市","jp_add_2":"馬場町"},"5700013":{"post_code":"5700013","prefecture":"OSAKA FU","city":"MORIGUCHI SHI","town":"HIGASHIMACHI","perfecture_jp":"大阪府","jp_add_1":"守口市","jp_add_2":"東町"},"5700023":{"post_code":"5700023","prefecture":"OSAKA FU","city":"MORIGUCHI SHI","town":"HYUGACHO","perfecture_jp":"大阪府","jp_add_1":"守口市","jp_add_2":"日向町"},"5700081":{"post_code":"5700081","prefecture":"OSAKA FU","city":"MORIGUCHI SHI","town":"HIYOSHICHO","perfecture_jp":"大阪府","jp_add_1":"守口市","jp_add_2":"日吉町"},"5700078":{"post_code":"5700078","prefecture":"OSAKA FU","city":"MORIGUCHI SHI","town":"HIRADAICHO","perfecture_jp":"大阪府","jp_add_1":"守口市","jp_add_2":"平代町"},"5700074":{"post_code":"5700074","prefecture":"OSAKA FU","city":"MORIGUCHI SHI","town":"FUMIZONOCHO","perfecture_jp":"大阪府","jp_add_1":"守口市","jp_add_2":"文園町"},"5700075":{"post_code":"5700075","prefecture":"OSAKA FU","city":"MORIGUCHI SHI","town":"BENIYACHO","perfecture_jp":"大阪府","jp_add_1":"守口市","jp_add_2":"紅屋町"},"5700091":{"post_code":"5700091","prefecture":"OSAKA FU","city":"MORIGUCHI SHI","town":"HOKUTOCHO","perfecture_jp":"大阪府","jp_add_1":"守口市","jp_add_2":"北斗町"},"5700028":{"post_code":"5700028","prefecture":"OSAKA FU","city":"MORIGUCHI SHI","town":"HOMMACHI","perfecture_jp":"大阪府","jp_add_1":"守口市","jp_add_2":"本町"},"5700052":{"post_code":"5700052","prefecture":"OSAKA FU","city":"MORIGUCHI SHI","town":"MATSUSHITACHO","perfecture_jp":"大阪府","jp_add_1":"守口市","jp_add_2":"松下町"},"5700085":{"post_code":"5700085","prefecture":"OSAKA FU","city":"MORIGUCHI SHI","town":"MATSUMACHI","perfecture_jp":"大阪府","jp_add_1":"守口市","jp_add_2":"松町"},"5700084":{"post_code":"5700084","prefecture":"OSAKA FU","city":"MORIGUCHI SHI","town":"MIDORIMACHI","perfecture_jp":"大阪府","jp_add_1":"守口市","jp_add_2":"緑町"},"5700045":{"post_code":"5700045","prefecture":"OSAKA FU","city":"MORIGUCHI SHI","town":"MINAMITERAKATA NAKADORI","perfecture_jp":"大阪府","jp_add_1":"守口市","jp_add_2":"南寺方中通"},"5700044":{"post_code":"5700044","prefecture":"OSAKA FU","city":"MORIGUCHI SHI","town":"MINAMITERAKATA MINAMIDORI","perfecture_jp":"大阪府","jp_add_1":"守口市","jp_add_2":"南寺方南通"},"5700046":{"post_code":"5700046","prefecture":"OSAKA FU","city":"MORIGUCHI SHI","town":"MINAMITERAKATA KITADORI","perfecture_jp":"大阪府","jp_add_1":"守口市","jp_add_2":"南寺方北通"},"5700097":{"post_code":"5700097","prefecture":"OSAKA FU","city":"MORIGUCHI SHI","town":"MOMOMACHI","perfecture_jp":"大阪府","jp_add_1":"守口市","jp_add_2":"桃町"},"5700005":{"post_code":"5700005","prefecture":"OSAKA FU","city":"MORIGUCHI SHI","town":"YAGUMO NAKAMACHI","perfecture_jp":"大阪府","jp_add_1":"守口市","jp_add_2":"八雲中町"},"5700021":{"post_code":"5700021","prefecture":"OSAKA FU","city":"MORIGUCHI SHI","town":"YAGUMO HIGASHIMACHI","perfecture_jp":"大阪府","jp_add_1":"守口市","jp_add_2":"八雲東町"},"5700006":{"post_code":"5700006","prefecture":"OSAKA FU","city":"MORIGUCHI SHI","town":"YAGUMO NISHIMACHI","perfecture_jp":"大阪府","jp_add_1":"守口市","jp_add_2":"八雲西町"},"5700008":{"post_code":"5700008","prefecture":"OSAKA FU","city":"MORIGUCHI SHI","town":"YAGUMO KITAMACHI","perfecture_jp":"大阪府","jp_add_1":"守口市","jp_add_2":"八雲北町"},"5700095":{"post_code":"5700095","prefecture":"OSAKA FU","city":"MORIGUCHI SHI","town":"YASHIMACHO","perfecture_jp":"大阪府","jp_add_1":"守口市","jp_add_2":"八島町"},"5700004":{"post_code":"5700004","prefecture":"OSAKA FU","city":"MORIGUCHI SHI","town":"YODOECHO","perfecture_jp":"大阪府","jp_add_1":"守口市","jp_add_2":"淀江町"},"5700029":{"post_code":"5700029","prefecture":"OSAKA FU","city":"MORIGUCHI SHI","town":"RAIKOCHO","perfecture_jp":"大阪府","jp_add_1":"守口市","jp_add_2":"来迎町"}}