{"5710000":{"post_code":"5710000","prefecture":"OSAKA FU","city":"KADOMA SHI","town":"IKANIKEISAIGANAIBAAI","perfecture_jp":"大阪府","jp_add_1":"門真市","jp_add_2":""},"5710061":{"post_code":"5710061","prefecture":"OSAKA FU","city":"KADOMA SHI","town":"ASAHICHO","perfecture_jp":"大阪府","jp_add_1":"門真市","jp_add_2":"朝日町"},"5710067":{"post_code":"5710067","prefecture":"OSAKA FU","city":"KADOMA SHI","town":"ISHIHARACHO","perfecture_jp":"大阪府","jp_add_1":"門真市","jp_add_2":"石原町"},"5710053":{"post_code":"5710053","prefecture":"OSAKA FU","city":"KADOMA SHI","town":"IZUMIMACHI","perfecture_jp":"大阪府","jp_add_1":"門真市","jp_add_2":"泉町"},"5710033":{"post_code":"5710033","prefecture":"OSAKA FU","city":"KADOMA SHI","town":"ICHIBANCHO","perfecture_jp":"大阪府","jp_add_1":"門真市","jp_add_2":"一番町"},"5710028":{"post_code":"5710028","prefecture":"OSAKA FU","city":"KADOMA SHI","town":"UCHIKOSHI","perfecture_jp":"大阪府","jp_add_1":"門真市","jp_add_2":"打越"},"5710029":{"post_code":"5710029","prefecture":"OSAKA FU","city":"KADOMA SHI","town":"UCHIKOSHICHO","perfecture_jp":"大阪府","jp_add_1":"門真市","jp_add_2":"打越町"},"5710012":{"post_code":"5710012","prefecture":"OSAKA FU","city":"KADOMA SHI","town":"EBATACHO","perfecture_jp":"大阪府","jp_add_1":"門真市","jp_add_2":"江端町"},"5710076":{"post_code":"5710076","prefecture":"OSAKA FU","city":"KADOMA SHI","town":"OIKECHO","perfecture_jp":"大阪府","jp_add_1":"門真市","jp_add_2":"大池町"},"5710068":{"post_code":"5710068","prefecture":"OSAKA FU","city":"KADOMA SHI","town":"OKURACHO","perfecture_jp":"大阪府","jp_add_1":"門真市","jp_add_2":"大倉町"},"5710077":{"post_code":"5710077","prefecture":"OSAKA FU","city":"KADOMA SHI","town":"OHASHICHO","perfecture_jp":"大阪府","jp_add_1":"門真市","jp_add_2":"大橋町"},"5710022":{"post_code":"5710022","prefecture":"OSAKA FU","city":"KADOMA SHI","town":"OKIMACHI","perfecture_jp":"大阪府","jp_add_1":"門真市","jp_add_2":"沖町"},"5710065":{"post_code":"5710065","prefecture":"OSAKA FU","city":"KADOMA SHI","town":"KAKIUCHICHO","perfecture_jp":"大阪府","jp_add_1":"門真市","jp_add_2":"垣内町"},"5710050":{"post_code":"5710050","prefecture":"OSAKA FU","city":"KADOMA SHI","town":"KADOMA","perfecture_jp":"大阪府","jp_add_1":"門真市","jp_add_2":"門真"},"5710071":{"post_code":"5710071","prefecture":"OSAKA FU","city":"KADOMA SHI","town":"KAMISHIMACHO","perfecture_jp":"大阪府","jp_add_1":"門真市","jp_add_2":"上島町"},"5710070":{"post_code":"5710070","prefecture":"OSAKA FU","city":"KADOMA SHI","town":"KAMINOGUCHICHO","perfecture_jp":"大阪府","jp_add_1":"門真市","jp_add_2":"上野口町"},"5710002":{"post_code":"5710002","prefecture":"OSAKA FU","city":"KADOMA SHI","town":"KISHIWADA","perfecture_jp":"大阪府","jp_add_1":"門真市","jp_add_2":"岸和田"},"5710007":{"post_code":"5710007","prefecture":"OSAKA FU","city":"KADOMA SHI","town":"KITAKISHIWADA","perfecture_jp":"大阪府","jp_add_1":"門真市","jp_add_2":"北岸和田"},"5710025":{"post_code":"5710025","prefecture":"OSAKA FU","city":"KADOMA SHI","town":"KITAJIMA","perfecture_jp":"大阪府","jp_add_1":"門真市","jp_add_2":"北島"},"5710026":{"post_code":"5710026","prefecture":"OSAKA FU","city":"KADOMA SHI","town":"KITAJIMACHO","perfecture_jp":"大阪府","jp_add_1":"門真市","jp_add_2":"北島町"},"5710073":{"post_code":"5710073","prefecture":"OSAKA FU","city":"KADOMA SHI","town":"KITASUMOTOCHO","perfecture_jp":"大阪府","jp_add_1":"門真市","jp_add_2":"北巣本町"},"5710035":{"post_code":"5710035","prefecture":"OSAKA FU","city":"KADOMA SHI","town":"KUWAZAI","perfecture_jp":"大阪府","jp_add_1":"門真市","jp_add_2":"桑才"},"5710043":{"post_code":"5710043","prefecture":"OSAKA FU","city":"KADOMA SHI","town":"KUWAZAISHIMMACHI","perfecture_jp":"大阪府","jp_add_1":"門真市","jp_add_2":"桑才新町"},"5710066":{"post_code":"5710066","prefecture":"OSAKA FU","city":"KADOMA SHI","town":"KOFUKUCHO","perfecture_jp":"大阪府","jp_add_1":"門真市","jp_add_2":"幸福町"},"5710032":{"post_code":"5710032","prefecture":"OSAKA FU","city":"KADOMA SHI","town":"KOTOBUKICHO","perfecture_jp":"大阪府","jp_add_1":"門真市","jp_add_2":"寿町"},"5710047":{"post_code":"5710047","prefecture":"OSAKA FU","city":"KADOMA SHI","town":"SAKAEMACHI","perfecture_jp":"大阪府","jp_add_1":"門真市","jp_add_2":"栄町"},"5710027":{"post_code":"5710027","prefecture":"OSAKA FU","city":"KADOMA SHI","town":"SATSUKIDACHO","perfecture_jp":"大阪府","jp_add_1":"門真市","jp_add_2":"五月田町"},"5710036":{"post_code":"5710036","prefecture":"OSAKA FU","city":"KADOMA SHI","town":"SAMBAN","perfecture_jp":"大阪府","jp_add_1":"門真市","jp_add_2":"三番"},"5710017":{"post_code":"5710017","prefecture":"OSAKA FU","city":"KADOMA SHI","town":"SHINOMIYA","perfecture_jp":"大阪府","jp_add_1":"門真市","jp_add_2":"四宮"},"5710016":{"post_code":"5710016","prefecture":"OSAKA FU","city":"KADOMA SHI","town":"SHIMAGASHIRA","perfecture_jp":"大阪府","jp_add_1":"門真市","jp_add_2":"島頭"},"5710075":{"post_code":"5710075","prefecture":"OSAKA FU","city":"KADOMA SHI","town":"SHIMOSHIMACHO","perfecture_jp":"大阪府","jp_add_1":"門真市","jp_add_2":"下島町"},"5710009":{"post_code":"5710009","prefecture":"OSAKA FU","city":"KADOMA SHI","town":"SHIMOMABUSHICHO","perfecture_jp":"大阪府","jp_add_1":"門真市","jp_add_2":"下馬伏町"},"5710058":{"post_code":"5710058","prefecture":"OSAKA FU","city":"KADOMA SHI","town":"SHOJICHO","perfecture_jp":"大阪府","jp_add_1":"門真市","jp_add_2":"小路町"},"5710063":{"post_code":"5710063","prefecture":"OSAKA FU","city":"KADOMA SHI","town":"JOSHOJICHO","perfecture_jp":"大阪府","jp_add_1":"門真市","jp_add_2":"常称寺町"},"5710072":{"post_code":"5710072","prefecture":"OSAKA FU","city":"KADOMA SHI","town":"SHIROGAKICHO","perfecture_jp":"大阪府","jp_add_1":"門真市","jp_add_2":"城垣町"},"5710048":{"post_code":"5710048","prefecture":"OSAKA FU","city":"KADOMA SHI","town":"SHIMBASHICHO","perfecture_jp":"大阪府","jp_add_1":"門真市","jp_add_2":"新橋町"},"5710030":{"post_code":"5710030","prefecture":"OSAKA FU","city":"KADOMA SHI","town":"SUEHIROCHO","perfecture_jp":"大阪府","jp_add_1":"門真市","jp_add_2":"末広町"},"5710001":{"post_code":"5710001","prefecture":"OSAKA FU","city":"KADOMA SHI","town":"SUMOTOCHO","perfecture_jp":"大阪府","jp_add_1":"門真市","jp_add_2":"巣本町"},"5710013":{"post_code":"5710013","prefecture":"OSAKA FU","city":"KADOMA SHI","town":"SENGOKU HIGASHIMACHI","perfecture_jp":"大阪府","jp_add_1":"門真市","jp_add_2":"千石東町"},"5710014":{"post_code":"5710014","prefecture":"OSAKA FU","city":"KADOMA SHI","town":"SENGOKU NISHIMACHI","perfecture_jp":"大阪府","jp_add_1":"門真市","jp_add_2":"千石西町"},"5710052":{"post_code":"5710052","prefecture":"OSAKA FU","city":"KADOMA SHI","town":"TSUKIDECHO","perfecture_jp":"大阪府","jp_add_1":"門真市","jp_add_2":"月出町"},"5710059":{"post_code":"5710059","prefecture":"OSAKA FU","city":"KADOMA SHI","town":"DOYAMACHO","perfecture_jp":"大阪府","jp_add_1":"門真市","jp_add_2":"堂山町"},"5710078":{"post_code":"5710078","prefecture":"OSAKA FU","city":"KADOMA SHI","town":"TOKIWACHO","perfecture_jp":"大阪府","jp_add_1":"門真市","jp_add_2":"常盤町"},"5710045":{"post_code":"5710045","prefecture":"OSAKA FU","city":"KADOMA SHI","town":"TONOSHIMACHO","perfecture_jp":"大阪府","jp_add_1":"門真市","jp_add_2":"殿島町"},"5710055":{"post_code":"5710055","prefecture":"OSAKA FU","city":"KADOMA SHI","town":"NAKAMACHI","perfecture_jp":"大阪府","jp_add_1":"門真市","jp_add_2":"中町"},"5710024":{"post_code":"5710024","prefecture":"OSAKA FU","city":"KADOMA SHI","town":"NOGUCHI","perfecture_jp":"大阪府","jp_add_1":"門真市","jp_add_2":"野口"},"5710079":{"post_code":"5710079","prefecture":"OSAKA FU","city":"KADOMA SHI","town":"NOZATOCHO","perfecture_jp":"大阪府","jp_add_1":"門真市","jp_add_2":"野里町"},"5710054":{"post_code":"5710054","prefecture":"OSAKA FU","city":"KADOMA SHI","town":"HAMAMACHI","perfecture_jp":"大阪府","jp_add_1":"門真市","jp_add_2":"浜町"},"5710039":{"post_code":"5710039","prefecture":"OSAKA FU","city":"KADOMA SHI","town":"HAYAMICHO","perfecture_jp":"大阪府","jp_add_1":"門真市","jp_add_2":"速見町"},"5710037":{"post_code":"5710037","prefecture":"OSAKA FU","city":"KADOMA SHI","town":"HIEJIMA","perfecture_jp":"大阪府","jp_add_1":"門真市","jp_add_2":"ひえ島"},"5710008":{"post_code":"5710008","prefecture":"OSAKA FU","city":"KADOMA SHI","town":"HIGASHIEBATACHO","perfecture_jp":"大阪府","jp_add_1":"門真市","jp_add_2":"東江端町"},"5710034":{"post_code":"5710034","prefecture":"OSAKA FU","city":"KADOMA SHI","town":"HIGASHIDACHO","perfecture_jp":"大阪府","jp_add_1":"門真市","jp_add_2":"東田町"},"5710042":{"post_code":"5710042","prefecture":"OSAKA FU","city":"KADOMA SHI","town":"FUKADACHO","perfecture_jp":"大阪府","jp_add_1":"門真市","jp_add_2":"深田町"},"5710021":{"post_code":"5710021","prefecture":"OSAKA FU","city":"KADOMA SHI","town":"FUNADACHO","perfecture_jp":"大阪府","jp_add_1":"門真市","jp_add_2":"舟田町"},"5710031":{"post_code":"5710031","prefecture":"OSAKA FU","city":"KADOMA SHI","town":"FURUKAWACHO","perfecture_jp":"大阪府","jp_add_1":"門真市","jp_add_2":"古川町"},"5710046":{"post_code":"5710046","prefecture":"OSAKA FU","city":"KADOMA SHI","town":"HOMMACHI","perfecture_jp":"大阪府","jp_add_1":"門真市","jp_add_2":"本町"},"5710044":{"post_code":"5710044","prefecture":"OSAKA FU","city":"KADOMA SHI","town":"MATSUOCHO","perfecture_jp":"大阪府","jp_add_1":"門真市","jp_add_2":"松生町"},"5710056":{"post_code":"5710056","prefecture":"OSAKA FU","city":"KADOMA SHI","town":"MATSUBACHO","perfecture_jp":"大阪府","jp_add_1":"門真市","jp_add_2":"松葉町"},"5710015":{"post_code":"5710015","prefecture":"OSAKA FU","city":"KADOMA SHI","town":"MITSUSHIMA","perfecture_jp":"大阪府","jp_add_1":"門真市","jp_add_2":"三ツ島"},"5710064":{"post_code":"5710064","prefecture":"OSAKA FU","city":"KADOMA SHI","town":"MIDOCHO","perfecture_jp":"大阪府","jp_add_1":"門真市","jp_add_2":"御堂町"},"5710005":{"post_code":"5710005","prefecture":"OSAKA FU","city":"KADOMA SHI","town":"MINAMINOGUCHICHO","perfecture_jp":"大阪府","jp_add_1":"門真市","jp_add_2":"南野口町"},"5710062":{"post_code":"5710062","prefecture":"OSAKA FU","city":"KADOMA SHI","town":"MIYANOCHO","perfecture_jp":"大阪府","jp_add_1":"門真市","jp_add_2":"宮野町"},"5710074":{"post_code":"5710074","prefecture":"OSAKA FU","city":"KADOMA SHI","town":"MIYAMAECHO","perfecture_jp":"大阪府","jp_add_1":"門真市","jp_add_2":"宮前町"},"5710051":{"post_code":"5710051","prefecture":"OSAKA FU","city":"KADOMA SHI","town":"MUKOJIMACHO","perfecture_jp":"大阪府","jp_add_1":"門真市","jp_add_2":"向島町"},"5710057":{"post_code":"5710057","prefecture":"OSAKA FU","city":"KADOMA SHI","town":"MOTOMACHI","perfecture_jp":"大阪府","jp_add_1":"門真市","jp_add_2":"元町"},"5710038":{"post_code":"5710038","prefecture":"OSAKA FU","city":"KADOMA SHI","town":"YANAGIDACHO","perfecture_jp":"大阪府","jp_add_1":"門真市","jp_add_2":"柳田町"},"5710041":{"post_code":"5710041","prefecture":"OSAKA FU","city":"KADOMA SHI","town":"YANAGIMACHI","perfecture_jp":"大阪府","jp_add_1":"門真市","jp_add_2":"柳町"},"5710023":{"post_code":"5710023","prefecture":"OSAKA FU","city":"KADOMA SHI","town":"YOKOCHI","perfecture_jp":"大阪府","jp_add_1":"門真市","jp_add_2":"横地"},"5710011":{"post_code":"5710011","prefecture":"OSAKA FU","city":"KADOMA SHI","town":"WAKITACHO","perfecture_jp":"大阪府","jp_add_1":"門真市","jp_add_2":"脇田町"}}