{"5750000":{"post_code":"5750000","prefecture":"OSAKA FU","city":"SHIJONAWATE SHI","town":"IKANIKEISAIGANAIBAAI","perfecture_jp":"大阪府","jp_add_1":"四條畷市","jp_add_2":""},"5750034":{"post_code":"5750034","prefecture":"OSAKA FU","city":"SHIJONAWATE SHI","town":"ESEBICHO","perfecture_jp":"大阪府","jp_add_1":"四條畷市","jp_add_2":"江瀬美町"},"5750011":{"post_code":"5750011","prefecture":"OSAKA FU","city":"SHIJONAWATE SHI","town":"OSAKA","perfecture_jp":"大阪府","jp_add_1":"四條畷市","jp_add_2":"逢阪"},"5750004":{"post_code":"5750004","prefecture":"OSAKA FU","city":"SHIJONAWATE SHI","town":"OKAYAMA(BANCHI)","perfecture_jp":"大阪府","jp_add_1":"四條畷市","jp_add_2":"岡山"},"5750002":{"post_code":"5750002","prefecture":"OSAKA FU","city":"SHIJONAWATE SHI","town":"OKAYAMA(CHOME)","perfecture_jp":"大阪府","jp_add_1":"四條畷市","jp_add_2":"岡山"},"5750003":{"post_code":"5750003","prefecture":"OSAKA FU","city":"SHIJONAWATE SHI","town":"OKAYAMAHIGASHI","perfecture_jp":"大阪府","jp_add_1":"四條畷市","jp_add_2":"岡山東"},"5750014":{"post_code":"5750014","prefecture":"OSAKA FU","city":"SHIJONAWATE SHI","town":"KAMITAWARA","perfecture_jp":"大阪府","jp_add_1":"四條畷市","jp_add_2":"上田原"},"5750045":{"post_code":"5750045","prefecture":"OSAKA FU","city":"SHIJONAWATE SHI","town":"KARIYA NISHIMACHI","perfecture_jp":"大阪府","jp_add_1":"四條畷市","jp_add_2":"雁屋西町"},"5750036":{"post_code":"5750036","prefecture":"OSAKA FU","city":"SHIJONAWATE SHI","town":"KARIYA MINAMIMACHI","perfecture_jp":"大阪府","jp_add_1":"四條畷市","jp_add_2":"雁屋南町"},"5750035":{"post_code":"5750035","prefecture":"OSAKA FU","city":"SHIJONAWATE SHI","town":"KARIYA KITAMACHI","perfecture_jp":"大阪府","jp_add_1":"四條畷市","jp_add_2":"雁屋北町"},"5750043":{"post_code":"5750043","prefecture":"OSAKA FU","city":"SHIJONAWATE SHI","town":"KITADECHO","perfecture_jp":"大阪府","jp_add_1":"四條畷市","jp_add_2":"北出町"},"5750063":{"post_code":"5750063","prefecture":"OSAKA FU","city":"SHIJONAWATE SHI","town":"KIYOTAKI","perfecture_jp":"大阪府","jp_add_1":"四條畷市","jp_add_2":"清瀧"},"5750062":{"post_code":"5750062","prefecture":"OSAKA FU","city":"SHIJONAWATE SHI","town":"KIYOTAKI SHIMMACHI","perfecture_jp":"大阪府","jp_add_1":"四條畷市","jp_add_2":"清滝新町"},"5750061":{"post_code":"5750061","prefecture":"OSAKA FU","city":"SHIJONAWATE SHI","town":"KIYOTAKI NAKAMACHI","perfecture_jp":"大阪府","jp_add_1":"四條畷市","jp_add_2":"清滝中町"},"5750032":{"post_code":"5750032","prefecture":"OSAKA FU","city":"SHIJONAWATE SHI","town":"KOMEZAKICHO","perfecture_jp":"大阪府","jp_add_1":"四條畷市","jp_add_2":"米崎町"},"5750015":{"post_code":"5750015","prefecture":"OSAKA FU","city":"SHIJONAWATE SHI","town":"SATSUKIGAOKA","perfecture_jp":"大阪府","jp_add_1":"四條畷市","jp_add_2":"さつきケ丘"},"5750031":{"post_code":"5750031","prefecture":"OSAKA FU","city":"SHIJONAWATE SHI","town":"SHITOMIYA","perfecture_jp":"大阪府","jp_add_1":"四條畷市","jp_add_2":"蔀屋"},"5750041":{"post_code":"5750041","prefecture":"OSAKA FU","city":"SHIJONAWATE SHI","town":"SHITOMIYA SHIMMACHI","perfecture_jp":"大阪府","jp_add_1":"四條畷市","jp_add_2":"蔀屋新町"},"5750042":{"post_code":"5750042","prefecture":"OSAKA FU","city":"SHIJONAWATE SHI","town":"SHITOMIYA HOMMACHI","perfecture_jp":"大阪府","jp_add_1":"四條畷市","jp_add_2":"蔀屋本町"},"5750012":{"post_code":"5750012","prefecture":"OSAKA FU","city":"SHIJONAWATE SHI","town":"SHIMOTAWARA","perfecture_jp":"大阪府","jp_add_1":"四條畷市","jp_add_2":"下田原"},"5750001":{"post_code":"5750001","prefecture":"OSAKA FU","city":"SHIJONAWATE SHI","town":"SUNA","perfecture_jp":"大阪府","jp_add_1":"四條畷市","jp_add_2":"砂"},"5750013":{"post_code":"5750013","prefecture":"OSAKA FU","city":"SHIJONAWATE SHI","town":"TAWARADAI","perfecture_jp":"大阪府","jp_add_1":"四條畷市","jp_add_2":"田原台"},"5750024":{"post_code":"5750024","prefecture":"OSAKA FU","city":"SHIJONAWATE SHI","town":"TSUKAWAKICHO","perfecture_jp":"大阪府","jp_add_1":"四條畷市","jp_add_2":"塚脇町"},"5750053":{"post_code":"5750053","prefecture":"OSAKA FU","city":"SHIJONAWATE SHI","town":"NAKANO(BANCHI)","perfecture_jp":"大阪府","jp_add_1":"四條畷市","jp_add_2":"中野"},"5750052":{"post_code":"5750052","prefecture":"OSAKA FU","city":"SHIJONAWATE SHI","town":"NAKANO(CHOME)","perfecture_jp":"大阪府","jp_add_1":"四條畷市","jp_add_2":"中野"},"5750054":{"post_code":"5750054","prefecture":"OSAKA FU","city":"SHIJONAWATE SHI","town":"NAKANO SHIMMACHI","perfecture_jp":"大阪府","jp_add_1":"四條畷市","jp_add_2":"中野新町"},"5750051":{"post_code":"5750051","prefecture":"OSAKA FU","city":"SHIJONAWATE SHI","town":"NAKANO HOMMACHI","perfecture_jp":"大阪府","jp_add_1":"四條畷市","jp_add_2":"中野本町"},"5750023":{"post_code":"5750023","prefecture":"OSAKA FU","city":"SHIJONAWATE SHI","town":"NANKO","perfecture_jp":"大阪府","jp_add_1":"四條畷市","jp_add_2":"楠公"},"5750044":{"post_code":"5750044","prefecture":"OSAKA FU","city":"SHIJONAWATE SHI","town":"NICHODORICHO","perfecture_jp":"大阪府","jp_add_1":"四條畷市","jp_add_2":"二丁通町"},"5750033":{"post_code":"5750033","prefecture":"OSAKA FU","city":"SHIJONAWATE SHI","town":"MITACHO","perfecture_jp":"大阪府","jp_add_1":"四條畷市","jp_add_2":"美田町"},"5750022":{"post_code":"5750022","prefecture":"OSAKA FU","city":"SHIJONAWATE SHI","town":"MINAMINO(BANCHI)","perfecture_jp":"大阪府","jp_add_1":"四條畷市","jp_add_2":"南野"},"5750021":{"post_code":"5750021","prefecture":"OSAKA FU","city":"SHIJONAWATE SHI","town":"MINAMINO(CHOME)","perfecture_jp":"大阪府","jp_add_1":"四條畷市","jp_add_2":"南野"},"5750016":{"post_code":"5750016","prefecture":"OSAKA FU","city":"SHIJONAWATE SHI","town":"RYOKUFUDAI","perfecture_jp":"大阪府","jp_add_1":"四條畷市","jp_add_2":"緑風台"}}