{"5770000":{"post_code":"5770000","prefecture":"OSAKA FU","city":"HIGASHIOSAKA SHI","town":"IKANIKEISAIGANAIBAAI","perfecture_jp":"大阪府","jp_add_1":"東大阪市","jp_add_2":""},"5770841":{"post_code":"5770841","prefecture":"OSAKA FU","city":"HIGASHIOSAKA SHI","town":"AJIRO","perfecture_jp":"大阪府","jp_add_1":"東大阪市","jp_add_2":"足代"},"5770057":{"post_code":"5770057","prefecture":"OSAKA FU","city":"HIGASHIOSAKA SHI","town":"AJIROSHIMMACHI","perfecture_jp":"大阪府","jp_add_1":"東大阪市","jp_add_2":"足代新町"},"5770842":{"post_code":"5770842","prefecture":"OSAKA FU","city":"HIGASHIOSAKA SHI","town":"AJIROMINAMI","perfecture_jp":"大阪府","jp_add_1":"東大阪市","jp_add_2":"足代南"},"5770058":{"post_code":"5770058","prefecture":"OSAKA FU","city":"HIGASHIOSAKA SHI","town":"AJIROKITA","perfecture_jp":"大阪府","jp_add_1":"東大阪市","jp_add_2":"足代北"},"5770843":{"post_code":"5770843","prefecture":"OSAKA FU","city":"HIGASHIOSAKA SHI","town":"ARAKAWA","perfecture_jp":"大阪府","jp_add_1":"東大阪市","jp_add_2":"荒川"},"5770023":{"post_code":"5770023","prefecture":"OSAKA FU","city":"HIGASHIOSAKA SHI","town":"ARAMOTO","perfecture_jp":"大阪府","jp_add_1":"東大阪市","jp_add_2":"荒本"},"5770022":{"post_code":"5770022","prefecture":"OSAKA FU","city":"HIGASHIOSAKA SHI","town":"ARAMOTO SHIMMACHI","perfecture_jp":"大阪府","jp_add_1":"東大阪市","jp_add_2":"荒本新町"},"5770024":{"post_code":"5770024","prefecture":"OSAKA FU","city":"HIGASHIOSAKA SHI","town":"ARAMOTO NISHI","perfecture_jp":"大阪府","jp_add_1":"東大阪市","jp_add_2":"荒本西"},"5770011":{"post_code":"5770011","prefecture":"OSAKA FU","city":"HIGASHIOSAKA SHI","town":"ARAMOTO KITA","perfecture_jp":"大阪府","jp_add_1":"東大阪市","jp_add_2":"荒本北"},"5770002":{"post_code":"5770002","prefecture":"OSAKA FU","city":"HIGASHIOSAKA SHI","town":"INADAUEMACHI","perfecture_jp":"大阪府","jp_add_1":"東大阪市","jp_add_2":"稲田上町"},"5770004":{"post_code":"5770004","prefecture":"OSAKA FU","city":"HIGASHIOSAKA SHI","town":"INADASHIMMACHI","perfecture_jp":"大阪府","jp_add_1":"東大阪市","jp_add_2":"稲田新町"},"5770007":{"post_code":"5770007","prefecture":"OSAKA FU","city":"HIGASHIOSAKA SHI","town":"INADAHOMMACHI","perfecture_jp":"大阪府","jp_add_1":"東大阪市","jp_add_2":"稲田本町"},"5770003":{"post_code":"5770003","prefecture":"OSAKA FU","city":"HIGASHIOSAKA SHI","town":"INADAMISHIMACHO","perfecture_jp":"大阪府","jp_add_1":"東大阪市","jp_add_2":"稲田三島町"},"5770809":{"post_code":"5770809","prefecture":"OSAKA FU","city":"HIGASHIOSAKA SHI","town":"EIWA","perfecture_jp":"大阪府","jp_add_1":"東大阪市","jp_add_2":"永和"},"5770817":{"post_code":"5770817","prefecture":"OSAKA FU","city":"HIGASHIOSAKA SHI","town":"OMIDO","perfecture_jp":"大阪府","jp_add_1":"東大阪市","jp_add_2":"近江堂"},"5770824":{"post_code":"5770824","prefecture":"OSAKA FU","city":"HIGASHIOSAKA SHI","town":"OHASU HIGASHI","perfecture_jp":"大阪府","jp_add_1":"東大阪市","jp_add_2":"大蓮東"},"5770825":{"post_code":"5770825","prefecture":"OSAKA FU","city":"HIGASHIOSAKA SHI","town":"OHASU MINAMI","perfecture_jp":"大阪府","jp_add_1":"東大阪市","jp_add_2":"大蓮南"},"5770826":{"post_code":"5770826","prefecture":"OSAKA FU","city":"HIGASHIOSAKA SHI","town":"OHASU KITA","perfecture_jp":"大阪府","jp_add_1":"東大阪市","jp_add_2":"大蓮北"},"5770833":{"post_code":"5770833","prefecture":"OSAKA FU","city":"HIGASHIOSAKA SHI","town":"KASHITA HIGASHIMACHI","perfecture_jp":"大阪府","jp_add_1":"東大阪市","jp_add_2":"柏田東町"},"5770834":{"post_code":"5770834","prefecture":"OSAKA FU","city":"HIGASHIOSAKA SHI","town":"KASHITA HOMMACHI","perfecture_jp":"大阪府","jp_add_1":"東大阪市","jp_add_2":"柏田本町"},"5770835":{"post_code":"5770835","prefecture":"OSAKA FU","city":"HIGASHIOSAKA SHI","town":"KASHITA NISHI","perfecture_jp":"大阪府","jp_add_1":"東大阪市","jp_add_2":"柏田西"},"5770823":{"post_code":"5770823","prefecture":"OSAKA FU","city":"HIGASHIOSAKA SHI","town":"KANAOKA","perfecture_jp":"大阪府","jp_add_1":"東大阪市","jp_add_2":"金岡"},"5770815":{"post_code":"5770815","prefecture":"OSAKA FU","city":"HIGASHIOSAKA SHI","town":"KANAMONOCHO","perfecture_jp":"大阪府","jp_add_1":"東大阪市","jp_add_2":"金物町"},"5770806":{"post_code":"5770806","prefecture":"OSAKA FU","city":"HIGASHIOSAKA SHI","town":"KAMIKOSAKA","perfecture_jp":"大阪府","jp_add_1":"東大阪市","jp_add_2":"上小阪"},"5770063":{"post_code":"5770063","prefecture":"OSAKA FU","city":"HIGASHIOSAKA SHI","town":"KAWAMATA","perfecture_jp":"大阪府","jp_add_1":"東大阪市","jp_add_2":"川俣"},"5770064":{"post_code":"5770064","prefecture":"OSAKA FU","city":"HIGASHIOSAKA SHI","town":"KAWAMATAHOMMACHI","perfecture_jp":"大阪府","jp_add_1":"東大阪市","jp_add_2":"川俣本町"},"5770847":{"post_code":"5770847","prefecture":"OSAKA FU","city":"HIGASHIOSAKA SHI","town":"KISHIDADO MINAMIMACHI","perfecture_jp":"大阪府","jp_add_1":"東大阪市","jp_add_2":"岸田堂南町"},"5770846":{"post_code":"5770846","prefecture":"OSAKA FU","city":"HIGASHIOSAKA SHI","town":"KISHIDADO KITAMACHI","perfecture_jp":"大阪府","jp_add_1":"東大阪市","jp_add_2":"岸田堂北町"},"5770848":{"post_code":"5770848","prefecture":"OSAKA FU","city":"HIGASHIOSAKA SHI","town":"KISHIDADO NISHI","perfecture_jp":"大阪府","jp_add_1":"東大阪市","jp_add_2":"岸田堂西"},"5770827":{"post_code":"5770827","prefecture":"OSAKA FU","city":"HIGASHIOSAKA SHI","town":"KIZURI","perfecture_jp":"大阪府","jp_add_1":"東大阪市","jp_add_2":"衣摺"},"5770006":{"post_code":"5770006","prefecture":"OSAKA FU","city":"HIGASHIOSAKA SHI","town":"KUSUNE","perfecture_jp":"大阪府","jp_add_1":"東大阪市","jp_add_2":"楠根"},"5770822":{"post_code":"5770822","prefecture":"OSAKA FU","city":"HIGASHIOSAKA SHI","town":"GENJIGAOKA","perfecture_jp":"大阪府","jp_add_1":"東大阪市","jp_add_2":"源氏ケ丘"},"5770801":{"post_code":"5770801","prefecture":"OSAKA FU","city":"HIGASHIOSAKA SHI","town":"KOSAKA","perfecture_jp":"大阪府","jp_add_1":"東大阪市","jp_add_2":"小阪"},"5770802":{"post_code":"5770802","prefecture":"OSAKA FU","city":"HIGASHIOSAKA SHI","town":"KOSAKAHOMMACHI","perfecture_jp":"大阪府","jp_add_1":"東大阪市","jp_add_2":"小阪本町"},"5770837":{"post_code":"5770837","prefecture":"OSAKA FU","city":"HIGASHIOSAKA SHI","town":"KOTOBUKICHO","perfecture_jp":"大阪府","jp_add_1":"東大阪市","jp_add_2":"寿町"},"5770818":{"post_code":"5770818","prefecture":"OSAKA FU","city":"HIGASHIOSAKA SHI","town":"KOWAKAE","perfecture_jp":"大阪府","jp_add_1":"東大阪市","jp_add_2":"小若江"},"5770849":{"post_code":"5770849","prefecture":"OSAKA FU","city":"HIGASHIOSAKA SHI","town":"SANNOSE","perfecture_jp":"大阪府","jp_add_1":"東大阪市","jp_add_2":"三ノ瀬"},"5770052":{"post_code":"5770052","prefecture":"OSAKA FU","city":"HIGASHIOSAKA SHI","town":"SHIGITA","perfecture_jp":"大阪府","jp_add_1":"東大阪市","jp_add_2":"新喜多"},"5770005":{"post_code":"5770005","prefecture":"OSAKA FU","city":"HIGASHIOSAKA SHI","town":"SHICHIKENYA","perfecture_jp":"大阪府","jp_add_1":"東大阪市","jp_add_2":"七軒家"},"5770836":{"post_code":"5770836","prefecture":"OSAKA FU","city":"HIGASHIOSAKA SHI","town":"SHIBUKAWACHO","perfecture_jp":"大阪府","jp_add_1":"東大阪市","jp_add_2":"渋川町"},"5770803":{"post_code":"5770803","prefecture":"OSAKA FU","city":"HIGASHIOSAKA SHI","town":"SHIMOKOSAKA","perfecture_jp":"大阪府","jp_add_1":"東大阪市","jp_add_2":"下小阪"},"5770831":{"post_code":"5770831","prefecture":"OSAKA FU","city":"HIGASHIOSAKA SHI","town":"SHUNTOKUCHO","perfecture_jp":"大阪府","jp_add_1":"東大阪市","jp_add_2":"俊徳町"},"5770813":{"post_code":"5770813","prefecture":"OSAKA FU","city":"HIGASHIOSAKA SHI","town":"SHINKAMIKOSAKA","perfecture_jp":"大阪府","jp_add_1":"東大阪市","jp_add_2":"新上小阪"},"5770025":{"post_code":"5770025","prefecture":"OSAKA FU","city":"HIGASHIOSAKA SHI","town":"SHINKE","perfecture_jp":"大阪府","jp_add_1":"東大阪市","jp_add_2":"新家"},"5770027":{"post_code":"5770027","prefecture":"OSAKA FU","city":"HIGASHIOSAKA SHI","town":"SHINKE NAKAMACHI","perfecture_jp":"大阪府","jp_add_1":"東大阪市","jp_add_2":"新家中町"},"5770026":{"post_code":"5770026","prefecture":"OSAKA FU","city":"HIGASHIOSAKA SHI","town":"SHINKE HIGASHIMACHI","perfecture_jp":"大阪府","jp_add_1":"東大阪市","jp_add_2":"新家東町"},"5770028":{"post_code":"5770028","prefecture":"OSAKA FU","city":"HIGASHIOSAKA SHI","town":"SHINKE NISHIMACHI","perfecture_jp":"大阪府","jp_add_1":"東大阪市","jp_add_2":"新家西町"},"5770844":{"post_code":"5770844","prefecture":"OSAKA FU","city":"HIGASHIOSAKA SHI","town":"TAIHEIJI","perfecture_jp":"大阪府","jp_add_1":"東大阪市","jp_add_2":"太平寺"},"5770053":{"post_code":"5770053","prefecture":"OSAKA FU","city":"HIGASHIOSAKA SHI","town":"TAKAIDA","perfecture_jp":"大阪府","jp_add_1":"東大阪市","jp_add_2":"高井田"},"5770065":{"post_code":"5770065","prefecture":"OSAKA FU","city":"HIGASHIOSAKA SHI","town":"TAKAIDA NAKA","perfecture_jp":"大阪府","jp_add_1":"東大阪市","jp_add_2":"高井田中"},"5770066":{"post_code":"5770066","prefecture":"OSAKA FU","city":"HIGASHIOSAKA SHI","town":"TAKAIDA HONDORI","perfecture_jp":"大阪府","jp_add_1":"東大阪市","jp_add_2":"高井田本通"},"5770054":{"post_code":"5770054","prefecture":"OSAKA FU","city":"HIGASHIOSAKA SHI","town":"TAKAIDA MOTOMACHI","perfecture_jp":"大阪府","jp_add_1":"東大阪市","jp_add_2":"高井田元町"},"5770067":{"post_code":"5770067","prefecture":"OSAKA FU","city":"HIGASHIOSAKA SHI","town":"TAKAIDA NISHI","perfecture_jp":"大阪府","jp_add_1":"東大阪市","jp_add_2":"高井田西"},"5770055":{"post_code":"5770055","prefecture":"OSAKA FU","city":"HIGASHIOSAKA SHI","town":"CHOEIJI","perfecture_jp":"大阪府","jp_add_1":"東大阪市","jp_add_2":"長栄寺"},"5770056":{"post_code":"5770056","prefecture":"OSAKA FU","city":"HIGASHIOSAKA SHI","town":"CHODO","perfecture_jp":"大阪府","jp_add_1":"東大阪市","jp_add_2":"長堂"},"5770845":{"post_code":"5770845","prefecture":"OSAKA FU","city":"HIGASHIOSAKA SHI","town":"TERAMAECHO","perfecture_jp":"大阪府","jp_add_1":"東大阪市","jp_add_2":"寺前町"},"5770001":{"post_code":"5770001","prefecture":"OSAKA FU","city":"HIGASHIOSAKA SHI","town":"TOKUANHOMMACHI","perfecture_jp":"大阪府","jp_add_1":"東大阪市","jp_add_2":"徳庵本町"},"5770816":{"post_code":"5770816","prefecture":"OSAKA FU","city":"HIGASHIOSAKA SHI","town":"TOMOI","perfecture_jp":"大阪府","jp_add_1":"東大阪市","jp_add_2":"友井"},"5770804":{"post_code":"5770804","prefecture":"OSAKA FU","city":"HIGASHIOSAKA SHI","town":"NAKAKOSAKA","perfecture_jp":"大阪府","jp_add_1":"東大阪市","jp_add_2":"中小阪"},"5770832":{"post_code":"5770832","prefecture":"OSAKA FU","city":"HIGASHIOSAKA SHI","town":"NAGASECHO","perfecture_jp":"大阪府","jp_add_1":"東大阪市","jp_add_2":"長瀬町"},"5770015":{"post_code":"5770015","prefecture":"OSAKA FU","city":"HIGASHIOSAKA SHI","town":"NAGATA","perfecture_jp":"大阪府","jp_add_1":"東大阪市","jp_add_2":"長田"},"5770014":{"post_code":"5770014","prefecture":"OSAKA FU","city":"HIGASHIOSAKA SHI","town":"NAGATA NAISUKE","perfecture_jp":"大阪府","jp_add_1":"東大阪市","jp_add_2":"長田内介"},"5770013":{"post_code":"5770013","prefecture":"OSAKA FU","city":"HIGASHIOSAKA SHI","town":"NAGATA NAKA","perfecture_jp":"大阪府","jp_add_1":"東大阪市","jp_add_2":"長田中"},"5770012":{"post_code":"5770012","prefecture":"OSAKA FU","city":"HIGASHIOSAKA SHI","town":"NAGATA HIGASHI","perfecture_jp":"大阪府","jp_add_1":"東大阪市","jp_add_2":"長田東"},"5770016":{"post_code":"5770016","prefecture":"OSAKA FU","city":"HIGASHIOSAKA SHI","town":"NAGATA NISHI","perfecture_jp":"大阪府","jp_add_1":"東大阪市","jp_add_2":"長田西"},"5770811":{"post_code":"5770811","prefecture":"OSAKA FU","city":"HIGASHIOSAKA SHI","town":"NISHIKAMIKOSAKA","perfecture_jp":"大阪府","jp_add_1":"東大阪市","jp_add_2":"西上小阪"},"5770042":{"post_code":"5770042","prefecture":"OSAKA FU","city":"HIGASHIOSAKA SHI","town":"NISHIZUTSUMI","perfecture_jp":"大阪府","jp_add_1":"東大阪市","jp_add_2":"西堤"},"5770044":{"post_code":"5770044","prefecture":"OSAKA FU","city":"HIGASHIOSAKA SHI","town":"NISHIZUTSUMI GAKUENCHO","perfecture_jp":"大阪府","jp_add_1":"東大阪市","jp_add_2":"西堤学園町"},"5770047":{"post_code":"5770047","prefecture":"OSAKA FU","city":"HIGASHIOSAKA SHI","town":"NISHIZUTSUMI KUSUNOKICHO","perfecture_jp":"大阪府","jp_add_1":"東大阪市","jp_add_2":"西堤楠町"},"5770048":{"post_code":"5770048","prefecture":"OSAKA FU","city":"HIGASHIOSAKA SHI","town":"NISHITSUTSUMI NISHI","perfecture_jp":"大阪府","jp_add_1":"東大阪市","jp_add_2":"西堤西"},"5770045":{"post_code":"5770045","prefecture":"OSAKA FU","city":"HIGASHIOSAKA SHI","town":"NISHIZUTSUMI HONDORIHIGASHI","perfecture_jp":"大阪府","jp_add_1":"東大阪市","jp_add_2":"西堤本通東"},"5770046":{"post_code":"5770046","prefecture":"OSAKA FU","city":"HIGASHIOSAKA SHI","town":"NISHIZUTSUMI HONDORINISHI","perfecture_jp":"大阪府","jp_add_1":"東大阪市","jp_add_2":"西堤本通西"},"5770812":{"post_code":"5770812","prefecture":"OSAKA FU","city":"HIGASHIOSAKA SHI","town":"HIGASHIKAMIKOSAKA","perfecture_jp":"大阪府","jp_add_1":"東大阪市","jp_add_2":"東上小阪"},"5770807":{"post_code":"5770807","prefecture":"OSAKA FU","city":"HIGASHIOSAKA SHI","town":"HISHIYANISHI","perfecture_jp":"大阪府","jp_add_1":"東大阪市","jp_add_2":"菱屋西"},"5770017":{"post_code":"5770017","prefecture":"OSAKA FU","city":"HIGASHIOSAKA SHI","town":"FUJITOSHINDEN","perfecture_jp":"大阪府","jp_add_1":"東大阪市","jp_add_2":"藤戸新田"},"5770805":{"post_code":"5770805","prefecture":"OSAKA FU","city":"HIGASHIOSAKA SHI","town":"HOJI","perfecture_jp":"大阪府","jp_add_1":"東大阪市","jp_add_2":"宝持"},"5770032":{"post_code":"5770032","prefecture":"OSAKA FU","city":"HIGASHIOSAKA SHI","town":"MIKURIYA","perfecture_jp":"大阪府","jp_add_1":"東大阪市","jp_add_2":"御厨"},"5770036":{"post_code":"5770036","prefecture":"OSAKA FU","city":"HIGASHIOSAKA SHI","town":"MIKURIYA SAKAEMACHI","perfecture_jp":"大阪府","jp_add_1":"東大阪市","jp_add_2":"御厨栄町"},"5770035":{"post_code":"5770035","prefecture":"OSAKA FU","city":"HIGASHIOSAKA SHI","town":"MIKURIYA NAKA","perfecture_jp":"大阪府","jp_add_1":"東大阪市","jp_add_2":"御厨中"},"5770037":{"post_code":"5770037","prefecture":"OSAKA FU","city":"HIGASHIOSAKA SHI","town":"MIKURIYA NISHINOCHO","perfecture_jp":"大阪府","jp_add_1":"東大阪市","jp_add_2":"御厨西ノ町"},"5770033":{"post_code":"5770033","prefecture":"OSAKA FU","city":"HIGASHIOSAKA SHI","town":"MIKURIYA HIGASHI","perfecture_jp":"大阪府","jp_add_1":"東大阪市","jp_add_2":"御厨東"},"5770034":{"post_code":"5770034","prefecture":"OSAKA FU","city":"HIGASHIOSAKA SHI","town":"MIKURIYA MINAMI","perfecture_jp":"大阪府","jp_add_1":"東大阪市","jp_add_2":"御厨南"},"5770814":{"post_code":"5770814","prefecture":"OSAKA FU","city":"HIGASHIOSAKA SHI","town":"MINAMIKAMIKOSAKA","perfecture_jp":"大阪府","jp_add_1":"東大阪市","jp_add_2":"南上小阪"},"5770062":{"post_code":"5770062","prefecture":"OSAKA FU","city":"HIGASHIOSAKA SHI","town":"MORIKAWACHI HIGASHI","perfecture_jp":"大阪府","jp_add_1":"東大阪市","jp_add_2":"森河内東"},"5770061":{"post_code":"5770061","prefecture":"OSAKA FU","city":"HIGASHIOSAKA SHI","town":"MORIKAWACHI NISHI","perfecture_jp":"大阪府","jp_add_1":"東大阪市","jp_add_2":"森河内西"},"5770808":{"post_code":"5770808","prefecture":"OSAKA FU","city":"HIGASHIOSAKA SHI","town":"YOKONUMACHO","perfecture_jp":"大阪府","jp_add_1":"東大阪市","jp_add_2":"横沼町"},"5770821":{"post_code":"5770821","prefecture":"OSAKA FU","city":"HIGASHIOSAKA SHI","town":"YOSHIMATSU","perfecture_jp":"大阪府","jp_add_1":"東大阪市","jp_add_2":"吉松"}}