{"5810000":{"post_code":"5810000","prefecture":"OSAKA FU","city":"YAO SHI","town":"IKANIKEISAIGANAIBAAI","perfecture_jp":"大阪府","jp_add_1":"八尾市","jp_add_2":""},"5810082":{"post_code":"5810082","prefecture":"OSAKA FU","city":"YAO SHI","town":"AIOICHO","perfecture_jp":"大阪府","jp_add_1":"八尾市","jp_add_2":"相生町"},"5810018":{"post_code":"5810018","prefecture":"OSAKA FU","city":"YAO SHI","town":"AOYAMACHO","perfecture_jp":"大阪府","jp_add_1":"八尾市","jp_add_2":"青山町"},"5810020":{"post_code":"5810020","prefecture":"OSAKA FU","city":"YAO SHI","town":"AKEGAWAHIGASHI","perfecture_jp":"大阪府","jp_add_1":"八尾市","jp_add_2":"曙川東"},"5810026":{"post_code":"5810026","prefecture":"OSAKA FU","city":"YAO SHI","town":"AKEBONOCHO","perfecture_jp":"大阪府","jp_add_1":"八尾市","jp_add_2":"曙町"},"5810087":{"post_code":"5810087","prefecture":"OSAKA FU","city":"YAO SHI","town":"AKEMICHO","perfecture_jp":"大阪府","jp_add_1":"八尾市","jp_add_2":"明美町"},"5810833":{"post_code":"5810833","prefecture":"OSAKA FU","city":"YAO SHI","town":"ASAHIGAOKA","perfecture_jp":"大阪府","jp_add_1":"八尾市","jp_add_2":"旭ケ丘"},"5810064":{"post_code":"5810064","prefecture":"OSAKA FU","city":"YAO SHI","town":"ATOBE HOMMACHI","perfecture_jp":"大阪府","jp_add_1":"八尾市","jp_add_2":"跡部本町"},"5810055":{"post_code":"5810055","prefecture":"OSAKA FU","city":"YAO SHI","town":"ATOBE MINAMINOCHO","perfecture_jp":"大阪府","jp_add_1":"八尾市","jp_add_2":"跡部南の町"},"5810068":{"post_code":"5810068","prefecture":"OSAKA FU","city":"YAO SHI","town":"ATOBE KITANOCHO","perfecture_jp":"大阪府","jp_add_1":"八尾市","jp_add_2":"跡部北の町"},"5810813":{"post_code":"5810813","prefecture":"OSAKA FU","city":"YAO SHI","town":"IZUMICHO","perfecture_jp":"大阪府","jp_add_1":"八尾市","jp_add_2":"泉町"},"5810084":{"post_code":"5810084","prefecture":"OSAKA FU","city":"YAO SHI","town":"UEMATSUCHO","perfecture_jp":"大阪府","jp_add_1":"八尾市","jp_add_2":"植松町"},"5810092":{"post_code":"5810092","prefecture":"OSAKA FU","city":"YAO SHI","town":"OIHARA","perfecture_jp":"大阪府","jp_add_1":"八尾市","jp_add_2":"老原"},"5810863":{"post_code":"5810863","prefecture":"OSAKA FU","city":"YAO SHI","town":"OKUBO","perfecture_jp":"大阪府","jp_add_1":"八尾市","jp_add_2":"大窪"},"5810037":{"post_code":"5810037","prefecture":"OSAKA FU","city":"YAO SHI","town":"OTA","perfecture_jp":"大阪府","jp_add_1":"八尾市","jp_add_2":"太田"},"5810854":{"post_code":"5810854","prefecture":"OSAKA FU","city":"YAO SHI","town":"OTAKE","perfecture_jp":"大阪府","jp_add_1":"八尾市","jp_add_2":"大竹"},"5810039":{"post_code":"5810039","prefecture":"OSAKA FU","city":"YAO SHI","town":"OTASHIMMACHI","perfecture_jp":"大阪府","jp_add_1":"八尾市","jp_add_2":"太田新町"},"5810015":{"post_code":"5810015","prefecture":"OSAKA FU","city":"YAO SHI","town":"OSAKABE","perfecture_jp":"大阪府","jp_add_1":"八尾市","jp_add_2":"刑部"},"5810883":{"post_code":"5810883","prefecture":"OSAKA FU","city":"YAO SHI","town":"ONJI NAKAMACHI","perfecture_jp":"大阪府","jp_add_1":"八尾市","jp_add_2":"恩智中町"},"5810884":{"post_code":"5810884","prefecture":"OSAKA FU","city":"YAO SHI","town":"ONJI MINAMIMACHI","perfecture_jp":"大阪府","jp_add_1":"八尾市","jp_add_2":"恩智南町"},"5810882":{"post_code":"5810882","prefecture":"OSAKA FU","city":"YAO SHI","town":"ONJI KITAMACHI","perfecture_jp":"大阪府","jp_add_1":"八尾市","jp_add_2":"恩智北町"},"5810881":{"post_code":"5810881","prefecture":"OSAKA FU","city":"YAO SHI","town":"KAICHI","perfecture_jp":"大阪府","jp_add_1":"八尾市","jp_add_2":"垣内"},"5810853":{"post_code":"5810853","prefecture":"OSAKA FU","city":"YAO SHI","town":"GAKUONJI","perfecture_jp":"大阪府","jp_add_1":"八尾市","jp_add_2":"楽音寺"},"5810022":{"post_code":"5810022","prefecture":"OSAKA FU","city":"YAO SHI","town":"KASHIMURACHO","perfecture_jp":"大阪府","jp_add_1":"八尾市","jp_add_2":"柏村町"},"5810061":{"post_code":"5810061","prefecture":"OSAKA FU","city":"YAO SHI","town":"KASUGACHO","perfecture_jp":"大阪府","jp_add_1":"八尾市","jp_add_2":"春日町"},"5810823":{"post_code":"5810823","prefecture":"OSAKA FU","city":"YAO SHI","town":"KATSURACHO","perfecture_jp":"大阪府","jp_add_1":"八尾市","jp_add_2":"桂町"},"5810851":{"post_code":"5810851","prefecture":"OSAKA FU","city":"YAO SHI","town":"KAMIOCHO","perfecture_jp":"大阪府","jp_add_1":"八尾市","jp_add_2":"上尾町"},"5810846":{"post_code":"5810846","prefecture":"OSAKA FU","city":"YAO SHI","town":"KAMINOSHIMACHO MINAMI","perfecture_jp":"大阪府","jp_add_1":"八尾市","jp_add_2":"上之島町南"},"5810845":{"post_code":"5810845","prefecture":"OSAKA FU","city":"YAO SHI","town":"KAMINOSHIMACHO KITA","perfecture_jp":"大阪府","jp_add_1":"八尾市","jp_add_2":"上之島町北"},"5810065":{"post_code":"5810065","prefecture":"OSAKA FU","city":"YAO SHI","town":"KAMEICHO","perfecture_jp":"大阪府","jp_add_1":"八尾市","jp_add_2":"亀井町"},"5810834":{"post_code":"5810834","prefecture":"OSAKA FU","city":"YAO SHI","town":"KAYAFURICHO","perfecture_jp":"大阪府","jp_add_1":"八尾市","jp_add_2":"萱振町"},"5810066":{"post_code":"5810066","prefecture":"OSAKA FU","city":"YAO SHI","town":"KITAKAMEICHO","perfecture_jp":"大阪府","jp_add_1":"八尾市","jp_add_2":"北亀井町"},"5810041":{"post_code":"5810041","prefecture":"OSAKA FU","city":"YAO SHI","town":"KITAKINOMOTO","perfecture_jp":"大阪府","jp_add_1":"八尾市","jp_add_2":"北木の本"},"5810071":{"post_code":"5810071","prefecture":"OSAKA FU","city":"YAO SHI","town":"KITAKYUHOJI","perfecture_jp":"大阪府","jp_add_1":"八尾市","jp_add_2":"北久宝寺"},"5810802":{"post_code":"5810802","prefecture":"OSAKA FU","city":"YAO SHI","town":"KITAHOMMACHI","perfecture_jp":"大阪府","jp_add_1":"八尾市","jp_add_2":"北本町"},"5810044":{"post_code":"5810044","prefecture":"OSAKA FU","city":"YAO SHI","town":"KINOMOTO","perfecture_jp":"大阪府","jp_add_1":"八尾市","jp_add_2":"木の本"},"5810817":{"post_code":"5810817","prefecture":"OSAKA FU","city":"YAO SHI","town":"KYUHOEN","perfecture_jp":"大阪府","jp_add_1":"八尾市","jp_add_2":"久宝園"},"5810072":{"post_code":"5810072","prefecture":"OSAKA FU","city":"YAO SHI","town":"KYUHOJI","perfecture_jp":"大阪府","jp_add_1":"八尾市","jp_add_2":"久宝寺"},"5810874":{"post_code":"5810874","prefecture":"OSAKA FU","city":"YAO SHI","town":"KYOKOJI","perfecture_jp":"大阪府","jp_add_1":"八尾市","jp_add_2":"教興寺"},"5810043":{"post_code":"5810043","prefecture":"OSAKA FU","city":"YAO SHI","town":"KUKO","perfecture_jp":"大阪府","jp_add_1":"八尾市","jp_add_2":"空港"},"5810814":{"post_code":"5810814","prefecture":"OSAKA FU","city":"YAO SHI","town":"KUSUNECHO","perfecture_jp":"大阪府","jp_add_1":"八尾市","jp_add_2":"楠根町"},"5810873":{"post_code":"5810873","prefecture":"OSAKA FU","city":"YAO SHI","town":"KURODANI","perfecture_jp":"大阪府","jp_add_1":"八尾市","jp_add_2":"黒谷"},"5810855":{"post_code":"5810855","prefecture":"OSAKA FU","city":"YAO SHI","town":"KODACHI","perfecture_jp":"大阪府","jp_add_1":"八尾市","jp_add_2":"神立"},"5810007":{"post_code":"5810007","prefecture":"OSAKA FU","city":"YAO SHI","town":"KONANCHO","perfecture_jp":"大阪府","jp_add_1":"八尾市","jp_add_2":"光南町"},"5810872":{"post_code":"5810872","prefecture":"OSAKA FU","city":"YAO SHI","town":"KORIGAWA","perfecture_jp":"大阪府","jp_add_1":"八尾市","jp_add_2":"郡川"},"5810012":{"post_code":"5810012","prefecture":"OSAKA FU","city":"YAO SHI","town":"KOZAKAAICHO","perfecture_jp":"大阪府","jp_add_1":"八尾市","jp_add_2":"小阪合町"},"5810835":{"post_code":"5810835","prefecture":"OSAKA FU","city":"YAO SHI","town":"KOHATACHO","perfecture_jp":"大阪府","jp_add_1":"八尾市","jp_add_2":"小畑町"},"5810821":{"post_code":"5810821","prefecture":"OSAKA FU","city":"YAO SHI","town":"SAIWAICHO","perfecture_jp":"大阪府","jp_add_1":"八尾市","jp_add_2":"幸町"},"5810074":{"post_code":"5810074","prefecture":"OSAKA FU","city":"YAO SHI","town":"SAKAEMACHI","perfecture_jp":"大阪府","jp_add_1":"八尾市","jp_add_2":"栄町"},"5810869":{"post_code":"5810869","prefecture":"OSAKA FU","city":"YAO SHI","town":"SAKURAGAOKA","perfecture_jp":"大阪府","jp_add_1":"八尾市","jp_add_2":"桜ケ丘"},"5810816":{"post_code":"5810816","prefecture":"OSAKA FU","city":"YAO SHI","town":"SADOCHO","perfecture_jp":"大阪府","jp_add_1":"八尾市","jp_add_2":"佐堂町"},"5810031":{"post_code":"5810031","prefecture":"OSAKA FU","city":"YAO SHI","town":"SHIKICHO","perfecture_jp":"大阪府","jp_add_1":"八尾市","jp_add_2":"志紀町"},"5810094":{"post_code":"5810094","prefecture":"OSAKA FU","city":"YAO SHI","town":"SHIKICHO NISHI","perfecture_jp":"大阪府","jp_add_1":"八尾市","jp_add_2":"志紀町西"},"5810033":{"post_code":"5810033","prefecture":"OSAKA FU","city":"YAO SHI","town":"SHIKICHO MINAMI","perfecture_jp":"大阪府","jp_add_1":"八尾市","jp_add_2":"志紀町南"},"5810075":{"post_code":"5810075","prefecture":"OSAKA FU","city":"YAO SHI","town":"SHIBUKAWACHO","perfecture_jp":"大阪府","jp_add_1":"八尾市","jp_add_2":"渋川町"},"5810006":{"post_code":"5810006","prefecture":"OSAKA FU","city":"YAO SHI","town":"SHIMIZUCHO","perfecture_jp":"大阪府","jp_add_1":"八尾市","jp_add_2":"清水町"},"5810811":{"post_code":"5810811","prefecture":"OSAKA FU","city":"YAO SHI","town":"SHINKECHO","perfecture_jp":"大阪府","jp_add_1":"八尾市","jp_add_2":"新家町"},"5810885":{"post_code":"5810885","prefecture":"OSAKA FU","city":"YAO SHI","town":"JINGUJI","perfecture_jp":"大阪府","jp_add_1":"八尾市","jp_add_2":"神宮寺"},"5810067":{"post_code":"5810067","prefecture":"OSAKA FU","city":"YAO SHI","town":"JIMMUCHO","perfecture_jp":"大阪府","jp_add_1":"八尾市","jp_add_2":"神武町"},"5810001":{"post_code":"5810001","prefecture":"OSAKA FU","city":"YAO SHI","town":"SUEHIROCHO","perfecture_jp":"大阪府","jp_add_1":"八尾市","jp_add_2":"末広町"},"5810005":{"post_code":"5810005","prefecture":"OSAKA FU","city":"YAO SHI","town":"SONAICHO","perfecture_jp":"大阪府","jp_add_1":"八尾市","jp_add_2":"荘内町"},"5810063":{"post_code":"5810063","prefecture":"OSAKA FU","city":"YAO SHI","town":"TAISHIDO","perfecture_jp":"大阪府","jp_add_1":"八尾市","jp_add_2":"太子堂"},"5810095":{"post_code":"5810095","prefecture":"OSAKA FU","city":"YAO SHI","town":"TAINAKA","perfecture_jp":"大阪府","jp_add_1":"八尾市","jp_add_2":"田井中"},"5810822":{"post_code":"5810822","prefecture":"OSAKA FU","city":"YAO SHI","town":"TAKASAGOCHO","perfecture_jp":"大阪府","jp_add_1":"八尾市","jp_add_2":"高砂町"},"5810073":{"post_code":"5810073","prefecture":"OSAKA FU","city":"YAO SHI","town":"TAKAMACHI","perfecture_jp":"大阪府","jp_add_1":"八尾市","jp_add_2":"高町"},"5810017":{"post_code":"5810017","prefecture":"OSAKA FU","city":"YAO SHI","town":"TAKAMICHO","perfecture_jp":"大阪府","jp_add_1":"八尾市","jp_add_2":"高美町"},"5810875":{"post_code":"5810875","prefecture":"OSAKA FU","city":"YAO SHI","town":"TAKAYASUCHO MINAMI","perfecture_jp":"大阪府","jp_add_1":"八尾市","jp_add_2":"高安町南"},"5810871":{"post_code":"5810871","prefecture":"OSAKA FU","city":"YAO SHI","town":"TAKAYASUCHO KITA","perfecture_jp":"大阪府","jp_add_1":"八尾市","jp_add_2":"高安町北"},"5810052":{"post_code":"5810052","prefecture":"OSAKA FU","city":"YAO SHI","town":"TAKEFUCHI","perfecture_jp":"大阪府","jp_add_1":"八尾市","jp_add_2":"竹渕"},"5810053":{"post_code":"5810053","prefecture":"OSAKA FU","city":"YAO SHI","town":"TAKEFUCHIHIGASHI","perfecture_jp":"大阪府","jp_add_1":"八尾市","jp_add_2":"竹渕東"},"5810051":{"post_code":"5810051","prefecture":"OSAKA FU","city":"YAO SHI","town":"TAKEFUCHINISHI","perfecture_jp":"大阪府","jp_add_1":"八尾市","jp_add_2":"竹渕西"},"5810862":{"post_code":"5810862","prefecture":"OSAKA FU","city":"YAO SHI","town":"CHIZUKA","perfecture_jp":"大阪府","jp_add_1":"八尾市","jp_add_2":"千塚"},"5810832":{"post_code":"5810832","prefecture":"OSAKA FU","city":"YAO SHI","town":"TSUTSUMICHO","perfecture_jp":"大阪府","jp_add_1":"八尾市","jp_add_2":"堤町"},"5810025":{"post_code":"5810025","prefecture":"OSAKA FU","city":"YAO SHI","town":"TENNOJIYA","perfecture_jp":"大阪府","jp_add_1":"八尾市","jp_add_2":"天王寺屋"},"5810014":{"post_code":"5810014","prefecture":"OSAKA FU","city":"YAO SHI","town":"NAKATA","perfecture_jp":"大阪府","jp_add_1":"八尾市","jp_add_2":"中田"},"5810836":{"post_code":"5810836","prefecture":"OSAKA FU","city":"YAO SHI","town":"NAGAIKECHO","perfecture_jp":"大阪府","jp_add_1":"八尾市","jp_add_2":"長池町"},"5810083":{"post_code":"5810083","prefecture":"OSAKA FU","city":"YAO SHI","town":"NAGAHATACHO","perfecture_jp":"大阪府","jp_add_1":"八尾市","jp_add_2":"永畑町"},"5810045":{"post_code":"5810045","prefecture":"OSAKA FU","city":"YAO SHI","town":"NISHIKINOMOTO","perfecture_jp":"大阪府","jp_add_1":"八尾市","jp_add_2":"西木の本"},"5810077":{"post_code":"5810077","prefecture":"OSAKA FU","city":"YAO SHI","town":"NISHIKYUHOJI","perfecture_jp":"大阪府","jp_add_1":"八尾市","jp_add_2":"西久宝寺"},"5810852":{"post_code":"5810852","prefecture":"OSAKA FU","city":"YAO SHI","town":"NISHITAKAYASUCHO","perfecture_jp":"大阪府","jp_add_1":"八尾市","jp_add_2":"西高安町"},"5810868":{"post_code":"5810868","prefecture":"OSAKA FU","city":"YAO SHI","town":"NISHIYAMAMOTOCHO","perfecture_jp":"大阪府","jp_add_1":"八尾市","jp_add_2":"西山本町"},"5810035":{"post_code":"5810035","prefecture":"OSAKA FU","city":"YAO SHI","town":"NISHIYUGE","perfecture_jp":"大阪府","jp_add_1":"八尾市","jp_add_2":"西弓削"},"5810036":{"post_code":"5810036","prefecture":"OSAKA FU","city":"YAO SHI","town":"NUMA","perfecture_jp":"大阪府","jp_add_1":"八尾市","jp_add_2":"沼"},"5810865":{"post_code":"5810865","prefecture":"OSAKA FU","city":"YAO SHI","town":"HATTORIGAWA","perfecture_jp":"大阪府","jp_add_1":"八尾市","jp_add_2":"服部川"},"5810803":{"post_code":"5810803","prefecture":"OSAKA FU","city":"YAO SHI","town":"HIKARICHO","perfecture_jp":"大阪府","jp_add_1":"八尾市","jp_add_2":"光町"},"5810093":{"post_code":"5810093","prefecture":"OSAKA FU","city":"YAO SHI","town":"HIGASHIOIHARA","perfecture_jp":"大阪府","jp_add_1":"八尾市","jp_add_2":"東老原"},"5810002":{"post_code":"5810002","prefecture":"OSAKA FU","city":"YAO SHI","town":"HIGASHIKYUHOJI","perfecture_jp":"大阪府","jp_add_1":"八尾市","jp_add_2":"東久宝寺"},"5810062":{"post_code":"5810062","prefecture":"OSAKA FU","city":"YAO SHI","town":"HIGASHITAISHI","perfecture_jp":"大阪府","jp_add_1":"八尾市","jp_add_2":"東太子"},"5810004":{"post_code":"5810004","prefecture":"OSAKA FU","city":"YAO SHI","town":"HIGASHIHOMMACHI","perfecture_jp":"大阪府","jp_add_1":"八尾市","jp_add_2":"東本町"},"5810861":{"post_code":"5810861","prefecture":"OSAKA FU","city":"YAO SHI","town":"HIGASHIMACHI","perfecture_jp":"大阪府","jp_add_1":"八尾市","jp_add_2":"東町"},"5810866":{"post_code":"5810866","prefecture":"OSAKA FU","city":"YAO SHI","town":"HIGASHIYAMAMOTOSHIMMACHI","perfecture_jp":"大阪府","jp_add_1":"八尾市","jp_add_2":"東山本新町"},"5810847":{"post_code":"5810847","prefecture":"OSAKA FU","city":"YAO SHI","town":"HIGASHIYAMAMOTOCHO","perfecture_jp":"大阪府","jp_add_1":"八尾市","jp_add_2":"東山本町"},"5810029":{"post_code":"5810029","prefecture":"OSAKA FU","city":"YAO SHI","town":"HIGASHIYUGE","perfecture_jp":"大阪府","jp_add_1":"八尾市","jp_add_2":"東弓削"},"5810844":{"post_code":"5810844","prefecture":"OSAKA FU","city":"YAO SHI","town":"FUKUEICHO","perfecture_jp":"大阪府","jp_add_1":"八尾市","jp_add_2":"福栄町"},"5810842":{"post_code":"5810842","prefecture":"OSAKA FU","city":"YAO SHI","town":"FUKUMANJICHO","perfecture_jp":"大阪府","jp_add_1":"八尾市","jp_add_2":"福万寺町"},"5810843":{"post_code":"5810843","prefecture":"OSAKA FU","city":"YAO SHI","town":"FUKUMANJICHO MINAMI","perfecture_jp":"大阪府","jp_add_1":"八尾市","jp_add_2":"福万寺町南"},"5810841":{"post_code":"5810841","prefecture":"OSAKA FU","city":"YAO SHI","town":"FUKUMANJICHO KITA","perfecture_jp":"大阪府","jp_add_1":"八尾市","jp_add_2":"福万寺町北"},"5810024":{"post_code":"5810024","prefecture":"OSAKA FU","city":"YAO SHI","town":"FUTAMATA","perfecture_jp":"大阪府","jp_add_1":"八尾市","jp_add_2":"二俣"},"5810003":{"post_code":"5810003","prefecture":"OSAKA FU","city":"YAO SHI","town":"HOMMACHI","perfecture_jp":"大阪府","jp_add_1":"八尾市","jp_add_2":"本町"},"5810088":{"post_code":"5810088","prefecture":"OSAKA FU","city":"YAO SHI","town":"MATSUYAMACHO","perfecture_jp":"大阪府","jp_add_1":"八尾市","jp_add_2":"松山町"},"5810856":{"post_code":"5810856","prefecture":"OSAKA FU","city":"YAO SHI","town":"MIZUKOSHI","perfecture_jp":"大阪府","jp_add_1":"八尾市","jp_add_2":"水越"},"5810818":{"post_code":"5810818","prefecture":"OSAKA FU","city":"YAO SHI","town":"MISONOCHO","perfecture_jp":"大阪府","jp_add_1":"八尾市","jp_add_2":"美園町"},"5810837":{"post_code":"5810837","prefecture":"OSAKA FU","city":"YAO SHI","town":"MIDORIGAOKA","perfecture_jp":"大阪府","jp_add_1":"八尾市","jp_add_2":"緑ケ丘"},"5810091":{"post_code":"5810091","prefecture":"OSAKA FU","city":"YAO SHI","town":"MINAMIUEMATSUCHO","perfecture_jp":"大阪府","jp_add_1":"八尾市","jp_add_2":"南植松町"},"5810054":{"post_code":"5810054","prefecture":"OSAKA FU","city":"YAO SHI","town":"MINAMIKAMEICHO","perfecture_jp":"大阪府","jp_add_1":"八尾市","jp_add_2":"南亀井町"},"5810042":{"post_code":"5810042","prefecture":"OSAKA FU","city":"YAO SHI","town":"MINAMIKINOMOTO","perfecture_jp":"大阪府","jp_add_1":"八尾市","jp_add_2":"南木の本"},"5810076":{"post_code":"5810076","prefecture":"OSAKA FU","city":"YAO SHI","town":"MINAMIKYUHOJI","perfecture_jp":"大阪府","jp_add_1":"八尾市","jp_add_2":"南久宝寺"},"5810019":{"post_code":"5810019","prefecture":"OSAKA FU","city":"YAO SHI","town":"MINAMIKOZAKAAICHO","perfecture_jp":"大阪府","jp_add_1":"八尾市","jp_add_2":"南小阪合町"},"5810056":{"post_code":"5810056","prefecture":"OSAKA FU","city":"YAO SHI","town":"MINAMITAISHIDO","perfecture_jp":"大阪府","jp_add_1":"八尾市","jp_add_2":"南太子堂"},"5810081":{"post_code":"5810081","prefecture":"OSAKA FU","city":"YAO SHI","town":"MINAMIHOMMACHI","perfecture_jp":"大阪府","jp_add_1":"八尾市","jp_add_2":"南本町"},"5810023":{"post_code":"5810023","prefecture":"OSAKA FU","city":"YAO SHI","town":"MIYAKOZUKA","perfecture_jp":"大阪府","jp_add_1":"八尾市","jp_add_2":"都塚"},"5810815":{"post_code":"5810815","prefecture":"OSAKA FU","city":"YAO SHI","town":"MIYAMACHI","perfecture_jp":"大阪府","jp_add_1":"八尾市","jp_add_2":"宮町"},"5810027":{"post_code":"5810027","prefecture":"OSAKA FU","city":"YAO SHI","town":"YOGI","perfecture_jp":"大阪府","jp_add_1":"八尾市","jp_add_2":"八尾木"},"5810028":{"post_code":"5810028","prefecture":"OSAKA FU","city":"YAO SHI","town":"YAOGI HIGASHI","perfecture_jp":"大阪府","jp_add_1":"八尾市","jp_add_2":"八尾木東"},"5810016":{"post_code":"5810016","prefecture":"OSAKA FU","city":"YAO SHI","town":"YAOGI KITA","perfecture_jp":"大阪府","jp_add_1":"八尾市","jp_add_2":"八尾木北"},"5810085":{"post_code":"5810085","prefecture":"OSAKA FU","city":"YAO SHI","town":"YASUNAKACHO","perfecture_jp":"大阪府","jp_add_1":"八尾市","jp_add_2":"安中町"},"5810812":{"post_code":"5810812","prefecture":"OSAKA FU","city":"YAO SHI","town":"YAMAGACHO","perfecture_jp":"大阪府","jp_add_1":"八尾市","jp_add_2":"山賀町"},"5810801":{"post_code":"5810801","prefecture":"OSAKA FU","city":"YAO SHI","town":"YAMASHIROCHO","perfecture_jp":"大阪府","jp_add_1":"八尾市","jp_add_2":"山城町"},"5810864":{"post_code":"5810864","prefecture":"OSAKA FU","city":"YAO SHI","town":"YAMATAKE","perfecture_jp":"大阪府","jp_add_1":"八尾市","jp_add_2":"山畑"},"5810021":{"post_code":"5810021","prefecture":"OSAKA FU","city":"YAO SHI","town":"YAMAMOTOTAKAYASUCHO","perfecture_jp":"大阪府","jp_add_1":"八尾市","jp_add_2":"山本高安町"},"5810867":{"post_code":"5810867","prefecture":"OSAKA FU","city":"YAO SHI","town":"YAMAMOTOCHO","perfecture_jp":"大阪府","jp_add_1":"八尾市","jp_add_2":"山本町"},"5810013":{"post_code":"5810013","prefecture":"OSAKA FU","city":"YAO SHI","town":"YAMAMOTOCHO MINAMI","perfecture_jp":"大阪府","jp_add_1":"八尾市","jp_add_2":"山本町南"},"5810831":{"post_code":"5810831","prefecture":"OSAKA FU","city":"YAO SHI","town":"YAMAMOTOCHO KITA","perfecture_jp":"大阪府","jp_add_1":"八尾市","jp_add_2":"山本町北"},"5810032":{"post_code":"5810032","prefecture":"OSAKA FU","city":"YAO SHI","town":"YUGECHO","perfecture_jp":"大阪府","jp_add_1":"八尾市","jp_add_2":"弓削町"},"5810034":{"post_code":"5810034","prefecture":"OSAKA FU","city":"YAO SHI","town":"YUGECHOMINAMI","perfecture_jp":"大阪府","jp_add_1":"八尾市","jp_add_2":"弓削町南"},"5810086":{"post_code":"5810086","prefecture":"OSAKA FU","city":"YAO SHI","town":"YOKOEN","perfecture_jp":"大阪府","jp_add_1":"八尾市","jp_add_2":"陽光園"},"5810069":{"post_code":"5810069","prefecture":"OSAKA FU","city":"YAO SHI","town":"RYUGECHO","perfecture_jp":"大阪府","jp_add_1":"八尾市","jp_add_2":"龍華町"},"5810011":{"post_code":"5810011","prefecture":"OSAKA FU","city":"YAO SHI","town":"WAKAKUSACHO","perfecture_jp":"大阪府","jp_add_1":"八尾市","jp_add_2":"若草町"},"5810038":{"post_code":"5810038","prefecture":"OSAKA FU","city":"YAO SHI","town":"WAKABAYASHICHO","perfecture_jp":"大阪府","jp_add_1":"八尾市","jp_add_2":"若林町"}}