{"5820000":{"post_code":"5820000","prefecture":"OSAKA FU","city":"KASHIWARA SHI","town":"IKANIKEISAIGANAIBAAI","perfecture_jp":"大阪府","jp_add_1":"柏原市","jp_add_2":""},"5820014":{"post_code":"5820014","prefecture":"OSAKA FU","city":"KASHIWARA SHI","town":"AOTANI","perfecture_jp":"大阪府","jp_add_1":"柏原市","jp_add_2":"青谷"},"5820026":{"post_code":"5820026","prefecture":"OSAKA FU","city":"KASHIWARA SHI","town":"ASAHIGAOKA","perfecture_jp":"大阪府","jp_add_1":"柏原市","jp_add_2":"旭ケ丘"},"5820016":{"post_code":"5820016","prefecture":"OSAKA FU","city":"KASHIWARA SHI","town":"ANDOCHO","perfecture_jp":"大阪府","jp_add_1":"柏原市","jp_add_2":"安堂町"},"5820029":{"post_code":"5820029","prefecture":"OSAKA FU","city":"KASHIWARA SHI","town":"ISHIKAWACHO","perfecture_jp":"大阪府","jp_add_1":"柏原市","jp_add_2":"石川町"},"5820002":{"post_code":"5820002","prefecture":"OSAKA FU","city":"KASHIWARA SHI","town":"IMAMACHI","perfecture_jp":"大阪府","jp_add_1":"柏原市","jp_add_2":"今町"},"5820027":{"post_code":"5820027","prefecture":"OSAKA FU","city":"KASHIWARA SHI","town":"EMMYOCHO","perfecture_jp":"大阪府","jp_add_1":"柏原市","jp_add_2":"円明町"},"5820018":{"post_code":"5820018","prefecture":"OSAKA FU","city":"KASHIWARA SHI","town":"OGATA","perfecture_jp":"大阪府","jp_add_1":"柏原市","jp_add_2":"大県"},"5820020":{"post_code":"5820020","prefecture":"OSAKA FU","city":"KASHIWARA SHI","town":"KATAYAMACHO","perfecture_jp":"大阪府","jp_add_1":"柏原市","jp_add_2":"片山町"},"5820007":{"post_code":"5820007","prefecture":"OSAKA FU","city":"KASHIWARA SHI","town":"KAMIICHI","perfecture_jp":"大阪府","jp_add_1":"柏原市","jp_add_2":"上市"},"5820012":{"post_code":"5820012","prefecture":"OSAKA FU","city":"KASHIWARA SHI","town":"KARINDOBATA","perfecture_jp":"大阪府","jp_add_1":"柏原市","jp_add_2":"雁多尾畑"},"5820004":{"post_code":"5820004","prefecture":"OSAKA FU","city":"KASHIWARA SHI","town":"KAWAHARACHO","perfecture_jp":"大阪府","jp_add_1":"柏原市","jp_add_2":"河原町"},"5820006":{"post_code":"5820006","prefecture":"OSAKA FU","city":"KASHIWARA SHI","town":"KIYOSU","perfecture_jp":"大阪府","jp_add_1":"柏原市","jp_add_2":"清州"},"5820022":{"post_code":"5820022","prefecture":"OSAKA FU","city":"KASHIWARA SHI","town":"KOKUBU ICHIBA","perfecture_jp":"大阪府","jp_add_1":"柏原市","jp_add_2":"国分市場"},"5820023":{"post_code":"5820023","prefecture":"OSAKA FU","city":"KASHIWARA SHI","town":"KOKUBU HIGANJOCHO","perfecture_jp":"大阪府","jp_add_1":"柏原市","jp_add_2":"国分東条町"},"5820021":{"post_code":"5820021","prefecture":"OSAKA FU","city":"KASHIWARA SHI","town":"KOKUBU HOMMACHI","perfecture_jp":"大阪府","jp_add_1":"柏原市","jp_add_2":"国分本町"},"5820025":{"post_code":"5820025","prefecture":"OSAKA FU","city":"KASHIWARA SHI","town":"KOKUBU NISHI","perfecture_jp":"大阪府","jp_add_1":"柏原市","jp_add_2":"国分西"},"5820009":{"post_code":"5820009","prefecture":"OSAKA FU","city":"KASHIWARA SHI","town":"TAISHO","perfecture_jp":"大阪府","jp_add_1":"柏原市","jp_add_2":"大正"},"5820017":{"post_code":"5820017","prefecture":"OSAKA FU","city":"KASHIWARA SHI","town":"TAIHEIJI","perfecture_jp":"大阪府","jp_add_1":"柏原市","jp_add_2":"太平寺"},"5820015":{"post_code":"5820015","prefecture":"OSAKA FU","city":"KASHIWARA SHI","town":"TAKAIDA","perfecture_jp":"大阪府","jp_add_1":"柏原市","jp_add_2":"高井田"},"5820024":{"post_code":"5820024","prefecture":"OSAKA FU","city":"KASHIWARA SHI","town":"TANABE","perfecture_jp":"大阪府","jp_add_1":"柏原市","jp_add_2":"田辺"},"5820028":{"post_code":"5820028","prefecture":"OSAKA FU","city":"KASHIWARA SHI","town":"TAMATECHO","perfecture_jp":"大阪府","jp_add_1":"柏原市","jp_add_2":"玉手町"},"5820013":{"post_code":"5820013","prefecture":"OSAKA FU","city":"KASHIWARA SHI","town":"TOGE","perfecture_jp":"大阪府","jp_add_1":"柏原市","jp_add_2":"峠"},"5820003":{"post_code":"5820003","prefecture":"OSAKA FU","city":"KASHIWARA SHI","town":"DOJIMACHO","perfecture_jp":"大阪府","jp_add_1":"柏原市","jp_add_2":"堂島町"},"5820019":{"post_code":"5820019","prefecture":"OSAKA FU","city":"KASHIWARA SHI","town":"HIRANO","perfecture_jp":"大阪府","jp_add_1":"柏原市","jp_add_2":"平野"},"5820008":{"post_code":"5820008","prefecture":"OSAKA FU","city":"KASHIWARA SHI","town":"FURUMACHI","perfecture_jp":"大阪府","jp_add_1":"柏原市","jp_add_2":"古町"},"5820005":{"post_code":"5820005","prefecture":"OSAKA FU","city":"KASHIWARA SHI","town":"HOZENJI","perfecture_jp":"大阪府","jp_add_1":"柏原市","jp_add_2":"法善寺"},"5820001":{"post_code":"5820001","prefecture":"OSAKA FU","city":"KASHIWARA SHI","town":"HONGO","perfecture_jp":"大阪府","jp_add_1":"柏原市","jp_add_2":"本郷"},"5820011":{"post_code":"5820011","prefecture":"OSAKA FU","city":"KASHIWARA SHI","town":"HONDO","perfecture_jp":"大阪府","jp_add_1":"柏原市","jp_add_2":"本堂"},"5820010":{"post_code":"5820010","prefecture":"OSAKA FU","city":"KASHIWARA SHI","town":"YAMANOICHO","perfecture_jp":"大阪府","jp_add_1":"柏原市","jp_add_2":"山ノ井町"}}