{"5840000":{"post_code":"5840000","prefecture":"OSAKA FU","city":"TONDABAYASHI SHI","town":"IKANIKEISAIGANAIBAAI","perfecture_jp":"大阪府","jp_add_1":"富田林市","jp_add_2":""},"5840076":{"post_code":"5840076","prefecture":"OSAKA FU","city":"TONDABAYASHI SHI","town":"AOBAOKA","perfecture_jp":"大阪府","jp_add_1":"富田林市","jp_add_2":"青葉丘"},"5840006":{"post_code":"5840006","prefecture":"OSAKA FU","city":"TONDABAYASHI SHI","town":"ASAHIGAOKACHO","perfecture_jp":"大阪府","jp_add_1":"富田林市","jp_add_2":"旭ケ丘町"},"5840012":{"post_code":"5840012","prefecture":"OSAKA FU","city":"TONDABAYASHI SHI","town":"AWAGAIKECHO","perfecture_jp":"大阪府","jp_add_1":"富田林市","jp_add_2":"粟ケ池町"},"5840001":{"post_code":"5840001","prefecture":"OSAKA FU","city":"TONDABAYASHI SHI","town":"UMENOSATO","perfecture_jp":"大阪府","jp_add_1":"富田林市","jp_add_2":"梅の里"},"5840056":{"post_code":"5840056","prefecture":"OSAKA FU","city":"TONDABAYASHI SHI","town":"URESHI","perfecture_jp":"大阪府","jp_add_1":"富田林市","jp_add_2":"嬉"},"5840095":{"post_code":"5840095","prefecture":"OSAKA FU","city":"TONDABAYASHI SHI","town":"EBITANI","perfecture_jp":"大阪府","jp_add_1":"富田林市","jp_add_2":"毛人谷"},"5840058":{"post_code":"5840058","prefecture":"OSAKA FU","city":"TONDABAYASHI SHI","town":"OCHIKATA","perfecture_jp":"大阪府","jp_add_1":"富田林市","jp_add_2":"彼方"},"5840040":{"post_code":"5840040","prefecture":"OSAKA FU","city":"TONDABAYASHI SHI","town":"KAGARIDAI","perfecture_jp":"大阪府","jp_add_1":"富田林市","jp_add_2":"かがり台"},"5840078":{"post_code":"5840078","prefecture":"OSAKA FU","city":"TONDABAYASHI SHI","town":"KADA","perfecture_jp":"大阪府","jp_add_1":"富田林市","jp_add_2":"加太"},"5840014":{"post_code":"5840014","prefecture":"OSAKA FU","city":"TONDABAYASHI SHI","town":"KAWAZURACHO","perfecture_jp":"大阪府","jp_add_1":"富田林市","jp_add_2":"川面町"},"5840049":{"post_code":"5840049","prefecture":"OSAKA FU","city":"TONDABAYASHI SHI","town":"KAWAMUKAICHO","perfecture_jp":"大阪府","jp_add_1":"富田林市","jp_add_2":"川向町"},"5840054":{"post_code":"5840054","prefecture":"OSAKA FU","city":"TONDABAYASHI SHI","town":"KANNABI","perfecture_jp":"大阪府","jp_add_1":"富田林市","jp_add_2":"甘南備"},"5840008":{"post_code":"5840008","prefecture":"OSAKA FU","city":"TONDABAYASHI SHI","town":"KISHI","perfecture_jp":"大阪府","jp_add_1":"富田林市","jp_add_2":"喜志"},"5840003":{"post_code":"5840003","prefecture":"OSAKA FU","city":"TONDABAYASHI SHI","town":"KISHISHINKECHO","perfecture_jp":"大阪府","jp_add_1":"富田林市","jp_add_2":"喜志新家町"},"5840005":{"post_code":"5840005","prefecture":"OSAKA FU","city":"TONDABAYASHI SHI","town":"KISHICHO","perfecture_jp":"大阪府","jp_add_1":"富田林市","jp_add_2":"喜志町"},"5840042":{"post_code":"5840042","prefecture":"OSAKA FU","city":"TONDABAYASHI SHI","town":"KITAOTOMOCHO","perfecture_jp":"大阪府","jp_add_1":"富田林市","jp_add_2":"北大伴町"},"5840004":{"post_code":"5840004","prefecture":"OSAKA FU","city":"TONDABAYASHI SHI","town":"KIDOYAMACHO","perfecture_jp":"大阪府","jp_add_1":"富田林市","jp_add_2":"木戸山町"},"5840041":{"post_code":"5840041","prefecture":"OSAKA FU","city":"TONDABAYASHI SHI","town":"KUSUNOKICHO","perfecture_jp":"大阪府","jp_add_1":"富田林市","jp_add_2":"楠町"},"5840074":{"post_code":"5840074","prefecture":"OSAKA FU","city":"TONDABAYASHI SHI","town":"KUNOKIDAI","perfecture_jp":"大阪府","jp_add_1":"富田林市","jp_add_2":"久野喜台"},"5840036":{"post_code":"5840036","prefecture":"OSAKA FU","city":"TONDABAYASHI SHI","town":"KODA","perfecture_jp":"大阪府","jp_add_1":"富田林市","jp_add_2":"甲田"},"5840082":{"post_code":"5840082","prefecture":"OSAKA FU","city":"TONDABAYASHI SHI","town":"KOYODAI","perfecture_jp":"大阪府","jp_add_1":"富田林市","jp_add_2":"向陽台"},"5840083":{"post_code":"5840083","prefecture":"OSAKA FU","city":"TONDABAYASHI SHI","town":"KOGANEDAI","perfecture_jp":"大阪府","jp_add_1":"富田林市","jp_add_2":"小金台"},"5840079":{"post_code":"5840079","prefecture":"OSAKA FU","city":"TONDABAYASHI SHI","town":"GOKENYA","perfecture_jp":"大阪府","jp_add_1":"富田林市","jp_add_2":"五軒家"},"5840031":{"post_code":"5840031","prefecture":"OSAKA FU","city":"TONDABAYASHI SHI","town":"KOTOBUKICHO","perfecture_jp":"大阪府","jp_add_1":"富田林市","jp_add_2":"寿町"},"5840070":{"post_code":"5840070","prefecture":"OSAKA FU","city":"TONDABAYASHI SHI","town":"KONGONISHIKIORIDAI","perfecture_jp":"大阪府","jp_add_1":"富田林市","jp_add_2":"金剛錦織台"},"5840065":{"post_code":"5840065","prefecture":"OSAKA FU","city":"TONDABAYASHI SHI","town":"KONGOFUSHIYAMADAI","perfecture_jp":"大阪府","jp_add_1":"富田林市","jp_add_2":"金剛伏山台"},"5840015":{"post_code":"5840015","prefecture":"OSAKA FU","city":"TONDABAYASHI SHI","town":"SAIJOCHO","perfecture_jp":"大阪府","jp_add_1":"富田林市","jp_add_2":"西条町"},"5840013":{"post_code":"5840013","prefecture":"OSAKA FU","city":"TONDABAYASHI SHI","town":"SAKURAICHO","perfecture_jp":"大阪府","jp_add_1":"富田林市","jp_add_2":"桜井町"},"5840084":{"post_code":"5840084","prefecture":"OSAKA FU","city":"TONDABAYASHI SHI","town":"SAKURAGAOKACHO","perfecture_jp":"大阪府","jp_add_1":"富田林市","jp_add_2":"桜ケ丘町"},"5840052":{"post_code":"5840052","prefecture":"OSAKA FU","city":"TONDABAYASHI SHI","town":"SABI","perfecture_jp":"大阪府","jp_add_1":"富田林市","jp_add_2":"佐備"},"5840034":{"post_code":"5840034","prefecture":"OSAKA FU","city":"TONDABAYASHI SHI","town":"SHIMIZUCHO","perfecture_jp":"大阪府","jp_add_1":"富田林市","jp_add_2":"清水町"},"5840092":{"post_code":"5840092","prefecture":"OSAKA FU","city":"TONDABAYASHI SHI","town":"SHOWACHO","perfecture_jp":"大阪府","jp_add_1":"富田林市","jp_add_2":"昭和町"},"5840077":{"post_code":"5840077","prefecture":"OSAKA FU","city":"TONDABAYASHI SHI","town":"SHINAOBAOKACHO","perfecture_jp":"大阪府","jp_add_1":"富田林市","jp_add_2":"新青葉丘町"},"5840085":{"post_code":"5840085","prefecture":"OSAKA FU","city":"TONDABAYASHI SHI","town":"SHINKE","perfecture_jp":"大阪府","jp_add_1":"富田林市","jp_add_2":"新家"},"5840091":{"post_code":"5840091","prefecture":"OSAKA FU","city":"TONDABAYASHI SHI","town":"SHINDO","perfecture_jp":"大阪府","jp_add_1":"富田林市","jp_add_2":"新堂"},"5840062":{"post_code":"5840062","prefecture":"OSAKA FU","city":"TONDABAYASHI SHI","town":"SUGA","perfecture_jp":"大阪府","jp_add_1":"富田林市","jp_add_2":"須賀"},"5840072":{"post_code":"5840072","prefecture":"OSAKA FU","city":"TONDABAYASHI SHI","town":"TAKABEDAI","perfecture_jp":"大阪府","jp_add_1":"富田林市","jp_add_2":"高辺台"},"5840035":{"post_code":"5840035","prefecture":"OSAKA FU","city":"TONDABAYASHI SHI","town":"TANIGAWACHO","perfecture_jp":"大阪府","jp_add_1":"富田林市","jp_add_2":"谷川町"},"5840016":{"post_code":"5840016","prefecture":"OSAKA FU","city":"TONDABAYASHI SHI","town":"TSUHOJICHO","perfecture_jp":"大阪府","jp_add_1":"富田林市","jp_add_2":"通法寺町"},"5840081":{"post_code":"5840081","prefecture":"OSAKA FU","city":"TONDABAYASHI SHI","town":"TSUZUYAMA","perfecture_jp":"大阪府","jp_add_1":"富田林市","jp_add_2":"廿山"},"5840086":{"post_code":"5840086","prefecture":"OSAKA FU","city":"TONDABAYASHI SHI","town":"TSUZUYAMADAI","perfecture_jp":"大阪府","jp_add_1":"富田林市","jp_add_2":"津々山台"},"5840073":{"post_code":"5840073","prefecture":"OSAKA FU","city":"TONDABAYASHI SHI","town":"TERAIKEDAI","perfecture_jp":"大阪府","jp_add_1":"富田林市","jp_add_2":"寺池台"},"5840032":{"post_code":"5840032","prefecture":"OSAKA FU","city":"TONDABAYASHI SHI","town":"TOKIWACHO","perfecture_jp":"大阪府","jp_add_1":"富田林市","jp_add_2":"常盤町"},"5840033":{"post_code":"5840033","prefecture":"OSAKA FU","city":"TONDABAYASHI SHI","town":"TONDABAYASHICHO","perfecture_jp":"大阪府","jp_add_1":"富田林市","jp_add_2":"富田林町"},"5840027":{"post_code":"5840027","prefecture":"OSAKA FU","city":"TONDABAYASHI SHI","town":"NAKANO","perfecture_jp":"大阪府","jp_add_1":"富田林市","jp_add_2":"中野"},"5840021":{"post_code":"5840021","prefecture":"OSAKA FU","city":"TONDABAYASHI SHI","town":"NAKANOCHO","perfecture_jp":"大阪府","jp_add_1":"富田林市","jp_add_2":"中野町"},"5840022":{"post_code":"5840022","prefecture":"OSAKA FU","city":"TONDABAYASHI SHI","town":"NAKANOCHO HIGASHI","perfecture_jp":"大阪府","jp_add_1":"富田林市","jp_add_2":"中野町東"},"5840028":{"post_code":"5840028","prefecture":"OSAKA FU","city":"TONDABAYASHI SHI","town":"NAKANOCHO NISHI","perfecture_jp":"大阪府","jp_add_1":"富田林市","jp_add_2":"中野町西"},"5840051":{"post_code":"5840051","prefecture":"OSAKA FU","city":"TONDABAYASHI SHI","town":"NAMPUDAI","perfecture_jp":"大阪府","jp_add_1":"富田林市","jp_add_2":"楠風台"},"5840048":{"post_code":"5840048","prefecture":"OSAKA FU","city":"TONDABAYASHI SHI","town":"NISHIITAMOCHICHO","perfecture_jp":"大阪府","jp_add_1":"富田林市","jp_add_2":"西板持町"},"5840063":{"post_code":"5840063","prefecture":"OSAKA FU","city":"TONDABAYASHI SHI","town":"NISHIKIORI","perfecture_jp":"大阪府","jp_add_1":"富田林市","jp_add_2":"錦織"},"5840066":{"post_code":"5840066","prefecture":"OSAKA FU","city":"TONDABAYASHI SHI","town":"NISHIKIORI KITA","perfecture_jp":"大阪府","jp_add_1":"富田林市","jp_add_2":"錦織北"},"5840068":{"post_code":"5840068","prefecture":"OSAKA FU","city":"TONDABAYASHI SHI","town":"NISHIKIORI NAKA","perfecture_jp":"大阪府","jp_add_1":"富田林市","jp_add_2":"錦織中"},"5840069":{"post_code":"5840069","prefecture":"OSAKA FU","city":"TONDABAYASHI SHI","town":"NISHIKIORI HIGASHI","perfecture_jp":"大阪府","jp_add_1":"富田林市","jp_add_2":"錦織東"},"5840067":{"post_code":"5840067","prefecture":"OSAKA FU","city":"TONDABAYASHI SHI","town":"NISHIKIORI MINAMI","perfecture_jp":"大阪府","jp_add_1":"富田林市","jp_add_2":"錦織南"},"5840038":{"post_code":"5840038","prefecture":"OSAKA FU","city":"TONDABAYASHI SHI","town":"NISHIKIGAOKACHO","perfecture_jp":"大阪府","jp_add_1":"富田林市","jp_add_2":"錦ケ丘町"},"5840046":{"post_code":"5840046","prefecture":"OSAKA FU","city":"TONDABAYASHI SHI","town":"HIGASHIITAMOCHICHO","perfecture_jp":"大阪府","jp_add_1":"富田林市","jp_add_2":"東板持町"},"5840002":{"post_code":"5840002","prefecture":"OSAKA FU","city":"TONDABAYASHI SHI","town":"HIRACHO","perfecture_jp":"大阪府","jp_add_1":"富田林市","jp_add_2":"平町"},"5840055":{"post_code":"5840055","prefecture":"OSAKA FU","city":"TONDABAYASHI SHI","town":"FUSHIMIDO","perfecture_jp":"大阪府","jp_add_1":"富田林市","jp_add_2":"伏見堂"},"5840061":{"post_code":"5840061","prefecture":"OSAKA FU","city":"TONDABAYASHI SHI","town":"FUSHIYAMA","perfecture_jp":"大阪府","jp_add_1":"富田林市","jp_add_2":"伏山"},"5840071":{"post_code":"5840071","prefecture":"OSAKA FU","city":"TONDABAYASHI SHI","town":"FUJISAWADAI","perfecture_jp":"大阪府","jp_add_1":"富田林市","jp_add_2":"藤沢台"},"5840064":{"post_code":"5840064","prefecture":"OSAKA FU","city":"TONDABAYASHI SHI","town":"FUDOGAOKACHO","perfecture_jp":"大阪府","jp_add_1":"富田林市","jp_add_2":"不動ケ丘町"},"5840094":{"post_code":"5840094","prefecture":"OSAKA FU","city":"TONDABAYASHI SHI","town":"FUMIGAOKACHO","perfecture_jp":"大阪府","jp_add_1":"富田林市","jp_add_2":"富美ケ丘町"},"5840044":{"post_code":"5840044","prefecture":"OSAKA FU","city":"TONDABAYASHI SHI","town":"BETSUI","perfecture_jp":"大阪府","jp_add_1":"富田林市","jp_add_2":"別井"},"5840093":{"post_code":"5840093","prefecture":"OSAKA FU","city":"TONDABAYASHI SHI","town":"HOMMACHI","perfecture_jp":"大阪府","jp_add_1":"富田林市","jp_add_2":"本町"},"5840026":{"post_code":"5840026","prefecture":"OSAKA FU","city":"TONDABAYASHI SHI","town":"MIDORIGAOKACHO","perfecture_jp":"大阪府","jp_add_1":"富田林市","jp_add_2":"緑ケ丘町"},"5840007":{"post_code":"5840007","prefecture":"OSAKA FU","city":"TONDABAYASHI SHI","town":"MINAMIASAHIGAOKACHO","perfecture_jp":"大阪府","jp_add_1":"富田林市","jp_add_2":"南旭ケ丘町"},"5840043":{"post_code":"5840043","prefecture":"OSAKA FU","city":"TONDABAYASHI SHI","town":"MINAMIOTOMOCHO","perfecture_jp":"大阪府","jp_add_1":"富田林市","jp_add_2":"南大伴町"},"5840037":{"post_code":"5840037","prefecture":"OSAKA FU","city":"TONDABAYASHI SHI","town":"MIYAKODACHO","perfecture_jp":"大阪府","jp_add_1":"富田林市","jp_add_2":"宮甲田町"},"5840011":{"post_code":"5840011","prefecture":"OSAKA FU","city":"TONDABAYASHI SHI","town":"MIYACHO","perfecture_jp":"大阪府","jp_add_1":"富田林市","jp_add_2":"宮町"},"5840039":{"post_code":"5840039","prefecture":"OSAKA FU","city":"TONDABAYASHI SHI","town":"MIYAMADAI","perfecture_jp":"大阪府","jp_add_1":"富田林市","jp_add_2":"美山台"},"5840045":{"post_code":"5840045","prefecture":"OSAKA FU","city":"TONDABAYASHI SHI","town":"YAMACHUDACHO","perfecture_jp":"大阪府","jp_add_1":"富田林市","jp_add_2":"山中田町"},"5840047":{"post_code":"5840047","prefecture":"OSAKA FU","city":"TONDABAYASHI SHI","town":"YAMATECHO","perfecture_jp":"大阪府","jp_add_1":"富田林市","jp_add_2":"山手町"},"5840057":{"post_code":"5840057","prefecture":"OSAKA FU","city":"TONDABAYASHI SHI","town":"YOKOYAMA","perfecture_jp":"大阪府","jp_add_1":"富田林市","jp_add_2":"横山"},"5840053":{"post_code":"5840053","prefecture":"OSAKA FU","city":"TONDABAYASHI SHI","town":"RYUSEN","perfecture_jp":"大阪府","jp_add_1":"富田林市","jp_add_2":"龍泉"},"5840024":{"post_code":"5840024","prefecture":"OSAKA FU","city":"TONDABAYASHI SHI","town":"WAKAMATSUCHO","perfecture_jp":"大阪府","jp_add_1":"富田林市","jp_add_2":"若松町"},"5840023":{"post_code":"5840023","prefecture":"OSAKA FU","city":"TONDABAYASHI SHI","town":"WAKAMATSUCHO HIGASHI","perfecture_jp":"大阪府","jp_add_1":"富田林市","jp_add_2":"若松町東"},"5840025":{"post_code":"5840025","prefecture":"OSAKA FU","city":"TONDABAYASHI SHI","town":"WAKAMATSUCHO NISHI","perfecture_jp":"大阪府","jp_add_1":"富田林市","jp_add_2":"若松町西"}}