{"5850000":{"post_code":"5850000","prefecture":"OSAKA FU","city":"MINAMIKAWACHI GUN CHIHAYAAKASAKA MU","town":"IKANIKEISAIGANAIBAAI","perfecture_jp":"大阪府","jp_add_1":"南河内郡河南町","jp_add_2":""},"5850002":{"post_code":"5850002","prefecture":"OSAKA FU","city":"MINAMIKAWACHI GUN KANAN CHO","town":"ICHISUKA","perfecture_jp":"大阪府","jp_add_1":"南河内郡河南町","jp_add_2":"一須賀"},"5850012":{"post_code":"5850012","prefecture":"OSAKA FU","city":"MINAMIKAWACHI GUN KANAN CHO","town":"KANO","perfecture_jp":"大阪府","jp_add_1":"南河内郡河南町","jp_add_2":"加納"},"5850024":{"post_code":"5850024","prefecture":"OSAKA FU","city":"MINAMIKAWACHI GUN KANAN CHO","town":"KAMIKAWACHI","perfecture_jp":"大阪府","jp_add_1":"南河内郡河南町","jp_add_2":"上河内"},"5850035":{"post_code":"5850035","prefecture":"OSAKA FU","city":"MINAMIKAWACHI GUN KANAN CHO","town":"KANKOJI","perfecture_jp":"大阪府","jp_add_1":"南河内郡河南町","jp_add_2":"寛弘寺"},"5850034":{"post_code":"5850034","prefecture":"OSAKA FU","city":"MINAMIKAWACHI GUN KANAN CHO","town":"KOYAMA","perfecture_jp":"大阪府","jp_add_1":"南河内郡河南町","jp_add_2":"神山"},"5850025":{"post_code":"5850025","prefecture":"OSAKA FU","city":"MINAMIKAWACHI GUN KANAN CHO","town":"SAKURAZAKA","perfecture_jp":"大阪府","jp_add_1":"南河内郡河南町","jp_add_2":"さくら坂"},"5850027":{"post_code":"5850027","prefecture":"OSAKA FU","city":"MINAMIKAWACHI GUN KANAN CHO","town":"SAKURAZAKAMINAMI","perfecture_jp":"大阪府","jp_add_1":"南河内郡河南町","jp_add_2":"さくら坂南"},"5850023":{"post_code":"5850023","prefecture":"OSAKA FU","city":"MINAMIKAWACHI GUN KANAN CHO","town":"SHIMOKAWACHI","perfecture_jp":"大阪府","jp_add_1":"南河内郡河南町","jp_add_2":"下河内"},"5850014":{"post_code":"5850014","prefecture":"OSAKA FU","city":"MINAMIKAWACHI GUN KANAN CHO","town":"SHIRAKI","perfecture_jp":"大阪府","jp_add_1":"南河内郡河南町","jp_add_2":"白木"},"5850026":{"post_code":"5850026","prefecture":"OSAKA FU","city":"MINAMIKAWACHI GUN KANAN CHO","town":"SUZUMIDAI","perfecture_jp":"大阪府","jp_add_1":"南河内郡河南町","jp_add_2":"鈴美台"},"5850033":{"post_code":"5850033","prefecture":"OSAKA FU","city":"MINAMIKAWACHI GUN KANAN CHO","town":"SERYUTANI","perfecture_jp":"大阪府","jp_add_1":"南河内郡河南町","jp_add_2":"芹生谷"},"5850003":{"post_code":"5850003","prefecture":"OSAKA FU","city":"MINAMIKAWACHI GUN KANAN CHO","town":"DAIGATSUKA","perfecture_jp":"大阪府","jp_add_1":"南河内郡河南町","jp_add_2":"大ケ塚"},"5850005":{"post_code":"5850005","prefecture":"OSAKA FU","city":"MINAMIKAWACHI GUN KANAN CHO","town":"DAIHO","perfecture_jp":"大阪府","jp_add_1":"南河内郡河南町","jp_add_2":"大宝"},"5850011":{"post_code":"5850011","prefecture":"OSAKA FU","city":"MINAMIKAWACHI GUN KANAN CHO","town":"TERADA","perfecture_jp":"大阪府","jp_add_1":"南河内郡河南町","jp_add_2":"寺田"},"5850031":{"post_code":"5850031","prefecture":"OSAKA FU","city":"MINAMIKAWACHI GUN KANAN CHO","town":"NAKA","perfecture_jp":"大阪府","jp_add_1":"南河内郡河南町","jp_add_2":"中"},"5850006":{"post_code":"5850006","prefecture":"OSAKA FU","city":"MINAMIKAWACHI GUN KANAN CHO","town":"HAMURO","perfecture_jp":"大阪府","jp_add_1":"南河内郡河南町","jp_add_2":"葉室"},"5850001":{"post_code":"5850001","prefecture":"OSAKA FU","city":"MINAMIKAWACHI GUN KANAN CHO","town":"HIGASHIYAMA","perfecture_jp":"大阪府","jp_add_1":"南河内郡河南町","jp_add_2":"東山"},"5850013":{"post_code":"5850013","prefecture":"OSAKA FU","city":"MINAMIKAWACHI GUN KANAN CHO","town":"HIRAISHI","perfecture_jp":"大阪府","jp_add_1":"南河内郡河南町","jp_add_2":"平石"},"5850022":{"post_code":"5850022","prefecture":"OSAKA FU","city":"MINAMIKAWACHI GUN KANAN CHO","town":"HIROKAWA","perfecture_jp":"大阪府","jp_add_1":"南河内郡河南町","jp_add_2":"弘川"},"5850032":{"post_code":"5850032","prefecture":"OSAKA FU","city":"MINAMIKAWACHI GUN KANAN CHO","town":"MADANI","perfecture_jp":"大阪府","jp_add_1":"南河内郡河南町","jp_add_2":"馬谷"},"5850021":{"post_code":"5850021","prefecture":"OSAKA FU","city":"MINAMIKAWACHI GUN KANAN CHO","town":"MOCHIO","perfecture_jp":"大阪府","jp_add_1":"南河内郡河南町","jp_add_2":"持尾"},"5850004":{"post_code":"5850004","prefecture":"OSAKA FU","city":"MINAMIKAWACHI GUN KANAN CHO","town":"YAMASHIRO","perfecture_jp":"大阪府","jp_add_1":"南河内郡河南町","jp_add_2":"山城"},"5850055":{"post_code":"5850055","prefecture":"OSAKA FU","city":"MINAMIKAWACHI GUN CHIHAYAAKASAKA MU","town":"AZUMAZAKA","perfecture_jp":"大阪府","jp_add_1":"南河内郡千早赤阪村","jp_add_2":"東阪"},"5850045":{"post_code":"5850045","prefecture":"OSAKA FU","city":"MINAMIKAWACHI GUN CHIHAYAAKASAKA MU","town":"KAWANOBE","perfecture_jp":"大阪府","jp_add_1":"南河内郡千早赤阪村","jp_add_2":"川野辺"},"5850043":{"post_code":"5850043","prefecture":"OSAKA FU","city":"MINAMIKAWACHI GUN CHIHAYAAKASAKA MU","town":"KIRIYAMA","perfecture_jp":"大阪府","jp_add_1":"南河内郡千早赤阪村","jp_add_2":"桐山"},"5850053":{"post_code":"5850053","prefecture":"OSAKA FU","city":"MINAMIKAWACHI GUN CHIHAYAAKASAKA MU","town":"KOBUKI","perfecture_jp":"大阪府","jp_add_1":"南河内郡千早赤阪村","jp_add_2":"小吹"},"5850041":{"post_code":"5850041","prefecture":"OSAKA FU","city":"MINAMIKAWACHI GUN CHIHAYAAKASAKA MU","town":"SUIBUN","perfecture_jp":"大阪府","jp_add_1":"南河内郡千早赤阪村","jp_add_2":"水分"},"5850051":{"post_code":"5850051","prefecture":"OSAKA FU","city":"MINAMIKAWACHI GUN CHIHAYAAKASAKA MU","town":"CHIHAYA","perfecture_jp":"大阪府","jp_add_1":"南河内郡千早赤阪村","jp_add_2":"千早"},"5850052":{"post_code":"5850052","prefecture":"OSAKA FU","city":"MINAMIKAWACHI GUN CHIHAYAAKASAKA MU","town":"NAKATSUHARA","perfecture_jp":"大阪府","jp_add_1":"南河内郡千早赤阪村","jp_add_2":"中津原"},"5850042":{"post_code":"5850042","prefecture":"OSAKA FU","city":"MINAMIKAWACHI GUN CHIHAYAAKASAKA MU","town":"NIGARABE","perfecture_jp":"大阪府","jp_add_1":"南河内郡千早赤阪村","jp_add_2":"二河原辺"},"5850044":{"post_code":"5850044","prefecture":"OSAKA FU","city":"MINAMIKAWACHI GUN CHIHAYAAKASAKA MU","town":"MORIYA","perfecture_jp":"大阪府","jp_add_1":"南河内郡千早赤阪村","jp_add_2":"森屋"},"5850054":{"post_code":"5850054","prefecture":"OSAKA FU","city":"MINAMIKAWACHI GUN CHIHAYAAKASAKA MU","town":"YODOSHI","perfecture_jp":"大阪府","jp_add_1":"南河内郡千早赤阪村","jp_add_2":"吉年"}}