{"5870000":{"post_code":"5870000","prefecture":"OSAKA FU","city":"SAKAI SHI MIHARA KU","town":"IKANIKEISAIGANAIBAAI","perfecture_jp":"大阪府","jp_add_1":"堺市美原区","jp_add_2":""},"5870003":{"post_code":"5870003","prefecture":"OSAKA FU","city":"SAKAI SHI MIHARA KU","town":"AMI","perfecture_jp":"大阪府","jp_add_1":"堺市美原区","jp_add_2":"阿弥"},"5870066":{"post_code":"5870066","prefecture":"OSAKA FU","city":"SAKAI SHI MIHARA KU","town":"ISHIHARA","perfecture_jp":"大阪府","jp_add_1":"堺市美原区","jp_add_2":"石原"},"5870061":{"post_code":"5870061","prefecture":"OSAKA FU","city":"SAKAI SHI MIHARA KU","town":"IMAI","perfecture_jp":"大阪府","jp_add_1":"堺市美原区","jp_add_2":"今井"},"5870063":{"post_code":"5870063","prefecture":"OSAKA FU","city":"SAKAI SHI MIHARA KU","town":"OWAI","perfecture_jp":"大阪府","jp_add_1":"堺市美原区","jp_add_2":"大饗"},"5870051":{"post_code":"5870051","prefecture":"OSAKA FU","city":"SAKAI SHI MIHARA KU","town":"KITAAMABE","perfecture_jp":"大阪府","jp_add_1":"堺市美原区","jp_add_2":"北余部"},"5870053":{"post_code":"5870053","prefecture":"OSAKA FU","city":"SAKAI SHI MIHARA KU","town":"KITAAMABENISHI","perfecture_jp":"大阪府","jp_add_1":"堺市美原区","jp_add_2":"北余部西"},"5870002":{"post_code":"5870002","prefecture":"OSAKA FU","city":"SAKAI SHI MIHARA KU","town":"KUROYAMA","perfecture_jp":"大阪府","jp_add_1":"堺市美原区","jp_add_2":"黒山"},"5870065":{"post_code":"5870065","prefecture":"OSAKA FU","city":"SAKAI SHI MIHARA KU","town":"KODERA","perfecture_jp":"大阪府","jp_add_1":"堺市美原区","jp_add_2":"小寺"},"5870021":{"post_code":"5870021","prefecture":"OSAKA FU","city":"SAKAI SHI MIHARA KU","town":"KOBIRAO","perfecture_jp":"大阪府","jp_add_1":"堺市美原区","jp_add_2":"小平尾"},"5870031":{"post_code":"5870031","prefecture":"OSAKA FU","city":"SAKAI SHI MIHARA KU","town":"SATSUKINONISHI","perfecture_jp":"大阪府","jp_add_1":"堺市美原区","jp_add_2":"さつき野西"},"5870032":{"post_code":"5870032","prefecture":"OSAKA FU","city":"SAKAI SHI MIHARA KU","town":"SATSUKINOHIGASHI","perfecture_jp":"大阪府","jp_add_1":"堺市美原区","jp_add_2":"さつき野東"},"5870013":{"post_code":"5870013","prefecture":"OSAKA FU","city":"SAKAI SHI MIHARA KU","town":"SHIMPUKUJI","perfecture_jp":"大阪府","jp_add_1":"堺市美原区","jp_add_2":"真福寺"},"5870041":{"post_code":"5870041","prefecture":"OSAKA FU","city":"SAKAI SHI MIHARA KU","town":"SUGO","perfecture_jp":"大阪府","jp_add_1":"堺市美原区","jp_add_2":"菅生"},"5870043":{"post_code":"5870043","prefecture":"OSAKA FU","city":"SAKAI SHI MIHARA KU","town":"SEINANDAI","perfecture_jp":"大阪府","jp_add_1":"堺市美原区","jp_add_2":"青南台"},"5870062":{"post_code":"5870062","prefecture":"OSAKA FU","city":"SAKAI SHI MIHARA KU","town":"TAI","perfecture_jp":"大阪府","jp_add_1":"堺市美原区","jp_add_2":"太井"},"5870001":{"post_code":"5870001","prefecture":"OSAKA FU","city":"SAKAI SHI MIHARA KU","town":"DAIHO","perfecture_jp":"大阪府","jp_add_1":"堺市美原区","jp_add_2":"大保"},"5870012":{"post_code":"5870012","prefecture":"OSAKA FU","city":"SAKAI SHI MIHARA KU","town":"TAJII","perfecture_jp":"大阪府","jp_add_1":"堺市美原区","jp_add_2":"多治井"},"5870011":{"post_code":"5870011","prefecture":"OSAKA FU","city":"SAKAI SHI MIHARA KU","town":"TANJO","perfecture_jp":"大阪府","jp_add_1":"堺市美原区","jp_add_2":"丹上"},"5870014":{"post_code":"5870014","prefecture":"OSAKA FU","city":"SAKAI SHI MIHARA KU","town":"TANNAN","perfecture_jp":"大阪府","jp_add_1":"堺市美原区","jp_add_2":"丹南"},"5870022":{"post_code":"5870022","prefecture":"OSAKA FU","city":"SAKAI SHI MIHARA KU","town":"HIRAO","perfecture_jp":"大阪府","jp_add_1":"堺市美原区","jp_add_2":"平尾"},"5870064":{"post_code":"5870064","prefecture":"OSAKA FU","city":"SAKAI SHI MIHARA KU","town":"BODAI","perfecture_jp":"大阪府","jp_add_1":"堺市美原区","jp_add_2":"菩提"},"5870052":{"post_code":"5870052","prefecture":"OSAKA FU","city":"SAKAI SHI MIHARA KU","town":"MINAMIAMABE","perfecture_jp":"大阪府","jp_add_1":"堺市美原区","jp_add_2":"南余部"},"5870054":{"post_code":"5870054","prefecture":"OSAKA FU","city":"SAKAI SHI MIHARA KU","town":"MINAMIAMABENISHI","perfecture_jp":"大阪府","jp_add_1":"堺市美原区","jp_add_2":"南余部西"},"5870042":{"post_code":"5870042","prefecture":"OSAKA FU","city":"SAKAI SHI MIHARA KU","town":"MOKUZAIDORI","perfecture_jp":"大阪府","jp_add_1":"堺市美原区","jp_add_2":"木材通"}}