{"5910000":{"post_code":"5910000","prefecture":"OSAKA FU","city":"SAKAI SHI KITA KU","town":"IKANIKEISAIGANAIBAAI","perfecture_jp":"大阪府","jp_add_1":"堺市北区","jp_add_2":""},"5918007":{"post_code":"5918007","prefecture":"OSAKA FU","city":"SAKAI SHI KITA KU","town":"OKUMOTOCHO","perfecture_jp":"大阪府","jp_add_1":"堺市北区","jp_add_2":"奥本町"},"5918022":{"post_code":"5918022","prefecture":"OSAKA FU","city":"SAKAI SHI KITA KU","town":"KANAOKACHO","perfecture_jp":"大阪府","jp_add_1":"堺市北区","jp_add_2":"金岡町"},"5918043":{"post_code":"5918043","prefecture":"OSAKA FU","city":"SAKAI SHI KITA KU","town":"KITANAGAOCHO","perfecture_jp":"大阪府","jp_add_1":"堺市北区","jp_add_2":"北長尾町"},"5918002":{"post_code":"5918002","prefecture":"OSAKA FU","city":"SAKAI SHI KITA KU","town":"KITAHANADACHO","perfecture_jp":"大阪府","jp_add_1":"堺市北区","jp_add_2":"北花田町"},"5918004":{"post_code":"5918004","prefecture":"OSAKA FU","city":"SAKAI SHI KITA KU","town":"KURAMAECHO","perfecture_jp":"大阪府","jp_add_1":"堺市北区","jp_add_2":"蔵前町"},"5918024":{"post_code":"5918024","prefecture":"OSAKA FU","city":"SAKAI SHI KITA KU","town":"KUROTSUCHICHO","perfecture_jp":"大阪府","jp_add_1":"堺市北区","jp_add_2":"黒土町"},"5918041":{"post_code":"5918041","prefecture":"OSAKA FU","city":"SAKAI SHI KITA KU","town":"SHINONOMEHIGASHIMACHI","perfecture_jp":"大阪府","jp_add_1":"堺市北区","jp_add_2":"東雲東町"},"5918021":{"post_code":"5918021","prefecture":"OSAKA FU","city":"SAKAI SHI KITA KU","town":"SHINKANAOKACHO","perfecture_jp":"大阪府","jp_add_1":"堺市北区","jp_add_2":"新金岡町"},"5918005":{"post_code":"5918005","prefecture":"OSAKA FU","city":"SAKAI SHI KITA KU","town":"SHIMBORICHO","perfecture_jp":"大阪府","jp_add_1":"堺市北区","jp_add_2":"新堀町"},"5918003":{"post_code":"5918003","prefecture":"OSAKA FU","city":"SAKAI SHI KITA KU","town":"SENDOCHO","perfecture_jp":"大阪府","jp_add_1":"堺市北区","jp_add_2":"船堂町"},"5918001":{"post_code":"5918001","prefecture":"OSAKA FU","city":"SAKAI SHI KITA KU","town":"TOKIWACHO","perfecture_jp":"大阪府","jp_add_1":"堺市北区","jp_add_2":"常磐町"},"5918025":{"post_code":"5918025","prefecture":"OSAKA FU","city":"SAKAI SHI KITA KU","town":"NAGASONECHO","perfecture_jp":"大阪府","jp_add_1":"堺市北区","jp_add_2":"長曽根町"},"5918044":{"post_code":"5918044","prefecture":"OSAKA FU","city":"SAKAI SHI KITA KU","town":"NAKANAGAOCHO","perfecture_jp":"大阪府","jp_add_1":"堺市北区","jp_add_2":"中長尾町"},"5918012":{"post_code":"5918012","prefecture":"OSAKA FU","city":"SAKAI SHI KITA KU","town":"NAKAMURACHO","perfecture_jp":"大阪府","jp_add_1":"堺市北区","jp_add_2":"中村町"},"5918023":{"post_code":"5918023","prefecture":"OSAKA FU","city":"SAKAI SHI KITA KU","town":"NAKAMOZUCHO","perfecture_jp":"大阪府","jp_add_1":"堺市北区","jp_add_2":"中百舌鳥町"},"5918013":{"post_code":"5918013","prefecture":"OSAKA FU","city":"SAKAI SHI KITA KU","town":"NOTOCHO","perfecture_jp":"大阪府","jp_add_1":"堺市北区","jp_add_2":"野遠町"},"5918008":{"post_code":"5918008","prefecture":"OSAKA FU","city":"SAKAI SHI KITA KU","town":"HIGASHIASAKAYAMACHO","perfecture_jp":"大阪府","jp_add_1":"堺市北区","jp_add_2":"東浅香山町"},"5918035":{"post_code":"5918035","prefecture":"OSAKA FU","city":"SAKAI SHI KITA KU","town":"HIGASHIUENOSHIBACHO(2-CHO)","perfecture_jp":"大阪府","jp_add_1":"堺市北区","jp_add_2":"東上野芝町"},"5918046":{"post_code":"5918046","prefecture":"OSAKA FU","city":"SAKAI SHI KITA KU","town":"HIGASHIMIKUNIGAOKACHO","perfecture_jp":"大阪府","jp_add_1":"堺市北区","jp_add_2":"東三国ケ丘町"},"5918042":{"post_code":"5918042","prefecture":"OSAKA FU","city":"SAKAI SHI KITA KU","town":"MAMEZUKACHO","perfecture_jp":"大阪府","jp_add_1":"堺市北区","jp_add_2":"大豆塚町"},"5918045":{"post_code":"5918045","prefecture":"OSAKA FU","city":"SAKAI SHI KITA KU","town":"MINAMINAGAOCHO","perfecture_jp":"大阪府","jp_add_1":"堺市北区","jp_add_2":"南長尾町"},"5918011":{"post_code":"5918011","prefecture":"OSAKA FU","city":"SAKAI SHI KITA KU","town":"MINAMIHANADACHO","perfecture_jp":"大阪府","jp_add_1":"堺市北区","jp_add_2":"南花田町"},"5918006":{"post_code":"5918006","prefecture":"OSAKA FU","city":"SAKAI SHI KITA KU","town":"MIYAMOTOCHO","perfecture_jp":"大阪府","jp_add_1":"堺市北区","jp_add_2":"宮本町"},"5918037":{"post_code":"5918037","prefecture":"OSAKA FU","city":"SAKAI SHI KITA KU","town":"MOZUAKAHATACHO","perfecture_jp":"大阪府","jp_add_1":"堺市北区","jp_add_2":"百舌鳥赤畑町"},"5918031":{"post_code":"5918031","prefecture":"OSAKA FU","city":"SAKAI SHI KITA KU","town":"MOZUMEKITACHO","perfecture_jp":"大阪府","jp_add_1":"堺市北区","jp_add_2":"百舌鳥梅北町"},"5918032":{"post_code":"5918032","prefecture":"OSAKA FU","city":"SAKAI SHI KITA KU","town":"MOZUMEMACHI","perfecture_jp":"大阪府","jp_add_1":"堺市北区","jp_add_2":"百舌鳥梅町"},"5918033":{"post_code":"5918033","prefecture":"OSAKA FU","city":"SAKAI SHI KITA KU","town":"MOZUNISHINOCHO","perfecture_jp":"大阪府","jp_add_1":"堺市北区","jp_add_2":"百舌鳥西之町"},"5918036":{"post_code":"5918036","prefecture":"OSAKA FU","city":"SAKAI SHI KITA KU","town":"MOZUHOMMACHI","perfecture_jp":"大阪府","jp_add_1":"堺市北区","jp_add_2":"百舌鳥本町"},"5918034":{"post_code":"5918034","prefecture":"OSAKA FU","city":"SAKAI SHI KITA KU","town":"MOZURYONANCHO","perfecture_jp":"大阪府","jp_add_1":"堺市北区","jp_add_2":"百舌鳥陵南町"},"5918014":{"post_code":"5918014","prefecture":"OSAKA FU","city":"SAKAI SHI KITA KU","town":"YASHIMOKITA","perfecture_jp":"大阪府","jp_add_1":"堺市北区","jp_add_2":"八下北"}}