{"5940000":{"post_code":"5940000","prefecture":"OSAKA FU","city":"IZUMI SHI","town":"IKANIKEISAIGANAIBAAI","perfecture_jp":"大阪府","jp_add_1":"和泉市","jp_add_2":""},"5941153":{"post_code":"5941153","prefecture":"OSAKA FU","city":"IZUMI SHI","town":"AOBADAI","perfecture_jp":"大阪府","jp_add_1":"和泉市","jp_add_2":"青葉台"},"5940053":{"post_code":"5940053","prefecture":"OSAKA FU","city":"IZUMI SHI","town":"ASHIBECHO","perfecture_jp":"大阪府","jp_add_1":"和泉市","jp_add_2":"芦部町"},"5941157":{"post_code":"5941157","prefecture":"OSAKA FU","city":"IZUMI SHI","town":"AYUMINO","perfecture_jp":"大阪府","jp_add_1":"和泉市","jp_add_2":"あゆみ野"},"5940083":{"post_code":"5940083","prefecture":"OSAKA FU","city":"IZUMI SHI","town":"IKEGAMICHO","perfecture_jp":"大阪府","jp_add_1":"和泉市","jp_add_2":"池上町"},"5940032":{"post_code":"5940032","prefecture":"OSAKA FU","city":"IZUMI SHI","town":"IKEDASHIMOCHO","perfecture_jp":"大阪府","jp_add_1":"和泉市","jp_add_2":"池田下町"},"5940054":{"post_code":"5940054","prefecture":"OSAKA FU","city":"IZUMI SHI","town":"ICHIJOINCHO","perfecture_jp":"大阪府","jp_add_1":"和泉市","jp_add_2":"一条院町"},"5940072":{"post_code":"5940072","prefecture":"OSAKA FU","city":"IZUMI SHI","town":"INOKUCHICHO","perfecture_jp":"大阪府","jp_add_1":"和泉市","jp_add_2":"井ノ口町"},"5940041":{"post_code":"5940041","prefecture":"OSAKA FU","city":"IZUMI SHI","town":"IBUKINO","perfecture_jp":"大阪府","jp_add_1":"和泉市","jp_add_2":"いぶき野"},"5940063":{"post_code":"5940063","prefecture":"OSAKA FU","city":"IZUMI SHI","town":"IMAFUKUCHO","perfecture_jp":"大阪府","jp_add_1":"和泉市","jp_add_2":"今福町"},"5940011":{"post_code":"5940011","prefecture":"OSAKA FU","city":"IZUMI SHI","town":"UEDAICHO","perfecture_jp":"大阪府","jp_add_1":"和泉市","jp_add_2":"上代町"},"5941156":{"post_code":"5941156","prefecture":"OSAKA FU","city":"IZUMI SHI","town":"UCHIDACHO","perfecture_jp":"大阪府","jp_add_1":"和泉市","jp_add_2":"内田町"},"5941103":{"post_code":"5941103","prefecture":"OSAKA FU","city":"IZUMI SHI","town":"URADACHO","perfecture_jp":"大阪府","jp_add_1":"和泉市","jp_add_2":"浦田町"},"5940004":{"post_code":"5940004","prefecture":"OSAKA FU","city":"IZUMI SHI","town":"OJICHO","perfecture_jp":"大阪府","jp_add_1":"和泉市","jp_add_2":"王子町"},"5941134":{"post_code":"5941134","prefecture":"OSAKA FU","city":"IZUMI SHI","town":"ONOCHO","perfecture_jp":"大阪府","jp_add_1":"和泉市","jp_add_2":"大野町"},"5941128":{"post_code":"5941128","prefecture":"OSAKA FU","city":"IZUMI SHI","town":"OKACHO","perfecture_jp":"大阪府","jp_add_1":"和泉市","jp_add_2":"岡町"},"5940074":{"post_code":"5940074","prefecture":"OSAKA FU","city":"IZUMI SHI","town":"ODACHO","perfecture_jp":"大阪府","jp_add_1":"和泉市","jp_add_2":"小田町"},"5940006":{"post_code":"5940006","prefecture":"OSAKA FU","city":"IZUMI SHI","town":"ONOICHO","perfecture_jp":"大阪府","jp_add_1":"和泉市","jp_add_2":"尾井町"},"5941127":{"post_code":"5941127","prefecture":"OSAKA FU","city":"IZUMI SHI","town":"ONODACHO","perfecture_jp":"大阪府","jp_add_1":"和泉市","jp_add_2":"小野田町"},"5940012":{"post_code":"5940012","prefecture":"OSAKA FU","city":"IZUMI SHI","town":"ONOCHO","perfecture_jp":"大阪府","jp_add_1":"和泉市","jp_add_2":"小野町"},"5941117":{"post_code":"5941117","prefecture":"OSAKA FU","city":"IZUMI SHI","town":"KAJIYACHO","perfecture_jp":"大阪府","jp_add_1":"和泉市","jp_add_2":"鍛治屋町"},"5940002":{"post_code":"5940002","prefecture":"OSAKA FU","city":"IZUMI SHI","town":"KAMICHO","perfecture_jp":"大阪府","jp_add_1":"和泉市","jp_add_2":"上町"},"5941151":{"post_code":"5941151","prefecture":"OSAKA FU","city":"IZUMI SHI","town":"KARAKUNICHO","perfecture_jp":"大阪府","jp_add_1":"和泉市","jp_add_2":"唐国町"},"5940065":{"post_code":"5940065","prefecture":"OSAKA FU","city":"IZUMI SHI","town":"KANNONJICHO","perfecture_jp":"大阪府","jp_add_1":"和泉市","jp_add_2":"観音寺町"},"5941122":{"post_code":"5941122","prefecture":"OSAKA FU","city":"IZUMI SHI","town":"KITADANAKACHO","perfecture_jp":"大阪府","jp_add_1":"和泉市","jp_add_2":"北田中町"},"5941126":{"post_code":"5941126","prefecture":"OSAKA FU","city":"IZUMI SHI","town":"KUKICHO","perfecture_jp":"大阪府","jp_add_1":"和泉市","jp_add_2":"九鬼町"},"5940081":{"post_code":"5940081","prefecture":"OSAKA FU","city":"IZUMI SHI","town":"KUZUNOHACHO","perfecture_jp":"大阪府","jp_add_1":"和泉市","jp_add_2":"葛の葉町"},"5941113":{"post_code":"5941113","prefecture":"OSAKA FU","city":"IZUMI SHI","town":"KUROISHICHO","perfecture_jp":"大阪府","jp_add_1":"和泉市","jp_add_2":"黒石町"},"5940022":{"post_code":"5940022","prefecture":"OSAKA FU","city":"IZUMI SHI","town":"KURODORICHO","perfecture_jp":"大阪府","jp_add_1":"和泉市","jp_add_2":"黒鳥町"},"5940066":{"post_code":"5940066","prefecture":"OSAKA FU","city":"IZUMI SHI","town":"KUWABARACHO","perfecture_jp":"大阪府","jp_add_1":"和泉市","jp_add_2":"桑原町"},"5941111":{"post_code":"5941111","prefecture":"OSAKA FU","city":"IZUMI SHI","town":"KOMYODAI","perfecture_jp":"大阪府","jp_add_1":"和泉市","jp_add_2":"光明台"},"5941114":{"post_code":"5941114","prefecture":"OSAKA FU","city":"IZUMI SHI","town":"KOKUBUCHO","perfecture_jp":"大阪府","jp_add_1":"和泉市","jp_add_2":"国分町"},"5940005":{"post_code":"5940005","prefecture":"OSAKA FU","city":"IZUMI SHI","town":"SAIWAI","perfecture_jp":"大阪府","jp_add_1":"和泉市","jp_add_2":"幸"},"5940052":{"post_code":"5940052","prefecture":"OSAKA FU","city":"IZUMI SHI","town":"SAKAMOTOCHO","perfecture_jp":"大阪府","jp_add_1":"和泉市","jp_add_2":"阪本町"},"5940021":{"post_code":"5940021","prefecture":"OSAKA FU","city":"IZUMI SHI","town":"SANSOCHO","perfecture_jp":"大阪府","jp_add_1":"和泉市","jp_add_2":"山荘町"},"5941121":{"post_code":"5941121","prefecture":"OSAKA FU","city":"IZUMI SHI","town":"SHIMONOMIYACHO","perfecture_jp":"大阪府","jp_add_1":"和泉市","jp_add_2":"下宮町"},"5941125":{"post_code":"5941125","prefecture":"OSAKA FU","city":"IZUMI SHI","town":"ZENSHOCHO","perfecture_jp":"大阪府","jp_add_1":"和泉市","jp_add_2":"善正町"},"5940003":{"post_code":"5940003","prefecture":"OSAKA FU","city":"IZUMI SHI","town":"TAICHO","perfecture_jp":"大阪府","jp_add_1":"和泉市","jp_add_2":"太町"},"5941132":{"post_code":"5941132","prefecture":"OSAKA FU","city":"IZUMI SHI","town":"CHICHIONICHO","perfecture_jp":"大阪府","jp_add_1":"和泉市","jp_add_2":"父鬼町"},"5941135":{"post_code":"5941135","prefecture":"OSAKA FU","city":"IZUMI SHI","town":"TSUBOICHO","perfecture_jp":"大阪府","jp_add_1":"和泉市","jp_add_2":"坪井町"},"5940013":{"post_code":"5940013","prefecture":"OSAKA FU","city":"IZUMI SHI","town":"TSURUYAMADAI","perfecture_jp":"大阪府","jp_add_1":"和泉市","jp_add_2":"鶴山台"},"5941144":{"post_code":"5941144","prefecture":"OSAKA FU","city":"IZUMI SHI","town":"TEKUNOSUTEJI","perfecture_jp":"大阪府","jp_add_1":"和泉市","jp_add_2":"テクノステージ"},"5940064":{"post_code":"5940064","prefecture":"OSAKA FU","city":"IZUMI SHI","town":"TERAKADOCHO","perfecture_jp":"大阪府","jp_add_1":"和泉市","jp_add_2":"寺門町"},"5940062":{"post_code":"5940062","prefecture":"OSAKA FU","city":"IZUMI SHI","town":"TERADACHO","perfecture_jp":"大阪府","jp_add_1":"和泉市","jp_add_2":"寺田町"},"5940082":{"post_code":"5940082","prefecture":"OSAKA FU","city":"IZUMI SHI","town":"TOMIAKICHO","perfecture_jp":"大阪府","jp_add_1":"和泉市","jp_add_2":"富秋町"},"5941124":{"post_code":"5941124","prefecture":"OSAKA FU","city":"IZUMI SHI","town":"NAMERICHO","perfecture_jp":"大阪府","jp_add_1":"和泉市","jp_add_2":"南面利町"},"5941116":{"post_code":"5941116","prefecture":"OSAKA FU","city":"IZUMI SHI","town":"NOKECHO","perfecture_jp":"大阪府","jp_add_1":"和泉市","jp_add_2":"納花町"},"5941105":{"post_code":"5941105","prefecture":"OSAKA FU","city":"IZUMI SHI","town":"NOZOMINO","perfecture_jp":"大阪府","jp_add_1":"和泉市","jp_add_2":"のぞみ野"},"5940023":{"post_code":"5940023","prefecture":"OSAKA FU","city":"IZUMI SHI","town":"HAKATACHO","perfecture_jp":"大阪府","jp_add_1":"和泉市","jp_add_2":"伯太町"},"5941106":{"post_code":"5941106","prefecture":"OSAKA FU","city":"IZUMI SHI","town":"HATSUGANO","perfecture_jp":"大阪府","jp_add_1":"和泉市","jp_add_2":"はつが野"},"5941133":{"post_code":"5941133","prefecture":"OSAKA FU","city":"IZUMI SHI","town":"HARUKIGAWACHO","perfecture_jp":"大阪府","jp_add_1":"和泉市","jp_add_2":"春木川町"},"5941141":{"post_code":"5941141","prefecture":"OSAKA FU","city":"IZUMI SHI","town":"HARUKICHO","perfecture_jp":"大阪府","jp_add_1":"和泉市","jp_add_2":"春木町"},"5940075":{"post_code":"5940075","prefecture":"OSAKA FU","city":"IZUMI SHI","town":"HANWACHO","perfecture_jp":"大阪府","jp_add_1":"和泉市","jp_add_2":"繁和町"},"5940051":{"post_code":"5940051","prefecture":"OSAKA FU","city":"IZUMI SHI","town":"HIGASHISAKAMOTOCHO","perfecture_jp":"大阪府","jp_add_1":"和泉市","jp_add_2":"東阪本町"},"5940076":{"post_code":"5940076","prefecture":"OSAKA FU","city":"IZUMI SHI","town":"HIKOCHO","perfecture_jp":"大阪府","jp_add_1":"和泉市","jp_add_2":"肥子町"},"5941142":{"post_code":"5941142","prefecture":"OSAKA FU","city":"IZUMI SHI","town":"HISAICHO","perfecture_jp":"大阪府","jp_add_1":"和泉市","jp_add_2":"久井町"},"5941115":{"post_code":"5941115","prefecture":"OSAKA FU","city":"IZUMI SHI","town":"HIRAICHO","perfecture_jp":"大阪府","jp_add_1":"和泉市","jp_add_2":"平井町"},"5941123":{"post_code":"5941123","prefecture":"OSAKA FU","city":"IZUMI SHI","town":"FUKUZECHO","perfecture_jp":"大阪府","jp_add_1":"和泉市","jp_add_2":"福瀬町"},"5940031":{"post_code":"5940031","prefecture":"OSAKA FU","city":"IZUMI SHI","town":"FUSEYACHO","perfecture_jp":"大阪府","jp_add_1":"和泉市","jp_add_2":"伏屋町"},"5940071":{"post_code":"5940071","prefecture":"OSAKA FU","city":"IZUMI SHI","town":"FUCHUCHO","perfecture_jp":"大阪府","jp_add_1":"和泉市","jp_add_2":"府中町"},"5941136":{"post_code":"5941136","prefecture":"OSAKA FU","city":"IZUMI SHI","town":"BUTSUNAMICHO","perfecture_jp":"大阪府","jp_add_1":"和泉市","jp_add_2":"仏並町"},"5940001":{"post_code":"5940001","prefecture":"OSAKA FU","city":"IZUMI SHI","town":"MAICHO","perfecture_jp":"大阪府","jp_add_1":"和泉市","jp_add_2":"舞町"},"5941131":{"post_code":"5941131","prefecture":"OSAKA FU","city":"IZUMI SHI","town":"MAKIOSANCHO","perfecture_jp":"大阪府","jp_add_1":"和泉市","jp_add_2":"槇尾山町"},"5941154":{"post_code":"5941154","prefecture":"OSAKA FU","city":"IZUMI SHI","town":"MATSUOJICHO","perfecture_jp":"大阪府","jp_add_1":"和泉市","jp_add_2":"松尾寺町"},"5941152":{"post_code":"5941152","prefecture":"OSAKA FU","city":"IZUMI SHI","town":"MANABINO","perfecture_jp":"大阪府","jp_add_1":"和泉市","jp_add_2":"まなび野"},"5941104":{"post_code":"5941104","prefecture":"OSAKA FU","city":"IZUMI SHI","town":"MANCHO","perfecture_jp":"大阪府","jp_add_1":"和泉市","jp_add_2":"万町"},"5940042":{"post_code":"5940042","prefecture":"OSAKA FU","city":"IZUMI SHI","town":"MIGATACHO","perfecture_jp":"大阪府","jp_add_1":"和泉市","jp_add_2":"箕形町"},"5941118":{"post_code":"5941118","prefecture":"OSAKA FU","city":"IZUMI SHI","town":"MIZUKIDAI","perfecture_jp":"大阪府","jp_add_1":"和泉市","jp_add_2":"みずき台"},"5941155":{"post_code":"5941155","prefecture":"OSAKA FU","city":"IZUMI SHI","town":"MIDORIGAOKA","perfecture_jp":"大阪府","jp_add_1":"和泉市","jp_add_2":"緑ケ丘"},"5941112":{"post_code":"5941112","prefecture":"OSAKA FU","city":"IZUMI SHI","town":"MIBAYASHICHO","perfecture_jp":"大阪府","jp_add_1":"和泉市","jp_add_2":"三林町"},"5941101":{"post_code":"5941101","prefecture":"OSAKA FU","city":"IZUMI SHI","town":"MURODOCHO","perfecture_jp":"大阪府","jp_add_1":"和泉市","jp_add_2":"室堂町"},"5940061":{"post_code":"5940061","prefecture":"OSAKA FU","city":"IZUMI SHI","town":"YAYOICHO","perfecture_jp":"大阪府","jp_add_1":"和泉市","jp_add_2":"弥生町"},"5941143":{"post_code":"5941143","prefecture":"OSAKA FU","city":"IZUMI SHI","town":"WAKAKASHICHO","perfecture_jp":"大阪府","jp_add_1":"和泉市","jp_add_2":"若樫町"},"5940073":{"post_code":"5940073","prefecture":"OSAKA FU","city":"IZUMI SHI","town":"WAKECHO","perfecture_jp":"大阪府","jp_add_1":"和泉市","jp_add_2":"和気町"},"5941102":{"post_code":"5941102","prefecture":"OSAKA FU","city":"IZUMI SHI","town":"WADACHO","perfecture_jp":"大阪府","jp_add_1":"和泉市","jp_add_2":"和田町"}}