{"5950000":{"post_code":"5950000","prefecture":"OSAKA FU","city":"SEMBOKU GUN TADAOKA CHO","town":"IKANIKEISAIGANAIBAAI","perfecture_jp":"大阪府","jp_add_1":"泉大津市","jp_add_2":""},"5950053":{"post_code":"5950053","prefecture":"OSAKA FU","city":"IZUMIOTSU SHI","town":"AOBACHO","perfecture_jp":"大阪府","jp_add_1":"泉大津市","jp_add_2":"青葉町"},"5950025":{"post_code":"5950025","prefecture":"OSAKA FU","city":"IZUMIOTSU SHI","town":"ASAHICHO","perfecture_jp":"大阪府","jp_add_1":"泉大津市","jp_add_2":"旭町"},"5950032":{"post_code":"5950032","prefecture":"OSAKA FU","city":"IZUMIOTSU SHI","town":"ANADA","perfecture_jp":"大阪府","jp_add_1":"泉大津市","jp_add_2":"穴田"},"5950031":{"post_code":"5950031","prefecture":"OSAKA FU","city":"IZUMIOTSU SHI","town":"ABIKO","perfecture_jp":"大阪府","jp_add_1":"泉大津市","jp_add_2":"我孫子"},"5950001":{"post_code":"5950001","prefecture":"OSAKA FU","city":"IZUMIOTSU SHI","town":"AYAI","perfecture_jp":"大阪府","jp_add_1":"泉大津市","jp_add_2":"綾井"},"5950022":{"post_code":"5950022","prefecture":"OSAKA FU","city":"IZUMIOTSU SHI","town":"IKEURA","perfecture_jp":"大阪府","jp_add_1":"泉大津市","jp_add_2":"池浦"},"5950024":{"post_code":"5950024","prefecture":"OSAKA FU","city":"IZUMIOTSU SHI","town":"IKEURACHO","perfecture_jp":"大阪府","jp_add_1":"泉大津市","jp_add_2":"池浦町"},"5950017":{"post_code":"5950017","prefecture":"OSAKA FU","city":"IZUMIOTSU SHI","town":"IKEZONOCHO","perfecture_jp":"大阪府","jp_add_1":"泉大津市","jp_add_2":"池園町"},"5950033":{"post_code":"5950033","prefecture":"OSAKA FU","city":"IZUMIOTSU SHI","town":"ITAHARACHO","perfecture_jp":"大阪府","jp_add_1":"泉大津市","jp_add_2":"板原"},"5950046":{"post_code":"5950046","prefecture":"OSAKA FU","city":"IZUMIOTSU SHI","town":"UENOCHO","perfecture_jp":"大阪府","jp_add_1":"泉大津市","jp_add_2":"上之町"},"5950034":{"post_code":"5950034","prefecture":"OSAKA FU","city":"IZUMIOTSU SHI","town":"UDA","perfecture_jp":"大阪府","jp_add_1":"泉大津市","jp_add_2":"宇多"},"5950041":{"post_code":"5950041","prefecture":"OSAKA FU","city":"IZUMIOTSU SHI","town":"EBISUCHO","perfecture_jp":"大阪府","jp_add_1":"泉大津市","jp_add_2":"戎町"},"5950003":{"post_code":"5950003","prefecture":"OSAKA FU","city":"IZUMIOTSU SHI","town":"OICHIHARACHO","perfecture_jp":"大阪府","jp_add_1":"泉大津市","jp_add_2":"尾井千原町"},"5950074":{"post_code":"5950074","prefecture":"OSAKA FU","city":"IZUMIOTSU SHI","town":"OZUSHIMACHO","perfecture_jp":"大阪府","jp_add_1":"泉大津市","jp_add_2":"小津島町"},"5950061":{"post_code":"5950061","prefecture":"OSAKA FU","city":"IZUMIOTSU SHI","town":"KASUGACHO","perfecture_jp":"大阪府","jp_add_1":"泉大津市","jp_add_2":"春日町"},"5950028":{"post_code":"5950028","prefecture":"OSAKA FU","city":"IZUMIOTSU SHI","town":"KANAMEIKEJUTAKU","perfecture_jp":"大阪府","jp_add_1":"泉大津市","jp_add_2":"要池住宅"},"5950044":{"post_code":"5950044","prefecture":"OSAKA FU","city":"IZUMIOTSU SHI","town":"KAWAHARACHO","perfecture_jp":"大阪府","jp_add_1":"泉大津市","jp_add_2":"河原町"},"5950012":{"post_code":"5950012","prefecture":"OSAKA FU","city":"IZUMIOTSU SHI","town":"KITATOYONAKACHO","perfecture_jp":"大阪府","jp_add_1":"泉大津市","jp_add_2":"北豊中町"},"5950038":{"post_code":"5950038","prefecture":"OSAKA FU","city":"IZUMIOTSU SHI","town":"KUSUNOKICHONISHI","perfecture_jp":"大阪府","jp_add_1":"泉大津市","jp_add_2":"楠町西"},"5950039":{"post_code":"5950039","prefecture":"OSAKA FU","city":"IZUMIOTSU SHI","town":"KUSUNOKICHOHIGASHI","perfecture_jp":"大阪府","jp_add_1":"泉大津市","jp_add_2":"楠町東"},"5950027":{"post_code":"5950027","prefecture":"OSAKA FU","city":"IZUMIOTSU SHI","town":"GEJOCHO","perfecture_jp":"大阪府","jp_add_1":"泉大津市","jp_add_2":"下条町"},"5950014":{"post_code":"5950014","prefecture":"OSAKA FU","city":"IZUMIOTSU SHI","town":"KOTOBUKICHO","perfecture_jp":"大阪府","jp_add_1":"泉大津市","jp_add_2":"寿町"},"5950067":{"post_code":"5950067","prefecture":"OSAKA FU","city":"IZUMIOTSU SHI","town":"KOMATSUCHO","perfecture_jp":"大阪府","jp_add_1":"泉大津市","jp_add_2":"小松町"},"5950054":{"post_code":"5950054","prefecture":"OSAKA FU","city":"IZUMIOTSU SHI","town":"SHIOMICHO","perfecture_jp":"大阪府","jp_add_1":"泉大津市","jp_add_2":"汐見町"},"5950035":{"post_code":"5950035","prefecture":"OSAKA FU","city":"IZUMIOTSU SHI","town":"SHIKINAICHO","perfecture_jp":"大阪府","jp_add_1":"泉大津市","jp_add_2":"式内町"},"5950045":{"post_code":"5950045","prefecture":"OSAKA FU","city":"IZUMIOTSU SHI","town":"SHITANOCHO","perfecture_jp":"大阪府","jp_add_1":"泉大津市","jp_add_2":"下之町"},"5950026":{"post_code":"5950026","prefecture":"OSAKA FU","city":"IZUMIOTSU SHI","town":"SHINONOMECHO","perfecture_jp":"大阪府","jp_add_1":"泉大津市","jp_add_2":"東雲町"},"5950043":{"post_code":"5950043","prefecture":"OSAKA FU","city":"IZUMIOTSU SHI","town":"SHIMIZUCHO","perfecture_jp":"大阪府","jp_add_1":"泉大津市","jp_add_2":"清水町"},"5950016":{"post_code":"5950016","prefecture":"OSAKA FU","city":"IZUMIOTSU SHI","town":"JONANCHO","perfecture_jp":"大阪府","jp_add_1":"泉大津市","jp_add_2":"条南町"},"5950036":{"post_code":"5950036","prefecture":"OSAKA FU","city":"IZUMIOTSU SHI","town":"SHOWACHO","perfecture_jp":"大阪府","jp_add_1":"泉大津市","jp_add_2":"昭和町"},"5950073":{"post_code":"5950073","prefecture":"OSAKA FU","city":"IZUMIOTSU SHI","town":"SHIMMINATOCHO","perfecture_jp":"大阪府","jp_add_1":"泉大津市","jp_add_2":"新港町"},"5950064":{"post_code":"5950064","prefecture":"OSAKA FU","city":"IZUMIOTSU SHI","town":"SHIMMEICHO","perfecture_jp":"大阪府","jp_add_1":"泉大津市","jp_add_2":"神明町"},"5950002":{"post_code":"5950002","prefecture":"OSAKA FU","city":"IZUMIOTSU SHI","town":"SUEHIROCHO","perfecture_jp":"大阪府","jp_add_1":"泉大津市","jp_add_2":"末広町"},"5950066":{"post_code":"5950066","prefecture":"OSAKA FU","city":"IZUMIOTSU SHI","town":"SUGAHARACHO","perfecture_jp":"大阪府","jp_add_1":"泉大津市","jp_add_2":"菅原町"},"5950071":{"post_code":"5950071","prefecture":"OSAKA FU","city":"IZUMIOTSU SHI","town":"SUKEMATSUCHO","perfecture_jp":"大阪府","jp_add_1":"泉大津市","jp_add_2":"助松町"},"5950007":{"post_code":"5950007","prefecture":"OSAKA FU","city":"IZUMIOTSU SHI","town":"SUKEMATSUDANCHI","perfecture_jp":"大阪府","jp_add_1":"泉大津市","jp_add_2":"助松団地"},"5950011":{"post_code":"5950011","prefecture":"OSAKA FU","city":"IZUMIOTSU SHI","town":"MINAMISONE","perfecture_jp":"大阪府","jp_add_1":"泉大津市","jp_add_2":"曽根町"},"5950042":{"post_code":"5950042","prefecture":"OSAKA FU","city":"IZUMIOTSU SHI","town":"TAKATSUCHO","perfecture_jp":"大阪府","jp_add_1":"泉大津市","jp_add_2":"高津町"},"5950062":{"post_code":"5950062","prefecture":"OSAKA FU","city":"IZUMIOTSU SHI","town":"TANAKACHO","perfecture_jp":"大阪府","jp_add_1":"泉大津市","jp_add_2":"田中町"},"5950004":{"post_code":"5950004","prefecture":"OSAKA FU","city":"IZUMIOTSU SHI","town":"CHIHARACHO","perfecture_jp":"大阪府","jp_add_1":"泉大津市","jp_add_2":"千原町"},"5950023":{"post_code":"5950023","prefecture":"OSAKA FU","city":"IZUMIOTSU SHI","town":"TOYONAKACHO","perfecture_jp":"大阪府","jp_add_1":"泉大津市","jp_add_2":"豊中町"},"5950055":{"post_code":"5950055","prefecture":"OSAKA FU","city":"IZUMIOTSU SHI","town":"NAGISACHO","perfecture_jp":"大阪府","jp_add_1":"泉大津市","jp_add_2":"なぎさ町"},"5950052":{"post_code":"5950052","prefecture":"OSAKA FU","city":"IZUMIOTSU SHI","town":"NISHIMINATOCHO","perfecture_jp":"大阪府","jp_add_1":"泉大津市","jp_add_2":"西港町"},"5950006":{"post_code":"5950006","prefecture":"OSAKA FU","city":"IZUMIOTSU SHI","town":"HIGASHISUKEMATSUCHO","perfecture_jp":"大阪府","jp_add_1":"泉大津市","jp_add_2":"東助松町"},"5950021":{"post_code":"5950021","prefecture":"OSAKA FU","city":"IZUMIOTSU SHI","town":"HIGASHITOYONAKACHO","perfecture_jp":"大阪府","jp_add_1":"泉大津市","jp_add_2":"東豊中町"},"5950051":{"post_code":"5950051","prefecture":"OSAKA FU","city":"IZUMIOTSU SHI","town":"HIGASHIMINATOCHO","perfecture_jp":"大阪府","jp_add_1":"泉大津市","jp_add_2":"東港町"},"5950015":{"post_code":"5950015","prefecture":"OSAKA FU","city":"IZUMIOTSU SHI","town":"FUTSUTACHO","perfecture_jp":"大阪府","jp_add_1":"泉大津市","jp_add_2":"二田町"},"5950063":{"post_code":"5950063","prefecture":"OSAKA FU","city":"IZUMIOTSU SHI","town":"HOMMACHI","perfecture_jp":"大阪府","jp_add_1":"泉大津市","jp_add_2":"本町"},"5950072":{"post_code":"5950072","prefecture":"OSAKA FU","city":"IZUMIOTSU SHI","town":"MATSUNOHAMACHO","perfecture_jp":"大阪府","jp_add_1":"泉大津市","jp_add_2":"松之浜町"},"5950013":{"post_code":"5950013","prefecture":"OSAKA FU","city":"IZUMIOTSU SHI","town":"MIYACHO","perfecture_jp":"大阪府","jp_add_1":"泉大津市","jp_add_2":"宮町"},"5950037":{"post_code":"5950037","prefecture":"OSAKA FU","city":"IZUMIOTSU SHI","town":"MUSHITORICHO","perfecture_jp":"大阪府","jp_add_1":"泉大津市","jp_add_2":"虫取"},"5950005":{"post_code":"5950005","prefecture":"OSAKA FU","city":"IZUMIOTSU SHI","town":"MORICHO","perfecture_jp":"大阪府","jp_add_1":"泉大津市","jp_add_2":"森町"},"5950056":{"post_code":"5950056","prefecture":"OSAKA FU","city":"IZUMIOTSU SHI","town":"YUNAGICHO","perfecture_jp":"大阪府","jp_add_1":"泉大津市","jp_add_2":"夕凪町"},"5950075":{"post_code":"5950075","prefecture":"OSAKA FU","city":"IZUMIOTSU SHI","town":"RINKAICHO","perfecture_jp":"大阪府","jp_add_1":"泉大津市","jp_add_2":"臨海町"},"5950065":{"post_code":"5950065","prefecture":"OSAKA FU","city":"IZUMIOTSU SHI","town":"WAKAMIYACHO","perfecture_jp":"大阪府","jp_add_1":"泉大津市","jp_add_2":"若宮町"},"5950081":{"post_code":"5950081","prefecture":"OSAKA FU","city":"TAKAISHI SHI","town":"MINAMITAKASAGO","perfecture_jp":"大阪府","jp_add_1":"高石市","jp_add_2":"南高砂"},"5950803":{"post_code":"5950803","prefecture":"OSAKA FU","city":"SEMBOKU GUN TADAOKA CHO","town":"KITAIDE","perfecture_jp":"大阪府","jp_add_1":"泉北郡忠岡町","jp_add_2":"北出"},"5950802":{"post_code":"5950802","prefecture":"OSAKA FU","city":"SEMBOKU GUN TADAOKA CHO","town":"TAKATSUKIMINAMI","perfecture_jp":"大阪府","jp_add_1":"泉北郡忠岡町","jp_add_2":"高月南"},"5950801":{"post_code":"5950801","prefecture":"OSAKA FU","city":"SEMBOKU GUN TADAOKA CHO","town":"TAKATSUKIKITA","perfecture_jp":"大阪府","jp_add_1":"泉北郡忠岡町","jp_add_2":"高月北"},"5950812":{"post_code":"5950812","prefecture":"OSAKA FU","city":"SEMBOKU GUN TADAOKA CHO","town":"TADAOKANAKA","perfecture_jp":"大阪府","jp_add_1":"泉北郡忠岡町","jp_add_2":"忠岡中"},"5950805":{"post_code":"5950805","prefecture":"OSAKA FU","city":"SEMBOKU GUN TADAOKA CHO","town":"TADAOKAHIGASHI","perfecture_jp":"大阪府","jp_add_1":"泉北郡忠岡町","jp_add_2":"忠岡東"},"5950813":{"post_code":"5950813","prefecture":"OSAKA FU","city":"SEMBOKU GUN TADAOKA CHO","town":"TADAOKAMINAMI","perfecture_jp":"大阪府","jp_add_1":"泉北郡忠岡町","jp_add_2":"忠岡南"},"5950811":{"post_code":"5950811","prefecture":"OSAKA FU","city":"SEMBOKU GUN TADAOKA CHO","town":"TADAOKAKITA","perfecture_jp":"大阪府","jp_add_1":"泉北郡忠岡町","jp_add_2":"忠岡北"},"5950814":{"post_code":"5950814","prefecture":"OSAKA FU","city":"SEMBOKU GUN TADAOKA CHO","town":"NIIHAMA","perfecture_jp":"大阪府","jp_add_1":"泉北郡忠岡町","jp_add_2":"新浜"},"5950804":{"post_code":"5950804","prefecture":"OSAKA FU","city":"SEMBOKU GUN TADAOKA CHO","town":"MAZE","perfecture_jp":"大阪府","jp_add_1":"泉北郡忠岡町","jp_add_2":"馬瀬"}}