{"5970000":{"post_code":"5970000","prefecture":"OSAKA FU","city":"KAIZUKA SHI","town":"IKANIKEISAIGANAIBAAI","perfecture_jp":"大阪府","jp_add_1":"貝塚市","jp_add_2":""},"5970081":{"post_code":"5970081","prefecture":"OSAKA FU","city":"KAIZUKA SHI","town":"ASONAKA","perfecture_jp":"大阪府","jp_add_1":"貝塚市","jp_add_2":"麻生中"},"5970082":{"post_code":"5970082","prefecture":"OSAKA FU","city":"KAIZUKA SHI","town":"ISHIZAI","perfecture_jp":"大阪府","jp_add_1":"貝塚市","jp_add_2":"石才"},"5970083":{"post_code":"5970083","prefecture":"OSAKA FU","city":"KAIZUKA SHI","town":"UMIZUKA","perfecture_jp":"大阪府","jp_add_1":"貝塚市","jp_add_2":"海塚"},"5970061":{"post_code":"5970061","prefecture":"OSAKA FU","city":"KAIZUKA SHI","town":"URADA","perfecture_jp":"大阪府","jp_add_1":"貝塚市","jp_add_2":"浦田"},"5970051":{"post_code":"5970051","prefecture":"OSAKA FU","city":"KAIZUKA SHI","town":"OJI","perfecture_jp":"大阪府","jp_add_1":"貝塚市","jp_add_2":"王子"},"5970112":{"post_code":"5970112","prefecture":"OSAKA FU","city":"KAIZUKA SHI","town":"OKAWA","perfecture_jp":"大阪府","jp_add_1":"貝塚市","jp_add_2":"大川"},"5970074":{"post_code":"5970074","prefecture":"OSAKA FU","city":"KAIZUKA SHI","town":"KAJI","perfecture_jp":"大阪府","jp_add_1":"貝塚市","jp_add_2":"加治"},"5970071":{"post_code":"5970071","prefecture":"OSAKA FU","city":"KAIZUKA SHI","town":"KASHIN","perfecture_jp":"大阪府","jp_add_1":"貝塚市","jp_add_2":"加神"},"5970011":{"post_code":"5970011","prefecture":"OSAKA FU","city":"KAIZUKA SHI","town":"KITACHO","perfecture_jp":"大阪府","jp_add_1":"貝塚市","jp_add_2":"北町"},"5970113":{"post_code":"5970113","prefecture":"OSAKA FU","city":"KAIZUKA SHI","town":"KIBITANI","perfecture_jp":"大阪府","jp_add_1":"貝塚市","jp_add_2":"秬谷"},"5970031":{"post_code":"5970031","prefecture":"OSAKA FU","city":"KAIZUKA SHI","town":"KUBO","perfecture_jp":"大阪府","jp_add_1":"貝塚市","jp_add_2":"久保"},"5970052":{"post_code":"5970052","prefecture":"OSAKA FU","city":"KAIZUKA SHI","town":"KUBOTA","perfecture_jp":"大阪府","jp_add_1":"貝塚市","jp_add_2":"窪田"},"5970075":{"post_code":"5970075","prefecture":"OSAKA FU","city":"KAIZUKA SHI","town":"KOZAKI","perfecture_jp":"大阪府","jp_add_1":"貝塚市","jp_add_2":"神前"},"5970001":{"post_code":"5970001","prefecture":"OSAKA FU","city":"KAIZUKA SHI","town":"KOGICHO","perfecture_jp":"大阪府","jp_add_1":"貝塚市","jp_add_2":"近木"},"5970021":{"post_code":"5970021","prefecture":"OSAKA FU","city":"KAIZUKA SHI","town":"KOSE","perfecture_jp":"大阪府","jp_add_1":"貝塚市","jp_add_2":"小瀬"},"5970102":{"post_code":"5970102","prefecture":"OSAKA FU","city":"KAIZUKA SHI","town":"KOTSUMI","perfecture_jp":"大阪府","jp_add_1":"貝塚市","jp_add_2":"木積"},"5970062":{"post_code":"5970062","prefecture":"OSAKA FU","city":"KAIZUKA SHI","town":"SAWA","perfecture_jp":"大阪府","jp_add_1":"貝塚市","jp_add_2":"澤"},"5970107":{"post_code":"5970107","prefecture":"OSAKA FU","city":"KAIZUKA SHI","town":"JIZODO(611.695.732.675)","perfecture_jp":"大阪府","jp_add_1":"貝塚市","jp_add_2":"地蔵堂"},"5970053":{"post_code":"5970053","prefecture":"OSAKA FU","city":"KAIZUKA SHI","town":"JIZODO(SONOTA)","perfecture_jp":"大阪府","jp_add_1":"貝塚市","jp_add_2":"地蔵堂"},"5970002":{"post_code":"5970002","prefecture":"OSAKA FU","city":"KAIZUKA SHI","town":"SHIMMACHI","perfecture_jp":"大阪府","jp_add_1":"貝塚市","jp_add_2":"新町"},"5970041":{"post_code":"5970041","prefecture":"OSAKA FU","city":"KAIZUKA SHI","town":"SECHIGO","perfecture_jp":"大阪府","jp_add_1":"貝塚市","jp_add_2":"清児"},"5970111":{"post_code":"5970111","prefecture":"OSAKA FU","city":"KAIZUKA SHI","town":"SOBURA","perfecture_jp":"大阪府","jp_add_1":"貝塚市","jp_add_2":"蕎原"},"5970012":{"post_code":"5970012","prefecture":"OSAKA FU","city":"KAIZUKA SHI","town":"TSUDA","perfecture_jp":"大阪府","jp_add_1":"貝塚市","jp_add_2":"津田"},"5970014":{"post_code":"5970014","prefecture":"OSAKA FU","city":"KAIZUKA SHI","town":"TSUDA MINAMICHO","perfecture_jp":"大阪府","jp_add_1":"貝塚市","jp_add_2":"津田南町"},"5970013":{"post_code":"5970013","prefecture":"OSAKA FU","city":"KAIZUKA SHI","town":"TSUDA KITACHO","perfecture_jp":"大阪府","jp_add_1":"貝塚市","jp_add_2":"津田北町"},"5970054":{"post_code":"5970054","prefecture":"OSAKA FU","city":"KAIZUKA SHI","town":"TSUTSUMI","perfecture_jp":"大阪府","jp_add_1":"貝塚市","jp_add_2":"堤"},"5970084":{"post_code":"5970084","prefecture":"OSAKA FU","city":"KAIZUKA SHI","town":"TOBA","perfecture_jp":"大阪府","jp_add_1":"貝塚市","jp_add_2":"鳥羽"},"5970003":{"post_code":"5970003","prefecture":"OSAKA FU","city":"KAIZUKA SHI","town":"NAKA","perfecture_jp":"大阪府","jp_add_1":"貝塚市","jp_add_2":"中"},"5970032":{"post_code":"5970032","prefecture":"OSAKA FU","city":"KAIZUKA SHI","town":"NAGAYOSHI","perfecture_jp":"大阪府","jp_add_1":"貝塚市","jp_add_2":"永吉"},"5970042":{"post_code":"5970042","prefecture":"OSAKA FU","city":"KAIZUKA SHI","town":"NAGOSE","perfecture_jp":"大阪府","jp_add_1":"貝塚市","jp_add_2":"名越"},"5970022":{"post_code":"5970022","prefecture":"OSAKA FU","city":"KAIZUKA SHI","town":"NII","perfecture_jp":"大阪府","jp_add_1":"貝塚市","jp_add_2":"新井"},"5970091":{"post_code":"5970091","prefecture":"OSAKA FU","city":"KAIZUKA SHI","town":"NISHIKI","perfecture_jp":"大阪府","jp_add_1":"貝塚市","jp_add_2":"二色"},"5970093":{"post_code":"5970093","prefecture":"OSAKA FU","city":"KAIZUKA SHI","town":"NISHIKI NAKAMACHI","perfecture_jp":"大阪府","jp_add_1":"貝塚市","jp_add_2":"二色中町"},"5970063":{"post_code":"5970063","prefecture":"OSAKA FU","city":"KAIZUKA SHI","town":"NISHIKI MINATOMACHI","perfecture_jp":"大阪府","jp_add_1":"貝塚市","jp_add_2":"二色港町"},"5970094":{"post_code":"5970094","prefecture":"OSAKA FU","city":"KAIZUKA SHI","town":"NISHIKI MINAMIMACHI","perfecture_jp":"大阪府","jp_add_1":"貝塚市","jp_add_2":"二色南町"},"5970092":{"post_code":"5970092","prefecture":"OSAKA FU","city":"KAIZUKA SHI","town":"NISHIKI KITAMACHI","perfecture_jp":"大阪府","jp_add_1":"貝塚市","jp_add_2":"二色北町"},"5970004":{"post_code":"5970004","prefecture":"OSAKA FU","city":"KAIZUKA SHI","town":"NISHICHO","perfecture_jp":"大阪府","jp_add_1":"貝塚市","jp_add_2":"西町"},"5970043":{"post_code":"5970043","prefecture":"OSAKA FU","city":"KAIZUKA SHI","town":"HASHIMOTO","perfecture_jp":"大阪府","jp_add_1":"貝塚市","jp_add_2":"橋本"},"5970106":{"post_code":"5970106","prefecture":"OSAKA FU","city":"KAIZUKA SHI","town":"HATAKENAKA(632-1.633.642-3)","perfecture_jp":"大阪府","jp_add_1":"貝塚市","jp_add_2":"畠中"},"5970072":{"post_code":"5970072","prefecture":"OSAKA FU","city":"KAIZUKA SHI","town":"HATAKENAKA(SONOTA)","perfecture_jp":"大阪府","jp_add_1":"貝塚市","jp_add_2":"畠中"},"5970103":{"post_code":"5970103","prefecture":"OSAKA FU","city":"KAIZUKA SHI","town":"BABA","perfecture_jp":"大阪府","jp_add_1":"貝塚市","jp_add_2":"馬場"},"5970033":{"post_code":"5970033","prefecture":"OSAKA FU","city":"KAIZUKA SHI","town":"HANDA","perfecture_jp":"大阪府","jp_add_1":"貝塚市","jp_add_2":"半田"},"5970085":{"post_code":"5970085","prefecture":"OSAKA FU","city":"KAIZUKA SHI","town":"HIGASHI","perfecture_jp":"大阪府","jp_add_1":"貝塚市","jp_add_2":"東"},"5970046":{"post_code":"5970046","prefecture":"OSAKA FU","city":"KAIZUKA SHI","town":"HIGASHIYAMA","perfecture_jp":"大阪府","jp_add_1":"貝塚市","jp_add_2":"東山"},"5970023":{"post_code":"5970023","prefecture":"OSAKA FU","city":"KAIZUKA SHI","town":"FUKUDA","perfecture_jp":"大阪府","jp_add_1":"貝塚市","jp_add_2":"福田"},"5970015":{"post_code":"5970015","prefecture":"OSAKA FU","city":"KAIZUKA SHI","town":"HORI","perfecture_jp":"大阪府","jp_add_1":"貝塚市","jp_add_2":"堀"},"5970101":{"post_code":"5970101","prefecture":"OSAKA FU","city":"KAIZUKA SHI","town":"MIKEYAMA","perfecture_jp":"大阪府","jp_add_1":"貝塚市","jp_add_2":"三ケ山"},"5970104":{"post_code":"5970104","prefecture":"OSAKA FU","city":"KAIZUKA SHI","town":"MIZUMA","perfecture_jp":"大阪府","jp_add_1":"貝塚市","jp_add_2":"水間"},"5970045":{"post_code":"5970045","prefecture":"OSAKA FU","city":"KAIZUKA SHI","town":"-4.934-968.1013-1.1464-BANCHI)","perfecture_jp":"大阪府","jp_add_1":"貝塚市","jp_add_2":"三ツ松"},"5970105":{"post_code":"5970105","prefecture":"OSAKA FU","city":"KAIZUKA SHI","town":"MITSUMATSU(SONOTA)","perfecture_jp":"大阪府","jp_add_1":"貝塚市","jp_add_2":"三ツ松"},"5970095":{"post_code":"5970095","prefecture":"OSAKA FU","city":"KAIZUKA SHI","town":"MINATO","perfecture_jp":"大阪府","jp_add_1":"貝塚市","jp_add_2":"港"},"5970005":{"post_code":"5970005","prefecture":"OSAKA FU","city":"KAIZUKA SHI","town":"MINAMICHO","perfecture_jp":"大阪府","jp_add_1":"貝塚市","jp_add_2":"南町"},"5970044":{"post_code":"5970044","prefecture":"OSAKA FU","city":"KAIZUKA SHI","town":"MORI","perfecture_jp":"大阪府","jp_add_1":"貝塚市","jp_add_2":"森"},"5970073":{"post_code":"5970073","prefecture":"OSAKA FU","city":"KAIZUKA SHI","town":"WAKIHAMA","perfecture_jp":"大阪府","jp_add_1":"貝塚市","jp_add_2":"脇浜"}}