{"5990000":{"post_code":"5990000","prefecture":"OSAKA FU","city":"SAKAI SHI HIGASHI KU","town":"IKANIKEISAIGANAIBAAI","perfecture_jp":"大阪府","jp_add_1":"堺市中区","jp_add_2":""},"5998244":{"post_code":"5998244","prefecture":"OSAKA FU","city":"SAKAI SHI NAKA KU","town":"UENO","perfecture_jp":"大阪府","jp_add_1":"堺市中区","jp_add_2":"上之"},"5998233":{"post_code":"5998233","prefecture":"OSAKA FU","city":"SAKAI SHI NAKA KU","town":"ONOSHIBACHO","perfecture_jp":"大阪府","jp_add_1":"堺市中区","jp_add_2":"大野芝町"},"5998231":{"post_code":"5998231","prefecture":"OSAKA FU","city":"SAKAI SHI NAKA KU","town":"GAKUENCHO","perfecture_jp":"大阪府","jp_add_1":"堺市中区","jp_add_2":"学園町"},"5998266":{"post_code":"5998266","prefecture":"OSAKA FU","city":"SAKAI SHI NAKA KU","town":"KENACHO","perfecture_jp":"大阪府","jp_add_1":"堺市中区","jp_add_2":"毛穴町"},"5998276":{"post_code":"5998276","prefecture":"OSAKA FU","city":"SAKAI SHI NAKA KU","town":"KOSAKA","perfecture_jp":"大阪府","jp_add_1":"堺市中区","jp_add_2":"小阪"},"5998264":{"post_code":"5998264","prefecture":"OSAKA FU","city":"SAKAI SHI NAKA KU","town":"KOSAKANISHIMACHI","perfecture_jp":"大阪府","jp_add_1":"堺市中区","jp_add_2":"小阪西町"},"5998232":{"post_code":"5998232","prefecture":"OSAKA FU","city":"SAKAI SHI NAKA KU","town":"SHINKECHO","perfecture_jp":"大阪府","jp_add_1":"堺市中区","jp_add_2":"新家町"},"5998246":{"post_code":"5998246","prefecture":"OSAKA FU","city":"SAKAI SHI NAKA KU","town":"TAZONO","perfecture_jp":"大阪府","jp_add_1":"堺市中区","jp_add_2":"田園"},"5998245":{"post_code":"5998245","prefecture":"OSAKA FU","city":"SAKAI SHI NAKA KU","town":"TSUJINO","perfecture_jp":"大阪府","jp_add_1":"堺市中区","jp_add_2":"辻之"},"5998242":{"post_code":"5998242","prefecture":"OSAKA FU","city":"SAKAI SHI NAKA KU","town":"TOKIKITA","perfecture_jp":"大阪府","jp_add_1":"堺市中区","jp_add_2":"陶器北"},"5998234":{"post_code":"5998234","prefecture":"OSAKA FU","city":"SAKAI SHI NAKA KU","town":"DOTOCHO","perfecture_jp":"大阪府","jp_add_1":"堺市中区","jp_add_2":"土塔町"},"5998252":{"post_code":"5998252","prefecture":"OSAKA FU","city":"SAKAI SHI NAKA KU","town":"NARABA","perfecture_jp":"大阪府","jp_add_1":"堺市中区","jp_add_2":"楢葉"},"5998238":{"post_code":"5998238","prefecture":"OSAKA FU","city":"SAKAI SHI NAKA KU","town":"HAZECHO","perfecture_jp":"大阪府","jp_add_1":"堺市中区","jp_add_2":"土師町"},"5998267":{"post_code":"5998267","prefecture":"OSAKA FU","city":"SAKAI SHI NAKA KU","town":"HANDAIJICHO(SONOTA)","perfecture_jp":"大阪府","jp_add_1":"堺市中区","jp_add_2":"八田寺町"},"5998262":{"post_code":"5998262","prefecture":"OSAKA FU","city":"SAKAI SHI NAKA KU","town":"HANDAKITACHO","perfecture_jp":"大阪府","jp_add_1":"堺市中区","jp_add_2":"八田北町"},"5998265":{"post_code":"5998265","prefecture":"OSAKA FU","city":"SAKAI SHI NAKA KU","town":"HANDANISHIMACHI","perfecture_jp":"大阪府","jp_add_1":"堺市中区","jp_add_2":"八田西町"},"5998263":{"post_code":"5998263","prefecture":"OSAKA FU","city":"SAKAI SHI NAKA KU","town":"HANDAMINAMINOCHO","perfecture_jp":"大阪府","jp_add_1":"堺市中区","jp_add_2":"八田南之町"},"5998275":{"post_code":"5998275","prefecture":"OSAKA FU","city":"SAKAI SHI NAKA KU","town":"HIGASHIHANDA","perfecture_jp":"大阪府","jp_add_1":"堺市中区","jp_add_2":"東八田"},"5998247":{"post_code":"5998247","prefecture":"OSAKA FU","city":"SAKAI SHI NAKA KU","town":"HIGASHIYAMA","perfecture_jp":"大阪府","jp_add_1":"堺市中区","jp_add_2":"東山"},"5998251":{"post_code":"5998251","prefecture":"OSAKA FU","city":"SAKAI SHI NAKA KU","town":"HIRAI","perfecture_jp":"大阪府","jp_add_1":"堺市中区","jp_add_2":"平井"},"5998271":{"post_code":"5998271","prefecture":"OSAKA FU","city":"SAKAI SHI NAKA KU","town":"FUKAIKITAMACHI","perfecture_jp":"大阪府","jp_add_1":"堺市中区","jp_add_2":"深井北町"},"5998236":{"post_code":"5998236","prefecture":"OSAKA FU","city":"SAKAI SHI NAKA KU","town":"FUKAISAWAMACHI","perfecture_jp":"大阪府","jp_add_1":"堺市中区","jp_add_2":"深井沢町"},"5998273":{"post_code":"5998273","prefecture":"OSAKA FU","city":"SAKAI SHI NAKA KU","town":"FUKAISHIMIZUCHO","perfecture_jp":"大阪府","jp_add_1":"堺市中区","jp_add_2":"深井清水町"},"5998272":{"post_code":"5998272","prefecture":"OSAKA FU","city":"SAKAI SHI NAKA KU","town":"FUKAINAKAMACHI","perfecture_jp":"大阪府","jp_add_1":"堺市中区","jp_add_2":"深井中町"},"5998248":{"post_code":"5998248","prefecture":"OSAKA FU","city":"SAKAI SHI NAKA KU","town":"FUKAIHATAYAMACHO","perfecture_jp":"大阪府","jp_add_1":"堺市中区","jp_add_2":"深井畑山町"},"5998235":{"post_code":"5998235","prefecture":"OSAKA FU","city":"SAKAI SHI NAKA KU","town":"FUKAIHIGASHIMACHI","perfecture_jp":"大阪府","jp_add_1":"堺市中区","jp_add_2":"深井東町"},"5998237":{"post_code":"5998237","prefecture":"OSAKA FU","city":"SAKAI SHI NAKA KU","town":"FUKAIMIZUGAIKECHO","perfecture_jp":"大阪府","jp_add_1":"堺市中区","jp_add_2":"深井水池町"},"5998253":{"post_code":"5998253","prefecture":"OSAKA FU","city":"SAKAI SHI NAKA KU","town":"FUKASAKA","perfecture_jp":"大阪府","jp_add_1":"堺市中区","jp_add_2":"深阪"},"5998241":{"post_code":"5998241","prefecture":"OSAKA FU","city":"SAKAI SHI NAKA KU","town":"FUKUDA","perfecture_jp":"大阪府","jp_add_1":"堺市中区","jp_add_2":"福田"},"5998254":{"post_code":"5998254","prefecture":"OSAKA FU","city":"SAKAI SHI NAKA KU","town":"FUSEO","perfecture_jp":"大阪府","jp_add_1":"堺市中区","jp_add_2":"伏尾"},"5998261":{"post_code":"5998261","prefecture":"OSAKA FU","city":"SAKAI SHI NAKA KU","town":"HORIAGECHO","perfecture_jp":"大阪府","jp_add_1":"堺市中区","jp_add_2":"堀上町"},"5998243":{"post_code":"5998243","prefecture":"OSAKA FU","city":"SAKAI SHI NAKA KU","town":"MINOYAMA","perfecture_jp":"大阪府","jp_add_1":"堺市中区","jp_add_2":"見野山"},"5998274":{"post_code":"5998274","prefecture":"OSAKA FU","city":"SAKAI SHI NAKA KU","town":"MIYAZONOCHO","perfecture_jp":"大阪府","jp_add_1":"堺市中区","jp_add_2":"宮園町"},"5998102":{"post_code":"5998102","prefecture":"OSAKA FU","city":"SAKAI SHI HIGASHI KU","town":"ISHIHARACHO","perfecture_jp":"大阪府","jp_add_1":"堺市東区","jp_add_2":"石原町"},"5998126":{"post_code":"5998126","prefecture":"OSAKA FU","city":"SAKAI SHI HIGASHI KU","town":"OMINO","perfecture_jp":"大阪府","jp_add_1":"堺市東区","jp_add_2":"大美野"},"5998123":{"post_code":"5998123","prefecture":"OSAKA FU","city":"SAKAI SHI HIGASHI KU","town":"KITANODA","perfecture_jp":"大阪府","jp_add_1":"堺市東区","jp_add_2":"北野田"},"5998127":{"post_code":"5998127","prefecture":"OSAKA FU","city":"SAKAI SHI HIGASHI KU","town":"KUSAO","perfecture_jp":"大阪府","jp_add_1":"堺市東区","jp_add_2":"草尾"},"5998122":{"post_code":"5998122","prefecture":"OSAKA FU","city":"SAKAI SHI HIGASHI KU","town":"JOROKU","perfecture_jp":"大阪府","jp_add_1":"堺市東区","jp_add_2":"丈六"},"5998107":{"post_code":"5998107","prefecture":"OSAKA FU","city":"SAKAI SHI HIGASHI KU","town":"SHIRASAGICHO","perfecture_jp":"大阪府","jp_add_1":"堺市東区","jp_add_2":"白鷺町"},"5998115":{"post_code":"5998115","prefecture":"OSAKA FU","city":"SAKAI SHI HIGASHI KU","town":"SEKICHAYA","perfecture_jp":"大阪府","jp_add_1":"堺市東区","jp_add_2":"関茶屋"},"5998121":{"post_code":"5998121","prefecture":"OSAKA FU","city":"SAKAI SHI HIGASHI KU","town":"TAKAMATSU","perfecture_jp":"大阪府","jp_add_1":"堺市東区","jp_add_2":"高松"},"5998128":{"post_code":"5998128","prefecture":"OSAKA FU","city":"SAKAI SHI HIGASHI KU","town":"NAKACHAYA","perfecture_jp":"大阪府","jp_add_1":"堺市東区","jp_add_2":"中茶屋"},"5998125":{"post_code":"5998125","prefecture":"OSAKA FU","city":"SAKAI SHI HIGASHI KU","town":"NISHINO","perfecture_jp":"大阪府","jp_add_1":"堺市東区","jp_add_2":"西野"},"5998116":{"post_code":"5998116","prefecture":"OSAKA FU","city":"SAKAI SHI HIGASHI KU","town":"NOJIRICHO","perfecture_jp":"大阪府","jp_add_1":"堺市東区","jp_add_2":"野尻町"},"5998111":{"post_code":"5998111","prefecture":"OSAKA FU","city":"SAKAI SHI HIGASHI KU","town":"HIKISHOKITAMACHI","perfecture_jp":"大阪府","jp_add_1":"堺市東区","jp_add_2":"日置荘北町"},"5998113":{"post_code":"5998113","prefecture":"OSAKA FU","city":"SAKAI SHI HIGASHI KU","town":"HIKISHOTANAKAMACHI","perfecture_jp":"大阪府","jp_add_1":"堺市東区","jp_add_2":"日置荘田中町"},"5998114":{"post_code":"5998114","prefecture":"OSAKA FU","city":"SAKAI SHI HIGASHI KU","town":"HIKISHONISHIMACHI","perfecture_jp":"大阪府","jp_add_1":"堺市東区","jp_add_2":"日置荘西町"},"5998112":{"post_code":"5998112","prefecture":"OSAKA FU","city":"SAKAI SHI HIGASHI KU","town":"HIKISHOHARADERAMACHI","perfecture_jp":"大阪府","jp_add_1":"堺市東区","jp_add_2":"日置荘原寺町"},"5998104":{"post_code":"5998104","prefecture":"OSAKA FU","city":"SAKAI SHI HIGASHI KU","town":"HIKINOCHO","perfecture_jp":"大阪府","jp_add_1":"堺市東区","jp_add_2":"引野町"},"5998103":{"post_code":"5998103","prefecture":"OSAKA FU","city":"SAKAI SHI HIGASHI KU","town":"BODAICHO","perfecture_jp":"大阪府","jp_add_1":"堺市東区","jp_add_2":"菩提町"},"5998124":{"post_code":"5998124","prefecture":"OSAKA FU","city":"SAKAI SHI HIGASHI KU","town":"MINAMINODA","perfecture_jp":"大阪府","jp_add_1":"堺市東区","jp_add_2":"南野田"},"5998101":{"post_code":"5998101","prefecture":"OSAKA FU","city":"SAKAI SHI HIGASHI KU","town":"YASHIMOCHO","perfecture_jp":"大阪府","jp_add_1":"堺市東区","jp_add_2":"八下町"},"5990200":{"post_code":"5990200","prefecture":"OSAKA FU","city":"HANNAN SHI","town":"IKANIKEISAIGANAIBAAI","perfecture_jp":"大阪府","jp_add_1":"阪南市","jp_add_2":""},"5990221":{"post_code":"5990221","prefecture":"OSAKA FU","city":"HANNAN SHI","town":"ISHIDA","perfecture_jp":"大阪府","jp_add_1":"阪南市","jp_add_2":"石田"},"5990213":{"post_code":"5990213","prefecture":"OSAKA FU","city":"HANNAN SHI","town":"IZUMITOTTORI","perfecture_jp":"大阪府","jp_add_1":"阪南市","jp_add_2":"和泉鳥取"},"5990201":{"post_code":"5990201","prefecture":"OSAKA FU","city":"HANNAN SHI","town":"OZAKICHO","perfecture_jp":"大阪府","jp_add_1":"阪南市","jp_add_2":"尾崎町"},"5990231":{"post_code":"5990231","prefecture":"OSAKA FU","city":"HANNAN SHI","town":"KAIKAKE","perfecture_jp":"大阪府","jp_add_1":"阪南市","jp_add_2":"貝掛"},"5990203":{"post_code":"5990203","prefecture":"OSAKA FU","city":"HANNAN SHI","town":"KURODA","perfecture_jp":"大阪府","jp_add_1":"阪南市","jp_add_2":"黒田"},"5990222":{"post_code":"5990222","prefecture":"OSAKA FU","city":"HANNAN SHI","town":"KUWABATA","perfecture_jp":"大阪府","jp_add_1":"阪南市","jp_add_2":"桑畑"},"5990223":{"post_code":"5990223","prefecture":"OSAKA FU","city":"HANNAN SHI","town":"KOYODAI","perfecture_jp":"大阪府","jp_add_1":"阪南市","jp_add_2":"光陽台"},"5990215":{"post_code":"5990215","prefecture":"OSAKA FU","city":"HANNAN SHI","town":"SATSUKIDAI","perfecture_jp":"大阪府","jp_add_1":"阪南市","jp_add_2":"さつき台"},"5990212":{"post_code":"5990212","prefecture":"OSAKA FU","city":"HANNAN SHI","town":"JINENDA","perfecture_jp":"大阪府","jp_add_1":"阪南市","jp_add_2":"自然田"},"5990202":{"post_code":"5990202","prefecture":"OSAKA FU","city":"HANNAN SHI","town":"SHIMOIDE","perfecture_jp":"大阪府","jp_add_1":"阪南市","jp_add_2":"下出"},"5990205":{"post_code":"5990205","prefecture":"OSAKA FU","city":"HANNAN SHI","town":"SHIMMACHI","perfecture_jp":"大阪府","jp_add_1":"阪南市","jp_add_2":"新町"},"5990234":{"post_code":"5990234","prefecture":"OSAKA FU","city":"HANNAN SHI","town":"TANNOWA","perfecture_jp":"大阪府","jp_add_1":"阪南市","jp_add_2":"淡輪"},"5990204":{"post_code":"5990204","prefecture":"OSAKA FU","city":"HANNAN SHI","town":"TOTTORI","perfecture_jp":"大阪府","jp_add_1":"阪南市","jp_add_2":"鳥取"},"5990211":{"post_code":"5990211","prefecture":"OSAKA FU","city":"HANNAN SHI","town":"TOTTORINAKA","perfecture_jp":"大阪府","jp_add_1":"阪南市","jp_add_2":"鳥取中"},"5990225":{"post_code":"5990225","prefecture":"OSAKA FU","city":"HANNAN SHI","town":"TOTTORIMITSUI","perfecture_jp":"大阪府","jp_add_1":"阪南市","jp_add_2":"鳥取三井"},"5990232":{"post_code":"5990232","prefecture":"OSAKA FU","city":"HANNAN SHI","town":"HAKOTSUKURI","perfecture_jp":"大阪府","jp_add_1":"阪南市","jp_add_2":"箱作"},"5990235":{"post_code":"5990235","prefecture":"OSAKA FU","city":"HANNAN SHI","town":"HAKONORA","perfecture_jp":"大阪府","jp_add_1":"阪南市","jp_add_2":"箱の浦"},"5990224":{"post_code":"5990224","prefecture":"OSAKA FU","city":"HANNAN SHI","town":"MAI","perfecture_jp":"大阪府","jp_add_1":"阪南市","jp_add_2":"舞"},"5990216":{"post_code":"5990216","prefecture":"OSAKA FU","city":"HANNAN SHI","town":"MIDORIGAOKA","perfecture_jp":"大阪府","jp_add_1":"阪南市","jp_add_2":"緑ケ丘"},"5990233":{"post_code":"5990233","prefecture":"OSAKA FU","city":"HANNAN SHI","town":"MINAMIYAMANAKA","perfecture_jp":"大阪府","jp_add_1":"阪南市","jp_add_2":"南山中"},"5990236":{"post_code":"5990236","prefecture":"OSAKA FU","city":"HANNAN SHI","town":"MOMONOKIDAI","perfecture_jp":"大阪府","jp_add_1":"阪南市","jp_add_2":"桃の木台"},"5990214":{"post_code":"5990214","prefecture":"OSAKA FU","city":"HANNAN SHI","town":"YAMANAKADANI","perfecture_jp":"大阪府","jp_add_1":"阪南市","jp_add_2":"山中渓"},"5990300":{"post_code":"5990300","prefecture":"OSAKA FU","city":"SENNAN GUN MISAKI CHO","town":"IKANIKEISAIGANAIBAAI","perfecture_jp":"大阪府","jp_add_1":"泉南郡岬町","jp_add_2":""},"5990302":{"post_code":"5990302","prefecture":"OSAKA FU","city":"SENNAN GUN MISAKI CHO","town":"KYOSHI","perfecture_jp":"大阪府","jp_add_1":"泉南郡岬町","jp_add_2":"孝子"},"5990314":{"post_code":"5990314","prefecture":"OSAKA FU","city":"SENNAN GUN MISAKI CHO","town":"TANAGAWAKOSHIMA","perfecture_jp":"大阪府","jp_add_1":"泉南郡岬町","jp_add_2":"多奈川小島"},"5990311":{"post_code":"5990311","prefecture":"OSAKA FU","city":"SENNAN GUN MISAKI CHO","town":"TANAGAWATANIGAWA","perfecture_jp":"大阪府","jp_add_1":"泉南郡岬町","jp_add_2":"多奈川谷川"},"5990312":{"post_code":"5990312","prefecture":"OSAKA FU","city":"SENNAN GUN MISAKI CHO","town":"TANAGAWAHIGASHIBATA","perfecture_jp":"大阪府","jp_add_1":"泉南郡岬町","jp_add_2":"多奈川東畑"},"5990313":{"post_code":"5990313","prefecture":"OSAKA FU","city":"SENNAN GUN MISAKI CHO","town":"TANAGAWANISHIBATA","perfecture_jp":"大阪府","jp_add_1":"泉南郡岬町","jp_add_2":"多奈川西畑"},"5990301":{"post_code":"5990301","prefecture":"OSAKA FU","city":"SENNAN GUN MISAKI CHO","town":"TANNOWA","perfecture_jp":"大阪府","jp_add_1":"泉南郡岬町","jp_add_2":"淡輪"},"5990304":{"post_code":"5990304","prefecture":"OSAKA FU","city":"SENNAN GUN MISAKI CHO","town":"NOZOMIZAKA","perfecture_jp":"大阪府","jp_add_1":"泉南郡岬町","jp_add_2":"望海坂"},"5990303":{"post_code":"5990303","prefecture":"OSAKA FU","city":"SENNAN GUN MISAKI CHO","town":"FUKE","perfecture_jp":"大阪府","jp_add_1":"泉南郡岬町","jp_add_2":"深日"}}