{"6000000":{"post_code":"6000000","prefecture":"KYOTO FU","city":"KYOTO SHI SHIMOGYO KU","town":"IKANIKEISAIGANAIBAAI","perfecture_jp":"京都府","jp_add_1":"京都市下京区","jp_add_2":""},"6008071":{"post_code":"6008071","prefecture":"KYOTO FU","city":"KYOTO SHI SHIMOGYO KU","town":"AINOCHO","perfecture_jp":"京都府","jp_add_1":"京都市下京区","jp_add_2":"相之町"},"6008410":{"post_code":"6008410","prefecture":"KYOTO FU","city":"KYOTO SHI SHIMOGYO KU","town":"AKUOJICHO","perfecture_jp":"京都府","jp_add_1":"京都市下京区","jp_add_2":"悪王子町"},"6008407":{"post_code":"6008407","prefecture":"KYOTO FU","city":"KYOTO SHI SHIMOGYO KU","town":"ASAZUMACHO","perfecture_jp":"京都府","jp_add_1":"京都市下京区","jp_add_2":"朝妻町"},"6008473":{"post_code":"6008473","prefecture":"KYOTO FU","city":"KYOTO SHI SHIMOGYO KU","town":"ASHIKARIYAMACHO","perfecture_jp":"京都府","jp_add_1":"京都市下京区","jp_add_2":"芦刈山町"},"6008308":{"post_code":"6008308","prefecture":"KYOTO FU","city":"KYOTO SHI SHIMOGYO KU","town":"ATARASHICHO","perfecture_jp":"京都府","jp_add_1":"京都市下京区","jp_add_2":"新シ町"},"6008040":{"post_code":"6008040","prefecture":"KYOTO FU","city":"KYOTO SHI SHIMOGYO KU","town":"AZUCHICHO","perfecture_jp":"京都府","jp_add_1":"京都市下京区","jp_add_2":"安土町"},"6008231":{"post_code":"6008231","prefecture":"KYOTO FU","city":"KYOTO SHI SHIMOGYO KU","town":"ABURANOKOJICHO","perfecture_jp":"京都府","jp_add_1":"京都市下京区","jp_add_2":"油小路町"},"6008148":{"post_code":"6008148","prefecture":"KYOTO FU","city":"KYOTO SHI SHIMOGYO KU","town":"AMEYACHO","perfecture_jp":"京都府","jp_add_1":"京都市下京区","jp_add_2":"飴屋町"},"6008383":{"post_code":"6008383","prefecture":"KYOTO FU","city":"KYOTO SHI SHIMOGYO KU","town":"AYAOMIYACHO","perfecture_jp":"京都府","jp_add_1":"京都市下京区","jp_add_2":"綾大宮町"},"6008072":{"post_code":"6008072","prefecture":"KYOTO FU","city":"KYOTO SHI SHIMOGYO KU","town":"AYAZAIMOKUCHO","perfecture_jp":"京都府","jp_add_1":"京都市下京区","jp_add_2":"綾材木町"},"6008474":{"post_code":"6008474","prefecture":"KYOTO FU","city":"KYOTO SHI SHIMOGYO KU","town":"AYANISHINOTOINCHO","perfecture_jp":"京都府","jp_add_1":"京都市下京区","jp_add_2":"綾西洞院町"},"6008482":{"post_code":"6008482","prefecture":"KYOTO FU","city":"KYOTO SHI SHIMOGYO KU","town":"AYAHORIKAWACHO","perfecture_jp":"京都府","jp_add_1":"京都市下京区","jp_add_2":"綾堀川町"},"6008496":{"post_code":"6008496","prefecture":"KYOTO FU","city":"KYOTO SHI SHIMOGYO KU","town":"ISHIIZUTSUCHO","perfecture_jp":"京都府","jp_add_1":"京都市下京区","jp_add_2":"石井筒町"},"6008047":{"post_code":"6008047","prefecture":"KYOTO FU","city":"KYOTO SHI SHIMOGYO KU","town":"ISHIFUDONOCHO","perfecture_jp":"京都府","jp_add_1":"京都市下京区","jp_add_2":"石不動之町"},"6008188":{"post_code":"6008188","prefecture":"KYOTO FU","city":"KYOTO SHI SHIMOGYO KU","town":"IZUMICHO","perfecture_jp":"京都府","jp_add_1":"京都市下京区","jp_add_2":"和泉町"},"6008014":{"post_code":"6008014","prefecture":"KYOTO FU","city":"KYOTO SHI SHIMOGYO KU","town":"IZUMIYACHO","perfecture_jp":"京都府","jp_add_1":"京都市下京区","jp_add_2":"和泉屋町"},"6008254":{"post_code":"6008254","prefecture":"KYOTO FU","city":"KYOTO SHI SHIMOGYO KU","town":"ISEMATSUCHO","perfecture_jp":"京都府","jp_add_1":"京都市下京区","jp_add_2":"伊勢松町"},"6008018":{"post_code":"6008018","prefecture":"KYOTO FU","city":"KYOTO SHI SHIMOGYO KU","town":"ICHINOCHO","perfecture_jp":"京都府","jp_add_1":"京都市下京区","jp_add_2":"市之町"},"6008318":{"post_code":"6008318","prefecture":"KYOTO FU","city":"KYOTO SHI SHIMOGYO KU","town":"IZUTSUCHO","perfecture_jp":"京都府","jp_add_1":"京都市下京区","jp_add_2":"井筒町"},"6008432":{"post_code":"6008432","prefecture":"KYOTO FU","city":"KYOTO SHI SHIMOGYO KU","town":"ITOYACHO","perfecture_jp":"京都府","jp_add_1":"京都市下京区","jp_add_2":"糸屋町"},"6008415":{"post_code":"6008415","prefecture":"KYOTO FU","city":"KYOTO SHI SHIMOGYO KU","town":"INABADOCHO","perfecture_jp":"京都府","jp_add_1":"京都市下京区","jp_add_2":"因幡堂町"},"6008022":{"post_code":"6008022","prefecture":"KYOTO FU","city":"KYOTO SHI SHIMOGYO KU","town":"INARICHO(KAWARAMACHIDORISHIJOSAGARU","perfecture_jp":"京都府","jp_add_1":"京都市下京区","jp_add_2":"稲荷町"},"6008133":{"post_code":"6008133","prefecture":"KYOTO FU","city":"KYOTO SHI SHIMOGYO KU","town":"INARICHO(SHICHIJODORIKAMOGAWASUJINI","perfecture_jp":"京都府","jp_add_1":"京都市下京区","jp_add_2":"稲荷町"},"6008098":{"post_code":"6008098","prefecture":"KYOTO FU","city":"KYOTO SHI SHIMOGYO KU","town":"INARICHO","perfecture_jp":"京都府","jp_add_1":"京都市下京区","jp_add_2":"稲荷町"},"6008166":{"post_code":"6008166","prefecture":"KYOTO FU","city":"KYOTO SHI SHIMOGYO KU","town":"INUICHO","perfecture_jp":"京都府","jp_add_1":"京都市下京区","jp_add_2":"乾町"},"6008384":{"post_code":"6008384","prefecture":"KYOTO FU","city":"KYOTO SHI SHIMOGYO KU","town":"IMADAIKOKUCHO","perfecture_jp":"京都府","jp_add_1":"京都市下京区","jp_add_2":"今大黒町"},"6008115":{"post_code":"6008115","prefecture":"KYOTO FU","city":"KYOTO SHI SHIMOGYO KU","town":"IWATAKICHO","perfecture_jp":"京都府","jp_add_1":"京都市下京区","jp_add_2":"岩滝町"},"6008445":{"post_code":"6008445","prefecture":"KYOTO FU","city":"KYOTO SHI SHIMOGYO KU","town":"IWATOYAMACHO","perfecture_jp":"京都府","jp_add_1":"京都市下京区","jp_add_2":"岩戸山町"},"6008028":{"post_code":"6008028","prefecture":"KYOTO FU","city":"KYOTO SHI SHIMOGYO KU","town":"UEMATSUCHO","perfecture_jp":"京都府","jp_add_1":"京都市下京区","jp_add_2":"植松町"},"6008343":{"post_code":"6008343","prefecture":"KYOTO FU","city":"KYOTO SHI SHIMOGYO KU","town":"UEMATSUCHO(SHOMENDORINISHINOTOINNIS","perfecture_jp":"京都府","jp_add_1":"京都市下京区","jp_add_2":"植松町"},"6008304":{"post_code":"6008304","prefecture":"KYOTO FU","city":"KYOTO SHI SHIMOGYO KU","town":"USHITORACHO","perfecture_jp":"京都府","jp_add_1":"京都市下京区","jp_add_2":"艮町"},"6008151":{"post_code":"6008151","prefecture":"KYOTO FU","city":"KYOTO SHI SHIMOGYO KU","town":"UCHIKOSHICHO","perfecture_jp":"京都府","jp_add_1":"京都市下京区","jp_add_2":"打越町"},"6008855":{"post_code":"6008855","prefecture":"KYOTO FU","city":"KYOTO SHI SHIMOGYO KU","town":"UMEKOJI ISHIBASHICHO","perfecture_jp":"京都府","jp_add_1":"京都市下京区","jp_add_2":"梅小路石橋町"},"6008851":{"post_code":"6008851","prefecture":"KYOTO FU","city":"KYOTO SHI SHIMOGYO KU","town":"UMEKOJI KASHIRACHO","perfecture_jp":"京都府","jp_add_1":"京都市下京区","jp_add_2":"梅小路頭町"},"6008853":{"post_code":"6008853","prefecture":"KYOTO FU","city":"KYOTO SHI SHIMOGYO KU","town":"UMEKOJI TAKAHATACHO","perfecture_jp":"京都府","jp_add_1":"京都市下京区","jp_add_2":"梅小路高畑町"},"6008854":{"post_code":"6008854","prefecture":"KYOTO FU","city":"KYOTO SHI SHIMOGYO KU","town":"UMEKOJI NISHINAKAMACHI","perfecture_jp":"京都府","jp_add_1":"京都市下京区","jp_add_2":"梅小路西中町"},"6008852":{"post_code":"6008852","prefecture":"KYOTO FU","city":"KYOTO SHI SHIMOGYO KU","town":"UMEKOJI HIGASHINAKAMACHI","perfecture_jp":"京都府","jp_add_1":"京都市下京区","jp_add_2":"梅小路東中町"},"6008857":{"post_code":"6008857","prefecture":"KYOTO FU","city":"KYOTO SHI SHIMOGYO KU","town":"UMEKOJI HIGASHIMACHI","perfecture_jp":"京都府","jp_add_1":"京都市下京区","jp_add_2":"梅小路東町"},"6008856":{"post_code":"6008856","prefecture":"KYOTO FU","city":"KYOTO SHI SHIMOGYO KU","town":"UMEKOJI HOMMACHI","perfecture_jp":"京都府","jp_add_1":"京都市下京区","jp_add_2":"梅小路本町"},"6008127":{"post_code":"6008127","prefecture":"KYOTO FU","city":"KYOTO SHI SHIMOGYO KU","town":"UMEMINATOCHO","perfecture_jp":"京都府","jp_add_1":"京都市下京区","jp_add_2":"梅湊町"},"6008822":{"post_code":"6008822","prefecture":"KYOTO FU","city":"KYOTO SHI SHIMOGYO KU","town":"URAKATACHO","perfecture_jp":"京都府","jp_add_1":"京都市下京区","jp_add_2":"裏片町"},"6008463":{"post_code":"6008463","prefecture":"KYOTO FU","city":"KYOTO SHI SHIMOGYO KU","town":"EIYOJICHO","perfecture_jp":"京都府","jp_add_1":"京都市下京区","jp_add_2":"永養寺町"},"6008154":{"post_code":"6008154","prefecture":"KYOTO FU","city":"KYOTO SHI SHIMOGYO KU","town":"ENOKICHO","perfecture_jp":"京都府","jp_add_1":"京都市下京区","jp_add_2":"榎木町"},"6008302":{"post_code":"6008302","prefecture":"KYOTO FU","city":"KYOTO SHI SHIMOGYO KU","town":"EBISUCHO","perfecture_jp":"京都府","jp_add_1":"京都市下京区","jp_add_2":"蛭子町"},"6008033":{"post_code":"6008033","prefecture":"KYOTO FU","city":"KYOTO SHI SHIMOGYO KU","town":"EBISUNOCHO","perfecture_jp":"京都府","jp_add_1":"京都市下京区","jp_add_2":"恵美須之町"},"6008183":{"post_code":"6008183","prefecture":"KYOTO FU","city":"KYOTO SHI SHIMOGYO KU","town":"EBISUNOCHO","perfecture_jp":"京都府","jp_add_1":"京都市下京区","jp_add_2":"夷之町"},"6008310":{"post_code":"6008310","prefecture":"KYOTO FU","city":"KYOTO SHI SHIMOGYO KU","town":"EBISUNOCHO","perfecture_jp":"京都府","jp_add_1":"京都市下京区","jp_add_2":"夷之町"},"6008837":{"post_code":"6008837","prefecture":"KYOTO FU","city":"KYOTO SHI SHIMOGYO KU","town":"EBISUNOBAMBACHO","perfecture_jp":"京都府","jp_add_1":"京都市下京区","jp_add_2":"夷馬場町"},"6008328":{"post_code":"6008328","prefecture":"KYOTO FU","city":"KYOTO SHI SHIMOGYO KU","town":"EBISUMIZUCHO","perfecture_jp":"京都府","jp_add_1":"京都市下京区","jp_add_2":"蛭子水町"},"6008062":{"post_code":"6008062","prefecture":"KYOTO FU","city":"KYOTO SHI SHIMOGYO KU","town":"EBISUYACHO","perfecture_jp":"京都府","jp_add_1":"京都市下京区","jp_add_2":"恵美須屋町"},"6008095":{"post_code":"6008095","prefecture":"KYOTO FU","city":"KYOTO SHI SHIMOGYO KU","town":"OGISAKAYACHO","perfecture_jp":"京都府","jp_add_1":"京都市下京区","jp_add_2":"扇酒屋町"},"6008402":{"post_code":"6008402","prefecture":"KYOTO FU","city":"KYOTO SHI SHIMOGYO KU","town":"OECHO","perfecture_jp":"京都府","jp_add_1":"京都市下京区","jp_add_2":"大江町"},"6008177":{"post_code":"6008177","prefecture":"KYOTO FU","city":"KYOTO SHI SHIMOGYO KU","town":"OSAKACHO","perfecture_jp":"京都府","jp_add_1":"京都市下京区","jp_add_2":"大坂町"},"6008181":{"post_code":"6008181","prefecture":"KYOTO FU","city":"KYOTO SHI SHIMOGYO KU","town":"OTSUCHO","perfecture_jp":"京都府","jp_add_1":"京都市下京区","jp_add_2":"大津町"},"6008419":{"post_code":"6008419","prefecture":"KYOTO FU","city":"KYOTO SHI SHIMOGYO KU","town":"OBORICHO","perfecture_jp":"京都府","jp_add_1":"京都市下京区","jp_add_2":"大堀町"},"6008413":{"post_code":"6008413","prefecture":"KYOTO FU","city":"KYOTO SHI SHIMOGYO KU","town":"OMANDOKOROCHO","perfecture_jp":"京都府","jp_add_1":"京都市下京区","jp_add_2":"大政所町"},"6008363":{"post_code":"6008363","prefecture":"KYOTO FU","city":"KYOTO SHI SHIMOGYO KU","town":"OMIYA(1-3-CHOME)","perfecture_jp":"京都府","jp_add_1":"京都市下京区","jp_add_2":"大宮"},"6008138":{"post_code":"6008138","prefecture":"KYOTO FU","city":"KYOTO SHI SHIMOGYO KU","town":"OMIYACHO","perfecture_jp":"京都府","jp_add_1":"京都市下京区","jp_add_2":"大宮町"},"6008002":{"post_code":"6008002","prefecture":"KYOTO FU","city":"KYOTO SHI SHIMOGYO KU","town":"OTABICHO","perfecture_jp":"京都府","jp_add_1":"京都市下京区","jp_add_2":"御旅町"},"6008003":{"post_code":"6008003","prefecture":"KYOTO FU","city":"KYOTO SHI SHIMOGYO KU","town":"OTABIMIYAMOTOCHO","perfecture_jp":"京都府","jp_add_1":"京都市下京区","jp_add_2":"御旅宮本町"},"6008430":{"post_code":"6008430","prefecture":"KYOTO FU","city":"KYOTO SHI SHIMOGYO KU","town":"ODAWARACHO","perfecture_jp":"京都府","jp_add_1":"京都市下京区","jp_add_2":"小田原町"},"6008145":{"post_code":"6008145","prefecture":"KYOTO FU","city":"KYOTO SHI SHIMOGYO KU","town":"KAIZANCHO","perfecture_jp":"京都府","jp_add_1":"京都市下京区","jp_add_2":"皆山町"},"6008246":{"post_code":"6008246","prefecture":"KYOTO FU","city":"KYOTO SHI SHIMOGYO KU","town":"KAKIGAUCHICHO","perfecture_jp":"京都府","jp_add_1":"京都市下京区","jp_add_2":"垣ケ内町"},"6008357":{"post_code":"6008357","prefecture":"KYOTO FU","city":"KYOTO SHI SHIMOGYO KU","town":"KAKIMOTOCHO","perfecture_jp":"京都府","jp_add_1":"京都市下京区","jp_add_2":"柿本町"},"6008057":{"post_code":"6008057","prefecture":"KYOTO FU","city":"KYOTO SHI SHIMOGYO KU","town":"KAGIYACHO","perfecture_jp":"京都府","jp_add_1":"京都市下京区","jp_add_2":"鍵屋町"},"6008126":{"post_code":"6008126","prefecture":"KYOTO FU","city":"KYOTO SHI SHIMOGYO KU","town":"KAGIYACHO","perfecture_jp":"京都府","jp_add_1":"京都市下京区","jp_add_2":"鍵屋町"},"6008178":{"post_code":"6008178","prefecture":"KYOTO FU","city":"KYOTO SHI SHIMOGYO KU","town":"KAGIYACHO","perfecture_jp":"京都府","jp_add_1":"京都市下京区","jp_add_2":"鍵屋町"},"6008317":{"post_code":"6008317","prefecture":"KYOTO FU","city":"KYOTO SHI SHIMOGYO KU","town":"KAGIYACHO","perfecture_jp":"京都府","jp_add_1":"京都市下京区","jp_add_2":"鍵屋町"},"6008341":{"post_code":"6008341","prefecture":"KYOTO FU","city":"KYOTO SHI SHIMOGYO KU","town":"GAKURINCHO","perfecture_jp":"京都府","jp_add_1":"京都市下京区","jp_add_2":"学林町"},"6008475":{"post_code":"6008475","prefecture":"KYOTO FU","city":"KYOTO SHI SHIMOGYO KU","town":"KAZAHAYACHO","perfecture_jp":"京都府","jp_add_1":"京都市下京区","jp_add_2":"風早町"},"6008494":{"post_code":"6008494","prefecture":"KYOTO FU","city":"KYOTO SHI SHIMOGYO KU","town":"KASABOKOCHO","perfecture_jp":"京都府","jp_add_1":"京都市下京区","jp_add_2":"傘鉾町"},"6008079":{"post_code":"6008079","prefecture":"KYOTO FU","city":"KYOTO SHI SHIMOGYO KU","town":"KAJIYACHO(SAKAIMACHIDORIMATSUBARASA","perfecture_jp":"京都府","jp_add_1":"京都市下京区","jp_add_2":"鍛冶屋町"},"6008329":{"post_code":"6008329","prefecture":"KYOTO FU","city":"KYOTO SHI SHIMOGYO KU","town":"KAJIYACHO","perfecture_jp":"京都府","jp_add_1":"京都市下京区","jp_add_2":"鍛冶屋町"},"6008066":{"post_code":"6008066","prefecture":"KYOTO FU","city":"KYOTO SHI SHIMOGYO KU","town":"KASHIWAYACHO","perfecture_jp":"京都府","jp_add_1":"京都市下京区","jp_add_2":"柏屋町"},"6008498":{"post_code":"6008498","prefecture":"KYOTO FU","city":"KYOTO SHI SHIMOGYO KU","town":"KASHIWAYACHO","perfecture_jp":"京都府","jp_add_1":"京都市下京区","jp_add_2":"柏屋町"},"6008049":{"post_code":"6008049","prefecture":"KYOTO FU","city":"KYOTO SHI SHIMOGYO KU","town":"KATADACHO(MANJUJIDORIGOKOMACHINISHI","perfecture_jp":"京都府","jp_add_1":"京都市下京区","jp_add_2":"堅田町"},"6008050":{"post_code":"6008050","prefecture":"KYOTO FU","city":"KYOTO SHI SHIMOGYO KU","town":"KATADACHO(MANSHUJIDORITOMINOKOJIHIG","perfecture_jp":"京都府","jp_add_1":"京都市下京区","jp_add_2":"堅田町"},"6008067":{"post_code":"6008067","prefecture":"KYOTO FU","city":"KYOTO SHI SHIMOGYO KU","town":"KATADACHO","perfecture_jp":"京都府","jp_add_1":"京都市下京区","jp_add_2":"堅田町"},"6008089":{"post_code":"6008089","prefecture":"KYOTO FU","city":"KYOTO SHI SHIMOGYO KU","town":"KATADACHO(MANSHUJIDORISAKAIMACHINIS","perfecture_jp":"京都府","jp_add_1":"京都市下京区","jp_add_2":"堅田町"},"6008493":{"post_code":"6008493","prefecture":"KYOTO FU","city":"KYOTO SHI SHIMOGYO KU","town":"KATSUKYOYAMACHO","perfecture_jp":"京都府","jp_add_1":"京都市下京区","jp_add_2":"郭巨山町"},"6008323":{"post_code":"6008323","prefecture":"KYOTO FU","city":"KYOTO SHI SHIMOGYO KU","town":"KANAYACHO","perfecture_jp":"京都府","jp_add_1":"京都市下京区","jp_add_2":"金屋町"},"6008258":{"post_code":"6008258","prefecture":"KYOTO FU","city":"KYOTO SHI SHIMOGYO KU","town":"KANEGAECHO","perfecture_jp":"京都府","jp_add_1":"京都市下京区","jp_add_2":"金換町"},"6008239":{"post_code":"6008239","prefecture":"KYOTO FU","city":"KYOTO SHI SHIMOGYO KU","town":"KAMAYACHO","perfecture_jp":"京都府","jp_add_1":"京都市下京区","jp_add_2":"鎌屋町"},"6008058":{"post_code":"6008058","prefecture":"KYOTO FU","city":"KYOTO SHI SHIMOGYO KU","town":"KAMIUROKOGATACHO","perfecture_jp":"京都府","jp_add_1":"京都市下京区","jp_add_2":"上鱗形町"},"6008242":{"post_code":"6008242","prefecture":"KYOTO FU","city":"KYOTO SHI SHIMOGYO KU","town":"KAMIEBISUCHO","perfecture_jp":"京都府","jp_add_1":"京都市下京区","jp_add_2":"上夷町"},"6008457":{"post_code":"6008457","prefecture":"KYOTO FU","city":"KYOTO SHI SHIMOGYO KU","town":"KAMIKANABUTSUCHO","perfecture_jp":"京都府","jp_add_1":"京都市下京区","jp_add_2":"上金仏町"},"6008259":{"post_code":"6008259","prefecture":"KYOTO FU","city":"KYOTO SHI SHIMOGYO KU","town":"KAMIKOJIYACHO","perfecture_jp":"京都府","jp_add_1":"京都市下京区","jp_add_2":"上糀屋町"},"6008377":{"post_code":"6008377","prefecture":"KYOTO FU","city":"KYOTO SHI SHIMOGYO KU","town":"KAMIGOJOCHO","perfecture_jp":"京都府","jp_add_1":"京都市下京区","jp_add_2":"上五条町"},"6008135":{"post_code":"6008135","prefecture":"KYOTO FU","city":"KYOTO SHI SHIMOGYO KU","town":"KAMISANNOMIYACHO","perfecture_jp":"京都府","jp_add_1":"京都市下京区","jp_add_2":"上三之宮町"},"6008150":{"post_code":"6008150","prefecture":"KYOTO FU","city":"KYOTO SHI SHIMOGYO KU","town":"KAMIJUZUYACHO","perfecture_jp":"京都府","jp_add_1":"京都市下京区","jp_add_2":"上珠数屋町"},"6008312":{"post_code":"6008312","prefecture":"KYOTO FU","city":"KYOTO SHI SHIMOGYO KU","town":"KAMISUZUYACHO","perfecture_jp":"京都府","jp_add_1":"京都市下京区","jp_add_2":"上錫屋町"},"6008170":{"post_code":"6008170","prefecture":"KYOTO FU","city":"KYOTO SHI SHIMOGYO KU","town":"KAMISUWANCHO","perfecture_jp":"京都府","jp_add_1":"京都市下京区","jp_add_2":"上諏訪町"},"6008376":{"post_code":"6008376","prefecture":"KYOTO FU","city":"KYOTO SHI SHIMOGYO KU","town":"KAMICHOFUKUJICHO","perfecture_jp":"京都府","jp_add_1":"京都市下京区","jp_add_2":"上長福寺町"},"6008248":{"post_code":"6008248","prefecture":"KYOTO FU","city":"KYOTO SHI SHIMOGYO KU","town":"KAMINAKANOCHO","perfecture_jp":"京都府","jp_add_1":"京都市下京区","jp_add_2":"上中之町"},"6008131":{"post_code":"6008131","prefecture":"KYOTO FU","city":"KYOTO SHI SHIMOGYO KU","town":"KAMININOMIYACHO","perfecture_jp":"京都府","jp_add_1":"京都市下京区","jp_add_2":"上二之宮町"},"6008266":{"post_code":"6008266","prefecture":"KYOTO FU","city":"KYOTO SHI SHIMOGYO KU","town":"KAMINOCHO","perfecture_jp":"京都府","jp_add_1":"京都市下京区","jp_add_2":"上之町"},"6008207":{"post_code":"6008207","prefecture":"KYOTO FU","city":"KYOTO SHI SHIMOGYO KU","town":"KAMINOCHO(SONOTA)","perfecture_jp":"京都府","jp_add_1":"京都市下京区","jp_add_2":"上之町"},"6008171":{"post_code":"6008171","prefecture":"KYOTO FU","city":"KYOTO SHI SHIMOGYO KU","town":"KAMIHIRANOCHO","perfecture_jp":"京都府","jp_add_1":"京都市下京区","jp_add_2":"上平野町"},"6008099":{"post_code":"6008099","prefecture":"KYOTO FU","city":"KYOTO SHI SHIMOGYO KU","town":"KAMIYANAGICHO","perfecture_jp":"京都府","jp_add_1":"京都市下京区","jp_add_2":"上柳町"},"6008164":{"post_code":"6008164","prefecture":"KYOTO FU","city":"KYOTO SHI SHIMOGYO KU","town":"KAMIYANAGICHO","perfecture_jp":"京都府","jp_add_1":"京都市下京区","jp_add_2":"上柳町"},"6008301":{"post_code":"6008301","prefecture":"KYOTO FU","city":"KYOTO SHI SHIMOGYO KU","town":"KAMIYANAGICHO","perfecture_jp":"京都府","jp_add_1":"京都市下京区","jp_add_2":"上柳町"},"6008313":{"post_code":"6008313","prefecture":"KYOTO FU","city":"KYOTO SHI SHIMOGYO KU","town":"KAMIWAKAMIYACHO","perfecture_jp":"京都府","jp_add_1":"京都市下京区","jp_add_2":"上若宮町"},"6008159":{"post_code":"6008159","prefecture":"KYOTO FU","city":"KYOTO SHI SHIMOGYO KU","town":"KAMEMACHI","perfecture_jp":"京都府","jp_add_1":"京都市下京区","jp_add_2":"亀町"},"6008406":{"post_code":"6008406","prefecture":"KYOTO FU","city":"KYOTO SHI SHIMOGYO KU","town":"KAMEYACHO(TAKAKURADORIGOJOAGARU.TAK","perfecture_jp":"京都府","jp_add_1":"京都市下京区","jp_add_2":"亀屋町"},"6008451":{"post_code":"6008451","prefecture":"KYOTO FU","city":"KYOTO SHI SHIMOGYO KU","town":"KAMEYACHO(WAKAMIYADORIMATSUBARASAGA","perfecture_jp":"京都府","jp_add_1":"京都市下京区","jp_add_2":"亀屋町"},"6008175":{"post_code":"6008175","prefecture":"KYOTO FU","city":"KYOTO SHI SHIMOGYO KU","town":"KARASUMA(2-CHOME)","perfecture_jp":"京都府","jp_add_1":"京都市下京区","jp_add_2":"烏丸"},"6008499":{"post_code":"6008499","prefecture":"KYOTO FU","city":"KYOTO SHI SHIMOGYO KU","town":"KARATSUYACHO","perfecture_jp":"京都府","jp_add_1":"京都市下京区","jp_add_2":"唐津屋町"},"6008197":{"post_code":"6008197","prefecture":"KYOTO FU","city":"KYOTO SHI SHIMOGYO KU","town":"KARAMONOCHO","perfecture_jp":"京都府","jp_add_1":"京都市下京区","jp_add_2":"唐物町"},"6008056":{"post_code":"6008056","prefecture":"KYOTO FU","city":"KYOTO SHI SHIMOGYO KU","town":"KARIGANECHO(TAKATSUJIDORITOMINOKOJI","perfecture_jp":"京都府","jp_add_1":"京都市下京区","jp_add_2":"雁金町"},"6008060":{"post_code":"6008060","prefecture":"KYOTO FU","city":"KYOTO SHI SHIMOGYO KU","town":"KARIGANECHO(TAKATSUJIDORITOMINOKOJI","perfecture_jp":"京都府","jp_add_1":"京都市下京区","jp_add_2":"雁金町"},"6008393":{"post_code":"6008393","prefecture":"KYOTO FU","city":"KYOTO SHI SHIMOGYO KU","town":"KARIGANECHO(IWAGAMIDORIAYANOKOJISAG","perfecture_jp":"京都府","jp_add_1":"京都市下京区","jp_add_2":"雁金町"},"6008252":{"post_code":"6008252","prefecture":"KYOTO FU","city":"KYOTO SHI SHIMOGYO KU","town":"KAWABATACHO(KIZUYABASHIDORIHORIKAWA","perfecture_jp":"京都府","jp_add_1":"京都市下京区","jp_add_2":"川端町"},"6008202":{"post_code":"6008202","prefecture":"KYOTO FU","city":"KYOTO SHI SHIMOGYO KU","town":"KAWABATACHO(SONOTA)","perfecture_jp":"京都府","jp_add_1":"京都市下京区","jp_add_2":"川端町"},"6008835":{"post_code":"6008835","prefecture":"KYOTO FU","city":"KYOTO SHI SHIMOGYO KU","town":"KANKIJICHO","perfecture_jp":"京都府","jp_add_1":"京都市下京区","jp_add_2":"観喜寺町"},"6008009":{"post_code":"6008009","prefecture":"KYOTO FU","city":"KYOTO SHI SHIMOGYO KU","town":"KANKOBOKOCHO","perfecture_jp":"京都府","jp_add_1":"京都市下京区","jp_add_2":"函谷鉾町"},"6008336":{"post_code":"6008336","prefecture":"KYOTO FU","city":"KYOTO SHI SHIMOGYO KU","town":"GANJITSUCHO","perfecture_jp":"京都府","jp_add_1":"京都市下京区","jp_add_2":"元日町"},"6008088":{"post_code":"6008088","prefecture":"KYOTO FU","city":"KYOTO SHI SHIMOGYO KU","town":"KANSHADENCHO","perfecture_jp":"京都府","jp_add_1":"京都市下京区","jp_add_2":"官社殿町"},"6008444":{"post_code":"6008444","prefecture":"KYOTO FU","city":"KYOTO SHI SHIMOGYO KU","town":"KANDAIJINCHO","perfecture_jp":"京都府","jp_add_1":"京都市下京区","jp_add_2":"菅大臣町"},"6008121":{"post_code":"6008121","prefecture":"KYOTO FU","city":"KYOTO SHI SHIMOGYO KU","town":"KIKUYACHO","perfecture_jp":"京都府","jp_add_1":"京都市下京区","jp_add_2":"菊屋町"},"6008464":{"post_code":"6008464","prefecture":"KYOTO FU","city":"KYOTO SHI SHIMOGYO KU","town":"KIKUYACHO","perfecture_jp":"京都府","jp_add_1":"京都市下京区","jp_add_2":"菊屋町"},"6008228":{"post_code":"6008228","prefecture":"KYOTO FU","city":"KYOTO SHI SHIMOGYO KU","town":"KITAKOJICHO","perfecture_jp":"京都府","jp_add_1":"京都市下京区","jp_add_2":"北小路町"},"6008233":{"post_code":"6008233","prefecture":"KYOTO FU","city":"KYOTO SHI SHIMOGYO KU","town":"KITAFUDONDOCHO","perfecture_jp":"京都府","jp_add_1":"京都市下京区","jp_add_2":"北不動堂町"},"6008176":{"post_code":"6008176","prefecture":"KYOTO FU","city":"KYOTO SHI SHIMOGYO KU","town":"KITAMACHI","perfecture_jp":"京都府","jp_add_1":"京都市下京区","jp_add_2":"北町"},"6008356":{"post_code":"6008356","prefecture":"KYOTO FU","city":"KYOTO SHI SHIMOGYO KU","town":"KITAMONZENCHO","perfecture_jp":"京都府","jp_add_1":"京都市下京区","jp_add_2":"北門前町"},"6008069":{"post_code":"6008069","prefecture":"KYOTO FU","city":"KYOTO SHI SHIMOGYO KU","town":"KICHIMONJICHO","perfecture_jp":"京都府","jp_add_1":"京都市下京区","jp_add_2":"吉文字町"},"6008352":{"post_code":"6008352","prefecture":"KYOTO FU","city":"KYOTO SHI SHIMOGYO KU","town":"KICHIMONJICHO(IWAGAMIDORIMATSUBARAA","perfecture_jp":"京都府","jp_add_1":"京都市下京区","jp_add_2":"吉文字町"},"6008253":{"post_code":"6008253","prefecture":"KYOTO FU","city":"KYOTO SHI SHIMOGYO KU","town":"KIZUYACHO","perfecture_jp":"京都府","jp_add_1":"京都市下京区","jp_add_2":"木津屋町"},"6008035":{"post_code":"6008035","prefecture":"KYOTO FU","city":"KYOTO SHI SHIMOGYO KU","town":"KYOGOKUCHO","perfecture_jp":"京都府","jp_add_1":"京都市下京区","jp_add_2":"京極町"},"6008476":{"post_code":"6008476","prefecture":"KYOTO FU","city":"KYOTO SHI SHIMOGYO KU","town":"KIYOSHICHO","perfecture_jp":"京都府","jp_add_1":"京都市下京区","jp_add_2":"喜吉町"},"6008331":{"post_code":"6008331","prefecture":"KYOTO FU","city":"KYOTO SHI SHIMOGYO KU","town":"KINTOYOKOCHO","perfecture_jp":"京都府","jp_add_1":"京都市下京区","jp_add_2":"金東横町"},"6008423":{"post_code":"6008423","prefecture":"KYOTO FU","city":"KYOTO SHI SHIMOGYO KU","town":"KUGIKAKUSHICHO","perfecture_jp":"京都府","jp_add_1":"京都市下京区","jp_add_2":"釘隠町"},"6008081":{"post_code":"6008081","prefecture":"KYOTO FU","city":"KYOTO SHI SHIMOGYO KU","town":"KOISHICHO","perfecture_jp":"京都府","jp_add_1":"京都市下京区","jp_add_2":"小石町"},"6008480":{"post_code":"6008480","prefecture":"KYOTO FU","city":"KYOTO SHI SHIMOGYO KU","town":"KOIZUMICHO","perfecture_jp":"京都府","jp_add_1":"京都市下京区","jp_add_2":"小泉町"},"6008208":{"post_code":"6008208","prefecture":"KYOTO FU","city":"KYOTO SHI SHIMOGYO KU","town":"KOINARICHO","perfecture_jp":"京都府","jp_add_1":"京都市下京区","jp_add_2":"小稲荷町"},"6008460":{"post_code":"6008460","prefecture":"KYOTO FU","city":"KYOTO SHI SHIMOGYO KU","town":"KOJINCHO","perfecture_jp":"京都府","jp_add_1":"京都市下京区","jp_add_2":"荒神町"},"6008034":{"post_code":"6008034","prefecture":"KYOTO FU","city":"KYOTO SHI SHIMOGYO KU","town":"KOTAKECHO","perfecture_jp":"京都府","jp_add_1":"京都市下京区","jp_add_2":"幸竹町"},"6008209":{"post_code":"6008209","prefecture":"KYOTO FU","city":"KYOTO SHI SHIMOGYO KU","town":"GONOCHO","perfecture_jp":"京都府","jp_add_1":"京都市下京区","jp_add_2":"郷之町"},"6008497":{"post_code":"6008497","prefecture":"KYOTO FU","city":"KYOTO SHI SHIMOGYO KU","town":"KOYADOCHO","perfecture_jp":"京都府","jp_add_1":"京都市下京区","jp_add_2":"高野堂町"},"6008149":{"post_code":"6008149","prefecture":"KYOTO FU","city":"KYOTO SHI SHIMOGYO KU","town":"KOGAWACHO","perfecture_jp":"京都府","jp_add_1":"京都市下京区","jp_add_2":"粉川町"},"6008267":{"post_code":"6008267","prefecture":"KYOTO FU","city":"KYOTO SHI SHIMOGYO KU","town":"GOKIYACHO","perfecture_jp":"京都府","jp_add_1":"京都市下京区","jp_add_2":"御器屋町"},"6008429":{"post_code":"6008429","prefecture":"KYOTO FU","city":"KYOTO SHI SHIMOGYO KU","town":"GOKUISHICHO","perfecture_jp":"京都府","jp_add_1":"京都市下京区","jp_add_2":"御供石町"},"6008485":{"post_code":"6008485","prefecture":"KYOTO FU","city":"KYOTO SHI SHIMOGYO KU","town":"GOKENCHO","perfecture_jp":"京都府","jp_add_1":"京都市下京区","jp_add_2":"五軒町"},"6008821":{"post_code":"6008821","prefecture":"KYOTO FU","city":"KYOTO SHI SHIMOGYO KU","town":"KOSAKACHO","perfecture_jp":"京都府","jp_add_1":"京都市下京区","jp_add_2":"小坂町"},"6008426":{"post_code":"6008426","prefecture":"KYOTO FU","city":"KYOTO SHI SHIMOGYO KU","town":"KOJIMACHO","perfecture_jp":"京都府","jp_add_1":"京都市下京区","jp_add_2":"小島町"},"6008418":{"post_code":"6008418","prefecture":"KYOTO FU","city":"KYOTO SHI SHIMOGYO KU","town":"GOJOKARASUMACHO","perfecture_jp":"京都府","jp_add_1":"京都市下京区","jp_add_2":"五条烏丸町"},"6008385":{"post_code":"6008385","prefecture":"KYOTO FU","city":"KYOTO SHI SHIMOGYO KU","town":"GOBOOMIYACHO","perfecture_jp":"京都府","jp_add_1":"京都市下京区","jp_add_2":"五坊大宮町"},"6008229":{"post_code":"6008229","prefecture":"KYOTO FU","city":"KYOTO SHI SHIMOGYO KU","town":"KOMEYACHO","perfecture_jp":"京都府","jp_add_1":"京都市下京区","jp_add_2":"米屋町"},"6008322":{"post_code":"6008322","prefecture":"KYOTO FU","city":"KYOTO SHI SHIMOGYO KU","town":"KOYANAGICHO","perfecture_jp":"京都府","jp_add_1":"京都市下京区","jp_add_2":"小柳町"},"6008130":{"post_code":"6008130","prefecture":"KYOTO FU","city":"KYOTO SHI SHIMOGYO KU","town":"KONYACHO","perfecture_jp":"京都府","jp_add_1":"京都市下京区","jp_add_2":"紺屋町"},"6008012":{"post_code":"6008012","prefecture":"KYOTO FU","city":"KYOTO SHI SHIMOGYO KU","town":"SAITOCHO","perfecture_jp":"京都府","jp_add_1":"京都市下京区","jp_add_2":"斎藤町"},"6008016":{"post_code":"6008016","prefecture":"KYOTO FU","city":"KYOTO SHI SHIMOGYO KU","town":"ZAIMOKUCHO","perfecture_jp":"京都府","jp_add_1":"京都市下京区","jp_add_2":"材木町"},"6008146":{"post_code":"6008146","prefecture":"KYOTO FU","city":"KYOTO SHI SHIMOGYO KU","town":"ZAIMOKUCHO","perfecture_jp":"京都府","jp_add_1":"京都市下京区","jp_add_2":"材木町"},"6008440":{"post_code":"6008440","prefecture":"KYOTO FU","city":"KYOTO SHI SHIMOGYO KU","town":"ZAIMOKUCHO","perfecture_jp":"京都府","jp_add_1":"京都市下京区","jp_add_2":"材木町"},"6008191":{"post_code":"6008191","prefecture":"KYOTO FU","city":"KYOTO SHI SHIMOGYO KU","town":"SAKAIMACHI(GOJODORITAKAKURANISHIIRU","perfecture_jp":"京都府","jp_add_1":"京都市下京区","jp_add_2":"堺町"},"6008162":{"post_code":"6008162","prefecture":"KYOTO FU","city":"KYOTO SHI SHIMOGYO KU","town":"SAKAICHO","perfecture_jp":"京都府","jp_add_1":"京都市下京区","jp_add_2":"堺町"},"6008349":{"post_code":"6008349","prefecture":"KYOTO FU","city":"KYOTO SHI SHIMOGYO KU","town":"SAKAICHO","perfecture_jp":"京都府","jp_add_1":"京都市下京区","jp_add_2":"堺町"},"6008194":{"post_code":"6008194","prefecture":"KYOTO FU","city":"KYOTO SHI SHIMOGYO KU","town":"SAKAECHO","perfecture_jp":"京都府","jp_add_1":"京都市下京区","jp_add_2":"栄町"},"6008381":{"post_code":"6008381","prefecture":"KYOTO FU","city":"KYOTO SHI SHIMOGYO KU","town":"SAGARIMATSUCHO","perfecture_jp":"京都府","jp_add_1":"京都市下京区","jp_add_2":"下り松町"},"6008210":{"post_code":"6008210","prefecture":"KYOTO FU","city":"KYOTO SHI SHIMOGYO KU","town":"SAKURAGICHO","perfecture_jp":"京都府","jp_add_1":"京都市下京区","jp_add_2":"桜木町"},"6008156":{"post_code":"6008156","prefecture":"KYOTO FU","city":"KYOTO SHI SHIMOGYO KU","town":"SASAYACHO","perfecture_jp":"京都府","jp_add_1":"京都市下京区","jp_add_2":"笹屋町"},"6008488":{"post_code":"6008488","prefecture":"KYOTO FU","city":"KYOTO SHI SHIMOGYO KU","town":"SASAYACHO","perfecture_jp":"京都府","jp_add_1":"京都市下京区","jp_add_2":"篠屋町"},"6008391":{"post_code":"6008391","prefecture":"KYOTO FU","city":"KYOTO SHI SHIMOGYO KU","town":"SATAKECHO","perfecture_jp":"京都府","jp_add_1":"京都市下京区","jp_add_2":"佐竹町"},"6008337":{"post_code":"6008337","prefecture":"KYOTO FU","city":"KYOTO SHI SHIMOGYO KU","town":"SAMEGAICHO","perfecture_jp":"京都府","jp_add_1":"京都市下京区","jp_add_2":"佐女牛井町"},"6008394":{"post_code":"6008394","prefecture":"KYOTO FU","city":"KYOTO SHI SHIMOGYO KU","town":"SARASHIYACHO","perfecture_jp":"京都府","jp_add_1":"京都市下京区","jp_add_2":"晒屋町"},"6008257":{"post_code":"6008257","prefecture":"KYOTO FU","city":"KYOTO SHI SHIMOGYO KU","town":"SANGENGAECHICHO","perfecture_jp":"京都府","jp_add_1":"京都市下京区","jp_add_2":"三軒替地町"},"6008097":{"post_code":"6008097","prefecture":"KYOTO FU","city":"KYOTO SHI SHIMOGYO KU","town":"SANGENCHO","perfecture_jp":"京都府","jp_add_1":"京都市下京区","jp_add_2":"三軒町"},"6008134":{"post_code":"6008134","prefecture":"KYOTO FU","city":"KYOTO SHI SHIMOGYO KU","town":"SANNOCHO","perfecture_jp":"京都府","jp_add_1":"京都市下京区","jp_add_2":"山王町"},"6008424":{"post_code":"6008424","prefecture":"KYOTO FU","city":"KYOTO SHI SHIMOGYO KU","town":"SANNOCHO(MUROMACHIDORITAKATSUJIAGAR","perfecture_jp":"京都府","jp_add_1":"京都市下京区","jp_add_2":"山王町"},"6008103":{"post_code":"6008103","prefecture":"KYOTO FU","city":"KYOTO SHI SHIMOGYO KU","town":"SHIOGAMACHO","perfecture_jp":"京都府","jp_add_1":"京都市下京区","jp_add_2":"塩竈町"},"6008212":{"post_code":"6008212","prefecture":"KYOTO FU","city":"KYOTO SHI SHIMOGYO KU","town":"SHIOKOJICHO","perfecture_jp":"京都府","jp_add_1":"京都市下京区","jp_add_2":"塩小路町"},"6008052":{"post_code":"6008052","prefecture":"KYOTO FU","city":"KYOTO SHI SHIMOGYO KU","town":"SHIOYACHO","perfecture_jp":"京都府","jp_add_1":"京都市下京区","jp_add_2":"塩屋町"},"6008144":{"post_code":"6008144","prefecture":"KYOTO FU","city":"KYOTO SHI SHIMOGYO KU","town":"SHIOYACHO","perfecture_jp":"京都府","jp_add_1":"京都市下京区","jp_add_2":"塩屋町"},"6008382":{"post_code":"6008382","prefecture":"KYOTO FU","city":"KYOTO SHI SHIMOGYO KU","town":"SHIOYACHO(KUROMONDORIAYANOKOJISAGAR","perfecture_jp":"京都府","jp_add_1":"京都市下京区","jp_add_2":"塩屋町"},"6008389":{"post_code":"6008389","prefecture":"KYOTO FU","city":"KYOTO SHI SHIMOGYO KU","town":"SHIJO OMIYACHO","perfecture_jp":"京都府","jp_add_1":"京都市下京区","jp_add_2":"四条大宮町"},"6008481":{"post_code":"6008481","prefecture":"KYOTO FU","city":"KYOTO SHI SHIMOGYO KU","town":"SHIJO HORIKAWACHO","perfecture_jp":"京都府","jp_add_1":"京都市下京区","jp_add_2":"四条堀川町"},"6008441":{"post_code":"6008441","prefecture":"KYOTO FU","city":"KYOTO SHI SHIMOGYO KU","town":"SHIJOCHO","perfecture_jp":"京都府","jp_add_1":"京都市下京区","jp_add_2":"四条町"},"6008861":{"post_code":"6008861","prefecture":"KYOTO FU","city":"KYOTO SHI SHIMOGYO KU","town":"SHICHIJOGOSHONOCHI KITAMACHI","perfecture_jp":"京都府","jp_add_1":"京都市下京区","jp_add_2":"七条御所ノ内北町"},"6008862":{"post_code":"6008862","prefecture":"KYOTO FU","city":"KYOTO SHI SHIMOGYO KU","town":"SHICHIJOGOSHONOCHI NAKAMACHI","perfecture_jp":"京都府","jp_add_1":"京都市下京区","jp_add_2":"七条御所ノ内中町"},"6008865":{"post_code":"6008865","prefecture":"KYOTO FU","city":"KYOTO SHI SHIMOGYO KU","town":"SHICHIJOGOSHONOCHI NISHIMACHI","perfecture_jp":"京都府","jp_add_1":"京都市下京区","jp_add_2":"七条御所ノ内西町"},"6008863":{"post_code":"6008863","prefecture":"KYOTO FU","city":"KYOTO SHI SHIMOGYO KU","town":"SHICHIJOGOSHONOCHI HOMMACHI","perfecture_jp":"京都府","jp_add_1":"京都市下京区","jp_add_2":"七条御所ノ内本町"},"6008864":{"post_code":"6008864","prefecture":"KYOTO FU","city":"KYOTO SHI SHIMOGYO KU","town":"SHICHIJOGOSHONOCHI MINAMIMACHI","perfecture_jp":"京都府","jp_add_1":"京都市下京区","jp_add_2":"七条御所ノ内南町"},"6008316":{"post_code":"6008316","prefecture":"KYOTO FU","city":"KYOTO SHI SHIMOGYO KU","town":"SHIHOMMATSUCHO","perfecture_jp":"京都府","jp_add_1":"京都市下京区","jp_add_2":"四本松町"},"6008025":{"post_code":"6008025","prefecture":"KYOTO FU","city":"KYOTO SHI SHIMOGYO KU","town":"SHIMIZUCHO","perfecture_jp":"京都府","jp_add_1":"京都市下京区","jp_add_2":"清水町"},"6008255":{"post_code":"6008255","prefecture":"KYOTO FU","city":"KYOTO SHI SHIMOGYO KU","town":"SHIMIZUCHO","perfecture_jp":"京都府","jp_add_1":"京都市下京区","jp_add_2":"清水町"},"6008241":{"post_code":"6008241","prefecture":"KYOTO FU","city":"KYOTO SHI SHIMOGYO KU","town":"SHIMIZUCHO","perfecture_jp":"京都府","jp_add_1":"京都市下京区","jp_add_2":"志水町"},"6008263":{"post_code":"6008263","prefecture":"KYOTO FU","city":"KYOTO SHI SHIMOGYO KU","town":"SHIMOONOTANA(4-CHOME)","perfecture_jp":"京都府","jp_add_1":"京都市下京区","jp_add_2":"下魚棚"},"6008059":{"post_code":"6008059","prefecture":"KYOTO FU","city":"KYOTO SHI SHIMOGYO KU","town":"SHIMOROKOGATACHO","perfecture_jp":"京都府","jp_add_1":"京都市下京区","jp_add_2":"下鱗形町"},"6008249":{"post_code":"6008249","prefecture":"KYOTO FU","city":"KYOTO SHI SHIMOGYO KU","town":"SHIMOKOJIYACHO","perfecture_jp":"京都府","jp_add_1":"京都市下京区","jp_add_2":"下糀屋町"},"6008373":{"post_code":"6008373","prefecture":"KYOTO FU","city":"KYOTO SHI SHIMOGYO KU","town":"SHIMOGOJOCHO","perfecture_jp":"京都府","jp_add_1":"京都市下京区","jp_add_2":"下五条町"},"6008017":{"post_code":"6008017","prefecture":"KYOTO FU","city":"KYOTO SHI SHIMOGYO KU","town":"SHIMOZAIMOKUCHO","perfecture_jp":"京都府","jp_add_1":"京都市下京区","jp_add_2":"下材木町"},"6008136":{"post_code":"6008136","prefecture":"KYOTO FU","city":"KYOTO SHI SHIMOGYO KU","town":"SHIMOSANNOMIYACHO","perfecture_jp":"京都府","jp_add_1":"京都市下京区","jp_add_2":"下三之宮町"},"6008163":{"post_code":"6008163","prefecture":"KYOTO FU","city":"KYOTO SHI SHIMOGYO KU","town":"SHIMOSUWANCHO","perfecture_jp":"京都府","jp_add_1":"京都市下京区","jp_add_2":"下諏訪町"},"6008375":{"post_code":"6008375","prefecture":"KYOTO FU","city":"KYOTO SHI SHIMOGYO KU","town":"SHIMOCHOFUKUJICHO","perfecture_jp":"京都府","jp_add_1":"京都市下京区","jp_add_2":"下長福寺町"},"6008132":{"post_code":"6008132","prefecture":"KYOTO FU","city":"KYOTO SHI SHIMOGYO KU","town":"SHIMONINOMIYACHO","perfecture_jp":"京都府","jp_add_1":"京都市下京区","jp_add_2":"下二之宮町"},"6008206":{"post_code":"6008206","prefecture":"KYOTO FU","city":"KYOTO SHI SHIMOGYO KU","town":"SHIMONOCHO","perfecture_jp":"京都府","jp_add_1":"京都市下京区","jp_add_2":"下之町"},"6008172":{"post_code":"6008172","prefecture":"KYOTO FU","city":"KYOTO SHI SHIMOGYO KU","town":"SHIMOHIRANOCHO","perfecture_jp":"京都府","jp_add_1":"京都市下京区","jp_add_2":"下平野町"},"6008180":{"post_code":"6008180","prefecture":"KYOTO FU","city":"KYOTO SHI SHIMOGYO KU","town":"SHIMOMANJUJICHO","perfecture_jp":"京都府","jp_add_1":"京都市下京区","jp_add_2":"下万寿寺町"},"6008165":{"post_code":"6008165","prefecture":"KYOTO FU","city":"KYOTO SHI SHIMOGYO KU","town":"SHIMOYANAGICHO","perfecture_jp":"京都府","jp_add_1":"京都市下京区","jp_add_2":"下柳町"},"6008137":{"post_code":"6008137","prefecture":"KYOTO FU","city":"KYOTO SHI SHIMOGYO KU","town":"JUZENJICHO","perfecture_jp":"京都府","jp_add_1":"京都市下京区","jp_add_2":"十禅師町"},"6008354":{"post_code":"6008354","prefecture":"KYOTO FU","city":"KYOTO SHI SHIMOGYO KU","town":"JUMONJICHO","perfecture_jp":"京都府","jp_add_1":"京都市下京区","jp_add_2":"十文字町"},"6008348":{"post_code":"6008348","prefecture":"KYOTO FU","city":"KYOTO SHI SHIMOGYO KU","town":"JUZUYACHO","perfecture_jp":"京都府","jp_add_1":"京都市下京区","jp_add_2":"珠数屋町"},"6008417":{"post_code":"6008417","prefecture":"KYOTO FU","city":"KYOTO SHI SHIMOGYO KU","town":"SHUNZEICHO","perfecture_jp":"京都府","jp_add_1":"京都市下京区","jp_add_2":"俊成町"},"6008021":{"post_code":"6008021","prefecture":"KYOTO FU","city":"KYOTO SHI SHIMOGYO KU","town":"JUMPUCHO","perfecture_jp":"京都府","jp_add_1":"京都市下京区","jp_add_2":"順風町"},"6008116":{"post_code":"6008116","prefecture":"KYOTO FU","city":"KYOTO SHI SHIMOGYO KU","town":"SHOSHINJICHO","perfecture_jp":"京都府","jp_add_1":"京都市下京区","jp_add_2":"聖真子町"},"6008158":{"post_code":"6008158","prefecture":"KYOTO FU","city":"KYOTO SHI SHIMOGYO KU","town":"SHOKUYACHO","perfecture_jp":"京都府","jp_add_1":"京都市下京区","jp_add_2":"卓屋町"},"6008084":{"post_code":"6008084","prefecture":"KYOTO FU","city":"KYOTO SHI SHIMOGYO KU","town":"SHINKAICHO","perfecture_jp":"京都府","jp_add_1":"京都市下京区","jp_add_2":"新開町"},"6008471":{"post_code":"6008471","prefecture":"KYOTO FU","city":"KYOTO SHI SHIMOGYO KU","town":"SHINKAMANZACHO","perfecture_jp":"京都府","jp_add_1":"京都市下京区","jp_add_2":"新釜座町"},"6008001":{"post_code":"6008001","prefecture":"KYOTO FU","city":"KYOTO SHI SHIMOGYO KU","town":"SHINCHO","perfecture_jp":"京都府","jp_add_1":"京都市下京区","jp_add_2":"真町"},"6008141":{"post_code":"6008141","prefecture":"KYOTO FU","city":"KYOTO SHI SHIMOGYO KU","town":"SHINHIYOSHICHO","perfecture_jp":"京都府","jp_add_1":"京都市下京区","jp_add_2":"新日吉町"},"6008092":{"post_code":"6008092","prefecture":"KYOTO FU","city":"KYOTO SHI SHIMOGYO KU","town":"SHIMMEICHO","perfecture_jp":"京都府","jp_add_1":"京都市下京区","jp_add_2":"神明町"},"6008411":{"post_code":"6008411","prefecture":"KYOTO FU","city":"KYOTO SHI SHIMOGYO KU","town":"SUIGINYACHO","perfecture_jp":"京都府","jp_add_1":"京都市下京区","jp_add_2":"水銀屋町"},"6008386":{"post_code":"6008386","prefecture":"KYOTO FU","city":"KYOTO SHI SHIMOGYO KU","town":"SUGIEBISUCHO","perfecture_jp":"京都府","jp_add_1":"京都市下京区","jp_add_2":"杉蛭子町"},"6008078":{"post_code":"6008078","prefecture":"KYOTO FU","city":"KYOTO SHI SHIMOGYO KU","town":"SUGIYACHO","perfecture_jp":"京都府","jp_add_1":"京都市下京区","jp_add_2":"杉屋町"},"6008843":{"post_code":"6008843","prefecture":"KYOTO FU","city":"KYOTO SHI SHIMOGYO KU","town":"SUJAKU UCHIHATACHO","perfecture_jp":"京都府","jp_add_1":"京都市下京区","jp_add_2":"朱雀内畑町"},"6008844":{"post_code":"6008844","prefecture":"KYOTO FU","city":"KYOTO SHI SHIMOGYO KU","town":"SUJAKU URAHATACHO","perfecture_jp":"京都府","jp_add_1":"京都市下京区","jp_add_2":"朱雀裏畑町"},"6008845":{"post_code":"6008845","prefecture":"KYOTO FU","city":"KYOTO SHI SHIMOGYO KU","town":"SUJAKU KITANOKUCHICHO","perfecture_jp":"京都府","jp_add_1":"京都市下京区","jp_add_2":"朱雀北ノ口町"},"6008841":{"post_code":"6008841","prefecture":"KYOTO FU","city":"KYOTO SHI SHIMOGYO KU","town":"SUJAKU SHOKAICHO","perfecture_jp":"京都府","jp_add_1":"京都市下京区","jp_add_2":"朱雀正会町"},"6008842":{"post_code":"6008842","prefecture":"KYOTO FU","city":"KYOTO SHI SHIMOGYO KU","town":"SUJAKU DONOKUCHICHO","perfecture_jp":"京都府","jp_add_1":"京都市下京区","jp_add_2":"朱雀堂ノ口町"},"6008847":{"post_code":"6008847","prefecture":"KYOTO FU","city":"KYOTO SHI SHIMOGYO KU","town":"SUJAKU BUNKICHO","perfecture_jp":"京都府","jp_add_1":"京都市下京区","jp_add_2":"朱雀分木町"},"6008846":{"post_code":"6008846","prefecture":"KYOTO FU","city":"KYOTO SHI SHIMOGYO KU","town":"SUJAKU HOZOCHO","perfecture_jp":"京都府","jp_add_1":"京都市下京区","jp_add_2":"朱雀宝蔵町"},"6008061":{"post_code":"6008061","prefecture":"KYOTO FU","city":"KYOTO SHI SHIMOGYO KU","town":"SUJIYACHO","perfecture_jp":"京都府","jp_add_1":"京都市下京区","jp_add_2":"筋屋町"},"6008048":{"post_code":"6008048","prefecture":"KYOTO FU","city":"KYOTO SHI SHIMOGYO KU","town":"SUBAMACHO","perfecture_jp":"京都府","jp_add_1":"京都市下京区","jp_add_2":"須浜町"},"6008143":{"post_code":"6008143","prefecture":"KYOTO FU","city":"KYOTO SHI SHIMOGYO KU","town":"SUMIYOSHICHO","perfecture_jp":"京都府","jp_add_1":"京都市下京区","jp_add_2":"住吉町"},"6008335":{"post_code":"6008335","prefecture":"KYOTO FU","city":"KYOTO SHI SHIMOGYO KU","town":"SUMIYOSHICHO(SAMEGAIDORITAKATSUJISA","perfecture_jp":"京都府","jp_add_1":"京都市下京区","jp_add_2":"住吉町"},"6008468":{"post_code":"6008468","prefecture":"KYOTO FU","city":"KYOTO SHI SHIMOGYO KU","town":"SUMIYOSHICHO","perfecture_jp":"京都府","jp_add_1":"京都市下京区","jp_add_2":"住吉町"},"6008832":{"post_code":"6008832","prefecture":"KYOTO FU","city":"KYOTO SHI SHIMOGYO KU","town":"SUWABIRAKICHO","perfecture_jp":"京都府","jp_add_1":"京都市下京区","jp_add_2":"諏訪開町"},"6008398":{"post_code":"6008398","prefecture":"KYOTO FU","city":"KYOTO SHI SHIMOGYO KU","town":"SETOYACHO","perfecture_jp":"京都府","jp_add_1":"京都市下京区","jp_add_2":"瀬戸屋町"},"6008303":{"post_code":"6008303","prefecture":"KYOTO FU","city":"KYOTO SHI SHIMOGYO KU","town":"ZENIYACHO","perfecture_jp":"京都府","jp_add_1":"京都市下京区","jp_add_2":"銭屋町"},"6008076":{"post_code":"6008076","prefecture":"KYOTO FU","city":"KYOTO SHI SHIMOGYO KU","town":"SENSHOJICHO","perfecture_jp":"京都府","jp_add_1":"京都市下京区","jp_add_2":"泉正寺町"},"6008338":{"post_code":"6008338","prefecture":"KYOTO FU","city":"KYOTO SHI SHIMOGYO KU","town":"SENSUICHO","perfecture_jp":"京都府","jp_add_1":"京都市下京区","jp_add_2":"泉水町"},"6008431":{"post_code":"6008431","prefecture":"KYOTO FU","city":"KYOTO SHI SHIMOGYO KU","town":"ZENCHOJICHO","perfecture_jp":"京都府","jp_add_1":"京都市下京区","jp_add_2":"善長寺町"},"6008019":{"post_code":"6008019","prefecture":"KYOTO FU","city":"KYOTO SHI SHIMOGYO KU","town":"SENDOCHO","perfecture_jp":"京都府","jp_add_1":"京都市下京区","jp_add_2":"船頭町"},"6008128":{"post_code":"6008128","prefecture":"KYOTO FU","city":"KYOTO SHI SHIMOGYO KU","town":"DAIKUCHO","perfecture_jp":"京都府","jp_add_1":"京都市下京区","jp_add_2":"大工町"},"6008268":{"post_code":"6008268","prefecture":"KYOTO FU","city":"KYOTO SHI SHIMOGYO KU","town":"DAIKUCHO","perfecture_jp":"京都府","jp_add_1":"京都市下京区","jp_add_2":"大工町"},"6008043":{"post_code":"6008043","prefecture":"KYOTO FU","city":"KYOTO SHI SHIMOGYO KU","town":"DAIKOKUCHO","perfecture_jp":"京都府","jp_add_1":"京都市下京区","jp_add_2":"大黒町"},"6008161":{"post_code":"6008161","prefecture":"KYOTO FU","city":"KYOTO SHI SHIMOGYO KU","town":"DAIKOKUCHO","perfecture_jp":"京都府","jp_add_1":"京都市下京区","jp_add_2":"大黒町"},"6008223":{"post_code":"6008223","prefecture":"KYOTO FU","city":"KYOTO SHI SHIMOGYO KU","town":"DAIKOKUCHO","perfecture_jp":"京都府","jp_add_1":"京都市下京区","jp_add_2":"大黒町"},"6008106":{"post_code":"6008106","prefecture":"KYOTO FU","city":"KYOTO SHI SHIMOGYO KU","town":"DAIGOCHO","perfecture_jp":"京都府","jp_add_1":"京都市下京区","jp_add_2":"醍醐町"},"6008469":{"post_code":"6008469","prefecture":"KYOTO FU","city":"KYOTO SHI SHIMOGYO KU","town":"TAISHIYAMACHO","perfecture_jp":"京都府","jp_add_1":"京都市下京区","jp_add_2":"太子山町"},"6008039":{"post_code":"6008039","prefecture":"KYOTO FU","city":"KYOTO SHI SHIMOGYO KU","town":"DAIZUCHO","perfecture_jp":"京都府","jp_add_1":"京都市下京区","jp_add_2":"大寿町"},"6008237":{"post_code":"6008237","prefecture":"KYOTO FU","city":"KYOTO SHI SHIMOGYO KU","town":"TAIMATSUCHO","perfecture_jp":"京都府","jp_add_1":"京都市下京区","jp_add_2":"松明町"},"6008221":{"post_code":"6008221","prefecture":"KYOTO FU","city":"KYOTO SHI SHIMOGYO KU","town":"TAKAOCHO","perfecture_jp":"京都府","jp_add_1":"京都市下京区","jp_add_2":"高雄町"},"6008082":{"post_code":"6008082","prefecture":"KYOTO FU","city":"KYOTO SHI SHIMOGYO KU","town":"TAKAZAIMOKUCHO","perfecture_jp":"京都府","jp_add_1":"京都市下京区","jp_add_2":"高材木町"},"6008420":{"post_code":"6008420","prefecture":"KYOTO FU","city":"KYOTO SHI SHIMOGYO KU","town":"TAKASAGOCHO","perfecture_jp":"京都府","jp_add_1":"京都市下京区","jp_add_2":"高砂町"},"6008174":{"post_code":"6008174","prefecture":"KYOTO FU","city":"KYOTO SHI SHIMOGYO KU","town":"TAKATSUKICHO","perfecture_jp":"京都府","jp_add_1":"京都市下京区","jp_add_2":"高槻町"},"6008353":{"post_code":"6008353","prefecture":"KYOTO FU","city":"KYOTO SHI SHIMOGYO KU","town":"TAKATSUJI INOKUMACHO","perfecture_jp":"京都府","jp_add_1":"京都市下京区","jp_add_2":"高辻猪熊町"},"6008387":{"post_code":"6008387","prefecture":"KYOTO FU","city":"KYOTO SHI SHIMOGYO KU","town":"TAKATSUJI OMIYACHO","perfecture_jp":"京都府","jp_add_1":"京都市下京区","jp_add_2":"高辻大宮町"},"6008465":{"post_code":"6008465","prefecture":"KYOTO FU","city":"KYOTO SHI SHIMOGYO KU","town":"TAKATSUJI NISHINOTOINCHO","perfecture_jp":"京都府","jp_add_1":"京都市下京区","jp_add_2":"高辻西洞院町"},"6008486":{"post_code":"6008486","prefecture":"KYOTO FU","city":"KYOTO SHI SHIMOGYO KU","town":"TAKATSUJI HORIKAWACHO","perfecture_jp":"京都府","jp_add_1":"京都市下京区","jp_add_2":"高辻堀川町"},"6008434":{"post_code":"6008434","prefecture":"KYOTO FU","city":"KYOTO SHI SHIMOGYO KU","town":"TAKATSUJICHO","perfecture_jp":"京都府","jp_add_1":"京都市下京区","jp_add_2":"高辻町"},"6008096":{"post_code":"6008096","prefecture":"KYOTO FU","city":"KYOTO SHI SHIMOGYO KU","town":"TAKAHASHICHO","perfecture_jp":"京都府","jp_add_1":"京都市下京区","jp_add_2":"高橋町"},"6008123":{"post_code":"6008123","prefecture":"KYOTO FU","city":"KYOTO SHI SHIMOGYO KU","town":"TAKAMIYACHO","perfecture_jp":"京都府","jp_add_1":"京都市下京区","jp_add_2":"高宮町"},"6008093":{"post_code":"6008093","prefecture":"KYOTO FU","city":"KYOTO SHI SHIMOGYO KU","town":"TAKEYACHO","perfecture_jp":"京都府","jp_add_1":"京都市下京区","jp_add_2":"竹屋町"},"6008319":{"post_code":"6008319","prefecture":"KYOTO FU","city":"KYOTO SHI SHIMOGYO KU","town":"TAKEYACHO(WAKAMIYADORIKITAKOJISAGAR","perfecture_jp":"京都府","jp_add_1":"京都市下京区","jp_add_2":"竹屋町"},"6008090":{"post_code":"6008090","prefecture":"KYOTO FU","city":"KYOTO SHI SHIMOGYO KU","town":"TAKEYANOCHO","perfecture_jp":"京都府","jp_add_1":"京都市下京区","jp_add_2":"竹屋之町"},"6008006":{"post_code":"6008006","prefecture":"KYOTO FU","city":"KYOTO SHI SHIMOGYO KU","town":"TACHIURI NAKANOCHO","perfecture_jp":"京都府","jp_add_1":"京都市下京区","jp_add_2":"立売中之町"},"6008007":{"post_code":"6008007","prefecture":"KYOTO FU","city":"KYOTO SHI SHIMOGYO KU","town":"TACHIURI NISHIMACHI","perfecture_jp":"京都府","jp_add_1":"京都市下京区","jp_add_2":"立売西町"},"6008005":{"post_code":"6008005","prefecture":"KYOTO FU","city":"KYOTO SHI SHIMOGYO KU","town":"TACHIURI HIGASHICHO","perfecture_jp":"京都府","jp_add_1":"京都市下京区","jp_add_2":"立売東町"},"6008044":{"post_code":"6008044","prefecture":"KYOTO FU","city":"KYOTO SHI SHIMOGYO KU","town":"TACHIBANACHO","perfecture_jp":"京都府","jp_add_1":"京都市下京区","jp_add_2":"橘町"},"6008157":{"post_code":"6008157","prefecture":"KYOTO FU","city":"KYOTO SHI SHIMOGYO KU","town":"TACHIBANACHO","perfecture_jp":"京都府","jp_add_1":"京都市下京区","jp_add_2":"橘町"},"6008487":{"post_code":"6008487","prefecture":"KYOTO FU","city":"KYOTO SHI SHIMOGYO KU","town":"TACHIBANACHO","perfecture_jp":"京都府","jp_add_1":"京都市下京区","jp_add_2":"橘町"},"6008490":{"post_code":"6008490","prefecture":"KYOTO FU","city":"KYOTO SHI SHIMOGYO KU","town":"TATSUNAKACHO","perfecture_jp":"京都府","jp_add_1":"京都市下京区","jp_add_2":"立中町"},"6008307":{"post_code":"6008307","prefecture":"KYOTO FU","city":"KYOTO SHI SHIMOGYO KU","town":"TATSUMICHO","perfecture_jp":"京都府","jp_add_1":"京都市下京区","jp_add_2":"辰巳町"},"6008038":{"post_code":"6008038","prefecture":"KYOTO FU","city":"KYOTO SHI SHIMOGYO KU","town":"TABIYACHO","perfecture_jp":"京都府","jp_add_1":"京都市下京区","jp_add_2":"足袋屋町"},"6008427":{"post_code":"6008427","prefecture":"KYOTO FU","city":"KYOTO SHI SHIMOGYO KU","town":"TAMATSUSHIMACHO","perfecture_jp":"京都府","jp_add_1":"京都市下京区","jp_add_2":"玉津島町"},"6008346":{"post_code":"6008346","prefecture":"KYOTO FU","city":"KYOTO SHI SHIMOGYO KU","town":"TAMAMOTOCHO","perfecture_jp":"京都府","jp_add_1":"京都市下京区","jp_add_2":"玉本町"},"6008409":{"post_code":"6008409","prefecture":"KYOTO FU","city":"KYOTO SHI SHIMOGYO KU","town":"TAMAYACHO","perfecture_jp":"京都府","jp_add_1":"京都市下京区","jp_add_2":"玉屋町"},"6008129":{"post_code":"6008129","prefecture":"KYOTO FU","city":"KYOTO SHI SHIMOGYO KU","town":"TAMEIKECHO","perfecture_jp":"京都府","jp_add_1":"京都市下京区","jp_add_2":"溜池町"},"6008264":{"post_code":"6008264","prefecture":"KYOTO FU","city":"KYOTO SHI SHIMOGYO KU","town":"TARUYACHO","perfecture_jp":"京都府","jp_add_1":"京都市下京区","jp_add_2":"樽屋町"},"6008042":{"post_code":"6008042","prefecture":"KYOTO FU","city":"KYOTO SHI SHIMOGYO KU","town":"TAWARAYACHO(FUYACHODORIAYANOKOJISAG","perfecture_jp":"京都府","jp_add_1":"京都市下京区","jp_add_2":"俵屋町"},"6008070":{"post_code":"6008070","prefecture":"KYOTO FU","city":"KYOTO SHI SHIMOGYO KU","town":"TAWARAYACHO","perfecture_jp":"京都府","jp_add_1":"京都市下京区","jp_add_2":"俵屋町"},"6008365":{"post_code":"6008365","prefecture":"KYOTO FU","city":"KYOTO SHI SHIMOGYO KU","town":"TAMBAKAIDOCHO","perfecture_jp":"京都府","jp_add_1":"京都市下京区","jp_add_2":"丹波街道町"},"6008036":{"post_code":"6008036","prefecture":"KYOTO FU","city":"KYOTO SHI SHIMOGYO KU","town":"CHAMAYACHO(TAKATSUJIDORIGOKOMACHIHI","perfecture_jp":"京都府","jp_add_1":"京都市下京区","jp_add_2":"茶磨屋町"},"6008045":{"post_code":"6008045","prefecture":"KYOTO FU","city":"KYOTO SHI SHIMOGYO KU","town":"CHAMAYACHO(TAKATSUJIDORIGOKOMACHINI","perfecture_jp":"京都府","jp_add_1":"京都市下京区","jp_add_2":"茶磨屋町"},"6008068":{"post_code":"6008068","prefecture":"KYOTO FU","city":"KYOTO SHI SHIMOGYO KU","town":"CHUANCHO","perfecture_jp":"京都府","jp_add_1":"京都市下京区","jp_add_2":"忠庵町"},"6008815":{"post_code":"6008815","prefecture":"KYOTO FU","city":"KYOTO SHI SHIMOGYO KU","town":"CHUDOJI AWATACHO","perfecture_jp":"京都府","jp_add_1":"京都市下京区","jp_add_2":"中堂寺粟田町"},"6008805":{"post_code":"6008805","prefecture":"KYOTO FU","city":"KYOTO SHI SHIMOGYO KU","town":"CHUDOJI KAGITACHO","perfecture_jp":"京都府","jp_add_1":"京都市下京区","jp_add_2":"中堂寺鍵田町"},"6008812":{"post_code":"6008812","prefecture":"KYOTO FU","city":"KYOTO SHI SHIMOGYO KU","town":"CHUDOJI KITAMACHI","perfecture_jp":"京都府","jp_add_1":"京都市下京区","jp_add_2":"中堂寺北町"},"6008802":{"post_code":"6008802","prefecture":"KYOTO FU","city":"KYOTO SHI SHIMOGYO KU","town":"CHUDOJI KUSHIGECHO","perfecture_jp":"京都府","jp_add_1":"京都市下京区","jp_add_2":"中堂寺櫛笥町"},"6008814":{"post_code":"6008814","prefecture":"KYOTO FU","city":"KYOTO SHI SHIMOGYO KU","town":"CHUDOJI SHONOCHICHO","perfecture_jp":"京都府","jp_add_1":"京都市下京区","jp_add_2":"中堂寺庄ノ内町"},"6008801":{"post_code":"6008801","prefecture":"KYOTO FU","city":"KYOTO SHI SHIMOGYO KU","town":"CHUDOJI NISHIDERACHO","perfecture_jp":"京都府","jp_add_1":"京都市下京区","jp_add_2":"中堂寺西寺町"},"6008811":{"post_code":"6008811","prefecture":"KYOTO FU","city":"KYOTO SHI SHIMOGYO KU","town":"CHUDOJI BOJOCHO","perfecture_jp":"京都府","jp_add_1":"京都市下京区","jp_add_2":"中堂寺坊城町"},"6008804":{"post_code":"6008804","prefecture":"KYOTO FU","city":"KYOTO SHI SHIMOGYO KU","town":"CHUDOJI MAEDACHO","perfecture_jp":"京都府","jp_add_1":"京都市下京区","jp_add_2":"中堂寺前田町"},"6008362":{"post_code":"6008362","prefecture":"KYOTO FU","city":"KYOTO SHI SHIMOGYO KU","town":"CHUDOJI MAECHO","perfecture_jp":"京都府","jp_add_1":"京都市下京区","jp_add_2":"中堂寺前町"},"6008813":{"post_code":"6008813","prefecture":"KYOTO FU","city":"KYOTO SHI SHIMOGYO KU","town":"CHUDOJI MINAMIMACHI","perfecture_jp":"京都府","jp_add_1":"京都市下京区","jp_add_2":"中堂寺南町"},"6008806":{"post_code":"6008806","prefecture":"KYOTO FU","city":"KYOTO SHI SHIMOGYO KU","town":"CHUDOJI MIBUGAWACHO","perfecture_jp":"京都府","jp_add_1":"京都市下京区","jp_add_2":"中堂寺壬生川町"},"6008807":{"post_code":"6008807","prefecture":"KYOTO FU","city":"KYOTO SHI SHIMOGYO KU","town":"CHUDOJI MYOBUCHO","perfecture_jp":"京都府","jp_add_1":"京都市下京区","jp_add_2":"中堂寺命婦町"},"6008803":{"post_code":"6008803","prefecture":"KYOTO FU","city":"KYOTO SHI SHIMOGYO KU","town":"CHUDOJI YABUNOCHICHO","perfecture_jp":"京都府","jp_add_1":"京都市下京区","jp_add_2":"中堂寺薮ノ内町"},"6008364":{"post_code":"6008364","prefecture":"KYOTO FU","city":"KYOTO SHI SHIMOGYO KU","town":"TSUKINUKE(CHOME)","perfecture_jp":"京都府","jp_add_1":"京都市下京区","jp_add_2":"突抜"},"6008492":{"post_code":"6008492","prefecture":"KYOTO FU","city":"KYOTO SHI SHIMOGYO KU","town":"TSUKIHOKOCHO","perfecture_jp":"京都府","jp_add_1":"京都市下京区","jp_add_2":"月鉾町"},"6008453":{"post_code":"6008453","prefecture":"KYOTO FU","city":"KYOTO SHI SHIMOGYO KU","town":"TSUKIMICHO","perfecture_jp":"京都府","jp_add_1":"京都市下京区","jp_add_2":"月見町"},"6008226":{"post_code":"6008226","prefecture":"KYOTO FU","city":"KYOTO SHI SHIMOGYO KU","town":"TSUCHIHASHICHO","perfecture_jp":"京都府","jp_add_1":"京都市下京区","jp_add_2":"土橋町"},"6008396":{"post_code":"6008396","prefecture":"KYOTO FU","city":"KYOTO SHI SHIMOGYO KU","town":"TSUCHIYACHO","perfecture_jp":"京都府","jp_add_1":"京都市下京区","jp_add_2":"槌屋町"},"6008152":{"post_code":"6008152","prefecture":"KYOTO FU","city":"KYOTO SHI SHIMOGYO KU","town":"TSUTSUGANECHO","perfecture_jp":"京都府","jp_add_1":"京都市下京区","jp_add_2":"筒金町"},"6008085":{"post_code":"6008085","prefecture":"KYOTO FU","city":"KYOTO SHI SHIMOGYO KU","town":"TSUZURAYACHO","perfecture_jp":"京都府","jp_add_1":"京都市下京区","jp_add_2":"葛籠屋町"},"6008031":{"post_code":"6008031","prefecture":"KYOTO FU","city":"KYOTO SHI SHIMOGYO KU","town":"TEIAMMAENOCHO","perfecture_jp":"京都府","jp_add_1":"京都市下京区","jp_add_2":"貞安前之町"},"6008265":{"post_code":"6008265","prefecture":"KYOTO FU","city":"KYOTO SHI SHIMOGYO KU","town":"TEPPOCHO","perfecture_jp":"京都府","jp_add_1":"京都市下京区","jp_add_2":"徹宝町"},"6008456":{"post_code":"6008456","prefecture":"KYOTO FU","city":"KYOTO SHI SHIMOGYO KU","town":"TENSHITSUKINUKE(CHOME)","perfecture_jp":"京都府","jp_add_1":"京都市下京区","jp_add_2":"天使突抜"},"6008184":{"post_code":"6008184","prefecture":"KYOTO FU","city":"KYOTO SHI SHIMOGYO KU","town":"TENJINCHO","perfecture_jp":"京都府","jp_add_1":"京都市下京区","jp_add_2":"天神町"},"6008459":{"post_code":"6008459","prefecture":"KYOTO FU","city":"KYOTO SHI SHIMOGYO KU","town":"TENJIMMAECHO","perfecture_jp":"京都府","jp_add_1":"京都市下京区","jp_add_2":"天神前町"},"6008013":{"post_code":"6008013","prefecture":"KYOTO FU","city":"KYOTO SHI SHIMOGYO KU","town":"TENNOCHO","perfecture_jp":"京都府","jp_add_1":"京都市下京区","jp_add_2":"天王町"},"6008024":{"post_code":"6008024","prefecture":"KYOTO FU","city":"KYOTO SHI SHIMOGYO KU","town":"TEMMACHO","perfecture_jp":"京都府","jp_add_1":"京都市下京区","jp_add_2":"天満町"},"6008111":{"post_code":"6008111","prefecture":"KYOTO FU","city":"KYOTO SHI SHIMOGYO KU","town":"TOICHICHO","perfecture_jp":"京都府","jp_add_1":"京都市下京区","jp_add_2":"都市町"},"6008421":{"post_code":"6008421","prefecture":"KYOTO FU","city":"KYOTO SHI SHIMOGYO KU","town":"DOJISHACHO","perfecture_jp":"京都府","jp_add_1":"京都市下京区","jp_add_2":"童侍者町"},"6008401":{"post_code":"6008401","prefecture":"KYOTO FU","city":"KYOTO SHI SHIMOGYO KU","town":"TOROCHO","perfecture_jp":"京都府","jp_add_1":"京都市下京区","jp_add_2":"燈籠町"},"6008167":{"post_code":"6008167","prefecture":"KYOTO FU","city":"KYOTO SHI SHIMOGYO KU","town":"TOKIWACHO","perfecture_jp":"京都府","jp_add_1":"京都市下京区","jp_add_2":"常葉町"},"6008461":{"post_code":"6008461","prefecture":"KYOTO FU","city":"KYOTO SHI SHIMOGYO KU","town":"TOKUSAYAMACHO","perfecture_jp":"京都府","jp_add_1":"京都市下京区","jp_add_2":"木賊山町"},"6008051":{"post_code":"6008051","prefecture":"KYOTO FU","city":"KYOTO SHI SHIMOGYO KU","town":"TOKUSHOJICHO","perfecture_jp":"京都府","jp_add_1":"京都市下京区","jp_add_2":"徳正寺町"},"6008437":{"post_code":"6008437","prefecture":"KYOTO FU","city":"KYOTO SHI SHIMOGYO KU","town":"TOKUMANCHO","perfecture_jp":"京都府","jp_add_1":"京都市下京区","jp_add_2":"徳万町"},"6008395":{"post_code":"6008395","prefecture":"KYOTO FU","city":"KYOTO SHI SHIMOGYO KU","town":"TOKUYACHO","perfecture_jp":"京都府","jp_add_1":"京都市下京区","jp_add_2":"徳屋町"},"6008186":{"post_code":"6008186","prefecture":"KYOTO FU","city":"KYOTO SHI SHIMOGYO KU","town":"TOMITACHO","perfecture_jp":"京都府","jp_add_1":"京都市下京区","jp_add_2":"富田町"},"6008023":{"post_code":"6008023","prefecture":"KYOTO FU","city":"KYOTO SHI SHIMOGYO KU","town":"TOMINAGACHO","perfecture_jp":"京都府","jp_add_1":"京都市下京区","jp_add_2":"富永町"},"6008351":{"post_code":"6008351","prefecture":"KYOTO FU","city":"KYOTO SHI SHIMOGYO KU","town":"TOMINAGACHO","perfecture_jp":"京都府","jp_add_1":"京都市下京区","jp_add_2":"富永町"},"6008449":{"post_code":"6008449","prefecture":"KYOTO FU","city":"KYOTO SHI SHIMOGYO KU","town":"TOMINAGACHO","perfecture_jp":"京都府","jp_add_1":"京都市下京区","jp_add_2":"富永町"},"6008125":{"post_code":"6008125","prefecture":"KYOTO FU","city":"KYOTO SHI SHIMOGYO KU","town":"TOMIHAMACHO","perfecture_jp":"京都府","jp_add_1":"京都市下京区","jp_add_2":"富浜町"},"6008124":{"post_code":"6008124","prefecture":"KYOTO FU","city":"KYOTO SHI SHIMOGYO KU","town":"TOMIMATSUCHO","perfecture_jp":"京都府","jp_add_1":"京都市下京区","jp_add_2":"富松町"},"6008192":{"post_code":"6008192","prefecture":"KYOTO FU","city":"KYOTO SHI SHIMOGYO KU","town":"TOMIYACHO","perfecture_jp":"京都府","jp_add_1":"京都市下京区","jp_add_2":"富屋町"},"6008219":{"post_code":"6008219","prefecture":"KYOTO FU","city":"KYOTO SHI SHIMOGYO KU","town":"NAKAICHO","perfecture_jp":"京都府","jp_add_1":"京都市下京区","jp_add_2":"中居町"},"6008332":{"post_code":"6008332","prefecture":"KYOTO FU","city":"KYOTO SHI SHIMOGYO KU","town":"NAKAKANABUTSUCHO","perfecture_jp":"京都府","jp_add_1":"京都市下京区","jp_add_2":"中金仏町"},"6008452":{"post_code":"6008452","prefecture":"KYOTO FU","city":"KYOTO SHI SHIMOGYO KU","town":"NAGAKURACHO","perfecture_jp":"京都府","jp_add_1":"京都市下京区","jp_add_2":"永倉町"},"6008032":{"post_code":"6008032","prefecture":"KYOTO FU","city":"KYOTO SHI SHIMOGYO KU","town":"NAKANOCHO","perfecture_jp":"京都府","jp_add_1":"京都市下京区","jp_add_2":"中之町"},"6008435":{"post_code":"6008435","prefecture":"KYOTO FU","city":"KYOTO SHI SHIMOGYO KU","town":"NAKANONOCHO","perfecture_jp":"京都府","jp_add_1":"京都市下京区","jp_add_2":"中野之町"},"6008073":{"post_code":"6008073","prefecture":"KYOTO FU","city":"KYOTO SHI SHIMOGYO KU","town":"NAGAHARACHO","perfecture_jp":"京都府","jp_add_1":"京都市下京区","jp_add_2":"永原町"},"6008438":{"post_code":"6008438","prefecture":"KYOTO FU","city":"KYOTO SHI SHIMOGYO KU","town":"NAGINATAGIRICHO","perfecture_jp":"京都府","jp_add_1":"京都市下京区","jp_add_2":"長刀切町"},"6008008":{"post_code":"6008008","prefecture":"KYOTO FU","city":"KYOTO SHI SHIMOGYO KU","town":"NAGINATABOKOCHO","perfecture_jp":"京都府","jp_add_1":"京都市下京区","jp_add_2":"長刀鉾町"},"6008055":{"post_code":"6008055","prefecture":"KYOTO FU","city":"KYOTO SHI SHIMOGYO KU","town":"NABEYACHO","perfecture_jp":"京都府","jp_add_1":"京都市下京区","jp_add_2":"鍋屋町"},"6008142":{"post_code":"6008142","prefecture":"KYOTO FU","city":"KYOTO SHI SHIMOGYO KU","town":"NAYACHO","perfecture_jp":"京都府","jp_add_1":"京都市下京区","jp_add_2":"納屋町"},"6008004":{"post_code":"6008004","prefecture":"KYOTO FU","city":"KYOTO SHI SHIMOGYO KU","town":"NARAMONOCHO","perfecture_jp":"京都府","jp_add_1":"京都市下京区","jp_add_2":"奈良物町"},"6008027":{"post_code":"6008027","prefecture":"KYOTO FU","city":"KYOTO SHI SHIMOGYO KU","town":"NAMBACHO","perfecture_jp":"京都府","jp_add_1":"京都市下京区","jp_add_2":"難波町"},"6008414":{"post_code":"6008414","prefecture":"KYOTO FU","city":"KYOTO SHI SHIMOGYO KU","town":"NIOITENJINCHO","perfecture_jp":"京都府","jp_add_1":"京都市下京区","jp_add_2":"匂天神町"},"6008236":{"post_code":"6008236","prefecture":"KYOTO FU","city":"KYOTO SHI SHIMOGYO KU","town":"NISHIABURANOKOJICHO","perfecture_jp":"京都府","jp_add_1":"京都市下京区","jp_add_2":"西油小路町"},"6008478":{"post_code":"6008478","prefecture":"KYOTO FU","city":"KYOTO SHI SHIMOGYO KU","town":"NISHIAYANOKOJI NISHIHANCHO","perfecture_jp":"京都府","jp_add_1":"京都市下京区","jp_add_2":"西綾小路西半町"},"6008479":{"post_code":"6008479","prefecture":"KYOTO FU","city":"KYOTO SHI SHIMOGYO KU","town":"NISHIAYANOKOJI HIGASHIHANCHO","perfecture_jp":"京都府","jp_add_1":"京都市下京区","jp_add_2":"西綾小路東半町"},"6008160":{"post_code":"6008160","prefecture":"KYOTO FU","city":"KYOTO SHI SHIMOGYO KU","town":"NISHIUOYACHO","perfecture_jp":"京都府","jp_add_1":"京都市下京区","jp_add_2":"西魚屋町"},"6008108":{"post_code":"6008108","prefecture":"KYOTO FU","city":"KYOTO SHI SHIMOGYO KU","town":"NISHIKAZARIYACHO","perfecture_jp":"京都府","jp_add_1":"京都市下京区","jp_add_2":"西錺屋町"},"6008325":{"post_code":"6008325","prefecture":"KYOTO FU","city":"KYOTO SHI SHIMOGYO KU","town":"NISHIGAWACHO","perfecture_jp":"京都府","jp_add_1":"京都市下京区","jp_add_2":"西側町"},"6008218":{"post_code":"6008218","prefecture":"KYOTO FU","city":"KYOTO SHI SHIMOGYO KU","town":"NISHISAKAICHO","perfecture_jp":"京都府","jp_add_1":"京都市下京区","jp_add_2":"西境町"},"6008899":{"post_code":"6008899","prefecture":"KYOTO FU","city":"KYOTO SHI SHIMOGYO KU","town":"NISHISHICHIJO AKAYASHIROCHO","perfecture_jp":"京都府","jp_add_1":"京都市下京区","jp_add_2":"西七条赤社町"},"6008875":{"post_code":"6008875","prefecture":"KYOTO FU","city":"KYOTO SHI SHIMOGYO KU","town":"NISHISHICHIJO ISHIICHO","perfecture_jp":"京都府","jp_add_1":"京都市下京区","jp_add_2":"西七条石井町"},"6008894":{"post_code":"6008894","prefecture":"KYOTO FU","city":"KYOTO SHI SHIMOGYO KU","town":"NISHISHICHIJO ICHIBECHO","perfecture_jp":"京都府","jp_add_1":"京都市下京区","jp_add_2":"西七条市部町"},"6008897":{"post_code":"6008897","prefecture":"KYOTO FU","city":"KYOTO SHI SHIMOGYO KU","town":"NISHISHICHIJO OMMAEDACHO","perfecture_jp":"京都府","jp_add_1":"京都市下京区","jp_add_2":"西七条御前田町"},"6008881":{"post_code":"6008881","prefecture":"KYOTO FU","city":"KYOTO SHI SHIMOGYO KU","town":"NISHISHICHIJO KAKEGOSHICHO","perfecture_jp":"京都府","jp_add_1":"京都市下京区","jp_add_2":"西七条掛越町"},"6008883":{"post_code":"6008883","prefecture":"KYOTO FU","city":"KYOTO SHI SHIMOGYO KU","town":"NISHISHICHIJO KITAKINUTACHO","perfecture_jp":"京都府","jp_add_1":"京都市下京区","jp_add_2":"西七条北衣田町"},"6008886":{"post_code":"6008886","prefecture":"KYOTO FU","city":"KYOTO SHI SHIMOGYO KU","town":"NISHISHICHIJO KITATSUKIYOMICHO","perfecture_jp":"京都府","jp_add_1":"京都市下京区","jp_add_2":"西七条北月読町"},"6008878":{"post_code":"6008878","prefecture":"KYOTO FU","city":"KYOTO SHI SHIMOGYO KU","town":"NISHISHICHIJO KITANISHINOCHO","perfecture_jp":"京都府","jp_add_1":"京都市下京区","jp_add_2":"西七条北西野町"},"6008871":{"post_code":"6008871","prefecture":"KYOTO FU","city":"KYOTO SHI SHIMOGYO KU","town":"NISHISHICHIJO KITAHIGASHINOCHO","perfecture_jp":"京都府","jp_add_1":"京都市下京区","jp_add_2":"西七条北東野町"},"6008893":{"post_code":"6008893","prefecture":"KYOTO FU","city":"KYOTO SHI SHIMOGYO KU","town":"NISHISHICHIJO GORYOCHO","perfecture_jp":"京都府","jp_add_1":"京都市下京区","jp_add_2":"西七条御領町"},"6008879":{"post_code":"6008879","prefecture":"KYOTO FU","city":"KYOTO SHI SHIMOGYO KU","town":"NISHISHICHIJO NAKANOCHO","perfecture_jp":"京都府","jp_add_1":"京都市下京区","jp_add_2":"西七条中野町"},"6008887":{"post_code":"6008887","prefecture":"KYOTO FU","city":"KYOTO SHI SHIMOGYO KU","town":"NISHISHICHIJO NAKURACHO","perfecture_jp":"京都府","jp_add_1":"京都市下京区","jp_add_2":"西七条名倉町"},"6008896":{"post_code":"6008896","prefecture":"KYOTO FU","city":"KYOTO SHI SHIMOGYO KU","town":"NISHISHICHIJO NISHIISHIGATSUBOCHO","perfecture_jp":"京都府","jp_add_1":"京都市下京区","jp_add_2":"西七条西石ケ坪町"},"6008874":{"post_code":"6008874","prefecture":"KYOTO FU","city":"KYOTO SHI SHIMOGYO KU","town":"NISHISHICHIJO NISHIKUBOCHO","perfecture_jp":"京都府","jp_add_1":"京都市下京区","jp_add_2":"西七条西久保町"},"6008892":{"post_code":"6008892","prefecture":"KYOTO FU","city":"KYOTO SHI SHIMOGYO KU","town":"NISHISHICHIJO NISHIHATTANDACHO","perfecture_jp":"京都府","jp_add_1":"京都市下京区","jp_add_2":"西七条西八反田町"},"6008895":{"post_code":"6008895","prefecture":"KYOTO FU","city":"KYOTO SHI SHIMOGYO KU","town":"NISHISHICHIJO HIGASHIISHIGATSUBOCHO","perfecture_jp":"京都府","jp_add_1":"京都市下京区","jp_add_2":"西七条東石ケ坪町"},"6008898":{"post_code":"6008898","prefecture":"KYOTO FU","city":"KYOTO SHI SHIMOGYO KU","town":"NISHISHICHIJO HIGASHIOMMAEDACHO","perfecture_jp":"京都府","jp_add_1":"京都市下京区","jp_add_2":"西七条東御前田町"},"6008873":{"post_code":"6008873","prefecture":"KYOTO FU","city":"KYOTO SHI SHIMOGYO KU","town":"NISHISHICHIJO HIGASHIKUBOCHO","perfecture_jp":"京都府","jp_add_1":"京都市下京区","jp_add_2":"西七条東久保町"},"6008891":{"post_code":"6008891","prefecture":"KYOTO FU","city":"KYOTO SHI SHIMOGYO KU","town":"NISHISHICHIJO HIGASHIHATTANDACHO","perfecture_jp":"京都府","jp_add_1":"京都市下京区","jp_add_2":"西七条東八反田町"},"6008882":{"post_code":"6008882","prefecture":"KYOTO FU","city":"KYOTO SHI SHIMOGYO KU","town":"NISHISHICHIJO HIWADACHO","perfecture_jp":"京都府","jp_add_1":"京都市下京区","jp_add_2":"西七条比輪田町"},"6008884":{"post_code":"6008884","prefecture":"KYOTO FU","city":"KYOTO SHI SHIMOGYO KU","town":"NISHISHICHIJO MINAMIKINUTACHO","perfecture_jp":"京都府","jp_add_1":"京都市下京区","jp_add_2":"西七条南衣田町"},"6008885":{"post_code":"6008885","prefecture":"KYOTO FU","city":"KYOTO SHI SHIMOGYO KU","town":"NISHISHICHIJO MINAMITSUKIYOMICHO","perfecture_jp":"京都府","jp_add_1":"京都市下京区","jp_add_2":"西七条南月読町"},"6008876":{"post_code":"6008876","prefecture":"KYOTO FU","city":"KYOTO SHI SHIMOGYO KU","town":"NISHISHICHIJO MINAMINAKANOCHO","perfecture_jp":"京都府","jp_add_1":"京都市下京区","jp_add_2":"西七条南中野町"},"6008877":{"post_code":"6008877","prefecture":"KYOTO FU","city":"KYOTO SHI SHIMOGYO KU","town":"NISHISHICHIJO MINAMINISHINOCHO","perfecture_jp":"京都府","jp_add_1":"京都市下京区","jp_add_2":"西七条南西野町"},"6008872":{"post_code":"6008872","prefecture":"KYOTO FU","city":"KYOTO SHI SHIMOGYO KU","town":"NISHISHICHIJO MINAMIHIGASHINOCHO","perfecture_jp":"京都府","jp_add_1":"京都市下京区","jp_add_2":"西七条南東野町"},"6008888":{"post_code":"6008888","prefecture":"KYOTO FU","city":"KYOTO SHI SHIMOGYO KU","town":"NISHISHICHIJO YAWATACHO","perfecture_jp":"京都府","jp_add_1":"京都市下京区","jp_add_2":"西七条八幡町"},"6008828":{"post_code":"6008828","prefecture":"KYOTO FU","city":"KYOTO SHI SHIMOGYO KU","town":"NISHISHINYASHIKIAGEYACHO","perfecture_jp":"京都府","jp_add_1":"京都市下京区","jp_add_2":"西新屋敷揚屋町"},"6008826":{"post_code":"6008826","prefecture":"KYOTO FU","city":"KYOTO SHI SHIMOGYO KU","town":"NISHISHINYASHIKIKAMINOCHO","perfecture_jp":"京都府","jp_add_1":"京都市下京区","jp_add_2":"西新屋敷上之町"},"6008829":{"post_code":"6008829","prefecture":"KYOTO FU","city":"KYOTO SHI SHIMOGYO KU","town":"NISHISHINYASHIKISHIMONOCHO","perfecture_jp":"京都府","jp_add_1":"京都市下京区","jp_add_2":"西新屋敷下之町"},"6008827":{"post_code":"6008827","prefecture":"KYOTO FU","city":"KYOTO SHI SHIMOGYO KU","town":"NISHISHINYASHIKITAYUCHO","perfecture_jp":"京都府","jp_add_1":"京都市下京区","jp_add_2":"西新屋敷太夫町"},"6008816":{"post_code":"6008816","prefecture":"KYOTO FU","city":"KYOTO SHI SHIMOGYO KU","town":"NISHISHINYASHIKICHUDOJICHO","perfecture_jp":"京都府","jp_add_1":"京都市下京区","jp_add_2":"西新屋敷中堂寺町"},"6008825":{"post_code":"6008825","prefecture":"KYOTO FU","city":"KYOTO SHI SHIMOGYO KU","town":"NISHISHINYASHIKINAKANOCHO","perfecture_jp":"京都府","jp_add_1":"京都市下京区","jp_add_2":"西新屋敷中之町"},"6008833":{"post_code":"6008833","prefecture":"KYOTO FU","city":"KYOTO SHI SHIMOGYO KU","town":"NISHISUYACHO","perfecture_jp":"京都府","jp_add_1":"京都市下京区","jp_add_2":"西酢屋町"},"6008484":{"post_code":"6008484","prefecture":"KYOTO FU","city":"KYOTO SHI SHIMOGYO KU","town":"NISHITAKATSUJICHO","perfecture_jp":"京都府","jp_add_1":"京都市下京区","jp_add_2":"西高辻町"},"6008397":{"post_code":"6008397","prefecture":"KYOTO FU","city":"KYOTO SHI SHIMOGYO KU","town":"NISHIDACHO","perfecture_jp":"京都府","jp_add_1":"京都市下京区","jp_add_2":"西田町"},"6008155":{"post_code":"6008155","prefecture":"KYOTO FU","city":"KYOTO SHI SHIMOGYO KU","town":"NISHITAMAMIZUCHO","perfecture_jp":"京都府","jp_add_1":"京都市下京区","jp_add_2":"西玉水町"},"6008205":{"post_code":"6008205","prefecture":"KYOTO FU","city":"KYOTO SHI SHIMOGYO KU","town":"NISHINOCHO","perfecture_jp":"京都府","jp_add_1":"京都市下京区","jp_add_2":"西之町"},"6008327":{"post_code":"6008327","prefecture":"KYOTO FU","city":"KYOTO SHI SHIMOGYO KU","town":"NISHINOTOINCHO","perfecture_jp":"京都府","jp_add_1":"京都市下京区","jp_add_2":"西洞院町"},"6008029":{"post_code":"6008029","prefecture":"KYOTO FU","city":"KYOTO SHI SHIMOGYO KU","town":"NISHIHASHIZUMECHO","perfecture_jp":"京都府","jp_add_1":"京都市下京区","jp_add_2":"西橋詰町"},"6008083":{"post_code":"6008083","prefecture":"KYOTO FU","city":"KYOTO SHI SHIMOGYO KU","town":"NISHIMAECHO","perfecture_jp":"京都府","jp_add_1":"京都市下京区","jp_add_2":"西前町"},"6008326":{"post_code":"6008326","prefecture":"KYOTO FU","city":"KYOTO SHI SHIMOGYO KU","town":"NISHIMATSUYACHO","perfecture_jp":"京都府","jp_add_1":"京都市下京区","jp_add_2":"西松屋町"},"6008371":{"post_code":"6008371","prefecture":"KYOTO FU","city":"KYOTO SHI SHIMOGYO KU","town":"NISHIMONZENCHO","perfecture_jp":"京都府","jp_add_1":"京都市下京区","jp_add_2":"西門前町"},"6008269":{"post_code":"6008269","prefecture":"KYOTO FU","city":"KYOTO SHI SHIMOGYO KU","town":"NISHIYAOYACHO","perfecture_jp":"京都府","jp_add_1":"京都市下京区","jp_add_2":"西八百屋町"},"6008153":{"post_code":"6008153","prefecture":"KYOTO FU","city":"KYOTO SHI SHIMOGYO KU","town":"NIJUNINKOCHO","perfecture_jp":"京都府","jp_add_1":"京都市下京区","jp_add_2":"廿人講町"},"6008412":{"post_code":"6008412","prefecture":"KYOTO FU","city":"KYOTO SHI SHIMOGYO KU","town":"NIJOHANJIKICHO","perfecture_jp":"京都府","jp_add_1":"京都市下京区","jp_add_2":"二帖半敷町"},"6008334":{"post_code":"6008334","prefecture":"KYOTO FU","city":"KYOTO SHI SHIMOGYO KU","town":"NISHIWAKAMATSUCHO","perfecture_jp":"京都府","jp_add_1":"京都市下京区","jp_add_2":"西若松町"},"6008824":{"post_code":"6008824","prefecture":"KYOTO FU","city":"KYOTO SHI SHIMOGYO KU","town":"NININTSUKASACHO","perfecture_jp":"京都府","jp_add_1":"京都市下京区","jp_add_2":"二人司町"},"6008491":{"post_code":"6008491","prefecture":"KYOTO FU","city":"KYOTO SHI SHIMOGYO KU","town":"NIWATORIBOKOCHO","perfecture_jp":"京都府","jp_add_1":"京都市下京区","jp_add_2":"鶏鉾町"},"6008053":{"post_code":"6008053","prefecture":"KYOTO FU","city":"KYOTO SHI SHIMOGYO KU","town":"NUSHIYACHO(TOMINOKOJIDORIAYANOKOJIS","perfecture_jp":"京都府","jp_add_1":"京都市下京区","jp_add_2":"塗師屋町"},"6008182":{"post_code":"6008182","prefecture":"KYOTO FU","city":"KYOTO SHI SHIMOGYO KU","town":"NUSHIYACHO","perfecture_jp":"京都府","jp_add_1":"京都市下京区","jp_add_2":"塗師屋町"},"6008454":{"post_code":"6008454","prefecture":"KYOTO FU","city":"KYOTO SHI SHIMOGYO KU","town":"NUNOYACHO","perfecture_jp":"京都府","jp_add_1":"京都市下京区","jp_add_2":"布屋町"},"6008422":{"post_code":"6008422","prefecture":"KYOTO FU","city":"KYOTO SHI SHIMOGYO KU","town":"HAKURAKUTENCHO","perfecture_jp":"京都府","jp_add_1":"京都市下京区","jp_add_2":"白楽天町"},"6008489":{"post_code":"6008489","prefecture":"KYOTO FU","city":"KYOTO SHI SHIMOGYO KU","town":"HASHITACHIBANACHO","perfecture_jp":"京都府","jp_add_1":"京都市下京区","jp_add_2":"橋橘町"},"6008187":{"post_code":"6008187","prefecture":"KYOTO FU","city":"KYOTO SHI SHIMOGYO KU","town":"HASHIZUMECHO","perfecture_jp":"京都府","jp_add_1":"京都市下京区","jp_add_2":"橋詰町"},"6008113":{"post_code":"6008113","prefecture":"KYOTO FU","city":"KYOTO SHI SHIMOGYO KU","town":"HASHIDONOCHO","perfecture_jp":"京都府","jp_add_1":"京都市下京区","jp_add_2":"波止土濃町"},"6008011":{"post_code":"6008011","prefecture":"KYOTO FU","city":"KYOTO SHI SHIMOGYO KU","town":"HASHIMOTOCHO","perfecture_jp":"京都府","jp_add_1":"京都市下京区","jp_add_2":"橋本町"},"6008139":{"post_code":"6008139","prefecture":"KYOTO FU","city":"KYOTO SHI SHIMOGYO KU","town":"HACHIOJICHO","perfecture_jp":"京都府","jp_add_1":"京都市下京区","jp_add_2":"八王子町"},"6008196":{"post_code":"6008196","prefecture":"KYOTO FU","city":"KYOTO SHI SHIMOGYO KU","town":"HACHIKENCHO","perfecture_jp":"京都府","jp_add_1":"京都市下京区","jp_add_2":"八軒町"},"6008247":{"post_code":"6008247","prefecture":"KYOTO FU","city":"KYOTO SHI SHIMOGYO KU","town":"HACHIJOBOMONCHO(SHIOKOJIDORIKUROMON","perfecture_jp":"京都府","jp_add_1":"京都市下京区","jp_add_2":"八条坊門町"},"6008836":{"post_code":"6008836","prefecture":"KYOTO FU","city":"KYOTO SHI SHIMOGYO KU","town":"HACHIJOBOMONCHO(HACHIJODORIOMIYANIS","perfecture_jp":"京都府","jp_add_1":"京都市下京区","jp_add_2":"八条坊門町"},"6008041":{"post_code":"6008041","prefecture":"KYOTO FU","city":"KYOTO SHI SHIMOGYO KU","town":"HACHIMONJICHO","perfecture_jp":"京都府","jp_add_1":"京都市下京区","jp_add_2":"八文字町"},"6008261":{"post_code":"6008261","prefecture":"KYOTO FU","city":"KYOTO SHI SHIMOGYO KU","town":"HANAZONOCHO","perfecture_jp":"京都府","jp_add_1":"京都市下京区","jp_add_2":"花園町"},"6008831":{"post_code":"6008831","prefecture":"KYOTO FU","city":"KYOTO SHI SHIMOGYO KU","town":"HANABATAKECHO","perfecture_jp":"京都府","jp_add_1":"京都市下京区","jp_add_2":"花畑町"},"6008185":{"post_code":"6008185","prefecture":"KYOTO FU","city":"KYOTO SHI SHIMOGYO KU","town":"HANAYACHO","perfecture_jp":"京都府","jp_add_1":"京都市下京区","jp_add_2":"花屋町"},"6008340":{"post_code":"6008340","prefecture":"KYOTO FU","city":"KYOTO SHI SHIMOGYO KU","town":"HANAYACHO(HANAYACHODORIABURANOKOJIN","perfecture_jp":"京都府","jp_add_1":"京都市下京区","jp_add_2":"花屋町"},"6008114":{"post_code":"6008114","prefecture":"KYOTO FU","city":"KYOTO SHI SHIMOGYO KU","town":"HAYAOCHO","perfecture_jp":"京都府","jp_add_1":"京都市下京区","jp_add_2":"早尾町"},"6008433":{"post_code":"6008433","prefecture":"KYOTO FU","city":"KYOTO SHI SHIMOGYO KU","town":"HANJOCHO","perfecture_jp":"京都府","jp_add_1":"京都市下京区","jp_add_2":"繁昌町"},"6008439":{"post_code":"6008439","prefecture":"KYOTO FU","city":"KYOTO SHI SHIMOGYO KU","town":"BANTOYACHO","perfecture_jp":"京都府","jp_add_1":"京都市下京区","jp_add_2":"坂東屋町"},"6008235":{"post_code":"6008235","prefecture":"KYOTO FU","city":"KYOTO SHI SHIMOGYO KU","town":"HIGASHIABURANOKOJICHO","perfecture_jp":"京都府","jp_add_1":"京都市下京区","jp_add_2":"東油小路町"},"6008169":{"post_code":"6008169","prefecture":"KYOTO FU","city":"KYOTO SHI SHIMOGYO KU","town":"HIGASHIUOYACHO","perfecture_jp":"京都府","jp_add_1":"京都市下京区","jp_add_2":"東魚屋町"},"6008107":{"post_code":"6008107","prefecture":"KYOTO FU","city":"KYOTO SHI SHIMOGYO KU","town":"HIGASHIKAZARIYACHO","perfecture_jp":"京都府","jp_add_1":"京都市下京区","jp_add_2":"東錺屋町"},"6008324":{"post_code":"6008324","prefecture":"KYOTO FU","city":"KYOTO SHI SHIMOGYO KU","town":"HIGASHIGAWACHO","perfecture_jp":"京都府","jp_add_1":"京都市下京区","jp_add_2":"東側町"},"6008217":{"post_code":"6008217","prefecture":"KYOTO FU","city":"KYOTO SHI SHIMOGYO KU","town":"HIGASHISAKAICHO","perfecture_jp":"京都府","jp_add_1":"京都市下京区","jp_add_2":"東境町"},"6008215":{"post_code":"6008215","prefecture":"KYOTO FU","city":"KYOTO SHI SHIMOGYO KU","town":"HIGASHISHIOKOJI KAMADONOCHO","perfecture_jp":"京都府","jp_add_1":"京都市下京区","jp_add_2":"東塩小路釜殿町"},"6008214":{"post_code":"6008214","prefecture":"KYOTO FU","city":"KYOTO SHI SHIMOGYO KU","town":"HIGASHISHIOKOJI TAKAKURACHO","perfecture_jp":"京都府","jp_add_1":"京都市下京区","jp_add_2":"東塩小路高倉町"},"6008213":{"post_code":"6008213","prefecture":"KYOTO FU","city":"KYOTO SHI SHIMOGYO KU","town":"HIGASHISHIOKOJI MUKAIHATACHO","perfecture_jp":"京都府","jp_add_1":"京都市下京区","jp_add_2":"東塩小路向畑町"},"6008216":{"post_code":"6008216","prefecture":"KYOTO FU","city":"KYOTO SHI SHIMOGYO KU","town":"HIGASHISHIOKOJICHO","perfecture_jp":"京都府","jp_add_1":"京都市下京区","jp_add_2":"東塩小路町"},"6008225":{"post_code":"6008225","prefecture":"KYOTO FU","city":"KYOTO SHI SHIMOGYO KU","town":"HIGASHIDAIKUCHO","perfecture_jp":"京都府","jp_add_1":"京都市下京区","jp_add_2":"東大工町"},"6008190":{"post_code":"6008190","prefecture":"KYOTO FU","city":"KYOTO SHI SHIMOGYO KU","town":"HIGASHITAMAMIZUCHO","perfecture_jp":"京都府","jp_add_1":"京都市下京区","jp_add_2":"東玉水町"},"6008224":{"post_code":"6008224","prefecture":"KYOTO FU","city":"KYOTO SHI SHIMOGYO KU","town":"HIGASHICHO","perfecture_jp":"京都府","jp_add_1":"京都市下京区","jp_add_2":"東町"},"6008204":{"post_code":"6008204","prefecture":"KYOTO FU","city":"KYOTO SHI SHIMOGYO KU","town":"HIGASHINOCHO","perfecture_jp":"京都府","jp_add_1":"京都市下京区","jp_add_2":"東之町"},"6008074":{"post_code":"6008074","prefecture":"KYOTO FU","city":"KYOTO SHI SHIMOGYO KU","town":"HIGASHIMAECHO","perfecture_jp":"京都府","jp_add_1":"京都市下京区","jp_add_2":"東前町"},"6008315":{"post_code":"6008315","prefecture":"KYOTO FU","city":"KYOTO SHI SHIMOGYO KU","town":"HIGASHIMATSUYACHO","perfecture_jp":"京都府","jp_add_1":"京都市下京区","jp_add_2":"東松屋町"},"6008305":{"post_code":"6008305","prefecture":"KYOTO FU","city":"KYOTO SHI SHIMOGYO KU","town":"HIGASHIWAKAMATSUCHO","perfecture_jp":"京都府","jp_add_1":"京都市下京区","jp_add_2":"東若松町"},"6008458":{"post_code":"6008458","prefecture":"KYOTO FU","city":"KYOTO SHI SHIMOGYO KU","town":"HIGUCHICHO","perfecture_jp":"京都府","jp_add_1":"京都市下京区","jp_add_2":"樋口町"},"6008227":{"post_code":"6008227","prefecture":"KYOTO FU","city":"KYOTO SHI SHIMOGYO KU","town":"HISHIYACHO","perfecture_jp":"京都府","jp_add_1":"京都市下京区","jp_add_2":"菱屋町"},"6008311":{"post_code":"6008311","prefecture":"KYOTO FU","city":"KYOTO SHI SHIMOGYO KU","town":"BISHAMONCHO","perfecture_jp":"京都府","jp_add_1":"京都市下京区","jp_add_2":"毘沙門町"},"6008087":{"post_code":"6008087","prefecture":"KYOTO FU","city":"KYOTO SHI SHIMOGYO KU","town":"HINOSHITACHO","perfecture_jp":"京都府","jp_add_1":"京都市下京区","jp_add_2":"樋之下町"},"6008118":{"post_code":"6008118","prefecture":"KYOTO FU","city":"KYOTO SHI SHIMOGYO KU","town":"HIRAICHO","perfecture_jp":"京都府","jp_add_1":"京都市下京区","jp_add_2":"平居町"},"6008122":{"post_code":"6008122","prefecture":"KYOTO FU","city":"KYOTO SHI SHIMOGYO KU","town":"HIRAOKACHO","perfecture_jp":"京都府","jp_add_1":"京都市下京区","jp_add_2":"平岡町"},"6008306":{"post_code":"6008306","prefecture":"KYOTO FU","city":"KYOTO SHI SHIMOGYO KU","town":"HIRANOCHO","perfecture_jp":"京都府","jp_add_1":"京都市下京区","jp_add_2":"平野町"},"6008109":{"post_code":"6008109","prefecture":"KYOTO FU","city":"KYOTO SHI SHIMOGYO KU","town":"HIRAYACHO","perfecture_jp":"京都府","jp_add_1":"京都市下京区","jp_add_2":"平屋町"},"6008408":{"post_code":"6008408","prefecture":"KYOTO FU","city":"KYOTO SHI SHIMOGYO KU","town":"FUKAKUSACHO","perfecture_jp":"京都府","jp_add_1":"京都市下京区","jp_add_2":"深草町"},"6008189":{"post_code":"6008189","prefecture":"KYOTO FU","city":"KYOTO SHI SHIMOGYO KU","town":"FUKUSHIMACHO","perfecture_jp":"京都府","jp_add_1":"京都市下京区","jp_add_2":"福島町"},"6008404":{"post_code":"6008404","prefecture":"KYOTO FU","city":"KYOTO SHI SHIMOGYO KU","town":"FUKUDENJICHO","perfecture_jp":"京都府","jp_add_1":"京都市下京区","jp_add_2":"福田寺町"},"6008320":{"post_code":"6008320","prefecture":"KYOTO FU","city":"KYOTO SHI SHIMOGYO KU","town":"FUKUMOTOCHO","perfecture_jp":"京都府","jp_add_1":"京都市下京区","jp_add_2":"福本町"},"6008495":{"post_code":"6008495","prefecture":"KYOTO FU","city":"KYOTO SHI SHIMOGYO KU","town":"FUJIMOTOYORICHO","perfecture_jp":"京都府","jp_add_1":"京都市下京区","jp_add_2":"藤本寄町"},"6008173":{"post_code":"6008173","prefecture":"KYOTO FU","city":"KYOTO SHI SHIMOGYO KU","town":"BUTSUGUYACHO","perfecture_jp":"京都府","jp_add_1":"京都市下京区","jp_add_2":"仏具屋町"},"6008347":{"post_code":"6008347","prefecture":"KYOTO FU","city":"KYOTO SHI SHIMOGYO KU","town":"BUTSUGUYACHO","perfecture_jp":"京都府","jp_add_1":"京都市下京区","jp_add_2":"仏具屋町"},"6008094":{"post_code":"6008094","prefecture":"KYOTO FU","city":"KYOTO SHI SHIMOGYO KU","town":"BUKKOJI NISHIMACHI","perfecture_jp":"京都府","jp_add_1":"京都市下京区","jp_add_2":"仏光寺西町"},"6008054":{"post_code":"6008054","prefecture":"KYOTO FU","city":"KYOTO SHI SHIMOGYO KU","town":"BUKKOJI HIGASHIMACHI","perfecture_jp":"京都府","jp_add_1":"京都市下京区","jp_add_2":"仏光寺東町"},"6008466":{"post_code":"6008466","prefecture":"KYOTO FU","city":"KYOTO SHI SHIMOGYO KU","town":"FUNAYACHO","perfecture_jp":"京都府","jp_add_1":"京都市下京区","jp_add_2":"舟屋町"},"6008443":{"post_code":"6008443","prefecture":"KYOTO FU","city":"KYOTO SHI SHIMOGYO KU","town":"FUNEBOKOCHO","perfecture_jp":"京都府","jp_add_1":"京都市下京区","jp_add_2":"船鉾町"},"6008467":{"post_code":"6008467","prefecture":"KYOTO FU","city":"KYOTO SHI SHIMOGYO KU","town":"FUMOTOCHO","perfecture_jp":"京都府","jp_add_1":"京都市下京区","jp_add_2":"麓町"},"6008245":{"post_code":"6008245","prefecture":"KYOTO FU","city":"KYOTO SHI SHIMOGYO KU","town":"FURUOTABICHO","perfecture_jp":"京都府","jp_add_1":"京都市下京区","jp_add_2":"古御旅町"},"6008428":{"post_code":"6008428","prefecture":"KYOTO FU","city":"KYOTO SHI SHIMOGYO KU","town":"BENZAITENCHO","perfecture_jp":"京都府","jp_add_1":"京都市下京区","jp_add_2":"弁財天町"},"6008388":{"post_code":"6008388","prefecture":"KYOTO FU","city":"KYOTO SHI SHIMOGYO KU","town":"BOMONCHO","perfecture_jp":"京都府","jp_add_1":"京都市下京区","jp_add_2":"坊門町"},"6008244":{"post_code":"6008244","prefecture":"KYOTO FU","city":"KYOTO SHI SHIMOGYO KU","town":"BOMONNAKANOCHO","perfecture_jp":"京都府","jp_add_1":"京都市下京区","jp_add_2":"坊門中之町"},"6008333":{"post_code":"6008333","prefecture":"KYOTO FU","city":"KYOTO SHI SHIMOGYO KU","town":"BOKUMIKANABUTSUCHO","perfecture_jp":"京都府","jp_add_1":"京都市下京区","jp_add_2":"卜味金仏町"},"6008193":{"post_code":"6008193","prefecture":"KYOTO FU","city":"KYOTO SHI SHIMOGYO KU","town":"HONEYACHO(ROKUJODORITAKAKURAHIGASHI","perfecture_jp":"京都府","jp_add_1":"京都市下京区","jp_add_2":"骨屋町"},"6008425":{"post_code":"6008425","prefecture":"KYOTO FU","city":"KYOTO SHI SHIMOGYO KU","town":"HONEYACHO","perfecture_jp":"京都府","jp_add_1":"京都市下京区","jp_add_2":"骨屋町"},"6008147":{"post_code":"6008147","prefecture":"KYOTO FU","city":"KYOTO SHI SHIMOGYO KU","town":"HORIZUMECHO","perfecture_jp":"京都府","jp_add_1":"京都市下京区","jp_add_2":"堀詰町"},"6008446":{"post_code":"6008446","prefecture":"KYOTO FU","city":"KYOTO SHI SHIMOGYO KU","town":"HORINOCHICHO","perfecture_jp":"京都府","jp_add_1":"京都市下京区","jp_add_2":"堀之内町"},"6008361":{"post_code":"6008361","prefecture":"KYOTO FU","city":"KYOTO SHI SHIMOGYO KU","town":"HORINOGAMICHO","perfecture_jp":"京都府","jp_add_1":"京都市下京区","jp_add_2":"堀之上町"},"6008102":{"post_code":"6008102","prefecture":"KYOTO FU","city":"KYOTO SHI SHIMOGYO KU","town":"HONGAKUJIMAECHO","perfecture_jp":"京都府","jp_add_1":"京都市下京区","jp_add_2":"本覚寺前町"},"6008086":{"post_code":"6008086","prefecture":"KYOTO FU","city":"KYOTO SHI SHIMOGYO KU","town":"HONTOROCHO","perfecture_jp":"京都府","jp_add_1":"京都市下京区","jp_add_2":"本燈籠町"},"6008462":{"post_code":"6008462","prefecture":"KYOTO FU","city":"KYOTO SHI SHIMOGYO KU","town":"HONRYUSUICHO","perfecture_jp":"京都府","jp_add_1":"京都市下京区","jp_add_2":"本柳水町"},"6008211":{"post_code":"6008211","prefecture":"KYOTO FU","city":"KYOTO SHI SHIMOGYO KU","town":"MAOYACHO","perfecture_jp":"京都府","jp_add_1":"京都市下京区","jp_add_2":"真苧屋町"},"6008046":{"post_code":"6008046","prefecture":"KYOTO FU","city":"KYOTO SHI SHIMOGYO KU","town":"MASUYACHO","perfecture_jp":"京都府","jp_add_1":"京都市下京区","jp_add_2":"桝屋町"},"6008195":{"post_code":"6008195","prefecture":"KYOTO FU","city":"KYOTO SHI SHIMOGYO KU","town":"MASUYACHO","perfecture_jp":"京都府","jp_add_1":"京都市下京区","jp_add_2":"升屋町"},"6008026":{"post_code":"6008026","prefecture":"KYOTO FU","city":"KYOTO SHI SHIMOGYO KU","town":"MATSUKAWACHO","perfecture_jp":"京都府","jp_add_1":"京都市下京区","jp_add_2":"松川町"},"6008063":{"post_code":"6008063","prefecture":"KYOTO FU","city":"KYOTO SHI SHIMOGYO KU","town":"MATSUBARANAKANOCHO","perfecture_jp":"京都府","jp_add_1":"京都市下京区","jp_add_2":"松原中之町"},"6008256":{"post_code":"6008256","prefecture":"KYOTO FU","city":"KYOTO SHI SHIMOGYO KU","town":"MATSUMOTOCHO(IWAGAMIDORIKIZUYABASHI","perfecture_jp":"京都府","jp_add_1":"京都市下京区","jp_add_2":"松本町"},"6008390":{"post_code":"6008390","prefecture":"KYOTO FU","city":"KYOTO SHI SHIMOGYO KU","town":"MATSUMOTOCHO","perfecture_jp":"京都府","jp_add_1":"京都市下京区","jp_add_2":"松本町"},"6008105":{"post_code":"6008105","prefecture":"KYOTO FU","city":"KYOTO SHI SHIMOGYO KU","town":"MATSUYACHO","perfecture_jp":"京都府","jp_add_1":"京都市下京区","jp_add_2":"松屋町"},"6008075":{"post_code":"6008075","prefecture":"KYOTO FU","city":"KYOTO SHI SHIMOGYO KU","town":"MARIKOJICHO","perfecture_jp":"京都府","jp_add_1":"京都市下京区","jp_add_2":"万里小路町"},"6008037":{"post_code":"6008037","prefecture":"KYOTO FU","city":"KYOTO SHI SHIMOGYO KU","town":"MARUYACHO(GOKOMACHIDORIAYANOKOJISAG","perfecture_jp":"京都府","jp_add_1":"京都市下京区","jp_add_2":"丸屋町"},"6008359":{"post_code":"6008359","prefecture":"KYOTO FU","city":"KYOTO SHI SHIMOGYO KU","town":"MARUYACHO","perfecture_jp":"京都府","jp_add_1":"京都市下京区","jp_add_2":"丸屋町"},"6008399":{"post_code":"6008399","prefecture":"KYOTO FU","city":"KYOTO SHI SHIMOGYO KU","town":"MARUYACHO","perfecture_jp":"京都府","jp_add_1":"京都市下京区","jp_add_2":"丸屋町"},"6008104":{"post_code":"6008104","prefecture":"KYOTO FU","city":"KYOTO SHI SHIMOGYO KU","town":"MANJUJICHO","perfecture_jp":"京都府","jp_add_1":"京都市下京区","jp_add_2":"万寿寺町"},"6008405":{"post_code":"6008405","prefecture":"KYOTO FU","city":"KYOTO SHI SHIMOGYO KU","town":"MANJUJINAKANOCHO","perfecture_jp":"京都府","jp_add_1":"京都市下京区","jp_add_2":"万寿寺中之町"},"6008101":{"post_code":"6008101","prefecture":"KYOTO FU","city":"KYOTO SHI SHIMOGYO KU","town":"MIEIDOCHO","perfecture_jp":"京都府","jp_add_1":"京都市下京区","jp_add_2":"御影堂町"},"6008447":{"post_code":"6008447","prefecture":"KYOTO FU","city":"KYOTO SHI SHIMOGYO KU","town":"MIKAGECHO","perfecture_jp":"京都府","jp_add_1":"京都市下京区","jp_add_2":"御影町"},"6008020":{"post_code":"6008020","prefecture":"KYOTO FU","city":"KYOTO SHI SHIMOGYO KU","town":"MIKAGEDOMAECHO","perfecture_jp":"京都府","jp_add_1":"京都市下京区","jp_add_2":"御影堂前町"},"6008238":{"post_code":"6008238","prefecture":"KYOTO FU","city":"KYOTO SHI SHIMOGYO KU","town":"MIKATAKONYACHO","perfecture_jp":"京都府","jp_add_1":"京都市下京区","jp_add_2":"御方紺屋町"},"6008243":{"post_code":"6008243","prefecture":"KYOTO FU","city":"KYOTO SHI SHIMOGYO KU","town":"MINAMIEBISUCHO","perfecture_jp":"京都府","jp_add_1":"京都市下京区","jp_add_2":"南夷町"},"6008117":{"post_code":"6008117","prefecture":"KYOTO FU","city":"KYOTO SHI SHIMOGYO KU","town":"MINAMIKYOGOKUCHO","perfecture_jp":"京都府","jp_add_1":"京都市下京区","jp_add_2":"南京極町"},"6008110":{"post_code":"6008110","prefecture":"KYOTO FU","city":"KYOTO SHI SHIMOGYO KU","town":"MINAMIHASHIZUMECHO","perfecture_jp":"京都府","jp_add_1":"京都市下京区","jp_add_2":"南橋詰町"},"6008234":{"post_code":"6008234","prefecture":"KYOTO FU","city":"KYOTO SHI SHIMOGYO KU","town":"MINAMIFUDONDOCHO","perfecture_jp":"京都府","jp_add_1":"京都市下京区","jp_add_2":"南不動堂町"},"6008232":{"post_code":"6008232","prefecture":"KYOTO FU","city":"KYOTO SHI SHIMOGYO KU","town":"MINAMIMACHI","perfecture_jp":"京都府","jp_add_1":"京都市下京区","jp_add_2":"南町"},"6008372":{"post_code":"6008372","prefecture":"KYOTO FU","city":"KYOTO SHI SHIMOGYO KU","town":"MINAMIMONZENCHO","perfecture_jp":"京都府","jp_add_1":"京都市下京区","jp_add_2":"南門前町"},"6008251":{"post_code":"6008251","prefecture":"KYOTO FU","city":"KYOTO SHI SHIMOGYO KU","town":"MINAMIYAOYACHO","perfecture_jp":"京都府","jp_add_1":"京都市下京区","jp_add_2":"南八百屋町"},"6008015":{"post_code":"6008015","prefecture":"KYOTO FU","city":"KYOTO SHI SHIMOGYO KU","town":"MINOYACHO","perfecture_jp":"京都府","jp_add_1":"京都市下京区","jp_add_2":"美濃屋町"},"6008472":{"post_code":"6008472","prefecture":"KYOTO FU","city":"KYOTO SHI SHIMOGYO KU","town":"MYODENJICHO","perfecture_jp":"京都府","jp_add_1":"京都市下京区","jp_add_2":"妙伝寺町"},"6008392":{"post_code":"6008392","prefecture":"KYOTO FU","city":"KYOTO SHI SHIMOGYO KU","town":"MYOMANJICHO","perfecture_jp":"京都府","jp_add_1":"京都市下京区","jp_add_2":"妙満寺町"},"6008091":{"post_code":"6008091","prefecture":"KYOTO FU","city":"KYOTO SHI SHIMOGYO KU","town":"MOTOAKUOJICHO","perfecture_jp":"京都府","jp_add_1":"京都市下京区","jp_add_2":"元悪王子町"},"6008064":{"post_code":"6008064","prefecture":"KYOTO FU","city":"KYOTO SHI SHIMOGYO KU","town":"MOTOKAMISHIMMEICHO","perfecture_jp":"京都府","jp_add_1":"京都市下京区","jp_add_2":"本上神明町"},"6008119":{"post_code":"6008119","prefecture":"KYOTO FU","city":"KYOTO SHI SHIMOGYO KU","town":"MOTOSHIOGAMACHO","perfecture_jp":"京都府","jp_add_1":"京都市下京区","jp_add_2":"本塩竈町"},"6008065":{"post_code":"6008065","prefecture":"KYOTO FU","city":"KYOTO SHI SHIMOGYO KU","town":"MOTOSHIMMEICHO","perfecture_jp":"京都府","jp_add_1":"京都市下京区","jp_add_2":"本神明町"},"6008436":{"post_code":"6008436","prefecture":"KYOTO FU","city":"KYOTO SHI SHIMOGYO KU","town":"MOTORYOGAECHO","perfecture_jp":"京都府","jp_add_1":"京都市下京区","jp_add_2":"元両替町"},"6008345":{"post_code":"6008345","prefecture":"KYOTO FU","city":"KYOTO SHI SHIMOGYO KU","town":"MOMIJICHO","perfecture_jp":"京都府","jp_add_1":"京都市下京区","jp_add_2":"紅葉町"},"6008222":{"post_code":"6008222","prefecture":"KYOTO FU","city":"KYOTO SHI SHIMOGYO KU","town":"MONGAKUCHO","perfecture_jp":"京都府","jp_add_1":"京都市下京区","jp_add_2":"文覚町"},"6008358":{"post_code":"6008358","prefecture":"KYOTO FU","city":"KYOTO SHI SHIMOGYO KU","town":"MONZENCHO","perfecture_jp":"京都府","jp_add_1":"京都市下京区","jp_add_2":"門前町"},"6008168":{"post_code":"6008168","prefecture":"KYOTO FU","city":"KYOTO SHI SHIMOGYO KU","town":"YAOYACHO","perfecture_jp":"京都府","jp_add_1":"京都市下京区","jp_add_2":"八百屋町"},"6008262":{"post_code":"6008262","prefecture":"KYOTO FU","city":"KYOTO SHI SHIMOGYO KU","town":"YAOYACHO","perfecture_jp":"京都府","jp_add_1":"京都市下京区","jp_add_2":"八百屋町"},"6008321":{"post_code":"6008321","prefecture":"KYOTO FU","city":"KYOTO SHI SHIMOGYO KU","town":"YAOYACHO","perfecture_jp":"京都府","jp_add_1":"京都市下京区","jp_add_2":"八百屋町"},"6008203":{"post_code":"6008203","prefecture":"KYOTO FU","city":"KYOTO SHI SHIMOGYO KU","town":"YAKATACHO","perfecture_jp":"京都府","jp_add_1":"京都市下京区","jp_add_2":"屋形町"},"6008823":{"post_code":"6008823","prefecture":"KYOTO FU","city":"KYOTO SHI SHIMOGYO KU","town":"YAKUENCHO","perfecture_jp":"京都府","jp_add_1":"京都市下京区","jp_add_2":"薬園町"},"6008416":{"post_code":"6008416","prefecture":"KYOTO FU","city":"KYOTO SHI SHIMOGYO KU","town":"YAKUSHIMAECHO","perfecture_jp":"京都府","jp_add_1":"京都市下京区","jp_add_2":"薬師前町"},"6008442":{"post_code":"6008442","prefecture":"KYOTO FU","city":"KYOTO SHI SHIMOGYO KU","town":"YADACHO","perfecture_jp":"京都府","jp_add_1":"京都市下京区","jp_add_2":"矢田町"},"6008112":{"post_code":"6008112","prefecture":"KYOTO FU","city":"KYOTO SHI SHIMOGYO KU","town":"YATSUYANAGICHO","perfecture_jp":"京都府","jp_add_1":"京都市下京区","jp_add_2":"八ツ柳町"},"6008344":{"post_code":"6008344","prefecture":"KYOTO FU","city":"KYOTO SHI SHIMOGYO KU","town":"YANAGICHO","perfecture_jp":"京都府","jp_add_1":"京都市下京区","jp_add_2":"柳町"},"6008448":{"post_code":"6008448","prefecture":"KYOTO FU","city":"KYOTO SHI SHIMOGYO KU","town":"YABUSHITACHO","perfecture_jp":"京都府","jp_add_1":"京都市下京区","jp_add_2":"藪下町"},"6008374":{"post_code":"6008374","prefecture":"KYOTO FU","city":"KYOTO SHI SHIMOGYO KU","town":"YABUNOCHICHO","perfecture_jp":"京都府","jp_add_1":"京都市下京区","jp_add_2":"藪之内町"},"6008342":{"post_code":"6008342","prefecture":"KYOTO FU","city":"KYOTO SHI SHIMOGYO KU","town":"YAMAKAWACHO","perfecture_jp":"京都府","jp_add_1":"京都市下京区","jp_add_2":"山川町"},"6008455":{"post_code":"6008455","prefecture":"KYOTO FU","city":"KYOTO SHI SHIMOGYO KU","town":"YAWATACHO","perfecture_jp":"京都府","jp_add_1":"京都市下京区","jp_add_2":"八幡町"},"6008077":{"post_code":"6008077","prefecture":"KYOTO FU","city":"KYOTO SHI SHIMOGYO KU","town":"YUGAOCHO","perfecture_jp":"京都府","jp_add_1":"京都市下京区","jp_add_2":"夕顔町"},"6008477":{"post_code":"6008477","prefecture":"KYOTO FU","city":"KYOTO SHI SHIMOGYO KU","town":"YOHOJICHO","perfecture_jp":"京都府","jp_add_1":"京都市下京区","jp_add_2":"要法寺町"},"6008179":{"post_code":"6008179","prefecture":"KYOTO FU","city":"KYOTO SHI SHIMOGYO KU","town":"YOKOSUWANCHO","perfecture_jp":"京都府","jp_add_1":"京都市下京区","jp_add_2":"横諏訪町"},"6008403":{"post_code":"6008403","prefecture":"KYOTO FU","city":"KYOTO SHI SHIMOGYO KU","town":"YOSHIMIZUCHO(AKEZUDORIMATSUBARASAGA","perfecture_jp":"京都府","jp_add_1":"京都市下京区","jp_add_2":"吉水町"},"6008483":{"post_code":"6008483","prefecture":"KYOTO FU","city":"KYOTO SHI SHIMOGYO KU","town":"YOSHIMIZUCHO","perfecture_jp":"京都府","jp_add_1":"京都市下京区","jp_add_2":"吉水町"},"6008199":{"post_code":"6008199","prefecture":"KYOTO FU","city":"KYOTO SHI SHIMOGYO KU","town":"YOROZUYACHO","perfecture_jp":"京都府","jp_add_1":"京都市下京区","jp_add_2":"万屋町"},"6008355":{"post_code":"6008355","prefecture":"KYOTO FU","city":"KYOTO SHI SHIMOGYO KU","town":"RAIKODOCHO","perfecture_jp":"京都府","jp_add_1":"京都市下京区","jp_add_2":"来迎堂町"},"6008198":{"post_code":"6008198","prefecture":"KYOTO FU","city":"KYOTO SHI SHIMOGYO KU","town":"WAKAMATSUCHO","perfecture_jp":"京都府","jp_add_1":"京都市下京区","jp_add_2":"若松町"},"6008120":{"post_code":"6008120","prefecture":"KYOTO FU","city":"KYOTO SHI SHIMOGYO KU","town":"WAKAMIYACHO","perfecture_jp":"京都府","jp_add_1":"京都市下京区","jp_add_2":"若宮町"},"6008201":{"post_code":"6008201","prefecture":"KYOTO FU","city":"KYOTO SHI SHIMOGYO KU","town":"WAKAMIYACHO","perfecture_jp":"京都府","jp_add_1":"京都市下京区","jp_add_2":"若宮町"},"6008314":{"post_code":"6008314","prefecture":"KYOTO FU","city":"KYOTO SHI SHIMOGYO KU","town":"WAKAMIYACHO","perfecture_jp":"京都府","jp_add_1":"京都市下京区","jp_add_2":"若宮町"},"6008834":{"post_code":"6008834","prefecture":"KYOTO FU","city":"KYOTO SHI SHIMOGYO KU","town":"WAKICHO","perfecture_jp":"京都府","jp_add_1":"京都市下京区","jp_add_2":"和気町"}}