{"6010142":{"post_code":"6010142","prefecture":"KYOTO FU","city":"KYOTO SHI KITA KU","town":"OMORI ASHIDOCHO","perfecture_jp":"京都府","jp_add_1":"京都市北区","jp_add_2":"大森芦堂町"},"6010141":{"post_code":"6010141","prefecture":"KYOTO FU","city":"KYOTO SHI KITA KU","town":"OMORI INARI","perfecture_jp":"京都府","jp_add_1":"京都市北区","jp_add_2":"大森稲荷"},"6010143":{"post_code":"6010143","prefecture":"KYOTO FU","city":"KYOTO SHI KITA KU","town":"OMORI NAKACHO","perfecture_jp":"京都府","jp_add_1":"京都市北区","jp_add_2":"大森中町"},"6010144":{"post_code":"6010144","prefecture":"KYOTO FU","city":"KYOTO SHI KITA KU","town":"OMORI NISHICHO","perfecture_jp":"京都府","jp_add_1":"京都市北区","jp_add_2":"大森西町"},"6010145":{"post_code":"6010145","prefecture":"KYOTO FU","city":"KYOTO SHI KITA KU","town":"OMORI HIGASHICHO","perfecture_jp":"京都府","jp_add_1":"京都市北区","jp_add_2":"大森東町"},"6010134":{"post_code":"6010134","prefecture":"KYOTO FU","city":"KYOTO SHI KITA KU","town":"ONO IWATO","perfecture_jp":"京都府","jp_add_1":"京都市北区","jp_add_2":"小野岩戸"},"6010133":{"post_code":"6010133","prefecture":"KYOTO FU","city":"KYOTO SHI KITA KU","town":"ONO KAMINOCHO","perfecture_jp":"京都府","jp_add_1":"京都市北区","jp_add_2":"小野上ノ町"},"6010131":{"post_code":"6010131","prefecture":"KYOTO FU","city":"KYOTO SHI KITA KU","town":"ONO SHIMONOCHO","perfecture_jp":"京都府","jp_add_1":"京都市北区","jp_add_2":"小野下ノ町"},"6010132":{"post_code":"6010132","prefecture":"KYOTO FU","city":"KYOTO SHI KITA KU","town":"ONO NAKANOCHO","perfecture_jp":"京都府","jp_add_1":"京都市北区","jp_add_2":"小野中ノ町"},"6010135":{"post_code":"6010135","prefecture":"KYOTO FU","city":"KYOTO SHI KITA KU","town":"ONO MIYANOKAMICHO","perfecture_jp":"京都府","jp_add_1":"京都市北区","jp_add_2":"小野宮ノ上町"},"6010111":{"post_code":"6010111","prefecture":"KYOTO FU","city":"KYOTO SHI KITA KU","town":"SUGISAKA KITAO","perfecture_jp":"京都府","jp_add_1":"京都市北区","jp_add_2":"杉阪北尾"},"6010113":{"post_code":"6010113","prefecture":"KYOTO FU","city":"KYOTO SHI KITA KU","town":"SUGISAKA TOFUCHO","perfecture_jp":"京都府","jp_add_1":"京都市北区","jp_add_2":"杉阪道風町"},"6010112":{"post_code":"6010112","prefecture":"KYOTO FU","city":"KYOTO SHI KITA KU","town":"SUGISAKA MIYAKOCHO","perfecture_jp":"京都府","jp_add_1":"京都市北区","jp_add_2":"杉阪都町"},"6010125":{"post_code":"6010125","prefecture":"KYOTO FU","city":"KYOTO SHI KITA KU","town":"NAKAGAWA KAWANOBORI","perfecture_jp":"京都府","jp_add_1":"京都市北区","jp_add_2":"中川川登"},"6010122":{"post_code":"6010122","prefecture":"KYOTO FU","city":"KYOTO SHI KITA KU","town":"NAKAGAWA KITAYAMACHO","perfecture_jp":"京都府","jp_add_1":"京都市北区","jp_add_2":"中川北山町"},"6010124":{"post_code":"6010124","prefecture":"KYOTO FU","city":"KYOTO SHI KITA KU","town":"NAKAGAWA NAKAYAMA","perfecture_jp":"京都府","jp_add_1":"京都市北区","jp_add_2":"中川中山"},"6010123":{"post_code":"6010123","prefecture":"KYOTO FU","city":"KYOTO SHI KITA KU","town":"NAKAGAWA NISHIYAMA","perfecture_jp":"京都府","jp_add_1":"京都市北区","jp_add_2":"中川西山"},"6010121":{"post_code":"6010121","prefecture":"KYOTO FU","city":"KYOTO SHI KITA KU","town":"NAKAGAWA HIGASHIYAMA","perfecture_jp":"京都府","jp_add_1":"京都市北区","jp_add_2":"中川東山"},"6010102":{"post_code":"6010102","prefecture":"KYOTO FU","city":"KYOTO SHI KITA KU","town":"MAYUMI ZEMPUKU","perfecture_jp":"京都府","jp_add_1":"京都市北区","jp_add_2":"真弓善福"},"6010101":{"post_code":"6010101","prefecture":"KYOTO FU","city":"KYOTO SHI KITA KU","town":"MAYUMI HACHIMANCHO","perfecture_jp":"京都府","jp_add_1":"京都市北区","jp_add_2":"真弓八幡町"},"6011124":{"post_code":"6011124","prefecture":"KYOTO FU","city":"KYOTO SHI SAKYO KU","town":"IWAKURA AGURACHO(267.268-BANCHI)","perfecture_jp":"京都府","jp_add_1":"京都市左京区","jp_add_2":"岩倉上蔵町"},"6011125":{"post_code":"6011125","prefecture":"KYOTO FU","city":"KYOTO SHI SAKYO KU","town":"IWAKURA KINOCHO(251-BANCHI)","perfecture_jp":"京都府","jp_add_1":"京都市左京区","jp_add_2":"岩倉木野町"},"6011246":{"post_code":"6011246","prefecture":"KYOTO FU","city":"KYOTO SHI SAKYO KU","town":"OHARA IDECHO","perfecture_jp":"京都府","jp_add_1":"京都市左京区","jp_add_2":"大原井出町"},"6011244":{"post_code":"6011244","prefecture":"KYOTO FU","city":"KYOTO SHI SAKYO KU","town":"OHARA UENOCHO","perfecture_jp":"京都府","jp_add_1":"京都市左京区","jp_add_2":"大原上野町"},"6011243":{"post_code":"6011243","prefecture":"KYOTO FU","city":"KYOTO SHI SAKYO KU","town":"OHARA ONAGASECHO","perfecture_jp":"京都府","jp_add_1":"京都市左京区","jp_add_2":"大原大長瀬町"},"6011232":{"post_code":"6011232","prefecture":"KYOTO FU","city":"KYOTO SHI SAKYO KU","town":"OHARA OMICHO","perfecture_jp":"京都府","jp_add_1":"京都市左京区","jp_add_2":"大原大見町"},"6011231":{"post_code":"6011231","prefecture":"KYOTO FU","city":"KYOTO SHI SAKYO KU","town":"OHARA OGOSECHO","perfecture_jp":"京都府","jp_add_1":"京都市左京区","jp_add_2":"大原尾越町"},"6011248":{"post_code":"6011248","prefecture":"KYOTO FU","city":"KYOTO SHI SAKYO KU","town":"OHARA KUSAOCHO","perfecture_jp":"京都府","jp_add_1":"京都市左京区","jp_add_2":"大原草生町"},"6011235":{"post_code":"6011235","prefecture":"KYOTO FU","city":"KYOTO SHI SAKYO KU","town":"OHARA KOCHIHIRACHO","perfecture_jp":"京都府","jp_add_1":"京都市左京区","jp_add_2":"大原古知平町"},"6011234":{"post_code":"6011234","prefecture":"KYOTO FU","city":"KYOTO SHI SAKYO KU","town":"OHARA KODEISHICHO","perfecture_jp":"京都府","jp_add_1":"京都市左京区","jp_add_2":"大原小出石町"},"6011241":{"post_code":"6011241","prefecture":"KYOTO FU","city":"KYOTO SHI SAKYO KU","town":"OHARA SHORININCHO","perfecture_jp":"京都府","jp_add_1":"京都市左京区","jp_add_2":"大原勝林院町"},"6011245":{"post_code":"6011245","prefecture":"KYOTO FU","city":"KYOTO SHI SAKYO KU","town":"OHARA TODERACHO","perfecture_jp":"京都府","jp_add_1":"京都市左京区","jp_add_2":"大原戸寺町"},"6011247":{"post_code":"6011247","prefecture":"KYOTO FU","city":"KYOTO SHI SAKYO KU","town":"OHARA NOMURACHO","perfecture_jp":"京都府","jp_add_1":"京都市左京区","jp_add_2":"大原野村町"},"6011233":{"post_code":"6011233","prefecture":"KYOTO FU","city":"KYOTO SHI SAKYO KU","town":"OHARA MOMOICHO","perfecture_jp":"京都府","jp_add_1":"京都市左京区","jp_add_2":"大原百井町"},"6011242":{"post_code":"6011242","prefecture":"KYOTO FU","city":"KYOTO SHI SAKYO KU","town":"OHARA RAIKOINCHO","perfecture_jp":"京都府","jp_add_1":"京都市左京区","jp_add_2":"大原来迎院町"},"6011255":{"post_code":"6011255","prefecture":"KYOTO FU","city":"KYOTO SHI SAKYO KU","town":"72.189.189-1-BANCHI)","perfecture_jp":"京都府","jp_add_1":"京都市左京区","jp_add_2":"上高野東山"},"6011112":{"post_code":"6011112","prefecture":"KYOTO FU","city":"KYOTO SHI SAKYO KU","town":"KURAMA KIBUNECHO","perfecture_jp":"京都府","jp_add_1":"京都市左京区","jp_add_2":"鞍馬貴船町"},"6011113":{"post_code":"6011113","prefecture":"KYOTO FU","city":"KYOTO SHI SAKYO KU","town":"KURAMA NINOSECHO","perfecture_jp":"京都府","jp_add_1":"京都市左京区","jp_add_2":"鞍馬二ノ瀬町"},"6011111":{"post_code":"6011111","prefecture":"KYOTO FU","city":"KYOTO SHI SAKYO KU","town":"KURAMA HOMMACHI","perfecture_jp":"京都府","jp_add_1":"京都市左京区","jp_add_2":"鞍馬本町"},"6011123":{"post_code":"6011123","prefecture":"KYOTO FU","city":"KYOTO SHI SAKYO KU","town":"SHIZUICHI ICHIHARACHO","perfecture_jp":"京都府","jp_add_1":"京都市左京区","jp_add_2":"静市市原町"},"6011121":{"post_code":"6011121","prefecture":"KYOTO FU","city":"KYOTO SHI SAKYO KU","town":"SHIZUICHI SHIZUHARACHO","perfecture_jp":"京都府","jp_add_1":"京都市左京区","jp_add_2":"静市静原町"},"6011122":{"post_code":"6011122","prefecture":"KYOTO FU","city":"KYOTO SHI SAKYO KU","town":"SHIZUICHI NONAKACHO","perfecture_jp":"京都府","jp_add_1":"京都市左京区","jp_add_2":"静市野中町"},"6011104":{"post_code":"6011104","prefecture":"KYOTO FU","city":"KYOTO SHI SAKYO KU","town":"HANASE OFUSECHO","perfecture_jp":"京都府","jp_add_1":"京都市左京区","jp_add_2":"花脊大布施町"},"6011102":{"post_code":"6011102","prefecture":"KYOTO FU","city":"KYOTO SHI SAKYO KU","town":"HANASE HARACHICHO","perfecture_jp":"京都府","jp_add_1":"京都市左京区","jp_add_2":"花脊原地町"},"6011105":{"post_code":"6011105","prefecture":"KYOTO FU","city":"KYOTO SHI SAKYO KU","town":"HANASE BESSHOCHO","perfecture_jp":"京都府","jp_add_1":"京都市左京区","jp_add_2":"花脊別所町"},"6011103":{"post_code":"6011103","prefecture":"KYOTO FU","city":"KYOTO SHI SAKYO KU","town":"HANASE YAMASUCHO","perfecture_jp":"京都府","jp_add_1":"京都市左京区","jp_add_2":"花脊八桝町"},"6011101":{"post_code":"6011101","prefecture":"KYOTO FU","city":"KYOTO SHI SAKYO KU","town":"HIROGAWARA(KAKUMACHI)","perfecture_jp":"京都府","jp_add_1":"京都市左京区","jp_add_2":"広河原"},"6011252":{"post_code":"6011252","prefecture":"KYOTO FU","city":"KYOTO SHI SAKYO KU","town":"YASE AKIMOTOCHO","perfecture_jp":"京都府","jp_add_1":"京都市左京区","jp_add_2":"八瀬秋元町"},"6011253":{"post_code":"6011253","prefecture":"KYOTO FU","city":"KYOTO SHI SAKYO KU","town":"YASE KONOECHO","perfecture_jp":"京都府","jp_add_1":"京都市左京区","jp_add_2":"八瀬近衛町"},"6011251":{"post_code":"6011251","prefecture":"KYOTO FU","city":"KYOTO SHI SAKYO KU","town":"YASE HANAJIRICHO","perfecture_jp":"京都府","jp_add_1":"京都市左京区","jp_add_2":"八瀬花尻町"},"6011254":{"post_code":"6011254","prefecture":"KYOTO FU","city":"KYOTO SHI SAKYO KU","town":"YASENOSECHO(SONOTA)","perfecture_jp":"京都府","jp_add_1":"京都市左京区","jp_add_2":"八瀬野瀬町"},"6010000":{"post_code":"6010000","prefecture":"KYOTO FU","city":"KYOTO SHI MINAMI KU","town":"IKANIKEISAIGANAIBAAI","perfecture_jp":"京都府","jp_add_1":"京都市南区","jp_add_2":""},"6018406":{"post_code":"6018406","prefecture":"KYOTO FU","city":"KYOTO SHI MINAMI KU","town":"KAIKOJICHO","perfecture_jp":"京都府","jp_add_1":"京都市南区","jp_add_2":"戒光寺町"},"6018143":{"post_code":"6018143","prefecture":"KYOTO FU","city":"KYOTO SHI MINAMI KU","town":"KAMITOBA ASANOMOTO","perfecture_jp":"京都府","jp_add_1":"京都市南区","jp_add_2":"上鳥羽麻ノ本"},"6018135":{"post_code":"6018135","prefecture":"KYOTO FU","city":"KYOTO SHI MINAMI KU","town":"KAMITOBA ISHIBASHICHO","perfecture_jp":"京都府","jp_add_1":"京都市南区","jp_add_2":"上鳥羽石橋町"},"6018136":{"post_code":"6018136","prefecture":"KYOTO FU","city":"KYOTO SHI MINAMI KU","town":"KAMITOBA IWANOMOTOCHO","perfecture_jp":"京都府","jp_add_1":"京都市南区","jp_add_2":"上鳥羽岩ノ本町"},"6018141":{"post_code":"6018141","prefecture":"KYOTO FU","city":"KYOTO SHI MINAMI KU","town":"KAMITOBA UNOHANA","perfecture_jp":"京都府","jp_add_1":"京都市南区","jp_add_2":"上鳥羽卯ノ花"},"6018177":{"post_code":"6018177","prefecture":"KYOTO FU","city":"KYOTO SHI MINAMI KU","town":"KAMITOBA UMAMAWASHI","perfecture_jp":"京都府","jp_add_1":"京都市南区","jp_add_2":"上鳥羽馬廻"},"6018134":{"post_code":"6018134","prefecture":"KYOTO FU","city":"KYOTO SHI MINAMI KU","town":"KAMITOBA OMIZO","perfecture_jp":"京都府","jp_add_1":"京都市南区","jp_add_2":"上鳥羽大溝"},"6018128":{"post_code":"6018128","prefecture":"KYOTO FU","city":"KYOTO SHI MINAMI KU","town":"KAMITOBA OYANAGICHO","perfecture_jp":"京都府","jp_add_1":"京都市南区","jp_add_2":"上鳥羽大柳町"},"6018178":{"post_code":"6018178","prefecture":"KYOTO FU","city":"KYOTO SHI MINAMI KU","town":"KAMITOBA KAIKO","perfecture_jp":"京都府","jp_add_1":"京都市南区","jp_add_2":"上鳥羽戒光"},"6018185":{"post_code":"6018185","prefecture":"KYOTO FU","city":"KYOTO SHI MINAMI KU","town":"KAMITOBA KAIKOCHO","perfecture_jp":"京都府","jp_add_1":"京都市南区","jp_add_2":"上鳥羽戒光町"},"6018175":{"post_code":"6018175","prefecture":"KYOTO FU","city":"KYOTO SHI MINAMI KU","town":"KAMITOBA KANABOTOKE","perfecture_jp":"京都府","jp_add_1":"京都市南区","jp_add_2":"上鳥羽金仏"},"6018105":{"post_code":"6018105","prefecture":"KYOTO FU","city":"KYOTO SHI MINAMI KU","town":"KAMITOBA KAMICHOSHICHO","perfecture_jp":"京都府","jp_add_1":"京都市南区","jp_add_2":"上鳥羽上調子町"},"6018131":{"post_code":"6018131","prefecture":"KYOTO FU","city":"KYOTO SHI MINAMI KU","town":"KAMITOBA KAMONDEN","perfecture_jp":"京都府","jp_add_1":"京都市南区","jp_add_2":"上鳥羽鴨田"},"6018108":{"post_code":"6018108","prefecture":"KYOTO FU","city":"KYOTO SHI MINAMI KU","town":"KAMITOBA KARATOCHO","perfecture_jp":"京都府","jp_add_1":"京都市南区","jp_add_2":"上鳥羽唐戸町"},"6018171":{"post_code":"6018171","prefecture":"KYOTO FU","city":"KYOTO SHI MINAMI KU","town":"KAMITOBA KAWABATACHO","perfecture_jp":"京都府","jp_add_1":"京都市南区","jp_add_2":"上鳥羽川端町"},"6018112":{"post_code":"6018112","prefecture":"KYOTO FU","city":"KYOTO SHI MINAMI KU","town":"KAMITOBA KANJIMBASHICHO","perfecture_jp":"京都府","jp_add_1":"京都市南区","jp_add_2":"上鳥羽勧進橋町"},"6018186":{"post_code":"6018186","prefecture":"KYOTO FU","city":"KYOTO SHI MINAMI KU","town":"KAMITOBA KITAKAIKOCHO","perfecture_jp":"京都府","jp_add_1":"京都市南区","jp_add_2":"上鳥羽北戒光町"},"6018182":{"post_code":"6018182","prefecture":"KYOTO FU","city":"KYOTO SHI MINAMI KU","town":"KAMITOBA KITASHIMADACHO","perfecture_jp":"京都府","jp_add_1":"京都市南区","jp_add_2":"上鳥羽北島田町"},"6018122":{"post_code":"6018122","prefecture":"KYOTO FU","city":"KYOTO SHI MINAMI KU","town":"KAMITOBA KITATONOMOTOCHO","perfecture_jp":"京都府","jp_add_1":"京都市南区","jp_add_2":"上鳥羽北塔ノ本町"},"6018106":{"post_code":"6018106","prefecture":"KYOTO FU","city":"KYOTO SHI MINAMI KU","town":"KAMITOBA KITANAKANOTSUBOCHO","perfecture_jp":"京都府","jp_add_1":"京都市南区","jp_add_2":"上鳥羽北中ノ坪町"},"6018127":{"post_code":"6018127","prefecture":"KYOTO FU","city":"KYOTO SHI MINAMI KU","town":"KAMITOBA KITAHANANACHO","perfecture_jp":"京都府","jp_add_1":"京都市南区","jp_add_2":"上鳥羽北花名町"},"6018187":{"post_code":"6018187","prefecture":"KYOTO FU","city":"KYOTO SHI MINAMI KU","town":"KAMITOBA KITAMURAYAMACHO","perfecture_jp":"京都府","jp_add_1":"京都市南区","jp_add_2":"上鳥羽北村山町"},"6018174":{"post_code":"6018174","prefecture":"KYOTO FU","city":"KYOTO SHI MINAMI KU","town":"KAMITOBA KIYOICHO","perfecture_jp":"京都府","jp_add_1":"京都市南区","jp_add_2":"上鳥羽清井町"},"6018115":{"post_code":"6018115","prefecture":"KYOTO FU","city":"KYOTO SHI MINAMI KU","town":"KAMITOBA SHIRIKIRICHO","perfecture_jp":"京都府","jp_add_1":"京都市南区","jp_add_2":"上鳥羽尻切町"},"6018137":{"post_code":"6018137","prefecture":"KYOTO FU","city":"KYOTO SHI MINAMI KU","town":"KAMITOBA SHIROGAMAECHO","perfecture_jp":"京都府","jp_add_1":"京都市南区","jp_add_2":"上鳥羽城ケ前町"},"6018102":{"post_code":"6018102","prefecture":"KYOTO FU","city":"KYOTO SHI MINAMI KU","town":"KAMITOBA SUGATACHO","perfecture_jp":"京都府","jp_add_1":"京都市南区","jp_add_2":"上鳥羽菅田町"},"6018121":{"post_code":"6018121","prefecture":"KYOTO FU","city":"KYOTO SHI MINAMI KU","town":"KAMITOBA DAIMOTSUCHO","perfecture_jp":"京都府","jp_add_1":"京都市南区","jp_add_2":"上鳥羽大物町"},"6018101":{"post_code":"6018101","prefecture":"KYOTO FU","city":"KYOTO SHI MINAMI KU","town":"KAMITOBA TAKAHATACHO","perfecture_jp":"京都府","jp_add_1":"京都市南区","jp_add_2":"上鳥羽高畠町"},"6018132":{"post_code":"6018132","prefecture":"KYOTO FU","city":"KYOTO SHI MINAMI KU","town":"KAMITOBA CHODA","perfecture_jp":"京都府","jp_add_1":"京都市南区","jp_add_2":"上鳥羽町田"},"6018104":{"post_code":"6018104","prefecture":"KYOTO FU","city":"KYOTO SHI MINAMI KU","town":"KAMITOBA TSUNODACHO","perfecture_jp":"京都府","jp_add_1":"京都市南区","jp_add_2":"上鳥羽角田町"},"6018124":{"post_code":"6018124","prefecture":"KYOTO FU","city":"KYOTO SHI MINAMI KU","town":"KAMITOBA TONOMOTO","perfecture_jp":"京都府","jp_add_1":"京都市南区","jp_add_2":"上鳥羽塔ノ本"},"6018142":{"post_code":"6018142","prefecture":"KYOTO FU","city":"KYOTO SHI MINAMI KU","town":"KAMITOBA NAKAGAWARA","perfecture_jp":"京都府","jp_add_1":"京都市南区","jp_add_2":"上鳥羽中河原"},"6018146":{"post_code":"6018146","prefecture":"KYOTO FU","city":"KYOTO SHI MINAMI KU","town":"KAMITOBA NASUNOCHO","perfecture_jp":"京都府","jp_add_1":"京都市南区","jp_add_2":"上鳥羽奈須野町"},"6018172":{"post_code":"6018172","prefecture":"KYOTO FU","city":"KYOTO SHI MINAMI KU","town":"KAMITOBA NABEGAFUCHICHO","perfecture_jp":"京都府","jp_add_1":"京都市南区","jp_add_2":"上鳥羽鍋ケ渕町"},"6018111":{"post_code":"6018111","prefecture":"KYOTO FU","city":"KYOTO SHI MINAMI KU","town":"KAMITOBA NAWASHIROCHO","perfecture_jp":"京都府","jp_add_1":"京都市南区","jp_add_2":"上鳥羽苗代町"},"6018145":{"post_code":"6018145","prefecture":"KYOTO FU","city":"KYOTO SHI MINAMI KU","town":"KAMITOBA NISHIURACHO","perfecture_jp":"京都府","jp_add_1":"京都市南区","jp_add_2":"上鳥羽西浦町"},"6018173":{"post_code":"6018173","prefecture":"KYOTO FU","city":"KYOTO SHI MINAMI KU","town":"KAMITOBA HACHIOJINCHO","perfecture_jp":"京都府","jp_add_1":"京都市南区","jp_add_2":"上鳥羽八王神町"},"6018125":{"post_code":"6018125","prefecture":"KYOTO FU","city":"KYOTO SHI MINAMI KU","town":"KAMITOBA HANANA","perfecture_jp":"京都府","jp_add_1":"京都市南区","jp_add_2":"上鳥羽花名"},"6018144":{"post_code":"6018144","prefecture":"KYOTO FU","city":"KYOTO SHI MINAMI KU","town":"KAMITOBA HIUCHIGATACHO","perfecture_jp":"京都府","jp_add_1":"京都市南区","jp_add_2":"上鳥羽火打形町"},"6018103":{"post_code":"6018103","prefecture":"KYOTO FU","city":"KYOTO SHI MINAMI KU","town":"KAMITOBA BUTSUGENJICHO","perfecture_jp":"京都府","jp_add_1":"京都市南区","jp_add_2":"上鳥羽仏現寺町"},"6018116":{"post_code":"6018116","prefecture":"KYOTO FU","city":"KYOTO SHI MINAMI KU","town":"KAMITOBA HOKOTATECHO","perfecture_jp":"京都府","jp_add_1":"京都市南区","jp_add_2":"上鳥羽鉾立町"},"6018181":{"post_code":"6018181","prefecture":"KYOTO FU","city":"KYOTO SHI MINAMI KU","town":"KAMITOBA HORIKOCHO","perfecture_jp":"京都府","jp_add_1":"京都市南区","jp_add_2":"上鳥羽堀子町"},"6018107":{"post_code":"6018107","prefecture":"KYOTO FU","city":"KYOTO SHI MINAMI KU","town":"KAMITOBA MINAMIKARATOCHO","perfecture_jp":"京都府","jp_add_1":"京都市南区","jp_add_2":"上鳥羽南唐戸町"},"6018183":{"post_code":"6018183","prefecture":"KYOTO FU","city":"KYOTO SHI MINAMI KU","town":"KAMITOBA MINAMISHIMADACHO","perfecture_jp":"京都府","jp_add_1":"京都市南区","jp_add_2":"上鳥羽南島田町"},"6018123":{"post_code":"6018123","prefecture":"KYOTO FU","city":"KYOTO SHI MINAMI KU","town":"KAMITOBA MINAMITONOMOTOCHO","perfecture_jp":"京都府","jp_add_1":"京都市南区","jp_add_2":"上鳥羽南塔ノ本町"},"6018188":{"post_code":"6018188","prefecture":"KYOTO FU","city":"KYOTO SHI MINAMI KU","town":"KAMITOBA MINAMINAKANOTSUBOCHO","perfecture_jp":"京都府","jp_add_1":"京都市南区","jp_add_2":"上鳥羽南中ノ坪町"},"6018113":{"post_code":"6018113","prefecture":"KYOTO FU","city":"KYOTO SHI MINAMI KU","town":"KAMITOBA MINAMINAWASHIROCHO","perfecture_jp":"京都府","jp_add_1":"京都市南区","jp_add_2":"上鳥羽南苗代町"},"6018126":{"post_code":"6018126","prefecture":"KYOTO FU","city":"KYOTO SHI MINAMI KU","town":"KAMITOBA MINAMIHANANACHO","perfecture_jp":"京都府","jp_add_1":"京都市南区","jp_add_2":"上鳥羽南花名町"},"6018114":{"post_code":"6018114","prefecture":"KYOTO FU","city":"KYOTO SHI MINAMI KU","town":"KAMITOBA MINAMIHOKOTATECHO","perfecture_jp":"京都府","jp_add_1":"京都市南区","jp_add_2":"上鳥羽南鉾立町"},"6018184":{"post_code":"6018184","prefecture":"KYOTO FU","city":"KYOTO SHI MINAMI KU","town":"KAMITOBA MINAMIMURAYAMACHO","perfecture_jp":"京都府","jp_add_1":"京都市南区","jp_add_2":"上鳥羽南村山町"},"6018176":{"post_code":"6018176","prefecture":"KYOTO FU","city":"KYOTO SHI MINAMI KU","town":"KAMITOBA YAMANOMOTOCHO","perfecture_jp":"京都府","jp_add_1":"京都市南区","jp_add_2":"上鳥羽山ノ本町"},"6018133":{"post_code":"6018133","prefecture":"KYOTO FU","city":"KYOTO SHI MINAMI KU","town":"KAMITOBA WARANDEN","perfecture_jp":"京都府","jp_add_1":"京都市南区","jp_add_2":"上鳥羽藁田"},"6018161":{"post_code":"6018161","prefecture":"KYOTO FU","city":"KYOTO SHI MINAMI KU","town":"KAMITOBATONOMORI UMENOKI","perfecture_jp":"京都府","jp_add_1":"京都市南区","jp_add_2":"上鳥羽塔ノ森梅ノ木"},"6018163":{"post_code":"6018163","prefecture":"KYOTO FU","city":"KYOTO SHI MINAMI KU","town":"KAMITOBATONOMORI EGAWACHO","perfecture_jp":"京都府","jp_add_1":"京都市南区","jp_add_2":"上鳥羽塔ノ森江川町"},"6018155":{"post_code":"6018155","prefecture":"KYOTO FU","city":"KYOTO SHI MINAMI KU","town":"KAMITOBATONOMORI KAMIKAWARA","perfecture_jp":"京都府","jp_add_1":"京都市南区","jp_add_2":"上鳥羽塔ノ森上河原"},"6018167":{"post_code":"6018167","prefecture":"KYOTO FU","city":"KYOTO SHI MINAMI KU","town":"KAMITOBATONOMORI KAMIHIRAKINOCHI","perfecture_jp":"京都府","jp_add_1":"京都市南区","jp_add_2":"上鳥羽塔ノ森上開ノ内"},"6018162":{"post_code":"6018162","prefecture":"KYOTO FU","city":"KYOTO SHI MINAMI KU","town":"KAMITOBATONOMORI SHIBAHIGASHICHO","perfecture_jp":"京都府","jp_add_1":"京都市南区","jp_add_2":"上鳥羽塔ノ森柴東町"},"6018153":{"post_code":"6018153","prefecture":"KYOTO FU","city":"KYOTO SHI MINAMI KU","town":"KAMITOBATONOMORI SHIMOKAWARA","perfecture_jp":"京都府","jp_add_1":"京都市南区","jp_add_2":"上鳥羽塔ノ森下河原"},"6018166":{"post_code":"6018166","prefecture":"KYOTO FU","city":"KYOTO SHI MINAMI KU","town":"KAMITOBATONOMORI SHIMOHIRAKINOCHI","perfecture_jp":"京都府","jp_add_1":"京都市南区","jp_add_2":"上鳥羽塔ノ森下開ノ内"},"6018152":{"post_code":"6018152","prefecture":"KYOTO FU","city":"KYOTO SHI MINAMI KU","town":"KAMITOBATONOMORI SUZAKICHO","perfecture_jp":"京都府","jp_add_1":"京都市南区","jp_add_2":"上鳥羽塔ノ森洲崎町"},"6018165":{"post_code":"6018165","prefecture":"KYOTO FU","city":"KYOTO SHI MINAMI KU","town":"KAMITOBATONOMORI NISHIGAWARACHO","perfecture_jp":"京都府","jp_add_1":"京都市南区","jp_add_2":"上鳥羽塔ノ森西河原町"},"6018151":{"post_code":"6018151","prefecture":"KYOTO FU","city":"KYOTO SHI MINAMI KU","town":"KAMITOBATONOMORI HIGASHIMUKOCHO","perfecture_jp":"京都府","jp_add_1":"京都市南区","jp_add_2":"上鳥羽塔ノ森東向町"},"6018154":{"post_code":"6018154","prefecture":"KYOTO FU","city":"KYOTO SHI MINAMI KU","town":"KAMITOBATONOMORI YANAGIHARA","perfecture_jp":"京都府","jp_add_1":"京都市南区","jp_add_2":"上鳥羽塔ノ森柳原"},"6018164":{"post_code":"6018164","prefecture":"KYOTO FU","city":"KYOTO SHI MINAMI KU","town":"KAMITOBATONOMORI YOTSUYACHO","perfecture_jp":"京都府","jp_add_1":"京都市南区","jp_add_2":"上鳥羽塔ノ森四ツ谷町"},"6018463":{"post_code":"6018463","prefecture":"KYOTO FU","city":"KYOTO SHI MINAMI KU","town":"KARAHASHI AKAKANECHO","perfecture_jp":"京都府","jp_add_1":"京都市南区","jp_add_2":"唐橋赤金町"},"6018455":{"post_code":"6018455","prefecture":"KYOTO FU","city":"KYOTO SHI MINAMI KU","town":"KARAHASHI ASHIBECHO","perfecture_jp":"京都府","jp_add_1":"京都市南区","jp_add_2":"唐橋芦辺町"},"6018462":{"post_code":"6018462","prefecture":"KYOTO FU","city":"KYOTO SHI MINAMI KU","town":"KARAHASHI ISONOCHO","perfecture_jp":"京都府","jp_add_1":"京都市南区","jp_add_2":"唐橋井園町"},"6018467":{"post_code":"6018467","prefecture":"KYOTO FU","city":"KYOTO SHI MINAMI KU","town":"KARAHASHI OMIYAJIRICHO","perfecture_jp":"京都府","jp_add_1":"京都市南区","jp_add_2":"唐橋大宮尻町"},"6018461":{"post_code":"6018461","prefecture":"KYOTO FU","city":"KYOTO SHI MINAMI KU","town":"KARAHASHI KADOWAKICHO","perfecture_jp":"京都府","jp_add_1":"京都市南区","jp_add_2":"唐橋門脇町"},"6018451":{"post_code":"6018451","prefecture":"KYOTO FU","city":"KYOTO SHI MINAMI KU","town":"KARAHASHI KAWAKUBOCHO","perfecture_jp":"京都府","jp_add_1":"京都市南区","jp_add_2":"唐橋川久保町"},"6018454":{"post_code":"6018454","prefecture":"KYOTO FU","city":"KYOTO SHI MINAMI KU","town":"KARAHASHI KEIDENCHO","perfecture_jp":"京都府","jp_add_1":"京都市南区","jp_add_2":"唐橋経田町"},"6018466":{"post_code":"6018466","prefecture":"KYOTO FU","city":"KYOTO SHI MINAMI KU","town":"KARAHASHI SAIJICHO","perfecture_jp":"京都府","jp_add_1":"京都市南区","jp_add_2":"唐橋西寺町"},"6018464":{"post_code":"6018464","prefecture":"KYOTO FU","city":"KYOTO SHI MINAMI KU","town":"KARAHASHI TAKADACHO","perfecture_jp":"京都府","jp_add_1":"京都市南区","jp_add_2":"唐橋高田町"},"6018452":{"post_code":"6018452","prefecture":"KYOTO FU","city":"KYOTO SHI MINAMI KU","town":"KARAHASHI DONOMAECHO","perfecture_jp":"京都府","jp_add_1":"京都市南区","jp_add_2":"唐橋堂ノ前町"},"6018468":{"post_code":"6018468","prefecture":"KYOTO FU","city":"KYOTO SHI MINAMI KU","town":"KARAHASHI NISHIHIRAGAKICHO","perfecture_jp":"京都府","jp_add_1":"京都市南区","jp_add_2":"唐橋西平垣町"},"6018465":{"post_code":"6018465","prefecture":"KYOTO FU","city":"KYOTO SHI MINAMI KU","town":"KARAHASHI HANAZONOCHO","perfecture_jp":"京都府","jp_add_1":"京都市南区","jp_add_2":"唐橋花園町"},"6018469":{"post_code":"6018469","prefecture":"KYOTO FU","city":"KYOTO SHI MINAMI KU","town":"KARAHASHI HIRAGAKICHO","perfecture_jp":"京都府","jp_add_1":"京都市南区","jp_add_2":"唐橋平垣町"},"6018457":{"post_code":"6018457","prefecture":"KYOTO FU","city":"KYOTO SHI MINAMI KU","town":"KARAHASHI BIWACHO","perfecture_jp":"京都府","jp_add_1":"京都市南区","jp_add_2":"唐橋琵琶町"},"6018456":{"post_code":"6018456","prefecture":"KYOTO FU","city":"KYOTO SHI MINAMI KU","town":"KARAHASHI MINAMIBIWACHO","perfecture_jp":"京都府","jp_add_1":"京都市南区","jp_add_2":"唐橋南琵琶町"},"6018453":{"post_code":"6018453","prefecture":"KYOTO FU","city":"KYOTO SHI MINAMI KU","town":"KARAHASHI RAJOMONCHO","perfecture_jp":"京都府","jp_add_1":"京都市南区","jp_add_2":"唐橋羅城門町"},"6018349":{"post_code":"6018349","prefecture":"KYOTO FU","city":"KYOTO SHI MINAMI KU","town":"KISSHOIN IKEDACHO","perfecture_jp":"京都府","jp_add_1":"京都市南区","jp_add_2":"吉祥院池田町"},"6018346":{"post_code":"6018346","prefecture":"KYOTO FU","city":"KYOTO SHI MINAMI KU","town":"KISSHOIN IKEDAMINAMICHO","perfecture_jp":"京都府","jp_add_1":"京都市南区","jp_add_2":"吉祥院池田南町"},"6018316":{"post_code":"6018316","prefecture":"KYOTO FU","city":"KYOTO SHI MINAMI KU","town":"KISSHOIN IKENOCHICHO","perfecture_jp":"京都府","jp_add_1":"京都市南区","jp_add_2":"吉祥院池ノ内町"},"6018367":{"post_code":"6018367","prefecture":"KYOTO FU","city":"KYOTO SHI MINAMI KU","town":"KISSHOIN ISHIHARACHO","perfecture_jp":"京都府","jp_add_1":"京都市南区","jp_add_2":"吉祥院石原町"},"6018343":{"post_code":"6018343","prefecture":"KYOTO FU","city":"KYOTO SHI MINAMI KU","town":"KISSHOIN INABACHO","perfecture_jp":"京都府","jp_add_1":"京都市南区","jp_add_2":"吉祥院稲葉町"},"6018314":{"post_code":"6018314","prefecture":"KYOTO FU","city":"KYOTO SHI MINAMI KU","town":"KISSHOIN INOKUCHICHO","perfecture_jp":"京都府","jp_add_1":"京都市南区","jp_add_2":"吉祥院井ノ口町"},"6018392":{"post_code":"6018392","prefecture":"KYOTO FU","city":"KYOTO SHI MINAMI KU","town":"KISSHOIN UCHIGAWARACHO","perfecture_jp":"京都府","jp_add_1":"京都市南区","jp_add_2":"吉祥院内河原町"},"6018327":{"post_code":"6018327","prefecture":"KYOTO FU","city":"KYOTO SHI MINAMI KU","town":"KISSHOIN OIKECHO","perfecture_jp":"京都府","jp_add_1":"京都市南区","jp_add_2":"吉祥院御池町"},"6018391":{"post_code":"6018391","prefecture":"KYOTO FU","city":"KYOTO SHI MINAMI KU","town":"KISSHOIN OGAWARACHO","perfecture_jp":"京都府","jp_add_1":"京都市南区","jp_add_2":"吉祥院大河原町"},"6018324":{"post_code":"6018324","prefecture":"KYOTO FU","city":"KYOTO SHI MINAMI KU","town":"KISSHOIN OCHIAICHO","perfecture_jp":"京都府","jp_add_1":"京都市南区","jp_add_2":"吉祥院落合町"},"6018323":{"post_code":"6018323","prefecture":"KYOTO FU","city":"KYOTO SHI MINAMI KU","town":"KISSHOIN KASUGACHO","perfecture_jp":"京都府","jp_add_1":"京都市南区","jp_add_2":"吉祥院春日町"},"6018348":{"post_code":"6018348","prefecture":"KYOTO FU","city":"KYOTO SHI MINAMI KU","town":"KISSHOIN KANNONDOCHO","perfecture_jp":"京都府","jp_add_1":"京都市南区","jp_add_2":"吉祥院観音堂町"},"6018347":{"post_code":"6018347","prefecture":"KYOTO FU","city":"KYOTO SHI MINAMI KU","town":"KISSHOIN KANNONDOMINAMICHO","perfecture_jp":"京都府","jp_add_1":"京都市南区","jp_add_2":"吉祥院観音堂南町"},"6018328":{"post_code":"6018328","prefecture":"KYOTO FU","city":"KYOTO SHI MINAMI KU","town":"KISSHOIN KUJOCHO","perfecture_jp":"京都府","jp_add_1":"京都市南区","jp_add_2":"吉祥院九条町"},"6018315":{"post_code":"6018315","prefecture":"KYOTO FU","city":"KYOTO SHI MINAMI KU","town":"KISSHOIN KURUMAMICHICHO","perfecture_jp":"京都府","jp_add_1":"京都市南区","jp_add_2":"吉祥院車道町"},"6018322":{"post_code":"6018322","prefecture":"KYOTO FU","city":"KYOTO SHI MINAMI KU","town":"KISSHOIN SADANARICHO","perfecture_jp":"京都府","jp_add_1":"京都市南区","jp_add_2":"吉祥院定成町"},"6018339":{"post_code":"6018339","prefecture":"KYOTO FU","city":"KYOTO SHI MINAMI KU","town":"KISSHOIN SATONOCHICHO","perfecture_jp":"京都府","jp_add_1":"京都市南区","jp_add_2":"吉祥院里ノ内町"},"6018319":{"post_code":"6018319","prefecture":"KYOTO FU","city":"KYOTO SHI MINAMI KU","town":"KISSHOIN SANNOMIYACHO","perfecture_jp":"京都府","jp_add_1":"京都市南区","jp_add_2":"吉祥院三ノ宮町"},"6018318":{"post_code":"6018318","prefecture":"KYOTO FU","city":"KYOTO SHI MINAMI KU","town":"KISSHOIN SANNOMIYANISHIMACHI","perfecture_jp":"京都府","jp_add_1":"京都市南区","jp_add_2":"吉祥院三ノ宮西町"},"6018329":{"post_code":"6018329","prefecture":"KYOTO FU","city":"KYOTO SHI MINAMI KU","town":"KISSHOIN SHIMIZUCHO","perfecture_jp":"京都府","jp_add_1":"京都市南区","jp_add_2":"吉祥院清水町"},"6018336":{"post_code":"6018336","prefecture":"KYOTO FU","city":"KYOTO SHI MINAMI KU","town":"KISSHOIN SUGAHARACHO","perfecture_jp":"京都府","jp_add_1":"京都市南区","jp_add_2":"吉祥院菅原町"},"6018335":{"post_code":"6018335","prefecture":"KYOTO FU","city":"KYOTO SHI MINAMI KU","town":"KISSHOIN SUNANOCHO","perfecture_jp":"京都府","jp_add_1":"京都市南区","jp_add_2":"吉祥院砂ノ町"},"6018332":{"post_code":"6018332","prefecture":"KYOTO FU","city":"KYOTO SHI MINAMI KU","town":"KISSHOIN TAKAHATACHO","perfecture_jp":"京都府","jp_add_1":"京都市南区","jp_add_2":"吉祥院高畑町"},"6018399":{"post_code":"6018399","prefecture":"KYOTO FU","city":"KYOTO SHI MINAMI KU","town":"KISSHOIN TSUTSUMISOTOCHO","perfecture_jp":"京都府","jp_add_1":"京都市南区","jp_add_2":"吉祥院堤外町"},"6018313":{"post_code":"6018313","prefecture":"KYOTO FU","city":"KYOTO SHI MINAMI KU","town":"KISSHOIN NAKAJIMACHO","perfecture_jp":"京都府","jp_add_1":"京都市南区","jp_add_2":"吉祥院中島町"},"6018362":{"post_code":"6018362","prefecture":"KYOTO FU","city":"KYOTO SHI MINAMI KU","town":"KISSHOIN NAGATACHO","perfecture_jp":"京都府","jp_add_1":"京都市南区","jp_add_2":"吉祥院長田町"},"6018354":{"post_code":"6018354","prefecture":"KYOTO FU","city":"KYOTO SHI MINAMI KU","town":"KISSHOIN NIKINOMORICHO","perfecture_jp":"京都府","jp_add_1":"京都市南区","jp_add_2":"吉祥院仁木ノ森町"},"6018352":{"post_code":"6018352","prefecture":"KYOTO FU","city":"KYOTO SHI MINAMI KU","town":"KISSHOIN NISHIURACHO","perfecture_jp":"京都府","jp_add_1":"京都市南区","jp_add_2":"吉祥院西浦町"},"6018321":{"post_code":"6018321","prefecture":"KYOTO FU","city":"KYOTO SHI MINAMI KU","town":"KISSHOIN NISHISADANARICHO","perfecture_jp":"京都府","jp_add_1":"京都市南区","jp_add_2":"吉祥院西定成町"},"6018338":{"post_code":"6018338","prefecture":"KYOTO FU","city":"KYOTO SHI MINAMI KU","town":"KISSHOIN NISHINOCHICHO","perfecture_jp":"京都府","jp_add_1":"京都市南区","jp_add_2":"吉祥院西ノ内町"},"6018381":{"post_code":"6018381","prefecture":"KYOTO FU","city":"KYOTO SHI MINAMI KU","town":"KISSHOIN NISHINOCHAYACHO","perfecture_jp":"京都府","jp_add_1":"京都市南区","jp_add_2":"吉祥院西ノ茶屋町"},"6018353":{"post_code":"6018353","prefecture":"KYOTO FU","city":"KYOTO SHI MINAMI KU","town":"KISSHOIN HAINOBORINAKAMACHI","perfecture_jp":"京都府","jp_add_1":"京都市南区","jp_add_2":"吉祥院這登中町"},"6018351":{"post_code":"6018351","prefecture":"KYOTO FU","city":"KYOTO SHI MINAMI KU","town":"KISSHOIN HAINOBORINISHIMACHI","perfecture_jp":"京都府","jp_add_1":"京都市南区","jp_add_2":"吉祥院這登西町"},"6018337":{"post_code":"6018337","prefecture":"KYOTO FU","city":"KYOTO SHI MINAMI KU","town":"KISSHOIN HAINOBORIHIGASHIMACHI","perfecture_jp":"京都府","jp_add_1":"京都市南区","jp_add_2":"吉祥院這登東町"},"6018325":{"post_code":"6018325","prefecture":"KYOTO FU","city":"KYOTO SHI MINAMI KU","town":"KISSHOIN HATSUTANDACHO","perfecture_jp":"京都府","jp_add_1":"京都市南区","jp_add_2":"吉祥院八反田町"},"6018333":{"post_code":"6018333","prefecture":"KYOTO FU","city":"KYOTO SHI MINAMI KU","town":"KISSHOIN HIGASHIURACHO","perfecture_jp":"京都府","jp_add_1":"京都市南区","jp_add_2":"吉祥院東浦町"},"6018334":{"post_code":"6018334","prefecture":"KYOTO FU","city":"KYOTO SHI MINAMI KU","town":"KISSHOIN HIGASHISUNANOCHO","perfecture_jp":"京都府","jp_add_1":"京都市南区","jp_add_2":"吉祥院東砂ノ町"},"6018342":{"post_code":"6018342","prefecture":"KYOTO FU","city":"KYOTO SHI MINAMI KU","town":"KISSHOIN HIGASHIMAEDACHO","perfecture_jp":"京都府","jp_add_1":"京都市南区","jp_add_2":"吉祥院東前田町"},"6018330":{"post_code":"6018330","prefecture":"KYOTO FU","city":"KYOTO SHI MINAMI KU","town":"KISSHOIN FUNATOCHO","perfecture_jp":"京都府","jp_add_1":"京都市南区","jp_add_2":"吉祥院船戸町"},"6018304":{"post_code":"6018304","prefecture":"KYOTO FU","city":"KYOTO SHI MINAMI KU","town":"KISSHOIN MAEGAWARACHO","perfecture_jp":"京都府","jp_add_1":"京都市南区","jp_add_2":"吉祥院前河原町"},"6018341":{"post_code":"6018341","prefecture":"KYOTO FU","city":"KYOTO SHI MINAMI KU","town":"KISSHOIN MAEDACHO","perfecture_jp":"京都府","jp_add_1":"京都市南区","jp_add_2":"吉祥院前田町"},"6018344":{"post_code":"6018344","prefecture":"KYOTO FU","city":"KYOTO SHI MINAMI KU","town":"KISSHOIN MAKIECHO","perfecture_jp":"京都府","jp_add_1":"京都市南区","jp_add_2":"吉祥院蒔絵町"},"6018345":{"post_code":"6018345","prefecture":"KYOTO FU","city":"KYOTO SHI MINAMI KU","town":"KISSHOIN MAKIEMINAMICHO","perfecture_jp":"京都府","jp_add_1":"京都市南区","jp_add_2":"吉祥院蒔絵南町"},"6018331":{"post_code":"6018331","prefecture":"KYOTO FU","city":"KYOTO SHI MINAMI KU","town":"KISSHOIN MANDOKOROCHO","perfecture_jp":"京都府","jp_add_1":"京都市南区","jp_add_2":"吉祥院政所町"},"6018326":{"post_code":"6018326","prefecture":"KYOTO FU","city":"KYOTO SHI MINAMI KU","town":"KISSHOIN MINAMIOCHIAICHO","perfecture_jp":"京都府","jp_add_1":"京都市南区","jp_add_2":"吉祥院南落合町"},"6018306":{"post_code":"6018306","prefecture":"KYOTO FU","city":"KYOTO SHI MINAMI KU","town":"KISSHOIN MIYANONISHICHO","perfecture_jp":"京都府","jp_add_1":"京都市南区","jp_add_2":"吉祥院宮ノ西町"},"6018305":{"post_code":"6018305","prefecture":"KYOTO FU","city":"KYOTO SHI MINAMI KU","town":"KISSHOIN MIYANOHIGASHICHO","perfecture_jp":"京都府","jp_add_1":"京都市南区","jp_add_2":"吉祥院宮ノ東町"},"6018307":{"post_code":"6018307","prefecture":"KYOTO FU","city":"KYOTO SHI MINAMI KU","town":"KISSHOIN MUKAIDANISHICHO","perfecture_jp":"京都府","jp_add_1":"京都市南区","jp_add_2":"吉祥院向田西町"},"6018308":{"post_code":"6018308","prefecture":"KYOTO FU","city":"KYOTO SHI MINAMI KU","town":"KISSHOIN MUKAIDAHIGASHICHO","perfecture_jp":"京都府","jp_add_1":"京都市南区","jp_add_2":"吉祥院向田東町"},"6018390":{"post_code":"6018390","prefecture":"KYOTO FU","city":"KYOTO SHI MINAMI KU","town":"KISSHOIN RYUSAKUCHO","perfecture_jp":"京都府","jp_add_1":"京都市南区","jp_add_2":"吉祥院流作町"},"6018382":{"post_code":"6018382","prefecture":"KYOTO FU","city":"KYOTO SHI MINAMI KU","town":"KISSHOINISHIHARA KAMIKAWARACHO","perfecture_jp":"京都府","jp_add_1":"京都市南区","jp_add_2":"吉祥院石原上川原町"},"6018356":{"post_code":"6018356","prefecture":"KYOTO FU","city":"KYOTO SHI MINAMI KU","town":"KISSHOINISHIHARA KYOMICHICHO","perfecture_jp":"京都府","jp_add_1":"京都市南区","jp_add_2":"吉祥院石原京道町"},"6018355":{"post_code":"6018355","prefecture":"KYOTO FU","city":"KYOTO SHI MINAMI KU","town":"KISSHOINISHIHARA DONOSHIROCHO","perfecture_jp":"京都府","jp_add_1":"京都市南区","jp_add_2":"吉祥院石原堂ノ後町"},"6018357":{"post_code":"6018357","prefecture":"KYOTO FU","city":"KYOTO SHI MINAMI KU","town":"KISSHOINISHIHARA DONOSHIRONISHIMACH","perfecture_jp":"京都府","jp_add_1":"京都市南区","jp_add_2":"吉祥院石原堂ノ後西町"},"6018383":{"post_code":"6018383","prefecture":"KYOTO FU","city":"KYOTO SHI MINAMI KU","town":"KISSHOINISHIHARA NAGATACHO","perfecture_jp":"京都府","jp_add_1":"京都市南区","jp_add_2":"吉祥院石原長田町"},"6018366":{"post_code":"6018366","prefecture":"KYOTO FU","city":"KYOTO SHI MINAMI KU","town":"KISSHOINISHIHARA NISHIMACHI","perfecture_jp":"京都府","jp_add_1":"京都市南区","jp_add_2":"吉祥院石原西町"},"6018388":{"post_code":"6018388","prefecture":"KYOTO FU","city":"KYOTO SHI MINAMI KU","town":"KISSHOINISHIHARA NISHINOHIRAKICHO","perfecture_jp":"京都府","jp_add_1":"京都市南区","jp_add_2":"吉祥院石原西ノ開町"},"6018384":{"post_code":"6018384","prefecture":"KYOTO FU","city":"KYOTO SHI MINAMI KU","town":"KISSHOINISHIHARA NOGAMICHO","perfecture_jp":"京都府","jp_add_1":"京都市南区","jp_add_2":"吉祥院石原野上町"},"6018387":{"post_code":"6018387","prefecture":"KYOTO FU","city":"KYOTO SHI MINAMI KU","town":"KISSHOINISHIHARA HASHIURA","perfecture_jp":"京都府","jp_add_1":"京都市南区","jp_add_2":"吉祥院石原橋裏"},"6018389":{"post_code":"6018389","prefecture":"KYOTO FU","city":"KYOTO SHI MINAMI KU","town":"KISSHOINISHIHARA HASHIKAMI","perfecture_jp":"京都府","jp_add_1":"京都市南区","jp_add_2":"吉祥院石原橋上"},"6018361":{"post_code":"6018361","prefecture":"KYOTO FU","city":"KYOTO SHI MINAMI KU","town":"KISSHOINISHIHARA HIGASHINOKUCHI","perfecture_jp":"京都府","jp_add_1":"京都市南区","jp_add_2":"吉祥院石原東之口"},"6018365":{"post_code":"6018365","prefecture":"KYOTO FU","city":"KYOTO SHI MINAMI KU","town":"KISSHOINISHIHARA HIRAKIMACHI","perfecture_jp":"京都府","jp_add_1":"京都市南区","jp_add_2":"吉祥院石原開町"},"6018364":{"post_code":"6018364","prefecture":"KYOTO FU","city":"KYOTO SHI MINAMI KU","town":"KISSHOINISHIHARA MINAMICHO","perfecture_jp":"京都府","jp_add_1":"京都市南区","jp_add_2":"吉祥院石原南町"},"6018385":{"post_code":"6018385","prefecture":"KYOTO FU","city":"KYOTO SHI MINAMI KU","town":"KISSHOINISHIHARA YOSHIBERI","perfecture_jp":"京都府","jp_add_1":"京都市南区","jp_add_2":"吉祥院石原葭縁"},"6018386":{"post_code":"6018386","prefecture":"KYOTO FU","city":"KYOTO SHI MINAMI KU","town":"KISSHOINISHIHARA WARIHATA","perfecture_jp":"京都府","jp_add_1":"京都市南区","jp_add_2":"吉祥院石原割畑"},"6018374":{"post_code":"6018374","prefecture":"KYOTO FU","city":"KYOTO SHI MINAMI KU","town":"KISSHOINSHIMA KASAICHO","perfecture_jp":"京都府","jp_add_1":"京都市南区","jp_add_2":"吉祥院嶋笠井町"},"6018371":{"post_code":"6018371","prefecture":"KYOTO FU","city":"KYOTO SHI MINAMI KU","town":"KISSHOINSHIMA KATAGIYAMACHO","perfecture_jp":"京都府","jp_add_1":"京都市南区","jp_add_2":"吉祥院嶋樫山町"},"6018379":{"post_code":"6018379","prefecture":"KYOTO FU","city":"KYOTO SHI MINAMI KU","town":"KISSHOINSHIMA KAWARADACHO","perfecture_jp":"京都府","jp_add_1":"京都市南区","jp_add_2":"吉祥院嶋川原田町"},"6018372":{"post_code":"6018372","prefecture":"KYOTO FU","city":"KYOTO SHI MINAMI KU","town":"KISSHOINSHIMA TAKAMACHI","perfecture_jp":"京都府","jp_add_1":"京都市南区","jp_add_2":"吉祥院嶋高町"},"6018378":{"post_code":"6018378","prefecture":"KYOTO FU","city":"KYOTO SHI MINAMI KU","town":"KISSHOINSHIMA TSUTSUMISOTO","perfecture_jp":"京都府","jp_add_1":"京都市南区","jp_add_2":"吉祥院嶋堤外"},"6018373":{"post_code":"6018373","prefecture":"KYOTO FU","city":"KYOTO SHI MINAMI KU","town":"KISSHOINSHIMA DEZAIKECHO","perfecture_jp":"京都府","jp_add_1":"京都市南区","jp_add_2":"吉祥院嶋出在家町"},"6018377":{"post_code":"6018377","prefecture":"KYOTO FU","city":"KYOTO SHI MINAMI KU","town":"KISSHOINSHIMA DONORA","perfecture_jp":"京都府","jp_add_1":"京都市南区","jp_add_2":"吉祥院嶋堂ノ裏"},"6018376":{"post_code":"6018376","prefecture":"KYOTO FU","city":"KYOTO SHI MINAMI KU","town":"KISSHOINSHIMA NAKANOSHIMA","perfecture_jp":"京都府","jp_add_1":"京都市南区","jp_add_2":"吉祥院嶋中ノ島"},"6018375":{"post_code":"6018375","prefecture":"KYOTO FU","city":"KYOTO SHI MINAMI KU","town":"KISSHOINSHIMA NISHIURA","perfecture_jp":"京都府","jp_add_1":"京都市南区","jp_add_2":"吉祥院嶋西浦"},"6018363":{"post_code":"6018363","prefecture":"KYOTO FU","city":"KYOTO SHI MINAMI KU","town":"KISSHOINSHIMA NOMAZUMECHO","perfecture_jp":"京都府","jp_add_1":"京都市南区","jp_add_2":"吉祥院嶋野間詰町"},"6018397":{"post_code":"6018397","prefecture":"KYOTO FU","city":"KYOTO SHI MINAMI KU","town":"KISSHOINSHINDEN ICHINODANCHO","perfecture_jp":"京都府","jp_add_1":"京都市南区","jp_add_2":"吉祥院新田壱ノ段町"},"6018398":{"post_code":"6018398","prefecture":"KYOTO FU","city":"KYOTO SHI MINAMI KU","town":"KISSHOINSHINDEN SANNODANCHO","perfecture_jp":"京都府","jp_add_1":"京都市南区","jp_add_2":"吉祥院新田参ノ段町"},"6018380":{"post_code":"6018380","prefecture":"KYOTO FU","city":"KYOTO SHI MINAMI KU","town":"KISSHOINSHINDEN SHIMONOMUKAICHO","perfecture_jp":"京都府","jp_add_1":"京都市南区","jp_add_2":"吉祥院新田下ノ向町"},"6018317":{"post_code":"6018317","prefecture":"KYOTO FU","city":"KYOTO SHI MINAMI KU","town":"KISSHOINSHINDEN NINODANCHO","perfecture_jp":"京都府","jp_add_1":"京都市南区","jp_add_2":"吉祥院新田弐ノ段町"},"6018394":{"post_code":"6018394","prefecture":"KYOTO FU","city":"KYOTO SHI MINAMI KU","town":"KISSHOINNAKAGAWARA SATOKITACHO","perfecture_jp":"京都府","jp_add_1":"京都市南区","jp_add_2":"吉祥院中河原里北町"},"6018393":{"post_code":"6018393","prefecture":"KYOTO FU","city":"KYOTO SHI MINAMI KU","town":"KISSHOINNAKAGAWARA SATONISHICHO","perfecture_jp":"京都府","jp_add_1":"京都市南区","jp_add_2":"吉祥院中河原里西町"},"6018396":{"post_code":"6018396","prefecture":"KYOTO FU","city":"KYOTO SHI MINAMI KU","town":"KISSHOINNAKAGAWARA SATOMINAMICHO","perfecture_jp":"京都府","jp_add_1":"京都市南区","jp_add_2":"吉祥院中河原里南町"},"6018395":{"post_code":"6018395","prefecture":"KYOTO FU","city":"KYOTO SHI MINAMI KU","town":"KISSHOINNAKAGAWARA NISHIYASHIKICHO","perfecture_jp":"京都府","jp_add_1":"京都市南区","jp_add_2":"吉祥院中河原西屋敷町"},"6018310":{"post_code":"6018310","prefecture":"KYOTO FU","city":"KYOTO SHI MINAMI KU","town":"KISSHOINNISHINOSHO INOBABACHO","perfecture_jp":"京都府","jp_add_1":"京都市南区","jp_add_2":"吉祥院西ノ庄猪之馬場町"},"6018301":{"post_code":"6018301","prefecture":"KYOTO FU","city":"KYOTO SHI MINAMI KU","town":"KISSHOINNISHINOSHO NISHIURACHO","perfecture_jp":"京都府","jp_add_1":"京都市南区","jp_add_2":"吉祥院西ノ庄西浦町"},"6018303":{"post_code":"6018303","prefecture":"KYOTO FU","city":"KYOTO SHI MINAMI KU","town":"KISSHOINNISHINOSHO NISHINAKACHO","perfecture_jp":"京都府","jp_add_1":"京都市南区","jp_add_2":"吉祥院西ノ庄西中町"},"6018311":{"post_code":"6018311","prefecture":"KYOTO FU","city":"KYOTO SHI MINAMI KU","town":"KISSHOINNISHINOSHO HIGASHIYASHIKICH","perfecture_jp":"京都府","jp_add_1":"京都市南区","jp_add_2":"吉祥院西ノ庄東屋敷町"},"6018302":{"post_code":"6018302","prefecture":"KYOTO FU","city":"KYOTO SHI MINAMI KU","town":"KISSHOINNISHINOSHO FUCHINONISHICHO","perfecture_jp":"京都府","jp_add_1":"京都市南区","jp_add_2":"吉祥院西ノ庄渕ノ西町"},"6018309":{"post_code":"6018309","prefecture":"KYOTO FU","city":"KYOTO SHI MINAMI KU","town":"KISSHOINNISHINOSHO MUKAIDACHO","perfecture_jp":"京都府","jp_add_1":"京都市南区","jp_add_2":"吉祥院西ノ庄向田町"},"6018312":{"post_code":"6018312","prefecture":"KYOTO FU","city":"KYOTO SHI MINAMI KU","town":"KISSHOINNISHINOSHO MONGUCHICHO","perfecture_jp":"京都府","jp_add_1":"京都市南区","jp_add_2":"吉祥院西ノ庄門口町"},"6018473":{"post_code":"6018473","prefecture":"KYOTO FU","city":"KYOTO SHI MINAMI KU","town":"KUJOCHO","perfecture_jp":"京都府","jp_add_1":"京都市南区","jp_add_2":"九条町"},"6018202":{"post_code":"6018202","prefecture":"KYOTO FU","city":"KYOTO SHI MINAMI KU","town":"KUZE OTSUKICHO","perfecture_jp":"京都府","jp_add_1":"京都市南区","jp_add_2":"久世大築町"},"6018206":{"post_code":"6018206","prefecture":"KYOTO FU","city":"KYOTO SHI MINAMI KU","town":"KUZE OYABUCHO","perfecture_jp":"京都府","jp_add_1":"京都市南区","jp_add_2":"久世大薮町"},"6018212":{"post_code":"6018212","prefecture":"KYOTO FU","city":"KYOTO SHI MINAMI KU","town":"KUZE KAMIKUZECHO","perfecture_jp":"京都府","jp_add_1":"京都市南区","jp_add_2":"久世上久世町"},"6018201":{"post_code":"6018201","prefecture":"KYOTO FU","city":"KYOTO SHI MINAMI KU","town":"KUZE KAWAHARACHO","perfecture_jp":"京都府","jp_add_1":"京都市南区","jp_add_2":"久世川原町"},"6018211":{"post_code":"6018211","prefecture":"KYOTO FU","city":"KYOTO SHI MINAMI KU","town":"KUZE TAKADACHO","perfecture_jp":"京都府","jp_add_1":"京都市南区","jp_add_2":"久世高田町"},"6018203":{"post_code":"6018203","prefecture":"KYOTO FU","city":"KYOTO SHI MINAMI KU","town":"KUZE TSUKIYAMACHO","perfecture_jp":"京都府","jp_add_1":"京都市南区","jp_add_2":"久世築山町"},"6018205":{"post_code":"6018205","prefecture":"KYOTO FU","city":"KYOTO SHI MINAMI KU","town":"KUZE TONOSHIROCHO","perfecture_jp":"京都府","jp_add_1":"京都市南区","jp_add_2":"久世殿城町"},"6018213":{"post_code":"6018213","prefecture":"KYOTO FU","city":"KYOTO SHI MINAMI KU","town":"KUZE NAKAKUZECHO","perfecture_jp":"京都府","jp_add_1":"京都市南区","jp_add_2":"久世中久世町"},"6018207":{"post_code":"6018207","prefecture":"KYOTO FU","city":"KYOTO SHI MINAMI KU","town":"KUZE NAKAHISACHO","perfecture_jp":"京都府","jp_add_1":"京都市南区","jp_add_2":"久世中久町"},"6018204":{"post_code":"6018204","prefecture":"KYOTO FU","city":"KYOTO SHI MINAMI KU","town":"KUZE HIGASHITSUCHIKAWACHO","perfecture_jp":"京都府","jp_add_1":"京都市南区","jp_add_2":"久世東土川町"},"6018401":{"post_code":"6018401","prefecture":"KYOTO FU","city":"KYOTO SHI MINAMI KU","town":"SHIOYACHO","perfecture_jp":"京都府","jp_add_1":"京都市南区","jp_add_2":"塩屋町"},"6018402":{"post_code":"6018402","prefecture":"KYOTO FU","city":"KYOTO SHI MINAMI KU","town":"DAIKOKUCHO","perfecture_jp":"京都府","jp_add_1":"京都市南区","jp_add_2":"大黒町"},"6018478":{"post_code":"6018478","prefecture":"KYOTO FU","city":"KYOTO SHI MINAMI KU","town":"TOJICHO","perfecture_jp":"京都府","jp_add_1":"京都市南区","jp_add_2":"東寺町"},"6018428":{"post_code":"6018428","prefecture":"KYOTO FU","city":"KYOTO SHI MINAMI KU","town":"TOJIHIGASHIMONZENCHO","perfecture_jp":"京都府","jp_add_1":"京都市南区","jp_add_2":"東寺東門前町"},"6018416":{"post_code":"6018416","prefecture":"KYOTO FU","city":"KYOTO SHI MINAMI KU","town":"NISHIKUJO IKENOCHICHO","perfecture_jp":"京都府","jp_add_1":"京都市南区","jp_add_2":"西九条池ノ内町"},"6018426":{"post_code":"6018426","prefecture":"KYOTO FU","city":"KYOTO SHI MINAMI KU","town":"NISHIKUJO INOKUMACHO","perfecture_jp":"京都府","jp_add_1":"京都市南区","jp_add_2":"西九条猪熊町"},"6018412":{"post_code":"6018412","prefecture":"KYOTO FU","city":"KYOTO SHI MINAMI KU","town":"NISHIKUJO IMMACHI","perfecture_jp":"京都府","jp_add_1":"京都市南区","jp_add_2":"西九条院町"},"6018449":{"post_code":"6018449","prefecture":"KYOTO FU","city":"KYOTO SHI MINAMI KU","town":"NISHIKUJO OKUNICHO","perfecture_jp":"京都府","jp_add_1":"京都市南区","jp_add_2":"西九条大国町"},"6018439":{"post_code":"6018439","prefecture":"KYOTO FU","city":"KYOTO SHI MINAMI KU","town":"NISHIKUJO KAIGACHO","perfecture_jp":"京都府","jp_add_1":"京都市南区","jp_add_2":"西九条開ケ町"},"6018405":{"post_code":"6018405","prefecture":"KYOTO FU","city":"KYOTO SHI MINAMI KU","town":"NISHIKUJO KAIKOJICHO","perfecture_jp":"京都府","jp_add_1":"京都市南区","jp_add_2":"西九条戒光寺町"},"6018413":{"post_code":"6018413","prefecture":"KYOTO FU","city":"KYOTO SHI MINAMI KU","town":"NISHIKUJO KASUGACHO","perfecture_jp":"京都府","jp_add_1":"京都市南区","jp_add_2":"西九条春日町"},"6018447":{"post_code":"6018447","prefecture":"KYOTO FU","city":"KYOTO SHI MINAMI KU","town":"NISHIKUJO KARATOCHO","perfecture_jp":"京都府","jp_add_1":"京都市南区","jp_add_2":"西九条唐戸町"},"6018423":{"post_code":"6018423","prefecture":"KYOTO FU","city":"KYOTO SHI MINAMI KU","town":"NISHIKUJO KARAHASHICHO","perfecture_jp":"京都府","jp_add_1":"京都市南区","jp_add_2":"西九条唐橋町"},"6018424":{"post_code":"6018424","prefecture":"KYOTO FU","city":"KYOTO SHI MINAMI KU","town":"NISHIKUJO KAWARAJOCHO","perfecture_jp":"京都府","jp_add_1":"京都市南区","jp_add_2":"西九条川原城町"},"6018411":{"post_code":"6018411","prefecture":"KYOTO FU","city":"KYOTO SHI MINAMI KU","town":"NISHIKUJO KITANOCHICHO","perfecture_jp":"京都府","jp_add_1":"京都市南区","jp_add_2":"西九条北ノ内町"},"6018442":{"post_code":"6018442","prefecture":"KYOTO FU","city":"KYOTO SHI MINAMI KU","town":"NISHIKUJO GOKODENCHO","perfecture_jp":"京都府","jp_add_1":"京都市南区","jp_add_2":"西九条御幸田町"},"6018404":{"post_code":"6018404","prefecture":"KYOTO FU","city":"KYOTO SHI MINAMI KU","town":"NISHIKUJO KODERACHO","perfecture_jp":"京都府","jp_add_1":"京都市南区","jp_add_2":"西九条小寺町"},"6018414":{"post_code":"6018414","prefecture":"KYOTO FU","city":"KYOTO SHI MINAMI KU","town":"NISHIKUJO ZAOCHO","perfecture_jp":"京都府","jp_add_1":"京都市南区","jp_add_2":"西九条蔵王町"},"6018431":{"post_code":"6018431","prefecture":"KYOTO FU","city":"KYOTO SHI MINAMI KU","town":"NISHIKUJO SHIMAMACHI","perfecture_jp":"京都府","jp_add_1":"京都市南区","jp_add_2":"西九条島町"},"6018445":{"post_code":"6018445","prefecture":"KYOTO FU","city":"KYOTO SHI MINAMI KU","town":"NISHIKUJO SUGATACHO","perfecture_jp":"京都府","jp_add_1":"京都市南区","jp_add_2":"西九条菅田町"},"6018446":{"post_code":"6018446","prefecture":"KYOTO FU","city":"KYOTO SHI MINAMI KU","town":"NISHIKUJO TAKAHATACHO","perfecture_jp":"京都府","jp_add_1":"京都市南区","jp_add_2":"西九条高畠町"},"6018407":{"post_code":"6018407","prefecture":"KYOTO FU","city":"KYOTO SHI MINAMI KU","town":"NISHIKUJO TERANOMAECHO","perfecture_jp":"京都府","jp_add_1":"京都市南区","jp_add_2":"西九条寺ノ前町"},"6018448":{"post_code":"6018448","prefecture":"KYOTO FU","city":"KYOTO SHI MINAMI KU","town":"NISHIKUJO TOYODACHO","perfecture_jp":"京都府","jp_add_1":"京都市南区","jp_add_2":"西九条豊田町"},"6018417":{"post_code":"6018417","prefecture":"KYOTO FU","city":"KYOTO SHI MINAMI KU","town":"NISHIKUJO TORIIGUCHICHO","perfecture_jp":"京都府","jp_add_1":"京都市南区","jp_add_2":"西九条鳥居口町"},"6018441":{"post_code":"6018441","prefecture":"KYOTO FU","city":"KYOTO SHI MINAMI KU","town":"NISHIKUJO NANDENCHO","perfecture_jp":"京都府","jp_add_1":"京都市南区","jp_add_2":"西九条南田町"},"6018415":{"post_code":"6018415","prefecture":"KYOTO FU","city":"KYOTO SHI MINAMI KU","town":"NISHIKUJO NISHIZAOCHO","perfecture_jp":"京都府","jp_add_1":"京都市南区","jp_add_2":"西九条西蔵王町"},"6018436":{"post_code":"6018436","prefecture":"KYOTO FU","city":"KYOTO SHI MINAMI KU","town":"NISHIKUJO NISHIYANAGINOCHICHO","perfecture_jp":"京都府","jp_add_1":"京都市南区","jp_add_2":"西九条西柳ノ内町"},"6018422":{"post_code":"6018422","prefecture":"KYOTO FU","city":"KYOTO SHI MINAMI KU","town":"NISHIKUJO HARIKOJICHO","perfecture_jp":"京都府","jp_add_1":"京都市南区","jp_add_2":"西九条針小路町"},"6018437":{"post_code":"6018437","prefecture":"KYOTO FU","city":"KYOTO SHI MINAMI KU","town":"NISHIKUJO HIEIJOCHO","perfecture_jp":"京都府","jp_add_1":"京都市南区","jp_add_2":"西九条比永城町"},"6018443":{"post_code":"6018443","prefecture":"KYOTO FU","city":"KYOTO SHI MINAMI KU","town":"NISHIKUJO HIGASHIGOKODENCHO","perfecture_jp":"京都府","jp_add_1":"京都市南区","jp_add_2":"西九条東御幸田町"},"6018432":{"post_code":"6018432","prefecture":"KYOTO FU","city":"KYOTO SHI MINAMI KU","town":"NISHIKUJO HIGASHISHIMAMACHI","perfecture_jp":"京都府","jp_add_1":"京都市南区","jp_add_2":"西九条東島町"},"6018438":{"post_code":"6018438","prefecture":"KYOTO FU","city":"KYOTO SHI MINAMI KU","town":"NISHIKUJO HIGASHIHIEIJOCHO","perfecture_jp":"京都府","jp_add_1":"京都市南区","jp_add_2":"西九条東比永城町"},"6018433":{"post_code":"6018433","prefecture":"KYOTO FU","city":"KYOTO SHI MINAMI KU","town":"NISHIKUJO HIGASHIYANAGINOCHICHO","perfecture_jp":"京都府","jp_add_1":"京都市南区","jp_add_2":"西九条東柳ノ内町"},"6018421":{"post_code":"6018421","prefecture":"KYOTO FU","city":"KYOTO SHI MINAMI KU","town":"NISHIKUJO FUJINOKICHO","perfecture_jp":"京都府","jp_add_1":"京都市南区","jp_add_2":"西九条藤ノ木町"},"6018434":{"post_code":"6018434","prefecture":"KYOTO FU","city":"KYOTO SHI MINAMI KU","town":"NISHIKUJO BUTSUGENJICHO","perfecture_jp":"京都府","jp_add_1":"京都市南区","jp_add_2":"西九条仏現寺町"},"6018425":{"post_code":"6018425","prefecture":"KYOTO FU","city":"KYOTO SHI MINAMI KU","town":"NISHIKUJO MINAMIKOJICHO","perfecture_jp":"京都府","jp_add_1":"京都市南区","jp_add_2":"西九条南小路町"},"6018444":{"post_code":"6018444","prefecture":"KYOTO FU","city":"KYOTO SHI MINAMI KU","town":"NISHIKUJO MORIMOTOCHO","perfecture_jp":"京都府","jp_add_1":"京都市南区","jp_add_2":"西九条森本町"},"6018435":{"post_code":"6018435","prefecture":"KYOTO FU","city":"KYOTO SHI MINAMI KU","town":"NISHIKUJO YANAGINOCHICHO","perfecture_jp":"京都府","jp_add_1":"京都市南区","jp_add_2":"西九条柳ノ内町"},"6018427":{"post_code":"6018427","prefecture":"KYOTO FU","city":"KYOTO SHI MINAMI KU","town":"NISHIKUJO YOKOMACHI","perfecture_jp":"京都府","jp_add_1":"京都市南区","jp_add_2":"西九条横町"},"6018475":{"post_code":"6018475","prefecture":"KYOTO FU","city":"KYOTO SHI MINAMI KU","town":"HACHIJO UCHIDACHO","perfecture_jp":"京都府","jp_add_1":"京都市南区","jp_add_2":"八条内田町"},"6018476":{"post_code":"6018476","prefecture":"KYOTO FU","city":"KYOTO SHI MINAMI KU","town":"HACHIJO TERANOCHICHO","perfecture_jp":"京都府","jp_add_1":"京都市南区","jp_add_2":"八条寺内町"},"6018472":{"post_code":"6018472","prefecture":"KYOTO FU","city":"KYOTO SHI MINAMI KU","town":"HACHIJO BOMONCHO","perfecture_jp":"京都府","jp_add_1":"京都市南区","jp_add_2":"八条坊門町"},"6018477":{"post_code":"6018477","prefecture":"KYOTO FU","city":"KYOTO SHI MINAMI KU","town":"HACHIJO MINAMOTOCHO","perfecture_jp":"京都府","jp_add_1":"京都市南区","jp_add_2":"八条源町"},"6018471":{"post_code":"6018471","prefecture":"KYOTO FU","city":"KYOTO SHI MINAMI KU","town":"HACHIJOCHO","perfecture_jp":"京都府","jp_add_1":"京都市南区","jp_add_2":"八条町"},"6018044":{"post_code":"6018044","prefecture":"KYOTO FU","city":"KYOTO SHI MINAMI KU","town":"HIGASHIKUJO AKETACHO","perfecture_jp":"京都府","jp_add_1":"京都市南区","jp_add_2":"東九条明田町"},"6018032":{"post_code":"6018032","prefecture":"KYOTO FU","city":"KYOTO SHI MINAMI KU","town":"HIGASHIKUJO ISHIDACHO","perfecture_jp":"京都府","jp_add_1":"京都市南区","jp_add_2":"東九条石田町"},"6018021":{"post_code":"6018021","prefecture":"KYOTO FU","city":"KYOTO SHI MINAMI KU","town":"HIGASHIKUJO UKABECHO","perfecture_jp":"京都府","jp_add_1":"京都市南区","jp_add_2":"東九条宇賀辺町"},"6018015":{"post_code":"6018015","prefecture":"KYOTO FU","city":"KYOTO SHI MINAMI KU","town":"HIGASHIKUJO KAMIGORYOCHO","perfecture_jp":"京都府","jp_add_1":"京都市南区","jp_add_2":"東九条上御霊町"},"6018002":{"post_code":"6018002","prefecture":"KYOTO FU","city":"KYOTO SHI MINAMI KU","town":"HIGASHIKUJO KAMITONODACHO","perfecture_jp":"京都府","jp_add_1":"京都市南区","jp_add_2":"東九条上殿田町"},"6018016":{"post_code":"6018016","prefecture":"KYOTO FU","city":"KYOTO SHI MINAMI KU","town":"HIGASHIKUJO KARASUMACHO","perfecture_jp":"京都府","jp_add_1":"京都市南区","jp_add_2":"東九条烏丸町"},"6018014":{"post_code":"6018014","prefecture":"KYOTO FU","city":"KYOTO SHI MINAMI KU","town":"HIGASHIKUJO KAWANISHICHO","perfecture_jp":"京都府","jp_add_1":"京都市南区","jp_add_2":"東九条河西町"},"6018031":{"post_code":"6018031","prefecture":"KYOTO FU","city":"KYOTO SHI MINAMI KU","town":"HIGASHIKUJO KAWABECHO","perfecture_jp":"京都府","jp_add_1":"京都市南区","jp_add_2":"東九条河辺町"},"6018017":{"post_code":"6018017","prefecture":"KYOTO FU","city":"KYOTO SHI MINAMI KU","town":"HIGASHIKUJO KITAKARASUMACHO","perfecture_jp":"京都府","jp_add_1":"京都市南区","jp_add_2":"東九条北烏丸町"},"6018007":{"post_code":"6018007","prefecture":"KYOTO FU","city":"KYOTO SHI MINAMI KU","town":"HIGASHIKUJO KITAKAWARAMACHI","perfecture_jp":"京都府","jp_add_1":"京都市南区","jp_add_2":"東九条北河原町"},"6018022":{"post_code":"6018022","prefecture":"KYOTO FU","city":"KYOTO SHI MINAMI KU","town":"HIGASHIKUJO KITAMATSUNOKICHO","perfecture_jp":"京都府","jp_add_1":"京都市南区","jp_add_2":"東九条北松ノ木町"},"6018047":{"post_code":"6018047","prefecture":"KYOTO FU","city":"KYOTO SHI MINAMI KU","town":"HIGASHIKUJO SHIMOTONODACHO","perfecture_jp":"京都府","jp_add_1":"京都市南区","jp_add_2":"東九条下殿田町"},"6018027":{"post_code":"6018027","prefecture":"KYOTO FU","city":"KYOTO SHI MINAMI KU","town":"HIGASHIKUJO NAKAGORYOCHO","perfecture_jp":"京都府","jp_add_1":"京都市南区","jp_add_2":"東九条中御霊町"},"6018048":{"post_code":"6018048","prefecture":"KYOTO FU","city":"KYOTO SHI MINAMI KU","town":"HIGASHIKUJO NAKATONODACHO","perfecture_jp":"京都府","jp_add_1":"京都市南区","jp_add_2":"東九条中殿田町"},"6018026":{"post_code":"6018026","prefecture":"KYOTO FU","city":"KYOTO SHI MINAMI KU","town":"HIGASHIKUJO NAKAFUDANOTSUJICHO","perfecture_jp":"京都府","jp_add_1":"京都市南区","jp_add_2":"東九条中札辻町"},"6018045":{"post_code":"6018045","prefecture":"KYOTO FU","city":"KYOTO SHI MINAMI KU","town":"HIGASHIKUJO NISHIAKETACHO","perfecture_jp":"京都府","jp_add_1":"京都市南区","jp_add_2":"東九条西明田町"},"6018005":{"post_code":"6018005","prefecture":"KYOTO FU","city":"KYOTO SHI MINAMI KU","town":"HIGASHIKUJO NISHIIWAMOTOCHO","perfecture_jp":"京都府","jp_add_1":"京都市南区","jp_add_2":"東九条西岩本町"},"6018037":{"post_code":"6018037","prefecture":"KYOTO FU","city":"KYOTO SHI MINAMI KU","town":"HIGASHIKUJO NISHIKAWABECHO","perfecture_jp":"京都府","jp_add_1":"京都市南区","jp_add_2":"東九条西河辺町"},"6018042":{"post_code":"6018042","prefecture":"KYOTO FU","city":"KYOTO SHI MINAMI KU","town":"HIGASHIKUJO NISHIGORYOCHO","perfecture_jp":"京都府","jp_add_1":"京都市南区","jp_add_2":"東九条西御霊町"},"6018003":{"post_code":"6018003","prefecture":"KYOTO FU","city":"KYOTO SHI MINAMI KU","town":"HIGASHIKUJO NISHISANNOCHO","perfecture_jp":"京都府","jp_add_1":"京都市南区","jp_add_2":"東九条西山王町"},"6018043":{"post_code":"6018043","prefecture":"KYOTO FU","city":"KYOTO SHI MINAMI KU","town":"HIGASHIKUJO NISHIFUDANOTSUJICHO","perfecture_jp":"京都府","jp_add_1":"京都市南区","jp_add_2":"東九条西札辻町"},"6018046":{"post_code":"6018046","prefecture":"KYOTO FU","city":"KYOTO SHI MINAMI KU","town":"HIGASHIKUJO NISHIYAMACHO","perfecture_jp":"京都府","jp_add_1":"京都市南区","jp_add_2":"東九条西山町"},"6018006":{"post_code":"6018006","prefecture":"KYOTO FU","city":"KYOTO SHI MINAMI KU","town":"HIGASHIKUJO HIGASHIIWAMOTOCHO","perfecture_jp":"京都府","jp_add_1":"京都市南区","jp_add_2":"東九条東岩本町"},"6018028":{"post_code":"6018028","prefecture":"KYOTO FU","city":"KYOTO SHI MINAMI KU","town":"HIGASHIKUJO HIGASHIGORYOCHO","perfecture_jp":"京都府","jp_add_1":"京都市南区","jp_add_2":"東九条東御霊町"},"6018004":{"post_code":"6018004","prefecture":"KYOTO FU","city":"KYOTO SHI MINAMI KU","town":"HIGASHIKUJO HIGASHISANNOCHO","perfecture_jp":"京都府","jp_add_1":"京都市南区","jp_add_2":"東九条東山王町"},"6018024":{"post_code":"6018024","prefecture":"KYOTO FU","city":"KYOTO SHI MINAMI KU","town":"HIGASHIKUJO HIGASHIFUDANOTSUJICHO","perfecture_jp":"京都府","jp_add_1":"京都市南区","jp_add_2":"東九条東札辻町"},"6018029":{"post_code":"6018029","prefecture":"KYOTO FU","city":"KYOTO SHI MINAMI KU","town":"HIGASHIKUJO HIGASHIMATSUNOKICHO","perfecture_jp":"京都府","jp_add_1":"京都市南区","jp_add_2":"東九条東松ノ木町"},"6018036":{"post_code":"6018036","prefecture":"KYOTO FU","city":"KYOTO SHI MINAMI KU","town":"HIGASHIKUJO MATSUDACHO","perfecture_jp":"京都府","jp_add_1":"京都市南区","jp_add_2":"東九条松田町"},"6018033":{"post_code":"6018033","prefecture":"KYOTO FU","city":"KYOTO SHI MINAMI KU","town":"HIGASHIKUJO MINAMIISHIDACHO","perfecture_jp":"京都府","jp_add_1":"京都市南区","jp_add_2":"東九条南石田町"},"6018012":{"post_code":"6018012","prefecture":"KYOTO FU","city":"KYOTO SHI MINAMI KU","town":"HIGASHIKUJO MINAMIIWAMOTOCHO","perfecture_jp":"京都府","jp_add_1":"京都市南区","jp_add_2":"東九条南岩本町"},"6018041":{"post_code":"6018041","prefecture":"KYOTO FU","city":"KYOTO SHI MINAMI KU","town":"HIGASHIKUJO MINAMIKARASUMACHO","perfecture_jp":"京都府","jp_add_1":"京都市南区","jp_add_2":"東九条南烏丸町"},"6018034":{"post_code":"6018034","prefecture":"KYOTO FU","city":"KYOTO SHI MINAMI KU","town":"HIGASHIKUJO MINAMIKAWABECHO","perfecture_jp":"京都府","jp_add_1":"京都市南区","jp_add_2":"東九条南河辺町"},"6018013":{"post_code":"6018013","prefecture":"KYOTO FU","city":"KYOTO SHI MINAMI KU","town":"HIGASHIKUJO MINAMIKAWARAMACHI","perfecture_jp":"京都府","jp_add_1":"京都市南区","jp_add_2":"東九条南河原町"},"6018011":{"post_code":"6018011","prefecture":"KYOTO FU","city":"KYOTO SHI MINAMI KU","town":"HIGASHIKUJO MINAMISANNOCHO","perfecture_jp":"京都府","jp_add_1":"京都市南区","jp_add_2":"東九条南山王町"},"6018035":{"post_code":"6018035","prefecture":"KYOTO FU","city":"KYOTO SHI MINAMI KU","town":"HIGASHIKUJO MINAMIMATSUDACHO","perfecture_jp":"京都府","jp_add_1":"京都市南区","jp_add_2":"東九条南松田町"},"6018023":{"post_code":"6018023","prefecture":"KYOTO FU","city":"KYOTO SHI MINAMI KU","town":"HIGASHIKUJO MINAMIMATSUNOKICHO","perfecture_jp":"京都府","jp_add_1":"京都市南区","jp_add_2":"東九条南松ノ木町"},"6018001":{"post_code":"6018001","prefecture":"KYOTO FU","city":"KYOTO SHI MINAMI KU","town":"HIGASHIKUJO MUROMACHI","perfecture_jp":"京都府","jp_add_1":"京都市南区","jp_add_2":"東九条室町"},"6018025":{"post_code":"6018025","prefecture":"KYOTO FU","city":"KYOTO SHI MINAMI KU","town":"HIGASHIKUJO YANAGINOSHITACHO","perfecture_jp":"京都府","jp_add_1":"京都市南区","jp_add_2":"東九条柳下町"},"6018403":{"post_code":"6018403","prefecture":"KYOTO FU","city":"KYOTO SHI MINAMI KU","town":"FURUOTABICHO","perfecture_jp":"京都府","jp_add_1":"京都市南区","jp_add_2":"古御旅町"},"6018474":{"post_code":"6018474","prefecture":"KYOTO FU","city":"KYOTO SHI MINAMI KU","town":"YOTSUZUKACHO","perfecture_jp":"京都府","jp_add_1":"京都市南区","jp_add_2":"四ツ塚町"},"6010541":{"post_code":"6010541","prefecture":"KYOTO FU","city":"KYOTO SHI UKYO KU","town":"KEIHOKU AKAISHICHO","perfecture_jp":"京都府","jp_add_1":"京都市右京区","jp_add_2":"京北赤石町"},"6010273":{"post_code":"6010273","prefecture":"KYOTO FU","city":"KYOTO SHI UKYO KU","town":"KEIHOKU AKESHICHO","perfecture_jp":"京都府","jp_add_1":"京都市右京区","jp_add_2":"京北明石町"},"6010274":{"post_code":"6010274","prefecture":"KYOTO FU","city":"KYOTO SHI UKYO KU","town":"KEIHOKU AZAECHO","perfecture_jp":"京都府","jp_add_1":"京都市右京区","jp_add_2":"京北浅江町"},"6010535":{"post_code":"6010535","prefecture":"KYOTO FU","city":"KYOTO SHI UKYO KU","town":"KEIHOKU IZAKICHO","perfecture_jp":"京都府","jp_add_1":"京都市右京区","jp_add_2":"京北井崎町"},"6010313":{"post_code":"6010313","prefecture":"KYOTO FU","city":"KYOTO SHI UKYO KU","town":"KEIHOKU IDOCHO","perfecture_jp":"京都府","jp_add_1":"京都市右京区","jp_add_2":"京北井戸町"},"6010275":{"post_code":"6010275","prefecture":"KYOTO FU","city":"KYOTO SHI UKYO KU","town":"KEIHOKU UNOCHO","perfecture_jp":"京都府","jp_add_1":"京都市右京区","jp_add_2":"京北宇野町"},"6010277":{"post_code":"6010277","prefecture":"KYOTO FU","city":"KYOTO SHI UKYO KU","town":"KEIHOKU URUSHITANICHO","perfecture_jp":"京都府","jp_add_1":"京都市右京区","jp_add_2":"京北漆谷町"},"6010314":{"post_code":"6010314","prefecture":"KYOTO FU","city":"KYOTO SHI UKYO KU","town":"KEIHOKU ONOCHO","perfecture_jp":"京都府","jp_add_1":"京都市右京区","jp_add_2":"京北大野町"},"6010311":{"post_code":"6010311","prefecture":"KYOTO FU","city":"KYOTO SHI UKYO KU","town":"KEIHOKU OSHIOCHO","perfecture_jp":"京都府","jp_add_1":"京都市右京区","jp_add_2":"京北小塩町"},"6010261":{"post_code":"6010261","prefecture":"KYOTO FU","city":"KYOTO SHI UKYO KU","town":"KEIHOKU KASHIWARACHO","perfecture_jp":"京都府","jp_add_1":"京都市右京区","jp_add_2":"京北柏原町"},"6010401":{"post_code":"6010401","prefecture":"KYOTO FU","city":"KYOTO SHI UKYO KU","town":"KEIHOKU KATANAMICHO","perfecture_jp":"京都府","jp_add_1":"京都市右京区","jp_add_2":"京北片波町"},"6010402":{"post_code":"6010402","prefecture":"KYOTO FU","city":"KYOTO SHI UKYO KU","town":"KEIHOKU KAMIKURODACHO","perfecture_jp":"京都府","jp_add_1":"京都市右京区","jp_add_2":"京北上黒田町"},"6010532":{"post_code":"6010532","prefecture":"KYOTO FU","city":"KYOTO SHI UKYO KU","town":"KEIHOKU KAMINAKACHO","perfecture_jp":"京都府","jp_add_1":"京都市右京区","jp_add_2":"京北上中町"},"6010531":{"post_code":"6010531","prefecture":"KYOTO FU","city":"KYOTO SHI UKYO KU","town":"KEIHOKU KAMIYUGECHO","perfecture_jp":"京都府","jp_add_1":"京都市右京区","jp_add_2":"京北上弓削町"},"6010271":{"post_code":"6010271","prefecture":"KYOTO FU","city":"KYOTO SHI UKYO KU","town":"KEIHOKU KUMATACHO","perfecture_jp":"京都府","jp_add_1":"京都市右京区","jp_add_2":"京北熊田町"},"6010252":{"post_code":"6010252","prefecture":"KYOTO FU","city":"KYOTO SHI UKYO KU","town":"KEIHOKU GOHOMMATSUCHO","perfecture_jp":"京都府","jp_add_1":"京都市右京区","jp_add_2":"京北五本松町"},"6010536":{"post_code":"6010536","prefecture":"KYOTO FU","city":"KYOTO SHI UKYO KU","town":"KEIHOKU SHIOTACHO","perfecture_jp":"京都府","jp_add_1":"京都市右京区","jp_add_2":"京北塩田町"},"6010543":{"post_code":"6010543","prefecture":"KYOTO FU","city":"KYOTO SHI UKYO KU","town":"KEIHOKU SHITSUTANCHO","perfecture_jp":"京都府","jp_add_1":"京都市右京区","jp_add_2":"京北室谷町"},"6010266":{"post_code":"6010266","prefecture":"KYOTO FU","city":"KYOTO SHI UKYO KU","town":"KEIHOKU SHIMOTSUCHO","perfecture_jp":"京都府","jp_add_1":"京都市右京区","jp_add_2":"京北下宇津町"},"6010272":{"post_code":"6010272","prefecture":"KYOTO FU","city":"KYOTO SHI UKYO KU","town":"KEIHOKU SHIMOKUMATACHO","perfecture_jp":"京都府","jp_add_1":"京都市右京区","jp_add_2":"京北下熊田町"},"6010405":{"post_code":"6010405","prefecture":"KYOTO FU","city":"KYOTO SHI UKYO KU","town":"KEIHOKU SHIMOKURODACHO","perfecture_jp":"京都府","jp_add_1":"京都市右京区","jp_add_2":"京北下黒田町"},"6010324":{"post_code":"6010324","prefecture":"KYOTO FU","city":"KYOTO SHI UKYO KU","town":"KEIHOKU SHIMOCHO","perfecture_jp":"京都府","jp_add_1":"京都市右京区","jp_add_2":"京北下町"},"6010533":{"post_code":"6010533","prefecture":"KYOTO FU","city":"KYOTO SHI UKYO KU","town":"KEIHOKU SHIMONAKACHO","perfecture_jp":"京都府","jp_add_1":"京都市右京区","jp_add_2":"京北下中町"},"6010534":{"post_code":"6010534","prefecture":"KYOTO FU","city":"KYOTO SHI UKYO KU","town":"KEIHOKU SHIMOYUGECHO","perfecture_jp":"京都府","jp_add_1":"京都市右京区","jp_add_2":"京北下弓削町"},"6010251":{"post_code":"6010251","prefecture":"KYOTO FU","city":"KYOTO SHI UKYO KU","town":"KEIHOKU SHUZANCHO","perfecture_jp":"京都府","jp_add_1":"京都市右京区","jp_add_2":"京北周山町"},"6010404":{"post_code":"6010404","prefecture":"KYOTO FU","city":"KYOTO SHI UKYO KU","town":"KEIHOKU SERYOCHO","perfecture_jp":"京都府","jp_add_1":"京都市右京区","jp_add_2":"京北芹生町"},"6010542":{"post_code":"6010542","prefecture":"KYOTO FU","city":"KYOTO SHI UKYO KU","town":"KEIHOKU TANUKICHO","perfecture_jp":"京都府","jp_add_1":"京都市右京区","jp_add_2":"京北田貫町"},"6010265":{"post_code":"6010265","prefecture":"KYOTO FU","city":"KYOTO SHI UKYO KU","town":"KEIHOKU CHUJICHO","perfecture_jp":"京都府","jp_add_1":"京都市右京区","jp_add_2":"京北中地町"},"6010322":{"post_code":"6010322","prefecture":"KYOTO FU","city":"KYOTO SHI UKYO KU","town":"KEIHOKU TSUJICHO","perfecture_jp":"京都府","jp_add_1":"京都市右京区","jp_add_2":"京北辻町"},"6010321":{"post_code":"6010321","prefecture":"KYOTO FU","city":"KYOTO SHI UKYO KU","town":"KEIHOKU TOCHO","perfecture_jp":"京都府","jp_add_1":"京都市右京区","jp_add_2":"京北塔町"},"6010264":{"post_code":"6010264","prefecture":"KYOTO FU","city":"KYOTO SHI UKYO KU","town":"KEIHOKU TOCHIMOTOCHO","perfecture_jp":"京都府","jp_add_1":"京都市右京区","jp_add_2":"京北栃本町"},"6010323":{"post_code":"6010323","prefecture":"KYOTO FU","city":"KYOTO SHI UKYO KU","town":"KEIHOKU TORIICHO","perfecture_jp":"京都府","jp_add_1":"京都市右京区","jp_add_2":"京北鳥居町"},"6010315":{"post_code":"6010315","prefecture":"KYOTO FU","city":"KYOTO SHI UKYO KU","town":"KEIHOKU NAKAECHO","perfecture_jp":"京都府","jp_add_1":"京都市右京区","jp_add_2":"京北中江町"},"6010276":{"post_code":"6010276","prefecture":"KYOTO FU","city":"KYOTO SHI UKYO KU","town":"KEIHOKU NISHICHO","perfecture_jp":"京都府","jp_add_1":"京都市右京区","jp_add_2":"京北西町"},"6010403":{"post_code":"6010403","prefecture":"KYOTO FU","city":"KYOTO SHI UKYO KU","town":"KEIHOKU HAIYACHO","perfecture_jp":"京都府","jp_add_1":"京都市右京区","jp_add_2":"京北灰屋町"},"6010312":{"post_code":"6010312","prefecture":"KYOTO FU","city":"KYOTO SHI UKYO KU","town":"KEIHOKU HATSUKAWACHO","perfecture_jp":"京都府","jp_add_1":"京都市右京区","jp_add_2":"京北初川町"},"6010316":{"post_code":"6010316","prefecture":"KYOTO FU","city":"KYOTO SHI UKYO KU","town":"KEIHOKU HIGAECHO","perfecture_jp":"京都府","jp_add_1":"京都市右京区","jp_add_2":"京北比賀江町"},"6010262":{"post_code":"6010262","prefecture":"KYOTO FU","city":"KYOTO SHI UKYO KU","town":"KEIHOKU HOSONOCHO","perfecture_jp":"京都府","jp_add_1":"京都市右京区","jp_add_2":"京北細野町"},"6010406":{"post_code":"6010406","prefecture":"KYOTO FU","city":"KYOTO SHI UKYO KU","town":"KEIHOKU MIYACHO","perfecture_jp":"京都府","jp_add_1":"京都市右京区","jp_add_2":"京北宮町"},"6010278":{"post_code":"6010278","prefecture":"KYOTO FU","city":"KYOTO SHI UKYO KU","town":"KEIHOKU YASHIRONAKACHO","perfecture_jp":"京都府","jp_add_1":"京都市右京区","jp_add_2":"京北矢代中町"},"6010263":{"post_code":"6010263","prefecture":"KYOTO FU","city":"KYOTO SHI UKYO KU","town":"KEIHOKU YUZUKICHO","perfecture_jp":"京都府","jp_add_1":"京都市右京区","jp_add_2":"京北弓槻町"},"6011432":{"post_code":"6011432","prefecture":"KYOTO FU","city":"KYOTO SHI FUSHIMI KU","town":"ISHIDA UCHISATOCHO","perfecture_jp":"京都府","jp_add_1":"京都市伏見区","jp_add_2":"石田内里町"},"6011431":{"post_code":"6011431","prefecture":"KYOTO FU","city":"KYOTO SHI FUSHIMI KU","town":"ISHIDA OUKECHO","perfecture_jp":"京都府","jp_add_1":"京都市伏見区","jp_add_2":"石田大受町"},"6011433":{"post_code":"6011433","prefecture":"KYOTO FU","city":"KYOTO SHI FUSHIMI KU","town":"ISHIDA OYAMACHO","perfecture_jp":"京都府","jp_add_1":"京都市伏見区","jp_add_2":"石田大山町"},"6011438":{"post_code":"6011438","prefecture":"KYOTO FU","city":"KYOTO SHI FUSHIMI KU","town":"ISHIDA KAWAMUKAI","perfecture_jp":"京都府","jp_add_1":"京都市伏見区","jp_add_2":"石田川向"},"6011435":{"post_code":"6011435","prefecture":"KYOTO FU","city":"KYOTO SHI FUSHIMI KU","town":"ISHIDA SAKURAGI","perfecture_jp":"京都府","jp_add_1":"京都市伏見区","jp_add_2":"石田桜木"},"6011436":{"post_code":"6011436","prefecture":"KYOTO FU","city":"KYOTO SHI FUSHIMI KU","town":"ISHIDA NISHINOTSUBO","perfecture_jp":"京都府","jp_add_1":"京都市伏見区","jp_add_2":"石田西ノ坪"},"6011437":{"post_code":"6011437","prefecture":"KYOTO FU","city":"KYOTO SHI FUSHIMI KU","town":"ISHIDA MORINISHI","perfecture_jp":"京都府","jp_add_1":"京都市伏見区","jp_add_2":"石田森西"},"6011439":{"post_code":"6011439","prefecture":"KYOTO FU","city":"KYOTO SHI FUSHIMI KU","town":"ISHIDA MORIHIGASHICHO","perfecture_jp":"京都府","jp_add_1":"京都市伏見区","jp_add_2":"石田森東町"},"6011434":{"post_code":"6011434","prefecture":"KYOTO FU","city":"KYOTO SHI FUSHIMI KU","town":"ISHIDA MORIMINAMICHO","perfecture_jp":"京都府","jp_add_1":"京都市伏見区","jp_add_2":"石田森南町"},"6011464":{"post_code":"6011464","prefecture":"KYOTO FU","city":"KYOTO SHI FUSHIMI KU","town":"OGURISU ISHIKAWACHO","perfecture_jp":"京都府","jp_add_1":"京都市伏見区","jp_add_2":"小栗栖石川町"},"6011443":{"post_code":"6011443","prefecture":"KYOTO FU","city":"KYOTO SHI FUSHIMI KU","town":"OGURISU IWAGAFUCHICHO","perfecture_jp":"京都府","jp_add_1":"京都市伏見区","jp_add_2":"小栗栖岩ケ渕町"},"6011444":{"post_code":"6011444","prefecture":"KYOTO FU","city":"KYOTO SHI FUSHIMI KU","town":"OGURISU USHIGAFUCHICHO","perfecture_jp":"京都府","jp_add_1":"京都市伏見区","jp_add_2":"小栗栖牛ケ渕町"},"6011446":{"post_code":"6011446","prefecture":"KYOTO FU","city":"KYOTO SHI FUSHIMI KU","town":"OGURISU KITAGOTOCHO","perfecture_jp":"京都府","jp_add_1":"京都市伏見区","jp_add_2":"小栗栖北後藤町"},"6011441":{"post_code":"6011441","prefecture":"KYOTO FU","city":"KYOTO SHI FUSHIMI KU","town":"OGURISU KITADANICHO","perfecture_jp":"京都府","jp_add_1":"京都市伏見区","jp_add_2":"小栗栖北谷町"},"6011455":{"post_code":"6011455","prefecture":"KYOTO FU","city":"KYOTO SHI FUSHIMI KU","town":"OGURISU KOSAKACHO","perfecture_jp":"京都府","jp_add_1":"京都市伏見区","jp_add_2":"小栗栖小阪町"},"6011463":{"post_code":"6011463","prefecture":"KYOTO FU","city":"KYOTO SHI FUSHIMI KU","town":"OGURISU NAKAYAMADACHO","perfecture_jp":"京都府","jp_add_1":"京都市伏見区","jp_add_2":"小栗栖中山田町"},"6011453":{"post_code":"6011453","prefecture":"KYOTO FU","city":"KYOTO SHI FUSHIMI KU","town":"OGURISU NISHIDANICHO","perfecture_jp":"京都府","jp_add_1":"京都市伏見区","jp_add_2":"小栗栖西谷町"},"6011452":{"post_code":"6011452","prefecture":"KYOTO FU","city":"KYOTO SHI FUSHIMI KU","town":"OGURISU NISHINOMINE","perfecture_jp":"京都府","jp_add_1":"京都市伏見区","jp_add_2":"小栗栖西ノ峯"},"6011451":{"post_code":"6011451","prefecture":"KYOTO FU","city":"KYOTO SHI FUSHIMI KU","town":"OGURISU HACHIFUSE","perfecture_jp":"京都府","jp_add_1":"京都市伏見区","jp_add_2":"小栗栖鉢伏"},"6011442":{"post_code":"6011442","prefecture":"KYOTO FU","city":"KYOTO SHI FUSHIMI KU","town":"OGURISU MARUYAMA","perfecture_jp":"京都府","jp_add_1":"京都市伏見区","jp_add_2":"小栗栖丸山"},"6011456":{"post_code":"6011456","prefecture":"KYOTO FU","city":"KYOTO SHI FUSHIMI KU","town":"OGURISU MINAMIGOTOCHO","perfecture_jp":"京都府","jp_add_1":"京都市伏見区","jp_add_2":"小栗栖南後藤町"},"6011461":{"post_code":"6011461","prefecture":"KYOTO FU","city":"KYOTO SHI FUSHIMI KU","town":"OGURISU MIYAYAMA","perfecture_jp":"京都府","jp_add_1":"京都市伏見区","jp_add_2":"小栗栖宮山"},"6011445":{"post_code":"6011445","prefecture":"KYOTO FU","city":"KYOTO SHI FUSHIMI KU","town":"OGURISU MORIGAFUCHICHO","perfecture_jp":"京都府","jp_add_1":"京都市伏見区","jp_add_2":"小栗栖森ケ渕町"},"6011462":{"post_code":"6011462","prefecture":"KYOTO FU","city":"KYOTO SHI FUSHIMI KU","town":"OGURISU MORIMOTOCHO","perfecture_jp":"京都府","jp_add_1":"京都市伏見区","jp_add_2":"小栗栖森本町"},"6011454":{"post_code":"6011454","prefecture":"KYOTO FU","city":"KYOTO SHI FUSHIMI KU","town":"OGURISU YAMAGUCHICHO","perfecture_jp":"京都府","jp_add_1":"京都市伏見区","jp_add_2":"小栗栖山口町"},"6011347":{"post_code":"6011347","prefecture":"KYOTO FU","city":"KYOTO SHI FUSHIMI KU","town":"DAIGO AIBACHO","perfecture_jp":"京都府","jp_add_1":"京都市伏見区","jp_add_2":"醍醐合場町"},"6011323":{"post_code":"6011323","prefecture":"KYOTO FU","city":"KYOTO SHI FUSHIMI KU","town":"DAIGO AKAMAMINAMIURACHO","perfecture_jp":"京都府","jp_add_1":"京都市伏見区","jp_add_2":"醍醐赤間南裏町"},"6011362":{"post_code":"6011362","prefecture":"KYOTO FU","city":"KYOTO SHI FUSHIMI KU","town":"DAIGO IKEDACHO","perfecture_jp":"京都府","jp_add_1":"京都市伏見区","jp_add_2":"醍醐池田町"},"6011351":{"post_code":"6011351","prefecture":"KYOTO FU","city":"KYOTO SHI FUSHIMI KU","town":"DAIGO IZUMICHO","perfecture_jp":"京都府","jp_add_1":"京都市伏見区","jp_add_2":"醍醐和泉町"},"6011335":{"post_code":"6011335","prefecture":"KYOTO FU","city":"KYOTO SHI FUSHIMI KU","town":"DAIGO ICHIGONJIURACHO","perfecture_jp":"京都府","jp_add_1":"京都市伏見区","jp_add_2":"醍醐一言寺裏町"},"6011387":{"post_code":"6011387","prefecture":"KYOTO FU","city":"KYOTO SHI FUSHIMI KU","town":"DAIGO NINOKIRICHO","perfecture_jp":"京都府","jp_add_1":"京都市伏見区","jp_add_2":"醍醐一ノ切町"},"6011371":{"post_code":"6011371","prefecture":"KYOTO FU","city":"KYOTO SHI FUSHIMI KU","town":"DAIGO UENOYAMACHO","perfecture_jp":"京都府","jp_add_1":"京都市伏見区","jp_add_2":"醍醐上ノ山町"},"6011302":{"post_code":"6011302","prefecture":"KYOTO FU","city":"KYOTO SHI FUSHIMI KU","town":"DAIGO UCHIGAIDO","perfecture_jp":"京都府","jp_add_1":"京都市伏見区","jp_add_2":"醍醐内ケ井戸"},"6011364":{"post_code":"6011364","prefecture":"KYOTO FU","city":"KYOTO SHI FUSHIMI KU","town":"DAIGO ENASHICHO","perfecture_jp":"京都府","jp_add_1":"京都市伏見区","jp_add_2":"醍醐江奈志町"},"6011366":{"post_code":"6011366","prefecture":"KYOTO FU","city":"KYOTO SHI FUSHIMI KU","town":"DAIGO OKAMAECHO","perfecture_jp":"京都府","jp_add_1":"京都市伏見区","jp_add_2":"醍醐大構町"},"6011311":{"post_code":"6011311","prefecture":"KYOTO FU","city":"KYOTO SHI FUSHIMI KU","town":"DAIGO OTAKACHO","perfecture_jp":"京都府","jp_add_1":"京都市伏見区","jp_add_2":"醍醐大高町"},"6011303":{"post_code":"6011303","prefecture":"KYOTO FU","city":"KYOTO SHI FUSHIMI KU","town":"DAIGO OHATACHO","perfecture_jp":"京都府","jp_add_1":"京都市伏見区","jp_add_2":"醍醐大畑町"},"6011338":{"post_code":"6011338","prefecture":"KYOTO FU","city":"KYOTO SHI FUSHIMI KU","town":"DAIGO OCHIBOCHO","perfecture_jp":"京都府","jp_add_1":"京都市伏見区","jp_add_2":"醍醐落保町"},"6011376":{"post_code":"6011376","prefecture":"KYOTO FU","city":"KYOTO SHI FUSHIMI KU","town":"DAIGO ORIDOCHO","perfecture_jp":"京都府","jp_add_1":"京都市伏見区","jp_add_2":"醍醐折戸町"},"6011363":{"post_code":"6011363","prefecture":"KYOTO FU","city":"KYOTO SHI FUSHIMI KU","town":"DAIGO KAGIOCHO","perfecture_jp":"京都府","jp_add_1":"京都市伏見区","jp_add_2":"醍醐鍵尾町"},"6011305":{"post_code":"6011305","prefecture":"KYOTO FU","city":"KYOTO SHI FUSHIMI KU","town":"DAIGO KAKIHARACHO","perfecture_jp":"京都府","jp_add_1":"京都市伏見区","jp_add_2":"醍醐柿原町"},"6011336":{"post_code":"6011336","prefecture":"KYOTO FU","city":"KYOTO SHI FUSHIMI KU","town":"DAIGO KASHIWAMORICHO","perfecture_jp":"京都府","jp_add_1":"京都市伏見区","jp_add_2":"醍醐柏森町"},"6011312":{"post_code":"6011312","prefecture":"KYOTO FU","city":"KYOTO SHI FUSHIMI KU","town":"DAIGO KATAYAMACHO","perfecture_jp":"京都府","jp_add_1":"京都市伏見区","jp_add_2":"醍醐片山町"},"6011354":{"post_code":"6011354","prefecture":"KYOTO FU","city":"KYOTO SHI FUSHIMI KU","town":"DAIGO KAMAEGUCHICHO","perfecture_jp":"京都府","jp_add_1":"京都市伏見区","jp_add_2":"醍醐構口町"},"6011333":{"post_code":"6011333","prefecture":"KYOTO FU","city":"KYOTO SHI FUSHIMI KU","town":"DAIGO KAMIHAYAMACHO","perfecture_jp":"京都府","jp_add_1":"京都市伏見区","jp_add_2":"醍醐上端山町"},"6011342":{"post_code":"6011342","prefecture":"KYOTO FU","city":"KYOTO SHI FUSHIMI KU","town":"DAIGO KAMIYAMAGUCHICHO","perfecture_jp":"京都府","jp_add_1":"京都市伏見区","jp_add_2":"醍醐上山口町"},"6011301":{"post_code":"6011301","prefecture":"KYOTO FU","city":"KYOTO SHI FUSHIMI KU","town":"DAIGO KAMIYAMADA","perfecture_jp":"京都府","jp_add_1":"京都市伏見区","jp_add_2":"醍醐上山田"},"6011315":{"post_code":"6011315","prefecture":"KYOTO FU","city":"KYOTO SHI FUSHIMI KU","town":"DAIGO KARASUBASHICHO","perfecture_jp":"京都府","jp_add_1":"京都市伏見区","jp_add_2":"醍醐烏橋町"},"6011324":{"post_code":"6011324","prefecture":"KYOTO FU","city":"KYOTO SHI FUSHIMI KU","town":"DAIGO GARANCHO","perfecture_jp":"京都府","jp_add_1":"京都市伏見区","jp_add_2":"醍醐伽藍町"},"6011378":{"post_code":"6011378","prefecture":"KYOTO FU","city":"KYOTO SHI FUSHIMI KU","town":"DAIGO KAWAKUBOCHO","perfecture_jp":"京都府","jp_add_1":"京都市伏見区","jp_add_2":"醍醐川久保町"},"6011341":{"post_code":"6011341","prefecture":"KYOTO FU","city":"KYOTO SHI FUSHIMI KU","town":"DAIGO KISHINOECHO","perfecture_jp":"京都府","jp_add_1":"京都市伏見区","jp_add_2":"醍醐岸ノ上町"},"6011322":{"post_code":"6011322","prefecture":"KYOTO FU","city":"KYOTO SHI FUSHIMI KU","town":"DAIGO KITAGARANCHO","perfecture_jp":"京都府","jp_add_1":"京都市伏見区","jp_add_2":"醍醐北伽藍町"},"6011381":{"post_code":"6011381","prefecture":"KYOTO FU","city":"KYOTO SHI FUSHIMI KU","town":"DAIGO KITADANI","perfecture_jp":"京都府","jp_add_1":"京都市伏見区","jp_add_2":"醍醐北谷"},"6011377":{"post_code":"6011377","prefecture":"KYOTO FU","city":"KYOTO SHI FUSHIMI KU","town":"DAIGO KITANISHIURACHO","perfecture_jp":"京都府","jp_add_1":"京都市伏見区","jp_add_2":"醍醐北西裏町"},"6011321":{"post_code":"6011321","prefecture":"KYOTO FU","city":"KYOTO SHI FUSHIMI KU","town":"DAIGO KITAHAYAMA","perfecture_jp":"京都府","jp_add_1":"京都市伏見区","jp_add_2":"醍醐北端山"},"6011317":{"post_code":"6011317","prefecture":"KYOTO FU","city":"KYOTO SHI FUSHIMI KU","town":"DAIGO KYOMICHICHO","perfecture_jp":"京都府","jp_add_1":"京都市伏見区","jp_add_2":"醍醐京道町"},"6011327":{"post_code":"6011327","prefecture":"KYOTO FU","city":"KYOTO SHI FUSHIMI KU","town":"DAIGO KIREDOCHO","perfecture_jp":"京都府","jp_add_1":"京都市伏見区","jp_add_2":"醍醐切レ戸町"},"6011308":{"post_code":"6011308","prefecture":"KYOTO FU","city":"KYOTO SHI FUSHIMI KU","town":"DAIGO GOSHONOCHI","perfecture_jp":"京都府","jp_add_1":"京都市伏見区","jp_add_2":"醍醐御所ノ内"},"6011361":{"post_code":"6011361","prefecture":"KYOTO FU","city":"KYOTO SHI FUSHIMI KU","town":"DAIGO GORYOGASHITACHO","perfecture_jp":"京都府","jp_add_1":"京都市伏見区","jp_add_2":"醍醐御霊ケ下町"},"6011314":{"post_code":"6011314","prefecture":"KYOTO FU","city":"KYOTO SHI FUSHIMI KU","town":"DAIGO GORYONISHIURACHO","perfecture_jp":"京都府","jp_add_1":"京都市伏見区","jp_add_2":"醍醐御陵西裏町"},"6011313":{"post_code":"6011313","prefecture":"KYOTO FU","city":"KYOTO SHI FUSHIMI KU","town":"DAIGO GORYOHIGASHIURACHO","perfecture_jp":"京都府","jp_add_1":"京都市伏見区","jp_add_2":"醍醐御陵東裏町"},"6011332":{"post_code":"6011332","prefecture":"KYOTO FU","city":"KYOTO SHI FUSHIMI KU","town":"DAIGO SHIMOHAYAMACHO","perfecture_jp":"京都府","jp_add_1":"京都市伏見区","jp_add_2":"醍醐下端山町"},"6011343":{"post_code":"6011343","prefecture":"KYOTO FU","city":"KYOTO SHI FUSHIMI KU","town":"DAIGO SHIMOYAMAGUCHICHO","perfecture_jp":"京都府","jp_add_1":"京都市伏見区","jp_add_2":"醍醐下山口町"},"6011334":{"post_code":"6011334","prefecture":"KYOTO FU","city":"KYOTO SHI FUSHIMI KU","town":"DAIGO SHOKUCHICHO","perfecture_jp":"京都府","jp_add_1":"京都市伏見区","jp_add_2":"醍醐勝口町"},"6011365":{"post_code":"6011365","prefecture":"KYOTO FU","city":"KYOTO SHI FUSHIMI KU","town":"DAIGO SHINKAI","perfecture_jp":"京都府","jp_add_1":"京都市伏見区","jp_add_2":"醍醐新開"},"6011326":{"post_code":"6011326","prefecture":"KYOTO FU","city":"KYOTO SHI FUSHIMI KU","town":"DAIGO SHIMMACHIURAMACHI","perfecture_jp":"京都府","jp_add_1":"京都市伏見区","jp_add_2":"醍醐新町裏町"},"6011345":{"post_code":"6011345","prefecture":"KYOTO FU","city":"KYOTO SHI FUSHIMI KU","town":"DAIGO SOTOYAMAKAIDOCHO","perfecture_jp":"京都府","jp_add_1":"京都市伏見区","jp_add_2":"醍醐外山街道町"},"6011383":{"post_code":"6011383","prefecture":"KYOTO FU","city":"KYOTO SHI FUSHIMI KU","town":"DAIGO DAIGOYAMA","perfecture_jp":"京都府","jp_add_1":"京都市伏見区","jp_add_2":"醍醐醍醐山"},"6011384":{"post_code":"6011384","prefecture":"KYOTO FU","city":"KYOTO SHI FUSHIMI KU","town":"DAIGO TAKADA","perfecture_jp":"京都府","jp_add_1":"京都市伏見区","jp_add_2":"醍醐高田"},"6011375":{"post_code":"6011375","prefecture":"KYOTO FU","city":"KYOTO SHI FUSHIMI KU","town":"DAIGO TAKAHATACHO","perfecture_jp":"京都府","jp_add_1":"京都市伏見区","jp_add_2":"醍醐高畑町"},"6011355":{"post_code":"6011355","prefecture":"KYOTO FU","city":"KYOTO SHI FUSHIMI KU","town":"DAIGO TAKONDACHO","perfecture_jp":"京都府","jp_add_1":"京都市伏見区","jp_add_2":"醍醐多近田町"},"6011344":{"post_code":"6011344","prefecture":"KYOTO FU","city":"KYOTO SHI FUSHIMI KU","town":"DAIGO TATSUMICHO","perfecture_jp":"京都府","jp_add_1":"京都市伏見区","jp_add_2":"醍醐辰巳町"},"6011386":{"post_code":"6011386","prefecture":"KYOTO FU","city":"KYOTO SHI FUSHIMI KU","town":"DAIGO DARATANI","perfecture_jp":"京都府","jp_add_1":"京都市伏見区","jp_add_2":"醍醐陀羅谷"},"6011357":{"post_code":"6011357","prefecture":"KYOTO FU","city":"KYOTO SHI FUSHIMI KU","town":"DAIGO DODOMBOCHO","perfecture_jp":"京都府","jp_add_1":"京都市伏見区","jp_add_2":"醍醐僧尊坊町"},"6011373":{"post_code":"6011373","prefecture":"KYOTO FU","city":"KYOTO SHI FUSHIMI KU","town":"DAIGO NAKAYAMACHO","perfecture_jp":"京都府","jp_add_1":"京都市伏見区","jp_add_2":"醍醐中山町"},"6011374":{"post_code":"6011374","prefecture":"KYOTO FU","city":"KYOTO SHI FUSHIMI KU","town":"DAIGO NISHIOJICHO","perfecture_jp":"京都府","jp_add_1":"京都市伏見区","jp_add_2":"醍醐西大路町"},"6011307":{"post_code":"6011307","prefecture":"KYOTO FU","city":"KYOTO SHI FUSHIMI KU","town":"DAIGO HAZAMA","perfecture_jp":"京都府","jp_add_1":"京都市伏見区","jp_add_2":"醍醐狭間"},"6011346":{"post_code":"6011346","prefecture":"KYOTO FU","city":"KYOTO SHI FUSHIMI KU","town":"DAIGO HIGASHIAIBACHO","perfecture_jp":"京都府","jp_add_1":"京都市伏見区","jp_add_2":"醍醐東合場町"},"6011325":{"post_code":"6011325","prefecture":"KYOTO FU","city":"KYOTO SHI FUSHIMI KU","town":"DAIGO HIGASHIOJICHO","perfecture_jp":"京都府","jp_add_1":"京都市伏見区","jp_add_2":"醍醐東大路町"},"6011372":{"post_code":"6011372","prefecture":"KYOTO FU","city":"KYOTO SHI FUSHIMI KU","town":"DAIGO HIRAMATSUCHO","perfecture_jp":"京都府","jp_add_1":"京都市伏見区","jp_add_2":"醍醐平松町"},"6011316":{"post_code":"6011316","prefecture":"KYOTO FU","city":"KYOTO SHI FUSHIMI KU","town":"DAIGO FURUMICHICHO","perfecture_jp":"京都府","jp_add_1":"京都市伏見区","jp_add_2":"醍醐古道町"},"6011337":{"post_code":"6011337","prefecture":"KYOTO FU","city":"KYOTO SHI FUSHIMI KU","town":"DAIGO MAKINOCHICHO","perfecture_jp":"京都府","jp_add_1":"京都市伏見区","jp_add_2":"醍醐槇ノ内町"},"6011318":{"post_code":"6011318","prefecture":"KYOTO FU","city":"KYOTO SHI FUSHIMI KU","town":"DAIGO MAWARIDOCHO","perfecture_jp":"京都府","jp_add_1":"京都市伏見区","jp_add_2":"醍醐廻り戸町"},"6011353":{"post_code":"6011353","prefecture":"KYOTO FU","city":"KYOTO SHI FUSHIMI KU","town":"DAIGO MISONOCHO","perfecture_jp":"京都府","jp_add_1":"京都市伏見区","jp_add_2":"醍醐御園尾町"},"6011352":{"post_code":"6011352","prefecture":"KYOTO FU","city":"KYOTO SHI FUSHIMI KU","town":"DAIGO MINAMISATOCHO","perfecture_jp":"京都府","jp_add_1":"京都市伏見区","jp_add_2":"醍醐南里町"},"6011382":{"post_code":"6011382","prefecture":"KYOTO FU","city":"KYOTO SHI FUSHIMI KU","town":"DAIGO MINAMIDANI","perfecture_jp":"京都府","jp_add_1":"京都市伏見区","jp_add_2":"醍醐南谷"},"6011356":{"post_code":"6011356","prefecture":"KYOTO FU","city":"KYOTO SHI FUSHIMI KU","town":"DAIGO MINAMINISHIURACHO","perfecture_jp":"京都府","jp_add_1":"京都市伏見区","jp_add_2":"醍醐南西裏町"},"6011331":{"post_code":"6011331","prefecture":"KYOTO FU","city":"KYOTO SHI FUSHIMI KU","town":"DAIGO MINAMIHAYAMACHO","perfecture_jp":"京都府","jp_add_1":"京都市伏見区","jp_add_2":"醍醐南端山町"},"6011385":{"post_code":"6011385","prefecture":"KYOTO FU","city":"KYOTO SHI FUSHIMI KU","town":"DAIGO MIYANOSHITACHO","perfecture_jp":"京都府","jp_add_1":"京都市伏見区","jp_add_2":"醍醐宮ノ下町"},"6011304":{"post_code":"6011304","prefecture":"KYOTO FU","city":"KYOTO SHI FUSHIMI KU","town":"DAIGO YAMAGAHANA","perfecture_jp":"京都府","jp_add_1":"京都市伏見区","jp_add_2":"醍醐山ケ鼻"},"6011306":{"post_code":"6011306","prefecture":"KYOTO FU","city":"KYOTO SHI FUSHIMI KU","town":"DAIGO RENZO","perfecture_jp":"京都府","jp_add_1":"京都市伏見区","jp_add_2":"醍醐連蔵"},"6011416":{"post_code":"6011416","prefecture":"KYOTO FU","city":"KYOTO SHI FUSHIMI KU","town":"HINO OKANISHICHO","perfecture_jp":"京都府","jp_add_1":"京都市伏見区","jp_add_2":"日野岡西町"},"6011414":{"post_code":"6011414","prefecture":"KYOTO FU","city":"KYOTO SHI FUSHIMI KU","town":"HINO OKUDE","perfecture_jp":"京都府","jp_add_1":"京都市伏見区","jp_add_2":"日野奥出"},"6011404":{"post_code":"6011404","prefecture":"KYOTO FU","city":"KYOTO SHI FUSHIMI KU","town":"HINO KITAKAWAZURA","perfecture_jp":"京都府","jp_add_1":"京都市伏見区","jp_add_2":"日野北川頬"},"6011401":{"post_code":"6011401","prefecture":"KYOTO FU","city":"KYOTO SHI FUSHIMI KU","town":"HINO KITAYAMA","perfecture_jp":"京都府","jp_add_1":"京都市伏見区","jp_add_2":"日野北山"},"6011411":{"post_code":"6011411","prefecture":"KYOTO FU","city":"KYOTO SHI FUSHIMI KU","town":"HINO JIHICHO","perfecture_jp":"京都府","jp_add_1":"京都市伏見区","jp_add_2":"日野慈悲町"},"6011424":{"post_code":"6011424","prefecture":"KYOTO FU","city":"KYOTO SHI FUSHIMI KU","town":"HINO TAZURACHO","perfecture_jp":"京都府","jp_add_1":"京都市伏見区","jp_add_2":"日野田頬町"},"6011425":{"post_code":"6011425","prefecture":"KYOTO FU","city":"KYOTO SHI FUSHIMI KU","town":"HINO TANAKACHO","perfecture_jp":"京都府","jp_add_1":"京都市伏見区","jp_add_2":"日野田中町"},"6011413":{"post_code":"6011413","prefecture":"KYOTO FU","city":"KYOTO SHI FUSHIMI KU","town":"HINO TANIDACHO","perfecture_jp":"京都府","jp_add_1":"京都市伏見区","jp_add_2":"日野谷田町"},"6011406":{"post_code":"6011406","prefecture":"KYOTO FU","city":"KYOTO SHI FUSHIMI KU","town":"HINO TANIDERACHO","perfecture_jp":"京都府","jp_add_1":"京都市伏見区","jp_add_2":"日野谷寺町"},"6011426":{"post_code":"6011426","prefecture":"KYOTO FU","city":"KYOTO SHI FUSHIMI KU","town":"HINO NISHIKAWAZURA","perfecture_jp":"京都府","jp_add_1":"京都市伏見区","jp_add_2":"日野西川頬"},"6011417":{"post_code":"6011417","prefecture":"KYOTO FU","city":"KYOTO SHI FUSHIMI KU","town":"HINO NISHIDAIDOCHO","perfecture_jp":"京都府","jp_add_1":"京都市伏見区","jp_add_2":"日野西大道町"},"6011423":{"post_code":"6011423","prefecture":"KYOTO FU","city":"KYOTO SHI FUSHIMI KU","town":"HINO NISHIFUROCHO","perfecture_jp":"京都府","jp_add_1":"京都市伏見区","jp_add_2":"日野西風呂町"},"6011415":{"post_code":"6011415","prefecture":"KYOTO FU","city":"KYOTO SHI FUSHIMI KU","town":"HINO NOIROCHO","perfecture_jp":"京都府","jp_add_1":"京都市伏見区","jp_add_2":"日野野色町"},"6011412":{"post_code":"6011412","prefecture":"KYOTO FU","city":"KYOTO SHI FUSHIMI KU","town":"HINO HATADECHO","perfecture_jp":"京都府","jp_add_1":"京都市伏見区","jp_add_2":"日野畑出町"},"6011405":{"post_code":"6011405","prefecture":"KYOTO FU","city":"KYOTO SHI FUSHIMI KU","town":"HINO HAYASHI","perfecture_jp":"京都府","jp_add_1":"京都市伏見区","jp_add_2":"日野林"},"6011421":{"post_code":"6011421","prefecture":"KYOTO FU","city":"KYOTO SHI FUSHIMI KU","town":"HINO BAMBATECHO","perfecture_jp":"京都府","jp_add_1":"京都市伏見区","jp_add_2":"日野馬場出町"},"6011422":{"post_code":"6011422","prefecture":"KYOTO FU","city":"KYOTO SHI FUSHIMI KU","town":"HINO FUDOKOCHO","perfecture_jp":"京都府","jp_add_1":"京都市伏見区","jp_add_2":"日野不動講町"},"6011403":{"post_code":"6011403","prefecture":"KYOTO FU","city":"KYOTO SHI FUSHIMI KU","town":"HINO FUNAO","perfecture_jp":"京都府","jp_add_1":"京都市伏見区","jp_add_2":"日野船尾"},"6011402":{"post_code":"6011402","prefecture":"KYOTO FU","city":"KYOTO SHI FUSHIMI KU","town":"HINO MINAMIYAMA","perfecture_jp":"京都府","jp_add_1":"京都市伏見区","jp_add_2":"日野南山"},"6011394":{"post_code":"6011394","prefecture":"KYOTO FU","city":"UJI SHI","town":"IKENO","perfecture_jp":"京都府","jp_add_1":"宇治市","jp_add_2":"池尾"},"6011395":{"post_code":"6011395","prefecture":"KYOTO FU","city":"UJI SHI","town":"SUMIYAMA","perfecture_jp":"京都府","jp_add_1":"宇治市","jp_add_2":"炭山"},"6011396":{"post_code":"6011396","prefecture":"KYOTO FU","city":"UJI SHI","town":"TODO HIGASHIGAITO","perfecture_jp":"京都府","jp_add_1":"宇治市","jp_add_2":"莵道東垣内"},"6011393":{"post_code":"6011393","prefecture":"KYOTO FU","city":"UJI SHI","town":"NIO","perfecture_jp":"京都府","jp_add_1":"宇治市","jp_add_2":"二尾"},"6011392":{"post_code":"6011392","prefecture":"KYOTO FU","city":"UJI SHI","town":"NISHIKASATORI","perfecture_jp":"京都府","jp_add_1":"宇治市","jp_add_2":"西笠取"},"6011391":{"post_code":"6011391","prefecture":"KYOTO FU","city":"UJI SHI","town":"HIGASHIKASATORI","perfecture_jp":"京都府","jp_add_1":"宇治市","jp_add_2":"東笠取"},"6010722":{"post_code":"6010722","prefecture":"KYOTO FU","city":"NANTAN SHI","town":"MIYAMACHO AGAKE","perfecture_jp":"京都府","jp_add_1":"南丹市","jp_add_2":"美山町安掛"},"6010703":{"post_code":"6010703","prefecture":"KYOTO FU","city":"NANTAN SHI","town":"MIYAMACHO ASHIU","perfecture_jp":"京都府","jp_add_1":"南丹市","jp_add_2":"美山町芦生"},"6010723":{"post_code":"6010723","prefecture":"KYOTO FU","city":"NANTAN SHI","town":"MIYAMACHO ARAKURA","perfecture_jp":"京都府","jp_add_1":"南丹市","jp_add_2":"美山町荒倉"},"6010754":{"post_code":"6010754","prefecture":"KYOTO FU","city":"NANTAN SHI","town":"MIYAMACHO IZUMI","perfecture_jp":"京都府","jp_add_1":"南丹市","jp_add_2":"美山町和泉"},"6010742":{"post_code":"6010742","prefecture":"KYOTO FU","city":"NANTAN SHI","town":"MIYAMACHO ITAHASHI","perfecture_jp":"京都府","jp_add_1":"南丹市","jp_add_2":"美山町板橋"},"6010724":{"post_code":"6010724","prefecture":"KYOTO FU","city":"NANTAN SHI","town":"MIYAMACHO UCHIKUBO","perfecture_jp":"京都府","jp_add_1":"南丹市","jp_add_2":"美山町内久保"},"6010701":{"post_code":"6010701","prefecture":"KYOTO FU","city":"NANTAN SHI","town":"MIYAMACHO EWA","perfecture_jp":"京都府","jp_add_1":"南丹市","jp_add_2":"美山町江和"},"6010772":{"post_code":"6010772","prefecture":"KYOTO FU","city":"NANTAN SHI","town":"MIYAMACHO ONO","perfecture_jp":"京都府","jp_add_1":"南丹市","jp_add_2":"美山町大野"},"6010778":{"post_code":"6010778","prefecture":"KYOTO FU","city":"NANTAN SHI","town":"MIYAMACHO OTOMI","perfecture_jp":"京都府","jp_add_1":"南丹市","jp_add_2":"美山町音海"},"6010775":{"post_code":"6010775","prefecture":"KYOTO FU","city":"NANTAN SHI","town":"MIYAMACHO OBUCHI","perfecture_jp":"京都府","jp_add_1":"南丹市","jp_add_2":"美山町小渕"},"6010777":{"post_code":"6010777","prefecture":"KYOTO FU","city":"NANTAN SHI","town":"MIYAMACHO KASHIWARA","perfecture_jp":"京都府","jp_add_1":"南丹市","jp_add_2":"美山町樫原"},"6010721":{"post_code":"6010721","prefecture":"KYOTO FU","city":"NANTAN SHI","town":"MIYAMACHO KAMIHIRAYA","perfecture_jp":"京都府","jp_add_1":"南丹市","jp_add_2":"美山町上平屋"},"6010771":{"post_code":"6010771","prefecture":"KYOTO FU","city":"NANTAN SHI","town":"MIYAMACHO KAYANO","perfecture_jp":"京都府","jp_add_1":"南丹市","jp_add_2":"美山町萱野"},"6010714":{"post_code":"6010714","prefecture":"KYOTO FU","city":"NANTAN SHI","town":"MIYAMACHO KAWAUCHIDANI","perfecture_jp":"京都府","jp_add_1":"南丹市","jp_add_2":"美山町河内谷"},"6010712":{"post_code":"6010712","prefecture":"KYOTO FU","city":"NANTAN SHI","town":"MIYAMACHO KITA","perfecture_jp":"京都府","jp_add_1":"南丹市","jp_add_2":"美山町北"},"6010705":{"post_code":"6010705","prefecture":"KYOTO FU","city":"NANTAN SHI","town":"MIYAMACHO SASARI","perfecture_jp":"京都府","jp_add_1":"南丹市","jp_add_2":"美山町佐々里"},"6010755":{"post_code":"6010755","prefecture":"KYOTO FU","city":"NANTAN SHI","town":"MIYAMACHO SHIZUHARA","perfecture_jp":"京都府","jp_add_1":"南丹市","jp_add_2":"美山町静原"},"6010751":{"post_code":"6010751","prefecture":"KYOTO FU","city":"NANTAN SHI","town":"MIYAMACHO SHIMA","perfecture_jp":"京都府","jp_add_1":"南丹市","jp_add_2":"美山町島"},"6010715":{"post_code":"6010715","prefecture":"KYOTO FU","city":"NANTAN SHI","town":"MIYAMACHO SHIMO","perfecture_jp":"京都府","jp_add_1":"南丹市","jp_add_2":"美山町下"},"6010732":{"post_code":"6010732","prefecture":"KYOTO FU","city":"NANTAN SHI","town":"MIYAMACHO SHIMOHIRAYA","perfecture_jp":"京都府","jp_add_1":"南丹市","jp_add_2":"美山町下平屋"},"6010744":{"post_code":"6010744","prefecture":"KYOTO FU","city":"NANTAN SHI","town":"MIYAMACHO SHIMOYOSHIDA","perfecture_jp":"京都府","jp_add_1":"南丹市","jp_add_2":"美山町下吉田"},"6010753":{"post_code":"6010753","prefecture":"KYOTO FU","city":"NANTAN SHI","town":"MIYAMACHO JOSHI","perfecture_jp":"京都府","jp_add_1":"南丹市","jp_add_2":"美山町上司"},"6010704":{"post_code":"6010704","prefecture":"KYOTO FU","city":"NANTAN SHI","town":"MIYAMACHO SHIRAISHI","perfecture_jp":"京都府","jp_add_1":"南丹市","jp_add_2":"美山町白石"},"6010702":{"post_code":"6010702","prefecture":"KYOTO FU","city":"NANTAN SHI","town":"MIYAMACHO TAUTA","perfecture_jp":"京都府","jp_add_1":"南丹市","jp_add_2":"美山町田歌"},"6010761":{"post_code":"6010761","prefecture":"KYOTO FU","city":"NANTAN SHI","town":"MIYAMACHO TAKANO","perfecture_jp":"京都府","jp_add_1":"南丹市","jp_add_2":"美山町高野"},"6010716":{"post_code":"6010716","prefecture":"KYOTO FU","city":"NANTAN SHI","town":"MIYAMACHO CHIMI","perfecture_jp":"京都府","jp_add_1":"南丹市","jp_add_2":"美山町知見"},"6010762":{"post_code":"6010762","prefecture":"KYOTO FU","city":"NANTAN SHI","town":"MIYAMACHO TSURUGAOKA","perfecture_jp":"京都府","jp_add_1":"南丹市","jp_add_2":"美山町鶴ケ岡"},"6010763":{"post_code":"6010763","prefecture":"KYOTO FU","city":"NANTAN SHI","town":"MIYAMACHO TOYOSATO","perfecture_jp":"京都府","jp_add_1":"南丹市","jp_add_2":"美山町豊郷"},"6010713":{"post_code":"6010713","prefecture":"KYOTO FU","city":"NANTAN SHI","town":"MIYAMACHO NAKA","perfecture_jp":"京都府","jp_add_1":"南丹市","jp_add_2":"美山町中"},"6010734":{"post_code":"6010734","prefecture":"KYOTO FU","city":"NANTAN SHI","town":"MIYAMACHO NAGAO","perfecture_jp":"京都府","jp_add_1":"南丹市","jp_add_2":"美山町長尾"},"6010752":{"post_code":"6010752","prefecture":"KYOTO FU","city":"NANTAN SHI","town":"MIYAMACHO NAGATANI","perfecture_jp":"京都府","jp_add_1":"南丹市","jp_add_2":"美山町長谷"},"6010733":{"post_code":"6010733","prefecture":"KYOTO FU","city":"NANTAN SHI","town":"MIYAMACHO NOZOE","perfecture_jp":"京都府","jp_add_1":"南丹市","jp_add_2":"美山町野添"},"6010741":{"post_code":"6010741","prefecture":"KYOTO FU","city":"NANTAN SHI","town":"MIYAMACHO HARA","perfecture_jp":"京都府","jp_add_1":"南丹市","jp_add_2":"美山町原"},"6010774":{"post_code":"6010774","prefecture":"KYOTO FU","city":"NANTAN SHI","town":"MIYAMACHO HIJITANI","perfecture_jp":"京都府","jp_add_1":"南丹市","jp_add_2":"美山町肱谷"},"6010735":{"post_code":"6010735","prefecture":"KYOTO FU","city":"NANTAN SHI","town":"MIYAMACHO FUKAMI","perfecture_jp":"京都府","jp_add_1":"南丹市","jp_add_2":"美山町深見"},"6010765":{"post_code":"6010765","prefecture":"KYOTO FU","city":"NANTAN SHI","town":"MIYAMACHO FUKUI","perfecture_jp":"京都府","jp_add_1":"南丹市","jp_add_2":"美山町福居"},"6010731":{"post_code":"6010731","prefecture":"KYOTO FU","city":"NANTAN SHI","town":"MIYAMACHO MATABAYASHI","perfecture_jp":"京都府","jp_add_1":"南丹市","jp_add_2":"美山町又林"},"6010773":{"post_code":"6010773","prefecture":"KYOTO FU","city":"NANTAN SHI","town":"MIYAMACHO MITSUNO","perfecture_jp":"京都府","jp_add_1":"南丹市","jp_add_2":"美山町三埜"},"6010711":{"post_code":"6010711","prefecture":"KYOTO FU","city":"NANTAN SHI","town":"MIYAMACHO MINAMI","perfecture_jp":"京都府","jp_add_1":"南丹市","jp_add_2":"美山町南"},"6010743":{"post_code":"6010743","prefecture":"KYOTO FU","city":"NANTAN SHI","town":"MIYAMACHO MIYANOWAKI","perfecture_jp":"京都府","jp_add_1":"南丹市","jp_add_2":"美山町宮脇"},"6010776":{"post_code":"6010776","prefecture":"KYOTO FU","city":"NANTAN SHI","town":"MIYAMACHO MUKAIYAMA","perfecture_jp":"京都府","jp_add_1":"南丹市","jp_add_2":"美山町向山"},"6010764":{"post_code":"6010764","prefecture":"KYOTO FU","city":"NANTAN SHI","town":"MIYAMACHO MORISATO","perfecture_jp":"京都府","jp_add_1":"南丹市","jp_add_2":"美山町盛郷"}}