{"6030000":{"post_code":"6030000","prefecture":"KYOTO FU","city":"KYOTO SHI KITA KU","town":"IKANIKEISAIGANAIBAAI","perfecture_jp":"京都府","jp_add_1":"京都市北区","jp_add_2":""},"6038136":{"post_code":"6038136","prefecture":"KYOTO FU","city":"KYOTO SHI KITA KU","town":"IZUMOJI KAGURACHO","perfecture_jp":"京都府","jp_add_1":"京都市北区","jp_add_2":"出雲路神楽町"},"6038134":{"post_code":"6038134","prefecture":"KYOTO FU","city":"KYOTO SHI KITA KU","town":"IZUMOJI TATEMOTOCHO","perfecture_jp":"京都府","jp_add_1":"京都市北区","jp_add_2":"出雲路立テ本町"},"6038135":{"post_code":"6038135","prefecture":"KYOTO FU","city":"KYOTO SHI KITA KU","town":"IZUMOJI TAWARACHO","perfecture_jp":"京都府","jp_add_1":"京都市北区","jp_add_2":"出雲路俵町"},"6038133":{"post_code":"6038133","prefecture":"KYOTO FU","city":"KYOTO SHI KITA KU","town":"IZUMOJI MATSUNOSHITACHO","perfecture_jp":"京都府","jp_add_1":"京都市北区","jp_add_2":"出雲路松ノ下町"},"6038481":{"post_code":"6038481","prefecture":"KYOTO FU","city":"KYOTO SHI KITA KU","town":"OKITAYAMA KAGAMIISHICHO","perfecture_jp":"京都府","jp_add_1":"京都市北区","jp_add_2":"大北山鏡石町"},"6038482":{"post_code":"6038482","prefecture":"KYOTO FU","city":"KYOTO SHI KITA KU","town":"OKITAYAMA TENJINOKACHO","perfecture_jp":"京都府","jp_add_1":"京都市北区","jp_add_2":"大北山天神岡町"},"6038483":{"post_code":"6038483","prefecture":"KYOTO FU","city":"KYOTO SHI KITA KU","town":"OKITAYAMA HASUGADANICHO","perfecture_jp":"京都府","jp_add_1":"京都市北区","jp_add_2":"大北山蓮ケ谷町"},"6038488":{"post_code":"6038488","prefecture":"KYOTO FU","city":"KYOTO SHI KITA KU","town":"OKITAYAMA HASECHO","perfecture_jp":"京都府","jp_add_1":"京都市北区","jp_add_2":"大北山長谷町"},"6038487":{"post_code":"6038487","prefecture":"KYOTO FU","city":"KYOTO SHI KITA KU","town":"OKITAYAMA HARADANIINUICHO","perfecture_jp":"京都府","jp_add_1":"京都市北区","jp_add_2":"大北山原谷乾町"},"6038457":{"post_code":"6038457","prefecture":"KYOTO FU","city":"KYOTO SHI KITA KU","town":"OKITAYAMA FUDOSANCHO","perfecture_jp":"京都府","jp_add_1":"京都市北区","jp_add_2":"大北山不動山町"},"6038477":{"post_code":"6038477","prefecture":"KYOTO FU","city":"KYOTO SHI KITA KU","town":"OMIYA ICHINOICHO","perfecture_jp":"京都府","jp_add_1":"京都市北区","jp_add_2":"大宮一ノ井町"},"6038401":{"post_code":"6038401","prefecture":"KYOTO FU","city":"KYOTO SHI KITA KU","town":"OMIYA KAMINOKISHICHO","perfecture_jp":"京都府","jp_add_1":"京都市北区","jp_add_2":"大宮上ノ岸町"},"6038408":{"post_code":"6038408","prefecture":"KYOTO FU","city":"KYOTO SHI KITA KU","town":"OMIYA KITATSUBAKIHARACHO","perfecture_jp":"京都府","jp_add_1":"京都市北区","jp_add_2":"大宮北椿原町"},"6038831":{"post_code":"6038831","prefecture":"KYOTO FU","city":"KYOTO SHI KITA KU","town":"OMIYA KITANOKISHICHO","perfecture_jp":"京都府","jp_add_1":"京都市北区","jp_add_2":"大宮北ノ岸町"},"6038475":{"post_code":"6038475","prefecture":"KYOTO FU","city":"KYOTO SHI KITA KU","town":"OMIYA KITAHAKONOICHO","perfecture_jp":"京都府","jp_add_1":"京都市北区","jp_add_2":"大宮北箱ノ井町"},"6038407":{"post_code":"6038407","prefecture":"KYOTO FU","city":"KYOTO SHI KITA KU","town":"OMIYA KITABAYASHICHO","perfecture_jp":"京都府","jp_add_1":"京都市北区","jp_add_2":"大宮北林町"},"6038472":{"post_code":"6038472","prefecture":"KYOTO FU","city":"KYOTO SHI KITA KU","town":"OMIYA KITAYAMANOMAECHO","perfecture_jp":"京都府","jp_add_1":"京都市北区","jp_add_2":"大宮北山ノ前町"},"6038461":{"post_code":"6038461","prefecture":"KYOTO FU","city":"KYOTO SHI KITA KU","town":"OMIYA GENTAKUKITAHIGASHICHO","perfecture_jp":"京都府","jp_add_1":"京都市北区","jp_add_2":"大宮玄琢北東町"},"6038462":{"post_code":"6038462","prefecture":"KYOTO FU","city":"KYOTO SHI KITA KU","town":"OMIYA GENTAKUKITAMACHI","perfecture_jp":"京都府","jp_add_1":"京都市北区","jp_add_2":"大宮玄琢北町"},"6038463":{"post_code":"6038463","prefecture":"KYOTO FU","city":"KYOTO SHI KITA KU","town":"OMIYA GENTAKUMINAMIMACHI","perfecture_jp":"京都府","jp_add_1":"京都市北区","jp_add_2":"大宮玄琢南町"},"6038478":{"post_code":"6038478","prefecture":"KYOTO FU","city":"KYOTO SHI KITA KU","town":"OMIYA SHAKADANI","perfecture_jp":"京都府","jp_add_1":"京都市北区","jp_add_2":"大宮釈迦谷"},"6038838":{"post_code":"6038838","prefecture":"KYOTO FU","city":"KYOTO SHI KITA KU","town":"OMIYA TAJIRICHO","perfecture_jp":"京都府","jp_add_1":"京都市北区","jp_add_2":"大宮田尻町"},"6038441":{"post_code":"6038441","prefecture":"KYOTO FU","city":"KYOTO SHI KITA KU","town":"OMIYA DOICHO","perfecture_jp":"京都府","jp_add_1":"京都市北区","jp_add_2":"大宮土居町"},"6038834":{"post_code":"6038834","prefecture":"KYOTO FU","city":"KYOTO SHI KITA KU","town":"OMIYA NAKASOMONGUCHICHO","perfecture_jp":"京都府","jp_add_1":"京都市北区","jp_add_2":"大宮中総門口町"},"6038837":{"post_code":"6038837","prefecture":"KYOTO FU","city":"KYOTO SHI KITA KU","town":"OMIYA NAKANOYASHIROCHO","perfecture_jp":"京都府","jp_add_1":"京都市北区","jp_add_2":"大宮中ノ社町"},"6038404":{"post_code":"6038404","prefecture":"KYOTO FU","city":"KYOTO SHI KITA KU","town":"OMIYA NAKABAYASHICHO","perfecture_jp":"京都府","jp_add_1":"京都市北区","jp_add_2":"大宮中林町"},"6038405":{"post_code":"6038405","prefecture":"KYOTO FU","city":"KYOTO SHI KITA KU","town":"OMIYA NISHIONOBORICHO","perfecture_jp":"京都府","jp_add_1":"京都市北区","jp_add_2":"大宮西小野堀町"},"6038835":{"post_code":"6038835","prefecture":"KYOTO FU","city":"KYOTO SHI KITA KU","town":"OMIYA NISHISOMONGUCHICHO","perfecture_jp":"京都府","jp_add_1":"京都市北区","jp_add_2":"大宮西総門口町"},"6038444":{"post_code":"6038444","prefecture":"KYOTO FU","city":"KYOTO SHI KITA KU","town":"OMIYA NISHINOYAMACHO","perfecture_jp":"京都府","jp_add_1":"京都市北区","jp_add_2":"大宮西野山町"},"6038471":{"post_code":"6038471","prefecture":"KYOTO FU","city":"KYOTO SHI KITA KU","town":"OMIYA NISHIYAMANOMAECHO","perfecture_jp":"京都府","jp_add_1":"京都市北区","jp_add_2":"大宮西山ノ前町"},"6038432":{"post_code":"6038432","prefecture":"KYOTO FU","city":"KYOTO SHI KITA KU","town":"OMIYA NISHIWAKIDAICHO","perfecture_jp":"京都府","jp_add_1":"京都市北区","jp_add_2":"大宮西脇台町"},"6038406":{"post_code":"6038406","prefecture":"KYOTO FU","city":"KYOTO SHI KITA KU","town":"OMIYA HIGASHIONOBORICHO","perfecture_jp":"京都府","jp_add_1":"京都市北区","jp_add_2":"大宮東小野堀町"},"6038833":{"post_code":"6038833","prefecture":"KYOTO FU","city":"KYOTO SHI KITA KU","town":"OMIYA HIGASHISOMONGUCHICHO","perfecture_jp":"京都府","jp_add_1":"京都市北区","jp_add_2":"大宮東総門口町"},"6038431":{"post_code":"6038431","prefecture":"KYOTO FU","city":"KYOTO SHI KITA KU","town":"OMIYA HIGASHIWAKIDAICHO","perfecture_jp":"京都府","jp_add_1":"京都市北区","jp_add_2":"大宮東脇台町"},"6038437":{"post_code":"6038437","prefecture":"KYOTO FU","city":"KYOTO SHI KITA KU","town":"OMIYA HIRAKICHO","perfecture_jp":"京都府","jp_add_1":"京都市北区","jp_add_2":"大宮開町"},"6038832":{"post_code":"6038832","prefecture":"KYOTO FU","city":"KYOTO SHI KITA KU","town":"OMIYA MINAMITAJIRICHO","perfecture_jp":"京都府","jp_add_1":"京都市北区","jp_add_2":"大宮南田尻町"},"6038402":{"post_code":"6038402","prefecture":"KYOTO FU","city":"KYOTO SHI KITA KU","town":"OMIYA MINAMITSUBAKIHARACHO","perfecture_jp":"京都府","jp_add_1":"京都市北区","jp_add_2":"大宮南椿原町"},"6038476":{"post_code":"6038476","prefecture":"KYOTO FU","city":"KYOTO SHI KITA KU","town":"OMIYA MINAMIHAKONOICHO","perfecture_jp":"京都府","jp_add_1":"京都市北区","jp_add_2":"大宮南箱ノ井町"},"6038403":{"post_code":"6038403","prefecture":"KYOTO FU","city":"KYOTO SHI KITA KU","town":"OMIYA MINAMIBAYASHICHO","perfecture_jp":"京都府","jp_add_1":"京都市北区","jp_add_2":"大宮南林町"},"6038473":{"post_code":"6038473","prefecture":"KYOTO FU","city":"KYOTO SHI KITA KU","town":"OMIYA MINAMIYAMANOMAECHO","perfecture_jp":"京都府","jp_add_1":"京都市北区","jp_add_2":"大宮南山ノ前町"},"6038479":{"post_code":"6038479","prefecture":"KYOTO FU","city":"KYOTO SHI KITA KU","town":"OMIYAYAKUSHIYAMA NISHICHO","perfecture_jp":"京都府","jp_add_1":"京都市北区","jp_add_2":"大宮薬師山西町"},"6038474":{"post_code":"6038474","prefecture":"KYOTO FU","city":"KYOTO SHI KITA KU","town":"OMIYAYAKUSHIYAMA HIGASHICHO","perfecture_jp":"京都府","jp_add_1":"京都市北区","jp_add_2":"大宮薬師山東町"},"6038012":{"post_code":"6038012","prefecture":"KYOTO FU","city":"KYOTO SHI KITA KU","town":"KAMIGAMO AOIDENCHO","perfecture_jp":"京都府","jp_add_1":"京都市北区","jp_add_2":"上賀茂葵田町"},"6038034":{"post_code":"6038034","prefecture":"KYOTO FU","city":"KYOTO SHI KITA KU","town":"KAMIGAMO AOINOMORICHO","perfecture_jp":"京都府","jp_add_1":"京都市北区","jp_add_2":"上賀茂葵之森町"},"6038018":{"post_code":"6038018","prefecture":"KYOTO FU","city":"KYOTO SHI KITA KU","town":"KAMIGAMO AKAOCHO","perfecture_jp":"京都府","jp_add_1":"京都市北区","jp_add_2":"上賀茂赤尾町"},"6038035":{"post_code":"6038035","prefecture":"KYOTO FU","city":"KYOTO SHI KITA KU","town":"KAMIGAMO ASATSUYUGAHARACHO","perfecture_jp":"京都府","jp_add_1":"京都市北区","jp_add_2":"上賀茂朝露ケ原町"},"6038044":{"post_code":"6038044","prefecture":"KYOTO FU","city":"KYOTO SHI KITA KU","town":"KAMIGAMO AZEKACHICHO","perfecture_jp":"京都府","jp_add_1":"京都市北区","jp_add_2":"上賀茂畔勝町"},"6038061":{"post_code":"6038061","prefecture":"KYOTO FU","city":"KYOTO SHI KITA KU","town":"KAMIGAMO ARAKUSACHO","perfecture_jp":"京都府","jp_add_1":"京都市北区","jp_add_2":"上賀茂荒草町"},"6038066":{"post_code":"6038066","prefecture":"KYOTO FU","city":"KYOTO SHI KITA KU","town":"KAMIGAMO IKEDONOCHO","perfecture_jp":"京都府","jp_add_1":"京都市北区","jp_add_2":"上賀茂池殿町"},"6038043":{"post_code":"6038043","prefecture":"KYOTO FU","city":"KYOTO SHI KITA KU","town":"KAMIGAMO IKEBATACHO","perfecture_jp":"京都府","jp_add_1":"京都市北区","jp_add_2":"上賀茂池端町"},"6038056":{"post_code":"6038056","prefecture":"KYOTO FU","city":"KYOTO SHI KITA KU","town":"KAMIGAMO ISHIKAZUCHO","perfecture_jp":"京都府","jp_add_1":"京都市北区","jp_add_2":"上賀茂石計町"},"6038017":{"post_code":"6038017","prefecture":"KYOTO FU","city":"KYOTO SHI KITA KU","town":"KAMIGAMO ITCHOGUCHICHO","perfecture_jp":"京都府","jp_add_1":"京都市北区","jp_add_2":"上賀茂壱町口町"},"6038063":{"post_code":"6038063","prefecture":"KYOTO FU","city":"KYOTO SHI KITA KU","town":"KAMIGAMO IMAIGAWARACHO","perfecture_jp":"京都府","jp_add_1":"京都市北区","jp_add_2":"上賀茂今井河原町"},"6038053":{"post_code":"6038053","prefecture":"KYOTO FU","city":"KYOTO SHI KITA KU","town":"KAMIGAMO IWAGAKAKIUCHICHO","perfecture_jp":"京都府","jp_add_1":"京都市北区","jp_add_2":"上賀茂岩ケ垣内町"},"6038033":{"post_code":"6038033","prefecture":"KYOTO FU","city":"KYOTO SHI KITA KU","town":"KAMIGAMO UMANOMECHO","perfecture_jp":"京都府","jp_add_1":"京都市北区","jp_add_2":"上賀茂馬ノ目町"},"6038087":{"post_code":"6038087","prefecture":"KYOTO FU","city":"KYOTO SHI KITA KU","town":"KAMIGAMO UMEGATSUJICHO","perfecture_jp":"京都府","jp_add_1":"京都市北区","jp_add_2":"上賀茂梅ケ辻町"},"6038073":{"post_code":"6038073","prefecture":"KYOTO FU","city":"KYOTO SHI KITA KU","town":"KAMIGAMO EBOSHIGAKAKIUCHICHO","perfecture_jp":"京都府","jp_add_1":"京都市北区","jp_add_2":"上賀茂烏帽子ケ垣内町"},"6038037":{"post_code":"6038037","prefecture":"KYOTO FU","city":"KYOTO SHI KITA KU","town":"KAMIGAMO OYANAGICHO","perfecture_jp":"京都府","jp_add_1":"京都市北区","jp_add_2":"上賀茂大柳町"},"6038082":{"post_code":"6038082","prefecture":"KYOTO FU","city":"KYOTO SHI KITA KU","town":"KAMIGAMO OKAMOTOGUCHICHO","perfecture_jp":"京都府","jp_add_1":"京都市北区","jp_add_2":"上賀茂岡本口町"},"6038081":{"post_code":"6038081","prefecture":"KYOTO FU","city":"KYOTO SHI KITA KU","town":"KAMIGAMO OKAMOTOCHO","perfecture_jp":"京都府","jp_add_1":"京都市北区","jp_add_2":"上賀茂岡本町"},"6038038":{"post_code":"6038038","prefecture":"KYOTO FU","city":"KYOTO SHI KITA KU","town":"KAMIGAMO OTOBOSECHO","perfecture_jp":"京都府","jp_add_1":"京都市北区","jp_add_2":"上賀茂音保瀬町"},"6038013":{"post_code":"6038013","prefecture":"KYOTO FU","city":"KYOTO SHI KITA KU","town":"KAMIGAMO KAMIJIMBARACHO","perfecture_jp":"京都府","jp_add_1":"京都市北区","jp_add_2":"上賀茂上神原町"},"6038071":{"post_code":"6038071","prefecture":"KYOTO FU","city":"KYOTO SHI KITA KU","town":"KAMIGAMO KITAOJICHO","perfecture_jp":"京都府","jp_add_1":"京都市北区","jp_add_2":"上賀茂北大路町"},"6038006":{"post_code":"6038006","prefecture":"KYOTO FU","city":"KYOTO SHI KITA KU","town":"KAMIGAMO KITANOHARACHO","perfecture_jp":"京都府","jp_add_1":"京都市北区","jp_add_2":"上賀茂北ノ原町"},"6038007":{"post_code":"6038007","prefecture":"KYOTO FU","city":"KYOTO SHI KITA KU","town":"KAMIGAMO KEANAICHO","perfecture_jp":"京都府","jp_add_1":"京都市北区","jp_add_2":"上賀茂毛穴井町"},"6038041":{"post_code":"6038041","prefecture":"KYOTO FU","city":"KYOTO SHI KITA KU","town":"KAMIGAMO KESHIYAMA","perfecture_jp":"京都府","jp_add_1":"京都市北区","jp_add_2":"上賀茂ケシ山"},"6038002":{"post_code":"6038002","prefecture":"KYOTO FU","city":"KYOTO SHI KITA KU","town":"KAMIGAMO KOYAMA","perfecture_jp":"京都府","jp_add_1":"京都市北区","jp_add_2":"上賀茂神山"},"6038051":{"post_code":"6038051","prefecture":"KYOTO FU","city":"KYOTO SHI KITA KU","town":"KAMIGAMO SAKAKIDACHO","perfecture_jp":"京都府","jp_add_1":"京都市北区","jp_add_2":"上賀茂榊田町"},"6038016":{"post_code":"6038016","prefecture":"KYOTO FU","city":"KYOTO SHI KITA KU","town":"KAMIGAMO SAKAGUCHICHO","perfecture_jp":"京都府","jp_add_1":"京都市北区","jp_add_2":"上賀茂坂口町"},"6038054":{"post_code":"6038054","prefecture":"KYOTO FU","city":"KYOTO SHI KITA KU","town":"KAMIGAMO SAKURAICHO","perfecture_jp":"京都府","jp_add_1":"京都市北区","jp_add_2":"上賀茂桜井町"},"6038014":{"post_code":"6038014","prefecture":"KYOTO FU","city":"KYOTO SHI KITA KU","town":"KAMIGAMO SHIMOJIMBARACHO","perfecture_jp":"京都府","jp_add_1":"京都市北区","jp_add_2":"上賀茂下神原町"},"6038001":{"post_code":"6038001","prefecture":"KYOTO FU","city":"KYOTO SHI KITA KU","town":"KAMIGAMO JUSANGOKUYAMA","perfecture_jp":"京都府","jp_add_1":"京都市北区","jp_add_2":"上賀茂十三石山"},"6038064":{"post_code":"6038064","prefecture":"KYOTO FU","city":"KYOTO SHI KITA KU","town":"KAMIGAMO SHOBUENCHO","perfecture_jp":"京都府","jp_add_1":"京都市北区","jp_add_2":"上賀茂菖蒲園町"},"6038085":{"post_code":"6038085","prefecture":"KYOTO FU","city":"KYOTO SHI KITA KU","town":"KAMIGAMO SEMIGAKAKIUCHICHO","perfecture_jp":"京都府","jp_add_1":"京都市北区","jp_add_2":"上賀茂蝉ケ垣内町"},"6038055":{"post_code":"6038055","prefecture":"KYOTO FU","city":"KYOTO SHI KITA KU","town":"KAMIGAMO TAKANAWATECHO","perfecture_jp":"京都府","jp_add_1":"京都市北区","jp_add_2":"上賀茂高縄手町"},"6038072":{"post_code":"6038072","prefecture":"KYOTO FU","city":"KYOTO SHI KITA KU","town":"KAMIGAMO TAKEGAHANACHO","perfecture_jp":"京都府","jp_add_1":"京都市北区","jp_add_2":"上賀茂竹ケ鼻町"},"6038084":{"post_code":"6038084","prefecture":"KYOTO FU","city":"KYOTO SHI KITA KU","town":"KAMIGAMO TSUCHIKADOCHO","perfecture_jp":"京都府","jp_add_1":"京都市北区","jp_add_2":"上賀茂土門町"},"6038027":{"post_code":"6038027","prefecture":"KYOTO FU","city":"KYOTO SHI KITA KU","town":"KAMIGAMO TSUNOKUNICHO","perfecture_jp":"京都府","jp_add_1":"京都市北区","jp_add_2":"上賀茂津ノ国町"},"6038045":{"post_code":"6038045","prefecture":"KYOTO FU","city":"KYOTO SHI KITA KU","town":"KAMIGAMO TOYOTACHO","perfecture_jp":"京都府","jp_add_1":"京都市北区","jp_add_2":"上賀茂豊田町"},"6038075":{"post_code":"6038075","prefecture":"KYOTO FU","city":"KYOTO SHI KITA KU","town":"KAMIGAMO NAKAOJICHO","perfecture_jp":"京都府","jp_add_1":"京都市北区","jp_add_2":"上賀茂中大路町"},"6038008":{"post_code":"6038008","prefecture":"KYOTO FU","city":"KYOTO SHI KITA KU","town":"KAMIGAMO NAKAJIMAGAWARACHO","perfecture_jp":"京都府","jp_add_1":"京都市北区","jp_add_2":"上賀茂中嶋河原町"},"6038032":{"post_code":"6038032","prefecture":"KYOTO FU","city":"KYOTO SHI KITA KU","town":"KAMIGAMO NAKANOKAWARACHO","perfecture_jp":"京都府","jp_add_1":"京都市北区","jp_add_2":"上賀茂中ノ河原町"},"6038024":{"post_code":"6038024","prefecture":"KYOTO FU","city":"KYOTO SHI KITA KU","town":"KAMIGAMO NAKANOSAKACHO","perfecture_jp":"京都府","jp_add_1":"京都市北区","jp_add_2":"上賀茂中ノ坂町"},"6038026":{"post_code":"6038026","prefecture":"KYOTO FU","city":"KYOTO SHI KITA KU","town":"KAMIGAMO NAKAYAMACHO","perfecture_jp":"京都府","jp_add_1":"京都市北区","jp_add_2":"上賀茂中山町"},"6038011":{"post_code":"6038011","prefecture":"KYOTO FU","city":"KYOTO SHI KITA KU","town":"KAMIGAMO NIKENYACHO","perfecture_jp":"京都府","jp_add_1":"京都市北区","jp_add_2":"上賀茂二軒家町"},"6038028":{"post_code":"6038028","prefecture":"KYOTO FU","city":"KYOTO SHI KITA KU","town":"KAMIGAMO NISHIUENODANCHO","perfecture_jp":"京都府","jp_add_1":"京都市北区","jp_add_2":"上賀茂西上之段町"},"6038036":{"post_code":"6038036","prefecture":"KYOTO FU","city":"KYOTO SHI KITA KU","town":"KAMIGAMO NISHIGAWARACHO","perfecture_jp":"京都府","jp_add_1":"京都市北区","jp_add_2":"上賀茂西河原町"},"6038021":{"post_code":"6038021","prefecture":"KYOTO FU","city":"KYOTO SHI KITA KU","town":"KAMIGAMO NISHIGOTOCHO","perfecture_jp":"京都府","jp_add_1":"京都市北区","jp_add_2":"上賀茂西後藤町"},"6038042":{"post_code":"6038042","prefecture":"KYOTO FU","city":"KYOTO SHI KITA KU","town":"KAMIGAMO HAZAMACHO","perfecture_jp":"京都府","jp_add_1":"京都市北区","jp_add_2":"上賀茂狭間町"},"6038003":{"post_code":"6038003","prefecture":"KYOTO FU","city":"KYOTO SHI KITA KU","town":"KAMIGAMO HIIRAGIDANICHO","perfecture_jp":"京都府","jp_add_1":"京都市北区","jp_add_2":"上賀茂柊谷町"},"6038023":{"post_code":"6038023","prefecture":"KYOTO FU","city":"KYOTO SHI KITA KU","town":"KAMIGAMO HIGASHIUENODANCHO","perfecture_jp":"京都府","jp_add_1":"京都市北区","jp_add_2":"上賀茂東上之段町"},"6038022":{"post_code":"6038022","prefecture":"KYOTO FU","city":"KYOTO SHI KITA KU","town":"KAMIGAMO HIGASHIGOTOCHO","perfecture_jp":"京都府","jp_add_1":"京都市北区","jp_add_2":"上賀茂東後藤町"},"6038015":{"post_code":"6038015","prefecture":"KYOTO FU","city":"KYOTO SHI KITA KU","town":"KAMIGAMO BINGODENCHO","perfecture_jp":"京都府","jp_add_1":"京都市北区","jp_add_2":"上賀茂備後田町"},"6038077":{"post_code":"6038077","prefecture":"KYOTO FU","city":"KYOTO SHI KITA KU","town":"KAMIGAMO FUJINOKICHO","perfecture_jp":"京都府","jp_add_1":"京都市北区","jp_add_2":"上賀茂藤ノ木町"},"6038025":{"post_code":"6038025","prefecture":"KYOTO FU","city":"KYOTO SHI KITA KU","town":"KAMIGAMO FUNATSUKICHO","perfecture_jp":"京都府","jp_add_1":"京都市北区","jp_add_2":"上賀茂舟着町"},"6038005":{"post_code":"6038005","prefecture":"KYOTO FU","city":"KYOTO SHI KITA KU","town":"KAMIGAMO MAEDACHO","perfecture_jp":"京都府","jp_add_1":"京都市北区","jp_add_2":"上賀茂前田町"},"6038052":{"post_code":"6038052","prefecture":"KYOTO FU","city":"KYOTO SHI KITA KU","town":"KAMIGAMO MATSUMOTOCHO","perfecture_jp":"京都府","jp_add_1":"京都市北区","jp_add_2":"上賀茂松本町"},"6038065":{"post_code":"6038065","prefecture":"KYOTO FU","city":"KYOTO SHI KITA KU","town":"KAMIGAMO MISONOGUCHICHO","perfecture_jp":"京都府","jp_add_1":"京都市北区","jp_add_2":"上賀茂御薗口町"},"6038046":{"post_code":"6038046","prefecture":"KYOTO FU","city":"KYOTO SHI KITA KU","town":"KAMIGAMO MIDOROIKECHO","perfecture_jp":"京都府","jp_add_1":"京都市北区","jp_add_2":"上賀茂深泥池町"},"6038074":{"post_code":"6038074","prefecture":"KYOTO FU","city":"KYOTO SHI KITA KU","town":"KAMIGAMO MINAMIOJICHO","perfecture_jp":"京都府","jp_add_1":"京都市北区","jp_add_2":"上賀茂南大路町"},"6038086":{"post_code":"6038086","prefecture":"KYOTO FU","city":"KYOTO SHI KITA KU","town":"KAMIGAMO MUKAIUMECHO","perfecture_jp":"京都府","jp_add_1":"京都市北区","jp_add_2":"上賀茂向梅町"},"6038083":{"post_code":"6038083","prefecture":"KYOTO FU","city":"KYOTO SHI KITA KU","town":"KAMIGAMO MUKAINAWATECHO","perfecture_jp":"京都府","jp_add_1":"京都市北区","jp_add_2":"上賀茂向縄手町"},"6038031":{"post_code":"6038031","prefecture":"KYOTO FU","city":"KYOTO SHI KITA KU","town":"KAMIGAMO MEOTOIWACHO","perfecture_jp":"京都府","jp_add_1":"京都市北区","jp_add_2":"上賀茂女夫岩町"},"6038047":{"post_code":"6038047","prefecture":"KYOTO FU","city":"KYOTO SHI KITA KU","town":"KAMIGAMO MOTOYAMA","perfecture_jp":"京都府","jp_add_1":"京都市北区","jp_add_2":"上賀茂本山"},"6038062":{"post_code":"6038062","prefecture":"KYOTO FU","city":"KYOTO SHI KITA KU","town":"KAMIGAMO YABUTACHO","perfecture_jp":"京都府","jp_add_1":"京都市北区","jp_add_2":"上賀茂薮田町"},"6038076":{"post_code":"6038076","prefecture":"KYOTO FU","city":"KYOTO SHI KITA KU","town":"KAMIGAMO YAMAMOTOCHO","perfecture_jp":"京都府","jp_add_1":"京都市北区","jp_add_2":"上賀茂山本町"},"6038004":{"post_code":"6038004","prefecture":"KYOTO FU","city":"KYOTO SHI KITA KU","town":"KAMIGAMO ROKUDANDACHO","perfecture_jp":"京都府","jp_add_1":"京都市北区","jp_add_2":"上賀茂六段田町"},"6038147":{"post_code":"6038147","prefecture":"KYOTO FU","city":"KYOTO SHI KITA KU","town":"KAMIGORYOKAMIECHO","perfecture_jp":"京都府","jp_add_1":"京都市北区","jp_add_2":"上御霊上江町"},"6038155":{"post_code":"6038155","prefecture":"KYOTO FU","city":"KYOTO SHI KITA KU","town":"KAMISEIZOGUCHICHO","perfecture_jp":"京都府","jp_add_1":"京都市北区","jp_add_2":"上清蔵口町"},"6038325":{"post_code":"6038325","prefecture":"KYOTO FU","city":"KYOTO SHI KITA KU","town":"KITANO KAMIHAKUBAICHO","perfecture_jp":"京都府","jp_add_1":"京都市北区","jp_add_2":"北野上白梅町"},"6038324":{"post_code":"6038324","prefecture":"KYOTO FU","city":"KYOTO SHI KITA KU","town":"KITANO KOBAICHO","perfecture_jp":"京都府","jp_add_1":"京都市北区","jp_add_2":"北野紅梅町"},"6038326":{"post_code":"6038326","prefecture":"KYOTO FU","city":"KYOTO SHI KITA KU","town":"KITANO SHIMOHAKUBAICHO","perfecture_jp":"京都府","jp_add_1":"京都市北区","jp_add_2":"北野下白梅町"},"6038327":{"post_code":"6038327","prefecture":"KYOTO FU","city":"KYOTO SHI KITA KU","town":"KITANO NISHIHAKUBAICHO","perfecture_jp":"京都府","jp_add_1":"京都市北区","jp_add_2":"北野西白梅町"},"6038323":{"post_code":"6038323","prefecture":"KYOTO FU","city":"KYOTO SHI KITA KU","town":"KITANO HIGASHIKOBAICHO","perfecture_jp":"京都府","jp_add_1":"京都市北区","jp_add_2":"北野東紅梅町"},"6038486":{"post_code":"6038486","prefecture":"KYOTO FU","city":"KYOTO SHI KITA KU","town":"KINUGASA AKASAKACHO","perfecture_jp":"京都府","jp_add_1":"京都市北区","jp_add_2":"衣笠赤阪町"},"6038315":{"post_code":"6038315","prefecture":"KYOTO FU","city":"KYOTO SHI KITA KU","town":"KINUGASA ARAMICHO","perfecture_jp":"京都府","jp_add_1":"京都市北区","jp_add_2":"衣笠荒見町"},"6038351":{"post_code":"6038351","prefecture":"KYOTO FU","city":"KYOTO SHI KITA KU","town":"KINUGASA OHARAICHO","perfecture_jp":"京都府","jp_add_1":"京都市北区","jp_add_2":"衣笠大祓町"},"6038372":{"post_code":"6038372","prefecture":"KYOTO FU","city":"KYOTO SHI KITA KU","town":"KINUGASA GAIDOCHO","perfecture_jp":"京都府","jp_add_1":"京都市北区","jp_add_2":"衣笠街道町"},"6038451":{"post_code":"6038451","prefecture":"KYOTO FU","city":"KYOTO SHI KITA KU","town":"KINUGASA KAGAMIISHICHO","perfecture_jp":"京都府","jp_add_1":"京都市北区","jp_add_2":"衣笠鏡石町"},"6038316":{"post_code":"6038316","prefecture":"KYOTO FU","city":"KYOTO SHI KITA KU","town":"KINUGASA KITAARAMICHO","perfecture_jp":"京都府","jp_add_1":"京都市北区","jp_add_2":"衣笠北荒見町"},"6038373":{"post_code":"6038373","prefecture":"KYOTO FU","city":"KYOTO SHI KITA KU","town":"KINUGASA KITATAKAHASHICHO","perfecture_jp":"京都府","jp_add_1":"京都市北区","jp_add_2":"衣笠北高橋町"},"6038376":{"post_code":"6038376","prefecture":"KYOTO FU","city":"KYOTO SHI KITA KU","town":"KINUGASA KITATENJIMMORICHO","perfecture_jp":"京都府","jp_add_1":"京都市北区","jp_add_2":"衣笠北天神森町"},"6038485":{"post_code":"6038485","prefecture":"KYOTO FU","city":"KYOTO SHI KITA KU","town":"KINUGASA KINUGASAYAMACHO","perfecture_jp":"京都府","jp_add_1":"京都市北区","jp_add_2":"衣笠衣笠山町"},"6038378":{"post_code":"6038378","prefecture":"KYOTO FU","city":"KYOTO SHI KITA KU","town":"KINUGASA GOSHONOCHICHO","perfecture_jp":"京都府","jp_add_1":"京都市北区","jp_add_2":"衣笠御所ノ内町"},"6038363":{"post_code":"6038363","prefecture":"KYOTO FU","city":"KYOTO SHI KITA KU","town":"KINUGASA SOMONCHO","perfecture_jp":"京都府","jp_add_1":"京都市北区","jp_add_2":"衣笠総門町"},"6038374":{"post_code":"6038374","prefecture":"KYOTO FU","city":"KYOTO SHI KITA KU","town":"KINUGASA TAKAHASHICHO","perfecture_jp":"京都府","jp_add_1":"京都市北区","jp_add_2":"衣笠高橋町"},"6038375":{"post_code":"6038375","prefecture":"KYOTO FU","city":"KYOTO SHI KITA KU","town":"KINUGASA TENJIMMORICHO","perfecture_jp":"京都府","jp_add_1":"京都市北区","jp_add_2":"衣笠天神森町"},"6038377":{"post_code":"6038377","prefecture":"KYOTO FU","city":"KYOTO SHI KITA KU","town":"KINUGASA NISHIGOSHONOCHICHO","perfecture_jp":"京都府","jp_add_1":"京都市北区","jp_add_2":"衣笠西御所ノ内町"},"6038456":{"post_code":"6038456","prefecture":"KYOTO FU","city":"KYOTO SHI KITA KU","town":"KINUGASA NISHISONJOINCHO","perfecture_jp":"京都府","jp_add_1":"京都市北区","jp_add_2":"衣笠西尊上院町"},"6038366":{"post_code":"6038366","prefecture":"KYOTO FU","city":"KYOTO SHI KITA KU","town":"KINUGASA NISHIBABACHO","perfecture_jp":"京都府","jp_add_1":"京都市北区","jp_add_2":"衣笠西馬場町"},"6038454":{"post_code":"6038454","prefecture":"KYOTO FU","city":"KYOTO SHI KITA KU","town":"KINUGASA NISHIHIRAKICHO","perfecture_jp":"京都府","jp_add_1":"京都市北区","jp_add_2":"衣笠西開キ町"},"6038362":{"post_code":"6038362","prefecture":"KYOTO FU","city":"KYOTO SHI KITA KU","town":"KINUGASA BABACHO","perfecture_jp":"京都府","jp_add_1":"京都市北区","jp_add_2":"衣笠馬場町"},"6038371":{"post_code":"6038371","prefecture":"KYOTO FU","city":"KYOTO SHI KITA KU","town":"KINUGASA HIGASHIGOSHONOCHICHO","perfecture_jp":"京都府","jp_add_1":"京都市北区","jp_add_2":"衣笠東御所ノ内町"},"6038455":{"post_code":"6038455","prefecture":"KYOTO FU","city":"KYOTO SHI KITA KU","town":"KINUGASA HIGASHISONJOINCHO","perfecture_jp":"京都府","jp_add_1":"京都市北区","jp_add_2":"衣笠東尊上院町"},"6038453":{"post_code":"6038453","prefecture":"KYOTO FU","city":"KYOTO SHI KITA KU","town":"KINUGASA HIGASHIHIRAKICHO","perfecture_jp":"京都府","jp_add_1":"京都市北区","jp_add_2":"衣笠東開キ町"},"6038484":{"post_code":"6038484","prefecture":"KYOTO FU","city":"KYOTO SHI KITA KU","town":"KINUGASA HIMUROCHO","perfecture_jp":"京都府","jp_add_1":"京都市北区","jp_add_2":"衣笠氷室町"},"6038452":{"post_code":"6038452","prefecture":"KYOTO FU","city":"KYOTO SHI KITA KU","town":"KINUGASA HIRAKICHO","perfecture_jp":"京都府","jp_add_1":"京都市北区","jp_add_2":"衣笠開キ町"},"6038361":{"post_code":"6038361","prefecture":"KYOTO FU","city":"KYOTO SHI KITA KU","town":"KINKAKUJICHO","perfecture_jp":"京都府","jp_add_1":"京都市北区","jp_add_2":"金閣寺町"},"6038861":{"post_code":"6038861","prefecture":"KYOTO FU","city":"KYOTO SHI KITA KU","town":"KUMOGAHATA DETANICHO","perfecture_jp":"京都府","jp_add_1":"京都市北区","jp_add_2":"雲ケ畑出谷町"},"6038862":{"post_code":"6038862","prefecture":"KYOTO FU","city":"KYOTO SHI KITA KU","town":"KUMOGAHATA NAKATSUGAWACHO","perfecture_jp":"京都府","jp_add_1":"京都市北区","jp_add_2":"雲ケ畑中津川町"},"6038863":{"post_code":"6038863","prefecture":"KYOTO FU","city":"KYOTO SHI KITA KU","town":"KUMOGAHATA NAKAHATACHO","perfecture_jp":"京都府","jp_add_1":"京都市北区","jp_add_2":"雲ケ畑中畑町"},"6038137":{"post_code":"6038137","prefecture":"KYOTO FU","city":"KYOTO SHI KITA KU","town":"KURAMAGUCHICHO","perfecture_jp":"京都府","jp_add_1":"京都市北区","jp_add_2":"鞍馬口町"},"6038341":{"post_code":"6038341","prefecture":"KYOTO FU","city":"KYOTO SHI KITA KU","town":"KOMATSUBARA KITAMACHI","perfecture_jp":"京都府","jp_add_1":"京都市北区","jp_add_2":"小松原北町"},"6038342":{"post_code":"6038342","prefecture":"KYOTO FU","city":"KYOTO SHI KITA KU","town":"KOMATSUBARA MINAMIMACHI","perfecture_jp":"京都府","jp_add_1":"京都市北区","jp_add_2":"小松原南町"},"6038125":{"post_code":"6038125","prefecture":"KYOTO FU","city":"KYOTO SHI KITA KU","town":"KOYAMA ITAKURACHO","perfecture_jp":"京都府","jp_add_1":"京都市北区","jp_add_2":"小山板倉町"},"6038126":{"post_code":"6038126","prefecture":"KYOTO FU","city":"KYOTO SHI KITA KU","town":"KOYAMA KAMIITAKURACHO","perfecture_jp":"京都府","jp_add_1":"京都市北区","jp_add_2":"小山上板倉町"},"6038131":{"post_code":"6038131","prefecture":"KYOTO FU","city":"KYOTO SHI KITA KU","town":"KOYAMA KAMIUCHIKAWARACHO","perfecture_jp":"京都府","jp_add_1":"京都市北区","jp_add_2":"小山上内河原町"},"6038171":{"post_code":"6038171","prefecture":"KYOTO FU","city":"KYOTO SHI KITA KU","town":"KOYAMA KAMIHATSUNECHO","perfecture_jp":"京都府","jp_add_1":"京都市北区","jp_add_2":"小山上初音町"},"6038121":{"post_code":"6038121","prefecture":"KYOTO FU","city":"KYOTO SHI KITA KU","town":"KOYAMA KAMIHANANOKICHO","perfecture_jp":"京都府","jp_add_1":"京都市北区","jp_add_2":"小山上花ノ木町"},"6038143":{"post_code":"6038143","prefecture":"KYOTO FU","city":"KYOTO SHI KITA KU","town":"KOYAMA KAMIFUSACHO","perfecture_jp":"京都府","jp_add_1":"京都市北区","jp_add_2":"小山上総町"},"6038161":{"post_code":"6038161","prefecture":"KYOTO FU","city":"KYOTO SHI KITA KU","town":"KOYAMA KITAONOCHO","perfecture_jp":"京都府","jp_add_1":"京都市北区","jp_add_2":"小山北大野町"},"6038142":{"post_code":"6038142","prefecture":"KYOTO FU","city":"KYOTO SHI KITA KU","town":"KOYAMA KITAKAMIFUSACHO","perfecture_jp":"京都府","jp_add_1":"京都市北区","jp_add_2":"小山北上総町"},"6038103":{"post_code":"6038103","prefecture":"KYOTO FU","city":"KYOTO SHI KITA KU","town":"KOYAMA KITAGENICHO","perfecture_jp":"京都府","jp_add_1":"京都市北区","jp_add_2":"小山北玄以町"},"6038124":{"post_code":"6038124","prefecture":"KYOTO FU","city":"KYOTO SHI KITA KU","town":"KOYAMA SHIMOITAKURACHO","perfecture_jp":"京都府","jp_add_1":"京都市北区","jp_add_2":"小山下板倉町"},"6038132":{"post_code":"6038132","prefecture":"KYOTO FU","city":"KYOTO SHI KITA KU","town":"KOYAMA SHIMOCHIKAWARACHO","perfecture_jp":"京都府","jp_add_1":"京都市北区","jp_add_2":"小山下内河原町"},"6038173":{"post_code":"6038173","prefecture":"KYOTO FU","city":"KYOTO SHI KITA KU","town":"KOYAMA SHIMOHATSUNECHO","perfecture_jp":"京都府","jp_add_1":"京都市北区","jp_add_2":"小山下初音町"},"6038123":{"post_code":"6038123","prefecture":"KYOTO FU","city":"KYOTO SHI KITA KU","town":"KOYAMA SHIMOHANANOKICHO","perfecture_jp":"京都府","jp_add_1":"京都市北区","jp_add_2":"小山下花ノ木町"},"6038151":{"post_code":"6038151","prefecture":"KYOTO FU","city":"KYOTO SHI KITA KU","town":"KOYAMA SHIMOFUSACHO","perfecture_jp":"京都府","jp_add_1":"京都市北区","jp_add_2":"小山下総町"},"6038156":{"post_code":"6038156","prefecture":"KYOTO FU","city":"KYOTO SHI KITA KU","town":"KOYAMA NAKAMIZOCHO","perfecture_jp":"京都府","jp_add_1":"京都市北区","jp_add_2":"小山中溝町"},"6038167":{"post_code":"6038167","prefecture":"KYOTO FU","city":"KYOTO SHI KITA KU","town":"KOYAMA NISHIONOCHO","perfecture_jp":"京都府","jp_add_1":"京都市北区","jp_add_2":"小山西大野町"},"6038141":{"post_code":"6038141","prefecture":"KYOTO FU","city":"KYOTO SHI KITA KU","town":"KOYAMA NISHIKAMIFUSACHO","perfecture_jp":"京都府","jp_add_1":"京都市北区","jp_add_2":"小山西上総町"},"6038105":{"post_code":"6038105","prefecture":"KYOTO FU","city":"KYOTO SHI KITA KU","town":"KOYAMA NISHIGENICHO","perfecture_jp":"京都府","jp_add_1":"京都市北区","jp_add_2":"小山西玄以町"},"6038148":{"post_code":"6038148","prefecture":"KYOTO FU","city":"KYOTO SHI KITA KU","town":"KOYAMA NISHIHANAIKECHO","perfecture_jp":"京都府","jp_add_1":"京都市北区","jp_add_2":"小山西花池町"},"6038113":{"post_code":"6038113","prefecture":"KYOTO FU","city":"KYOTO SHI KITA KU","town":"KOYAMA NISHIMOTOMACHI","perfecture_jp":"京都府","jp_add_1":"京都市北区","jp_add_2":"小山西元町"},"6038172":{"post_code":"6038172","prefecture":"KYOTO FU","city":"KYOTO SHI KITA KU","town":"KOYAMA HATSUNECHO","perfecture_jp":"京都府","jp_add_1":"京都市北区","jp_add_2":"小山初音町"},"6038122":{"post_code":"6038122","prefecture":"KYOTO FU","city":"KYOTO SHI KITA KU","town":"KOYAMA HANANOKICHO","perfecture_jp":"京都府","jp_add_1":"京都市北区","jp_add_2":"小山花ノ木町"},"6038162":{"post_code":"6038162","prefecture":"KYOTO FU","city":"KYOTO SHI KITA KU","town":"KOYAMA HIGASHIONOCHO","perfecture_jp":"京都府","jp_add_1":"京都市北区","jp_add_2":"小山東大野町"},"6038104":{"post_code":"6038104","prefecture":"KYOTO FU","city":"KYOTO SHI KITA KU","town":"KOYAMA HIGASHIGENICHO","perfecture_jp":"京都府","jp_add_1":"京都市北区","jp_add_2":"小山東玄以町"},"6038144":{"post_code":"6038144","prefecture":"KYOTO FU","city":"KYOTO SHI KITA KU","town":"KOYAMA HIGASHIHANAIKECHO","perfecture_jp":"京都府","jp_add_1":"京都市北区","jp_add_2":"小山東花池町"},"6038111":{"post_code":"6038111","prefecture":"KYOTO FU","city":"KYOTO SHI KITA KU","town":"KOYAMA HIGASHIMOTOMACHI","perfecture_jp":"京都府","jp_add_1":"京都市北区","jp_add_2":"小山東元町"},"6038145":{"post_code":"6038145","prefecture":"KYOTO FU","city":"KYOTO SHI KITA KU","town":"KOYAMA HORIIKECHO","perfecture_jp":"京都府","jp_add_1":"京都市北区","jp_add_2":"小山堀池町"},"6038163":{"post_code":"6038163","prefecture":"KYOTO FU","city":"KYOTO SHI KITA KU","town":"KOYAMA MINAMIONOCHO","perfecture_jp":"京都府","jp_add_1":"京都市北区","jp_add_2":"小山南大野町"},"6038149":{"post_code":"6038149","prefecture":"KYOTO FU","city":"KYOTO SHI KITA KU","town":"KOYAMA MINAMIKAMIFUSACHO","perfecture_jp":"京都府","jp_add_1":"京都市北区","jp_add_2":"小山南上総町"},"6038112":{"post_code":"6038112","prefecture":"KYOTO FU","city":"KYOTO SHI KITA KU","town":"KOYAMA MOTOMACHI","perfecture_jp":"京都府","jp_add_1":"京都市北区","jp_add_2":"小山元町"},"6038152":{"post_code":"6038152","prefecture":"KYOTO FU","city":"KYOTO SHI KITA KU","town":"KOYAMACHO","perfecture_jp":"京都府","jp_add_1":"京都市北区","jp_add_2":"小山町"},"6038207":{"post_code":"6038207","prefecture":"KYOTO FU","city":"KYOTO SHI KITA KU","town":"SHICHIKU USHIWAKACHO","perfecture_jp":"京都府","jp_add_1":"京都市北区","jp_add_2":"紫竹牛若町"},"6038179":{"post_code":"6038179","prefecture":"KYOTO FU","city":"KYOTO SHI KITA KU","town":"SHICHIKU KAMIUMENOKICHO","perfecture_jp":"京都府","jp_add_1":"京都市北区","jp_add_2":"紫竹上梅ノ木町"},"6038117":{"post_code":"6038117","prefecture":"KYOTO FU","city":"KYOTO SHI KITA KU","town":"SHICHIKU KAMIKOSAICHO","perfecture_jp":"京都府","jp_add_1":"京都市北区","jp_add_2":"紫竹上高才町"},"6038423":{"post_code":"6038423","prefecture":"KYOTO FU","city":"KYOTO SHI KITA KU","town":"SHICHIKU KAMISHIBAMOTOCHO","perfecture_jp":"京都府","jp_add_1":"京都市北区","jp_add_2":"紫竹上芝本町"},"6038421":{"post_code":"6038421","prefecture":"KYOTO FU","city":"KYOTO SHI KITA KU","town":"SHICHIKU KAMISONOCHO","perfecture_jp":"京都府","jp_add_1":"京都市北区","jp_add_2":"紫竹上園生町"},"6038411":{"post_code":"6038411","prefecture":"KYOTO FU","city":"KYOTO SHI KITA KU","town":"SHICHIKU KAMITAKEDONOCHO","perfecture_jp":"京都府","jp_add_1":"京都市北区","jp_add_2":"紫竹上竹殿町"},"6038102":{"post_code":"6038102","prefecture":"KYOTO FU","city":"KYOTO SHI KITA KU","town":"SHICHIKU KAMINAGAMECHO","perfecture_jp":"京都府","jp_add_1":"京都市北区","jp_add_2":"紫竹上長目町"},"6038108":{"post_code":"6038108","prefecture":"KYOTO FU","city":"KYOTO SHI KITA KU","town":"SHICHIKU KAMINOKISHICHO","perfecture_jp":"京都府","jp_add_1":"京都市北区","jp_add_2":"紫竹上ノ岸町"},"6038101":{"post_code":"6038101","prefecture":"KYOTO FU","city":"KYOTO SHI KITA KU","town":"SHICHIKU KAMIHORIKAWACHO","perfecture_jp":"京都府","jp_add_1":"京都市北区","jp_add_2":"紫竹上堀川町"},"6038116":{"post_code":"6038116","prefecture":"KYOTO FU","city":"KYOTO SHI KITA KU","town":"SHICHIKU KAMIHOMMACHI","perfecture_jp":"京都府","jp_add_1":"京都市北区","jp_add_2":"紫竹上本町"},"6038427":{"post_code":"6038427","prefecture":"KYOTO FU","city":"KYOTO SHI KITA KU","town":"SHICHIKU KAMIMIDORICHO","perfecture_jp":"京都府","jp_add_1":"京都市北区","jp_add_2":"紫竹上緑町"},"6038433":{"post_code":"6038433","prefecture":"KYOTO FU","city":"KYOTO SHI KITA KU","town":"SHICHIKU KITAKURISUCHO","perfecture_jp":"京都府","jp_add_1":"京都市北区","jp_add_2":"紫竹北栗栖町"},"6038416":{"post_code":"6038416","prefecture":"KYOTO FU","city":"KYOTO SHI KITA KU","town":"SHICHIKU KITADAIMONCHO","perfecture_jp":"京都府","jp_add_1":"京都市北区","jp_add_2":"紫竹北大門町"},"6038435":{"post_code":"6038435","prefecture":"KYOTO FU","city":"KYOTO SHI KITA KU","town":"SHICHIKU KURISUCHO","perfecture_jp":"京都府","jp_add_1":"京都市北区","jp_add_2":"紫竹栗栖町"},"6038178":{"post_code":"6038178","prefecture":"KYOTO FU","city":"KYOTO SHI KITA KU","town":"SHICHIKU SHIMOMENOKICHO","perfecture_jp":"京都府","jp_add_1":"京都市北区","jp_add_2":"紫竹下梅ノ木町"},"6038114":{"post_code":"6038114","prefecture":"KYOTO FU","city":"KYOTO SHI KITA KU","town":"SHICHIKU SHIMOKOSAICHO","perfecture_jp":"京都府","jp_add_1":"京都市北区","jp_add_2":"紫竹下高才町"},"6038424":{"post_code":"6038424","prefecture":"KYOTO FU","city":"KYOTO SHI KITA KU","town":"SHICHIKU SHIMOSHIBAMOTOCHO","perfecture_jp":"京都府","jp_add_1":"京都市北区","jp_add_2":"紫竹下芝本町"},"6038422":{"post_code":"6038422","prefecture":"KYOTO FU","city":"KYOTO SHI KITA KU","town":"SHICHIKU SHIMOSONOCHO","perfecture_jp":"京都府","jp_add_1":"京都市北区","jp_add_2":"紫竹下園生町"},"6038412":{"post_code":"6038412","prefecture":"KYOTO FU","city":"KYOTO SHI KITA KU","town":"SHICHIKU SHIMOTAKEDONOCHO","perfecture_jp":"京都府","jp_add_1":"京都市北区","jp_add_2":"紫竹下竹殿町"},"6038106":{"post_code":"6038106","prefecture":"KYOTO FU","city":"KYOTO SHI KITA KU","town":"SHICHIKU SHIMONAGAMECHO","perfecture_jp":"京都府","jp_add_1":"京都市北区","jp_add_2":"紫竹下長目町"},"6038107":{"post_code":"6038107","prefecture":"KYOTO FU","city":"KYOTO SHI KITA KU","town":"SHICHIKU SHIMONOKISHICHO","perfecture_jp":"京都府","jp_add_1":"京都市北区","jp_add_2":"紫竹下ノ岸町"},"6038115":{"post_code":"6038115","prefecture":"KYOTO FU","city":"KYOTO SHI KITA KU","town":"SHICHIKU SHIMOHOMMACHI","perfecture_jp":"京都府","jp_add_1":"京都市北区","jp_add_2":"紫竹下本町"},"6038425":{"post_code":"6038425","prefecture":"KYOTO FU","city":"KYOTO SHI KITA KU","town":"SHICHIKU SHIMOMIDORICHO","perfecture_jp":"京都府","jp_add_1":"京都市北区","jp_add_2":"紫竹下緑町"},"6038206":{"post_code":"6038206","prefecture":"KYOTO FU","city":"KYOTO SHI KITA KU","town":"SHICHIKU SEINANCHO","perfecture_jp":"京都府","jp_add_1":"京都市北区","jp_add_2":"紫竹西南町"},"6038426":{"post_code":"6038426","prefecture":"KYOTO FU","city":"KYOTO SHI KITA KU","town":"SHICHIKU SEIHOKUCHO","perfecture_jp":"京都府","jp_add_1":"京都市北区","jp_add_2":"紫竹西北町"},"6038414":{"post_code":"6038414","prefecture":"KYOTO FU","city":"KYOTO SHI KITA KU","town":"SHICHIKU DAIMONCHO","perfecture_jp":"京都府","jp_add_1":"京都市北区","jp_add_2":"紫竹大門町"},"6038204":{"post_code":"6038204","prefecture":"KYOTO FU","city":"KYOTO SHI KITA KU","town":"SHICHIKU TAKANAWACHO","perfecture_jp":"京都府","jp_add_1":"京都市北区","jp_add_2":"紫竹高縄町"},"6038417":{"post_code":"6038417","prefecture":"KYOTO FU","city":"KYOTO SHI KITA KU","town":"SHICHIKU TAKEDONOCHO","perfecture_jp":"京都府","jp_add_1":"京都市北区","jp_add_2":"紫竹竹殿町"},"6038436":{"post_code":"6038436","prefecture":"KYOTO FU","city":"KYOTO SHI KITA KU","town":"SHICHIKU NISHIKURISUCHO","perfecture_jp":"京都府","jp_add_1":"京都市北区","jp_add_2":"紫竹西栗栖町"},"6038415":{"post_code":"6038415","prefecture":"KYOTO FU","city":"KYOTO SHI KITA KU","town":"SHICHIKU NISHIDAIMONCHO","perfecture_jp":"京都府","jp_add_1":"京都市北区","jp_add_2":"紫竹西大門町"},"6038205":{"post_code":"6038205","prefecture":"KYOTO FU","city":"KYOTO SHI KITA KU","town":"SHICHIKU NISHITAKANAWACHO","perfecture_jp":"京都府","jp_add_1":"京都市北区","jp_add_2":"紫竹西高縄町"},"6038443":{"post_code":"6038443","prefecture":"KYOTO FU","city":"KYOTO SHI KITA KU","town":"SHICHIKU NISHINOYAMACHO","perfecture_jp":"京都府","jp_add_1":"京都市北区","jp_add_2":"紫竹西野山町"},"6038442":{"post_code":"6038442","prefecture":"KYOTO FU","city":"KYOTO SHI KITA KU","town":"SHICHIKU NISHINOYAMAHIGASHIMACHI","perfecture_jp":"京都府","jp_add_1":"京都市北区","jp_add_2":"紫竹西野山東町"},"6038208":{"post_code":"6038208","prefecture":"KYOTO FU","city":"KYOTO SHI KITA KU","town":"SHICHIKU NISHIMOMONOMOTOCHO","perfecture_jp":"京都府","jp_add_1":"京都市北区","jp_add_2":"紫竹西桃ノ本町"},"6038434":{"post_code":"6038434","prefecture":"KYOTO FU","city":"KYOTO SHI KITA KU","town":"SHICHIKU HIGASHIKURISUCHO","perfecture_jp":"京都府","jp_add_1":"京都市北区","jp_add_2":"紫竹東栗栖町"},"6038413":{"post_code":"6038413","prefecture":"KYOTO FU","city":"KYOTO SHI KITA KU","town":"SHICHIKU HIGASHIDAIMONCHO","perfecture_jp":"京都府","jp_add_1":"京都市北区","jp_add_2":"紫竹東大門町"},"6038203":{"post_code":"6038203","prefecture":"KYOTO FU","city":"KYOTO SHI KITA KU","town":"SHICHIKU HIGASHITAKANAWACHO","perfecture_jp":"京都府","jp_add_1":"京都市北区","jp_add_2":"紫竹東高縄町"},"6038202":{"post_code":"6038202","prefecture":"KYOTO FU","city":"KYOTO SHI KITA KU","town":"SHICHIKU HIGASHIMOMONOMOTOCHO","perfecture_jp":"京都府","jp_add_1":"京都市北区","jp_add_2":"紫竹東桃ノ本町"},"6038201":{"post_code":"6038201","prefecture":"KYOTO FU","city":"KYOTO SHI KITA KU","town":"SHICHIKU MOMONOMOTOCHO","perfecture_jp":"京都府","jp_add_1":"京都市北区","jp_add_2":"紫竹桃ノ本町"},"6038139":{"post_code":"6038139","prefecture":"KYOTO FU","city":"KYOTO SHI KITA KU","town":"JOZENJIMONZENCHO","perfecture_jp":"京都府","jp_add_1":"京都市北区","jp_add_2":"上善寺門前町"},"6038146":{"post_code":"6038146","prefecture":"KYOTO FU","city":"KYOTO SHI KITA KU","town":"SHINGORYOGUCHICHO","perfecture_jp":"京都府","jp_add_1":"京都市北区","jp_add_2":"新御霊口町"},"6038336":{"post_code":"6038336","prefecture":"KYOTO FU","city":"KYOTO SHI KITA KU","town":"TAISHOGUN ICHIJOCHO","perfecture_jp":"京都府","jp_add_1":"京都市北区","jp_add_2":"大将軍一条町"},"6038332":{"post_code":"6038332","prefecture":"KYOTO FU","city":"KYOTO SHI KITA KU","town":"TAISHOGUN KAWABATACHO","perfecture_jp":"京都府","jp_add_1":"京都市北区","jp_add_2":"大将軍川端町"},"6038335":{"post_code":"6038335","prefecture":"KYOTO FU","city":"KYOTO SHI KITA KU","town":"TAISHOGUN SAKATACHO","perfecture_jp":"京都府","jp_add_1":"京都市北区","jp_add_2":"大将軍坂田町"},"6038334":{"post_code":"6038334","prefecture":"KYOTO FU","city":"KYOTO SHI KITA KU","town":"TAISHOGUN NISHITAKATSUKASACHO","perfecture_jp":"京都府","jp_add_1":"京都市北区","jp_add_2":"大将軍西鷹司町"},"6038331":{"post_code":"6038331","prefecture":"KYOTO FU","city":"KYOTO SHI KITA KU","town":"TAISHOGUN NISHIMACHI","perfecture_jp":"京都府","jp_add_1":"京都市北区","jp_add_2":"大将軍西町"},"6038333":{"post_code":"6038333","prefecture":"KYOTO FU","city":"KYOTO SHI KITA KU","town":"TAISHOGUN HIGASHITAKATSUKASACHO","perfecture_jp":"京都府","jp_add_1":"京都市北区","jp_add_2":"大将軍東鷹司町"},"6038337":{"post_code":"6038337","prefecture":"KYOTO FU","city":"KYOTO SHI KITA KU","town":"TAISHOGUN MINAMIICHIJOCHO","perfecture_jp":"京都府","jp_add_1":"京都市北区","jp_add_2":"大将軍南一条町"},"6038493":{"post_code":"6038493","prefecture":"KYOTO FU","city":"KYOTO SHI KITA KU","town":"TAKAGAMINE OTANICHO","perfecture_jp":"京都府","jp_add_1":"京都市北区","jp_add_2":"鷹峯大谷町"},"6038446":{"post_code":"6038446","prefecture":"KYOTO FU","city":"KYOTO SHI KITA KU","town":"TAKAGAMINE KAMINOCHO","perfecture_jp":"京都府","jp_add_1":"京都市北区","jp_add_2":"鷹峯上ノ町"},"6038468":{"post_code":"6038468","prefecture":"KYOTO FU","city":"KYOTO SHI KITA KU","town":"TAKAGAMINE KITATAKAGAMINECHO","perfecture_jp":"京都府","jp_add_1":"京都市北区","jp_add_2":"鷹峯北鷹峯町"},"6038447":{"post_code":"6038447","prefecture":"KYOTO FU","city":"KYOTO SHI KITA KU","town":"TAKAGAMINE KINOHATACHO","perfecture_jp":"京都府","jp_add_1":"京都市北区","jp_add_2":"鷹峯木ノ畑町"},"6038448":{"post_code":"6038448","prefecture":"KYOTO FU","city":"KYOTO SHI KITA KU","town":"TAKAGAMINE KYUDOICHO","perfecture_jp":"京都府","jp_add_1":"京都市北区","jp_add_2":"鷹峯旧土居町"},"6038464":{"post_code":"6038464","prefecture":"KYOTO FU","city":"KYOTO SHI KITA KU","town":"TAKAGAMINE KUROMONCHO","perfecture_jp":"京都府","jp_add_1":"京都市北区","jp_add_2":"鷹峯黒門町"},"6038466":{"post_code":"6038466","prefecture":"KYOTO FU","city":"KYOTO SHI KITA KU","town":"TAKAGAMINE KOETSUCHO","perfecture_jp":"京都府","jp_add_1":"京都市北区","jp_add_2":"鷹峯光悦町"},"6038469":{"post_code":"6038469","prefecture":"KYOTO FU","city":"KYOTO SHI KITA KU","town":"TAKAGAMINE SENZOKUCHO","perfecture_jp":"京都府","jp_add_1":"京都市北区","jp_add_2":"鷹峯千束町"},"6038465":{"post_code":"6038465","prefecture":"KYOTO FU","city":"KYOTO SHI KITA KU","town":"TAKAGAMINE TSUCHITENJOCHO","perfecture_jp":"京都府","jp_add_1":"京都市北区","jp_add_2":"鷹峯土天井町"},"6038492":{"post_code":"6038492","prefecture":"KYOTO FU","city":"KYOTO SHI KITA KU","town":"TAKAGAMINE DONONIWACHO","perfecture_jp":"京都府","jp_add_1":"京都市北区","jp_add_2":"鷹峯堂ノ庭町"},"6038445":{"post_code":"6038445","prefecture":"KYOTO FU","city":"KYOTO SHI KITA KU","town":"TAKAGAMINE FUJIBAYASHICHO","perfecture_jp":"京都府","jp_add_1":"京都市北区","jp_add_2":"鷹峯藤林町"},"6038491":{"post_code":"6038491","prefecture":"KYOTO FU","city":"KYOTO SHI KITA KU","town":"TAKAGAMINE HOTOKEDANI","perfecture_jp":"京都府","jp_add_1":"京都市北区","jp_add_2":"鷹峯仏谷"},"6038494":{"post_code":"6038494","prefecture":"KYOTO FU","city":"KYOTO SHI KITA KU","town":"TAKAGAMINE HORIKOSHICHO","perfecture_jp":"京都府","jp_add_1":"京都市北区","jp_add_2":"鷹峯堀越町"},"6038467":{"post_code":"6038467","prefecture":"KYOTO FU","city":"KYOTO SHI KITA KU","town":"TAKAGAMINE MINAMITAKAGAMINECHO","perfecture_jp":"京都府","jp_add_1":"京都市北区","jp_add_2":"鷹峯南鷹峯町"},"6038154":{"post_code":"6038154","prefecture":"KYOTO FU","city":"KYOTO SHI KITA KU","town":"CHOJO NISHIMACHI","perfecture_jp":"京都府","jp_add_1":"京都市北区","jp_add_2":"長乗西町"},"6038153":{"post_code":"6038153","prefecture":"KYOTO FU","city":"KYOTO SHI KITA KU","town":"CHOJO HIGASHIMACHI","perfecture_jp":"京都府","jp_add_1":"京都市北区","jp_add_2":"長乗東町"},"6038138":{"post_code":"6038138","prefecture":"KYOTO FU","city":"KYOTO SHI KITA KU","town":"TENNEIJIMONZENCHO","perfecture_jp":"京都府","jp_add_1":"京都市北区","jp_add_2":"天寧寺門前町"},"6038346":{"post_code":"6038346","prefecture":"KYOTO FU","city":"KYOTO SHI KITA KU","town":"TOJIIN KITAMACHI","perfecture_jp":"京都府","jp_add_1":"京都市北区","jp_add_2":"等持院北町"},"6038347":{"post_code":"6038347","prefecture":"KYOTO FU","city":"KYOTO SHI KITA KU","town":"TOJIIN NAKAMACHI","perfecture_jp":"京都府","jp_add_1":"京都市北区","jp_add_2":"等持院中町"},"6038354":{"post_code":"6038354","prefecture":"KYOTO FU","city":"KYOTO SHI KITA KU","town":"TOJIIN NISHIMACHI","perfecture_jp":"京都府","jp_add_1":"京都市北区","jp_add_2":"等持院西町"},"6038343":{"post_code":"6038343","prefecture":"KYOTO FU","city":"KYOTO SHI KITA KU","town":"TOJIIN HIGASHIMACHI","perfecture_jp":"京都府","jp_add_1":"京都市北区","jp_add_2":"等持院東町"},"6038344":{"post_code":"6038344","prefecture":"KYOTO FU","city":"KYOTO SHI KITA KU","town":"TOJIIN MINAMIMACHI","perfecture_jp":"京都府","jp_add_1":"京都市北区","jp_add_2":"等持院南町"},"6038804":{"post_code":"6038804","prefecture":"KYOTO FU","city":"KYOTO SHI KITA KU","town":"NISHIGAMO INOKUCHICHO","perfecture_jp":"京都府","jp_add_1":"京都市北区","jp_add_2":"西賀茂井ノ口町"},"6038842":{"post_code":"6038842","prefecture":"KYOTO FU","city":"KYOTO SHI KITA KU","town":"NISHIGAMO IMAHARACHO","perfecture_jp":"京都府","jp_add_1":"京都市北区","jp_add_2":"西賀茂今原町"},"6038828":{"post_code":"6038828","prefecture":"KYOTO FU","city":"KYOTO SHI KITA KU","town":"NISHIGAMO OKURICHO","perfecture_jp":"京都府","jp_add_1":"京都市北区","jp_add_2":"西賀茂大栗町"},"6038813":{"post_code":"6038813","prefecture":"KYOTO FU","city":"KYOTO SHI KITA KU","town":"NISHIGAMO ODOGUCHICHO","perfecture_jp":"京都府","jp_add_1":"京都市北区","jp_add_2":"西賀茂大道口町"},"6038844":{"post_code":"6038844","prefecture":"KYOTO FU","city":"KYOTO SHI KITA KU","town":"NISHIGAMO OBUKECHO","perfecture_jp":"京都府","jp_add_1":"京都市北区","jp_add_2":"西賀茂大深町"},"6038807":{"post_code":"6038807","prefecture":"KYOTO FU","city":"KYOTO SHI KITA KU","town":"NISHIGAMO KAERUGATANI","perfecture_jp":"京都府","jp_add_1":"京都市北区","jp_add_2":"西賀茂蛙ケ谷"},"6038821":{"post_code":"6038821","prefecture":"KYOTO FU","city":"KYOTO SHI KITA KU","town":"NISHIGAMO KAKINOKICHO","perfecture_jp":"京都府","jp_add_1":"京都市北区","jp_add_2":"西賀茂柿ノ木町"},"6038852":{"post_code":"6038852","prefecture":"KYOTO FU","city":"KYOTO SHI KITA KU","town":"NISHIGAMO KASAMATSU","perfecture_jp":"京都府","jp_add_1":"京都市北区","jp_add_2":"西賀茂笠松"},"6038805":{"post_code":"6038805","prefecture":"KYOTO FU","city":"KYOTO SHI KITA KU","town":"NISHIGAMO KANIGASAKACHO","perfecture_jp":"京都府","jp_add_1":"京都市北区","jp_add_2":"西賀茂蟹ケ坂町"},"6038822":{"post_code":"6038822","prefecture":"KYOTO FU","city":"KYOTO SHI KITA KU","town":"NISHIGAMO KANOSHITACHO","perfecture_jp":"京都府","jp_add_1":"京都市北区","jp_add_2":"西賀茂鹿ノ下町"},"6038802":{"post_code":"6038802","prefecture":"KYOTO FU","city":"KYOTO SHI KITA KU","town":"NISHIGAMO KAMISHODACHO","perfecture_jp":"京都府","jp_add_1":"京都市北区","jp_add_2":"西賀茂上庄田町"},"6038817":{"post_code":"6038817","prefecture":"KYOTO FU","city":"KYOTO SHI KITA KU","town":"NISHIGAMO KAWAKAMICHO","perfecture_jp":"京都府","jp_add_1":"京都市北区","jp_add_2":"西賀茂川上町"},"6038841":{"post_code":"6038841","prefecture":"KYOTO FU","city":"KYOTO SHI KITA KU","town":"NISHIGAMO KITAIMAHARACHO","perfecture_jp":"京都府","jp_add_1":"京都市北区","jp_add_2":"西賀茂北今原町"},"6038816":{"post_code":"6038816","prefecture":"KYOTO FU","city":"KYOTO SHI KITA KU","town":"NISHIGAMO KITAKAWAKAMICHO","perfecture_jp":"京都府","jp_add_1":"京都市北区","jp_add_2":"西賀茂北川上町"},"6038847":{"post_code":"6038847","prefecture":"KYOTO FU","city":"KYOTO SHI KITA KU","town":"NISHIGAMOKITACHINJUANCHO","perfecture_jp":"京都府","jp_add_1":"京都市北区","jp_add_2":"西賀茂北鎮守菴町"},"6038811":{"post_code":"6038811","prefecture":"KYOTO FU","city":"KYOTO SHI KITA KU","town":"NISHIGAMO KITAYAMANOMORICHO","perfecture_jp":"京都府","jp_add_1":"京都市北区","jp_add_2":"西賀茂北山ノ森町"},"6038801":{"post_code":"6038801","prefecture":"KYOTO FU","city":"KYOTO SHI KITA KU","town":"NISHIGAMO SHIMOSHODACHO","perfecture_jp":"京都府","jp_add_1":"京都市北区","jp_add_2":"西賀茂下庄田町"},"6038853":{"post_code":"6038853","prefecture":"KYOTO FU","city":"KYOTO SHI KITA KU","town":"NISHIGAMO SHIROYAMA","perfecture_jp":"京都府","jp_add_1":"京都市北区","jp_add_2":"西賀茂城山"},"6038836":{"post_code":"6038836","prefecture":"KYOTO FU","city":"KYOTO SHI KITA KU","town":"NISHIGAMO JINKOINCHO","perfecture_jp":"京都府","jp_add_1":"京都市北区","jp_add_2":"西賀茂神光院町"},"6038845":{"post_code":"6038845","prefecture":"KYOTO FU","city":"KYOTO SHI KITA KU","town":"NISHIGAMO SUMIYASHIROCHO","perfecture_jp":"京都府","jp_add_1":"京都市北区","jp_add_2":"西賀茂角社町"},"6038846":{"post_code":"6038846","prefecture":"KYOTO FU","city":"KYOTO SHI KITA KU","town":"NISHIGAMOCHINJUANCHO","perfecture_jp":"京都府","jp_add_1":"京都市北区","jp_add_2":"西賀茂鎮守菴町"},"6038815":{"post_code":"6038815","prefecture":"KYOTO FU","city":"KYOTO SHI KITA KU","town":"NISHIGAMO NAKAKAWAKAMICHO","perfecture_jp":"京都府","jp_add_1":"京都市北区","jp_add_2":"西賀茂中川上町"},"6038854":{"post_code":"6038854","prefecture":"KYOTO FU","city":"KYOTO SHI KITA KU","town":"NISHIGAMO NISHIHIMUROCHO","perfecture_jp":"京都府","jp_add_1":"京都市北区","jp_add_2":"西賀茂西氷室町"},"6038823":{"post_code":"6038823","prefecture":"KYOTO FU","city":"KYOTO SHI KITA KU","town":"NISHIGAMO HARINOKICHO","perfecture_jp":"京都府","jp_add_1":"京都市北区","jp_add_2":"西賀茂榿ノ木町"},"6038803":{"post_code":"6038803","prefecture":"KYOTO FU","city":"KYOTO SHI KITA KU","town":"NISHIGAMO HINOKUCHICHO","perfecture_jp":"京都府","jp_add_1":"京都市北区","jp_add_2":"西賀茂樋ノ口町"},"6038855":{"post_code":"6038855","prefecture":"KYOTO FU","city":"KYOTO SHI KITA KU","town":"NISHIGAMO HIMUROCHO","perfecture_jp":"京都府","jp_add_1":"京都市北区","jp_add_2":"西賀茂氷室町"},"6038848":{"post_code":"6038848","prefecture":"KYOTO FU","city":"KYOTO SHI KITA KU","town":"NISHIGAMO FUNEYAMA","perfecture_jp":"京都府","jp_add_1":"京都市北区","jp_add_2":"西賀茂船山"},"6038826":{"post_code":"6038826","prefecture":"KYOTO FU","city":"KYOTO SHI KITA KU","town":"NISHIGAMO BONOSHIROCHO","perfecture_jp":"京都府","jp_add_1":"京都市北区","jp_add_2":"西賀茂坊ノ後町"},"6038856":{"post_code":"6038856","prefecture":"KYOTO FU","city":"KYOTO SHI KITA KU","town":"NISHIGAMOHORAIDANI","perfecture_jp":"京都府","jp_add_1":"京都市北区","jp_add_2":"西賀茂蓬来谷"},"6038825":{"post_code":"6038825","prefecture":"KYOTO FU","city":"KYOTO SHI KITA KU","town":"NISHIGAMO MARUKAWACHO","perfecture_jp":"京都府","jp_add_1":"京都市北区","jp_add_2":"西賀茂丸川町"},"6038806":{"post_code":"6038806","prefecture":"KYOTO FU","city":"KYOTO SHI KITA KU","town":"NISHIGAMO MARUMINE","perfecture_jp":"京都府","jp_add_1":"京都市北区","jp_add_2":"西賀茂円峰"},"6038827":{"post_code":"6038827","prefecture":"KYOTO FU","city":"KYOTO SHI KITA KU","town":"NISHIGAMO MIZUGAKICHO","perfecture_jp":"京都府","jp_add_1":"京都市北区","jp_add_2":"西賀茂水垣町"},"6038843":{"post_code":"6038843","prefecture":"KYOTO FU","city":"KYOTO SHI KITA KU","town":"NISHIGAMO MINAMIIMAHARACHO","perfecture_jp":"京都府","jp_add_1":"京都市北区","jp_add_2":"西賀茂南今原町"},"6038824":{"post_code":"6038824","prefecture":"KYOTO FU","city":"KYOTO SHI KITA KU","town":"NISHIGAMO MINAMIOKURICHO","perfecture_jp":"京都府","jp_add_1":"京都市北区","jp_add_2":"西賀茂南大栗町"},"6038814":{"post_code":"6038814","prefecture":"KYOTO FU","city":"KYOTO SHI KITA KU","town":"NISHIGAMO MINAMIKAWAKAMICHO","perfecture_jp":"京都府","jp_add_1":"京都市北区","jp_add_2":"西賀茂南川上町"},"6038812":{"post_code":"6038812","prefecture":"KYOTO FU","city":"KYOTO SHI KITA KU","town":"NISHIGAMO YAMANOMORICHO","perfecture_jp":"京都府","jp_add_1":"京都市北区","jp_add_2":"西賀茂山ノ森町"},"6038851":{"post_code":"6038851","prefecture":"KYOTO FU","city":"KYOTO SHI KITA KU","town":"NISHIGAMO YARITOGIIWA","perfecture_jp":"京都府","jp_add_1":"京都市北区","jp_add_2":"西賀茂鑓磨岩"},"6038353":{"post_code":"6038353","prefecture":"KYOTO FU","city":"KYOTO SHI KITA KU","town":"HIRANO KAMIHATCHOYANAGICHO","perfecture_jp":"京都府","jp_add_1":"京都市北区","jp_add_2":"平野上八丁柳町"},"6038355":{"post_code":"6038355","prefecture":"KYOTO FU","city":"KYOTO SHI KITA KU","town":"HIRANO KAMIYANAGICHO","perfecture_jp":"京都府","jp_add_1":"京都市北区","jp_add_2":"平野上柳町"},"6038364":{"post_code":"6038364","prefecture":"KYOTO FU","city":"KYOTO SHI KITA KU","town":"HIRANO SAKURAGICHO","perfecture_jp":"京都府","jp_add_1":"京都市北区","jp_add_2":"平野桜木町"},"6038321":{"post_code":"6038321","prefecture":"KYOTO FU","city":"KYOTO SHI KITA KU","town":"HIRANO TORIIMAECHO","perfecture_jp":"京都府","jp_add_1":"京都市北区","jp_add_2":"平野鳥居前町"},"6038345":{"post_code":"6038345","prefecture":"KYOTO FU","city":"KYOTO SHI KITA KU","town":"HIRANO HATCHOYANAGICHO","perfecture_jp":"京都府","jp_add_1":"京都市北区","jp_add_2":"平野八丁柳町"},"6038356":{"post_code":"6038356","prefecture":"KYOTO FU","city":"KYOTO SHI KITA KU","town":"HIRANO HIGASHIYANAGICHO","perfecture_jp":"京都府","jp_add_1":"京都市北区","jp_add_2":"平野東柳町"},"6038352":{"post_code":"6038352","prefecture":"KYOTO FU","city":"KYOTO SHI KITA KU","town":"HIRANO MIYAKITACHO","perfecture_jp":"京都府","jp_add_1":"京都市北区","jp_add_2":"平野宮北町"},"6038365":{"post_code":"6038365","prefecture":"KYOTO FU","city":"KYOTO SHI KITA KU","town":"HIRANO MIYAJIKICHO","perfecture_jp":"京都府","jp_add_1":"京都市北区","jp_add_2":"平野宮敷町"},"6038357":{"post_code":"6038357","prefecture":"KYOTO FU","city":"KYOTO SHI KITA KU","town":"HIRANO MIYANISHICHO","perfecture_jp":"京都府","jp_add_1":"京都市北区","jp_add_2":"平野宮西町"},"6038322":{"post_code":"6038322","prefecture":"KYOTO FU","city":"KYOTO SHI KITA KU","town":"HIRANO MIYAMOTOCHO","perfecture_jp":"京都府","jp_add_1":"京都市北区","jp_add_2":"平野宮本町"},"6038243":{"post_code":"6038243","prefecture":"KYOTO FU","city":"KYOTO SHI KITA KU","town":"MURASAKINO IMAMIYACHO","perfecture_jp":"京都府","jp_add_1":"京都市北区","jp_add_2":"紫野今宮町"},"6038242":{"post_code":"6038242","prefecture":"KYOTO FU","city":"KYOTO SHI KITA KU","town":"MURASAKINO UENOCHO","perfecture_jp":"京都府","jp_add_1":"京都市北区","jp_add_2":"紫野上野町"},"6038214":{"post_code":"6038214","prefecture":"KYOTO FU","city":"KYOTO SHI KITA KU","town":"MURASAKINO UNRININCHO","perfecture_jp":"京都府","jp_add_1":"京都市北区","jp_add_2":"紫野雲林院町"},"6038311":{"post_code":"6038311","prefecture":"KYOTO FU","city":"KYOTO SHI KITA KU","town":"MURASAKINO KAMIKASHIWANOCHO","perfecture_jp":"京都府","jp_add_1":"京都市北区","jp_add_2":"紫野上柏野町"},"6038166":{"post_code":"6038166","prefecture":"KYOTO FU","city":"KYOTO SHI KITA KU","town":"MURASAKINO KAMIGOSHODENCHO","perfecture_jp":"京都府","jp_add_1":"京都市北区","jp_add_2":"紫野上御所田町"},"6038211":{"post_code":"6038211","prefecture":"KYOTO FU","city":"KYOTO SHI KITA KU","town":"MURASAKINO KAMISEKIRYUCHO","perfecture_jp":"京都府","jp_add_1":"京都市北区","jp_add_2":"紫野上石龍町"},"6038221":{"post_code":"6038221","prefecture":"KYOTO FU","city":"KYOTO SHI KITA KU","town":"MURASAKINO KAMITSUKIYAMACHO","perfecture_jp":"京都府","jp_add_1":"京都市北区","jp_add_2":"紫野上築山町"},"6038176":{"post_code":"6038176","prefecture":"KYOTO FU","city":"KYOTO SHI KITA KU","town":"MURASAKINO KAMITORIDACHO","perfecture_jp":"京都府","jp_add_1":"京都市北区","jp_add_2":"紫野上鳥田町"},"6038236":{"post_code":"6038236","prefecture":"KYOTO FU","city":"KYOTO SHI KITA KU","town":"MURASAKINO KAMIMIKOSHICHO","perfecture_jp":"京都府","jp_add_1":"京都市北区","jp_add_2":"紫野上御輿町"},"6038217":{"post_code":"6038217","prefecture":"KYOTO FU","city":"KYOTO SHI KITA KU","town":"MURASAKINO KAMIMONZENCHO","perfecture_jp":"京都府","jp_add_1":"京都市北区","jp_add_2":"紫野上門前町"},"6038177":{"post_code":"6038177","prefecture":"KYOTO FU","city":"KYOTO SHI KITA KU","town":"MURASAKINO KAMIYANAGICHO","perfecture_jp":"京都府","jp_add_1":"京都市北区","jp_add_2":"紫野上柳町"},"6038237":{"post_code":"6038237","prefecture":"KYOTO FU","city":"KYOTO SHI KITA KU","town":"MURASAKINO KAMIWAKAKUSACHO","perfecture_jp":"京都府","jp_add_1":"京都市北区","jp_add_2":"紫野上若草町"},"6038301":{"post_code":"6038301","prefecture":"KYOTO FU","city":"KYOTO SHI KITA KU","town":"MURASAKINO KITAHANANOBOCHO","perfecture_jp":"京都府","jp_add_1":"京都市北区","jp_add_2":"紫野北花ノ坊町"},"6038227":{"post_code":"6038227","prefecture":"KYOTO FU","city":"KYOTO SHI KITA KU","town":"MURASAKINO KITAFUNAOKACHO","perfecture_jp":"京都府","jp_add_1":"京都市北区","jp_add_2":"紫野北舟岡町"},"6038304":{"post_code":"6038304","prefecture":"KYOTO FU","city":"KYOTO SHI KITA KU","town":"MURASAKINO GONOECHO","perfecture_jp":"京都府","jp_add_1":"京都市北区","jp_add_2":"紫野郷ノ上町"},"6038313":{"post_code":"6038313","prefecture":"KYOTO FU","city":"KYOTO SHI KITA KU","town":"MURASAKINO SHIMOKASHIWANOCHO","perfecture_jp":"京都府","jp_add_1":"京都市北区","jp_add_2":"紫野下柏野町"},"6038213":{"post_code":"6038213","prefecture":"KYOTO FU","city":"KYOTO SHI KITA KU","town":"MURASAKINO SHIMOSEKIRYUCHO","perfecture_jp":"京都府","jp_add_1":"京都市北区","jp_add_2":"紫野下石龍町"},"6038222":{"post_code":"6038222","prefecture":"KYOTO FU","city":"KYOTO SHI KITA KU","town":"MURASAKINO SHIMOTSUKIYAMACHO","perfecture_jp":"京都府","jp_add_1":"京都市北区","jp_add_2":"紫野下築山町"},"6038175":{"post_code":"6038175","prefecture":"KYOTO FU","city":"KYOTO SHI KITA KU","town":"MURASAKINO SHIMOTORIDACHO","perfecture_jp":"京都府","jp_add_1":"京都市北区","jp_add_2":"紫野下鳥田町"},"6038235":{"post_code":"6038235","prefecture":"KYOTO FU","city":"KYOTO SHI KITA KU","town":"MURASAKINO SHIMOMIKOSHICHO","perfecture_jp":"京都府","jp_add_1":"京都市北区","jp_add_2":"紫野下御輿町"},"6038215":{"post_code":"6038215","prefecture":"KYOTO FU","city":"KYOTO SHI KITA KU","town":"MURASAKINO SHIMOMONZENCHO","perfecture_jp":"京都府","jp_add_1":"京都市北区","jp_add_2":"紫野下門前町"},"6038174":{"post_code":"6038174","prefecture":"KYOTO FU","city":"KYOTO SHI KITA KU","town":"MURASAKINO SHIMOYANAGICHO","perfecture_jp":"京都府","jp_add_1":"京都市北区","jp_add_2":"紫野下柳町"},"6038234":{"post_code":"6038234","prefecture":"KYOTO FU","city":"KYOTO SHI KITA KU","town":"MURASAKINO SHIMOWAKAKUSACHO","perfecture_jp":"京都府","jp_add_1":"京都市北区","jp_add_2":"紫野下若草町"},"6038303":{"post_code":"6038303","prefecture":"KYOTO FU","city":"KYOTO SHI KITA KU","town":"MURASAKINO JUNIBOCHO","perfecture_jp":"京都府","jp_add_1":"京都市北区","jp_add_2":"紫野十二坊町"},"6038212":{"post_code":"6038212","prefecture":"KYOTO FU","city":"KYOTO SHI KITA KU","town":"MURASAKINO SEKIRYUCHO","perfecture_jp":"京都府","jp_add_1":"京都市北区","jp_add_2":"紫野石龍町"},"6038247":{"post_code":"6038247","prefecture":"KYOTO FU","city":"KYOTO SHI KITA KU","town":"MURASAKINO SENDOCHO","perfecture_jp":"京都府","jp_add_1":"京都市北区","jp_add_2":"紫野泉堂町"},"6038231":{"post_code":"6038231","prefecture":"KYOTO FU","city":"KYOTO SHI KITA KU","town":"MURASAKINO DAITOKUJICHO","perfecture_jp":"京都府","jp_add_1":"京都市北区","jp_add_2":"紫野大徳寺町"},"6038312":{"post_code":"6038312","prefecture":"KYOTO FU","city":"KYOTO SHI KITA KU","town":"MURASAKINO NAKAKASHIWANOCHO","perfecture_jp":"京都府","jp_add_1":"京都市北区","jp_add_2":"紫野中柏野町"},"6038165":{"post_code":"6038165","prefecture":"KYOTO FU","city":"KYOTO SHI KITA KU","town":"MURASAKINO NISHIGOSHODENCHO","perfecture_jp":"京都府","jp_add_1":"京都市北区","jp_add_2":"紫野西御所田町"},"6038246":{"post_code":"6038246","prefecture":"KYOTO FU","city":"KYOTO SHI KITA KU","town":"MURASAKINO NISHISENDOCHO","perfecture_jp":"京都府","jp_add_1":"京都市北区","jp_add_2":"紫野西泉堂町"},"6038314":{"post_code":"6038314","prefecture":"KYOTO FU","city":"KYOTO SHI KITA KU","town":"MURASAKINO NISHIDOICHO","perfecture_jp":"京都府","jp_add_1":"京都市北区","jp_add_2":"紫野西土居町"},"6038233":{"post_code":"6038233","prefecture":"KYOTO FU","city":"KYOTO SHI KITA KU","town":"MURASAKINO NISHINOCHO","perfecture_jp":"京都府","jp_add_1":"京都市北区","jp_add_2":"紫野西野町"},"6038224":{"post_code":"6038224","prefecture":"KYOTO FU","city":"KYOTO SHI KITA KU","town":"MURASAKINO NISHIFUJINOMORICHO","perfecture_jp":"京都府","jp_add_1":"京都市北区","jp_add_2":"紫野西藤ノ森町"},"6038226":{"post_code":"6038226","prefecture":"KYOTO FU","city":"KYOTO SHI KITA KU","town":"MURASAKINO NISHIFUNAOKACHO","perfecture_jp":"京都府","jp_add_1":"京都市北区","jp_add_2":"紫野西舟岡町"},"6038245":{"post_code":"6038245","prefecture":"KYOTO FU","city":"KYOTO SHI KITA KU","town":"MURASAKINO NISHIRENDAINOCHO","perfecture_jp":"京都府","jp_add_1":"京都市北区","jp_add_2":"紫野西蓮台野町"},"6038302":{"post_code":"6038302","prefecture":"KYOTO FU","city":"KYOTO SHI KITA KU","town":"MURASAKINO HANANOBOCHO","perfecture_jp":"京都府","jp_add_1":"京都市北区","jp_add_2":"紫野花ノ坊町"},"6038164":{"post_code":"6038164","prefecture":"KYOTO FU","city":"KYOTO SHI KITA KU","town":"MURASAKINO HIGASHIGOSHODENCHO","perfecture_jp":"京都府","jp_add_1":"京都市北区","jp_add_2":"紫野東御所田町"},"6038241":{"post_code":"6038241","prefecture":"KYOTO FU","city":"KYOTO SHI KITA KU","town":"MURASAKINO HIGASHISENDOCHO","perfecture_jp":"京都府","jp_add_1":"京都市北区","jp_add_2":"紫野東泉堂町"},"6038232":{"post_code":"6038232","prefecture":"KYOTO FU","city":"KYOTO SHI KITA KU","town":"MURASAKINO HIGASHINOCHO","perfecture_jp":"京都府","jp_add_1":"京都市北区","jp_add_2":"紫野東野町"},"6038223":{"post_code":"6038223","prefecture":"KYOTO FU","city":"KYOTO SHI KITA KU","town":"MURASAKINO HIGASHIFUJINOMORICHO","perfecture_jp":"京都府","jp_add_1":"京都市北区","jp_add_2":"紫野東藤ノ森町"},"6038228":{"post_code":"6038228","prefecture":"KYOTO FU","city":"KYOTO SHI KITA KU","town":"MURASAKINO HIGASHIFUNAOKACHO","perfecture_jp":"京都府","jp_add_1":"京都市北区","jp_add_2":"紫野東舟岡町"},"6038244":{"post_code":"6038244","prefecture":"KYOTO FU","city":"KYOTO SHI KITA KU","town":"MURASAKINO HIGASHIRENDAINOCHO","perfecture_jp":"京都府","jp_add_1":"京都市北区","jp_add_2":"紫野東蓮台野町"},"6038305":{"post_code":"6038305","prefecture":"KYOTO FU","city":"KYOTO SHI KITA KU","town":"MURASAKINO MINAMIHANANOBOCHO","perfecture_jp":"京都府","jp_add_1":"京都市北区","jp_add_2":"紫野南花ノ坊町"},"6038225":{"post_code":"6038225","prefecture":"KYOTO FU","city":"KYOTO SHI KITA KU","town":"MURASAKINO MINAMIFUNAOKACHO","perfecture_jp":"京都府","jp_add_1":"京都市北区","jp_add_2":"紫野南舟岡町"},"6038158":{"post_code":"6038158","prefecture":"KYOTO FU","city":"KYOTO SHI KITA KU","town":"MURASAKINO MIYANISHICHO","perfecture_jp":"京都府","jp_add_1":"京都市北区","jp_add_2":"紫野宮西町"},"6038157":{"post_code":"6038157","prefecture":"KYOTO FU","city":"KYOTO SHI KITA KU","town":"MURASAKINO MIYAHIGASHICHO","perfecture_jp":"京都府","jp_add_1":"京都市北区","jp_add_2":"紫野宮東町"},"6038216":{"post_code":"6038216","prefecture":"KYOTO FU","city":"KYOTO SHI KITA KU","town":"MURASAKINO MONZENCHO","perfecture_jp":"京都府","jp_add_1":"京都市北区","jp_add_2":"紫野門前町"}}