{"6050000":{"post_code":"6050000","prefecture":"KYOTO FU","city":"KYOTO SHI HIGASHIYAMA KU","town":"IKANIKEISAIGANAIBAAI","perfecture_jp":"京都府","jp_add_1":"京都市東山区","jp_add_2":""},"6050856":{"post_code":"6050856","prefecture":"KYOTO FU","city":"KYOTO SHI HIGASHIYAMA KU","town":"ATARASHICHO","perfecture_jp":"京都府","jp_add_1":"京都市東山区","jp_add_2":"新シ町"},"6050051":{"post_code":"6050051","prefecture":"KYOTO FU","city":"KYOTO SHI HIGASHIYAMA KU","town":"AWATAGUCHI KAJICHO","perfecture_jp":"京都府","jp_add_1":"京都市東山区","jp_add_2":"粟田口鍛冶町"},"6050052":{"post_code":"6050052","prefecture":"KYOTO FU","city":"KYOTO SHI HIGASHIYAMA KU","town":"AWATAGUCHI KACHOCHO","perfecture_jp":"京都府","jp_add_1":"京都市東山区","jp_add_2":"粟田口華頂町"},"6050035":{"post_code":"6050035","prefecture":"KYOTO FU","city":"KYOTO SHI HIGASHIYAMA KU","town":"AWATAGUCHI SANJOBOCHO","perfecture_jp":"京都府","jp_add_1":"京都市東山区","jp_add_2":"粟田口三条坊町"},"6050848":{"post_code":"6050848","prefecture":"KYOTO FU","city":"KYOTO SHI HIGASHIYAMA KU","town":"IKEDONOCHO","perfecture_jp":"京都府","jp_add_1":"京都市東山区","jp_add_2":"池殿町"},"6050913":{"post_code":"6050913","prefecture":"KYOTO FU","city":"KYOTO SHI HIGASHIYAMA KU","town":"ISHIGAKIMACHI HIGASHIGAWA","perfecture_jp":"京都府","jp_add_1":"京都市東山区","jp_add_2":"石垣町東側"},"6050912":{"post_code":"6050912","prefecture":"KYOTO FU","city":"KYOTO SHI HIGASHIYAMA KU","town":"ISHIGAKIMACHI NISHIGAWA","perfecture_jp":"京都府","jp_add_1":"京都市東山区","jp_add_2":"石垣町西側"},"6050066":{"post_code":"6050066","prefecture":"KYOTO FU","city":"KYOTO SHI HIGASHIYAMA KU","town":"ISHIBASHICHO","perfecture_jp":"京都府","jp_add_1":"京都市東山区","jp_add_2":"石橋町"},"6050995":{"post_code":"6050995","prefecture":"KYOTO FU","city":"KYOTO SHI HIGASHIYAMA KU","town":"ICHINOHASHI NOMOTOCHO","perfecture_jp":"京都府","jp_add_1":"京都市東山区","jp_add_2":"一橋野本町"},"6050994":{"post_code":"6050994","prefecture":"KYOTO FU","city":"KYOTO SHI HIGASHIYAMA KU","town":"ICHINOHASHI MIYANOCHICHO","perfecture_jp":"京都府","jp_add_1":"京都市東山区","jp_add_2":"一橋宮ノ内町"},"6050804":{"post_code":"6050804","prefecture":"KYOTO FU","city":"KYOTO SHI HIGASHIYAMA KU","town":"IDECHO","perfecture_jp":"京都府","jp_add_1":"京都市東山区","jp_add_2":"井手町"},"6050068":{"post_code":"6050068","prefecture":"KYOTO FU","city":"KYOTO SHI HIGASHIYAMA KU","town":"INARICHO KITAGUMI","perfecture_jp":"京都府","jp_add_1":"京都市東山区","jp_add_2":"稲荷町北組"},"6050067":{"post_code":"6050067","prefecture":"KYOTO FU","city":"KYOTO SHI HIGASHIYAMA KU","town":"INARICHO MINAMIGUMI","perfecture_jp":"京都府","jp_add_1":"京都市東山区","jp_add_2":"稲荷町南組"},"6050924":{"post_code":"6050924","prefecture":"KYOTO FU","city":"KYOTO SHI HIGASHIYAMA KU","town":"IMAGUMANO AMIDAGAMINECHO","perfecture_jp":"京都府","jp_add_1":"京都市東山区","jp_add_2":"今熊野阿弥陀ケ峰町"},"6050965":{"post_code":"6050965","prefecture":"KYOTO FU","city":"KYOTO SHI HIGASHIYAMA KU","town":"IMAGUMANO IKEDACHO","perfecture_jp":"京都府","jp_add_1":"京都市東山区","jp_add_2":"今熊野池田町"},"6050956":{"post_code":"6050956","prefecture":"KYOTO FU","city":"KYOTO SHI HIGASHIYAMA KU","town":"IMAGUMANO UMEGATANICHO","perfecture_jp":"京都府","jp_add_1":"京都市東山区","jp_add_2":"今熊野梅ケ谷町"},"6050926":{"post_code":"6050926","prefecture":"KYOTO FU","city":"KYOTO SHI HIGASHIYAMA KU","town":"IMAGUMANO KITAHIYOSHICHO","perfecture_jp":"京都府","jp_add_1":"京都市東山区","jp_add_2":"今熊野北日吉町"},"6050954":{"post_code":"6050954","prefecture":"KYOTO FU","city":"KYOTO SHI HIGASHIYAMA KU","town":"IMAGUMANO KOMATSUYAMACHO","perfecture_jp":"京都府","jp_add_1":"京都市東山区","jp_add_2":"今熊野小松山町"},"6050957":{"post_code":"6050957","prefecture":"KYOTO FU","city":"KYOTO SHI HIGASHIYAMA KU","town":"IMAGUMANO SENZANCHO","perfecture_jp":"京都府","jp_add_1":"京都市東山区","jp_add_2":"今熊野泉山町"},"6050955":{"post_code":"6050955","prefecture":"KYOTO FU","city":"KYOTO SHI HIGASHIYAMA KU","town":"IMAGUMANO SOZANCHO","perfecture_jp":"京都府","jp_add_1":"京都市東山区","jp_add_2":"今熊野総山町"},"6050972":{"post_code":"6050972","prefecture":"KYOTO FU","city":"KYOTO SHI HIGASHIYAMA KU","town":"IMAGUMANO TSURUGINOMIYACHO","perfecture_jp":"京都府","jp_add_1":"京都市東山区","jp_add_2":"今熊野剣宮町"},"6050971":{"post_code":"6050971","prefecture":"KYOTO FU","city":"KYOTO SHI HIGASHIYAMA KU","town":"IMAGUMANO NAGINOMORICHO","perfecture_jp":"京都府","jp_add_1":"京都市東山区","jp_add_2":"今熊野椥ノ森町"},"6050925":{"post_code":"6050925","prefecture":"KYOTO FU","city":"KYOTO SHI HIGASHIYAMA KU","town":"IMAGUMANO HIYOSHICHO","perfecture_jp":"京都府","jp_add_1":"京都市東山区","jp_add_2":"今熊野日吉町"},"6050952":{"post_code":"6050952","prefecture":"KYOTO FU","city":"KYOTO SHI HIGASHIYAMA KU","town":"IMAGUMANO HOZOCHO","perfecture_jp":"京都府","jp_add_1":"京都市東山区","jp_add_2":"今熊野宝蔵町"},"6050978":{"post_code":"6050978","prefecture":"KYOTO FU","city":"KYOTO SHI HIGASHIYAMA KU","town":"IMAGUMANO HONDAYAMACHO","perfecture_jp":"京都府","jp_add_1":"京都市東山区","jp_add_2":"今熊野本多山町"},"6050979":{"post_code":"6050979","prefecture":"KYOTO FU","city":"KYOTO SHI HIGASHIYAMA KU","town":"IMAGUMANO MINAMIDANICHO","perfecture_jp":"京都府","jp_add_1":"京都市東山区","jp_add_2":"今熊野南谷町"},"6050953":{"post_code":"6050953","prefecture":"KYOTO FU","city":"KYOTO SHI HIGASHIYAMA KU","town":"IMAGUMANO MINAMIHIYOSHICHO","perfecture_jp":"京都府","jp_add_1":"京都市東山区","jp_add_2":"今熊野南日吉町"},"6050023":{"post_code":"6050023","prefecture":"KYOTO FU","city":"KYOTO SHI HIGASHIYAMA KU","town":"IMAKOJICHO","perfecture_jp":"京都府","jp_add_1":"京都市東山区","jp_add_2":"今小路町"},"6050042":{"post_code":"6050042","prefecture":"KYOTO FU","city":"KYOTO SHI HIGASHIYAMA KU","town":"IMAMICHICHO","perfecture_jp":"京都府","jp_add_1":"京都市東山区","jp_add_2":"今道町"},"6050852":{"post_code":"6050852","prefecture":"KYOTO FU","city":"KYOTO SHI HIGASHIYAMA KU","town":"UEDACHO","perfecture_jp":"京都府","jp_add_1":"京都市東山区","jp_add_2":"上田町"},"6050061":{"post_code":"6050061","prefecture":"KYOTO FU","city":"KYOTO SHI HIGASHIYAMA KU","town":"UMEMIYACHO","perfecture_jp":"京都府","jp_add_1":"京都市東山区","jp_add_2":"梅宮町"},"6050064":{"post_code":"6050064","prefecture":"KYOTO FU","city":"KYOTO SHI HIGASHIYAMA KU","town":"UMEMOTOCHO","perfecture_jp":"京都府","jp_add_1":"京都市東山区","jp_add_2":"梅本町"},"6050033":{"post_code":"6050033","prefecture":"KYOTO FU","city":"KYOTO SHI HIGASHIYAMA KU","town":"EBISUCHO","perfecture_jp":"京都府","jp_add_1":"京都市東山区","jp_add_2":"夷町"},"6050936":{"post_code":"6050936","prefecture":"KYOTO FU","city":"KYOTO SHI HIGASHIYAMA KU","town":"EBISUCHO MINAMIGUMI","perfecture_jp":"京都府","jp_add_1":"京都市東山区","jp_add_2":"蛭子町南組"},"6050917":{"post_code":"6050917","prefecture":"KYOTO FU","city":"KYOTO SHI HIGASHIYAMA KU","town":"EBISUCHO KITAGUMI","perfecture_jp":"京都府","jp_add_1":"京都市東山区","jp_add_2":"蛭子町北組"},"6050022":{"post_code":"6050022","prefecture":"KYOTO FU","city":"KYOTO SHI HIGASHIYAMA KU","town":"OIDECHO","perfecture_jp":"京都府","jp_add_1":"京都市東山区","jp_add_2":"大井手町"},"6050904":{"post_code":"6050904","prefecture":"KYOTO FU","city":"KYOTO SHI HIGASHIYAMA KU","town":"OSAKACHO","perfecture_jp":"京都府","jp_add_1":"京都市東山区","jp_add_2":"大阪町"},"6050009":{"post_code":"6050009","prefecture":"KYOTO FU","city":"KYOTO SHI HIGASHIYAMA KU","town":"OHASHICHO","perfecture_jp":"京都府","jp_add_1":"京都市東山区","jp_add_2":"大橋町"},"6050833":{"post_code":"6050833","prefecture":"KYOTO FU","city":"KYOTO SHI HIGASHIYAMA KU","town":"OTOWACHO","perfecture_jp":"京都府","jp_add_1":"京都市東山区","jp_add_2":"音羽町"},"6050909":{"post_code":"6050909","prefecture":"KYOTO FU","city":"KYOTO SHI HIGASHIYAMA KU","town":"KAGIYACHO","perfecture_jp":"京都府","jp_add_1":"京都市東山区","jp_add_2":"鍵屋町"},"6050843":{"post_code":"6050843","prefecture":"KYOTO FU","city":"KYOTO SHI HIGASHIYAMA KU","town":"KADOWAKICHO","perfecture_jp":"京都府","jp_add_1":"京都市東山区","jp_add_2":"門脇町"},"6050834":{"post_code":"6050834","prefecture":"KYOTO FU","city":"KYOTO SHI HIGASHIYAMA KU","town":"KANAYACHO","perfecture_jp":"京都府","jp_add_1":"京都市東山区","jp_add_2":"金屋町"},"6050875":{"post_code":"6050875","prefecture":"KYOTO FU","city":"KYOTO SHI HIGASHIYAMA KU","town":"KANEICHO","perfecture_jp":"京都府","jp_add_1":"京都市東山区","jp_add_2":"鐘鋳町"},"6050877":{"post_code":"6050877","prefecture":"KYOTO FU","city":"KYOTO SHI HIGASHIYAMA KU","town":"KAMIATARASHICHO","perfecture_jp":"京都府","jp_add_1":"京都市東山区","jp_add_2":"上新シ町"},"6050968":{"post_code":"6050968","prefecture":"KYOTO FU","city":"KYOTO SHI HIGASHIYAMA KU","town":"KAMIIKEDACHO","perfecture_jp":"京都府","jp_add_1":"京都市東山区","jp_add_2":"上池田町"},"6050927":{"post_code":"6050927","prefecture":"KYOTO FU","city":"KYOTO SHI HIGASHIYAMA KU","town":"KAMIUMACHO","perfecture_jp":"京都府","jp_add_1":"京都市東山区","jp_add_2":"上馬町"},"6050876":{"post_code":"6050876","prefecture":"KYOTO FU","city":"KYOTO SHI HIGASHIYAMA KU","town":"KAMIUMEYACHO","perfecture_jp":"京都府","jp_add_1":"京都市東山区","jp_add_2":"上梅屋町"},"6050916":{"post_code":"6050916","prefecture":"KYOTO FU","city":"KYOTO SHI HIGASHIYAMA KU","town":"KAMITORYOCHO","perfecture_jp":"京都府","jp_add_1":"京都市東山区","jp_add_2":"上棟梁町"},"6050822":{"post_code":"6050822","prefecture":"KYOTO FU","city":"KYOTO SHI HIGASHIYAMA KU","town":"KAMIBENTENCHO","perfecture_jp":"京都府","jp_add_1":"京都市東山区","jp_add_2":"上弁天町"},"6050991":{"post_code":"6050991","prefecture":"KYOTO FU","city":"KYOTO SHI HIGASHIYAMA KU","town":"KAMIHORITSUMECHO","perfecture_jp":"京都府","jp_add_1":"京都市東山区","jp_add_2":"上堀詰町"},"6050807":{"post_code":"6050807","prefecture":"KYOTO FU","city":"KYOTO SHI HIGASHIYAMA KU","town":"KAMIYANAGICHO","perfecture_jp":"京都府","jp_add_1":"京都市東山区","jp_add_2":"上柳町"},"6050803":{"post_code":"6050803","prefecture":"KYOTO FU","city":"KYOTO SHI HIGASHIYAMA KU","town":"KAMEICHO","perfecture_jp":"京都府","jp_add_1":"京都市東山区","jp_add_2":"亀井町"},"6050069":{"post_code":"6050069","prefecture":"KYOTO FU","city":"KYOTO SHI HIGASHIYAMA KU","town":"KARATOHANACHO","perfecture_jp":"京都府","jp_add_1":"京都市東山区","jp_add_2":"唐戸鼻町"},"6050076":{"post_code":"6050076","prefecture":"KYOTO FU","city":"KYOTO SHI HIGASHIYAMA KU","town":"KAWABATACHO","perfecture_jp":"京都府","jp_add_1":"京都市東山区","jp_add_2":"川端町"},"6050921":{"post_code":"6050921","prefecture":"KYOTO FU","city":"KYOTO SHI HIGASHIYAMA KU","town":"KAWARAYAKUCHO","perfecture_jp":"京都府","jp_add_1":"京都市東山区","jp_add_2":"瓦役町"},"6050074":{"post_code":"6050074","prefecture":"KYOTO FU","city":"KYOTO SHI HIGASHIYAMA KU","town":"GIOMMACHI MINAMIGAWA","perfecture_jp":"京都府","jp_add_1":"京都市東山区","jp_add_2":"祇園町南側"},"6050073":{"post_code":"6050073","prefecture":"KYOTO FU","city":"KYOTO SHI HIGASHIYAMA KU","town":"GIOMMACHI KITAGAWA","perfecture_jp":"京都府","jp_add_1":"京都市東山区","jp_add_2":"祇園町北側"},"6050014":{"post_code":"6050014","prefecture":"KYOTO FU","city":"KYOTO SHI HIGASHIYAMA KU","town":"KITAKINOMOTOCHO","perfecture_jp":"京都府","jp_add_1":"京都市東山区","jp_add_2":"北木之元町"},"6050815":{"post_code":"6050815","prefecture":"KYOTO FU","city":"KYOTO SHI HIGASHIYAMA KU","town":"KITAGOMONCHO","perfecture_jp":"京都府","jp_add_1":"京都市東山区","jp_add_2":"北御門町"},"6050918":{"post_code":"6050918","prefecture":"KYOTO FU","city":"KYOTO SHI HIGASHIYAMA KU","town":"KITATORYOCHO","perfecture_jp":"京都府","jp_add_1":"京都市東山区","jp_add_2":"北棟梁町"},"6050821":{"post_code":"6050821","prefecture":"KYOTO FU","city":"KYOTO SHI HIGASHIYAMA KU","town":"KIYOICHO","perfecture_jp":"京都府","jp_add_1":"京都市東山区","jp_add_2":"清井町"},"6050002":{"post_code":"6050002","prefecture":"KYOTO FU","city":"KYOTO SHI HIGASHIYAMA KU","town":"KYOGYOCHO","perfecture_jp":"京都府","jp_add_1":"京都市東山区","jp_add_2":"教業町"},"6050862":{"post_code":"6050862","prefecture":"KYOTO FU","city":"KYOTO SHI HIGASHIYAMA KU","town":"KIYOMIZU","perfecture_jp":"京都府","jp_add_1":"京都市東山区","jp_add_2":"清水"},"6050084":{"post_code":"6050084","prefecture":"KYOTO FU","city":"KYOTO SHI HIGASHIYAMA KU","town":"KIYOMOTOCHO","perfecture_jp":"京都府","jp_add_1":"京都市東山区","jp_add_2":"清本町"},"6050828":{"post_code":"6050828","prefecture":"KYOTO FU","city":"KYOTO SHI HIGASHIYAMA KU","town":"KINENCHO","perfecture_jp":"京都府","jp_add_1":"京都市東山区","jp_add_2":"金園町"},"6050857":{"post_code":"6050857","prefecture":"KYOTO FU","city":"KYOTO SHI HIGASHIYAMA KU","town":"KOZENCHO","perfecture_jp":"京都府","jp_add_1":"京都市東山区","jp_add_2":"興善町"},"6050007":{"post_code":"6050007","prefecture":"KYOTO FU","city":"KYOTO SHI HIGASHIYAMA KU","town":"GOKENCHO(YAMATOOJIDORISANJOSAGARU.Y","perfecture_jp":"京都府","jp_add_1":"京都市東山区","jp_add_2":"五軒町"},"6050036":{"post_code":"6050036","prefecture":"KYOTO FU","city":"KYOTO SHI HIGASHIYAMA KU","town":"SHIRAKAWASUJISANJOSAGARU)","perfecture_jp":"京都府","jp_add_1":"京都市東山区","jp_add_2":"五軒町"},"6050858":{"post_code":"6050858","prefecture":"KYOTO FU","city":"KYOTO SHI HIGASHIYAMA KU","town":"KOJIMACHO","perfecture_jp":"京都府","jp_add_1":"京都市東山区","jp_add_2":"小島町"},"6050846":{"post_code":"6050846","prefecture":"KYOTO FU","city":"KYOTO SHI HIGASHIYAMA KU","town":"GOJOHASHIHIGASHI","perfecture_jp":"京都府","jp_add_1":"京都市東山区","jp_add_2":"五条橋東"},"6050811":{"post_code":"6050811","prefecture":"KYOTO FU","city":"KYOTO SHI HIGASHIYAMA KU","town":"KOMATSUCHO","perfecture_jp":"京都府","jp_add_1":"京都市東山区","jp_add_2":"小松町"},"6050012":{"post_code":"6050012","prefecture":"KYOTO FU","city":"KYOTO SHI HIGASHIYAMA KU","town":"SAIKAISHICHO","perfecture_jp":"京都府","jp_add_1":"京都市東山区","jp_add_2":"西海子町"},"6050902":{"post_code":"6050902","prefecture":"KYOTO FU","city":"KYOTO SHI HIGASHIYAMA KU","town":"SAYAMACHI","perfecture_jp":"京都府","jp_add_1":"京都市東山区","jp_add_2":"鞘町"},"6050941":{"post_code":"6050941","prefecture":"KYOTO FU","city":"KYOTO SHI HIGASHIYAMA KU","town":"SANJUSANGENDOMAWARICHO","perfecture_jp":"京都府","jp_add_1":"京都市東山区","jp_add_2":"三十三間堂廻り町"},"6050005":{"post_code":"6050005","prefecture":"KYOTO FU","city":"KYOTO SHI HIGASHIYAMA KU","town":"SANCHOME","perfecture_jp":"京都府","jp_add_1":"京都市東山区","jp_add_2":"三町目"},"6050011":{"post_code":"6050011","prefecture":"KYOTO FU","city":"KYOTO SHI HIGASHIYAMA KU","town":"SHICHIKENCHO(SANJOOHASHIHIGASHI4-CH","perfecture_jp":"京都府","jp_add_1":"京都市東山区","jp_add_2":"七軒町"},"6050943":{"post_code":"6050943","prefecture":"KYOTO FU","city":"KYOTO SHI HIGASHIYAMA KU","town":"SHICHIKENCHO(YAMATOOJIDORI7-JOSAGAR","perfecture_jp":"京都府","jp_add_1":"京都市東山区","jp_add_2":"七軒町"},"6050871":{"post_code":"6050871","prefecture":"KYOTO FU","city":"KYOTO SHI HIGASHIYAMA KU","town":"JIHOINAMMACHI","perfecture_jp":"京都府","jp_add_1":"京都市東山区","jp_add_2":"慈法院庵町"},"6050914":{"post_code":"6050914","prefecture":"KYOTO FU","city":"KYOTO SHI HIGASHIYAMA KU","town":"SHIMOATARASHICHO","perfecture_jp":"京都府","jp_add_1":"京都市東山区","jp_add_2":"下新シ町"},"6050966":{"post_code":"6050966","prefecture":"KYOTO FU","city":"KYOTO SHI HIGASHIYAMA KU","town":"SHIMOIKEDACHO","perfecture_jp":"京都府","jp_add_1":"京都市東山区","jp_add_2":"下池田町"},"6050873":{"post_code":"6050873","prefecture":"KYOTO FU","city":"KYOTO SHI HIGASHIYAMA KU","town":"SHIMOMACHO","perfecture_jp":"京都府","jp_add_1":"京都市東山区","jp_add_2":"下馬町"},"6050915":{"post_code":"6050915","prefecture":"KYOTO FU","city":"KYOTO SHI HIGASHIYAMA KU","town":"SHIMOMEYACHO","perfecture_jp":"京都府","jp_add_1":"京都市東山区","jp_add_2":"下梅屋町"},"6050825":{"post_code":"6050825","prefecture":"KYOTO FU","city":"KYOTO SHI HIGASHIYAMA KU","town":"SHIMOKAWARACHO","perfecture_jp":"京都府","jp_add_1":"京都市東山区","jp_add_2":"下河原町"},"6050937":{"post_code":"6050937","prefecture":"KYOTO FU","city":"KYOTO SHI HIGASHIYAMA KU","town":"SHIMOTORYOCHO","perfecture_jp":"京都府","jp_add_1":"京都市東山区","jp_add_2":"下棟梁町"},"6050823":{"post_code":"6050823","prefecture":"KYOTO FU","city":"KYOTO SHI HIGASHIYAMA KU","town":"SHIMOBENTENCHO","perfecture_jp":"京都府","jp_add_1":"京都市東山区","jp_add_2":"下弁天町"},"6050992":{"post_code":"6050992","prefecture":"KYOTO FU","city":"KYOTO SHI HIGASHIYAMA KU","town":"SHIMOHORITSUMECHO","perfecture_jp":"京都府","jp_add_1":"京都市東山区","jp_add_2":"下堀詰町"},"6050808":{"post_code":"6050808","prefecture":"KYOTO FU","city":"KYOTO SHI HIGASHIYAMA KU","town":"SHIMOYANAGICHO","perfecture_jp":"京都府","jp_add_1":"京都市東山区","jp_add_2":"下柳町"},"6050903":{"post_code":"6050903","prefecture":"KYOTO FU","city":"KYOTO SHI HIGASHIYAMA KU","town":"SHONINCHO","perfecture_jp":"京都府","jp_add_1":"京都市東山区","jp_add_2":"上人町"},"6050031":{"post_code":"6050031","prefecture":"KYOTO FU","city":"KYOTO SHI HIGASHIYAMA KU","town":"JOHOJICHO","perfecture_jp":"京都府","jp_add_1":"京都市東山区","jp_add_2":"定法寺町"},"6050908":{"post_code":"6050908","prefecture":"KYOTO FU","city":"KYOTO SHI HIGASHIYAMA KU","town":"SHOMENCHO","perfecture_jp":"京都府","jp_add_1":"京都市東山区","jp_add_2":"正面町"},"6050865":{"post_code":"6050865","prefecture":"KYOTO FU","city":"KYOTO SHI HIGASHIYAMA KU","town":"SHIRAITOCHO","perfecture_jp":"京都府","jp_add_1":"京都市東山区","jp_add_2":"白糸町"},"6050962":{"post_code":"6050962","prefecture":"KYOTO FU","city":"KYOTO SHI HIGASHIYAMA KU","town":"SHINKAWARACHO HIGASHIGUMI","perfecture_jp":"京都府","jp_add_1":"京都市東山区","jp_add_2":"新瓦町東組"},"6050961":{"post_code":"6050961","prefecture":"KYOTO FU","city":"KYOTO SHI HIGASHIYAMA KU","town":"SHINKAWARACHO NISHIGUMI","perfecture_jp":"京都府","jp_add_1":"京都市東山区","jp_add_2":"新瓦町西組"},"6050006":{"post_code":"6050006","prefecture":"KYOTO FU","city":"KYOTO SHI HIGASHIYAMA KU","town":"SHINGOKENCHO","perfecture_jp":"京都府","jp_add_1":"京都市東山区","jp_add_2":"新五軒町"},"6050016":{"post_code":"6050016","prefecture":"KYOTO FU","city":"KYOTO SHI HIGASHIYAMA KU","town":"SHINNOCHO","perfecture_jp":"京都府","jp_add_1":"京都市東山区","jp_add_2":"進之町"},"6050085":{"post_code":"6050085","prefecture":"KYOTO FU","city":"KYOTO SHI HIGASHIYAMA KU","town":"SUEYOSHICHO","perfecture_jp":"京都府","jp_add_1":"京都市東山区","jp_add_2":"末吉町"},"6050901":{"post_code":"6050901","prefecture":"KYOTO FU","city":"KYOTO SHI HIGASHIYAMA KU","town":"SUJAKUCHO","perfecture_jp":"京都府","jp_add_1":"京都市東山区","jp_add_2":"朱雀町"},"6050923":{"post_code":"6050923","prefecture":"KYOTO FU","city":"KYOTO SHI HIGASHIYAMA KU","town":"SEIKANJI IKEDACHO","perfecture_jp":"京都府","jp_add_1":"京都市東山区","jp_add_2":"清閑寺池田町"},"6050922":{"post_code":"6050922","prefecture":"KYOTO FU","city":"KYOTO SHI HIGASHIYAMA KU","town":"SEIKANJI YAMANOCHICHO","perfecture_jp":"京都府","jp_add_1":"京都市東山区","jp_add_2":"清閑寺山ノ内町"},"6050861":{"post_code":"6050861","prefecture":"KYOTO FU","city":"KYOTO SHI HIGASHIYAMA KU","town":"SEIKANJI RYOZANCHO","perfecture_jp":"京都府","jp_add_1":"京都市東山区","jp_add_2":"清閑寺霊山町"},"6050021":{"post_code":"6050021","prefecture":"KYOTO FU","city":"KYOTO SHI HIGASHIYAMA KU","town":"SEKISENINCHO","perfecture_jp":"京都府","jp_add_1":"京都市東山区","jp_add_2":"石泉院町"},"6050974":{"post_code":"6050974","prefecture":"KYOTO FU","city":"KYOTO SHI HIGASHIYAMA KU","town":"SENNYUJI GOYONOTSUJICHO","perfecture_jp":"京都府","jp_add_1":"京都市東山区","jp_add_2":"泉涌寺五葉ノ辻町"},"6050975":{"post_code":"6050975","prefecture":"KYOTO FU","city":"KYOTO SHI HIGASHIYAMA KU","town":"SENNYUJI SUZUMEGAMORICHO","perfecture_jp":"京都府","jp_add_1":"京都市東山区","jp_add_2":"泉涌寺雀ケ森町"},"6050976":{"post_code":"6050976","prefecture":"KYOTO FU","city":"KYOTO SHI HIGASHIYAMA KU","town":"SENNYUJI TORINCHO","perfecture_jp":"京都府","jp_add_1":"京都市東山区","jp_add_2":"泉涌寺東林町"},"6050973":{"post_code":"6050973","prefecture":"KYOTO FU","city":"KYOTO SHI HIGASHIYAMA KU","town":"SENNYUJI MONZENCHO","perfecture_jp":"京都府","jp_add_1":"京都市東山区","jp_add_2":"泉涌寺門前町"},"6050977":{"post_code":"6050977","prefecture":"KYOTO FU","city":"KYOTO SHI HIGASHIYAMA KU","town":"SENNYUJI YAMANOCHICHO","perfecture_jp":"京都府","jp_add_1":"京都市東山区","jp_add_2":"泉涌寺山内町"},"6050008":{"post_code":"6050008","prefecture":"KYOTO FU","city":"KYOTO SHI HIGASHIYAMA KU","town":"DAIKOKUCHO(YAMATOOJI3-JOSAGARU)","perfecture_jp":"京都府","jp_add_1":"京都市東山区","jp_add_2":"大黒町"},"6050832":{"post_code":"6050832","prefecture":"KYOTO FU","city":"KYOTO SHI HIGASHIYAMA KU","town":"DAIKOKUCHO","perfecture_jp":"京都府","jp_add_1":"京都市東山区","jp_add_2":"大黒町"},"6050017":{"post_code":"6050017","prefecture":"KYOTO FU","city":"KYOTO SHI HIGASHIYAMA KU","town":"TAKABATAKECHO","perfecture_jp":"京都府","jp_add_1":"京都市東山区","jp_add_2":"高畑町"},"6050845":{"post_code":"6050845","prefecture":"KYOTO FU","city":"KYOTO SHI HIGASHIYAMA KU","town":"TAKEMURACHO","perfecture_jp":"京都府","jp_add_1":"京都市東山区","jp_add_2":"竹村町"},"6050018":{"post_code":"6050018","prefecture":"KYOTO FU","city":"KYOTO SHI HIGASHIYAMA KU","town":"TATSUMICHO","perfecture_jp":"京都府","jp_add_1":"京都市東山区","jp_add_2":"巽町"},"6050855":{"post_code":"6050855","prefecture":"KYOTO FU","city":"KYOTO SHI HIGASHIYAMA KU","town":"TATSUMICHO(HIGASHIOJIMATSUBARAAGARU","perfecture_jp":"京都府","jp_add_1":"京都市東山区","jp_add_2":"辰巳町"},"6050945":{"post_code":"6050945","prefecture":"KYOTO FU","city":"KYOTO SHI HIGASHIYAMA KU","town":"TATSUMICHO(YAMATOOJIDORI7-JOSAGARU2","perfecture_jp":"京都府","jp_add_1":"京都市東山区","jp_add_2":"辰巳町"},"6050835":{"post_code":"6050835","prefecture":"KYOTO FU","city":"KYOTO SHI HIGASHIYAMA KU","town":"TANAKACHO","perfecture_jp":"京都府","jp_add_1":"京都市東山区","jp_add_2":"田中町"},"6050045":{"post_code":"6050045","prefecture":"KYOTO FU","city":"KYOTO SHI HIGASHIYAMA KU","town":"TANIGAWACHO","perfecture_jp":"京都府","jp_add_1":"京都市東山区","jp_add_2":"谷川町"},"6050851":{"post_code":"6050851","prefecture":"KYOTO FU","city":"KYOTO SHI HIGASHIYAMA KU","town":"TAMAMIZUCHO","perfecture_jp":"京都府","jp_add_1":"京都市東山区","jp_add_2":"玉水町"},"6050844":{"post_code":"6050844","prefecture":"KYOTO FU","city":"KYOTO SHI HIGASHIYAMA KU","town":"TAMONCHO","perfecture_jp":"京都府","jp_add_1":"京都市東山区","jp_add_2":"多門町"},"6050931":{"post_code":"6050931","prefecture":"KYOTO FU","city":"KYOTO SHI HIGASHIYAMA KU","town":"CHAYACHO","perfecture_jp":"京都府","jp_add_1":"京都市東山区","jp_add_2":"茶屋町"},"6050854":{"post_code":"6050854","prefecture":"KYOTO FU","city":"KYOTO SHI HIGASHIYAMA KU","town":"TSUKINOWACHO","perfecture_jp":"京都府","jp_add_1":"京都市東山区","jp_add_2":"月輪町"},"6050829":{"post_code":"6050829","prefecture":"KYOTO FU","city":"KYOTO SHI HIGASHIYAMA KU","town":"TSUKIMICHO","perfecture_jp":"京都府","jp_add_1":"京都市東山区","jp_add_2":"月見町"},"6050025":{"post_code":"6050025","prefecture":"KYOTO FU","city":"KYOTO SHI HIGASHIYAMA KU","town":"TSUTSUMICHO","perfecture_jp":"京都府","jp_add_1":"京都市東山区","jp_add_2":"堤町"},"6050024":{"post_code":"6050024","prefecture":"KYOTO FU","city":"KYOTO SHI HIGASHIYAMA KU","town":"DOINOCHICHO","perfecture_jp":"京都府","jp_add_1":"京都市東山区","jp_add_2":"土居之内町"},"6050079":{"post_code":"6050079","prefecture":"KYOTO FU","city":"KYOTO SHI HIGASHIYAMA KU","town":"TOKIWACHO(YAMATOOJIDORI4-JOAGARU.KA","perfecture_jp":"京都府","jp_add_1":"京都市東山区","jp_add_2":"常盤町"},"6050874":{"post_code":"6050874","prefecture":"KYOTO FU","city":"KYOTO SHI HIGASHIYAMA KU","town":"TOKIWACHO","perfecture_jp":"京都府","jp_add_1":"京都市東山区","jp_add_2":"常盤町"},"6050078":{"post_code":"6050078","prefecture":"KYOTO FU","city":"KYOTO SHI HIGASHIYAMA KU","town":"TOMINAGACHO","perfecture_jp":"京都府","jp_add_1":"京都市東山区","jp_add_2":"富永町"},"6050905":{"post_code":"6050905","prefecture":"KYOTO FU","city":"KYOTO SHI HIGASHIYAMA KU","town":"TOYORACHO","perfecture_jp":"京都府","jp_add_1":"京都市東山区","jp_add_2":"豊浦町"},"6050034":{"post_code":"6050034","prefecture":"KYOTO FU","city":"KYOTO SHI HIGASHIYAMA KU","town":"NAKANOCHO","perfecture_jp":"京都府","jp_add_1":"京都市東山区","jp_add_2":"中之町"},"6050075":{"post_code":"6050075","prefecture":"KYOTO FU","city":"KYOTO SHI HIGASHIYAMA KU","town":"NAKANOCHO(4-JODORIYAMATOOJINISHIIRU","perfecture_jp":"京都府","jp_add_1":"京都市東山区","jp_add_2":"中之町"},"6050082":{"post_code":"6050082","prefecture":"KYOTO FU","city":"KYOTO SHI HIGASHIYAMA KU","town":"NAKANOCHO(SHIMMONZENDORIYAMATOOJIHI","perfecture_jp":"京都府","jp_add_1":"京都市東山区","jp_add_2":"中之町"},"6050019":{"post_code":"6050019","prefecture":"KYOTO FU","city":"KYOTO SHI HIGASHIYAMA KU","town":"NAGAMITSUCHO","perfecture_jp":"京都府","jp_add_1":"京都市東山区","jp_add_2":"長光町"},"6050838":{"post_code":"6050838","prefecture":"KYOTO FU","city":"KYOTO SHI HIGASHIYAMA KU","town":"NISHIKAWARACHO","perfecture_jp":"京都府","jp_add_1":"京都市東山区","jp_add_2":"西川原町"},"6050043":{"post_code":"6050043","prefecture":"KYOTO FU","city":"KYOTO SHI HIGASHIYAMA KU","town":"NISHIKOMONOZACHO","perfecture_jp":"京都府","jp_add_1":"京都市東山区","jp_add_2":"西小物座町"},"6050816":{"post_code":"6050816","prefecture":"KYOTO FU","city":"KYOTO SHI HIGASHIYAMA KU","town":"NISHIGOMONCHO","perfecture_jp":"京都府","jp_add_1":"京都市東山区","jp_add_2":"西御門町"},"6050907":{"post_code":"6050907","prefecture":"KYOTO FU","city":"KYOTO SHI HIGASHIYAMA KU","town":"NISHITACHIBANACHO","perfecture_jp":"京都府","jp_add_1":"京都市東山区","jp_add_2":"西橘町"},"6050935":{"post_code":"6050935","prefecture":"KYOTO FU","city":"KYOTO SHI HIGASHIYAMA KU","town":"NISHITORYOCHO","perfecture_jp":"京都府","jp_add_1":"京都市東山区","jp_add_2":"西棟梁町"},"6050088":{"post_code":"6050088","prefecture":"KYOTO FU","city":"KYOTO SHI HIGASHIYAMA KU","town":"NISHINOCHO","perfecture_jp":"京都府","jp_add_1":"京都市東山区","jp_add_2":"西之町"},"6050947":{"post_code":"6050947","prefecture":"KYOTO FU","city":"KYOTO SHI HIGASHIYAMA KU","town":"NISHINOMONCHO","perfecture_jp":"京都府","jp_add_1":"京都市東山区","jp_add_2":"西之門町"},"6050037":{"post_code":"6050037","prefecture":"KYOTO FU","city":"KYOTO SHI HIGASHIYAMA KU","town":"NISHIMACHI","perfecture_jp":"京都府","jp_add_1":"京都市東山区","jp_add_2":"西町"},"6050077":{"post_code":"6050077","prefecture":"KYOTO FU","city":"KYOTO SHI HIGASHIYAMA KU","town":"NIJUIKKENCHO","perfecture_jp":"京都府","jp_add_1":"京都市東山区","jp_add_2":"廿一軒町"},"6050001":{"post_code":"6050001","prefecture":"KYOTO FU","city":"KYOTO SHI HIGASHIYAMA KU","town":"NICHOME","perfecture_jp":"京都府","jp_add_1":"京都市東山区","jp_add_2":"二町目"},"6050934":{"post_code":"6050934","prefecture":"KYOTO FU","city":"KYOTO SHI HIGASHIYAMA KU","town":"NUSHIYACHO","perfecture_jp":"京都府","jp_add_1":"京都市東山区","jp_add_2":"塗師屋町"},"6050863":{"post_code":"6050863","prefecture":"KYOTO FU","city":"KYOTO SHI HIGASHIYAMA KU","town":"BAIRINCHO","perfecture_jp":"京都府","jp_add_1":"京都市東山区","jp_add_2":"梅林町"},"6050805":{"post_code":"6050805","prefecture":"KYOTO FU","city":"KYOTO SHI HIGASHIYAMA KU","town":"HAKATACHO","perfecture_jp":"京都府","jp_add_1":"京都市東山区","jp_add_2":"博多町"},"6050083":{"post_code":"6050083","prefecture":"KYOTO FU","city":"KYOTO SHI HIGASHIYAMA KU","town":"HASHIMOTOCHO","perfecture_jp":"京都府","jp_add_1":"京都市東山区","jp_add_2":"橋本町"},"6050027":{"post_code":"6050027","prefecture":"KYOTO FU","city":"KYOTO SHI HIGASHIYAMA KU","town":"HACHIKENCHO","perfecture_jp":"京都府","jp_add_1":"京都市東山区","jp_add_2":"八軒町"},"6050029":{"post_code":"6050029","prefecture":"KYOTO FU","city":"KYOTO SHI HIGASHIYAMA KU","town":"HIGASHIANEKOJICHO","perfecture_jp":"京都府","jp_add_1":"京都市東山区","jp_add_2":"東姉小路町"},"6050872":{"post_code":"6050872","prefecture":"KYOTO FU","city":"KYOTO SHI HIGASHIYAMA KU","town":"HIGASHIOTOWACHO","perfecture_jp":"京都府","jp_add_1":"京都市東山区","jp_add_2":"東音羽町"},"6050839":{"post_code":"6050839","prefecture":"KYOTO FU","city":"KYOTO SHI HIGASHIYAMA KU","town":"HIGASHIKAWARACHO","perfecture_jp":"京都府","jp_add_1":"京都市東山区","jp_add_2":"東川原町"},"6050951":{"post_code":"6050951","prefecture":"KYOTO FU","city":"KYOTO SHI HIGASHIYAMA KU","town":"HIGASHIKAWARACHO","perfecture_jp":"京都府","jp_add_1":"京都市東山区","jp_add_2":"東瓦町"},"6050044":{"post_code":"6050044","prefecture":"KYOTO FU","city":"KYOTO SHI HIGASHIYAMA KU","town":"HIGASHIKOMONOZACHO","perfecture_jp":"京都府","jp_add_1":"京都市東山区","jp_add_2":"東小物座町"},"6050906":{"post_code":"6050906","prefecture":"KYOTO FU","city":"KYOTO SHI HIGASHIYAMA KU","town":"HIGASHITACHIBANACHO","perfecture_jp":"京都府","jp_add_1":"京都市東山区","jp_add_2":"東橘町"},"6050041":{"post_code":"6050041","prefecture":"KYOTO FU","city":"KYOTO SHI HIGASHIYAMA KU","town":"HIGASHICHO","perfecture_jp":"京都府","jp_add_1":"京都市東山区","jp_add_2":"東町"},"6050847":{"post_code":"6050847","prefecture":"KYOTO FU","city":"KYOTO SHI HIGASHIYAMA KU","town":"HIGASHIHASHIZUMECHO","perfecture_jp":"京都府","jp_add_1":"京都市東山区","jp_add_2":"東橋詰町"},"6050046":{"post_code":"6050046","prefecture":"KYOTO FU","city":"KYOTO SHI HIGASHIYAMA KU","town":"HIGASHIBUNKICHO","perfecture_jp":"京都府","jp_add_1":"京都市東山区","jp_add_2":"東分木町"},"6050812":{"post_code":"6050812","prefecture":"KYOTO FU","city":"KYOTO SHI HIGASHIYAMA KU","town":"BISHAMONCHO","perfecture_jp":"京都府","jp_add_1":"京都市東山区","jp_add_2":"毘沙門町"},"6050993":{"post_code":"6050993","prefecture":"KYOTO FU","city":"KYOTO SHI HIGASHIYAMA KU","town":"HIYOSHICHO","perfecture_jp":"京都府","jp_add_1":"京都市東山区","jp_add_2":"日吉町"},"6050985":{"post_code":"6050985","prefecture":"KYOTO FU","city":"KYOTO SHI HIGASHIYAMA KU","town":"FUKUINE KAKIMOTOCHO","perfecture_jp":"京都府","jp_add_1":"京都市東山区","jp_add_2":"福稲柿本町"},"6050983":{"post_code":"6050983","prefecture":"KYOTO FU","city":"KYOTO SHI HIGASHIYAMA KU","town":"FUKUINE KAMITAKAMATSUCHO","perfecture_jp":"京都府","jp_add_1":"京都市東山区","jp_add_2":"福稲上高松町"},"6050988":{"post_code":"6050988","prefecture":"KYOTO FU","city":"KYOTO SHI HIGASHIYAMA KU","town":"FUKUINE KAWARACHO","perfecture_jp":"京都府","jp_add_1":"京都市東山区","jp_add_2":"福稲川原町"},"6050986":{"post_code":"6050986","prefecture":"KYOTO FU","city":"KYOTO SHI HIGASHIYAMA KU","town":"FUKUINE KISHINOKAMICHO","perfecture_jp":"京都府","jp_add_1":"京都市東山区","jp_add_2":"福稲岸ノ上町"},"6050987":{"post_code":"6050987","prefecture":"KYOTO FU","city":"KYOTO SHI HIGASHIYAMA KU","town":"FUKUINE GOSHONOCHICHO","perfecture_jp":"京都府","jp_add_1":"京都市東山区","jp_add_2":"福稲御所ノ内町"},"6050982":{"post_code":"6050982","prefecture":"KYOTO FU","city":"KYOTO SHI HIGASHIYAMA KU","town":"FUKUINE SHIMOTAKAMATSUCHO","perfecture_jp":"京都府","jp_add_1":"京都市東山区","jp_add_2":"福稲下高松町"},"6050984":{"post_code":"6050984","prefecture":"KYOTO FU","city":"KYOTO SHI HIGASHIYAMA KU","town":"FUKUINE TAKAHARACHO","perfecture_jp":"京都府","jp_add_1":"京都市東山区","jp_add_2":"福稲高原町"},"6050911":{"post_code":"6050911","prefecture":"KYOTO FU","city":"KYOTO SHI HIGASHIYAMA KU","town":"FUKUROCHO","perfecture_jp":"京都府","jp_add_1":"京都市東山区","jp_add_2":"袋町"},"6050026":{"post_code":"6050026","prefecture":"KYOTO FU","city":"KYOTO SHI HIGASHIYAMA KU","town":"FURUKAWACHO","perfecture_jp":"京都府","jp_add_1":"京都市東山区","jp_add_2":"古川町"},"6050065":{"post_code":"6050065","prefecture":"KYOTO FU","city":"KYOTO SHI HIGASHIYAMA KU","town":"FURUNISHICHO","perfecture_jp":"京都府","jp_add_1":"京都市東山区","jp_add_2":"古西町"},"6050028":{"post_code":"6050028","prefecture":"KYOTO FU","city":"KYOTO SHI HIGASHIYAMA KU","town":"BUNKICHO","perfecture_jp":"京都府","jp_add_1":"京都市東山区","jp_add_2":"分木町"},"6050086":{"post_code":"6050086","prefecture":"KYOTO FU","city":"KYOTO SHI HIGASHIYAMA KU","town":"BENZAITENCHO","perfecture_jp":"京都府","jp_add_1":"京都市東山区","jp_add_2":"弁財天町"},"6050946":{"post_code":"6050946","prefecture":"KYOTO FU","city":"KYOTO SHI HIGASHIYAMA KU","town":"HOKUTOCHO","perfecture_jp":"京都府","jp_add_1":"京都市東山区","jp_add_2":"北斗町"},"6050853":{"post_code":"6050853","prefecture":"KYOTO FU","city":"KYOTO SHI HIGASHIYAMA KU","town":"HOSHINOCHO","perfecture_jp":"京都府","jp_add_1":"京都市東山区","jp_add_2":"星野町"},"6050038":{"post_code":"6050038","prefecture":"KYOTO FU","city":"KYOTO SHI HIGASHIYAMA KU","town":"HORIIKECHO","perfecture_jp":"京都府","jp_add_1":"京都市東山区","jp_add_2":"堀池町"},"6050967":{"post_code":"6050967","prefecture":"KYOTO FU","city":"KYOTO SHI HIGASHIYAMA KU","town":"HONIKEDACHO","perfecture_jp":"京都府","jp_add_1":"京都市東山区","jp_add_2":"本池田町"},"6050963":{"post_code":"6050963","prefecture":"KYOTO FU","city":"KYOTO SHI HIGASHIYAMA KU","town":"HONKAWARACHO","perfecture_jp":"京都府","jp_add_1":"京都市東山区","jp_add_2":"本瓦町"},"6050981":{"post_code":"6050981","prefecture":"KYOTO FU","city":"KYOTO SHI HIGASHIYAMA KU","town":"HOMMACHI","perfecture_jp":"京都府","jp_add_1":"京都市東山区","jp_add_2":"本町"},"6050989":{"post_code":"6050989","prefecture":"KYOTO FU","city":"KYOTO SHI HIGASHIYAMA KU","town":"HOMMACHISHIN","perfecture_jp":"京都府","jp_add_1":"京都市東山区","jp_add_2":"本町新"},"6050942":{"post_code":"6050942","prefecture":"KYOTO FU","city":"KYOTO SHI HIGASHIYAMA KU","town":"MAKITACHO","perfecture_jp":"京都府","jp_add_1":"京都市東山区","jp_add_2":"蒔田町"},"6050826":{"post_code":"6050826","prefecture":"KYOTO FU","city":"KYOTO SHI HIGASHIYAMA KU","town":"MASUYACHO","perfecture_jp":"京都府","jp_add_1":"京都市東山区","jp_add_2":"桝屋町"},"6050063":{"post_code":"6050063","prefecture":"KYOTO FU","city":"KYOTO SHI HIGASHIYAMA KU","town":"MATSUBARACHO","perfecture_jp":"京都府","jp_add_1":"京都市東山区","jp_add_2":"松原町"},"6050071":{"post_code":"6050071","prefecture":"KYOTO FU","city":"KYOTO SHI HIGASHIYAMA KU","town":"MARUYAMACHO","perfecture_jp":"京都府","jp_add_1":"京都市東山区","jp_add_2":"円山町"},"6050842":{"post_code":"6050842","prefecture":"KYOTO FU","city":"KYOTO SHI HIGASHIYAMA KU","town":"MITSUMORICHO","perfecture_jp":"京都府","jp_add_1":"京都市東山区","jp_add_2":"三盛町"},"6050938":{"post_code":"6050938","prefecture":"KYOTO FU","city":"KYOTO SHI HIGASHIYAMA KU","town":"MINAMIUMEYACHO","perfecture_jp":"京都府","jp_add_1":"京都市東山区","jp_add_2":"南梅屋町"},"6050964":{"post_code":"6050964","prefecture":"KYOTO FU","city":"KYOTO SHI HIGASHIYAMA KU","town":"MINAMIKAWARACHO","perfecture_jp":"京都府","jp_add_1":"京都市東山区","jp_add_2":"南瓦町"},"6050015":{"post_code":"6050015","prefecture":"KYOTO FU","city":"KYOTO SHI HIGASHIYAMA KU","town":"MINAMIKINOMOTOCHO","perfecture_jp":"京都府","jp_add_1":"京都市東山区","jp_add_2":"南木之元町"},"6050013":{"post_code":"6050013","prefecture":"KYOTO FU","city":"KYOTO SHI HIGASHIYAMA KU","town":"MINAMISAIKAISHICHO","perfecture_jp":"京都府","jp_add_1":"京都市東山区","jp_add_2":"南西海子町"},"6050944":{"post_code":"6050944","prefecture":"KYOTO FU","city":"KYOTO SHI HIGASHIYAMA KU","town":"MINAMITORYOCHO","perfecture_jp":"京都府","jp_add_1":"京都市東山区","jp_add_2":"南棟梁町"},"6050824":{"post_code":"6050824","prefecture":"KYOTO FU","city":"KYOTO SHI HIGASHIYAMA KU","town":"MINAMIMACHI","perfecture_jp":"京都府","jp_add_1":"京都市東山区","jp_add_2":"南町"},"6050801":{"post_code":"6050801","prefecture":"KYOTO FU","city":"KYOTO SHI HIGASHIYAMA KU","town":"MIYAGAWASUJI","perfecture_jp":"京都府","jp_add_1":"京都市東山区","jp_add_2":"宮川筋"},"6050932":{"post_code":"6050932","prefecture":"KYOTO FU","city":"KYOTO SHI HIGASHIYAMA KU","town":"MYOHOIMMAEKAWACHO","perfecture_jp":"京都府","jp_add_1":"京都市東山区","jp_add_2":"妙法院前側町"},"6050081":{"post_code":"6050081","prefecture":"KYOTO FU","city":"KYOTO SHI HIGASHIYAMA KU","town":"MIYOSHICHO","perfecture_jp":"京都府","jp_add_1":"京都市東山区","jp_add_2":"三吉町"},"6050089":{"post_code":"6050089","prefecture":"KYOTO FU","city":"KYOTO SHI HIGASHIYAMA KU","town":"MOTOMACHI","perfecture_jp":"京都府","jp_add_1":"京都市東山区","jp_add_2":"元町"},"6050087":{"post_code":"6050087","prefecture":"KYOTO FU","city":"KYOTO SHI HIGASHIYAMA KU","town":"MOTOYOSHICHO","perfecture_jp":"京都府","jp_add_1":"京都市東山区","jp_add_2":"元吉町"},"6050836":{"post_code":"6050836","prefecture":"KYOTO FU","city":"KYOTO SHI HIGASHIYAMA KU","town":"MORISHITACHO","perfecture_jp":"京都府","jp_add_1":"京都市東山区","jp_add_2":"森下町"},"6050814":{"post_code":"6050814","prefecture":"KYOTO FU","city":"KYOTO SHI HIGASHIYAMA KU","town":"YAKUSHICHO","perfecture_jp":"京都府","jp_add_1":"京都市東山区","jp_add_2":"薬師町"},"6050827":{"post_code":"6050827","prefecture":"KYOTO FU","city":"KYOTO SHI HIGASHIYAMA KU","town":"YASAKAKAMIMACHI","perfecture_jp":"京都府","jp_add_1":"京都市東山区","jp_add_2":"八坂上町"},"6050841":{"post_code":"6050841","prefecture":"KYOTO FU","city":"KYOTO SHI HIGASHIYAMA KU","town":"YAMAZAKICHO","perfecture_jp":"京都府","jp_add_1":"京都市東山区","jp_add_2":"山崎町"},"6050831":{"post_code":"6050831","prefecture":"KYOTO FU","city":"KYOTO SHI HIGASHIYAMA KU","town":"YAMASHIROCHO","perfecture_jp":"京都府","jp_add_1":"京都市東山区","jp_add_2":"山城町"},"6050837":{"post_code":"6050837","prefecture":"KYOTO FU","city":"KYOTO SHI HIGASHIYAMA KU","town":"YAMADACHO","perfecture_jp":"京都府","jp_add_1":"京都市東山区","jp_add_2":"山田町"},"6050933":{"post_code":"6050933","prefecture":"KYOTO FU","city":"KYOTO SHI HIGASHIYAMA KU","town":"YAMATOOJI","perfecture_jp":"京都府","jp_add_1":"京都市東山区","jp_add_2":"大和大路"},"6050802":{"post_code":"6050802","prefecture":"KYOTO FU","city":"KYOTO SHI HIGASHIYAMA KU","town":"YAMATOCHO","perfecture_jp":"京都府","jp_add_1":"京都市東山区","jp_add_2":"大和町"},"6050864":{"post_code":"6050864","prefecture":"KYOTO FU","city":"KYOTO SHI HIGASHIYAMA KU","town":"YUGYOMAECHO","perfecture_jp":"京都府","jp_add_1":"京都市東山区","jp_add_2":"遊行前町"},"6050032":{"post_code":"6050032","prefecture":"KYOTO FU","city":"KYOTO SHI HIGASHIYAMA KU","town":"YUNOKICHO","perfecture_jp":"京都府","jp_add_1":"京都市東山区","jp_add_2":"柚之木町"},"6050817":{"post_code":"6050817","prefecture":"KYOTO FU","city":"KYOTO SHI HIGASHIYAMA KU","town":"YUMIYACHO","perfecture_jp":"京都府","jp_add_1":"京都市東山区","jp_add_2":"弓矢町"},"6050878":{"post_code":"6050878","prefecture":"KYOTO FU","city":"KYOTO SHI HIGASHIYAMA KU","town":"YOSHINOCHO","perfecture_jp":"京都府","jp_add_1":"京都市東山区","jp_add_2":"芳野町"},"6050062":{"post_code":"6050062","prefecture":"KYOTO FU","city":"KYOTO SHI HIGASHIYAMA KU","town":"RINKACHO","perfecture_jp":"京都府","jp_add_1":"京都市東山区","jp_add_2":"林下町"},"6050813":{"post_code":"6050813","prefecture":"KYOTO FU","city":"KYOTO SHI HIGASHIYAMA KU","town":"ROKUROCHO","perfecture_jp":"京都府","jp_add_1":"京都市東山区","jp_add_2":"轆轤町"},"6050806":{"post_code":"6050806","prefecture":"KYOTO FU","city":"KYOTO SHI HIGASHIYAMA KU","town":"ROKKENCHO","perfecture_jp":"京都府","jp_add_1":"京都市東山区","jp_add_2":"六軒町"},"6050003":{"post_code":"6050003","prefecture":"KYOTO FU","city":"KYOTO SHI HIGASHIYAMA KU","town":"WAKATAKECHO","perfecture_jp":"京都府","jp_add_1":"京都市東山区","jp_add_2":"若竹町"},"6050004":{"post_code":"6050004","prefecture":"KYOTO FU","city":"KYOTO SHI HIGASHIYAMA KU","town":"WAKAMATSUCHO","perfecture_jp":"京都府","jp_add_1":"京都市東山区","jp_add_2":"若松町"},"6050072":{"post_code":"6050072","prefecture":"KYOTO FU","city":"KYOTO SHI HIGASHIYAMA KU","town":"WASHIOCHO","perfecture_jp":"京都府","jp_add_1":"京都市東山区","jp_add_2":"鷲尾町"}}