{"6070000":{"post_code":"6070000","prefecture":"KYOTO FU","city":"KYOTO SHI YAMASHINA KU","town":"IKANIKEISAIGANAIBAAI","perfecture_jp":"京都府","jp_add_1":"京都市山科区","jp_add_2":""},"6078003":{"post_code":"6078003","prefecture":"KYOTO FU","city":"KYOTO SHI YAMASHINA KU","town":"ANSHU INARIYAMACHO","perfecture_jp":"京都府","jp_add_1":"京都市山科区","jp_add_2":"安朱稲荷山町"},"6078018":{"post_code":"6078018","prefecture":"KYOTO FU","city":"KYOTO SHI YAMASHINA KU","town":"ANSHU OKUNODA","perfecture_jp":"京都府","jp_add_1":"京都市山科区","jp_add_2":"安朱奥ノ田"},"6078017":{"post_code":"6078017","prefecture":"KYOTO FU","city":"KYOTO SHI YAMASHINA KU","town":"ANSHU KAWAMUKAICHO","perfecture_jp":"京都府","jp_add_1":"京都市山科区","jp_add_2":"安朱川向町"},"6078009":{"post_code":"6078009","prefecture":"KYOTO FU","city":"KYOTO SHI YAMASHINA KU","town":"ANSHU KITAYASHIKICHO","perfecture_jp":"京都府","jp_add_1":"京都市山科区","jp_add_2":"安朱北屋敷町"},"6078012":{"post_code":"6078012","prefecture":"KYOTO FU","city":"KYOTO SHI YAMASHINA KU","town":"ANSHU SAJIKICHO","perfecture_jp":"京都府","jp_add_1":"京都市山科区","jp_add_2":"安朱桟敷町"},"6078005":{"post_code":"6078005","prefecture":"KYOTO FU","city":"KYOTO SHI YAMASHINA KU","town":"ANSHU DONOSHIROCHO","perfecture_jp":"京都府","jp_add_1":"京都市山科区","jp_add_2":"安朱堂ノ後町"},"6078013":{"post_code":"6078013","prefecture":"KYOTO FU","city":"KYOTO SHI YAMASHINA KU","town":"ANSHU NAKAKOJICHO","perfecture_jp":"京都府","jp_add_1":"京都市山科区","jp_add_2":"安朱中小路町"},"6078016":{"post_code":"6078016","prefecture":"KYOTO FU","city":"KYOTO SHI YAMASHINA KU","town":"ANSHU NAKAMIZOCHO","perfecture_jp":"京都府","jp_add_1":"京都市山科区","jp_add_2":"安朱中溝町"},"6078007":{"post_code":"6078007","prefecture":"KYOTO FU","city":"KYOTO SHI YAMASHINA KU","town":"ANSHU BABANONISHICHO","perfecture_jp":"京都府","jp_add_1":"京都市山科区","jp_add_2":"安朱馬場ノ西町"},"6078006":{"post_code":"6078006","prefecture":"KYOTO FU","city":"KYOTO SHI YAMASHINA KU","town":"ANSHU BABANOHIGASHICHO","perfecture_jp":"京都府","jp_add_1":"京都市山科区","jp_add_2":"安朱馬場ノ東町"},"6078008":{"post_code":"6078008","prefecture":"KYOTO FU","city":"KYOTO SHI YAMASHINA KU","town":"ANSHU HIGASHIKAIDOCHO","perfecture_jp":"京都府","jp_add_1":"京都市山科区","jp_add_2":"安朱東海道町"},"6078002":{"post_code":"6078002","prefecture":"KYOTO FU","city":"KYOTO SHI YAMASHINA KU","town":"ANSHU HIGASHIDANI","perfecture_jp":"京都府","jp_add_1":"京都市山科区","jp_add_2":"安朱東谷"},"6078001":{"post_code":"6078001","prefecture":"KYOTO FU","city":"KYOTO SHI YAMASHINA KU","town":"ANSHU BISHAMONDOCHO","perfecture_jp":"京都府","jp_add_1":"京都市山科区","jp_add_2":"安朱毘沙門堂町"},"6078011":{"post_code":"6078011","prefecture":"KYOTO FU","city":"KYOTO SHI YAMASHINA KU","town":"ANSHU MINAMIYASHIKICHO","perfecture_jp":"京都府","jp_add_1":"京都市山科区","jp_add_2":"安朱南屋敷町"},"6078004":{"post_code":"6078004","prefecture":"KYOTO FU","city":"KYOTO SHI YAMASHINA KU","town":"ANSHU YASHIKICHO","perfecture_jp":"京都府","jp_add_1":"京都市山科区","jp_add_2":"安朱屋敷町"},"6078015":{"post_code":"6078015","prefecture":"KYOTO FU","city":"KYOTO SHI YAMASHINA KU","town":"ANSHU YAMAKAWACHO","perfecture_jp":"京都府","jp_add_1":"京都市山科区","jp_add_2":"安朱山川町"},"6078014":{"post_code":"6078014","prefecture":"KYOTO FU","city":"KYOTO SHI YAMASHINA KU","town":"ANSHU YAMADA","perfecture_jp":"京都府","jp_add_1":"京都市山科区","jp_add_2":"安朱山田"},"6078441":{"post_code":"6078441","prefecture":"KYOTO FU","city":"KYOTO SHI YAMASHINA KU","town":"UENO GOSHONOCHICHO","perfecture_jp":"京都府","jp_add_1":"京都市山科区","jp_add_2":"上野御所ノ内町"},"6078443":{"post_code":"6078443","prefecture":"KYOTO FU","city":"KYOTO SHI YAMASHINA KU","town":"UENO TERAICHO","perfecture_jp":"京都府","jp_add_1":"京都市山科区","jp_add_2":"上野寺井町"},"6078442":{"post_code":"6078442","prefecture":"KYOTO FU","city":"KYOTO SHI YAMASHINA KU","town":"UENO YAMADA","perfecture_jp":"京都府","jp_add_1":"京都市山科区","jp_add_2":"上野山田"},"6078123":{"post_code":"6078123","prefecture":"KYOTO FU","city":"KYOTO SHI YAMASHINA KU","town":"OTSUKA OIWA","perfecture_jp":"京都府","jp_add_1":"京都市山科区","jp_add_2":"大塚大岩"},"6078134":{"post_code":"6078134","prefecture":"KYOTO FU","city":"KYOTO SHI YAMASHINA KU","town":"OTSUKA KITAMIZOCHO","perfecture_jp":"京都府","jp_add_1":"京都市山科区","jp_add_2":"大塚北溝町"},"6078122":{"post_code":"6078122","prefecture":"KYOTO FU","city":"KYOTO SHI YAMASHINA KU","town":"OTSUKA TAKAIWA","perfecture_jp":"京都府","jp_add_1":"京都市山科区","jp_add_2":"大塚高岩"},"6078136":{"post_code":"6078136","prefecture":"KYOTO FU","city":"KYOTO SHI YAMASHINA KU","town":"OTSUKA TANDA","perfecture_jp":"京都府","jp_add_1":"京都市山科区","jp_add_2":"大塚丹田"},"6078124":{"post_code":"6078124","prefecture":"KYOTO FU","city":"KYOTO SHI YAMASHINA KU","town":"OTSUKA DANNORA","perfecture_jp":"京都府","jp_add_1":"京都市山科区","jp_add_2":"大塚檀ノ浦"},"6078133":{"post_code":"6078133","prefecture":"KYOTO FU","city":"KYOTO SHI YAMASHINA KU","town":"OTSUKA NAKAMIZO","perfecture_jp":"京都府","jp_add_1":"京都市山科区","jp_add_2":"大塚中溝"},"6078125":{"post_code":"6078125","prefecture":"KYOTO FU","city":"KYOTO SHI YAMASHINA KU","town":"OTSUKA NISHIURACHO","perfecture_jp":"京都府","jp_add_1":"京都市山科区","jp_add_2":"大塚西浦町"},"6078135":{"post_code":"6078135","prefecture":"KYOTO FU","city":"KYOTO SHI YAMASHINA KU","town":"OTSUKA NOMIZOCHO","perfecture_jp":"京都府","jp_add_1":"京都市山科区","jp_add_2":"大塚野溝町"},"6078131":{"post_code":"6078131","prefecture":"KYOTO FU","city":"KYOTO SHI YAMASHINA KU","town":"OTSUKA MINAMIMIZOCHO","perfecture_jp":"京都府","jp_add_1":"京都市山科区","jp_add_2":"大塚南溝町"},"6078121":{"post_code":"6078121","prefecture":"KYOTO FU","city":"KYOTO SHI YAMASHINA KU","town":"OTSUKA MUKAIBATACHO","perfecture_jp":"京都府","jp_add_1":"京都市山科区","jp_add_2":"大塚向畑町"},"6078126":{"post_code":"6078126","prefecture":"KYOTO FU","city":"KYOTO SHI YAMASHINA KU","town":"OTSUKA MOTOYASHIKICHO","perfecture_jp":"京都府","jp_add_1":"京都市山科区","jp_add_2":"大塚元屋敷町"},"6078132":{"post_code":"6078132","prefecture":"KYOTO FU","city":"KYOTO SHI YAMASHINA KU","town":"OTSUKA MORICHO","perfecture_jp":"京都府","jp_add_1":"京都市山科区","jp_add_2":"大塚森町"},"6078187":{"post_code":"6078187","prefecture":"KYOTO FU","city":"KYOTO SHI YAMASHINA KU","town":"OYAKE ISHIGORICHO","perfecture_jp":"京都府","jp_add_1":"京都市山科区","jp_add_2":"大宅石郡町"},"6078172":{"post_code":"6078172","prefecture":"KYOTO FU","city":"KYOTO SHI YAMASHINA KU","town":"OYAKE IWAYADEN","perfecture_jp":"京都府","jp_add_1":"京都市山科区","jp_add_2":"大宅岩屋殿"},"6078181":{"post_code":"6078181","prefecture":"KYOTO FU","city":"KYOTO SHI YAMASHINA KU","town":"OYAKE UCHIAKECHO","perfecture_jp":"京都府","jp_add_1":"京都市山科区","jp_add_2":"大宅打明町"},"6078173":{"post_code":"6078173","prefecture":"KYOTO FU","city":"KYOTO SHI YAMASHINA KU","town":"OYAKE OKUYAMADA","perfecture_jp":"京都府","jp_add_1":"京都市山科区","jp_add_2":"大宅奥山田"},"6078191":{"post_code":"6078191","prefecture":"KYOTO FU","city":"KYOTO SHI YAMASHINA KU","town":"OYAKE KARASUDACHO","perfecture_jp":"京都府","jp_add_1":"京都市山科区","jp_add_2":"大宅烏田町"},"6078185":{"post_code":"6078185","prefecture":"KYOTO FU","city":"KYOTO SHI YAMASHINA KU","town":"OYAKE KANNOCHO","perfecture_jp":"京都府","jp_add_1":"京都市山科区","jp_add_2":"大宅神納町"},"6078184":{"post_code":"6078184","prefecture":"KYOTO FU","city":"KYOTO SHI YAMASHINA KU","town":"OYAKE KONOTSUJICHO","perfecture_jp":"京都府","jp_add_1":"京都市山科区","jp_add_2":"大宅甲ノ辻町"},"6078192":{"post_code":"6078192","prefecture":"KYOTO FU","city":"KYOTO SHI YAMASHINA KU","town":"OYAKE GOKUDENCHO","perfecture_jp":"京都府","jp_add_1":"京都市山科区","jp_add_2":"大宅御供田町"},"6078179":{"post_code":"6078179","prefecture":"KYOTO FU","city":"KYOTO SHI YAMASHINA KU","town":"OYAKE GOSHODENCHO","perfecture_jp":"京都府","jp_add_1":"京都市山科区","jp_add_2":"大宅御所田町"},"6078171":{"post_code":"6078171","prefecture":"KYOTO FU","city":"KYOTO SHI YAMASHINA KU","town":"OYAKE GOSHOYAMA","perfecture_jp":"京都府","jp_add_1":"京都市山科区","jp_add_2":"大宅御所山"},"6078178":{"post_code":"6078178","prefecture":"KYOTO FU","city":"KYOTO SHI YAMASHINA KU","town":"OYAKE GOTAMBATACHO","perfecture_jp":"京都府","jp_add_1":"京都市山科区","jp_add_2":"大宅五反畑町"},"6078182":{"post_code":"6078182","prefecture":"KYOTO FU","city":"KYOTO SHI YAMASHINA KU","town":"OYAKE SAKANOTSUJICHO","perfecture_jp":"京都府","jp_add_1":"京都市山科区","jp_add_2":"大宅坂ノ辻町"},"6078194":{"post_code":"6078194","prefecture":"KYOTO FU","city":"KYOTO SHI YAMASHINA KU","town":"OYAKE SAJIKI","perfecture_jp":"京都府","jp_add_1":"京都市山科区","jp_add_2":"大宅桟敷"},"6078193":{"post_code":"6078193","prefecture":"KYOTO FU","city":"KYOTO SHI YAMASHINA KU","town":"OYAKE SAWACHO","perfecture_jp":"京都府","jp_add_1":"京都市山科区","jp_add_2":"大宅沢町"},"6078188":{"post_code":"6078188","prefecture":"KYOTO FU","city":"KYOTO SHI YAMASHINA KU","town":"OYAKE SEKISHOCHO","perfecture_jp":"京都府","jp_add_1":"京都市山科区","jp_add_2":"大宅関生町"},"6078183":{"post_code":"6078183","prefecture":"KYOTO FU","city":"KYOTO SHI YAMASHINA KU","town":"OYAKE TSUJIWAKICHO","perfecture_jp":"京都府","jp_add_1":"京都市山科区","jp_add_2":"大宅辻脇町"},"6078174":{"post_code":"6078174","prefecture":"KYOTO FU","city":"KYOTO SHI YAMASHINA KU","town":"OYAKE TORIIWAKICHO","perfecture_jp":"京都府","jp_add_1":"京都市山科区","jp_add_2":"大宅鳥井脇町"},"6078176":{"post_code":"6078176","prefecture":"KYOTO FU","city":"KYOTO SHI YAMASHINA KU","town":"OYAKE NAKAKOJICHO","perfecture_jp":"京都府","jp_add_1":"京都市山科区","jp_add_2":"大宅中小路町"},"6078177":{"post_code":"6078177","prefecture":"KYOTO FU","city":"KYOTO SHI YAMASHINA KU","town":"OYAKE FURUKAIDOCHO","perfecture_jp":"京都府","jp_add_1":"京都市山科区","jp_add_2":"大宅古海道町"},"6078189":{"post_code":"6078189","prefecture":"KYOTO FU","city":"KYOTO SHI YAMASHINA KU","town":"OYAKE HOSODACHO","perfecture_jp":"京都府","jp_add_1":"京都市山科区","jp_add_2":"大宅細田町"},"6078170":{"post_code":"6078170","prefecture":"KYOTO FU","city":"KYOTO SHI YAMASHINA KU","town":"OYAKE MUKAIYAMA","perfecture_jp":"京都府","jp_add_1":"京都市山科区","jp_add_2":"大宅向山"},"6078175":{"post_code":"6078175","prefecture":"KYOTO FU","city":"KYOTO SHI YAMASHINA KU","town":"OYAKE YAMADA","perfecture_jp":"京都府","jp_add_1":"京都市山科区","jp_add_2":"大宅山田"},"6078186":{"post_code":"6078186","prefecture":"KYOTO FU","city":"KYOTO SHI YAMASHINA KU","town":"OYAKE WASENOCHICHO","perfecture_jp":"京都府","jp_add_1":"京都市山科区","jp_add_2":"大宅早稲ノ内町"},"6078072":{"post_code":"6078072","prefecture":"KYOTO FU","city":"KYOTO SHI YAMASHINA KU","town":"OTOWA ISEJUKUCHO","perfecture_jp":"京都府","jp_add_1":"京都市山科区","jp_add_2":"音羽伊勢宿町"},"6078068":{"post_code":"6078068","prefecture":"KYOTO FU","city":"KYOTO SHI YAMASHINA KU","town":"OTOWA INASHIBA","perfecture_jp":"京都府","jp_add_1":"京都市山科区","jp_add_2":"音羽稲芝"},"6078074":{"post_code":"6078074","prefecture":"KYOTO FU","city":"KYOTO SHI YAMASHINA KU","town":"OTOWA OTSUDECHO","perfecture_jp":"京都府","jp_add_1":"京都市山科区","jp_add_2":"音羽乙出町"},"6078061":{"post_code":"6078061","prefecture":"KYOTO FU","city":"KYOTO SHI YAMASHINA KU","town":"OTOWA KUSADACHO","perfecture_jp":"京都府","jp_add_1":"京都市山科区","jp_add_2":"音羽草田町"},"6078077":{"post_code":"6078077","prefecture":"KYOTO FU","city":"KYOTO SHI YAMASHINA KU","town":"OTOWA SAWACHO","perfecture_jp":"京都府","jp_add_1":"京都市山科区","jp_add_2":"音羽沢町"},"6078065":{"post_code":"6078065","prefecture":"KYOTO FU","city":"KYOTO SHI YAMASHINA KU","town":"OTOWA SANTOJI","perfecture_jp":"京都府","jp_add_1":"京都市山科区","jp_add_2":"音羽山等地"},"6078071":{"post_code":"6078071","prefecture":"KYOTO FU","city":"KYOTO SHI YAMASHINA KU","town":"OTOWA SEMBONCHO","perfecture_jp":"京都府","jp_add_1":"京都市山科区","jp_add_2":"音羽千本町"},"6078062":{"post_code":"6078062","prefecture":"KYOTO FU","city":"KYOTO SHI YAMASHINA KU","town":"OTOWA CHINJICHO","perfecture_jp":"京都府","jp_add_1":"京都市山科区","jp_add_2":"音羽珍事町"},"6078069":{"post_code":"6078069","prefecture":"KYOTO FU","city":"KYOTO SHI YAMASHINA KU","town":"OTOWA NAKASHIBACHO","perfecture_jp":"京都府","jp_add_1":"京都市山科区","jp_add_2":"音羽中芝町"},"6078073":{"post_code":"6078073","prefecture":"KYOTO FU","city":"KYOTO SHI YAMASHINA KU","town":"OTOWA NISHIBAYASHI","perfecture_jp":"京都府","jp_add_1":"京都市山科区","jp_add_2":"音羽西林"},"6078075":{"post_code":"6078075","prefecture":"KYOTO FU","city":"KYOTO SHI YAMASHINA KU","town":"OTOWA NODACHO","perfecture_jp":"京都府","jp_add_1":"京都市山科区","jp_add_2":"音羽野田町"},"6078064":{"post_code":"6078064","prefecture":"KYOTO FU","city":"KYOTO SHI YAMASHINA KU","town":"OTOWA HACHINOTSUBO","perfecture_jp":"京都府","jp_add_1":"京都市山科区","jp_add_2":"音羽八ノ坪"},"6078078":{"post_code":"6078078","prefecture":"KYOTO FU","city":"KYOTO SHI YAMASHINA KU","town":"OTOWA HATSUDACHO","perfecture_jp":"京都府","jp_add_1":"京都市山科区","jp_add_2":"音羽初田町"},"6078063":{"post_code":"6078063","prefecture":"KYOTO FU","city":"KYOTO SHI YAMASHINA KU","town":"OTOWA HIRABAYASHICHO","perfecture_jp":"京都府","jp_add_1":"京都市山科区","jp_add_2":"音羽平林町"},"6078067":{"post_code":"6078067","prefecture":"KYOTO FU","city":"KYOTO SHI YAMASHINA KU","town":"OTOWA MAEDACHO","perfecture_jp":"京都府","jp_add_1":"京都市山科区","jp_add_2":"音羽前田町"},"6078079":{"post_code":"6078079","prefecture":"KYOTO FU","city":"KYOTO SHI YAMASHINA KU","town":"OTOWA MAEDECHO","perfecture_jp":"京都府","jp_add_1":"京都市山科区","jp_add_2":"音羽前出町"},"6078066":{"post_code":"6078066","prefecture":"KYOTO FU","city":"KYOTO SHI YAMASHINA KU","town":"OTOWA MORIMAWARICHO","perfecture_jp":"京都府","jp_add_1":"京都市山科区","jp_add_2":"音羽森廻り町"},"6078076":{"post_code":"6078076","prefecture":"KYOTO FU","city":"KYOTO SHI YAMASHINA KU","town":"OTOWA YAKUDECHO","perfecture_jp":"京都府","jp_add_1":"京都市山科区","jp_add_2":"音羽役出町"},"6078251":{"post_code":"6078251","prefecture":"KYOTO FU","city":"KYOTO SHI YAMASHINA KU","town":"ONO KAGASE","perfecture_jp":"京都府","jp_add_1":"京都市山科区","jp_add_2":"小野蚊ケ瀬"},"6078261":{"post_code":"6078261","prefecture":"KYOTO FU","city":"KYOTO SHI YAMASHINA KU","town":"ONO KANETSUKIDENCHO","perfecture_jp":"京都府","jp_add_1":"京都市山科区","jp_add_2":"小野鐘付田町"},"6078252":{"post_code":"6078252","prefecture":"KYOTO FU","city":"KYOTO SHI YAMASHINA KU","town":"ONO KAWARACHO","perfecture_jp":"京都府","jp_add_1":"京都市山科区","jp_add_2":"小野河原町"},"6078255":{"post_code":"6078255","prefecture":"KYOTO FU","city":"KYOTO SHI YAMASHINA KU","town":"ONO GOSHONOCHICHO","perfecture_jp":"京都府","jp_add_1":"京都市山科区","jp_add_2":"小野御所ノ内町"},"6078257":{"post_code":"6078257","prefecture":"KYOTO FU","city":"KYOTO SHI YAMASHINA KU","town":"ONO GORYOCHO","perfecture_jp":"京都府","jp_add_1":"京都市山科区","jp_add_2":"小野御霊町"},"6078256":{"post_code":"6078256","prefecture":"KYOTO FU","city":"KYOTO SHI YAMASHINA KU","town":"ONO SHOJICHO","perfecture_jp":"京都府","jp_add_1":"京都市山科区","jp_add_2":"小野荘司町"},"6078254":{"post_code":"6078254","prefecture":"KYOTO FU","city":"KYOTO SHI YAMASHINA KU","town":"ONO TAKASHIBACHO","perfecture_jp":"京都府","jp_add_1":"京都市山科区","jp_add_2":"小野高芝町"},"6078259":{"post_code":"6078259","prefecture":"KYOTO FU","city":"KYOTO SHI YAMASHINA KU","town":"ONO TSUZURAJIRICHO","perfecture_jp":"京都府","jp_add_1":"京都市山科区","jp_add_2":"小野葛篭尻町"},"6078258":{"post_code":"6078258","prefecture":"KYOTO FU","city":"KYOTO SHI YAMASHINA KU","town":"ONO NISHIURA","perfecture_jp":"京都府","jp_add_1":"京都市山科区","jp_add_2":"小野西浦"},"6078253":{"post_code":"6078253","prefecture":"KYOTO FU","city":"KYOTO SHI YAMASHINA KU","town":"ONO YUMIDENCHO","perfecture_jp":"京都府","jp_add_1":"京都市山科区","jp_add_2":"小野弓田町"},"6078461":{"post_code":"6078461","prefecture":"KYOTO FU","city":"KYOTO SHI YAMASHINA KU","town":"KAMIKAZAN ASAHIYAMACHO","perfecture_jp":"京都府","jp_add_1":"京都市山科区","jp_add_2":"上花山旭山町"},"6078464":{"post_code":"6078464","prefecture":"KYOTO FU","city":"KYOTO SHI YAMASHINA KU","town":"KAMIKAZAN KUBOCHO","perfecture_jp":"京都府","jp_add_1":"京都市山科区","jp_add_2":"上花山久保町"},"6078463":{"post_code":"6078463","prefecture":"KYOTO FU","city":"KYOTO SHI YAMASHINA KU","town":"KAMIKAZAN KODACHO","perfecture_jp":"京都府","jp_add_1":"京都市山科区","jp_add_2":"上花山講田町"},"6078465":{"post_code":"6078465","prefecture":"KYOTO FU","city":"KYOTO SHI YAMASHINA KU","town":"KAMIKAZAN SAKAJIRI","perfecture_jp":"京都府","jp_add_1":"京都市山科区","jp_add_2":"上花山坂尻"},"6078466":{"post_code":"6078466","prefecture":"KYOTO FU","city":"KYOTO SHI YAMASHINA KU","town":"KAMIKAZAN SAKURADANI","perfecture_jp":"京都府","jp_add_1":"京都市山科区","jp_add_2":"上花山桜谷"},"6078462":{"post_code":"6078462","prefecture":"KYOTO FU","city":"KYOTO SHI YAMASHINA KU","town":"KAMIKAZAN HANANOKACHO","perfecture_jp":"京都府","jp_add_1":"京都市山科区","jp_add_2":"上花山花ノ岡町"},"6078321":{"post_code":"6078321","prefecture":"KYOTO FU","city":"KYOTO SHI YAMASHINA KU","town":"KAWATA IWAGATANI","perfecture_jp":"京都府","jp_add_1":"京都市山科区","jp_add_2":"川田岩ケ谷"},"6078329":{"post_code":"6078329","prefecture":"KYOTO FU","city":"KYOTO SHI YAMASHINA KU","town":"KAWATA UMEGATANICHO","perfecture_jp":"京都府","jp_add_1":"京都市山科区","jp_add_2":"川田梅ケ谷町"},"6078326":{"post_code":"6078326","prefecture":"KYOTO FU","city":"KYOTO SHI YAMASHINA KU","town":"KAWATA OIDECHO","perfecture_jp":"京都府","jp_add_1":"京都市山科区","jp_add_2":"川田御出町"},"6078323":{"post_code":"6078323","prefecture":"KYOTO FU","city":"KYOTO SHI YAMASHINA KU","town":"KAWATA OKANONISHI","perfecture_jp":"京都府","jp_add_1":"京都市山科区","jp_add_2":"川田岡ノ西"},"6078334":{"post_code":"6078334","prefecture":"KYOTO FU","city":"KYOTO SHI YAMASHINA KU","town":"KAWATA KAKENOE","perfecture_jp":"京都府","jp_add_1":"京都市山科区","jp_add_2":"川田欠ノ上"},"6078322":{"post_code":"6078322","prefecture":"KYOTO FU","city":"KYOTO SHI YAMASHINA KU","town":"KAWATA KIYOMIZUYAKIDANCHICHO","perfecture_jp":"京都府","jp_add_1":"京都市山科区","jp_add_2":"川田清水焼団地町"},"6078325":{"post_code":"6078325","prefecture":"KYOTO FU","city":"KYOTO SHI YAMASHINA KU","town":"KAWATA TSUCHIBOTOKE","perfecture_jp":"京都府","jp_add_1":"京都市山科区","jp_add_2":"川田土仏"},"6078324":{"post_code":"6078324","prefecture":"KYOTO FU","city":"KYOTO SHI YAMASHINA KU","town":"KAWATA DODO","perfecture_jp":"京都府","jp_add_1":"京都市山科区","jp_add_2":"川田百々"},"6078336":{"post_code":"6078336","prefecture":"KYOTO FU","city":"KYOTO SHI YAMASHINA KU","town":"KAWATA NAKABATACHO","perfecture_jp":"京都府","jp_add_1":"京都市山科区","jp_add_2":"川田中畑町"},"6078332":{"post_code":"6078332","prefecture":"KYOTO FU","city":"KYOTO SHI YAMASHINA KU","town":"KAWATA NISHIURACHO","perfecture_jp":"京都府","jp_add_1":"京都市山科区","jp_add_2":"川田西浦町"},"6078337":{"post_code":"6078337","prefecture":"KYOTO FU","city":"KYOTO SHI YAMASHINA KU","town":"KAWATA HISHIODA","perfecture_jp":"京都府","jp_add_1":"京都市山科区","jp_add_2":"川田菱尾田"},"6078333":{"post_code":"6078333","prefecture":"KYOTO FU","city":"KYOTO SHI YAMASHINA KU","town":"KAWATA MAEHATACHO","perfecture_jp":"京都府","jp_add_1":"京都市山科区","jp_add_2":"川田前畑町"},"6078331":{"post_code":"6078331","prefecture":"KYOTO FU","city":"KYOTO SHI YAMASHINA KU","town":"KAWATA MIKOSHIZUKACHO","perfecture_jp":"京都府","jp_add_1":"京都市山科区","jp_add_2":"川田御輿塚町"},"6078335":{"post_code":"6078335","prefecture":"KYOTO FU","city":"KYOTO SHI YAMASHINA KU","town":"KAWATA MINAMIBATACHO","perfecture_jp":"京都府","jp_add_1":"京都市山科区","jp_add_2":"川田南畑町"},"6078328":{"post_code":"6078328","prefecture":"KYOTO FU","city":"KYOTO SHI YAMASHINA KU","town":"KAWATA MINAMIYAMA","perfecture_jp":"京都府","jp_add_1":"京都市山科区","jp_add_2":"川田南山"},"6078327":{"post_code":"6078327","prefecture":"KYOTO FU","city":"KYOTO SHI YAMASHINA KU","town":"KAWATA YAMADA","perfecture_jp":"京都府","jp_add_1":"京都市山科区","jp_add_2":"川田山田"},"6078217":{"post_code":"6078217","prefecture":"KYOTO FU","city":"KYOTO SHI YAMASHINA KU","town":"KANSHUJI KANRINJI","perfecture_jp":"京都府","jp_add_1":"京都市山科区","jp_add_2":"勧修寺閑林寺"},"6078238":{"post_code":"6078238","prefecture":"KYOTO FU","city":"KYOTO SHI YAMASHINA KU","town":"KANSHUJI KITADAINICHI","perfecture_jp":"京都府","jp_add_1":"京都市山科区","jp_add_2":"勧修寺北大日"},"6078237":{"post_code":"6078237","prefecture":"KYOTO FU","city":"KYOTO SHI YAMASHINA KU","town":"KANSHUJI KITADAINICHICHO","perfecture_jp":"京都府","jp_add_1":"京都市山科区","jp_add_2":"勧修寺北大日町"},"6078218":{"post_code":"6078218","prefecture":"KYOTO FU","city":"KYOTO SHI YAMASHINA KU","town":"KANSHUJI GOSHOCHICHO","perfecture_jp":"京都府","jp_add_1":"京都市山科区","jp_add_2":"勧修寺御所内町"},"6078236":{"post_code":"6078236","prefecture":"KYOTO FU","city":"KYOTO SHI YAMASHINA KU","town":"KANSHUJI KOMATSUBARACHO","perfecture_jp":"京都府","jp_add_1":"京都市山科区","jp_add_2":"勧修寺小松原町"},"6078242":{"post_code":"6078242","prefecture":"KYOTO FU","city":"KYOTO SHI YAMASHINA KU","town":"KANSHUJI SHIBAYAMA","perfecture_jp":"京都府","jp_add_1":"京都市山科区","jp_add_2":"勧修寺柴山"},"6078227":{"post_code":"6078227","prefecture":"KYOTO FU","city":"KYOTO SHI YAMASHINA KU","town":"KANSHUJI SHIMONOCHAYACHO","perfecture_jp":"京都府","jp_add_1":"京都市山科区","jp_add_2":"勧修寺下ノ茶屋町"},"6078223":{"post_code":"6078223","prefecture":"KYOTO FU","city":"KYOTO SHI YAMASHINA KU","town":"KANSHUJI SETOGAWARA","perfecture_jp":"京都府","jp_add_1":"京都市山科区","jp_add_2":"勧修寺瀬戸河原"},"6078229":{"post_code":"6078229","prefecture":"KYOTO FU","city":"KYOTO SHI YAMASHINA KU","town":"KANSHUJI SENGYOKU","perfecture_jp":"京都府","jp_add_1":"京都市山科区","jp_add_2":"勧修寺泉玉"},"6078231":{"post_code":"6078231","prefecture":"KYOTO FU","city":"KYOTO SHI YAMASHINA KU","town":"KANSHUJI DODEN","perfecture_jp":"京都府","jp_add_1":"京都市山科区","jp_add_2":"勧修寺堂田"},"6078215":{"post_code":"6078215","prefecture":"KYOTO FU","city":"KYOTO SHI YAMASHINA KU","town":"KANSHUJI NAWATECHO","perfecture_jp":"京都府","jp_add_1":"京都市山科区","jp_add_2":"勧修寺縄手町"},"6078226":{"post_code":"6078226","prefecture":"KYOTO FU","city":"KYOTO SHI YAMASHINA KU","town":"KANSHUJI NIODOCHO","perfecture_jp":"京都府","jp_add_1":"京都市山科区","jp_add_2":"勧修寺仁王堂町"},"6078221":{"post_code":"6078221","prefecture":"KYOTO FU","city":"KYOTO SHI YAMASHINA KU","town":"KANSHUJI NISHIKANAGASAKI","perfecture_jp":"京都府","jp_add_1":"京都市山科区","jp_add_2":"勧修寺西金ケ崎"},"6078225":{"post_code":"6078225","prefecture":"KYOTO FU","city":"KYOTO SHI YAMASHINA KU","town":"KANSHUJI NISHIKITADECHO","perfecture_jp":"京都府","jp_add_1":"京都市山科区","jp_add_2":"勧修寺西北出町"},"6078212":{"post_code":"6078212","prefecture":"KYOTO FU","city":"KYOTO SHI YAMASHINA KU","town":"KANSHUJI NISHIKURISUNOCHO","perfecture_jp":"京都府","jp_add_1":"京都市山科区","jp_add_2":"勧修寺西栗栖野町"},"6078241":{"post_code":"6078241","prefecture":"KYOTO FU","city":"KYOTO SHI YAMASHINA KU","town":"KANSHUJI HIEJIRI","perfecture_jp":"京都府","jp_add_1":"京都市山科区","jp_add_2":"勧修寺冷尻"},"6078213":{"post_code":"6078213","prefecture":"KYOTO FU","city":"KYOTO SHI YAMASHINA KU","town":"KANSHUJI HIGASHIKANAGASAKI","perfecture_jp":"京都府","jp_add_1":"京都市山科区","jp_add_2":"勧修寺東金ケ崎"},"6078224":{"post_code":"6078224","prefecture":"KYOTO FU","city":"KYOTO SHI YAMASHINA KU","town":"KANSHUJI HIGASHIKITADECHO","perfecture_jp":"京都府","jp_add_1":"京都市山科区","jp_add_2":"勧修寺東北出町"},"6078211":{"post_code":"6078211","prefecture":"KYOTO FU","city":"KYOTO SHI YAMASHINA KU","town":"KANSHUJI HIGASHIKURISUNOCHO","perfecture_jp":"京都府","jp_add_1":"京都市山科区","jp_add_2":"勧修寺東栗栖野町"},"6078216":{"post_code":"6078216","prefecture":"KYOTO FU","city":"KYOTO SHI YAMASHINA KU","town":"KANSHUJI HIGASHIDECHO","perfecture_jp":"京都府","jp_add_1":"京都市山科区","jp_add_2":"勧修寺東出町"},"6078222":{"post_code":"6078222","prefecture":"KYOTO FU","city":"KYOTO SHI YAMASHINA KU","town":"KANSHUJI HIGASHIDODENCHO","perfecture_jp":"京都府","jp_add_1":"京都市山科区","jp_add_2":"勧修寺東堂田町"},"6078214":{"post_code":"6078214","prefecture":"KYOTO FU","city":"KYOTO SHI YAMASHINA KU","town":"KANSHUJI HIRATACHO","perfecture_jp":"京都府","jp_add_1":"京都市山科区","jp_add_2":"勧修寺平田町"},"6078232":{"post_code":"6078232","prefecture":"KYOTO FU","city":"KYOTO SHI YAMASHINA KU","town":"KANSHUJI FUKUOKACHO","perfecture_jp":"京都府","jp_add_1":"京都市山科区","jp_add_2":"勧修寺福岡町"},"6078219":{"post_code":"6078219","prefecture":"KYOTO FU","city":"KYOTO SHI YAMASHINA KU","town":"KANSHUJI FUROJIRICHO","perfecture_jp":"京都府","jp_add_1":"京都市山科区","jp_add_2":"勧修寺風呂尻町"},"6078228":{"post_code":"6078228","prefecture":"KYOTO FU","city":"KYOTO SHI YAMASHINA KU","town":"KANSHUJI HONDOYAMACHO","perfecture_jp":"京都府","jp_add_1":"京都市山科区","jp_add_2":"勧修寺本堂山町"},"6078239":{"post_code":"6078239","prefecture":"KYOTO FU","city":"KYOTO SHI YAMASHINA KU","town":"KANSHUJI MARUYAMACHO","perfecture_jp":"京都府","jp_add_1":"京都市山科区","jp_add_2":"勧修寺丸山町"},"6078235":{"post_code":"6078235","prefecture":"KYOTO FU","city":"KYOTO SHI YAMASHINA KU","town":"KANSHUJI MINAMIDAINICHI","perfecture_jp":"京都府","jp_add_1":"京都市山科区","jp_add_2":"勧修寺南大日"},"6078234":{"post_code":"6078234","prefecture":"KYOTO FU","city":"KYOTO SHI YAMASHINA KU","town":"KANSHUJI MINAMIDAINICHICHO","perfecture_jp":"京都府","jp_add_1":"京都市山科区","jp_add_2":"勧修寺南大日町"},"6078233":{"post_code":"6078233","prefecture":"KYOTO FU","city":"KYOTO SHI YAMASHINA KU","town":"KANSHUJI MINAMIDANICHO","perfecture_jp":"京都府","jp_add_1":"京都市山科区","jp_add_2":"勧修寺南谷町"},"6078483":{"post_code":"6078483","prefecture":"KYOTO FU","city":"KYOTO SHI YAMASHINA KU","town":"KITAKAZAN ICHIDACHO","perfecture_jp":"京都府","jp_add_1":"京都市山科区","jp_add_2":"北花山市田町"},"6078482":{"post_code":"6078482","prefecture":"KYOTO FU","city":"KYOTO SHI YAMASHINA KU","town":"KITAKAZAN OHAYASHICHO","perfecture_jp":"京都府","jp_add_1":"京都市山科区","jp_add_2":"北花山大林町"},"6078471":{"post_code":"6078471","prefecture":"KYOTO FU","city":"KYOTO SHI YAMASHINA KU","town":"KITAKAZAN OMINECHO","perfecture_jp":"京都府","jp_add_1":"京都市山科区","jp_add_2":"北花山大峰町"},"6078485":{"post_code":"6078485","prefecture":"KYOTO FU","city":"KYOTO SHI YAMASHINA KU","town":"KITAKAZAN KAMICHIGOGAIKE","perfecture_jp":"京都府","jp_add_1":"京都市山科区","jp_add_2":"北花山上稚児ケ池"},"6078476":{"post_code":"6078476","prefecture":"KYOTO FU","city":"KYOTO SHI YAMASHINA KU","town":"KITAKAZAN KAWARACHO","perfecture_jp":"京都府","jp_add_1":"京都市山科区","jp_add_2":"北花山河原町"},"6078474":{"post_code":"6078474","prefecture":"KYOTO FU","city":"KYOTO SHI YAMASHINA KU","town":"KITAKAZAN TERAUCHICHO","perfecture_jp":"京都府","jp_add_1":"京都市山科区","jp_add_2":"北花山寺内町"},"6078481":{"post_code":"6078481","prefecture":"KYOTO FU","city":"KYOTO SHI YAMASHINA KU","town":"KITAKAZAN NAKAMICHICHO","perfecture_jp":"京都府","jp_add_1":"京都市山科区","jp_add_2":"北花山中道町"},"6078484":{"post_code":"6078484","prefecture":"KYOTO FU","city":"KYOTO SHI YAMASHINA KU","town":"KITAKAZAN NISHINONOCHO","perfecture_jp":"京都府","jp_add_1":"京都市山科区","jp_add_2":"北花山西ノ野町"},"6078472":{"post_code":"6078472","prefecture":"KYOTO FU","city":"KYOTO SHI YAMASHINA KU","town":"KITAKAZAN YAMADACHO","perfecture_jp":"京都府","jp_add_1":"京都市山科区","jp_add_2":"北花山山田町"},"6078475":{"post_code":"6078475","prefecture":"KYOTO FU","city":"KYOTO SHI YAMASHINA KU","town":"KITAKAZAN YOKOTACHO","perfecture_jp":"京都府","jp_add_1":"京都市山科区","jp_add_2":"北花山横田町"},"6078473":{"post_code":"6078473","prefecture":"KYOTO FU","city":"KYOTO SHI YAMASHINA KU","town":"KITAKAZAN ROKUTANDACHO","perfecture_jp":"京都府","jp_add_1":"京都市山科区","jp_add_2":"北花山六反田町"},"6078203":{"post_code":"6078203","prefecture":"KYOTO FU","city":"KYOTO SHI YAMASHINA KU","town":"KURISUNO UCHIKOSHICHO","perfecture_jp":"京都府","jp_add_1":"京都市山科区","jp_add_2":"栗栖野打越町"},"6078201":{"post_code":"6078201","prefecture":"KYOTO FU","city":"KYOTO SHI YAMASHINA KU","town":"KURISUNO KITSUNEZUKA","perfecture_jp":"京都府","jp_add_1":"京都市山科区","jp_add_2":"栗栖野狐塚"},"6078202":{"post_code":"6078202","prefecture":"KYOTO FU","city":"KYOTO SHI YAMASHINA KU","town":"KURISUNO NAKATOMICHO","perfecture_jp":"京都府","jp_add_1":"京都市山科区","jp_add_2":"栗栖野中臣町"},"6078204":{"post_code":"6078204","prefecture":"KYOTO FU","city":"KYOTO SHI YAMASHINA KU","town":"KURISUNO HANANOKICHO","perfecture_jp":"京都府","jp_add_1":"京都市山科区","jp_add_2":"栗栖野華ノ木町"},"6078103":{"post_code":"6078103","prefecture":"KYOTO FU","city":"KYOTO SHI YAMASHINA KU","town":"KOYAMA IKKOKUBATA","perfecture_jp":"京都府","jp_add_1":"京都市山科区","jp_add_2":"小山一石畑"},"6078107":{"post_code":"6078107","prefecture":"KYOTO FU","city":"KYOTO SHI YAMASHINA KU","town":"KOYAMA OGAWACHO","perfecture_jp":"京都府","jp_add_1":"京都市山科区","jp_add_2":"小山小川町"},"6078101":{"post_code":"6078101","prefecture":"KYOTO FU","city":"KYOTO SHI YAMASHINA KU","town":"KOYAMA KAMINASHIMORICHO","perfecture_jp":"京都府","jp_add_1":"京都市山科区","jp_add_2":"小山神無森町"},"6078115":{"post_code":"6078115","prefecture":"KYOTO FU","city":"KYOTO SHI YAMASHINA KU","town":"KOYAMA KITABAYASHICHO","perfecture_jp":"京都府","jp_add_1":"京都市山科区","jp_add_2":"小山北林町"},"6078113":{"post_code":"6078113","prefecture":"KYOTO FU","city":"KYOTO SHI YAMASHINA KU","town":"KOYAMA KITAMIZOCHO","perfecture_jp":"京都府","jp_add_1":"京都市山科区","jp_add_2":"小山北溝町"},"6078106":{"post_code":"6078106","prefecture":"KYOTO FU","city":"KYOTO SHI YAMASHINA KU","town":"KOYAMA GOBONOCHICHO","perfecture_jp":"京都府","jp_add_1":"京都市山科区","jp_add_2":"小山御坊ノ内町"},"6078102":{"post_code":"6078102","prefecture":"KYOTO FU","city":"KYOTO SHI YAMASHINA KU","town":"KOYAMA SHIMONOIKE","perfecture_jp":"京都府","jp_add_1":"京都市山科区","jp_add_2":"小山下ノ池"},"6078104":{"post_code":"6078104","prefecture":"KYOTO FU","city":"KYOTO SHI YAMASHINA KU","town":"KOYAMA TANIDACHO","perfecture_jp":"京都府","jp_add_1":"京都市山科区","jp_add_2":"小山谷田町"},"6078116":{"post_code":"6078116","prefecture":"KYOTO FU","city":"KYOTO SHI YAMASHINA KU","town":"KOYAMA CHINJUCHO","perfecture_jp":"京都府","jp_add_1":"京都市山科区","jp_add_2":"小山鎮守町"},"6078108":{"post_code":"6078108","prefecture":"KYOTO FU","city":"KYOTO SHI YAMASHINA KU","town":"KOYAMA NAKAJIMACHO","perfecture_jp":"京都府","jp_add_1":"京都市山科区","jp_add_2":"小山中島町"},"6078112":{"post_code":"6078112","prefecture":"KYOTO FU","city":"KYOTO SHI YAMASHINA KU","town":"KOYAMA NAKANOKAWACHO","perfecture_jp":"京都府","jp_add_1":"京都市山科区","jp_add_2":"小山中ノ川町"},"6078109":{"post_code":"6078109","prefecture":"KYOTO FU","city":"KYOTO SHI YAMASHINA KU","town":"KOYAMA NISHIGOSHOCHO","perfecture_jp":"京都府","jp_add_1":"京都市山科区","jp_add_2":"小山西御所町"},"6078114":{"post_code":"6078114","prefecture":"KYOTO FU","city":"KYOTO SHI YAMASHINA KU","town":"KOYAMA HIMEKOCHO","perfecture_jp":"京都府","jp_add_1":"京都市山科区","jp_add_2":"小山姫子町"},"6078105":{"post_code":"6078105","prefecture":"KYOTO FU","city":"KYOTO SHI YAMASHINA KU","town":"KOYAMA MATSUHARABATACHO","perfecture_jp":"京都府","jp_add_1":"京都市山科区","jp_add_2":"小山松原畑町"},"6078111":{"post_code":"6078111","prefecture":"KYOTO FU","city":"KYOTO SHI YAMASHINA KU","town":"KOYAMA MINAMIMIZOCHO","perfecture_jp":"京都府","jp_add_1":"京都市山科区","jp_add_2":"小山南溝町"},"6078028":{"post_code":"6078028","prefecture":"KYOTO FU","city":"KYOTO SHI YAMASHINA KU","town":"SHINOMIYA IWAKUBOCHO","perfecture_jp":"京都府","jp_add_1":"京都市山科区","jp_add_2":"四ノ宮岩久保町"},"6078041":{"post_code":"6078041","prefecture":"KYOTO FU","city":"KYOTO SHI YAMASHINA KU","town":"SHINOMIYA KAKINOCHICHO","perfecture_jp":"京都府","jp_add_1":"京都市山科区","jp_add_2":"四ノ宮垣ノ内町"},"6078031":{"post_code":"6078031","prefecture":"KYOTO FU","city":"KYOTO SHI YAMASHINA KU","town":"SHINOMIYA KAMATECHO","perfecture_jp":"京都府","jp_add_1":"京都市山科区","jp_add_2":"四ノ宮鎌手町"},"6078027":{"post_code":"6078027","prefecture":"KYOTO FU","city":"KYOTO SHI YAMASHINA KU","town":"SHINOMIYA KAWARACHO","perfecture_jp":"京都府","jp_add_1":"京都市山科区","jp_add_2":"四ノ宮川原町"},"6078035":{"post_code":"6078035","prefecture":"KYOTO FU","city":"KYOTO SHI YAMASHINA KU","town":"SHINOMIYA KANDACHO","perfecture_jp":"京都府","jp_add_1":"京都市山科区","jp_add_2":"四ノ宮神田町"},"6078021":{"post_code":"6078021","prefecture":"KYOTO FU","city":"KYOTO SHI YAMASHINA KU","town":"SHINOMIYA GYOJADANI","perfecture_jp":"京都府","jp_add_1":"京都市山科区","jp_add_2":"四ノ宮行者谷"},"6078024":{"post_code":"6078024","prefecture":"KYOTO FU","city":"KYOTO SHI YAMASHINA KU","town":"SHINOMIYA KUMAGADANI","perfecture_jp":"京都府","jp_add_1":"京都市山科区","jp_add_2":"四ノ宮熊ケ谷"},"6078022":{"post_code":"6078022","prefecture":"KYOTO FU","city":"KYOTO SHI YAMASHINA KU","town":"SHINOMIYA KOGANEZUKA","perfecture_jp":"京都府","jp_add_1":"京都市山科区","jp_add_2":"四ノ宮小金塚"},"6078033":{"post_code":"6078033","prefecture":"KYOTO FU","city":"KYOTO SHI YAMASHINA KU","town":"SHINOMIYA SHIBAHATACHO","perfecture_jp":"京都府","jp_add_1":"京都市山科区","jp_add_2":"四ノ宮芝畑町"},"6078023":{"post_code":"6078023","prefecture":"KYOTO FU","city":"KYOTO SHI YAMASHINA KU","town":"SHINOMIYA SHINKAIBATA","perfecture_jp":"京都府","jp_add_1":"京都市山科区","jp_add_2":"四ノ宮新開畑"},"6078044":{"post_code":"6078044","prefecture":"KYOTO FU","city":"KYOTO SHI YAMASHINA KU","town":"SHINOMIYA SENSUICHO","perfecture_jp":"京都府","jp_add_1":"京都市山科区","jp_add_2":"四ノ宮泉水町"},"6078029":{"post_code":"6078029","prefecture":"KYOTO FU","city":"KYOTO SHI YAMASHINA KU","town":"SHINOMIYA TAISHOGUNCHO","perfecture_jp":"京都府","jp_add_1":"京都市山科区","jp_add_2":"四ノ宮大将軍町"},"6078043":{"post_code":"6078043","prefecture":"KYOTO FU","city":"KYOTO SHI YAMASHINA KU","town":"SHINOMIYA CHUZAIJICHO","perfecture_jp":"京都府","jp_add_1":"京都市山科区","jp_add_2":"四ノ宮中在寺町"},"6078045":{"post_code":"6078045","prefecture":"KYOTO FU","city":"KYOTO SHI YAMASHINA KU","town":"SHINOMIYA DONOGOCHO","perfecture_jp":"京都府","jp_add_1":"京都市山科区","jp_add_2":"四ノ宮堂ノ後町"},"6078032":{"post_code":"6078032","prefecture":"KYOTO FU","city":"KYOTO SHI YAMASHINA KU","town":"SHINOMIYA NARANOCHO","perfecture_jp":"京都府","jp_add_1":"京都市山科区","jp_add_2":"四ノ宮奈良野町"},"6078034":{"post_code":"6078034","prefecture":"KYOTO FU","city":"KYOTO SHI YAMASHINA KU","town":"SHINOMIYA FUKE","perfecture_jp":"京都府","jp_add_1":"京都市山科区","jp_add_2":"四ノ宮泓"},"6078042":{"post_code":"6078042","prefecture":"KYOTO FU","city":"KYOTO SHI YAMASHINA KU","town":"SHINOMIYA MINAMIGAWARACHO","perfecture_jp":"京都府","jp_add_1":"京都市山科区","jp_add_2":"四ノ宮南河原町"},"6078025":{"post_code":"6078025","prefecture":"KYOTO FU","city":"KYOTO SHI YAMASHINA KU","town":"SHINOMIYA YANAGIYAMACHO","perfecture_jp":"京都府","jp_add_1":"京都市山科区","jp_add_2":"四ノ宮柳山町"},"6078026":{"post_code":"6078026","prefecture":"KYOTO FU","city":"KYOTO SHI YAMASHINA KU","town":"SHINOMIYA YAMADACHO","perfecture_jp":"京都府","jp_add_1":"京都市山科区","jp_add_2":"四ノ宮山田町"},"6078453":{"post_code":"6078453","prefecture":"KYOTO FU","city":"KYOTO SHI YAMASHINA KU","town":"ZUSHIOKU ONOECHO","perfecture_jp":"京都府","jp_add_1":"京都市山科区","jp_add_2":"厨子奥尾上町"},"6078456":{"post_code":"6078456","prefecture":"KYOTO FU","city":"KYOTO SHI YAMASHINA KU","town":"ZUSHIOKU KACHOCHO","perfecture_jp":"京都府","jp_add_1":"京都市山科区","jp_add_2":"厨子奥花鳥町"},"6078455":{"post_code":"6078455","prefecture":"KYOTO FU","city":"KYOTO SHI YAMASHINA KU","town":"ZUSHIOKU NAGAMICHI","perfecture_jp":"京都府","jp_add_1":"京都市山科区","jp_add_2":"厨子奥長通"},"6078454":{"post_code":"6078454","prefecture":"KYOTO FU","city":"KYOTO SHI YAMASHINA KU","town":"ZUSHIOKU NAWASHIROMOTOCHO","perfecture_jp":"京都府","jp_add_1":"京都市山科区","jp_add_2":"厨子奥苗代元町"},"6078452":{"post_code":"6078452","prefecture":"KYOTO FU","city":"KYOTO SHI YAMASHINA KU","town":"ZUSHIOKU YAKURACHO","perfecture_jp":"京都府","jp_add_1":"京都市山科区","jp_add_2":"厨子奥矢倉町"},"6078451":{"post_code":"6078451","prefecture":"KYOTO FU","city":"KYOTO SHI YAMASHINA KU","town":"ZUSHIOKU WAKABAYASHICHO","perfecture_jp":"京都府","jp_add_1":"京都市山科区","jp_add_2":"厨子奥若林町"},"6078082":{"post_code":"6078082","prefecture":"KYOTO FU","city":"KYOTO SHI YAMASHINA KU","town":"TAKEHANA OGICHO","perfecture_jp":"京都府","jp_add_1":"京都市山科区","jp_add_2":"竹鼻扇町"},"6078083":{"post_code":"6078083","prefecture":"KYOTO FU","city":"KYOTO SHI YAMASHINA KU","town":"TAKEHANA KINOMOTOCHO","perfecture_jp":"京都府","jp_add_1":"京都市山科区","jp_add_2":"竹鼻木ノ本町"},"6078087":{"post_code":"6078087","prefecture":"KYOTO FU","city":"KYOTO SHI YAMASHINA KU","town":"TAKEHANA SAIKASHICHO","perfecture_jp":"京都府","jp_add_1":"京都市山科区","jp_add_2":"竹鼻サイカシ町"},"6078088":{"post_code":"6078088","prefecture":"KYOTO FU","city":"KYOTO SHI YAMASHINA KU","town":"TAKEHANA JIZOJIMINAMICHO","perfecture_jp":"京都府","jp_add_1":"京都市山科区","jp_add_2":"竹鼻地蔵寺南町"},"6078086":{"post_code":"6078086","prefecture":"KYOTO FU","city":"KYOTO SHI YAMASHINA KU","town":"TAKEHANA SHICHONOCHO","perfecture_jp":"京都府","jp_add_1":"京都市山科区","jp_add_2":"竹鼻四丁野町"},"6078081":{"post_code":"6078081","prefecture":"KYOTO FU","city":"KYOTO SHI YAMASHINA KU","town":"TAKEHANA SOTODACHO","perfecture_jp":"京都府","jp_add_1":"京都市山科区","jp_add_2":"竹鼻外田町"},"6078080":{"post_code":"6078080","prefecture":"KYOTO FU","city":"KYOTO SHI YAMASHINA KU","town":"TAKEHANA TAKENOKAIDOCHO","perfecture_jp":"京都府","jp_add_1":"京都市山科区","jp_add_2":"竹鼻竹ノ街道町"},"6078084":{"post_code":"6078084","prefecture":"KYOTO FU","city":"KYOTO SHI YAMASHINA KU","town":"TAKEHANA TATEHARACHO","perfecture_jp":"京都府","jp_add_1":"京都市山科区","jp_add_2":"竹鼻立原町"},"6078085":{"post_code":"6078085","prefecture":"KYOTO FU","city":"KYOTO SHI YAMASHINA KU","town":"TAKEHANA DONOMAECHO","perfecture_jp":"京都府","jp_add_1":"京都市山科区","jp_add_2":"竹鼻堂ノ前町"},"6078089":{"post_code":"6078089","prefecture":"KYOTO FU","city":"KYOTO SHI YAMASHINA KU","town":"TAKEHANA NISHINOGUCHICHO","perfecture_jp":"京都府","jp_add_1":"京都市山科区","jp_add_2":"竹鼻西ノ口町"},"6078168":{"post_code":"6078168","prefecture":"KYOTO FU","city":"KYOTO SHI YAMASHINA KU","town":"NAGITSUJI IKEJIRICHO","perfecture_jp":"京都府","jp_add_1":"京都市山科区","jp_add_2":"椥辻池尻町"},"6078162":{"post_code":"6078162","prefecture":"KYOTO FU","city":"KYOTO SHI YAMASHINA KU","town":"NAGITSUJI KUSAKAIDOCHO","perfecture_jp":"京都府","jp_add_1":"京都市山科区","jp_add_2":"椥辻草海道町"},"6078161":{"post_code":"6078161","prefecture":"KYOTO FU","city":"KYOTO SHI YAMASHINA KU","town":"NAGITSUJI CHUZAIKECHO","perfecture_jp":"京都府","jp_add_1":"京都市山科区","jp_add_2":"椥辻中在家町"},"6078169":{"post_code":"6078169","prefecture":"KYOTO FU","city":"KYOTO SHI YAMASHINA KU","town":"NAGITSUJI NISHIURACHO","perfecture_jp":"京都府","jp_add_1":"京都市山科区","jp_add_2":"椥辻西浦町"},"6078164":{"post_code":"6078164","prefecture":"KYOTO FU","city":"KYOTO SHI YAMASHINA KU","town":"NAGITSUJI NISHITSUBUSHI","perfecture_jp":"京都府","jp_add_1":"京都市山科区","jp_add_2":"椥辻西潰"},"6078166":{"post_code":"6078166","prefecture":"KYOTO FU","city":"KYOTO SHI YAMASHINA KU","town":"NAGITSUJI BANSHOGAGUCHICHO","perfecture_jp":"京都府","jp_add_1":"京都市山科区","jp_add_2":"椥辻番所ケ口町"},"6078160":{"post_code":"6078160","prefecture":"KYOTO FU","city":"KYOTO SHI YAMASHINA KU","town":"NAGITSUJI HIGASHIURACHO","perfecture_jp":"京都府","jp_add_1":"京都市山科区","jp_add_2":"椥辻東浦町"},"6078163":{"post_code":"6078163","prefecture":"KYOTO FU","city":"KYOTO SHI YAMASHINA KU","town":"NAGITSUJI HIGASHITSUBUSHI","perfecture_jp":"京都府","jp_add_1":"京都市山科区","jp_add_2":"椥辻東潰"},"6078165":{"post_code":"6078165","prefecture":"KYOTO FU","city":"KYOTO SHI YAMASHINA KU","town":"NAGITSUJI HIRATACHO","perfecture_jp":"京都府","jp_add_1":"京都市山科区","jp_add_2":"椥辻平田町"},"6078167":{"post_code":"6078167","prefecture":"KYOTO FU","city":"KYOTO SHI YAMASHINA KU","town":"NAGITSUJI FUSHIGAWACHO","perfecture_jp":"京都府","jp_add_1":"京都市山科区","jp_add_2":"椥辻封シ川町"},"6078343":{"post_code":"6078343","prefecture":"KYOTO FU","city":"KYOTO SHI YAMASHINA KU","town":"NISHINO AGEZAWACHO","perfecture_jp":"京都府","jp_add_1":"京都市山科区","jp_add_2":"西野阿芸沢町"},"6078341":{"post_code":"6078341","prefecture":"KYOTO FU","city":"KYOTO SHI YAMASHINA KU","town":"NISHINO IMAYASHIKICHO","perfecture_jp":"京都府","jp_add_1":"京都市山科区","jp_add_2":"西野今屋敷町"},"6078344":{"post_code":"6078344","prefecture":"KYOTO FU","city":"KYOTO SHI YAMASHINA KU","town":"NISHINO OTESAKICHO","perfecture_jp":"京都府","jp_add_1":"京都市山科区","jp_add_2":"西野大手先町"},"6078355":{"post_code":"6078355","prefecture":"KYOTO FU","city":"KYOTO SHI YAMASHINA KU","town":"NISHINO OTORIICHO","perfecture_jp":"京都府","jp_add_1":"京都市山科区","jp_add_2":"西野大鳥井町"},"6078352":{"post_code":"6078352","prefecture":"KYOTO FU","city":"KYOTO SHI YAMASHINA KU","town":"NISHINO KISHINOSHITACHO","perfecture_jp":"京都府","jp_add_1":"京都市山科区","jp_add_2":"西野岸ノ下町"},"6078356":{"post_code":"6078356","prefecture":"KYOTO FU","city":"KYOTO SHI YAMASHINA KU","town":"NISHINO GOTO","perfecture_jp":"京都府","jp_add_1":"京都市山科区","jp_add_2":"西野後藤"},"6078354":{"post_code":"6078354","prefecture":"KYOTO FU","city":"KYOTO SHI YAMASHINA KU","town":"NISHINO KOYANAGICHO","perfecture_jp":"京都府","jp_add_1":"京都市山科区","jp_add_2":"西野小柳町"},"6078347":{"post_code":"6078347","prefecture":"KYOTO FU","city":"KYOTO SHI YAMASHINA KU","town":"NISHINO SAGICHOCHO","perfecture_jp":"京都府","jp_add_1":"京都市山科区","jp_add_2":"西野左義長町"},"6078346":{"post_code":"6078346","prefecture":"KYOTO FU","city":"KYOTO SHI YAMASHINA KU","town":"NISHINO SANKAICHO","perfecture_jp":"京都府","jp_add_1":"京都市山科区","jp_add_2":"西野山階町"},"6078353":{"post_code":"6078353","prefecture":"KYOTO FU","city":"KYOTO SHI YAMASHINA KU","town":"NISHINO NOIROCHO","perfecture_jp":"京都府","jp_add_1":"京都市山科区","jp_add_2":"西野野色町"},"6078351":{"post_code":"6078351","prefecture":"KYOTO FU","city":"KYOTO SHI YAMASHINA KU","town":"NISHINO HACHIMANDENCHO","perfecture_jp":"京都府","jp_add_1":"京都市山科区","jp_add_2":"西野八幡田町"},"6078357":{"post_code":"6078357","prefecture":"KYOTO FU","city":"KYOTO SHI YAMASHINA KU","town":"NISHINO HITSUGAWACHO","perfecture_jp":"京都府","jp_add_1":"京都市山科区","jp_add_2":"西野櫃川町"},"6078348":{"post_code":"6078348","prefecture":"KYOTO FU","city":"KYOTO SHI YAMASHINA KU","town":"NISHINO HIROMICHO","perfecture_jp":"京都府","jp_add_1":"京都市山科区","jp_add_2":"西野広見町"},"6078358":{"post_code":"6078358","prefecture":"KYOTO FU","city":"KYOTO SHI YAMASHINA KU","town":"NISHINO MUMEMOTOCHO","perfecture_jp":"京都府","jp_add_1":"京都市山科区","jp_add_2":"西野楳本町"},"6078342":{"post_code":"6078342","prefecture":"KYOTO FU","city":"KYOTO SHI YAMASHINA KU","town":"NISHINO YOSUMICHO","perfecture_jp":"京都府","jp_add_1":"京都市山科区","jp_add_2":"西野様子見町"},"6078345":{"post_code":"6078345","prefecture":"KYOTO FU","city":"KYOTO SHI YAMASHINA KU","town":"NISHINO RIKYUCHO","perfecture_jp":"京都府","jp_add_1":"京都市山科区","jp_add_2":"西野離宮町"},"6078307":{"post_code":"6078307","prefecture":"KYOTO FU","city":"KYOTO SHI YAMASHINA KU","town":"NISHINOYAMA IBANOECHO","perfecture_jp":"京都府","jp_add_1":"京都市山科区","jp_add_2":"西野山射庭ノ上町"},"6078309":{"post_code":"6078309","prefecture":"KYOTO FU","city":"KYOTO SHI YAMASHINA KU","town":"NISHINOYAMA IWAGATANICHO","perfecture_jp":"京都府","jp_add_1":"京都市山科区","jp_add_2":"西野山岩ケ谷町"},"6078302":{"post_code":"6078302","prefecture":"KYOTO FU","city":"KYOTO SHI YAMASHINA KU","town":"NISHINOYAMA KAKENOECHO","perfecture_jp":"京都府","jp_add_1":"京都市山科区","jp_add_2":"西野山欠ノ上町"},"6078308":{"post_code":"6078308","prefecture":"KYOTO FU","city":"KYOTO SHI YAMASHINA KU","town":"NISHINOYAMA SAKURANOBABACHO","perfecture_jp":"京都府","jp_add_1":"京都市山科区","jp_add_2":"西野山桜ノ馬場町"},"6078301":{"post_code":"6078301","prefecture":"KYOTO FU","city":"KYOTO SHI YAMASHINA KU","town":"NISHINOYAMA DODOCHO","perfecture_jp":"京都府","jp_add_1":"京都市山科区","jp_add_2":"西野山百々町"},"6078305":{"post_code":"6078305","prefecture":"KYOTO FU","city":"KYOTO SHI YAMASHINA KU","town":"NISHINOYAMA NAKATOMICHO","perfecture_jp":"京都府","jp_add_1":"京都市山科区","jp_add_2":"西野山中臣町"},"6078306":{"post_code":"6078306","prefecture":"KYOTO FU","city":"KYOTO SHI YAMASHINA KU","town":"NISHINOYAMA NAKATORIICHO","perfecture_jp":"京都府","jp_add_1":"京都市山科区","jp_add_2":"西野山中鳥井町"},"6078303":{"post_code":"6078303","prefecture":"KYOTO FU","city":"KYOTO SHI YAMASHINA KU","town":"NISHINOYAMA NAKAHATACHO","perfecture_jp":"京都府","jp_add_1":"京都市山科区","jp_add_2":"西野山中畑町"},"6078304":{"post_code":"6078304","prefecture":"KYOTO FU","city":"KYOTO SHI YAMASHINA KU","town":"NISHINOYAMA MINAMIHATACHO","perfecture_jp":"京都府","jp_add_1":"京都市山科区","jp_add_2":"西野山南畑町"},"6078311":{"post_code":"6078311","prefecture":"KYOTO FU","city":"KYOTO SHI YAMASHINA KU","town":"NISHINOYAMA YAMADA","perfecture_jp":"京都府","jp_add_1":"京都市山科区","jp_add_2":"西野山山田"},"6078091":{"post_code":"6078091","prefecture":"KYOTO FU","city":"KYOTO SHI YAMASHINA KU","town":"HACHIKENYASHIKICHO","perfecture_jp":"京都府","jp_add_1":"京都市山科区","jp_add_2":"八軒屋敷町"},"6078144":{"post_code":"6078144","prefecture":"KYOTO FU","city":"KYOTO SHI YAMASHINA KU","town":"HIGASHINO INOECHO","perfecture_jp":"京都府","jp_add_1":"京都市山科区","jp_add_2":"東野井ノ上町"},"6078156":{"post_code":"6078156","prefecture":"KYOTO FU","city":"KYOTO SHI YAMASHINA KU","town":"HIGASHINO KATASAGARICHO","perfecture_jp":"京都府","jp_add_1":"京都市山科区","jp_add_2":"東野片下リ町"},"6078141":{"post_code":"6078141","prefecture":"KYOTO FU","city":"KYOTO SHI YAMASHINA KU","town":"HIGASHINO KITAINOECHO","perfecture_jp":"京都府","jp_add_1":"京都市山科区","jp_add_2":"東野北井ノ上町"},"6078155":{"post_code":"6078155","prefecture":"KYOTO FU","city":"KYOTO SHI YAMASHINA KU","town":"HIGASHINO KITSUNEYABUCHO","perfecture_jp":"京都府","jp_add_1":"京都市山科区","jp_add_2":"東野狐藪町"},"6078151":{"post_code":"6078151","prefecture":"KYOTO FU","city":"KYOTO SHI YAMASHINA KU","town":"HIGASHINO TAKEDA","perfecture_jp":"京都府","jp_add_1":"京都市山科区","jp_add_2":"東野竹田"},"6078142":{"post_code":"6078142","prefecture":"KYOTO FU","city":"KYOTO SHI YAMASHINA KU","town":"HIGASHINO NAKAINOECHO","perfecture_jp":"京都府","jp_add_1":"京都市山科区","jp_add_2":"東野中井ノ上町"},"6078145":{"post_code":"6078145","prefecture":"KYOTO FU","city":"KYOTO SHI YAMASHINA KU","town":"HIGASHINO HATTAMBATACHO","perfecture_jp":"京都府","jp_add_1":"京都市山科区","jp_add_2":"東野八反畑町"},"6078153":{"post_code":"6078153","prefecture":"KYOTO FU","city":"KYOTO SHI YAMASHINA KU","town":"HIGASHINO HYAKUBYOSHICHO","perfecture_jp":"京都府","jp_add_1":"京都市山科区","jp_add_2":"東野百拍子町"},"6078146":{"post_code":"6078146","prefecture":"KYOTO FU","city":"KYOTO SHI YAMASHINA KU","town":"HIGASHINO BUTAICHO","perfecture_jp":"京都府","jp_add_1":"京都市山科区","jp_add_2":"東野舞台町"},"6078143":{"post_code":"6078143","prefecture":"KYOTO FU","city":"KYOTO SHI YAMASHINA KU","town":"HIGASHINO MINAMIINOECHO","perfecture_jp":"京都府","jp_add_1":"京都市山科区","jp_add_2":"東野南井ノ上町"},"6078147":{"post_code":"6078147","prefecture":"KYOTO FU","city":"KYOTO SHI YAMASHINA KU","town":"HIGASHINO MORINOCHO","perfecture_jp":"京都府","jp_add_1":"京都市山科区","jp_add_2":"東野森野町"},"6078154":{"post_code":"6078154","prefecture":"KYOTO FU","city":"KYOTO SHI YAMASHINA KU","town":"HIGASHINO MONGUCHICHO","perfecture_jp":"京都府","jp_add_1":"京都市山科区","jp_add_2":"東野門口町"},"6078152":{"post_code":"6078152","prefecture":"KYOTO FU","city":"KYOTO SHI YAMASHINA KU","town":"HIGASHINO YASHIRO","perfecture_jp":"京都府","jp_add_1":"京都市山科区","jp_add_2":"東野八代"},"6078051":{"post_code":"6078051","prefecture":"KYOTO FU","city":"KYOTO SHI YAMASHINA KU","town":"HIGECHAYA CHOCHINCHO","perfecture_jp":"京都府","jp_add_1":"京都市山科区","jp_add_2":"髭茶屋桃燈町"},"6078052":{"post_code":"6078052","prefecture":"KYOTO FU","city":"KYOTO SHI YAMASHINA KU","town":"HIGECHAYA YASHIKICHO","perfecture_jp":"京都府","jp_add_1":"京都市山科区","jp_add_2":"髭茶屋屋敷町"},"6078493":{"post_code":"6078493","prefecture":"KYOTO FU","city":"KYOTO SHI YAMASHINA KU","town":"HINOKA ASADACHO","perfecture_jp":"京都府","jp_add_1":"京都市山科区","jp_add_2":"日ノ岡朝田町"},"6078498":{"post_code":"6078498","prefecture":"KYOTO FU","city":"KYOTO SHI YAMASHINA KU","town":"HINOKA ISHIZUKACHO","perfecture_jp":"京都府","jp_add_1":"京都市山科区","jp_add_2":"日ノ岡石塚町"},"6078491":{"post_code":"6078491","prefecture":"KYOTO FU","city":"KYOTO SHI YAMASHINA KU","town":"HINOKA ISSAIKYODANICHO","perfecture_jp":"京都府","jp_add_1":"京都市山科区","jp_add_2":"日ノ岡一切経谷町"},"6078492":{"post_code":"6078492","prefecture":"KYOTO FU","city":"KYOTO SHI YAMASHINA KU","town":"HINOKA EBISUDANICHO","perfecture_jp":"京都府","jp_add_1":"京都市山科区","jp_add_2":"日ノ岡夷谷町"},"6078495":{"post_code":"6078495","prefecture":"KYOTO FU","city":"KYOTO SHI YAMASHINA KU","town":"HINOKA KAMODOCHO","perfecture_jp":"京都府","jp_add_1":"京都市山科区","jp_add_2":"日ノ岡鴨土町"},"6078496":{"post_code":"6078496","prefecture":"KYOTO FU","city":"KYOTO SHI YAMASHINA KU","town":"HINOKA SAKAWAKICHO","perfecture_jp":"京都府","jp_add_1":"京都市山科区","jp_add_2":"日ノ岡坂脇町"},"6078494":{"post_code":"6078494","prefecture":"KYOTO FU","city":"KYOTO SHI YAMASHINA KU","town":"HINOKA TSUTSUMIDANICHO","perfecture_jp":"京都府","jp_add_1":"京都市山科区","jp_add_2":"日ノ岡堤谷町"},"6078497":{"post_code":"6078497","prefecture":"KYOTO FU","city":"KYOTO SHI YAMASHINA KU","town":"HINOKA HOPPARACHO","perfecture_jp":"京都府","jp_add_1":"京都市山科区","jp_add_2":"日ノ岡ホッパラ町"},"6078429":{"post_code":"6078429","prefecture":"KYOTO FU","city":"KYOTO SHI YAMASHINA KU","town":"MISASAGI ARAMAKICHO","perfecture_jp":"京都府","jp_add_1":"京都市山科区","jp_add_2":"御陵荒巻町"},"6078407":{"post_code":"6078407","prefecture":"KYOTO FU","city":"KYOTO SHI YAMASHINA KU","town":"MISASAGI ANSHOJICHO","perfecture_jp":"京都府","jp_add_1":"京都市山科区","jp_add_2":"御陵安祥寺町"},"6078433":{"post_code":"6078433","prefecture":"KYOTO FU","city":"KYOTO SHI YAMASHINA KU","town":"MISASAGI IKETSUTSUMICHO","perfecture_jp":"京都府","jp_add_1":"京都市山科区","jp_add_2":"御陵池堤町"},"6078418":{"post_code":"6078418","prefecture":"KYOTO FU","city":"KYOTO SHI YAMASHINA KU","town":"MISASAGI USHIOCHO","perfecture_jp":"京都府","jp_add_1":"京都市山科区","jp_add_2":"御陵牛尾町"},"6078403":{"post_code":"6078403","prefecture":"KYOTO FU","city":"KYOTO SHI YAMASHINA KU","town":"MISASAGI OIWA","perfecture_jp":"京都府","jp_add_1":"京都市山科区","jp_add_2":"御陵大岩"},"6078404":{"post_code":"6078404","prefecture":"KYOTO FU","city":"KYOTO SHI YAMASHINA KU","town":"MISASAGI OTANICHO","perfecture_jp":"京都府","jp_add_1":"京都市山科区","jp_add_2":"御陵大谷町"},"6078411":{"post_code":"6078411","prefecture":"KYOTO FU","city":"KYOTO SHI YAMASHINA KU","town":"MISASAGI OTSUBATACHO","perfecture_jp":"京都府","jp_add_1":"京都市山科区","jp_add_2":"御陵大津畑町"},"6078431":{"post_code":"6078431","prefecture":"KYOTO FU","city":"KYOTO SHI YAMASHINA KU","town":"MISASAGI OKACHO","perfecture_jp":"京都府","jp_add_1":"京都市山科区","jp_add_2":"御陵岡町"},"6078421":{"post_code":"6078421","prefecture":"KYOTO FU","city":"KYOTO SHI YAMASHINA KU","town":"MISASAGI OKANONISHICHO","perfecture_jp":"京都府","jp_add_1":"京都市山科区","jp_add_2":"御陵岡ノ西町"},"6078425":{"post_code":"6078425","prefecture":"KYOTO FU","city":"KYOTO SHI YAMASHINA KU","town":"MISASAGI KAMIGOBYONOCHO","perfecture_jp":"京都府","jp_add_1":"京都市山科区","jp_add_2":"御陵上御廟野町"},"6078432":{"post_code":"6078432","prefecture":"KYOTO FU","city":"KYOTO SHI YAMASHINA KU","town":"MISASAGI KAMOTOCHO","perfecture_jp":"京都府","jp_add_1":"京都市山科区","jp_add_2":"御陵鴨戸町"},"6078427":{"post_code":"6078427","prefecture":"KYOTO FU","city":"KYOTO SHI YAMASHINA KU","town":"MISASAGI KUBOCHO","perfecture_jp":"京都府","jp_add_1":"京都市山科区","jp_add_2":"御陵久保町"},"6078402":{"post_code":"6078402","prefecture":"KYOTO FU","city":"KYOTO SHI YAMASHINA KU","town":"MISASAGI KUROIWA","perfecture_jp":"京都府","jp_add_1":"京都市山科区","jp_add_2":"御陵黒岩"},"6078401":{"post_code":"6078401","prefecture":"KYOTO FU","city":"KYOTO SHI YAMASHINA KU","town":"MISASAGI SAWANOKAWACHO","perfecture_jp":"京都府","jp_add_1":"京都市山科区","jp_add_2":"御陵沢ノ川町"},"6078413":{"post_code":"6078413","prefecture":"KYOTO FU","city":"KYOTO SHI YAMASHINA KU","town":"MISASAGI SANZOCHO","perfecture_jp":"京都府","jp_add_1":"京都市山科区","jp_add_2":"御陵三蔵町"},"6078412":{"post_code":"6078412","prefecture":"KYOTO FU","city":"KYOTO SHI YAMASHINA KU","town":"MISASAGI SHICHONOCHO","perfecture_jp":"京都府","jp_add_1":"京都市山科区","jp_add_2":"御陵四丁野町"},"6078426":{"post_code":"6078426","prefecture":"KYOTO FU","city":"KYOTO SHI YAMASHINA KU","town":"MISASAGI SHIMOGOBYONOCHO","perfecture_jp":"京都府","jp_add_1":"京都市山科区","jp_add_2":"御陵下御廟野町"},"6078416":{"post_code":"6078416","prefecture":"KYOTO FU","city":"KYOTO SHI YAMASHINA KU","town":"MISASAGI SHINDOCHO","perfecture_jp":"京都府","jp_add_1":"京都市山科区","jp_add_2":"御陵進藤町"},"6078405":{"post_code":"6078405","prefecture":"KYOTO FU","city":"KYOTO SHI YAMASHINA KU","town":"MISASAGI TAYAMACHO","perfecture_jp":"京都府","jp_add_1":"京都市山科区","jp_add_2":"御陵田山町"},"6078419":{"post_code":"6078419","prefecture":"KYOTO FU","city":"KYOTO SHI YAMASHINA KU","town":"MISASAGI DANNOSHIRO","perfecture_jp":"京都府","jp_add_1":"京都市山科区","jp_add_2":"御陵檀ノ後"},"6078428":{"post_code":"6078428","prefecture":"KYOTO FU","city":"KYOTO SHI YAMASHINA KU","town":"MISASAGI CHIARAICHO","perfecture_jp":"京都府","jp_add_1":"京都市山科区","jp_add_2":"御陵血洗町"},"6078409":{"post_code":"6078409","prefecture":"KYOTO FU","city":"KYOTO SHI YAMASHINA KU","town":"MISASAGI TENTOKUCHO","perfecture_jp":"京都府","jp_add_1":"京都市山科区","jp_add_2":"御陵天徳町"},"6078408":{"post_code":"6078408","prefecture":"KYOTO FU","city":"KYOTO SHI YAMASHINA KU","town":"MISASAGI TORINOMUKAICHO","perfecture_jp":"京都府","jp_add_1":"京都市山科区","jp_add_2":"御陵鳥ノ向町"},"6078414":{"post_code":"6078414","prefecture":"KYOTO FU","city":"KYOTO SHI YAMASHINA KU","town":"MISASAGI NAKAUCHICHO","perfecture_jp":"京都府","jp_add_1":"京都市山科区","jp_add_2":"御陵中内町"},"6078415":{"post_code":"6078415","prefecture":"KYOTO FU","city":"KYOTO SHI YAMASHINA KU","town":"MISASAGI NAKASUJICHO","perfecture_jp":"京都府","jp_add_1":"京都市山科区","jp_add_2":"御陵中筋町"},"6078424":{"post_code":"6078424","prefecture":"KYOTO FU","city":"KYOTO SHI YAMASHINA KU","town":"MISASAGI HARANISHICHO","perfecture_jp":"京都府","jp_add_1":"京都市山科区","jp_add_2":"御陵原西町"},"6078406":{"post_code":"6078406","prefecture":"KYOTO FU","city":"KYOTO SHI YAMASHINA KU","town":"MISASAGI HIRABAYASHICHO","perfecture_jp":"京都府","jp_add_1":"京都市山科区","jp_add_2":"御陵平林町"},"6078422":{"post_code":"6078422","prefecture":"KYOTO FU","city":"KYOTO SHI YAMASHINA KU","town":"MISASAGI FUJIYAMACHO","perfecture_jp":"京都府","jp_add_1":"京都市山科区","jp_add_2":"御陵封ジ山町"},"6078417":{"post_code":"6078417","prefecture":"KYOTO FU","city":"KYOTO SHI YAMASHINA KU","town":"MISASAGI BESSHOCHO","perfecture_jp":"京都府","jp_add_1":"京都市山科区","jp_add_2":"御陵別所町"},"6078423":{"post_code":"6078423","prefecture":"KYOTO FU","city":"KYOTO SHI YAMASHINA KU","town":"MISASAGI YAMANOTANI","perfecture_jp":"京都府","jp_add_1":"京都市山科区","jp_add_2":"御陵山ノ谷"}}