{"6100000":{"post_code":"6100000","prefecture":"KYOTO FU","city":"KYOTO SHI NISHIKYO KU","town":"IKANIKEISAIGANAIBAAI","perfecture_jp":"京都府","jp_add_1":"京都市西京区","jp_add_2":""},"6101101":{"post_code":"6101101","prefecture":"KYOTO FU","city":"KYOTO SHI NISHIKYO KU","town":"OE KITAKUTSUKAKECHO","perfecture_jp":"京都府","jp_add_1":"京都市西京区","jp_add_2":"大枝北沓掛町"},"6101112":{"post_code":"6101112","prefecture":"KYOTO FU","city":"KYOTO SHI NISHIKYO KU","town":"OE KITAFUKUNISHICHO","perfecture_jp":"京都府","jp_add_1":"京都市西京区","jp_add_2":"大枝北福西町"},"6101106":{"post_code":"6101106","prefecture":"KYOTO FU","city":"KYOTO SHI NISHIKYO KU","town":"OE KUTSUKAKECHO","perfecture_jp":"京都府","jp_add_1":"京都市西京区","jp_add_2":"大枝沓掛町"},"6101105":{"post_code":"6101105","prefecture":"KYOTO FU","city":"KYOTO SHI NISHIKYO KU","town":"OE TSUKAHARACHO","perfecture_jp":"京都府","jp_add_1":"京都市西京区","jp_add_2":"大枝塚原町"},"6101104":{"post_code":"6101104","prefecture":"KYOTO FU","city":"KYOTO SHI NISHIKYO KU","town":"OE NAKAYAMACHO","perfecture_jp":"京都府","jp_add_1":"京都市西京区","jp_add_2":"大枝中山町"},"6101141":{"post_code":"6101141","prefecture":"KYOTO FU","city":"KYOTO SHI NISHIKYO KU","town":"OE NISHISHIMBAYASHICHO","perfecture_jp":"京都府","jp_add_1":"京都市西京区","jp_add_2":"大枝西新林町"},"6101151":{"post_code":"6101151","prefecture":"KYOTO FU","city":"KYOTO SHI NISHIKYO KU","town":"OE NISHINAGACHO","perfecture_jp":"京都府","jp_add_1":"京都市西京区","jp_add_2":"大枝西長町"},"6101142":{"post_code":"6101142","prefecture":"KYOTO FU","city":"KYOTO SHI NISHIKYO KU","town":"OE HIGASHISHIMBAYASHICHO","perfecture_jp":"京都府","jp_add_1":"京都市西京区","jp_add_2":"大枝東新林町"},"6101111":{"post_code":"6101111","prefecture":"KYOTO FU","city":"KYOTO SHI NISHIKYO KU","town":"OE HIGASHINAGACHO","perfecture_jp":"京都府","jp_add_1":"京都市西京区","jp_add_2":"大枝東長町"},"6101113":{"post_code":"6101113","prefecture":"KYOTO FU","city":"KYOTO SHI NISHIKYO KU","town":"OE MINAMIFUKUNISHICHO","perfecture_jp":"京都府","jp_add_1":"京都市西京区","jp_add_2":"大枝南福西町"},"6101134":{"post_code":"6101134","prefecture":"KYOTO FU","city":"KYOTO SHI NISHIKYO KU","town":"OHARANO ISHIZUKURICHO","perfecture_jp":"京都府","jp_add_1":"京都市西京区","jp_add_2":"大原野石作町"},"6101135":{"post_code":"6101135","prefecture":"KYOTO FU","city":"KYOTO SHI NISHIKYO KU","town":"OHARANO IZURIHACHO","perfecture_jp":"京都府","jp_add_1":"京都市西京区","jp_add_2":"大原野出灰町"},"6101128":{"post_code":"6101128","prefecture":"KYOTO FU","city":"KYOTO SHI NISHIKYO KU","town":"OHARANO IWAMICHO","perfecture_jp":"京都府","jp_add_1":"京都市西京区","jp_add_2":"大原野石見町"},"6101131":{"post_code":"6101131","prefecture":"KYOTO FU","city":"KYOTO SHI NISHIKYO KU","town":"OHARANO UEBACHO","perfecture_jp":"京都府","jp_add_1":"京都市西京区","jp_add_2":"大原野上羽町"},"6101133":{"post_code":"6101133","prefecture":"KYOTO FU","city":"KYOTO SHI NISHIKYO KU","town":"OHARANO OSHIOCHO","perfecture_jp":"京都府","jp_add_1":"京都市西京区","jp_add_2":"大原野小塩町"},"6101126":{"post_code":"6101126","prefecture":"KYOTO FU","city":"KYOTO SHI NISHIKYO KU","town":"OHARANO KAMIZATOJIKACHO","perfecture_jp":"京都府","jp_add_1":"京都市西京区","jp_add_2":"大原野上里男鹿町"},"6101125":{"post_code":"6101125","prefecture":"KYOTO FU","city":"KYOTO SHI NISHIKYO KU","town":"OHARANO KAMIZATOKATSUYAMACHO","perfecture_jp":"京都府","jp_add_1":"京都市西京区","jp_add_2":"大原野上里勝山町"},"6101121":{"post_code":"6101121","prefecture":"KYOTO FU","city":"KYOTO SHI NISHIKYO KU","town":"OHARANO KAMIZATOKITANOCHO","perfecture_jp":"京都府","jp_add_1":"京都市西京区","jp_add_2":"大原野上里北ノ町"},"6101127":{"post_code":"6101127","prefecture":"KYOTO FU","city":"KYOTO SHI NISHIKYO KU","town":"OHARANO KAMIZATOTORIMICHO","perfecture_jp":"京都府","jp_add_1":"京都市西京区","jp_add_2":"大原野上里鳥見町"},"6101123":{"post_code":"6101123","prefecture":"KYOTO FU","city":"KYOTO SHI NISHIKYO KU","town":"OHARANO KAMIZATOMINAMINOCHO","perfecture_jp":"京都府","jp_add_1":"京都市西京区","jp_add_2":"大原野上里南ノ町"},"6101124":{"post_code":"6101124","prefecture":"KYOTO FU","city":"KYOTO SHI NISHIKYO KU","town":"OHARANO KAMIZATOMOMIJICHO","perfecture_jp":"京都府","jp_add_1":"京都市西京区","jp_add_2":"大原野上里紅葉町"},"6101152":{"post_code":"6101152","prefecture":"KYOTO FU","city":"KYOTO SHI NISHIKYO KU","town":"OHARANO KITAKASUGACHO","perfecture_jp":"京都府","jp_add_1":"京都市西京区","jp_add_2":"大原野北春日町"},"6101136":{"post_code":"6101136","prefecture":"KYOTO FU","city":"KYOTO SHI NISHIKYO KU","town":"OHARANO TONOHATACHO","perfecture_jp":"京都府","jp_add_1":"京都市西京区","jp_add_2":"大原野外畑町"},"6101146":{"post_code":"6101146","prefecture":"KYOTO FU","city":"KYOTO SHI NISHIKYO KU","town":"OHARANO NISHISAKAIDANICHO","perfecture_jp":"京都府","jp_add_1":"京都市西京区","jp_add_2":"大原野西境谷町"},"6101145":{"post_code":"6101145","prefecture":"KYOTO FU","city":"KYOTO SHI NISHIKYO KU","town":"OHARANO NISHITAKENOSATOCHO","perfecture_jp":"京都府","jp_add_1":"京都市西京区","jp_add_2":"大原野西竹の里町"},"6101132":{"post_code":"6101132","prefecture":"KYOTO FU","city":"KYOTO SHI NISHIKYO KU","town":"OHARANO HAIGATACHO","perfecture_jp":"京都府","jp_add_1":"京都市西京区","jp_add_2":"大原野灰方町"},"6101143":{"post_code":"6101143","prefecture":"KYOTO FU","city":"KYOTO SHI NISHIKYO KU","town":"OHARANO HIGASHISAKAIDANICHO","perfecture_jp":"京都府","jp_add_1":"京都市西京区","jp_add_2":"大原野東境谷町"},"6101144":{"post_code":"6101144","prefecture":"KYOTO FU","city":"KYOTO SHI NISHIKYO KU","town":"OHARANO HIGASHITAKENOSATOCHO","perfecture_jp":"京都府","jp_add_1":"京都市西京区","jp_add_2":"大原野東竹の里町"},"6101122":{"post_code":"6101122","prefecture":"KYOTO FU","city":"KYOTO SHI NISHIKYO KU","town":"OHARANO HIGASHINOCHO","perfecture_jp":"京都府","jp_add_1":"京都市西京区","jp_add_2":"大原野東野町"},"6101153":{"post_code":"6101153","prefecture":"KYOTO FU","city":"KYOTO SHI NISHIKYO KU","town":"OHARANO MINAMIKASUGACHO","perfecture_jp":"京都府","jp_add_1":"京都市西京区","jp_add_2":"大原野南春日町"},"6101102":{"post_code":"6101102","prefecture":"KYOTO FU","city":"KYOTO SHI NISHIKYO KU","town":"GORYO OEYAMACHO","perfecture_jp":"京都府","jp_add_1":"京都市西京区","jp_add_2":"御陵大枝山町"},"6101107":{"post_code":"6101107","prefecture":"KYOTO FU","city":"KYOTO SHI NISHIKYO KU","town":"GORYO KITAOEYAMACHO","perfecture_jp":"京都府","jp_add_1":"京都市西京区","jp_add_2":"御陵北大枝山町"},"6101103":{"post_code":"6101103","prefecture":"KYOTO FU","city":"KYOTO SHI NISHIKYO KU","town":"GORYO MINEGADOCHO","perfecture_jp":"京都府","jp_add_1":"京都市西京区","jp_add_2":"御陵峰ケ堂町"},"6100100":{"post_code":"6100100","prefecture":"KYOTO FU","city":"JOYO SHI","town":"IKANIKEISAIGANAIBAAI","perfecture_jp":"京都府","jp_add_1":"城陽市","jp_add_2":""},"6100114":{"post_code":"6100114","prefecture":"KYOTO FU","city":"JOYO SHI","town":"ICHINOBE","perfecture_jp":"京都府","jp_add_1":"城陽市","jp_add_2":"市辺"},"6100115":{"post_code":"6100115","prefecture":"KYOTO FU","city":"JOYO SHI","town":"KANNONDO","perfecture_jp":"京都府","jp_add_1":"城陽市","jp_add_2":"観音堂"},"6100102":{"post_code":"6100102","prefecture":"KYOTO FU","city":"JOYO SHI","town":"KUSE","perfecture_jp":"京都府","jp_add_1":"城陽市","jp_add_2":"久世"},"6100103":{"post_code":"6100103","prefecture":"KYOTO FU","city":"JOYO SHI","town":"KOZUYA","perfecture_jp":"京都府","jp_add_1":"城陽市","jp_add_2":"上津屋"},"6100121":{"post_code":"6100121","prefecture":"KYOTO FU","city":"JOYO SHI","town":"TERADA","perfecture_jp":"京都府","jp_add_1":"城陽市","jp_add_2":"寺田"},"6100111":{"post_code":"6100111","prefecture":"KYOTO FU","city":"JOYO SHI","town":"TONO","perfecture_jp":"京都府","jp_add_1":"城陽市","jp_add_2":"富野"},"6100113":{"post_code":"6100113","prefecture":"KYOTO FU","city":"JOYO SHI","town":"NAKA","perfecture_jp":"京都府","jp_add_1":"城陽市","jp_add_2":"中"},"6100112":{"post_code":"6100112","prefecture":"KYOTO FU","city":"JOYO SHI","town":"NAGAIKE","perfecture_jp":"京都府","jp_add_1":"城陽市","jp_add_2":"長池"},"6100116":{"post_code":"6100116","prefecture":"KYOTO FU","city":"JOYO SHI","town":"NASHIMA","perfecture_jp":"京都府","jp_add_1":"城陽市","jp_add_2":"奈島"},"6100101":{"post_code":"6100101","prefecture":"KYOTO FU","city":"JOYO SHI","town":"HIRAKAWA","perfecture_jp":"京都府","jp_add_1":"城陽市","jp_add_2":"平川"},"6100117":{"post_code":"6100117","prefecture":"KYOTO FU","city":"JOYO SHI","town":"BIWANOSHO","perfecture_jp":"京都府","jp_add_1":"城陽市","jp_add_2":"枇杷庄"},"6100118":{"post_code":"6100118","prefecture":"KYOTO FU","city":"JOYO SHI","town":"MIZUSHI","perfecture_jp":"京都府","jp_add_1":"城陽市","jp_add_2":"水主"},"6100300":{"post_code":"6100300","prefecture":"KYOTO FU","city":"TSUZUKI GUN IDE CHO","town":"IKANIKEISAIGANAIBAAI","perfecture_jp":"京都府","jp_add_1":"京田辺市","jp_add_2":""},"6100312":{"post_code":"6100312","prefecture":"KYOTO FU","city":"KYOTANABE SHI","town":"INOKA","perfecture_jp":"京都府","jp_add_1":"京田辺市","jp_add_2":"飯岡"},"6100324":{"post_code":"6100324","prefecture":"KYOTO FU","city":"KYOTANABE SHI","town":"UTSUTA","perfecture_jp":"京都府","jp_add_1":"京田辺市","jp_add_2":"打田"},"6100343":{"post_code":"6100343","prefecture":"KYOTO FU","city":"KYOTANABE SHI","town":"OSUMI","perfecture_jp":"京都府","jp_add_1":"京田辺市","jp_add_2":"大住"},"6100351":{"post_code":"6100351","prefecture":"KYOTO FU","city":"KYOTANABE SHI","town":"OSUMIGAOKA","perfecture_jp":"京都府","jp_add_1":"京田辺市","jp_add_2":"大住ケ丘"},"6100352":{"post_code":"6100352","prefecture":"KYOTO FU","city":"KYOTANABE SHI","town":"KASUMIZAKA","perfecture_jp":"京都府","jp_add_1":"京田辺市","jp_add_2":"花住坂"},"6100361":{"post_code":"6100361","prefecture":"KYOTO FU","city":"KYOTANABE SHI","town":"KAWARA","perfecture_jp":"京都府","jp_add_1":"京田辺市","jp_add_2":"河原"},"6100333":{"post_code":"6100333","prefecture":"KYOTO FU","city":"KYOTANABE SHI","town":"KANNABIDAI","perfecture_jp":"京都府","jp_add_1":"京田辺市","jp_add_2":"甘南備台"},"6100311":{"post_code":"6100311","prefecture":"KYOTO FU","city":"KYOTANABE SHI","town":"KUSAUCHI","perfecture_jp":"京都府","jp_add_1":"京田辺市","jp_add_2":"草内"},"6100332":{"post_code":"6100332","prefecture":"KYOTO FU","city":"KYOTANABE SHI","town":"KODO","perfecture_jp":"京都府","jp_add_1":"京田辺市","jp_add_2":"興戸"},"6100325":{"post_code":"6100325","prefecture":"KYOTO FU","city":"KYOTANABE SHI","town":"TAKAFUNE","perfecture_jp":"京都府","jp_add_1":"京田辺市","jp_add_2":"高船"},"6100341":{"post_code":"6100341","prefecture":"KYOTO FU","city":"KYOTANABE SHI","town":"TAKIGI","perfecture_jp":"京都府","jp_add_1":"京田辺市","jp_add_2":"薪"},"6100321":{"post_code":"6100321","prefecture":"KYOTO FU","city":"KYOTANABE SHI","town":"TATARA","perfecture_jp":"京都府","jp_add_1":"京田辺市","jp_add_2":"多々羅"},"6100331":{"post_code":"6100331","prefecture":"KYOTO FU","city":"KYOTANABE SHI","town":"TANABE","perfecture_jp":"京都府","jp_add_1":"京田辺市","jp_add_2":"田辺"},"6100334":{"post_code":"6100334","prefecture":"KYOTO FU","city":"KYOTANABE SHI","town":"TANABECHUO","perfecture_jp":"京都府","jp_add_1":"京田辺市","jp_add_2":"田辺中央"},"6100326":{"post_code":"6100326","prefecture":"KYOTO FU","city":"KYOTANABE SHI","town":"TENNO","perfecture_jp":"京都府","jp_add_1":"京田辺市","jp_add_2":"天王"},"6100315":{"post_code":"6100315","prefecture":"KYOTO FU","city":"KYOTANABE SHI","town":"DOSHISHAYAMATE","perfecture_jp":"京都府","jp_add_1":"京田辺市","jp_add_2":"同志社山手"},"6100362":{"post_code":"6100362","prefecture":"KYOTO FU","city":"KYOTANABE SHI","town":"HIGASHI","perfecture_jp":"京都府","jp_add_1":"京田辺市","jp_add_2":"東"},"6100322":{"post_code":"6100322","prefecture":"KYOTO FU","city":"KYOTANABE SHI","town":"FUGENJI","perfecture_jp":"京都府","jp_add_1":"京田辺市","jp_add_2":"普賢寺"},"6100342":{"post_code":"6100342","prefecture":"KYOTO FU","city":"KYOTANABE SHI","town":"MATSUI","perfecture_jp":"京都府","jp_add_1":"京田辺市","jp_add_2":"松井"},"6100353":{"post_code":"6100353","prefecture":"KYOTO FU","city":"KYOTANABE SHI","town":"MATSUIGAOKA","perfecture_jp":"京都府","jp_add_1":"京田辺市","jp_add_2":"松井ケ丘"},"6100323":{"post_code":"6100323","prefecture":"KYOTO FU","city":"KYOTANABE SHI","town":"MIZUTORI","perfecture_jp":"京都府","jp_add_1":"京田辺市","jp_add_2":"水取"},"6100314":{"post_code":"6100314","prefecture":"KYOTO FU","city":"KYOTANABE SHI","town":"MIYAZU","perfecture_jp":"京都府","jp_add_1":"京田辺市","jp_add_2":"宮津"},"6100313":{"post_code":"6100313","prefecture":"KYOTO FU","city":"KYOTANABE SHI","town":"MIYAMAKI","perfecture_jp":"京都府","jp_add_1":"京田辺市","jp_add_2":"三山木"},"6100356":{"post_code":"6100356","prefecture":"KYOTO FU","city":"KYOTANABE SHI","town":"YAMATECHUO","perfecture_jp":"京都府","jp_add_1":"京田辺市","jp_add_2":"山手中央"},"6100357":{"post_code":"6100357","prefecture":"KYOTO FU","city":"KYOTANABE SHI","town":"YAMATEHIGASHI","perfecture_jp":"京都府","jp_add_1":"京田辺市","jp_add_2":"山手東"},"6100355":{"post_code":"6100355","prefecture":"KYOTO FU","city":"KYOTANABE SHI","town":"YAMATENISHI","perfecture_jp":"京都府","jp_add_1":"京田辺市","jp_add_2":"山手西"},"6100354":{"post_code":"6100354","prefecture":"KYOTO FU","city":"KYOTANABE SHI","town":"YAMATEMINAMI","perfecture_jp":"京都府","jp_add_1":"京田辺市","jp_add_2":"山手南"},"6100302":{"post_code":"6100302","prefecture":"KYOTO FU","city":"TSUZUKI GUN IDE CHO","town":"IDE","perfecture_jp":"京都府","jp_add_1":"綴喜郡井手町","jp_add_2":"井手"},"6100301":{"post_code":"6100301","prefecture":"KYOTO FU","city":"TSUZUKI GUN IDE CHO","town":"TAGA","perfecture_jp":"京都府","jp_add_1":"綴喜郡井手町","jp_add_2":"多賀"},"6100303":{"post_code":"6100303","prefecture":"KYOTO FU","city":"TSUZUKI GUN IDE CHO","town":"TAMURASHINDEN","perfecture_jp":"京都府","jp_add_1":"綴喜郡井手町","jp_add_2":"田村新田"},"6100200":{"post_code":"6100200","prefecture":"KYOTO FU","city":"TSUZUKI GUN UJITAWARA CHO","town":"IKANIKEISAIGANAIBAAI","perfecture_jp":"京都府","jp_add_1":"綴喜郡宇治田原町","jp_add_2":""},"6100252":{"post_code":"6100252","prefecture":"KYOTO FU","city":"TSUZUKI GUN UJITAWARA CHO","town":"ARAKI","perfecture_jp":"京都府","jp_add_1":"綴喜郡宇治田原町","jp_add_2":"荒木"},"6100261":{"post_code":"6100261","prefecture":"KYOTO FU","city":"TSUZUKI GUN UJITAWARA CHO","town":"IWAYAMA","perfecture_jp":"京都府","jp_add_1":"綴喜郡宇治田原町","jp_add_2":"岩山"},"6100211":{"post_code":"6100211","prefecture":"KYOTO FU","city":"TSUZUKI GUN UJITAWARA CHO","town":"OKUYAMADA","perfecture_jp":"京都府","jp_add_1":"綴喜郡宇治田原町","jp_add_2":"奥山田"},"6100251":{"post_code":"6100251","prefecture":"KYOTO FU","city":"TSUZUKI GUN UJITAWARA CHO","town":"KONO","perfecture_jp":"京都府","jp_add_1":"綴喜郡宇治田原町","jp_add_2":"高尾"},"6100255":{"post_code":"6100255","prefecture":"KYOTO FU","city":"TSUZUKI GUN UJITAWARA CHO","town":"GONOKUCHI","perfecture_jp":"京都府","jp_add_1":"綴喜郡宇治田原町","jp_add_2":"郷之口"},"6100201":{"post_code":"6100201","prefecture":"KYOTO FU","city":"TSUZUKI GUN UJITAWARA CHO","town":"ZENJOJI","perfecture_jp":"京都府","jp_add_1":"綴喜郡宇治田原町","jp_add_2":"禅定寺"},"6100231":{"post_code":"6100231","prefecture":"KYOTO FU","city":"TSUZUKI GUN UJITAWARA CHO","town":"TACHIKAWA","perfecture_jp":"京都府","jp_add_1":"綴喜郡宇治田原町","jp_add_2":"立川"},"6100253":{"post_code":"6100253","prefecture":"KYOTO FU","city":"TSUZUKI GUN UJITAWARA CHO","town":"NEDA","perfecture_jp":"京都府","jp_add_1":"綴喜郡宇治田原町","jp_add_2":"贄田"},"6100241":{"post_code":"6100241","prefecture":"KYOTO FU","city":"TSUZUKI GUN UJITAWARA CHO","town":"MINAMI","perfecture_jp":"京都府","jp_add_1":"綴喜郡宇治田原町","jp_add_2":"南"},"6100254":{"post_code":"6100254","prefecture":"KYOTO FU","city":"TSUZUKI GUN UJITAWARA CHO","town":"MEIJODAI","perfecture_jp":"京都府","jp_add_1":"綴喜郡宇治田原町","jp_add_2":"銘城台"},"6100221":{"post_code":"6100221","prefecture":"KYOTO FU","city":"TSUZUKI GUN UJITAWARA CHO","town":"YUYADANI","perfecture_jp":"京都府","jp_add_1":"綴喜郡宇治田原町","jp_add_2":"湯屋谷"},"6100202":{"post_code":"6100202","prefecture":"KYOTO FU","city":"TSUZUKI GUN UJITAWARA CHO","town":"RYOKUENZAKA","perfecture_jp":"京都府","jp_add_1":"綴喜郡宇治田原町","jp_add_2":"緑苑坂"}}