{"6180000":{"post_code":"6180000","prefecture":"OSAKA FU","city":"MISHIMA GUN SHIMAMOTO CHO","town":"IKANIKEISAIGANAIBAAI","perfecture_jp":"京都府","jp_add_1":"乙訓郡大山崎町","jp_add_2":""},"6180091":{"post_code":"6180091","prefecture":"KYOTO FU","city":"OTOKUNI GUN OYAMAZAKI CHO","town":"EMMYOJI","perfecture_jp":"京都府","jp_add_1":"乙訓郡大山崎町","jp_add_2":"円明寺"},"6180071":{"post_code":"6180071","prefecture":"KYOTO FU","city":"OTOKUNI GUN OYAMAZAKI CHO","town":"OYAMAZAKI","perfecture_jp":"京都府","jp_add_1":"乙訓郡大山崎町","jp_add_2":"大山崎"},"6180081":{"post_code":"6180081","prefecture":"KYOTO FU","city":"OTOKUNI GUN OYAMAZAKI CHO","town":"SHIMOENO","perfecture_jp":"京都府","jp_add_1":"乙訓郡大山崎町","jp_add_2":"下植野"},"6180015":{"post_code":"6180015","prefecture":"OSAKA FU","city":"MISHIMA GUN SHIMAMOTO CHO","town":"AOBA","perfecture_jp":"大阪府","jp_add_1":"三島郡島本町","jp_add_2":"青葉"},"6180013":{"post_code":"6180013","prefecture":"OSAKA FU","city":"MISHIMA GUN SHIMAMOTO CHO","town":"EGAWA","perfecture_jp":"大阪府","jp_add_1":"三島郡島本町","jp_add_2":"江川"},"6180004":{"post_code":"6180004","prefecture":"OSAKA FU","city":"MISHIMA GUN SHIMAMOTO CHO","town":"OSAWA","perfecture_jp":"大阪府","jp_add_1":"三島郡島本町","jp_add_2":"大沢"},"6180022":{"post_code":"6180022","prefecture":"OSAKA FU","city":"MISHIMA GUN SHIMAMOTO CHO","town":"SAKURAI","perfecture_jp":"大阪府","jp_add_1":"三島郡島本町","jp_add_2":"桜井"},"6180023":{"post_code":"6180023","prefecture":"OSAKA FU","city":"MISHIMA GUN SHIMAMOTO CHO","town":"SAKURAIDAI","perfecture_jp":"大阪府","jp_add_1":"三島郡島本町","jp_add_2":"桜井台"},"6180003":{"post_code":"6180003","prefecture":"OSAKA FU","city":"MISHIMA GUN SHIMAMOTO CHO","town":"SHAKUDAI","perfecture_jp":"大阪府","jp_add_1":"三島郡島本町","jp_add_2":"尺代"},"6180012":{"post_code":"6180012","prefecture":"OSAKA FU","city":"MISHIMA GUN SHIMAMOTO CHO","town":"TAKAHAMA","perfecture_jp":"大阪府","jp_add_1":"三島郡島本町","jp_add_2":"高浜"},"6180002":{"post_code":"6180002","prefecture":"OSAKA FU","city":"MISHIMA GUN SHIMAMOTO CHO","town":"TODAIJI","perfecture_jp":"大阪府","jp_add_1":"三島郡島本町","jp_add_2":"東大寺"},"6180021":{"post_code":"6180021","prefecture":"OSAKA FU","city":"MISHIMA GUN SHIMAMOTO CHO","town":"HYAKUYAMA","perfecture_jp":"大阪府","jp_add_1":"三島郡島本町","jp_add_2":"百山"},"6180011":{"post_code":"6180011","prefecture":"OSAKA FU","city":"MISHIMA GUN SHIMAMOTO CHO","town":"HIROSE","perfecture_jp":"大阪府","jp_add_1":"三島郡島本町","jp_add_2":"広瀬"},"6180014":{"post_code":"6180014","prefecture":"OSAKA FU","city":"MISHIMA GUN SHIMAMOTO CHO","town":"MINASE","perfecture_jp":"大阪府","jp_add_1":"三島郡島本町","jp_add_2":"水無瀬"},"6180001":{"post_code":"6180001","prefecture":"OSAKA FU","city":"MISHIMA GUN SHIMAMOTO CHO","town":"YAMAZAKI","perfecture_jp":"大阪府","jp_add_1":"三島郡島本町","jp_add_2":"山崎"},"6180024":{"post_code":"6180024","prefecture":"OSAKA FU","city":"MISHIMA GUN SHIMAMOTO CHO","town":"WAKAYAMADAI","perfecture_jp":"大阪府","jp_add_1":"三島郡島本町","jp_add_2":"若山台"}}