{"6200000":{"post_code":"6200000","prefecture":"KYOTO FU","city":"FUKUCHIYAMA SHI","town":"IKANIKEISAIGANAIBAAI","perfecture_jp":"京都府","jp_add_1":"福知山市","jp_add_2":""},"6200861":{"post_code":"6200861","prefecture":"KYOTO FU","city":"FUKUCHIYAMA SHI","town":"AKITSUGAOKA","perfecture_jp":"京都府","jp_add_1":"福知山市","jp_add_2":"秋津が丘"},"6200947":{"post_code":"6200947","prefecture":"KYOTO FU","city":"FUKUCHIYAMA SHI","town":"ASAHIGAOKA","perfecture_jp":"京都府","jp_add_1":"福知山市","jp_add_2":"旭が丘"},"6200058":{"post_code":"6200058","prefecture":"KYOTO FU","city":"FUKUCHIYAMA SHI","town":"ATSU","perfecture_jp":"京都府","jp_add_1":"福知山市","jp_add_2":"厚"},"6200056":{"post_code":"6200056","prefecture":"KYOTO FU","city":"FUKUCHIYAMA SHI","town":"ATSUNAKAMACHI","perfecture_jp":"京都府","jp_add_1":"福知山市","jp_add_2":"厚中町"},"6200059":{"post_code":"6200059","prefecture":"KYOTO FU","city":"FUKUCHIYAMA SHI","town":"ATSUHIGASHIMACHI","perfecture_jp":"京都府","jp_add_1":"福知山市","jp_add_2":"厚東町"},"6200964":{"post_code":"6200964","prefecture":"KYOTO FU","city":"FUKUCHIYAMA SHI","town":"AMAGURI","perfecture_jp":"京都府","jp_add_1":"福知山市","jp_add_2":"甘栗"},"6200201":{"post_code":"6200201","prefecture":"KYOTO FU","city":"FUKUCHIYAMA SHI","town":"AMAZA","perfecture_jp":"京都府","jp_add_1":"福知山市","jp_add_2":"天座"},"6200063":{"post_code":"6200063","prefecture":"KYOTO FU","city":"FUKUCHIYAMA SHI","town":"ARAGASHIMMACHI","perfecture_jp":"京都府","jp_add_1":"福知山市","jp_add_2":"荒河新町"},"6200061":{"post_code":"6200061","prefecture":"KYOTO FU","city":"FUKUCHIYAMA SHI","town":"ARAGAHIGASHIMACHI","perfecture_jp":"京都府","jp_add_1":"福知山市","jp_add_2":"荒河東町"},"6200879":{"post_code":"6200879","prefecture":"KYOTO FU","city":"FUKUCHIYAMA SHI","town":"ARAKI","perfecture_jp":"京都府","jp_add_1":"福知山市","jp_add_2":"荒木"},"6200823":{"post_code":"6200823","prefecture":"KYOTO FU","city":"FUKUCHIYAMA SHI","town":"IKUNO","perfecture_jp":"京都府","jp_add_1":"福知山市","jp_add_2":"生野"},"6200832":{"post_code":"6200832","prefecture":"KYOTO FU","city":"FUKUCHIYAMA SHI","town":"IKEDA","perfecture_jp":"京都府","jp_add_1":"福知山市","jp_add_2":"池田"},"6200013":{"post_code":"6200013","prefecture":"KYOTO FU","city":"FUKUCHIYAMA SHI","town":"IKEBE","perfecture_jp":"京都府","jp_add_1":"福知山市","jp_add_2":"池部"},"6200804":{"post_code":"6200804","prefecture":"KYOTO FU","city":"FUKUCHIYAMA SHI","town":"ISA","perfecture_jp":"京都府","jp_add_1":"福知山市","jp_add_2":"石原"},"6200017":{"post_code":"6200017","prefecture":"KYOTO FU","city":"FUKUCHIYAMA SHI","town":"IZAKI","perfecture_jp":"京都府","jp_add_1":"福知山市","jp_add_2":"猪崎"},"6200961":{"post_code":"6200961","prefecture":"KYOTO FU","city":"FUKUCHIYAMA SHI","town":"ISHIBA","perfecture_jp":"京都府","jp_add_1":"福知山市","jp_add_2":"石場"},"6200074":{"post_code":"6200074","prefecture":"KYOTO FU","city":"FUKUCHIYAMA SHI","town":"ISHIMOTO","perfecture_jp":"京都府","jp_add_1":"福知山市","jp_add_2":"石本"},"6200071":{"post_code":"6200071","prefecture":"KYOTO FU","city":"FUKUCHIYAMA SHI","town":"ICHIO","perfecture_jp":"京都府","jp_add_1":"福知山市","jp_add_2":"一尾"},"6200939":{"post_code":"6200939","prefecture":"KYOTO FU","city":"FUKUCHIYAMA SHI","town":"ICHIDERA","perfecture_jp":"京都府","jp_add_1":"福知山市","jp_add_2":"市寺"},"6200848":{"post_code":"6200848","prefecture":"KYOTO FU","city":"FUKUCHIYAMA SHI","town":"ICHINOTANI","perfecture_jp":"京都府","jp_add_1":"福知山市","jp_add_2":"市の谷"},"6200907":{"post_code":"6200907","prefecture":"KYOTO FU","city":"FUKUCHIYAMA SHI","town":"ICHINOMIYA","perfecture_jp":"京都府","jp_add_1":"福知山市","jp_add_2":"一ノ宮"},"6200212":{"post_code":"6200212","prefecture":"KYOTO FU","city":"FUKUCHIYAMA SHI","town":"ITSUMORI","perfecture_jp":"京都府","jp_add_1":"福知山市","jp_add_2":"行積"},"6200984":{"post_code":"6200984","prefecture":"KYOTO FU","city":"FUKUCHIYAMA SHI","town":"INONO","perfecture_jp":"京都府","jp_add_1":"福知山市","jp_add_2":"猪野々"},"6200953":{"post_code":"6200953","prefecture":"KYOTO FU","city":"FUKUCHIYAMA SHI","town":"IMAYASU","perfecture_jp":"京都府","jp_add_1":"福知山市","jp_add_2":"今安"},"6200031":{"post_code":"6200031","prefecture":"KYOTO FU","city":"FUKUCHIYAMA SHI","town":"IMOJI","perfecture_jp":"京都府","jp_add_1":"福知山市","jp_add_2":"鋳物師"},"6200922":{"post_code":"6200922","prefecture":"KYOTO FU","city":"FUKUCHIYAMA SHI","town":"IWAI","perfecture_jp":"京都府","jp_add_1":"福知山市","jp_add_2":"岩井"},"6200920":{"post_code":"6200920","prefecture":"KYOTO FU","city":"FUKUCHIYAMA SHI","town":"IWAISHIMMACHI","perfecture_jp":"京都府","jp_add_1":"福知山市","jp_add_2":"岩井新町"},"6200064":{"post_code":"6200064","prefecture":"KYOTO FU","city":"FUKUCHIYAMA SHI","town":"IWAIHIGASHIMACHI","perfecture_jp":"京都府","jp_add_1":"福知山市","jp_add_2":"岩井東町"},"6200831":{"post_code":"6200831","prefecture":"KYOTO FU","city":"FUKUCHIYAMA SHI","town":"IWASAKI","perfecture_jp":"京都府","jp_add_1":"福知山市","jp_add_2":"岩崎"},"6200847":{"post_code":"6200847","prefecture":"KYOTO FU","city":"FUKUCHIYAMA SHI","town":"IWAMA","perfecture_jp":"京都府","jp_add_1":"福知山市","jp_add_2":"岩間"},"6200005":{"post_code":"6200005","prefecture":"KYOTO FU","city":"FUKUCHIYAMA SHI","town":"INNAI","perfecture_jp":"京都府","jp_add_1":"福知山市","jp_add_2":"印内"},"6200825":{"post_code":"6200825","prefecture":"KYOTO FU","city":"FUKUCHIYAMA SHI","town":"UENO","perfecture_jp":"京都府","jp_add_1":"福知山市","jp_add_2":"上野"},"6200845":{"post_code":"6200845","prefecture":"KYOTO FU","city":"FUKUCHIYAMA SHI","town":"UEMATSU","perfecture_jp":"京都府","jp_add_1":"福知山市","jp_add_2":"上松"},"6200881":{"post_code":"6200881","prefecture":"KYOTO FU","city":"FUKUCHIYAMA SHI","town":"UCHIDACHO","perfecture_jp":"京都府","jp_add_1":"福知山市","jp_add_2":"内田町"},"6200985":{"post_code":"6200985","prefecture":"KYOTO FU","city":"FUKUCHIYAMA SHI","town":"UMEDANI","perfecture_jp":"京都府","jp_add_1":"福知山市","jp_add_2":"梅谷"},"6200076":{"post_code":"6200076","prefecture":"KYOTO FU","city":"FUKUCHIYAMA SHI","town":"URUSHIGAHANA","perfecture_jp":"京都府","jp_add_1":"福知山市","jp_add_2":"漆端"},"6200940":{"post_code":"6200940","prefecture":"KYOTO FU","city":"FUKUCHIYAMA SHI","town":"EKINANCHO","perfecture_jp":"京都府","jp_add_1":"福知山市","jp_add_2":"駅南町"},"6200045":{"post_code":"6200045","prefecture":"KYOTO FU","city":"FUKUCHIYAMA SHI","town":"EKIMAECHO","perfecture_jp":"京都府","jp_add_1":"福知山市","jp_add_2":"駅前町"},"6200918":{"post_code":"6200918","prefecture":"KYOTO FU","city":"FUKUCHIYAMA SHI","town":"EBISU","perfecture_jp":"京都府","jp_add_1":"福知山市","jp_add_2":"夷"},"6200816":{"post_code":"6200816","prefecture":"KYOTO FU","city":"FUKUCHIYAMA SHI","town":"OIKEZAKACHO","perfecture_jp":"京都府","jp_add_1":"福知山市","jp_add_2":"大池坂町"},"6200325":{"post_code":"6200325","prefecture":"KYOTO FU","city":"FUKUCHIYAMA SHI","town":"OECHO AMADAUCHI","perfecture_jp":"京都府","jp_add_1":"福知山市","jp_add_2":"大江町天田内"},"6200354":{"post_code":"6200354","prefecture":"KYOTO FU","city":"FUKUCHIYAMA SHI","town":"OECHO ARITA","perfecture_jp":"京都府","jp_add_1":"福知山市","jp_add_2":"大江町在田"},"6200334":{"post_code":"6200334","prefecture":"KYOTO FU","city":"FUKUCHIYAMA SHI","town":"OECHO ICHIWARADANI","perfecture_jp":"京都府","jp_add_1":"福知山市","jp_add_2":"大江町市原谷"},"6200304":{"post_code":"6200304","prefecture":"KYOTO FU","city":"FUKUCHIYAMA SHI","town":"OECHO UENO","perfecture_jp":"京都府","jp_add_1":"福知山市","jp_add_2":"大江町上野"},"6200314":{"post_code":"6200314","prefecture":"KYOTO FU","city":"FUKUCHIYAMA SHI","town":"OECHO OWARATA","perfecture_jp":"京都府","jp_add_1":"福知山市","jp_add_2":"大江町小原田"},"6200303":{"post_code":"6200303","prefecture":"KYOTO FU","city":"FUKUCHIYAMA SHI","town":"OECHO KANAYA","perfecture_jp":"京都府","jp_add_1":"福知山市","jp_add_2":"大江町金屋"},"6200341":{"post_code":"6200341","prefecture":"KYOTO FU","city":"FUKUCHIYAMA SHI","town":"OECHO KITAARIJI","perfecture_jp":"京都府","jp_add_1":"福知山市","jp_add_2":"大江町北有路"},"6200327":{"post_code":"6200327","prefecture":"KYOTO FU","city":"FUKUCHIYAMA SHI","town":"OECHO KITABARA","perfecture_jp":"京都府","jp_add_1":"福知山市","jp_add_2":"大江町北原"},"6200312":{"post_code":"6200312","prefecture":"KYOTO FU","city":"FUKUCHIYAMA SHI","town":"OECHO GUJO","perfecture_jp":"京都府","jp_add_1":"福知山市","jp_add_2":"大江町公庄"},"6200322":{"post_code":"6200322","prefecture":"KYOTO FU","city":"FUKUCHIYAMA SHI","town":"OECHO KEWARA","perfecture_jp":"京都府","jp_add_1":"福知山市","jp_add_2":"大江町毛原"},"6200301":{"post_code":"6200301","prefecture":"KYOTO FU","city":"FUKUCHIYAMA SHI","town":"OECHO KOMORI","perfecture_jp":"京都府","jp_add_1":"福知山市","jp_add_2":"大江町河守"},"6200302":{"post_code":"6200302","prefecture":"KYOTO FU","city":"FUKUCHIYAMA SHI","town":"OECHO SEKI","perfecture_jp":"京都府","jp_add_1":"福知山市","jp_add_2":"大江町関"},"6200351":{"post_code":"6200351","prefecture":"KYOTO FU","city":"FUKUCHIYAMA SHI","town":"OECHO SEMBARA","perfecture_jp":"京都府","jp_add_1":"福知山市","jp_add_2":"大江町千原"},"6200331":{"post_code":"6200331","prefecture":"KYOTO FU","city":"FUKUCHIYAMA SHI","town":"OECHO SOGO","perfecture_jp":"京都府","jp_add_1":"福知山市","jp_add_2":"大江町三河"},"6200332":{"post_code":"6200332","prefecture":"KYOTO FU","city":"FUKUCHIYAMA SHI","town":"OECHO TAKATSUE","perfecture_jp":"京都府","jp_add_1":"福知山市","jp_add_2":"大江町高津江"},"6200311":{"post_code":"6200311","prefecture":"KYOTO FU","city":"FUKUCHIYAMA SHI","town":"OECHO TADEWARA","perfecture_jp":"京都府","jp_add_1":"福知山市","jp_add_2":"大江町蓼原"},"6200355":{"post_code":"6200355","prefecture":"KYOTO FU","city":"FUKUCHIYAMA SHI","town":"OECHO TSUNEZU","perfecture_jp":"京都府","jp_add_1":"福知山市","jp_add_2":"大江町常津"},"6200323":{"post_code":"6200323","prefecture":"KYOTO FU","city":"FUKUCHIYAMA SHI","town":"OECHO NAIKU","perfecture_jp":"京都府","jp_add_1":"福知山市","jp_add_2":"大江町内宮"},"6200353":{"post_code":"6200353","prefecture":"KYOTO FU","city":"FUKUCHIYAMA SHI","town":"OECHO NATSUMA","perfecture_jp":"京都府","jp_add_1":"福知山市","jp_add_2":"大江町夏間"},"6200333":{"post_code":"6200333","prefecture":"KYOTO FU","city":"FUKUCHIYAMA SHI","town":"OECHO NIKA","perfecture_jp":"京都府","jp_add_1":"福知山市","jp_add_2":"大江町二箇"},"6200326":{"post_code":"6200326","prefecture":"KYOTO FU","city":"FUKUCHIYAMA SHI","town":"OECHO HASHIDANI","perfecture_jp":"京都府","jp_add_1":"福知山市","jp_add_2":"大江町橋谷"},"6200305":{"post_code":"6200305","prefecture":"KYOTO FU","city":"FUKUCHIYAMA SHI","town":"OECHO HABI","perfecture_jp":"京都府","jp_add_1":"福知山市","jp_add_2":"大江町波美"},"6200313":{"post_code":"6200313","prefecture":"KYOTO FU","city":"FUKUCHIYAMA SHI","town":"OECHO HITO","perfecture_jp":"京都府","jp_add_1":"福知山市","jp_add_2":"大江町日藤"},"6200356":{"post_code":"6200356","prefecture":"KYOTO FU","city":"FUKUCHIYAMA SHI","town":"OECHO BITO","perfecture_jp":"京都府","jp_add_1":"福知山市","jp_add_2":"大江町尾藤"},"6200324":{"post_code":"6200324","prefecture":"KYOTO FU","city":"FUKUCHIYAMA SHI","town":"OECHO FUTAMATA","perfecture_jp":"京都府","jp_add_1":"福知山市","jp_add_2":"大江町二俣"},"6200321":{"post_code":"6200321","prefecture":"KYOTO FU","city":"FUKUCHIYAMA SHI","town":"OECHO BUTSUSHOJI","perfecture_jp":"京都府","jp_add_1":"福知山市","jp_add_2":"大江町仏性寺"},"6200342":{"post_code":"6200342","prefecture":"KYOTO FU","city":"FUKUCHIYAMA SHI","town":"OECHO MINAMIARIJI","perfecture_jp":"京都府","jp_add_1":"福知山市","jp_add_2":"大江町南有路"},"6200352":{"post_code":"6200352","prefecture":"KYOTO FU","city":"FUKUCHIYAMA SHI","town":"OECHO MINAMIYAMA","perfecture_jp":"京都府","jp_add_1":"福知山市","jp_add_2":"大江町南山"},"6200836":{"post_code":"6200836","prefecture":"KYOTO FU","city":"FUKUCHIYAMA SHI","town":"OCHI","perfecture_jp":"京都府","jp_add_1":"福知山市","jp_add_2":"大内"},"6200858":{"post_code":"6200858","prefecture":"KYOTO FU","city":"FUKUCHIYAMA SHI","town":"ONO","perfecture_jp":"京都府","jp_add_1":"福知山市","jp_add_2":"大野"},"6200852":{"post_code":"6200852","prefecture":"KYOTO FU","city":"FUKUCHIYAMA SHI","town":"ONOE","perfecture_jp":"京都府","jp_add_1":"福知山市","jp_add_2":"大野上"},"6200851":{"post_code":"6200851","prefecture":"KYOTO FU","city":"FUKUCHIYAMA SHI","town":"ONOSHITA","perfecture_jp":"京都府","jp_add_1":"福知山市","jp_add_2":"大野下"},"6200988":{"post_code":"6200988","prefecture":"KYOTO FU","city":"FUKUCHIYAMA SHI","town":"OMINAGASO","perfecture_jp":"京都府","jp_add_1":"福知山市","jp_add_2":"大見長祖"},"6200077":{"post_code":"6200077","prefecture":"KYOTO FU","city":"FUKUCHIYAMA SHI","town":"ORO","perfecture_jp":"京都府","jp_add_1":"福知山市","jp_add_2":"大呂"},"6200872":{"post_code":"6200872","prefecture":"KYOTO FU","city":"FUKUCHIYAMA SHI","town":"OKANO1-MACHI","perfecture_jp":"京都府","jp_add_1":"福知山市","jp_add_2":"岡ノ一町"},"6200871":{"post_code":"6200871","prefecture":"KYOTO FU","city":"FUKUCHIYAMA SHI","town":"OKANO2-MACHI","perfecture_jp":"京都府","jp_add_1":"福知山市","jp_add_2":"岡ノ二町"},"6200873":{"post_code":"6200873","prefecture":"KYOTO FU","city":"FUKUCHIYAMA SHI","town":"OKANO3-MACHI","perfecture_jp":"京都府","jp_add_1":"福知山市","jp_add_2":"岡ノ三町"},"6200891":{"post_code":"6200891","prefecture":"KYOTO FU","city":"FUKUCHIYAMA SHI","town":"OKANOEMACHI","perfecture_jp":"京都府","jp_add_1":"福知山市","jp_add_2":"岡ノ上町"},"6200802":{"post_code":"6200802","prefecture":"KYOTO FU","city":"FUKUCHIYAMA SHI","town":"OKI","perfecture_jp":"京都府","jp_add_1":"福知山市","jp_add_2":"興"},"6200963":{"post_code":"6200963","prefecture":"KYOTO FU","city":"FUKUCHIYAMA SHI","town":"OKUEBARA","perfecture_jp":"京都府","jp_add_1":"福知山市","jp_add_2":"奥榎原"},"6200928":{"post_code":"6200928","prefecture":"KYOTO FU","city":"FUKUCHIYAMA SHI","town":"OKUNOBE","perfecture_jp":"京都府","jp_add_1":"福知山市","jp_add_2":"奥野部"},"6200846":{"post_code":"6200846","prefecture":"KYOTO FU","city":"FUKUCHIYAMA SHI","town":"OSADADAN","perfecture_jp":"京都府","jp_add_1":"福知山市","jp_add_2":"長田段"},"6200853":{"post_code":"6200853","prefecture":"KYOTO FU","city":"FUKUCHIYAMA SHI","town":"OSADANOCHO","perfecture_jp":"京都府","jp_add_1":"福知山市","jp_add_2":"長田野町"},"6200843":{"post_code":"6200843","prefecture":"KYOTO FU","city":"FUKUCHIYAMA SHI","town":"OSADAMINAMI","perfecture_jp":"京都府","jp_add_1":"福知山市","jp_add_2":"長田南"},"6200842":{"post_code":"6200842","prefecture":"KYOTO FU","city":"FUKUCHIYAMA SHI","town":"OSADAKITA","perfecture_jp":"京都府","jp_add_1":"福知山市","jp_add_2":"長田北"},"6200981":{"post_code":"6200981","prefecture":"KYOTO FU","city":"FUKUCHIYAMA SHI","town":"ODA","perfecture_jp":"京都府","jp_add_1":"福知山市","jp_add_2":"小田"},"6200938":{"post_code":"6200938","prefecture":"KYOTO FU","city":"FUKUCHIYAMA SHI","town":"ONOWAKI","perfecture_jp":"京都府","jp_add_1":"福知山市","jp_add_2":"小野脇"},"6200034":{"post_code":"6200034","prefecture":"KYOTO FU","city":"FUKUCHIYAMA SHI","town":"KAJI","perfecture_jp":"京都府","jp_add_1":"福知山市","jp_add_2":"鍛冶"},"6200921":{"post_code":"6200921","prefecture":"KYOTO FU","city":"FUKUCHIYAMA SHI","town":"KASHINOKIDAI","perfecture_jp":"京都府","jp_add_1":"福知山市","jp_add_2":"かしの木台"},"6200065":{"post_code":"6200065","prefecture":"KYOTO FU","city":"FUKUCHIYAMA SHI","town":"KAMIARAGA","perfecture_jp":"京都府","jp_add_1":"福知山市","jp_add_2":"上荒河"},"6200911":{"post_code":"6200911","prefecture":"KYOTO FU","city":"FUKUCHIYAMA SHI","town":"KAMIOCHI","perfecture_jp":"京都府","jp_add_1":"福知山市","jp_add_2":"上大内"},"6200033":{"post_code":"6200033","prefecture":"KYOTO FU","city":"FUKUCHIYAMA SHI","town":"KAMIKOYA","perfecture_jp":"京都府","jp_add_1":"福知山市","jp_add_2":"上紺屋"},"6200901":{"post_code":"6200901","prefecture":"KYOTO FU","city":"FUKUCHIYAMA SHI","town":"KAMISASAKI","perfecture_jp":"京都府","jp_add_1":"福知山市","jp_add_2":"上佐々木"},"6200925":{"post_code":"6200925","prefecture":"KYOTO FU","city":"FUKUCHIYAMA SHI","town":"KAMISASO","perfecture_jp":"京都府","jp_add_1":"福知山市","jp_add_2":"上篠尾"},"6200028":{"post_code":"6200028","prefecture":"KYOTO FU","city":"FUKUCHIYAMA SHI","town":"KAMISHIN","perfecture_jp":"京都府","jp_add_1":"福知山市","jp_add_2":"上新"},"6200214":{"post_code":"6200214","prefecture":"KYOTO FU","city":"FUKUCHIYAMA SHI","town":"KAMINOJO","perfecture_jp":"京都府","jp_add_1":"福知山市","jp_add_2":"上野条"},"6200987":{"post_code":"6200987","prefecture":"KYOTO FU","city":"FUKUCHIYAMA SHI","town":"KAMONOCHO","perfecture_jp":"京都府","jp_add_1":"福知山市","jp_add_2":"鴨野町"},"6200969":{"post_code":"6200969","prefecture":"KYOTO FU","city":"FUKUCHIYAMA SHI","town":"KAYANODAI","perfecture_jp":"京都府","jp_add_1":"福知山市","jp_add_2":"茅ノ台"},"6200004":{"post_code":"6200004","prefecture":"KYOTO FU","city":"FUKUCHIYAMA SHI","town":"KAWAGITA","perfecture_jp":"京都府","jp_add_1":"福知山市","jp_add_2":"川北"},"6200803":{"post_code":"6200803","prefecture":"KYOTO FU","city":"FUKUCHIYAMA SHI","town":"KANNONJI","perfecture_jp":"京都府","jp_add_1":"福知山市","jp_add_2":"観音寺"},"6200859":{"post_code":"6200859","prefecture":"KYOTO FU","city":"FUKUCHIYAMA SHI","town":"KIKYOGAOKA","perfecture_jp":"京都府","jp_add_1":"福知山市","jp_add_2":"桔梗が丘"},"6200003":{"post_code":"6200003","prefecture":"KYOTO FU","city":"FUKUCHIYAMA SHI","town":"KISAICHI","perfecture_jp":"京都府","jp_add_1":"福知山市","jp_add_2":"私市"},"6200902":{"post_code":"6200902","prefecture":"KYOTO FU","city":"FUKUCHIYAMA SHI","town":"KITA","perfecture_jp":"京都府","jp_add_1":"福知山市","jp_add_2":"喜多"},"6200943":{"post_code":"6200943","prefecture":"KYOTO FU","city":"FUKUCHIYAMA SHI","town":"KITAOKACHO","perfecture_jp":"京都府","jp_add_1":"福知山市","jp_add_2":"北岡町"},"6200893":{"post_code":"6200893","prefecture":"KYOTO FU","city":"FUKUCHIYAMA SHI","town":"KITAKOTANIGAOKA","perfecture_jp":"京都府","jp_add_1":"福知山市","jp_add_2":"北小谷ケ丘"},"6200043":{"post_code":"6200043","prefecture":"KYOTO FU","city":"FUKUCHIYAMA SHI","town":"KITASAKAEMACHI","perfecture_jp":"京都府","jp_add_1":"福知山市","jp_add_2":"北栄町"},"6200931":{"post_code":"6200931","prefecture":"KYOTO FU","city":"FUKUCHIYAMA SHI","town":"KITAHAGO","perfecture_jp":"京都府","jp_add_1":"福知山市","jp_add_2":"北羽合"},"6200811":{"post_code":"6200811","prefecture":"KYOTO FU","city":"FUKUCHIYAMA SHI","town":"KITAHIRANOCHO","perfecture_jp":"京都府","jp_add_1":"福知山市","jp_add_2":"北平野町"},"6200041":{"post_code":"6200041","prefecture":"KYOTO FU","city":"FUKUCHIYAMA SHI","town":"KITAHOMMACHIIKKU","perfecture_jp":"京都府","jp_add_1":"福知山市","jp_add_2":"北本町一区"},"6200042":{"post_code":"6200042","prefecture":"KYOTO FU","city":"FUKUCHIYAMA SHI","town":"KITAHOMMACHINIKU","perfecture_jp":"京都府","jp_add_1":"福知山市","jp_add_2":"北本町二区"},"6200968":{"post_code":"6200968","prefecture":"KYOTO FU","city":"FUKUCHIYAMA SHI","town":"KITAYAMA","perfecture_jp":"京都府","jp_add_1":"福知山市","jp_add_2":"北山"},"6200027":{"post_code":"6200027","prefecture":"KYOTO FU","city":"FUKUCHIYAMA SHI","town":"KYO","perfecture_jp":"京都府","jp_add_1":"福知山市","jp_add_2":"京"},"6200962":{"post_code":"6200962","prefecture":"KYOTO FU","city":"FUKUCHIYAMA SHI","town":"KUCHIEBARA","perfecture_jp":"京都府","jp_add_1":"福知山市","jp_add_2":"口榎原"},"6200221":{"post_code":"6200221","prefecture":"KYOTO FU","city":"FUKUCHIYAMA SHI","town":"KUMOHARA","perfecture_jp":"京都府","jp_add_1":"福知山市","jp_add_2":"雲原"},"6200835":{"post_code":"6200835","prefecture":"KYOTO FU","city":"FUKUCHIYAMA SHI","town":"GOSHOJI","perfecture_jp":"京都府","jp_add_1":"福知山市","jp_add_2":"後正寺"},"6200026":{"post_code":"6200026","prefecture":"KYOTO FU","city":"FUKUCHIYAMA SHI","town":"GOFUKU","perfecture_jp":"京都府","jp_add_1":"福知山市","jp_add_2":"呉服"},"6200078":{"post_code":"6200078","prefecture":"KYOTO FU","city":"FUKUCHIYAMA SHI","town":"KOBUNOKI","perfecture_jp":"京都府","jp_add_1":"福知山市","jp_add_2":"瘤木"},"6200972":{"post_code":"6200972","prefecture":"KYOTO FU","city":"FUKUCHIYAMA SHI","town":"KOMAKI","perfecture_jp":"京都府","jp_add_1":"福知山市","jp_add_2":"小牧"},"6200863":{"post_code":"6200863","prefecture":"KYOTO FU","city":"FUKUCHIYAMA SHI","town":"KOMATSUGAOKA","perfecture_jp":"京都府","jp_add_1":"福知山市","jp_add_2":"小松ケ丘"},"6200841":{"post_code":"6200841","prefecture":"KYOTO FU","city":"FUKUCHIYAMA SHI","town":"KOMABASHIMMACHI","perfecture_jp":"京都府","jp_add_1":"福知山市","jp_add_2":"駒場新町"},"6200827":{"post_code":"6200827","prefecture":"KYOTO FU","city":"FUKUCHIYAMA SHI","town":"SAKAMURO","perfecture_jp":"京都府","jp_add_1":"福知山市","jp_add_2":"坂室"},"6200971":{"post_code":"6200971","prefecture":"KYOTO FU","city":"FUKUCHIYAMA SHI","town":"SAGETO","perfecture_jp":"京都府","jp_add_1":"福知山市","jp_add_2":"下戸"},"6200838":{"post_code":"6200838","prefecture":"KYOTO FU","city":"FUKUCHIYAMA SHI","town":"SASABA","perfecture_jp":"京都府","jp_add_1":"福知山市","jp_add_2":"笹場"},"6200055":{"post_code":"6200055","prefecture":"KYOTO FU","city":"FUKUCHIYAMA SHI","town":"SASOSHIMMACHI","perfecture_jp":"京都府","jp_add_1":"福知山市","jp_add_2":"篠尾新町"},"6200958":{"post_code":"6200958","prefecture":"KYOTO FU","city":"FUKUCHIYAMA SHI","town":"SATSUKIGAOKA","perfecture_jp":"京都府","jp_add_1":"福知山市","jp_add_2":"さつきケ丘"},"6200072":{"post_code":"6200072","prefecture":"KYOTO FU","city":"FUKUCHIYAMA SHI","town":"SHIMOAMAZU","perfecture_jp":"京都府","jp_add_1":"福知山市","jp_add_2":"下天津"},"6200066":{"post_code":"6200066","prefecture":"KYOTO FU","city":"FUKUCHIYAMA SHI","town":"SHIMOARAGA","perfecture_jp":"京都府","jp_add_1":"福知山市","jp_add_2":"下荒河"},"6200015":{"post_code":"6200015","prefecture":"KYOTO FU","city":"FUKUCHIYAMA SHI","town":"SHIMOIZAKI","perfecture_jp":"京都府","jp_add_1":"福知山市","jp_add_2":"下猪崎"},"6200912":{"post_code":"6200912","prefecture":"KYOTO FU","city":"FUKUCHIYAMA SHI","town":"SHIMOOCHI","perfecture_jp":"京都府","jp_add_1":"福知山市","jp_add_2":"下大内"},"6200982":{"post_code":"6200982","prefecture":"KYOTO FU","city":"FUKUCHIYAMA SHI","town":"SHIMODA","perfecture_jp":"京都府","jp_add_1":"福知山市","jp_add_2":"下小田"},"6200032":{"post_code":"6200032","prefecture":"KYOTO FU","city":"FUKUCHIYAMA SHI","town":"SHIMOKOYA","perfecture_jp":"京都府","jp_add_1":"福知山市","jp_add_2":"下紺屋"},"6200908":{"post_code":"6200908","prefecture":"KYOTO FU","city":"FUKUCHIYAMA SHI","town":"SHIMOSASAKI","perfecture_jp":"京都府","jp_add_1":"福知山市","jp_add_2":"下佐々木"},"6200924":{"post_code":"6200924","prefecture":"KYOTO FU","city":"FUKUCHIYAMA SHI","town":"SHIMOSASO","perfecture_jp":"京都府","jp_add_1":"福知山市","jp_add_2":"下篠尾"},"6200839":{"post_code":"6200839","prefecture":"KYOTO FU","city":"FUKUCHIYAMA SHI","town":"SHIMOJI","perfecture_jp":"京都府","jp_add_1":"福知山市","jp_add_2":"下地"},"6200029":{"post_code":"6200029","prefecture":"KYOTO FU","city":"FUKUCHIYAMA SHI","town":"SHIMOSHIN","perfecture_jp":"京都府","jp_add_1":"福知山市","jp_add_2":"下新"},"6200211":{"post_code":"6200211","prefecture":"KYOTO FU","city":"FUKUCHIYAMA SHI","town":"SHIMONOJO","perfecture_jp":"京都府","jp_add_1":"福知山市","jp_add_2":"下野条"},"6200022":{"post_code":"6200022","prefecture":"KYOTO FU","city":"FUKUCHIYAMA SHI","town":"SHIMOYANAGI","perfecture_jp":"京都府","jp_add_1":"福知山市","jp_add_2":"下柳"},"6200875":{"post_code":"6200875","prefecture":"KYOTO FU","city":"FUKUCHIYAMA SHI","town":"JAGAHANA","perfecture_jp":"京都府","jp_add_1":"福知山市","jp_add_2":"蛇ケ端"},"6200915":{"post_code":"6200915","prefecture":"KYOTO FU","city":"FUKUCHIYAMA SHI","town":"JUNI","perfecture_jp":"京都府","jp_add_1":"福知山市","jp_add_2":"十二"},"6200904":{"post_code":"6200904","prefecture":"KYOTO FU","city":"FUKUCHIYAMA SHI","town":"JOGANJI","perfecture_jp":"京都府","jp_add_1":"福知山市","jp_add_2":"常願寺"},"6200826":{"post_code":"6200826","prefecture":"KYOTO FU","city":"FUKUCHIYAMA SHI","town":"SHOGOJI","perfecture_jp":"京都府","jp_add_1":"福知山市","jp_add_2":"正後寺"},"6200828":{"post_code":"6200828","prefecture":"KYOTO FU","city":"FUKUCHIYAMA SHI","town":"SHOSAKA","perfecture_jp":"京都府","jp_add_1":"福知山市","jp_add_2":"正坂"},"6200936":{"post_code":"6200936","prefecture":"KYOTO FU","city":"FUKUCHIYAMA SHI","town":"SHOMYOJI","perfecture_jp":"京都府","jp_add_1":"福知山市","jp_add_2":"正明寺"},"6200051":{"post_code":"6200051","prefecture":"KYOTO FU","city":"FUKUCHIYAMA SHI","town":"SHOWASHIMMACHI","perfecture_jp":"京都府","jp_add_1":"福知山市","jp_add_2":"昭和新町"},"6200052":{"post_code":"6200052","prefecture":"KYOTO FU","city":"FUKUCHIYAMA SHI","town":"SHOWACHO","perfecture_jp":"京都府","jp_add_1":"福知山市","jp_add_2":"昭和町"},"6200016":{"post_code":"6200016","prefecture":"KYOTO FU","city":"FUKUCHIYAMA SHI","town":"SHIROYAMA","perfecture_jp":"京都府","jp_add_1":"福知山市","jp_add_2":"城山"},"6200906":{"post_code":"6200906","prefecture":"KYOTO FU","city":"FUKUCHIYAMA SHI","town":"SHINGU","perfecture_jp":"京都府","jp_add_1":"福知山市","jp_add_2":"新宮"},"6200926":{"post_code":"6200926","prefecture":"KYOTO FU","city":"FUKUCHIYAMA SHI","town":"SHINJO","perfecture_jp":"京都府","jp_add_1":"福知山市","jp_add_2":"新庄"},"6200054":{"post_code":"6200054","prefecture":"KYOTO FU","city":"FUKUCHIYAMA SHI","town":"SUEHIROCHO","perfecture_jp":"京都府","jp_add_1":"福知山市","jp_add_2":"末広町"},"6200956":{"post_code":"6200956","prefecture":"KYOTO FU","city":"FUKUCHIYAMA SHI","town":"SUKUMOZUKA","perfecture_jp":"京都府","jp_add_1":"福知山市","jp_add_2":"額塚"},"6200849":{"post_code":"6200849","prefecture":"KYOTO FU","city":"FUKUCHIYAMA SHI","town":"SUNAGOMACHI","perfecture_jp":"京都府","jp_add_1":"福知山市","jp_add_2":"砂子町"},"6200989":{"post_code":"6200989","prefecture":"KYOTO FU","city":"FUKUCHIYAMA SHI","town":"SUMINJOOYAMA","perfecture_jp":"京都府","jp_add_1":"福知山市","jp_add_2":"住所大山"},"6200806":{"post_code":"6200806","prefecture":"KYOTO FU","city":"FUKUCHIYAMA SHI","town":"SEIKACHO","perfecture_jp":"京都府","jp_add_1":"福知山市","jp_add_2":"聖佳町"},"6200952":{"post_code":"6200952","prefecture":"KYOTO FU","city":"FUKUCHIYAMA SHI","town":"DAIMON","perfecture_jp":"京都府","jp_add_1":"福知山市","jp_add_2":"大門"},"6200854":{"post_code":"6200854","prefecture":"KYOTO FU","city":"FUKUCHIYAMA SHI","town":"TAKABATAKE","perfecture_jp":"京都府","jp_add_1":"福知山市","jp_add_2":"高畑"},"6200914":{"post_code":"6200914","prefecture":"KYOTO FU","city":"FUKUCHIYAMA SHI","town":"TATSUWARA","perfecture_jp":"京都府","jp_add_1":"福知山市","jp_add_2":"立原"},"6200837":{"post_code":"6200837","prefecture":"KYOTO FU","city":"FUKUCHIYAMA SHI","town":"TANO","perfecture_jp":"京都府","jp_add_1":"福知山市","jp_add_2":"田野"},"6200965":{"post_code":"6200965","prefecture":"KYOTO FU","city":"FUKUCHIYAMA SHI","town":"TARUMI","perfecture_jp":"京都府","jp_add_1":"福知山市","jp_add_2":"樽水"},"6200905":{"post_code":"6200905","prefecture":"KYOTO FU","city":"FUKUCHIYAMA SHI","town":"TAWA","perfecture_jp":"京都府","jp_add_1":"福知山市","jp_add_2":"田和"},"6200973":{"post_code":"6200973","prefecture":"KYOTO FU","city":"FUKUCHIYAMA SHI","town":"DAN","perfecture_jp":"京都府","jp_add_1":"福知山市","jp_add_2":"談"},"6200073":{"post_code":"6200073","prefecture":"KYOTO FU","city":"FUKUCHIYAMA SHI","town":"CHOKUSHI","perfecture_jp":"京都府","jp_add_1":"福知山市","jp_add_2":"勅使"},"6200966":{"post_code":"6200966","prefecture":"KYOTO FU","city":"FUKUCHIYAMA SHI","town":"TSUJI","perfecture_jp":"京都府","jp_add_1":"福知山市","jp_add_2":"辻"},"6200808":{"post_code":"6200808","prefecture":"KYOTO FU","city":"FUKUCHIYAMA SHI","town":"TSUCHI","perfecture_jp":"京都府","jp_add_1":"福知山市","jp_add_2":"土"},"6200949":{"post_code":"6200949","prefecture":"KYOTO FU","city":"FUKUCHIYAMA SHI","town":"TSUTSUJIGAOKA","perfecture_jp":"京都府","jp_add_1":"福知山市","jp_add_2":"つつじケ丘"},"6200021":{"post_code":"6200021","prefecture":"KYOTO FU","city":"FUKUCHIYAMA SHI","town":"TERA","perfecture_jp":"京都府","jp_add_1":"福知山市","jp_add_2":"寺"},"6200844":{"post_code":"6200844","prefecture":"KYOTO FU","city":"FUKUCHIYAMA SHI","town":"TONOICHI","perfecture_jp":"京都府","jp_add_1":"福知山市","jp_add_2":"多保市"},"6200801":{"post_code":"6200801","prefecture":"KYOTO FU","city":"FUKUCHIYAMA SHI","town":"TODA","perfecture_jp":"京都府","jp_add_1":"福知山市","jp_add_2":"戸田"},"6200951":{"post_code":"6200951","prefecture":"KYOTO FU","city":"FUKUCHIYAMA SHI","town":"TOMIOKA","perfecture_jp":"京都府","jp_add_1":"福知山市","jp_add_2":"十三丘"},"6200057":{"post_code":"6200057","prefecture":"KYOTO FU","city":"FUKUCHIYAMA SHI","town":"TONYAMACHI","perfecture_jp":"京都府","jp_add_1":"福知山市","jp_add_2":"問屋町"},"6200035":{"post_code":"6200035","prefecture":"KYOTO FU","city":"FUKUCHIYAMA SHI","town":"NAIKI","perfecture_jp":"京都府","jp_add_1":"福知山市","jp_add_2":"内記"},"6200014":{"post_code":"6200014","prefecture":"KYOTO FU","city":"FUKUCHIYAMA SHI","town":"NAKA","perfecture_jp":"京都府","jp_add_1":"福知山市","jp_add_2":"中"},"6200213":{"post_code":"6200213","prefecture":"KYOTO FU","city":"FUKUCHIYAMA SHI","town":"NAGAO","perfecture_jp":"京都府","jp_add_1":"福知山市","jp_add_2":"長尾"},"6200817":{"post_code":"6200817","prefecture":"KYOTO FU","city":"FUKUCHIYAMA SHI","town":"NAKASAKACHO","perfecture_jp":"京都府","jp_add_1":"福知山市","jp_add_2":"中坂町"},"6200909":{"post_code":"6200909","prefecture":"KYOTO FU","city":"FUKUCHIYAMA SHI","town":"NAKASASAKI","perfecture_jp":"京都府","jp_add_1":"福知山市","jp_add_2":"中佐々木"},"6200834":{"post_code":"6200834","prefecture":"KYOTO FU","city":"FUKUCHIYAMA SHI","town":"NAKACHI","perfecture_jp":"京都府","jp_add_1":"福知山市","jp_add_2":"中地"},"6200036":{"post_code":"6200036","prefecture":"KYOTO FU","city":"FUKUCHIYAMA SHI","town":"NAKANOMACHI","perfecture_jp":"京都府","jp_add_1":"福知山市","jp_add_2":"中ノ町"},"6200815":{"post_code":"6200815","prefecture":"KYOTO FU","city":"FUKUCHIYAMA SHI","town":"NAGAYAMACHO","perfecture_jp":"京都府","jp_add_1":"福知山市","jp_add_2":"長山町"},"6200865":{"post_code":"6200865","prefecture":"KYOTO FU","city":"FUKUCHIYAMA SHI","town":"NISHIKAYANOCHO","perfecture_jp":"京都府","jp_add_1":"福知山市","jp_add_2":"西佳屋野町"},"6200886":{"post_code":"6200886","prefecture":"KYOTO FU","city":"FUKUCHIYAMA SHI","town":"NISHIKOTANIGAOKA","perfecture_jp":"京都府","jp_add_1":"福知山市","jp_add_2":"西小谷ケ丘"},"6200038":{"post_code":"6200038","prefecture":"KYOTO FU","city":"FUKUCHIYAMA SHI","town":"NISHINAKANOMACHI","perfecture_jp":"京都府","jp_add_1":"福知山市","jp_add_2":"西中ノ町"},"6200025":{"post_code":"6200025","prefecture":"KYOTO FU","city":"FUKUCHIYAMA SHI","town":"NISHINAGAMACHI","perfecture_jp":"京都府","jp_add_1":"福知山市","jp_add_2":"西長町"},"6200932":{"post_code":"6200932","prefecture":"KYOTO FU","city":"FUKUCHIYAMA SHI","town":"NISHIHAGO","perfecture_jp":"京都府","jp_add_1":"福知山市","jp_add_2":"西羽合"},"6200814":{"post_code":"6200814","prefecture":"KYOTO FU","city":"FUKUCHIYAMA SHI","town":"NISHIHIRANOCHO","perfecture_jp":"京都府","jp_add_1":"福知山市","jp_add_2":"西平野町"},"6200053":{"post_code":"6200053","prefecture":"KYOTO FU","city":"FUKUCHIYAMA SHI","town":"NISHIHOMMACHI","perfecture_jp":"京都府","jp_add_1":"福知山市","jp_add_2":"西本町"},"6200039":{"post_code":"6200039","prefecture":"KYOTO FU","city":"FUKUCHIYAMA SHI","town":"NISHIMACHI","perfecture_jp":"京都府","jp_add_1":"福知山市","jp_add_2":"西町"},"6200888":{"post_code":"6200888","prefecture":"KYOTO FU","city":"FUKUCHIYAMA SHI","town":"NOKE","perfecture_jp":"京都府","jp_add_1":"福知山市","jp_add_2":"野家"},"6200983":{"post_code":"6200983","prefecture":"KYOTO FU","city":"FUKUCHIYAMA SHI","town":"NOZASA","perfecture_jp":"京都府","jp_add_1":"福知山市","jp_add_2":"野笹"},"6200917":{"post_code":"6200917","prefecture":"KYOTO FU","city":"FUKUCHIYAMA SHI","town":"NOBANA","perfecture_jp":"京都府","jp_add_1":"福知山市","jp_add_2":"野花"},"6200955":{"post_code":"6200955","prefecture":"KYOTO FU","city":"FUKUCHIYAMA SHI","town":"HAISHI","perfecture_jp":"京都府","jp_add_1":"福知山市","jp_add_2":"拝師"},"6200075":{"post_code":"6200075","prefecture":"KYOTO FU","city":"FUKUCHIYAMA SHI","town":"HAE","perfecture_jp":"京都府","jp_add_1":"福知山市","jp_add_2":"波江"},"6200822":{"post_code":"6200822","prefecture":"KYOTO FU","city":"FUKUCHIYAMA SHI","town":"HAGIWARA","perfecture_jp":"京都府","jp_add_1":"福知山市","jp_add_2":"萩原"},"6200011":{"post_code":"6200011","prefecture":"KYOTO FU","city":"FUKUCHIYAMA SHI","town":"HAZUMAKI","perfecture_jp":"京都府","jp_add_1":"福知山市","jp_add_2":"筈巻"},"6200857":{"post_code":"6200857","prefecture":"KYOTO FU","city":"FUKUCHIYAMA SHI","town":"HAZE","perfecture_jp":"京都府","jp_add_1":"福知山市","jp_add_2":"土師"},"6200855":{"post_code":"6200855","prefecture":"KYOTO FU","city":"FUKUCHIYAMA SHI","town":"HAZE(SHIMMACHI)","perfecture_jp":"京都府","jp_add_1":"福知山市","jp_add_2":"土師"},"6200856":{"post_code":"6200856","prefecture":"KYOTO FU","city":"FUKUCHIYAMA SHI","town":"HAZE(MIYAMACHI)","perfecture_jp":"京都府","jp_add_1":"福知山市","jp_add_2":"土師"},"6200967":{"post_code":"6200967","prefecture":"KYOTO FU","city":"FUKUCHIYAMA SHI","town":"HATAKENAKA","perfecture_jp":"京都府","jp_add_1":"福知山市","jp_add_2":"畑中"},"6200954":{"post_code":"6200954","prefecture":"KYOTO FU","city":"FUKUCHIYAMA SHI","town":"HANDA","perfecture_jp":"京都府","jp_add_1":"福知山市","jp_add_2":"半田"},"6200892":{"post_code":"6200892","prefecture":"KYOTO FU","city":"FUKUCHIYAMA SHI","town":"HIGASHIOKACHO","perfecture_jp":"京都府","jp_add_1":"福知山市","jp_add_2":"東岡町"},"6200862":{"post_code":"6200862","prefecture":"KYOTO FU","city":"FUKUCHIYAMA SHI","town":"HIGASHIKAYANOCHO","perfecture_jp":"京都府","jp_add_1":"福知山市","jp_add_2":"東佳屋野町"},"6200887":{"post_code":"6200887","prefecture":"KYOTO FU","city":"FUKUCHIYAMA SHI","town":"HIGASHIKOTANIGAOKA","perfecture_jp":"京都府","jp_add_1":"福知山市","jp_add_2":"東小谷ケ丘"},"6200037":{"post_code":"6200037","prefecture":"KYOTO FU","city":"FUKUCHIYAMA SHI","town":"HIGASHINAKANOMACHI","perfecture_jp":"京都府","jp_add_1":"福知山市","jp_add_2":"東中ノ町"},"6200024":{"post_code":"6200024","prefecture":"KYOTO FU","city":"FUKUCHIYAMA SHI","town":"HIGASHINAGAMACHI","perfecture_jp":"京都府","jp_add_1":"福知山市","jp_add_2":"東長町"},"6200807":{"post_code":"6200807","prefecture":"KYOTO FU","city":"FUKUCHIYAMA SHI","town":"HIGASHINOCHO","perfecture_jp":"京都府","jp_add_1":"福知山市","jp_add_2":"東野町"},"6200933":{"post_code":"6200933","prefecture":"KYOTO FU","city":"FUKUCHIYAMA SHI","town":"HIGASHIHAGO","perfecture_jp":"京都府","jp_add_1":"福知山市","jp_add_2":"東羽合"},"6200812":{"post_code":"6200812","prefecture":"KYOTO FU","city":"FUKUCHIYAMA SHI","town":"HIGASHIHIRANOCHO","perfecture_jp":"京都府","jp_add_1":"福知山市","jp_add_2":"東平野町"},"6200882":{"post_code":"6200882","prefecture":"KYOTO FU","city":"FUKUCHIYAMA SHI","town":"HIGASHIBORI","perfecture_jp":"京都府","jp_add_1":"福知山市","jp_add_2":"東堀"},"6200047":{"post_code":"6200047","prefecture":"KYOTO FU","city":"FUKUCHIYAMA SHI","town":"HIGASHIHOMMACHI","perfecture_jp":"京都府","jp_add_1":"福知山市","jp_add_2":"東本町"},"6200023":{"post_code":"6200023","prefecture":"KYOTO FU","city":"FUKUCHIYAMA SHI","town":"HISHIYA","perfecture_jp":"京都府","jp_add_1":"福知山市","jp_add_2":"菱屋"},"6200903":{"post_code":"6200903","prefecture":"KYOTO FU","city":"FUKUCHIYAMA SHI","town":"HINO","perfecture_jp":"京都府","jp_add_1":"福知山市","jp_add_2":"日尾"},"6200878":{"post_code":"6200878","prefecture":"KYOTO FU","city":"FUKUCHIYAMA SHI","town":"HIYOSHIGAOKA","perfecture_jp":"京都府","jp_add_1":"福知山市","jp_add_2":"日吉ケ丘"},"6200945":{"post_code":"6200945","prefecture":"KYOTO FU","city":"FUKUCHIYAMA SHI","town":"HIROMINECHO","perfecture_jp":"京都府","jp_add_1":"福知山市","jp_add_2":"広峯町"},"6200974":{"post_code":"6200974","prefecture":"KYOTO FU","city":"FUKUCHIYAMA SHI","town":"HOYO","perfecture_jp":"京都府","jp_add_1":"福知山市","jp_add_2":"法用"},"6200002":{"post_code":"6200002","prefecture":"KYOTO FU","city":"FUKUCHIYAMA SHI","town":"HOJI","perfecture_jp":"京都府","jp_add_1":"福知山市","jp_add_2":"報恩寺"},"6200874":{"post_code":"6200874","prefecture":"KYOTO FU","city":"FUKUCHIYAMA SHI","town":"HORIGUCHI","perfecture_jp":"京都府","jp_add_1":"福知山市","jp_add_2":"堀口"},"6200824":{"post_code":"6200824","prefecture":"KYOTO FU","city":"FUKUCHIYAMA SHI","town":"HORIKOSHI","perfecture_jp":"京都府","jp_add_1":"福知山市","jp_add_2":"堀越"},"6200923":{"post_code":"6200923","prefecture":"KYOTO FU","city":"FUKUCHIYAMA SHI","town":"HONSHO","perfecture_jp":"京都府","jp_add_1":"福知山市","jp_add_2":"本庄"},"6200883":{"post_code":"6200883","prefecture":"KYOTO FU","city":"FUKUCHIYAMA SHI","town":"HOMBORI","perfecture_jp":"京都府","jp_add_1":"福知山市","jp_add_2":"本堀"},"6200867":{"post_code":"6200867","prefecture":"KYOTO FU","city":"FUKUCHIYAMA SHI","town":"MAEDA","perfecture_jp":"京都府","jp_add_1":"福知山市","jp_add_2":"前田"},"6200866":{"post_code":"6200866","prefecture":"KYOTO FU","city":"FUKUCHIYAMA SHI","town":"MAEDASHIMMACHI","perfecture_jp":"京都府","jp_add_1":"福知山市","jp_add_2":"前田新町"},"6200913":{"post_code":"6200913","prefecture":"KYOTO FU","city":"FUKUCHIYAMA SHI","town":"MAKI","perfecture_jp":"京都府","jp_add_1":"福知山市","jp_add_2":"牧"},"6200894":{"post_code":"6200894","prefecture":"KYOTO FU","city":"FUKUCHIYAMA SHI","town":"MARUTAGAOKA","perfecture_jp":"京都府","jp_add_1":"福知山市","jp_add_2":"丸田ケ丘"},"6200876":{"post_code":"6200876","prefecture":"KYOTO FU","city":"FUKUCHIYAMA SHI","town":"MIZUCHI","perfecture_jp":"京都府","jp_add_1":"福知山市","jp_add_2":"水内"},"6200895":{"post_code":"6200895","prefecture":"KYOTO FU","city":"FUKUCHIYAMA SHI","town":"MIDORIGAOKACHO","perfecture_jp":"京都府","jp_add_1":"福知山市","jp_add_2":"緑ケ丘町"},"6200946":{"post_code":"6200946","prefecture":"KYOTO FU","city":"FUKUCHIYAMA SHI","town":"MINAMIAMADACHO","perfecture_jp":"京都府","jp_add_1":"福知山市","jp_add_2":"南天田町"},"6200944":{"post_code":"6200944","prefecture":"KYOTO FU","city":"FUKUCHIYAMA SHI","town":"MINAMIOKAMACHI","perfecture_jp":"京都府","jp_add_1":"福知山市","jp_add_2":"南岡町"},"6200864":{"post_code":"6200864","prefecture":"KYOTO FU","city":"FUKUCHIYAMA SHI","town":"MINAMIKAYANOCHO","perfecture_jp":"京都府","jp_add_1":"福知山市","jp_add_2":"南佳屋野町"},"6200885":{"post_code":"6200885","prefecture":"KYOTO FU","city":"FUKUCHIYAMA SHI","town":"MINAMIKOTANIGAOKA","perfecture_jp":"京都府","jp_add_1":"福知山市","jp_add_2":"南小谷ケ丘"},"6200044":{"post_code":"6200044","prefecture":"KYOTO FU","city":"FUKUCHIYAMA SHI","town":"MINAMISAKAEMACHI","perfecture_jp":"京都府","jp_add_1":"福知山市","jp_add_2":"南栄町"},"6200805":{"post_code":"6200805","prefecture":"KYOTO FU","city":"FUKUCHIYAMA SHI","town":"MINAMITSUCHINOCHO","perfecture_jp":"京都府","jp_add_1":"福知山市","jp_add_2":"南土野町"},"6200934":{"post_code":"6200934","prefecture":"KYOTO FU","city":"FUKUCHIYAMA SHI","town":"MINAMIHAGO","perfecture_jp":"京都府","jp_add_1":"福知山市","jp_add_2":"南羽合"},"6200813":{"post_code":"6200813","prefecture":"KYOTO FU","city":"FUKUCHIYAMA SHI","town":"MINAMIHIRANOCHO","perfecture_jp":"京都府","jp_add_1":"福知山市","jp_add_2":"南平野町"},"6200046":{"post_code":"6200046","prefecture":"KYOTO FU","city":"FUKUCHIYAMA SHI","town":"MINAMIHOMMACHI","perfecture_jp":"京都府","jp_add_1":"福知山市","jp_add_2":"南本町"},"6200884":{"post_code":"6200884","prefecture":"KYOTO FU","city":"FUKUCHIYAMA SHI","town":"MINAMIHOMBORI","perfecture_jp":"京都府","jp_add_1":"福知山市","jp_add_2":"南本堀"},"6200821":{"post_code":"6200821","prefecture":"KYOTO FU","city":"FUKUCHIYAMA SHI","town":"MIMATA","perfecture_jp":"京都府","jp_add_1":"福知山市","jp_add_2":"三俣"},"6200833":{"post_code":"6200833","prefecture":"KYOTO FU","city":"FUKUCHIYAMA SHI","town":"MIYA","perfecture_jp":"京都府","jp_add_1":"福知山市","jp_add_2":"宮"},"6200986":{"post_code":"6200986","prefecture":"KYOTO FU","city":"FUKUCHIYAMA SHI","town":"MIYAGAKI","perfecture_jp":"京都府","jp_add_1":"福知山市","jp_add_2":"宮垣"},"6201444":{"post_code":"6201444","prefecture":"KYOTO FU","city":"FUKUCHIYAMA SHI","town":"MIWACHO ASHIBUCHI","perfecture_jp":"京都府","jp_add_1":"福知山市","jp_add_2":"三和町芦渕"},"6201425":{"post_code":"6201425","prefecture":"KYOTO FU","city":"FUKUCHIYAMA SHI","town":"MIWACHO UBARASHIMO","perfecture_jp":"京都府","jp_add_1":"福知山市","jp_add_2":"三和町菟原下"},"6201422":{"post_code":"6201422","prefecture":"KYOTO FU","city":"FUKUCHIYAMA SHI","town":"MIWACHO UBARANAKA","perfecture_jp":"京都府","jp_add_1":"福知山市","jp_add_2":"三和町菟原中"},"6201441":{"post_code":"6201441","prefecture":"KYOTO FU","city":"FUKUCHIYAMA SHI","town":"MIWACHO UMEHARA","perfecture_jp":"京都府","jp_add_1":"福知山市","jp_add_2":"三和町梅原"},"6201301":{"post_code":"6201301","prefecture":"KYOTO FU","city":"FUKUCHIYAMA SHI","town":"MIWACHO OBARA","perfecture_jp":"京都府","jp_add_1":"福知山市","jp_add_2":"三和町大原"},"6201421":{"post_code":"6201421","prefecture":"KYOTO FU","city":"FUKUCHIYAMA SHI","town":"MIWACHO OMI","perfecture_jp":"京都府","jp_add_1":"福知山市","jp_add_2":"三和町大身"},"6201311":{"post_code":"6201311","prefecture":"KYOTO FU","city":"FUKUCHIYAMA SHI","town":"MIWACHO KAMIGAWAI","perfecture_jp":"京都府","jp_add_1":"福知山市","jp_add_2":"三和町上川合"},"6201314":{"post_code":"6201314","prefecture":"KYOTO FU","city":"FUKUCHIYAMA SHI","town":"MIWACHO KAYO","perfecture_jp":"京都府","jp_add_1":"福知山市","jp_add_2":"三和町加用"},"6201435":{"post_code":"6201435","prefecture":"KYOTO FU","city":"FUKUCHIYAMA SHI","town":"MIWACHO KUSAYAMA","perfecture_jp":"京都府","jp_add_1":"福知山市","jp_add_2":"三和町草山"},"6201434":{"post_code":"6201434","prefecture":"KYOTO FU","city":"FUKUCHIYAMA SHI","town":"MIWACHO SAIMATSU","perfecture_jp":"京都府","jp_add_1":"福知山市","jp_add_2":"三和町西松"},"6201313":{"post_code":"6201313","prefecture":"KYOTO FU","city":"FUKUCHIYAMA SHI","town":"MIWACHO SHIMOKAWAI","perfecture_jp":"京都府","jp_add_1":"福知山市","jp_add_2":"三和町下川合"},"6201442":{"post_code":"6201442","prefecture":"KYOTO FU","city":"FUKUCHIYAMA SHI","town":"MIWACHO SENZOKU","perfecture_jp":"京都府","jp_add_1":"福知山市","jp_add_2":"三和町千束"},"6201302":{"post_code":"6201302","prefecture":"KYOTO FU","city":"FUKUCHIYAMA SHI","town":"MIWACHO DAITO","perfecture_jp":"京都府","jp_add_1":"福知山市","jp_add_2":"三和町台頭"},"6201423":{"post_code":"6201423","prefecture":"KYOTO FU","city":"FUKUCHIYAMA SHI","town":"MIWACHO TAKASUGI","perfecture_jp":"京都府","jp_add_1":"福知山市","jp_add_2":"三和町高杉"},"6201433":{"post_code":"6201433","prefecture":"KYOTO FU","city":"FUKUCHIYAMA SHI","town":"MIWACHO TANOTANI","perfecture_jp":"京都府","jp_add_1":"福知山市","jp_add_2":"三和町田ノ谷"},"6201431":{"post_code":"6201431","prefecture":"KYOTO FU","city":"FUKUCHIYAMA SHI","town":"MIWACHO TSUJI","perfecture_jp":"京都府","jp_add_1":"福知山市","jp_add_2":"三和町辻"},"6201443":{"post_code":"6201443","prefecture":"KYOTO FU","city":"FUKUCHIYAMA SHI","town":"MIWACHO TERAO","perfecture_jp":"京都府","jp_add_1":"福知山市","jp_add_2":"三和町寺尾"},"6201424":{"post_code":"6201424","prefecture":"KYOTO FU","city":"FUKUCHIYAMA SHI","town":"MIWACHO TOMOBUCHI","perfecture_jp":"京都府","jp_add_1":"福知山市","jp_add_2":"三和町友渕"},"6201432":{"post_code":"6201432","prefecture":"KYOTO FU","city":"FUKUCHIYAMA SHI","town":"MIWACHO NAKADE","perfecture_jp":"京都府","jp_add_1":"福知山市","jp_add_2":"三和町中出"},"6201445":{"post_code":"6201445","prefecture":"KYOTO FU","city":"FUKUCHIYAMA SHI","town":"MIWACHO MIWA","perfecture_jp":"京都府","jp_add_1":"福知山市","jp_add_2":"三和町みわ"},"6201312":{"post_code":"6201312","prefecture":"KYOTO FU","city":"FUKUCHIYAMA SHI","town":"MIWACHO YURI","perfecture_jp":"京都府","jp_add_1":"福知山市","jp_add_2":"三和町岼"},"6200935":{"post_code":"6200935","prefecture":"KYOTO FU","city":"FUKUCHIYAMA SHI","town":"MUKAINO","perfecture_jp":"京都府","jp_add_1":"福知山市","jp_add_2":"向野"},"6200916":{"post_code":"6200916","prefecture":"KYOTO FU","city":"FUKUCHIYAMA SHI","town":"MUSOCHI","perfecture_jp":"京都府","jp_add_1":"福知山市","jp_add_2":"六十内"},"6200937":{"post_code":"6200937","prefecture":"KYOTO FU","city":"FUKUCHIYAMA SHI","town":"MURO","perfecture_jp":"京都府","jp_add_1":"福知山市","jp_add_2":"室"},"6200877":{"post_code":"6200877","prefecture":"KYOTO FU","city":"FUKUCHIYAMA SHI","town":"MORIGAI","perfecture_jp":"京都府","jp_add_1":"福知山市","jp_add_2":"森垣"},"6200012":{"post_code":"6200012","prefecture":"KYOTO FU","city":"FUKUCHIYAMA SHI","town":"YASUI","perfecture_jp":"京都府","jp_add_1":"福知山市","jp_add_2":"安井"},"6200957":{"post_code":"6200957","prefecture":"KYOTO FU","city":"FUKUCHIYAMA SHI","town":"YAMAZAKI","perfecture_jp":"京都府","jp_add_1":"福知山市","jp_add_2":"山崎"},"6200001":{"post_code":"6200001","prefecture":"KYOTO FU","city":"FUKUCHIYAMA SHI","town":"YAMANOKUCHI","perfecture_jp":"京都府","jp_add_1":"福知山市","jp_add_2":"山野口"},"6200948":{"post_code":"6200948","prefecture":"KYOTO FU","city":"FUKUCHIYAMA SHI","town":"YUHIGAOKA","perfecture_jp":"京都府","jp_add_1":"福知山市","jp_add_2":"夕陽が丘"},"6200062":{"post_code":"6200062","prefecture":"KYOTO FU","city":"FUKUCHIYAMA SHI","town":"WAKUICHICHO","perfecture_jp":"京都府","jp_add_1":"福知山市","jp_add_2":"和久市町"},"6200927":{"post_code":"6200927","prefecture":"KYOTO FU","city":"FUKUCHIYAMA SHI","town":"WAKUDERA","perfecture_jp":"京都府","jp_add_1":"福知山市","jp_add_2":"和久寺"}}