{"6220000":{"post_code":"6220000","prefecture":"KYOTO FU","city":"NANTAN SHI","town":"IKANIKEISAIGANAIBAAI","perfecture_jp":"京都府","jp_add_1":"南丹市","jp_add_2":""},"6220063":{"post_code":"6220063","prefecture":"KYOTO FU","city":"NANTAN SHI","town":"SONOBECHO AMABIKI","perfecture_jp":"京都府","jp_add_1":"南丹市","jp_add_2":"園部町天引"},"6220012":{"post_code":"6220012","prefecture":"KYOTO FU","city":"NANTAN SHI","town":"SONOBECHO UCHIBAYASHIMACHI","perfecture_jp":"京都府","jp_add_1":"南丹市","jp_add_2":"園部町内林町"},"6220021":{"post_code":"6220021","prefecture":"KYOTO FU","city":"NANTAN SHI","town":"SONOBECHO URIUNO","perfecture_jp":"京都府","jp_add_1":"南丹市","jp_add_2":"園部町瓜生野"},"6220065":{"post_code":"6220065","prefecture":"KYOTO FU","city":"NANTAN SHI","town":"SONOBECHO OKAWACHI","perfecture_jp":"京都府","jp_add_1":"南丹市","jp_add_2":"園部町大河内"},"6220033":{"post_code":"6220033","prefecture":"KYOTO FU","city":"NANTAN SHI","town":"SONOBECHO ODO","perfecture_jp":"京都府","jp_add_1":"南丹市","jp_add_2":"園部町大戸"},"6220054":{"post_code":"6220054","prefecture":"KYOTO FU","city":"NANTAN SHI","town":"SONOBECHO ONISHI","perfecture_jp":"京都府","jp_add_1":"南丹市","jp_add_2":"園部町大西"},"6220036":{"post_code":"6220036","prefecture":"KYOTO FU","city":"NANTAN SHI","town":"SONOBECHO OCHIKATA","perfecture_jp":"京都府","jp_add_1":"南丹市","jp_add_2":"園部町越方"},"6220043":{"post_code":"6220043","prefecture":"KYOTO FU","city":"NANTAN SHI","town":"SONOBECHO OYAMANISHIMACHI","perfecture_jp":"京都府","jp_add_1":"南丹市","jp_add_2":"園部町小山西町"},"6220041":{"post_code":"6220041","prefecture":"KYOTO FU","city":"NANTAN SHI","town":"SONOBECHO OYAMAHIGASHIMACHI","perfecture_jp":"京都府","jp_add_1":"南丹市","jp_add_2":"園部町小山東町"},"6220011":{"post_code":"6220011","prefecture":"KYOTO FU","city":"NANTAN SHI","town":"SONOBECHO KAMIKIZAKIMACHI","perfecture_jp":"京都府","jp_add_1":"南丹市","jp_add_2":"園部町上木崎町"},"6220014":{"post_code":"6220014","prefecture":"KYOTO FU","city":"NANTAN SHI","town":"SONOBECHO KAMIHOMMACHI","perfecture_jp":"京都府","jp_add_1":"南丹市","jp_add_2":"園部町上本町"},"6220016":{"post_code":"6220016","prefecture":"KYOTO FU","city":"NANTAN SHI","town":"SONOBECHO KAWARAMACHI","perfecture_jp":"京都府","jp_add_1":"南丹市","jp_add_2":"園部町河原町"},"6220015":{"post_code":"6220015","prefecture":"KYOTO FU","city":"NANTAN SHI","town":"SONOBECHO KIZAKIMACHI","perfecture_jp":"京都府","jp_add_1":"南丹市","jp_add_2":"園部町木崎町"},"6220046":{"post_code":"6220046","prefecture":"KYOTO FU","city":"NANTAN SHI","town":"SONOBECHO KUCHIUDO","perfecture_jp":"京都府","jp_add_1":"南丹市","jp_add_2":"園部町口人"},"6220022":{"post_code":"6220022","prefecture":"KYOTO FU","city":"NANTAN SHI","town":"SONOBECHO KUMAZAKI","perfecture_jp":"京都府","jp_add_1":"南丹市","jp_add_2":"園部町熊崎"},"6220034":{"post_code":"6220034","prefecture":"KYOTO FU","city":"NANTAN SHI","town":"SONOBECHO KUMAHARA","perfecture_jp":"京都府","jp_add_1":"南丹市","jp_add_2":"園部町熊原"},"6220052":{"post_code":"6220052","prefecture":"KYOTO FU","city":"NANTAN SHI","town":"SONOBECHO KURODA","perfecture_jp":"京都府","jp_add_1":"南丹市","jp_add_2":"園部町黒田"},"6220047":{"post_code":"6220047","prefecture":"KYOTO FU","city":"NANTAN SHI","town":"SONOBECHO KOSHI","perfecture_jp":"京都府","jp_add_1":"南丹市","jp_add_2":"園部町口司"},"6220004":{"post_code":"6220004","prefecture":"KYOTO FU","city":"NANTAN SHI","town":"SONOBECHO KOZAKURAMACHI","perfecture_jp":"京都府","jp_add_1":"南丹市","jp_add_2":"園部町小桜町"},"6220042":{"post_code":"6220042","prefecture":"KYOTO FU","city":"NANTAN SHI","town":"SONOBECHO SAKAEMACHI","perfecture_jp":"京都府","jp_add_1":"南丹市","jp_add_2":"園部町栄町"},"6220035":{"post_code":"6220035","prefecture":"KYOTO FU","city":"NANTAN SHI","town":"SONOBECHO SAGIRI","perfecture_jp":"京都府","jp_add_1":"南丹市","jp_add_2":"園部町佐切"},"6220055":{"post_code":"6220055","prefecture":"KYOTO FU","city":"NANTAN SHI","town":"SONOBECHO SHISHIUDO","perfecture_jp":"京都府","jp_add_1":"南丹市","jp_add_2":"園部町宍人"},"6220044":{"post_code":"6220044","prefecture":"KYOTO FU","city":"NANTAN SHI","town":"SONOBECHO JONAMMACHI","perfecture_jp":"京都府","jp_add_1":"南丹市","jp_add_2":"園部町城南町"},"6220023":{"post_code":"6220023","prefecture":"KYOTO FU","city":"NANTAN SHI","town":"SONOBECHO SHINDO","perfecture_jp":"京都府","jp_add_1":"南丹市","jp_add_2":"園部町新堂"},"6220003":{"post_code":"6220003","prefecture":"KYOTO FU","city":"NANTAN SHI","town":"SONOBECHO SHIMMACHI","perfecture_jp":"京都府","jp_add_1":"南丹市","jp_add_2":"園部町新町"},"6220024":{"post_code":"6220024","prefecture":"KYOTO FU","city":"NANTAN SHI","town":"SONOBECHO SENZUMA","perfecture_jp":"京都府","jp_add_1":"南丹市","jp_add_2":"園部町千妻"},"6220025":{"post_code":"6220025","prefecture":"KYOTO FU","city":"NANTAN SHI","town":"SONOBECHO SOGADANI","perfecture_jp":"京都府","jp_add_1":"南丹市","jp_add_2":"園部町曽我谷"},"6220032":{"post_code":"6220032","prefecture":"KYOTO FU","city":"NANTAN SHI","town":"SONOBECHO TAKAYA","perfecture_jp":"京都府","jp_add_1":"南丹市","jp_add_2":"園部町高屋"},"6220062":{"post_code":"6220062","prefecture":"KYOTO FU","city":"NANTAN SHI","town":"SONOBECHO TAKEI","perfecture_jp":"京都府","jp_add_1":"南丹市","jp_add_2":"園部町竹井"},"6220057":{"post_code":"6220057","prefecture":"KYOTO FU","city":"NANTAN SHI","town":"SONOBECHO TONODANI","perfecture_jp":"京都府","jp_add_1":"南丹市","jp_add_2":"園部町殿谷"},"6220061":{"post_code":"6220061","prefecture":"KYOTO FU","city":"NANTAN SHI","town":"SONOBECHO NIE","perfecture_jp":"京都府","jp_add_1":"南丹市","jp_add_2":"園部町仁江"},"6220056":{"post_code":"6220056","prefecture":"KYOTO FU","city":"NANTAN SHI","town":"SONOBECHO HABU","perfecture_jp":"京都府","jp_add_1":"南丹市","jp_add_2":"園部町埴生"},"6220045":{"post_code":"6220045","prefecture":"KYOTO FU","city":"NANTAN SHI","town":"SONOBECHO HANDA","perfecture_jp":"京都府","jp_add_1":"南丹市","jp_add_2":"園部町半田"},"6220031":{"post_code":"6220031","prefecture":"KYOTO FU","city":"NANTAN SHI","town":"SONOBECHO FUNAOKA","perfecture_jp":"京都府","jp_add_1":"南丹市","jp_add_2":"園部町船岡"},"6220053":{"post_code":"6220053","prefecture":"KYOTO FU","city":"NANTAN SHI","town":"SONOBECHO FUNASAKA","perfecture_jp":"京都府","jp_add_1":"南丹市","jp_add_2":"園部町船阪"},"6220064":{"post_code":"6220064","prefecture":"KYOTO FU","city":"NANTAN SHI","town":"SONOBECHO HOKYO","perfecture_jp":"京都府","jp_add_1":"南丹市","jp_add_2":"園部町法京"},"6220013":{"post_code":"6220013","prefecture":"KYOTO FU","city":"NANTAN SHI","town":"SONOBECHO HOMMACHI","perfecture_jp":"京都府","jp_add_1":"南丹市","jp_add_2":"園部町本町"},"6220002":{"post_code":"6220002","prefecture":"KYOTO FU","city":"NANTAN SHI","town":"SONOBECHO MISONOMACHI","perfecture_jp":"京都府","jp_add_1":"南丹市","jp_add_2":"園部町美園町"},"6220059":{"post_code":"6220059","prefecture":"KYOTO FU","city":"NANTAN SHI","town":"SONOBECHO MINAMIOTANI","perfecture_jp":"京都府","jp_add_1":"南丹市","jp_add_2":"園部町南大谷"},"6220066":{"post_code":"6220066","prefecture":"KYOTO FU","city":"NANTAN SHI","town":"SONOBECHO MINAMIHATSUTA","perfecture_jp":"京都府","jp_add_1":"南丹市","jp_add_2":"園部町南八田"},"6220001":{"post_code":"6220001","prefecture":"KYOTO FU","city":"NANTAN SHI","town":"SONOBECHO MIYAMACHI","perfecture_jp":"京都府","jp_add_1":"南丹市","jp_add_2":"園部町宮町"},"6220051":{"post_code":"6220051","prefecture":"KYOTO FU","city":"NANTAN SHI","town":"SONOBECHO YOKOTA","perfecture_jp":"京都府","jp_add_1":"南丹市","jp_add_2":"園部町横田"},"6220017":{"post_code":"6220017","prefecture":"KYOTO FU","city":"NANTAN SHI","town":"SONOBECHO WAKAMATSUCHO","perfecture_jp":"京都府","jp_add_1":"南丹市","jp_add_2":"園部町若松町"},"6220058":{"post_code":"6220058","prefecture":"KYOTO FU","city":"NANTAN SHI","town":"SONOBECHO WAKAMORI","perfecture_jp":"京都府","jp_add_1":"南丹市","jp_add_2":"園部町若森"},"6220200":{"post_code":"6220200","prefecture":"KYOTO FU","city":"FUNAI GUN KYOTAMBA CHO","town":"IKANIKEISAIGANAIBAAI","perfecture_jp":"京都府","jp_add_1":"船井郡京丹波町","jp_add_2":""},"6220301":{"post_code":"6220301","prefecture":"KYOTO FU","city":"FUNAI GUN KYOTAMBA CHO","town":"AWANO","perfecture_jp":"京都府","jp_add_1":"船井郡京丹波町","jp_add_2":"粟野"},"6220323":{"post_code":"6220323","prefecture":"KYOTO FU","city":"FUNAI GUN KYOTAMBA CHO","town":"IJIRI","perfecture_jp":"京都府","jp_add_1":"船井郡京丹波町","jp_add_2":"井尻"},"6220212":{"post_code":"6220212","prefecture":"KYOTO FU","city":"FUNAI GUN KYOTAMBA CHO","town":"ICHIMORI","perfecture_jp":"京都府","jp_add_1":"船井郡京丹波町","jp_add_2":"市森"},"6220304":{"post_code":"6220304","prefecture":"KYOTO FU","city":"FUNAI GUN KYOTAMBA CHO","town":"INOHANA","perfecture_jp":"京都府","jp_add_1":"船井郡京丹波町","jp_add_2":"猪鼻"},"6220312":{"post_code":"6220312","prefecture":"KYOTO FU","city":"FUNAI GUN KYOTAMBA CHO","town":"IWAKI","perfecture_jp":"京都府","jp_add_1":"船井郡京丹波町","jp_add_2":"井脇"},"6220236":{"post_code":"6220236","prefecture":"KYOTO FU","city":"FUNAI GUN KYOTAMBA CHO","town":"INNAI","perfecture_jp":"京都府","jp_add_1":"船井郡京丹波町","jp_add_2":"院内"},"6220211":{"post_code":"6220211","prefecture":"KYOTO FU","city":"FUNAI GUN KYOTAMBA CHO","town":"UENO","perfecture_jp":"京都府","jp_add_1":"船井郡京丹波町","jp_add_2":"上野"},"6220322":{"post_code":"6220322","prefecture":"KYOTO FU","city":"FUNAI GUN KYOTAMBA CHO","town":"OBOSO","perfecture_jp":"京都府","jp_add_1":"船井郡京丹波町","jp_add_2":"大朴"},"6220445":{"post_code":"6220445","prefecture":"KYOTO FU","city":"FUNAI GUN KYOTAMBA CHO","town":"KAMADANIOKU","perfecture_jp":"京都府","jp_add_1":"船井郡京丹波町","jp_add_2":"鎌谷奥"},"6220442":{"post_code":"6220442","prefecture":"KYOTO FU","city":"FUNAI GUN KYOTAMBA CHO","town":"KAMADANISHIMO","perfecture_jp":"京都府","jp_add_1":"船井郡京丹波町","jp_add_2":"鎌谷下"},"6220444":{"post_code":"6220444","prefecture":"KYOTO FU","city":"FUNAI GUN KYOTAMBA CHO","town":"KAMADANINAKA","perfecture_jp":"京都府","jp_add_1":"船井郡京丹波町","jp_add_2":"鎌谷中"},"6220452":{"post_code":"6220452","prefecture":"KYOTO FU","city":"FUNAI GUN KYOTAMBA CHO","town":"KAMIOKUBO","perfecture_jp":"京都府","jp_add_1":"船井郡京丹波町","jp_add_2":"上大久保"},"6220223":{"post_code":"6220223","prefecture":"KYOTO FU","city":"FUNAI GUN KYOTAMBA CHO","town":"KUCHIHATTA","perfecture_jp":"京都府","jp_add_1":"船井郡京丹波町","jp_add_2":"口八田"},"6220325":{"post_code":"6220325","prefecture":"KYOTO FU","city":"FUNAI GUN KYOTAMBA CHO","town":"KONO","perfecture_jp":"京都府","jp_add_1":"船井郡京丹波町","jp_add_2":"小野"},"6220214":{"post_code":"6220214","prefecture":"KYOTO FU","city":"FUNAI GUN KYOTAMBA CHO","town":"KOMO","perfecture_jp":"京都府","jp_add_1":"船井郡京丹波町","jp_add_2":"蒲生"},"6220441":{"post_code":"6220441","prefecture":"KYOTO FU","city":"FUNAI GUN KYOTAMBA CHO","town":"SAKAI","perfecture_jp":"京都府","jp_add_1":"船井郡京丹波町","jp_add_2":"坂井"},"6220303":{"post_code":"6220303","prefecture":"KYOTO FU","city":"FUNAI GUN KYOTAMBA CHO","town":"SANNOMIYA","perfecture_jp":"京都府","jp_add_1":"船井郡京丹波町","jp_add_2":"三ノ宮"},"6220234":{"post_code":"6220234","prefecture":"KYOTO FU","city":"FUNAI GUN KYOTAMBA CHO","town":"SHIOTADANI","perfecture_jp":"京都府","jp_add_1":"船井郡京丹波町","jp_add_2":"塩田谷"},"6220315":{"post_code":"6220315","prefecture":"KYOTO FU","city":"FUNAI GUN KYOTAMBA CHO","town":"SHIZUSHI","perfecture_jp":"京都府","jp_add_1":"船井郡京丹波町","jp_add_2":"質志"},"6220202":{"post_code":"6220202","prefecture":"KYOTO FU","city":"FUNAI GUN KYOTAMBA CHO","town":"JISSE","perfecture_jp":"京都府","jp_add_1":"船井郡京丹波町","jp_add_2":"実勢"},"6220332":{"post_code":"6220332","prefecture":"KYOTO FU","city":"FUNAI GUN KYOTAMBA CHO","town":"SHITSUMI","perfecture_jp":"京都府","jp_add_1":"船井郡京丹波町","jp_add_2":"質美"},"6220451":{"post_code":"6220451","prefecture":"KYOTO FU","city":"FUNAI GUN KYOTAMBA CHO","town":"SHIMOOKUBO","perfecture_jp":"京都府","jp_add_1":"船井郡京丹波町","jp_add_2":"下大久保"},"6220201":{"post_code":"6220201","prefecture":"KYOTO FU","city":"FUNAI GUN KYOTAMBA CHO","town":"SHIMOYAMA","perfecture_jp":"京都府","jp_add_1":"船井郡京丹波町","jp_add_2":"下山"},"6220213":{"post_code":"6220213","prefecture":"KYOTO FU","city":"FUNAI GUN KYOTAMBA CHO","town":"SHUCHI","perfecture_jp":"京都府","jp_add_1":"船井郡京丹波町","jp_add_2":"須知"},"6220222":{"post_code":"6220222","prefecture":"KYOTO FU","city":"FUNAI GUN KYOTAMBA CHO","town":"SHIMMITO","perfecture_jp":"京都府","jp_add_1":"船井郡京丹波町","jp_add_2":"新水戸"},"6220232":{"post_code":"6220232","prefecture":"KYOTO FU","city":"FUNAI GUN KYOTAMBA CHO","town":"SONE","perfecture_jp":"京都府","jp_add_1":"船井郡京丹波町","jp_add_2":"曽根"},"6220224":{"post_code":"6220224","prefecture":"KYOTO FU","city":"FUNAI GUN KYOTAMBA CHO","town":"TAKAOKA","perfecture_jp":"京都府","jp_add_1":"船井郡京丹波町","jp_add_2":"高岡"},"6220331":{"post_code":"6220331","prefecture":"KYOTO FU","city":"FUNAI GUN KYOTAMBA CHO","town":"CHUDAI","perfecture_jp":"京都府","jp_add_1":"船井郡京丹波町","jp_add_2":"中台"},"6220316":{"post_code":"6220316","prefecture":"KYOTO FU","city":"FUNAI GUN KYOTAMBA CHO","town":"TOTSUKAWA","perfecture_jp":"京都府","jp_add_1":"船井郡京丹波町","jp_add_2":"戸津川"},"6220203":{"post_code":"6220203","prefecture":"KYOTO FU","city":"FUNAI GUN KYOTAMBA CHO","town":"TOMITA","perfecture_jp":"京都府","jp_add_1":"船井郡京丹波町","jp_add_2":"富田"},"6220231":{"post_code":"6220231","prefecture":"KYOTO FU","city":"FUNAI GUN KYOTAMBA CHO","town":"TOYOTA","perfecture_jp":"京都府","jp_add_1":"船井郡京丹波町","jp_add_2":"豊田"},"6220321":{"post_code":"6220321","prefecture":"KYOTO FU","city":"FUNAI GUN KYOTAMBA CHO","town":"HASHIZUME","perfecture_jp":"京都府","jp_add_1":"船井郡京丹波町","jp_add_2":"橋爪"},"6220324":{"post_code":"6220324","prefecture":"KYOTO FU","city":"FUNAI GUN KYOTAMBA CHO","town":"HATTA","perfecture_jp":"京都府","jp_add_1":"船井郡京丹波町","jp_add_2":"八田"},"6220443":{"post_code":"6220443","prefecture":"KYOTO FU","city":"FUNAI GUN KYOTAMBA CHO","town":"HIGASHIMATA","perfecture_jp":"京都府","jp_add_1":"船井郡京丹波町","jp_add_2":"東又"},"6220313":{"post_code":"6220313","prefecture":"KYOTO FU","city":"FUNAI GUN KYOTAMBA CHO","town":"HOIDANI","perfecture_jp":"京都府","jp_add_1":"船井郡京丹波町","jp_add_2":"保井谷"},"6220314":{"post_code":"6220314","prefecture":"KYOTO FU","city":"FUNAI GUN KYOTAMBA CHO","town":"MIZUNOMI","perfecture_jp":"京都府","jp_add_1":"船井郡京丹波町","jp_add_2":"水呑"},"6220453":{"post_code":"6220453","prefecture":"KYOTO FU","city":"FUNAI GUN KYOTAMBA CHO","town":"MIZUHARA","perfecture_jp":"京都府","jp_add_1":"船井郡京丹波町","jp_add_2":"水原"},"6220221":{"post_code":"6220221","prefecture":"KYOTO FU","city":"FUNAI GUN KYOTAMBA CHO","town":"MITO","perfecture_jp":"京都府","jp_add_1":"船井郡京丹波町","jp_add_2":"水戸"},"6220302":{"post_code":"6220302","prefecture":"KYOTO FU","city":"FUNAI GUN KYOTAMBA CHO","town":"MYORAKUJI","perfecture_jp":"京都府","jp_add_1":"船井郡京丹波町","jp_add_2":"妙楽寺"},"6220233":{"post_code":"6220233","prefecture":"KYOTO FU","city":"FUNAI GUN KYOTAMBA CHO","town":"MORI","perfecture_jp":"京都府","jp_add_1":"船井郡京丹波町","jp_add_2":"森"},"6220235":{"post_code":"6220235","prefecture":"KYOTO FU","city":"FUNAI GUN KYOTAMBA CHO","town":"YASUI","perfecture_jp":"京都府","jp_add_1":"船井郡京丹波町","jp_add_2":"安井"},"6220311":{"post_code":"6220311","prefecture":"KYOTO FU","city":"FUNAI GUN KYOTAMBA CHO","town":"WADA","perfecture_jp":"京都府","jp_add_1":"船井郡京丹波町","jp_add_2":"和田"}}