{"6240942":{"post_code":"6240942","prefecture":"KYOTO FU","city":"MAIZURU SHI","town":"AOI","perfecture_jp":"京都府","jp_add_1":"舞鶴市","jp_add_2":"青井"},"6240842":{"post_code":"6240842","prefecture":"KYOTO FU","city":"MAIZURU SHI","town":"ASASHIRO","perfecture_jp":"京都府","jp_add_1":"舞鶴市","jp_add_2":"朝代"},"6240811":{"post_code":"6240811","prefecture":"KYOTO FU","city":"MAIZURU SHI","town":"IKENOCHISHIMO","perfecture_jp":"京都府","jp_add_1":"舞鶴市","jp_add_2":"池ノ内下"},"6240816":{"post_code":"6240816","prefecture":"KYOTO FU","city":"MAIZURU SHI","town":"ISAZU","perfecture_jp":"京都府","jp_add_1":"舞鶴市","jp_add_2":"伊佐津"},"6240813":{"post_code":"6240813","prefecture":"KYOTO FU","city":"MAIZURU SHI","town":"IMADA","perfecture_jp":"京都府","jp_add_1":"舞鶴市","jp_add_2":"今田"},"6240802":{"post_code":"6240802","prefecture":"KYOTO FU","city":"MAIZURU SHI","town":"UENE","perfecture_jp":"京都府","jp_add_1":"舞鶴市","jp_add_2":"上根"},"6240912":{"post_code":"6240912","prefecture":"KYOTO FU","city":"MAIZURU SHI","town":"UEYASU","perfecture_jp":"京都府","jp_add_1":"舞鶴市","jp_add_2":"上安"},"6240911":{"post_code":"6240911","prefecture":"KYOTO FU","city":"MAIZURU SHI","town":"UEYASUHIGASHIMACHI","perfecture_jp":"京都府","jp_add_1":"舞鶴市","jp_add_2":"上安東町"},"6240923":{"post_code":"6240923","prefecture":"KYOTO FU","city":"MAIZURU SHI","town":"UOYA","perfecture_jp":"京都府","jp_add_1":"舞鶴市","jp_add_2":"魚屋"},"6240854":{"post_code":"6240854","prefecture":"KYOTO FU","city":"MAIZURU SHI","town":"EMMANJI","perfecture_jp":"京都府","jp_add_1":"舞鶴市","jp_add_2":"円満寺"},"6240852":{"post_code":"6240852","prefecture":"KYOTO FU","city":"MAIZURU SHI","town":"OUCHI","perfecture_jp":"京都府","jp_add_1":"舞鶴市","jp_add_2":"大内"},"6240101":{"post_code":"6240101","prefecture":"KYOTO FU","city":"MAIZURU SHI","town":"OKAWA","perfecture_jp":"京都府","jp_add_1":"舞鶴市","jp_add_2":"大川"},"6240944":{"post_code":"6240944","prefecture":"KYOTO FU","city":"MAIZURU SHI","town":"OKIMI","perfecture_jp":"京都府","jp_add_1":"舞鶴市","jp_add_2":"大君"},"6240851":{"post_code":"6240851","prefecture":"KYOTO FU","city":"MAIZURU SHI","town":"OCHINOCHO","perfecture_jp":"京都府","jp_add_1":"舞鶴市","jp_add_2":"大内野町"},"6240123":{"post_code":"6240123","prefecture":"KYOTO FU","city":"MAIZURU SHI","town":"OMATA","perfecture_jp":"京都府","jp_add_1":"舞鶴市","jp_add_2":"大俣"},"6240117":{"post_code":"6240117","prefecture":"KYOTO FU","city":"MAIZURU SHI","town":"OKADAYURI","perfecture_jp":"京都府","jp_add_1":"舞鶴市","jp_add_2":"岡田由里"},"6240964":{"post_code":"6240964","prefecture":"KYOTO FU","city":"MAIZURU SHI","town":"KAMAYA","perfecture_jp":"京都府","jp_add_1":"舞鶴市","jp_add_2":"蒲江"},"6240913":{"post_code":"6240913","prefecture":"KYOTO FU","city":"MAIZURU SHI","town":"KAMIAGU","perfecture_jp":"京都府","jp_add_1":"舞鶴市","jp_add_2":"上安久"},"6240112":{"post_code":"6240112","prefecture":"KYOTO FU","city":"MAIZURU SHI","town":"KAMIURUSHIBARA","perfecture_jp":"京都府","jp_add_1":"舞鶴市","jp_add_2":"上漆原"},"6240968":{"post_code":"6240968","prefecture":"KYOTO FU","city":"MAIZURU SHI","town":"KAMIHIGASHI","perfecture_jp":"京都府","jp_add_1":"舞鶴市","jp_add_2":"上東"},"6240951":{"post_code":"6240951","prefecture":"KYOTO FU","city":"MAIZURU SHI","town":"KAMIFUKUI","perfecture_jp":"京都府","jp_add_1":"舞鶴市","jp_add_2":"上福井"},"6240804":{"post_code":"6240804","prefecture":"KYOTO FU","city":"MAIZURU SHI","town":"KISHIDANI","perfecture_jp":"京都府","jp_add_1":"舞鶴市","jp_add_2":"岸谷"},"6240945":{"post_code":"6240945","prefecture":"KYOTO FU","city":"MAIZURU SHI","town":"KITA","perfecture_jp":"京都府","jp_add_1":"舞鶴市","jp_add_2":"喜多"},"6240855":{"post_code":"6240855","prefecture":"KYOTO FU","city":"MAIZURU SHI","town":"KITATANABE","perfecture_jp":"京都府","jp_add_1":"舞鶴市","jp_add_2":"北田辺"},"6240935":{"post_code":"6240935","prefecture":"KYOTO FU","city":"MAIZURU SHI","town":"KYOGUCHI","perfecture_jp":"京都府","jp_add_1":"舞鶴市","jp_add_2":"京口"},"6240823":{"post_code":"6240823","prefecture":"KYOTO FU","city":"MAIZURU SHI","town":"KYODA","perfecture_jp":"京都府","jp_add_1":"舞鶴市","jp_add_2":"京田"},"6240826":{"post_code":"6240826","prefecture":"KYOTO FU","city":"MAIZURU SHI","town":"KYODASHIMMACHI","perfecture_jp":"京都府","jp_add_1":"舞鶴市","jp_add_2":"京田新町"},"6240901":{"post_code":"6240901","prefecture":"KYOTO FU","city":"MAIZURU SHI","town":"KIYOMIGAOKA","perfecture_jp":"京都府","jp_add_1":"舞鶴市","jp_add_2":"清美が丘"},"6240902":{"post_code":"6240902","prefecture":"KYOTO FU","city":"MAIZURU SHI","town":"KIYOMICHI","perfecture_jp":"京都府","jp_add_1":"舞鶴市","jp_add_2":"清道"},"6240908":{"post_code":"6240908","prefecture":"KYOTO FU","city":"MAIZURU SHI","town":"KIYOMICHISHIMMACHI","perfecture_jp":"京都府","jp_add_1":"舞鶴市","jp_add_2":"清道新町"},"6240103":{"post_code":"6240103","prefecture":"KYOTO FU","city":"MAIZURU SHI","town":"KUTAMI","perfecture_jp":"京都府","jp_add_1":"舞鶴市","jp_add_2":"久田美"},"6240821":{"post_code":"6240821","prefecture":"KYOTO FU","city":"MAIZURU SHI","town":"KUMONNA","perfecture_jp":"京都府","jp_add_1":"舞鶴市","jp_add_2":"公文名"},"6240906":{"post_code":"6240906","prefecture":"KYOTO FU","city":"MAIZURU SHI","town":"KURATANI","perfecture_jp":"京都府","jp_add_1":"舞鶴市","jp_add_2":"倉谷"},"6240125":{"post_code":"6240125","prefecture":"KYOTO FU","city":"MAIZURU SHI","town":"KUWAGAIKAMI","perfecture_jp":"京都府","jp_add_1":"舞鶴市","jp_add_2":"桑飼上"},"6240124":{"post_code":"6240124","prefecture":"KYOTO FU","city":"MAIZURU SHI","town":"KUWAGAISHIMO","perfecture_jp":"京都府","jp_add_1":"舞鶴市","jp_add_2":"桑飼下"},"6240115":{"post_code":"6240115","prefecture":"KYOTO FU","city":"MAIZURU SHI","town":"KORA","perfecture_jp":"京都府","jp_add_1":"舞鶴市","jp_add_2":"河原"},"6240936":{"post_code":"6240936","prefecture":"KYOTO FU","city":"MAIZURU SHI","town":"KONYA","perfecture_jp":"京都府","jp_add_1":"舞鶴市","jp_add_2":"紺屋"},"6240118":{"post_code":"6240118","prefecture":"KYOTO FU","city":"MAIZURU SHI","town":"SAIHOJI","perfecture_jp":"京都府","jp_add_1":"舞鶴市","jp_add_2":"西方寺"},"6240815":{"post_code":"6240815","prefecture":"KYOTO FU","city":"MAIZURU SHI","town":"SAKAIDANI","perfecture_jp":"京都府","jp_add_1":"舞鶴市","jp_add_2":"境谷"},"6240102":{"post_code":"6240102","prefecture":"KYOTO FU","city":"MAIZURU SHI","town":"SHIDAKA","perfecture_jp":"京都府","jp_add_1":"舞鶴市","jp_add_2":"志高"},"6240122":{"post_code":"6240122","prefecture":"KYOTO FU","city":"MAIZURU SHI","town":"JITO","perfecture_jp":"京都府","jp_add_1":"舞鶴市","jp_add_2":"地頭"},"6240929":{"post_code":"6240929","prefecture":"KYOTO FU","city":"MAIZURU SHI","town":"JINAI","perfecture_jp":"京都府","jp_add_1":"舞鶴市","jp_add_2":"寺内"},"6240914":{"post_code":"6240914","prefecture":"KYOTO FU","city":"MAIZURU SHI","town":"SHIMOAGU","perfecture_jp":"京都府","jp_add_1":"舞鶴市","jp_add_2":"下安久"},"6240113":{"post_code":"6240113","prefecture":"KYOTO FU","city":"MAIZURU SHI","town":"SHIMORUSHIBARA","perfecture_jp":"京都府","jp_add_1":"舞鶴市","jp_add_2":"下漆原"},"6240967":{"post_code":"6240967","prefecture":"KYOTO FU","city":"MAIZURU SHI","town":"SHIMOHIGASHI","perfecture_jp":"京都府","jp_add_1":"舞鶴市","jp_add_2":"下東"},"6240946":{"post_code":"6240946","prefecture":"KYOTO FU","city":"MAIZURU SHI","town":"SHIMOFUKUI","perfecture_jp":"京都府","jp_add_1":"舞鶴市","jp_add_2":"下福井"},"6240114":{"post_code":"6240114","prefecture":"KYOTO FU","city":"MAIZURU SHI","town":"SHIMOMIDANI","perfecture_jp":"京都府","jp_add_1":"舞鶴市","jp_add_2":"下見谷"},"6240834":{"post_code":"6240834","prefecture":"KYOTO FU","city":"MAIZURU SHI","town":"JOYA","perfecture_jp":"京都府","jp_add_1":"舞鶴市","jp_add_2":"城屋"},"6240904":{"post_code":"6240904","prefecture":"KYOTO FU","city":"MAIZURU SHI","town":"SHOWADAI","perfecture_jp":"京都府","jp_add_1":"舞鶴市","jp_add_2":"昭和台"},"6240924":{"post_code":"6240924","prefecture":"KYOTO FU","city":"MAIZURU SHI","town":"SHOKUNIN","perfecture_jp":"京都府","jp_add_1":"舞鶴市","jp_add_2":"職人"},"6240941":{"post_code":"6240941","prefecture":"KYOTO FU","city":"MAIZURU SHI","town":"SHIRASUGI","perfecture_jp":"京都府","jp_add_1":"舞鶴市","jp_add_2":"白杉"},"6240803":{"post_code":"6240803","prefecture":"KYOTO FU","city":"MAIZURU SHI","town":"SHIRATAKI","perfecture_jp":"京都府","jp_add_1":"舞鶴市","jp_add_2":"白滝"},"6240933":{"post_code":"6240933","prefecture":"KYOTO FU","city":"MAIZURU SHI","town":"SHIN","perfecture_jp":"京都府","jp_add_1":"舞鶴市","jp_add_2":"新"},"6240832":{"post_code":"6240832","prefecture":"KYOTO FU","city":"MAIZURU SHI","town":"TAKANODAI","perfecture_jp":"京都府","jp_add_1":"舞鶴市","jp_add_2":"高野台"},"6240835":{"post_code":"6240835","prefecture":"KYOTO FU","city":"MAIZURU SHI","town":"TAKANOYURI","perfecture_jp":"京都府","jp_add_1":"舞鶴市","jp_add_2":"高野由里"},"6240121":{"post_code":"6240121","prefecture":"KYOTO FU","city":"MAIZURU SHI","town":"TAKIGAURO","perfecture_jp":"京都府","jp_add_1":"舞鶴市","jp_add_2":"滝ケ宇呂"},"6240928":{"post_code":"6240928","prefecture":"KYOTO FU","city":"MAIZURU SHI","town":"TAKEYA","perfecture_jp":"京都府","jp_add_1":"舞鶴市","jp_add_2":"竹屋"},"6240925":{"post_code":"6240925","prefecture":"KYOTO FU","city":"MAIZURU SHI","town":"TAMBA","perfecture_jp":"京都府","jp_add_1":"舞鶴市","jp_add_2":"丹波"},"6240801":{"post_code":"6240801","prefecture":"KYOTO FU","city":"MAIZURU SHI","town":"TERADA","perfecture_jp":"京都府","jp_add_1":"舞鶴市","jp_add_2":"寺田"},"6240903":{"post_code":"6240903","prefecture":"KYOTO FU","city":"MAIZURU SHI","town":"TENDAI","perfecture_jp":"京都府","jp_add_1":"舞鶴市","jp_add_2":"天台"},"6240909":{"post_code":"6240909","prefecture":"KYOTO FU","city":"MAIZURU SHI","town":"TENDAISHIMMACHI","perfecture_jp":"京都府","jp_add_1":"舞鶴市","jp_add_2":"天台新町"},"6240825":{"post_code":"6240825","prefecture":"KYOTO FU","city":"MAIZURU SHI","town":"TOKURA","perfecture_jp":"京都府","jp_add_1":"舞鶴市","jp_add_2":"十倉"},"6240111":{"post_code":"6240111","prefecture":"KYOTO FU","city":"MAIZURU SHI","town":"NAGATANI","perfecture_jp":"京都府","jp_add_1":"舞鶴市","jp_add_2":"長谷"},"6240966":{"post_code":"6240966","prefecture":"KYOTO FU","city":"MAIZURU SHI","town":"NAKAYAMA","perfecture_jp":"京都府","jp_add_1":"舞鶴市","jp_add_2":"中山"},"6240822":{"post_code":"6240822","prefecture":"KYOTO FU","city":"MAIZURU SHI","town":"NANUKAICHI","perfecture_jp":"京都府","jp_add_1":"舞鶴市","jp_add_2":"七日市"},"6240937":{"post_code":"6240937","prefecture":"KYOTO FU","city":"MAIZURU SHI","town":"NISHI","perfecture_jp":"京都府","jp_add_1":"舞鶴市","jp_add_2":"西"},"6240961":{"post_code":"6240961","prefecture":"KYOTO FU","city":"MAIZURU SHI","town":"NISHIKANZAKI","perfecture_jp":"京都府","jp_add_1":"舞鶴市","jp_add_2":"西神崎"},"6240922":{"post_code":"6240922","prefecture":"KYOTO FU","city":"MAIZURU SHI","town":"NISHIYOSHIHARA","perfecture_jp":"京都府","jp_add_1":"舞鶴市","jp_add_2":"西吉原"},"6240831":{"post_code":"6240831","prefecture":"KYOTO FU","city":"MAIZURU SHI","town":"NYO","perfecture_jp":"京都府","jp_add_1":"舞鶴市","jp_add_2":"女布"},"6240836":{"post_code":"6240836","prefecture":"KYOTO FU","city":"MAIZURU SHI","town":"NYO KITAMACHI","perfecture_jp":"京都府","jp_add_1":"舞鶴市","jp_add_2":"女布北町"},"6240806":{"post_code":"6240806","prefecture":"KYOTO FU","city":"MAIZURU SHI","town":"NUNOSHIKI","perfecture_jp":"京都府","jp_add_1":"舞鶴市","jp_add_2":"布敷"},"6240833":{"post_code":"6240833","prefecture":"KYOTO FU","city":"MAIZURU SHI","town":"NOMURAJI","perfecture_jp":"京都府","jp_add_1":"舞鶴市","jp_add_2":"野村寺"},"6240954":{"post_code":"6240954","prefecture":"KYOTO FU","city":"MAIZURU SHI","town":"HATTA","perfecture_jp":"京都府","jp_add_1":"舞鶴市","jp_add_2":"八田"},"6240953":{"post_code":"6240953","prefecture":"KYOTO FU","city":"MAIZURU SHI","town":"HATOCHI","perfecture_jp":"京都府","jp_add_1":"舞鶴市","jp_add_2":"八戸地"},"6240962":{"post_code":"6240962","prefecture":"KYOTO FU","city":"MAIZURU SHI","town":"HIGASHIKANZAKI","perfecture_jp":"京都府","jp_add_1":"舞鶴市","jp_add_2":"東神崎"},"6240921":{"post_code":"6240921","prefecture":"KYOTO FU","city":"MAIZURU SHI","town":"HIGASHIYOSHIHARA","perfecture_jp":"京都府","jp_add_1":"舞鶴市","jp_add_2":"東吉原"},"6240841":{"post_code":"6240841","prefecture":"KYOTO FU","city":"MAIZURU SHI","town":"HIKITSUCHI","perfecture_jp":"京都府","jp_add_1":"舞鶴市","jp_add_2":"引土"},"6240843":{"post_code":"6240843","prefecture":"KYOTO FU","city":"MAIZURU SHI","town":"HIKITSUCHISHIN","perfecture_jp":"京都府","jp_add_1":"舞鶴市","jp_add_2":"引土新"},"6240927":{"post_code":"6240927","prefecture":"KYOTO FU","city":"MAIZURU SHI","town":"HIRANOYA","perfecture_jp":"京都府","jp_add_1":"舞鶴市","jp_add_2":"平野屋"},"6240905":{"post_code":"6240905","prefecture":"KYOTO FU","city":"MAIZURU SHI","town":"FUKI","perfecture_jp":"京都府","jp_add_1":"舞鶴市","jp_add_2":"福来"},"6240907":{"post_code":"6240907","prefecture":"KYOTO FU","city":"MAIZURU SHI","town":"FUKITONYAMACHI","perfecture_jp":"京都府","jp_add_1":"舞鶴市","jp_add_2":"福来問屋町"},"6240116":{"post_code":"6240116","prefecture":"KYOTO FU","city":"MAIZURU SHI","town":"FUMURO","perfecture_jp":"京都府","jp_add_1":"舞鶴市","jp_add_2":"富室"},"6240805":{"post_code":"6240805","prefecture":"KYOTO FU","city":"MAIZURU SHI","town":"BESSHIYO","perfecture_jp":"京都府","jp_add_1":"舞鶴市","jp_add_2":"別所"},"6240812":{"post_code":"6240812","prefecture":"KYOTO FU","city":"MAIZURU SHI","town":"HORI","perfecture_jp":"京都府","jp_add_1":"舞鶴市","jp_add_2":"堀"},"6240934":{"post_code":"6240934","prefecture":"KYOTO FU","city":"MAIZURU SHI","town":"HORIKAMI","perfecture_jp":"京都府","jp_add_1":"舞鶴市","jp_add_2":"堀上"},"6240926":{"post_code":"6240926","prefecture":"KYOTO FU","city":"MAIZURU SHI","town":"HON","perfecture_jp":"京都府","jp_add_1":"舞鶴市","jp_add_2":"本"},"6240824":{"post_code":"6240824","prefecture":"KYOTO FU","city":"MAIZURU SHI","town":"MAGURA","perfecture_jp":"京都府","jp_add_1":"舞鶴市","jp_add_2":"真倉"},"6240931":{"post_code":"6240931","prefecture":"KYOTO FU","city":"MAIZURU SHI","town":"MATSUKAGE","perfecture_jp":"京都府","jp_add_1":"舞鶴市","jp_add_2":"松陰"},"6240955":{"post_code":"6240955","prefecture":"KYOTO FU","city":"MAIZURU SHI","town":"MARUTA","perfecture_jp":"京都府","jp_add_1":"舞鶴市","jp_add_2":"丸田"},"6240814":{"post_code":"6240814","prefecture":"KYOTO FU","city":"MAIZURU SHI","town":"MANGANJI","perfecture_jp":"京都府","jp_add_1":"舞鶴市","jp_add_2":"万願寺"},"6240965":{"post_code":"6240965","prefecture":"KYOTO FU","city":"MAIZURU SHI","town":"MIZUMA","perfecture_jp":"京都府","jp_add_1":"舞鶴市","jp_add_2":"水間"},"6240952":{"post_code":"6240952","prefecture":"KYOTO FU","city":"MAIZURU SHI","town":"MIKKAICHI","perfecture_jp":"京都府","jp_add_1":"舞鶴市","jp_add_2":"三日市"},"6240853":{"post_code":"6240853","prefecture":"KYOTO FU","city":"MAIZURU SHI","town":"MINAMITANABE","perfecture_jp":"京都府","jp_add_1":"舞鶴市","jp_add_2":"南田辺"},"6240932":{"post_code":"6240932","prefecture":"KYOTO FU","city":"MAIZURU SHI","town":"MIYAZUGUCHI","perfecture_jp":"京都府","jp_add_1":"舞鶴市","jp_add_2":"宮津口"},"6240963":{"post_code":"6240963","prefecture":"KYOTO FU","city":"MAIZURU SHI","town":"YUGO","perfecture_jp":"京都府","jp_add_1":"舞鶴市","jp_add_2":"油江"},"6240943":{"post_code":"6240943","prefecture":"KYOTO FU","city":"MAIZURU SHI","town":"YOSHIDA","perfecture_jp":"京都府","jp_add_1":"舞鶴市","jp_add_2":"吉田"},"6240956":{"post_code":"6240956","prefecture":"KYOTO FU","city":"MAIZURU SHI","town":"WAE","perfecture_jp":"京都府","jp_add_1":"舞鶴市","jp_add_2":"和江"}}