{"6330000":{"post_code":"6330000","prefecture":"NARA KEN","city":"SAKURAI SHI","town":"IKANIKEISAIGANAIBAAI","perfecture_jp":"奈良県","jp_add_1":"桜井市","jp_add_2":""},"6330006":{"post_code":"6330006","prefecture":"NARA KEN","city":"SAKURAI SHI","town":"AKAO","perfecture_jp":"奈良県","jp_add_1":"桜井市","jp_add_2":"赤尾"},"6330003":{"post_code":"6330003","prefecture":"NARA KEN","city":"SAKURAI SHI","town":"ASAKURADAI HIGASHI","perfecture_jp":"奈良県","jp_add_1":"桜井市","jp_add_2":"朝倉台東"},"6330004":{"post_code":"6330004","prefecture":"NARA KEN","city":"SAKURAI SHI","town":"ASAKURADAI NISHI","perfecture_jp":"奈良県","jp_add_1":"桜井市","jp_add_2":"朝倉台西"},"6330052":{"post_code":"6330052","prefecture":"NARA KEN","city":"SAKURAI SHI","town":"ASAGO","perfecture_jp":"奈良県","jp_add_1":"桜井市","jp_add_2":"浅古"},"6330071":{"post_code":"6330071","prefecture":"NARA KEN","city":"SAKURAI SHI","town":"ANASHI","perfecture_jp":"奈良県","jp_add_1":"桜井市","jp_add_2":"穴師"},"6330054":{"post_code":"6330054","prefecture":"NARA KEN","city":"SAKURAI SHI","town":"ABE","perfecture_jp":"奈良県","jp_add_1":"桜井市","jp_add_2":"阿部"},"6330055":{"post_code":"6330055","prefecture":"NARA KEN","city":"SAKURAI SHI","town":"ABEMOKUZAIDANCHI","perfecture_jp":"奈良県","jp_add_1":"桜井市","jp_add_2":"安倍木材団地"},"6330026":{"post_code":"6330026","prefecture":"NARA KEN","city":"SAKURAI SHI","town":"IIMORIZUKA","perfecture_jp":"奈良県","jp_add_1":"桜井市","jp_add_2":"飯盛塚"},"6330046":{"post_code":"6330046","prefecture":"NARA KEN","city":"SAKURAI SHI","town":"IKENOCHI","perfecture_jp":"奈良県","jp_add_1":"桜井市","jp_add_2":"池之内"},"6330122":{"post_code":"6330122","prefecture":"NARA KEN","city":"SAKURAI SHI","town":"IZUMO","perfecture_jp":"奈良県","jp_add_1":"桜井市","jp_add_2":"出雲"},"6330035":{"post_code":"6330035","prefecture":"NARA KEN","city":"SAKURAI SHI","town":"IMAIDANI","perfecture_jp":"奈良県","jp_add_1":"桜井市","jp_add_2":"今井谷"},"6330013":{"post_code":"6330013","prefecture":"NARA KEN","city":"SAKURAI SHI","town":"IWASAKA","perfecture_jp":"奈良県","jp_add_1":"桜井市","jp_add_2":"岩坂"},"6330041":{"post_code":"6330041","prefecture":"NARA KEN","city":"SAKURAI SHI","town":"UENOMIYA","perfecture_jp":"奈良県","jp_add_1":"桜井市","jp_add_2":"上之宮"},"6330086":{"post_code":"6330086","prefecture":"NARA KEN","city":"SAKURAI SHI","town":"ETSUTSUMI","perfecture_jp":"奈良県","jp_add_1":"桜井市","jp_add_2":"江包"},"6330076":{"post_code":"6330076","prefecture":"NARA KEN","city":"SAKURAI SHI","town":"OIZUMI","perfecture_jp":"奈良県","jp_add_1":"桜井市","jp_add_2":"大泉"},"6330048":{"post_code":"6330048","prefecture":"NARA KEN","city":"SAKURAI SHI","town":"OIDA","perfecture_jp":"奈良県","jp_add_1":"桜井市","jp_add_2":"生田"},"6330084":{"post_code":"6330084","prefecture":"NARA KEN","city":"SAKURAI SHI","town":"OTA","perfecture_jp":"奈良県","jp_add_1":"桜井市","jp_add_2":"太田"},"6330062":{"post_code":"6330062","prefecture":"NARA KEN","city":"SAKURAI SHI","town":"ODONO","perfecture_jp":"奈良県","jp_add_1":"桜井市","jp_add_2":"粟殿"},"6330014":{"post_code":"6330014","prefecture":"NARA KEN","city":"SAKURAI SHI","town":"OBARA","perfecture_jp":"奈良県","jp_add_1":"桜井市","jp_add_2":"粟原"},"6330101":{"post_code":"6330101","prefecture":"NARA KEN","city":"SAKURAI SHI","town":"OBU","perfecture_jp":"奈良県","jp_add_1":"桜井市","jp_add_2":"小夫"},"6330103":{"post_code":"6330103","prefecture":"NARA KEN","city":"SAKURAI SHI","town":"OBUDAKEHO","perfecture_jp":"奈良県","jp_add_1":"桜井市","jp_add_2":"小夫嵩方"},"6330077":{"post_code":"6330077","prefecture":"NARA KEN","city":"SAKURAI SHI","town":"ONISHI","perfecture_jp":"奈良県","jp_add_1":"桜井市","jp_add_2":"大西"},"6330005":{"post_code":"6330005","prefecture":"NARA KEN","city":"SAKURAI SHI","town":"OSSAKA","perfecture_jp":"奈良県","jp_add_1":"桜井市","jp_add_2":"忍阪"},"6330031":{"post_code":"6330031","prefecture":"NARA KEN","city":"SAKURAI SHI","town":"ORII","perfecture_jp":"奈良県","jp_add_1":"桜井市","jp_add_2":"下居"},"6330064":{"post_code":"6330064","prefecture":"NARA KEN","city":"SAKURAI SHI","town":"KAIJU","perfecture_jp":"奈良県","jp_add_1":"桜井市","jp_add_2":"戒重"},"6330133":{"post_code":"6330133","prefecture":"NARA KEN","city":"SAKURAI SHI","town":"KASA","perfecture_jp":"奈良県","jp_add_1":"桜井市","jp_add_2":"笠"},"6330002":{"post_code":"6330002","prefecture":"NARA KEN","city":"SAKURAI SHI","town":"KANAYA","perfecture_jp":"奈良県","jp_add_1":"桜井市","jp_add_2":"金屋"},"6330061":{"post_code":"6330061","prefecture":"NARA KEN","city":"SAKURAI SHI","town":"KAMINOSHO","perfecture_jp":"奈良県","jp_add_1":"桜井市","jp_add_2":"上之庄"},"6330106":{"post_code":"6330106","prefecture":"NARA KEN","city":"SAKURAI SHI","town":"KAYAMORI","perfecture_jp":"奈良県","jp_add_1":"桜井市","jp_add_2":"萱森"},"6330063":{"post_code":"6330063","prefecture":"NARA KEN","city":"SAKURAI SHI","town":"KAWAI","perfecture_jp":"奈良県","jp_add_1":"桜井市","jp_add_2":"川合"},"6330051":{"post_code":"6330051","prefecture":"NARA KEN","city":"SAKURAI SHI","town":"KAWANISHI","perfecture_jp":"奈良県","jp_add_1":"桜井市","jp_add_2":"河西"},"6330022":{"post_code":"6330022","prefecture":"NARA KEN","city":"SAKURAI SHI","town":"KITAOTOWA","perfecture_jp":"奈良県","jp_add_1":"桜井市","jp_add_2":"北音羽"},"6330034":{"post_code":"6330034","prefecture":"NARA KEN","city":"SAKURAI SHI","town":"KITAYAMA","perfecture_jp":"奈良県","jp_add_1":"桜井市","jp_add_2":"北山"},"6330065":{"post_code":"6330065","prefecture":"NARA KEN","city":"SAKURAI SHI","town":"KIBI","perfecture_jp":"奈良県","jp_add_1":"桜井市","jp_add_2":"吉備"},"6330081":{"post_code":"6330081","prefecture":"NARA KEN","city":"SAKURAI SHI","town":"KUSAKAWA","perfecture_jp":"奈良県","jp_add_1":"桜井市","jp_add_2":"草川"},"6330021":{"post_code":"6330021","prefecture":"NARA KEN","city":"SAKURAI SHI","town":"KURAHASHI","perfecture_jp":"奈良県","jp_add_1":"桜井市","jp_add_2":"倉橋"},"6330011":{"post_code":"6330011","prefecture":"NARA KEN","city":"SAKURAI SHI","town":"KUROZAKI","perfecture_jp":"奈良県","jp_add_1":"桜井市","jp_add_2":"黒崎"},"6330012":{"post_code":"6330012","prefecture":"NARA KEN","city":"SAKURAI SHI","town":"KOMA","perfecture_jp":"奈良県","jp_add_1":"桜井市","jp_add_2":"狛"},"6330015":{"post_code":"6330015","prefecture":"NARA KEN","city":"SAKURAI SHI","town":"SAGARIO","perfecture_jp":"奈良県","jp_add_1":"桜井市","jp_add_2":"下り尾"},"6330091":{"post_code":"6330091","prefecture":"NARA KEN","city":"SAKURAI SHI","town":"SAKURAI","perfecture_jp":"奈良県","jp_add_1":"桜井市","jp_add_2":"桜井"},"6330017":{"post_code":"6330017","prefecture":"NARA KEN","city":"SAKURAI SHI","town":"JIONJI","perfecture_jp":"奈良県","jp_add_1":"桜井市","jp_add_2":"慈恩寺"},"6330074":{"post_code":"6330074","prefecture":"NARA KEN","city":"SAKURAI SHI","town":"SHIBA","perfecture_jp":"奈良県","jp_add_1":"桜井市","jp_add_2":"芝"},"6330042":{"post_code":"6330042","prefecture":"NARA KEN","city":"SAKURAI SHI","town":"SHIMO","perfecture_jp":"奈良県","jp_add_1":"桜井市","jp_add_2":"下"},"6330131":{"post_code":"6330131","prefecture":"NARA KEN","city":"SAKURAI SHI","town":"SHURIEDA","perfecture_jp":"奈良県","jp_add_1":"桜井市","jp_add_2":"修理枝"},"6330121":{"post_code":"6330121","prefecture":"NARA KEN","city":"SAKURAI SHI","town":"SHIRAGA","perfecture_jp":"奈良県","jp_add_1":"桜井市","jp_add_2":"白河"},"6330105":{"post_code":"6330105","prefecture":"NARA KEN","city":"SAKURAI SHI","town":"SHIRAKI","perfecture_jp":"奈良県","jp_add_1":"桜井市","jp_add_2":"白木"},"6330075":{"post_code":"6330075","prefecture":"NARA KEN","city":"SAKURAI SHI","town":"SHINYASHIKI","perfecture_jp":"奈良県","jp_add_1":"桜井市","jp_add_2":"新屋敷"},"6330104":{"post_code":"6330104","prefecture":"NARA KEN","city":"SAKURAI SHI","town":"SERII","perfecture_jp":"奈良県","jp_add_1":"桜井市","jp_add_2":"芹井"},"6330044":{"post_code":"6330044","prefecture":"NARA KEN","city":"SAKURAI SHI","town":"TAIE","perfecture_jp":"奈良県","jp_add_1":"桜井市","jp_add_2":"高家"},"6330067":{"post_code":"6330067","prefecture":"NARA KEN","city":"SAKURAI SHI","town":"DAIFUKU","perfecture_jp":"奈良県","jp_add_1":"桜井市","jp_add_2":"大福"},"6330043":{"post_code":"6330043","prefecture":"NARA KEN","city":"SAKURAI SHI","town":"TAKATA","perfecture_jp":"奈良県","jp_add_1":"桜井市","jp_add_2":"高田"},"6330108":{"post_code":"6330108","prefecture":"NARA KEN","city":"SAKURAI SHI","town":"TAKINOKURA","perfecture_jp":"奈良県","jp_add_1":"桜井市","jp_add_2":"滝倉"},"6330053":{"post_code":"6330053","prefecture":"NARA KEN","city":"SAKURAI SHI","town":"TANI","perfecture_jp":"奈良県","jp_add_1":"桜井市","jp_add_2":"谷"},"6330073":{"post_code":"6330073","prefecture":"NARA KEN","city":"SAKURAI SHI","town":"CHIWARA","perfecture_jp":"奈良県","jp_add_1":"桜井市","jp_add_2":"茅原"},"6330083":{"post_code":"6330083","prefecture":"NARA KEN","city":"SAKURAI SHI","town":"TSUJI","perfecture_jp":"奈良県","jp_add_1":"桜井市","jp_add_2":"辻"},"6330032":{"post_code":"6330032","prefecture":"NARA KEN","city":"SAKURAI SHI","town":"TONOMINE","perfecture_jp":"奈良県","jp_add_1":"桜井市","jp_add_2":"多武峰"},"6330007":{"post_code":"6330007","prefecture":"NARA KEN","city":"SAKURAI SHI","town":"TOBI","perfecture_jp":"奈良県","jp_add_1":"桜井市","jp_add_2":"外山"},"6330079":{"post_code":"6330079","prefecture":"NARA KEN","city":"SAKURAI SHI","town":"TOYODA","perfecture_jp":"奈良県","jp_add_1":"桜井市","jp_add_2":"豊田"},"6330107":{"post_code":"6330107","prefecture":"NARA KEN","city":"SAKURAI SHI","town":"NAKATANI","perfecture_jp":"奈良県","jp_add_1":"桜井市","jp_add_2":"中谷"},"6330033":{"post_code":"6330033","prefecture":"NARA KEN","city":"SAKURAI SHI","town":"NISHIGUCHI","perfecture_jp":"奈良県","jp_add_1":"桜井市","jp_add_2":"西口"},"6330066":{"post_code":"6330066","prefecture":"NARA KEN","city":"SAKURAI SHI","town":"NISHINOMIYA","perfecture_jp":"奈良県","jp_add_1":"桜井市","jp_add_2":"西之宮"},"6330072":{"post_code":"6330072","prefecture":"NARA KEN","city":"SAKURAI SHI","town":"HASHINAKA","perfecture_jp":"奈良県","jp_add_1":"桜井市","jp_add_2":"箸中"},"6330047":{"post_code":"6330047","prefecture":"NARA KEN","city":"SAKURAI SHI","town":"HASHIMOTO","perfecture_jp":"奈良県","jp_add_1":"桜井市","jp_add_2":"橋本"},"6330112":{"post_code":"6330112","prefecture":"NARA KEN","city":"SAKURAI SHI","town":"HASE","perfecture_jp":"奈良県","jp_add_1":"桜井市","jp_add_2":"初瀬"},"6330024":{"post_code":"6330024","prefecture":"NARA KEN","city":"SAKURAI SHI","town":"HARIMICHI","perfecture_jp":"奈良県","jp_add_1":"桜井市","jp_add_2":"針道"},"6330068":{"post_code":"6330068","prefecture":"NARA KEN","city":"SAKURAI SHI","town":"HIGASHISHINDO","perfecture_jp":"奈良県","jp_add_1":"桜井市","jp_add_2":"東新堂"},"6330085":{"post_code":"6330085","prefecture":"NARA KEN","city":"SAKURAI SHI","town":"HIGASHIDA","perfecture_jp":"奈良県","jp_add_1":"桜井市","jp_add_2":"東田"},"6330078":{"post_code":"6330078","prefecture":"NARA KEN","city":"SAKURAI SHI","town":"BUNZE","perfecture_jp":"奈良県","jp_add_1":"桜井市","jp_add_2":"豊前"},"6330082":{"post_code":"6330082","prefecture":"NARA KEN","city":"SAKURAI SHI","town":"MAKINOCHI","perfecture_jp":"奈良県","jp_add_1":"桜井市","jp_add_2":"巻野内"},"6330087":{"post_code":"6330087","prefecture":"NARA KEN","city":"SAKURAI SHI","town":"MAMEGOSHI","perfecture_jp":"奈良県","jp_add_1":"桜井市","jp_add_2":"大豆越"},"6330102":{"post_code":"6330102","prefecture":"NARA KEN","city":"SAKURAI SHI","town":"MITANI","perfecture_jp":"奈良県","jp_add_1":"桜井市","jp_add_2":"三谷"},"6330023":{"post_code":"6330023","prefecture":"NARA KEN","city":"SAKURAI SHI","town":"MINAMIOTOWA","perfecture_jp":"奈良県","jp_add_1":"桜井市","jp_add_2":"南音羽"},"6330001":{"post_code":"6330001","prefecture":"NARA KEN","city":"SAKURAI SHI","town":"MIWA","perfecture_jp":"奈良県","jp_add_1":"桜井市","jp_add_2":"三輪"},"6330028":{"post_code":"6330028","prefecture":"NARA KEN","city":"SAKURAI SHI","town":"MOMONOICHI","perfecture_jp":"奈良県","jp_add_1":"桜井市","jp_add_2":"百市"},"6330025":{"post_code":"6330025","prefecture":"NARA KEN","city":"SAKURAI SHI","town":"YAINAI","perfecture_jp":"奈良県","jp_add_1":"桜井市","jp_add_2":"八井内"},"6330045":{"post_code":"6330045","prefecture":"NARA KEN","city":"SAKURAI SHI","town":"YAMADA","perfecture_jp":"奈良県","jp_add_1":"桜井市","jp_add_2":"山田"},"6330036":{"post_code":"6330036","prefecture":"NARA KEN","city":"SAKURAI SHI","town":"YOKOGAKI","perfecture_jp":"奈良県","jp_add_1":"桜井市","jp_add_2":"横柿"},"6330111":{"post_code":"6330111","prefecture":"NARA KEN","city":"SAKURAI SHI","town":"YONABARI","perfecture_jp":"奈良県","jp_add_1":"桜井市","jp_add_2":"吉隠"},"6330016":{"post_code":"6330016","prefecture":"NARA KEN","city":"SAKURAI SHI","town":"RYUTANI","perfecture_jp":"奈良県","jp_add_1":"桜井市","jp_add_2":"竜谷"},"6330027":{"post_code":"6330027","prefecture":"NARA KEN","city":"SAKURAI SHI","town":"ROKURO","perfecture_jp":"奈良県","jp_add_1":"桜井市","jp_add_2":"鹿路"},"6330018":{"post_code":"6330018","prefecture":"NARA KEN","city":"SAKURAI SHI","town":"WAKIMOTO","perfecture_jp":"奈良県","jp_add_1":"桜井市","jp_add_2":"脇本"},"6330132":{"post_code":"6330132","prefecture":"NARA KEN","city":"SAKURAI SHI","town":"WADA","perfecture_jp":"奈良県","jp_add_1":"桜井市","jp_add_2":"和田"},"6330200":{"post_code":"6330200","prefecture":"NARA KEN","city":"UDA SHI","town":"IKANIKEISAIGANAIBAAI","perfecture_jp":"奈良県","jp_add_1":"宇陀市","jp_add_2":""},"6332225":{"post_code":"6332225","prefecture":"NARA KEN","city":"UDA SHI","town":"UTANO INADO","perfecture_jp":"奈良県","jp_add_1":"宇陀市","jp_add_2":"菟田野稲戸"},"6332227":{"post_code":"6332227","prefecture":"NARA KEN","city":"UDA SHI","town":"UTANO IWASAKI","perfecture_jp":"奈良県","jp_add_1":"宇陀市","jp_add_2":"菟田野岩崎"},"6332214":{"post_code":"6332214","prefecture":"NARA KEN","city":"UDA SHI","town":"UTANO IWAHASHI","perfecture_jp":"奈良県","jp_add_1":"宇陀市","jp_add_2":"菟田野岩端"},"6332223":{"post_code":"6332223","prefecture":"NARA KEN","city":"UDA SHI","town":"UTANO UKASHI","perfecture_jp":"奈良県","jp_add_1":"宇陀市","jp_add_2":"菟田野宇賀志"},"6332202":{"post_code":"6332202","prefecture":"NARA KEN","city":"UDA SHI","town":"UTANO OGAMI","perfecture_jp":"奈良県","jp_add_1":"宇陀市","jp_add_2":"菟田野大神"},"6332204":{"post_code":"6332204","prefecture":"NARA KEN","city":"UDA SHI","town":"UTANO OSAWA","perfecture_jp":"奈良県","jp_add_1":"宇陀市","jp_add_2":"菟田野大澤"},"6332213":{"post_code":"6332213","prefecture":"NARA KEN","city":"UDA SHI","town":"UTANO KAMIHONO","perfecture_jp":"奈良県","jp_add_1":"宇陀市","jp_add_2":"菟田野上芳野"},"6332222":{"post_code":"6332222","prefecture":"NARA KEN","city":"UDA SHI","town":"UTANO KOMAGAERI","perfecture_jp":"奈良県","jp_add_1":"宇陀市","jp_add_2":"菟田野駒帰"},"6332224":{"post_code":"6332224","prefecture":"NARA KEN","city":"UDA SHI","town":"UTANO SAKURA","perfecture_jp":"奈良県","jp_add_1":"宇陀市","jp_add_2":"菟田野佐倉"},"6332212":{"post_code":"6332212","prefecture":"NARA KEN","city":"UDA SHI","town":"UTANO SHIMOHONO","perfecture_jp":"奈良県","jp_add_1":"宇陀市","jp_add_2":"菟田野下芳野"},"6332215":{"post_code":"6332215","prefecture":"NARA KEN","city":"UDA SHI","town":"UTANO TOGO","perfecture_jp":"奈良県","jp_add_1":"宇陀市","jp_add_2":"菟田野東郷"},"6332211":{"post_code":"6332211","prefecture":"NARA KEN","city":"UDA SHI","town":"UTANO NYUDANI","perfecture_jp":"奈良県","jp_add_1":"宇陀市","jp_add_2":"菟田野入谷"},"6332201":{"post_code":"6332201","prefecture":"NARA KEN","city":"UDA SHI","town":"UTANO HIRAI","perfecture_jp":"奈良県","jp_add_1":"宇陀市","jp_add_2":"菟田野平井"},"6332226":{"post_code":"6332226","prefecture":"NARA KEN","city":"UDA SHI","town":"UTANO FURUICHIBA","perfecture_jp":"奈良県","jp_add_1":"宇陀市","jp_add_2":"菟田野古市場"},"6332205":{"post_code":"6332205","prefecture":"NARA KEN","city":"UDA SHI","town":"UTANO BESSHO","perfecture_jp":"奈良県","jp_add_1":"宇陀市","jp_add_2":"菟田野別所"},"6332221":{"post_code":"6332221","prefecture":"NARA KEN","city":"UDA SHI","town":"UTANO MATSUI","perfecture_jp":"奈良県","jp_add_1":"宇陀市","jp_add_2":"菟田野松井"},"6332203":{"post_code":"6332203","prefecture":"NARA KEN","city":"UDA SHI","town":"UTANO MITA","perfecture_jp":"奈良県","jp_add_1":"宇陀市","jp_add_2":"菟田野見田"},"6332105":{"post_code":"6332105","prefecture":"NARA KEN","city":"UDA SHI","town":"OUDA ASODA","perfecture_jp":"奈良県","jp_add_1":"宇陀市","jp_add_2":"大宇陀麻生田"},"6332101":{"post_code":"6332101","prefecture":"NARA KEN","city":"UDA SHI","town":"OUDA ITSUTSU","perfecture_jp":"奈良県","jp_add_1":"宇陀市","jp_add_2":"大宇陀五津"},"6332162":{"post_code":"6332162","prefecture":"NARA KEN","city":"UDA SHI","town":"OUDA IDESHIN","perfecture_jp":"奈良県","jp_add_1":"宇陀市","jp_add_2":"大宇陀出新"},"6332126":{"post_code":"6332126","prefecture":"NARA KEN","city":"UDA SHI","town":"OUDA IWASHIMIZU","perfecture_jp":"奈良県","jp_add_1":"宇陀市","jp_add_2":"大宇陀岩清水"},"6332116":{"post_code":"6332116","prefecture":"NARA KEN","city":"UDA SHI","town":"OUDA IWAMURO","perfecture_jp":"奈良県","jp_add_1":"宇陀市","jp_add_2":"大宇陀岩室"},"6332111":{"post_code":"6332111","prefecture":"NARA KEN","city":"UDA SHI","town":"OUDA UCHIHARA","perfecture_jp":"奈良県","jp_add_1":"宇陀市","jp_add_2":"大宇陀内原"},"6332107":{"post_code":"6332107","prefecture":"NARA KEN","city":"UDA SHI","town":"OUDA URESHIGAWARA","perfecture_jp":"奈良県","jp_add_1":"宇陀市","jp_add_2":"大宇陀嬉河原"},"6332136":{"post_code":"6332136","prefecture":"NARA KEN","city":"UDA SHI","town":"OUDA OKUMA","perfecture_jp":"奈良県","jp_add_1":"宇陀市","jp_add_2":"大宇陀大熊"},"6332114":{"post_code":"6332114","prefecture":"NARA KEN","city":"UDA SHI","town":"OUDA KASUGA","perfecture_jp":"奈良県","jp_add_1":"宇陀市","jp_add_2":"大宇陀春日"},"6332174":{"post_code":"6332174","prefecture":"NARA KEN","city":"UDA SHI","town":"OUDA KAMI","perfecture_jp":"奈良県","jp_add_1":"宇陀市","jp_add_2":"大宇陀上"},"6332141":{"post_code":"6332141","prefecture":"NARA KEN","city":"UDA SHI","town":"OUDA KAMIKATAOKA","perfecture_jp":"奈良県","jp_add_1":"宇陀市","jp_add_2":"大宇陀上片岡"},"6332133":{"post_code":"6332133","prefecture":"NARA KEN","city":"UDA SHI","town":"OUDA KAMISHINA","perfecture_jp":"奈良県","jp_add_1":"宇陀市","jp_add_2":"大宇陀上品"},"6332161":{"post_code":"6332161","prefecture":"NARA KEN","city":"UDA SHI","town":"OUDA KAMISHIN","perfecture_jp":"奈良県","jp_add_1":"宇陀市","jp_add_2":"大宇陀上新"},"6332171":{"post_code":"6332171","prefecture":"NARA KEN","city":"UDA SHI","town":"OUDA KAMICHA","perfecture_jp":"奈良県","jp_add_1":"宇陀市","jp_add_2":"大宇陀上茶"},"6332173":{"post_code":"6332173","prefecture":"NARA KEN","city":"UDA SHI","town":"OUDA KAMINAKA","perfecture_jp":"奈良県","jp_add_1":"宇陀市","jp_add_2":"大宇陀上中"},"6332172":{"post_code":"6332172","prefecture":"NARA KEN","city":"UDA SHI","town":"OUDA KAMIHON","perfecture_jp":"奈良県","jp_add_1":"宇陀市","jp_add_2":"大宇陀上本"},"6332104":{"post_code":"6332104","prefecture":"NARA KEN","city":"UDA SHI","town":"OUDA KUCHIIMAI","perfecture_jp":"奈良県","jp_add_1":"宇陀市","jp_add_2":"大宇陀口今井"},"6332144":{"post_code":"6332144","prefecture":"NARA KEN","city":"UDA SHI","town":"OUDA KURINO","perfecture_jp":"奈良県","jp_add_1":"宇陀市","jp_add_2":"大宇陀栗野"},"6332155":{"post_code":"6332155","prefecture":"NARA KEN","city":"UDA SHI","town":"OUDA KUROGI","perfecture_jp":"奈良県","jp_add_1":"宇陀市","jp_add_2":"大宇陀黒木"},"6332176":{"post_code":"6332176","prefecture":"NARA KEN","city":"UDA SHI","town":"OUDA KOIDEGUCHI","perfecture_jp":"奈良県","jp_add_1":"宇陀市","jp_add_2":"大宇陀小出口"},"6332112":{"post_code":"6332112","prefecture":"NARA KEN","city":"UDA SHI","town":"OUDA KOTSUKE","perfecture_jp":"奈良県","jp_add_1":"宇陀市","jp_add_2":"大宇陀小附"},"6332134":{"post_code":"6332134","prefecture":"NARA KEN","city":"UDA SHI","town":"OUDA KOWADA","perfecture_jp":"奈良県","jp_add_1":"宇陀市","jp_add_2":"大宇陀小和田"},"6332124":{"post_code":"6332124","prefecture":"NARA KEN","city":"UDA SHI","town":"OUDA SAIGATSUJI","perfecture_jp":"奈良県","jp_add_1":"宇陀市","jp_add_2":"大宇陀才ケ辻"},"6332117":{"post_code":"6332117","prefecture":"NARA KEN","city":"UDA SHI","town":"OUDA SHIBO","perfecture_jp":"奈良県","jp_add_1":"宇陀市","jp_add_2":"大宇陀芝生"},"6332137":{"post_code":"6332137","prefecture":"NARA KEN","city":"UDA SHI","town":"OUDA SHIMOKATAOKA","perfecture_jp":"奈良県","jp_add_1":"宇陀市","jp_add_2":"大宇陀下片岡"},"6332132":{"post_code":"6332132","prefecture":"NARA KEN","city":"UDA SHI","town":"OUDA SHIMOSHINA","perfecture_jp":"奈良県","jp_add_1":"宇陀市","jp_add_2":"大宇陀下品"},"6332113":{"post_code":"6332113","prefecture":"NARA KEN","city":"UDA SHI","town":"OUDA SHIMOTAKE","perfecture_jp":"奈良県","jp_add_1":"宇陀市","jp_add_2":"大宇陀下竹"},"6332170":{"post_code":"6332170","prefecture":"NARA KEN","city":"UDA SHI","town":"OUDA SHIMOCHA","perfecture_jp":"奈良県","jp_add_1":"宇陀市","jp_add_2":"大宇陀下茶"},"6332177":{"post_code":"6332177","prefecture":"NARA KEN","city":"UDA SHI","town":"OUDA SHIMODEGUCHI","perfecture_jp":"奈良県","jp_add_1":"宇陀市","jp_add_2":"大宇陀下出口"},"6332178":{"post_code":"6332178","prefecture":"NARA KEN","city":"UDA SHI","town":"OUDA SHIMONAKA","perfecture_jp":"奈良県","jp_add_1":"宇陀市","jp_add_2":"大宇陀下中"},"6332179":{"post_code":"6332179","prefecture":"NARA KEN","city":"UDA SHI","town":"OUDA SHIMOHON","perfecture_jp":"奈良県","jp_add_1":"宇陀市","jp_add_2":"大宇陀下本"},"6332153":{"post_code":"6332153","prefecture":"NARA KEN","city":"UDA SHI","town":"OUDA SHIMOMIYANOKU","perfecture_jp":"奈良県","jp_add_1":"宇陀市","jp_add_2":"大宇陀下宮奥"},"6332138":{"post_code":"6332138","prefecture":"NARA KEN","city":"UDA SHI","town":"OUDA SHIRATORII","perfecture_jp":"奈良県","jp_add_1":"宇陀市","jp_add_2":"大宇陀白鳥居"},"6332152":{"post_code":"6332152","prefecture":"NARA KEN","city":"UDA SHI","town":"OUDA SEKIDO","perfecture_jp":"奈良県","jp_add_1":"宇陀市","jp_add_2":"大宇陀関戸"},"6332151":{"post_code":"6332151","prefecture":"NARA KEN","city":"UDA SHI","town":"OUDA DAITO","perfecture_jp":"奈良県","jp_add_1":"宇陀市","jp_add_2":"大宇陀大東"},"6332142":{"post_code":"6332142","prefecture":"NARA KEN","city":"UDA SHI","town":"OUDA TAWARA","perfecture_jp":"奈良県","jp_add_1":"宇陀市","jp_add_2":"大宇陀田原"},"6332122":{"post_code":"6332122","prefecture":"NARA KEN","city":"UDA SHI","town":"OUDA CHOSHI","perfecture_jp":"奈良県","jp_add_1":"宇陀市","jp_add_2":"大宇陀調子"},"6332121":{"post_code":"6332121","prefecture":"NARA KEN","city":"UDA SHI","town":"OUDA TSUKAWAKI","perfecture_jp":"奈良県","jp_add_1":"宇陀市","jp_add_2":"大宇陀塚脇"},"6332175":{"post_code":"6332175","prefecture":"NARA KEN","city":"UDA SHI","town":"OUDA NAKASHIN","perfecture_jp":"奈良県","jp_add_1":"宇陀市","jp_add_2":"大宇陀中新"},"6332165":{"post_code":"6332165","prefecture":"NARA KEN","city":"UDA SHI","town":"OUDA NAKANOSHO","perfecture_jp":"奈良県","jp_add_1":"宇陀市","jp_add_2":"大宇陀中庄"},"6332115":{"post_code":"6332115","prefecture":"NARA KEN","city":"UDA SHI","town":"OUDA NISHIYAMA","perfecture_jp":"奈良県","jp_add_1":"宇陀市","jp_add_2":"大宇陀西山"},"6332103":{"post_code":"6332103","prefecture":"NARA KEN","city":"UDA SHI","town":"OUDA NOYORI","perfecture_jp":"奈良県","jp_add_1":"宇陀市","jp_add_2":"大宇陀野依"},"6332166":{"post_code":"6332166","prefecture":"NARA KEN","city":"UDA SHI","town":"OUDA HASAMA","perfecture_jp":"奈良県","jp_add_1":"宇陀市","jp_add_2":"大宇陀迫間"},"6332108":{"post_code":"6332108","prefecture":"NARA KEN","city":"UDA SHI","town":"OUDA HANSAKA","perfecture_jp":"奈良県","jp_add_1":"宇陀市","jp_add_2":"大宇陀半阪"},"6332135":{"post_code":"6332135","prefecture":"NARA KEN","city":"UDA SHI","town":"OUDA HIGASHIHIRAO","perfecture_jp":"奈良県","jp_add_1":"宇陀市","jp_add_2":"大宇陀東平尾"},"6332102":{"post_code":"6332102","prefecture":"NARA KEN","city":"UDA SHI","town":"OUDA HIRAO","perfecture_jp":"奈良県","jp_add_1":"宇陀市","jp_add_2":"大宇陀平尾"},"6332164":{"post_code":"6332164","prefecture":"NARA KEN","city":"UDA SHI","town":"OUDA HIRO","perfecture_jp":"奈良県","jp_add_1":"宇陀市","jp_add_2":"大宇陀拾生"},"6332123":{"post_code":"6332123","prefecture":"NARA KEN","city":"UDA SHI","town":"OUDA FUJII","perfecture_jp":"奈良県","jp_add_1":"宇陀市","jp_add_2":"大宇陀藤井"},"6332156":{"post_code":"6332156","prefecture":"NARA KEN","city":"UDA SHI","town":"OUDA HONGO","perfecture_jp":"奈良県","jp_add_1":"宇陀市","jp_add_2":"大宇陀本郷"},"6332143":{"post_code":"6332143","prefecture":"NARA KEN","city":"UDA SHI","town":"OUDA MAKI","perfecture_jp":"奈良県","jp_add_1":"宇陀市","jp_add_2":"大宇陀牧"},"6332106":{"post_code":"6332106","prefecture":"NARA KEN","city":"UDA SHI","town":"OUDA MATORIGAKI","perfecture_jp":"奈良県","jp_add_1":"宇陀市","jp_add_2":"大宇陀馬取柿"},"6332163":{"post_code":"6332163","prefecture":"NARA KEN","city":"UDA SHI","town":"OUDA MANROKU","perfecture_jp":"奈良県","jp_add_1":"宇陀市","jp_add_2":"大宇陀万六"},"6332154":{"post_code":"6332154","prefecture":"NARA KEN","city":"UDA SHI","town":"OUDA MIYANOKU","perfecture_jp":"奈良県","jp_add_1":"宇陀市","jp_add_2":"大宇陀宮奥"},"6332125":{"post_code":"6332125","prefecture":"NARA KEN","city":"UDA SHI","town":"OUDA MOCHI","perfecture_jp":"奈良県","jp_add_1":"宇陀市","jp_add_2":"大宇陀守道"},"6332139":{"post_code":"6332139","prefecture":"NARA KEN","city":"UDA SHI","town":"OUDA YAMAGUCHI","perfecture_jp":"奈良県","jp_add_1":"宇陀市","jp_add_2":"大宇陀山口"},"6332131":{"post_code":"6332131","prefecture":"NARA KEN","city":"UDA SHI","town":"OUDA WADA","perfecture_jp":"奈良県","jp_add_1":"宇陀市","jp_add_2":"大宇陀和田"},"6330207":{"post_code":"6330207","prefecture":"NARA KEN","city":"UDA SHI","town":"HAIBARA AKAZE","perfecture_jp":"奈良県","jp_add_1":"宇陀市","jp_add_2":"榛原赤瀬"},"6330256":{"post_code":"6330256","prefecture":"NARA KEN","city":"UDA SHI","town":"HAIBARA AKANEDAI","perfecture_jp":"奈良県","jp_add_1":"宇陀市","jp_add_2":"榛原あかね台"},"6330213":{"post_code":"6330213","prefecture":"NARA KEN","city":"UDA SHI","town":"HAIBARA AKABANE","perfecture_jp":"奈良県","jp_add_1":"宇陀市","jp_add_2":"榛原赤埴"},"6330231":{"post_code":"6330231","prefecture":"NARA KEN","city":"UDA SHI","town":"HAIBARA ADACHI","perfecture_jp":"奈良県","jp_add_1":"宇陀市","jp_add_2":"榛原足立"},"6330243":{"post_code":"6330243","prefecture":"NARA KEN","city":"UDA SHI","town":"HAIBARA AMESHI","perfecture_jp":"奈良県","jp_add_1":"宇陀市","jp_add_2":"榛原雨師"},"6330232":{"post_code":"6330232","prefecture":"NARA KEN","city":"UDA SHI","town":"HAIBARA IKEGAMI","perfecture_jp":"奈良県","jp_add_1":"宇陀市","jp_add_2":"榛原池上"},"6330223":{"post_code":"6330223","prefecture":"NARA KEN","city":"UDA SHI","town":"HAIBARA ISHIDA","perfecture_jp":"奈良県","jp_add_1":"宇陀市","jp_add_2":"榛原石田"},"6330215":{"post_code":"6330215","prefecture":"NARA KEN","city":"UDA SHI","town":"HAIBARA UCHIMAKI","perfecture_jp":"奈良県","jp_add_1":"宇陀市","jp_add_2":"榛原内牧"},"6330225":{"post_code":"6330225","prefecture":"NARA KEN","city":"UDA SHI","town":"HAIBARA OGAI","perfecture_jp":"奈良県","jp_add_1":"宇陀市","jp_add_2":"榛原大貝"},"6330201":{"post_code":"6330201","prefecture":"NARA KEN","city":"UDA SHI","town":"HAIBARA KAIBA","perfecture_jp":"奈良県","jp_add_1":"宇陀市","jp_add_2":"榛原戒場"},"6330245":{"post_code":"6330245","prefecture":"NARA KEN","city":"UDA SHI","town":"HAIBARA KASAMA","perfecture_jp":"奈良県","jp_add_1":"宇陀市","jp_add_2":"榛原笠間"},"6330222":{"post_code":"6330222","prefecture":"NARA KEN","city":"UDA SHI","town":"HAIBARA KAMIIDANI","perfecture_jp":"奈良県","jp_add_1":"宇陀市","jp_add_2":"榛原上井足"},"6330228":{"post_code":"6330228","prefecture":"NARA KEN","city":"UDA SHI","town":"HAIBARA KURIDANI","perfecture_jp":"奈良県","jp_add_1":"宇陀市","jp_add_2":"榛原栗谷"},"6330252":{"post_code":"6330252","prefecture":"NARA KEN","city":"UDA SHI","town":"HAIBARA SAKURAGAOKA","perfecture_jp":"奈良県","jp_add_1":"宇陀市","jp_add_2":"榛原桜が丘"},"6330242":{"post_code":"6330242","prefecture":"NARA KEN","city":"UDA SHI","town":"HAIBARA SASAGAKU","perfecture_jp":"奈良県","jp_add_1":"宇陀市","jp_add_2":"榛原篠楽"},"6330226":{"post_code":"6330226","prefecture":"NARA KEN","city":"UDA SHI","town":"HAIBARA SAWA","perfecture_jp":"奈良県","jp_add_1":"宇陀市","jp_add_2":"榛原澤"},"6330227":{"post_code":"6330227","prefecture":"NARA KEN","city":"UDA SHI","town":"HAIBARA SANGUJI","perfecture_jp":"奈良県","jp_add_1":"宇陀市","jp_add_2":"榛原三宮寺"},"6330217":{"post_code":"6330217","prefecture":"NARA KEN","city":"UDA SHI","town":"HAIBARA JIMYO","perfecture_jp":"奈良県","jp_add_1":"宇陀市","jp_add_2":"榛原自明"},"6330241":{"post_code":"6330241","prefecture":"NARA KEN","city":"UDA SHI","town":"HAIBARA SHIMOIDANI","perfecture_jp":"奈良県","jp_add_1":"宇陀市","jp_add_2":"榛原下井足"},"6330212":{"post_code":"6330212","prefecture":"NARA KEN","city":"UDA SHI","town":"HAIBARA TAKAI","perfecture_jp":"奈良県","jp_add_1":"宇陀市","jp_add_2":"榛原高井"},"6330234":{"post_code":"6330234","prefecture":"NARA KEN","city":"UDA SHI","town":"HAIBARA TAKATSUKA","perfecture_jp":"奈良県","jp_add_1":"宇陀市","jp_add_2":"榛原高塚"},"6330254":{"post_code":"6330254","prefecture":"NARA KEN","city":"UDA SHI","town":"HAIBARA TAKAHAGIDAI","perfecture_jp":"奈良県","jp_add_1":"宇陀市","jp_add_2":"榛原高萩台"},"6330255":{"post_code":"6330255","prefecture":"NARA KEN","city":"UDA SHI","town":"HAIBARA TSUNOGAWARA","perfecture_jp":"奈良県","jp_add_1":"宇陀市","jp_add_2":"榛原角柄"},"6330206":{"post_code":"6330206","prefecture":"NARA KEN","city":"UDA SHI","town":"HAIBARA TEMMADAINISHI","perfecture_jp":"奈良県","jp_add_1":"宇陀市","jp_add_2":"榛原天満台西"},"6330205":{"post_code":"6330205","prefecture":"NARA KEN","city":"UDA SHI","town":"HAIBARA TEMMADAIHIGASHI","perfecture_jp":"奈良県","jp_add_1":"宇陀市","jp_add_2":"榛原天満台東"},"6330203":{"post_code":"6330203","prefecture":"NARA KEN","city":"UDA SHI","town":"HAIBARA NAGAMINE","perfecture_jp":"奈良県","jp_add_1":"宇陀市","jp_add_2":"榛原長峯"},"6330211":{"post_code":"6330211","prefecture":"NARA KEN","city":"UDA SHI","town":"HAIBARA NIZAKA","perfecture_jp":"奈良県","jp_add_1":"宇陀市","jp_add_2":"榛原荷阪"},"6330208":{"post_code":"6330208","prefecture":"NARA KEN","city":"UDA SHI","town":"HAIBARA NUKAI","perfecture_jp":"奈良県","jp_add_1":"宇陀市","jp_add_2":"榛原額井"},"6330221":{"post_code":"6330221","prefecture":"NARA KEN","city":"UDA SHI","town":"HAIBARA HAGINOSATO","perfecture_jp":"奈良県","jp_add_1":"宇陀市","jp_add_2":"榛原萩乃里"},"6330253":{"post_code":"6330253","prefecture":"NARA KEN","city":"UDA SHI","town":"HAIBARA HAGIHARA","perfecture_jp":"奈良県","jp_add_1":"宇陀市","jp_add_2":"榛原萩原"},"6330257":{"post_code":"6330257","prefecture":"NARA KEN","city":"UDA SHI","town":"HAIBARA HARUMIGAOKA","perfecture_jp":"奈良県","jp_add_1":"宇陀市","jp_add_2":"榛原榛見が丘"},"6330251":{"post_code":"6330251","prefecture":"NARA KEN","city":"UDA SHI","town":"HAIBARA HINOKIZAKA","perfecture_jp":"奈良県","jp_add_1":"宇陀市","jp_add_2":"榛原ひのき坂"},"6330218":{"post_code":"6330218","prefecture":"NARA KEN","city":"UDA SHI","town":"HAIBARA HINOMAKI","perfecture_jp":"奈良県","jp_add_1":"宇陀市","jp_add_2":"榛原檜牧"},"6330235":{"post_code":"6330235","prefecture":"NARA KEN","city":"UDA SHI","town":"HAIBARA HIFU","perfecture_jp":"奈良県","jp_add_1":"宇陀市","jp_add_2":"榛原比布"},"6330204":{"post_code":"6330204","prefecture":"NARA KEN","city":"UDA SHI","town":"HAIBARA FUKUCHI","perfecture_jp":"奈良県","jp_add_1":"宇陀市","jp_add_2":"榛原福地"},"6330233":{"post_code":"6330233","prefecture":"NARA KEN","city":"UDA SHI","town":"HAIBARA FUKUNISHI","perfecture_jp":"奈良県","jp_add_1":"宇陀市","jp_add_2":"榛原福西"},"6330236":{"post_code":"6330236","prefecture":"NARA KEN","city":"UDA SHI","town":"HAIBARA MORI","perfecture_jp":"奈良県","jp_add_1":"宇陀市","jp_add_2":"榛原母里"},"6330214":{"post_code":"6330214","prefecture":"NARA KEN","city":"UDA SHI","town":"HAIBARA MOROKINO","perfecture_jp":"奈良県","jp_add_1":"宇陀市","jp_add_2":"榛原諸木野"},"6330244":{"post_code":"6330244","prefecture":"NARA KEN","city":"UDA SHI","town":"HAIBARA YASUDA","perfecture_jp":"奈良県","jp_add_1":"宇陀市","jp_add_2":"榛原安田"},"6330216":{"post_code":"6330216","prefecture":"NARA KEN","city":"UDA SHI","town":"HAIBARA YATAKI","perfecture_jp":"奈良県","jp_add_1":"宇陀市","jp_add_2":"榛原八滝"},"6330246":{"post_code":"6330246","prefecture":"NARA KEN","city":"UDA SHI","town":"HAIBARA YANAGI","perfecture_jp":"奈良県","jp_add_1":"宇陀市","jp_add_2":"榛原柳"},"6330224":{"post_code":"6330224","prefecture":"NARA KEN","city":"UDA SHI","town":"HAIBARA YAMAJI","perfecture_jp":"奈良県","jp_add_1":"宇陀市","jp_add_2":"榛原山路"},"6330202":{"post_code":"6330202","prefecture":"NARA KEN","city":"UDA SHI","town":"HAIBARA YAMABESAN","perfecture_jp":"奈良県","jp_add_1":"宇陀市","jp_add_2":"榛原山辺三"},"6330421":{"post_code":"6330421","prefecture":"NARA KEN","city":"UDA SHI","town":"MURO","perfecture_jp":"奈良県","jp_add_1":"宇陀市","jp_add_2":"室生"},"6330315":{"post_code":"6330315","prefecture":"NARA KEN","city":"UDA SHI","town":"MURO ONO","perfecture_jp":"奈良県","jp_add_1":"宇陀市","jp_add_2":"室生大野"},"6330425":{"post_code":"6330425","prefecture":"NARA KEN","city":"UDA SHI","town":"MURO KUROIWA","perfecture_jp":"奈良県","jp_add_1":"宇陀市","jp_add_2":"室生黒岩"},"6330317":{"post_code":"6330317","prefecture":"NARA KEN","city":"UDA SHI","town":"MURO SAMBOMMATSU","perfecture_jp":"奈良県","jp_add_1":"宇陀市","jp_add_2":"室生三本松"},"6330422":{"post_code":"6330422","prefecture":"NARA KEN","city":"UDA SHI","town":"MURO SHIMOTAGUCHI","perfecture_jp":"奈良県","jp_add_1":"宇陀市","jp_add_2":"室生下田口"},"6330313":{"post_code":"6330313","prefecture":"NARA KEN","city":"UDA SHI","town":"MURO TAKIDANI","perfecture_jp":"奈良県","jp_add_1":"宇陀市","jp_add_2":"室生瀧谷"},"6330424":{"post_code":"6330424","prefecture":"NARA KEN","city":"UDA SHI","town":"MURO TAGUCHIMOTOKAMITAGUCHI","perfecture_jp":"奈良県","jp_add_1":"宇陀市","jp_add_2":"室生田口元上田口"},"6330423":{"post_code":"6330423","prefecture":"NARA KEN","city":"UDA SHI","town":"MURO TAGUCHIMOTOTSUNOGAWA","perfecture_jp":"奈良県","jp_add_1":"宇陀市","jp_add_2":"室生田口元角川"},"6330314":{"post_code":"6330314","prefecture":"NARA KEN","city":"UDA SHI","town":"MURO TOTORI","perfecture_jp":"奈良県","jp_add_1":"宇陀市","jp_add_2":"室生砥取"},"6330312":{"post_code":"6330312","prefecture":"NARA KEN","city":"UDA SHI","town":"MURO NISHITANI","perfecture_jp":"奈良県","jp_add_1":"宇陀市","jp_add_2":"室生西谷"},"6330316":{"post_code":"6330316","prefecture":"NARA KEN","city":"UDA SHI","town":"MURO MUKOJI","perfecture_jp":"奈良県","jp_add_1":"宇陀市","jp_add_2":"室生向渕"},"6330311":{"post_code":"6330311","prefecture":"NARA KEN","city":"UDA SHI","town":"MURO RYUGUCHI","perfecture_jp":"奈良県","jp_add_1":"宇陀市","jp_add_2":"室生龍口"},"6331200":{"post_code":"6331200","prefecture":"NARA KEN","city":"UDA GUN SONI MURA","town":"IKANIKEISAIGANAIBAAI","perfecture_jp":"奈良県","jp_add_1":"宇陀郡曽爾村","jp_add_2":""},"6331201":{"post_code":"6331201","prefecture":"NARA KEN","city":"UDA GUN SONI MURA","town":"IGAMI","perfecture_jp":"奈良県","jp_add_1":"宇陀郡曽爾村","jp_add_2":"伊賀見"},"6331212":{"post_code":"6331212","prefecture":"NARA KEN","city":"UDA GUN SONI MURA","town":"IMAI","perfecture_jp":"奈良県","jp_add_1":"宇陀郡曽爾村","jp_add_2":"今井"},"6331215":{"post_code":"6331215","prefecture":"NARA KEN","city":"UDA GUN SONI MURA","town":"KAKE","perfecture_jp":"奈良県","jp_add_1":"宇陀郡曽爾村","jp_add_2":"掛"},"6331203":{"post_code":"6331203","prefecture":"NARA KEN","city":"UDA GUN SONI MURA","town":"KAZURA","perfecture_jp":"奈良県","jp_add_1":"宇陀郡曽爾村","jp_add_2":"葛"},"6331213":{"post_code":"6331213","prefecture":"NARA KEN","city":"UDA GUN SONI MURA","town":"KONAGAO","perfecture_jp":"奈良県","jp_add_1":"宇陀郡曽爾村","jp_add_2":"小長尾"},"6331211":{"post_code":"6331211","prefecture":"NARA KEN","city":"UDA GUN SONI MURA","town":"SHIOI","perfecture_jp":"奈良県","jp_add_1":"宇陀郡曽爾村","jp_add_2":"塩井"},"6331202":{"post_code":"6331202","prefecture":"NARA KEN","city":"UDA GUN SONI MURA","town":"TAROJI","perfecture_jp":"奈良県","jp_add_1":"宇陀郡曽爾村","jp_add_2":"太良路"},"6331214":{"post_code":"6331214","prefecture":"NARA KEN","city":"UDA GUN SONI MURA","town":"NAGANO","perfecture_jp":"奈良県","jp_add_1":"宇陀郡曽爾村","jp_add_2":"長野"},"6331216":{"post_code":"6331216","prefecture":"NARA KEN","city":"UDA GUN SONI MURA","town":"YAMAGASU","perfecture_jp":"奈良県","jp_add_1":"宇陀郡曽爾村","jp_add_2":"山粕"},"6331300":{"post_code":"6331300","prefecture":"NARA KEN","city":"UDA GUN MITSUE MURA","town":"IKANIKEISAIGANAIBAAI","perfecture_jp":"奈良県","jp_add_1":"宇陀郡御杖村","jp_add_2":""},"6331301":{"post_code":"6331301","prefecture":"NARA KEN","city":"UDA GUN MITSUE MURA","town":"KOZUE","perfecture_jp":"奈良県","jp_add_1":"宇陀郡御杖村","jp_add_2":"神末"},"6331302":{"post_code":"6331302","prefecture":"NARA KEN","city":"UDA GUN MITSUE MURA","town":"SUGANO","perfecture_jp":"奈良県","jp_add_1":"宇陀郡御杖村","jp_add_2":"菅野"},"6331303":{"post_code":"6331303","prefecture":"NARA KEN","city":"UDA GUN MITSUE MURA","town":"TSUCHIYAHARA","perfecture_jp":"奈良県","jp_add_1":"宇陀郡御杖村","jp_add_2":"土屋原"},"6331304":{"post_code":"6331304","prefecture":"NARA KEN","city":"UDA GUN MITSUE MURA","town":"MOMONOMATA","perfecture_jp":"奈良県","jp_add_1":"宇陀郡御杖村","jp_add_2":"桃俣"},"6332400":{"post_code":"6332400","prefecture":"NARA KEN","city":"YOSHINO GUN HIGASHIYOSHINO MURA","town":"IKANIKEISAIGANAIBAAI","perfecture_jp":"奈良県","jp_add_1":"吉野郡東吉野村","jp_add_2":""},"6332312":{"post_code":"6332312","prefecture":"NARA KEN","city":"YOSHINO GUN HIGASHIYOSHINO MURA","town":"IZUO","perfecture_jp":"奈良県","jp_add_1":"吉野郡東吉野村","jp_add_2":"伊豆尾"},"6332444":{"post_code":"6332444","prefecture":"NARA KEN","city":"YOSHINO GUN HIGASHIYOSHINO MURA","town":"OMATA","perfecture_jp":"奈良県","jp_add_1":"吉野郡東吉野村","jp_add_2":"大又"},"6332421":{"post_code":"6332421","prefecture":"NARA KEN","city":"YOSHINO GUN HIGASHIYOSHINO MURA","town":"OGAWA","perfecture_jp":"奈良県","jp_add_1":"吉野郡東吉野村","jp_add_2":"小川"},"6332431":{"post_code":"6332431","prefecture":"NARA KEN","city":"YOSHINO GUN HIGASHIYOSHINO MURA","town":"OMURA","perfecture_jp":"奈良県","jp_add_1":"吉野郡東吉野村","jp_add_2":"小"},"6332423":{"post_code":"6332423","prefecture":"NARA KEN","city":"YOSHINO GUN HIGASHIYOSHINO MURA","town":"KOGURISU","perfecture_jp":"奈良県","jp_add_1":"吉野郡東吉野村","jp_add_2":"小栗栖"},"6332311":{"post_code":"6332311","prefecture":"NARA KEN","city":"YOSHINO GUN HIGASHIYOSHINO MURA","town":"KOTSU","perfecture_jp":"奈良県","jp_add_1":"吉野郡東吉野村","jp_add_2":"木津"},"6332432":{"post_code":"6332432","prefecture":"NARA KEN","city":"YOSHINO GUN HIGASHIYOSHINO MURA","town":"KOTSUGAWA","perfecture_jp":"奈良県","jp_add_1":"吉野郡東吉野村","jp_add_2":"木津川"},"6332304":{"post_code":"6332304","prefecture":"NARA KEN","city":"YOSHINO GUN HIGASHIYOSHINO MURA","town":"SUGITANI","perfecture_jp":"奈良県","jp_add_1":"吉野郡東吉野村","jp_add_2":"杉谷"},"6332441":{"post_code":"6332441","prefecture":"NARA KEN","city":"YOSHINO GUN HIGASHIYOSHINO MURA","town":"SEBATO","perfecture_jp":"奈良県","jp_add_1":"吉野郡東吉野村","jp_add_2":"狭戸"},"6332301":{"post_code":"6332301","prefecture":"NARA KEN","city":"YOSHINO GUN HIGASHIYOSHINO MURA","town":"TAKINO","perfecture_jp":"奈良県","jp_add_1":"吉野郡東吉野村","jp_add_2":"滝野"},"6332302":{"post_code":"6332302","prefecture":"NARA KEN","city":"YOSHINO GUN HIGASHIYOSHINO MURA","town":"TANIJIRI","perfecture_jp":"奈良県","jp_add_1":"吉野郡東吉野村","jp_add_2":"谷尻"},"6332424":{"post_code":"6332424","prefecture":"NARA KEN","city":"YOSHINO GUN HIGASHIYOSHINO MURA","town":"NAKAGURO","perfecture_jp":"奈良県","jp_add_1":"吉野郡東吉野村","jp_add_2":"中黒"},"6332314":{"post_code":"6332314","prefecture":"NARA KEN","city":"YOSHINO GUN HIGASHIYOSHINO MURA","town":"HAGIWARA","perfecture_jp":"奈良県","jp_add_1":"吉野郡東吉野村","jp_add_2":"萩原"},"6332313":{"post_code":"6332313","prefecture":"NARA KEN","city":"YOSHINO GUN HIGASHIYOSHINO MURA","town":"HIURA","perfecture_jp":"奈良県","jp_add_1":"吉野郡東吉野村","jp_add_2":"日裏"},"6332303":{"post_code":"6332303","prefecture":"NARA KEN","city":"YOSHINO GUN HIGASHIYOSHINO MURA","town":"HIRANO","perfecture_jp":"奈良県","jp_add_1":"吉野郡東吉野村","jp_add_2":"平野"},"6332442":{"post_code":"6332442","prefecture":"NARA KEN","city":"YOSHINO GUN HIGASHIYOSHINO MURA","town":"MAMEO","perfecture_jp":"奈良県","jp_add_1":"吉野郡東吉野村","jp_add_2":"大豆生"},"6332433":{"post_code":"6332433","prefecture":"NARA KEN","city":"YOSHINO GUN HIGASHIYOSHINO MURA","town":"MIO","perfecture_jp":"奈良県","jp_add_1":"吉野郡東吉野村","jp_add_2":"三尾"},"6332443":{"post_code":"6332443","prefecture":"NARA KEN","city":"YOSHINO GUN HIGASHIYOSHINO MURA","town":"MUGITANI","perfecture_jp":"奈良県","jp_add_1":"吉野郡東吉野村","jp_add_2":"麦谷"},"6332422":{"post_code":"6332422","prefecture":"NARA KEN","city":"YOSHINO GUN HIGASHIYOSHINO MURA","town":"WASHIKA","perfecture_jp":"奈良県","jp_add_1":"吉野郡東吉野村","jp_add_2":"鷲家"}}