{"6340000":{"post_code":"6340000","prefecture":"NARA KEN","city":"KASHIHARA SHI","town":"IKANIKEISAIGANAIBAAI","perfecture_jp":"奈良県","jp_add_1":"橿原市","jp_add_2":""},"6340045":{"post_code":"6340045","prefecture":"NARA KEN","city":"KASHIHARA SHI","town":"ISHIKAWACHO","perfecture_jp":"奈良県","jp_add_1":"橿原市","jp_add_2":"石川町"},"6340014":{"post_code":"6340014","prefecture":"NARA KEN","city":"KASHIHARA SHI","town":"ISHIHARADACHO","perfecture_jp":"奈良県","jp_add_1":"橿原市","jp_add_2":"石原田町"},"6340812":{"post_code":"6340812","prefecture":"NARA KEN","city":"KASHIHARA SHI","town":"IMAICHO","perfecture_jp":"奈良県","jp_add_1":"橿原市","jp_add_2":"今井町"},"6340833":{"post_code":"6340833","prefecture":"NARA KEN","city":"KASHIHARA SHI","town":"IMBECHO","perfecture_jp":"奈良県","jp_add_1":"橿原市","jp_add_2":"忌部町"},"6340834":{"post_code":"6340834","prefecture":"NARA KEN","city":"KASHIHARA SHI","town":"UNATECHO","perfecture_jp":"奈良県","jp_add_1":"橿原市","jp_add_2":"雲梯町"},"6340065":{"post_code":"6340065","prefecture":"NARA KEN","city":"KASHIHARA SHI","town":"UNEBICHO","perfecture_jp":"奈良県","jp_add_1":"橿原市","jp_add_2":"畝傍町"},"6340046":{"post_code":"6340046","prefecture":"NARA KEN","city":"KASHIHARA SHI","town":"EIWACHO","perfecture_jp":"奈良県","jp_add_1":"橿原市","jp_add_2":"栄和町"},"6340075":{"post_code":"6340075","prefecture":"NARA KEN","city":"KASHIHARA SHI","town":"OSACHO","perfecture_jp":"奈良県","jp_add_1":"橿原市","jp_add_2":"小房町"},"6340846":{"post_code":"6340846","prefecture":"NARA KEN","city":"KASHIHARA SHI","town":"OZUKUCHO","perfecture_jp":"奈良県","jp_add_1":"橿原市","jp_add_2":"小槻町"},"6340841":{"post_code":"6340841","prefecture":"NARA KEN","city":"KASHIHARA SHI","town":"OGAKICHO","perfecture_jp":"奈良県","jp_add_1":"橿原市","jp_add_2":"大垣町"},"6340044":{"post_code":"6340044","prefecture":"NARA KEN","city":"KASHIHARA SHI","town":"OGARUCHO","perfecture_jp":"奈良県","jp_add_1":"橿原市","jp_add_2":"大軽町"},"6340061":{"post_code":"6340061","prefecture":"NARA KEN","city":"KASHIHARA SHI","town":"OKUBOCHO","perfecture_jp":"奈良県","jp_add_1":"橿原市","jp_add_2":"大久保町"},"6340815":{"post_code":"6340815","prefecture":"NARA KEN","city":"KASHIHARA SHI","town":"OTANICHO","perfecture_jp":"奈良県","jp_add_1":"橿原市","jp_add_2":"大谷町"},"6340001":{"post_code":"6340001","prefecture":"NARA KEN","city":"KASHIHARA SHI","town":"ODAICHICHO","perfecture_jp":"奈良県","jp_add_1":"橿原市","jp_add_2":"太田市町"},"6340023":{"post_code":"6340023","prefecture":"NARA KEN","city":"KASHIHARA SHI","town":"KAIGECHO","perfecture_jp":"奈良県","jp_add_1":"橿原市","jp_add_2":"戒外町"},"6340012":{"post_code":"6340012","prefecture":"NARA KEN","city":"KASHIHARA SHI","town":"KASHIWATECHO","perfecture_jp":"奈良県","jp_add_1":"橿原市","jp_add_2":"膳夫町"},"6340824":{"post_code":"6340824","prefecture":"NARA KEN","city":"KASHIHARA SHI","town":"KAZUCHO","perfecture_jp":"奈良県","jp_add_1":"橿原市","jp_add_2":"一町"},"6340031":{"post_code":"6340031","prefecture":"NARA KEN","city":"KASHIHARA SHI","town":"KAMIHIDACHO","perfecture_jp":"奈良県","jp_add_1":"橿原市","jp_add_2":"上飛騨町"},"6340826":{"post_code":"6340826","prefecture":"NARA KEN","city":"KASHIHARA SHI","town":"KAWANISHICHO","perfecture_jp":"奈良県","jp_add_1":"橿原市","jp_add_2":"川西町"},"6340825":{"post_code":"6340825","prefecture":"NARA KEN","city":"KASHIHARA SHI","town":"KANNONJICHO","perfecture_jp":"奈良県","jp_add_1":"橿原市","jp_add_2":"観音寺町"},"6340823":{"post_code":"6340823","prefecture":"NARA KEN","city":"KASHIHARA SHI","town":"KITAOCHICHO","perfecture_jp":"奈良県","jp_add_1":"橿原市","jp_add_2":"北越智町"},"6340843":{"post_code":"6340843","prefecture":"NARA KEN","city":"KASHIHARA SHI","town":"KITAMYOHOJICHO","perfecture_jp":"奈良県","jp_add_1":"橿原市","jp_add_2":"北妙法寺町"},"6340005":{"post_code":"6340005","prefecture":"NARA KEN","city":"KASHIHARA SHI","town":"KITAYAGICHO","perfecture_jp":"奈良県","jp_add_1":"橿原市","jp_add_2":"北八木町"},"6340033":{"post_code":"6340033","prefecture":"NARA KEN","city":"KASHIHARA SHI","town":"KIDONOCHO","perfecture_jp":"奈良県","jp_add_1":"橿原市","jp_add_2":"城殿町"},"6340025":{"post_code":"6340025","prefecture":"NARA KEN","city":"KASHIHARA SHI","town":"KINOMOTOCHO","perfecture_jp":"奈良県","jp_add_1":"橿原市","jp_add_2":"木之本町"},"6340004":{"post_code":"6340004","prefecture":"NARA KEN","city":"KASHIHARA SHI","town":"KIHARACHO","perfecture_jp":"奈良県","jp_add_1":"橿原市","jp_add_2":"木原町"},"6340007":{"post_code":"6340007","prefecture":"NARA KEN","city":"KASHIHARA SHI","town":"KUZUMOTOCHO","perfecture_jp":"奈良県","jp_add_1":"橿原市","jp_add_2":"葛本町"},"6340063":{"post_code":"6340063","prefecture":"NARA KEN","city":"KASHIHARA SHI","town":"KUMECHO","perfecture_jp":"奈良県","jp_add_1":"橿原市","jp_add_2":"久米町"},"6340827":{"post_code":"6340827","prefecture":"NARA KEN","city":"KASHIHARA SHI","town":"KOYOCHO","perfecture_jp":"奈良県","jp_add_1":"橿原市","jp_add_2":"光陽町"},"6340832":{"post_code":"6340832","prefecture":"NARA KEN","city":"KASHIHARA SHI","town":"GOICHO","perfecture_jp":"奈良県","jp_add_1":"橿原市","jp_add_2":"五井町"},"6340043":{"post_code":"6340043","prefecture":"NARA KEN","city":"KASHIHARA SHI","town":"GOJONOCHO","perfecture_jp":"奈良県","jp_add_1":"橿原市","jp_add_2":"五条野町"},"6340062":{"post_code":"6340062","prefecture":"NARA KEN","city":"KASHIHARA SHI","town":"GOBOCHO","perfecture_jp":"奈良県","jp_add_1":"橿原市","jp_add_2":"御坊町"},"6340813":{"post_code":"6340813","prefecture":"NARA KEN","city":"KASHIHARA SHI","town":"SHIJOCHO","perfecture_jp":"奈良県","jp_add_1":"橿原市","jp_add_2":"四条町"},"6340074":{"post_code":"6340074","prefecture":"NARA KEN","city":"KASHIHARA SHI","town":"SHIBUCHO","perfecture_jp":"奈良県","jp_add_1":"橿原市","jp_add_2":"四分町"},"6340029":{"post_code":"6340029","prefecture":"NARA KEN","city":"KASHIHARA SHI","town":"SHIMOYATSURICHO","perfecture_jp":"奈良県","jp_add_1":"橿原市","jp_add_2":"下八釣町"},"6340811":{"post_code":"6340811","prefecture":"NARA KEN","city":"KASHIHARA SHI","town":"SHOKOCHO","perfecture_jp":"奈良県","jp_add_1":"橿原市","jp_add_2":"小綱町"},"6340042":{"post_code":"6340042","prefecture":"NARA KEN","city":"KASHIHARA SHI","town":"SHOBUCHO","perfecture_jp":"奈良県","jp_add_1":"橿原市","jp_add_2":"菖蒲町"},"6340803":{"post_code":"6340803","prefecture":"NARA KEN","city":"KASHIHARA SHI","town":"JOBONJICHO","perfecture_jp":"奈良県","jp_add_1":"橿原市","jp_add_2":"上品寺町"},"6340051":{"post_code":"6340051","prefecture":"NARA KEN","city":"KASHIHARA SHI","town":"SHIRAKASHICHO","perfecture_jp":"奈良県","jp_add_1":"橿原市","jp_add_2":"白橿町"},"6340006":{"post_code":"6340006","prefecture":"NARA KEN","city":"KASHIHARA SHI","town":"SHINGACHO","perfecture_jp":"奈良県","jp_add_1":"橿原市","jp_add_2":"新賀町"},"6340836":{"post_code":"6340836","prefecture":"NARA KEN","city":"KASHIHARA SHI","town":"SHINDOCHO","perfecture_jp":"奈良県","jp_add_1":"橿原市","jp_add_2":"新堂町"},"6340805":{"post_code":"6340805","prefecture":"NARA KEN","city":"KASHIHARA SHI","town":"JIOCHO","perfecture_jp":"奈良県","jp_add_1":"橿原市","jp_add_2":"地黄町"},"6340816":{"post_code":"6340816","prefecture":"NARA KEN","city":"KASHIHARA SHI","town":"JIMYOJICHO","perfecture_jp":"奈良県","jp_add_1":"橿原市","jp_add_2":"慈明寺町"},"6340831":{"post_code":"6340831","prefecture":"NARA KEN","city":"KASHIHARA SHI","town":"SOGACHO","perfecture_jp":"奈良県","jp_add_1":"橿原市","jp_add_2":"曽我町"},"6340072":{"post_code":"6340072","prefecture":"NARA KEN","city":"KASHIHARA SHI","town":"DAIGOCHO","perfecture_jp":"奈良県","jp_add_1":"橿原市","jp_add_2":"醍醐町"},"6340027":{"post_code":"6340027","prefecture":"NARA KEN","city":"KASHIHARA SHI","town":"TAKADONOCHO","perfecture_jp":"奈良県","jp_add_1":"橿原市","jp_add_2":"高殿町"},"6340032":{"post_code":"6340032","prefecture":"NARA KEN","city":"KASHIHARA SHI","town":"TANAKACHO","perfecture_jp":"奈良県","jp_add_1":"橿原市","jp_add_2":"田中町"},"6340844":{"post_code":"6340844","prefecture":"NARA KEN","city":"KASHIHARA SHI","town":"TSUCHIHASHICHO","perfecture_jp":"奈良県","jp_add_1":"橿原市","jp_add_2":"土橋町"},"6340013":{"post_code":"6340013","prefecture":"NARA KEN","city":"KASHIHARA SHI","town":"DEAICHO","perfecture_jp":"奈良県","jp_add_1":"橿原市","jp_add_2":"出合町"},"6340011":{"post_code":"6340011","prefecture":"NARA KEN","city":"KASHIHARA SHI","town":"DEGAITOCHO","perfecture_jp":"奈良県","jp_add_1":"橿原市","jp_add_2":"出垣内町"},"6340817":{"post_code":"6340817","prefecture":"NARA KEN","city":"KASHIHARA SHI","town":"TERADACHO","perfecture_jp":"奈良県","jp_add_1":"橿原市","jp_add_2":"寺田町"},"6340008":{"post_code":"6340008","prefecture":"NARA KEN","city":"KASHIHARA SHI","town":"TOICHICHO","perfecture_jp":"奈良県","jp_add_1":"橿原市","jp_add_2":"十市町"},"6340003":{"post_code":"6340003","prefecture":"NARA KEN","city":"KASHIHARA SHI","town":"TOKIWACHO","perfecture_jp":"奈良県","jp_add_1":"橿原市","jp_add_2":"常盤町"},"6340842":{"post_code":"6340842","prefecture":"NARA KEN","city":"KASHIHARA SHI","town":"TOYODACHO","perfecture_jp":"奈良県","jp_add_1":"橿原市","jp_add_2":"豊田町"},"6340822":{"post_code":"6340822","prefecture":"NARA KEN","city":"KASHIHARA SHI","town":"TORIYACHO","perfecture_jp":"奈良県","jp_add_1":"橿原市","jp_add_2":"鳥屋町"},"6340804":{"post_code":"6340804","prefecture":"NARA KEN","city":"KASHIHARA SHI","town":"NAIZENCHO","perfecture_jp":"奈良県","jp_add_1":"橿原市","jp_add_2":"内膳町"},"6340845":{"post_code":"6340845","prefecture":"NARA KEN","city":"KASHIHARA SHI","town":"NAKAZOSHICHO","perfecture_jp":"奈良県","jp_add_1":"橿原市","jp_add_2":"中曽司町"},"6340009":{"post_code":"6340009","prefecture":"NARA KEN","city":"KASHIHARA SHI","town":"NAKACHO","perfecture_jp":"奈良県","jp_add_1":"橿原市","jp_add_2":"中町"},"6340073":{"post_code":"6340073","prefecture":"NARA KEN","city":"KASHIHARA SHI","town":"NAWATECHO","perfecture_jp":"奈良県","jp_add_1":"橿原市","jp_add_2":"縄手町"},"6340821":{"post_code":"6340821","prefecture":"NARA KEN","city":"KASHIHARA SHI","town":"NISHIIKEJIRICHO","perfecture_jp":"奈良県","jp_add_1":"橿原市","jp_add_2":"西池尻町"},"6340801":{"post_code":"6340801","prefecture":"NARA KEN","city":"KASHIHARA SHI","town":"NISHISHINDOCHO","perfecture_jp":"奈良県","jp_add_1":"橿原市","jp_add_2":"西新堂町"},"6340802":{"post_code":"6340802","prefecture":"NARA KEN","city":"KASHIHARA SHI","town":"NINOKUCHICHO","perfecture_jp":"奈良県","jp_add_1":"橿原市","jp_add_2":"新口町"},"6340021":{"post_code":"6340021","prefecture":"NARA KEN","city":"KASHIHARA SHI","town":"HIGASHIIKEJIRICHO","perfecture_jp":"奈良県","jp_add_1":"橿原市","jp_add_2":"東池尻町"},"6340002":{"post_code":"6340002","prefecture":"NARA KEN","city":"KASHIHARA SHI","town":"HIGASHITAKEDACHO","perfecture_jp":"奈良県","jp_add_1":"橿原市","jp_add_2":"東竹田町"},"6340835":{"post_code":"6340835","prefecture":"NARA KEN","city":"KASHIHARA SHI","town":"HIGASHIBOJOCHO","perfecture_jp":"奈良県","jp_add_1":"橿原市","jp_add_2":"東坊城町"},"6340847":{"post_code":"6340847","prefecture":"NARA KEN","city":"KASHIHARA SHI","town":"HIDAKACHO","perfecture_jp":"奈良県","jp_add_1":"橿原市","jp_add_2":"飯高町"},"6340034":{"post_code":"6340034","prefecture":"NARA KEN","city":"KASHIHARA SHI","town":"HIDACHO","perfecture_jp":"奈良県","jp_add_1":"橿原市","jp_add_2":"飛騨町"},"6340076":{"post_code":"6340076","prefecture":"NARA KEN","city":"KASHIHARA SHI","town":"HYOBUCHO","perfecture_jp":"奈良県","jp_add_1":"橿原市","jp_add_2":"兵部町"},"6340828":{"post_code":"6340828","prefecture":"NARA KEN","city":"KASHIHARA SHI","town":"FURUKAWACHO","perfecture_jp":"奈良県","jp_add_1":"橿原市","jp_add_2":"古川町"},"6340026":{"post_code":"6340026","prefecture":"NARA KEN","city":"KASHIHARA SHI","town":"BESSHIYOCHO","perfecture_jp":"奈良県","jp_add_1":"橿原市","jp_add_2":"別所町"},"6340028":{"post_code":"6340028","prefecture":"NARA KEN","city":"KASHIHARA SHI","town":"HOKKEIJICHO","perfecture_jp":"奈良県","jp_add_1":"橿原市","jp_add_2":"法花寺町"},"6340837":{"post_code":"6340837","prefecture":"NARA KEN","city":"KASHIHARA SHI","town":"MAGARIKAWACHO","perfecture_jp":"奈良県","jp_add_1":"橿原市","jp_add_2":"曲川町"},"6340064":{"post_code":"6340064","prefecture":"NARA KEN","city":"KASHIHARA SHI","town":"MISECHO","perfecture_jp":"奈良県","jp_add_1":"橿原市","jp_add_2":"見瀬町"},"6340022":{"post_code":"6340022","prefecture":"NARA KEN","city":"KASHIHARA SHI","town":"MINAMIURACHO","perfecture_jp":"奈良県","jp_add_1":"橿原市","jp_add_2":"南浦町"},"6340052":{"post_code":"6340052","prefecture":"NARA KEN","city":"KASHIHARA SHI","town":"MINAMIMYOHOJICHO","perfecture_jp":"奈良県","jp_add_1":"橿原市","jp_add_2":"南妙法寺町"},"6340077":{"post_code":"6340077","prefecture":"NARA KEN","city":"KASHIHARA SHI","town":"MINAMIYAGICHO","perfecture_jp":"奈良県","jp_add_1":"橿原市","jp_add_2":"南八木町"},"6340024":{"post_code":"6340024","prefecture":"NARA KEN","city":"KASHIHARA SHI","town":"MINAMIYAMACHO","perfecture_jp":"奈良県","jp_add_1":"橿原市","jp_add_2":"南山町"},"6340078":{"post_code":"6340078","prefecture":"NARA KEN","city":"KASHIHARA SHI","town":"YAGICHO","perfecture_jp":"奈良県","jp_add_1":"橿原市","jp_add_2":"八木町"},"6340071":{"post_code":"6340071","prefecture":"NARA KEN","city":"KASHIHARA SHI","town":"YAMANOBOCHO","perfecture_jp":"奈良県","jp_add_1":"橿原市","jp_add_2":"山之坊町"},"6340814":{"post_code":"6340814","prefecture":"NARA KEN","city":"KASHIHARA SHI","town":"YAMAMOTOCHO","perfecture_jp":"奈良県","jp_add_1":"橿原市","jp_add_2":"山本町"},"6340829":{"post_code":"6340829","prefecture":"NARA KEN","city":"KASHIHARA SHI","town":"YOSHIDACHO","perfecture_jp":"奈良県","jp_add_1":"橿原市","jp_add_2":"吉田町"},"6340041":{"post_code":"6340041","prefecture":"NARA KEN","city":"KASHIHARA SHI","town":"WADACHO","perfecture_jp":"奈良県","jp_add_1":"橿原市","jp_add_2":"和田町"},"6340100":{"post_code":"6340100","prefecture":"NARA KEN","city":"TAKAICHI GUN ASUKA MURA","town":"IKANIKEISAIGANAIBAAI","perfecture_jp":"奈良県","jp_add_1":"高市郡明日香村","jp_add_2":""},"6340103":{"post_code":"6340103","prefecture":"NARA KEN","city":"TAKAICHI GUN ASUKA MURA","town":"ASUKA","perfecture_jp":"奈良県","jp_add_1":"高市郡明日香村","jp_add_2":"飛鳥"},"6340134":{"post_code":"6340134","prefecture":"NARA KEN","city":"TAKAICHI GUN ASUKA MURA","town":"ABEYAMA","perfecture_jp":"奈良県","jp_add_1":"高市郡明日香村","jp_add_2":"阿部山"},"6340108":{"post_code":"6340108","prefecture":"NARA KEN","city":"TAKAICHI GUN ASUKA MURA","town":"IKATSUCHI","perfecture_jp":"奈良県","jp_add_1":"高市郡明日香村","jp_add_2":"雷"},"6340123":{"post_code":"6340123","prefecture":"NARA KEN","city":"TAKAICHI GUN ASUKA MURA","town":"INABUCHI","perfecture_jp":"奈良県","jp_add_1":"高市郡明日香村","jp_add_2":"稲渕"},"6340121":{"post_code":"6340121","prefecture":"NARA KEN","city":"TAKAICHI GUN ASUKA MURA","town":"IWAIDO","perfecture_jp":"奈良県","jp_add_1":"高市郡明日香村","jp_add_2":"祝戸"},"6340116":{"post_code":"6340116","prefecture":"NARA KEN","city":"TAKAICHI GUN ASUKA MURA","town":"OSO","perfecture_jp":"奈良県","jp_add_1":"高市郡明日香村","jp_add_2":"尾曽"},"6340133":{"post_code":"6340133","prefecture":"NARA KEN","city":"TAKAICHI GUN ASUKA MURA","town":"ONEDA","perfecture_jp":"奈良県","jp_add_1":"高市郡明日香村","jp_add_2":"大根田"},"6340111":{"post_code":"6340111","prefecture":"NARA KEN","city":"TAKAICHI GUN ASUKA MURA","town":"OKA","perfecture_jp":"奈良県","jp_add_1":"高市郡明日香村","jp_add_2":"岡"},"6340102":{"post_code":"6340102","prefecture":"NARA KEN","city":"TAKAICHI GUN ASUKA MURA","town":"OKUYAMA","perfecture_jp":"奈良県","jp_add_1":"高市郡明日香村","jp_add_2":"奥山"},"6340106":{"post_code":"6340106","prefecture":"NARA KEN","city":"TAKAICHI GUN ASUKA MURA","town":"OHARA","perfecture_jp":"奈良県","jp_add_1":"高市郡明日香村","jp_add_2":"小原"},"6340115":{"post_code":"6340115","prefecture":"NARA KEN","city":"TAKAICHI GUN ASUKA MURA","town":"KAMURA","perfecture_jp":"奈良県","jp_add_1":"高市郡明日香村","jp_add_2":"上"},"6340124":{"post_code":"6340124","prefecture":"NARA KEN","city":"TAKAICHI GUN ASUKA MURA","town":"KAYAMORI","perfecture_jp":"奈良県","jp_add_1":"高市郡明日香村","jp_add_2":"栢森"},"6340141":{"post_code":"6340141","prefecture":"NARA KEN","city":"TAKAICHI GUN ASUKA MURA","town":"KAWAHARA","perfecture_jp":"奈良県","jp_add_1":"高市郡明日香村","jp_add_2":"川原"},"6340132":{"post_code":"6340132","prefecture":"NARA KEN","city":"TAKAICHI GUN ASUKA MURA","town":"KURIHARA","perfecture_jp":"奈良県","jp_add_1":"高市郡明日香村","jp_add_2":"栗原"},"6340138":{"post_code":"6340138","prefecture":"NARA KEN","city":"TAKAICHI GUN ASUKA MURA","town":"KOSHI","perfecture_jp":"奈良県","jp_add_1":"高市郡明日香村","jp_add_2":"越"},"6340101":{"post_code":"6340101","prefecture":"NARA KEN","city":"TAKAICHI GUN ASUKA MURA","town":"KOYAMA","perfecture_jp":"奈良県","jp_add_1":"高市郡明日香村","jp_add_2":"小山"},"6340122":{"post_code":"6340122","prefecture":"NARA KEN","city":"TAKAICHI GUN ASUKA MURA","town":"SAKADA","perfecture_jp":"奈良県","jp_add_1":"高市郡明日香村","jp_add_2":"阪田"},"6340136":{"post_code":"6340136","prefecture":"NARA KEN","city":"TAKAICHI GUN ASUKA MURA","town":"JINOKUBO","perfecture_jp":"奈良県","jp_add_1":"高市郡明日香村","jp_add_2":"地ノ窪"},"6340112":{"post_code":"6340112","prefecture":"NARA KEN","city":"TAKAICHI GUN ASUKA MURA","town":"SHIMASHO","perfecture_jp":"奈良県","jp_add_1":"高市郡明日香村","jp_add_2":"島庄"},"6340113":{"post_code":"6340113","prefecture":"NARA KEN","city":"TAKAICHI GUN ASUKA MURA","town":"JOGO","perfecture_jp":"奈良県","jp_add_1":"高市郡明日香村","jp_add_2":"上居"},"6340142":{"post_code":"6340142","prefecture":"NARA KEN","city":"TAKAICHI GUN ASUKA MURA","town":"TACHIBANA","perfecture_jp":"奈良県","jp_add_1":"高市郡明日香村","jp_add_2":"橘"},"6340143":{"post_code":"6340143","prefecture":"NARA KEN","city":"TAKAICHI GUN ASUKA MURA","town":"TACHIBE","perfecture_jp":"奈良県","jp_add_1":"高市郡明日香村","jp_add_2":"立部"},"6340107":{"post_code":"6340107","prefecture":"NARA KEN","city":"TAKAICHI GUN ASUKA MURA","town":"TOYORA","perfecture_jp":"奈良県","jp_add_1":"高市郡明日香村","jp_add_2":"豊浦"},"6340125":{"post_code":"6340125","prefecture":"NARA KEN","city":"TAKAICHI GUN ASUKA MURA","town":"NYUDANI","perfecture_jp":"奈良県","jp_add_1":"高市郡明日香村","jp_add_2":"入谷"},"6340145":{"post_code":"6340145","prefecture":"NARA KEN","city":"TAKAICHI GUN ASUKA MURA","town":"NOGUCHI","perfecture_jp":"奈良県","jp_add_1":"高市郡明日香村","jp_add_2":"野口"},"6340118":{"post_code":"6340118","prefecture":"NARA KEN","city":"TAKAICHI GUN ASUKA MURA","town":"HATA","perfecture_jp":"奈良県","jp_add_1":"高市郡明日香村","jp_add_2":"畑"},"6340105":{"post_code":"6340105","prefecture":"NARA KEN","city":"TAKAICHI GUN ASUKA MURA","town":"HIGASHIYAMA","perfecture_jp":"奈良県","jp_add_1":"高市郡明日香村","jp_add_2":"東山"},"6340135":{"post_code":"6340135","prefecture":"NARA KEN","city":"TAKAICHI GUN ASUKA MURA","town":"HINOKUMA","perfecture_jp":"奈良県","jp_add_1":"高市郡明日香村","jp_add_2":"檜前"},"6340144":{"post_code":"6340144","prefecture":"NARA KEN","city":"TAKAICHI GUN ASUKA MURA","town":"HIRATA","perfecture_jp":"奈良県","jp_add_1":"高市郡明日香村","jp_add_2":"平田"},"6340117":{"post_code":"6340117","prefecture":"NARA KEN","city":"TAKAICHI GUN ASUKA MURA","town":"FUYUNO","perfecture_jp":"奈良県","jp_add_1":"高市郡明日香村","jp_add_2":"冬野"},"6340114":{"post_code":"6340114","prefecture":"NARA KEN","city":"TAKAICHI GUN ASUKA MURA","town":"HOSOKAWA","perfecture_jp":"奈良県","jp_add_1":"高市郡明日香村","jp_add_2":"細川"},"6340137":{"post_code":"6340137","prefecture":"NARA KEN","city":"TAKAICHI GUN ASUKA MURA","town":"MAYUMI","perfecture_jp":"奈良県","jp_add_1":"高市郡明日香村","jp_add_2":"真弓"},"6340131":{"post_code":"6340131","prefecture":"NARA KEN","city":"TAKAICHI GUN ASUKA MURA","town":"MISONO","perfecture_jp":"奈良県","jp_add_1":"高市郡明日香村","jp_add_2":"御園"},"6340104":{"post_code":"6340104","prefecture":"NARA KEN","city":"TAKAICHI GUN ASUKA MURA","town":"YATSURI","perfecture_jp":"奈良県","jp_add_1":"高市郡明日香村","jp_add_2":"八釣"}}