{"6370000":{"post_code":"6370000","prefecture":"NARA KEN","city":"GOJO SHI","town":"IKANIKEISAIGANAIBAAI","perfecture_jp":"奈良県","jp_add_1":"五條市","jp_add_2":""},"6370074":{"post_code":"6370074","prefecture":"NARA KEN","city":"GOJO SHI","town":"AITANICHO","perfecture_jp":"奈良県","jp_add_1":"五條市","jp_add_2":"相谷町"},"6370013":{"post_code":"6370013","prefecture":"NARA KEN","city":"GOJO SHI","town":"IDECHO","perfecture_jp":"奈良県","jp_add_1":"五條市","jp_add_2":"居伝町"},"6370072":{"post_code":"6370072","prefecture":"NARA KEN","city":"GOJO SHI","town":"INUKAICHO","perfecture_jp":"奈良県","jp_add_1":"五條市","jp_add_2":"犬飼町"},"6370004":{"post_code":"6370004","prefecture":"NARA KEN","city":"GOJO SHI","town":"IMAICHO","perfecture_jp":"奈良県","jp_add_1":"五條市","jp_add_2":"今井"},"6370003":{"post_code":"6370003","prefecture":"NARA KEN","city":"GOJO SHI","town":"UNOCHO","perfecture_jp":"奈良県","jp_add_1":"五條市","jp_add_2":"宇野町"},"6370077":{"post_code":"6370077","prefecture":"NARA KEN","city":"GOJO SHI","town":"OZAWACHO","perfecture_jp":"奈良県","jp_add_1":"五條市","jp_add_2":"大沢町"},"6370060":{"post_code":"6370060","prefecture":"NARA KEN","city":"GOJO SHI","town":"OTSUCHO","perfecture_jp":"奈良県","jp_add_1":"五條市","jp_add_2":"大津町"},"6370405":{"post_code":"6370405","prefecture":"NARA KEN","city":"GOJO SHI","town":"OTOCHO UI","perfecture_jp":"奈良県","jp_add_1":"五條市","jp_add_2":"大塔町宇井"},"6370416":{"post_code":"6370416","prefecture":"NARA KEN","city":"GOJO SHI","town":"OTOCHO KODAI","perfecture_jp":"奈良県","jp_add_1":"五條市","jp_add_2":"大塔町小代"},"6370417":{"post_code":"6370417","prefecture":"NARA KEN","city":"GOJO SHI","town":"OTOCHO SAKAMOTO","perfecture_jp":"奈良県","jp_add_1":"五條市","jp_add_2":"大塔町阪本"},"6370414":{"post_code":"6370414","prefecture":"NARA KEN","city":"GOJO SHI","town":"OTOCHO SARUTANI","perfecture_jp":"奈良県","jp_add_1":"五條市","jp_add_2":"大塔町猿谷"},"6370401":{"post_code":"6370401","prefecture":"NARA KEN","city":"GOJO SHI","town":"OTOCHO SHINOHARA","perfecture_jp":"奈良県","jp_add_1":"五條市","jp_add_2":"大塔町篠原"},"6370406":{"post_code":"6370406","prefecture":"NARA KEN","city":"GOJO SHI","town":"OTOCHO SHIMIZU","perfecture_jp":"奈良県","jp_add_1":"五條市","jp_add_2":"大塔町清水"},"6370419":{"post_code":"6370419","prefecture":"NARA KEN","city":"GOJO SHI","town":"OTOCHO SUDARE","perfecture_jp":"奈良県","jp_add_1":"五條市","jp_add_2":"大塔町簾"},"6370402":{"post_code":"6370402","prefecture":"NARA KEN","city":"GOJO SHI","town":"OTOCHO SOTANI","perfecture_jp":"奈良県","jp_add_1":"五條市","jp_add_2":"大塔町惣谷"},"6370408":{"post_code":"6370408","prefecture":"NARA KEN","city":"GOJO SHI","town":"OTOCHO TSUJIDO","perfecture_jp":"奈良県","jp_add_1":"五條市","jp_add_2":"大塔町辻堂"},"6370411":{"post_code":"6370411","prefecture":"NARA KEN","city":"GOJO SHI","town":"OTOCHO DOHIRA","perfecture_jp":"奈良県","jp_add_1":"五條市","jp_add_2":"大塔町堂平"},"6370407":{"post_code":"6370407","prefecture":"NARA KEN","city":"GOJO SHI","town":"OTOCHO TOJIKIMI","perfecture_jp":"奈良県","jp_add_1":"五條市","jp_add_2":"大塔町閉君"},"6370409":{"post_code":"6370409","prefecture":"NARA KEN","city":"GOJO SHI","town":"OTOCHO TONONO","perfecture_jp":"奈良県","jp_add_1":"五條市","jp_add_2":"大塔町殿野"},"6370403":{"post_code":"6370403","prefecture":"NARA KEN","city":"GOJO SHI","town":"OTOCHO NAKAIHOJI","perfecture_jp":"奈良県","jp_add_1":"五條市","jp_add_2":"大塔町中井傍示"},"6370415":{"post_code":"6370415","prefecture":"NARA KEN","city":"GOJO SHI","town":"OTOCHO NAKABARA","perfecture_jp":"奈良県","jp_add_1":"五條市","jp_add_2":"大塔町中原"},"6370404":{"post_code":"6370404","prefecture":"NARA KEN","city":"GOJO SHI","town":"OTOCHO NAKAMINE","perfecture_jp":"奈良県","jp_add_1":"五條市","jp_add_2":"大塔町中峯"},"6370413":{"post_code":"6370413","prefecture":"NARA KEN","city":"GOJO SHI","town":"OTOCHO HIKITSUCHI","perfecture_jp":"奈良県","jp_add_1":"五條市","jp_add_2":"大塔町引土"},"6370412":{"post_code":"6370412","prefecture":"NARA KEN","city":"GOJO SHI","town":"OTOCHO HIYOSO","perfecture_jp":"奈良県","jp_add_1":"五條市","jp_add_2":"大塔町飛養曽"},"6370015":{"post_code":"6370015","prefecture":"NARA KEN","city":"GOJO SHI","town":"ONOSHINDENCHO","perfecture_jp":"奈良県","jp_add_1":"五條市","jp_add_2":"大野新田町"},"6370063":{"post_code":"6370063","prefecture":"NARA KEN","city":"GOJO SHI","town":"ONOCHO","perfecture_jp":"奈良県","jp_add_1":"五條市","jp_add_2":"大野町"},"6370066":{"post_code":"6370066","prefecture":"NARA KEN","city":"GOJO SHI","town":"OFUKACHO","perfecture_jp":"奈良県","jp_add_1":"五條市","jp_add_2":"大深町"},"6370006":{"post_code":"6370006","prefecture":"NARA KEN","city":"GOJO SHI","town":"OKAGUCHI","perfecture_jp":"奈良県","jp_add_1":"五條市","jp_add_2":"岡口"},"6370092":{"post_code":"6370092","prefecture":"NARA KEN","city":"GOJO SHI","town":"OKACHO","perfecture_jp":"奈良県","jp_add_1":"五條市","jp_add_2":"岡町"},"6370053":{"post_code":"6370053","prefecture":"NARA KEN","city":"GOJO SHI","town":"OBUSUCHO","perfecture_jp":"奈良県","jp_add_1":"五條市","jp_add_2":"生子町"},"6370019":{"post_code":"6370019","prefecture":"NARA KEN","city":"GOJO SHI","town":"OWACHO","perfecture_jp":"奈良県","jp_add_1":"五條市","jp_add_2":"小和町"},"6370054":{"post_code":"6370054","prefecture":"NARA KEN","city":"GOJO SHI","town":"KASHITSUJICHO","perfecture_jp":"奈良県","jp_add_1":"五條市","jp_add_2":"樫辻町"},"6370084":{"post_code":"6370084","prefecture":"NARA KEN","city":"GOJO SHI","town":"KAMANOKUBOCHO","perfecture_jp":"奈良県","jp_add_1":"五條市","jp_add_2":"釜窪町"},"6370081":{"post_code":"6370081","prefecture":"NARA KEN","city":"GOJO SHI","town":"KAMINOCHO","perfecture_jp":"奈良県","jp_add_1":"五條市","jp_add_2":"上之町"},"6370091":{"post_code":"6370091","prefecture":"NARA KEN","city":"GOJO SHI","town":"KITAYAMACHO","perfecture_jp":"奈良県","jp_add_1":"五條市","jp_add_2":"北山町"},"6370076":{"post_code":"6370076","prefecture":"NARA KEN","city":"GOJO SHI","town":"KINOHARACHO","perfecture_jp":"奈良県","jp_add_1":"五條市","jp_add_2":"木ノ原町"},"6370018":{"post_code":"6370018","prefecture":"NARA KEN","city":"GOJO SHI","town":"KURUNOCHO","perfecture_jp":"奈良県","jp_add_1":"五條市","jp_add_2":"久留野町"},"6370025":{"post_code":"6370025","prefecture":"NARA KEN","city":"GOJO SHI","town":"KURUMADANICHO","perfecture_jp":"奈良県","jp_add_1":"五條市","jp_add_2":"車谷町"},"6370062":{"post_code":"6370062","prefecture":"NARA KEN","city":"GOJO SHI","town":"KUROKOMACHO","perfecture_jp":"奈良県","jp_add_1":"五條市","jp_add_2":"黒駒町"},"6370073":{"post_code":"6370073","prefecture":"NARA KEN","city":"GOJO SHI","town":"KOZUKECHO","perfecture_jp":"奈良県","jp_add_1":"五條市","jp_add_2":"上野町"},"6370031":{"post_code":"6370031","prefecture":"NARA KEN","city":"GOJO SHI","town":"KOJIMACHO","perfecture_jp":"奈良県","jp_add_1":"五條市","jp_add_2":"小島町"},"6370042":{"post_code":"6370042","prefecture":"NARA KEN","city":"GOJO SHI","town":"GOJO","perfecture_jp":"奈良県","jp_add_1":"五條市","jp_add_2":"五條"},"6370012":{"post_code":"6370012","prefecture":"NARA KEN","city":"GOJO SHI","town":"KOYAMACHO","perfecture_jp":"奈良県","jp_add_1":"五條市","jp_add_2":"小山町"},"6370065":{"post_code":"6370065","prefecture":"NARA KEN","city":"GOJO SHI","town":"SAKAAIBESHINDENCHO","perfecture_jp":"奈良県","jp_add_1":"五條市","jp_add_2":"阪合部新田町"},"6370002":{"post_code":"6370002","prefecture":"NARA KEN","city":"GOJO SHI","town":"SANZAICHO","perfecture_jp":"奈良県","jp_add_1":"五條市","jp_add_2":"三在町"},"6370027":{"post_code":"6370027","prefecture":"NARA KEN","city":"GOJO SHI","town":"SHIMANOCHO","perfecture_jp":"奈良県","jp_add_1":"五條市","jp_add_2":"島野町"},"6370083":{"post_code":"6370083","prefecture":"NARA KEN","city":"GOJO SHI","town":"SHIMONOCHO","perfecture_jp":"奈良県","jp_add_1":"五條市","jp_add_2":"下之町"},"6370043":{"post_code":"6370043","prefecture":"NARA KEN","city":"GOJO SHI","town":"SHIMMACHI","perfecture_jp":"奈良県","jp_add_1":"五條市","jp_add_2":"新町"},"6370005":{"post_code":"6370005","prefecture":"NARA KEN","city":"GOJO SHI","town":"SUE","perfecture_jp":"奈良県","jp_add_1":"五條市","jp_add_2":"須恵"},"6370014":{"post_code":"6370014","prefecture":"NARA KEN","city":"GOJO SHI","town":"SUGAWACHO","perfecture_jp":"奈良県","jp_add_1":"五條市","jp_add_2":"住川町"},"6370024":{"post_code":"6370024","prefecture":"NARA KEN","city":"GOJO SHI","town":"TAKICHO","perfecture_jp":"奈良県","jp_add_1":"五條市","jp_add_2":"滝町"},"6370067":{"post_code":"6370067","prefecture":"NARA KEN","city":"GOJO SHI","town":"TADONOCHO","perfecture_jp":"奈良県","jp_add_1":"五條市","jp_add_2":"田殿町"},"6370052":{"post_code":"6370052","prefecture":"NARA KEN","city":"GOJO SHI","town":"TAMBARACHO","perfecture_jp":"奈良県","jp_add_1":"五條市","jp_add_2":"丹原町"},"6370016":{"post_code":"6370016","prefecture":"NARA KEN","city":"GOJO SHI","town":"CHIKAUCHICHO","perfecture_jp":"奈良県","jp_add_1":"五條市","jp_add_2":"近内町"},"6370011":{"post_code":"6370011","prefecture":"NARA KEN","city":"GOJO SHI","town":"DEYASHIKICHO","perfecture_jp":"奈良県","jp_add_1":"五條市","jp_add_2":"出屋敷町"},"6370093":{"post_code":"6370093","prefecture":"NARA KEN","city":"GOJO SHI","town":"DENEN","perfecture_jp":"奈良県","jp_add_1":"五條市","jp_add_2":"田園"},"6370061":{"post_code":"6370061","prefecture":"NARA KEN","city":"GOJO SHI","town":"NAKACHO","perfecture_jp":"奈良県","jp_add_1":"五條市","jp_add_2":"中町"},"6370082":{"post_code":"6370082","prefecture":"NARA KEN","city":"GOJO SHI","town":"NAKANOCHO","perfecture_jp":"奈良県","jp_add_1":"五條市","jp_add_2":"中之町"},"6370078":{"post_code":"6370078","prefecture":"NARA KEN","city":"GOJO SHI","town":"NATSUMIDAI","perfecture_jp":"奈良県","jp_add_1":"五條市","jp_add_2":"なつみ台"},"6370020":{"post_code":"6370020","prefecture":"NARA KEN","city":"GOJO SHI","town":"NISHIADACHO","perfecture_jp":"奈良県","jp_add_1":"五條市","jp_add_2":"西阿田町"},"6370001":{"post_code":"6370001","prefecture":"NARA KEN","city":"GOJO SHI","town":"NISHIKAWACHICHO","perfecture_jp":"奈良県","jp_add_1":"五條市","jp_add_2":"西河内町"},"6370017":{"post_code":"6370017","prefecture":"NARA KEN","city":"GOJO SHI","town":"NISHIKURUNOCHO","perfecture_jp":"奈良県","jp_add_1":"五條市","jp_add_2":"西久留野町"},"6370117":{"post_code":"6370117","prefecture":"NARA KEN","city":"GOJO SHI","town":"NISHIYOSHINOCHO ANO","perfecture_jp":"奈良県","jp_add_1":"五條市","jp_add_2":"西吉野町賀名生"},"6370221":{"post_code":"6370221","prefecture":"NARA KEN","city":"GOJO SHI","town":"NISHIYOSHINOCHO EITANI","perfecture_jp":"奈良県","jp_add_1":"五條市","jp_add_2":"西吉野町永谷"},"6370111":{"post_code":"6370111","prefecture":"NARA KEN","city":"GOJO SHI","town":"NISHIYOSHINOCHO EZURU","perfecture_jp":"奈良県","jp_add_1":"五條市","jp_add_2":"西吉野町江出"},"6370112":{"post_code":"6370112","prefecture":"NARA KEN","city":"GOJO SHI","town":"NISHIYOSHINOCHO OINO","perfecture_jp":"奈良県","jp_add_1":"五條市","jp_add_2":"西吉野町老野"},"6370234":{"post_code":"6370234","prefecture":"NARA KEN","city":"GOJO SHI","town":"NISHIYOSHINOCHO OMINE","perfecture_jp":"奈良県","jp_add_1":"五條市","jp_add_2":"西吉野町大峯"},"6370101":{"post_code":"6370101","prefecture":"NARA KEN","city":"GOJO SHI","town":"NISHIYOSHINOCHO OBIKAWA","perfecture_jp":"奈良県","jp_add_1":"五條市","jp_add_2":"西吉野町大日川"},"6370239":{"post_code":"6370239","prefecture":"NARA KEN","city":"GOJO SHI","town":"NISHIYOSHINOCHO ONJI","perfecture_jp":"奈良県","jp_add_1":"五條市","jp_add_2":"西吉野町陰地"},"6370231":{"post_code":"6370231","prefecture":"NARA KEN","city":"GOJO SHI","town":"NISHIYOSHINOCHO KAWAGISHI","perfecture_jp":"奈良県","jp_add_1":"五條市","jp_add_2":"西吉野町川岸"},"6370225":{"post_code":"6370225","prefecture":"NARA KEN","city":"GOJO SHI","town":"NISHIYOSHINOCHO KAWAMATA","perfecture_jp":"奈良県","jp_add_1":"五條市","jp_add_2":"西吉野町川股"},"6370102":{"post_code":"6370102","prefecture":"NARA KEN","city":"GOJO SHI","town":"NISHIYOSHINOCHO KUROBUCHI","perfecture_jp":"奈良県","jp_add_1":"五條市","jp_add_2":"西吉野町黒淵"},"6370113":{"post_code":"6370113","prefecture":"NARA KEN","city":"GOJO SHI","town":"NISHIYOSHINOCHO KONO","perfecture_jp":"奈良県","jp_add_1":"五條市","jp_add_2":"西吉野町神野"},"6370236":{"post_code":"6370236","prefecture":"NARA KEN","city":"GOJO SHI","town":"NISHIYOSHINOCHO SAKAMAKI","perfecture_jp":"奈良県","jp_add_1":"五條市","jp_add_2":"西吉野町阪巻"},"6370230":{"post_code":"6370230","prefecture":"NARA KEN","city":"GOJO SHI","town":"NISHIYOSHINOCHO JODO","perfecture_jp":"奈良県","jp_add_1":"五條市","jp_add_2":"西吉野町城戸"},"6370227":{"post_code":"6370227","prefecture":"NARA KEN","city":"GOJO SHI","town":"NISHIYOSHINOCHO SEI","perfecture_jp":"奈良県","jp_add_1":"五條市","jp_add_2":"西吉野町勢井"},"6370114":{"post_code":"6370114","prefecture":"NARA KEN","city":"GOJO SHI","town":"NISHIYOSHINOCHO TAKI","perfecture_jp":"奈良県","jp_add_1":"五條市","jp_add_2":"西吉野町滝"},"6370222":{"post_code":"6370222","prefecture":"NARA KEN","city":"GOJO SHI","town":"NISHIYOSHINOCHO TATEKAWADO","perfecture_jp":"奈良県","jp_add_1":"五條市","jp_add_2":"西吉野町立川渡"},"6370232":{"post_code":"6370232","prefecture":"NARA KEN","city":"GOJO SHI","town":"NISHIYOSHINOCHO TSUGOSHI","perfecture_jp":"奈良県","jp_add_1":"五條市","jp_add_2":"西吉野町津越"},"6370224":{"post_code":"6370224","prefecture":"NARA KEN","city":"GOJO SHI","town":"NISHIYOSHINOCHO NASUHARA","perfecture_jp":"奈良県","jp_add_1":"五條市","jp_add_2":"西吉野町茄子原"},"6370238":{"post_code":"6370238","prefecture":"NARA KEN","city":"GOJO SHI","town":"NISHIYOSHINOCHO NISHINO","perfecture_jp":"奈良県","jp_add_1":"五條市","jp_add_2":"西吉野町西野"},"6370226":{"post_code":"6370226","prefecture":"NARA KEN","city":"GOJO SHI","town":"NISHIYOSHINOCHO NISHIHIURA","perfecture_jp":"奈良県","jp_add_1":"五條市","jp_add_2":"西吉野町西日裏"},"6370233":{"post_code":"6370233","prefecture":"NARA KEN","city":"GOJO SHI","town":"NISHIYOSHINOCHO HIKAWASE","perfecture_jp":"奈良県","jp_add_1":"五條市","jp_add_2":"西吉野町桧川迫"},"6370235":{"post_code":"6370235","prefecture":"NARA KEN","city":"GOJO SHI","town":"NISHIYOSHINOCHO HIRAO","perfecture_jp":"奈良県","jp_add_1":"五條市","jp_add_2":"西吉野町平雄"},"6370115":{"post_code":"6370115","prefecture":"NARA KEN","city":"GOJO SHI","town":"NISHIYOSHINOCHO HOKUSOGI","perfecture_jp":"奈良県","jp_add_1":"五條市","jp_add_2":"西吉野町北曽木"},"6370103":{"post_code":"6370103","prefecture":"NARA KEN","city":"GOJO SHI","town":"NISHIYOSHINOCHO MUKAIANO","perfecture_jp":"奈良県","jp_add_1":"五條市","jp_add_2":"西吉野町向加名生"},"6370237":{"post_code":"6370237","prefecture":"NARA KEN","city":"GOJO SHI","town":"NISHIYOSHINOCHO MUNEGAWANO","perfecture_jp":"奈良県","jp_add_1":"五條市","jp_add_2":"西吉野町宗川野"},"6370223":{"post_code":"6370223","prefecture":"NARA KEN","city":"GOJO SHI","town":"NISHIYOSHINOCHO MOTODANI","perfecture_jp":"奈良県","jp_add_1":"五條市","jp_add_2":"西吉野町本谷"},"6370104":{"post_code":"6370104","prefecture":"NARA KEN","city":"GOJO SHI","town":"NISHIYOSHINOCHO YANASE","perfecture_jp":"奈良県","jp_add_1":"五條市","jp_add_2":"西吉野町屋那瀬"},"6370105":{"post_code":"6370105","prefecture":"NARA KEN","city":"GOJO SHI","town":"NISHIYOSHINOCHO YUSHIO","perfecture_jp":"奈良県","jp_add_1":"五條市","jp_add_2":"西吉野町湯塩"},"6370116":{"post_code":"6370116","prefecture":"NARA KEN","city":"GOJO SHI","town":"NISHIYOSHINOCHO WADA","perfecture_jp":"奈良県","jp_add_1":"五條市","jp_add_2":"西吉野町和田"},"6370034":{"post_code":"6370034","prefecture":"NARA KEN","city":"GOJO SHI","town":"NOHARACHO","perfecture_jp":"奈良県","jp_add_1":"五條市","jp_add_2":"野原町"},"6370037":{"post_code":"6370037","prefecture":"NARA KEN","city":"GOJO SHI","town":"NOHARANAKA","perfecture_jp":"奈良県","jp_add_1":"五條市","jp_add_2":"野原中"},"6370036":{"post_code":"6370036","prefecture":"NARA KEN","city":"GOJO SHI","town":"NOHARANISHI","perfecture_jp":"奈良県","jp_add_1":"五條市","jp_add_2":"野原西"},"6370038":{"post_code":"6370038","prefecture":"NARA KEN","city":"GOJO SHI","town":"NOHARAHIGASHI","perfecture_jp":"奈良県","jp_add_1":"五條市","jp_add_2":"野原東"},"6370075":{"post_code":"6370075","prefecture":"NARA KEN","city":"GOJO SHI","town":"HATAKEDACHO","perfecture_jp":"奈良県","jp_add_1":"五條市","jp_add_2":"畑田町"},"6370022":{"post_code":"6370022","prefecture":"NARA KEN","city":"GOJO SHI","town":"HATTACHO","perfecture_jp":"奈良県","jp_add_1":"五條市","jp_add_2":"八田町"},"6370028":{"post_code":"6370028","prefecture":"NARA KEN","city":"GOJO SHI","town":"HARACHO","perfecture_jp":"奈良県","jp_add_1":"五條市","jp_add_2":"原町"},"6370068":{"post_code":"6370068","prefecture":"NARA KEN","city":"GOJO SHI","town":"HIUCHICHO","perfecture_jp":"奈良県","jp_add_1":"五條市","jp_add_2":"火打町"},"6370021":{"post_code":"6370021","prefecture":"NARA KEN","city":"GOJO SHI","town":"HIGASHIADACHO","perfecture_jp":"奈良県","jp_add_1":"五條市","jp_add_2":"東阿田町"},"6370069":{"post_code":"6370069","prefecture":"NARA KEN","city":"GOJO SHI","town":"HYONOCHO","perfecture_jp":"奈良県","jp_add_1":"五條市","jp_add_2":"表野町"},"6370071":{"post_code":"6370071","prefecture":"NARA KEN","city":"GOJO SHI","town":"FUTAMI","perfecture_jp":"奈良県","jp_add_1":"五條市","jp_add_2":"二見"},"6370041":{"post_code":"6370041","prefecture":"NARA KEN","city":"GOJO SHI","town":"HOMMACHI","perfecture_jp":"奈良県","jp_add_1":"五條市","jp_add_2":"本町"},"6370033":{"post_code":"6370033","prefecture":"NARA KEN","city":"GOJO SHI","town":"MAKICHO","perfecture_jp":"奈良県","jp_add_1":"五條市","jp_add_2":"牧町"},"6370023":{"post_code":"6370023","prefecture":"NARA KEN","city":"GOJO SHI","town":"MINAMIADACHO","perfecture_jp":"奈良県","jp_add_1":"五條市","jp_add_2":"南阿田町"},"6370051":{"post_code":"6370051","prefecture":"NARA KEN","city":"GOJO SHI","town":"MIYAMACHO","perfecture_jp":"奈良県","jp_add_1":"五條市","jp_add_2":"御山町"},"6370032":{"post_code":"6370032","prefecture":"NARA KEN","city":"GOJO SHI","town":"MUTSUKURACHO","perfecture_jp":"奈良県","jp_add_1":"五條市","jp_add_2":"六倉町"},"6370064":{"post_code":"6370064","prefecture":"NARA KEN","city":"GOJO SHI","town":"YAMAKAGECHO","perfecture_jp":"奈良県","jp_add_1":"五條市","jp_add_2":"山陰町"},"6370029":{"post_code":"6370029","prefecture":"NARA KEN","city":"GOJO SHI","town":"YAMADACHO","perfecture_jp":"奈良県","jp_add_1":"五條市","jp_add_2":"山田町"},"6370026":{"post_code":"6370026","prefecture":"NARA KEN","city":"GOJO SHI","town":"YUTANIICHIZUKACHO","perfecture_jp":"奈良県","jp_add_1":"五條市","jp_add_2":"湯谷市塚町"},"6370035":{"post_code":"6370035","prefecture":"NARA KEN","city":"GOJO SHI","town":"RYOANJICHO","perfecture_jp":"奈良県","jp_add_1":"五條市","jp_add_2":"霊安寺町"},"6370421":{"post_code":"6370421","prefecture":"NARA KEN","city":"YOSHINO GUN NOSEGAWA MURA","town":"IMAI","perfecture_jp":"奈良県","jp_add_1":"吉野郡野迫川村","jp_add_2":"今井"},"6370425":{"post_code":"6370425","prefecture":"NARA KEN","city":"YOSHINO GUN NOSEGAWA MURA","town":"KAMI","perfecture_jp":"奈良県","jp_add_1":"吉野郡野迫川村","jp_add_2":"上"},"6370424":{"post_code":"6370424","prefecture":"NARA KEN","city":"YOSHINO GUN NOSEGAWA MURA","town":"NAKA","perfecture_jp":"奈良県","jp_add_1":"吉野郡野迫川村","jp_add_2":"中"},"6370422":{"post_code":"6370422","prefecture":"NARA KEN","city":"YOSHINO GUN NOSEGAWA MURA","town":"HIRAKAWA","perfecture_jp":"奈良県","jp_add_1":"吉野郡野迫川村","jp_add_2":"平川"},"6370423":{"post_code":"6370423","prefecture":"NARA KEN","city":"YOSHINO GUN NOSEGAWA MURA","town":"HOSOHARA","perfecture_jp":"奈良県","jp_add_1":"吉野郡野迫川村","jp_add_2":"柞原"},"6371500":{"post_code":"6371500","prefecture":"NARA KEN","city":"YOSHINO GUN TOTSUKAWA MURA","town":"IKANIKEISAIGANAIBAAI","perfecture_jp":"奈良県","jp_add_1":"吉野郡十津川村","jp_add_2":""},"6371102":{"post_code":"6371102","prefecture":"NARA KEN","city":"YOSHINO GUN TOTSUKAWA MURA","town":"ASAHI","perfecture_jp":"奈良県","jp_add_1":"吉野郡十津川村","jp_add_2":"旭"},"6371215":{"post_code":"6371215","prefecture":"NARA KEN","city":"YOSHINO GUN TOTSUKAWA MURA","town":"IKEANA","perfecture_jp":"奈良県","jp_add_1":"吉野郡十津川村","jp_add_2":"池穴"},"6371664":{"post_code":"6371664","prefecture":"NARA KEN","city":"YOSHINO GUN TOTSUKAWA MURA","town":"IMANISHI","perfecture_jp":"奈良県","jp_add_1":"吉野郡十津川村","jp_add_2":"今西"},"6371224":{"post_code":"6371224","prefecture":"NARA KEN","city":"YOSHINO GUN TOTSUKAWA MURA","town":"IMOZE","perfecture_jp":"奈良県","jp_add_1":"吉野郡十津川村","jp_add_2":"五百瀬"},"6371103":{"post_code":"6371103","prefecture":"NARA KEN","city":"YOSHINO GUN TOTSUKAWA MURA","town":"UENOJI","perfecture_jp":"奈良県","jp_add_1":"吉野郡十津川村","jp_add_2":"上野地"},"6371107":{"post_code":"6371107","prefecture":"NARA KEN","city":"YOSHINO GUN TOTSUKAWA MURA","town":"UGUHARA","perfecture_jp":"奈良県","jp_add_1":"吉野郡十津川村","jp_add_2":"宇宮原"},"6371221":{"post_code":"6371221","prefecture":"NARA KEN","city":"YOSHINO GUN TOTSUKAWA MURA","town":"UCHINO","perfecture_jp":"奈良県","jp_add_1":"吉野郡十津川村","jp_add_2":"内野"},"6371331":{"post_code":"6371331","prefecture":"NARA KEN","city":"YOSHINO GUN TOTSUKAWA MURA","town":"ONO","perfecture_jp":"奈良県","jp_add_1":"吉野郡十津川村","jp_add_2":"大野"},"6371441":{"post_code":"6371441","prefecture":"NARA KEN","city":"YOSHINO GUN TOTSUKAWA MURA","town":"OGAWA","perfecture_jp":"奈良県","jp_add_1":"吉野郡十津川村","jp_add_2":"小川"},"6371333":{"post_code":"6371333","prefecture":"NARA KEN","city":"YOSHINO GUN TOTSUKAWA MURA","town":"OHARA","perfecture_jp":"奈良県","jp_add_1":"吉野郡十津川村","jp_add_2":"小原"},"6371443":{"post_code":"6371443","prefecture":"NARA KEN","city":"YOSHINO GUN TOTSUKAWA MURA","town":"ORITACHI","perfecture_jp":"奈良県","jp_add_1":"吉野郡十津川村","jp_add_2":"折立"},"6371446":{"post_code":"6371446","prefecture":"NARA KEN","city":"YOSHINO GUN TOTSUKAWA MURA","town":"KASHIWARA","perfecture_jp":"奈良県","jp_add_1":"吉野郡十津川村","jp_add_2":"樫原"},"6371217":{"post_code":"6371217","prefecture":"NARA KEN","city":"YOSHINO GUN TOTSUKAWA MURA","town":"KAZEYA","perfecture_jp":"奈良県","jp_add_1":"吉野郡十津川村","jp_add_2":"風屋"},"6371559":{"post_code":"6371559","prefecture":"NARA KEN","city":"YOSHINO GUN TOTSUKAWA MURA","town":"KAMIYUKAWA","perfecture_jp":"奈良県","jp_add_1":"吉野郡十津川村","jp_add_2":"上湯川"},"6371216":{"post_code":"6371216","prefecture":"NARA KEN","city":"YOSHINO GUN TOTSUKAWA MURA","town":"KAWATSU","perfecture_jp":"奈良県","jp_add_1":"吉野郡十津川村","jp_add_2":"川津"},"6371556":{"post_code":"6371556","prefecture":"NARA KEN","city":"YOSHINO GUN TOTSUKAWA MURA","town":"KUWAHATA","perfecture_jp":"奈良県","jp_add_1":"吉野郡十津川村","jp_add_2":"桑畑"},"6371336":{"post_code":"6371336","prefecture":"NARA KEN","city":"YOSHINO GUN TOTSUKAWA MURA","town":"KOI","perfecture_jp":"奈良県","jp_add_1":"吉野郡十津川村","jp_add_2":"小井"},"6371667":{"post_code":"6371667","prefecture":"NARA KEN","city":"YOSHINO GUN TOTSUKAWA MURA","town":"KOTSUBOSE","perfecture_jp":"奈良県","jp_add_1":"吉野郡十津川村","jp_add_2":"小坪瀬"},"6371445":{"post_code":"6371445","prefecture":"NARA KEN","city":"YOSHINO GUN TOTSUKAWA MURA","town":"KOMINOE","perfecture_jp":"奈良県","jp_add_1":"吉野郡十津川村","jp_add_2":"込之上"},"6371334":{"post_code":"6371334","prefecture":"NARA KEN","city":"YOSHINO GUN TOTSUKAWA MURA","town":"KOMORI","perfecture_jp":"奈良県","jp_add_1":"吉野郡十津川村","jp_add_2":"小森"},"6371666":{"post_code":"6371666","prefecture":"NARA KEN","city":"YOSHINO GUN TOTSUKAWA MURA","town":"KOYAMATE","perfecture_jp":"奈良県","jp_add_1":"吉野郡十津川村","jp_add_2":"小山手"},"6371555":{"post_code":"6371555","prefecture":"NARA KEN","city":"YOSHINO GUN TOTSUKAWA MURA","town":"SARUKAI","perfecture_jp":"奈良県","jp_add_1":"吉野郡十津川村","jp_add_2":"猿飼"},"6371661":{"post_code":"6371661","prefecture":"NARA KEN","city":"YOSHINO GUN TOTSUKAWA MURA","town":"SHIGESATO","perfecture_jp":"奈良県","jp_add_1":"吉野郡十津川村","jp_add_2":"重里"},"6371225":{"post_code":"6371225","prefecture":"NARA KEN","city":"YOSHINO GUN TOTSUKAWA MURA","town":"SUGISE","perfecture_jp":"奈良県","jp_add_1":"吉野郡十津川村","jp_add_2":"杉清"},"6371668":{"post_code":"6371668","prefecture":"NARA KEN","city":"YOSHINO GUN TOTSUKAWA MURA","town":"SENISHIGAWA","perfecture_jp":"奈良県","jp_add_1":"吉野郡十津川村","jp_add_2":"迫西川"},"6371442":{"post_code":"6371442","prefecture":"NARA KEN","city":"YOSHINO GUN TOTSUKAWA MURA","town":"TAKATAKI","perfecture_jp":"奈良県","jp_add_1":"吉野郡十津川村","jp_add_2":"高滝"},"6371211":{"post_code":"6371211","prefecture":"NARA KEN","city":"YOSHINO GUN TOTSUKAWA MURA","town":"TAKIGAWA","perfecture_jp":"奈良県","jp_add_1":"吉野郡十津川村","jp_add_2":"滝川"},"6371104":{"post_code":"6371104","prefecture":"NARA KEN","city":"YOSHINO GUN TOTSUKAWA MURA","town":"TAKOTSU","perfecture_jp":"奈良県","jp_add_1":"吉野郡十津川村","jp_add_2":"高津"},"6371552":{"post_code":"6371552","prefecture":"NARA KEN","city":"YOSHINO GUN TOTSUKAWA MURA","town":"TANIGAITO","perfecture_jp":"奈良県","jp_add_1":"吉野郡十津川村","jp_add_2":"谷垣内"},"6371106":{"post_code":"6371106","prefecture":"NARA KEN","city":"YOSHINO GUN TOTSUKAWA MURA","town":"TANIZE","perfecture_jp":"奈良県","jp_add_1":"吉野郡十津川村","jp_add_2":"谷瀬"},"6371663":{"post_code":"6371663","prefecture":"NARA KEN","city":"YOSHINO GUN TOTSUKAWA MURA","town":"TAMAGAITO","perfecture_jp":"奈良県","jp_add_1":"吉野郡十津川村","jp_add_2":"玉垣内"},"6371558":{"post_code":"6371558","prefecture":"NARA KEN","city":"YOSHINO GUN TOTSUKAWA MURA","town":"DETANI","perfecture_jp":"奈良県","jp_add_1":"吉野郡十津川村","jp_add_2":"出谷"},"6371212":{"post_code":"6371212","prefecture":"NARA KEN","city":"YOSHINO GUN TOTSUKAWA MURA","town":"NAIBARA","perfecture_jp":"奈良県","jp_add_1":"吉野郡十津川村","jp_add_2":"内原"},"6371662":{"post_code":"6371662","prefecture":"NARA KEN","city":"YOSHINO GUN TOTSUKAWA MURA","town":"NAGAI","perfecture_jp":"奈良県","jp_add_1":"吉野郡十津川村","jp_add_2":"永井"},"6371108":{"post_code":"6371108","prefecture":"NARA KEN","city":"YOSHINO GUN TOTSUKAWA MURA","town":"NAGATONO","perfecture_jp":"奈良県","jp_add_1":"吉野郡十津川村","jp_add_2":"長殿"},"6371551":{"post_code":"6371551","prefecture":"NARA KEN","city":"YOSHINO GUN TOTSUKAWA MURA","town":"NACHIAI","perfecture_jp":"奈良県","jp_add_1":"吉野郡十津川村","jp_add_2":"那知合"},"6371557":{"post_code":"6371557","prefecture":"NARA KEN","city":"YOSHINO GUN TOTSUKAWA MURA","town":"NANAIRO","perfecture_jp":"奈良県","jp_add_1":"吉野郡十津川村","jp_add_2":"七色"},"6371665":{"post_code":"6371665","prefecture":"NARA KEN","city":"YOSHINO GUN TOTSUKAWA MURA","town":"NISHINAKA","perfecture_jp":"奈良県","jp_add_1":"吉野郡十津川村","jp_add_2":"西中"},"6371101":{"post_code":"6371101","prefecture":"NARA KEN","city":"YOSHINO GUN TOTSUKAWA MURA","town":"NUTANOHARA","perfecture_jp":"奈良県","jp_add_1":"吉野郡十津川村","jp_add_2":"沼田原"},"6371213":{"post_code":"6371213","prefecture":"NARA KEN","city":"YOSHINO GUN TOTSUKAWA MURA","town":"NOJIRI","perfecture_jp":"奈良県","jp_add_1":"吉野郡十津川村","jp_add_2":"野尻"},"6371105":{"post_code":"6371105","prefecture":"NARA KEN","city":"YOSHINO GUN TOTSUKAWA MURA","town":"HAYASHI","perfecture_jp":"奈良県","jp_add_1":"吉野郡十津川村","jp_add_2":"林"},"6371554":{"post_code":"6371554","prefecture":"NARA KEN","city":"YOSHINO GUN TOTSUKAWA MURA","town":"HIRATANI","perfecture_jp":"奈良県","jp_add_1":"吉野郡十津川村","jp_add_2":"平谷"},"6371223":{"post_code":"6371223","prefecture":"NARA KEN","city":"YOSHINO GUN TOTSUKAWA MURA","town":"MIURA","perfecture_jp":"奈良県","jp_add_1":"吉野郡十津川村","jp_add_2":"三浦"},"6371332":{"post_code":"6371332","prefecture":"NARA KEN","city":"YOSHINO GUN TOTSUKAWA MURA","town":"MUSASHI","perfecture_jp":"奈良県","jp_add_1":"吉野郡十津川村","jp_add_2":"武蔵"},"6371214":{"post_code":"6371214","prefecture":"NARA KEN","city":"YOSHINO GUN TOTSUKAWA MURA","town":"YAMASAKI","perfecture_jp":"奈良県","jp_add_1":"吉野郡十津川村","jp_add_2":"山崎"},"6371553":{"post_code":"6371553","prefecture":"NARA KEN","city":"YOSHINO GUN TOTSUKAWA MURA","town":"YAMATE","perfecture_jp":"奈良県","jp_add_1":"吉野郡十津川村","jp_add_2":"山手"},"6371444":{"post_code":"6371444","prefecture":"NARA KEN","city":"YOSHINO GUN TOTSUKAWA MURA","town":"YAMATEDANI","perfecture_jp":"奈良県","jp_add_1":"吉野郡十津川村","jp_add_2":"山手谷"},"6371222":{"post_code":"6371222","prefecture":"NARA KEN","city":"YOSHINO GUN TOTSUKAWA MURA","town":"YAMATEN","perfecture_jp":"奈良県","jp_add_1":"吉野郡十津川村","jp_add_2":"山天"},"6371335":{"post_code":"6371335","prefecture":"NARA KEN","city":"YOSHINO GUN TOTSUKAWA MURA","town":"YUNOHARA","perfecture_jp":"奈良県","jp_add_1":"吉野郡十津川村","jp_add_2":"湯之原"}}