{"6380643":{"post_code":"6380643","prefecture":"NARA KEN","city":"GOJO SHI","town":"NISHIYOSHINOCHO AKAMATSU","perfecture_jp":"奈良県","jp_add_1":"五條市","jp_add_2":"西吉野町赤松"},"6380652":{"post_code":"6380652","prefecture":"NARA KEN","city":"GOJO SHI","town":"NISHIYOSHINOCHO AMAGASHO","perfecture_jp":"奈良県","jp_add_1":"五條市","jp_add_2":"西吉野町尼ケ生"},"6380663":{"post_code":"6380663","prefecture":"NARA KEN","city":"GOJO SHI","town":"NISHIYOSHINOCHO OKUDANI","perfecture_jp":"奈良県","jp_add_1":"五條市","jp_add_2":"西吉野町奥谷"},"6380655":{"post_code":"6380655","prefecture":"NARA KEN","city":"GOJO SHI","town":"NISHIYOSHINOCHO OBURUTA","perfecture_jp":"奈良県","jp_add_1":"五條市","jp_add_2":"西吉野町小古田"},"6380651":{"post_code":"6380651","prefecture":"NARA KEN","city":"GOJO SHI","town":"NISHIYOSHINOCHO KARATO","perfecture_jp":"奈良県","jp_add_1":"五條市","jp_add_2":"西吉野町唐戸"},"6380656":{"post_code":"6380656","prefecture":"NARA KEN","city":"GOJO SHI","town":"NISHIYOSHINOCHO SHISHIBA","perfecture_jp":"奈良県","jp_add_1":"五條市","jp_add_2":"西吉野町鹿場"},"6380653":{"post_code":"6380653","prefecture":"NARA KEN","city":"GOJO SHI","town":"NISHIYOSHINOCHO TOKAICHI","perfecture_jp":"奈良県","jp_add_1":"五條市","jp_add_2":"西吉野町十日市"},"6380661":{"post_code":"6380661","prefecture":"NARA KEN","city":"GOJO SHI","town":"NISHIYOSHINOCHO NISHIATARASHI","perfecture_jp":"奈良県","jp_add_1":"五條市","jp_add_2":"西吉野町西新子"},"6380642":{"post_code":"6380642","prefecture":"NARA KEN","city":"GOJO SHI","town":"NISHIYOSHINOCHO HIRANUMATA","perfecture_jp":"奈良県","jp_add_1":"五條市","jp_add_2":"西吉野町平沼田"},"6380654":{"post_code":"6380654","prefecture":"NARA KEN","city":"GOJO SHI","town":"NISHIYOSHINOCHO MINAMIYAMA","perfecture_jp":"奈良県","jp_add_1":"五條市","jp_add_2":"西吉野町南山"},"6380641":{"post_code":"6380641","prefecture":"NARA KEN","city":"GOJO SHI","town":"NISHIYOSHINOCHO MOMODANI","perfecture_jp":"奈良県","jp_add_1":"五條市","jp_add_2":"西吉野町百谷"},"6380657":{"post_code":"6380657","prefecture":"NARA KEN","city":"GOJO SHI","town":"NISHIYOSHINOCHO YATSUKAWA","perfecture_jp":"奈良県","jp_add_1":"五條市","jp_add_2":"西吉野町八ツ川"},"6380644":{"post_code":"6380644","prefecture":"NARA KEN","city":"GOJO SHI","town":"NISHIYOSHINOCHO YUKAWA","perfecture_jp":"奈良県","jp_add_1":"五條市","jp_add_2":"西吉野町湯川"},"6380662":{"post_code":"6380662","prefecture":"NARA KEN","city":"GOJO SHI","town":"NISHIYOSHINOCHO YONAKA","perfecture_jp":"奈良県","jp_add_1":"五條市","jp_add_2":"西吉野町夜中"},"6380000":{"post_code":"6380000","prefecture":"NARA KEN","city":"YOSHINO GUN SHIMOICHI CHO","town":"IKANIKEISAIGANAIBAAI","perfecture_jp":"奈良県","jp_add_1":"吉野郡大淀町","jp_add_2":""},"6380801":{"post_code":"6380801","prefecture":"NARA KEN","city":"YOSHINO GUN OYODO CHO","town":"ASHIHARA","perfecture_jp":"奈良県","jp_add_1":"吉野郡大淀町","jp_add_2":"芦原"},"6380841":{"post_code":"6380841","prefecture":"NARA KEN","city":"YOSHINO GUN OYODO CHO","town":"IMAKI","perfecture_jp":"奈良県","jp_add_1":"吉野郡大淀町","jp_add_2":"今木"},"6380851":{"post_code":"6380851","prefecture":"NARA KEN","city":"YOSHINO GUN OYODO CHO","town":"IWATSUBO","perfecture_jp":"奈良県","jp_add_1":"吉野郡大淀町","jp_add_2":"岩壺"},"6380842":{"post_code":"6380842","prefecture":"NARA KEN","city":"YOSHINO GUN OYODO CHO","town":"OIWA","perfecture_jp":"奈良県","jp_add_1":"吉野郡大淀町","jp_add_2":"大岩"},"6380832":{"post_code":"6380832","prefecture":"NARA KEN","city":"YOSHINO GUN OYODO CHO","town":"KUSURIMIZU","perfecture_jp":"奈良県","jp_add_1":"吉野郡大淀町","jp_add_2":"薬水"},"6380803":{"post_code":"6380803","prefecture":"NARA KEN","city":"YOSHINO GUN OYODO CHO","town":"KOSHIBE","perfecture_jp":"奈良県","jp_add_1":"吉野郡大淀町","jp_add_2":"越部"},"6380831":{"post_code":"6380831","prefecture":"NARA KEN","city":"YOSHINO GUN OYODO CHO","town":"SANATE","perfecture_jp":"奈良県","jp_add_1":"吉野郡大淀町","jp_add_2":"佐名伝"},"6380821":{"post_code":"6380821","prefecture":"NARA KEN","city":"YOSHINO GUN OYODO CHO","town":"SHIMOBUCHI","perfecture_jp":"奈良県","jp_add_1":"吉野郡大淀町","jp_add_2":"下渕"},"6380811":{"post_code":"6380811","prefecture":"NARA KEN","city":"YOSHINO GUN OYODO CHO","town":"TSUCHIDA","perfecture_jp":"奈良県","jp_add_1":"吉野郡大淀町","jp_add_2":"土田"},"6380802":{"post_code":"6380802","prefecture":"NARA KEN","city":"YOSHINO GUN OYODO CHO","town":"HATAYA","perfecture_jp":"奈良県","jp_add_1":"吉野郡大淀町","jp_add_2":"畑屋"},"6380812":{"post_code":"6380812","prefecture":"NARA KEN","city":"YOSHINO GUN OYODO CHO","town":"HIGAIMOTO","perfecture_jp":"奈良県","jp_add_1":"吉野郡大淀町","jp_add_2":"桧垣本"},"6380833":{"post_code":"6380833","prefecture":"NARA KEN","city":"YOSHINO GUN OYODO CHO","town":"FUKUGAMI","perfecture_jp":"奈良県","jp_add_1":"吉野郡大淀町","jp_add_2":"福神"},"6380843":{"post_code":"6380843","prefecture":"NARA KEN","city":"YOSHINO GUN OYODO CHO","town":"HOKOTATE","perfecture_jp":"奈良県","jp_add_1":"吉野郡大淀町","jp_add_2":"鉾立"},"6380852":{"post_code":"6380852","prefecture":"NARA KEN","city":"YOSHINO GUN OYODO CHO","town":"MOCHIO","perfecture_jp":"奈良県","jp_add_1":"吉野郡大淀町","jp_add_2":"持尾"},"6380853":{"post_code":"6380853","prefecture":"NARA KEN","city":"YOSHINO GUN OYODO CHO","town":"YABASE","perfecture_jp":"奈良県","jp_add_1":"吉野郡大淀町","jp_add_2":"矢走"},"6380045":{"post_code":"6380045","prefecture":"NARA KEN","city":"YOSHINO GUN SHIMOICHI CHO","town":"ATARASUMI","perfecture_jp":"奈良県","jp_add_1":"吉野郡下市町","jp_add_2":"新住"},"6380001":{"post_code":"6380001","prefecture":"NARA KEN","city":"YOSHINO GUN SHIMOICHI CHO","town":"ACHIGA","perfecture_jp":"奈良県","jp_add_1":"吉野郡下市町","jp_add_2":"阿知賀"},"6380012":{"post_code":"6380012","prefecture":"NARA KEN","city":"YOSHINO GUN SHIMOICHI CHO","town":"IWAMORI","perfecture_jp":"奈良県","jp_add_1":"吉野郡下市町","jp_add_2":"岩森"},"6380043":{"post_code":"6380043","prefecture":"NARA KEN","city":"YOSHINO GUN SHIMOICHI CHO","town":"OMINE","perfecture_jp":"奈良県","jp_add_1":"吉野郡下市町","jp_add_2":"大峯"},"6380024":{"post_code":"6380024","prefecture":"NARA KEN","city":"YOSHINO GUN SHIMOICHI CHO","town":"KAIBARA","perfecture_jp":"奈良県","jp_add_1":"吉野郡下市町","jp_add_2":"貝原"},"6380023":{"post_code":"6380023","prefecture":"NARA KEN","city":"YOSHINO GUN SHIMOICHI CHO","town":"KUROGI","perfecture_jp":"奈良県","jp_add_1":"吉野郡下市町","jp_add_2":"黒木"},"6380014":{"post_code":"6380014","prefecture":"NARA KEN","city":"YOSHINO GUN SHIMOICHI CHO","town":"SAITANI","perfecture_jp":"奈良県","jp_add_1":"吉野郡下市町","jp_add_2":"才谷"},"6380042":{"post_code":"6380042","prefecture":"NARA KEN","city":"YOSHINO GUN SHIMOICHI CHO","town":"SAKAECHO","perfecture_jp":"奈良県","jp_add_1":"吉野郡下市町","jp_add_2":"栄町"},"6380041":{"post_code":"6380041","prefecture":"NARA KEN","city":"YOSHINO GUN SHIMOICHI CHO","town":"SHIMOICHI","perfecture_jp":"奈良県","jp_add_1":"吉野郡下市町","jp_add_2":"下市"},"6380002":{"post_code":"6380002","prefecture":"NARA KEN","city":"YOSHINO GUN SHIMOICHI CHO","town":"SHOJI","perfecture_jp":"奈良県","jp_add_1":"吉野郡下市町","jp_add_2":"小路"},"6380003":{"post_code":"6380003","prefecture":"NARA KEN","city":"YOSHINO GUN SHIMOICHI CHO","town":"ZENGI","perfecture_jp":"奈良県","jp_add_1":"吉野郡下市町","jp_add_2":"善城"},"6380013":{"post_code":"6380013","prefecture":"NARA KEN","city":"YOSHINO GUN SHIMOICHI CHO","town":"TATEISHI","perfecture_jp":"奈良県","jp_add_1":"吉野郡下市町","jp_add_2":"立石"},"6380044":{"post_code":"6380044","prefecture":"NARA KEN","city":"YOSHINO GUN SHIMOICHI CHO","town":"TANAKA","perfecture_jp":"奈良県","jp_add_1":"吉野郡下市町","jp_add_2":"田中"},"6380025":{"post_code":"6380025","prefecture":"NARA KEN","city":"YOSHINO GUN SHIMOICHI CHO","town":"TANI","perfecture_jp":"奈良県","jp_add_1":"吉野郡下市町","jp_add_2":"谷"},"6380035":{"post_code":"6380035","prefecture":"NARA KEN","city":"YOSHINO GUN SHIMOICHI CHO","town":"TOCHIHARA","perfecture_jp":"奈良県","jp_add_1":"吉野郡下市町","jp_add_2":"栃原"},"6380031":{"post_code":"6380031","prefecture":"NARA KEN","city":"YOSHINO GUN SHIMOICHI CHO","town":"TOCHIMOTO","perfecture_jp":"奈良県","jp_add_1":"吉野郡下市町","jp_add_2":"栃本"},"6380021":{"post_code":"6380021","prefecture":"NARA KEN","city":"YOSHINO GUN SHIMOICHI CHO","town":"NAGATANI","perfecture_jp":"奈良県","jp_add_1":"吉野郡下市町","jp_add_2":"長谷"},"6380033":{"post_code":"6380033","prefecture":"NARA KEN","city":"YOSHINO GUN SHIMOICHI CHO","town":"NASHIDO","perfecture_jp":"奈良県","jp_add_1":"吉野郡下市町","jp_add_2":"梨子堂"},"6380022":{"post_code":"6380022","prefecture":"NARA KEN","city":"YOSHINO GUN SHIMOICHI CHO","town":"NIU","perfecture_jp":"奈良県","jp_add_1":"吉野郡下市町","jp_add_2":"丹生"},"6380026":{"post_code":"6380026","prefecture":"NARA KEN","city":"YOSHINO GUN SHIMOICHI CHO","town":"NISHIYAMA","perfecture_jp":"奈良県","jp_add_1":"吉野郡下市町","jp_add_2":"西山"},"6380032":{"post_code":"6380032","prefecture":"NARA KEN","city":"YOSHINO GUN SHIMOICHI CHO","town":"HARADANI","perfecture_jp":"奈良県","jp_add_1":"吉野郡下市町","jp_add_2":"原谷"},"6380015":{"post_code":"6380015","prefecture":"NARA KEN","city":"YOSHINO GUN SHIMOICHI CHO","town":"HIROHASHI","perfecture_jp":"奈良県","jp_add_1":"吉野郡下市町","jp_add_2":"広橋"},"6380034":{"post_code":"6380034","prefecture":"NARA KEN","city":"YOSHINO GUN SHIMOICHI CHO","town":"HEIBARA","perfecture_jp":"奈良県","jp_add_1":"吉野郡下市町","jp_add_2":"平原"},"6380011":{"post_code":"6380011","prefecture":"NARA KEN","city":"YOSHINO GUN SHIMOICHI CHO","town":"YOMURA","perfecture_jp":"奈良県","jp_add_1":"吉野郡下市町","jp_add_2":"よ邑"},"6380200":{"post_code":"6380200","prefecture":"NARA KEN","city":"YOSHINO GUN KUROTAKI MURA","town":"IKANIKEISAIGANAIBAAI","perfecture_jp":"奈良県","jp_add_1":"吉野郡黒滝村","jp_add_2":""},"6380211":{"post_code":"6380211","prefecture":"NARA KEN","city":"YOSHINO GUN KUROTAKI MURA","town":"AKATAKI","perfecture_jp":"奈良県","jp_add_1":"吉野郡黒滝村","jp_add_2":"赤滝"},"6380241":{"post_code":"6380241","prefecture":"NARA KEN","city":"YOSHINO GUN KUROTAKI MURA","town":"AWAIDANI","perfecture_jp":"奈良県","jp_add_1":"吉野郡黒滝村","jp_add_2":"粟飯谷"},"6380231":{"post_code":"6380231","prefecture":"NARA KEN","city":"YOSHINO GUN KUROTAKI MURA","town":"KASAGI","perfecture_jp":"奈良県","jp_add_1":"吉野郡黒滝村","jp_add_2":"笠木"},"6380232":{"post_code":"6380232","prefecture":"NARA KEN","city":"YOSHINO GUN KUROTAKI MURA","town":"KATSURAHARA","perfecture_jp":"奈良県","jp_add_1":"吉野郡黒滝村","jp_add_2":"桂原"},"6380251":{"post_code":"6380251","prefecture":"NARA KEN","city":"YOSHINO GUN KUROTAKI MURA","town":"TERADO","perfecture_jp":"奈良県","jp_add_1":"吉野郡黒滝村","jp_add_2":"寺戸"},"6380243":{"post_code":"6380243","prefecture":"NARA KEN","city":"YOSHINO GUN KUROTAKI MURA","town":"DOBARA","perfecture_jp":"奈良県","jp_add_1":"吉野郡黒滝村","jp_add_2":"堂原"},"6380203":{"post_code":"6380203","prefecture":"NARA KEN","city":"YOSHINO GUN KUROTAKI MURA","town":"TORISUMI","perfecture_jp":"奈良県","jp_add_1":"吉野郡黒滝村","jp_add_2":"鳥住"},"6380221":{"post_code":"6380221","prefecture":"NARA KEN","city":"YOSHINO GUN KUROTAKI MURA","town":"NAKATO","perfecture_jp":"奈良県","jp_add_1":"吉野郡黒滝村","jp_add_2":"中戸"},"6380233":{"post_code":"6380233","prefecture":"NARA KEN","city":"YOSHINO GUN KUROTAKI MURA","town":"NAGASE","perfecture_jp":"奈良県","jp_add_1":"吉野郡黒滝村","jp_add_2":"長瀬"},"6380201":{"post_code":"6380201","prefecture":"NARA KEN","city":"YOSHINO GUN KUROTAKI MURA","town":"MAKIO","perfecture_jp":"奈良県","jp_add_1":"吉野郡黒滝村","jp_add_2":"槇尾"},"6380242":{"post_code":"6380242","prefecture":"NARA KEN","city":"YOSHINO GUN KUROTAKI MURA","town":"MIYOSHINO","perfecture_jp":"奈良県","jp_add_1":"吉野郡黒滝村","jp_add_2":"御吉野"},"6380202":{"post_code":"6380202","prefecture":"NARA KEN","city":"YOSHINO GUN KUROTAKI MURA","town":"WAKIGAWA","perfecture_jp":"奈良県","jp_add_1":"吉野郡黒滝村","jp_add_2":"脇川"},"6380300":{"post_code":"6380300","prefecture":"NARA KEN","city":"YOSHINO GUN TENKAWA MURA","town":"IKANIKEISAIGANAIBAAI","perfecture_jp":"奈良県","jp_add_1":"吉野郡天川村","jp_add_2":""},"6380552":{"post_code":"6380552","prefecture":"NARA KEN","city":"YOSHINO GUN TENKAWA MURA","town":"IOSUMI","perfecture_jp":"奈良県","jp_add_1":"吉野郡天川村","jp_add_2":"庵住"},"6380311":{"post_code":"6380311","prefecture":"NARA KEN","city":"YOSHINO GUN TENKAWA MURA","town":"OKIGANE","perfecture_jp":"奈良県","jp_add_1":"吉野郡天川村","jp_add_2":"沖金"},"6380301":{"post_code":"6380301","prefecture":"NARA KEN","city":"YOSHINO GUN TENKAWA MURA","town":"KAWAAI","perfecture_jp":"奈良県","jp_add_1":"吉野郡天川村","jp_add_2":"川合"},"6380313":{"post_code":"6380313","prefecture":"NARA KEN","city":"YOSHINO GUN TENKAWA MURA","town":"KITAKOBARA","perfecture_jp":"奈良県","jp_add_1":"吉野郡天川村","jp_add_2":"北小原"},"6380303":{"post_code":"6380303","prefecture":"NARA KEN","city":"YOSHINO GUN TENKAWA MURA","town":"KITOZUMI","perfecture_jp":"奈良県","jp_add_1":"吉野郡天川村","jp_add_2":"北角"},"6380314":{"post_code":"6380314","prefecture":"NARA KEN","city":"YOSHINO GUN TENKAWA MURA","town":"GOSHIKI","perfecture_jp":"奈良県","jp_add_1":"吉野郡天川村","jp_add_2":"五色"},"6380551":{"post_code":"6380551","prefecture":"NARA KEN","city":"YOSHINO GUN TENKAWA MURA","town":"KOMORIYAMA","perfecture_jp":"奈良県","jp_add_1":"吉野郡天川村","jp_add_2":"籠山"},"6380305":{"post_code":"6380305","prefecture":"NARA KEN","city":"YOSHINO GUN TENKAWA MURA","town":"SAWATANI","perfecture_jp":"奈良県","jp_add_1":"吉野郡天川村","jp_add_2":"沢谷"},"6380315":{"post_code":"6380315","prefecture":"NARA KEN","city":"YOSHINO GUN TENKAWA MURA","town":"SAWABARA","perfecture_jp":"奈良県","jp_add_1":"吉野郡天川村","jp_add_2":"沢原"},"6380564":{"post_code":"6380564","prefecture":"NARA KEN","city":"YOSHINO GUN TENKAWA MURA","town":"SHIODANI","perfecture_jp":"奈良県","jp_add_1":"吉野郡天川村","jp_add_2":"塩谷"},"6380563":{"post_code":"6380563","prefecture":"NARA KEN","city":"YOSHINO GUN TENKAWA MURA","town":"SHIONO","perfecture_jp":"奈良県","jp_add_1":"吉野郡天川村","jp_add_2":"塩野"},"6380562":{"post_code":"6380562","prefecture":"NARA KEN","city":"YOSHINO GUN TENKAWA MURA","town":"TAKIO","perfecture_jp":"奈良県","jp_add_1":"吉野郡天川村","jp_add_2":"滝尾"},"6380541":{"post_code":"6380541","prefecture":"NARA KEN","city":"YOSHINO GUN TENKAWA MURA","town":"TSUZURAO","perfecture_jp":"奈良県","jp_add_1":"吉野郡天川村","jp_add_2":"九尾"},"6380321":{"post_code":"6380321","prefecture":"NARA KEN","city":"YOSHINO GUN TENKAWA MURA","town":"TSUBONOCHI","perfecture_jp":"奈良県","jp_add_1":"吉野郡天川村","jp_add_2":"坪内"},"6380542":{"post_code":"6380542","prefecture":"NARA KEN","city":"YOSHINO GUN TENKAWA MURA","town":"TOCHIO","perfecture_jp":"奈良県","jp_add_1":"吉野郡天川村","jp_add_2":"栃尾"},"6380431":{"post_code":"6380431","prefecture":"NARA KEN","city":"YOSHINO GUN TENKAWA MURA","town":"DOROGAWA","perfecture_jp":"奈良県","jp_add_1":"吉野郡天川村","jp_add_2":"洞川"},"6380302":{"post_code":"6380302","prefecture":"NARA KEN","city":"YOSHINO GUN TENKAWA MURA","town":"NAKAGOSHI","perfecture_jp":"奈良県","jp_add_1":"吉野郡天川村","jp_add_2":"中越"},"6380312":{"post_code":"6380312","prefecture":"NARA KEN","city":"YOSHINO GUN TENKAWA MURA","town":"NAKATANI","perfecture_jp":"奈良県","jp_add_1":"吉野郡天川村","jp_add_2":"中谷"},"6380561":{"post_code":"6380561","prefecture":"NARA KEN","city":"YOSHINO GUN TENKAWA MURA","town":"HIROSE","perfecture_jp":"奈良県","jp_add_1":"吉野郡天川村","jp_add_2":"広瀬"},"6380322":{"post_code":"6380322","prefecture":"NARA KEN","city":"YOSHINO GUN TENKAWA MURA","town":"MINAMIHIURA","perfecture_jp":"奈良県","jp_add_1":"吉野郡天川村","jp_add_2":"南日裏"},"6380304":{"post_code":"6380304","prefecture":"NARA KEN","city":"YOSHINO GUN TENKAWA MURA","town":"MINOZUMI","perfecture_jp":"奈良県","jp_add_1":"吉野郡天川村","jp_add_2":"南角"},"6380553":{"post_code":"6380553","prefecture":"NARA KEN","city":"YOSHINO GUN TENKAWA MURA","town":"YAMANISHI","perfecture_jp":"奈良県","jp_add_1":"吉野郡天川村","jp_add_2":"山西"},"6380543":{"post_code":"6380543","prefecture":"NARA KEN","city":"YOSHINO GUN TENKAWA MURA","town":"WADA","perfecture_jp":"奈良県","jp_add_1":"吉野郡天川村","jp_add_2":"和田"}}