{"6400000":{"post_code":"6400000","prefecture":"WAKAYAMA KEN","city":"WAKAYAMA SHI","town":"IKANIKEISAIGANAIBAAI","perfecture_jp":"和歌山県","jp_add_1":"和歌山市","jp_add_2":""},"6408273":{"post_code":"6408273","prefecture":"WAKAYAMA KEN","city":"WAKAYAMA SHI","town":"AOICHO","perfecture_jp":"和歌山県","jp_add_1":"和歌山市","jp_add_2":"葵町"},"6408322":{"post_code":"6408322","prefecture":"WAKAYAMA KEN","city":"WAKAYAMA SHI","town":"AKIZUKI","perfecture_jp":"和歌山県","jp_add_1":"和歌山市","jp_add_2":"秋月"},"6400344":{"post_code":"6400344","prefecture":"WAKAYAMA KEN","city":"WAKAYAMA SHI","town":"ASAHI","perfecture_jp":"和歌山県","jp_add_1":"和歌山市","jp_add_2":"朝日"},"6408134":{"post_code":"6408134","prefecture":"WAKAYAMA KEN","city":"WAKAYAMA SHI","town":"ASHIBECHO","perfecture_jp":"和歌山県","jp_add_1":"和歌山市","jp_add_2":"芦辺丁"},"6408238":{"post_code":"6408238","prefecture":"WAKAYAMA KEN","city":"WAKAYAMA SHI","town":"AMIYAMACHI","perfecture_jp":"和歌山県","jp_add_1":"和歌山市","jp_add_2":"網屋町"},"6408316":{"post_code":"6408316","prefecture":"WAKAYAMA KEN","city":"WAKAYAMA SHI","town":"ARIE","perfecture_jp":"和歌山県","jp_add_1":"和歌山市","jp_add_2":"有家"},"6408248":{"post_code":"6408248","prefecture":"WAKAYAMA KEN","city":"WAKAYAMA SHI","town":"ARIDAYAMACHI","perfecture_jp":"和歌山県","jp_add_1":"和歌山市","jp_add_2":"有田屋町"},"6408246":{"post_code":"6408246","prefecture":"WAKAYAMA KEN","city":"WAKAYAMA SHI","town":"ARIDAYAMACHI NISHINOCHO","perfecture_jp":"和歌山県","jp_add_1":"和歌山市","jp_add_2":"有田屋町西ノ丁"},"6408245":{"post_code":"6408245","prefecture":"WAKAYAMA KEN","city":"WAKAYAMA SHI","town":"ARIDAYAMACHI MINAMINOCHO","perfecture_jp":"和歌山県","jp_add_1":"和歌山市","jp_add_2":"有田屋町南ノ丁"},"6408390":{"post_code":"6408390","prefecture":"WAKAYAMA KEN","city":"WAKAYAMA SHI","town":"ARIMOTO","perfecture_jp":"和歌山県","jp_add_1":"和歌山市","jp_add_2":"有本"},"6408351":{"post_code":"6408351","prefecture":"WAKAYAMA KEN","city":"WAKAYAMA SHI","town":"AROCHI","perfecture_jp":"和歌山県","jp_add_1":"和歌山市","jp_add_2":"新内"},"6408462":{"post_code":"6408462","prefecture":"WAKAYAMA KEN","city":"WAKAYAMA SHI","town":"AWA","perfecture_jp":"和歌山県","jp_add_1":"和歌山市","jp_add_2":"粟"},"6408201":{"post_code":"6408201","prefecture":"WAKAYAMA KEN","city":"WAKAYAMA SHI","town":"ISHIBASHICHO","perfecture_jp":"和歌山県","jp_add_1":"和歌山市","jp_add_2":"石橋丁"},"6400114":{"post_code":"6400114","prefecture":"WAKAYAMA KEN","city":"WAKAYAMA SHI","town":"ISONORA","perfecture_jp":"和歌山県","jp_add_1":"和歌山市","jp_add_2":"磯の浦"},"6408044":{"post_code":"6408044","prefecture":"WAKAYAMA KEN","city":"WAKAYAMA SHI","town":"ITAYAMACHI","perfecture_jp":"和歌山県","jp_add_1":"和歌山市","jp_add_2":"板屋町"},"6400361":{"post_code":"6400361","prefecture":"WAKAYAMA KEN","city":"WAKAYAMA SHI","town":"IDAKISO","perfecture_jp":"和歌山県","jp_add_1":"和歌山市","jp_add_2":"伊太祈曽"},"6408464":{"post_code":"6408464","prefecture":"WAKAYAMA KEN","city":"WAKAYAMA SHI","town":"ICHISHOJI","perfecture_jp":"和歌山県","jp_add_1":"和歌山市","jp_add_2":"市小路"},"6408146":{"post_code":"6408146","prefecture":"WAKAYAMA KEN","city":"WAKAYAMA SHI","town":"ICHIBANCHO","perfecture_jp":"和歌山県","jp_add_1":"和歌山市","jp_add_2":"一番丁"},"6408076":{"post_code":"6408076","prefecture":"WAKAYAMA KEN","city":"WAKAYAMA SHI","town":"ITSUSUJIME","perfecture_jp":"和歌山県","jp_add_1":"和歌山市","jp_add_2":"五筋目"},"6400352":{"post_code":"6400352","prefecture":"WAKAYAMA KEN","city":"WAKAYAMA SHI","town":"IDO","perfecture_jp":"和歌山県","jp_add_1":"和歌山市","jp_add_2":"井戸"},"6408301":{"post_code":"6408301","prefecture":"WAKAYAMA KEN","city":"WAKAYAMA SHI","town":"IWASE","perfecture_jp":"和歌山県","jp_add_1":"和歌山市","jp_add_2":"岩橋"},"6408302":{"post_code":"6408302","prefecture":"WAKAYAMA KEN","city":"WAKAYAMA SHI","town":"IMBE","perfecture_jp":"和歌山県","jp_add_1":"和歌山市","jp_add_2":"井辺"},"6408242":{"post_code":"6408242","prefecture":"WAKAYAMA KEN","city":"WAKAYAMA SHI","town":"UENOMACHI","perfecture_jp":"和歌山県","jp_add_1":"和歌山市","jp_add_2":"上野町"},"6408298":{"post_code":"6408298","prefecture":"WAKAYAMA KEN","city":"WAKAYAMA SHI","town":"UEMATSUCHO","perfecture_jp":"和歌山県","jp_add_1":"和歌山市","jp_add_2":"植松丁"},"6408078":{"post_code":"6408078","prefecture":"WAKAYAMA KEN","city":"WAKAYAMA SHI","town":"UJI TEPPOBA","perfecture_jp":"和歌山県","jp_add_1":"和歌山市","jp_add_2":"宇治鉄砲場"},"6408039":{"post_code":"6408039","prefecture":"WAKAYAMA KEN","city":"WAKAYAMA SHI","town":"UJI FUKUROMACHI","perfecture_jp":"和歌山県","jp_add_1":"和歌山市","jp_add_2":"宇治袋町"},"6408072":{"post_code":"6408072","prefecture":"WAKAYAMA KEN","city":"WAKAYAMA SHI","town":"UJI YAURA","perfecture_jp":"和歌山県","jp_add_1":"和歌山市","jp_add_2":"宇治家裏"},"6408071":{"post_code":"6408071","prefecture":"WAKAYAMA KEN","city":"WAKAYAMA SHI","town":"UJI YABUSHITA","perfecture_jp":"和歌山県","jp_add_1":"和歌山市","jp_add_2":"宇治薮下"},"6408452":{"post_code":"6408452","prefecture":"WAKAYAMA KEN","city":"WAKAYAMA SHI","town":"UMEHARA","perfecture_jp":"和歌山県","jp_add_1":"和歌山市","jp_add_2":"梅原"},"6408239":{"post_code":"6408239","prefecture":"WAKAYAMA KEN","city":"WAKAYAMA SHI","town":"UWAMACHI","perfecture_jp":"和歌山県","jp_add_1":"和歌山市","jp_add_2":"上町"},"6408335":{"post_code":"6408335","prefecture":"WAKAYAMA KEN","city":"WAKAYAMA SHI","town":"ESASHIMACHI","perfecture_jp":"和歌山県","jp_add_1":"和歌山市","jp_add_2":"餌差町"},"6400343":{"post_code":"6400343","prefecture":"WAKAYAMA KEN","city":"WAKAYAMA SHI","town":"ENA","perfecture_jp":"和歌山県","jp_add_1":"和歌山市","jp_add_2":"江南"},"6408434":{"post_code":"6408434","prefecture":"WAKAYAMA KEN","city":"WAKAYAMA SHI","town":"ENOKIHARA","perfecture_jp":"和歌山県","jp_add_1":"和歌山市","jp_add_2":"榎原"},"6400101":{"post_code":"6400101","prefecture":"WAKAYAMA KEN","city":"WAKAYAMA SHI","town":"OKAWA","perfecture_jp":"和歌山県","jp_add_1":"和歌山市","jp_add_2":"大川"},"6400316":{"post_code":"6400316","prefecture":"WAKAYAMA KEN","city":"WAKAYAMA SHI","town":"OKAWACHI","perfecture_jp":"和歌山県","jp_add_1":"和歌山市","jp_add_2":"大河内"},"6408472":{"post_code":"6408472","prefecture":"WAKAYAMA KEN","city":"WAKAYAMA SHI","town":"OTANI","perfecture_jp":"和歌山県","jp_add_1":"和歌山市","jp_add_2":"大谷"},"6408323":{"post_code":"6408323","prefecture":"WAKAYAMA KEN","city":"WAKAYAMA SHI","town":"ODA","perfecture_jp":"和歌山県","jp_add_1":"和歌山市","jp_add_2":"太田"},"6408361":{"post_code":"6408361","prefecture":"WAKAYAMA KEN","city":"WAKAYAMA SHI","town":"OKAEMPUKUIN HIGASHINOCHO","perfecture_jp":"和歌山県","jp_add_1":"和歌山市","jp_add_2":"岡円福院東ノ丁"},"6408364":{"post_code":"6408364","prefecture":"WAKAYAMA KEN","city":"WAKAYAMA SHI","town":"OKAEMPUKUIN NISHINOCHO","perfecture_jp":"和歌山県","jp_add_1":"和歌山市","jp_add_2":"岡円福院西ノ丁"},"6408362":{"post_code":"6408362","prefecture":"WAKAYAMA KEN","city":"WAKAYAMA SHI","town":"OKAORIYASHOJI","perfecture_jp":"和歌山県","jp_add_1":"和歌山市","jp_add_2":"岡織屋小路"},"6408365":{"post_code":"6408365","prefecture":"WAKAYAMA KEN","city":"WAKAYAMA SHI","town":"OKAKITANOCHO","perfecture_jp":"和歌山県","jp_add_1":"和歌山市","jp_add_2":"岡北ノ丁"},"6408363":{"post_code":"6408363","prefecture":"WAKAYAMA KEN","city":"WAKAYAMA SHI","town":"OKAMINAMINOCHO","perfecture_jp":"和歌山県","jp_add_1":"和歌山市","jp_add_2":"岡南ノ丁"},"6408145":{"post_code":"6408145","prefecture":"WAKAYAMA KEN","city":"WAKAYAMA SHI","town":"OKAYAMACHO","perfecture_jp":"和歌山県","jp_add_1":"和歌山市","jp_add_2":"岡山丁"},"6400362":{"post_code":"6400362","prefecture":"WAKAYAMA KEN","city":"WAKAYAMA SHI","town":"OKUZUSA","perfecture_jp":"和歌山県","jp_add_1":"和歌山市","jp_add_2":"奥須佐"},"6408271":{"post_code":"6408271","prefecture":"WAKAYAMA KEN","city":"WAKAYAMA SHI","town":"OZAKICHO","perfecture_jp":"和歌山県","jp_add_1":"和歌山市","jp_add_2":"尾崎丁"},"6408230":{"post_code":"6408230","prefecture":"WAKAYAMA KEN","city":"WAKAYAMA SHI","town":"ONOSHIBACHO","perfecture_jp":"和歌山県","jp_add_1":"和歌山市","jp_add_2":"男野芝丁"},"6408224":{"post_code":"6408224","prefecture":"WAKAYAMA KEN","city":"WAKAYAMA SHI","town":"ONOMACHI","perfecture_jp":"和歌山県","jp_add_1":"和歌山市","jp_add_2":"小野町"},"6408124":{"post_code":"6408124","prefecture":"WAKAYAMA KEN","city":"WAKAYAMA SHI","town":"OMATSUCHO","perfecture_jp":"和歌山県","jp_add_1":"和歌山市","jp_add_2":"雄松町"},"6408073":{"post_code":"6408073","prefecture":"WAKAYAMA KEN","city":"WAKAYAMA SHI","town":"KAKEZUKURICHO","perfecture_jp":"和歌山県","jp_add_1":"和歌山市","jp_add_2":"嘉家作丁"},"6408293":{"post_code":"6408293","prefecture":"WAKAYAMA KEN","city":"WAKAYAMA SHI","town":"KAGOMACHI","perfecture_jp":"和歌山県","jp_add_1":"和歌山市","jp_add_2":"駕町"},"6408139":{"post_code":"6408139","prefecture":"WAKAYAMA KEN","city":"WAKAYAMA SHI","town":"KATAOKACHO","perfecture_jp":"和歌山県","jp_add_1":"和歌山市","jp_add_2":"片岡町"},"6400103":{"post_code":"6400103","prefecture":"WAKAYAMA KEN","city":"WAKAYAMA SHI","town":"KADA","perfecture_jp":"和歌山県","jp_add_1":"和歌山市","jp_add_2":"加太"},"6408243":{"post_code":"6408243","prefecture":"WAKAYAMA KEN","city":"WAKAYAMA SHI","town":"KACHIMACHI","perfecture_jp":"和歌山県","jp_add_1":"和歌山市","jp_add_2":"徒町"},"6408391":{"post_code":"6408391","prefecture":"WAKAYAMA KEN","city":"WAKAYAMA SHI","town":"KANO","perfecture_jp":"和歌山県","jp_add_1":"和歌山市","jp_add_2":"加納"},"6408288":{"post_code":"6408288","prefecture":"WAKAYAMA KEN","city":"WAKAYAMA SHI","town":"KANOMACHI","perfecture_jp":"和歌山県","jp_add_1":"和歌山市","jp_add_2":"加納町"},"6408411":{"post_code":"6408411","prefecture":"WAKAYAMA KEN","city":"WAKAYAMA SHI","town":"KANDORI","perfecture_jp":"和歌山県","jp_add_1":"和歌山市","jp_add_2":"梶取"},"6408253":{"post_code":"6408253","prefecture":"WAKAYAMA KEN","city":"WAKAYAMA SHI","town":"KITAAIOICHO","perfecture_jp":"和歌山県","jp_add_1":"和歌山市","jp_add_2":"北相生丁"},"6408299":{"post_code":"6408299","prefecture":"WAKAYAMA KEN","city":"WAKAYAMA SHI","town":"KITAUSHIMACHI","perfecture_jp":"和歌山県","jp_add_1":"和歌山市","jp_add_2":"北牛町"},"6408020":{"post_code":"6408020","prefecture":"WAKAYAMA KEN","city":"WAKAYAMA SHI","town":"KITAOKEYAMACHI","perfecture_jp":"和歌山県","jp_add_1":"和歌山市","jp_add_2":"北桶屋町"},"6408103":{"post_code":"6408103","prefecture":"WAKAYAMA KEN","city":"WAKAYAMA SHI","town":"KITAKYUKAMACHI","perfecture_jp":"和歌山県","jp_add_1":"和歌山市","jp_add_2":"北休賀町"},"6408062":{"post_code":"6408062","prefecture":"WAKAYAMA KEN","city":"WAKAYAMA SHI","town":"KITAKUGINUKICHO","perfecture_jp":"和歌山県","jp_add_1":"和歌山市","jp_add_2":"北釘貫丁"},"6408118":{"post_code":"6408118","prefecture":"WAKAYAMA KEN","city":"WAKAYAMA SHI","town":"KITASAIKUMACHI","perfecture_jp":"和歌山県","jp_add_1":"和歌山市","jp_add_2":"北細工町"},"6408233":{"post_code":"6408233","prefecture":"WAKAYAMA KEN","city":"WAKAYAMA SHI","town":"KITASAKANOECHO","perfecture_jp":"和歌山県","jp_add_1":"和歌山市","jp_add_2":"北坂ノ上丁"},"6408002":{"post_code":"6408002","prefecture":"WAKAYAMA KEN","city":"WAKAYAMA SHI","town":"KITASHIN","perfecture_jp":"和歌山県","jp_add_1":"和歌山市","jp_add_2":"北新"},"6408017":{"post_code":"6408017","prefecture":"WAKAYAMA KEN","city":"WAKAYAMA SHI","town":"KITASHIN EBISUNOCHO","perfecture_jp":"和歌山県","jp_add_1":"和歌山市","jp_add_2":"北新戎ノ丁"},"6408015":{"post_code":"6408015","prefecture":"WAKAYAMA KEN","city":"WAKAYAMA SHI","town":"KITASHIN OKEYAMACHI","perfecture_jp":"和歌山県","jp_add_1":"和歌山市","jp_add_2":"北新桶屋町"},"6408012":{"post_code":"6408012","prefecture":"WAKAYAMA KEN","city":"WAKAYAMA SHI","town":"KITASHIN KANAYACHO","perfecture_jp":"和歌山県","jp_add_1":"和歌山市","jp_add_2":"北新金屋丁"},"6408001":{"post_code":"6408001","prefecture":"WAKAYAMA KEN","city":"WAKAYAMA SHI","town":"KITASHIN SHICHIKENCHO","perfecture_jp":"和歌山県","jp_add_1":"和歌山市","jp_add_2":"北新七軒丁"},"6408016":{"post_code":"6408016","prefecture":"WAKAYAMA KEN","city":"WAKAYAMA SHI","town":"KITASHIN NAKANOCHO","perfecture_jp":"和歌山県","jp_add_1":"和歌山市","jp_add_2":"北新中ノ丁"},"6408003":{"post_code":"6408003","prefecture":"WAKAYAMA KEN","city":"WAKAYAMA SHI","town":"KITASHIN BAKUROMACHI","perfecture_jp":"和歌山県","jp_add_1":"和歌山市","jp_add_2":"北新博労町"},"6408011":{"post_code":"6408011","prefecture":"WAKAYAMA KEN","city":"WAKAYAMA SHI","town":"KITASHIN MOTOKANAYACHO","perfecture_jp":"和歌山県","jp_add_1":"和歌山市","jp_add_2":"北新元金屋丁"},"6408403":{"post_code":"6408403","prefecture":"WAKAYAMA KEN","city":"WAKAYAMA SHI","town":"KITAJIMA","perfecture_jp":"和歌山県","jp_add_1":"和歌山市","jp_add_2":"北島"},"6408291":{"post_code":"6408291","prefecture":"WAKAYAMA KEN","city":"WAKAYAMA SHI","town":"KITAJINGOBEECHO","perfecture_jp":"和歌山県","jp_add_1":"和歌山市","jp_add_2":"北甚五兵衛丁"},"6408252":{"post_code":"6408252","prefecture":"WAKAYAMA KEN","city":"WAKAYAMA SHI","town":"KITATANABECHO","perfecture_jp":"和歌山県","jp_add_1":"和歌山市","jp_add_2":"北田辺丁"},"6408031":{"post_code":"6408031","prefecture":"WAKAYAMA KEN","city":"WAKAYAMA SHI","town":"KITADAIKUMACHI","perfecture_jp":"和歌山県","jp_add_1":"和歌山市","jp_add_2":"北大工町"},"6408294":{"post_code":"6408294","prefecture":"WAKAYAMA KEN","city":"WAKAYAMA SHI","town":"KITACHUGEMMACHI","perfecture_jp":"和歌山県","jp_add_1":"和歌山市","jp_add_2":"北中間町"},"6408317":{"post_code":"6408317","prefecture":"WAKAYAMA KEN","city":"WAKAYAMA SHI","town":"KITADEJIMA","perfecture_jp":"和歌山県","jp_add_1":"和歌山市","jp_add_2":"北出島"},"6408296":{"post_code":"6408296","prefecture":"WAKAYAMA KEN","city":"WAKAYAMA SHI","town":"KITATOSACHO","perfecture_jp":"和歌山県","jp_add_1":"和歌山市","jp_add_2":"北土佐丁"},"6408355":{"post_code":"6408355","prefecture":"WAKAYAMA KEN","city":"WAKAYAMA SHI","town":"KITANOSHINCHI","perfecture_jp":"和歌山県","jp_add_1":"和歌山市","jp_add_2":"北ノ新地"},"6408352":{"post_code":"6408352","prefecture":"WAKAYAMA KEN","city":"WAKAYAMA SHI","town":"KITANOSHINCHI URATAMACHI","perfecture_jp":"和歌山県","jp_add_1":"和歌山市","jp_add_2":"北ノ新地裏田町"},"6408353":{"post_code":"6408353","prefecture":"WAKAYAMA KEN","city":"WAKAYAMA SHI","town":"KITANOSHINCHI ENOKICHO","perfecture_jp":"和歌山県","jp_add_1":"和歌山市","jp_add_2":"北ノ新地榎丁"},"6408356":{"post_code":"6408356","prefecture":"WAKAYAMA KEN","city":"WAKAYAMA SHI","town":"KITANOSHINCHI KAMIROKKENCHO","perfecture_jp":"和歌山県","jp_add_1":"和歌山市","jp_add_2":"北ノ新地上六軒丁"},"6408357":{"post_code":"6408357","prefecture":"WAKAYAMA KEN","city":"WAKAYAMA SHI","town":"KITANOSHINCHI NAKAROKKENCHO","perfecture_jp":"和歌山県","jp_add_1":"和歌山市","jp_add_2":"北ノ新地中六軒丁"},"6408358":{"post_code":"6408358","prefecture":"WAKAYAMA KEN","city":"WAKAYAMA SHI","town":"KITANOSHINCHI SHIMOROKKENCHO","perfecture_jp":"和歌山県","jp_add_1":"和歌山市","jp_add_2":"北ノ新地下六軒丁"},"6408359":{"post_code":"6408359","prefecture":"WAKAYAMA KEN","city":"WAKAYAMA SHI","town":"KITANOSHINCHI TAMACHI","perfecture_jp":"和歌山県","jp_add_1":"和歌山市","jp_add_2":"北ノ新地田町"},"6408354":{"post_code":"6408354","prefecture":"WAKAYAMA KEN","city":"WAKAYAMA SHI","town":"KITANOSHINCHI HIGASHINOCHO","perfecture_jp":"和歌山県","jp_add_1":"和歌山市","jp_add_2":"北ノ新地東ノ丁"},"6408350":{"post_code":"6408350","prefecture":"WAKAYAMA KEN","city":"WAKAYAMA SHI","town":"KITANOSHINCHI FUNDOCHO","perfecture_jp":"和歌山県","jp_add_1":"和歌山市","jp_add_2":"北ノ新地分銅丁"},"6408038":{"post_code":"6408038","prefecture":"WAKAYAMA KEN","city":"WAKAYAMA SHI","town":"KITAMACHI","perfecture_jp":"和歌山県","jp_add_1":"和歌山市","jp_add_2":"北町"},"6408231":{"post_code":"6408231","prefecture":"WAKAYAMA KEN","city":"WAKAYAMA SHI","town":"KITAMIGIWACHO","perfecture_jp":"和歌山県","jp_add_1":"和歌山市","jp_add_2":"北汀丁"},"6408412":{"post_code":"6408412","prefecture":"WAKAYAMA KEN","city":"WAKAYAMA SHI","town":"KITSUNEJIMA","perfecture_jp":"和歌山県","jp_add_1":"和歌山市","jp_add_2":"狐島"},"6408453":{"post_code":"6408453","prefecture":"WAKAYAMA KEN","city":"WAKAYAMA SHI","town":"KINOMOTO","perfecture_jp":"和歌山県","jp_add_1":"和歌山市","jp_add_2":"木ノ本"},"6408328":{"post_code":"6408328","prefecture":"WAKAYAMA KEN","city":"WAKAYAMA SHI","town":"KIHIROCHO","perfecture_jp":"和歌山県","jp_add_1":"和歌山市","jp_add_2":"木広町"},"6408244":{"post_code":"6408244","prefecture":"WAKAYAMA KEN","city":"WAKAYAMA SHI","town":"KYUEMONCHO","perfecture_jp":"和歌山県","jp_add_1":"和歌山市","jp_add_2":"久右衛門丁"},"6408155":{"post_code":"6408155","prefecture":"WAKAYAMA KEN","city":"WAKAYAMA SHI","town":"KYUBANCHO","perfecture_jp":"和歌山県","jp_add_1":"和歌山市","jp_add_2":"九番丁"},"6400351":{"post_code":"6400351","prefecture":"WAKAYAMA KEN","city":"WAKAYAMA SHI","town":"KIRE","perfecture_jp":"和歌山県","jp_add_1":"和歌山市","jp_add_2":"吉礼"},"6408274":{"post_code":"6408274","prefecture":"WAKAYAMA KEN","city":"WAKAYAMA SHI","town":"KINRYUJICHO","perfecture_jp":"和歌山県","jp_add_1":"和歌山市","jp_add_2":"金龍寺丁"},"6408055":{"post_code":"6408055","prefecture":"WAKAYAMA KEN","city":"WAKAYAMA SHI","town":"KUKENOCHO","perfecture_jp":"和歌山県","jp_add_1":"和歌山市","jp_add_2":"九家ノ丁"},"6408332":{"post_code":"6408332","prefecture":"WAKAYAMA KEN","city":"WAKAYAMA SHI","town":"KUSUEMONSHOJI","perfecture_jp":"和歌山県","jp_add_1":"和歌山市","jp_add_2":"楠右衛門小路"},"6408463":{"post_code":"6408463","prefecture":"WAKAYAMA KEN","city":"WAKAYAMA SHI","town":"KUSUMINAKA","perfecture_jp":"和歌山県","jp_add_1":"和歌山市","jp_add_2":"楠見中"},"6400364":{"post_code":"6400364","prefecture":"WAKAYAMA KEN","city":"WAKAYAMA SHI","town":"KUCHIZUSA","perfecture_jp":"和歌山県","jp_add_1":"和歌山市","jp_add_2":"口須佐"},"6408225":{"post_code":"6408225","prefecture":"WAKAYAMA KEN","city":"WAKAYAMA SHI","town":"KUBOCHO","perfecture_jp":"和歌山県","jp_add_1":"和歌山市","jp_add_2":"久保丁"},"6408333":{"post_code":"6408333","prefecture":"WAKAYAMA KEN","city":"WAKAYAMA SHI","town":"KURASHOJI","perfecture_jp":"和歌山県","jp_add_1":"和歌山市","jp_add_2":"蔵小路"},"6408305":{"post_code":"6408305","prefecture":"WAKAYAMA KEN","city":"WAKAYAMA SHI","town":"KURUSU","perfecture_jp":"和歌山県","jp_add_1":"和歌山市","jp_add_2":"栗栖"},"6400311":{"post_code":"6400311","prefecture":"WAKAYAMA KEN","city":"WAKAYAMA SHI","town":"KUROIWA","perfecture_jp":"和歌山県","jp_add_1":"和歌山市","jp_add_2":"黒岩"},"6408341":{"post_code":"6408341","prefecture":"WAKAYAMA KEN","city":"WAKAYAMA SHI","town":"KURODA","perfecture_jp":"和歌山県","jp_add_1":"和歌山市","jp_add_2":"黒田"},"6400312":{"post_code":"6400312","prefecture":"WAKAYAMA KEN","city":"WAKAYAMA SHI","town":"KURODANI","perfecture_jp":"和歌山県","jp_add_1":"和歌山市","jp_add_2":"黒谷"},"6400345":{"post_code":"6400345","prefecture":"WAKAYAMA KEN","city":"WAKAYAMA SHI","town":"KUWAYAMA","perfecture_jp":"和歌山県","jp_add_1":"和歌山市","jp_add_2":"桑山"},"6408337":{"post_code":"6408337","prefecture":"WAKAYAMA KEN","city":"WAKAYAMA SHI","town":"KEGAWAYACHO","perfecture_jp":"和歌山県","jp_add_1":"和歌山市","jp_add_2":"毛革屋丁"},"6408220":{"post_code":"6408220","prefecture":"WAKAYAMA KEN","city":"WAKAYAMA SHI","town":"GENOMACHI","perfecture_jp":"和歌山県","jp_add_1":"和歌山市","jp_add_2":"下町"},"6408075":{"post_code":"6408075","prefecture":"WAKAYAMA KEN","city":"WAKAYAMA SHI","town":"GENZOBABA","perfecture_jp":"和歌山県","jp_add_1":"和歌山市","jp_add_2":"源蔵馬場"},"6408314":{"post_code":"6408314","prefecture":"WAKAYAMA KEN","city":"WAKAYAMA SHI","town":"KOZAKI","perfecture_jp":"和歌山県","jp_add_1":"和歌山市","jp_add_2":"神前"},"6400323":{"post_code":"6400323","prefecture":"WAKAYAMA KEN","city":"WAKAYAMA SHI","town":"KOZETA","perfecture_jp":"和歌山県","jp_add_1":"和歌山市","jp_add_2":"小瀬田"},"6408141":{"post_code":"6408141","prefecture":"WAKAYAMA KEN","city":"WAKAYAMA SHI","town":"GOBANCHO","perfecture_jp":"和歌山県","jp_add_1":"和歌山市","jp_add_2":"五番丁"},"6408373":{"post_code":"6408373","prefecture":"WAKAYAMA KEN","city":"WAKAYAMA SHI","town":"KOBIKICHO","perfecture_jp":"和歌山県","jp_add_1":"和歌山市","jp_add_2":"木挽丁"},"6408226":{"post_code":"6408226","prefecture":"WAKAYAMA KEN","city":"WAKAYAMA SHI","town":"KOBITOMACHI","perfecture_jp":"和歌山県","jp_add_1":"和歌山市","jp_add_2":"小人町"},"6408228":{"post_code":"6408228","prefecture":"WAKAYAMA KEN","city":"WAKAYAMA SHI","town":"KOBITOMACHIMINAMINOCHO","perfecture_jp":"和歌山県","jp_add_1":"和歌山市","jp_add_2":"小人町南ノ丁"},"6400301":{"post_code":"6400301","prefecture":"WAKAYAMA KEN","city":"WAKAYAMA SHI","town":"KOMAKURA","perfecture_jp":"和歌山県","jp_add_1":"和歌山市","jp_add_2":"木枕"},"6408265":{"post_code":"6408265","prefecture":"WAKAYAMA KEN","city":"WAKAYAMA SHI","town":"KOMATSUBARA","perfecture_jp":"和歌山県","jp_add_1":"和歌山市","jp_add_2":"小松原"},"6408269":{"post_code":"6408269","prefecture":"WAKAYAMA KEN","city":"WAKAYAMA SHI","town":"KOMATSUBARADORI","perfecture_jp":"和歌山県","jp_add_1":"和歌山市","jp_add_2":"小松原通"},"6408027":{"post_code":"6408027","prefecture":"WAKAYAMA KEN","city":"WAKAYAMA SHI","town":"KOMEYAMACHI","perfecture_jp":"和歌山県","jp_add_1":"和歌山市","jp_add_2":"米屋町"},"6408435":{"post_code":"6408435","prefecture":"WAKAYAMA KEN","city":"WAKAYAMA SHI","town":"KOYA","perfecture_jp":"和歌山県","jp_add_1":"和歌山市","jp_add_2":"古屋"},"6408108":{"post_code":"6408108","prefecture":"WAKAYAMA KEN","city":"WAKAYAMA SHI","town":"SAIKAMACHI","perfecture_jp":"和歌山県","jp_add_1":"和歌山市","jp_add_2":"雑賀町"},"6408121":{"post_code":"6408121","prefecture":"WAKAYAMA KEN","city":"WAKAYAMA SHI","town":"SAIKAMICHI","perfecture_jp":"和歌山県","jp_add_1":"和歌山市","jp_add_2":"雑賀道"},"6408249":{"post_code":"6408249","prefecture":"WAKAYAMA KEN","city":"WAKAYAMA SHI","town":"SAIKAYAMACHI","perfecture_jp":"和歌山県","jp_add_1":"和歌山市","jp_add_2":"雑賀屋町"},"6408241":{"post_code":"6408241","prefecture":"WAKAYAMA KEN","city":"WAKAYAMA SHI","town":"SAIKAYAMACHIHIGASHINOCHO","perfecture_jp":"和歌山県","jp_add_1":"和歌山市","jp_add_2":"雑賀屋町東ノ丁"},"6408237":{"post_code":"6408237","prefecture":"WAKAYAMA KEN","city":"WAKAYAMA SHI","town":"ZAIMOKUCHO","perfecture_jp":"和歌山県","jp_add_1":"和歌山市","jp_add_2":"材木丁"},"6400313":{"post_code":"6400313","prefecture":"WAKAYAMA KEN","city":"WAKAYAMA SHI","town":"SAKAIBARA","perfecture_jp":"和歌山県","jp_add_1":"和歌山市","jp_add_2":"境原"},"6408441":{"post_code":"6408441","prefecture":"WAKAYAMA KEN","city":"WAKAYAMA SHI","town":"SAKAEDANI","perfecture_jp":"和歌山県","jp_add_1":"和歌山市","jp_add_2":"栄谷"},"6408053":{"post_code":"6408053","prefecture":"WAKAYAMA KEN","city":"WAKAYAMA SHI","town":"SAGINOMORI","perfecture_jp":"和歌山県","jp_add_1":"和歌山市","jp_add_2":"鷺ノ森"},"6408054":{"post_code":"6408054","prefecture":"WAKAYAMA KEN","city":"WAKAYAMA SHI","town":"SAGINOMORI KATAMACHI","perfecture_jp":"和歌山県","jp_add_1":"和歌山市","jp_add_2":"鷺ノ森片町"},"6408057":{"post_code":"6408057","prefecture":"WAKAYAMA KEN","city":"WAKAYAMA SHI","town":"SAGINOMORI SHIMMICHI","perfecture_jp":"和歌山県","jp_add_1":"和歌山市","jp_add_2":"鷺ノ森新道"},"6408052":{"post_code":"6408052","prefecture":"WAKAYAMA KEN","city":"WAKAYAMA SHI","town":"SAGINOMORI DOMAECHO","perfecture_jp":"和歌山県","jp_add_1":"和歌山市","jp_add_2":"鷺ノ森堂前丁"},"6408058":{"post_code":"6408058","prefecture":"WAKAYAMA KEN","city":"WAKAYAMA SHI","town":"SAGINOMORI NAKANOCHO","perfecture_jp":"和歌山県","jp_add_1":"和歌山市","jp_add_2":"鷺ノ森中ノ丁"},"6408051":{"post_code":"6408051","prefecture":"WAKAYAMA KEN","city":"WAKAYAMA SHI","town":"SAGINOMORI HIGASHINOCHO","perfecture_jp":"和歌山県","jp_add_1":"和歌山市","jp_add_2":"鷺ノ森東ノ丁"},"6408056":{"post_code":"6408056","prefecture":"WAKAYAMA KEN","city":"WAKAYAMA SHI","town":"SAGINOMORI NISHINOCHO","perfecture_jp":"和歌山県","jp_add_1":"和歌山市","jp_add_2":"鷺ノ森西ノ丁"},"6408047":{"post_code":"6408047","prefecture":"WAKAYAMA KEN","city":"WAKAYAMA SHI","town":"SAGINOMORI MINAMINOCHO","perfecture_jp":"和歌山県","jp_add_1":"和歌山市","jp_add_2":"鷺ノ森南ノ丁"},"6408059":{"post_code":"6408059","prefecture":"WAKAYAMA KEN","city":"WAKAYAMA SHI","town":"SAGINOMORI MYOJINCHO","perfecture_jp":"和歌山県","jp_add_1":"和歌山市","jp_add_2":"鷺ノ森明神丁"},"6408276":{"post_code":"6408276","prefecture":"WAKAYAMA KEN","city":"WAKAYAMA SHI","town":"SAKUJICHO","perfecture_jp":"和歌山県","jp_add_1":"和歌山市","jp_add_2":"作事丁"},"6400303":{"post_code":"6400303","prefecture":"WAKAYAMA KEN","city":"WAKAYAMA SHI","town":"SANDONAKA","perfecture_jp":"和歌山県","jp_add_1":"和歌山市","jp_add_2":"山東中"},"6408142":{"post_code":"6408142","prefecture":"WAKAYAMA KEN","city":"WAKAYAMA SHI","town":"SAMBANCHO","perfecture_jp":"和歌山県","jp_add_1":"和歌山市","jp_add_2":"三番丁"},"6400306":{"post_code":"6400306","prefecture":"WAKAYAMA KEN","city":"WAKAYAMA SHI","town":"SHIONOTANI","perfecture_jp":"和歌山県","jp_add_1":"和歌山市","jp_add_2":"塩ノ谷"},"6408122":{"post_code":"6408122","prefecture":"WAKAYAMA KEN","city":"WAKAYAMA SHI","town":"SHIOMICHO","perfecture_jp":"和歌山県","jp_add_1":"和歌山市","jp_add_2":"汐見町"},"6408156":{"post_code":"6408156","prefecture":"WAKAYAMA KEN","city":"WAKAYAMA SHI","town":"SHICHIBANCHO","perfecture_jp":"和歌山県","jp_add_1":"和歌山市","jp_add_2":"七番丁"},"6408267":{"post_code":"6408267","prefecture":"WAKAYAMA KEN","city":"WAKAYAMA SHI","town":"SHIBANOCHO","perfecture_jp":"和歌山県","jp_add_1":"和歌山市","jp_add_2":"芝ノ丁"},"6408125":{"post_code":"6408125","prefecture":"WAKAYAMA KEN","city":"WAKAYAMA SHI","town":"SHIMAZAKICHO","perfecture_jp":"和歌山県","jp_add_1":"和歌山市","jp_add_2":"島崎町"},"6408413":{"post_code":"6408413","prefecture":"WAKAYAMA KEN","city":"WAKAYAMA SHI","town":"SHIMABASHI HIGASHINOCHO","perfecture_jp":"和歌山県","jp_add_1":"和歌山市","jp_add_2":"島橋東ノ丁"},"6408414":{"post_code":"6408414","prefecture":"WAKAYAMA KEN","city":"WAKAYAMA SHI","town":"SHIMABASHI NISHINOCHO","perfecture_jp":"和歌山県","jp_add_1":"和歌山市","jp_add_2":"島橋西ノ丁"},"6408415":{"post_code":"6408415","prefecture":"WAKAYAMA KEN","city":"WAKAYAMA SHI","town":"SHIMABASHI MINAMINOCHO","perfecture_jp":"和歌山県","jp_add_1":"和歌山市","jp_add_2":"島橋南ノ丁"},"6408416":{"post_code":"6408416","prefecture":"WAKAYAMA KEN","city":"WAKAYAMA SHI","town":"SHIMABASHI KITANOCHO","perfecture_jp":"和歌山県","jp_add_1":"和歌山市","jp_add_2":"島橋北ノ丁"},"6408074":{"post_code":"6408074","prefecture":"WAKAYAMA KEN","city":"WAKAYAMA SHI","town":"SHINGYOMACHI","perfecture_jp":"和歌山県","jp_add_1":"和歌山市","jp_add_2":"新魚町"},"6408101":{"post_code":"6408101","prefecture":"WAKAYAMA KEN","city":"WAKAYAMA SHI","town":"SHINSAIKAMACHI","perfecture_jp":"和歌山県","jp_add_1":"和歌山市","jp_add_2":"新雑賀町"},"6408377":{"post_code":"6408377","prefecture":"WAKAYAMA KEN","city":"WAKAYAMA SHI","town":"SHINSAKAICHO","perfecture_jp":"和歌山県","jp_add_1":"和歌山市","jp_add_2":"新堺丁"},"6408345":{"post_code":"6408345","prefecture":"WAKAYAMA KEN","city":"WAKAYAMA SHI","town":"SHINZAIKE","perfecture_jp":"和歌山県","jp_add_1":"和歌山市","jp_add_2":"新在家"},"6408325":{"post_code":"6408325","prefecture":"WAKAYAMA KEN","city":"WAKAYAMA SHI","town":"SHINSEICHO","perfecture_jp":"和歌山県","jp_add_1":"和歌山市","jp_add_2":"新生町"},"6408372":{"post_code":"6408372","prefecture":"WAKAYAMA KEN","city":"WAKAYAMA SHI","town":"SHINDAIKUMACHI","perfecture_jp":"和歌山県","jp_add_1":"和歌山市","jp_add_2":"新大工町"},"6408111":{"post_code":"6408111","prefecture":"WAKAYAMA KEN","city":"WAKAYAMA SHI","town":"SHINTORI","perfecture_jp":"和歌山県","jp_add_1":"和歌山市","jp_add_2":"新通"},"6408376":{"post_code":"6408376","prefecture":"WAKAYAMA KEN","city":"WAKAYAMA SHI","town":"SHINNAKADORI","perfecture_jp":"和歌山県","jp_add_1":"和歌山市","jp_add_2":"新中通"},"6408371":{"post_code":"6408371","prefecture":"WAKAYAMA KEN","city":"WAKAYAMA SHI","town":"SHINYAOYACHO","perfecture_jp":"和歌山県","jp_add_1":"和歌山市","jp_add_2":"新八百屋丁"},"6408152":{"post_code":"6408152","prefecture":"WAKAYAMA KEN","city":"WAKAYAMA SHI","town":"JUBANCHO","perfecture_jp":"和歌山県","jp_add_1":"和歌山市","jp_add_2":"十番丁"},"6408159":{"post_code":"6408159","prefecture":"WAKAYAMA KEN","city":"WAKAYAMA SHI","town":"JUICHIBANCHO","perfecture_jp":"和歌山県","jp_add_1":"和歌山市","jp_add_2":"十一番丁"},"6408158":{"post_code":"6408158","prefecture":"WAKAYAMA KEN","city":"WAKAYAMA SHI","town":"JUNIBANCHO","perfecture_jp":"和歌山県","jp_add_1":"和歌山市","jp_add_2":"十二番丁"},"6408150":{"post_code":"6408150","prefecture":"WAKAYAMA KEN","city":"WAKAYAMA SHI","town":"JUSAMBANCHO","perfecture_jp":"和歌山県","jp_add_1":"和歌山市","jp_add_2":"十三番丁"},"6408444":{"post_code":"6408444","prefecture":"WAKAYAMA KEN","city":"WAKAYAMA SHI","town":"JIROMARU","perfecture_jp":"和歌山県","jp_add_1":"和歌山市","jp_add_2":"次郎丸"},"6408374":{"post_code":"6408374","prefecture":"WAKAYAMA KEN","city":"WAKAYAMA SHI","town":"SUKIYACHO","perfecture_jp":"和歌山県","jp_add_1":"和歌山市","jp_add_2":"数寄屋丁"},"6408212":{"post_code":"6408212","prefecture":"WAKAYAMA KEN","city":"WAKAYAMA SHI","town":"SUGINOBABA","perfecture_jp":"和歌山県","jp_add_1":"和歌山市","jp_add_2":"杉ノ馬場"},"6408378":{"post_code":"6408378","prefecture":"WAKAYAMA KEN","city":"WAKAYAMA SHI","town":"SUZUMARUCHO","perfecture_jp":"和歌山県","jp_add_1":"和歌山市","jp_add_2":"鈴丸丁"},"6400314":{"post_code":"6400314","prefecture":"WAKAYAMA KEN","city":"WAKAYAMA SHI","town":"ZUDAJI","perfecture_jp":"和歌山県","jp_add_1":"和歌山市","jp_add_2":"頭陀寺"},"6408272":{"post_code":"6408272","prefecture":"WAKAYAMA KEN","city":"WAKAYAMA SHI","town":"SUNAYAMAMINAMI","perfecture_jp":"和歌山県","jp_add_1":"和歌山市","jp_add_2":"砂山南"},"6408022":{"post_code":"6408022","prefecture":"WAKAYAMA KEN","city":"WAKAYAMA SHI","town":"SUMIYOSHIMACHI","perfecture_jp":"和歌山県","jp_add_1":"和歌山市","jp_add_2":"住吉町"},"6408034":{"post_code":"6408034","prefecture":"WAKAYAMA KEN","city":"WAKAYAMA SHI","town":"SURUGAMACHI","perfecture_jp":"和歌山県","jp_add_1":"和歌山市","jp_add_2":"駿河町"},"6408041":{"post_code":"6408041","prefecture":"WAKAYAMA KEN","city":"WAKAYAMA SHI","town":"SENKOJIMONZENCHO","perfecture_jp":"和歌山県","jp_add_1":"和歌山市","jp_add_2":"専光寺門前丁"},"6408114":{"post_code":"6408114","prefecture":"WAKAYAMA KEN","city":"WAKAYAMA SHI","town":"SEMBACHO","perfecture_jp":"和歌山県","jp_add_1":"和歌山市","jp_add_2":"船場町"},"6408471":{"post_code":"6408471","prefecture":"WAKAYAMA KEN","city":"WAKAYAMA SHI","town":"ZEMMYOJI","perfecture_jp":"和歌山県","jp_add_1":"和歌山市","jp_add_2":"善明寺"},"6400341":{"post_code":"6400341","prefecture":"WAKAYAMA KEN","city":"WAKAYAMA SHI","town":"SOZAKA","perfecture_jp":"和歌山県","jp_add_1":"和歌山市","jp_add_2":"相坂"},"6408483":{"post_code":"6408483","prefecture":"WAKAYAMA KEN","city":"WAKAYAMA SHI","town":"SONOBE","perfecture_jp":"和歌山県","jp_add_1":"和歌山市","jp_add_2":"園部"},"6408135":{"post_code":"6408135","prefecture":"WAKAYAMA KEN","city":"WAKAYAMA SHI","town":"TAKAJOMACHI","perfecture_jp":"和歌山県","jp_add_1":"和歌山市","jp_add_2":"鷹匠町"},"6408028":{"post_code":"6408028","prefecture":"WAKAYAMA KEN","city":"WAKAYAMA SHI","town":"TAKUMIMACHI","perfecture_jp":"和歌山県","jp_add_1":"和歌山市","jp_add_2":"匠町"},"6408061":{"post_code":"6408061","prefecture":"WAKAYAMA KEN","city":"WAKAYAMA SHI","town":"TATAMIYAMACHI","perfecture_jp":"和歌山県","jp_add_1":"和歌山市","jp_add_2":"畳屋町"},"6408329":{"post_code":"6408329","prefecture":"WAKAYAMA KEN","city":"WAKAYAMA SHI","town":"TANAKAMACHI","perfecture_jp":"和歌山県","jp_add_1":"和歌山市","jp_add_2":"田中町"},"6408133":{"post_code":"6408133","prefecture":"WAKAYAMA KEN","city":"WAKAYAMA SHI","town":"TANIMACHI","perfecture_jp":"和歌山県","jp_add_1":"和歌山市","jp_add_2":"谷町"},"6408287":{"post_code":"6408287","prefecture":"WAKAYAMA KEN","city":"WAKAYAMA SHI","town":"CHIKKO","perfecture_jp":"和歌山県","jp_add_1":"和歌山市","jp_add_2":"築港"},"6408263":{"post_code":"6408263","prefecture":"WAKAYAMA KEN","city":"WAKAYAMA SHI","town":"CHAYANOCHO","perfecture_jp":"和歌山県","jp_add_1":"和歌山市","jp_add_2":"茶屋ノ丁"},"6408334":{"post_code":"6408334","prefecture":"WAKAYAMA KEN","city":"WAKAYAMA SHI","town":"CHAYAMACHI","perfecture_jp":"和歌山県","jp_add_1":"和歌山市","jp_add_2":"茶屋町"},"6400115":{"post_code":"6400115","prefecture":"WAKAYAMA KEN","city":"WAKAYAMA SHI","town":"TSUTSUJIGAOKA","perfecture_jp":"和歌山県","jp_add_1":"和歌山市","jp_add_2":"つつじが丘"},"6408315":{"post_code":"6408315","prefecture":"WAKAYAMA KEN","city":"WAKAYAMA SHI","town":"TSUWADA","perfecture_jp":"和歌山県","jp_add_1":"和歌山市","jp_add_2":"津秦"},"6408319":{"post_code":"6408319","prefecture":"WAKAYAMA KEN","city":"WAKAYAMA SHI","town":"TEBIRA","perfecture_jp":"和歌山県","jp_add_1":"和歌山市","jp_add_2":"手平"},"6408320":{"post_code":"6408320","prefecture":"WAKAYAMA KEN","city":"WAKAYAMA SHI","town":"TEBIRADEJIMA","perfecture_jp":"和歌山県","jp_add_1":"和歌山市","jp_add_2":"手平出島"},"6408311":{"post_code":"6408311","prefecture":"WAKAYAMA KEN","city":"WAKAYAMA SHI","town":"TERAUCHI","perfecture_jp":"和歌山県","jp_add_1":"和歌山市","jp_add_2":"寺内"},"6408282":{"post_code":"6408282","prefecture":"WAKAYAMA KEN","city":"WAKAYAMA SHI","town":"DEGUCHI KOGACHO","perfecture_jp":"和歌山県","jp_add_1":"和歌山市","jp_add_2":"出口甲賀丁"},"6408285":{"post_code":"6408285","prefecture":"WAKAYAMA KEN","city":"WAKAYAMA SHI","town":"DEGUCHI SHINHASHINOCHO","perfecture_jp":"和歌山県","jp_add_1":"和歌山市","jp_add_2":"出口新端ノ丁"},"6408283":{"post_code":"6408283","prefecture":"WAKAYAMA KEN","city":"WAKAYAMA SHI","town":"DEGUCHI NAKANOCHO","perfecture_jp":"和歌山県","jp_add_1":"和歌山市","jp_add_2":"出口中ノ丁"},"6408284":{"post_code":"6408284","prefecture":"WAKAYAMA KEN","city":"WAKAYAMA SHI","town":"DEGUCHI HASHINOCHO","perfecture_jp":"和歌山県","jp_add_1":"和歌山市","jp_add_2":"出口端ノ丁"},"6408306":{"post_code":"6408306","prefecture":"WAKAYAMA KEN","city":"WAKAYAMA SHI","town":"DEJIMA","perfecture_jp":"和歌山県","jp_add_1":"和歌山市","jp_add_2":"出島"},"6408321":{"post_code":"6408321","prefecture":"WAKAYAMA KEN","city":"WAKAYAMA SHI","town":"DEMIZU","perfecture_jp":"和歌山県","jp_add_1":"和歌山市","jp_add_2":"出水"},"6408204":{"post_code":"6408204","prefecture":"WAKAYAMA KEN","city":"WAKAYAMA SHI","town":"DEMPOBASHIMINAMINOCHO","perfecture_jp":"和歌山県","jp_add_1":"和歌山市","jp_add_2":"伝法橋南ノ丁"},"6408229":{"post_code":"6408229","prefecture":"WAKAYAMA KEN","city":"WAKAYAMA SHI","town":"DOJOMACHI","perfecture_jp":"和歌山県","jp_add_1":"和歌山市","jp_add_2":"道場町"},"6408432":{"post_code":"6408432","prefecture":"WAKAYAMA KEN","city":"WAKAYAMA SHI","town":"DONYU","perfecture_jp":"和歌山県","jp_add_1":"和歌山市","jp_add_2":"土入"},"6408206":{"post_code":"6408206","prefecture":"WAKAYAMA KEN","city":"WAKAYAMA SHI","town":"TOKUDAGICHO","perfecture_jp":"和歌山県","jp_add_1":"和歌山市","jp_add_2":"徳田木丁"},"6408256":{"post_code":"6408256","prefecture":"WAKAYAMA KEN","city":"WAKAYAMA SHI","town":"TOSAMACHI","perfecture_jp":"和歌山県","jp_add_1":"和歌山市","jp_add_2":"土佐町"},"6408342":{"post_code":"6408342","prefecture":"WAKAYAMA KEN","city":"WAKAYAMA SHI","town":"TOMODACHO","perfecture_jp":"和歌山県","jp_add_1":"和歌山市","jp_add_2":"友田町"},"6408451":{"post_code":"6408451","prefecture":"WAKAYAMA KEN","city":"WAKAYAMA SHI","town":"NAKA","perfecture_jp":"和歌山県","jp_add_1":"和歌山市","jp_add_2":"中"},"6408433":{"post_code":"6408433","prefecture":"WAKAYAMA KEN","city":"WAKAYAMA SHI","town":"NAKANO","perfecture_jp":"和歌山県","jp_add_1":"和歌山市","jp_add_2":"中野"},"6408392":{"post_code":"6408392","prefecture":"WAKAYAMA KEN","city":"WAKAYAMA SHI","town":"NAKANOSHIMA","perfecture_jp":"和歌山県","jp_add_1":"和歌山市","jp_add_2":"中之島"},"6408025":{"post_code":"6408025","prefecture":"WAKAYAMA KEN","city":"WAKAYAMA SHI","town":"NAKANOTANA NAKANOCHO","perfecture_jp":"和歌山県","jp_add_1":"和歌山市","jp_add_2":"中ノ店中ノ丁"},"6408026":{"post_code":"6408026","prefecture":"WAKAYAMA KEN","city":"WAKAYAMA SHI","town":"NAKANOTANA MINAMINOCHO","perfecture_jp":"和歌山県","jp_add_1":"和歌山市","jp_add_2":"中ノ店南ノ丁"},"6408023":{"post_code":"6408023","prefecture":"WAKAYAMA KEN","city":"WAKAYAMA SHI","town":"NAKANOTANA KITANOCHO","perfecture_jp":"和歌山県","jp_add_1":"和歌山市","jp_add_2":"中ノ店北ノ丁"},"6400302":{"post_code":"6400302","prefecture":"WAKAYAMA KEN","city":"WAKAYAMA SHI","town":"NAGAYAMA","perfecture_jp":"和歌山県","jp_add_1":"和歌山市","jp_add_2":"永山"},"6408236":{"post_code":"6408236","prefecture":"WAKAYAMA KEN","city":"WAKAYAMA SHI","town":"NANAMAGARI","perfecture_jp":"和歌山県","jp_add_1":"和歌山市","jp_add_2":"七曲り"},"6408009":{"post_code":"6408009","prefecture":"WAKAYAMA KEN","city":"WAKAYAMA SHI","town":"NABEYAMACHI","perfecture_jp":"和歌山県","jp_add_1":"和歌山市","jp_add_2":"鍋屋町"},"6408303":{"post_code":"6408303","prefecture":"WAKAYAMA KEN","city":"WAKAYAMA SHI","town":"NARUKAMI","perfecture_jp":"和歌山県","jp_add_1":"和歌山市","jp_add_2":"鳴神"},"6400322":{"post_code":"6400322","prefecture":"WAKAYAMA KEN","city":"WAKAYAMA SHI","town":"NIIBE","perfecture_jp":"和歌山県","jp_add_1":"和歌山市","jp_add_2":"仁井辺"},"6408313":{"post_code":"6408313","prefecture":"WAKAYAMA KEN","city":"WAKAYAMA SHI","town":"NISHI","perfecture_jp":"和歌山県","jp_add_1":"和歌山市","jp_add_2":"西"},"6408046":{"post_code":"6408046","prefecture":"WAKAYAMA KEN","city":"WAKAYAMA SHI","town":"NISHIKAJIYAMACHI","perfecture_jp":"和歌山県","jp_add_1":"和歌山市","jp_add_2":"西鍛冶屋町"},"6408297":{"post_code":"6408297","prefecture":"WAKAYAMA KEN","city":"WAKAYAMA SHI","town":"NISHIKAWAGISHICHO","perfecture_jp":"和歌山県","jp_add_1":"和歌山市","jp_add_2":"西河岸町"},"6408063":{"post_code":"6408063","prefecture":"WAKAYAMA KEN","city":"WAKAYAMA SHI","town":"NISHIKUGINUKICHO","perfecture_jp":"和歌山県","jp_add_1":"和歌山市","jp_add_2":"西釘貫丁"},"6408205":{"post_code":"6408205","prefecture":"WAKAYAMA KEN","city":"WAKAYAMA SHI","town":"NISHIKURAMAECHO","perfecture_jp":"和歌山県","jp_add_1":"和歌山市","jp_add_2":"西蔵前丁"},"6408116":{"post_code":"6408116","prefecture":"WAKAYAMA KEN","city":"WAKAYAMA SHI","town":"NISHIKONYAMACHI","perfecture_jp":"和歌山県","jp_add_1":"和歌山市","jp_add_2":"西紺屋町"},"6408234":{"post_code":"6408234","prefecture":"WAKAYAMA KEN","city":"WAKAYAMA SHI","town":"NISHISAKANOECHO","perfecture_jp":"和歌山県","jp_add_1":"和歌山市","jp_add_2":"西坂ノ上丁"},"6408037":{"post_code":"6408037","prefecture":"WAKAYAMA KEN","city":"WAKAYAMA SHI","town":"NISHIDAIKUMACHI","perfecture_jp":"和歌山県","jp_add_1":"和歌山市","jp_add_2":"西大工町"},"6408014":{"post_code":"6408014","prefecture":"WAKAYAMA KEN","city":"WAKAYAMA SHI","town":"NISHICHUGEMMACHI","perfecture_jp":"和歌山県","jp_add_1":"和歌山市","jp_add_2":"西仲間町"},"6408290":{"post_code":"6408290","prefecture":"WAKAYAMA KEN","city":"WAKAYAMA SHI","town":"NISHINAGAMACHI","perfecture_jp":"和歌山県","jp_add_1":"和歌山市","jp_add_2":"西長町"},"6408211":{"post_code":"6408211","prefecture":"WAKAYAMA KEN","city":"WAKAYAMA SHI","town":"NISHINUNOECHO","perfecture_jp":"和歌山県","jp_add_1":"和歌山市","jp_add_2":"西布経丁"},"6400112":{"post_code":"6400112","prefecture":"WAKAYAMA KEN","city":"WAKAYAMA SHI","town":"NISHINOSHO","perfecture_jp":"和歌山県","jp_add_1":"和歌山市","jp_add_2":"西庄"},"6408042":{"post_code":"6408042","prefecture":"WAKAYAMA KEN","city":"WAKAYAMA SHI","town":"NISHINOTANA","perfecture_jp":"和歌山県","jp_add_1":"和歌山市","jp_add_2":"西ノ店"},"6408021":{"post_code":"6408021","prefecture":"WAKAYAMA KEN","city":"WAKAYAMA SHI","town":"NISHIHATAGOMACHI","perfecture_jp":"和歌山県","jp_add_1":"和歌山市","jp_add_2":"西旅籠町"},"6408227":{"post_code":"6408227","prefecture":"WAKAYAMA KEN","city":"WAKAYAMA SHI","town":"NISHIMIGIWACHO","perfecture_jp":"和歌山県","jp_add_1":"和歌山市","jp_add_2":"西汀丁"},"6408143":{"post_code":"6408143","prefecture":"WAKAYAMA KEN","city":"WAKAYAMA SHI","town":"NIBANCHO","perfecture_jp":"和歌山県","jp_add_1":"和歌山市","jp_add_2":"二番丁"},"6408326":{"post_code":"6408326","prefecture":"WAKAYAMA KEN","city":"WAKAYAMA SHI","town":"NINTOMECHO","perfecture_jp":"和歌山県","jp_add_1":"和歌山市","jp_add_2":"新留丁"},"6408481":{"post_code":"6408481","prefecture":"WAKAYAMA KEN","city":"WAKAYAMA SHI","town":"NOGAWA","perfecture_jp":"和歌山県","jp_add_1":"和歌山市","jp_add_2":"直川"},"6408344":{"post_code":"6408344","prefecture":"WAKAYAMA KEN","city":"WAKAYAMA SHI","town":"NOJO","perfecture_jp":"和歌山県","jp_add_1":"和歌山市","jp_add_2":"納定"},"6408402":{"post_code":"6408402","prefecture":"WAKAYAMA KEN","city":"WAKAYAMA SHI","town":"NOZAKI","perfecture_jp":"和歌山県","jp_add_1":"和歌山市","jp_add_2":"野崎"},"6408443":{"post_code":"6408443","prefecture":"WAKAYAMA KEN","city":"WAKAYAMA SHI","town":"NOBUTOKI","perfecture_jp":"和歌山県","jp_add_1":"和歌山市","jp_add_2":"延時"},"6408215":{"post_code":"6408215","prefecture":"WAKAYAMA KEN","city":"WAKAYAMA SHI","town":"HASHICHO","perfecture_jp":"和歌山県","jp_add_1":"和歌山市","jp_add_2":"橋丁"},"6408327":{"post_code":"6408327","prefecture":"WAKAYAMA KEN","city":"WAKAYAMA SHI","town":"HASHIMUKAICHO","perfecture_jp":"和歌山県","jp_add_1":"和歌山市","jp_add_2":"橋向丁"},"6408382":{"post_code":"6408382","prefecture":"WAKAYAMA KEN","city":"WAKAYAMA SHI","town":"HATAYASHIKI ENOKINOCHO","perfecture_jp":"和歌山県","jp_add_1":"和歌山市","jp_add_2":"畑屋敷榎丁"},"6408383":{"post_code":"6408383","prefecture":"WAKAYAMA KEN","city":"WAKAYAMA SHI","town":"HATAYASHIKI EMPUKUINHIGASHINOCHO","perfecture_jp":"和歌山県","jp_add_1":"和歌山市","jp_add_2":"畑屋敷円福院東ノ丁"},"6408385":{"post_code":"6408385","prefecture":"WAKAYAMA KEN","city":"WAKAYAMA SHI","town":"HATAYASHIKI EMPUKUINNISHINOCHO","perfecture_jp":"和歌山県","jp_add_1":"和歌山市","jp_add_2":"畑屋敷円福院西ノ丁"},"6408386":{"post_code":"6408386","prefecture":"WAKAYAMA KEN","city":"WAKAYAMA SHI","town":"HATAYASHIKI GANGICHO","perfecture_jp":"和歌山県","jp_add_1":"和歌山市","jp_add_2":"畑屋敷雁木丁"},"6408384":{"post_code":"6408384","prefecture":"WAKAYAMA KEN","city":"WAKAYAMA SHI","town":"HATAYASHIKI KUZUYACHO","perfecture_jp":"和歌山県","jp_add_1":"和歌山市","jp_add_2":"畑屋敷葛屋丁"},"6408397":{"post_code":"6408397","prefecture":"WAKAYAMA KEN","city":"WAKAYAMA SHI","town":"HATAYASHIKI SHIMMICHICHO","perfecture_jp":"和歌山県","jp_add_1":"和歌山市","jp_add_2":"畑屋敷新道丁"},"6408394":{"post_code":"6408394","prefecture":"WAKAYAMA KEN","city":"WAKAYAMA SHI","town":"HATAYASHIKI SENTAIBUTSUCHO","perfecture_jp":"和歌山県","jp_add_1":"和歌山市","jp_add_2":"畑屋敷千体仏丁"},"6408395":{"post_code":"6408395","prefecture":"WAKAYAMA KEN","city":"WAKAYAMA SHI","town":"HATAYASHIKI NAKANOCHO","perfecture_jp":"和歌山県","jp_add_1":"和歌山市","jp_add_2":"畑屋敷中ノ丁"},"6408393":{"post_code":"6408393","prefecture":"WAKAYAMA KEN","city":"WAKAYAMA SHI","town":"HATAYASHIKI HASHINOCHO","perfecture_jp":"和歌山県","jp_add_1":"和歌山市","jp_add_2":"畑屋敷端ノ丁"},"6408381":{"post_code":"6408381","prefecture":"WAKAYAMA KEN","city":"WAKAYAMA SHI","town":"HATAYASHIKI HIGASHINOCHO","perfecture_jp":"和歌山県","jp_add_1":"和歌山市","jp_add_2":"畑屋敷東ノ丁"},"6408396":{"post_code":"6408396","prefecture":"WAKAYAMA KEN","city":"WAKAYAMA SHI","town":"HATAYASHIKI NISHINOCHO","perfecture_jp":"和歌山県","jp_add_1":"和歌山市","jp_add_2":"畑屋敷西ノ丁"},"6408399":{"post_code":"6408399","prefecture":"WAKAYAMA KEN","city":"WAKAYAMA SHI","town":"HATAYASHIKI HYOGONOCHO","perfecture_jp":"和歌山県","jp_add_1":"和歌山市","jp_add_2":"畑屋敷兵庫ノ丁"},"6408387":{"post_code":"6408387","prefecture":"WAKAYAMA KEN","city":"WAKAYAMA SHI","town":"HATAYASHIKI FUKUROMACHI","perfecture_jp":"和歌山県","jp_add_1":"和歌山市","jp_add_2":"畑屋敷袋町"},"6408398":{"post_code":"6408398","prefecture":"WAKAYAMA KEN","city":"WAKAYAMA SHI","town":"HATAYASHIKI MATSUGAECHO","perfecture_jp":"和歌山県","jp_add_1":"和歌山市","jp_add_2":"畑屋敷松ケ枝丁"},"6408157":{"post_code":"6408157","prefecture":"WAKAYAMA KEN","city":"WAKAYAMA SHI","town":"HACHIBANCHO","perfecture_jp":"和歌山県","jp_add_1":"和歌山市","jp_add_2":"八番丁"},"6400353":{"post_code":"6400353","prefecture":"WAKAYAMA KEN","city":"WAKAYAMA SHI","town":"BABA","perfecture_jp":"和歌山県","jp_add_1":"和歌山市","jp_add_2":"馬場"},"6408036":{"post_code":"6408036","prefecture":"WAKAYAMA KEN","city":"WAKAYAMA SHI","town":"HIGASHIKAJIYAMACHI","perfecture_jp":"和歌山県","jp_add_1":"和歌山市","jp_add_2":"東鍛冶屋町"},"6408064":{"post_code":"6408064","prefecture":"WAKAYAMA KEN","city":"WAKAYAMA SHI","town":"HIGASHIKUGINUKICHO","perfecture_jp":"和歌山県","jp_add_1":"和歌山市","jp_add_2":"東釘貫丁"},"6408203":{"post_code":"6408203","prefecture":"WAKAYAMA KEN","city":"WAKAYAMA SHI","town":"HIGASHIKURAMAECHO","perfecture_jp":"和歌山県","jp_add_1":"和歌山市","jp_add_2":"東蔵前丁"},"6408115":{"post_code":"6408115","prefecture":"WAKAYAMA KEN","city":"WAKAYAMA SHI","town":"HIGASHIKONYAMACHI","perfecture_jp":"和歌山県","jp_add_1":"和歌山市","jp_add_2":"東紺屋町"},"6408247":{"post_code":"6408247","prefecture":"WAKAYAMA KEN","city":"WAKAYAMA SHI","town":"HIGASHISAKANOECHO","perfecture_jp":"和歌山県","jp_add_1":"和歌山市","jp_add_2":"東坂ノ上丁"},"6408013":{"post_code":"6408013","prefecture":"WAKAYAMA KEN","city":"WAKAYAMA SHI","town":"HIGASHICHUGEMMACHI","perfecture_jp":"和歌山県","jp_add_1":"和歌山市","jp_add_2":"東仲間町"},"6408235":{"post_code":"6408235","prefecture":"WAKAYAMA KEN","city":"WAKAYAMA SHI","town":"HIGASHINAGAMACHI","perfecture_jp":"和歌山県","jp_add_1":"和歌山市","jp_add_2":"東長町"},"6408266":{"post_code":"6408266","prefecture":"WAKAYAMA KEN","city":"WAKAYAMA SHI","town":"HIGASHINAGAMACHINAKANOCHO","perfecture_jp":"和歌山県","jp_add_1":"和歌山市","jp_add_2":"東長町中ノ丁"},"6408066":{"post_code":"6408066","prefecture":"WAKAYAMA KEN","city":"WAKAYAMA SHI","town":"HIGASHINUNOECHO","perfecture_jp":"和歌山県","jp_add_1":"和歌山市","jp_add_2":"東布経丁"},"6408004":{"post_code":"6408004","prefecture":"WAKAYAMA KEN","city":"WAKAYAMA SHI","town":"HIGASHIHATAGOMACHI","perfecture_jp":"和歌山県","jp_add_1":"和歌山市","jp_add_2":"東旅籠町"},"6408067":{"post_code":"6408067","prefecture":"WAKAYAMA KEN","city":"WAKAYAMA SHI","town":"HITOSUJIME","perfecture_jp":"和歌山県","jp_add_1":"和歌山市","jp_add_2":"一筋目"},"6400111":{"post_code":"6400111","prefecture":"WAKAYAMA KEN","city":"WAKAYAMA SHI","town":"HINO","perfecture_jp":"和歌山県","jp_add_1":"和歌山市","jp_add_2":"日野"},"6408202":{"post_code":"6408202","prefecture":"WAKAYAMA KEN","city":"WAKAYAMA SHI","town":"BYOBUCHO","perfecture_jp":"和歌山県","jp_add_1":"和歌山市","jp_add_2":"屏風丁"},"6408442":{"post_code":"6408442","prefecture":"WAKAYAMA KEN","city":"WAKAYAMA SHI","town":"HIRAI","perfecture_jp":"和歌山県","jp_add_1":"和歌山市","jp_add_2":"平井"},"6400304":{"post_code":"6400304","prefecture":"WAKAYAMA KEN","city":"WAKAYAMA SHI","town":"HIRAO","perfecture_jp":"和歌山県","jp_add_1":"和歌山市","jp_add_2":"平尾"},"6408113":{"post_code":"6408113","prefecture":"WAKAYAMA KEN","city":"WAKAYAMA SHI","town":"HIROSE TORICHO","perfecture_jp":"和歌山県","jp_add_1":"和歌山市","jp_add_2":"広瀬通丁"},"6408128":{"post_code":"6408128","prefecture":"WAKAYAMA KEN","city":"WAKAYAMA SHI","town":"HIROSE NAKANOCHO","perfecture_jp":"和歌山県","jp_add_1":"和歌山市","jp_add_2":"広瀬中ノ丁"},"6400333":{"post_code":"6400333","prefecture":"WAKAYAMA KEN","city":"WAKAYAMA SHI","town":"HIROHARA","perfecture_jp":"和歌山県","jp_add_1":"和歌山市","jp_add_2":"広原"},"6408268":{"post_code":"6408268","prefecture":"WAKAYAMA KEN","city":"WAKAYAMA SHI","town":"HIROMICHI","perfecture_jp":"和歌山県","jp_add_1":"和歌山市","jp_add_2":"広道"},"6408137":{"post_code":"6408137","prefecture":"WAKAYAMA KEN","city":"WAKAYAMA SHI","town":"FUKIAGE","perfecture_jp":"和歌山県","jp_add_1":"和歌山市","jp_add_2":"吹上"},"6408324":{"post_code":"6408324","prefecture":"WAKAYAMA KEN","city":"WAKAYAMA SHI","town":"FUKIYACHO","perfecture_jp":"和歌山県","jp_add_1":"和歌山市","jp_add_2":"吹屋町"},"6408401":{"post_code":"6408401","prefecture":"WAKAYAMA KEN","city":"WAKAYAMA SHI","town":"FUKUSHIMA","perfecture_jp":"和歌山県","jp_add_1":"和歌山市","jp_add_2":"福島"},"6408043":{"post_code":"6408043","prefecture":"WAKAYAMA KEN","city":"WAKAYAMA SHI","town":"FUKUMACHI","perfecture_jp":"和歌山県","jp_add_1":"和歌山市","jp_add_2":"福町"},"6408068":{"post_code":"6408068","prefecture":"WAKAYAMA KEN","city":"WAKAYAMA SHI","town":"FUTASUJIME","perfecture_jp":"和歌山県","jp_add_1":"和歌山市","jp_add_2":"二筋目"},"6408213":{"post_code":"6408213","prefecture":"WAKAYAMA KEN","city":"WAKAYAMA SHI","town":"FUNADAIKUMACHI","perfecture_jp":"和歌山県","jp_add_1":"和歌山市","jp_add_2":"舟大工町"},"6408255":{"post_code":"6408255","prefecture":"WAKAYAMA KEN","city":"WAKAYAMA SHI","town":"FUNAZUCHO","perfecture_jp":"和歌山県","jp_add_1":"和歌山市","jp_add_2":"舟津町"},"6408461":{"post_code":"6408461","prefecture":"WAKAYAMA KEN","city":"WAKAYAMA SHI","town":"FUNADOKORO","perfecture_jp":"和歌山県","jp_add_1":"和歌山市","jp_add_2":"船所"},"6400332":{"post_code":"6400332","prefecture":"WAKAYAMA KEN","city":"WAKAYAMA SHI","town":"FUYUNO","perfecture_jp":"和歌山県","jp_add_1":"和歌山市","jp_add_2":"冬野"},"6408131":{"post_code":"6408131","prefecture":"WAKAYAMA KEN","city":"WAKAYAMA SHI","town":"BEZAITENCHO","perfecture_jp":"和歌山県","jp_add_1":"和歌山市","jp_add_2":"弁財天丁"},"6408375":{"post_code":"6408375","prefecture":"WAKAYAMA KEN","city":"WAKAYAMA SHI","town":"BOZUCHO","perfecture_jp":"和歌山県","jp_add_1":"和歌山市","jp_add_2":"坊主丁"},"6408045":{"post_code":"6408045","prefecture":"WAKAYAMA KEN","city":"WAKAYAMA SHI","town":"BOKUHAMMACHI","perfecture_jp":"和歌山県","jp_add_1":"和歌山市","jp_add_2":"卜半町"},"6408136":{"post_code":"6408136","prefecture":"WAKAYAMA KEN","city":"WAKAYAMA SHI","town":"HORIDOME HIGASHI","perfecture_jp":"和歌山県","jp_add_1":"和歌山市","jp_add_2":"堀止東"},"6408033":{"post_code":"6408033","prefecture":"WAKAYAMA KEN","city":"WAKAYAMA SHI","town":"HOMMACHI","perfecture_jp":"和歌山県","jp_add_1":"和歌山市","jp_add_2":"本町"},"6408261":{"post_code":"6408261","prefecture":"WAKAYAMA KEN","city":"WAKAYAMA SHI","town":"MASAGOCHO","perfecture_jp":"和歌山県","jp_add_1":"和歌山市","jp_add_2":"真砂丁"},"6408421":{"post_code":"6408421","prefecture":"WAKAYAMA KEN","city":"WAKAYAMA SHI","town":"MATSUE","perfecture_jp":"和歌山県","jp_add_1":"和歌山市","jp_add_2":"松江"},"6408423":{"post_code":"6408423","prefecture":"WAKAYAMA KEN","city":"WAKAYAMA SHI","town":"MATSUE NAKA","perfecture_jp":"和歌山県","jp_add_1":"和歌山市","jp_add_2":"松江中"},"6408422":{"post_code":"6408422","prefecture":"WAKAYAMA KEN","city":"WAKAYAMA SHI","town":"MATSUE HIGASHI","perfecture_jp":"和歌山県","jp_add_1":"和歌山市","jp_add_2":"松江東"},"6408424":{"post_code":"6408424","prefecture":"WAKAYAMA KEN","city":"WAKAYAMA SHI","town":"MATSUE NISHI","perfecture_jp":"和歌山県","jp_add_1":"和歌山市","jp_add_2":"松江西"},"6408425":{"post_code":"6408425","prefecture":"WAKAYAMA KEN","city":"WAKAYAMA SHI","town":"MATSUE KITA","perfecture_jp":"和歌山県","jp_add_1":"和歌山市","jp_add_2":"松江北"},"6408304":{"post_code":"6408304","prefecture":"WAKAYAMA KEN","city":"WAKAYAMA SHI","town":"MATSUSHIMA","perfecture_jp":"和歌山県","jp_add_1":"和歌山市","jp_add_2":"松島"},"6400342":{"post_code":"6400342","prefecture":"WAKAYAMA KEN","city":"WAKAYAMA SHI","town":"MATSUBARA","perfecture_jp":"和歌山県","jp_add_1":"和歌山市","jp_add_2":"松原"},"6408153":{"post_code":"6408153","prefecture":"WAKAYAMA KEN","city":"WAKAYAMA SHI","town":"MIKIMACHI DAIDOKOROMACHI","perfecture_jp":"和歌山県","jp_add_1":"和歌山市","jp_add_2":"三木町台所町"},"6408106":{"post_code":"6408106","prefecture":"WAKAYAMA KEN","city":"WAKAYAMA SHI","town":"MIKIMACHI NAKANOCHO","perfecture_jp":"和歌山県","jp_add_1":"和歌山市","jp_add_2":"三木町中ノ丁"},"6408107":{"post_code":"6408107","prefecture":"WAKAYAMA KEN","city":"WAKAYAMA SHI","town":"MIKIMACHI HORIZUME","perfecture_jp":"和歌山県","jp_add_1":"和歌山市","jp_add_2":"三木町堀詰"},"6408105":{"post_code":"6408105","prefecture":"WAKAYAMA KEN","city":"WAKAYAMA SHI","town":"MIKIMACHI MINAMINOCHO","perfecture_jp":"和歌山県","jp_add_1":"和歌山市","jp_add_2":"三木町南ノ丁"},"6408123":{"post_code":"6408123","prefecture":"WAKAYAMA KEN","city":"WAKAYAMA SHI","town":"MISAWACHO","perfecture_jp":"和歌山県","jp_add_1":"和歌山市","jp_add_2":"三沢町"},"6408069":{"post_code":"6408069","prefecture":"WAKAYAMA KEN","city":"WAKAYAMA SHI","town":"MISUJIME","perfecture_jp":"和歌山県","jp_add_1":"和歌山市","jp_add_2":"三筋目"},"6408331":{"post_code":"6408331","prefecture":"WAKAYAMA KEN","city":"WAKAYAMA SHI","town":"MISONOCHO","perfecture_jp":"和歌山県","jp_add_1":"和歌山市","jp_add_2":"美園町"},"6408404":{"post_code":"6408404","prefecture":"WAKAYAMA KEN","city":"WAKAYAMA SHI","town":"MINATO","perfecture_jp":"和歌山県","jp_add_1":"和歌山市","jp_add_2":"湊"},"6408264":{"post_code":"6408264","prefecture":"WAKAYAMA KEN","city":"WAKAYAMA SHI","town":"MINATOKEYAMACHI","perfecture_jp":"和歌山県","jp_add_1":"和歌山市","jp_add_2":"湊桶屋町"},"6408223":{"post_code":"6408223","prefecture":"WAKAYAMA KEN","city":"WAKAYAMA SHI","town":"MINATOKITAMACHI","perfecture_jp":"和歌山県","jp_add_1":"和歌山市","jp_add_2":"湊北町"},"6408221":{"post_code":"6408221","prefecture":"WAKAYAMA KEN","city":"WAKAYAMA SHI","town":"MINATOKONYAMACHI","perfecture_jp":"和歌山県","jp_add_1":"和歌山市","jp_add_2":"湊紺屋町"},"6408286":{"post_code":"6408286","prefecture":"WAKAYAMA KEN","city":"WAKAYAMA SHI","town":"MINATOGOTEN","perfecture_jp":"和歌山県","jp_add_1":"和歌山市","jp_add_2":"湊御殿"},"6408281":{"post_code":"6408281","prefecture":"WAKAYAMA KEN","city":"WAKAYAMA SHI","town":"MINATOTORICHO MINAMI","perfecture_jp":"和歌山県","jp_add_1":"和歌山市","jp_add_2":"湊通丁南"},"6408262":{"post_code":"6408262","prefecture":"WAKAYAMA KEN","city":"WAKAYAMA SHI","town":"MINATOTORICHO KITA","perfecture_jp":"和歌山県","jp_add_1":"和歌山市","jp_add_2":"湊通丁北"},"6408222":{"post_code":"6408222","prefecture":"WAKAYAMA KEN","city":"WAKAYAMA SHI","town":"MINATOHOMMACHI","perfecture_jp":"和歌山県","jp_add_1":"和歌山市","jp_add_2":"湊本町"},"6408275":{"post_code":"6408275","prefecture":"WAKAYAMA KEN","city":"WAKAYAMA SHI","town":"MINAMIAIOICHO","perfecture_jp":"和歌山県","jp_add_1":"和歌山市","jp_add_2":"南相生丁"},"6408295":{"post_code":"6408295","prefecture":"WAKAYAMA KEN","city":"WAKAYAMA SHI","town":"MINAMIUSHIMACHI","perfecture_jp":"和歌山県","jp_add_1":"和歌山市","jp_add_2":"南牛町"},"6408029":{"post_code":"6408029","prefecture":"WAKAYAMA KEN","city":"WAKAYAMA SHI","town":"MINAMIOKEYAMACHI","perfecture_jp":"和歌山県","jp_add_1":"和歌山市","jp_add_2":"南桶屋町"},"6408126":{"post_code":"6408126","prefecture":"WAKAYAMA KEN","city":"WAKAYAMA SHI","town":"MINAMIKATAHARA","perfecture_jp":"和歌山県","jp_add_1":"和歌山市","jp_add_2":"南片原"},"6408104":{"post_code":"6408104","prefecture":"WAKAYAMA KEN","city":"WAKAYAMA SHI","town":"MINAMIKYUKAMACHI","perfecture_jp":"和歌山県","jp_add_1":"和歌山市","jp_add_2":"南休賀町"},"6408102":{"post_code":"6408102","prefecture":"WAKAYAMA KEN","city":"WAKAYAMA SHI","town":"MINAMISAIKAMACHI","perfecture_jp":"和歌山県","jp_add_1":"和歌山市","jp_add_2":"南雑賀町"},"6408117":{"post_code":"6408117","prefecture":"WAKAYAMA KEN","city":"WAKAYAMA SHI","town":"MINAMISAIKUMACHI","perfecture_jp":"和歌山県","jp_add_1":"和歌山市","jp_add_2":"南細工町"},"6408112":{"post_code":"6408112","prefecture":"WAKAYAMA KEN","city":"WAKAYAMA SHI","town":"MINAMIZAIMOKUCHO","perfecture_jp":"和歌山県","jp_add_1":"和歌山市","jp_add_2":"南材木丁"},"6408292":{"post_code":"6408292","prefecture":"WAKAYAMA KEN","city":"WAKAYAMA SHI","town":"MINAMIJINGOBEECHO","perfecture_jp":"和歌山県","jp_add_1":"和歌山市","jp_add_2":"南甚五兵衛丁"},"6408254":{"post_code":"6408254","prefecture":"WAKAYAMA KEN","city":"WAKAYAMA SHI","town":"MINAMITANABECHO","perfecture_jp":"和歌山県","jp_add_1":"和歌山市","jp_add_2":"南田辺丁"},"6408032":{"post_code":"6408032","prefecture":"WAKAYAMA KEN","city":"WAKAYAMA SHI","town":"MINAMIDAIKUMACHI","perfecture_jp":"和歌山県","jp_add_1":"和歌山市","jp_add_2":"南大工町"},"6408251":{"post_code":"6408251","prefecture":"WAKAYAMA KEN","city":"WAKAYAMA SHI","town":"MINAMICHUGEMMACHI","perfecture_jp":"和歌山県","jp_add_1":"和歌山市","jp_add_2":"南中間町"},"6408318":{"post_code":"6408318","prefecture":"WAKAYAMA KEN","city":"WAKAYAMA SHI","town":"MINAMIDEJIMA","perfecture_jp":"和歌山県","jp_add_1":"和歌山市","jp_add_2":"南出島"},"6400315":{"post_code":"6400315","prefecture":"WAKAYAMA KEN","city":"WAKAYAMA SHI","town":"MINAMIBATA","perfecture_jp":"和歌山県","jp_add_1":"和歌山市","jp_add_2":"南畑"},"6408232":{"post_code":"6408232","prefecture":"WAKAYAMA KEN","city":"WAKAYAMA SHI","town":"MINAMIMIGIWACHO","perfecture_jp":"和歌山県","jp_add_1":"和歌山市","jp_add_2":"南汀丁"},"6400102":{"post_code":"6400102","prefecture":"WAKAYAMA KEN","city":"WAKAYAMA SHI","town":"MIYAMA","perfecture_jp":"和歌山県","jp_add_1":"和歌山市","jp_add_2":"深山"},"6400305":{"post_code":"6400305","prefecture":"WAKAYAMA KEN","city":"WAKAYAMA SHI","town":"MYOOJI","perfecture_jp":"和歌山県","jp_add_1":"和歌山市","jp_add_2":"明王寺"},"6408431":{"post_code":"6408431","prefecture":"WAKAYAMA KEN","city":"WAKAYAMA SHI","town":"MUKAI","perfecture_jp":"和歌山県","jp_add_1":"和歌山市","jp_add_2":"向"},"6408077":{"post_code":"6408077","prefecture":"WAKAYAMA KEN","city":"WAKAYAMA SHI","town":"MUSUJIME","perfecture_jp":"和歌山県","jp_add_1":"和歌山市","jp_add_2":"六筋目"},"6408482":{"post_code":"6408482","prefecture":"WAKAYAMA KEN","city":"WAKAYAMA SHI","town":"MUSOTA","perfecture_jp":"和歌山県","jp_add_1":"和歌山市","jp_add_2":"六十谷"},"6408024":{"post_code":"6408024","prefecture":"WAKAYAMA KEN","city":"WAKAYAMA SHI","town":"MOTODERAMACHI","perfecture_jp":"和歌山県","jp_add_1":"和歌山市","jp_add_2":"元寺町"},"6408006":{"post_code":"6408006","prefecture":"WAKAYAMA KEN","city":"WAKAYAMA SHI","town":"MOTODERAMACHI HIGASHINOCHO","perfecture_jp":"和歌山県","jp_add_1":"和歌山市","jp_add_2":"元寺町東ノ丁"},"6408007":{"post_code":"6408007","prefecture":"WAKAYAMA KEN","city":"WAKAYAMA SHI","town":"MOTODERAMACHI NISHINOCHO","perfecture_jp":"和歌山県","jp_add_1":"和歌山市","jp_add_2":"元寺町西ノ丁"},"6408005":{"post_code":"6408005","prefecture":"WAKAYAMA KEN","city":"WAKAYAMA SHI","town":"MOTODERAMACHI MINAMINOCHO","perfecture_jp":"和歌山県","jp_add_1":"和歌山市","jp_add_2":"元寺町南ノ丁"},"6408008":{"post_code":"6408008","prefecture":"WAKAYAMA KEN","city":"WAKAYAMA SHI","town":"MOTODERAMACHI KITANOCHO","perfecture_jp":"和歌山県","jp_add_1":"和歌山市","jp_add_2":"元寺町北ノ丁"},"6408216":{"post_code":"6408216","prefecture":"WAKAYAMA KEN","city":"WAKAYAMA SHI","town":"MOTOBAKUROMACHI","perfecture_jp":"和歌山県","jp_add_1":"和歌山市","jp_add_2":"元博労町"},"6408127":{"post_code":"6408127","prefecture":"WAKAYAMA KEN","city":"WAKAYAMA SHI","town":"MOTOMACHIBUGYOCHO","perfecture_jp":"和歌山県","jp_add_1":"和歌山市","jp_add_2":"元町奉行丁"},"6400113":{"post_code":"6400113","prefecture":"WAKAYAMA KEN","city":"WAKAYAMA SHI","town":"MOTOWAKI","perfecture_jp":"和歌山県","jp_add_1":"和歌山市","jp_add_2":"本脇"},"6400324":{"post_code":"6400324","prefecture":"WAKAYAMA KEN","city":"WAKAYAMA SHI","town":"MOTOWATARI","perfecture_jp":"和歌山県","jp_add_1":"和歌山市","jp_add_2":"本渡"},"6408312":{"post_code":"6408312","prefecture":"WAKAYAMA KEN","city":"WAKAYAMA SHI","town":"MORIOTEBO","perfecture_jp":"和歌山県","jp_add_1":"和歌山市","jp_add_2":"森小手穂"},"6408151":{"post_code":"6408151","prefecture":"WAKAYAMA KEN","city":"WAKAYAMA SHI","town":"YAKATAMACHI","perfecture_jp":"和歌山県","jp_add_1":"和歌山市","jp_add_2":"屋形町"},"6400321":{"post_code":"6400321","prefecture":"WAKAYAMA KEN","city":"WAKAYAMA SHI","town":"YAKUSHOJI","perfecture_jp":"和歌山県","jp_add_1":"和歌山市","jp_add_2":"薬勝寺"},"6400307":{"post_code":"6400307","prefecture":"WAKAYAMA KEN","city":"WAKAYAMA SHI","town":"YATA","perfecture_jp":"和歌山県","jp_add_1":"和歌山市","jp_add_2":"矢田"},"6408336":{"post_code":"6408336","prefecture":"WAKAYAMA KEN","city":"WAKAYAMA SHI","town":"YANAGICHO","perfecture_jp":"和歌山県","jp_add_1":"和歌山市","jp_add_2":"柳丁"},"6408138":{"post_code":"6408138","prefecture":"WAKAYAMA KEN","city":"WAKAYAMA SHI","town":"YABUNOCHO","perfecture_jp":"和歌山県","jp_add_1":"和歌山市","jp_add_2":"薮ノ丁"},"6408132":{"post_code":"6408132","prefecture":"WAKAYAMA KEN","city":"WAKAYAMA SHI","town":"YAMAKAGECHO","perfecture_jp":"和歌山県","jp_add_1":"和歌山市","jp_add_2":"山蔭丁"},"6408065":{"post_code":"6408065","prefecture":"WAKAYAMA KEN","city":"WAKAYAMA SHI","town":"YAMABUKICHO","perfecture_jp":"和歌山県","jp_add_1":"和歌山市","jp_add_2":"山吹丁"},"6400363":{"post_code":"6400363","prefecture":"WAKAYAMA KEN","city":"WAKAYAMA SHI","town":"YOSHIZATO","perfecture_jp":"和歌山県","jp_add_1":"和歌山市","jp_add_2":"吉里"},"6408343":{"post_code":"6408343","prefecture":"WAKAYAMA KEN","city":"WAKAYAMA SHI","town":"YOSHIDA","perfecture_jp":"和歌山県","jp_add_1":"和歌山市","jp_add_2":"吉田"},"6400331":{"post_code":"6400331","prefecture":"WAKAYAMA KEN","city":"WAKAYAMA SHI","town":"YOSHIHARA","perfecture_jp":"和歌山県","jp_add_1":"和歌山市","jp_add_2":"吉原"},"6408060":{"post_code":"6408060","prefecture":"WAKAYAMA KEN","city":"WAKAYAMA SHI","town":"YOSUJIME","perfecture_jp":"和歌山県","jp_add_1":"和歌山市","jp_add_2":"四筋目"},"6408214":{"post_code":"6408214","prefecture":"WAKAYAMA KEN","city":"WAKAYAMA SHI","town":"YORIAIMACHI","perfecture_jp":"和歌山県","jp_add_1":"和歌山市","jp_add_2":"寄合町"},"6408035":{"post_code":"6408035","prefecture":"WAKAYAMA KEN","city":"WAKAYAMA SHI","town":"YOROZUMACHI","perfecture_jp":"和歌山県","jp_add_1":"和歌山市","jp_add_2":"万町"},"6408144":{"post_code":"6408144","prefecture":"WAKAYAMA KEN","city":"WAKAYAMA SHI","town":"YOMBANCHO","perfecture_jp":"和歌山県","jp_add_1":"和歌山市","jp_add_2":"四番丁"},"6408154":{"post_code":"6408154","prefecture":"WAKAYAMA KEN","city":"WAKAYAMA SHI","town":"ROKUBANCHO","perfecture_jp":"和歌山県","jp_add_1":"和歌山市","jp_add_2":"六番丁"},"6408119":{"post_code":"6408119","prefecture":"WAKAYAMA KEN","city":"WAKAYAMA SHI","town":"WAKAMACHI","perfecture_jp":"和歌山県","jp_add_1":"和歌山市","jp_add_2":"和歌町"},"6401163":{"post_code":"6401163","prefecture":"WAKAYAMA KEN","city":"KAINAN SHI","town":"AKANUMA","perfecture_jp":"和歌山県","jp_add_1":"海南市","jp_add_2":"赤沼"},"6401164":{"post_code":"6401164","prefecture":"WAKAYAMA KEN","city":"KAINAN SHI","town":"EBITANI","perfecture_jp":"和歌山県","jp_add_1":"海南市","jp_add_2":"海老谷"},"6401175":{"post_code":"6401175","prefecture":"WAKAYAMA KEN","city":"KAINAN SHI","town":"OKINONO","perfecture_jp":"和歌山県","jp_add_1":"海南市","jp_add_2":"沖野々"},"6401162":{"post_code":"6401162","prefecture":"WAKAYAMA KEN","city":"KAINAN SHI","town":"KAMIDANI","perfecture_jp":"和歌山県","jp_add_1":"海南市","jp_add_2":"上谷"},"6401174":{"post_code":"6401174","prefecture":"WAKAYAMA KEN","city":"KAINAN SHI","town":"KIZU","perfecture_jp":"和歌山県","jp_add_1":"海南市","jp_add_2":"木津"},"6401167":{"post_code":"6401167","prefecture":"WAKAYAMA KEN","city":"KAINAN SHI","town":"KUHONJI","perfecture_jp":"和歌山県","jp_add_1":"海南市","jp_add_2":"九品寺"},"6400443":{"post_code":"6400443","prefecture":"WAKAYAMA KEN","city":"KAINAN SHI","town":"SHIMOTSUNO","perfecture_jp":"和歌山県","jp_add_1":"海南市","jp_add_2":"下津野"},"6400451":{"post_code":"6400451","prefecture":"WAKAYAMA KEN","city":"KAINAN SHI","town":"TAKAZU","perfecture_jp":"和歌山県","jp_add_1":"海南市","jp_add_2":"高津"},"6401166":{"post_code":"6401166","prefecture":"WAKAYAMA KEN","city":"KAINAN SHI","town":"TSUGEDANI","perfecture_jp":"和歌山県","jp_add_1":"海南市","jp_add_2":"次ケ谷"},"6400441":{"post_code":"6400441","prefecture":"WAKAYAMA KEN","city":"KAINAN SHI","town":"NANAYAMA","perfecture_jp":"和歌山県","jp_add_1":"海南市","jp_add_2":"七山"},"6401161":{"post_code":"6401161","prefecture":"WAKAYAMA KEN","city":"KAINAN SHI","town":"NOKAMI SHIN","perfecture_jp":"和歌山県","jp_add_1":"海南市","jp_add_2":"野上新"},"6401171":{"post_code":"6401171","prefecture":"WAKAYAMA KEN","city":"KAINAN SHI","town":"NOKAMI NAKA","perfecture_jp":"和歌山県","jp_add_1":"海南市","jp_add_2":"野上中"},"6400453":{"post_code":"6400453","prefecture":"WAKAYAMA KEN","city":"KAINAN SHI","town":"NOJIRI","perfecture_jp":"和歌山県","jp_add_1":"海南市","jp_add_2":"野尻"},"6400442":{"post_code":"6400442","prefecture":"WAKAYAMA KEN","city":"KAINAN SHI","town":"HARANO","perfecture_jp":"和歌山県","jp_add_1":"海南市","jp_add_2":"原野"},"6401165":{"post_code":"6401165","prefecture":"WAKAYAMA KEN","city":"KAINAN SHI","town":"HIYAMIZU","perfecture_jp":"和歌山県","jp_add_1":"海南市","jp_add_2":"ひや水"},"6400454":{"post_code":"6400454","prefecture":"WAKAYAMA KEN","city":"KAINAN SHI","town":"BETSUIN","perfecture_jp":"和歌山県","jp_add_1":"海南市","jp_add_2":"別院"},"6401172":{"post_code":"6401172","prefecture":"WAKAYAMA KEN","city":"KAINAN SHI","town":"MIZONOKUCHI","perfecture_jp":"和歌山県","jp_add_1":"海南市","jp_add_2":"溝ノ口"},"6401173":{"post_code":"6401173","prefecture":"WAKAYAMA KEN","city":"KAINAN SHI","town":"MUKUNOKI","perfecture_jp":"和歌山県","jp_add_1":"海南市","jp_add_2":"椋木"},"6400452":{"post_code":"6400452","prefecture":"WAKAYAMA KEN","city":"KAINAN SHI","town":"MOKO","perfecture_jp":"和歌山県","jp_add_1":"海南市","jp_add_2":"孟子"},"6400403":{"post_code":"6400403","prefecture":"WAKAYAMA KEN","city":"KINOKAWA SHI","town":"KISHIGAWACHO AMATERA","perfecture_jp":"和歌山県","jp_add_1":"紀の川市","jp_add_2":"貴志川町尼寺"},"6400424":{"post_code":"6400424","prefecture":"WAKAYAMA KEN","city":"KINOKAWA SHI","town":"KISHIGAWACHO INOKUCHI","perfecture_jp":"和歌山県","jp_add_1":"紀の川市","jp_add_2":"貴志川町井ノ口"},"6400412":{"post_code":"6400412","prefecture":"WAKAYAMA KEN","city":"KINOKAWA SHI","town":"KISHIGAWACHO UENOYAMA","perfecture_jp":"和歌山県","jp_add_1":"紀の川市","jp_add_2":"貴志川町上野山"},"6400422":{"post_code":"6400422","prefecture":"WAKAYAMA KEN","city":"KINOKAWA SHI","town":"KISHIGAWACHO KISHIONO","perfecture_jp":"和歌山県","jp_add_1":"紀の川市","jp_add_2":"貴志川町岸小野"},"6400405":{"post_code":"6400405","prefecture":"WAKAYAMA KEN","city":"KINOKAWA SHI","town":"KISHIGAWACHO KISHIMIYA","perfecture_jp":"和歌山県","jp_add_1":"紀の川市","jp_add_2":"貴志川町岸宮"},"6400421":{"post_code":"6400421","prefecture":"WAKAYAMA KEN","city":"KINOKAWA SHI","town":"KISHIGAWACHO KITA","perfecture_jp":"和歌山県","jp_add_1":"紀の川市","jp_add_2":"貴志川町北"},"6400402":{"post_code":"6400402","prefecture":"WAKAYAMA KEN","city":"KINOKAWA SHI","town":"KISHIGAWACHO KITAYAMA","perfecture_jp":"和歌山県","jp_add_1":"紀の川市","jp_add_2":"貴志川町北山"},"6400414":{"post_code":"6400414","prefecture":"WAKAYAMA KEN","city":"KINOKAWA SHI","town":"KISHIGAWACHO KUNISHI","perfecture_jp":"和歌山県","jp_add_1":"紀の川市","jp_add_2":"貴志川町国主"},"6400413":{"post_code":"6400413","prefecture":"WAKAYAMA KEN","city":"KINOKAWA SHI","town":"KISHIGAWACHO KODO","perfecture_jp":"和歌山県","jp_add_1":"紀の川市","jp_add_2":"貴志川町神戸"},"6400423":{"post_code":"6400423","prefecture":"WAKAYAMA KEN","city":"KINOKAWA SHI","town":"KISHIGAWACHO TAKAO","perfecture_jp":"和歌山県","jp_add_1":"紀の川市","jp_add_2":"貴志川町高尾"},"6400404":{"post_code":"6400404","prefecture":"WAKAYAMA KEN","city":"KINOKAWA SHI","town":"KISHIGAWACHO TORII","perfecture_jp":"和歌山県","jp_add_1":"紀の川市","jp_add_2":"貴志川町鳥居"},"6400415":{"post_code":"6400415","prefecture":"WAKAYAMA KEN","city":"KINOKAWA SHI","town":"KISHIGAWACHO NAGAHARA","perfecture_jp":"和歌山県","jp_add_1":"紀の川市","jp_add_2":"貴志川町長原"},"6400416":{"post_code":"6400416","prefecture":"WAKAYAMA KEN","city":"KINOKAWA SHI","town":"KISHIGAWACHO NAGAYAMA","perfecture_jp":"和歌山県","jp_add_1":"紀の川市","jp_add_2":"貴志川町長山"},"6400406":{"post_code":"6400406","prefecture":"WAKAYAMA KEN","city":"KINOKAWA SHI","town":"KISHIGAWACHO NISHIYAMA","perfecture_jp":"和歌山県","jp_add_1":"紀の川市","jp_add_2":"貴志川町西山"},"6400411":{"post_code":"6400411","prefecture":"WAKAYAMA KEN","city":"KINOKAWA SHI","town":"KISHIGAWACHO MAEDA","perfecture_jp":"和歌山県","jp_add_1":"紀の川市","jp_add_2":"貴志川町前田"},"6400401":{"post_code":"6400401","prefecture":"WAKAYAMA KEN","city":"KINOKAWA SHI","town":"KISHIGAWACHO MARUSU","perfecture_jp":"和歌山県","jp_add_1":"紀の川市","jp_add_2":"貴志川町丸栖"},"6401333":{"post_code":"6401333","prefecture":"WAKAYAMA KEN","city":"KINOKAWA SHI","town":"MOMOYAMACHO KAITO","perfecture_jp":"和歌山県","jp_add_1":"紀の川市","jp_add_2":"桃山町垣内"},"6401332":{"post_code":"6401332","prefecture":"WAKAYAMA KEN","city":"KINOKAWA SHI","town":"MOMOYAMACHO NAKAHATA","perfecture_jp":"和歌山県","jp_add_1":"紀の川市","jp_add_2":"桃山町中畑"},"6401331":{"post_code":"6401331","prefecture":"WAKAYAMA KEN","city":"KINOKAWA SHI","town":"MOMOYAMACHO MINE","perfecture_jp":"和歌山県","jp_add_1":"紀の川市","jp_add_2":"桃山町峯"},"6401100":{"post_code":"6401100","prefecture":"WAKAYAMA KEN","city":"KAISO GUN KIMINO CHO","town":"IKANIKEISAIGANAIBAAI","perfecture_jp":"和歌山県","jp_add_1":"海草郡紀美野町","jp_add_2":""},"6401213":{"post_code":"6401213","prefecture":"WAKAYAMA KEN","city":"KAISO GUN KIMINO CHO","town":"AKAGI","perfecture_jp":"和歌山県","jp_add_1":"海草郡紀美野町","jp_add_2":"赤木"},"6401231":{"post_code":"6401231","prefecture":"WAKAYAMA KEN","city":"KAISO GUN KIMINO CHO","town":"AGEI","perfecture_jp":"和歌山県","jp_add_1":"海草郡紀美野町","jp_add_2":"上ケ井"},"6401207":{"post_code":"6401207","prefecture":"WAKAYAMA KEN","city":"KAISO GUN KIMINO CHO","town":"ISEKI","perfecture_jp":"和歌山県","jp_add_1":"海草郡紀美野町","jp_add_2":"井堰"},"6401365":{"post_code":"6401365","prefecture":"WAKAYAMA KEN","city":"KAISO GUN KIMINO CHO","town":"IMANISHI","perfecture_jp":"和歌山県","jp_add_1":"海草郡紀美野町","jp_add_2":"今西"},"6401202":{"post_code":"6401202","prefecture":"WAKAYAMA KEN","city":"KAISO GUN KIMINO CHO","town":"UITANI","perfecture_jp":"和歌山県","jp_add_1":"海草郡紀美野町","jp_add_2":"初生谷"},"6401113":{"post_code":"6401113","prefecture":"WAKAYAMA KEN","city":"KAISO GUN KIMINO CHO","town":"UMEMOTO","perfecture_jp":"和歌山県","jp_add_1":"海草郡紀美野町","jp_add_2":"梅本"},"6401353":{"post_code":"6401353","prefecture":"WAKAYAMA KEN","city":"KAISO GUN KIMINO CHO","town":"EMMYOJI","perfecture_jp":"和歌山県","jp_add_1":"海草郡紀美野町","jp_add_2":"円明寺"},"6401222":{"post_code":"6401222","prefecture":"WAKAYAMA KEN","city":"KAISO GUN KIMINO CHO","town":"OSUMI","perfecture_jp":"和歌山県","jp_add_1":"海草郡紀美野町","jp_add_2":"大角"},"6401115":{"post_code":"6401115","prefecture":"WAKAYAMA KEN","city":"KAISO GUN KIMINO CHO","town":"OKUSASA","perfecture_jp":"和歌山県","jp_add_1":"海草郡紀美野町","jp_add_2":"奥佐々"},"6401351":{"post_code":"6401351","prefecture":"WAKAYAMA KEN","city":"KAISO GUN KIMINO CHO","town":"KACHIYA","perfecture_jp":"和歌山県","jp_add_1":"海草郡紀美野町","jp_add_2":"勝谷"},"6401211":{"post_code":"6401211","prefecture":"WAKAYAMA KEN","city":"KAISO GUN KIMINO CHO","town":"KATSURASE","perfecture_jp":"和歌山県","jp_add_1":"海草郡紀美野町","jp_add_2":"桂瀬"},"6401255":{"post_code":"6401255","prefecture":"WAKAYAMA KEN","city":"KAISO GUN KIMINO CHO","town":"KAMATAKI","perfecture_jp":"和歌山県","jp_add_1":"海草郡紀美野町","jp_add_2":"釜滝"},"6401215":{"post_code":"6401215","prefecture":"WAKAYAMA KEN","city":"KAISO GUN KIMINO CHO","town":"KAMATAKI","perfecture_jp":"和歌山県","jp_add_1":"海草郡紀美野町","jp_add_2":"鎌滝"},"6401201":{"post_code":"6401201","prefecture":"WAKAYAMA KEN","city":"KAISO GUN KIMINO CHO","town":"KITANO","perfecture_jp":"和歌山県","jp_add_1":"海草郡紀美野町","jp_add_2":"北野"},"6401251":{"post_code":"6401251","prefecture":"WAKAYAMA KEN","city":"KAISO GUN KIMINO CHO","town":"KUNIGIHARA","perfecture_jp":"和歌山県","jp_add_1":"海草郡紀美野町","jp_add_2":"国木原"},"6401472":{"post_code":"6401472","prefecture":"WAKAYAMA KEN","city":"KAISO GUN KIMINO CHO","town":"KEBARAKAMI","perfecture_jp":"和歌山県","jp_add_1":"海草郡紀美野町","jp_add_2":"毛原上"},"6401476":{"post_code":"6401476","prefecture":"WAKAYAMA KEN","city":"KAISO GUN KIMINO CHO","town":"KEBARASHIMO","perfecture_jp":"和歌山県","jp_add_1":"海草郡紀美野町","jp_add_2":"毛原下"},"6401474":{"post_code":"6401474","prefecture":"WAKAYAMA KEN","city":"KAISO GUN KIMINO CHO","town":"KEBARANAKA","perfecture_jp":"和歌山県","jp_add_1":"海草郡紀美野町","jp_add_2":"毛原中"},"6401473":{"post_code":"6401473","prefecture":"WAKAYAMA KEN","city":"KAISO GUN KIMINO CHO","town":"KEBARAMIYA","perfecture_jp":"和歌山県","jp_add_1":"海草郡紀美野町","jp_add_2":"毛原宮"},"6401243":{"post_code":"6401243","prefecture":"WAKAYAMA KEN","city":"KAISO GUN KIMINO CHO","town":"KONOICHIBA","perfecture_jp":"和歌山県","jp_add_1":"海草郡紀美野町","jp_add_2":"神野市場"},"6401475":{"post_code":"6401475","prefecture":"WAKAYAMA KEN","city":"KAISO GUN KIMINO CHO","town":"KONISHI","perfecture_jp":"和歌山県","jp_add_1":"海草郡紀美野町","jp_add_2":"小西"},"6401112":{"post_code":"6401112","prefecture":"WAKAYAMA KEN","city":"KAISO GUN KIMINO CHO","town":"SAKAMOTO","perfecture_jp":"和歌山県","jp_add_1":"海草郡紀美野町","jp_add_2":"坂本"},"6401102":{"post_code":"6401102","prefecture":"WAKAYAMA KEN","city":"KAISO GUN KIMINO CHO","town":"SHIBAME","perfecture_jp":"和歌山県","jp_add_1":"海草郡紀美野町","jp_add_2":"柴目"},"6401121":{"post_code":"6401121","prefecture":"WAKAYAMA KEN","city":"KAISO GUN KIMINO CHO","town":"SHIMOSASA","perfecture_jp":"和歌山県","jp_add_1":"海草郡紀美野町","jp_add_2":"下佐々"},"6401141":{"post_code":"6401141","prefecture":"WAKAYAMA KEN","city":"KAISO GUN KIMINO CHO","town":"SHOBATA","perfecture_jp":"和歌山県","jp_add_1":"海草郡紀美野町","jp_add_2":"小畑"},"6401364":{"post_code":"6401364","prefecture":"WAKAYAMA KEN","city":"KAISO GUN KIMINO CHO","town":"SUGEZAWA","perfecture_jp":"和歌山県","jp_add_1":"海草郡紀美野町","jp_add_2":"菅沢"},"6401363":{"post_code":"6401363","prefecture":"WAKAYAMA KEN","city":"KAISO GUN KIMINO CHO","town":"TA","perfecture_jp":"和歌山県","jp_add_1":"海草郡紀美野町","jp_add_2":"田"},"6401212":{"post_code":"6401212","prefecture":"WAKAYAMA KEN","city":"KAISO GUN KIMINO CHO","town":"TAKAHATA","perfecture_jp":"和歌山県","jp_add_1":"海草郡紀美野町","jp_add_2":"高畑"},"6401362":{"post_code":"6401362","prefecture":"WAKAYAMA KEN","city":"KAISO GUN KIMINO CHO","town":"TAKINOGAWA","perfecture_jp":"和歌山県","jp_add_1":"海草郡紀美野町","jp_add_2":"滝ノ川"},"6401352":{"post_code":"6401352","prefecture":"WAKAYAMA KEN","city":"KAISO GUN KIMINO CHO","town":"TANI","perfecture_jp":"和歌山県","jp_add_1":"海草郡紀美野町","jp_add_2":"谷"},"6401223":{"post_code":"6401223","prefecture":"WAKAYAMA KEN","city":"KAISO GUN KIMINO CHO","town":"TSUGAWA","perfecture_jp":"和歌山県","jp_add_1":"海草郡紀美野町","jp_add_2":"津川"},"6401131":{"post_code":"6401131","prefecture":"WAKAYAMA KEN","city":"KAISO GUN KIMINO CHO","town":"TODOROKI","perfecture_jp":"和歌山県","jp_add_1":"海草郡紀美野町","jp_add_2":"動木"},"6401361":{"post_code":"6401361","prefecture":"WAKAYAMA KEN","city":"KAISO GUN KIMINO CHO","town":"NAKA","perfecture_jp":"和歌山県","jp_add_1":"海草郡紀美野町","jp_add_2":"中"},"6401114":{"post_code":"6401114","prefecture":"WAKAYAMA KEN","city":"KAISO GUN KIMINO CHO","town":"NAKADA","perfecture_jp":"和歌山県","jp_add_1":"海草郡紀美野町","jp_add_2":"中田"},"6401101":{"post_code":"6401101","prefecture":"WAKAYAMA KEN","city":"KAISO GUN KIMINO CHO","town":"NAGATANI","perfecture_jp":"和歌山県","jp_add_1":"海草郡紀美野町","jp_add_2":"長谷"},"6401241":{"post_code":"6401241","prefecture":"WAKAYAMA KEN","city":"KAISO GUN KIMINO CHO","town":"NAGATANI","perfecture_jp":"和歌山県","jp_add_1":"海草郡紀美野町","jp_add_2":"永谷"},"6401252":{"post_code":"6401252","prefecture":"WAKAYAMA KEN","city":"KAISO GUN KIMINO CHO","town":"NISHINO","perfecture_jp":"和歌山県","jp_add_1":"海草郡紀美野町","jp_add_2":"西野"},"6401235":{"post_code":"6401235","prefecture":"WAKAYAMA KEN","city":"KAISO GUN KIMINO CHO","town":"NONAKA","perfecture_jp":"和歌山県","jp_add_1":"海草郡紀美野町","jp_add_2":"野中"},"6401471":{"post_code":"6401471","prefecture":"WAKAYAMA KEN","city":"KAISO GUN KIMINO CHO","town":"HASEMIYA","perfecture_jp":"和歌山県","jp_add_1":"海草郡紀美野町","jp_add_2":"長谷宮"},"6401203":{"post_code":"6401203","prefecture":"WAKAYAMA KEN","city":"KAISO GUN KIMINO CHO","town":"HANANOHARA","perfecture_jp":"和歌山県","jp_add_1":"海草郡紀美野町","jp_add_2":"花野原"},"6401253":{"post_code":"6401253","prefecture":"WAKAYAMA KEN","city":"KAISO GUN KIMINO CHO","town":"HIGASHINO","perfecture_jp":"和歌山県","jp_add_1":"海草郡紀美野町","jp_add_2":"東野"},"6401242":{"post_code":"6401242","prefecture":"WAKAYAMA KEN","city":"KAISO GUN KIMINO CHO","town":"HINOSHITA","perfecture_jp":"和歌山県","jp_add_1":"海草郡紀美野町","jp_add_2":"樋下"},"6401111":{"post_code":"6401111","prefecture":"WAKAYAMA KEN","city":"KAISO GUN KIMINO CHO","town":"FUKUI","perfecture_jp":"和歌山県","jp_add_1":"海草郡紀美野町","jp_add_2":"福井"},"6401244":{"post_code":"6401244","prefecture":"WAKAYAMA KEN","city":"KAISO GUN KIMINO CHO","town":"FUKUDA","perfecture_jp":"和歌山県","jp_add_1":"海草郡紀美野町","jp_add_2":"福田"},"6401205":{"post_code":"6401205","prefecture":"WAKAYAMA KEN","city":"KAISO GUN KIMINO CHO","town":"MAKUNIMIYA","perfecture_jp":"和歌山県","jp_add_1":"海草郡紀美野町","jp_add_2":"真国宮"},"6401366":{"post_code":"6401366","prefecture":"WAKAYAMA KEN","city":"KAISO GUN KIMINO CHO","town":"MATSUGAMINE","perfecture_jp":"和歌山県","jp_add_1":"海草郡紀美野町","jp_add_2":"松ケ峰"},"6401254":{"post_code":"6401254","prefecture":"WAKAYAMA KEN","city":"KAISO GUN KIMINO CHO","town":"MATSUSE","perfecture_jp":"和歌山県","jp_add_1":"海草郡紀美野町","jp_add_2":"松瀬"},"6401221":{"post_code":"6401221","prefecture":"WAKAYAMA KEN","city":"KAISO GUN KIMINO CHO","town":"MIOGAWA","perfecture_jp":"和歌山県","jp_add_1":"海草郡紀美野町","jp_add_2":"三尾川"},"6401233":{"post_code":"6401233","prefecture":"WAKAYAMA KEN","city":"KAISO GUN KIMINO CHO","town":"MINAMIBATA","perfecture_jp":"和歌山県","jp_add_1":"海草郡紀美野町","jp_add_2":"南畑"},"6401206":{"post_code":"6401206","prefecture":"WAKAYAMA KEN","city":"KAISO GUN KIMINO CHO","town":"MINOGAITO","perfecture_jp":"和歌山県","jp_add_1":"海草郡紀美野町","jp_add_2":"蓑垣内"},"6401204":{"post_code":"6401204","prefecture":"WAKAYAMA KEN","city":"KAISO GUN KIMINO CHO","town":"MINOTSURO","perfecture_jp":"和歌山県","jp_add_1":"海草郡紀美野町","jp_add_2":"蓑津呂"},"6401214":{"post_code":"6401214","prefecture":"WAKAYAMA KEN","city":"KAISO GUN KIMINO CHO","town":"MYOZOE","perfecture_jp":"和歌山県","jp_add_1":"海草郡紀美野町","jp_add_2":"明添"},"6401232":{"post_code":"6401232","prefecture":"WAKAYAMA KEN","city":"KAISO GUN KIMINO CHO","town":"MIROKU","perfecture_jp":"和歌山県","jp_add_1":"海草郡紀美野町","jp_add_2":"箕六"},"6401234":{"post_code":"6401234","prefecture":"WAKAYAMA KEN","city":"KAISO GUN KIMINO CHO","town":"YASUI","perfecture_jp":"和歌山県","jp_add_1":"海草郡紀美野町","jp_add_2":"安井"},"6401354":{"post_code":"6401354","prefecture":"WAKAYAMA KEN","city":"KAISO GUN KIMINO CHO","town":"YOGO","perfecture_jp":"和歌山県","jp_add_1":"海草郡紀美野町","jp_add_2":"四郷"},"6401103":{"post_code":"6401103","prefecture":"WAKAYAMA KEN","city":"KAISO GUN KIMINO CHO","town":"YOSHINO","perfecture_jp":"和歌山県","jp_add_1":"海草郡紀美野町","jp_add_2":"吉野"},"6401481":{"post_code":"6401481","prefecture":"WAKAYAMA KEN","city":"ITO GUN KATSURAGI CHO","town":"SHINJO","perfecture_jp":"和歌山県","jp_add_1":"伊都郡かつらぎ町","jp_add_2":"新城"}}