{"6420000":{"post_code":"6420000","prefecture":"WAKAYAMA KEN","city":"KAINAN SHI","town":"IKANIKEISAIGANAIBAAI","perfecture_jp":"和歌山県","jp_add_1":"海南市","jp_add_2":""},"6420015":{"post_code":"6420015","prefecture":"WAKAYAMA KEN","city":"KAINAN SHI","town":"ASSO","perfecture_jp":"和歌山県","jp_add_1":"海南市","jp_add_2":"且来"},"6420021":{"post_code":"6420021","prefecture":"WAKAYAMA KEN","city":"KAINAN SHI","town":"IDA","perfecture_jp":"和歌山県","jp_add_1":"海南市","jp_add_2":"井田"},"6420013":{"post_code":"6420013","prefecture":"WAKAYAMA KEN","city":"KAINAN SHI","town":"OTA","perfecture_jp":"和歌山県","jp_add_1":"海南市","jp_add_2":"多田"},"6420022":{"post_code":"6420022","prefecture":"WAKAYAMA KEN","city":"KAINAN SHI","town":"ONONAKA","perfecture_jp":"和歌山県","jp_add_1":"海南市","jp_add_2":"大野中"},"6420012":{"post_code":"6420012","prefecture":"WAKAYAMA KEN","city":"KAINAN SHI","town":"OKADA","perfecture_jp":"和歌山県","jp_add_1":"海南市","jp_add_2":"岡田"},"6420014":{"post_code":"6420014","prefecture":"WAKAYAMA KEN","city":"KAINAN SHI","town":"ONODA","perfecture_jp":"和歌山県","jp_add_1":"海南市","jp_add_2":"小野田"},"6420016":{"post_code":"6420016","prefecture":"WAKAYAMA KEN","city":"KAINAN SHI","town":"KITAAKASAKA","perfecture_jp":"和歌山県","jp_add_1":"海南市","jp_add_2":"北赤坂"},"6420027":{"post_code":"6420027","prefecture":"WAKAYAMA KEN","city":"KAINAN SHI","town":"GUMIZAWA","perfecture_jp":"和歌山県","jp_add_1":"海南市","jp_add_2":"扱沢"},"6420011":{"post_code":"6420011","prefecture":"WAKAYAMA KEN","city":"KAINAN SHI","town":"KUROE","perfecture_jp":"和歌山県","jp_add_1":"海南市","jp_add_2":"黒江"},"6420024":{"post_code":"6420024","prefecture":"WAKAYAMA KEN","city":"KAINAN SHI","town":"SAKAI","perfecture_jp":"和歌山県","jp_add_1":"海南市","jp_add_2":"阪井"},"6420023":{"post_code":"6420023","prefecture":"WAKAYAMA KEN","city":"KAINAN SHI","town":"SHIKONE","perfecture_jp":"和歌山県","jp_add_1":"海南市","jp_add_2":"重根"},"6420035":{"post_code":"6420035","prefecture":"WAKAYAMA KEN","city":"KAINAN SHI","town":"SHIMIZU","perfecture_jp":"和歌山県","jp_add_1":"海南市","jp_add_2":"冷水"},"6420031":{"post_code":"6420031","prefecture":"WAKAYAMA KEN","city":"KAINAN SHI","town":"TSUKIJI","perfecture_jp":"和歌山県","jp_add_1":"海南市","jp_add_2":"築地"},"6420033":{"post_code":"6420033","prefecture":"WAKAYAMA KEN","city":"KAINAN SHI","town":"TORII","perfecture_jp":"和歌山県","jp_add_1":"海南市","jp_add_2":"鳥居"},"6420032":{"post_code":"6420032","prefecture":"WAKAYAMA KEN","city":"KAINAN SHI","town":"NATAKA","perfecture_jp":"和歌山県","jp_add_1":"海南市","jp_add_2":"名高"},"6420028":{"post_code":"6420028","prefecture":"WAKAYAMA KEN","city":"KAINAN SHI","town":"HATAGAWA","perfecture_jp":"和歌山県","jp_add_1":"海南市","jp_add_2":"幡川"},"6420004":{"post_code":"6420004","prefecture":"WAKAYAMA KEN","city":"KAINAN SHI","town":"BABACHO","perfecture_jp":"和歌山県","jp_add_1":"海南市","jp_add_2":"馬場町"},"6420002":{"post_code":"6420002","prefecture":"WAKAYAMA KEN","city":"KAINAN SHI","town":"HIKATA","perfecture_jp":"和歌山県","jp_add_1":"海南市","jp_add_2":"日方"},"6420025":{"post_code":"6420025","prefecture":"WAKAYAMA KEN","city":"KAINAN SHI","town":"HIGASHIBATA","perfecture_jp":"和歌山県","jp_add_1":"海南市","jp_add_2":"東畑"},"6420034":{"post_code":"6420034","prefecture":"WAKAYAMA KEN","city":"KAINAN SHI","town":"FUJISHIRO","perfecture_jp":"和歌山県","jp_add_1":"海南市","jp_add_2":"藤白"},"6420001":{"post_code":"6420001","prefecture":"WAKAYAMA KEN","city":"KAINAN SHI","town":"FUNO","perfecture_jp":"和歌山県","jp_add_1":"海南市","jp_add_2":"船尾"},"6420026":{"post_code":"6420026","prefecture":"WAKAYAMA KEN","city":"KAINAN SHI","town":"BESSHIYO","perfecture_jp":"和歌山県","jp_add_1":"海南市","jp_add_2":"別所"},"6420017":{"post_code":"6420017","prefecture":"WAKAYAMA KEN","city":"KAINAN SHI","town":"MINAMIAKASAKA","perfecture_jp":"和歌山県","jp_add_1":"海南市","jp_add_2":"南赤坂"},"6420003":{"post_code":"6420003","prefecture":"WAKAYAMA KEN","city":"KAINAN SHI","town":"YAMASAKICHO","perfecture_jp":"和歌山県","jp_add_1":"海南市","jp_add_2":"山崎町"},"6420029":{"post_code":"6420029","prefecture":"WAKAYAMA KEN","city":"KAINAN SHI","town":"YAMADA","perfecture_jp":"和歌山県","jp_add_1":"海南市","jp_add_2":"山田"}}