{"6430614":{"post_code":"6430614","prefecture":"WAKAYAMA KEN","city":"ITO GUN KATSURAGI CHO","town":"HANAZONO ATARASHI","perfecture_jp":"和歌山県","jp_add_1":"伊都郡かつらぎ町","jp_add_2":"花園新子"},"6430613":{"post_code":"6430613","prefecture":"WAKAYAMA KEN","city":"ITO GUN KATSURAGI CHO","town":"HANAZONO IKENOKUBO","perfecture_jp":"和歌山県","jp_add_1":"伊都郡かつらぎ町","jp_add_2":"花園池ノ窪"},"6430612":{"post_code":"6430612","prefecture":"WAKAYAMA KEN","city":"ITO GUN KATSURAGI CHO","town":"HANAZONO KITADERA","perfecture_jp":"和歌山県","jp_add_1":"伊都郡かつらぎ町","jp_add_2":"花園北寺"},"6430611":{"post_code":"6430611","prefecture":"WAKAYAMA KEN","city":"ITO GUN KATSURAGI CHO","town":"HANAZONO YANASE","perfecture_jp":"和歌山県","jp_add_1":"伊都郡かつらぎ町","jp_add_2":"花園梁瀬"},"6430000":{"post_code":"6430000","prefecture":"WAKAYAMA KEN","city":"ARIDA GUN ARIDAGAWA CHO","town":"IKANIKEISAIGANAIBAAI","perfecture_jp":"和歌山県","jp_add_1":"有田郡湯浅町","jp_add_2":""},"6430002":{"post_code":"6430002","prefecture":"WAKAYAMA KEN","city":"ARIDA GUN YUASA CHO","town":"AOKI","perfecture_jp":"和歌山県","jp_add_1":"有田郡湯浅町","jp_add_2":"青木"},"6430005":{"post_code":"6430005","prefecture":"WAKAYAMA KEN","city":"ARIDA GUN YUASA CHO","town":"SUHARA","perfecture_jp":"和歌山県","jp_add_1":"有田郡湯浅町","jp_add_2":"栖原"},"6430006":{"post_code":"6430006","prefecture":"WAKAYAMA KEN","city":"ARIDA GUN YUASA CHO","town":"TA","perfecture_jp":"和歌山県","jp_add_1":"有田郡湯浅町","jp_add_2":"田"},"6430003":{"post_code":"6430003","prefecture":"WAKAYAMA KEN","city":"ARIDA GUN YUASA CHO","town":"BESSHIYO","perfecture_jp":"和歌山県","jp_add_1":"有田郡湯浅町","jp_add_2":"別所"},"6430001":{"post_code":"6430001","prefecture":"WAKAYAMA KEN","city":"ARIDA GUN YUASA CHO","town":"YAMADA","perfecture_jp":"和歌山県","jp_add_1":"有田郡湯浅町","jp_add_2":"山田"},"6430004":{"post_code":"6430004","prefecture":"WAKAYAMA KEN","city":"ARIDA GUN YUASA CHO","town":"YUASA","perfecture_jp":"和歌山県","jp_add_1":"有田郡湯浅町","jp_add_2":"湯浅"},"6430007":{"post_code":"6430007","prefecture":"WAKAYAMA KEN","city":"ARIDA GUN YUASA CHO","town":"YOSHIKAWA","perfecture_jp":"和歌山県","jp_add_1":"有田郡湯浅町","jp_add_2":"吉川"},"6430055":{"post_code":"6430055","prefecture":"WAKAYAMA KEN","city":"ARIDA GUN HIROGAWA CHO","town":"ISEKI","perfecture_jp":"和歌山県","jp_add_1":"有田郡広川町","jp_add_2":"井関"},"6430052":{"post_code":"6430052","prefecture":"WAKAYAMA KEN","city":"ARIDA GUN HIROGAWA CHO","town":"KAMITSUGI","perfecture_jp":"和歌山県","jp_add_1":"有田郡広川町","jp_add_2":"上津木"},"6430064":{"post_code":"6430064","prefecture":"WAKAYAMA KEN","city":"ARIDA GUN HIROGAWA CHO","town":"KAMINAKANO","perfecture_jp":"和歌山県","jp_add_1":"有田郡広川町","jp_add_2":"上中野"},"6430073":{"post_code":"6430073","prefecture":"WAKAYAMA KEN","city":"ARIDA GUN HIROGAWA CHO","town":"KARO","perfecture_jp":"和歌山県","jp_add_1":"有田郡広川町","jp_add_2":"唐尾"},"6430053":{"post_code":"6430053","prefecture":"WAKAYAMA KEN","city":"ARIDA GUN HIROGAWA CHO","town":"GONOSE","perfecture_jp":"和歌山県","jp_add_1":"有田郡広川町","jp_add_2":"河瀬"},"6430051":{"post_code":"6430051","prefecture":"WAKAYAMA KEN","city":"ARIDA GUN HIROGAWA CHO","town":"SHIMOTSUGI","perfecture_jp":"和歌山県","jp_add_1":"有田郡広川町","jp_add_2":"下津木"},"6430062":{"post_code":"6430062","prefecture":"WAKAYAMA KEN","city":"ARIDA GUN HIROGAWA CHO","town":"TONO","perfecture_jp":"和歌山県","jp_add_1":"有田郡広川町","jp_add_2":"殿"},"6430066":{"post_code":"6430066","prefecture":"WAKAYAMA KEN","city":"ARIDA GUN HIROGAWA CHO","town":"NASHIMA","perfecture_jp":"和歌山県","jp_add_1":"有田郡広川町","jp_add_2":"名島"},"6430074":{"post_code":"6430074","prefecture":"WAKAYAMA KEN","city":"ARIDA GUN HIROGAWA CHO","town":"NISHIHIRO","perfecture_jp":"和歌山県","jp_add_1":"有田郡広川町","jp_add_2":"西広"},"6430065":{"post_code":"6430065","prefecture":"WAKAYAMA KEN","city":"ARIDA GUN HIROGAWA CHO","town":"HIGASHINAKA","perfecture_jp":"和歌山県","jp_add_1":"有田郡広川町","jp_add_2":"東中"},"6430071":{"post_code":"6430071","prefecture":"WAKAYAMA KEN","city":"ARIDA GUN HIROGAWA CHO","town":"HIRO","perfecture_jp":"和歌山県","jp_add_1":"有田郡広川町","jp_add_2":"広"},"6430054":{"post_code":"6430054","prefecture":"WAKAYAMA KEN","city":"ARIDA GUN HIROGAWA CHO","town":"MAEDA","perfecture_jp":"和歌山県","jp_add_1":"有田郡広川町","jp_add_2":"前田"},"6430063":{"post_code":"6430063","prefecture":"WAKAYAMA KEN","city":"ARIDA GUN HIROGAWA CHO","town":"MINAMIKANAYA","perfecture_jp":"和歌山県","jp_add_1":"有田郡広川町","jp_add_2":"南金屋"},"6430061":{"post_code":"6430061","prefecture":"WAKAYAMA KEN","city":"ARIDA GUN HIROGAWA CHO","town":"YANASE","perfecture_jp":"和歌山県","jp_add_1":"有田郡広川町","jp_add_2":"柳瀬"},"6430072":{"post_code":"6430072","prefecture":"WAKAYAMA KEN","city":"ARIDA GUN HIROGAWA CHO","town":"YAMAMOTO","perfecture_jp":"和歌山県","jp_add_1":"有田郡広川町","jp_add_2":"山本"},"6430075":{"post_code":"6430075","prefecture":"WAKAYAMA KEN","city":"ARIDA GUN HIROGAWA CHO","town":"WADA","perfecture_jp":"和歌山県","jp_add_1":"有田郡広川町","jp_add_2":"和田"},"6430366":{"post_code":"6430366","prefecture":"WAKAYAMA KEN","city":"ARIDA GUN ARIDAGAWA CHO","town":"AO","perfecture_jp":"和歌山県","jp_add_1":"有田郡有田川町","jp_add_2":"粟生"},"6430136":{"post_code":"6430136","prefecture":"WAKAYAMA KEN","city":"ARIDA GUN ARIDAGAWA CHO","town":"AOTA","perfecture_jp":"和歌山県","jp_add_1":"有田郡有田川町","jp_add_2":"青田"},"6430129":{"post_code":"6430129","prefecture":"WAKAYAMA KEN","city":"ARIDA GUN ARIDAGAWA CHO","town":"AZETA","perfecture_jp":"和歌山県","jp_add_1":"有田郡有田川町","jp_add_2":"畦田"},"6430127":{"post_code":"6430127","prefecture":"WAKAYAMA KEN","city":"ARIDA GUN ARIDAGAWA CHO","town":"ARIHARA","perfecture_jp":"和歌山県","jp_add_1":"有田郡有田川町","jp_add_2":"有原"},"6430603":{"post_code":"6430603","prefecture":"WAKAYAMA KEN","city":"ARIDA GUN ARIDAGAWA CHO","town":"ITAO","perfecture_jp":"和歌山県","jp_add_1":"有田郡有田川町","jp_add_2":"板尾"},"6430604":{"post_code":"6430604","prefecture":"WAKAYAMA KEN","city":"ARIDA GUN ARIDAGAWA CHO","town":"IDANI","perfecture_jp":"和歌山県","jp_add_1":"有田郡有田川町","jp_add_2":"井谷"},"6430144":{"post_code":"6430144","prefecture":"WAKAYAMA KEN","city":"ARIDA GUN ARIDAGAWA CHO","town":"ICHIBA","perfecture_jp":"和歌山県","jp_add_1":"有田郡有田川町","jp_add_2":"市場"},"6430851":{"post_code":"6430851","prefecture":"WAKAYAMA KEN","city":"ARIDA GUN ARIDAGAWA CHO","town":"IDE","perfecture_jp":"和歌山県","jp_add_1":"有田郡有田川町","jp_add_2":"出"},"6430165":{"post_code":"6430165","prefecture":"WAKAYAMA KEN","city":"ARIDA GUN ARIDAGAWA CHO","town":"ITOGAWA","perfecture_jp":"和歌山県","jp_add_1":"有田郡有田川町","jp_add_2":"糸川"},"6430174":{"post_code":"6430174","prefecture":"WAKAYAMA KEN","city":"ARIDA GUN ARIDAGAWA CHO","town":"ITONO","perfecture_jp":"和歌山県","jp_add_1":"有田郡有田川町","jp_add_2":"糸野"},"6430844":{"post_code":"6430844","prefecture":"WAKAYAMA KEN","city":"ARIDA GUN ARIDAGAWA CHO","town":"INOKUCHI","perfecture_jp":"和歌山県","jp_add_1":"有田郡有田川町","jp_add_2":"井口"},"6430312":{"post_code":"6430312","prefecture":"WAKAYAMA KEN","city":"ARIDA GUN ARIDAGAWA CHO","town":"IWANOGAWA","perfecture_jp":"和歌山県","jp_add_1":"有田郡有田川町","jp_add_2":"岩野河"},"6430164":{"post_code":"6430164","prefecture":"WAKAYAMA KEN","city":"ARIDA GUN ARIDAGAWA CHO","town":"UIGOKE","perfecture_jp":"和歌山県","jp_add_1":"有田郡有田川町","jp_add_2":"宇井苔"},"6430026":{"post_code":"6430026","prefecture":"WAKAYAMA KEN","city":"ARIDA GUN ARIDAGAWA CHO","town":"UENO","perfecture_jp":"和歌山県","jp_add_1":"有田郡有田川町","jp_add_2":"植野"},"6430131":{"post_code":"6430131","prefecture":"WAKAYAMA KEN","city":"ARIDA GUN ARIDAGAWA CHO","town":"OISHI","perfecture_jp":"和歌山県","jp_add_1":"有田郡有田川町","jp_add_2":"生石"},"6430847":{"post_code":"6430847","prefecture":"WAKAYAMA KEN","city":"ARIDA GUN ARIDAGAWA CHO","town":"OKAHATA","perfecture_jp":"和歌山県","jp_add_1":"有田郡有田川町","jp_add_2":"大賀畑"},"6430513":{"post_code":"6430513","prefecture":"WAKAYAMA KEN","city":"ARIDA GUN ARIDAGAWA CHO","town":"OZO","perfecture_jp":"和歌山県","jp_add_1":"有田郡有田川町","jp_add_2":"大蔵"},"6430134":{"post_code":"6430134","prefecture":"WAKAYAMA KEN","city":"ARIDA GUN ARIDAGAWA CHO","town":"OSONO","perfecture_jp":"和歌山県","jp_add_1":"有田郡有田川町","jp_add_2":"大薗"},"6430845":{"post_code":"6430845","prefecture":"WAKAYAMA KEN","city":"ARIDA GUN ARIDAGAWA CHO","town":"OTANI","perfecture_jp":"和歌山県","jp_add_1":"有田郡有田川町","jp_add_2":"大谷"},"6430135":{"post_code":"6430135","prefecture":"WAKAYAMA KEN","city":"ARIDA GUN ARIDAGAWA CHO","town":"ONISHI","perfecture_jp":"和歌山県","jp_add_1":"有田郡有田川町","jp_add_2":"大西"},"6430142":{"post_code":"6430142","prefecture":"WAKAYAMA KEN","city":"ARIDA GUN ARIDAGAWA CHO","town":"OGAWA","perfecture_jp":"和歌山県","jp_add_1":"有田郡有田川町","jp_add_2":"小川"},"6430022":{"post_code":"6430022","prefecture":"WAKAYAMA KEN","city":"ARIDA GUN ARIDAGAWA CHO","town":"OKI","perfecture_jp":"和歌山県","jp_add_1":"有田郡有田川町","jp_add_2":"奥"},"6430601":{"post_code":"6430601","prefecture":"WAKAYAMA KEN","city":"ARIDA GUN ARIDAGAWA CHO","town":"OSHITE","perfecture_jp":"和歌山県","jp_add_1":"有田郡有田川町","jp_add_2":"押手"},"6430034":{"post_code":"6430034","prefecture":"WAKAYAMA KEN","city":"ARIDA GUN ARIDAGAWA CHO","town":"OSHIMA","perfecture_jp":"和歌山県","jp_add_1":"有田郡有田川町","jp_add_2":"小島"},"6430852":{"post_code":"6430852","prefecture":"WAKAYAMA KEN","city":"ARIDA GUN ARIDAGAWA CHO","town":"ONAKA","perfecture_jp":"和歌山県","jp_add_1":"有田郡有田川町","jp_add_2":"尾中"},"6430133":{"post_code":"6430133","prefecture":"WAKAYAMA KEN","city":"ARIDA GUN ARIDAGAWA CHO","town":"ONOE","perfecture_jp":"和歌山県","jp_add_1":"有田郡有田川町","jp_add_2":"尾上"},"6430132":{"post_code":"6430132","prefecture":"WAKAYAMA KEN","city":"ARIDA GUN ARIDAGAWA CHO","town":"OHARA","perfecture_jp":"和歌山県","jp_add_1":"有田郡有田川町","jp_add_2":"小原"},"6430812":{"post_code":"6430812","prefecture":"WAKAYAMA KEN","city":"ARIDA GUN ARIDAGAWA CHO","town":"KAIGURA","perfecture_jp":"和歌山県","jp_add_1":"有田郡有田川町","jp_add_2":"垣倉"},"6430843":{"post_code":"6430843","prefecture":"WAKAYAMA KEN","city":"ARIDA GUN ARIDAGAWA CHO","town":"KASHIKO","perfecture_jp":"和歌山県","jp_add_1":"有田郡有田川町","jp_add_2":"賢"},"6430152":{"post_code":"6430152","prefecture":"WAKAYAMA KEN","city":"ARIDA GUN ARIDAGAWA CHO","town":"KANAYA","perfecture_jp":"和歌山県","jp_add_1":"有田郡有田川町","jp_add_2":"金屋"},"6430176":{"post_code":"6430176","prefecture":"WAKAYAMA KEN","city":"ARIDA GUN ARIDAGAWA CHO","town":"KAMANAKA","perfecture_jp":"和歌山県","jp_add_1":"有田郡有田川町","jp_add_2":"釜中"},"6430855":{"post_code":"6430855","prefecture":"WAKAYAMA KEN","city":"ARIDA GUN ARIDAGAWA CHO","town":"KAMINAKASHIMA","perfecture_jp":"和歌山県","jp_add_1":"有田郡有田川町","jp_add_2":"上中島"},"6430171":{"post_code":"6430171","prefecture":"WAKAYAMA KEN","city":"ARIDA GUN ARIDAGAWA CHO","town":"KAMIMUTSUGAWA","perfecture_jp":"和歌山県","jp_add_1":"有田郡有田川町","jp_add_2":"上六川"},"6430551":{"post_code":"6430551","prefecture":"WAKAYAMA KEN","city":"ARIDA GUN ARIDAGAWA CHO","town":"KAMIYUKAWA","perfecture_jp":"和歌山県","jp_add_1":"有田郡有田川町","jp_add_2":"上湯川"},"6430364":{"post_code":"6430364","prefecture":"WAKAYAMA KEN","city":"ARIDA GUN ARIDAGAWA CHO","town":"KAWAI","perfecture_jp":"和歌山県","jp_add_1":"有田郡有田川町","jp_add_2":"川合"},"6430313":{"post_code":"6430313","prefecture":"WAKAYAMA KEN","city":"ARIDA GUN ARIDAGAWA CHO","town":"KAWAGUCHI","perfecture_jp":"和歌山県","jp_add_1":"有田郡有田川町","jp_add_2":"川口"},"6430161":{"post_code":"6430161","prefecture":"WAKAYAMA KEN","city":"ARIDA GUN ARIDAGAWA CHO","town":"KANGIJI","perfecture_jp":"和歌山県","jp_add_1":"有田郡有田川町","jp_add_2":"歓喜寺"},"6430362":{"post_code":"6430362","prefecture":"WAKAYAMA KEN","city":"ARIDA GUN ARIDAGAWA CHO","town":"KITANOKAWA","perfecture_jp":"和歌山県","jp_add_1":"有田郡有田川町","jp_add_2":"北野川"},"6430531":{"post_code":"6430531","prefecture":"WAKAYAMA KEN","city":"ARIDA GUN ARIDAGAWA CHO","town":"KUSUMOTO","perfecture_jp":"和歌山県","jp_add_1":"有田郡有田川町","jp_add_2":"楠本"},"6430514":{"post_code":"6430514","prefecture":"WAKAYAMA KEN","city":"ARIDA GUN ARIDAGAWA CHO","town":"KUNOHARA","perfecture_jp":"和歌山県","jp_add_1":"有田郡有田川町","jp_add_2":"久野原"},"6430023":{"post_code":"6430023","prefecture":"WAKAYAMA KEN","city":"ARIDA GUN ARIDAGAWA CHO","town":"KUMAI","perfecture_jp":"和歌山県","jp_add_1":"有田郡有田川町","jp_add_2":"熊井"},"6430172":{"post_code":"6430172","prefecture":"WAKAYAMA KEN","city":"ARIDA GUN ARIDAGAWA CHO","town":"KUROMATSU","perfecture_jp":"和歌山県","jp_add_1":"有田郡有田川町","jp_add_2":"黒松"},"6430544":{"post_code":"6430544","prefecture":"WAKAYAMA KEN","city":"ARIDA GUN ARIDAGAWA CHO","town":"SAKAIGAWA","perfecture_jp":"和歌山県","jp_add_1":"有田郡有田川町","jp_add_2":"境川"},"6430521":{"post_code":"6430521","prefecture":"WAKAYAMA KEN","city":"ARIDA GUN ARIDAGAWA CHO","town":"SHIMIZU","perfecture_jp":"和歌山県","jp_add_1":"有田郡有田川町","jp_add_2":"清水"},"6430021":{"post_code":"6430021","prefecture":"WAKAYAMA KEN","city":"ARIDA GUN ARIDAGAWA CHO","town":"SHIMOTSUNO","perfecture_jp":"和歌山県","jp_add_1":"有田郡有田川町","jp_add_2":"下津野"},"6430173":{"post_code":"6430173","prefecture":"WAKAYAMA KEN","city":"ARIDA GUN ARIDAGAWA CHO","town":"SHIMOMUTSUGAWA","perfecture_jp":"和歌山県","jp_add_1":"有田郡有田川町","jp_add_2":"下六川"},"6430522":{"post_code":"6430522","prefecture":"WAKAYAMA KEN","city":"ARIDA GUN ARIDAGAWA CHO","town":"SHIMOYUKAWA","perfecture_jp":"和歌山県","jp_add_1":"有田郡有田川町","jp_add_2":"下湯川"},"6430811":{"post_code":"6430811","prefecture":"WAKAYAMA KEN","city":"ARIDA GUN ARIDAGAWA CHO","town":"SHO","perfecture_jp":"和歌山県","jp_add_1":"有田郡有田川町","jp_add_2":"庄"},"6430602":{"post_code":"6430602","prefecture":"WAKAYAMA KEN","city":"ARIDA GUN ARIDAGAWA CHO","town":"SUGINOHARA","perfecture_jp":"和歌山県","jp_add_1":"有田郡有田川町","jp_add_2":"杉野原"},"6430853":{"post_code":"6430853","prefecture":"WAKAYAMA KEN","city":"ARIDA GUN ARIDAGAWA CHO","town":"SUMI","perfecture_jp":"和歌山県","jp_add_1":"有田郡有田川町","jp_add_2":"角"},"6430163":{"post_code":"6430163","prefecture":"WAKAYAMA KEN","city":"ARIDA GUN ARIDAGAWA CHO","town":"SURIGAWA","perfecture_jp":"和歌山県","jp_add_1":"有田郡有田川町","jp_add_2":"修理川"},"6430122":{"post_code":"6430122","prefecture":"WAKAYAMA KEN","city":"ARIDA GUN ARIDAGAWA CHO","town":"SEI","perfecture_jp":"和歌山県","jp_add_1":"有田郡有田川町","jp_add_2":"瀬井"},"6430846":{"post_code":"6430846","prefecture":"WAKAYAMA KEN","city":"ARIDA GUN ARIDAGAWA CHO","town":"TAGUCHI","perfecture_jp":"和歌山県","jp_add_1":"有田郡有田川町","jp_add_2":"田口"},"6430848":{"post_code":"6430848","prefecture":"WAKAYAMA KEN","city":"ARIDA GUN ARIDAGAWA CHO","town":"TAZUMI","perfecture_jp":"和歌山県","jp_add_1":"有田郡有田川町","jp_add_2":"田角"},"6430314":{"post_code":"6430314","prefecture":"WAKAYAMA KEN","city":"ARIDA GUN ARIDAGAWA CHO","town":"TATEISHI","perfecture_jp":"和歌山県","jp_add_1":"有田郡有田川町","jp_add_2":"立石"},"6430311":{"post_code":"6430311","prefecture":"WAKAYAMA KEN","city":"ARIDA GUN ARIDAGAWA CHO","town":"TANI","perfecture_jp":"和歌山県","jp_add_1":"有田郡有田川町","jp_add_2":"谷"},"6430032":{"post_code":"6430032","prefecture":"WAKAYAMA KEN","city":"ARIDA GUN ARIDAGAWA CHO","town":"TEMMA","perfecture_jp":"和歌山県","jp_add_1":"有田郡有田川町","jp_add_2":"天満"},"6430533":{"post_code":"6430533","prefecture":"WAKAYAMA KEN","city":"ARIDA GUN ARIDAGAWA CHO","town":"TOI","perfecture_jp":"和歌山県","jp_add_1":"有田郡有田川町","jp_add_2":"遠井"},"6430801":{"post_code":"6430801","prefecture":"WAKAYAMA KEN","city":"ARIDA GUN ARIDAGAWA CHO","town":"TOKUDA","perfecture_jp":"和歌山県","jp_add_1":"有田郡有田川町","jp_add_2":"徳田"},"6430123":{"post_code":"6430123","prefecture":"WAKAYAMA KEN","city":"ARIDA GUN ARIDAGAWA CHO","town":"NAKA","perfecture_jp":"和歌山県","jp_add_1":"有田郡有田川町","jp_add_2":"中"},"6430153":{"post_code":"6430153","prefecture":"WAKAYAMA KEN","city":"ARIDA GUN ARIDAGAWA CHO","town":"NAKAIBARA","perfecture_jp":"和歌山県","jp_add_1":"有田郡有田川町","jp_add_2":"中井原"},"6430854":{"post_code":"6430854","prefecture":"WAKAYAMA KEN","city":"ARIDA GUN ARIDAGAWA CHO","town":"NAGATA","perfecture_jp":"和歌山県","jp_add_1":"有田郡有田川町","jp_add_2":"長田"},"6430841":{"post_code":"6430841","prefecture":"WAKAYAMA KEN","city":"ARIDA GUN ARIDAGAWA CHO","town":"NAGATANI","perfecture_jp":"和歌山県","jp_add_1":"有田郡有田川町","jp_add_2":"長谷"},"6430143":{"post_code":"6430143","prefecture":"WAKAYAMA KEN","city":"ARIDA GUN ARIDAGAWA CHO","town":"NAKANO","perfecture_jp":"和歌山県","jp_add_1":"有田郡有田川町","jp_add_2":"中野"},"6430365":{"post_code":"6430365","prefecture":"WAKAYAMA KEN","city":"ARIDA GUN ARIDAGAWA CHO","town":"NAKAHARA","perfecture_jp":"和歌山県","jp_add_1":"有田郡有田川町","jp_add_2":"中原"},"6430124":{"post_code":"6430124","prefecture":"WAKAYAMA KEN","city":"ARIDA GUN ARIDAGAWA CHO","town":"NAKAMINE","perfecture_jp":"和歌山県","jp_add_1":"有田郡有田川町","jp_add_2":"中峯"},"6430175":{"post_code":"6430175","prefecture":"WAKAYAMA KEN","city":"ARIDA GUN ARIDAGAWA CHO","town":"NIU","perfecture_jp":"和歌山県","jp_add_1":"有田郡有田川町","jp_add_2":"丹生"},"6430363":{"post_code":"6430363","prefecture":"WAKAYAMA KEN","city":"ARIDA GUN ARIDAGAWA CHO","town":"NISAWA","perfecture_jp":"和歌山県","jp_add_1":"有田郡有田川町","jp_add_2":"二沢"},"6430128":{"post_code":"6430128","prefecture":"WAKAYAMA KEN","city":"ARIDA GUN ARIDAGAWA CHO","town":"NISHIGAMINE","perfecture_jp":"和歌山県","jp_add_1":"有田郡有田川町","jp_add_2":"西ケ峯"},"6430813":{"post_code":"6430813","prefecture":"WAKAYAMA KEN","city":"ARIDA GUN ARIDAGAWA CHO","town":"NISHINYUNOZU","perfecture_jp":"和歌山県","jp_add_1":"有田郡有田川町","jp_add_2":"西丹生図"},"6430125":{"post_code":"6430125","prefecture":"WAKAYAMA KEN","city":"ARIDA GUN ARIDAGAWA CHO","town":"NUTADA","perfecture_jp":"和歌山県","jp_add_1":"有田郡有田川町","jp_add_2":"沼田"},"6430532":{"post_code":"6430532","prefecture":"WAKAYAMA KEN","city":"ARIDA GUN ARIDAGAWA CHO","town":"NUMA","perfecture_jp":"和歌山県","jp_add_1":"有田郡有田川町","jp_add_2":"沼"},"6430605":{"post_code":"6430605","prefecture":"WAKAYAMA KEN","city":"ARIDA GUN ARIDAGAWA CHO","town":"NUMATANI","perfecture_jp":"和歌山県","jp_add_1":"有田郡有田川町","jp_add_2":"沼谷"},"6430031":{"post_code":"6430031","prefecture":"WAKAYAMA KEN","city":"ARIDA GUN ARIDAGAWA CHO","town":"NODA","perfecture_jp":"和歌山県","jp_add_1":"有田郡有田川町","jp_add_2":"野田"},"6430137":{"post_code":"6430137","prefecture":"WAKAYAMA KEN","city":"ARIDA GUN ARIDAGAWA CHO","town":"NOBUSAKA","perfecture_jp":"和歌山県","jp_add_1":"有田郡有田川町","jp_add_2":"延坂"},"6430151":{"post_code":"6430151","prefecture":"WAKAYAMA KEN","city":"ARIDA GUN ARIDAGAWA CHO","town":"HASEGAWA","perfecture_jp":"和歌山県","jp_add_1":"有田郡有田川町","jp_add_2":"長谷川"},"6430025":{"post_code":"6430025","prefecture":"WAKAYAMA KEN","city":"ARIDA GUN ARIDAGAWA CHO","town":"HABU","perfecture_jp":"和歌山県","jp_add_1":"有田郡有田川町","jp_add_2":"土生"},"6430541":{"post_code":"6430541","prefecture":"WAKAYAMA KEN","city":"ARIDA GUN ARIDAGAWA CHO","town":"HIGASHIODANI","perfecture_jp":"和歌山県","jp_add_1":"有田郡有田川町","jp_add_2":"東大谷"},"6430803":{"post_code":"6430803","prefecture":"WAKAYAMA KEN","city":"ARIDA GUN ARIDAGAWA CHO","town":"HIGASHINYUNOZU","perfecture_jp":"和歌山県","jp_add_1":"有田郡有田川町","jp_add_2":"東丹生図"},"6430121":{"post_code":"6430121","prefecture":"WAKAYAMA KEN","city":"ARIDA GUN ARIDAGAWA CHO","town":"HIKOGASE","perfecture_jp":"和歌山県","jp_add_1":"有田郡有田川町","jp_add_2":"彦ケ瀬"},"6430543":{"post_code":"6430543","prefecture":"WAKAYAMA KEN","city":"ARIDA GUN ARIDAGAWA CHO","town":"HIMONOGAWA","perfecture_jp":"和歌山県","jp_add_1":"有田郡有田川町","jp_add_2":"日物川"},"6430542":{"post_code":"6430542","prefecture":"WAKAYAMA KEN","city":"ARIDA GUN ARIDAGAWA CHO","town":"FUTAGAWA","perfecture_jp":"和歌山県","jp_add_1":"有田郡有田川町","jp_add_2":"二川"},"6430842":{"post_code":"6430842","prefecture":"WAKAYAMA KEN","city":"ARIDA GUN ARIDAGAWA CHO","town":"FUNASAKA","perfecture_jp":"和歌山県","jp_add_1":"有田郡有田川町","jp_add_2":"船坂"},"6430141":{"post_code":"6430141","prefecture":"WAKAYAMA KEN","city":"ARIDA GUN ARIDAGAWA CHO","town":"BUYO","perfecture_jp":"和歌山県","jp_add_1":"有田郡有田川町","jp_add_2":"伏羊"},"6430126":{"post_code":"6430126","prefecture":"WAKAYAMA KEN","city":"ARIDA GUN ARIDAGAWA CHO","town":"HONDO","perfecture_jp":"和歌山県","jp_add_1":"有田郡有田川町","jp_add_2":"本堂"},"6430162":{"post_code":"6430162","prefecture":"WAKAYAMA KEN","city":"ARIDA GUN ARIDAGAWA CHO","town":"MATSUBARA","perfecture_jp":"和歌山県","jp_add_1":"有田郡有田川町","jp_add_2":"松原"},"6430024":{"post_code":"6430024","prefecture":"WAKAYAMA KEN","city":"ARIDA GUN ARIDAGAWA CHO","town":"MIZUSHIRI","perfecture_jp":"和歌山県","jp_add_1":"有田郡有田川町","jp_add_2":"水尻"},"6430361":{"post_code":"6430361","prefecture":"WAKAYAMA KEN","city":"ARIDA GUN ARIDAGAWA CHO","town":"MISEGAWA","perfecture_jp":"和歌山県","jp_add_1":"有田郡有田川町","jp_add_2":"三瀬川"},"6430511":{"post_code":"6430511","prefecture":"WAKAYAMA KEN","city":"ARIDA GUN ARIDAGAWA CHO","town":"MITA","perfecture_jp":"和歌山県","jp_add_1":"有田郡有田川町","jp_add_2":"三田"},"6430512":{"post_code":"6430512","prefecture":"WAKAYAMA KEN","city":"ARIDA GUN ARIDAGAWA CHO","town":"MIYAGAWA","perfecture_jp":"和歌山県","jp_add_1":"有田郡有田川町","jp_add_2":"宮川"},"6430033":{"post_code":"6430033","prefecture":"WAKAYAMA KEN","city":"ARIDA GUN ARIDAGAWA CHO","town":"MYOJI","perfecture_jp":"和歌山県","jp_add_1":"有田郡有田川町","jp_add_2":"明王寺"},"6430515":{"post_code":"6430515","prefecture":"WAKAYAMA KEN","city":"ARIDA GUN ARIDAGAWA CHO","town":"MUROGAWA","perfecture_jp":"和歌山県","jp_add_1":"有田郡有田川町","jp_add_2":"室川"},"6430166":{"post_code":"6430166","prefecture":"WAKAYAMA KEN","city":"ARIDA GUN ARIDAGAWA CHO","town":"YOSHIHARA","perfecture_jp":"和歌山県","jp_add_1":"有田郡有田川町","jp_add_2":"吉原"},"6430802":{"post_code":"6430802","prefecture":"WAKAYAMA KEN","city":"ARIDA GUN ARIDAGAWA CHO","town":"YOSHIMI","perfecture_jp":"和歌山県","jp_add_1":"有田郡有田川町","jp_add_2":"吉見"}}