{"6450303":{"post_code":"6450303","prefecture":"WAKAYAMA KEN","city":"TANABE SHI","town":"RYUJIMMURA OIE","perfecture_jp":"和歌山県","jp_add_1":"田辺市","jp_add_2":"龍神村小家"},"6450302":{"post_code":"6450302","prefecture":"WAKAYAMA KEN","city":"TANABE SHI","town":"RYUJIMMURA KAINOGAWA","perfecture_jp":"和歌山県","jp_add_1":"田辺市","jp_add_2":"龍神村甲斐ノ川"},"6450521":{"post_code":"6450521","prefecture":"WAKAYAMA KEN","city":"TANABE SHI","town":"RYUJIMMURA KOMATAGAWA","perfecture_jp":"和歌山県","jp_add_1":"田辺市","jp_add_2":"龍神村小又川"},"6450413":{"post_code":"6450413","prefecture":"WAKAYAMA KEN","city":"TANABE SHI","town":"RYUJIMMURA TONOHARA","perfecture_jp":"和歌山県","jp_add_1":"田辺市","jp_add_2":"龍神村殿原"},"6450415":{"post_code":"6450415","prefecture":"WAKAYAMA KEN","city":"TANABE SHI","town":"RYUJIMMURA NISHI","perfecture_jp":"和歌山県","jp_add_1":"田辺市","jp_add_2":"龍神村西"},"6450412":{"post_code":"6450412","prefecture":"WAKAYAMA KEN","city":"TANABE SHI","town":"RYUJIMMURA NYUNOGAWA","perfecture_jp":"和歌山県","jp_add_1":"田辺市","jp_add_2":"龍神村丹生ノ川"},"6450414":{"post_code":"6450414","prefecture":"WAKAYAMA KEN","city":"TANABE SHI","town":"RYUJIMMURA HIGASHI","perfecture_jp":"和歌山県","jp_add_1":"田辺市","jp_add_2":"龍神村東"},"6450523":{"post_code":"6450523","prefecture":"WAKAYAMA KEN","city":"TANABE SHI","town":"RYUJIMMURA HIROIHARA","perfecture_jp":"和歌山県","jp_add_1":"田辺市","jp_add_2":"龍神村広井原"},"6450301":{"post_code":"6450301","prefecture":"WAKAYAMA KEN","city":"TANABE SHI","town":"RYUJIMMURA FUKUI","perfecture_jp":"和歌山県","jp_add_1":"田辺市","jp_add_2":"龍神村福井"},"6450522":{"post_code":"6450522","prefecture":"WAKAYAMA KEN","city":"TANABE SHI","town":"RYUJIMMURA MITSUMATA","perfecture_jp":"和歌山県","jp_add_1":"田辺市","jp_add_2":"龍神村三ツ又"},"6450411":{"post_code":"6450411","prefecture":"WAKAYAMA KEN","city":"TANABE SHI","town":"RYUJIMMURA MIYASHIRO","perfecture_jp":"和歌山県","jp_add_1":"田辺市","jp_add_2":"龍神村宮代"},"6450416":{"post_code":"6450416","prefecture":"WAKAYAMA KEN","city":"TANABE SHI","town":"RYUJIMMURA YASUI","perfecture_jp":"和歌山県","jp_add_1":"田辺市","jp_add_2":"龍神村安井"},"6450417":{"post_code":"6450417","prefecture":"WAKAYAMA KEN","city":"TANABE SHI","town":"RYUJIMMURA YANASE","perfecture_jp":"和歌山県","jp_add_1":"田辺市","jp_add_2":"龍神村柳瀬"},"6450524":{"post_code":"6450524","prefecture":"WAKAYAMA KEN","city":"TANABE SHI","town":"RYUJIMMURA YUNOMATA","perfecture_jp":"和歌山県","jp_add_1":"田辺市","jp_add_2":"龍神村湯ノ又"},"6450525":{"post_code":"6450525","prefecture":"WAKAYAMA KEN","city":"TANABE SHI","town":"RYUJIMMURA RYUJIN","perfecture_jp":"和歌山県","jp_add_1":"田辺市","jp_add_2":"龍神村龍神"},"6450000":{"post_code":"6450000","prefecture":"WAKAYAMA KEN","city":"HIDAKA GUN MINABE CHO","town":"IKANIKEISAIGANAIBAAI","perfecture_jp":"和歌山県","jp_add_1":"日高郡みなべ町","jp_add_2":""},"6450208":{"post_code":"6450208","prefecture":"WAKAYAMA KEN","city":"HIDAKA GUN MINABE CHO","town":"ICHIIGAWA","perfecture_jp":"和歌山県","jp_add_1":"日高郡みなべ町","jp_add_2":"市井川"},"6450022":{"post_code":"6450022","prefecture":"WAKAYAMA KEN","city":"HIDAKA GUN MINABE CHO","town":"OSHINE","perfecture_jp":"和歌山県","jp_add_1":"日高郡みなべ町","jp_add_2":"晩稲"},"6450011":{"post_code":"6450011","prefecture":"WAKAYAMA KEN","city":"HIDAKA GUN MINABE CHO","town":"KISATO","perfecture_jp":"和歌山県","jp_add_1":"日高郡みなべ町","jp_add_2":"気佐藤"},"6450006":{"post_code":"6450006","prefecture":"WAKAYAMA KEN","city":"HIDAKA GUN MINABE CHO","town":"KITADO","perfecture_jp":"和歌山県","jp_add_1":"日高郡みなべ町","jp_add_2":"北道"},"6450201":{"post_code":"6450201","prefecture":"WAKAYAMA KEN","city":"HIDAKA GUN MINABE CHO","town":"KIYOKAWA","perfecture_jp":"和歌山県","jp_add_1":"日高郡みなべ町","jp_add_2":"清川"},"6450023":{"post_code":"6450023","prefecture":"WAKAYAMA KEN","city":"HIDAKA GUN MINABE CHO","town":"KUMAOKA","perfecture_jp":"和歌山県","jp_add_1":"日高郡みなべ町","jp_add_2":"熊岡"},"6450028":{"post_code":"6450028","prefecture":"WAKAYAMA KEN","city":"HIDAKA GUN MINABE CHO","town":"KUMASEGAWA","perfecture_jp":"和歌山県","jp_add_1":"日高郡みなべ町","jp_add_2":"熊瀬川"},"6450003":{"post_code":"6450003","prefecture":"WAKAYAMA KEN","city":"HIDAKA GUN MINABE CHO","town":"SAKAI","perfecture_jp":"和歌山県","jp_add_1":"日高郡みなべ町","jp_add_2":"堺"},"6450002":{"post_code":"6450002","prefecture":"WAKAYAMA KEN","city":"HIDAKA GUN MINABE CHO","town":"SHIBA","perfecture_jp":"和歌山県","jp_add_1":"日高郡みなべ町","jp_add_2":"芝"},"6450203":{"post_code":"6450203","prefecture":"WAKAYAMA KEN","city":"HIDAKA GUN MINABE CHO","town":"SHIMANOSE","perfecture_jp":"和歌山県","jp_add_1":"日高郡みなべ町","jp_add_2":"島之瀬"},"6450025":{"post_code":"6450025","prefecture":"WAKAYAMA KEN","city":"HIDAKA GUN MINABE CHO","town":"SUJI","perfecture_jp":"和歌山県","jp_add_1":"日高郡みなべ町","jp_add_2":"筋"},"6450207":{"post_code":"6450207","prefecture":"WAKAYAMA KEN","city":"HIDAKA GUN MINABE CHO","town":"TAKANO","perfecture_jp":"和歌山県","jp_add_1":"日高郡みなべ町","jp_add_2":"高野"},"6450205":{"post_code":"6450205","prefecture":"WAKAYAMA KEN","city":"HIDAKA GUN MINABE CHO","town":"TAKI","perfecture_jp":"和歌山県","jp_add_1":"日高郡みなべ町","jp_add_2":"滝"},"6450026":{"post_code":"6450026","prefecture":"WAKAYAMA KEN","city":"HIDAKA GUN MINABE CHO","town":"TANIGUCHI","perfecture_jp":"和歌山県","jp_add_1":"日高郡みなべ町","jp_add_2":"谷口"},"6450206":{"post_code":"6450206","prefecture":"WAKAYAMA KEN","city":"HIDAKA GUN MINABE CHO","town":"DOI","perfecture_jp":"和歌山県","jp_add_1":"日高郡みなべ町","jp_add_2":"土井"},"6450024":{"post_code":"6450024","prefecture":"WAKAYAMA KEN","city":"HIDAKA GUN MINABE CHO","town":"TOKUZO","perfecture_jp":"和歌山県","jp_add_1":"日高郡みなべ町","jp_add_2":"徳蔵"},"6450014":{"post_code":"6450014","prefecture":"WAKAYAMA KEN","city":"HIDAKA GUN MINABE CHO","town":"NISHIIWASHIRO","perfecture_jp":"和歌山県","jp_add_1":"日高郡みなべ町","jp_add_2":"西岩代"},"6450027":{"post_code":"6450027","prefecture":"WAKAYAMA KEN","city":"HIDAKA GUN MINABE CHO","town":"NISHIHONJO","perfecture_jp":"和歌山県","jp_add_1":"日高郡みなべ町","jp_add_2":"西本庄"},"6450004":{"post_code":"6450004","prefecture":"WAKAYAMA KEN","city":"HIDAKA GUN MINABE CHO","town":"HANETA","perfecture_jp":"和歌山県","jp_add_1":"日高郡みなべ町","jp_add_2":"埴田"},"6450013":{"post_code":"6450013","prefecture":"WAKAYAMA KEN","city":"HIDAKA GUN MINABE CHO","town":"HIGASHIIWASHIRO","perfecture_jp":"和歌山県","jp_add_1":"日高郡みなべ町","jp_add_2":"東岩代"},"6450202":{"post_code":"6450202","prefecture":"WAKAYAMA KEN","city":"HIDAKA GUN MINABE CHO","town":"HIGASHIKONOGAWA","perfecture_jp":"和歌山県","jp_add_1":"日高郡みなべ町","jp_add_2":"東神野川"},"6450021":{"post_code":"6450021","prefecture":"WAKAYAMA KEN","city":"HIDAKA GUN MINABE CHO","town":"HIGASHIHONJO","perfecture_jp":"和歌山県","jp_add_1":"日高郡みなべ町","jp_add_2":"東本庄"},"6450001":{"post_code":"6450001","prefecture":"WAKAYAMA KEN","city":"HIDAKA GUN MINABE CHO","town":"HIGASHIYOSHIDA","perfecture_jp":"和歌山県","jp_add_1":"日高郡みなべ町","jp_add_2":"東吉田"},"6450204":{"post_code":"6450204","prefecture":"WAKAYAMA KEN","city":"HIDAKA GUN MINABE CHO","town":"HIRONO","perfecture_jp":"和歌山県","jp_add_1":"日高郡みなべ町","jp_add_2":"広野"},"6450005":{"post_code":"6450005","prefecture":"WAKAYAMA KEN","city":"HIDAKA GUN MINABE CHO","town":"MINAMIDO","perfecture_jp":"和歌山県","jp_add_1":"日高郡みなべ町","jp_add_2":"南道"},"6450012":{"post_code":"6450012","prefecture":"WAKAYAMA KEN","city":"HIDAKA GUN MINABE CHO","town":"YAMAUCHI","perfecture_jp":"和歌山県","jp_add_1":"日高郡みなべ町","jp_add_2":"山内"},"6450551":{"post_code":"6450551","prefecture":"WAKAYAMA KEN","city":"HIDAKA GUN HIDAKAGAWA CHO","town":"SOGAWA(OGAWA)","perfecture_jp":"和歌山県","jp_add_1":"日高郡日高川町","jp_add_2":"寒川"}}