{"6460000":{"post_code":"6460000","prefecture":"WAKAYAMA KEN","city":"TANABE SHI","town":"IKANIKEISAIGANAIBAAI","perfecture_jp":"和歌山県","jp_add_1":"田辺市","jp_add_2":""},"6460102":{"post_code":"6460102","prefecture":"WAKAYAMA KEN","city":"TANABE SHI","town":"AKIZUGAWA","perfecture_jp":"和歌山県","jp_add_1":"田辺市","jp_add_2":"秋津川"},"6460005":{"post_code":"6460005","prefecture":"WAKAYAMA KEN","city":"TANABE SHI","town":"AKIZUCHO","perfecture_jp":"和歌山県","jp_add_1":"田辺市","jp_add_2":"秋津町"},"6460021":{"post_code":"6460021","prefecture":"WAKAYAMA KEN","city":"TANABE SHI","town":"AKEBONO","perfecture_jp":"和歌山県","jp_add_1":"田辺市","jp_add_2":"あけぼの"},"6460027":{"post_code":"6460027","prefecture":"WAKAYAMA KEN","city":"TANABE SHI","town":"ASAHIGAOKA","perfecture_jp":"和歌山県","jp_add_1":"田辺市","jp_add_2":"朝日ヶ丘"},"6461101":{"post_code":"6461101","prefecture":"WAKAYAMA KEN","city":"TANABE SHI","town":"AYUKAWA","perfecture_jp":"和歌山県","jp_add_1":"田辺市","jp_add_2":"鮎川"},"6460037":{"post_code":"6460037","prefecture":"WAKAYAMA KEN","city":"TANABE SHI","town":"ISOMA","perfecture_jp":"和歌山県","jp_add_1":"田辺市","jp_add_2":"磯間"},"6460051":{"post_code":"6460051","prefecture":"WAKAYAMA KEN","city":"TANABE SHI","town":"INARICHO","perfecture_jp":"和歌山県","jp_add_1":"田辺市","jp_add_2":"稲成町"},"6460043":{"post_code":"6460043","prefecture":"WAKAYAMA KEN","city":"TANABE SHI","town":"IMAFUKUMACHI","perfecture_jp":"和歌山県","jp_add_1":"田辺市","jp_add_2":"今福町"},"6461321":{"post_code":"6461321","prefecture":"WAKAYAMA KEN","city":"TANABE SHI","town":"IYA","perfecture_jp":"和歌山県","jp_add_1":"田辺市","jp_add_2":"熊野"},"6460212":{"post_code":"6460212","prefecture":"WAKAYAMA KEN","city":"TANABE SHI","town":"UENO","perfecture_jp":"和歌山県","jp_add_1":"田辺市","jp_add_2":"上野"},"6460061":{"post_code":"6460061","prefecture":"WAKAYAMA KEN","city":"TANABE SHI","town":"UENOYAMA","perfecture_jp":"和歌山県","jp_add_1":"田辺市","jp_add_2":"上の山"},"6460054":{"post_code":"6460054","prefecture":"WAKAYAMA KEN","city":"TANABE SHI","town":"EGAWA","perfecture_jp":"和歌山県","jp_add_1":"田辺市","jp_add_2":"江川"},"6460034":{"post_code":"6460034","prefecture":"WAKAYAMA KEN","city":"TANABE SHI","town":"OGIGAHAMA","perfecture_jp":"和歌山県","jp_add_1":"田辺市","jp_add_2":"扇ケ浜"},"6460024":{"post_code":"6460024","prefecture":"WAKAYAMA KEN","city":"TANABE SHI","town":"GAKUEN","perfecture_jp":"和歌山県","jp_add_1":"田辺市","jp_add_2":"学園"},"6460012":{"post_code":"6460012","prefecture":"WAKAYAMA KEN","city":"TANABE SHI","town":"KASHIMADAI","perfecture_jp":"和歌山県","jp_add_1":"田辺市","jp_add_2":"神島台"},"6460045":{"post_code":"6460045","prefecture":"WAKAYAMA KEN","city":"TANABE SHI","town":"KATAMACHI","perfecture_jp":"和歌山県","jp_add_1":"田辺市","jp_add_2":"片町"},"6460001":{"post_code":"6460001","prefecture":"WAKAYAMA KEN","city":"TANABE SHI","town":"KAMIAKIZU","perfecture_jp":"和歌山県","jp_add_1":"田辺市","jp_add_2":"上秋津"},"6460101":{"post_code":"6460101","prefecture":"WAKAYAMA KEN","city":"TANABE SHI","town":"KAMIHAYA","perfecture_jp":"和歌山県","jp_add_1":"田辺市","jp_add_2":"上芳養"},"6460002":{"post_code":"6460002","prefecture":"WAKAYAMA KEN","city":"TANABE SHI","town":"KAMIMARO","perfecture_jp":"和歌山県","jp_add_1":"田辺市","jp_add_2":"上万呂"},"6460214":{"post_code":"6460214","prefecture":"WAKAYAMA KEN","city":"TANABE SHI","town":"KAMIMISU","perfecture_jp":"和歌山県","jp_add_1":"田辺市","jp_add_2":"上三栖"},"6460036":{"post_code":"6460036","prefecture":"WAKAYAMA KEN","city":"TANABE SHI","town":"KAMIYASHIKI","perfecture_jp":"和歌山県","jp_add_1":"田辺市","jp_add_2":"上屋敷"},"6460041":{"post_code":"6460041","prefecture":"WAKAYAMA KEN","city":"TANABE SHI","town":"KITASHIMMACHI","perfecture_jp":"和歌山県","jp_add_1":"田辺市","jp_add_2":"北新町"},"6461334":{"post_code":"6461334","prefecture":"WAKAYAMA KEN","city":"TANABE SHI","town":"KUGAWA","perfecture_jp":"和歌山県","jp_add_1":"田辺市","jp_add_2":"九川"},"6461335":{"post_code":"6461335","prefecture":"WAKAYAMA KEN","city":"TANABE SHI","town":"KUSHI","perfecture_jp":"和歌山県","jp_add_1":"田辺市","jp_add_2":"串"},"6461338":{"post_code":"6461338","prefecture":"WAKAYAMA KEN","city":"TANABE SHI","town":"GOGAWA","perfecture_jp":"和歌山県","jp_add_1":"田辺市","jp_add_2":"合川"},"6461325":{"post_code":"6461325","prefecture":"WAKAYAMA KEN","city":"TANABE SHI","town":"KODANI","perfecture_jp":"和歌山県","jp_add_1":"田辺市","jp_add_2":"小谷"},"6461332":{"post_code":"6461332","prefecture":"WAKAYAMA KEN","city":"TANABE SHI","town":"GOMI","perfecture_jp":"和歌山県","jp_add_1":"田辺市","jp_add_2":"五味"},"6461331":{"post_code":"6461331","prefecture":"WAKAYAMA KEN","city":"TANABE SHI","town":"KOMORI","perfecture_jp":"和歌山県","jp_add_1":"田辺市","jp_add_2":"木守"},"6460047":{"post_code":"6460047","prefecture":"WAKAYAMA KEN","city":"TANABE SHI","town":"KONYAMACHI","perfecture_jp":"和歌山県","jp_add_1":"田辺市","jp_add_2":"紺屋町"},"6460048":{"post_code":"6460048","prefecture":"WAKAYAMA KEN","city":"TANABE SHI","town":"SAKAEMACHI","perfecture_jp":"和歌山県","jp_add_1":"田辺市","jp_add_2":"栄町"},"6461212":{"post_code":"6461212","prefecture":"WAKAYAMA KEN","city":"TANABE SHI","town":"SHIMOGAWAKAMI","perfecture_jp":"和歌山県","jp_add_1":"田辺市","jp_add_2":"下川上"},"6461213":{"post_code":"6461213","prefecture":"WAKAYAMA KEN","city":"TANABE SHI","town":"SHIMOGAWASHIMO","perfecture_jp":"和歌山県","jp_add_1":"田辺市","jp_add_2":"下川下"},"6461337":{"post_code":"6461337","prefecture":"WAKAYAMA KEN","city":"TANABE SHI","town":"SHIMOTSUYU","perfecture_jp":"和歌山県","jp_add_1":"田辺市","jp_add_2":"下露"},"6460004":{"post_code":"6460004","prefecture":"WAKAYAMA KEN","city":"TANABE SHI","town":"SHIMOMARO","perfecture_jp":"和歌山県","jp_add_1":"田辺市","jp_add_2":"下万呂"},"6460216":{"post_code":"6460216","prefecture":"WAKAYAMA KEN","city":"TANABE SHI","town":"SHIMOMISU","perfecture_jp":"和歌山県","jp_add_1":"田辺市","jp_add_2":"下三栖"},"6460032":{"post_code":"6460032","prefecture":"WAKAYAMA KEN","city":"TANABE SHI","town":"SHIMOYASHIKIMACHI","perfecture_jp":"和歌山県","jp_add_1":"田辺市","jp_add_2":"下屋敷町"},"6460217":{"post_code":"6460217","prefecture":"WAKAYAMA KEN","city":"TANABE SHI","town":"SHIROYAMADAI","perfecture_jp":"和歌山県","jp_add_1":"田辺市","jp_add_2":"城山台"},"6460011":{"post_code":"6460011","prefecture":"WAKAYAMA KEN","city":"TANABE SHI","town":"SHINJOCHO","perfecture_jp":"和歌山県","jp_add_1":"田辺市","jp_add_2":"新庄町"},"6460014":{"post_code":"6460014","prefecture":"WAKAYAMA KEN","city":"TANABE SHI","town":"SHIMMAN","perfecture_jp":"和歌山県","jp_add_1":"田辺市","jp_add_2":"新万"},"6460033":{"post_code":"6460033","prefecture":"WAKAYAMA KEN","city":"TANABE SHI","town":"SHINYASHIKIMACHI","perfecture_jp":"和歌山県","jp_add_1":"田辺市","jp_add_2":"新屋敷町"},"6460038":{"post_code":"6460038","prefecture":"WAKAYAMA KEN","city":"TANABE SHI","town":"SUEHIROCHO","perfecture_jp":"和歌山県","jp_add_1":"田辺市","jp_add_2":"末広町"},"6460028":{"post_code":"6460028","prefecture":"WAKAYAMA KEN","city":"TANABE SHI","town":"TAKAO","perfecture_jp":"和歌山県","jp_add_1":"田辺市","jp_add_2":"高雄"},"6460015":{"post_code":"6460015","prefecture":"WAKAYAMA KEN","city":"TANABE SHI","town":"TAKINAICHO","perfecture_jp":"和歌山県","jp_add_1":"田辺市","jp_add_2":"たきない町"},"6461324":{"post_code":"6461324","prefecture":"WAKAYAMA KEN","city":"TANABE SHI","town":"TAKENOTAIRA","perfecture_jp":"和歌山県","jp_add_1":"田辺市","jp_add_2":"竹ノ平"},"6461336":{"post_code":"6461336","prefecture":"WAKAYAMA KEN","city":"TANABE SHI","town":"TANINOKUCHI","perfecture_jp":"和歌山県","jp_add_1":"田辺市","jp_add_2":"谷野口"},"6460050":{"post_code":"6460050","prefecture":"WAKAYAMA KEN","city":"TANABE SHI","town":"TENJINZAKI","perfecture_jp":"和歌山県","jp_add_1":"田辺市","jp_add_2":"天神崎"},"6460029":{"post_code":"6460029","prefecture":"WAKAYAMA KEN","city":"TANABE SHI","town":"TOYO","perfecture_jp":"和歌山県","jp_add_1":"田辺市","jp_add_2":"東陽"},"6461339":{"post_code":"6461339","prefecture":"WAKAYAMA KEN","city":"TANABE SHI","town":"NAGASE","perfecture_jp":"和歌山県","jp_add_1":"田辺市","jp_add_2":"長瀬"},"6460057":{"post_code":"6460057","prefecture":"WAKAYAMA KEN","city":"TANABE SHI","town":"NAKAHAYA","perfecture_jp":"和歌山県","jp_add_1":"田辺市","jp_add_2":"中芳養"},"6461412":{"post_code":"6461412","prefecture":"WAKAYAMA KEN","city":"TANABE SHI","town":"NAKAHECHICHO ISHIBURI","perfecture_jp":"和歌山県","jp_add_1":"田辺市","jp_add_2":"中辺路町石船"},"6461439":{"post_code":"6461439","prefecture":"WAKAYAMA KEN","city":"TANABE SHI","town":"NAKAHECHICHO UCHIIGAWA","perfecture_jp":"和歌山県","jp_add_1":"田辺市","jp_add_2":"中辺路町内井川"},"6461411":{"post_code":"6461411","prefecture":"WAKAYAMA KEN","city":"TANABE SHI","town":"NAKAHECHICHO OUCHIGAWA","perfecture_jp":"和歌山県","jp_add_1":"田辺市","jp_add_2":"中辺路町大内川"},"6461433":{"post_code":"6461433","prefecture":"WAKAYAMA KEN","city":"TANABE SHI","town":"NAKAHECHICHO OKAWA","perfecture_jp":"和歌山県","jp_add_1":"田辺市","jp_add_2":"中辺路町大川"},"6461417":{"post_code":"6461417","prefecture":"WAKAYAMA KEN","city":"TANABE SHI","town":"NAKAHECHICHO KAWAI","perfecture_jp":"和歌山県","jp_add_1":"田辺市","jp_add_2":"中辺路町川合"},"6461436":{"post_code":"6461436","prefecture":"WAKAYAMA KEN","city":"TANABE SHI","town":"NAKAHECHICHO KUMANOGAWA","perfecture_jp":"和歌山県","jp_add_1":"田辺市","jp_add_2":"中辺路町熊野川"},"6461421":{"post_code":"6461421","prefecture":"WAKAYAMA KEN","city":"TANABE SHI","town":"NAKAHECHICHO KURISUGAWA","perfecture_jp":"和歌山県","jp_add_1":"田辺市","jp_add_2":"中辺路町栗栖川"},"6461435":{"post_code":"6461435","prefecture":"WAKAYAMA KEN","city":"TANABE SHI","town":"NAKAHECHICHO KOKAI","perfecture_jp":"和歌山県","jp_add_1":"田辺市","jp_add_2":"中辺路町小皆"},"6461431":{"post_code":"6461431","prefecture":"WAKAYAMA KEN","city":"TANABE SHI","town":"NAKAHECHICHO KOMATSUBARA","perfecture_jp":"和歌山県","jp_add_1":"田辺市","jp_add_2":"中辺路町小松原"},"6461437":{"post_code":"6461437","prefecture":"WAKAYAMA KEN","city":"TANABE SHI","town":"NAKAHECHICHO SAWA","perfecture_jp":"和歌山県","jp_add_1":"田辺市","jp_add_2":"中辺路町沢"},"6461416":{"post_code":"6461416","prefecture":"WAKAYAMA KEN","city":"TANABE SHI","town":"NAKAHECHICHO TAKAHARA","perfecture_jp":"和歌山県","jp_add_1":"田辺市","jp_add_2":"中辺路町高原"},"6461402":{"post_code":"6461402","prefecture":"WAKAYAMA KEN","city":"TANABE SHI","town":"NAKAHECHICHO CHIKATSUYU","perfecture_jp":"和歌山県","jp_add_1":"田辺市","jp_add_2":"中辺路町近露"},"6461414":{"post_code":"6461414","prefecture":"WAKAYAMA KEN","city":"TANABE SHI","town":"NAKAHECHICHO NISHIDANI","perfecture_jp":"和歌山県","jp_add_1":"田辺市","jp_add_2":"中辺路町西谷"},"6461434":{"post_code":"6461434","prefecture":"WAKAYAMA KEN","city":"TANABE SHI","town":"NAKAHECHICHO NURUMIGAWA","perfecture_jp":"和歌山県","jp_add_1":"田辺市","jp_add_2":"中辺路町温川"},"6461401":{"post_code":"6461401","prefecture":"WAKAYAMA KEN","city":"TANABE SHI","town":"NAKAHECHICHO NONAKA","perfecture_jp":"和歌山県","jp_add_1":"田辺市","jp_add_2":"中辺路町野中"},"6461432":{"post_code":"6461432","prefecture":"WAKAYAMA KEN","city":"TANABE SHI","town":"NAKAHECHICHO FUKUSADA","perfecture_jp":"和歌山県","jp_add_1":"田辺市","jp_add_2":"中辺路町福定"},"6461413":{"post_code":"6461413","prefecture":"WAKAYAMA KEN","city":"TANABE SHI","town":"NAKAHECHICHO HOKUSOGI","perfecture_jp":"和歌山県","jp_add_1":"田辺市","jp_add_2":"中辺路町北郡"},"6461415":{"post_code":"6461415","prefecture":"WAKAYAMA KEN","city":"TANABE SHI","town":"NAKAHECHICHO MANAGO","perfecture_jp":"和歌山県","jp_add_1":"田辺市","jp_add_2":"中辺路町真砂"},"6461438":{"post_code":"6461438","prefecture":"WAKAYAMA KEN","city":"TANABE SHI","town":"NAKAHECHICHO MIZUKAMI","perfecture_jp":"和歌山県","jp_add_1":"田辺市","jp_add_2":"中辺路町水上"},"6460003":{"post_code":"6460003","prefecture":"WAKAYAMA KEN","city":"TANABE SHI","town":"NAKAMARO","perfecture_jp":"和歌山県","jp_add_1":"田辺市","jp_add_2":"中万呂"},"6460215":{"post_code":"6460215","prefecture":"WAKAYAMA KEN","city":"TANABE SHI","town":"NAKAMISU","perfecture_jp":"和歌山県","jp_add_1":"田辺市","jp_add_2":"中三栖"},"6460035":{"post_code":"6460035","prefecture":"WAKAYAMA KEN","city":"TANABE SHI","town":"NAKAYASHIKIMACHI","perfecture_jp":"和歌山県","jp_add_1":"田辺市","jp_add_2":"中屋敷町"},"6460213":{"post_code":"6460213","prefecture":"WAKAYAMA KEN","city":"TANABE SHI","town":"NAGANO","perfecture_jp":"和歌山県","jp_add_1":"田辺市","jp_add_2":"長野"},"6460056":{"post_code":"6460056","prefecture":"WAKAYAMA KEN","city":"TANABE SHI","town":"HAYACHO","perfecture_jp":"和歌山県","jp_add_1":"田辺市","jp_add_2":"芳養町"},"6460063":{"post_code":"6460063","prefecture":"WAKAYAMA KEN","city":"TANABE SHI","town":"HAYAMATSUBARA","perfecture_jp":"和歌山県","jp_add_1":"田辺市","jp_add_2":"芳養松原"},"6461333":{"post_code":"6461333","prefecture":"WAKAYAMA KEN","city":"TANABE SHI","town":"HIGASHIFUDONO","perfecture_jp":"和歌山県","jp_add_1":"田辺市","jp_add_2":"東伏菟野"},"6460022":{"post_code":"6460022","prefecture":"WAKAYAMA KEN","city":"TANABE SHI","town":"HIGASHIYAMA","perfecture_jp":"和歌山県","jp_add_1":"田辺市","jp_add_2":"東山"},"6461214":{"post_code":"6461214","prefecture":"WAKAYAMA KEN","city":"TANABE SHI","town":"HIRASE","perfecture_jp":"和歌山県","jp_add_1":"田辺市","jp_add_2":"平瀬"},"6461326":{"post_code":"6461326","prefecture":"WAKAYAMA KEN","city":"TANABE SHI","town":"FUKATANI","perfecture_jp":"和歌山県","jp_add_1":"田辺市","jp_add_2":"深谷"},"6460044":{"post_code":"6460044","prefecture":"WAKAYAMA KEN","city":"TANABE SHI","town":"FUKUROMACHI","perfecture_jp":"和歌山県","jp_add_1":"田辺市","jp_add_2":"福路町"},"6460211":{"post_code":"6460211","prefecture":"WAKAYAMA KEN","city":"TANABE SHI","town":"FUDONO","perfecture_jp":"和歌山県","jp_add_1":"田辺市","jp_add_2":"伏菟野"},"6460059":{"post_code":"6460059","prefecture":"WAKAYAMA KEN","city":"TANABE SHI","town":"FURUO","perfecture_jp":"和歌山県","jp_add_1":"田辺市","jp_add_2":"古尾"},"6460026":{"post_code":"6460026","prefecture":"WAKAYAMA KEN","city":"TANABE SHI","town":"HORAICHO","perfecture_jp":"和歌山県","jp_add_1":"田辺市","jp_add_2":"宝来町"},"6460046":{"post_code":"6460046","prefecture":"WAKAYAMA KEN","city":"TANABE SHI","town":"HOMMACHI","perfecture_jp":"和歌山県","jp_add_1":"田辺市","jp_add_2":"本町"},"6460025":{"post_code":"6460025","prefecture":"WAKAYAMA KEN","city":"TANABE SHI","town":"MIKONOHAMA","perfecture_jp":"和歌山県","jp_add_1":"田辺市","jp_add_2":"神子浜"},"6460031":{"post_code":"6460031","prefecture":"WAKAYAMA KEN","city":"TANABE SHI","town":"MINATO","perfecture_jp":"和歌山県","jp_add_1":"田辺市","jp_add_2":"湊"},"6460042":{"post_code":"6460042","prefecture":"WAKAYAMA KEN","city":"TANABE SHI","town":"MINAMISHIMMACHI","perfecture_jp":"和歌山県","jp_add_1":"田辺市","jp_add_2":"南新町"},"6460013":{"post_code":"6460013","prefecture":"WAKAYAMA KEN","city":"TANABE SHI","town":"MINAMISHIMMAN","perfecture_jp":"和歌山県","jp_add_1":"田辺市","jp_add_2":"南新万"},"6461323":{"post_code":"6461323","prefecture":"WAKAYAMA KEN","city":"TANABE SHI","town":"MUKAIYAMA","perfecture_jp":"和歌山県","jp_add_1":"田辺市","jp_add_2":"向山"},"6460052":{"post_code":"6460052","prefecture":"WAKAYAMA KEN","city":"TANABE SHI","town":"MUTSUMI","perfecture_jp":"和歌山県","jp_add_1":"田辺市","jp_add_2":"むつみ"},"6460062":{"post_code":"6460062","prefecture":"WAKAYAMA KEN","city":"TANABE SHI","town":"MEIYO","perfecture_jp":"和歌山県","jp_add_1":"田辺市","jp_add_2":"明洋"},"6460058":{"post_code":"6460058","prefecture":"WAKAYAMA KEN","city":"TANABE SHI","town":"MERA","perfecture_jp":"和歌山県","jp_add_1":"田辺市","jp_add_2":"目良"},"6461322":{"post_code":"6461322","prefecture":"WAKAYAMA KEN","city":"TANABE SHI","town":"MENGAWA","perfecture_jp":"和歌山県","jp_add_1":"田辺市","jp_add_2":"面川"},"6460053":{"post_code":"6460053","prefecture":"WAKAYAMA KEN","city":"TANABE SHI","town":"MOTOMACHI","perfecture_jp":"和歌山県","jp_add_1":"田辺市","jp_add_2":"元町"},"6460023":{"post_code":"6460023","prefecture":"WAKAYAMA KEN","city":"TANABE SHI","town":"MORI","perfecture_jp":"和歌山県","jp_add_1":"田辺市","jp_add_2":"文里"},"6461211":{"post_code":"6461211","prefecture":"WAKAYAMA KEN","city":"TANABE SHI","town":"WADA","perfecture_jp":"和歌山県","jp_add_1":"田辺市","jp_add_2":"和田"},"6460301":{"post_code":"6460301","prefecture":"WAKAYAMA KEN","city":"NISHIMURO GUN SHIRAHAMA CHO","town":"ICHIKANO","perfecture_jp":"和歌山県","jp_add_1":"西牟婁郡白浜町","jp_add_2":"市鹿野"},"6460312":{"post_code":"6460312","prefecture":"WAKAYAMA KEN","city":"NISHIMURO GUN SHIRAHAMA CHO","town":"O","perfecture_jp":"和歌山県","jp_add_1":"西牟婁郡白浜町","jp_add_2":"大"},"6460303":{"post_code":"6460303","prefecture":"WAKAYAMA KEN","city":"NISHIMURO GUN SHIRAHAMA CHO","town":"OSE","perfecture_jp":"和歌山県","jp_add_1":"西牟婁郡白浜町","jp_add_2":"大瀬"},"6460311":{"post_code":"6460311","prefecture":"WAKAYAMA KEN","city":"NISHIMURO GUN SHIRAHAMA CHO","town":"OBUSA","perfecture_jp":"和歌山県","jp_add_1":"西牟婁郡白浜町","jp_add_2":"小房"},"6460305":{"post_code":"6460305","prefecture":"WAKAYAMA KEN","city":"NISHIMURO GUN SHIRAHAMA CHO","town":"KITADANI","perfecture_jp":"和歌山県","jp_add_1":"西牟婁郡白浜町","jp_add_2":"北谷"},"6460302":{"post_code":"6460302","prefecture":"WAKAYAMA KEN","city":"NISHIMURO GUN SHIRAHAMA CHO","town":"KOZUYU","perfecture_jp":"和歌山県","jp_add_1":"西牟婁郡白浜町","jp_add_2":"上露"},"6460314":{"post_code":"6460314","prefecture":"WAKAYAMA KEN","city":"NISHIMURO GUN SHIRAHAMA CHO","town":"SATODANI","perfecture_jp":"和歌山県","jp_add_1":"西牟婁郡白浜町","jp_add_2":"里谷"},"6460304":{"post_code":"6460304","prefecture":"WAKAYAMA KEN","city":"NISHIMURO GUN SHIRAHAMA CHO","town":"TAKEGAITO","perfecture_jp":"和歌山県","jp_add_1":"西牟婁郡白浜町","jp_add_2":"竹垣内"},"6460313":{"post_code":"6460313","prefecture":"WAKAYAMA KEN","city":"NISHIMURO GUN SHIRAHAMA CHO","town":"TAMADE","perfecture_jp":"和歌山県","jp_add_1":"西牟婁郡白浜町","jp_add_2":"玉伝"}}