{"6480300":{"post_code":"6480300","prefecture":"NARA KEN","city":"YOSHINO GUN NOSEGAWA MURA","town":"IKANIKEISAIGANAIBAAI","perfecture_jp":"奈良県","jp_add_1":"吉野郡野迫川村","jp_add_2":""},"6480301":{"post_code":"6480301","prefecture":"NARA KEN","city":"YOSHINO GUN NOSEGAWA MURA","town":"IKETSUKAWA","perfecture_jp":"奈良県","jp_add_1":"吉野郡野迫川村","jp_add_2":"池津川"},"6480307":{"post_code":"6480307","prefecture":"NARA KEN","city":"YOSHINO GUN NOSEGAWA MURA","town":"KITAIMANISHI","perfecture_jp":"奈良県","jp_add_1":"吉野郡野迫川村","jp_add_2":"北今西"},"6480305":{"post_code":"6480305","prefecture":"NARA KEN","city":"YOSHINO GUN NOSEGAWA MURA","town":"KITAMATA","perfecture_jp":"奈良県","jp_add_1":"吉野郡野迫川村","jp_add_2":"北股"},"6480302":{"post_code":"6480302","prefecture":"NARA KEN","city":"YOSHINO GUN NOSEGAWA MURA","town":"SHION","perfecture_jp":"奈良県","jp_add_1":"吉野郡野迫川村","jp_add_2":"紫園"},"6480306":{"post_code":"6480306","prefecture":"NARA KEN","city":"YOSHINO GUN NOSEGAWA MURA","town":"TAIRA","perfecture_jp":"奈良県","jp_add_1":"吉野郡野迫川村","jp_add_2":"平"},"6480304":{"post_code":"6480304","prefecture":"NARA KEN","city":"YOSHINO GUN NOSEGAWA MURA","town":"TATERI","perfecture_jp":"奈良県","jp_add_1":"吉野郡野迫川村","jp_add_2":"立里"},"6480303":{"post_code":"6480303","prefecture":"NARA KEN","city":"YOSHINO GUN NOSEGAWA MURA","town":"NAKATSUGAWA","perfecture_jp":"奈良県","jp_add_1":"吉野郡野迫川村","jp_add_2":"中津川"},"6480308":{"post_code":"6480308","prefecture":"NARA KEN","city":"YOSHINO GUN NOSEGAWA MURA","town":"HINOKIMATA","perfecture_jp":"奈良県","jp_add_1":"吉野郡野迫川村","jp_add_2":"桧股"},"6480309":{"post_code":"6480309","prefecture":"NARA KEN","city":"YOSHINO GUN NOSEGAWA MURA","town":"YUMITEHARA","perfecture_jp":"奈良県","jp_add_1":"吉野郡野迫川村","jp_add_2":"弓手原"},"6480000":{"post_code":"6480000","prefecture":"WAKAYAMA KEN","city":"HASHIMOTO SHI","town":"IKANIKEISAIGANAIBAAI","perfecture_jp":"和歌山県","jp_add_1":"橋本市","jp_add_2":""},"6480022":{"post_code":"6480022","prefecture":"WAKAYAMA KEN","city":"HASHIMOTO SHI","town":"AKATSUKA","perfecture_jp":"和歌山県","jp_add_1":"橋本市","jp_add_2":"赤塚"},"6480019":{"post_code":"6480019","prefecture":"WAKAYAMA KEN","city":"HASHIMOTO SHI","town":"AYANODAI","perfecture_jp":"和歌山県","jp_add_1":"橋本市","jp_add_2":"あやの台"},"6480073":{"post_code":"6480073","prefecture":"WAKAYAMA KEN","city":"HASHIMOTO SHI","town":"ICHIWAKI","perfecture_jp":"和歌山県","jp_add_1":"橋本市","jp_add_2":"市脇"},"6480024":{"post_code":"6480024","prefecture":"WAKAYAMA KEN","city":"HASHIMOTO SHI","town":"UEDA","perfecture_jp":"和歌山県","jp_add_1":"橋本市","jp_add_2":"上田"},"6480071":{"post_code":"6480071","prefecture":"WAKAYAMA KEN","city":"HASHIMOTO SHI","town":"OHARATA","perfecture_jp":"和歌山県","jp_add_1":"橋本市","jp_add_2":"小原田"},"6480005":{"post_code":"6480005","prefecture":"WAKAYAMA KEN","city":"HASHIMOTO SHI","town":"OMINEDAI","perfecture_jp":"和歌山県","jp_add_1":"橋本市","jp_add_2":"小峰台"},"6480097":{"post_code":"6480097","prefecture":"WAKAYAMA KEN","city":"HASHIMOTO SHI","town":"KAKINOKIZAKA","perfecture_jp":"和歌山県","jp_add_1":"橋本市","jp_add_2":"柿の木坂"},"6480037":{"post_code":"6480037","prefecture":"WAKAYAMA KEN","city":"HASHIMOTO SHI","town":"KASHIKODO","perfecture_jp":"和歌山県","jp_add_1":"橋本市","jp_add_2":"賢堂"},"6480084":{"post_code":"6480084","prefecture":"WAKAYAMA KEN","city":"HASHIMOTO SHI","town":"KASEBARA","perfecture_jp":"和歌山県","jp_add_1":"橋本市","jp_add_2":"柏原"},"6480043":{"post_code":"6480043","prefecture":"WAKAYAMA KEN","city":"HASHIMOTO SHI","town":"KAMURO","perfecture_jp":"和歌山県","jp_add_1":"橋本市","jp_add_2":"学文路"},"6480085":{"post_code":"6480085","prefecture":"WAKAYAMA KEN","city":"HASHIMOTO SHI","town":"KISHIGAMI","perfecture_jp":"和歌山県","jp_add_1":"橋本市","jp_add_2":"岸上"},"6480061":{"post_code":"6480061","prefecture":"WAKAYAMA KEN","city":"HASHIMOTO SHI","town":"KITABABA","perfecture_jp":"和歌山県","jp_add_1":"橋本市","jp_add_2":"北馬場"},"6480033":{"post_code":"6480033","prefecture":"WAKAYAMA KEN","city":"HASHIMOTO SHI","town":"KITAYADORI","perfecture_jp":"和歌山県","jp_add_1":"橋本市","jp_add_2":"北宿"},"6480007":{"post_code":"6480007","prefecture":"WAKAYAMA KEN","city":"HASHIMOTO SHI","town":"KINOHIKARIDAI","perfecture_jp":"和歌山県","jp_add_1":"橋本市","jp_add_2":"紀ノ光台"},"6480052":{"post_code":"6480052","prefecture":"WAKAYAMA KEN","city":"HASHIMOTO SHI","town":"KIMI","perfecture_jp":"和歌山県","jp_add_1":"橋本市","jp_add_2":"紀見"},"6480092":{"post_code":"6480092","prefecture":"WAKAYAMA KEN","city":"HASHIMOTO SHI","town":"KIMIGAOKA","perfecture_jp":"和歌山県","jp_add_1":"橋本市","jp_add_2":"紀見ケ丘"},"6480093":{"post_code":"6480093","prefecture":"WAKAYAMA KEN","city":"HASHIMOTO SHI","town":"KEGANO","perfecture_jp":"和歌山県","jp_add_1":"橋本市","jp_add_2":"慶賀野"},"6480021":{"post_code":"6480021","prefecture":"WAKAYAMA KEN","city":"HASHIMOTO SHI","town":"KOINO","perfecture_jp":"和歌山県","jp_add_1":"橋本市","jp_add_2":"恋野"},"6480099":{"post_code":"6480099","prefecture":"WAKAYAMA KEN","city":"HASHIMOTO SHI","town":"KOYODAI","perfecture_jp":"和歌山県","jp_add_1":"橋本市","jp_add_2":"光陽台"},"6480065":{"post_code":"6480065","prefecture":"WAKAYAMA KEN","city":"HASHIMOTO SHI","town":"KOSADA","perfecture_jp":"和歌山県","jp_add_1":"橋本市","jp_add_2":"古佐田"},"6480086":{"post_code":"6480086","prefecture":"WAKAYAMA KEN","city":"HASHIMOTO SHI","town":"KONONO","perfecture_jp":"和歌山県","jp_add_1":"橋本市","jp_add_2":"神野々"},"6480066":{"post_code":"6480066","prefecture":"WAKAYAMA KEN","city":"HASHIMOTO SHI","town":"GOMO","perfecture_jp":"和歌山県","jp_add_1":"橋本市","jp_add_2":"胡麻生"},"6480006":{"post_code":"6480006","prefecture":"WAKAYAMA KEN","city":"HASHIMOTO SHI","town":"SAKAIBARA","perfecture_jp":"和歌山県","jp_add_1":"橋本市","jp_add_2":"境原"},"6480075":{"post_code":"6480075","prefecture":"WAKAYAMA KEN","city":"HASHIMOTO SHI","town":"SATSUKIDAI","perfecture_jp":"和歌山県","jp_add_1":"橋本市","jp_add_2":"さつき台"},"6480041":{"post_code":"6480041","prefecture":"WAKAYAMA KEN","city":"HASHIMOTO SHI","town":"SHIMIZU","perfecture_jp":"和歌山県","jp_add_1":"橋本市","jp_add_2":"清水"},"6480082":{"post_code":"6480082","prefecture":"WAKAYAMA KEN","city":"HASHIMOTO SHI","town":"SHOBUTANI","perfecture_jp":"和歌山県","jp_add_1":"橋本市","jp_add_2":"菖蒲谷"},"6480053":{"post_code":"6480053","prefecture":"WAKAYAMA KEN","city":"HASHIMOTO SHI","town":"SHIRASAGIDAI","perfecture_jp":"和歌山県","jp_add_1":"橋本市","jp_add_2":"しらさぎ台"},"6480054":{"post_code":"6480054","prefecture":"WAKAYAMA KEN","city":"HASHIMOTO SHI","town":"SHIROYAMADAI","perfecture_jp":"和歌山県","jp_add_1":"橋本市","jp_add_2":"城山台"},"6480001":{"post_code":"6480001","prefecture":"WAKAYAMA KEN","city":"HASHIMOTO SHI","town":"SUGIO","perfecture_jp":"和歌山県","jp_add_1":"橋本市","jp_add_2":"杉尾"},"6480038":{"post_code":"6480038","prefecture":"WAKAYAMA KEN","city":"HASHIMOTO SHI","town":"SUGO","perfecture_jp":"和歌山県","jp_add_1":"橋本市","jp_add_2":"須河"},"6480012":{"post_code":"6480012","prefecture":"WAKAYAMA KEN","city":"HASHIMOTO SHI","town":"SUDACHO IMO","perfecture_jp":"和歌山県","jp_add_1":"橋本市","jp_add_2":"隅田町芋生"},"6480014":{"post_code":"6480014","prefecture":"WAKAYAMA KEN","city":"HASHIMOTO SHI","town":"SUDACHO KAMIHYOGO","perfecture_jp":"和歌山県","jp_add_1":"橋本市","jp_add_2":"隅田町上兵庫"},"6480016":{"post_code":"6480016","prefecture":"WAKAYAMA KEN","city":"HASHIMOTO SHI","town":"SUDACHO SHIMOHYOGO","perfecture_jp":"和歌山県","jp_add_1":"橋本市","jp_add_2":"隅田町下兵庫"},"6480015":{"post_code":"6480015","prefecture":"WAKAYAMA KEN","city":"HASHIMOTO SHI","town":"SUDACHO KOZE","perfecture_jp":"和歌山県","jp_add_1":"橋本市","jp_add_2":"隅田町河瀬"},"6480004":{"post_code":"6480004","prefecture":"WAKAYAMA KEN","city":"HASHIMOTO SHI","town":"SUDACHO SHIMOKUSA","perfecture_jp":"和歌山県","jp_add_1":"橋本市","jp_add_2":"隅田町霜草"},"6480018":{"post_code":"6480018","prefecture":"WAKAYAMA KEN","city":"HASHIMOTO SHI","town":"SUDACHO TARUI","perfecture_jp":"和歌山県","jp_add_1":"橋本市","jp_add_2":"隅田町垂井"},"6480013":{"post_code":"6480013","prefecture":"WAKAYAMA KEN","city":"HASHIMOTO SHI","town":"SUDACHO CHUGE","perfecture_jp":"和歌山県","jp_add_1":"橋本市","jp_add_2":"隅田町中下"},"6480017":{"post_code":"6480017","prefecture":"WAKAYAMA KEN","city":"HASHIMOTO SHI","town":"SUDACHO NAKAJIMA","perfecture_jp":"和歌山県","jp_add_1":"橋本市","jp_add_2":"隅田町中島"},"6480002":{"post_code":"6480002","prefecture":"WAKAYAMA KEN","city":"HASHIMOTO SHI","town":"SUDACHO HIRANO","perfecture_jp":"和歌山県","jp_add_1":"橋本市","jp_add_2":"隅田町平野"},"6480011":{"post_code":"6480011","prefecture":"WAKAYAMA KEN","city":"HASHIMOTO SHI","town":"SUDACHO MATSUCHI","perfecture_jp":"和歌山県","jp_add_1":"橋本市","jp_add_2":"隅田町真土"},"6480003":{"post_code":"6480003","prefecture":"WAKAYAMA KEN","city":"HASHIMOTO SHI","town":"SUDACHO YAMAUCHI","perfecture_jp":"和歌山県","jp_add_1":"橋本市","jp_add_2":"隅田町山内"},"6480031":{"post_code":"6480031","prefecture":"WAKAYAMA KEN","city":"HASHIMOTO SHI","town":"TADANO","perfecture_jp":"和歌山県","jp_add_1":"橋本市","jp_add_2":"只野"},"6480032":{"post_code":"6480032","prefecture":"WAKAYAMA KEN","city":"HASHIMOTO SHI","town":"TANIOBUKA","perfecture_jp":"和歌山県","jp_add_1":"橋本市","jp_add_2":"谷奥深"},"6480062":{"post_code":"6480062","prefecture":"WAKAYAMA KEN","city":"HASHIMOTO SHI","town":"TSUMA","perfecture_jp":"和歌山県","jp_add_1":"橋本市","jp_add_2":"妻"},"6480083":{"post_code":"6480083","prefecture":"WAKAYAMA KEN","city":"HASHIMOTO SHI","town":"DETO","perfecture_jp":"和歌山県","jp_add_1":"橋本市","jp_add_2":"出塔"},"6480072":{"post_code":"6480072","prefecture":"WAKAYAMA KEN","city":"HASHIMOTO SHI","town":"TOGE","perfecture_jp":"和歌山県","jp_add_1":"橋本市","jp_add_2":"東家"},"6480023":{"post_code":"6480023","prefecture":"WAKAYAMA KEN","city":"HASHIMOTO SHI","town":"NAKADO","perfecture_jp":"和歌山県","jp_add_1":"橋本市","jp_add_2":"中道"},"6480042":{"post_code":"6480042","prefecture":"WAKAYAMA KEN","city":"HASHIMOTO SHI","town":"NISHIBATA","perfecture_jp":"和歌山県","jp_add_1":"橋本市","jp_add_2":"西畑"},"6480074":{"post_code":"6480074","prefecture":"WAKAYAMA KEN","city":"HASHIMOTO SHI","town":"NO","perfecture_jp":"和歌山県","jp_add_1":"橋本市","jp_add_2":"野"},"6480095":{"post_code":"6480095","prefecture":"WAKAYAMA KEN","city":"HASHIMOTO SHI","town":"HASHITANI","perfecture_jp":"和歌山県","jp_add_1":"橋本市","jp_add_2":"橋谷"},"6480064":{"post_code":"6480064","prefecture":"WAKAYAMA KEN","city":"HASHIMOTO SHI","town":"HASHIMOTO","perfecture_jp":"和歌山県","jp_add_1":"橋本市","jp_add_2":"橋本"},"6480091":{"post_code":"6480091","prefecture":"WAKAYAMA KEN","city":"HASHIMOTO SHI","town":"HASHIRAMOTO","perfecture_jp":"和歌山県","jp_add_1":"橋本市","jp_add_2":"柱本"},"6480063":{"post_code":"6480063","prefecture":"WAKAYAMA KEN","city":"HASHIMOTO SHI","town":"HARADA","perfecture_jp":"和歌山県","jp_add_1":"橋本市","jp_add_2":"原田"},"6480035":{"post_code":"6480035","prefecture":"WAKAYAMA KEN","city":"HASHIMOTO SHI","town":"HIKOTANI","perfecture_jp":"和歌山県","jp_add_1":"橋本市","jp_add_2":"彦谷"},"6480051":{"post_code":"6480051","prefecture":"WAKAYAMA KEN","city":"HASHIMOTO SHI","town":"HOSOKAWA","perfecture_jp":"和歌山県","jp_add_1":"橋本市","jp_add_2":"細川"},"6480094":{"post_code":"6480094","prefecture":"WAKAYAMA KEN","city":"HASHIMOTO SHI","town":"MITSUISHIDAI","perfecture_jp":"和歌山県","jp_add_1":"橋本市","jp_add_2":"三石台"},"6480044":{"post_code":"6480044","prefecture":"WAKAYAMA KEN","city":"HASHIMOTO SHI","town":"MINAMIBABA","perfecture_jp":"和歌山県","jp_add_1":"橋本市","jp_add_2":"南馬場"},"6480034":{"post_code":"6480034","prefecture":"WAKAYAMA KEN","city":"HASHIMOTO SHI","town":"MINAMIYADORI","perfecture_jp":"和歌山県","jp_add_1":"橋本市","jp_add_2":"南宿"},"6480088":{"post_code":"6480088","prefecture":"WAKAYAMA KEN","city":"HASHIMOTO SHI","town":"MIYUKIDAI","perfecture_jp":"和歌山県","jp_add_1":"橋本市","jp_add_2":"みゆき台"},"6480096":{"post_code":"6480096","prefecture":"WAKAYAMA KEN","city":"HASHIMOTO SHI","town":"MIYUKITSUJI","perfecture_jp":"和歌山県","jp_add_1":"橋本市","jp_add_2":"御幸辻"},"6480025":{"post_code":"6480025","prefecture":"WAKAYAMA KEN","city":"HASHIMOTO SHI","town":"MUKASOI","perfecture_jp":"和歌山県","jp_add_1":"橋本市","jp_add_2":"向副"},"6480098":{"post_code":"6480098","prefecture":"WAKAYAMA KEN","city":"HASHIMOTO SHI","town":"YAGURAWAKI","perfecture_jp":"和歌山県","jp_add_1":"橋本市","jp_add_2":"矢倉脇"},"6480081":{"post_code":"6480081","prefecture":"WAKAYAMA KEN","city":"HASHIMOTO SHI","town":"YAMADA","perfecture_jp":"和歌山県","jp_add_1":"橋本市","jp_add_2":"山田"},"6480036":{"post_code":"6480036","prefecture":"WAKAYAMA KEN","city":"HASHIMOTO SHI","town":"YOKOZA","perfecture_jp":"和歌山県","jp_add_1":"橋本市","jp_add_2":"横座"},"6480087":{"post_code":"6480087","prefecture":"WAKAYAMA KEN","city":"HASHIMOTO SHI","town":"YOSHIHARA","perfecture_jp":"和歌山県","jp_add_1":"橋本市","jp_add_2":"吉原"},"6480201":{"post_code":"6480201","prefecture":"WAKAYAMA KEN","city":"ITO GUN KATSURAGI CHO","town":"HANAZONO KUKI","perfecture_jp":"和歌山県","jp_add_1":"伊都郡かつらぎ町","jp_add_2":"花園久木"},"6480202":{"post_code":"6480202","prefecture":"WAKAYAMA KEN","city":"ITO GUN KATSURAGI CHO","town":"HANAZONO NAKAMINAMI","perfecture_jp":"和歌山県","jp_add_1":"伊都郡かつらぎ町","jp_add_2":"花園中南"},"6480100":{"post_code":"6480100","prefecture":"WAKAYAMA KEN","city":"ITO GUN KUDOYAMA CHO","town":"IKANIKEISAIGANAIBAAI","perfecture_jp":"和歌山県","jp_add_1":"伊都郡九度山町","jp_add_2":""},"6480131":{"post_code":"6480131","prefecture":"WAKAYAMA KEN","city":"ITO GUN KUDOYAMA CHO","town":"ICHITAIRA","perfecture_jp":"和歌山県","jp_add_1":"伊都郡九度山町","jp_add_2":"市平"},"6480142":{"post_code":"6480142","prefecture":"WAKAYAMA KEN","city":"ITO GUN KUDOYAMA CHO","town":"KASAGI","perfecture_jp":"和歌山県","jp_add_1":"伊都郡九度山町","jp_add_2":"笠木"},"6480111":{"post_code":"6480111","prefecture":"WAKAYAMA KEN","city":"ITO GUN KUDOYAMA CHO","town":"KANE","perfecture_jp":"和歌山県","jp_add_1":"伊都郡九度山町","jp_add_2":"河根"},"6480143":{"post_code":"6480143","prefecture":"WAKAYAMA KEN","city":"ITO GUN KUDOYAMA CHO","town":"KAMIKOSAWA","perfecture_jp":"和歌山県","jp_add_1":"伊都郡九度山町","jp_add_2":"上古沢"},"6480132":{"post_code":"6480132","prefecture":"WAKAYAMA KEN","city":"ITO GUN KUDOYAMA CHO","town":"KITAMATA","perfecture_jp":"和歌山県","jp_add_1":"伊都郡九度山町","jp_add_2":"北又"},"6480101":{"post_code":"6480101","prefecture":"WAKAYAMA KEN","city":"ITO GUN KUDOYAMA CHO","town":"KUDOYAMA","perfecture_jp":"和歌山県","jp_add_1":"伊都郡九度山町","jp_add_2":"九度山"},"6480141":{"post_code":"6480141","prefecture":"WAKAYAMA KEN","city":"ITO GUN KUDOYAMA CHO","town":"SHIIDE","perfecture_jp":"和歌山県","jp_add_1":"伊都郡九度山町","jp_add_2":"椎出"},"6480151":{"post_code":"6480151","prefecture":"WAKAYAMA KEN","city":"ITO GUN KUDOYAMA CHO","town":"JISONIN","perfecture_jp":"和歌山県","jp_add_1":"伊都郡九度山町","jp_add_2":"慈尊院"},"6480145":{"post_code":"6480145","prefecture":"WAKAYAMA KEN","city":"ITO GUN KUDOYAMA CHO","town":"SHIMOKOSAWA","perfecture_jp":"和歌山県","jp_add_1":"伊都郡九度山町","jp_add_2":"下古沢"},"6480144":{"post_code":"6480144","prefecture":"WAKAYAMA KEN","city":"ITO GUN KUDOYAMA CHO","town":"NAKAKOSAWA","perfecture_jp":"和歌山県","jp_add_1":"伊都郡九度山町","jp_add_2":"中古沢"},"6480121":{"post_code":"6480121","prefecture":"WAKAYAMA KEN","city":"ITO GUN KUDOYAMA CHO","town":"NYUKAWA","perfecture_jp":"和歌山県","jp_add_1":"伊都郡九度山町","jp_add_2":"丹生川"},"6480161":{"post_code":"6480161","prefecture":"WAKAYAMA KEN","city":"ITO GUN KUDOYAMA CHO","town":"NYUGO","perfecture_jp":"和歌山県","jp_add_1":"伊都郡九度山町","jp_add_2":"入郷"},"6480133":{"post_code":"6480133","prefecture":"WAKAYAMA KEN","city":"ITO GUN KUDOYAMA CHO","town":"HIGASHIGO","perfecture_jp":"和歌山県","jp_add_1":"伊都郡九度山町","jp_add_2":"東郷"},"6480200":{"post_code":"6480200","prefecture":"WAKAYAMA KEN","city":"ITO GUN KOYA CHO","town":"IKANIKEISAIGANAIBAAI","perfecture_jp":"和歌山県","jp_add_1":"伊都郡高野町","jp_add_2":""},"6480241":{"post_code":"6480241","prefecture":"WAKAYAMA KEN","city":"ITO GUN KOYA CHO","town":"AINORA","perfecture_jp":"和歌山県","jp_add_1":"伊都郡高野町","jp_add_2":"相ノ浦"},"6480231":{"post_code":"6480231","prefecture":"WAKAYAMA KEN","city":"ITO GUN KOYA CHO","town":"OTAKI","perfecture_jp":"和歌山県","jp_add_1":"伊都郡高野町","jp_add_2":"大滝"},"6480227":{"post_code":"6480227","prefecture":"WAKAYAMA KEN","city":"ITO GUN KOYA CHO","town":"KASHIHARA","perfecture_jp":"和歌山県","jp_add_1":"伊都郡高野町","jp_add_2":"樫原"},"6480403":{"post_code":"6480403","prefecture":"WAKAYAMA KEN","city":"ITO GUN KOYA CHO","town":"KAMITSUTSUGA","perfecture_jp":"和歌山県","jp_add_1":"伊都郡高野町","jp_add_2":"上筒香"},"6480211":{"post_code":"6480211","prefecture":"WAKAYAMA KEN","city":"ITO GUN KOYA CHO","town":"KOYASAN","perfecture_jp":"和歌山県","jp_add_1":"伊都郡高野町","jp_add_2":"高野山"},"6480405":{"post_code":"6480405","prefecture":"WAKAYAMA KEN","city":"ITO GUN KOYA CHO","town":"SHIMOTSUTSUGA","perfecture_jp":"和歌山県","jp_add_1":"伊都郡高野町","jp_add_2":"下筒香"},"6480225":{"post_code":"6480225","prefecture":"WAKAYAMA KEN","city":"ITO GUN KOYA CHO","town":"TSUEGAYABU","perfecture_jp":"和歌山県","jp_add_1":"伊都郡高野町","jp_add_2":"杖ケ薮"},"6480404":{"post_code":"6480404","prefecture":"WAKAYAMA KEN","city":"ITO GUN KOYA CHO","town":"NAKATSUTSUGA","perfecture_jp":"和歌山県","jp_add_1":"伊都郡高野町","jp_add_2":"中筒香"},"6480221":{"post_code":"6480221","prefecture":"WAKAYAMA KEN","city":"ITO GUN KOYA CHO","town":"NISHIGAMINE","perfecture_jp":"和歌山県","jp_add_1":"伊都郡高野町","jp_add_2":"西ケ峰"},"6480261":{"post_code":"6480261","prefecture":"WAKAYAMA KEN","city":"ITO GUN KOYA CHO","town":"NISHIGO(KAMIYA)","perfecture_jp":"和歌山県","jp_add_1":"伊都郡高野町","jp_add_2":"西郷"},"6480171":{"post_code":"6480171","prefecture":"WAKAYAMA KEN","city":"ITO GUN KOYA CHO","town":"NISHIGO(SONOTA)","perfecture_jp":"和歌山県","jp_add_1":"伊都郡高野町","jp_add_2":"西郷"},"6480401":{"post_code":"6480401","prefecture":"WAKAYAMA KEN","city":"ITO GUN KOYA CHO","town":"NISHIFUKI","perfecture_jp":"和歌山県","jp_add_1":"伊都郡高野町","jp_add_2":"西富貴"},"6480263":{"post_code":"6480263","prefecture":"WAKAYAMA KEN","city":"ITO GUN KOYA CHO","town":"HANASAKA","perfecture_jp":"和歌山県","jp_add_1":"伊都郡高野町","jp_add_2":"花坂"},"6480223":{"post_code":"6480223","prefecture":"WAKAYAMA KEN","city":"ITO GUN KOYA CHO","town":"HAYASHI","perfecture_jp":"和歌山県","jp_add_1":"伊都郡高野町","jp_add_2":"林"},"6480402":{"post_code":"6480402","prefecture":"WAKAYAMA KEN","city":"ITO GUN KOYA CHO","town":"HIGASHIFUKI","perfecture_jp":"和歌山県","jp_add_1":"伊都郡高野町","jp_add_2":"東富貴"},"6480226":{"post_code":"6480226","prefecture":"WAKAYAMA KEN","city":"ITO GUN KOYA CHO","town":"HIGASHIMATA","perfecture_jp":"和歌山県","jp_add_1":"伊都郡高野町","jp_add_2":"東又"},"6480224":{"post_code":"6480224","prefecture":"WAKAYAMA KEN","city":"ITO GUN KOYA CHO","town":"HIRAHARA","perfecture_jp":"和歌山県","jp_add_1":"伊都郡高野町","jp_add_2":"平原"},"6480262":{"post_code":"6480262","prefecture":"WAKAYAMA KEN","city":"ITO GUN KOYA CHO","town":"HOSOKAWA","perfecture_jp":"和歌山県","jp_add_1":"伊都郡高野町","jp_add_2":"細川"},"6480222":{"post_code":"6480222","prefecture":"WAKAYAMA KEN","city":"ITO GUN KOYA CHO","town":"MINAMI","perfecture_jp":"和歌山県","jp_add_1":"伊都郡高野町","jp_add_2":"南"},"6480251":{"post_code":"6480251","prefecture":"WAKAYAMA KEN","city":"ITO GUN KOYA CHO","town":"YUKAWA","perfecture_jp":"和歌山県","jp_add_1":"伊都郡高野町","jp_add_2":"湯川"}}