{"6496336":{"post_code":"6496336","prefecture":"WAKAYAMA KEN","city":"WAKAYAMA SHI","town":"AZUSHIMA","perfecture_jp":"和歌山県","jp_add_1":"和歌山市","jp_add_2":"小豆島"},"6496323":{"post_code":"6496323","prefecture":"WAKAYAMA KEN","city":"WAKAYAMA SHI","town":"INOKUCHI","perfecture_jp":"和歌山県","jp_add_1":"和歌山市","jp_add_2":"井ノ口"},"6496316":{"post_code":"6496316","prefecture":"WAKAYAMA KEN","city":"WAKAYAMA SHI","town":"UENO","perfecture_jp":"和歌山県","jp_add_1":"和歌山市","jp_add_2":"上野"},"6496332":{"post_code":"6496332","prefecture":"WAKAYAMA KEN","city":"WAKAYAMA SHI","town":"UDAMORI","perfecture_jp":"和歌山県","jp_add_1":"和歌山市","jp_add_2":"宇田森"},"6496272":{"post_code":"6496272","prefecture":"WAKAYAMA KEN","city":"WAKAYAMA SHI","town":"OGAITO","perfecture_jp":"和歌山県","jp_add_1":"和歌山市","jp_add_2":"大垣内"},"6496261":{"post_code":"6496261","prefecture":"WAKAYAMA KEN","city":"WAKAYAMA SHI","town":"OGURA","perfecture_jp":"和歌山県","jp_add_1":"和歌山市","jp_add_2":"小倉"},"6496308":{"post_code":"6496308","prefecture":"WAKAYAMA KEN","city":"WAKAYAMA SHI","town":"OCHIAI","perfecture_jp":"和歌山県","jp_add_1":"和歌山市","jp_add_2":"落合"},"6496274":{"post_code":"6496274","prefecture":"WAKAYAMA KEN","city":"WAKAYAMA SHI","town":"KANAYA","perfecture_jp":"和歌山県","jp_add_1":"和歌山市","jp_add_2":"金谷"},"6496306":{"post_code":"6496306","prefecture":"WAKAYAMA KEN","city":"WAKAYAMA SHI","town":"KAMIKURODANI","perfecture_jp":"和歌山県","jp_add_1":"和歌山市","jp_add_2":"上黒谷"},"6496262":{"post_code":"6496262","prefecture":"WAKAYAMA KEN","city":"WAKAYAMA SHI","town":"KAMIMIKE","perfecture_jp":"和歌山県","jp_add_1":"和歌山市","jp_add_2":"上三毛"},"6496312":{"post_code":"6496312","prefecture":"WAKAYAMA KEN","city":"WAKAYAMA SHI","town":"KAWANABE","perfecture_jp":"和歌山県","jp_add_1":"和歌山市","jp_add_2":"川辺"},"6496334":{"post_code":"6496334","prefecture":"WAKAYAMA KEN","city":"WAKAYAMA SHI","town":"KITA","perfecture_jp":"和歌山県","jp_add_1":"和歌山市","jp_add_2":"北"},"6496331":{"post_code":"6496331","prefecture":"WAKAYAMA KEN","city":"WAKAYAMA SHI","town":"KITANO","perfecture_jp":"和歌山県","jp_add_1":"和歌山市","jp_add_2":"北野"},"6496307":{"post_code":"6496307","prefecture":"WAKAYAMA KEN","city":"WAKAYAMA SHI","town":"KITABESSHIYO","perfecture_jp":"和歌山県","jp_add_1":"和歌山市","jp_add_2":"北別所"},"6496313":{"post_code":"6496313","prefecture":"WAKAYAMA KEN","city":"WAKAYAMA SHI","town":"KUSUMOTO","perfecture_jp":"和歌山県","jp_add_1":"和歌山市","jp_add_2":"楠本"},"6496315":{"post_code":"6496315","prefecture":"WAKAYAMA KEN","city":"WAKAYAMA SHI","town":"KONAMI","perfecture_jp":"和歌山県","jp_add_1":"和歌山市","jp_add_2":"神波"},"6496311":{"post_code":"6496311","prefecture":"WAKAYAMA KEN","city":"WAKAYAMA SHI","town":"SATO","perfecture_jp":"和歌山県","jp_add_1":"和歌山市","jp_add_2":"里"},"6496314":{"post_code":"6496314","prefecture":"WAKAYAMA KEN","city":"WAKAYAMA SHI","town":"SHIMA","perfecture_jp":"和歌山県","jp_add_1":"和歌山市","jp_add_2":"島"},"6496263":{"post_code":"6496263","prefecture":"WAKAYAMA KEN","city":"WAKAYAMA SHI","town":"SHIMOMIKE","perfecture_jp":"和歌山県","jp_add_1":"和歌山市","jp_add_2":"下三毛"},"6496325":{"post_code":"6496325","prefecture":"WAKAYAMA KEN","city":"WAKAYAMA SHI","town":"SHIMOWASA","perfecture_jp":"和歌山県","jp_add_1":"和歌山市","jp_add_2":"下和佐"},"6496264":{"post_code":"6496264","prefecture":"WAKAYAMA KEN","city":"WAKAYAMA SHI","town":"SHINJO","perfecture_jp":"和歌山県","jp_add_1":"和歌山市","jp_add_2":"新庄"},"6496301":{"post_code":"6496301","prefecture":"WAKAYAMA KEN","city":"WAKAYAMA SHI","town":"TAKIHATA","perfecture_jp":"和歌山県","jp_add_1":"和歌山市","jp_add_2":"滝畑"},"6496305":{"post_code":"6496305","prefecture":"WAKAYAMA KEN","city":"WAKAYAMA SHI","town":"TANI","perfecture_jp":"和歌山県","jp_add_1":"和歌山市","jp_add_2":"谷"},"6496337":{"post_code":"6496337","prefecture":"WAKAYAMA KEN","city":"WAKAYAMA SHI","town":"TAYA","perfecture_jp":"和歌山県","jp_add_1":"和歌山市","jp_add_2":"田屋"},"6496304":{"post_code":"6496304","prefecture":"WAKAYAMA KEN","city":"WAKAYAMA SHI","town":"NAKASUJIHINOBE","perfecture_jp":"和歌山県","jp_add_1":"和歌山市","jp_add_2":"中筋日延"},"6496333":{"post_code":"6496333","prefecture":"WAKAYAMA KEN","city":"WAKAYAMA SHI","town":"NANGO","perfecture_jp":"和歌山県","jp_add_1":"和歌山市","jp_add_2":"永穂"},"6496335":{"post_code":"6496335","prefecture":"WAKAYAMA KEN","city":"WAKAYAMA SHI","town":"NISHITAI","perfecture_jp":"和歌山県","jp_add_1":"和歌山市","jp_add_2":"西田井"},"6496324":{"post_code":"6496324","prefecture":"WAKAYAMA KEN","city":"WAKAYAMA SHI","town":"NEGI","perfecture_jp":"和歌山県","jp_add_1":"和歌山市","jp_add_2":"祢宜"},"6496275":{"post_code":"6496275","prefecture":"WAKAYAMA KEN","city":"WAKAYAMA SHI","town":"HANZAKI","perfecture_jp":"和歌山県","jp_add_1":"和歌山市","jp_add_2":"吐前"},"6496273":{"post_code":"6496273","prefecture":"WAKAYAMA KEN","city":"WAKAYAMA SHI","town":"HIGASHITANAKA","perfecture_jp":"和歌山県","jp_add_1":"和歌山市","jp_add_2":"東田中"},"6496303":{"post_code":"6496303","prefecture":"WAKAYAMA KEN","city":"WAKAYAMA SHI","town":"HIRAOKA","perfecture_jp":"和歌山県","jp_add_1":"和歌山市","jp_add_2":"平岡"},"6496339":{"post_code":"6496339","prefecture":"WAKAYAMA KEN","city":"WAKAYAMA SHI","town":"HIRONISHI","perfecture_jp":"和歌山県","jp_add_1":"和歌山市","jp_add_2":"弘西"},"6496318":{"post_code":"6496318","prefecture":"WAKAYAMA KEN","city":"WAKAYAMA SHI","town":"FUJITA","perfecture_jp":"和歌山県","jp_add_1":"和歌山市","jp_add_2":"藤田"},"6496338":{"post_code":"6496338","prefecture":"WAKAYAMA KEN","city":"WAKAYAMA SHI","town":"FUCHU","perfecture_jp":"和歌山県","jp_add_1":"和歌山市","jp_add_2":"府中"},"6496321":{"post_code":"6496321","prefecture":"WAKAYAMA KEN","city":"WAKAYAMA SHI","town":"HOSHIYA","perfecture_jp":"和歌山県","jp_add_1":"和歌山市","jp_add_2":"布施屋"},"6496271":{"post_code":"6496271","prefecture":"WAKAYAMA KEN","city":"WAKAYAMA SHI","town":"MITSUYA","perfecture_jp":"和歌山県","jp_add_1":"和歌山市","jp_add_2":"満屋"},"6496317":{"post_code":"6496317","prefecture":"WAKAYAMA KEN","city":"WAKAYAMA SHI","town":"YAMAGUCHINISHI","perfecture_jp":"和歌山県","jp_add_1":"和歌山市","jp_add_2":"山口西"},"6496302":{"post_code":"6496302","prefecture":"WAKAYAMA KEN","city":"WAKAYAMA SHI","town":"YUYADANI","perfecture_jp":"和歌山県","jp_add_1":"和歌山市","jp_add_2":"湯屋谷"},"6496322":{"post_code":"6496322","prefecture":"WAKAYAMA KEN","city":"WAKAYAMA SHI","town":"WASASEKIDO","perfecture_jp":"和歌山県","jp_add_1":"和歌山市","jp_add_2":"和佐関戸"},"6496326":{"post_code":"6496326","prefecture":"WAKAYAMA KEN","city":"WAKAYAMA SHI","town":"WASANAKA","perfecture_jp":"和歌山県","jp_add_1":"和歌山市","jp_add_2":"和佐中"},"6490147":{"post_code":"6490147","prefecture":"WAKAYAMA KEN","city":"KAINAN SHI","town":"SHIMOTSUCHO AOSHI","perfecture_jp":"和歌山県","jp_add_1":"海南市","jp_add_2":"下津町青枝"},"6490145":{"post_code":"6490145","prefecture":"WAKAYAMA KEN","city":"KAINAN SHI","town":"SHIMOTSUCHO ICHITSUBO","perfecture_jp":"和歌山県","jp_add_1":"海南市","jp_add_2":"下津町市坪"},"6490132":{"post_code":"6490132","prefecture":"WAKAYAMA KEN","city":"KAINAN SHI","town":"SHIMOTSUCHO UMEDA","perfecture_jp":"和歌山県","jp_add_1":"海南市","jp_add_2":"下津町梅田"},"6490155":{"post_code":"6490155","prefecture":"WAKAYAMA KEN","city":"KAINAN SHI","town":"SHIMOTSUCHO OKUBO","perfecture_jp":"和歌山県","jp_add_1":"海南市","jp_add_2":"下津町大窪"},"6490112":{"post_code":"6490112","prefecture":"WAKAYAMA KEN","city":"KAINAN SHI","town":"SHIMOTSUCHO OSAKI","perfecture_jp":"和歌山県","jp_add_1":"海南市","jp_add_2":"下津町大崎"},"6490153":{"post_code":"6490153","prefecture":"WAKAYAMA KEN","city":"KAINAN SHI","town":"SHIMOTSUCHO OKI","perfecture_jp":"和歌山県","jp_add_1":"海南市","jp_add_2":"下津町興"},"6490162":{"post_code":"6490162","prefecture":"WAKAYAMA KEN","city":"KAINAN SHI","town":"SHIMOTSUCHO OBARA","perfecture_jp":"和歌山県","jp_add_1":"海南市","jp_add_2":"下津町小原"},"6490154":{"post_code":"6490154","prefecture":"WAKAYAMA KEN","city":"KAINAN SHI","town":"SHIMOTSUCHO KASABATA","perfecture_jp":"和歌山県","jp_add_1":"海南市","jp_add_2":"下津町笠畑"},"6490111":{"post_code":"6490111","prefecture":"WAKAYAMA KEN","city":"KAINAN SHI","town":"SHIMOTSUCHO KATA","perfecture_jp":"和歌山県","jp_add_1":"海南市","jp_add_2":"下津町方"},"6490164":{"post_code":"6490164","prefecture":"WAKAYAMA KEN","city":"KAINAN SHI","town":"SHIMOTSUCHO KAMI","perfecture_jp":"和歌山県","jp_add_1":"海南市","jp_add_2":"下津町上"},"6490163":{"post_code":"6490163","prefecture":"WAKAYAMA KEN","city":"KAINAN SHI","town":"SHIMOTSUCHO KAREGAWA","perfecture_jp":"和歌山県","jp_add_1":"海南市","jp_add_2":"下津町鰈川"},"6490144":{"post_code":"6490144","prefecture":"WAKAYAMA KEN","city":"KAINAN SHI","town":"SHIMOTSUCHO KITSUMOTO","perfecture_jp":"和歌山県","jp_add_1":"海南市","jp_add_2":"下津町橘本"},"6490146":{"post_code":"6490146","prefecture":"WAKAYAMA KEN","city":"KAINAN SHI","town":"SHIMOTSUCHO KUTSUKAKE","perfecture_jp":"和歌山県","jp_add_1":"海南市","jp_add_2":"下津町沓掛"},"6490122":{"post_code":"6490122","prefecture":"WAKAYAMA KEN","city":"KAINAN SHI","town":"SHIMOTSUCHO KURODA","perfecture_jp":"和歌山県","jp_add_1":"海南市","jp_add_2":"下津町黒田"},"6490161":{"post_code":"6490161","prefecture":"WAKAYAMA KEN","city":"KAINAN SHI","town":"SHIMOTSUCHO KOBATA","perfecture_jp":"和歌山県","jp_add_1":"海南市","jp_add_2":"下津町小畑"},"6490143":{"post_code":"6490143","prefecture":"WAKAYAMA KEN","city":"KAINAN SHI","town":"SHIMOTSUCHO KOMATSUBARA","perfecture_jp":"和歌山県","jp_add_1":"海南市","jp_add_2":"下津町小松原"},"6490141":{"post_code":"6490141","prefecture":"WAKAYAMA KEN","city":"KAINAN SHI","town":"SHIMOTSUCHO KOMINAMI","perfecture_jp":"和歌山県","jp_add_1":"海南市","jp_add_2":"下津町小南"},"6490131":{"post_code":"6490131","prefecture":"WAKAYAMA KEN","city":"KAINAN SHI","town":"SHIMOTSUCHO SHIOTSU","perfecture_jp":"和歌山県","jp_add_1":"海南市","jp_add_2":"下津町塩津"},"6490133":{"post_code":"6490133","prefecture":"WAKAYAMA KEN","city":"KAINAN SHI","town":"SHIMOTSUCHO SHIMO","perfecture_jp":"和歌山県","jp_add_1":"海南市","jp_add_2":"下津町下"},"6490101":{"post_code":"6490101","prefecture":"WAKAYAMA KEN","city":"KAINAN SHI","town":"SHIMOTSUCHO SHIMOTSU","perfecture_jp":"和歌山県","jp_add_1":"海南市","jp_add_2":"下津町下津"},"6490151":{"post_code":"6490151","prefecture":"WAKAYAMA KEN","city":"KAINAN SHI","town":"SHIMOTSUCHO SONEDA","perfecture_jp":"和歌山県","jp_add_1":"海南市","jp_add_2":"下津町曽根田"},"6490142":{"post_code":"6490142","prefecture":"WAKAYAMA KEN","city":"KAINAN SHI","town":"SHIMOTSUCHO NAKA","perfecture_jp":"和歌山県","jp_add_1":"海南市","jp_add_2":"下津町中"},"6490152":{"post_code":"6490152","prefecture":"WAKAYAMA KEN","city":"KAINAN SHI","town":"SHIMOTSUCHO HIKIO","perfecture_jp":"和歌山県","jp_add_1":"海南市","jp_add_2":"下津町引尾"},"6490121":{"post_code":"6490121","prefecture":"WAKAYAMA KEN","city":"KAINAN SHI","town":"SHIMOTSUCHO MARUDA","perfecture_jp":"和歌山県","jp_add_1":"海南市","jp_add_2":"下津町丸田"},"6490156":{"post_code":"6490156","prefecture":"WAKAYAMA KEN","city":"KAINAN SHI","town":"SHIMOTSUCHO MOMOGAITO","perfecture_jp":"和歌山県","jp_add_1":"海南市","jp_add_2":"下津町百垣内"},"6490123":{"post_code":"6490123","prefecture":"WAKAYAMA KEN","city":"KAINAN SHI","town":"SHIMOTSUCHO YORO","perfecture_jp":"和歌山県","jp_add_1":"海南市","jp_add_2":"下津町丁"},"6497201":{"post_code":"6497201","prefecture":"WAKAYAMA KEN","city":"HASHIMOTO SHI","town":"KOYAGUCHICHO OGO","perfecture_jp":"和歌山県","jp_add_1":"橋本市","jp_add_2":"高野口町応其"},"6497207":{"post_code":"6497207","prefecture":"WAKAYAMA KEN","city":"HASHIMOTO SHI","town":"KOYAGUCHICHO ONO","perfecture_jp":"和歌山県","jp_add_1":"橋本市","jp_add_2":"高野口町大野"},"6497204":{"post_code":"6497204","prefecture":"WAKAYAMA KEN","city":"HASHIMOTO SHI","town":"KOYAGUCHICHO ODA","perfecture_jp":"和歌山県","jp_add_1":"橋本市","jp_add_2":"高野口町小田"},"6497212":{"post_code":"6497212","prefecture":"WAKAYAMA KEN","city":"HASHIMOTO SHI","town":"KOYAGUCHICHO KAMINAKA","perfecture_jp":"和歌山県","jp_add_1":"橋本市","jp_add_2":"高野口町上中"},"6497215":{"post_code":"6497215","prefecture":"WAKAYAMA KEN","city":"HASHIMOTO SHI","town":"KOYAGUCHICHO KUJU","perfecture_jp":"和歌山県","jp_add_1":"橋本市","jp_add_2":"高野口町九重"},"6497213":{"post_code":"6497213","prefecture":"WAKAYAMA KEN","city":"HASHIMOTO SHI","town":"KOYAGUCHICHO SAGATANI","perfecture_jp":"和歌山県","jp_add_1":"橋本市","jp_add_2":"高野口町嵯峨谷"},"6497211":{"post_code":"6497211","prefecture":"WAKAYAMA KEN","city":"HASHIMOTO SHI","town":"KOYAGUCHICHO SHIMONAKA","perfecture_jp":"和歌山県","jp_add_1":"橋本市","jp_add_2":"高野口町下中"},"6497214":{"post_code":"6497214","prefecture":"WAKAYAMA KEN","city":"HASHIMOTO SHI","town":"KOYAGUCHICHO TAKEO","perfecture_jp":"和歌山県","jp_add_1":"橋本市","jp_add_2":"高野口町竹尾"},"6497216":{"post_code":"6497216","prefecture":"WAKAYAMA KEN","city":"HASHIMOTO SHI","town":"KOYAGUCHICHO TAHARA","perfecture_jp":"和歌山県","jp_add_1":"橋本市","jp_add_2":"高野口町田原"},"6497205":{"post_code":"6497205","prefecture":"WAKAYAMA KEN","city":"HASHIMOTO SHI","town":"KOYAGUCHICHO NAGURA","perfecture_jp":"和歌山県","jp_add_1":"橋本市","jp_add_2":"高野口町名倉"},"6497203":{"post_code":"6497203","prefecture":"WAKAYAMA KEN","city":"HASHIMOTO SHI","town":"KOYAGUCHICHO NAGOSO","perfecture_jp":"和歌山県","jp_add_1":"橋本市","jp_add_2":"高野口町名古曽"},"6497202":{"post_code":"6497202","prefecture":"WAKAYAMA KEN","city":"HASHIMOTO SHI","town":"KOYAGUCHICHO FUSHIHARA","perfecture_jp":"和歌山県","jp_add_1":"橋本市","jp_add_2":"高野口町伏原"},"6497206":{"post_code":"6497206","prefecture":"WAKAYAMA KEN","city":"HASHIMOTO SHI","town":"KOYAGUCHICHO MUKOJIMA","perfecture_jp":"和歌山県","jp_add_1":"橋本市","jp_add_2":"高野口町向島"},"6490300":{"post_code":"6490300","prefecture":"WAKAYAMA KEN","city":"ARIDA SHI","town":"IKANIKEISAIGANAIBAAI","perfecture_jp":"和歌山県","jp_add_1":"有田市","jp_add_2":""},"6490421":{"post_code":"6490421","prefecture":"WAKAYAMA KEN","city":"ARIDA SHI","town":"ITOGACHO NAKABAN","perfecture_jp":"和歌山県","jp_add_1":"有田市","jp_add_2":"糸我町中番"},"6490422":{"post_code":"6490422","prefecture":"WAKAYAMA KEN","city":"ARIDA SHI","town":"ITOGACHO NISHI","perfecture_jp":"和歌山県","jp_add_1":"有田市","jp_add_2":"糸我町西"},"6490317":{"post_code":"6490317","prefecture":"WAKAYAMA KEN","city":"ARIDA SHI","town":"KOEMI","perfecture_jp":"和歌山県","jp_add_1":"有田市","jp_add_2":"古江見"},"6490301":{"post_code":"6490301","prefecture":"WAKAYAMA KEN","city":"ARIDA SHI","town":"SHIMONAKASHIMA","perfecture_jp":"和歌山県","jp_add_1":"有田市","jp_add_2":"下中島"},"6490303":{"post_code":"6490303","prefecture":"WAKAYAMA KEN","city":"ARIDA SHI","town":"SHINDO","perfecture_jp":"和歌山県","jp_add_1":"有田市","jp_add_2":"新堂"},"6490313":{"post_code":"6490313","prefecture":"WAKAYAMA KEN","city":"ARIDA SHI","town":"CHIDA","perfecture_jp":"和歌山県","jp_add_1":"有田市","jp_add_2":"千田"},"6490311":{"post_code":"6490311","prefecture":"WAKAYAMA KEN","city":"ARIDA SHI","town":"TSUJIDO","perfecture_jp":"和歌山県","jp_add_1":"有田市","jp_add_2":"辻堂"},"6490314":{"post_code":"6490314","prefecture":"WAKAYAMA KEN","city":"ARIDA SHI","town":"NO","perfecture_jp":"和歌山県","jp_add_1":"有田市","jp_add_2":"野"},"6490307":{"post_code":"6490307","prefecture":"WAKAYAMA KEN","city":"ARIDA SHI","town":"HATSUSHIMACHO SATO","perfecture_jp":"和歌山県","jp_add_1":"有田市","jp_add_2":"初島町里"},"6490306":{"post_code":"6490306","prefecture":"WAKAYAMA KEN","city":"ARIDA SHI","town":"HATSUSHIMACHO HAMA","perfecture_jp":"和歌山県","jp_add_1":"有田市","jp_add_2":"初島町浜"},"6490312":{"post_code":"6490312","prefecture":"WAKAYAMA KEN","city":"ARIDA SHI","town":"HOSHIO","perfecture_jp":"和歌山県","jp_add_1":"有田市","jp_add_2":"星尾"},"6490305":{"post_code":"6490305","prefecture":"WAKAYAMA KEN","city":"ARIDA SHI","town":"MINATOMACHI","perfecture_jp":"和歌山県","jp_add_1":"有田市","jp_add_2":"港町"},"6490304":{"post_code":"6490304","prefecture":"WAKAYAMA KEN","city":"ARIDA SHI","town":"MINOSHIMA","perfecture_jp":"和歌山県","jp_add_1":"有田市","jp_add_2":"箕島"},"6490316":{"post_code":"6490316","prefecture":"WAKAYAMA KEN","city":"ARIDA SHI","town":"MIYAZAKICHO","perfecture_jp":"和歌山県","jp_add_1":"有田市","jp_add_2":"宮崎町"},"6490434":{"post_code":"6490434","prefecture":"WAKAYAMA KEN","city":"ARIDA SHI","town":"MIYAHARACHO SHIMMACHI","perfecture_jp":"和歌山県","jp_add_1":"有田市","jp_add_2":"宮原町新町"},"6490433":{"post_code":"6490433","prefecture":"WAKAYAMA KEN","city":"ARIDA SHI","town":"MIYAHARACHO SUGAI","perfecture_jp":"和歌山県","jp_add_1":"有田市","jp_add_2":"宮原町須谷"},"6490437":{"post_code":"6490437","prefecture":"WAKAYAMA KEN","city":"ARIDA SHI","town":"MIYAHARACHO TAKI","perfecture_jp":"和歌山県","jp_add_1":"有田市","jp_add_2":"宮原町滝"},"6490435":{"post_code":"6490435","prefecture":"WAKAYAMA KEN","city":"ARIDA SHI","town":"MIYAHARACHO TAKIGAHARA","perfecture_jp":"和歌山県","jp_add_1":"有田市","jp_add_2":"宮原町滝川原"},"6490436":{"post_code":"6490436","prefecture":"WAKAYAMA KEN","city":"ARIDA SHI","town":"MIYAHARACHO DO","perfecture_jp":"和歌山県","jp_add_1":"有田市","jp_add_2":"宮原町道"},"6490431":{"post_code":"6490431","prefecture":"WAKAYAMA KEN","city":"ARIDA SHI","town":"MIYAHARACHO HATA","perfecture_jp":"和歌山県","jp_add_1":"有田市","jp_add_2":"宮原町畑"},"6490432":{"post_code":"6490432","prefecture":"WAKAYAMA KEN","city":"ARIDA SHI","town":"MIYAHARACHO HIGASHI","perfecture_jp":"和歌山県","jp_add_1":"有田市","jp_add_2":"宮原町東"},"6490302":{"post_code":"6490302","prefecture":"WAKAYAMA KEN","city":"ARIDA SHI","town":"YAMADAHARA","perfecture_jp":"和歌山県","jp_add_1":"有田市","jp_add_2":"山田原"},"6490315":{"post_code":"6490315","prefecture":"WAKAYAMA KEN","city":"ARIDA SHI","town":"YAMACHI","perfecture_jp":"和歌山県","jp_add_1":"有田市","jp_add_2":"山地"},"6491341":{"post_code":"6491341","prefecture":"WAKAYAMA KEN","city":"GOBO SHI","town":"FUJITACHO FUJII","perfecture_jp":"和歌山県","jp_add_1":"御坊市","jp_add_2":"藤田町藤井"},"6491342":{"post_code":"6491342","prefecture":"WAKAYAMA KEN","city":"GOBO SHI","town":"FUJITACHO YOSHIDA","perfecture_jp":"和歌山県","jp_add_1":"御坊市","jp_add_2":"藤田町吉田"},"6496400":{"post_code":"6496400","prefecture":"WAKAYAMA KEN","city":"KINOKAWA SHI","town":"IKANIKEISAIGANAIBAAI","perfecture_jp":"和歌山県","jp_add_1":"紀の川市","jp_add_2":""},"6496404":{"post_code":"6496404","prefecture":"WAKAYAMA KEN","city":"KINOKAWA SHI","town":"AKAO","perfecture_jp":"和歌山県","jp_add_1":"紀の川市","jp_add_2":"赤尾"},"6496614":{"post_code":"6496614","prefecture":"WAKAYAMA KEN","city":"KINOKAWA SHI","town":"AKANTA","perfecture_jp":"和歌山県","jp_add_1":"紀の川市","jp_add_2":"赤沼田"},"6496611":{"post_code":"6496611","prefecture":"WAKAYAMA KEN","city":"KINOKAWA SHI","town":"ANABUSHI","perfecture_jp":"和歌山県","jp_add_1":"紀の川市","jp_add_2":"穴伏"},"6496561":{"post_code":"6496561","prefecture":"WAKAYAMA KEN","city":"KINOKAWA SHI","town":"ARAMI","perfecture_jp":"和歌山県","jp_add_1":"紀の川市","jp_add_2":"荒見"},"6496407":{"post_code":"6496407","prefecture":"WAKAYAMA KEN","city":"KINOKAWA SHI","town":"IKEDASHIN","perfecture_jp":"和歌山県","jp_add_1":"紀の川市","jp_add_2":"池田新"},"6496541":{"post_code":"6496541","prefecture":"WAKAYAMA KEN","city":"KINOKAWA SHI","town":"IDA","perfecture_jp":"和歌山県","jp_add_1":"紀の川市","jp_add_2":"井田"},"6496511":{"post_code":"6496511","prefecture":"WAKAYAMA KEN","city":"KINOKAWA SHI","town":"INOKAKE","perfecture_jp":"和歌山県","jp_add_1":"紀の川市","jp_add_2":"猪垣"},"6496416":{"post_code":"6496416","prefecture":"WAKAYAMA KEN","city":"KINOKAWA SHI","town":"UENO","perfecture_jp":"和歌山県","jp_add_1":"紀の川市","jp_add_2":"上野"},"6496414":{"post_code":"6496414","prefecture":"WAKAYAMA KEN","city":"KINOKAWA SHI","town":"UCHITA","perfecture_jp":"和歌山県","jp_add_1":"紀の川市","jp_add_2":"打田"},"6496521":{"post_code":"6496521","prefecture":"WAKAYAMA KEN","city":"KINOKAWA SHI","town":"UMAYADO","perfecture_jp":"和歌山県","jp_add_1":"紀の川市","jp_add_2":"馬宿"},"6496605":{"post_code":"6496605","prefecture":"WAKAYAMA KEN","city":"KINOKAWA SHI","town":"EKAWANAKA","perfecture_jp":"和歌山県","jp_add_1":"紀の川市","jp_add_2":"江川中"},"6496624":{"post_code":"6496624","prefecture":"WAKAYAMA KEN","city":"KINOKAWA SHI","town":"OJI","perfecture_jp":"和歌山県","jp_add_1":"紀の川市","jp_add_2":"王子"},"6496615":{"post_code":"6496615","prefecture":"WAKAYAMA KEN","city":"KINOKAWA SHI","town":"OZUNAKA","perfecture_jp":"和歌山県","jp_add_1":"紀の川市","jp_add_2":"麻生津中"},"6496423":{"post_code":"6496423","prefecture":"WAKAYAMA KEN","city":"KINOKAWA SHI","town":"OZAKI","perfecture_jp":"和歌山県","jp_add_1":"紀の川市","jp_add_2":"尾崎"},"6496562":{"post_code":"6496562","prefecture":"WAKAYAMA KEN","city":"KINOKAWA SHI","town":"OCHIKATA","perfecture_jp":"和歌山県","jp_add_1":"紀の川市","jp_add_2":"遠方"},"6496563":{"post_code":"6496563","prefecture":"WAKAYAMA KEN","city":"KINOKAWA SHI","town":"KAZASHI","perfecture_jp":"和歌山県","jp_add_1":"紀の川市","jp_add_2":"風市"},"6496564":{"post_code":"6496564","prefecture":"WAKAYAMA KEN","city":"KINOKAWA SHI","town":"KASUKAMI","perfecture_jp":"和歌山県","jp_add_1":"紀の川市","jp_add_2":"勝神"},"6496571":{"post_code":"6496571","prefecture":"WAKAYAMA KEN","city":"KINOKAWA SHI","town":"KAMITOMOBUCHI","perfecture_jp":"和歌山県","jp_add_1":"紀の川市","jp_add_2":"上鞆渕"},"6496522":{"post_code":"6496522","prefecture":"WAKAYAMA KEN","city":"KINOKAWA SHI","town":"KAMINYUYA","perfecture_jp":"和歌山県","jp_add_1":"紀の川市","jp_add_2":"上丹生谷"},"6496406":{"post_code":"6496406","prefecture":"WAKAYAMA KEN","city":"KINOKAWA SHI","town":"KITAOI","perfecture_jp":"和歌山県","jp_add_1":"紀の川市","jp_add_2":"北大井"},"6496501":{"post_code":"6496501","prefecture":"WAKAYAMA KEN","city":"KINOKAWA SHI","town":"KITASHINO","perfecture_jp":"和歌山県","jp_add_1":"紀の川市","jp_add_2":"北志野"},"6496402":{"post_code":"6496402","prefecture":"WAKAYAMA KEN","city":"KINOKAWA SHI","town":"KITASEIDA","perfecture_jp":"和歌山県","jp_add_1":"紀の川市","jp_add_2":"北勢田"},"6496443":{"post_code":"6496443","prefecture":"WAKAYAMA KEN","city":"KINOKAWA SHI","town":"KITANAKA","perfecture_jp":"和歌山県","jp_add_1":"紀の川市","jp_add_2":"北中"},"6496502":{"post_code":"6496502","prefecture":"WAKAYAMA KEN","city":"KINOKAWA SHI","town":"KITANAGATA","perfecture_jp":"和歌山県","jp_add_1":"紀の川市","jp_add_2":"北長田"},"6496612":{"post_code":"6496612","prefecture":"WAKAYAMA KEN","city":"KINOKAWA SHI","town":"KITAWAKI","perfecture_jp":"和歌山県","jp_add_1":"紀の川市","jp_add_2":"北涌"},"6496606":{"post_code":"6496606","prefecture":"WAKAYAMA KEN","city":"KINOKAWA SHI","town":"KIRIHATA","perfecture_jp":"和歌山県","jp_add_1":"紀の川市","jp_add_2":"切畑"},"6496415":{"post_code":"6496415","prefecture":"WAKAYAMA KEN","city":"KINOKAWA SHI","town":"KUBO","perfecture_jp":"和歌山県","jp_add_1":"紀の川市","jp_add_2":"窪"},"6496418":{"post_code":"6496418","prefecture":"WAKAYAMA KEN","city":"KINOKAWA SHI","town":"KURUBEKI","perfecture_jp":"和歌山県","jp_add_1":"紀の川市","jp_add_2":"久留壁"},"6496412":{"post_code":"6496412","prefecture":"WAKAYAMA KEN","city":"KINOKAWA SHI","town":"KUROTSUCHI","perfecture_jp":"和歌山県","jp_add_1":"紀の川市","jp_add_2":"黒土"},"6496422":{"post_code":"6496422","prefecture":"WAKAYAMA KEN","city":"KINOKAWA SHI","town":"KEYA","perfecture_jp":"和歌山県","jp_add_1":"紀の川市","jp_add_2":"花野"},"6496551":{"post_code":"6496551","prefecture":"WAKAYAMA KEN","city":"KINOKAWA SHI","town":"KODAI","perfecture_jp":"和歌山県","jp_add_1":"紀の川市","jp_add_2":"上田井"},"6496531":{"post_code":"6496531","prefecture":"WAKAYAMA KEN","city":"KINOKAWA SHI","town":"KOKAWA","perfecture_jp":"和歌山県","jp_add_1":"紀の川市","jp_add_2":"粉河"},"6496401":{"post_code":"6496401","prefecture":"WAKAYAMA KEN","city":"KINOKAWA SHI","town":"SHIGEKI","perfecture_jp":"和歌山県","jp_add_1":"紀の川市","jp_add_2":"重行"},"6496552":{"post_code":"6496552","prefecture":"WAKAYAMA KEN","city":"KINOKAWA SHI","town":"SHIMA","perfecture_jp":"和歌山県","jp_add_1":"紀の川市","jp_add_2":"嶋"},"6496426":{"post_code":"6496426","prefecture":"WAKAYAMA KEN","city":"KINOKAWA SHI","town":"SHIMOISAKA","perfecture_jp":"和歌山県","jp_add_1":"紀の川市","jp_add_2":"下井阪"},"6496572":{"post_code":"6496572","prefecture":"WAKAYAMA KEN","city":"KINOKAWA SHI","town":"SHIMOTOMOBUCHI","perfecture_jp":"和歌山県","jp_add_1":"紀の川市","jp_add_2":"下鞆渕"},"6496523":{"post_code":"6496523","prefecture":"WAKAYAMA KEN","city":"KINOKAWA SHI","town":"SHIMONYUYA","perfecture_jp":"和歌山県","jp_add_1":"紀の川市","jp_add_2":"下丹生谷"},"6496622":{"post_code":"6496622","prefecture":"WAKAYAMA KEN","city":"KINOKAWA SHI","town":"SHIREDA","perfecture_jp":"和歌山県","jp_add_1":"紀の川市","jp_add_2":"後田"},"6496451":{"post_code":"6496451","prefecture":"WAKAYAMA KEN","city":"KINOKAWA SHI","town":"JINZU","perfecture_jp":"和歌山県","jp_add_1":"紀の川市","jp_add_2":"神通"},"6496442":{"post_code":"6496442","prefecture":"WAKAYAMA KEN","city":"KINOKAWA SHI","town":"JINRYO","perfecture_jp":"和歌山県","jp_add_1":"紀の川市","jp_add_2":"神領"},"6496565":{"post_code":"6496565","prefecture":"WAKAYAMA KEN","city":"KINOKAWA SHI","town":"SUIBARA","perfecture_jp":"和歌山県","jp_add_1":"紀の川市","jp_add_2":"杉原"},"6496161":{"post_code":"6496161","prefecture":"WAKAYAMA KEN","city":"KINOKAWA SHI","town":"TAKANO","perfecture_jp":"和歌山県","jp_add_1":"紀の川市","jp_add_2":"高野"},"6496413":{"post_code":"6496413","prefecture":"WAKAYAMA KEN","city":"KINOKAWA SHI","town":"TAKEBUSA(450-BANCHIIKA)","perfecture_jp":"和歌山県","jp_add_1":"紀の川市","jp_add_2":"竹房"},"6496162":{"post_code":"6496162","prefecture":"WAKAYAMA KEN","city":"KINOKAWA SHI","town":"TAKEBUSA(451-BANCHIIJO)","perfecture_jp":"和歌山県","jp_add_1":"紀の川市","jp_add_2":"竹房"},"6496421":{"post_code":"6496421","prefecture":"WAKAYAMA KEN","city":"KINOKAWA SHI","town":"TANAKABABA","perfecture_jp":"和歌山県","jp_add_1":"紀の川市","jp_add_2":"田中馬場"},"6496512":{"post_code":"6496512","prefecture":"WAKAYAMA KEN","city":"KINOKAWA SHI","town":"TOGE","perfecture_jp":"和歌山県","jp_add_1":"紀の川市","jp_add_2":"東毛"},"6496445":{"post_code":"6496445","prefecture":"WAKAYAMA KEN","city":"KINOKAWA SHI","town":"TOYODA","perfecture_jp":"和歌山県","jp_add_1":"紀の川市","jp_add_2":"豊田"},"6496425":{"post_code":"6496425","prefecture":"WAKAYAMA KEN","city":"KINOKAWA SHI","town":"NAKAISAKA","perfecture_jp":"和歌山県","jp_add_1":"紀の川市","jp_add_2":"中井阪"},"6496503":{"post_code":"6496503","prefecture":"WAKAYAMA KEN","city":"KINOKAWA SHI","town":"NAGATANAKA","perfecture_jp":"和歌山県","jp_add_1":"紀の川市","jp_add_2":"長田中"},"6496513":{"post_code":"6496513","prefecture":"WAKAYAMA KEN","city":"KINOKAWA SHI","town":"NAKATSUGAWA","perfecture_jp":"和歌山県","jp_add_1":"紀の川市","jp_add_2":"中津川"},"6496573":{"post_code":"6496573","prefecture":"WAKAYAMA KEN","city":"KINOKAWA SHI","town":"NAKATOMOBUCHI","perfecture_jp":"和歌山県","jp_add_1":"紀の川市","jp_add_2":"中鞆渕"},"6496452":{"post_code":"6496452","prefecture":"WAKAYAMA KEN","city":"KINOKAWA SHI","town":"NAKAHATA","perfecture_jp":"和歌山県","jp_add_1":"紀の川市","jp_add_2":"中畑"},"6496434":{"post_code":"6496434","prefecture":"WAKAYAMA KEN","city":"KINOKAWA SHI","town":"NAKAMITANI","perfecture_jp":"和歌山県","jp_add_1":"紀の川市","jp_add_2":"中三谷"},"6496532":{"post_code":"6496532","prefecture":"WAKAYAMA KEN","city":"KINOKAWA SHI","town":"NAKAYAMA","perfecture_jp":"和歌山県","jp_add_1":"紀の川市","jp_add_2":"中山"},"6496631":{"post_code":"6496631","prefecture":"WAKAYAMA KEN","city":"KINOKAWA SHI","town":"NATEICHIBA","perfecture_jp":"和歌山県","jp_add_1":"紀の川市","jp_add_2":"名手市場"},"6496601":{"post_code":"6496601","prefecture":"WAKAYAMA KEN","city":"KINOKAWA SHI","town":"NATEKAMI","perfecture_jp":"和歌山県","jp_add_1":"紀の川市","jp_add_2":"名手上"},"6496603":{"post_code":"6496603","prefecture":"WAKAYAMA KEN","city":"KINOKAWA SHI","town":"NATESHIMO","perfecture_jp":"和歌山県","jp_add_1":"紀の川市","jp_add_2":"名手下"},"6496621":{"post_code":"6496621","prefecture":"WAKAYAMA KEN","city":"KINOKAWA SHI","town":"NATENISHINO","perfecture_jp":"和歌山県","jp_add_1":"紀の川市","jp_add_2":"名手西野"},"6496427":{"post_code":"6496427","prefecture":"WAKAYAMA KEN","city":"KINOKAWA SHI","town":"NISHIISAKA","perfecture_jp":"和歌山県","jp_add_1":"紀の川市","jp_add_2":"西井阪"},"6496417":{"post_code":"6496417","prefecture":"WAKAYAMA KEN","city":"KINOKAWA SHI","town":"NISHIOI","perfecture_jp":"和歌山県","jp_add_1":"紀の川市","jp_add_2":"西大井"},"6496524":{"post_code":"6496524","prefecture":"WAKAYAMA KEN","city":"KINOKAWA SHI","town":"NISHIKAWAHARA","perfecture_jp":"和歌山県","jp_add_1":"紀の川市","jp_add_2":"西川原"},"6496604":{"post_code":"6496604","prefecture":"WAKAYAMA KEN","city":"KINOKAWA SHI","town":"NISHINOYAMA","perfecture_jp":"和歌山県","jp_add_1":"紀の川市","jp_add_2":"西野山"},"6496433":{"post_code":"6496433","prefecture":"WAKAYAMA KEN","city":"KINOKAWA SHI","town":"NISHIMITANI","perfecture_jp":"和歌山県","jp_add_1":"紀の川市","jp_add_2":"西三谷"},"6496447":{"post_code":"6496447","prefecture":"WAKAYAMA KEN","city":"KINOKAWA SHI","town":"NISHIYAMADA","perfecture_jp":"和歌山県","jp_add_1":"紀の川市","jp_add_2":"西山田"},"6496616":{"post_code":"6496616","prefecture":"WAKAYAMA KEN","city":"KINOKAWA SHI","town":"NISHIWAKI","perfecture_jp":"和歌山県","jp_add_1":"紀の川市","jp_add_2":"西脇"},"6496525":{"post_code":"6496525","prefecture":"WAKAYAMA KEN","city":"KINOKAWA SHI","town":"NOGAMI","perfecture_jp":"和歌山県","jp_add_1":"紀の川市","jp_add_2":"野上"},"6496444":{"post_code":"6496444","prefecture":"WAKAYAMA KEN","city":"KINOKAWA SHI","town":"NOBORIO","perfecture_jp":"和歌山県","jp_add_1":"紀の川市","jp_add_2":"登尾"},"6496424":{"post_code":"6496424","prefecture":"WAKAYAMA KEN","city":"KINOKAWA SHI","town":"HATANOE","perfecture_jp":"和歌山県","jp_add_1":"紀の川市","jp_add_2":"畑野上"},"6496405":{"post_code":"6496405","prefecture":"WAKAYAMA KEN","city":"KINOKAWA SHI","town":"HIGASHIOI","perfecture_jp":"和歌山県","jp_add_1":"紀の川市","jp_add_2":"東大井"},"6496526":{"post_code":"6496526","prefecture":"WAKAYAMA KEN","city":"KINOKAWA SHI","town":"HIGASHIKAWAHARA","perfecture_jp":"和歌山県","jp_add_1":"紀の川市","jp_add_2":"東川原"},"6496428":{"post_code":"6496428","prefecture":"WAKAYAMA KEN","city":"KINOKAWA SHI","town":"HIGASHIKOKUBU","perfecture_jp":"和歌山県","jp_add_1":"紀の川市","jp_add_2":"東国分"},"6496542":{"post_code":"6496542","prefecture":"WAKAYAMA KEN","city":"KINOKAWA SHI","town":"HIGASHINO","perfecture_jp":"和歌山県","jp_add_1":"紀の川市","jp_add_2":"東野"},"6496435":{"post_code":"6496435","prefecture":"WAKAYAMA KEN","city":"KINOKAWA SHI","town":"HIGASHIMITANI","perfecture_jp":"和歌山県","jp_add_1":"紀の川市","jp_add_2":"東三谷"},"6496441":{"post_code":"6496441","prefecture":"WAKAYAMA KEN","city":"KINOKAWA SHI","town":"HIGASHIYAMADA","perfecture_jp":"和歌山県","jp_add_1":"紀の川市","jp_add_2":"東山田"},"6496602":{"post_code":"6496602","prefecture":"WAKAYAMA KEN","city":"KINOKAWA SHI","town":"HIRANO","perfecture_jp":"和歌山県","jp_add_1":"紀の川市","jp_add_2":"平野"},"6496411":{"post_code":"6496411","prefecture":"WAKAYAMA KEN","city":"KINOKAWA SHI","town":"HIRONO","perfecture_jp":"和歌山県","jp_add_1":"紀の川市","jp_add_2":"広野"},"6496446":{"post_code":"6496446","prefecture":"WAKAYAMA KEN","city":"KINOKAWA SHI","town":"BIWADANI","perfecture_jp":"和歌山県","jp_add_1":"紀の川市","jp_add_2":"枇杷谷"},"6496553":{"post_code":"6496553","prefecture":"WAKAYAMA KEN","city":"KINOKAWA SHI","town":"FUKEDA","perfecture_jp":"和歌山県","jp_add_1":"紀の川市","jp_add_2":"深田"},"6496514":{"post_code":"6496514","prefecture":"WAKAYAMA KEN","city":"KINOKAWA SHI","town":"FUJII","perfecture_jp":"和歌山県","jp_add_1":"紀の川市","jp_add_2":"藤井"},"6496623":{"post_code":"6496623","prefecture":"WAKAYAMA KEN","city":"KINOKAWA SHI","town":"FUJISAKI","perfecture_jp":"和歌山県","jp_add_1":"紀の川市","jp_add_2":"藤崎"},"6496432":{"post_code":"6496432","prefecture":"WAKAYAMA KEN","city":"KINOKAWA SHI","town":"FURUWADA","perfecture_jp":"和歌山県","jp_add_1":"紀の川市","jp_add_2":"古和田"},"6496554":{"post_code":"6496554","prefecture":"WAKAYAMA KEN","city":"KINOKAWA SHI","town":"BESSHIYO","perfecture_jp":"和歌山県","jp_add_1":"紀の川市","jp_add_2":"別所"},"6496555":{"post_code":"6496555","prefecture":"WAKAYAMA KEN","city":"KINOKAWA SHI","town":"MATSUI","perfecture_jp":"和歌山県","jp_add_1":"紀の川市","jp_add_2":"松井"},"6496504":{"post_code":"6496504","prefecture":"WAKAYAMA KEN","city":"KINOKAWA SHI","town":"MINAMISHINO","perfecture_jp":"和歌山県","jp_add_1":"紀の川市","jp_add_2":"南志野"},"6496403":{"post_code":"6496403","prefecture":"WAKAYAMA KEN","city":"KINOKAWA SHI","town":"MINAMISEIDA","perfecture_jp":"和歌山県","jp_add_1":"紀の川市","jp_add_2":"南勢田"},"6496431":{"post_code":"6496431","prefecture":"WAKAYAMA KEN","city":"KINOKAWA SHI","town":"MINAMINAKA","perfecture_jp":"和歌山県","jp_add_1":"紀の川市","jp_add_2":"南中"},"6496124":{"post_code":"6496124","prefecture":"WAKAYAMA KEN","city":"KINOKAWA SHI","town":"MOMOYAMACHO ICHIBA","perfecture_jp":"和歌山県","jp_add_1":"紀の川市","jp_add_2":"桃山町市場"},"6496105":{"post_code":"6496105","prefecture":"WAKAYAMA KEN","city":"KINOKAWA SHI","town":"MOMOYAMACHO OBARA","perfecture_jp":"和歌山県","jp_add_1":"紀の川市","jp_add_2":"桃山町大原"},"6496102":{"post_code":"6496102","prefecture":"WAKAYAMA KEN","city":"KINOKAWA SHI","town":"MOMOYAMACHO KUROKAWA","perfecture_jp":"和歌山県","jp_add_1":"紀の川市","jp_add_2":"桃山町黒川"},"6496123":{"post_code":"6496123","prefecture":"WAKAYAMA KEN","city":"KINOKAWA SHI","town":"MOMOYAMACHO KODA","perfecture_jp":"和歌山県","jp_add_1":"紀の川市","jp_add_2":"桃山町神田"},"6496101":{"post_code":"6496101","prefecture":"WAKAYAMA KEN","city":"KINOKAWA SHI","town":"MOMOYAMACHO ZENDA","perfecture_jp":"和歌山県","jp_add_1":"紀の川市","jp_add_2":"桃山町善田"},"6496125":{"post_code":"6496125","prefecture":"WAKAYAMA KEN","city":"KINOKAWA SHI","town":"MOMOYAMACHO DAN","perfecture_jp":"和歌山県","jp_add_1":"紀の川市","jp_add_2":"桃山町段"},"6496121":{"post_code":"6496121","prefecture":"WAKAYAMA KEN","city":"KINOKAWA SHI","town":"MOMOYAMACHO DANSHINDEN","perfecture_jp":"和歌山県","jp_add_1":"紀の川市","jp_add_2":"桃山町段新田"},"6496112":{"post_code":"6496112","prefecture":"WAKAYAMA KEN","city":"KINOKAWA SHI","town":"MOMOYAMACHO TSUKATSUKI","perfecture_jp":"和歌山県","jp_add_1":"紀の川市","jp_add_2":"桃山町調月"},"6496103":{"post_code":"6496103","prefecture":"WAKAYAMA KEN","city":"KINOKAWA SHI","town":"MOMOYAMACHO NOTAHARA","perfecture_jp":"和歌山県","jp_add_1":"紀の川市","jp_add_2":"桃山町野田原"},"6496111":{"post_code":"6496111","prefecture":"WAKAYAMA KEN","city":"KINOKAWA SHI","town":"MOMOYAMACHO MOGAMI","perfecture_jp":"和歌山県","jp_add_1":"紀の川市","jp_add_2":"桃山町最上"},"6496122":{"post_code":"6496122","prefecture":"WAKAYAMA KEN","city":"KINOKAWA SHI","town":"MOMOYAMACHO MOTO","perfecture_jp":"和歌山県","jp_add_1":"紀の川市","jp_add_2":"桃山町元"},"6496104":{"post_code":"6496104","prefecture":"WAKAYAMA KEN","city":"KINOKAWA SHI","town":"MOMOYAMACHO WAKIDANI","perfecture_jp":"和歌山県","jp_add_1":"紀の川市","jp_add_2":"桃山町脇谷"},"6496613":{"post_code":"6496613","prefecture":"WAKAYAMA KEN","city":"KINOKAWA SHI","town":"YOKODANI","perfecture_jp":"和歌山県","jp_add_1":"紀の川市","jp_add_2":"横谷"},"6496200":{"post_code":"6496200","prefecture":"WAKAYAMA KEN","city":"IWADE SHI","town":"IKANIKEISAIGANAIBAAI","perfecture_jp":"和歌山県","jp_add_1":"岩出市","jp_add_2":""},"6496257":{"post_code":"6496257","prefecture":"WAKAYAMA KEN","city":"IWADE SHI","town":"AIDANI","perfecture_jp":"和歌山県","jp_add_1":"岩出市","jp_add_2":"相谷"},"6496242":{"post_code":"6496242","prefecture":"WAKAYAMA KEN","city":"IWADE SHI","town":"AKAGAITO","perfecture_jp":"和歌山県","jp_add_1":"岩出市","jp_add_2":"赤垣内"},"6496207":{"post_code":"6496207","prefecture":"WAKAYAMA KEN","city":"IWADE SHI","town":"AMAGATSUJI","perfecture_jp":"和歌山県","jp_add_1":"岩出市","jp_add_2":"尼ケ辻"},"6496252":{"post_code":"6496252","prefecture":"WAKAYAMA KEN","city":"IWADE SHI","town":"ANJO","perfecture_jp":"和歌山県","jp_add_1":"岩出市","jp_add_2":"安上"},"6496232":{"post_code":"6496232","prefecture":"WAKAYAMA KEN","city":"IWADE SHI","town":"IBARAMOTO","perfecture_jp":"和歌山県","jp_add_1":"岩出市","jp_add_2":"荊本"},"6496204":{"post_code":"6496204","prefecture":"WAKAYAMA KEN","city":"IWADE SHI","town":"IMANAKA","perfecture_jp":"和歌山県","jp_add_1":"岩出市","jp_add_2":"今中"},"6496208":{"post_code":"6496208","prefecture":"WAKAYAMA KEN","city":"IWADE SHI","town":"IMAHATA","perfecture_jp":"和歌山県","jp_add_1":"岩出市","jp_add_2":"今畑"},"6496228":{"post_code":"6496228","prefecture":"WAKAYAMA KEN","city":"IWADE SHI","town":"OMACHI","perfecture_jp":"和歌山県","jp_add_1":"岩出市","jp_add_2":"大町"},"6496222":{"post_code":"6496222","prefecture":"WAKAYAMA KEN","city":"IWADE SHI","town":"OKADA","perfecture_jp":"和歌山県","jp_add_1":"岩出市","jp_add_2":"岡田"},"6496201":{"post_code":"6496201","prefecture":"WAKAYAMA KEN","city":"IWADE SHI","town":"OSHIGAWA","perfecture_jp":"和歌山県","jp_add_1":"岩出市","jp_add_2":"押川"},"6496256":{"post_code":"6496256","prefecture":"WAKAYAMA KEN","city":"IWADE SHI","town":"KANAIKE","perfecture_jp":"和歌山県","jp_add_1":"岩出市","jp_add_2":"金池"},"6496243":{"post_code":"6496243","prefecture":"WAKAYAMA KEN","city":"IWADE SHI","town":"KANAYA","perfecture_jp":"和歌山県","jp_add_1":"岩出市","jp_add_2":"金屋"},"6496231":{"post_code":"6496231","prefecture":"WAKAYAMA KEN","city":"IWADE SHI","town":"KAWASHIRI","perfecture_jp":"和歌山県","jp_add_1":"岩出市","jp_add_2":"川尻"},"6496253":{"post_code":"6496253","prefecture":"WAKAYAMA KEN","city":"IWADE SHI","town":"KISENDAI","perfecture_jp":"和歌山県","jp_add_1":"岩出市","jp_add_2":"紀泉台"},"6496219":{"post_code":"6496219","prefecture":"WAKAYAMA KEN","city":"IWADE SHI","town":"KITAOIKE","perfecture_jp":"和歌山県","jp_add_1":"岩出市","jp_add_2":"北大池"},"6496251":{"post_code":"6496251","prefecture":"WAKAYAMA KEN","city":"IWADE SHI","town":"SAKAIDANI","perfecture_jp":"和歌山県","jp_add_1":"岩出市","jp_add_2":"境谷"},"6496203":{"post_code":"6496203","prefecture":"WAKAYAMA KEN","city":"IWADE SHI","town":"SAKURADAI","perfecture_jp":"和歌山県","jp_add_1":"岩出市","jp_add_2":"桜台"},"6496227":{"post_code":"6496227","prefecture":"WAKAYAMA KEN","city":"IWADE SHI","town":"SHIMIZU","perfecture_jp":"和歌山県","jp_add_1":"岩出市","jp_add_2":"清水"},"6496212":{"post_code":"6496212","prefecture":"WAKAYAMA KEN","city":"IWADE SHI","town":"SHINDENHIROSHIBA","perfecture_jp":"和歌山県","jp_add_1":"岩出市","jp_add_2":"新田広芝"},"6496236":{"post_code":"6496236","prefecture":"WAKAYAMA KEN","city":"IWADE SHI","town":"SOYA","perfecture_jp":"和歌山県","jp_add_1":"岩出市","jp_add_2":"曽屋"},"6496234":{"post_code":"6496234","prefecture":"WAKAYAMA KEN","city":"IWADE SHI","town":"TAKASE","perfecture_jp":"和歌山県","jp_add_1":"岩出市","jp_add_2":"高瀬"},"6496223":{"post_code":"6496223","prefecture":"WAKAYAMA KEN","city":"IWADE SHI","town":"TAKATSUKA","perfecture_jp":"和歌山県","jp_add_1":"岩出市","jp_add_2":"高塚"},"6496248":{"post_code":"6496248","prefecture":"WAKAYAMA KEN","city":"IWADE SHI","town":"YUKUBO","perfecture_jp":"和歌山県","jp_add_1":"岩出市","jp_add_2":"中黒"},"6496245":{"post_code":"6496245","prefecture":"WAKAYAMA KEN","city":"IWADE SHI","town":"NAKAJIMA","perfecture_jp":"和歌山県","jp_add_1":"岩出市","jp_add_2":"中島"},"6496215":{"post_code":"6496215","prefecture":"WAKAYAMA KEN","city":"IWADE SHI","town":"NAKABUSA","perfecture_jp":"和歌山県","jp_add_1":"岩出市","jp_add_2":"中迫"},"6496255":{"post_code":"6496255","prefecture":"WAKAYAMA KEN","city":"IWADE SHI","town":"NISHIANJO","perfecture_jp":"和歌山県","jp_add_1":"岩出市","jp_add_2":"西安上"},"6496213":{"post_code":"6496213","prefecture":"WAKAYAMA KEN","city":"IWADE SHI","town":"NISHIKOKUBU","perfecture_jp":"和歌山県","jp_add_1":"岩出市","jp_add_2":"西国分"},"6496235":{"post_code":"6496235","prefecture":"WAKAYAMA KEN","city":"IWADE SHI","town":"NISHINO","perfecture_jp":"和歌山県","jp_add_1":"岩出市","jp_add_2":"西野"},"6496202":{"post_code":"6496202","prefecture":"WAKAYAMA KEN","city":"IWADE SHI","town":"NEGORO","perfecture_jp":"和歌山県","jp_add_1":"岩出市","jp_add_2":"根来"},"6496216":{"post_code":"6496216","prefecture":"WAKAYAMA KEN","city":"IWADE SHI","town":"NOJONO","perfecture_jp":"和歌山県","jp_add_1":"岩出市","jp_add_2":"野上野"},"6496244":{"post_code":"6496244","prefecture":"WAKAYAMA KEN","city":"IWADE SHI","town":"HATAKE","perfecture_jp":"和歌山県","jp_add_1":"岩出市","jp_add_2":"畑毛"},"6496241":{"post_code":"6496241","prefecture":"WAKAYAMA KEN","city":"IWADE SHI","town":"HABU","perfecture_jp":"和歌山県","jp_add_1":"岩出市","jp_add_2":"波分"},"6496254":{"post_code":"6496254","prefecture":"WAKAYAMA KEN","city":"IWADE SHI","town":"HARA","perfecture_jp":"和歌山県","jp_add_1":"岩出市","jp_add_2":"原"},"6496211":{"post_code":"6496211","prefecture":"WAKAYAMA KEN","city":"IWADE SHI","town":"HIGASHISAKAMOTO","perfecture_jp":"和歌山県","jp_add_1":"岩出市","jp_add_2":"東坂本"},"6496233":{"post_code":"6496233","prefecture":"WAKAYAMA KEN","city":"IWADE SHI","town":"BIZEN","perfecture_jp":"和歌山県","jp_add_1":"岩出市","jp_add_2":"備前"},"6496225":{"post_code":"6496225","prefecture":"WAKAYAMA KEN","city":"IWADE SHI","town":"FUNATO","perfecture_jp":"和歌山県","jp_add_1":"岩出市","jp_add_2":"船戸"},"6496206":{"post_code":"6496206","prefecture":"WAKAYAMA KEN","city":"IWADE SHI","town":"HORIGUCHI","perfecture_jp":"和歌山県","jp_add_1":"岩出市","jp_add_2":"堀口"},"6496214":{"post_code":"6496214","prefecture":"WAKAYAMA KEN","city":"IWADE SHI","town":"MIZUSU","perfecture_jp":"和歌山県","jp_add_1":"岩出市","jp_add_2":"水栖"},"6496221":{"post_code":"6496221","prefecture":"WAKAYAMA KEN","city":"IWADE SHI","town":"MIZOKAWA","perfecture_jp":"和歌山県","jp_add_1":"岩出市","jp_add_2":"溝川"},"6496218":{"post_code":"6496218","prefecture":"WAKAYAMA KEN","city":"IWADE SHI","town":"MINAMIOIKE","perfecture_jp":"和歌山県","jp_add_1":"岩出市","jp_add_2":"南大池"},"6496226":{"post_code":"6496226","prefecture":"WAKAYAMA KEN","city":"IWADE SHI","town":"MIYA","perfecture_jp":"和歌山県","jp_add_1":"岩出市","jp_add_2":"宮"},"6496205":{"post_code":"6496205","prefecture":"WAKAYAMA KEN","city":"IWADE SHI","town":"MORI","perfecture_jp":"和歌山県","jp_add_1":"岩出市","jp_add_2":"森"},"6496258":{"post_code":"6496258","prefecture":"WAKAYAMA KEN","city":"IWADE SHI","town":"YAMA","perfecture_jp":"和歌山県","jp_add_1":"岩出市","jp_add_2":"山"},"6496224":{"post_code":"6496224","prefecture":"WAKAYAMA KEN","city":"IWADE SHI","town":"YAMASAKI","perfecture_jp":"和歌山県","jp_add_1":"岩出市","jp_add_2":"山崎"},"6496217":{"post_code":"6496217","prefecture":"WAKAYAMA KEN","city":"IWADE SHI","town":"YAMADA","perfecture_jp":"和歌山県","jp_add_1":"岩出市","jp_add_2":"山田"},"6496246":{"post_code":"6496246","prefecture":"WAKAYAMA KEN","city":"IWADE SHI","town":"YOSHIDA","perfecture_jp":"和歌山県","jp_add_1":"岩出市","jp_add_2":"吉田"},"6497100":{"post_code":"6497100","prefecture":"WAKAYAMA KEN","city":"ITO GUN KATSURAGI CHO","town":"IKANIKEISAIGANAIBAAI","perfecture_jp":"和歌山県","jp_add_1":"伊都郡かつらぎ町","jp_add_2":""},"6497137":{"post_code":"6497137","prefecture":"WAKAYAMA KEN","city":"ITO GUN KATSURAGI CHO","town":"ANII","perfecture_jp":"和歌山県","jp_add_1":"伊都郡かつらぎ町","jp_add_2":"兄井"},"6497167":{"post_code":"6497167","prefecture":"WAKAYAMA KEN","city":"ITO GUN KATSURAGI CHO","town":"UTSURI","perfecture_jp":"和歌山県","jp_add_1":"伊都郡かつらぎ町","jp_add_2":"移"},"6497172":{"post_code":"6497172","prefecture":"WAKAYAMA KEN","city":"ITO GUN KATSURAGI CHO","town":"EBISU","perfecture_jp":"和歌山県","jp_add_1":"伊都郡かつらぎ町","jp_add_2":"蛭子"},"6497173":{"post_code":"6497173","prefecture":"WAKAYAMA KEN","city":"ITO GUN KATSURAGI CHO","town":"OTANI","perfecture_jp":"和歌山県","jp_add_1":"伊都郡かつらぎ町","jp_add_2":"大谷"},"6497111":{"post_code":"6497111","prefecture":"WAKAYAMA KEN","city":"ITO GUN KATSURAGI CHO","town":"OHATA","perfecture_jp":"和歌山県","jp_add_1":"伊都郡かつらぎ町","jp_add_2":"大畑"},"6497171":{"post_code":"6497171","prefecture":"WAKAYAMA KEN","city":"ITO GUN KATSURAGI CHO","town":"OYABU","perfecture_jp":"和歌山県","jp_add_1":"伊都郡かつらぎ町","jp_add_2":"大薮"},"6497123":{"post_code":"6497123","prefecture":"WAKAYAMA KEN","city":"ITO GUN KATSURAGI CHO","town":"KASHIWAGI","perfecture_jp":"和歌山県","jp_add_1":"伊都郡かつらぎ町","jp_add_2":"柏木"},"6497162":{"post_code":"6497162","prefecture":"WAKAYAMA KEN","city":"ITO GUN KATSURAGI CHO","town":"KASEDANAKA","perfecture_jp":"和歌山県","jp_add_1":"伊都郡かつらぎ町","jp_add_2":"笠田中"},"6497161":{"post_code":"6497161","prefecture":"WAKAYAMA KEN","city":"ITO GUN KATSURAGI CHO","town":"KASEDAHIGASHI","perfecture_jp":"和歌山県","jp_add_1":"伊都郡かつらぎ町","jp_add_2":"笠田東"},"6497141":{"post_code":"6497141","prefecture":"WAKAYAMA KEN","city":"ITO GUN KATSURAGI CHO","town":"KAMIAMANO","perfecture_jp":"和歌山県","jp_add_1":"伊都郡かつらぎ町","jp_add_2":"上天野"},"6497132":{"post_code":"6497132","prefecture":"WAKAYAMA KEN","city":"ITO GUN KATSURAGI CHO","town":"KYORAJI","perfecture_jp":"和歌山県","jp_add_1":"伊都郡かつらぎ町","jp_add_2":"教良寺"},"6497164":{"post_code":"6497164","prefecture":"WAKAYAMA KEN","city":"ITO GUN KATSURAGI CHO","town":"KUBO","perfecture_jp":"和歌山県","jp_add_1":"伊都郡かつらぎ町","jp_add_2":"窪"},"6497143":{"post_code":"6497143","prefecture":"WAKAYAMA KEN","city":"ITO GUN KATSURAGI CHO","town":"KODA","perfecture_jp":"和歌山県","jp_add_1":"伊都郡かつらぎ町","jp_add_2":"神田"},"6497153":{"post_code":"6497153","prefecture":"WAKAYAMA KEN","city":"ITO GUN KATSURAGI CHO","town":"GOSE","perfecture_jp":"和歌山県","jp_add_1":"伊都郡かつらぎ町","jp_add_2":"御所"},"6497174":{"post_code":"6497174","prefecture":"WAKAYAMA KEN","city":"ITO GUN KATSURAGI CHO","town":"SAYA","perfecture_jp":"和歌山県","jp_add_1":"伊都郡かつらぎ町","jp_add_2":"佐野"},"6497144":{"post_code":"6497144","prefecture":"WAKAYAMA KEN","city":"ITO GUN KATSURAGI CHO","town":"SHIGA","perfecture_jp":"和歌山県","jp_add_1":"伊都郡かつらぎ町","jp_add_2":"志賀"},"6497155":{"post_code":"6497155","prefecture":"WAKAYAMA KEN","city":"ITO GUN KATSURAGI CHO","town":"SHIMA","perfecture_jp":"和歌山県","jp_add_1":"伊都郡かつらぎ町","jp_add_2":"島"},"6497142":{"post_code":"6497142","prefecture":"WAKAYAMA KEN","city":"ITO GUN KATSURAGI CHO","town":"SHIMOAMANO","perfecture_jp":"和歌山県","jp_add_1":"伊都郡かつらぎ町","jp_add_2":"下天野"},"6497122":{"post_code":"6497122","prefecture":"WAKAYAMA KEN","city":"ITO GUN KATSURAGI CHO","town":"SHINDEN","perfecture_jp":"和歌山県","jp_add_1":"伊都郡かつらぎ町","jp_add_2":"新田"},"6497165":{"post_code":"6497165","prefecture":"WAKAYAMA KEN","city":"ITO GUN KATSURAGI CHO","town":"SENOYAMA","perfecture_jp":"和歌山県","jp_add_1":"伊都郡かつらぎ町","jp_add_2":"背ノ山"},"6497104":{"post_code":"6497104","prefecture":"WAKAYAMA KEN","city":"ITO GUN KATSURAGI CHO","town":"TAIRA","perfecture_jp":"和歌山県","jp_add_1":"伊都郡かつらぎ町","jp_add_2":"平"},"6497166":{"post_code":"6497166","prefecture":"WAKAYAMA KEN","city":"ITO GUN KATSURAGI CHO","town":"TAKADA","perfecture_jp":"和歌山県","jp_add_1":"伊都郡かつらぎ町","jp_add_2":"高田"},"6497102":{"post_code":"6497102","prefecture":"WAKAYAMA KEN","city":"ITO GUN KATSURAGI CHO","town":"TAKI","perfecture_jp":"和歌山県","jp_add_1":"伊都郡かつらぎ町","jp_add_2":"滝"},"6497121":{"post_code":"6497121","prefecture":"WAKAYAMA KEN","city":"ITO GUN KATSURAGI CHO","town":"CHONOMACHI","perfecture_jp":"和歌山県","jp_add_1":"伊都郡かつらぎ町","jp_add_2":"丁ノ町"},"6497136":{"post_code":"6497136","prefecture":"WAKAYAMA KEN","city":"ITO GUN KATSURAGI CHO","town":"TERAO","perfecture_jp":"和歌山県","jp_add_1":"伊都郡かつらぎ町","jp_add_2":"寺尾"},"6497112":{"post_code":"6497112","prefecture":"WAKAYAMA KEN","city":"ITO GUN KATSURAGI CHO","town":"NAKAIBURI","perfecture_jp":"和歌山県","jp_add_1":"伊都郡かつらぎ町","jp_add_2":"中飯降"},"6497114":{"post_code":"6497114","prefecture":"WAKAYAMA KEN","city":"ITO GUN KATSURAGI CHO","town":"NISHIIBURI","perfecture_jp":"和歌山県","jp_add_1":"伊都郡かつらぎ町","jp_add_2":"西飯降"},"6497154":{"post_code":"6497154","prefecture":"WAKAYAMA KEN","city":"ITO GUN KATSURAGI CHO","town":"NISHISHIBUTA","perfecture_jp":"和歌山県","jp_add_1":"伊都郡かつらぎ町","jp_add_2":"西渋田"},"6497163":{"post_code":"6497163","prefecture":"WAKAYAMA KEN","city":"ITO GUN KATSURAGI CHO","town":"HAGIHARA","perfecture_jp":"和歌山県","jp_add_1":"伊都郡かつらぎ町","jp_add_2":"萩原"},"6497151":{"post_code":"6497151","prefecture":"WAKAYAMA KEN","city":"ITO GUN KATSURAGI CHO","town":"HIGASHISHIBUTA","perfecture_jp":"和歌山県","jp_add_1":"伊都郡かつらぎ町","jp_add_2":"東渋田"},"6497101":{"post_code":"6497101","prefecture":"WAKAYAMA KEN","city":"ITO GUN KATSURAGI CHO","town":"HIGASHITANI","perfecture_jp":"和歌山県","jp_add_1":"伊都郡かつらぎ町","jp_add_2":"東谷"},"6497145":{"post_code":"6497145","prefecture":"WAKAYAMA KEN","city":"ITO GUN KATSURAGI CHO","town":"HIDAKA","perfecture_jp":"和歌山県","jp_add_1":"伊都郡かつらぎ町","jp_add_2":"日高"},"6497135":{"post_code":"6497135","prefecture":"WAKAYAMA KEN","city":"ITO GUN KATSURAGI CHO","town":"HIRANTA","perfecture_jp":"和歌山県","jp_add_1":"伊都郡かつらぎ町","jp_add_2":"平沼田"},"6497175":{"post_code":"6497175","prefecture":"WAKAYAMA KEN","city":"ITO GUN KATSURAGI CHO","town":"HIRORA","perfecture_jp":"和歌山県","jp_add_1":"伊都郡かつらぎ町","jp_add_2":"広浦"},"6497103":{"post_code":"6497103","prefecture":"WAKAYAMA KEN","city":"ITO GUN KATSURAGI CHO","town":"HIROKUCHI","perfecture_jp":"和歌山県","jp_add_1":"伊都郡かつらぎ町","jp_add_2":"広口"},"6497152":{"post_code":"6497152","prefecture":"WAKAYAMA KEN","city":"ITO GUN KATSURAGI CHO","town":"HOSHIKAWA","perfecture_jp":"和歌山県","jp_add_1":"伊都郡かつらぎ町","jp_add_2":"星川"},"6497146":{"post_code":"6497146","prefecture":"WAKAYAMA KEN","city":"ITO GUN KATSURAGI CHO","town":"HOSHIYAMA","perfecture_jp":"和歌山県","jp_add_1":"伊都郡かつらぎ町","jp_add_2":"星山"},"6497115":{"post_code":"6497115","prefecture":"WAKAYAMA KEN","city":"ITO GUN KATSURAGI CHO","town":"MIJIKANO","perfecture_jp":"和歌山県","jp_add_1":"伊都郡かつらぎ町","jp_add_2":"短野"},"6497133":{"post_code":"6497133","prefecture":"WAKAYAMA KEN","city":"ITO GUN KATSURAGI CHO","town":"MITANI","perfecture_jp":"和歌山県","jp_add_1":"伊都郡かつらぎ町","jp_add_2":"三谷"},"6497134":{"post_code":"6497134","prefecture":"WAKAYAMA KEN","city":"ITO GUN KATSURAGI CHO","town":"MIYAMOTO","perfecture_jp":"和歌山県","jp_add_1":"伊都郡かつらぎ町","jp_add_2":"宮本"},"6497113":{"post_code":"6497113","prefecture":"WAKAYAMA KEN","city":"ITO GUN KATSURAGI CHO","town":"MYOJI","perfecture_jp":"和歌山県","jp_add_1":"伊都郡かつらぎ町","jp_add_2":"妙寺"},"6497131":{"post_code":"6497131","prefecture":"WAKAYAMA KEN","city":"ITO GUN KATSURAGI CHO","town":"YAMASAKI","perfecture_jp":"和歌山県","jp_add_1":"伊都郡かつらぎ町","jp_add_2":"山崎"},"6491200":{"post_code":"6491200","prefecture":"WAKAYAMA KEN","city":"HIDAKA GUN HIDAKA CHO","town":"IKANIKEISAIGANAIBAAI","perfecture_jp":"和歌山県","jp_add_1":"日高郡日高町","jp_add_2":""},"6491232":{"post_code":"6491232","prefecture":"WAKAYAMA KEN","city":"HIDAKA GUN HIDAKA CHO","town":"AO","perfecture_jp":"和歌山県","jp_add_1":"日高郡日高町","jp_add_2":"阿尾"},"6491203":{"post_code":"6491203","prefecture":"WAKAYAMA KEN","city":"HIDAKA GUN HIDAKA CHO","town":"IKEDA","perfecture_jp":"和歌山県","jp_add_1":"日高郡日高町","jp_add_2":"池田"},"6491211":{"post_code":"6491211","prefecture":"WAKAYAMA KEN","city":"HIDAKA GUN HIDAKA CHO","town":"IBARAKI","perfecture_jp":"和歌山県","jp_add_1":"日高郡日高町","jp_add_2":"荊木"},"6491233":{"post_code":"6491233","prefecture":"WAKAYAMA KEN","city":"HIDAKA GUN HIDAKA CHO","town":"UBUYU","perfecture_jp":"和歌山県","jp_add_1":"日高郡日高町","jp_add_2":"産湯"},"6491222":{"post_code":"6491222","prefecture":"WAKAYAMA KEN","city":"HIDAKA GUN HIDAKA CHO","town":"OIKE","perfecture_jp":"和歌山県","jp_add_1":"日高郡日高町","jp_add_2":"小池"},"6491223":{"post_code":"6491223","prefecture":"WAKAYAMA KEN","city":"HIDAKA GUN HIDAKA CHO","town":"ORA","perfecture_jp":"和歌山県","jp_add_1":"日高郡日高町","jp_add_2":"小浦"},"6491231":{"post_code":"6491231","prefecture":"WAKAYAMA KEN","city":"HIDAKA GUN HIDAKA CHO","town":"OSAKA","perfecture_jp":"和歌山県","jp_add_1":"日高郡日高町","jp_add_2":"小坂"},"6491212":{"post_code":"6491212","prefecture":"WAKAYAMA KEN","city":"HIDAKA GUN HIDAKA CHO","town":"ONAKA","perfecture_jp":"和歌山県","jp_add_1":"日高郡日高町","jp_add_2":"小中"},"6491225":{"post_code":"6491225","prefecture":"WAKAYAMA KEN","city":"HIDAKA GUN HIDAKA CHO","town":"KATAKUI","perfecture_jp":"和歌山県","jp_add_1":"日高郡日高町","jp_add_2":"方杭"},"6491221":{"post_code":"6491221","prefecture":"WAKAYAMA KEN","city":"HIDAKA GUN HIDAKA CHO","town":"SHIGA","perfecture_jp":"和歌山県","jp_add_1":"日高郡日高町","jp_add_2":"志賀"},"6491213":{"post_code":"6491213","prefecture":"WAKAYAMA KEN","city":"HIDAKA GUN HIDAKA CHO","town":"TAIE","perfecture_jp":"和歌山県","jp_add_1":"日高郡日高町","jp_add_2":"高家"},"6491224":{"post_code":"6491224","prefecture":"WAKAYAMA KEN","city":"HIDAKA GUN HIDAKA CHO","town":"TSUKUNO","perfecture_jp":"和歌山県","jp_add_1":"日高郡日高町","jp_add_2":"津久野"},"6491202":{"post_code":"6491202","prefecture":"WAKAYAMA KEN","city":"HIDAKA GUN HIDAKA CHO","town":"HAGIWARA","perfecture_jp":"和歌山県","jp_add_1":"日高郡日高町","jp_add_2":"萩原"},"6491201":{"post_code":"6491201","prefecture":"WAKAYAMA KEN","city":"HIDAKA GUN HIDAKA CHO","town":"HARADANI","perfecture_jp":"和歌山県","jp_add_1":"日高郡日高町","jp_add_2":"原谷"},"6491234":{"post_code":"6491234","prefecture":"WAKAYAMA KEN","city":"HIDAKA GUN HIDAKA CHO","town":"HII","perfecture_jp":"和歌山県","jp_add_1":"日高郡日高町","jp_add_2":"比井"},"6491100":{"post_code":"6491100","prefecture":"WAKAYAMA KEN","city":"HIDAKA GUN YURA CHO","town":"IKANIKEISAIGANAIBAAI","perfecture_jp":"和歌山県","jp_add_1":"日高郡由良町","jp_add_2":""},"6491112":{"post_code":"6491112","prefecture":"WAKAYAMA KEN","city":"HIDAKA GUN YURA CHO","town":"AJIRO","perfecture_jp":"和歌山県","jp_add_1":"日高郡由良町","jp_add_2":"網代"},"6491113":{"post_code":"6491113","prefecture":"WAKAYAMA KEN","city":"HIDAKA GUN YURA CHO","town":"ATO","perfecture_jp":"和歌山県","jp_add_1":"日高郡由良町","jp_add_2":"阿戸"},"6491132":{"post_code":"6491132","prefecture":"WAKAYAMA KEN","city":"HIDAKA GUN YURA CHO","town":"ENA","perfecture_jp":"和歌山県","jp_add_1":"日高郡由良町","jp_add_2":"衣奈"},"6491104":{"post_code":"6491104","prefecture":"WAKAYAMA KEN","city":"HIDAKA GUN YURA CHO","town":"ENOKOMA","perfecture_jp":"和歌山県","jp_add_1":"日高郡由良町","jp_add_2":"江ノ駒"},"6491123":{"post_code":"6491123","prefecture":"WAKAYAMA KEN","city":"HIDAKA GUN YURA CHO","town":"OBIKI","perfecture_jp":"和歌山県","jp_add_1":"日高郡由良町","jp_add_2":"大引"},"6491122":{"post_code":"6491122","prefecture":"WAKAYAMA KEN","city":"HIDAKA GUN YURA CHO","town":"KAMIYA","perfecture_jp":"和歌山県","jp_add_1":"日高郡由良町","jp_add_2":"神谷"},"6491131":{"post_code":"6491131","prefecture":"WAKAYAMA KEN","city":"HIDAKA GUN YURA CHO","town":"KOBIKI","perfecture_jp":"和歌山県","jp_add_1":"日高郡由良町","jp_add_2":"小引"},"6491111":{"post_code":"6491111","prefecture":"WAKAYAMA KEN","city":"HIDAKA GUN YURA CHO","town":"SATO","perfecture_jp":"和歌山県","jp_add_1":"日高郡由良町","jp_add_2":"里"},"6491134":{"post_code":"6491134","prefecture":"WAKAYAMA KEN","city":"HIDAKA GUN YURA CHO","town":"TOTSUI","perfecture_jp":"和歌山県","jp_add_1":"日高郡由良町","jp_add_2":"戸津井"},"6491102":{"post_code":"6491102","prefecture":"WAKAYAMA KEN","city":"HIDAKA GUN YURA CHO","town":"NAKA","perfecture_jp":"和歌山県","jp_add_1":"日高郡由良町","jp_add_2":"中"},"6491101":{"post_code":"6491101","prefecture":"WAKAYAMA KEN","city":"HIDAKA GUN YURA CHO","town":"HATA","perfecture_jp":"和歌山県","jp_add_1":"日高郡由良町","jp_add_2":"畑"},"6491121":{"post_code":"6491121","prefecture":"WAKAYAMA KEN","city":"HIDAKA GUN YURA CHO","town":"FUKEI","perfecture_jp":"和歌山県","jp_add_1":"日高郡由良町","jp_add_2":"吹井"},"6491133":{"post_code":"6491133","prefecture":"WAKAYAMA KEN","city":"HIDAKA GUN YURA CHO","town":"MIOGAWA","perfecture_jp":"和歌山県","jp_add_1":"日高郡由良町","jp_add_2":"三尾川"},"6491103":{"post_code":"6491103","prefecture":"WAKAYAMA KEN","city":"HIDAKA GUN YURA CHO","town":"MONZEN","perfecture_jp":"和歌山県","jp_add_1":"日高郡由良町","jp_add_2":"門前"},"6491500":{"post_code":"6491500","prefecture":"WAKAYAMA KEN","city":"HIDAKA GUN INAMI CHO","town":"IKANIKEISAIGANAIBAAI","perfecture_jp":"和歌山県","jp_add_1":"日高郡印南町","jp_add_2":""},"6491534":{"post_code":"6491534","prefecture":"WAKAYAMA KEN","city":"HIDAKA GUN INAMI CHO","town":"INAMI","perfecture_jp":"和歌山県","jp_add_1":"日高郡印南町","jp_add_2":"印南"},"6491532":{"post_code":"6491532","prefecture":"WAKAYAMA KEN","city":"HIDAKA GUN INAMI CHO","town":"INAMBARA","perfecture_jp":"和歌山県","jp_add_1":"日高郡印南町","jp_add_2":"印南原"},"6491527":{"post_code":"6491527","prefecture":"WAKAYAMA KEN","city":"HIDAKA GUN INAMI CHO","town":"SHIMADA","perfecture_jp":"和歌山県","jp_add_1":"日高郡印南町","jp_add_2":"島田"},"6491531":{"post_code":"6491531","prefecture":"WAKAYAMA KEN","city":"HIDAKA GUN INAMI CHO","town":"TATEISHI","perfecture_jp":"和歌山県","jp_add_1":"日高郡印南町","jp_add_2":"立石"},"6491535":{"post_code":"6491535","prefecture":"WAKAYAMA KEN","city":"HIDAKA GUN INAMI CHO","town":"TSUI","perfecture_jp":"和歌山県","jp_add_1":"日高郡印南町","jp_add_2":"津井"},"6491528":{"post_code":"6491528","prefecture":"WAKAYAMA KEN","city":"HIDAKA GUN INAMI CHO","town":"NISHINOJI","perfecture_jp":"和歌山県","jp_add_1":"日高郡印南町","jp_add_2":"西ノ地"},"6491524":{"post_code":"6491524","prefecture":"WAKAYAMA KEN","city":"HIDAKA GUN INAMI CHO","town":"HAROKU","perfecture_jp":"和歌山県","jp_add_1":"日高郡印南町","jp_add_2":"羽六"},"6491522":{"post_code":"6491522","prefecture":"WAKAYAMA KEN","city":"HIDAKA GUN INAMI CHO","town":"FURUI","perfecture_jp":"和歌山県","jp_add_1":"日高郡印南町","jp_add_2":"古井"},"6491525":{"post_code":"6491525","prefecture":"WAKAYAMA KEN","city":"HIDAKA GUN INAMI CHO","town":"FURUYA","perfecture_jp":"和歌山県","jp_add_1":"日高郡印南町","jp_add_2":"古屋"},"6491523":{"post_code":"6491523","prefecture":"WAKAYAMA KEN","city":"HIDAKA GUN INAMI CHO","town":"HOKUSOGAWA","perfecture_jp":"和歌山県","jp_add_1":"日高郡印南町","jp_add_2":"樮川"},"6491521":{"post_code":"6491521","prefecture":"WAKAYAMA KEN","city":"HIDAKA GUN INAMI CHO","town":"MISATO","perfecture_jp":"和歌山県","jp_add_1":"日高郡印南町","jp_add_2":"美里"},"6491536":{"post_code":"6491536","prefecture":"WAKAYAMA KEN","city":"HIDAKA GUN INAMI CHO","town":"MINAMIDANI","perfecture_jp":"和歌山県","jp_add_1":"日高郡印南町","jp_add_2":"南谷"},"6491526":{"post_code":"6491526","prefecture":"WAKAYAMA KEN","city":"HIDAKA GUN INAMI CHO","town":"MIYANOMAE","perfecture_jp":"和歌山県","jp_add_1":"日高郡印南町","jp_add_2":"宮ノ前"},"6491537":{"post_code":"6491537","prefecture":"WAKAYAMA KEN","city":"HIDAKA GUN INAMI CHO","town":"MYOJINGAWA","perfecture_jp":"和歌山県","jp_add_1":"日高郡印南町","jp_add_2":"明神川"},"6491533":{"post_code":"6491533","prefecture":"WAKAYAMA KEN","city":"HIDAKA GUN INAMI CHO","town":"YAMAGUCHI","perfecture_jp":"和歌山県","jp_add_1":"日高郡印南町","jp_add_2":"山口"},"6491300":{"post_code":"6491300","prefecture":"WAKAYAMA KEN","city":"HIDAKA GUN HIDAKAGAWA CHO","town":"IKANIKEISAIGANAIBAAI","perfecture_jp":"和歌山県","jp_add_1":"日高郡日高川町","jp_add_2":""},"6491313":{"post_code":"6491313","prefecture":"WAKAYAMA KEN","city":"HIDAKA GUN HIDAKAGAWA CHO","town":"ITOGO","perfecture_jp":"和歌山県","jp_add_1":"日高郡日高川町","jp_add_2":"伊藤川"},"6491442":{"post_code":"6491442","prefecture":"WAKAYAMA KEN","city":"HIDAKA GUN HIDAKAGAWA CHO","town":"EKAWA","perfecture_jp":"和歌山県","jp_add_1":"日高郡日高川町","jp_add_2":"江川"},"6491331":{"post_code":"6491331","prefecture":"WAKAYAMA KEN","city":"HIDAKA GUN HIDAKAGAWA CHO","town":"KANEMAKI","perfecture_jp":"和歌山県","jp_add_1":"日高郡日高川町","jp_add_2":"鐘巻"},"6491315":{"post_code":"6491315","prefecture":"WAKAYAMA KEN","city":"HIDAKA GUN HIDAKAGAWA CHO","town":"GENGO","perfecture_jp":"和歌山県","jp_add_1":"日高郡日高川町","jp_add_2":"玄子"},"6491323":{"post_code":"6491323","prefecture":"WAKAYAMA KEN","city":"HIDAKA GUN HIDAKAGAWA CHO","town":"KOGUMA","perfecture_jp":"和歌山県","jp_add_1":"日高郡日高川町","jp_add_2":"小熊"},"6491441":{"post_code":"6491441","prefecture":"WAKAYAMA KEN","city":"HIDAKA GUN HIDAKAGAWA CHO","town":"SANYA","perfecture_jp":"和歌山県","jp_add_1":"日高郡日高川町","jp_add_2":"山野"},"6491332":{"post_code":"6491332","prefecture":"WAKAYAMA KEN","city":"HIDAKA GUN HIDAKAGAWA CHO","town":"SENZUGAWA","perfecture_jp":"和歌山県","jp_add_1":"日高郡日高川町","jp_add_2":"千津川"},"6491325":{"post_code":"6491325","prefecture":"WAKAYAMA KEN","city":"HIDAKA GUN HIDAKAGAWA CHO","town":"NAKATSUKAWA","perfecture_jp":"和歌山県","jp_add_1":"日高郡日高川町","jp_add_2":"中津川"},"6491321":{"post_code":"6491321","prefecture":"WAKAYAMA KEN","city":"HIDAKA GUN HIDAKAGAWA CHO","town":"NYUNO","perfecture_jp":"和歌山県","jp_add_1":"日高郡日高川町","jp_add_2":"入野"},"6491314":{"post_code":"6491314","prefecture":"WAKAYAMA KEN","city":"HIDAKA GUN HIDAKAGAWA CHO","town":"HAIKUZU","perfecture_jp":"和歌山県","jp_add_1":"日高郡日高川町","jp_add_2":"早藤"},"6491324":{"post_code":"6491324","prefecture":"WAKAYAMA KEN","city":"HIDAKA GUN HIDAKAGAWA CHO","town":"HABU","perfecture_jp":"和歌山県","jp_add_1":"日高郡日高川町","jp_add_2":"土生"},"6491311":{"post_code":"6491311","prefecture":"WAKAYAMA KEN","city":"HIDAKA GUN HIDAKAGAWA CHO","town":"HYUGAWA","perfecture_jp":"和歌山県","jp_add_1":"日高郡日高川町","jp_add_2":"平川"},"6491316":{"post_code":"6491316","prefecture":"WAKAYAMA KEN","city":"HIDAKA GUN HIDAKAGAWA CHO","town":"HEBIO","perfecture_jp":"和歌山県","jp_add_1":"日高郡日高川町","jp_add_2":"蛇尾"},"6491444":{"post_code":"6491444","prefecture":"WAKAYAMA KEN","city":"HIDAKA GUN HIDAKAGAWA CHO","town":"MATSUSE","perfecture_jp":"和歌山県","jp_add_1":"日高郡日高川町","jp_add_2":"松瀬"},"6491312":{"post_code":"6491312","prefecture":"WAKAYAMA KEN","city":"HIDAKA GUN HIDAKAGAWA CHO","town":"MIYOSE","perfecture_jp":"和歌山県","jp_add_1":"日高郡日高川町","jp_add_2":"三百瀬"},"6491322":{"post_code":"6491322","prefecture":"WAKAYAMA KEN","city":"HIDAKA GUN HIDAKAGAWA CHO","town":"WAKANO","perfecture_jp":"和歌山県","jp_add_1":"日高郡日高川町","jp_add_2":"若野"},"6491443":{"post_code":"6491443","prefecture":"WAKAYAMA KEN","city":"HIDAKA GUN HIDAKAGAWA CHO","town":"WASA","perfecture_jp":"和歌山県","jp_add_1":"日高郡日高川町","jp_add_2":"和佐"},"6492200":{"post_code":"6492200","prefecture":"WAKAYAMA KEN","city":"NISHIMURO GUN SHIRAHAMA CHO","town":"IKANIKEISAIGANAIBAAI","perfecture_jp":"和歌山県","jp_add_1":"西牟婁郡白浜町","jp_add_2":""},"6492211":{"post_code":"6492211","prefecture":"WAKAYAMA KEN","city":"NISHIMURO GUN SHIRAHAMA CHO","town":"SHIRAHAMACHONOTSUGINIBANCHIGAKURUBA","perfecture_jp":"和歌山県","jp_add_1":"西牟婁郡白浜町","jp_add_2":""},"6492532":{"post_code":"6492532","prefecture":"WAKAYAMA KEN","city":"NISHIMURO GUN SHIRAHAMA CHO","town":"AGO","perfecture_jp":"和歌山県","jp_add_1":"西牟婁郡白浜町","jp_add_2":"安居"},"6492524":{"post_code":"6492524","prefecture":"WAKAYAMA KEN","city":"NISHIMURO GUN SHIRAHAMA CHO","town":"ATAGI","perfecture_jp":"和歌山県","jp_add_1":"西牟婁郡白浜町","jp_add_2":"安宅"},"6492322":{"post_code":"6492322","prefecture":"WAKAYAMA KEN","city":"NISHIMURO GUN SHIRAHAMA CHO","town":"UCHINOKAWA","perfecture_jp":"和歌山県","jp_add_1":"西牟婁郡白浜町","jp_add_2":"内ノ川"},"6492537":{"post_code":"6492537","prefecture":"WAKAYAMA KEN","city":"NISHIMURO GUN SHIRAHAMA CHO","town":"UTSUGI","perfecture_jp":"和歌山県","jp_add_1":"西牟婁郡白浜町","jp_add_2":"宇津木"},"6492521":{"post_code":"6492521","prefecture":"WAKAYAMA KEN","city":"NISHIMURO GUN SHIRAHAMA CHO","town":"OFURU","perfecture_jp":"和歌山県","jp_add_1":"西牟婁郡白浜町","jp_add_2":"大古"},"6492201":{"post_code":"6492201","prefecture":"WAKAYAMA KEN","city":"NISHIMURO GUN SHIRAHAMA CHO","town":"KATATA","perfecture_jp":"和歌山県","jp_add_1":"西牟婁郡白浜町","jp_add_2":"堅田"},"6492531":{"post_code":"6492531","prefecture":"WAKAYAMA KEN","city":"NISHIMURO GUN SHIRAHAMA CHO","town":"KUCHIGATANI","perfecture_jp":"和歌山県","jp_add_1":"西牟婁郡白浜町","jp_add_2":"口ケ谷"},"6492538":{"post_code":"6492538","prefecture":"WAKAYAMA KEN","city":"NISHIMURO GUN SHIRAHAMA CHO","town":"KOGAWA","perfecture_jp":"和歌山県","jp_add_1":"西牟婁郡白浜町","jp_add_2":"小川"},"6492334":{"post_code":"6492334","prefecture":"WAKAYAMA KEN","city":"NISHIMURO GUN SHIRAHAMA CHO","town":"SAINO","perfecture_jp":"和歌山県","jp_add_1":"西牟婁郡白浜町","jp_add_2":"才野"},"6492332":{"post_code":"6492332","prefecture":"WAKAYAMA KEN","city":"NISHIMURO GUN SHIRAHAMA CHO","town":"SAKAE","perfecture_jp":"和歌山県","jp_add_1":"西牟婁郡白浜町","jp_add_2":"栄"},"6492525":{"post_code":"6492525","prefecture":"WAKAYAMA KEN","city":"NISHIMURO GUN SHIRAHAMA CHO","town":"SHIONO","perfecture_jp":"和歌山県","jp_add_1":"西牟婁郡白浜町","jp_add_2":"塩野"},"6492323":{"post_code":"6492323","prefecture":"WAKAYAMA KEN","city":"NISHIMURO GUN SHIRAHAMA CHO","town":"SHAGAWA","perfecture_jp":"和歌山県","jp_add_1":"西牟婁郡白浜町","jp_add_2":"庄川"},"6492539":{"post_code":"6492539","prefecture":"WAKAYAMA KEN","city":"NISHIMURO GUN SHIRAHAMA CHO","town":"JO","perfecture_jp":"和歌山県","jp_add_1":"西牟婁郡白浜町","jp_add_2":"城"},"6492331":{"post_code":"6492331","prefecture":"WAKAYAMA KEN","city":"NISHIMURO GUN SHIRAHAMA CHO","town":"TAIRA","perfecture_jp":"和歌山県","jp_add_1":"西牟婁郡白浜町","jp_add_2":"平"},"6492523":{"post_code":"6492523","prefecture":"WAKAYAMA KEN","city":"NISHIMURO GUN SHIRAHAMA CHO","town":"TANOI","perfecture_jp":"和歌山県","jp_add_1":"西牟婁郡白浜町","jp_add_2":"田野井"},"6492324":{"post_code":"6492324","prefecture":"WAKAYAMA KEN","city":"NISHIMURO GUN SHIRAHAMA CHO","town":"TSUZURAFUCHI","perfecture_jp":"和歌山県","jp_add_1":"西牟婁郡白浜町","jp_add_2":"十九渕"},"6492326":{"post_code":"6492326","prefecture":"WAKAYAMA KEN","city":"NISHIMURO GUN SHIRAHAMA CHO","town":"TSUBAKI","perfecture_jp":"和歌山県","jp_add_1":"西牟婁郡白浜町","jp_add_2":"椿"},"6492534":{"post_code":"6492534","prefecture":"WAKAYAMA KEN","city":"NISHIMURO GUN SHIRAHAMA CHO","town":"TERAYAMA","perfecture_jp":"和歌山県","jp_add_1":"西牟婁郡白浜町","jp_add_2":"寺山"},"6492325":{"post_code":"6492325","prefecture":"WAKAYAMA KEN","city":"NISHIMURO GUN SHIRAHAMA CHO","town":"TONDA","perfecture_jp":"和歌山県","jp_add_1":"西牟婁郡白浜町","jp_add_2":"富田"},"6492333":{"post_code":"6492333","prefecture":"WAKAYAMA KEN","city":"NISHIMURO GUN SHIRAHAMA CHO","town":"NAKA","perfecture_jp":"和歌山県","jp_add_1":"西牟婁郡白浜町","jp_add_2":"中"},"6492533":{"post_code":"6492533","prefecture":"WAKAYAMA KEN","city":"NISHIMURO GUN SHIRAHAMA CHO","town":"NAKAJIMA","perfecture_jp":"和歌山県","jp_add_1":"西牟婁郡白浜町","jp_add_2":"中嶋"},"6492511":{"post_code":"6492511","prefecture":"WAKAYAMA KEN","city":"NISHIMURO GUN SHIRAHAMA CHO","town":"HIKI","perfecture_jp":"和歌山県","jp_add_1":"西牟婁郡白浜町","jp_add_2":"日置"},"6492536":{"post_code":"6492536","prefecture":"WAKAYAMA KEN","city":"NISHIMURO GUN SHIRAHAMA CHO","town":"HISAGI","perfecture_jp":"和歌山県","jp_add_1":"西牟婁郡白浜町","jp_add_2":"久木"},"6492321":{"post_code":"6492321","prefecture":"WAKAYAMA KEN","city":"NISHIMURO GUN SHIRAHAMA CHO","town":"HORO","perfecture_jp":"和歌山県","jp_add_1":"西牟婁郡白浜町","jp_add_2":"保呂"},"6492535":{"post_code":"6492535","prefecture":"WAKAYAMA KEN","city":"NISHIMURO GUN SHIRAHAMA CHO","town":"MUKAIDAIRA","perfecture_jp":"和歌山県","jp_add_1":"西牟婁郡白浜町","jp_add_2":"向平"},"6492522":{"post_code":"6492522","prefecture":"WAKAYAMA KEN","city":"NISHIMURO GUN SHIRAHAMA CHO","town":"YATA","perfecture_jp":"和歌山県","jp_add_1":"西牟婁郡白浜町","jp_add_2":"矢田"},"6492100":{"post_code":"6492100","prefecture":"WAKAYAMA KEN","city":"NISHIMURO GUN KAMITONDA CHO","town":"IKANIKEISAIGANAIBAAI","perfecture_jp":"和歌山県","jp_add_1":"西牟婁郡上富田町","jp_add_2":""},"6492105":{"post_code":"6492105","prefecture":"WAKAYAMA KEN","city":"NISHIMURO GUN KAMITONDA CHO","town":"ASSO","perfecture_jp":"和歌山県","jp_add_1":"西牟婁郡上富田町","jp_add_2":"朝来"},"6492103":{"post_code":"6492103","prefecture":"WAKAYAMA KEN","city":"NISHIMURO GUN KAMITONDA CHO","town":"IKUMA","perfecture_jp":"和歌山県","jp_add_1":"西牟婁郡上富田町","jp_add_2":"生馬"},"6492107":{"post_code":"6492107","prefecture":"WAKAYAMA KEN","city":"NISHIMURO GUN KAMITONDA CHO","town":"ICHINOSE","perfecture_jp":"和歌山県","jp_add_1":"西牟婁郡上富田町","jp_add_2":"市ノ瀬"},"6492104":{"post_code":"6492104","prefecture":"WAKAYAMA KEN","city":"NISHIMURO GUN KAMITONDA CHO","town":"IWASAKI","perfecture_jp":"和歌山県","jp_add_1":"西牟婁郡上富田町","jp_add_2":"岩崎"},"6492102":{"post_code":"6492102","prefecture":"WAKAYAMA KEN","city":"NISHIMURO GUN KAMITONDA CHO","town":"IWADA","perfecture_jp":"和歌山県","jp_add_1":"西牟婁郡上富田町","jp_add_2":"岩田"},"6492101":{"post_code":"6492101","prefecture":"WAKAYAMA KEN","city":"NISHIMURO GUN KAMITONDA CHO","town":"OKA","perfecture_jp":"和歌山県","jp_add_1":"西牟婁郡上富田町","jp_add_2":"岡"},"6492108":{"post_code":"6492108","prefecture":"WAKAYAMA KEN","city":"NISHIMURO GUN KAMITONDA CHO","town":"SHIMOAYUKAWA","perfecture_jp":"和歌山県","jp_add_1":"西牟婁郡上富田町","jp_add_2":"下鮎川"},"6492106":{"post_code":"6492106","prefecture":"WAKAYAMA KEN","city":"NISHIMURO GUN KAMITONDA CHO","town":"NANKINODAI","perfecture_jp":"和歌山県","jp_add_1":"西牟婁郡上富田町","jp_add_2":"南紀の台"},"6492600":{"post_code":"6492600","prefecture":"WAKAYAMA KEN","city":"NISHIMURO GUN SUSAMI CHO","town":"IKANIKEISAIGANAIBAAI","perfecture_jp":"和歌山県","jp_add_1":"西牟婁郡すさみ町","jp_add_2":""},"6493142":{"post_code":"6493142","prefecture":"WAKAYAMA KEN","city":"NISHIMURO GUN SUSAMI CHO","town":"ESUMI","perfecture_jp":"和歌山県","jp_add_1":"西牟婁郡すさみ町","jp_add_2":"江住"},"6493151":{"post_code":"6493151","prefecture":"WAKAYAMA KEN","city":"NISHIMURO GUN SUSAMI CHO","town":"OGAMA","perfecture_jp":"和歌山県","jp_add_1":"西牟婁郡すさみ町","jp_add_2":"大鎌"},"6493153":{"post_code":"6493153","prefecture":"WAKAYAMA KEN","city":"NISHIMURO GUN SUSAMI CHO","town":"OTANI","perfecture_jp":"和歌山県","jp_add_1":"西牟婁郡すさみ町","jp_add_2":"大谷"},"6492602":{"post_code":"6492602","prefecture":"WAKAYAMA KEN","city":"NISHIMURO GUN SUSAMI CHO","town":"OTSUKI","perfecture_jp":"和歌山県","jp_add_1":"西牟婁郡すさみ町","jp_add_2":"大附"},"6492603":{"post_code":"6492603","prefecture":"WAKAYAMA KEN","city":"NISHIMURO GUN SUSAMI CHO","town":"OKAUCHI","perfecture_jp":"和歌山県","jp_add_1":"西牟婁郡すさみ町","jp_add_2":"小河内"},"6492612":{"post_code":"6492612","prefecture":"WAKAYAMA KEN","city":"NISHIMURO GUN SUSAMI CHO","town":"KUCHIWABUKA","perfecture_jp":"和歌山県","jp_add_1":"西牟婁郡すさみ町","jp_add_2":"口和深"},"6492601":{"post_code":"6492601","prefecture":"WAKAYAMA KEN","city":"NISHIMURO GUN SUSAMI CHO","town":"KOTSUKI","perfecture_jp":"和歌山県","jp_add_1":"西牟婁郡すさみ町","jp_add_2":"小附"},"6493143":{"post_code":"6493143","prefecture":"WAKAYAMA KEN","city":"NISHIMURO GUN SUSAMI CHO","town":"SATONO","perfecture_jp":"和歌山県","jp_add_1":"西牟婁郡すさみ町","jp_add_2":"里野"},"6493162":{"post_code":"6493162","prefecture":"WAKAYAMA KEN","city":"NISHIMURO GUN SUSAMI CHO","town":"SAMOTOIGAWA","perfecture_jp":"和歌山県","jp_add_1":"西牟婁郡すさみ町","jp_add_2":"佐本追川"},"6493161":{"post_code":"6493161","prefecture":"WAKAYAMA KEN","city":"NISHIMURO GUN SUSAMI CHO","town":"SAMOTONAKA","perfecture_jp":"和歌山県","jp_add_1":"西牟婁郡すさみ町","jp_add_2":"佐本中"},"6493165":{"post_code":"6493165","prefecture":"WAKAYAMA KEN","city":"NISHIMURO GUN SUSAMI CHO","town":"SAMOTONAKANO","perfecture_jp":"和歌山県","jp_add_1":"西牟婁郡すさみ町","jp_add_2":"佐本中野"},"6493163":{"post_code":"6493163","prefecture":"WAKAYAMA KEN","city":"NISHIMURO GUN SUSAMI CHO","town":"SAMOTONISHIKURIGAITO","perfecture_jp":"和歌山県","jp_add_1":"西牟婁郡すさみ町","jp_add_2":"佐本西栗垣内"},"6493166":{"post_code":"6493166","prefecture":"WAKAYAMA KEN","city":"NISHIMURO GUN SUSAMI CHO","town":"SAMOTONISHINOKAWA","perfecture_jp":"和歌山県","jp_add_1":"西牟婁郡すさみ町","jp_add_2":"佐本西野川"},"6493168":{"post_code":"6493168","prefecture":"WAKAYAMA KEN","city":"NISHIMURO GUN SUSAMI CHO","town":"SAMOTONEKURA","perfecture_jp":"和歌山県","jp_add_1":"西牟婁郡すさみ町","jp_add_2":"佐本根倉"},"6493164":{"post_code":"6493164","prefecture":"WAKAYAMA KEN","city":"NISHIMURO GUN SUSAMI CHO","town":"SAMOTOHIGASHIKURIGAITO","perfecture_jp":"和歌山県","jp_add_1":"西牟婁郡すさみ町","jp_add_2":"佐本東栗垣内"},"6493167":{"post_code":"6493167","prefecture":"WAKAYAMA KEN","city":"NISHIMURO GUN SUSAMI CHO","town":"SAMOTOHIRANO","perfecture_jp":"和歌山県","jp_add_1":"西牟婁郡すさみ町","jp_add_2":"佐本平野"},"6493169":{"post_code":"6493169","prefecture":"WAKAYAMA KEN","city":"NISHIMURO GUN SUSAMI CHO","town":"SAMOTOFUKATANI","perfecture_jp":"和歌山県","jp_add_1":"西牟婁郡すさみ町","jp_add_2":"佐本深谷"},"6492621":{"post_code":"6492621","prefecture":"WAKAYAMA KEN","city":"NISHIMURO GUN SUSAMI CHO","town":"SUSAMI","perfecture_jp":"和歌山県","jp_add_1":"西牟婁郡すさみ町","jp_add_2":"周参見"},"6492631":{"post_code":"6492631","prefecture":"WAKAYAMA KEN","city":"NISHIMURO GUN SUSAMI CHO","town":"TAIMAGAWA","perfecture_jp":"和歌山県","jp_add_1":"西牟婁郡すさみ町","jp_add_2":"太間川"},"6493152":{"post_code":"6493152","prefecture":"WAKAYAMA KEN","city":"NISHIMURO GUN SUSAMI CHO","town":"TSUZURA","perfecture_jp":"和歌山県","jp_add_1":"西牟婁郡すさみ町","jp_add_2":"防己"},"6493141":{"post_code":"6493141","prefecture":"WAKAYAMA KEN","city":"NISHIMURO GUN SUSAMI CHO","town":"MIROZU","perfecture_jp":"和歌山県","jp_add_1":"西牟婁郡すさみ町","jp_add_2":"見老津"},"6492604":{"post_code":"6492604","prefecture":"WAKAYAMA KEN","city":"NISHIMURO GUN SUSAMI CHO","town":"YANOKUCHI","perfecture_jp":"和歌山県","jp_add_1":"西牟婁郡すさみ町","jp_add_2":"矢野口"},"6492611":{"post_code":"6492611","prefecture":"WAKAYAMA KEN","city":"NISHIMURO GUN SUSAMI CHO","town":"WABUKAGAWA","perfecture_jp":"和歌山県","jp_add_1":"西牟婁郡すさみ町","jp_add_2":"和深川"},"6495300":{"post_code":"6495300","prefecture":"WAKAYAMA KEN","city":"HIGASHIMURO GUN NACHIKATSURA CHO","town":"IKANIKEISAIGANAIBAAI","perfecture_jp":"和歌山県","jp_add_1":"東牟婁郡那智勝浦町","jp_add_2":""},"6495332":{"post_code":"6495332","prefecture":"WAKAYAMA KEN","city":"HIGASHIMURO GUN NACHIKATSURA CHO","town":"ASAHI","perfecture_jp":"和歌山県","jp_add_1":"東牟婁郡那智勝浦町","jp_add_2":"朝日"},"6495133":{"post_code":"6495133","prefecture":"WAKAYAMA KEN","city":"HIGASHIMURO GUN NACHIKATSURA CHO","town":"IJISHI","perfecture_jp":"和歌山県","jp_add_1":"東牟婁郡那智勝浦町","jp_add_2":"井鹿"},"6495303":{"post_code":"6495303","prefecture":"WAKAYAMA KEN","city":"HIGASHIMURO GUN NACHIKATSURA CHO","town":"ISEKI","perfecture_jp":"和歌山県","jp_add_1":"東牟婁郡那智勝浦町","jp_add_2":"井関"},"6495302":{"post_code":"6495302","prefecture":"WAKAYAMA KEN","city":"HIGASHIMURO GUN NACHIKATSURA CHO","town":"ICHINONO","perfecture_jp":"和歌山県","jp_add_1":"東牟婁郡那智勝浦町","jp_add_2":"市野々"},"6495339":{"post_code":"6495339","prefecture":"WAKAYAMA KEN","city":"HIGASHIMURO GUN NACHIKATSURA CHO","town":"ICHIYA(OURA.1054-9)","perfecture_jp":"和歌山県","jp_add_1":"東牟婁郡那智勝浦町","jp_add_2":"市屋"},"6495141":{"post_code":"6495141","prefecture":"WAKAYAMA KEN","city":"HIGASHIMURO GUN NACHIKATSURA CHO","town":"ICHIYA(SONOTA)","perfecture_jp":"和歌山県","jp_add_1":"東牟婁郡那智勝浦町","jp_add_2":"市屋"},"6495312":{"post_code":"6495312","prefecture":"WAKAYAMA KEN","city":"HIGASHIMURO GUN NACHIKATSURA CHO","town":"UGUI","perfecture_jp":"和歌山県","jp_add_1":"東牟婁郡那智勝浦町","jp_add_2":"宇久井"},"6495145":{"post_code":"6495145","prefecture":"WAKAYAMA KEN","city":"HIGASHIMURO GUN NACHIKATSURA CHO","town":"URAGAMI","perfecture_jp":"和歌山県","jp_add_1":"東牟婁郡那智勝浦町","jp_add_2":"浦神"},"6495461":{"post_code":"6495461","prefecture":"WAKAYAMA KEN","city":"HIGASHIMURO GUN NACHIKATSURA CHO","town":"ONO","perfecture_jp":"和歌山県","jp_add_1":"東牟婁郡那智勝浦町","jp_add_2":"大野"},"6495466":{"post_code":"6495466","prefecture":"WAKAYAMA KEN","city":"HIGASHIMURO GUN NACHIKATSURA CHO","town":"KASHIWARA","perfecture_jp":"和歌山県","jp_add_1":"東牟婁郡那智勝浦町","jp_add_2":"樫原"},"6495334":{"post_code":"6495334","prefecture":"WAKAYAMA KEN","city":"HIGASHIMURO GUN NACHIKATSURA CHO","town":"KATSURA","perfecture_jp":"和歌山県","jp_add_1":"東牟婁郡那智勝浦町","jp_add_2":"勝浦"},"6495304":{"post_code":"6495304","prefecture":"WAKAYAMA KEN","city":"HIGASHIMURO GUN NACHIKATSURA CHO","town":"KAWASEKI","perfecture_jp":"和歌山県","jp_add_1":"東牟婁郡那智勝浦町","jp_add_2":"川関"},"6495333":{"post_code":"6495333","prefecture":"WAKAYAMA KEN","city":"HIGASHIMURO GUN NACHIKATSURA CHO","town":"KITAHAMA","perfecture_jp":"和歌山県","jp_add_1":"東牟婁郡那智勝浦町","jp_add_2":"北浜"},"6495313":{"post_code":"6495313","prefecture":"WAKAYAMA KEN","city":"HIGASHIMURO GUN NACHIKATSURA CHO","town":"KUJINOKAWA","perfecture_jp":"和歌山県","jp_add_1":"東牟婁郡那智勝浦町","jp_add_2":"狗子ノ川"},"6495451":{"post_code":"6495451","prefecture":"WAKAYAMA KEN","city":"HIGASHIMURO GUN NACHIKATSURA CHO","town":"KUCHIIROKAWA","perfecture_jp":"和歌山県","jp_add_1":"東牟婁郡那智勝浦町","jp_add_2":"口色川"},"6495454":{"post_code":"6495454","prefecture":"WAKAYAMA KEN","city":"HIGASHIMURO GUN NACHIKATSURA CHO","town":"KUMASEGAWA","perfecture_jp":"和歌山県","jp_add_1":"東牟婁郡那智勝浦町","jp_add_2":"熊瀬川"},"6495311":{"post_code":"6495311","prefecture":"WAKAYAMA KEN","city":"HIGASHIMURO GUN NACHIKATSURA CHO","town":"KOZUKE","perfecture_jp":"和歌山県","jp_add_1":"東牟婁郡那智勝浦町","jp_add_2":"高津気"},"6495135":{"post_code":"6495135","prefecture":"WAKAYAMA KEN","city":"HIGASHIMURO GUN NACHIKATSURA CHO","town":"KODOI","perfecture_jp":"和歌山県","jp_add_1":"東牟婁郡那智勝浦町","jp_add_2":"高遠井"},"6495452":{"post_code":"6495452","prefecture":"WAKAYAMA KEN","city":"HIGASHIMURO GUN NACHIKATSURA CHO","town":"KOSAKA","perfecture_jp":"和歌山県","jp_add_1":"東牟婁郡那智勝浦町","jp_add_2":"小阪"},"6495137":{"post_code":"6495137","prefecture":"WAKAYAMA KEN","city":"HIGASHIMURO GUN NACHIKATSURA CHO","town":"KODAKUMI","perfecture_jp":"和歌山県","jp_add_1":"東牟婁郡那智勝浦町","jp_add_2":"小匠"},"6495144":{"post_code":"6495144","prefecture":"WAKAYAMA KEN","city":"HIGASHIMURO GUN NACHIKATSURA CHO","town":"KONOSHIRO","perfecture_jp":"和歌山県","jp_add_1":"東牟婁郡那智勝浦町","jp_add_2":"粉白"},"6495465":{"post_code":"6495465","prefecture":"WAKAYAMA KEN","city":"HIGASHIMURO GUN NACHIKATSURA CHO","town":"SAKAASHI","perfecture_jp":"和歌山県","jp_add_1":"東牟婁郡那智勝浦町","jp_add_2":"坂足"},"6495142":{"post_code":"6495142","prefecture":"WAKAYAMA KEN","city":"HIGASHIMURO GUN NACHIKATSURA CHO","town":"SHIMOSATO","perfecture_jp":"和歌山県","jp_add_1":"東牟婁郡那智勝浦町","jp_add_2":"下里"},"6495148":{"post_code":"6495148","prefecture":"WAKAYAMA KEN","city":"HIGASHIMURO GUN NACHIKATSURA CHO","town":"SHIMOWADA","perfecture_jp":"和歌山県","jp_add_1":"東牟婁郡那智勝浦町","jp_add_2":"下和田"},"6495147":{"post_code":"6495147","prefecture":"WAKAYAMA KEN","city":"HIGASHIMURO GUN NACHIKATSURA CHO","town":"SHO","perfecture_jp":"和歌山県","jp_add_1":"東牟婁郡那智勝浦町","jp_add_2":"庄"},"6495463":{"post_code":"6495463","prefecture":"WAKAYAMA KEN","city":"HIGASHIMURO GUN NACHIKATSURA CHO","town":"TAKANO","perfecture_jp":"和歌山県","jp_add_1":"東牟婁郡那智勝浦町","jp_add_2":"高野"},"6495462":{"post_code":"6495462","prefecture":"WAKAYAMA KEN","city":"HIGASHIMURO GUN NACHIKATSURA CHO","town":"TAGAITO","perfecture_jp":"和歌山県","jp_add_1":"東牟婁郡那智勝浦町","jp_add_2":"田垣内"},"6495335":{"post_code":"6495335","prefecture":"WAKAYAMA KEN","city":"HIGASHIMURO GUN NACHIKATSURA CHO","town":"TSUKIJI","perfecture_jp":"和歌山県","jp_add_1":"東牟婁郡那智勝浦町","jp_add_2":"築地"},"6495331":{"post_code":"6495331","prefecture":"WAKAYAMA KEN","city":"HIGASHIMURO GUN NACHIKATSURA CHO","town":"TEMMA","perfecture_jp":"和歌山県","jp_add_1":"東牟婁郡那智勝浦町","jp_add_2":"天満"},"6495146":{"post_code":"6495146","prefecture":"WAKAYAMA KEN","city":"HIGASHIMURO GUN NACHIKATSURA CHO","town":"NAKASATO","perfecture_jp":"和歌山県","jp_add_1":"東牟婁郡那智勝浦町","jp_add_2":"中里"},"6495132":{"post_code":"6495132","prefecture":"WAKAYAMA KEN","city":"HIGASHIMURO GUN NACHIKATSURA CHO","town":"NAKANOKAWA","perfecture_jp":"和歌山県","jp_add_1":"東牟婁郡那智勝浦町","jp_add_2":"中ノ川"},"6495136":{"post_code":"6495136","prefecture":"WAKAYAMA KEN","city":"HIGASHIMURO GUN NACHIKATSURA CHO","town":"NAGAI","perfecture_jp":"和歌山県","jp_add_1":"東牟婁郡那智勝浦町","jp_add_2":"長井"},"6495301":{"post_code":"6495301","prefecture":"WAKAYAMA KEN","city":"HIGASHIMURO GUN NACHIKATSURA CHO","town":"NACHISAN","perfecture_jp":"和歌山県","jp_add_1":"東牟婁郡那智勝浦町","jp_add_2":"那智山"},"6495338":{"post_code":"6495338","prefecture":"WAKAYAMA KEN","city":"HIGASHIMURO GUN NACHIKATSURA CHO","town":"NIKO","perfecture_jp":"和歌山県","jp_add_1":"東牟婁郡那智勝浦町","jp_add_2":"二河"},"6495131":{"post_code":"6495131","prefecture":"WAKAYAMA KEN","city":"HIGASHIMURO GUN NACHIKATSURA CHO","town":"NISHINAKANOKAWA","perfecture_jp":"和歌山県","jp_add_1":"東牟婁郡那智勝浦町","jp_add_2":"西中野川"},"6495337":{"post_code":"6495337","prefecture":"WAKAYAMA KEN","city":"HIGASHIMURO GUN NACHIKATSURA CHO","town":"HASHINOKAWA","perfecture_jp":"和歌山県","jp_add_1":"東牟婁郡那智勝浦町","jp_add_2":"橋ノ川"},"6495314":{"post_code":"6495314","prefecture":"WAKAYAMA KEN","city":"HIGASHIMURO GUN NACHIKATSURA CHO","town":"HAMANOMIYA","perfecture_jp":"和歌山県","jp_add_1":"東牟婁郡那智勝浦町","jp_add_2":"浜ノ宮"},"6495464":{"post_code":"6495464","prefecture":"WAKAYAMA KEN","city":"HIGASHIMURO GUN NACHIKATSURA CHO","town":"HITAHASHIRA","perfecture_jp":"和歌山県","jp_add_1":"東牟婁郡那智勝浦町","jp_add_2":"直柱"},"6495134":{"post_code":"6495134","prefecture":"WAKAYAMA KEN","city":"HIGASHIMURO GUN NACHIKATSURA CHO","town":"MINAMIOI","perfecture_jp":"和歌山県","jp_add_1":"東牟婁郡那智勝浦町","jp_add_2":"南大居"},"6495453":{"post_code":"6495453","prefecture":"WAKAYAMA KEN","city":"HIGASHIMURO GUN NACHIKATSURA CHO","town":"MINAMIHIRANO","perfecture_jp":"和歌山県","jp_add_1":"東牟婁郡那智勝浦町","jp_add_2":"南平野"},"6495143":{"post_code":"6495143","prefecture":"WAKAYAMA KEN","city":"HIGASHIMURO GUN NACHIKATSURA CHO","town":"YATAGANO","perfecture_jp":"和歌山県","jp_add_1":"東牟婁郡那智勝浦町","jp_add_2":"八尺鏡野"},"6495336":{"post_code":"6495336","prefecture":"WAKAYAMA KEN","city":"HIGASHIMURO GUN NACHIKATSURA CHO","town":"YUKAWA","perfecture_jp":"和歌山県","jp_add_1":"東牟婁郡那智勝浦町","jp_add_2":"湯川"},"6495100":{"post_code":"6495100","prefecture":"WAKAYAMA KEN","city":"HIGASHIMURO GUN TAIJI CHO","town":"IKANIKEISAIGANAIBAAI","perfecture_jp":"和歌山県","jp_add_1":"東牟婁郡太地町","jp_add_2":""},"6495371":{"post_code":"6495371","prefecture":"WAKAYAMA KEN","city":"HIGASHIMURO GUN TAIJI CHO","town":"TAIJI(3772-3904-BANCHI)","perfecture_jp":"和歌山県","jp_add_1":"東牟婁郡太地町","jp_add_2":"太地"},"6495171":{"post_code":"6495171","prefecture":"WAKAYAMA KEN","city":"HIGASHIMURO GUN TAIJI CHO","town":"TAIJI(SONOTA)","perfecture_jp":"和歌山県","jp_add_1":"東牟婁郡太地町","jp_add_2":"太地"},"6495172":{"post_code":"6495172","prefecture":"WAKAYAMA KEN","city":"HIGASHIMURO GUN TAIJI CHO","town":"MORIURA","perfecture_jp":"和歌山県","jp_add_1":"東牟婁郡太地町","jp_add_2":"森浦"},"6494100":{"post_code":"6494100","prefecture":"WAKAYAMA KEN","city":"HIGASHIMURO GUN KOZAGAWA CHO","town":"IKANIKEISAIGANAIBAAI","perfecture_jp":"和歌山県","jp_add_1":"東牟婁郡古座川町","jp_add_2":""},"6494235":{"post_code":"6494235","prefecture":"WAKAYAMA KEN","city":"HIGASHIMURO GUN KOZAGAWA CHO","town":"AISE","perfecture_jp":"和歌山県","jp_add_1":"東牟婁郡古座川町","jp_add_2":"相瀬"},"6494103":{"post_code":"6494103","prefecture":"WAKAYAMA KEN","city":"HIGASHIMURO GUN KOZAGAWA CHO","town":"IKENOYAMA","perfecture_jp":"和歌山県","jp_add_1":"東牟婁郡古座川町","jp_add_2":"池野山"},"6494232":{"post_code":"6494232","prefecture":"WAKAYAMA KEN","city":"HIGASHIMURO GUN KOZAGAWA CHO","town":"ICHIBURI","perfecture_jp":"和歌山県","jp_add_1":"東牟婁郡古座川町","jp_add_2":"一雨"},"6494453":{"post_code":"6494453","prefecture":"WAKAYAMA KEN","city":"HIGASHIMURO GUN KOZAGAWA CHO","town":"UTSUO","perfecture_jp":"和歌山県","jp_add_1":"東牟婁郡古座川町","jp_add_2":"洞尾"},"6494105":{"post_code":"6494105","prefecture":"WAKAYAMA KEN","city":"HIGASHIMURO GUN KOZAGAWA CHO","town":"UTSUGI","perfecture_jp":"和歌山県","jp_add_1":"東牟婁郡古座川町","jp_add_2":"宇津木"},"6494214":{"post_code":"6494214","prefecture":"WAKAYAMA KEN","city":"HIGASHIMURO GUN KOZAGAWA CHO","town":"UZUTSUI","perfecture_jp":"和歌山県","jp_add_1":"東牟婁郡古座川町","jp_add_2":"宇筒井"},"6494225":{"post_code":"6494225","prefecture":"WAKAYAMA KEN","city":"HIGASHIMURO GUN KOZAGAWA CHO","town":"URUNO","perfecture_jp":"和歌山県","jp_add_1":"東牟婁郡古座川町","jp_add_2":"潤野"},"6494451":{"post_code":"6494451","prefecture":"WAKAYAMA KEN","city":"HIGASHIMURO GUN KOZAGAWA CHO","town":"OKAWA","perfecture_jp":"和歌山県","jp_add_1":"東牟婁郡古座川町","jp_add_2":"大川"},"6494215":{"post_code":"6494215","prefecture":"WAKAYAMA KEN","city":"HIGASHIMURO GUN KOZAGAWA CHO","town":"OGUWA","perfecture_jp":"和歌山県","jp_add_1":"東牟婁郡古座川町","jp_add_2":"大桑"},"6494227":{"post_code":"6494227","prefecture":"WAKAYAMA KEN","city":"HIGASHIMURO GUN KOZAGAWA CHO","town":"OYANAGI","perfecture_jp":"和歌山県","jp_add_1":"東牟婁郡古座川町","jp_add_2":"大柳"},"6494101":{"post_code":"6494101","prefecture":"WAKAYAMA KEN","city":"HIGASHIMURO GUN KOZAGAWA CHO","town":"KASHIYAMA","perfecture_jp":"和歌山県","jp_add_1":"東牟婁郡古座川町","jp_add_2":"樫山"},"6494223":{"post_code":"6494223","prefecture":"WAKAYAMA KEN","city":"HIGASHIMURO GUN KOZAGAWA CHO","town":"KAWAGUCHI","perfecture_jp":"和歌山県","jp_add_1":"東牟婁郡古座川町","jp_add_2":"川口"},"6494102":{"post_code":"6494102","prefecture":"WAKAYAMA KEN","city":"HIGASHIMURO GUN KOZAGAWA CHO","town":"KUSU","perfecture_jp":"和歌山県","jp_add_1":"東牟婁郡古座川町","jp_add_2":"楠"},"6494452":{"post_code":"6494452","prefecture":"WAKAYAMA KEN","city":"HIGASHIMURO GUN KOZAGAWA CHO","town":"KUROZU","perfecture_jp":"和歌山県","jp_add_1":"東牟婁郡古座川町","jp_add_2":"蔵土"},"6494216":{"post_code":"6494216","prefecture":"WAKAYAMA KEN","city":"HIGASHIMURO GUN KOZAGAWA CHO","town":"KOGAWA","perfecture_jp":"和歌山県","jp_add_1":"東牟婁郡古座川町","jp_add_2":"小川"},"6494211":{"post_code":"6494211","prefecture":"WAKAYAMA KEN","city":"HIGASHIMURO GUN KOZAGAWA CHO","town":"KOMORIGAWA","perfecture_jp":"和歌山県","jp_add_1":"東牟婁郡古座川町","jp_add_2":"小森川"},"6494442":{"post_code":"6494442","prefecture":"WAKAYAMA KEN","city":"HIGASHIMURO GUN KOZAGAWA CHO","town":"SADA","perfecture_jp":"和歌山県","jp_add_1":"東牟婁郡古座川町","jp_add_2":"佐田"},"6494562":{"post_code":"6494562","prefecture":"WAKAYAMA KEN","city":"HIGASHIMURO GUN KOZAGAWA CHO","town":"SHIMOTSUYU","perfecture_jp":"和歌山県","jp_add_1":"東牟婁郡古座川町","jp_add_2":"下露"},"6494441":{"post_code":"6494441","prefecture":"WAKAYAMA KEN","city":"HIGASHIMURO GUN KOZAGAWA CHO","town":"SOINOGAWA","perfecture_jp":"和歌山県","jp_add_1":"東牟婁郡古座川町","jp_add_2":"添野川"},"6494104":{"post_code":"6494104","prefecture":"WAKAYAMA KEN","city":"HIGASHIMURO GUN KOZAGAWA CHO","town":"TAKAIKE","perfecture_jp":"和歌山県","jp_add_1":"東牟婁郡古座川町","jp_add_2":"高池"},"6494224":{"post_code":"6494224","prefecture":"WAKAYAMA KEN","city":"HIGASHIMURO GUN KOZAGAWA CHO","town":"TAKASE","perfecture_jp":"和歌山県","jp_add_1":"東牟婁郡古座川町","jp_add_2":"高瀬"},"6494212":{"post_code":"6494212","prefecture":"WAKAYAMA KEN","city":"HIGASHIMURO GUN KOZAGAWA CHO","town":"TAGAWA","perfecture_jp":"和歌山県","jp_add_1":"東牟婁郡古座川町","jp_add_2":"田川"},"6494233":{"post_code":"6494233","prefecture":"WAKAYAMA KEN","city":"HIGASHIMURO GUN KOZAGAWA CHO","town":"TACHIAI","perfecture_jp":"和歌山県","jp_add_1":"東牟婁郡古座川町","jp_add_2":"立合"},"6494236":{"post_code":"6494236","prefecture":"WAKAYAMA KEN","city":"HIGASHIMURO GUN KOZAGAWA CHO","town":"TACHIAIGAWA","perfecture_jp":"和歌山県","jp_add_1":"東牟婁郡古座川町","jp_add_2":"立合川"},"6494106":{"post_code":"6494106","prefecture":"WAKAYAMA KEN","city":"HIGASHIMURO GUN KOZAGAWA CHO","town":"TSUKINOSE","perfecture_jp":"和歌山県","jp_add_1":"東牟婁郡古座川町","jp_add_2":"月野瀬"},"6494231":{"post_code":"6494231","prefecture":"WAKAYAMA KEN","city":"HIGASHIMURO GUN KOZAGAWA CHO","town":"TSURUGAWA","perfecture_jp":"和歌山県","jp_add_1":"東牟婁郡古座川町","jp_add_2":"鶴川"},"6494221":{"post_code":"6494221","prefecture":"WAKAYAMA KEN","city":"HIGASHIMURO GUN KOZAGAWA CHO","town":"NAKAZAKI","perfecture_jp":"和歌山県","jp_add_1":"東牟婁郡古座川町","jp_add_2":"中崎"},"6494444":{"post_code":"6494444","prefecture":"WAKAYAMA KEN","city":"HIGASHIMURO GUN KOZAGAWA CHO","town":"NAGAOI","perfecture_jp":"和歌山県","jp_add_1":"東牟婁郡古座川町","jp_add_2":"長追"},"6494454":{"post_code":"6494454","prefecture":"WAKAYAMA KEN","city":"HIGASHIMURO GUN KOZAGAWA CHO","town":"NABERA","perfecture_jp":"和歌山県","jp_add_1":"東牟婁郡古座川町","jp_add_2":"南平"},"6494565":{"post_code":"6494565","prefecture":"WAKAYAMA KEN","city":"HIGASHIMURO GUN KOZAGAWA CHO","town":"NARUKAWA","perfecture_jp":"和歌山県","jp_add_1":"東牟婁郡古座川町","jp_add_2":"成川"},"6494213":{"post_code":"6494213","prefecture":"WAKAYAMA KEN","city":"HIGASHIMURO GUN KOZAGAWA CHO","town":"NISHIAKAGI","perfecture_jp":"和歌山県","jp_add_1":"東牟婁郡古座川町","jp_add_2":"西赤木"},"6494561":{"post_code":"6494561","prefecture":"WAKAYAMA KEN","city":"HIGASHIMURO GUN KOZAGAWA CHO","town":"NISHIKAWA","perfecture_jp":"和歌山県","jp_add_1":"東牟婁郡古座川町","jp_add_2":"西川"},"6494222":{"post_code":"6494222","prefecture":"WAKAYAMA KEN","city":"HIGASHIMURO GUN KOZAGAWA CHO","town":"NUKUMI","perfecture_jp":"和歌山県","jp_add_1":"東牟婁郡古座川町","jp_add_2":"直見"},"6494563":{"post_code":"6494563","prefecture":"WAKAYAMA KEN","city":"HIGASHIMURO GUN KOZAGAWA CHO","town":"HIRAI","perfecture_jp":"和歌山県","jp_add_1":"東牟婁郡古座川町","jp_add_2":"平井"},"6494564":{"post_code":"6494564","prefecture":"WAKAYAMA KEN","city":"HIGASHIMURO GUN KOZAGAWA CHO","town":"MATSUNE","perfecture_jp":"和歌山県","jp_add_1":"東牟婁郡古座川町","jp_add_2":"松根"},"6494443":{"post_code":"6494443","prefecture":"WAKAYAMA KEN","city":"HIGASHIMURO GUN KOZAGAWA CHO","town":"MANAGO","perfecture_jp":"和歌山県","jp_add_1":"東牟婁郡古座川町","jp_add_2":"真砂"},"6494455":{"post_code":"6494455","prefecture":"WAKAYAMA KEN","city":"HIGASHIMURO GUN KOZAGAWA CHO","town":"MITOGAWA","perfecture_jp":"和歌山県","jp_add_1":"東牟婁郡古座川町","jp_add_2":"三尾川"},"6494234":{"post_code":"6494234","prefecture":"WAKAYAMA KEN","city":"HIGASHIMURO GUN KOZAGAWA CHO","town":"MINE","perfecture_jp":"和歌山県","jp_add_1":"東牟婁郡古座川町","jp_add_2":"峰"},"6494226":{"post_code":"6494226","prefecture":"WAKAYAMA KEN","city":"HIGASHIMURO GUN KOZAGAWA CHO","town":"MYOJIN","perfecture_jp":"和歌山県","jp_add_1":"東牟婁郡古座川町","jp_add_2":"明神"},"6494217":{"post_code":"6494217","prefecture":"WAKAYAMA KEN","city":"HIGASHIMURO GUN KOZAGAWA CHO","town":"YAMATE","perfecture_jp":"和歌山県","jp_add_1":"東牟婁郡古座川町","jp_add_2":"山手"},"6493500":{"post_code":"6493500","prefecture":"WAKAYAMA KEN","city":"HIGASHIMURO GUN KUSHIMOTO CHO","town":"IKANIKEISAIGANAIBAAI","perfecture_jp":"和歌山県","jp_add_1":"東牟婁郡串本町","jp_add_2":""},"6493514":{"post_code":"6493514","prefecture":"WAKAYAMA KEN","city":"HIGASHIMURO GUN KUSHIMOTO CHO","town":"ARIDA","perfecture_jp":"和歌山県","jp_add_1":"東牟婁郡串本町","jp_add_2":"有田"},"6493518":{"post_code":"6493518","prefecture":"WAKAYAMA KEN","city":"HIGASHIMURO GUN KUSHIMOTO CHO","town":"ARIDAKAMI","perfecture_jp":"和歌山県","jp_add_1":"東牟婁郡串本町","jp_add_2":"有田上"},"6494124":{"post_code":"6494124","prefecture":"WAKAYAMA KEN","city":"HIGASHIMURO GUN KUSHIMOTO CHO","town":"IKUSHI","perfecture_jp":"和歌山県","jp_add_1":"東牟婁郡串本町","jp_add_2":"伊串"},"6493501":{"post_code":"6493501","prefecture":"WAKAYAMA KEN","city":"HIGASHIMURO GUN KUSHIMOTO CHO","town":"ITSUMO","perfecture_jp":"和歌山県","jp_add_1":"東牟婁郡串本町","jp_add_2":"出雲"},"6494114":{"post_code":"6494114","prefecture":"WAKAYAMA KEN","city":"HIGASHIMURO GUN KUSHIMOTO CHO","town":"UENOYAMA","perfecture_jp":"和歌山県","jp_add_1":"東牟婁郡串本町","jp_add_2":"上野山"},"6493521":{"post_code":"6493521","prefecture":"WAKAYAMA KEN","city":"HIGASHIMURO GUN KUSHIMOTO CHO","town":"EDA","perfecture_jp":"和歌山県","jp_add_1":"東牟婁郡串本町","jp_add_2":"江田"},"6493633":{"post_code":"6493633","prefecture":"WAKAYAMA KEN","city":"HIGASHIMURO GUN KUSHIMOTO CHO","town":"OSHIMA","perfecture_jp":"和歌山県","jp_add_1":"東牟婁郡串本町","jp_add_2":"大島"},"6493631":{"post_code":"6493631","prefecture":"WAKAYAMA KEN","city":"HIGASHIMURO GUN KUSHIMOTO CHO","town":"KASHINO","perfecture_jp":"和歌山県","jp_add_1":"東牟婁郡串本町","jp_add_2":"樫野"},"6494111":{"post_code":"6494111","prefecture":"WAKAYAMA KEN","city":"HIGASHIMURO GUN KUSHIMOTO CHO","town":"KAMITAWARA","perfecture_jp":"和歌山県","jp_add_1":"東牟婁郡串本町","jp_add_2":"上田原"},"6493511":{"post_code":"6493511","prefecture":"WAKAYAMA KEN","city":"HIGASHIMURO GUN KUSHIMOTO CHO","town":"KUJINOKAWA","perfecture_jp":"和歌山県","jp_add_1":"東牟婁郡串本町","jp_add_2":"鬮野川"},"6493503":{"post_code":"6493503","prefecture":"WAKAYAMA KEN","city":"HIGASHIMURO GUN KUSHIMOTO CHO","town":"KUSHIMOTO","perfecture_jp":"和歌山県","jp_add_1":"東牟婁郡串本町","jp_add_2":"串本"},"6494115":{"post_code":"6494115","prefecture":"WAKAYAMA KEN","city":"HIGASHIMURO GUN KUSHIMOTO CHO","town":"KOZA","perfecture_jp":"和歌山県","jp_add_1":"東牟婁郡串本町","jp_add_2":"古座"},"6494123":{"post_code":"6494123","prefecture":"WAKAYAMA KEN","city":"HIGASHIMURO GUN KUSHIMOTO CHO","town":"KONOGAWA","perfecture_jp":"和歌山県","jp_add_1":"東牟婁郡串本町","jp_add_2":"神野川"},"6493524":{"post_code":"6493524","prefecture":"WAKAYAMA KEN","city":"HIGASHIMURO GUN KUSHIMOTO CHO","town":"SATOGAWA","perfecture_jp":"和歌山県","jp_add_1":"東牟婁郡串本町","jp_add_2":"里川"},"6494117":{"post_code":"6494117","prefecture":"WAKAYAMA KEN","city":"HIGASHIMURO GUN KUSHIMOTO CHO","town":"SABE","perfecture_jp":"和歌山県","jp_add_1":"東牟婁郡串本町","jp_add_2":"佐部"},"6493510":{"post_code":"6493510","prefecture":"WAKAYAMA KEN","city":"HIGASHIMURO GUN KUSHIMOTO CHO","town":"SANGODAI","perfecture_jp":"和歌山県","jp_add_1":"東牟婁郡串本町","jp_add_2":"サンゴ台"},"6493502":{"post_code":"6493502","prefecture":"WAKAYAMA KEN","city":"HIGASHIMURO GUN KUSHIMOTO CHO","town":"SHIONOMISAKI","perfecture_jp":"和歌山県","jp_add_1":"東牟婁郡串本町","jp_add_2":"潮岬"},"6493632":{"post_code":"6493632","prefecture":"WAKAYAMA KEN","city":"HIGASHIMURO GUN KUSHIMOTO CHO","town":"SUE","perfecture_jp":"和歌山県","jp_add_1":"東牟婁郡串本町","jp_add_2":"須江"},"6493513":{"post_code":"6493513","prefecture":"WAKAYAMA KEN","city":"HIGASHIMURO GUN KUSHIMOTO CHO","town":"TAKATOMI","perfecture_jp":"和歌山県","jp_add_1":"東牟婁郡串本町","jp_add_2":"高富"},"6493522":{"post_code":"6493522","prefecture":"WAKAYAMA KEN","city":"HIGASHIMURO GUN KUSHIMOTO CHO","town":"TAKO","perfecture_jp":"和歌山県","jp_add_1":"東牟婁郡串本町","jp_add_2":"田子"},"6493515":{"post_code":"6493515","prefecture":"WAKAYAMA KEN","city":"HIGASHIMURO GUN KUSHIMOTO CHO","town":"TANAMI","perfecture_jp":"和歌山県","jp_add_1":"東牟婁郡串本町","jp_add_2":"田並"},"6493516":{"post_code":"6493516","prefecture":"WAKAYAMA KEN","city":"HIGASHIMURO GUN KUSHIMOTO CHO","town":"TANAMIKAMI","perfecture_jp":"和歌山県","jp_add_1":"東牟婁郡串本町","jp_add_2":"田並上"},"6494112":{"post_code":"6494112","prefecture":"WAKAYAMA KEN","city":"HIGASHIMURO GUN KUSHIMOTO CHO","town":"TAWARA","perfecture_jp":"和歌山県","jp_add_1":"東牟婁郡串本町","jp_add_2":"田原"},"6494113":{"post_code":"6494113","prefecture":"WAKAYAMA KEN","city":"HIGASHIMURO GUN KUSHIMOTO CHO","town":"TSUGA","perfecture_jp":"和歌山県","jp_add_1":"東牟婁郡串本町","jp_add_2":"津荷"},"6494116":{"post_code":"6494116","prefecture":"WAKAYAMA KEN","city":"HIGASHIMURO GUN KUSHIMOTO CHO","town":"NAKAMINATO","perfecture_jp":"和歌山県","jp_add_1":"東牟婁郡串本町","jp_add_2":"中湊"},"6493512":{"post_code":"6493512","prefecture":"WAKAYAMA KEN","city":"HIGASHIMURO GUN KUSHIMOTO CHO","town":"NISHIKI","perfecture_jp":"和歌山県","jp_add_1":"東牟婁郡串本町","jp_add_2":"二色"},"6494122":{"post_code":"6494122","prefecture":"WAKAYAMA KEN","city":"HIGASHIMURO GUN KUSHIMOTO CHO","town":"NISHIMUKAI","perfecture_jp":"和歌山県","jp_add_1":"東牟婁郡串本町","jp_add_2":"西向"},"6493517":{"post_code":"6493517","prefecture":"WAKAYAMA KEN","city":"HIGASHIMURO GUN KUSHIMOTO CHO","town":"HABU","perfecture_jp":"和歌山県","jp_add_1":"東牟婁郡串本町","jp_add_2":"吐生"},"6494125":{"post_code":"6494125","prefecture":"WAKAYAMA KEN","city":"HIGASHIMURO GUN KUSHIMOTO CHO","town":"HIME","perfecture_jp":"和歌山県","jp_add_1":"東牟婁郡串本町","jp_add_2":"姫"},"6494126":{"post_code":"6494126","prefecture":"WAKAYAMA KEN","city":"HIGASHIMURO GUN KUSHIMOTO CHO","town":"HIMEGAWA","perfecture_jp":"和歌山県","jp_add_1":"東牟婁郡串本町","jp_add_2":"姫川"},"6494121":{"post_code":"6494121","prefecture":"WAKAYAMA KEN","city":"HIGASHIMURO GUN KUSHIMOTO CHO","town":"FURUTA","perfecture_jp":"和歌山県","jp_add_1":"東牟婁郡串本町","jp_add_2":"古田"},"6493523":{"post_code":"6493523","prefecture":"WAKAYAMA KEN","city":"HIGASHIMURO GUN KUSHIMOTO CHO","town":"WABUKA","perfecture_jp":"和歌山県","jp_add_1":"東牟婁郡串本町","jp_add_2":"和深"}}