{"6500000":{"post_code":"6500000","prefecture":"HYOGO KEN","city":"KOBE SHI NISHI KU","town":"IKANIKEISAIGANAIBAAI","perfecture_jp":"兵庫県","jp_add_1":"神戸市中央区","jp_add_2":""},"6500025":{"post_code":"6500025","prefecture":"HYOGO KEN","city":"KOBE SHI CHUO KU","town":"AIOICHO","perfecture_jp":"兵庫県","jp_add_1":"神戸市中央区","jp_add_2":"相生町"},"6500037":{"post_code":"6500037","prefecture":"HYOGO KEN","city":"KOBE SHI CHUO KU","town":"AKASHIMACHI","perfecture_jp":"兵庫県","jp_add_1":"神戸市中央区","jp_add_2":"明石町"},"6500032":{"post_code":"6500032","prefecture":"HYOGO KEN","city":"KOBE SHI CHUO KU","town":"ITOMACHI","perfecture_jp":"兵庫県","jp_add_1":"神戸市中央区","jp_add_2":"伊藤町"},"6500033":{"post_code":"6500033","prefecture":"HYOGO KEN","city":"KOBE SHI CHUO KU","town":"EDOMACHI","perfecture_jp":"兵庫県","jp_add_1":"神戸市中央区","jp_add_2":"江戸町"},"6500024":{"post_code":"6500024","prefecture":"HYOGO KEN","city":"KOBE SHI CHUO KU","town":"KAIGANDORI","perfecture_jp":"兵庫県","jp_add_1":"神戸市中央区","jp_add_2":"海岸通"},"6500001":{"post_code":"6500001","prefecture":"HYOGO KEN","city":"KOBE SHI CHUO KU","town":"KANOCHO","perfecture_jp":"兵庫県","jp_add_1":"神戸市中央区","jp_add_2":"加納町"},"6500012":{"post_code":"6500012","prefecture":"HYOGO KEN","city":"KOBE SHI CHUO KU","town":"KITANAGASADORI","perfecture_jp":"兵庫県","jp_add_1":"神戸市中央区","jp_add_2":"北長狭通"},"6500002":{"post_code":"6500002","prefecture":"HYOGO KEN","city":"KOBE SHI CHUO KU","town":"KITANOCHO","perfecture_jp":"兵庫県","jp_add_1":"神戸市中央区","jp_add_2":"北野町"},"6500034":{"post_code":"6500034","prefecture":"HYOGO KEN","city":"KOBE SHI CHUO KU","town":"KYOMACHI","perfecture_jp":"兵庫県","jp_add_1":"神戸市中央区","jp_add_2":"京町"},"6500017":{"post_code":"6500017","prefecture":"HYOGO KEN","city":"KOBE SHI CHUO KU","town":"KUSUNOKICHO","perfecture_jp":"兵庫県","jp_add_1":"神戸市中央区","jp_add_2":"楠町"},"6500048":{"post_code":"6500048","prefecture":"HYOGO KEN","city":"KOBE SHI CHUO KU","town":"KOBEKUKO","perfecture_jp":"兵庫県","jp_add_1":"神戸市中央区","jp_add_2":"神戸空港"},"6500007":{"post_code":"6500007","prefecture":"HYOGO KEN","city":"KOBE SHI CHUO KU","town":"KOBEKOJIKATA","perfecture_jp":"兵庫県","jp_add_1":"神戸市中央区","jp_add_2":"神戸港地方"},"6500026":{"post_code":"6500026","prefecture":"HYOGO KEN","city":"KOBE SHI CHUO KU","town":"KOMINATODORI","perfecture_jp":"兵庫県","jp_add_1":"神戸市中央区","jp_add_2":"古湊通"},"6500023":{"post_code":"6500023","prefecture":"HYOGO KEN","city":"KOBE SHI CHUO KU","town":"SAKAEMACHIDORI","perfecture_jp":"兵庫県","jp_add_1":"神戸市中央区","jp_add_2":"栄町通"},"6500021":{"post_code":"6500021","prefecture":"HYOGO KEN","city":"KOBE SHI CHUO KU","town":"SANNOMIYACHO","perfecture_jp":"兵庫県","jp_add_1":"神戸市中央区","jp_add_2":"三宮町"},"6500011":{"post_code":"6500011","prefecture":"HYOGO KEN","city":"KOBE SHI CHUO KU","town":"SHIMOYAMATEDORI","perfecture_jp":"兵庫県","jp_add_1":"神戸市中央区","jp_add_2":"下山手通"},"6500041":{"post_code":"6500041","prefecture":"HYOGO KEN","city":"KOBE SHI CHUO KU","town":"SHINKOCHO","perfecture_jp":"兵庫県","jp_add_1":"神戸市中央区","jp_add_2":"新港町"},"6500006":{"post_code":"6500006","prefecture":"HYOGO KEN","city":"KOBE SHI CHUO KU","town":"SUWAYAMACHO","perfecture_jp":"兵庫県","jp_add_1":"神戸市中央区","jp_add_2":"諏訪山町"},"6500016":{"post_code":"6500016","prefecture":"HYOGO KEN","city":"KOBE SHI CHUO KU","town":"TACHIBANADORI","perfecture_jp":"兵庫県","jp_add_1":"神戸市中央区","jp_add_2":"橘通"},"6500015":{"post_code":"6500015","prefecture":"HYOGO KEN","city":"KOBE SHI CHUO KU","town":"TAMONDORI","perfecture_jp":"兵庫県","jp_add_1":"神戸市中央区","jp_add_2":"多聞通"},"6500027":{"post_code":"6500027","prefecture":"HYOGO KEN","city":"KOBE SHI CHUO KU","town":"NAKAMACHIDORI","perfecture_jp":"兵庫県","jp_add_1":"神戸市中央区","jp_add_2":"中町通"},"6500004":{"post_code":"6500004","prefecture":"HYOGO KEN","city":"KOBE SHI CHUO KU","town":"NAKAYAMATEDORI","perfecture_jp":"兵庫県","jp_add_1":"神戸市中央区","jp_add_2":"中山手通"},"6500035":{"post_code":"6500035","prefecture":"HYOGO KEN","city":"KOBE SHI CHUO KU","town":"NANIWAMACHI","perfecture_jp":"兵庫県","jp_add_1":"神戸市中央区","jp_add_2":"浪花町"},"6500038":{"post_code":"6500038","prefecture":"HYOGO KEN","city":"KOBE SHI CHUO KU","town":"NISHIMACHI","perfecture_jp":"兵庫県","jp_add_1":"神戸市中央区","jp_add_2":"西町"},"6500042":{"post_code":"6500042","prefecture":"HYOGO KEN","city":"KOBE SHI CHUO KU","town":"HATOBACHO","perfecture_jp":"兵庫県","jp_add_1":"神戸市中央区","jp_add_2":"波止場町"},"6500013":{"post_code":"6500013","prefecture":"HYOGO KEN","city":"KOBE SHI CHUO KU","town":"HANAKUMACHO","perfecture_jp":"兵庫県","jp_add_1":"神戸市中央区","jp_add_2":"花隈町"},"6500036":{"post_code":"6500036","prefecture":"HYOGO KEN","city":"KOBE SHI CHUO KU","town":"HARIMAMACHI","perfecture_jp":"兵庫県","jp_add_1":"神戸市中央区","jp_add_2":"播磨町"},"6500044":{"post_code":"6500044","prefecture":"HYOGO KEN","city":"KOBE SHI CHUO KU","town":"HIGASHIKAWASAKICHO","perfecture_jp":"兵庫県","jp_add_1":"神戸市中央区","jp_add_2":"東川崎町"},"6500031":{"post_code":"6500031","prefecture":"HYOGO KEN","city":"KOBE SHI CHUO KU","town":"HIGASHIMACHI","perfecture_jp":"兵庫県","jp_add_1":"神戸市中央区","jp_add_2":"東町"},"6500005":{"post_code":"6500005","prefecture":"HYOGO KEN","city":"KOBE SHI CHUO KU","town":"FUTATABISUJICHO","perfecture_jp":"兵庫県","jp_add_1":"神戸市中央区","jp_add_2":"再度筋町"},"6500043":{"post_code":"6500043","prefecture":"HYOGO KEN","city":"KOBE SHI CHUO KU","town":"BENTENCHO","perfecture_jp":"兵庫県","jp_add_1":"神戸市中央区","jp_add_2":"弁天町"},"6500039":{"post_code":"6500039","prefecture":"HYOGO KEN","city":"KOBE SHI CHUO KU","town":"MAEMACHI","perfecture_jp":"兵庫県","jp_add_1":"神戸市中央区","jp_add_2":"前町"},"6500045":{"post_code":"6500045","prefecture":"HYOGO KEN","city":"KOBE SHI CHUO KU","town":"MINATOJIMA","perfecture_jp":"兵庫県","jp_add_1":"神戸市中央区","jp_add_2":"港島"},"6500046":{"post_code":"6500046","prefecture":"HYOGO KEN","city":"KOBE SHI CHUO KU","town":"MINATOJIMANAKAMACHI","perfecture_jp":"兵庫県","jp_add_1":"神戸市中央区","jp_add_2":"港島中町"},"6500047":{"post_code":"6500047","prefecture":"HYOGO KEN","city":"KOBE SHI CHUO KU","town":"MINATOJIMAMINAMIMACHI","perfecture_jp":"兵庫県","jp_add_1":"神戸市中央区","jp_add_2":"港島南町"},"6500014":{"post_code":"6500014","prefecture":"HYOGO KEN","city":"KOBE SHI CHUO KU","town":"MOTOMACHIKOKADORI","perfecture_jp":"兵庫県","jp_add_1":"神戸市中央区","jp_add_2":"元町高架通"},"6500022":{"post_code":"6500022","prefecture":"HYOGO KEN","city":"KOBE SHI CHUO KU","town":"MOTOMACHIDORI","perfecture_jp":"兵庫県","jp_add_1":"神戸市中央区","jp_add_2":"元町通"},"6500003":{"post_code":"6500003","prefecture":"HYOGO KEN","city":"KOBE SHI CHUO KU","town":"YAMAMOTODORI","perfecture_jp":"兵庫県","jp_add_1":"神戸市中央区","jp_add_2":"山本通"}}