{"6530000":{"post_code":"6530000","prefecture":"HYOGO KEN","city":"KOBE SHI NAGATA KU","town":"IKANIKEISAIGANAIBAAI","perfecture_jp":"兵庫県","jp_add_1":"神戸市長田区","jp_add_2":""},"6530824":{"post_code":"6530824","prefecture":"HYOGO KEN","city":"KOBE SHI NAGATA KU","town":"IKEDA UEMACHI","perfecture_jp":"兵庫県","jp_add_1":"神戸市長田区","jp_add_2":"池田上町"},"6530823":{"post_code":"6530823","prefecture":"HYOGO KEN","city":"KOBE SHI NAGATA KU","town":"IKEDA KYOMACHI","perfecture_jp":"兵庫県","jp_add_1":"神戸市長田区","jp_add_2":"池田経町"},"6530826":{"post_code":"6530826","prefecture":"HYOGO KEN","city":"KOBE SHI NAGATA KU","town":"IKEDA SHIOMACHI","perfecture_jp":"兵庫県","jp_add_1":"神戸市長田区","jp_add_2":"池田塩町"},"6530825":{"post_code":"6530825","prefecture":"HYOGO KEN","city":"KOBE SHI NAGATA KU","town":"IKEDA SHIMMACHI","perfecture_jp":"兵庫県","jp_add_1":"神戸市長田区","jp_add_2":"池田新町"},"6530864":{"post_code":"6530864","prefecture":"HYOGO KEN","city":"KOBE SHI NAGATA KU","town":"IKEDA SOMACHI","perfecture_jp":"兵庫県","jp_add_1":"神戸市長田区","jp_add_2":"池田惣町"},"6530822":{"post_code":"6530822","prefecture":"HYOGO KEN","city":"KOBE SHI NAGATA KU","town":"IKEDA TERAMACHI","perfecture_jp":"兵庫県","jp_add_1":"神戸市長田区","jp_add_2":"池田寺町"},"6530814":{"post_code":"6530814","prefecture":"HYOGO KEN","city":"KOBE SHI NAGATA KU","town":"IKEDA HIROMACHI","perfecture_jp":"兵庫県","jp_add_1":"神戸市長田区","jp_add_2":"池田広町"},"6530865":{"post_code":"6530865","prefecture":"HYOGO KEN","city":"KOBE SHI NAGATA KU","town":"IKEDA MIYAMACHI","perfecture_jp":"兵庫県","jp_add_1":"神戸市長田区","jp_add_2":"池田宮町"},"6530821":{"post_code":"6530821","prefecture":"HYOGO KEN","city":"KOBE SHI NAGATA KU","town":"IKEDATANIMACHI","perfecture_jp":"兵庫県","jp_add_1":"神戸市長田区","jp_add_2":"池田谷町"},"6530013":{"post_code":"6530013","prefecture":"HYOGO KEN","city":"KOBE SHI NAGATA KU","town":"ICHIBANCHO","perfecture_jp":"兵庫県","jp_add_1":"神戸市長田区","jp_add_2":"一番町"},"6530878":{"post_code":"6530878","prefecture":"HYOGO KEN","city":"KOBE SHI NAGATA KU","town":"ICHIRIYAMACHO","perfecture_jp":"兵庫県","jp_add_1":"神戸市長田区","jp_add_2":"一里山町"},"6530871":{"post_code":"6530871","prefecture":"HYOGO KEN","city":"KOBE SHI NAGATA KU","town":"UGUISUCHO","perfecture_jp":"兵庫県","jp_add_1":"神戸市長田区","jp_add_2":"鶯町"},"6530036":{"post_code":"6530036","prefecture":"HYOGO KEN","city":"KOBE SHI NAGATA KU","town":"UDEZUKACHO","perfecture_jp":"兵庫県","jp_add_1":"神戸市長田区","jp_add_2":"腕塚町"},"6530021":{"post_code":"6530021","prefecture":"HYOGO KEN","city":"KOBE SHI NAGATA KU","town":"UMEGAKACHO","perfecture_jp":"兵庫県","jp_add_1":"神戸市長田区","jp_add_2":"梅ケ香町"},"6530838":{"post_code":"6530838","prefecture":"HYOGO KEN","city":"KOBE SHI NAGATA KU","town":"OTANICHO","perfecture_jp":"兵庫県","jp_add_1":"神戸市長田区","jp_add_2":"大谷町"},"6530811":{"post_code":"6530811","prefecture":"HYOGO KEN","city":"KOBE SHI NAGATA KU","town":"OTSUKACHO","perfecture_jp":"兵庫県","jp_add_1":"神戸市長田区","jp_add_2":"大塚町"},"6530037":{"post_code":"6530037","prefecture":"HYOGO KEN","city":"KOBE SHI NAGATA KU","town":"OHASHICHO","perfecture_jp":"兵庫県","jp_add_1":"神戸市長田区","jp_add_2":"大橋町"},"6530833":{"post_code":"6530833","prefecture":"HYOGO KEN","city":"KOBE SHI NAGATA KU","town":"OMICHIDORI","perfecture_jp":"兵庫県","jp_add_1":"神戸市長田区","jp_add_2":"大道通"},"6530802":{"post_code":"6530802","prefecture":"HYOGO KEN","city":"KOBE SHI NAGATA KU","town":"OMOIKECHO","perfecture_jp":"兵庫県","jp_add_1":"神戸市長田区","jp_add_2":"重池町"},"6530843":{"post_code":"6530843","prefecture":"HYOGO KEN","city":"KOBE SHI NAGATA KU","town":"OYASHIKIDORI","perfecture_jp":"兵庫県","jp_add_1":"神戸市長田区","jp_add_2":"御屋敷通"},"6530052":{"post_code":"6530052","prefecture":"HYOGO KEN","city":"KOBE SHI NAGATA KU","town":"KAIUNCHO","perfecture_jp":"兵庫県","jp_add_1":"神戸市長田区","jp_add_2":"海運町"},"6530836":{"post_code":"6530836","prefecture":"HYOGO KEN","city":"KOBE SHI NAGATA KU","town":"KAGURACHO","perfecture_jp":"兵庫県","jp_add_1":"神戸市長田区","jp_add_2":"神楽町"},"6530805":{"post_code":"6530805","prefecture":"HYOGO KEN","city":"KOBE SHI NAGATA KU","town":"KATAYAMACHO","perfecture_jp":"兵庫県","jp_add_1":"神戸市長田区","jp_add_2":"片山町"},"6530827":{"post_code":"6530827","prefecture":"HYOGO KEN","city":"KOBE SHI NAGATA KU","town":"KAMIIKEDA","perfecture_jp":"兵庫県","jp_add_1":"神戸市長田区","jp_add_2":"上池田"},"6530033":{"post_code":"6530033","prefecture":"HYOGO KEN","city":"KOBE SHI NAGATA KU","town":"KARUMOJIMACHO","perfecture_jp":"兵庫県","jp_add_1":"神戸市長田区","jp_add_2":"苅藻島町"},"6530032":{"post_code":"6530032","prefecture":"HYOGO KEN","city":"KOBE SHI NAGATA KU","town":"KARUMODORI","perfecture_jp":"兵庫県","jp_add_1":"神戸市長田区","jp_add_2":"苅藻通"},"6530834":{"post_code":"6530834","prefecture":"HYOGO KEN","city":"KOBE SHI NAGATA KU","town":"KAWANISHIDORI","perfecture_jp":"兵庫県","jp_add_1":"神戸市長田区","jp_add_2":"川西通"},"6530016":{"post_code":"6530016","prefecture":"HYOGO KEN","city":"KOBE SHI NAGATA KU","town":"KITAMACHI","perfecture_jp":"兵庫県","jp_add_1":"神戸市長田区","jp_add_2":"北町"},"6530041":{"post_code":"6530041","prefecture":"HYOGO KEN","city":"KOBE SHI NAGATA KU","town":"KUBOCHO","perfecture_jp":"兵庫県","jp_add_1":"神戸市長田区","jp_add_2":"久保町"},"6530888":{"post_code":"6530888","prefecture":"HYOGO KEN","city":"KOBE SHI NAGATA KU","town":"GEMPEICHO","perfecture_jp":"兵庫県","jp_add_1":"神戸市長田区","jp_add_2":"源平町"},"6530851":{"post_code":"6530851","prefecture":"HYOGO KEN","city":"KOBE SHI NAGATA KU","town":"GOINOIKECHO","perfecture_jp":"兵庫県","jp_add_1":"神戸市長田区","jp_add_2":"五位ノ池町"},"6530867":{"post_code":"6530867","prefecture":"HYOGO KEN","city":"KOBE SHI NAGATA KU","town":"KOTOCHO","perfecture_jp":"兵庫県","jp_add_1":"神戸市長田区","jp_add_2":"高東町"},"6530003":{"post_code":"6530003","prefecture":"HYOGO KEN","city":"KOBE SHI NAGATA KU","town":"GOBANCHO","perfecture_jp":"兵庫県","jp_add_1":"神戸市長田区","jp_add_2":"五番町"},"6530034":{"post_code":"6530034","prefecture":"HYOGO KEN","city":"KOBE SHI NAGATA KU","town":"KOMAECHO","perfecture_jp":"兵庫県","jp_add_1":"神戸市長田区","jp_add_2":"駒栄町"},"6530043":{"post_code":"6530043","prefecture":"HYOGO KEN","city":"KOBE SHI NAGATA KU","town":"KOMAGABAYASHICHO","perfecture_jp":"兵庫県","jp_add_1":"神戸市長田区","jp_add_2":"駒ケ林町"},"6530045":{"post_code":"6530045","prefecture":"HYOGO KEN","city":"KOBE SHI NAGATA KU","town":"KOMAGABAYASHIMINAMICHO","perfecture_jp":"兵庫県","jp_add_1":"神戸市長田区","jp_add_2":"駒ケ林南町"},"6530011":{"post_code":"6530011","prefecture":"HYOGO KEN","city":"KOBE SHI NAGATA KU","town":"SAMBANCHO","perfecture_jp":"兵庫県","jp_add_1":"神戸市長田区","jp_add_2":"三番町"},"6530877":{"post_code":"6530877","prefecture":"HYOGO KEN","city":"KOBE SHI NAGATA KU","town":"SHIKAMATSUCHO","perfecture_jp":"兵庫県","jp_add_1":"神戸市長田区","jp_add_2":"鹿松町"},"6530035":{"post_code":"6530035","prefecture":"HYOGO KEN","city":"KOBE SHI NAGATA KU","town":"SHODACHO","perfecture_jp":"兵庫県","jp_add_1":"神戸市長田区","jp_add_2":"庄田町"},"6530853":{"post_code":"6530853","prefecture":"HYOGO KEN","city":"KOBE SHI NAGATA KU","town":"SHOYAMACHO","perfecture_jp":"兵庫県","jp_add_1":"神戸市長田区","jp_add_2":"庄山町"},"6530015":{"post_code":"6530015","prefecture":"HYOGO KEN","city":"KOBE SHI NAGATA KU","town":"SUGAHARADORI","perfecture_jp":"兵庫県","jp_add_1":"神戸市長田区","jp_add_2":"菅原通"},"6530806":{"post_code":"6530806","prefecture":"HYOGO KEN","city":"KOBE SHI NAGATA KU","town":"DAIMARUCHO","perfecture_jp":"兵庫県","jp_add_1":"神戸市長田区","jp_add_2":"大丸町"},"6530856":{"post_code":"6530856","prefecture":"HYOGO KEN","city":"KOBE SHI NAGATA KU","town":"TAKATORISANCHO","perfecture_jp":"兵庫県","jp_add_1":"神戸市長田区","jp_add_2":"高取山町"},"6530881":{"post_code":"6530881","prefecture":"HYOGO KEN","city":"KOBE SHI NAGATA KU","town":"TAKITANICHO","perfecture_jp":"兵庫県","jp_add_1":"神戸市長田区","jp_add_2":"滝谷町"},"6530872":{"post_code":"6530872","prefecture":"HYOGO KEN","city":"KOBE SHI NAGATA KU","town":"DAINICHIGAOKACHO","perfecture_jp":"兵庫県","jp_add_1":"神戸市長田区","jp_add_2":"大日丘町"},"6530866":{"post_code":"6530866","prefecture":"HYOGO KEN","city":"KOBE SHI NAGATA KU","town":"CHOJAMACHI","perfecture_jp":"兵庫県","jp_add_1":"神戸市長田区","jp_add_2":"長者町"},"6530804":{"post_code":"6530804","prefecture":"HYOGO KEN","city":"KOBE SHI NAGATA KU","town":"TERAIKECHO","perfecture_jp":"兵庫県","jp_add_1":"神戸市長田区","jp_add_2":"寺池町"},"6530845":{"post_code":"6530845","prefecture":"HYOGO KEN","city":"KOBE SHI NAGATA KU","town":"TOZAKIDORI","perfecture_jp":"兵庫県","jp_add_1":"神戸市長田区","jp_add_2":"戸崎通"},"6530855":{"post_code":"6530855","prefecture":"HYOGO KEN","city":"KOBE SHI NAGATA KU","town":"NAGAOCHO","perfecture_jp":"兵庫県","jp_add_1":"神戸市長田区","jp_add_2":"長尾町"},"6530812":{"post_code":"6530812","prefecture":"HYOGO KEN","city":"KOBE SHI NAGATA KU","town":"NAGATACHO","perfecture_jp":"兵庫県","jp_add_1":"神戸市長田区","jp_add_2":"長田町"},"6530882":{"post_code":"6530882","prefecture":"HYOGO KEN","city":"KOBE SHI NAGATA KU","town":"NAGATATENJINCHO","perfecture_jp":"兵庫県","jp_add_1":"神戸市長田区","jp_add_2":"長田天神町"},"6530054":{"post_code":"6530054","prefecture":"HYOGO KEN","city":"KOBE SHI NAGATA KU","town":"NAGARACHO","perfecture_jp":"兵庫県","jp_add_1":"神戸市長田区","jp_add_2":"長楽町"},"6530883":{"post_code":"6530883","prefecture":"HYOGO KEN","city":"KOBE SHI NAGATA KU","town":"NAGURACHO","perfecture_jp":"兵庫県","jp_add_1":"神戸市長田区","jp_add_2":"名倉町"},"6530001":{"post_code":"6530001","prefecture":"HYOGO KEN","city":"KOBE SHI NAGATA KU","town":"NANABANCHO","perfecture_jp":"兵庫県","jp_add_1":"神戸市長田区","jp_add_2":"七番町"},"6530055":{"post_code":"6530055","prefecture":"HYOGO KEN","city":"KOBE SHI NAGATA KU","town":"NAMIMATSUCHO","perfecture_jp":"兵庫県","jp_add_1":"神戸市長田区","jp_add_2":"浪松町"},"6530031":{"post_code":"6530031","prefecture":"HYOGO KEN","city":"KOBE SHI NAGATA KU","town":"NISHISHIRIIKECHO","perfecture_jp":"兵庫県","jp_add_1":"神戸市長田区","jp_add_2":"西尻池町"},"6530844":{"post_code":"6530844","prefecture":"HYOGO KEN","city":"KOBE SHI NAGATA KU","town":"NISHIDAIDORI","perfecture_jp":"兵庫県","jp_add_1":"神戸市長田区","jp_add_2":"西代通"},"6530874":{"post_code":"6530874","prefecture":"HYOGO KEN","city":"KOBE SHI NAGATA KU","town":"NISHIMARUYAMACHO","perfecture_jp":"兵庫県","jp_add_1":"神戸市長田区","jp_add_2":"西丸山町"},"6530862":{"post_code":"6530862","prefecture":"HYOGO KEN","city":"KOBE SHI NAGATA KU","town":"NISHIYAMACHO","perfecture_jp":"兵庫県","jp_add_1":"神戸市長田区","jp_add_2":"西山町"},"6530012":{"post_code":"6530012","prefecture":"HYOGO KEN","city":"KOBE SHI NAGATA KU","town":"NIBANCHO","perfecture_jp":"兵庫県","jp_add_1":"神戸市長田区","jp_add_2":"二番町"},"6530051":{"post_code":"6530051","prefecture":"HYOGO KEN","city":"KOBE SHI NAGATA KU","town":"NODACHO","perfecture_jp":"兵庫県","jp_add_1":"神戸市長田区","jp_add_2":"野田町"},"6530873":{"post_code":"6530873","prefecture":"HYOGO KEN","city":"KOBE SHI NAGATA KU","town":"HAGINOCHO","perfecture_jp":"兵庫県","jp_add_1":"神戸市長田区","jp_add_2":"萩乃町"},"6530837":{"post_code":"6530837","prefecture":"HYOGO KEN","city":"KOBE SHI NAGATA KU","town":"HASUIKECHO","perfecture_jp":"兵庫県","jp_add_1":"神戸市長田区","jp_add_2":"蓮池町"},"6530831":{"post_code":"6530831","prefecture":"HYOGO KEN","city":"KOBE SHI NAGATA KU","town":"HASUMIYADORI","perfecture_jp":"兵庫県","jp_add_1":"神戸市長田区","jp_add_2":"蓮宮通"},"6530876":{"post_code":"6530876","prefecture":"HYOGO KEN","city":"KOBE SHI NAGATA KU","town":"HANAYAMACHO","perfecture_jp":"兵庫県","jp_add_1":"神戸市長田区","jp_add_2":"花山町"},"6530024":{"post_code":"6530024","prefecture":"HYOGO KEN","city":"KOBE SHI NAGATA KU","town":"HAMAZOEDORI","perfecture_jp":"兵庫県","jp_add_1":"神戸市長田区","jp_add_2":"浜添通"},"6530861":{"post_code":"6530861","prefecture":"HYOGO KEN","city":"KOBE SHI NAGATA KU","town":"HAYASHIYAMACHO","perfecture_jp":"兵庫県","jp_add_1":"神戸市長田区","jp_add_2":"林山町"},"6530887":{"post_code":"6530887","prefecture":"HYOGO KEN","city":"KOBE SHI NAGATA KU","town":"HIKAWACHO","perfecture_jp":"兵庫県","jp_add_1":"神戸市長田区","jp_add_2":"檜川町"},"6530023":{"post_code":"6530023","prefecture":"HYOGO KEN","city":"KOBE SHI NAGATA KU","town":"HIGASHISHIRIIKESHINCHO","perfecture_jp":"兵庫県","jp_add_1":"神戸市長田区","jp_add_2":"東尻池新町"},"6530022":{"post_code":"6530022","prefecture":"HYOGO KEN","city":"KOBE SHI NAGATA KU","town":"HIGASHISHIRIIKECHO","perfecture_jp":"兵庫県","jp_add_1":"神戸市長田区","jp_add_2":"東尻池町"},"6530886":{"post_code":"6530886","prefecture":"HYOGO KEN","city":"KOBE SHI NAGATA KU","town":"HIGASHIMARUYAMACHO","perfecture_jp":"兵庫県","jp_add_1":"神戸市長田区","jp_add_2":"東丸山町"},"6530879":{"post_code":"6530879","prefecture":"HYOGO KEN","city":"KOBE SHI NAGATA KU","town":"HIBARIGAOKA","perfecture_jp":"兵庫県","jp_add_1":"神戸市長田区","jp_add_2":"雲雀ケ丘"},"6530039":{"post_code":"6530039","prefecture":"HYOGO KEN","city":"KOBE SHI NAGATA KU","town":"HIYOSHICHO","perfecture_jp":"兵庫県","jp_add_1":"神戸市長田区","jp_add_2":"日吉町"},"6530042":{"post_code":"6530042","prefecture":"HYOGO KEN","city":"KOBE SHI NAGATA KU","town":"FUTABACHO","perfecture_jp":"兵庫県","jp_add_1":"神戸市長田区","jp_add_2":"二葉町"},"6530854":{"post_code":"6530854","prefecture":"HYOGO KEN","city":"KOBE SHI NAGATA KU","town":"HEIWADAICHO","perfecture_jp":"兵庫県","jp_add_1":"神戸市長田区","jp_add_2":"平和台町"},"6530801":{"post_code":"6530801","prefecture":"HYOGO KEN","city":"KOBE SHI NAGATA KU","town":"BOOJICHO","perfecture_jp":"兵庫県","jp_add_1":"神戸市長田区","jp_add_2":"房王寺町"},"6530835":{"post_code":"6530835","prefecture":"HYOGO KEN","city":"KOBE SHI NAGATA KU","town":"HOSODACHO","perfecture_jp":"兵庫県","jp_add_1":"神戸市長田区","jp_add_2":"細田町"},"6530885":{"post_code":"6530885","prefecture":"HYOGO KEN","city":"KOBE SHI NAGATA KU","town":"HORIKIRICHO","perfecture_jp":"兵庫県","jp_add_1":"神戸市長田区","jp_add_2":"堀切町"},"6530053":{"post_code":"6530053","prefecture":"HYOGO KEN","city":"KOBE SHI NAGATA KU","town":"HONJOCHO","perfecture_jp":"兵庫県","jp_add_1":"神戸市長田区","jp_add_2":"本庄町"},"6530803":{"post_code":"6530803","prefecture":"HYOGO KEN","city":"KOBE SHI NAGATA KU","town":"MAEBARACHO","perfecture_jp":"兵庫県","jp_add_1":"神戸市長田区","jp_add_2":"前原町"},"6530841":{"post_code":"6530841","prefecture":"HYOGO KEN","city":"KOBE SHI NAGATA KU","town":"MATSUNODORI","perfecture_jp":"兵庫県","jp_add_1":"神戸市長田区","jp_add_2":"松野通"},"6530025":{"post_code":"6530025","prefecture":"HYOGO KEN","city":"KOBE SHI NAGATA KU","town":"MANOCHO","perfecture_jp":"兵庫県","jp_add_1":"神戸市長田区","jp_add_2":"真野町"},"6530875":{"post_code":"6530875","prefecture":"HYOGO KEN","city":"KOBE SHI NAGATA KU","town":"MARUYAMACHO","perfecture_jp":"兵庫県","jp_add_1":"神戸市長田区","jp_add_2":"丸山町"},"6530014":{"post_code":"6530014","prefecture":"HYOGO KEN","city":"KOBE SHI NAGATA KU","town":"MIKURADORI","perfecture_jp":"兵庫県","jp_add_1":"神戸市長田区","jp_add_2":"御蔵通"},"6530842":{"post_code":"6530842","prefecture":"HYOGO KEN","city":"KOBE SHI NAGATA KU","town":"MIZUKASADORI","perfecture_jp":"兵庫県","jp_add_1":"神戸市長田区","jp_add_2":"水笠通"},"6530044":{"post_code":"6530044","prefecture":"HYOGO KEN","city":"KOBE SHI NAGATA KU","town":"MINAMIKOMAECHO","perfecture_jp":"兵庫県","jp_add_1":"神戸市長田区","jp_add_2":"南駒栄町"},"6530832":{"post_code":"6530832","prefecture":"HYOGO KEN","city":"KOBE SHI NAGATA KU","town":"MIFUNEDORI","perfecture_jp":"兵庫県","jp_add_1":"神戸市長田区","jp_add_2":"御船通"},"6530863":{"post_code":"6530863","prefecture":"HYOGO KEN","city":"KOBE SHI NAGATA KU","town":"MIYAOKACHO","perfecture_jp":"兵庫県","jp_add_1":"神戸市長田区","jp_add_2":"宮丘町"},"6530813":{"post_code":"6530813","prefecture":"HYOGO KEN","city":"KOBE SHI NAGATA KU","town":"MIYAGAWACHO","perfecture_jp":"兵庫県","jp_add_1":"神戸市長田区","jp_add_2":"宮川町"},"6530884":{"post_code":"6530884","prefecture":"HYOGO KEN","city":"KOBE SHI NAGATA KU","town":"MYOSENJICHO","perfecture_jp":"兵庫県","jp_add_1":"神戸市長田区","jp_add_2":"明泉寺町"},"6530852":{"post_code":"6530852","prefecture":"HYOGO KEN","city":"KOBE SHI NAGATA KU","town":"YAMASHITACHO","perfecture_jp":"兵庫県","jp_add_1":"神戸市長田区","jp_add_2":"山下町"},"6530004":{"post_code":"6530004","prefecture":"HYOGO KEN","city":"KOBE SHI NAGATA KU","town":"YOMBANCHO","perfecture_jp":"兵庫県","jp_add_1":"神戸市長田区","jp_add_2":"四番町"},"6530002":{"post_code":"6530002","prefecture":"HYOGO KEN","city":"KOBE SHI NAGATA KU","town":"ROKUBANCHO","perfecture_jp":"兵庫県","jp_add_1":"神戸市長田区","jp_add_2":"六番町"},"6530038":{"post_code":"6530038","prefecture":"HYOGO KEN","city":"KOBE SHI NAGATA KU","town":"WAKAMATSUCHO","perfecture_jp":"兵庫県","jp_add_1":"神戸市長田区","jp_add_2":"若松町"}}