{"6550000":{"post_code":"6550000","prefecture":"HYOGO KEN","city":"KOBE SHI TARUMI KU","town":"IKANIKEISAIGANAIBAAI","perfecture_jp":"兵庫県","jp_add_1":"神戸市垂水区","jp_add_2":""},"6550873":{"post_code":"6550873","prefecture":"HYOGO KEN","city":"KOBE SHI TARUMI KU","town":"AOYAMADAI","perfecture_jp":"兵庫県","jp_add_1":"神戸市垂水区","jp_add_2":"青山台"},"6550862":{"post_code":"6550862","prefecture":"HYOGO KEN","city":"KOBE SHI TARUMI KU","town":"ASATANICHO","perfecture_jp":"兵庫県","jp_add_1":"神戸市垂水区","jp_add_2":"朝谷町"},"6550033":{"post_code":"6550033","prefecture":"HYOGO KEN","city":"KOBE SHI TARUMI KU","town":"ASAHIGAOKA","perfecture_jp":"兵庫県","jp_add_1":"神戸市垂水区","jp_add_2":"旭が丘"},"6550885":{"post_code":"6550885","prefecture":"HYOGO KEN","city":"KOBE SHI TARUMI KU","town":"IZUMIGAOKA","perfecture_jp":"兵庫県","jp_add_1":"神戸市垂水区","jp_add_2":"泉が丘"},"6550037":{"post_code":"6550037","prefecture":"HYOGO KEN","city":"KOBE SHI TARUMI KU","town":"UTASHIKIYAMA","perfecture_jp":"兵庫県","jp_add_1":"神戸市垂水区","jp_add_2":"歌敷山"},"6550883":{"post_code":"6550883","prefecture":"HYOGO KEN","city":"KOBE SHI TARUMI KU","town":"OIDEN","perfecture_jp":"兵庫県","jp_add_1":"神戸市垂水区","jp_add_2":"王居殿"},"6550014":{"post_code":"6550014","prefecture":"HYOGO KEN","city":"KOBE SHI TARUMI KU","town":"OMACHI","perfecture_jp":"兵庫県","jp_add_1":"神戸市垂水区","jp_add_2":"大町"},"6550882":{"post_code":"6550882","prefecture":"HYOGO KEN","city":"KOBE SHI TARUMI KU","town":"OTOGI","perfecture_jp":"兵庫県","jp_add_1":"神戸市垂水区","jp_add_2":"乙木"},"6550036":{"post_code":"6550036","prefecture":"HYOGO KEN","city":"KOBE SHI TARUMI KU","town":"KAIGANDORI","perfecture_jp":"兵庫県","jp_add_1":"神戸市垂水区","jp_add_2":"海岸通"},"6550039":{"post_code":"6550039","prefecture":"HYOGO KEN","city":"KOBE SHI TARUMI KU","town":"KASUMIGAOKA","perfecture_jp":"兵庫県","jp_add_1":"神戸市垂水区","jp_add_2":"霞ケ丘"},"6550017":{"post_code":"6550017","prefecture":"HYOGO KEN","city":"KOBE SHI TARUMI KU","town":"KAMITAKAMARU","perfecture_jp":"兵庫県","jp_add_1":"神戸市垂水区","jp_add_2":"上高丸"},"6550049":{"post_code":"6550049","prefecture":"HYOGO KEN","city":"KOBE SHI TARUMI KU","town":"KARIGUCHIDAI","perfecture_jp":"兵庫県","jp_add_1":"神戸市垂水区","jp_add_2":"狩口台"},"6550894":{"post_code":"6550894","prefecture":"HYOGO KEN","city":"KOBE SHI TARUMI KU","town":"KAWAHARA","perfecture_jp":"兵庫県","jp_add_1":"神戸市垂水区","jp_add_2":"川原"},"6550027":{"post_code":"6550027","prefecture":"HYOGO KEN","city":"KOBE SHI TARUMI KU","town":"KANDACHO","perfecture_jp":"兵庫県","jp_add_1":"神戸市垂水区","jp_add_2":"神田町"},"6550045":{"post_code":"6550045","prefecture":"HYOGO KEN","city":"KOBE SHI TARUMI KU","town":"KITAMAIKO","perfecture_jp":"兵庫県","jp_add_1":"神戸市垂水区","jp_add_2":"北舞子"},"6550026":{"post_code":"6550026","prefecture":"HYOGO KEN","city":"KOBE SHI TARUMI KU","town":"KUGANOCHO","perfecture_jp":"兵庫県","jp_add_1":"神戸市垂水区","jp_add_2":"陸ノ町"},"6550012":{"post_code":"6550012","prefecture":"HYOGO KEN","city":"KOBE SHI TARUMI KU","town":"KOYO","perfecture_jp":"兵庫県","jp_add_1":"神戸市垂水区","jp_add_2":"向陽"},"6550008":{"post_code":"6550008","prefecture":"HYOGO KEN","city":"KOBE SHI TARUMI KU","town":"KOZUKADAI","perfecture_jp":"兵庫県","jp_add_1":"神戸市垂水区","jp_add_2":"小束台"},"6550002":{"post_code":"6550002","prefecture":"HYOGO KEN","city":"KOBE SHI TARUMI KU","town":"KOZUKAYAMA","perfecture_jp":"兵庫県","jp_add_1":"神戸市垂水区","jp_add_2":"小束山"},"6550009":{"post_code":"6550009","prefecture":"HYOGO KEN","city":"KOBE SHI TARUMI KU","town":"KOZUKAYAMATE","perfecture_jp":"兵庫県","jp_add_1":"神戸市垂水区","jp_add_2":"小束山手"},"6550003":{"post_code":"6550003","prefecture":"HYOGO KEN","city":"KOBE SHI TARUMI KU","town":"KOZUKAYAMAHOMMACHI","perfecture_jp":"兵庫県","jp_add_1":"神戸市垂水区","jp_add_2":"小束山本町"},"6550035":{"post_code":"6550035","prefecture":"HYOGO KEN","city":"KOBE SHI TARUMI KU","town":"GOSHIKIYAMA","perfecture_jp":"兵庫県","jp_add_1":"神戸市垂水区","jp_add_2":"五色山"},"6550024":{"post_code":"6550024","prefecture":"HYOGO KEN","city":"KOBE SHI TARUMI KU","town":"GORYOCHO","perfecture_jp":"兵庫県","jp_add_1":"神戸市垂水区","jp_add_2":"御霊町"},"6550895":{"post_code":"6550895","prefecture":"HYOGO KEN","city":"KOBE SHI TARUMI KU","town":"SAKAGAMI","perfecture_jp":"兵庫県","jp_add_1":"神戸市垂水区","jp_add_2":"坂上"},"6550005":{"post_code":"6550005","prefecture":"HYOGO KEN","city":"KOBE SHI TARUMI KU","town":"SHIOMIGAOKA","perfecture_jp":"兵庫県","jp_add_1":"神戸市垂水区","jp_add_2":"潮見が丘"},"6550863":{"post_code":"6550863","prefecture":"HYOGO KEN","city":"KOBE SHI TARUMI KU","town":"SHIOYAKITAMACHI","perfecture_jp":"兵庫県","jp_add_1":"神戸市垂水区","jp_add_2":"塩屋北町"},"6550864":{"post_code":"6550864","prefecture":"HYOGO KEN","city":"KOBE SHI TARUMI KU","town":"SHIOYADAI","perfecture_jp":"兵庫県","jp_add_1":"神戸市垂水区","jp_add_2":"塩屋台"},"6550872":{"post_code":"6550872","prefecture":"HYOGO KEN","city":"KOBE SHI TARUMI KU","town":"SHIOYACHO","perfecture_jp":"兵庫県","jp_add_1":"神戸市垂水区","jp_add_2":"塩屋町"},"6550031":{"post_code":"6550031","prefecture":"HYOGO KEN","city":"KOBE SHI TARUMI KU","town":"SHIMIZUGAOKA","perfecture_jp":"兵庫県","jp_add_1":"神戸市垂水区","jp_add_2":"清水が丘"},"6550023":{"post_code":"6550023","prefecture":"HYOGO KEN","city":"KOBE SHI TARUMI KU","town":"SHIMIZUDORI","perfecture_jp":"兵庫県","jp_add_1":"神戸市垂水区","jp_add_2":"清水通"},"6550861":{"post_code":"6550861","prefecture":"HYOGO KEN","city":"KOBE SHI TARUMI KU","town":"SHIMOHATACHO","perfecture_jp":"兵庫県","jp_add_1":"神戸市垂水区","jp_add_2":"下畑町"},"6550871":{"post_code":"6550871","prefecture":"HYOGO KEN","city":"KOBE SHI TARUMI KU","town":"SHOFUDAI","perfecture_jp":"兵庫県","jp_add_1":"神戸市垂水区","jp_add_2":"松風台"},"6550884":{"post_code":"6550884","prefecture":"HYOGO KEN","city":"KOBE SHI TARUMI KU","town":"SHIROGAYAMA","perfecture_jp":"兵庫県","jp_add_1":"神戸市垂水区","jp_add_2":"城が山"},"6550041":{"post_code":"6550041","prefecture":"HYOGO KEN","city":"KOBE SHI TARUMI KU","town":"SHINRYODAI","perfecture_jp":"兵庫県","jp_add_1":"神戸市垂水区","jp_add_2":"神陵台"},"6550851":{"post_code":"6550851","prefecture":"HYOGO KEN","city":"KOBE SHI TARUMI KU","town":"SHINWADAI","perfecture_jp":"兵庫県","jp_add_1":"神戸市垂水区","jp_add_2":"神和台"},"6550865":{"post_code":"6550865","prefecture":"HYOGO KEN","city":"KOBE SHI TARUMI KU","town":"SEIGENCHO","perfecture_jp":"兵庫県","jp_add_1":"神戸市垂水区","jp_add_2":"清玄町"},"6550038":{"post_code":"6550038","prefecture":"HYOGO KEN","city":"KOBE SHI TARUMI KU","town":"SEIRYODAI","perfecture_jp":"兵庫県","jp_add_1":"神戸市垂水区","jp_add_2":"星陵台"},"6550016":{"post_code":"6550016","prefecture":"HYOGO KEN","city":"KOBE SHI TARUMI KU","town":"TAKAMARU","perfecture_jp":"兵庫県","jp_add_1":"神戸市垂水区","jp_add_2":"高丸"},"6550007":{"post_code":"6550007","prefecture":"HYOGO KEN","city":"KOBE SHI TARUMI KU","town":"TAMONDAI","perfecture_jp":"兵庫県","jp_add_1":"神戸市垂水区","jp_add_2":"多聞台"},"6550001":{"post_code":"6550001","prefecture":"HYOGO KEN","city":"KOBE SHI TARUMI KU","town":"TAMONCHO","perfecture_jp":"兵庫県","jp_add_1":"神戸市垂水区","jp_add_2":"多聞町"},"6550011":{"post_code":"6550011","prefecture":"HYOGO KEN","city":"KOBE SHI TARUMI KU","town":"CHIDORIGAOKA","perfecture_jp":"兵庫県","jp_add_1":"神戸市垂水区","jp_add_2":"千鳥が丘"},"6550018":{"post_code":"6550018","prefecture":"HYOGO KEN","city":"KOBE SHI TARUMI KU","town":"CHIYOGAOKA","perfecture_jp":"兵庫県","jp_add_1":"神戸市垂水区","jp_add_2":"千代が丘"},"6550853":{"post_code":"6550853","prefecture":"HYOGO KEN","city":"KOBE SHI TARUMI KU","town":"TSUTSUJIGAOKA","perfecture_jp":"兵庫県","jp_add_1":"神戸市垂水区","jp_add_2":"つつじが丘"},"6550029":{"post_code":"6550029","prefecture":"HYOGO KEN","city":"KOBE SHI TARUMI KU","town":"TENNOSHITACHO","perfecture_jp":"兵庫県","jp_add_1":"神戸市垂水区","jp_add_2":"天ノ下町"},"6550034":{"post_code":"6550034","prefecture":"HYOGO KEN","city":"KOBE SHI TARUMI KU","town":"NAKATA","perfecture_jp":"兵庫県","jp_add_1":"神戸市垂水区","jp_add_2":"仲田"},"6550896":{"post_code":"6550896","prefecture":"HYOGO KEN","city":"KOBE SHI TARUMI KU","town":"NAKAMICHI","perfecture_jp":"兵庫県","jp_add_1":"神戸市垂水区","jp_add_2":"中道"},"6550048":{"post_code":"6550048","prefecture":"HYOGO KEN","city":"KOBE SHI TARUMI KU","town":"NISHIMAIKO","perfecture_jp":"兵庫県","jp_add_1":"神戸市垂水区","jp_add_2":"西舞子"},"6550042":{"post_code":"6550042","prefecture":"HYOGO KEN","city":"KOBE SHI TARUMI KU","town":"NISHIWAKI","perfecture_jp":"兵庫県","jp_add_1":"神戸市垂水区","jp_add_2":"西脇"},"6550015":{"post_code":"6550015","prefecture":"HYOGO KEN","city":"KOBE SHI TARUMI KU","town":"NODADORI","perfecture_jp":"兵庫県","jp_add_1":"神戸市垂水区","jp_add_2":"野田通"},"6550021":{"post_code":"6550021","prefecture":"HYOGO KEN","city":"KOBE SHI TARUMI KU","town":"BABADORI","perfecture_jp":"兵庫県","jp_add_1":"神戸市垂水区","jp_add_2":"馬場通"},"6550886":{"post_code":"6550886","prefecture":"HYOGO KEN","city":"KOBE SHI TARUMI KU","town":"HIGASHITARUMI","perfecture_jp":"兵庫県","jp_add_1":"神戸市垂水区","jp_add_2":"東垂水"},"6550881":{"post_code":"6550881","prefecture":"HYOGO KEN","city":"KOBE SHI TARUMI KU","town":"HIGASHITARUMICHO","perfecture_jp":"兵庫県","jp_add_1":"神戸市垂水区","jp_add_2":"東垂水町"},"6550047":{"post_code":"6550047","prefecture":"HYOGO KEN","city":"KOBE SHI TARUMI KU","town":"HIGASHIMAIKOCHO","perfecture_jp":"兵庫県","jp_add_1":"神戸市垂水区","jp_add_2":"東舞子町"},"6550893":{"post_code":"6550893","prefecture":"HYOGO KEN","city":"KOBE SHI TARUMI KU","town":"HYUGA","perfecture_jp":"兵庫県","jp_add_1":"神戸市垂水区","jp_add_2":"日向"},"6550892":{"post_code":"6550892","prefecture":"HYOGO KEN","city":"KOBE SHI TARUMI KU","town":"HIRAISO","perfecture_jp":"兵庫県","jp_add_1":"神戸市垂水区","jp_add_2":"平磯"},"6550013":{"post_code":"6550013","prefecture":"HYOGO KEN","city":"KOBE SHI TARUMI KU","town":"FUKUDA","perfecture_jp":"兵庫県","jp_add_1":"神戸市垂水区","jp_add_2":"福田"},"6550032":{"post_code":"6550032","prefecture":"HYOGO KEN","city":"KOBE SHI TARUMI KU","town":"HOSHIGAOKA","perfecture_jp":"兵庫県","jp_add_1":"神戸市垂水区","jp_add_2":"星が丘"},"6550006":{"post_code":"6550006","prefecture":"HYOGO KEN","city":"KOBE SHI TARUMI KU","town":"HONTAMON","perfecture_jp":"兵庫県","jp_add_1":"神戸市垂水区","jp_add_2":"本多聞"},"6550044":{"post_code":"6550044","prefecture":"HYOGO KEN","city":"KOBE SHI TARUMI KU","town":"MAIKOZAKA","perfecture_jp":"兵庫県","jp_add_1":"神戸市垂水区","jp_add_2":"舞子坂"},"6550046":{"post_code":"6550046","prefecture":"HYOGO KEN","city":"KOBE SHI TARUMI KU","town":"MAIKODAI","perfecture_jp":"兵庫県","jp_add_1":"神戸市垂水区","jp_add_2":"舞子台"},"6550051":{"post_code":"6550051","prefecture":"HYOGO KEN","city":"KOBE SHI TARUMI KU","town":"MAITAMONNISHI","perfecture_jp":"兵庫県","jp_add_1":"神戸市垂水区","jp_add_2":"舞多聞西"},"6550052":{"post_code":"6550052","prefecture":"HYOGO KEN","city":"KOBE SHI TARUMI KU","town":"MAITAMONHIGASHI","perfecture_jp":"兵庫県","jp_add_1":"神戸市垂水区","jp_add_2":"舞多聞東"},"6550004":{"post_code":"6550004","prefecture":"HYOGO KEN","city":"KOBE SHI TARUMI KU","town":"MANABIGAOKA","perfecture_jp":"兵庫県","jp_add_1":"神戸市垂水区","jp_add_2":"学が丘"},"6550025":{"post_code":"6550025","prefecture":"HYOGO KEN","city":"KOBE SHI TARUMI KU","town":"MIZUGAOKA","perfecture_jp":"兵庫県","jp_add_1":"神戸市垂水区","jp_add_2":"瑞ケ丘"},"6550022":{"post_code":"6550022","prefecture":"HYOGO KEN","city":"KOBE SHI TARUMI KU","town":"MIZUHODORI","perfecture_jp":"兵庫県","jp_add_1":"神戸市垂水区","jp_add_2":"瑞穂通"},"6550043":{"post_code":"6550043","prefecture":"HYOGO KEN","city":"KOBE SHI TARUMI KU","town":"MINAMITAMONDAI","perfecture_jp":"兵庫県","jp_add_1":"神戸市垂水区","jp_add_2":"南多聞台"},"6550874":{"post_code":"6550874","prefecture":"HYOGO KEN","city":"KOBE SHI TARUMI KU","town":"MIYAMADAI","perfecture_jp":"兵庫県","jp_add_1":"神戸市垂水区","jp_add_2":"美山台"},"6550028":{"post_code":"6550028","prefecture":"HYOGO KEN","city":"KOBE SHI TARUMI KU","town":"MIYAMOTOCHO","perfecture_jp":"兵庫県","jp_add_1":"神戸市垂水区","jp_add_2":"宮本町"},"6550852":{"post_code":"6550852","prefecture":"HYOGO KEN","city":"KOBE SHI TARUMI KU","town":"MYODANICHO","perfecture_jp":"兵庫県","jp_add_1":"神戸市垂水区","jp_add_2":"名谷町"},"6550854":{"post_code":"6550854","prefecture":"HYOGO KEN","city":"KOBE SHI TARUMI KU","town":"MOMOYAMADAI","perfecture_jp":"兵庫県","jp_add_1":"神戸市垂水区","jp_add_2":"桃山台"},"6550891":{"post_code":"6550891","prefecture":"HYOGO KEN","city":"KOBE SHI TARUMI KU","town":"YAMATE","perfecture_jp":"兵庫県","jp_add_1":"神戸市垂水区","jp_add_2":"山手"}}