{"6570111":{"post_code":"6570111","prefecture":"HYOGO KEN","city":"KOBE SHI HIGASHINADA KU","town":"MOTOYAMACHOMORI(748-1-BANCHI)","perfecture_jp":"兵庫県","jp_add_1":"神戸市東灘区","jp_add_2":"本山町森"},"6570000":{"post_code":"6570000","prefecture":"HYOGO KEN","city":"KOBE SHI NADA KU","town":"IKANIKEISAIGANAIBAAI","perfecture_jp":"兵庫県","jp_add_1":"神戸市灘区","jp_add_2":""},"6570805":{"post_code":"6570805","prefecture":"HYOGO KEN","city":"KOBE SHI NADA KU","town":"AOTANICHO","perfecture_jp":"兵庫県","jp_add_1":"神戸市灘区","jp_add_2":"青谷町"},"6570821":{"post_code":"6570821","prefecture":"HYOGO KEN","city":"KOBE SHI NADA KU","town":"AKASAKADORI","perfecture_jp":"兵庫県","jp_add_1":"神戸市灘区","jp_add_2":"赤坂通"},"6570061":{"post_code":"6570061","prefecture":"HYOGO KEN","city":"KOBE SHI NADA KU","town":"AKAMATSUCHO","perfecture_jp":"兵庫県","jp_add_1":"神戸市灘区","jp_add_2":"赤松町"},"6570823":{"post_code":"6570823","prefecture":"HYOGO KEN","city":"KOBE SHI NADA KU","town":"AMAGIDORI","perfecture_jp":"兵庫県","jp_add_1":"神戸市灘区","jp_add_2":"天城通"},"6570834":{"post_code":"6570834","prefecture":"HYOGO KEN","city":"KOBE SHI NADA KU","town":"IZUMIDORI","perfecture_jp":"兵庫県","jp_add_1":"神戸市灘区","jp_add_2":"泉通"},"6570012":{"post_code":"6570012","prefecture":"HYOGO KEN","city":"KOBE SHI NADA KU","town":"ICHINOSANCHO","perfecture_jp":"兵庫県","jp_add_1":"神戸市灘区","jp_add_2":"一王山町"},"6570803":{"post_code":"6570803","prefecture":"HYOGO KEN","city":"KOBE SHI NADA KU","town":"IWAYA","perfecture_jp":"兵庫県","jp_add_1":"神戸市灘区","jp_add_2":"岩屋"},"6570846":{"post_code":"6570846","prefecture":"HYOGO KEN","city":"KOBE SHI NADA KU","town":"IWAYAKITAMACHI","perfecture_jp":"兵庫県","jp_add_1":"神戸市灘区","jp_add_2":"岩屋北町"},"6570845":{"post_code":"6570845","prefecture":"HYOGO KEN","city":"KOBE SHI NADA KU","town":"IWAYANAKAMACHI","perfecture_jp":"兵庫県","jp_add_1":"神戸市灘区","jp_add_2":"岩屋中町"},"6570856":{"post_code":"6570856","prefecture":"HYOGO KEN","city":"KOBE SHI NADA KU","town":"IWAYAMINAMIMACHI","perfecture_jp":"兵庫県","jp_add_1":"神戸市灘区","jp_add_2":"岩屋南町"},"6570103":{"post_code":"6570103","prefecture":"HYOGO KEN","city":"KOBE SHI NADA KU","town":"UENO(KOYABA.SANNOKYUHARA)","perfecture_jp":"兵庫県","jp_add_1":"神戸市灘区","jp_add_2":"上野"},"6570817":{"post_code":"6570817","prefecture":"HYOGO KEN","city":"KOBE SHI NADA KU","town":"UENODORI","perfecture_jp":"兵庫県","jp_add_1":"神戸市灘区","jp_add_2":"上野通"},"6570042":{"post_code":"6570042","prefecture":"HYOGO KEN","city":"KOBE SHI NADA KU","town":"EBOSHICHO","perfecture_jp":"兵庫県","jp_add_1":"神戸市灘区","jp_add_2":"烏帽子町"},"6570838":{"post_code":"6570838","prefecture":"HYOGO KEN","city":"KOBE SHI NADA KU","town":"OJICHO","perfecture_jp":"兵庫県","jp_add_1":"神戸市灘区","jp_add_2":"王子町"},"6570843":{"post_code":"6570843","prefecture":"HYOGO KEN","city":"KOBE SHI NADA KU","town":"OISHIKITAMACHI","perfecture_jp":"兵庫県","jp_add_1":"神戸市灘区","jp_add_2":"大石北町"},"6570043":{"post_code":"6570043","prefecture":"HYOGO KEN","city":"KOBE SHI NADA KU","town":"OISHIHIGASHIMACHI","perfecture_jp":"兵庫県","jp_add_1":"神戸市灘区","jp_add_2":"大石東町"},"6570852":{"post_code":"6570852","prefecture":"HYOGO KEN","city":"KOBE SHI NADA KU","town":"OISHIMINAMIMACHI","perfecture_jp":"兵庫県","jp_add_1":"神戸市灘区","jp_add_2":"大石南町"},"6570833":{"post_code":"6570833","prefecture":"HYOGO KEN","city":"KOBE SHI NADA KU","town":"OUCHIDORI","perfecture_jp":"兵庫県","jp_add_1":"神戸市灘区","jp_add_2":"大内通"},"6570017":{"post_code":"6570017","prefecture":"HYOGO KEN","city":"KOBE SHI NADA KU","town":"OTSUKIDAI","perfecture_jp":"兵庫県","jp_add_1":"神戸市灘区","jp_add_2":"大月台"},"6570014":{"post_code":"6570014","prefecture":"HYOGO KEN","city":"KOBE SHI NADA KU","town":"ODOGAHIRACHO","perfecture_jp":"兵庫県","jp_add_1":"神戸市灘区","jp_add_2":"大土平町"},"6570055":{"post_code":"6570055","prefecture":"HYOGO KEN","city":"KOBE SHI NADA KU","town":"KAMIKAWARADORI","perfecture_jp":"兵庫県","jp_add_1":"神戸市灘区","jp_add_2":"上河原通"},"6570057":{"post_code":"6570057","prefecture":"HYOGO KEN","city":"KOBE SHI NADA KU","town":"KAMINOKIDORI","perfecture_jp":"兵庫県","jp_add_1":"神戸市灘区","jp_add_2":"神ノ木通"},"6570052":{"post_code":"6570052","prefecture":"HYOGO KEN","city":"KOBE SHI NADA KU","town":"KAMIMAECHO","perfecture_jp":"兵庫県","jp_add_1":"神戸市灘区","jp_add_2":"神前町"},"6570832":{"post_code":"6570832","prefecture":"HYOGO KEN","city":"KOBE SHI NADA KU","town":"KISHICHIDORI","perfecture_jp":"兵庫県","jp_add_1":"神戸市灘区","jp_add_2":"岸地通"},"6570034":{"post_code":"6570034","prefecture":"HYOGO KEN","city":"KOBE SHI NADA KU","town":"KIDACHO","perfecture_jp":"兵庫県","jp_add_1":"神戸市灘区","jp_add_2":"記田町"},"6570024":{"post_code":"6570024","prefecture":"HYOGO KEN","city":"KOBE SHI NADA KU","town":"KUSUGAOKACHO","perfecture_jp":"兵庫県","jp_add_1":"神戸市灘区","jp_add_2":"楠丘町"},"6570816":{"post_code":"6570816","prefecture":"HYOGO KEN","city":"KOBE SHI NADA KU","town":"KUNITAMADORI","perfecture_jp":"兵庫県","jp_add_1":"神戸市灘区","jp_add_2":"国玉通"},"6570826":{"post_code":"6570826","prefecture":"HYOGO KEN","city":"KOBE SHI NADA KU","town":"KURAISHIDORI","perfecture_jp":"兵庫県","jp_add_1":"神戸市灘区","jp_add_2":"倉石通"},"6570025":{"post_code":"6570025","prefecture":"HYOGO KEN","city":"KOBE SHI NADA KU","town":"KOTOKUCHO","perfecture_jp":"兵庫県","jp_add_1":"神戸市灘区","jp_add_2":"高徳町"},"6570801":{"post_code":"6570801","prefecture":"HYOGO KEN","city":"KOBE SHI NADA KU","town":"GOMO","perfecture_jp":"兵庫県","jp_add_1":"神戸市灘区","jp_add_2":"五毛"},"6570814":{"post_code":"6570814","prefecture":"HYOGO KEN","city":"KOBE SHI NADA KU","town":"GOMODORI","perfecture_jp":"兵庫県","jp_add_1":"神戸市灘区","jp_add_2":"五毛通"},"6570021":{"post_code":"6570021","prefecture":"HYOGO KEN","city":"KOBE SHI NADA KU","town":"SAKURAGAOKACHO","perfecture_jp":"兵庫県","jp_add_1":"神戸市灘区","jp_add_2":"桜ケ丘町"},"6570036":{"post_code":"6570036","prefecture":"HYOGO KEN","city":"KOBE SHI NADA KU","town":"SAKURAGUCHICHO","perfecture_jp":"兵庫県","jp_add_1":"神戸市灘区","jp_add_2":"桜口町"},"6570044":{"post_code":"6570044","prefecture":"HYOGO KEN","city":"KOBE SHI NADA KU","town":"SHIKANOSHITADORI","perfecture_jp":"兵庫県","jp_add_1":"神戸市灘区","jp_add_2":"鹿ノ下通"},"6570015":{"post_code":"6570015","prefecture":"HYOGO KEN","city":"KOBE SHI NADA KU","town":"SHINOHARAOBANOYAMACHO","perfecture_jp":"兵庫県","jp_add_1":"神戸市灘区","jp_add_2":"篠原伯母野山町"},"6570068":{"post_code":"6570068","prefecture":"HYOGO KEN","city":"KOBE SHI NADA KU","town":"SHINOHARAKITAMACHI","perfecture_jp":"兵庫県","jp_add_1":"神戸市灘区","jp_add_2":"篠原北町"},"6570016":{"post_code":"6570016","prefecture":"HYOGO KEN","city":"KOBE SHI NADA KU","town":"SHINOHARADAI","perfecture_jp":"兵庫県","jp_add_1":"神戸市灘区","jp_add_2":"篠原台"},"6570066":{"post_code":"6570066","prefecture":"HYOGO KEN","city":"KOBE SHI NADA KU","town":"SHINOHARANAKAMACHI","perfecture_jp":"兵庫県","jp_add_1":"神戸市灘区","jp_add_2":"篠原中町"},"6570067":{"post_code":"6570067","prefecture":"HYOGO KEN","city":"KOBE SHI NADA KU","town":"SHINOHARAHOMMACHI","perfecture_jp":"兵庫県","jp_add_1":"神戸市灘区","jp_add_2":"篠原本町"},"6570059":{"post_code":"6570059","prefecture":"HYOGO KEN","city":"KOBE SHI NADA KU","town":"SHINOHARAMINAMIMACHI","perfecture_jp":"兵庫県","jp_add_1":"神戸市灘区","jp_add_2":"篠原南町"},"6570002":{"post_code":"6570002","prefecture":"HYOGO KEN","city":"KOBE SHI NADA KU","town":"SHINOHARA(SONOTA)","perfecture_jp":"兵庫県","jp_add_1":"神戸市灘区","jp_add_2":"篠原"},"6570045":{"post_code":"6570045","prefecture":"HYOGO KEN","city":"KOBE SHI NADA KU","town":"SHIMOGAWARADORI","perfecture_jp":"兵庫県","jp_add_1":"神戸市灘区","jp_add_2":"下河原通"},"6570058":{"post_code":"6570058","prefecture":"HYOGO KEN","city":"KOBE SHI NADA KU","town":"SHOGUNDORI","perfecture_jp":"兵庫県","jp_add_1":"神戸市灘区","jp_add_2":"将軍通"},"6570836":{"post_code":"6570836","prefecture":"HYOGO KEN","city":"KOBE SHI NADA KU","town":"SHIRONOCHIDORI","perfecture_jp":"兵庫県","jp_add_1":"神戸市灘区","jp_add_2":"城内通"},"6570804":{"post_code":"6570804","prefecture":"HYOGO KEN","city":"KOBE SHI NADA KU","town":"SHIRONOSHITADORI","perfecture_jp":"兵庫県","jp_add_1":"神戸市灘区","jp_add_2":"城の下通"},"6570864":{"post_code":"6570864","prefecture":"HYOGO KEN","city":"KOBE SHI NADA KU","town":"SHINZAIKEMINAMIMACHI","perfecture_jp":"兵庫県","jp_add_1":"神戸市灘区","jp_add_2":"新在家南町"},"6570861":{"post_code":"6570861","prefecture":"HYOGO KEN","city":"KOBE SHI NADA KU","town":"SHINZAIKEKITAMACHI","perfecture_jp":"兵庫県","jp_add_1":"神戸市灘区","jp_add_2":"新在家北町"},"6570018":{"post_code":"6570018","prefecture":"HYOGO KEN","city":"KOBE SHI NADA KU","town":"SUISHASHINDEN","perfecture_jp":"兵庫県","jp_add_1":"神戸市灘区","jp_add_2":"水車新田"},"6570831":{"post_code":"6570831","prefecture":"HYOGO KEN","city":"KOBE SHI NADA KU","town":"SUIDOSUJI","perfecture_jp":"兵庫県","jp_add_1":"神戸市灘区","jp_add_2":"水道筋"},"6570056":{"post_code":"6570056","prefecture":"HYOGO KEN","city":"KOBE SHI NADA KU","town":"SENTANDORI","perfecture_jp":"兵庫県","jp_add_1":"神戸市灘区","jp_add_2":"千旦通"},"6570063":{"post_code":"6570063","prefecture":"HYOGO KEN","city":"KOBE SHI NADA KU","town":"SOWACHO","perfecture_jp":"兵庫県","jp_add_1":"神戸市灘区","jp_add_2":"曾和町"},"6570813":{"post_code":"6570813","prefecture":"HYOGO KEN","city":"KOBE SHI NADA KU","town":"TAKAODORI","perfecture_jp":"兵庫県","jp_add_1":"神戸市灘区","jp_add_2":"高尾通"},"6570001":{"post_code":"6570001","prefecture":"HYOGO KEN","city":"KOBE SHI NADA KU","town":"TAKAHA","perfecture_jp":"兵庫県","jp_add_1":"神戸市灘区","jp_add_2":"高羽"},"6570023":{"post_code":"6570023","prefecture":"HYOGO KEN","city":"KOBE SHI NADA KU","town":"TAKAHACHO","perfecture_jp":"兵庫県","jp_add_1":"神戸市灘区","jp_add_2":"高羽町"},"6570022":{"post_code":"6570022","prefecture":"HYOGO KEN","city":"KOBE SHI NADA KU","town":"TSUCHIYAMACHO","perfecture_jp":"兵庫県","jp_add_1":"神戸市灘区","jp_add_2":"土山町"},"6570011":{"post_code":"6570011","prefecture":"HYOGO KEN","city":"KOBE SHI NADA KU","town":"TSURUKABUTO","perfecture_jp":"兵庫県","jp_add_1":"神戸市灘区","jp_add_2":"鶴甲"},"6570062":{"post_code":"6570062","prefecture":"HYOGO KEN","city":"KOBE SHI NADA KU","town":"TERAGUCHICHO","perfecture_jp":"兵庫県","jp_add_1":"神戸市灘区","jp_add_2":"寺口町"},"6570033":{"post_code":"6570033","prefecture":"HYOGO KEN","city":"KOBE SHI NADA KU","town":"TOKUICHO","perfecture_jp":"兵庫県","jp_add_1":"神戸市灘区","jp_add_2":"徳井町"},"6570035":{"post_code":"6570035","prefecture":"HYOGO KEN","city":"KOBE SHI NADA KU","town":"TOMODACHO","perfecture_jp":"兵庫県","jp_add_1":"神戸市灘区","jp_add_2":"友田町"},"6570032":{"post_code":"6570032","prefecture":"HYOGO KEN","city":"KOBE SHI NADA KU","town":"NAKAGOCHO","perfecture_jp":"兵庫県","jp_add_1":"神戸市灘区","jp_add_2":"中郷町"},"6570825":{"post_code":"6570825","prefecture":"HYOGO KEN","city":"KOBE SHI NADA KU","town":"NAKAHARADORI","perfecture_jp":"兵庫県","jp_add_1":"神戸市灘区","jp_add_2":"中原通"},"6570027":{"post_code":"6570027","prefecture":"HYOGO KEN","city":"KOBE SHI NADA KU","town":"NAGATECHO","perfecture_jp":"兵庫県","jp_add_1":"神戸市灘区","jp_add_2":"永手町"},"6570811":{"post_code":"6570811","prefecture":"HYOGO KEN","city":"KOBE SHI NADA KU","town":"NAGAMINEDAI","perfecture_jp":"兵庫県","jp_add_1":"神戸市灘区","jp_add_2":"長峰台"},"6570835":{"post_code":"6570835","prefecture":"HYOGO KEN","city":"KOBE SHI NADA KU","town":"NADAKITADORI","perfecture_jp":"兵庫県","jp_add_1":"神戸市灘区","jp_add_2":"灘北通"},"6570853":{"post_code":"6570853","prefecture":"HYOGO KEN","city":"KOBE SHI NADA KU","town":"NADAHAMACHO","perfecture_jp":"兵庫県","jp_add_1":"神戸市灘区","jp_add_2":"灘浜町"},"6570863":{"post_code":"6570863","prefecture":"HYOGO KEN","city":"KOBE SHI NADA KU","town":"NADAHAMAHIGASHICHO","perfecture_jp":"兵庫県","jp_add_1":"神戸市灘区","jp_add_2":"灘浜東町"},"6570841":{"post_code":"6570841","prefecture":"HYOGO KEN","city":"KOBE SHI NADA KU","town":"NADAMINAMIDORI","perfecture_jp":"兵庫県","jp_add_1":"神戸市灘区","jp_add_2":"灘南通"},"6570102":{"post_code":"6570102","prefecture":"HYOGO KEN","city":"KOBE SHI NADA KU","town":"HATAHARA(NOTAYAMA)","perfecture_jp":"兵庫県","jp_add_1":"神戸市灘区","jp_add_2":"畑原"},"6570822":{"post_code":"6570822","prefecture":"HYOGO KEN","city":"KOBE SHI NADA KU","town":"HATAHARADORI","perfecture_jp":"兵庫県","jp_add_1":"神戸市灘区","jp_add_2":"畑原通"},"6570862":{"post_code":"6570862","prefecture":"HYOGO KEN","city":"KOBE SHI NADA KU","town":"HAMADACHO","perfecture_jp":"兵庫県","jp_add_1":"神戸市灘区","jp_add_2":"浜田町"},"6570802":{"post_code":"6570802","prefecture":"HYOGO KEN","city":"KOBE SHI NADA KU","town":"HARADA","perfecture_jp":"兵庫県","jp_add_1":"神戸市灘区","jp_add_2":"原田"},"6570837":{"post_code":"6570837","prefecture":"HYOGO KEN","city":"KOBE SHI NADA KU","town":"HARADADORI","perfecture_jp":"兵庫県","jp_add_1":"神戸市灘区","jp_add_2":"原田通"},"6570054":{"post_code":"6570054","prefecture":"HYOGO KEN","city":"KOBE SHI NADA KU","town":"HIEHARACHO","perfecture_jp":"兵庫県","jp_add_1":"神戸市灘区","jp_add_2":"稗原町"},"6570029":{"post_code":"6570029","prefecture":"HYOGO KEN","city":"KOBE SHI NADA KU","town":"HIOCHO","perfecture_jp":"兵庫県","jp_add_1":"神戸市灘区","jp_add_2":"日尾町"},"6570041":{"post_code":"6570041","prefecture":"HYOGO KEN","city":"KOBE SHI NADA KU","town":"BIWACHO","perfecture_jp":"兵庫県","jp_add_1":"神戸市灘区","jp_add_2":"琵琶町"},"6570037":{"post_code":"6570037","prefecture":"HYOGO KEN","city":"KOBE SHI NADA KU","town":"BINGOCHO","perfecture_jp":"兵庫県","jp_add_1":"神戸市灘区","jp_add_2":"備後町"},"6570038":{"post_code":"6570038","prefecture":"HYOGO KEN","city":"KOBE SHI NADA KU","town":"FUKADACHO","perfecture_jp":"兵庫県","jp_add_1":"神戸市灘区","jp_add_2":"深田町"},"6570824":{"post_code":"6570824","prefecture":"HYOGO KEN","city":"KOBE SHI NADA KU","town":"FUKUZUMIDORI","perfecture_jp":"兵庫県","jp_add_1":"神戸市灘区","jp_add_2":"福住通"},"6570842":{"post_code":"6570842","prefecture":"HYOGO KEN","city":"KOBE SHI NADA KU","town":"FUNADERADORI","perfecture_jp":"兵庫県","jp_add_1":"神戸市灘区","jp_add_2":"船寺通"},"6570855":{"post_code":"6570855","prefecture":"HYOGO KEN","city":"KOBE SHI NADA KU","town":"MAYAKAIGANDORI","perfecture_jp":"兵庫県","jp_add_1":"神戸市灘区","jp_add_2":"摩耶海岸通"},"6570104":{"post_code":"6570104","prefecture":"HYOGO KEN","city":"KOBE SHI NADA KU","town":"MAYASAN","perfecture_jp":"兵庫県","jp_add_1":"神戸市灘区","jp_add_2":"摩耶山"},"6570105":{"post_code":"6570105","prefecture":"HYOGO KEN","city":"KOBE SHI NADA KU","town":"MAYASANCHO","perfecture_jp":"兵庫県","jp_add_1":"神戸市灘区","jp_add_2":"摩耶山町"},"6570854":{"post_code":"6570854","prefecture":"HYOGO KEN","city":"KOBE SHI NADA KU","town":"MAYAFUTO","perfecture_jp":"兵庫県","jp_add_1":"神戸市灘区","jp_add_2":"摩耶埠頭"},"6570851":{"post_code":"6570851","prefecture":"HYOGO KEN","city":"KOBE SHI NADA KU","town":"MIDOROCHO","perfecture_jp":"兵庫県","jp_add_1":"神戸市灘区","jp_add_2":"味泥町"},"6570812":{"post_code":"6570812","prefecture":"HYOGO KEN","city":"KOBE SHI NADA KU","town":"MINOKADORI","perfecture_jp":"兵庫県","jp_add_1":"神戸市灘区","jp_add_2":"箕岡通"},"6570844":{"post_code":"6570844","prefecture":"HYOGO KEN","city":"KOBE SHI NADA KU","town":"MIYAKODORI","perfecture_jp":"兵庫県","jp_add_1":"神戸市灘区","jp_add_2":"都通"},"6570065":{"post_code":"6570065","prefecture":"HYOGO KEN","city":"KOBE SHI NADA KU","town":"MIYAYAMACHO","perfecture_jp":"兵庫県","jp_add_1":"神戸市灘区","jp_add_2":"宮山町"},"6570028":{"post_code":"6570028","prefecture":"HYOGO KEN","city":"KOBE SHI NADA KU","town":"MORIGOCHO","perfecture_jp":"兵庫県","jp_add_1":"神戸市灘区","jp_add_2":"森後町"},"6570815":{"post_code":"6570815","prefecture":"HYOGO KEN","city":"KOBE SHI NADA KU","town":"YAKUSHIDORI","perfecture_jp":"兵庫県","jp_add_1":"神戸市灘区","jp_add_2":"薬師通"},"6570051":{"post_code":"6570051","prefecture":"HYOGO KEN","city":"KOBE SHI NADA KU","town":"YAHATACHO","perfecture_jp":"兵庫県","jp_add_1":"神戸市灘区","jp_add_2":"八幡町"},"6570064":{"post_code":"6570064","prefecture":"HYOGO KEN","city":"KOBE SHI NADA KU","town":"YAMADACHO","perfecture_jp":"兵庫県","jp_add_1":"神戸市灘区","jp_add_2":"山田町"},"6570031":{"post_code":"6570031","prefecture":"HYOGO KEN","city":"KOBE SHI NADA KU","town":"YAMATOCHO","perfecture_jp":"兵庫県","jp_add_1":"神戸市灘区","jp_add_2":"大和町"},"6570026":{"post_code":"6570026","prefecture":"HYOGO KEN","city":"KOBE SHI NADA KU","town":"YUMINOKICHO","perfecture_jp":"兵庫県","jp_add_1":"神戸市灘区","jp_add_2":"弓木町"},"6570101":{"post_code":"6570101","prefecture":"HYOGO KEN","city":"KOBE SHI NADA KU","town":"ROKKOSANCHO","perfecture_jp":"兵庫県","jp_add_1":"神戸市灘区","jp_add_2":"六甲山町"},"6570013":{"post_code":"6570013","prefecture":"HYOGO KEN","city":"KOBE SHI NADA KU","town":"ROKKODAICHO","perfecture_jp":"兵庫県","jp_add_1":"神戸市灘区","jp_add_2":"六甲台町"},"6570053":{"post_code":"6570053","prefecture":"HYOGO KEN","city":"KOBE SHI NADA KU","town":"ROKKOCHO","perfecture_jp":"兵庫県","jp_add_1":"神戸市灘区","jp_add_2":"六甲町"}}