{"6580000":{"post_code":"6580000","prefecture":"HYOGO KEN","city":"KOBE SHI HIGASHINADA KU","town":"IKANIKEISAIGANAIBAAI","perfecture_jp":"兵庫県","jp_add_1":"神戸市東灘区","jp_add_2":""},"6580083":{"post_code":"6580083","prefecture":"HYOGO KEN","city":"KOBE SHI HIGASHINADA KU","town":"UOZAKINAKAMACHI","perfecture_jp":"兵庫県","jp_add_1":"神戸市東灘区","jp_add_2":"魚崎中町"},"6580026":{"post_code":"6580026","prefecture":"HYOGO KEN","city":"KOBE SHI HIGASHINADA KU","town":"UOZAKINISHIMACHI","perfecture_jp":"兵庫県","jp_add_1":"神戸市東灘区","jp_add_2":"魚崎西町"},"6580025":{"post_code":"6580025","prefecture":"HYOGO KEN","city":"KOBE SHI HIGASHINADA KU","town":"UOZAKIMINAMIMACHI","perfecture_jp":"兵庫県","jp_add_1":"神戸市東灘区","jp_add_2":"魚崎南町"},"6580082":{"post_code":"6580082","prefecture":"HYOGO KEN","city":"KOBE SHI HIGASHINADA KU","town":"UOZAKIKITAMACHI","perfecture_jp":"兵庫県","jp_add_1":"神戸市東灘区","jp_add_2":"魚崎北町"},"6580024":{"post_code":"6580024","prefecture":"HYOGO KEN","city":"KOBE SHI HIGASHINADA KU","town":"UOZAKIHAMAMACHI","perfecture_jp":"兵庫県","jp_add_1":"神戸市東灘区","jp_add_2":"魚崎浜町"},"6580066":{"post_code":"6580066","prefecture":"HYOGO KEN","city":"KOBE SHI HIGASHINADA KU","town":"UZUMORIDAI","perfecture_jp":"兵庫県","jp_add_1":"神戸市東灘区","jp_add_2":"渦森台"},"6580027":{"post_code":"6580027","prefecture":"HYOGO KEN","city":"KOBE SHI HIGASHINADA KU","town":"OGI","perfecture_jp":"兵庫県","jp_add_1":"神戸市東灘区","jp_add_2":"青木"},"6580072":{"post_code":"6580072","prefecture":"HYOGO KEN","city":"KOBE SHI HIGASHINADA KU","town":"OKAMOTO","perfecture_jp":"兵庫県","jp_add_1":"神戸市東灘区","jp_add_2":"岡本"},"6580064":{"post_code":"6580064","prefecture":"HYOGO KEN","city":"KOBE SHI HIGASHINADA KU","town":"KAMOKOGAHARA","perfecture_jp":"兵庫県","jp_add_1":"神戸市東灘区","jp_add_2":"鴨子ケ原"},"6580014":{"post_code":"6580014","prefecture":"HYOGO KEN","city":"KOBE SHI HIGASHINADA KU","town":"KITAOGI","perfecture_jp":"兵庫県","jp_add_1":"神戸市東灘区","jp_add_2":"北青木"},"6580002":{"post_code":"6580002","prefecture":"HYOGO KEN","city":"KOBE SHI HIGASHINADA KU","town":"KONANDAI","perfecture_jp":"兵庫県","jp_add_1":"神戸市東灘区","jp_add_2":"甲南台"},"6580084":{"post_code":"6580084","prefecture":"HYOGO KEN","city":"KOBE SHI HIGASHINADA KU","town":"KONANCHO","perfecture_jp":"兵庫県","jp_add_1":"神戸市東灘区","jp_add_2":"甲南町"},"6580032":{"post_code":"6580032","prefecture":"HYOGO KEN","city":"KOBE SHI HIGASHINADA KU","town":"KOYOCHONAKA","perfecture_jp":"兵庫県","jp_add_1":"神戸市東灘区","jp_add_2":"向洋町中"},"6580031":{"post_code":"6580031","prefecture":"HYOGO KEN","city":"KOBE SHI HIGASHINADA KU","town":"KOYOCHOHIGASHI","perfecture_jp":"兵庫県","jp_add_1":"神戸市東灘区","jp_add_2":"向洋町東"},"6580033":{"post_code":"6580033","prefecture":"HYOGO KEN","city":"KOBE SHI HIGASHINADA KU","town":"KOYOCHONISHI","perfecture_jp":"兵庫県","jp_add_1":"神戸市東灘区","jp_add_2":"向洋町西"},"6580062":{"post_code":"6580062","prefecture":"HYOGO KEN","city":"KOBE SHI HIGASHINADA KU","town":"SUMIYOSHIDAI","perfecture_jp":"兵庫県","jp_add_1":"神戸市東灘区","jp_add_2":"住吉台"},"6580042":{"post_code":"6580042","prefecture":"HYOGO KEN","city":"KOBE SHI HIGASHINADA KU","town":"SUMIYOSHIHAMAMACHI","perfecture_jp":"兵庫県","jp_add_1":"神戸市東灘区","jp_add_2":"住吉浜町"},"6580051":{"post_code":"6580051","prefecture":"HYOGO KEN","city":"KOBE SHI HIGASHINADA KU","town":"SUMIYOSHIHOMMACHI","perfecture_jp":"兵庫県","jp_add_1":"神戸市東灘区","jp_add_2":"住吉本町"},"6580052":{"post_code":"6580052","prefecture":"HYOGO KEN","city":"KOBE SHI HIGASHINADA KU","town":"SUMIYOSHIHIGASHIMACHI","perfecture_jp":"兵庫県","jp_add_1":"神戸市東灘区","jp_add_2":"住吉東町"},"6580041":{"post_code":"6580041","prefecture":"HYOGO KEN","city":"KOBE SHI HIGASHINADA KU","town":"SUMIYOSHIMINAMIMACHI","perfecture_jp":"兵庫県","jp_add_1":"神戸市東灘区","jp_add_2":"住吉南町"},"6580053":{"post_code":"6580053","prefecture":"HYOGO KEN","city":"KOBE SHI HIGASHINADA KU","town":"SUMIYOSHIMIYAMACHI","perfecture_jp":"兵庫県","jp_add_1":"神戸市東灘区","jp_add_2":"住吉宮町"},"6580063":{"post_code":"6580063","prefecture":"HYOGO KEN","city":"KOBE SHI HIGASHINADA KU","town":"SUMIYOSHIYAMATE","perfecture_jp":"兵庫県","jp_add_1":"神戸市東灘区","jp_add_2":"住吉山手"},"6580081":{"post_code":"6580081","prefecture":"HYOGO KEN","city":"KOBE SHI HIGASHINADA KU","town":"TANAKACHO","perfecture_jp":"兵庫県","jp_add_1":"神戸市東灘区","jp_add_2":"田中町"},"6580073":{"post_code":"6580073","prefecture":"HYOGO KEN","city":"KOBE SHI HIGASHINADA KU","town":"NISHIOKAMOTO","perfecture_jp":"兵庫県","jp_add_1":"神戸市東灘区","jp_add_2":"西岡本"},"6580023":{"post_code":"6580023","prefecture":"HYOGO KEN","city":"KOBE SHI HIGASHINADA KU","town":"FUKAEHAMAMACHI","perfecture_jp":"兵庫県","jp_add_1":"神戸市東灘区","jp_add_2":"深江浜町"},"6580021":{"post_code":"6580021","prefecture":"HYOGO KEN","city":"KOBE SHI HIGASHINADA KU","town":"FUKAEHOMMACHI","perfecture_jp":"兵庫県","jp_add_1":"神戸市東灘区","jp_add_2":"深江本町"},"6580022":{"post_code":"6580022","prefecture":"HYOGO KEN","city":"KOBE SHI HIGASHINADA KU","town":"FUKAEMINAMIMACHI","perfecture_jp":"兵庫県","jp_add_1":"神戸市東灘区","jp_add_2":"深江南町"},"6580013":{"post_code":"6580013","prefecture":"HYOGO KEN","city":"KOBE SHI HIGASHINADA KU","town":"FUKAEKITAMACHI","perfecture_jp":"兵庫県","jp_add_1":"神戸市東灘区","jp_add_2":"深江北町"},"6580012":{"post_code":"6580012","prefecture":"HYOGO KEN","city":"KOBE SHI HIGASHINADA KU","town":"HONJOCHO","perfecture_jp":"兵庫県","jp_add_1":"神戸市東灘区","jp_add_2":"本庄町"},"6580047":{"post_code":"6580047","prefecture":"HYOGO KEN","city":"KOBE SHI HIGASHINADA KU","town":"MIKAGE","perfecture_jp":"兵庫県","jp_add_1":"神戸市東灘区","jp_add_2":"御影"},"6580045":{"post_code":"6580045","prefecture":"HYOGO KEN","city":"KOBE SHI HIGASHINADA KU","town":"MIKAGEISHIMACHI","perfecture_jp":"兵庫県","jp_add_1":"神戸市東灘区","jp_add_2":"御影石町"},"6580048":{"post_code":"6580048","prefecture":"HYOGO KEN","city":"KOBE SHI HIGASHINADA KU","town":"MIKAGEGUNGE","perfecture_jp":"兵庫県","jp_add_1":"神戸市東灘区","jp_add_2":"御影郡家"},"6580044":{"post_code":"6580044","prefecture":"HYOGO KEN","city":"KOBE SHI HIGASHINADA KU","town":"MIKAGETSUKAMACHI","perfecture_jp":"兵庫県","jp_add_1":"神戸市東灘区","jp_add_2":"御影塚町"},"6580054":{"post_code":"6580054","prefecture":"HYOGO KEN","city":"KOBE SHI HIGASHINADA KU","town":"MIKAGENAKAMACHI","perfecture_jp":"兵庫県","jp_add_1":"神戸市東灘区","jp_add_2":"御影中町"},"6580043":{"post_code":"6580043","prefecture":"HYOGO KEN","city":"KOBE SHI HIGASHINADA KU","town":"MIKAGEHAMAMACHI","perfecture_jp":"兵庫県","jp_add_1":"神戸市東灘区","jp_add_2":"御影浜町"},"6580046":{"post_code":"6580046","prefecture":"HYOGO KEN","city":"KOBE SHI HIGASHINADA KU","town":"MIKAGEHOMMACHI","perfecture_jp":"兵庫県","jp_add_1":"神戸市東灘区","jp_add_2":"御影本町"},"6580065":{"post_code":"6580065","prefecture":"HYOGO KEN","city":"KOBE SHI HIGASHINADA KU","town":"MIKAGEYAMATE","perfecture_jp":"兵庫県","jp_add_1":"神戸市東灘区","jp_add_2":"御影山手"},"6580003":{"post_code":"6580003","prefecture":"HYOGO KEN","city":"KOBE SHI HIGASHINADA KU","town":"MOTOYAMAKITAMACHI","perfecture_jp":"兵庫県","jp_add_1":"神戸市東灘区","jp_add_2":"本山北町"},"6580071":{"post_code":"6580071","prefecture":"HYOGO KEN","city":"KOBE SHI HIGASHINADA KU","town":"MOTOYAMACHO OKAMOTO","perfecture_jp":"兵庫県","jp_add_1":"神戸市東灘区","jp_add_2":"本山町岡本"},"6580005":{"post_code":"6580005","prefecture":"HYOGO KEN","city":"KOBE SHI HIGASHINADA KU","town":"MOTOYAMACHO KITAHATA","perfecture_jp":"兵庫県","jp_add_1":"神戸市東灘区","jp_add_2":"本山町北畑"},"6580061":{"post_code":"6580061","prefecture":"HYOGO KEN","city":"KOBE SHI HIGASHINADA KU","town":"MOTOYAMACHO TANAKA","perfecture_jp":"兵庫県","jp_add_1":"神戸市東灘区","jp_add_2":"本山町田中"},"6580004":{"post_code":"6580004","prefecture":"HYOGO KEN","city":"KOBE SHI HIGASHINADA KU","town":"MOTOYAMACHO TANABE","perfecture_jp":"兵庫県","jp_add_1":"神戸市東灘区","jp_add_2":"本山町田辺"},"6580016":{"post_code":"6580016","prefecture":"HYOGO KEN","city":"KOBE SHI HIGASHINADA KU","town":"MOTOYAMANAKAMACHI","perfecture_jp":"兵庫県","jp_add_1":"神戸市東灘区","jp_add_2":"本山中町"},"6580015":{"post_code":"6580015","prefecture":"HYOGO KEN","city":"KOBE SHI HIGASHINADA KU","town":"MOTOYAMAMINAMIMACHI","perfecture_jp":"兵庫県","jp_add_1":"神戸市東灘区","jp_add_2":"本山南町"},"6580001":{"post_code":"6580001","prefecture":"HYOGO KEN","city":"KOBE SHI HIGASHINADA KU","town":"MORIKITAMACHI","perfecture_jp":"兵庫県","jp_add_1":"神戸市東灘区","jp_add_2":"森北町"},"6580011":{"post_code":"6580011","prefecture":"HYOGO KEN","city":"KOBE SHI HIGASHINADA KU","town":"MORIMINAMIMACHI","perfecture_jp":"兵庫県","jp_add_1":"神戸市東灘区","jp_add_2":"森南町"}}