{"6600000":{"post_code":"6600000","prefecture":"HYOGO KEN","city":"AMAGASAKI SHI","town":"IKANIKEISAIGANAIBAAI","perfecture_jp":"兵庫県","jp_add_1":"尼崎市","jp_add_2":""},"6600064":{"post_code":"6600064","prefecture":"HYOGO KEN","city":"AMAGASAKI SHI","town":"INABASO","perfecture_jp":"兵庫県","jp_add_1":"尼崎市","jp_add_2":"稲葉荘"},"6600055":{"post_code":"6600055","prefecture":"HYOGO KEN","city":"AMAGASAKI SHI","town":"INABAMOTOMACHI","perfecture_jp":"兵庫県","jp_add_1":"尼崎市","jp_add_2":"稲葉元町"},"6600812":{"post_code":"6600812","prefecture":"HYOGO KEN","city":"AMAGASAKI SHI","town":"IMAFUKU","perfecture_jp":"兵庫県","jp_add_1":"尼崎市","jp_add_2":"今福"},"6600096":{"post_code":"6600096","prefecture":"HYOGO KEN","city":"AMAGASAKI SHI","town":"OGIMACHI","perfecture_jp":"兵庫県","jp_add_1":"尼崎市","jp_add_2":"扇町"},"6600076":{"post_code":"6600076","prefecture":"HYOGO KEN","city":"AMAGASAKI SHI","town":"OSHIMA","perfecture_jp":"兵庫県","jp_add_1":"尼崎市","jp_add_2":"大島"},"6600072":{"post_code":"6600072","prefecture":"HYOGO KEN","city":"AMAGASAKI SHI","town":"OSHO KAWATACHO","perfecture_jp":"兵庫県","jp_add_1":"尼崎市","jp_add_2":"大庄川田町"},"6600075":{"post_code":"6600075","prefecture":"HYOGO KEN","city":"AMAGASAKI SHI","town":"OSHO NAKADORI","perfecture_jp":"兵庫県","jp_add_1":"尼崎市","jp_add_2":"大庄中通"},"6600077":{"post_code":"6600077","prefecture":"HYOGO KEN","city":"AMAGASAKI SHI","town":"OSHO NISHIMACHI","perfecture_jp":"兵庫県","jp_add_1":"尼崎市","jp_add_2":"大庄西町"},"6600063":{"post_code":"6600063","prefecture":"HYOGO KEN","city":"AMAGASAKI SHI","town":"OSHO KITA","perfecture_jp":"兵庫県","jp_add_1":"尼崎市","jp_add_2":"大庄北"},"6600842":{"post_code":"6600842","prefecture":"HYOGO KEN","city":"AMAGASAKI SHI","town":"OTAKASUCHO","perfecture_jp":"兵庫県","jp_add_1":"尼崎市","jp_add_2":"大高洲町"},"6600095":{"post_code":"6600095","prefecture":"HYOGO KEN","city":"AMAGASAKI SHI","town":"OHAMACHO","perfecture_jp":"兵庫県","jp_add_1":"尼崎市","jp_add_2":"大浜町"},"6600862":{"post_code":"6600862","prefecture":"HYOGO KEN","city":"AMAGASAKI SHI","town":"KAIMEICHO","perfecture_jp":"兵庫県","jp_add_1":"尼崎市","jp_add_2":"開明町"},"6600821":{"post_code":"6600821","prefecture":"HYOGO KEN","city":"AMAGASAKI SHI","town":"KAJIGASHIMA","perfecture_jp":"兵庫県","jp_add_1":"尼崎市","jp_add_2":"梶ケ島"},"6600884":{"post_code":"6600884","prefecture":"HYOGO KEN","city":"AMAGASAKI SHI","town":"KANDA NAKADORI","perfecture_jp":"兵庫県","jp_add_1":"尼崎市","jp_add_2":"神田中通"},"6600885":{"post_code":"6600885","prefecture":"HYOGO KEN","city":"AMAGASAKI SHI","town":"KANDA MINAMIDORI","perfecture_jp":"兵庫県","jp_add_1":"尼崎市","jp_add_2":"神田南通"},"6600883":{"post_code":"6600883","prefecture":"HYOGO KEN","city":"AMAGASAKI SHI","town":"KANDA KITADORI","perfecture_jp":"兵庫県","jp_add_1":"尼崎市","jp_add_2":"神田北通"},"6600826":{"post_code":"6600826","prefecture":"HYOGO KEN","city":"AMAGASAKI SHI","town":"KITAJONAI","perfecture_jp":"兵庫県","jp_add_1":"尼崎市","jp_add_2":"北城内"},"6600878":{"post_code":"6600878","prefecture":"HYOGO KEN","city":"AMAGASAKI SHI","town":"KITATAKEYACHO","perfecture_jp":"兵庫県","jp_add_1":"尼崎市","jp_add_2":"北竹谷町"},"6600804":{"post_code":"6600804","prefecture":"HYOGO KEN","city":"AMAGASAKI SHI","town":"KITADAIMOTSUCHO","perfecture_jp":"兵庫県","jp_add_1":"尼崎市","jp_add_2":"北大物町"},"6600834":{"post_code":"6600834","prefecture":"HYOGO KEN","city":"AMAGASAKI SHI","town":"KITAHATSUSHIMACHO","perfecture_jp":"兵庫県","jp_add_1":"尼崎市","jp_add_2":"北初島町"},"6600806":{"post_code":"6600806","prefecture":"HYOGO KEN","city":"AMAGASAKI SHI","town":"KINRAKUJICHO","perfecture_jp":"兵庫県","jp_add_1":"尼崎市","jp_add_2":"金楽寺町"},"6600813":{"post_code":"6600813","prefecture":"HYOGO KEN","city":"AMAGASAKI SHI","town":"KUISE TERAJIMA","perfecture_jp":"兵庫県","jp_add_1":"尼崎市","jp_add_2":"杭瀬寺島"},"6600814":{"post_code":"6600814","prefecture":"HYOGO KEN","city":"AMAGASAKI SHI","town":"KUISE HOMMACHI","perfecture_jp":"兵庫県","jp_add_1":"尼崎市","jp_add_2":"杭瀬本町"},"6600822":{"post_code":"6600822","prefecture":"HYOGO KEN","city":"AMAGASAKI SHI","town":"KUISE MINAMISHIMMACHI","perfecture_jp":"兵庫県","jp_add_1":"尼崎市","jp_add_2":"杭瀬南新町"},"6600815":{"post_code":"6600815","prefecture":"HYOGO KEN","city":"AMAGASAKI SHI","town":"KUISE KITASHIMMACHI","perfecture_jp":"兵庫県","jp_add_1":"尼崎市","jp_add_2":"杭瀬北新町"},"6600873":{"post_code":"6600873","prefecture":"HYOGO KEN","city":"AMAGASAKI SHI","town":"GEMBAN MINAMINOCHO","perfecture_jp":"兵庫県","jp_add_1":"尼崎市","jp_add_2":"玄番南之町"},"6600872":{"post_code":"6600872","prefecture":"HYOGO KEN","city":"AMAGASAKI SHI","town":"GEMBAN KITANOCHO","perfecture_jp":"兵庫県","jp_add_1":"尼崎市","jp_add_2":"玄番北之町"},"6600074":{"post_code":"6600074","prefecture":"HYOGO KEN","city":"AMAGASAKI SHI","town":"KOTORACHO","perfecture_jp":"兵庫県","jp_add_1":"尼崎市","jp_add_2":"琴浦町"},"6600808":{"post_code":"6600808","prefecture":"HYOGO KEN","city":"AMAGASAKI SHI","town":"SHIOE(1-CHOME1-BAN.5-CHOME1-BAN)","perfecture_jp":"兵庫県","jp_add_1":"尼崎市","jp_add_2":"潮江"},"6600866":{"post_code":"6600866","prefecture":"HYOGO KEN","city":"AMAGASAKI SHI","town":"SHIOMACHI","perfecture_jp":"兵庫県","jp_add_1":"尼崎市","jp_add_2":"汐町"},"6600811":{"post_code":"6600811","prefecture":"HYOGO KEN","city":"AMAGASAKI SHI","town":"JOKOJI","perfecture_jp":"兵庫県","jp_add_1":"尼崎市","jp_add_2":"常光寺"},"6600881":{"post_code":"6600881","prefecture":"HYOGO KEN","city":"AMAGASAKI SHI","town":"SHOWADORI","perfecture_jp":"兵庫県","jp_add_1":"尼崎市","jp_add_2":"昭和通"},"6600882":{"post_code":"6600882","prefecture":"HYOGO KEN","city":"AMAGASAKI SHI","town":"SHOWAMINAMIDORI","perfecture_jp":"兵庫県","jp_add_1":"尼崎市","jp_add_2":"昭和南通"},"6600082":{"post_code":"6600082","prefecture":"HYOGO KEN","city":"AMAGASAKI SHI","town":"SUIMEICHO","perfecture_jp":"兵庫県","jp_add_1":"尼崎市","jp_add_2":"水明町"},"6600094":{"post_code":"6600094","prefecture":"HYOGO KEN","city":"AMAGASAKI SHI","town":"SUEHIROCHO","perfecture_jp":"兵庫県","jp_add_1":"尼崎市","jp_add_2":"末広町"},"6600071":{"post_code":"6600071","prefecture":"HYOGO KEN","city":"AMAGASAKI SHI","town":"SUTOKUIN","perfecture_jp":"兵庫県","jp_add_1":"尼崎市","jp_add_2":"崇徳院"},"6600823":{"post_code":"6600823","prefecture":"HYOGO KEN","city":"AMAGASAKI SHI","town":"DAIMOTSUCHO","perfecture_jp":"兵庫県","jp_add_1":"尼崎市","jp_add_2":"大物町"},"6600876":{"post_code":"6600876","prefecture":"HYOGO KEN","city":"AMAGASAKI SHI","town":"TAKEYACHO","perfecture_jp":"兵庫県","jp_add_1":"尼崎市","jp_add_2":"竹谷町"},"6600871":{"post_code":"6600871","prefecture":"HYOGO KEN","city":"AMAGASAKI SHI","town":"TATEYACHO","perfecture_jp":"兵庫県","jp_add_1":"尼崎市","jp_add_2":"建家町"},"6600858":{"post_code":"6600858","prefecture":"HYOGO KEN","city":"AMAGASAKI SHI","town":"TSUKIJI","perfecture_jp":"兵庫県","jp_add_1":"尼崎市","jp_add_2":"築地"},"6600092":{"post_code":"6600092","prefecture":"HYOGO KEN","city":"AMAGASAKI SHI","town":"TSURUMACHI","perfecture_jp":"兵庫県","jp_add_1":"尼崎市","jp_add_2":"鶴町"},"6600867":{"post_code":"6600867","prefecture":"HYOGO KEN","city":"AMAGASAKI SHI","town":"TERAMACHI","perfecture_jp":"兵庫県","jp_add_1":"尼崎市","jp_add_2":"寺町"},"6600083":{"post_code":"6600083","prefecture":"HYOGO KEN","city":"AMAGASAKI SHI","town":"DOICHO","perfecture_jp":"兵庫県","jp_add_1":"尼崎市","jp_add_2":"道意町"},"6600851":{"post_code":"6600851","prefecture":"HYOGO KEN","city":"AMAGASAKI SHI","town":"NAKAZAIKECHO","perfecture_jp":"兵庫県","jp_add_1":"尼崎市","jp_add_2":"中在家町"},"6600091":{"post_code":"6600091","prefecture":"HYOGO KEN","city":"AMAGASAKI SHI","town":"NAKAHAMACHO","perfecture_jp":"兵庫県","jp_add_1":"尼崎市","jp_add_2":"中浜町"},"6600802":{"post_code":"6600802","prefecture":"HYOGO KEN","city":"AMAGASAKI SHI","town":"NAGASU NAKADORI","perfecture_jp":"兵庫県","jp_add_1":"尼崎市","jp_add_2":"長洲中通"},"6600801":{"post_code":"6600801","prefecture":"HYOGO KEN","city":"AMAGASAKI SHI","town":"NAGASU HIGASHIDORI","perfecture_jp":"兵庫県","jp_add_1":"尼崎市","jp_add_2":"長洲東通"},"6600807":{"post_code":"6600807","prefecture":"HYOGO KEN","city":"AMAGASAKI SHI","town":"NAGASU NISHIDORI","perfecture_jp":"兵庫県","jp_add_1":"尼崎市","jp_add_2":"長洲西通"},"6600803":{"post_code":"6600803","prefecture":"HYOGO KEN","city":"AMAGASAKI SHI","town":"NAGASU HONDORI","perfecture_jp":"兵庫県","jp_add_1":"尼崎市","jp_add_2":"長洲本通"},"6600073":{"post_code":"6600073","prefecture":"HYOGO KEN","city":"AMAGASAKI SHI","town":"NAKIRIYAMACHO","perfecture_jp":"兵庫県","jp_add_1":"尼崎市","jp_add_2":"菜切山町"},"6600052":{"post_code":"6600052","prefecture":"HYOGO KEN","city":"AMAGASAKI SHI","town":"NANAMATSUCHO","perfecture_jp":"兵庫県","jp_add_1":"尼崎市","jp_add_2":"七松町"},"6600093":{"post_code":"6600093","prefecture":"HYOGO KEN","city":"AMAGASAKI SHI","town":"NISHIKAIGANCHO","perfecture_jp":"兵庫県","jp_add_1":"尼崎市","jp_add_2":"西海岸町"},"6600865":{"post_code":"6600865","prefecture":"HYOGO KEN","city":"AMAGASAKI SHI","town":"NISHISAKURAGICHO","perfecture_jp":"兵庫県","jp_add_1":"尼崎市","jp_add_2":"西桜木町"},"6600845":{"post_code":"6600845","prefecture":"HYOGO KEN","city":"AMAGASAKI SHI","town":"NISHITAKASUCHO","perfecture_jp":"兵庫県","jp_add_1":"尼崎市","jp_add_2":"西高洲町"},"6600054":{"post_code":"6600054","prefecture":"HYOGO KEN","city":"AMAGASAKI SHI","town":"NISHITACHIBANACHO","perfecture_jp":"兵庫県","jp_add_1":"尼崎市","jp_add_2":"西立花町"},"6600827":{"post_code":"6600827","prefecture":"HYOGO KEN","city":"AMAGASAKI SHI","town":"NISHIDAIMOTSUCHO","perfecture_jp":"兵庫県","jp_add_1":"尼崎市","jp_add_2":"西大物町"},"6600805":{"post_code":"6600805","prefecture":"HYOGO KEN","city":"AMAGASAKI SHI","town":"NISHINAGASUCHO","perfecture_jp":"兵庫県","jp_add_1":"尼崎市","jp_add_2":"西長洲町"},"6600893":{"post_code":"6600893","prefecture":"HYOGO KEN","city":"AMAGASAKI SHI","town":"NISHINANIWACHO","perfecture_jp":"兵庫県","jp_add_1":"尼崎市","jp_add_2":"西難波町"},"6600874":{"post_code":"6600874","prefecture":"HYOGO KEN","city":"AMAGASAKI SHI","town":"NISHIHOMMACHI","perfecture_jp":"兵庫県","jp_add_1":"尼崎市","jp_add_2":"西本町"},"6600863":{"post_code":"6600863","prefecture":"HYOGO KEN","city":"AMAGASAKI SHI","town":"NISHIHOMMACHIKITADORI","perfecture_jp":"兵庫県","jp_add_1":"尼崎市","jp_add_2":"西本町北通"},"6600837":{"post_code":"6600837","prefecture":"HYOGO KEN","city":"AMAGASAKI SHI","town":"NISHIMATSUSHIMACHO","perfecture_jp":"兵庫県","jp_add_1":"尼崎市","jp_add_2":"西松島町"},"6600868":{"post_code":"6600868","prefecture":"HYOGO KEN","city":"AMAGASAKI SHI","town":"NISHIMISONOCHO","perfecture_jp":"兵庫県","jp_add_1":"尼崎市","jp_add_2":"西御園町"},"6600857":{"post_code":"6600857","prefecture":"HYOGO KEN","city":"AMAGASAKI SHI","town":"NISHIMUKOJIMACHO","perfecture_jp":"兵庫県","jp_add_1":"尼崎市","jp_add_2":"西向島町"},"6600062":{"post_code":"6600062","prefecture":"HYOGO KEN","city":"AMAGASAKI SHI","town":"HAMADACHO","perfecture_jp":"兵庫県","jp_add_1":"尼崎市","jp_add_2":"浜田町"},"6600843":{"post_code":"6600843","prefecture":"HYOGO KEN","city":"AMAGASAKI SHI","town":"HIGASHIKAIGANCHO","perfecture_jp":"兵庫県","jp_add_1":"尼崎市","jp_add_2":"東海岸町"},"6600864":{"post_code":"6600864","prefecture":"HYOGO KEN","city":"AMAGASAKI SHI","town":"HIGASHISAKURAGICHO","perfecture_jp":"兵庫県","jp_add_1":"尼崎市","jp_add_2":"東桜木町"},"6600841":{"post_code":"6600841","prefecture":"HYOGO KEN","city":"AMAGASAKI SHI","town":"HIGASHITAKASUCHO","perfecture_jp":"兵庫県","jp_add_1":"尼崎市","jp_add_2":"東高洲町"},"6600828":{"post_code":"6600828","prefecture":"HYOGO KEN","city":"AMAGASAKI SHI","town":"HIGASHIDAIMOTSUCHO","perfecture_jp":"兵庫県","jp_add_1":"尼崎市","jp_add_2":"東大物町"},"6600051":{"post_code":"6600051","prefecture":"HYOGO KEN","city":"AMAGASAKI SHI","town":"HIGASHINANAMATSUCHO","perfecture_jp":"兵庫県","jp_add_1":"尼崎市","jp_add_2":"東七松町"},"6600892":{"post_code":"6600892","prefecture":"HYOGO KEN","city":"AMAGASAKI SHI","town":"HIGASHINANIWACHO","perfecture_jp":"兵庫県","jp_add_1":"尼崎市","jp_add_2":"東難波町"},"6600832":{"post_code":"6600832","prefecture":"HYOGO KEN","city":"AMAGASAKI SHI","town":"HIGASHIHATSUSHIMACHO","perfecture_jp":"兵庫県","jp_add_1":"尼崎市","jp_add_2":"東初島町"},"6600844":{"post_code":"6600844","prefecture":"HYOGO KEN","city":"AMAGASAKI SHI","town":"HIGASHIHAMACHO","perfecture_jp":"兵庫県","jp_add_1":"尼崎市","jp_add_2":"東浜町"},"6600824":{"post_code":"6600824","prefecture":"HYOGO KEN","city":"AMAGASAKI SHI","town":"HIGASHIHOMMACHI","perfecture_jp":"兵庫県","jp_add_1":"尼崎市","jp_add_2":"東本町"},"6600831":{"post_code":"6600831","prefecture":"HYOGO KEN","city":"AMAGASAKI SHI","town":"HIGASHIMATSUSHIMACHO","perfecture_jp":"兵庫県","jp_add_1":"尼崎市","jp_add_2":"東松島町"},"6600835":{"post_code":"6600835","prefecture":"HYOGO KEN","city":"AMAGASAKI SHI","town":"HIGASHIMUKOJIMA HIGASHINOCHO","perfecture_jp":"兵庫県","jp_add_1":"尼崎市","jp_add_2":"東向島東之町"},"6600856":{"post_code":"6600856","prefecture":"HYOGO KEN","city":"AMAGASAKI SHI","town":"HIGASHIMUKOJIMA NISHINOCHO","perfecture_jp":"兵庫県","jp_add_1":"尼崎市","jp_add_2":"東向島西之町"},"6600891":{"post_code":"6600891","prefecture":"HYOGO KEN","city":"AMAGASAKI SHI","town":"FUSOCHO","perfecture_jp":"兵庫県","jp_add_1":"尼崎市","jp_add_2":"扶桑町"},"6600846":{"post_code":"6600846","prefecture":"HYOGO KEN","city":"AMAGASAKI SHI","town":"FUNADE","perfecture_jp":"兵庫県","jp_add_1":"尼崎市","jp_add_2":"船出"},"6600087":{"post_code":"6600087","prefecture":"HYOGO KEN","city":"AMAGASAKI SHI","town":"HEIZAEMONCHO","perfecture_jp":"兵庫県","jp_add_1":"尼崎市","jp_add_2":"平左衛門町"},"6600086":{"post_code":"6600086","prefecture":"HYOGO KEN","city":"AMAGASAKI SHI","town":"MARUSHIMACHO","perfecture_jp":"兵庫県","jp_add_1":"尼崎市","jp_add_2":"丸島町"},"6600861":{"post_code":"6600861","prefecture":"HYOGO KEN","city":"AMAGASAKI SHI","town":"MISONOCHO","perfecture_jp":"兵庫県","jp_add_1":"尼崎市","jp_add_2":"御園町"},"6600825":{"post_code":"6600825","prefecture":"HYOGO KEN","city":"AMAGASAKI SHI","town":"MINAMIJONAI","perfecture_jp":"兵庫県","jp_add_1":"尼崎市","jp_add_2":"南城内"},"6600875":{"post_code":"6600875","prefecture":"HYOGO KEN","city":"AMAGASAKI SHI","town":"MINAMITAKEYACHO","perfecture_jp":"兵庫県","jp_add_1":"尼崎市","jp_add_2":"南竹谷町"},"6600053":{"post_code":"6600053","prefecture":"HYOGO KEN","city":"AMAGASAKI SHI","town":"MINAMINANAMATSUCHO","perfecture_jp":"兵庫県","jp_add_1":"尼崎市","jp_add_2":"南七松町"},"6600833":{"post_code":"6600833","prefecture":"HYOGO KEN","city":"AMAGASAKI SHI","town":"MINAMIHATSUSHIMACHO","perfecture_jp":"兵庫県","jp_add_1":"尼崎市","jp_add_2":"南初島町"},"6600877":{"post_code":"6600877","prefecture":"HYOGO KEN","city":"AMAGASAKI SHI","town":"MIYAUCHICHO","perfecture_jp":"兵庫県","jp_add_1":"尼崎市","jp_add_2":"宮内町"},"6600084":{"post_code":"6600084","prefecture":"HYOGO KEN","city":"AMAGASAKI SHI","town":"MUKOGAWACHO","perfecture_jp":"兵庫県","jp_add_1":"尼崎市","jp_add_2":"武庫川町"},"6600085":{"post_code":"6600085","prefecture":"HYOGO KEN","city":"AMAGASAKI SHI","town":"MOTOHAMACHO","perfecture_jp":"兵庫県","jp_add_1":"尼崎市","jp_add_2":"元浜町"},"6600061":{"post_code":"6600061","prefecture":"HYOGO KEN","city":"AMAGASAKI SHI","town":"YOMOGAWASOEN","perfecture_jp":"兵庫県","jp_add_1":"尼崎市","jp_add_2":"蓬川荘園"},"6600081":{"post_code":"6600081","prefecture":"HYOGO KEN","city":"AMAGASAKI SHI","town":"YOMOGAWACHO","perfecture_jp":"兵庫県","jp_add_1":"尼崎市","jp_add_2":"蓬川町"}}