{"6620000":{"post_code":"6620000","prefecture":"HYOGO KEN","city":"NISHINOMIYA SHI","town":"IKANIKEISAIGANAIBAAI","perfecture_jp":"兵庫県","jp_add_1":"西宮市","jp_add_2":""},"6620063":{"post_code":"6620063","prefecture":"HYOGO KEN","city":"NISHINOMIYA SHI","town":"AIOICHO","perfecture_jp":"兵庫県","jp_add_1":"西宮市","jp_add_2":"相生町"},"6620862":{"post_code":"6620862","prefecture":"HYOGO KEN","city":"NISHINOMIYA SHI","town":"AOKICHO","perfecture_jp":"兵庫県","jp_add_1":"西宮市","jp_add_2":"青木町"},"6620925":{"post_code":"6620925","prefecture":"HYOGO KEN","city":"NISHINOMIYA SHI","town":"ASANAGICHO","perfecture_jp":"兵庫県","jp_add_1":"西宮市","jp_add_2":"朝凪町"},"6620842":{"post_code":"6620842","prefecture":"HYOGO KEN","city":"NISHINOMIYA SHI","town":"ASHIHARACHO","perfecture_jp":"兵庫県","jp_add_1":"西宮市","jp_add_2":"芦原町"},"6620871":{"post_code":"6620871","prefecture":"HYOGO KEN","city":"NISHINOMIYA SHI","town":"ATAGOYAMA","perfecture_jp":"兵庫県","jp_add_1":"西宮市","jp_add_2":"愛宕山"},"6620946":{"post_code":"6620946","prefecture":"HYOGO KEN","city":"NISHINOMIYA SHI","town":"ARAEBISUCHO","perfecture_jp":"兵庫県","jp_add_1":"西宮市","jp_add_2":"荒戎町"},"6620911":{"post_code":"6620911","prefecture":"HYOGO KEN","city":"NISHINOMIYA SHI","town":"IKEDACHO","perfecture_jp":"兵庫県","jp_add_1":"西宮市","jp_add_2":"池田町"},"6620928":{"post_code":"6620928","prefecture":"HYOGO KEN","city":"NISHINOMIYA SHI","town":"ISHIZAICHO","perfecture_jp":"兵庫県","jp_add_1":"西宮市","jp_add_2":"石在町"},"6620074":{"post_code":"6620074","prefecture":"HYOGO KEN","city":"NISHINOMIYA SHI","town":"ISHIBANECHO","perfecture_jp":"兵庫県","jp_add_1":"西宮市","jp_add_2":"石刎町"},"6620932":{"post_code":"6620932","prefecture":"HYOGO KEN","city":"NISHINOMIYA SHI","town":"IZUMICHO","perfecture_jp":"兵庫県","jp_add_1":"西宮市","jp_add_2":"泉町"},"6620873":{"post_code":"6620873","prefecture":"HYOGO KEN","city":"NISHINOMIYA SHI","town":"ICHIGAYACHO","perfecture_jp":"兵庫県","jp_add_1":"西宮市","jp_add_2":"一ケ谷町"},"6620975":{"post_code":"6620975","prefecture":"HYOGO KEN","city":"NISHINOMIYA SHI","town":"ICHINIWACHO","perfecture_jp":"兵庫県","jp_add_1":"西宮市","jp_add_2":"市庭町"},"6620972":{"post_code":"6620972","prefecture":"HYOGO KEN","city":"NISHINOMIYA SHI","town":"IMAZAIKECHO","perfecture_jp":"兵庫県","jp_add_1":"西宮市","jp_add_2":"今在家町"},"6620886":{"post_code":"6620886","prefecture":"HYOGO KEN","city":"NISHINOMIYA SHI","town":"UEGAHARA YAMADACHO","perfecture_jp":"兵庫県","jp_add_1":"西宮市","jp_add_2":"上ケ原山田町"},"6620885":{"post_code":"6620885","prefecture":"HYOGO KEN","city":"NISHINOMIYA SHI","town":"UEGAHARA YAMATECHO","perfecture_jp":"兵庫県","jp_add_1":"西宮市","jp_add_2":"上ケ原山手町"},"6620891":{"post_code":"6620891","prefecture":"HYOGO KEN","city":"NISHINOMIYA SHI","town":"UEGAHARA 1-BANCHO","perfecture_jp":"兵庫県","jp_add_1":"西宮市","jp_add_2":"上ケ原一番町"},"6620892":{"post_code":"6620892","prefecture":"HYOGO KEN","city":"NISHINOMIYA SHI","town":"UEGAHARA 2-BANCHO","perfecture_jp":"兵庫県","jp_add_1":"西宮市","jp_add_2":"上ケ原二番町"},"6620893":{"post_code":"6620893","prefecture":"HYOGO KEN","city":"NISHINOMIYA SHI","town":"UEGAHARA 3-BANCHO","perfecture_jp":"兵庫県","jp_add_1":"西宮市","jp_add_2":"上ケ原三番町"},"6620894":{"post_code":"6620894","prefecture":"HYOGO KEN","city":"NISHINOMIYA SHI","town":"UEGAHARA 4-BANCHO","perfecture_jp":"兵庫県","jp_add_1":"西宮市","jp_add_2":"上ケ原四番町"},"6620895":{"post_code":"6620895","prefecture":"HYOGO KEN","city":"NISHINOMIYA SHI","town":"UEGAHARA 5-BANCHO","perfecture_jp":"兵庫県","jp_add_1":"西宮市","jp_add_2":"上ケ原五番町"},"6620896":{"post_code":"6620896","prefecture":"HYOGO KEN","city":"NISHINOMIYA SHI","town":"UEGAHARA 6-BANCHO","perfecture_jp":"兵庫県","jp_add_1":"西宮市","jp_add_2":"上ケ原六番町"},"6620881":{"post_code":"6620881","prefecture":"HYOGO KEN","city":"NISHINOMIYA SHI","town":"UEGAHARA 7-BANCHO","perfecture_jp":"兵庫県","jp_add_1":"西宮市","jp_add_2":"上ケ原七番町"},"6620882":{"post_code":"6620882","prefecture":"HYOGO KEN","city":"NISHINOMIYA SHI","town":"UEGAHARA 8-BANCHO","perfecture_jp":"兵庫県","jp_add_1":"西宮市","jp_add_2":"上ケ原八番町"},"6620883":{"post_code":"6620883","prefecture":"HYOGO KEN","city":"NISHINOMIYA SHI","town":"UEGAHARA 9-BANCHO","perfecture_jp":"兵庫県","jp_add_1":"西宮市","jp_add_2":"上ケ原九番町"},"6620884":{"post_code":"6620884","prefecture":"HYOGO KEN","city":"NISHINOMIYA SHI","town":"UEGAHARA 10-BANCHO","perfecture_jp":"兵庫県","jp_add_1":"西宮市","jp_add_2":"上ケ原十番町"},"6620855":{"post_code":"6620855","prefecture":"HYOGO KEN","city":"NISHINOMIYA SHI","town":"EGAMICHO","perfecture_jp":"兵庫県","jp_add_1":"西宮市","jp_add_2":"江上町"},"6620085":{"post_code":"6620085","prefecture":"HYOGO KEN","city":"NISHINOMIYA SHI","town":"OIMATSUCHO","perfecture_jp":"兵庫県","jp_add_1":"西宮市","jp_add_2":"老松町"},"6620036":{"post_code":"6620036","prefecture":"HYOGO KEN","city":"NISHINOMIYA SHI","town":"OIDECHO","perfecture_jp":"兵庫県","jp_add_1":"西宮市","jp_add_2":"大井手町"},"6620054":{"post_code":"6620054","prefecture":"HYOGO KEN","city":"NISHINOMIYA SHI","town":"OTANICHO","perfecture_jp":"兵庫県","jp_add_1":"西宮市","jp_add_2":"大谷町"},"6620836":{"post_code":"6620836","prefecture":"HYOGO KEN","city":"NISHINOMIYA SHI","town":"OHATACHO","perfecture_jp":"兵庫県","jp_add_1":"西宮市","jp_add_2":"大畑町"},"6620957":{"post_code":"6620957","prefecture":"HYOGO KEN","city":"NISHINOMIYA SHI","town":"OHAMACHO","perfecture_jp":"兵庫県","jp_add_1":"西宮市","jp_add_2":"大浜町"},"6620827":{"post_code":"6620827","prefecture":"HYOGO KEN","city":"NISHINOMIYA SHI","town":"OKADAYAMA","perfecture_jp":"兵庫県","jp_add_1":"西宮市","jp_add_2":"岡田山"},"6620022":{"post_code":"6620022","prefecture":"HYOGO KEN","city":"NISHINOMIYA SHI","town":"OKUHATA","perfecture_jp":"兵庫県","jp_add_1":"西宮市","jp_add_2":"奥畑"},"6620961":{"post_code":"6620961","prefecture":"HYOGO KEN","city":"NISHINOMIYA SHI","town":"OCHAYASHOCHO","perfecture_jp":"兵庫県","jp_add_1":"西宮市","jp_add_2":"御茶家所町"},"6620977":{"post_code":"6620977","prefecture":"HYOGO KEN","city":"NISHINOMIYA SHI","town":"KAGURACHO","perfecture_jp":"兵庫県","jp_add_1":"西宮市","jp_add_2":"神楽町"},"6620052":{"post_code":"6620052","prefecture":"HYOGO KEN","city":"NISHINOMIYA SHI","town":"KASUMICHO","perfecture_jp":"兵庫県","jp_add_1":"西宮市","jp_add_2":"霞町"},"6620001":{"post_code":"6620001","prefecture":"HYOGO KEN","city":"NISHINOMIYA SHI","town":"KABUTOYAMACHO","perfecture_jp":"兵庫県","jp_add_1":"西宮市","jp_add_2":"甲山町"},"6620865":{"post_code":"6620865","prefecture":"HYOGO KEN","city":"NISHINOMIYA SHI","town":"KAMIGAKICHO","perfecture_jp":"兵庫県","jp_add_1":"西宮市","jp_add_2":"神垣町"},"6620813":{"post_code":"6620813","prefecture":"HYOGO KEN","city":"NISHINOMIYA SHI","town":"KAMIKOTOEN","perfecture_jp":"兵庫県","jp_add_1":"西宮市","jp_add_2":"上甲東園"},"6620027":{"post_code":"6620027","prefecture":"HYOGO KEN","city":"NISHINOMIYA SHI","town":"KAMIZONOCHO","perfecture_jp":"兵庫県","jp_add_1":"西宮市","jp_add_2":"神園町"},"6620954":{"post_code":"6620954","prefecture":"HYOGO KEN","city":"NISHINOMIYA SHI","town":"KAMIYOSHIHARACHO","perfecture_jp":"兵庫県","jp_add_1":"西宮市","jp_add_2":"上葭原町"},"6620097":{"post_code":"6620097","prefecture":"HYOGO KEN","city":"NISHINOMIYA SHI","town":"KAYANDOCHO","perfecture_jp":"兵庫県","jp_add_1":"西宮市","jp_add_2":"柏堂町"},"6620098":{"post_code":"6620098","prefecture":"HYOGO KEN","city":"NISHINOMIYA SHI","town":"KAYANDONISHIMACHI","perfecture_jp":"兵庫県","jp_add_1":"西宮市","jp_add_2":"柏堂西町"},"6620944":{"post_code":"6620944","prefecture":"HYOGO KEN","city":"NISHINOMIYA SHI","town":"KAWAZOECHO","perfecture_jp":"兵庫県","jp_add_1":"西宮市","jp_add_2":"川添町"},"6620951":{"post_code":"6620951","prefecture":"HYOGO KEN","city":"NISHINOMIYA SHI","town":"KAWANISHICHO","perfecture_jp":"兵庫県","jp_add_1":"西宮市","jp_add_2":"川西町"},"6620861":{"post_code":"6620861","prefecture":"HYOGO KEN","city":"NISHINOMIYA SHI","town":"KAWAHARACHO","perfecture_jp":"兵庫県","jp_add_1":"西宮市","jp_add_2":"河原町"},"6620945":{"post_code":"6620945","prefecture":"HYOGO KEN","city":"NISHINOMIYA SHI","town":"KAWAHIGASHICHO","perfecture_jp":"兵庫県","jp_add_1":"西宮市","jp_add_2":"川東町"},"6620823":{"post_code":"6620823","prefecture":"HYOGO KEN","city":"NISHINOMIYA SHI","town":"KANNOCHO","perfecture_jp":"兵庫県","jp_add_1":"西宮市","jp_add_2":"神呪町"},"6620021":{"post_code":"6620021","prefecture":"HYOGO KEN","city":"NISHINOMIYA SHI","town":"KAMBARA","perfecture_jp":"兵庫県","jp_add_1":"西宮市","jp_add_2":"神原"},"6620078":{"post_code":"6620078","prefecture":"HYOGO KEN","city":"NISHINOMIYA SHI","town":"KIKUTANICHO","perfecture_jp":"兵庫県","jp_add_1":"西宮市","jp_add_2":"菊谷町"},"6620062":{"post_code":"6620062","prefecture":"HYOGO KEN","city":"NISHINOMIYA SHI","town":"KIZUYAMACHO","perfecture_jp":"兵庫県","jp_add_1":"西宮市","jp_add_2":"木津山町"},"6620833":{"post_code":"6620833","prefecture":"HYOGO KEN","city":"NISHINOMIYA SHI","town":"KITASHOWACHO","perfecture_jp":"兵庫県","jp_add_1":"西宮市","jp_add_2":"北昭和町"},"6620025":{"post_code":"6620025","prefecture":"HYOGO KEN","city":"NISHINOMIYA SHI","town":"KITANATSUGICHO","perfecture_jp":"兵庫県","jp_add_1":"西宮市","jp_add_2":"北名次町"},"6620091":{"post_code":"6620091","prefecture":"HYOGO KEN","city":"NISHINOMIYA SHI","town":"KITAYAMACHO","perfecture_jp":"兵庫県","jp_add_1":"西宮市","jp_add_2":"北山町"},"6620077":{"post_code":"6620077","prefecture":"HYOGO KEN","city":"NISHINOMIYA SHI","town":"KUDEGAYACHO","perfecture_jp":"兵庫県","jp_add_1":"西宮市","jp_add_2":"久出ケ谷町"},"6620927":{"post_code":"6620927","prefecture":"HYOGO KEN","city":"NISHINOMIYA SHI","town":"KUBOCHO","perfecture_jp":"兵庫県","jp_add_1":"西宮市","jp_add_2":"久保町"},"6620064":{"post_code":"6620064","prefecture":"HYOGO KEN","city":"NISHINOMIYA SHI","town":"KUMOICHO","perfecture_jp":"兵庫県","jp_add_1":"西宮市","jp_add_2":"雲井町"},"6620926":{"post_code":"6620926","prefecture":"HYOGO KEN","city":"NISHINOMIYA SHI","town":"KURAKAKECHO","perfecture_jp":"兵庫県","jp_add_1":"西宮市","jp_add_2":"鞍掛町"},"6620083":{"post_code":"6620083","prefecture":"HYOGO KEN","city":"NISHINOMIYA SHI","town":"KURAKUEN 1-BANCHO","perfecture_jp":"兵庫県","jp_add_1":"西宮市","jp_add_2":"苦楽園一番町"},"6620082":{"post_code":"6620082","prefecture":"HYOGO KEN","city":"NISHINOMIYA SHI","town":"KURAKUEN 2-BANCHO","perfecture_jp":"兵庫県","jp_add_1":"西宮市","jp_add_2":"苦楽園二番町"},"6620081":{"post_code":"6620081","prefecture":"HYOGO KEN","city":"NISHINOMIYA SHI","town":"KURAKUEN 3-BANCHO","perfecture_jp":"兵庫県","jp_add_1":"西宮市","jp_add_2":"苦楽園三番町"},"6620088":{"post_code":"6620088","prefecture":"HYOGO KEN","city":"NISHINOMIYA SHI","town":"KURAKUEN 4-BANCHO","perfecture_jp":"兵庫県","jp_add_1":"西宮市","jp_add_2":"苦楽園四番町"},"6620087":{"post_code":"6620087","prefecture":"HYOGO KEN","city":"NISHINOMIYA SHI","town":"KURAKUEN 5-BANCHO","perfecture_jp":"兵庫県","jp_add_1":"西宮市","jp_add_2":"苦楽園五番町"},"6620086":{"post_code":"6620086","prefecture":"HYOGO KEN","city":"NISHINOMIYA SHI","town":"KURAKUEN 6-BANCHO","perfecture_jp":"兵庫県","jp_add_1":"西宮市","jp_add_2":"苦楽園六番町"},"6620037":{"post_code":"6620037","prefecture":"HYOGO KEN","city":"NISHINOMIYA SHI","town":"KETSUZENCHO","perfecture_jp":"兵庫県","jp_add_1":"西宮市","jp_add_2":"結善町"},"6620099":{"post_code":"6620099","prefecture":"HYOGO KEN","city":"NISHINOMIYA SHI","town":"KENDANICHO","perfecture_jp":"兵庫県","jp_add_1":"西宮市","jp_add_2":"剣谷町"},"6620812":{"post_code":"6620812","prefecture":"HYOGO KEN","city":"NISHINOMIYA SHI","town":"KOTOEN","perfecture_jp":"兵庫県","jp_add_1":"西宮市","jp_add_2":"甲東園"},"6620832":{"post_code":"6620832","prefecture":"HYOGO KEN","city":"NISHINOMIYA SHI","town":"KOFUEN","perfecture_jp":"兵庫県","jp_add_1":"西宮市","jp_add_2":"甲風園"},"6620965":{"post_code":"6620965","prefecture":"HYOGO KEN","city":"NISHINOMIYA SHI","town":"GOMENCHO","perfecture_jp":"兵庫県","jp_add_1":"西宮市","jp_add_2":"郷免町"},"6620018":{"post_code":"6620018","prefecture":"HYOGO KEN","city":"NISHINOMIYA SHI","town":"KOYOEN SANNOCHO","perfecture_jp":"兵庫県","jp_add_1":"西宮市","jp_add_2":"甲陽園山王町"},"6620012":{"post_code":"6620012","prefecture":"HYOGO KEN","city":"NISHINOMIYA SHI","town":"KOYOEN HIGASHIYAMACHO","perfecture_jp":"兵庫県","jp_add_1":"西宮市","jp_add_2":"甲陽園東山町"},"6620017":{"post_code":"6620017","prefecture":"HYOGO KEN","city":"NISHINOMIYA SHI","town":"KOYOEN NISHIYAMACHO","perfecture_jp":"兵庫県","jp_add_1":"西宮市","jp_add_2":"甲陽園西山町"},"6620014":{"post_code":"6620014","prefecture":"HYOGO KEN","city":"NISHINOMIYA SHI","town":"KOYOEN HINODECHO","perfecture_jp":"兵庫県","jp_add_1":"西宮市","jp_add_2":"甲陽園日之出町"},"6620015":{"post_code":"6620015","prefecture":"HYOGO KEN","city":"NISHINOMIYA SHI","town":"KOYOEN HONJOCHO","perfecture_jp":"兵庫県","jp_add_1":"西宮市","jp_add_2":"甲陽園本庄町"},"6620011":{"post_code":"6620011","prefecture":"HYOGO KEN","city":"NISHINOMIYA SHI","town":"KOYOEN MEGAMIYAMACHO","perfecture_jp":"兵庫県","jp_add_1":"西宮市","jp_add_2":"甲陽園目神山町"},"6620016":{"post_code":"6620016","prefecture":"HYOGO KEN","city":"NISHINOMIYA SHI","town":"KOYOEN WAKAECHO","perfecture_jp":"兵庫県","jp_add_1":"西宮市","jp_add_2":"甲陽園若江町"},"6620092":{"post_code":"6620092","prefecture":"HYOGO KEN","city":"NISHINOMIYA SHI","town":"KOSHIKIIWACHO","perfecture_jp":"兵庫県","jp_add_1":"西宮市","jp_add_2":"甑岩町"},"6620006":{"post_code":"6620006","prefecture":"HYOGO KEN","city":"NISHINOMIYA SHI","town":"KOSHIMIZU SHAKEGOYAMA","perfecture_jp":"兵庫県","jp_add_1":"西宮市","jp_add_2":"越水社家郷山"},"6620864":{"post_code":"6620864","prefecture":"HYOGO KEN","city":"NISHINOMIYA SHI","town":"KOSHIMIZUCHO","perfecture_jp":"兵庫県","jp_add_1":"西宮市","jp_add_2":"越水町"},"6620047":{"post_code":"6620047","prefecture":"HYOGO KEN","city":"NISHINOMIYA SHI","town":"KOTOBUKICHO","perfecture_jp":"兵庫県","jp_add_1":"西宮市","jp_add_2":"寿町"},"6620844":{"post_code":"6620844","prefecture":"HYOGO KEN","city":"NISHINOMIYA SHI","town":"SAIFUKUCHO","perfecture_jp":"兵庫県","jp_add_1":"西宮市","jp_add_2":"西福町"},"6620032":{"post_code":"6620032","prefecture":"HYOGO KEN","city":"NISHINOMIYA SHI","town":"SAKURADANICHO","perfecture_jp":"兵庫県","jp_add_1":"西宮市","jp_add_2":"桜谷町"},"6620071":{"post_code":"6620071","prefecture":"HYOGO KEN","city":"NISHINOMIYA SHI","town":"SAKURAMACHI","perfecture_jp":"兵庫県","jp_add_1":"西宮市","jp_add_2":"桜町"},"6620875":{"post_code":"6620875","prefecture":"HYOGO KEN","city":"NISHINOMIYA SHI","town":"SATSUKIGAOKA","perfecture_jp":"兵庫県","jp_add_1":"西宮市","jp_add_2":"五月ケ丘"},"6620978":{"post_code":"6620978","prefecture":"HYOGO KEN","city":"NISHINOMIYA SHI","town":"SANSHOCHO","perfecture_jp":"兵庫県","jp_add_1":"西宮市","jp_add_2":"産所町"},"6620026":{"post_code":"6620026","prefecture":"HYOGO KEN","city":"NISHINOMIYA SHI","town":"SHISHIGAGUCHICHO","perfecture_jp":"兵庫県","jp_add_1":"西宮市","jp_add_2":"獅子ケ口町"},"6620033":{"post_code":"6620033","prefecture":"HYOGO KEN","city":"NISHINOMIYA SHI","town":"SHIMIZUCHO","perfecture_jp":"兵庫県","jp_add_1":"西宮市","jp_add_2":"清水町"},"6620956":{"post_code":"6620956","prefecture":"HYOGO KEN","city":"NISHINOMIYA SHI","town":"SHIMOYOSHIHARACHO","perfecture_jp":"兵庫県","jp_add_1":"西宮市","jp_add_2":"下葭原町"},"6620974":{"post_code":"6620974","prefecture":"HYOGO KEN","city":"NISHINOMIYA SHI","town":"SHAKECHO","perfecture_jp":"兵庫県","jp_add_1":"西宮市","jp_add_2":"社家町"},"6620004":{"post_code":"6620004","prefecture":"HYOGO KEN","city":"NISHINOMIYA SHI","town":"JURINJI","perfecture_jp":"兵庫県","jp_add_1":"西宮市","jp_add_2":"鷲林寺"},"6620003":{"post_code":"6620003","prefecture":"HYOGO KEN","city":"NISHINOMIYA SHI","town":"JURINJICHO","perfecture_jp":"兵庫県","jp_add_1":"西宮市","jp_add_2":"鷲林寺町"},"6620002":{"post_code":"6620002","prefecture":"HYOGO KEN","city":"NISHINOMIYA SHI","town":"JURINJIMINAMIMACHI","perfecture_jp":"兵庫県","jp_add_1":"西宮市","jp_add_2":"鷲林寺南町"},"6620856":{"post_code":"6620856","prefecture":"HYOGO KEN","city":"NISHINOMIYA SHI","town":"JOGABORICHO","perfecture_jp":"兵庫県","jp_add_1":"西宮市","jp_add_2":"城ケ堀町"},"6620822":{"post_code":"6620822","prefecture":"HYOGO KEN","city":"NISHINOMIYA SHI","town":"SHORAISO","perfecture_jp":"兵庫県","jp_add_1":"西宮市","jp_add_2":"松籟荘"},"6620023":{"post_code":"6620023","prefecture":"HYOGO KEN","city":"NISHINOMIYA SHI","town":"SHIROYAMA","perfecture_jp":"兵庫県","jp_add_1":"西宮市","jp_add_2":"城山"},"6620843":{"post_code":"6620843","prefecture":"HYOGO KEN","city":"NISHINOMIYA SHI","town":"JINGIKANCHO","perfecture_jp":"兵庫県","jp_add_1":"西宮市","jp_add_2":"神祇官町"},"6620013":{"post_code":"6620013","prefecture":"HYOGO KEN","city":"NISHINOMIYA SHI","town":"SHINKOYOCHO","perfecture_jp":"兵庫県","jp_add_1":"西宮市","jp_add_2":"新甲陽町"},"6620845":{"post_code":"6620845","prefecture":"HYOGO KEN","city":"NISHINOMIYA SHI","town":"SHIMMEICHO","perfecture_jp":"兵庫県","jp_add_1":"西宮市","jp_add_2":"神明町"},"6620041":{"post_code":"6620041","prefecture":"HYOGO KEN","city":"NISHINOMIYA SHI","town":"SUEHIROCHO","perfecture_jp":"兵庫県","jp_add_1":"西宮市","jp_add_2":"末広町"},"6620096":{"post_code":"6620096","prefecture":"HYOGO KEN","city":"NISHINOMIYA SHI","town":"SUMIISHICHO","perfecture_jp":"兵庫県","jp_add_1":"西宮市","jp_add_2":"角石町"},"6620913":{"post_code":"6620913","prefecture":"HYOGO KEN","city":"NISHINOMIYA SHI","town":"SOMEDONOCHO","perfecture_jp":"兵庫県","jp_add_1":"西宮市","jp_add_2":"染殿町"},"6620867":{"post_code":"6620867","prefecture":"HYOGO KEN","city":"NISHINOMIYA SHI","town":"TAISHACHO","perfecture_jp":"兵庫県","jp_add_1":"西宮市","jp_add_2":"大社町"},"6620872":{"post_code":"6620872","prefecture":"HYOGO KEN","city":"NISHINOMIYA SHI","town":"TAKAKURACHO","perfecture_jp":"兵庫県","jp_add_1":"西宮市","jp_add_2":"高座町"},"6620066":{"post_code":"6620066","prefecture":"HYOGO KEN","city":"NISHINOMIYA SHI","town":"TAKATSUKACHO","perfecture_jp":"兵庫県","jp_add_1":"西宮市","jp_add_2":"高塚町"},"6620943":{"post_code":"6620943","prefecture":"HYOGO KEN","city":"NISHINOMIYA SHI","town":"TATEISHICHO","perfecture_jp":"兵庫県","jp_add_1":"西宮市","jp_add_2":"建石町"},"6620973":{"post_code":"6620973","prefecture":"HYOGO KEN","city":"NISHINOMIYA SHI","town":"TANAKACHO","perfecture_jp":"兵庫県","jp_add_1":"西宮市","jp_add_2":"田中町"},"6620046":{"post_code":"6620046","prefecture":"HYOGO KEN","city":"NISHINOMIYA SHI","town":"CHITOSECHO","perfecture_jp":"兵庫県","jp_add_1":"西宮市","jp_add_2":"千歳町"},"6620853":{"post_code":"6620853","prefecture":"HYOGO KEN","city":"NISHINOMIYA SHI","town":"TSUDACHO","perfecture_jp":"兵庫県","jp_add_1":"西宮市","jp_add_2":"津田町"},"6620043":{"post_code":"6620043","prefecture":"HYOGO KEN","city":"NISHINOMIYA SHI","town":"TOKIWACHO","perfecture_jp":"兵庫県","jp_add_1":"西宮市","jp_add_2":"常磐町"},"6620916":{"post_code":"6620916","prefecture":"HYOGO KEN","city":"NISHINOMIYA SHI","town":"TODACHO","perfecture_jp":"兵庫県","jp_add_1":"西宮市","jp_add_2":"戸田町"},"6620065":{"post_code":"6620065","prefecture":"HYOGO KEN","city":"NISHINOMIYA SHI","town":"TONOYAMACHO","perfecture_jp":"兵庫県","jp_add_1":"西宮市","jp_add_2":"殿山町"},"6620851":{"post_code":"6620851","prefecture":"HYOGO KEN","city":"NISHINOMIYA SHI","town":"NAKASUSACHO","perfecture_jp":"兵庫県","jp_add_1":"西宮市","jp_add_2":"中須佐町"},"6620852":{"post_code":"6620852","prefecture":"HYOGO KEN","city":"NISHINOMIYA SHI","town":"NAKADONOCHO","perfecture_jp":"兵庫県","jp_add_1":"西宮市","jp_add_2":"中殿町"},"6620952":{"post_code":"6620952","prefecture":"HYOGO KEN","city":"NISHINOMIYA SHI","town":"NAKAHAMACHO","perfecture_jp":"兵庫県","jp_add_1":"西宮市","jp_add_2":"中浜町"},"6620857":{"post_code":"6620857","prefecture":"HYOGO KEN","city":"NISHINOMIYA SHI","town":"NAKAMAEDACHO","perfecture_jp":"兵庫県","jp_add_1":"西宮市","jp_add_2":"中前田町"},"6620868":{"post_code":"6620868","prefecture":"HYOGO KEN","city":"NISHINOMIYA SHI","town":"NAKAYACHO","perfecture_jp":"兵庫県","jp_add_1":"西宮市","jp_add_2":"中屋町"},"6620955":{"post_code":"6620955","prefecture":"HYOGO KEN","city":"NISHINOMIYA SHI","town":"NAKAYOSHIHARACHO","perfecture_jp":"兵庫県","jp_add_1":"西宮市","jp_add_2":"中葭原町"},"6620024":{"post_code":"6620024","prefecture":"HYOGO KEN","city":"NISHINOMIYA SHI","town":"NATSUGICHO","perfecture_jp":"兵庫県","jp_add_1":"西宮市","jp_add_2":"名次町"},"6620038":{"post_code":"6620038","prefecture":"HYOGO KEN","city":"NISHINOMIYA SHI","town":"NANGOCHO","perfecture_jp":"兵庫県","jp_add_1":"西宮市","jp_add_2":"南郷町"},"6620814":{"post_code":"6620814","prefecture":"HYOGO KEN","city":"NISHINOMIYA SHI","town":"NIGAWA GOKAYAMACHO","perfecture_jp":"兵庫県","jp_add_1":"西宮市","jp_add_2":"仁川五ケ山町"},"6620815":{"post_code":"6620815","prefecture":"HYOGO KEN","city":"NISHINOMIYA SHI","town":"NIGAWA YURINOCHO","perfecture_jp":"兵庫県","jp_add_1":"西宮市","jp_add_2":"仁川百合野町"},"6620811":{"post_code":"6620811","prefecture":"HYOGO KEN","city":"NISHINOMIYA SHI","town":"NIGAWACHO","perfecture_jp":"兵庫県","jp_add_1":"西宮市","jp_add_2":"仁川町"},"6620034":{"post_code":"6620034","prefecture":"HYOGO KEN","city":"NISHINOMIYA SHI","town":"NISHIDACHO","perfecture_jp":"兵庫県","jp_add_1":"西宮市","jp_add_2":"西田町"},"6620934":{"post_code":"6620934","prefecture":"HYOGO KEN","city":"NISHINOMIYA SHI","town":"NISHINOMIYAHAMA","perfecture_jp":"兵庫県","jp_add_1":"西宮市","jp_add_2":"西宮浜"},"6620933":{"post_code":"6620933","prefecture":"HYOGO KEN","city":"NISHINOMIYA SHI","town":"NISHIHATOCHO","perfecture_jp":"兵庫県","jp_add_1":"西宮市","jp_add_2":"西波止町"},"6620093":{"post_code":"6620093","prefecture":"HYOGO KEN","city":"NISHINOMIYA SHI","town":"NISHIHIRACHO","perfecture_jp":"兵庫県","jp_add_1":"西宮市","jp_add_2":"西平町"},"6620838":{"post_code":"6620838","prefecture":"HYOGO KEN","city":"NISHINOMIYA SHI","town":"NOTOCHO","perfecture_jp":"兵庫県","jp_add_1":"西宮市","jp_add_2":"能登町"},"6620051":{"post_code":"6620051","prefecture":"HYOGO KEN","city":"NISHINOMIYA SHI","town":"HAGOROMOCHO","perfecture_jp":"兵庫県","jp_add_1":"西宮市","jp_add_2":"羽衣町"},"6620854":{"post_code":"6620854","prefecture":"HYOGO KEN","city":"NISHINOMIYA SHI","town":"HAZETSUKACHO","perfecture_jp":"兵庫県","jp_add_1":"西宮市","jp_add_2":"櫨塚町"},"6620915":{"post_code":"6620915","prefecture":"HYOGO KEN","city":"NISHINOMIYA SHI","town":"BABACHO","perfecture_jp":"兵庫県","jp_add_1":"西宮市","jp_add_2":"馬場町"},"6620942":{"post_code":"6620942","prefecture":"HYOGO KEN","city":"NISHINOMIYA SHI","town":"HAMACHO","perfecture_jp":"兵庫県","jp_add_1":"西宮市","jp_add_2":"浜町"},"6620923":{"post_code":"6620923","prefecture":"HYOGO KEN","city":"NISHINOMIYA SHI","town":"HAMAMATSUBARACHO","perfecture_jp":"兵庫県","jp_add_1":"西宮市","jp_add_2":"浜松原町"},"6620941":{"post_code":"6620941","prefecture":"HYOGO KEN","city":"NISHINOMIYA SHI","town":"HAMAWAKICHO","perfecture_jp":"兵庫県","jp_add_1":"西宮市","jp_add_2":"浜脇町"},"6620924":{"post_code":"6620924","prefecture":"HYOGO KEN","city":"NISHINOMIYA SHI","town":"HIGASHIHAMACHO","perfecture_jp":"兵庫県","jp_add_1":"西宮市","jp_add_2":"東浜町"},"6620922":{"post_code":"6620922","prefecture":"HYOGO KEN","city":"NISHINOMIYA SHI","town":"HIGASHIMACHI","perfecture_jp":"兵庫県","jp_add_1":"西宮市","jp_add_2":"東町"},"6620094":{"post_code":"6620094","prefecture":"HYOGO KEN","city":"NISHINOMIYA SHI","town":"BISHAMONCHO","perfecture_jp":"兵庫県","jp_add_1":"西宮市","jp_add_2":"毘沙門町"},"6620084":{"post_code":"6620084","prefecture":"HYOGO KEN","city":"NISHINOMIYA SHI","town":"HINOIKECHO","perfecture_jp":"兵庫県","jp_add_1":"西宮市","jp_add_2":"樋之池町"},"6620835":{"post_code":"6620835","prefecture":"HYOGO KEN","city":"NISHINOMIYA SHI","town":"HIRAKICHO","perfecture_jp":"兵庫県","jp_add_1":"西宮市","jp_add_2":"平木町"},"6620044":{"post_code":"6620044","prefecture":"HYOGO KEN","city":"NISHINOMIYA SHI","town":"HIRAMATSUCHO","perfecture_jp":"兵庫県","jp_add_1":"西宮市","jp_add_2":"平松町"},"6620837":{"post_code":"6620837","prefecture":"HYOGO KEN","city":"NISHINOMIYA SHI","town":"HIROTACHO","perfecture_jp":"兵庫県","jp_add_1":"西宮市","jp_add_2":"広田町"},"6620067":{"post_code":"6620067","prefecture":"HYOGO KEN","city":"NISHINOMIYA SHI","town":"FUKATANICHO","perfecture_jp":"兵庫県","jp_add_1":"西宮市","jp_add_2":"深谷町"},"6620042":{"post_code":"6620042","prefecture":"HYOGO KEN","city":"NISHINOMIYA SHI","town":"BUNDOCHO","perfecture_jp":"兵庫県","jp_add_1":"西宮市","jp_add_2":"分銅町"},"6620072":{"post_code":"6620072","prefecture":"HYOGO KEN","city":"NISHINOMIYA SHI","town":"HORAKUCHO","perfecture_jp":"兵庫県","jp_add_1":"西宮市","jp_add_2":"豊楽町"},"6620953":{"post_code":"6620953","prefecture":"HYOGO KEN","city":"NISHINOMIYA SHI","town":"HORIKIRICHO","perfecture_jp":"兵庫県","jp_add_1":"西宮市","jp_add_2":"堀切町"},"6620914":{"post_code":"6620914","prefecture":"HYOGO KEN","city":"NISHINOMIYA SHI","town":"HOMMACHI","perfecture_jp":"兵庫県","jp_add_1":"西宮市","jp_add_2":"本町"},"6620931":{"post_code":"6620931","prefecture":"HYOGO KEN","city":"NISHINOMIYA SHI","town":"MAEHAMACHO","perfecture_jp":"兵庫県","jp_add_1":"西宮市","jp_add_2":"前浜町"},"6620076":{"post_code":"6620076","prefecture":"HYOGO KEN","city":"NISHINOMIYA SHI","town":"MATSUOICHO","perfecture_jp":"兵庫県","jp_add_1":"西宮市","jp_add_2":"松生町"},"6620073":{"post_code":"6620073","prefecture":"HYOGO KEN","city":"NISHINOMIYA SHI","town":"MATSUKAZECHO","perfecture_jp":"兵庫県","jp_add_1":"西宮市","jp_add_2":"松風町"},"6620061":{"post_code":"6620061","prefecture":"HYOGO KEN","city":"NISHINOMIYA SHI","town":"MATSUGAOKACHO","perfecture_jp":"兵庫県","jp_add_1":"西宮市","jp_add_2":"松ケ丘町"},"6620962":{"post_code":"6620962","prefecture":"HYOGO KEN","city":"NISHINOMIYA SHI","town":"MATSUSHITACHO","perfecture_jp":"兵庫県","jp_add_1":"西宮市","jp_add_2":"松下町"},"6620053":{"post_code":"6620053","prefecture":"HYOGO KEN","city":"NISHINOMIYA SHI","town":"MATSUZONOCHO","perfecture_jp":"兵庫県","jp_add_1":"西宮市","jp_add_2":"松園町"},"6620912":{"post_code":"6620912","prefecture":"HYOGO KEN","city":"NISHINOMIYA SHI","town":"MATSUBARACHO","perfecture_jp":"兵庫県","jp_add_1":"西宮市","jp_add_2":"松原町"},"6620831":{"post_code":"6620831","prefecture":"HYOGO KEN","city":"NISHINOMIYA SHI","town":"MARUHASHICHO","perfecture_jp":"兵庫県","jp_add_1":"西宮市","jp_add_2":"丸橋町"},"6620031":{"post_code":"6620031","prefecture":"HYOGO KEN","city":"NISHINOMIYA SHI","town":"MANCHIDANICHO","perfecture_jp":"兵庫県","jp_add_1":"西宮市","jp_add_2":"満池谷町"},"6620095":{"post_code":"6620095","prefecture":"HYOGO KEN","city":"NISHINOMIYA SHI","town":"MISAKUCHO","perfecture_jp":"兵庫県","jp_add_1":"西宮市","jp_add_2":"美作町"},"6620075":{"post_code":"6620075","prefecture":"HYOGO KEN","city":"NISHINOMIYA SHI","town":"MINAMIKOSHIKIIWACHO","perfecture_jp":"兵庫県","jp_add_1":"西宮市","jp_add_2":"南越木岩町"},"6620834":{"post_code":"6620834","prefecture":"HYOGO KEN","city":"NISHINOMIYA SHI","town":"MINAMISHOWACHO","perfecture_jp":"兵庫県","jp_add_1":"西宮市","jp_add_2":"南昭和町"},"6620976":{"post_code":"6620976","prefecture":"HYOGO KEN","city":"NISHINOMIYA SHI","town":"MIYANISHICHO","perfecture_jp":"兵庫県","jp_add_1":"西宮市","jp_add_2":"宮西町"},"6620947":{"post_code":"6620947","prefecture":"HYOGO KEN","city":"NISHINOMIYA SHI","town":"MIYAMAECHO","perfecture_jp":"兵庫県","jp_add_1":"西宮市","jp_add_2":"宮前町"},"6620863":{"post_code":"6620863","prefecture":"HYOGO KEN","city":"NISHINOMIYA SHI","town":"MUROKAWACHO","perfecture_jp":"兵庫県","jp_add_1":"西宮市","jp_add_2":"室川町"},"6620846":{"post_code":"6620846","prefecture":"HYOGO KEN","city":"NISHINOMIYA SHI","town":"MORISHITACHO","perfecture_jp":"兵庫県","jp_add_1":"西宮市","jp_add_2":"森下町"},"6620826":{"post_code":"6620826","prefecture":"HYOGO KEN","city":"NISHINOMIYA SHI","town":"MONDO OKADACHO","perfecture_jp":"兵庫県","jp_add_1":"西宮市","jp_add_2":"門戸岡田町"},"6620824":{"post_code":"6620824","prefecture":"HYOGO KEN","city":"NISHINOMIYA SHI","town":"MONDO HIGASHIMACHI","perfecture_jp":"兵庫県","jp_add_1":"西宮市","jp_add_2":"門戸東町"},"6620828":{"post_code":"6620828","prefecture":"HYOGO KEN","city":"NISHINOMIYA SHI","town":"MONDO NISHIMACHI","perfecture_jp":"兵庫県","jp_add_1":"西宮市","jp_add_2":"門戸西町"},"6620825":{"post_code":"6620825","prefecture":"HYOGO KEN","city":"NISHINOMIYA SHI","town":"MONDOSO","perfecture_jp":"兵庫県","jp_add_1":"西宮市","jp_add_2":"門戸荘"},"6620963":{"post_code":"6620963","prefecture":"HYOGO KEN","city":"NISHINOMIYA SHI","town":"YASHIKICHO","perfecture_jp":"兵庫県","jp_add_1":"西宮市","jp_add_2":"屋敷町"},"6620045":{"post_code":"6620045","prefecture":"HYOGO KEN","city":"NISHINOMIYA SHI","town":"YASUICHO","perfecture_jp":"兵庫県","jp_add_1":"西宮市","jp_add_2":"安井町"},"6620866":{"post_code":"6620866","prefecture":"HYOGO KEN","city":"NISHINOMIYA SHI","town":"YANAGIMOTOCHO","perfecture_jp":"兵庫県","jp_add_1":"西宮市","jp_add_2":"柳本町"},"6620005":{"post_code":"6620005","prefecture":"HYOGO KEN","city":"NISHINOMIYA SHI","town":"YUNOMOTOCHO","perfecture_jp":"兵庫県","jp_add_1":"西宮市","jp_add_2":"湯元町"},"6620964":{"post_code":"6620964","prefecture":"HYOGO KEN","city":"NISHINOMIYA SHI","town":"YUBACHO","perfecture_jp":"兵庫県","jp_add_1":"西宮市","jp_add_2":"弓場町"},"6620921":{"post_code":"6620921","prefecture":"HYOGO KEN","city":"NISHINOMIYA SHI","town":"YOGAICHO","perfecture_jp":"兵庫県","jp_add_1":"西宮市","jp_add_2":"用海町"},"6620917":{"post_code":"6620917","prefecture":"HYOGO KEN","city":"NISHINOMIYA SHI","town":"YOKOMICHICHO","perfecture_jp":"兵庫県","jp_add_1":"西宮市","jp_add_2":"与古道町"},"6620841":{"post_code":"6620841","prefecture":"HYOGO KEN","city":"NISHINOMIYA SHI","town":"RYODOCHO","perfecture_jp":"兵庫県","jp_add_1":"西宮市","jp_add_2":"両度町"},"6620918":{"post_code":"6620918","prefecture":"HYOGO KEN","city":"NISHINOMIYA SHI","town":"ROKUTANJICHO","perfecture_jp":"兵庫県","jp_add_1":"西宮市","jp_add_2":"六湛寺町"},"6620874":{"post_code":"6620874","prefecture":"HYOGO KEN","city":"NISHINOMIYA SHI","town":"ROKKENCHO","perfecture_jp":"兵庫県","jp_add_1":"西宮市","jp_add_2":"六軒町"},"6620035":{"post_code":"6620035","prefecture":"HYOGO KEN","city":"NISHINOMIYA SHI","town":"WAKAMATSUCHO","perfecture_jp":"兵庫県","jp_add_1":"西宮市","jp_add_2":"若松町"},"6620971":{"post_code":"6620971","prefecture":"HYOGO KEN","city":"NISHINOMIYA SHI","town":"WAJOCHO","perfecture_jp":"兵庫県","jp_add_1":"西宮市","jp_add_2":"和上町"}}