{"6638186":{"post_code":"6638186","prefecture":"HYOGO KEN","city":"NISHINOMIYA SHI","town":"AGENARUOCHO","perfecture_jp":"兵庫県","jp_add_1":"西宮市","jp_add_2":"上鳴尾町"},"6638025":{"post_code":"6638025","prefecture":"HYOGO KEN","city":"NISHINOMIYA SHI","town":"ARAKICHO","perfecture_jp":"兵庫県","jp_add_1":"西宮市","jp_add_2":"荒木町"},"6638137":{"post_code":"6638137","prefecture":"HYOGO KEN","city":"NISHINOMIYA SHI","town":"IKEBIRAKICHO","perfecture_jp":"兵庫県","jp_add_1":"西宮市","jp_add_2":"池開町"},"6638002":{"post_code":"6638002","prefecture":"HYOGO KEN","city":"NISHINOMIYA SHI","town":"ICHIRIYAMACHO","perfecture_jp":"兵庫県","jp_add_1":"西宮市","jp_add_2":"一里山町"},"6638214":{"post_code":"6638214","prefecture":"HYOGO KEN","city":"NISHINOMIYA SHI","town":"IMAZU AKEBONOCHO","perfecture_jp":"兵庫県","jp_add_1":"西宮市","jp_add_2":"今津曙町"},"6638213":{"post_code":"6638213","prefecture":"HYOGO KEN","city":"NISHINOMIYA SHI","town":"IMAZU UENOCHO","perfecture_jp":"兵庫県","jp_add_1":"西宮市","jp_add_2":"今津上野町"},"6638221":{"post_code":"6638221","prefecture":"HYOGO KEN","city":"NISHINOMIYA SHI","town":"IMAZU OHIGASHICHO","perfecture_jp":"兵庫県","jp_add_1":"西宮市","jp_add_2":"今津大東町"},"6638222":{"post_code":"6638222","prefecture":"HYOGO KEN","city":"NISHINOMIYA SHI","town":"IMAZU KUSUGAWACHO","perfecture_jp":"兵庫県","jp_add_1":"西宮市","jp_add_2":"今津久寿川町"},"6638229":{"post_code":"6638229","prefecture":"HYOGO KEN","city":"NISHINOMIYA SHI","town":"IMAZU SHAZENCHO","perfecture_jp":"兵庫県","jp_add_1":"西宮市","jp_add_2":"今津社前町"},"6638223":{"post_code":"6638223","prefecture":"HYOGO KEN","city":"NISHINOMIYA SHI","town":"IMAZU TATSUMICHO","perfecture_jp":"兵庫県","jp_add_1":"西宮市","jp_add_2":"今津巽町"},"6638227":{"post_code":"6638227","prefecture":"HYOGO KEN","city":"NISHINOMIYA SHI","town":"IMAZU DEZAIKECHO","perfecture_jp":"兵庫県","jp_add_1":"西宮市","jp_add_2":"今津出在家町"},"6638225":{"post_code":"6638225","prefecture":"HYOGO KEN","city":"NISHINOMIYA SHI","town":"IMAZU NISHIHAMACHO","perfecture_jp":"兵庫県","jp_add_1":"西宮市","jp_add_2":"今津西浜町"},"6638212":{"post_code":"6638212","prefecture":"HYOGO KEN","city":"NISHINOMIYA SHI","town":"IMAZU NODACHO","perfecture_jp":"兵庫県","jp_add_1":"西宮市","jp_add_2":"今津野田町"},"6638228":{"post_code":"6638228","prefecture":"HYOGO KEN","city":"NISHINOMIYA SHI","town":"IMAZU FUTABACHO","perfecture_jp":"兵庫県","jp_add_1":"西宮市","jp_add_2":"今津二葉町"},"6638224":{"post_code":"6638224","prefecture":"HYOGO KEN","city":"NISHINOMIYA SHI","town":"IMAZU MASAGOCHO","perfecture_jp":"兵庫県","jp_add_1":"西宮市","jp_add_2":"今津真砂町"},"6638215":{"post_code":"6638215","prefecture":"HYOGO KEN","city":"NISHINOMIYA SHI","town":"IMAZU MIZUNAMICHO","perfecture_jp":"兵庫県","jp_add_1":"西宮市","jp_add_2":"今津水波町"},"6638226":{"post_code":"6638226","prefecture":"HYOGO KEN","city":"NISHINOMIYA SHI","town":"IMAZU MINATOCHO","perfecture_jp":"兵庫県","jp_add_1":"西宮市","jp_add_2":"今津港町"},"6638211":{"post_code":"6638211","prefecture":"HYOGO KEN","city":"NISHINOMIYA SHI","town":"IMAZU YAMANAKACHO","perfecture_jp":"兵庫県","jp_add_1":"西宮市","jp_add_2":"今津山中町"},"6638134":{"post_code":"6638134","prefecture":"HYOGO KEN","city":"NISHINOMIYA SHI","town":"UEDA NAKAMACHI","perfecture_jp":"兵庫県","jp_add_1":"西宮市","jp_add_2":"上田中町"},"6638133":{"post_code":"6638133","prefecture":"HYOGO KEN","city":"NISHINOMIYA SHI","town":"UEDA HIGASHIMACHI","perfecture_jp":"兵庫県","jp_add_1":"西宮市","jp_add_2":"上田東町"},"6638135":{"post_code":"6638135","prefecture":"HYOGO KEN","city":"NISHINOMIYA SHI","town":"UEDA NISHIMACHI","perfecture_jp":"兵庫県","jp_add_1":"西宮市","jp_add_2":"上田西町"},"6638143":{"post_code":"6638143","prefecture":"HYOGO KEN","city":"NISHINOMIYA SHI","town":"EDAGAWACHO","perfecture_jp":"兵庫県","jp_add_1":"西宮市","jp_add_2":"枝川町"},"6638017":{"post_code":"6638017","prefecture":"HYOGO KEN","city":"NISHINOMIYA SHI","town":"OSHIMACHO","perfecture_jp":"兵庫県","jp_add_1":"西宮市","jp_add_2":"大島町"},"6638023":{"post_code":"6638023","prefecture":"HYOGO KEN","city":"NISHINOMIYA SHI","town":"OMORICHO","perfecture_jp":"兵庫県","jp_add_1":"西宮市","jp_add_2":"大森町"},"6638106":{"post_code":"6638106","prefecture":"HYOGO KEN","city":"NISHINOMIYA SHI","town":"OYACHO","perfecture_jp":"兵庫県","jp_add_1":"西宮市","jp_add_2":"大屋町"},"6638182":{"post_code":"6638182","prefecture":"HYOGO KEN","city":"NISHINOMIYA SHI","town":"GAKUBUNDENCHO","perfecture_jp":"兵庫県","jp_add_1":"西宮市","jp_add_2":"学文殿町"},"6638136":{"post_code":"6638136","prefecture":"HYOGO KEN","city":"NISHINOMIYA SHI","town":"KASAYACHO","perfecture_jp":"兵庫県","jp_add_1":"西宮市","jp_add_2":"笠屋町"},"6638003":{"post_code":"6638003","prefecture":"HYOGO KEN","city":"NISHINOMIYA SHI","town":"KAMIOICHI","perfecture_jp":"兵庫県","jp_add_1":"西宮市","jp_add_2":"上大市"},"6638114":{"post_code":"6638114","prefecture":"HYOGO KEN","city":"NISHINOMIYA SHI","town":"KAMIKOSHIEN","perfecture_jp":"兵庫県","jp_add_1":"西宮市","jp_add_2":"上甲子園"},"6638021":{"post_code":"6638021","prefecture":"HYOGO KEN","city":"NISHINOMIYA SHI","town":"KAMINOCHO","perfecture_jp":"兵庫県","jp_add_1":"西宮市","jp_add_2":"上之町"},"6638107":{"post_code":"6638107","prefecture":"HYOGO KEN","city":"NISHINOMIYA SHI","town":"KAWARABAYASHICHO","perfecture_jp":"兵庫県","jp_add_1":"西宮市","jp_add_2":"瓦林町"},"6638035":{"post_code":"6638035","prefecture":"HYOGO KEN","city":"NISHINOMIYA SHI","town":"KITAGUCHICHO","perfecture_jp":"兵庫県","jp_add_1":"西宮市","jp_add_2":"北口町"},"6638103":{"post_code":"6638103","prefecture":"HYOGO KEN","city":"NISHINOMIYA SHI","town":"KUMANOCHO","perfecture_jp":"兵庫県","jp_add_1":"西宮市","jp_add_2":"熊野町"},"6638156":{"post_code":"6638156","prefecture":"HYOGO KEN","city":"NISHINOMIYA SHI","town":"KOSHIEN ABIKICHO","perfecture_jp":"兵庫県","jp_add_1":"西宮市","jp_add_2":"甲子園網引町"},"6638165":{"post_code":"6638165","prefecture":"HYOGO KEN","city":"NISHINOMIYA SHI","town":"KOSHIEN URAKAZECHO","perfecture_jp":"兵庫県","jp_add_1":"西宮市","jp_add_2":"甲子園浦風町"},"6638151":{"post_code":"6638151","prefecture":"HYOGO KEN","city":"NISHINOMIYA SHI","town":"KOSHIEN SUDORICHO","perfecture_jp":"兵庫県","jp_add_1":"西宮市","jp_add_2":"甲子園洲鳥町"},"6638162":{"post_code":"6638162","prefecture":"HYOGO KEN","city":"NISHINOMIYA SHI","town":"KOSHIEN SUNADACHO","perfecture_jp":"兵庫県","jp_add_1":"西宮市","jp_add_2":"甲子園砂田町"},"6638166":{"post_code":"6638166","prefecture":"HYOGO KEN","city":"NISHINOMIYA SHI","town":"KOSHIEN TAKASHIOCHO","perfecture_jp":"兵庫県","jp_add_1":"西宮市","jp_add_2":"甲子園高潮町"},"6638167":{"post_code":"6638167","prefecture":"HYOGO KEN","city":"NISHINOMIYA SHI","town":"KOSHIEN HAMADACHO","perfecture_jp":"兵庫県","jp_add_1":"西宮市","jp_add_2":"甲子園浜田町"},"6638161":{"post_code":"6638161","prefecture":"HYOGO KEN","city":"NISHINOMIYA SHI","town":"KOSHIEN HARUKAZECHO","perfecture_jp":"兵庫県","jp_add_1":"西宮市","jp_add_2":"甲子園春風町"},"6638163":{"post_code":"6638163","prefecture":"HYOGO KEN","city":"NISHINOMIYA SHI","town":"KOSHIEN MIHOCHO","perfecture_jp":"兵庫県","jp_add_1":"西宮市","jp_add_2":"甲子園三保町"},"6638164":{"post_code":"6638164","prefecture":"HYOGO KEN","city":"NISHINOMIYA SHI","town":"KOSHIEN ROKKOKUCHO","perfecture_jp":"兵庫県","jp_add_1":"西宮市","jp_add_2":"甲子園六石町"},"6638171":{"post_code":"6638171","prefecture":"HYOGO KEN","city":"NISHINOMIYA SHI","town":"KOSHIEN 1-BANCHO","perfecture_jp":"兵庫県","jp_add_1":"西宮市","jp_add_2":"甲子園一番町"},"6638172":{"post_code":"6638172","prefecture":"HYOGO KEN","city":"NISHINOMIYA SHI","town":"KOSHIEN 2-BANCHO","perfecture_jp":"兵庫県","jp_add_1":"西宮市","jp_add_2":"甲子園二番町"},"6638173":{"post_code":"6638173","prefecture":"HYOGO KEN","city":"NISHINOMIYA SHI","town":"KOSHIEN 3-BANCHO","perfecture_jp":"兵庫県","jp_add_1":"西宮市","jp_add_2":"甲子園三番町"},"6638174":{"post_code":"6638174","prefecture":"HYOGO KEN","city":"NISHINOMIYA SHI","town":"KOSHIEN 4-BANCHO","perfecture_jp":"兵庫県","jp_add_1":"西宮市","jp_add_2":"甲子園四番町"},"6638175":{"post_code":"6638175","prefecture":"HYOGO KEN","city":"NISHINOMIYA SHI","town":"KOSHIEN 5-BANCHO","perfecture_jp":"兵庫県","jp_add_1":"西宮市","jp_add_2":"甲子園五番町"},"6638176":{"post_code":"6638176","prefecture":"HYOGO KEN","city":"NISHINOMIYA SHI","town":"KOSHIEN 6-BANCHO","perfecture_jp":"兵庫県","jp_add_1":"西宮市","jp_add_2":"甲子園六番町"},"6638177":{"post_code":"6638177","prefecture":"HYOGO KEN","city":"NISHINOMIYA SHI","town":"KOSHIEN 7-BANCHO","perfecture_jp":"兵庫県","jp_add_1":"西宮市","jp_add_2":"甲子園七番町"},"6638178":{"post_code":"6638178","prefecture":"HYOGO KEN","city":"NISHINOMIYA SHI","town":"KOSHIEN 8-BANCHO","perfecture_jp":"兵庫県","jp_add_1":"西宮市","jp_add_2":"甲子園八番町"},"6638179":{"post_code":"6638179","prefecture":"HYOGO KEN","city":"NISHINOMIYA SHI","town":"KOSHIEN 9-BANCHO","perfecture_jp":"兵庫県","jp_add_1":"西宮市","jp_add_2":"甲子園九番町"},"6638113":{"post_code":"6638113","prefecture":"HYOGO KEN","city":"NISHINOMIYA SHI","town":"KOSHIENGUCHI","perfecture_jp":"兵庫県","jp_add_1":"西宮市","jp_add_2":"甲子園口"},"6638112":{"post_code":"6638112","prefecture":"HYOGO KEN","city":"NISHINOMIYA SHI","town":"KOSHIENGUCHIKITAMACHI","perfecture_jp":"兵庫県","jp_add_1":"西宮市","jp_add_2":"甲子園口北町"},"6638152":{"post_code":"6638152","prefecture":"HYOGO KEN","city":"NISHINOMIYA SHI","town":"KOSHIENCHO","perfecture_jp":"兵庫県","jp_add_1":"西宮市","jp_add_2":"甲子園町"},"6638155":{"post_code":"6638155","prefecture":"HYOGO KEN","city":"NISHINOMIYA SHI","town":"KOSHIENHAMA","perfecture_jp":"兵庫県","jp_add_1":"西宮市","jp_add_2":"甲子園浜"},"6638122":{"post_code":"6638122","prefecture":"HYOGO KEN","city":"NISHINOMIYA SHI","town":"KOSONECHO","perfecture_jp":"兵庫県","jp_add_1":"西宮市","jp_add_2":"小曽根町"},"6638123":{"post_code":"6638123","prefecture":"HYOGO KEN","city":"NISHINOMIYA SHI","town":"KOMATSU HIGASHIMACHI","perfecture_jp":"兵庫県","jp_add_1":"西宮市","jp_add_2":"小松東町"},"6638125":{"post_code":"6638125","prefecture":"HYOGO KEN","city":"NISHINOMIYA SHI","town":"KOMATSU NISHIMACHI","perfecture_jp":"兵庫県","jp_add_1":"西宮市","jp_add_2":"小松西町"},"6638124":{"post_code":"6638124","prefecture":"HYOGO KEN","city":"NISHINOMIYA SHI","town":"KOMATSU MINAMIMACHI","perfecture_jp":"兵庫県","jp_add_1":"西宮市","jp_add_2":"小松南町"},"6638126":{"post_code":"6638126","prefecture":"HYOGO KEN","city":"NISHINOMIYA SHI","town":"KOMATSU KITAMACHI","perfecture_jp":"兵庫県","jp_add_1":"西宮市","jp_add_2":"小松北町"},"6638127":{"post_code":"6638127","prefecture":"HYOGO KEN","city":"NISHINOMIYA SHI","town":"KOMATSUCHO","perfecture_jp":"兵庫県","jp_add_1":"西宮市","jp_add_2":"小松町"},"6638183":{"post_code":"6638183","prefecture":"HYOGO KEN","city":"NISHINOMIYA SHI","town":"SATONAKACHO","perfecture_jp":"兵庫県","jp_add_1":"西宮市","jp_add_2":"里中町"},"6638004":{"post_code":"6638004","prefecture":"HYOGO KEN","city":"NISHINOMIYA SHI","town":"SHIMOOICHI HIGASHIMACHI","perfecture_jp":"兵庫県","jp_add_1":"西宮市","jp_add_2":"下大市東町"},"6638005":{"post_code":"6638005","prefecture":"HYOGO KEN","city":"NISHINOMIYA SHI","town":"SHIMOOICHI NISHIMACHI","perfecture_jp":"兵庫県","jp_add_1":"西宮市","jp_add_2":"下大市西町"},"6638033":{"post_code":"6638033","prefecture":"HYOGO KEN","city":"NISHINOMIYA SHI","town":"TAKAGI HIGASHIMACHI","perfecture_jp":"兵庫県","jp_add_1":"西宮市","jp_add_2":"高木東町"},"6638032":{"post_code":"6638032","prefecture":"HYOGO KEN","city":"NISHINOMIYA SHI","town":"TAKAGI NISHIMACHI","perfecture_jp":"兵庫県","jp_add_1":"西宮市","jp_add_2":"高木西町"},"6638141":{"post_code":"6638141","prefecture":"HYOGO KEN","city":"NISHINOMIYA SHI","town":"TAKASUCHO","perfecture_jp":"兵庫県","jp_add_1":"西宮市","jp_add_2":"高須町"},"6638202":{"post_code":"6638202","prefecture":"HYOGO KEN","city":"NISHINOMIYA SHI","town":"TAKAHATACHO","perfecture_jp":"兵庫県","jp_add_1":"西宮市","jp_add_2":"高畑町"},"6638204":{"post_code":"6638204","prefecture":"HYOGO KEN","city":"NISHINOMIYA SHI","town":"TAKAMATSUCHO","perfecture_jp":"兵庫県","jp_add_1":"西宮市","jp_add_2":"高松町"},"6638201":{"post_code":"6638201","prefecture":"HYOGO KEN","city":"NISHINOMIYA SHI","town":"TASHIROCHO","perfecture_jp":"兵庫県","jp_add_1":"西宮市","jp_add_2":"田代町"},"6638001":{"post_code":"6638001","prefecture":"HYOGO KEN","city":"NISHINOMIYA SHI","town":"TAJIKANOCHO","perfecture_jp":"兵庫県","jp_add_1":"西宮市","jp_add_2":"田近野町"},"6638006":{"post_code":"6638006","prefecture":"HYOGO KEN","city":"NISHINOMIYA SHI","town":"DANJOCHO","perfecture_jp":"兵庫県","jp_add_1":"西宮市","jp_add_2":"段上町"},"6638012":{"post_code":"6638012","prefecture":"HYOGO KEN","city":"NISHINOMIYA SHI","town":"TSUTSUMICHO","perfecture_jp":"兵庫県","jp_add_1":"西宮市","jp_add_2":"堤町"},"6638244":{"post_code":"6638244","prefecture":"HYOGO KEN","city":"NISHINOMIYA SHI","town":"TSUTO AYAHACHO","perfecture_jp":"兵庫県","jp_add_1":"西宮市","jp_add_2":"津門綾羽町"},"6638242":{"post_code":"6638242","prefecture":"HYOGO KEN","city":"NISHINOMIYA SHI","town":"TSUTO IIDENCHO","perfecture_jp":"兵庫県","jp_add_1":"西宮市","jp_add_2":"津門飯田町"},"6638247":{"post_code":"6638247","prefecture":"HYOGO KEN","city":"NISHINOMIYA SHI","town":"TSUTO INARICHO","perfecture_jp":"兵庫県","jp_add_1":"西宮市","jp_add_2":"津門稲荷町"},"6638243":{"post_code":"6638243","prefecture":"HYOGO KEN","city":"NISHINOMIYA SHI","town":"TSUTO OGOCHO","perfecture_jp":"兵庫県","jp_add_1":"西宮市","jp_add_2":"津門大箇町"},"6638241":{"post_code":"6638241","prefecture":"HYOGO KEN","city":"NISHINOMIYA SHI","town":"TSUTO OTSUKACHO","perfecture_jp":"兵庫県","jp_add_1":"西宮市","jp_add_2":"津門大塚町"},"6638245":{"post_code":"6638245","prefecture":"HYOGO KEN","city":"NISHINOMIYA SHI","town":"TSUTO KUREHACHO","perfecture_jp":"兵庫県","jp_add_1":"西宮市","jp_add_2":"津門呉羽町"},"6638234":{"post_code":"6638234","prefecture":"HYOGO KEN","city":"NISHINOMIYA SHI","town":"TSUTO SUMIECHO","perfecture_jp":"兵庫県","jp_add_1":"西宮市","jp_add_2":"津門住江町"},"6638231":{"post_code":"6638231","prefecture":"HYOGO KEN","city":"NISHINOMIYA SHI","town":"TSUTO NISHIGUCHICHO","perfecture_jp":"兵庫県","jp_add_1":"西宮市","jp_add_2":"津門西口町"},"6638246":{"post_code":"6638246","prefecture":"HYOGO KEN","city":"NISHINOMIYA SHI","town":"TSUTO NIBECHO","perfecture_jp":"兵庫県","jp_add_1":"西宮市","jp_add_2":"津門仁辺町"},"6638232":{"post_code":"6638232","prefecture":"HYOGO KEN","city":"NISHINOMIYA SHI","town":"TSUTO HOZUCHO","perfecture_jp":"兵庫県","jp_add_1":"西宮市","jp_add_2":"津門宝津町"},"6638233":{"post_code":"6638233","prefecture":"HYOGO KEN","city":"NISHINOMIYA SHI","town":"TSUTOGAWACHO","perfecture_jp":"兵庫県","jp_add_1":"西宮市","jp_add_2":"津門川町"},"6638104":{"post_code":"6638104","prefecture":"HYOGO KEN","city":"NISHINOMIYA SHI","town":"TENDOCHO","perfecture_jp":"兵庫県","jp_add_1":"西宮市","jp_add_2":"天道町"},"6638121":{"post_code":"6638121","prefecture":"HYOGO KEN","city":"NISHINOMIYA SHI","town":"TOZAKICHO","perfecture_jp":"兵庫県","jp_add_1":"西宮市","jp_add_2":"戸崎町"},"6638105":{"post_code":"6638105","prefecture":"HYOGO KEN","city":"NISHINOMIYA SHI","town":"NAKAJIMACHO","perfecture_jp":"兵庫県","jp_add_1":"西宮市","jp_add_2":"中島町"},"6638034":{"post_code":"6638034","prefecture":"HYOGO KEN","city":"NISHINOMIYA SHI","town":"NAGATACHO","perfecture_jp":"兵庫県","jp_add_1":"西宮市","jp_add_2":"長田町"},"6638184":{"post_code":"6638184","prefecture":"HYOGO KEN","city":"NISHINOMIYA SHI","town":"NARUOCHO","perfecture_jp":"兵庫県","jp_add_1":"西宮市","jp_add_2":"鳴尾町"},"6638142":{"post_code":"6638142","prefecture":"HYOGO KEN","city":"NISHINOMIYA SHI","town":"NARUOHAMA","perfecture_jp":"兵庫県","jp_add_1":"西宮市","jp_add_2":"鳴尾浜"},"6638015":{"post_code":"6638015","prefecture":"HYOGO KEN","city":"NISHINOMIYA SHI","town":"NOMACHO","perfecture_jp":"兵庫県","jp_add_1":"西宮市","jp_add_2":"野間町"},"6638187":{"post_code":"6638187","prefecture":"HYOGO KEN","city":"NISHINOMIYA SHI","town":"HANAZONOCHO","perfecture_jp":"兵庫県","jp_add_1":"西宮市","jp_add_2":"花園町"},"6638154":{"post_code":"6638154","prefecture":"HYOGO KEN","city":"NISHINOMIYA SHI","town":"HAMAKOSHIEN","perfecture_jp":"兵庫県","jp_add_1":"西宮市","jp_add_2":"浜甲子園"},"6638014":{"post_code":"6638014","prefecture":"HYOGO KEN","city":"NISHINOMIYA SHI","town":"HAYASHIDACHO","perfecture_jp":"兵庫県","jp_add_1":"西宮市","jp_add_2":"林田町"},"6638132":{"post_code":"6638132","prefecture":"HYOGO KEN","city":"NISHINOMIYA SHI","town":"HIGASHINARUOCHO","perfecture_jp":"兵庫県","jp_add_1":"西宮市","jp_add_2":"東鳴尾町"},"6638011":{"post_code":"6638011","prefecture":"HYOGO KEN","city":"NISHINOMIYA SHI","town":"HINOKUCHICHO","perfecture_jp":"兵庫県","jp_add_1":"西宮市","jp_add_2":"樋ノ口町"},"6638022":{"post_code":"6638022","prefecture":"HYOGO KEN","city":"NISHINOMIYA SHI","town":"HINOCHO","perfecture_jp":"兵庫県","jp_add_1":"西宮市","jp_add_2":"日野町"},"6638203":{"post_code":"6638203","prefecture":"HYOGO KEN","city":"NISHINOMIYA SHI","town":"FUKAZUCHO","perfecture_jp":"兵庫県","jp_add_1":"西宮市","jp_add_2":"深津町"},"6638031":{"post_code":"6638031","prefecture":"HYOGO KEN","city":"NISHINOMIYA SHI","town":"FUSHIHARACHO","perfecture_jp":"兵庫県","jp_add_1":"西宮市","jp_add_2":"伏原町"},"6638111":{"post_code":"6638111","prefecture":"HYOGO KEN","city":"NISHINOMIYA SHI","town":"FUTAMICHO","perfecture_jp":"兵庫県","jp_add_1":"西宮市","jp_add_2":"二見町"},"6638185":{"post_code":"6638185","prefecture":"HYOGO KEN","city":"NISHINOMIYA SHI","town":"FURUKAWACHO","perfecture_jp":"兵庫県","jp_add_1":"西宮市","jp_add_2":"古川町"},"6638102":{"post_code":"6638102","prefecture":"HYOGO KEN","city":"NISHINOMIYA SHI","town":"MATSUNAMICHO","perfecture_jp":"兵庫県","jp_add_1":"西宮市","jp_add_2":"松並町"},"6638101":{"post_code":"6638101","prefecture":"HYOGO KEN","city":"NISHINOMIYA SHI","town":"MATSUYAMACHO","perfecture_jp":"兵庫県","jp_add_1":"西宮市","jp_add_2":"松山町"},"6638153":{"post_code":"6638153","prefecture":"HYOGO KEN","city":"NISHINOMIYA SHI","town":"MINAMIKOSHIEN","perfecture_jp":"兵庫県","jp_add_1":"西宮市","jp_add_2":"南甲子園"},"6638131":{"post_code":"6638131","prefecture":"HYOGO KEN","city":"NISHINOMIYA SHI","town":"MUKOGAWACHO","perfecture_jp":"兵庫県","jp_add_1":"西宮市","jp_add_2":"武庫川町"},"6638013":{"post_code":"6638013","prefecture":"HYOGO KEN","city":"NISHINOMIYA SHI","town":"MONZENCHO","perfecture_jp":"兵庫県","jp_add_1":"西宮市","jp_add_2":"門前町"},"6638024":{"post_code":"6638024","prefecture":"HYOGO KEN","city":"NISHINOMIYA SHI","town":"YAKUSHICHO","perfecture_jp":"兵庫県","jp_add_1":"西宮市","jp_add_2":"薬師町"},"6638181":{"post_code":"6638181","prefecture":"HYOGO KEN","city":"NISHINOMIYA SHI","town":"WAKAKUSACHO","perfecture_jp":"兵庫県","jp_add_1":"西宮市","jp_add_2":"若草町"},"6638016":{"post_code":"6638016","prefecture":"HYOGO KEN","city":"NISHINOMIYA SHI","town":"WAKAYAMACHO","perfecture_jp":"兵庫県","jp_add_1":"西宮市","jp_add_2":"若山町"}}