{"6640000":{"post_code":"6640000","prefecture":"HYOGO KEN","city":"ITAMI SHI","town":"IKANIKEISAIGANAIBAAI","perfecture_jp":"兵庫県","jp_add_1":"伊丹市","jp_add_2":""},"6640001":{"post_code":"6640001","prefecture":"HYOGO KEN","city":"ITAMI SHI","town":"ARAMAKI","perfecture_jp":"兵庫県","jp_add_1":"伊丹市","jp_add_2":"荒牧"},"6640008":{"post_code":"6640008","prefecture":"HYOGO KEN","city":"ITAMI SHI","town":"ARAMAKIMINAMI","perfecture_jp":"兵庫県","jp_add_1":"伊丹市","jp_add_2":"荒牧南"},"6640864":{"post_code":"6640864","prefecture":"HYOGO KEN","city":"ITAMI SHI","town":"ANDOJICHO","perfecture_jp":"兵庫県","jp_add_1":"伊丹市","jp_add_2":"安堂寺町"},"6640027":{"post_code":"6640027","prefecture":"HYOGO KEN","city":"ITAMI SHI","town":"IKEJIRI","perfecture_jp":"兵庫県","jp_add_1":"伊丹市","jp_add_2":"池尻"},"6640846":{"post_code":"6640846","prefecture":"HYOGO KEN","city":"ITAMI SHI","town":"ITAMI","perfecture_jp":"兵庫県","jp_add_1":"伊丹市","jp_add_2":"伊丹"},"6640861":{"post_code":"6640861","prefecture":"HYOGO KEN","city":"ITAMI SHI","town":"INANOCHO","perfecture_jp":"兵庫県","jp_add_1":"伊丹市","jp_add_2":"稲野町"},"6640011":{"post_code":"6640011","prefecture":"HYOGO KEN","city":"ITAMI SHI","town":"IMOJI","perfecture_jp":"兵庫県","jp_add_1":"伊丹市","jp_add_2":"鋳物師"},"6640843":{"post_code":"6640843","prefecture":"HYOGO KEN","city":"ITAMI SHI","town":"IWAYA","perfecture_jp":"兵庫県","jp_add_1":"伊丹市","jp_add_2":"岩屋"},"6640856":{"post_code":"6640856","prefecture":"HYOGO KEN","city":"ITAMI SHI","town":"UMENOKI","perfecture_jp":"兵庫県","jp_add_1":"伊丹市","jp_add_2":"梅ノ木"},"6640899":{"post_code":"6640899","prefecture":"HYOGO KEN","city":"ITAMI SHI","town":"OJIKA","perfecture_jp":"兵庫県","jp_add_1":"伊丹市","jp_add_2":"大鹿"},"6640003":{"post_code":"6640003","prefecture":"HYOGO KEN","city":"ITAMI SHI","town":"ONO","perfecture_jp":"兵庫県","jp_add_1":"伊丹市","jp_add_2":"大野"},"6640002":{"post_code":"6640002","prefecture":"HYOGO KEN","city":"ITAMI SHI","town":"OGINO","perfecture_jp":"兵庫県","jp_add_1":"伊丹市","jp_add_2":"荻野"},"6640031":{"post_code":"6640031","prefecture":"HYOGO KEN","city":"ITAMI SHI","town":"OGINONISHI","perfecture_jp":"兵庫県","jp_add_1":"伊丹市","jp_add_2":"荻野西"},"6640025":{"post_code":"6640025","prefecture":"HYOGO KEN","city":"ITAMI SHI","town":"OKUHATA","perfecture_jp":"兵庫県","jp_add_1":"伊丹市","jp_add_2":"奥畑"},"6640833":{"post_code":"6640833","prefecture":"HYOGO KEN","city":"ITAMI SHI","town":"OSAKADEN(TOGAMOTO)","perfecture_jp":"兵庫県","jp_add_1":"伊丹市","jp_add_2":"小阪田"},"6640863":{"post_code":"6640863","prefecture":"HYOGO KEN","city":"ITAMI SHI","town":"KASHIWAGICHO","perfecture_jp":"兵庫県","jp_add_1":"伊丹市","jp_add_2":"柏木町"},"6640893":{"post_code":"6640893","prefecture":"HYOGO KEN","city":"ITAMI SHI","town":"KASUGAOKA","perfecture_jp":"兵庫県","jp_add_1":"伊丹市","jp_add_2":"春日丘"},"6640831":{"post_code":"6640831","prefecture":"HYOGO KEN","city":"ITAMI SHI","town":"KITAITAMI","perfecture_jp":"兵庫県","jp_add_1":"伊丹市","jp_add_2":"北伊丹"},"6640837":{"post_code":"6640837","prefecture":"HYOGO KEN","city":"ITAMI SHI","town":"KITAGAWARA","perfecture_jp":"兵庫県","jp_add_1":"伊丹市","jp_add_2":"北河原"},"6640891":{"post_code":"6640891","prefecture":"HYOGO KEN","city":"ITAMI SHI","town":"KITAZONO","perfecture_jp":"兵庫県","jp_add_1":"伊丹市","jp_add_2":"北園"},"6640007":{"post_code":"6640007","prefecture":"HYOGO KEN","city":"ITAMI SHI","town":"KITANO","perfecture_jp":"兵庫県","jp_add_1":"伊丹市","jp_add_2":"北野"},"6640836":{"post_code":"6640836","prefecture":"HYOGO KEN","city":"ITAMI SHI","town":"KITAHOMMACHI","perfecture_jp":"兵庫県","jp_add_1":"伊丹市","jp_add_2":"北本町"},"6640857":{"post_code":"6640857","prefecture":"HYOGO KEN","city":"ITAMI SHI","town":"GYOGICHO","perfecture_jp":"兵庫県","jp_add_1":"伊丹市","jp_add_2":"行基町"},"6640844":{"post_code":"6640844","prefecture":"HYOGO KEN","city":"ITAMI SHI","town":"KUCHISAKAI","perfecture_jp":"兵庫県","jp_add_1":"伊丹市","jp_add_2":"口酒井"},"6640872":{"post_code":"6640872","prefecture":"HYOGO KEN","city":"ITAMI SHI","town":"KURUMAZUKA","perfecture_jp":"兵庫県","jp_add_1":"伊丹市","jp_add_2":"車塚"},"6640839":{"post_code":"6640839","prefecture":"HYOGO KEN","city":"ITAMI SHI","town":"KUWAZU","perfecture_jp":"兵庫県","jp_add_1":"伊丹市","jp_add_2":"桑津"},"6640006":{"post_code":"6640006","prefecture":"HYOGO KEN","city":"ITAMI SHI","town":"KONOIKE","perfecture_jp":"兵庫県","jp_add_1":"伊丹市","jp_add_2":"鴻池"},"6640855":{"post_code":"6640855","prefecture":"HYOGO KEN","city":"ITAMI SHI","town":"GOGAZUKA","perfecture_jp":"兵庫県","jp_add_1":"伊丹市","jp_add_2":"御願塚"},"6640881":{"post_code":"6640881","prefecture":"HYOGO KEN","city":"ITAMI SHI","town":"KOYA","perfecture_jp":"兵庫県","jp_add_1":"伊丹市","jp_add_2":"昆陽"},"6640015":{"post_code":"6640015","prefecture":"HYOGO KEN","city":"ITAMI SHI","town":"KOYAIKE","perfecture_jp":"兵庫県","jp_add_1":"伊丹市","jp_add_2":"昆陽池"},"6640885":{"post_code":"6640885","prefecture":"HYOGO KEN","city":"ITAMI SHI","town":"KOYAIZUMICHO","perfecture_jp":"兵庫県","jp_add_1":"伊丹市","jp_add_2":"昆陽泉町"},"6640016":{"post_code":"6640016","prefecture":"HYOGO KEN","city":"ITAMI SHI","town":"KOYAKITA","perfecture_jp":"兵庫県","jp_add_1":"伊丹市","jp_add_2":"昆陽北"},"6640886":{"post_code":"6640886","prefecture":"HYOGO KEN","city":"ITAMI SHI","town":"KOYAHIGASHI","perfecture_jp":"兵庫県","jp_add_1":"伊丹市","jp_add_2":"昆陽東"},"6640888":{"post_code":"6640888","prefecture":"HYOGO KEN","city":"ITAMI SHI","town":"KOYAMINAMI","perfecture_jp":"兵庫県","jp_add_1":"伊丹市","jp_add_2":"昆陽南"},"6640897":{"post_code":"6640897","prefecture":"HYOGO KEN","city":"ITAMI SHI","town":"SAKURAGAOKA","perfecture_jp":"兵庫県","jp_add_1":"伊丹市","jp_add_2":"桜ケ丘"},"6640894":{"post_code":"6640894","prefecture":"HYOGO KEN","city":"ITAMI SHI","town":"SHIMIZU","perfecture_jp":"兵庫県","jp_add_1":"伊丹市","jp_add_2":"清水"},"6640832":{"post_code":"6640832","prefecture":"HYOGO KEN","city":"ITAMI SHI","town":"SHIMOGAWARA","perfecture_jp":"兵庫県","jp_add_1":"伊丹市","jp_add_2":"下河原"},"6640882":{"post_code":"6640882","prefecture":"HYOGO KEN","city":"ITAMI SHI","town":"SUZUHARACHO","perfecture_jp":"兵庫県","jp_add_1":"伊丹市","jp_add_2":"鈴原町"},"6640898":{"post_code":"6640898","prefecture":"HYOGO KEN","city":"ITAMI SHI","town":"SENZO","perfecture_jp":"兵庫県","jp_add_1":"伊丹市","jp_add_2":"千僧"},"6640892":{"post_code":"6640892","prefecture":"HYOGO KEN","city":"ITAMI SHI","town":"TAKADAI","perfecture_jp":"兵庫県","jp_add_1":"伊丹市","jp_add_2":"高台"},"6640851":{"post_code":"6640851","prefecture":"HYOGO KEN","city":"ITAMI SHI","town":"CHUO","perfecture_jp":"兵庫県","jp_add_1":"伊丹市","jp_add_2":"中央"},"6640026":{"post_code":"6640026","prefecture":"HYOGO KEN","city":"ITAMI SHI","town":"TERAMOTO","perfecture_jp":"兵庫県","jp_add_1":"伊丹市","jp_add_2":"寺本"},"6640020":{"post_code":"6640020","prefecture":"HYOGO KEN","city":"ITAMI SHI","town":"TERAMOTO HIGASHI","perfecture_jp":"兵庫県","jp_add_1":"伊丹市","jp_add_2":"寺本東"},"6640022":{"post_code":"6640022","prefecture":"HYOGO KEN","city":"ITAMI SHI","town":"NAKANO HIGASHI","perfecture_jp":"兵庫県","jp_add_1":"伊丹市","jp_add_2":"中野東"},"6640023":{"post_code":"6640023","prefecture":"HYOGO KEN","city":"ITAMI SHI","town":"NAKANO NISHI","perfecture_jp":"兵庫県","jp_add_1":"伊丹市","jp_add_2":"中野西"},"6640029":{"post_code":"6640029","prefecture":"HYOGO KEN","city":"ITAMI SHI","town":"NAKANO KITA","perfecture_jp":"兵庫県","jp_add_1":"伊丹市","jp_add_2":"中野北"},"6640838":{"post_code":"6640838","prefecture":"HYOGO KEN","city":"ITAMI SHI","town":"NAKAMURA","perfecture_jp":"兵庫県","jp_add_1":"伊丹市","jp_add_2":"中村"},"6640834":{"post_code":"6640834","prefecture":"HYOGO KEN","city":"ITAMI SHI","town":"NISHIKUWAZU","perfecture_jp":"兵庫県","jp_add_1":"伊丹市","jp_add_2":"西桑津"},"6640858":{"post_code":"6640858","prefecture":"HYOGO KEN","city":"ITAMI SHI","town":"NISHIDAI","perfecture_jp":"兵庫県","jp_add_1":"伊丹市","jp_add_2":"西台"},"6640028":{"post_code":"6640028","prefecture":"HYOGO KEN","city":"ITAMI SHI","town":"NISHINO","perfecture_jp":"兵庫県","jp_add_1":"伊丹市","jp_add_2":"西野"},"6640873":{"post_code":"6640873","prefecture":"HYOGO KEN","city":"ITAMI SHI","town":"NOMA","perfecture_jp":"兵庫県","jp_add_1":"伊丹市","jp_add_2":"野間"},"6640875":{"post_code":"6640875","prefecture":"HYOGO KEN","city":"ITAMI SHI","town":"NOMAKITA","perfecture_jp":"兵庫県","jp_add_1":"伊丹市","jp_add_2":"野間北"},"6640845":{"post_code":"6640845","prefecture":"HYOGO KEN","city":"ITAMI SHI","town":"HIGASHIARIOKA","perfecture_jp":"兵庫県","jp_add_1":"伊丹市","jp_add_2":"東有岡"},"6640835":{"post_code":"6640835","prefecture":"HYOGO KEN","city":"ITAMI SHI","town":"HIGASHIKUWAZU","perfecture_jp":"兵庫県","jp_add_1":"伊丹市","jp_add_2":"東桑津"},"6640004":{"post_code":"6640004","prefecture":"HYOGO KEN","city":"ITAMI SHI","town":"HIGASHINO","perfecture_jp":"兵庫県","jp_add_1":"伊丹市","jp_add_2":"東野"},"6640853":{"post_code":"6640853","prefecture":"HYOGO KEN","city":"ITAMI SHI","town":"HIRAMATSU","perfecture_jp":"兵庫県","jp_add_1":"伊丹市","jp_add_2":"平松"},"6640014":{"post_code":"6640014","prefecture":"HYOGO KEN","city":"ITAMI SHI","town":"HIROHATA","perfecture_jp":"兵庫県","jp_add_1":"伊丹市","jp_add_2":"広畑"},"6640847":{"post_code":"6640847","prefecture":"HYOGO KEN","city":"ITAMI SHI","town":"FUJINOKI","perfecture_jp":"兵庫県","jp_add_1":"伊丹市","jp_add_2":"藤ノ木"},"6640896":{"post_code":"6640896","prefecture":"HYOGO KEN","city":"ITAMI SHI","town":"FUNAHARA","perfecture_jp":"兵庫県","jp_add_1":"伊丹市","jp_add_2":"船原"},"6640871":{"post_code":"6640871","prefecture":"HYOGO KEN","city":"ITAMI SHI","town":"HORIIKE","perfecture_jp":"兵庫県","jp_add_1":"伊丹市","jp_add_2":"堀池"},"6640024":{"post_code":"6640024","prefecture":"HYOGO KEN","city":"ITAMI SHI","town":"MATSUGAOKA","perfecture_jp":"兵庫県","jp_add_1":"伊丹市","jp_add_2":"松ケ丘"},"6640884":{"post_code":"6640884","prefecture":"HYOGO KEN","city":"ITAMI SHI","town":"MISUZUCHO","perfecture_jp":"兵庫県","jp_add_1":"伊丹市","jp_add_2":"美鈴町"},"6640017":{"post_code":"6640017","prefecture":"HYOGO KEN","city":"ITAMI SHI","town":"MIZUGAOKA","perfecture_jp":"兵庫県","jp_add_1":"伊丹市","jp_add_2":"瑞ケ丘"},"6640005":{"post_code":"6640005","prefecture":"HYOGO KEN","city":"ITAMI SHI","town":"MIZUHARA","perfecture_jp":"兵庫県","jp_add_1":"伊丹市","jp_add_2":"瑞原"},"6640013":{"post_code":"6640013","prefecture":"HYOGO KEN","city":"ITAMI SHI","town":"MIZUHOCHO","perfecture_jp":"兵庫県","jp_add_1":"伊丹市","jp_add_2":"瑞穂町"},"6640012":{"post_code":"6640012","prefecture":"HYOGO KEN","city":"ITAMI SHI","town":"MIDORIGAOKA","perfecture_jp":"兵庫県","jp_add_1":"伊丹市","jp_add_2":"緑ケ丘"},"6640883":{"post_code":"6640883","prefecture":"HYOGO KEN","city":"ITAMI SHI","town":"MINAMISUZUHARA","perfecture_jp":"兵庫県","jp_add_1":"伊丹市","jp_add_2":"南鈴原"},"6640854":{"post_code":"6640854","prefecture":"HYOGO KEN","city":"ITAMI SHI","town":"MINAMICHO","perfecture_jp":"兵庫県","jp_add_1":"伊丹市","jp_add_2":"南町"},"6640865":{"post_code":"6640865","prefecture":"HYOGO KEN","city":"ITAMI SHI","town":"MINAMINO","perfecture_jp":"兵庫県","jp_add_1":"伊丹市","jp_add_2":"南野"},"6640887":{"post_code":"6640887","prefecture":"HYOGO KEN","city":"ITAMI SHI","town":"MINAMINOKITA","perfecture_jp":"兵庫県","jp_add_1":"伊丹市","jp_add_2":"南野北"},"6640852":{"post_code":"6640852","prefecture":"HYOGO KEN","city":"ITAMI SHI","town":"MINAMIHOMMACHI","perfecture_jp":"兵庫県","jp_add_1":"伊丹市","jp_add_2":"南本町"},"6640895":{"post_code":"6640895","prefecture":"HYOGO KEN","city":"ITAMI SHI","town":"MIYANOMAE","perfecture_jp":"兵庫県","jp_add_1":"伊丹市","jp_add_2":"宮ノ前"},"6640842":{"post_code":"6640842","prefecture":"HYOGO KEN","city":"ITAMI SHI","town":"MORIMOTO","perfecture_jp":"兵庫県","jp_add_1":"伊丹市","jp_add_2":"森本"},"6640874":{"post_code":"6640874","prefecture":"HYOGO KEN","city":"ITAMI SHI","town":"YAMADA","perfecture_jp":"兵庫県","jp_add_1":"伊丹市","jp_add_2":"山田"},"6640862":{"post_code":"6640862","prefecture":"HYOGO KEN","city":"ITAMI SHI","town":"WAKABISHICHO","perfecture_jp":"兵庫県","jp_add_1":"伊丹市","jp_add_2":"若菱町"}}