{"6650000":{"post_code":"6650000","prefecture":"HYOGO KEN","city":"TAKARAZUKA SHI","town":"IKANIKEISAIGANAIBAAI","perfecture_jp":"兵庫県","jp_add_1":"宝塚市","jp_add_2":""},"6650014":{"post_code":"6650014","prefecture":"HYOGO KEN","city":"TAKARAZUKA SHI","town":"AOBADAI","perfecture_jp":"兵庫県","jp_add_1":"宝塚市","jp_add_2":"青葉台"},"6650822":{"post_code":"6650822","prefecture":"HYOGO KEN","city":"TAKARAZUKA SHI","town":"AKURA NAKA","perfecture_jp":"兵庫県","jp_add_1":"宝塚市","jp_add_2":"安倉中"},"6650825":{"post_code":"6650825","prefecture":"HYOGO KEN","city":"TAKARAZUKA SHI","town":"AKURA NISHI","perfecture_jp":"兵庫県","jp_add_1":"宝塚市","jp_add_2":"安倉西"},"6650823":{"post_code":"6650823","prefecture":"HYOGO KEN","city":"TAKARAZUKA SHI","town":"AKURA MINAMI","perfecture_jp":"兵庫県","jp_add_1":"宝塚市","jp_add_2":"安倉南"},"6650821":{"post_code":"6650821","prefecture":"HYOGO KEN","city":"TAKARAZUKA SHI","town":"AKURA KITA","perfecture_jp":"兵庫県","jp_add_1":"宝塚市","jp_add_2":"安倉北"},"6650835":{"post_code":"6650835","prefecture":"HYOGO KEN","city":"TAKARAZUKA SHI","town":"ASAHIMACHI","perfecture_jp":"兵庫県","jp_add_1":"宝塚市","jp_add_2":"旭町"},"6650851":{"post_code":"6650851","prefecture":"HYOGO KEN","city":"TAKARAZUKA SHI","town":"IZUMIGAOKA","perfecture_jp":"兵庫県","jp_add_1":"宝塚市","jp_add_2":"泉ガ丘"},"6650864":{"post_code":"6650864","prefecture":"HYOGO KEN","city":"TAKARAZUKA SHI","town":"IZUMICHO","perfecture_jp":"兵庫県","jp_add_1":"宝塚市","jp_add_2":"泉町"},"6650033":{"post_code":"6650033","prefecture":"HYOGO KEN","city":"TAKARAZUKA SHI","town":"ISOSHI","perfecture_jp":"兵庫県","jp_add_1":"宝塚市","jp_add_2":"伊孑志"},"6650007":{"post_code":"6650007","prefecture":"HYOGO KEN","city":"TAKARAZUKA SHI","town":"ISOSHI(MUKOYAMA)","perfecture_jp":"兵庫県","jp_add_1":"宝塚市","jp_add_2":"伊孑志"},"6650862":{"post_code":"6650862","prefecture":"HYOGO KEN","city":"TAKARAZUKA SHI","town":"IMAZATOCHO","perfecture_jp":"兵庫県","jp_add_1":"宝塚市","jp_add_2":"今里町"},"6650004":{"post_code":"6650004","prefecture":"HYOGO KEN","city":"TAKARAZUKA SHI","town":"UMENOCHO","perfecture_jp":"兵庫県","jp_add_1":"宝塚市","jp_add_2":"梅野町"},"6650057":{"post_code":"6650057","prefecture":"HYOGO KEN","city":"TAKARAZUKA SHI","town":"OBUKICHO","perfecture_jp":"兵庫県","jp_add_1":"宝塚市","jp_add_2":"大吹町"},"6650034":{"post_code":"6650034","prefecture":"HYOGO KEN","city":"TAKARAZUKA SHI","town":"OBAYASHI","perfecture_jp":"兵庫県","jp_add_1":"宝塚市","jp_add_2":"小林"},"6650017":{"post_code":"6650017","prefecture":"HYOGO KEN","city":"TAKARAZUKA SHI","town":"OBAYASHI NISHIYAMA","perfecture_jp":"兵庫県","jp_add_1":"宝塚市","jp_add_2":"小林西山"},"6650054":{"post_code":"6650054","prefecture":"HYOGO KEN","city":"TAKARAZUKA SHI","town":"KASHIO","perfecture_jp":"兵庫県","jp_add_1":"宝塚市","jp_add_2":"鹿塩"},"6650824":{"post_code":"6650824","prefecture":"HYOGO KEN","city":"TAKARAZUKA SHI","town":"KANAICHO","perfecture_jp":"兵庫県","jp_add_1":"宝塚市","jp_add_2":"金井町"},"6650047":{"post_code":"6650047","prefecture":"HYOGO KEN","city":"TAKARAZUKA SHI","town":"KAMEICHO","perfecture_jp":"兵庫県","jp_add_1":"宝塚市","jp_add_2":"亀井町"},"6650842":{"post_code":"6650842","prefecture":"HYOGO KEN","city":"TAKARAZUKA SHI","town":"KAWAMO","perfecture_jp":"兵庫県","jp_add_1":"宝塚市","jp_add_2":"川面"},"6650848":{"post_code":"6650848","prefecture":"HYOGO KEN","city":"TAKARAZUKA SHI","town":"KAWAMO(NAGAOYAMA)","perfecture_jp":"兵庫県","jp_add_1":"宝塚市","jp_add_2":"川面"},"6650836":{"post_code":"6650836","prefecture":"HYOGO KEN","city":"TAKARAZUKA SHI","town":"KIYOSHIKOJIN","perfecture_jp":"兵庫県","jp_add_1":"宝塚市","jp_add_2":"清荒神"},"6650808":{"post_code":"6650808","prefecture":"HYOGO KEN","city":"TAKARAZUKA SHI","town":"KIRIHATA(NAGAOSAN<SONOTA>)","perfecture_jp":"兵庫県","jp_add_1":"宝塚市","jp_add_2":"切畑"},"6650812":{"post_code":"6650812","prefecture":"HYOGO KEN","city":"TAKARAZUKA SHI","town":"KUCHITANI HIGASHI","perfecture_jp":"兵庫県","jp_add_1":"宝塚市","jp_add_2":"口谷東"},"6650813":{"post_code":"6650813","prefecture":"HYOGO KEN","city":"TAKARAZUKA SHI","town":"KUCHITANI NISHI","perfecture_jp":"兵庫県","jp_add_1":"宝塚市","jp_add_2":"口谷西"},"6650023":{"post_code":"6650023","prefecture":"HYOGO KEN","city":"TAKARAZUKA SHI","town":"KURANDO","perfecture_jp":"兵庫県","jp_add_1":"宝塚市","jp_add_2":"蔵人"},"6650832":{"post_code":"6650832","prefecture":"HYOGO KEN","city":"TAKARAZUKA SHI","town":"KOGETSUCHO","perfecture_jp":"兵庫県","jp_add_1":"宝塚市","jp_add_2":"向月町"},"6650045":{"post_code":"6650045","prefecture":"HYOGO KEN","city":"TAKARAZUKA SHI","town":"KOMYOCHO","perfecture_jp":"兵庫県","jp_add_1":"宝塚市","jp_add_2":"光明町"},"6650041":{"post_code":"6650041","prefecture":"HYOGO KEN","city":"TAKARAZUKA SHI","town":"GOSHONOMAECHO","perfecture_jp":"兵庫県","jp_add_1":"宝塚市","jp_add_2":"御所の前町"},"6650841":{"post_code":"6650841","prefecture":"HYOGO KEN","city":"TAKARAZUKA SHI","town":"GOTENYAMA","perfecture_jp":"兵庫県","jp_add_1":"宝塚市","jp_add_2":"御殿山"},"6650865":{"post_code":"6650865","prefecture":"HYOGO KEN","city":"TAKARAZUKA SHI","town":"KOTOBUKICHO","perfecture_jp":"兵庫県","jp_add_1":"宝塚市","jp_add_2":"寿町"},"6650827":{"post_code":"6650827","prefecture":"HYOGO KEN","city":"TAKARAZUKA SHI","town":"KOHAMA","perfecture_jp":"兵庫県","jp_add_1":"宝塚市","jp_add_2":"小浜"},"6650053":{"post_code":"6650053","prefecture":"HYOGO KEN","city":"TAKARAZUKA SHI","town":"KOMANOCHO","perfecture_jp":"兵庫県","jp_add_1":"宝塚市","jp_add_2":"駒の町"},"6650845":{"post_code":"6650845","prefecture":"HYOGO KEN","city":"TAKARAZUKA SHI","town":"SAKAEMACHI","perfecture_jp":"兵庫県","jp_add_1":"宝塚市","jp_add_2":"栄町"},"6650035":{"post_code":"6650035","prefecture":"HYOGO KEN","city":"TAKARAZUKA SHI","town":"SAKASEGAWA","perfecture_jp":"兵庫県","jp_add_1":"宝塚市","jp_add_2":"逆瀬川"},"6650024":{"post_code":"6650024","prefecture":"HYOGO KEN","city":"TAKARAZUKA SHI","town":"SAKASEDAI","perfecture_jp":"兵庫県","jp_add_1":"宝塚市","jp_add_2":"逆瀬台"},"6650846":{"post_code":"6650846","prefecture":"HYOGO KEN","city":"TAKARAZUKA SHI","town":"SAKURAGAOKA","perfecture_jp":"兵庫県","jp_add_1":"宝塚市","jp_add_2":"桜ガ丘"},"6650012":{"post_code":"6650012","prefecture":"HYOGO KEN","city":"TAKARAZUKA SHI","town":"JURAKUSO","perfecture_jp":"兵庫県","jp_add_1":"宝塚市","jp_add_2":"寿楽荘"},"6650052":{"post_code":"6650052","prefecture":"HYOGO KEN","city":"TAKARAZUKA SHI","town":"SHIMMEIWACHO","perfecture_jp":"兵庫県","jp_add_1":"宝塚市","jp_add_2":"新明和町"},"6650044":{"post_code":"6650044","prefecture":"HYOGO KEN","city":"TAKARAZUKA SHI","town":"SUENARICHO","perfecture_jp":"兵庫県","jp_add_1":"宝塚市","jp_add_2":"末成町"},"6650031":{"post_code":"6650031","prefecture":"HYOGO KEN","city":"TAKARAZUKA SHI","town":"SUEHIROCHO","perfecture_jp":"兵庫県","jp_add_1":"宝塚市","jp_add_2":"末広町"},"6650847":{"post_code":"6650847","prefecture":"HYOGO KEN","city":"TAKARAZUKA SHI","town":"SUMIREGAOKA","perfecture_jp":"兵庫県","jp_add_1":"宝塚市","jp_add_2":"すみれガ丘"},"6650055":{"post_code":"6650055","prefecture":"HYOGO KEN","city":"TAKARAZUKA SHI","town":"TAISEICHO","perfecture_jp":"兵庫県","jp_add_1":"宝塚市","jp_add_2":"大成町"},"6650051":{"post_code":"6650051","prefecture":"HYOGO KEN","city":"TAKARAZUKA SHI","town":"TAKATSUKASA","perfecture_jp":"兵庫県","jp_add_1":"宝塚市","jp_add_2":"高司"},"6650043":{"post_code":"6650043","prefecture":"HYOGO KEN","city":"TAKARAZUKA SHI","town":"TAKAMATSUCHO","perfecture_jp":"兵庫県","jp_add_1":"宝塚市","jp_add_2":"高松町"},"6650076":{"post_code":"6650076","prefecture":"HYOGO KEN","city":"TAKARAZUKA SHI","town":"TANIGUCHICHO","perfecture_jp":"兵庫県","jp_add_1":"宝塚市","jp_add_2":"谷口町"},"6650072":{"post_code":"6650072","prefecture":"HYOGO KEN","city":"TAKARAZUKA SHI","town":"CHIGUSA","perfecture_jp":"兵庫県","jp_add_1":"宝塚市","jp_add_2":"千種"},"6650001":{"post_code":"6650001","prefecture":"HYOGO KEN","city":"TAKARAZUKA SHI","town":"CHOJUGAOKA","perfecture_jp":"兵庫県","jp_add_1":"宝塚市","jp_add_2":"長寿ガ丘"},"6650002":{"post_code":"6650002","prefecture":"HYOGO KEN","city":"TAKARAZUKA SHI","town":"TSUKIMIYAMA","perfecture_jp":"兵庫県","jp_add_1":"宝塚市","jp_add_2":"月見山"},"6650833":{"post_code":"6650833","prefecture":"HYOGO KEN","city":"TAKARAZUKA SHI","town":"TSURUNOSO","perfecture_jp":"兵庫県","jp_add_1":"宝塚市","jp_add_2":"鶴の荘"},"6650073":{"post_code":"6650073","prefecture":"HYOGO KEN","city":"TAKARAZUKA SHI","town":"TONOCHO","perfecture_jp":"兵庫県","jp_add_1":"宝塚市","jp_add_2":"塔の町"},"6650032":{"post_code":"6650032","prefecture":"HYOGO KEN","city":"TAKARAZUKA SHI","town":"TOYOCHO","perfecture_jp":"兵庫県","jp_add_1":"宝塚市","jp_add_2":"東洋町"},"6650021":{"post_code":"6650021","prefecture":"HYOGO KEN","city":"TAKARAZUKA SHI","town":"NAKASU","perfecture_jp":"兵庫県","jp_add_1":"宝塚市","jp_add_2":"中州"},"6650874":{"post_code":"6650874","prefecture":"HYOGO KEN","city":"TAKARAZUKA SHI","town":"NAKASUJI","perfecture_jp":"兵庫県","jp_add_1":"宝塚市","jp_add_2":"中筋"},"6650872":{"post_code":"6650872","prefecture":"HYOGO KEN","city":"TAKARAZUKA SHI","town":"NAKASUJI(HIRAI)","perfecture_jp":"兵庫県","jp_add_1":"宝塚市","jp_add_2":"中筋"},"6650875":{"post_code":"6650875","prefecture":"HYOGO KEN","city":"TAKARAZUKA SHI","town":"NAKASUJIYAMATE","perfecture_jp":"兵庫県","jp_add_1":"宝塚市","jp_add_2":"中筋山手"},"6650056":{"post_code":"6650056","prefecture":"HYOGO KEN","city":"TAKARAZUKA SHI","town":"NAKANOCHO","perfecture_jp":"兵庫県","jp_add_1":"宝塚市","jp_add_2":"中野町"},"6650877":{"post_code":"6650877","prefecture":"HYOGO KEN","city":"TAKARAZUKA SHI","town":"NAKAYAMA SAKURADAI","perfecture_jp":"兵庫県","jp_add_1":"宝塚市","jp_add_2":"中山桜台"},"6650871":{"post_code":"6650871","prefecture":"HYOGO KEN","city":"TAKARAZUKA SHI","town":"NAKAYAMA SATSUKIDAI","perfecture_jp":"兵庫県","jp_add_1":"宝塚市","jp_add_2":"中山五月台"},"6650868":{"post_code":"6650868","prefecture":"HYOGO KEN","city":"TAKARAZUKA SHI","town":"NAKAYAMA SOEN","perfecture_jp":"兵庫県","jp_add_1":"宝塚市","jp_add_2":"中山荘園"},"6650876":{"post_code":"6650876","prefecture":"HYOGO KEN","city":"TAKARAZUKA SHI","town":"NAKAYAMADAI","perfecture_jp":"兵庫県","jp_add_1":"宝塚市","jp_add_2":"中山台"},"6650861":{"post_code":"6650861","prefecture":"HYOGO KEN","city":"TAKARAZUKA SHI","town":"NAKAYAMADERA","perfecture_jp":"兵庫県","jp_add_1":"宝塚市","jp_add_2":"中山寺"},"6650807":{"post_code":"6650807","prefecture":"HYOGO KEN","city":"TAKARAZUKA SHI","town":"NAGAODAI","perfecture_jp":"兵庫県","jp_add_1":"宝塚市","jp_add_2":"長尾台"},"6650873":{"post_code":"6650873","prefecture":"HYOGO KEN","city":"TAKARAZUKA SHI","town":"NAGAOCHO","perfecture_jp":"兵庫県","jp_add_1":"宝塚市","jp_add_2":"長尾町"},"6650065":{"post_code":"6650065","prefecture":"HYOGO KEN","city":"TAKARAZUKA SHI","town":"NIGAWA ASAHIGAOKA","perfecture_jp":"兵庫県","jp_add_1":"宝塚市","jp_add_2":"仁川旭ガ丘"},"6650064":{"post_code":"6650064","prefecture":"HYOGO KEN","city":"TAKARAZUKA SHI","town":"NIGAWA UGUISUDAI","perfecture_jp":"兵庫県","jp_add_1":"宝塚市","jp_add_2":"仁川うぐいす台"},"6650062":{"post_code":"6650062","prefecture":"HYOGO KEN","city":"TAKARAZUKA SHI","town":"NIGAWA TAKADAI","perfecture_jp":"兵庫県","jp_add_1":"宝塚市","jp_add_2":"仁川高台"},"6650063":{"post_code":"6650063","prefecture":"HYOGO KEN","city":"TAKARAZUKA SHI","town":"NIGAWA TAKAMARU","perfecture_jp":"兵庫県","jp_add_1":"宝塚市","jp_add_2":"仁川高丸"},"6650066":{"post_code":"6650066","prefecture":"HYOGO KEN","city":"TAKARAZUKA SHI","town":"NIGAWA DANCHI","perfecture_jp":"兵庫県","jp_add_1":"宝塚市","jp_add_2":"仁川団地"},"6650067":{"post_code":"6650067","prefecture":"HYOGO KEN","city":"TAKARAZUKA SHI","town":"NIGAWA TSUKIMIGAOKA","perfecture_jp":"兵庫県","jp_add_1":"宝塚市","jp_add_2":"仁川月見ガ丘"},"6650075":{"post_code":"6650075","prefecture":"HYOGO KEN","city":"TAKARAZUKA SHI","town":"NIGAWA MIYANISHICHO","perfecture_jp":"兵庫県","jp_add_1":"宝塚市","jp_add_2":"仁川宮西町"},"6650061":{"post_code":"6650061","prefecture":"HYOGO KEN","city":"TAKARAZUKA SHI","town":"NIGAWA KITA","perfecture_jp":"兵庫県","jp_add_1":"宝塚市","jp_add_2":"仁川北"},"6650074":{"post_code":"6650074","prefecture":"HYOGO KEN","city":"TAKARAZUKA SHI","town":"NIGAWADAI","perfecture_jp":"兵庫県","jp_add_1":"宝塚市","jp_add_2":"仁川台"},"6650022":{"post_code":"6650022","prefecture":"HYOGO KEN","city":"TAKARAZUKA SHI","town":"NOGAMI","perfecture_jp":"兵庫県","jp_add_1":"宝塚市","jp_add_2":"野上"},"6650802":{"post_code":"6650802","prefecture":"HYOGO KEN","city":"TAKARAZUKA SHI","town":"HANAYASHIKI SOEN","perfecture_jp":"兵庫県","jp_add_1":"宝塚市","jp_add_2":"花屋敷荘園"},"6650803":{"post_code":"6650803","prefecture":"HYOGO KEN","city":"TAKARAZUKA SHI","town":"HANAYASHIKI TSUTSUJIGAOKA","perfecture_jp":"兵庫県","jp_add_1":"宝塚市","jp_add_2":"花屋敷つつじガ丘"},"6650801":{"post_code":"6650801","prefecture":"HYOGO KEN","city":"TAKARAZUKA SHI","town":"HANAYASHIKI MATSUGAOKA","perfecture_jp":"兵庫県","jp_add_1":"宝塚市","jp_add_2":"花屋敷松ガ丘"},"6650015":{"post_code":"6650015","prefecture":"HYOGO KEN","city":"TAKARAZUKA SHI","town":"HIKARIGAOKA","perfecture_jp":"兵庫県","jp_add_1":"宝塚市","jp_add_2":"光ガ丘"},"6650805":{"post_code":"6650805","prefecture":"HYOGO KEN","city":"TAKARAZUKA SHI","town":"HIBARIGAOKA","perfecture_jp":"兵庫県","jp_add_1":"宝塚市","jp_add_2":"雲雀丘"},"6650804":{"post_code":"6650804","prefecture":"HYOGO KEN","city":"TAKARAZUKA SHI","town":"HIBARIGAOKAYAMATE","perfecture_jp":"兵庫県","jp_add_1":"宝塚市","jp_add_2":"雲雀丘山手"},"6650816":{"post_code":"6650816","prefecture":"HYOGO KEN","city":"TAKARAZUKA SHI","town":"HIRAI","perfecture_jp":"兵庫県","jp_add_1":"宝塚市","jp_add_2":"平井"},"6650817":{"post_code":"6650817","prefecture":"HYOGO KEN","city":"TAKARAZUKA SHI","town":"HIRAISANSO","perfecture_jp":"兵庫県","jp_add_1":"宝塚市","jp_add_2":"平井山荘"},"6650046":{"post_code":"6650046","prefecture":"HYOGO KEN","city":"TAKARAZUKA SHI","town":"FUKUICHO","perfecture_jp":"兵庫県","jp_add_1":"宝塚市","jp_add_2":"福井町"},"6650806":{"post_code":"6650806","prefecture":"HYOGO KEN","city":"TAKARAZUKA SHI","town":"FUJIGAOKA","perfecture_jp":"兵庫県","jp_add_1":"宝塚市","jp_add_2":"ふじガ丘"},"6650016":{"post_code":"6650016","prefecture":"HYOGO KEN","city":"TAKARAZUKA SHI","town":"HOSHOEN","perfecture_jp":"兵庫県","jp_add_1":"宝塚市","jp_add_2":"宝松苑"},"6650013":{"post_code":"6650013","prefecture":"HYOGO KEN","city":"TAKARAZUKA SHI","town":"HOBAI","perfecture_jp":"兵庫県","jp_add_1":"宝塚市","jp_add_2":"宝梅"},"6650866":{"post_code":"6650866","prefecture":"HYOGO KEN","city":"TAKARAZUKA SHI","town":"HOSHINOSO","perfecture_jp":"兵庫県","jp_add_1":"宝塚市","jp_add_2":"星の荘"},"6650831":{"post_code":"6650831","prefecture":"HYOGO KEN","city":"TAKARAZUKA SHI","town":"MAITANI","perfecture_jp":"兵庫県","jp_add_1":"宝塚市","jp_add_2":"米谷"},"6650837":{"post_code":"6650837","prefecture":"HYOGO KEN","city":"TAKARAZUKA SHI","town":"MAITANI KIYOSHI","perfecture_jp":"兵庫県","jp_add_1":"宝塚市","jp_add_2":"米谷清"},"6650863":{"post_code":"6650863","prefecture":"HYOGO KEN","city":"TAKARAZUKA SHI","town":"MIKASACHO","perfecture_jp":"兵庫県","jp_add_1":"宝塚市","jp_add_2":"三笠町"},"6650834":{"post_code":"6650834","prefecture":"HYOGO KEN","city":"TAKARAZUKA SHI","town":"MIZA","perfecture_jp":"兵庫県","jp_add_1":"宝塚市","jp_add_2":"美座"},"6650011":{"post_code":"6650011","prefecture":"HYOGO KEN","city":"TAKARAZUKA SHI","town":"MINAMIGUCHI","perfecture_jp":"兵庫県","jp_add_1":"宝塚市","jp_add_2":"南口"},"6650811":{"post_code":"6650811","prefecture":"HYOGO KEN","city":"TAKARAZUKA SHI","town":"MINAMIHIBARIGAOKA","perfecture_jp":"兵庫県","jp_add_1":"宝塚市","jp_add_2":"南ひばりガ丘"},"6650843":{"post_code":"6650843","prefecture":"HYOGO KEN","city":"TAKARAZUKA SHI","town":"MIYANOCHO","perfecture_jp":"兵庫県","jp_add_1":"宝塚市","jp_add_2":"宮の町"},"6650042":{"post_code":"6650042","prefecture":"HYOGO KEN","city":"TAKARAZUKA SHI","town":"MIYUKICHO","perfecture_jp":"兵庫県","jp_add_1":"宝塚市","jp_add_2":"美幸町"},"6650844":{"post_code":"6650844","prefecture":"HYOGO KEN","city":"TAKARAZUKA SHI","town":"MUKOGAWACHO","perfecture_jp":"兵庫県","jp_add_1":"宝塚市","jp_add_2":"武庫川町"},"6650005":{"post_code":"6650005","prefecture":"HYOGO KEN","city":"TAKARAZUKA SHI","town":"MUKOYAMA","perfecture_jp":"兵庫県","jp_add_1":"宝塚市","jp_add_2":"武庫山"},"6650852":{"post_code":"6650852","prefecture":"HYOGO KEN","city":"TAKARAZUKA SHI","town":"MEFU","perfecture_jp":"兵庫県","jp_add_1":"宝塚市","jp_add_2":"売布"},"6650855":{"post_code":"6650855","prefecture":"HYOGO KEN","city":"TAKARAZUKA SHI","town":"MEFUKIYOSHIGAOKA","perfecture_jp":"兵庫県","jp_add_1":"宝塚市","jp_add_2":"売布きよしガ丘"},"6650856":{"post_code":"6650856","prefecture":"HYOGO KEN","city":"TAKARAZUKA SHI","town":"MEFU JIYUGAOKA","perfecture_jp":"兵庫県","jp_add_1":"宝塚市","jp_add_2":"売布自由ガ丘"},"6650867":{"post_code":"6650867","prefecture":"HYOGO KEN","city":"TAKARAZUKA SHI","town":"MEFU HIGASHINOCHO","perfecture_jp":"兵庫県","jp_add_1":"宝塚市","jp_add_2":"売布東の町"},"6650854":{"post_code":"6650854","prefecture":"HYOGO KEN","city":"TAKARAZUKA SHI","town":"MEFU YAMATECHO","perfecture_jp":"兵庫県","jp_add_1":"宝塚市","jp_add_2":"売布山手町"},"6650853":{"post_code":"6650853","prefecture":"HYOGO KEN","city":"TAKARAZUKA SHI","town":"MEFUGAOKA","perfecture_jp":"兵庫県","jp_add_1":"宝塚市","jp_add_2":"売布ガ丘"},"6650006":{"post_code":"6650006","prefecture":"HYOGO KEN","city":"TAKARAZUKA SHI","town":"MOMIJIGAOKA","perfecture_jp":"兵庫県","jp_add_1":"宝塚市","jp_add_2":"紅葉ガ丘"},"6650071":{"post_code":"6650071","prefecture":"HYOGO KEN","city":"TAKARAZUKA SHI","town":"YASHIROCHO","perfecture_jp":"兵庫県","jp_add_1":"宝塚市","jp_add_2":"社町"},"6650887":{"post_code":"6650887","prefecture":"HYOGO KEN","city":"TAKARAZUKA SHI","town":"YAMATEDAIHIGASHI","perfecture_jp":"兵庫県","jp_add_1":"宝塚市","jp_add_2":"山手台東"},"6650886":{"post_code":"6650886","prefecture":"HYOGO KEN","city":"TAKARAZUKA SHI","town":"YAMATEDAI NISHI","perfecture_jp":"兵庫県","jp_add_1":"宝塚市","jp_add_2":"山手台西"},"6650883":{"post_code":"6650883","prefecture":"HYOGO KEN","city":"TAKARAZUKA SHI","town":"YAMAMOTO NAKA","perfecture_jp":"兵庫県","jp_add_1":"宝塚市","jp_add_2":"山本中"},"6650814":{"post_code":"6650814","prefecture":"HYOGO KEN","city":"TAKARAZUKA SHI","town":"YAMAMOTO NOZATO","perfecture_jp":"兵庫県","jp_add_1":"宝塚市","jp_add_2":"山本野里"},"6650815":{"post_code":"6650815","prefecture":"HYOGO KEN","city":"TAKARAZUKA SHI","town":"YAMAMOTO MARUHASHI","perfecture_jp":"兵庫県","jp_add_1":"宝塚市","jp_add_2":"山本丸橋"},"6650881":{"post_code":"6650881","prefecture":"HYOGO KEN","city":"TAKARAZUKA SHI","town":"YAMAMOTO HIGASHI","perfecture_jp":"兵庫県","jp_add_1":"宝塚市","jp_add_2":"山本東"},"6650884":{"post_code":"6650884","prefecture":"HYOGO KEN","city":"TAKARAZUKA SHI","town":"YAMAMOTO NISHI","perfecture_jp":"兵庫県","jp_add_1":"宝塚市","jp_add_2":"山本西"},"6650882":{"post_code":"6650882","prefecture":"HYOGO KEN","city":"TAKARAZUKA SHI","town":"YAMAMOTO MINAMI","perfecture_jp":"兵庫県","jp_add_1":"宝塚市","jp_add_2":"山本南"},"6650885":{"post_code":"6650885","prefecture":"HYOGO KEN","city":"TAKARAZUKA SHI","town":"YAMAMOTODAI","perfecture_jp":"兵庫県","jp_add_1":"宝塚市","jp_add_2":"山本台"},"6650826":{"post_code":"6650826","prefecture":"HYOGO KEN","city":"TAKARAZUKA SHI","town":"YAYOICHO","perfecture_jp":"兵庫県","jp_add_1":"宝塚市","jp_add_2":"弥生町"},"6650025":{"post_code":"6650025","prefecture":"HYOGO KEN","city":"TAKARAZUKA SHI","town":"YUZURIHADAI","perfecture_jp":"兵庫県","jp_add_1":"宝塚市","jp_add_2":"ゆずり葉台"},"6650003":{"post_code":"6650003","prefecture":"HYOGO KEN","city":"TAKARAZUKA SHI","town":"YUMOTOCHO","perfecture_jp":"兵庫県","jp_add_1":"宝塚市","jp_add_2":"湯本町"},"6650891":{"post_code":"6650891","prefecture":"HYOGO KEN","city":"KAWANISHI SHI","town":"MANGANJICHO","perfecture_jp":"兵庫県","jp_add_1":"川西市","jp_add_2":"満願寺町"}}