{"6680000":{"post_code":"6680000","prefecture":"HYOGO KEN","city":"TOYOKA SHI","town":"IKANIKEISAIGANAIBAAI","perfecture_jp":"兵庫県","jp_add_1":"豊岡市","jp_add_2":""},"6680801":{"post_code":"6680801","prefecture":"HYOGO KEN","city":"TOYOKA SHI","town":"AKAISHI","perfecture_jp":"兵庫県","jp_add_1":"豊岡市","jp_add_2":"赤石"},"6680001":{"post_code":"6680001","prefecture":"HYOGO KEN","city":"TOYOKA SHI","town":"IGADANI","perfecture_jp":"兵庫県","jp_add_1":"豊岡市","jp_add_2":"伊賀谷"},"6680261":{"post_code":"6680261","prefecture":"HYOGO KEN","city":"TOYOKA SHI","town":"IZUSHICHO ARAKI","perfecture_jp":"兵庫県","jp_add_1":"豊岡市","jp_add_2":"出石町荒木"},"6680213":{"post_code":"6680213","prefecture":"HYOGO KEN","city":"TOYOKA SHI","town":"IZUSHICHO IGI","perfecture_jp":"兵庫県","jp_add_1":"豊岡市","jp_add_2":"出石町伊木"},"6680207":{"post_code":"6680207","prefecture":"HYOGO KEN","city":"TOYOKA SHI","town":"IZUSHICHO IZU","perfecture_jp":"兵庫県","jp_add_1":"豊岡市","jp_add_2":"出石町伊豆"},"6680218":{"post_code":"6680218","prefecture":"HYOGO KEN","city":"TOYOKA SHI","town":"IZUSHICHO IRUSA","perfecture_jp":"兵庫県","jp_add_1":"豊岡市","jp_add_2":"出石町入佐"},"6680244":{"post_code":"6680244","prefecture":"HYOGO KEN","city":"TOYOKA SHI","town":"IZUSHICHO UENO","perfecture_jp":"兵庫県","jp_add_1":"豊岡市","jp_add_2":"出石町上野"},"6680215":{"post_code":"6680215","prefecture":"HYOGO KEN","city":"TOYOKA SHI","town":"IZUSHICHO UOYA","perfecture_jp":"兵庫県","jp_add_1":"豊岡市","jp_add_2":"出石町魚屋"},"6680214":{"post_code":"6680214","prefecture":"HYOGO KEN","city":"TOYOKA SHI","town":"IZUSHICHO UCHIMACHI","perfecture_jp":"兵庫県","jp_add_1":"豊岡市","jp_add_2":"出石町内町"},"6680271":{"post_code":"6680271","prefecture":"HYOGO KEN","city":"TOYOKA SHI","town":"IZUSHICHO OTANI","perfecture_jp":"兵庫県","jp_add_1":"豊岡市","jp_add_2":"出石町大谷"},"6680201":{"post_code":"6680201","prefecture":"HYOGO KEN","city":"TOYOKA SHI","town":"IZUSHICHO OKUONO","perfecture_jp":"兵庫県","jp_add_1":"豊岡市","jp_add_2":"出石町奥小野"},"6680251":{"post_code":"6680251","prefecture":"HYOGO KEN","city":"TOYOKA SHI","town":"IZUSHICHO OKUYAMA","perfecture_jp":"兵庫県","jp_add_1":"豊岡市","jp_add_2":"出石町奥山"},"6680235":{"post_code":"6680235","prefecture":"HYOGO KEN","city":"TOYOKA SHI","town":"IZUSHICHO KAJIYA","perfecture_jp":"兵庫県","jp_add_1":"豊岡市","jp_add_2":"出石町鍛冶屋"},"6680279":{"post_code":"6680279","prefecture":"HYOGO KEN","city":"TOYOKA SHI","town":"IZUSHICHO KATAMA","perfecture_jp":"兵庫県","jp_add_1":"豊岡市","jp_add_2":"出石町片間"},"6680255":{"post_code":"6680255","prefecture":"HYOGO KEN","city":"TOYOKA SHI","town":"IZUSHICHO KAMIMURA","perfecture_jp":"兵庫県","jp_add_1":"豊岡市","jp_add_2":"出石町上村"},"6680231":{"post_code":"6680231","prefecture":"HYOGO KEN","city":"TOYOKA SHI","town":"IZUSHICHO KAWARA","perfecture_jp":"兵庫県","jp_add_1":"豊岡市","jp_add_2":"出石町川原"},"6680242":{"post_code":"6680242","prefecture":"HYOGO KEN","city":"TOYOKA SHI","town":"IZUSHICHO KIRINO","perfecture_jp":"兵庫県","jp_add_1":"豊岡市","jp_add_2":"出石町桐野"},"6680202":{"post_code":"6680202","prefecture":"HYOGO KEN","city":"TOYOKA SHI","town":"IZUSHICHO KUCHIONO","perfecture_jp":"兵庫県","jp_add_1":"豊岡市","jp_add_2":"出石町口小野"},"6680264":{"post_code":"6680264","prefecture":"HYOGO KEN","city":"TOYOKA SHI","town":"IZUSHICHO KURESAKA","perfecture_jp":"兵庫県","jp_add_1":"豊岡市","jp_add_2":"出石町暮坂"},"6680256":{"post_code":"6680256","prefecture":"HYOGO KEN","city":"TOYOKA SHI","town":"IZUSHICHO KOBITO","perfecture_jp":"兵庫県","jp_add_1":"豊岡市","jp_add_2":"出石町小人"},"6680216":{"post_code":"6680216","prefecture":"HYOGO KEN","city":"TOYOKA SHI","town":"IZUSHICHO ZAIMOKU","perfecture_jp":"兵庫県","jp_add_1":"豊岡市","jp_add_2":"出石町材木"},"6680205":{"post_code":"6680205","prefecture":"HYOGO KEN","city":"TOYOKA SHI","town":"IZUSHICHO SHIMA","perfecture_jp":"兵庫県","jp_add_1":"豊岡市","jp_add_2":"出石町嶋"},"6680211":{"post_code":"6680211","prefecture":"HYOGO KEN","city":"TOYOKA SHI","town":"IZUSHICHO SHIMOTANI","perfecture_jp":"兵庫県","jp_add_1":"豊岡市","jp_add_2":"出石町下谷"},"6680233":{"post_code":"6680233","prefecture":"HYOGO KEN","city":"TOYOKA SHI","town":"IZUSHICHO TAINOSHO","perfecture_jp":"兵庫県","jp_add_1":"豊岡市","jp_add_2":"出石町田結庄"},"6680209":{"post_code":"6680209","prefecture":"HYOGO KEN","city":"TOYOKA SHI","town":"IZUSHICHO TADACHI","perfecture_jp":"兵庫県","jp_add_1":"豊岡市","jp_add_2":"出石町田多地"},"6680212":{"post_code":"6680212","prefecture":"HYOGO KEN","city":"TOYOKA SHI","town":"IZUSHICHO TANIYAMA","perfecture_jp":"兵庫県","jp_add_1":"豊岡市","jp_add_2":"出石町谷山"},"6680273":{"post_code":"6680273","prefecture":"HYOGO KEN","city":"TOYOKA SHI","town":"IZUSHICHO TSUBOI","perfecture_jp":"兵庫県","jp_add_1":"豊岡市","jp_add_2":"出石町坪井"},"6680257":{"post_code":"6680257","prefecture":"HYOGO KEN","city":"TOYOKA SHI","town":"IZUSHICHO TSUBOGUCHI","perfecture_jp":"兵庫県","jp_add_1":"豊岡市","jp_add_2":"出石町坪口"},"6680223":{"post_code":"6680223","prefecture":"HYOGO KEN","city":"TOYOKA SHI","town":"IZUSHICHO TEPPO","perfecture_jp":"兵庫県","jp_add_1":"豊岡市","jp_add_2":"出石町鉄砲"},"6680241":{"post_code":"6680241","prefecture":"HYOGO KEN","city":"TOYOKA SHI","town":"IZUSHICHO TERASAKA","perfecture_jp":"兵庫県","jp_add_1":"豊岡市","jp_add_2":"出石町寺坂"},"6680222":{"post_code":"6680222","prefecture":"HYOGO KEN","city":"TOYOKA SHI","town":"IZUSHICHO TERAMACHI","perfecture_jp":"兵庫県","jp_add_1":"豊岡市","jp_add_2":"出石町寺町"},"6680217":{"post_code":"6680217","prefecture":"HYOGO KEN","city":"TOYOKA SHI","town":"IZUSHICHO TOJO","perfecture_jp":"兵庫県","jp_add_1":"豊岡市","jp_add_2":"出石町東條"},"6680272":{"post_code":"6680272","prefecture":"HYOGO KEN","city":"TOYOKA SHI","town":"IZUSHICHO TORII","perfecture_jp":"兵庫県","jp_add_1":"豊岡市","jp_add_2":"出石町鳥居"},"6680275":{"post_code":"6680275","prefecture":"HYOGO KEN","city":"TOYOKA SHI","town":"IZUSHICHO NAGASUNA","perfecture_jp":"兵庫県","jp_add_1":"豊岡市","jp_add_2":"出石町長砂"},"6680243":{"post_code":"6680243","prefecture":"HYOGO KEN","city":"TOYOKA SHI","town":"IZUSHICHO NAKANO","perfecture_jp":"兵庫県","jp_add_1":"豊岡市","jp_add_2":"出石町中野"},"6680254":{"post_code":"6680254","prefecture":"HYOGO KEN","city":"TOYOKA SHI","town":"IZUSHICHO NAKAMURA","perfecture_jp":"兵庫県","jp_add_1":"豊岡市","jp_add_2":"出石町中村"},"6680203":{"post_code":"6680203","prefecture":"HYOGO KEN","city":"TOYOKA SHI","town":"IZUSHICHO HAKAZA","perfecture_jp":"兵庫県","jp_add_1":"豊岡市","jp_add_2":"出石町袴狭"},"6680237":{"post_code":"6680237","prefecture":"HYOGO KEN","city":"TOYOKA SHI","town":"IZUSHICHO BABA","perfecture_jp":"兵庫県","jp_add_1":"豊岡市","jp_add_2":"出石町馬場"},"6680246":{"post_code":"6680246","prefecture":"HYOGO KEN","city":"TOYOKA SHI","town":"IZUSHICHO HINOBE","perfecture_jp":"兵庫県","jp_add_1":"豊岡市","jp_add_2":"出石町日野辺"},"6680266":{"post_code":"6680266","prefecture":"HYOGO KEN","city":"TOYOKA SHI","town":"IZUSHICHO HIRATA","perfecture_jp":"兵庫県","jp_add_1":"豊岡市","jp_add_2":"出石町平田"},"6680238":{"post_code":"6680238","prefecture":"HYOGO KEN","city":"TOYOKA SHI","town":"IZUSHICHO HIROHARA","perfecture_jp":"兵庫県","jp_add_1":"豊岡市","jp_add_2":"出石町弘原"},"6680206":{"post_code":"6680206","prefecture":"HYOGO KEN","city":"TOYOKA SHI","town":"IZUSHICHO FUKUI","perfecture_jp":"兵庫県","jp_add_1":"豊岡市","jp_add_2":"出石町福居"},"6680263":{"post_code":"6680263","prefecture":"HYOGO KEN","city":"TOYOKA SHI","town":"IZUSHICHO FUKUSUMI","perfecture_jp":"兵庫県","jp_add_1":"豊岡市","jp_add_2":"出石町福住"},"6680265":{"post_code":"6680265","prefecture":"HYOGO KEN","city":"TOYOKA SHI","town":"IZUSHICHO FUKUMI","perfecture_jp":"兵庫県","jp_add_1":"豊岡市","jp_add_2":"出石町福見"},"6680262":{"post_code":"6680262","prefecture":"HYOGO KEN","city":"TOYOKA SHI","town":"IZUSHICHO HOSOMI","perfecture_jp":"兵庫県","jp_add_1":"豊岡市","jp_add_2":"出石町細見"},"6680224":{"post_code":"6680224","prefecture":"HYOGO KEN","city":"TOYOKA SHI","town":"IZUSHICHO HOMMACHI","perfecture_jp":"兵庫県","jp_add_1":"豊岡市","jp_add_2":"出石町本町"},"6680221":{"post_code":"6680221","prefecture":"HYOGO KEN","city":"TOYOKA SHI","town":"IZUSHICHO MACHIBUN","perfecture_jp":"兵庫県","jp_add_1":"豊岡市","jp_add_2":"出石町町分"},"6680236":{"post_code":"6680236","prefecture":"HYOGO KEN","city":"TOYOKA SHI","town":"IZUSHICHO MATSUGAE","perfecture_jp":"兵庫県","jp_add_1":"豊岡市","jp_add_2":"出石町松枝"},"6680277":{"post_code":"6680277","prefecture":"HYOGO KEN","city":"TOYOKA SHI","town":"IZUSHICHO MARUNAKA","perfecture_jp":"兵庫県","jp_add_1":"豊岡市","jp_add_2":"出石町丸中"},"6680278":{"post_code":"6680278","prefecture":"HYOGO KEN","city":"TOYOKA SHI","town":"IZUSHICHO MITSUKI","perfecture_jp":"兵庫県","jp_add_1":"豊岡市","jp_add_2":"出石町三木"},"6680204":{"post_code":"6680204","prefecture":"HYOGO KEN","city":"TOYOKA SHI","town":"IZUSHICHO MIYAUCHI","perfecture_jp":"兵庫県","jp_add_1":"豊岡市","jp_add_2":"出石町宮内"},"6680274":{"post_code":"6680274","prefecture":"HYOGO KEN","city":"TOYOKA SHI","town":"IZUSHICHO MUNAGAI","perfecture_jp":"兵庫県","jp_add_1":"豊岡市","jp_add_2":"出石町水上"},"6680276":{"post_code":"6680276","prefecture":"HYOGO KEN","city":"TOYOKA SHI","town":"IZUSHICHO MORII","perfecture_jp":"兵庫県","jp_add_1":"豊岡市","jp_add_2":"出石町森井"},"6680225":{"post_code":"6680225","prefecture":"HYOGO KEN","city":"TOYOKA SHI","town":"IZUSHICHO YAGI","perfecture_jp":"兵庫県","jp_add_1":"豊岡市","jp_add_2":"出石町八木"},"6680208":{"post_code":"6680208","prefecture":"HYOGO KEN","city":"TOYOKA SHI","town":"IZUSHICHO YASURA","perfecture_jp":"兵庫県","jp_add_1":"豊岡市","jp_add_2":"出石町安良"},"6680234":{"post_code":"6680234","prefecture":"HYOGO KEN","city":"TOYOKA SHI","town":"IZUSHICHO YANAGI","perfecture_jp":"兵庫県","jp_add_1":"豊岡市","jp_add_2":"出石町柳"},"6680245":{"post_code":"6680245","prefecture":"HYOGO KEN","city":"TOYOKA SHI","town":"IZUSHICHO YURI","perfecture_jp":"兵庫県","jp_add_1":"豊岡市","jp_add_2":"出石町百合"},"6680232":{"post_code":"6680232","prefecture":"HYOGO KEN","city":"TOYOKA SHI","town":"IZUSHICHO YOIDA","perfecture_jp":"兵庫県","jp_add_1":"豊岡市","jp_add_2":"出石町宵田"},"6680253":{"post_code":"6680253","prefecture":"HYOGO KEN","city":"TOYOKA SHI","town":"IZUSHICHO YONOMI","perfecture_jp":"兵庫県","jp_add_1":"豊岡市","jp_add_2":"出石町榎見"},"6680252":{"post_code":"6680252","prefecture":"HYOGO KEN","city":"TOYOKA SHI","town":"IZUSHICHO WAYA","perfecture_jp":"兵庫県","jp_add_1":"豊岡市","jp_add_2":"出石町和屋"},"6680021":{"post_code":"6680021","prefecture":"HYOGO KEN","city":"TOYOKA SHI","town":"IZUMICHO","perfecture_jp":"兵庫県","jp_add_1":"豊岡市","jp_add_2":"泉町"},"6680821":{"post_code":"6680821","prefecture":"HYOGO KEN","city":"TOYOKA SHI","town":"ICHIBA","perfecture_jp":"兵庫県","jp_add_1":"豊岡市","jp_add_2":"市場"},"6680851":{"post_code":"6680851","prefecture":"HYOGO KEN","city":"TOYOKA SHI","town":"IMAMORI","perfecture_jp":"兵庫県","jp_add_1":"豊岡市","jp_add_2":"今森"},"6680081":{"post_code":"6680081","prefecture":"HYOGO KEN","city":"TOYOKA SHI","town":"IWAI","perfecture_jp":"兵庫県","jp_add_1":"豊岡市","jp_add_2":"岩井"},"6680002":{"post_code":"6680002","prefecture":"HYOGO KEN","city":"TOYOKA SHI","town":"IWAKUMA","perfecture_jp":"兵庫県","jp_add_1":"豊岡市","jp_add_2":"岩熊"},"6680071":{"post_code":"6680071","prefecture":"HYOGO KEN","city":"TOYOKA SHI","town":"UCHIMACHI","perfecture_jp":"兵庫県","jp_add_1":"豊岡市","jp_add_2":"内町"},"6680852":{"post_code":"6680852","prefecture":"HYOGO KEN","city":"TOYOKA SHI","town":"EMOTO","perfecture_jp":"兵庫県","jp_add_1":"豊岡市","jp_add_2":"江本"},"6680041":{"post_code":"6680041","prefecture":"HYOGO KEN","city":"TOYOKA SHI","town":"OISOCHO","perfecture_jp":"兵庫県","jp_add_1":"豊岡市","jp_add_2":"大磯町"},"6680861":{"post_code":"6680861","prefecture":"HYOGO KEN","city":"TOYOKA SHI","town":"OSHINOKA","perfecture_jp":"兵庫県","jp_add_1":"豊岡市","jp_add_2":"大篠岡"},"6680072":{"post_code":"6680072","prefecture":"HYOGO KEN","city":"TOYOKA SHI","town":"OTANI","perfecture_jp":"兵庫県","jp_add_1":"豊岡市","jp_add_2":"大谷"},"6680031":{"post_code":"6680031","prefecture":"HYOGO KEN","city":"TOYOKA SHI","town":"OTEMACHI","perfecture_jp":"兵庫県","jp_add_1":"豊岡市","jp_add_2":"大手町"},"6680822":{"post_code":"6680822","prefecture":"HYOGO KEN","city":"TOYOKA SHI","town":"OKUNO","perfecture_jp":"兵庫県","jp_add_1":"豊岡市","jp_add_2":"奥野"},"6680022":{"post_code":"6680022","prefecture":"HYOGO KEN","city":"TOYOKA SHI","town":"ODAICHO","perfecture_jp":"兵庫県","jp_add_1":"豊岡市","jp_add_2":"小田井町"},"6680871":{"post_code":"6680871","prefecture":"HYOGO KEN","city":"TOYOKA SHI","town":"KAJIWARA","perfecture_jp":"兵庫県","jp_add_1":"豊岡市","jp_add_2":"梶原"},"6680862":{"post_code":"6680862","prefecture":"HYOGO KEN","city":"TOYOKA SHI","town":"KASUMI","perfecture_jp":"兵庫県","jp_add_1":"豊岡市","jp_add_2":"香住"},"6680023":{"post_code":"6680023","prefecture":"HYOGO KEN","city":"TOYOKA SHI","town":"KAHIROCHO","perfecture_jp":"兵庫県","jp_add_1":"豊岡市","jp_add_2":"加広町"},"6680811":{"post_code":"6680811","prefecture":"HYOGO KEN","city":"TOYOKA SHI","town":"KAMATA","perfecture_jp":"兵庫県","jp_add_1":"豊岡市","jp_add_2":"鎌田"},"6680011":{"post_code":"6680011","prefecture":"HYOGO KEN","city":"TOYOKA SHI","town":"KAMIKAGE","perfecture_jp":"兵庫県","jp_add_1":"豊岡市","jp_add_2":"上陰"},"6680061":{"post_code":"6680061","prefecture":"HYOGO KEN","city":"TOYOKA SHI","town":"KAMISANO","perfecture_jp":"兵庫県","jp_add_1":"豊岡市","jp_add_2":"上佐野"},"6680863":{"post_code":"6680863","prefecture":"HYOGO KEN","city":"TOYOKA SHI","town":"KAMIHACHIYAMA","perfecture_jp":"兵庫県","jp_add_1":"豊岡市","jp_add_2":"上鉢山"},"6680831":{"post_code":"6680831","prefecture":"HYOGO KEN","city":"TOYOKA SHI","town":"KAMIYOSHIDAI","perfecture_jp":"兵庫県","jp_add_1":"豊岡市","jp_add_2":"神美台"},"6680841":{"post_code":"6680841","prefecture":"HYOGO KEN","city":"TOYOKA SHI","town":"KAYA","perfecture_jp":"兵庫県","jp_add_1":"豊岡市","jp_add_2":"加陽"},"6680864":{"post_code":"6680864","prefecture":"HYOGO KEN","city":"TOYOKA SHI","town":"KINASHI","perfecture_jp":"兵庫県","jp_add_1":"豊岡市","jp_add_2":"木内"},"6680042":{"post_code":"6680042","prefecture":"HYOGO KEN","city":"TOYOKA SHI","town":"KYOMACHI","perfecture_jp":"兵庫県","jp_add_1":"豊岡市","jp_add_2":"京町"},"6680832":{"post_code":"6680832","prefecture":"HYOGO KEN","city":"TOYOKA SHI","town":"KURAMI","perfecture_jp":"兵庫県","jp_add_1":"豊岡市","jp_add_2":"倉見"},"6680872":{"post_code":"6680872","prefecture":"HYOGO KEN","city":"TOYOKA SHI","town":"KODANI","perfecture_jp":"兵庫県","jp_add_1":"豊岡市","jp_add_2":"河谷"},"6680003":{"post_code":"6680003","prefecture":"HYOGO KEN","city":"TOYOKA SHI","town":"GONO","perfecture_jp":"兵庫県","jp_add_1":"豊岡市","jp_add_2":"江野"},"6680051":{"post_code":"6680051","prefecture":"HYOGO KEN","city":"TOYOKA SHI","town":"KOKONOKAICHI KAMINOCHO","perfecture_jp":"兵庫県","jp_add_1":"豊岡市","jp_add_2":"九日市上町"},"6680053":{"post_code":"6680053","prefecture":"HYOGO KEN","city":"TOYOKA SHI","town":"KOKONOKAICHI NAKANOCHO","perfecture_jp":"兵庫県","jp_add_1":"豊岡市","jp_add_2":"九日市中町"},"6680052":{"post_code":"6680052","prefecture":"HYOGO KEN","city":"TOYOKA SHI","town":"KOKONOKAICHI SHIMONOCHO","perfecture_jp":"兵庫県","jp_add_1":"豊岡市","jp_add_2":"九日市下町"},"6680024":{"post_code":"6680024","prefecture":"HYOGO KEN","city":"TOYOKA SHI","town":"KOTOBUKICHO","perfecture_jp":"兵庫県","jp_add_1":"豊岡市","jp_add_2":"寿町"},"6680802":{"post_code":"6680802","prefecture":"HYOGO KEN","city":"TOYOKA SHI","town":"KONGOJI","perfecture_jp":"兵庫県","jp_add_1":"豊岡市","jp_add_2":"金剛寺"},"6680025":{"post_code":"6680025","prefecture":"HYOGO KEN","city":"TOYOKA SHI","town":"SAIWAICHO","perfecture_jp":"兵庫県","jp_add_1":"豊岡市","jp_add_2":"幸町"},"6680812":{"post_code":"6680812","prefecture":"HYOGO KEN","city":"TOYOKA SHI","town":"SAKAEMACHI","perfecture_jp":"兵庫県","jp_add_1":"豊岡市","jp_add_2":"栄町"},"6680043":{"post_code":"6680043","prefecture":"HYOGO KEN","city":"TOYOKA SHI","town":"SAKURAMACHI","perfecture_jp":"兵庫県","jp_add_1":"豊岡市","jp_add_2":"桜町"},"6680062":{"post_code":"6680062","prefecture":"HYOGO KEN","city":"TOYOKA SHI","town":"SANO","perfecture_jp":"兵庫県","jp_add_1":"豊岡市","jp_add_2":"佐野"},"6680044":{"post_code":"6680044","prefecture":"HYOGO KEN","city":"TOYOKA SHI","town":"SANNOCHO","perfecture_jp":"兵庫県","jp_add_1":"豊岡市","jp_add_2":"山王町"},"6680054":{"post_code":"6680054","prefecture":"HYOGO KEN","city":"TOYOKA SHI","town":"SHIOTSUCHO","perfecture_jp":"兵庫県","jp_add_1":"豊岡市","jp_add_2":"塩津町"},"6680012":{"post_code":"6680012","prefecture":"HYOGO KEN","city":"TOYOKA SHI","town":"SHIMOKAGE","perfecture_jp":"兵庫県","jp_add_1":"豊岡市","jp_add_2":"下陰"},"6680803":{"post_code":"6680803","prefecture":"HYOGO KEN","city":"TOYOKA SHI","town":"SHIMOTSURUI","perfecture_jp":"兵庫県","jp_add_1":"豊岡市","jp_add_2":"下鶴井"},"6680813":{"post_code":"6680813","prefecture":"HYOGO KEN","city":"TOYOKA SHI","town":"SHIMONOMIYA","perfecture_jp":"兵庫県","jp_add_1":"豊岡市","jp_add_2":"下宮"},"6680865":{"post_code":"6680865","prefecture":"HYOGO KEN","city":"TOYOKA SHI","town":"SHIMOHACHIYAMA","perfecture_jp":"兵庫県","jp_add_1":"豊岡市","jp_add_2":"下鉢山"},"6680082":{"post_code":"6680082","prefecture":"HYOGO KEN","city":"TOYOKA SHI","town":"SHO","perfecture_jp":"兵庫県","jp_add_1":"豊岡市","jp_add_2":"庄"},"6680814":{"post_code":"6680814","prefecture":"HYOGO KEN","city":"TOYOKA SHI","town":"SHOUNJI","perfecture_jp":"兵庫県","jp_add_1":"豊岡市","jp_add_2":"祥雲寺"},"6680873":{"post_code":"6680873","prefecture":"HYOGO KEN","city":"TOYOKA SHI","town":"SHOZAKAI","perfecture_jp":"兵庫県","jp_add_1":"豊岡市","jp_add_2":"庄境"},"6680045":{"post_code":"6680045","prefecture":"HYOGO KEN","city":"TOYOKA SHI","town":"JONANCHO","perfecture_jp":"兵庫県","jp_add_1":"豊岡市","jp_add_2":"城南町"},"6680063":{"post_code":"6680063","prefecture":"HYOGO KEN","city":"TOYOKA SHI","town":"SHOBOJI","perfecture_jp":"兵庫県","jp_add_1":"豊岡市","jp_add_2":"正法寺"},"6680853":{"post_code":"6680853","prefecture":"HYOGO KEN","city":"TOYOKA SHI","town":"SHORENJI","perfecture_jp":"兵庫県","jp_add_1":"豊岡市","jp_add_2":"清冷寺"},"6680055":{"post_code":"6680055","prefecture":"HYOGO KEN","city":"TOYOKA SHI","town":"SHOWACHO","perfecture_jp":"兵庫県","jp_add_1":"豊岡市","jp_add_2":"昭和町"},"6680004":{"post_code":"6680004","prefecture":"HYOGO KEN","city":"TOYOKA SHI","town":"SHINDO","perfecture_jp":"兵庫県","jp_add_1":"豊岡市","jp_add_2":"新堂"},"6680064":{"post_code":"6680064","prefecture":"HYOGO KEN","city":"TOYOKA SHI","town":"TAKAYA","perfecture_jp":"兵庫県","jp_add_1":"豊岡市","jp_add_2":"高屋"},"6680005":{"post_code":"6680005","prefecture":"HYOGO KEN","city":"TOYOKA SHI","town":"TAKI","perfecture_jp":"兵庫県","jp_add_1":"豊岡市","jp_add_2":"滝"},"6680866":{"post_code":"6680866","prefecture":"HYOGO KEN","city":"TOYOKA SHI","town":"DASAKA","perfecture_jp":"兵庫県","jp_add_1":"豊岡市","jp_add_2":"駄坂"},"6680046":{"post_code":"6680046","prefecture":"HYOGO KEN","city":"TOYOKA SHI","town":"TACHINOCHO","perfecture_jp":"兵庫県","jp_add_1":"豊岡市","jp_add_2":"立野町"},"6680833":{"post_code":"6680833","prefecture":"HYOGO KEN","city":"TOYOKA SHI","town":"TATEISHI","perfecture_jp":"兵庫県","jp_add_1":"豊岡市","jp_add_2":"立石"},"6680324":{"post_code":"6680324","prefecture":"HYOGO KEN","city":"TOYOKA SHI","town":"TANTOCHO AIDA","perfecture_jp":"兵庫県","jp_add_1":"豊岡市","jp_add_2":"但東町相田"},"6680352":{"post_code":"6680352","prefecture":"HYOGO KEN","city":"TOYOKA SHI","town":"TANTOCHO AKABANA","perfecture_jp":"兵庫県","jp_add_1":"豊岡市","jp_add_2":"但東町赤花"},"6680316":{"post_code":"6680316","prefecture":"HYOGO KEN","city":"TOYOKA SHI","town":"TANTOCHO AMADANI","perfecture_jp":"兵庫県","jp_add_1":"豊岡市","jp_add_2":"但東町天谷"},"6680374":{"post_code":"6680374","prefecture":"HYOGO KEN","city":"TOYOKA SHI","town":"TANTOCHO USHIRO","perfecture_jp":"兵庫県","jp_add_1":"豊岡市","jp_add_2":"但東町後"},"6680372":{"post_code":"6680372","prefecture":"HYOGO KEN","city":"TOYOKA SHI","town":"TANTOCHO OGOCHI","perfecture_jp":"兵庫県","jp_add_1":"豊岡市","jp_add_2":"但東町大河内"},"6680335":{"post_code":"6680335","prefecture":"HYOGO KEN","city":"TOYOKA SHI","town":"TANTOCHO OTA","perfecture_jp":"兵庫県","jp_add_1":"豊岡市","jp_add_2":"但東町太田"},"6680353":{"post_code":"6680353","prefecture":"HYOGO KEN","city":"TOYOKA SHI","town":"TANTOCHO OKUAKA","perfecture_jp":"兵庫県","jp_add_1":"豊岡市","jp_add_2":"但東町奥赤"},"6680343":{"post_code":"6680343","prefecture":"HYOGO KEN","city":"TOYOKA SHI","town":"TANTOCHO OKUFUJI","perfecture_jp":"兵庫県","jp_add_1":"豊岡市","jp_add_2":"但東町奥藤"},"6680301":{"post_code":"6680301","prefecture":"HYOGO KEN","city":"TOYOKA SHI","town":"TANTOCHO OKUYANE","perfecture_jp":"兵庫県","jp_add_1":"豊岡市","jp_add_2":"但東町奥矢根"},"6680323":{"post_code":"6680323","prefecture":"HYOGO KEN","city":"TOYOKA SHI","town":"TANTOCHO ODANI","perfecture_jp":"兵庫県","jp_add_1":"豊岡市","jp_add_2":"但東町小谷"},"6680321":{"post_code":"6680321","prefecture":"HYOGO KEN","city":"TOYOKA SHI","town":"TANTOCHO KARAKAWA","perfecture_jp":"兵庫県","jp_add_1":"豊岡市","jp_add_2":"但東町唐川"},"6680331":{"post_code":"6680331","prefecture":"HYOGO KEN","city":"TOYOKA SHI","town":"TANTOCHO KIMURA","perfecture_jp":"兵庫県","jp_add_1":"豊岡市","jp_add_2":"但東町木村"},"6680341":{"post_code":"6680341","prefecture":"HYOGO KEN","city":"TOYOKA SHI","town":"TANTOCHO KUCHIFUJI","perfecture_jp":"兵庫県","jp_add_1":"豊岡市","jp_add_2":"但東町口藤"},"6680373":{"post_code":"6680373","prefecture":"HYOGO KEN","city":"TOYOKA SHI","town":"TANTOCHO KUBATA","perfecture_jp":"兵庫県","jp_add_1":"豊岡市","jp_add_2":"但東町久畑"},"6680363":{"post_code":"6680363","prefecture":"HYOGO KEN","city":"TOYOKA SHI","town":"TANTOCHO KURIO","perfecture_jp":"兵庫県","jp_add_1":"豊岡市","jp_add_2":"但東町栗尾"},"6680315":{"post_code":"6680315","prefecture":"HYOGO KEN","city":"TOYOKA SHI","town":"TANTOCHO KOMOTO","perfecture_jp":"兵庫県","jp_add_1":"豊岡市","jp_add_2":"但東町河本"},"6680333":{"post_code":"6680333","prefecture":"HYOGO KEN","city":"TOYOKA SHI","town":"TANTOCHO KORYUJI","perfecture_jp":"兵庫県","jp_add_1":"豊岡市","jp_add_2":"但東町高龍寺"},"6680376":{"post_code":"6680376","prefecture":"HYOGO KEN","city":"TOYOKA SHI","town":"TANTOCHO KOZAKO","perfecture_jp":"兵庫県","jp_add_1":"豊岡市","jp_add_2":"但東町小坂"},"6680354":{"post_code":"6680354","prefecture":"HYOGO KEN","city":"TOYOKA SHI","town":"TANTOCHO SAKAZU","perfecture_jp":"兵庫県","jp_add_1":"豊岡市","jp_add_2":"但東町坂津"},"6680334":{"post_code":"6680334","prefecture":"HYOGO KEN","city":"TOYOKA SHI","town":"TANTOCHO SAKANO","perfecture_jp":"兵庫県","jp_add_1":"豊岡市","jp_add_2":"但東町坂野"},"6680325":{"post_code":"6680325","prefecture":"HYOGO KEN","city":"TOYOKA SHI","town":"TANTOCHO SASAKI","perfecture_jp":"兵庫県","jp_add_1":"豊岡市","jp_add_2":"但東町佐々木"},"6680364":{"post_code":"6680364","prefecture":"HYOGO KEN","city":"TOYOKA SHI","town":"TANTOCHO SADA","perfecture_jp":"兵庫県","jp_add_1":"豊岡市","jp_add_2":"但東町佐田"},"6680361":{"post_code":"6680361","prefecture":"HYOGO KEN","city":"TOYOKA SHI","town":"TANTOCHO SHOBOJI","perfecture_jp":"兵庫県","jp_add_1":"豊岡市","jp_add_2":"但東町正法寺"},"6680311":{"post_code":"6680311","prefecture":"HYOGO KEN","city":"TOYOKA SHI","town":"TANTOCHO DEAI","perfecture_jp":"兵庫県","jp_add_1":"豊岡市","jp_add_2":"但東町出合"},"6680313":{"post_code":"6680313","prefecture":"HYOGO KEN","city":"TOYOKA SHI","town":"TANTOCHO DEAIICHIBA","perfecture_jp":"兵庫県","jp_add_1":"豊岡市","jp_add_2":"但東町出合市場"},"6680337":{"post_code":"6680337","prefecture":"HYOGO KEN","city":"TOYOKA SHI","town":"TANTOCHO TORI","perfecture_jp":"兵庫県","jp_add_1":"豊岡市","jp_add_2":"但東町東里"},"6680342":{"post_code":"6680342","prefecture":"HYOGO KEN","city":"TOYOKA SHI","town":"TANTOCHO NAKAFUJI","perfecture_jp":"兵庫県","jp_add_1":"豊岡市","jp_add_2":"但東町中藤"},"6680345":{"post_code":"6680345","prefecture":"HYOGO KEN","city":"TOYOKA SHI","town":"TANTOCHO NAKAYAMA","perfecture_jp":"兵庫県","jp_add_1":"豊岡市","jp_add_2":"但東町中山"},"6680317":{"post_code":"6680317","prefecture":"HYOGO KEN","city":"TOYOKA SHI","town":"TANTOCHO NISHIDANI","perfecture_jp":"兵庫県","jp_add_1":"豊岡市","jp_add_2":"但東町西谷"},"6680332":{"post_code":"6680332","prefecture":"HYOGO KEN","city":"TOYOKA SHI","town":"TANTOCHO NISHINONO","perfecture_jp":"兵庫県","jp_add_1":"豊岡市","jp_add_2":"但東町西野々"},"6680303":{"post_code":"6680303","prefecture":"HYOGO KEN","city":"TOYOKA SHI","town":"TANTOCHO HATA","perfecture_jp":"兵庫県","jp_add_1":"豊岡市","jp_add_2":"但東町畑"},"6680351":{"post_code":"6680351","prefecture":"HYOGO KEN","city":"TOYOKA SHI","town":"TANTOCHO HATAYAMA","perfecture_jp":"兵庫県","jp_add_1":"豊岡市","jp_add_2":"但東町畑山"},"6680375":{"post_code":"6680375","prefecture":"HYOGO KEN","city":"TOYOKA SHI","town":"TANTOCHO HIGASHINAKA","perfecture_jp":"兵庫県","jp_add_1":"豊岡市","jp_add_2":"但東町東中"},"6680314":{"post_code":"6680314","prefecture":"HYOGO KEN","city":"TOYOKA SHI","town":"TANTOCHO HIDONO","perfecture_jp":"兵庫県","jp_add_1":"豊岡市","jp_add_2":"但東町日殿"},"6680336":{"post_code":"6680336","prefecture":"HYOGO KEN","city":"TOYOKA SHI","town":"TANTOCHO HINADA","perfecture_jp":"兵庫県","jp_add_1":"豊岡市","jp_add_2":"但東町日向"},"6680362":{"post_code":"6680362","prefecture":"HYOGO KEN","city":"TOYOKA SHI","town":"TANTOCHO HIRATA","perfecture_jp":"兵庫県","jp_add_1":"豊岡市","jp_add_2":"但東町平田"},"6680304":{"post_code":"6680304","prefecture":"HYOGO KEN","city":"TOYOKA SHI","town":"TANTOCHO MIZUSHI","perfecture_jp":"兵庫県","jp_add_1":"豊岡市","jp_add_2":"但東町水石"},"6680312":{"post_code":"6680312","prefecture":"HYOGO KEN","city":"TOYOKA SHI","town":"TANTOCHO MINO","perfecture_jp":"兵庫県","jp_add_1":"豊岡市","jp_add_2":"但東町南尾"},"6680322":{"post_code":"6680322","prefecture":"HYOGO KEN","city":"TOYOKA SHI","town":"TANTOCHO MIHARA","perfecture_jp":"兵庫県","jp_add_1":"豊岡市","jp_add_2":"但東町三原"},"6680344":{"post_code":"6680344","prefecture":"HYOGO KEN","city":"TOYOKA SHI","town":"TANTOCHO MUSHU","perfecture_jp":"兵庫県","jp_add_1":"豊岡市","jp_add_2":"但東町虫生"},"6680371":{"post_code":"6680371","prefecture":"HYOGO KEN","city":"TOYOKA SHI","town":"TANTOCHO YAKUOJI","perfecture_jp":"兵庫県","jp_add_1":"豊岡市","jp_add_2":"但東町薬王寺"},"6680302":{"post_code":"6680302","prefecture":"HYOGO KEN","city":"TOYOKA SHI","town":"TANTOCHO YANE","perfecture_jp":"兵庫県","jp_add_1":"豊岡市","jp_add_2":"但東町矢根"},"6680033":{"post_code":"6680033","prefecture":"HYOGO KEN","city":"TOYOKA SHI","town":"CHUOMACHI","perfecture_jp":"兵庫県","jp_add_1":"豊岡市","jp_add_2":"中央町"},"6680032":{"post_code":"6680032","prefecture":"HYOGO KEN","city":"TOYOKA SHI","town":"CHIYODACHO","perfecture_jp":"兵庫県","jp_add_1":"豊岡市","jp_add_2":"千代田町"},"6680073":{"post_code":"6680073","prefecture":"HYOGO KEN","city":"TOYOKA SHI","town":"TSUJI","perfecture_jp":"兵庫県","jp_add_1":"豊岡市","jp_add_2":"辻"},"6680083":{"post_code":"6680083","prefecture":"HYOGO KEN","city":"TOYOKA SHI","town":"TOCHIE","perfecture_jp":"兵庫県","jp_add_1":"豊岡市","jp_add_2":"栃江"},"6680065":{"post_code":"6680065","prefecture":"HYOGO KEN","city":"TOYOKA SHI","town":"TOBERA","perfecture_jp":"兵庫県","jp_add_1":"豊岡市","jp_add_2":"戸牧"},"6680013":{"post_code":"6680013","prefecture":"HYOGO KEN","city":"TOYOKA SHI","town":"NAKAKAGE","perfecture_jp":"兵庫県","jp_add_1":"豊岡市","jp_add_2":"中陰"},"6680842":{"post_code":"6680842","prefecture":"HYOGO KEN","city":"TOYOKA SHI","town":"NAKANOGO","perfecture_jp":"兵庫県","jp_add_1":"豊岡市","jp_add_2":"中郷"},"6680874":{"post_code":"6680874","prefecture":"HYOGO KEN","city":"TOYOKA SHI","town":"NAKANOTANI","perfecture_jp":"兵庫県","jp_add_1":"豊岡市","jp_add_2":"中谷"},"6680834":{"post_code":"6680834","prefecture":"HYOGO KEN","city":"TOYOKA SHI","town":"NAGATANI","perfecture_jp":"兵庫県","jp_add_1":"豊岡市","jp_add_2":"長谷"},"6680074":{"post_code":"6680074","prefecture":"HYOGO KEN","city":"TOYOKA SHI","town":"NOGAKI","perfecture_jp":"兵庫県","jp_add_1":"豊岡市","jp_add_2":"野垣"},"6680804":{"post_code":"6680804","prefecture":"HYOGO KEN","city":"TOYOKA SHI","town":"NOJO","perfecture_jp":"兵庫県","jp_add_1":"豊岡市","jp_add_2":"野上"},"6680014":{"post_code":"6680014","prefecture":"HYOGO KEN","city":"TOYOKA SHI","town":"NODA","perfecture_jp":"兵庫県","jp_add_1":"豊岡市","jp_add_2":"野田"},"6680854":{"post_code":"6680854","prefecture":"HYOGO KEN","city":"TOYOKA SHI","town":"HASAMI","perfecture_jp":"兵庫県","jp_add_1":"豊岡市","jp_add_2":"八社宮"},"6680843":{"post_code":"6680843","prefecture":"HYOGO KEN","city":"TOYOKA SHI","town":"HIKINO","perfecture_jp":"兵庫県","jp_add_1":"豊岡市","jp_add_2":"引野"},"6680844":{"post_code":"6680844","prefecture":"HYOGO KEN","city":"TOYOKA SHI","town":"HIJIUCHI","perfecture_jp":"兵庫県","jp_add_1":"豊岡市","jp_add_2":"土渕"},"6680015":{"post_code":"6680015","prefecture":"HYOGO KEN","city":"TOYOKA SHI","town":"HITOICHI","perfecture_jp":"兵庫県","jp_add_1":"豊岡市","jp_add_2":"一日市"},"6680815":{"post_code":"6680815","prefecture":"HYOGO KEN","city":"TOYOKA SHI","town":"HINADO","perfecture_jp":"兵庫県","jp_add_1":"豊岡市","jp_add_2":"日撫"},"6680075":{"post_code":"6680075","prefecture":"HYOGO KEN","city":"TOYOKA SHI","town":"FUKUJOJI","perfecture_jp":"兵庫県","jp_add_1":"豊岡市","jp_add_2":"福成寺"},"6680084":{"post_code":"6680084","prefecture":"HYOGO KEN","city":"TOYOKA SHI","town":"FUKUDA","perfecture_jp":"兵庫県","jp_add_1":"豊岡市","jp_add_2":"福田"},"6680855":{"post_code":"6680855","prefecture":"HYOGO KEN","city":"TOYOKA SHI","town":"FUSHI","perfecture_jp":"兵庫県","jp_add_1":"豊岡市","jp_add_2":"伏"},"6680076":{"post_code":"6680076","prefecture":"HYOGO KEN","city":"TOYOKA SHI","town":"FUNADANI","perfecture_jp":"兵庫県","jp_add_1":"豊岡市","jp_add_2":"船谷"},"6680805":{"post_code":"6680805","prefecture":"HYOGO KEN","city":"TOYOKA SHI","town":"FUNAMACHI","perfecture_jp":"兵庫県","jp_add_1":"豊岡市","jp_add_2":"船町"},"6680816":{"post_code":"6680816","prefecture":"HYOGO KEN","city":"TOYOKA SHI","town":"HOKKEIJI","perfecture_jp":"兵庫県","jp_add_1":"豊岡市","jp_add_2":"法花寺"},"6680047":{"post_code":"6680047","prefecture":"HYOGO KEN","city":"TOYOKA SHI","town":"MISAKACHO","perfecture_jp":"兵庫県","jp_add_1":"豊岡市","jp_add_2":"三坂町"},"6680085":{"post_code":"6680085","prefecture":"HYOGO KEN","city":"TOYOKA SHI","town":"MIYAI","perfecture_jp":"兵庫県","jp_add_1":"豊岡市","jp_add_2":"宮井"},"6680823":{"post_code":"6680823","prefecture":"HYOGO KEN","city":"TOYOKA SHI","town":"MIYAKE","perfecture_jp":"兵庫県","jp_add_1":"豊岡市","jp_add_2":"三宅"},"6680016":{"post_code":"6680016","prefecture":"HYOGO KEN","city":"TOYOKA SHI","town":"MIYAJIMA","perfecture_jp":"兵庫県","jp_add_1":"豊岡市","jp_add_2":"宮島"},"6680056":{"post_code":"6680056","prefecture":"HYOGO KEN","city":"TOYOKA SHI","town":"MYORAKUJI","perfecture_jp":"兵庫県","jp_add_1":"豊岡市","jp_add_2":"妙楽寺"},"6680077":{"post_code":"6680077","prefecture":"HYOGO KEN","city":"TOYOKA SHI","town":"MESAKA","perfecture_jp":"兵庫県","jp_add_1":"豊岡市","jp_add_2":"目坂"},"6680026":{"post_code":"6680026","prefecture":"HYOGO KEN","city":"TOYOKA SHI","town":"MOTOMACHI","perfecture_jp":"兵庫県","jp_add_1":"豊岡市","jp_add_2":"元町"},"6680806":{"post_code":"6680806","prefecture":"HYOGO KEN","city":"TOYOKA SHI","town":"MORI","perfecture_jp":"兵庫県","jp_add_1":"豊岡市","jp_add_2":"森"},"6680824":{"post_code":"6680824","prefecture":"HYOGO KEN","city":"TOYOKA SHI","town":"MORIO","perfecture_jp":"兵庫県","jp_add_1":"豊岡市","jp_add_2":"森尾"},"6680006":{"post_code":"6680006","prefecture":"HYOGO KEN","city":"TOYOKA SHI","town":"MORIZU","perfecture_jp":"兵庫県","jp_add_1":"豊岡市","jp_add_2":"森津"},"6680057":{"post_code":"6680057","prefecture":"HYOGO KEN","city":"TOYOKA SHI","town":"YASAKACHO","perfecture_jp":"兵庫県","jp_add_1":"豊岡市","jp_add_2":"弥栄町"},"6680807":{"post_code":"6680807","prefecture":"HYOGO KEN","city":"TOYOKA SHI","town":"YAMAMOTO","perfecture_jp":"兵庫県","jp_add_1":"豊岡市","jp_add_2":"山本"},"6680875":{"post_code":"6680875","prefecture":"HYOGO KEN","city":"TOYOKA SHI","town":"YURUJI","perfecture_jp":"兵庫県","jp_add_1":"豊岡市","jp_add_2":"百合地"},"6680078":{"post_code":"6680078","prefecture":"HYOGO KEN","city":"TOYOKA SHI","town":"YOSHII","perfecture_jp":"兵庫県","jp_add_1":"豊岡市","jp_add_2":"吉井"},"6680817":{"post_code":"6680817","prefecture":"HYOGO KEN","city":"TOYOKA SHI","town":"ROKUJIZO","perfecture_jp":"兵庫県","jp_add_1":"豊岡市","jp_add_2":"六地蔵"},"6680027":{"post_code":"6680027","prefecture":"HYOGO KEN","city":"TOYOKA SHI","town":"WAKAMATSUCHO","perfecture_jp":"兵庫県","jp_add_1":"豊岡市","jp_add_2":"若松町"}}