{"6691161":{"post_code":"6691161","prefecture":"HYOGO KEN","city":"KOBE SHI KITA KU","town":"DOJOCHOIKUNO(1172-BANCHI)","perfecture_jp":"兵庫県","jp_add_1":"神戸市北区","jp_add_2":"道場町生野"},"6691122":{"post_code":"6691122","prefecture":"HYOGO KEN","city":"NISHINOMIYA SHI","town":"AOBADAI","perfecture_jp":"兵庫県","jp_add_1":"西宮市","jp_add_2":"青葉台"},"6691131":{"post_code":"6691131","prefecture":"HYOGO KEN","city":"NISHINOMIYA SHI","town":"KIYOSEDAI","perfecture_jp":"兵庫県","jp_add_1":"西宮市","jp_add_2":"清瀬台"},"6691135":{"post_code":"6691135","prefecture":"HYOGO KEN","city":"NISHINOMIYA SHI","town":"KUNIMIDAI","perfecture_jp":"兵庫県","jp_add_1":"西宮市","jp_add_2":"国見台"},"6691101":{"post_code":"6691101","prefecture":"HYOGO KEN","city":"NISHINOMIYA SHI","town":"SHIOSECHO NAMAZE","perfecture_jp":"兵庫県","jp_add_1":"西宮市","jp_add_2":"塩瀬町生瀬"},"6691251":{"post_code":"6691251","prefecture":"HYOGO KEN","city":"NISHINOMIYA SHI","town":"5313-35-BANCHI)","perfecture_jp":"兵庫県","jp_add_1":"西宮市","jp_add_2":"塩瀬町名塩"},"6691141":{"post_code":"6691141","prefecture":"HYOGO KEN","city":"NISHINOMIYA SHI","town":"SHIOSECHONAJIO(SONOTA)","perfecture_jp":"兵庫県","jp_add_1":"西宮市","jp_add_2":"塩瀬町名塩"},"6691147":{"post_code":"6691147","prefecture":"HYOGO KEN","city":"NISHINOMIYA SHI","town":"NAJIO","perfecture_jp":"兵庫県","jp_add_1":"西宮市","jp_add_2":"名塩"},"6691149":{"post_code":"6691149","prefecture":"HYOGO KEN","city":"NISHINOMIYA SHI","town":"NAJIO AKASAKA","perfecture_jp":"兵庫県","jp_add_1":"西宮市","jp_add_2":"名塩赤坂"},"6691143":{"post_code":"6691143","prefecture":"HYOGO KEN","city":"NISHINOMIYA SHI","town":"NAJIO GADEN","perfecture_jp":"兵庫県","jp_add_1":"西宮市","jp_add_2":"名塩ガーデン"},"6691136":{"post_code":"6691136","prefecture":"HYOGO KEN","city":"NISHINOMIYA SHI","town":"NAJIOKONOMOTO","perfecture_jp":"兵庫県","jp_add_1":"西宮市","jp_add_2":"名塩木之元"},"6691146":{"post_code":"6691146","prefecture":"HYOGO KEN","city":"NISHINOMIYA SHI","town":"NAJIOSAKURADAI","perfecture_jp":"兵庫県","jp_add_1":"西宮市","jp_add_2":"名塩さくら台"},"6691142":{"post_code":"6691142","prefecture":"HYOGO KEN","city":"NISHINOMIYA SHI","town":"NAJIO SANSO","perfecture_jp":"兵庫県","jp_add_1":"西宮市","jp_add_2":"名塩山荘"},"6691144":{"post_code":"6691144","prefecture":"HYOGO KEN","city":"NISHINOMIYA SHI","town":"NAJIO CHAENCHO","perfecture_jp":"兵庫県","jp_add_1":"西宮市","jp_add_2":"名塩茶園町"},"6691148":{"post_code":"6691148","prefecture":"HYOGO KEN","city":"NISHINOMIYA SHI","town":"NAJIO TOKUBO","perfecture_jp":"兵庫県","jp_add_1":"西宮市","jp_add_2":"名塩東久保"},"6691145":{"post_code":"6691145","prefecture":"HYOGO KEN","city":"NISHINOMIYA SHI","town":"NAJIOHEISEIDAI","perfecture_jp":"兵庫県","jp_add_1":"西宮市","jp_add_2":"名塩平成台"},"6691132":{"post_code":"6691132","prefecture":"HYOGO KEN","city":"NISHINOMIYA SHI","town":"NAJIO MINAMIDAI","perfecture_jp":"兵庫県","jp_add_1":"西宮市","jp_add_2":"名塩南台"},"6691162":{"post_code":"6691162","prefecture":"HYOGO KEN","city":"NISHINOMIYA SHI","town":"NAJIOMIYAMA","perfecture_jp":"兵庫県","jp_add_1":"西宮市","jp_add_2":"名塩美山"},"6691134":{"post_code":"6691134","prefecture":"HYOGO KEN","city":"NISHINOMIYA SHI","town":"NAJIOSHIMMACHI","perfecture_jp":"兵庫県","jp_add_1":"西宮市","jp_add_2":"名塩新町"},"6691103":{"post_code":"6691103","prefecture":"HYOGO KEN","city":"NISHINOMIYA SHI","town":"NAMAZE HIGASHIMACHI","perfecture_jp":"兵庫県","jp_add_1":"西宮市","jp_add_2":"生瀬東町"},"6691111":{"post_code":"6691111","prefecture":"HYOGO KEN","city":"NISHINOMIYA SHI","town":"NAMAZE TAKADAI","perfecture_jp":"兵庫県","jp_add_1":"西宮市","jp_add_2":"生瀬高台"},"6691102":{"post_code":"6691102","prefecture":"HYOGO KEN","city":"NISHINOMIYA SHI","town":"NAMAZECHO","perfecture_jp":"兵庫県","jp_add_1":"西宮市","jp_add_2":"生瀬町"},"6691104":{"post_code":"6691104","prefecture":"HYOGO KEN","city":"NISHINOMIYA SHI","town":"NAMASEMUKOGAWACHO","perfecture_jp":"兵庫県","jp_add_1":"西宮市","jp_add_2":"生瀬武庫川町"},"6691121":{"post_code":"6691121","prefecture":"HYOGO KEN","city":"NISHINOMIYA SHI","town":"HANANOMINE","perfecture_jp":"兵庫県","jp_add_1":"西宮市","jp_add_2":"花の峯"},"6691133":{"post_code":"6691133","prefecture":"HYOGO KEN","city":"NISHINOMIYA SHI","town":"HIGASHIYAMADAI","perfecture_jp":"兵庫県","jp_add_1":"西宮市","jp_add_2":"東山台"},"6691112":{"post_code":"6691112","prefecture":"HYOGO KEN","city":"NISHINOMIYA SHI","town":"HOSHOGAOKA","perfecture_jp":"兵庫県","jp_add_1":"西宮市","jp_add_2":"宝生ケ丘"},"6696123":{"post_code":"6696123","prefecture":"HYOGO KEN","city":"TOYOKA SHI","town":"OSHIMA","perfecture_jp":"兵庫県","jp_add_1":"豊岡市","jp_add_2":"小島"},"6696103":{"post_code":"6696103","prefecture":"HYOGO KEN","city":"TOYOKA SHI","town":"KINOSAKICHO IMAZU","perfecture_jp":"兵庫県","jp_add_1":"豊岡市","jp_add_2":"城崎町今津"},"6696116":{"post_code":"6696116","prefecture":"HYOGO KEN","city":"TOYOKA SHI","town":"KINOSAKICHO UYAMA","perfecture_jp":"兵庫県","jp_add_1":"豊岡市","jp_add_2":"城崎町上山"},"6696115":{"post_code":"6696115","prefecture":"HYOGO KEN","city":"TOYOKA SHI","town":"KINOSAKICHO KURUHI","perfecture_jp":"兵庫県","jp_add_1":"豊岡市","jp_add_2":"城崎町来日"},"6696111":{"post_code":"6696111","prefecture":"HYOGO KEN","city":"TOYOKA SHI","town":"KINOSAKICHO SASAURA","perfecture_jp":"兵庫県","jp_add_1":"豊岡市","jp_add_2":"城崎町楽々浦"},"6696114":{"post_code":"6696114","prefecture":"HYOGO KEN","city":"TOYOKA SHI","town":"KINOSAKICHO TOSHIMA","perfecture_jp":"兵庫県","jp_add_1":"豊岡市","jp_add_2":"城崎町戸島"},"6696112":{"post_code":"6696112","prefecture":"HYOGO KEN","city":"TOYOKA SHI","town":"KINOSAKICHO HANDANI","perfecture_jp":"兵庫県","jp_add_1":"豊岡市","jp_add_2":"城崎町飯谷"},"6696113":{"post_code":"6696113","prefecture":"HYOGO KEN","city":"TOYOKA SHI","town":"KINOSAKICHO MUSUBU","perfecture_jp":"兵庫県","jp_add_1":"豊岡市","jp_add_2":"城崎町結"},"6696102":{"post_code":"6696102","prefecture":"HYOGO KEN","city":"TOYOKA SHI","town":"KINOSAKICHO MOMOSHIMA","perfecture_jp":"兵庫県","jp_add_1":"豊岡市","jp_add_2":"城崎町桃島"},"6696101":{"post_code":"6696101","prefecture":"HYOGO KEN","city":"TOYOKA SHI","town":"KINOSAKICHO YUSHIMA","perfecture_jp":"兵庫県","jp_add_1":"豊岡市","jp_add_2":"城崎町湯島"},"6696124":{"post_code":"6696124","prefecture":"HYOGO KEN","city":"TOYOKA SHI","town":"KEHI","perfecture_jp":"兵庫県","jp_add_1":"豊岡市","jp_add_2":"気比"},"6696122":{"post_code":"6696122","prefecture":"HYOGO KEN","city":"TOYOKA SHI","town":"SETO","perfecture_jp":"兵庫県","jp_add_1":"豊岡市","jp_add_2":"瀬戸"},"6696125":{"post_code":"6696125","prefecture":"HYOGO KEN","city":"TOYOKA SHI","town":"TAI","perfecture_jp":"兵庫県","jp_add_1":"豊岡市","jp_add_2":"田結"},"6696214":{"post_code":"6696214","prefecture":"HYOGO KEN","city":"TOYOKA SHI","town":"TAKENOCHO AKONDANI","perfecture_jp":"兵庫県","jp_add_1":"豊岡市","jp_add_2":"竹野町阿金谷"},"6696223":{"post_code":"6696223","prefecture":"HYOGO KEN","city":"TOYOKA SHI","town":"TAKENOCHO ASHIDANI","perfecture_jp":"兵庫県","jp_add_1":"豊岡市","jp_add_2":"竹野町芦谷"},"6696202":{"post_code":"6696202","prefecture":"HYOGO KEN","city":"TOYOKA SHI","town":"TAKENOCHO UHI","perfecture_jp":"兵庫県","jp_add_1":"豊岡市","jp_add_2":"竹野町宇日"},"6696352":{"post_code":"6696352","prefecture":"HYOGO KEN","city":"TOYOKA SHI","town":"TAKENOCHO OMORI","perfecture_jp":"兵庫県","jp_add_1":"豊岡市","jp_add_2":"竹野町大森"},"6696218":{"post_code":"6696218","prefecture":"HYOGO KEN","city":"TOYOKA SHI","town":"TAKENOCHO OKUSUI","perfecture_jp":"兵庫県","jp_add_1":"豊岡市","jp_add_2":"竹野町奥須井"},"6696224":{"post_code":"6696224","prefecture":"HYOGO KEN","city":"TOYOKA SHI","town":"TAKENOCHO OJINDANI","perfecture_jp":"兵庫県","jp_add_1":"豊岡市","jp_add_2":"竹野町鬼神谷"},"6696333":{"post_code":"6696333","prefecture":"HYOGO KEN","city":"TOYOKA SHI","town":"TAKENOCHO OMMATA","perfecture_jp":"兵庫県","jp_add_1":"豊岡市","jp_add_2":"竹野町御又"},"6696354":{"post_code":"6696354","prefecture":"HYOGO KEN","city":"TOYOKA SHI","town":"TAKENOCHO KANANDANI","perfecture_jp":"兵庫県","jp_add_1":"豊岡市","jp_add_2":"竹野町川南谷"},"6696334":{"post_code":"6696334","prefecture":"HYOGO KEN","city":"TOYOKA SHI","town":"TAKENOCHO KAWACHI","perfecture_jp":"兵庫県","jp_add_1":"豊岡市","jp_add_2":"竹野町河内"},"6696216":{"post_code":"6696216","prefecture":"HYOGO KEN","city":"TOYOKA SHI","town":"TAKENOCHO KIRIHAMA","perfecture_jp":"兵庫県","jp_add_1":"豊岡市","jp_add_2":"竹野町切浜"},"6696229":{"post_code":"6696229","prefecture":"HYOGO KEN","city":"TOYOKA SHI","town":"TAKENOCHO KIMBARA","perfecture_jp":"兵庫県","jp_add_1":"豊岡市","jp_add_2":"竹野町金原"},"6696215":{"post_code":"6696215","prefecture":"HYOGO KEN","city":"TOYOKA SHI","town":"TAKENOCHO KUSAKAI","perfecture_jp":"兵庫県","jp_add_1":"豊岡市","jp_add_2":"竹野町草飼"},"6696353":{"post_code":"6696353","prefecture":"HYOGO KEN","city":"TOYOKA SHI","town":"TAKENOCHO KUWANOMOTO","perfecture_jp":"兵庫県","jp_add_1":"豊岡市","jp_add_2":"竹野町桑野本"},"6696341":{"post_code":"6696341","prefecture":"HYOGO KEN","city":"TOYOKA SHI","town":"TAKENOCHO KOJO","perfecture_jp":"兵庫県","jp_add_1":"豊岡市","jp_add_2":"竹野町小城"},"6696222":{"post_code":"6696222","prefecture":"HYOGO KEN","city":"TOYOKA SHI","town":"TAKENOCHO KOMARU","perfecture_jp":"兵庫県","jp_add_1":"豊岡市","jp_add_2":"竹野町小丸"},"6696226":{"post_code":"6696226","prefecture":"HYOGO KEN","city":"TOYOKA SHI","town":"TAKENOCHO SHIMOZUKA","perfecture_jp":"兵庫県","jp_add_1":"豊岡市","jp_add_2":"竹野町下塚"},"6696221":{"post_code":"6696221","prefecture":"HYOGO KEN","city":"TOYOKA SHI","town":"TAKENOCHO SUDANI","perfecture_jp":"兵庫県","jp_add_1":"豊岡市","jp_add_2":"竹野町須谷"},"6696351":{"post_code":"6696351","prefecture":"HYOGO KEN","city":"TOYOKA SHI","town":"TAKENOCHO SUNOTANI","perfecture_jp":"兵庫県","jp_add_1":"豊岡市","jp_add_2":"竹野町須野谷"},"6696203":{"post_code":"6696203","prefecture":"HYOGO KEN","city":"TOYOKA SHI","town":"TAKENOCHO TAKUHI","perfecture_jp":"兵庫県","jp_add_1":"豊岡市","jp_add_2":"竹野町田久日"},"6696201":{"post_code":"6696201","prefecture":"HYOGO KEN","city":"TOYOKA SHI","town":"TAKENOCHO TAKENO","perfecture_jp":"兵庫県","jp_add_1":"豊岡市","jp_add_2":"竹野町竹野"},"6696343":{"post_code":"6696343","prefecture":"HYOGO KEN","city":"TOYOKA SHI","town":"TAKENOCHO DAN","perfecture_jp":"兵庫県","jp_add_1":"豊岡市","jp_add_2":"竹野町段"},"6696225":{"post_code":"6696225","prefecture":"HYOGO KEN","city":"TOYOKA SHI","town":"TAKENOCHO TODOROKI","perfecture_jp":"兵庫県","jp_add_1":"豊岡市","jp_add_2":"竹野町轟"},"6696342":{"post_code":"6696342","prefecture":"HYOGO KEN","city":"TOYOKA SHI","town":"TAKENOCHO NIREMBARA","perfecture_jp":"兵庫県","jp_add_1":"豊岡市","jp_add_2":"竹野町二連原"},"6696344":{"post_code":"6696344","prefecture":"HYOGO KEN","city":"TOYOKA SHI","town":"TAKENOCHO HAJIKAMI","perfecture_jp":"兵庫県","jp_add_1":"豊岡市","jp_add_2":"竹野町椒"},"6696213":{"post_code":"6696213","prefecture":"HYOGO KEN","city":"TOYOKA SHI","town":"TAKENOCHO HANYU","perfecture_jp":"兵庫県","jp_add_1":"豊岡市","jp_add_2":"竹野町羽入"},"6696217":{"post_code":"6696217","prefecture":"HYOGO KEN","city":"TOYOKA SHI","town":"TAKENOCHO HAMASUI","perfecture_jp":"兵庫県","jp_add_1":"豊岡市","jp_add_2":"竹野町浜須井"},"6696227":{"post_code":"6696227","prefecture":"HYOGO KEN","city":"TOYOKA SHI","town":"TAKENOCHO HAYASHI","perfecture_jp":"兵庫県","jp_add_1":"豊岡市","jp_add_2":"竹野町林"},"6696228":{"post_code":"6696228","prefecture":"HYOGO KEN","city":"TOYOKA SHI","town":"TAKENOCHO HIGASHIOTANI","perfecture_jp":"兵庫県","jp_add_1":"豊岡市","jp_add_2":"竹野町東大谷"},"6696331":{"post_code":"6696331","prefecture":"HYOGO KEN","city":"TOYOKA SHI","town":"TAKENOCHO BOOKA","perfecture_jp":"兵庫県","jp_add_1":"豊岡市","jp_add_2":"竹野町坊岡"},"6696212":{"post_code":"6696212","prefecture":"HYOGO KEN","city":"TOYOKA SHI","town":"TAKENOCHO MATSUMOTO","perfecture_jp":"兵庫県","jp_add_1":"豊岡市","jp_add_2":"竹野町松本"},"6696355":{"post_code":"6696355","prefecture":"HYOGO KEN","city":"TOYOKA SHI","town":"TAKENOCHO MIHARA","perfecture_jp":"兵庫県","jp_add_1":"豊岡市","jp_add_2":"竹野町三原"},"6696332":{"post_code":"6696332","prefecture":"HYOGO KEN","city":"TOYOKA SHI","town":"TAKENOCHO MORIMOTO","perfecture_jp":"兵庫県","jp_add_1":"豊岡市","jp_add_2":"竹野町森本"},"6696335":{"post_code":"6696335","prefecture":"HYOGO KEN","city":"TOYOKA SHI","town":"TAKENOCHO MONDANI","perfecture_jp":"兵庫県","jp_add_1":"豊岡市","jp_add_2":"竹野町門谷"},"6696211":{"post_code":"6696211","prefecture":"HYOGO KEN","city":"TOYOKA SHI","town":"TAKENOCHO WADA","perfecture_jp":"兵庫県","jp_add_1":"豊岡市","jp_add_2":"竹野町和田"},"6696121":{"post_code":"6696121","prefecture":"HYOGO KEN","city":"TOYOKA SHI","town":"TSUIYAMA","perfecture_jp":"兵庫県","jp_add_1":"豊岡市","jp_add_2":"津居山"},"6696127":{"post_code":"6696127","prefecture":"HYOGO KEN","city":"TOYOKA SHI","town":"HATAGAMI","perfecture_jp":"兵庫県","jp_add_1":"豊岡市","jp_add_2":"畑上"},"6695314":{"post_code":"6695314","prefecture":"HYOGO KEN","city":"TOYOKA SHI","town":"HIDAKACHO AKASAKI","perfecture_jp":"兵庫県","jp_add_1":"豊岡市","jp_add_2":"日高町赤崎"},"6695331":{"post_code":"6695331","prefecture":"HYOGO KEN","city":"TOYOKA SHI","town":"HIDAKACHO AGESHI","perfecture_jp":"兵庫県","jp_add_1":"豊岡市","jp_add_2":"日高町上石"},"6695315":{"post_code":"6695315","prefecture":"HYOGO KEN","city":"TOYOKA SHI","town":"HIDAKACHO ASAKURA","perfecture_jp":"兵庫県","jp_add_1":"豊岡市","jp_add_2":"日高町浅倉"},"6695356":{"post_code":"6695356","prefecture":"HYOGO KEN","city":"TOYOKA SHI","town":"HIDAKACHO ARAKAWA","perfecture_jp":"兵庫県","jp_add_1":"豊岡市","jp_add_2":"日高町荒川"},"6695326":{"post_code":"6695326","prefecture":"HYOGO KEN","city":"TOYOKA SHI","town":"HIDAKACHO IKEGAMI","perfecture_jp":"兵庫県","jp_add_1":"豊岡市","jp_add_2":"日高町池上"},"6695367":{"post_code":"6695367","prefecture":"HYOGO KEN","city":"TOYOKA SHI","town":"HIDAKACHO ISHII","perfecture_jp":"兵庫県","jp_add_1":"豊岡市","jp_add_2":"日高町石井"},"6695375":{"post_code":"6695375","prefecture":"HYOGO KEN","city":"TOYOKA SHI","town":"HIDAKACHO INAMBA","perfecture_jp":"兵庫県","jp_add_1":"豊岡市","jp_add_2":"日高町稲葉"},"6695357":{"post_code":"6695357","prefecture":"HYOGO KEN","city":"TOYOKA SHI","town":"HIDAKACHO TANOKUCHI","perfecture_jp":"兵庫県","jp_add_1":"豊岡市","jp_add_2":"日高町猪子垣"},"6695338":{"post_code":"6695338","prefecture":"HYOGO KEN","city":"TOYOKA SHI","town":"HIDAKACHO INOTSUME","perfecture_jp":"兵庫県","jp_add_1":"豊岡市","jp_add_2":"日高町猪爪"},"6695346":{"post_code":"6695346","prefecture":"HYOGO KEN","city":"TOYOKA SHI","town":"HIDAKACHO IBU","perfecture_jp":"兵庫県","jp_add_1":"豊岡市","jp_add_2":"日高町伊府"},"6695302":{"post_code":"6695302","prefecture":"HYOGO KEN","city":"TOYOKA SHI","town":"HIDAKACHO IWANAKA","perfecture_jp":"兵庫県","jp_add_1":"豊岡市","jp_add_2":"日高町岩中"},"6695301":{"post_code":"6695301","prefecture":"HYOGO KEN","city":"TOYOKA SHI","town":"HIDAKACHO EBARA","perfecture_jp":"兵庫県","jp_add_1":"豊岡市","jp_add_2":"日高町江原"},"6695339":{"post_code":"6695339","prefecture":"HYOGO KEN","city":"TOYOKA SHI","town":"HIDAKACHO YASHIRO","perfecture_jp":"兵庫県","jp_add_1":"豊岡市","jp_add_2":"日高町大岡"},"6695324":{"post_code":"6695324","prefecture":"HYOGO KEN","city":"TOYOKA SHI","town":"HIDAKACHO KAMINOGO","perfecture_jp":"兵庫県","jp_add_1":"豊岡市","jp_add_2":"日高町上郷"},"6695354":{"post_code":"6695354","prefecture":"HYOGO KEN","city":"TOYOKA SHI","town":"HIDAKACHO KANNONJI","perfecture_jp":"兵庫県","jp_add_1":"豊岡市","jp_add_2":"日高町観音寺"},"6695345":{"post_code":"6695345","prefecture":"HYOGO KEN","city":"TOYOKA SHI","town":"HIDAKACHO KUTADANI","perfecture_jp":"兵庫県","jp_add_1":"豊岡市","jp_add_2":"日高町久田谷"},"6695342":{"post_code":"6695342","prefecture":"HYOGO KEN","city":"TOYOKA SHI","town":"HIDAKACHO KUTO","perfecture_jp":"兵庫県","jp_add_1":"豊岡市","jp_add_2":"日高町久斗"},"6695372":{"post_code":"6695372","prefecture":"HYOGO KEN","city":"TOYOKA SHI","town":"HIDAKACHO KURISUNO","perfecture_jp":"兵庫県","jp_add_1":"豊岡市","jp_add_2":"日高町栗栖野"},"6695361":{"post_code":"6695361","prefecture":"HYOGO KEN","city":"TOYOKA SHI","town":"HIDAKACHO KURIYAMA","perfecture_jp":"兵庫県","jp_add_1":"豊岡市","jp_add_2":"日高町栗山"},"6695341":{"post_code":"6695341","prefecture":"HYOGO KEN","city":"TOYOKA SHI","town":"HIDAKACHO KOKUBUNJI","perfecture_jp":"兵庫県","jp_add_1":"豊岡市","jp_add_2":"日高町国分寺"},"6695366":{"post_code":"6695366","prefecture":"HYOGO KEN","city":"TOYOKA SHI","town":"HIDAKACHO KOROGAKI","perfecture_jp":"兵庫県","jp_add_1":"豊岡市","jp_add_2":"日高町頃垣"},"6695351":{"post_code":"6695351","prefecture":"HYOGO KEN","city":"TOYOKA SHI","town":"HIDAKACHO SATA","perfecture_jp":"兵庫県","jp_add_1":"豊岡市","jp_add_2":"日高町佐田"},"6695355":{"post_code":"6695355","prefecture":"HYOGO KEN","city":"TOYOKA SHI","town":"HIDAKACHO SHINOGAKI","perfecture_jp":"兵庫県","jp_add_1":"豊岡市","jp_add_2":"日高町篠垣"},"6695362":{"post_code":"6695362","prefecture":"HYOGO KEN","city":"TOYOKA SHI","town":"HIDAKACHO SHIBA","perfecture_jp":"兵庫県","jp_add_1":"豊岡市","jp_add_2":"日高町芝"},"6695365":{"post_code":"6695365","prefecture":"HYOGO KEN","city":"TOYOKA SHI","town":"HIDAKACHO JUGO","perfecture_jp":"兵庫県","jp_add_1":"豊岡市","jp_add_2":"日高町十戸"},"6695364":{"post_code":"6695364","prefecture":"HYOGO KEN","city":"TOYOKA SHI","town":"HIDAKACHO SHOZAKAE","perfecture_jp":"兵庫県","jp_add_1":"豊岡市","jp_add_2":"日高町庄境"},"6695332":{"post_code":"6695332","prefecture":"HYOGO KEN","city":"TOYOKA SHI","town":"HIDAKACHO TAKANUKI","perfecture_jp":"兵庫県","jp_add_1":"豊岡市","jp_add_2":"日高町竹貫"},"6695371":{"post_code":"6695371","prefecture":"HYOGO KEN","city":"TOYOKA SHI","town":"HIDAKACHO TADA","perfecture_jp":"兵庫県","jp_add_1":"豊岡市","jp_add_2":"日高町太田"},"6695336":{"post_code":"6695336","prefecture":"HYOGO KEN","city":"TOYOKA SHI","town":"HIDAKACHO TANI","perfecture_jp":"兵庫県","jp_add_1":"豊岡市","jp_add_2":"日高町谷"},"6695352":{"post_code":"6695352","prefecture":"HYOGO KEN","city":"TOYOKA SHI","town":"HIDAKACHO CHIMI","perfecture_jp":"兵庫県","jp_add_1":"豊岡市","jp_add_2":"日高町知見"},"6695313":{"post_code":"6695313","prefecture":"HYOGO KEN","city":"TOYOKA SHI","town":"HIDAKACHO TSURUOKA","perfecture_jp":"兵庫県","jp_add_1":"豊岡市","jp_add_2":"日高町鶴岡"},"6695321":{"post_code":"6695321","prefecture":"HYOGO KEN","city":"TOYOKA SHI","town":"HIDAKACHO DOI","perfecture_jp":"兵庫県","jp_add_1":"豊岡市","jp_add_2":"日高町土居"},"6695343":{"post_code":"6695343","prefecture":"HYOGO KEN","city":"TOYOKA SHI","town":"HIDAKACHO DOJO","perfecture_jp":"兵庫県","jp_add_1":"豊岡市","jp_add_2":"日高町道場"},"6695369":{"post_code":"6695369","prefecture":"HYOGO KEN","city":"TOYOKA SHI","town":"HIDAKACHO TOCHIMOTO","perfecture_jp":"兵庫県","jp_add_1":"豊岡市","jp_add_2":"日高町栃本"},"6695358":{"post_code":"6695358","prefecture":"HYOGO KEN","city":"TOYOKA SHI","town":"HIDAKACHO HIROI","perfecture_jp":"兵庫県","jp_add_1":"豊岡市","jp_add_2":"日高町殿"},"6695337":{"post_code":"6695337","prefecture":"HYOGO KEN","city":"TOYOKA SHI","town":"HIDAKACHO NAKA","perfecture_jp":"兵庫県","jp_add_1":"豊岡市","jp_add_2":"日高町中"},"6695335":{"post_code":"6695335","prefecture":"HYOGO KEN","city":"TOYOKA SHI","town":"HIDAKACHO NASAJI","perfecture_jp":"兵庫県","jp_add_1":"豊岡市","jp_add_2":"日高町奈佐路"},"6695379":{"post_code":"6695379","prefecture":"HYOGO KEN","city":"TOYOKA SHI","town":"HIDAKACHO NASHIKI","perfecture_jp":"兵庫県","jp_add_1":"豊岡市","jp_add_2":"日高町名色"},"6695344":{"post_code":"6695344","prefecture":"HYOGO KEN","city":"TOYOKA SHI","town":"HIDAKACHO NATSUKURI","perfecture_jp":"兵庫県","jp_add_1":"豊岡市","jp_add_2":"日高町夏栗"},"6695328":{"post_code":"6695328","prefecture":"HYOGO KEN","city":"TOYOKA SHI","town":"HIDAKACHO HIGASHISHIBA","perfecture_jp":"兵庫県","jp_add_1":"豊岡市","jp_add_2":"日高町西芝"},"6695305":{"post_code":"6695305","prefecture":"HYOGO KEN","city":"TOYOKA SHI","town":"HIDAKACHO NYO","perfecture_jp":"兵庫県","jp_add_1":"豊岡市","jp_add_2":"日高町祢布"},"6695363":{"post_code":"6695363","prefecture":"HYOGO KEN","city":"TOYOKA SHI","town":"HIDAKACHO NO","perfecture_jp":"兵庫県","jp_add_1":"豊岡市","jp_add_2":"日高町野"},"6695327":{"post_code":"6695327","prefecture":"HYOGO KEN","city":"TOYOKA SHI","town":"HIDAKACHO NONOSHO","perfecture_jp":"兵庫県","jp_add_1":"豊岡市","jp_add_2":"日高町野々庄"},"6695359":{"post_code":"6695359","prefecture":"HYOGO KEN","city":"TOYOKA SHI","town":"HIDAKACHO HAJIRI","perfecture_jp":"兵庫県","jp_add_1":"豊岡市","jp_add_2":"日高町羽尻"},"6695311":{"post_code":"6695311","prefecture":"HYOGO KEN","city":"TOYOKA SHI","town":"HIDAKACHO HIOKI","perfecture_jp":"兵庫県","jp_add_1":"豊岡市","jp_add_2":"日高町日置"},"6695303":{"post_code":"6695303","prefecture":"HYOGO KEN","city":"TOYOKA SHI","town":"HIDAKACHO HIGASHIGAMAE","perfecture_jp":"兵庫県","jp_add_1":"豊岡市","jp_add_2":"日高町東構"},"6695373":{"post_code":"6695373","prefecture":"HYOGO KEN","city":"TOYOKA SHI","town":"HIDAKACHO HIGASHIGOCHI","perfecture_jp":"兵庫県","jp_add_1":"豊岡市","jp_add_2":"日高町東河内"},"6695312":{"post_code":"6695312","prefecture":"HYOGO KEN","city":"TOYOKA SHI","town":"HIDAKACHO HIDAKA","perfecture_jp":"兵庫県","jp_add_1":"豊岡市","jp_add_2":"日高町日高"},"6695322":{"post_code":"6695322","prefecture":"HYOGO KEN","city":"TOYOKA SHI","town":"HIDAKACHO FUICHIBA","perfecture_jp":"兵庫県","jp_add_1":"豊岡市","jp_add_2":"日高町府市場"},"6695333":{"post_code":"6695333","prefecture":"HYOGO KEN","city":"TOYOKA SHI","town":"HIDAKACHO FUJII","perfecture_jp":"兵庫県","jp_add_1":"豊岡市","jp_add_2":"日高町藤井"},"6695323":{"post_code":"6695323","prefecture":"HYOGO KEN","city":"TOYOKA SHI","town":"HIDAKACHO FUCHUSHIN","perfecture_jp":"兵庫県","jp_add_1":"豊岡市","jp_add_2":"日高町府中新"},"6695325":{"post_code":"6695325","prefecture":"HYOGO KEN","city":"TOYOKA SHI","town":"HIDAKACHO HORI","perfecture_jp":"兵庫県","jp_add_1":"豊岡市","jp_add_2":"日高町堀"},"6695307":{"post_code":"6695307","prefecture":"HYOGO KEN","city":"TOYOKA SHI","town":"HIDAKACHO MATSUOKA","perfecture_jp":"兵庫県","jp_add_1":"豊岡市","jp_add_2":"日高町松岡"},"6695376":{"post_code":"6695376","prefecture":"HYOGO KEN","city":"TOYOKA SHI","town":"HIDAKACHO MANGO","perfecture_jp":"兵庫県","jp_add_1":"豊岡市","jp_add_2":"日高町万劫"},"6695378":{"post_code":"6695378","prefecture":"HYOGO KEN","city":"TOYOKA SHI","town":"HIDAKACHO MAMBA","perfecture_jp":"兵庫県","jp_add_1":"豊岡市","jp_add_2":"日高町万場"},"6695306":{"post_code":"6695306","prefecture":"HYOGO KEN","city":"TOYOKA SHI","town":"HIDAKACHO MINOKAMI","perfecture_jp":"兵庫県","jp_add_1":"豊岡市","jp_add_2":"日高町水上"},"6695374":{"post_code":"6695374","prefecture":"HYOGO KEN","city":"TOYOKA SHI","town":"HIDAKACHO MINOKUCHI","perfecture_jp":"兵庫県","jp_add_1":"豊岡市","jp_add_2":"日高町水口"},"6695353":{"post_code":"6695353","prefecture":"HYOGO KEN","city":"TOYOKA SHI","town":"HIDAKACHO MORIYAMA","perfecture_jp":"兵庫県","jp_add_1":"豊岡市","jp_add_2":"日高町森山"},"6695377":{"post_code":"6695377","prefecture":"HYOGO KEN","city":"TOYOKA SHI","town":"HIDAKACHO YAMATA","perfecture_jp":"兵庫県","jp_add_1":"豊岡市","jp_add_2":"日高町山田"},"6695368":{"post_code":"6695368","prefecture":"HYOGO KEN","city":"TOYOKA SHI","town":"HIDAKACHO YAMANOMIYA","perfecture_jp":"兵庫県","jp_add_1":"豊岡市","jp_add_2":"日高町山宮"},"6695334":{"post_code":"6695334","prefecture":"HYOGO KEN","city":"TOYOKA SHI","town":"HIDAKACHO YAMAMOTO","perfecture_jp":"兵庫県","jp_add_1":"豊岡市","jp_add_2":"日高町山本"},"6695304":{"post_code":"6695304","prefecture":"HYOGO KEN","city":"TOYOKA SHI","town":"HIDAKACHO YOIDA","perfecture_jp":"兵庫県","jp_add_1":"豊岡市","jp_add_2":"日高町宵田"},"6696126":{"post_code":"6696126","prefecture":"HYOGO KEN","city":"TOYOKA SHI","town":"MIHARA","perfecture_jp":"兵庫県","jp_add_1":"豊岡市","jp_add_2":"三原"},"6691211":{"post_code":"6691211","prefecture":"HYOGO KEN","city":"TAKARAZUKA SHI","town":"OHARANO","perfecture_jp":"兵庫県","jp_add_1":"宝塚市","jp_add_2":"大原野"},"6691202":{"post_code":"6691202","prefecture":"HYOGO KEN","city":"TAKARAZUKA SHI","town":"KAMISASORI","perfecture_jp":"兵庫県","jp_add_1":"宝塚市","jp_add_2":"上佐曽利"},"6691241":{"post_code":"6691241","prefecture":"HYOGO KEN","city":"TAKARAZUKA SHI","town":"KIRIHATA(SONOTA)","perfecture_jp":"兵庫県","jp_add_1":"宝塚市","jp_add_2":"切畑"},"6691201":{"post_code":"6691201","prefecture":"HYOGO KEN","city":"TAKARAZUKA SHI","town":"KOBAKOSHINDEN","perfecture_jp":"兵庫県","jp_add_1":"宝塚市","jp_add_2":"香合新田"},"6691222":{"post_code":"6691222","prefecture":"HYOGO KEN","city":"TAKARAZUKA SHI","town":"SAKAINO","perfecture_jp":"兵庫県","jp_add_1":"宝塚市","jp_add_2":"境野"},"6691205":{"post_code":"6691205","prefecture":"HYOGO KEN","city":"TAKARAZUKA SHI","town":"SHIBATSUJISHINDEN","perfecture_jp":"兵庫県","jp_add_1":"宝塚市","jp_add_2":"芝辻新田"},"6691203":{"post_code":"6691203","prefecture":"HYOGO KEN","city":"TAKARAZUKA SHI","town":"SHIMOSASORI","perfecture_jp":"兵庫県","jp_add_1":"宝塚市","jp_add_2":"下佐曽利"},"6691231":{"post_code":"6691231","prefecture":"HYOGO KEN","city":"TAKARAZUKA SHI","town":"TAMASE","perfecture_jp":"兵庫県","jp_add_1":"宝塚市","jp_add_2":"玉瀬"},"6691204":{"post_code":"6691204","prefecture":"HYOGO KEN","city":"TAKARAZUKA SHI","town":"NAGATANI","perfecture_jp":"兵庫県","jp_add_1":"宝塚市","jp_add_2":"長谷"},"6691221":{"post_code":"6691221","prefecture":"HYOGO KEN","city":"TAKARAZUKA SHI","town":"HAZU","perfecture_jp":"兵庫県","jp_add_1":"宝塚市","jp_add_2":"波豆"},"6691300":{"post_code":"6691300","prefecture":"HYOGO KEN","city":"SANDA SHI","town":"IKANIKEISAIGANAIBAAI","perfecture_jp":"兵庫県","jp_add_1":"三田市","jp_add_2":""},"6691536":{"post_code":"6691536","prefecture":"HYOGO KEN","city":"SANDA SHI","town":"SANDASHINOTSUGINIBANCHIGAKURUBAAI","perfecture_jp":"兵庫県","jp_add_1":"三田市","jp_add_2":""},"6691526":{"post_code":"6691526","prefecture":"HYOGO KEN","city":"SANDA SHI","town":"AIOICHO","perfecture_jp":"兵庫県","jp_add_1":"三田市","jp_add_2":"相生町"},"6691358":{"post_code":"6691358","prefecture":"HYOGO KEN","city":"SANDA SHI","town":"AIMOTO","perfecture_jp":"兵庫県","jp_add_1":"三田市","jp_add_2":"藍本"},"6691323":{"post_code":"6691323","prefecture":"HYOGO KEN","city":"SANDA SHI","town":"AKASHIADAI","perfecture_jp":"兵庫県","jp_add_1":"三田市","jp_add_2":"あかしあ台"},"6691548":{"post_code":"6691548","prefecture":"HYOGO KEN","city":"SANDA SHI","town":"IKEJIRI","perfecture_jp":"兵庫県","jp_add_1":"三田市","jp_add_2":"池尻"},"6691414":{"post_code":"6691414","prefecture":"HYOGO KEN","city":"SANDA SHI","town":"ICHINOSE","perfecture_jp":"兵庫県","jp_add_1":"三田市","jp_add_2":"市之瀬"},"6691356":{"post_code":"6691356","prefecture":"HYOGO KEN","city":"SANDA SHI","town":"INOKUSA","perfecture_jp":"兵庫県","jp_add_1":"三田市","jp_add_2":"井ノ草"},"6691336":{"post_code":"6691336","prefecture":"HYOGO KEN","city":"SANDA SHI","town":"UMAWATARI","perfecture_jp":"兵庫県","jp_add_1":"三田市","jp_add_2":"馬渡"},"6691502":{"post_code":"6691502","prefecture":"HYOGO KEN","city":"SANDA SHI","town":"EITAKUJI","perfecture_jp":"兵庫県","jp_add_1":"三田市","jp_add_2":"永沢寺"},"6691528":{"post_code":"6691528","prefecture":"HYOGO KEN","city":"SANDA SHI","town":"EKIMAECHO","perfecture_jp":"兵庫県","jp_add_1":"三田市","jp_add_2":"駅前町"},"6691349":{"post_code":"6691349","prefecture":"HYOGO KEN","city":"SANDA SHI","town":"OKAWASE","perfecture_jp":"兵庫県","jp_add_1":"三田市","jp_add_2":"大川瀬"},"6691354":{"post_code":"6691354","prefecture":"HYOGO KEN","city":"SANDA SHI","town":"OHATA","perfecture_jp":"兵庫県","jp_add_1":"三田市","jp_add_2":"大畑"},"6691515":{"post_code":"6691515","prefecture":"HYOGO KEN","city":"SANDA SHI","town":"OHARA","perfecture_jp":"兵庫県","jp_add_1":"三田市","jp_add_2":"大原"},"6691503":{"post_code":"6691503","prefecture":"HYOGO KEN","city":"SANDA SHI","town":"OCHIBARA","perfecture_jp":"兵庫県","jp_add_1":"三田市","jp_add_2":"乙原"},"6691504":{"post_code":"6691504","prefecture":"HYOGO KEN","city":"SANDA SHI","town":"ONO","perfecture_jp":"兵庫県","jp_add_1":"三田市","jp_add_2":"小野"},"6691337":{"post_code":"6691337","prefecture":"HYOGO KEN","city":"SANDA SHI","town":"GAKUEN","perfecture_jp":"兵庫県","jp_add_1":"三田市","jp_add_2":"学園"},"6691507":{"post_code":"6691507","prefecture":"HYOGO KEN","city":"SANDA SHI","town":"KASHITA","perfecture_jp":"兵庫県","jp_add_1":"三田市","jp_add_2":"香下"},"6691346":{"post_code":"6691346","prefecture":"HYOGO KEN","city":"SANDA SHI","town":"KAMIAINO","perfecture_jp":"兵庫県","jp_add_1":"三田市","jp_add_2":"上相野"},"6691301":{"post_code":"6691301","prefecture":"HYOGO KEN","city":"SANDA SHI","town":"KAMIAONO","perfecture_jp":"兵庫県","jp_add_1":"三田市","jp_add_2":"上青野"},"6691316":{"post_code":"6691316","prefecture":"HYOGO KEN","city":"SANDA SHI","town":"KAMIISAWA","perfecture_jp":"兵庫県","jp_add_1":"三田市","jp_add_2":"上井沢"},"6691338":{"post_code":"6691338","prefecture":"HYOGO KEN","city":"SANDA SHI","town":"KAMIUCHIGAMI","perfecture_jp":"兵庫県","jp_add_1":"三田市","jp_add_2":"上内神"},"6691415":{"post_code":"6691415","prefecture":"HYOGO KEN","city":"SANDA SHI","town":"KAMIZUKISE","perfecture_jp":"兵庫県","jp_add_1":"三田市","jp_add_2":"上槻瀬"},"6691542":{"post_code":"6691542","prefecture":"HYOGO KEN","city":"SANDA SHI","town":"KAMIFUKATA","perfecture_jp":"兵庫県","jp_add_1":"三田市","jp_add_2":"上深田"},"6691351":{"post_code":"6691351","prefecture":"HYOGO KEN","city":"SANDA SHI","town":"KAMIHONJO","perfecture_jp":"兵庫県","jp_add_1":"三田市","jp_add_2":"上本庄"},"6691311":{"post_code":"6691311","prefecture":"HYOGO KEN","city":"SANDA SHI","town":"KAMO","perfecture_jp":"兵庫県","jp_add_1":"三田市","jp_add_2":"加茂"},"6691514":{"post_code":"6691514","prefecture":"HYOGO KEN","city":"SANDA SHI","town":"KAWAYOKE","perfecture_jp":"兵庫県","jp_add_1":"三田市","jp_add_2":"川除"},"6691403":{"post_code":"6691403","prefecture":"HYOGO KEN","city":"SANDA SHI","town":"KAWARA","perfecture_jp":"兵庫県","jp_add_1":"三田市","jp_add_2":"川原"},"6691541":{"post_code":"6691541","prefecture":"HYOGO KEN","city":"SANDA SHI","town":"KISHI","perfecture_jp":"兵庫県","jp_add_1":"三田市","jp_add_2":"貴志"},"6691304":{"post_code":"6691304","prefecture":"HYOGO KEN","city":"SANDA SHI","town":"KITAURA","perfecture_jp":"兵庫県","jp_add_1":"三田市","jp_add_2":"北浦"},"6691521":{"post_code":"6691521","prefecture":"HYOGO KEN","city":"SANDA SHI","town":"KUWABARA","perfecture_jp":"兵庫県","jp_add_1":"三田市","jp_add_2":"桑原"},"6691321":{"post_code":"6691321","prefecture":"HYOGO KEN","city":"SANDA SHI","town":"KEYAKIDAI","perfecture_jp":"兵庫県","jp_add_1":"三田市","jp_add_2":"けやき台"},"6691412":{"post_code":"6691412","prefecture":"HYOGO KEN","city":"SANDA SHI","town":"KOZUKI","perfecture_jp":"兵庫県","jp_add_1":"三田市","jp_add_2":"木器"},"6691401":{"post_code":"6691401","prefecture":"HYOGO KEN","city":"SANDA SHI","town":"KOGAKI","perfecture_jp":"兵庫県","jp_add_1":"三田市","jp_add_2":"小柿"},"6691405":{"post_code":"6691405","prefecture":"HYOGO KEN","city":"SANDA SHI","town":"SAKAI","perfecture_jp":"兵庫県","jp_add_1":"三田市","jp_add_2":"酒井"},"6691325":{"post_code":"6691325","prefecture":"HYOGO KEN","city":"SANDA SHI","town":"SAKURAZAKA","perfecture_jp":"兵庫県","jp_add_1":"三田市","jp_add_2":"さくら坂"},"6691335":{"post_code":"6691335","prefecture":"HYOGO KEN","city":"SANDA SHI","town":"SAWADANI","perfecture_jp":"兵庫県","jp_add_1":"三田市","jp_add_2":"沢谷"},"6691533":{"post_code":"6691533","prefecture":"HYOGO KEN","city":"SANDA SHI","town":"SANDACHO","perfecture_jp":"兵庫県","jp_add_1":"三田市","jp_add_2":"三田町"},"6691506":{"post_code":"6691506","prefecture":"HYOGO KEN","city":"SANDA SHI","town":"SHIDEHARA","perfecture_jp":"兵庫県","jp_add_1":"三田市","jp_add_2":"志手原"},"6691345":{"post_code":"6691345","prefecture":"HYOGO KEN","city":"SANDA SHI","town":"SHIMOAINO","perfecture_jp":"兵庫県","jp_add_1":"三田市","jp_add_2":"下相野"},"6691302":{"post_code":"6691302","prefecture":"HYOGO KEN","city":"SANDA SHI","town":"SHIMOAONO","perfecture_jp":"兵庫県","jp_add_1":"三田市","jp_add_2":"下青野"},"6691315":{"post_code":"6691315","prefecture":"HYOGO KEN","city":"SANDA SHI","town":"SHIMOISAWA","perfecture_jp":"兵庫県","jp_add_1":"三田市","jp_add_2":"下井沢"},"6691333":{"post_code":"6691333","prefecture":"HYOGO KEN","city":"SANDA SHI","town":"SHIMOCHIGAMI","perfecture_jp":"兵庫県","jp_add_1":"三田市","jp_add_2":"下内神"},"6691416":{"post_code":"6691416","prefecture":"HYOGO KEN","city":"SANDA SHI","town":"SHIMOZATO","perfecture_jp":"兵庫県","jp_add_1":"三田市","jp_add_2":"下里"},"6691522":{"post_code":"6691522","prefecture":"HYOGO KEN","city":"SANDA SHI","town":"SHIMOTANAKA","perfecture_jp":"兵庫県","jp_add_1":"三田市","jp_add_2":"下田中"},"6691413":{"post_code":"6691413","prefecture":"HYOGO KEN","city":"SANDA SHI","town":"SHIMOZUKISE","perfecture_jp":"兵庫県","jp_add_1":"三田市","jp_add_2":"下槻瀬"},"6691543":{"post_code":"6691543","prefecture":"HYOGO KEN","city":"SANDA SHI","town":"SHIMOFUKATA","perfecture_jp":"兵庫県","jp_add_1":"三田市","jp_add_2":"下深田"},"6691303":{"post_code":"6691303","prefecture":"HYOGO KEN","city":"SANDA SHI","town":"SUE","perfecture_jp":"兵庫県","jp_add_1":"三田市","jp_add_2":"末"},"6691402":{"post_code":"6691402","prefecture":"HYOGO KEN","city":"SANDA SHI","town":"SUEYOSHI","perfecture_jp":"兵庫県","jp_add_1":"三田市","jp_add_2":"末吉"},"6691417":{"post_code":"6691417","prefecture":"HYOGO KEN","city":"SANDA SHI","town":"SUZUKA","perfecture_jp":"兵庫県","jp_add_1":"三田市","jp_add_2":"鈴鹿"},"6691322":{"post_code":"6691322","prefecture":"HYOGO KEN","city":"SANDA SHI","town":"SUZUKAKEDAI","perfecture_jp":"兵庫県","jp_add_1":"三田市","jp_add_2":"すずかけ台"},"6691352":{"post_code":"6691352","prefecture":"HYOGO KEN","city":"SANDA SHI","town":"SUMADA","perfecture_jp":"兵庫県","jp_add_1":"三田市","jp_add_2":"須磨田"},"6691525":{"post_code":"6691525","prefecture":"HYOGO KEN","city":"SANDA SHI","town":"TAINAKACHO","perfecture_jp":"兵庫県","jp_add_1":"三田市","jp_add_2":"対中町"},"6691512":{"post_code":"6691512","prefecture":"HYOGO KEN","city":"SANDA SHI","town":"TAKASUGI","perfecture_jp":"兵庫県","jp_add_1":"三田市","jp_add_2":"高次"},"6691406":{"post_code":"6691406","prefecture":"HYOGO KEN","city":"SANDA SHI","town":"TANAKA","perfecture_jp":"兵庫県","jp_add_1":"三田市","jp_add_2":"田中"},"6691529":{"post_code":"6691529","prefecture":"HYOGO KEN","city":"SANDA SHI","town":"CHUOCHO","perfecture_jp":"兵庫県","jp_add_1":"三田市","jp_add_2":"中央町"},"6691347":{"post_code":"6691347","prefecture":"HYOGO KEN","city":"SANDA SHI","town":"TSUTSUJIGAOKAMINAMI","perfecture_jp":"兵庫県","jp_add_1":"三田市","jp_add_2":"つつじが丘南"},"6691348":{"post_code":"6691348","prefecture":"HYOGO KEN","city":"SANDA SHI","town":"TSUTSUJIGAOKAKITA","perfecture_jp":"兵庫県","jp_add_1":"三田市","jp_add_2":"つつじが丘北"},"6691339":{"post_code":"6691339","prefecture":"HYOGO KEN","city":"SANDA SHI","town":"TEKUNOPAKU","perfecture_jp":"兵庫県","jp_add_1":"三田市","jp_add_2":"テクノパーク"},"6691523":{"post_code":"6691523","prefecture":"HYOGO KEN","city":"SANDA SHI","town":"TERAMURACHO","perfecture_jp":"兵庫県","jp_add_1":"三田市","jp_add_2":"寺村町"},"6691531":{"post_code":"6691531","prefecture":"HYOGO KEN","city":"SANDA SHI","town":"TENJIN","perfecture_jp":"兵庫県","jp_add_1":"三田市","jp_add_2":"天神"},"6691404":{"post_code":"6691404","prefecture":"HYOGO KEN","city":"SANDA SHI","town":"TOKURA","perfecture_jp":"兵庫県","jp_add_1":"三田市","jp_add_2":"十倉"},"6691516":{"post_code":"6691516","prefecture":"HYOGO KEN","city":"SANDA SHI","town":"TOMOGAOKA","perfecture_jp":"兵庫県","jp_add_1":"三田市","jp_add_2":"友が丘"},"6691334":{"post_code":"6691334","prefecture":"HYOGO KEN","city":"SANDA SHI","town":"NAKAUCHIGAMI","perfecture_jp":"兵庫県","jp_add_1":"三田市","jp_add_2":"中内神"},"6691527":{"post_code":"6691527","prefecture":"HYOGO KEN","city":"SANDA SHI","town":"NAKAMACHI","perfecture_jp":"兵庫県","jp_add_1":"三田市","jp_add_2":"中町"},"6691355":{"post_code":"6691355","prefecture":"HYOGO KEN","city":"SANDA SHI","town":"NAGASAKA","perfecture_jp":"兵庫県","jp_add_1":"三田市","jp_add_2":"長坂"},"6691517":{"post_code":"6691517","prefecture":"HYOGO KEN","city":"SANDA SHI","town":"NARUTANI","perfecture_jp":"兵庫県","jp_add_1":"三田市","jp_add_2":"成谷"},"6691341":{"post_code":"6691341","prefecture":"HYOGO KEN","city":"SANDA SHI","town":"NISHIAINO","perfecture_jp":"兵庫県","jp_add_1":"三田市","jp_add_2":"西相野"},"6691314":{"post_code":"6691314","prefecture":"HYOGO KEN","city":"SANDA SHI","town":"NISHINOGAMI","perfecture_jp":"兵庫県","jp_add_1":"三田市","jp_add_2":"西野上"},"6691537":{"post_code":"6691537","prefecture":"HYOGO KEN","city":"SANDA SHI","town":"NISHIYAMA","perfecture_jp":"兵庫県","jp_add_1":"三田市","jp_add_2":"西山"},"6691505":{"post_code":"6691505","prefecture":"HYOGO KEN","city":"SANDA SHI","town":"NINJI","perfecture_jp":"兵庫県","jp_add_1":"三田市","jp_add_2":"尼寺"},"6691545":{"post_code":"6691545","prefecture":"HYOGO KEN","city":"SANDA SHI","town":"HASAMAGAOKA","perfecture_jp":"兵庫県","jp_add_1":"三田市","jp_add_2":"狭間が丘"},"6691411":{"post_code":"6691411","prefecture":"HYOGO KEN","city":"SANDA SHI","town":"HAZUKAWA","perfecture_jp":"兵庫県","jp_add_1":"三田市","jp_add_2":"波豆川"},"6691524":{"post_code":"6691524","prefecture":"HYOGO KEN","city":"SANDA SHI","town":"HAKKEICHO","perfecture_jp":"兵庫県","jp_add_1":"三田市","jp_add_2":"八景町"},"6691312":{"post_code":"6691312","prefecture":"HYOGO KEN","city":"SANDA SHI","town":"HIGASHINOGAMI","perfecture_jp":"兵庫県","jp_add_1":"三田市","jp_add_2":"東野上"},"6691357":{"post_code":"6691357","prefecture":"HYOGO KEN","city":"SANDA SHI","town":"HIGASHIHONJO","perfecture_jp":"兵庫県","jp_add_1":"三田市","jp_add_2":"東本庄"},"6691353":{"post_code":"6691353","prefecture":"HYOGO KEN","city":"SANDA SHI","town":"HIGASHIYAMA","perfecture_jp":"兵庫県","jp_add_1":"三田市","jp_add_2":"東山"},"6691332":{"post_code":"6691332","prefecture":"HYOGO KEN","city":"SANDA SHI","town":"HIROSAWA","perfecture_jp":"兵庫県","jp_add_1":"三田市","jp_add_2":"広沢"},"6691331":{"post_code":"6691331","prefecture":"HYOGO KEN","city":"SANDA SHI","town":"HIRONO","perfecture_jp":"兵庫県","jp_add_1":"三田市","jp_add_2":"広野"},"6691407":{"post_code":"6691407","prefecture":"HYOGO KEN","city":"SANDA SHI","town":"FUKI","perfecture_jp":"兵庫県","jp_add_1":"三田市","jp_add_2":"布木"},"6691313":{"post_code":"6691313","prefecture":"HYOGO KEN","city":"SANDA SHI","town":"FUKUSHIMA","perfecture_jp":"兵庫県","jp_add_1":"三田市","jp_add_2":"福島"},"6691547":{"post_code":"6691547","prefecture":"HYOGO KEN","city":"SANDA SHI","town":"FUJIGAOKA","perfecture_jp":"兵庫県","jp_add_1":"三田市","jp_add_2":"富士が丘"},"6691343":{"post_code":"6691343","prefecture":"HYOGO KEN","city":"SANDA SHI","town":"HORA","perfecture_jp":"兵庫県","jp_add_1":"三田市","jp_add_2":"洞"},"6691344":{"post_code":"6691344","prefecture":"HYOGO KEN","city":"SANDA SHI","town":"MIZOGUCHI","perfecture_jp":"兵庫県","jp_add_1":"三田市","jp_add_2":"溝口"},"6691535":{"post_code":"6691535","prefecture":"HYOGO KEN","city":"SANDA SHI","town":"MINAMIGAOKA","perfecture_jp":"兵庫県","jp_add_1":"三田市","jp_add_2":"南が丘"},"6691317":{"post_code":"6691317","prefecture":"HYOGO KEN","city":"SANDA SHI","town":"MIYAWAKI","perfecture_jp":"兵庫県","jp_add_1":"三田市","jp_add_2":"宮脇"},"6691513":{"post_code":"6691513","prefecture":"HYOGO KEN","city":"SANDA SHI","town":"MIWA","perfecture_jp":"兵庫県","jp_add_1":"三田市","jp_add_2":"三輪"},"6691544":{"post_code":"6691544","prefecture":"HYOGO KEN","city":"SANDA SHI","town":"MUKOGAOKA","perfecture_jp":"兵庫県","jp_add_1":"三田市","jp_add_2":"武庫が丘"},"6691501":{"post_code":"6691501","prefecture":"HYOGO KEN","city":"SANDA SHI","town":"MOSHI","perfecture_jp":"兵庫県","jp_add_1":"三田市","jp_add_2":"母子"},"6691532":{"post_code":"6691532","prefecture":"HYOGO KEN","city":"SANDA SHI","town":"YASHIKIMACHI","perfecture_jp":"兵庫県","jp_add_1":"三田市","jp_add_2":"屋敷町"},"6691511":{"post_code":"6691511","prefecture":"HYOGO KEN","city":"SANDA SHI","town":"YAMATA","perfecture_jp":"兵庫県","jp_add_1":"三田市","jp_add_2":"山田"},"6691546":{"post_code":"6691546","prefecture":"HYOGO KEN","city":"SANDA SHI","town":"YAYOIGAOKA","perfecture_jp":"兵庫県","jp_add_1":"三田市","jp_add_2":"弥生が丘"},"6691324":{"post_code":"6691324","prefecture":"HYOGO KEN","city":"SANDA SHI","town":"YURINOKIDAI","perfecture_jp":"兵庫県","jp_add_1":"三田市","jp_add_2":"ゆりのき台"},"6691534":{"post_code":"6691534","prefecture":"HYOGO KEN","city":"SANDA SHI","town":"YOKOYAMACHO","perfecture_jp":"兵庫県","jp_add_1":"三田市","jp_add_2":"横山町"},"6691342":{"post_code":"6691342","prefecture":"HYOGO KEN","city":"SANDA SHI","town":"YOTSUTSUJI","perfecture_jp":"兵庫県","jp_add_1":"三田市","jp_add_2":"四ツ辻"},"6692300":{"post_code":"6692300","prefecture":"HYOGO KEN","city":"SASAYAMA SHI","town":"IKANIKEISAIGANAIBAAI","perfecture_jp":"兵庫県","jp_add_1":"篠山市","jp_add_2":""},"6692205":{"post_code":"6692205","prefecture":"HYOGO KEN","city":"SASAYAMA SHI","town":"AGAKE","perfecture_jp":"兵庫県","jp_add_1":"篠山市","jp_add_2":"網掛"},"6692402":{"post_code":"6692402","prefecture":"HYOGO KEN","city":"SASAYAMA SHI","town":"AGATAMORI","perfecture_jp":"兵庫県","jp_add_1":"篠山市","jp_add_2":"県守"},"6692822":{"post_code":"6692822","prefecture":"HYOGO KEN","city":"SASAYAMA SHI","town":"AKENO","perfecture_jp":"兵庫県","jp_add_1":"篠山市","jp_add_2":"明野"},"6692223":{"post_code":"6692223","prefecture":"HYOGO KEN","city":"SASAYAMA SHI","town":"AJIMAOKU","perfecture_jp":"兵庫県","jp_add_1":"篠山市","jp_add_2":"味間奥"},"6692224":{"post_code":"6692224","prefecture":"HYOGO KEN","city":"SASAYAMA SHI","town":"AJIMAKITA","perfecture_jp":"兵庫県","jp_add_1":"篠山市","jp_add_2":"味間北"},"6692214":{"post_code":"6692214","prefecture":"HYOGO KEN","city":"SASAYAMA SHI","town":"AJIMASHIN","perfecture_jp":"兵庫県","jp_add_1":"篠山市","jp_add_2":"味間新"},"6692222":{"post_code":"6692222","prefecture":"HYOGO KEN","city":"SASAYAMA SHI","town":"AJIMAMINAMI","perfecture_jp":"兵庫県","jp_add_1":"篠山市","jp_add_2":"味間南"},"6692114":{"post_code":"6692114","prefecture":"HYOGO KEN","city":"SASAYAMA SHI","town":"ABURAI","perfecture_jp":"兵庫県","jp_add_1":"篠山市","jp_add_2":"油井"},"6692804":{"post_code":"6692804","prefecture":"HYOGO KEN","city":"SASAYAMA SHI","town":"ARAKOSHINDEN","perfecture_jp":"兵庫県","jp_add_1":"篠山市","jp_add_2":"荒子新田"},"6692354":{"post_code":"6692354","prefecture":"HYOGO KEN","city":"SASAYAMA SHI","town":"ARII","perfecture_jp":"兵庫県","jp_add_1":"篠山市","jp_add_2":"有居"},"6692541":{"post_code":"6692541","prefecture":"HYOGO KEN","city":"SASAYAMA SHI","town":"IKUSHI","perfecture_jp":"兵庫県","jp_add_1":"篠山市","jp_add_2":"井串"},"6692436":{"post_code":"6692436","prefecture":"HYOGO KEN","city":"SASAYAMA SHI","town":"IKEGAMI","perfecture_jp":"兵庫県","jp_add_1":"篠山市","jp_add_2":"池上"},"6692811":{"post_code":"6692811","prefecture":"HYOGO KEN","city":"SASAYAMA SHI","town":"ISHIZUMI","perfecture_jp":"兵庫県","jp_add_1":"篠山市","jp_add_2":"石住"},"6692406":{"post_code":"6692406","prefecture":"HYOGO KEN","city":"SASAYAMA SHI","town":"IZUMI","perfecture_jp":"兵庫県","jp_add_1":"篠山市","jp_add_2":"泉"},"6692813":{"post_code":"6692813","prefecture":"HYOGO KEN","city":"SASAYAMA SHI","town":"ICHIINDANI","perfecture_jp":"兵庫県","jp_add_1":"篠山市","jp_add_2":"一印谷"},"6692613":{"post_code":"6692613","prefecture":"HYOGO KEN","city":"SASAYAMA SHI","town":"ICHINONO","perfecture_jp":"兵庫県","jp_add_1":"篠山市","jp_add_2":"市野々"},"6692718":{"post_code":"6692718","prefecture":"HYOGO KEN","city":"SASAYAMA SHI","town":"ICHIYAMA","perfecture_jp":"兵庫県","jp_add_1":"篠山市","jp_add_2":"市山"},"6692335":{"post_code":"6692335","prefecture":"HYOGO KEN","city":"SASAYAMA SHI","town":"INUISHIMMACHI","perfecture_jp":"兵庫県","jp_add_1":"篠山市","jp_add_2":"乾新町"},"6692105":{"post_code":"6692105","prefecture":"HYOGO KEN","city":"SASAYAMA SHI","town":"INUKAI","perfecture_jp":"兵庫県","jp_add_1":"篠山市","jp_add_2":"犬飼"},"6692416":{"post_code":"6692416","prefecture":"HYOGO KEN","city":"SASAYAMA SHI","town":"INOE","perfecture_jp":"兵庫県","jp_add_1":"篠山市","jp_add_2":"井ノ上"},"6692304":{"post_code":"6692304","prefecture":"HYOGO KEN","city":"SASAYAMA SHI","town":"IMADANI","perfecture_jp":"兵庫県","jp_add_1":"篠山市","jp_add_2":"今谷"},"6692357":{"post_code":"6692357","prefecture":"HYOGO KEN","city":"SASAYAMA SHI","town":"IMAFUKU","perfecture_jp":"兵庫県","jp_add_1":"篠山市","jp_add_2":"今福"},"6692454":{"post_code":"6692454","prefecture":"HYOGO KEN","city":"SASAYAMA SHI","town":"IWAZAKI","perfecture_jp":"兵庫県","jp_add_1":"篠山市","jp_add_2":"岩崎"},"6692336":{"post_code":"6692336","prefecture":"HYOGO KEN","city":"SASAYAMA SHI","town":"UOYAMACHI","perfecture_jp":"兵庫県","jp_add_1":"篠山市","jp_add_2":"魚屋町"},"6692106":{"post_code":"6692106","prefecture":"HYOGO KEN","city":"SASAYAMA SHI","town":"USHIGASE","perfecture_jp":"兵庫県","jp_add_1":"篠山市","jp_add_2":"牛ケ瀬"},"6692715":{"post_code":"6692715","prefecture":"HYOGO KEN","city":"SASAYAMA SHI","town":"UCHISAKA","perfecture_jp":"兵庫県","jp_add_1":"篠山市","jp_add_2":"打坂"},"6692455":{"post_code":"6692455","prefecture":"HYOGO KEN","city":"SASAYAMA SHI","town":"UDO","perfecture_jp":"兵庫県","jp_add_1":"篠山市","jp_add_2":"宇土"},"6692801":{"post_code":"6692801","prefecture":"HYOGO KEN","city":"SASAYAMA SHI","town":"OIRE","perfecture_jp":"兵庫県","jp_add_1":"篠山市","jp_add_2":"追入"},"6692306":{"post_code":"6692306","prefecture":"HYOGO KEN","city":"SASAYAMA SHI","town":"OGAMI","perfecture_jp":"兵庫県","jp_add_1":"篠山市","jp_add_2":"大上"},"6692318":{"post_code":"6692318","prefecture":"HYOGO KEN","city":"SASAYAMA SHI","town":"OKUMA","perfecture_jp":"兵庫県","jp_add_1":"篠山市","jp_add_2":"大熊"},"6692212":{"post_code":"6692212","prefecture":"HYOGO KEN","city":"SASAYAMA SHI","town":"OZAWA","perfecture_jp":"兵庫県","jp_add_1":"篠山市","jp_add_2":"大沢"},"6692211":{"post_code":"6692211","prefecture":"HYOGO KEN","city":"SASAYAMA SHI","town":"OZAWASHIN","perfecture_jp":"兵庫県","jp_add_1":"篠山市","jp_add_2":"大沢新"},"6692363":{"post_code":"6692363","prefecture":"HYOGO KEN","city":"SASAYAMA SHI","town":"OTANI","perfecture_jp":"兵庫県","jp_add_1":"篠山市","jp_add_2":"大谷"},"6692355":{"post_code":"6692355","prefecture":"HYOGO KEN","city":"SASAYAMA SHI","town":"ONO","perfecture_jp":"兵庫県","jp_add_1":"篠山市","jp_add_2":"大野"},"6692611":{"post_code":"6692611","prefecture":"HYOGO KEN","city":"SASAYAMA SHI","town":"OFUJI","perfecture_jp":"兵庫県","jp_add_1":"篠山市","jp_add_2":"大藤"},"6692309":{"post_code":"6692309","prefecture":"HYOGO KEN","city":"SASAYAMA SHI","town":"OBUCHI","perfecture_jp":"兵庫県","jp_add_1":"篠山市","jp_add_2":"大渕"},"6692803":{"post_code":"6692803","prefecture":"HYOGO KEN","city":"SASAYAMA SHI","town":"OYAMAKAMI","perfecture_jp":"兵庫県","jp_add_1":"篠山市","jp_add_2":"大山上"},"6692823":{"post_code":"6692823","prefecture":"HYOGO KEN","city":"SASAYAMA SHI","town":"OYAMASHIMO","perfecture_jp":"兵庫県","jp_add_1":"篠山市","jp_add_2":"大山下"},"6692827":{"post_code":"6692827","prefecture":"HYOGO KEN","city":"SASAYAMA SHI","town":"OYAMASHIN","perfecture_jp":"兵庫県","jp_add_1":"篠山市","jp_add_2":"大山新"},"6692802":{"post_code":"6692802","prefecture":"HYOGO KEN","city":"SASAYAMA SHI","town":"OYAMAMIYA","perfecture_jp":"兵庫県","jp_add_1":"篠山市","jp_add_2":"大山宮"},"6692326":{"post_code":"6692326","prefecture":"HYOGO KEN","city":"SASAYAMA SHI","town":"OGAWAMACHI","perfecture_jp":"兵庫県","jp_add_1":"篠山市","jp_add_2":"小川町"},"6692401":{"post_code":"6692401","prefecture":"HYOGO KEN","city":"SASAYAMA SHI","town":"OKUAGATAMORI","perfecture_jp":"兵庫県","jp_add_1":"篠山市","jp_add_2":"奥県守"},"6692302":{"post_code":"6692302","prefecture":"HYOGO KEN","city":"SASAYAMA SHI","town":"OKUHATA","perfecture_jp":"兵庫県","jp_add_1":"篠山市","jp_add_2":"奥畑"},"6692501":{"post_code":"6692501","prefecture":"HYOGO KEN","city":"SASAYAMA SHI","town":"OKUHARAYAMA","perfecture_jp":"兵庫県","jp_add_1":"篠山市","jp_add_2":"奥原山"},"6692616":{"post_code":"6692616","prefecture":"HYOGO KEN","city":"SASAYAMA SHI","town":"OKUYAMA","perfecture_jp":"兵庫県","jp_add_1":"篠山市","jp_add_2":"奥山"},"6692614":{"post_code":"6692614","prefecture":"HYOGO KEN","city":"SASAYAMA SHI","town":"OGURA","perfecture_jp":"兵庫県","jp_add_1":"篠山市","jp_add_2":"小倉"},"6692731":{"post_code":"6692731","prefecture":"HYOGO KEN","city":"SASAYAMA SHI","town":"OSAKA","perfecture_jp":"兵庫県","jp_add_1":"篠山市","jp_add_2":"小坂"},"6692435":{"post_code":"6692435","prefecture":"HYOGO KEN","city":"SASAYAMA SHI","town":"OTADA","perfecture_jp":"兵庫県","jp_add_1":"篠山市","jp_add_2":"小多田"},"6692532":{"post_code":"6692532","prefecture":"HYOGO KEN","city":"SASAYAMA SHI","town":"ODACHI","perfecture_jp":"兵庫県","jp_add_1":"篠山市","jp_add_2":"小立"},"6692704":{"post_code":"6692704","prefecture":"HYOGO KEN","city":"SASAYAMA SHI","town":"OCHIKATA","perfecture_jp":"兵庫県","jp_add_1":"篠山市","jp_add_2":"遠方"},"6692522":{"post_code":"6692522","prefecture":"HYOGO KEN","city":"SASAYAMA SHI","town":"ONOKUDANI","perfecture_jp":"兵庫県","jp_add_1":"篠山市","jp_add_2":"小野奥谷"},"6692523":{"post_code":"6692523","prefecture":"HYOGO KEN","city":"SASAYAMA SHI","town":"ONOSHIN","perfecture_jp":"兵庫県","jp_add_1":"篠山市","jp_add_2":"小野新"},"6692604":{"post_code":"6692604","prefecture":"HYOGO KEN","city":"SASAYAMA SHI","town":"OBARA","perfecture_jp":"兵庫県","jp_add_1":"篠山市","jp_add_2":"小原"},"6692554":{"post_code":"6692554","prefecture":"HYOGO KEN","city":"SASAYAMA SHI","town":"KAITA","perfecture_jp":"兵庫県","jp_add_1":"篠山市","jp_add_2":"貝田"},"6692714":{"post_code":"6692714","prefecture":"HYOGO KEN","city":"SASAYAMA SHI","town":"KAKIYA","perfecture_jp":"兵庫県","jp_add_1":"篠山市","jp_add_2":"垣屋"},"6692408":{"post_code":"6692408","prefecture":"HYOGO KEN","city":"SASAYAMA SHI","town":"KASUGAE","perfecture_jp":"兵庫県","jp_add_1":"篠山市","jp_add_2":"春日江"},"6692732":{"post_code":"6692732","prefecture":"HYOGO KEN","city":"SASAYAMA SHI","town":"KAMIITAI","perfecture_jp":"兵庫県","jp_add_1":"篠山市","jp_add_2":"上板井"},"6692534":{"post_code":"6692534","prefecture":"HYOGO KEN","city":"SASAYAMA SHI","town":"KAMISASAMI","perfecture_jp":"兵庫県","jp_add_1":"篠山市","jp_add_2":"上筱見"},"6692415":{"post_code":"6692415","prefecture":"HYOGO KEN","city":"SASAYAMA SHI","town":"KAMIJUKU","perfecture_jp":"兵庫県","jp_add_1":"篠山市","jp_add_2":"上宿"},"6692722":{"post_code":"6692722","prefecture":"HYOGO KEN","city":"SASAYAMA SHI","town":"KOCHIDAI","perfecture_jp":"兵庫県","jp_add_1":"篠山市","jp_add_2":"河内台"},"6692724":{"post_code":"6692724","prefecture":"HYOGO KEN","city":"SASAYAMA SHI","town":"KAWAGITA","perfecture_jp":"兵庫県","jp_add_1":"篠山市","jp_add_2":"川北"},"6692725":{"post_code":"6692725","prefecture":"HYOGO KEN","city":"SASAYAMA SHI","town":"KAWAGITASHINDEN","perfecture_jp":"兵庫県","jp_add_1":"篠山市","jp_add_2":"川北新田"},"6692701":{"post_code":"6692701","prefecture":"HYOGO KEN","city":"SASAYAMA SHI","town":"KAWASAKA","perfecture_jp":"兵庫県","jp_add_1":"篠山市","jp_add_2":"川阪"},"6692735":{"post_code":"6692735","prefecture":"HYOGO KEN","city":"SASAYAMA SHI","town":"KAWANISHI","perfecture_jp":"兵庫県","jp_add_1":"篠山市","jp_add_2":"川西"},"6692512":{"post_code":"6692512","prefecture":"HYOGO KEN","city":"SASAYAMA SHI","town":"KAWARA","perfecture_jp":"兵庫県","jp_add_1":"篠山市","jp_add_2":"川原"},"6692325":{"post_code":"6692325","prefecture":"HYOGO KEN","city":"SASAYAMA SHI","town":"KAWARAMACHI","perfecture_jp":"兵庫県","jp_add_1":"篠山市","jp_add_2":"河原町"},"6692451":{"post_code":"6692451","prefecture":"HYOGO KEN","city":"SASAYAMA SHI","town":"KITA","perfecture_jp":"兵庫県","jp_add_1":"篠山市","jp_add_2":"北"},"6692317":{"post_code":"6692317","prefecture":"HYOGO KEN","city":"SASAYAMA SHI","town":"KITASAWADA","perfecture_jp":"兵庫県","jp_add_1":"篠山市","jp_add_2":"北沢田"},"6692417":{"post_code":"6692417","prefecture":"HYOGO KEN","city":"SASAYAMA SHI","town":"KITAJIMA","perfecture_jp":"兵庫県","jp_add_1":"篠山市","jp_add_2":"北島"},"6692332":{"post_code":"6692332","prefecture":"HYOGO KEN","city":"SASAYAMA SHI","town":"KITASHIMMACHI","perfecture_jp":"兵庫県","jp_add_1":"篠山市","jp_add_2":"北新町"},"6692824":{"post_code":"6692824","prefecture":"HYOGO KEN","city":"SASAYAMA SHI","town":"KITANO","perfecture_jp":"兵庫県","jp_add_1":"篠山市","jp_add_2":"北野"},"6692825":{"post_code":"6692825","prefecture":"HYOGO KEN","city":"SASAYAMA SHI","town":"KITANOSHINDEN","perfecture_jp":"兵庫県","jp_add_1":"篠山市","jp_add_2":"北野新田"},"6692438":{"post_code":"6692438","prefecture":"HYOGO KEN","city":"SASAYAMA SHI","town":"KYOMACHI","perfecture_jp":"兵庫県","jp_add_1":"篠山市","jp_add_2":"京町"},"6692113":{"post_code":"6692113","prefecture":"HYOGO KEN","city":"SASAYAMA SHI","town":"KUSANO","perfecture_jp":"兵庫県","jp_add_1":"篠山市","jp_add_2":"草野"},"6692544":{"post_code":"6692544","prefecture":"HYOGO KEN","city":"SASAYAMA SHI","town":"KUSANOKAMI","perfecture_jp":"兵庫県","jp_add_1":"篠山市","jp_add_2":"草ノ上"},"6692723":{"post_code":"6692723","prefecture":"HYOGO KEN","city":"SASAYAMA SHI","town":"KUCHISAKAMOTO","perfecture_jp":"兵庫県","jp_add_1":"篠山市","jp_add_2":"口阪本"},"6692367":{"post_code":"6692367","prefecture":"HYOGO KEN","city":"SASAYAMA SHI","town":"KUMADANI","perfecture_jp":"兵庫県","jp_add_1":"篠山市","jp_add_2":"熊谷"},"6692407":{"post_code":"6692407","prefecture":"HYOGO KEN","city":"SASAYAMA SHI","town":"KURATANI","perfecture_jp":"兵庫県","jp_add_1":"篠山市","jp_add_2":"倉谷"},"6692713":{"post_code":"6692713","prefecture":"HYOGO KEN","city":"SASAYAMA SHI","town":"KURAMOTO","perfecture_jp":"兵庫県","jp_add_1":"篠山市","jp_add_2":"倉本"},"6692711":{"post_code":"6692711","prefecture":"HYOGO KEN","city":"SASAYAMA SHI","town":"KURIKARA","perfecture_jp":"兵庫県","jp_add_1":"篠山市","jp_add_2":"栗柄"},"6692465":{"post_code":"6692465","prefecture":"HYOGO KEN","city":"SASAYAMA SHI","town":"KURISUNO","perfecture_jp":"兵庫県","jp_add_1":"篠山市","jp_add_2":"栗栖野"},"6692321":{"post_code":"6692321","prefecture":"HYOGO KEN","city":"SASAYAMA SHI","town":"KUROKA","perfecture_jp":"兵庫県","jp_add_1":"篠山市","jp_add_2":"黒岡"},"6692726":{"post_code":"6692726","prefecture":"HYOGO KEN","city":"SASAYAMA SHI","town":"KURODA","perfecture_jp":"兵庫県","jp_add_1":"篠山市","jp_add_2":"黒田"},"6692703":{"post_code":"6692703","prefecture":"HYOGO KEN","city":"SASAYAMA SHI","town":"KUWABARA","perfecture_jp":"兵庫県","jp_add_1":"篠山市","jp_add_2":"桑原"},"6692341":{"post_code":"6692341","prefecture":"HYOGO KEN","city":"SASAYAMA SHI","town":"GUNGE","perfecture_jp":"兵庫県","jp_add_1":"篠山市","jp_add_2":"郡家"},"6692112":{"post_code":"6692112","prefecture":"HYOGO KEN","city":"SASAYAMA SHI","town":"KOMORI","perfecture_jp":"兵庫県","jp_add_1":"篠山市","jp_add_2":"古森"},"6692545":{"post_code":"6692545","prefecture":"HYOGO KEN","city":"SASAYAMA SHI","town":"KODANAKA","perfecture_jp":"兵庫県","jp_add_1":"篠山市","jp_add_2":"小田中"},"6692412":{"post_code":"6692412","prefecture":"HYOGO KEN","city":"SASAYAMA SHI","town":"KONAKA","perfecture_jp":"兵庫県","jp_add_1":"篠山市","jp_add_2":"小中"},"6692124":{"post_code":"6692124","prefecture":"HYOGO KEN","city":"SASAYAMA SHI","town":"KONOSAKA","perfecture_jp":"兵庫県","jp_add_1":"篠山市","jp_add_2":"不来坂"},"6692322":{"post_code":"6692322","prefecture":"HYOGO KEN","city":"SASAYAMA SHI","town":"GOFUKUMACHI","perfecture_jp":"兵庫県","jp_add_1":"篠山市","jp_add_2":"呉服町"},"6692461":{"post_code":"6692461","prefecture":"HYOGO KEN","city":"SASAYAMA SHI","town":"KOMAKURA","perfecture_jp":"兵庫県","jp_add_1":"篠山市","jp_add_2":"小枕"},"6692144":{"post_code":"6692144","prefecture":"HYOGO KEN","city":"SASAYAMA SHI","town":"KONDACHO AISHINDEN","perfecture_jp":"兵庫県","jp_add_1":"篠山市","jp_add_2":"今田町間新田"},"6692155":{"post_code":"6692155","prefecture":"HYOGO KEN","city":"SASAYAMA SHI","town":"KONDACHO ASHIHARASHINDEN","perfecture_jp":"兵庫県","jp_add_1":"篠山市","jp_add_2":"今田町芦原新田"},"6692154":{"post_code":"6692154","prefecture":"HYOGO KEN","city":"SASAYAMA SHI","town":"KONDACHO ICHIHARA","perfecture_jp":"兵庫県","jp_add_1":"篠山市","jp_add_2":"今田町市原"},"6692152":{"post_code":"6692152","prefecture":"HYOGO KEN","city":"SASAYAMA SHI","town":"KONDACHO OGINOBUN","perfecture_jp":"兵庫県","jp_add_1":"篠山市","jp_add_2":"今田町荻野分"},"6692143":{"post_code":"6692143","prefecture":"HYOGO KEN","city":"SASAYAMA SHI","town":"KONDACHO KAMAYA","perfecture_jp":"兵庫県","jp_add_1":"篠山市","jp_add_2":"今田町釜屋"},"6692132":{"post_code":"6692132","prefecture":"HYOGO KEN","city":"SASAYAMA SHI","town":"KONDACHO KAMIONOBARA","perfecture_jp":"兵庫県","jp_add_1":"篠山市","jp_add_2":"今田町上小野原"},"6692135":{"post_code":"6692135","prefecture":"HYOGO KEN","city":"SASAYAMA SHI","town":"KONDACHO KAMITACHIKUI","perfecture_jp":"兵庫県","jp_add_1":"篠山市","jp_add_2":"今田町上立杭"},"6692162":{"post_code":"6692162","prefecture":"HYOGO KEN","city":"SASAYAMA SHI","town":"KONDACHO KUROISHI","perfecture_jp":"兵庫県","jp_add_1":"篠山市","jp_add_2":"今田町黒石"},"6692145":{"post_code":"6692145","prefecture":"HYOGO KEN","city":"SASAYAMA SHI","town":"KONDACHO KOTSU","perfecture_jp":"兵庫県","jp_add_1":"篠山市","jp_add_2":"今田町木津"},"6692151":{"post_code":"6692151","prefecture":"HYOGO KEN","city":"SASAYAMA SHI","town":"KONDACHO KONDA","perfecture_jp":"兵庫県","jp_add_1":"篠山市","jp_add_2":"今田町今田"},"6692153":{"post_code":"6692153","prefecture":"HYOGO KEN","city":"SASAYAMA SHI","town":"KONDACHO KONDASHINDEN","perfecture_jp":"兵庫県","jp_add_1":"篠山市","jp_add_2":"今田町今田新田"},"6692156":{"post_code":"6692156","prefecture":"HYOGO KEN","city":"SASAYAMA SHI","town":"KONDACHO SASORASHINDEN","perfecture_jp":"兵庫県","jp_add_1":"篠山市","jp_add_2":"今田町佐曽良新田"},"6692161":{"post_code":"6692161","prefecture":"HYOGO KEN","city":"SASAYAMA SHI","town":"KONDACHO SHITODANI","perfecture_jp":"兵庫県","jp_add_1":"篠山市","jp_add_2":"今田町四斗谷"},"6692133":{"post_code":"6692133","prefecture":"HYOGO KEN","city":"SASAYAMA SHI","town":"KONDACHO SHIMONOBARA","perfecture_jp":"兵庫県","jp_add_1":"篠山市","jp_add_2":"今田町下小野原"},"6692141":{"post_code":"6692141","prefecture":"HYOGO KEN","city":"SASAYAMA SHI","town":"KONDACHO SHIMOTACHIKUI","perfecture_jp":"兵庫県","jp_add_1":"篠山市","jp_add_2":"今田町下立杭"},"6692131":{"post_code":"6692131","prefecture":"HYOGO KEN","city":"SASAYAMA SHI","town":"KONDACHO TATSUMI","perfecture_jp":"兵庫県","jp_add_1":"篠山市","jp_add_2":"今田町辰巳"},"6692142":{"post_code":"6692142","prefecture":"HYOGO KEN","city":"SASAYAMA SHI","town":"KONDACHO HIGASHISHO","perfecture_jp":"兵庫県","jp_add_1":"篠山市","jp_add_2":"今田町東庄"},"6692163":{"post_code":"6692163","prefecture":"HYOGO KEN","city":"SASAYAMA SHI","town":"KONDACHO HONJO","perfecture_jp":"兵庫県","jp_add_1":"篠山市","jp_add_2":"今田町本荘"},"6692134":{"post_code":"6692134","prefecture":"HYOGO KEN","city":"SASAYAMA SHI","town":"KONDACHO YASUMBA","perfecture_jp":"兵庫県","jp_add_1":"篠山市","jp_add_2":"今田町休場"},"6692542":{"post_code":"6692542","prefecture":"HYOGO KEN","city":"SASAYAMA SHI","town":"SAIKUJO","perfecture_jp":"兵庫県","jp_add_1":"篠山市","jp_add_2":"細工所"},"6692712":{"post_code":"6692712","prefecture":"HYOGO KEN","city":"SASAYAMA SHI","town":"SAKAMOTO","perfecture_jp":"兵庫県","jp_add_1":"篠山市","jp_add_2":"坂本"},"6692365":{"post_code":"6692365","prefecture":"HYOGO KEN","city":"SASAYAMA SHI","town":"SAKURA","perfecture_jp":"兵庫県","jp_add_1":"篠山市","jp_add_2":"佐倉"},"6692405":{"post_code":"6692405","prefecture":"HYOGO KEN","city":"SASAYAMA SHI","town":"SANUKIDANI","perfecture_jp":"兵庫県","jp_add_1":"篠山市","jp_add_2":"佐貫谷"},"6692425":{"post_code":"6692425","prefecture":"HYOGO KEN","city":"SASAYAMA SHI","town":"SHITSUKAWAOKU","perfecture_jp":"兵庫県","jp_add_1":"篠山市","jp_add_2":"後川奥"},"6692422":{"post_code":"6692422","prefecture":"HYOGO KEN","city":"SASAYAMA SHI","town":"SHITSUKAWAKAMI","perfecture_jp":"兵庫県","jp_add_1":"篠山市","jp_add_2":"後川上"},"6692424":{"post_code":"6692424","prefecture":"HYOGO KEN","city":"SASAYAMA SHI","town":"SHITSUKAWASHIMO","perfecture_jp":"兵庫県","jp_add_1":"篠山市","jp_add_2":"後川下"},"6692421":{"post_code":"6692421","prefecture":"HYOGO KEN","city":"SASAYAMA SHI","town":"SHITSUKAWASHINDEN","perfecture_jp":"兵庫県","jp_add_1":"篠山市","jp_add_2":"後川新田"},"6692423":{"post_code":"6692423","prefecture":"HYOGO KEN","city":"SASAYAMA SHI","town":"SHITSUKAWANAKA","perfecture_jp":"兵庫県","jp_add_1":"篠山市","jp_add_2":"後川中"},"6692439":{"post_code":"6692439","prefecture":"HYOGO KEN","city":"SASAYAMA SHI","town":"SHIBUTANI","perfecture_jp":"兵庫県","jp_add_1":"篠山市","jp_add_2":"渋谷"},"6692733":{"post_code":"6692733","prefecture":"HYOGO KEN","city":"SASAYAMA SHI","town":"SHIMOITAI","perfecture_jp":"兵庫県","jp_add_1":"篠山市","jp_add_2":"下板井"},"6692535":{"post_code":"6692535","prefecture":"HYOGO KEN","city":"SASAYAMA SHI","town":"SHIMOSASAMI","perfecture_jp":"兵庫県","jp_add_1":"篠山市","jp_add_2":"下筱見"},"6692503":{"post_code":"6692503","prefecture":"HYOGO KEN","city":"SASAYAMA SHI","town":"SHIMOHARAYAMA","perfecture_jp":"兵庫県","jp_add_1":"篠山市","jp_add_2":"下原山"},"6692543":{"post_code":"6692543","prefecture":"HYOGO KEN","city":"SASAYAMA SHI","town":"SHOKA","perfecture_jp":"兵庫県","jp_add_1":"篠山市","jp_add_2":"塩岡"},"6692311":{"post_code":"6692311","prefecture":"HYOGO KEN","city":"SASAYAMA SHI","town":"SHINJO","perfecture_jp":"兵庫県","jp_add_1":"篠山市","jp_add_2":"新荘"},"6692204":{"post_code":"6692204","prefecture":"HYOGO KEN","city":"SASAYAMA SHI","town":"SUGI","perfecture_jp":"兵庫県","jp_add_1":"篠山市","jp_add_2":"杉"},"6692312":{"post_code":"6692312","prefecture":"HYOGO KEN","city":"SASAYAMA SHI","town":"SUGE","perfecture_jp":"兵庫県","jp_add_1":"篠山市","jp_add_2":"菅"},"6692315":{"post_code":"6692315","prefecture":"HYOGO KEN","city":"SASAYAMA SHI","town":"SUJIYAMA","perfecture_jp":"兵庫県","jp_add_1":"篠山市","jp_add_2":"筋山"},"6692125":{"post_code":"6692125","prefecture":"HYOGO KEN","city":"SASAYAMA SHI","town":"SUMIYAMA","perfecture_jp":"兵庫県","jp_add_1":"篠山市","jp_add_2":"住山"},"6692231":{"post_code":"6692231","prefecture":"HYOGO KEN","city":"SASAYAMA SHI","town":"SUMIYOSHIDAI","perfecture_jp":"兵庫県","jp_add_1":"篠山市","jp_add_2":"住吉台"},"6692303":{"post_code":"6692303","prefecture":"HYOGO KEN","city":"SASAYAMA SHI","town":"SERI","perfecture_jp":"兵庫県","jp_add_1":"篠山市","jp_add_2":"瀬利"},"6692444":{"post_code":"6692444","prefecture":"HYOGO KEN","city":"SASAYAMA SHI","town":"SOJIOKU","perfecture_jp":"兵庫県","jp_add_1":"篠山市","jp_add_2":"曽地奥"},"6692442":{"post_code":"6692442","prefecture":"HYOGO KEN","city":"SASAYAMA SHI","town":"SOJIKUCHI","perfecture_jp":"兵庫県","jp_add_1":"篠山市","jp_add_2":"曽地口"},"6692443":{"post_code":"6692443","prefecture":"HYOGO KEN","city":"SASAYAMA SHI","town":"SOJINAKA","perfecture_jp":"兵庫県","jp_add_1":"篠山市","jp_add_2":"曽地中"},"6692805":{"post_code":"6692805","prefecture":"HYOGO KEN","city":"SASAYAMA SHI","town":"SONODABUN","perfecture_jp":"兵庫県","jp_add_1":"篠山市","jp_add_2":"園田分"},"6692812":{"post_code":"6692812","prefecture":"HYOGO KEN","city":"SASAYAMA SHI","town":"TAKAKURA","perfecture_jp":"兵庫県","jp_add_1":"篠山市","jp_add_2":"高倉"},"6692717":{"post_code":"6692717","prefecture":"HYOGO KEN","city":"SASAYAMA SHI","town":"TAKASAKA","perfecture_jp":"兵庫県","jp_add_1":"篠山市","jp_add_2":"高坂"},"6692727":{"post_code":"6692727","prefecture":"HYOGO KEN","city":"SASAYAMA SHI","town":"TAKAYA","perfecture_jp":"兵庫県","jp_add_1":"篠山市","jp_add_2":"高屋"},"6692612":{"post_code":"6692612","prefecture":"HYOGO KEN","city":"SASAYAMA SHI","town":"TATSUGANE","perfecture_jp":"兵庫県","jp_add_1":"篠山市","jp_add_2":"立金"},"6692323":{"post_code":"6692323","prefecture":"HYOGO KEN","city":"SASAYAMA SHI","town":"TATSUMACHI","perfecture_jp":"兵庫県","jp_add_1":"篠山市","jp_add_2":"立町"},"6692453":{"post_code":"6692453","prefecture":"HYOGO KEN","city":"SASAYAMA SHI","town":"TANIYAMA","perfecture_jp":"兵庫県","jp_add_1":"篠山市","jp_add_2":"谷山"},"6692531":{"post_code":"6692531","prefecture":"HYOGO KEN","city":"SASAYAMA SHI","town":"TARUMI","perfecture_jp":"兵庫県","jp_add_1":"篠山市","jp_add_2":"垂水"},"6692362":{"post_code":"6692362","prefecture":"HYOGO KEN","city":"SASAYAMA SHI","town":"CHISOKU","perfecture_jp":"兵庫県","jp_add_1":"篠山市","jp_add_2":"知足"},"6692814":{"post_code":"6692814","prefecture":"HYOGO KEN","city":"SASAYAMA SHI","town":"CHOANJI","perfecture_jp":"兵庫県","jp_add_1":"篠山市","jp_add_2":"長安寺"},"6692815":{"post_code":"6692815","prefecture":"HYOGO KEN","city":"SASAYAMA SHI","town":"CHONOTA","perfecture_jp":"兵庫県","jp_add_1":"篠山市","jp_add_2":"町ノ田"},"6692411":{"post_code":"6692411","prefecture":"HYOGO KEN","city":"SASAYAMA SHI","town":"TSUJI","perfecture_jp":"兵庫県","jp_add_1":"篠山市","jp_add_2":"辻"},"6692366":{"post_code":"6692366","prefecture":"HYOGO KEN","city":"SASAYAMA SHI","town":"TERAUCHI","perfecture_jp":"兵庫県","jp_add_1":"篠山市","jp_add_2":"寺内"},"6692821":{"post_code":"6692821","prefecture":"HYOGO KEN","city":"SASAYAMA SHI","town":"TOKOCHI","perfecture_jp":"兵庫県","jp_add_1":"篠山市","jp_add_2":"東河地"},"6692111":{"post_code":"6692111","prefecture":"HYOGO KEN","city":"SASAYAMA SHI","town":"TONO","perfecture_jp":"兵庫県","jp_add_1":"篠山市","jp_add_2":"当野"},"6692826":{"post_code":"6692826","prefecture":"HYOGO KEN","city":"SASAYAMA SHI","town":"TOKUNAGA","perfecture_jp":"兵庫県","jp_add_1":"篠山市","jp_add_2":"徳永"},"6692525":{"post_code":"6692525","prefecture":"HYOGO KEN","city":"SASAYAMA SHI","town":"TOCHINASHI","perfecture_jp":"兵庫県","jp_add_1":"篠山市","jp_add_2":"栃梨"},"6692434":{"post_code":"6692434","prefecture":"HYOGO KEN","city":"SASAYAMA SHI","town":"TONOMACHI","perfecture_jp":"兵庫県","jp_add_1":"篠山市","jp_add_2":"殿町"},"6692601":{"post_code":"6692601","prefecture":"HYOGO KEN","city":"SASAYAMA SHI","town":"NAKA","perfecture_jp":"兵庫県","jp_add_1":"篠山市","jp_add_2":"中"},"6692213":{"post_code":"6692213","prefecture":"HYOGO KEN","city":"SASAYAMA SHI","town":"NAKANO","perfecture_jp":"兵庫県","jp_add_1":"篠山市","jp_add_2":"中野"},"6692502":{"post_code":"6692502","prefecture":"HYOGO KEN","city":"SASAYAMA SHI","town":"NAKAHARAYAMA","perfecture_jp":"兵庫県","jp_add_1":"篠山市","jp_add_2":"中原山"},"6692331":{"post_code":"6692331","prefecture":"HYOGO KEN","city":"SASAYAMA SHI","town":"NIKAIMACHI","perfecture_jp":"兵庫県","jp_add_1":"篠山市","jp_add_2":"二階町"},"6692346":{"post_code":"6692346","prefecture":"HYOGO KEN","city":"SASAYAMA SHI","town":"NISHIOKAYA","perfecture_jp":"兵庫県","jp_add_1":"篠山市","jp_add_2":"西岡屋"},"6692736":{"post_code":"6692736","prefecture":"HYOGO KEN","city":"SASAYAMA SHI","town":"NISHIKINOBE","perfecture_jp":"兵庫県","jp_add_1":"篠山市","jp_add_2":"西木之部"},"6692221":{"post_code":"6692221","prefecture":"HYOGO KEN","city":"SASAYAMA SHI","town":"NISHIKOSA","perfecture_jp":"兵庫県","jp_add_1":"篠山市","jp_add_2":"西古佐"},"6692728":{"post_code":"6692728","prefecture":"HYOGO KEN","city":"SASAYAMA SHI","town":"NISHISAKAMOTO","perfecture_jp":"兵庫県","jp_add_1":"篠山市","jp_add_2":"西阪本"},"6692447":{"post_code":"6692447","prefecture":"HYOGO KEN","city":"SASAYAMA SHI","town":"NISHIJO","perfecture_jp":"兵庫県","jp_add_1":"篠山市","jp_add_2":"西荘"},"6692334":{"post_code":"6692334","prefecture":"HYOGO KEN","city":"SASAYAMA SHI","town":"NISHISHIMMACHI","perfecture_jp":"兵庫県","jp_add_1":"篠山市","jp_add_2":"西新町"},"6692721":{"post_code":"6692721","prefecture":"HYOGO KEN","city":"SASAYAMA SHI","town":"NISHITANI","perfecture_jp":"兵庫県","jp_add_1":"篠山市","jp_add_2":"西谷"},"6692504":{"post_code":"6692504","prefecture":"HYOGO KEN","city":"SASAYAMA SHI","town":"NISHINONO","perfecture_jp":"兵庫県","jp_add_1":"篠山市","jp_add_2":"西野々"},"6692352":{"post_code":"6692352","prefecture":"HYOGO KEN","city":"SASAYAMA SHI","town":"NISHIHAMADANI","perfecture_jp":"兵庫県","jp_add_1":"篠山市","jp_add_2":"西浜谷"},"6692206":{"post_code":"6692206","prefecture":"HYOGO KEN","city":"SASAYAMA SHI","town":"NISHIBUKI","perfecture_jp":"兵庫県","jp_add_1":"篠山市","jp_add_2":"西吹"},"6692404":{"post_code":"6692404","prefecture":"HYOGO KEN","city":"SASAYAMA SHI","town":"NISHIHONJO","perfecture_jp":"兵庫県","jp_add_1":"篠山市","jp_add_2":"西本荘"},"6692342":{"post_code":"6692342","prefecture":"HYOGO KEN","city":"SASAYAMA SHI","town":"NISHIMACHI","perfecture_jp":"兵庫県","jp_add_1":"篠山市","jp_add_2":"西町"},"6692433":{"post_code":"6692433","prefecture":"HYOGO KEN","city":"SASAYAMA SHI","town":"NISHIYAKAMI","perfecture_jp":"兵庫県","jp_add_1":"篠山市","jp_add_2":"西八上"},"6692521":{"post_code":"6692521","prefecture":"HYOGO KEN","city":"SASAYAMA SHI","town":"NINOTSUBO","perfecture_jp":"兵庫県","jp_add_1":"篠山市","jp_add_2":"二之坪"},"6692353":{"post_code":"6692353","prefecture":"HYOGO KEN","city":"SASAYAMA SHI","town":"NOJIRI","perfecture_jp":"兵庫県","jp_add_1":"篠山市","jp_add_2":"野尻"},"6692452":{"post_code":"6692452","prefecture":"HYOGO KEN","city":"SASAYAMA SHI","town":"NONAKA","perfecture_jp":"兵庫県","jp_add_1":"篠山市","jp_add_2":"野中"},"6692445":{"post_code":"6692445","prefecture":"HYOGO KEN","city":"SASAYAMA SHI","town":"NONOGAKI","perfecture_jp":"兵庫県","jp_add_1":"篠山市","jp_add_2":"野々垣"},"6692313":{"post_code":"6692313","prefecture":"HYOGO KEN","city":"SASAYAMA SHI","town":"NOMA","perfecture_jp":"兵庫県","jp_add_1":"篠山市","jp_add_2":"野間"},"6692716":{"post_code":"6692716","prefecture":"HYOGO KEN","city":"SASAYAMA SHI","town":"NORITAKE","perfecture_jp":"兵庫県","jp_add_1":"篠山市","jp_add_2":"乗竹"},"6692103":{"post_code":"6692103","prefecture":"HYOGO KEN","city":"SASAYAMA SHI","town":"HAGANO","perfecture_jp":"兵庫県","jp_add_1":"篠山市","jp_add_2":"波賀野"},"6692122":{"post_code":"6692122","prefecture":"HYOGO KEN","city":"SASAYAMA SHI","town":"HAGANOSHINDEN","perfecture_jp":"兵庫県","jp_add_1":"篠山市","jp_add_2":"波賀野新田"},"6692524":{"post_code":"6692524","prefecture":"HYOGO KEN","city":"SASAYAMA SHI","town":"HAKODANI","perfecture_jp":"兵庫県","jp_add_1":"篠山市","jp_add_2":"箱谷"},"6692418":{"post_code":"6692418","prefecture":"HYOGO KEN","city":"SASAYAMA SHI","town":"HATAI","perfecture_jp":"兵庫県","jp_add_1":"篠山市","jp_add_2":"畑井"},"6692413":{"post_code":"6692413","prefecture":"HYOGO KEN","city":"SASAYAMA SHI","town":"HATAICHI","perfecture_jp":"兵庫県","jp_add_1":"篠山市","jp_add_2":"畑市"},"6692505":{"post_code":"6692505","prefecture":"HYOGO KEN","city":"SASAYAMA SHI","town":"HADAKASU","perfecture_jp":"兵庫県","jp_add_1":"篠山市","jp_add_2":"安口"},"6692553":{"post_code":"6692553","prefecture":"HYOGO KEN","city":"SASAYAMA SHI","town":"HADACHI","perfecture_jp":"兵庫県","jp_add_1":"篠山市","jp_add_2":"幡路"},"6692305":{"post_code":"6692305","prefecture":"HYOGO KEN","city":"SASAYAMA SHI","town":"HATAMIYA","perfecture_jp":"兵庫県","jp_add_1":"篠山市","jp_add_2":"畑宮"},"6692101":{"post_code":"6692101","prefecture":"HYOGO KEN","city":"SASAYAMA SHI","town":"HATSUDA","perfecture_jp":"兵庫県","jp_add_1":"篠山市","jp_add_2":"初田"},"6692307":{"post_code":"6692307","prefecture":"HYOGO KEN","city":"SASAYAMA SHI","town":"HANNYAJI","perfecture_jp":"兵庫県","jp_add_1":"篠山市","jp_add_2":"般若寺"},"6692301":{"post_code":"6692301","prefecture":"HYOGO KEN","city":"SASAYAMA SHI","town":"HIUCHIWAN","perfecture_jp":"兵庫県","jp_add_1":"篠山市","jp_add_2":"火打岩"},"6692441":{"post_code":"6692441","prefecture":"HYOGO KEN","city":"SASAYAMA SHI","town":"HIOKI","perfecture_jp":"兵庫県","jp_add_1":"篠山市","jp_add_2":"日置"},"6692345":{"post_code":"6692345","prefecture":"HYOGO KEN","city":"SASAYAMA SHI","town":"HIGASHIOKAYA","perfecture_jp":"兵庫県","jp_add_1":"篠山市","jp_add_2":"東岡屋"},"6692737":{"post_code":"6692737","prefecture":"HYOGO KEN","city":"SASAYAMA SHI","town":"HIGASHIKINOBE","perfecture_jp":"兵庫県","jp_add_1":"篠山市","jp_add_2":"東木之部"},"6692201":{"post_code":"6692201","prefecture":"HYOGO KEN","city":"SASAYAMA SHI","town":"HIGASHIKOSA","perfecture_jp":"兵庫県","jp_add_1":"篠山市","jp_add_2":"東古佐"},"6692314":{"post_code":"6692314","prefecture":"HYOGO KEN","city":"SASAYAMA SHI","town":"HIGASHISAWADA","perfecture_jp":"兵庫県","jp_add_1":"篠山市","jp_add_2":"東沢田"},"6692324":{"post_code":"6692324","prefecture":"HYOGO KEN","city":"SASAYAMA SHI","town":"HIGASHISHIMMACHI","perfecture_jp":"兵庫県","jp_add_1":"篠山市","jp_add_2":"東新町"},"6692351":{"post_code":"6692351","prefecture":"HYOGO KEN","city":"SASAYAMA SHI","town":"HIGASHIHAMADANI","perfecture_jp":"兵庫県","jp_add_1":"篠山市","jp_add_2":"東浜谷"},"6692202":{"post_code":"6692202","prefecture":"HYOGO KEN","city":"SASAYAMA SHI","town":"HIGASHIBUKI","perfecture_jp":"兵庫県","jp_add_1":"篠山市","jp_add_2":"東吹"},"6692403":{"post_code":"6692403","prefecture":"HYOGO KEN","city":"SASAYAMA SHI","town":"HIGASHIHONJO","perfecture_jp":"兵庫県","jp_add_1":"篠山市","jp_add_2":"東本荘"},"6692343":{"post_code":"6692343","prefecture":"HYOGO KEN","city":"SASAYAMA SHI","town":"FUKA","perfecture_jp":"兵庫県","jp_add_1":"篠山市","jp_add_2":"風深"},"6692344":{"post_code":"6692344","prefecture":"HYOGO KEN","city":"SASAYAMA SHI","town":"FUKIGAMI","perfecture_jp":"兵庫県","jp_add_1":"篠山市","jp_add_2":"吹上"},"6692203":{"post_code":"6692203","prefecture":"HYOGO KEN","city":"SASAYAMA SHI","town":"FUKISHIN","perfecture_jp":"兵庫県","jp_add_1":"篠山市","jp_add_2":"吹新"},"6692603":{"post_code":"6692603","prefecture":"HYOGO KEN","city":"SASAYAMA SHI","town":"FUKUI","perfecture_jp":"兵庫県","jp_add_1":"篠山市","jp_add_2":"福井"},"6692513":{"post_code":"6692513","prefecture":"HYOGO KEN","city":"SASAYAMA SHI","town":"FUKUSUMI","perfecture_jp":"兵庫県","jp_add_1":"篠山市","jp_add_2":"福住"},"6692369":{"post_code":"6692369","prefecture":"HYOGO KEN","city":"SASAYAMA SHI","town":"FUJIOKAOKU","perfecture_jp":"兵庫県","jp_add_1":"篠山市","jp_add_2":"藤岡奥"},"6692368":{"post_code":"6692368","prefecture":"HYOGO KEN","city":"SASAYAMA SHI","town":"FUJIOKAKUCHI","perfecture_jp":"兵庫県","jp_add_1":"篠山市","jp_add_2":"藤岡口"},"6692605":{"post_code":"6692605","prefecture":"HYOGO KEN","city":"SASAYAMA SHI","town":"FUJISAKA","perfecture_jp":"兵庫県","jp_add_1":"篠山市","jp_add_2":"藤坂"},"6692552":{"post_code":"6692552","prefecture":"HYOGO KEN","city":"SASAYAMA SHI","town":"FUJINOKI","perfecture_jp":"兵庫県","jp_add_1":"篠山市","jp_add_2":"藤之木"},"6692123":{"post_code":"6692123","prefecture":"HYOGO KEN","city":"SASAYAMA SHI","town":"FURUICHI","perfecture_jp":"兵庫県","jp_add_1":"篠山市","jp_add_2":"古市"},"6692702":{"post_code":"6692702","prefecture":"HYOGO KEN","city":"SASAYAMA SHI","town":"HONGO","perfecture_jp":"兵庫県","jp_add_1":"篠山市","jp_add_2":"本郷"},"6692511":{"post_code":"6692511","prefecture":"HYOGO KEN","city":"SASAYAMA SHI","town":"HOMMYODANI","perfecture_jp":"兵庫県","jp_add_1":"篠山市","jp_add_2":"本明谷"},"6692316":{"post_code":"6692316","prefecture":"HYOGO KEN","city":"SASAYAMA SHI","town":"MAESAWADA","perfecture_jp":"兵庫県","jp_add_1":"篠山市","jp_add_2":"前沢田"},"6692527":{"post_code":"6692527","prefecture":"HYOGO KEN","city":"SASAYAMA SHI","town":"MATSUGAHANA","perfecture_jp":"兵庫県","jp_add_1":"篠山市","jp_add_2":"松ケ鼻"},"6692462":{"post_code":"6692462","prefecture":"HYOGO KEN","city":"SASAYAMA SHI","town":"MANANJOKAMI","perfecture_jp":"兵庫県","jp_add_1":"篠山市","jp_add_2":"真南条上"},"6692464":{"post_code":"6692464","prefecture":"HYOGO KEN","city":"SASAYAMA SHI","town":"MANANJOSHIMO","perfecture_jp":"兵庫県","jp_add_1":"篠山市","jp_add_2":"真南条下"},"6692463":{"post_code":"6692463","prefecture":"HYOGO KEN","city":"SASAYAMA SHI","town":"MANANJONAKA","perfecture_jp":"兵庫県","jp_add_1":"篠山市","jp_add_2":"真南条中"},"6692361":{"post_code":"6692361","prefecture":"HYOGO KEN","city":"SASAYAMA SHI","town":"MARUYAMA","perfecture_jp":"兵庫県","jp_add_1":"篠山市","jp_add_2":"丸山"},"6692121":{"post_code":"6692121","prefecture":"HYOGO KEN","city":"SASAYAMA SHI","town":"MIUCHI","perfecture_jp":"兵庫県","jp_add_1":"篠山市","jp_add_2":"見内"},"6692602":{"post_code":"6692602","prefecture":"HYOGO KEN","city":"SASAYAMA SHI","town":"MIKUMA","perfecture_jp":"兵庫県","jp_add_1":"篠山市","jp_add_2":"三熊"},"6692333":{"post_code":"6692333","prefecture":"HYOGO KEN","city":"SASAYAMA SHI","town":"MINAMISHIMMACHI","perfecture_jp":"兵庫県","jp_add_1":"篠山市","jp_add_2":"南新町"},"6692102":{"post_code":"6692102","prefecture":"HYOGO KEN","city":"SASAYAMA SHI","town":"MINAMIYASHIRO","perfecture_jp":"兵庫県","jp_add_1":"篠山市","jp_add_2":"南矢代"},"6692615":{"post_code":"6692615","prefecture":"HYOGO KEN","city":"SASAYAMA SHI","town":"MIYASHIRO","perfecture_jp":"兵庫県","jp_add_1":"篠山市","jp_add_2":"宮代"},"6692734":{"post_code":"6692734","prefecture":"HYOGO KEN","city":"SASAYAMA SHI","town":"MIYADA","perfecture_jp":"兵庫県","jp_add_1":"篠山市","jp_add_2":"宮田"},"6692414":{"post_code":"6692414","prefecture":"HYOGO KEN","city":"SASAYAMA SHI","town":"MIYANOMAE","perfecture_jp":"兵庫県","jp_add_1":"篠山市","jp_add_2":"宮ノ前"},"6692526":{"post_code":"6692526","prefecture":"HYOGO KEN","city":"SASAYAMA SHI","town":"MUKAI","perfecture_jp":"兵庫県","jp_add_1":"篠山市","jp_add_2":"向井"},"6692437":{"post_code":"6692437","prefecture":"HYOGO KEN","city":"SASAYAMA SHI","town":"MOCHIGATSUBO","perfecture_jp":"兵庫県","jp_add_1":"篠山市","jp_add_2":"糯ケ坪"},"6692432":{"post_code":"6692432","prefecture":"HYOGO KEN","city":"SASAYAMA SHI","town":"YAKAMIUCHI","perfecture_jp":"兵庫県","jp_add_1":"篠山市","jp_add_2":"八上内"},"6692446":{"post_code":"6692446","prefecture":"HYOGO KEN","city":"SASAYAMA SHI","town":"YAKAMIKAMI","perfecture_jp":"兵庫県","jp_add_1":"篠山市","jp_add_2":"八上上"},"6692431":{"post_code":"6692431","prefecture":"HYOGO KEN","city":"SASAYAMA SHI","town":"YAKAMISHIMO","perfecture_jp":"兵庫県","jp_add_1":"篠山市","jp_add_2":"八上下"},"6692356":{"post_code":"6692356","prefecture":"HYOGO KEN","city":"SASAYAMA SHI","town":"YASHIRO","perfecture_jp":"兵庫県","jp_add_1":"篠山市","jp_add_2":"矢代"},"6692104":{"post_code":"6692104","prefecture":"HYOGO KEN","city":"SASAYAMA SHI","town":"YASHIROSHIN","perfecture_jp":"兵庫県","jp_add_1":"篠山市","jp_add_2":"矢代新"},"6692551":{"post_code":"6692551","prefecture":"HYOGO KEN","city":"SASAYAMA SHI","town":"YASUDA","perfecture_jp":"兵庫県","jp_add_1":"篠山市","jp_add_2":"安田"},"6692337":{"post_code":"6692337","prefecture":"HYOGO KEN","city":"SASAYAMA SHI","town":"YAMAUCHICHO","perfecture_jp":"兵庫県","jp_add_1":"篠山市","jp_add_2":"山内町"},"6692533":{"post_code":"6692533","prefecture":"HYOGO KEN","city":"SASAYAMA SHI","town":"YAMADA","perfecture_jp":"兵庫県","jp_add_1":"篠山市","jp_add_2":"山田"},"6692364":{"post_code":"6692364","prefecture":"HYOGO KEN","city":"SASAYAMA SHI","town":"WASHIO","perfecture_jp":"兵庫県","jp_add_1":"篠山市","jp_add_2":"鷲尾"},"6692308":{"post_code":"6692308","prefecture":"HYOGO KEN","city":"SASAYAMA SHI","town":"WADA","perfecture_jp":"兵庫県","jp_add_1":"篠山市","jp_add_2":"和田"},"6693300":{"post_code":"6693300","prefecture":"HYOGO KEN","city":"TAMBA SHI","town":"IKANIKEISAIGANAIBAAI","perfecture_jp":"兵庫県","jp_add_1":"丹波市","jp_add_2":""},"6693831":{"post_code":"6693831","prefecture":"HYOGO KEN","city":"TAMBA SHI","town":"AOGAKICHO ICHIBARA","perfecture_jp":"兵庫県","jp_add_1":"丹波市","jp_add_2":"青垣町市原"},"6693827":{"post_code":"6693827","prefecture":"HYOGO KEN","city":"TAMBA SHI","town":"AOGAKICHO INAZUCHI","perfecture_jp":"兵庫県","jp_add_1":"丹波市","jp_add_2":"青垣町稲土"},"6693843":{"post_code":"6693843","prefecture":"HYOGO KEN","city":"TAMBA SHI","town":"AOGAKICHO OKUSHIOKU","perfecture_jp":"兵庫県","jp_add_1":"丹波市","jp_add_2":"青垣町奥塩久"},"6693812":{"post_code":"6693812","prefecture":"HYOGO KEN","city":"TAMBA SHI","town":"AOGAKICHO OGURA","perfecture_jp":"兵庫県","jp_add_1":"丹波市","jp_add_2":"青垣町小倉"},"6693822":{"post_code":"6693822","prefecture":"HYOGO KEN","city":"TAMBA SHI","town":"AOGAKICHO ONAZA","perfecture_jp":"兵庫県","jp_add_1":"丹波市","jp_add_2":"青垣町大名草"},"6693823":{"post_code":"6693823","prefecture":"HYOGO KEN","city":"TAMBA SHI","town":"AOGAKICHO OBIE","perfecture_jp":"兵庫県","jp_add_1":"丹波市","jp_add_2":"青垣町大稗"},"6693841":{"post_code":"6693841","prefecture":"HYOGO KEN","city":"TAMBA SHI","town":"AOGAKICHO KUCHISHIOKU","perfecture_jp":"兵庫県","jp_add_1":"丹波市","jp_add_2":"青垣町口塩久"},"6693802":{"post_code":"6693802","prefecture":"HYOGO KEN","city":"TAMBA SHI","town":"AOGAKICHO KURISUNO","perfecture_jp":"兵庫県","jp_add_1":"丹波市","jp_add_2":"青垣町栗住野"},"6693824":{"post_code":"6693824","prefecture":"HYOGO KEN","city":"TAMBA SHI","town":"AOGAKICHO KOBIE","perfecture_jp":"兵庫県","jp_add_1":"丹波市","jp_add_2":"青垣町小稗"},"6693811":{"post_code":"6693811","prefecture":"HYOGO KEN","city":"TAMBA SHI","town":"AOGAKICHO SAJI","perfecture_jp":"兵庫県","jp_add_1":"丹波市","jp_add_2":"青垣町佐治"},"6693842":{"post_code":"6693842","prefecture":"HYOGO KEN","city":"TAMBA SHI","town":"AOGAKICHO SAWANO","perfecture_jp":"兵庫県","jp_add_1":"丹波市","jp_add_2":"青垣町沢野"},"6693825":{"post_code":"6693825","prefecture":"HYOGO KEN","city":"TAMBA SHI","town":"AOGAKICHO SOJI","perfecture_jp":"兵庫県","jp_add_1":"丹波市","jp_add_2":"青垣町惣持"},"6693804":{"post_code":"6693804","prefecture":"HYOGO KEN","city":"TAMBA SHI","town":"AOGAKICHO TAINAWA","perfecture_jp":"兵庫県","jp_add_1":"丹波市","jp_add_2":"青垣町田井縄"},"6693832":{"post_code":"6693832","prefecture":"HYOGO KEN","city":"TAMBA SHI","town":"AOGAKICHO TOZAKA","perfecture_jp":"兵庫県","jp_add_1":"丹波市","jp_add_2":"青垣町遠阪"},"6693834":{"post_code":"6693834","prefecture":"HYOGO KEN","city":"TAMBA SHI","town":"AOGAKICHO NAKASAJI","perfecture_jp":"兵庫県","jp_add_1":"丹波市","jp_add_2":"青垣町中佐治"},"6693803":{"post_code":"6693803","prefecture":"HYOGO KEN","city":"TAMBA SHI","town":"AOGAKICHO NISHIASHIDA","perfecture_jp":"兵庫県","jp_add_1":"丹波市","jp_add_2":"青垣町西芦田"},"6693801":{"post_code":"6693801","prefecture":"HYOGO KEN","city":"TAMBA SHI","town":"AOGAKICHO HIGASHIASHIDA","perfecture_jp":"兵庫県","jp_add_1":"丹波市","jp_add_2":"青垣町東芦田"},"6693821":{"post_code":"6693821","prefecture":"HYOGO KEN","city":"TAMBA SHI","town":"AOGAKICHO HINOKURA","perfecture_jp":"兵庫県","jp_add_1":"丹波市","jp_add_2":"青垣町桧倉"},"6693826":{"post_code":"6693826","prefecture":"HYOGO KEN","city":"TAMBA SHI","town":"AOGAKICHO FUMURO","perfecture_jp":"兵庫県","jp_add_1":"丹波市","jp_add_2":"青垣町文室"},"6693833":{"post_code":"6693833","prefecture":"HYOGO KEN","city":"TAMBA SHI","town":"AOGAKICHO YAMAGAI","perfecture_jp":"兵庫県","jp_add_1":"丹波市","jp_add_2":"青垣町山垣"},"6694324":{"post_code":"6694324","prefecture":"HYOGO KEN","city":"TAMBA SHI","town":"ICHIJIMACHO ICHIJIMA","perfecture_jp":"兵庫県","jp_add_1":"丹波市","jp_add_2":"市島町市島"},"6694316":{"post_code":"6694316","prefecture":"HYOGO KEN","city":"TAMBA SHI","town":"ICHIJIMACHO IWATO","perfecture_jp":"兵庫県","jp_add_1":"丹波市","jp_add_2":"市島町岩戸"},"6694321":{"post_code":"6694321","prefecture":"HYOGO KEN","city":"TAMBA SHI","town":"ICHIJIMACHO UEGAI","perfecture_jp":"兵庫県","jp_add_1":"丹波市","jp_add_2":"市島町上垣"},"6694317":{"post_code":"6694317","prefecture":"HYOGO KEN","city":"TAMBA SHI","town":"ICHIJIMACHO UEMAKI","perfecture_jp":"兵庫県","jp_add_1":"丹波市","jp_add_2":"市島町上牧"},"6694336":{"post_code":"6694336","prefecture":"HYOGO KEN","city":"TAMBA SHI","town":"ICHIJIMACHO OTOGAWACHI","perfecture_jp":"兵庫県","jp_add_1":"丹波市","jp_add_2":"市島町乙河内"},"6694323":{"post_code":"6694323","prefecture":"HYOGO KEN","city":"TAMBA SHI","town":"ICHIJIMACHO KAJIWARA","perfecture_jp":"兵庫県","jp_add_1":"丹波市","jp_add_2":"市島町梶原"},"6694344":{"post_code":"6694344","prefecture":"HYOGO KEN","city":"TAMBA SHI","town":"ICHIJIMACHO KAMIKAMOSAKA","perfecture_jp":"兵庫県","jp_add_1":"丹波市","jp_add_2":"市島町上鴨阪"},"6694322":{"post_code":"6694322","prefecture":"HYOGO KEN","city":"TAMBA SHI","town":"ICHIJIMACHO KAMIDA","perfecture_jp":"兵庫県","jp_add_1":"丹波市","jp_add_2":"市島町上田"},"6694341":{"post_code":"6694341","prefecture":"HYOGO KEN","city":"TAMBA SHI","town":"ICHIJIMACHO KAMITAKEDA","perfecture_jp":"兵庫県","jp_add_1":"丹波市","jp_add_2":"市島町上竹田"},"6694315":{"post_code":"6694315","prefecture":"HYOGO KEN","city":"TAMBA SHI","town":"ICHIJIMACHO KITA","perfecture_jp":"兵庫県","jp_add_1":"丹波市","jp_add_2":"市島町喜多"},"6694325":{"post_code":"6694325","prefecture":"HYOGO KEN","city":"TAMBA SHI","town":"ICHIJIMACHO KITAOKAMOTO","perfecture_jp":"兵庫県","jp_add_1":"丹波市","jp_add_2":"市島町北岡本"},"6694312":{"post_code":"6694312","prefecture":"HYOGO KEN","city":"TAMBA SHI","town":"ICHIJIMACHO KITAOKU","perfecture_jp":"兵庫県","jp_add_1":"丹波市","jp_add_2":"市島町北奥"},"6694337":{"post_code":"6694337","prefecture":"HYOGO KEN","city":"TAMBA SHI","town":"ICHIJIMACHO SANASE","perfecture_jp":"兵庫県","jp_add_1":"丹波市","jp_add_2":"市島町酒梨"},"6694343":{"post_code":"6694343","prefecture":"HYOGO KEN","city":"TAMBA SHI","town":"ICHIJIMACHO SHIMOKAMOSAKA","perfecture_jp":"兵庫県","jp_add_1":"丹波市","jp_add_2":"市島町下鴨阪"},"6694301":{"post_code":"6694301","prefecture":"HYOGO KEN","city":"TAMBA SHI","town":"ICHIJIMACHO SHIMOTAKEDA","perfecture_jp":"兵庫県","jp_add_1":"丹波市","jp_add_2":"市島町下竹田"},"6694313":{"post_code":"6694313","prefecture":"HYOGO KEN","city":"TAMBA SHI","town":"ICHIJIMACHO TARI","perfecture_jp":"兵庫県","jp_add_1":"丹波市","jp_add_2":"市島町多利"},"6694332":{"post_code":"6694332","prefecture":"HYOGO KEN","city":"TAMBA SHI","town":"ICHIJIMACHO CHOKUSHI","perfecture_jp":"兵庫県","jp_add_1":"丹波市","jp_add_2":"市島町勅使"},"6694345":{"post_code":"6694345","prefecture":"HYOGO KEN","city":"TAMBA SHI","town":"ICHIJIMACHO TOKUO","perfecture_jp":"兵庫県","jp_add_1":"丹波市","jp_add_2":"市島町徳尾"},"6694333":{"post_code":"6694333","prefecture":"HYOGO KEN","city":"TAMBA SHI","town":"ICHIJIMACHO TOSAKA","perfecture_jp":"兵庫県","jp_add_1":"丹波市","jp_add_2":"市島町戸坂"},"6694311":{"post_code":"6694311","prefecture":"HYOGO KEN","city":"TAMBA SHI","town":"ICHIJIMACHO TOBERA","perfecture_jp":"兵庫県","jp_add_1":"丹波市","jp_add_2":"市島町戸平"},"6694302":{"post_code":"6694302","prefecture":"HYOGO KEN","city":"TAMBA SHI","town":"ICHIJIMACHO NAKATAKEDA","perfecture_jp":"兵庫県","jp_add_1":"丹波市","jp_add_2":"市島町中竹田"},"6694331":{"post_code":"6694331","prefecture":"HYOGO KEN","city":"TAMBA SHI","town":"ICHIJIMACHO HIGASHICHOKUSHI","perfecture_jp":"兵庫県","jp_add_1":"丹波市","jp_add_2":"市島町東勅使"},"6694334":{"post_code":"6694334","prefecture":"HYOGO KEN","city":"TAMBA SHI","town":"ICHIJIMACHO BYAKUGOJI","perfecture_jp":"兵庫県","jp_add_1":"丹波市","jp_add_2":"市島町白毫寺"},"6694314":{"post_code":"6694314","prefecture":"HYOGO KEN","city":"TAMBA SHI","town":"ICHIJIMACHO MINAMI","perfecture_jp":"兵庫県","jp_add_1":"丹波市","jp_add_2":"市島町南"},"6694342":{"post_code":"6694342","prefecture":"HYOGO KEN","city":"TAMBA SHI","town":"ICHIJIMACHO YASHIRO","perfecture_jp":"兵庫県","jp_add_1":"丹波市","jp_add_2":"市島町矢代"},"6694335":{"post_code":"6694335","prefecture":"HYOGO KEN","city":"TAMBA SHI","town":"ICHIJIMACHO YOTO","perfecture_jp":"兵庫県","jp_add_1":"丹波市","jp_add_2":"市島町与戸"},"6693314":{"post_code":"6693314","prefecture":"HYOGO KEN","city":"TAMBA SHI","town":"KAIBARACHO AGUTA","perfecture_jp":"兵庫県","jp_add_1":"丹波市","jp_add_2":"柏原町挙田"},"6693307":{"post_code":"6693307","prefecture":"HYOGO KEN","city":"TAMBA SHI","town":"KAIBARACHO ISHIDO","perfecture_jp":"兵庫県","jp_add_1":"丹波市","jp_add_2":"柏原町石戸"},"6693315":{"post_code":"6693315","prefecture":"HYOGO KEN","city":"TAMBA SHI","town":"KAIBARACHO ONIYA","perfecture_jp":"兵庫県","jp_add_1":"丹波市","jp_add_2":"柏原町大新屋"},"6693309":{"post_code":"6693309","prefecture":"HYOGO KEN","city":"TAMBA SHI","town":"KAIBARACHO KAIBARA","perfecture_jp":"兵庫県","jp_add_1":"丹波市","jp_add_2":"柏原町柏原"},"6693304":{"post_code":"6693304","prefecture":"HYOGO KEN","city":"TAMBA SHI","town":"KAIBARACHO KAMIOGURA","perfecture_jp":"兵庫県","jp_add_1":"丹波市","jp_add_2":"柏原町上小倉"},"6693316":{"post_code":"6693316","prefecture":"HYOGO KEN","city":"TAMBA SHI","town":"KAIBARACHO KAMONO","perfecture_jp":"兵庫県","jp_add_1":"丹波市","jp_add_2":"柏原町鴨野"},"6693306":{"post_code":"6693306","prefecture":"HYOGO KEN","city":"TAMBA SHI","town":"KAIBARACHO KITANAKA","perfecture_jp":"兵庫県","jp_add_1":"丹波市","jp_add_2":"柏原町北中"},"6693313":{"post_code":"6693313","prefecture":"HYOGO KEN","city":"TAMBA SHI","town":"KAIBARACHO KITAYAMA","perfecture_jp":"兵庫県","jp_add_1":"丹波市","jp_add_2":"柏原町北山"},"6693308":{"post_code":"6693308","prefecture":"HYOGO KEN","city":"TAMBA SHI","town":"KAIBARACHO KOMINAMI","perfecture_jp":"兵庫県","jp_add_1":"丹波市","jp_add_2":"柏原町小南"},"6693305":{"post_code":"6693305","prefecture":"HYOGO KEN","city":"TAMBA SHI","town":"KAIBARACHO SHIMOGURA","perfecture_jp":"兵庫県","jp_add_1":"丹波市","jp_add_2":"柏原町下小倉"},"6693312":{"post_code":"6693312","prefecture":"HYOGO KEN","city":"TAMBA SHI","town":"KAIBARACHO TAJI","perfecture_jp":"兵庫県","jp_add_1":"丹波市","jp_add_2":"柏原町田路"},"6693302":{"post_code":"6693302","prefecture":"HYOGO KEN","city":"TAMBA SHI","town":"KAIBARACHO HIGASHIOKU","perfecture_jp":"兵庫県","jp_add_1":"丹波市","jp_add_2":"柏原町東奥"},"6693311":{"post_code":"6693311","prefecture":"HYOGO KEN","city":"TAMBA SHI","town":"KAIBARACHO HOTSUBO","perfecture_jp":"兵庫県","jp_add_1":"丹波市","jp_add_2":"柏原町母坪"},"6693303":{"post_code":"6693303","prefecture":"HYOGO KEN","city":"TAMBA SHI","town":"KAIBARACHO MINAGA","perfecture_jp":"兵庫県","jp_add_1":"丹波市","jp_add_2":"柏原町見長"},"6693301":{"post_code":"6693301","prefecture":"HYOGO KEN","city":"TAMBA SHI","town":"KAIBARACHO MINAMITADA","perfecture_jp":"兵庫県","jp_add_1":"丹波市","jp_add_2":"柏原町南多田"},"6693411":{"post_code":"6693411","prefecture":"HYOGO KEN","city":"TAMBA SHI","town":"KASUGACHO ASAHI","perfecture_jp":"兵庫県","jp_add_1":"丹波市","jp_add_2":"春日町朝日"},"6694121":{"post_code":"6694121","prefecture":"HYOGO KEN","city":"TAMBA SHI","town":"KASUGACHO IKEO","perfecture_jp":"兵庫県","jp_add_1":"丹波市","jp_add_2":"春日町池尾"},"6693413":{"post_code":"6693413","prefecture":"HYOGO KEN","city":"TAMBA SHI","town":"KASUGACHO ISHIZAI","perfecture_jp":"兵庫県","jp_add_1":"丹波市","jp_add_2":"春日町石才"},"6694135":{"post_code":"6694135","prefecture":"HYOGO KEN","city":"TAMBA SHI","town":"KASUGACHO INAZUKA","perfecture_jp":"兵庫県","jp_add_1":"丹波市","jp_add_2":"春日町稲塚"},"6693404":{"post_code":"6693404","prefecture":"HYOGO KEN","city":"TAMBA SHI","town":"KASUGACHO USHIGAWACHI","perfecture_jp":"兵庫県","jp_add_1":"丹波市","jp_add_2":"春日町牛河内"},"6693414":{"post_code":"6693414","prefecture":"HYOGO KEN","city":"TAMBA SHI","town":"KASUGACHO UTODANI","perfecture_jp":"兵庫県","jp_add_1":"丹波市","jp_add_2":"春日町歌道谷"},"6694251":{"post_code":"6694251","prefecture":"HYOGO KEN","city":"TAMBA SHI","town":"KASUGACHO KAMIMINOSHO","perfecture_jp":"兵庫県","jp_add_1":"丹波市","jp_add_2":"春日町上三井庄"},"6694262":{"post_code":"6694262","prefecture":"HYOGO KEN","city":"TAMBA SHI","town":"KASUGACHO KAYANO","perfecture_jp":"兵庫県","jp_add_1":"丹波市","jp_add_2":"春日町栢野"},"6694253":{"post_code":"6694253","prefecture":"HYOGO KEN","city":"TAMBA SHI","town":"KASUGACHO KAMBA","perfecture_jp":"兵庫県","jp_add_1":"丹波市","jp_add_2":"春日町鹿場"},"6694141":{"post_code":"6694141","prefecture":"HYOGO KEN","city":"TAMBA SHI","town":"KASUGACHO KUROI","perfecture_jp":"兵庫県","jp_add_1":"丹波市","jp_add_2":"春日町黒井"},"6694273":{"post_code":"6694273","prefecture":"HYOGO KEN","city":"TAMBA SHI","town":"KASUGACHO KOKURYO","perfecture_jp":"兵庫県","jp_add_1":"丹波市","jp_add_2":"春日町国領"},"6694122":{"post_code":"6694122","prefecture":"HYOGO KEN","city":"TAMBA SHI","town":"KASUGACHO KODARI","perfecture_jp":"兵庫県","jp_add_1":"丹波市","jp_add_2":"春日町小多利"},"6693415":{"post_code":"6693415","prefecture":"HYOGO KEN","city":"TAMBA SHI","town":"KASUGACHO SAKA","perfecture_jp":"兵庫県","jp_add_1":"丹波市","jp_add_2":"春日町坂"},"6694252":{"post_code":"6694252","prefecture":"HYOGO KEN","city":"TAMBA SHI","town":"KASUGACHO SHIMOMINOSHO","perfecture_jp":"兵庫県","jp_add_1":"丹波市","jp_add_2":"春日町下三井庄"},"6693402":{"post_code":"6693402","prefecture":"HYOGO KEN","city":"TAMBA SHI","town":"KASUGACHO SHINSAI","perfecture_jp":"兵庫県","jp_add_1":"丹波市","jp_add_2":"春日町新才"},"6693412":{"post_code":"6693412","prefecture":"HYOGO KEN","city":"TAMBA SHI","town":"KASUGACHO SONOBE","perfecture_jp":"兵庫県","jp_add_1":"丹波市","jp_add_2":"春日町園部"},"6694125":{"post_code":"6694125","prefecture":"HYOGO KEN","city":"TAMBA SHI","town":"KASUGACHO TADA","perfecture_jp":"兵庫県","jp_add_1":"丹波市","jp_add_2":"春日町多田"},"6694274":{"post_code":"6694274","prefecture":"HYOGO KEN","city":"TAMBA SHI","town":"KASUGACHO TANABARA","perfecture_jp":"兵庫県","jp_add_1":"丹波市","jp_add_2":"春日町棚原"},"6694123":{"post_code":"6694123","prefecture":"HYOGO KEN","city":"TAMBA SHI","town":"KASUGACHO TARI","perfecture_jp":"兵庫県","jp_add_1":"丹波市","jp_add_2":"春日町多利"},"6693403":{"post_code":"6693403","prefecture":"HYOGO KEN","city":"TAMBA SHI","town":"KASUGACHO NAGAO","perfecture_jp":"兵庫県","jp_add_1":"丹波市","jp_add_2":"春日町長王"},"6694265":{"post_code":"6694265","prefecture":"HYOGO KEN","city":"TAMBA SHI","town":"KASUGACHO NAKAYAMA","perfecture_jp":"兵庫県","jp_add_1":"丹波市","jp_add_2":"春日町中山"},"6694131":{"post_code":"6694131","prefecture":"HYOGO KEN","city":"TAMBA SHI","town":"KASUGACHO NANUKAICHI","perfecture_jp":"兵庫県","jp_add_1":"丹波市","jp_add_2":"春日町七日市"},"6694124":{"post_code":"6694124","prefecture":"HYOGO KEN","city":"TAMBA SHI","town":"KASUGACHO NOKONO","perfecture_jp":"兵庫県","jp_add_1":"丹波市","jp_add_2":"春日町野上野"},"6694261":{"post_code":"6694261","prefecture":"HYOGO KEN","city":"TAMBA SHI","town":"KASUGACHO NOSE","perfecture_jp":"兵庫県","jp_add_1":"丹波市","jp_add_2":"春日町野瀬"},"6694132":{"post_code":"6694132","prefecture":"HYOGO KEN","city":"TAMBA SHI","town":"KASUGACHO NOMURA","perfecture_jp":"兵庫県","jp_add_1":"丹波市","jp_add_2":"春日町野村"},"6693416":{"post_code":"6693416","prefecture":"HYOGO KEN","city":"TAMBA SHI","town":"KASUGACHO NOYAMA","perfecture_jp":"兵庫県","jp_add_1":"丹波市","jp_add_2":"春日町野山"},"6694272":{"post_code":"6694272","prefecture":"HYOGO KEN","city":"TAMBA SHI","town":"KASUGACHO HIGASHINAKA","perfecture_jp":"兵庫県","jp_add_1":"丹波市","jp_add_2":"春日町東中"},"6694133":{"post_code":"6694133","prefecture":"HYOGO KEN","city":"TAMBA SHI","town":"KASUGACHO HIRAMATSU","perfecture_jp":"兵庫県","jp_add_1":"丹波市","jp_add_2":"春日町平松"},"6694263":{"post_code":"6694263","prefecture":"HYOGO KEN","city":"TAMBA SHI","town":"KASUGACHO HIROSE","perfecture_jp":"兵庫県","jp_add_1":"丹波市","jp_add_2":"春日町広瀬"},"6694134":{"post_code":"6694134","prefecture":"HYOGO KEN","city":"TAMBA SHI","town":"KASUGACHO FURUKAWA","perfecture_jp":"兵庫県","jp_add_1":"丹波市","jp_add_2":"春日町古河"},"6694264":{"post_code":"6694264","prefecture":"HYOGO KEN","city":"TAMBA SHI","town":"KASUGACHO MATSUMORI","perfecture_jp":"兵庫県","jp_add_1":"丹波市","jp_add_2":"春日町松森"},"6693401":{"post_code":"6693401","prefecture":"HYOGO KEN","city":"TAMBA SHI","town":"KASUGACHO YAMADA","perfecture_jp":"兵庫県","jp_add_1":"丹波市","jp_add_2":"春日町山田"},"6694271":{"post_code":"6694271","prefecture":"HYOGO KEN","city":"TAMBA SHI","town":"KASUGACHO YUZU","perfecture_jp":"兵庫県","jp_add_1":"丹波市","jp_add_2":"春日町柚津"},"6693112":{"post_code":"6693112","prefecture":"HYOGO KEN","city":"TAMBA SHI","town":"SANNANCHO AODA","perfecture_jp":"兵庫県","jp_add_1":"丹波市","jp_add_2":"山南町青田"},"6693111":{"post_code":"6693111","prefecture":"HYOGO KEN","city":"TAMBA SHI","town":"SANNANCHO AKUSA","perfecture_jp":"兵庫県","jp_add_1":"丹波市","jp_add_2":"山南町阿草"},"6693125":{"post_code":"6693125","prefecture":"HYOGO KEN","city":"TAMBA SHI","town":"SANNANCHO IKEDANI","perfecture_jp":"兵庫県","jp_add_1":"丹波市","jp_add_2":"山南町池谷"},"6693143":{"post_code":"6693143","prefecture":"HYOGO KEN","city":"TAMBA SHI","town":"SANNANCHO IBARA","perfecture_jp":"兵庫県","jp_add_1":"丹波市","jp_add_2":"山南町井原"},"6693141":{"post_code":"6693141","prefecture":"HYOGO KEN","city":"TAMBA SHI","town":"SANNANCHO IWAYA","perfecture_jp":"兵庫県","jp_add_1":"丹波市","jp_add_2":"山南町岩屋"},"6693158":{"post_code":"6693158","prefecture":"HYOGO KEN","city":"TAMBA SHI","town":"SANNANCHO OCHI","perfecture_jp":"兵庫県","jp_add_1":"丹波市","jp_add_2":"山南町応地"},"6693123":{"post_code":"6693123","prefecture":"HYOGO KEN","city":"TAMBA SHI","town":"SANNANCHO OKA","perfecture_jp":"兵庫県","jp_add_1":"丹波市","jp_add_2":"山南町大河"},"6693113":{"post_code":"6693113","prefecture":"HYOGO KEN","city":"TAMBA SHI","town":"SANNANCHO ODA","perfecture_jp":"兵庫県","jp_add_1":"丹波市","jp_add_2":"山南町太田"},"6693124":{"post_code":"6693124","prefecture":"HYOGO KEN","city":"TAMBA SHI","town":"SANNANCHO OTANI","perfecture_jp":"兵庫県","jp_add_1":"丹波市","jp_add_2":"山南町大谷"},"6693127":{"post_code":"6693127","prefecture":"HYOGO KEN","city":"TAMBA SHI","town":"SANNANCHO OKAMOTO","perfecture_jp":"兵庫県","jp_add_1":"丹波市","jp_add_2":"山南町岡本"},"6693144":{"post_code":"6693144","prefecture":"HYOGO KEN","city":"TAMBA SHI","town":"SANNANCHO OKU","perfecture_jp":"兵庫県","jp_add_1":"丹波市","jp_add_2":"山南町奥"},"6693121":{"post_code":"6693121","prefecture":"HYOGO KEN","city":"TAMBA SHI","town":"SANNANCHO OKUNONO","perfecture_jp":"兵庫県","jp_add_1":"丹波市","jp_add_2":"山南町奥野々"},"6693166":{"post_code":"6693166","prefecture":"HYOGO KEN","city":"TAMBA SHI","town":"SANNANCHO ONOJIRI","perfecture_jp":"兵庫県","jp_add_1":"丹波市","jp_add_2":"山南町小野尻"},"6693167":{"post_code":"6693167","prefecture":"HYOGO KEN","city":"TAMBA SHI","town":"SANNANCHO OBATAKE","perfecture_jp":"兵庫県","jp_add_1":"丹波市","jp_add_2":"山南町小畑"},"6693154":{"post_code":"6693154","prefecture":"HYOGO KEN","city":"TAMBA SHI","town":"SANNANCHO KAJI","perfecture_jp":"兵庫県","jp_add_1":"丹波市","jp_add_2":"山南町梶"},"6693156":{"post_code":"6693156","prefecture":"HYOGO KEN","city":"TAMBA SHI","town":"SANNANCHO KANAKURA","perfecture_jp":"兵庫県","jp_add_1":"丹波市","jp_add_2":"山南町金倉"},"6693128":{"post_code":"6693128","prefecture":"HYOGO KEN","city":"TAMBA SHI","town":"SANNANCHO KANAYA","perfecture_jp":"兵庫県","jp_add_1":"丹波市","jp_add_2":"山南町金屋"},"6693101":{"post_code":"6693101","prefecture":"HYOGO KEN","city":"TAMBA SHI","town":"SANNANCHO KAMITAKI","perfecture_jp":"兵庫県","jp_add_1":"丹波市","jp_add_2":"山南町上滝"},"6693105":{"post_code":"6693105","prefecture":"HYOGO KEN","city":"TAMBA SHI","town":"SANNANCHO KITAODA","perfecture_jp":"兵庫県","jp_add_1":"丹波市","jp_add_2":"山南町北太田"},"6693152":{"post_code":"6693152","prefecture":"HYOGO KEN","city":"TAMBA SHI","town":"SANNANCHO KITAWADA","perfecture_jp":"兵庫県","jp_add_1":"丹波市","jp_add_2":"山南町北和田"},"6693148":{"post_code":"6693148","prefecture":"HYOGO KEN","city":"TAMBA SHI","town":"SANNANCHO KIRARADORI","perfecture_jp":"兵庫県","jp_add_1":"丹波市","jp_add_2":"山南町きらら通"},"6693151":{"post_code":"6693151","prefecture":"HYOGO KEN","city":"TAMBA SHI","town":"SANNANCHO KUSABE","perfecture_jp":"兵庫県","jp_add_1":"丹波市","jp_add_2":"山南町草部"},"6693161":{"post_code":"6693161","prefecture":"HYOGO KEN","city":"TAMBA SHI","town":"SANNANCHO GOGANO","perfecture_jp":"兵庫県","jp_add_1":"丹波市","jp_add_2":"山南町五ケ野"},"6693155":{"post_code":"6693155","prefecture":"HYOGO KEN","city":"TAMBA SHI","town":"SANNANCHO KONIYA","perfecture_jp":"兵庫県","jp_add_1":"丹波市","jp_add_2":"山南町小新屋"},"6693162":{"post_code":"6693162","prefecture":"HYOGO KEN","city":"TAMBA SHI","town":"SANNANCHO SAKAJIRI","perfecture_jp":"兵庫県","jp_add_1":"丹波市","jp_add_2":"山南町坂尻"},"6693103":{"post_code":"6693103","prefecture":"HYOGO KEN","city":"TAMBA SHI","town":"SANNANCHO SASABA","perfecture_jp":"兵庫県","jp_add_1":"丹波市","jp_add_2":"山南町篠場"},"6693147":{"post_code":"6693147","prefecture":"HYOGO KEN","city":"TAMBA SHI","town":"SANNANCHO SHIMODA","perfecture_jp":"兵庫県","jp_add_1":"丹波市","jp_add_2":"山南町子茂田"},"6693102":{"post_code":"6693102","prefecture":"HYOGO KEN","city":"TAMBA SHI","town":"SANNANCHO SHIMOTAKI","perfecture_jp":"兵庫県","jp_add_1":"丹波市","jp_add_2":"山南町下滝"},"6693131":{"post_code":"6693131","prefecture":"HYOGO KEN","city":"TAMBA SHI","town":"SANNANCHO TANIGAWA","perfecture_jp":"兵庫県","jp_add_1":"丹波市","jp_add_2":"山南町谷川"},"6693122":{"post_code":"6693122","prefecture":"HYOGO KEN","city":"TAMBA SHI","town":"SANNANCHO TAMAKI","perfecture_jp":"兵庫県","jp_add_1":"丹波市","jp_add_2":"山南町玉巻"},"6693165":{"post_code":"6693165","prefecture":"HYOGO KEN","city":"TAMBA SHI","town":"SANNANCHO TOMITA","perfecture_jp":"兵庫県","jp_add_1":"丹波市","jp_add_2":"山南町富田"},"6693126":{"post_code":"6693126","prefecture":"HYOGO KEN","city":"TAMBA SHI","town":"SANNANCHO NAGANO","perfecture_jp":"兵庫県","jp_add_1":"丹波市","jp_add_2":"山南町長野"},"6693168":{"post_code":"6693168","prefecture":"HYOGO KEN","city":"TAMBA SHI","town":"SANNANCHO NISHITANI","perfecture_jp":"兵庫県","jp_add_1":"丹波市","jp_add_2":"山南町西谷"},"6693145":{"post_code":"6693145","prefecture":"HYOGO KEN","city":"TAMBA SHI","town":"SANNANCHO NOSAKA","perfecture_jp":"兵庫県","jp_add_1":"丹波市","jp_add_2":"山南町野坂"},"6693104":{"post_code":"6693104","prefecture":"HYOGO KEN","city":"TAMBA SHI","town":"SANNANCHO HATAUCHI","perfecture_jp":"兵庫県","jp_add_1":"丹波市","jp_add_2":"山南町畑内"},"6693153":{"post_code":"6693153","prefecture":"HYOGO KEN","city":"TAMBA SHI","town":"SANNANCHO MAEGAWA","perfecture_jp":"兵庫県","jp_add_1":"丹波市","jp_add_2":"山南町前川"},"6693146":{"post_code":"6693146","prefecture":"HYOGO KEN","city":"TAMBA SHI","town":"SANNANCHO MINAMINAKA","perfecture_jp":"兵庫県","jp_add_1":"丹波市","jp_add_2":"山南町南中"},"6693159":{"post_code":"6693159","prefecture":"HYOGO KEN","city":"TAMBA SHI","town":"SANNANCHO MIWA","perfecture_jp":"兵庫県","jp_add_1":"丹波市","jp_add_2":"山南町美和"},"6693142":{"post_code":"6693142","prefecture":"HYOGO KEN","city":"TAMBA SHI","town":"SANNANCHO MURAMORI","perfecture_jp":"兵庫県","jp_add_1":"丹波市","jp_add_2":"山南町村森"},"6693132":{"post_code":"6693132","prefecture":"HYOGO KEN","city":"TAMBA SHI","town":"SANNANCHO YAMASAKI","perfecture_jp":"兵庫県","jp_add_1":"丹波市","jp_add_2":"山南町山崎"},"6693163":{"post_code":"6693163","prefecture":"HYOGO KEN","city":"TAMBA SHI","town":"SANNANCHO YAMAMOTO","perfecture_jp":"兵庫県","jp_add_1":"丹波市","jp_add_2":"山南町山本"},"6693164":{"post_code":"6693164","prefecture":"HYOGO KEN","city":"TAMBA SHI","town":"SANNANCHO WAKABAYASHI","perfecture_jp":"兵庫県","jp_add_1":"丹波市","jp_add_2":"山南町若林"},"6693157":{"post_code":"6693157","prefecture":"HYOGO KEN","city":"TAMBA SHI","town":"SANNANCHO WADA","perfecture_jp":"兵庫県","jp_add_1":"丹波市","jp_add_2":"山南町和田"},"6693606":{"post_code":"6693606","prefecture":"HYOGO KEN","city":"TAMBA SHI","town":"HIKAMICHO AGENARIMATSU","perfecture_jp":"兵庫県","jp_add_1":"丹波市","jp_add_2":"氷上町上成松"},"6693574":{"post_code":"6693574","prefecture":"HYOGO KEN","city":"TAMBA SHI","town":"HIKAMICHO ASAKA","perfecture_jp":"兵庫県","jp_add_1":"丹波市","jp_add_2":"氷上町朝阪"},"6693643":{"post_code":"6693643","prefecture":"HYOGO KEN","city":"TAMBA SHI","town":"HIKAMICHO ISAKUCHI","perfecture_jp":"兵庫県","jp_add_1":"丹波市","jp_add_2":"氷上町伊佐口"},"6693464":{"post_code":"6693464","prefecture":"HYOGO KEN","city":"TAMBA SHI","town":"HIKAMICHO ISO","perfecture_jp":"兵庫県","jp_add_1":"丹波市","jp_add_2":"氷上町石生"},"6693461":{"post_code":"6693461","prefecture":"HYOGO KEN","city":"TAMBA SHI","town":"HIKAMICHO ICHIBE","perfecture_jp":"兵庫県","jp_add_1":"丹波市","jp_add_2":"氷上町市辺"},"6693632":{"post_code":"6693632","prefecture":"HYOGO KEN","city":"TAMBA SHI","town":"HIKAMICHO INAKA","perfecture_jp":"兵庫県","jp_add_1":"丹波市","jp_add_2":"氷上町井中"},"6693466":{"post_code":"6693466","prefecture":"HYOGO KEN","city":"TAMBA SHI","town":"HIKAMICHO INATSUGI","perfecture_jp":"兵庫県","jp_add_1":"丹波市","jp_add_2":"氷上町稲継"},"6693581":{"post_code":"6693581","prefecture":"HYOGO KEN","city":"TAMBA SHI","town":"HIKAMICHO INAHATA","perfecture_jp":"兵庫県","jp_add_1":"丹波市","jp_add_2":"氷上町稲畑"},"6693604":{"post_code":"6693604","prefecture":"HYOGO KEN","city":"TAMBA SHI","town":"HIKAMICHO INUOKA","perfecture_jp":"兵庫県","jp_add_1":"丹波市","jp_add_2":"氷上町犬岡"},"6693462":{"post_code":"6693462","prefecture":"HYOGO KEN","city":"TAMBA SHI","town":"HIKAMICHO OSAKI","perfecture_jp":"兵庫県","jp_add_1":"丹波市","jp_add_2":"氷上町大崎"},"6693621":{"post_code":"6693621","prefecture":"HYOGO KEN","city":"TAMBA SHI","town":"HIKAMICHO OTANI","perfecture_jp":"兵庫県","jp_add_1":"丹波市","jp_add_2":"氷上町大谷"},"6693612":{"post_code":"6693612","prefecture":"HYOGO KEN","city":"TAMBA SHI","town":"HIKAMICHO OSANO","perfecture_jp":"兵庫県","jp_add_1":"丹波市","jp_add_2":"氷上町長野"},"6693575":{"post_code":"6693575","prefecture":"HYOGO KEN","city":"TAMBA SHI","town":"HIKAMICHO ONO","perfecture_jp":"兵庫県","jp_add_1":"丹波市","jp_add_2":"氷上町小野"},"6693611":{"post_code":"6693611","prefecture":"HYOGO KEN","city":"TAMBA SHI","town":"HIKAMICHO KAKISHIBA","perfecture_jp":"兵庫県","jp_add_1":"丹波市","jp_add_2":"氷上町柿柴"},"6693613":{"post_code":"6693613","prefecture":"HYOGO KEN","city":"TAMBA SHI","town":"HIKAMICHO KAMISHINJO","perfecture_jp":"兵庫県","jp_add_1":"丹波市","jp_add_2":"氷上町上新庄"},"6693631":{"post_code":"6693631","prefecture":"HYOGO KEN","city":"TAMBA SHI","town":"HIKAMICHO KAMO","perfecture_jp":"兵庫県","jp_add_1":"丹波市","jp_add_2":"氷上町賀茂"},"6693645":{"post_code":"6693645","prefecture":"HYOGO KEN","city":"TAMBA SHI","town":"HIKAMICHO KAMOCHI","perfecture_jp":"兵庫県","jp_add_1":"丹波市","jp_add_2":"氷上町鴨内"},"6693463":{"post_code":"6693463","prefecture":"HYOGO KEN","city":"TAMBA SHI","town":"HIKAMICHO KITANO","perfecture_jp":"兵庫県","jp_add_1":"丹波市","jp_add_2":"氷上町北野"},"6693653":{"post_code":"6693653","prefecture":"HYOGO KEN","city":"TAMBA SHI","town":"HIKAMICHO KITAYURA","perfecture_jp":"兵庫県","jp_add_1":"丹波市","jp_add_2":"氷上町北油良"},"6693641":{"post_code":"6693641","prefecture":"HYOGO KEN","city":"TAMBA SHI","town":"HIKAMICHO KINUYAMA","perfecture_jp":"兵庫県","jp_add_1":"丹波市","jp_add_2":"氷上町絹山"},"6693626":{"post_code":"6693626","prefecture":"HYOGO KEN","city":"TAMBA SHI","town":"HIKAMICHO KIYOZUMI","perfecture_jp":"兵庫県","jp_add_1":"丹波市","jp_add_2":"氷上町清住"},"6693605":{"post_code":"6693605","prefecture":"HYOGO KEN","city":"TAMBA SHI","town":"HIKAMICHO KURODA","perfecture_jp":"兵庫県","jp_add_1":"丹波市","jp_add_2":"氷上町黒田"},"6693642":{"post_code":"6693642","prefecture":"HYOGO KEN","city":"TAMBA SHI","town":"HIKAMICHO KORA","perfecture_jp":"兵庫県","jp_add_1":"丹波市","jp_add_2":"氷上町香良"},"6693646":{"post_code":"6693646","prefecture":"HYOGO KEN","city":"TAMBA SHI","town":"HIKAMICHO KOTANI","perfecture_jp":"兵庫県","jp_add_1":"丹波市","jp_add_2":"氷上町小谷"},"6693633":{"post_code":"6693633","prefecture":"HYOGO KEN","city":"TAMBA SHI","town":"HIKAMICHO GOYU","perfecture_jp":"兵庫県","jp_add_1":"丹波市","jp_add_2":"氷上町御油"},"6693652":{"post_code":"6693652","prefecture":"HYOGO KEN","city":"TAMBA SHI","town":"HIKAMICHO SAJIKI","perfecture_jp":"兵庫県","jp_add_1":"丹波市","jp_add_2":"氷上町桟敷"},"6693582":{"post_code":"6693582","prefecture":"HYOGO KEN","city":"TAMBA SHI","town":"HIKAMICHO SANO","perfecture_jp":"兵庫県","jp_add_1":"丹波市","jp_add_2":"氷上町佐野"},"6693614":{"post_code":"6693614","prefecture":"HYOGO KEN","city":"TAMBA SHI","town":"HIKAMICHO SHIMOSHINJO","perfecture_jp":"兵庫県","jp_add_1":"丹波市","jp_add_2":"氷上町下新庄"},"6693602":{"post_code":"6693602","prefecture":"HYOGO KEN","city":"TAMBA SHI","town":"HIKAMICHO JORAKU","perfecture_jp":"兵庫県","jp_add_1":"丹波市","jp_add_2":"氷上町常楽"},"6693571":{"post_code":"6693571","prefecture":"HYOGO KEN","city":"TAMBA SHI","town":"HIKAMICHO SHINGO","perfecture_jp":"兵庫県","jp_add_1":"丹波市","jp_add_2":"氷上町新郷"},"6693572":{"post_code":"6693572","prefecture":"HYOGO KEN","city":"TAMBA SHI","town":"HIKAMICHO TANIMURA","perfecture_jp":"兵庫県","jp_add_1":"丹波市","jp_add_2":"氷上町谷村"},"6693625":{"post_code":"6693625","prefecture":"HYOGO KEN","city":"TAMBA SHI","town":"HIKAMICHO NAKA","perfecture_jp":"兵庫県","jp_add_1":"丹波市","jp_add_2":"氷上町中"},"6693623":{"post_code":"6693623","prefecture":"HYOGO KEN","city":"TAMBA SHI","town":"HIKAMICHO NAKANO","perfecture_jp":"兵庫県","jp_add_1":"丹波市","jp_add_2":"氷上町中野"},"6693601":{"post_code":"6693601","prefecture":"HYOGO KEN","city":"TAMBA SHI","town":"HIKAMICHO NARIMATSU","perfecture_jp":"兵庫県","jp_add_1":"丹波市","jp_add_2":"氷上町成松"},"6693603":{"post_code":"6693603","prefecture":"HYOGO KEN","city":"TAMBA SHI","town":"HIKAMICHO NISHINAKA","perfecture_jp":"兵庫県","jp_add_1":"丹波市","jp_add_2":"氷上町西中"},"6693634":{"post_code":"6693634","prefecture":"HYOGO KEN","city":"TAMBA SHI","town":"HIKAMICHO NUMA","perfecture_jp":"兵庫県","jp_add_1":"丹波市","jp_add_2":"氷上町沼"},"6693651":{"post_code":"6693651","prefecture":"HYOGO KEN","city":"TAMBA SHI","town":"HIKAMICHO HIKAMI","perfecture_jp":"兵庫県","jp_add_1":"丹波市","jp_add_2":"氷上町氷上"},"6693644":{"post_code":"6693644","prefecture":"HYOGO KEN","city":"TAMBA SHI","town":"HIKAMICHO HIBIU","perfecture_jp":"兵庫県","jp_add_1":"丹波市","jp_add_2":"氷上町日比宇"},"6693583":{"post_code":"6693583","prefecture":"HYOGO KEN","city":"TAMBA SHI","town":"HIKAMICHO FUKUTA","perfecture_jp":"兵庫県","jp_add_1":"丹波市","jp_add_2":"氷上町福田"},"6693467":{"post_code":"6693467","prefecture":"HYOGO KEN","city":"TAMBA SHI","town":"HIKAMICHO HONGO","perfecture_jp":"兵庫県","jp_add_1":"丹波市","jp_add_2":"氷上町本郷"},"6693624":{"post_code":"6693624","prefecture":"HYOGO KEN","city":"TAMBA SHI","town":"HIKAMICHO MIKATA","perfecture_jp":"兵庫県","jp_add_1":"丹波市","jp_add_2":"氷上町三方"},"6693654":{"post_code":"6693654","prefecture":"HYOGO KEN","city":"TAMBA SHI","town":"HIKAMICHO MINAMIYURA","perfecture_jp":"兵庫県","jp_add_1":"丹波市","jp_add_2":"氷上町南油良"},"6693622":{"post_code":"6693622","prefecture":"HYOGO KEN","city":"TAMBA SHI","town":"HIKAMICHO MIHARA","perfecture_jp":"兵庫県","jp_add_1":"丹波市","jp_add_2":"氷上町三原"},"6693573":{"post_code":"6693573","prefecture":"HYOGO KEN","city":"TAMBA SHI","town":"HIKAMICHO YURI","perfecture_jp":"兵庫県","jp_add_1":"丹波市","jp_add_2":"氷上町油利"},"6693465":{"post_code":"6693465","prefecture":"HYOGO KEN","city":"TAMBA SHI","town":"HIKAMICHO YOKOTA","perfecture_jp":"兵庫県","jp_add_1":"丹波市","jp_add_2":"氷上町横田"},"6695200":{"post_code":"6695200","prefecture":"HYOGO KEN","city":"ASAGO SHI","town":"IKANIKEISAIGANAIBAAI","perfecture_jp":"兵庫県","jp_add_1":"朝来市","jp_add_2":""},"6695125":{"post_code":"6695125","prefecture":"HYOGO KEN","city":"ASAGO SHI","town":"SANTOCHO AWAGA","perfecture_jp":"兵庫県","jp_add_1":"朝来市","jp_add_2":"山東町粟鹿"},"6695123":{"post_code":"6695123","prefecture":"HYOGO KEN","city":"ASAGO SHI","town":"SANTOCHO IPPO","perfecture_jp":"兵庫県","jp_add_1":"朝来市","jp_add_2":"山東町一品"},"6695112":{"post_code":"6695112","prefecture":"HYOGO KEN","city":"ASAGO SHI","town":"SANTOCHO OUCHI","perfecture_jp":"兵庫県","jp_add_1":"朝来市","jp_add_2":"山東町大内"},"6695102":{"post_code":"6695102","prefecture":"HYOGO KEN","city":"ASAGO SHI","town":"SANTOCHO OKAI","perfecture_jp":"兵庫県","jp_add_1":"朝来市","jp_add_2":"山東町大垣"},"6695153":{"post_code":"6695153","prefecture":"HYOGO KEN","city":"ASAGO SHI","town":"SANTOCHO OTSUKI","perfecture_jp":"兵庫県","jp_add_1":"朝来市","jp_add_2":"山東町大月"},"6695142":{"post_code":"6695142","prefecture":"HYOGO KEN","city":"ASAGO SHI","town":"SANTOCHO OTTA","perfecture_jp":"兵庫県","jp_add_1":"朝来市","jp_add_2":"山東町越田"},"6695143":{"post_code":"6695143","prefecture":"HYOGO KEN","city":"ASAGO SHI","town":"SANTOCHO KAKITSUBO","perfecture_jp":"兵庫県","jp_add_1":"朝来市","jp_add_2":"山東町柿坪"},"6695152":{"post_code":"6695152","prefecture":"HYOGO KEN","city":"ASAGO SHI","town":"SANTOCHO GAKUONJI","perfecture_jp":"兵庫県","jp_add_1":"朝来市","jp_add_2":"山東町楽音寺"},"6695115":{"post_code":"6695115","prefecture":"HYOGO KEN","city":"ASAGO SHI","town":"SANTOCHO KANAURA","perfecture_jp":"兵庫県","jp_add_1":"朝来市","jp_add_2":"山東町金浦"},"6695133":{"post_code":"6695133","prefecture":"HYOGO KEN","city":"ASAGO SHI","town":"SANTOCHO KITAGAKI","perfecture_jp":"兵庫県","jp_add_1":"朝来市","jp_add_2":"山東町喜多垣"},"6695151":{"post_code":"6695151","prefecture":"HYOGO KEN","city":"ASAGO SHI","town":"SANTOCHO KOTANI","perfecture_jp":"兵庫県","jp_add_1":"朝来市","jp_add_2":"山東町小谷"},"6695113":{"post_code":"6695113","prefecture":"HYOGO KEN","city":"ASAGO SHI","town":"SANTOCHO SHIOTA","perfecture_jp":"兵庫県","jp_add_1":"朝来市","jp_add_2":"山東町塩田"},"6695124":{"post_code":"6695124","prefecture":"HYOGO KEN","city":"ASAGO SHI","town":"SANTOCHO SHIBA","perfecture_jp":"兵庫県","jp_add_1":"朝来市","jp_add_2":"山東町柴"},"6695111":{"post_code":"6695111","prefecture":"HYOGO KEN","city":"ASAGO SHI","town":"SANTOCHO SHINDO","perfecture_jp":"兵庫県","jp_add_1":"朝来市","jp_add_2":"山東町新堂"},"6695101":{"post_code":"6695101","prefecture":"HYOGO KEN","city":"ASAGO SHI","town":"SANTOCHO TAKITA","perfecture_jp":"兵庫県","jp_add_1":"朝来市","jp_add_2":"山東町滝田"},"6695114":{"post_code":"6695114","prefecture":"HYOGO KEN","city":"ASAGO SHI","town":"SANTOCHO NOMA","perfecture_jp":"兵庫県","jp_add_1":"朝来市","jp_add_2":"山東町野間"},"6695134":{"post_code":"6695134","prefecture":"HYOGO KEN","city":"ASAGO SHI","town":"SANTOCHO HASAMA","perfecture_jp":"兵庫県","jp_add_1":"朝来市","jp_add_2":"山東町迫間"},"6695131":{"post_code":"6695131","prefecture":"HYOGO KEN","city":"ASAGO SHI","town":"SANTOCHO HIIRAGI","perfecture_jp":"兵庫県","jp_add_1":"朝来市","jp_add_2":"山東町柊木"},"6695104":{"post_code":"6695104","prefecture":"HYOGO KEN","city":"ASAGO SHI","town":"SANTOCHO MASSAI","perfecture_jp":"兵庫県","jp_add_1":"朝来市","jp_add_2":"山東町末歳"},"6695132":{"post_code":"6695132","prefecture":"HYOGO KEN","city":"ASAGO SHI","town":"SANTOCHO MIZOKURO","perfecture_jp":"兵庫県","jp_add_1":"朝来市","jp_add_2":"山東町溝黒"},"6695141":{"post_code":"6695141","prefecture":"HYOGO KEN","city":"ASAGO SHI","town":"SANTOCHO MIHO","perfecture_jp":"兵庫県","jp_add_1":"朝来市","jp_add_2":"山東町三保"},"6695135":{"post_code":"6695135","prefecture":"HYOGO KEN","city":"ASAGO SHI","town":"SANTOCHO MORI","perfecture_jp":"兵庫県","jp_add_1":"朝来市","jp_add_2":"山東町森"},"6695103":{"post_code":"6695103","prefecture":"HYOGO KEN","city":"ASAGO SHI","town":"SANTOCHO YANASEMACHI","perfecture_jp":"兵庫県","jp_add_1":"朝来市","jp_add_2":"山東町矢名瀬町"},"6695136":{"post_code":"6695136","prefecture":"HYOGO KEN","city":"ASAGO SHI","town":"SANTOCHO YOFUDO","perfecture_jp":"兵庫県","jp_add_1":"朝来市","jp_add_2":"山東町与布土"},"6695121":{"post_code":"6695121","prefecture":"HYOGO KEN","city":"ASAGO SHI","town":"SANTOCHO WAGA","perfecture_jp":"兵庫県","jp_add_1":"朝来市","jp_add_2":"山東町和賀"},"6695122":{"post_code":"6695122","prefecture":"HYOGO KEN","city":"ASAGO SHI","town":"SANTOCHO WASADA","perfecture_jp":"兵庫県","jp_add_1":"朝来市","jp_add_2":"山東町早田"},"6695221":{"post_code":"6695221","prefecture":"HYOGO KEN","city":"ASAGO SHI","town":"WADAYAMACHO AKIBADAI","perfecture_jp":"兵庫県","jp_add_1":"朝来市","jp_add_2":"和田山町秋葉台"},"6695238":{"post_code":"6695238","prefecture":"HYOGO KEN","city":"ASAGO SHI","town":"WADAYAMACHO ASAHI","perfecture_jp":"兵庫県","jp_add_1":"朝来市","jp_add_2":"和田山町朝日"},"6695234":{"post_code":"6695234","prefecture":"HYOGO KEN","city":"ASAGO SHI","town":"WADAYAMACHO ICHIBA","perfecture_jp":"兵庫県","jp_add_1":"朝来市","jp_add_2":"和田山町市場"},"6695262":{"post_code":"6695262","prefecture":"HYOGO KEN","city":"ASAGO SHI","town":"WADAYAMACHO ICHIMIDO","perfecture_jp":"兵庫県","jp_add_1":"朝来市","jp_add_2":"和田山町市御堂"},"6695236":{"post_code":"6695236","prefecture":"HYOGO KEN","city":"ASAGO SHI","town":"WADAYAMACHO UTSUNOMI","perfecture_jp":"兵庫県","jp_add_1":"朝来市","jp_add_2":"和田山町内海"},"6695204":{"post_code":"6695204","prefecture":"HYOGO KEN","city":"ASAGO SHI","town":"WADAYAMACHO EKIKITA","perfecture_jp":"兵庫県","jp_add_1":"朝来市","jp_add_2":"和田山町駅北"},"6695246":{"post_code":"6695246","prefecture":"HYOGO KEN","city":"ASAGO SHI","town":"WADAYAMACHO OKA","perfecture_jp":"兵庫県","jp_add_1":"朝来市","jp_add_2":"和田山町岡"},"6695224":{"post_code":"6695224","prefecture":"HYOGO KEN","city":"ASAGO SHI","town":"WADAYAMACHO OKADA","perfecture_jp":"兵庫県","jp_add_1":"朝来市","jp_add_2":"和田山町岡田"},"6695264":{"post_code":"6695264","prefecture":"HYOGO KEN","city":"ASAGO SHI","town":"WADAYAMACHO KATSU","perfecture_jp":"兵庫県","jp_add_1":"朝来市","jp_add_2":"和田山町加都"},"6695253":{"post_code":"6695253","prefecture":"HYOGO KEN","city":"ASAGO SHI","town":"WADAYAMACHO KUSEDA","perfecture_jp":"兵庫県","jp_add_1":"朝来市","jp_add_2":"和田山町久世田"},"6695228":{"post_code":"6695228","prefecture":"HYOGO KEN","city":"ASAGO SHI","town":"WADAYAMACHO KUDAWA","perfecture_jp":"兵庫県","jp_add_1":"朝来市","jp_add_2":"和田山町久田和"},"6695263":{"post_code":"6695263","prefecture":"HYOGO KEN","city":"ASAGO SHI","town":"WADAYAMACHO KURUBUKI","perfecture_jp":"兵庫県","jp_add_1":"朝来市","jp_add_2":"和田山町久留引"},"6695214":{"post_code":"6695214","prefecture":"HYOGO KEN","city":"ASAGO SHI","town":"WADAYAMACHO KUWABARA","perfecture_jp":"兵庫県","jp_add_1":"朝来市","jp_add_2":"和田山町桑原"},"6695251":{"post_code":"6695251","prefecture":"HYOGO KEN","city":"ASAGO SHI","town":"WADAYAMACHO SAKAEMACHI","perfecture_jp":"兵庫県","jp_add_1":"朝来市","jp_add_2":"和田山町栄町"},"6695256":{"post_code":"6695256","prefecture":"HYOGO KEN","city":"ASAGO SHI","town":"WADAYAMACHO SANNAMI","perfecture_jp":"兵庫県","jp_add_1":"朝来市","jp_add_2":"和田山町三波"},"6695258":{"post_code":"6695258","prefecture":"HYOGO KEN","city":"ASAGO SHI","town":"WADAYAMACHO JONANDAI","perfecture_jp":"兵庫県","jp_add_1":"朝来市","jp_add_2":"和田山町城南台"},"6695220":{"post_code":"6695220","prefecture":"HYOGO KEN","city":"ASAGO SHI","town":"WADAYAMACHO SHIRAI","perfecture_jp":"兵庫県","jp_add_1":"朝来市","jp_add_2":"和田山町白井"},"6695243":{"post_code":"6695243","prefecture":"HYOGO KEN","city":"ASAGO SHI","town":"WADAYAMACHO TAKATA","perfecture_jp":"兵庫県","jp_add_1":"朝来市","jp_add_2":"和田山町高田"},"6695252":{"post_code":"6695252","prefecture":"HYOGO KEN","city":"ASAGO SHI","town":"WADAYAMACHO TAKEDA","perfecture_jp":"兵庫県","jp_add_1":"朝来市","jp_add_2":"和田山町竹田"},"6695237":{"post_code":"6695237","prefecture":"HYOGO KEN","city":"ASAGO SHI","town":"WADAYAMACHO TAKENOCHI","perfecture_jp":"兵庫県","jp_add_1":"朝来市","jp_add_2":"和田山町竹ノ内"},"6695233":{"post_code":"6695233","prefecture":"HYOGO KEN","city":"ASAGO SHI","town":"WADAYAMACHO TAKODA","perfecture_jp":"兵庫県","jp_add_1":"朝来市","jp_add_2":"和田山町高生田"},"6695268":{"post_code":"6695268","prefecture":"HYOGO KEN","city":"ASAGO SHI","town":"WADAYAMACHO TATSUNOHARA","perfecture_jp":"兵庫県","jp_add_1":"朝来市","jp_add_2":"和田山町立ノ原"},"6695213":{"post_code":"6695213","prefecture":"HYOGO KEN","city":"ASAGO SHI","town":"WADAYAMACHO TAMAKI","perfecture_jp":"兵庫県","jp_add_1":"朝来市","jp_add_2":"和田山町玉置"},"6695265":{"post_code":"6695265","prefecture":"HYOGO KEN","city":"ASAGO SHI","town":"WADAYAMACHO TSUTSUE","perfecture_jp":"兵庫県","jp_add_1":"朝来市","jp_add_2":"和田山町筒江"},"6695232":{"post_code":"6695232","prefecture":"HYOGO KEN","city":"ASAGO SHI","town":"WADAYAMACHO TERAUCHI","perfecture_jp":"兵庫県","jp_add_1":"朝来市","jp_add_2":"和田山町寺内"},"6695203":{"post_code":"6695203","prefecture":"HYOGO KEN","city":"ASAGO SHI","town":"WADAYAMACHO TERADANI","perfecture_jp":"兵庫県","jp_add_1":"朝来市","jp_add_2":"和田山町寺谷"},"6695255":{"post_code":"6695255","prefecture":"HYOGO KEN","city":"ASAGO SHI","town":"WADAYAMACHO TONO","perfecture_jp":"兵庫県","jp_add_1":"朝来市","jp_add_2":"和田山町殿"},"6695226":{"post_code":"6695226","prefecture":"HYOGO KEN","city":"ASAGO SHI","town":"WADAYAMACHO NAKA","perfecture_jp":"兵庫県","jp_add_1":"朝来市","jp_add_2":"和田山町中"},"6695225":{"post_code":"6695225","prefecture":"HYOGO KEN","city":"ASAGO SHI","town":"WADAYAMACHO NOMURA","perfecture_jp":"兵庫県","jp_add_1":"朝来市","jp_add_2":"和田山町野村"},"6695231":{"post_code":"6695231","prefecture":"HYOGO KEN","city":"ASAGO SHI","town":"WADAYAMACHO HAYASHIGAKI","perfecture_jp":"兵庫県","jp_add_1":"朝来市","jp_add_2":"和田山町林垣"},"6695241":{"post_code":"6695241","prefecture":"HYOGO KEN","city":"ASAGO SHI","town":"WADAYAMACHO HANDA","perfecture_jp":"兵庫県","jp_add_1":"朝来市","jp_add_2":"和田山町土田"},"6695202":{"post_code":"6695202","prefecture":"HYOGO KEN","city":"ASAGO SHI","town":"WADAYAMACHO HIGASHIDANI","perfecture_jp":"兵庫県","jp_add_1":"朝来市","jp_add_2":"和田山町東谷"},"6695227":{"post_code":"6695227","prefecture":"HYOGO KEN","city":"ASAGO SHI","town":"WADAYAMACHO HIGASHIWADA","perfecture_jp":"兵庫県","jp_add_1":"朝来市","jp_add_2":"和田山町東和田"},"6695266":{"post_code":"6695266","prefecture":"HYOGO KEN","city":"ASAGO SHI","town":"WADAYAMACHO HIJI","perfecture_jp":"兵庫県","jp_add_1":"朝来市","jp_add_2":"和田山町比治"},"6695261":{"post_code":"6695261","prefecture":"HYOGO KEN","city":"ASAGO SHI","town":"WADAYAMACHO HIRATA","perfecture_jp":"兵庫県","jp_add_1":"朝来市","jp_add_2":"和田山町枚田"},"6695215":{"post_code":"6695215","prefecture":"HYOGO KEN","city":"ASAGO SHI","town":"WADAYAMACHO HIRATAOKA","perfecture_jp":"兵庫県","jp_add_1":"朝来市","jp_add_2":"和田山町枚田岡"},"6695211":{"post_code":"6695211","prefecture":"HYOGO KEN","city":"ASAGO SHI","town":"WADAYAMACHO HIRANO","perfecture_jp":"兵庫県","jp_add_1":"朝来市","jp_add_2":"和田山町平野"},"6695257":{"post_code":"6695257","prefecture":"HYOGO KEN","city":"ASAGO SHI","town":"WADAYAMACHO FUJIWA","perfecture_jp":"兵庫県","jp_add_1":"朝来市","jp_add_2":"和田山町藤和"},"6695245":{"post_code":"6695245","prefecture":"HYOGO KEN","city":"ASAGO SHI","town":"WADAYAMACHO HODOJI","perfecture_jp":"兵庫県","jp_add_1":"朝来市","jp_add_2":"和田山町法道寺"},"6695267":{"post_code":"6695267","prefecture":"HYOGO KEN","city":"ASAGO SHI","town":"WADAYAMACHO HOTSUKOJI","perfecture_jp":"兵庫県","jp_add_1":"朝来市","jp_add_2":"和田山町法興寺"},"6695222":{"post_code":"6695222","prefecture":"HYOGO KEN","city":"ASAGO SHI","town":"WADAYAMACHO MANYODAI","perfecture_jp":"兵庫県","jp_add_1":"朝来市","jp_add_2":"和田山町万葉台"},"6695229":{"post_code":"6695229","prefecture":"HYOGO KEN","city":"ASAGO SHI","town":"WADAYAMACHO MIYA","perfecture_jp":"兵庫県","jp_add_1":"朝来市","jp_add_2":"和田山町宮"},"6695244":{"post_code":"6695244","prefecture":"HYOGO KEN","city":"ASAGO SHI","town":"WADAYAMACHO MIYAUCHI","perfecture_jp":"兵庫県","jp_add_1":"朝来市","jp_add_2":"和田山町宮内"},"6695242":{"post_code":"6695242","prefecture":"HYOGO KEN","city":"ASAGO SHI","town":"WADAYAMACHO MIYADA","perfecture_jp":"兵庫県","jp_add_1":"朝来市","jp_add_2":"和田山町宮田"},"6695223":{"post_code":"6695223","prefecture":"HYOGO KEN","city":"ASAGO SHI","town":"WADAYAMACHO MURO","perfecture_jp":"兵庫県","jp_add_1":"朝来市","jp_add_2":"和田山町室尾"},"6695254":{"post_code":"6695254","prefecture":"HYOGO KEN","city":"ASAGO SHI","town":"WADAYAMACHO YASUI","perfecture_jp":"兵庫県","jp_add_1":"朝来市","jp_add_2":"和田山町安井"},"6695212":{"post_code":"6695212","prefecture":"HYOGO KEN","city":"ASAGO SHI","town":"WADAYAMACHO YANAGIHARA","perfecture_jp":"兵庫県","jp_add_1":"朝来市","jp_add_2":"和田山町柳原"},"6695216":{"post_code":"6695216","prefecture":"HYOGO KEN","city":"ASAGO SHI","town":"WADAYAMACHO YAYOIGAOKA","perfecture_jp":"兵庫県","jp_add_1":"朝来市","jp_add_2":"和田山町弥生が丘"},"6695235":{"post_code":"6695235","prefecture":"HYOGO KEN","city":"ASAGO SHI","town":"WADAYAMACHO WADA","perfecture_jp":"兵庫県","jp_add_1":"朝来市","jp_add_2":"和田山町和田"},"6695201":{"post_code":"6695201","prefecture":"HYOGO KEN","city":"ASAGO SHI","town":"WADAYAMACHO WADAYAMA","perfecture_jp":"兵庫県","jp_add_1":"朝来市","jp_add_2":"和田山町和田山"},"6696500":{"post_code":"6696500","prefecture":"HYOGO KEN","city":"MIKATA GUN KAMI CHO","town":"IKANIKEISAIGANAIBAAI","perfecture_jp":"兵庫県","jp_add_1":"美方郡香美町","jp_add_2":""},"6696404":{"post_code":"6696404","prefecture":"HYOGO KEN","city":"MIKATA GUN KAMI CHO","town":"KASUMIKU AIDANI","perfecture_jp":"兵庫県","jp_add_1":"美方郡香美町","jp_add_2":"香住区相谷"},"6696432":{"post_code":"6696432","prefecture":"HYOGO KEN","city":"MIKATA GUN KAMI CHO","town":"KASUMIKU AGE","perfecture_jp":"兵庫県","jp_add_1":"美方郡香美町","jp_add_2":"香住区上計"},"6696671":{"post_code":"6696671","prefecture":"HYOGO KEN","city":"MIKATA GUN KAMI CHO","town":"KASUMIKU AMARUBE","perfecture_jp":"兵庫県","jp_add_1":"美方郡香美町","jp_add_2":"香住区余部"},"6696431":{"post_code":"6696431","prefecture":"HYOGO KEN","city":"MIKATA GUN KAMI CHO","town":"KASUMIKU URAGAMI","perfecture_jp":"兵庫県","jp_add_1":"美方郡香美町","jp_add_2":"香住区浦上"},"6696425":{"post_code":"6696425","prefecture":"HYOGO KEN","city":"MIKATA GUN KAMI CHO","town":"KASUMIKU OKAJI","perfecture_jp":"兵庫県","jp_add_1":"美方郡香美町","jp_add_2":"香住区大梶"},"6696554":{"post_code":"6696554","prefecture":"HYOGO KEN","city":"MIKATA GUN KAMI CHO","town":"KASUMIKU ODANI","perfecture_jp":"兵庫県","jp_add_1":"美方郡香美町","jp_add_2":"香住区大谷"},"6696555":{"post_code":"6696555","prefecture":"HYOGO KEN","city":"MIKATA GUN KAMI CHO","town":"KASUMIKU ONO","perfecture_jp":"兵庫県","jp_add_1":"美方郡香美町","jp_add_2":"香住区大野"},"6696433":{"post_code":"6696433","prefecture":"HYOGO KEN","city":"MIKATA GUN KAMI CHO","town":"KASUMIKU OKINORA","perfecture_jp":"兵庫県","jp_add_1":"美方郡香美町","jp_add_2":"香住区沖浦"},"6696552":{"post_code":"6696552","prefecture":"HYOGO KEN","city":"MIKATA GUN KAMI CHO","town":"KASUMIKU KAJIKANO","perfecture_jp":"兵庫県","jp_add_1":"美方郡香美町","jp_add_2":"香住区加鹿野"},"6696544":{"post_code":"6696544","prefecture":"HYOGO KEN","city":"MIKATA GUN KAMI CHO","town":"KASUMIKU KASUMI","perfecture_jp":"兵庫県","jp_add_1":"美方郡香美町","jp_add_2":"香住区香住"},"6696414":{"post_code":"6696414","prefecture":"HYOGO KEN","city":"MIKATA GUN KAMI CHO","town":"KASUMIKU KAMIOKA","perfecture_jp":"兵庫県","jp_add_1":"美方郡香美町","jp_add_2":"香住区上岡"},"6696411":{"post_code":"6696411","prefecture":"HYOGO KEN","city":"MIKATA GUN KAMI CHO","town":"KASUMIKU KUTO","perfecture_jp":"兵庫県","jp_add_1":"美方郡香美町","jp_add_2":"香住区九斗"},"6696402":{"post_code":"6696402","prefecture":"HYOGO KEN","city":"MIKATA GUN KAMI CHO","town":"KASUMIKU KUNDANI","perfecture_jp":"兵庫県","jp_add_1":"美方郡香美町","jp_add_2":"香住区訓谷"},"6696559":{"post_code":"6696559","prefecture":"HYOGO KEN","city":"MIKATA GUN KAMI CHO","town":"KASUMIKU KOBARA","perfecture_jp":"兵庫県","jp_add_1":"美方郡香美町","jp_add_2":"香住区小原"},"6696541":{"post_code":"6696541","prefecture":"HYOGO KEN","city":"MIKATA GUN KAMI CHO","town":"KASUMIKU SAKAI","perfecture_jp":"兵庫県","jp_add_1":"美方郡香美町","jp_add_2":"香住区境"},"6696413":{"post_code":"6696413","prefecture":"HYOGO KEN","city":"MIKATA GUN KAMI CHO","town":"KASUMIKU SHIMOKA","perfecture_jp":"兵庫県","jp_add_1":"美方郡香美町","jp_add_2":"香住区下岡"},"6696564":{"post_code":"6696564","prefecture":"HYOGO KEN","city":"MIKATA GUN KAMI CHO","town":"KASUMIKU SHIMONOHAMA","perfecture_jp":"兵庫県","jp_add_1":"美方郡香美町","jp_add_2":"香住区下浜"},"6696551":{"post_code":"6696551","prefecture":"HYOGO KEN","city":"MIKATA GUN KAMI CHO","town":"KASUMIKU SUKARA","perfecture_jp":"兵庫県","jp_add_1":"美方郡香美町","jp_add_2":"香住区守柄"},"6696556":{"post_code":"6696556","prefecture":"HYOGO KEN","city":"MIKATA GUN KAMI CHO","town":"KASUMIKU NAKANO","perfecture_jp":"兵庫県","jp_add_1":"美方郡香美町","jp_add_2":"香住区中野"},"6696546":{"post_code":"6696546","prefecture":"HYOGO KEN","city":"MIKATA GUN KAMI CHO","town":"KASUMIKU NANUKAICHI","perfecture_jp":"兵庫県","jp_add_1":"美方郡香美町","jp_add_2":"香住区七日市"},"6696416":{"post_code":"6696416","prefecture":"HYOGO KEN","city":"MIKATA GUN KAMI CHO","town":"KASUMIKU NIUJI","perfecture_jp":"兵庫県","jp_add_1":"美方郡香美町","jp_add_2":"香住区丹生地"},"6696415":{"post_code":"6696415","prefecture":"HYOGO KEN","city":"MIKATA GUN KAMI CHO","town":"KASUMIKU NISHISHIMOKA","perfecture_jp":"兵庫県","jp_add_1":"美方郡香美町","jp_add_2":"香住区西下岡"},"6696423":{"post_code":"6696423","prefecture":"HYOGO KEN","city":"MIKATA GUN KAMI CHO","town":"KASUMIKU HATA","perfecture_jp":"兵庫県","jp_add_1":"美方郡香美町","jp_add_2":"香住区畑"},"6696422":{"post_code":"6696422","prefecture":"HYOGO KEN","city":"MIKATA GUN KAMI CHO","town":"KASUMIKU HABU","perfecture_jp":"兵庫県","jp_add_1":"美方郡香美町","jp_add_2":"香住区土生"},"6696424":{"post_code":"6696424","prefecture":"HYOGO KEN","city":"MIKATA GUN KAMI CHO","town":"KASUMIKU HAYATO","perfecture_jp":"兵庫県","jp_add_1":"美方郡香美町","jp_add_2":"香住区隼人"},"6696542":{"post_code":"6696542","prefecture":"HYOGO KEN","city":"MIKATA GUN KAMI CHO","town":"KASUMIKU HITOICHI","perfecture_jp":"兵庫県","jp_add_1":"美方郡香美町","jp_add_2":"香住区一日市"},"6696557":{"post_code":"6696557","prefecture":"HYOGO KEN","city":"MIKATA GUN KAMI CHO","town":"KASUMIKU FUJI","perfecture_jp":"兵庫県","jp_add_1":"美方郡香美町","jp_add_2":"香住区藤"},"6696561":{"post_code":"6696561","prefecture":"HYOGO KEN","city":"MIKATA GUN KAMI CHO","town":"KASUMIKU MAMURO","perfecture_jp":"兵庫県","jp_add_1":"美方郡香美町","jp_add_2":"香住区間室"},"6696426":{"post_code":"6696426","prefecture":"HYOGO KEN","city":"MIKATA GUN KAMI CHO","town":"KASUMIKU MIKAWA","perfecture_jp":"兵庫県","jp_add_1":"美方郡香美町","jp_add_2":"香住区三川"},"6696553":{"post_code":"6696553","prefecture":"HYOGO KEN","city":"MIKATA GUN KAMI CHO","town":"KASUMIKU MITANI","perfecture_jp":"兵庫県","jp_add_1":"美方郡香美町","jp_add_2":"香住区三谷"},"6696401":{"post_code":"6696401","prefecture":"HYOGO KEN","city":"MIKATA GUN KAMI CHO","town":"KASUMIKU MUNAGAI","perfecture_jp":"兵庫県","jp_add_1":"美方郡香美町","jp_add_2":"香住区無南垣"},"6696412":{"post_code":"6696412","prefecture":"HYOGO KEN","city":"MIKATA GUN KAMI CHO","town":"KASUMIKU MEJI","perfecture_jp":"兵庫県","jp_add_1":"美方郡香美町","jp_add_2":"香住区米地"},"6696421":{"post_code":"6696421","prefecture":"HYOGO KEN","city":"MIKATA GUN KAMI CHO","town":"KASUMIKU MOTOMIZUKA","perfecture_jp":"兵庫県","jp_add_1":"美方郡香美町","jp_add_2":"香住区本見塚"},"6696545":{"post_code":"6696545","prefecture":"HYOGO KEN","city":"MIKATA GUN KAMI CHO","town":"KASUMIKU MORI","perfecture_jp":"兵庫県","jp_add_1":"美方郡香美町","jp_add_2":"香住区森"},"6696403":{"post_code":"6696403","prefecture":"HYOGO KEN","city":"MIKATA GUN KAMI CHO","town":"KASUMIKU YASUGI","perfecture_jp":"兵庫県","jp_add_1":"美方郡香美町","jp_add_2":"香住区安木"},"6696563":{"post_code":"6696563","prefecture":"HYOGO KEN","city":"MIKATA GUN KAMI CHO","town":"KASUMIKU YADA","perfecture_jp":"兵庫県","jp_add_1":"美方郡香美町","jp_add_2":"香住区矢田"},"6696558":{"post_code":"6696558","prefecture":"HYOGO KEN","city":"MIKATA GUN KAMI CHO","town":"KASUMIKU YAHARA","perfecture_jp":"兵庫県","jp_add_1":"美方郡香美町","jp_add_2":"香住区八原"},"6696562":{"post_code":"6696562","prefecture":"HYOGO KEN","city":"MIKATA GUN KAMI CHO","town":"KASUMIKU YURA","perfecture_jp":"兵庫県","jp_add_1":"美方郡香美町","jp_add_2":"香住区油良"},"6696672":{"post_code":"6696672","prefecture":"HYOGO KEN","city":"MIKATA GUN KAMI CHO","town":"KASUMIKU YOROI","perfecture_jp":"兵庫県","jp_add_1":"美方郡香美町","jp_add_2":"香住区鎧"},"6696543":{"post_code":"6696543","prefecture":"HYOGO KEN","city":"MIKATA GUN KAMI CHO","town":"KASUMIKU WAKAMATSU","perfecture_jp":"兵庫県","jp_add_1":"美方郡香美町","jp_add_2":"香住区若松"},"6696700":{"post_code":"6696700","prefecture":"HYOGO KEN","city":"MIKATA GUN SHINONSEN CHO","town":"IKANIKEISAIGANAIBAAI","perfecture_jp":"兵庫県","jp_add_1":"美方郡新温泉町","jp_add_2":""},"6696714":{"post_code":"6696714","prefecture":"HYOGO KEN","city":"MIKATA GUN SHINONSEN CHO","town":"AKASAKI","perfecture_jp":"兵庫県","jp_add_1":"美方郡新温泉町","jp_add_2":"赤崎"},"6696701":{"post_code":"6696701","prefecture":"HYOGO KEN","city":"MIKATA GUN SHINONSEN CHO","town":"ASHIYA","perfecture_jp":"兵庫県","jp_add_1":"美方郡新温泉町","jp_add_2":"芦屋"},"6696832":{"post_code":"6696832","prefecture":"HYOGO KEN","city":"MIKATA GUN SHINONSEN CHO","town":"IINO","perfecture_jp":"兵庫県","jp_add_1":"美方郡新温泉町","jp_add_2":"飯野"},"6696751":{"post_code":"6696751","prefecture":"HYOGO KEN","city":"MIKATA GUN SHINONSEN CHO","town":"IGUMI","perfecture_jp":"兵庫県","jp_add_1":"美方郡新温泉町","jp_add_2":"居組"},"6696953":{"post_code":"6696953","prefecture":"HYOGO KEN","city":"MIKATA GUN SHINONSEN CHO","town":"ISHIBASHI","perfecture_jp":"兵庫県","jp_add_1":"美方郡新温泉町","jp_add_2":"石橋"},"6696805":{"post_code":"6696805","prefecture":"HYOGO KEN","city":"MIKATA GUN SHINONSEN CHO","town":"ISUMI","perfecture_jp":"兵庫県","jp_add_1":"美方郡新温泉町","jp_add_2":"伊角"},"6696801":{"post_code":"6696801","prefecture":"HYOGO KEN","city":"MIKATA GUN SHINONSEN CHO","town":"IDO","perfecture_jp":"兵庫県","jp_add_1":"美方郡新温泉町","jp_add_2":"井土"},"6696803":{"post_code":"6696803","prefecture":"HYOGO KEN","city":"MIKATA GUN SHINONSEN CHO","town":"IMAOKA","perfecture_jp":"兵庫県","jp_add_1":"美方郡新温泉町","jp_add_2":"今岡"},"6696808":{"post_code":"6696808","prefecture":"HYOGO KEN","city":"MIKATA GUN SHINONSEN CHO","town":"UTAOSA","perfecture_jp":"兵庫県","jp_add_1":"美方郡新温泉町","jp_add_2":"歌長"},"6696945":{"post_code":"6696945","prefecture":"HYOGO KEN","city":"MIKATA GUN SHINONSEN CHO","town":"UCHIYAMA","perfecture_jp":"兵庫県","jp_add_1":"美方郡新温泉町","jp_add_2":"内山"},"6696952":{"post_code":"6696952","prefecture":"HYOGO KEN","city":"MIKATA GUN SHINONSEN CHO","town":"UMIGAMI","perfecture_jp":"兵庫県","jp_add_1":"美方郡新温泉町","jp_add_2":"海上"},"6696811":{"post_code":"6696811","prefecture":"HYOGO KEN","city":"MIKATA GUN SHINONSEN CHO","town":"OIGO","perfecture_jp":"兵庫県","jp_add_1":"美方郡新温泉町","jp_add_2":"多子"},"6696946":{"post_code":"6696946","prefecture":"HYOGO KEN","city":"MIKATA GUN SHINONSEN CHO","town":"OSSAKA","perfecture_jp":"兵庫県","jp_add_1":"美方郡新温泉町","jp_add_2":"越坂"},"6696802":{"post_code":"6696802","prefecture":"HYOGO KEN","city":"MIKATA GUN SHINONSEN CHO","town":"KANAYA","perfecture_jp":"兵庫県","jp_add_1":"美方郡新温泉町","jp_add_2":"金屋"},"6696942":{"post_code":"6696942","prefecture":"HYOGO KEN","city":"MIKATA GUN SHINONSEN CHO","town":"KANEO","perfecture_jp":"兵庫県","jp_add_1":"美方郡新温泉町","jp_add_2":"鐘尾"},"6696752":{"post_code":"6696752","prefecture":"HYOGO KEN","city":"MIKATA GUN SHINONSEN CHO","town":"KAMAYA","perfecture_jp":"兵庫県","jp_add_1":"美方郡新温泉町","jp_add_2":"釜屋"},"6696954":{"post_code":"6696954","prefecture":"HYOGO KEN","city":"MIKATA GUN SHINONSEN CHO","town":"KISHIDA","perfecture_jp":"兵庫県","jp_add_1":"美方郡新温泉町","jp_add_2":"岸田"},"6696711":{"post_code":"6696711","prefecture":"HYOGO KEN","city":"MIKATA GUN SHINONSEN CHO","town":"KIYOTOMI","perfecture_jp":"兵庫県","jp_add_1":"美方郡新温泉町","jp_add_2":"清富"},"6696815":{"post_code":"6696815","prefecture":"HYOGO KEN","city":"MIKATA GUN SHINONSEN CHO","town":"KIRIOKA","perfecture_jp":"兵庫県","jp_add_1":"美方郡新温泉町","jp_add_2":"桐岡"},"6696812":{"post_code":"6696812","prefecture":"HYOGO KEN","city":"MIKATA GUN SHINONSEN CHO","town":"KIRIHATA","perfecture_jp":"兵庫県","jp_add_1":"美方郡新温泉町","jp_add_2":"切畑"},"6696721":{"post_code":"6696721","prefecture":"HYOGO KEN","city":"MIKATA GUN SHINONSEN CHO","town":"KUTANI","perfecture_jp":"兵庫県","jp_add_1":"美方郡新温泉町","jp_add_2":"久谷"},"6696727":{"post_code":"6696727","prefecture":"HYOGO KEN","city":"MIKATA GUN SHINONSEN CHO","town":"KUTOYAMA","perfecture_jp":"兵庫県","jp_add_1":"美方郡新温泉町","jp_add_2":"久斗山"},"6696804":{"post_code":"6696804","prefecture":"HYOGO KEN","city":"MIKATA GUN SHINONSEN CHO","town":"KUMADANI","perfecture_jp":"兵庫県","jp_add_1":"美方郡新温泉町","jp_add_2":"熊谷"},"6696726":{"post_code":"6696726","prefecture":"HYOGO KEN","city":"MIKATA GUN SHINONSEN CHO","town":"SAKAI","perfecture_jp":"兵庫県","jp_add_1":"美方郡新温泉町","jp_add_2":"境"},"6696712":{"post_code":"6696712","prefecture":"HYOGO KEN","city":"MIKATA GUN SHINONSEN CHO","town":"SASHIKUI","perfecture_jp":"兵庫県","jp_add_1":"美方郡新温泉町","jp_add_2":"指杭"},"6696833":{"post_code":"6696833","prefecture":"HYOGO KEN","city":"MIKATA GUN SHINONSEN CHO","town":"SHIOYAMA","perfecture_jp":"兵庫県","jp_add_1":"美方郡新温泉町","jp_add_2":"塩山"},"6696741":{"post_code":"6696741","prefecture":"HYOGO KEN","city":"MIKATA GUN SHINONSEN CHO","town":"SHICHIKAMA","perfecture_jp":"兵庫県","jp_add_1":"美方郡新温泉町","jp_add_2":"七釜"},"6696723":{"post_code":"6696723","prefecture":"HYOGO KEN","city":"MIKATA GUN SHINONSEN CHO","town":"SHOBOAN","perfecture_jp":"兵庫県","jp_add_1":"美方郡新温泉町","jp_add_2":"正法庵"},"6696742":{"post_code":"6696742","prefecture":"HYOGO KEN","city":"MIKATA GUN SHINONSEN CHO","town":"SHINICHI","perfecture_jp":"兵庫県","jp_add_1":"美方郡新温泉町","jp_add_2":"新市"},"6696713":{"post_code":"6696713","prefecture":"HYOGO KEN","city":"MIKATA GUN SHINONSEN CHO","town":"TAI","perfecture_jp":"兵庫県","jp_add_1":"美方郡新温泉町","jp_add_2":"田井"},"6696728":{"post_code":"6696728","prefecture":"HYOGO KEN","city":"MIKATA GUN SHINONSEN CHO","town":"TAITA","perfecture_jp":"兵庫県","jp_add_1":"美方郡新温泉町","jp_add_2":"対田"},"6696722":{"post_code":"6696722","prefecture":"HYOGO KEN","city":"MIKATA GUN SHINONSEN CHO","town":"TAKASUE","perfecture_jp":"兵庫県","jp_add_1":"美方郡新温泉町","jp_add_2":"高末"},"6696761":{"post_code":"6696761","prefecture":"HYOGO KEN","city":"MIKATA GUN SHINONSEN CHO","town":"TAKEDA(USHIROYAMA.HOSOMIDANI)","perfecture_jp":"兵庫県","jp_add_1":"美方郡新温泉町","jp_add_2":"竹田"},"6696831":{"post_code":"6696831","prefecture":"HYOGO KEN","city":"MIKATA GUN SHINONSEN CHO","town":"TAKEDA(SONOTA)","perfecture_jp":"兵庫県","jp_add_1":"美方郡新温泉町","jp_add_2":"竹田"},"6696813":{"post_code":"6696813","prefecture":"HYOGO KEN","city":"MIKATA GUN SHINONSEN CHO","town":"TANDO","perfecture_jp":"兵庫県","jp_add_1":"美方郡新温泉町","jp_add_2":"丹土"},"6696943":{"post_code":"6696943","prefecture":"HYOGO KEN","city":"MIKATA GUN SHINONSEN CHO","town":"CHIDANI","perfecture_jp":"兵庫県","jp_add_1":"美方郡新温泉町","jp_add_2":"千谷"},"6696941":{"post_code":"6696941","prefecture":"HYOGO KEN","city":"MIKATA GUN SHINONSEN CHO","town":"CHIHARA","perfecture_jp":"兵庫県","jp_add_1":"美方郡新温泉町","jp_add_2":"千原"},"6696745":{"post_code":"6696745","prefecture":"HYOGO KEN","city":"MIKATA GUN SHINONSEN CHO","town":"TOCHIDANI","perfecture_jp":"兵庫県","jp_add_1":"美方郡新温泉町","jp_add_2":"栃谷"},"6696814":{"post_code":"6696814","prefecture":"HYOGO KEN","city":"MIKATA GUN SHINONSEN CHO","town":"NAKATSUJI","perfecture_jp":"兵庫県","jp_add_1":"美方郡新温泉町","jp_add_2":"中辻"},"6696702":{"post_code":"6696702","prefecture":"HYOGO KEN","city":"MIKATA GUN SHINONSEN CHO","town":"HAMASAKA","perfecture_jp":"兵庫県","jp_add_1":"美方郡新温泉町","jp_add_2":"浜坂"},"6696807":{"post_code":"6696807","prefecture":"HYOGO KEN","city":"MIKATA GUN SHINONSEN CHO","town":"HARUKI","perfecture_jp":"兵庫県","jp_add_1":"美方郡新温泉町","jp_add_2":"春来"},"6696806":{"post_code":"6696806","prefecture":"HYOGO KEN","city":"MIKATA GUN SHINONSEN CHO","town":"HINOKIO","perfecture_jp":"兵庫県","jp_add_1":"美方郡新温泉町","jp_add_2":"桧尾"},"6696732":{"post_code":"6696732","prefecture":"HYOGO KEN","city":"MIKATA GUN SHINONSEN CHO","town":"FUKUTOMI","perfecture_jp":"兵庫県","jp_add_1":"美方郡新温泉町","jp_add_2":"福富"},"6696725":{"post_code":"6696725","prefecture":"HYOGO KEN","city":"MIKATA GUN SHINONSEN CHO","town":"FUJIO","perfecture_jp":"兵庫県","jp_add_1":"美方郡新温泉町","jp_add_2":"藤尾"},"6696731":{"post_code":"6696731","prefecture":"HYOGO KEN","city":"MIKATA GUN SHINONSEN CHO","town":"FUTSUKAICHI","perfecture_jp":"兵庫県","jp_add_1":"美方郡新温泉町","jp_add_2":"二日市"},"6696743":{"post_code":"6696743","prefecture":"HYOGO KEN","city":"MIKATA GUN SHINONSEN CHO","town":"FURUICHI","perfecture_jp":"兵庫県","jp_add_1":"美方郡新温泉町","jp_add_2":"古市"},"6696746":{"post_code":"6696746","prefecture":"HYOGO KEN","city":"MIKATA GUN SHINONSEN CHO","town":"HEDA","perfecture_jp":"兵庫県","jp_add_1":"美方郡新温泉町","jp_add_2":"戸田"},"6696724":{"post_code":"6696724","prefecture":"HYOGO KEN","city":"MIKATA GUN SHINONSEN CHO","town":"HETCHI","perfecture_jp":"兵庫県","jp_add_1":"美方郡新温泉町","jp_add_2":"辺地"},"6696822":{"post_code":"6696822","prefecture":"HYOGO KEN","city":"MIKATA GUN SHINONSEN CHO","town":"HOSODA","perfecture_jp":"兵庫県","jp_add_1":"美方郡新温泉町","jp_add_2":"細田"},"6696951":{"post_code":"6696951","prefecture":"HYOGO KEN","city":"MIKATA GUN SHINONSEN CHO","town":"MAE","perfecture_jp":"兵庫県","jp_add_1":"美方郡新温泉町","jp_add_2":"前"},"6696715":{"post_code":"6696715","prefecture":"HYOGO KEN","city":"MIKATA GUN SHINONSEN CHO","town":"MIO","perfecture_jp":"兵庫県","jp_add_1":"美方郡新温泉町","jp_add_2":"三尾"},"6696747":{"post_code":"6696747","prefecture":"HYOGO KEN","city":"MIKATA GUN SHINONSEN CHO","town":"MITANI","perfecture_jp":"兵庫県","jp_add_1":"美方郡新温泉町","jp_add_2":"三谷"},"6696944":{"post_code":"6696944","prefecture":"HYOGO KEN","city":"MIKATA GUN SHINONSEN CHO","town":"MIYAWAKI","perfecture_jp":"兵庫県","jp_add_1":"美方郡新温泉町","jp_add_2":"宮脇"},"6696753":{"post_code":"6696753","prefecture":"HYOGO KEN","city":"MIKATA GUN SHINONSEN CHO","town":"MOROYOSE","perfecture_jp":"兵庫県","jp_add_1":"美方郡新温泉町","jp_add_2":"諸寄"},"6696821":{"post_code":"6696821","prefecture":"HYOGO KEN","city":"MIKATA GUN SHINONSEN CHO","town":"YU","perfecture_jp":"兵庫県","jp_add_1":"美方郡新温泉町","jp_add_2":"湯"},"6696744":{"post_code":"6696744","prefecture":"HYOGO KEN","city":"MIKATA GUN SHINONSEN CHO","town":"YODO","perfecture_jp":"兵庫県","jp_add_1":"美方郡新温泉町","jp_add_2":"用土"},"6696716":{"post_code":"6696716","prefecture":"HYOGO KEN","city":"MIKATA GUN SHINONSEN CHO","town":"WADA","perfecture_jp":"兵庫県","jp_add_1":"美方郡新温泉町","jp_add_2":"和田"}}