{"6700000":{"post_code":"6700000","prefecture":"HYOGO KEN","city":"HIMEJI SHI","town":"IKANIKEISAIGANAIBAAI","perfecture_jp":"兵庫県","jp_add_1":"姫路市","jp_add_2":""},"6700934":{"post_code":"6700934","prefecture":"HYOGO KEN","city":"HIMEJI SHI","town":"ASAHIMACHI","perfecture_jp":"兵庫県","jp_add_1":"姫路市","jp_add_2":"朝日町"},"6700944":{"post_code":"6700944","prefecture":"HYOGO KEN","city":"HIMEJI SHI","town":"ABO","perfecture_jp":"兵庫県","jp_add_1":"姫路市","jp_add_2":"阿保"},"6700029":{"post_code":"6700029","prefecture":"HYOGO KEN","city":"HIMEJI SHI","town":"ARASHIYAMACHO","perfecture_jp":"兵庫県","jp_add_1":"姫路市","jp_add_2":"嵐山町"},"6700974":{"post_code":"6700974","prefecture":"HYOGO KEN","city":"HIMEJI SHI","town":"IIDA","perfecture_jp":"兵庫県","jp_add_1":"姫路市","jp_add_2":"飯田"},"6700007":{"post_code":"6700007","prefecture":"HYOGO KEN","city":"HIMEJI SHI","town":"IKUNOMACHI","perfecture_jp":"兵庫県","jp_add_1":"姫路市","jp_add_2":"生野町"},"6700822":{"post_code":"6700822","prefecture":"HYOGO KEN","city":"HIMEJI SHI","town":"ICHIKAWADAI","perfecture_jp":"兵庫県","jp_add_1":"姫路市","jp_add_2":"市川台"},"6700825":{"post_code":"6700825","prefecture":"HYOGO KEN","city":"HIMEJI SHI","town":"ICHIKAWABASHIDORI","perfecture_jp":"兵庫県","jp_add_1":"姫路市","jp_add_2":"市川橋通"},"6700943":{"post_code":"6700943","prefecture":"HYOGO KEN","city":"HIMEJI SHI","town":"ICHINOGOCHO","perfecture_jp":"兵庫県","jp_add_1":"姫路市","jp_add_2":"市之郷町"},"6700871":{"post_code":"6700871","prefecture":"HYOGO KEN","city":"HIMEJI SHI","town":"IDEI","perfecture_jp":"兵庫県","jp_add_1":"姫路市","jp_add_2":"伊伝居"},"6700816":{"post_code":"6700816","prefecture":"HYOGO KEN","city":"HIMEJI SHI","town":"ITOKUJIMACHI","perfecture_jp":"兵庫県","jp_add_1":"姫路市","jp_add_2":"威徳寺町"},"6700983":{"post_code":"6700983","prefecture":"HYOGO KEN","city":"HIMEJI SHI","town":"INOGUCHI","perfecture_jp":"兵庫県","jp_add_1":"姫路市","jp_add_2":"井ノ口"},"6700052":{"post_code":"6700052","prefecture":"HYOGO KEN","city":"HIMEJI SHI","town":"IMAJUKU","perfecture_jp":"兵庫県","jp_add_1":"姫路市","jp_add_2":"今宿"},"6700028":{"post_code":"6700028","prefecture":"HYOGO KEN","city":"HIMEJI SHI","town":"IWABANACHO","perfecture_jp":"兵庫県","jp_add_1":"姫路市","jp_add_2":"岩端町"},"6700905":{"post_code":"6700905","prefecture":"HYOGO KEN","city":"HIMEJI SHI","town":"UOMACHI","perfecture_jp":"兵庫県","jp_add_1":"姫路市","jp_add_2":"魚町"},"6700817":{"post_code":"6700817","prefecture":"HYOGO KEN","city":"HIMEJI SHI","town":"UMEGAECHO","perfecture_jp":"兵庫県","jp_add_1":"姫路市","jp_add_2":"梅ケ枝町"},"6700894":{"post_code":"6700894","prefecture":"HYOGO KEN","city":"HIMEJI SHI","town":"UMEGATANICHO","perfecture_jp":"兵庫県","jp_add_1":"姫路市","jp_add_2":"梅ケ谷町"},"6700927":{"post_code":"6700927","prefecture":"HYOGO KEN","city":"HIMEJI SHI","town":"EKIMAECHO","perfecture_jp":"兵庫県","jp_add_1":"姫路市","jp_add_2":"駅前町"},"6700868":{"post_code":"6700868","prefecture":"HYOGO KEN","city":"HIMEJI SHI","town":"ONOMACHI","perfecture_jp":"兵庫県","jp_add_1":"姫路市","jp_add_2":"大野町"},"6700982":{"post_code":"6700982","prefecture":"HYOGO KEN","city":"HIMEJI SHI","town":"OKADA","perfecture_jp":"兵庫県","jp_add_1":"姫路市","jp_add_2":"岡田"},"6700026":{"post_code":"6700026","prefecture":"HYOGO KEN","city":"HIMEJI SHI","town":"OKAMACHI","perfecture_jp":"兵庫県","jp_add_1":"姫路市","jp_add_2":"岡町"},"6700037":{"post_code":"6700037","prefecture":"HYOGO KEN","city":"HIMEJI SHI","town":"KAKIYAMABUSHI","perfecture_jp":"兵庫県","jp_add_1":"姫路市","jp_add_2":"柿山伏"},"6700009":{"post_code":"6700009","prefecture":"HYOGO KEN","city":"HIMEJI SHI","town":"KAGIMACHI","perfecture_jp":"兵庫県","jp_add_1":"姫路市","jp_add_2":"鍵町"},"6700002":{"post_code":"6700002","prefecture":"HYOGO KEN","city":"HIMEJI SHI","town":"KAJIMACHI","perfecture_jp":"兵庫県","jp_add_1":"姫路市","jp_add_2":"鍛冶町"},"6700045":{"post_code":"6700045","prefecture":"HYOGO KEN","city":"HIMEJI SHI","town":"KATADAMACHI","perfecture_jp":"兵庫県","jp_add_1":"姫路市","jp_add_2":"片田町"},"6700005":{"post_code":"6700005","prefecture":"HYOGO KEN","city":"HIMEJI SHI","town":"KANAYAMACHI","perfecture_jp":"兵庫県","jp_add_1":"姫路市","jp_add_2":"金屋町"},"6700896":{"post_code":"6700896","prefecture":"HYOGO KEN","city":"HIMEJI SHI","town":"KAMIONO","perfecture_jp":"兵庫県","jp_add_1":"姫路市","jp_add_2":"上大野"},"6700041":{"post_code":"6700041","prefecture":"HYOGO KEN","city":"HIMEJI SHI","town":"KAMIKATAMACHI","perfecture_jp":"兵庫県","jp_add_1":"姫路市","jp_add_2":"上片町"},"6700065":{"post_code":"6700065","prefecture":"HYOGO KEN","city":"HIMEJI SHI","town":"KAMITENO","perfecture_jp":"兵庫県","jp_add_1":"姫路市","jp_add_2":"上手野"},"6700836":{"post_code":"6700836","prefecture":"HYOGO KEN","city":"HIMEJI SHI","town":"KAMIYACHO","perfecture_jp":"兵庫県","jp_add_1":"姫路市","jp_add_2":"神屋町"},"6700925":{"post_code":"6700925","prefecture":"HYOGO KEN","city":"HIMEJI SHI","town":"KAMEIMACHI","perfecture_jp":"兵庫県","jp_add_1":"姫路市","jp_add_2":"亀井町"},"6700973":{"post_code":"6700973","prefecture":"HYOGO KEN","city":"HIMEJI SHI","town":"KAMEYAMA","perfecture_jp":"兵庫県","jp_add_1":"姫路市","jp_add_2":"亀山"},"6700991":{"post_code":"6700991","prefecture":"HYOGO KEN","city":"HIMEJI SHI","town":"KANDACHO","perfecture_jp":"兵庫県","jp_add_1":"姫路市","jp_add_2":"神田町"},"6700057":{"post_code":"6700057","prefecture":"HYOGO KEN","city":"HIMEJI SHI","town":"KITAIMAJUKU","perfecture_jp":"兵庫県","jp_add_1":"姫路市","jp_add_2":"北今宿"},"6700091":{"post_code":"6700091","prefecture":"HYOGO KEN","city":"HIMEJI SHI","town":"KITASHINZAIKE","perfecture_jp":"兵庫県","jp_add_1":"姫路市","jp_add_2":"北新在家"},"6700893":{"post_code":"6700893","prefecture":"HYOGO KEN","city":"HIMEJI SHI","town":"KITAHIRANO","perfecture_jp":"兵庫県","jp_add_1":"姫路市","jp_add_2":"北平野"},"6700892":{"post_code":"6700892","prefecture":"HYOGO KEN","city":"HIMEJI SHI","town":"KITAHIRANO OKUGAICHI","perfecture_jp":"兵庫県","jp_add_1":"姫路市","jp_add_2":"北平野奥垣内"},"6700895":{"post_code":"6700895","prefecture":"HYOGO KEN","city":"HIMEJI SHI","town":"KITAHIRANO DAICHO","perfecture_jp":"兵庫県","jp_add_1":"姫路市","jp_add_2":"北平野台町"},"6700887":{"post_code":"6700887","prefecture":"HYOGO KEN","city":"HIMEJI SHI","town":"KITAHIRANO MINAMINOCHO","perfecture_jp":"兵庫県","jp_add_1":"姫路市","jp_add_2":"北平野南の町"},"6700877":{"post_code":"6700877","prefecture":"HYOGO KEN","city":"HIMEJI SHI","town":"KITAYASHIRO","perfecture_jp":"兵庫県","jp_add_1":"姫路市","jp_add_2":"北八代"},"6700075":{"post_code":"6700075","prefecture":"HYOGO KEN","city":"HIMEJI SHI","town":"KITAYUMESAKIDAI(SONOTA)","perfecture_jp":"兵庫県","jp_add_1":"姫路市","jp_add_2":"北夢前台"},"6700851":{"post_code":"6700851","prefecture":"HYOGO KEN","city":"HIMEJI SHI","town":"KYOGUCHIMACHI","perfecture_jp":"兵庫県","jp_add_1":"姫路市","jp_add_2":"京口町"},"6700824":{"post_code":"6700824","prefecture":"HYOGO KEN","city":"HIMEJI SHI","town":"KYOMACHI","perfecture_jp":"兵庫県","jp_add_1":"姫路市","jp_add_2":"京町"},"6700826":{"post_code":"6700826","prefecture":"HYOGO KEN","city":"HIMEJI SHI","town":"KUSUNOKICHO","perfecture_jp":"兵庫県","jp_add_1":"姫路市","jp_add_2":"楠町"},"6700916":{"post_code":"6700916","prefecture":"HYOGO KEN","city":"HIMEJI SHI","town":"KUBOCHO","perfecture_jp":"兵庫県","jp_add_1":"姫路市","jp_add_2":"久保町"},"6700954":{"post_code":"6700954","prefecture":"HYOGO KEN","city":"HIMEJI SHI","town":"KURIYAMACHO","perfecture_jp":"兵庫県","jp_add_1":"姫路市","jp_add_2":"栗山町"},"6700058":{"post_code":"6700058","prefecture":"HYOGO KEN","city":"HIMEJI SHI","town":"KURUMAZAKI","perfecture_jp":"兵庫県","jp_add_1":"姫路市","jp_add_2":"車崎"},"6700027":{"post_code":"6700027","prefecture":"HYOGO KEN","city":"HIMEJI SHI","town":"KEIFUKUJIMAE","perfecture_jp":"兵庫県","jp_add_1":"姫路市","jp_add_2":"景福寺前"},"6700852":{"post_code":"6700852","prefecture":"HYOGO KEN","city":"HIMEJI SHI","town":"KODERAMACHI","perfecture_jp":"兵庫県","jp_add_1":"姫路市","jp_add_2":"国府寺町"},"6700854":{"post_code":"6700854","prefecture":"HYOGO KEN","city":"HIMEJI SHI","town":"GOKENYASHIKI","perfecture_jp":"兵庫県","jp_add_1":"姫路市","jp_add_2":"五軒邸"},"6700043":{"post_code":"6700043","prefecture":"HYOGO KEN","city":"HIMEJI SHI","town":"KOSHOMACHI","perfecture_jp":"兵庫県","jp_add_1":"姫路市","jp_add_2":"小姓町"},"6700035":{"post_code":"6700035","prefecture":"HYOGO KEN","city":"HIMEJI SHI","town":"KOTOKACHO","perfecture_jp":"兵庫県","jp_add_1":"姫路市","jp_add_2":"琴岡町"},"6700936":{"post_code":"6700936","prefecture":"HYOGO KEN","city":"HIMEJI SHI","town":"KONIKAIMACHI","perfecture_jp":"兵庫県","jp_add_1":"姫路市","jp_add_2":"古二階町"},"6700001":{"post_code":"6700001","prefecture":"HYOGO KEN","city":"HIMEJI SHI","town":"KOBASAMACHO","perfecture_jp":"兵庫県","jp_add_1":"姫路市","jp_add_2":"河間町"},"6700003":{"post_code":"6700003","prefecture":"HYOGO KEN","city":"HIMEJI SHI","town":"KOMEYAMACHI","perfecture_jp":"兵庫県","jp_add_1":"姫路市","jp_add_2":"米屋町"},"6700022":{"post_code":"6700022","prefecture":"HYOGO KEN","city":"HIMEJI SHI","town":"KORIKIMACHI","perfecture_jp":"兵庫県","jp_add_1":"姫路市","jp_add_2":"小利木町"},"6700924":{"post_code":"6700924","prefecture":"HYOGO KEN","city":"HIMEJI SHI","town":"KONYAMACHI","perfecture_jp":"兵庫県","jp_add_1":"姫路市","jp_add_2":"紺屋町"},"6700923":{"post_code":"6700923","prefecture":"HYOGO KEN","city":"HIMEJI SHI","town":"GOFUKUMACHI","perfecture_jp":"兵庫県","jp_add_1":"姫路市","jp_add_2":"呉服町"},"6700857":{"post_code":"6700857","prefecture":"HYOGO KEN","city":"HIMEJI SHI","town":"GOROEMONTEI","perfecture_jp":"兵庫県","jp_add_1":"姫路市","jp_add_2":"五郎右衛門邸"},"6700981":{"post_code":"6700981","prefecture":"HYOGO KEN","city":"HIMEJI SHI","town":"SAISHO","perfecture_jp":"兵庫県","jp_add_1":"姫路市","jp_add_2":"西庄"},"6700025":{"post_code":"6700025","prefecture":"HYOGO KEN","city":"HIMEJI SHI","town":"ZAIMOKUMACHI","perfecture_jp":"兵庫県","jp_add_1":"姫路市","jp_add_2":"材木町"},"6700835":{"post_code":"6700835","prefecture":"HYOGO KEN","city":"HIMEJI SHI","town":"SAIWAICHO","perfecture_jp":"兵庫県","jp_add_1":"姫路市","jp_add_2":"幸町"},"6700014":{"post_code":"6700014","prefecture":"HYOGO KEN","city":"HIMEJI SHI","town":"SAKAIMACHI","perfecture_jp":"兵庫県","jp_add_1":"姫路市","jp_add_2":"堺町"},"6700931":{"post_code":"6700931","prefecture":"HYOGO KEN","city":"HIMEJI SHI","town":"SAKATAMACHI","perfecture_jp":"兵庫県","jp_add_1":"姫路市","jp_add_2":"坂田町"},"6700016":{"post_code":"6700016","prefecture":"HYOGO KEN","city":"HIMEJI SHI","town":"SAKAMOTOMACHI","perfecture_jp":"兵庫県","jp_add_1":"姫路市","jp_add_2":"坂元町"},"6700994":{"post_code":"6700994","prefecture":"HYOGO KEN","city":"HIMEJI SHI","town":"SADAMOTOMACHI","perfecture_jp":"兵庫県","jp_add_1":"姫路市","jp_add_2":"定元町"},"6700940":{"post_code":"6700940","prefecture":"HYOGO KEN","city":"HIMEJI SHI","town":"SANZAEMOMBORI NISHINOMACHI","perfecture_jp":"兵庫県","jp_add_1":"姫路市","jp_add_2":"三左衛門堀西の町"},"6700949":{"post_code":"6700949","prefecture":"HYOGO KEN","city":"HIMEJI SHI","town":"SANZAEMOMBORI HIGASHINOMACHI","perfecture_jp":"兵庫県","jp_add_1":"姫路市","jp_add_2":"三左衛門堀東の町"},"6700953":{"post_code":"6700953","prefecture":"HYOGO KEN","city":"HIMEJI SHI","town":"SANJOCHO(1-CHOME)","perfecture_jp":"兵庫県","jp_add_1":"姫路市","jp_add_2":"三条町"},"6700904":{"post_code":"6700904","prefecture":"HYOGO KEN","city":"HIMEJI SHI","town":"SHIOMACHI","perfecture_jp":"兵庫県","jp_add_1":"姫路市","jp_add_2":"塩町"},"6700044":{"post_code":"6700044","prefecture":"HYOGO KEN","city":"HIMEJI SHI","town":"JINAIMACHI","perfecture_jp":"兵庫県","jp_add_1":"姫路市","jp_add_2":"地内町"},"6700046":{"post_code":"6700046","prefecture":"HYOGO KEN","city":"HIMEJI SHI","town":"SHINONOMECHO","perfecture_jp":"兵庫県","jp_add_1":"姫路市","jp_add_2":"東雲町"},"6700917":{"post_code":"6700917","prefecture":"HYOGO KEN","city":"HIMEJI SHI","town":"SHINOBUMACHI","perfecture_jp":"兵庫県","jp_add_1":"姫路市","jp_add_2":"忍町"},"6700063":{"post_code":"6700063","prefecture":"HYOGO KEN","city":"HIMEJI SHI","town":"SHIMOTENO","perfecture_jp":"兵庫県","jp_add_1":"姫路市","jp_add_2":"下手野"},"6700932":{"post_code":"6700932","prefecture":"HYOGO KEN","city":"HIMEJI SHI","town":"SHIMODERAMACHI","perfecture_jp":"兵庫県","jp_add_1":"姫路市","jp_add_2":"下寺町"},"6700911":{"post_code":"6700911","prefecture":"HYOGO KEN","city":"HIMEJI SHI","town":"JUNISHOMAECHO","perfecture_jp":"兵庫県","jp_add_1":"姫路市","jp_add_2":"十二所前町"},"6700951":{"post_code":"6700951","prefecture":"HYOGO KEN","city":"HIMEJI SHI","town":"SHODA","perfecture_jp":"兵庫県","jp_add_1":"姫路市","jp_add_2":"庄田"},"6700841":{"post_code":"6700841","prefecture":"HYOGO KEN","city":"HIMEJI SHI","town":"JOTOMACHI","perfecture_jp":"兵庫県","jp_add_1":"姫路市","jp_add_2":"城東町"},"6700845":{"post_code":"6700845","prefecture":"HYOGO KEN","city":"HIMEJI SHI","town":"JOTOMACHI KYOGUCHIDAI","perfecture_jp":"兵庫県","jp_add_1":"姫路市","jp_add_2":"城東町京口台"},"6700849":{"post_code":"6700849","prefecture":"HYOGO KEN","city":"HIMEJI SHI","town":"JOTOMACHI GOKENYA","perfecture_jp":"兵庫県","jp_add_1":"姫路市","jp_add_2":"城東町五軒屋"},"6700843":{"post_code":"6700843","prefecture":"HYOGO KEN","city":"HIMEJI SHI","town":"JOTOMACHI SHIMIZU","perfecture_jp":"兵庫県","jp_add_1":"姫路市","jp_add_2":"城東町清水"},"6700848":{"post_code":"6700848","prefecture":"HYOGO KEN","city":"HIMEJI SHI","town":"JOTOMACHI TAKENOMON","perfecture_jp":"兵庫県","jp_add_1":"姫路市","jp_add_2":"城東町竹之門"},"6700847":{"post_code":"6700847","prefecture":"HYOGO KEN","city":"HIMEJI SHI","town":"JOTOMACHI NAKAGAWARA","perfecture_jp":"兵庫県","jp_add_1":"姫路市","jp_add_2":"城東町中河原"},"6700844":{"post_code":"6700844","prefecture":"HYOGO KEN","city":"HIMEJI SHI","town":"JOTOMACHI NODA","perfecture_jp":"兵庫県","jp_add_1":"姫路市","jp_add_2":"城東町野田"},"6700842":{"post_code":"6700842","prefecture":"HYOGO KEN","city":"HIMEJI SHI","town":"JOTOMACHI BISHAMON","perfecture_jp":"兵庫県","jp_add_1":"姫路市","jp_add_2":"城東町毘沙門"},"6700883":{"post_code":"6700883","prefecture":"HYOGO KEN","city":"HIMEJI SHI","town":"JOHOKU SHIMMACHI","perfecture_jp":"兵庫県","jp_add_1":"姫路市","jp_add_2":"城北新町"},"6700884":{"post_code":"6700884","prefecture":"HYOGO KEN","city":"HIMEJI SHI","town":"JOHOKU HONCHO","perfecture_jp":"兵庫県","jp_add_1":"姫路市","jp_add_2":"城北本町"},"6700808":{"post_code":"6700808","prefecture":"HYOGO KEN","city":"HIMEJI SHI","town":"SHIRAKUNI","perfecture_jp":"兵庫県","jp_add_1":"姫路市","jp_add_2":"白国"},"6700902":{"post_code":"6700902","prefecture":"HYOGO KEN","city":"HIMEJI SHI","town":"SHIROGANEMACHI","perfecture_jp":"兵庫県","jp_add_1":"姫路市","jp_add_2":"白銀町"},"6700803":{"post_code":"6700803","prefecture":"HYOGO KEN","city":"HIMEJI SHI","town":"SHIROMIDAI","perfecture_jp":"兵庫県","jp_add_1":"姫路市","jp_add_2":"城見台"},"6700831":{"post_code":"6700831","prefecture":"HYOGO KEN","city":"HIMEJI SHI","town":"SHIROMICHO","perfecture_jp":"兵庫県","jp_add_1":"姫路市","jp_add_2":"城見町"},"6700095":{"post_code":"6700095","prefecture":"HYOGO KEN","city":"HIMEJI SHI","town":"SHINZAIKE","perfecture_jp":"兵庫県","jp_add_1":"姫路市","jp_add_2":"新在家"},"6700094":{"post_code":"6700094","prefecture":"HYOGO KEN","city":"HIMEJI SHI","town":"SHINZAIKE NAKANOCHO","perfecture_jp":"兵庫県","jp_add_1":"姫路市","jp_add_2":"新在家中の町"},"6700092":{"post_code":"6700092","prefecture":"HYOGO KEN","city":"HIMEJI SHI","town":"SHINZAIKE HONCHO","perfecture_jp":"兵庫県","jp_add_1":"姫路市","jp_add_2":"新在家本町"},"6700834":{"post_code":"6700834","prefecture":"HYOGO KEN","city":"HIMEJI SHI","town":"SHINWACHO","perfecture_jp":"兵庫県","jp_add_1":"姫路市","jp_add_2":"神和町"},"6700015":{"post_code":"6700015","prefecture":"HYOGO KEN","city":"HIMEJI SHI","town":"SOSHAHOMMACHI","perfecture_jp":"兵庫県","jp_add_1":"姫路市","jp_add_2":"総社本町"},"6700853":{"post_code":"6700853","prefecture":"HYOGO KEN","city":"HIMEJI SHI","town":"DAIKOKU ITCHOMACHI","perfecture_jp":"兵庫県","jp_add_1":"姫路市","jp_add_2":"大黒壱丁町"},"6700898":{"post_code":"6700898","prefecture":"HYOGO KEN","city":"HIMEJI SHI","town":"DAIJUDAI","perfecture_jp":"兵庫県","jp_add_1":"姫路市","jp_add_2":"大寿台"},"6700833":{"post_code":"6700833","prefecture":"HYOGO KEN","city":"HIMEJI SHI","town":"DAIZENCHO","perfecture_jp":"兵庫県","jp_add_1":"姫路市","jp_add_2":"大善町"},"6700062":{"post_code":"6700062","prefecture":"HYOGO KEN","city":"HIMEJI SHI","town":"TAKAOKASHIMMACHI","perfecture_jp":"兵庫県","jp_add_1":"姫路市","jp_add_2":"高岡新町"},"6700915":{"post_code":"6700915","prefecture":"HYOGO KEN","city":"HIMEJI SHI","town":"TAKAOCHO","perfecture_jp":"兵庫県","jp_add_1":"姫路市","jp_add_2":"高尾町"},"6700024":{"post_code":"6700024","prefecture":"HYOGO KEN","city":"HIMEJI SHI","town":"TAKAJOCHO","perfecture_jp":"兵庫県","jp_add_1":"姫路市","jp_add_2":"鷹匠町"},"6700013":{"post_code":"6700013","prefecture":"HYOGO KEN","city":"HIMEJI SHI","town":"TAKEDAMACHI","perfecture_jp":"兵庫県","jp_add_1":"姫路市","jp_add_2":"竹田町"},"6700032":{"post_code":"6700032","prefecture":"HYOGO KEN","city":"HIMEJI SHI","town":"TATSUNOMACHI","perfecture_jp":"兵庫県","jp_add_1":"姫路市","jp_add_2":"龍野町"},"6700903":{"post_code":"6700903","prefecture":"HYOGO KEN","city":"HIMEJI SHI","town":"TATEMACHI","perfecture_jp":"兵庫県","jp_add_1":"姫路市","jp_add_2":"立町"},"6700086":{"post_code":"6700086","prefecture":"HYOGO KEN","city":"HIMEJI SHI","town":"TADERA","perfecture_jp":"兵庫県","jp_add_1":"姫路市","jp_add_2":"田寺"},"6700082":{"post_code":"6700082","prefecture":"HYOGO KEN","city":"HIMEJI SHI","town":"TADERA YAMATECHO","perfecture_jp":"兵庫県","jp_add_1":"姫路市","jp_add_2":"田寺山手町"},"6700081":{"post_code":"6700081","prefecture":"HYOGO KEN","city":"HIMEJI SHI","town":"TADERAHIGASHI","perfecture_jp":"兵庫県","jp_add_1":"姫路市","jp_add_2":"田寺東"},"6700985":{"post_code":"6700985","prefecture":"HYOGO KEN","city":"HIMEJI SHI","town":"TAMATE","perfecture_jp":"兵庫県","jp_add_1":"姫路市","jp_add_2":"玉手"},"6700976":{"post_code":"6700976","prefecture":"HYOGO KEN","city":"HIMEJI SHI","town":"CHUJI","perfecture_jp":"兵庫県","jp_add_1":"姫路市","jp_add_2":"中地"},"6700975":{"post_code":"6700975","prefecture":"HYOGO KEN","city":"HIMEJI SHI","town":"CHUJIMINAMINOCHO","perfecture_jp":"兵庫県","jp_add_1":"姫路市","jp_add_2":"中地南町"},"6700984":{"post_code":"6700984","prefecture":"HYOGO KEN","city":"HIMEJI SHI","town":"CHONOTSUBO","perfecture_jp":"兵庫県","jp_add_1":"姫路市","jp_add_2":"町坪"},"6700989":{"post_code":"6700989","prefecture":"HYOGO KEN","city":"HIMEJI SHI","town":"CHONOTSUBOMINAMIMACHI","perfecture_jp":"兵庫県","jp_add_1":"姫路市","jp_add_2":"町坪南町"},"6700993":{"post_code":"6700993","prefecture":"HYOGO KEN","city":"HIMEJI SHI","town":"CHIYODAMACHI","perfecture_jp":"兵庫県","jp_add_1":"姫路市","jp_add_2":"千代田町"},"6700083":{"post_code":"6700083","prefecture":"HYOGO KEN","city":"HIMEJI SHI","town":"TSUJII","perfecture_jp":"兵庫県","jp_add_1":"姫路市","jp_add_2":"辻井"},"6700996":{"post_code":"6700996","prefecture":"HYOGO KEN","city":"HIMEJI SHI","town":"TSUCHIYAMA","perfecture_jp":"兵庫県","jp_add_1":"姫路市","jp_add_2":"土山"},"6700995":{"post_code":"6700995","prefecture":"HYOGO KEN","city":"HIMEJI SHI","town":"TSUCHIYAMAHIGASHINOCHO","perfecture_jp":"兵庫県","jp_add_1":"姫路市","jp_add_2":"土山東の町"},"6700972":{"post_code":"6700972","prefecture":"HYOGO KEN","city":"HIMEJI SHI","town":"TEGARA","perfecture_jp":"兵庫県","jp_add_1":"姫路市","jp_add_2":"手柄"},"6700846":{"post_code":"6700846","prefecture":"HYOGO KEN","city":"HIMEJI SHI","town":"TENJIMMACHI","perfecture_jp":"兵庫県","jp_add_1":"姫路市","jp_add_2":"天神町"},"6700821":{"post_code":"6700821","prefecture":"HYOGO KEN","city":"HIMEJI SHI","town":"TOGOCHO","perfecture_jp":"兵庫県","jp_add_1":"姫路市","jp_add_2":"東郷町"},"6700856":{"post_code":"6700856","prefecture":"HYOGO KEN","city":"HIMEJI SHI","town":"DOSHIMMACHI","perfecture_jp":"兵庫県","jp_add_1":"姫路市","jp_add_2":"同心町"},"6700914":{"post_code":"6700914","prefecture":"HYOGO KEN","city":"HIMEJI SHI","town":"TOFUMACHI","perfecture_jp":"兵庫県","jp_add_1":"姫路市","jp_add_2":"豆腐町"},"6700802":{"post_code":"6700802","prefecture":"HYOGO KEN","city":"HIMEJI SHI","town":"TOHORI","perfecture_jp":"兵庫県","jp_add_1":"姫路市","jp_add_2":"砥堀"},"6700986":{"post_code":"6700986","prefecture":"HYOGO KEN","city":"HIMEJI SHI","town":"TOMAMI","perfecture_jp":"兵庫県","jp_add_1":"姫路市","jp_add_2":"苫編"},"6700987":{"post_code":"6700987","prefecture":"HYOGO KEN","city":"HIMEJI SHI","town":"TOMAMIMINAMI","perfecture_jp":"兵庫県","jp_add_1":"姫路市","jp_add_2":"苫編南"},"6700964":{"post_code":"6700964","prefecture":"HYOGO KEN","city":"HIMEJI SHI","town":"TOYOZAWACHO","perfecture_jp":"兵庫県","jp_add_1":"姫路市","jp_add_2":"豊沢町"},"6700051":{"post_code":"6700051","prefecture":"HYOGO KEN","city":"HIMEJI SHI","town":"NAGOYAMACHO","perfecture_jp":"兵庫県","jp_add_1":"姫路市","jp_add_2":"名古山町"},"6700952":{"post_code":"6700952","prefecture":"HYOGO KEN","city":"HIMEJI SHI","town":"NANJO","perfecture_jp":"兵庫県","jp_add_1":"姫路市","jp_add_2":"南条"},"6700922":{"post_code":"6700922","prefecture":"HYOGO KEN","city":"HIMEJI SHI","town":"NIKAIMACHI","perfecture_jp":"兵庫県","jp_add_1":"姫路市","jp_add_2":"二階町"},"6700061":{"post_code":"6700061","prefecture":"HYOGO KEN","city":"HIMEJI SHI","town":"NISHIIMAJUKU","perfecture_jp":"兵庫県","jp_add_1":"姫路市","jp_add_2":"西今宿"},"6700913":{"post_code":"6700913","prefecture":"HYOGO KEN","city":"HIMEJI SHI","town":"NISHIEKIMAECHO","perfecture_jp":"兵庫県","jp_add_1":"姫路市","jp_add_2":"西駅前町"},"6700096":{"post_code":"6700096","prefecture":"HYOGO KEN","city":"HIMEJI SHI","town":"NISHISHINZAIKE","perfecture_jp":"兵庫県","jp_add_1":"姫路市","jp_add_2":"西新在家"},"6700033":{"post_code":"6700033","prefecture":"HYOGO KEN","city":"HIMEJI SHI","town":"NISHISHIMMACHI","perfecture_jp":"兵庫県","jp_add_1":"姫路市","jp_add_2":"西新町"},"6700897":{"post_code":"6700897","prefecture":"HYOGO KEN","city":"HIMEJI SHI","town":"NISHIDAIJUDAI","perfecture_jp":"兵庫県","jp_add_1":"姫路市","jp_add_2":"西大寿台"},"6700805":{"post_code":"6700805","prefecture":"HYOGO KEN","city":"HIMEJI SHI","town":"NISHINAKAJIMA","perfecture_jp":"兵庫県","jp_add_1":"姫路市","jp_add_2":"西中島"},"6700901":{"post_code":"6700901","prefecture":"HYOGO KEN","city":"HIMEJI SHI","town":"NISHINIKAIMACHI","perfecture_jp":"兵庫県","jp_add_1":"姫路市","jp_add_2":"西二階町"},"6700971":{"post_code":"6700971","prefecture":"HYOGO KEN","city":"HIMEJI SHI","town":"NISHINOBUSUE","perfecture_jp":"兵庫県","jp_add_1":"姫路市","jp_add_2":"西延末"},"6700876":{"post_code":"6700876","prefecture":"HYOGO KEN","city":"HIMEJI SHI","town":"NISHIYASHIROCHO","perfecture_jp":"兵庫県","jp_add_1":"姫路市","jp_add_2":"西八代町"},"6700801":{"post_code":"6700801","prefecture":"HYOGO KEN","city":"HIMEJI SHI","town":"NIBUNO","perfecture_jp":"兵庫県","jp_add_1":"姫路市","jp_add_2":"仁豊野"},"6700038":{"post_code":"6700038","prefecture":"HYOGO KEN","city":"HIMEJI SHI","town":"NONIMMACHI","perfecture_jp":"兵庫県","jp_add_1":"姫路市","jp_add_2":"農人町"},"6700961":{"post_code":"6700961","prefecture":"HYOGO KEN","city":"HIMEJI SHI","town":"NONENCHO","perfecture_jp":"兵庫県","jp_add_1":"姫路市","jp_add_2":"南畝町"},"6700811":{"post_code":"6700811","prefecture":"HYOGO KEN","city":"HIMEJI SHI","town":"NOZATO","perfecture_jp":"兵庫県","jp_add_1":"姫路市","jp_add_2":"野里"},"6700814":{"post_code":"6700814","prefecture":"HYOGO KEN","city":"HIMEJI SHI","town":"NOZATOENOCHO","perfecture_jp":"兵庫県","jp_add_1":"姫路市","jp_add_2":"野里上野町"},"6700813":{"post_code":"6700813","prefecture":"HYOGO KEN","city":"HIMEJI SHI","town":"NOZATOKEIUNJIMAECHO","perfecture_jp":"兵庫県","jp_add_1":"姫路市","jp_add_2":"野里慶雲寺前町"},"6700862":{"post_code":"6700862","prefecture":"HYOGO KEN","city":"HIMEJI SHI","town":"NOZATOSHIMMACHI","perfecture_jp":"兵庫県","jp_add_1":"姫路市","jp_add_2":"野里新町"},"6700815":{"post_code":"6700815","prefecture":"HYOGO KEN","city":"HIMEJI SHI","town":"NOZATODAIWAMACHI","perfecture_jp":"兵庫県","jp_add_1":"姫路市","jp_add_2":"野里大和町"},"6700865":{"post_code":"6700865","prefecture":"HYOGO KEN","city":"HIMEJI SHI","town":"NOZATOTSUKIOKAMACHI","perfecture_jp":"兵庫県","jp_add_1":"姫路市","jp_add_2":"野里月丘町"},"6700867":{"post_code":"6700867","prefecture":"HYOGO KEN","city":"HIMEJI SHI","town":"NOZATOTERAMACHI","perfecture_jp":"兵庫県","jp_add_1":"姫路市","jp_add_2":"野里寺町"},"6700864":{"post_code":"6700864","prefecture":"HYOGO KEN","city":"HIMEJI SHI","town":"NOZATONAKAMACHI","perfecture_jp":"兵庫県","jp_add_1":"姫路市","jp_add_2":"野里中町"},"6700863":{"post_code":"6700863","prefecture":"HYOGO KEN","city":"HIMEJI SHI","town":"NOZATOHIGASHIDOSHIMMACHI","perfecture_jp":"兵庫県","jp_add_1":"姫路市","jp_add_2":"野里東同心町"},"6700861":{"post_code":"6700861","prefecture":"HYOGO KEN","city":"HIMEJI SHI","town":"NOZATOHIGASHIMACHI","perfecture_jp":"兵庫県","jp_add_1":"姫路市","jp_add_2":"野里東町"},"6700866":{"post_code":"6700866","prefecture":"HYOGO KEN","city":"HIMEJI SHI","town":"NOZATOHORIDOMEMACHI","perfecture_jp":"兵庫県","jp_add_1":"姫路市","jp_add_2":"野里堀留町"},"6700966":{"post_code":"6700966","prefecture":"HYOGO KEN","city":"HIMEJI SHI","town":"NOBUSUE","perfecture_jp":"兵庫県","jp_add_1":"姫路市","jp_add_2":"延末"},"6700906":{"post_code":"6700906","prefecture":"HYOGO KEN","city":"HIMEJI SHI","town":"BAKUROMACHI","perfecture_jp":"兵庫県","jp_add_1":"姫路市","jp_add_2":"博労町"},"6700008":{"post_code":"6700008","prefecture":"HYOGO KEN","city":"HIMEJI SHI","town":"HASHINOMACHI","perfecture_jp":"兵庫県","jp_add_1":"姫路市","jp_add_2":"橋之町"},"6700047":{"post_code":"6700047","prefecture":"HYOGO KEN","city":"HIMEJI SHI","town":"HANAKAGECHO","perfecture_jp":"兵庫県","jp_add_1":"姫路市","jp_add_2":"花影町"},"6700056":{"post_code":"6700056","prefecture":"HYOGO KEN","city":"HIMEJI SHI","town":"HIGASHIIMAJUKU","perfecture_jp":"兵庫県","jp_add_1":"姫路市","jp_add_2":"東今宿"},"6700926":{"post_code":"6700926","prefecture":"HYOGO KEN","city":"HIMEJI SHI","town":"HIGASHIEKIMAECHO","perfecture_jp":"兵庫県","jp_add_1":"姫路市","jp_add_2":"東駅前町"},"6700084":{"post_code":"6700084","prefecture":"HYOGO KEN","city":"HIMEJI SHI","town":"HIGASHITSUJII","perfecture_jp":"兵庫県","jp_add_1":"姫路市","jp_add_2":"東辻井"},"6700965":{"post_code":"6700965","prefecture":"HYOGO KEN","city":"HIMEJI SHI","town":"HIGASHINOBUSUE","perfecture_jp":"兵庫県","jp_add_1":"姫路市","jp_add_2":"東延末"},"6700064":{"post_code":"6700064","prefecture":"HYOGO KEN","city":"HIMEJI SHI","town":"HIGASHIYUMESAKIDAI","perfecture_jp":"兵庫県","jp_add_1":"姫路市","jp_add_2":"東夢前台"},"6700942":{"post_code":"6700942","prefecture":"HYOGO KEN","city":"HIMEJI SHI","town":"HINODECHO","perfecture_jp":"兵庫県","jp_add_1":"姫路市","jp_add_2":"日出町"},"6700933":{"post_code":"6700933","prefecture":"HYOGO KEN","city":"HIMEJI SHI","town":"HIRANOMACHI","perfecture_jp":"兵庫県","jp_add_1":"姫路市","jp_add_2":"平野町"},"6700882":{"post_code":"6700882","prefecture":"HYOGO KEN","city":"HIMEJI SHI","town":"HIROMINE","perfecture_jp":"兵庫県","jp_add_1":"姫路市","jp_add_2":"広峰"},"6700891":{"post_code":"6700891","prefecture":"HYOGO KEN","city":"HIMEJI SHI","town":"HIROMINEYAMA","perfecture_jp":"兵庫県","jp_add_1":"姫路市","jp_add_2":"広嶺山"},"6700855":{"post_code":"6700855","prefecture":"HYOGO KEN","city":"HIMEJI SHI","town":"FUKUIMACHI","perfecture_jp":"兵庫県","jp_add_1":"姫路市","jp_add_2":"福居町"},"6700992":{"post_code":"6700992","prefecture":"HYOGO KEN","city":"HIMEJI SHI","town":"FUKUZAWACHO","perfecture_jp":"兵庫県","jp_add_1":"姫路市","jp_add_2":"福沢町"},"6700017":{"post_code":"6700017","prefecture":"HYOGO KEN","city":"HIMEJI SHI","town":"FUKUNAKAMACHI","perfecture_jp":"兵庫県","jp_add_1":"姫路市","jp_add_2":"福中町"},"6700004":{"post_code":"6700004","prefecture":"HYOGO KEN","city":"HIMEJI SHI","town":"FUKUMOTOMACHI","perfecture_jp":"兵庫県","jp_add_1":"姫路市","jp_add_2":"福本町"},"6700066":{"post_code":"6700066","prefecture":"HYOGO KEN","city":"HIMEJI SHI","town":"FUJIGADAI","perfecture_jp":"兵庫県","jp_add_1":"姫路市","jp_add_2":"藤ケ台"},"6700832":{"post_code":"6700832","prefecture":"HYOGO KEN","city":"HIMEJI SHI","town":"FUTABACHO","perfecture_jp":"兵庫県","jp_add_1":"姫路市","jp_add_2":"双葉町"},"6700034":{"post_code":"6700034","prefecture":"HYOGO KEN","city":"HIMEJI SHI","town":"FUNAOKACHO","perfecture_jp":"兵庫県","jp_add_1":"姫路市","jp_add_2":"船丘町"},"6700048":{"post_code":"6700048","prefecture":"HYOGO KEN","city":"HIMEJI SHI","town":"FUNAHASHICHO","perfecture_jp":"兵庫県","jp_add_1":"姫路市","jp_add_2":"船橋町"},"6700947":{"post_code":"6700947","prefecture":"HYOGO KEN","city":"HIMEJI SHI","town":"HOJO","perfecture_jp":"兵庫県","jp_add_1":"姫路市","jp_add_2":"北条"},"6700945":{"post_code":"6700945","prefecture":"HYOGO KEN","city":"HIMEJI SHI","town":"HOJO UMEHARACHO","perfecture_jp":"兵庫県","jp_add_1":"姫路市","jp_add_2":"北条梅原町"},"6700946":{"post_code":"6700946","prefecture":"HYOGO KEN","city":"HIMEJI SHI","town":"HOJO NAGARACHO","perfecture_jp":"兵庫県","jp_add_1":"姫路市","jp_add_2":"北条永良町"},"6700948":{"post_code":"6700948","prefecture":"HYOGO KEN","city":"HIMEJI SHI","town":"HOJO MIYANOMACHI","perfecture_jp":"兵庫県","jp_add_1":"姫路市","jp_add_2":"北条宮の町"},"6700935":{"post_code":"6700935","prefecture":"HYOGO KEN","city":"HIMEJI SHI","town":"HOJOGUCHI","perfecture_jp":"兵庫県","jp_add_1":"姫路市","jp_add_2":"北条口"},"6700804":{"post_code":"6700804","prefecture":"HYOGO KEN","city":"HIMEJI SHI","town":"HOSHIRO","perfecture_jp":"兵庫県","jp_add_1":"姫路市","jp_add_2":"保城"},"6700011":{"post_code":"6700011","prefecture":"HYOGO KEN","city":"HIMEJI SHI","town":"BOZUMACHI","perfecture_jp":"兵庫県","jp_add_1":"姫路市","jp_add_2":"坊主町"},"6700881":{"post_code":"6700881","prefecture":"HYOGO KEN","city":"HIMEJI SHI","town":"HONANCHO","perfecture_jp":"兵庫県","jp_add_1":"姫路市","jp_add_2":"峰南町"},"6700012":{"post_code":"6700012","prefecture":"HYOGO KEN","city":"HIMEJI SHI","town":"HOMMACHI","perfecture_jp":"兵庫県","jp_add_1":"姫路市","jp_add_2":"本町"},"6700806":{"post_code":"6700806","prefecture":"HYOGO KEN","city":"HIMEJI SHI","town":"MASUI SHIMMACHI","perfecture_jp":"兵庫県","jp_add_1":"姫路市","jp_add_2":"増位新町"},"6700807":{"post_code":"6700807","prefecture":"HYOGO KEN","city":"HIMEJI SHI","town":"MASUI HOMMACHI","perfecture_jp":"兵庫県","jp_add_1":"姫路市","jp_add_2":"増位本町"},"6700827":{"post_code":"6700827","prefecture":"HYOGO KEN","city":"HIMEJI SHI","town":"MARUOCHO","perfecture_jp":"兵庫県","jp_add_1":"姫路市","jp_add_2":"丸尾町"},"6700055":{"post_code":"6700055","prefecture":"HYOGO KEN","city":"HIMEJI SHI","town":"MIKOKAMAE","perfecture_jp":"兵庫県","jp_add_1":"姫路市","jp_add_2":"神子岡前"},"6700073":{"post_code":"6700073","prefecture":"HYOGO KEN","city":"HIMEJI SHI","town":"MITACHINAKA","perfecture_jp":"兵庫県","jp_add_1":"姫路市","jp_add_2":"御立中"},"6700072":{"post_code":"6700072","prefecture":"HYOGO KEN","city":"HIMEJI SHI","town":"MITACHIHIGASHI","perfecture_jp":"兵庫県","jp_add_1":"姫路市","jp_add_2":"御立東"},"6700074":{"post_code":"6700074","prefecture":"HYOGO KEN","city":"HIMEJI SHI","town":"MITACHINISHI","perfecture_jp":"兵庫県","jp_add_1":"姫路市","jp_add_2":"御立西"},"6700071":{"post_code":"6700071","prefecture":"HYOGO KEN","city":"HIMEJI SHI","town":"MITACHIKITA","perfecture_jp":"兵庫県","jp_add_1":"姫路市","jp_add_2":"御立北"},"6700054":{"post_code":"6700054","prefecture":"HYOGO KEN","city":"HIMEJI SHI","town":"MINAMIIMAJUKU","perfecture_jp":"兵庫県","jp_add_1":"姫路市","jp_add_2":"南今宿"},"6700962":{"post_code":"6700962","prefecture":"HYOGO KEN","city":"HIMEJI SHI","town":"MINAMIEKIMAECHO","perfecture_jp":"兵庫県","jp_add_1":"姫路市","jp_add_2":"南駅前町"},"6700053":{"post_code":"6700053","prefecture":"HYOGO KEN","city":"HIMEJI SHI","town":"MINAMIKURUMAZAKI","perfecture_jp":"兵庫県","jp_add_1":"姫路市","jp_add_2":"南車崎"},"6700093":{"post_code":"6700093","prefecture":"HYOGO KEN","city":"HIMEJI SHI","town":"MINAMISHINZAIKE","perfecture_jp":"兵庫県","jp_add_1":"姫路市","jp_add_2":"南新在家"},"6700912":{"post_code":"6700912","prefecture":"HYOGO KEN","city":"HIMEJI SHI","town":"MINAMIMACHI","perfecture_jp":"兵庫県","jp_add_1":"姫路市","jp_add_2":"南町"},"6700875":{"post_code":"6700875","prefecture":"HYOGO KEN","city":"HIMEJI SHI","town":"MINAMIYASHIROCHO","perfecture_jp":"兵庫県","jp_add_1":"姫路市","jp_add_2":"南八代町"},"6700823":{"post_code":"6700823","prefecture":"HYOGO KEN","city":"HIMEJI SHI","town":"MIYAUECHO","perfecture_jp":"兵庫県","jp_add_1":"姫路市","jp_add_2":"宮上町"},"6700837":{"post_code":"6700837","prefecture":"HYOGO KEN","city":"HIMEJI SHI","town":"MIYANISHICHO","perfecture_jp":"兵庫県","jp_add_1":"姫路市","jp_add_2":"宮西町"},"6700812":{"post_code":"6700812","prefecture":"HYOGO KEN","city":"HIMEJI SHI","town":"MUTSUMICHO","perfecture_jp":"兵庫県","jp_add_1":"姫路市","jp_add_2":"睦町"},"6700937":{"post_code":"6700937","prefecture":"HYOGO KEN","city":"HIMEJI SHI","town":"MOTOSHIOMACHI","perfecture_jp":"兵庫県","jp_add_1":"姫路市","jp_add_2":"元塩町"},"6700049":{"post_code":"6700049","prefecture":"HYOGO KEN","city":"HIMEJI SHI","town":"MOTOMACHI","perfecture_jp":"兵庫県","jp_add_1":"姫路市","jp_add_2":"元町"},"6700006":{"post_code":"6700006","prefecture":"HYOGO KEN","city":"HIMEJI SHI","town":"YAGIMACHI","perfecture_jp":"兵庫県","jp_add_1":"姫路市","jp_add_2":"八木町"},"6700872":{"post_code":"6700872","prefecture":"HYOGO KEN","city":"HIMEJI SHI","town":"YASHIRO","perfecture_jp":"兵庫県","jp_add_1":"姫路市","jp_add_2":"八代"},"6700873":{"post_code":"6700873","prefecture":"HYOGO KEN","city":"HIMEJI SHI","town":"YASHIRO TOKOJICHO","perfecture_jp":"兵庫県","jp_add_1":"姫路市","jp_add_2":"八代東光寺町"},"6700874":{"post_code":"6700874","prefecture":"HYOGO KEN","city":"HIMEJI SHI","town":"YASHIRO HONCHO","perfecture_jp":"兵庫県","jp_add_1":"姫路市","jp_add_2":"八代本町"},"6700886":{"post_code":"6700886","prefecture":"HYOGO KEN","city":"HIMEJI SHI","town":"YASHIRO MIDORIGAOKACHO","perfecture_jp":"兵庫県","jp_add_1":"姫路市","jp_add_2":"八代緑ケ丘町"},"6700885":{"post_code":"6700885","prefecture":"HYOGO KEN","city":"HIMEJI SHI","town":"YASHIRO MIYAMAECHO","perfecture_jp":"兵庫県","jp_add_1":"姫路市","jp_add_2":"八代宮前町"},"6700955":{"post_code":"6700955","prefecture":"HYOGO KEN","city":"HIMEJI SHI","town":"YASUDA","perfecture_jp":"兵庫県","jp_add_1":"姫路市","jp_add_2":"安田"},"6700023":{"post_code":"6700023","prefecture":"HYOGO KEN","city":"HIMEJI SHI","town":"YANAGIMACHI","perfecture_jp":"兵庫県","jp_add_1":"姫路市","jp_add_2":"柳町"},"6700021":{"post_code":"6700021","prefecture":"HYOGO KEN","city":"HIMEJI SHI","town":"YAMANOICHO","perfecture_jp":"兵庫県","jp_add_1":"姫路市","jp_add_2":"山野井町"},"6700036":{"post_code":"6700036","prefecture":"HYOGO KEN","city":"HIMEJI SHI","town":"YAMAHATASHINDEN","perfecture_jp":"兵庫県","jp_add_1":"姫路市","jp_add_2":"山畑新田"},"6700085":{"post_code":"6700085","prefecture":"HYOGO KEN","city":"HIMEJI SHI","town":"YAMABUKI","perfecture_jp":"兵庫県","jp_add_1":"姫路市","jp_add_2":"山吹"},"6700031":{"post_code":"6700031","prefecture":"HYOGO KEN","city":"HIMEJI SHI","town":"YOSHIDAMACHI","perfecture_jp":"兵庫県","jp_add_1":"姫路市","jp_add_2":"吉田町"},"6700042":{"post_code":"6700042","prefecture":"HYOGO KEN","city":"HIMEJI SHI","town":"YONEDAMACHI","perfecture_jp":"兵庫県","jp_add_1":"姫路市","jp_add_2":"米田町"},"6700941":{"post_code":"6700941","prefecture":"HYOGO KEN","city":"HIMEJI SHI","town":"WAKANACHO","perfecture_jp":"兵庫県","jp_add_1":"姫路市","jp_add_2":"若菜町"},"6700921":{"post_code":"6700921","prefecture":"HYOGO KEN","city":"HIMEJI SHI","town":"WATAMACHI","perfecture_jp":"兵庫県","jp_add_1":"姫路市","jp_add_2":"綿町"}}