{"6720103":{"post_code":"6720103","prefecture":"HYOGO KEN","city":"HIMEJI SHI","town":"IESHIMACHO BOZE","perfecture_jp":"兵庫県","jp_add_1":"姫路市","jp_add_2":"家島町坊勢"},"6720101":{"post_code":"6720101","prefecture":"HYOGO KEN","city":"HIMEJI SHI","town":"IESHIMACHO MAURA","perfecture_jp":"兵庫県","jp_add_1":"姫路市","jp_add_2":"家島町真浦"},"6720102":{"post_code":"6720102","prefecture":"HYOGO KEN","city":"HIMEJI SHI","town":"IESHIMACHO MIYA","perfecture_jp":"兵庫県","jp_add_1":"姫路市","jp_add_2":"家島町宮"},"6728003":{"post_code":"6728003","prefecture":"HYOGO KEN","city":"HIMEJI SHI","town":"OKUYAMA","perfecture_jp":"兵庫県","jp_add_1":"姫路市","jp_add_2":"奥山"},"6728001":{"post_code":"6728001","prefecture":"HYOGO KEN","city":"HIMEJI SHI","town":"KANEDA","perfecture_jp":"兵庫県","jp_add_1":"姫路市","jp_add_2":"兼田"},"6728002":{"post_code":"6728002","prefecture":"HYOGO KEN","city":"HIMEJI SHI","town":"KITAHARA","perfecture_jp":"兵庫県","jp_add_1":"姫路市","jp_add_2":"北原"},"6728016":{"post_code":"6728016","prefecture":"HYOGO KEN","city":"HIMEJI SHI","town":"KIBA","perfecture_jp":"兵庫県","jp_add_1":"姫路市","jp_add_2":"木場"},"6728017":{"post_code":"6728017","prefecture":"HYOGO KEN","city":"HIMEJI SHI","town":"KIBA JUHATTANCHO","perfecture_jp":"兵庫県","jp_add_1":"姫路市","jp_add_2":"木場十八反町"},"6728018":{"post_code":"6728018","prefecture":"HYOGO KEN","city":"HIMEJI SHI","town":"KIBA MAENAKACHO","perfecture_jp":"兵庫県","jp_add_1":"姫路市","jp_add_2":"木場前中町"},"6728019":{"post_code":"6728019","prefecture":"HYOGO KEN","city":"HIMEJI SHI","town":"KIBA MAENANATANCHO","perfecture_jp":"兵庫県","jp_add_1":"姫路市","jp_add_2":"木場前七反町"},"6728041":{"post_code":"6728041","prefecture":"HYOGO KEN","city":"HIMEJI SHI","town":"SANJOCHO(2-CHOME)","perfecture_jp":"兵庫県","jp_add_1":"姫路市","jp_add_2":"三条町"},"6728078":{"post_code":"6728078","prefecture":"HYOGO KEN","city":"HIMEJI SHI","town":"SHIKAMAKU AGA","perfecture_jp":"兵庫県","jp_add_1":"姫路市","jp_add_2":"飾磨区英賀"},"6728092":{"post_code":"6728092","prefecture":"HYOGO KEN","city":"HIMEJI SHI","town":"SHIKAMAKU AGAKASUGACHO","perfecture_jp":"兵庫県","jp_add_1":"姫路市","jp_add_2":"飾磨区英賀春日町"},"6728084":{"post_code":"6728084","prefecture":"HYOGO KEN","city":"HIMEJI SHI","town":"SHIKAMAKU AGASHIMIZUCHO","perfecture_jp":"兵庫県","jp_add_1":"姫路市","jp_add_2":"飾磨区英賀清水町"},"6728087":{"post_code":"6728087","prefecture":"HYOGO KEN","city":"HIMEJI SHI","town":"SHIKAMAKU AGAHIGASHICHO","perfecture_jp":"兵庫県","jp_add_1":"姫路市","jp_add_2":"飾磨区英賀東町"},"6728088":{"post_code":"6728088","prefecture":"HYOGO KEN","city":"HIMEJI SHI","town":"SHIKAMAKU AGANISHICHO","perfecture_jp":"兵庫県","jp_add_1":"姫路市","jp_add_2":"飾磨区英賀西町"},"6728091":{"post_code":"6728091","prefecture":"HYOGO KEN","city":"HIMEJI SHI","town":"SHIKAMAKU AGAHOEKIMAECHO","perfecture_jp":"兵庫県","jp_add_1":"姫路市","jp_add_2":"飾磨区英賀保駅前町"},"6728089":{"post_code":"6728089","prefecture":"HYOGO KEN","city":"HIMEJI SHI","town":"SHIKAMAKU AGAMIYADAI","perfecture_jp":"兵庫県","jp_add_1":"姫路市","jp_add_2":"飾磨区英賀宮台"},"6728080":{"post_code":"6728080","prefecture":"HYOGO KEN","city":"HIMEJI SHI","town":"SHIKAMAKU AGAMIYACHO","perfecture_jp":"兵庫県","jp_add_1":"姫路市","jp_add_2":"飾磨区英賀宮町"},"6728037":{"post_code":"6728037","prefecture":"HYOGO KEN","city":"HIMEJI SHI","town":"SHIKAMAKU ANASE","perfecture_jp":"兵庫県","jp_add_1":"姫路市","jp_add_2":"飾磨区阿成"},"6728030":{"post_code":"6728030","prefecture":"HYOGO KEN","city":"HIMEJI SHI","town":"SHIKAMAKU ANASEUEKI","perfecture_jp":"兵庫県","jp_add_1":"姫路市","jp_add_2":"飾磨区阿成植木"},"6728038":{"post_code":"6728038","prefecture":"HYOGO KEN","city":"HIMEJI SHI","town":"SHIKAMAKU ANASEKAKO","perfecture_jp":"兵庫県","jp_add_1":"姫路市","jp_add_2":"飾磨区阿成鹿古"},"6728059":{"post_code":"6728059","prefecture":"HYOGO KEN","city":"HIMEJI SHI","town":"SHIKAMAKU ANASESHIMOKAICHI","perfecture_jp":"兵庫県","jp_add_1":"姫路市","jp_add_2":"飾磨区阿成下垣内"},"6728058":{"post_code":"6728058","prefecture":"HYOGO KEN","city":"HIMEJI SHI","town":"SHIKAMAKU ANASENAKAKAICHI","perfecture_jp":"兵庫県","jp_add_1":"姫路市","jp_add_2":"飾磨区阿成中垣内"},"6728039":{"post_code":"6728039","prefecture":"HYOGO KEN","city":"HIMEJI SHI","town":"SHIKAMAKU ANASEWATASHIBA","perfecture_jp":"兵庫県","jp_add_1":"姫路市","jp_add_2":"飾磨区阿成渡場"},"6728079":{"post_code":"6728079","prefecture":"HYOGO KEN","city":"HIMEJI SHI","town":"SHIKAMAKU IMAZAIKE","perfecture_jp":"兵庫県","jp_add_1":"姫路市","jp_add_2":"飾磨区今在家"},"6728090":{"post_code":"6728090","prefecture":"HYOGO KEN","city":"HIMEJI SHI","town":"SHIKAMAKU IMAZAIKEKITA","perfecture_jp":"兵庫県","jp_add_1":"姫路市","jp_add_2":"飾磨区今在家北"},"6728076":{"post_code":"6728076","prefecture":"HYOGO KEN","city":"HIMEJI SHI","town":"SHIKAMAKU IRIFUNECHO","perfecture_jp":"兵庫県","jp_add_1":"姫路市","jp_add_2":"飾磨区入船町"},"6728057":{"post_code":"6728057","prefecture":"HYOGO KEN","city":"HIMEJI SHI","town":"SHIKAMAKU EBISU","perfecture_jp":"兵庫県","jp_add_1":"姫路市","jp_add_2":"飾磨区恵美酒"},"6728062":{"post_code":"6728062","prefecture":"HYOGO KEN","city":"HIMEJI SHI","town":"SHIKAMAKU OHAMA","perfecture_jp":"兵庫県","jp_add_1":"姫路市","jp_add_2":"飾磨区大浜"},"6728077":{"post_code":"6728077","prefecture":"HYOGO KEN","city":"HIMEJI SHI","town":"SHIKAMAKU KASUYASHIMMACHI","perfecture_jp":"兵庫県","jp_add_1":"姫路市","jp_add_2":"飾磨区粕谷新町"},"6728071":{"post_code":"6728071","prefecture":"HYOGO KEN","city":"HIMEJI SHI","town":"SHIKAMAKU KAMAE","perfecture_jp":"兵庫県","jp_add_1":"姫路市","jp_add_2":"飾磨区構"},"6728094":{"post_code":"6728094","prefecture":"HYOGO KEN","city":"HIMEJI SHI","town":"SHIKAMAKU KAMAKURACHO","perfecture_jp":"兵庫県","jp_add_1":"姫路市","jp_add_2":"飾磨区鎌倉町"},"6728043":{"post_code":"6728043","prefecture":"HYOGO KEN","city":"HIMEJI SHI","town":"SHIKAMAKU KAMINODA","perfecture_jp":"兵庫県","jp_add_1":"姫路市","jp_add_2":"飾磨区上野田"},"6728047":{"post_code":"6728047","prefecture":"HYOGO KEN","city":"HIMEJI SHI","town":"SHIKAMAKU KAMEYAMA","perfecture_jp":"兵庫県","jp_add_1":"姫路市","jp_add_2":"飾磨区亀山"},"6728074":{"post_code":"6728074","prefecture":"HYOGO KEN","city":"HIMEJI SHI","town":"SHIKAMAKU KAMO","perfecture_jp":"兵庫県","jp_add_1":"姫路市","jp_add_2":"飾磨区加茂"},"6728073":{"post_code":"6728073","prefecture":"HYOGO KEN","city":"HIMEJI SHI","town":"SHIKAMAKU KAMOKITA","perfecture_jp":"兵庫県","jp_add_1":"姫路市","jp_add_2":"飾磨区加茂北"},"6728070":{"post_code":"6728070","prefecture":"HYOGO KEN","city":"HIMEJI SHI","town":"SHIKAMAKU KAMOHIGASHI","perfecture_jp":"兵庫県","jp_add_1":"姫路市","jp_add_2":"飾磨区加茂東"},"6728069":{"post_code":"6728069","prefecture":"HYOGO KEN","city":"HIMEJI SHI","town":"SHIKAMAKU KAMOMINAMI","perfecture_jp":"兵庫県","jp_add_1":"姫路市","jp_add_2":"飾磨区加茂南"},"6728056":{"post_code":"6728056","prefecture":"HYOGO KEN","city":"HIMEJI SHI","town":"SHIKAMAKU GOKO","perfecture_jp":"兵庫県","jp_add_1":"姫路市","jp_add_2":"飾磨区御幸"},"6728053":{"post_code":"6728053","prefecture":"HYOGO KEN","city":"HIMEJI SHI","town":"SHIKAMAKU SAKAEMACHI","perfecture_jp":"兵庫県","jp_add_1":"姫路市","jp_add_2":"飾磨区栄町"},"6728036":{"post_code":"6728036","prefecture":"HYOGO KEN","city":"HIMEJI SHI","town":"SHIKAMAKU SANWACHO","perfecture_jp":"兵庫県","jp_add_1":"姫路市","jp_add_2":"飾磨区三和町"},"6728075":{"post_code":"6728075","prefecture":"HYOGO KEN","city":"HIMEJI SHI","town":"SHIKAMAKU SHIAMBASHI","perfecture_jp":"兵庫県","jp_add_1":"姫路市","jp_add_2":"飾磨区思案橋"},"6728051":{"post_code":"6728051","prefecture":"HYOGO KEN","city":"HIMEJI SHI","town":"SHIKAMAKU SHIMIZU","perfecture_jp":"兵庫県","jp_add_1":"姫路市","jp_add_2":"飾磨区清水"},"6728044":{"post_code":"6728044","prefecture":"HYOGO KEN","city":"HIMEJI SHI","town":"SHIKAMAKU SHIMONODA","perfecture_jp":"兵庫県","jp_add_1":"姫路市","jp_add_2":"飾磨区下野田"},"6728083":{"post_code":"6728083","prefecture":"HYOGO KEN","city":"HIMEJI SHI","town":"SHIKAMAKU JONANCHO","perfecture_jp":"兵庫県","jp_add_1":"姫路市","jp_add_2":"飾磨区城南町"},"6728063":{"post_code":"6728063","prefecture":"HYOGO KEN","city":"HIMEJI SHI","town":"SHIKAMAKU SUKA","perfecture_jp":"兵庫県","jp_add_1":"姫路市","jp_add_2":"飾磨区須加"},"6728081":{"post_code":"6728081","prefecture":"HYOGO KEN","city":"HIMEJI SHI","town":"SHIKAMAKU TAKAMACHI","perfecture_jp":"兵庫県","jp_add_1":"姫路市","jp_add_2":"飾磨区高町"},"6728072":{"post_code":"6728072","prefecture":"HYOGO KEN","city":"HIMEJI SHI","town":"SHIKAMAKU TADENOCHO","perfecture_jp":"兵庫県","jp_add_1":"姫路市","jp_add_2":"飾磨区蓼野町"},"6728052":{"post_code":"6728052","prefecture":"HYOGO KEN","city":"HIMEJI SHI","town":"SHIKAMAKU TAMACHI","perfecture_jp":"兵庫県","jp_add_1":"姫路市","jp_add_2":"飾磨区玉地"},"6728082":{"post_code":"6728082","prefecture":"HYOGO KEN","city":"HIMEJI SHI","town":"SHIKAMAKU TSUKESHIRO","perfecture_jp":"兵庫県","jp_add_1":"姫路市","jp_add_2":"飾磨区付城"},"6728061":{"post_code":"6728061","prefecture":"HYOGO KEN","city":"HIMEJI SHI","town":"SHIKAMAKU TENJIN","perfecture_jp":"兵庫県","jp_add_1":"姫路市","jp_add_2":"飾磨区天神"},"6728046":{"post_code":"6728046","prefecture":"HYOGO KEN","city":"HIMEJI SHI","town":"SHIKAMAKU TOKURA","perfecture_jp":"兵庫県","jp_add_1":"姫路市","jp_add_2":"飾磨区都倉"},"6728035":{"post_code":"6728035","prefecture":"HYOGO KEN","city":"HIMEJI SHI","town":"SHIKAMAKU NAKASHIMA","perfecture_jp":"兵庫県","jp_add_1":"姫路市","jp_add_2":"飾磨区中島"},"6728045":{"post_code":"6728045","prefecture":"HYOGO KEN","city":"HIMEJI SHI","town":"SHIKAMAKU NAKANODA","perfecture_jp":"兵庫県","jp_add_1":"姫路市","jp_add_2":"飾磨区中野田"},"6728085":{"post_code":"6728085","prefecture":"HYOGO KEN","city":"HIMEJI SHI","town":"SHIKAMAKU NAKAHAMACHO","perfecture_jp":"兵庫県","jp_add_1":"姫路市","jp_add_2":"飾磨区中浜町"},"6728086":{"post_code":"6728086","prefecture":"HYOGO KEN","city":"HIMEJI SHI","town":"SHIKAMAKU NISHIHAMACHO","perfecture_jp":"兵庫県","jp_add_1":"姫路市","jp_add_2":"飾磨区西浜町"},"6728040":{"post_code":"6728040","prefecture":"HYOGO KEN","city":"HIMEJI SHI","town":"SHIKAMAKU NODACHO","perfecture_jp":"兵庫県","jp_add_1":"姫路市","jp_add_2":"飾磨区野田町"},"6728054":{"post_code":"6728054","prefecture":"HYOGO KEN","city":"HIMEJI SHI","town":"SHIKAMAKU HIGASHIBORI","perfecture_jp":"兵庫県","jp_add_1":"姫路市","jp_add_2":"飾磨区東堀"},"6728098":{"post_code":"6728098","prefecture":"HYOGO KEN","city":"HIMEJI SHI","town":"SHIKAMAKU FUJIMIGAOKACHO","perfecture_jp":"兵庫県","jp_add_1":"姫路市","jp_add_2":"飾磨区富士見ケ丘町"},"6728064":{"post_code":"6728064","prefecture":"HYOGO KEN","city":"HIMEJI SHI","town":"SHIKAMAKU HOSOE","perfecture_jp":"兵庫県","jp_add_1":"姫路市","jp_add_2":"飾磨区細江"},"6728025":{"post_code":"6728025","prefecture":"HYOGO KEN","city":"HIMEJI SHI","town":"SHIKAMAKU HORIKAWACHO","perfecture_jp":"兵庫県","jp_add_1":"姫路市","jp_add_2":"飾磨区堀川町"},"6728055":{"post_code":"6728055","prefecture":"HYOGO KEN","city":"HIMEJI SHI","town":"SHIKAMAKU MIYA","perfecture_jp":"兵庫県","jp_add_1":"姫路市","jp_add_2":"飾磨区宮"},"6728048":{"post_code":"6728048","prefecture":"HYOGO KEN","city":"HIMEJI SHI","town":"SHIKAMAKU MIYAKE","perfecture_jp":"兵庫県","jp_add_1":"姫路市","jp_add_2":"飾磨区三宅"},"6728031":{"post_code":"6728031","prefecture":"HYOGO KEN","city":"HIMEJI SHI","town":"SHIKAMAKU MEGA","perfecture_jp":"兵庫県","jp_add_1":"姫路市","jp_add_2":"飾磨区妻鹿"},"6728032":{"post_code":"6728032","prefecture":"HYOGO KEN","city":"HIMEJI SHI","town":"SHIKAMAKU MEGATOKAICHO","perfecture_jp":"兵庫県","jp_add_1":"姫路市","jp_add_2":"飾磨区妻鹿東海町"},"6728034":{"post_code":"6728034","prefecture":"HYOGO KEN","city":"HIMEJI SHI","town":"SHIKAMAKU MEGATOKIWACHO","perfecture_jp":"兵庫県","jp_add_1":"姫路市","jp_add_2":"飾磨区妻鹿常盤町"},"6728033":{"post_code":"6728033","prefecture":"HYOGO KEN","city":"HIMEJI SHI","town":"SHIKAMAKU MEGAHIDACHO","perfecture_jp":"兵庫県","jp_add_1":"姫路市","jp_add_2":"飾磨区妻鹿日田町"},"6728093":{"post_code":"6728093","prefecture":"HYOGO KEN","city":"HIMEJI SHI","town":"SHIKAMAKU YAGURACHO","perfecture_jp":"兵庫県","jp_add_1":"姫路市","jp_add_2":"飾磨区矢倉町"},"6728097":{"post_code":"6728097","prefecture":"HYOGO KEN","city":"HIMEJI SHI","town":"SHIKAMAKU YAMASAKI","perfecture_jp":"兵庫県","jp_add_1":"姫路市","jp_add_2":"飾磨区山崎"},"6728096":{"post_code":"6728096","prefecture":"HYOGO KEN","city":"HIMEJI SHI","town":"SHIKAMAKU YAMASAKIDAI","perfecture_jp":"兵庫県","jp_add_1":"姫路市","jp_add_2":"飾磨区山崎台"},"6728095":{"post_code":"6728095","prefecture":"HYOGO KEN","city":"HIMEJI SHI","town":"SHIKAMAKU WAKAMIYACHO","perfecture_jp":"兵庫県","jp_add_1":"姫路市","jp_add_2":"飾磨区若宮町"},"6728023":{"post_code":"6728023","prefecture":"HYOGO KEN","city":"HIMEJI SHI","town":"SHIRAHAMACHO","perfecture_jp":"兵庫県","jp_add_1":"姫路市","jp_add_2":"白浜町"},"6728021":{"post_code":"6728021","prefecture":"HYOGO KEN","city":"HIMEJI SHI","town":"SHIRAHAMACHO USAZAKINAKA","perfecture_jp":"兵庫県","jp_add_1":"姫路市","jp_add_2":"白浜町宇佐崎中"},"6728022":{"post_code":"6728022","prefecture":"HYOGO KEN","city":"HIMEJI SHI","town":"SHIRAHAMACHO USAZAKIMINAMI","perfecture_jp":"兵庫県","jp_add_1":"姫路市","jp_add_2":"白浜町宇佐崎南"},"6728013":{"post_code":"6728013","prefecture":"HYOGO KEN","city":"HIMEJI SHI","town":"SHIRAHAMACHO USAZAKIKITA","perfecture_jp":"兵庫県","jp_add_1":"姫路市","jp_add_2":"白浜町宇佐崎北"},"6728011":{"post_code":"6728011","prefecture":"HYOGO KEN","city":"HIMEJI SHI","town":"SHIRAHAMACHO KANDA","perfecture_jp":"兵庫県","jp_add_1":"姫路市","jp_add_2":"白浜町神田"},"6728012":{"post_code":"6728012","prefecture":"HYOGO KEN","city":"HIMEJI SHI","town":"SHIRAHAMACHO JIKE","perfecture_jp":"兵庫県","jp_add_1":"姫路市","jp_add_2":"白浜町寺家"},"6728024":{"post_code":"6728024","prefecture":"HYOGO KEN","city":"HIMEJI SHI","town":"SHIRAHAMACHO NADAHAMA","perfecture_jp":"兵庫県","jp_add_1":"姫路市","jp_add_2":"白浜町灘浜"},"6728004":{"post_code":"6728004","prefecture":"HYOGO KEN","city":"HIMEJI SHI","town":"TSUGI","perfecture_jp":"兵庫県","jp_add_1":"姫路市","jp_add_2":"継"},"6728049":{"post_code":"6728049","prefecture":"HYOGO KEN","city":"HIMEJI SHI","town":"TSUKUDACHO","perfecture_jp":"兵庫県","jp_add_1":"姫路市","jp_add_2":"佃町"},"6728014":{"post_code":"6728014","prefecture":"HYOGO KEN","city":"HIMEJI SHI","town":"HIGASHIYAMA","perfecture_jp":"兵庫県","jp_add_1":"姫路市","jp_add_2":"東山"},"6728015":{"post_code":"6728015","prefecture":"HYOGO KEN","city":"HIMEJI SHI","town":"YAKA","perfecture_jp":"兵庫県","jp_add_1":"姫路市","jp_add_2":"八家"}}