{"6730000":{"post_code":"6730000","prefecture":"HYOGO KEN","city":"AKASHI SHI","town":"IKANIKEISAIGANAIBAAI","perfecture_jp":"兵庫県","jp_add_1":"明石市","jp_add_2":""},"6730882":{"post_code":"6730882","prefecture":"HYOGO KEN","city":"AKASHI SHI","town":"AIOICHO","perfecture_jp":"兵庫県","jp_add_1":"明石市","jp_add_2":"相生町"},"6730847":{"post_code":"6730847","prefecture":"HYOGO KEN","city":"AKASHI SHI","town":"AKASHIKOEN","perfecture_jp":"兵庫県","jp_add_1":"明石市","jp_add_2":"明石公園"},"6730851":{"post_code":"6730851","prefecture":"HYOGO KEN","city":"AKASHI SHI","town":"ASAGIRIKITAMACHI","perfecture_jp":"兵庫県","jp_add_1":"明石市","jp_add_2":"朝霧北町"},"6730852":{"post_code":"6730852","prefecture":"HYOGO KEN","city":"AKASHI SHI","town":"ASAGIRIDAI","perfecture_jp":"兵庫県","jp_add_1":"明石市","jp_add_2":"朝霧台"},"6730866":{"post_code":"6730866","prefecture":"HYOGO KEN","city":"AKASHI SHI","town":"ASAGIRICHO","perfecture_jp":"兵庫県","jp_add_1":"明石市","jp_add_2":"朝霧町"},"6730860":{"post_code":"6730860","prefecture":"HYOGO KEN","city":"AKASHI SHI","town":"ASAGIRIHIGASHIMACHI","perfecture_jp":"兵庫県","jp_add_1":"明石市","jp_add_2":"朝霧東町"},"6730870":{"post_code":"6730870","prefecture":"HYOGO KEN","city":"AKASHI SHI","town":"ASAGIRIMINAMIMACHI","perfecture_jp":"兵庫県","jp_add_1":"明石市","jp_add_2":"朝霧南町"},"6730853":{"post_code":"6730853","prefecture":"HYOGO KEN","city":"AKASHI SHI","town":"ASAGIRIYAMATECHO","perfecture_jp":"兵庫県","jp_add_1":"明石市","jp_add_2":"朝霧山手町"},"6730002":{"post_code":"6730002","prefecture":"HYOGO KEN","city":"AKASHI SHI","town":"ASAHIGAOKA","perfecture_jp":"兵庫県","jp_add_1":"明石市","jp_add_2":"旭が丘"},"6730846":{"post_code":"6730846","prefecture":"HYOGO KEN","city":"AKASHI SHI","town":"UENOMARU","perfecture_jp":"兵庫県","jp_add_1":"明石市","jp_add_2":"上ノ丸"},"6730022":{"post_code":"6730022","prefecture":"HYOGO KEN","city":"AKASHI SHI","town":"OJI","perfecture_jp":"兵庫県","jp_add_1":"明石市","jp_add_2":"王子"},"6730891":{"post_code":"6730891","prefecture":"HYOGO KEN","city":"AKASHI SHI","town":"OAKASHICHO","perfecture_jp":"兵庫県","jp_add_1":"明石市","jp_add_2":"大明石町"},"6730879":{"post_code":"6730879","prefecture":"HYOGO KEN","city":"AKASHI SHI","town":"OKURA KAIGANDORI","perfecture_jp":"兵庫県","jp_add_1":"明石市","jp_add_2":"大蔵海岸通"},"6730875":{"post_code":"6730875","prefecture":"HYOGO KEN","city":"AKASHI SHI","town":"OKURA TENJINCHO","perfecture_jp":"兵庫県","jp_add_1":"明石市","jp_add_2":"大蔵天神町"},"6730873":{"post_code":"6730873","prefecture":"HYOGO KEN","city":"AKASHI SHI","town":"OKURA NAKAMACHI","perfecture_jp":"兵庫県","jp_add_1":"明石市","jp_add_2":"大蔵中町"},"6730871":{"post_code":"6730871","prefecture":"HYOGO KEN","city":"AKASHI SHI","town":"OKURA HACHIMANCHO","perfecture_jp":"兵庫県","jp_add_1":"明石市","jp_add_2":"大蔵八幡町"},"6730874":{"post_code":"6730874","prefecture":"HYOGO KEN","city":"AKASHI SHI","town":"OKURA HOMMACHI","perfecture_jp":"兵庫県","jp_add_1":"明石市","jp_add_2":"大蔵本町"},"6730867":{"post_code":"6730867","prefecture":"HYOGO KEN","city":"AKASHI SHI","town":"OKURADANIOKU","perfecture_jp":"兵庫県","jp_add_1":"明石市","jp_add_2":"大蔵谷奥"},"6730872":{"post_code":"6730872","prefecture":"HYOGO KEN","city":"AKASHI SHI","town":"OKURACHO","perfecture_jp":"兵庫県","jp_add_1":"明石市","jp_add_2":"大蔵町"},"6730884":{"post_code":"6730884","prefecture":"HYOGO KEN","city":"AKASHI SHI","town":"KAJIYACHO","perfecture_jp":"兵庫県","jp_add_1":"明石市","jp_add_2":"鍛治屋町"},"6730012":{"post_code":"6730012","prefecture":"HYOGO KEN","city":"AKASHI SHI","town":"WASAKA","perfecture_jp":"兵庫県","jp_add_1":"明石市","jp_add_2":"和坂"},"6730014":{"post_code":"6730014","prefecture":"HYOGO KEN","city":"AKASHI SHI","town":"KAWASAKICHO","perfecture_jp":"兵庫県","jp_add_1":"明石市","jp_add_2":"川崎町"},"6730037":{"post_code":"6730037","prefecture":"HYOGO KEN","city":"AKASHI SHI","town":"KISAKI","perfecture_jp":"兵庫県","jp_add_1":"明石市","jp_add_2":"貴崎"},"6730857":{"post_code":"6730857","prefecture":"HYOGO KEN","city":"AKASHI SHI","town":"KITAASAGIRIOKA","perfecture_jp":"兵庫県","jp_add_1":"明石市","jp_add_2":"北朝霧丘"},"6730021":{"post_code":"6730021","prefecture":"HYOGO KEN","city":"AKASHI SHI","town":"KITAOJICHO","perfecture_jp":"兵庫県","jp_add_1":"明石市","jp_add_2":"北王子町"},"6730005":{"post_code":"6730005","prefecture":"HYOGO KEN","city":"AKASHI SHI","town":"KOKUBO","perfecture_jp":"兵庫県","jp_add_1":"明石市","jp_add_2":"小久保"},"6730893":{"post_code":"6730893","prefecture":"HYOGO KEN","city":"AKASHI SHI","town":"ZAIMOKUCHO","perfecture_jp":"兵庫県","jp_add_1":"明石市","jp_add_2":"材木町"},"6730849":{"post_code":"6730849","prefecture":"HYOGO KEN","city":"AKASHI SHI","town":"SAEMBACHO","perfecture_jp":"兵庫県","jp_add_1":"明石市","jp_add_2":"茶園場町"},"6730885":{"post_code":"6730885","prefecture":"HYOGO KEN","city":"AKASHI SHI","town":"SAKURACHO","perfecture_jp":"兵庫県","jp_add_1":"明石市","jp_add_2":"桜町"},"6730008":{"post_code":"6730008","prefecture":"HYOGO KEN","city":"AKASHI SHI","town":"SAWANO","perfecture_jp":"兵庫県","jp_add_1":"明石市","jp_add_2":"沢野"},"6730027":{"post_code":"6730027","prefecture":"HYOGO KEN","city":"AKASHI SHI","town":"SHIMMEICHO","perfecture_jp":"兵庫県","jp_add_1":"明石市","jp_add_2":"新明町"},"6730028":{"post_code":"6730028","prefecture":"HYOGO KEN","city":"AKASHI SHI","town":"SUZURICHO","perfecture_jp":"兵庫県","jp_add_1":"明石市","jp_add_2":"硯町"},"6730897":{"post_code":"6730897","prefecture":"HYOGO KEN","city":"AKASHI SHI","town":"TAIKANCHO","perfecture_jp":"兵庫県","jp_add_1":"明石市","jp_add_2":"大観町"},"6730845":{"post_code":"6730845","prefecture":"HYOGO KEN","city":"AKASHI SHI","town":"TAIDERA","perfecture_jp":"兵庫県","jp_add_1":"明石市","jp_add_2":"太寺"},"6730843":{"post_code":"6730843","prefecture":"HYOGO KEN","city":"AKASHI SHI","town":"TAIDERA ONOCHO","perfecture_jp":"兵庫県","jp_add_1":"明石市","jp_add_2":"太寺大野町"},"6730841":{"post_code":"6730841","prefecture":"HYOGO KEN","city":"AKASHI SHI","town":"TAIDERA TENNOCHO","perfecture_jp":"兵庫県","jp_add_1":"明石市","jp_add_2":"太寺天王町"},"6730029":{"post_code":"6730029","prefecture":"HYOGO KEN","city":"AKASHI SHI","town":"DAIDOCHO","perfecture_jp":"兵庫県","jp_add_1":"明石市","jp_add_2":"大道町"},"6730848":{"post_code":"6730848","prefecture":"HYOGO KEN","city":"AKASHI SHI","town":"TAKASHOMACHI","perfecture_jp":"兵庫県","jp_add_1":"明石市","jp_add_2":"鷹匠町"},"6730032":{"post_code":"6730032","prefecture":"HYOGO KEN","city":"AKASHI SHI","town":"TATEISHI","perfecture_jp":"兵庫県","jp_add_1":"明石市","jp_add_2":"立石"},"6730025":{"post_code":"6730025","prefecture":"HYOGO KEN","city":"AKASHI SHI","town":"TAMACHI","perfecture_jp":"兵庫県","jp_add_1":"明石市","jp_add_2":"田町"},"6730898":{"post_code":"6730898","prefecture":"HYOGO KEN","city":"AKASHI SHI","town":"TARUYAMACHI","perfecture_jp":"兵庫県","jp_add_1":"明石市","jp_add_2":"樽屋町"},"6730881":{"post_code":"6730881","prefecture":"HYOGO KEN","city":"AKASHI SHI","town":"TEMMONCHO","perfecture_jp":"兵庫県","jp_add_1":"明石市","jp_add_2":"天文町"},"6730003":{"post_code":"6730003","prefecture":"HYOGO KEN","city":"AKASHI SHI","town":"TOBA","perfecture_jp":"兵庫県","jp_add_1":"明石市","jp_add_2":"鳥羽"},"6730007":{"post_code":"6730007","prefecture":"HYOGO KEN","city":"AKASHI SHI","town":"TOBA NISHITOBA","perfecture_jp":"兵庫県","jp_add_1":"明石市","jp_add_2":"鳥羽西鳥羽"},"6730006":{"post_code":"6730006","prefecture":"HYOGO KEN","city":"AKASHI SHI","town":"TOBA NIHOMMATSU","perfecture_jp":"兵庫県","jp_add_1":"明石市","jp_add_2":"鳥羽二本松"},"6730004":{"post_code":"6730004","prefecture":"HYOGO KEN","city":"AKASHI SHI","town":"TOBA BENZAITEN","perfecture_jp":"兵庫県","jp_add_1":"明石市","jp_add_2":"鳥羽弁財天"},"6730855":{"post_code":"6730855","prefecture":"HYOGO KEN","city":"AKASHI SHI","town":"NAKAASAGIRIOKA","perfecture_jp":"兵庫県","jp_add_1":"明石市","jp_add_2":"中朝霧丘"},"6730883":{"post_code":"6730883","prefecture":"HYOGO KEN","city":"AKASHI SHI","town":"NAKASAKI","perfecture_jp":"兵庫県","jp_add_1":"明石市","jp_add_2":"中崎"},"6730009":{"post_code":"6730009","prefecture":"HYOGO KEN","city":"AKASHI SHI","town":"NISHIAKASHI HIGASHIMACHI","perfecture_jp":"兵庫県","jp_add_1":"明石市","jp_add_2":"西明石東町"},"6730049":{"post_code":"6730049","prefecture":"HYOGO KEN","city":"AKASHI SHI","town":"NISHIAKASHI NISHIMACHI","perfecture_jp":"兵庫県","jp_add_1":"明石市","jp_add_2":"西明石西町"},"6730041":{"post_code":"6730041","prefecture":"HYOGO KEN","city":"AKASHI SHI","town":"NISHIAKASHI MINAMICHO","perfecture_jp":"兵庫県","jp_add_1":"明石市","jp_add_2":"西明石南町"},"6730018":{"post_code":"6730018","prefecture":"HYOGO KEN","city":"AKASHI SHI","town":"NISHIAKASHI KITAMACHI","perfecture_jp":"兵庫県","jp_add_1":"明石市","jp_add_2":"西明石北町"},"6730011":{"post_code":"6730011","prefecture":"HYOGO KEN","city":"AKASHI SHI","town":"NISHIAKASHICHO","perfecture_jp":"兵庫県","jp_add_1":"明石市","jp_add_2":"西明石町"},"6730856":{"post_code":"6730856","prefecture":"HYOGO KEN","city":"AKASHI SHI","town":"NISHIASAGIRIOKA","perfecture_jp":"兵庫県","jp_add_1":"明石市","jp_add_2":"西朝霧丘"},"6730023":{"post_code":"6730023","prefecture":"HYOGO KEN","city":"AKASHI SHI","town":"NISHISHIMMACHI","perfecture_jp":"兵庫県","jp_add_1":"明石市","jp_add_2":"西新町"},"6730842":{"post_code":"6730842","prefecture":"HYOGO KEN","city":"AKASHI SHI","town":"NIYAMACHO","perfecture_jp":"兵庫県","jp_add_1":"明石市","jp_add_2":"荷山町"},"6730017":{"post_code":"6730017","prefecture":"HYOGO KEN","city":"AKASHI SHI","town":"NONOE","perfecture_jp":"兵庫県","jp_add_1":"明石市","jp_add_2":"野々上"},"6730015":{"post_code":"6730015","prefecture":"HYOGO KEN","city":"AKASHI SHI","town":"HANAZONOCHO","perfecture_jp":"兵庫県","jp_add_1":"明石市","jp_add_2":"花園町"},"6730034":{"post_code":"6730034","prefecture":"HYOGO KEN","city":"AKASHI SHI","town":"HAYASHI","perfecture_jp":"兵庫県","jp_add_1":"明石市","jp_add_2":"林"},"6730033":{"post_code":"6730033","prefecture":"HYOGO KEN","city":"AKASHI SHI","town":"HAYASHISAKICHO","perfecture_jp":"兵庫県","jp_add_1":"明石市","jp_add_2":"林崎町"},"6730854":{"post_code":"6730854","prefecture":"HYOGO KEN","city":"AKASHI SHI","town":"HIGASHIASAGIRIOKA","perfecture_jp":"兵庫県","jp_add_1":"明石市","jp_add_2":"東朝霧丘"},"6730886":{"post_code":"6730886","prefecture":"HYOGO KEN","city":"AKASHI SHI","town":"HIGASHINAKANOCHO","perfecture_jp":"兵庫県","jp_add_1":"明石市","jp_add_2":"東仲ノ町"},"6730844":{"post_code":"6730844","prefecture":"HYOGO KEN","city":"AKASHI SHI","town":"HIGASHINOCHO","perfecture_jp":"兵庫県","jp_add_1":"明石市","jp_add_2":"東野町"},"6730876":{"post_code":"6730876","prefecture":"HYOGO KEN","city":"AKASHI SHI","town":"HIGASHIHITOMARUCHO","perfecture_jp":"兵庫県","jp_add_1":"明石市","jp_add_2":"東人丸町"},"6730042":{"post_code":"6730042","prefecture":"HYOGO KEN","city":"AKASHI SHI","town":"HIGASHIFUJIE","perfecture_jp":"兵庫県","jp_add_1":"明石市","jp_add_2":"東藤江"},"6730868":{"post_code":"6730868","prefecture":"HYOGO KEN","city":"AKASHI SHI","town":"HIGASHIYAMACHO","perfecture_jp":"兵庫県","jp_add_1":"明石市","jp_add_2":"東山町"},"6730877":{"post_code":"6730877","prefecture":"HYOGO KEN","city":"AKASHI SHI","town":"HITOMARUCHO","perfecture_jp":"兵庫県","jp_add_1":"明石市","jp_add_2":"人丸町"},"6730896":{"post_code":"6730896","prefecture":"HYOGO KEN","city":"AKASHI SHI","town":"HIFUMICHO","perfecture_jp":"兵庫県","jp_add_1":"明石市","jp_add_2":"日富美町"},"6730044":{"post_code":"6730044","prefecture":"HYOGO KEN","city":"AKASHI SHI","town":"FUJIE","perfecture_jp":"兵庫県","jp_add_1":"明石市","jp_add_2":"藤江"},"6730043":{"post_code":"6730043","prefecture":"HYOGO KEN","city":"AKASHI SHI","town":"FUJIE(KAWAZOE)","perfecture_jp":"兵庫県","jp_add_1":"明石市","jp_add_2":"藤江"},"6730047":{"post_code":"6730047","prefecture":"HYOGO KEN","city":"AKASHI SHI","town":"FUJIE(NAKATANICHO)","perfecture_jp":"兵庫県","jp_add_1":"明石市","jp_add_2":"藤江"},"6730048":{"post_code":"6730048","prefecture":"HYOGO KEN","city":"AKASHI SHI","town":"FUJIE(NAKATANIYAMA)","perfecture_jp":"兵庫県","jp_add_1":"明石市","jp_add_2":"藤江"},"6730045":{"post_code":"6730045","prefecture":"HYOGO KEN","city":"AKASHI SHI","town":"FUJIE(WAKABAYASHI)","perfecture_jp":"兵庫県","jp_add_1":"明石市","jp_add_2":"藤江"},"6730046":{"post_code":"6730046","prefecture":"HYOGO KEN","city":"AKASHI SHI","town":"FUJIGAOKA","perfecture_jp":"兵庫県","jp_add_1":"明石市","jp_add_2":"藤が丘"},"6730026":{"post_code":"6730026","prefecture":"HYOGO KEN","city":"AKASHI SHI","town":"FUNAGECHO","perfecture_jp":"兵庫県","jp_add_1":"明石市","jp_add_2":"船上町"},"6730038":{"post_code":"6730038","prefecture":"HYOGO KEN","city":"AKASHI SHI","town":"BESSHOCHO","perfecture_jp":"兵庫県","jp_add_1":"明石市","jp_add_2":"別所町"},"6730892":{"post_code":"6730892","prefecture":"HYOGO KEN","city":"AKASHI SHI","town":"HOMMACHI","perfecture_jp":"兵庫県","jp_add_1":"明石市","jp_add_2":"本町"},"6730036":{"post_code":"6730036","prefecture":"HYOGO KEN","city":"AKASHI SHI","town":"MATSUE","perfecture_jp":"兵庫県","jp_add_1":"明石市","jp_add_2":"松江"},"6730862":{"post_code":"6730862","prefecture":"HYOGO KEN","city":"AKASHI SHI","town":"MATSUGAOKA","perfecture_jp":"兵庫県","jp_add_1":"明石市","jp_add_2":"松が丘"},"6730861":{"post_code":"6730861","prefecture":"HYOGO KEN","city":"AKASHI SHI","town":"MATSUGAOKA KITAMACHI","perfecture_jp":"兵庫県","jp_add_1":"明石市","jp_add_2":"松が丘北町"},"6730016":{"post_code":"6730016","prefecture":"HYOGO KEN","city":"AKASHI SHI","town":"MATSUNOCHI","perfecture_jp":"兵庫県","jp_add_1":"明石市","jp_add_2":"松の内"},"6730895":{"post_code":"6730895","prefecture":"HYOGO KEN","city":"AKASHI SHI","town":"MISAKICHO","perfecture_jp":"兵庫県","jp_add_1":"明石市","jp_add_2":"岬町"},"6730894":{"post_code":"6730894","prefecture":"HYOGO KEN","city":"AKASHI SHI","town":"MINATOCHO","perfecture_jp":"兵庫県","jp_add_1":"明石市","jp_add_2":"港町"},"6730024":{"post_code":"6730024","prefecture":"HYOGO KEN","city":"AKASHI SHI","town":"MINAMIOJICHO","perfecture_jp":"兵庫県","jp_add_1":"明石市","jp_add_2":"南王子町"},"6730035":{"post_code":"6730035","prefecture":"HYOGO KEN","city":"AKASHI SHI","town":"MINAMIKISAKICHO","perfecture_jp":"兵庫県","jp_add_1":"明石市","jp_add_2":"南貴崎町"},"6730031":{"post_code":"6730031","prefecture":"HYOGO KEN","city":"AKASHI SHI","town":"MIYANOE","perfecture_jp":"兵庫県","jp_add_1":"明石市","jp_add_2":"宮の上"},"6730001":{"post_code":"6730001","prefecture":"HYOGO KEN","city":"AKASHI SHI","town":"MEINANCHO","perfecture_jp":"兵庫県","jp_add_1":"明石市","jp_add_2":"明南町"},"6730878":{"post_code":"6730878","prefecture":"HYOGO KEN","city":"AKASHI SHI","town":"YAMASHITACHO","perfecture_jp":"兵庫県","jp_add_1":"明石市","jp_add_2":"山下町"},"6730013":{"post_code":"6730013","prefecture":"HYOGO KEN","city":"AKASHI SHI","town":"WASAKAINARICHO","perfecture_jp":"兵庫県","jp_add_1":"明石市","jp_add_2":"和坂稲荷町"},"6730400":{"post_code":"6730400","prefecture":"HYOGO KEN","city":"MIKI SHI","town":"IKANIKEISAIGANAIBAAI","perfecture_jp":"兵庫県","jp_add_1":"三木市","jp_add_2":""},"6730401":{"post_code":"6730401","prefecture":"HYOGO KEN","city":"MIKI SHI","town":"ATOBE","perfecture_jp":"兵庫県","jp_add_1":"三木市","jp_add_2":"跡部"},"6730412":{"post_code":"6730412","prefecture":"HYOGO KEN","city":"MIKI SHI","town":"IWAMIYA","perfecture_jp":"兵庫県","jp_add_1":"三木市","jp_add_2":"岩宮"},"6730432":{"post_code":"6730432","prefecture":"HYOGO KEN","city":"MIKI SHI","town":"UENOMARUCHO","perfecture_jp":"兵庫県","jp_add_1":"三木市","jp_add_2":"上の丸町"},"6730413":{"post_code":"6730413","prefecture":"HYOGO KEN","city":"MIKI SHI","town":"OTSUKA","perfecture_jp":"兵庫県","jp_add_1":"三木市","jp_add_2":"大塚"},"6730404":{"post_code":"6730404","prefecture":"HYOGO KEN","city":"MIKI SHI","town":"OMURA","perfecture_jp":"兵庫県","jp_add_1":"三木市","jp_add_2":"大村"},"6730402":{"post_code":"6730402","prefecture":"HYOGO KEN","city":"MIKI SHI","town":"KASA","perfecture_jp":"兵庫県","jp_add_1":"三木市","jp_add_2":"加佐"},"6730723":{"post_code":"6730723","prefecture":"HYOGO KEN","city":"MIKI SHI","town":"KASASOKANO","perfecture_jp":"兵庫県","jp_add_1":"三木市","jp_add_2":"加佐草荷野"},"6730425":{"post_code":"6730425","prefecture":"HYOGO KEN","city":"MIKI SHI","town":"KIMIGAMINECHO","perfecture_jp":"兵庫県","jp_add_1":"三木市","jp_add_2":"君が峰町"},"6730755":{"post_code":"6730755","prefecture":"HYOGO KEN","city":"MIKI SHI","town":"KUCHIYOKAWACHO OSHIMA","perfecture_jp":"兵庫県","jp_add_1":"三木市","jp_add_2":"口吉川町大島"},"6730752":{"post_code":"6730752","prefecture":"HYOGO KEN","city":"MIKI SHI","town":"KUCHIYOKAWACHO KITSUSHOJI","perfecture_jp":"兵庫県","jp_add_1":"三木市","jp_add_2":"口吉川町吉祥寺"},"6730743":{"post_code":"6730743","prefecture":"HYOGO KEN","city":"MIKI SHI","town":"KUCHIYOKAWACHO KUNUGIHARA","perfecture_jp":"兵庫県","jp_add_1":"三木市","jp_add_2":"口吉川町桾原"},"6730757":{"post_code":"6730757","prefecture":"HYOGO KEN","city":"MIKI SHI","town":"KUCHIYOKAWACHO SASAHARA","perfecture_jp":"兵庫県","jp_add_1":"三木市","jp_add_2":"口吉川町笹原"},"6730751":{"post_code":"6730751","prefecture":"HYOGO KEN","city":"MIKI SHI","town":"KUCHIYOKAWACHO SATOWAKI","perfecture_jp":"兵庫県","jp_add_1":"三木市","jp_add_2":"口吉川町里脇"},"6730754":{"post_code":"6730754","prefecture":"HYOGO KEN","city":"MIKI SHI","town":"KUCHIYOKAWACHO ZENSHOJI","perfecture_jp":"兵庫県","jp_add_1":"三木市","jp_add_2":"口吉川町善祥寺"},"6730741":{"post_code":"6730741","prefecture":"HYOGO KEN","city":"MIKI SHI","town":"KUCHIYOKAWACHO TONOHATA","perfecture_jp":"兵庫県","jp_add_1":"三木市","jp_add_2":"口吉川町殿畑"},"6730735":{"post_code":"6730735","prefecture":"HYOGO KEN","city":"MIKI SHI","town":"KUCHIYOKAWACHO NISHINAKA","perfecture_jp":"兵庫県","jp_add_1":"三木市","jp_add_2":"口吉川町西中"},"6730732":{"post_code":"6730732","prefecture":"HYOGO KEN","city":"MIKI SHI","town":"KUCHIYOKAWACHO BABA","perfecture_jp":"兵庫県","jp_add_1":"三木市","jp_add_2":"口吉川町馬場"},"6730731":{"post_code":"6730731","prefecture":"HYOGO KEN","city":"MIKI SHI","town":"KUCHIYOKAWACHO HIGASHINAKA","perfecture_jp":"兵庫県","jp_add_1":"三木市","jp_add_2":"口吉川町東中"},"6730758":{"post_code":"6730758","prefecture":"HYOGO KEN","city":"MIKI SHI","town":"KUCHIYOKAWACHO HISATSUGU","perfecture_jp":"兵庫県","jp_add_1":"三木市","jp_add_2":"口吉川町久次"},"6730742":{"post_code":"6730742","prefecture":"HYOGO KEN","city":"MIKI SHI","town":"KUCHIYOKAWACHO HOKI","perfecture_jp":"兵庫県","jp_add_1":"三木市","jp_add_2":"口吉川町保木"},"6730753":{"post_code":"6730753","prefecture":"HYOGO KEN","city":"MIKI SHI","town":"KUCHIYOKAWACHO MAKI","perfecture_jp":"兵庫県","jp_add_1":"三木市","jp_add_2":"口吉川町槇"},"6730756":{"post_code":"6730756","prefecture":"HYOGO KEN","city":"MIKI SHI","town":"KUCHIYOKAWACHO MINAMIBATA","perfecture_jp":"兵庫県","jp_add_1":"三木市","jp_add_2":"口吉川町南畑"},"6730736":{"post_code":"6730736","prefecture":"HYOGO KEN","city":"MIKI SHI","town":"KUCHIYOKAWACHO MOMOZAKA","perfecture_jp":"兵庫県","jp_add_1":"三木市","jp_add_2":"口吉川町桃坂"},"6730734":{"post_code":"6730734","prefecture":"HYOGO KEN","city":"MIKI SHI","town":"KUCHIYOKAWACHO RENGEJI","perfecture_jp":"兵庫県","jp_add_1":"三木市","jp_add_2":"口吉川町蓮花寺"},"6730733":{"post_code":"6730733","prefecture":"HYOGO KEN","city":"MIKI SHI","town":"KUCHIYOKAWACHO HIGASHI","perfecture_jp":"兵庫県","jp_add_1":"三木市","jp_add_2":"口吉川町東"},"6730411":{"post_code":"6730411","prefecture":"HYOGO KEN","city":"MIKI SHI","town":"KURUMI","perfecture_jp":"兵庫県","jp_add_1":"三木市","jp_add_2":"久留美"},"6730436":{"post_code":"6730436","prefecture":"HYOGO KEN","city":"MIKI SHI","town":"SATSUKIDAI","perfecture_jp":"兵庫県","jp_add_1":"三木市","jp_add_2":"さつき台"},"6730521":{"post_code":"6730521","prefecture":"HYOGO KEN","city":"MIKI SHI","town":"SHIJIMICHO AOYAMA","perfecture_jp":"兵庫県","jp_add_1":"三木市","jp_add_2":"志染町青山"},"6730502":{"post_code":"6730502","prefecture":"HYOGO KEN","city":"MIKI SHI","town":"SHIJIMICHO ABUTA","perfecture_jp":"兵庫県","jp_add_1":"三木市","jp_add_2":"志染町安福田"},"6730512":{"post_code":"6730512","prefecture":"HYOGO KEN","city":"MIKI SHI","town":"SHIJIMICHO INOE","perfecture_jp":"兵庫県","jp_add_1":"三木市","jp_add_2":"志染町井上"},"6730503":{"post_code":"6730503","prefecture":"HYOGO KEN","city":"MIKI SHI","town":"SHIJIMICHO IWAYA","perfecture_jp":"兵庫県","jp_add_1":"三木市","jp_add_2":"志染町窟屋"},"6730513":{"post_code":"6730513","prefecture":"HYOGO KEN","city":"MIKI SHI","town":"SHIJIMICHO OTANI","perfecture_jp":"兵庫県","jp_add_1":"三木市","jp_add_2":"志染町大谷"},"6730504":{"post_code":"6730504","prefecture":"HYOGO KEN","city":"MIKI SHI","town":"SHIJIMICHO KONANJI","perfecture_jp":"兵庫県","jp_add_1":"三木市","jp_add_2":"志染町高男寺"},"6730506":{"post_code":"6730506","prefecture":"HYOGO KEN","city":"MIKI SHI","town":"SHIJIMICHO SHIGODANI","perfecture_jp":"兵庫県","jp_add_1":"三木市","jp_add_2":"志染町四合谷"},"6730511":{"post_code":"6730511","prefecture":"HYOGO KEN","city":"MIKI SHI","town":"SHIJIMICHO SHIJIMINAKA","perfecture_jp":"兵庫県","jp_add_1":"三木市","jp_add_2":"志染町志染中"},"6730514":{"post_code":"6730514","prefecture":"HYOGO KEN","city":"MIKI SHI","town":"SHIJIMICHO TODA","perfecture_jp":"兵庫県","jp_add_1":"三木市","jp_add_2":"志染町戸田"},"6730552":{"post_code":"6730552","prefecture":"HYOGO KEN","city":"MIKI SHI","town":"SHIJIMICHO NAKAJIYUGAOKA","perfecture_jp":"兵庫県","jp_add_1":"三木市","jp_add_2":"志染町中自由が丘"},"6730553":{"post_code":"6730553","prefecture":"HYOGO KEN","city":"MIKI SHI","town":"SHIJIMICHO HIGASHIJIYUGAOKA","perfecture_jp":"兵庫県","jp_add_1":"三木市","jp_add_2":"志染町東自由が丘"},"6730551":{"post_code":"6730551","prefecture":"HYOGO KEN","city":"MIKI SHI","town":"SHIJIMICHO NISHIJIYUGAOKA","perfecture_jp":"兵庫県","jp_add_1":"三木市","jp_add_2":"志染町西自由が丘"},"6730541":{"post_code":"6730541","prefecture":"HYOGO KEN","city":"MIKI SHI","town":"SHIJIMICHO HIRONO","perfecture_jp":"兵庫県","jp_add_1":"三木市","jp_add_2":"志染町広野"},"6730505":{"post_code":"6730505","prefecture":"HYOGO KEN","city":"MIKI SHI","town":"SHIJIMICHO HOSOME","perfecture_jp":"兵庫県","jp_add_1":"三木市","jp_add_2":"志染町細目"},"6730516":{"post_code":"6730516","prefecture":"HYOGO KEN","city":"MIKI SHI","town":"SHIJIMICHO MISAKA","perfecture_jp":"兵庫県","jp_add_1":"三木市","jp_add_2":"志染町御坂"},"6730515":{"post_code":"6730515","prefecture":"HYOGO KEN","city":"MIKI SHI","town":"SHIJIMICHO MITSUDA","perfecture_jp":"兵庫県","jp_add_1":"三木市","jp_add_2":"志染町三津田"},"6730501":{"post_code":"6730501","prefecture":"HYOGO KEN","city":"MIKI SHI","town":"SHIJIMICHO YOSHIDA","perfecture_jp":"兵庫県","jp_add_1":"三木市","jp_add_2":"志染町吉田"},"6730414":{"post_code":"6730414","prefecture":"HYOGO KEN","city":"MIKI SHI","town":"SHIBAMACHI","perfecture_jp":"兵庫県","jp_add_1":"三木市","jp_add_2":"芝町"},"6730424":{"post_code":"6730424","prefecture":"HYOGO KEN","city":"MIKI SHI","town":"JIYUGAOKAHOMMACHI","perfecture_jp":"兵庫県","jp_add_1":"三木市","jp_add_2":"自由が丘本町"},"6730423":{"post_code":"6730423","prefecture":"HYOGO KEN","city":"MIKI SHI","town":"SHUKUHARA","perfecture_jp":"兵庫県","jp_add_1":"三木市","jp_add_2":"宿原"},"6730403":{"post_code":"6730403","prefecture":"HYOGO KEN","city":"MIKI SHI","town":"SUEHIRO","perfecture_jp":"兵庫県","jp_add_1":"三木市","jp_add_2":"末広"},"6730456":{"post_code":"6730456","prefecture":"HYOGO KEN","city":"MIKI SHI","town":"TORIMACHI","perfecture_jp":"兵庫県","jp_add_1":"三木市","jp_add_2":"鳥町"},"6730421":{"post_code":"6730421","prefecture":"HYOGO KEN","city":"MIKI SHI","town":"HIRAI","perfecture_jp":"兵庫県","jp_add_1":"三木市","jp_add_2":"平井"},"6730405":{"post_code":"6730405","prefecture":"HYOGO KEN","city":"MIKI SHI","town":"HIRATA","perfecture_jp":"兵庫県","jp_add_1":"三木市","jp_add_2":"平田"},"6730433":{"post_code":"6730433","prefecture":"HYOGO KEN","city":"MIKI SHI","town":"FUKUI","perfecture_jp":"兵庫県","jp_add_1":"三木市","jp_add_2":"福井"},"6730415":{"post_code":"6730415","prefecture":"HYOGO KEN","city":"MIKI SHI","town":"FUNAI","perfecture_jp":"兵庫県","jp_add_1":"三木市","jp_add_2":"府内"},"6730441":{"post_code":"6730441","prefecture":"HYOGO KEN","city":"MIKI SHI","town":"BESSHOCHO ASAHIGAOKA","perfecture_jp":"兵庫県","jp_add_1":"三木市","jp_add_2":"別所町朝日ケ丘"},"6730452":{"post_code":"6730452","prefecture":"HYOGO KEN","city":"MIKI SHI","town":"BESSHOCHO ISHINO","perfecture_jp":"兵庫県","jp_add_1":"三木市","jp_add_2":"別所町石野"},"6730442":{"post_code":"6730442","prefecture":"HYOGO KEN","city":"MIKI SHI","town":"BESSHOCHO OKIHARU","perfecture_jp":"兵庫県","jp_add_1":"三木市","jp_add_2":"別所町興治"},"6730434":{"post_code":"6730434","prefecture":"HYOGO KEN","city":"MIKI SHI","town":"BESSHOCHO KOBAYASHI","perfecture_jp":"兵庫県","jp_add_1":"三木市","jp_add_2":"別所町小林"},"6730451":{"post_code":"6730451","prefecture":"HYOGO KEN","city":"MIKI SHI","town":"BESSHOCHO KONDO","perfecture_jp":"兵庫県","jp_add_1":"三木市","jp_add_2":"別所町近藤"},"6730453":{"post_code":"6730453","prefecture":"HYOGO KEN","city":"MIKI SHI","town":"BESSHOCHO SHIMOISHINO","perfecture_jp":"兵庫県","jp_add_1":"三木市","jp_add_2":"別所町下石野"},"6730454":{"post_code":"6730454","prefecture":"HYOGO KEN","city":"MIKI SHI","town":"BESSHOCHO SHOBOJI","perfecture_jp":"兵庫県","jp_add_1":"三木市","jp_add_2":"別所町正法寺"},"6730435":{"post_code":"6730435","prefecture":"HYOGO KEN","city":"MIKI SHI","town":"BESSHOCHO TAKAGI","perfecture_jp":"兵庫県","jp_add_1":"三木市","jp_add_2":"別所町高木"},"6730443":{"post_code":"6730443","prefecture":"HYOGO KEN","city":"MIKI SHI","town":"BESSHOCHO TOMOE","perfecture_jp":"兵庫県","jp_add_1":"三木市","jp_add_2":"別所町巴"},"6730446":{"post_code":"6730446","prefecture":"HYOGO KEN","city":"MIKI SHI","town":"BESSHOCHO HANAJIRI","perfecture_jp":"兵庫県","jp_add_1":"三木市","jp_add_2":"別所町花尻"},"6730444":{"post_code":"6730444","prefecture":"HYOGO KEN","city":"MIKI SHI","town":"BESSHOCHO HIGASHIHODA","perfecture_jp":"兵庫県","jp_add_1":"三木市","jp_add_2":"別所町東這田"},"6730445":{"post_code":"6730445","prefecture":"HYOGO KEN","city":"MIKI SHI","town":"BESSHOCHO NISHIHODA","perfecture_jp":"兵庫県","jp_add_1":"三木市","jp_add_2":"別所町西這田"},"6730455":{"post_code":"6730455","prefecture":"HYOGO KEN","city":"MIKI SHI","town":"BESSHOCHO WADA","perfecture_jp":"兵庫県","jp_add_1":"三木市","jp_add_2":"別所町和田"},"6730711":{"post_code":"6730711","prefecture":"HYOGO KEN","city":"MIKI SHI","town":"HOSOKAWACHO KANAYA","perfecture_jp":"兵庫県","jp_add_1":"三木市","jp_add_2":"細川町金屋"},"6730721":{"post_code":"6730721","prefecture":"HYOGO KEN","city":"MIKI SHI","town":"HOSOKAWACHO TAKASHINO","perfecture_jp":"兵庫県","jp_add_1":"三木市","jp_add_2":"細川町高篠"},"6730724":{"post_code":"6730724","prefecture":"HYOGO KEN","city":"MIKI SHI","town":"HOSOKAWACHO TAKAHATA","perfecture_jp":"兵庫県","jp_add_1":"三木市","jp_add_2":"細川町高畑"},"6730703":{"post_code":"6730703","prefecture":"HYOGO KEN","city":"MIKI SHI","town":"HOSOKAWACHO TARUHO","perfecture_jp":"兵庫県","jp_add_1":"三木市","jp_add_2":"細川町垂穂"},"6730713":{"post_code":"6730713","prefecture":"HYOGO KEN","city":"MIKI SHI","town":"HOSOKAWACHO TOYOCHI","perfecture_jp":"兵庫県","jp_add_1":"三木市","jp_add_2":"細川町豊地"},"6730702":{"post_code":"6730702","prefecture":"HYOGO KEN","city":"MIKI SHI","town":"HOSOKAWACHO NAKAZATO","perfecture_jp":"兵庫県","jp_add_1":"三木市","jp_add_2":"細川町中里"},"6730714":{"post_code":"6730714","prefecture":"HYOGO KEN","city":"MIKI SHI","town":"HOSOKAWACHO HOSOKAWANAKA","perfecture_jp":"兵庫県","jp_add_1":"三木市","jp_add_2":"細川町細川中"},"6730704":{"post_code":"6730704","prefecture":"HYOGO KEN","city":"MIKI SHI","town":"HOSOKAWACHO MASUDA","perfecture_jp":"兵庫県","jp_add_1":"三木市","jp_add_2":"細川町増田"},"6730701":{"post_code":"6730701","prefecture":"HYOGO KEN","city":"MIKI SHI","town":"HOSOKAWACHO MIZUHO","perfecture_jp":"兵庫県","jp_add_1":"三木市","jp_add_2":"細川町瑞穂"},"6730712":{"post_code":"6730712","prefecture":"HYOGO KEN","city":"MIKI SHI","town":"HOSOKAWACHO MOMOZU","perfecture_jp":"兵庫県","jp_add_1":"三木市","jp_add_2":"細川町桃津"},"6730722":{"post_code":"6730722","prefecture":"HYOGO KEN","city":"MIKI SHI","town":"HOSOKAWACHO WAKIGAWA","perfecture_jp":"兵庫県","jp_add_1":"三木市","jp_add_2":"細川町脇川"},"6730715":{"post_code":"6730715","prefecture":"HYOGO KEN","city":"MIKI SHI","town":"HOSOKAWACHO NISHI","perfecture_jp":"兵庫県","jp_add_1":"三木市","jp_add_2":"細川町西"},"6730431":{"post_code":"6730431","prefecture":"HYOGO KEN","city":"MIKI SHI","town":"HOMMACHI","perfecture_jp":"兵庫県","jp_add_1":"三木市","jp_add_2":"本町"},"6730532":{"post_code":"6730532","prefecture":"HYOGO KEN","city":"MIKI SHI","town":"MIDORIGAOKACHO NAKA","perfecture_jp":"兵庫県","jp_add_1":"三木市","jp_add_2":"緑が丘町中"},"6730534":{"post_code":"6730534","prefecture":"HYOGO KEN","city":"MIKI SHI","town":"MIDORIGAOKACHO HOMMACHI","perfecture_jp":"兵庫県","jp_add_1":"三木市","jp_add_2":"緑が丘町本町"},"6730533":{"post_code":"6730533","prefecture":"HYOGO KEN","city":"MIKI SHI","town":"MIDORIGAOKACHO HIGASHI","perfecture_jp":"兵庫県","jp_add_1":"三木市","jp_add_2":"緑が丘町東"},"6730531":{"post_code":"6730531","prefecture":"HYOGO KEN","city":"MIKI SHI","town":"MIDORIGAOKACHO NISHI","perfecture_jp":"兵庫県","jp_add_1":"三木市","jp_add_2":"緑が丘町西"},"6731107":{"post_code":"6731107","prefecture":"HYOGO KEN","city":"MIKI SHI","town":"YOKAWACHO ARIYASU","perfecture_jp":"兵庫県","jp_add_1":"三木市","jp_add_2":"吉川町有安"},"6731235":{"post_code":"6731235","prefecture":"HYOGO KEN","city":"MIKI SHI","town":"YOKAWACHO ICHINOSE","perfecture_jp":"兵庫県","jp_add_1":"三木市","jp_add_2":"吉川町市野瀬"},"6731231":{"post_code":"6731231","prefecture":"HYOGO KEN","city":"MIKI SHI","town":"YOKAWACHO INADA","perfecture_jp":"兵庫県","jp_add_1":"三木市","jp_add_2":"吉川町稲田"},"6731126":{"post_code":"6731126","prefecture":"HYOGO KEN","city":"MIKI SHI","town":"YOKAWACHO UEMATSU","perfecture_jp":"兵庫県","jp_add_1":"三木市","jp_add_2":"吉川町上松"},"6731115":{"post_code":"6731115","prefecture":"HYOGO KEN","city":"MIKI SHI","town":"YOKAWACHO OSO","perfecture_jp":"兵庫県","jp_add_1":"三木市","jp_add_2":"吉川町大沢"},"6731116":{"post_code":"6731116","prefecture":"HYOGO KEN","city":"MIKI SHI","town":"YOKAWACHO OHATA","perfecture_jp":"兵庫県","jp_add_1":"三木市","jp_add_2":"吉川町大畑"},"6731242":{"post_code":"6731242","prefecture":"HYOGO KEN","city":"MIKI SHI","town":"YOKAWACHO OKUDANI","perfecture_jp":"兵庫県","jp_add_1":"三木市","jp_add_2":"吉川町奥谷"},"6731118":{"post_code":"6731118","prefecture":"HYOGO KEN","city":"MIKI SHI","town":"YOKAWACHO KASHIO","perfecture_jp":"兵庫県","jp_add_1":"三木市","jp_add_2":"吉川町貸潮"},"6731119":{"post_code":"6731119","prefecture":"HYOGO KEN","city":"MIKI SHI","town":"YOKAWACHO KAJIYA","perfecture_jp":"兵庫県","jp_add_1":"三木市","jp_add_2":"吉川町鍛治屋"},"6731111":{"post_code":"6731111","prefecture":"HYOGO KEN","city":"MIKI SHI","town":"YOKAWACHO KAMIARAKAWA","perfecture_jp":"兵庫県","jp_add_1":"三木市","jp_add_2":"吉川町上荒川"},"6731104":{"post_code":"6731104","prefecture":"HYOGO KEN","city":"MIKI SHI","town":"YOKAWACHO KAMINAKA","perfecture_jp":"兵庫県","jp_add_1":"三木市","jp_add_2":"吉川町上中"},"6731114":{"post_code":"6731114","prefecture":"HYOGO KEN","city":"MIKI SHI","town":"YOKAWACHO KICHIYASU","perfecture_jp":"兵庫県","jp_add_1":"三木市","jp_add_2":"吉川町吉安"},"6731232":{"post_code":"6731232","prefecture":"HYOGO KEN","city":"MIKI SHI","town":"YOKAWACHO KINKAI","perfecture_jp":"兵庫県","jp_add_1":"三木市","jp_add_2":"吉川町金会"},"6731241":{"post_code":"6731241","prefecture":"HYOGO KEN","city":"MIKI SHI","town":"YOKAWACHO KUSUHARA","perfecture_jp":"兵庫県","jp_add_1":"三木市","jp_add_2":"吉川町楠原"},"6731106":{"post_code":"6731106","prefecture":"HYOGO KEN","city":"MIKI SHI","town":"YOKAWACHO JITSURAKU","perfecture_jp":"兵庫県","jp_add_1":"三木市","jp_add_2":"吉川町実楽"},"6731125":{"post_code":"6731125","prefecture":"HYOGO KEN","city":"MIKI SHI","town":"YOKAWACHO TAYA","perfecture_jp":"兵庫県","jp_add_1":"三木市","jp_add_2":"吉川町田谷"},"6731102":{"post_code":"6731102","prefecture":"HYOGO KEN","city":"MIKI SHI","town":"YOKAWACHO TOMIOKA","perfecture_jp":"兵庫県","jp_add_1":"三木市","jp_add_2":"吉川町冨岡"},"6731243":{"post_code":"6731243","prefecture":"HYOGO KEN","city":"MIKI SHI","town":"YOKAWACHO TOYOKA","perfecture_jp":"兵庫県","jp_add_1":"三木市","jp_add_2":"吉川町豊岡"},"6731127":{"post_code":"6731127","prefecture":"HYOGO KEN","city":"MIKI SHI","town":"YOKAWACHO NAGATANI","perfecture_jp":"兵庫県","jp_add_1":"三木市","jp_add_2":"吉川町長谷"},"6731122":{"post_code":"6731122","prefecture":"HYOGO KEN","city":"MIKI SHI","town":"YOKAWACHO NISHIOKU","perfecture_jp":"兵庫県","jp_add_1":"三木市","jp_add_2":"吉川町西奥"},"6731101":{"post_code":"6731101","prefecture":"HYOGO KEN","city":"MIKI SHI","town":"YOKAWACHO NITTA","perfecture_jp":"兵庫県","jp_add_1":"三木市","jp_add_2":"吉川町新田"},"6731112":{"post_code":"6731112","prefecture":"HYOGO KEN","city":"MIKI SHI","town":"YOKAWACHO HATAEDA","perfecture_jp":"兵庫県","jp_add_1":"三木市","jp_add_2":"吉川町畑枝"},"6731236":{"post_code":"6731236","prefecture":"HYOGO KEN","city":"MIKI SHI","town":"YOKAWACHO HIGASHIDA","perfecture_jp":"兵庫県","jp_add_1":"三木市","jp_add_2":"吉川町東田"},"6731233":{"post_code":"6731233","prefecture":"HYOGO KEN","city":"MIKI SHI","town":"YOKAWACHO BISHAMON","perfecture_jp":"兵庫県","jp_add_1":"三木市","jp_add_2":"吉川町毘沙門"},"6731113":{"post_code":"6731113","prefecture":"HYOGO KEN","city":"MIKI SHI","town":"YOKAWACHO FUKUI","perfecture_jp":"兵庫県","jp_add_1":"三木市","jp_add_2":"吉川町福井"},"6731234":{"post_code":"6731234","prefecture":"HYOGO KEN","city":"MIKI SHI","town":"YOKAWACHO FUKUYOSHI","perfecture_jp":"兵庫県","jp_add_1":"三木市","jp_add_2":"吉川町福吉"},"6731108":{"post_code":"6731108","prefecture":"HYOGO KEN","city":"MIKI SHI","town":"YOKAWACHO FURUICHI","perfecture_jp":"兵庫県","jp_add_1":"三木市","jp_add_2":"吉川町古市"},"6731105":{"post_code":"6731105","prefecture":"HYOGO KEN","city":"MIKI SHI","town":"YOKAWACHO FURUKAWA","perfecture_jp":"兵庫県","jp_add_1":"三木市","jp_add_2":"吉川町古川"},"6731124":{"post_code":"6731124","prefecture":"HYOGO KEN","city":"MIKI SHI","town":"YOKAWACHO HOKOJI","perfecture_jp":"兵庫県","jp_add_1":"三木市","jp_add_2":"吉川町法光寺"},"6731103":{"post_code":"6731103","prefecture":"HYOGO KEN","city":"MIKI SHI","town":"YOKAWACHO MAEDA","perfecture_jp":"兵庫県","jp_add_1":"三木市","jp_add_2":"吉川町前田"},"6731244":{"post_code":"6731244","prefecture":"HYOGO KEN","city":"MIKI SHI","town":"YOKAWACHO MIZUKAMI","perfecture_jp":"兵庫県","jp_add_1":"三木市","jp_add_2":"吉川町水上"},"6731117":{"post_code":"6731117","prefecture":"HYOGO KEN","city":"MIKI SHI","town":"YOKAWACHO MINAGIDAI","perfecture_jp":"兵庫県","jp_add_1":"三木市","jp_add_2":"吉川町みなぎ台"},"6731128":{"post_code":"6731128","prefecture":"HYOGO KEN","city":"MIKI SHI","town":"YOKAWACHO YAMANOE","perfecture_jp":"兵庫県","jp_add_1":"三木市","jp_add_2":"吉川町山上"},"6731123":{"post_code":"6731123","prefecture":"HYOGO KEN","city":"MIKI SHI","town":"YOKAWACHO YUDANI","perfecture_jp":"兵庫県","jp_add_1":"三木市","jp_add_2":"吉川町湯谷"},"6731121":{"post_code":"6731121","prefecture":"HYOGO KEN","city":"MIKI SHI","town":"YOKAWACHO YONEDA","perfecture_jp":"兵庫県","jp_add_1":"三木市","jp_add_2":"吉川町米田"},"6731129":{"post_code":"6731129","prefecture":"HYOGO KEN","city":"MIKI SHI","town":"YOKAWACHO WATASE","perfecture_jp":"兵庫県","jp_add_1":"三木市","jp_add_2":"吉川町渡瀬"},"6730422":{"post_code":"6730422","prefecture":"HYOGO KEN","city":"MIKI SHI","town":"YOROKI","perfecture_jp":"兵庫県","jp_add_1":"三木市","jp_add_2":"与呂木"},"6731400":{"post_code":"6731400","prefecture":"HYOGO KEN","city":"KATO SHI","town":"IKANIKEISAIGANAIBAAI","perfecture_jp":"兵庫県","jp_add_1":"加東市","jp_add_2":""},"6731302":{"post_code":"6731302","prefecture":"HYOGO KEN","city":"KATO SHI","town":"AKITSU","perfecture_jp":"兵庫県","jp_add_1":"加東市","jp_add_2":"秋津"},"6731338":{"post_code":"6731338","prefecture":"HYOGO KEN","city":"KATO SHI","town":"ATSUTOSHI","perfecture_jp":"兵庫県","jp_add_1":"加東市","jp_add_2":"厚利"},"6731451":{"post_code":"6731451","prefecture":"HYOGO KEN","city":"KATO SHI","town":"IEHARA","perfecture_jp":"兵庫県","jp_add_1":"加東市","jp_add_2":"家原"},"6731413":{"post_code":"6731413","prefecture":"HYOGO KEN","city":"KATO SHI","town":"IKENOCHI","perfecture_jp":"兵庫県","jp_add_1":"加東市","jp_add_2":"池之内"},"6731442":{"post_code":"6731442","prefecture":"HYOGO KEN","city":"KATO SHI","town":"IZUMI","perfecture_jp":"兵庫県","jp_add_1":"加東市","jp_add_2":"出水"},"6731321":{"post_code":"6731321","prefecture":"HYOGO KEN","city":"KATO SHI","town":"IWAYA","perfecture_jp":"兵庫県","jp_add_1":"加東市","jp_add_2":"岩屋"},"6731446":{"post_code":"6731446","prefecture":"HYOGO KEN","city":"KATO SHI","town":"UEDA","perfecture_jp":"兵庫県","jp_add_1":"加東市","jp_add_2":"上田"},"6731404":{"post_code":"6731404","prefecture":"HYOGO KEN","city":"KATO SHI","town":"UMAZE","perfecture_jp":"兵庫県","jp_add_1":"加東市","jp_add_2":"馬瀬"},"6731313":{"post_code":"6731313","prefecture":"HYOGO KEN","city":"KATO SHI","town":"EIFUKU","perfecture_jp":"兵庫県","jp_add_1":"加東市","jp_add_2":"永福"},"6731325":{"post_code":"6731325","prefecture":"HYOGO KEN","city":"KATO SHI","town":"OHATA","perfecture_jp":"兵庫県","jp_add_1":"加東市","jp_add_2":"大畑"},"6731323":{"post_code":"6731323","prefecture":"HYOGO KEN","city":"KATO SHI","town":"OKAMOTO","perfecture_jp":"兵庫県","jp_add_1":"加東市","jp_add_2":"岡本"},"6731333":{"post_code":"6731333","prefecture":"HYOGO KEN","city":"KATO SHI","town":"OZAWA","perfecture_jp":"兵庫県","jp_add_1":"加東市","jp_add_2":"小沢"},"6731453":{"post_code":"6731453","prefecture":"HYOGO KEN","city":"KATO SHI","town":"KAIHARA","perfecture_jp":"兵庫県","jp_add_1":"加東市","jp_add_2":"貝原"},"6731463":{"post_code":"6731463","prefecture":"HYOGO KEN","city":"KATO SHI","town":"KAJIWARA","perfecture_jp":"兵庫県","jp_add_1":"加東市","jp_add_2":"梶原"},"6731401":{"post_code":"6731401","prefecture":"HYOGO KEN","city":"KATO SHI","town":"KAMIKAMOGAWA","perfecture_jp":"兵庫県","jp_add_1":"加東市","jp_add_2":"上鴨川"},"6731414":{"post_code":"6731414","prefecture":"HYOGO KEN","city":"KATO SHI","town":"KAMIKUME","perfecture_jp":"兵庫県","jp_add_1":"加東市","jp_add_2":"上久米"},"6731464":{"post_code":"6731464","prefecture":"HYOGO KEN","city":"KATO SHI","town":"KAMINAKA","perfecture_jp":"兵庫県","jp_add_1":"加東市","jp_add_2":"上中"},"6731472":{"post_code":"6731472","prefecture":"HYOGO KEN","city":"KATO SHI","town":"KAMIMIKUSA","perfecture_jp":"兵庫県","jp_add_1":"加東市","jp_add_2":"上三草"},"6731465":{"post_code":"6731465","prefecture":"HYOGO KEN","city":"KATO SHI","town":"KITA","perfecture_jp":"兵庫県","jp_add_1":"加東市","jp_add_2":"喜田"},"6731461":{"post_code":"6731461","prefecture":"HYOGO KEN","city":"KATO SHI","town":"KINASHI","perfecture_jp":"兵庫県","jp_add_1":"加東市","jp_add_2":"木梨"},"6731456":{"post_code":"6731456","prefecture":"HYOGO KEN","city":"KATO SHI","town":"KUBOTA","perfecture_jp":"兵庫県","jp_add_1":"加東市","jp_add_2":"窪田"},"6731416":{"post_code":"6731416","prefecture":"HYOGO KEN","city":"KATO SHI","town":"KUME","perfecture_jp":"兵庫県","jp_add_1":"加東市","jp_add_2":"久米"},"6731301":{"post_code":"6731301","prefecture":"HYOGO KEN","city":"KATO SHI","town":"KURODANI","perfecture_jp":"兵庫県","jp_add_1":"加東市","jp_add_2":"黒谷"},"6731332":{"post_code":"6731332","prefecture":"HYOGO KEN","city":"KATO SHI","town":"SAKAE","perfecture_jp":"兵庫県","jp_add_1":"加東市","jp_add_2":"栄枝"},"6731447":{"post_code":"6731447","prefecture":"HYOGO KEN","city":"KATO SHI","town":"SAHO","perfecture_jp":"兵庫県","jp_add_1":"加東市","jp_add_2":"佐保"},"6731444":{"post_code":"6731444","prefecture":"HYOGO KEN","city":"KATO SHI","town":"SAWABE","perfecture_jp":"兵庫県","jp_add_1":"加東市","jp_add_2":"沢部"},"6731403":{"post_code":"6731403","prefecture":"HYOGO KEN","city":"KATO SHI","town":"SHIMOKAMOGAWA","perfecture_jp":"兵庫県","jp_add_1":"加東市","jp_add_2":"下鴨川"},"6731415":{"post_code":"6731415","prefecture":"HYOGO KEN","city":"KATO SHI","town":"SHIMOKUME","perfecture_jp":"兵庫県","jp_add_1":"加東市","jp_add_2":"下久米"},"6731473":{"post_code":"6731473","prefecture":"HYOGO KEN","city":"KATO SHI","town":"SHIMOMIKUSA","perfecture_jp":"兵庫県","jp_add_1":"加東市","jp_add_2":"下三草"},"6731303":{"post_code":"6731303","prefecture":"HYOGO KEN","city":"KATO SHI","town":"SHOBUDANI","perfecture_jp":"兵庫県","jp_add_1":"加東市","jp_add_2":"少分谷"},"6731324":{"post_code":"6731324","prefecture":"HYOGO KEN","city":"KATO SHI","town":"SHINJO","perfecture_jp":"兵庫県","jp_add_1":"加東市","jp_add_2":"新定"},"6731445":{"post_code":"6731445","prefecture":"HYOGO KEN","city":"KATO SHI","town":"DAIMON","perfecture_jp":"兵庫県","jp_add_1":"加東市","jp_add_2":"大門"},"6731441":{"post_code":"6731441","prefecture":"HYOGO KEN","city":"KATO SHI","town":"TANAKA","perfecture_jp":"兵庫県","jp_add_1":"加東市","jp_add_2":"田中"},"6731311":{"post_code":"6731311","prefecture":"HYOGO KEN","city":"KATO SHI","town":"TENJIN","perfecture_jp":"兵庫県","jp_add_1":"加東市","jp_add_2":"天神"},"6731434":{"post_code":"6731434","prefecture":"HYOGO KEN","city":"KATO SHI","town":"TOJITSU","perfecture_jp":"兵庫県","jp_add_1":"加東市","jp_add_2":"東実"},"6731452":{"post_code":"6731452","prefecture":"HYOGO KEN","city":"KATO SHI","town":"TORII","perfecture_jp":"兵庫県","jp_add_1":"加東市","jp_add_2":"鳥居"},"6731424":{"post_code":"6731424","prefecture":"HYOGO KEN","city":"KATO SHI","town":"NAKAGOSE","perfecture_jp":"兵庫県","jp_add_1":"加東市","jp_add_2":"中古瀬"},"6731304":{"post_code":"6731304","prefecture":"HYOGO KEN","city":"KATO SHI","town":"NAGASADA","perfecture_jp":"兵庫県","jp_add_1":"加東市","jp_add_2":"長貞"},"6731425":{"post_code":"6731425","prefecture":"HYOGO KEN","city":"KATO SHI","town":"NISHIKOSE","perfecture_jp":"兵庫県","jp_add_1":"加東市","jp_add_2":"西古瀬"},"6731455":{"post_code":"6731455","prefecture":"HYOGO KEN","city":"KATO SHI","town":"NISHITARUMI","perfecture_jp":"兵庫県","jp_add_1":"加東市","jp_add_2":"西垂水"},"6731454":{"post_code":"6731454","prefecture":"HYOGO KEN","city":"KATO SHI","town":"NOMURA","perfecture_jp":"兵庫県","jp_add_1":"加東市","jp_add_2":"野村"},"6731312":{"post_code":"6731312","prefecture":"HYOGO KEN","city":"KATO SHI","town":"HASHIKADANI","perfecture_jp":"兵庫県","jp_add_1":"加東市","jp_add_2":"掎鹿谷"},"6731411":{"post_code":"6731411","prefecture":"HYOGO KEN","city":"KATO SHI","town":"HATA","perfecture_jp":"兵庫県","jp_add_1":"加東市","jp_add_2":"畑"},"6731423":{"post_code":"6731423","prefecture":"HYOGO KEN","city":"KATO SHI","town":"HIGASHIGOSE","perfecture_jp":"兵庫県","jp_add_1":"加東市","jp_add_2":"東古瀬"},"6731336":{"post_code":"6731336","prefecture":"HYOGO KEN","city":"KATO SHI","town":"HIGASHITARUMI","perfecture_jp":"兵庫県","jp_add_1":"加東市","jp_add_2":"東垂水"},"6731402":{"post_code":"6731402","prefecture":"HYOGO KEN","city":"KATO SHI","town":"HIRAKI","perfecture_jp":"兵庫県","jp_add_1":"加東市","jp_add_2":"平木"},"6731432":{"post_code":"6731432","prefecture":"HYOGO KEN","city":"KATO SHI","town":"HIRONOGAOKA","perfecture_jp":"兵庫県","jp_add_1":"加東市","jp_add_2":"ひろのが丘"},"6731443":{"post_code":"6731443","prefecture":"HYOGO KEN","city":"KATO SHI","town":"FUKUYOSHI","perfecture_jp":"兵庫県","jp_add_1":"加東市","jp_add_2":"福吉"},"6731462":{"post_code":"6731462","prefecture":"HYOGO KEN","city":"KATO SHI","town":"FUJITA","perfecture_jp":"兵庫県","jp_add_1":"加東市","jp_add_2":"藤田"},"6731474":{"post_code":"6731474","prefecture":"HYOGO KEN","city":"KATO SHI","town":"MAKINO","perfecture_jp":"兵庫県","jp_add_1":"加東市","jp_add_2":"牧野"},"6731433":{"post_code":"6731433","prefecture":"HYOGO KEN","city":"KATO SHI","town":"MATSUO","perfecture_jp":"兵庫県","jp_add_1":"加東市","jp_add_2":"松尾"},"6731337":{"post_code":"6731337","prefecture":"HYOGO KEN","city":"KATO SHI","town":"MATSUZAWA","perfecture_jp":"兵庫県","jp_add_1":"加東市","jp_add_2":"松沢"},"6731412":{"post_code":"6731412","prefecture":"HYOGO KEN","city":"KATO SHI","town":"MAWARIBUCHI","perfecture_jp":"兵庫県","jp_add_1":"加東市","jp_add_2":"廻渕"},"6731341":{"post_code":"6731341","prefecture":"HYOGO KEN","city":"KATO SHI","town":"MINAMIYAMA","perfecture_jp":"兵庫県","jp_add_1":"加東市","jp_add_2":"南山"},"6731322":{"post_code":"6731322","prefecture":"HYOGO KEN","city":"KATO SHI","town":"MORI","perfecture_jp":"兵庫県","jp_add_1":"加東市","jp_add_2":"森"},"6731331":{"post_code":"6731331","prefecture":"HYOGO KEN","city":"KATO SHI","town":"MORIO","perfecture_jp":"兵庫県","jp_add_1":"加東市","jp_add_2":"森尾"},"6731431":{"post_code":"6731431","prefecture":"HYOGO KEN","city":"KATO SHI","town":"YASHIRO","perfecture_jp":"兵庫県","jp_add_1":"加東市","jp_add_2":"社"},"6731422":{"post_code":"6731422","prefecture":"HYOGO KEN","city":"KATO SHI","town":"YADO","perfecture_jp":"兵庫県","jp_add_1":"加東市","jp_add_2":"屋度"},"6731335":{"post_code":"6731335","prefecture":"HYOGO KEN","city":"KATO SHI","town":"YABU","perfecture_jp":"兵庫県","jp_add_1":"加東市","jp_add_2":"藪"},"6731471":{"post_code":"6731471","prefecture":"HYOGO KEN","city":"KATO SHI","town":"YAMAGUCHI","perfecture_jp":"兵庫県","jp_add_1":"加東市","jp_add_2":"山口"},"6731421":{"post_code":"6731421","prefecture":"HYOGO KEN","city":"KATO SHI","town":"YAMAKUNI","perfecture_jp":"兵庫県","jp_add_1":"加東市","jp_add_2":"山国"},"6731314":{"post_code":"6731314","prefecture":"HYOGO KEN","city":"KATO SHI","town":"YOKODANI","perfecture_jp":"兵庫県","jp_add_1":"加東市","jp_add_2":"横谷"},"6731334":{"post_code":"6731334","prefecture":"HYOGO KEN","city":"KATO SHI","town":"YOSHII","perfecture_jp":"兵庫県","jp_add_1":"加東市","jp_add_2":"吉井"},"6731475":{"post_code":"6731475","prefecture":"HYOGO KEN","city":"KATO SHI","town":"YOSHIMA","perfecture_jp":"兵庫県","jp_add_1":"加東市","jp_add_2":"吉馬"}}