{"6750000":{"post_code":"6750000","prefecture":"HYOGO KEN","city":"KASAI SHI","town":"IKANIKEISAIGANAIBAAI","perfecture_jp":"兵庫県","jp_add_1":"加古川市","jp_add_2":""},"6750026":{"post_code":"6750026","prefecture":"HYOGO KEN","city":"KAKOGAWA SHI","town":"ONOECHO ASAHI","perfecture_jp":"兵庫県","jp_add_1":"加古川市","jp_add_2":"尾上町旭"},"6750023":{"post_code":"6750023","prefecture":"HYOGO KEN","city":"KAKOGAWA SHI","town":"ONOECHO IKEDA","perfecture_jp":"兵庫県","jp_add_1":"加古川市","jp_add_2":"尾上町池田"},"6750027":{"post_code":"6750027","prefecture":"HYOGO KEN","city":"KAKOGAWA SHI","town":"ONOECHO IMAFUKU","perfecture_jp":"兵庫県","jp_add_1":"加古川市","jp_add_2":"尾上町今福"},"6750022":{"post_code":"6750022","prefecture":"HYOGO KEN","city":"KAKOGAWA SHI","town":"ONOECHO KUCHIRI","perfecture_jp":"兵庫県","jp_add_1":"加古川市","jp_add_2":"尾上町口里"},"6750024":{"post_code":"6750024","prefecture":"HYOGO KEN","city":"KAKOGAWA SHI","town":"ONOECHO NAGATA","perfecture_jp":"兵庫県","jp_add_1":"加古川市","jp_add_2":"尾上町長田"},"6750021":{"post_code":"6750021","prefecture":"HYOGO KEN","city":"KAKOGAWA SHI","town":"ONOECHO YASUTA","perfecture_jp":"兵庫県","jp_add_1":"加古川市","jp_add_2":"尾上町安田"},"6750025":{"post_code":"6750025","prefecture":"HYOGO KEN","city":"KAKOGAWA SHI","town":"ONOECHO YOTA","perfecture_jp":"兵庫県","jp_add_1":"加古川市","jp_add_2":"尾上町養田"},"6750039":{"post_code":"6750039","prefecture":"HYOGO KEN","city":"KAKOGAWA SHI","town":"KAKOGAWACHO AWAZU","perfecture_jp":"兵庫県","jp_add_1":"加古川市","jp_add_2":"加古川町粟津"},"6750034":{"post_code":"6750034","prefecture":"HYOGO KEN","city":"KAKOGAWA SHI","town":"KAKOGAWACHO INAYA","perfecture_jp":"兵庫県","jp_add_1":"加古川市","jp_add_2":"加古川町稲屋"},"6750061":{"post_code":"6750061","prefecture":"HYOGO KEN","city":"KAKOGAWA SHI","town":"KAKOGAWACHO ONO","perfecture_jp":"兵庫県","jp_add_1":"加古川市","jp_add_2":"加古川町大野"},"6750067":{"post_code":"6750067","prefecture":"HYOGO KEN","city":"KAKOGAWA SHI","town":"KAKOGAWACHO KAWARA","perfecture_jp":"兵庫県","jp_add_1":"加古川市","jp_add_2":"加古川町河原"},"6750031":{"post_code":"6750031","prefecture":"HYOGO KEN","city":"KAKOGAWA SHI","town":"KAKOGAWACHO KITAZAIKE","perfecture_jp":"兵庫県","jp_add_1":"加古川市","jp_add_2":"加古川町北在家"},"6750038":{"post_code":"6750038","prefecture":"HYOGO KEN","city":"KAKOGAWA SHI","town":"KAKOGAWACHO KIMURA","perfecture_jp":"兵庫県","jp_add_1":"加古川市","jp_add_2":"加古川町木村"},"6750065":{"post_code":"6750065","prefecture":"HYOGO KEN","city":"KAKOGAWA SHI","town":"KAKOGAWACHO SHINOHARACHO","perfecture_jp":"兵庫県","jp_add_1":"加古川市","jp_add_2":"加古川町篠原町"},"6750066":{"post_code":"6750066","prefecture":"HYOGO KEN","city":"KAKOGAWA SHI","town":"KAKOGAWACHO JIKEMACHI","perfecture_jp":"兵庫県","jp_add_1":"加古川市","jp_add_2":"加古川町寺家町"},"6750035":{"post_code":"6750035","prefecture":"HYOGO KEN","city":"KAKOGAWA SHI","town":"KAKOGAWACHO TOMOSAWA","perfecture_jp":"兵庫県","jp_add_1":"加古川市","jp_add_2":"加古川町友沢"},"6750068":{"post_code":"6750068","prefecture":"HYOGO KEN","city":"KAKOGAWA SHI","town":"KAKOGAWACHO NAKATSU","perfecture_jp":"兵庫県","jp_add_1":"加古川市","jp_add_2":"加古川町中津"},"6750036":{"post_code":"6750036","prefecture":"HYOGO KEN","city":"KAKOGAWA SHI","town":"KAKOGAWACHO NISHIGAWARA","perfecture_jp":"兵庫県","jp_add_1":"加古川市","jp_add_2":"加古川町西河原"},"6750063":{"post_code":"6750063","prefecture":"HYOGO KEN","city":"KAKOGAWA SHI","town":"KAKOGAWACHO HIRANO","perfecture_jp":"兵庫県","jp_add_1":"加古川市","jp_add_2":"加古川町平野"},"6750032":{"post_code":"6750032","prefecture":"HYOGO KEN","city":"KAKOGAWA SHI","town":"KAKOGAWACHO BINGO","perfecture_jp":"兵庫県","jp_add_1":"加古川市","jp_add_2":"加古川町備後"},"6750037":{"post_code":"6750037","prefecture":"HYOGO KEN","city":"KAKOGAWA SHI","town":"KAKOGAWACHO HOMMACHI","perfecture_jp":"兵庫県","jp_add_1":"加古川市","jp_add_2":"加古川町本町"},"6750064":{"post_code":"6750064","prefecture":"HYOGO KEN","city":"KAKOGAWA SHI","town":"KAKOGAWACHO MIZONOKUCHI","perfecture_jp":"兵庫県","jp_add_1":"加古川市","jp_add_2":"加古川町溝之口"},"6750033":{"post_code":"6750033","prefecture":"HYOGO KEN","city":"KAKOGAWA SHI","town":"KAKOGAWACHO MINAMIBINGO","perfecture_jp":"兵庫県","jp_add_1":"加古川市","jp_add_2":"加古川町南備後"},"6750062":{"post_code":"6750062","prefecture":"HYOGO KEN","city":"KAKOGAWA SHI","town":"KAKOGAWACHO MINORI","perfecture_jp":"兵庫県","jp_add_1":"加古川市","jp_add_2":"加古川町美乃利"},"6750137":{"post_code":"6750137","prefecture":"HYOGO KEN","city":"KAKOGAWA SHI","town":"KANAZAWACHO","perfecture_jp":"兵庫県","jp_add_1":"加古川市","jp_add_2":"金沢町"},"6751212":{"post_code":"6751212","prefecture":"HYOGO KEN","city":"KAKOGAWA SHI","town":"KAMISOCHO INOKUCHI","perfecture_jp":"兵庫県","jp_add_1":"加古川市","jp_add_2":"上荘町井ノ口"},"6751218":{"post_code":"6751218","prefecture":"HYOGO KEN","city":"KAKOGAWA SHI","town":"KAMISOCHO ONO","perfecture_jp":"兵庫県","jp_add_1":"加古川市","jp_add_2":"上荘町小野"},"6751217":{"post_code":"6751217","prefecture":"HYOGO KEN","city":"KAKOGAWA SHI","town":"KAMISOCHO KUSUKURI","perfecture_jp":"兵庫県","jp_add_1":"加古川市","jp_add_2":"上荘町薬栗"},"6751213":{"post_code":"6751213","prefecture":"HYOGO KEN","city":"KAKOGAWA SHI","town":"KAMISOCHO KUNIKANE","perfecture_jp":"兵庫県","jp_add_1":"加古川市","jp_add_2":"上荘町国包"},"6751211":{"post_code":"6751211","prefecture":"HYOGO KEN","city":"KAKOGAWA SHI","town":"KAMISOCHO SHIRASAWA","perfecture_jp":"兵庫県","jp_add_1":"加古川市","jp_add_2":"上荘町白沢"},"6751216":{"post_code":"6751216","prefecture":"HYOGO KEN","city":"KAKOGAWA SHI","town":"KAMISOCHO TSUZOME","perfecture_jp":"兵庫県","jp_add_1":"加古川市","jp_add_2":"上荘町都染"},"6751214":{"post_code":"6751214","prefecture":"HYOGO KEN","city":"KAKOGAWA SHI","town":"KAMISOCHO MIDORO","perfecture_jp":"兵庫県","jp_add_1":"加古川市","jp_add_2":"上荘町見土呂"},"6751215":{"post_code":"6751215","prefecture":"HYOGO KEN","city":"KAKOGAWA SHI","town":"KAMISOCHO MIYAKODAI","perfecture_jp":"兵庫県","jp_add_1":"加古川市","jp_add_2":"上荘町都台"},"6750005":{"post_code":"6750005","prefecture":"HYOGO KEN","city":"KAKOGAWA SHI","town":"KANNOCHO ISHIMORI","perfecture_jp":"兵庫県","jp_add_1":"加古川市","jp_add_2":"神野町石守"},"6750003":{"post_code":"6750003","prefecture":"HYOGO KEN","city":"KAKOGAWA SHI","town":"KANNOCHO KANNO","perfecture_jp":"兵庫県","jp_add_1":"加古川市","jp_add_2":"神野町神野"},"6750009":{"post_code":"6750009","prefecture":"HYOGO KEN","city":"KAKOGAWA SHI","town":"KANNOCHO SAIJO","perfecture_jp":"兵庫県","jp_add_1":"加古川市","jp_add_2":"神野町西条"},"6750007":{"post_code":"6750007","prefecture":"HYOGO KEN","city":"KAKOGAWA SHI","town":"KANNOCHO NISHINOYAMA","perfecture_jp":"兵庫県","jp_add_1":"加古川市","jp_add_2":"神野町西之山"},"6750006":{"post_code":"6750006","prefecture":"HYOGO KEN","city":"KAKOGAWA SHI","town":"KANNOCHO HIOKAEN","perfecture_jp":"兵庫県","jp_add_1":"加古川市","jp_add_2":"神野町日岡苑"},"6750004":{"post_code":"6750004","prefecture":"HYOGO KEN","city":"KAKOGAWA SHI","town":"KANNOCHO FUKUDOME","perfecture_jp":"兵庫県","jp_add_1":"加古川市","jp_add_2":"神野町福留"},"6750001":{"post_code":"6750001","prefecture":"HYOGO KEN","city":"KAKOGAWA SHI","town":"SAIJOYAMATE","perfecture_jp":"兵庫県","jp_add_1":"加古川市","jp_add_2":"西条山手"},"6750301":{"post_code":"6750301","prefecture":"HYOGO KEN","city":"KAKOGAWA SHI","town":"SHIKATACHO OZAWA","perfecture_jp":"兵庫県","jp_add_1":"加古川市","jp_add_2":"志方町大澤"},"6750305":{"post_code":"6750305","prefecture":"HYOGO KEN","city":"KAKOGAWA SHI","town":"SHIKATACHO OMUNE","perfecture_jp":"兵庫県","jp_add_1":"加古川市","jp_add_2":"志方町大宗"},"6750311":{"post_code":"6750311","prefecture":"HYOGO KEN","city":"KAKOGAWA SHI","town":"SHIKATACHO OKA","perfecture_jp":"兵庫県","jp_add_1":"加古川市","jp_add_2":"志方町岡"},"6750314":{"post_code":"6750314","prefecture":"HYOGO KEN","city":"KAKOGAWA SHI","town":"SHIKATACHO KAMITOMIKI","perfecture_jp":"兵庫県","jp_add_1":"加古川市","jp_add_2":"志方町上冨木"},"6750303":{"post_code":"6750303","prefecture":"HYOGO KEN","city":"KAKOGAWA SHI","town":"SHIKATACHO SAIKUJO","perfecture_jp":"兵庫県","jp_add_1":"加古川市","jp_add_2":"志方町細工所"},"6750321":{"post_code":"6750321","prefecture":"HYOGO KEN","city":"KAKOGAWA SHI","town":"SHIKATACHO SHIKATAMACHI","perfecture_jp":"兵庫県","jp_add_1":"加古川市","jp_add_2":"志方町志方町"},"6750342":{"post_code":"6750342","prefecture":"HYOGO KEN","city":"KAKOGAWA SHI","town":"SHIKATACHO ZOGO","perfecture_jp":"兵庫県","jp_add_1":"加古川市","jp_add_2":"志方町雑郷"},"6750304":{"post_code":"6750304","prefecture":"HYOGO KEN","city":"KAKOGAWA SHI","town":"SHIKATACHO TAKAHATA","perfecture_jp":"兵庫県","jp_add_1":"加古川市","jp_add_2":"志方町高畑"},"6750347":{"post_code":"6750347","prefecture":"HYOGO KEN","city":"KAKOGAWA SHI","town":"SHIKATACHO NAGAMURO","perfecture_jp":"兵庫県","jp_add_1":"加古川市","jp_add_2":"志方町永室"},"6750334":{"post_code":"6750334","prefecture":"HYOGO KEN","city":"KAKOGAWA SHI","town":"SHIKATACHO NARUI","perfecture_jp":"兵庫県","jp_add_1":"加古川市","jp_add_2":"志方町成井"},"6750345":{"post_code":"6750345","prefecture":"HYOGO KEN","city":"KAKOGAWA SHI","town":"SHIKATACHO NISHIIIZAKA","perfecture_jp":"兵庫県","jp_add_1":"加古川市","jp_add_2":"志方町西飯坂"},"6750346":{"post_code":"6750346","prefecture":"HYOGO KEN","city":"KAKOGAWA SHI","town":"SHIKATACHO NISHINAKA","perfecture_jp":"兵庫県","jp_add_1":"加古川市","jp_add_2":"志方町西中"},"6750331":{"post_code":"6750331","prefecture":"HYOGO KEN","city":"KAKOGAWA SHI","town":"SHIKATACHO NISHIMAKI","perfecture_jp":"兵庫県","jp_add_1":"加古川市","jp_add_2":"志方町西牧"},"6750333":{"post_code":"6750333","prefecture":"HYOGO KEN","city":"KAKOGAWA SHI","town":"SHIKATACHO NISHIYAMA","perfecture_jp":"兵庫県","jp_add_1":"加古川市","jp_add_2":"志方町西山"},"6750313":{"post_code":"6750313","prefecture":"HYOGO KEN","city":"KAKOGAWA SHI","town":"SHIKATACHO NEJIMATSU","perfecture_jp":"兵庫県","jp_add_1":"加古川市","jp_add_2":"志方町投松"},"6750302":{"post_code":"6750302","prefecture":"HYOGO KEN","city":"KAKOGAWA SHI","town":"SHIKATACHO NOJIRI","perfecture_jp":"兵庫県","jp_add_1":"加古川市","jp_add_2":"志方町野尻"},"6750341":{"post_code":"6750341","prefecture":"HYOGO KEN","city":"KAKOGAWA SHI","town":"SHIKATACHO HATA","perfecture_jp":"兵庫県","jp_add_1":"加古川市","jp_add_2":"志方町畑"},"6750335":{"post_code":"6750335","prefecture":"HYOGO KEN","city":"KAKOGAWA SHI","town":"SHIKATACHO HARA","perfecture_jp":"兵庫県","jp_add_1":"加古川市","jp_add_2":"志方町原"},"6750344":{"post_code":"6750344","prefecture":"HYOGO KEN","city":"KAKOGAWA SHI","town":"SHIKATACHO HIGASHIIIZAKA","perfecture_jp":"兵庫県","jp_add_1":"加古川市","jp_add_2":"志方町東飯坂"},"6750306":{"post_code":"6750306","prefecture":"HYOGO KEN","city":"KAKOGAWA SHI","town":"SHIKATACHO HIGASHINAKA","perfecture_jp":"兵庫県","jp_add_1":"加古川市","jp_add_2":"志方町東中"},"6750312":{"post_code":"6750312","prefecture":"HYOGO KEN","city":"KAKOGAWA SHI","town":"SHIKATACHO HIRO","perfecture_jp":"兵庫県","jp_add_1":"加古川市","jp_add_2":"志方町広尾"},"6750336":{"post_code":"6750336","prefecture":"HYOGO KEN","city":"KAKOGAWA SHI","town":"SHIKATACHO YAMANAKA","perfecture_jp":"兵庫県","jp_add_1":"加古川市","jp_add_2":"志方町山中"},"6750343":{"post_code":"6750343","prefecture":"HYOGO KEN","city":"KAKOGAWA SHI","town":"SHIKATACHO YUKITSUNE","perfecture_jp":"兵庫県","jp_add_1":"加古川市","jp_add_2":"志方町行常"},"6750332":{"post_code":"6750332","prefecture":"HYOGO KEN","city":"KAKOGAWA SHI","town":"SHIKATACHO YOKOOJI","perfecture_jp":"兵庫県","jp_add_1":"加古川市","jp_add_2":"志方町横大路"},"6750008":{"post_code":"6750008","prefecture":"HYOGO KEN","city":"KAKOGAWA SHI","town":"SHINKANNO","perfecture_jp":"兵庫県","jp_add_1":"加古川市","jp_add_2":"新神野"},"6750044":{"post_code":"6750044","prefecture":"HYOGO KEN","city":"KAKOGAWA SHI","town":"NISHIKANKICHO OGUNI","perfecture_jp":"兵庫県","jp_add_1":"加古川市","jp_add_2":"西神吉町大国"},"6750047":{"post_code":"6750047","prefecture":"HYOGO KEN","city":"KAKOGAWA SHI","town":"NISHIKANKICHO KANAE","perfecture_jp":"兵庫県","jp_add_1":"加古川市","jp_add_2":"西神吉町鼎"},"6750045":{"post_code":"6750045","prefecture":"HYOGO KEN","city":"KAKOGAWA SHI","town":"NISHIKANKICHO KISHI","perfecture_jp":"兵庫県","jp_add_1":"加古川市","jp_add_2":"西神吉町岸"},"6750046":{"post_code":"6750046","prefecture":"HYOGO KEN","city":"KAKOGAWA SHI","town":"NISHIKANKICHO TSUJI","perfecture_jp":"兵庫県","jp_add_1":"加古川市","jp_add_2":"西神吉町辻"},"6750043":{"post_code":"6750043","prefecture":"HYOGO KEN","city":"KAKOGAWA SHI","town":"NISHIKANKICHO NAKANISHI","perfecture_jp":"兵庫県","jp_add_1":"加古川市","jp_add_2":"西神吉町中西"},"6750042":{"post_code":"6750042","prefecture":"HYOGO KEN","city":"KAKOGAWA SHI","town":"NISHIKANKICHO NISHIMURA","perfecture_jp":"兵庫県","jp_add_1":"加古川市","jp_add_2":"西神吉町西村"},"6750041":{"post_code":"6750041","prefecture":"HYOGO KEN","city":"KAKOGAWA SHI","town":"NISHIKANKICHO MIYAMAE","perfecture_jp":"兵庫県","jp_add_1":"加古川市","jp_add_2":"西神吉町宮前"},"6750011":{"post_code":"6750011","prefecture":"HYOGO KEN","city":"KAKOGAWA SHI","town":"NOGUCHICHO KITANO","perfecture_jp":"兵庫県","jp_add_1":"加古川市","jp_add_2":"野口町北野"},"6750015":{"post_code":"6750015","prefecture":"HYOGO KEN","city":"KAKOGAWA SHI","town":"NOGUCHICHO SAKAI","perfecture_jp":"兵庫県","jp_add_1":"加古川市","jp_add_2":"野口町坂井"},"6750018":{"post_code":"6750018","prefecture":"HYOGO KEN","city":"KAKOGAWA SHI","town":"NOGUCHICHO SAKAMOTO","perfecture_jp":"兵庫県","jp_add_1":"加古川市","jp_add_2":"野口町坂元"},"6750010":{"post_code":"6750010","prefecture":"HYOGO KEN","city":"KAKOGAWA SHI","town":"NOGUCHICHO SAKAMOTOKITA","perfecture_jp":"兵庫県","jp_add_1":"加古川市","jp_add_2":"野口町坂元北"},"6750016":{"post_code":"6750016","prefecture":"HYOGO KEN","city":"KAKOGAWA SHI","town":"NOGUCHICHO NAGASUNA","perfecture_jp":"兵庫県","jp_add_1":"加古川市","jp_add_2":"野口町長砂"},"6750012":{"post_code":"6750012","prefecture":"HYOGO KEN","city":"KAKOGAWA SHI","town":"NOGUCHICHO NOGUCHI","perfecture_jp":"兵庫県","jp_add_1":"加古川市","jp_add_2":"野口町野口"},"6750013":{"post_code":"6750013","prefecture":"HYOGO KEN","city":"KAKOGAWA SHI","town":"NOGUCHICHO FUTAYA","perfecture_jp":"兵庫県","jp_add_1":"加古川市","jp_add_2":"野口町二屋"},"6750014":{"post_code":"6750014","prefecture":"HYOGO KEN","city":"KAKOGAWA SHI","town":"NOGUCHICHO FURUOCHI","perfecture_jp":"兵庫県","jp_add_1":"加古川市","jp_add_2":"野口町古大内"},"6750019":{"post_code":"6750019","prefecture":"HYOGO KEN","city":"KAKOGAWA SHI","town":"NOGUCHICHO MIZUASHI","perfecture_jp":"兵庫県","jp_add_1":"加古川市","jp_add_2":"野口町水足"},"6750017":{"post_code":"6750017","prefecture":"HYOGO KEN","city":"KAKOGAWA SHI","town":"NOGUCHICHO YOSHINO","perfecture_jp":"兵庫県","jp_add_1":"加古川市","jp_add_2":"野口町良野"},"6750058":{"post_code":"6750058","prefecture":"HYOGO KEN","city":"KAKOGAWA SHI","town":"HIGASHIKANKICHO AMAGAHARA","perfecture_jp":"兵庫県","jp_add_1":"加古川市","jp_add_2":"東神吉町天下原"},"6750056":{"post_code":"6750056","prefecture":"HYOGO KEN","city":"KAKOGAWA SHI","town":"HIGASHIKANKICHO ISABE","perfecture_jp":"兵庫県","jp_add_1":"加古川市","jp_add_2":"東神吉町砂部"},"6750057":{"post_code":"6750057","prefecture":"HYOGO KEN","city":"KAKOGAWA SHI","town":"HIGASHIKANKICHO KANKI","perfecture_jp":"兵庫県","jp_add_1":"加古川市","jp_add_2":"東神吉町神吉"},"6750052":{"post_code":"6750052","prefecture":"HYOGO KEN","city":"KAKOGAWA SHI","town":"HIGASHIKANKICHO DEGAHARA","perfecture_jp":"兵庫県","jp_add_1":"加古川市","jp_add_2":"東神吉町出河原"},"6750055":{"post_code":"6750055","prefecture":"HYOGO KEN","city":"KAKOGAWA SHI","town":"HIGASHIKANKICHO NISHIINOKUCHI","perfecture_jp":"兵庫県","jp_add_1":"加古川市","jp_add_2":"東神吉町西井ノ口"},"6750051":{"post_code":"6750051","prefecture":"HYOGO KEN","city":"KAKOGAWA SHI","town":"HIGASHIKANKICHO MASUDA","perfecture_jp":"兵庫県","jp_add_1":"加古川市","jp_add_2":"東神吉町升田"},"6750115":{"post_code":"6750115","prefecture":"HYOGO KEN","city":"KAKOGAWA SHI","town":"HIRAOKACHO ISHIKI","perfecture_jp":"兵庫県","jp_add_1":"加古川市","jp_add_2":"平岡町一色"},"6750116":{"post_code":"6750116","prefecture":"HYOGO KEN","city":"KAKOGAWA SHI","town":"HIRAOKACHO ISHIKIHIGASHI","perfecture_jp":"兵庫県","jp_add_1":"加古川市","jp_add_2":"平岡町一色東"},"6750117":{"post_code":"6750117","prefecture":"HYOGO KEN","city":"KAKOGAWA SHI","town":"HIRAOKACHO ISHIKINISHI","perfecture_jp":"兵庫県","jp_add_1":"加古川市","jp_add_2":"平岡町一色西"},"6750101":{"post_code":"6750101","prefecture":"HYOGO KEN","city":"KAKOGAWA SHI","town":"HIRAOKACHO SHINZAIKE","perfecture_jp":"兵庫県","jp_add_1":"加古川市","jp_add_2":"平岡町新在家"},"6750103":{"post_code":"6750103","prefecture":"HYOGO KEN","city":"KAKOGAWA SHI","town":"HIRAOKACHO TAKAHATA","perfecture_jp":"兵庫県","jp_add_1":"加古川市","jp_add_2":"平岡町高畑"},"6750104":{"post_code":"6750104","prefecture":"HYOGO KEN","city":"KAKOGAWA SHI","town":"HIRAOKACHO TSUCHIYAMA","perfecture_jp":"兵庫県","jp_add_1":"加古川市","jp_add_2":"平岡町土山"},"6750105":{"post_code":"6750105","prefecture":"HYOGO KEN","city":"KAKOGAWA SHI","town":"HIRAOKACHO TSUTSUJINO","perfecture_jp":"兵庫県","jp_add_1":"加古川市","jp_add_2":"平岡町つつじ野"},"6750113":{"post_code":"6750113","prefecture":"HYOGO KEN","city":"KAKOGAWA SHI","town":"HIRAOKACHO NAKANO","perfecture_jp":"兵庫県","jp_add_1":"加古川市","jp_add_2":"平岡町中野"},"6750102":{"post_code":"6750102","prefecture":"HYOGO KEN","city":"KAKOGAWA SHI","town":"HIRAOKACHO NISHITANI","perfecture_jp":"兵庫県","jp_add_1":"加古川市","jp_add_2":"平岡町西谷"},"6750114":{"post_code":"6750114","prefecture":"HYOGO KEN","city":"KAKOGAWA SHI","town":"HIRAOKACHO HATTANDA","perfecture_jp":"兵庫県","jp_add_1":"加古川市","jp_add_2":"平岡町八反田"},"6750111":{"post_code":"6750111","prefecture":"HYOGO KEN","city":"KAKOGAWA SHI","town":"HIRAOKACHO FUTAMATA","perfecture_jp":"兵庫県","jp_add_1":"加古川市","jp_add_2":"平岡町二俣"},"6750112":{"post_code":"6750112","prefecture":"HYOGO KEN","city":"KAKOGAWA SHI","town":"HIRAOKACHO YAMANOE","perfecture_jp":"兵庫県","jp_add_1":"加古川市","jp_add_2":"平岡町山之上"},"6751233":{"post_code":"6751233","prefecture":"HYOGO KEN","city":"KAKOGAWA SHI","town":"HEISOCHO IKEJIRI","perfecture_jp":"兵庫県","jp_add_1":"加古川市","jp_add_2":"平荘町池尻"},"6751236":{"post_code":"6751236","prefecture":"HYOGO KEN","city":"KAKOGAWA SHI","town":"HEISOCHO IPPOMMATSU","perfecture_jp":"兵庫県","jp_add_1":"加古川市","jp_add_2":"平荘町一本松"},"6751226":{"post_code":"6751226","prefecture":"HYOGO KEN","city":"KAKOGAWA SHI","town":"HEISOCHO IWAO","perfecture_jp":"兵庫県","jp_add_1":"加古川市","jp_add_2":"平荘町磐"},"6751224":{"post_code":"6751224","prefecture":"HYOGO KEN","city":"KAKOGAWA SHI","town":"HEISOCHO KAMIHARA","perfecture_jp":"兵庫県","jp_add_1":"加古川市","jp_add_2":"平荘町上原"},"6751222":{"post_code":"6751222","prefecture":"HYOGO KEN","city":"KAKOGAWA SHI","town":"HEISOCHO KOGI","perfecture_jp":"兵庫県","jp_add_1":"加古川市","jp_add_2":"平荘町神木"},"6751235":{"post_code":"6751235","prefecture":"HYOGO KEN","city":"KAKOGAWA SHI","town":"HEISOCHO KOBATA","perfecture_jp":"兵庫県","jp_add_1":"加古川市","jp_add_2":"平荘町小畑"},"6751232":{"post_code":"6751232","prefecture":"HYOGO KEN","city":"KAKOGAWA SHI","town":"HEISOCHO SATO","perfecture_jp":"兵庫県","jp_add_1":"加古川市","jp_add_2":"平荘町里"},"6751223":{"post_code":"6751223","prefecture":"HYOGO KEN","city":"KAKOGAWA SHI","town":"HEISOCHO SHINNAKAYAMA","perfecture_jp":"兵庫県","jp_add_1":"加古川市","jp_add_2":"平荘町新中山"},"6751225":{"post_code":"6751225","prefecture":"HYOGO KEN","city":"KAKOGAWA SHI","town":"HEISOCHO NAKAYAMA","perfecture_jp":"兵庫県","jp_add_1":"加古川市","jp_add_2":"平荘町中山"},"6751234":{"post_code":"6751234","prefecture":"HYOGO KEN","city":"KAKOGAWA SHI","town":"HEISOCHO NISHIYAMA","perfecture_jp":"兵庫県","jp_add_1":"加古川市","jp_add_2":"平荘町西山"},"6751221":{"post_code":"6751221","prefecture":"HYOGO KEN","city":"KAKOGAWA SHI","town":"HEISOCHO YAMAKADO","perfecture_jp":"兵庫県","jp_add_1":"加古川市","jp_add_2":"平荘町山角"},"6751231":{"post_code":"6751231","prefecture":"HYOGO KEN","city":"KAKOGAWA SHI","town":"HEISOCHO YORO","perfecture_jp":"兵庫県","jp_add_1":"加古川市","jp_add_2":"平荘町養老"},"6750123":{"post_code":"6750123","prefecture":"HYOGO KEN","city":"KAKOGAWA SHI","town":"BEFUCHO ASAHIMACHI","perfecture_jp":"兵庫県","jp_add_1":"加古川市","jp_add_2":"別府町朝日町"},"6750127":{"post_code":"6750127","prefecture":"HYOGO KEN","city":"KAKOGAWA SHI","town":"BEFUCHO ISHIMACHI","perfecture_jp":"兵庫県","jp_add_1":"加古川市","jp_add_2":"別府町石町"},"6750131":{"post_code":"6750131","prefecture":"HYOGO KEN","city":"KAKOGAWA SHI","town":"BEFUCHO SHINOBE","perfecture_jp":"兵庫県","jp_add_1":"加古川市","jp_add_2":"別府町新野辺"},"6750121":{"post_code":"6750121","prefecture":"HYOGO KEN","city":"KAKOGAWA SHI","town":"BEFUCHO SHINOBEKITAMACHI","perfecture_jp":"兵庫県","jp_add_1":"加古川市","jp_add_2":"別府町新野辺北町"},"6750128":{"post_code":"6750128","prefecture":"HYOGO KEN","city":"KAKOGAWA SHI","town":"BEFUCHO NAKASHIMAMACHI","perfecture_jp":"兵庫県","jp_add_1":"加古川市","jp_add_2":"別府町中島町"},"6750133":{"post_code":"6750133","prefecture":"HYOGO KEN","city":"KAKOGAWA SHI","town":"BEFUCHO NISHIMACHI","perfecture_jp":"兵庫県","jp_add_1":"加古川市","jp_add_2":"別府町西町"},"6750125":{"post_code":"6750125","prefecture":"HYOGO KEN","city":"KAKOGAWA SHI","town":"BEFUCHO NISHIWAKI","perfecture_jp":"兵庫県","jp_add_1":"加古川市","jp_add_2":"別府町西脇"},"6750135":{"post_code":"6750135","prefecture":"HYOGO KEN","city":"KAKOGAWA SHI","town":"BEFUCHO HIGASHIMACHI","perfecture_jp":"兵庫県","jp_add_1":"加古川市","jp_add_2":"別府町東町"},"6750122":{"post_code":"6750122","prefecture":"HYOGO KEN","city":"KAKOGAWA SHI","town":"BEFUCHO BEFU","perfecture_jp":"兵庫県","jp_add_1":"加古川市","jp_add_2":"別府町別府"},"6750126":{"post_code":"6750126","prefecture":"HYOGO KEN","city":"KAKOGAWA SHI","town":"BEFUCHO HOMMACHI","perfecture_jp":"兵庫県","jp_add_1":"加古川市","jp_add_2":"別府町本町"},"6750124":{"post_code":"6750124","prefecture":"HYOGO KEN","city":"KAKOGAWA SHI","town":"BEFUCHO MIDORIMACHI","perfecture_jp":"兵庫県","jp_add_1":"加古川市","jp_add_2":"別府町緑町"},"6750136":{"post_code":"6750136","prefecture":"HYOGO KEN","city":"KAKOGAWA SHI","town":"BEFUCHO MINATOMACHI","perfecture_jp":"兵庫県","jp_add_1":"加古川市","jp_add_2":"別府町港町"},"6750132":{"post_code":"6750132","prefecture":"HYOGO KEN","city":"KAKOGAWA SHI","town":"BEFUCHO MIYADEMMACHI","perfecture_jp":"兵庫県","jp_add_1":"加古川市","jp_add_2":"別府町宮田町"},"6750134":{"post_code":"6750134","prefecture":"HYOGO KEN","city":"KAKOGAWA SHI","town":"BEFUCHO MOTOMACHI","perfecture_jp":"兵庫県","jp_add_1":"加古川市","jp_add_2":"別府町元町"},"6751204":{"post_code":"6751204","prefecture":"HYOGO KEN","city":"KAKOGAWA SHI","town":"YAHATACHO KAMISAIJO","perfecture_jp":"兵庫県","jp_add_1":"加古川市","jp_add_2":"八幡町上西条"},"6751203":{"post_code":"6751203","prefecture":"HYOGO KEN","city":"KAKOGAWA SHI","town":"YAHATACHO SHIMOMURA","perfecture_jp":"兵庫県","jp_add_1":"加古川市","jp_add_2":"八幡町下村"},"6751201":{"post_code":"6751201","prefecture":"HYOGO KEN","city":"KAKOGAWA SHI","town":"YAHATACHO SOSA","perfecture_jp":"兵庫県","jp_add_1":"加古川市","jp_add_2":"八幡町宗佐"},"6751205":{"post_code":"6751205","prefecture":"HYOGO KEN","city":"KAKOGAWA SHI","town":"YAHATACHO NAKASAIJO","perfecture_jp":"兵庫県","jp_add_1":"加古川市","jp_add_2":"八幡町中西条"},"6751202":{"post_code":"6751202","prefecture":"HYOGO KEN","city":"KAKOGAWA SHI","town":"YAHATACHO NOMURA","perfecture_jp":"兵庫県","jp_add_1":"加古川市","jp_add_2":"八幡町野村"},"6751206":{"post_code":"6751206","prefecture":"HYOGO KEN","city":"KAKOGAWA SHI","town":"YAHATACHO FUNAMACHI","perfecture_jp":"兵庫県","jp_add_1":"加古川市","jp_add_2":"八幡町船町"},"6750002":{"post_code":"6750002","prefecture":"HYOGO KEN","city":"KAKOGAWA SHI","town":"YAMATE","perfecture_jp":"兵庫県","jp_add_1":"加古川市","jp_add_2":"山手"},"6750053":{"post_code":"6750053","prefecture":"HYOGO KEN","city":"KAKOGAWA SHI","town":"YONEDACHO SENDO","perfecture_jp":"兵庫県","jp_add_1":"加古川市","jp_add_2":"米田町船頭"},"6750054":{"post_code":"6750054","prefecture":"HYOGO KEN","city":"KAKOGAWA SHI","town":"YONEDACHO HIRATSU","perfecture_jp":"兵庫県","jp_add_1":"加古川市","jp_add_2":"米田町平津"},"6751300":{"post_code":"6751300","prefecture":"HYOGO KEN","city":"ONO SHI","town":"IKANIKEISAIGANAIBAAI","perfecture_jp":"兵庫県","jp_add_1":"小野市","jp_add_2":""},"6751358":{"post_code":"6751358","prefecture":"HYOGO KEN","city":"ONO SHI","town":"AOCHO","perfecture_jp":"兵庫県","jp_add_1":"小野市","jp_add_2":"粟生町"},"6751352":{"post_code":"6751352","prefecture":"HYOGO KEN","city":"ONO SHI","town":"FUKUICHO","perfecture_jp":"兵庫県","jp_add_1":"小野市","jp_add_2":"青野ケ原町"},"6751342":{"post_code":"6751342","prefecture":"HYOGO KEN","city":"ONO SHI","town":"AGATACHO","perfecture_jp":"兵庫県","jp_add_1":"小野市","jp_add_2":"阿形町"},"6751356":{"post_code":"6751356","prefecture":"HYOGO KEN","city":"ONO SHI","town":"ASAHICHO","perfecture_jp":"兵庫県","jp_add_1":"小野市","jp_add_2":"旭町"},"6751324":{"post_code":"6751324","prefecture":"HYOGO KEN","city":"ONO SHI","town":"IKUGAOKACHO","perfecture_jp":"兵庫県","jp_add_1":"小野市","jp_add_2":"育ケ丘町"},"6751326":{"post_code":"6751326","prefecture":"HYOGO KEN","city":"ONO SHI","town":"IKEJIRICHO","perfecture_jp":"兵庫県","jp_add_1":"小野市","jp_add_2":"池尻町"},"6751303":{"post_code":"6751303","prefecture":"HYOGO KEN","city":"ONO SHI","town":"IKEDACHO","perfecture_jp":"兵庫県","jp_add_1":"小野市","jp_add_2":"池田町"},"6751327":{"post_code":"6751327","prefecture":"HYOGO KEN","city":"ONO SHI","town":"ICHIBACHO","perfecture_jp":"兵庫県","jp_add_1":"小野市","jp_add_2":"市場町"},"6751378":{"post_code":"6751378","prefecture":"HYOGO KEN","city":"ONO SHI","town":"KAMISHIMMACHI","perfecture_jp":"兵庫県","jp_add_1":"小野市","jp_add_2":"王子町"},"6751334":{"post_code":"6751334","prefecture":"HYOGO KEN","city":"ONO SHI","town":"OSHIMACHO","perfecture_jp":"兵庫県","jp_add_1":"小野市","jp_add_2":"大島町"},"6751301":{"post_code":"6751301","prefecture":"HYOGO KEN","city":"ONO SHI","town":"ODACHO","perfecture_jp":"兵庫県","jp_add_1":"小野市","jp_add_2":"小田町"},"6751325":{"post_code":"6751325","prefecture":"HYOGO KEN","city":"ONO SHI","town":"KASHIYAMACHO","perfecture_jp":"兵庫県","jp_add_1":"小野市","jp_add_2":"樫山町"},"6751335":{"post_code":"6751335","prefecture":"HYOGO KEN","city":"ONO SHI","town":"KATAYAMACHO","perfecture_jp":"兵庫県","jp_add_1":"小野市","jp_add_2":"片山町"},"6751364":{"post_code":"6751364","prefecture":"HYOGO KEN","city":"ONO SHI","town":"KANOCHO","perfecture_jp":"兵庫県","jp_add_1":"小野市","jp_add_2":"鹿野町"},"6751379":{"post_code":"6751379","prefecture":"HYOGO KEN","city":"ONO SHI","town":"KAMIHOMMACHI","perfecture_jp":"兵庫県","jp_add_1":"小野市","jp_add_2":"上本町"},"6751353":{"post_code":"6751353","prefecture":"HYOGO KEN","city":"ONO SHI","town":"KAWAI NAKACHO","perfecture_jp":"兵庫県","jp_add_1":"小野市","jp_add_2":"河合中町"},"6751354":{"post_code":"6751354","prefecture":"HYOGO KEN","city":"ONO SHI","town":"KAWAI NISHICHO","perfecture_jp":"兵庫県","jp_add_1":"小野市","jp_add_2":"河合西町"},"6751343":{"post_code":"6751343","prefecture":"HYOGO KEN","city":"ONO SHI","town":"KISHICHO","perfecture_jp":"兵庫県","jp_add_1":"小野市","jp_add_2":"来住町"},"6751318":{"post_code":"6751318","prefecture":"HYOGO KEN","city":"ONO SHI","town":"KITAOKACHO","perfecture_jp":"兵庫県","jp_add_1":"小野市","jp_add_2":"北丘町"},"6751360":{"post_code":"6751360","prefecture":"HYOGO KEN","city":"ONO SHI","town":"KITACHO","perfecture_jp":"兵庫県","jp_add_1":"小野市","jp_add_2":"喜多町"},"6751345":{"post_code":"6751345","prefecture":"HYOGO KEN","city":"ONO SHI","town":"KIBITACHO","perfecture_jp":"兵庫県","jp_add_1":"小野市","jp_add_2":"黍田町"},"6751317":{"post_code":"6751317","prefecture":"HYOGO KEN","city":"ONO SHI","town":"KIYOTANICHO","perfecture_jp":"兵庫県","jp_add_1":"小野市","jp_add_2":"浄谷町"},"6751362":{"post_code":"6751362","prefecture":"HYOGO KEN","city":"ONO SHI","town":"TAKAYAMACHO","perfecture_jp":"兵庫県","jp_add_1":"小野市","jp_add_2":"久保木町"},"6751337":{"post_code":"6751337","prefecture":"HYOGO KEN","city":"ONO SHI","town":"KUMOCHO","perfecture_jp":"兵庫県","jp_add_1":"小野市","jp_add_2":"久茂町"},"6751371":{"post_code":"6751371","prefecture":"HYOGO KEN","city":"ONO SHI","town":"KUROKAWACHO","perfecture_jp":"兵庫県","jp_add_1":"小野市","jp_add_2":"黒川町"},"6751365":{"post_code":"6751365","prefecture":"HYOGO KEN","city":"ONO SHI","town":"KODOCHO","perfecture_jp":"兵庫県","jp_add_1":"小野市","jp_add_2":"広渡町"},"6751312":{"post_code":"6751312","prefecture":"HYOGO KEN","city":"ONO SHI","town":"SAKAECHO","perfecture_jp":"兵庫県","jp_add_1":"小野市","jp_add_2":"栄町"},"6751323":{"post_code":"6751323","prefecture":"HYOGO KEN","city":"ONO SHI","town":"SAGAKICHO","perfecture_jp":"兵庫県","jp_add_1":"小野市","jp_add_2":"榊町"},"6751351":{"post_code":"6751351","prefecture":"HYOGO KEN","city":"ONO SHI","town":"SAKURADAI","perfecture_jp":"兵庫県","jp_add_1":"小野市","jp_add_2":"桜台"},"6751367":{"post_code":"6751367","prefecture":"HYOGO KEN","city":"ONO SHI","town":"SHIKIJICHO","perfecture_jp":"兵庫県","jp_add_1":"小野市","jp_add_2":"敷地町"},"6751336":{"post_code":"6751336","prefecture":"HYOGO KEN","city":"ONO SHI","town":"SHIMOOBECHO","perfecture_jp":"兵庫県","jp_add_1":"小野市","jp_add_2":"下大部町"},"6751344":{"post_code":"6751344","prefecture":"HYOGO KEN","city":"ONO SHI","town":"SHIMOKISHICHO","perfecture_jp":"兵庫県","jp_add_1":"小野市","jp_add_2":"下来住町"},"6751359":{"post_code":"6751359","prefecture":"HYOGO KEN","city":"ONO SHI","town":"SHOWACHO","perfecture_jp":"兵庫県","jp_add_1":"小野市","jp_add_2":"昭和町"},"6751355":{"post_code":"6751355","prefecture":"HYOGO KEN","city":"ONO SHI","town":"SHIMBECHO","perfecture_jp":"兵庫県","jp_add_1":"小野市","jp_add_2":"新部町"},"6751331":{"post_code":"6751331","prefecture":"HYOGO KEN","city":"ONO SHI","town":"SHIMMEICHO","perfecture_jp":"兵庫県","jp_add_1":"小野市","jp_add_2":"神明町"},"6751307":{"post_code":"6751307","prefecture":"HYOGO KEN","city":"ONO SHI","town":"SUGATACHO","perfecture_jp":"兵庫県","jp_add_1":"小野市","jp_add_2":"菅田町"},"6751368":{"post_code":"6751368","prefecture":"HYOGO KEN","city":"ONO SHI","town":"SUMINAGACHO","perfecture_jp":"兵庫県","jp_add_1":"小野市","jp_add_2":"住永町"},"6751361":{"post_code":"6751361","prefecture":"HYOGO KEN","city":"ONO SHI","town":"SUMIYOSHICHO","perfecture_jp":"兵庫県","jp_add_1":"小野市","jp_add_2":"住吉町"},"6751302":{"post_code":"6751302","prefecture":"HYOGO KEN","city":"ONO SHI","town":"SONECHO","perfecture_jp":"兵庫県","jp_add_1":"小野市","jp_add_2":"曽根町"},"6751313":{"post_code":"6751313","prefecture":"HYOGO KEN","city":"ONO SHI","town":"DAIKAICHO","perfecture_jp":"兵庫県","jp_add_1":"小野市","jp_add_2":"大開町"},"6751369":{"post_code":"6751369","prefecture":"HYOGO KEN","city":"ONO SHI","town":"TAKATACHO","perfecture_jp":"兵庫県","jp_add_1":"小野市","jp_add_2":"高田町"},"6751322":{"post_code":"6751322","prefecture":"HYOGO KEN","city":"ONO SHI","town":"TAKUMIDAI","perfecture_jp":"兵庫県","jp_add_1":"小野市","jp_add_2":"匠台"},"6751333":{"post_code":"6751333","prefecture":"HYOGO KEN","city":"ONO SHI","town":"TARUICHO","perfecture_jp":"兵庫県","jp_add_1":"小野市","jp_add_2":"垂井町"},"6751338":{"post_code":"6751338","prefecture":"HYOGO KEN","city":"ONO SHI","town":"DENENCHO","perfecture_jp":"兵庫県","jp_add_1":"小野市","jp_add_2":"田園町"},"6751316":{"post_code":"6751316","prefecture":"HYOGO KEN","city":"ONO SHI","town":"TENJINCHO","perfecture_jp":"兵庫県","jp_add_1":"小野市","jp_add_2":"天神町"},"6751366":{"post_code":"6751366","prefecture":"HYOGO KEN","city":"ONO SHI","town":"NAKASHIMACHO","perfecture_jp":"兵庫県","jp_add_1":"小野市","jp_add_2":"中島町"},"6751304":{"post_code":"6751304","prefecture":"HYOGO KEN","city":"ONO SHI","town":"NAKATANICHO","perfecture_jp":"兵庫県","jp_add_1":"小野市","jp_add_2":"中谷町"},"6751332":{"post_code":"6751332","prefecture":"HYOGO KEN","city":"ONO SHI","town":"NAKACHO","perfecture_jp":"兵庫県","jp_add_1":"小野市","jp_add_2":"中町"},"6751308":{"post_code":"6751308","prefecture":"HYOGO KEN","city":"ONO SHI","town":"NAKABANCHO","perfecture_jp":"兵庫県","jp_add_1":"小野市","jp_add_2":"中番町"},"6751314":{"post_code":"6751314","prefecture":"HYOGO KEN","city":"ONO SHI","town":"NAGAOCHO","perfecture_jp":"兵庫県","jp_add_1":"小野市","jp_add_2":"長尾町"},"6751375":{"post_code":"6751375","prefecture":"HYOGO KEN","city":"ONO SHI","town":"NISHIHOMMACHI","perfecture_jp":"兵庫県","jp_add_1":"小野市","jp_add_2":"西本町"},"6751341":{"post_code":"6751341","prefecture":"HYOGO KEN","city":"ONO SHI","town":"NISHIWAKICHO","perfecture_jp":"兵庫県","jp_add_1":"小野市","jp_add_2":"西脇町"},"6751377":{"post_code":"6751377","prefecture":"HYOGO KEN","city":"ONO SHI","town":"HATACHO","perfecture_jp":"兵庫県","jp_add_1":"小野市","jp_add_2":"葉多町"},"6751373":{"post_code":"6751373","prefecture":"HYOGO KEN","city":"ONO SHI","town":"HIGASHIHOMMACHI","perfecture_jp":"兵庫県","jp_add_1":"小野市","jp_add_2":"東本町"},"6751315":{"post_code":"6751315","prefecture":"HYOGO KEN","city":"ONO SHI","town":"HIYOSHICHO","perfecture_jp":"兵庫県","jp_add_1":"小野市","jp_add_2":"日吉町"},"6751309":{"post_code":"6751309","prefecture":"HYOGO KEN","city":"ONO SHI","town":"FUKUZUMICHO","perfecture_jp":"兵庫県","jp_add_1":"小野市","jp_add_2":"福住町"},"6751346":{"post_code":"6751346","prefecture":"HYOGO KEN","city":"ONO SHI","town":"FUKUDENCHO","perfecture_jp":"兵庫県","jp_add_1":"小野市","jp_add_2":"福甸町"},"6751328":{"post_code":"6751328","prefecture":"HYOGO KEN","city":"ONO SHI","town":"FUTABACHO","perfecture_jp":"兵庫県","jp_add_1":"小野市","jp_add_2":"二葉町"},"6751306":{"post_code":"6751306","prefecture":"HYOGO KEN","city":"ONO SHI","town":"FUNAKICHO","perfecture_jp":"兵庫県","jp_add_1":"小野市","jp_add_2":"船木町"},"6751363":{"post_code":"6751363","prefecture":"HYOGO KEN","city":"ONO SHI","town":"FURUKAWACHO","perfecture_jp":"兵庫県","jp_add_1":"小野市","jp_add_2":"古川町"},"6751374":{"post_code":"6751374","prefecture":"HYOGO KEN","city":"ONO SHI","town":"HOMMACHI(1-CHOME)","perfecture_jp":"兵庫県","jp_add_1":"小野市","jp_add_2":"本町"},"6751372":{"post_code":"6751372","prefecture":"HYOGO KEN","city":"ONO SHI","town":"HOMMACHI(SONOTA)","perfecture_jp":"兵庫県","jp_add_1":"小野市","jp_add_2":"本町"},"6751376":{"post_code":"6751376","prefecture":"HYOGO KEN","city":"ONO SHI","town":"MARUYAMACHO","perfecture_jp":"兵庫県","jp_add_1":"小野市","jp_add_2":"丸山町"},"6751311":{"post_code":"6751311","prefecture":"HYOGO KEN","city":"ONO SHI","town":"MANSHOJICHO","perfecture_jp":"兵庫県","jp_add_1":"小野市","jp_add_2":"万勝寺町"},"6751350":{"post_code":"6751350","prefecture":"HYOGO KEN","city":"ONO SHI","town":"MINAMIAONOCHO","perfecture_jp":"兵庫県","jp_add_1":"小野市","jp_add_2":"南青野町"},"6751357":{"post_code":"6751357","prefecture":"HYOGO KEN","city":"ONO SHI","town":"MIWACHO","perfecture_jp":"兵庫県","jp_add_1":"小野市","jp_add_2":"三和町"},"6751321":{"post_code":"6751321","prefecture":"HYOGO KEN","city":"ONO SHI","town":"YAMADACHO","perfecture_jp":"兵庫県","jp_add_1":"小野市","jp_add_2":"山田町"},"6751305":{"post_code":"6751305","prefecture":"HYOGO KEN","city":"ONO SHI","town":"WAKIMOTOCHO","perfecture_jp":"兵庫県","jp_add_1":"小野市","jp_add_2":"脇本町"},"6752413":{"post_code":"6752413","prefecture":"HYOGO KEN","city":"KASAI SHI","town":"AONOCHO","perfecture_jp":"兵庫県","jp_add_1":"加西市","jp_add_2":"青野町"},"6752113":{"post_code":"6752113","prefecture":"HYOGO KEN","city":"KASAI SHI","town":"ABIKICHO","perfecture_jp":"兵庫県","jp_add_1":"加西市","jp_add_2":"網引町"},"6752425":{"post_code":"6752425","prefecture":"HYOGO KEN","city":"KASAI SHI","town":"IKEGAMICHO","perfecture_jp":"兵庫県","jp_add_1":"加西市","jp_add_2":"池上町"},"6752423":{"post_code":"6752423","prefecture":"HYOGO KEN","city":"KASAI SHI","town":"IZUMICHO","perfecture_jp":"兵庫県","jp_add_1":"加西市","jp_add_2":"和泉町"},"6752337":{"post_code":"6752337","prefecture":"HYOGO KEN","city":"KASAI SHI","town":"ICHIMURACHO","perfecture_jp":"兵庫県","jp_add_1":"加西市","jp_add_2":"市村町"},"6752434":{"post_code":"6752434","prefecture":"HYOGO KEN","city":"KASAI SHI","town":"UENOCHO","perfecture_jp":"兵庫県","jp_add_1":"加西市","jp_add_2":"上野町"},"6752203":{"post_code":"6752203","prefecture":"HYOGO KEN","city":"KASAI SHI","town":"USHIICHO","perfecture_jp":"兵庫県","jp_add_1":"加西市","jp_add_2":"牛居町"},"6752103":{"post_code":"6752103","prefecture":"HYOGO KEN","city":"KASAI SHI","town":"UZURANOCHO","perfecture_jp":"兵庫県","jp_add_1":"加西市","jp_add_2":"鶉野町"},"6752441":{"post_code":"6752441","prefecture":"HYOGO KEN","city":"KASAI SHI","town":"UTEMICHO","perfecture_jp":"兵庫県","jp_add_1":"加西市","jp_add_2":"越水町"},"6752231":{"post_code":"6752231","prefecture":"HYOGO KEN","city":"KASAI SHI","town":"OJICHO","perfecture_jp":"兵庫県","jp_add_1":"加西市","jp_add_2":"王子町"},"6752455":{"post_code":"6752455","prefecture":"HYOGO KEN","city":"KASAI SHI","town":"OCHICHO","perfecture_jp":"兵庫県","jp_add_1":"加西市","jp_add_2":"大内町"},"6752234":{"post_code":"6752234","prefecture":"HYOGO KEN","city":"KASAI SHI","town":"OMURACHO","perfecture_jp":"兵庫県","jp_add_1":"加西市","jp_add_2":"大村町"},"6752242":{"post_code":"6752242","prefecture":"HYOGO KEN","city":"KASAI SHI","town":"OSAKICHO","perfecture_jp":"兵庫県","jp_add_1":"加西市","jp_add_2":"尾崎町"},"6752344":{"post_code":"6752344","prefecture":"HYOGO KEN","city":"KASAI SHI","town":"OYANAGICHO","perfecture_jp":"兵庫県","jp_add_1":"加西市","jp_add_2":"大柳町"},"6752412":{"post_code":"6752412","prefecture":"HYOGO KEN","city":"KASAI SHI","town":"KAJIYACHO","perfecture_jp":"兵庫県","jp_add_1":"加西市","jp_add_2":"鍛治屋町"},"6752465":{"post_code":"6752465","prefecture":"HYOGO KEN","city":"KASAI SHI","town":"KAMIGETACHO","perfecture_jp":"兵庫県","jp_add_1":"加西市","jp_add_2":"上芥田町"},"6752451":{"post_code":"6752451","prefecture":"HYOGO KEN","city":"KASAI SHI","town":"KAMIMANGANJICHO","perfecture_jp":"兵庫県","jp_add_1":"加西市","jp_add_2":"上万願寺町"},"6752453":{"post_code":"6752453","prefecture":"HYOGO KEN","city":"KASAI SHI","town":"KAMIMICHIYAMACHO","perfecture_jp":"兵庫県","jp_add_1":"加西市","jp_add_2":"上道山町"},"6752104":{"post_code":"6752104","prefecture":"HYOGO KEN","city":"KASAI SHI","town":"KAMIMIYAKICHO","perfecture_jp":"兵庫県","jp_add_1":"加西市","jp_add_2":"上宮木町"},"6752444":{"post_code":"6752444","prefecture":"HYOGO KEN","city":"KASAI SHI","town":"KAMODANICHO","perfecture_jp":"兵庫県","jp_add_1":"加西市","jp_add_2":"鴨谷町"},"6752333":{"post_code":"6752333","prefecture":"HYOGO KEN","city":"KASAI SHI","town":"KISHIROCHO","perfecture_jp":"兵庫県","jp_add_1":"加西市","jp_add_2":"岸呂町"},"6752433":{"post_code":"6752433","prefecture":"HYOGO KEN","city":"KASAI SHI","town":"KITACHO","perfecture_jp":"兵庫県","jp_add_1":"加西市","jp_add_2":"北町"},"6752401":{"post_code":"6752401","prefecture":"HYOGO KEN","city":"KASAI SHI","town":"KUNIMASACHO","perfecture_jp":"兵庫県","jp_add_1":"加西市","jp_add_2":"国正町"},"6752364":{"post_code":"6752364","prefecture":"HYOGO KEN","city":"KASAI SHI","town":"KUBOTACHO","perfecture_jp":"兵庫県","jp_add_1":"加西市","jp_add_2":"窪田町"},"6752221":{"post_code":"6752221","prefecture":"HYOGO KEN","city":"KASAI SHI","town":"KURATANICHO","perfecture_jp":"兵庫県","jp_add_1":"加西市","jp_add_2":"倉谷町"},"6752111":{"post_code":"6752111","prefecture":"HYOGO KEN","city":"KASAI SHI","town":"KUWAHARADACHO","perfecture_jp":"兵庫県","jp_add_1":"加西市","jp_add_2":"桑原田町"},"6752403":{"post_code":"6752403","prefecture":"HYOGO KEN","city":"KASAI SHI","town":"KOINAMICHO","perfecture_jp":"兵庫県","jp_add_1":"加西市","jp_add_2":"小印南町"},"6752421":{"post_code":"6752421","prefecture":"HYOGO KEN","city":"KASAI SHI","town":"KOCHICHO","perfecture_jp":"兵庫県","jp_add_1":"加西市","jp_add_2":"河内町"},"6752112":{"post_code":"6752112","prefecture":"HYOGO KEN","city":"KASAI SHI","town":"SAKAECHO","perfecture_jp":"兵庫県","jp_add_1":"加西市","jp_add_2":"栄町"},"6752222":{"post_code":"6752222","prefecture":"HYOGO KEN","city":"KASAI SHI","town":"SAKAMOTOCHO","perfecture_jp":"兵庫県","jp_add_1":"加西市","jp_add_2":"坂本町"},"6752336":{"post_code":"6752336","prefecture":"HYOGO KEN","city":"KASAI SHI","town":"SAKAMOTOCHO","perfecture_jp":"兵庫県","jp_add_1":"加西市","jp_add_2":"坂元町"},"6752443":{"post_code":"6752443","prefecture":"HYOGO KEN","city":"KASAI SHI","town":"SASAKURACHO","perfecture_jp":"兵庫県","jp_add_1":"加西市","jp_add_2":"笹倉町"},"6752461":{"post_code":"6752461","prefecture":"HYOGO KEN","city":"KASAI SHI","town":"SATANICHO","perfecture_jp":"兵庫県","jp_add_1":"加西市","jp_add_2":"佐谷町"},"6752431":{"post_code":"6752431","prefecture":"HYOGO KEN","city":"KASAI SHI","town":"SHIMACHO","perfecture_jp":"兵庫県","jp_add_1":"加西市","jp_add_2":"島町"},"6752464":{"post_code":"6752464","prefecture":"HYOGO KEN","city":"KASAI SHI","town":"SHIMOGETACHO","perfecture_jp":"兵庫県","jp_add_1":"加西市","jp_add_2":"下芥田町"},"6752452":{"post_code":"6752452","prefecture":"HYOGO KEN","city":"KASAI SHI","town":"SHIMOMANGANJICHO","perfecture_jp":"兵庫県","jp_add_1":"加西市","jp_add_2":"下万願寺町"},"6752454":{"post_code":"6752454","prefecture":"HYOGO KEN","city":"KASAI SHI","town":"SHIMOMICHIYAMACHO","perfecture_jp":"兵庫県","jp_add_1":"加西市","jp_add_2":"下道山町"},"6752105":{"post_code":"6752105","prefecture":"HYOGO KEN","city":"KASAI SHI","town":"SHIMOMIYAKICHO","perfecture_jp":"兵庫県","jp_add_1":"加西市","jp_add_2":"下宮木町"},"6752204":{"post_code":"6752204","prefecture":"HYOGO KEN","city":"KASAI SHI","town":"SHINJOCHO","perfecture_jp":"兵庫県","jp_add_1":"加西市","jp_add_2":"新生町"},"6752363":{"post_code":"6752363","prefecture":"HYOGO KEN","city":"KASAI SHI","town":"SUIDANICHO","perfecture_jp":"兵庫県","jp_add_1":"加西市","jp_add_2":"吸谷町"},"6752411":{"post_code":"6752411","prefecture":"HYOGO KEN","city":"KASAI SHI","town":"DAIKUCHO","perfecture_jp":"兵庫県","jp_add_1":"加西市","jp_add_2":"大工町"},"6752352":{"post_code":"6752352","prefecture":"HYOGO KEN","city":"KASAI SHI","town":"TANIGUCHICHO","perfecture_jp":"兵庫県","jp_add_1":"加西市","jp_add_2":"谷口町"},"6752361":{"post_code":"6752361","prefecture":"HYOGO KEN","city":"KASAI SHI","town":"TANICHO","perfecture_jp":"兵庫県","jp_add_1":"加西市","jp_add_2":"谷町"},"6752114":{"post_code":"6752114","prefecture":"HYOGO KEN","city":"KASAI SHI","town":"TAHARACHO","perfecture_jp":"兵庫県","jp_add_1":"加西市","jp_add_2":"田原町"},"6752402":{"post_code":"6752402","prefecture":"HYOGO KEN","city":"KASAI SHI","town":"TAYACHO","perfecture_jp":"兵庫県","jp_add_1":"加西市","jp_add_2":"田谷町"},"6752241":{"post_code":"6752241","prefecture":"HYOGO KEN","city":"KASAI SHI","town":"DANGECHO","perfecture_jp":"兵庫県","jp_add_1":"加西市","jp_add_2":"段下町"},"6752332":{"post_code":"6752332","prefecture":"HYOGO KEN","city":"KASAI SHI","town":"TOKONABECHO","perfecture_jp":"兵庫県","jp_add_1":"加西市","jp_add_2":"鎮岩町"},"6752232":{"post_code":"6752232","prefecture":"HYOGO KEN","city":"KASAI SHI","town":"TOTAICHO","perfecture_jp":"兵庫県","jp_add_1":"加西市","jp_add_2":"戸田井町"},"6752445":{"post_code":"6752445","prefecture":"HYOGO KEN","city":"KASAI SHI","town":"TONOHARACHO","perfecture_jp":"兵庫県","jp_add_1":"加西市","jp_add_2":"殿原町"},"6752442":{"post_code":"6752442","prefecture":"HYOGO KEN","city":"KASAI SHI","town":"NAKATOMICHO","perfecture_jp":"兵庫県","jp_add_1":"加西市","jp_add_2":"中富町"},"6752243":{"post_code":"6752243","prefecture":"HYOGO KEN","city":"KASAI SHI","town":"NAKANISHICHO","perfecture_jp":"兵庫県","jp_add_1":"加西市","jp_add_2":"中西町"},"6752102":{"post_code":"6752102","prefecture":"HYOGO KEN","city":"KASAI SHI","town":"NAKANOCHO","perfecture_jp":"兵庫県","jp_add_1":"加西市","jp_add_2":"中野町"},"6752343":{"post_code":"6752343","prefecture":"HYOGO KEN","city":"KASAI SHI","town":"NAKAYAMACHO","perfecture_jp":"兵庫県","jp_add_1":"加西市","jp_add_2":"中山町"},"6752362":{"post_code":"6752362","prefecture":"HYOGO KEN","city":"KASAI SHI","town":"NISHIUENOCHO","perfecture_jp":"兵庫県","jp_add_1":"加西市","jp_add_2":"西上野町"},"6752342":{"post_code":"6752342","prefecture":"HYOGO KEN","city":"KASAI SHI","town":"NISHIOSACHO","perfecture_jp":"兵庫県","jp_add_1":"加西市","jp_add_2":"西長町"},"6752213":{"post_code":"6752213","prefecture":"HYOGO KEN","city":"KASAI SHI","town":"NISHIKASAHARACHO","perfecture_jp":"兵庫県","jp_add_1":"加西市","jp_add_2":"西笠原町"},"6752345":{"post_code":"6752345","prefecture":"HYOGO KEN","city":"KASAI SHI","town":"NISHIKENZAKACHO","perfecture_jp":"兵庫県","jp_add_1":"加西市","jp_add_2":"西剣坂町"},"6752366":{"post_code":"6752366","prefecture":"HYOGO KEN","city":"KASAI SHI","town":"NISHITANICHO","perfecture_jp":"兵庫県","jp_add_1":"加西市","jp_add_2":"西谷町"},"6752426":{"post_code":"6752426","prefecture":"HYOGO KEN","city":"KASAI SHI","town":"NISHINONOCHO","perfecture_jp":"兵庫県","jp_add_1":"加西市","jp_add_2":"西野々町"},"6752335":{"post_code":"6752335","prefecture":"HYOGO KEN","city":"KASAI SHI","town":"NISHIYOKOTACHO","perfecture_jp":"兵庫県","jp_add_1":"加西市","jp_add_2":"西横田町"},"6752202":{"post_code":"6752202","prefecture":"HYOGO KEN","city":"KASAI SHI","town":"NOJOCHO","perfecture_jp":"兵庫県","jp_add_1":"加西市","jp_add_2":"野条町"},"6752424":{"post_code":"6752424","prefecture":"HYOGO KEN","city":"KASAI SHI","town":"NOGAMICHO","perfecture_jp":"兵庫県","jp_add_1":"加西市","jp_add_2":"野上町"},"6752211":{"post_code":"6752211","prefecture":"HYOGO KEN","city":"KASAI SHI","town":"NODACHO","perfecture_jp":"兵庫県","jp_add_1":"加西市","jp_add_2":"野田町"},"6752365":{"post_code":"6752365","prefecture":"HYOGO KEN","city":"KASAI SHI","town":"HATACHO","perfecture_jp":"兵庫県","jp_add_1":"加西市","jp_add_2":"畑町"},"6752101":{"post_code":"6752101","prefecture":"HYOGO KEN","city":"KASAI SHI","town":"HANJOCHO","perfecture_jp":"兵庫県","jp_add_1":"加西市","jp_add_2":"繁昌町"},"6752341":{"post_code":"6752341","prefecture":"HYOGO KEN","city":"KASAI SHI","town":"HIGASHIOSACHO","perfecture_jp":"兵庫県","jp_add_1":"加西市","jp_add_2":"東長町"},"6752212":{"post_code":"6752212","prefecture":"HYOGO KEN","city":"KASAI SHI","town":"HIGASHIKASAHARACHO","perfecture_jp":"兵庫県","jp_add_1":"加西市","jp_add_2":"東笠原町"},"6752346":{"post_code":"6752346","prefecture":"HYOGO KEN","city":"KASAI SHI","town":"HIGASHIKENZAKACHO","perfecture_jp":"兵庫県","jp_add_1":"加西市","jp_add_2":"東剣坂町"},"6752331":{"post_code":"6752331","prefecture":"HYOGO KEN","city":"KASAI SHI","town":"HIGASHIYOKOTACHO","perfecture_jp":"兵庫県","jp_add_1":"加西市","jp_add_2":"東横田町"},"6752463":{"post_code":"6752463","prefecture":"HYOGO KEN","city":"KASAI SHI","town":"HIROWARACHO","perfecture_jp":"兵庫県","jp_add_1":"加西市","jp_add_2":"広原町"},"6752201":{"post_code":"6752201","prefecture":"HYOGO KEN","city":"KASAI SHI","town":"BIWAKOCHO","perfecture_jp":"兵庫県","jp_add_1":"加西市","jp_add_2":"琵琶甲町"},"6752351":{"post_code":"6752351","prefecture":"HYOGO KEN","city":"KASAI SHI","town":"FUKUICHO","perfecture_jp":"兵庫県","jp_add_1":"加西市","jp_add_2":"福居町"},"6752334":{"post_code":"6752334","prefecture":"HYOGO KEN","city":"KASAI SHI","town":"FUKUZUMICHO","perfecture_jp":"兵庫県","jp_add_1":"加西市","jp_add_2":"福住町"},"6752462":{"post_code":"6752462","prefecture":"HYOGO KEN","city":"KASAI SHI","town":"BESSHOCHO","perfecture_jp":"兵庫県","jp_add_1":"加西市","jp_add_2":"別所町"},"6752302":{"post_code":"6752302","prefecture":"HYOGO KEN","city":"KASAI SHI","town":"HOJOCHO KURIDA","perfecture_jp":"兵庫県","jp_add_1":"加西市","jp_add_2":"北条町栗田"},"6752313":{"post_code":"6752313","prefecture":"HYOGO KEN","city":"KASAI SHI","town":"HOJOCHO KUROKOMA","perfecture_jp":"兵庫県","jp_add_1":"加西市","jp_add_2":"北条町黒駒"},"6752301":{"post_code":"6752301","prefecture":"HYOGO KEN","city":"KASAI SHI","town":"HOJOCHO KODANI","perfecture_jp":"兵庫県","jp_add_1":"加西市","jp_add_2":"北条町小谷"},"6752321":{"post_code":"6752321","prefecture":"HYOGO KEN","city":"KASAI SHI","town":"HOJOCHO HIGASHITAKAMURO","perfecture_jp":"兵庫県","jp_add_1":"加西市","jp_add_2":"北条町東高室"},"6752322":{"post_code":"6752322","prefecture":"HYOGO KEN","city":"KASAI SHI","town":"HOJOCHO NISHITAKAMURO","perfecture_jp":"兵庫県","jp_add_1":"加西市","jp_add_2":"北条町西高室"},"6752324":{"post_code":"6752324","prefecture":"HYOGO KEN","city":"KASAI SHI","town":"HOJOCHO HIGASHINAN","perfecture_jp":"兵庫県","jp_add_1":"加西市","jp_add_2":"北条町東南"},"6752323":{"post_code":"6752323","prefecture":"HYOGO KEN","city":"KASAI SHI","town":"HOJOCHO NISHINAN","perfecture_jp":"兵庫県","jp_add_1":"加西市","jp_add_2":"北条町西南"},"6752303":{"post_code":"6752303","prefecture":"HYOGO KEN","city":"KASAI SHI","town":"HOJOCHO FURUSAKA","perfecture_jp":"兵庫県","jp_add_1":"加西市","jp_add_2":"北条町古坂"},"6752312":{"post_code":"6752312","prefecture":"HYOGO KEN","city":"KASAI SHI","town":"HOJOCHO HOJO","perfecture_jp":"兵庫県","jp_add_1":"加西市","jp_add_2":"北条町北条"},"6752311":{"post_code":"6752311","prefecture":"HYOGO KEN","city":"KASAI SHI","town":"HOJOCHO YOKO","perfecture_jp":"兵庫県","jp_add_1":"加西市","jp_add_2":"北条町横尾"},"6752432":{"post_code":"6752432","prefecture":"HYOGO KEN","city":"KASAI SHI","town":"MAKUCHO","perfecture_jp":"兵庫県","jp_add_1":"加西市","jp_add_2":"満久町"},"6752223":{"post_code":"6752223","prefecture":"HYOGO KEN","city":"KASAI SHI","town":"MIKUCHICHO","perfecture_jp":"兵庫県","jp_add_1":"加西市","jp_add_2":"三口町"},"6752414":{"post_code":"6752414","prefecture":"HYOGO KEN","city":"KASAI SHI","town":"MOTANICHO","perfecture_jp":"兵庫県","jp_add_1":"加西市","jp_add_2":"馬渡谷町"},"6752354":{"post_code":"6752354","prefecture":"HYOGO KEN","city":"KASAI SHI","town":"YAMASHITACHO","perfecture_jp":"兵庫県","jp_add_1":"加西市","jp_add_2":"山下町"},"6752422":{"post_code":"6752422","prefecture":"HYOGO KEN","city":"KASAI SHI","town":"YAMADACHO","perfecture_jp":"兵庫県","jp_add_1":"加西市","jp_add_2":"山田町"},"6752404":{"post_code":"6752404","prefecture":"HYOGO KEN","city":"KASAI SHI","town":"YUDANICHO","perfecture_jp":"兵庫県","jp_add_1":"加西市","jp_add_2":"油谷町"},"6752353":{"post_code":"6752353","prefecture":"HYOGO KEN","city":"KASAI SHI","town":"YOSHINOCHO","perfecture_jp":"兵庫県","jp_add_1":"加西市","jp_add_2":"吉野町"},"6752456":{"post_code":"6752456","prefecture":"HYOGO KEN","city":"KASAI SHI","town":"WAKAICHO","perfecture_jp":"兵庫県","jp_add_1":"加西市","jp_add_2":"若井町"},"6752233":{"post_code":"6752233","prefecture":"HYOGO KEN","city":"KASAI SHI","town":"WACHICHO","perfecture_jp":"兵庫県","jp_add_1":"加西市","jp_add_2":"両月町"},"6751100":{"post_code":"6751100","prefecture":"HYOGO KEN","city":"KAKO GUN INAMI CHO","town":"IKANIKEISAIGANAIBAAI","perfecture_jp":"兵庫県","jp_add_1":"加古郡稲美町","jp_add_2":""},"6751111":{"post_code":"6751111","prefecture":"HYOGO KEN","city":"KAKO GUN INAMI CHO","town":"INNAMI","perfecture_jp":"兵庫県","jp_add_1":"加古郡稲美町","jp_add_2":"印南"},"6751113":{"post_code":"6751113","prefecture":"HYOGO KEN","city":"KAKO GUN INAMI CHO","town":"OKA","perfecture_jp":"兵庫県","jp_add_1":"加古郡稲美町","jp_add_2":"岡"},"6751105":{"post_code":"6751105","prefecture":"HYOGO KEN","city":"KAKO GUN INAMI CHO","town":"KAKO","perfecture_jp":"兵庫県","jp_add_1":"加古郡稲美町","jp_add_2":"加古"},"6751121":{"post_code":"6751121","prefecture":"HYOGO KEN","city":"KAKO GUN INAMI CHO","town":"KITAYAMA","perfecture_jp":"兵庫県","jp_add_1":"加古郡稲美町","jp_add_2":"北山"},"6751102":{"post_code":"6751102","prefecture":"HYOGO KEN","city":"KAKO GUN INAMI CHO","town":"KUSADANI","perfecture_jp":"兵庫県","jp_add_1":"加古郡稲美町","jp_add_2":"草谷"},"6751115":{"post_code":"6751115","prefecture":"HYOGO KEN","city":"KAKO GUN INAMI CHO","town":"KUNIOKA","perfecture_jp":"兵庫県","jp_add_1":"加古郡稲美町","jp_add_2":"国岡"},"6751123":{"post_code":"6751123","prefecture":"HYOGO KEN","city":"KAKO GUN INAMI CHO","town":"KUNIHOKU","perfecture_jp":"兵庫県","jp_add_1":"加古郡稲美町","jp_add_2":"国北"},"6751114":{"post_code":"6751114","prefecture":"HYOGO KEN","city":"KAKO GUN INAMI CHO","town":"KUNIYASU","perfecture_jp":"兵庫県","jp_add_1":"加古郡稲美町","jp_add_2":"国安"},"6751126":{"post_code":"6751126","prefecture":"HYOGO KEN","city":"KAKO GUN INAMI CHO","town":"KOTAKE","perfecture_jp":"兵庫県","jp_add_1":"加古郡稲美町","jp_add_2":"幸竹"},"6751101":{"post_code":"6751101","prefecture":"HYOGO KEN","city":"KAKO GUN INAMI CHO","town":"SHIMOKUSADANI","perfecture_jp":"兵庫県","jp_add_1":"加古郡稲美町","jp_add_2":"下草谷"},"6751116":{"post_code":"6751116","prefecture":"HYOGO KEN","city":"KAKO GUN INAMI CHO","town":"TAKOKUSA","perfecture_jp":"兵庫県","jp_add_1":"加古郡稲美町","jp_add_2":"蛸草"},"6751127":{"post_code":"6751127","prefecture":"HYOGO KEN","city":"KAKO GUN INAMI CHO","town":"NAKAISHIKI","perfecture_jp":"兵庫県","jp_add_1":"加古郡稲美町","jp_add_2":"中一色"},"6751122":{"post_code":"6751122","prefecture":"HYOGO KEN","city":"KAKO GUN INAMI CHO","town":"NAKAMURA","perfecture_jp":"兵庫県","jp_add_1":"加古郡稲美町","jp_add_2":"中村"},"6751103":{"post_code":"6751103","prefecture":"HYOGO KEN","city":"KAKO GUN INAMI CHO","town":"NODANI","perfecture_jp":"兵庫県","jp_add_1":"加古郡稲美町","jp_add_2":"野谷"},"6751104":{"post_code":"6751104","prefecture":"HYOGO KEN","city":"KAKO GUN INAMI CHO","town":"NODERA","perfecture_jp":"兵庫県","jp_add_1":"加古郡稲美町","jp_add_2":"野寺"},"6751124":{"post_code":"6751124","prefecture":"HYOGO KEN","city":"KAKO GUN INAMI CHO","town":"MORIYASU","perfecture_jp":"兵庫県","jp_add_1":"加古郡稲美町","jp_add_2":"森安"},"6751112":{"post_code":"6751112","prefecture":"HYOGO KEN","city":"KAKO GUN INAMI CHO","town":"ROKUBUICHI","perfecture_jp":"兵庫県","jp_add_1":"加古郡稲美町","jp_add_2":"六分一"},"6751125":{"post_code":"6751125","prefecture":"HYOGO KEN","city":"KAKO GUN INAMI CHO","town":"WADA","perfecture_jp":"兵庫県","jp_add_1":"加古郡稲美町","jp_add_2":"和田"},"6750100":{"post_code":"6750100","prefecture":"HYOGO KEN","city":"KAKO GUN HARIMA CHO","town":"IKANIKEISAIGANAIBAAI","perfecture_jp":"兵庫県","jp_add_1":"加古郡播磨町","jp_add_2":""},"6750142":{"post_code":"6750142","prefecture":"HYOGO KEN","city":"KAKO GUN HARIMA CHO","town":"ONAKA","perfecture_jp":"兵庫県","jp_add_1":"加古郡播磨町","jp_add_2":"大中"},"6750157":{"post_code":"6750157","prefecture":"HYOGO KEN","city":"KAKO GUN HARIMA CHO","town":"KAMINOZOE","perfecture_jp":"兵庫県","jp_add_1":"加古郡播磨町","jp_add_2":"上野添"},"6750158":{"post_code":"6750158","prefecture":"HYOGO KEN","city":"KAKO GUN HARIMA CHO","town":"KITANOZOE","perfecture_jp":"兵庫県","jp_add_1":"加古郡播磨町","jp_add_2":"北野添"},"6750148":{"post_code":"6750148","prefecture":"HYOGO KEN","city":"KAKO GUN HARIMA CHO","town":"KITAFURUTA","perfecture_jp":"兵庫県","jp_add_1":"加古郡播磨町","jp_add_2":"北古田"},"6750144":{"post_code":"6750144","prefecture":"HYOGO KEN","city":"KAKO GUN HARIMA CHO","town":"KITAHONJO","perfecture_jp":"兵庫県","jp_add_1":"加古郡播磨町","jp_add_2":"北本荘"},"6750163":{"post_code":"6750163","prefecture":"HYOGO KEN","city":"KAKO GUN HARIMA CHO","town":"KOMIYA","perfecture_jp":"兵庫県","jp_add_1":"加古郡播磨町","jp_add_2":"古宮"},"6750155":{"post_code":"6750155","prefecture":"HYOGO KEN","city":"KAKO GUN HARIMA CHO","town":"NIIJIMA","perfecture_jp":"兵庫県","jp_add_1":"加古郡播磨町","jp_add_2":"新島"},"6750160":{"post_code":"6750160","prefecture":"HYOGO KEN","city":"KAKO GUN HARIMA CHO","town":"NISHINOZOE","perfecture_jp":"兵庫県","jp_add_1":"加古郡播磨町","jp_add_2":"西野添"},"6750151":{"post_code":"6750151","prefecture":"HYOGO KEN","city":"KAKO GUN HARIMA CHO","town":"NOZOE","perfecture_jp":"兵庫県","jp_add_1":"加古郡播磨町","jp_add_2":"野添"},"6750141":{"post_code":"6750141","prefecture":"HYOGO KEN","city":"KAKO GUN HARIMA CHO","town":"NOZOEJO","perfecture_jp":"兵庫県","jp_add_1":"加古郡播磨町","jp_add_2":"野添城"},"6750164":{"post_code":"6750164","prefecture":"HYOGO KEN","city":"KAKO GUN HARIMA CHO","town":"HIGASHINIIJIMA","perfecture_jp":"兵庫県","jp_add_1":"加古郡播磨町","jp_add_2":"東新島"},"6750159":{"post_code":"6750159","prefecture":"HYOGO KEN","city":"KAKO GUN HARIMA CHO","town":"HIGASHINOZOE","perfecture_jp":"兵庫県","jp_add_1":"加古郡播磨町","jp_add_2":"東野添"},"6750156":{"post_code":"6750156","prefecture":"HYOGO KEN","city":"KAKO GUN HARIMA CHO","town":"HIGASHIHONJO","perfecture_jp":"兵庫県","jp_add_1":"加古郡播磨町","jp_add_2":"東本荘"},"6750162":{"post_code":"6750162","prefecture":"HYOGO KEN","city":"KAKO GUN HARIMA CHO","town":"FUTAGO","perfecture_jp":"兵庫県","jp_add_1":"加古郡播磨町","jp_add_2":"二子"},"6750146":{"post_code":"6750146","prefecture":"HYOGO KEN","city":"KAKO GUN HARIMA CHO","town":"FURUTA","perfecture_jp":"兵庫県","jp_add_1":"加古郡播磨町","jp_add_2":"古田"},"6750154":{"post_code":"6750154","prefecture":"HYOGO KEN","city":"KAKO GUN HARIMA CHO","town":"HONJO","perfecture_jp":"兵庫県","jp_add_1":"加古郡播磨町","jp_add_2":"本荘"},"6750147":{"post_code":"6750147","prefecture":"HYOGO KEN","city":"KAKO GUN HARIMA CHO","town":"MINAMIONAKA","perfecture_jp":"兵庫県","jp_add_1":"加古郡播磨町","jp_add_2":"南大中"},"6750150":{"post_code":"6750150","prefecture":"HYOGO KEN","city":"KAKO GUN HARIMA CHO","town":"MINAMINOZOE","perfecture_jp":"兵庫県","jp_add_1":"加古郡播磨町","jp_add_2":"南野添"},"6750143":{"post_code":"6750143","prefecture":"HYOGO KEN","city":"KAKO GUN HARIMA CHO","town":"MIYAKITA","perfecture_jp":"兵庫県","jp_add_1":"加古郡播磨町","jp_add_2":"宮北"},"6750145":{"post_code":"6750145","prefecture":"HYOGO KEN","city":"KAKO GUN HARIMA CHO","town":"MIYANISHI","perfecture_jp":"兵庫県","jp_add_1":"加古郡播磨町","jp_add_2":"宮西"}}