{"6840000":{"post_code":"6840000","prefecture":"TOTTORI KEN","city":"SAKAIMINATO SHI","town":"IKANIKEISAIGANAIBAAI","perfecture_jp":"鳥取県","jp_add_1":"境港市","jp_add_2":""},"6840011":{"post_code":"6840011","prefecture":"TOTTORI KEN","city":"SAKAIMINATO SHI","town":"AIOICHO","perfecture_jp":"鳥取県","jp_add_1":"境港市","jp_add_2":"相生町"},"6840033":{"post_code":"6840033","prefecture":"TOTTORI KEN","city":"SAKAIMINATO SHI","town":"AGARIMICHICHO","perfecture_jp":"鳥取県","jp_add_1":"境港市","jp_add_2":"上道町"},"6840013":{"post_code":"6840013","prefecture":"TOTTORI KEN","city":"SAKAIMINATO SHI","town":"ASAHIMACHI","perfecture_jp":"鳥取県","jp_add_1":"境港市","jp_add_2":"朝日町"},"6840006":{"post_code":"6840006","prefecture":"TOTTORI KEN","city":"SAKAIMINATO SHI","town":"EIMACHI","perfecture_jp":"鳥取県","jp_add_1":"境港市","jp_add_2":"栄町"},"6840023":{"post_code":"6840023","prefecture":"TOTTORI KEN","city":"SAKAIMINATO SHI","town":"KYOMACHI","perfecture_jp":"鳥取県","jp_add_1":"境港市","jp_add_2":"京町"},"6840056":{"post_code":"6840056","prefecture":"TOTTORI KEN","city":"SAKAIMINATO SHI","town":"KOJINCHO","perfecture_jp":"鳥取県","jp_add_1":"境港市","jp_add_2":"幸神町"},"6840053":{"post_code":"6840053","prefecture":"TOTTORI KEN","city":"SAKAIMINATO SHI","town":"KOSHINOZUCHO","perfecture_jp":"鳥取県","jp_add_1":"境港市","jp_add_2":"小篠津町"},"6840055":{"post_code":"6840055","prefecture":"TOTTORI KEN","city":"SAKAIMINATO SHI","town":"SAINOKAMICHO","perfecture_jp":"鳥取県","jp_add_1":"境港市","jp_add_2":"佐斐神町"},"6840054":{"post_code":"6840054","prefecture":"TOTTORI KEN","city":"SAKAIMINATO SHI","town":"SAINOKICHO","perfecture_jp":"鳥取県","jp_add_1":"境港市","jp_add_2":"財ノ木町"},"6840064":{"post_code":"6840064","prefecture":"TOTTORI KEN","city":"SAKAIMINATO SHI","town":"SANGENYACHO","perfecture_jp":"鳥取県","jp_add_1":"境港市","jp_add_2":"三軒屋町"},"6840074":{"post_code":"6840074","prefecture":"TOTTORI KEN","city":"SAKAIMINATO SHI","town":"SHIOMICHO","perfecture_jp":"鳥取県","jp_add_1":"境港市","jp_add_2":"潮見町"},"6840015":{"post_code":"6840015","prefecture":"TOTTORI KEN","city":"SAKAIMINATO SHI","town":"SHINONOMECHO","perfecture_jp":"鳥取県","jp_add_1":"境港市","jp_add_2":"東雲町"},"6840066":{"post_code":"6840066","prefecture":"TOTTORI KEN","city":"SAKAIMINATO SHI","town":"SHIBACHO","perfecture_jp":"鳥取県","jp_add_1":"境港市","jp_add_2":"芝町"},"6840001":{"post_code":"6840001","prefecture":"TOTTORI KEN","city":"SAKAIMINATO SHI","town":"SHIMIZUCHO","perfecture_jp":"鳥取県","jp_add_1":"境港市","jp_add_2":"清水町"},"6840034":{"post_code":"6840034","prefecture":"TOTTORI KEN","city":"SAKAIMINATO SHI","town":"SHOWAMACHI","perfecture_jp":"鳥取県","jp_add_1":"境港市","jp_add_2":"昭和町"},"6840026":{"post_code":"6840026","prefecture":"TOTTORI KEN","city":"SAKAIMINATO SHI","town":"SUEHIROCHO","perfecture_jp":"鳥取県","jp_add_1":"境港市","jp_add_2":"末広町"},"6840063":{"post_code":"6840063","prefecture":"TOTTORI KEN","city":"SAKAIMINATO SHI","town":"SEIDOCHO","perfecture_jp":"鳥取県","jp_add_1":"境港市","jp_add_2":"誠道町"},"6840004":{"post_code":"6840004","prefecture":"TOTTORI KEN","city":"SAKAIMINATO SHI","town":"TAISHOMACHI","perfecture_jp":"鳥取県","jp_add_1":"境港市","jp_add_2":"大正町"},"6840045":{"post_code":"6840045","prefecture":"TOTTORI KEN","city":"SAKAIMINATO SHI","town":"TAKAMATSUCHO","perfecture_jp":"鳥取県","jp_add_1":"境港市","jp_add_2":"高松町"},"6840046":{"post_code":"6840046","prefecture":"TOTTORI KEN","city":"SAKAIMINATO SHI","town":"TAKENOCHIDANCHI","perfecture_jp":"鳥取県","jp_add_1":"境港市","jp_add_2":"竹内団地"},"6840043":{"post_code":"6840043","prefecture":"TOTTORI KEN","city":"SAKAIMINATO SHI","town":"TAKENOCHICHO","perfecture_jp":"鳥取県","jp_add_1":"境港市","jp_add_2":"竹内町"},"6840071":{"post_code":"6840071","prefecture":"TOTTORI KEN","city":"SAKAIMINATO SHI","town":"TONOECHO","perfecture_jp":"鳥取県","jp_add_1":"境港市","jp_add_2":"外江町"},"6840073":{"post_code":"6840073","prefecture":"TOTTORI KEN","city":"SAKAIMINATO SHI","town":"NAKAUMIKANTAKUCHI","perfecture_jp":"鳥取県","jp_add_1":"境港市","jp_add_2":"中海干拓地"},"6840041":{"post_code":"6840041","prefecture":"TOTTORI KEN","city":"SAKAIMINATO SHI","town":"NAKANOCHO","perfecture_jp":"鳥取県","jp_add_1":"境港市","jp_add_2":"中野町"},"6840012":{"post_code":"6840012","prefecture":"TOTTORI KEN","city":"SAKAIMINATO SHI","town":"NAKAMACHI","perfecture_jp":"鳥取県","jp_add_1":"境港市","jp_add_2":"中町"},"6840051":{"post_code":"6840051","prefecture":"TOTTORI KEN","city":"SAKAIMINATO SHI","town":"NIIYACHO","perfecture_jp":"鳥取県","jp_add_1":"境港市","jp_add_2":"新屋町"},"6840075":{"post_code":"6840075","prefecture":"TOTTORI KEN","city":"SAKAIMINATO SHI","town":"NISHIKOGYODANCHI","perfecture_jp":"鳥取県","jp_add_1":"境港市","jp_add_2":"西工業団地"},"6840014":{"post_code":"6840014","prefecture":"TOTTORI KEN","city":"SAKAIMINATO SHI","town":"NYUSENCHO","perfecture_jp":"鳥取県","jp_add_1":"境港市","jp_add_2":"入船町"},"6840062":{"post_code":"6840062","prefecture":"TOTTORI KEN","city":"SAKAIMINATO SHI","town":"HASUIKECHO","perfecture_jp":"鳥取県","jp_add_1":"境港市","jp_add_2":"蓮池町"},"6840016":{"post_code":"6840016","prefecture":"TOTTORI KEN","city":"SAKAIMINATO SHI","town":"HANAMACHI","perfecture_jp":"鳥取県","jp_add_1":"境港市","jp_add_2":"花町"},"6840021":{"post_code":"6840021","prefecture":"TOTTORI KEN","city":"SAKAIMINATO SHI","town":"BABASAKICHO","perfecture_jp":"鳥取県","jp_add_1":"境港市","jp_add_2":"馬場崎町"},"6840003":{"post_code":"6840003","prefecture":"TOTTORI KEN","city":"SAKAIMINATO SHI","town":"HAMANOCHO","perfecture_jp":"鳥取県","jp_add_1":"境港市","jp_add_2":"浜ノ町"},"6840027":{"post_code":"6840027","prefecture":"TOTTORI KEN","city":"SAKAIMINATO SHI","town":"HIGASHIHOMMACHI","perfecture_jp":"鳥取県","jp_add_1":"境港市","jp_add_2":"東本町"},"6840024":{"post_code":"6840024","prefecture":"TOTTORI KEN","city":"SAKAIMINATO SHI","town":"HINODECHO","perfecture_jp":"鳥取県","jp_add_1":"境港市","jp_add_2":"日ノ出町"},"6840042":{"post_code":"6840042","prefecture":"TOTTORI KEN","city":"SAKAIMINATO SHI","town":"FUKUSADACHO","perfecture_jp":"鳥取県","jp_add_1":"境港市","jp_add_2":"福定町"},"6840025":{"post_code":"6840025","prefecture":"TOTTORI KEN","city":"SAKAIMINATO SHI","town":"HOMMACHI","perfecture_jp":"鳥取県","jp_add_1":"境港市","jp_add_2":"本町"},"6840005":{"post_code":"6840005","prefecture":"TOTTORI KEN","city":"SAKAIMINATO SHI","town":"MATSUGAECHO","perfecture_jp":"鳥取県","jp_add_1":"境港市","jp_add_2":"松ケ枝町"},"6840017":{"post_code":"6840017","prefecture":"TOTTORI KEN","city":"SAKAIMINATO SHI","town":"MISAKICHO","perfecture_jp":"鳥取県","jp_add_1":"境港市","jp_add_2":"岬町"},"6840031":{"post_code":"6840031","prefecture":"TOTTORI KEN","city":"SAKAIMINATO SHI","town":"MINATOMACHI","perfecture_jp":"鳥取県","jp_add_1":"境港市","jp_add_2":"湊町"},"6840044":{"post_code":"6840044","prefecture":"TOTTORI KEN","city":"SAKAIMINATO SHI","town":"MIHOCHO","perfecture_jp":"鳥取県","jp_add_1":"境港市","jp_add_2":"美保町"},"6840052":{"post_code":"6840052","prefecture":"TOTTORI KEN","city":"SAKAIMINATO SHI","town":"MUGIKAKICHO","perfecture_jp":"鳥取県","jp_add_1":"境港市","jp_add_2":"麦垣町"},"6840022":{"post_code":"6840022","prefecture":"TOTTORI KEN","city":"SAKAIMINATO SHI","town":"MEIJIMACHI","perfecture_jp":"鳥取県","jp_add_1":"境港市","jp_add_2":"明治町"},"6840032":{"post_code":"6840032","prefecture":"TOTTORI KEN","city":"SAKAIMINATO SHI","town":"MOTOMACHI","perfecture_jp":"鳥取県","jp_add_1":"境港市","jp_add_2":"元町"},"6840065":{"post_code":"6840065","prefecture":"TOTTORI KEN","city":"SAKAIMINATO SHI","town":"MORIOKACHO","perfecture_jp":"鳥取県","jp_add_1":"境港市","jp_add_2":"森岡町"},"6840002":{"post_code":"6840002","prefecture":"TOTTORI KEN","city":"SAKAIMINATO SHI","town":"YAYOICHO","perfecture_jp":"鳥取県","jp_add_1":"境港市","jp_add_2":"弥生町"},"6840076":{"post_code":"6840076","prefecture":"TOTTORI KEN","city":"SAKAIMINATO SHI","town":"YUHIGAOKA","perfecture_jp":"鳥取県","jp_add_1":"境港市","jp_add_2":"夕日ケ丘"},"6840061":{"post_code":"6840061","prefecture":"TOTTORI KEN","city":"SAKAIMINATO SHI","town":"YONEGAWACHO","perfecture_jp":"鳥取県","jp_add_1":"境港市","jp_add_2":"米川町"},"6840072":{"post_code":"6840072","prefecture":"TOTTORI KEN","city":"SAKAIMINATO SHI","town":"WATARICHO","perfecture_jp":"鳥取県","jp_add_1":"境港市","jp_add_2":"渡町"},"6840400":{"post_code":"6840400","prefecture":"SHIMANE KEN","city":"OKI GUN AMA CHO","town":"IKANIKEISAIGANAIBAAI","perfecture_jp":"島根県","jp_add_1":"隠岐郡海士町","jp_add_2":""},"6840403":{"post_code":"6840403","prefecture":"SHIMANE KEN","city":"OKI GUN AMA CHO","town":"AMA","perfecture_jp":"島根県","jp_add_1":"隠岐郡海士町","jp_add_2":"海士"},"6840401":{"post_code":"6840401","prefecture":"SHIMANE KEN","city":"OKI GUN AMA CHO","town":"UZUKA","perfecture_jp":"島根県","jp_add_1":"隠岐郡海士町","jp_add_2":"宇受賀"},"6840413":{"post_code":"6840413","prefecture":"SHIMANE KEN","city":"OKI GUN AMA CHO","town":"SAKI","perfecture_jp":"島根県","jp_add_1":"隠岐郡海士町","jp_add_2":"崎"},"6840411":{"post_code":"6840411","prefecture":"SHIMANE KEN","city":"OKI GUN AMA CHO","town":"CHICHII","perfecture_jp":"島根県","jp_add_1":"隠岐郡海士町","jp_add_2":"知々井"},"6840402":{"post_code":"6840402","prefecture":"SHIMANE KEN","city":"OKI GUN AMA CHO","town":"TOYODA","perfecture_jp":"島根県","jp_add_1":"隠岐郡海士町","jp_add_2":"豊田"},"6840404":{"post_code":"6840404","prefecture":"SHIMANE KEN","city":"OKI GUN AMA CHO","town":"FUKUI","perfecture_jp":"島根県","jp_add_1":"隠岐郡海士町","jp_add_2":"福井"},"6840412":{"post_code":"6840412","prefecture":"SHIMANE KEN","city":"OKI GUN AMA CHO","town":"MINAMI","perfecture_jp":"島根県","jp_add_1":"隠岐郡海士町","jp_add_2":"御波"},"6840300":{"post_code":"6840300","prefecture":"SHIMANE KEN","city":"OKI GUN NISHINOSHIMA CHO","town":"IKANIKEISAIGANAIBAAI","perfecture_jp":"島根県","jp_add_1":"隠岐郡西ノ島町","jp_add_2":""},"6840301":{"post_code":"6840301","prefecture":"SHIMANE KEN","city":"OKI GUN NISHINOSHIMA CHO","town":"UKA","perfecture_jp":"島根県","jp_add_1":"隠岐郡西ノ島町","jp_add_2":"宇賀"},"6840211":{"post_code":"6840211","prefecture":"SHIMANE KEN","city":"OKI GUN NISHINOSHIMA CHO","town":"URAGO","perfecture_jp":"島根県","jp_add_1":"隠岐郡西ノ島町","jp_add_2":"浦郷"},"6840302":{"post_code":"6840302","prefecture":"SHIMANE KEN","city":"OKI GUN NISHINOSHIMA CHO","town":"BEPPU","perfecture_jp":"島根県","jp_add_1":"隠岐郡西ノ島町","jp_add_2":"別府"},"6840303":{"post_code":"6840303","prefecture":"SHIMANE KEN","city":"OKI GUN NISHINOSHIMA CHO","town":"MITA","perfecture_jp":"島根県","jp_add_1":"隠岐郡西ノ島町","jp_add_2":"美田"},"6840100":{"post_code":"6840100","prefecture":"SHIMANE KEN","city":"OKI GUN CHIBU MURA","town":"IKANIKEISAIGANAIBAAI","perfecture_jp":"島根県","jp_add_1":"隠岐郡知夫村","jp_add_2":""},"6840104":{"post_code":"6840104","prefecture":"SHIMANE KEN","city":"OKI GUN CHIBU MURA","town":"USUGE","perfecture_jp":"島根県","jp_add_1":"隠岐郡知夫村","jp_add_2":"薄毛"},"6840107":{"post_code":"6840107","prefecture":"SHIMANE KEN","city":"OKI GUN CHIBU MURA","town":"URUMI","perfecture_jp":"島根県","jp_add_1":"隠岐郡知夫村","jp_add_2":"古海"},"6840101":{"post_code":"6840101","prefecture":"SHIMANE KEN","city":"OKI GUN CHIBU MURA","town":"OE","perfecture_jp":"島根県","jp_add_1":"隠岐郡知夫村","jp_add_2":"大江"},"6840106":{"post_code":"6840106","prefecture":"SHIMANE KEN","city":"OKI GUN CHIBU MURA","town":"KURII","perfecture_jp":"島根県","jp_add_1":"隠岐郡知夫村","jp_add_2":"来居"},"6840102":{"post_code":"6840102","prefecture":"SHIMANE KEN","city":"OKI GUN CHIBU MURA","town":"KORI","perfecture_jp":"島根県","jp_add_1":"隠岐郡知夫村","jp_add_2":"郡"},"6840103":{"post_code":"6840103","prefecture":"SHIMANE KEN","city":"OKI GUN CHIBU MURA","town":"TATAKU","perfecture_jp":"島根県","jp_add_1":"隠岐郡知夫村","jp_add_2":"多沢"},"6840105":{"post_code":"6840105","prefecture":"SHIMANE KEN","city":"OKI GUN CHIBU MURA","town":"NIBU","perfecture_jp":"島根県","jp_add_1":"隠岐郡知夫村","jp_add_2":"仁夫"}}