{"6850000":{"post_code":"6850000","prefecture":"SHIMANE KEN","city":"OKI GUN OKINOSHIMA CHO","town":"IKANIKEISAIGANAIBAAI","perfecture_jp":"島根県","jp_add_1":"隠岐郡隠岐の島町","jp_add_2":""},"6850006":{"post_code":"6850006","prefecture":"SHIMANE KEN","city":"OKI GUN OKINOSHIMA CHO","town":"ARAKI","perfecture_jp":"島根県","jp_add_1":"隠岐郡隠岐の島町","jp_add_2":"有木"},"6850004":{"post_code":"6850004","prefecture":"SHIMANE KEN","city":"OKI GUN OKINOSHIMA CHO","town":"IIDA","perfecture_jp":"島根県","jp_add_1":"隠岐郡隠岐の島町","jp_add_2":"飯田"},"6850411":{"post_code":"6850411","prefecture":"SHIMANE KEN","city":"OKI GUN OKINOSHIMA CHO","town":"IIBI","perfecture_jp":"島根県","jp_add_1":"隠岐郡隠岐の島町","jp_add_2":"飯美"},"6850007":{"post_code":"6850007","prefecture":"SHIMANE KEN","city":"OKI GUN OKINOSHIMA CHO","town":"IKEDA","perfecture_jp":"島根県","jp_add_1":"隠岐郡隠岐の島町","jp_add_2":"池田"},"6850431":{"post_code":"6850431","prefecture":"SHIMANE KEN","city":"OKI GUN OKINOSHIMA CHO","town":"IGO(SONOTA)","perfecture_jp":"島根県","jp_add_1":"隠岐郡隠岐の島町","jp_add_2":"伊後"},"6850306":{"post_code":"6850306","prefecture":"SHIMANE KEN","city":"OKI GUN OKINOSHIMA CHO","town":"IGO(MUKOGAOKA)","perfecture_jp":"島根県","jp_add_1":"隠岐郡隠岐の島町","jp_add_2":"伊後"},"6850003":{"post_code":"6850003","prefecture":"SHIMANE KEN","city":"OKI GUN OKINOSHIMA CHO","town":"INUGU","perfecture_jp":"島根県","jp_add_1":"隠岐郡隠岐の島町","jp_add_2":"犬来"},"6850022":{"post_code":"6850022","prefecture":"SHIMANE KEN","city":"OKI GUN OKINOSHIMA CHO","town":"IMAZU","perfecture_jp":"島根県","jp_add_1":"隠岐郡隠岐の島町","jp_add_2":"今津"},"6850413":{"post_code":"6850413","prefecture":"SHIMANE KEN","city":"OKI GUN OKINOSHIMA CHO","town":"UZUKI","perfecture_jp":"島根県","jp_add_1":"隠岐郡隠岐の島町","jp_add_2":"卯敷"},"6850001":{"post_code":"6850001","prefecture":"SHIMANE KEN","city":"OKI GUN OKINOSHIMA CHO","town":"OKU","perfecture_jp":"島根県","jp_add_1":"隠岐郡隠岐の島町","jp_add_2":"大久"},"6850002":{"post_code":"6850002","prefecture":"SHIMANE KEN","city":"OKI GUN OKINOSHIMA CHO","town":"KAMA","perfecture_jp":"島根県","jp_add_1":"隠岐郡隠岐の島町","jp_add_2":"釜"},"6850026":{"post_code":"6850026","prefecture":"SHIMANE KEN","city":"OKI GUN OKINOSHIMA CHO","town":"KAMINISHI","perfecture_jp":"島根県","jp_add_1":"隠岐郡隠岐の島町","jp_add_2":"上西"},"6850024":{"post_code":"6850024","prefecture":"SHIMANE KEN","city":"OKI GUN OKINOSHIMA CHO","town":"KAMO","perfecture_jp":"島根県","jp_add_1":"隠岐郡隠岐の島町","jp_add_2":"加茂"},"6850435":{"post_code":"6850435","prefecture":"SHIMANE KEN","city":"OKI GUN OKINOSHIMA CHO","town":"GANYA","perfecture_jp":"島根県","jp_add_1":"隠岐郡隠岐の島町","jp_add_2":"元屋"},"6850301":{"post_code":"6850301","prefecture":"SHIMANE KEN","city":"OKI GUN OKINOSHIMA CHO","town":"KITAGATA","perfecture_jp":"島根県","jp_add_1":"隠岐郡隠岐の島町","jp_add_2":"北方"},"6850305":{"post_code":"6850305","prefecture":"SHIMANE KEN","city":"OKI GUN OKINOSHIMA CHO","town":"KUMI","perfecture_jp":"島根県","jp_add_1":"隠岐郡隠岐の島町","jp_add_2":"久見"},"6850101":{"post_code":"6850101","prefecture":"SHIMANE KEN","city":"OKI GUN OKINOSHIMA CHO","town":"KURATA","perfecture_jp":"島根県","jp_add_1":"隠岐郡隠岐の島町","jp_add_2":"蔵田"},"6850312":{"post_code":"6850312","prefecture":"SHIMANE KEN","city":"OKI GUN OKINOSHIMA CHO","town":"KOJI","perfecture_jp":"島根県","jp_add_1":"隠岐郡隠岐の島町","jp_add_2":"小路"},"6850311":{"post_code":"6850311","prefecture":"SHIMANE KEN","city":"OKI GUN OKINOSHIMA CHO","town":"KORI","perfecture_jp":"島根県","jp_add_1":"隠岐郡隠岐の島町","jp_add_2":"郡"},"6850011":{"post_code":"6850011","prefecture":"SHIMANE KEN","city":"OKI GUN OKINOSHIMA CHO","town":"SAKAEMACHI","perfecture_jp":"島根県","jp_add_1":"隠岐郡隠岐の島町","jp_add_2":"栄町"},"6850017":{"post_code":"6850017","prefecture":"SHIMANE KEN","city":"OKI GUN OKINOSHIMA CHO","town":"SHIMONISHI","perfecture_jp":"島根県","jp_add_1":"隠岐郡隠岐の島町","jp_add_2":"下西"},"6850016":{"post_code":"6850016","prefecture":"SHIMANE KEN","city":"OKI GUN OKINOSHIMA CHO","town":"JOHOKUMACHI","perfecture_jp":"島根県","jp_add_1":"隠岐郡隠岐の島町","jp_add_2":"城北町"},"6850304":{"post_code":"6850304","prefecture":"SHIMANE KEN","city":"OKI GUN OKINOSHIMA CHO","town":"SHIRO","perfecture_jp":"島根県","jp_add_1":"隠岐郡隠岐の島町","jp_add_2":"代"},"6850106":{"post_code":"6850106","prefecture":"SHIMANE KEN","city":"OKI GUN OKINOSHIMA CHO","town":"TAKUGI","perfecture_jp":"島根県","jp_add_1":"隠岐郡隠岐の島町","jp_add_2":"蛸木"},"6850105":{"post_code":"6850105","prefecture":"SHIMANE KEN","city":"OKI GUN OKINOSHIMA CHO","town":"TSUDO","perfecture_jp":"島根県","jp_add_1":"隠岐郡隠岐の島町","jp_add_2":"津戸"},"6850104":{"post_code":"6850104","prefecture":"SHIMANE KEN","city":"OKI GUN OKINOSHIMA CHO","town":"TSUMA","perfecture_jp":"島根県","jp_add_1":"隠岐郡隠岐の島町","jp_add_2":"都万"},"6850005":{"post_code":"6850005","prefecture":"SHIMANE KEN","city":"OKI GUN OKINOSHIMA CHO","town":"TOGO","perfecture_jp":"島根県","jp_add_1":"隠岐郡隠岐の島町","jp_add_2":"東郷"},"6850013":{"post_code":"6850013","prefecture":"SHIMANE KEN","city":"OKI GUN OKINOSHIMA CHO","town":"NAKAMACHI","perfecture_jp":"島根県","jp_add_1":"隠岐郡隠岐の島町","jp_add_2":"中町"},"6850434":{"post_code":"6850434","prefecture":"SHIMANE KEN","city":"OKI GUN OKINOSHIMA CHO","town":"NAKAMURA","perfecture_jp":"島根県","jp_add_1":"隠岐郡隠岐の島町","jp_add_2":"中村"},"6850103":{"post_code":"6850103","prefecture":"SHIMANE KEN","city":"OKI GUN OKINOSHIMA CHO","town":"NAGU","perfecture_jp":"島根県","jp_add_1":"隠岐郡隠岐の島町","jp_add_2":"那久"},"6850313":{"post_code":"6850313","prefecture":"SHIMANE KEN","city":"OKI GUN OKINOSHIMA CHO","town":"NAGUCHI","perfecture_jp":"島根県","jp_add_1":"隠岐郡隠岐の島町","jp_add_2":"那久路"},"6850302":{"post_code":"6850302","prefecture":"SHIMANE KEN","city":"OKI GUN OKINOSHIMA CHO","town":"NAWASHIRODA","perfecture_jp":"島根県","jp_add_1":"隠岐郡隠岐の島町","jp_add_2":"苗代田"},"6850023":{"post_code":"6850023","prefecture":"SHIMANE KEN","city":"OKI GUN OKINOSHIMA CHO","town":"NISHIDA","perfecture_jp":"島根県","jp_add_1":"隠岐郡隠岐の島町","jp_add_2":"西田"},"6850014":{"post_code":"6850014","prefecture":"SHIMANE KEN","city":"OKI GUN OKINOSHIMA CHO","town":"NISHIMACHI","perfecture_jp":"島根県","jp_add_1":"隠岐郡隠岐の島町","jp_add_2":"西町"},"6850432":{"post_code":"6850432","prefecture":"SHIMANE KEN","city":"OKI GUN OKINOSHIMA CHO","town":"NISHIMURA","perfecture_jp":"島根県","jp_add_1":"隠岐郡隠岐の島町","jp_add_2":"西村"},"6850027":{"post_code":"6850027","prefecture":"SHIMANE KEN","city":"OKI GUN OKINOSHIMA CHO","town":"HARADA","perfecture_jp":"島根県","jp_add_1":"隠岐郡隠岐の島町","jp_add_2":"原田"},"6850012":{"post_code":"6850012","prefecture":"SHIMANE KEN","city":"OKI GUN OKINOSHIMA CHO","town":"HIGASHIMACHI","perfecture_jp":"島根県","jp_add_1":"隠岐郡隠岐の島町","jp_add_2":"東町"},"6850412":{"post_code":"6850412","prefecture":"SHIMANE KEN","city":"OKI GUN OKINOSHIMA CHO","town":"FUSE","perfecture_jp":"島根県","jp_add_1":"隠岐郡隠岐の島町","jp_add_2":"布施"},"6850025":{"post_code":"6850025","prefecture":"SHIMANE KEN","city":"OKI GUN OKINOSHIMA CHO","town":"HEI","perfecture_jp":"島根県","jp_add_1":"隠岐郡隠岐の島町","jp_add_2":"平"},"6850021":{"post_code":"6850021","prefecture":"SHIMANE KEN","city":"OKI GUN OKINOSHIMA CHO","town":"MISAKIMACHI","perfecture_jp":"島根県","jp_add_1":"隠岐郡隠岐の島町","jp_add_2":"岬町"},"6850433":{"post_code":"6850433","prefecture":"SHIMANE KEN","city":"OKI GUN OKINOSHIMA CHO","town":"MINATO","perfecture_jp":"島根県","jp_add_1":"隠岐郡隠岐の島町","jp_add_2":"湊"},"6850015":{"post_code":"6850015","prefecture":"SHIMANE KEN","city":"OKI GUN OKINOSHIMA CHO","town":"MINATOMACHI","perfecture_jp":"島根県","jp_add_1":"隠岐郡隠岐の島町","jp_add_2":"港町"},"6850303":{"post_code":"6850303","prefecture":"SHIMANE KEN","city":"OKI GUN OKINOSHIMA CHO","town":"MINAMIGATA","perfecture_jp":"島根県","jp_add_1":"隠岐郡隠岐の島町","jp_add_2":"南方"},"6850314":{"post_code":"6850314","prefecture":"SHIMANE KEN","city":"OKI GUN OKINOSHIMA CHO","town":"YAMADA","perfecture_jp":"島根県","jp_add_1":"隠岐郡隠岐の島町","jp_add_2":"山田"},"6850102":{"post_code":"6850102","prefecture":"SHIMANE KEN","city":"OKI GUN OKINOSHIMA CHO","town":"YUI","perfecture_jp":"島根県","jp_add_1":"隠岐郡隠岐の島町","jp_add_2":"油井"}}