{"6940000":{"post_code":"6940000","prefecture":"SHIMANE KEN","city":"ODA SHI","town":"IKANIKEISAIGANAIBAAI","perfecture_jp":"島根県","jp_add_1":"大田市","jp_add_2":""},"6940035":{"post_code":"6940035","prefecture":"SHIMANE KEN","city":"ODA SHI","town":"ISOTAKECHO","perfecture_jp":"島根県","jp_add_1":"大田市","jp_add_2":"五十猛町"},"6940433":{"post_code":"6940433","prefecture":"SHIMANE KEN","city":"ODA SHI","town":"OSHIROCHO OE","perfecture_jp":"島根県","jp_add_1":"大田市","jp_add_2":"大代町大家"},"6940432":{"post_code":"6940432","prefecture":"SHIMANE KEN","city":"ODA SHI","town":"OSHIROCHO NIIYA","perfecture_jp":"島根県","jp_add_1":"大田市","jp_add_2":"大代町新屋"},"6940064":{"post_code":"6940064","prefecture":"SHIMANE KEN","city":"ODA SHI","town":"ODACHO ODA","perfecture_jp":"島根県","jp_add_1":"大田市","jp_add_2":"大田町大田"},"6940062":{"post_code":"6940062","prefecture":"SHIMANE KEN","city":"ODA SHI","town":"ODACHO NOJIRO","perfecture_jp":"島根県","jp_add_1":"大田市","jp_add_2":"大田町野城"},"6940063":{"post_code":"6940063","prefecture":"SHIMANE KEN","city":"ODA SHI","town":"ODACHO YOSHINAGA","perfecture_jp":"島根県","jp_add_1":"大田市","jp_add_2":"大田町吉永"},"6940305":{"post_code":"6940305","prefecture":"SHIMANE KEN","city":"ODA SHI","town":"OMORICHO","perfecture_jp":"島根県","jp_add_1":"大田市","jp_add_2":"大森町"},"6940033":{"post_code":"6940033","prefecture":"SHIMANE KEN","city":"ODA SHI","town":"OYACHO OGUNI","perfecture_jp":"島根県","jp_add_1":"大田市","jp_add_2":"大屋町大国"},"6940034":{"post_code":"6940034","prefecture":"SHIMANE KEN","city":"ODA SHI","town":"OYACHO OYA","perfecture_jp":"島根県","jp_add_1":"大田市","jp_add_2":"大屋町大屋"},"6940032":{"post_code":"6940032","prefecture":"SHIMANE KEN","city":"ODA SHI","town":"OYACHO ONIMURA","perfecture_jp":"島根県","jp_add_1":"大田市","jp_add_2":"大屋町鬼村"},"6940012":{"post_code":"6940012","prefecture":"SHIMANE KEN","city":"ODA SHI","town":"KAWAICHO OSHIHARA","perfecture_jp":"島根県","jp_add_1":"大田市","jp_add_2":"川合町忍原"},"6940011":{"post_code":"6940011","prefecture":"SHIMANE KEN","city":"ODA SHI","town":"KAWAICHO KAWAI","perfecture_jp":"島根県","jp_add_1":"大田市","jp_add_2":"川合町川合"},"6940013":{"post_code":"6940013","prefecture":"SHIMANE KEN","city":"ODA SHI","town":"KAWAICHO YOSHINAGA","perfecture_jp":"島根県","jp_add_1":"大田市","jp_add_2":"川合町吉永"},"6940052":{"post_code":"6940052","prefecture":"SHIMANE KEN","city":"ODA SHI","town":"KUTECHO SATSUKA","perfecture_jp":"島根県","jp_add_1":"大田市","jp_add_2":"久手町刺鹿"},"6940051":{"post_code":"6940051","prefecture":"SHIMANE KEN","city":"ODA SHI","town":"KUTECHO HANENISHI","perfecture_jp":"島根県","jp_add_1":"大田市","jp_add_2":"久手町波根西"},"6940022":{"post_code":"6940022","prefecture":"SHIMANE KEN","city":"ODA SHI","town":"KURICHO ICHIHARA","perfecture_jp":"島根県","jp_add_1":"大田市","jp_add_2":"久利町市原"},"6940024":{"post_code":"6940024","prefecture":"SHIMANE KEN","city":"ODA SHI","town":"KURICHO KURI","perfecture_jp":"島根県","jp_add_1":"大田市","jp_add_2":"久利町久利"},"6940023":{"post_code":"6940023","prefecture":"SHIMANE KEN","city":"ODA SHI","town":"KURICHO SAMA","perfecture_jp":"島根県","jp_add_1":"大田市","jp_add_2":"久利町佐摩"},"6940025":{"post_code":"6940025","prefecture":"SHIMANE KEN","city":"ODA SHI","town":"KURICHO MATSUSHIRO","perfecture_jp":"島根県","jp_add_1":"大田市","jp_add_2":"久利町松代"},"6940021":{"post_code":"6940021","prefecture":"SHIMANE KEN","city":"ODA SHI","town":"KURICHO YUKITSUNE","perfecture_jp":"島根県","jp_add_1":"大田市","jp_add_2":"久利町行恒"},"6940223":{"post_code":"6940223","prefecture":"SHIMANE KEN","city":"ODA SHI","town":"SAMBECHO IKEDA","perfecture_jp":"島根県","jp_add_1":"大田市","jp_add_2":"三瓶町池田"},"6940221":{"post_code":"6940221","prefecture":"SHIMANE KEN","city":"ODA SHI","town":"SAMBECHO UYAMA","perfecture_jp":"島根県","jp_add_1":"大田市","jp_add_2":"三瓶町上山"},"6940224":{"post_code":"6940224","prefecture":"SHIMANE KEN","city":"ODA SHI","town":"SAMBECHO KOYAHARA","perfecture_jp":"島根県","jp_add_1":"大田市","jp_add_2":"三瓶町小屋原"},"6940222":{"post_code":"6940222","prefecture":"SHIMANE KEN","city":"ODA SHI","town":"SAMBECHO SHIGAKU","perfecture_jp":"島根県","jp_add_1":"大田市","jp_add_2":"三瓶町志学"},"6940003":{"post_code":"6940003","prefecture":"SHIMANE KEN","city":"ODA SHI","town":"SAMBECHO TANE","perfecture_jp":"島根県","jp_add_1":"大田市","jp_add_2":"三瓶町多根"},"6940004":{"post_code":"6940004","prefecture":"SHIMANE KEN","city":"ODA SHI","town":"SAMBECHO NOJIRO","perfecture_jp":"島根県","jp_add_1":"大田市","jp_add_2":"三瓶町野城"},"6940031":{"post_code":"6940031","prefecture":"SHIMANE KEN","city":"ODA SHI","town":"SHIZUMACHO","perfecture_jp":"島根県","jp_add_1":"大田市","jp_add_2":"静間町"},"6940431":{"post_code":"6940431","prefecture":"SHIMANE KEN","city":"ODA SHI","town":"SOJIKICHO","perfecture_jp":"島根県","jp_add_1":"大田市","jp_add_2":"祖式町"},"6940061":{"post_code":"6940061","prefecture":"SHIMANE KEN","city":"ODA SHI","town":"TOMIYAMACHOYAMANAKA(OSHIGATO)","perfecture_jp":"島根県","jp_add_1":"大田市","jp_add_2":"富山町山中"},"6940054":{"post_code":"6940054","prefecture":"SHIMANE KEN","city":"ODA SHI","town":"TORIICHO TORII","perfecture_jp":"島根県","jp_add_1":"大田市","jp_add_2":"鳥井町鳥井"},"6940053":{"post_code":"6940053","prefecture":"SHIMANE KEN","city":"ODA SHI","town":"TORIICHO TORIGOE","perfecture_jp":"島根県","jp_add_1":"大田市","jp_add_2":"鳥井町鳥越"},"6940042":{"post_code":"6940042","prefecture":"SHIMANE KEN","city":"ODA SHI","town":"NAGAHISACHO INAMOCHI","perfecture_jp":"島根県","jp_add_1":"大田市","jp_add_2":"長久町稲用"},"6940044":{"post_code":"6940044","prefecture":"SHIMANE KEN","city":"ODA SHI","town":"NAGAHISACHO TSUCHIE","perfecture_jp":"島根県","jp_add_1":"大田市","jp_add_2":"長久町土江"},"6940041":{"post_code":"6940041","prefecture":"SHIMANE KEN","city":"ODA SHI","town":"NAGAHISACHO NAGAHISA","perfecture_jp":"島根県","jp_add_1":"大田市","jp_add_2":"長久町長久"},"6940043":{"post_code":"6940043","prefecture":"SHIMANE KEN","city":"ODA SHI","town":"NAGAHISACHO NOBUSATO","perfecture_jp":"島根県","jp_add_1":"大田市","jp_add_2":"長久町延里"},"6940301":{"post_code":"6940301","prefecture":"SHIMANE KEN","city":"ODA SHI","town":"MINAKAMICHO OGIHARA","perfecture_jp":"島根県","jp_add_1":"大田市","jp_add_2":"水上町荻原"},"6940303":{"post_code":"6940303","prefecture":"SHIMANE KEN","city":"ODA SHI","town":"MINAKAMICHO SHIROTSUKI","perfecture_jp":"島根県","jp_add_1":"大田市","jp_add_2":"水上町白坏"},"6940302":{"post_code":"6940302","prefecture":"SHIMANE KEN","city":"ODA SHI","town":"MINAKAMICHO FUKUHARA","perfecture_jp":"島根県","jp_add_1":"大田市","jp_add_2":"水上町福原"},"6940304":{"post_code":"6940304","prefecture":"SHIMANE KEN","city":"ODA SHI","town":"MINAKAMICHO MIKUSU","perfecture_jp":"島根県","jp_add_1":"大田市","jp_add_2":"水上町三久須"},"6940001":{"post_code":"6940001","prefecture":"SHIMANE KEN","city":"ODA SHI","town":"YAMAGUCHICHO SATSUME","perfecture_jp":"島根県","jp_add_1":"大田市","jp_add_2":"山口町佐津目"},"6940002":{"post_code":"6940002","prefecture":"SHIMANE KEN","city":"ODA SHI","town":"YAMAGUCHICHO YAMAGUCHI","perfecture_jp":"島根県","jp_add_1":"大田市","jp_add_2":"山口町山口"}}