{"6970000":{"post_code":"6970000","prefecture":"SHIMANE KEN","city":"HAMADA SHI","town":"IKANIKEISAIGANAIBAAI","perfecture_jp":"島根県","jp_add_1":"浜田市","jp_add_2":""},"6970034":{"post_code":"6970034","prefecture":"SHIMANE KEN","city":"HAMADA SHI","town":"AIOICHO","perfecture_jp":"島根県","jp_add_1":"浜田市","jp_add_2":"相生町"},"6970022":{"post_code":"6970022","prefecture":"SHIMANE KEN","city":"HAMADA SHI","town":"ASAICHO","perfecture_jp":"島根県","jp_add_1":"浜田市","jp_add_2":"浅井町"},"6970514":{"post_code":"6970514","prefecture":"SHIMANE KEN","city":"HAMADA SHI","town":"ASAHICHO ICHIGI","perfecture_jp":"島根県","jp_add_1":"浜田市","jp_add_2":"旭町市木"},"6970425":{"post_code":"6970425","prefecture":"SHIMANE KEN","city":"HAMADA SHI","town":"ASAHICHO IMAICHI","perfecture_jp":"島根県","jp_add_1":"浜田市","jp_add_2":"旭町今市"},"6970427":{"post_code":"6970427","prefecture":"SHIMANE KEN","city":"HAMADA SHI","town":"ASAHICHO KITA","perfecture_jp":"島根県","jp_add_1":"浜田市","jp_add_2":"旭町木田"},"6970512":{"post_code":"6970512","prefecture":"SHIMANE KEN","city":"HAMADA SHI","town":"ASAHICHO KITAO","perfecture_jp":"島根県","jp_add_1":"浜田市","jp_add_2":"旭町来尾"},"6970513":{"post_code":"6970513","prefecture":"SHIMANE KEN","city":"HAMADA SHI","town":"ASAHICHO SAKAMOTO (YATSUGI)","perfecture_jp":"島根県","jp_add_1":"浜田市","jp_add_2":"旭町坂本"},"6970431":{"post_code":"6970431","prefecture":"SHIMANE KEN","city":"HAMADA SHI","town":"ASAHICHO SAKAMOTO(SONOTA)","perfecture_jp":"島根県","jp_add_1":"浜田市","jp_add_2":"旭町坂本"},"6970423":{"post_code":"6970423","prefecture":"SHIMANE KEN","city":"HAMADA SHI","town":"ASAHICHO SHIGETOMI","perfecture_jp":"島根県","jp_add_1":"浜田市","jp_add_2":"旭町重富"},"6970511":{"post_code":"6970511","prefecture":"SHIMANE KEN","city":"HAMADA SHI","town":"ASAHICHO TSUKAWA","perfecture_jp":"島根県","jp_add_1":"浜田市","jp_add_2":"旭町都川"},"6970422":{"post_code":"6970422","prefecture":"SHIMANE KEN","city":"HAMADA SHI","town":"ASAHICHO HONGO","perfecture_jp":"島根県","jp_add_1":"浜田市","jp_add_2":"旭町本郷"},"6970426":{"post_code":"6970426","prefecture":"SHIMANE KEN","city":"HAMADA SHI","town":"ASAHICHO MARUBARA","perfecture_jp":"島根県","jp_add_1":"浜田市","jp_add_2":"旭町丸原"},"6970421":{"post_code":"6970421","prefecture":"SHIMANE KEN","city":"HAMADA SHI","town":"ASAHICHO YAMANOCHI","perfecture_jp":"島根県","jp_add_1":"浜田市","jp_add_2":"旭町山ノ内"},"6970424":{"post_code":"6970424","prefecture":"SHIMANE KEN","city":"HAMADA SHI","town":"ASAHICHO WADA","perfecture_jp":"島根県","jp_add_1":"浜田市","jp_add_2":"旭町和田"},"6970033":{"post_code":"6970033","prefecture":"SHIMANE KEN","city":"HAMADA SHI","town":"ASAHIMACHI","perfecture_jp":"島根県","jp_add_1":"浜田市","jp_add_2":"朝日町"},"6970062":{"post_code":"6970062","prefecture":"SHIMANE KEN","city":"HAMADA SHI","town":"ATSUTACHO","perfecture_jp":"島根県","jp_add_1":"浜田市","jp_add_2":"熱田町"},"6971334":{"post_code":"6971334","prefecture":"SHIMANE KEN","city":"HAMADA SHI","town":"ICHIITABARACHO","perfecture_jp":"島根県","jp_add_1":"浜田市","jp_add_2":"櫟田原町"},"6971335":{"post_code":"6971335","prefecture":"SHIMANE KEN","city":"HAMADA SHI","town":"INOCHO","perfecture_jp":"島根県","jp_add_1":"浜田市","jp_add_2":"井野町"},"6970032":{"post_code":"6970032","prefecture":"SHIMANE KEN","city":"HAMADA SHI","town":"USHIICHICHO","perfecture_jp":"島根県","jp_add_1":"浜田市","jp_add_2":"牛市町"},"6970011":{"post_code":"6970011","prefecture":"SHIMANE KEN","city":"HAMADA SHI","town":"USHIRONOCHO","perfecture_jp":"島根県","jp_add_1":"浜田市","jp_add_2":"後野町"},"6970064":{"post_code":"6970064","prefecture":"SHIMANE KEN","city":"HAMADA SHI","town":"UCHIDACHO(HYAKUMANKI)","perfecture_jp":"島根県","jp_add_1":"浜田市","jp_add_2":"内田町"},"6971323":{"post_code":"6971323","prefecture":"SHIMANE KEN","city":"HAMADA SHI","town":"UCHIDACHO(SONOTA)","perfecture_jp":"島根県","jp_add_1":"浜田市","jp_add_2":"内田町"},"6970312":{"post_code":"6970312","prefecture":"SHIMANE KEN","city":"HAMADA SHI","town":"UTSUICHO","perfecture_jp":"島根県","jp_add_1":"浜田市","jp_add_2":"宇津井町"},"6970002":{"post_code":"6970002","prefecture":"SHIMANE KEN","city":"HAMADA SHI","town":"UBUYUCHO","perfecture_jp":"島根県","jp_add_1":"浜田市","jp_add_2":"生湯町"},"6970044":{"post_code":"6970044","prefecture":"SHIMANE KEN","city":"HAMADA SHI","town":"EBISUCHO","perfecture_jp":"島根県","jp_add_1":"浜田市","jp_add_2":"蛭子町"},"6970053":{"post_code":"6970053","prefecture":"SHIMANE KEN","city":"HAMADA SHI","town":"OTSUJICHO","perfecture_jp":"島根県","jp_add_1":"浜田市","jp_add_2":"大辻町"},"6971338":{"post_code":"6971338","prefecture":"SHIMANE KEN","city":"HAMADA SHI","town":"ORIICHO","perfecture_jp":"島根県","jp_add_1":"浜田市","jp_add_2":"折居町"},"6970061":{"post_code":"6970061","prefecture":"SHIMANE KEN","city":"HAMADA SHI","town":"KASAGARACHO","perfecture_jp":"島根県","jp_add_1":"浜田市","jp_add_2":"笠柄町"},"6970041":{"post_code":"6970041","prefecture":"SHIMANE KEN","city":"HAMADA SHI","town":"KATANIWACHO","perfecture_jp":"島根県","jp_add_1":"浜田市","jp_add_2":"片庭町"},"6970302":{"post_code":"6970302","prefecture":"SHIMANE KEN","city":"HAMADA SHI","town":"KANAGICHO IMAFUKU","perfecture_jp":"島根県","jp_add_1":"浜田市","jp_add_2":"金城町今福"},"6970305":{"post_code":"6970305","prefecture":"SHIMANE KEN","city":"HAMADA SHI","town":"KANAGICHO IRINO","perfecture_jp":"島根県","jp_add_1":"浜田市","jp_add_2":"金城町入野"},"6970304":{"post_code":"6970304","prefecture":"SHIMANE KEN","city":"HAMADA SHI","town":"KANAGICHO UTSUI","perfecture_jp":"島根県","jp_add_1":"浜田市","jp_add_2":"金城町宇津井"},"6970301":{"post_code":"6970301","prefecture":"SHIMANE KEN","city":"HAMADA SHI","town":"KANAGICHO OIBARA","perfecture_jp":"島根県","jp_add_1":"浜田市","jp_add_2":"金城町追原"},"6970213":{"post_code":"6970213","prefecture":"SHIMANE KEN","city":"HAMADA SHI","town":"KANAGICHO OGUNI","perfecture_jp":"島根県","jp_add_1":"浜田市","jp_add_2":"金城町小国"},"6970122":{"post_code":"6970122","prefecture":"SHIMANE KEN","city":"HAMADA SHI","town":"KANAGICHO KAMIKURUBARA","perfecture_jp":"島根県","jp_add_1":"浜田市","jp_add_2":"金城町上来原"},"6970303":{"post_code":"6970303","prefecture":"SHIMANE KEN","city":"HAMADA SHI","town":"KANAGICHO KUZA","perfecture_jp":"島根県","jp_add_1":"浜田市","jp_add_2":"金城町久佐"},"6970123":{"post_code":"6970123","prefecture":"SHIMANE KEN","city":"HAMADA SHI","town":"KANAGICHO SHICHIJO","perfecture_jp":"島根県","jp_add_1":"浜田市","jp_add_2":"金城町七条"},"6970121":{"post_code":"6970121","prefecture":"SHIMANE KEN","city":"HAMADA SHI","town":"KANAGICHO SHIMOKURUBARA","perfecture_jp":"島根県","jp_add_1":"浜田市","jp_add_2":"金城町下来原"},"6970212":{"post_code":"6970212","prefecture":"SHIMANE KEN","city":"HAMADA SHI","town":"KANAGICHO NAGATA","perfecture_jp":"島根県","jp_add_1":"浜田市","jp_add_2":"金城町長田"},"6970211":{"post_code":"6970211","prefecture":"SHIMANE KEN","city":"HAMADA SHI","town":"KANAGICHO HAZA","perfecture_jp":"島根県","jp_add_1":"浜田市","jp_add_2":"金城町波佐"},"6970005":{"post_code":"6970005","prefecture":"SHIMANE KEN","city":"HAMADA SHI","town":"KAMIKOCHO","perfecture_jp":"島根県","jp_add_1":"浜田市","jp_add_2":"上府町"},"6970045":{"post_code":"6970045","prefecture":"SHIMANE KEN","city":"HAMADA SHI","town":"KYOMACHI","perfecture_jp":"島根県","jp_add_1":"浜田市","jp_add_2":"京町"},"6970004":{"post_code":"6970004","prefecture":"SHIMANE KEN","city":"HAMADA SHI","town":"KUSHIROCHO","perfecture_jp":"島根県","jp_add_1":"浜田市","jp_add_2":"久代町"},"6970024":{"post_code":"6970024","prefecture":"SHIMANE KEN","city":"HAMADA SHI","town":"KUROKAWACHO","perfecture_jp":"島根県","jp_add_1":"浜田市","jp_add_2":"黒川町"},"6970007":{"post_code":"6970007","prefecture":"SHIMANE KEN","city":"HAMADA SHI","town":"KOSACHO","perfecture_jp":"島根県","jp_add_1":"浜田市","jp_add_2":"高佐町"},"6970012":{"post_code":"6970012","prefecture":"SHIMANE KEN","city":"HAMADA SHI","town":"KOCHICHO","perfecture_jp":"島根県","jp_add_1":"浜田市","jp_add_2":"河内町"},"6970003":{"post_code":"6970003","prefecture":"SHIMANE KEN","city":"HAMADA SHI","town":"KOKUBUCHO","perfecture_jp":"島根県","jp_add_1":"浜田市","jp_add_2":"国分町"},"6970031":{"post_code":"6970031","prefecture":"SHIMANE KEN","city":"HAMADA SHI","town":"KONYAMACHI","perfecture_jp":"島根県","jp_add_1":"浜田市","jp_add_2":"紺屋町"},"6970043":{"post_code":"6970043","prefecture":"SHIMANE KEN","city":"HAMADA SHI","town":"SAKAEMACHI","perfecture_jp":"島根県","jp_add_1":"浜田市","jp_add_2":"栄町"},"6970311":{"post_code":"6970311","prefecture":"SHIMANE KEN","city":"HAMADA SHI","town":"SANOCHO","perfecture_jp":"島根県","jp_add_1":"浜田市","jp_add_2":"佐野町"},"6970013":{"post_code":"6970013","prefecture":"SHIMANE KEN","city":"HAMADA SHI","town":"SANGAICHO","perfecture_jp":"島根県","jp_add_1":"浜田市","jp_add_2":"三階町"},"6970047":{"post_code":"6970047","prefecture":"SHIMANE KEN","city":"HAMADA SHI","town":"SHIMIZUCHO","perfecture_jp":"島根県","jp_add_1":"浜田市","jp_add_2":"清水町"},"6970006":{"post_code":"6970006","prefecture":"SHIMANE KEN","city":"HAMADA SHI","town":"SHIMOKOCHO","perfecture_jp":"島根県","jp_add_1":"浜田市","jp_add_2":"下府町"},"6970046":{"post_code":"6970046","prefecture":"SHIMANE KEN","city":"HAMADA SHI","town":"SHINKOCHO","perfecture_jp":"島根県","jp_add_1":"浜田市","jp_add_2":"真光町"},"6970037":{"post_code":"6970037","prefecture":"SHIMANE KEN","city":"HAMADA SHI","town":"SHIMMACHI","perfecture_jp":"島根県","jp_add_1":"浜田市","jp_add_2":"新町"},"6970035":{"post_code":"6970035","prefecture":"SHIMANE KEN","city":"HAMADA SHI","town":"SUGIDOCHO","perfecture_jp":"島根県","jp_add_1":"浜田市","jp_add_2":"杉戸町"},"6971321":{"post_code":"6971321","prefecture":"SHIMANE KEN","city":"HAMADA SHI","town":"SUFUCHO","perfecture_jp":"島根県","jp_add_1":"浜田市","jp_add_2":"周布町"},"6970051":{"post_code":"6970051","prefecture":"SHIMANE KEN","city":"HAMADA SHI","town":"SETOGASHIMACHO","perfecture_jp":"島根県","jp_add_1":"浜田市","jp_add_2":"瀬戸ケ島町"},"6970057":{"post_code":"6970057","prefecture":"SHIMANE KEN","city":"HAMADA SHI","town":"SETOMICHO","perfecture_jp":"島根県","jp_add_1":"浜田市","jp_add_2":"瀬戸見町"},"6970054":{"post_code":"6970054","prefecture":"SHIMANE KEN","city":"HAMADA SHI","town":"TAKATACHO","perfecture_jp":"島根県","jp_add_1":"浜田市","jp_add_2":"高田町"},"6970015":{"post_code":"6970015","prefecture":"SHIMANE KEN","city":"HAMADA SHI","town":"TAKEZAKOCHO","perfecture_jp":"島根県","jp_add_1":"浜田市","jp_add_2":"竹迫町"},"6971332":{"post_code":"6971332","prefecture":"SHIMANE KEN","city":"HAMADA SHI","town":"TABASECHO","perfecture_jp":"島根県","jp_add_1":"浜田市","jp_add_2":"田橋町"},"6970026":{"post_code":"6970026","prefecture":"SHIMANE KEN","city":"HAMADA SHI","town":"TAMACHI","perfecture_jp":"島根県","jp_add_1":"浜田市","jp_add_2":"田町"},"6971326":{"post_code":"6971326","prefecture":"SHIMANE KEN","city":"HAMADA SHI","town":"CHIWACHO","perfecture_jp":"島根県","jp_add_1":"浜田市","jp_add_2":"治和町"},"6971327":{"post_code":"6971327","prefecture":"SHIMANE KEN","city":"HAMADA SHI","town":"TSUMACHO","perfecture_jp":"島根県","jp_add_1":"浜田市","jp_add_2":"津摩町"},"6970036":{"post_code":"6970036","prefecture":"SHIMANE KEN","city":"HAMADA SHI","town":"TEMMACHO","perfecture_jp":"島根県","jp_add_1":"浜田市","jp_add_2":"天満町"},"6970001":{"post_code":"6970001","prefecture":"SHIMANE KEN","city":"HAMADA SHI","town":"TONORACHO","perfecture_jp":"島根県","jp_add_1":"浜田市","jp_add_2":"外ノ浦町"},"6970027":{"post_code":"6970027","prefecture":"SHIMANE KEN","city":"HAMADA SHI","town":"TONOMACHI","perfecture_jp":"島根県","jp_add_1":"浜田市","jp_add_2":"殿町"},"6970065":{"post_code":"6970065","prefecture":"SHIMANE KEN","city":"HAMADA SHI","town":"NAIMURACHO(JUMONJIBARA)","perfecture_jp":"島根県","jp_add_1":"浜田市","jp_add_2":"内村町"},"6971331":{"post_code":"6971331","prefecture":"SHIMANE KEN","city":"HAMADA SHI","town":"NAIMURACHO(SONOTA)","perfecture_jp":"島根県","jp_add_1":"浜田市","jp_add_2":"内村町"},"6970023":{"post_code":"6970023","prefecture":"SHIMANE KEN","city":"HAMADA SHI","town":"NAGASAWACHO","perfecture_jp":"島根県","jp_add_1":"浜田市","jp_add_2":"長沢町"},"6970063":{"post_code":"6970063","prefecture":"SHIMANE KEN","city":"HAMADA SHI","town":"NAGAHAMACHO","perfecture_jp":"島根県","jp_add_1":"浜田市","jp_add_2":"長浜町"},"6970014":{"post_code":"6970014","prefecture":"SHIMANE KEN","city":"HAMADA SHI","town":"NAGAMICHO","perfecture_jp":"島根県","jp_add_1":"浜田市","jp_add_2":"長見町"},"6971333":{"post_code":"6971333","prefecture":"SHIMANE KEN","city":"HAMADA SHI","town":"NABEISHICHO","perfecture_jp":"島根県","jp_add_1":"浜田市","jp_add_2":"鍋石町"},"6970042":{"post_code":"6970042","prefecture":"SHIMANE KEN","city":"HAMADA SHI","town":"NISHIKIMACHI","perfecture_jp":"島根県","jp_add_1":"浜田市","jp_add_2":"錦町"},"6971337":{"post_code":"6971337","prefecture":"SHIMANE KEN","city":"HAMADA SHI","town":"NISHIMURACHO","perfecture_jp":"島根県","jp_add_1":"浜田市","jp_add_2":"西村町"},"6970016":{"post_code":"6970016","prefecture":"SHIMANE KEN","city":"HAMADA SHI","town":"NOBARACHO","perfecture_jp":"島根県","jp_add_1":"浜田市","jp_add_2":"野原町"},"6970017":{"post_code":"6970017","prefecture":"SHIMANE KEN","city":"HAMADA SHI","town":"HARAICHO","perfecture_jp":"島根県","jp_add_1":"浜田市","jp_add_2":"原井町"},"6970056":{"post_code":"6970056","prefecture":"SHIMANE KEN","city":"HAMADA SHI","town":"HARACHO","perfecture_jp":"島根県","jp_add_1":"浜田市","jp_add_2":"原町"},"6971322":{"post_code":"6971322","prefecture":"SHIMANE KEN","city":"HAMADA SHI","town":"HINASHICHO","perfecture_jp":"島根県","jp_add_1":"浜田市","jp_add_2":"日脚町"},"6970025":{"post_code":"6970025","prefecture":"SHIMANE KEN","city":"HAMADA SHI","town":"BIWAMACHI","perfecture_jp":"島根県","jp_add_1":"浜田市","jp_add_2":"琵琶町"},"6971324":{"post_code":"6971324","prefecture":"SHIMANE KEN","city":"HAMADA SHI","town":"HONODECHO","perfecture_jp":"島根県","jp_add_1":"浜田市","jp_add_2":"穂出町"},"6970021":{"post_code":"6970021","prefecture":"SHIMANE KEN","city":"HAMADA SHI","town":"MATSUBARACHO","perfecture_jp":"島根県","jp_add_1":"浜田市","jp_add_2":"松原町"},"6970052":{"post_code":"6970052","prefecture":"SHIMANE KEN","city":"HAMADA SHI","town":"MINATOMACHI","perfecture_jp":"島根県","jp_add_1":"浜田市","jp_add_2":"港町"},"6970055":{"post_code":"6970055","prefecture":"SHIMANE KEN","city":"HAMADA SHI","town":"MOTOHAMACHO","perfecture_jp":"島根県","jp_add_1":"浜田市","jp_add_2":"元浜町"},"6971215":{"post_code":"6971215","prefecture":"SHIMANE KEN","city":"HAMADA SHI","town":"YASAKACHO INASHIRO","perfecture_jp":"島根県","jp_add_1":"浜田市","jp_add_2":"弥栄町稲代"},"6971214":{"post_code":"6971214","prefecture":"SHIMANE KEN","city":"HAMADA SHI","town":"YASAKACHO OTSUBO","perfecture_jp":"島根県","jp_add_1":"浜田市","jp_add_2":"弥栄町大坪"},"6971202":{"post_code":"6971202","prefecture":"SHIMANE KEN","city":"HAMADA SHI","town":"YASAKACHO OSAKA","perfecture_jp":"島根県","jp_add_1":"浜田市","jp_add_2":"弥栄町小坂"},"6971204":{"post_code":"6971204","prefecture":"SHIMANE KEN","city":"HAMADA SHI","town":"YASAKACHO KADOTA","perfecture_jp":"島根県","jp_add_1":"浜田市","jp_add_2":"弥栄町門田"},"6971122":{"post_code":"6971122","prefecture":"SHIMANE KEN","city":"HAMADA SHI","town":"YASAKACHO KITSUKA","perfecture_jp":"島根県","jp_add_1":"浜田市","jp_add_2":"弥栄町木都賀"},"6971203":{"post_code":"6971203","prefecture":"SHIMANE KEN","city":"HAMADA SHI","town":"YASAKACHO TAKAUCHI","perfecture_jp":"島根県","jp_add_1":"浜田市","jp_add_2":"弥栄町高内"},"6971123":{"post_code":"6971123","prefecture":"SHIMANE KEN","city":"HAMADA SHI","town":"YASAKACHO TANOHARA","perfecture_jp":"島根県","jp_add_1":"浜田市","jp_add_2":"弥栄町田野原"},"6971201":{"post_code":"6971201","prefecture":"SHIMANE KEN","city":"HAMADA SHI","town":"YASAKACHO TOCHIGI","perfecture_jp":"島根県","jp_add_1":"浜田市","jp_add_2":"弥栄町栃木"},"6971211":{"post_code":"6971211","prefecture":"SHIMANE KEN","city":"HAMADA SHI","town":"YASAKACHO NAGAYASUHONGO","perfecture_jp":"島根県","jp_add_1":"浜田市","jp_add_2":"弥栄町長安本郷"},"6971121":{"post_code":"6971121","prefecture":"SHIMANE KEN","city":"HAMADA SHI","town":"YASAKACHO NOSAKA","perfecture_jp":"島根県","jp_add_1":"浜田市","jp_add_2":"弥栄町野坂"},"6971213":{"post_code":"6971213","prefecture":"SHIMANE KEN","city":"HAMADA SHI","town":"YASAKACHO HODOHARA","perfecture_jp":"島根県","jp_add_1":"浜田市","jp_add_2":"弥栄町程原"},"6971212":{"post_code":"6971212","prefecture":"SHIMANE KEN","city":"HAMADA SHI","town":"YASAKACHO MISATO","perfecture_jp":"島根県","jp_add_1":"浜田市","jp_add_2":"弥栄町三里"},"6971336":{"post_code":"6971336","prefecture":"SHIMANE KEN","city":"HAMADA SHI","town":"YOKOYAMACHO","perfecture_jp":"島根県","jp_add_1":"浜田市","jp_add_2":"横山町"},"6971325":{"post_code":"6971325","prefecture":"SHIMANE KEN","city":"HAMADA SHI","town":"YOSHIJICHO","perfecture_jp":"島根県","jp_add_1":"浜田市","jp_add_2":"吉地町"},"6970631":{"post_code":"6970631","prefecture":"SHIMANE KEN","city":"OCHI GUN ONAN CHO","town":"ICHIGI","perfecture_jp":"島根県","jp_add_1":"邑智郡邑南町","jp_add_2":"市木"}}