{"6980000":{"post_code":"6980000","prefecture":"SHIMANE KEN","city":"MASUDA SHI","town":"IKANIKEISAIGANAIBAAI","perfecture_jp":"島根県","jp_add_1":"益田市","jp_add_2":""},"6980034":{"post_code":"6980034","prefecture":"SHIMANE KEN","city":"MASUDA SHI","town":"AKAGICHO","perfecture_jp":"島根県","jp_add_1":"益田市","jp_add_2":"赤城町"},"6980027":{"post_code":"6980027","prefecture":"SHIMANE KEN","city":"MASUDA SHI","town":"AKEBONO HIGASHIMACHI","perfecture_jp":"島根県","jp_add_1":"益田市","jp_add_2":"あけぼの東町"},"6980025":{"post_code":"6980025","prefecture":"SHIMANE KEN","city":"MASUDA SHI","town":"AKEBONO NISHIMACHI","perfecture_jp":"島根県","jp_add_1":"益田市","jp_add_2":"あけぼの西町"},"6980026":{"post_code":"6980026","prefecture":"SHIMANE KEN","city":"MASUDA SHI","town":"AKEBONO HOMMACHI","perfecture_jp":"島根県","jp_add_1":"益田市","jp_add_2":"あけぼの本町"},"6982253":{"post_code":"6982253","prefecture":"SHIMANE KEN","city":"MASUDA SHI","town":"ASAKACHO","perfecture_jp":"島根県","jp_add_1":"益田市","jp_add_2":"愛栄町"},"6980022":{"post_code":"6980022","prefecture":"SHIMANE KEN","city":"MASUDA SHI","town":"ARIAKECHO","perfecture_jp":"島根県","jp_add_1":"益田市","jp_add_2":"有明町"},"6980037":{"post_code":"6980037","prefecture":"SHIMANE KEN","city":"MASUDA SHI","town":"IIDACHO","perfecture_jp":"島根県","jp_add_1":"益田市","jp_add_2":"飯田町"},"6982142":{"post_code":"6982142","prefecture":"SHIMANE KEN","city":"MASUDA SHI","town":"ICHIHARACHO","perfecture_jp":"島根県","jp_add_1":"益田市","jp_add_2":"市原町"},"6980014":{"post_code":"6980014","prefecture":"SHIMANE KEN","city":"MASUDA SHI","town":"IWAKURACHO","perfecture_jp":"島根県","jp_add_1":"益田市","jp_add_2":"岩倉町"},"6980051":{"post_code":"6980051","prefecture":"SHIMANE KEN","city":"MASUDA SHI","town":"UCHIDACHO(IWAMIKUKO)","perfecture_jp":"島根県","jp_add_1":"益田市","jp_add_2":"内田町"},"6982143":{"post_code":"6982143","prefecture":"SHIMANE KEN","city":"MASUDA SHI","town":"UCHIDACHO(SONOTA)","perfecture_jp":"島根県","jp_add_1":"益田市","jp_add_2":"内田町"},"6980413":{"post_code":"6980413","prefecture":"SHIMANE KEN","city":"MASUDA SHI","town":"UMADANICHO","perfecture_jp":"島根県","jp_add_1":"益田市","jp_add_2":"馬谷町"},"6980024":{"post_code":"6980024","prefecture":"SHIMANE KEN","city":"MASUDA SHI","town":"EKIMAECHO","perfecture_jp":"島根県","jp_add_1":"益田市","jp_add_2":"駅前町"},"6980012":{"post_code":"6980012","prefecture":"SHIMANE KEN","city":"MASUDA SHI","town":"OTANICHO","perfecture_jp":"島根県","jp_add_1":"益田市","jp_add_2":"大谷町"},"6980003":{"post_code":"6980003","prefecture":"SHIMANE KEN","city":"MASUDA SHI","town":"OTOYOSHICHO","perfecture_jp":"島根県","jp_add_1":"益田市","jp_add_2":"乙吉町"},"6982252":{"post_code":"6982252","prefecture":"SHIMANE KEN","city":"MASUDA SHI","town":"KASHIBARACHO","perfecture_jp":"島根県","jp_add_1":"益田市","jp_add_2":"柏原町"},"6982254":{"post_code":"6982254","prefecture":"SHIMANE KEN","city":"MASUDA SHI","town":"KATSURAHIRACHO","perfecture_jp":"島根県","jp_add_1":"益田市","jp_add_2":"桂平町"},"6982255":{"post_code":"6982255","prefecture":"SHIMANE KEN","city":"MASUDA SHI","town":"KAMIKURODANICHO","perfecture_jp":"島根県","jp_add_1":"益田市","jp_add_2":"上黒谷町"},"6980045":{"post_code":"6980045","prefecture":"SHIMANE KEN","city":"MASUDA SHI","town":"KAMOSHIMAKITAMACHI","perfecture_jp":"島根県","jp_add_1":"益田市","jp_add_2":"かもしま北町"},"6980047":{"post_code":"6980047","prefecture":"SHIMANE KEN","city":"MASUDA SHI","town":"KAMOSHIMANISHIMACHI","perfecture_jp":"島根県","jp_add_1":"益田市","jp_add_2":"かもしま西町"},"6980046":{"post_code":"6980046","prefecture":"SHIMANE KEN","city":"MASUDA SHI","town":"KAMOSHIMAHIGASHIMACHI","perfecture_jp":"島根県","jp_add_1":"益田市","jp_add_2":"かもしま東町"},"6982145":{"post_code":"6982145","prefecture":"SHIMANE KEN","city":"MASUDA SHI","town":"KAWANOBORICHO","perfecture_jp":"島根県","jp_add_1":"益田市","jp_add_2":"川登町"},"6980013":{"post_code":"6980013","prefecture":"SHIMANE KEN","city":"MASUDA SHI","town":"KUKUMOCHO","perfecture_jp":"島根県","jp_add_1":"益田市","jp_add_2":"久々茂町"},"6980001":{"post_code":"6980001","prefecture":"SHIMANE KEN","city":"MASUDA SHI","town":"KUSHIROCHO","perfecture_jp":"島根県","jp_add_1":"益田市","jp_add_2":"久城町"},"6982251":{"post_code":"6982251","prefecture":"SHIMANE KEN","city":"MASUDA SHI","town":"KUROSUCHO","perfecture_jp":"島根県","jp_add_1":"益田市","jp_add_2":"黒周町"},"6980021":{"post_code":"6980021","prefecture":"SHIMANE KEN","city":"MASUDA SHI","town":"SAIWAICHO","perfecture_jp":"島根県","jp_add_1":"益田市","jp_add_2":"幸町"},"6980035":{"post_code":"6980035","prefecture":"SHIMANE KEN","city":"MASUDA SHI","town":"SAKAEMACHI","perfecture_jp":"島根県","jp_add_1":"益田市","jp_add_2":"栄町"},"6980414":{"post_code":"6980414","prefecture":"SHIMANE KEN","city":"MASUDA SHI","town":"SHIMOHADACHO","perfecture_jp":"島根県","jp_add_1":"益田市","jp_add_2":"下波田町"},"6980002":{"post_code":"6980002","prefecture":"SHIMANE KEN","city":"MASUDA SHI","town":"SHIMOHONGOCHO","perfecture_jp":"島根県","jp_add_1":"益田市","jp_add_2":"下本郷町"},"6980007":{"post_code":"6980007","prefecture":"SHIMANE KEN","city":"MASUDA SHI","town":"SHOWACHO","perfecture_jp":"島根県","jp_add_1":"益田市","jp_add_2":"昭和町"},"6982141":{"post_code":"6982141","prefecture":"SHIMANE KEN","city":"MASUDA SHI","town":"SHIRAKAMICHO","perfecture_jp":"島根県","jp_add_1":"益田市","jp_add_2":"白上町"},"6980036":{"post_code":"6980036","prefecture":"SHIMANE KEN","city":"MASUDA SHI","town":"SUKOCHO","perfecture_jp":"島根県","jp_add_1":"益田市","jp_add_2":"須子町"},"6980011":{"post_code":"6980011","prefecture":"SHIMANE KEN","city":"MASUDA SHI","town":"SOMEBACHO","perfecture_jp":"島根県","jp_add_1":"益田市","jp_add_2":"染羽町"},"6980041":{"post_code":"6980041","prefecture":"SHIMANE KEN","city":"MASUDA SHI","town":"TAKATSUCHO","perfecture_jp":"島根県","jp_add_1":"益田市","jp_add_2":"高津"},"6980031":{"post_code":"6980031","prefecture":"SHIMANE KEN","city":"MASUDA SHI","town":"TADACHO","perfecture_jp":"島根県","jp_add_1":"益田市","jp_add_2":"多田町"},"6980016":{"post_code":"6980016","prefecture":"SHIMANE KEN","city":"MASUDA SHI","town":"DOICHO","perfecture_jp":"島根県","jp_add_1":"益田市","jp_add_2":"土井町"},"6980023":{"post_code":"6980023","prefecture":"SHIMANE KEN","city":"MASUDA SHI","town":"TOKIWACHO","perfecture_jp":"島根県","jp_add_1":"益田市","jp_add_2":"常盤町"},"6980015":{"post_code":"6980015","prefecture":"SHIMANE KEN","city":"MASUDA SHI","town":"TOCHIYAMACHO","perfecture_jp":"島根県","jp_add_1":"益田市","jp_add_2":"栃山町"},"6982146":{"post_code":"6982146","prefecture":"SHIMANE KEN","city":"MASUDA SHI","town":"NAKAGAUCHICHO","perfecture_jp":"島根県","jp_add_1":"益田市","jp_add_2":"中垣内町"},"6980044":{"post_code":"6980044","prefecture":"SHIMANE KEN","city":"MASUDA SHI","town":"NAKAZUCHO","perfecture_jp":"島根県","jp_add_1":"益田市","jp_add_2":"中須町"},"6980043":{"post_code":"6980043","prefecture":"SHIMANE KEN","city":"MASUDA SHI","town":"NAKANOSHIMACHO","perfecture_jp":"島根県","jp_add_1":"益田市","jp_add_2":"中島町"},"6980042":{"post_code":"6980042","prefecture":"SHIMANE KEN","city":"MASUDA SHI","town":"NAKAYOSHIDACHO","perfecture_jp":"島根県","jp_add_1":"益田市","jp_add_2":"中吉田町"},"6980412":{"post_code":"6980412","prefecture":"SHIMANE KEN","city":"MASUDA SHI","town":"NAGASAWACHO","perfecture_jp":"島根県","jp_add_1":"益田市","jp_add_2":"長沢町"},"6980017":{"post_code":"6980017","prefecture":"SHIMANE KEN","city":"MASUDA SHI","town":"NANAOCHO","perfecture_jp":"島根県","jp_add_1":"益田市","jp_add_2":"七尾町"},"6980411":{"post_code":"6980411","prefecture":"SHIMANE KEN","city":"MASUDA SHI","town":"HADACHO","perfecture_jp":"島根県","jp_add_1":"益田市","jp_add_2":"波田町"},"6980004":{"post_code":"6980004","prefecture":"SHIMANE KEN","city":"MASUDA SHI","town":"HIGASHIMACHI","perfecture_jp":"島根県","jp_add_1":"益田市","jp_add_2":"東町"},"6981223":{"post_code":"6981223","prefecture":"SHIMANE KEN","city":"MASUDA SHI","town":"HIKIMICHO ISHITANI","perfecture_jp":"島根県","jp_add_1":"益田市","jp_add_2":"匹見町石谷"},"6981213":{"post_code":"6981213","prefecture":"SHIMANE KEN","city":"MASUDA SHI","town":"HIKIMICHO OCHIAI","perfecture_jp":"島根県","jp_add_1":"益田市","jp_add_2":"匹見町落合"},"6981212":{"post_code":"6981212","prefecture":"SHIMANE KEN","city":"MASUDA SHI","town":"HIKIMICHO SHISO","perfecture_jp":"島根県","jp_add_1":"益田市","jp_add_2":"匹見町紙祖"},"6981221":{"post_code":"6981221","prefecture":"SHIMANE KEN","city":"MASUDA SHI","town":"HIKIMICHO SUMIKAWA","perfecture_jp":"島根県","jp_add_1":"益田市","jp_add_2":"匹見町澄川"},"6981211":{"post_code":"6981211","prefecture":"SHIMANE KEN","city":"MASUDA SHI","town":"HIKIMICHO HIKIMI","perfecture_jp":"島根県","jp_add_1":"益田市","jp_add_2":"匹見町匹見"},"6981222":{"post_code":"6981222","prefecture":"SHIMANE KEN","city":"MASUDA SHI","town":"HIKIMICHO HIROSE","perfecture_jp":"島根県","jp_add_1":"益田市","jp_add_2":"匹見町広瀬"},"6981201":{"post_code":"6981201","prefecture":"SHIMANE KEN","city":"MASUDA SHI","town":"HIKIMICHO MICHIKAWA","perfecture_jp":"島根県","jp_add_1":"益田市","jp_add_2":"匹見町道川"},"6980005":{"post_code":"6980005","prefecture":"SHIMANE KEN","city":"MASUDA SHI","town":"HOMMACHI","perfecture_jp":"島根県","jp_add_1":"益田市","jp_add_2":"本町"},"6980032":{"post_code":"6980032","prefecture":"SHIMANE KEN","city":"MASUDA SHI","town":"MIZUWAKECHO","perfecture_jp":"島根県","jp_add_1":"益田市","jp_add_2":"水分町"},"6980213":{"post_code":"6980213","prefecture":"SHIMANE KEN","city":"MASUDA SHI","town":"MITOCHO ASAKURA","perfecture_jp":"島根県","jp_add_1":"益田市","jp_add_2":"美都町朝倉"},"6980201":{"post_code":"6980201","prefecture":"SHIMANE KEN","city":"MASUDA SHI","town":"MITOCHO ITAIGAWA","perfecture_jp":"島根県","jp_add_1":"益田市","jp_add_2":"美都町板井川"},"6980202":{"post_code":"6980202","prefecture":"SHIMANE KEN","city":"MASUDA SHI","town":"MITOCHO UZUKAWA","perfecture_jp":"島根県","jp_add_1":"益田市","jp_add_2":"美都町宇津川"},"6980206":{"post_code":"6980206","prefecture":"SHIMANE KEN","city":"MASUDA SHI","town":"MITOCHO KUBARA","perfecture_jp":"島根県","jp_add_1":"益田市","jp_add_2":"美都町久原"},"6980211":{"post_code":"6980211","prefecture":"SHIMANE KEN","city":"MASUDA SHI","town":"MITOCHO KOBARA","perfecture_jp":"島根県","jp_add_1":"益田市","jp_add_2":"美都町小原"},"6980214":{"post_code":"6980214","prefecture":"SHIMANE KEN","city":"MASUDA SHI","town":"MITOCHO SASAKURA","perfecture_jp":"島根県","jp_add_1":"益田市","jp_add_2":"美都町笹倉"},"6980212":{"post_code":"6980212","prefecture":"SHIMANE KEN","city":"MASUDA SHI","town":"MITOCHO SENDO","perfecture_jp":"島根県","jp_add_1":"益田市","jp_add_2":"美都町仙道"},"6980203":{"post_code":"6980203","prefecture":"SHIMANE KEN","city":"MASUDA SHI","town":"MITOCHO TSUMO","perfecture_jp":"島根県","jp_add_1":"益田市","jp_add_2":"美都町都茂"},"6980207":{"post_code":"6980207","prefecture":"SHIMANE KEN","city":"MASUDA SHI","town":"MITOCHO MARUMO","perfecture_jp":"島根県","jp_add_1":"益田市","jp_add_2":"美都町丸茂"},"6980205":{"post_code":"6980205","prefecture":"SHIMANE KEN","city":"MASUDA SHI","town":"MITOCHO MITANI","perfecture_jp":"島根県","jp_add_1":"益田市","jp_add_2":"美都町三谷"},"6980204":{"post_code":"6980204","prefecture":"SHIMANE KEN","city":"MASUDA SHI","town":"MITOCHO YAMAMOTO","perfecture_jp":"島根県","jp_add_1":"益田市","jp_add_2":"美都町山本"},"6980006":{"post_code":"6980006","prefecture":"SHIMANE KEN","city":"MASUDA SHI","town":"MIYAKECHO","perfecture_jp":"島根県","jp_add_1":"益田市","jp_add_2":"三宅町"},"6982144":{"post_code":"6982144","prefecture":"SHIMANE KEN","city":"MASUDA SHI","town":"MUSOCHO","perfecture_jp":"島根県","jp_add_1":"益田市","jp_add_2":"虫追町"},"6980033":{"post_code":"6980033","prefecture":"SHIMANE KEN","city":"MASUDA SHI","town":"MOTOMACHI","perfecture_jp":"島根県","jp_add_1":"益田市","jp_add_2":"元町"}}