{"6990407":{"post_code":"6990407","prefecture":"SHIMANE KEN","city":"MATSUE SHI","town":"SHINJICHO IJIMI","perfecture_jp":"島根県","jp_add_1":"松江市","jp_add_2":"宍道町伊志見"},"6990405":{"post_code":"6990405","prefecture":"SHIMANE KEN","city":"MATSUE SHI","town":"SHINJICHO KAMIKIMACHI","perfecture_jp":"島根県","jp_add_1":"松江市","jp_add_2":"宍道町上来待"},"6990406":{"post_code":"6990406","prefecture":"SHIMANE KEN","city":"MATSUE SHI","town":"SHINJICHO SASO","perfecture_jp":"島根県","jp_add_1":"松江市","jp_add_2":"宍道町佐々布"},"6990408":{"post_code":"6990408","prefecture":"SHIMANE KEN","city":"MATSUE SHI","town":"SHINJICHO SHOWA","perfecture_jp":"島根県","jp_add_1":"松江市","jp_add_2":"宍道町昭和"},"6990401":{"post_code":"6990401","prefecture":"SHIMANE KEN","city":"MATSUE SHI","town":"SHINJICHO SHINJI","perfecture_jp":"島根県","jp_add_1":"松江市","jp_add_2":"宍道町宍道"},"6990403":{"post_code":"6990403","prefecture":"SHIMANE KEN","city":"MATSUE SHI","town":"SHINJICHO NISHIKIMACHI","perfecture_jp":"島根県","jp_add_1":"松江市","jp_add_2":"宍道町西来待"},"6990402":{"post_code":"6990402","prefecture":"SHIMANE KEN","city":"MATSUE SHI","town":"SHINJICHO HAKUISHI","perfecture_jp":"島根県","jp_add_1":"松江市","jp_add_2":"宍道町白石"},"6990404":{"post_code":"6990404","prefecture":"SHIMANE KEN","city":"MATSUE SHI","town":"SHINJICHO HIGASHIKIMACHI","perfecture_jp":"島根県","jp_add_1":"松江市","jp_add_2":"宍道町東来待"},"6990205":{"post_code":"6990205","prefecture":"SHIMANE KEN","city":"MATSUE SHI","town":"TAMAYUCHO ODANI","perfecture_jp":"島根県","jp_add_1":"松江市","jp_add_2":"玉湯町大谷"},"6990201":{"post_code":"6990201","prefecture":"SHIMANE KEN","city":"MATSUE SHI","town":"TAMAYUCHO TAMATSUKURI","perfecture_jp":"島根県","jp_add_1":"松江市","jp_add_2":"玉湯町玉造"},"6990204":{"post_code":"6990204","prefecture":"SHIMANE KEN","city":"MATSUE SHI","town":"TAMAYUCHO HAYASHI","perfecture_jp":"島根県","jp_add_1":"松江市","jp_add_2":"玉湯町林"},"6990203":{"post_code":"6990203","prefecture":"SHIMANE KEN","city":"MATSUE SHI","town":"TAMAYUCHO FUJINA","perfecture_jp":"島根県","jp_add_1":"松江市","jp_add_2":"玉湯町布志名"},"6990202":{"post_code":"6990202","prefecture":"SHIMANE KEN","city":"MATSUE SHI","town":"TAMAYUCHO YUMACHI","perfecture_jp":"島根県","jp_add_1":"松江市","jp_add_2":"玉湯町湯町"},"6990108":{"post_code":"6990108","prefecture":"SHIMANE KEN","city":"MATSUE SHI","town":"HIGASHIIZUMOCHO ADAKAE","perfecture_jp":"島根県","jp_add_1":"松江市","jp_add_2":"東出雲町出雲郷"},"6990111":{"post_code":"6990111","prefecture":"SHIMANE KEN","city":"MATSUE SHI","town":"HIGASHIIZUMOCHO IUNAN","perfecture_jp":"島根県","jp_add_1":"松江市","jp_add_2":"東出雲町意宇南"},"6990112":{"post_code":"6990112","prefecture":"SHIMANE KEN","city":"MATSUE SHI","town":"HIGASHIIZUMOCHO IUHIGASHI","perfecture_jp":"島根県","jp_add_1":"松江市","jp_add_2":"東出雲町意宇東"},"6990107":{"post_code":"6990107","prefecture":"SHIMANE KEN","city":"MATSUE SHI","town":"HIGASHIIZUMOCHO IMAMIYA","perfecture_jp":"島根県","jp_add_1":"松江市","jp_add_2":"東出雲町今宮"},"6990101":{"post_code":"6990101","prefecture":"SHIMANE KEN","city":"MATSUE SHI","town":"HIGASHIIZUMOCHO IYA","perfecture_jp":"島根県","jp_add_1":"松江市","jp_add_2":"東出雲町揖屋"},"6990105":{"post_code":"6990105","prefecture":"SHIMANE KEN","city":"MATSUE SHI","town":"HIGASHIIZUMOCHO UCHIUMA","perfecture_jp":"島根県","jp_add_1":"松江市","jp_add_2":"東出雲町内馬"},"6990106":{"post_code":"6990106","prefecture":"SHIMANE KEN","city":"MATSUE SHI","town":"HIGASHIIZUMOCHO KASUGA","perfecture_jp":"島根県","jp_add_1":"松江市","jp_add_2":"東出雲町春日"},"6990103":{"post_code":"6990103","prefecture":"SHIMANE KEN","city":"MATSUE SHI","town":"HIGASHIIZUMOCHO KAMIITO","perfecture_jp":"島根県","jp_add_1":"松江市","jp_add_2":"東出雲町上意東"},"6990102":{"post_code":"6990102","prefecture":"SHIMANE KEN","city":"MATSUE SHI","town":"HIGASHIIZUMOCHO SHIMOITO","perfecture_jp":"島根県","jp_add_1":"松江市","jp_add_2":"東出雲町下意東"},"6990104":{"post_code":"6990104","prefecture":"SHIMANE KEN","city":"MATSUE SHI","town":"HIGASHIIZUMOCHO SUTA","perfecture_jp":"島根県","jp_add_1":"松江市","jp_add_2":"東出雲町須田"},"6990110":{"post_code":"6990110","prefecture":"SHIMANE KEN","city":"MATSUE SHI","town":"HIGASHIIZUMOCHO NISHIKISHIMMACHI","perfecture_jp":"島根県","jp_add_1":"松江市","jp_add_2":"東出雲町錦新町"},"6990109":{"post_code":"6990109","prefecture":"SHIMANE KEN","city":"MATSUE SHI","town":"HIGASHIIZUMOCHO NISHIKIHAMA","perfecture_jp":"島根県","jp_add_1":"松江市","jp_add_2":"東出雲町錦浜"},"6993302":{"post_code":"6993302","prefecture":"SHIMANE KEN","city":"HAMADA SHI","town":"MISUMICHO ASHIDANI","perfecture_jp":"島根県","jp_add_1":"浜田市","jp_add_2":"三隅町芦谷"},"6993215":{"post_code":"6993215","prefecture":"SHIMANE KEN","city":"HAMADA SHI","town":"MISUMICHO SHIMOKOWA","perfecture_jp":"島根県","jp_add_1":"浜田市","jp_add_2":"三隅町井川"},"6993301":{"post_code":"6993301","prefecture":"SHIMANE KEN","city":"HAMADA SHI","town":"MISUMICHO INO","perfecture_jp":"島根県","jp_add_1":"浜田市","jp_add_2":"三隅町井野"},"6993226":{"post_code":"6993226","prefecture":"SHIMANE KEN","city":"HAMADA SHI","town":"MISUMICHO OKAMI","perfecture_jp":"島根県","jp_add_1":"浜田市","jp_add_2":"三隅町岡見"},"6993222":{"post_code":"6993222","prefecture":"SHIMANE KEN","city":"HAMADA SHI","town":"MISUMICHO ORII","perfecture_jp":"島根県","jp_add_1":"浜田市","jp_add_2":"三隅町折居"},"6993216":{"post_code":"6993216","prefecture":"SHIMANE KEN","city":"HAMADA SHI","town":"MISUMICHO KAMIKOWA","perfecture_jp":"島根県","jp_add_1":"浜田市","jp_add_2":"三隅町上古和"},"6993217":{"post_code":"6993217","prefecture":"SHIMANE KEN","city":"HAMADA SHI","town":"MISUMICHO KUROSAWA","perfecture_jp":"島根県","jp_add_1":"浜田市","jp_add_2":"三隅町黒沢"},"6993213":{"post_code":"6993213","prefecture":"SHIMANE KEN","city":"HAMADA SHI","town":"MISUMICHO KOCHI","perfecture_jp":"島根県","jp_add_1":"浜田市","jp_add_2":"三隅町河内"},"6993223":{"post_code":"6993223","prefecture":"SHIMANE KEN","city":"HAMADA SHI","town":"MISUMICHO SAIGOCHI","perfecture_jp":"島根県","jp_add_1":"浜田市","jp_add_2":"三隅町西河内"},"6993221":{"post_code":"6993221","prefecture":"SHIMANE KEN","city":"HAMADA SHI","town":"MISUMICHO HIGASHIHIRABARA","perfecture_jp":"島根県","jp_add_1":"浜田市","jp_add_2":"三隅町東平原"},"6993225":{"post_code":"6993225","prefecture":"SHIMANE KEN","city":"HAMADA SHI","town":"MISUMICHO FURUICHIBA","perfecture_jp":"島根県","jp_add_1":"浜田市","jp_add_2":"三隅町古市場"},"6993211":{"post_code":"6993211","prefecture":"SHIMANE KEN","city":"HAMADA SHI","town":"MISUMICHO MISUMI","perfecture_jp":"島根県","jp_add_1":"浜田市","jp_add_2":"三隅町三隅"},"6993224":{"post_code":"6993224","prefecture":"SHIMANE KEN","city":"HAMADA SHI","town":"MISUMICHO MINATORA","perfecture_jp":"島根県","jp_add_1":"浜田市","jp_add_2":"三隅町湊浦"},"6993212":{"post_code":"6993212","prefecture":"SHIMANE KEN","city":"HAMADA SHI","town":"MISUMICHO MUKAINOTA","perfecture_jp":"島根県","jp_add_1":"浜田市","jp_add_2":"三隅町向野田"},"6993303":{"post_code":"6993303","prefecture":"SHIMANE KEN","city":"HAMADA SHI","town":"MISUMICHO MURODANI","perfecture_jp":"島根県","jp_add_1":"浜田市","jp_add_2":"三隅町室谷"},"6993214":{"post_code":"6993214","prefecture":"SHIMANE KEN","city":"HAMADA SHI","town":"MISUMICHO YABARA","perfecture_jp":"島根県","jp_add_1":"浜田市","jp_add_2":"三隅町矢原"},"6990821":{"post_code":"6990821","prefecture":"SHIMANE KEN","city":"IZUMO SHI","town":"OJIMACHO","perfecture_jp":"島根県","jp_add_1":"出雲市","jp_add_2":"大島町"},"6990817":{"post_code":"6990817","prefecture":"SHIMANE KEN","city":"IZUMO SHI","town":"KORYOCHO ITAZU","perfecture_jp":"島根県","jp_add_1":"出雲市","jp_add_2":"湖陵町板津"},"6990816":{"post_code":"6990816","prefecture":"SHIMANE KEN","city":"IZUMO SHI","town":"KORYOCHO OIKE","perfecture_jp":"島根県","jp_add_1":"出雲市","jp_add_2":"湖陵町大池"},"6990811":{"post_code":"6990811","prefecture":"SHIMANE KEN","city":"IZUMO SHI","town":"KORYOCHO SASHIUMI","perfecture_jp":"島根県","jp_add_1":"出雲市","jp_add_2":"湖陵町差海"},"6990813":{"post_code":"6990813","prefecture":"SHIMANE KEN","city":"IZUMO SHI","town":"KORYOCHO SAMBU","perfecture_jp":"島根県","jp_add_1":"出雲市","jp_add_2":"湖陵町三部"},"6990814":{"post_code":"6990814","prefecture":"SHIMANE KEN","city":"IZUMO SHI","town":"KORYOCHO JORAKUJI","perfecture_jp":"島根県","jp_add_1":"出雲市","jp_add_2":"湖陵町常楽寺"},"6990812":{"post_code":"6990812","prefecture":"SHIMANE KEN","city":"IZUMO SHI","town":"KORYOCHO NIBU","perfecture_jp":"島根県","jp_add_1":"出雲市","jp_add_2":"湖陵町二部"},"6990815":{"post_code":"6990815","prefecture":"SHIMANE KEN","city":"IZUMO SHI","town":"KORYOCHO HATAMURA","perfecture_jp":"島根県","jp_add_1":"出雲市","jp_add_2":"湖陵町畑村"},"6990822":{"post_code":"6990822","prefecture":"SHIMANE KEN","city":"IZUMO SHI","town":"JINZAIOKICHO","perfecture_jp":"島根県","jp_add_1":"出雲市","jp_add_2":"神西沖町"},"6990825":{"post_code":"6990825","prefecture":"SHIMANE KEN","city":"IZUMO SHI","town":"JINZAISHIMMACHI","perfecture_jp":"島根県","jp_add_1":"出雲市","jp_add_2":"神西新町"},"6990762":{"post_code":"6990762","prefecture":"SHIMANE KEN","city":"IZUMO SHI","town":"TAISHACHO UDO","perfecture_jp":"島根県","jp_add_1":"出雲市","jp_add_2":"大社町鵜峠"},"6990764":{"post_code":"6990764","prefecture":"SHIMANE KEN","city":"IZUMO SHI","town":"TAISHACHO URYU","perfecture_jp":"島根県","jp_add_1":"出雲市","jp_add_2":"大社町宇龍"},"6990722":{"post_code":"6990722","prefecture":"SHIMANE KEN","city":"IZUMO SHI","town":"TAISHACHO KITAARAKI","perfecture_jp":"島根県","jp_add_1":"出雲市","jp_add_2":"大社町北荒木"},"6990702":{"post_code":"6990702","prefecture":"SHIMANE KEN","city":"IZUMO SHI","town":"TAISHACHO KIZUKIKITA","perfecture_jp":"島根県","jp_add_1":"出雲市","jp_add_2":"大社町杵築北"},"6990751":{"post_code":"6990751","prefecture":"SHIMANE KEN","city":"IZUMO SHI","town":"TAISHACHO KIZUKINISHI","perfecture_jp":"島根県","jp_add_1":"出雲市","jp_add_2":"大社町杵築西"},"6990701":{"post_code":"6990701","prefecture":"SHIMANE KEN","city":"IZUMO SHI","town":"TAISHACHO KIZUKIHIGASHI","perfecture_jp":"島根県","jp_add_1":"出雲市","jp_add_2":"大社町杵築東"},"6990711":{"post_code":"6990711","prefecture":"SHIMANE KEN","city":"IZUMO SHI","town":"TAISHACHO KIZUKIMINAMI","perfecture_jp":"島根県","jp_add_1":"出雲市","jp_add_2":"大社町杵築南"},"6990761":{"post_code":"6990761","prefecture":"SHIMANE KEN","city":"IZUMO SHI","town":"TAISHACHO SAGIURA","perfecture_jp":"島根県","jp_add_1":"出雲市","jp_add_2":"大社町鷺浦"},"6990721":{"post_code":"6990721","prefecture":"SHIMANE KEN","city":"IZUMO SHI","town":"TAISHACHO SHURIMEN","perfecture_jp":"島根県","jp_add_1":"出雲市","jp_add_2":"大社町修理免"},"6990741":{"post_code":"6990741","prefecture":"SHIMANE KEN","city":"IZUMO SHI","town":"TAISHACHO NAKAARAKI","perfecture_jp":"島根県","jp_add_1":"出雲市","jp_add_2":"大社町中荒木"},"6990732":{"post_code":"6990732","prefecture":"SHIMANE KEN","city":"IZUMO SHI","town":"TAISHACHO NYUNAN","perfecture_jp":"島根県","jp_add_1":"出雲市","jp_add_2":"大社町入南"},"6990733":{"post_code":"6990733","prefecture":"SHIMANE KEN","city":"IZUMO SHI","town":"TAISHACHO HISHINE","perfecture_jp":"島根県","jp_add_1":"出雲市","jp_add_2":"大社町菱根"},"6990763":{"post_code":"6990763","prefecture":"SHIMANE KEN","city":"IZUMO SHI","town":"TAISHACHO HINOMISAKI","perfecture_jp":"島根県","jp_add_1":"出雲市","jp_add_2":"大社町日御碕"},"6990731":{"post_code":"6990731","prefecture":"SHIMANE KEN","city":"IZUMO SHI","town":"TAISHACHO YOKAN","perfecture_jp":"島根県","jp_add_1":"出雲市","jp_add_2":"大社町遙堪"},"6990905":{"post_code":"6990905","prefecture":"SHIMANE KEN","city":"IZUMO SHI","town":"TAKICHO OKUTAGI","perfecture_jp":"島根県","jp_add_1":"出雲市","jp_add_2":"多伎町奥田儀"},"6990903":{"post_code":"6990903","prefecture":"SHIMANE KEN","city":"IZUMO SHI","town":"TAKICHO ODA","perfecture_jp":"島根県","jp_add_1":"出雲市","jp_add_2":"多伎町小田"},"6990906":{"post_code":"6990906","prefecture":"SHIMANE KEN","city":"IZUMO SHI","town":"TAKICHO KAMBARA","perfecture_jp":"島根県","jp_add_1":"出雲市","jp_add_2":"多伎町神原"},"6990904":{"post_code":"6990904","prefecture":"SHIMANE KEN","city":"IZUMO SHI","town":"TAKICHO KUCHITAGI","perfecture_jp":"島根県","jp_add_1":"出雲市","jp_add_2":"多伎町口田儀"},"6990901":{"post_code":"6990901","prefecture":"SHIMANE KEN","city":"IZUMO SHI","town":"TAKICHO KUMURA","perfecture_jp":"島根県","jp_add_1":"出雲市","jp_add_2":"多伎町久村"},"6990902":{"post_code":"6990902","prefecture":"SHIMANE KEN","city":"IZUMO SHI","town":"TAKICHO TAKI","perfecture_jp":"島根県","jp_add_1":"出雲市","jp_add_2":"多伎町多岐"},"6990824":{"post_code":"6990824","prefecture":"SHIMANE KEN","city":"IZUMO SHI","town":"NISHIJINZAICHO","perfecture_jp":"島根県","jp_add_1":"出雲市","jp_add_2":"西神西町"},"6990823":{"post_code":"6990823","prefecture":"SHIMANE KEN","city":"IZUMO SHI","town":"HIGASHIJINZAICHO","perfecture_jp":"島根県","jp_add_1":"出雲市","jp_add_2":"東神西町"},"6990615":{"post_code":"6990615","prefecture":"SHIMANE KEN","city":"IZUMO SHI","town":"HIKAWACHO AIKAWA","perfecture_jp":"島根県","jp_add_1":"出雲市","jp_add_2":"斐川町併川"},"6990611":{"post_code":"6990611","prefecture":"SHIMANE KEN","city":"IZUMO SHI","town":"HIKAWACHO AGU","perfecture_jp":"島根県","jp_add_1":"出雲市","jp_add_2":"斐川町阿宮"},"6990644":{"post_code":"6990644","prefecture":"SHIMANE KEN","city":"IZUMO SHI","town":"HIKAWACHO IMAZAIKE","perfecture_jp":"島根県","jp_add_1":"出雲市","jp_add_2":"斐川町今在家"},"6990551":{"post_code":"6990551","prefecture":"SHIMANE KEN","city":"IZUMO SHI","town":"HIKAWACHO OKINOSU","perfecture_jp":"島根県","jp_add_1":"出雲市","jp_add_2":"斐川町沖洲"},"6990501":{"post_code":"6990501","prefecture":"SHIMANE KEN","city":"IZUMO SHI","town":"HIKAWACHO GAKUTO","perfecture_jp":"島根県","jp_add_1":"出雲市","jp_add_2":"斐川町学頭"},"6990505":{"post_code":"6990505","prefecture":"SHIMANE KEN","city":"IZUMO SHI","town":"HIKAWACHO KAMISHOBARA","perfecture_jp":"島根県","jp_add_1":"出雲市","jp_add_2":"斐川町上庄原"},"6990624":{"post_code":"6990624","prefecture":"SHIMANE KEN","city":"IZUMO SHI","town":"HIKAWACHO KAMINAOE","perfecture_jp":"島根県","jp_add_1":"出雲市","jp_add_2":"斐川町上直江"},"6990503":{"post_code":"6990503","prefecture":"SHIMANE KEN","city":"IZUMO SHI","town":"HIKAWACHO KAMBA","perfecture_jp":"島根県","jp_add_1":"出雲市","jp_add_2":"斐川町神庭"},"6990613":{"post_code":"6990613","prefecture":"SHIMANE KEN","city":"IZUMO SHI","town":"HIKAWACHO KAMPI","perfecture_jp":"島根県","jp_add_1":"出雲市","jp_add_2":"斐川町神氷"},"6990614":{"post_code":"6990614","prefecture":"SHIMANE KEN","city":"IZUMO SHI","town":"HIKAWACHO GUI","perfecture_jp":"島根県","jp_add_1":"出雲市","jp_add_2":"斐川町求院"},"6990553":{"post_code":"6990553","prefecture":"SHIMANE KEN","city":"IZUMO SHI","town":"HIKAWACHO KUROME","perfecture_jp":"島根県","jp_add_1":"出雲市","jp_add_2":"斐川町黒目"},"6990555":{"post_code":"6990555","prefecture":"SHIMANE KEN","city":"IZUMO SHI","town":"HIKAWACHO SAKADA","perfecture_jp":"島根県","jp_add_1":"出雲市","jp_add_2":"斐川町坂田"},"6990554":{"post_code":"6990554","prefecture":"SHIMANE KEN","city":"IZUMO SHI","town":"HIKAWACHO SAMBUICHI","perfecture_jp":"島根県","jp_add_1":"出雲市","jp_add_2":"斐川町三分市"},"6990612":{"post_code":"6990612","prefecture":"SHIMANE KEN","city":"IZUMO SHI","town":"HIKAWACHO SHUSSAI","perfecture_jp":"島根県","jp_add_1":"出雲市","jp_add_2":"斐川町出西"},"6990502":{"post_code":"6990502","prefecture":"SHIMANE KEN","city":"IZUMO SHI","town":"HIKAWACHO SHOBARA","perfecture_jp":"島根県","jp_add_1":"出雲市","jp_add_2":"斐川町荘原"},"6990621":{"post_code":"6990621","prefecture":"SHIMANE KEN","city":"IZUMO SHI","town":"HIKAWACHO TOBIMURA","perfecture_jp":"島根県","jp_add_1":"出雲市","jp_add_2":"斐川町富村"},"6990623":{"post_code":"6990623","prefecture":"SHIMANE KEN","city":"IZUMO SHI","town":"HIKAWACHO TORII","perfecture_jp":"島根県","jp_add_1":"出雲市","jp_add_2":"斐川町鳥井"},"6990631":{"post_code":"6990631","prefecture":"SHIMANE KEN","city":"IZUMO SHI","town":"HIKAWACHO NAOE","perfecture_jp":"島根県","jp_add_1":"出雲市","jp_add_2":"斐川町直江"},"6990552":{"post_code":"6990552","prefecture":"SHIMANE KEN","city":"IZUMO SHI","town":"HIKAWACHO NAKANOSU","perfecture_jp":"島根県","jp_add_1":"出雲市","jp_add_2":"斐川町中洲"},"6990622":{"post_code":"6990622","prefecture":"SHIMANE KEN","city":"IZUMO SHI","town":"HIKAWACHO NASHIMA","perfecture_jp":"島根県","jp_add_1":"出雲市","jp_add_2":"斐川町名島"},"6990643":{"post_code":"6990643","prefecture":"SHIMANE KEN","city":"IZUMO SHI","town":"HIKAWACHO HARASHIKA","perfecture_jp":"島根県","jp_add_1":"出雲市","jp_add_2":"斐川町原鹿"},"6990642":{"post_code":"6990642","prefecture":"SHIMANE KEN","city":"IZUMO SHI","town":"HIKAWACHO FUKUDOMI","perfecture_jp":"島根県","jp_add_1":"出雲市","jp_add_2":"斐川町福富"},"6990504":{"post_code":"6990504","prefecture":"SHIMANE KEN","city":"IZUMO SHI","town":"HIKAWACHO MITSUGANE","perfecture_jp":"島根県","jp_add_1":"出雲市","jp_add_2":"斐川町三絡"},"6990641":{"post_code":"6990641","prefecture":"SHIMANE KEN","city":"IZUMO SHI","town":"HIKAWACHO MINAMI","perfecture_jp":"島根県","jp_add_1":"出雲市","jp_add_2":"斐川町美南"},"6993672":{"post_code":"6993672","prefecture":"SHIMANE KEN","city":"MASUDA SHI","town":"AKAGARICHO","perfecture_jp":"島根県","jp_add_1":"益田市","jp_add_2":"赤雁町"},"6993765":{"post_code":"6993765","prefecture":"SHIMANE KEN","city":"MASUDA SHI","town":"ARITACHO","perfecture_jp":"島根県","jp_add_1":"益田市","jp_add_2":"有田町"},"6993761":{"post_code":"6993761","prefecture":"SHIMANE KEN","city":"MASUDA SHI","town":"IINORACHO","perfecture_jp":"島根県","jp_add_1":"益田市","jp_add_2":"飯浦町"},"6995123":{"post_code":"6995123","prefecture":"SHIMANE KEN","city":"MASUDA SHI","town":"INOKIDANICHO","perfecture_jp":"島根県","jp_add_1":"益田市","jp_add_2":"猪木谷町"},"6995127":{"post_code":"6995127","prefecture":"SHIMANE KEN","city":"MASUDA SHI","town":"UMETSUKICHO","perfecture_jp":"島根県","jp_add_1":"益田市","jp_add_2":"梅月町"},"6993674":{"post_code":"6993674","prefecture":"SHIMANE KEN","city":"MASUDA SHI","town":"OKUSACHO","perfecture_jp":"島根県","jp_add_1":"益田市","jp_add_2":"大草町"},"6993675":{"post_code":"6993675","prefecture":"SHIMANE KEN","city":"MASUDA SHI","town":"OTOKOCHO","perfecture_jp":"島根県","jp_add_1":"益田市","jp_add_2":"乙子町"},"6993501":{"post_code":"6993501","prefecture":"SHIMANE KEN","city":"MASUDA SHI","town":"KANEYAMACHO","perfecture_jp":"島根県","jp_add_1":"益田市","jp_add_2":"金山町"},"6995133":{"post_code":"6995133","prefecture":"SHIMANE KEN","city":"MASUDA SHI","town":"KANDACHO","perfecture_jp":"島根県","jp_add_1":"益田市","jp_add_2":"神田町"},"6993764":{"post_code":"6993764","prefecture":"SHIMANE KEN","city":"MASUDA SHI","town":"KIAMICHO","perfecture_jp":"島根県","jp_add_1":"益田市","jp_add_2":"喜阿弥町"},"6993502":{"post_code":"6993502","prefecture":"SHIMANE KEN","city":"MASUDA SHI","town":"KIBECHO","perfecture_jp":"島根県","jp_add_1":"益田市","jp_add_2":"木部町"},"6993762":{"post_code":"6993762","prefecture":"SHIMANE KEN","city":"MASUDA SHI","town":"KOHAMACHO","perfecture_jp":"島根県","jp_add_1":"益田市","jp_add_2":"小浜町"},"6993503":{"post_code":"6993503","prefecture":"SHIMANE KEN","city":"MASUDA SHI","town":"SHIMOTANECHO","perfecture_jp":"島根県","jp_add_1":"益田市","jp_add_2":"下種町"},"6995125":{"post_code":"6995125","prefecture":"SHIMANE KEN","city":"MASUDA SHI","town":"SHIRAIWACHO","perfecture_jp":"島根県","jp_add_1":"益田市","jp_add_2":"白岩町"},"6995124":{"post_code":"6995124","prefecture":"SHIMANE KEN","city":"MASUDA SHI","town":"SUSUKIBARACHO","perfecture_jp":"島根県","jp_add_1":"益田市","jp_add_2":"薄原町"},"6995126":{"post_code":"6995126","prefecture":"SHIMANE KEN","city":"MASUDA SHI","town":"SUMIMURACHO","perfecture_jp":"島根県","jp_add_1":"益田市","jp_add_2":"隅村町"},"6993504":{"post_code":"6993504","prefecture":"SHIMANE KEN","city":"MASUDA SHI","town":"TANEMURACHO","perfecture_jp":"島根県","jp_add_1":"益田市","jp_add_2":"種村町"},"6993671":{"post_code":"6993671","prefecture":"SHIMANE KEN","city":"MASUDA SHI","town":"TSUDACHO","perfecture_jp":"島根県","jp_add_1":"益田市","jp_add_2":"津田町"},"6993505":{"post_code":"6993505","prefecture":"SHIMANE KEN","city":"MASUDA SHI","town":"TSUCHIDACHO","perfecture_jp":"島根県","jp_add_1":"益田市","jp_add_2":"土田町"},"6993676":{"post_code":"6993676","prefecture":"SHIMANE KEN","city":"MASUDA SHI","town":"TODACHO","perfecture_jp":"島根県","jp_add_1":"益田市","jp_add_2":"遠田町"},"6993763":{"post_code":"6993763","prefecture":"SHIMANE KEN","city":"MASUDA SHI","town":"TODACHO","perfecture_jp":"島根県","jp_add_1":"益田市","jp_add_2":"戸田町"},"6993506":{"post_code":"6993506","prefecture":"SHIMANE KEN","city":"MASUDA SHI","town":"NISHIHIRABARACHO","perfecture_jp":"島根県","jp_add_1":"益田市","jp_add_2":"西平原町"},"6995121":{"post_code":"6995121","prefecture":"SHIMANE KEN","city":"MASUDA SHI","town":"HIDARIGAYAMACHO","perfecture_jp":"島根県","jp_add_1":"益田市","jp_add_2":"左ケ山町"},"6995122":{"post_code":"6995122","prefecture":"SHIMANE KEN","city":"MASUDA SHI","town":"HOMMATAGACHO","perfecture_jp":"島根県","jp_add_1":"益田市","jp_add_2":"本俣賀町"},"6993766":{"post_code":"6993766","prefecture":"SHIMANE KEN","city":"MASUDA SHI","town":"MINOJICHO","perfecture_jp":"島根県","jp_add_1":"益田市","jp_add_2":"美濃地町"},"6995134":{"post_code":"6995134","prefecture":"SHIMANE KEN","city":"MASUDA SHI","town":"MUKAIYOKOTACHO","perfecture_jp":"島根県","jp_add_1":"益田市","jp_add_2":"向横田町"},"6995131":{"post_code":"6995131","prefecture":"SHIMANE KEN","city":"MASUDA SHI","town":"YASUDOMICHO","perfecture_jp":"島根県","jp_add_1":"益田市","jp_add_2":"安富町"},"6993673":{"post_code":"6993673","prefecture":"SHIMANE KEN","city":"MASUDA SHI","town":"YAMAORICHO","perfecture_jp":"島根県","jp_add_1":"益田市","jp_add_2":"山折町"},"6995132":{"post_code":"6995132","prefecture":"SHIMANE KEN","city":"MASUDA SHI","town":"YOKOTACHO","perfecture_jp":"島根県","jp_add_1":"益田市","jp_add_2":"横田町"},"6992213":{"post_code":"6992213","prefecture":"SHIMANE KEN","city":"ODA SHI","town":"ASAYAMACHO ASAKURA","perfecture_jp":"島根県","jp_add_1":"大田市","jp_add_2":"朝山町朝倉"},"6992212":{"post_code":"6992212","prefecture":"SHIMANE KEN","city":"ODA SHI","town":"ASAYAMACHO SENYAMA","perfecture_jp":"島根県","jp_add_1":"大田市","jp_add_2":"朝山町仙山"},"6992214":{"post_code":"6992214","prefecture":"SHIMANE KEN","city":"ODA SHI","town":"TOMIYAMACHO KAMBARA","perfecture_jp":"島根県","jp_add_1":"大田市","jp_add_2":"富山町神原"},"6992215":{"post_code":"6992215","prefecture":"SHIMANE KEN","city":"ODA SHI","town":"TOMIYAMACHO SAIZAKA","perfecture_jp":"島根県","jp_add_1":"大田市","jp_add_2":"富山町才坂"},"6992216":{"post_code":"6992216","prefecture":"SHIMANE KEN","city":"ODA SHI","town":"TOMIYAMACHOYAMANAKA(SONOTA)","perfecture_jp":"島根県","jp_add_1":"大田市","jp_add_2":"富山町山中"},"6992305":{"post_code":"6992305","prefecture":"SHIMANE KEN","city":"ODA SHI","town":"NIMACHO AMAGOCHI","perfecture_jp":"島根県","jp_add_1":"大田市","jp_add_2":"仁摩町天河内"},"6992303":{"post_code":"6992303","prefecture":"SHIMANE KEN","city":"ODA SHI","town":"NIMACHO OGUNI","perfecture_jp":"島根県","jp_add_1":"大田市","jp_add_2":"仁摩町大国"},"6992302":{"post_code":"6992302","prefecture":"SHIMANE KEN","city":"ODA SHI","town":"NIMACHO TAKUNO","perfecture_jp":"島根県","jp_add_1":"大田市","jp_add_2":"仁摩町宅野"},"6992301":{"post_code":"6992301","prefecture":"SHIMANE KEN","city":"ODA SHI","town":"NIMACHO NIMA","perfecture_jp":"島根県","jp_add_1":"大田市","jp_add_2":"仁摩町仁万"},"6992304":{"post_code":"6992304","prefecture":"SHIMANE KEN","city":"ODA SHI","town":"NIMACHO MAJI","perfecture_jp":"島根県","jp_add_1":"大田市","jp_add_2":"仁摩町馬路"},"6992211":{"post_code":"6992211","prefecture":"SHIMANE KEN","city":"ODA SHI","town":"HANECHO","perfecture_jp":"島根県","jp_add_1":"大田市","jp_add_2":"波根町"},"6992507":{"post_code":"6992507","prefecture":"SHIMANE KEN","city":"ODA SHI","town":"YUNOTSUCHO IDA","perfecture_jp":"島根県","jp_add_1":"大田市","jp_add_2":"温泉津町井田"},"6992515":{"post_code":"6992515","prefecture":"SHIMANE KEN","city":"ODA SHI","town":"YUNOTSUCHO IMAURA","perfecture_jp":"島根県","jp_add_1":"大田市","jp_add_2":"温泉津町今浦"},"6992505":{"post_code":"6992505","prefecture":"SHIMANE KEN","city":"ODA SHI","town":"YUNOTSUCHO OTA","perfecture_jp":"島根県","jp_add_1":"大田市","jp_add_2":"温泉津町太田"},"6992504":{"post_code":"6992504","prefecture":"SHIMANE KEN","city":"ODA SHI","town":"YUNOTSUCHO OGIMURA","perfecture_jp":"島根県","jp_add_1":"大田市","jp_add_2":"温泉津町荻村"},"6992513":{"post_code":"6992513","prefecture":"SHIMANE KEN","city":"ODA SHI","town":"YUNOTSUCHO KAMIMURA","perfecture_jp":"島根県","jp_add_1":"大田市","jp_add_2":"温泉津町上村"},"6992511":{"post_code":"6992511","prefecture":"SHIMANE KEN","city":"ODA SHI","town":"YUNOTSUCHO KOHAMA","perfecture_jp":"島根県","jp_add_1":"大田市","jp_add_2":"温泉津町小浜"},"6992503":{"post_code":"6992503","prefecture":"SHIMANE KEN","city":"ODA SHI","town":"YUNOTSUCHO NISHITA","perfecture_jp":"島根県","jp_add_1":"大田市","jp_add_2":"温泉津町西田"},"6992512":{"post_code":"6992512","prefecture":"SHIMANE KEN","city":"ODA SHI","town":"YUNOTSUCHO HAMBARA","perfecture_jp":"島根県","jp_add_1":"大田市","jp_add_2":"温泉津町飯原"},"6992506":{"post_code":"6992506","prefecture":"SHIMANE KEN","city":"ODA SHI","town":"YUNOTSUCHO FUKUDA","perfecture_jp":"島根県","jp_add_1":"大田市","jp_add_2":"温泉津町福田"},"6992514":{"post_code":"6992514","prefecture":"SHIMANE KEN","city":"ODA SHI","town":"YUNOTSUCHO FUKUMITSU","perfecture_jp":"島根県","jp_add_1":"大田市","jp_add_2":"温泉津町福光"},"6992502":{"post_code":"6992502","prefecture":"SHIMANE KEN","city":"ODA SHI","town":"YUNOTSUCHO YUSATO","perfecture_jp":"島根県","jp_add_1":"大田市","jp_add_2":"温泉津町湯里"},"6992501":{"post_code":"6992501","prefecture":"SHIMANE KEN","city":"ODA SHI","town":"YUNOTSUCHO YUNOTSU","perfecture_jp":"島根県","jp_add_1":"大田市","jp_add_2":"温泉津町温泉津"},"6992516":{"post_code":"6992516","prefecture":"SHIMANE KEN","city":"ODA SHI","town":"YUNOTSUCHO YOSHIURA","perfecture_jp":"島根県","jp_add_1":"大田市","jp_add_2":"温泉津町吉浦"},"6992841":{"post_code":"6992841","prefecture":"SHIMANE KEN","city":"GOTSU SHI","town":"USHIROJICHO","perfecture_jp":"島根県","jp_add_1":"江津市","jp_add_2":"後地町"},"6993162":{"post_code":"6993162","prefecture":"SHIMANE KEN","city":"GOTSU SHI","town":"UYAGAWACHO","perfecture_jp":"島根県","jp_add_1":"江津市","jp_add_2":"敬川町"},"6992831":{"post_code":"6992831","prefecture":"SHIMANE KEN","city":"GOTSU SHI","town":"KUROMATSUCHO","perfecture_jp":"島根県","jp_add_1":"江津市","jp_add_2":"黒松町"},"6994221":{"post_code":"6994221","prefecture":"SHIMANE KEN","city":"GOTSU SHI","town":"SAKURAECHO ICHIYAMA","perfecture_jp":"島根県","jp_add_1":"江津市","jp_add_2":"桜江町市山"},"6994222":{"post_code":"6994222","prefecture":"SHIMANE KEN","city":"GOTSU SHI","town":"SAKURAECHO IMADA","perfecture_jp":"島根県","jp_add_1":"江津市","jp_add_2":"桜江町今田"},"6994223":{"post_code":"6994223","prefecture":"SHIMANE KEN","city":"GOTSU SHI","town":"SAKURAECHO USHIROYAMA","perfecture_jp":"島根県","jp_add_1":"江津市","jp_add_2":"桜江町後山"},"6994224":{"post_code":"6994224","prefecture":"SHIMANE KEN","city":"GOTSU SHI","town":"SAKURAECHO ENO","perfecture_jp":"島根県","jp_add_1":"江津市","jp_add_2":"桜江町江尾"},"6994504":{"post_code":"6994504","prefecture":"SHIMANE KEN","city":"GOTSU SHI","town":"SAKURAECHO ONUKI","perfecture_jp":"島根県","jp_add_1":"江津市","jp_add_2":"桜江町大貫"},"6994225":{"post_code":"6994225","prefecture":"SHIMANE KEN","city":"GOTSU SHI","town":"SAKURAECHO ODA","perfecture_jp":"島根県","jp_add_1":"江津市","jp_add_2":"桜江町小田"},"6994502":{"post_code":"6994502","prefecture":"SHIMANE KEN","city":"GOTSU SHI","town":"SAKURAECHO KAWAGOE","perfecture_jp":"島根県","jp_add_1":"江津市","jp_add_2":"桜江町川越"},"6994226":{"post_code":"6994226","prefecture":"SHIMANE KEN","city":"GOTSU SHI","town":"SAKURAECHO KAWADO","perfecture_jp":"島根県","jp_add_1":"江津市","jp_add_2":"桜江町川戸"},"6994505":{"post_code":"6994505","prefecture":"SHIMANE KEN","city":"GOTSU SHI","town":"SAKURAECHO SAKAMOTO","perfecture_jp":"島根県","jp_add_1":"江津市","jp_add_2":"桜江町坂本"},"6994501":{"post_code":"6994501","prefecture":"SHIMANE KEN","city":"GOTSU SHI","town":"SAKURAECHO SHIKAGA","perfecture_jp":"島根県","jp_add_1":"江津市","jp_add_2":"桜江町鹿賀"},"6994503":{"post_code":"6994503","prefecture":"SHIMANE KEN","city":"GOTSU SHI","town":"SAKURAECHO TAZU","perfecture_jp":"島根県","jp_add_1":"江津市","jp_add_2":"桜江町田津"},"6994111":{"post_code":"6994111","prefecture":"SHIMANE KEN","city":"GOTSU SHI","town":"SAKURAECHO TANIJUGO","perfecture_jp":"島根県","jp_add_1":"江津市","jp_add_2":"桜江町谷住郷"},"6994431":{"post_code":"6994431","prefecture":"SHIMANE KEN","city":"GOTSU SHI","town":"SAKURAECHO NAGATANI","perfecture_jp":"島根県","jp_add_1":"江津市","jp_add_2":"桜江町長谷"},"6994432":{"post_code":"6994432","prefecture":"SHIMANE KEN","city":"GOTSU SHI","town":"SAKURAECHO YATO","perfecture_jp":"島根県","jp_add_1":"江津市","jp_add_2":"桜江町八戸"},"6992842":{"post_code":"6992842","prefecture":"SHIMANE KEN","city":"GOTSU SHI","town":"TSUCHICHO","perfecture_jp":"島根県","jp_add_1":"江津市","jp_add_2":"都治町"},"6993161":{"post_code":"6993161","prefecture":"SHIMANE KEN","city":"GOTSU SHI","town":"HASHICHO","perfecture_jp":"島根県","jp_add_1":"江津市","jp_add_2":"波子町"},"6992833":{"post_code":"6992833","prefecture":"SHIMANE KEN","city":"GOTSU SHI","town":"HAZUMICHO HONGO","perfecture_jp":"島根県","jp_add_1":"江津市","jp_add_2":"波積町本郷"},"6992834":{"post_code":"6992834","prefecture":"SHIMANE KEN","city":"GOTSU SHI","town":"HAZUMICHO MINAMI","perfecture_jp":"島根県","jp_add_1":"江津市","jp_add_2":"波積町南"},"6992832":{"post_code":"6992832","prefecture":"SHIMANE KEN","city":"GOTSU SHI","town":"HAZUMICHO KITA","perfecture_jp":"島根県","jp_add_1":"江津市","jp_add_2":"波積町北"},"6992837":{"post_code":"6992837","prefecture":"SHIMANE KEN","city":"GOTSU SHI","town":"MATSUKAWACHO KAMIKAWADO","perfecture_jp":"島根県","jp_add_1":"江津市","jp_add_2":"松川町上河戸"},"6992835":{"post_code":"6992835","prefecture":"SHIMANE KEN","city":"GOTSU SHI","town":"MATSUKAWACHO KANZUI","perfecture_jp":"島根県","jp_add_1":"江津市","jp_add_2":"松川町上津井"},"6992836":{"post_code":"6992836","prefecture":"SHIMANE KEN","city":"GOTSU SHI","town":"MATSUKAWACHO HATADA","perfecture_jp":"島根県","jp_add_1":"江津市","jp_add_2":"松川町畑田"},"6991114":{"post_code":"6991114","prefecture":"SHIMANE KEN","city":"UNNAN SHI","town":"KAMOCHO INO","perfecture_jp":"島根県","jp_add_1":"雲南市","jp_add_2":"加茂町猪尾"},"6991115":{"post_code":"6991115","prefecture":"SHIMANE KEN","city":"UNNAN SHI","town":"KAMOCHO IWAKURA","perfecture_jp":"島根県","jp_add_1":"雲南市","jp_add_2":"加茂町岩倉"},"6991105":{"post_code":"6991105","prefecture":"SHIMANE KEN","city":"UNNAN SHI","town":"KAMOCHO UJI","perfecture_jp":"島根県","jp_add_1":"雲南市","jp_add_2":"加茂町宇治"},"6991125":{"post_code":"6991125","prefecture":"SHIMANE KEN","city":"UNNAN SHI","town":"KAMOCHO OSAKI","perfecture_jp":"島根県","jp_add_1":"雲南市","jp_add_2":"加茂町大崎"},"6991123":{"post_code":"6991123","prefecture":"SHIMANE KEN","city":"UNNAN SHI","town":"KAMOCHO OTAKE","perfecture_jp":"島根県","jp_add_1":"雲南市","jp_add_2":"加茂町大竹"},"6991106":{"post_code":"6991106","prefecture":"SHIMANE KEN","city":"UNNAN SHI","town":"KAMOCHO KAMONAKA","perfecture_jp":"島根県","jp_add_1":"雲南市","jp_add_2":"加茂町加茂中"},"6991121":{"post_code":"6991121","prefecture":"SHIMANE KEN","city":"UNNAN SHI","town":"KAMOCHO KAMBARA","perfecture_jp":"島根県","jp_add_1":"雲南市","jp_add_2":"加茂町神原"},"6991112":{"post_code":"6991112","prefecture":"SHIMANE KEN","city":"UNNAN SHI","town":"KAMOCHO SHINGU","perfecture_jp":"島根県","jp_add_1":"雲南市","jp_add_2":"加茂町新宮"},"6991111":{"post_code":"6991111","prefecture":"SHIMANE KEN","city":"UNNAN SHI","town":"KAMOCHO SUNAGOHARA","perfecture_jp":"島根県","jp_add_1":"雲南市","jp_add_2":"加茂町砂子原"},"6991101":{"post_code":"6991101","prefecture":"SHIMANE KEN","city":"UNNAN SHI","town":"KAMOCHO DAISAI","perfecture_jp":"島根県","jp_add_1":"雲南市","jp_add_2":"加茂町大西"},"6991102":{"post_code":"6991102","prefecture":"SHIMANE KEN","city":"UNNAN SHI","town":"KAMOCHO TACHIBARA","perfecture_jp":"島根県","jp_add_1":"雲南市","jp_add_2":"加茂町立原"},"6991103":{"post_code":"6991103","prefecture":"SHIMANE KEN","city":"UNNAN SHI","town":"KAMOCHO CHIKAMATSU","perfecture_jp":"島根県","jp_add_1":"雲南市","jp_add_2":"加茂町近松"},"6991124":{"post_code":"6991124","prefecture":"SHIMANE KEN","city":"UNNAN SHI","town":"KAMOCHO NOBUNO","perfecture_jp":"島根県","jp_add_1":"雲南市","jp_add_2":"加茂町延野"},"6991113":{"post_code":"6991113","prefecture":"SHIMANE KEN","city":"UNNAN SHI","town":"KAMOCHO HIGASHIDANI","perfecture_jp":"島根県","jp_add_1":"雲南市","jp_add_2":"加茂町東谷"},"6991122":{"post_code":"6991122","prefecture":"SHIMANE KEN","city":"UNNAN SHI","town":"KAMOCHO MIJIRO","perfecture_jp":"島根県","jp_add_1":"雲南市","jp_add_2":"加茂町三代"},"6991104":{"post_code":"6991104","prefecture":"SHIMANE KEN","city":"UNNAN SHI","town":"KAMOCHO MINAMIGAMO","perfecture_jp":"島根県","jp_add_1":"雲南市","jp_add_2":"加茂町南加茂"},"6991321":{"post_code":"6991321","prefecture":"SHIMANE KEN","city":"UNNAN SHI","town":"KISUKICHO UDANI","perfecture_jp":"島根県","jp_add_1":"雲南市","jp_add_2":"木次町宇谷"},"6991331":{"post_code":"6991331","prefecture":"SHIMANE KEN","city":"UNNAN SHI","town":"KISUKICHO KAMIKUMATANI","perfecture_jp":"島根県","jp_add_1":"雲南市","jp_add_2":"木次町上熊谷"},"6991332":{"post_code":"6991332","prefecture":"SHIMANE KEN","city":"UNNAN SHI","town":"KISUKICHO KISUKI","perfecture_jp":"島根県","jp_add_1":"雲南市","jp_add_2":"木次町木次"},"6991401":{"post_code":"6991401","prefecture":"SHIMANE KEN","city":"UNNAN SHI","town":"KISUKICHO KITAHARA(OJIRO)","perfecture_jp":"島根県","jp_add_1":"雲南市","jp_add_2":"木次町北原"},"6991341":{"post_code":"6991341","prefecture":"SHIMANE KEN","city":"UNNAN SHI","town":"KISUKICHO KITAHARA(SONOTA)","perfecture_jp":"島根県","jp_add_1":"雲南市","jp_add_2":"木次町北原"},"6991311":{"post_code":"6991311","prefecture":"SHIMANE KEN","city":"UNNAN SHI","town":"KISUKICHO SATOGATA","perfecture_jp":"島根県","jp_add_1":"雲南市","jp_add_2":"木次町里方"},"6991333":{"post_code":"6991333","prefecture":"SHIMANE KEN","city":"UNNAN SHI","town":"KISUKICHO SHIMOKUMATANI","perfecture_jp":"島根県","jp_add_1":"雲南市","jp_add_2":"木次町下熊谷"},"6991322":{"post_code":"6991322","prefecture":"SHIMANE KEN","city":"UNNAN SHI","town":"KISUKICHO JIRYO","perfecture_jp":"島根県","jp_add_1":"雲南市","jp_add_2":"木次町寺領"},"6991334":{"post_code":"6991334","prefecture":"SHIMANE KEN","city":"UNNAN SHI","town":"KISUKICHO SHINICHI","perfecture_jp":"島根県","jp_add_1":"雲南市","jp_add_2":"木次町新市"},"6991324":{"post_code":"6991324","prefecture":"SHIMANE KEN","city":"UNNAN SHI","town":"KISUKICHO NISHIHINOBORI","perfecture_jp":"島根県","jp_add_1":"雲南市","jp_add_2":"木次町西日登"},"6991323":{"post_code":"6991323","prefecture":"SHIMANE KEN","city":"UNNAN SHI","town":"KISUKICHO HIGASHIHINOBORI","perfecture_jp":"島根県","jp_add_1":"雲南市","jp_add_2":"木次町東日登"},"6991342":{"post_code":"6991342","prefecture":"SHIMANE KEN","city":"UNNAN SHI","town":"KISUKICHO HIRATA","perfecture_jp":"島根県","jp_add_1":"雲南市","jp_add_2":"木次町平田"},"6991312":{"post_code":"6991312","prefecture":"SHIMANE KEN","city":"UNNAN SHI","town":"KISUKICHO YAMAGATA","perfecture_jp":"島根県","jp_add_1":"雲南市","jp_add_2":"木次町山方"},"6991343":{"post_code":"6991343","prefecture":"SHIMANE KEN","city":"UNNAN SHI","town":"KISUKICHO YUMURA","perfecture_jp":"島根県","jp_add_1":"雲南市","jp_add_2":"木次町湯村"},"6991221":{"post_code":"6991221","prefecture":"SHIMANE KEN","city":"UNNAN SHI","town":"DAITOCHO OKAMURA","perfecture_jp":"島根県","jp_add_1":"雲南市","jp_add_2":"大東町飯田"},"6991231":{"post_code":"6991231","prefecture":"SHIMANE KEN","city":"UNNAN SHI","town":"DAITOCHO ENJO","perfecture_jp":"島根県","jp_add_1":"雲南市","jp_add_2":"大東町遠所"},"6991213":{"post_code":"6991213","prefecture":"SHIMANE KEN","city":"UNNAN SHI","town":"DAITOCHO OKADANI","perfecture_jp":"島根県","jp_add_1":"雲南市","jp_add_2":"大東町大ケ谷"},"6991201":{"post_code":"6991201","prefecture":"SHIMANE KEN","city":"UNNAN SHI","town":"DAITOCHO OGAWAUCHI","perfecture_jp":"島根県","jp_add_1":"雲南市","jp_add_2":"大東町小河内"},"6991261":{"post_code":"6991261","prefecture":"SHIMANE KEN","city":"UNNAN SHI","town":"DAITOCHO KANENARI","perfecture_jp":"島根県","jp_add_1":"雲南市","jp_add_2":"大東町金成"},"6991211":{"post_code":"6991211","prefecture":"SHIMANE KEN","city":"UNNAN SHI","town":"DAITOCHO KAMIKUNO","perfecture_jp":"島根県","jp_add_1":"雲南市","jp_add_2":"大東町上久野"},"6991214":{"post_code":"6991214","prefecture":"SHIMANE KEN","city":"UNNAN SHI","town":"DAITOCHO KAMISASE","perfecture_jp":"島根県","jp_add_1":"雲南市","jp_add_2":"大東町上佐世"},"6991202":{"post_code":"6991202","prefecture":"SHIMANE KEN","city":"UNNAN SHI","town":"DAITOCHO KARIHATA","perfecture_jp":"島根県","jp_add_1":"雲南市","jp_add_2":"大東町刈畑"},"6991222":{"post_code":"6991222","prefecture":"SHIMANE KEN","city":"UNNAN SHI","town":"DAITOCHO KAWAI","perfecture_jp":"島根県","jp_add_1":"雲南市","jp_add_2":"大東町川井"},"6991203":{"post_code":"6991203","prefecture":"SHIMANE KEN","city":"UNNAN SHI","town":"DAITOCHO KITAMURA","perfecture_jp":"島根県","jp_add_1":"雲南市","jp_add_2":"大東町北村"},"6991204":{"post_code":"6991204","prefecture":"SHIMANE KEN","city":"UNNAN SHI","town":"DAITOCHO KOMOZAWA","perfecture_jp":"島根県","jp_add_1":"雲南市","jp_add_2":"大東町薦澤"},"6991241":{"post_code":"6991241","prefecture":"SHIMANE KEN","city":"UNNAN SHI","town":"DAITOCHO SANNOJI","perfecture_jp":"島根県","jp_add_1":"雲南市","jp_add_2":"大東町山王寺"},"6991262":{"post_code":"6991262","prefecture":"SHIMANE KEN","city":"UNNAN SHI","town":"DAITOCHO SHIOTA","perfecture_jp":"島根県","jp_add_1":"雲南市","jp_add_2":"大東町塩田"},"6991263":{"post_code":"6991263","prefecture":"SHIMANE KEN","city":"UNNAN SHI","town":"DAITOCHO SHINOBUCHI","perfecture_jp":"島根県","jp_add_1":"雲南市","jp_add_2":"大東町篠淵"},"6991223":{"post_code":"6991223","prefecture":"SHIMANE KEN","city":"UNNAN SHI","town":"DAITOCHO SHIMOAYO","perfecture_jp":"島根県","jp_add_1":"雲南市","jp_add_2":"大東町下阿用"},"6991212":{"post_code":"6991212","prefecture":"SHIMANE KEN","city":"UNNAN SHI","town":"DAITOCHO SHIMOKUNO","perfecture_jp":"島根県","jp_add_1":"雲南市","jp_add_2":"大東町下久野"},"6991215":{"post_code":"6991215","prefecture":"SHIMANE KEN","city":"UNNAN SHI","town":"DAITOCHO SHIMOSASE","perfecture_jp":"島根県","jp_add_1":"雲南市","jp_add_2":"大東町下佐世"},"6991251":{"post_code":"6991251","prefecture":"SHIMANE KEN","city":"UNNAN SHI","town":"DAITOCHO DAITO","perfecture_jp":"島根県","jp_add_1":"雲南市","jp_add_2":"大東町新庄"},"6991205":{"post_code":"6991205","prefecture":"SHIMANE KEN","city":"UNNAN SHI","town":"DAITOCHO SUGA","perfecture_jp":"島根県","jp_add_1":"雲南市","jp_add_2":"大東町須賀"},"6991264":{"post_code":"6991264","prefecture":"SHIMANE KEN","city":"UNNAN SHI","town":"DAITOCHO SEIDA","perfecture_jp":"島根県","jp_add_1":"雲南市","jp_add_2":"大東町清田"},"6991242":{"post_code":"6991242","prefecture":"SHIMANE KEN","city":"UNNAN SHI","town":"DAITOCHO DAITOSHIMOBUN","perfecture_jp":"島根県","jp_add_1":"雲南市","jp_add_2":"大東町大東下分"},"6991252":{"post_code":"6991252","prefecture":"SHIMANE KEN","city":"UNNAN SHI","town":"DAITOCHO TANAKA","perfecture_jp":"島根県","jp_add_1":"雲南市","jp_add_2":"大東町田中"},"6991253":{"post_code":"6991253","prefecture":"SHIMANE KEN","city":"UNNAN SHI","town":"DAITOCHO NAKAYUISHI","perfecture_jp":"島根県","jp_add_1":"雲南市","jp_add_2":"大東町中湯石"},"6991216":{"post_code":"6991216","prefecture":"SHIMANE KEN","city":"UNNAN SHI","town":"DAITOCHO NISHIAYO","perfecture_jp":"島根県","jp_add_1":"雲南市","jp_add_2":"大東町西阿用"},"6991232":{"post_code":"6991232","prefecture":"SHIMANE KEN","city":"UNNAN SHI","town":"DAITOCHO NINNAJI","perfecture_jp":"島根県","jp_add_1":"雲南市","jp_add_2":"大東町仁和寺"},"6991243":{"post_code":"6991243","prefecture":"SHIMANE KEN","city":"UNNAN SHI","town":"DAITOCHO HATAHIYODORI","perfecture_jp":"島根県","jp_add_1":"雲南市","jp_add_2":"大東町畑鵯"},"6991233":{"post_code":"6991233","prefecture":"SHIMANE KEN","city":"UNNAN SHI","town":"DAITOCHO HATAYA","perfecture_jp":"島根県","jp_add_1":"雲南市","jp_add_2":"大東町幡屋"},"6991224":{"post_code":"6991224","prefecture":"SHIMANE KEN","city":"UNNAN SHI","town":"DAITOCHO HIGASHIAYO","perfecture_jp":"島根県","jp_add_1":"雲南市","jp_add_2":"大東町東阿用"},"6991234":{"post_code":"6991234","prefecture":"SHIMANE KEN","city":"UNNAN SHI","town":"DAITOCHO MAEBARA","perfecture_jp":"島根県","jp_add_1":"雲南市","jp_add_2":"大東町前原"},"6991206":{"post_code":"6991206","prefecture":"SHIMANE KEN","city":"UNNAN SHI","town":"DAITOCHO MINAMIMURA","perfecture_jp":"島根県","jp_add_1":"雲南市","jp_add_2":"大東町南村"},"6991244":{"post_code":"6991244","prefecture":"SHIMANE KEN","city":"UNNAN SHI","town":"DAITOCHO YAMADA","perfecture_jp":"島根県","jp_add_1":"雲南市","jp_add_2":"大東町山田"},"6991245":{"post_code":"6991245","prefecture":"SHIMANE KEN","city":"UNNAN SHI","town":"DAITOCHO YOKA","perfecture_jp":"島根県","jp_add_1":"雲南市","jp_add_2":"大東町養賀"},"6991500":{"post_code":"6991500","prefecture":"SHIMANE KEN","city":"NITA GUN OKUIZUMO CHO","town":"IKANIKEISAIGANAIBAAI","perfecture_jp":"島根県","jp_add_1":"仁多郡奥出雲町","jp_add_2":""},"6991821":{"post_code":"6991821","prefecture":"SHIMANE KEN","city":"NITA GUN OKUIZUMO CHO","town":"INAHARA","perfecture_jp":"島根県","jp_add_1":"仁多郡奥出雲町","jp_add_2":"稲原"},"6991812":{"post_code":"6991812","prefecture":"SHIMANE KEN","city":"NITA GUN OKUIZUMO CHO","town":"OTANI","perfecture_jp":"島根県","jp_add_1":"仁多郡奥出雲町","jp_add_2":"大谷"},"6991941":{"post_code":"6991941","prefecture":"SHIMANE KEN","city":"NITA GUN OKUIZUMO CHO","town":"OMAKI","perfecture_jp":"島根県","jp_add_1":"仁多郡奥出雲町","jp_add_2":"大馬木"},"6991802":{"post_code":"6991802","prefecture":"SHIMANE KEN","city":"NITA GUN OKUIZUMO CHO","town":"ORO","perfecture_jp":"島根県","jp_add_1":"仁多郡奥出雲町","jp_add_2":"大呂"},"6991621":{"post_code":"6991621","prefecture":"SHIMANE KEN","city":"NITA GUN OKUIZUMO CHO","town":"KAMIAI","perfecture_jp":"島根県","jp_add_1":"仁多郡奥出雲町","jp_add_2":"上阿井"},"6991431":{"post_code":"6991431","prefecture":"SHIMANE KEN","city":"NITA GUN OKUIZUMO CHO","town":"KAMIMITOKORO","perfecture_jp":"島根県","jp_add_1":"仁多郡奥出雲町","jp_add_2":"上三所"},"6991701":{"post_code":"6991701","prefecture":"SHIMANE KEN","city":"NITA GUN OKUIZUMO CHO","town":"KAMEDAKE","perfecture_jp":"島根県","jp_add_1":"仁多郡奥出雲町","jp_add_2":"亀嵩"},"6991515":{"post_code":"6991515","prefecture":"SHIMANE KEN","city":"NITA GUN OKUIZUMO CHO","town":"KAMOKURA","perfecture_jp":"島根県","jp_add_1":"仁多郡奥出雲町","jp_add_2":"鴨倉"},"6991514":{"post_code":"6991514","prefecture":"SHIMANE KEN","city":"NITA GUN OKUIZUMO CHO","town":"KAWACHI","perfecture_jp":"島根県","jp_add_1":"仁多郡奥出雲町","jp_add_2":"河内"},"6991702":{"post_code":"6991702","prefecture":"SHIMANE KEN","city":"NITA GUN OKUIZUMO CHO","town":"KORI","perfecture_jp":"島根県","jp_add_1":"仁多郡奥出雲町","jp_add_2":"郡"},"6991942":{"post_code":"6991942","prefecture":"SHIMANE KEN","city":"NITA GUN OKUIZUMO CHO","town":"KOMAKI","perfecture_jp":"島根県","jp_add_1":"仁多郡奥出雲町","jp_add_2":"小馬木"},"6991434":{"post_code":"6991434","prefecture":"SHIMANE KEN","city":"NITA GUN OKUIZUMO CHO","town":"SAJIRO","perfecture_jp":"島根県","jp_add_1":"仁多郡奥出雲町","jp_add_2":"佐白"},"6991517":{"post_code":"6991517","prefecture":"SHIMANE KEN","city":"NITA GUN OKUIZUMO CHO","town":"SHIMOAI(UNEJI)","perfecture_jp":"島根県","jp_add_1":"仁多郡奥出雲町","jp_add_2":"下阿井"},"6991622":{"post_code":"6991622","prefecture":"SHIMANE KEN","city":"NITA GUN OKUIZUMO CHO","town":"SHIMOAI(SONOTA)","perfecture_jp":"島根県","jp_add_1":"仁多郡奥出雲町","jp_add_2":"下阿井"},"6991822":{"post_code":"6991822","prefecture":"SHIMANE KEN","city":"NITA GUN OKUIZUMO CHO","town":"SHIMOYOKOTA","perfecture_jp":"島根県","jp_add_1":"仁多郡奥出雲町","jp_add_2":"下横田"},"6991512":{"post_code":"6991512","prefecture":"SHIMANE KEN","city":"NITA GUN OKUIZUMO CHO","town":"TAKAO","perfecture_jp":"島根県","jp_add_1":"仁多郡奥出雲町","jp_add_2":"高尾"},"6991703":{"post_code":"6991703","prefecture":"SHIMANE KEN","city":"NITA GUN OKUIZUMO CHO","town":"TAKATA","perfecture_jp":"島根県","jp_add_1":"仁多郡奥出雲町","jp_add_2":"高田"},"6991801":{"post_code":"6991801","prefecture":"SHIMANE KEN","city":"NITA GUN OKUIZUMO CHO","town":"TAKEZAKI","perfecture_jp":"島根県","jp_add_1":"仁多郡奥出雲町","jp_add_2":"竹崎"},"6991831":{"post_code":"6991831","prefecture":"SHIMANE KEN","city":"NITA GUN OKUIZUMO CHO","town":"NAKAMURA","perfecture_jp":"島根県","jp_add_1":"仁多郡奥出雲町","jp_add_2":"中村"},"6991432":{"post_code":"6991432","prefecture":"SHIMANE KEN","city":"NITA GUN OKUIZUMO CHO","town":"MABASE","perfecture_jp":"島根県","jp_add_1":"仁多郡奥出雲町","jp_add_2":"馬馳"},"6991513":{"post_code":"6991513","prefecture":"SHIMANE KEN","city":"NITA GUN OKUIZUMO CHO","town":"MIZAWA","perfecture_jp":"島根県","jp_add_1":"仁多郡奥出雲町","jp_add_2":"三沢"},"6991516":{"post_code":"6991516","prefecture":"SHIMANE KEN","city":"NITA GUN OKUIZUMO CHO","town":"MITOKORO","perfecture_jp":"島根県","jp_add_1":"仁多郡奥出雲町","jp_add_2":"三所"},"6991511":{"post_code":"6991511","prefecture":"SHIMANE KEN","city":"NITA GUN OKUIZUMO CHO","town":"MINARI","perfecture_jp":"島根県","jp_add_1":"仁多郡奥出雲町","jp_add_2":"三成"},"6991811":{"post_code":"6991811","prefecture":"SHIMANE KEN","city":"NITA GUN OKUIZUMO CHO","town":"YAKAWA","perfecture_jp":"島根県","jp_add_1":"仁多郡奥出雲町","jp_add_2":"八川"},"6991433":{"post_code":"6991433","prefecture":"SHIMANE KEN","city":"NITA GUN OKUIZUMO CHO","town":"YASHIRO","perfecture_jp":"島根県","jp_add_1":"仁多郡奥出雲町","jp_add_2":"八代"},"6991832":{"post_code":"6991832","prefecture":"SHIMANE KEN","city":"NITA GUN OKUIZUMO CHO","town":"YOKOTA","perfecture_jp":"島根県","jp_add_1":"仁多郡奥出雲町","jp_add_2":"横田"},"6994600":{"post_code":"6994600","prefecture":"SHIMANE KEN","city":"OCHI GUN MISATO CHO","town":"IKANIKEISAIGANAIBAAI","perfecture_jp":"島根県","jp_add_1":"邑智郡美郷町","jp_add_2":""},"6994624":{"post_code":"6994624","prefecture":"SHIMANE KEN","city":"OCHI GUN MISATO CHO","town":"AKATSUKA","perfecture_jp":"島根県","jp_add_1":"邑智郡美郷町","jp_add_2":"明塚"},"6994627":{"post_code":"6994627","prefecture":"SHIMANE KEN","city":"OCHI GUN MISATO CHO","town":"AGO","perfecture_jp":"島根県","jp_add_1":"邑智郡美郷町","jp_add_2":"吾郷"},"6994715":{"post_code":"6994715","prefecture":"SHIMANE KEN","city":"OCHI GUN MISATO CHO","town":"ISHIHARA","perfecture_jp":"島根県","jp_add_1":"邑智郡美郷町","jp_add_2":"石原"},"6994631":{"post_code":"6994631","prefecture":"SHIMANE KEN","city":"OCHI GUN MISATO CHO","town":"OKUYAMA","perfecture_jp":"島根県","jp_add_1":"邑智郡美郷町","jp_add_2":"奥山"},"6994626":{"post_code":"6994626","prefecture":"SHIMANE KEN","city":"OCHI GUN MISATO CHO","town":"OMBARA","perfecture_jp":"島根県","jp_add_1":"邑智郡美郷町","jp_add_2":"乙原"},"6994621":{"post_code":"6994621","prefecture":"SHIMANE KEN","city":"OCHI GUN MISATO CHO","town":"KASUBUCHI","perfecture_jp":"島根県","jp_add_1":"邑智郡美郷町","jp_add_2":"粕渕"},"6994714":{"post_code":"6994714","prefecture":"SHIMANE KEN","city":"OCHI GUN MISATO CHO","town":"KATAYAMA","perfecture_jp":"島根県","jp_add_1":"邑智郡美郷町","jp_add_2":"片山"},"6994702":{"post_code":"6994702","prefecture":"SHIMANE KEN","city":"OCHI GUN MISATO CHO","town":"KAMIKAWADO","perfecture_jp":"島根県","jp_add_1":"邑智郡美郷町","jp_add_2":"上川戸"},"6994707":{"post_code":"6994707","prefecture":"SHIMANE KEN","city":"OCHI GUN MISATO CHO","town":"KAMEMURA","perfecture_jp":"島根県","jp_add_1":"邑智郡美郷町","jp_add_2":"亀村"},"6994622":{"post_code":"6994622","prefecture":"SHIMANE KEN","city":"OCHI GUN MISATO CHO","town":"KUBO","perfecture_jp":"島根県","jp_add_1":"邑智郡美郷町","jp_add_2":"久保"},"6994703":{"post_code":"6994703","prefecture":"SHIMANE KEN","city":"OCHI GUN MISATO CHO","town":"KUMAMI","perfecture_jp":"島根県","jp_add_1":"邑智郡美郷町","jp_add_2":"熊見"},"6994712":{"post_code":"6994712","prefecture":"SHIMANE KEN","city":"OCHI GUN MISATO CHO","town":"KOKONOKAICHI","perfecture_jp":"島根県","jp_add_1":"邑智郡美郷町","jp_add_2":"九日市"},"6994713":{"post_code":"6994713","prefecture":"SHIMANE KEN","city":"OCHI GUN MISATO CHO","town":"SAKEDANI","perfecture_jp":"島根県","jp_add_1":"邑智郡美郷町","jp_add_2":"酒谷"},"6994704":{"post_code":"6994704","prefecture":"SHIMANE KEN","city":"OCHI GUN MISATO CHO","town":"SHIKI","perfecture_jp":"島根県","jp_add_1":"邑智郡美郷町","jp_add_2":"信喜"},"6994632":{"post_code":"6994632","prefecture":"SHIMANE KEN","city":"OCHI GUN MISATO CHO","town":"TAKAHATA","perfecture_jp":"島根県","jp_add_1":"邑智郡美郷町","jp_add_2":"高畑"},"6994605":{"post_code":"6994605","prefecture":"SHIMANE KEN","city":"OCHI GUN MISATO CHO","town":"TAKAYAMA","perfecture_jp":"島根県","jp_add_1":"邑智郡美郷町","jp_add_2":"高山"},"6994706":{"post_code":"6994706","prefecture":"SHIMANE KEN","city":"OCHI GUN MISATO CHO","town":"TAKIBARA","perfecture_jp":"島根県","jp_add_1":"邑智郡美郷町","jp_add_2":"滝原"},"6994711":{"post_code":"6994711","prefecture":"SHIMANE KEN","city":"OCHI GUN MISATO CHO","town":"CHIHARA","perfecture_jp":"島根県","jp_add_1":"邑智郡美郷町","jp_add_2":"千原"},"6994623":{"post_code":"6994623","prefecture":"SHIMANE KEN","city":"OCHI GUN MISATO CHO","town":"NOI","perfecture_jp":"島根県","jp_add_1":"邑智郡美郷町","jp_add_2":"野井"},"6994701":{"post_code":"6994701","prefecture":"SHIMANE KEN","city":"OCHI GUN MISATO CHO","town":"HAMAHARA","perfecture_jp":"島根県","jp_add_1":"邑智郡美郷町","jp_add_2":"浜原"},"6994625":{"post_code":"6994625","prefecture":"SHIMANE KEN","city":"OCHI GUN MISATO CHO","town":"YANAZE","perfecture_jp":"島根県","jp_add_1":"邑智郡美郷町","jp_add_2":"簗瀬"},"6994633":{"post_code":"6994633","prefecture":"SHIMANE KEN","city":"OCHI GUN MISATO CHO","town":"YUGAKAI","perfecture_jp":"島根県","jp_add_1":"邑智郡美郷町","jp_add_2":"湯抱"},"6994311":{"post_code":"6994311","prefecture":"SHIMANE KEN","city":"OCHI GUN ONAN CHO","town":"HINUI","perfecture_jp":"島根県","jp_add_1":"邑智郡邑南町","jp_add_2":"日貫"},"6995600":{"post_code":"6995600","prefecture":"SHIMANE KEN","city":"KANOASHI GUN TSUWANO CHO","town":"IKANIKEISAIGANAIBAAI","perfecture_jp":"島根県","jp_add_1":"鹿足郡津和野町","jp_add_2":""},"6995211":{"post_code":"6995211","prefecture":"SHIMANE KEN","city":"KANOASHI GUN TSUWANO CHO","town":"AOHARA","perfecture_jp":"島根県","jp_add_1":"鹿足郡津和野町","jp_add_2":"青原"},"6995201":{"post_code":"6995201","prefecture":"SHIMANE KEN","city":"KANOASHI GUN TSUWANO CHO","town":"AKINDO(929-1117.1343-1734-BANCHI)","perfecture_jp":"島根県","jp_add_1":"鹿足郡津和野町","jp_add_2":"商人"},"6995601":{"post_code":"6995601","prefecture":"SHIMANE KEN","city":"KANOASHI GUN TSUWANO CHO","town":"AKINDO(SONOTA)","perfecture_jp":"島根県","jp_add_1":"鹿足郡津和野町","jp_add_2":"商人"},"6995216":{"post_code":"6995216","prefecture":"SHIMANE KEN","city":"KANOASHI GUN TSUWANO CHO","town":"IKEMURA","perfecture_jp":"島根県","jp_add_1":"鹿足郡津和野町","jp_add_2":"池村"},"6995605":{"post_code":"6995605","prefecture":"SHIMANE KEN","city":"KANOASHI GUN TSUWANO CHO","town":"USHIRODA","perfecture_jp":"島根県","jp_add_1":"鹿足郡津和野町","jp_add_2":"後田"},"6995212":{"post_code":"6995212","prefecture":"SHIMANE KEN","city":"KANOASHI GUN TSUWANO CHO","town":"KAWAMURA","perfecture_jp":"島根県","jp_add_1":"鹿足郡津和野町","jp_add_2":"河村"},"6995607":{"post_code":"6995607","prefecture":"SHIMANE KEN","city":"KANOASHI GUN TSUWANO CHO","town":"KODA","perfecture_jp":"島根県","jp_add_1":"鹿足郡津和野町","jp_add_2":"耕田"},"6995603":{"post_code":"6995603","prefecture":"SHIMANE KEN","city":"KANOASHI GUN TSUWANO CHO","town":"SASAYAMA","perfecture_jp":"島根県","jp_add_1":"鹿足郡津和野町","jp_add_2":"笹山"},"6995202":{"post_code":"6995202","prefecture":"SHIMANE KEN","city":"KANOASHI GUN TSUWANO CHO","town":"SABUMI","perfecture_jp":"島根県","jp_add_1":"鹿足郡津和野町","jp_add_2":"左鐙"},"6995204":{"post_code":"6995204","prefecture":"SHIMANE KEN","city":"KANOASHI GUN TSUWANO CHO","town":"SUGAWA","perfecture_jp":"島根県","jp_add_1":"鹿足郡津和野町","jp_add_2":"須川"},"6995203":{"post_code":"6995203","prefecture":"SHIMANE KEN","city":"KANOASHI GUN TSUWANO CHO","town":"SUMOGAHARA","perfecture_jp":"島根県","jp_add_1":"鹿足郡津和野町","jp_add_2":"相撲ケ原"},"6995213":{"post_code":"6995213","prefecture":"SHIMANE KEN","city":"KANOASHI GUN TSUWANO CHO","town":"SOEDANI","perfecture_jp":"島根県","jp_add_1":"鹿足郡津和野町","jp_add_2":"添谷"},"6995614":{"post_code":"6995614","prefecture":"SHIMANE KEN","city":"KANOASHI GUN TSUWANO CHO","town":"TAKAMINE","perfecture_jp":"島根県","jp_add_1":"鹿足郡津和野町","jp_add_2":"高峯"},"6995205":{"post_code":"6995205","prefecture":"SHIMANE KEN","city":"KANOASHI GUN TSUWANO CHO","town":"TAKIDANI","perfecture_jp":"島根県","jp_add_1":"鹿足郡津和野町","jp_add_2":"瀧谷"},"6995206":{"post_code":"6995206","prefecture":"SHIMANE KEN","city":"KANOASHI GUN TSUWANO CHO","town":"TAKIMOTO","perfecture_jp":"島根県","jp_add_1":"鹿足郡津和野町","jp_add_2":"瀧元"},"6995602":{"post_code":"6995602","prefecture":"SHIMANE KEN","city":"KANOASHI GUN TSUWANO CHO","town":"TADACHI","perfecture_jp":"島根県","jp_add_1":"鹿足郡津和野町","jp_add_2":"直地"},"6995617":{"post_code":"6995617","prefecture":"SHIMANE KEN","city":"KANOASHI GUN TSUWANO CHO","town":"TANIHO","perfecture_jp":"島根県","jp_add_1":"鹿足郡津和野町","jp_add_2":"田二穂"},"6995214":{"post_code":"6995214","prefecture":"SHIMANE KEN","city":"KANOASHI GUN TSUWANO CHO","town":"TANIMURA","perfecture_jp":"島根県","jp_add_1":"鹿足郡津和野町","jp_add_2":"溪村"},"6995606":{"post_code":"6995606","prefecture":"SHIMANE KEN","city":"KANOASHI GUN TSUWANO CHO","town":"TERADA","perfecture_jp":"島根県","jp_add_1":"鹿足郡津和野町","jp_add_2":"寺田"},"6995215":{"post_code":"6995215","prefecture":"SHIMANE KEN","city":"KANOASHI GUN TSUWANO CHO","town":"TOMITA","perfecture_jp":"島根県","jp_add_1":"鹿足郡津和野町","jp_add_2":"冨田"},"6995632":{"post_code":"6995632","prefecture":"SHIMANE KEN","city":"KANOASHI GUN TSUWANO CHO","town":"TOYOKA","perfecture_jp":"島根県","jp_add_1":"鹿足郡津和野町","jp_add_2":"豊稼"},"6995621":{"post_code":"6995621","prefecture":"SHIMANE KEN","city":"KANOASHI GUN TSUWANO CHO","town":"NAIMI","perfecture_jp":"島根県","jp_add_1":"鹿足郡津和野町","jp_add_2":"内美"},"6995634":{"post_code":"6995634","prefecture":"SHIMANE KEN","city":"KANOASHI GUN TSUWANO CHO","town":"NAKAGAWA","perfecture_jp":"島根県","jp_add_1":"鹿足郡津和野町","jp_add_2":"中川"},"6995612":{"post_code":"6995612","prefecture":"SHIMANE KEN","city":"KANOASHI GUN TSUWANO CHO","town":"NAKAZA","perfecture_jp":"島根県","jp_add_1":"鹿足郡津和野町","jp_add_2":"中座"},"6995636":{"post_code":"6995636","prefecture":"SHIMANE KEN","city":"KANOASHI GUN TSUWANO CHO","town":"NAKASONO","perfecture_jp":"島根県","jp_add_1":"鹿足郡津和野町","jp_add_2":"中曽野"},"6995631":{"post_code":"6995631","prefecture":"SHIMANE KEN","city":"KANOASHI GUN TSUWANO CHO","town":"NAKAYAMA","perfecture_jp":"島根県","jp_add_1":"鹿足郡津和野町","jp_add_2":"中山"},"6995633":{"post_code":"6995633","prefecture":"SHIMANE KEN","city":"KANOASHI GUN TSUWANO CHO","town":"NAGAFUKU","perfecture_jp":"島根県","jp_add_1":"鹿足郡津和野町","jp_add_2":"長福"},"6995615":{"post_code":"6995615","prefecture":"SHIMANE KEN","city":"KANOASHI GUN TSUWANO CHO","town":"NAYOSHI","perfecture_jp":"島根県","jp_add_1":"鹿足郡津和野町","jp_add_2":"名賀"},"6995221":{"post_code":"6995221","prefecture":"SHIMANE KEN","city":"KANOASHI GUN TSUWANO CHO","town":"NICHIHARA","perfecture_jp":"島根県","jp_add_1":"鹿足郡津和野町","jp_add_2":"日原"},"6995637":{"post_code":"6995637","prefecture":"SHIMANE KEN","city":"KANOASHI GUN TSUWANO CHO","town":"FUKINO","perfecture_jp":"島根県","jp_add_1":"鹿足郡津和野町","jp_add_2":"吹野"},"6995616":{"post_code":"6995616","prefecture":"SHIMANE KEN","city":"KANOASHI GUN TSUWANO CHO","town":"BUSAKA","perfecture_jp":"島根県","jp_add_1":"鹿足郡津和野町","jp_add_2":"部栄"},"6995207":{"post_code":"6995207","prefecture":"SHIMANE KEN","city":"KANOASHI GUN TSUWANO CHO","town":"MAKURASE","perfecture_jp":"島根県","jp_add_1":"鹿足郡津和野町","jp_add_2":"枕瀬"},"6995611":{"post_code":"6995611","prefecture":"SHIMANE KEN","city":"KANOASHI GUN TSUWANO CHO","town":"MACHIDA","perfecture_jp":"島根県","jp_add_1":"鹿足郡津和野町","jp_add_2":"町田"},"6995622":{"post_code":"6995622","prefecture":"SHIMANE KEN","city":"KANOASHI GUN TSUWANO CHO","town":"MURAKI","perfecture_jp":"島根県","jp_add_1":"鹿足郡津和野町","jp_add_2":"邑輝"},"6995604":{"post_code":"6995604","prefecture":"SHIMANE KEN","city":"KANOASHI GUN TSUWANO CHO","town":"MORIMURA","perfecture_jp":"島根県","jp_add_1":"鹿足郡津和野町","jp_add_2":"森村"},"6995217":{"post_code":"6995217","prefecture":"SHIMANE KEN","city":"KANOASHI GUN TSUWANO CHO","town":"YANAGIMURA","perfecture_jp":"島根県","jp_add_1":"鹿足郡津和野町","jp_add_2":"柳村"},"6995635":{"post_code":"6995635","prefecture":"SHIMANE KEN","city":"KANOASHI GUN TSUWANO CHO","town":"YAMASHITA","perfecture_jp":"島根県","jp_add_1":"鹿足郡津和野町","jp_add_2":"山下"},"6995613":{"post_code":"6995613","prefecture":"SHIMANE KEN","city":"KANOASHI GUN TSUWANO CHO","town":"WASHIBARA","perfecture_jp":"島根県","jp_add_1":"鹿足郡津和野町","jp_add_2":"鷲原"},"6995500":{"post_code":"6995500","prefecture":"SHIMANE KEN","city":"KANOASHI GUN YOSHIKA CHO","town":"IKANIKEISAIGANAIBAAI","perfecture_jp":"島根県","jp_add_1":"鹿足郡吉賀町","jp_add_2":""},"6995523":{"post_code":"6995523","prefecture":"SHIMANE KEN","city":"KANOASHI GUN YOSHIKA CHO","town":"ASAKURA","perfecture_jp":"島根県","jp_add_1":"鹿足郡吉賀町","jp_add_2":"朝倉"},"6995506":{"post_code":"6995506","prefecture":"SHIMANE KEN","city":"KANOASHI GUN YOSHIKA CHO","town":"ARII","perfecture_jp":"島根県","jp_add_1":"鹿足郡吉賀町","jp_add_2":"有飯"},"6995306":{"post_code":"6995306","prefecture":"SHIMANE KEN","city":"KANOASHI GUN YOSHIKA CHO","town":"KAKINOKIMURA ONOBARA","perfecture_jp":"島根県","jp_add_1":"鹿足郡吉賀町","jp_add_2":"柿木村大野原"},"6995301":{"post_code":"6995301","prefecture":"SHIMANE KEN","city":"KANOASHI GUN YOSHIKA CHO","town":"KAKINOKIMURA KAKINOKI","perfecture_jp":"島根県","jp_add_1":"鹿足郡吉賀町","jp_add_2":"柿木村柿木"},"6995303":{"post_code":"6995303","prefecture":"SHIMANE KEN","city":"KANOASHI GUN YOSHIKA CHO","town":"KAKINOKIMURA KABATANI","perfecture_jp":"島根県","jp_add_1":"鹿足郡吉賀町","jp_add_2":"柿木村椛谷"},"6995307":{"post_code":"6995307","prefecture":"SHIMANE KEN","city":"KANOASHI GUN YOSHIKA CHO","town":"KAKINOKIMURA KIBEDANI","perfecture_jp":"島根県","jp_add_1":"鹿足郡吉賀町","jp_add_2":"柿木村木部谷"},"6995305":{"post_code":"6995305","prefecture":"SHIMANE KEN","city":"KANOASHI GUN YOSHIKA CHO","town":"KAKINOKIMURA SHIMOSU","perfecture_jp":"島根県","jp_add_1":"鹿足郡吉賀町","jp_add_2":"柿木村下須"},"6995304":{"post_code":"6995304","prefecture":"SHIMANE KEN","city":"KANOASHI GUN YOSHIKA CHO","town":"KAKINOKIMURA SHIRATANI","perfecture_jp":"島根県","jp_add_1":"鹿足郡吉賀町","jp_add_2":"柿木村白谷"},"6995302":{"post_code":"6995302","prefecture":"SHIMANE KEN","city":"KANOASHI GUN YOSHIKA CHO","town":"KAKINOKIMURA FUKUGAWA","perfecture_jp":"島根県","jp_add_1":"鹿足郡吉賀町","jp_add_2":"柿木村福川"},"6995501":{"post_code":"6995501","prefecture":"SHIMANE KEN","city":"KANOASHI GUN YOSHIKA CHO","town":"KAMITAKAJIRI","perfecture_jp":"島根県","jp_add_1":"鹿足郡吉賀町","jp_add_2":"上高尻"},"6995504":{"post_code":"6995504","prefecture":"SHIMANE KEN","city":"KANOASHI GUN YOSHIKA CHO","town":"KURAGI","perfecture_jp":"島根県","jp_add_1":"鹿足郡吉賀町","jp_add_2":"蔵木"},"6995505":{"post_code":"6995505","prefecture":"SHIMANE KEN","city":"KANOASHI GUN YOSHIKA CHO","town":"KUROBARA","perfecture_jp":"島根県","jp_add_1":"鹿足郡吉賀町","jp_add_2":"九郎原"},"6995515":{"post_code":"6995515","prefecture":"SHIMANE KEN","city":"KANOASHI GUN YOSHIKA CHO","town":"KOJI","perfecture_jp":"島根県","jp_add_1":"鹿足郡吉賀町","jp_add_2":"幸地"},"6995521":{"post_code":"6995521","prefecture":"SHIMANE KEN","city":"KANOASHI GUN YOSHIKA CHO","town":"SANADA","perfecture_jp":"島根県","jp_add_1":"鹿足郡吉賀町","jp_add_2":"真田"},"6995516":{"post_code":"6995516","prefecture":"SHIMANE KEN","city":"KANOASHI GUN YOSHIKA CHO","town":"SAWADA","perfecture_jp":"島根県","jp_add_1":"鹿足郡吉賀町","jp_add_2":"沢田"},"6995517":{"post_code":"6995517","prefecture":"SHIMANE KEN","city":"KANOASHI GUN YOSHIKA CHO","town":"SHIMEGAWA","perfecture_jp":"島根県","jp_add_1":"鹿足郡吉賀町","jp_add_2":"注連川"},"6995507":{"post_code":"6995507","prefecture":"SHIMANE KEN","city":"KANOASHI GUN YOSHIKA CHO","town":"SHIMOTAKAJIRI","perfecture_jp":"島根県","jp_add_1":"鹿足郡吉賀町","jp_add_2":"下高尻"},"6995514":{"post_code":"6995514","prefecture":"SHIMANE KEN","city":"KANOASHI GUN YOSHIKA CHO","town":"TACHIGOCHI","perfecture_jp":"島根県","jp_add_1":"鹿足郡吉賀町","jp_add_2":"立河内"},"6995511":{"post_code":"6995511","prefecture":"SHIMANE KEN","city":"KANOASHI GUN YOSHIKA CHO","town":"TACHIDO","perfecture_jp":"島根県","jp_add_1":"鹿足郡吉賀町","jp_add_2":"立戸"},"6995524":{"post_code":"6995524","prefecture":"SHIMANE KEN","city":"KANOASHI GUN YOSHIKA CHO","town":"TADENO","perfecture_jp":"島根県","jp_add_1":"鹿足郡吉賀町","jp_add_2":"蓼野"},"6995502":{"post_code":"6995502","prefecture":"SHIMANE KEN","city":"KANOASHI GUN YOSHIKA CHO","town":"TANOHARA","perfecture_jp":"島根県","jp_add_1":"鹿足郡吉賀町","jp_add_2":"田野原"},"6995522":{"post_code":"6995522","prefecture":"SHIMANE KEN","city":"KANOASHI GUN YOSHIKA CHO","town":"NANUKAICHI","perfecture_jp":"島根県","jp_add_1":"鹿足郡吉賀町","jp_add_2":"七日市"},"6995525":{"post_code":"6995525","prefecture":"SHIMANE KEN","city":"KANOASHI GUN YOSHIKA CHO","town":"NUKUTSUKI","perfecture_jp":"島根県","jp_add_1":"鹿足郡吉賀町","jp_add_2":"抜月"},"6995503":{"post_code":"6995503","prefecture":"SHIMANE KEN","city":"KANOASHI GUN YOSHIKA CHO","town":"HIGUCHI","perfecture_jp":"島根県","jp_add_1":"鹿足郡吉賀町","jp_add_2":"樋口"},"6995512":{"post_code":"6995512","prefecture":"SHIMANE KEN","city":"KANOASHI GUN YOSHIKA CHO","town":"HIROISHI","perfecture_jp":"島根県","jp_add_1":"鹿足郡吉賀町","jp_add_2":"広石"},"6995513":{"post_code":"6995513","prefecture":"SHIMANE KEN","city":"KANOASHI GUN YOSHIKA CHO","town":"MUIKAICHI","perfecture_jp":"島根県","jp_add_1":"鹿足郡吉賀町","jp_add_2":"六日市"}}