{"7000000":{"post_code":"7000000","prefecture":"OKAYAMA KEN","city":"OKAYAMA SHI MINAMI KU","town":"IKANIKEISAIGANAIBAAI","perfecture_jp":"岡山県","jp_add_1":"岡山市北区","jp_add_2":""},"7000045":{"post_code":"7000045","prefecture":"OKAYAMA KEN","city":"OKAYAMA SHI KITA KU","town":"AOICHO","perfecture_jp":"岡山県","jp_add_1":"岡山市北区","jp_add_2":"葵町"},"7000941":{"post_code":"7000941","prefecture":"OKAYAMA KEN","city":"OKAYAMA SHI MINAMI KU","town":"AOE","perfecture_jp":"岡山県","jp_add_1":"岡山市北区","jp_add_2":"青江"},"7000865":{"post_code":"7000865","prefecture":"OKAYAMA KEN","city":"OKAYAMA SHI KITA KU","town":"ASAHIHOMMACHI","perfecture_jp":"岡山県","jp_add_1":"岡山市北区","jp_add_2":"旭本町"},"7000864":{"post_code":"7000864","prefecture":"OKAYAMA KEN","city":"OKAYAMA SHI KITA KU","town":"ASAHIMACHI","perfecture_jp":"岡山県","jp_add_1":"岡山市北区","jp_add_2":"旭町"},"7000833":{"post_code":"7000833","prefecture":"OKAYAMA KEN","city":"OKAYAMA SHI KITA KU","town":"AMASE","perfecture_jp":"岡山県","jp_add_1":"岡山市北区","jp_add_2":"天瀬"},"7000834":{"post_code":"7000834","prefecture":"OKAYAMA KEN","city":"OKAYAMA SHI KITA KU","town":"AMASEMINAMIMACHI","perfecture_jp":"岡山県","jp_add_1":"岡山市北区","jp_add_2":"天瀬南町"},"7000813":{"post_code":"7000813","prefecture":"OKAYAMA KEN","city":"OKAYAMA SHI KITA KU","town":"ISHIZEKICHO","perfecture_jp":"岡山県","jp_add_1":"岡山市北区","jp_add_2":"石関町"},"7000017":{"post_code":"7000017","prefecture":"OKAYAMA KEN","city":"OKAYAMA SHI KITA KU","town":"ISHIMAKITAMACHI","perfecture_jp":"岡山県","jp_add_1":"岡山市北区","jp_add_2":"伊島北町"},"7000016":{"post_code":"7000016","prefecture":"OKAYAMA KEN","city":"OKAYAMA SHI KITA KU","town":"ISHIMACHO","perfecture_jp":"岡山県","jp_add_1":"岡山市北区","jp_add_2":"伊島町"},"7000812":{"post_code":"7000812","prefecture":"OKAYAMA KEN","city":"OKAYAMA SHI KITA KU","town":"IZUSHICHO","perfecture_jp":"岡山県","jp_add_1":"岡山市北区","jp_add_2":"出石町"},"7000012":{"post_code":"7000012","prefecture":"OKAYAMA KEN","city":"OKAYAMA SHI KITA KU","town":"IZUMICHO","perfecture_jp":"岡山県","jp_add_1":"岡山市北区","jp_add_2":"いずみ町"},"7000013":{"post_code":"7000013","prefecture":"OKAYAMA KEN","city":"OKAYAMA SHI KITA KU","town":"IFUKUCHO","perfecture_jp":"岡山県","jp_add_1":"岡山市北区","jp_add_2":"伊福町"},"7000975":{"post_code":"7000975","prefecture":"OKAYAMA KEN","city":"OKAYAMA SHI KITA KU","town":"IMA","perfecture_jp":"岡山県","jp_add_1":"岡山市北区","jp_add_2":"今"},"7000974":{"post_code":"7000974","prefecture":"OKAYAMA KEN","city":"OKAYAMA SHI KITA KU","town":"IMAMURA","perfecture_jp":"岡山県","jp_add_1":"岡山市北区","jp_add_2":"今村"},"7000046":{"post_code":"7000046","prefecture":"OKAYAMA KEN","city":"OKAYAMA SHI KITA KU","town":"IWAI","perfecture_jp":"岡山県","jp_add_1":"岡山市北区","jp_add_2":"岩井"},"7000041":{"post_code":"7000041","prefecture":"OKAYAMA KEN","city":"OKAYAMA SHI KITA KU","town":"IWAIMIYAURA","perfecture_jp":"岡山県","jp_add_1":"岡山市北区","jp_add_2":"岩井宮裏"},"7000022":{"post_code":"7000022","prefecture":"OKAYAMA KEN","city":"OKAYAMA SHI KITA KU","town":"IWATACHO","perfecture_jp":"岡山県","jp_add_1":"岡山市北区","jp_add_2":"岩田町"},"7000824":{"post_code":"7000824","prefecture":"OKAYAMA KEN","city":"OKAYAMA SHI KITA KU","town":"UCHISANGE","perfecture_jp":"岡山県","jp_add_1":"岡山市北区","jp_add_2":"内山下"},"7000023":{"post_code":"7000023","prefecture":"OKAYAMA KEN","city":"OKAYAMA SHI KITA KU","town":"EKIMAECHO","perfecture_jp":"岡山県","jp_add_1":"岡山市北区","jp_add_2":"駅前町"},"7000024":{"post_code":"7000024","prefecture":"OKAYAMA KEN","city":"OKAYAMA SHI KITA KU","town":"EKIMOTOMACHI","perfecture_jp":"岡山県","jp_add_1":"岡山市北区","jp_add_2":"駅元町"},"7000028":{"post_code":"7000028","prefecture":"OKAYAMA KEN","city":"OKAYAMA SHI KITA KU","town":"EZUCHO","perfecture_jp":"岡山県","jp_add_1":"岡山市北区","jp_add_2":"絵図町"},"7000924":{"post_code":"7000924","prefecture":"OKAYAMA KEN","city":"OKAYAMA SHI KITA KU","town":"OMOTO","perfecture_jp":"岡山県","jp_add_1":"岡山市北区","jp_add_2":"大元"},"7000923":{"post_code":"7000923","prefecture":"OKAYAMA KEN","city":"OKAYAMA SHI KITA KU","town":"OMOTOEKIMAE","perfecture_jp":"岡山県","jp_add_1":"岡山市北区","jp_add_2":"大元駅前"},"7000925":{"post_code":"7000925","prefecture":"OKAYAMA KEN","city":"OKAYAMA SHI KITA KU","town":"OMOTOKAMIMACHI","perfecture_jp":"岡山県","jp_add_1":"岡山市北区","jp_add_2":"大元上町"},"7000867":{"post_code":"7000867","prefecture":"OKAYAMA KEN","city":"OKAYAMA SHI KITA KU","town":"OKAMACHI","perfecture_jp":"岡山県","jp_add_1":"岡山市北区","jp_add_2":"岡町"},"7000933":{"post_code":"7000933","prefecture":"OKAYAMA KEN","city":"OKAYAMA SHI KITA KU","town":"OKUDA","perfecture_jp":"岡山県","jp_add_1":"岡山市北区","jp_add_2":"奥田"},"7000931":{"post_code":"7000931","prefecture":"OKAYAMA KEN","city":"OKAYAMA SHI KITA KU","town":"OKUDA NISHIMACHI","perfecture_jp":"岡山県","jp_add_1":"岡山市北区","jp_add_2":"奥田西町"},"7000932":{"post_code":"7000932","prefecture":"OKAYAMA KEN","city":"OKAYAMA SHI KITA KU","town":"OKUDA HOMMACHI","perfecture_jp":"岡山県","jp_add_1":"岡山市北区","jp_add_2":"奥田本町"},"7000934":{"post_code":"7000934","prefecture":"OKAYAMA KEN","city":"OKAYAMA SHI KITA KU","town":"OKUDA MINAMIMACHI","perfecture_jp":"岡山県","jp_add_1":"岡山市北区","jp_add_2":"奥田南町"},"7000844":{"post_code":"7000844","prefecture":"OKAYAMA KEN","city":"OKAYAMA SHI KITA KU","town":"OFUNAIRICHO","perfecture_jp":"岡山県","jp_add_1":"岡山市北区","jp_add_2":"御舟入町"},"7000822":{"post_code":"7000822","prefecture":"OKAYAMA KEN","city":"OKAYAMA SHI KITA KU","town":"OMOTECHO","perfecture_jp":"岡山県","jp_add_1":"岡山市北区","jp_add_2":"表町"},"7000011":{"post_code":"7000011","prefecture":"OKAYAMA KEN","city":"OKAYAMA SHI KITA KU","town":"GAKUNANCHO","perfecture_jp":"岡山県","jp_add_1":"岡山市北区","jp_add_2":"学南町"},"7000905":{"post_code":"7000905","prefecture":"OKAYAMA KEN","city":"OKAYAMA SHI KITA KU","town":"KASUGACHO","perfecture_jp":"岡山県","jp_add_1":"岡山市北区","jp_add_2":"春日町"},"7000972":{"post_code":"7000972","prefecture":"OKAYAMA KEN","city":"OKAYAMA SHI KITA KU","town":"KAMINAKANO","perfecture_jp":"岡山県","jp_add_1":"岡山市北区","jp_add_2":"上中野"},"7000047":{"post_code":"7000047","prefecture":"OKAYAMA KEN","city":"OKAYAMA SHI KITA KU","town":"KANZEICHO","perfecture_jp":"岡山県","jp_add_1":"岡山市北区","jp_add_2":"関西町"},"7000935":{"post_code":"7000935","prefecture":"OKAYAMA KEN","city":"OKAYAMA SHI KITA KU","town":"KANDACHO","perfecture_jp":"岡山県","jp_add_1":"岡山市北区","jp_add_2":"神田町"},"7000803":{"post_code":"7000803","prefecture":"OKAYAMA KEN","city":"OKAYAMA SHI KITA KU","town":"KITAGATA","perfecture_jp":"岡山県","jp_add_1":"岡山市北区","jp_add_2":"北方"},"7000963":{"post_code":"7000963","prefecture":"OKAYAMA KEN","city":"OKAYAMA SHI KITA KU","town":"KITANAGASE","perfecture_jp":"岡山県","jp_add_1":"岡山市北区","jp_add_2":"北長瀬"},"7000962":{"post_code":"7000962","prefecture":"OKAYAMA KEN","city":"OKAYAMA SHI KITA KU","town":"KITANAGASEOMOTEMACHI","perfecture_jp":"岡山県","jp_add_1":"岡山市北区","jp_add_2":"北長瀬表町"},"7000961":{"post_code":"7000961","prefecture":"OKAYAMA KEN","city":"OKAYAMA SHI KITA KU","town":"KITANAGASEHOMMACHI","perfecture_jp":"岡山県","jp_add_1":"岡山市北区","jp_add_2":"北長瀬本町"},"7000831":{"post_code":"7000831","prefecture":"OKAYAMA KEN","city":"OKAYAMA SHI KITA KU","town":"KYOBASHICHO","perfecture_jp":"岡山県","jp_add_1":"岡山市北区","jp_add_2":"京橋町"},"7000832":{"post_code":"7000832","prefecture":"OKAYAMA KEN","city":"OKAYAMA SHI KITA KU","town":"KYOBASHIMINAMIMACHI","perfecture_jp":"岡山県","jp_add_1":"岡山市北区","jp_add_2":"京橋南町"},"7000838":{"post_code":"7000838","prefecture":"OKAYAMA KEN","city":"OKAYAMA SHI KITA KU","town":"KYOMACHI","perfecture_jp":"岡山県","jp_add_1":"岡山市北区","jp_add_2":"京町"},"7000015":{"post_code":"7000015","prefecture":"OKAYAMA KEN","city":"OKAYAMA SHI KITA KU","town":"KYOYAMA","perfecture_jp":"岡山県","jp_add_1":"岡山市北区","jp_add_2":"京山"},"7000984":{"post_code":"7000984","prefecture":"OKAYAMA KEN","city":"OKAYAMA SHI KITA KU","town":"KUWADACHO","perfecture_jp":"岡山県","jp_add_1":"岡山市北区","jp_add_2":"桑田町"},"7000985":{"post_code":"7000985","prefecture":"OKAYAMA KEN","city":"OKAYAMA SHI KITA KU","town":"KOSEICHO","perfecture_jp":"岡山県","jp_add_1":"岡山市北区","jp_add_2":"厚生町"},"7000866":{"post_code":"7000866","prefecture":"OKAYAMA KEN","city":"OKAYAMA SHI KITA KU","town":"KONANCHO","perfecture_jp":"岡山県","jp_add_1":"岡山市北区","jp_add_2":"岡南町"},"7000021":{"post_code":"7000021","prefecture":"OKAYAMA KEN","city":"OKAYAMA SHI KITA KU","town":"KOKUTAICHO","perfecture_jp":"岡山県","jp_add_1":"岡山市北区","jp_add_2":"国体町"},"7000025":{"post_code":"7000025","prefecture":"OKAYAMA KEN","city":"OKAYAMA SHI KITA KU","town":"KOTOBUKICHO","perfecture_jp":"岡山県","jp_add_1":"岡山市北区","jp_add_2":"寿町"},"7000903":{"post_code":"7000903","prefecture":"OKAYAMA KEN","city":"OKAYAMA SHI KITA KU","town":"SAIWAICHO","perfecture_jp":"岡山県","jp_add_1":"岡山市北区","jp_add_2":"幸町"},"7000914":{"post_code":"7000914","prefecture":"OKAYAMA KEN","city":"OKAYAMA SHI KITA KU","town":"SHIKATACHO","perfecture_jp":"岡山県","jp_add_1":"岡山市北区","jp_add_2":"鹿田町"},"7000915":{"post_code":"7000915","prefecture":"OKAYAMA KEN","city":"OKAYAMA SHI KITA KU","town":"SHIKATAHOMMACHI","perfecture_jp":"岡山県","jp_add_1":"岡山市北区","jp_add_2":"鹿田本町"},"7000033":{"post_code":"7000033","prefecture":"OKAYAMA KEN","city":"OKAYAMA SHI KITA KU","town":"SHIMADAHOMMACHI","perfecture_jp":"岡山県","jp_add_1":"岡山市北区","jp_add_2":"島田本町"},"7000907":{"post_code":"7000907","prefecture":"OKAYAMA KEN","city":"OKAYAMA SHI KITA KU","town":"SHIMOISHII","perfecture_jp":"岡山県","jp_add_1":"岡山市北区","jp_add_2":"下石井"},"7000052":{"post_code":"7000052","prefecture":"OKAYAMA KEN","city":"OKAYAMA SHI KITA KU","town":"SHIMOIFUKU","perfecture_jp":"岡山県","jp_add_1":"岡山市北区","jp_add_2":"下伊福"},"7000051":{"post_code":"7000051","prefecture":"OKAYAMA KEN","city":"OKAYAMA SHI KITA KU","town":"SHIMOIFUKU KAMIMACHI","perfecture_jp":"岡山県","jp_add_1":"岡山市北区","jp_add_2":"下伊福上町"},"7000054":{"post_code":"7000054","prefecture":"OKAYAMA KEN","city":"OKAYAMA SHI KITA KU","town":"SHIMOIFUKU NISHIMACHI","perfecture_jp":"岡山県","jp_add_1":"岡山市北区","jp_add_2":"下伊福西町"},"7000053":{"post_code":"7000053","prefecture":"OKAYAMA KEN","city":"OKAYAMA SHI KITA KU","town":"SHIMOIFUKU HOMMACHI","perfecture_jp":"岡山県","jp_add_1":"岡山市北区","jp_add_2":"下伊福本町"},"7000846":{"post_code":"7000846","prefecture":"OKAYAMA KEN","city":"OKAYAMA SHI KITA KU","town":"SHIMOCHIDACHO","perfecture_jp":"岡山県","jp_add_1":"岡山市北区","jp_add_2":"下内田町"},"7000973":{"post_code":"7000973","prefecture":"OKAYAMA KEN","city":"OKAYAMA SHI MINAMI KU","town":"SHIMONAKANO","perfecture_jp":"岡山県","jp_add_1":"岡山市北区","jp_add_2":"下中野"},"7000001":{"post_code":"7000001","prefecture":"OKAYAMA KEN","city":"OKAYAMA SHI KITA KU","town":"SHUKU","perfecture_jp":"岡山県","jp_add_1":"岡山市北区","jp_add_2":"宿"},"7000002":{"post_code":"7000002","prefecture":"OKAYAMA KEN","city":"OKAYAMA SHI KITA KU","town":"SHUKUHOMMACHI","perfecture_jp":"岡山県","jp_add_1":"岡山市北区","jp_add_2":"宿本町"},"7000032":{"post_code":"7000032","prefecture":"OKAYAMA KEN","city":"OKAYAMA SHI KITA KU","town":"SHOWACHO","perfecture_jp":"岡山県","jp_add_1":"岡山市北区","jp_add_2":"昭和町"},"7000863":{"post_code":"7000863","prefecture":"OKAYAMA KEN","city":"OKAYAMA SHI KITA KU","town":"SHIMMICHI","perfecture_jp":"岡山県","jp_add_1":"岡山市北区","jp_add_2":"新道"},"7000986":{"post_code":"7000986","prefecture":"OKAYAMA KEN","city":"OKAYAMA SHI KITA KU","town":"SHINYASHIKICHO","perfecture_jp":"岡山県","jp_add_1":"岡山市北区","jp_add_2":"新屋敷町"},"7000861":{"post_code":"7000861","prefecture":"OKAYAMA KEN","city":"OKAYAMA SHI KITA KU","town":"SEIKIBASHI","perfecture_jp":"岡山県","jp_add_1":"岡山市北区","jp_add_2":"清輝橋"},"7000862":{"post_code":"7000862","prefecture":"OKAYAMA KEN","city":"OKAYAMA SHI KITA KU","town":"SEIKIHOMMACHI","perfecture_jp":"岡山県","jp_add_1":"岡山市北区","jp_add_2":"清輝本町"},"7000027":{"post_code":"7000027","prefecture":"OKAYAMA KEN","city":"OKAYAMA SHI KITA KU","town":"SEISHINCHO","perfecture_jp":"岡山県","jp_add_1":"岡山市北区","jp_add_2":"清心町"},"7000842":{"post_code":"7000842","prefecture":"OKAYAMA KEN","city":"OKAYAMA SHI KITA KU","town":"SENDOCHO","perfecture_jp":"岡山県","jp_add_1":"岡山市北区","jp_add_2":"船頭町"},"7000062":{"post_code":"7000062","prefecture":"OKAYAMA KEN","city":"OKAYAMA SHI KITA KU","town":"DAIANJI NAKAMACHI","perfecture_jp":"岡山県","jp_add_1":"岡山市北区","jp_add_2":"大安寺中町"},"7000061":{"post_code":"7000061","prefecture":"OKAYAMA KEN","city":"OKAYAMA SHI KITA KU","town":"DAIANJI NISHIMACHI","perfecture_jp":"岡山県","jp_add_1":"岡山市北区","jp_add_2":"大安寺西町"},"7000063":{"post_code":"7000063","prefecture":"OKAYAMA KEN","city":"OKAYAMA SHI KITA KU","town":"DAIANJI HIGASHIMACHI","perfecture_jp":"岡山県","jp_add_1":"岡山市北区","jp_add_2":"大安寺東町"},"7000064":{"post_code":"7000064","prefecture":"OKAYAMA KEN","city":"OKAYAMA SHI KITA KU","town":"DAIANJI MINAMIMACHI","perfecture_jp":"岡山県","jp_add_1":"岡山市北区","jp_add_2":"大安寺南町"},"7000906":{"post_code":"7000906","prefecture":"OKAYAMA KEN","city":"OKAYAMA SHI KITA KU","town":"DAIGAKUCHO","perfecture_jp":"岡山県","jp_add_1":"岡山市北区","jp_add_2":"大学町"},"7000913":{"post_code":"7000913","prefecture":"OKAYAMA KEN","city":"OKAYAMA SHI KITA KU","town":"DAIKU","perfecture_jp":"岡山県","jp_add_1":"岡山市北区","jp_add_2":"大供"},"7000912":{"post_code":"7000912","prefecture":"OKAYAMA KEN","city":"OKAYAMA SHI KITA KU","town":"DAIKU OMOTEMACHI","perfecture_jp":"岡山県","jp_add_1":"岡山市北区","jp_add_2":"大供表町"},"7000911":{"post_code":"7000911","prefecture":"OKAYAMA KEN","city":"OKAYAMA SHI KITA KU","town":"DAIKU HOMMACHI","perfecture_jp":"岡山県","jp_add_1":"岡山市北区","jp_add_2":"大供本町"},"7000035":{"post_code":"7000035","prefecture":"OKAYAMA KEN","city":"OKAYAMA SHI KITA KU","town":"TAKAYANAGI NISHIMACHI","perfecture_jp":"岡山県","jp_add_1":"岡山市北区","jp_add_2":"高柳西町"},"7000034":{"post_code":"7000034","prefecture":"OKAYAMA KEN","city":"OKAYAMA SHI KITA KU","town":"TAKAYANAGI HIGASHIMACHI","perfecture_jp":"岡山県","jp_add_1":"岡山市北区","jp_add_2":"高柳東町"},"7000976":{"post_code":"7000976","prefecture":"OKAYAMA KEN","city":"OKAYAMA SHI KITA KU","town":"TATSUMI","perfecture_jp":"岡山県","jp_add_1":"岡山市北区","jp_add_2":"辰巳"},"7000951":{"post_code":"7000951","prefecture":"OKAYAMA KEN","city":"OKAYAMA SHI KITA KU","town":"TANAKA","perfecture_jp":"岡山県","jp_add_1":"岡山市北区","jp_add_2":"田中"},"7000071":{"post_code":"7000071","prefecture":"OKAYAMA KEN","city":"OKAYAMA SHI KITA KU","town":"TANIMANNARI","perfecture_jp":"岡山県","jp_add_1":"岡山市北区","jp_add_2":"谷万成"},"7000825":{"post_code":"7000825","prefecture":"OKAYAMA KEN","city":"OKAYAMA SHI KITA KU","town":"TAMACHI","perfecture_jp":"岡山県","jp_add_1":"岡山市北区","jp_add_2":"田町"},"7000836":{"post_code":"7000836","prefecture":"OKAYAMA KEN","city":"OKAYAMA SHI KITA KU","town":"CHUOCHO","perfecture_jp":"岡山県","jp_add_1":"岡山市北区","jp_add_2":"中央町"},"7000014":{"post_code":"7000014","prefecture":"OKAYAMA KEN","city":"OKAYAMA SHI KITA KU","town":"TSUKURACHO","perfecture_jp":"岡山県","jp_add_1":"岡山市北区","jp_add_2":"津倉町"},"7000087":{"post_code":"7000087","prefecture":"OKAYAMA KEN","city":"OKAYAMA SHI KITA KU","town":"TSUSHIMA KYOMACHI","perfecture_jp":"岡山県","jp_add_1":"岡山市北区","jp_add_2":"津島京町"},"7000084":{"post_code":"7000084","prefecture":"OKAYAMA KEN","city":"OKAYAMA SHI KITA KU","town":"TSUSHIMA KUWANOKICHO","perfecture_jp":"岡山県","jp_add_1":"岡山市北区","jp_add_2":"津島桑の木町"},"7000088":{"post_code":"7000088","prefecture":"OKAYAMA KEN","city":"OKAYAMA SHI KITA KU","town":"TSUSHIMA SASAGASE","perfecture_jp":"岡山県","jp_add_1":"岡山市北区","jp_add_2":"津島笹が瀬"},"7000082":{"post_code":"7000082","prefecture":"OKAYAMA KEN","city":"OKAYAMA SHI KITA KU","town":"TSUSHIMA NAKA","perfecture_jp":"岡山県","jp_add_1":"岡山市北区","jp_add_2":"津島中"},"7000083":{"post_code":"7000083","prefecture":"OKAYAMA KEN","city":"OKAYAMA SHI KITA KU","town":"TSUSHIMA NIINO","perfecture_jp":"岡山県","jp_add_1":"岡山市北区","jp_add_2":"津島新野"},"7000086":{"post_code":"7000086","prefecture":"OKAYAMA KEN","city":"OKAYAMA SHI KITA KU","town":"TSUSHIMA NISHIZAKA","perfecture_jp":"岡山県","jp_add_1":"岡山市北区","jp_add_2":"津島西坂"},"7000081":{"post_code":"7000081","prefecture":"OKAYAMA KEN","city":"OKAYAMA SHI KITA KU","town":"TSUSHIMA HIGASHI","perfecture_jp":"岡山県","jp_add_1":"岡山市北区","jp_add_2":"津島東"},"7000080":{"post_code":"7000080","prefecture":"OKAYAMA KEN","city":"OKAYAMA SHI KITA KU","town":"TSUSHIMA FUKUI","perfecture_jp":"岡山県","jp_add_1":"岡山市北区","jp_add_2":"津島福居"},"7000089":{"post_code":"7000089","prefecture":"OKAYAMA KEN","city":"OKAYAMA SHI KITA KU","town":"TSUSHIMA HOMMACHI","perfecture_jp":"岡山県","jp_add_1":"岡山市北区","jp_add_2":"津島本町"},"7000085":{"post_code":"7000085","prefecture":"OKAYAMA KEN","city":"OKAYAMA SHI KITA KU","town":"TSUSHIMA MINAMI","perfecture_jp":"岡山県","jp_add_1":"岡山市北区","jp_add_2":"津島南"},"7000814":{"post_code":"7000814","prefecture":"OKAYAMA KEN","city":"OKAYAMA SHI KITA KU","town":"TENJINCHO","perfecture_jp":"岡山県","jp_add_1":"岡山市北区","jp_add_2":"天神町"},"7000977":{"post_code":"7000977","prefecture":"OKAYAMA KEN","city":"OKAYAMA SHI KITA KU","town":"TOIYACHO","perfecture_jp":"岡山県","jp_add_1":"岡山市北区","jp_add_2":"問屋町"},"7000855":{"post_code":"7000855","prefecture":"OKAYAMA KEN","city":"OKAYAMA SHI KITA KU","town":"TOKAICHI NAKAMACHI","perfecture_jp":"岡山県","jp_add_1":"岡山市北区","jp_add_2":"十日市中町"},"7000856":{"post_code":"7000856","prefecture":"OKAYAMA KEN","city":"OKAYAMA SHI KITA KU","town":"TOKAICHI NISHIMACHI","perfecture_jp":"岡山県","jp_add_1":"岡山市北区","jp_add_2":"十日市西町"},"7000854":{"post_code":"7000854","prefecture":"OKAYAMA KEN","city":"OKAYAMA SHI KITA KU","town":"TOKAICHI HIGASHIMACHI","perfecture_jp":"岡山県","jp_add_1":"岡山市北区","jp_add_2":"十日市東町"},"7000826":{"post_code":"7000826","prefecture":"OKAYAMA KEN","city":"OKAYAMA SHI KITA KU","town":"TOGIYACHO","perfecture_jp":"岡山県","jp_add_1":"岡山市北区","jp_add_2":"磨屋町"},"7000936":{"post_code":"7000936","prefecture":"OKAYAMA KEN","city":"OKAYAMA SHI KITA KU","town":"TOMITA","perfecture_jp":"岡山県","jp_add_1":"岡山市北区","jp_add_2":"富田"},"7000031":{"post_code":"7000031","prefecture":"OKAYAMA KEN","city":"OKAYAMA SHI KITA KU","town":"TOMIMACHI","perfecture_jp":"岡山県","jp_add_1":"岡山市北区","jp_add_2":"富町"},"7000816":{"post_code":"7000816","prefecture":"OKAYAMA KEN","city":"OKAYAMA SHI KITA KU","town":"TONDACHO","perfecture_jp":"岡山県","jp_add_1":"岡山市北区","jp_add_2":"富田町"},"7000804":{"post_code":"7000804","prefecture":"OKAYAMA KEN","city":"OKAYAMA SHI KITA KU","town":"NAKAICHO","perfecture_jp":"岡山県","jp_add_1":"岡山市北区","jp_add_2":"中井町"},"7000821":{"post_code":"7000821","prefecture":"OKAYAMA KEN","city":"OKAYAMA SHI KITA KU","town":"NAKASANGE","perfecture_jp":"岡山県","jp_add_1":"岡山市北区","jp_add_2":"中山下"},"7000982":{"post_code":"7000982","prefecture":"OKAYAMA KEN","city":"OKAYAMA SHI KITA KU","town":"NAKASHIMADACHO","perfecture_jp":"岡山県","jp_add_1":"岡山市北区","jp_add_2":"中島田町"},"7000964":{"post_code":"7000964","prefecture":"OKAYAMA KEN","city":"OKAYAMA SHI KITA KU","town":"NAKASENDO","perfecture_jp":"岡山県","jp_add_1":"岡山市北区","jp_add_2":"中仙道"},"7000851":{"post_code":"7000851","prefecture":"OKAYAMA KEN","city":"OKAYAMA SHI KITA KU","town":"NANOKAICHI NISHIMACHI","perfecture_jp":"岡山県","jp_add_1":"岡山市北区","jp_add_2":"七日市西町"},"7000852":{"post_code":"7000852","prefecture":"OKAYAMA KEN","city":"OKAYAMA SHI KITA KU","town":"NANOKAICHI HIGASHIMACHI","perfecture_jp":"岡山県","jp_add_1":"岡山市北区","jp_add_2":"七日市東町"},"7000953":{"post_code":"7000953","prefecture":"OKAYAMA KEN","city":"OKAYAMA SHI MINAMI KU","town":"NISHIICHI","perfecture_jp":"岡山県","jp_add_1":"岡山市北区","jp_add_2":"西市"},"7000902":{"post_code":"7000902","prefecture":"OKAYAMA KEN","city":"OKAYAMA SHI KITA KU","town":"NISHIKIMACHI","perfecture_jp":"岡山県","jp_add_1":"岡山市北区","jp_add_2":"錦町"},"7000055":{"post_code":"7000055","prefecture":"OKAYAMA KEN","city":"OKAYAMA SHI KITA KU","town":"NISHIZAKI","perfecture_jp":"岡山県","jp_add_1":"岡山市北区","jp_add_2":"西崎"},"7000056":{"post_code":"7000056","prefecture":"OKAYAMA KEN","city":"OKAYAMA SHI KITA KU","town":"NISHIZAKIHOMMACHI","perfecture_jp":"岡山県","jp_add_1":"岡山市北区","jp_add_2":"西崎本町"},"7000981":{"post_code":"7000981","prefecture":"OKAYAMA KEN","city":"OKAYAMA SHI KITA KU","town":"NISHISHIMADACHO","perfecture_jp":"岡山県","jp_add_1":"岡山市北区","jp_add_2":"西島田町"},"7000965":{"post_code":"7000965","prefecture":"OKAYAMA KEN","city":"OKAYAMA SHI KITA KU","town":"NISHINAGASE","perfecture_jp":"岡山県","jp_add_1":"岡山市北区","jp_add_2":"西長瀬"},"7000916":{"post_code":"7000916","prefecture":"OKAYAMA KEN","city":"OKAYAMA SHI KITA KU","town":"NISHINOCHO","perfecture_jp":"岡山県","jp_add_1":"岡山市北区","jp_add_2":"西之町"},"7000067":{"post_code":"7000067","prefecture":"OKAYAMA KEN","city":"OKAYAMA SHI KITA KU","town":"NISHINOYAMACHO","perfecture_jp":"岡山県","jp_add_1":"岡山市北区","jp_add_2":"西野山町"},"7000927":{"post_code":"7000927","prefecture":"OKAYAMA KEN","city":"OKAYAMA SHI KITA KU","town":"NISHIFURUMATSU","perfecture_jp":"岡山県","jp_add_1":"岡山市北区","jp_add_2":"西古松"},"7000926":{"post_code":"7000926","prefecture":"OKAYAMA KEN","city":"OKAYAMA SHI KITA KU","town":"NISHIFURUMATSUNISHIMACHI","perfecture_jp":"岡山県","jp_add_1":"岡山市北区","jp_add_2":"西古松西町"},"7000971":{"post_code":"7000971","prefecture":"OKAYAMA KEN","city":"OKAYAMA SHI KITA KU","town":"NODA","perfecture_jp":"岡山県","jp_add_1":"岡山市北区","jp_add_2":"野田"},"7000815":{"post_code":"7000815","prefecture":"OKAYAMA KEN","city":"OKAYAMA SHI KITA KU","town":"NODAYACHO","perfecture_jp":"岡山県","jp_add_1":"岡山市北区","jp_add_2":"野田屋町"},"7000066":{"post_code":"7000066","prefecture":"OKAYAMA KEN","city":"OKAYAMA SHI KITA KU","town":"NODONONISHIMACHI","perfecture_jp":"岡山県","jp_add_1":"岡山市北区","jp_add_2":"野殿西町"},"7000065":{"post_code":"7000065","prefecture":"OKAYAMA KEN","city":"OKAYAMA SHI KITA KU","town":"NODONOHIGASHIMACHI","perfecture_jp":"岡山県","jp_add_1":"岡山市北区","jp_add_2":"野殿東町"},"7000818":{"post_code":"7000818","prefecture":"OKAYAMA KEN","city":"OKAYAMA SHI KITA KU","town":"BANZANCHO","perfecture_jp":"岡山県","jp_add_1":"岡山市北区","jp_add_2":"蕃山町"},"7000003":{"post_code":"7000003","prefecture":"OKAYAMA KEN","city":"OKAYAMA SHI KITA KU","town":"HANDACHO","perfecture_jp":"岡山県","jp_add_1":"岡山市北区","jp_add_2":"半田町"},"7000811":{"post_code":"7000811","prefecture":"OKAYAMA KEN","city":"OKAYAMA SHI KITA KU","town":"BANCHO","perfecture_jp":"岡山県","jp_add_1":"岡山市北区","jp_add_2":"番町"},"7000983":{"post_code":"7000983","prefecture":"OKAYAMA KEN","city":"OKAYAMA SHI KITA KU","town":"HIGASHISHIMADACHO","perfecture_jp":"岡山県","jp_add_1":"岡山市北区","jp_add_2":"東島田町"},"7000835":{"post_code":"7000835","prefecture":"OKAYAMA KEN","city":"OKAYAMA SHI KITA KU","town":"HIGASHICHUOCHO","perfecture_jp":"岡山県","jp_add_1":"岡山市北区","jp_add_2":"東中央町"},"7000068":{"post_code":"7000068","prefecture":"OKAYAMA KEN","city":"OKAYAMA SHI KITA KU","town":"HIGASHINOYAMACHO","perfecture_jp":"岡山県","jp_add_1":"岡山市北区","jp_add_2":"東野山町"},"7000921":{"post_code":"7000921","prefecture":"OKAYAMA KEN","city":"OKAYAMA SHI KITA KU","town":"HIGASHIFURUMATSU","perfecture_jp":"岡山県","jp_add_1":"岡山市北区","jp_add_2":"東古松"},"7000922":{"post_code":"7000922","prefecture":"OKAYAMA KEN","city":"OKAYAMA SHI KITA KU","town":"HIGASHIFURUMATSUMINAMIMACHI","perfecture_jp":"岡山県","jp_add_1":"岡山市北区","jp_add_2":"東古松南町"},"7000966":{"post_code":"7000966","prefecture":"OKAYAMA KEN","city":"OKAYAMA SHI KITA KU","town":"HIYOSHICHO","perfecture_jp":"岡山県","jp_add_1":"岡山市北区","jp_add_2":"日吉町"},"7000952":{"post_code":"7000952","prefecture":"OKAYAMA KEN","city":"OKAYAMA SHI KITA KU","town":"HIRATA","perfecture_jp":"岡山県","jp_add_1":"岡山市北区","jp_add_2":"平田"},"7000806":{"post_code":"7000806","prefecture":"OKAYAMA KEN","city":"OKAYAMA SHI KITA KU","town":"HIROSECHO","perfecture_jp":"岡山県","jp_add_1":"岡山市北区","jp_add_2":"広瀬町"},"7000843":{"post_code":"7000843","prefecture":"OKAYAMA KEN","city":"OKAYAMA SHI KITA KU","town":"FUTSUKAICHIMACHI","perfecture_jp":"岡山県","jp_add_1":"岡山市北区","jp_add_2":"二日市町"},"7000841":{"post_code":"7000841","prefecture":"OKAYAMA KEN","city":"OKAYAMA SHI KITA KU","town":"FUNABASHICHO","perfecture_jp":"岡山県","jp_add_1":"岡山市北区","jp_add_2":"舟橋町"},"7000805":{"post_code":"7000805","prefecture":"OKAYAMA KEN","city":"OKAYAMA SHI KITA KU","town":"HEIDAN","perfecture_jp":"岡山県","jp_add_1":"岡山市北区","jp_add_2":"兵団"},"7000827":{"post_code":"7000827","prefecture":"OKAYAMA KEN","city":"OKAYAMA SHI KITA KU","town":"HEIWACHO","perfecture_jp":"岡山県","jp_add_1":"岡山市北区","jp_add_2":"平和町"},"7000004":{"post_code":"7000004","prefecture":"OKAYAMA KEN","city":"OKAYAMA SHI KITA KU","town":"HOKAIIN","perfecture_jp":"岡山県","jp_add_1":"岡山市北区","jp_add_2":"法界院"},"7000026":{"post_code":"7000026","prefecture":"OKAYAMA KEN","city":"OKAYAMA SHI KITA KU","town":"HOKANCHO","perfecture_jp":"岡山県","jp_add_1":"岡山市北区","jp_add_2":"奉還町"},"7000901":{"post_code":"7000901","prefecture":"OKAYAMA KEN","city":"OKAYAMA SHI KITA KU","town":"HOMMACHI","perfecture_jp":"岡山県","jp_add_1":"岡山市北区","jp_add_2":"本町"},"7000823":{"post_code":"7000823","prefecture":"OKAYAMA KEN","city":"OKAYAMA SHI KITA KU","town":"MARUNOCHI","perfecture_jp":"岡山県","jp_add_1":"岡山市北区","jp_add_2":"丸の内"},"7000073":{"post_code":"7000073","prefecture":"OKAYAMA KEN","city":"OKAYAMA SHI KITA KU","town":"MANNARI NISHIMACHI","perfecture_jp":"岡山県","jp_add_1":"岡山市北区","jp_add_2":"万成西町"},"7000072":{"post_code":"7000072","prefecture":"OKAYAMA KEN","city":"OKAYAMA SHI KITA KU","town":"MANNARI HIGASHIMACHI","perfecture_jp":"岡山県","jp_add_1":"岡山市北区","jp_add_2":"万成東町"},"7000043":{"post_code":"7000043","prefecture":"OKAYAMA KEN","city":"OKAYAMA SHI KITA KU","town":"MIKADO NAKAMACHI","perfecture_jp":"岡山県","jp_add_1":"岡山市北区","jp_add_2":"三門中町"},"7000044":{"post_code":"7000044","prefecture":"OKAYAMA KEN","city":"OKAYAMA SHI KITA KU","town":"MIKADO NISHIMACHI","perfecture_jp":"岡山県","jp_add_1":"岡山市北区","jp_add_2":"三門西町"},"7000042":{"post_code":"7000042","prefecture":"OKAYAMA KEN","city":"OKAYAMA SHI KITA KU","town":"MIKADO HIGASHIMACHI","perfecture_jp":"岡山県","jp_add_1":"岡山市北区","jp_add_2":"三門東町"},"7000807":{"post_code":"7000807","prefecture":"OKAYAMA KEN","city":"OKAYAMA SHI KITA KU","town":"MINAMIGATA","perfecture_jp":"岡山県","jp_add_1":"岡山市北区","jp_add_2":"南方"},"7000837":{"post_code":"7000837","prefecture":"OKAYAMA KEN","city":"OKAYAMA SHI KITA KU","town":"MINAMICHUOCHO","perfecture_jp":"岡山県","jp_add_1":"岡山市北区","jp_add_2":"南中央町"},"7000802":{"post_code":"7000802","prefecture":"OKAYAMA KEN","city":"OKAYAMA SHI KITA KU","town":"MINO","perfecture_jp":"岡山県","jp_add_1":"岡山市北区","jp_add_2":"三野"},"7000801":{"post_code":"7000801","prefecture":"OKAYAMA KEN","city":"OKAYAMA SHI KITA KU","town":"MINOHOMMACHI","perfecture_jp":"岡山県","jp_add_1":"岡山市北区","jp_add_2":"三野本町"},"7000076":{"post_code":"7000076","prefecture":"OKAYAMA KEN","city":"OKAYAMA SHI KITA KU","town":"YASAKA NISHIMACHI","perfecture_jp":"岡山県","jp_add_1":"岡山市北区","jp_add_2":"矢坂西町"},"7000074":{"post_code":"7000074","prefecture":"OKAYAMA KEN","city":"OKAYAMA SHI KITA KU","town":"YASAKA HIGASHIMACHI","perfecture_jp":"岡山県","jp_add_1":"岡山市北区","jp_add_2":"矢坂東町"},"7000075":{"post_code":"7000075","prefecture":"OKAYAMA KEN","city":"OKAYAMA SHI KITA KU","town":"YASAKA HOMMACHI","perfecture_jp":"岡山県","jp_add_1":"岡山市北区","jp_add_2":"矢坂本町"},"7000904":{"post_code":"7000904","prefecture":"OKAYAMA KEN","city":"OKAYAMA SHI KITA KU","town":"YANAGIMACHI","perfecture_jp":"岡山県","jp_add_1":"岡山市北区","jp_add_2":"柳町"},"7000847":{"post_code":"7000847","prefecture":"OKAYAMA KEN","city":"OKAYAMA SHI KITA KU","town":"YAMASHINACHO","perfecture_jp":"岡山県","jp_add_1":"岡山市北区","jp_add_2":"山科町"},"7000808":{"post_code":"7000808","prefecture":"OKAYAMA KEN","city":"OKAYAMA SHI KITA KU","town":"YAMATOMACHI","perfecture_jp":"岡山県","jp_add_1":"岡山市北区","jp_add_2":"大和町"},"7000817":{"post_code":"7000817","prefecture":"OKAYAMA KEN","city":"OKAYAMA SHI KITA KU","town":"YUMINOCHO","perfecture_jp":"岡山県","jp_add_1":"岡山市北区","jp_add_2":"弓之町"},"7000005":{"post_code":"7000005","prefecture":"OKAYAMA KEN","city":"OKAYAMA SHI KITA KU","town":"RIDAICHO","perfecture_jp":"岡山県","jp_add_1":"岡山市北区","jp_add_2":"理大町"},"7000944":{"post_code":"7000944","prefecture":"OKAYAMA KEN","city":"OKAYAMA SHI MINAMI KU","town":"IZUMIDA","perfecture_jp":"岡山県","jp_add_1":"岡山市南区","jp_add_2":"泉田"},"7000943":{"post_code":"7000943","prefecture":"OKAYAMA KEN","city":"OKAYAMA SHI MINAMI KU","town":"SHIMPUKU","perfecture_jp":"岡山県","jp_add_1":"岡山市南区","jp_add_2":"新福"},"7000945":{"post_code":"7000945","prefecture":"OKAYAMA KEN","city":"OKAYAMA SHI MINAMI KU","town":"SHIMBO","perfecture_jp":"岡山県","jp_add_1":"岡山市南区","jp_add_2":"新保"},"7000956":{"post_code":"7000956","prefecture":"OKAYAMA KEN","city":"OKAYAMA SHI MINAMI KU","town":"TOSHINDEN","perfecture_jp":"岡山県","jp_add_1":"岡山市南区","jp_add_2":"当新田"},"7000942":{"post_code":"7000942","prefecture":"OKAYAMA KEN","city":"OKAYAMA SHI MINAMI KU","town":"TOYONARI","perfecture_jp":"岡山県","jp_add_1":"岡山市南区","jp_add_2":"豊成"},"7000853":{"post_code":"7000853","prefecture":"OKAYAMA KEN","city":"OKAYAMA SHI MINAMI KU","town":"TOYOHAMACHO","perfecture_jp":"岡山県","jp_add_1":"岡山市南区","jp_add_2":"豊浜町"},"7000845":{"post_code":"7000845","prefecture":"OKAYAMA KEN","city":"OKAYAMA SHI MINAMI KU","town":"HAMANO","perfecture_jp":"岡山県","jp_add_1":"岡山市南区","jp_add_2":"浜野"},"7000955":{"post_code":"7000955","prefecture":"OKAYAMA KEN","city":"OKAYAMA SHI MINAMI KU","town":"MAMBAI","perfecture_jp":"岡山県","jp_add_1":"岡山市南区","jp_add_2":"万倍"},"7000954":{"post_code":"7000954","prefecture":"OKAYAMA KEN","city":"OKAYAMA SHI MINAMI KU","town":"YONEGURA","perfecture_jp":"岡山県","jp_add_1":"岡山市南区","jp_add_2":"米倉"}}