{"7011463":{"post_code":"7011463","prefecture":"OKAYAMA KEN","city":"OKAYAMA SHI KITA KU","town":"ASHIMORI","perfecture_jp":"岡山県","jp_add_1":"岡山市北区","jp_add_2":"足守"},"7011461":{"post_code":"7011461","prefecture":"OKAYAMA KEN","city":"OKAYAMA SHI KITA KU","town":"AWAI","perfecture_jp":"岡山県","jp_add_1":"岡山市北区","jp_add_2":"粟井"},"7011527":{"post_code":"7011527","prefecture":"OKAYAMA KEN","city":"OKAYAMA SHI KITA KU","town":"ISHIZUMA","perfecture_jp":"岡山県","jp_add_1":"岡山市北区","jp_add_2":"石妻"},"7011211":{"post_code":"7011211","prefecture":"OKAYAMA KEN","city":"OKAYAMA SHI KITA KU","town":"ICHINOMIYA","perfecture_jp":"岡山県","jp_add_1":"岡山市北区","jp_add_2":"一宮"},"7011203":{"post_code":"7011203","prefecture":"OKAYAMA KEN","city":"OKAYAMA SHI KITA KU","town":"ICHINOMIYAYAMASAKI","perfecture_jp":"岡山県","jp_add_1":"岡山市北区","jp_add_2":"一宮山崎"},"7011204":{"post_code":"7011204","prefecture":"OKAYAMA KEN","city":"OKAYAMA SHI KITA KU","town":"IMAOKA","perfecture_jp":"岡山県","jp_add_1":"岡山市北区","jp_add_2":"今岡"},"7010145":{"post_code":"7010145","prefecture":"OKAYAMA KEN","city":"OKAYAMA SHI KITA KU","town":"IMABO","perfecture_jp":"岡山県","jp_add_1":"岡山市北区","jp_add_2":"今保"},"7011462":{"post_code":"7011462","prefecture":"OKAYAMA KEN","city":"OKAYAMA SHI KITA KU","town":"OI","perfecture_jp":"岡山県","jp_add_1":"岡山市北区","jp_add_2":"大井"},"7010165":{"post_code":"7010165","prefecture":"OKAYAMA KEN","city":"OKAYAMA SHI KITA KU","town":"OUCHIDA","perfecture_jp":"岡山県","jp_add_1":"岡山市北区","jp_add_2":"大内田"},"7011223":{"post_code":"7011223","prefecture":"OKAYAMA KEN","city":"OKAYAMA SHI KITA KU","town":"OKUBO","perfecture_jp":"岡山県","jp_add_1":"岡山市北区","jp_add_2":"大窪"},"7011336":{"post_code":"7011336","prefecture":"OKAYAMA KEN","city":"OKAYAMA SHI KITA KU","town":"OZAKI","perfecture_jp":"岡山県","jp_add_1":"岡山市北区","jp_add_2":"大崎"},"7011212":{"post_code":"7011212","prefecture":"OKAYAMA KEN","city":"OKAYAMA SHI KITA KU","town":"ONOE","perfecture_jp":"岡山県","jp_add_1":"岡山市北区","jp_add_2":"尾上"},"7011144":{"post_code":"7011144","prefecture":"OKAYAMA KEN","city":"OKAYAMA SHI KITA KU","town":"KAIDANI","perfecture_jp":"岡山県","jp_add_1":"岡山市北区","jp_add_2":"栢谷"},"7011601":{"post_code":"7011601","prefecture":"OKAYAMA KEN","city":"OKAYAMA SHI KITA KU","town":"KAKEHATA","perfecture_jp":"岡山県","jp_add_1":"岡山市北区","jp_add_2":"掛畑"},"7012151":{"post_code":"7012151","prefecture":"OKAYAMA KEN","city":"OKAYAMA SHI KITA KU","town":"KANAYAMAJI","perfecture_jp":"岡山県","jp_add_1":"岡山市北区","jp_add_2":"金山寺"},"7011525":{"post_code":"7011525","prefecture":"OKAYAMA KEN","city":"OKAYAMA SHI KITA KU","town":"KAMITAKADA","perfecture_jp":"岡山県","jp_add_1":"岡山市北区","jp_add_2":"上高田"},"7011465":{"post_code":"7011465","prefecture":"OKAYAMA KEN","city":"OKAYAMA SHI KITA KU","town":"KAMITSUCHIDA","perfecture_jp":"岡山県","jp_add_1":"岡山市北区","jp_add_2":"上土田"},"7011342":{"post_code":"7011342","prefecture":"OKAYAMA KEN","city":"OKAYAMA SHI KITA KU","town":"KAMO","perfecture_jp":"岡山県","jp_add_1":"岡山市北区","jp_add_2":"加茂"},"7011214":{"post_code":"7011214","prefecture":"OKAYAMA KEN","city":"OKAYAMA SHI KITA KU","town":"KARAKAWAICHIBA","perfecture_jp":"岡山県","jp_add_1":"岡山市北区","jp_add_2":"辛川市場"},"7010161":{"post_code":"7010161","prefecture":"OKAYAMA KEN","city":"OKAYAMA SHI KITA KU","town":"KAWAIRI","perfecture_jp":"岡山県","jp_add_1":"岡山市北区","jp_add_2":"川入"},"7011605":{"post_code":"7011605","prefecture":"OKAYAMA KEN","city":"OKAYAMA SHI KITA KU","town":"KAWAHARA","perfecture_jp":"岡山県","jp_add_1":"岡山市北区","jp_add_2":"河原"},"7011341":{"post_code":"7011341","prefecture":"OKAYAMA KEN","city":"OKAYAMA SHI KITA KU","town":"KIBITSU","perfecture_jp":"岡山県","jp_add_1":"岡山市北区","jp_add_2":"吉備津"},"7010144":{"post_code":"7010144","prefecture":"OKAYAMA KEN","city":"OKAYAMA SHI KITA KU","town":"KUME","perfecture_jp":"岡山県","jp_add_1":"岡山市北区","jp_add_2":"久米"},"7011201":{"post_code":"7011201","prefecture":"OKAYAMA KEN","city":"OKAYAMA SHI KITA KU","town":"KOBE","perfecture_jp":"岡山県","jp_add_1":"岡山市北区","jp_add_2":"首部"},"7012152":{"post_code":"7012152","prefecture":"OKAYAMA KEN","city":"OKAYAMA SHI KITA KU","town":"KOYAJIRI","perfecture_jp":"岡山県","jp_add_1":"岡山市北区","jp_add_2":"高野尻"},"7011604":{"post_code":"7011604","prefecture":"OKAYAMA KEN","city":"OKAYAMA SHI KITA KU","town":"KOKEYAMA","perfecture_jp":"岡山県","jp_add_1":"岡山市北区","jp_add_2":"苔山"},"7011352":{"post_code":"7011352","prefecture":"OKAYAMA KEN","city":"OKAYAMA SHI KITA KU","town":"KOYAMA","perfecture_jp":"岡山県","jp_add_1":"岡山市北区","jp_add_2":"小山"},"7011205":{"post_code":"7011205","prefecture":"OKAYAMA KEN","city":"OKAYAMA SHI KITA KU","town":"SAYAMA","perfecture_jp":"岡山県","jp_add_1":"岡山市北区","jp_add_2":"佐山"},"7011464":{"post_code":"7011464","prefecture":"OKAYAMA KEN","city":"OKAYAMA SHI KITA KU","town":"SHIMOASHIMORI","perfecture_jp":"岡山県","jp_add_1":"岡山市北区","jp_add_2":"下足守"},"7011524":{"post_code":"7011524","prefecture":"OKAYAMA KEN","city":"OKAYAMA SHI KITA KU","town":"SHIMOTAKADA","perfecture_jp":"岡山県","jp_add_1":"岡山市北区","jp_add_2":"下高田"},"7011356":{"post_code":"7011356","prefecture":"OKAYAMA KEN","city":"OKAYAMA SHI KITA KU","town":"SHIMOTSUCHIDA","perfecture_jp":"岡山県","jp_add_1":"岡山市北区","jp_add_2":"下土田"},"7012143":{"post_code":"7012143","prefecture":"OKAYAMA KEN","city":"OKAYAMA SHI KITA KU","town":"SHIMOMAKI","perfecture_jp":"岡山県","jp_add_1":"岡山市北区","jp_add_2":"下牧"},"7011603":{"post_code":"7011603","prefecture":"OKAYAMA KEN","city":"OKAYAMA SHI KITA KU","town":"SHODA","perfecture_jp":"岡山県","jp_add_1":"岡山市北区","jp_add_2":"庄田"},"7010143":{"post_code":"7010143","prefecture":"OKAYAMA KEN","city":"OKAYAMA SHI KITA KU","town":"SHIRAISHI","perfecture_jp":"岡山県","jp_add_1":"岡山市北区","jp_add_2":"白石"},"7010142":{"post_code":"7010142","prefecture":"OKAYAMA KEN","city":"OKAYAMA SHI KITA KU","town":"SHIRAISHI NISHISHIMMACHI","perfecture_jp":"岡山県","jp_add_1":"岡山市北区","jp_add_2":"白石西新町"},"7010141":{"post_code":"7010141","prefecture":"OKAYAMA KEN","city":"OKAYAMA SHI KITA KU","town":"SHIRAISHI HIGASHISHIMMACHI","perfecture_jp":"岡山県","jp_add_1":"岡山市北区","jp_add_2":"白石東新町"},"7011345":{"post_code":"7011345","prefecture":"OKAYAMA KEN","city":"OKAYAMA SHI KITA KU","town":"SHINJO KAMI","perfecture_jp":"岡山県","jp_add_1":"岡山市北区","jp_add_2":"新庄上"},"7011344":{"post_code":"7011344","prefecture":"OKAYAMA KEN","city":"OKAYAMA SHI KITA KU","town":"SHINJO SHIMO","perfecture_jp":"岡山県","jp_add_1":"岡山市北区","jp_add_2":"新庄下"},"7011141":{"post_code":"7011141","prefecture":"OKAYAMA KEN","city":"OKAYAMA SHI KITA KU","town":"SUGANO","perfecture_jp":"岡山県","jp_add_1":"岡山市北区","jp_add_2":"菅野"},"7011522":{"post_code":"7011522","prefecture":"OKAYAMA KEN","city":"OKAYAMA SHI KITA KU","town":"SUGITANI","perfecture_jp":"岡山県","jp_add_1":"岡山市北区","jp_add_2":"杉谷"},"7011343":{"post_code":"7011343","prefecture":"OKAYAMA KEN","city":"OKAYAMA SHI KITA KU","town":"SOZUME","perfecture_jp":"岡山県","jp_add_1":"岡山市北区","jp_add_2":"惣爪"},"7011354":{"post_code":"7011354","prefecture":"OKAYAMA KEN","city":"OKAYAMA SHI KITA KU","town":"TAKATSUKA","perfecture_jp":"岡山県","jp_add_1":"岡山市北区","jp_add_2":"高塚"},"7011142":{"post_code":"7011142","prefecture":"OKAYAMA KEN","city":"OKAYAMA SHI KITA KU","town":"TAKANO","perfecture_jp":"岡山県","jp_add_1":"岡山市北区","jp_add_2":"高野"},"7011335":{"post_code":"7011335","prefecture":"OKAYAMA KEN","city":"OKAYAMA SHI KITA KU","town":"TAKAMATSU","perfecture_jp":"岡山県","jp_add_1":"岡山市北区","jp_add_2":"高松"},"7011331":{"post_code":"7011331","prefecture":"OKAYAMA KEN","city":"OKAYAMA SHI KITA KU","town":"TAKAMATSU INARI","perfecture_jp":"岡山県","jp_add_1":"岡山市北区","jp_add_2":"高松稲荷"},"7011355":{"post_code":"7011355","prefecture":"OKAYAMA KEN","city":"OKAYAMA SHI KITA KU","town":"TAKAMATSU TANAKA","perfecture_jp":"岡山県","jp_add_1":"岡山市北区","jp_add_2":"高松田中"},"7011334":{"post_code":"7011334","prefecture":"OKAYAMA KEN","city":"OKAYAMA SHI KITA KU","town":"TAKAMATSU HARAKOSAI","perfecture_jp":"岡山県","jp_add_1":"岡山市北区","jp_add_2":"高松原古才"},"7011333":{"post_code":"7011333","prefecture":"OKAYAMA KEN","city":"OKAYAMA SHI KITA KU","town":"TATSUTA","perfecture_jp":"岡山県","jp_add_1":"岡山市北区","jp_add_2":"立田"},"7011132":{"post_code":"7011132","prefecture":"OKAYAMA KEN","city":"OKAYAMA SHI KITA KU","town":"TABARA","perfecture_jp":"岡山県","jp_add_1":"岡山市北区","jp_add_2":"田原"},"7012142":{"post_code":"7012142","prefecture":"OKAYAMA KEN","city":"OKAYAMA SHI KITA KU","town":"TAMAGASHI","perfecture_jp":"岡山県","jp_add_1":"岡山市北区","jp_add_2":"玉柏"},"7011154":{"post_code":"7011154","prefecture":"OKAYAMA KEN","city":"OKAYAMA SHI KITA KU","town":"TAMASU","perfecture_jp":"岡山県","jp_add_1":"岡山市北区","jp_add_2":"田益"},"7011152":{"post_code":"7011152","prefecture":"OKAYAMA KEN","city":"OKAYAMA SHI KITA KU","town":"TSUDAKA","perfecture_jp":"岡山県","jp_add_1":"岡山市北区","jp_add_2":"津高"},"7011151":{"post_code":"7011151","prefecture":"OKAYAMA KEN","city":"OKAYAMA SHI KITA KU","town":"TSUDAKADAI","perfecture_jp":"岡山県","jp_add_1":"岡山市北区","jp_add_2":"津高台"},"7011346":{"post_code":"7011346","prefecture":"OKAYAMA KEN","city":"OKAYAMA SHI KITA KU","town":"TSUDERA","perfecture_jp":"岡山県","jp_add_1":"岡山市北区","jp_add_2":"津寺"},"7011153":{"post_code":"7011153","prefecture":"OKAYAMA KEN","city":"OKAYAMA SHI KITA KU","town":"TOMIHARA","perfecture_jp":"岡山県","jp_add_1":"岡山市北区","jp_add_2":"富原"},"7011133":{"post_code":"7011133","prefecture":"OKAYAMA KEN","city":"OKAYAMA SHI KITA KU","town":"TOMIYOSHI","perfecture_jp":"岡山県","jp_add_1":"岡山市北区","jp_add_2":"富吉"},"7010163":{"post_code":"7010163","prefecture":"OKAYAMA KEN","city":"OKAYAMA SHI KITA KU","town":"NAKANATSUKAWA","perfecture_jp":"岡山県","jp_add_1":"岡山市北区","jp_add_2":"中撫川"},"7011224":{"post_code":"7011224","prefecture":"OKAYAMA KEN","city":"OKAYAMA SHI KITA KU","town":"NAGANO","perfecture_jp":"岡山県","jp_add_1":"岡山市北区","jp_add_2":"長野"},"7012155":{"post_code":"7012155","prefecture":"OKAYAMA KEN","city":"OKAYAMA SHI KITA KU","town":"NAKAHARA","perfecture_jp":"岡山県","jp_add_1":"岡山市北区","jp_add_2":"中原"},"7012144":{"post_code":"7012144","prefecture":"OKAYAMA KEN","city":"OKAYAMA SHI KITA KU","town":"NAKAMAKI","perfecture_jp":"岡山県","jp_add_1":"岡山市北区","jp_add_2":"中牧"},"7010164":{"post_code":"7010164","prefecture":"OKAYAMA KEN","city":"OKAYAMA SHI KITA KU","town":"NATSUKAWA","perfecture_jp":"岡山県","jp_add_1":"岡山市北区","jp_add_2":"撫川"},"7011202":{"post_code":"7011202","prefecture":"OKAYAMA KEN","city":"OKAYAMA SHI KITA KU","town":"NARAZU","perfecture_jp":"岡山県","jp_add_1":"岡山市北区","jp_add_2":"楢津"},"7011213":{"post_code":"7011213","prefecture":"OKAYAMA KEN","city":"OKAYAMA SHI KITA KU","town":"NISHIKARAKAWA","perfecture_jp":"岡山県","jp_add_1":"岡山市北区","jp_add_2":"西辛川"},"7010136":{"post_code":"7010136","prefecture":"OKAYAMA KEN","city":"OKAYAMA SHI KITA KU","town":"NISHIHANAJIRI","perfecture_jp":"岡山県","jp_add_1":"岡山市北区","jp_add_2":"西花尻"},"7011612":{"post_code":"7011612","prefecture":"OKAYAMA KEN","city":"OKAYAMA SHI KITA KU","town":"NISHIYAMANOCHI","perfecture_jp":"岡山県","jp_add_1":"岡山市北区","jp_add_2":"西山内"},"7011131":{"post_code":"7011131","prefecture":"OKAYAMA KEN","city":"OKAYAMA SHI KITA KU","town":"NICHIOJI","perfecture_jp":"岡山県","jp_add_1":"岡山市北区","jp_add_2":"日応寺"},"7010153":{"post_code":"7010153","prefecture":"OKAYAMA KEN","city":"OKAYAMA SHI KITA KU","town":"NIWASE","perfecture_jp":"岡山県","jp_add_1":"岡山市北区","jp_add_2":"庭瀬"},"7010162":{"post_code":"7010162","prefecture":"OKAYAMA KEN","city":"OKAYAMA SHI KITA KU","town":"NOSO","perfecture_jp":"岡山県","jp_add_1":"岡山市北区","jp_add_2":"納所"},"7010152":{"post_code":"7010152","prefecture":"OKAYAMA KEN","city":"OKAYAMA SHI KITA KU","town":"NOBUTOMO","perfecture_jp":"岡山県","jp_add_1":"岡山市北区","jp_add_2":"延友"},"7011221":{"post_code":"7011221","prefecture":"OKAYAMA KEN","city":"OKAYAMA SHI KITA KU","town":"HAGA","perfecture_jp":"岡山県","jp_add_1":"岡山市北区","jp_add_2":"芳賀"},"7012153":{"post_code":"7012153","prefecture":"OKAYAMA KEN","city":"OKAYAMA SHI KITA KU","town":"HATAAYU","perfecture_jp":"岡山県","jp_add_1":"岡山市北区","jp_add_2":"畑鮎"},"7010134":{"post_code":"7010134","prefecture":"OKAYAMA KEN","city":"OKAYAMA SHI KITA KU","town":"HANAJIRI","perfecture_jp":"岡山県","jp_add_1":"岡山市北区","jp_add_2":"花尻"},"7010133":{"post_code":"7010133","prefecture":"OKAYAMA KEN","city":"OKAYAMA SHI KITA KU","town":"HANAJIRI AKANEMACHI","perfecture_jp":"岡山県","jp_add_1":"岡山市北区","jp_add_2":"花尻あかね町"},"7010132":{"post_code":"7010132","prefecture":"OKAYAMA KEN","city":"OKAYAMA SHI KITA KU","town":"HANAJIRI KIKYOMACHI","perfecture_jp":"岡山県","jp_add_1":"岡山市北区","jp_add_2":"花尻ききょう町"},"7010131":{"post_code":"7010131","prefecture":"OKAYAMA KEN","city":"OKAYAMA SHI KITA KU","town":"HANAJIRI MIDORIMACHI","perfecture_jp":"岡山県","jp_add_1":"岡山市北区","jp_add_2":"花尻みどり町"},"7012154":{"post_code":"7012154","prefecture":"OKAYAMA KEN","city":"OKAYAMA SHI KITA KU","town":"HARA","perfecture_jp":"岡山県","jp_add_1":"岡山市北区","jp_add_2":"原"},"7010135":{"post_code":"7010135","prefecture":"OKAYAMA KEN","city":"OKAYAMA SHI KITA KU","town":"HIGASHIHANAJIRI","perfecture_jp":"岡山県","jp_add_1":"岡山市北区","jp_add_2":"東花尻"},"7011611":{"post_code":"7011611","prefecture":"OKAYAMA KEN","city":"OKAYAMA SHI KITA KU","town":"HIGASHIYAMANOCHI","perfecture_jp":"岡山県","jp_add_1":"岡山市北区","jp_add_2":"東山内"},"7011521":{"post_code":"7011521","prefecture":"OKAYAMA KEN","city":"OKAYAMA SHI KITA KU","town":"HIJIKAI","perfecture_jp":"岡山県","jp_add_1":"岡山市北区","jp_add_2":"日近"},"7010151":{"post_code":"7010151","prefecture":"OKAYAMA KEN","city":"OKAYAMA SHI KITA KU","town":"HIRANO","perfecture_jp":"岡山県","jp_add_1":"岡山市北区","jp_add_2":"平野"},"7011332":{"post_code":"7011332","prefecture":"OKAYAMA KEN","city":"OKAYAMA SHI KITA KU","town":"HIRAYAMA","perfecture_jp":"岡山県","jp_add_1":"岡山市北区","jp_add_2":"平山"},"7011357":{"post_code":"7011357","prefecture":"OKAYAMA KEN","city":"OKAYAMA SHI KITA KU","town":"FUKUZAKI","perfecture_jp":"岡山県","jp_add_1":"岡山市北区","jp_add_2":"福崎"},"7011225":{"post_code":"7011225","prefecture":"OKAYAMA KEN","city":"OKAYAMA SHI KITA KU","town":"FUKUTANI","perfecture_jp":"岡山県","jp_add_1":"岡山市北区","jp_add_2":"福谷"},"7011613":{"post_code":"7011613","prefecture":"OKAYAMA KEN","city":"OKAYAMA SHI KITA KU","town":"MAGURA","perfecture_jp":"岡山県","jp_add_1":"岡山市北区","jp_add_2":"間倉"},"7011222":{"post_code":"7011222","prefecture":"OKAYAMA KEN","city":"OKAYAMA SHI KITA KU","town":"MATSUO","perfecture_jp":"岡山県","jp_add_1":"岡山市北区","jp_add_2":"松尾"},"7011602":{"post_code":"7011602","prefecture":"OKAYAMA KEN","city":"OKAYAMA SHI KITA KU","town":"MANABOSHI","perfecture_jp":"岡山県","jp_add_1":"岡山市北区","jp_add_2":"真星"},"7011353":{"post_code":"7011353","prefecture":"OKAYAMA KEN","city":"OKAYAMA SHI KITA KU","town":"MITE","perfecture_jp":"岡山県","jp_add_1":"岡山市北区","jp_add_2":"三手"},"7011134":{"post_code":"7011134","prefecture":"OKAYAMA KEN","city":"OKAYAMA SHI KITA KU","town":"MITO","perfecture_jp":"岡山県","jp_add_1":"岡山市北区","jp_add_2":"三和"},"7012141":{"post_code":"7012141","prefecture":"OKAYAMA KEN","city":"OKAYAMA SHI KITA KU","town":"MUSA","perfecture_jp":"岡山県","jp_add_1":"岡山市北区","jp_add_2":"牟佐"},"7011351":{"post_code":"7011351","prefecture":"OKAYAMA KEN","city":"OKAYAMA SHI KITA KU","town":"MONZEN","perfecture_jp":"岡山県","jp_add_1":"岡山市北区","jp_add_2":"門前"},"7011526":{"post_code":"7011526","prefecture":"OKAYAMA KEN","city":"OKAYAMA SHI KITA KU","town":"YAMANOE","perfecture_jp":"岡山県","jp_add_1":"岡山市北区","jp_add_2":"山上"},"7011145":{"post_code":"7011145","prefecture":"OKAYAMA KEN","city":"OKAYAMA SHI KITA KU","town":"YOKOIKAMI","perfecture_jp":"岡山県","jp_add_1":"岡山市北区","jp_add_2":"横井上"},"7011226":{"post_code":"7011226","prefecture":"OKAYAMA KEN","city":"OKAYAMA SHI KITA KU","town":"YOKO","perfecture_jp":"岡山県","jp_add_1":"岡山市北区","jp_add_2":"横尾"},"7011523":{"post_code":"7011523","prefecture":"OKAYAMA KEN","city":"OKAYAMA SHI KITA KU","town":"YOSHI","perfecture_jp":"岡山県","jp_add_1":"岡山市北区","jp_add_2":"吉"},"7011143":{"post_code":"7011143","prefecture":"OKAYAMA KEN","city":"OKAYAMA SHI KITA KU","town":"YOSHIMUNE","perfecture_jp":"岡山県","jp_add_1":"岡山市北区","jp_add_2":"吉宗"},"7011337":{"post_code":"7011337","prefecture":"OKAYAMA KEN","city":"OKAYAMA SHI KITA KU","town":"WAIMOTO","perfecture_jp":"岡山県","jp_add_1":"岡山市北区","jp_add_2":"和井元"},"7010212":{"post_code":"7010212","prefecture":"OKAYAMA KEN","city":"OKAYAMA SHI MINAMI KU","town":"UCHIO","perfecture_jp":"岡山県","jp_add_1":"岡山市南区","jp_add_2":"内尾"},"7010204":{"post_code":"7010204","prefecture":"OKAYAMA KEN","city":"OKAYAMA SHI MINAMI KU","town":"OFUKU","perfecture_jp":"岡山県","jp_add_1":"岡山市南区","jp_add_2":"大福"},"7010203":{"post_code":"7010203","prefecture":"OKAYAMA KEN","city":"OKAYAMA SHI MINAMI KU","town":"KOSHINDEN","perfecture_jp":"岡山県","jp_add_1":"岡山市南区","jp_add_2":"古新田"},"7010205":{"post_code":"7010205","prefecture":"OKAYAMA KEN","city":"OKAYAMA SHI MINAMI KU","town":"SENO","perfecture_jp":"岡山県","jp_add_1":"岡山市南区","jp_add_2":"妹尾"},"7010201":{"post_code":"7010201","prefecture":"OKAYAMA KEN","city":"OKAYAMA SHI MINAMI KU","town":"SENOZAKI","perfecture_jp":"岡山県","jp_add_1":"岡山市南区","jp_add_2":"妹尾崎"},"7010214":{"post_code":"7010214","prefecture":"OKAYAMA KEN","city":"OKAYAMA SHI MINAMI KU","town":"SONE","perfecture_jp":"岡山県","jp_add_1":"岡山市南区","jp_add_2":"曽根"},"7010213":{"post_code":"7010213","prefecture":"OKAYAMA KEN","city":"OKAYAMA SHI MINAMI KU","town":"NAKAUNE","perfecture_jp":"岡山県","jp_add_1":"岡山市南区","jp_add_2":"中畦"},"7010215":{"post_code":"7010215","prefecture":"OKAYAMA KEN","city":"OKAYAMA SHI MINAMI KU","town":"NISHIUNE","perfecture_jp":"岡山県","jp_add_1":"岡山市南区","jp_add_2":"西畦"},"7010211":{"post_code":"7010211","prefecture":"OKAYAMA KEN","city":"OKAYAMA SHI MINAMI KU","town":"HIGASHIUNE","perfecture_jp":"岡山県","jp_add_1":"岡山市南区","jp_add_2":"東畦"},"7010221":{"post_code":"7010221","prefecture":"OKAYAMA KEN","city":"OKAYAMA SHI MINAMI KU","town":"FUJITA","perfecture_jp":"岡山県","jp_add_1":"岡山市南区","jp_add_2":"藤田"},"7010206":{"post_code":"7010206","prefecture":"OKAYAMA KEN","city":"OKAYAMA SHI MINAMI KU","town":"MISHIMA","perfecture_jp":"岡山県","jp_add_1":"岡山市南区","jp_add_2":"箕島"},"7010202":{"post_code":"7010202","prefecture":"OKAYAMA KEN","city":"OKAYAMA SHI MINAMI KU","town":"YAMADA","perfecture_jp":"岡山県","jp_add_1":"岡山市南区","jp_add_2":"山田"},"7010113":{"post_code":"7010113","prefecture":"OKAYAMA KEN","city":"KURASHIKI SHI","town":"KURISAKA","perfecture_jp":"岡山県","jp_add_1":"倉敷市","jp_add_2":"栗坂"},"7010112":{"post_code":"7010112","prefecture":"OKAYAMA KEN","city":"KURASHIKI SHI","town":"SHIMOSHO","perfecture_jp":"岡山県","jp_add_1":"倉敷市","jp_add_2":"下庄"},"7010102":{"post_code":"7010102","prefecture":"OKAYAMA KEN","city":"KURASHIKI SHI","town":"SHOSHIMMACHI","perfecture_jp":"岡山県","jp_add_1":"倉敷市","jp_add_2":"庄新町"},"7010111":{"post_code":"7010111","prefecture":"OKAYAMA KEN","city":"KURASHIKI SHI","town":"JOTO","perfecture_jp":"岡山県","jp_add_1":"倉敷市","jp_add_2":"上東"},"7010103":{"post_code":"7010103","prefecture":"OKAYAMA KEN","city":"KURASHIKI SHI","town":"NISHIO","perfecture_jp":"岡山県","jp_add_1":"倉敷市","jp_add_2":"西尾"},"7010101":{"post_code":"7010101","prefecture":"OKAYAMA KEN","city":"KURASHIKI SHI","town":"HIBATA","perfecture_jp":"岡山県","jp_add_1":"倉敷市","jp_add_2":"日畑"},"7010115":{"post_code":"7010115","prefecture":"OKAYAMA KEN","city":"KURASHIKI SHI","town":"FUTAGO","perfecture_jp":"岡山県","jp_add_1":"倉敷市","jp_add_2":"二子"},"7010114":{"post_code":"7010114","prefecture":"OKAYAMA KEN","city":"KURASHIKI SHI","town":"MATSUSHIMA","perfecture_jp":"岡山県","jp_add_1":"倉敷市","jp_add_2":"松島"},"7010105":{"post_code":"7010105","prefecture":"OKAYAMA KEN","city":"KURASHIKI SHI","town":"YABE","perfecture_jp":"岡山県","jp_add_1":"倉敷市","jp_add_2":"矢部"},"7010104":{"post_code":"7010104","prefecture":"OKAYAMA KEN","city":"KURASHIKI SHI","town":"YAMAJI","perfecture_jp":"岡山県","jp_add_1":"倉敷市","jp_add_2":"山地"},"7013203":{"post_code":"7013203","prefecture":"OKAYAMA KEN","city":"BIZEN SHI","town":"HINASECHO OTABU","perfecture_jp":"岡山県","jp_add_1":"備前市","jp_add_2":"日生町大多府"},"7013202":{"post_code":"7013202","prefecture":"OKAYAMA KEN","city":"BIZEN SHI","town":"HINASECHO SOGO","perfecture_jp":"岡山県","jp_add_1":"備前市","jp_add_2":"日生町寒河"},"7013201":{"post_code":"7013201","prefecture":"OKAYAMA KEN","city":"BIZEN SHI","town":"HINASECHO TERAYAMA","perfecture_jp":"岡山県","jp_add_1":"備前市","jp_add_2":"日生町寺山"},"7013204":{"post_code":"7013204","prefecture":"OKAYAMA KEN","city":"BIZEN SHI","town":"HINASECHO HINASE","perfecture_jp":"岡山県","jp_add_1":"備前市","jp_add_2":"日生町日生"},"7014200":{"post_code":"7014200","prefecture":"OKAYAMA KEN","city":"SETOCHI SHI","town":"IKANIKEISAIGANAIBAAI","perfecture_jp":"岡山県","jp_add_1":"瀬戸内市","jp_add_2":""},"7014302":{"post_code":"7014302","prefecture":"OKAYAMA KEN","city":"SETOCHI SHI","town":"USHIMADOCHO USHIMADO","perfecture_jp":"岡山県","jp_add_1":"瀬戸内市","jp_add_2":"牛窓町牛窓"},"7014303":{"post_code":"7014303","prefecture":"OKAYAMA KEN","city":"SETOCHI SHI","town":"USHIMADOCHO KASHINO","perfecture_jp":"岡山県","jp_add_1":"瀬戸内市","jp_add_2":"牛窓町鹿忍"},"7014304":{"post_code":"7014304","prefecture":"OKAYAMA KEN","city":"SETOCHI SHI","town":"USHIMADOCHO SENZU","perfecture_jp":"岡山県","jp_add_1":"瀬戸内市","jp_add_2":"牛窓町千手"},"7014301":{"post_code":"7014301","prefecture":"OKAYAMA KEN","city":"SETOCHI SHI","town":"USHIMADOCHO NAGAHAMA","perfecture_jp":"岡山県","jp_add_1":"瀬戸内市","jp_add_2":"牛窓町長浜"},"7014231":{"post_code":"7014231","prefecture":"OKAYAMA KEN","city":"SETOCHI SHI","town":"OKUCHO OKUBO","perfecture_jp":"岡山県","jp_add_1":"瀬戸内市","jp_add_2":"邑久町大窪"},"7014234":{"post_code":"7014234","prefecture":"OKAYAMA KEN","city":"SETOCHI SHI","town":"OKUCHO ODOMI","perfecture_jp":"岡山県","jp_add_1":"瀬戸内市","jp_add_2":"邑久町大富"},"7014221":{"post_code":"7014221","prefecture":"OKAYAMA KEN","city":"SETOCHI SHI","town":"OKUCHO OWARI","perfecture_jp":"岡山県","jp_add_1":"瀬戸内市","jp_add_2":"邑久町尾張"},"7014252":{"post_code":"7014252","prefecture":"OKAYAMA KEN","city":"SETOCHI SHI","town":"OKUCHO KAMIGASAKA","perfecture_jp":"岡山県","jp_add_1":"瀬戸内市","jp_add_2":"邑久町上笠加"},"7014215":{"post_code":"7014215","prefecture":"OKAYAMA KEN","city":"SETOCHI SHI","town":"OKUCHO KAMIYAMADA","perfecture_jp":"岡山県","jp_add_1":"瀬戸内市","jp_add_2":"邑久町上山田"},"7014251":{"post_code":"7014251","prefecture":"OKAYAMA KEN","city":"SETOCHI SHI","town":"OKUCHO KITAIKE","perfecture_jp":"岡山県","jp_add_1":"瀬戸内市","jp_add_2":"邑久町北池"},"7014232":{"post_code":"7014232","prefecture":"OKAYAMA KEN","city":"SETOCHI SHI","town":"OKUCHO KITASHIMA","perfecture_jp":"岡山県","jp_add_1":"瀬戸内市","jp_add_2":"邑久町北島"},"7014247":{"post_code":"7014247","prefecture":"OKAYAMA KEN","city":"SETOCHI SHI","town":"OKUCHO SHIMOGASAKA","perfecture_jp":"岡山県","jp_add_1":"瀬戸内市","jp_add_2":"邑久町下笠加"},"7014216":{"post_code":"7014216","prefecture":"OKAYAMA KEN","city":"SETOCHI SHI","town":"OKUCHO SHIMOYAMADA","perfecture_jp":"岡山県","jp_add_1":"瀬戸内市","jp_add_2":"邑久町下山田"},"7014211":{"post_code":"7014211","prefecture":"OKAYAMA KEN","city":"SETOCHI SHI","town":"OKUCHO SHODA","perfecture_jp":"岡山県","jp_add_1":"瀬戸内市","jp_add_2":"邑久町庄田"},"7014212":{"post_code":"7014212","prefecture":"OKAYAMA KEN","city":"SETOCHI SHI","town":"OKUCHO SHIRIMI","perfecture_jp":"岡山県","jp_add_1":"瀬戸内市","jp_add_2":"邑久町尻海"},"7014243":{"post_code":"7014243","prefecture":"OKAYAMA KEN","city":"SETOCHI SHI","town":"OKUCHO SOSAN","perfecture_jp":"岡山県","jp_add_1":"瀬戸内市","jp_add_2":"邑久町宗三"},"7014223":{"post_code":"7014223","prefecture":"OKAYAMA KEN","city":"SETOCHI SHI","town":"OKUCHO TOYOHARA","perfecture_jp":"岡山県","jp_add_1":"瀬戸内市","jp_add_2":"邑久町豊原"},"7014222":{"post_code":"7014222","prefecture":"OKAYAMA KEN","city":"SETOCHI SHI","town":"OKUCHO TOYOYASU","perfecture_jp":"岡山県","jp_add_1":"瀬戸内市","jp_add_2":"邑久町豊安"},"7014224":{"post_code":"7014224","prefecture":"OKAYAMA KEN","city":"SETOCHI SHI","town":"OKUCHO HIGASHIDANI","perfecture_jp":"岡山県","jp_add_1":"瀬戸内市","jp_add_2":"邑久町東谷"},"7014502":{"post_code":"7014502","prefecture":"OKAYAMA KEN","city":"SETOCHI SHI","town":"OKUCHO FUKUTANI","perfecture_jp":"岡山県","jp_add_1":"瀬戸内市","jp_add_2":"邑久町福谷"},"7014244":{"post_code":"7014244","prefecture":"OKAYAMA KEN","city":"SETOCHI SHI","town":"OKUCHO FUKUNAKA","perfecture_jp":"岡山県","jp_add_1":"瀬戸内市","jp_add_2":"邑久町福中"},"7014241":{"post_code":"7014241","prefecture":"OKAYAMA KEN","city":"SETOCHI SHI","town":"OKUCHO FUKUMOTO","perfecture_jp":"岡山県","jp_add_1":"瀬戸内市","jp_add_2":"邑久町福元"},"7014245":{"post_code":"7014245","prefecture":"OKAYAMA KEN","city":"SETOCHI SHI","town":"OKUCHO FUKUYAMA","perfecture_jp":"岡山県","jp_add_1":"瀬戸内市","jp_add_2":"邑久町福山"},"7014214":{"post_code":"7014214","prefecture":"OKAYAMA KEN","city":"SETOCHI SHI","town":"OKUCHO HONJO","perfecture_jp":"岡山県","jp_add_1":"瀬戸内市","jp_add_2":"邑久町本庄"},"7014254":{"post_code":"7014254","prefecture":"OKAYAMA KEN","city":"SETOCHI SHI","town":"OKUCHO MAMEDA","perfecture_jp":"岡山県","jp_add_1":"瀬戸内市","jp_add_2":"邑久町豆田"},"7014253":{"post_code":"7014253","prefecture":"OKAYAMA KEN","city":"SETOCHI SHI","town":"OKUCHO MINOWA","perfecture_jp":"岡山県","jp_add_1":"瀬戸内市","jp_add_2":"邑久町箕輪"},"7014233":{"post_code":"7014233","prefecture":"OKAYAMA KEN","city":"SETOCHI SHI","town":"OKUCHO MUKOYAMA","perfecture_jp":"岡山県","jp_add_1":"瀬戸内市","jp_add_2":"邑久町向山"},"7014501":{"post_code":"7014501","prefecture":"OKAYAMA KEN","city":"SETOCHI SHI","town":"OKUCHO MUSHIAKE","perfecture_jp":"岡山県","jp_add_1":"瀬戸内市","jp_add_2":"邑久町虫明"},"7014248":{"post_code":"7014248","prefecture":"OKAYAMA KEN","city":"SETOCHI SHI","town":"OKUCHO MOMODA","perfecture_jp":"岡山県","jp_add_1":"瀬戸内市","jp_add_2":"邑久町百田"},"7014246":{"post_code":"7014246","prefecture":"OKAYAMA KEN","city":"SETOCHI SHI","town":"OKUCHO YAMADANOSHO","perfecture_jp":"岡山県","jp_add_1":"瀬戸内市","jp_add_2":"邑久町山田庄"},"7014213":{"post_code":"7014213","prefecture":"OKAYAMA KEN","city":"SETOCHI SHI","town":"OKUCHO YAMATE","perfecture_jp":"岡山県","jp_add_1":"瀬戸内市","jp_add_2":"邑久町山手"},"7014261":{"post_code":"7014261","prefecture":"OKAYAMA KEN","city":"SETOCHI SHI","town":"OSAFUNECHO II","perfecture_jp":"岡山県","jp_add_1":"瀬戸内市","jp_add_2":"長船町飯井"},"7014273":{"post_code":"7014273","prefecture":"OKAYAMA KEN","city":"SETOCHI SHI","town":"OSAFUNECHO ISOKAMI","perfecture_jp":"岡山県","jp_add_1":"瀬戸内市","jp_add_2":"長船町磯上"},"7014274":{"post_code":"7014274","prefecture":"OKAYAMA KEN","city":"SETOCHI SHI","town":"OSAFUNECHO USHIFUMI","perfecture_jp":"岡山県","jp_add_1":"瀬戸内市","jp_add_2":"長船町牛文"},"7014271":{"post_code":"7014271","prefecture":"OKAYAMA KEN","city":"SETOCHI SHI","town":"OSAFUNECHO OSAFUNE","perfecture_jp":"岡山県","jp_add_1":"瀬戸内市","jp_add_2":"長船町長船"},"7014263":{"post_code":"7014263","prefecture":"OKAYAMA KEN","city":"SETOCHI SHI","town":"OSAFUNECHO NISHISUE","perfecture_jp":"岡山県","jp_add_1":"瀬戸内市","jp_add_2":"長船町西須恵"},"7014264":{"post_code":"7014264","prefecture":"OKAYAMA KEN","city":"SETOCHI SHI","town":"OSAFUNECHO HAJI","perfecture_jp":"岡山県","jp_add_1":"瀬戸内市","jp_add_2":"長船町土師"},"7014276":{"post_code":"7014276","prefecture":"OKAYAMA KEN","city":"SETOCHI SHI","town":"OSAFUNECHO HATTORI","perfecture_jp":"岡山県","jp_add_1":"瀬戸内市","jp_add_2":"長船町服部"},"7014262":{"post_code":"7014262","prefecture":"OKAYAMA KEN","city":"SETOCHI SHI","town":"OSAFUNECHO HIGASHISUE","perfecture_jp":"岡山県","jp_add_1":"瀬戸内市","jp_add_2":"長船町東須恵"},"7014265":{"post_code":"7014265","prefecture":"OKAYAMA KEN","city":"SETOCHI SHI","town":"OSAFUNECHO FUKUOKA","perfecture_jp":"岡山県","jp_add_1":"瀬戸内市","jp_add_2":"長船町福岡"},"7014275":{"post_code":"7014275","prefecture":"OKAYAMA KEN","city":"SETOCHI SHI","town":"OSAFUNECHO FUKUSATO","perfecture_jp":"岡山県","jp_add_1":"瀬戸内市","jp_add_2":"長船町福里"},"7014272":{"post_code":"7014272","prefecture":"OKAYAMA KEN","city":"SETOCHI SHI","town":"OSAFUNECHO YOKAICHI","perfecture_jp":"岡山県","jp_add_1":"瀬戸内市","jp_add_2":"長船町八日市"},"7012443":{"post_code":"7012443","prefecture":"OKAYAMA KEN","city":"AKAIWA SHI","town":"AIDA","perfecture_jp":"岡山県","jp_add_1":"赤磐市","jp_add_2":"合田"},"7012514":{"post_code":"7012514","prefecture":"OKAYAMA KEN","city":"AKAIWA SHI","town":"ISHI","perfecture_jp":"岡山県","jp_add_1":"赤磐市","jp_add_2":"石"},"7012445":{"post_code":"7012445","prefecture":"OKAYAMA KEN","city":"AKAIWA SHI","town":"ISHIKAMI","perfecture_jp":"岡山県","jp_add_1":"赤磐市","jp_add_2":"石上"},"7012511":{"post_code":"7012511","prefecture":"OKAYAMA KEN","city":"AKAIWA SHI","town":"INAMAKI","perfecture_jp":"岡山県","jp_add_1":"赤磐市","jp_add_2":"稲蒔"},"7012213":{"post_code":"7012213","prefecture":"OKAYAMA KEN","city":"AKAIWA SHI","town":"IMAI","perfecture_jp":"岡山県","jp_add_1":"赤磐市","jp_add_2":"今井"},"7012221":{"post_code":"7012221","prefecture":"OKAYAMA KEN","city":"AKAIWA SHI","town":"OKANDA","perfecture_jp":"岡山県","jp_add_1":"赤磐市","jp_add_2":"大苅田"},"7012205":{"post_code":"7012205","prefecture":"OKAYAMA KEN","city":"AKAIWA SHI","town":"OYA","perfecture_jp":"岡山県","jp_add_1":"赤磐市","jp_add_2":"大屋"},"7012446":{"post_code":"7012446","prefecture":"OKAYAMA KEN","city":"AKAIWA SHI","town":"OGAMO","perfecture_jp":"岡山県","jp_add_1":"赤磐市","jp_add_2":"小鎌"},"7012501":{"post_code":"7012501","prefecture":"OKAYAMA KEN","city":"AKAIWA SHI","town":"KAWARAYA","perfecture_jp":"岡山県","jp_add_1":"赤磐市","jp_add_2":"河原屋"},"7012211":{"post_code":"7012211","prefecture":"OKAYAMA KEN","city":"AKAIWA SHI","town":"KITASAKODA","perfecture_jp":"岡山県","jp_add_1":"赤磐市","jp_add_2":"北佐古田"},"7012502":{"post_code":"7012502","prefecture":"OKAYAMA KEN","city":"AKAIWA SHI","town":"KUSO","perfecture_jp":"岡山県","jp_add_1":"赤磐市","jp_add_2":"草生"},"7012512":{"post_code":"7012512","prefecture":"OKAYAMA KEN","city":"AKAIWA SHI","town":"KUREDA","perfecture_jp":"岡山県","jp_add_1":"赤磐市","jp_add_2":"暮田"},"7012522":{"post_code":"7012522","prefecture":"OKAYAMA KEN","city":"AKAIWA SHI","town":"KUROSAWA","perfecture_jp":"岡山県","jp_add_1":"赤磐市","jp_add_2":"黒沢"},"7012521":{"post_code":"7012521","prefecture":"OKAYAMA KEN","city":"AKAIWA SHI","town":"KUROMOTO","perfecture_jp":"岡山県","jp_add_1":"赤磐市","jp_add_2":"黒本"},"7012515":{"post_code":"7012515","prefecture":"OKAYAMA KEN","city":"AKAIWA SHI","town":"KOKI","perfecture_jp":"岡山県","jp_add_1":"赤磐市","jp_add_2":"光木"},"7012201":{"post_code":"7012201","prefecture":"OKAYAMA KEN","city":"AKAIWA SHI","town":"KOBARA","perfecture_jp":"岡山県","jp_add_1":"赤磐市","jp_add_2":"小原"},"7012525":{"post_code":"7012525","prefecture":"OKAYAMA KEN","city":"AKAIWA SHI","town":"KORESATO","perfecture_jp":"岡山県","jp_add_1":"赤磐市","jp_add_2":"是里"},"7012202":{"post_code":"7012202","prefecture":"OKAYAMA KEN","city":"AKAIWA SHI","town":"SAKANABE","perfecture_jp":"岡山県","jp_add_1":"赤磐市","jp_add_2":"坂辺"},"7012432":{"post_code":"7012432","prefecture":"OKAYAMA KEN","city":"AKAIWA SHI","town":"SHIOGI","perfecture_jp":"岡山県","jp_add_1":"赤磐市","jp_add_2":"塩木"},"7012503":{"post_code":"7012503","prefecture":"OKAYAMA KEN","city":"AKAIWA SHI","town":"SUSAI","perfecture_jp":"岡山県","jp_add_1":"赤磐市","jp_add_2":"周匝"},"7012203":{"post_code":"7012203","prefecture":"OKAYAMA KEN","city":"AKAIWA SHI","town":"SOBUN","perfecture_jp":"岡山県","jp_add_1":"赤磐市","jp_add_2":"惣分"},"7012216":{"post_code":"7012216","prefecture":"OKAYAMA KEN","city":"AKAIWA SHI","town":"TAGA","perfecture_jp":"岡山県","jp_add_1":"赤磐市","jp_add_2":"多賀"},"7012524":{"post_code":"7012524","prefecture":"OKAYAMA KEN","city":"AKAIWA SHI","town":"TAKIYAMA","perfecture_jp":"岡山県","jp_add_1":"赤磐市","jp_add_2":"滝山"},"7012431":{"post_code":"7012431","prefecture":"OKAYAMA KEN","city":"AKAIWA SHI","town":"TOTSUNO","perfecture_jp":"岡山県","jp_add_1":"赤磐市","jp_add_2":"戸津野"},"7012437":{"post_code":"7012437","prefecture":"OKAYAMA KEN","city":"AKAIWA SHI","town":"NAKASEIJITSU","perfecture_jp":"岡山県","jp_add_1":"赤磐市","jp_add_2":"中勢実"},"7012444":{"post_code":"7012444","prefecture":"OKAYAMA KEN","city":"AKAIWA SHI","town":"NAKAHATA","perfecture_jp":"岡山県","jp_add_1":"赤磐市","jp_add_2":"中畑"},"7012523":{"post_code":"7012523","prefecture":"OKAYAMA KEN","city":"AKAIWA SHI","town":"NAKAYAMA","perfecture_jp":"岡山県","jp_add_1":"赤磐市","jp_add_2":"中山"},"7012215":{"post_code":"7012215","prefecture":"OKAYAMA KEN","city":"AKAIWA SHI","town":"NISHIKARUBE","perfecture_jp":"岡山県","jp_add_1":"赤磐市","jp_add_2":"西軽部"},"7012224":{"post_code":"7012224","prefecture":"OKAYAMA KEN","city":"AKAIWA SHI","town":"NISHIKUBOTA","perfecture_jp":"岡山県","jp_add_1":"赤磐市","jp_add_2":"西窪田"},"7012441":{"post_code":"7012441","prefecture":"OKAYAMA KEN","city":"AKAIWA SHI","town":"NISHISEIJITSU","perfecture_jp":"岡山県","jp_add_1":"赤磐市","jp_add_2":"西勢実"},"7012435":{"post_code":"7012435","prefecture":"OKAYAMA KEN","city":"AKAIWA SHI","town":"NIBORINAKA","perfecture_jp":"岡山県","jp_add_1":"赤磐市","jp_add_2":"仁堀中"},"7012436":{"post_code":"7012436","prefecture":"OKAYAMA KEN","city":"AKAIWA SHI","town":"NIBORINISHI","perfecture_jp":"岡山県","jp_add_1":"赤磐市","jp_add_2":"仁堀西"},"7012434":{"post_code":"7012434","prefecture":"OKAYAMA KEN","city":"AKAIWA SHI","town":"NIBORIHIGASHI","perfecture_jp":"岡山県","jp_add_1":"赤磐市","jp_add_2":"仁堀東"},"7012214":{"post_code":"7012214","prefecture":"OKAYAMA KEN","city":"AKAIWA SHI","town":"HIGASHIKARUBE","perfecture_jp":"岡山県","jp_add_1":"赤磐市","jp_add_2":"東軽部"},"7012223":{"post_code":"7012223","prefecture":"OKAYAMA KEN","city":"AKAIWA SHI","town":"HIGASHIKUBOTA","perfecture_jp":"岡山県","jp_add_1":"赤磐市","jp_add_2":"東窪田"},"7012433":{"post_code":"7012433","prefecture":"OKAYAMA KEN","city":"AKAIWA SHI","town":"HIRAYAMA","perfecture_jp":"岡山県","jp_add_1":"赤磐市","jp_add_2":"平山"},"7012442":{"post_code":"7012442","prefecture":"OKAYAMA KEN","city":"AKAIWA SHI","town":"HIRODO","perfecture_jp":"岡山県","jp_add_1":"赤磐市","jp_add_2":"広戸"},"7012504":{"post_code":"7012504","prefecture":"OKAYAMA KEN","city":"AKAIWA SHI","town":"FUKUDA","perfecture_jp":"岡山県","jp_add_1":"赤磐市","jp_add_2":"福田"},"7012222":{"post_code":"7012222","prefecture":"OKAYAMA KEN","city":"AKAIWA SHI","town":"MACHIKANDA","perfecture_jp":"岡山県","jp_add_1":"赤磐市","jp_add_2":"町苅田"},"7012212":{"post_code":"7012212","prefecture":"OKAYAMA KEN","city":"AKAIWA SHI","town":"MINAMISAKODA","perfecture_jp":"岡山県","jp_add_1":"赤磐市","jp_add_2":"南佐古田"},"7012513":{"post_code":"7012513","prefecture":"OKAYAMA KEN","city":"AKAIWA SHI","town":"YASHIMADA","perfecture_jp":"岡山県","jp_add_1":"赤磐市","jp_add_2":"八島田"},"7012225":{"post_code":"7012225","prefecture":"OKAYAMA KEN","city":"AKAIWA SHI","town":"YAMAGUCHI","perfecture_jp":"岡山県","jp_add_1":"赤磐市","jp_add_2":"山口"},"7012204":{"post_code":"7012204","prefecture":"OKAYAMA KEN","city":"AKAIWA SHI","town":"YAMATE","perfecture_jp":"岡山県","jp_add_1":"赤磐市","jp_add_2":"山手"},"7012226":{"post_code":"7012226","prefecture":"OKAYAMA KEN","city":"AKAIWA SHI","town":"YUZURI","perfecture_jp":"岡山県","jp_add_1":"赤磐市","jp_add_2":"由津里"},"7012623":{"post_code":"7012623","prefecture":"OKAYAMA KEN","city":"MIMASAKA SHI","town":"AIDAAONO","perfecture_jp":"岡山県","jp_add_1":"美作市","jp_add_2":"英田青野"},"7012606":{"post_code":"7012606","prefecture":"OKAYAMA KEN","city":"MIMASAKA SHI","town":"IGUCHI","perfecture_jp":"岡山県","jp_add_1":"美作市","jp_add_2":"井口"},"7012614":{"post_code":"7012614","prefecture":"OKAYAMA KEN","city":"MIMASAKA SHI","town":"UEYAMA","perfecture_jp":"岡山県","jp_add_1":"美作市","jp_add_2":"上山"},"7012605":{"post_code":"7012605","prefecture":"OKAYAMA KEN","city":"MIMASAKA SHI","town":"OKU","perfecture_jp":"岡山県","jp_add_1":"美作市","jp_add_2":"奥"},"7012601":{"post_code":"7012601","prefecture":"OKAYAMA KEN","city":"MIMASAKA SHI","town":"OTANI","perfecture_jp":"岡山県","jp_add_1":"美作市","jp_add_2":"尾谷"},"7012611":{"post_code":"7012611","prefecture":"OKAYAMA KEN","city":"MIMASAKA SHI","town":"KITA","perfecture_jp":"岡山県","jp_add_1":"美作市","jp_add_2":"北"},"7012621":{"post_code":"7012621","prefecture":"OKAYAMA KEN","city":"MIMASAKA SHI","town":"SHIMOYAMA","perfecture_jp":"岡山県","jp_add_1":"美作市","jp_add_2":"下山"},"7012625":{"post_code":"7012625","prefecture":"OKAYAMA KEN","city":"MIMASAKA SHI","town":"JODEN","perfecture_jp":"岡山県","jp_add_1":"美作市","jp_add_2":"城田"},"7012612":{"post_code":"7012612","prefecture":"OKAYAMA KEN","city":"MIMASAKA SHI","town":"TAKIMIYA","perfecture_jp":"岡山県","jp_add_1":"美作市","jp_add_2":"滝宮"},"7012622":{"post_code":"7012622","prefecture":"OKAYAMA KEN","city":"MIMASAKA SHI","town":"TORIBUCHI","perfecture_jp":"岡山県","jp_add_1":"美作市","jp_add_2":"鳥渕"},"7012615":{"post_code":"7012615","prefecture":"OKAYAMA KEN","city":"MIMASAKA SHI","town":"NAKAGAWA","perfecture_jp":"岡山県","jp_add_1":"美作市","jp_add_2":"中川"},"7012624":{"post_code":"7012624","prefecture":"OKAYAMA KEN","city":"MIMASAKA SHI","town":"NAKAGOCHI","perfecture_jp":"岡山県","jp_add_1":"美作市","jp_add_2":"中河内"},"7012604":{"post_code":"7012604","prefecture":"OKAYAMA KEN","city":"MIMASAKA SHI","town":"FUKUMOTO","perfecture_jp":"岡山県","jp_add_1":"美作市","jp_add_2":"福本"},"7012602":{"post_code":"7012602","prefecture":"OKAYAMA KEN","city":"MIMASAKA SHI","town":"MAGAMI","perfecture_jp":"岡山県","jp_add_1":"美作市","jp_add_2":"真神"},"7012616":{"post_code":"7012616","prefecture":"OKAYAMA KEN","city":"MIMASAKA SHI","town":"MINAMI","perfecture_jp":"岡山県","jp_add_1":"美作市","jp_add_2":"南"},"7012603":{"post_code":"7012603","prefecture":"OKAYAMA KEN","city":"MIMASAKA SHI","town":"MIHOBARA","perfecture_jp":"岡山県","jp_add_1":"美作市","jp_add_2":"三保原"},"7012613":{"post_code":"7012613","prefecture":"OKAYAMA KEN","city":"MIMASAKA SHI","town":"YOKO","perfecture_jp":"岡山県","jp_add_1":"美作市","jp_add_2":"横尾"},"7010300":{"post_code":"7010300","prefecture":"OKAYAMA KEN","city":"TSUKUBO GUN HAYASHIMA CHO","town":"IKANIKEISAIGANAIBAAI","perfecture_jp":"岡山県","jp_add_1":"都窪郡早島町","jp_add_2":""},"7010304":{"post_code":"7010304","prefecture":"OKAYAMA KEN","city":"TSUKUBO GUN HAYASHIMA CHO","town":"HAYASHIMA","perfecture_jp":"岡山県","jp_add_1":"都窪郡早島町","jp_add_2":"早島"},"7010303":{"post_code":"7010303","prefecture":"OKAYAMA KEN","city":"TSUKUBO GUN HAYASHIMA CHO","town":"MAEGATA","perfecture_jp":"岡山県","jp_add_1":"都窪郡早島町","jp_add_2":"前潟"},"7010301":{"post_code":"7010301","prefecture":"OKAYAMA KEN","city":"TSUKUBO GUN HAYASHIMA CHO","town":"YAO","perfecture_jp":"岡山県","jp_add_1":"都窪郡早島町","jp_add_2":"矢尾"},"7010302":{"post_code":"7010302","prefecture":"OKAYAMA KEN","city":"TSUKUBO GUN HAYASHIMA CHO","town":"WAKAMIYA","perfecture_jp":"岡山県","jp_add_1":"都窪郡早島町","jp_add_2":"若宮"}}