{"7028005":{"post_code":"7028005","prefecture":"OKAYAMA KEN","city":"OKAYAMA SHI NAKA KU","town":"EZAKI","perfecture_jp":"岡山県","jp_add_1":"岡山市中区","jp_add_2":"江崎"},"7028004":{"post_code":"7028004","prefecture":"OKAYAMA KEN","city":"OKAYAMA SHI NAKA KU","town":"ENAMI","perfecture_jp":"岡山県","jp_add_1":"岡山市中区","jp_add_2":"江並"},"7028001":{"post_code":"7028001","prefecture":"OKAYAMA KEN","city":"OKAYAMA SHI NAKA KU","town":"OKIMOTO","perfecture_jp":"岡山県","jp_add_1":"岡山市中区","jp_add_2":"沖元"},"7028002":{"post_code":"7028002","prefecture":"OKAYAMA KEN","city":"OKAYAMA SHI NAKA KU","town":"KUWANO","perfecture_jp":"岡山県","jp_add_1":"岡山市中区","jp_add_2":"桑野"},"7028003":{"post_code":"7028003","prefecture":"OKAYAMA KEN","city":"OKAYAMA SHI NAKA KU","town":"SHINCHIKKO","perfecture_jp":"岡山県","jp_add_1":"岡山市中区","jp_add_2":"新築港"},"7028006":{"post_code":"7028006","prefecture":"OKAYAMA KEN","city":"OKAYAMA SHI NAKA KU","town":"FUJISAKI","perfecture_jp":"岡山県","jp_add_1":"岡山市中区","jp_add_2":"藤崎"},"7028013":{"post_code":"7028013","prefecture":"OKAYAMA KEN","city":"OKAYAMA SHI MINAMI KU","town":"AKURA","perfecture_jp":"岡山県","jp_add_1":"岡山市南区","jp_add_2":"飽浦"},"7028057":{"post_code":"7028057","prefecture":"OKAYAMA KEN","city":"OKAYAMA SHI MINAMI KU","town":"AKEBONOCHO","perfecture_jp":"岡山県","jp_add_1":"岡山市南区","jp_add_2":"あけぼの町"},"7028015":{"post_code":"7028015","prefecture":"OKAYAMA KEN","city":"OKAYAMA SHI MINAMI KU","town":"ATSU","perfecture_jp":"岡山県","jp_add_1":"岡山市南区","jp_add_2":"阿津"},"7028025":{"post_code":"7028025","prefecture":"OKAYAMA KEN","city":"OKAYAMA SHI MINAMI KU","town":"URAYASU NISHIMACHI","perfecture_jp":"岡山県","jp_add_1":"岡山市南区","jp_add_2":"浦安西町"},"7028026":{"post_code":"7028026","prefecture":"OKAYAMA KEN","city":"OKAYAMA SHI MINAMI KU","town":"URAYASU HOMMACHI","perfecture_jp":"岡山県","jp_add_1":"岡山市南区","jp_add_2":"浦安本町"},"7028024":{"post_code":"7028024","prefecture":"OKAYAMA KEN","city":"OKAYAMA SHI MINAMI KU","town":"URAYASU MINAMIMACHI","perfecture_jp":"岡山県","jp_add_1":"岡山市南区","jp_add_2":"浦安南町"},"7028045":{"post_code":"7028045","prefecture":"OKAYAMA KEN","city":"OKAYAMA SHI MINAMI KU","town":"KAIGANDORI","perfecture_jp":"岡山県","jp_add_1":"岡山市南区","jp_add_2":"海岸通"},"7028012":{"post_code":"7028012","prefecture":"OKAYAMA KEN","city":"OKAYAMA SHI MINAMI KU","town":"KITAURA","perfecture_jp":"岡山県","jp_add_1":"岡山市南区","jp_add_2":"北浦"},"7028011":{"post_code":"7028011","prefecture":"OKAYAMA KEN","city":"OKAYAMA SHI MINAMI KU","town":"KORI","perfecture_jp":"岡山県","jp_add_1":"岡山市南区","jp_add_2":"郡"},"7028016":{"post_code":"7028016","prefecture":"OKAYAMA KEN","city":"OKAYAMA SHI MINAMI KU","town":"KOGUSHI","perfecture_jp":"岡山県","jp_add_1":"岡山市南区","jp_add_2":"小串"},"7028052":{"post_code":"7028052","prefecture":"OKAYAMA KEN","city":"OKAYAMA SHI MINAMI KU","town":"SHIJO","perfecture_jp":"岡山県","jp_add_1":"岡山市南区","jp_add_2":"市場"},"7028042":{"post_code":"7028042","prefecture":"OKAYAMA KEN","city":"OKAYAMA SHI MINAMI KU","town":"SUZAKI","perfecture_jp":"岡山県","jp_add_1":"岡山市南区","jp_add_2":"洲崎"},"7028046":{"post_code":"7028046","prefecture":"OKAYAMA KEN","city":"OKAYAMA SHI MINAMI KU","town":"TACHIKAWACHO","perfecture_jp":"岡山県","jp_add_1":"岡山市南区","jp_add_2":"立川町"},"7028053":{"post_code":"7028053","prefecture":"OKAYAMA KEN","city":"OKAYAMA SHI MINAMI KU","town":"CHIKKO SAKAEMACHI","perfecture_jp":"岡山県","jp_add_1":"岡山市南区","jp_add_2":"築港栄町"},"7028056":{"post_code":"7028056","prefecture":"OKAYAMA KEN","city":"OKAYAMA SHI MINAMI KU","town":"CHIKKO SHIMMACHI","perfecture_jp":"岡山県","jp_add_1":"岡山市南区","jp_add_2":"築港新町"},"7028054":{"post_code":"7028054","prefecture":"OKAYAMA KEN","city":"OKAYAMA SHI MINAMI KU","town":"CHIKKO HIKARIMACHI","perfecture_jp":"岡山県","jp_add_1":"岡山市南区","jp_add_2":"築港ひかり町"},"7028055":{"post_code":"7028055","prefecture":"OKAYAMA KEN","city":"OKAYAMA SHI MINAMI KU","town":"CHIKKO MIDORIMACHI","perfecture_jp":"岡山県","jp_add_1":"岡山市南区","jp_add_2":"築港緑町"},"7028051":{"post_code":"7028051","prefecture":"OKAYAMA KEN","city":"OKAYAMA SHI MINAMI KU","town":"CHIKKO MOTOMACHI","perfecture_jp":"岡山県","jp_add_1":"岡山市南区","jp_add_2":"築港元町"},"7028037":{"post_code":"7028037","prefecture":"OKAYAMA KEN","city":"OKAYAMA SHI MINAMI KU","town":"CHIDORICHO","perfecture_jp":"岡山県","jp_add_1":"岡山市南区","jp_add_2":"千鳥町"},"7028041":{"post_code":"7028041","prefecture":"OKAYAMA KEN","city":"OKAYAMA SHI MINAMI KU","town":"TOMIHAMACHO","perfecture_jp":"岡山県","jp_add_1":"岡山市南区","jp_add_2":"富浜町"},"7028058":{"post_code":"7028058","prefecture":"OKAYAMA KEN","city":"OKAYAMA SHI MINAMI KU","town":"NAMIKICHO","perfecture_jp":"岡山県","jp_add_1":"岡山市南区","jp_add_2":"並木町"},"7028023":{"post_code":"7028023","prefecture":"OKAYAMA KEN","city":"OKAYAMA SHI MINAMI KU","town":"NANKI","perfecture_jp":"岡山県","jp_add_1":"岡山市南区","jp_add_2":"南輝"},"7028043":{"post_code":"7028043","prefecture":"OKAYAMA KEN","city":"OKAYAMA SHI MINAMI KU","town":"HIRAFUKU","perfecture_jp":"岡山県","jp_add_1":"岡山市南区","jp_add_2":"平福"},"7028044":{"post_code":"7028044","prefecture":"OKAYAMA KEN","city":"OKAYAMA SHI MINAMI KU","town":"FUKUSHIMA","perfecture_jp":"岡山県","jp_add_1":"岡山市南区","jp_add_2":"福島"},"7028021":{"post_code":"7028021","prefecture":"OKAYAMA KEN","city":"OKAYAMA SHI MINAMI KU","town":"FUKUDA","perfecture_jp":"岡山県","jp_add_1":"岡山市南区","jp_add_2":"福田"},"7028032":{"post_code":"7028032","prefecture":"OKAYAMA KEN","city":"OKAYAMA SHI MINAMI KU","town":"FUKUTOMI NAKA","perfecture_jp":"岡山県","jp_add_1":"岡山市南区","jp_add_2":"福富中"},"7028031":{"post_code":"7028031","prefecture":"OKAYAMA KEN","city":"OKAYAMA SHI MINAMI KU","town":"FUKUTOMI NISHI","perfecture_jp":"岡山県","jp_add_1":"岡山市南区","jp_add_2":"福富西"},"7028033":{"post_code":"7028033","prefecture":"OKAYAMA KEN","city":"OKAYAMA SHI MINAMI KU","town":"FUKUTOMI HIGASHI","perfecture_jp":"岡山県","jp_add_1":"岡山市南区","jp_add_2":"福富東"},"7028022":{"post_code":"7028022","prefecture":"OKAYAMA KEN","city":"OKAYAMA SHI MINAMI KU","town":"FUKUNARI","perfecture_jp":"岡山県","jp_add_1":"岡山市南区","jp_add_2":"福成"},"7028035":{"post_code":"7028035","prefecture":"OKAYAMA KEN","city":"OKAYAMA SHI MINAMI KU","town":"FUKUHAMACHO","perfecture_jp":"岡山県","jp_add_1":"岡山市南区","jp_add_2":"福浜町"},"7028034":{"post_code":"7028034","prefecture":"OKAYAMA KEN","city":"OKAYAMA SHI MINAMI KU","town":"FUKUHAMANISHIMACHI","perfecture_jp":"岡山県","jp_add_1":"岡山市南区","jp_add_2":"福浜西町"},"7028048":{"post_code":"7028048","prefecture":"OKAYAMA KEN","city":"OKAYAMA SHI MINAMI KU","town":"FUKUYOSHICHO","perfecture_jp":"岡山県","jp_add_1":"岡山市南区","jp_add_2":"福吉町"},"7028027":{"post_code":"7028027","prefecture":"OKAYAMA KEN","city":"OKAYAMA SHI MINAMI KU","town":"HOSEN","perfecture_jp":"岡山県","jp_add_1":"岡山市南区","jp_add_2":"芳泉"},"7028038":{"post_code":"7028038","prefecture":"OKAYAMA KEN","city":"OKAYAMA SHI MINAMI KU","town":"MATSUHAMACHO","perfecture_jp":"岡山県","jp_add_1":"岡山市南区","jp_add_2":"松浜町"},"7028036":{"post_code":"7028036","prefecture":"OKAYAMA KEN","city":"OKAYAMA SHI MINAMI KU","town":"MIHAMACHO","perfecture_jp":"岡山県","jp_add_1":"岡山市南区","jp_add_2":"三浜町"},"7028014":{"post_code":"7028014","prefecture":"OKAYAMA KEN","city":"OKAYAMA SHI MINAMI KU","town":"MIYAURA","perfecture_jp":"岡山県","jp_add_1":"岡山市南区","jp_add_2":"宮浦"},"7028047":{"post_code":"7028047","prefecture":"OKAYAMA KEN","city":"OKAYAMA SHI MINAMI KU","town":"WAKABACHO","perfecture_jp":"岡山県","jp_add_1":"岡山市南区","jp_add_2":"若葉町"}}