{"7038207":{"post_code":"7038207","prefecture":"OKAYAMA KEN","city":"OKAYAMA SHI NAKA KU","town":"GION","perfecture_jp":"岡山県","jp_add_1":"岡山市北区","jp_add_2":"祇園"},"7038257":{"post_code":"7038257","prefecture":"OKAYAMA KEN","city":"OKAYAMA SHI KITA KU","town":"KORAKUEN","perfecture_jp":"岡山県","jp_add_1":"岡山市北区","jp_add_2":"後楽園"},"7038288":{"post_code":"7038288","prefecture":"OKAYAMA KEN","city":"OKAYAMA SHI NAKA KU","town":"AKASAKA HOMMACHI","perfecture_jp":"岡山県","jp_add_1":"岡山市中区","jp_add_2":"赤坂本町"},"7038283":{"post_code":"7038283","prefecture":"OKAYAMA KEN","city":"OKAYAMA SHI NAKA KU","town":"AKASAKA MINAMISHIMMACHI","perfecture_jp":"岡山県","jp_add_1":"岡山市中区","jp_add_2":"赤坂南新町"},"7038287":{"post_code":"7038287","prefecture":"OKAYAMA KEN","city":"OKAYAMA SHI NAKA KU","town":"AKASAKADAI","perfecture_jp":"岡山県","jp_add_1":"岡山市中区","jp_add_2":"赤坂台"},"7038231":{"post_code":"7038231","prefecture":"OKAYAMA KEN","city":"OKAYAMA SHI NAKA KU","town":"AKODA","perfecture_jp":"岡山県","jp_add_1":"岡山市中区","jp_add_2":"赤田"},"7038284":{"post_code":"7038284","prefecture":"OKAYAMA KEN","city":"OKAYAMA SHI NAKA KU","town":"AMINOHAMA","perfecture_jp":"岡山県","jp_add_1":"岡山市中区","jp_add_2":"網浜"},"7038208":{"post_code":"7038208","prefecture":"OKAYAMA KEN","city":"OKAYAMA SHI NAKA KU","town":"IMAZAIKE","perfecture_jp":"岡山県","jp_add_1":"岡山市中区","jp_add_2":"今在家"},"7038226":{"post_code":"7038226","prefecture":"OKAYAMA KEN","city":"OKAYAMA SHI NAKA KU","town":"IMADANI","perfecture_jp":"岡山県","jp_add_1":"岡山市中区","jp_add_2":"今谷"},"7038272":{"post_code":"7038272","prefecture":"OKAYAMA KEN","city":"OKAYAMA SHI NAKA KU","town":"OKUICHI","perfecture_jp":"岡山県","jp_add_1":"岡山市中区","jp_add_2":"奥市"},"7038228":{"post_code":"7038228","prefecture":"OKAYAMA KEN","city":"OKAYAMA SHI NAKA KU","town":"OTAMI","perfecture_jp":"岡山県","jp_add_1":"岡山市中区","jp_add_2":"乙多見"},"7038277":{"post_code":"7038277","prefecture":"OKAYAMA KEN","city":"OKAYAMA SHI NAKA KU","town":"ONARICHO","perfecture_jp":"岡山県","jp_add_1":"岡山市中区","jp_add_2":"御成町"},"7038204":{"post_code":"7038204","prefecture":"OKAYAMA KEN","city":"OKAYAMA SHI NAKA KU","town":"OMACHI","perfecture_jp":"岡山県","jp_add_1":"岡山市中区","jp_add_2":"雄町"},"7038273":{"post_code":"7038273","prefecture":"OKAYAMA KEN","city":"OKAYAMA SHI NAKA KU","town":"KADOTA BUNKAMACHI","perfecture_jp":"岡山県","jp_add_1":"岡山市中区","jp_add_2":"門田文化町"},"7038274":{"post_code":"7038274","prefecture":"OKAYAMA KEN","city":"OKAYAMA SHI NAKA KU","town":"KADOTA HOMMACHI","perfecture_jp":"岡山県","jp_add_1":"岡山市中区","jp_add_2":"門田本町"},"7038275":{"post_code":"7038275","prefecture":"OKAYAMA KEN","city":"OKAYAMA SHI NAKA KU","town":"KADOTAYASHIKI","perfecture_jp":"岡山県","jp_add_1":"岡山市中区","jp_add_2":"門田屋敷"},"7038276":{"post_code":"7038276","prefecture":"OKAYAMA KEN","city":"OKAYAMA SHI NAKA KU","town":"KADOTAYASHIKIHOMMACHI","perfecture_jp":"岡山県","jp_add_1":"岡山市中区","jp_add_2":"門田屋敷本町"},"7038227":{"post_code":"7038227","prefecture":"OKAYAMA KEN","city":"OKAYAMA SHI NAKA KU","town":"KANEMOTO","perfecture_jp":"岡山県","jp_add_1":"岡山市中区","jp_add_2":"兼基"},"7038286":{"post_code":"7038286","prefecture":"OKAYAMA KEN","city":"OKAYAMA SHI NAKA KU","town":"KYOKUTOCHO","perfecture_jp":"岡山県","jp_add_1":"岡山市中区","jp_add_2":"旭東町"},"7038236":{"post_code":"7038236","prefecture":"OKAYAMA KEN","city":"OKAYAMA SHI NAKA KU","town":"KUNITOMI","perfecture_jp":"岡山県","jp_add_1":"岡山市中区","jp_add_2":"国富"},"7038265":{"post_code":"7038265","prefecture":"OKAYAMA KEN","city":"OKAYAMA SHI NAKA KU","town":"KURATA","perfecture_jp":"岡山県","jp_add_1":"岡山市中区","jp_add_2":"倉田"},"7038264":{"post_code":"7038264","prefecture":"OKAYAMA KEN","city":"OKAYAMA SHI NAKA KU","town":"KURATOMI","perfecture_jp":"岡山県","jp_add_1":"岡山市中区","jp_add_2":"倉富"},"7038263":{"post_code":"7038263","prefecture":"OKAYAMA KEN","city":"OKAYAMA SHI NAKA KU","town":"KURAMASU","perfecture_jp":"岡山県","jp_add_1":"岡山市中区","jp_add_2":"倉益"},"7038225":{"post_code":"7038225","prefecture":"OKAYAMA KEN","city":"OKAYAMA SHI NAKA KU","town":"KOSHITA","perfecture_jp":"岡山県","jp_add_1":"岡山市中区","jp_add_2":"神下"},"7038203":{"post_code":"7038203","prefecture":"OKAYAMA KEN","city":"OKAYAMA SHI NAKA KU","town":"KOKUFUICHIBA","perfecture_jp":"岡山県","jp_add_1":"岡山市中区","jp_add_2":"国府市場"},"7038293":{"post_code":"7038293","prefecture":"OKAYAMA KEN","city":"OKAYAMA SHI NAKA KU","town":"KOBASHICHO","perfecture_jp":"岡山県","jp_add_1":"岡山市中区","jp_add_2":"小橋町"},"7038248":{"post_code":"7038248","prefecture":"OKAYAMA KEN","city":"OKAYAMA SHI NAKA KU","town":"SAI","perfecture_jp":"岡山県","jp_add_1":"岡山市中区","jp_add_2":"さい"},"7038247":{"post_code":"7038247","prefecture":"OKAYAMA KEN","city":"OKAYAMA SHI NAKA KU","town":"SAIHIGASHIMACHI","perfecture_jp":"岡山県","jp_add_1":"岡山市中区","jp_add_2":"さい東町"},"7038296":{"post_code":"7038296","prefecture":"OKAYAMA KEN","city":"OKAYAMA SHI NAKA KU","town":"SAKURAJUZA","perfecture_jp":"岡山県","jp_add_1":"岡山市中区","jp_add_2":"さくら住座"},"7038285":{"post_code":"7038285","prefecture":"OKAYAMA KEN","city":"OKAYAMA SHI NAKA KU","town":"SAKURABASHI","perfecture_jp":"岡山県","jp_add_1":"岡山市中区","jp_add_2":"桜橋"},"7038234":{"post_code":"7038234","prefecture":"OKAYAMA KEN","city":"OKAYAMA SHI NAKA KU","town":"SAWADA","perfecture_jp":"岡山県","jp_add_1":"岡山市中区","jp_add_2":"沢田"},"7038201":{"post_code":"7038201","prefecture":"OKAYAMA KEN","city":"OKAYAMA SHI NAKA KU","town":"SHINOGOZE","perfecture_jp":"岡山県","jp_add_1":"岡山市中区","jp_add_2":"四御神"},"7038243":{"post_code":"7038243","prefecture":"OKAYAMA KEN","city":"OKAYAMA SHI NAKA KU","town":"SHIMIZU","perfecture_jp":"岡山県","jp_add_1":"岡山市中区","jp_add_2":"清水"},"7038222":{"post_code":"7038222","prefecture":"OKAYAMA KEN","city":"OKAYAMA SHI NAKA KU","town":"SHIMO","perfecture_jp":"岡山県","jp_add_1":"岡山市中区","jp_add_2":"下"},"7038206":{"post_code":"7038206","prefecture":"OKAYAMA KEN","city":"OKAYAMA SHI NAKA KU","town":"SHODA","perfecture_jp":"岡山県","jp_add_1":"岡山市中区","jp_add_2":"賞田"},"7038294":{"post_code":"7038294","prefecture":"OKAYAMA KEN","city":"OKAYAMA SHI NAKA KU","town":"SHINKYOBASHI","perfecture_jp":"岡山県","jp_add_1":"岡山市中区","jp_add_2":"新京橋"},"7038238":{"post_code":"7038238","prefecture":"OKAYAMA KEN","city":"OKAYAMA SHI NAKA KU","town":"SUMIYOSHICHO","perfecture_jp":"岡山県","jp_add_1":"岡山市中区","jp_add_2":"住吉町"},"7038232":{"post_code":"7038232","prefecture":"OKAYAMA KEN","city":"OKAYAMA SHI NAKA KU","town":"SEKI","perfecture_jp":"岡山県","jp_add_1":"岡山市中区","jp_add_2":"関"},"7038242":{"post_code":"7038242","prefecture":"OKAYAMA KEN","city":"OKAYAMA SHI NAKA KU","town":"TAKASHIMA","perfecture_jp":"岡山県","jp_add_1":"岡山市中区","jp_add_2":"高島"},"7038241":{"post_code":"7038241","prefecture":"OKAYAMA KEN","city":"OKAYAMA SHI NAKA KU","town":"TAKASHIMASHINYASHIKI","perfecture_jp":"岡山県","jp_add_1":"岡山市中区","jp_add_2":"高島新屋敷"},"7038233":{"post_code":"7038233","prefecture":"OKAYAMA KEN","city":"OKAYAMA SHI NAKA KU","town":"TAKAYA","perfecture_jp":"岡山県","jp_add_1":"岡山市中区","jp_add_2":"高屋"},"7038251":{"post_code":"7038251","prefecture":"OKAYAMA KEN","city":"OKAYAMA SHI NAKA KU","town":"TAKEDA","perfecture_jp":"岡山県","jp_add_1":"岡山市中区","jp_add_2":"竹田"},"7038292":{"post_code":"7038292","prefecture":"OKAYAMA KEN","city":"OKAYAMA SHI NAKA KU","town":"CHUNAGONCHO","perfecture_jp":"岡山県","jp_add_1":"岡山市中区","jp_add_2":"中納言町"},"7038217":{"post_code":"7038217","prefecture":"OKAYAMA KEN","city":"OKAYAMA SHI NAKA KU","town":"TSUCHIDA","perfecture_jp":"岡山県","jp_add_1":"岡山市中区","jp_add_2":"土田"},"7038291":{"post_code":"7038291","prefecture":"OKAYAMA KEN","city":"OKAYAMA SHI NAKA KU","town":"TOKUYOSHICHO","perfecture_jp":"岡山県","jp_add_1":"岡山市中区","jp_add_2":"徳吉町"},"7038205":{"post_code":"7038205","prefecture":"OKAYAMA KEN","city":"OKAYAMA SHI NAKA KU","town":"NAKAI","perfecture_jp":"岡山県","jp_add_1":"岡山市中区","jp_add_2":"中井"},"7038221":{"post_code":"7038221","prefecture":"OKAYAMA KEN","city":"OKAYAMA SHI NAKA KU","town":"NAGAOKA","perfecture_jp":"岡山県","jp_add_1":"岡山市中区","jp_add_2":"長岡"},"7038252":{"post_code":"7038252","prefecture":"OKAYAMA KEN","city":"OKAYAMA SHI NAKA KU","town":"NAKASHIMA","perfecture_jp":"岡山県","jp_add_1":"岡山市中区","jp_add_2":"中島"},"7038223":{"post_code":"7038223","prefecture":"OKAYAMA KEN","city":"OKAYAMA SHI NAKA KU","town":"NAGATOSHI","perfecture_jp":"岡山県","jp_add_1":"岡山市中区","jp_add_2":"長利"},"7038258":{"post_code":"7038258","prefecture":"OKAYAMA KEN","city":"OKAYAMA SHI NAKA KU","town":"NISHIGAWARA","perfecture_jp":"岡山県","jp_add_1":"岡山市中区","jp_add_2":"西川原"},"7038298":{"post_code":"7038298","prefecture":"OKAYAMA KEN","city":"OKAYAMA SHI NAKA KU","town":"NISHINAKAJIMACHO","perfecture_jp":"岡山県","jp_add_1":"岡山市中区","jp_add_2":"西中島町"},"7038256":{"post_code":"7038256","prefecture":"OKAYAMA KEN","city":"OKAYAMA SHI NAKA KU","town":"HAMA","perfecture_jp":"岡山県","jp_add_1":"岡山市中区","jp_add_2":"浜"},"7038235":{"post_code":"7038235","prefecture":"OKAYAMA KEN","city":"OKAYAMA SHI NAKA KU","town":"HARAOSHIMA","perfecture_jp":"岡山県","jp_add_1":"岡山市中区","jp_add_2":"原尾島"},"7038255":{"post_code":"7038255","prefecture":"OKAYAMA KEN","city":"OKAYAMA SHI NAKA KU","town":"HIGASHIGAWARA","perfecture_jp":"岡山県","jp_add_1":"岡山市中区","jp_add_2":"東川原"},"7038297":{"post_code":"7038297","prefecture":"OKAYAMA KEN","city":"OKAYAMA SHI NAKA KU","town":"HIGASHINAKAJIMACHO","perfecture_jp":"岡山県","jp_add_1":"岡山市中区","jp_add_2":"東中島町"},"7038281":{"post_code":"7038281","prefecture":"OKAYAMA KEN","city":"OKAYAMA SHI NAKA KU","town":"HIGASHIYAMA","perfecture_jp":"岡山県","jp_add_1":"岡山市中区","jp_add_2":"東山"},"7038282":{"post_code":"7038282","prefecture":"OKAYAMA KEN","city":"OKAYAMA SHI NAKA KU","town":"HIRAI","perfecture_jp":"岡山県","jp_add_1":"岡山市中区","jp_add_2":"平井"},"7038262":{"post_code":"7038262","prefecture":"OKAYAMA KEN","city":"OKAYAMA SHI NAKA KU","town":"FUKUDOMARI","perfecture_jp":"岡山県","jp_add_1":"岡山市中区","jp_add_2":"福泊"},"7038245":{"post_code":"7038245","prefecture":"OKAYAMA KEN","city":"OKAYAMA SHI NAKA KU","town":"FUJIWARA","perfecture_jp":"岡山県","jp_add_1":"岡山市中区","jp_add_2":"藤原"},"7038244":{"post_code":"7038244","prefecture":"OKAYAMA KEN","city":"OKAYAMA SHI NAKA KU","town":"FUJIWARA NISHIMACHI","perfecture_jp":"岡山県","jp_add_1":"岡山市中区","jp_add_2":"藤原西町"},"7038246":{"post_code":"7038246","prefecture":"OKAYAMA KEN","city":"OKAYAMA SHI NAKA KU","town":"FUJIWARA HIKARIMACHI","perfecture_jp":"岡山県","jp_add_1":"岡山市中区","jp_add_2":"藤原光町"},"7038278":{"post_code":"7038278","prefecture":"OKAYAMA KEN","city":"OKAYAMA SHI NAKA KU","town":"FURUGYOCHO","perfecture_jp":"岡山県","jp_add_1":"岡山市中区","jp_add_2":"古京町"},"7038271":{"post_code":"7038271","prefecture":"OKAYAMA KEN","city":"OKAYAMA SHI NAKA KU","town":"MARUYAMA","perfecture_jp":"岡山県","jp_add_1":"岡山市中区","jp_add_2":"円山"},"7038266":{"post_code":"7038266","prefecture":"OKAYAMA KEN","city":"OKAYAMA SHI NAKA KU","town":"MINATO","perfecture_jp":"岡山県","jp_add_1":"岡山市中区","jp_add_2":"湊"},"7038295":{"post_code":"7038295","prefecture":"OKAYAMA KEN","city":"OKAYAMA SHI NAKA KU","town":"MIYUKICHO","perfecture_jp":"岡山県","jp_add_1":"岡山市中区","jp_add_2":"御幸町"},"7038261":{"post_code":"7038261","prefecture":"OKAYAMA KEN","city":"OKAYAMA SHI NAKA KU","town":"MIYOSHI","perfecture_jp":"岡山県","jp_add_1":"岡山市中区","jp_add_2":"海吉"},"7038237":{"post_code":"7038237","prefecture":"OKAYAMA KEN","city":"OKAYAMA SHI NAKA KU","town":"MORISHITACHO","perfecture_jp":"岡山県","jp_add_1":"岡山市中区","jp_add_2":"森下町"},"7038254":{"post_code":"7038254","prefecture":"OKAYAMA KEN","city":"OKAYAMA SHI NAKA KU","town":"YAHATA","perfecture_jp":"岡山県","jp_add_1":"岡山市中区","jp_add_2":"八幡"},"7038253":{"post_code":"7038253","prefecture":"OKAYAMA KEN","city":"OKAYAMA SHI NAKA KU","town":"YAHATAHIGASHIMACHI","perfecture_jp":"岡山県","jp_add_1":"岡山市中区","jp_add_2":"八幡東町"},"7038267":{"post_code":"7038267","prefecture":"OKAYAMA KEN","city":"OKAYAMA SHI NAKA KU","town":"YAMASAKI","perfecture_jp":"岡山県","jp_add_1":"岡山市中区","jp_add_2":"山崎"},"7038202":{"post_code":"7038202","prefecture":"OKAYAMA KEN","city":"OKAYAMA SHI NAKA KU","town":"YUBA","perfecture_jp":"岡山県","jp_add_1":"岡山市中区","jp_add_2":"湯迫"},"7038224":{"post_code":"7038224","prefecture":"OKAYAMA KEN","city":"OKAYAMA SHI NAKA KU","town":"YONEDA","perfecture_jp":"岡山県","jp_add_1":"岡山市中区","jp_add_2":"米田"},"7038214":{"post_code":"7038214","prefecture":"OKAYAMA KEN","city":"OKAYAMA SHI HIGASHI KU","town":"KUROGANE","perfecture_jp":"岡山県","jp_add_1":"岡山市東区","jp_add_2":"鉄"},"7038212":{"post_code":"7038212","prefecture":"OKAYAMA KEN","city":"OKAYAMA SHI HIGASHI KU","town":"KOZUSHUKU","perfecture_jp":"岡山県","jp_add_1":"岡山市東区","jp_add_2":"古都宿"},"7038215":{"post_code":"7038215","prefecture":"OKAYAMA KEN","city":"OKAYAMA SHI HIGASHI KU","town":"KOZUMINAMIGATA","perfecture_jp":"岡山県","jp_add_1":"岡山市東区","jp_add_2":"古都南方"},"7038216":{"post_code":"7038216","prefecture":"OKAYAMA KEN","city":"OKAYAMA SHI HIGASHI KU","town":"SHIJIKAI","perfecture_jp":"岡山県","jp_add_1":"岡山市東区","jp_add_2":"宍甘"},"7038213":{"post_code":"7038213","prefecture":"OKAYAMA KEN","city":"OKAYAMA SHI HIGASHI KU","town":"FUJII","perfecture_jp":"岡山県","jp_add_1":"岡山市東区","jp_add_2":"藤井"},"7038211":{"post_code":"7038211","prefecture":"OKAYAMA KEN","city":"OKAYAMA SHI HIGASHI KU","town":"YAZU","perfecture_jp":"岡山県","jp_add_1":"岡山市東区","jp_add_2":"矢津"}}