{"7048181":{"post_code":"7048181","prefecture":"OKAYAMA KEN","city":"OKAYAMA SHI HIGASHI KU","town":"ASAGOE","perfecture_jp":"岡山県","jp_add_1":"岡山市東区","jp_add_2":"浅越"},"7048153":{"post_code":"7048153","prefecture":"OKAYAMA KEN","city":"OKAYAMA SHI HIGASHI KU","town":"INUJIMA","perfecture_jp":"岡山県","jp_add_1":"岡山市東区","jp_add_2":"犬島"},"7048172":{"post_code":"7048172","prefecture":"OKAYAMA KEN","city":"OKAYAMA SHI HIGASHI KU","town":"ODARACHO","perfecture_jp":"岡山県","jp_add_1":"岡山市東区","jp_add_2":"大多羅町"},"7048132":{"post_code":"7048132","prefecture":"OKAYAMA KEN","city":"OKAYAMA SHI HIGASHI KU","town":"OKUNOGO","perfecture_jp":"岡山県","jp_add_1":"岡山市東区","jp_add_2":"邑久郷"},"7048137":{"post_code":"7048137","prefecture":"OKAYAMA KEN","city":"OKAYAMA SHI HIGASHI KU","town":"OTOGO","perfecture_jp":"岡山県","jp_add_1":"岡山市東区","jp_add_2":"乙子"},"7048173":{"post_code":"7048173","prefecture":"OKAYAMA KEN","city":"OKAYAMA SHI HIGASHI KU","town":"KACHI","perfecture_jp":"岡山県","jp_add_1":"岡山市東区","jp_add_2":"可知"},"7048193":{"post_code":"7048193","prefecture":"OKAYAMA KEN","city":"OKAYAMA SHI HIGASHI KU","town":"KANAOKA NISHIMACHI","perfecture_jp":"岡山県","jp_add_1":"岡山市東区","jp_add_2":"金岡西町"},"7048194":{"post_code":"7048194","prefecture":"OKAYAMA KEN","city":"OKAYAMA SHI HIGASHI KU","town":"KANAOKA HIGASHIMACHI","perfecture_jp":"岡山県","jp_add_1":"岡山市東区","jp_add_2":"金岡東町"},"7048196":{"post_code":"7048196","prefecture":"OKAYAMA KEN","city":"OKAYAMA SHI HIGASHI KU","town":"KANADA","perfecture_jp":"岡山県","jp_add_1":"岡山市東区","jp_add_2":"金田"},"7048142":{"post_code":"7048142","prefecture":"OKAYAMA KEN","city":"OKAYAMA SHI HIGASHI KU","town":"KAMIACHI","perfecture_jp":"岡山県","jp_add_1":"岡山市東区","jp_add_2":"上阿知"},"7048138":{"post_code":"7048138","prefecture":"OKAYAMA KEN","city":"OKAYAMA SHI HIGASHI KU","town":"KANZAKICHO","perfecture_jp":"岡山県","jp_add_1":"岡山市東区","jp_add_2":"神崎町"},"7048134":{"post_code":"7048134","prefecture":"OKAYAMA KEN","city":"OKAYAMA SHI HIGASHI KU","town":"KITAKODA","perfecture_jp":"岡山県","jp_add_1":"岡山市東区","jp_add_2":"北幸田"},"7048166":{"post_code":"7048166","prefecture":"OKAYAMA KEN","city":"OKAYAMA SHI HIGASHI KU","town":"KIMITSU","perfecture_jp":"岡山県","jp_add_1":"岡山市東区","jp_add_2":"君津"},"7048154":{"post_code":"7048154","prefecture":"OKAYAMA KEN","city":"OKAYAMA SHI HIGASHI KU","town":"KUGUI","perfecture_jp":"岡山県","jp_add_1":"岡山市東区","jp_add_2":"久々井"},"7048161":{"post_code":"7048161","prefecture":"OKAYAMA KEN","city":"OKAYAMA SHI HIGASHI KU","town":"KUBAN","perfecture_jp":"岡山県","jp_add_1":"岡山市東区","jp_add_2":"九蟠"},"7048102":{"post_code":"7048102","prefecture":"OKAYAMA KEN","city":"OKAYAMA SHI HIGASHI KU","town":"KUBO","perfecture_jp":"岡山県","jp_add_1":"岡山市東区","jp_add_2":"久保"},"7048149":{"post_code":"7048149","prefecture":"OKAYAMA KEN","city":"OKAYAMA SHI HIGASHI KU","town":"KOCHIZAKICHO","perfecture_jp":"岡山県","jp_add_1":"岡山市東区","jp_add_2":"幸地崎町"},"7048164":{"post_code":"7048164","prefecture":"OKAYAMA KEN","city":"OKAYAMA SHI HIGASHI KU","town":"KOTSU","perfecture_jp":"岡山県","jp_add_1":"岡山市東区","jp_add_2":"光津"},"7048103":{"post_code":"7048103","prefecture":"OKAYAMA KEN","city":"OKAYAMA SHI HIGASHI KU","town":"KOMOTOCHO","perfecture_jp":"岡山県","jp_add_1":"岡山市東区","jp_add_2":"河本町"},"7048113":{"post_code":"7048113","prefecture":"OKAYAMA KEN","city":"OKAYAMA SHI HIGASHI KU","town":"SAIDAIJI","perfecture_jp":"岡山県","jp_add_1":"岡山市東区","jp_add_2":"西大寺"},"7048121":{"post_code":"7048121","prefecture":"OKAYAMA KEN","city":"OKAYAMA SHI HIGASHI KU","town":"SAIDAIJI IKOSHI","perfecture_jp":"岡山県","jp_add_1":"岡山市東区","jp_add_2":"西大寺射越"},"7048144":{"post_code":"7048144","prefecture":"OKAYAMA KEN","city":"OKAYAMA SHI HIGASHI KU","town":"SAIDAIJI ICHINOMIYA","perfecture_jp":"岡山県","jp_add_1":"岡山市東区","jp_add_2":"西大寺一宮"},"7048195":{"post_code":"7048195","prefecture":"OKAYAMA KEN","city":"OKAYAMA SHI HIGASHI KU","town":"SAIDAIJI KANAOKA","perfecture_jp":"岡山県","jp_add_1":"岡山市東区","jp_add_2":"西大寺金岡"},"7048112":{"post_code":"7048112","prefecture":"OKAYAMA KEN","city":"OKAYAMA SHI HIGASHI KU","town":"SAIDAIJI KAMI","perfecture_jp":"岡山県","jp_add_1":"岡山市東区","jp_add_2":"西大寺上"},"7048125":{"post_code":"7048125","prefecture":"OKAYAMA KEN","city":"OKAYAMA SHI HIGASHI KU","town":"SAIDAIJI KAWAGUCHI","perfecture_jp":"岡山県","jp_add_1":"岡山市東区","jp_add_2":"西大寺川口"},"7048111":{"post_code":"7048111","prefecture":"OKAYAMA KEN","city":"OKAYAMA SHI HIGASHI KU","town":"SAIDAIJI KITA","perfecture_jp":"岡山県","jp_add_1":"岡山市東区","jp_add_2":"西大寺北"},"7048124":{"post_code":"7048124","prefecture":"OKAYAMA KEN","city":"OKAYAMA SHI HIGASHI KU","town":"SAIDAIJI GOMYO","perfecture_jp":"岡山県","jp_add_1":"岡山市東区","jp_add_2":"西大寺五明"},"7048127":{"post_code":"7048127","prefecture":"OKAYAMA KEN","city":"OKAYAMA SHI HIGASHI KU","town":"SAIDAIJI SHIN","perfecture_jp":"岡山県","jp_add_1":"岡山市東区","jp_add_2":"西大寺新"},"7048122":{"post_code":"7048122","prefecture":"OKAYAMA KEN","city":"OKAYAMA SHI HIGASHI KU","town":"SAIDAIJI SHINCHI","perfecture_jp":"岡山県","jp_add_1":"岡山市東区","jp_add_2":"西大寺新地"},"7048116":{"post_code":"7048116","prefecture":"OKAYAMA KEN","city":"OKAYAMA SHI HIGASHI KU","town":"SAIDAIJI NAKA","perfecture_jp":"岡山県","jp_add_1":"岡山市東区","jp_add_2":"西大寺中"},"7048191":{"post_code":"7048191","prefecture":"OKAYAMA KEN","city":"OKAYAMA SHI HIGASHI KU","town":"SAIDAIJI NAKANO","perfecture_jp":"岡山県","jp_add_1":"岡山市東区","jp_add_2":"西大寺中野"},"7048192":{"post_code":"7048192","prefecture":"OKAYAMA KEN","city":"OKAYAMA SHI HIGASHI KU","town":"SAIDAIJI NAKANOHOMMACHI","perfecture_jp":"岡山県","jp_add_1":"岡山市東区","jp_add_2":"西大寺中野本町"},"7048126":{"post_code":"7048126","prefecture":"OKAYAMA KEN","city":"OKAYAMA SHI HIGASHI KU","town":"SAIDAIJI HAMA","perfecture_jp":"岡山県","jp_add_1":"岡山市東区","jp_add_2":"西大寺浜"},"7048114":{"post_code":"7048114","prefecture":"OKAYAMA KEN","city":"OKAYAMA SHI HIGASHI KU","town":"SAIDAIJI HIGASHI","perfecture_jp":"岡山県","jp_add_1":"岡山市東区","jp_add_2":"西大寺東"},"7048183":{"post_code":"7048183","prefecture":"OKAYAMA KEN","city":"OKAYAMA SHI HIGASHI KU","town":"SAIDAIJI MATSUZAKI","perfecture_jp":"岡山県","jp_add_1":"岡山市東区","jp_add_2":"西大寺松崎"},"7048117":{"post_code":"7048117","prefecture":"OKAYAMA KEN","city":"OKAYAMA SHI HIGASHI KU","town":"SAIDAIJI MINAMI","perfecture_jp":"岡山県","jp_add_1":"岡山市東区","jp_add_2":"西大寺南"},"7048123":{"post_code":"7048123","prefecture":"OKAYAMA KEN","city":"OKAYAMA SHI HIGASHI KU","town":"SAIDAIJI MONZEN","perfecture_jp":"岡山県","jp_add_1":"岡山市東区","jp_add_2":"西大寺門前"},"7048101":{"post_code":"7048101","prefecture":"OKAYAMA KEN","city":"OKAYAMA SHI HIGASHI KU","town":"SAIRYUJI","perfecture_jp":"岡山県","jp_add_1":"岡山市東区","jp_add_2":"西隆寺"},"7048141":{"post_code":"7048141","prefecture":"OKAYAMA KEN","city":"OKAYAMA SHI HIGASHI KU","town":"SHIMOACHI","perfecture_jp":"岡山県","jp_add_1":"岡山市東区","jp_add_2":"下阿知"},"7048133":{"post_code":"7048133","prefecture":"OKAYAMA KEN","city":"OKAYAMA SHI HIGASHI KU","town":"SHUKUMO","perfecture_jp":"岡山県","jp_add_1":"岡山市東区","jp_add_2":"宿毛"},"7048148":{"post_code":"7048148","prefecture":"OKAYAMA KEN","city":"OKAYAMA SHI HIGASHI KU","town":"SUIMONCHO","perfecture_jp":"岡山県","jp_add_1":"岡山市東区","jp_add_2":"水門町"},"7048143":{"post_code":"7048143","prefecture":"OKAYAMA KEN","city":"OKAYAMA SHI HIGASHI KU","town":"SENJU","perfecture_jp":"岡山県","jp_add_1":"岡山市東区","jp_add_2":"千手"},"7048104":{"post_code":"7048104","prefecture":"OKAYAMA KEN","city":"OKAYAMA SHI HIGASHI KU","town":"TOMISAKI","perfecture_jp":"岡山県","jp_add_1":"岡山市東区","jp_add_2":"富崎"},"7048162":{"post_code":"7048162","prefecture":"OKAYAMA KEN","city":"OKAYAMA SHI HIGASHI KU","town":"TOYOTA","perfecture_jp":"岡山県","jp_add_1":"岡山市東区","jp_add_2":"豊田"},"7048176":{"post_code":"7048176","prefecture":"OKAYAMA KEN","city":"OKAYAMA SHI HIGASHI KU","town":"NAKAGAWACHO","perfecture_jp":"岡山県","jp_add_1":"岡山市東区","jp_add_2":"中川町"},"7048131":{"post_code":"7048131","prefecture":"OKAYAMA KEN","city":"OKAYAMA SHI HIGASHI KU","town":"NAGANUMA","perfecture_jp":"岡山県","jp_add_1":"岡山市東区","jp_add_2":"長沼"},"7048155":{"post_code":"7048155","prefecture":"OKAYAMA KEN","city":"OKAYAMA SHI HIGASHI KU","town":"NISHIKATAOKA","perfecture_jp":"岡山県","jp_add_1":"岡山市東区","jp_add_2":"西片岡"},"7048136":{"post_code":"7048136","prefecture":"OKAYAMA KEN","city":"OKAYAMA SHI HIGASHI KU","town":"NISHIKOZAI","perfecture_jp":"岡山県","jp_add_1":"岡山市東区","jp_add_2":"西幸西"},"7048106":{"post_code":"7048106","prefecture":"OKAYAMA KEN","city":"OKAYAMA SHI HIGASHI KU","town":"NISHISHO","perfecture_jp":"岡山県","jp_add_1":"岡山市東区","jp_add_2":"西庄"},"7048151":{"post_code":"7048151","prefecture":"OKAYAMA KEN","city":"OKAYAMA SHI HIGASHI KU","town":"HIGASHIKATAOKA","perfecture_jp":"岡山県","jp_add_1":"岡山市東区","jp_add_2":"東片岡"},"7048135":{"post_code":"7048135","prefecture":"OKAYAMA KEN","city":"OKAYAMA SHI HIGASHI KU","town":"HIGASHIKOZAI","perfecture_jp":"岡山県","jp_add_1":"岡山市東区","jp_add_2":"東幸西"},"7048145":{"post_code":"7048145","prefecture":"OKAYAMA KEN","city":"OKAYAMA SHI HIGASHI KU","town":"HIGASHIKOZAKI","perfecture_jp":"岡山県","jp_add_1":"岡山市東区","jp_add_2":"東幸崎"},"7048182":{"post_code":"7048182","prefecture":"OKAYAMA KEN","city":"OKAYAMA SHI HIGASHI KU","town":"HIROTANI","perfecture_jp":"岡山県","jp_add_1":"岡山市東区","jp_add_2":"広谷"},"7048107":{"post_code":"7048107","prefecture":"OKAYAMA KEN","city":"OKAYAMA SHI HIGASHI KU","town":"FUKUJI","perfecture_jp":"岡山県","jp_add_1":"岡山市東区","jp_add_2":"福治"},"7048184":{"post_code":"7048184","prefecture":"OKAYAMA KEN","city":"OKAYAMA SHI HIGASHI KU","town":"FUJIMICHO","perfecture_jp":"岡山県","jp_add_1":"岡山市東区","jp_add_2":"富士見町"},"7048152":{"post_code":"7048152","prefecture":"OKAYAMA KEN","city":"OKAYAMA SHI HIGASHI KU","town":"HODEN","perfecture_jp":"岡山県","jp_add_1":"岡山市東区","jp_add_2":"宝伝"},"7048147":{"post_code":"7048147","prefecture":"OKAYAMA KEN","city":"OKAYAMA SHI HIGASHI KU","town":"MASAKI","perfecture_jp":"岡山県","jp_add_1":"岡山市東区","jp_add_2":"正儀"},"7048165":{"post_code":"7048165","prefecture":"OKAYAMA KEN","city":"OKAYAMA SHI HIGASHI KU","town":"MASATSU","perfecture_jp":"岡山県","jp_add_1":"岡山市東区","jp_add_2":"政津"},"7048163":{"post_code":"7048163","prefecture":"OKAYAMA KEN","city":"OKAYAMA SHI HIGASHI KU","town":"MASUDA","perfecture_jp":"岡山県","jp_add_1":"岡山市東区","jp_add_2":"升田"},"7048175":{"post_code":"7048175","prefecture":"OKAYAMA KEN","city":"OKAYAMA SHI HIGASHI KU","town":"MASUNOCHO","perfecture_jp":"岡山県","jp_add_1":"岡山市東区","jp_add_2":"益野町"},"7048174":{"post_code":"7048174","prefecture":"OKAYAMA KEN","city":"OKAYAMA SHI HIGASHI KU","town":"MATSUSHINCHO","perfecture_jp":"岡山県","jp_add_1":"岡山市東区","jp_add_2":"松新町"},"7048146":{"post_code":"7048146","prefecture":"OKAYAMA KEN","city":"OKAYAMA SHI HIGASHI KU","town":"MINAMISUIMONCHO","perfecture_jp":"岡山県","jp_add_1":"岡山市東区","jp_add_2":"南水門町"},"7048115":{"post_code":"7048115","prefecture":"OKAYAMA KEN","city":"OKAYAMA SHI HIGASHI KU","town":"MUKOSU","perfecture_jp":"岡山県","jp_add_1":"岡山市東区","jp_add_2":"向州"},"7048171":{"post_code":"7048171","prefecture":"OKAYAMA KEN","city":"OKAYAMA SHI HIGASHI KU","town":"MEGUROCHO","perfecture_jp":"岡山県","jp_add_1":"岡山市東区","jp_add_2":"目黒町"},"7048105":{"post_code":"7048105","prefecture":"OKAYAMA KEN","city":"OKAYAMA SHI HIGASHI KU","town":"YOSHIWARA","perfecture_jp":"岡山県","jp_add_1":"岡山市東区","jp_add_2":"吉原"}}