{"7070000":{"post_code":"7070000","prefecture":"OKAYAMA KEN","city":"MIMASAKA SHI","town":"IKANIKEISAIGANAIBAAI","perfecture_jp":"岡山県","jp_add_1":"美作市","jp_add_2":""},"7070065":{"post_code":"7070065","prefecture":"OKAYAMA KEN","city":"MIMASAKA SHI","town":"AOKI","perfecture_jp":"岡山県","jp_add_1":"美作市","jp_add_2":"青木"},"7070432":{"post_code":"7070432","prefecture":"OKAYAMA KEN","city":"MIMASAKA SHI","town":"AKADA","perfecture_jp":"岡山県","jp_add_1":"美作市","jp_add_2":"赤田"},"7070053":{"post_code":"7070053","prefecture":"OKAYAMA KEN","city":"MIMASAKA SHI","town":"ASO","perfecture_jp":"岡山県","jp_add_1":"美作市","jp_add_2":"安蘇"},"7070437":{"post_code":"7070437","prefecture":"OKAYAMA KEN","city":"MIMASAKA SHI","town":"AWANO","perfecture_jp":"岡山県","jp_add_1":"美作市","jp_add_2":"粟野"},"7070052":{"post_code":"7070052","prefecture":"OKAYAMA KEN","city":"MIMASAKA SHI","town":"IDEN","perfecture_jp":"岡山県","jp_add_1":"美作市","jp_add_2":"位田"},"7070051":{"post_code":"7070051","prefecture":"OKAYAMA KEN","city":"MIMASAKA SHI","town":"INAHO","perfecture_jp":"岡山県","jp_add_1":"美作市","jp_add_2":"稲穂"},"7070034":{"post_code":"7070034","prefecture":"OKAYAMA KEN","city":"MIMASAKA SHI","town":"IBUSHI","perfecture_jp":"岡山県","jp_add_1":"美作市","jp_add_2":"猪臥"},"7070416":{"post_code":"7070416","prefecture":"OKAYAMA KEN","city":"MIMASAKA SHI","town":"IMAOKA","perfecture_jp":"岡山県","jp_add_1":"美作市","jp_add_2":"今岡"},"7070054":{"post_code":"7070054","prefecture":"OKAYAMA KEN","city":"MIMASAKA SHI","town":"IWAMIDA","perfecture_jp":"岡山県","jp_add_1":"美作市","jp_add_2":"岩見田"},"7070401":{"post_code":"7070401","prefecture":"OKAYAMA KEN","city":"MIMASAKA SHI","town":"USHIROYAMA","perfecture_jp":"岡山県","jp_add_1":"美作市","jp_add_2":"後山"},"7070204":{"post_code":"7070204","prefecture":"OKAYAMA KEN","city":"MIMASAKA SHI","town":"UTE","perfecture_jp":"岡山県","jp_add_1":"美作市","jp_add_2":"右手"},"7070411":{"post_code":"7070411","prefecture":"OKAYAMA KEN","city":"MIMASAKA SHI","town":"ENOHARA","perfecture_jp":"岡山県","jp_add_1":"美作市","jp_add_2":"江ノ原"},"7070005":{"post_code":"7070005","prefecture":"OKAYAMA KEN","city":"MIMASAKA SHI","town":"OIGAOKA","perfecture_jp":"岡山県","jp_add_1":"美作市","jp_add_2":"大井が丘"},"7070404":{"post_code":"7070404","prefecture":"OKAYAMA KEN","city":"MIMASAKA SHI","town":"OTA","perfecture_jp":"岡山県","jp_add_1":"美作市","jp_add_2":"太田"},"7070033":{"post_code":"7070033","prefecture":"OKAYAMA KEN","city":"MIMASAKA SHI","town":"OBARA","perfecture_jp":"岡山県","jp_add_1":"美作市","jp_add_2":"大原"},"7070124":{"post_code":"7070124","prefecture":"OKAYAMA KEN","city":"MIMASAKA SHI","town":"OMACHI","perfecture_jp":"岡山県","jp_add_1":"美作市","jp_add_2":"大町"},"7070067":{"post_code":"7070067","prefecture":"OKAYAMA KEN","city":"MIMASAKA SHI","town":"OKUOTANI","perfecture_jp":"岡山県","jp_add_1":"美作市","jp_add_2":"奥大谷"},"7070132":{"post_code":"7070132","prefecture":"OKAYAMA KEN","city":"MIMASAKA SHI","town":"OBATA","perfecture_jp":"岡山県","jp_add_1":"美作市","jp_add_2":"小畑"},"7070423":{"post_code":"7070423","prefecture":"OKAYAMA KEN","city":"MIMASAKA SHI","town":"OHARADA","perfecture_jp":"岡山県","jp_add_1":"美作市","jp_add_2":"小原田"},"7070044":{"post_code":"7070044","prefecture":"OKAYAMA KEN","city":"MIMASAKA SHI","town":"KAITA","perfecture_jp":"岡山県","jp_add_1":"美作市","jp_add_2":"海田"},"7070201":{"post_code":"7070201","prefecture":"OKAYAMA KEN","city":"MIMASAKA SHI","town":"KAJINAMI","perfecture_jp":"岡山県","jp_add_1":"美作市","jp_add_2":"梶並"},"7070426":{"post_code":"7070426","prefecture":"OKAYAMA KEN","city":"MIMASAKA SHI","town":"KATSURATSUBO","perfecture_jp":"岡山県","jp_add_1":"美作市","jp_add_2":"桂坪"},"7070055":{"post_code":"7070055","prefecture":"OKAYAMA KEN","city":"MIMASAKA SHI","town":"KANAHARA","perfecture_jp":"岡山県","jp_add_1":"美作市","jp_add_2":"金原"},"7070001":{"post_code":"7070001","prefecture":"OKAYAMA KEN","city":"MIMASAKA SHI","town":"KAMIYA","perfecture_jp":"岡山県","jp_add_1":"美作市","jp_add_2":"上相"},"7070421":{"post_code":"7070421","prefecture":"OKAYAMA KEN","city":"MIMASAKA SHI","town":"KAWAKAMI","perfecture_jp":"岡山県","jp_add_1":"美作市","jp_add_2":"川上"},"7070436":{"post_code":"7070436","prefecture":"OKAYAMA KEN","city":"MIMASAKA SHI","town":"KAWATO","perfecture_jp":"岡山県","jp_add_1":"美作市","jp_add_2":"川戸"},"7070407":{"post_code":"7070407","prefecture":"OKAYAMA KEN","city":"MIMASAKA SHI","town":"KAWAHIGASHI","perfecture_jp":"岡山県","jp_add_1":"美作市","jp_add_2":"川東"},"7070063":{"post_code":"7070063","prefecture":"OKAYAMA KEN","city":"MIMASAKA SHI","town":"KITASAKA","perfecture_jp":"岡山県","jp_add_1":"美作市","jp_add_2":"北坂"},"7070036":{"post_code":"7070036","prefecture":"OKAYAMA KEN","city":"MIMASAKA SHI","town":"KITABARA","perfecture_jp":"岡山県","jp_add_1":"美作市","jp_add_2":"北原"},"7070014":{"post_code":"7070014","prefecture":"OKAYAMA KEN","city":"MIMASAKA SHI","town":"KITAYAMA","perfecture_jp":"岡山県","jp_add_1":"美作市","jp_add_2":"北山"},"7070111":{"post_code":"7070111","prefecture":"OKAYAMA KEN","city":"MIMASAKA SHI","town":"KUGA","perfecture_jp":"岡山県","jp_add_1":"美作市","jp_add_2":"久賀"},"7070042":{"post_code":"7070042","prefecture":"OKAYAMA KEN","city":"MIMASAKA SHI","town":"KUTSUGI","perfecture_jp":"岡山県","jp_add_1":"美作市","jp_add_2":"朽木"},"7070202":{"post_code":"7070202","prefecture":"OKAYAMA KEN","city":"MIMASAKA SHI","town":"KOZO","perfecture_jp":"岡山県","jp_add_1":"美作市","jp_add_2":"楮"},"7070131":{"post_code":"7070131","prefecture":"OKAYAMA KEN","city":"MIMASAKA SHI","town":"KOCHI","perfecture_jp":"岡山県","jp_add_1":"美作市","jp_add_2":"河内"},"7070045":{"post_code":"7070045","prefecture":"OKAYAMA KEN","city":"MIMASAKA SHI","town":"KOSE","perfecture_jp":"岡山県","jp_add_1":"美作市","jp_add_2":"巨勢"},"7070025":{"post_code":"7070025","prefecture":"OKAYAMA KEN","city":"MIMASAKA SHI","town":"SAKAEMACHI","perfecture_jp":"岡山県","jp_add_1":"美作市","jp_add_2":"栄町"},"7070422":{"post_code":"7070422","prefecture":"OKAYAMA KEN","city":"MIMASAKA SHI","town":"SASAOKA","perfecture_jp":"岡山県","jp_add_1":"美作市","jp_add_2":"笹岡"},"7070435":{"post_code":"7070435","prefecture":"OKAYAMA KEN","city":"MIMASAKA SHI","town":"SAWADA","perfecture_jp":"岡山県","jp_add_1":"美作市","jp_add_2":"沢田"},"7070066":{"post_code":"7070066","prefecture":"OKAYAMA KEN","city":"MIMASAKA SHI","town":"SHIMOOTANI","perfecture_jp":"岡山県","jp_add_1":"美作市","jp_add_2":"下大谷"},"7070016":{"post_code":"7070016","prefecture":"OKAYAMA KEN","city":"MIMASAKA SHI","town":"SHIMOKAYAMA","perfecture_jp":"岡山県","jp_add_1":"美作市","jp_add_2":"下香山"},"7070425":{"post_code":"7070425","prefecture":"OKAYAMA KEN","city":"MIMASAKA SHI","town":"SHIMOSHOMACHI","perfecture_jp":"岡山県","jp_add_1":"美作市","jp_add_2":"下庄町"},"7070417":{"post_code":"7070417","prefecture":"OKAYAMA KEN","city":"MIMASAKA SHI","town":"SHIMOMACHI","perfecture_jp":"岡山県","jp_add_1":"美作市","jp_add_2":"下町"},"7070133":{"post_code":"7070133","prefecture":"OKAYAMA KEN","city":"MIMASAKA SHI","town":"SUGIHARA","perfecture_jp":"岡山県","jp_add_1":"美作市","jp_add_2":"杉原"},"7070431":{"post_code":"7070431","prefecture":"OKAYAMA KEN","city":"MIMASAKA SHI","town":"TAI","perfecture_jp":"岡山県","jp_add_1":"美作市","jp_add_2":"田井"},"7070427":{"post_code":"7070427","prefecture":"OKAYAMA KEN","city":"MIMASAKA SHI","town":"TAKI","perfecture_jp":"岡山県","jp_add_1":"美作市","jp_add_2":"滝"},"7070433":{"post_code":"7070433","prefecture":"OKAYAMA KEN","city":"MIMASAKA SHI","town":"TATEISHI","perfecture_jp":"岡山県","jp_add_1":"美作市","jp_add_2":"立石"},"7070012":{"post_code":"7070012","prefecture":"OKAYAMA KEN","city":"MIMASAKA SHI","town":"TADONO","perfecture_jp":"岡山県","jp_add_1":"美作市","jp_add_2":"田殿"},"7070064":{"post_code":"7070064","prefecture":"OKAYAMA KEN","city":"MIMASAKA SHI","town":"TONODOKORO","perfecture_jp":"岡山県","jp_add_1":"美作市","jp_add_2":"殿所"},"7070037":{"post_code":"7070037","prefecture":"OKAYAMA KEN","city":"MIMASAKA SHI","town":"TOMONO","perfecture_jp":"岡山県","jp_add_1":"美作市","jp_add_2":"友野"},"7070015":{"post_code":"7070015","prefecture":"OKAYAMA KEN","city":"MIMASAKA SHI","town":"TOYOKUNIHARA","perfecture_jp":"岡山県","jp_add_1":"美作市","jp_add_2":"豊国原"},"7070056":{"post_code":"7070056","prefecture":"OKAYAMA KEN","city":"MIMASAKA SHI","town":"NAGAUCHI","perfecture_jp":"岡山県","jp_add_1":"美作市","jp_add_2":"長内"},"7070002":{"post_code":"7070002","prefecture":"OKAYAMA KEN","city":"MIMASAKA SHI","town":"NAKAO","perfecture_jp":"岡山県","jp_add_1":"美作市","jp_add_2":"中尾"},"7070402":{"post_code":"7070402","prefecture":"OKAYAMA KEN","city":"MIMASAKA SHI","town":"NAKADANI","perfecture_jp":"岡山県","jp_add_1":"美作市","jp_add_2":"中谷"},"7070413":{"post_code":"7070413","prefecture":"OKAYAMA KEN","city":"MIMASAKA SHI","town":"NAKAMACHI","perfecture_jp":"岡山県","jp_add_1":"美作市","jp_add_2":"中町"},"7070061":{"post_code":"7070061","prefecture":"OKAYAMA KEN","city":"MIMASAKA SHI","town":"NAKAYAMA","perfecture_jp":"岡山県","jp_add_1":"美作市","jp_add_2":"中山"},"7070022":{"post_code":"7070022","prefecture":"OKAYAMA KEN","city":"MIMASAKA SHI","town":"NARAHARAKAMI","perfecture_jp":"岡山県","jp_add_1":"美作市","jp_add_2":"楢原上"},"7070024":{"post_code":"7070024","prefecture":"OKAYAMA KEN","city":"MIMASAKA SHI","town":"NARAHARASHIMO","perfecture_jp":"岡山県","jp_add_1":"美作市","jp_add_2":"楢原下"},"7070021":{"post_code":"7070021","prefecture":"OKAYAMA KEN","city":"MIMASAKA SHI","town":"NARAHARANAKA","perfecture_jp":"岡山県","jp_add_1":"美作市","jp_add_2":"楢原中"},"7070414":{"post_code":"7070414","prefecture":"OKAYAMA KEN","city":"MIMASAKA SHI","town":"NISHIMACHI","perfecture_jp":"岡山県","jp_add_1":"美作市","jp_add_2":"西町"},"7070004":{"post_code":"7070004","prefecture":"OKAYAMA KEN","city":"MIMASAKA SHI","town":"NYUTA","perfecture_jp":"岡山県","jp_add_1":"美作市","jp_add_2":"入田"},"7070424":{"post_code":"7070424","prefecture":"OKAYAMA KEN","city":"MIMASAKA SHI","town":"NOGATA","perfecture_jp":"岡山県","jp_add_1":"美作市","jp_add_2":"野形"},"7070405":{"post_code":"7070405","prefecture":"OKAYAMA KEN","city":"MIMASAKA SHI","town":"NOHARA","perfecture_jp":"岡山県","jp_add_1":"美作市","jp_add_2":"野原"},"7070057":{"post_code":"7070057","prefecture":"OKAYAMA KEN","city":"MIMASAKA SHI","town":"NORIHIRA","perfecture_jp":"岡山県","jp_add_1":"美作市","jp_add_2":"則平"},"7070121":{"post_code":"7070121","prefecture":"OKAYAMA KEN","city":"MIMASAKA SHI","town":"HASEUCHI","perfecture_jp":"岡山県","jp_add_1":"美作市","jp_add_2":"長谷内"},"7070041":{"post_code":"7070041","prefecture":"OKAYAMA KEN","city":"MIMASAKA SHI","town":"HAYASHINO","perfecture_jp":"岡山県","jp_add_1":"美作市","jp_add_2":"林野"},"7070403":{"post_code":"7070403","prefecture":"OKAYAMA KEN","city":"MIMASAKA SHI","town":"HIGASHIAONO","perfecture_jp":"岡山県","jp_add_1":"美作市","jp_add_2":"東青野"},"7070205":{"post_code":"7070205","prefecture":"OKAYAMA KEN","city":"MIMASAKA SHI","town":"HIGASHIDANIKAMI","perfecture_jp":"岡山県","jp_add_1":"美作市","jp_add_2":"東谷上"},"7070206":{"post_code":"7070206","prefecture":"OKAYAMA KEN","city":"MIMASAKA SHI","town":"HIGASHIDANISHIMO","perfecture_jp":"岡山県","jp_add_1":"美作市","jp_add_2":"東谷下"},"7070406":{"post_code":"7070406","prefecture":"OKAYAMA KEN","city":"MIMASAKA SHI","town":"HIGASHIYOSHIDA","perfecture_jp":"岡山県","jp_add_1":"美作市","jp_add_2":"東吉田"},"7070035":{"post_code":"7070035","prefecture":"OKAYAMA KEN","city":"MIMASAKA SHI","town":"HIRATA","perfecture_jp":"岡山県","jp_add_1":"美作市","jp_add_2":"平田"},"7070023":{"post_code":"7070023","prefecture":"OKAYAMA KEN","city":"MIMASAKA SHI","town":"HIRAFUKU","perfecture_jp":"岡山県","jp_add_1":"美作市","jp_add_2":"平福"},"7070412":{"post_code":"7070412","prefecture":"OKAYAMA KEN","city":"MIMASAKA SHI","town":"FURUMACHI","perfecture_jp":"岡山県","jp_add_1":"美作市","jp_add_2":"古町"},"7070122":{"post_code":"7070122","prefecture":"OKAYAMA KEN","city":"MIMASAKA SHI","town":"MAGATA","perfecture_jp":"岡山県","jp_add_1":"美作市","jp_add_2":"馬形"},"7070113":{"post_code":"7070113","prefecture":"OKAYAMA KEN","city":"MIMASAKA SHI","town":"MAKABE","perfecture_jp":"岡山県","jp_add_1":"美作市","jp_add_2":"真加部"},"7070203":{"post_code":"7070203","prefecture":"OKAYAMA KEN","city":"MIMASAKA SHI","town":"MATONO","perfecture_jp":"岡山県","jp_add_1":"美作市","jp_add_2":"真殿"},"7070043":{"post_code":"7070043","prefecture":"OKAYAMA KEN","city":"MIMASAKA SHI","town":"MIUCHI","perfecture_jp":"岡山県","jp_add_1":"美作市","jp_add_2":"海内"},"7070046":{"post_code":"7070046","prefecture":"OKAYAMA KEN","city":"MIMASAKA SHI","town":"MIKURADA","perfecture_jp":"岡山県","jp_add_1":"美作市","jp_add_2":"三倉田"},"7070434":{"post_code":"7070434","prefecture":"OKAYAMA KEN","city":"MIMASAKA SHI","town":"MIBU","perfecture_jp":"岡山県","jp_add_1":"美作市","jp_add_2":"壬生"},"7070415":{"post_code":"7070415","prefecture":"OKAYAMA KEN","city":"MIMASAKA SHI","town":"MIYAMOTO","perfecture_jp":"岡山県","jp_add_1":"美作市","jp_add_2":"宮本"},"7070003":{"post_code":"7070003","prefecture":"OKAYAMA KEN","city":"MIMASAKA SHI","town":"MYOKEN","perfecture_jp":"岡山県","jp_add_1":"美作市","jp_add_2":"明見"},"7070123":{"post_code":"7070123","prefecture":"OKAYAMA KEN","city":"MIMASAKA SHI","town":"MUNAKAKE","perfecture_jp":"岡山県","jp_add_1":"美作市","jp_add_2":"宗掛"},"7070134":{"post_code":"7070134","prefecture":"OKAYAMA KEN","city":"MIMASAKA SHI","town":"YATA","perfecture_jp":"岡山県","jp_add_1":"美作市","jp_add_2":"矢田"},"7070031":{"post_code":"7070031","prefecture":"OKAYAMA KEN","city":"MIMASAKA SHI","town":"YAMAGUCHI","perfecture_jp":"岡山県","jp_add_1":"美作市","jp_add_2":"山口"},"7070032":{"post_code":"7070032","prefecture":"OKAYAMA KEN","city":"MIMASAKA SHI","town":"YAMATONO","perfecture_jp":"岡山県","jp_add_1":"美作市","jp_add_2":"山外野"},"7070062":{"post_code":"7070062","prefecture":"OKAYAMA KEN","city":"MIMASAKA SHI","town":"YUNOGO","perfecture_jp":"岡山県","jp_add_1":"美作市","jp_add_2":"湯郷"},"7070013":{"post_code":"7070013","prefecture":"OKAYAMA KEN","city":"MIMASAKA SHI","town":"YOSHI","perfecture_jp":"岡山県","jp_add_1":"美作市","jp_add_2":"吉"},"7070112":{"post_code":"7070112","prefecture":"OKAYAMA KEN","city":"MIMASAKA SHI","town":"YONO","perfecture_jp":"岡山県","jp_add_1":"美作市","jp_add_2":"余野"},"7070011":{"post_code":"7070011","prefecture":"OKAYAMA KEN","city":"MIMASAKA SHI","town":"WADA","perfecture_jp":"岡山県","jp_add_1":"美作市","jp_add_2":"和田"},"7070500":{"post_code":"7070500","prefecture":"OKAYAMA KEN","city":"AIDA GUN NISHIAWAKURA SON","town":"IKANIKEISAIGANAIBAAI","perfecture_jp":"岡山県","jp_add_1":"英田郡西粟倉村","jp_add_2":""},"7070505":{"post_code":"7070505","prefecture":"OKAYAMA KEN","city":"AIDA GUN NISHIAWAKURA SON","town":"IKADATSU","perfecture_jp":"岡山県","jp_add_1":"英田郡西粟倉村","jp_add_2":"筏津"},"7070501":{"post_code":"7070501","prefecture":"OKAYAMA KEN","city":"AIDA GUN NISHIAWAKURA SON","town":"OGAYA","perfecture_jp":"岡山県","jp_add_1":"英田郡西粟倉村","jp_add_2":"大茅"},"7070503":{"post_code":"7070503","prefecture":"OKAYAMA KEN","city":"AIDA GUN NISHIAWAKURA SON","town":"KAGEISHI","perfecture_jp":"岡山県","jp_add_1":"英田郡西粟倉村","jp_add_2":"影石"},"7070502":{"post_code":"7070502","prefecture":"OKAYAMA KEN","city":"AIDA GUN NISHIAWAKURA SON","town":"SAKANE","perfecture_jp":"岡山県","jp_add_1":"英田郡西粟倉村","jp_add_2":"坂根"},"7070506":{"post_code":"7070506","prefecture":"OKAYAMA KEN","city":"AIDA GUN NISHIAWAKURA SON","town":"CHISHA","perfecture_jp":"岡山県","jp_add_1":"英田郡西粟倉村","jp_add_2":"知社"},"7070504":{"post_code":"7070504","prefecture":"OKAYAMA KEN","city":"AIDA GUN NISHIAWAKURA SON","town":"NAGAO","perfecture_jp":"岡山県","jp_add_1":"英田郡西粟倉村","jp_add_2":"長尾"}}