{"7080000":{"post_code":"7080000","prefecture":"OKAYAMA KEN","city":"TSUYAMA SHI","town":"IKANIKEISAIGANAIBAAI","perfecture_jp":"岡山県","jp_add_1":"津山市","jp_add_2":""},"7081104":{"post_code":"7081104","prefecture":"OKAYAMA KEN","city":"TSUYAMA SHI","town":"AYABE","perfecture_jp":"岡山県","jp_add_1":"津山市","jp_add_2":"綾部"},"7080852":{"post_code":"7080852","prefecture":"OKAYAMA KEN","city":"TSUYAMA SHI","town":"IKEGAHARA","perfecture_jp":"岡山県","jp_add_1":"津山市","jp_add_2":"池ケ原"},"7080815":{"post_code":"7080815","prefecture":"OKAYAMA KEN","city":"TSUYAMA SHI","town":"ICHINOMIYA","perfecture_jp":"岡山県","jp_add_1":"津山市","jp_add_2":"一宮"},"7081206":{"post_code":"7081206","prefecture":"OKAYAMA KEN","city":"TSUYAMA SHI","town":"ICHIBA","perfecture_jp":"岡山県","jp_add_1":"津山市","jp_add_2":"市場"},"7080883":{"post_code":"7080883","prefecture":"OKAYAMA KEN","city":"TSUYAMA SHI","town":"IPPO","perfecture_jp":"岡山県","jp_add_1":"津山市","jp_add_2":"一方"},"7080885":{"post_code":"7080885","prefecture":"OKAYAMA KEN","city":"TSUYAMA SHI","town":"INOKUCHI","perfecture_jp":"岡山県","jp_add_1":"津山市","jp_add_2":"井口"},"7080014":{"post_code":"7080014","prefecture":"OKAYAMA KEN","city":"TSUYAMA SHI","town":"INNOSHO","perfecture_jp":"岡山県","jp_add_1":"津山市","jp_add_2":"院庄"},"7080831":{"post_code":"7080831","prefecture":"OKAYAMA KEN","city":"TSUYAMA SHI","town":"UENOCHO","perfecture_jp":"岡山県","jp_add_1":"津山市","jp_add_2":"上之町"},"7080844":{"post_code":"7080844","prefecture":"OKAYAMA KEN","city":"TSUYAMA SHI","town":"URYUBARA","perfecture_jp":"岡山県","jp_add_1":"津山市","jp_add_2":"瓜生原"},"7081202":{"post_code":"7081202","prefecture":"OKAYAMA KEN","city":"TSUYAMA SHI","town":"OIWA","perfecture_jp":"岡山県","jp_add_1":"津山市","jp_add_2":"大岩"},"7080802":{"post_code":"7080802","prefecture":"OKAYAMA KEN","city":"TSUYAMA SHI","town":"OSASA","perfecture_jp":"岡山県","jp_add_1":"津山市","jp_add_2":"大篠"},"7080882":{"post_code":"7080882","prefecture":"OKAYAMA KEN","city":"TSUYAMA SHI","town":"OTANI","perfecture_jp":"岡山県","jp_add_1":"津山市","jp_add_2":"大谷"},"7080806":{"post_code":"7080806","prefecture":"OKAYAMA KEN","city":"TSUYAMA SHI","town":"ODA","perfecture_jp":"岡山県","jp_add_1":"津山市","jp_add_2":"大田"},"7080023":{"post_code":"7080023","prefecture":"OKAYAMA KEN","city":"TSUYAMA SHI","town":"OTEMACHI","perfecture_jp":"岡山県","jp_add_1":"津山市","jp_add_2":"大手町"},"7081203":{"post_code":"7081203","prefecture":"OKAYAMA KEN","city":"TSUYAMA SHI","town":"OYOSHI","perfecture_jp":"岡山県","jp_add_1":"津山市","jp_add_2":"大吉"},"7081201":{"post_code":"7081201","prefecture":"OKAYAMA KEN","city":"TSUYAMA SHI","town":"KAMOCHO SHIMOTSUGAWA(OKUTSUGAWA)","perfecture_jp":"岡山県","jp_add_1":"津山市","jp_add_2":"奥津川"},"7080066":{"post_code":"7080066","prefecture":"OKAYAMA KEN","city":"TSUYAMA SHI","town":"OKEYAMACHI","perfecture_jp":"岡山県","jp_add_1":"津山市","jp_add_2":"桶屋町"},"7080863":{"post_code":"7080863","prefecture":"OKAYAMA KEN","city":"TSUYAMA SHI","town":"OGETA","perfecture_jp":"岡山県","jp_add_1":"津山市","jp_add_2":"小桁"},"7081126":{"post_code":"7081126","prefecture":"OKAYAMA KEN","city":"TSUYAMA SHI","town":"OSHIIRE","perfecture_jp":"岡山県","jp_add_1":"津山市","jp_add_2":"押入"},"7080865":{"post_code":"7080865","prefecture":"OKAYAMA KEN","city":"TSUYAMA SHI","town":"OSHIBUCHI","perfecture_jp":"岡山県","jp_add_1":"津山市","jp_add_2":"押渕"},"7080006":{"post_code":"7080006","prefecture":"OKAYAMA KEN","city":"TSUYAMA SHI","town":"ODANAKA","perfecture_jp":"岡山県","jp_add_1":"津山市","jp_add_2":"小田中"},"7080001":{"post_code":"7080001","prefecture":"OKAYAMA KEN","city":"TSUYAMA SHI","town":"OBARA","perfecture_jp":"岡山県","jp_add_1":"津山市","jp_add_2":"小原"},"7080077":{"post_code":"7080077","prefecture":"OKAYAMA KEN","city":"TSUYAMA SHI","town":"KAJIMACHI","perfecture_jp":"岡山県","jp_add_1":"津山市","jp_add_2":"鍛治町"},"7080804":{"post_code":"7080804","prefecture":"OKAYAMA KEN","city":"TSUYAMA SHI","town":"KATSUBE","perfecture_jp":"岡山県","jp_add_1":"津山市","jp_add_2":"勝部"},"7080835":{"post_code":"7080835","prefecture":"OKAYAMA KEN","city":"TSUYAMA SHI","town":"KATSUMADAMACHI","perfecture_jp":"岡山県","jp_add_1":"津山市","jp_add_2":"勝間田町"},"7080855":{"post_code":"7080855","prefecture":"OKAYAMA KEN","city":"TSUYAMA SHI","town":"KANAI","perfecture_jp":"岡山県","jp_add_1":"津山市","jp_add_2":"金井"},"7080864":{"post_code":"7080864","prefecture":"OKAYAMA KEN","city":"TSUYAMA SHI","town":"KANAYA","perfecture_jp":"岡山県","jp_add_1":"津山市","jp_add_2":"金屋"},"7080002":{"post_code":"7080002","prefecture":"OKAYAMA KEN","city":"TSUYAMA SHI","town":"KAMIGAWARA","perfecture_jp":"岡山県","jp_add_1":"津山市","jp_add_2":"上河原"},"7080076":{"post_code":"7080076","prefecture":"OKAYAMA KEN","city":"TSUYAMA SHI","town":"KAMIKOYAMACHI","perfecture_jp":"岡山県","jp_add_1":"津山市","jp_add_2":"上紺屋町"},"7081121":{"post_code":"7081121","prefecture":"OKAYAMA KEN","city":"TSUYAMA SHI","town":"KAMITAKAKURA","perfecture_jp":"岡山県","jp_add_1":"津山市","jp_add_2":"上高倉"},"7080011":{"post_code":"7080011","prefecture":"OKAYAMA KEN","city":"TSUYAMA SHI","town":"KAMITANOMURA","perfecture_jp":"岡山県","jp_add_1":"津山市","jp_add_2":"上田邑"},"7081214":{"post_code":"7081214","prefecture":"OKAYAMA KEN","city":"TSUYAMA SHI","town":"KAMINODA","perfecture_jp":"岡山県","jp_add_1":"津山市","jp_add_2":"上野田"},"7081224":{"post_code":"7081224","prefecture":"OKAYAMA KEN","city":"TSUYAMA SHI","town":"KAMIMURA","perfecture_jp":"岡山県","jp_add_1":"津山市","jp_add_2":"上村"},"7080801":{"post_code":"7080801","prefecture":"OKAYAMA KEN","city":"TSUYAMA SHI","town":"KAMIYOKONO","perfecture_jp":"岡山県","jp_add_1":"津山市","jp_add_2":"上横野"},"7080043":{"post_code":"7080043","prefecture":"OKAYAMA KEN","city":"TSUYAMA SHI","town":"KAYAMACHI","perfecture_jp":"岡山県","jp_add_1":"津山市","jp_add_2":"茅町"},"7080841":{"post_code":"7080841","prefecture":"OKAYAMA KEN","city":"TSUYAMA SHI","town":"KAWASAKI","perfecture_jp":"岡山県","jp_add_1":"津山市","jp_add_2":"川崎"},"7080842":{"post_code":"7080842","prefecture":"OKAYAMA KEN","city":"TSUYAMA SHI","town":"KAWANABE","perfecture_jp":"岡山県","jp_add_1":"津山市","jp_add_2":"河辺"},"7080033":{"post_code":"7080033","prefecture":"OKAYAMA KEN","city":"TSUYAMA SHI","town":"KAWARAMACHI","perfecture_jp":"岡山県","jp_add_1":"津山市","jp_add_2":"河原町"},"7080003":{"post_code":"7080003","prefecture":"OKAYAMA KEN","city":"TSUYAMA SHI","town":"KITAZONOCHO","perfecture_jp":"岡山県","jp_add_1":"津山市","jp_add_2":"北園町"},"7080021":{"post_code":"7080021","prefecture":"OKAYAMA KEN","city":"TSUYAMA SHI","town":"KITAMACHI","perfecture_jp":"岡山県","jp_add_1":"津山市","jp_add_2":"北町"},"7080062":{"post_code":"7080062","prefecture":"OKAYAMA KEN","city":"TSUYAMA SHI","town":"KYOMACHI","perfecture_jp":"岡山県","jp_add_1":"津山市","jp_add_2":"京町"},"7081117":{"post_code":"7081117","prefecture":"OKAYAMA KEN","city":"TSUYAMA SHI","town":"KUSAKABE","perfecture_jp":"岡山県","jp_add_1":"津山市","jp_add_2":"草加部"},"7080866":{"post_code":"7080866","prefecture":"OKAYAMA KEN","city":"TSUYAMA SHI","town":"KOJINYAMA","perfecture_jp":"岡山県","jp_add_1":"津山市","jp_add_2":"荒神山"},"7081115":{"post_code":"7081115","prefecture":"OKAYAMA KEN","city":"TSUYAMA SHI","town":"KOMO","perfecture_jp":"岡山県","jp_add_1":"津山市","jp_add_2":"河面"},"7080843":{"post_code":"7080843","prefecture":"OKAYAMA KEN","city":"TSUYAMA SHI","town":"KOKUBUNJI","perfecture_jp":"岡山県","jp_add_1":"津山市","jp_add_2":"国分寺"},"7080063":{"post_code":"7080063","prefecture":"OKAYAMA KEN","city":"TSUYAMA SHI","town":"KOSHOMACHI","perfecture_jp":"岡山県","jp_add_1":"津山市","jp_add_2":"小性町"},"7080053":{"post_code":"7080053","prefecture":"OKAYAMA KEN","city":"TSUYAMA SHI","town":"SAIKUNOCHO","perfecture_jp":"岡山県","jp_add_1":"津山市","jp_add_2":"細工町"},"7080031":{"post_code":"7080031","prefecture":"OKAYAMA KEN","city":"TSUYAMA SHI","town":"ZAIMOKUMACHI","perfecture_jp":"岡山県","jp_add_1":"津山市","jp_add_2":"材木町"},"7080064":{"post_code":"7080064","prefecture":"OKAYAMA KEN","city":"TSUYAMA SHI","town":"SAKAIMACHI","perfecture_jp":"岡山県","jp_add_1":"津山市","jp_add_2":"堺町"},"7081223":{"post_code":"7081223","prefecture":"OKAYAMA KEN","city":"TSUYAMA SHI","town":"SAKAUE","perfecture_jp":"岡山県","jp_add_1":"津山市","jp_add_2":"坂上"},"7080873":{"post_code":"7080873","prefecture":"OKAYAMA KEN","city":"TSUYAMA SHI","town":"SARA","perfecture_jp":"岡山県","jp_add_1":"津山市","jp_add_2":"皿"},"7080022":{"post_code":"7080022","prefecture":"OKAYAMA KEN","city":"TSUYAMA SHI","town":"SANGE","perfecture_jp":"岡山県","jp_add_1":"津山市","jp_add_2":"山下"},"7080825":{"post_code":"7080825","prefecture":"OKAYAMA KEN","city":"TSUYAMA SHI","town":"SHITOBE","perfecture_jp":"岡山県","jp_add_1":"津山市","jp_add_2":"志戸部"},"7080805":{"post_code":"7080805","prefecture":"OKAYAMA KEN","city":"TSUYAMA SHI","town":"SHIBOI","perfecture_jp":"岡山県","jp_add_1":"津山市","jp_add_2":"紫保井"},"7080071":{"post_code":"7080071","prefecture":"OKAYAMA KEN","city":"TSUYAMA SHI","town":"SHIMOKOYAMACHI","perfecture_jp":"岡山県","jp_add_1":"津山市","jp_add_2":"下紺屋町"},"7081122":{"post_code":"7081122","prefecture":"OKAYAMA KEN","city":"TSUYAMA SHI","town":"SHIMOTAKAKURA HIGASHI","perfecture_jp":"岡山県","jp_add_1":"津山市","jp_add_2":"下高倉東"},"7081123":{"post_code":"7081123","prefecture":"OKAYAMA KEN","city":"TSUYAMA SHI","town":"SHIMOTAKAKURA NISHI","perfecture_jp":"岡山県","jp_add_1":"津山市","jp_add_2":"下高倉西"},"7080012":{"post_code":"7080012","prefecture":"OKAYAMA KEN","city":"TSUYAMA SHI","town":"SHIMOTANOMURA","perfecture_jp":"岡山県","jp_add_1":"津山市","jp_add_2":"下田邑"},"7081213":{"post_code":"7081213","prefecture":"OKAYAMA KEN","city":"TSUYAMA SHI","town":"SHIMONODA","perfecture_jp":"岡山県","jp_add_1":"津山市","jp_add_2":"下野田"},"7080807":{"post_code":"7080807","prefecture":"OKAYAMA KEN","city":"TSUYAMA SHI","town":"SHIMOYOKONO","perfecture_jp":"岡山県","jp_add_1":"津山市","jp_add_2":"下横野"},"7080005":{"post_code":"7080005","prefecture":"OKAYAMA KEN","city":"TSUYAMA SHI","town":"JODAIMACHI","perfecture_jp":"岡山県","jp_add_1":"津山市","jp_add_2":"城代町"},"7080886":{"post_code":"7080886","prefecture":"OKAYAMA KEN","city":"TSUYAMA SHI","town":"SHOWAMACHI","perfecture_jp":"岡山県","jp_add_1":"津山市","jp_add_2":"昭和町"},"7080065":{"post_code":"7080065","prefecture":"OKAYAMA KEN","city":"TSUYAMA SHI","town":"SHINUOMACHI","perfecture_jp":"岡山県","jp_add_1":"津山市","jp_add_2":"新魚町"},"7080042":{"post_code":"7080042","prefecture":"OKAYAMA KEN","city":"TSUYAMA SHI","town":"SHINKAYAMACHI","perfecture_jp":"岡山県","jp_add_1":"津山市","jp_add_2":"新茅町"},"7080015":{"post_code":"7080015","prefecture":"OKAYAMA KEN","city":"TSUYAMA SHI","town":"JINGO","perfecture_jp":"岡山県","jp_add_1":"津山市","jp_add_2":"神戸"},"7080067":{"post_code":"7080067","prefecture":"OKAYAMA KEN","city":"TSUYAMA SHI","town":"SHINSHOKUNIMMACHI","perfecture_jp":"岡山県","jp_add_1":"津山市","jp_add_2":"新職人町"},"7081215":{"post_code":"7081215","prefecture":"OKAYAMA KEN","city":"TSUYAMA SHI","town":"SUGINOMIYA","perfecture_jp":"岡山県","jp_add_1":"津山市","jp_add_2":"杉宮"},"7080034":{"post_code":"7080034","prefecture":"OKAYAMA KEN","city":"TSUYAMA SHI","town":"SENDOMACHI","perfecture_jp":"岡山県","jp_add_1":"津山市","jp_add_2":"船頭町"},"7080007":{"post_code":"7080007","prefecture":"OKAYAMA KEN","city":"TSUYAMA SHI","town":"SOJA","perfecture_jp":"岡山県","jp_add_1":"津山市","jp_add_2":"総社"},"7080876":{"post_code":"7080876","prefecture":"OKAYAMA KEN","city":"TSUYAMA SHI","town":"TAKAO","perfecture_jp":"岡山県","jp_add_1":"津山市","jp_add_2":"高尾"},"7081125":{"post_code":"7081125","prefecture":"OKAYAMA KEN","city":"TSUYAMA SHI","town":"TAKANO HONGO","perfecture_jp":"岡山県","jp_add_1":"津山市","jp_add_2":"高野本郷"},"7081124":{"post_code":"7081124","prefecture":"OKAYAMA KEN","city":"TSUYAMA SHI","town":"TAKANO YAMANISHI","perfecture_jp":"岡山県","jp_add_1":"津山市","jp_add_2":"高野山西"},"7080874":{"post_code":"7080874","prefecture":"OKAYAMA KEN","city":"TSUYAMA SHI","town":"TANE","perfecture_jp":"岡山県","jp_add_1":"津山市","jp_add_2":"種"},"7081113":{"post_code":"7081113","prefecture":"OKAYAMA KEN","city":"TSUYAMA SHI","town":"TANOKUMA","perfecture_jp":"岡山県","jp_add_1":"津山市","jp_add_2":"田熊"},"7080052":{"post_code":"7080052","prefecture":"OKAYAMA KEN","city":"TSUYAMA SHI","town":"TAMACHI","perfecture_jp":"岡山県","jp_add_1":"津山市","jp_add_2":"田町"},"7081112":{"post_code":"7081112","prefecture":"OKAYAMA KEN","city":"TSUYAMA SHI","town":"CHIKANAGA","perfecture_jp":"岡山県","jp_add_1":"津山市","jp_add_2":"近長"},"7080051":{"post_code":"7080051","prefecture":"OKAYAMA KEN","city":"TSUYAMA SHI","town":"TSUBAKIKOGE","perfecture_jp":"岡山県","jp_add_1":"津山市","jp_add_2":"椿高下"},"7080075":{"post_code":"7080075","prefecture":"OKAYAMA KEN","city":"TSUYAMA SHI","town":"TSUBOIMACHI","perfecture_jp":"岡山県","jp_add_1":"津山市","jp_add_2":"坪井町"},"7080884":{"post_code":"7080884","prefecture":"OKAYAMA KEN","city":"TSUYAMA SHI","town":"TSUYAMAGUCHI","perfecture_jp":"岡山県","jp_add_1":"津山市","jp_add_2":"津山口"},"7080041":{"post_code":"7080041","prefecture":"OKAYAMA KEN","city":"TSUYAMA SHI","town":"TEPPOMACHI","perfecture_jp":"岡山県","jp_add_1":"津山市","jp_add_2":"鉄砲町"},"7080853":{"post_code":"7080853","prefecture":"OKAYAMA KEN","city":"TSUYAMA SHI","town":"DONO","perfecture_jp":"岡山県","jp_add_1":"津山市","jp_add_2":"堂尾"},"7080037":{"post_code":"7080037","prefecture":"OKAYAMA KEN","city":"TSUYAMA SHI","town":"TOGAWAMACHI","perfecture_jp":"岡山県","jp_add_1":"津山市","jp_add_2":"戸川町"},"7080016":{"post_code":"7080016","prefecture":"OKAYAMA KEN","city":"TSUYAMA SHI","town":"TOSHIMA","perfecture_jp":"岡山県","jp_add_1":"津山市","jp_add_2":"戸島"},"7080871":{"post_code":"7080871","prefecture":"OKAYAMA KEN","city":"TSUYAMA SHI","town":"NAKASHIMA","perfecture_jp":"岡山県","jp_add_1":"津山市","jp_add_2":"中島"},"7080834":{"post_code":"7080834","prefecture":"OKAYAMA KEN","city":"TSUYAMA SHI","town":"NAKANOCHO","perfecture_jp":"岡山県","jp_add_1":"津山市","jp_add_2":"中之町"},"7080854":{"post_code":"7080854","prefecture":"OKAYAMA KEN","city":"TSUYAMA SHI","town":"NAKABARA","perfecture_jp":"岡山県","jp_add_1":"津山市","jp_add_2":"中原"},"7081216":{"post_code":"7081216","prefecture":"OKAYAMA KEN","city":"TSUYAMA SHI","town":"NAKAMURA","perfecture_jp":"岡山県","jp_add_1":"津山市","jp_add_2":"中村"},"7081111":{"post_code":"7081111","prefecture":"OKAYAMA KEN","city":"TSUYAMA SHI","town":"NARA","perfecture_jp":"岡山県","jp_add_1":"津山市","jp_add_2":"楢"},"7080851":{"post_code":"7080851","prefecture":"OKAYAMA KEN","city":"TSUYAMA SHI","town":"NIIDA","perfecture_jp":"岡山県","jp_add_1":"津山市","jp_add_2":"新田"},"7081205":{"post_code":"7081205","prefecture":"OKAYAMA KEN","city":"TSUYAMA SHI","town":"NIINOHIGASHI","perfecture_jp":"岡山県","jp_add_1":"津山市","jp_add_2":"新野東"},"7081226":{"post_code":"7081226","prefecture":"OKAYAMA KEN","city":"TSUYAMA SHI","town":"NIINOYAMAGATA","perfecture_jp":"岡山県","jp_add_1":"津山市","jp_add_2":"新野山形"},"7080024":{"post_code":"7080024","prefecture":"OKAYAMA KEN","city":"TSUYAMA SHI","town":"NIKAIMACHI","perfecture_jp":"岡山県","jp_add_1":"津山市","jp_add_2":"二階町"},"7080046":{"post_code":"7080046","prefecture":"OKAYAMA KEN","city":"TSUYAMA SHI","town":"NISHIIMAMACHI","perfecture_jp":"岡山県","jp_add_1":"津山市","jp_add_2":"西今町"},"7081221":{"post_code":"7081221","prefecture":"OKAYAMA KEN","city":"TSUYAMA SHI","town":"NISHIKAMI","perfecture_jp":"岡山県","jp_add_1":"津山市","jp_add_2":"西上"},"7081225":{"post_code":"7081225","prefecture":"OKAYAMA KEN","city":"TSUYAMA SHI","town":"NISHISHIMO","perfecture_jp":"岡山県","jp_add_1":"津山市","jp_add_2":"西下"},"7080833":{"post_code":"7080833","prefecture":"OKAYAMA KEN","city":"TSUYAMA SHI","town":"NISHISHIMMACHI","perfecture_jp":"岡山県","jp_add_1":"津山市","jp_add_2":"西新町"},"7080811":{"post_code":"7080811","prefecture":"OKAYAMA KEN","city":"TSUYAMA SHI","town":"NISHITANABE","perfecture_jp":"岡山県","jp_add_1":"津山市","jp_add_2":"西田辺"},"7080045":{"post_code":"7080045","prefecture":"OKAYAMA KEN","city":"TSUYAMA SHI","town":"NISHITERAMACHI","perfecture_jp":"岡山県","jp_add_1":"津山市","jp_add_2":"西寺町"},"7081222":{"post_code":"7081222","prefecture":"OKAYAMA KEN","city":"TSUYAMA SHI","town":"NISHINAKA","perfecture_jp":"岡山県","jp_add_1":"津山市","jp_add_2":"西中"},"7080856":{"post_code":"7080856","prefecture":"OKAYAMA KEN","city":"TSUYAMA SHI","town":"NISHIYOSHIDA","perfecture_jp":"岡山県","jp_add_1":"津山市","jp_add_2":"西吉田"},"7080013":{"post_code":"7080013","prefecture":"OKAYAMA KEN","city":"TSUYAMA SHI","town":"NINOMIYA","perfecture_jp":"岡山県","jp_add_1":"津山市","jp_add_2":"二宮"},"7081204":{"post_code":"7081204","prefecture":"OKAYAMA KEN","city":"TSUYAMA SHI","town":"NIHOMBARA","perfecture_jp":"岡山県","jp_add_1":"津山市","jp_add_2":"日本原"},"7080824":{"post_code":"7080824","prefecture":"OKAYAMA KEN","city":"TSUYAMA SHI","town":"NUMA","perfecture_jp":"岡山県","jp_add_1":"津山市","jp_add_2":"沼"},"7080821":{"post_code":"7080821","prefecture":"OKAYAMA KEN","city":"TSUYAMA SHI","town":"NOKEDA","perfecture_jp":"岡山県","jp_add_1":"津山市","jp_add_2":"野介代"},"7081116":{"post_code":"7081116","prefecture":"OKAYAMA KEN","city":"TSUYAMA SHI","town":"NOMURA","perfecture_jp":"岡山県","jp_add_1":"津山市","jp_add_2":"野村"},"7080822":{"post_code":"7080822","prefecture":"OKAYAMA KEN","city":"TSUYAMA SHI","town":"HAIDA","perfecture_jp":"岡山県","jp_add_1":"津山市","jp_add_2":"林田"},"7080836":{"post_code":"7080836","prefecture":"OKAYAMA KEN","city":"TSUYAMA SHI","town":"HAIDAMACHI","perfecture_jp":"岡山県","jp_add_1":"津山市","jp_add_2":"林田町"},"7080837":{"post_code":"7080837","prefecture":"OKAYAMA KEN","city":"TSUYAMA SHI","town":"HASHIMOTOMACHI","perfecture_jp":"岡山県","jp_add_1":"津山市","jp_add_2":"橋本町"},"7081211":{"post_code":"7081211","prefecture":"OKAYAMA KEN","city":"TSUYAMA SHI","town":"HARA","perfecture_jp":"岡山県","jp_add_1":"津山市","jp_add_2":"原"},"7080845":{"post_code":"7080845","prefecture":"OKAYAMA KEN","city":"TSUYAMA SHI","town":"HIKAMI","perfecture_jp":"岡山県","jp_add_1":"津山市","jp_add_2":"日上"},"7080814":{"post_code":"7080814","prefecture":"OKAYAMA KEN","city":"TSUYAMA SHI","town":"HIGASHIICHINOMIYA","perfecture_jp":"岡山県","jp_add_1":"津山市","jp_add_2":"東一宮"},"7080832":{"post_code":"7080832","prefecture":"OKAYAMA KEN","city":"TSUYAMA SHI","town":"HIGASHISHIMMACHI","perfecture_jp":"岡山県","jp_add_1":"津山市","jp_add_2":"東新町"},"7080812":{"post_code":"7080812","prefecture":"OKAYAMA KEN","city":"TSUYAMA SHI","town":"HIGASHITANABE","perfecture_jp":"岡山県","jp_add_1":"津山市","jp_add_2":"東田辺"},"7080872":{"post_code":"7080872","prefecture":"OKAYAMA KEN","city":"TSUYAMA SHI","town":"HIRAFUKU","perfecture_jp":"岡山県","jp_add_1":"津山市","jp_add_2":"平福"},"7080035":{"post_code":"7080035","prefecture":"OKAYAMA KEN","city":"TSUYAMA SHI","town":"FUKIYAMACHI","perfecture_jp":"岡山県","jp_add_1":"津山市","jp_add_2":"吹屋町"},"7081114":{"post_code":"7081114","prefecture":"OKAYAMA KEN","city":"TSUYAMA SHI","town":"FUKUI","perfecture_jp":"岡山県","jp_add_1":"津山市","jp_add_2":"福井"},"7080875":{"post_code":"7080875","prefecture":"OKAYAMA KEN","city":"TSUYAMA SHI","town":"FUKUDA","perfecture_jp":"岡山県","jp_add_1":"津山市","jp_add_2":"福田"},"7080857":{"post_code":"7080857","prefecture":"OKAYAMA KEN","city":"TSUYAMA SHI","town":"FUKURIKI","perfecture_jp":"岡山県","jp_add_1":"津山市","jp_add_2":"福力"},"7080074":{"post_code":"7080074","prefecture":"OKAYAMA KEN","city":"TSUYAMA SHI","town":"FUKUWATARIMACHI","perfecture_jp":"岡山県","jp_add_1":"津山市","jp_add_2":"福渡町"},"7080032":{"post_code":"7080032","prefecture":"OKAYAMA KEN","city":"TSUYAMA SHI","town":"FUSHIMICHO","perfecture_jp":"岡山県","jp_add_1":"津山市","jp_add_2":"伏見町"},"7081103":{"post_code":"7081103","prefecture":"OKAYAMA KEN","city":"TSUYAMA SHI","town":"HORISAKA","perfecture_jp":"岡山県","jp_add_1":"津山市","jp_add_2":"堀坂"},"7080073":{"post_code":"7080073","prefecture":"OKAYAMA KEN","city":"TSUYAMA SHI","town":"HOMMACHI","perfecture_jp":"岡山県","jp_add_1":"津山市","jp_add_2":"本町"},"7081101":{"post_code":"7081101","prefecture":"OKAYAMA KEN","city":"TSUYAMA SHI","town":"MIURA","perfecture_jp":"岡山県","jp_add_1":"津山市","jp_add_2":"三浦"},"7080036":{"post_code":"7080036","prefecture":"OKAYAMA KEN","city":"TSUYAMA SHI","town":"MINAMISHINZA","perfecture_jp":"岡山県","jp_add_1":"津山市","jp_add_2":"南新座"},"7080881":{"post_code":"7080881","prefecture":"OKAYAMA KEN","city":"TSUYAMA SHI","town":"MINAMIMACHI","perfecture_jp":"岡山県","jp_add_1":"津山市","jp_add_2":"南町"},"7080072":{"post_code":"7080072","prefecture":"OKAYAMA KEN","city":"TSUYAMA SHI","town":"MINOMACHI","perfecture_jp":"岡山県","jp_add_1":"津山市","jp_add_2":"美濃町"},"7080047":{"post_code":"7080047","prefecture":"OKAYAMA KEN","city":"TSUYAMA SHI","town":"MIYAWAKICHO","perfecture_jp":"岡山県","jp_add_1":"津山市","jp_add_2":"宮脇町"},"7081102":{"post_code":"7081102","prefecture":"OKAYAMA KEN","city":"TSUYAMA SHI","town":"MYOBARA","perfecture_jp":"岡山県","jp_add_1":"津山市","jp_add_2":"妙原"},"7080061":{"post_code":"7080061","prefecture":"OKAYAMA KEN","city":"TSUYAMA SHI","town":"MOTOOMACHI","perfecture_jp":"岡山県","jp_add_1":"津山市","jp_add_2":"元魚町"},"7080803":{"post_code":"7080803","prefecture":"OKAYAMA KEN","city":"TSUYAMA SHI","town":"MOMIHO","perfecture_jp":"岡山県","jp_add_1":"津山市","jp_add_2":"籾保"},"7080861":{"post_code":"7080861","prefecture":"OKAYAMA KEN","city":"TSUYAMA SHI","town":"YAIDE","perfecture_jp":"岡山県","jp_add_1":"津山市","jp_add_2":"八出"},"7081212":{"post_code":"7081212","prefecture":"OKAYAMA KEN","city":"TSUYAMA SHI","town":"YASUI","perfecture_jp":"岡山県","jp_add_1":"津山市","jp_add_2":"安井"},"7080044":{"post_code":"7080044","prefecture":"OKAYAMA KEN","city":"TSUYAMA SHI","town":"YASUOKAMACHI","perfecture_jp":"岡山県","jp_add_1":"津山市","jp_add_2":"安岡町"},"7080813":{"post_code":"7080813","prefecture":"OKAYAMA KEN","city":"TSUYAMA SHI","town":"YAMAGATA","perfecture_jp":"岡山県","jp_add_1":"津山市","jp_add_2":"山方"},"7080004":{"post_code":"7080004","prefecture":"OKAYAMA KEN","city":"TSUYAMA SHI","town":"YAMAKITA","perfecture_jp":"岡山県","jp_add_1":"津山市","jp_add_2":"山北"},"7080823":{"post_code":"7080823","prefecture":"OKAYAMA KEN","city":"TSUYAMA SHI","town":"YAYOICHO","perfecture_jp":"岡山県","jp_add_1":"津山市","jp_add_2":"弥生町"},"7080862":{"post_code":"7080862","prefecture":"OKAYAMA KEN","city":"TSUYAMA SHI","town":"YOKOYAMA","perfecture_jp":"岡山県","jp_add_1":"津山市","jp_add_2":"横山"},"7081105":{"post_code":"7081105","prefecture":"OKAYAMA KEN","city":"TSUYAMA SHI","town":"YOSHIMI","perfecture_jp":"岡山県","jp_add_1":"津山市","jp_add_2":"吉見"},"7080300":{"post_code":"7080300","prefecture":"OKAYAMA KEN","city":"TOMATA GUN KAGAMINO CHO","town":"IKANIKEISAIGANAIBAAI","perfecture_jp":"岡山県","jp_add_1":"苫田郡鏡野町","jp_add_2":""},"7080421":{"post_code":"7080421","prefecture":"OKAYAMA KEN","city":"TOMATA GUN KAGAMINO CHO","town":"IZAKA","perfecture_jp":"岡山県","jp_add_1":"苫田郡鏡野町","jp_add_2":"井坂"},"7080315":{"post_code":"7080315","prefecture":"OKAYAMA KEN","city":"TOMATA GUN KAGAMINO CHO","town":"ICHIBA","perfecture_jp":"岡山県","jp_add_1":"苫田郡鏡野町","jp_add_2":"市場"},"7080351":{"post_code":"7080351","prefecture":"OKAYAMA KEN","city":"TOMATA GUN KAGAMINO CHO","town":"IRI","perfecture_jp":"岡山県","jp_add_1":"苫田郡鏡野町","jp_add_2":"入"},"7080302":{"post_code":"7080302","prefecture":"OKAYAMA KEN","city":"TOMATA GUN KAGAMINO CHO","town":"IWAYA","perfecture_jp":"岡山県","jp_add_1":"苫田郡鏡野町","jp_add_2":"岩屋"},"7080321":{"post_code":"7080321","prefecture":"OKAYAMA KEN","city":"TOMATA GUN KAGAMINO CHO","town":"ENJUJI","perfecture_jp":"岡山県","jp_add_1":"苫田郡鏡野町","jp_add_2":"円宗寺"},"7080704":{"post_code":"7080704","prefecture":"OKAYAMA KEN","city":"TOMATA GUN KAGAMINO CHO","town":"O","perfecture_jp":"岡山県","jp_add_1":"苫田郡鏡野町","jp_add_2":"大"},"7080303":{"post_code":"7080303","prefecture":"OKAYAMA KEN","city":"TOMATA GUN KAGAMINO CHO","town":"OMACHI","perfecture_jp":"岡山県","jp_add_1":"苫田郡鏡野町","jp_add_2":"大町"},"7080322":{"post_code":"7080322","prefecture":"OKAYAMA KEN","city":"TOMATA GUN KAGAMINO CHO","town":"OKI","perfecture_jp":"岡山県","jp_add_1":"苫田郡鏡野町","jp_add_2":"沖"},"7080503":{"post_code":"7080503","prefecture":"OKAYAMA KEN","city":"TOMATA GUN KAGAMINO CHO","town":"OKUTSU","perfecture_jp":"岡山県","jp_add_1":"苫田郡鏡野町","jp_add_2":"奥津"},"7080504":{"post_code":"7080504","prefecture":"OKAYAMA KEN","city":"TOMATA GUN KAGAMINO CHO","town":"OKUTSUKAWANISHI","perfecture_jp":"岡山県","jp_add_1":"苫田郡鏡野町","jp_add_2":"奥津川西"},"7080363":{"post_code":"7080363","prefecture":"OKAYAMA KEN","city":"TOMATA GUN KAGAMINO CHO","town":"OZA","perfecture_jp":"岡山県","jp_add_1":"苫田郡鏡野町","jp_add_2":"小座"},"7080423":{"post_code":"7080423","prefecture":"OKAYAMA KEN","city":"TOMATA GUN KAGAMINO CHO","town":"ONABARA","perfecture_jp":"岡山県","jp_add_1":"苫田郡鏡野町","jp_add_2":"女原"},"7080312":{"post_code":"7080312","prefecture":"OKAYAMA KEN","city":"TOMATA GUN KAGAMINO CHO","town":"KAGAMI","perfecture_jp":"岡山県","jp_add_1":"苫田郡鏡野町","jp_add_2":"香々美"},"7080601":{"post_code":"7080601","prefecture":"OKAYAMA KEN","city":"TOMATA GUN KAGAMINO CHO","town":"KAMISAIBARA","perfecture_jp":"岡山県","jp_add_1":"苫田郡鏡野町","jp_add_2":"上齋原"},"7080361":{"post_code":"7080361","prefecture":"OKAYAMA KEN","city":"TOMATA GUN KAGAMINO CHO","town":"KAMIMORIBARA","perfecture_jp":"岡山県","jp_add_1":"苫田郡鏡野町","jp_add_2":"上森原"},"7080705":{"post_code":"7080705","prefecture":"OKAYAMA KEN","city":"TOMATA GUN KAGAMINO CHO","town":"KUSU","perfecture_jp":"岡山県","jp_add_1":"苫田郡鏡野町","jp_add_2":"楠"},"7080432":{"post_code":"7080432","prefecture":"OKAYAMA KEN","city":"TOMATA GUN KAGAMINO CHO","town":"KUTAKAMINOHARA","perfecture_jp":"岡山県","jp_add_1":"苫田郡鏡野町","jp_add_2":"久田上原"},"7080433":{"post_code":"7080433","prefecture":"OKAYAMA KEN","city":"TOMATA GUN KAGAMINO CHO","town":"KUTASHIMONOHARA","perfecture_jp":"岡山県","jp_add_1":"苫田郡鏡野町","jp_add_2":"久田下原"},"7080313":{"post_code":"7080313","prefecture":"OKAYAMA KEN","city":"TOMATA GUN KAGAMINO CHO","town":"KUHODEN","perfecture_jp":"岡山県","jp_add_1":"苫田郡鏡野町","jp_add_2":"公保田"},"7080435":{"post_code":"7080435","prefecture":"OKAYAMA KEN","city":"TOMATA GUN KAGAMINO CHO","town":"KUROGI","perfecture_jp":"岡山県","jp_add_1":"苫田郡鏡野町","jp_add_2":"黒木"},"7080431":{"post_code":"7080431","prefecture":"OKAYAMA KEN","city":"TOMATA GUN KAGAMINO CHO","town":"KOCHI","perfecture_jp":"岡山県","jp_add_1":"苫田郡鏡野町","jp_add_2":"河内"},"7080343":{"post_code":"7080343","prefecture":"OKAYAMA KEN","city":"TOMATA GUN KAGAMINO CHO","town":"KOMOTO","perfecture_jp":"岡山県","jp_add_1":"苫田郡鏡野町","jp_add_2":"河本"},"7080301":{"post_code":"7080301","prefecture":"OKAYAMA KEN","city":"TOMATA GUN KAGAMINO CHO","town":"KOSHIWATA","perfecture_jp":"岡山県","jp_add_1":"苫田郡鏡野町","jp_add_2":"越畑"},"7080304":{"post_code":"7080304","prefecture":"OKAYAMA KEN","city":"TOMATA GUN KAGAMINO CHO","town":"SANETSUNE","perfecture_jp":"岡山県","jp_add_1":"苫田郡鏡野町","jp_add_2":"真経"},"7080314":{"post_code":"7080314","prefecture":"OKAYAMA KEN","city":"TOMATA GUN KAGAMINO CHO","town":"SAWATA","perfecture_jp":"岡山県","jp_add_1":"苫田郡鏡野町","jp_add_2":"沢田"},"7080427":{"post_code":"7080427","prefecture":"OKAYAMA KEN","city":"TOMATA GUN KAGAMINO CHO","town":"SHIKONO","perfecture_jp":"岡山県","jp_add_1":"苫田郡鏡野町","jp_add_2":"至孝農"},"7080501":{"post_code":"7080501","prefecture":"OKAYAMA KEN","city":"TOMATA GUN KAGAMINO CHO","town":"SHIMOSAIBARA","perfecture_jp":"岡山県","jp_add_1":"苫田郡鏡野町","jp_add_2":"下斎原"},"7080341":{"post_code":"7080341","prefecture":"OKAYAMA KEN","city":"TOMATA GUN KAGAMINO CHO","town":"SHIMOBARA","perfecture_jp":"岡山県","jp_add_1":"苫田郡鏡野町","jp_add_2":"下原"},"7080364":{"post_code":"7080364","prefecture":"OKAYAMA KEN","city":"TOMATA GUN KAGAMINO CHO","town":"SHIMOMORIBARA","perfecture_jp":"岡山県","jp_add_1":"苫田郡鏡野町","jp_add_2":"下森原"},"7080424":{"post_code":"7080424","prefecture":"OKAYAMA KEN","city":"TOMATA GUN KAGAMINO CHO","town":"SUGI","perfecture_jp":"岡山県","jp_add_1":"苫田郡鏡野町","jp_add_2":"杉"},"7080325":{"post_code":"7080325","prefecture":"OKAYAMA KEN","city":"TOMATA GUN KAGAMINO CHO","town":"SETO","perfecture_jp":"岡山県","jp_add_1":"苫田郡鏡野町","jp_add_2":"瀬戸"},"7080345":{"post_code":"7080345","prefecture":"OKAYAMA KEN","city":"TOMATA GUN KAGAMINO CHO","town":"TAKAYAMA","perfecture_jp":"岡山県","jp_add_1":"苫田郡鏡野町","jp_add_2":"高山"},"7080342":{"post_code":"7080342","prefecture":"OKAYAMA KEN","city":"TOMATA GUN KAGAMINO CHO","town":"TAKIGIMORIBARA","perfecture_jp":"岡山県","jp_add_1":"苫田郡鏡野町","jp_add_2":"薪森原"},"7080324":{"post_code":"7080324","prefecture":"OKAYAMA KEN","city":"TOMATA GUN KAGAMINO CHO","town":"TAKEDA","perfecture_jp":"岡山県","jp_add_1":"苫田郡鏡野町","jp_add_2":"竹田"},"7080365":{"post_code":"7080365","prefecture":"OKAYAMA KEN","city":"TOMATA GUN KAGAMINO CHO","town":"TSUKADANI","perfecture_jp":"岡山県","jp_add_1":"苫田郡鏡野町","jp_add_2":"塚谷"},"7080362":{"post_code":"7080362","prefecture":"OKAYAMA KEN","city":"TOMATA GUN KAGAMINO CHO","town":"TEEJI","perfecture_jp":"岡山県","jp_add_1":"苫田郡鏡野町","jp_add_2":"貞永寺"},"7080323":{"post_code":"7080323","prefecture":"OKAYAMA KEN","city":"TOMATA GUN KAGAMINO CHO","town":"TERAMOTO","perfecture_jp":"岡山県","jp_add_1":"苫田郡鏡野町","jp_add_2":"寺元"},"7080311":{"post_code":"7080311","prefecture":"OKAYAMA KEN","city":"TOMATA GUN KAGAMINO CHO","town":"TERAWADA","perfecture_jp":"岡山県","jp_add_1":"苫田郡鏡野町","jp_add_2":"寺和田"},"7080317":{"post_code":"7080317","prefecture":"OKAYAMA KEN","city":"TOMATA GUN KAGAMINO CHO","town":"DOI","perfecture_jp":"岡山県","jp_add_1":"苫田郡鏡野町","jp_add_2":"土居"},"7080703":{"post_code":"7080703","prefecture":"OKAYAMA KEN","city":"TOMATA GUN KAGAMINO CHO","town":"TOMINAKAMA","perfecture_jp":"岡山県","jp_add_1":"苫田郡鏡野町","jp_add_2":"富仲間"},"7080701":{"post_code":"7080701","prefecture":"OKAYAMA KEN","city":"TOMATA GUN KAGAMINO CHO","town":"TOMINISHIDANI","perfecture_jp":"岡山県","jp_add_1":"苫田郡鏡野町","jp_add_2":"富西谷"},"7080702":{"post_code":"7080702","prefecture":"OKAYAMA KEN","city":"TOMATA GUN KAGAMINO CHO","town":"TOMIHIGASHIDANI","perfecture_jp":"岡山県","jp_add_1":"苫田郡鏡野町","jp_add_2":"富東谷"},"7080353":{"post_code":"7080353","prefecture":"OKAYAMA KEN","city":"TOMATA GUN KAGAMINO CHO","town":"NAKADANI","perfecture_jp":"岡山県","jp_add_1":"苫田郡鏡野町","jp_add_2":"中谷"},"7080502":{"post_code":"7080502","prefecture":"OKAYAMA KEN","city":"TOMATA GUN KAGAMINO CHO","town":"NAGATO","perfecture_jp":"岡山県","jp_add_1":"苫田郡鏡野町","jp_add_2":"長藤"},"7080426":{"post_code":"7080426","prefecture":"OKAYAMA KEN","city":"TOMATA GUN KAGAMINO CHO","town":"NISHIYA","perfecture_jp":"岡山県","jp_add_1":"苫田郡鏡野町","jp_add_2":"西屋"},"7080331":{"post_code":"7080331","prefecture":"OKAYAMA KEN","city":"TOMATA GUN KAGAMINO CHO","town":"NUNOHARA","perfecture_jp":"岡山県","jp_add_1":"苫田郡鏡野町","jp_add_2":"布原"},"7080425":{"post_code":"7080425","prefecture":"OKAYAMA KEN","city":"TOMATA GUN KAGAMINO CHO","town":"HAKO","perfecture_jp":"岡山県","jp_add_1":"苫田郡鏡野町","jp_add_2":"箱"},"7080511":{"post_code":"7080511","prefecture":"OKAYAMA KEN","city":"TOMATA GUN KAGAMINO CHO","town":"HADE","perfecture_jp":"岡山県","jp_add_1":"苫田郡鏡野町","jp_add_2":"羽出"},"7080512":{"post_code":"7080512","prefecture":"OKAYAMA KEN","city":"TOMATA GUN KAGAMINO CHO","town":"HADENISHIDANI","perfecture_jp":"岡山県","jp_add_1":"苫田郡鏡野町","jp_add_2":"羽出西谷"},"7080366":{"post_code":"7080366","prefecture":"OKAYAMA KEN","city":"TOMATA GUN KAGAMINO CHO","town":"BABA","perfecture_jp":"岡山県","jp_add_1":"苫田郡鏡野町","jp_add_2":"馬場"},"7080434":{"post_code":"7080434","prefecture":"OKAYAMA KEN","city":"TOMATA GUN KAGAMINO CHO","town":"HABU","perfecture_jp":"岡山県","jp_add_1":"苫田郡鏡野町","jp_add_2":"土生"},"7080344":{"post_code":"7080344","prefecture":"OKAYAMA KEN","city":"TOMATA GUN KAGAMINO CHO","town":"HARA","perfecture_jp":"岡山県","jp_add_1":"苫田郡鏡野町","jp_add_2":"原"},"7080333":{"post_code":"7080333","prefecture":"OKAYAMA KEN","city":"TOMATA GUN KAGAMINO CHO","town":"FURUKAWA","perfecture_jp":"岡山県","jp_add_1":"苫田郡鏡野町","jp_add_2":"古川"},"7080335":{"post_code":"7080335","prefecture":"OKAYAMA KEN","city":"TOMATA GUN KAGAMINO CHO","town":"MAKABE","perfecture_jp":"岡山県","jp_add_1":"苫田郡鏡野町","jp_add_2":"真加部"},"7080334":{"post_code":"7080334","prefecture":"OKAYAMA KEN","city":"TOMATA GUN KAGAMINO CHO","town":"MUNEDA","perfecture_jp":"岡山県","jp_add_1":"苫田郡鏡野町","jp_add_2":"宗枝"},"7080305":{"post_code":"7080305","prefecture":"OKAYAMA KEN","city":"TOMATA GUN KAGAMINO CHO","town":"MOMODANI","perfecture_jp":"岡山県","jp_add_1":"苫田郡鏡野町","jp_add_2":"百谷"},"7080352":{"post_code":"7080352","prefecture":"OKAYAMA KEN","city":"TOMATA GUN KAGAMINO CHO","town":"YAMASHIRO","perfecture_jp":"岡山県","jp_add_1":"苫田郡鏡野町","jp_add_2":"山城"},"7080422":{"post_code":"7080422","prefecture":"OKAYAMA KEN","city":"TOMATA GUN KAGAMINO CHO","town":"YONO","perfecture_jp":"岡山県","jp_add_1":"苫田郡鏡野町","jp_add_2":"養野"},"7080332":{"post_code":"7080332","prefecture":"OKAYAMA KEN","city":"TOMATA GUN KAGAMINO CHO","town":"YOSHIHARA","perfecture_jp":"岡山県","jp_add_1":"苫田郡鏡野町","jp_add_2":"吉原"},"7080316":{"post_code":"7080316","prefecture":"OKAYAMA KEN","city":"TOMATA GUN KAGAMINO CHO","town":"WADA","perfecture_jp":"岡山県","jp_add_1":"苫田郡鏡野町","jp_add_2":"和田"},"7081300":{"post_code":"7081300","prefecture":"OKAYAMA KEN","city":"KATSUTA GUN NAGI CHO","town":"IKANIKEISAIGANAIBAAI","perfecture_jp":"岡山県","jp_add_1":"勝田郡奈義町","jp_add_2":""},"7081314":{"post_code":"7081314","prefecture":"OKAYAMA KEN","city":"KATSUTA GUN NAGI CHO","town":"ARAUCHINISHI","perfecture_jp":"岡山県","jp_add_1":"勝田郡奈義町","jp_add_2":"荒内西"},"7081302":{"post_code":"7081302","prefecture":"OKAYAMA KEN","city":"KATSUTA GUN NAGI CHO","town":"OSAKA","perfecture_jp":"岡山県","jp_add_1":"勝田郡奈義町","jp_add_2":"小坂"},"7081312":{"post_code":"7081312","prefecture":"OKAYAMA KEN","city":"KATSUTA GUN NAGI CHO","town":"KAKI","perfecture_jp":"岡山県","jp_add_1":"勝田郡奈義町","jp_add_2":"柿"},"7081326":{"post_code":"7081326","prefecture":"OKAYAMA KEN","city":"KATSUTA GUN NAGI CHO","town":"KAMIMACHIGAWA","perfecture_jp":"岡山県","jp_add_1":"勝田郡奈義町","jp_add_2":"上町川"},"7081305":{"post_code":"7081305","prefecture":"OKAYAMA KEN","city":"KATSUTA GUN NAGI CHO","town":"GYOHO","perfecture_jp":"岡山県","jp_add_1":"勝田郡奈義町","jp_add_2":"行方"},"7081307":{"post_code":"7081307","prefecture":"OKAYAMA KEN","city":"KATSUTA GUN NAGI CHO","town":"KOEN","perfecture_jp":"岡山県","jp_add_1":"勝田郡奈義町","jp_add_2":"高円"},"7081304":{"post_code":"7081304","prefecture":"OKAYAMA KEN","city":"KATSUTA GUN NAGI CHO","town":"SEKIMOTO","perfecture_jp":"岡山県","jp_add_1":"勝田郡奈義町","jp_add_2":"関本"},"7081325":{"post_code":"7081325","prefecture":"OKAYAMA KEN","city":"KATSUTA GUN NAGI CHO","town":"TAKIMOTO","perfecture_jp":"岡山県","jp_add_1":"勝田郡奈義町","jp_add_2":"滝本"},"7081323":{"post_code":"7081323","prefecture":"OKAYAMA KEN","city":"KATSUTA GUN NAGI CHO","town":"TOYOSAWA","perfecture_jp":"岡山県","jp_add_1":"勝田郡奈義町","jp_add_2":"豊沢"},"7081313":{"post_code":"7081313","prefecture":"OKAYAMA KEN","city":"KATSUTA GUN NAGI CHO","town":"NAKASHIMAHIGASHI","perfecture_jp":"岡山県","jp_add_1":"勝田郡奈義町","jp_add_2":"中島東"},"7081315":{"post_code":"7081315","prefecture":"OKAYAMA KEN","city":"KATSUTA GUN NAGI CHO","town":"NAKASHIMANISHI","perfecture_jp":"岡山県","jp_add_1":"勝田郡奈義町","jp_add_2":"中島西"},"7081322":{"post_code":"7081322","prefecture":"OKAYAMA KEN","city":"KATSUTA GUN NAGI CHO","town":"NARIMATSU","perfecture_jp":"岡山県","jp_add_1":"勝田郡奈義町","jp_add_2":"成松"},"7081306":{"post_code":"7081306","prefecture":"OKAYAMA KEN","city":"KATSUTA GUN NAGI CHO","town":"NISHIBARA","perfecture_jp":"岡山県","jp_add_1":"勝田郡奈義町","jp_add_2":"西原"},"7081311":{"post_code":"7081311","prefecture":"OKAYAMA KEN","city":"KATSUTA GUN NAGI CHO","town":"HISATSUNE","perfecture_jp":"岡山県","jp_add_1":"勝田郡奈義町","jp_add_2":"久常"},"7081324":{"post_code":"7081324","prefecture":"OKAYAMA KEN","city":"KATSUTA GUN NAGI CHO","town":"HIROKA","perfecture_jp":"岡山県","jp_add_1":"勝田郡奈義町","jp_add_2":"広岡"},"7081301":{"post_code":"7081301","prefecture":"OKAYAMA KEN","city":"KATSUTA GUN NAGI CHO","town":"MAGUWA","perfecture_jp":"岡山県","jp_add_1":"勝田郡奈義町","jp_add_2":"馬桑"},"7081303":{"post_code":"7081303","prefecture":"OKAYAMA KEN","city":"KATSUTA GUN NAGI CHO","town":"MINAGI","perfecture_jp":"岡山県","jp_add_1":"勝田郡奈義町","jp_add_2":"皆木"},"7081321":{"post_code":"7081321","prefecture":"OKAYAMA KEN","city":"KATSUTA GUN NAGI CHO","town":"MIYAUCHI","perfecture_jp":"岡山県","jp_add_1":"勝田郡奈義町","jp_add_2":"宮内"},"7081506":{"post_code":"7081506","prefecture":"OKAYAMA KEN","city":"KUME GUN MISAKI CHO","town":"UWAMA","perfecture_jp":"岡山県","jp_add_1":"久米郡美咲町","jp_add_2":"上間"},"7081525":{"post_code":"7081525","prefecture":"OKAYAMA KEN","city":"KUME GUN MISAKI CHO","town":"OJI","perfecture_jp":"岡山県","jp_add_1":"久米郡美咲町","jp_add_2":"王子"},"7081543":{"post_code":"7081543","prefecture":"OKAYAMA KEN","city":"KUME GUN MISAKI CHO","town":"KAIZOE","perfecture_jp":"岡山県","jp_add_1":"久米郡美咲町","jp_add_2":"書副"},"7081523":{"post_code":"7081523","prefecture":"OKAYAMA KEN","city":"KUME GUN MISAKI CHO","town":"KICHIGAHARA","perfecture_jp":"岡山県","jp_add_1":"久米郡美咲町","jp_add_2":"吉ケ原"},"7081531":{"post_code":"7081531","prefecture":"OKAYAMA KEN","city":"KUME GUN MISAKI CHO","town":"KURIGO","perfecture_jp":"岡山県","jp_add_1":"久米郡美咲町","jp_add_2":"栗子"},"7081526":{"post_code":"7081526","prefecture":"OKAYAMA KEN","city":"KUME GUN MISAKI CHO","town":"KOGE","perfecture_jp":"岡山県","jp_add_1":"久米郡美咲町","jp_add_2":"高下"},"7081532":{"post_code":"7081532","prefecture":"OKAYAMA KEN","city":"KUME GUN MISAKI CHO","town":"KOSE","perfecture_jp":"岡山県","jp_add_1":"久米郡美咲町","jp_add_2":"小瀬"},"7081536":{"post_code":"7081536","prefecture":"OKAYAMA KEN","city":"KUME GUN MISAKI CHO","town":"SADAMUNE","perfecture_jp":"岡山県","jp_add_1":"久米郡美咲町","jp_add_2":"定宗"},"7081503":{"post_code":"7081503","prefecture":"OKAYAMA KEN","city":"KUME GUN MISAKI CHO","town":"SHIOKE","perfecture_jp":"岡山県","jp_add_1":"久米郡美咲町","jp_add_2":"塩気"},"7081505":{"post_code":"7081505","prefecture":"OKAYAMA KEN","city":"KUME GUN MISAKI CHO","town":"SHIGETO","perfecture_jp":"岡山県","jp_add_1":"久米郡美咲町","jp_add_2":"重藤"},"7081515":{"post_code":"7081515","prefecture":"OKAYAMA KEN","city":"KUME GUN MISAKI CHO","town":"SHIMODANI","perfecture_jp":"岡山県","jp_add_1":"久米郡美咲町","jp_add_2":"下谷"},"7081544":{"post_code":"7081544","prefecture":"OKAYAMA KEN","city":"KUME GUN MISAKI CHO","town":"SUSA","perfecture_jp":"岡山県","jp_add_1":"久米郡美咲町","jp_add_2":"周佐"},"7081522":{"post_code":"7081522","prefecture":"OKAYAMA KEN","city":"KUME GUN MISAKI CHO","town":"SODA","perfecture_jp":"岡山県","jp_add_1":"久米郡美咲町","jp_add_2":"惣田"},"7081545":{"post_code":"7081545","prefecture":"OKAYAMA KEN","city":"KUME GUN MISAKI CHO","town":"DAITOKAMI","perfecture_jp":"岡山県","jp_add_1":"久米郡美咲町","jp_add_2":"大戸上"},"7081546":{"post_code":"7081546","prefecture":"OKAYAMA KEN","city":"KUME GUN MISAKI CHO","town":"DAITOSHIMO","perfecture_jp":"岡山県","jp_add_1":"久米郡美咲町","jp_add_2":"大戸下"},"7081535":{"post_code":"7081535","prefecture":"OKAYAMA KEN","city":"KUME GUN MISAKI CHO","town":"TAKASHIRO","perfecture_jp":"岡山県","jp_add_1":"久米郡美咲町","jp_add_2":"高城"},"7081541":{"post_code":"7081541","prefecture":"OKAYAMA KEN","city":"KUME GUN MISAKI CHO","town":"TSUKATSUNO","perfecture_jp":"岡山県","jp_add_1":"久米郡美咲町","jp_add_2":"塚角"},"7081507":{"post_code":"7081507","prefecture":"OKAYAMA KEN","city":"KUME GUN MISAKI CHO","town":"DODO","perfecture_jp":"岡山県","jp_add_1":"久米郡美咲町","jp_add_2":"百々"},"7081547":{"post_code":"7081547","prefecture":"OKAYAMA KEN","city":"KUME GUN MISAKI CHO","town":"NERIGAMI","perfecture_jp":"岡山県","jp_add_1":"久米郡美咲町","jp_add_2":"八神"},"7081542":{"post_code":"7081542","prefecture":"OKAYAMA KEN","city":"KUME GUN MISAKI CHO","town":"HANI","perfecture_jp":"岡山県","jp_add_1":"久米郡美咲町","jp_add_2":"羽仁"},"7081533":{"post_code":"7081533","prefecture":"OKAYAMA KEN","city":"KUME GUN MISAKI CHO","town":"HISAGI","perfecture_jp":"岡山県","jp_add_1":"久米郡美咲町","jp_add_2":"久木"},"7081514":{"post_code":"7081514","prefecture":"OKAYAMA KEN","city":"KUME GUN MISAKI CHO","town":"FUJITAKAMI","perfecture_jp":"岡山県","jp_add_1":"久米郡美咲町","jp_add_2":"藤田上"},"7081513":{"post_code":"7081513","prefecture":"OKAYAMA KEN","city":"KUME GUN MISAKI CHO","town":"FUJITASHIMO","perfecture_jp":"岡山県","jp_add_1":"久米郡美咲町","jp_add_2":"藤田下"},"7081534":{"post_code":"7081534","prefecture":"OKAYAMA KEN","city":"KUME GUN MISAKI CHO","town":"FUJIWARA","perfecture_jp":"岡山県","jp_add_1":"久米郡美咲町","jp_add_2":"藤原"},"7081512":{"post_code":"7081512","prefecture":"OKAYAMA KEN","city":"KUME GUN MISAKI CHO","town":"MATSUO","perfecture_jp":"岡山県","jp_add_1":"久米郡美咲町","jp_add_2":"松尾"},"7081502":{"post_code":"7081502","prefecture":"OKAYAMA KEN","city":"KUME GUN MISAKI CHO","town":"MIYAYAMA","perfecture_jp":"岡山県","jp_add_1":"久米郡美咲町","jp_add_2":"宮山"},"7081501":{"post_code":"7081501","prefecture":"OKAYAMA KEN","city":"KUME GUN MISAKI CHO","town":"YASUI","perfecture_jp":"岡山県","jp_add_1":"久米郡美咲町","jp_add_2":"安井"},"7081521":{"post_code":"7081521","prefecture":"OKAYAMA KEN","city":"KUME GUN MISAKI CHO","town":"YASUMIISHI","perfecture_jp":"岡山県","jp_add_1":"久米郡美咲町","jp_add_2":"休石"},"7081527":{"post_code":"7081527","prefecture":"OKAYAMA KEN","city":"KUME GUN MISAKI CHO","town":"YANAHARA","perfecture_jp":"岡山県","jp_add_1":"久米郡美咲町","jp_add_2":"柵原"},"7081524":{"post_code":"7081524","prefecture":"OKAYAMA KEN","city":"KUME GUN MISAKI CHO","town":"YUKA","perfecture_jp":"岡山県","jp_add_1":"久米郡美咲町","jp_add_2":"飯岡"},"7081511":{"post_code":"7081511","prefecture":"OKAYAMA KEN","city":"KUME GUN MISAKI CHO","town":"YUKINOBU","perfecture_jp":"岡山県","jp_add_1":"久米郡美咲町","jp_add_2":"行信"},"7081504":{"post_code":"7081504","prefecture":"OKAYAMA KEN","city":"KUME GUN MISAKI CHO","town":"YOSHIDOME","perfecture_jp":"岡山県","jp_add_1":"久米郡美咲町","jp_add_2":"吉留"},"7081516":{"post_code":"7081516","prefecture":"OKAYAMA KEN","city":"KUME GUN MISAKI CHO","town":"RENJAKU","perfecture_jp":"岡山県","jp_add_1":"久米郡美咲町","jp_add_2":"連石"}}