{"7093131":{"post_code":"7093131","prefecture":"OKAYAMA KEN","city":"OKAYAMA SHI KITA KU","town":"TAKEBECHO ICHIBA","perfecture_jp":"岡山県","jp_add_1":"岡山市北区","jp_add_2":"建部町市場"},"7093121":{"post_code":"7093121","prefecture":"OKAYAMA KEN","city":"OKAYAMA SHI KITA KU","town":"TAKEBECHO ODA","perfecture_jp":"岡山県","jp_add_1":"岡山市北区","jp_add_2":"建部町大田"},"7093124":{"post_code":"7093124","prefecture":"OKAYAMA KEN","city":"OKAYAMA SHI KITA KU","town":"TAKEBECHO OGURA","perfecture_jp":"岡山県","jp_add_1":"岡山市北区","jp_add_2":"建部町小倉"},"7093112":{"post_code":"7093112","prefecture":"OKAYAMA KEN","city":"OKAYAMA SHI KITA KU","town":"TAKEBECHO KAWAGUCHI","perfecture_jp":"岡山県","jp_add_1":"岡山市北区","jp_add_2":"建部町川口"},"7093134":{"post_code":"7093134","prefecture":"OKAYAMA KEN","city":"OKAYAMA SHI KITA KU","town":"TAKEBECHO SAKURA","perfecture_jp":"岡山県","jp_add_1":"岡山市北区","jp_add_2":"建部町桜"},"7093105":{"post_code":"7093105","prefecture":"OKAYAMA KEN","city":"OKAYAMA SHI KITA KU","town":"TAKEBECHO SAMMYOJI","perfecture_jp":"岡山県","jp_add_1":"岡山市北区","jp_add_2":"建部町三明寺"},"7093141":{"post_code":"7093141","prefecture":"OKAYAMA KEN","city":"OKAYAMA SHI KITA KU","town":"TAKEBECHO SHINADA","perfecture_jp":"岡山県","jp_add_1":"岡山市北区","jp_add_2":"建部町品田"},"7093113":{"post_code":"7093113","prefecture":"OKAYAMA KEN","city":"OKAYAMA SHI KITA KU","town":"TAKEBECHO SHIMOKOME","perfecture_jp":"岡山県","jp_add_1":"岡山市北区","jp_add_2":"建部町下神目"},"7093142":{"post_code":"7093142","prefecture":"OKAYAMA KEN","city":"OKAYAMA SHI KITA KU","town":"TAKEBECHO TAKEBEKAMI","perfecture_jp":"岡山県","jp_add_1":"岡山市北区","jp_add_2":"建部町建部上"},"7093145":{"post_code":"7093145","prefecture":"OKAYAMA KEN","city":"OKAYAMA SHI KITA KU","town":"TAKEBECHO TAJIKO","perfecture_jp":"岡山県","jp_add_1":"岡山市北区","jp_add_2":"建部町田地子"},"7093101":{"post_code":"7093101","prefecture":"OKAYAMA KEN","city":"OKAYAMA SHI KITA KU","town":"TAKEBECHO TAZUTA","perfecture_jp":"岡山県","jp_add_1":"岡山市北区","jp_add_2":"建部町鶴田"},"7093103":{"post_code":"7093103","prefecture":"OKAYAMA KEN","city":"OKAYAMA SHI KITA KU","town":"TAKEBECHO TSUISHIUNE","perfecture_jp":"岡山県","jp_add_1":"岡山市北区","jp_add_2":"建部町角石畝"},"7093104":{"post_code":"7093104","prefecture":"OKAYAMA KEN","city":"OKAYAMA SHI KITA KU","town":"TAKEBECHO TSUISHIDANI","perfecture_jp":"岡山県","jp_add_1":"岡山市北区","jp_add_2":"建部町角石谷"},"7093144":{"post_code":"7093144","prefecture":"OKAYAMA KEN","city":"OKAYAMA SHI KITA KU","town":"TAKEBECHO TOMISAWA","perfecture_jp":"岡山県","jp_add_1":"岡山市北区","jp_add_2":"建部町富沢"},"7093132":{"post_code":"7093132","prefecture":"OKAYAMA KEN","city":"OKAYAMA SHI KITA KU","town":"TAKEBECHO NAKADA","perfecture_jp":"岡山県","jp_add_1":"岡山市北区","jp_add_2":"建部町中田"},"7093133":{"post_code":"7093133","prefecture":"OKAYAMA KEN","city":"OKAYAMA SHI KITA KU","town":"TAKEBECHO NISHIBARA","perfecture_jp":"岡山県","jp_add_1":"岡山市北区","jp_add_2":"建部町西原"},"7093123":{"post_code":"7093123","prefecture":"OKAYAMA KEN","city":"OKAYAMA SHI KITA KU","town":"TAKEBECHO HAJIKATA","perfecture_jp":"岡山県","jp_add_1":"岡山市北区","jp_add_2":"建部町土師方"},"7093111":{"post_code":"7093111","prefecture":"OKAYAMA KEN","city":"OKAYAMA SHI KITA KU","town":"TAKEBECHO FUKUWATARI","perfecture_jp":"岡山県","jp_add_1":"岡山市北区","jp_add_2":"建部町福渡"},"7093114":{"post_code":"7093114","prefecture":"OKAYAMA KEN","city":"OKAYAMA SHI KITA KU","town":"TAKEBECHO BURAKUJI","perfecture_jp":"岡山県","jp_add_1":"岡山市北区","jp_add_2":"建部町豊楽寺"},"7093143":{"post_code":"7093143","prefecture":"OKAYAMA KEN","city":"OKAYAMA SHI KITA KU","town":"TAKEBECHO MIYAJI","perfecture_jp":"岡山県","jp_add_1":"岡山市北区","jp_add_2":"建部町宮地"},"7093122":{"post_code":"7093122","prefecture":"OKAYAMA KEN","city":"OKAYAMA SHI KITA KU","town":"TAKEBECHO YOSHIDA","perfecture_jp":"岡山県","jp_add_1":"岡山市北区","jp_add_2":"建部町吉田"},"7093102":{"post_code":"7093102","prefecture":"OKAYAMA KEN","city":"OKAYAMA SHI KITA KU","town":"TAKEBECHO WADAMINAMI","perfecture_jp":"岡山県","jp_add_1":"岡山市北区","jp_add_2":"建部町和田南"},"7092101":{"post_code":"7092101","prefecture":"OKAYAMA KEN","city":"OKAYAMA SHI KITA KU","town":"MITSU ISHIKAMI","perfecture_jp":"岡山県","jp_add_1":"岡山市北区","jp_add_2":"御津石上"},"7092105":{"post_code":"7092105","prefecture":"OKAYAMA KEN","city":"OKAYAMA SHI KITA KU","town":"MITSU ITA","perfecture_jp":"岡山県","jp_add_1":"岡山市北区","jp_add_2":"御津伊田"},"7092125":{"post_code":"7092125","prefecture":"OKAYAMA KEN","city":"OKAYAMA SHI KITA KU","town":"MITSU UKAI","perfecture_jp":"岡山県","jp_add_1":"岡山市北区","jp_add_2":"御津宇甘"},"7092121":{"post_code":"7092121","prefecture":"OKAYAMA KEN","city":"OKAYAMA SHI KITA KU","town":"MITSU UGAKI","perfecture_jp":"岡山県","jp_add_1":"岡山市北区","jp_add_2":"御津宇垣"},"7092131":{"post_code":"7092131","prefecture":"OKAYAMA KEN","city":"OKAYAMA SHI KITA KU","town":"MITSU KASE","perfecture_jp":"岡山県","jp_add_1":"岡山市北区","jp_add_2":"御津鹿瀬"},"7092126":{"post_code":"7092126","prefecture":"OKAYAMA KEN","city":"OKAYAMA SHI KITA KU","town":"MITSU KATSUO","perfecture_jp":"岡山県","jp_add_1":"岡山市北区","jp_add_2":"御津勝尾"},"7092133":{"post_code":"7092133","prefecture":"OKAYAMA KEN","city":"OKAYAMA SHI KITA KU","town":"MITSU KANAGAWA","perfecture_jp":"岡山県","jp_add_1":"岡山市北区","jp_add_2":"御津金川"},"7092111":{"post_code":"7092111","prefecture":"OKAYAMA KEN","city":"OKAYAMA SHI KITA KU","town":"MITSU KAWATAKA","perfecture_jp":"岡山県","jp_add_1":"岡山市北区","jp_add_2":"御津川高"},"7092115":{"post_code":"7092115","prefecture":"OKAYAMA KEN","city":"OKAYAMA SHI KITA KU","town":"MITSU KITANO","perfecture_jp":"岡山県","jp_add_1":"岡山市北区","jp_add_2":"御津北野"},"7092132":{"post_code":"7092132","prefecture":"OKAYAMA KEN","city":"OKAYAMA SHI KITA KU","town":"MITSU KUSO","perfecture_jp":"岡山県","jp_add_1":"岡山市北区","jp_add_2":"御津草生"},"7092112":{"post_code":"7092112","prefecture":"OKAYAMA KEN","city":"OKAYAMA SHI KITA KU","town":"MITSU KUNIGAHARA","perfecture_jp":"岡山県","jp_add_1":"岡山市北区","jp_add_2":"御津国ケ原"},"7092123":{"post_code":"7092123","prefecture":"OKAYAMA KEN","city":"OKAYAMA SHI KITA KU","town":"MITSU KOCHI","perfecture_jp":"岡山県","jp_add_1":"岡山市北区","jp_add_2":"御津河内"},"7092137":{"post_code":"7092137","prefecture":"OKAYAMA KEN","city":"OKAYAMA SHI KITA KU","town":"MITSU KOGURA","perfecture_jp":"岡山県","jp_add_1":"岡山市北区","jp_add_2":"御津虎倉"},"7092136":{"post_code":"7092136","prefecture":"OKAYAMA KEN","city":"OKAYAMA SHI KITA KU","town":"MITSU SHITORI","perfecture_jp":"岡山県","jp_add_1":"岡山市北区","jp_add_2":"御津紙工"},"7092134":{"post_code":"7092134","prefecture":"OKAYAMA KEN","city":"OKAYAMA SHI KITA KU","town":"MITSU SHIMODA","perfecture_jp":"岡山県","jp_add_1":"岡山市北区","jp_add_2":"御津下田"},"7092106":{"post_code":"7092106","prefecture":"OKAYAMA KEN","city":"OKAYAMA SHI KITA KU","town":"MITSU SHINJO","perfecture_jp":"岡山県","jp_add_1":"岡山市北区","jp_add_2":"御津新庄"},"7092124":{"post_code":"7092124","prefecture":"OKAYAMA KEN","city":"OKAYAMA SHI KITA KU","town":"MITSU TAKAZU","perfecture_jp":"岡山県","jp_add_1":"岡山市北区","jp_add_2":"御津高津"},"7092135":{"post_code":"7092135","prefecture":"OKAYAMA KEN","city":"OKAYAMA SHI KITA KU","town":"MITSU NAKAIZUMI","perfecture_jp":"岡山県","jp_add_1":"岡山市北区","jp_add_2":"御津中泉"},"7092102":{"post_code":"7092102","prefecture":"OKAYAMA KEN","city":"OKAYAMA SHI KITA KU","town":"MITSU NAKAHATA","perfecture_jp":"岡山県","jp_add_1":"岡山市北区","jp_add_2":"御津中畑"},"7092114":{"post_code":"7092114","prefecture":"OKAYAMA KEN","city":"OKAYAMA SHI KITA KU","town":"MITSU NAKAMAKI","perfecture_jp":"岡山県","jp_add_1":"岡山市北区","jp_add_2":"御津中牧"},"7092116":{"post_code":"7092116","prefecture":"OKAYAMA KEN","city":"OKAYAMA SHI KITA KU","town":"MITSU NAKAYAMA","perfecture_jp":"岡山県","jp_add_1":"岡山市北区","jp_add_2":"御津中山"},"7092117":{"post_code":"7092117","prefecture":"OKAYAMA KEN","city":"OKAYAMA SHI KITA KU","town":"MITSU NONOKUCHI","perfecture_jp":"岡山県","jp_add_1":"岡山市北区","jp_add_2":"御津野々口"},"7092104":{"post_code":"7092104","prefecture":"OKAYAMA KEN","city":"OKAYAMA SHI KITA KU","town":"MITSU HIRAOKANISHI","perfecture_jp":"岡山県","jp_add_1":"岡山市北区","jp_add_2":"御津平岡西"},"7092103":{"post_code":"7092103","prefecture":"OKAYAMA KEN","city":"OKAYAMA SHI KITA KU","town":"MITSU YACHI","perfecture_jp":"岡山県","jp_add_1":"岡山市北区","jp_add_2":"御津矢知"},"7092107":{"post_code":"7092107","prefecture":"OKAYAMA KEN","city":"OKAYAMA SHI KITA KU","town":"MITSU YABARA","perfecture_jp":"岡山県","jp_add_1":"岡山市北区","jp_add_2":"御津矢原"},"7092122":{"post_code":"7092122","prefecture":"OKAYAMA KEN","city":"OKAYAMA SHI KITA KU","town":"MITSU YOSHIO","perfecture_jp":"岡山県","jp_add_1":"岡山市北区","jp_add_2":"御津吉尾"},"7092113":{"post_code":"7092113","prefecture":"OKAYAMA KEN","city":"OKAYAMA SHI KITA KU","town":"MITSU YOSHITANI","perfecture_jp":"岡山県","jp_add_1":"岡山市北区","jp_add_2":"御津芳谷"},"7090605":{"post_code":"7090605","prefecture":"OKAYAMA KEN","city":"OKAYAMA SHI HIGASHI KU","town":"ASAKAWA","perfecture_jp":"岡山県","jp_add_1":"岡山市東区","jp_add_2":"浅川"},"7090612":{"post_code":"7090612","prefecture":"OKAYAMA KEN","city":"OKAYAMA SHI HIGASHI KU","town":"UCHIGAHARA","perfecture_jp":"岡山県","jp_add_1":"岡山市東区","jp_add_2":"内ケ原"},"7090607":{"post_code":"7090607","prefecture":"OKAYAMA KEN","city":"OKAYAMA SHI HIGASHI KU","town":"URAMA","perfecture_jp":"岡山県","jp_add_1":"岡山市東区","jp_add_2":"浦間"},"7090635":{"post_code":"7090635","prefecture":"OKAYAMA KEN","city":"OKAYAMA SHI HIGASHI KU","town":"KUSAKABE","perfecture_jp":"岡山県","jp_add_1":"岡山市東区","jp_add_2":"草ケ部"},"7090615":{"post_code":"7090615","prefecture":"OKAYAMA KEN","city":"OKAYAMA SHI HIGASHI KU","town":"SAIZAKI","perfecture_jp":"岡山県","jp_add_1":"岡山市東区","jp_add_2":"才崎"},"7090625":{"post_code":"7090625","prefecture":"OKAYAMA KEN","city":"OKAYAMA SHI HIGASHI KU","town":"JOTOKITAGATA","perfecture_jp":"岡山県","jp_add_1":"岡山市東区","jp_add_2":"上道北方"},"7090624":{"post_code":"7090624","prefecture":"OKAYAMA KEN","city":"OKAYAMA SHI HIGASHI KU","town":"JOTODAINISHI","perfecture_jp":"岡山県","jp_add_1":"岡山市東区","jp_add_2":"城東台西"},"7090622":{"post_code":"7090622","prefecture":"OKAYAMA KEN","city":"OKAYAMA SHI HIGASHI KU","town":"JOTODAIHIGASHI","perfecture_jp":"岡山県","jp_add_1":"岡山市東区","jp_add_2":"城東台東"},"7090623":{"post_code":"7090623","prefecture":"OKAYAMA KEN","city":"OKAYAMA SHI HIGASHI KU","town":"JOTODAIMINAMI","perfecture_jp":"岡山県","jp_add_1":"岡山市東区","jp_add_2":"城東台南"},"7090634":{"post_code":"7090634","prefecture":"OKAYAMA KEN","city":"OKAYAMA SHI HIGASHI KU","town":"SUNABA","perfecture_jp":"岡山県","jp_add_1":"岡山市東区","jp_add_2":"砂場"},"7090603":{"post_code":"7090603","prefecture":"OKAYAMA KEN","city":"OKAYAMA SHI HIGASHI KU","town":"SEISO","perfecture_jp":"岡山県","jp_add_1":"岡山市東区","jp_add_2":"西祖"},"7090853":{"post_code":"7090853","prefecture":"OKAYAMA KEN","city":"OKAYAMA SHI HIGASHI KU","town":"SETOCHO ASAHIGAOKA","perfecture_jp":"岡山県","jp_add_1":"岡山市東区","jp_add_2":"瀬戸町旭ヶ丘"},"7090854":{"post_code":"7090854","prefecture":"OKAYAMA KEN","city":"OKAYAMA SHI HIGASHI KU","town":"SETOCHO EJIRI","perfecture_jp":"岡山県","jp_add_1":"岡山市東区","jp_add_2":"瀬戸町江尻"},"7090851":{"post_code":"7090851","prefecture":"OKAYAMA KEN","city":"OKAYAMA SHI HIGASHI KU","town":"SETOCHO OCHI","perfecture_jp":"岡山県","jp_add_1":"岡山市東区","jp_add_2":"瀬戸町大内"},"7090855":{"post_code":"7090855","prefecture":"OKAYAMA KEN","city":"OKAYAMA SHI HIGASHI KU","town":"SETOCHO OKI","perfecture_jp":"岡山県","jp_add_1":"岡山市東区","jp_add_2":"瀬戸町沖"},"7090845":{"post_code":"7090845","prefecture":"OKAYAMA KEN","city":"OKAYAMA SHI HIGASHI KU","town":"SETOCHO KAJIYA","perfecture_jp":"岡山県","jp_add_1":"岡山市東区","jp_add_2":"瀬戸町鍛冶屋"},"7090852":{"post_code":"7090852","prefecture":"OKAYAMA KEN","city":"OKAYAMA SHI HIGASHI KU","town":"SETOCHO KATASE","perfecture_jp":"岡山県","jp_add_1":"岡山市東区","jp_add_2":"瀬戸町肩脊"},"7090863":{"post_code":"7090863","prefecture":"OKAYAMA KEN","city":"OKAYAMA SHI HIGASHI KU","town":"SETOCHO KANONJI","perfecture_jp":"岡山県","jp_add_1":"岡山市東区","jp_add_2":"瀬戸町観音寺"},"7090865":{"post_code":"7090865","prefecture":"OKAYAMA KEN","city":"OKAYAMA SHI HIGASHI KU","town":"SETOCHO KIKUYAMA","perfecture_jp":"岡山県","jp_add_1":"岡山市東区","jp_add_2":"瀬戸町菊山"},"7090876":{"post_code":"7090876","prefecture":"OKAYAMA KEN","city":"OKAYAMA SHI HIGASHI KU","town":"SETOCHO KOMYOTANI","perfecture_jp":"岡山県","jp_add_1":"岡山市東区","jp_add_2":"瀬戸町光明谷"},"7090873":{"post_code":"7090873","prefecture":"OKAYAMA KEN","city":"OKAYAMA SHI HIGASHI KU","town":"SETOCHO SAKANE","perfecture_jp":"岡山県","jp_add_1":"岡山市東区","jp_add_2":"瀬戸町坂根"},"7090862":{"post_code":"7090862","prefecture":"OKAYAMA KEN","city":"OKAYAMA SHI HIGASHI KU","town":"SETOCHO SASAOKA","perfecture_jp":"岡山県","jp_add_1":"岡山市東区","jp_add_2":"瀬戸町笹岡"},"7090871":{"post_code":"7090871","prefecture":"OKAYAMA KEN","city":"OKAYAMA SHI HIGASHI KU","town":"SETOCHO SHIONO","perfecture_jp":"岡山県","jp_add_1":"岡山市東区","jp_add_2":"瀬戸町塩納"},"7090856":{"post_code":"7090856","prefecture":"OKAYAMA KEN","city":"OKAYAMA SHI HIGASHI KU","town":"SETOCHO SHIMO","perfecture_jp":"岡山県","jp_add_1":"岡山市東区","jp_add_2":"瀬戸町下"},"7090864":{"post_code":"7090864","prefecture":"OKAYAMA KEN","city":"OKAYAMA SHI HIGASHI KU","town":"SETOCHO SHUKUOKU","perfecture_jp":"岡山県","jp_add_1":"岡山市東区","jp_add_2":"瀬戸町宿奥"},"7090861":{"post_code":"7090861","prefecture":"OKAYAMA KEN","city":"OKAYAMA SHI HIGASHI KU","town":"SETOCHO SETO","perfecture_jp":"岡山県","jp_add_1":"岡山市東区","jp_add_2":"瀬戸町瀬戸"},"7090872":{"post_code":"7090872","prefecture":"OKAYAMA KEN","city":"OKAYAMA SHI HIGASHI KU","town":"SETOCHO SODO","perfecture_jp":"岡山県","jp_add_1":"岡山市東区","jp_add_2":"瀬戸町宗堂"},"7090846":{"post_code":"7090846","prefecture":"OKAYAMA KEN","city":"OKAYAMA SHI HIGASHI KU","town":"SETOCHO DAII","perfecture_jp":"岡山県","jp_add_1":"岡山市東区","jp_add_2":"瀬戸町大井"},"7090875":{"post_code":"7090875","prefecture":"OKAYAMA KEN","city":"OKAYAMA SHI HIGASHI KU","town":"SETOCHO TERAJI","perfecture_jp":"岡山県","jp_add_1":"岡山市東区","jp_add_2":"瀬戸町寺地"},"7090842":{"post_code":"7090842","prefecture":"OKAYAMA KEN","city":"OKAYAMA SHI HIGASHI KU","town":"SETOCHO FUTSUKAICHI","perfecture_jp":"岡山県","jp_add_1":"岡山市東区","jp_add_2":"瀬戸町二日市"},"7090841":{"post_code":"7090841","prefecture":"OKAYAMA KEN","city":"OKAYAMA SHI HIGASHI KU","town":"SETOCHO MANTOMI","perfecture_jp":"岡山県","jp_add_1":"岡山市東区","jp_add_2":"瀬戸町万富"},"7090844":{"post_code":"7090844","prefecture":"OKAYAMA KEN","city":"OKAYAMA SHI HIGASHI KU","town":"SETOCHO MINAMIGATA","perfecture_jp":"岡山県","jp_add_1":"岡山市東区","jp_add_2":"瀬戸町南方"},"7090874":{"post_code":"7090874","prefecture":"OKAYAMA KEN","city":"OKAYAMA SHI HIGASHI KU","town":"SETOCHO MORISUE","perfecture_jp":"岡山県","jp_add_1":"岡山市東区","jp_add_2":"瀬戸町森末"},"7090843":{"post_code":"7090843","prefecture":"OKAYAMA KEN","city":"OKAYAMA SHI HIGASHI KU","town":"SETOCHO YUGE","perfecture_jp":"岡山県","jp_add_1":"岡山市東区","jp_add_2":"瀬戸町弓削"},"7090614":{"post_code":"7090614","prefecture":"OKAYAMA KEN","city":"OKAYAMA SHI HIGASHI KU","town":"TAKEWARA","perfecture_jp":"岡山県","jp_add_1":"岡山市東区","jp_add_2":"竹原"},"7090636":{"post_code":"7090636","prefecture":"OKAYAMA KEN","city":"OKAYAMA SHI HIGASHI KU","town":"TANISHIRI","perfecture_jp":"岡山県","jp_add_1":"岡山市東区","jp_add_2":"谷尻"},"7090604":{"post_code":"7090604","prefecture":"OKAYAMA KEN","city":"OKAYAMA SHI HIGASHI KU","town":"TERAYAMA","perfecture_jp":"岡山県","jp_add_1":"岡山市東区","jp_add_2":"寺山"},"7090626":{"post_code":"7090626","prefecture":"OKAYAMA KEN","city":"OKAYAMA SHI HIGASHI KU","town":"NAKAO","perfecture_jp":"岡山県","jp_add_1":"岡山市東区","jp_add_2":"中尾"},"7090611":{"post_code":"7090611","prefecture":"OKAYAMA KEN","city":"OKAYAMA SHI HIGASHI KU","town":"NARABARA","perfecture_jp":"岡山県","jp_add_1":"岡山市東区","jp_add_2":"楢原"},"7090633":{"post_code":"7090633","prefecture":"OKAYAMA KEN","city":"OKAYAMA SHI HIGASHI KU","town":"NISHIHIRAJIMA","perfecture_jp":"岡山県","jp_add_1":"岡山市東区","jp_add_2":"西平島"},"7090621":{"post_code":"7090621","prefecture":"OKAYAMA KEN","city":"OKAYAMA SHI HIGASHI KU","town":"NUMA","perfecture_jp":"岡山県","jp_add_1":"岡山市東区","jp_add_2":"沼"},"7090631":{"post_code":"7090631","prefecture":"OKAYAMA KEN","city":"OKAYAMA SHI HIGASHI KU","town":"HIGASHIHIRAJIMA","perfecture_jp":"岡山県","jp_add_1":"岡山市東区","jp_add_2":"東平島"},"7090602":{"post_code":"7090602","prefecture":"OKAYAMA KEN","city":"OKAYAMA SHI HIGASHI KU","town":"HITOICHI","perfecture_jp":"岡山県","jp_add_1":"岡山市東区","jp_add_2":"一日市"},"7090632":{"post_code":"7090632","prefecture":"OKAYAMA KEN","city":"OKAYAMA SHI HIGASHI KU","town":"MINAMIKOZU","perfecture_jp":"岡山県","jp_add_1":"岡山市東区","jp_add_2":"南古都"},"7090613":{"post_code":"7090613","prefecture":"OKAYAMA KEN","city":"OKAYAMA SHI HIGASHI KU","town":"MOMOEZUKI","perfecture_jp":"岡山県","jp_add_1":"岡山市東区","jp_add_2":"百枝月"},"7090606":{"post_code":"7090606","prefecture":"OKAYAMA KEN","city":"OKAYAMA SHI HIGASHI KU","town":"YAI","perfecture_jp":"岡山県","jp_add_1":"岡山市東区","jp_add_2":"矢井"},"7090601":{"post_code":"7090601","prefecture":"OKAYAMA KEN","city":"OKAYAMA SHI HIGASHI KU","town":"YOSHII","perfecture_jp":"岡山県","jp_add_1":"岡山市東区","jp_add_2":"吉井"},"7091212":{"post_code":"7091212","prefecture":"OKAYAMA KEN","city":"OKAYAMA SHI MINAMI KU","town":"OKUHAZAKAWA","perfecture_jp":"岡山県","jp_add_1":"岡山市南区","jp_add_2":"奥迫川"},"7091215":{"post_code":"7091215","prefecture":"OKAYAMA KEN","city":"OKAYAMA SHI MINAMI KU","town":"KATAOKA","perfecture_jp":"岡山県","jp_add_1":"岡山市南区","jp_add_2":"片岡"},"7091214":{"post_code":"7091214","prefecture":"OKAYAMA KEN","city":"OKAYAMA SHI MINAMI KU","town":"KAWAHARI","perfecture_jp":"岡山県","jp_add_1":"岡山市南区","jp_add_2":"川張"},"7091201":{"post_code":"7091201","prefecture":"OKAYAMA KEN","city":"OKAYAMA SHI MINAMI KU","town":"KITANANAKU","perfecture_jp":"岡山県","jp_add_1":"岡山市南区","jp_add_2":"北七区"},"7091216":{"post_code":"7091216","prefecture":"OKAYAMA KEN","city":"OKAYAMA SHI MINAMI KU","town":"SOZU","perfecture_jp":"岡山県","jp_add_1":"岡山市南区","jp_add_2":"宗津"},"7091203":{"post_code":"7091203","prefecture":"OKAYAMA KEN","city":"OKAYAMA SHI MINAMI KU","town":"NISHIKOYODAI","perfecture_jp":"岡山県","jp_add_1":"岡山市南区","jp_add_2":"西紅陽台"},"7091204":{"post_code":"7091204","prefecture":"OKAYAMA KEN","city":"OKAYAMA SHI MINAMI KU","town":"NISHITAKASAKI","perfecture_jp":"岡山県","jp_add_1":"岡山市南区","jp_add_2":"西高崎"},"7091202":{"post_code":"7091202","prefecture":"OKAYAMA KEN","city":"OKAYAMA SHI MINAMI KU","town":"NISHINANAKU","perfecture_jp":"岡山県","jp_add_1":"岡山市南区","jp_add_2":"西七区"},"7091211":{"post_code":"7091211","prefecture":"OKAYAMA KEN","city":"OKAYAMA SHI MINAMI KU","town":"HAZAKAWA","perfecture_jp":"岡山県","jp_add_1":"岡山市南区","jp_add_2":"迫川"},"7091213":{"post_code":"7091213","prefecture":"OKAYAMA KEN","city":"OKAYAMA SHI MINAMI KU","town":"HIKOSAKI","perfecture_jp":"岡山県","jp_add_1":"岡山市南区","jp_add_2":"彦崎"},"7093951":{"post_code":"7093951","prefecture":"OKAYAMA KEN","city":"TSUYAMA SHI","town":"ABA","perfecture_jp":"岡山県","jp_add_1":"津山市","jp_add_2":"阿波"},"7094615":{"post_code":"7094615","prefecture":"OKAYAMA KEN","city":"TSUYAMA SHI","town":"ISHIKI","perfecture_jp":"岡山県","jp_add_1":"津山市","jp_add_2":"一色"},"7093915":{"post_code":"7093915","prefecture":"OKAYAMA KEN","city":"TSUYAMA SHI","town":"KAMOCHO AOYAGI","perfecture_jp":"岡山県","jp_add_1":"津山市","jp_add_2":"加茂町青柳"},"7093907":{"post_code":"7093907","prefecture":"OKAYAMA KEN","city":"TSUYAMA SHI","town":"KAMOCHO UNO","perfecture_jp":"岡山県","jp_add_1":"津山市","jp_add_2":"加茂町宇野"},"7093924":{"post_code":"7093924","prefecture":"OKAYAMA KEN","city":"TSUYAMA SHI","town":"KAMOCHO OBUCHI","perfecture_jp":"岡山県","jp_add_1":"津山市","jp_add_2":"加茂町小渕"},"7093912":{"post_code":"7093912","prefecture":"OKAYAMA KEN","city":"TSUYAMA SHI","town":"KAMOCHO KAWAI","perfecture_jp":"岡山県","jp_add_1":"津山市","jp_add_2":"加茂町河井"},"7093921":{"post_code":"7093921","prefecture":"OKAYAMA KEN","city":"TSUYAMA SHI","town":"KAMOCHO KUGO","perfecture_jp":"岡山県","jp_add_1":"津山市","jp_add_2":"加茂町公郷"},"7093901":{"post_code":"7093901","prefecture":"OKAYAMA KEN","city":"TSUYAMA SHI","town":"KAMOCHO KURAMI","perfecture_jp":"岡山県","jp_add_1":"津山市","jp_add_2":"加茂町倉見"},"7093902":{"post_code":"7093902","prefecture":"OKAYAMA KEN","city":"TSUYAMA SHI","town":"KAMOCHO KUROGI","perfecture_jp":"岡山県","jp_add_1":"津山市","jp_add_2":"加茂町黒木"},"7093923":{"post_code":"7093923","prefecture":"OKAYAMA KEN","city":"TSUYAMA SHI","town":"KAMOCHO KUWABARA","perfecture_jp":"岡山県","jp_add_1":"津山市","jp_add_2":"加茂町桑原"},"7093906":{"post_code":"7093906","prefecture":"OKAYAMA KEN","city":"TSUYAMA SHI","town":"KAMOCHO KONAKABARA","perfecture_jp":"岡山県","jp_add_1":"津山市","jp_add_2":"加茂町小中原"},"7093904":{"post_code":"7093904","prefecture":"OKAYAMA KEN","city":"TSUYAMA SHI","town":"KAMOCHO SAINOTANI","perfecture_jp":"岡山県","jp_add_1":"津山市","jp_add_2":"加茂町斉野谷"},"7093913":{"post_code":"7093913","prefecture":"OKAYAMA KEN","city":"TSUYAMA SHI","town":"KAMOCHO SANGE","perfecture_jp":"岡山県","jp_add_1":"津山市","jp_add_2":"加茂町山下"},"7093922":{"post_code":"7093922","prefecture":"OKAYAMA KEN","city":"TSUYAMA SHI","town":"KAMOCHO SHIMOTSUGAWA","perfecture_jp":"岡山県","jp_add_1":"津山市","jp_add_2":"加茂町下津川"},"7093905":{"post_code":"7093905","prefecture":"OKAYAMA KEN","city":"TSUYAMA SHI","town":"KAMOCHO TATSUCHU","perfecture_jp":"岡山県","jp_add_1":"津山市","jp_add_2":"加茂町塔中"},"7093914":{"post_code":"7093914","prefecture":"OKAYAMA KEN","city":"TSUYAMA SHI","town":"KAMOCHO CHIWA","perfecture_jp":"岡山県","jp_add_1":"津山市","jp_add_2":"加茂町知和"},"7093935":{"post_code":"7093935","prefecture":"OKAYAMA KEN","city":"TSUYAMA SHI","town":"KAMOCHO DODO","perfecture_jp":"岡山県","jp_add_1":"津山市","jp_add_2":"加茂町百々"},"7093903":{"post_code":"7093903","prefecture":"OKAYAMA KEN","city":"TSUYAMA SHI","town":"KAMOCHO TOKA","perfecture_jp":"岡山県","jp_add_1":"津山市","jp_add_2":"加茂町戸賀"},"7093931":{"post_code":"7093931","prefecture":"OKAYAMA KEN","city":"TSUYAMA SHI","town":"KAMOCHO NAKABARA","perfecture_jp":"岡山県","jp_add_1":"津山市","jp_add_2":"加茂町中原"},"7093934":{"post_code":"7093934","prefecture":"OKAYAMA KEN","city":"TSUYAMA SHI","town":"KAMOCHO NARAI","perfecture_jp":"岡山県","jp_add_1":"津山市","jp_add_2":"加茂町楢井"},"7093932":{"post_code":"7093932","prefecture":"OKAYAMA KEN","city":"TSUYAMA SHI","town":"KAMOCHO NARIYASU","perfecture_jp":"岡山県","jp_add_1":"津山市","jp_add_2":"加茂町成安"},"7093908":{"post_code":"7093908","prefecture":"OKAYAMA KEN","city":"TSUYAMA SHI","town":"KAMOCHO HARAGUCHI","perfecture_jp":"岡山県","jp_add_1":"津山市","jp_add_2":"加茂町原口"},"7093911":{"post_code":"7093911","prefecture":"OKAYAMA KEN","city":"TSUYAMA SHI","town":"KAMOCHO MONOMI","perfecture_jp":"岡山県","jp_add_1":"津山市","jp_add_2":"加茂町物見"},"7093933":{"post_code":"7093933","prefecture":"OKAYAMA KEN","city":"TSUYAMA SHI","town":"KAMOCHO YUKISHIGE","perfecture_jp":"岡山県","jp_add_1":"津山市","jp_add_2":"加茂町行重"},"7094612":{"post_code":"7094612","prefecture":"OKAYAMA KEN","city":"TSUYAMA SHI","town":"KUME","perfecture_jp":"岡山県","jp_add_1":"津山市","jp_add_2":"くめ"},"7094614":{"post_code":"7094614","prefecture":"OKAYAMA KEN","city":"TSUYAMA SHI","town":"KUMEKAWAMINAMI","perfecture_jp":"岡山県","jp_add_1":"津山市","jp_add_2":"久米川南"},"7094624":{"post_code":"7094624","prefecture":"OKAYAMA KEN","city":"TSUYAMA SHI","town":"KUWAKAMI","perfecture_jp":"岡山県","jp_add_1":"津山市","jp_add_2":"桑上"},"7094623":{"post_code":"7094623","prefecture":"OKAYAMA KEN","city":"TSUYAMA SHI","town":"KUWASHIMO","perfecture_jp":"岡山県","jp_add_1":"津山市","jp_add_2":"桑下"},"7094621":{"post_code":"7094621","prefecture":"OKAYAMA KEN","city":"TSUYAMA SHI","town":"KOJIRO","perfecture_jp":"岡山県","jp_add_1":"津山市","jp_add_2":"神代"},"7094625":{"post_code":"7094625","prefecture":"OKAYAMA KEN","city":"TSUYAMA SHI","town":"SATOKUMON","perfecture_jp":"岡山県","jp_add_1":"津山市","jp_add_2":"里公文"},"7094626":{"post_code":"7094626","prefecture":"OKAYAMA KEN","city":"TSUYAMA SHI","town":"SATOKUMONKAMI","perfecture_jp":"岡山県","jp_add_1":"津山市","jp_add_2":"里公文上"},"7094605":{"post_code":"7094605","prefecture":"OKAYAMA KEN","city":"TSUYAMA SHI","town":"TSUBOIKAMI","perfecture_jp":"岡山県","jp_add_1":"津山市","jp_add_2":"坪井上"},"7094604":{"post_code":"7094604","prefecture":"OKAYAMA KEN","city":"TSUYAMA SHI","town":"TSUBOISHIMO","perfecture_jp":"岡山県","jp_add_1":"津山市","jp_add_2":"坪井下"},"7094622":{"post_code":"7094622","prefecture":"OKAYAMA KEN","city":"TSUYAMA SHI","town":"TOWAKI","perfecture_jp":"岡山県","jp_add_1":"津山市","jp_add_2":"戸脇"},"7094606":{"post_code":"7094606","prefecture":"OKAYAMA KEN","city":"TSUYAMA SHI","town":"NAKAGITAKAMI","perfecture_jp":"岡山県","jp_add_1":"津山市","jp_add_2":"中北上"},"7094603":{"post_code":"7094603","prefecture":"OKAYAMA KEN","city":"TSUYAMA SHI","town":"NAKAGITASHIMO","perfecture_jp":"岡山県","jp_add_1":"津山市","jp_add_2":"中北下"},"7094631":{"post_code":"7094631","prefecture":"OKAYAMA KEN","city":"TSUYAMA SHI","town":"FUKUDASHIMO","perfecture_jp":"岡山県","jp_add_1":"津山市","jp_add_2":"福田下"},"7094616":{"post_code":"7094616","prefecture":"OKAYAMA KEN","city":"TSUYAMA SHI","town":"MINAMIGATANAKA","perfecture_jp":"岡山県","jp_add_1":"津山市","jp_add_2":"南方中"},"7094613":{"post_code":"7094613","prefecture":"OKAYAMA KEN","city":"TSUYAMA SHI","town":"MIYAO","perfecture_jp":"岡山県","jp_add_1":"津山市","jp_add_2":"宮尾"},"7094601":{"post_code":"7094601","prefecture":"OKAYAMA KEN","city":"TSUYAMA SHI","town":"MIYABEKAMI","perfecture_jp":"岡山県","jp_add_1":"津山市","jp_add_2":"宮部上"},"7094602":{"post_code":"7094602","prefecture":"OKAYAMA KEN","city":"TSUYAMA SHI","town":"MIYABESHIMO","perfecture_jp":"岡山県","jp_add_1":"津山市","jp_add_2":"宮部下"},"7094632":{"post_code":"7094632","prefecture":"OKAYAMA KEN","city":"TSUYAMA SHI","town":"YASA","perfecture_jp":"岡山県","jp_add_1":"津山市","jp_add_2":"八社"},"7094633":{"post_code":"7094633","prefecture":"OKAYAMA KEN","city":"TSUYAMA SHI","town":"YUKIKAMI","perfecture_jp":"岡山県","jp_add_1":"津山市","jp_add_2":"油木上"},"7094635":{"post_code":"7094635","prefecture":"OKAYAMA KEN","city":"TSUYAMA SHI","town":"YUKIKITA","perfecture_jp":"岡山県","jp_add_1":"津山市","jp_add_2":"油木北"},"7094634":{"post_code":"7094634","prefecture":"OKAYAMA KEN","city":"TSUYAMA SHI","town":"YUKISHIMO","perfecture_jp":"岡山県","jp_add_1":"津山市","jp_add_2":"油木下"},"7094611":{"post_code":"7094611","prefecture":"OKAYAMA KEN","city":"TSUYAMA SHI","town":"RYOKE","perfecture_jp":"岡山県","jp_add_1":"津山市","jp_add_2":"領家"},"7090213":{"post_code":"7090213","prefecture":"OKAYAMA KEN","city":"BIZEN SHI","town":"YOSHINAGACHO IMASAKI","perfecture_jp":"岡山県","jp_add_1":"備前市","jp_add_2":"吉永町今崎"},"7090226":{"post_code":"7090226","prefecture":"OKAYAMA KEN","city":"BIZEN SHI","town":"YOSHINAGACHO IWASAKI","perfecture_jp":"岡山県","jp_add_1":"備前市","jp_add_2":"吉永町岩崎"},"7090301":{"post_code":"7090301","prefecture":"OKAYAMA KEN","city":"BIZEN SHI","town":"YOSHINAGACHO KAGAMI","perfecture_jp":"岡山県","jp_add_1":"備前市","jp_add_2":"吉永町加賀美"},"7090221":{"post_code":"7090221","prefecture":"OKAYAMA KEN","city":"BIZEN SHI","town":"YOSHINAGACHO KANADANI","perfecture_jp":"岡山県","jp_add_1":"備前市","jp_add_2":"吉永町金谷"},"7090212":{"post_code":"7090212","prefecture":"OKAYAMA KEN","city":"BIZEN SHI","town":"YOSHINAGACHO KONEHON","perfecture_jp":"岡山県","jp_add_1":"備前市","jp_add_2":"吉永町神根本"},"7090304":{"post_code":"7090304","prefecture":"OKAYAMA KEN","city":"BIZEN SHI","town":"YOSHINAGACHO SASAME","perfecture_jp":"岡山県","jp_add_1":"備前市","jp_add_2":"吉永町笹目"},"7090211":{"post_code":"7090211","prefecture":"OKAYAMA KEN","city":"BIZEN SHI","town":"YOSHINAGACHO TAKATA","perfecture_jp":"岡山県","jp_add_1":"備前市","jp_add_2":"吉永町高田"},"7090302":{"post_code":"7090302","prefecture":"OKAYAMA KEN","city":"BIZEN SHI","town":"YOSHINAGACHO TAMA","perfecture_jp":"岡山県","jp_add_1":"備前市","jp_add_2":"吉永町多麻"},"7090303":{"post_code":"7090303","prefecture":"OKAYAMA KEN","city":"BIZEN SHI","town":"YOSHINAGACHO TSURUGI","perfecture_jp":"岡山県","jp_add_1":"備前市","jp_add_2":"吉永町都留岐"},"7090222":{"post_code":"7090222","prefecture":"OKAYAMA KEN","city":"BIZEN SHI","town":"YOSHINAGACHO FUKUMITSU","perfecture_jp":"岡山県","jp_add_1":"備前市","jp_add_2":"吉永町福満"},"7090225":{"post_code":"7090225","prefecture":"OKAYAMA KEN","city":"BIZEN SHI","town":"YOSHINAGACHO MITSUMATA","perfecture_jp":"岡山県","jp_add_1":"備前市","jp_add_2":"吉永町三股"},"7090223":{"post_code":"7090223","prefecture":"OKAYAMA KEN","city":"BIZEN SHI","town":"YOSHINAGACHO MINAMIGATA","perfecture_jp":"岡山県","jp_add_1":"備前市","jp_add_2":"吉永町南方"},"7090224":{"post_code":"7090224","prefecture":"OKAYAMA KEN","city":"BIZEN SHI","town":"YOSHINAGACHO YOSHINAGANAKA","perfecture_jp":"岡山県","jp_add_1":"備前市","jp_add_2":"吉永町吉永中"},"7090214":{"post_code":"7090214","prefecture":"OKAYAMA KEN","city":"BIZEN SHI","town":"YOSHINAGACHO WAIDANI","perfecture_jp":"岡山県","jp_add_1":"備前市","jp_add_2":"吉永町和意谷"},"7090800":{"post_code":"7090800","prefecture":"OKAYAMA KEN","city":"AKAIWA SHI","town":"IKANIKEISAIGANAIBAAI","perfecture_jp":"岡山県","jp_add_1":"赤磐市","jp_add_2":""},"7090831":{"post_code":"7090831","prefecture":"OKAYAMA KEN","city":"AKAIWA SHI","town":"ITSUKAICHI","perfecture_jp":"岡山県","jp_add_1":"赤磐市","jp_add_2":"五日市"},"7090822":{"post_code":"7090822","prefecture":"OKAYAMA KEN","city":"AKAIWA SHI","town":"IWATA","perfecture_jp":"岡山県","jp_add_1":"赤磐市","jp_add_2":"岩田"},"7090711":{"post_code":"7090711","prefecture":"OKAYAMA KEN","city":"AKAIWA SHI","town":"ENKOJI","perfecture_jp":"岡山県","jp_add_1":"赤磐市","jp_add_2":"円光寺"},"7090702":{"post_code":"7090702","prefecture":"OKAYAMA KEN","city":"AKAIWA SHI","town":"OKA","perfecture_jp":"岡山県","jp_add_1":"赤磐市","jp_add_2":"岡"},"7090713":{"post_code":"7090713","prefecture":"OKAYAMA KEN","city":"AKAIWA SHI","town":"OKUYOSHIHARA","perfecture_jp":"岡山県","jp_add_1":"赤磐市","jp_add_2":"奥吉原"},"7090717":{"post_code":"7090717","prefecture":"OKAYAMA KEN","city":"AKAIWA SHI","town":"OSEGI","perfecture_jp":"岡山県","jp_add_1":"赤磐市","jp_add_2":"小瀬木"},"7090806":{"post_code":"7090806","prefecture":"OKAYAMA KEN","city":"AKAIWA SHI","town":"ODANI","perfecture_jp":"岡山県","jp_add_1":"赤磐市","jp_add_2":"尾谷"},"7090733":{"post_code":"7090733","prefecture":"OKAYAMA KEN","city":"AKAIWA SHI","town":"KAMAKAMI","perfecture_jp":"岡山県","jp_add_1":"赤磐市","jp_add_2":"可真上"},"7090732":{"post_code":"7090732","prefecture":"OKAYAMA KEN","city":"AKAIWA SHI","town":"KAMASHIMO","perfecture_jp":"岡山県","jp_add_1":"赤磐市","jp_add_2":"可真下"},"7090817":{"post_code":"7090817","prefecture":"OKAYAMA KEN","city":"AKAIWA SHI","town":"KAMIICHI","perfecture_jp":"岡山県","jp_add_1":"赤磐市","jp_add_2":"上市"},"7090837":{"post_code":"7090837","prefecture":"OKAYAMA KEN","city":"AKAIWA SHI","town":"KAMINIBO","perfecture_jp":"岡山県","jp_add_1":"赤磐市","jp_add_2":"上仁保"},"7090834":{"post_code":"7090834","prefecture":"OKAYAMA KEN","city":"AKAIWA SHI","town":"KAMOSAKI","perfecture_jp":"岡山県","jp_add_1":"赤磐市","jp_add_2":"鴨前"},"7090719":{"post_code":"7090719","prefecture":"OKAYAMA KEN","city":"AKAIWA SHI","town":"KAWATAHARA","perfecture_jp":"岡山県","jp_add_1":"赤磐市","jp_add_2":"河田原"},"7090833":{"post_code":"7090833","prefecture":"OKAYAMA KEN","city":"AKAIWA SHI","town":"KUMAZAKI","perfecture_jp":"岡山県","jp_add_1":"赤磐市","jp_add_2":"熊崎"},"7090801":{"post_code":"7090801","prefecture":"OKAYAMA KEN","city":"AKAIWA SHI","town":"KODA","perfecture_jp":"岡山県","jp_add_1":"赤磐市","jp_add_2":"神田"},"7090821":{"post_code":"7090821","prefecture":"OKAYAMA KEN","city":"AKAIWA SHI","town":"KOMOTO","perfecture_jp":"岡山県","jp_add_1":"赤磐市","jp_add_2":"河本"},"7090813":{"post_code":"7090813","prefecture":"OKAYAMA KEN","city":"AKAIWA SHI","town":"SAIDOMI","perfecture_jp":"岡山県","jp_add_1":"赤磐市","jp_add_2":"斎富"},"7090802":{"post_code":"7090802","prefecture":"OKAYAMA KEN","city":"AKAIWA SHI","town":"SAKURAGAOKANISHI","perfecture_jp":"岡山県","jp_add_1":"赤磐市","jp_add_2":"桜が丘西"},"7090721":{"post_code":"7090721","prefecture":"OKAYAMA KEN","city":"AKAIWA SHI","town":"SAKURAGAOKAHIGASHI","perfecture_jp":"岡山県","jp_add_1":"赤磐市","jp_add_2":"桜が丘東"},"7090706":{"post_code":"7090706","prefecture":"OKAYAMA KEN","city":"AKAIWA SHI","town":"SAKO","perfecture_jp":"岡山県","jp_add_1":"赤磐市","jp_add_2":"佐古"},"7090704":{"post_code":"7090704","prefecture":"OKAYAMA KEN","city":"AKAIWA SHI","town":"SAWAHARA","perfecture_jp":"岡山県","jp_add_1":"赤磐市","jp_add_2":"沢原"},"7090827":{"post_code":"7090827","prefecture":"OKAYAMA KEN","city":"AKAIWA SHI","town":"SANYO","perfecture_jp":"岡山県","jp_add_1":"赤磐市","jp_add_2":"山陽"},"7090816":{"post_code":"7090816","prefecture":"OKAYAMA KEN","city":"AKAIWA SHI","town":"SHIMOICHI","perfecture_jp":"岡山県","jp_add_1":"赤磐市","jp_add_2":"下市"},"7090836":{"post_code":"7090836","prefecture":"OKAYAMA KEN","city":"AKAIWA SHI","town":"SHIMONIBO","perfecture_jp":"岡山県","jp_add_1":"赤磐市","jp_add_2":"下仁保"},"7090701":{"post_code":"7090701","prefecture":"OKAYAMA KEN","city":"AKAIWA SHI","town":"SHAKUDA","perfecture_jp":"岡山県","jp_add_1":"赤磐市","jp_add_2":"酌田"},"7090731":{"post_code":"7090731","prefecture":"OKAYAMA KEN","city":"AKAIWA SHI","town":"SHAKURENJI","perfecture_jp":"岡山県","jp_add_1":"赤磐市","jp_add_2":"石蓮寺"},"7090832":{"post_code":"7090832","prefecture":"OKAYAMA KEN","city":"AKAIWA SHI","town":"SHOZAKI","perfecture_jp":"岡山県","jp_add_1":"赤磐市","jp_add_2":"正崎"},"7090715":{"post_code":"7090715","prefecture":"OKAYAMA KEN","city":"AKAIWA SHI","town":"SEIRIKI","perfecture_jp":"岡山県","jp_add_1":"赤磐市","jp_add_2":"勢力"},"7090714":{"post_code":"7090714","prefecture":"OKAYAMA KEN","city":"AKAIWA SHI","town":"SENDA","perfecture_jp":"岡山県","jp_add_1":"赤磐市","jp_add_2":"千躰"},"7090811":{"post_code":"7090811","prefecture":"OKAYAMA KEN","city":"AKAIWA SHI","town":"TAKAYA","perfecture_jp":"岡山県","jp_add_1":"赤磐市","jp_add_2":"高屋"},"7090815":{"post_code":"7090815","prefecture":"OKAYAMA KEN","city":"AKAIWA SHI","town":"TATSUKAWA","perfecture_jp":"岡山県","jp_add_1":"赤磐市","jp_add_2":"立川"},"7090807":{"post_code":"7090807","prefecture":"OKAYAMA KEN","city":"AKAIWA SHI","town":"TSUZAKI","perfecture_jp":"岡山県","jp_add_1":"赤磐市","jp_add_2":"津崎"},"7090718":{"post_code":"7090718","prefecture":"OKAYAMA KEN","city":"AKAIWA SHI","town":"TSURUI","perfecture_jp":"岡山県","jp_add_1":"赤磐市","jp_add_2":"釣井"},"7090838":{"post_code":"7090838","prefecture":"OKAYAMA KEN","city":"AKAIWA SHI","town":"TOARI","perfecture_jp":"岡山県","jp_add_1":"赤磐市","jp_add_2":"斗有"},"7090716":{"post_code":"7090716","prefecture":"OKAYAMA KEN","city":"AKAIWA SHI","town":"TOKUDOMI","perfecture_jp":"岡山県","jp_add_1":"赤磐市","jp_add_2":"徳富"},"7090703":{"post_code":"7090703","prefecture":"OKAYAMA KEN","city":"AKAIWA SHI","town":"TONODANI","perfecture_jp":"岡山県","jp_add_1":"赤磐市","jp_add_2":"殿谷"},"7090823":{"post_code":"7090823","prefecture":"OKAYAMA KEN","city":"AKAIWA SHI","town":"NAGAO","perfecture_jp":"岡山県","jp_add_1":"赤磐市","jp_add_2":"長尾"},"7090803":{"post_code":"7090803","prefecture":"OKAYAMA KEN","city":"AKAIWA SHI","town":"NAKASHIMA","perfecture_jp":"岡山県","jp_add_1":"赤磐市","jp_add_2":"中島"},"7090835":{"post_code":"7090835","prefecture":"OKAYAMA KEN","city":"AKAIWA SHI","town":"NISHINAKA","perfecture_jp":"岡山県","jp_add_1":"赤磐市","jp_add_2":"西中"},"7090812":{"post_code":"7090812","prefecture":"OKAYAMA KEN","city":"AKAIWA SHI","town":"NUTA","perfecture_jp":"岡山県","jp_add_1":"赤磐市","jp_add_2":"沼田"},"7090735":{"post_code":"7090735","prefecture":"OKAYAMA KEN","city":"AKAIWA SHI","town":"NOMA","perfecture_jp":"岡山県","jp_add_1":"赤磐市","jp_add_2":"野間"},"7090736":{"post_code":"7090736","prefecture":"OKAYAMA KEN","city":"AKAIWA SHI","town":"HIEDA","perfecture_jp":"岡山県","jp_add_1":"赤磐市","jp_add_2":"稗田"},"7090804":{"post_code":"7090804","prefecture":"OKAYAMA KEN","city":"AKAIWA SHI","town":"HIKOGI","perfecture_jp":"岡山県","jp_add_1":"赤磐市","jp_add_2":"日古木"},"7090805":{"post_code":"7090805","prefecture":"OKAYAMA KEN","city":"AKAIWA SHI","town":"FUTAI","perfecture_jp":"岡山県","jp_add_1":"赤磐市","jp_add_2":"二井"},"7090824":{"post_code":"7090824","prefecture":"OKAYAMA KEN","city":"AKAIWA SHI","town":"HOSAKI","perfecture_jp":"岡山県","jp_add_1":"赤磐市","jp_add_2":"穂崎"},"7090705":{"post_code":"7090705","prefecture":"OKAYAMA KEN","city":"AKAIWA SHI","town":"MATSUKI","perfecture_jp":"岡山県","jp_add_1":"赤磐市","jp_add_2":"松木"},"7090825":{"post_code":"7090825","prefecture":"OKAYAMA KEN","city":"AKAIWA SHI","town":"MAYA","perfecture_jp":"岡山県","jp_add_1":"赤磐市","jp_add_2":"馬屋"},"7090814":{"post_code":"7090814","prefecture":"OKAYAMA KEN","city":"AKAIWA SHI","town":"MINAMIGATA","perfecture_jp":"岡山県","jp_add_1":"赤磐市","jp_add_2":"南方"},"7090734":{"post_code":"7090734","prefecture":"OKAYAMA KEN","city":"AKAIWA SHI","town":"YAGAMI","perfecture_jp":"岡山県","jp_add_1":"赤磐市","jp_add_2":"弥上"},"7090712":{"post_code":"7090712","prefecture":"OKAYAMA KEN","city":"AKAIWA SHI","town":"YOSHIHARA","perfecture_jp":"岡山県","jp_add_1":"赤磐市","jp_add_2":"吉原"},"7090826":{"post_code":"7090826","prefecture":"OKAYAMA KEN","city":"AKAIWA SHI","town":"WADA","perfecture_jp":"岡山県","jp_add_1":"赤磐市","jp_add_2":"和田"},"7094232":{"post_code":"7094232","prefecture":"OKAYAMA KEN","city":"MIMASAKA SHI","town":"ASHIGOCHI","perfecture_jp":"岡山県","jp_add_1":"美作市","jp_add_2":"芦河内"},"7094205":{"post_code":"7094205","prefecture":"OKAYAMA KEN","city":"MIMASAKA SHI","town":"AWAINAKA","perfecture_jp":"岡山県","jp_add_1":"美作市","jp_add_2":"粟井中"},"7094222":{"post_code":"7094222","prefecture":"OKAYAMA KEN","city":"MIMASAKA SHI","town":"IWANABE","perfecture_jp":"岡山県","jp_add_1":"美作市","jp_add_2":"岩辺"},"7094234":{"post_code":"7094234","prefecture":"OKAYAMA KEN","city":"MIMASAKA SHI","town":"EMI","perfecture_jp":"岡山県","jp_add_1":"美作市","jp_add_2":"江見"},"7094227":{"post_code":"7094227","prefecture":"OKAYAMA KEN","city":"MIMASAKA SHI","town":"EMIYOSHIDA","perfecture_jp":"岡山県","jp_add_1":"美作市","jp_add_2":"江見吉田"},"7094223":{"post_code":"7094223","prefecture":"OKAYAMA KEN","city":"MIMASAKA SHI","town":"OUCHIDANI","perfecture_jp":"岡山県","jp_add_1":"美作市","jp_add_2":"大内谷"},"7094203":{"post_code":"7094203","prefecture":"OKAYAMA KEN","city":"MIMASAKA SHI","town":"ONO","perfecture_jp":"岡山県","jp_add_1":"美作市","jp_add_2":"小野"},"7094215":{"post_code":"7094215","prefecture":"OKAYAMA KEN","city":"MIMASAKA SHI","town":"ONOTANI","perfecture_jp":"岡山県","jp_add_1":"美作市","jp_add_2":"小ノ谷"},"7094201":{"post_code":"7094201","prefecture":"OKAYAMA KEN","city":"MIMASAKA SHI","town":"OBUSA","perfecture_jp":"岡山県","jp_add_1":"美作市","jp_add_2":"小房"},"7094253":{"post_code":"7094253","prefecture":"OKAYAMA KEN","city":"MIMASAKA SHI","town":"KAKIGAHARA","perfecture_jp":"岡山県","jp_add_1":"美作市","jp_add_2":"柿ケ原"},"7094202":{"post_code":"7094202","prefecture":"OKAYAMA KEN","city":"MIMASAKA SHI","town":"KAJIWARA","perfecture_jp":"岡山県","jp_add_1":"美作市","jp_add_2":"梶原"},"7094246":{"post_code":"7094246","prefecture":"OKAYAMA KEN","city":"MIMASAKA SHI","town":"KAMIFUKUHARA","perfecture_jp":"岡山県","jp_add_1":"美作市","jp_add_2":"上福原"},"7094236":{"post_code":"7094236","prefecture":"OKAYAMA KEN","city":"MIMASAKA SHI","town":"KAWAGITA","perfecture_jp":"岡山県","jp_add_1":"美作市","jp_add_2":"川北"},"7094255":{"post_code":"7094255","prefecture":"OKAYAMA KEN","city":"MIMASAKA SHI","town":"KUNISADA","perfecture_jp":"岡山県","jp_add_1":"美作市","jp_add_2":"国貞"},"7094211":{"post_code":"7094211","prefecture":"OKAYAMA KEN","city":"MIMASAKA SHI","town":"GOMYO","perfecture_jp":"岡山県","jp_add_1":"美作市","jp_add_2":"五名"},"7094204":{"post_code":"7094204","prefecture":"OKAYAMA KEN","city":"MIMASAKA SHI","town":"SAGISU","perfecture_jp":"岡山県","jp_add_1":"美作市","jp_add_2":"鷺巣"},"7094251":{"post_code":"7094251","prefecture":"OKAYAMA KEN","city":"MIMASAKA SHI","town":"SHIRAMIZU","perfecture_jp":"岡山県","jp_add_1":"美作市","jp_add_2":"白水"},"7094256":{"post_code":"7094256","prefecture":"OKAYAMA KEN","city":"MIMASAKA SHI","town":"SUZUKE","perfecture_jp":"岡山県","jp_add_1":"美作市","jp_add_2":"鈴家"},"7094252":{"post_code":"7094252","prefecture":"OKAYAMA KEN","city":"MIMASAKA SHI","town":"SUNAMI","perfecture_jp":"岡山県","jp_add_1":"美作市","jp_add_2":"角南"},"7094221":{"post_code":"7094221","prefecture":"OKAYAMA KEN","city":"MIMASAKA SHI","town":"SETO","perfecture_jp":"岡山県","jp_add_1":"美作市","jp_add_2":"瀬戸"},"7094213":{"post_code":"7094213","prefecture":"OKAYAMA KEN","city":"MIMASAKA SHI","town":"DAISHOJI","perfecture_jp":"岡山県","jp_add_1":"美作市","jp_add_2":"大聖寺"},"7094245":{"post_code":"7094245","prefecture":"OKAYAMA KEN","city":"MIMASAKA SHI","town":"TAKEDA","perfecture_jp":"岡山県","jp_add_1":"美作市","jp_add_2":"竹田"},"7094257":{"post_code":"7094257","prefecture":"OKAYAMA KEN","city":"MIMASAKA SHI","town":"TABUCHI","perfecture_jp":"岡山県","jp_add_1":"美作市","jp_add_2":"田渕"},"7094242":{"post_code":"7094242","prefecture":"OKAYAMA KEN","city":"MIMASAKA SHI","town":"TAWARA","perfecture_jp":"岡山県","jp_add_1":"美作市","jp_add_2":"田原"},"7094244":{"post_code":"7094244","prefecture":"OKAYAMA KEN","city":"MIMASAKA SHI","town":"DOI","perfecture_jp":"岡山県","jp_add_1":"美作市","jp_add_2":"土居"},"7094224":{"post_code":"7094224","prefecture":"OKAYAMA KEN","city":"MIMASAKA SHI","town":"TOYONO","perfecture_jp":"岡山県","jp_add_1":"美作市","jp_add_2":"豊野"},"7094226":{"post_code":"7094226","prefecture":"OKAYAMA KEN","city":"MIMASAKA SHI","town":"NAMAZU","perfecture_jp":"岡山県","jp_add_1":"美作市","jp_add_2":"鯰"},"7094231":{"post_code":"7094231","prefecture":"OKAYAMA KEN","city":"MIMASAKA SHI","town":"NANGAI","perfecture_jp":"岡山県","jp_add_1":"美作市","jp_add_2":"南海"},"7094235":{"post_code":"7094235","prefecture":"OKAYAMA KEN","city":"MIMASAKA SHI","town":"HARA","perfecture_jp":"岡山県","jp_add_1":"美作市","jp_add_2":"原"},"7094241":{"post_code":"7094241","prefecture":"OKAYAMA KEN","city":"MIMASAKA SHI","town":"HISASHI","perfecture_jp":"岡山県","jp_add_1":"美作市","jp_add_2":"日指"},"7094233":{"post_code":"7094233","prefecture":"OKAYAMA KEN","city":"MIMASAKA SHI","town":"FUJU","perfecture_jp":"岡山県","jp_add_1":"美作市","jp_add_2":"藤生"},"7094225":{"post_code":"7094225","prefecture":"OKAYAMA KEN","city":"MIMASAKA SHI","town":"MATSUWAKI","perfecture_jp":"岡山県","jp_add_1":"美作市","jp_add_2":"松脇"},"7094214":{"post_code":"7094214","prefecture":"OKAYAMA KEN","city":"MIMASAKA SHI","town":"MAMEDA","perfecture_jp":"岡山県","jp_add_1":"美作市","jp_add_2":"豆田"},"7094254":{"post_code":"7094254","prefecture":"OKAYAMA KEN","city":"MIMASAKA SHI","town":"MANZEN","perfecture_jp":"岡山県","jp_add_1":"美作市","jp_add_2":"万善"},"7094212":{"post_code":"7094212","prefecture":"OKAYAMA KEN","city":"MIMASAKA SHI","town":"MIYABARA","perfecture_jp":"岡山県","jp_add_1":"美作市","jp_add_2":"宮原"},"7094247":{"post_code":"7094247","prefecture":"OKAYAMA KEN","city":"MIMASAKA SHI","town":"YAMASHIRO","perfecture_jp":"岡山県","jp_add_1":"美作市","jp_add_2":"山城"},"7094216":{"post_code":"7094216","prefecture":"OKAYAMA KEN","city":"MIMASAKA SHI","town":"YAMATE","perfecture_jp":"岡山県","jp_add_1":"美作市","jp_add_2":"山手"},"7094243":{"post_code":"7094243","prefecture":"OKAYAMA KEN","city":"MIMASAKA SHI","town":"RENGEJI","perfecture_jp":"岡山県","jp_add_1":"美作市","jp_add_2":"蓮花寺"},"7090400":{"post_code":"7090400","prefecture":"OKAYAMA KEN","city":"WAKE GUN WAKE CHO","town":"IKANIKEISAIGANAIBAAI","perfecture_jp":"岡山県","jp_add_1":"和気郡和気町","jp_add_2":""},"7090413":{"post_code":"7090413","prefecture":"OKAYAMA KEN","city":"WAKE GUN WAKE CHO","town":"IZUMI","perfecture_jp":"岡山県","jp_add_1":"和気郡和気町","jp_add_2":"泉"},"7090513":{"post_code":"7090513","prefecture":"OKAYAMA KEN","city":"WAKE GUN WAKE CHO","town":"IWATO","perfecture_jp":"岡山県","jp_add_1":"和気郡和気町","jp_add_2":"岩戸"},"7090525":{"post_code":"7090525","prefecture":"OKAYAMA KEN","city":"WAKE GUN WAKE CHO","town":"UBU","perfecture_jp":"岡山県","jp_add_1":"和気郡和気町","jp_add_2":"宇生"},"7090414":{"post_code":"7090414","prefecture":"OKAYAMA KEN","city":"WAKE GUN WAKE CHO","town":"OTAWARA","perfecture_jp":"岡山県","jp_add_1":"和気郡和気町","jp_add_2":"大田原"},"7090432":{"post_code":"7090432","prefecture":"OKAYAMA KEN","city":"WAKE GUN WAKE CHO","town":"ONAKAYAMA","perfecture_jp":"岡山県","jp_add_1":"和気郡和気町","jp_add_2":"大中山"},"7090501":{"post_code":"7090501","prefecture":"OKAYAMA KEN","city":"WAKE GUN WAKE CHO","town":"OKUSHIOTA","perfecture_jp":"岡山県","jp_add_1":"和気郡和気町","jp_add_2":"奥塩田"},"7090522":{"post_code":"7090522","prefecture":"OKAYAMA KEN","city":"WAKE GUN WAKE CHO","town":"KAMIGATA","perfecture_jp":"岡山県","jp_add_1":"和気郡和気町","jp_add_2":"加三方"},"7090504":{"post_code":"7090504","prefecture":"OKAYAMA KEN","city":"WAKE GUN WAKE CHO","town":"KITAYAMAGATA","perfecture_jp":"岡山県","jp_add_1":"和気郡和気町","jp_add_2":"北山方"},"7090441":{"post_code":"7090441","prefecture":"OKAYAMA KEN","city":"WAKE GUN WAKE CHO","town":"KINUGASA","perfecture_jp":"岡山県","jp_add_1":"和気郡和気町","jp_add_2":"衣笠"},"7090404":{"post_code":"7090404","prefecture":"OKAYAMA KEN","city":"WAKE GUN WAKE CHO","town":"KINOKURA","perfecture_jp":"岡山県","jp_add_1":"和気郡和気町","jp_add_2":"木倉"},"7090523":{"post_code":"7090523","prefecture":"OKAYAMA KEN","city":"WAKE GUN WAKE CHO","town":"KOZAKA","perfecture_jp":"岡山県","jp_add_1":"和気郡和気町","jp_add_2":"小坂"},"7090514":{"post_code":"7090514","prefecture":"OKAYAMA KEN","city":"WAKE GUN WAKE CHO","town":"SAEKI","perfecture_jp":"岡山県","jp_add_1":"和気郡和気町","jp_add_2":"佐伯"},"7090506":{"post_code":"7090506","prefecture":"OKAYAMA KEN","city":"WAKE GUN WAKE CHO","town":"SHIOTA","perfecture_jp":"岡山県","jp_add_1":"和気郡和気町","jp_add_2":"塩田"},"7090431":{"post_code":"7090431","prefecture":"OKAYAMA KEN","city":"WAKE GUN WAKE CHO","town":"SHIMIZU","perfecture_jp":"岡山県","jp_add_1":"和気郡和気町","jp_add_2":"清水"},"7090422":{"post_code":"7090422","prefecture":"OKAYAMA KEN","city":"WAKE GUN WAKE CHO","town":"SHAKUSO","perfecture_jp":"岡山県","jp_add_1":"和気郡和気町","jp_add_2":"尺所"},"7090524":{"post_code":"7090524","prefecture":"OKAYAMA KEN","city":"WAKE GUN WAKE CHO","town":"TAGA","perfecture_jp":"岡山県","jp_add_1":"和気郡和気町","jp_add_2":"田賀"},"7090512":{"post_code":"7090512","prefecture":"OKAYAMA KEN","city":"WAKE GUN WAKE CHO","town":"TADO","perfecture_jp":"岡山県","jp_add_1":"和気郡和気町","jp_add_2":"田土"},"7090463":{"post_code":"7090463","prefecture":"OKAYAMA KEN","city":"WAKE GUN WAKE CHO","town":"TAWARAKAMI","perfecture_jp":"岡山県","jp_add_1":"和気郡和気町","jp_add_2":"田原上"},"7090464":{"post_code":"7090464","prefecture":"OKAYAMA KEN","city":"WAKE GUN WAKE CHO","town":"TAWARASHIMO","perfecture_jp":"岡山県","jp_add_1":"和気郡和気町","jp_add_2":"田原下"},"7090521":{"post_code":"7090521","prefecture":"OKAYAMA KEN","city":"WAKE GUN WAKE CHO","town":"CHICHIIBARA","perfecture_jp":"岡山県","jp_add_1":"和気郡和気町","jp_add_2":"父井原"},"7090516":{"post_code":"7090516","prefecture":"OKAYAMA KEN","city":"WAKE GUN WAKE CHO","town":"TSUZE","perfecture_jp":"岡山県","jp_add_1":"和気郡和気町","jp_add_2":"津瀬"},"7090505":{"post_code":"7090505","prefecture":"OKAYAMA KEN","city":"WAKE GUN WAKE CHO","town":"NIGAKI","perfecture_jp":"岡山県","jp_add_1":"和気郡和気町","jp_add_2":"苦木"},"7090461":{"post_code":"7090461","prefecture":"OKAYAMA KEN","city":"WAKE GUN WAKE CHO","town":"HARA","perfecture_jp":"岡山県","jp_add_1":"和気郡和気町","jp_add_2":"原"},"7090402":{"post_code":"7090402","prefecture":"OKAYAMA KEN","city":"WAKE GUN WAKE CHO","town":"HIKASAKAMI","perfecture_jp":"岡山県","jp_add_1":"和気郡和気町","jp_add_2":"日笠上"},"7090403":{"post_code":"7090403","prefecture":"OKAYAMA KEN","city":"WAKE GUN WAKE CHO","town":"HIKASASHIMO","perfecture_jp":"岡山県","jp_add_1":"和気郡和気町","jp_add_2":"日笠下"},"7090421":{"post_code":"7090421","prefecture":"OKAYAMA KEN","city":"WAKE GUN WAKE CHO","town":"HIMURO","perfecture_jp":"岡山県","jp_add_1":"和気郡和気町","jp_add_2":"日室"},"7090442":{"post_code":"7090442","prefecture":"OKAYAMA KEN","city":"WAKE GUN WAKE CHO","town":"FUKUTOMI","perfecture_jp":"岡山県","jp_add_1":"和気郡和気町","jp_add_2":"福富"},"7090412":{"post_code":"7090412","prefecture":"OKAYAMA KEN","city":"WAKE GUN WAKE CHO","town":"FUJINO","perfecture_jp":"岡山県","jp_add_1":"和気郡和気町","jp_add_2":"藤野"},"7090401":{"post_code":"7090401","prefecture":"OKAYAMA KEN","city":"WAKE GUN WAKE CHO","town":"HOSO","perfecture_jp":"岡山県","jp_add_1":"和気郡和気町","jp_add_2":"保曽"},"7090462":{"post_code":"7090462","prefecture":"OKAYAMA KEN","city":"WAKE GUN WAKE CHO","town":"HON","perfecture_jp":"岡山県","jp_add_1":"和気郡和気町","jp_add_2":"本"},"7090452":{"post_code":"7090452","prefecture":"OKAYAMA KEN","city":"WAKE GUN WAKE CHO","town":"MASUBARA","perfecture_jp":"岡山県","jp_add_1":"和気郡和気町","jp_add_2":"益原"},"7090502":{"post_code":"7090502","prefecture":"OKAYAMA KEN","city":"WAKE GUN WAKE CHO","town":"MARUYAMA","perfecture_jp":"岡山県","jp_add_1":"和気郡和気町","jp_add_2":"丸山"},"7090503":{"post_code":"7090503","prefecture":"OKAYAMA KEN","city":"WAKE GUN WAKE CHO","town":"MINAMIYAMAGATA","perfecture_jp":"岡山県","jp_add_1":"和気郡和気町","jp_add_2":"南山方"},"7090511":{"post_code":"7090511","prefecture":"OKAYAMA KEN","city":"WAKE GUN WAKE CHO","town":"YATA","perfecture_jp":"岡山県","jp_add_1":"和気郡和気町","jp_add_2":"矢田"},"7090526":{"post_code":"7090526","prefecture":"OKAYAMA KEN","city":"WAKE GUN WAKE CHO","town":"YATABE","perfecture_jp":"岡山県","jp_add_1":"和気郡和気町","jp_add_2":"矢田部"},"7090411":{"post_code":"7090411","prefecture":"OKAYAMA KEN","city":"WAKE GUN WAKE CHO","town":"YOSHIDA","perfecture_jp":"岡山県","jp_add_1":"和気郡和気町","jp_add_2":"吉田"},"7090515":{"post_code":"7090515","prefecture":"OKAYAMA KEN","city":"WAKE GUN WAKE CHO","town":"YONEZAWA","perfecture_jp":"岡山県","jp_add_1":"和気郡和気町","jp_add_2":"米澤"},"7090451":{"post_code":"7090451","prefecture":"OKAYAMA KEN","city":"WAKE GUN WAKE CHO","town":"WAKE","perfecture_jp":"岡山県","jp_add_1":"和気郡和気町","jp_add_2":"和気"},"7094300":{"post_code":"7094300","prefecture":"OKAYAMA KEN","city":"KATSUTA GUN SHOO CHO","town":"IKANIKEISAIGANAIBAAI","perfecture_jp":"岡山県","jp_add_1":"勝田郡勝央町","jp_add_2":""},"7094307":{"post_code":"7094307","prefecture":"OKAYAMA KEN","city":"KATSUTA GUN SHOO CHO","town":"ISHU","perfecture_jp":"岡山県","jp_add_1":"勝田郡勝央町","jp_add_2":"石生"},"7094335":{"post_code":"7094335","prefecture":"OKAYAMA KEN","city":"KATSUTA GUN SHOO CHO","town":"UETSUKINAKA","perfecture_jp":"岡山県","jp_add_1":"勝田郡勝央町","jp_add_2":"植月中"},"7094332":{"post_code":"7094332","prefecture":"OKAYAMA KEN","city":"KATSUTA GUN SHOO CHO","town":"UETSUKIHIGASHI","perfecture_jp":"岡山県","jp_add_1":"勝田郡勝央町","jp_add_2":"植月東"},"7094331":{"post_code":"7094331","prefecture":"OKAYAMA KEN","city":"KATSUTA GUN SHOO CHO","town":"UETSUKIKITA","perfecture_jp":"岡山県","jp_add_1":"勝田郡勝央町","jp_add_2":"植月北"},"7094311":{"post_code":"7094311","prefecture":"OKAYAMA KEN","city":"KATSUTA GUN SHOO CHO","town":"OKA","perfecture_jp":"岡山県","jp_add_1":"勝田郡勝央町","jp_add_2":"岡"},"7094313":{"post_code":"7094313","prefecture":"OKAYAMA KEN","city":"KATSUTA GUN SHOO CHO","town":"OYATA","perfecture_jp":"岡山県","jp_add_1":"勝田郡勝央町","jp_add_2":"小矢田"},"7094316":{"post_code":"7094316","prefecture":"OKAYAMA KEN","city":"KATSUTA GUN SHOO CHO","town":"KATSUMADA","perfecture_jp":"岡山県","jp_add_1":"勝田郡勝央町","jp_add_2":"勝間田"},"7094304":{"post_code":"7094304","prefecture":"OKAYAMA KEN","city":"KATSUTA GUN SHOO CHO","town":"KAMIGAYAMA","perfecture_jp":"岡山県","jp_add_1":"勝田郡勝央町","jp_add_2":"上香山"},"7094302":{"post_code":"7094302","prefecture":"OKAYAMA KEN","city":"KATSUTA GUN SHOO CHO","town":"KAWARA","perfecture_jp":"岡山県","jp_add_1":"勝田郡勝央町","jp_add_2":"河原"},"7094323":{"post_code":"7094323","prefecture":"OKAYAMA KEN","city":"KATSUTA GUN SHOO CHO","town":"KUROSAKA","perfecture_jp":"岡山県","jp_add_1":"勝田郡勝央町","jp_add_2":"黒坂"},"7094312":{"post_code":"7094312","prefecture":"OKAYAMA KEN","city":"KATSUTA GUN SHOO CHO","town":"KUROTSUCHI","perfecture_jp":"岡山県","jp_add_1":"勝田郡勝央町","jp_add_2":"黒土"},"7094301":{"post_code":"7094301","prefecture":"OKAYAMA KEN","city":"KATSUTA GUN SHOO CHO","town":"SHIMOMACHIGAWA","perfecture_jp":"岡山県","jp_add_1":"勝田郡勝央町","jp_add_2":"下町川"},"7094305":{"post_code":"7094305","prefecture":"OKAYAMA KEN","city":"KATSUTA GUN SHOO CHO","town":"SOI","perfecture_jp":"岡山県","jp_add_1":"勝田郡勝央町","jp_add_2":"曽井"},"7094333":{"post_code":"7094333","prefecture":"OKAYAMA KEN","city":"KATSUTA GUN SHOO CHO","town":"TAI","perfecture_jp":"岡山県","jp_add_1":"勝田郡勝央町","jp_add_2":"田井"},"7094321":{"post_code":"7094321","prefecture":"OKAYAMA KEN","city":"KATSUTA GUN SHOO CHO","town":"TAIHEIDAI","perfecture_jp":"岡山県","jp_add_1":"勝田郡勝央町","jp_add_2":"太平台"},"7094334":{"post_code":"7094334","prefecture":"OKAYAMA KEN","city":"KATSUTA GUN SHOO CHO","town":"TAIRA","perfecture_jp":"岡山県","jp_add_1":"勝田郡勝央町","jp_add_2":"平"},"7094324":{"post_code":"7094324","prefecture":"OKAYAMA KEN","city":"KATSUTA GUN SHOO CHO","town":"TAMEMOTO","perfecture_jp":"岡山県","jp_add_1":"勝田郡勝央町","jp_add_2":"為本"},"7094303":{"post_code":"7094303","prefecture":"OKAYAMA KEN","city":"KATSUTA GUN SHOO CHO","town":"TOYOKUDA","perfecture_jp":"岡山県","jp_add_1":"勝田郡勝央町","jp_add_2":"豊久田"},"7094315":{"post_code":"7094315","prefecture":"OKAYAMA KEN","city":"KATSUTA GUN SHOO CHO","town":"HATAYA","perfecture_jp":"岡山県","jp_add_1":"勝田郡勝央町","jp_add_2":"畑屋"},"7094314":{"post_code":"7094314","prefecture":"OKAYAMA KEN","city":"KATSUTA GUN SHOO CHO","town":"HIGASHIYOSHIDA","perfecture_jp":"岡山県","jp_add_1":"勝田郡勝央町","jp_add_2":"東吉田"},"7094322":{"post_code":"7094322","prefecture":"OKAYAMA KEN","city":"KATSUTA GUN SHOO CHO","town":"FUKUYOSHI","perfecture_jp":"岡山県","jp_add_1":"勝田郡勝央町","jp_add_2":"福吉"},"7094306":{"post_code":"7094306","prefecture":"OKAYAMA KEN","city":"KATSUTA GUN SHOO CHO","town":"MINO","perfecture_jp":"岡山県","jp_add_1":"勝田郡勝央町","jp_add_2":"美野"},"7093600":{"post_code":"7093600","prefecture":"OKAYAMA KEN","city":"KUME GUN KUMENAN CHO","town":"IKANIKEISAIGANAIBAAI","perfecture_jp":"岡山県","jp_add_1":"久米郡久米南町","jp_add_2":""},"7093626":{"post_code":"7093626","prefecture":"OKAYAMA KEN","city":"KUME GUN KUMENAN CHO","town":"KAMIKOME","perfecture_jp":"岡山県","jp_add_1":"久米郡久米南町","jp_add_2":"上神目"},"7093615":{"post_code":"7093615","prefecture":"OKAYAMA KEN","city":"KUME GUN KUMENAN CHO","town":"KAMINIKA","perfecture_jp":"岡山県","jp_add_1":"久米郡久米南町","jp_add_2":"上二ケ"},"7093621":{"post_code":"7093621","prefecture":"OKAYAMA KEN","city":"KUME GUN KUMENAN CHO","town":"KAMIMOMI","perfecture_jp":"岡山県","jp_add_1":"久米郡久米南町","jp_add_2":"上籾"},"7093612":{"post_code":"7093612","prefecture":"OKAYAMA KEN","city":"KUME GUN KUMENAN CHO","town":"KAMIYUGE","perfecture_jp":"岡山県","jp_add_1":"久米郡久米南町","jp_add_2":"上弓削"},"7093601":{"post_code":"7093601","prefecture":"OKAYAMA KEN","city":"KUME GUN KUMENAN CHO","town":"KITASHO","perfecture_jp":"岡山県","jp_add_1":"久米郡久米南町","jp_add_2":"北庄"},"7093634":{"post_code":"7093634","prefecture":"OKAYAMA KEN","city":"KUME GUN KUMENAN CHO","town":"KYONO","perfecture_jp":"岡山県","jp_add_1":"久米郡久米南町","jp_add_2":"京尾"},"7093627":{"post_code":"7093627","prefecture":"OKAYAMA KEN","city":"KUME GUN KUMENAN CHO","town":"KOMENAKA","perfecture_jp":"岡山県","jp_add_1":"久米郡久米南町","jp_add_2":"神目中"},"7093602":{"post_code":"7093602","prefecture":"OKAYAMA KEN","city":"KUME GUN KUMENAN CHO","town":"SATOGATA","perfecture_jp":"岡山県","jp_add_1":"久米郡久米南町","jp_add_2":"里方"},"7093605":{"post_code":"7093605","prefecture":"OKAYAMA KEN","city":"KUME GUN KUMENAN CHO","town":"SHIONOCHI","perfecture_jp":"岡山県","jp_add_1":"久米郡久米南町","jp_add_2":"塩之内"},"7093617":{"post_code":"7093617","prefecture":"OKAYAMA KEN","city":"KUME GUN KUMENAN CHO","town":"SHIMONIKA","perfecture_jp":"岡山県","jp_add_1":"久米郡久米南町","jp_add_2":"下二ケ"},"7093624":{"post_code":"7093624","prefecture":"OKAYAMA KEN","city":"KUME GUN KUMENAN CHO","town":"SHIMOMOMI","perfecture_jp":"岡山県","jp_add_1":"久米郡久米南町","jp_add_2":"下籾"},"7093614":{"post_code":"7093614","prefecture":"OKAYAMA KEN","city":"KUME GUN KUMENAN CHO","town":"SHIMOYUGE","perfecture_jp":"岡山県","jp_add_1":"久米郡久米南町","jp_add_2":"下弓削"},"7093633":{"post_code":"7093633","prefecture":"OKAYAMA KEN","city":"KUME GUN KUMENAN CHO","town":"TOGE","perfecture_jp":"岡山県","jp_add_1":"久米郡久米南町","jp_add_2":"峠"},"7093623":{"post_code":"7093623","prefecture":"OKAYAMA KEN","city":"KUME GUN KUMENAN CHO","town":"NAKAMOMI","perfecture_jp":"岡山県","jp_add_1":"久米郡久米南町","jp_add_2":"中籾"},"7093613":{"post_code":"7093613","prefecture":"OKAYAMA KEN","city":"KUME GUN KUMENAN CHO","town":"NISHIYAMAJI","perfecture_jp":"岡山県","jp_add_1":"久米郡久米南町","jp_add_2":"西山寺"},"7093606":{"post_code":"7093606","prefecture":"OKAYAMA KEN","city":"KUME GUN KUMENAN CHO","town":"HADEGI","perfecture_jp":"岡山県","jp_add_1":"久米郡久米南町","jp_add_2":"羽出木"},"7093622":{"post_code":"7093622","prefecture":"OKAYAMA KEN","city":"KUME GUN KUMENAN CHO","town":"BUTSUKYOJI","perfecture_jp":"岡山県","jp_add_1":"久米郡久米南町","jp_add_2":"仏教寺"},"7093625":{"post_code":"7093625","prefecture":"OKAYAMA KEN","city":"KUME GUN KUMENAN CHO","town":"BESSHIYO","perfecture_jp":"岡山県","jp_add_1":"久米郡久米南町","jp_add_2":"別所"},"7093616":{"post_code":"7093616","prefecture":"OKAYAMA KEN","city":"KUME GUN KUMENAN CHO","town":"MATAMA","perfecture_jp":"岡山県","jp_add_1":"久米郡久米南町","jp_add_2":"全間"},"7093611":{"post_code":"7093611","prefecture":"OKAYAMA KEN","city":"KUME GUN KUMENAN CHO","town":"MATSU","perfecture_jp":"岡山県","jp_add_1":"久米郡久米南町","jp_add_2":"松"},"7093604":{"post_code":"7093604","prefecture":"OKAYAMA KEN","city":"KUME GUN KUMENAN CHO","town":"MINAMISHO","perfecture_jp":"岡山県","jp_add_1":"久米郡久米南町","jp_add_2":"南庄"},"7093635":{"post_code":"7093635","prefecture":"OKAYAMA KEN","city":"KUME GUN KUMENAN CHO","town":"MINAMIHATA","perfecture_jp":"岡山県","jp_add_1":"久米郡久米南町","jp_add_2":"南畑"},"7093631":{"post_code":"7093631","prefecture":"OKAYAMA KEN","city":"KUME GUN KUMENAN CHO","town":"MIYAJI","perfecture_jp":"岡山県","jp_add_1":"久米郡久米南町","jp_add_2":"宮地"},"7093636":{"post_code":"7093636","prefecture":"OKAYAMA KEN","city":"KUME GUN KUMENAN CHO","town":"YASUGATAWA","perfecture_jp":"岡山県","jp_add_1":"久米郡久米南町","jp_add_2":"安ケ乢"},"7093632":{"post_code":"7093632","prefecture":"OKAYAMA KEN","city":"KUME GUN KUMENAN CHO","town":"YAMATE","perfecture_jp":"岡山県","jp_add_1":"久米郡久米南町","jp_add_2":"山手"},"7093603":{"post_code":"7093603","prefecture":"OKAYAMA KEN","city":"KUME GUN KUMENAN CHO","town":"YAMANOJO","perfecture_jp":"岡山県","jp_add_1":"久米郡久米南町","jp_add_2":"山ノ城"},"7093700":{"post_code":"7093700","prefecture":"OKAYAMA KEN","city":"KUME GUN MISAKI CHO","town":"IKANIKEISAIGANAIBAAI","perfecture_jp":"岡山県","jp_add_1":"久米郡美咲町","jp_add_2":""},"7093411":{"post_code":"7093411","prefecture":"OKAYAMA KEN","city":"KUME GUN MISAKI CHO","town":"UEKUCHI","perfecture_jp":"岡山県","jp_add_1":"久米郡美咲町","jp_add_2":"上口"},"7093705":{"post_code":"7093705","prefecture":"OKAYAMA KEN","city":"KUME GUN MISAKI CHO","town":"UTANOKAMI","perfecture_jp":"岡山県","jp_add_1":"久米郡美咲町","jp_add_2":"打穴上"},"7093706":{"post_code":"7093706","prefecture":"OKAYAMA KEN","city":"KUME GUN MISAKI CHO","town":"UTANOKITA","perfecture_jp":"岡山県","jp_add_1":"久米郡美咲町","jp_add_2":"打穴北"},"7093704":{"post_code":"7093704","prefecture":"OKAYAMA KEN","city":"KUME GUN MISAKI CHO","town":"UTANOSATO","perfecture_jp":"岡山県","jp_add_1":"久米郡美咲町","jp_add_2":"打穴里"},"7093702":{"post_code":"7093702","prefecture":"OKAYAMA KEN","city":"KUME GUN MISAKI CHO","town":"UTANOSHIMO","perfecture_jp":"岡山県","jp_add_1":"久米郡美咲町","jp_add_2":"打穴下"},"7093703":{"post_code":"7093703","prefecture":"OKAYAMA KEN","city":"KUME GUN MISAKI CHO","town":"UTANONAKA","perfecture_jp":"岡山県","jp_add_1":"久米郡美咲町","jp_add_2":"打穴中"},"7093707":{"post_code":"7093707","prefecture":"OKAYAMA KEN","city":"KUME GUN MISAKI CHO","town":"UTANONISHI","perfecture_jp":"岡山県","jp_add_1":"久米郡美咲町","jp_add_2":"打穴西"},"7093415":{"post_code":"7093415","prefecture":"OKAYAMA KEN","city":"KUME GUN MISAKI CHO","town":"EYOMI","perfecture_jp":"岡山県","jp_add_1":"久米郡美咲町","jp_add_2":"江与味"},"7093726":{"post_code":"7093726","prefecture":"OKAYAMA KEN","city":"KUME GUN MISAKI CHO","town":"OHAGANISHI","perfecture_jp":"岡山県","jp_add_1":"久米郡美咲町","jp_add_2":"大垪和西"},"7093722":{"post_code":"7093722","prefecture":"OKAYAMA KEN","city":"KUME GUN MISAKI CHO","town":"OHAGAHIGASHI","perfecture_jp":"岡山県","jp_add_1":"久米郡美咲町","jp_add_2":"大垪和東"},"7093714":{"post_code":"7093714","prefecture":"OKAYAMA KEN","city":"KUME GUN MISAKI CHO","town":"OBARA","perfecture_jp":"岡山県","jp_add_1":"久米郡美咲町","jp_add_2":"小原"},"7093712":{"post_code":"7093712","prefecture":"OKAYAMA KEN","city":"KUME GUN MISAKI CHO","town":"KANABORI","perfecture_jp":"岡山県","jp_add_1":"久米郡美咲町","jp_add_2":"金堀"},"7093401":{"post_code":"7093401","prefecture":"OKAYAMA KEN","city":"KUME GUN MISAKI CHO","town":"KITA","perfecture_jp":"岡山県","jp_add_1":"久米郡美咲町","jp_add_2":"北"},"7093412":{"post_code":"7093412","prefecture":"OKAYAMA KEN","city":"KUME GUN MISAKI CHO","town":"KOYAMA","perfecture_jp":"岡山県","jp_add_1":"久米郡美咲町","jp_add_2":"小山"},"7093711":{"post_code":"7093711","prefecture":"OKAYAMA KEN","city":"KUME GUN MISAKI CHO","town":"KOYO","perfecture_jp":"岡山県","jp_add_1":"久米郡美咲町","jp_add_2":"越尾"},"7093715":{"post_code":"7093715","prefecture":"OKAYAMA KEN","city":"KUME GUN MISAKI CHO","town":"SAIKO","perfecture_jp":"岡山県","jp_add_1":"久米郡美咲町","jp_add_2":"西幸"},"7093723":{"post_code":"7093723","prefecture":"OKAYAMA KEN","city":"KUME GUN MISAKI CHO","town":"SAKAI","perfecture_jp":"岡山県","jp_add_1":"久米郡美咲町","jp_add_2":"境"},"7093403":{"post_code":"7093403","prefecture":"OKAYAMA KEN","city":"KUME GUN MISAKI CHO","town":"SATO","perfecture_jp":"岡山県","jp_add_1":"久米郡美咲町","jp_add_2":"里"},"7093713":{"post_code":"7093713","prefecture":"OKAYAMA KEN","city":"KUME GUN MISAKI CHO","town":"SHINJO","perfecture_jp":"岡山県","jp_add_1":"久米郡美咲町","jp_add_2":"新城"},"7093724":{"post_code":"7093724","prefecture":"OKAYAMA KEN","city":"KUME GUN MISAKI CHO","town":"TSUISHISOBO","perfecture_jp":"岡山県","jp_add_1":"久米郡美咲町","jp_add_2":"角石祖母"},"7093413":{"post_code":"7093413","prefecture":"OKAYAMA KEN","city":"KUME GUN MISAKI CHO","town":"TOCHIBARA","perfecture_jp":"岡山県","jp_add_1":"久米郡美咲町","jp_add_2":"栃原"},"7093407":{"post_code":"7093407","prefecture":"OKAYAMA KEN","city":"KUME GUN MISAKI CHO","town":"NAKA","perfecture_jp":"岡山県","jp_add_1":"久米郡美咲町","jp_add_2":"中"},"7093417":{"post_code":"7093417","prefecture":"OKAYAMA KEN","city":"KUME GUN MISAKI CHO","town":"NAKAHAGA","perfecture_jp":"岡山県","jp_add_1":"久米郡美咲町","jp_add_2":"中垪和"},"7093405":{"post_code":"7093405","prefecture":"OKAYAMA KEN","city":"KUME GUN MISAKI CHO","town":"NISHI","perfecture_jp":"岡山県","jp_add_1":"久米郡美咲町","jp_add_2":"西"},"7093404":{"post_code":"7093404","prefecture":"OKAYAMA KEN","city":"KUME GUN MISAKI CHO","town":"NISHIGAWA","perfecture_jp":"岡山県","jp_add_1":"久米郡美咲町","jp_add_2":"西川"},"7093406":{"post_code":"7093406","prefecture":"OKAYAMA KEN","city":"KUME GUN MISAKI CHO","town":"NISHIGAWAKAMI","perfecture_jp":"岡山県","jp_add_1":"久米郡美咲町","jp_add_2":"西川上"},"7093701":{"post_code":"7093701","prefecture":"OKAYAMA KEN","city":"KUME GUN MISAKI CHO","town":"NISHIKORI","perfecture_jp":"岡山県","jp_add_1":"久米郡美咲町","jp_add_2":"錦織"},"7093414":{"post_code":"7093414","prefecture":"OKAYAMA KEN","city":"KUME GUN MISAKI CHO","town":"NISHIHAGA","perfecture_jp":"岡山県","jp_add_1":"久米郡美咲町","jp_add_2":"西垪和"},"7093717":{"post_code":"7093717","prefecture":"OKAYAMA KEN","city":"KUME GUN MISAKI CHO","town":"HARADA","perfecture_jp":"岡山県","jp_add_1":"久米郡美咲町","jp_add_2":"原田"},"7093416":{"post_code":"7093416","prefecture":"OKAYAMA KEN","city":"KUME GUN MISAKI CHO","town":"HIGASHIHAGA","perfecture_jp":"岡山県","jp_add_1":"久米郡美咲町","jp_add_2":"東垪和"},"7093402":{"post_code":"7093402","prefecture":"OKAYAMA KEN","city":"KUME GUN MISAKI CHO","town":"MINAMI","perfecture_jp":"岡山県","jp_add_1":"久米郡美咲町","jp_add_2":"南"},"7093716":{"post_code":"7093716","prefecture":"OKAYAMA KEN","city":"KUME GUN MISAKI CHO","town":"YORIMOTO","perfecture_jp":"岡山県","jp_add_1":"久米郡美咲町","jp_add_2":"頼元"},"7093721":{"post_code":"7093721","prefecture":"OKAYAMA KEN","city":"KUME GUN MISAKI CHO","town":"RYOSANJI","perfecture_jp":"岡山県","jp_add_1":"久米郡美咲町","jp_add_2":"両山寺"},"7093725":{"post_code":"7093725","prefecture":"OKAYAMA KEN","city":"KUME GUN MISAKI CHO","town":"WADAKITA","perfecture_jp":"岡山県","jp_add_1":"久米郡美咲町","jp_add_2":"和田北"},"7092672":{"post_code":"7092672","prefecture":"OKAYAMA KEN","city":"KAGA GUN KIBICHUO CHO","town":"AWAITANI","perfecture_jp":"岡山県","jp_add_1":"加賀郡吉備中央町","jp_add_2":"粟井谷"},"7092403":{"post_code":"7092403","prefecture":"OKAYAMA KEN","city":"KAGA GUN KIBICHUO CHO","town":"ANDA","perfecture_jp":"岡山県","jp_add_1":"加賀郡吉備中央町","jp_add_2":"案田"},"7092552":{"post_code":"7092552","prefecture":"OKAYAMA KEN","city":"KAGA GUN KIBICHUO CHO","town":"IHARA","perfecture_jp":"岡山県","jp_add_1":"加賀郡吉備中央町","jp_add_2":"井原"},"7092413":{"post_code":"7092413","prefecture":"OKAYAMA KEN","city":"KAGA GUN KIBICHUO CHO","town":"UEDANISHI","perfecture_jp":"岡山県","jp_add_1":"加賀郡吉備中央町","jp_add_2":"上田西"},"7092411":{"post_code":"7092411","prefecture":"OKAYAMA KEN","city":"KAGA GUN KIBICHUO CHO","town":"UEDAHIGASHI","perfecture_jp":"岡山県","jp_add_1":"加賀郡吉備中央町","jp_add_2":"上田東"},"7092344":{"post_code":"7092344","prefecture":"OKAYAMA KEN","city":"KAGA GUN KIBICHUO CHO","town":"UENO","perfecture_jp":"岡山県","jp_add_1":"加賀郡吉備中央町","jp_add_2":"上野"},"7092412":{"post_code":"7092412","prefecture":"OKAYAMA KEN","city":"KAGA GUN KIBICHUO CHO","town":"ENJO","perfecture_jp":"岡山県","jp_add_1":"加賀郡吉備中央町","jp_add_2":"円城"},"7092663":{"post_code":"7092663","prefecture":"OKAYAMA KEN","city":"KAGA GUN KIBICHUO CHO","town":"OGI","perfecture_jp":"岡山県","jp_add_1":"加賀郡吉備中央町","jp_add_2":"大木"},"7092673":{"post_code":"7092673","prefecture":"OKAYAMA KEN","city":"KAGA GUN KIBICHUO CHO","town":"OBARA","perfecture_jp":"岡山県","jp_add_1":"加賀郡吉備中央町","jp_add_2":"尾原"},"7092341":{"post_code":"7092341","prefecture":"OKAYAMA KEN","city":"KAGA GUN KIBICHUO CHO","town":"KAMIGAMO","perfecture_jp":"岡山県","jp_add_1":"加賀郡吉備中央町","jp_add_2":"上加茂"},"7092333":{"post_code":"7092333","prefecture":"OKAYAMA KEN","city":"KAGA GUN KIBICHUO CHO","town":"KAMOICHIBA","perfecture_jp":"岡山県","jp_add_1":"加賀郡吉備中央町","jp_add_2":"加茂市場"},"7092401":{"post_code":"7092401","prefecture":"OKAYAMA KEN","city":"KAGA GUN KIBICHUO CHO","town":"KANSE","perfecture_jp":"岡山県","jp_add_1":"加賀郡吉備中央町","jp_add_2":"神瀬"},"7092404":{"post_code":"7092404","prefecture":"OKAYAMA KEN","city":"KAGA GUN KIBICHUO CHO","town":"KOMORI","perfecture_jp":"岡山県","jp_add_1":"加賀郡吉備中央町","jp_add_2":"小森"},"7092674":{"post_code":"7092674","prefecture":"OKAYAMA KEN","city":"KAGA GUN KIBICHUO CHO","town":"SASAME","perfecture_jp":"岡山県","jp_add_1":"加賀郡吉備中央町","jp_add_2":"笹目"},"7092331":{"post_code":"7092331","prefecture":"OKAYAMA KEN","city":"KAGA GUN KIBICHUO CHO","town":"SHIMOGAMO","perfecture_jp":"岡山県","jp_add_1":"加賀郡吉備中央町","jp_add_2":"下加茂"},"7092551":{"post_code":"7092551","prefecture":"OKAYAMA KEN","city":"KAGA GUN KIBICHUO CHO","town":"SHIMODOI","perfecture_jp":"岡山県","jp_add_1":"加賀郡吉備中央町","jp_add_2":"下土井"},"7092671":{"post_code":"7092671","prefecture":"OKAYAMA KEN","city":"KAGA GUN KIBICHUO CHO","town":"SUGITANI","perfecture_jp":"岡山県","jp_add_1":"加賀郡吉備中央町","jp_add_2":"杉谷"},"7092402":{"post_code":"7092402","prefecture":"OKAYAMA KEN","city":"KAGA GUN KIBICHUO CHO","town":"TAKATOMI","perfecture_jp":"岡山県","jp_add_1":"加賀郡吉備中央町","jp_add_2":"高富"},"7092332":{"post_code":"7092332","prefecture":"OKAYAMA KEN","city":"KAGA GUN KIBICHUO CHO","town":"TAKAYA","perfecture_jp":"岡山県","jp_add_1":"加賀郡吉備中央町","jp_add_2":"高谷"},"7092343":{"post_code":"7092343","prefecture":"OKAYAMA KEN","city":"KAGA GUN KIBICHUO CHO","town":"TAKEBE","perfecture_jp":"岡山県","jp_add_1":"加賀郡吉備中央町","jp_add_2":"竹部"},"7092553":{"post_code":"7092553","prefecture":"OKAYAMA KEN","city":"KAGA GUN KIBICHUO CHO","town":"TOMINAGA","perfecture_jp":"岡山県","jp_add_1":"加賀郡吉備中央町","jp_add_2":"富永"},"7092664":{"post_code":"7092664","prefecture":"OKAYAMA KEN","city":"KAGA GUN KIBICHUO CHO","town":"TOYOKAKAMI","perfecture_jp":"岡山県","jp_add_1":"加賀郡吉備中央町","jp_add_2":"豊岡上"},"7092661":{"post_code":"7092661","prefecture":"OKAYAMA KEN","city":"KAGA GUN KIBICHUO CHO","town":"TOYOKASHIMO","perfecture_jp":"岡山県","jp_add_1":"加賀郡吉備中央町","jp_add_2":"豊岡下"},"7092345":{"post_code":"7092345","prefecture":"OKAYAMA KEN","city":"KAGA GUN KIBICHUO CHO","town":"HIRAOKA","perfecture_jp":"岡山県","jp_add_1":"加賀郡吉備中央町","jp_add_2":"平岡"},"7092342":{"post_code":"7092342","prefecture":"OKAYAMA KEN","city":"KAGA GUN KIBICHUO CHO","town":"HIROMO","perfecture_jp":"岡山県","jp_add_1":"加賀郡吉備中央町","jp_add_2":"広面"},"7092675":{"post_code":"7092675","prefecture":"OKAYAMA KEN","city":"KAGA GUN KIBICHUO CHO","town":"FUKUZAWA","perfecture_jp":"岡山県","jp_add_1":"加賀郡吉備中央町","jp_add_2":"福沢"},"7092421":{"post_code":"7092421","prefecture":"OKAYAMA KEN","city":"KAGA GUN KIBICHUO CHO","town":"HOSODA","perfecture_jp":"岡山県","jp_add_1":"加賀郡吉備中央町","jp_add_2":"細田"},"7092676":{"post_code":"7092676","prefecture":"OKAYAMA KEN","city":"KAGA GUN KIBICHUO CHO","town":"MIZOBE","perfecture_jp":"岡山県","jp_add_1":"加賀郡吉備中央町","jp_add_2":"溝部"},"7092662":{"post_code":"7092662","prefecture":"OKAYAMA KEN","city":"KAGA GUN KIBICHUO CHO","town":"MITANI","perfecture_jp":"岡山県","jp_add_1":"加賀郡吉備中央町","jp_add_2":"三谷"},"7092422":{"post_code":"7092422","prefecture":"OKAYAMA KEN","city":"KAGA GUN KIBICHUO CHO","town":"MINOTANI","perfecture_jp":"岡山県","jp_add_1":"加賀郡吉備中央町","jp_add_2":"三納谷"},"7092334":{"post_code":"7092334","prefecture":"OKAYAMA KEN","city":"KAGA GUN KIBICHUO CHO","town":"MIHARA","perfecture_jp":"岡山県","jp_add_1":"加賀郡吉備中央町","jp_add_2":"美原"},"7092554":{"post_code":"7092554","prefecture":"OKAYAMA KEN","city":"KAGA GUN KIBICHUO CHO","town":"WADA","perfecture_jp":"岡山県","jp_add_1":"加賀郡吉備中央町","jp_add_2":"和田"}}