{"7150000":{"post_code":"7150000","prefecture":"OKAYAMA KEN","city":"IBARA SHI","town":"IKANIKEISAIGANAIBAAI","perfecture_jp":"岡山県","jp_add_1":"井原市","jp_add_2":""},"7150012":{"post_code":"7150012","prefecture":"OKAYAMA KEN","city":"IBARA SHI","town":"AONOCHO","perfecture_jp":"岡山県","jp_add_1":"井原市","jp_add_2":"青野町"},"7150019":{"post_code":"7150019","prefecture":"OKAYAMA KEN","city":"IBARA SHI","town":"IBARACHO","perfecture_jp":"岡山県","jp_add_1":"井原市","jp_add_2":"井原町"},"7150016":{"post_code":"7150016","prefecture":"OKAYAMA KEN","city":"IBARA SHI","town":"IWAKURACHO","perfecture_jp":"岡山県","jp_add_1":"井原市","jp_add_2":"岩倉町"},"7150023":{"post_code":"7150023","prefecture":"OKAYAMA KEN","city":"IBARA SHI","town":"OECHO","perfecture_jp":"岡山県","jp_add_1":"井原市","jp_add_2":"大江町"},"7150021":{"post_code":"7150021","prefecture":"OKAYAMA KEN","city":"IBARA SHI","town":"KAMIIZUECHO","perfecture_jp":"岡山県","jp_add_1":"井原市","jp_add_2":"上出部町"},"7150026":{"post_code":"7150026","prefecture":"OKAYAMA KEN","city":"IBARA SHI","town":"KAMIIZUECHO SHIKIGAOKA","perfecture_jp":"岡山県","jp_add_1":"井原市","jp_add_2":"上出部町四季が丘"},"7150018":{"post_code":"7150018","prefecture":"OKAYAMA KEN","city":"IBARA SHI","town":"KAMIINAGICHO","perfecture_jp":"岡山県","jp_add_1":"井原市","jp_add_2":"上稲木町"},"7150013":{"post_code":"7150013","prefecture":"OKAYAMA KEN","city":"IBARA SHI","town":"KITAYAMACHO","perfecture_jp":"岡山県","jp_add_1":"井原市","jp_add_2":"北山町"},"7150004":{"post_code":"7150004","prefecture":"OKAYAMA KEN","city":"IBARA SHI","town":"KINOKOCHO","perfecture_jp":"岡山県","jp_add_1":"井原市","jp_add_2":"木之子町"},"7150002":{"post_code":"7150002","prefecture":"OKAYAMA KEN","city":"IBARA SHI","town":"KOJIROCHO","perfecture_jp":"岡山県","jp_add_1":"井原市","jp_add_2":"神代町"},"7150025":{"post_code":"7150025","prefecture":"OKAYAMA KEN","city":"IBARA SHI","town":"SASAKACHO","perfecture_jp":"岡山県","jp_add_1":"井原市","jp_add_2":"笹賀町"},"7150022":{"post_code":"7150022","prefecture":"OKAYAMA KEN","city":"IBARA SHI","town":"SHIMOIZUECHO","perfecture_jp":"岡山県","jp_add_1":"井原市","jp_add_2":"下出部町"},"7150017":{"post_code":"7150017","prefecture":"OKAYAMA KEN","city":"IBARA SHI","town":"SHIMOINAGICHO","perfecture_jp":"岡山県","jp_add_1":"井原市","jp_add_2":"下稲木町"},"7150024":{"post_code":"7150024","prefecture":"OKAYAMA KEN","city":"IBARA SHI","town":"TAKAYACHO","perfecture_jp":"岡山県","jp_add_1":"井原市","jp_add_2":"高屋町"},"7150014":{"post_code":"7150014","prefecture":"OKAYAMA KEN","city":"IBARA SHI","town":"NANUKAICHICHO","perfecture_jp":"岡山県","jp_add_1":"井原市","jp_add_2":"七日市町"},"7150006":{"post_code":"7150006","prefecture":"OKAYAMA KEN","city":"IBARA SHI","town":"NISHIEBARACHO","perfecture_jp":"岡山県","jp_add_1":"井原市","jp_add_2":"西江原町"},"7150015":{"post_code":"7150015","prefecture":"OKAYAMA KEN","city":"IBARA SHI","town":"NISHIGATACHO","perfecture_jp":"岡山県","jp_add_1":"井原市","jp_add_2":"西方町"},"7150001":{"post_code":"7150001","prefecture":"OKAYAMA KEN","city":"IBARA SHI","town":"NOGAMICHO","perfecture_jp":"岡山県","jp_add_1":"井原市","jp_add_2":"野上町"},"7150011":{"post_code":"7150011","prefecture":"OKAYAMA KEN","city":"IBARA SHI","town":"HIEHARACHO","perfecture_jp":"岡山県","jp_add_1":"井原市","jp_add_2":"稗原町"},"7150003":{"post_code":"7150003","prefecture":"OKAYAMA KEN","city":"IBARA SHI","town":"HIGASHIEBARACHO","perfecture_jp":"岡山県","jp_add_1":"井原市","jp_add_2":"東江原町"},"7150005":{"post_code":"7150005","prefecture":"OKAYAMA KEN","city":"IBARA SHI","town":"MONDENCHO","perfecture_jp":"岡山県","jp_add_1":"井原市","jp_add_2":"門田町"}}