{"7170026":{"post_code":"7170026","prefecture":"OKAYAMA KEN","city":"MANIWA SHI","town":"ARATA","perfecture_jp":"岡山県","jp_add_1":"真庭市","jp_add_2":"荒田"},"7170421":{"post_code":"7170421","prefecture":"OKAYAMA KEN","city":"MANIWA SHI","town":"AWADANI","perfecture_jp":"岡山県","jp_add_1":"真庭市","jp_add_2":"粟谷"},"7170413":{"post_code":"7170413","prefecture":"OKAYAMA KEN","city":"MANIWA SHI","town":"INATSU","perfecture_jp":"岡山県","jp_add_1":"真庭市","jp_add_2":"禾津"},"7170745":{"post_code":"7170745","prefecture":"OKAYAMA KEN","city":"MANIWA SHI","town":"IWAIUNE","perfecture_jp":"岡山県","jp_add_1":"真庭市","jp_add_2":"岩井畝"},"7170744":{"post_code":"7170744","prefecture":"OKAYAMA KEN","city":"MANIWA SHI","town":"IWAIDANI","perfecture_jp":"岡山県","jp_add_1":"真庭市","jp_add_2":"岩井谷"},"7170742":{"post_code":"7170742","prefecture":"OKAYAMA KEN","city":"MANIWA SHI","town":"USHIRODANI","perfecture_jp":"岡山県","jp_add_1":"真庭市","jp_add_2":"後谷"},"7170025":{"post_code":"7170025","prefecture":"OKAYAMA KEN","city":"MANIWA SHI","town":"USHIRODANIUNE","perfecture_jp":"岡山県","jp_add_1":"真庭市","jp_add_2":"後谷畝"},"7170023":{"post_code":"7170023","prefecture":"OKAYAMA KEN","city":"MANIWA SHI","town":"EGAWA","perfecture_jp":"岡山県","jp_add_1":"真庭市","jp_add_2":"江川"},"7170015":{"post_code":"7170015","prefecture":"OKAYAMA KEN","city":"MANIWA SHI","town":"OKA","perfecture_jp":"岡山県","jp_add_1":"真庭市","jp_add_2":"岡"},"7170013":{"post_code":"7170013","prefecture":"OKAYAMA KEN","city":"MANIWA SHI","town":"KATSUYAMA","perfecture_jp":"岡山県","jp_add_1":"真庭市","jp_add_2":"勝山"},"7170101":{"post_code":"7170101","prefecture":"OKAYAMA KEN","city":"MANIWA SHI","town":"KANEYAMA","perfecture_jp":"岡山県","jp_add_1":"真庭市","jp_add_2":"鉄山"},"7170746":{"post_code":"7170746","prefecture":"OKAYAMA KEN","city":"MANIWA SHI","town":"KAMI","perfecture_jp":"岡山県","jp_add_1":"真庭市","jp_add_2":"上"},"7170004":{"post_code":"7170004","prefecture":"OKAYAMA KEN","city":"MANIWA SHI","town":"KAMBA","perfecture_jp":"岡山県","jp_add_1":"真庭市","jp_add_2":"神庭"},"7170414":{"post_code":"7170414","prefecture":"OKAYAMA KEN","city":"MANIWA SHI","town":"KUGINUKIKOGAWA","perfecture_jp":"岡山県","jp_add_1":"真庭市","jp_add_2":"釘貫小川"},"7170006":{"post_code":"7170006","prefecture":"OKAYAMA KEN","city":"MANIWA SHI","town":"KUMI","perfecture_jp":"岡山県","jp_add_1":"真庭市","jp_add_2":"組"},"7170423":{"post_code":"7170423","prefecture":"OKAYAMA KEN","city":"MANIWA SHI","town":"KUROKUI","perfecture_jp":"岡山県","jp_add_1":"真庭市","jp_add_2":"黒杭"},"7170102":{"post_code":"7170102","prefecture":"OKAYAMA KEN","city":"MANIWA SHI","town":"KURODA","perfecture_jp":"岡山県","jp_add_1":"真庭市","jp_add_2":"黒田"},"7170027":{"post_code":"7170027","prefecture":"OKAYAMA KEN","city":"MANIWA SHI","town":"KOJIRO","perfecture_jp":"岡山県","jp_add_1":"真庭市","jp_add_2":"神代"},"7170736":{"post_code":"7170736","prefecture":"OKAYAMA KEN","city":"MANIWA SHI","town":"KOROROBINAKA","perfecture_jp":"岡山県","jp_add_1":"真庭市","jp_add_2":"古呂々尾中"},"7170022":{"post_code":"7170022","prefecture":"OKAYAMA KEN","city":"MANIWA SHI","town":"SANDEN","perfecture_jp":"岡山県","jp_add_1":"真庭市","jp_add_2":"三田"},"7170014":{"post_code":"7170014","prefecture":"OKAYAMA KEN","city":"MANIWA SHI","town":"SHIBARA","perfecture_jp":"岡山県","jp_add_1":"真庭市","jp_add_2":"柴原"},"7170735":{"post_code":"7170735","prefecture":"OKAYAMA KEN","city":"MANIWA SHI","town":"SHIMOIWA","perfecture_jp":"岡山県","jp_add_1":"真庭市","jp_add_2":"下岩"},"7170403":{"post_code":"7170403","prefecture":"OKAYAMA KEN","city":"MANIWA SHI","town":"SHIMOYUBARA","perfecture_jp":"岡山県","jp_add_1":"真庭市","jp_add_2":"下湯原"},"7170002":{"post_code":"7170002","prefecture":"OKAYAMA KEN","city":"MANIWA SHI","town":"SUGATANI","perfecture_jp":"岡山県","jp_add_1":"真庭市","jp_add_2":"菅谷"},"7170737":{"post_code":"7170737","prefecture":"OKAYAMA KEN","city":"MANIWA SHI","town":"SEITANI","perfecture_jp":"岡山県","jp_add_1":"真庭市","jp_add_2":"清谷"},"7170732":{"post_code":"7170732","prefecture":"OKAYAMA KEN","city":"MANIWA SHI","town":"TAKATAYAMAUE","perfecture_jp":"岡山県","jp_add_1":"真庭市","jp_add_2":"高田山上"},"7170103":{"post_code":"7170103","prefecture":"OKAYAMA KEN","city":"MANIWA SHI","town":"TAGUCHI","perfecture_jp":"岡山県","jp_add_1":"真庭市","jp_add_2":"田口"},"7170003":{"post_code":"7170003","prefecture":"OKAYAMA KEN","city":"MANIWA SHI","town":"TAKEBARA","perfecture_jp":"岡山県","jp_add_1":"真庭市","jp_add_2":"竹原"},"7170424":{"post_code":"7170424","prefecture":"OKAYAMA KEN","city":"MANIWA SHI","town":"TANE","perfecture_jp":"岡山県","jp_add_1":"真庭市","jp_add_2":"種"},"7170401":{"post_code":"7170401","prefecture":"OKAYAMA KEN","city":"MANIWA SHI","town":"TABANE","perfecture_jp":"岡山県","jp_add_1":"真庭市","jp_add_2":"田羽根"},"7170024":{"post_code":"7170024","prefecture":"OKAYAMA KEN","city":"MANIWA SHI","town":"TSUKIDA","perfecture_jp":"岡山県","jp_add_1":"真庭市","jp_add_2":"月田"},"7170743":{"post_code":"7170743","prefecture":"OKAYAMA KEN","city":"MANIWA SHI","town":"TSUKIDAHON","perfecture_jp":"岡山県","jp_add_1":"真庭市","jp_add_2":"月田本"},"7170415":{"post_code":"7170415","prefecture":"OKAYAMA KEN","city":"MANIWA SHI","town":"TSUGITARU","perfecture_jp":"岡山県","jp_add_1":"真庭市","jp_add_2":"都喜足"},"7170406":{"post_code":"7170406","prefecture":"OKAYAMA KEN","city":"MANIWA SHI","town":"TOYOSAKA","perfecture_jp":"岡山県","jp_add_1":"真庭市","jp_add_2":"豊栄"},"7170416":{"post_code":"7170416","prefecture":"OKAYAMA KEN","city":"MANIWA SHI","town":"NAKAMA","perfecture_jp":"岡山県","jp_add_1":"真庭市","jp_add_2":"仲間"},"7170734":{"post_code":"7170734","prefecture":"OKAYAMA KEN","city":"MANIWA SHI","town":"NO","perfecture_jp":"岡山県","jp_add_1":"真庭市","jp_add_2":"野"},"7170104":{"post_code":"7170104","prefecture":"OKAYAMA KEN","city":"MANIWA SHI","town":"NOBUKAZE","perfecture_jp":"岡山県","jp_add_1":"真庭市","jp_add_2":"延風"},"7170405":{"post_code":"7170405","prefecture":"OKAYAMA KEN","city":"MANIWA SHI","town":"HISAMI","perfecture_jp":"岡山県","jp_add_1":"真庭市","jp_add_2":"久見"},"7170425":{"post_code":"7170425","prefecture":"OKAYAMA KEN","city":"MANIWA SHI","town":"HIJIYA","perfecture_jp":"岡山県","jp_add_1":"真庭市","jp_add_2":"小童谷"},"7170612":{"post_code":"7170612","prefecture":"OKAYAMA KEN","city":"MANIWA SHI","town":"HIRUZEN KAMITOKUYAMA","perfecture_jp":"岡山県","jp_add_1":"真庭市","jp_add_2":"蒜山上徳山"},"7170505":{"post_code":"7170505","prefecture":"OKAYAMA KEN","city":"MANIWA SHI","town":"HIRUZEN KAMINAGATA","perfecture_jp":"岡山県","jp_add_1":"真庭市","jp_add_2":"蒜山上長田"},"7170602":{"post_code":"7170602","prefecture":"OKAYAMA KEN","city":"MANIWA SHI","town":"HIRUZEN KAMIFUKUDA","perfecture_jp":"岡山県","jp_add_1":"真庭市","jp_add_2":"蒜山上福田"},"7170513":{"post_code":"7170513","prefecture":"OKAYAMA KEN","city":"MANIWA SHI","town":"HIRUZEN SHITAO","perfecture_jp":"岡山県","jp_add_1":"真庭市","jp_add_2":"蒜山下和"},"7170613":{"post_code":"7170613","prefecture":"OKAYAMA KEN","city":"MANIWA SHI","town":"HIRUZEN SHIMOTOKUYAMA","perfecture_jp":"岡山県","jp_add_1":"真庭市","jp_add_2":"蒜山下徳山"},"7170506":{"post_code":"7170506","prefecture":"OKAYAMA KEN","city":"MANIWA SHI","town":"HIRUZEN SHIMONAGATA","perfecture_jp":"岡山県","jp_add_1":"真庭市","jp_add_2":"蒜山下長田"},"7170504":{"post_code":"7170504","prefecture":"OKAYAMA KEN","city":"MANIWA SHI","town":"HIRUZEN SHIMOFUKUDA","perfecture_jp":"岡山県","jp_add_1":"真庭市","jp_add_2":"蒜山下福田"},"7170507":{"post_code":"7170507","prefecture":"OKAYAMA KEN","city":"MANIWA SHI","town":"HIRUZEN SHIMOMI","perfecture_jp":"岡山県","jp_add_1":"真庭市","jp_add_2":"蒜山下見"},"7170502":{"post_code":"7170502","prefecture":"OKAYAMA KEN","city":"MANIWA SHI","town":"HIRUZEN TOMIKAKEDA","perfecture_jp":"岡山県","jp_add_1":"真庭市","jp_add_2":"蒜山富掛田"},"7170503":{"post_code":"7170503","prefecture":"OKAYAMA KEN","city":"MANIWA SHI","town":"HIRUZEN TOMIYAMANE","perfecture_jp":"岡山県","jp_add_1":"真庭市","jp_add_2":"蒜山富山根"},"7170501":{"post_code":"7170501","prefecture":"OKAYAMA KEN","city":"MANIWA SHI","town":"HIRUZEN NAKAFUKUDA","perfecture_jp":"岡山県","jp_add_1":"真庭市","jp_add_2":"蒜山中福田"},"7170604":{"post_code":"7170604","prefecture":"OKAYAMA KEN","city":"MANIWA SHI","town":"HIRUZEN NISHIKAYABE","perfecture_jp":"岡山県","jp_add_1":"真庭市","jp_add_2":"蒜山西茅部"},"7170511":{"post_code":"7170511","prefecture":"OKAYAMA KEN","city":"MANIWA SHI","town":"HIRUZEN HATSUWA","perfecture_jp":"岡山県","jp_add_1":"真庭市","jp_add_2":"蒜山初和"},"7170603":{"post_code":"7170603","prefecture":"OKAYAMA KEN","city":"MANIWA SHI","town":"HIRUZEN HIGASHIKAYABE","perfecture_jp":"岡山県","jp_add_1":"真庭市","jp_add_2":"蒜山東茅部"},"7170515":{"post_code":"7170515","prefecture":"OKAYAMA KEN","city":"MANIWA SHI","town":"HIRUZEN BESSHO","perfecture_jp":"岡山県","jp_add_1":"真庭市","jp_add_2":"蒜山別所"},"7170611":{"post_code":"7170611","prefecture":"OKAYAMA KEN","city":"MANIWA SHI","town":"HIRUZEN HONKAYABE","perfecture_jp":"岡山県","jp_add_1":"真庭市","jp_add_2":"蒜山本茅部"},"7170512":{"post_code":"7170512","prefecture":"OKAYAMA KEN","city":"MANIWA SHI","town":"HIRUZEN MAKAGO","perfecture_jp":"岡山県","jp_add_1":"真庭市","jp_add_2":"蒜山真加子"},"7170601":{"post_code":"7170601","prefecture":"OKAYAMA KEN","city":"MANIWA SHI","town":"HIRUZEN YUBUNE","perfecture_jp":"岡山県","jp_add_1":"真庭市","jp_add_2":"蒜山湯船"},"7170514":{"post_code":"7170514","prefecture":"OKAYAMA KEN","city":"MANIWA SHI","town":"HIRUZEN YOSHIDA","perfecture_jp":"岡山県","jp_add_1":"真庭市","jp_add_2":"蒜山吉田"},"7170021":{"post_code":"7170021","prefecture":"OKAYAMA KEN","city":"MANIWA SHI","town":"FUKUTANI","perfecture_jp":"岡山県","jp_add_1":"真庭市","jp_add_2":"福谷"},"7170422":{"post_code":"7170422","prefecture":"OKAYAMA KEN","city":"MANIWA SHI","town":"FUJIMORI","perfecture_jp":"岡山県","jp_add_1":"真庭市","jp_add_2":"藤森"},"7170001":{"post_code":"7170001","prefecture":"OKAYAMA KEN","city":"MANIWA SHI","town":"HOSHIYAMA","perfecture_jp":"岡山県","jp_add_1":"真庭市","jp_add_2":"星山"},"7170007":{"post_code":"7170007","prefecture":"OKAYAMA KEN","city":"MANIWA SHI","town":"HONGO","perfecture_jp":"岡山県","jp_add_1":"真庭市","jp_add_2":"本郷"},"7170412":{"post_code":"7170412","prefecture":"OKAYAMA KEN","city":"MANIWA SHI","town":"HONJO","perfecture_jp":"岡山県","jp_add_1":"真庭市","jp_add_2":"本庄"},"7170017":{"post_code":"7170017","prefecture":"OKAYAMA KEN","city":"MANIWA SHI","town":"MAGA","perfecture_jp":"岡山県","jp_add_1":"真庭市","jp_add_2":"真賀"},"7170731":{"post_code":"7170731","prefecture":"OKAYAMA KEN","city":"MANIWA SHI","town":"MAGARI","perfecture_jp":"岡山県","jp_add_1":"真庭市","jp_add_2":"曲り"},"7170016":{"post_code":"7170016","prefecture":"OKAYAMA KEN","city":"MANIWA SHI","town":"MASAYOSHI","perfecture_jp":"岡山県","jp_add_1":"真庭市","jp_add_2":"正吉"},"7170411":{"post_code":"7170411","prefecture":"OKAYAMA KEN","city":"MANIWA SHI","town":"MIAKEDO","perfecture_jp":"岡山県","jp_add_1":"真庭市","jp_add_2":"見明戸"},"7170011":{"post_code":"7170011","prefecture":"OKAYAMA KEN","city":"MANIWA SHI","town":"MIO","perfecture_jp":"岡山県","jp_add_1":"真庭市","jp_add_2":"見尾"},"7170105":{"post_code":"7170105","prefecture":"OKAYAMA KEN","city":"MANIWA SHI","town":"MIKAMO","perfecture_jp":"岡山県","jp_add_1":"真庭市","jp_add_2":"美甘"},"7170426":{"post_code":"7170426","prefecture":"OKAYAMA KEN","city":"MANIWA SHI","town":"MISESHICHIBARA","perfecture_jp":"岡山県","jp_add_1":"真庭市","jp_add_2":"三世七原"},"7170404":{"post_code":"7170404","prefecture":"OKAYAMA KEN","city":"MANIWA SHI","town":"YASHIRO","perfecture_jp":"岡山県","jp_add_1":"真庭市","jp_add_2":"社"},"7170012":{"post_code":"7170012","prefecture":"OKAYAMA KEN","city":"MANIWA SHI","town":"YAMAKUSE","perfecture_jp":"岡山県","jp_add_1":"真庭市","jp_add_2":"山久世"},"7170402":{"post_code":"7170402","prefecture":"OKAYAMA KEN","city":"MANIWA SHI","town":"YUBARAONSEN","perfecture_jp":"岡山県","jp_add_1":"真庭市","jp_add_2":"湯原温泉"},"7170005":{"post_code":"7170005","prefecture":"OKAYAMA KEN","city":"MANIWA SHI","town":"YOKOBE","perfecture_jp":"岡山県","jp_add_1":"真庭市","jp_add_2":"横部"},"7170741":{"post_code":"7170741","prefecture":"OKAYAMA KEN","city":"MANIWA SHI","town":"WAKASHIRO","perfecture_jp":"岡山県","jp_add_1":"真庭市","jp_add_2":"若代"},"7170733":{"post_code":"7170733","prefecture":"OKAYAMA KEN","city":"MANIWA SHI","town":"WAKASHIRONE","perfecture_jp":"岡山県","jp_add_1":"真庭市","jp_add_2":"若代畝"},"7170201":{"post_code":"7170201","prefecture":"OKAYAMA KEN","city":"MANIWA GUN SHINJO SON","town":"SHINJOSONICHIEN","perfecture_jp":"岡山県","jp_add_1":"真庭郡新庄村","jp_add_2":"新庄村"}}