{"7191100":{"post_code":"7191100","prefecture":"OKAYAMA KEN","city":"SOJA SHI","town":"IKANIKEISAIGANAIBAAI","perfecture_jp":"岡山県","jp_add_1":"総社市","jp_add_2":""},"7191121":{"post_code":"7191121","prefecture":"OKAYAMA KEN","city":"SOJA SHI","town":"AKAHAMA","perfecture_jp":"岡山県","jp_add_1":"総社市","jp_add_2":"赤浜"},"7191154":{"post_code":"7191154","prefecture":"OKAYAMA KEN","city":"SOJA SHI","town":"IJIRINO","perfecture_jp":"岡山県","jp_add_1":"総社市","jp_add_2":"井尻野"},"7191106":{"post_code":"7191106","prefecture":"OKAYAMA KEN","city":"SOJA SHI","town":"IZUMI","perfecture_jp":"岡山県","jp_add_1":"総社市","jp_add_2":"泉"},"7191125":{"post_code":"7191125","prefecture":"OKAYAMA KEN","city":"SOJA SHI","town":"IDE","perfecture_jp":"岡山県","jp_add_1":"総社市","jp_add_2":"井手"},"7191315":{"post_code":"7191315","prefecture":"OKAYAMA KEN","city":"SOJA SHI","town":"UYAMA","perfecture_jp":"岡山県","jp_add_1":"総社市","jp_add_2":"宇山"},"7191136":{"post_code":"7191136","prefecture":"OKAYAMA KEN","city":"SOJA SHI","town":"EKIMAE","perfecture_jp":"岡山県","jp_add_1":"総社市","jp_add_2":"駅前"},"7191162":{"post_code":"7191162","prefecture":"OKAYAMA KEN","city":"SOJA SHI","town":"OKADANI","perfecture_jp":"岡山県","jp_add_1":"総社市","jp_add_2":"岡谷"},"7191101":{"post_code":"7191101","prefecture":"OKAYAMA KEN","city":"SOJA SHI","town":"OKUSAKA","perfecture_jp":"岡山県","jp_add_1":"総社市","jp_add_2":"奥坂"},"7191116":{"post_code":"7191116","prefecture":"OKAYAMA KEN","city":"SOJA SHI","town":"OSHIKABE","perfecture_jp":"岡山県","jp_add_1":"総社市","jp_add_2":"刑部"},"7191322":{"post_code":"7191322","prefecture":"OKAYAMA KEN","city":"SOJA SHI","town":"KAGE","perfecture_jp":"岡山県","jp_add_1":"総社市","jp_add_2":"影"},"7191114":{"post_code":"7191114","prefecture":"OKAYAMA KEN","city":"SOJA SHI","town":"KANAIDO","perfecture_jp":"岡山県","jp_add_1":"総社市","jp_add_2":"金井戸"},"7191123":{"post_code":"7191123","prefecture":"OKAYAMA KEN","city":"SOJA SHI","town":"KAMBAYASHI","perfecture_jp":"岡山県","jp_add_1":"総社市","jp_add_2":"上林"},"7191143":{"post_code":"7191143","prefecture":"OKAYAMA KEN","city":"SOJA SHI","town":"KAMBARA","perfecture_jp":"岡山県","jp_add_1":"総社市","jp_add_2":"上原"},"7191117":{"post_code":"7191117","prefecture":"OKAYAMA KEN","city":"SOJA SHI","town":"KITAMIZOTE","perfecture_jp":"岡山県","jp_add_1":"総社市","jp_add_2":"北溝手"},"7191176":{"post_code":"7191176","prefecture":"OKAYAMA KEN","city":"SOJA SHI","town":"KIYONE KAKINOKI","perfecture_jp":"岡山県","jp_add_1":"総社市","jp_add_2":"清音柿木"},"7191175":{"post_code":"7191175","prefecture":"OKAYAMA KEN","city":"SOJA SHI","town":"KIYONE KAMINAKASHIMA","perfecture_jp":"岡山県","jp_add_1":"総社市","jp_add_2":"清音上中島"},"7191172":{"post_code":"7191172","prefecture":"OKAYAMA KEN","city":"SOJA SHI","town":"KIYONE KARUBE","perfecture_jp":"岡山県","jp_add_1":"総社市","jp_add_2":"清音軽部"},"7191173":{"post_code":"7191173","prefecture":"OKAYAMA KEN","city":"SOJA SHI","town":"KIYONE KUROTA","perfecture_jp":"岡山県","jp_add_1":"総社市","jp_add_2":"清音黒田"},"7191174":{"post_code":"7191174","prefecture":"OKAYAMA KEN","city":"SOJA SHI","town":"KIYONE KOCHI","perfecture_jp":"岡山県","jp_add_1":"総社市","jp_add_2":"清音古地"},"7191171":{"post_code":"7191171","prefecture":"OKAYAMA KEN","city":"SOJA SHI","town":"KIYONE MIYORI","perfecture_jp":"岡山県","jp_add_1":"総社市","jp_add_2":"清音三因"},"7191112":{"post_code":"7191112","prefecture":"OKAYAMA KEN","city":"SOJA SHI","town":"KUBOKI","perfecture_jp":"岡山県","jp_add_1":"総社市","jp_add_2":"窪木"},"7191104":{"post_code":"7191104","prefecture":"OKAYAMA KEN","city":"SOJA SHI","town":"KUME","perfecture_jp":"岡山県","jp_add_1":"総社市","jp_add_2":"久米"},"7191105":{"post_code":"7191105","prefecture":"OKAYAMA KEN","city":"SOJA SHI","town":"KURO","perfecture_jp":"岡山県","jp_add_1":"総社市","jp_add_2":"黒尾"},"7191313":{"post_code":"7191313","prefecture":"OKAYAMA KEN","city":"SOJA SHI","town":"KEYAKI","perfecture_jp":"岡山県","jp_add_1":"総社市","jp_add_2":"槁"},"7191155":{"post_code":"7191155","prefecture":"OKAYAMA KEN","city":"SOJA SHI","town":"KODERA","perfecture_jp":"岡山県","jp_add_1":"総社市","jp_add_2":"小寺"},"7191153":{"post_code":"7191153","prefecture":"OKAYAMA KEN","city":"SOJA SHI","town":"SHISAWA","perfecture_jp":"岡山県","jp_add_1":"総社市","jp_add_2":"宍粟"},"7191321":{"post_code":"7191321","prefecture":"OKAYAMA KEN","city":"SOJA SHI","town":"SHITAGURA","perfecture_jp":"岡山県","jp_add_1":"総社市","jp_add_2":"下倉"},"7191163":{"post_code":"7191163","prefecture":"OKAYAMA KEN","city":"SOJA SHI","town":"JITOKATAYAMA","perfecture_jp":"岡山県","jp_add_1":"総社市","jp_add_2":"地頭片山"},"7191122":{"post_code":"7191122","prefecture":"OKAYAMA KEN","city":"SOJA SHI","town":"SHIMOBAYASHI","perfecture_jp":"岡山県","jp_add_1":"総社市","jp_add_2":"下林"},"7191145":{"post_code":"7191145","prefecture":"OKAYAMA KEN","city":"SOJA SHI","town":"SHIMOBARA","perfecture_jp":"岡山県","jp_add_1":"総社市","jp_add_2":"下原"},"7191161":{"post_code":"7191161","prefecture":"OKAYAMA KEN","city":"SOJA SHI","town":"SHUKU","perfecture_jp":"岡山県","jp_add_1":"総社市","jp_add_2":"宿"},"7191126":{"post_code":"7191126","prefecture":"OKAYAMA KEN","city":"SOJA SHI","town":"SOJA","perfecture_jp":"岡山県","jp_add_1":"総社市","jp_add_2":"総社"},"7191312":{"post_code":"7191312","prefecture":"OKAYAMA KEN","city":"SOJA SHI","town":"TANEI","perfecture_jp":"岡山県","jp_add_1":"総社市","jp_add_2":"種井"},"7191131":{"post_code":"7191131","prefecture":"OKAYAMA KEN","city":"SOJA SHI","town":"CHUO","perfecture_jp":"岡山県","jp_add_1":"総社市","jp_add_2":"中央"},"7191144":{"post_code":"7191144","prefecture":"OKAYAMA KEN","city":"SOJA SHI","town":"TOMBARA","perfecture_jp":"岡山県","jp_add_1":"総社市","jp_add_2":"富原"},"7191323":{"post_code":"7191323","prefecture":"OKAYAMA KEN","city":"SOJA SHI","town":"NAKAO","perfecture_jp":"岡山県","jp_add_1":"総社市","jp_add_2":"中尾"},"7191133":{"post_code":"7191133","prefecture":"OKAYAMA KEN","city":"SOJA SHI","town":"NAKABARA","perfecture_jp":"岡山県","jp_add_1":"総社市","jp_add_2":"中原"},"7191111":{"post_code":"7191111","prefecture":"OKAYAMA KEN","city":"SOJA SHI","town":"NAGARA","perfecture_jp":"岡山県","jp_add_1":"総社市","jp_add_2":"長良"},"7191103":{"post_code":"7191103","prefecture":"OKAYAMA KEN","city":"SOJA SHI","town":"NISHIAZO","perfecture_jp":"岡山県","jp_add_1":"総社市","jp_add_2":"西阿曽"},"7191164":{"post_code":"7191164","prefecture":"OKAYAMA KEN","city":"SOJA SHI","town":"NISHIGORI","perfecture_jp":"岡山県","jp_add_1":"総社市","jp_add_2":"西郡"},"7191165":{"post_code":"7191165","prefecture":"OKAYAMA KEN","city":"SOJA SHI","town":"NISHISAKADAI","perfecture_jp":"岡山県","jp_add_1":"総社市","jp_add_2":"西坂台"},"7191314":{"post_code":"7191314","prefecture":"OKAYAMA KEN","city":"SOJA SHI","town":"NOBUHARA","perfecture_jp":"岡山県","jp_add_1":"総社市","jp_add_2":"延原"},"7191142":{"post_code":"7191142","prefecture":"OKAYAMA KEN","city":"SOJA SHI","town":"HADA","perfecture_jp":"岡山県","jp_add_1":"総社市","jp_add_2":"秦"},"7191324":{"post_code":"7191324","prefecture":"OKAYAMA KEN","city":"SOJA SHI","town":"HARA","perfecture_jp":"岡山県","jp_add_1":"総社市","jp_add_2":"原"},"7191102":{"post_code":"7191102","prefecture":"OKAYAMA KEN","city":"SOJA SHI","town":"HIGASHIAZO","perfecture_jp":"岡山県","jp_add_1":"総社市","jp_add_2":"東阿曽"},"7191316":{"post_code":"7191316","prefecture":"OKAYAMA KEN","city":"SOJA SHI","town":"HIWA","perfecture_jp":"岡山県","jp_add_1":"総社市","jp_add_2":"日羽"},"7191115":{"post_code":"7191115","prefecture":"OKAYAMA KEN","city":"SOJA SHI","town":"FUKUI","perfecture_jp":"岡山県","jp_add_1":"総社市","jp_add_2":"福井"},"7191141":{"post_code":"7191141","prefecture":"OKAYAMA KEN","city":"SOJA SHI","town":"FUKUTANI","perfecture_jp":"岡山県","jp_add_1":"総社市","jp_add_2":"福谷"},"7191134":{"post_code":"7191134","prefecture":"OKAYAMA KEN","city":"SOJA SHI","town":"MAKABE","perfecture_jp":"岡山県","jp_add_1":"総社市","jp_add_2":"真壁"},"7191151":{"post_code":"7191151","prefecture":"OKAYAMA KEN","city":"SOJA SHI","town":"MAKIDANI","perfecture_jp":"岡山県","jp_add_1":"総社市","jp_add_2":"槇谷"},"7191124":{"post_code":"7191124","prefecture":"OKAYAMA KEN","city":"SOJA SHI","town":"MISU","perfecture_jp":"岡山県","jp_add_1":"総社市","jp_add_2":"三須"},"7191135":{"post_code":"7191135","prefecture":"OKAYAMA KEN","city":"SOJA SHI","town":"MIZOKUCHI","perfecture_jp":"岡山県","jp_add_1":"総社市","jp_add_2":"溝口"},"7191311":{"post_code":"7191311","prefecture":"OKAYAMA KEN","city":"SOJA SHI","town":"MINAGI","perfecture_jp":"岡山県","jp_add_1":"総社市","jp_add_2":"美袋"},"7191113":{"post_code":"7191113","prefecture":"OKAYAMA KEN","city":"SOJA SHI","town":"MINAMIMIZOTE","perfecture_jp":"岡山県","jp_add_1":"総社市","jp_add_2":"南溝手"},"7191152":{"post_code":"7191152","prefecture":"OKAYAMA KEN","city":"SOJA SHI","town":"MINOBE","perfecture_jp":"岡山県","jp_add_1":"総社市","jp_add_2":"見延"},"7191132":{"post_code":"7191132","prefecture":"OKAYAMA KEN","city":"SOJA SHI","town":"MIWA","perfecture_jp":"岡山県","jp_add_1":"総社市","jp_add_2":"三輪"},"7191156":{"post_code":"7191156","prefecture":"OKAYAMA KEN","city":"SOJA SHI","town":"MONDE","perfecture_jp":"岡山県","jp_add_1":"総社市","jp_add_2":"門田"},"7191146":{"post_code":"7191146","prefecture":"OKAYAMA KEN","city":"SOJA SHI","town":"YASHIRO","perfecture_jp":"岡山県","jp_add_1":"総社市","jp_add_2":"八代"},"7192233":{"post_code":"7192233","prefecture":"OKAYAMA KEN","city":"TAKAHASHI SHI","town":"UJICHO ANADA","perfecture_jp":"岡山県","jp_add_1":"高梁市","jp_add_2":"宇治町穴田"},"7192232":{"post_code":"7192232","prefecture":"OKAYAMA KEN","city":"TAKAHASHI SHI","town":"UJICHO UJI","perfecture_jp":"岡山県","jp_add_1":"高梁市","jp_add_2":"宇治町宇治"},"7192231":{"post_code":"7192231","prefecture":"OKAYAMA KEN","city":"TAKAHASHI SHI","town":"UJICHO TOBARA","perfecture_jp":"岡山県","jp_add_1":"高梁市","jp_add_2":"宇治町遠原"},"7192234":{"post_code":"7192234","prefecture":"OKAYAMA KEN","city":"TAKAHASHI SHI","town":"UJICHO HONGO","perfecture_jp":"岡山県","jp_add_1":"高梁市","jp_add_2":"宇治町本郷"},"7192121":{"post_code":"7192121","prefecture":"OKAYAMA KEN","city":"TAKAHASHI SHI","town":"KAWAMOCHO","perfecture_jp":"岡山県","jp_add_1":"高梁市","jp_add_2":"川面町"},"7192123":{"post_code":"7192123","prefecture":"OKAYAMA KEN","city":"TAKAHASHI SHI","town":"TAKAKURACHO IIBE","perfecture_jp":"岡山県","jp_add_1":"高梁市","jp_add_2":"高倉町飯部"},"7192122":{"post_code":"7192122","prefecture":"OKAYAMA KEN","city":"TAKAHASHI SHI","town":"TAKAKURACHO TAI","perfecture_jp":"岡山県","jp_add_1":"高梁市","jp_add_2":"高倉町田井"},"7192401":{"post_code":"7192401","prefecture":"OKAYAMA KEN","city":"TAKAHASHI SHI","town":"NAKAICHO TSUTSU","perfecture_jp":"岡山県","jp_add_1":"高梁市","jp_add_2":"中井町津々"},"7192402":{"post_code":"7192402","prefecture":"OKAYAMA KEN","city":"TAKAHASHI SHI","town":"NAKAICHO NISHIGATA","perfecture_jp":"岡山県","jp_add_1":"高梁市","jp_add_2":"中井町西方"},"7192343":{"post_code":"7192343","prefecture":"OKAYAMA KEN","city":"TAKAHASHI SHI","town":"NARIWACHO SAKAMOTO","perfecture_jp":"岡山県","jp_add_1":"高梁市","jp_add_2":"成羽町坂本"},"7192342":{"post_code":"7192342","prefecture":"OKAYAMA KEN","city":"TAKAHASHI SHI","town":"NARIWACHO NAKANO","perfecture_jp":"岡山県","jp_add_1":"高梁市","jp_add_2":"成羽町中野"},"7192341":{"post_code":"7192341","prefecture":"OKAYAMA KEN","city":"TAKAHASHI SHI","town":"NARIWACHO FUKIYA","perfecture_jp":"岡山県","jp_add_1":"高梁市","jp_add_2":"成羽町吹屋"},"7192551":{"post_code":"7192551","prefecture":"OKAYAMA KEN","city":"NIIMI SHI","town":"IKURA","perfecture_jp":"岡山県","jp_add_1":"新見市","jp_add_2":"井倉"},"7193501":{"post_code":"7193501","prefecture":"OKAYAMA KEN","city":"NIIMI SHI","town":"OSA OINO","perfecture_jp":"岡山県","jp_add_1":"新見市","jp_add_2":"大佐大井野"},"7193503":{"post_code":"7193503","prefecture":"OKAYAMA KEN","city":"NIIMI SHI","town":"OSA OSAKABE","perfecture_jp":"岡山県","jp_add_1":"新見市","jp_add_2":"大佐小阪部"},"7193502":{"post_code":"7193502","prefecture":"OKAYAMA KEN","city":"NIIMI SHI","town":"OSA KAMIOSAKABE","perfecture_jp":"岡山県","jp_add_1":"新見市","jp_add_2":"大佐上刑部"},"7193507":{"post_code":"7193507","prefecture":"OKAYAMA KEN","city":"NIIMI SHI","town":"OSA KOMINAMI","perfecture_jp":"岡山県","jp_add_1":"新見市","jp_add_2":"大佐小南"},"7193506":{"post_code":"7193506","prefecture":"OKAYAMA KEN","city":"NIIMI SHI","town":"OSA TAJIBE","perfecture_jp":"岡山県","jp_add_1":"新見市","jp_add_2":"大佐田治部"},"7193504":{"post_code":"7193504","prefecture":"OKAYAMA KEN","city":"NIIMI SHI","town":"OSA NAGADOMI","perfecture_jp":"岡山県","jp_add_1":"新見市","jp_add_2":"大佐永富"},"7193505":{"post_code":"7193505","prefecture":"OKAYAMA KEN","city":"NIIMI SHI","town":"OSA FUSE","perfecture_jp":"岡山県","jp_add_1":"新見市","jp_add_2":"大佐布瀬"},"7192732":{"post_code":"7192732","prefecture":"OKAYAMA KEN","city":"NIIMI SHI","town":"KUSAMA(SHIMOYUKAWA.YOKOHATA)","perfecture_jp":"岡山県","jp_add_1":"新見市","jp_add_2":"草間"},"7192641":{"post_code":"7192641","prefecture":"OKAYAMA KEN","city":"NIIMI SHI","town":"KUSAMA(SONOTA)","perfecture_jp":"岡山県","jp_add_1":"新見市","jp_add_2":"草間"},"7192801":{"post_code":"7192801","prefecture":"OKAYAMA KEN","city":"NIIMI SHI","town":"SHINGO KAMAMURA","perfecture_jp":"岡山県","jp_add_1":"新見市","jp_add_2":"神郷釜村"},"7193611":{"post_code":"7193611","prefecture":"OKAYAMA KEN","city":"NIIMI SHI","town":"SHINGO SHIMOKOJIRO","perfecture_jp":"岡山県","jp_add_1":"新見市","jp_add_2":"神郷下神代"},"7192802":{"post_code":"7192802","prefecture":"OKAYAMA KEN","city":"NIIMI SHI","town":"SHINGO TAKASE","perfecture_jp":"岡山県","jp_add_1":"新見市","jp_add_2":"神郷高瀬"},"7193612":{"post_code":"7193612","prefecture":"OKAYAMA KEN","city":"NIIMI SHI","town":"SHINGO YUNO","perfecture_jp":"岡山県","jp_add_1":"新見市","jp_add_2":"神郷油野"},"7192642":{"post_code":"7192642","prefecture":"OKAYAMA KEN","city":"NIIMI SHI","town":"TARUMI","perfecture_jp":"岡山県","jp_add_1":"新見市","jp_add_2":"足見"},"7192731":{"post_code":"7192731","prefecture":"OKAYAMA KEN","city":"NIIMI SHI","town":"TSUCHIHASHI(OCHIKATA.TERAUCHI)","perfecture_jp":"岡山県","jp_add_1":"新見市","jp_add_2":"土橋"},"7192643":{"post_code":"7192643","prefecture":"OKAYAMA KEN","city":"NIIMI SHI","town":"TSUCHIHASHI(SONOTA)","perfecture_jp":"岡山県","jp_add_1":"新見市","jp_add_2":"土橋"},"7193811":{"post_code":"7193811","prefecture":"OKAYAMA KEN","city":"NIIMI SHI","town":"TESSEICHO OTAKE","perfecture_jp":"岡山県","jp_add_1":"新見市","jp_add_2":"哲西町大竹"},"7193814":{"post_code":"7193814","prefecture":"OKAYAMA KEN","city":"NIIMI SHI","town":"TESSEICHO ONOBE","perfecture_jp":"岡山県","jp_add_1":"新見市","jp_add_2":"哲西町大野部"},"7193702":{"post_code":"7193702","prefecture":"OKAYAMA KEN","city":"NIIMI SHI","town":"TESSEICHO KAMIKOJIRO","perfecture_jp":"岡山県","jp_add_1":"新見市","jp_add_2":"哲西町上神代"},"7193812":{"post_code":"7193812","prefecture":"OKAYAMA KEN","city":"NIIMI SHI","town":"TESSEICHO HATAKI","perfecture_jp":"岡山県","jp_add_1":"新見市","jp_add_2":"哲西町畑木"},"7193813":{"post_code":"7193813","prefecture":"OKAYAMA KEN","city":"NIIMI SHI","town":"TESSEICHO HATTORI","perfecture_jp":"岡山県","jp_add_1":"新見市","jp_add_2":"哲西町八鳥"},"7193701":{"post_code":"7193701","prefecture":"OKAYAMA KEN","city":"NIIMI SHI","town":"TESSEICHO YADA","perfecture_jp":"岡山県","jp_add_1":"新見市","jp_add_2":"哲西町矢田"},"7192721":{"post_code":"7192721","prefecture":"OKAYAMA KEN","city":"NIIMI SHI","town":"TOYONAGA AKOMA","perfecture_jp":"岡山県","jp_add_1":"新見市","jp_add_2":"豊永赤馬"},"7192723":{"post_code":"7192723","prefecture":"OKAYAMA KEN","city":"NIIMI SHI","town":"TOYONAGA UYAMA","perfecture_jp":"岡山県","jp_add_1":"新見市","jp_add_2":"豊永宇山"},"7192722":{"post_code":"7192722","prefecture":"OKAYAMA KEN","city":"NIIMI SHI","town":"TOYONAGA SABUSHI","perfecture_jp":"岡山県","jp_add_1":"新見市","jp_add_2":"豊永佐伏"},"7192552":{"post_code":"7192552","prefecture":"OKAYAMA KEN","city":"NIIMI SHI","town":"HOSO","perfecture_jp":"岡山県","jp_add_1":"新見市","jp_add_2":"法曽"},"7193100":{"post_code":"7193100","prefecture":"OKAYAMA KEN","city":"MANIWA SHI","town":"IKANIKEISAIGANAIBAAI","perfecture_jp":"岡山県","jp_add_1":"真庭市","jp_add_2":""},"7193101":{"post_code":"7193101","prefecture":"OKAYAMA KEN","city":"MANIWA SHI","town":"AKANO","perfecture_jp":"岡山県","jp_add_1":"真庭市","jp_add_2":"赤野"},"7193151":{"post_code":"7193151","prefecture":"OKAYAMA KEN","city":"MANIWA SHI","town":"ISHIKI","perfecture_jp":"岡山県","jp_add_1":"真庭市","jp_add_2":"一色"},"7193131":{"post_code":"7193131","prefecture":"OKAYAMA KEN","city":"MANIWA SHI","town":"UEYAMA","perfecture_jp":"岡山県","jp_add_1":"真庭市","jp_add_2":"上山"},"7193102":{"post_code":"7193102","prefecture":"OKAYAMA KEN","city":"MANIWA SHI","town":"OBA","perfecture_jp":"岡山県","jp_add_1":"真庭市","jp_add_2":"大庭"},"7193144":{"post_code":"7193144","prefecture":"OKAYAMA KEN","city":"MANIWA SHI","town":"OCHIAITARUMI","perfecture_jp":"岡山県","jp_add_1":"真庭市","jp_add_2":"落合垂水"},"7193111":{"post_code":"7193111","prefecture":"OKAYAMA KEN","city":"MANIWA SHI","town":"KAIDE","perfecture_jp":"岡山県","jp_add_1":"真庭市","jp_add_2":"開田"},"7193112":{"post_code":"7193112","prefecture":"OKAYAMA KEN","city":"MANIWA SHI","town":"KAGE","perfecture_jp":"岡山県","jp_add_1":"真庭市","jp_add_2":"影"},"7193211":{"post_code":"7193211","prefecture":"OKAYAMA KEN","city":"MANIWA SHI","town":"KASHINISHI","perfecture_jp":"岡山県","jp_add_1":"真庭市","jp_add_2":"樫西"},"7193223":{"post_code":"7193223","prefecture":"OKAYAMA KEN","city":"MANIWA SHI","town":"KASHIHIGASHI","perfecture_jp":"岡山県","jp_add_1":"真庭市","jp_add_2":"樫東"},"7193152":{"post_code":"7193152","prefecture":"OKAYAMA KEN","city":"MANIWA SHI","town":"KATSUTA","perfecture_jp":"岡山県","jp_add_1":"真庭市","jp_add_2":"鹿田"},"7193141":{"post_code":"7193141","prefecture":"OKAYAMA KEN","city":"MANIWA SHI","town":"KAMIICHIZE","perfecture_jp":"岡山県","jp_add_1":"真庭市","jp_add_2":"上市瀬"},"7193121":{"post_code":"7193121","prefecture":"OKAYAMA KEN","city":"MANIWA SHI","town":"KAMIGOCHI","perfecture_jp":"岡山県","jp_add_1":"真庭市","jp_add_2":"上河内"},"7193142":{"post_code":"7193142","prefecture":"OKAYAMA KEN","city":"MANIWA SHI","town":"KIYAMA","perfecture_jp":"岡山県","jp_add_1":"真庭市","jp_add_2":"木山"},"7193205":{"post_code":"7193205","prefecture":"OKAYAMA KEN","city":"MANIWA SHI","town":"KUSAKABE","perfecture_jp":"岡山県","jp_add_1":"真庭市","jp_add_2":"草加部"},"7193201":{"post_code":"7193201","prefecture":"OKAYAMA KEN","city":"MANIWA SHI","town":"KUSE","perfecture_jp":"岡山県","jp_add_1":"真庭市","jp_add_2":"久世"},"7193153":{"post_code":"7193153","prefecture":"OKAYAMA KEN","city":"MANIWA SHI","town":"KURIHARA","perfecture_jp":"岡山県","jp_add_1":"真庭市","jp_add_2":"栗原"},"7193206":{"post_code":"7193206","prefecture":"OKAYAMA KEN","city":"MANIWA SHI","town":"KO","perfecture_jp":"岡山県","jp_add_1":"真庭市","jp_add_2":"神"},"7193228":{"post_code":"7193228","prefecture":"OKAYAMA KEN","city":"MANIWA SHI","town":"GOTAN","perfecture_jp":"岡山県","jp_add_1":"真庭市","jp_add_2":"五反"},"7193103":{"post_code":"7193103","prefecture":"OKAYAMA KEN","city":"MANIWA SHI","town":"KOMI","perfecture_jp":"岡山県","jp_add_1":"真庭市","jp_add_2":"古見"},"7193154":{"post_code":"7193154","prefecture":"OKAYAMA KEN","city":"MANIWA SHI","town":"SABIKI","perfecture_jp":"岡山県","jp_add_1":"真庭市","jp_add_2":"佐引"},"7193143":{"post_code":"7193143","prefecture":"OKAYAMA KEN","city":"MANIWA SHI","town":"SHIMOICHIZE","perfecture_jp":"岡山県","jp_add_1":"真庭市","jp_add_2":"下市瀬"},"7193155":{"post_code":"7193155","prefecture":"OKAYAMA KEN","city":"MANIWA SHI","town":"SHIMOGATA","perfecture_jp":"岡山県","jp_add_1":"真庭市","jp_add_2":"下方"},"7193122":{"post_code":"7193122","prefecture":"OKAYAMA KEN","city":"MANIWA SHI","town":"SHIMOGOCHI","perfecture_jp":"岡山県","jp_add_1":"真庭市","jp_add_2":"下河内"},"7193123":{"post_code":"7193123","prefecture":"OKAYAMA KEN","city":"MANIWA SHI","town":"SHIMOMI","perfecture_jp":"岡山県","jp_add_1":"真庭市","jp_add_2":"下見"},"7193113":{"post_code":"7193113","prefecture":"OKAYAMA KEN","city":"MANIWA SHI","town":"SUGIYAMA","perfecture_jp":"岡山県","jp_add_1":"真庭市","jp_add_2":"杉山"},"7193156":{"post_code":"7193156","prefecture":"OKAYAMA KEN","city":"MANIWA SHI","town":"SEKI","perfecture_jp":"岡山県","jp_add_1":"真庭市","jp_add_2":"関"},"7193204":{"post_code":"7193204","prefecture":"OKAYAMA KEN","city":"MANIWA SHI","town":"SO","perfecture_jp":"岡山県","jp_add_1":"真庭市","jp_add_2":"惣"},"7193227":{"post_code":"7193227","prefecture":"OKAYAMA KEN","city":"MANIWA SHI","town":"DAIKANAYA","perfecture_jp":"岡山県","jp_add_1":"真庭市","jp_add_2":"台金屋"},"7193114":{"post_code":"7193114","prefecture":"OKAYAMA KEN","city":"MANIWA SHI","town":"TAKAYA","perfecture_jp":"岡山県","jp_add_1":"真庭市","jp_add_2":"高屋"},"7193213":{"post_code":"7193213","prefecture":"OKAYAMA KEN","city":"MANIWA SHI","town":"TADA","perfecture_jp":"岡山県","jp_add_1":"真庭市","jp_add_2":"多田"},"7193104":{"post_code":"7193104","prefecture":"OKAYAMA KEN","city":"MANIWA SHI","town":"TAHARA","perfecture_jp":"岡山県","jp_add_1":"真庭市","jp_add_2":"田原"},"7193132":{"post_code":"7193132","prefecture":"OKAYAMA KEN","city":"MANIWA SHI","town":"TAHARASANJO","perfecture_jp":"岡山県","jp_add_1":"真庭市","jp_add_2":"田原山上"},"7193133":{"post_code":"7193133","prefecture":"OKAYAMA KEN","city":"MANIWA SHI","town":"DANDO","perfecture_jp":"岡山県","jp_add_1":"真庭市","jp_add_2":"旦土"},"7193203":{"post_code":"7193203","prefecture":"OKAYAMA KEN","city":"MANIWA SHI","town":"TOMINO","perfecture_jp":"岡山県","jp_add_1":"真庭市","jp_add_2":"富尾"},"7193115":{"post_code":"7193115","prefecture":"OKAYAMA KEN","city":"MANIWA SHI","town":"NAKA","perfecture_jp":"岡山県","jp_add_1":"真庭市","jp_add_2":"中"},"7193124":{"post_code":"7193124","prefecture":"OKAYAMA KEN","city":"MANIWA SHI","town":"NAKAGOCHI","perfecture_jp":"岡山県","jp_add_1":"真庭市","jp_add_2":"中河内"},"7193202":{"post_code":"7193202","prefecture":"OKAYAMA KEN","city":"MANIWA SHI","town":"NAKASHIMA","perfecture_jp":"岡山県","jp_add_1":"真庭市","jp_add_2":"中島"},"7193225":{"post_code":"7193225","prefecture":"OKAYAMA KEN","city":"MANIWA SHI","town":"NAKABARA","perfecture_jp":"岡山県","jp_add_1":"真庭市","jp_add_2":"中原"},"7193214":{"post_code":"7193214","prefecture":"OKAYAMA KEN","city":"MANIWA SHI","town":"NABEYA","perfecture_jp":"岡山県","jp_add_1":"真庭市","jp_add_2":"鍋屋"},"7193145":{"post_code":"7193145","prefecture":"OKAYAMA KEN","city":"MANIWA SHI","town":"NISHIGOCHI","perfecture_jp":"岡山県","jp_add_1":"真庭市","jp_add_2":"西河内"},"7193105":{"post_code":"7193105","prefecture":"OKAYAMA KEN","city":"MANIWA SHI","town":"NISHIBARA","perfecture_jp":"岡山県","jp_add_1":"真庭市","jp_add_2":"西原"},"7193106":{"post_code":"7193106","prefecture":"OKAYAMA KEN","city":"MANIWA SHI","town":"NOGAWA","perfecture_jp":"岡山県","jp_add_1":"真庭市","jp_add_2":"野川"},"7193134":{"post_code":"7193134","prefecture":"OKAYAMA KEN","city":"MANIWA SHI","town":"NOHARA","perfecture_jp":"岡山県","jp_add_1":"真庭市","jp_add_2":"野原"},"7193116":{"post_code":"7193116","prefecture":"OKAYAMA KEN","city":"MANIWA SHI","town":"HINA","perfecture_jp":"岡山県","jp_add_1":"真庭市","jp_add_2":"日名"},"7193146":{"post_code":"7193146","prefecture":"OKAYAMA KEN","city":"MANIWA SHI","town":"HINOE","perfecture_jp":"岡山県","jp_add_1":"真庭市","jp_add_2":"日野上"},"7193107":{"post_code":"7193107","prefecture":"OKAYAMA KEN","city":"MANIWA SHI","town":"HIRAMATSU","perfecture_jp":"岡山県","jp_add_1":"真庭市","jp_add_2":"平松"},"7193117":{"post_code":"7193117","prefecture":"OKAYAMA KEN","city":"MANIWA SHI","town":"FUKUDA","perfecture_jp":"岡山県","jp_add_1":"真庭市","jp_add_2":"福田"},"7193157":{"post_code":"7193157","prefecture":"OKAYAMA KEN","city":"MANIWA SHI","town":"BESSHIYO","perfecture_jp":"岡山県","jp_add_1":"真庭市","jp_add_2":"別所"},"7193125":{"post_code":"7193125","prefecture":"OKAYAMA KEN","city":"MANIWA SHI","town":"HOKAIJI","perfecture_jp":"岡山県","jp_add_1":"真庭市","jp_add_2":"法界寺"},"7193135":{"post_code":"7193135","prefecture":"OKAYAMA KEN","city":"MANIWA SHI","town":"MAITAKA","perfecture_jp":"岡山県","jp_add_1":"真庭市","jp_add_2":"舞高"},"7193212":{"post_code":"7193212","prefecture":"OKAYAMA KEN","city":"MANIWA SHI","town":"MISAKA","perfecture_jp":"岡山県","jp_add_1":"真庭市","jp_add_2":"三阪"},"7193226":{"post_code":"7193226","prefecture":"OKAYAMA KEN","city":"MANIWA SHI","town":"MISAKI","perfecture_jp":"岡山県","jp_add_1":"真庭市","jp_add_2":"三崎"},"7193126":{"post_code":"7193126","prefecture":"OKAYAMA KEN","city":"MANIWA SHI","town":"MUKATSUYA","perfecture_jp":"岡山県","jp_add_1":"真庭市","jp_add_2":"向津矢"},"7193224":{"post_code":"7193224","prefecture":"OKAYAMA KEN","city":"MANIWA SHI","town":"MEKI","perfecture_jp":"岡山県","jp_add_1":"真庭市","jp_add_2":"目木"},"7193136":{"post_code":"7193136","prefecture":"OKAYAMA KEN","city":"MANIWA SHI","town":"YOSHI","perfecture_jp":"岡山県","jp_add_1":"真庭市","jp_add_2":"吉"},"7193221":{"post_code":"7193221","prefecture":"OKAYAMA KEN","city":"MANIWA SHI","town":"YONOKAMI","perfecture_jp":"岡山県","jp_add_1":"真庭市","jp_add_2":"余野上"},"7193222":{"post_code":"7193222","prefecture":"OKAYAMA KEN","city":"MANIWA SHI","town":"YONOSHIMO","perfecture_jp":"岡山県","jp_add_1":"真庭市","jp_add_2":"余野下"},"7190200":{"post_code":"7190200","prefecture":"OKAYAMA KEN","city":"ASAKUCHI SHI","town":"IKANIKEISAIGANAIBAAI","perfecture_jp":"岡山県","jp_add_1":"浅口市","jp_add_2":""},"7190243":{"post_code":"7190243","prefecture":"OKAYAMA KEN","city":"ASAKUCHI SHI","town":"KAMOGATACHO KAMOGATA","perfecture_jp":"岡山県","jp_add_1":"浅口市","jp_add_2":"鴨方町鴨方"},"7190231":{"post_code":"7190231","prefecture":"OKAYAMA KEN","city":"ASAKUCHI SHI","town":"KAMOGATACHO KOSAKANISHI","perfecture_jp":"岡山県","jp_add_1":"浅口市","jp_add_2":"鴨方町小坂西"},"7190241":{"post_code":"7190241","prefecture":"OKAYAMA KEN","city":"ASAKUCHI SHI","town":"KAMOGATACHO KOSAKAHIGASHI","perfecture_jp":"岡山県","jp_add_1":"浅口市","jp_add_2":"鴨方町小坂東"},"7190233":{"post_code":"7190233","prefecture":"OKAYAMA KEN","city":"ASAKUCHI SHI","town":"KAMOGATACHO JITOKAMI","perfecture_jp":"岡山県","jp_add_1":"浅口市","jp_add_2":"鴨方町地頭上"},"7190253":{"post_code":"7190253","prefecture":"OKAYAMA KEN","city":"ASAKUCHI SHI","town":"KAMOGATACHO HATOGAOKA","perfecture_jp":"岡山県","jp_add_1":"浅口市","jp_add_2":"鴨方町鳩ケ丘"},"7190244":{"post_code":"7190244","prefecture":"OKAYAMA KEN","city":"ASAKUCHI SHI","town":"KAMOGATACHO FUKADA","perfecture_jp":"岡山県","jp_add_1":"浅口市","jp_add_2":"鴨方町深田"},"7190232":{"post_code":"7190232","prefecture":"OKAYAMA KEN","city":"ASAKUCHI SHI","town":"KAMOGATACHO HONJO","perfecture_jp":"岡山県","jp_add_1":"浅口市","jp_add_2":"鴨方町本庄"},"7190234":{"post_code":"7190234","prefecture":"OKAYAMA KEN","city":"ASAKUCHI SHI","town":"KAMOGATACHO MASUSAKA","perfecture_jp":"岡山県","jp_add_1":"浅口市","jp_add_2":"鴨方町益坂"},"7190242":{"post_code":"7190242","prefecture":"OKAYAMA KEN","city":"ASAKUCHI SHI","town":"KAMOGATACHO MIDORIGAOKA","perfecture_jp":"岡山県","jp_add_1":"浅口市","jp_add_2":"鴨方町みどりケ丘"},"7190252":{"post_code":"7190252","prefecture":"OKAYAMA KEN","city":"ASAKUCHI SHI","town":"KAMOGATACHO ROKUJOINNAKA","perfecture_jp":"岡山県","jp_add_1":"浅口市","jp_add_2":"鴨方町六条院中"},"7190251":{"post_code":"7190251","prefecture":"OKAYAMA KEN","city":"ASAKUCHI SHI","town":"KAMOGATACHO ROKUJOINNISHI","perfecture_jp":"岡山県","jp_add_1":"浅口市","jp_add_2":"鴨方町六条院西"},"7190254":{"post_code":"7190254","prefecture":"OKAYAMA KEN","city":"ASAKUCHI SHI","town":"KAMOGATACHO ROKUJOINHIGASHI","perfecture_jp":"岡山県","jp_add_1":"浅口市","jp_add_2":"鴨方町六条院東"},"7190105":{"post_code":"7190105","prefecture":"OKAYAMA KEN","city":"ASAKUCHI SHI","town":"KONKOCHO URAMI","perfecture_jp":"岡山県","jp_add_1":"浅口市","jp_add_2":"金光町占見"},"7190104":{"post_code":"7190104","prefecture":"OKAYAMA KEN","city":"ASAKUCHI SHI","town":"KONKOCHO URAMISHINDEN","perfecture_jp":"岡山県","jp_add_1":"浅口市","jp_add_2":"金光町占見新田"},"7190111":{"post_code":"7190111","prefecture":"OKAYAMA KEN","city":"ASAKUCHI SHI","town":"KONKOCHO OTANI","perfecture_jp":"岡山県","jp_add_1":"浅口市","jp_add_2":"金光町大谷"},"7190221":{"post_code":"7190221","prefecture":"OKAYAMA KEN","city":"ASAKUCHI SHI","town":"KONKOCHO KAMIDAKE (YOSHOZAN)","perfecture_jp":"岡山県","jp_add_1":"浅口市","jp_add_2":"金光町上竹"},"7190101":{"post_code":"7190101","prefecture":"OKAYAMA KEN","city":"ASAKUCHI SHI","town":"KONKOCHO KAMIDAKE(SONOTA)","perfecture_jp":"岡山県","jp_add_1":"浅口市","jp_add_2":"金光町上竹"},"7190113":{"post_code":"7190113","prefecture":"OKAYAMA KEN","city":"ASAKUCHI SHI","town":"KONKOCHO SAGATA","perfecture_jp":"岡山県","jp_add_1":"浅口市","jp_add_2":"金光町佐方"},"7190106":{"post_code":"7190106","prefecture":"OKAYAMA KEN","city":"ASAKUCHI SHI","town":"KONKOCHO JITOSHIMO","perfecture_jp":"岡山県","jp_add_1":"浅口市","jp_add_2":"金光町地頭下"},"7190102":{"post_code":"7190102","prefecture":"OKAYAMA KEN","city":"ASAKUCHI SHI","town":"KONKOCHO SHIMODAKE","perfecture_jp":"岡山県","jp_add_1":"浅口市","jp_add_2":"金光町下竹"},"7190112":{"post_code":"7190112","prefecture":"OKAYAMA KEN","city":"ASAKUCHI SHI","town":"KONKOCHO SUE","perfecture_jp":"岡山県","jp_add_1":"浅口市","jp_add_2":"金光町須恵"},"7190103":{"post_code":"7190103","prefecture":"OKAYAMA KEN","city":"ASAKUCHI SHI","town":"KONKOCHO YAE","perfecture_jp":"岡山県","jp_add_1":"浅口市","jp_add_2":"金光町八重"},"7190300":{"post_code":"7190300","prefecture":"OKAYAMA KEN","city":"ASAKUCHI GUN SATOSHO CHO","town":"IKANIKEISAIGANAIBAAI","perfecture_jp":"岡山県","jp_add_1":"浅口郡里庄町","jp_add_2":""},"7190301":{"post_code":"7190301","prefecture":"OKAYAMA KEN","city":"ASAKUCHI GUN SATOSHO CHO","town":"SATOMI","perfecture_jp":"岡山県","jp_add_1":"浅口郡里庄町","jp_add_2":"里見"},"7190302":{"post_code":"7190302","prefecture":"OKAYAMA KEN","city":"ASAKUCHI GUN SATOSHO CHO","town":"SHINJO","perfecture_jp":"岡山県","jp_add_1":"浅口郡里庄町","jp_add_2":"新庄"},"7190304":{"post_code":"7190304","prefecture":"OKAYAMA KEN","city":"ASAKUCHI GUN SATOSHO CHO","town":"SHINJOGURINKURESUTO","perfecture_jp":"岡山県","jp_add_1":"浅口郡里庄町","jp_add_2":"新庄グリーンクレスト"},"7190303":{"post_code":"7190303","prefecture":"OKAYAMA KEN","city":"ASAKUCHI GUN SATOSHO CHO","town":"HAMANAKA","perfecture_jp":"岡山県","jp_add_1":"浅口郡里庄町","jp_add_2":"浜中"}}