{"7210000":{"post_code":"7210000","prefecture":"HIROSHIMA KEN","city":"FUKUYAMA SHI","town":"IKANIKEISAIGANAIBAAI","perfecture_jp":"広島県","jp_add_1":"福山市","jp_add_2":""},"7210911":{"post_code":"7210911","prefecture":"HIROSHIMA KEN","city":"FUKUYAMA SHI","town":"AOBADAI","perfecture_jp":"広島県","jp_add_1":"福山市","jp_add_2":"青葉台"},"7210952":{"post_code":"7210952","prefecture":"HIROSHIMA KEN","city":"FUKUYAMA SHI","town":"AKEBONOCHO","perfecture_jp":"広島県","jp_add_1":"福山市","jp_add_2":"曙町"},"7210915":{"post_code":"7210915","prefecture":"HIROSHIMA KEN","city":"FUKUYAMA SHI","town":"ISEGAOKA","perfecture_jp":"広島県","jp_add_1":"福山市","jp_add_2":"伊勢丘"},"7210953":{"post_code":"7210953","prefecture":"HIROSHIMA KEN","city":"FUKUYAMA SHI","town":"ICHIMONJICHO","perfecture_jp":"広島県","jp_add_1":"福山市","jp_add_2":"一文字町"},"7210965":{"post_code":"7210965","prefecture":"HIROSHIMA KEN","city":"FUKUYAMA SHI","town":"OJICHO","perfecture_jp":"広島県","jp_add_1":"福山市","jp_add_2":"王子町"},"7210914":{"post_code":"7210914","prefecture":"HIROSHIMA KEN","city":"FUKUYAMA SHI","town":"OTANIDAI","perfecture_jp":"広島県","jp_add_1":"福山市","jp_add_2":"大谷台"},"7210954":{"post_code":"7210954","prefecture":"HIROSHIMA KEN","city":"FUKUYAMA SHI","town":"OROSHIMACHI","perfecture_jp":"広島県","jp_add_1":"福山市","jp_add_2":"卸町"},"7210917":{"post_code":"7210917","prefecture":"HIROSHIMA KEN","city":"FUKUYAMA SHI","town":"KASUGAIKE","perfecture_jp":"広島県","jp_add_1":"福山市","jp_add_2":"春日池"},"7210916":{"post_code":"7210916","prefecture":"HIROSHIMA KEN","city":"FUKUYAMA SHI","town":"KASUGADAI","perfecture_jp":"広島県","jp_add_1":"福山市","jp_add_2":"春日台"},"7210907":{"post_code":"7210907","prefecture":"HIROSHIMA KEN","city":"FUKUYAMA SHI","town":"KASUGACHO","perfecture_jp":"広島県","jp_add_1":"福山市","jp_add_2":"春日町"},"7210901":{"post_code":"7210901","prefecture":"HIROSHIMA KEN","city":"FUKUYAMA SHI","town":"KASUGACHO UYAMA","perfecture_jp":"広島県","jp_add_1":"福山市","jp_add_2":"春日町宇山"},"7210902":{"post_code":"7210902","prefecture":"HIROSHIMA KEN","city":"FUKUYAMA SHI","town":"KASUGACHO URAKAMI","perfecture_jp":"広島県","jp_add_1":"福山市","jp_add_2":"春日町浦上"},"7210908":{"post_code":"7210908","prefecture":"HIROSHIMA KEN","city":"FUKUYAMA SHI","town":"KASUGACHO YOSHIDA","perfecture_jp":"広島県","jp_add_1":"福山市","jp_add_2":"春日町吉田"},"7210931":{"post_code":"7210931","prefecture":"HIROSHIMA KEN","city":"FUKUYAMA SHI","town":"KOKANCHO","perfecture_jp":"広島県","jp_add_1":"福山市","jp_add_2":"鋼管町"},"7210971":{"post_code":"7210971","prefecture":"HIROSHIMA KEN","city":"FUKUYAMA SHI","town":"ZAOCHO","perfecture_jp":"広島県","jp_add_1":"福山市","jp_add_2":"蔵王町"},"7210929":{"post_code":"7210929","prefecture":"HIROSHIMA KEN","city":"FUKUYAMA SHI","town":"JOKOGAOKA","perfecture_jp":"広島県","jp_add_1":"福山市","jp_add_2":"城興ケ丘"},"7210955":{"post_code":"7210955","prefecture":"HIROSHIMA KEN","city":"FUKUYAMA SHI","town":"SHINGAICHO","perfecture_jp":"広島県","jp_add_1":"福山市","jp_add_2":"新涯町"},"7210951":{"post_code":"7210951","prefecture":"HIROSHIMA KEN","city":"FUKUYAMA SHI","town":"SHINHAMACHO","perfecture_jp":"広島県","jp_add_1":"福山市","jp_add_2":"新浜町"},"7210926":{"post_code":"7210926","prefecture":"HIROSHIMA KEN","city":"FUKUYAMA SHI","town":"DAIMONCHO","perfecture_jp":"広島県","jp_add_1":"福山市","jp_add_2":"大門町"},"7210924":{"post_code":"7210924","prefecture":"HIROSHIMA KEN","city":"FUKUYAMA SHI","town":"DAIMONCHO ASAHI","perfecture_jp":"広島県","jp_add_1":"福山市","jp_add_2":"大門町旭"},"7210922":{"post_code":"7210922","prefecture":"HIROSHIMA KEN","city":"FUKUYAMA SHI","town":"DAIMONCHO HINODEOKA","perfecture_jp":"広島県","jp_add_1":"福山市","jp_add_2":"大門町日之出丘"},"7210925":{"post_code":"7210925","prefecture":"HIROSHIMA KEN","city":"FUKUYAMA SHI","town":"DAIMONCHO SAKARI","perfecture_jp":"広島県","jp_add_1":"福山市","jp_add_2":"大門町坂里"},"7210921":{"post_code":"7210921","prefecture":"HIROSHIMA KEN","city":"FUKUYAMA SHI","town":"DAIMONCHO DAIMON","perfecture_jp":"広島県","jp_add_1":"福山市","jp_add_2":"大門町大門"},"7210927":{"post_code":"7210927","prefecture":"HIROSHIMA KEN","city":"FUKUYAMA SHI","town":"DAIMONCHO TSUNOSHITA","perfecture_jp":"広島県","jp_add_1":"福山市","jp_add_2":"大門町津之下"},"7210923":{"post_code":"7210923","prefecture":"HIROSHIMA KEN","city":"FUKUYAMA SHI","town":"DAIMONCHO NONOHAMA","perfecture_jp":"広島県","jp_add_1":"福山市","jp_add_2":"大門町野々浜"},"7210903":{"post_code":"7210903","prefecture":"HIROSHIMA KEN","city":"FUKUYAMA SHI","town":"TSUBOCHO","perfecture_jp":"広島県","jp_add_1":"福山市","jp_add_2":"坪生町"},"7210904":{"post_code":"7210904","prefecture":"HIROSHIMA KEN","city":"FUKUYAMA SHI","town":"TSUBOCHOMINAMI","perfecture_jp":"広島県","jp_add_1":"福山市","jp_add_2":"坪生町南"},"7210966":{"post_code":"7210966","prefecture":"HIROSHIMA KEN","city":"FUKUYAMA SHI","town":"TESHIROCHO","perfecture_jp":"広島県","jp_add_1":"福山市","jp_add_2":"手城町"},"7210912":{"post_code":"7210912","prefecture":"HIROSHIMA KEN","city":"FUKUYAMA SHI","town":"TOYODAI","perfecture_jp":"広島県","jp_add_1":"福山市","jp_add_2":"東陽台"},"7210958":{"post_code":"7210958","prefecture":"HIROSHIMA KEN","city":"FUKUYAMA SHI","town":"NISHISHINGAICHO","perfecture_jp":"広島県","jp_add_1":"福山市","jp_add_2":"西新涯町"},"7210975":{"post_code":"7210975","prefecture":"HIROSHIMA KEN","city":"FUKUYAMA SHI","town":"NISHIFUKATSUCHO","perfecture_jp":"広島県","jp_add_1":"福山市","jp_add_2":"西深津町"},"7210906":{"post_code":"7210906","prefecture":"HIROSHIMA KEN","city":"FUKUYAMA SHI","town":"NOJIMA","perfecture_jp":"広島県","jp_add_1":"福山市","jp_add_2":"能島"},"7210962":{"post_code":"7210962","prefecture":"HIROSHIMA KEN","city":"FUKUYAMA SHI","town":"HIGASHITESHIROCHO","perfecture_jp":"広島県","jp_add_1":"福山市","jp_add_2":"東手城町"},"7210974":{"post_code":"7210974","prefecture":"HIROSHIMA KEN","city":"FUKUYAMA SHI","town":"HIGASHIFUKATSUCHO","perfecture_jp":"広島県","jp_add_1":"福山市","jp_add_2":"東深津町"},"7210942":{"post_code":"7210942","prefecture":"HIROSHIMA KEN","city":"FUKUYAMA SHI","town":"HIKINOCHO","perfecture_jp":"広島県","jp_add_1":"福山市","jp_add_2":"引野町"},"7210941":{"post_code":"7210941","prefecture":"HIROSHIMA KEN","city":"FUKUYAMA SHI","town":"HIKINOCHOKITA","perfecture_jp":"広島県","jp_add_1":"福山市","jp_add_2":"引野町北"},"7210944":{"post_code":"7210944","prefecture":"HIROSHIMA KEN","city":"FUKUYAMA SHI","town":"HIKINOCHOHIGASHI","perfecture_jp":"広島県","jp_add_1":"福山市","jp_add_2":"引野町東"},"7210945":{"post_code":"7210945","prefecture":"HIROSHIMA KEN","city":"FUKUYAMA SHI","town":"HIKINOCHOMINAMI","perfecture_jp":"広島県","jp_add_1":"福山市","jp_add_2":"引野町南"},"7210972":{"post_code":"7210972","prefecture":"HIROSHIMA KEN","city":"FUKUYAMA SHI","town":"HIYOSHIDAI","perfecture_jp":"広島県","jp_add_1":"福山市","jp_add_2":"日吉台"},"7210943":{"post_code":"7210943","prefecture":"HIROSHIMA KEN","city":"FUKUYAMA SHI","town":"HEISEIDAI","perfecture_jp":"広島県","jp_add_1":"福山市","jp_add_2":"平成台"},"7210913":{"post_code":"7210913","prefecture":"HIROSHIMA KEN","city":"FUKUYAMA SHI","town":"MAKUYAMADAI","perfecture_jp":"広島県","jp_add_1":"福山市","jp_add_2":"幕山台"},"7210964":{"post_code":"7210964","prefecture":"HIROSHIMA KEN","city":"FUKUYAMA SHI","town":"MINATOMACHI","perfecture_jp":"広島県","jp_add_1":"福山市","jp_add_2":"港町"},"7210973":{"post_code":"7210973","prefecture":"HIROSHIMA KEN","city":"FUKUYAMA SHI","town":"MINAMIZAOCHO","perfecture_jp":"広島県","jp_add_1":"福山市","jp_add_2":"南蔵王町"},"7210963":{"post_code":"7210963","prefecture":"HIROSHIMA KEN","city":"FUKUYAMA SHI","town":"MINAMITESHIROCHO","perfecture_jp":"広島県","jp_add_1":"福山市","jp_add_2":"南手城町"},"7210956":{"post_code":"7210956","prefecture":"HIROSHIMA KEN","city":"FUKUYAMA SHI","town":"MINOKICHO","perfecture_jp":"広島県","jp_add_1":"福山市","jp_add_2":"箕沖町"},"7210957":{"post_code":"7210957","prefecture":"HIROSHIMA KEN","city":"FUKUYAMA SHI","town":"MINOSHIMACHO","perfecture_jp":"広島県","jp_add_1":"福山市","jp_add_2":"箕島町"},"7210961":{"post_code":"7210961","prefecture":"HIROSHIMA KEN","city":"FUKUYAMA SHI","town":"MYOJINCHO","perfecture_jp":"広島県","jp_add_1":"福山市","jp_add_2":"明神町"}}