{"7230000":{"post_code":"7230000","prefecture":"HIROSHIMA KEN","city":"MIHARA SHI","town":"IKANIKEISAIGANAIBAAI","perfecture_jp":"広島県","jp_add_1":"三原市","jp_add_2":""},"7230047":{"post_code":"7230047","prefecture":"HIROSHIMA KEN","city":"MIHARA SHI","town":"AOBADAI","perfecture_jp":"広島県","jp_add_1":"三原市","jp_add_2":"青葉台"},"7230012":{"post_code":"7230012","prefecture":"HIROSHIMA KEN","city":"MIHARA SHI","town":"ASAHIMACHI","perfecture_jp":"広島県","jp_add_1":"三原市","jp_add_2":"旭町"},"7230015":{"post_code":"7230015","prefecture":"HIROSHIMA KEN","city":"MIHARA SHI","town":"ENICHICHO","perfecture_jp":"広島県","jp_add_1":"三原市","jp_add_2":"円一町"},"7230066":{"post_code":"7230066","prefecture":"HIROSHIMA KEN","city":"MIHARA SHI","town":"OHATACHO","perfecture_jp":"広島県","jp_add_1":"三原市","jp_add_2":"大畑町"},"7230033":{"post_code":"7230033","prefecture":"HIROSHIMA KEN","city":"MIHARA SHI","town":"OKIURACHO","perfecture_jp":"広島県","jp_add_1":"三原市","jp_add_2":"沖浦町"},"7230131":{"post_code":"7230131","prefecture":"HIROSHIMA KEN","city":"MIHARA SHI","town":"OSAKACHO","perfecture_jp":"広島県","jp_add_1":"三原市","jp_add_2":"小坂町"},"7230043":{"post_code":"7230043","prefecture":"HIROSHIMA KEN","city":"MIHARA SHI","town":"KAINOCHO","perfecture_jp":"広島県","jp_add_1":"三原市","jp_add_2":"貝野町"},"7230053":{"post_code":"7230053","prefecture":"HIROSHIMA KEN","city":"MIHARA SHI","town":"GAKUENCHO","perfecture_jp":"広島県","jp_add_1":"三原市","jp_add_2":"学園町"},"7230013":{"post_code":"7230013","prefecture":"HIROSHIMA KEN","city":"MIHARA SHI","town":"KOHAMA","perfecture_jp":"広島県","jp_add_1":"三原市","jp_add_2":"古浜"},"7230006":{"post_code":"7230006","prefecture":"HIROSHIMA KEN","city":"MIHARA SHI","town":"KOMAGAHARACHO","perfecture_jp":"広島県","jp_add_1":"三原市","jp_add_2":"駒ケ原町"},"7230021":{"post_code":"7230021","prefecture":"HIROSHIMA KEN","city":"MIHARA SHI","town":"SAGIURACHO SUNAMI","perfecture_jp":"広島県","jp_add_1":"三原市","jp_add_2":"鷺浦町須波"},"7230022":{"post_code":"7230022","prefecture":"HIROSHIMA KEN","city":"MIHARA SHI","town":"SAGIURACHO MUKOTANORA","perfecture_jp":"広島県","jp_add_1":"三原市","jp_add_2":"鷺浦町向田野浦"},"7230005":{"post_code":"7230005","prefecture":"HIROSHIMA KEN","city":"MIHARA SHI","town":"SAKURAYAMACHO","perfecture_jp":"広島県","jp_add_1":"三原市","jp_add_2":"桜山町"},"7230014":{"post_code":"7230014","prefecture":"HIROSHIMA KEN","city":"MIHARA SHI","town":"SHIROMACHI","perfecture_jp":"広島県","jp_add_1":"三原市","jp_add_2":"城町"},"7230134":{"post_code":"7230134","prefecture":"HIROSHIMA KEN","city":"MIHARA SHI","town":"SHINKURACHO","perfecture_jp":"広島県","jp_add_1":"三原市","jp_add_2":"新倉"},"7230031":{"post_code":"7230031","prefecture":"HIROSHIMA KEN","city":"MIHARA SHI","town":"SUNAMICHO","perfecture_jp":"広島県","jp_add_1":"三原市","jp_add_2":"須波"},"7230032":{"post_code":"7230032","prefecture":"HIROSHIMA KEN","city":"MIHARA SHI","town":"SUNAMINISHIMACHI","perfecture_jp":"広島県","jp_add_1":"三原市","jp_add_2":"須波西"},"7230035":{"post_code":"7230035","prefecture":"HIROSHIMA KEN","city":"MIHARA SHI","town":"SUNAMIHAITSU","perfecture_jp":"広島県","jp_add_1":"三原市","jp_add_2":"須波ハイツ"},"7230044":{"post_code":"7230044","prefecture":"HIROSHIMA KEN","city":"MIHARA SHI","town":"SOGO","perfecture_jp":"広島県","jp_add_1":"三原市","jp_add_2":"宗郷"},"7230045":{"post_code":"7230045","prefecture":"HIROSHIMA KEN","city":"MIHARA SHI","town":"TANORA","perfecture_jp":"広島県","jp_add_1":"三原市","jp_add_2":"田野浦"},"7230003":{"post_code":"7230003","prefecture":"HIROSHIMA KEN","city":"MIHARA SHI","town":"NAKANOCHO","perfecture_jp":"広島県","jp_add_1":"三原市","jp_add_2":"中之町"},"7230002":{"post_code":"7230002","prefecture":"HIROSHIMA KEN","city":"MIHARA SHI","town":"NAKANOCHO MINAMI","perfecture_jp":"広島県","jp_add_1":"三原市","jp_add_2":"中之町南"},"7230007":{"post_code":"7230007","prefecture":"HIROSHIMA KEN","city":"MIHARA SHI","town":"NAKANOCHO KITA","perfecture_jp":"広島県","jp_add_1":"三原市","jp_add_2":"中之町北"},"7230132":{"post_code":"7230132","prefecture":"HIROSHIMA KEN","city":"MIHARA SHI","town":"NAGATANICHO","perfecture_jp":"広島県","jp_add_1":"三原市","jp_add_2":"長谷"},"7230065":{"post_code":"7230065","prefecture":"HIROSHIMA KEN","city":"MIHARA SHI","town":"NISHINO","perfecture_jp":"広島県","jp_add_1":"三原市","jp_add_2":"西野"},"7230063":{"post_code":"7230063","prefecture":"HIROSHIMA KEN","city":"MIHARA SHI","town":"NISHIMACHI","perfecture_jp":"広島県","jp_add_1":"三原市","jp_add_2":"西町"},"7230064":{"post_code":"7230064","prefecture":"HIROSHIMA KEN","city":"MIHARA SHI","town":"NISHIMIYA","perfecture_jp":"広島県","jp_add_1":"三原市","jp_add_2":"西宮"},"7230133":{"post_code":"7230133","prefecture":"HIROSHIMA KEN","city":"MIHARA SHI","town":"NUTACHO","perfecture_jp":"広島県","jp_add_1":"三原市","jp_add_2":"沼田"},"7230145":{"post_code":"7230145","prefecture":"HIROSHIMA KEN","city":"MIHARA SHI","town":"NUTAHIGASHICHO KATASHIMA","perfecture_jp":"広島県","jp_add_1":"三原市","jp_add_2":"沼田東町片島"},"7230143":{"post_code":"7230143","prefecture":"HIROSHIMA KEN","city":"MIHARA SHI","town":"NUTAHIGASHICHO KAMAYAMA","perfecture_jp":"広島県","jp_add_1":"三原市","jp_add_2":"沼田東町釜山"},"7230148":{"post_code":"7230148","prefecture":"HIROSHIMA KEN","city":"MIHARA SHI","town":"NUTAHIGASHICHO SHIPPO","perfecture_jp":"広島県","jp_add_1":"三原市","jp_add_2":"沼田東町七宝"},"7230144":{"post_code":"7230144","prefecture":"HIROSHIMA KEN","city":"MIHARA SHI","town":"NUTAHIGASHICHO SUEHIRO","perfecture_jp":"広島県","jp_add_1":"三原市","jp_add_2":"沼田東町末広"},"7230142":{"post_code":"7230142","prefecture":"HIROSHIMA KEN","city":"MIHARA SHI","town":"NUTAHIGASHICHO SUEMITSU","perfecture_jp":"広島県","jp_add_1":"三原市","jp_add_2":"沼田東町末光"},"7230146":{"post_code":"7230146","prefecture":"HIROSHIMA KEN","city":"MIHARA SHI","town":"NUTAHIGASHICHO NOSO","perfecture_jp":"広島県","jp_add_1":"三原市","jp_add_2":"沼田東町納所"},"7230147":{"post_code":"7230147","prefecture":"HIROSHIMA KEN","city":"MIHARA SHI","town":"NUTAHIGASHICHO HONICHI","perfecture_jp":"広島県","jp_add_1":"三原市","jp_add_2":"沼田東町本市"},"7230141":{"post_code":"7230141","prefecture":"HIROSHIMA KEN","city":"MIHARA SHI","town":"NUTAHIGASHICHO RYOMYO","perfecture_jp":"広島県","jp_add_1":"三原市","jp_add_2":"沼田東町両名"},"7230034":{"post_code":"7230034","prefecture":"HIROSHIMA KEN","city":"MIHARA SHI","town":"NOBORICHO","perfecture_jp":"広島県","jp_add_1":"三原市","jp_add_2":"登町"},"7230011":{"post_code":"7230011","prefecture":"HIROSHIMA KEN","city":"MIHARA SHI","town":"HIGASHIMACHI","perfecture_jp":"広島県","jp_add_1":"三原市","jp_add_2":"東町"},"7230001":{"post_code":"7230001","prefecture":"HIROSHIMA KEN","city":"MIHARA SHI","town":"FUKAMACHI","perfecture_jp":"広島県","jp_add_1":"三原市","jp_add_2":"深町"},"7230062":{"post_code":"7230062","prefecture":"HIROSHIMA KEN","city":"MIHARA SHI","town":"HOMMACHI","perfecture_jp":"広島県","jp_add_1":"三原市","jp_add_2":"本町"},"7230017":{"post_code":"7230017","prefecture":"HIROSHIMA KEN","city":"MIHARA SHI","town":"MINATOMACHI","perfecture_jp":"広島県","jp_add_1":"三原市","jp_add_2":"港町"},"7230052":{"post_code":"7230052","prefecture":"HIROSHIMA KEN","city":"MIHARA SHI","town":"MINAMI","perfecture_jp":"広島県","jp_add_1":"三原市","jp_add_2":"皆実"},"7230051":{"post_code":"7230051","prefecture":"HIROSHIMA KEN","city":"MIHARA SHI","town":"MIYAURA","perfecture_jp":"広島県","jp_add_1":"三原市","jp_add_2":"宮浦"},"7230016":{"post_code":"7230016","prefecture":"HIROSHIMA KEN","city":"MIHARA SHI","town":"MIYAOKI","perfecture_jp":"広島県","jp_add_1":"三原市","jp_add_2":"宮沖"},"7230046":{"post_code":"7230046","prefecture":"HIROSHIMA KEN","city":"MIHARA SHI","town":"MYOJIN","perfecture_jp":"広島県","jp_add_1":"三原市","jp_add_2":"明神"},"7230004":{"post_code":"7230004","prefecture":"HIROSHIMA KEN","city":"MIHARA SHI","town":"YAKATAMACHI","perfecture_jp":"広島県","jp_add_1":"三原市","jp_add_2":"館町"},"7230061":{"post_code":"7230061","prefecture":"HIROSHIMA KEN","city":"MIHARA SHI","town":"YASAKACHO","perfecture_jp":"広島県","jp_add_1":"三原市","jp_add_2":"八坂町"},"7230054":{"post_code":"7230054","prefecture":"HIROSHIMA KEN","city":"MIHARA SHI","town":"YORIKANE","perfecture_jp":"広島県","jp_add_1":"三原市","jp_add_2":"頼兼"},"7230042":{"post_code":"7230042","prefecture":"HIROSHIMA KEN","city":"MIHARA SHI","town":"WADAOKICHO","perfecture_jp":"広島県","jp_add_1":"三原市","jp_add_2":"和田沖町"},"7230041":{"post_code":"7230041","prefecture":"HIROSHIMA KEN","city":"MIHARA SHI","town":"WADA","perfecture_jp":"広島県","jp_add_1":"三原市","jp_add_2":"和田"}}