{"7250000":{"post_code":"7250000","prefecture":"HIROSHIMA KEN","city":"TAKEHARA SHI","town":"IKANIKEISAIGANAIBAAI","perfecture_jp":"広島県","jp_add_1":"竹原市","jp_add_2":""},"7250011":{"post_code":"7250011","prefecture":"HIROSHIMA KEN","city":"TAKEHARA SHI","town":"ONASHICHO","perfecture_jp":"広島県","jp_add_1":"竹原市","jp_add_2":"小梨町"},"7250025":{"post_code":"7250025","prefecture":"HIROSHIMA KEN","city":"TAKEHARA SHI","town":"SHIOMACHI","perfecture_jp":"広島県","jp_add_1":"竹原市","jp_add_2":"塩町"},"7250012":{"post_code":"7250012","prefecture":"HIROSHIMA KEN","city":"TAKEHARA SHI","town":"SHIMONOCHO","perfecture_jp":"広島県","jp_add_1":"竹原市","jp_add_2":"下野町"},"7250003":{"post_code":"7250003","prefecture":"HIROSHIMA KEN","city":"TAKEHARA SHI","town":"SHINJOCHO","perfecture_jp":"広島県","jp_add_1":"竹原市","jp_add_2":"新庄町"},"7250021":{"post_code":"7250021","prefecture":"HIROSHIMA KEN","city":"TAKEHARA SHI","town":"TAKEHARACHO","perfecture_jp":"広島県","jp_add_1":"竹原市","jp_add_2":"竹原町"},"7250023":{"post_code":"7250023","prefecture":"HIROSHIMA KEN","city":"TAKEHARA SHI","town":"TANORA","perfecture_jp":"広島県","jp_add_1":"竹原市","jp_add_2":"田ノ浦"},"7250001":{"post_code":"7250001","prefecture":"HIROSHIMA KEN","city":"TAKEHARA SHI","town":"TAMARICHO","perfecture_jp":"広島県","jp_add_1":"竹原市","jp_add_2":"田万里町"},"7250026":{"post_code":"7250026","prefecture":"HIROSHIMA KEN","city":"TAKEHARA SHI","town":"CHUO","perfecture_jp":"広島県","jp_add_1":"竹原市","jp_add_2":"中央"},"7250005":{"post_code":"7250005","prefecture":"HIROSHIMA KEN","city":"TAKEHARA SHI","town":"NIKACHO","perfecture_jp":"広島県","jp_add_1":"竹原市","jp_add_2":"仁賀町"},"7250002":{"post_code":"7250002","prefecture":"HIROSHIMA KEN","city":"TAKEHARA SHI","town":"NISHINOCHO","perfecture_jp":"広島県","jp_add_1":"竹原市","jp_add_2":"西野町"},"7250004":{"post_code":"7250004","prefecture":"HIROSHIMA KEN","city":"TAKEHARA SHI","town":"HIGASHINOCHO","perfecture_jp":"広島県","jp_add_1":"竹原市","jp_add_2":"東野町"},"7250022":{"post_code":"7250022","prefecture":"HIROSHIMA KEN","city":"TAKEHARA SHI","town":"HOMMACHI","perfecture_jp":"広島県","jp_add_1":"竹原市","jp_add_2":"本町"},"7250024":{"post_code":"7250024","prefecture":"HIROSHIMA KEN","city":"TAKEHARA SHI","town":"MINATOMACHI","perfecture_jp":"広島県","jp_add_1":"竹原市","jp_add_2":"港町"},"7250013":{"post_code":"7250013","prefecture":"HIROSHIMA KEN","city":"TAKEHARA SHI","town":"YOSHINACHO","perfecture_jp":"広島県","jp_add_1":"竹原市","jp_add_2":"吉名町"},"7250200":{"post_code":"7250200","prefecture":"HIROSHIMA KEN","city":"TOYOTA GUN OSAKIKAMIJIMA CHO","town":"IKANIKEISAIGANAIBAAI","perfecture_jp":"広島県","jp_add_1":"豊田郡大崎上島町","jp_add_2":""},"7250403":{"post_code":"7250403","prefecture":"HIROSHIMA KEN","city":"TOYOTA GUN OSAKIKAMIJIMA CHO","town":"AKASHI","perfecture_jp":"広島県","jp_add_1":"豊田郡大崎上島町","jp_add_2":"明石"},"7250303":{"post_code":"7250303","prefecture":"HIROSHIMA KEN","city":"TOYOTA GUN OSAKIKAMIJIMA CHO","town":"OKUSHI","perfecture_jp":"広島県","jp_add_1":"豊田郡大崎上島町","jp_add_2":"大串"},"7250402":{"post_code":"7250402","prefecture":"HIROSHIMA KEN","city":"TOYOTA GUN OSAKIKAMIJIMA CHO","town":"OKIURA","perfecture_jp":"広島県","jp_add_1":"豊田郡大崎上島町","jp_add_2":"沖浦"},"7250401":{"post_code":"7250401","prefecture":"HIROSHIMA KEN","city":"TOYOTA GUN OSAKIKAMIJIMA CHO","town":"KINOE","perfecture_jp":"広島県","jp_add_1":"豊田郡大崎上島町","jp_add_2":"木江"},"7250301":{"post_code":"7250301","prefecture":"HIROSHIMA KEN","city":"TOYOTA GUN OSAKIKAMIJIMA CHO","town":"NAKANO","perfecture_jp":"広島県","jp_add_1":"豊田郡大崎上島町","jp_add_2":"中野"},"7250302":{"post_code":"7250302","prefecture":"HIROSHIMA KEN","city":"TOYOTA GUN OSAKIKAMIJIMA CHO","town":"HARADA","perfecture_jp":"広島県","jp_add_1":"豊田郡大崎上島町","jp_add_2":"原田"},"7250231":{"post_code":"7250231","prefecture":"HIROSHIMA KEN","city":"TOYOTA GUN OSAKIKAMIJIMA CHO","town":"HIGASHINO","perfecture_jp":"広島県","jp_add_1":"豊田郡大崎上島町","jp_add_2":"東野"}}