{"7270000":{"post_code":"7270000","prefecture":"HIROSHIMA KEN","city":"SHOBARA SHI","town":"IKANIKEISAIGANAIBAAI","perfecture_jp":"広島県","jp_add_1":"庄原市","jp_add_2":""},"7270014":{"post_code":"7270014","prefecture":"HIROSHIMA KEN","city":"SHOBARA SHI","town":"ITABASHICHO","perfecture_jp":"広島県","jp_add_1":"庄原市","jp_add_2":"板橋町"},"7270025":{"post_code":"7270025","prefecture":"HIROSHIMA KEN","city":"SHOBARA SHI","town":"ICHIMACHI","perfecture_jp":"広島県","jp_add_1":"庄原市","jp_add_2":"市町"},"7270624":{"post_code":"7270624","prefecture":"HIROSHIMA KEN","city":"SHOBARA SHI","town":"UEDANICHO","perfecture_jp":"広島県","jp_add_1":"庄原市","jp_add_2":"上谷町"},"7270001":{"post_code":"7270001","prefecture":"HIROSHIMA KEN","city":"SHOBARA SHI","town":"OKUBOCHO","perfecture_jp":"広島県","jp_add_1":"庄原市","jp_add_2":"大久保町"},"7270026":{"post_code":"7270026","prefecture":"HIROSHIMA KEN","city":"SHOBARA SHI","town":"KAKEDACHO","perfecture_jp":"広島県","jp_add_1":"庄原市","jp_add_2":"掛田町"},"7270022":{"post_code":"7270022","prefecture":"HIROSHIMA KEN","city":"SHOBARA SHI","town":"KAMIHARACHO","perfecture_jp":"広島県","jp_add_1":"庄原市","jp_add_2":"上原町"},"7270203":{"post_code":"7270203","prefecture":"HIROSHIMA KEN","city":"SHOBARA SHI","town":"KAWAKITACHO","perfecture_jp":"広島県","jp_add_1":"庄原市","jp_add_2":"川北町"},"7270005":{"post_code":"7270005","prefecture":"HIROSHIMA KEN","city":"SHOBARA SHI","town":"KAWATEMACHI","perfecture_jp":"広島県","jp_add_1":"庄原市","jp_add_2":"川手町"},"7270112":{"post_code":"7270112","prefecture":"HIROSHIMA KEN","city":"SHOBARA SHI","town":"KUCHIWACHO KINDE","perfecture_jp":"広島県","jp_add_1":"庄原市","jp_add_2":"口和町金田"},"7270113":{"post_code":"7270113","prefecture":"HIROSHIMA KEN","city":"SHOBARA SHI","town":"KUCHIWACHO TSUNESADA","perfecture_jp":"広島県","jp_add_1":"庄原市","jp_add_2":"口和町常定"},"7270114":{"post_code":"7270114","prefecture":"HIROSHIMA KEN","city":"SHOBARA SHI","town":"KUCHIWACHO NAGATA","perfecture_jp":"広島県","jp_add_1":"庄原市","jp_add_2":"口和町永田"},"7270111":{"post_code":"7270111","prefecture":"HIROSHIMA KEN","city":"SHOBARA SHI","town":"KUCHIWACHO YUKI","perfecture_jp":"広島県","jp_add_1":"庄原市","jp_add_2":"口和町湯木"},"7270003":{"post_code":"7270003","prefecture":"HIROSHIMA KEN","city":"SHOBARA SHI","town":"KOREMATSUCHO","perfecture_jp":"広島県","jp_add_1":"庄原市","jp_add_2":"是松町"},"7270015":{"post_code":"7270015","prefecture":"HIROSHIMA KEN","city":"SHOBARA SHI","town":"SANEDOMECHO","perfecture_jp":"広島県","jp_add_1":"庄原市","jp_add_2":"実留町"},"7270621":{"post_code":"7270621","prefecture":"HIROSHIMA KEN","city":"SHOBARA SHI","town":"SHUNDACHO","perfecture_jp":"広島県","jp_add_1":"庄原市","jp_add_2":"春田町"},"7270004":{"post_code":"7270004","prefecture":"HIROSHIMA KEN","city":"SHOBARA SHI","town":"SHINJOCHO","perfecture_jp":"広島県","jp_add_1":"庄原市","jp_add_2":"新庄町"},"7270002":{"post_code":"7270002","prefecture":"HIROSHIMA KEN","city":"SHOBARA SHI","town":"TAKAKADOCHO","perfecture_jp":"広島県","jp_add_1":"庄原市","jp_add_2":"高門町"},"7270425":{"post_code":"7270425","prefecture":"HIROSHIMA KEN","city":"SHOBARA SHI","town":"TAKANOCHO AGARIHARA","perfecture_jp":"広島県","jp_add_1":"庄原市","jp_add_2":"高野町上里原"},"7270403":{"post_code":"7270403","prefecture":"HIROSHIMA KEN","city":"SHOBARA SHI","town":"TAKANOCHO OKAOUCHI","perfecture_jp":"広島県","jp_add_1":"庄原市","jp_add_2":"高野町岡大内"},"7270422":{"post_code":"7270422","prefecture":"HIROSHIMA KEN","city":"SHOBARA SHI","town":"TAKANOCHO OKUMONDE","perfecture_jp":"広島県","jp_add_1":"庄原市","jp_add_2":"高野町奥門田"},"7270411":{"post_code":"7270411","prefecture":"HIROSHIMA KEN","city":"SHOBARA SHI","town":"TAKANOCHO KAMIYUKAWA","perfecture_jp":"広島県","jp_add_1":"庄原市","jp_add_2":"高野町上湯川"},"7270424":{"post_code":"7270424","prefecture":"HIROSHIMA KEN","city":"SHOBARA SHI","town":"TAKANOCHO KOBO","perfecture_jp":"広島県","jp_add_1":"庄原市","jp_add_2":"高野町高暮"},"7270412":{"post_code":"7270412","prefecture":"HIROSHIMA KEN","city":"SHOBARA SHI","town":"TAKANOCHO SHIMOYUKAWA","perfecture_jp":"広島県","jp_add_1":"庄原市","jp_add_2":"高野町下湯川"},"7270423":{"post_code":"7270423","prefecture":"HIROSHIMA KEN","city":"SHOBARA SHI","town":"TAKANOCHO SHIMONDE","perfecture_jp":"広島県","jp_add_1":"庄原市","jp_add_2":"高野町下門田"},"7270402":{"post_code":"7270402","prefecture":"HIROSHIMA KEN","city":"SHOBARA SHI","town":"TAKANOCHO SHINICHI","perfecture_jp":"広島県","jp_add_1":"庄原市","jp_add_2":"高野町新市"},"7270421":{"post_code":"7270421","prefecture":"HIROSHIMA KEN","city":"SHOBARA SHI","town":"TAKANOCHO NAKAMONDE","perfecture_jp":"広島県","jp_add_1":"庄原市","jp_add_2":"高野町中門田"},"7270413":{"post_code":"7270413","prefecture":"HIROSHIMA KEN","city":"SHOBARA SHI","town":"TAKANOCHO MINAMI","perfecture_jp":"広島県","jp_add_1":"庄原市","jp_add_2":"高野町南"},"7270401":{"post_code":"7270401","prefecture":"HIROSHIMA KEN","city":"SHOBARA SHI","town":"TAKANOCHO WANAMBARA","perfecture_jp":"広島県","jp_add_1":"庄原市","jp_add_2":"高野町和南原"},"7270024":{"post_code":"7270024","prefecture":"HIROSHIMA KEN","city":"SHOBARA SHI","town":"TAWARACHO","perfecture_jp":"広島県","jp_add_1":"庄原市","jp_add_2":"田原町"},"7270017":{"post_code":"7270017","prefecture":"HIROSHIMA KEN","city":"SHOBARA SHI","town":"TOGOCHO","perfecture_jp":"広島県","jp_add_1":"庄原市","jp_add_2":"戸郷町"},"7270008":{"post_code":"7270008","prefecture":"HIROSHIMA KEN","city":"SHOBARA SHI","town":"NAGASUECHO","perfecture_jp":"広島県","jp_add_1":"庄原市","jp_add_2":"永末町"},"7270012":{"post_code":"7270012","prefecture":"HIROSHIMA KEN","city":"SHOBARA SHI","town":"NAKAHOMMACHI","perfecture_jp":"広島県","jp_add_1":"庄原市","jp_add_2":"中本町"},"7270023":{"post_code":"7270023","prefecture":"HIROSHIMA KEN","city":"SHOBARA SHI","town":"NANATSUKACHO","perfecture_jp":"広島県","jp_add_1":"庄原市","jp_add_2":"七塚町"},"7270202":{"post_code":"7270202","prefecture":"HIROSHIMA KEN","city":"SHOBARA SHI","town":"NIGORIKAWACHO","perfecture_jp":"広島県","jp_add_1":"庄原市","jp_add_2":"濁川町"},"7270013":{"post_code":"7270013","prefecture":"HIROSHIMA KEN","city":"SHOBARA SHI","town":"NISHIHOMMACHI","perfecture_jp":"広島県","jp_add_1":"庄原市","jp_add_2":"西本町"},"7270011":{"post_code":"7270011","prefecture":"HIROSHIMA KEN","city":"SHOBARA SHI","town":"HIGASHIHOMMACHI","perfecture_jp":"広島県","jp_add_1":"庄原市","jp_add_2":"東本町"},"7270016":{"post_code":"7270016","prefecture":"HIROSHIMA KEN","city":"SHOBARA SHI","town":"HITOTSUGICHO","perfecture_jp":"広島県","jp_add_1":"庄原市","jp_add_2":"一木町"},"7270302":{"post_code":"7270302","prefecture":"HIROSHIMA KEN","city":"SHOBARA SHI","town":"HIWACHO KOGORO","perfecture_jp":"広島県","jp_add_1":"庄原市","jp_add_2":"比和町古頃"},"7270312":{"post_code":"7270312","prefecture":"HIROSHIMA KEN","city":"SHOBARA SHI","town":"HIWACHO KOYABARA","perfecture_jp":"広島県","jp_add_1":"庄原市","jp_add_2":"比和町木屋原"},"7270301":{"post_code":"7270301","prefecture":"HIROSHIMA KEN","city":"SHOBARA SHI","town":"HIWACHO HIWA","perfecture_jp":"広島県","jp_add_1":"庄原市","jp_add_2":"比和町比和"},"7270311":{"post_code":"7270311","prefecture":"HIROSHIMA KEN","city":"SHOBARA SHI","town":"HIWACHO MITSUGAICHI","perfecture_jp":"広島県","jp_add_1":"庄原市","jp_add_2":"比和町三河内"},"7270321":{"post_code":"7270321","prefecture":"HIROSHIMA KEN","city":"SHOBARA SHI","town":"HIWACHO MORIWAKI","perfecture_jp":"広島県","jp_add_1":"庄原市","jp_add_2":"比和町森脇"},"7270006":{"post_code":"7270006","prefecture":"HIROSHIMA KEN","city":"SHOBARA SHI","town":"HOMMACHI","perfecture_jp":"広島県","jp_add_1":"庄原市","jp_add_2":"本町"},"7270623":{"post_code":"7270623","prefecture":"HIROSHIMA KEN","city":"SHOBARA SHI","town":"HOMMURACHO","perfecture_jp":"広島県","jp_add_1":"庄原市","jp_add_2":"本村町"},"7270021":{"post_code":"7270021","prefecture":"HIROSHIMA KEN","city":"SHOBARA SHI","town":"MIKKAICHICHO","perfecture_jp":"広島県","jp_add_1":"庄原市","jp_add_2":"三日市町"},"7270622":{"post_code":"7270622","prefecture":"HIROSHIMA KEN","city":"SHOBARA SHI","town":"MINETACHO","perfecture_jp":"広島県","jp_add_1":"庄原市","jp_add_2":"峰田町"},"7270007":{"post_code":"7270007","prefecture":"HIROSHIMA KEN","city":"SHOBARA SHI","town":"MIYAUCHICHO","perfecture_jp":"広島県","jp_add_1":"庄原市","jp_add_2":"宮内町"},"7270201":{"post_code":"7270201","prefecture":"HIROSHIMA KEN","city":"SHOBARA SHI","town":"MONDECHO","perfecture_jp":"広島県","jp_add_1":"庄原市","jp_add_2":"門田町"}}