{"7280000":{"post_code":"7280000","prefecture":"HIROSHIMA KEN","city":"MIYOSHI SHI","town":"IKANIKEISAIGANAIBAAI","perfecture_jp":"広島県","jp_add_1":"三次市","jp_add_2":""},"7280024":{"post_code":"7280024","prefecture":"HIROSHIMA KEN","city":"MIYOSHI SHI","town":"AOGAMACHI","perfecture_jp":"広島県","jp_add_1":"三次市","jp_add_2":"青河町"},"7280004":{"post_code":"7280004","prefecture":"HIROSHIMA KEN","city":"MIYOSHI SHI","town":"ANAGASAMACHI","perfecture_jp":"広島県","jp_add_1":"三次市","jp_add_2":"穴笠町"},"7280625":{"post_code":"7280625","prefecture":"HIROSHIMA KEN","city":"MIYOSHI SHI","town":"ARIHARAMACHI","perfecture_jp":"広島県","jp_add_1":"三次市","jp_add_2":"有原町"},"7280025":{"post_code":"7280025","prefecture":"HIROSHIMA KEN","city":"MIYOSHI SHI","town":"AWAYAMACHI","perfecture_jp":"広島県","jp_add_1":"三次市","jp_add_2":"粟屋町"},"7280623":{"post_code":"7280623","prefecture":"HIROSHIMA KEN","city":"MIYOSHI SHI","town":"ISHIHARAMACHI","perfecture_jp":"広島県","jp_add_1":"三次市","jp_add_2":"石原町"},"7280624":{"post_code":"7280624","prefecture":"HIROSHIMA KEN","city":"MIYOSHI SHI","town":"UEDAMACHI","perfecture_jp":"広島県","jp_add_1":"三次市","jp_add_2":"上田町"},"7280005":{"post_code":"7280005","prefecture":"HIROSHIMA KEN","city":"MIYOSHI SHI","town":"USHIROYAMAMACHI","perfecture_jp":"広島県","jp_add_1":"三次市","jp_add_2":"後山町"},"7280622":{"post_code":"7280622","prefecture":"HIROSHIMA KEN","city":"MIYOSHI SHI","town":"UTOMACHI","perfecture_jp":"広島県","jp_add_1":"三次市","jp_add_2":"海渡町"},"7280007":{"post_code":"7280007","prefecture":"HIROSHIMA KEN","city":"MIYOSHI SHI","town":"OBUMIMACHI","perfecture_jp":"広島県","jp_add_1":"三次市","jp_add_2":"小文町"},"7280404":{"post_code":"7280404","prefecture":"HIROSHIMA KEN","city":"MIYOSHI SHI","town":"KIMITACHO ISHIHARA","perfecture_jp":"広島県","jp_add_1":"三次市","jp_add_2":"君田町石原"},"7280405":{"post_code":"7280405","prefecture":"HIROSHIMA KEN","city":"MIYOSHI SHI","town":"KIMITACHO IZUMIYOSHIDA","perfecture_jp":"広島県","jp_add_1":"三次市","jp_add_2":"君田町泉吉田"},"7280402":{"post_code":"7280402","prefecture":"HIROSHIMA KEN","city":"MIYOSHI SHI","town":"KIMITACHO NISHIIRIGIMI","perfecture_jp":"広島県","jp_add_1":"三次市","jp_add_2":"君田町西入君"},"7280401":{"post_code":"7280401","prefecture":"HIROSHIMA KEN","city":"MIYOSHI SHI","town":"KIMITACHO HIGASHIIRIGIMI","perfecture_jp":"広島県","jp_add_1":"三次市","jp_add_2":"君田町東入君"},"7280406":{"post_code":"7280406","prefecture":"HIROSHIMA KEN","city":"MIYOSHI SHI","town":"KIMITACHO HITSUTA","perfecture_jp":"広島県","jp_add_1":"三次市","jp_add_2":"君田町櫃田"},"7280403":{"post_code":"7280403","prefecture":"HIROSHIMA KEN","city":"MIYOSHI SHI","town":"KIMITACHO FUJIKANE","perfecture_jp":"広島県","jp_add_1":"三次市","jp_add_2":"君田町藤兼"},"7280407":{"post_code":"7280407","prefecture":"HIROSHIMA KEN","city":"MIYOSHI SHI","town":"KIMITACHO MODA","perfecture_jp":"広島県","jp_add_1":"三次市","jp_add_2":"君田町茂田"},"7280111":{"post_code":"7280111","prefecture":"HIROSHIMA KEN","city":"MIYOSHI SHI","town":"SAKUGICHO IKAWASHI","perfecture_jp":"広島県","jp_add_1":"三次市","jp_add_2":"作木町伊賀和志"},"7280115":{"post_code":"7280115","prefecture":"HIROSHIMA KEN","city":"MIYOSHI SHI","town":"SAKUGICHO OTSU","perfecture_jp":"広島県","jp_add_1":"三次市","jp_add_2":"作木町大津"},"7280121":{"post_code":"7280121","prefecture":"HIROSHIMA KEN","city":"MIYOSHI SHI","town":"SAKUGICHO OBATAKE","perfecture_jp":"広島県","jp_add_1":"三次市","jp_add_2":"作木町大畠"},"7280132":{"post_code":"7280132","prefecture":"HIROSHIMA KEN","city":"MIYOSHI SHI","town":"SAKUGICHO OYAMA","perfecture_jp":"広島県","jp_add_1":"三次市","jp_add_2":"作木町大山"},"7280101":{"post_code":"7280101","prefecture":"HIROSHIMA KEN","city":"MIYOSHI SHI","town":"SAKUGICHO OKAMIBUCHI","perfecture_jp":"広島県","jp_add_1":"三次市","jp_add_2":"作木町岡三渕"},"7280123":{"post_code":"7280123","prefecture":"HIROSHIMA KEN","city":"MIYOSHI SHI","town":"SAKUGICHO KAMISAKUGI","perfecture_jp":"広島県","jp_add_1":"三次市","jp_add_2":"作木町上作木"},"7280131":{"post_code":"7280131","prefecture":"HIROSHIMA KEN","city":"MIYOSHI SHI","town":"SAKUGICHO KOYODO","perfecture_jp":"広島県","jp_add_1":"三次市","jp_add_2":"作木町香淀"},"7280124":{"post_code":"7280124","prefecture":"HIROSHIMA KEN","city":"MIYOSHI SHI","town":"SAKUGICHO SHIMOSAKUGI","perfecture_jp":"広島県","jp_add_1":"三次市","jp_add_2":"作木町下作木"},"7280122":{"post_code":"7280122","prefecture":"HIROSHIMA KEN","city":"MIYOSHI SHI","town":"SAKUGICHO NISHINO","perfecture_jp":"広島県","jp_add_1":"三次市","jp_add_2":"作木町西野"},"7280125":{"post_code":"7280125","prefecture":"HIROSHIMA KEN","city":"MIYOSHI SHI","town":"SAKUGICHO MITSUMORI","perfecture_jp":"広島県","jp_add_1":"三次市","jp_add_2":"作木町光守"},"7280114":{"post_code":"7280114","prefecture":"HIROSHIMA KEN","city":"MIYOSHI SHI","town":"SAKUGICHO MORIYAMANAKA","perfecture_jp":"広島県","jp_add_1":"三次市","jp_add_2":"作木町森山中"},"7280112":{"post_code":"7280112","prefecture":"HIROSHIMA KEN","city":"MIYOSHI SHI","town":"SAKUGICHO MORIYAMANISHI","perfecture_jp":"広島県","jp_add_1":"三次市","jp_add_2":"作木町森山西"},"7280113":{"post_code":"7280113","prefecture":"HIROSHIMA KEN","city":"MIYOSHI SHI","town":"SAKUGICHO MORIYAMAHIGASHI","perfecture_jp":"広島県","jp_add_1":"三次市","jp_add_2":"作木町森山東"},"7280133":{"post_code":"7280133","prefecture":"HIROSHIMA KEN","city":"MIYOSHI SHI","town":"SAKUGICHO MONDE","perfecture_jp":"広島県","jp_add_1":"三次市","jp_add_2":"作木町門田"},"7280016":{"post_code":"7280016","prefecture":"HIROSHIMA KEN","city":"MIYOSHI SHI","town":"SHIJITSUKAMMACHI","perfecture_jp":"広島県","jp_add_1":"三次市","jp_add_2":"四拾貫町"},"7280012":{"post_code":"7280012","prefecture":"HIROSHIMA KEN","city":"MIYOSHI SHI","town":"TOKAICHI NAKA","perfecture_jp":"広島県","jp_add_1":"三次市","jp_add_2":"十日市中"},"7280013":{"post_code":"7280013","prefecture":"HIROSHIMA KEN","city":"MIYOSHI SHI","town":"TOKAICHI HIGASHI","perfecture_jp":"広島県","jp_add_1":"三次市","jp_add_2":"十日市東"},"7280011":{"post_code":"7280011","prefecture":"HIROSHIMA KEN","city":"MIYOSHI SHI","town":"TOKAICHI NISHI","perfecture_jp":"広島県","jp_add_1":"三次市","jp_add_2":"十日市西"},"7280014":{"post_code":"7280014","prefecture":"HIROSHIMA KEN","city":"MIYOSHI SHI","town":"TOKAICHI MINAMI","perfecture_jp":"広島県","jp_add_1":"三次市","jp_add_2":"十日市南"},"7280015":{"post_code":"7280015","prefecture":"HIROSHIMA KEN","city":"MIYOSHI SHI","town":"TOKAICHIMACHI","perfecture_jp":"広島県","jp_add_1":"三次市","jp_add_2":"十日市町"},"7280002":{"post_code":"7280002","prefecture":"HIROSHIMA KEN","city":"MIYOSHI SHI","town":"NISHIKOCHIMACHI","perfecture_jp":"広島県","jp_add_1":"三次市","jp_add_2":"西河内町"},"7280022":{"post_code":"7280022","prefecture":"HIROSHIMA KEN","city":"MIYOSHI SHI","town":"NISHISAKEYAMACHI","perfecture_jp":"広島県","jp_add_1":"三次市","jp_add_2":"西酒屋町"},"7280006":{"post_code":"7280006","prefecture":"HIROSHIMA KEN","city":"MIYOSHI SHI","town":"HATAJIKIMACHI","perfecture_jp":"広島県","jp_add_1":"三次市","jp_add_2":"畠敷町"},"7280003":{"post_code":"7280003","prefecture":"HIROSHIMA KEN","city":"MIYOSHI SHI","town":"HIGASHIKOCHIMACHI","perfecture_jp":"広島県","jp_add_1":"三次市","jp_add_2":"東河内町"},"7280023":{"post_code":"7280023","prefecture":"HIROSHIMA KEN","city":"MIYOSHI SHI","town":"HIGASHISAKEYAMACHI","perfecture_jp":"広島県","jp_add_1":"三次市","jp_add_2":"東酒屋町"},"7280026":{"post_code":"7280026","prefecture":"HIROSHIMA KEN","city":"MIYOSHI SHI","town":"HIGEMACHI","perfecture_jp":"広島県","jp_add_1":"三次市","jp_add_2":"日下町"},"7280201":{"post_code":"7280201","prefecture":"HIROSHIMA KEN","city":"MIYOSHI SHI","town":"FUNOCHO KAMIFUNO","perfecture_jp":"広島県","jp_add_1":"三次市","jp_add_2":"布野町上布野"},"7280202":{"post_code":"7280202","prefecture":"HIROSHIMA KEN","city":"MIYOSHI SHI","town":"FUNOCHO SHIMOFUNO","perfecture_jp":"広島県","jp_add_1":"三次市","jp_add_2":"布野町下布野"},"7280203":{"post_code":"7280203","prefecture":"HIROSHIMA KEN","city":"MIYOSHI SHI","town":"FUNOCHO TOGOCHI","perfecture_jp":"広島県","jp_add_1":"三次市","jp_add_2":"布野町戸河内"},"7280211":{"post_code":"7280211","prefecture":"HIROSHIMA KEN","city":"MIYOSHI SHI","town":"FUNOCHO YOKOTANI","perfecture_jp":"広島県","jp_add_1":"三次市","jp_add_2":"布野町横谷"},"7280017":{"post_code":"7280017","prefecture":"HIROSHIMA KEN","city":"MIYOSHI SHI","town":"MINAMIHATAJIKIMACHI","perfecture_jp":"広島県","jp_add_1":"三次市","jp_add_2":"南畑敷町"},"7280027":{"post_code":"7280027","prefecture":"HIROSHIMA KEN","city":"MIYOSHI SHI","town":"MIHARAMACHI","perfecture_jp":"広島県","jp_add_1":"三次市","jp_add_2":"三原町"},"7280021":{"post_code":"7280021","prefecture":"HIROSHIMA KEN","city":"MIYOSHI SHI","town":"MIYOSHIMACHI","perfecture_jp":"広島県","jp_add_1":"三次市","jp_add_2":"三次町"},"7280621":{"post_code":"7280621","prefecture":"HIROSHIMA KEN","city":"MIYOSHI SHI","town":"MIWAKAMACHI","perfecture_jp":"広島県","jp_add_1":"三次市","jp_add_2":"三若町"},"7280001":{"post_code":"7280001","prefecture":"HIROSHIMA KEN","city":"MIYOSHI SHI","town":"YAMAGAMACHI","perfecture_jp":"広島県","jp_add_1":"三次市","jp_add_2":"山家町"},"7280503":{"post_code":"7280503","prefecture":"HIROSHIMA KEN","city":"SHOBARA SHI","town":"KUCHIWACHO OTSUKI","perfecture_jp":"広島県","jp_add_1":"庄原市","jp_add_2":"口和町大月"},"7280504":{"post_code":"7280504","prefecture":"HIROSHIMA KEN","city":"SHOBARA SHI","town":"KUCHIWACHO TAKECHIDANI","perfecture_jp":"広島県","jp_add_1":"庄原市","jp_add_2":"口和町竹地谷"},"7280501":{"post_code":"7280501","prefecture":"HIROSHIMA KEN","city":"SHOBARA SHI","town":"KUCHIWACHO MIYAUCHI","perfecture_jp":"広島県","jp_add_1":"庄原市","jp_add_2":"口和町宮内"},"7280502":{"post_code":"7280502","prefecture":"HIROSHIMA KEN","city":"SHOBARA SHI","town":"KUCHIWACHO MUKOIZUMI","perfecture_jp":"広島県","jp_add_1":"庄原市","jp_add_2":"口和町向泉"}}