{"7292313":{"post_code":"7292313","prefecture":"HIROSHIMA KEN","city":"TAKEHARA SHI","town":"TAKASAKICHO","perfecture_jp":"広島県","jp_add_1":"竹原市","jp_add_2":"高崎町"},"7292311":{"post_code":"7292311","prefecture":"HIROSHIMA KEN","city":"TAKEHARA SHI","town":"TADANOMICHO","perfecture_jp":"広島県","jp_add_1":"竹原市","jp_add_2":"忠海町"},"7292314":{"post_code":"7292314","prefecture":"HIROSHIMA KEN","city":"TAKEHARA SHI","town":"TADANOMITOKONORA","perfecture_jp":"広島県","jp_add_1":"竹原市","jp_add_2":"忠海床浦"},"7292315":{"post_code":"7292315","prefecture":"HIROSHIMA KEN","city":"TAKEHARA SHI","town":"TADANOMINAGAHAMA","perfecture_jp":"広島県","jp_add_1":"竹原市","jp_add_2":"忠海長浜"},"7292316":{"post_code":"7292316","prefecture":"HIROSHIMA KEN","city":"TAKEHARA SHI","town":"TADANOMINAKAMACHI","perfecture_jp":"広島県","jp_add_1":"竹原市","jp_add_2":"忠海中町"},"7292317":{"post_code":"7292317","prefecture":"HIROSHIMA KEN","city":"TAKEHARA SHI","town":"TADANOMIHIGASHIMACHI","perfecture_jp":"広島県","jp_add_1":"竹原市","jp_add_2":"忠海東町"},"7292312":{"post_code":"7292312","prefecture":"HIROSHIMA KEN","city":"TAKEHARA SHI","town":"FUKUDACHO","perfecture_jp":"広島県","jp_add_1":"竹原市","jp_add_2":"福田町"},"7290324":{"post_code":"7290324","prefecture":"HIROSHIMA KEN","city":"MIHARA SHI","town":"ITOSAKI","perfecture_jp":"広島県","jp_add_1":"三原市","jp_add_2":"糸崎"},"7290329":{"post_code":"7290329","prefecture":"HIROSHIMA KEN","city":"MIHARA SHI","town":"ITOSAKIMINAMI","perfecture_jp":"広島県","jp_add_1":"三原市","jp_add_2":"糸崎南"},"7290322":{"post_code":"7290322","prefecture":"HIROSHIMA KEN","city":"MIHARA SHI","town":"OKUNOYAMACHO","perfecture_jp":"広島県","jp_add_1":"三原市","jp_add_2":"奥野山町"},"7290321":{"post_code":"7290321","prefecture":"HIROSHIMA KEN","city":"MIHARA SHI","town":"KIHARACHO","perfecture_jp":"広島県","jp_add_1":"三原市","jp_add_2":"木原"},"7292361":{"post_code":"7292361","prefecture":"HIROSHIMA KEN","city":"MIHARA SHI","town":"KOIZUMICHO","perfecture_jp":"広島県","jp_add_1":"三原市","jp_add_2":"小泉町"},"7292251":{"post_code":"7292251","prefecture":"HIROSHIMA KEN","city":"MIHARA SHI","town":"SAIZAKICHO KUWAKI","perfecture_jp":"広島県","jp_add_1":"三原市","jp_add_2":"幸崎久和喜"},"7292252":{"post_code":"7292252","prefecture":"HIROSHIMA KEN","city":"MIHARA SHI","town":"SAIZAKICHO NOJI","perfecture_jp":"広島県","jp_add_1":"三原市","jp_add_2":"幸崎能地"},"7292253":{"post_code":"7292253","prefecture":"HIROSHIMA KEN","city":"MIHARA SHI","town":"SAIZAKICHO WATASE","perfecture_jp":"広島県","jp_add_1":"三原市","jp_add_2":"幸崎渡瀬"},"7290414":{"post_code":"7290414","prefecture":"HIROSHIMA KEN","city":"MIHARA SHI","town":"HONGOCHO SHIMOKITAGATA","perfecture_jp":"広島県","jp_add_1":"三原市","jp_add_2":"下北方"},"7291212":{"post_code":"7291212","prefecture":"HIROSHIMA KEN","city":"MIHARA SHI","town":"DAIWACHO UBAGAHARA","perfecture_jp":"広島県","jp_add_1":"三原市","jp_add_2":"大和町姥ケ原"},"7291323":{"post_code":"7291323","prefecture":"HIROSHIMA KEN","city":"MIHARA SHI","town":"DAIWACHO OGU","perfecture_jp":"広島県","jp_add_1":"三原市","jp_add_2":"大和町大具"},"7291211":{"post_code":"7291211","prefecture":"HIROSHIMA KEN","city":"MIHARA SHI","town":"DAIWACHO OGUSA","perfecture_jp":"広島県","jp_add_1":"三原市","jp_add_2":"大和町大草"},"7291332":{"post_code":"7291332","prefecture":"HIROSHIMA KEN","city":"MIHARA SHI","town":"DAIWACHO KAMIGUSAI","perfecture_jp":"広島県","jp_add_1":"三原市","jp_add_2":"大和町上草井"},"7291405":{"post_code":"7291405","prefecture":"HIROSHIMA KEN","city":"MIHARA SHI","town":"DAIWACHO KAMITOKURA","perfecture_jp":"広島県","jp_add_1":"三原市","jp_add_2":"大和町上徳良"},"7291401":{"post_code":"7291401","prefecture":"HIROSHIMA KEN","city":"MIHARA SHI","town":"DAIWACHO KURAMUNE","perfecture_jp":"広島県","jp_add_1":"三原市","jp_add_2":"大和町蔵宗"},"7291402":{"post_code":"7291402","prefecture":"HIROSHIMA KEN","city":"MIHARA SHI","town":"DAIWACHO SHINO","perfecture_jp":"広島県","jp_add_1":"三原市","jp_add_2":"大和町篠"},"7291333":{"post_code":"7291333","prefecture":"HIROSHIMA KEN","city":"MIHARA SHI","town":"DAIWACHO SHIMOGUSAI","perfecture_jp":"広島県","jp_add_1":"三原市","jp_add_2":"大和町下草井"},"7291406":{"post_code":"7291406","prefecture":"HIROSHIMA KEN","city":"MIHARA SHI","town":"DAIWACHO SHIMOTOKURA","perfecture_jp":"広島県","jp_add_1":"三原市","jp_add_2":"大和町下徳良"},"7291403":{"post_code":"7291403","prefecture":"HIROSHIMA KEN","city":"MIHARA SHI","town":"DAIWACHO HAIBARA","perfecture_jp":"広島県","jp_add_1":"三原市","jp_add_2":"大和町萩原"},"7291322":{"post_code":"7291322","prefecture":"HIROSHIMA KEN","city":"MIHARA SHI","town":"DAIWACHO HAKOGAWA","perfecture_jp":"広島県","jp_add_1":"三原市","jp_add_2":"大和町箱川"},"7291213":{"post_code":"7291213","prefecture":"HIROSHIMA KEN","city":"MIHARA SHI","town":"DAIWACHO HIRASAKA","perfecture_jp":"広島県","jp_add_1":"三原市","jp_add_2":"大和町平坂"},"7291404":{"post_code":"7291404","prefecture":"HIROSHIMA KEN","city":"MIHARA SHI","town":"DAIWACHO FUKUDA","perfecture_jp":"広島県","jp_add_1":"三原市","jp_add_2":"大和町福田"},"7291331":{"post_code":"7291331","prefecture":"HIROSHIMA KEN","city":"MIHARA SHI","town":"DAIWACHO MUKUNASHI","perfecture_jp":"広島県","jp_add_1":"三原市","jp_add_2":"大和町椋梨"},"7291321":{"post_code":"7291321","prefecture":"HIROSHIMA KEN","city":"MIHARA SHI","town":"DAIWACHO WAKI","perfecture_jp":"広島県","jp_add_1":"三原市","jp_add_2":"大和町和木"},"7290472":{"post_code":"7290472","prefecture":"HIROSHIMA KEN","city":"MIHARA SHI","town":"TAKASAKACHO SHINRA","perfecture_jp":"広島県","jp_add_1":"三原市","jp_add_2":"高坂町真良"},"7290471":{"post_code":"7290471","prefecture":"HIROSHIMA KEN","city":"MIHARA SHI","town":"TAKASAKACHO MOTOYAMA","perfecture_jp":"広島県","jp_add_1":"三原市","jp_add_2":"高坂町許山"},"7290473":{"post_code":"7290473","prefecture":"HIROSHIMA KEN","city":"MIHARA SHI","town":"NUTANISHICHO OBARA","perfecture_jp":"広島県","jp_add_1":"三原市","jp_add_2":"沼田西町小原"},"7290474":{"post_code":"7290474","prefecture":"HIROSHIMA KEN","city":"MIHARA SHI","town":"NUTANISHICHO SOJO","perfecture_jp":"広島県","jp_add_1":"三原市","jp_add_2":"沼田西町惣定"},"7290475":{"post_code":"7290475","prefecture":"HIROSHIMA KEN","city":"MIHARA SHI","town":"NUTANISHICHO MATSUE","perfecture_jp":"広島県","jp_add_1":"三原市","jp_add_2":"沼田西町松江"},"7290323":{"post_code":"7290323","prefecture":"HIROSHIMA KEN","city":"MIHARA SHI","town":"HACHIGAMINECHO","perfecture_jp":"広島県","jp_add_1":"三原市","jp_add_2":"鉢ケ峰町"},"7290418":{"post_code":"7290418","prefecture":"HIROSHIMA KEN","city":"MIHARA SHI","town":"HONGO KITA","perfecture_jp":"広島県","jp_add_1":"三原市","jp_add_2":"本郷北"},"7290417":{"post_code":"7290417","prefecture":"HIROSHIMA KEN","city":"MIHARA SHI","town":"HONGO MINAMI","perfecture_jp":"広島県","jp_add_1":"三原市","jp_add_2":"本郷南"},"7290415":{"post_code":"7290415","prefecture":"HIROSHIMA KEN","city":"MIHARA SHI","town":"HONGOCHO KAMIKITAGATA","perfecture_jp":"広島県","jp_add_1":"三原市","jp_add_2":"本郷町上北方"},"7290416":{"post_code":"7290416","prefecture":"HIROSHIMA KEN","city":"MIHARA SHI","town":"HONGOCHO ZENNYUJI","perfecture_jp":"広島県","jp_add_1":"三原市","jp_add_2":"本郷町善入寺"},"7290411":{"post_code":"7290411","prefecture":"HIROSHIMA KEN","city":"MIHARA SHI","town":"HONGOCHO FUNAKI(SONOTA)","perfecture_jp":"広島県","jp_add_1":"三原市","jp_add_2":"本郷町船木"},"7290412":{"post_code":"7290412","prefecture":"HIROSHIMA KEN","city":"MIHARA SHI","town":"HONGOCHO HONGO","perfecture_jp":"広島県","jp_add_1":"三原市","jp_add_2":"本郷町本郷"},"7290413":{"post_code":"7290413","prefecture":"HIROSHIMA KEN","city":"MIHARA SHI","town":"HONGOCHO MINAMIGATA","perfecture_jp":"広島県","jp_add_1":"三原市","jp_add_2":"本郷町南方"},"7290419":{"post_code":"7290419","prefecture":"HIROSHIMA KEN","city":"MIHARA SHI","town":"MINAMIGATA","perfecture_jp":"広島県","jp_add_1":"三原市","jp_add_2":"南方"},"7290141":{"post_code":"7290141","prefecture":"HIROSHIMA KEN","city":"ONOMICHI SHI","town":"TAKASUCHO","perfecture_jp":"広島県","jp_add_1":"尾道市","jp_add_2":"高須町"},"7290142":{"post_code":"7290142","prefecture":"HIROSHIMA KEN","city":"ONOMICHI SHI","town":"NISHIFUJICHO","perfecture_jp":"広島県","jp_add_1":"尾道市","jp_add_2":"西藤町"},"7290111":{"post_code":"7290111","prefecture":"HIROSHIMA KEN","city":"FUKUYAMA SHI","town":"IMAZUCHO","perfecture_jp":"広島県","jp_add_1":"福山市","jp_add_2":"今津町"},"7290112":{"post_code":"7290112","prefecture":"HIROSHIMA KEN","city":"FUKUYAMA SHI","town":"KAMURACHO","perfecture_jp":"広島県","jp_add_1":"福山市","jp_add_2":"神村町"},"7293111":{"post_code":"7293111","prefecture":"HIROSHIMA KEN","city":"FUKUYAMA SHI","town":"SHINICHICHO KANEMARU","perfecture_jp":"広島県","jp_add_1":"福山市","jp_add_2":"新市町金丸"},"7293106":{"post_code":"7293106","prefecture":"HIROSHIMA KEN","city":"FUKUYAMA SHI","town":"SHINICHICHO KAMIYASUI","perfecture_jp":"広島県","jp_add_1":"福山市","jp_add_2":"新市町上安井"},"7293102":{"post_code":"7293102","prefecture":"HIROSHIMA KEN","city":"FUKUYAMA SHI","town":"SHINICHICHO SAGATA","perfecture_jp":"広島県","jp_add_1":"福山市","jp_add_2":"新市町相方"},"7293105":{"post_code":"7293105","prefecture":"HIROSHIMA KEN","city":"FUKUYAMA SHI","town":"SHINICHICHO SHIMOYASUI","perfecture_jp":"広島県","jp_add_1":"福山市","jp_add_2":"新市町下安井"},"7293103":{"post_code":"7293103","prefecture":"HIROSHIMA KEN","city":"FUKUYAMA SHI","town":"SHINICHICHO SHINICHI","perfecture_jp":"広島県","jp_add_1":"福山市","jp_add_2":"新市町新市"},"7293107":{"post_code":"7293107","prefecture":"HIROSHIMA KEN","city":"FUKUYAMA SHI","town":"SHINICHICHO TSUNE","perfecture_jp":"広島県","jp_add_1":"福山市","jp_add_2":"新市町常"},"7293101":{"post_code":"7293101","prefecture":"HIROSHIMA KEN","city":"FUKUYAMA SHI","town":"SHINICHICHO TODE","perfecture_jp":"広島県","jp_add_1":"福山市","jp_add_2":"新市町戸手"},"7293112":{"post_code":"7293112","prefecture":"HIROSHIMA KEN","city":"FUKUYAMA SHI","town":"SHINICHICHO FUJIO","perfecture_jp":"広島県","jp_add_1":"福山市","jp_add_2":"新市町藤尾"},"7293104":{"post_code":"7293104","prefecture":"HIROSHIMA KEN","city":"FUKUYAMA SHI","town":"SHINICHICHO MIYAUCHI","perfecture_jp":"広島県","jp_add_1":"福山市","jp_add_2":"新市町宮内"},"7290106":{"post_code":"7290106","prefecture":"HIROSHIMA KEN","city":"FUKUYAMA SHI","town":"TAKANISHICHO","perfecture_jp":"広島県","jp_add_1":"福山市","jp_add_2":"高西町"},"7290101":{"post_code":"7290101","prefecture":"HIROSHIMA KEN","city":"FUKUYAMA SHI","town":"TAKANISHICHO KAWAJIRI","perfecture_jp":"広島県","jp_add_1":"福山市","jp_add_2":"高西町川尻"},"7290102":{"post_code":"7290102","prefecture":"HIROSHIMA KEN","city":"FUKUYAMA SHI","town":"TAKANISHICHO SANADA","perfecture_jp":"広島県","jp_add_1":"福山市","jp_add_2":"高西町真田"},"7290103":{"post_code":"7290103","prefecture":"HIROSHIMA KEN","city":"FUKUYAMA SHI","town":"TAKANISHICHO MINAMI","perfecture_jp":"広島県","jp_add_1":"福山市","jp_add_2":"高西町南"},"7290251":{"post_code":"7290251","prefecture":"HIROSHIMA KEN","city":"FUKUYAMA SHI","town":"HIGASHIMURACHO","perfecture_jp":"広島県","jp_add_1":"福山市","jp_add_2":"東村町"},"7290252":{"post_code":"7290252","prefecture":"HIROSHIMA KEN","city":"FUKUYAMA SHI","town":"HONGOCHO","perfecture_jp":"広島県","jp_add_1":"福山市","jp_add_2":"本郷町"},"7290104":{"post_code":"7290104","prefecture":"HIROSHIMA KEN","city":"FUKUYAMA SHI","town":"MATSUNAGACHO","perfecture_jp":"広島県","jp_add_1":"福山市","jp_add_2":"松永町"},"7290115":{"post_code":"7290115","prefecture":"HIROSHIMA KEN","city":"FUKUYAMA SHI","town":"MINAMIIMAZUCHO","perfecture_jp":"広島県","jp_add_1":"福山市","jp_add_2":"南今津町"},"7290105":{"post_code":"7290105","prefecture":"HIROSHIMA KEN","city":"FUKUYAMA SHI","town":"MINAMIMATSUNAGACHO","perfecture_jp":"広島県","jp_add_1":"福山市","jp_add_2":"南松永町"},"7290113":{"post_code":"7290113","prefecture":"HIROSHIMA KEN","city":"FUKUYAMA SHI","town":"MIYAMAECHO","perfecture_jp":"広島県","jp_add_1":"福山市","jp_add_2":"宮前町"},"7290114":{"post_code":"7290114","prefecture":"HIROSHIMA KEN","city":"FUKUYAMA SHI","town":"YANAIZUCHO","perfecture_jp":"広島県","jp_add_1":"福山市","jp_add_2":"柳津町"},"7293212":{"post_code":"7293212","prefecture":"HIROSHIMA KEN","city":"FUCHU SHI","town":"AJICHO","perfecture_jp":"広島県","jp_add_1":"府中市","jp_add_2":"阿字町"},"7293221":{"post_code":"7293221","prefecture":"HIROSHIMA KEN","city":"FUCHU SHI","town":"KAWASACHO","perfecture_jp":"広島県","jp_add_1":"府中市","jp_add_2":"河佐町"},"7293211":{"post_code":"7293211","prefecture":"HIROSHIMA KEN","city":"FUCHU SHI","town":"KINOYAMACHO","perfecture_jp":"広島県","jp_add_1":"府中市","jp_add_2":"木野山町"},"7293222":{"post_code":"7293222","prefecture":"HIROSHIMA KEN","city":"FUCHU SHI","town":"KUSACHO","perfecture_jp":"広島県","jp_add_1":"府中市","jp_add_2":"久佐町"},"7293405":{"post_code":"7293405","prefecture":"HIROSHIMA KEN","city":"FUCHU SHI","town":"JOGECHO ARIFUKU","perfecture_jp":"広島県","jp_add_1":"府中市","jp_add_2":"上下町有福"},"7293411":{"post_code":"7293411","prefecture":"HIROSHIMA KEN","city":"FUCHU SHI","town":"JOGECHO INAGA","perfecture_jp":"広島県","jp_add_1":"府中市","jp_add_2":"上下町井永"},"7293412":{"post_code":"7293412","prefecture":"HIROSHIMA KEN","city":"FUCHU SHI","town":"JOGECHO OGAYA","perfecture_jp":"広島県","jp_add_1":"府中市","jp_add_2":"上下町岡屋"},"7293401":{"post_code":"7293401","prefecture":"HIROSHIMA KEN","city":"FUCHU SHI","town":"JOGECHO OZUKA","perfecture_jp":"広島県","jp_add_1":"府中市","jp_add_2":"上下町小塚"},"7293422":{"post_code":"7293422","prefecture":"HIROSHIMA KEN","city":"FUCHU SHI","town":"JOGECHO KUNIDOME","perfecture_jp":"広島県","jp_add_1":"府中市","jp_add_2":"上下町国留"},"7293402":{"post_code":"7293402","prefecture":"HIROSHIMA KEN","city":"FUCHU SHI","town":"JOGECHO KOHORI","perfecture_jp":"広島県","jp_add_1":"府中市","jp_add_2":"上下町小堀"},"7293414":{"post_code":"7293414","prefecture":"HIROSHIMA KEN","city":"FUCHU SHI","town":"JOGECHO SAKURA","perfecture_jp":"広島県","jp_add_1":"府中市","jp_add_2":"上下町佐倉"},"7293403":{"post_code":"7293403","prefecture":"HIROSHIMA KEN","city":"FUCHU SHI","town":"JOGECHO SHINAMI","perfecture_jp":"広島県","jp_add_1":"府中市","jp_add_2":"上下町階見"},"7293431":{"post_code":"7293431","prefecture":"HIROSHIMA KEN","city":"FUCHU SHI","town":"JOGECHO JOGE","perfecture_jp":"広島県","jp_add_1":"府中市","jp_add_2":"上下町上下"},"7293421":{"post_code":"7293421","prefecture":"HIROSHIMA KEN","city":"FUCHU SHI","town":"JOGECHO FUKAE","perfecture_jp":"広島県","jp_add_1":"府中市","jp_add_2":"上下町深江"},"7293404":{"post_code":"7293404","prefecture":"HIROSHIMA KEN","city":"FUCHU SHI","town":"JOGECHO FUTAMORI","perfecture_jp":"広島県","jp_add_1":"府中市","jp_add_2":"上下町二森"},"7293424":{"post_code":"7293424","prefecture":"HIROSHIMA KEN","city":"FUCHU SHI","town":"JOGECHO MATSUSAKI","perfecture_jp":"広島県","jp_add_1":"府中市","jp_add_2":"上下町松崎"},"7293413":{"post_code":"7293413","prefecture":"HIROSHIMA KEN","city":"FUCHU SHI","town":"JOGECHO MIZUNAGA","perfecture_jp":"広島県","jp_add_1":"府中市","jp_add_2":"上下町水永"},"7293415":{"post_code":"7293415","prefecture":"HIROSHIMA KEN","city":"FUCHU SHI","town":"JOGECHO YATADA","perfecture_jp":"広島県","jp_add_1":"府中市","jp_add_2":"上下町矢多田"},"7293423":{"post_code":"7293423","prefecture":"HIROSHIMA KEN","city":"FUCHU SHI","town":"JOGECHO YANO","perfecture_jp":"広島県","jp_add_1":"府中市","jp_add_2":"上下町矢野"},"7293201":{"post_code":"7293201","prefecture":"HIROSHIMA KEN","city":"FUCHU SHI","town":"TOMASUCHO","perfecture_jp":"広島県","jp_add_1":"府中市","jp_add_2":"斗升町"},"7293202":{"post_code":"7293202","prefecture":"HIROSHIMA KEN","city":"FUCHU SHI","town":"MUKABAKICHO","perfecture_jp":"広島県","jp_add_1":"府中市","jp_add_2":"行縢町"},"7296335":{"post_code":"7296335","prefecture":"HIROSHIMA KEN","city":"MIYOSHI SHI","town":"AKIMACHI","perfecture_jp":"広島県","jp_add_1":"三次市","jp_add_2":"秋町"},"7296212":{"post_code":"7296212","prefecture":"HIROSHIMA KEN","city":"MIYOSHI SHI","town":"ITOIMACHI","perfecture_jp":"広島県","jp_add_1":"三次市","jp_add_2":"糸井町"},"7296215":{"post_code":"7296215","prefecture":"HIROSHIMA KEN","city":"MIYOSHI SHI","town":"ETAKAWANOCHIMACHI","perfecture_jp":"広島県","jp_add_1":"三次市","jp_add_2":"江田川之内町"},"7296211":{"post_code":"7296211","prefecture":"HIROSHIMA KEN","city":"MIYOSHI SHI","town":"ODAKOMACHI","perfecture_jp":"広島県","jp_add_1":"三次市","jp_add_2":"大田幸町"},"7296334":{"post_code":"7296334","prefecture":"HIROSHIMA KEN","city":"MIYOSHI SHI","town":"KAMIKAWATACHIMACHI","perfecture_jp":"広島県","jp_add_1":"三次市","jp_add_2":"上川立町"},"7296332":{"post_code":"7296332","prefecture":"HIROSHIMA KEN","city":"MIYOSHI SHI","town":"KAMISHIWACHIMACHI","perfecture_jp":"広島県","jp_add_1":"三次市","jp_add_2":"上志和地町"},"7294223":{"post_code":"7294223","prefecture":"HIROSHIMA KEN","city":"MIYOSHI SHI","town":"KISACHO UZUI","perfecture_jp":"広島県","jp_add_1":"三次市","jp_add_2":"吉舎町雲通"},"7294205":{"post_code":"7294205","prefecture":"HIROSHIMA KEN","city":"MIYOSHI SHI","town":"KISACHO KAIDAHARA","perfecture_jp":"広島県","jp_add_1":"三次市","jp_add_2":"吉舎町海田原"},"7294202":{"post_code":"7294202","prefecture":"HIROSHIMA KEN","city":"MIYOSHI SHI","town":"KISACHO KAMIYASUDA","perfecture_jp":"広島県","jp_add_1":"三次市","jp_add_2":"吉舎町上安田"},"7294211":{"post_code":"7294211","prefecture":"HIROSHIMA KEN","city":"MIYOSHI SHI","town":"KISACHO KISA","perfecture_jp":"広島県","jp_add_1":"三次市","jp_add_2":"吉舎町吉舎"},"7294226":{"post_code":"7294226","prefecture":"HIROSHIMA KEN","city":"MIYOSHI SHI","town":"KISACHO KISAKAWANOCHI","perfecture_jp":"広島県","jp_add_1":"三次市","jp_add_2":"吉舎町吉舎川之内"},"7294221":{"post_code":"7294221","prefecture":"HIROSHIMA KEN","city":"MIYOSHI SHI","town":"KISACHO KIYOTSUNA","perfecture_jp":"広島県","jp_add_1":"三次市","jp_add_2":"吉舎町清綱"},"7294207":{"post_code":"7294207","prefecture":"HIROSHIMA KEN","city":"MIYOSHI SHI","town":"KISACHO SHIKIJI","perfecture_jp":"広島県","jp_add_1":"三次市","jp_add_2":"吉舎町敷地"},"7294201":{"post_code":"7294201","prefecture":"HIROSHIMA KEN","city":"MIYOSHI SHI","town":"KISACHO CHIWA","perfecture_jp":"広島県","jp_add_1":"三次市","jp_add_2":"吉舎町知和"},"7294224":{"post_code":"7294224","prefecture":"HIROSHIMA KEN","city":"MIYOSHI SHI","town":"KISACHO TSUJI","perfecture_jp":"広島県","jp_add_1":"三次市","jp_add_2":"吉舎町辻"},"7294225":{"post_code":"7294225","prefecture":"HIROSHIMA KEN","city":"MIYOSHI SHI","town":"KISACHO TOKUICHI","perfecture_jp":"広島県","jp_add_1":"三次市","jp_add_2":"吉舎町徳市"},"7294227":{"post_code":"7294227","prefecture":"HIROSHIMA KEN","city":"MIYOSHI SHI","town":"KISACHO HINOKI","perfecture_jp":"広島県","jp_add_1":"三次市","jp_add_2":"吉舎町檜"},"7294222":{"post_code":"7294222","prefecture":"HIROSHIMA KEN","city":"MIYOSHI SHI","town":"KISACHO MARUDA","perfecture_jp":"広島県","jp_add_1":"三次市","jp_add_2":"吉舎町丸田"},"7294204":{"post_code":"7294204","prefecture":"HIROSHIMA KEN","city":"MIYOSHI SHI","town":"KISACHO MITAMA","perfecture_jp":"広島県","jp_add_1":"三次市","jp_add_2":"吉舎町三玉"},"7294206":{"post_code":"7294206","prefecture":"HIROSHIMA KEN","city":"MIYOSHI SHI","town":"KISACHO YAI","perfecture_jp":"広島県","jp_add_1":"三次市","jp_add_2":"吉舎町矢井"},"7294203":{"post_code":"7294203","prefecture":"HIROSHIMA KEN","city":"MIYOSHI SHI","town":"KISACHO YASUDA","perfecture_jp":"広島県","jp_add_1":"三次市","jp_add_2":"吉舎町安田"},"7294208":{"post_code":"7294208","prefecture":"HIROSHIMA KEN","city":"MIYOSHI SHI","town":"KISACHO YANOCHI","perfecture_jp":"広島県","jp_add_1":"三次市","jp_add_2":"吉舎町矢野地"},"7296204":{"post_code":"7296204","prefecture":"HIROSHIMA KEN","city":"MIYOSHI SHI","town":"KINORIMACHI","perfecture_jp":"広島県","jp_add_1":"三次市","jp_add_2":"木乗町"},"7294106":{"post_code":"7294106","prefecture":"HIROSHIMA KEN","city":"MIYOSHI SHI","town":"KONUCHO ARIDA","perfecture_jp":"広島県","jp_add_1":"三次市","jp_add_2":"甲奴町有田"},"7294104":{"post_code":"7294104","prefecture":"HIROSHIMA KEN","city":"MIYOSHI SHI","town":"KONUCHO UGA","perfecture_jp":"広島県","jp_add_1":"三次市","jp_add_2":"甲奴町宇賀"},"7294105":{"post_code":"7294105","prefecture":"HIROSHIMA KEN","city":"MIYOSHI SHI","town":"KONUCHO KAJITA","perfecture_jp":"広島県","jp_add_1":"三次市","jp_add_2":"甲奴町梶田"},"7294113":{"post_code":"7294113","prefecture":"HIROSHIMA KEN","city":"MIYOSHI SHI","town":"KONUCHO TAROMARU","perfecture_jp":"広島県","jp_add_1":"三次市","jp_add_2":"甲奴町太郎丸"},"7294102":{"post_code":"7294102","prefecture":"HIROSHIMA KEN","city":"MIYOSHI SHI","town":"KONUCHO NISHINO","perfecture_jp":"広島県","jp_add_1":"三次市","jp_add_2":"甲奴町西野"},"7294112":{"post_code":"7294112","prefecture":"HIROSHIMA KEN","city":"MIYOSHI SHI","town":"KONUCHO NUKUYU","perfecture_jp":"広島県","jp_add_1":"三次市","jp_add_2":"甲奴町抜湯"},"7294103":{"post_code":"7294103","prefecture":"HIROSHIMA KEN","city":"MIYOSHI SHI","town":"KONUCHO HICHI","perfecture_jp":"広島県","jp_add_1":"三次市","jp_add_2":"甲奴町小童"},"7294111":{"post_code":"7294111","prefecture":"HIROSHIMA KEN","city":"MIYOSHI SHI","town":"KONUCHO FUKUDA","perfecture_jp":"広島県","jp_add_1":"三次市","jp_add_2":"甲奴町福田"},"7294101":{"post_code":"7294101","prefecture":"HIROSHIMA KEN","city":"MIYOSHI SHI","town":"KONUCHO HONGO","perfecture_jp":"広島県","jp_add_1":"三次市","jp_add_2":"甲奴町本郷"},"7296216":{"post_code":"7296216","prefecture":"HIROSHIMA KEN","city":"MIYOSHI SHI","town":"KODAKOMACHI","perfecture_jp":"広島県","jp_add_1":"三次市","jp_add_2":"小田幸町"},"7296205":{"post_code":"7296205","prefecture":"HIROSHIMA KEN","city":"MIYOSHI SHI","town":"SHIOMACHI","perfecture_jp":"広島県","jp_add_1":"三次市","jp_add_2":"塩町"},"7296203":{"post_code":"7296203","prefecture":"HIROSHIMA KEN","city":"MIYOSHI SHI","town":"SHIKOMACHI","perfecture_jp":"広島県","jp_add_1":"三次市","jp_add_2":"志幸町"},"7296333":{"post_code":"7296333","prefecture":"HIROSHIMA KEN","city":"MIYOSHI SHI","town":"SHIMOKAWATACHIMACHI","perfecture_jp":"広島県","jp_add_1":"三次市","jp_add_2":"下川立町"},"7296331":{"post_code":"7296331","prefecture":"HIROSHIMA KEN","city":"MIYOSHI SHI","town":"SHIMOSHIWACHIMACHI","perfecture_jp":"広島県","jp_add_1":"三次市","jp_add_2":"下志和地町"},"7296214":{"post_code":"7296214","prefecture":"HIROSHIMA KEN","city":"MIYOSHI SHI","town":"TAKASUGIMACHI","perfecture_jp":"広島県","jp_add_1":"三次市","jp_add_2":"高杉町"},"7294306":{"post_code":"7294306","prefecture":"HIROSHIMA KEN","city":"MIYOSHI SHI","town":"MIRASAKACHO OKADA","perfecture_jp":"広島県","jp_add_1":"三次市","jp_add_2":"三良坂町岡田"},"7294307":{"post_code":"7294307","prefecture":"HIROSHIMA KEN","city":"MIYOSHI SHI","town":"MIRASAKACHO KAIZE","perfecture_jp":"広島県","jp_add_1":"三次市","jp_add_2":"三良坂町皆瀬"},"7294308":{"post_code":"7294308","prefecture":"HIROSHIMA KEN","city":"MIYOSHI SHI","town":"MIRASAKACHO TARI","perfecture_jp":"広島県","jp_add_1":"三次市","jp_add_2":"三良坂町田利"},"7294305":{"post_code":"7294305","prefecture":"HIROSHIMA KEN","city":"MIYOSHI SHI","town":"MIRASAKACHO NAGATA","perfecture_jp":"広島県","jp_add_1":"三次市","jp_add_2":"三良坂町長田"},"7294302":{"post_code":"7294302","prefecture":"HIROSHIMA KEN","city":"MIYOSHI SHI","town":"MIRASAKACHO NIKA","perfecture_jp":"広島県","jp_add_1":"三次市","jp_add_2":"三良坂町仁賀"},"7294303":{"post_code":"7294303","prefecture":"HIROSHIMA KEN","city":"MIYOSHI SHI","town":"MIRASAKACHO HAIZUKA","perfecture_jp":"広島県","jp_add_1":"三次市","jp_add_2":"三良坂町灰塚"},"7294301":{"post_code":"7294301","prefecture":"HIROSHIMA KEN","city":"MIYOSHI SHI","town":"MIRASAKACHO MITSUKIYO","perfecture_jp":"広島県","jp_add_1":"三次市","jp_add_2":"三良坂町光清"},"7294304":{"post_code":"7294304","prefecture":"HIROSHIMA KEN","city":"MIYOSHI SHI","town":"MIRASAKACHO MIRASAKA","perfecture_jp":"広島県","jp_add_1":"三次市","jp_add_2":"三良坂町三良坂"},"7296613":{"post_code":"7296613","prefecture":"HIROSHIMA KEN","city":"MIYOSHI SHI","town":"MIWACHO ARIHARA","perfecture_jp":"広島県","jp_add_1":"三次市","jp_add_2":"三和町有原"},"7296701":{"post_code":"7296701","prefecture":"HIROSHIMA KEN","city":"MIYOSHI SHI","town":"MIWACHO KAMIICHI","perfecture_jp":"広島県","jp_add_1":"三次市","jp_add_2":"三和町飯田"},"7296615":{"post_code":"7296615","prefecture":"HIROSHIMA KEN","city":"MIYOSHI SHI","town":"MIWACHO KAMIITAKI","perfecture_jp":"広島県","jp_add_1":"三次市","jp_add_2":"三和町上板木"},"7296612":{"post_code":"7296612","prefecture":"HIROSHIMA KEN","city":"MIYOSHI SHI","town":"MIWACHO SHIMOITAKI","perfecture_jp":"広島県","jp_add_1":"三次市","jp_add_2":"三和町敷名"},"7296702":{"post_code":"7296702","prefecture":"HIROSHIMA KEN","city":"MIYOSHI SHI","town":"MIWACHO SHIKINA(SONOTA)","perfecture_jp":"広島県","jp_add_1":"三次市","jp_add_2":"三和町敷名"},"7296616":{"post_code":"7296616","prefecture":"HIROSHIMA KEN","city":"MIYOSHI SHI","town":"MIWACHO DAIRIKIDANI","perfecture_jp":"広島県","jp_add_1":"三次市","jp_add_2":"三和町大力谷"},"7296614":{"post_code":"7296614","prefecture":"HIROSHIMA KEN","city":"MIYOSHI SHI","town":"MIWACHO HADENIWA","perfecture_jp":"広島県","jp_add_1":"三次市","jp_add_2":"三和町羽出庭"},"7296611":{"post_code":"7296611","prefecture":"HIROSHIMA KEN","city":"MIYOSHI SHI","town":"MIWACHO FUKUDA","perfecture_jp":"広島県","jp_add_1":"三次市","jp_add_2":"三和町福田"},"7296202":{"post_code":"7296202","prefecture":"HIROSHIMA KEN","city":"MIYOSHI SHI","town":"MUKOETAMACHI","perfecture_jp":"広島県","jp_add_1":"三次市","jp_add_2":"向江田町"},"7296213":{"post_code":"7296213","prefecture":"HIROSHIMA KEN","city":"MIYOSHI SHI","town":"MEGURIKAMIMACHI","perfecture_jp":"広島県","jp_add_1":"三次市","jp_add_2":"廻神町"},"7296201":{"post_code":"7296201","prefecture":"HIROSHIMA KEN","city":"MIYOSHI SHI","town":"WACHIMACHI","perfecture_jp":"広島県","jp_add_1":"三次市","jp_add_2":"和知町"},"7296143":{"post_code":"7296143","prefecture":"HIROSHIMA KEN","city":"SHOBARA SHI","town":"OBIKICHO","perfecture_jp":"広島県","jp_add_1":"庄原市","jp_add_2":"尾引町"},"7295812":{"post_code":"7295812","prefecture":"HIROSHIMA KEN","city":"SHOBARA SHI","town":"OYOCHO","perfecture_jp":"広島県","jp_add_1":"庄原市","jp_add_2":"小用町"},"7295813":{"post_code":"7295813","prefecture":"HIROSHIMA KEN","city":"SHOBARA SHI","town":"KAWANISHICHO","perfecture_jp":"広島県","jp_add_1":"庄原市","jp_add_2":"川西町"},"7296134":{"post_code":"7296134","prefecture":"HIROSHIMA KEN","city":"SHOBARA SHI","town":"KIDOCHO","perfecture_jp":"広島県","jp_add_1":"庄原市","jp_add_2":"木戸町"},"7296142":{"post_code":"7296142","prefecture":"HIROSHIMA KEN","city":"SHOBARA SHI","town":"KOMOCHO","perfecture_jp":"広島県","jp_add_1":"庄原市","jp_add_2":"高茂町"},"7295733":{"post_code":"7295733","prefecture":"HIROSHIMA KEN","city":"SHOBARA SHI","town":"SAIJOCHO IRIE","perfecture_jp":"広島県","jp_add_1":"庄原市","jp_add_2":"西城町入江"},"7295722":{"post_code":"7295722","prefecture":"HIROSHIMA KEN","city":"SHOBARA SHI","town":"SAIJOCHO OSA","perfecture_jp":"広島県","jp_add_1":"庄原市","jp_add_2":"西城町大佐"},"7295744":{"post_code":"7295744","prefecture":"HIROSHIMA KEN","city":"SHOBARA SHI","town":"SAIJOCHO OYA","perfecture_jp":"広島県","jp_add_1":"庄原市","jp_add_2":"西城町大屋"},"7295603":{"post_code":"7295603","prefecture":"HIROSHIMA KEN","city":"SHOBARA SHI","town":"SAIJOCHO KUMANO(KAMIKAJIDANI.SHIMOK","perfecture_jp":"広島県","jp_add_1":"庄原市","jp_add_2":"西城町熊野"},"7295741":{"post_code":"7295741","prefecture":"HIROSHIMA KEN","city":"SHOBARA SHI","town":"SAIJOCHO KUMANO(SONOTA)","perfecture_jp":"広島県","jp_add_1":"庄原市","jp_add_2":"西城町熊野"},"7295732":{"post_code":"7295732","prefecture":"HIROSHIMA KEN","city":"SHOBARA SHI","town":"SAIJOCHO KURI","perfecture_jp":"広島県","jp_add_1":"庄原市","jp_add_2":"西城町栗"},"7295612":{"post_code":"7295612","prefecture":"HIROSHIMA KEN","city":"SHOBARA SHI","town":"SAIJOCHO KOO","perfecture_jp":"広島県","jp_add_1":"庄原市","jp_add_2":"西城町高尾"},"7295731":{"post_code":"7295731","prefecture":"HIROSHIMA KEN","city":"SHOBARA SHI","town":"SAIJOCHO SAIJO","perfecture_jp":"広島県","jp_add_1":"庄原市","jp_add_2":"西城町西城"},"7295743":{"post_code":"7295743","prefecture":"HIROSHIMA KEN","city":"SHOBARA SHI","town":"SAIJOCHO NAKAZAKO","perfecture_jp":"広島県","jp_add_1":"庄原市","jp_add_2":"西城町中迫"},"7295742":{"post_code":"7295742","prefecture":"HIROSHIMA KEN","city":"SHOBARA SHI","town":"SAIJOCHO NAKANO","perfecture_jp":"広島県","jp_add_1":"庄原市","jp_add_2":"西城町中野"},"7295613":{"post_code":"7295613","prefecture":"HIROSHIMA KEN","city":"SHOBARA SHI","town":"SAIJOCHO HATTORI (MYOGA.SUGINOHARA.","perfecture_jp":"広島県","jp_add_1":"庄原市","jp_add_2":"西城町八鳥"},"7295721":{"post_code":"7295721","prefecture":"HIROSHIMA KEN","city":"SHOBARA SHI","town":"SAIJOCHO HATTORI(SONOTA)","perfecture_jp":"広島県","jp_add_1":"庄原市","jp_add_2":"西城町八鳥"},"7295601":{"post_code":"7295601","prefecture":"HIROSHIMA KEN","city":"SHOBARA SHI","town":"SAIJOCHO HITOTOBARA","perfecture_jp":"広島県","jp_add_1":"庄原市","jp_add_2":"西城町小鳥原"},"7295723":{"post_code":"7295723","prefecture":"HIROSHIMA KEN","city":"SHOBARA SHI","town":"SAIJOCHO HIRAKO","perfecture_jp":"広島県","jp_add_1":"庄原市","jp_add_2":"西城町平子"},"7295745":{"post_code":"7295745","prefecture":"HIROSHIMA KEN","city":"SHOBARA SHI","town":"SAIJOCHO FUKUYAMA","perfecture_jp":"広島県","jp_add_1":"庄原市","jp_add_2":"西城町福山"},"7295611":{"post_code":"7295611","prefecture":"HIROSHIMA KEN","city":"SHOBARA SHI","town":"SAIJOCHO MISAKA","perfecture_jp":"広島県","jp_add_1":"庄原市","jp_add_2":"西城町三坂"},"7295602":{"post_code":"7295602","prefecture":"HIROSHIMA KEN","city":"SHOBARA SHI","town":"SAIJOCHO YUKI","perfecture_jp":"広島県","jp_add_1":"庄原市","jp_add_2":"西城町油木"},"7293721":{"post_code":"7293721","prefecture":"HIROSHIMA KEN","city":"SHOBARA SHI","town":"SORYOCHO INAKUSA","perfecture_jp":"広島県","jp_add_1":"庄原市","jp_add_2":"総領町稲草"},"7293712":{"post_code":"7293712","prefecture":"HIROSHIMA KEN","city":"SHOBARA SHI","town":"SORYOCHO KAMIRYOKE","perfecture_jp":"広島県","jp_add_1":"庄原市","jp_add_2":"総領町上領家"},"7293702":{"post_code":"7293702","prefecture":"HIROSHIMA KEN","city":"SHOBARA SHI","town":"SORYOCHO KAMEDANI","perfecture_jp":"広島県","jp_add_1":"庄原市","jp_add_2":"総領町亀谷"},"7293722":{"post_code":"7293722","prefecture":"HIROSHIMA KEN","city":"SHOBARA SHI","town":"SORYOCHO KIYA","perfecture_jp":"広島県","jp_add_1":"庄原市","jp_add_2":"総領町木屋"},"7293701":{"post_code":"7293701","prefecture":"HIROSHIMA KEN","city":"SHOBARA SHI","town":"SORYOCHO KUROME","perfecture_jp":"広島県","jp_add_1":"庄原市","jp_add_2":"総領町黒目"},"7293711":{"post_code":"7293711","prefecture":"HIROSHIMA KEN","city":"SHOBARA SHI","town":"SORYOCHO GOKA","perfecture_jp":"広島県","jp_add_1":"庄原市","jp_add_2":"総領町五箇"},"7293703":{"post_code":"7293703","prefecture":"HIROSHIMA KEN","city":"SHOBARA SHI","town":"SORYOCHO SHIMORYOKE","perfecture_jp":"広島県","jp_add_1":"庄原市","jp_add_2":"総領町下領家"},"7293713":{"post_code":"7293713","prefecture":"HIROSHIMA KEN","city":"SHOBARA SHI","town":"SORYOCHO NAKARYOKE","perfecture_jp":"広島県","jp_add_1":"庄原市","jp_add_2":"総領町中領家"},"7295811":{"post_code":"7295811","prefecture":"HIROSHIMA KEN","city":"SHOBARA SHI","town":"TAKAMACHI","perfecture_jp":"広島県","jp_add_1":"庄原市","jp_add_2":"高町"},"7295127":{"post_code":"7295127","prefecture":"HIROSHIMA KEN","city":"SHOBARA SHI","town":"TOJOCHO AWATA","perfecture_jp":"広島県","jp_add_1":"庄原市","jp_add_2":"東城町粟田"},"7295128":{"post_code":"7295128","prefecture":"HIROSHIMA KEN","city":"SHOBARA SHI","town":"TOJOCHO UKEBARA(ONJI.NAKANOTANI)","perfecture_jp":"広島県","jp_add_1":"庄原市","jp_add_2":"東城町受原"},"7295453":{"post_code":"7295453","prefecture":"HIROSHIMA KEN","city":"SHOBARA SHI","town":"TOJOCHO UKEBARA(SONOTA)","perfecture_jp":"広島県","jp_add_1":"庄原市","jp_add_2":"東城町受原"},"7295502":{"post_code":"7295502","prefecture":"HIROSHIMA KEN","city":"SHOBARA SHI","town":"TOJOCHO UTSUBORI","perfecture_jp":"広島県","jp_add_1":"庄原市","jp_add_2":"東城町内堀"},"7295504":{"post_code":"7295504","prefecture":"HIROSHIMA KEN","city":"SHOBARA SHI","town":"TOJOCHO OGUSHI","perfecture_jp":"広島県","jp_add_1":"庄原市","jp_add_2":"東城町小串"},"7295501":{"post_code":"7295501","prefecture":"HIROSHIMA KEN","city":"SHOBARA SHI","town":"TOJOCHO ONUKA","perfecture_jp":"広島県","jp_add_1":"庄原市","jp_add_2":"東城町小奴可"},"7295506":{"post_code":"7295506","prefecture":"HIROSHIMA KEN","city":"SHOBARA SHI","town":"TOJOCHO KADANI","perfecture_jp":"広島県","jp_add_1":"庄原市","jp_add_2":"東城町加谷"},"7295454":{"post_code":"7295454","prefecture":"HIROSHIMA KEN","city":"SHOBARA SHI","town":"TOJOCHO KAWATORI","perfecture_jp":"広島県","jp_add_1":"庄原市","jp_add_2":"東城町川鳥"},"7295125":{"post_code":"7295125","prefecture":"HIROSHIMA KEN","city":"SHOBARA SHI","town":"TOJOCHO KAWANISHI","perfecture_jp":"広島県","jp_add_1":"庄原市","jp_add_2":"東城町川西"},"7295121":{"post_code":"7295121","prefecture":"HIROSHIMA KEN","city":"SHOBARA SHI","town":"TOJOCHO KAWAHIGASHI","perfecture_jp":"広島県","jp_add_1":"庄原市","jp_add_2":"東城町川東"},"7295122":{"post_code":"7295122","prefecture":"HIROSHIMA KEN","city":"SHOBARA SHI","town":"TOJOCHO KUSHIRO","perfecture_jp":"広島県","jp_add_1":"庄原市","jp_add_2":"東城町久代"},"7295505":{"post_code":"7295505","prefecture":"HIROSHIMA KEN","city":"SHOBARA SHI","town":"TOJOCHO SHIOHARA","perfecture_jp":"広島県","jp_add_1":"庄原市","jp_add_2":"東城町塩原"},"7295112":{"post_code":"7295112","prefecture":"HIROSHIMA KEN","city":"SHOBARA SHI","town":"TOJOCHO SHINFUKUSHIRO","perfecture_jp":"広島県","jp_add_1":"庄原市","jp_add_2":"東城町新福代"},"7295131":{"post_code":"7295131","prefecture":"HIROSHIMA KEN","city":"SHOBARA SHI","town":"TOJOCHO SHIMMEN","perfecture_jp":"広島県","jp_add_1":"庄原市","jp_add_2":"東城町新免"},"7295452":{"post_code":"7295452","prefecture":"HIROSHIMA KEN","city":"SHOBARA SHI","town":"TOJOCHO SUGE","perfecture_jp":"広島県","jp_add_1":"庄原市","jp_add_2":"東城町菅"},"7295241":{"post_code":"7295241","prefecture":"HIROSHIMA KEN","city":"SHOBARA SHI","town":"TOJOCHO TAISHAKUYAMA","perfecture_jp":"広島県","jp_add_1":"庄原市","jp_add_2":"東城町帝釈宇山"},"7295243":{"post_code":"7295243","prefecture":"HIROSHIMA KEN","city":"SHOBARA SHI","town":"TOJOCHO TAISHAKUSHISHU","perfecture_jp":"広島県","jp_add_1":"庄原市","jp_add_2":"東城町帝釈始終"},"7295244":{"post_code":"7295244","prefecture":"HIROSHIMA KEN","city":"SHOBARA SHI","town":"TOJOCHO TAISHAKUMIDO","perfecture_jp":"広島県","jp_add_1":"庄原市","jp_add_2":"東城町帝釈未渡"},"7295242":{"post_code":"7295242","prefecture":"HIROSHIMA KEN","city":"SHOBARA SHI","town":"TOJOCHO TAISHAKUYAMANAKA","perfecture_jp":"広島県","jp_add_1":"庄原市","jp_add_2":"東城町帝釈山中"},"7295451":{"post_code":"7295451","prefecture":"HIROSHIMA KEN","city":"SHOBARA SHI","town":"TOJOCHO TAGURO","perfecture_jp":"広島県","jp_add_1":"庄原市","jp_add_2":"東城町田黒"},"7295126":{"post_code":"7295126","prefecture":"HIROSHIMA KEN","city":"SHOBARA SHI","town":"TOJOCHO TAKEMORI","perfecture_jp":"広島県","jp_add_1":"庄原市","jp_add_2":"東城町竹森"},"7295503":{"post_code":"7295503","prefecture":"HIROSHIMA KEN","city":"SHOBARA SHI","town":"TOJOCHO CHIDORI","perfecture_jp":"広島県","jp_add_1":"庄原市","jp_add_2":"東城町千鳥"},"7295123":{"post_code":"7295123","prefecture":"HIROSHIMA KEN","city":"SHOBARA SHI","town":"TOJOCHO TO","perfecture_jp":"広島県","jp_add_1":"庄原市","jp_add_2":"東城町戸宇"},"7295124":{"post_code":"7295124","prefecture":"HIROSHIMA KEN","city":"SHOBARA SHI","town":"TOJOCHO TOJO","perfecture_jp":"広島県","jp_add_1":"庄原市","jp_add_2":"東城町東城"},"7295111":{"post_code":"7295111","prefecture":"HIROSHIMA KEN","city":"SHOBARA SHI","town":"TOJOCHO FUKUSHIRO","perfecture_jp":"広島県","jp_add_1":"庄原市","jp_add_2":"東城町福代"},"7295132":{"post_code":"7295132","prefecture":"HIROSHIMA KEN","city":"SHOBARA SHI","town":"TOJOCHO MISAKA","perfecture_jp":"広島県","jp_add_1":"庄原市","jp_add_2":"東城町三坂"},"7295456":{"post_code":"7295456","prefecture":"HIROSHIMA KEN","city":"SHOBARA SHI","town":"TOJOCHO MORI","perfecture_jp":"広島県","jp_add_1":"庄原市","jp_add_2":"東城町森"},"7295455":{"post_code":"7295455","prefecture":"HIROSHIMA KEN","city":"SHOBARA SHI","town":"TOJOCHO YASUDA","perfecture_jp":"広島県","jp_add_1":"庄原市","jp_add_2":"東城町保田"},"7296133":{"post_code":"7296133","prefecture":"HIROSHIMA KEN","city":"SHOBARA SHI","town":"TONOGOCHICHO","perfecture_jp":"広島県","jp_add_1":"庄原市","jp_add_2":"殿垣内町"},"7296144":{"post_code":"7296144","prefecture":"HIROSHIMA KEN","city":"SHOBARA SHI","town":"HEIWACHO","perfecture_jp":"広島県","jp_add_1":"庄原市","jp_add_2":"平和町"},"7296132":{"post_code":"7296132","prefecture":"HIROSHIMA KEN","city":"SHOBARA SHI","town":"HONGOCHO","perfecture_jp":"広島県","jp_add_1":"庄原市","jp_add_2":"本郷町"},"7296141":{"post_code":"7296141","prefecture":"HIROSHIMA KEN","city":"SHOBARA SHI","town":"MIZUKOSHICHO","perfecture_jp":"広島県","jp_add_1":"庄原市","jp_add_2":"水越町"},"7296131":{"post_code":"7296131","prefecture":"HIROSHIMA KEN","city":"SHOBARA SHI","town":"YAMANOCHICHO","perfecture_jp":"広島県","jp_add_1":"庄原市","jp_add_2":"山内町"},"7293306":{"post_code":"7293306","prefecture":"HIROSHIMA KEN","city":"SERA GUN SERA CHO","town":"AOCHIKA","perfecture_jp":"広島県","jp_add_1":"世羅郡世羅町","jp_add_2":"青近"},"7293304":{"post_code":"7293304","prefecture":"HIROSHIMA KEN","city":"SERA GUN SERA CHO","town":"AKAYA","perfecture_jp":"広島県","jp_add_1":"世羅郡世羅町","jp_add_2":"赤屋"},"7293307":{"post_code":"7293307","prefecture":"HIROSHIMA KEN","city":"SERA GUN SERA CHO","town":"IO","perfecture_jp":"広島県","jp_add_1":"世羅郡世羅町","jp_add_2":"伊尾"},"7293301":{"post_code":"7293301","prefecture":"HIROSHIMA KEN","city":"SERA GUN SERA CHO","town":"OTANI","perfecture_jp":"広島県","jp_add_1":"世羅郡世羅町","jp_add_2":"小谷"},"7296714":{"post_code":"7296714","prefecture":"HIROSHIMA KEN","city":"SERA GUN SERA CHO","town":"KAMIZUTA","perfecture_jp":"広島県","jp_add_1":"世羅郡世羅町","jp_add_2":"上津田"},"7293302":{"post_code":"7293302","prefecture":"HIROSHIMA KEN","city":"SERA GUN SERA CHO","town":"KAWASHIRI","perfecture_jp":"広島県","jp_add_1":"世羅郡世羅町","jp_add_2":"川尻"},"7296711":{"post_code":"7296711","prefecture":"HIROSHIMA KEN","city":"SERA GUN SERA CHO","town":"KUROGAWA","perfecture_jp":"広島県","jp_add_1":"世羅郡世羅町","jp_add_2":"黒川"},"7296715":{"post_code":"7296715","prefecture":"HIROSHIMA KEN","city":"SERA GUN SERA CHO","town":"SHIMOZUTA","perfecture_jp":"広島県","jp_add_1":"世羅郡世羅町","jp_add_2":"下津田"},"7296713":{"post_code":"7296713","prefecture":"HIROSHIMA KEN","city":"SERA GUN SERA CHO","town":"NAKA","perfecture_jp":"広島県","jp_add_1":"世羅郡世羅町","jp_add_2":"中"},"7296716":{"post_code":"7296716","prefecture":"HIROSHIMA KEN","city":"SERA GUN SERA CHO","town":"NAGATA","perfecture_jp":"広島県","jp_add_1":"世羅郡世羅町","jp_add_2":"長田"},"7293303":{"post_code":"7293303","prefecture":"HIROSHIMA KEN","city":"SERA GUN SERA CHO","town":"HIGASHIUEHARA","perfecture_jp":"広島県","jp_add_1":"世羅郡世羅町","jp_add_2":"東上原"},"7293305":{"post_code":"7293305","prefecture":"HIROSHIMA KEN","city":"SERA GUN SERA CHO","town":"BESSAKO","perfecture_jp":"広島県","jp_add_1":"世羅郡世羅町","jp_add_2":"別迫"},"7296712":{"post_code":"7296712","prefecture":"HIROSHIMA KEN","city":"SERA GUN SERA CHO","town":"YOSHIWARA","perfecture_jp":"広島県","jp_add_1":"世羅郡世羅町","jp_add_2":"吉原"},"7293601":{"post_code":"7293601","prefecture":"HIROSHIMA KEN","city":"JINSEKI GUN JINSEKIKOGEN CHO","town":"AIDO","perfecture_jp":"広島県","jp_add_1":"神石郡神石高原町","jp_add_2":"相渡"},"7293512":{"post_code":"7293512","prefecture":"HIROSHIMA KEN","city":"JINSEKI GUN JINSEKIKOGEN CHO","town":"KUSAGI","perfecture_jp":"広島県","jp_add_1":"神石郡神石高原町","jp_add_2":"草木"},"7293511":{"post_code":"7293511","prefecture":"HIROSHIMA KEN","city":"JINSEKI GUN JINSEKIKOGEN CHO","town":"TAKAMITSU","perfecture_jp":"広島県","jp_add_1":"神石郡神石高原町","jp_add_2":"高光"},"7293514":{"post_code":"7293514","prefecture":"HIROSHIMA KEN","city":"JINSEKI GUN JINSEKIKOGEN CHO","town":"TANDO","perfecture_jp":"広島県","jp_add_1":"神石郡神石高原町","jp_add_2":"田頭"},"7293602":{"post_code":"7293602","prefecture":"HIROSHIMA KEN","city":"JINSEKI GUN JINSEKIKOGEN CHO","town":"NAGANO","perfecture_jp":"広島県","jp_add_1":"神石郡神石高原町","jp_add_2":"永野"},"7293515":{"post_code":"7293515","prefecture":"HIROSHIMA KEN","city":"JINSEKI GUN JINSEKIKOGEN CHO","town":"FUKUNAGA","perfecture_jp":"広島県","jp_add_1":"神石郡神石高原町","jp_add_2":"福永"},"7293516":{"post_code":"7293516","prefecture":"HIROSHIMA KEN","city":"JINSEKI GUN JINSEKIKOGEN CHO","town":"FURUKAWA","perfecture_jp":"広島県","jp_add_1":"神石郡神石高原町","jp_add_2":"古川"},"7293513":{"post_code":"7293513","prefecture":"HIROSHIMA KEN","city":"JINSEKI GUN JINSEKIKOGEN CHO","town":"MAKI","perfecture_jp":"広島県","jp_add_1":"神石郡神石高原町","jp_add_2":"牧"}}