{"7300000":{"post_code":"7300000","prefecture":"HIROSHIMA KEN","city":"HIROSHIMA SHI NAKA KU","town":"IKANIKEISAIGANAIBAAI","perfecture_jp":"広島県","jp_add_1":"広島市中区","jp_add_2":""},"7300851":{"post_code":"7300851","prefecture":"HIROSHIMA KEN","city":"HIROSHIMA SHI NAKA KU","town":"ENOMACHI","perfecture_jp":"広島県","jp_add_1":"広島市中区","jp_add_2":"榎町"},"7300837":{"post_code":"7300837","prefecture":"HIROSHIMA KEN","city":"HIROSHIMA SHI NAKA KU","town":"EBA OKIMACHI","perfecture_jp":"広島県","jp_add_1":"広島市中区","jp_add_2":"江波沖町"},"7300836":{"post_code":"7300836","prefecture":"HIROSHIMA KEN","city":"HIROSHIMA SHI NAKA KU","town":"EBA SAKAEMACHI","perfecture_jp":"広島県","jp_add_1":"広島市中区","jp_add_2":"江波栄町"},"7300834":{"post_code":"7300834","prefecture":"HIROSHIMA KEN","city":"HIROSHIMA SHI NAKA KU","town":"EBA NIHOMMATSU","perfecture_jp":"広島県","jp_add_1":"広島市中区","jp_add_2":"江波二本松"},"7300833":{"post_code":"7300833","prefecture":"HIROSHIMA KEN","city":"HIROSHIMA SHI NAKA KU","town":"EBA HOMMACHI","perfecture_jp":"広島県","jp_add_1":"広島市中区","jp_add_2":"江波本町"},"7300832":{"post_code":"7300832","prefecture":"HIROSHIMA KEN","city":"HIROSHIMA SHI NAKA KU","town":"EBA HIGASHI","perfecture_jp":"広島県","jp_add_1":"広島市中区","jp_add_2":"江波東"},"7300831":{"post_code":"7300831","prefecture":"HIROSHIMA KEN","city":"HIROSHIMA SHI NAKA KU","town":"EBA NISHI","perfecture_jp":"広島県","jp_add_1":"広島市中区","jp_add_2":"江波西"},"7300835":{"post_code":"7300835","prefecture":"HIROSHIMA KEN","city":"HIROSHIMA SHI NAKA KU","town":"EBA MINAMI","perfecture_jp":"広島県","jp_add_1":"広島市中区","jp_add_2":"江波南"},"7300021":{"post_code":"7300021","prefecture":"HIROSHIMA KEN","city":"HIROSHIMA SHI NAKA KU","town":"EBISUCHO","perfecture_jp":"広島県","jp_add_1":"広島市中区","jp_add_2":"胡町"},"7300051":{"post_code":"7300051","prefecture":"HIROSHIMA KEN","city":"HIROSHIMA SHI NAKA KU","town":"OTEMACHI","perfecture_jp":"広島県","jp_add_1":"広島市中区","jp_add_2":"大手町"},"7300812":{"post_code":"7300812","prefecture":"HIROSHIMA KEN","city":"HIROSHIMA SHI NAKA KU","town":"KAKOMACHI","perfecture_jp":"広島県","jp_add_1":"広島市中区","jp_add_2":"加古町"},"7300022":{"post_code":"7300022","prefecture":"HIROSHIMA KEN","city":"HIROSHIMA SHI NAKA KU","town":"KANAYAMACHO","perfecture_jp":"広島県","jp_add_1":"広島市中区","jp_add_2":"銀山町"},"7300014":{"post_code":"7300014","prefecture":"HIROSHIMA KEN","city":"HIROSHIMA SHI NAKA KU","town":"KAMINOBORICHO","perfecture_jp":"広島県","jp_add_1":"広島市中区","jp_add_2":"上幟町"},"7300012":{"post_code":"7300012","prefecture":"HIROSHIMA KEN","city":"HIROSHIMA SHI NAKA KU","town":"KAMIHATCHOBORI","perfecture_jp":"広島県","jp_add_1":"広島市中区","jp_add_2":"上八丁堀"},"7300031":{"post_code":"7300031","prefecture":"HIROSHIMA KEN","city":"HIROSHIMA SHI NAKA KU","town":"KAMIYACHO","perfecture_jp":"広島県","jp_add_1":"広島市中区","jp_add_2":"紙屋町"},"7300856":{"post_code":"7300856","prefecture":"HIROSHIMA KEN","city":"HIROSHIMA SHI NAKA KU","town":"KAWARAMACHI","perfecture_jp":"広島県","jp_add_1":"広島市中区","jp_add_2":"河原町"},"7300855":{"post_code":"7300855","prefecture":"HIROSHIMA KEN","city":"HIROSHIMA SHI NAKA KU","town":"KOAMICHO","perfecture_jp":"広島県","jp_add_1":"広島市中区","jp_add_2":"小網町"},"7300825":{"post_code":"7300825","prefecture":"HIROSHIMA KEN","city":"HIROSHIMA SHI NAKA KU","town":"KONAN","perfecture_jp":"広島県","jp_add_1":"広島市中区","jp_add_2":"光南"},"7300042":{"post_code":"7300042","prefecture":"HIROSHIMA KEN","city":"HIROSHIMA SHI NAKA KU","town":"KOKUTAIJIMACHI","perfecture_jp":"広島県","jp_add_1":"広島市中区","jp_add_2":"国泰寺町"},"7300041":{"post_code":"7300041","prefecture":"HIROSHIMA KEN","city":"HIROSHIMA SHI NAKA KU","town":"KOMACHI","perfecture_jp":"広島県","jp_add_1":"広島市中区","jp_add_2":"小町"},"7300853":{"post_code":"7300853","prefecture":"HIROSHIMA KEN","city":"HIROSHIMA SHI NAKA KU","town":"SAKAIMACHI","perfecture_jp":"広島県","jp_add_1":"広島市中区","jp_add_2":"堺町"},"7300046":{"post_code":"7300046","prefecture":"HIROSHIMA KEN","city":"HIROSHIMA SHI NAKA KU","town":"SHOWAMACHI","perfecture_jp":"広島県","jp_add_1":"広島市中区","jp_add_2":"昭和町"},"7300034":{"post_code":"7300034","prefecture":"HIROSHIMA KEN","city":"HIROSHIMA SHI NAKA KU","town":"SHINTENCHI","perfecture_jp":"広島県","jp_add_1":"広島市中区","jp_add_2":"新天地"},"7300813":{"post_code":"7300813","prefecture":"HIROSHIMA KEN","city":"HIROSHIMA SHI NAKA KU","town":"SUMIYOSHICHO","perfecture_jp":"広島県","jp_add_1":"広島市中区","jp_add_2":"住吉町"},"7300052":{"post_code":"7300052","prefecture":"HIROSHIMA KEN","city":"HIROSHIMA SHI NAKA KU","town":"SENDAMACHI","perfecture_jp":"広島県","jp_add_1":"広島市中区","jp_add_2":"千田町"},"7300044":{"post_code":"7300044","prefecture":"HIROSHIMA KEN","city":"HIROSHIMA SHI NAKA KU","town":"TAKARAMACHI","perfecture_jp":"広島県","jp_add_1":"広島市中区","jp_add_2":"宝町"},"7300048":{"post_code":"7300048","prefecture":"HIROSHIMA KEN","city":"HIROSHIMA SHI NAKA KU","town":"TAKEYACHO","perfecture_jp":"広島県","jp_add_1":"広島市中区","jp_add_2":"竹屋町"},"7300032":{"post_code":"7300032","prefecture":"HIROSHIMA KEN","city":"HIROSHIMA SHI NAKA KU","town":"TATEMACHI","perfecture_jp":"広島県","jp_add_1":"広島市中区","jp_add_2":"立町"},"7300026":{"post_code":"7300026","prefecture":"HIROSHIMA KEN","city":"HIROSHIMA SHI NAKA KU","town":"TANAKAMACHI","perfecture_jp":"広島県","jp_add_1":"広島市中区","jp_add_2":"田中町"},"7300045":{"post_code":"7300045","prefecture":"HIROSHIMA KEN","city":"HIROSHIMA SHI NAKA KU","town":"TSURUMICHO","perfecture_jp":"広島県","jp_add_1":"広島市中区","jp_add_2":"鶴見町"},"7300017":{"post_code":"7300017","prefecture":"HIROSHIMA KEN","city":"HIROSHIMA SHI NAKA KU","town":"TEPPOCHO","perfecture_jp":"広島県","jp_add_1":"広島市中区","jp_add_2":"鉄砲町"},"7300801":{"post_code":"7300801","prefecture":"HIROSHIMA KEN","city":"HIROSHIMA SHI NAKA KU","town":"TERAMACHI","perfecture_jp":"広島県","jp_add_1":"広島市中区","jp_add_2":"寺町"},"7300805":{"post_code":"7300805","prefecture":"HIROSHIMA KEN","city":"HIROSHIMA SHI NAKA KU","town":"TOKAICHIMACHI","perfecture_jp":"広島県","jp_add_1":"広島市中区","jp_add_2":"十日市町"},"7300854":{"post_code":"7300854","prefecture":"HIROSHIMA KEN","city":"HIROSHIMA SHI NAKA KU","town":"DOHASHICHO","perfecture_jp":"広島県","jp_add_1":"広島市中区","jp_add_2":"土橋町"},"7300811":{"post_code":"7300811","prefecture":"HIROSHIMA KEN","city":"HIROSHIMA SHI NAKA KU","town":"NAKAJIMACHO","perfecture_jp":"広島県","jp_add_1":"広島市中区","jp_add_2":"中島町"},"7300037":{"post_code":"7300037","prefecture":"HIROSHIMA KEN","city":"HIROSHIMA SHI NAKA KU","town":"NAKAMACHI","perfecture_jp":"広島県","jp_add_1":"広島市中区","jp_add_2":"中町"},"7300028":{"post_code":"7300028","prefecture":"HIROSHIMA KEN","city":"HIROSHIMA SHI NAKA KU","town":"NAGAREKAWACHO","perfecture_jp":"広島県","jp_add_1":"広島市中区","jp_add_2":"流川町"},"7300846":{"post_code":"7300846","prefecture":"HIROSHIMA KEN","city":"HIROSHIMA SHI NAKA KU","town":"NISHIKAWAGUCHICHO","perfecture_jp":"広島県","jp_add_1":"広島市中区","jp_add_2":"西川口町"},"7300806":{"post_code":"7300806","prefecture":"HIROSHIMA KEN","city":"HIROSHIMA SHI NAKA KU","town":"NISHITOKAICHIMACHI","perfecture_jp":"広島県","jp_add_1":"広島市中区","jp_add_2":"西十日市町"},"7300005":{"post_code":"7300005","prefecture":"HIROSHIMA KEN","city":"HIROSHIMA SHI NAKA KU","town":"NISHIHAKUSHIMACHO","perfecture_jp":"広島県","jp_add_1":"広島市中区","jp_add_2":"西白島町"},"7300024":{"post_code":"7300024","prefecture":"HIROSHIMA KEN","city":"HIROSHIMA SHI NAKA KU","town":"NISHIHIRATSUKACHO","perfecture_jp":"広島県","jp_add_1":"広島市中区","jp_add_2":"西平塚町"},"7300852":{"post_code":"7300852","prefecture":"HIROSHIMA KEN","city":"HIROSHIMA SHI NAKA KU","town":"NEKOYACHO","perfecture_jp":"広島県","jp_add_1":"広島市中区","jp_add_2":"猫屋町"},"7300016":{"post_code":"7300016","prefecture":"HIROSHIMA KEN","city":"HIROSHIMA SHI NAKA KU","town":"NOBORICHO","perfecture_jp":"広島県","jp_add_1":"広島市中区","jp_add_2":"幟町"},"7300001":{"post_code":"7300001","prefecture":"HIROSHIMA KEN","city":"HIROSHIMA SHI NAKA KU","town":"HAKUSHIMA KITAMACHI","perfecture_jp":"広島県","jp_add_1":"広島市中区","jp_add_2":"白島北町"},"7300003":{"post_code":"7300003","prefecture":"HIROSHIMA KEN","city":"HIROSHIMA SHI NAKA KU","town":"HAKUSHIMA KUKENCHO","perfecture_jp":"広島県","jp_add_1":"広島市中区","jp_add_2":"白島九軒町"},"7300002":{"post_code":"7300002","prefecture":"HIROSHIMA KEN","city":"HIROSHIMA SHI NAKA KU","town":"HAKUSHIMA NAKAMACHI","perfecture_jp":"広島県","jp_add_1":"広島市中区","jp_add_2":"白島中町"},"7300814":{"post_code":"7300814","prefecture":"HIROSHIMA KEN","city":"HIROSHIMA SHI NAKA KU","town":"HAGOROMOCHO","perfecture_jp":"広島県","jp_add_1":"広島市中区","jp_add_2":"羽衣町"},"7300015":{"post_code":"7300015","prefecture":"HIROSHIMA KEN","city":"HIROSHIMA SHI NAKA KU","town":"HASHIMOTOCHO","perfecture_jp":"広島県","jp_add_1":"広島市中区","jp_add_2":"橋本町"},"7300013":{"post_code":"7300013","prefecture":"HIROSHIMA KEN","city":"HIROSHIMA SHI NAKA KU","town":"HATCHOBORI","perfecture_jp":"広島県","jp_add_1":"広島市中区","jp_add_2":"八丁堀"},"7300053":{"post_code":"7300053","prefecture":"HIROSHIMA KEN","city":"HIROSHIMA SHI NAKA KU","town":"HIGASHISENDAMACHI","perfecture_jp":"広島県","jp_add_1":"広島市中区","jp_add_2":"東千田町"},"7300004":{"post_code":"7300004","prefecture":"HIROSHIMA KEN","city":"HIROSHIMA SHI NAKA KU","town":"HIGASHIHAKUSHIMACHO","perfecture_jp":"広島県","jp_add_1":"広島市中区","jp_add_2":"東白島町"},"7300025":{"post_code":"7300025","prefecture":"HIROSHIMA KEN","city":"HIROSHIMA SHI NAKA KU","town":"HIGASHIHIRATSUKACHO","perfecture_jp":"広島県","jp_add_1":"広島市中区","jp_add_2":"東平塚町"},"7300047":{"post_code":"7300047","prefecture":"HIROSHIMA KEN","city":"HIROSHIMA SHI NAKA KU","town":"HIRANOMACHI","perfecture_jp":"広島県","jp_add_1":"広島市中区","jp_add_2":"平野町"},"7300803":{"post_code":"7300803","prefecture":"HIROSHIMA KEN","city":"HIROSHIMA SHI NAKA KU","town":"HIROSEKITAMACHI","perfecture_jp":"広島県","jp_add_1":"広島市中区","jp_add_2":"広瀬北町"},"7300804":{"post_code":"7300804","prefecture":"HIROSHIMA KEN","city":"HIROSHIMA SHI NAKA KU","town":"HIROSEMACHI","perfecture_jp":"広島県","jp_add_1":"広島市中区","jp_add_2":"広瀬町"},"7300036":{"post_code":"7300036","prefecture":"HIROSHIMA KEN","city":"HIROSHIMA SHI NAKA KU","town":"FUKUROMACHI","perfecture_jp":"広島県","jp_add_1":"広島市中区","jp_add_2":"袋町"},"7300043":{"post_code":"7300043","prefecture":"HIROSHIMA KEN","city":"HIROSHIMA SHI NAKA KU","town":"FUJIMICHO","perfecture_jp":"広島県","jp_add_1":"広島市中区","jp_add_2":"富士見町"},"7300845":{"post_code":"7300845","prefecture":"HIROSHIMA KEN","city":"HIROSHIMA SHI NAKA KU","town":"FUNAIRI KAWAGUCHICHO","perfecture_jp":"広島県","jp_add_1":"広島市中区","jp_add_2":"舟入川口町"},"7300844":{"post_code":"7300844","prefecture":"HIROSHIMA KEN","city":"HIROSHIMA SHI NAKA KU","town":"FUNAIRI SAIWAICHO","perfecture_jp":"広島県","jp_add_1":"広島市中区","jp_add_2":"舟入幸町"},"7300842":{"post_code":"7300842","prefecture":"HIROSHIMA KEN","city":"HIROSHIMA SHI NAKA KU","town":"FUNAIRI NAKAMACHI","perfecture_jp":"広島県","jp_add_1":"広島市中区","jp_add_2":"舟入中町"},"7300843":{"post_code":"7300843","prefecture":"HIROSHIMA KEN","city":"HIROSHIMA SHI NAKA KU","town":"FUNAIRI HOMMACHI","perfecture_jp":"広島県","jp_add_1":"広島市中区","jp_add_2":"舟入本町"},"7300847":{"post_code":"7300847","prefecture":"HIROSHIMA KEN","city":"HIROSHIMA SHI NAKA KU","town":"FUNAIRI MINAMI","perfecture_jp":"広島県","jp_add_1":"広島市中区","jp_add_2":"舟入南"},"7300841":{"post_code":"7300841","prefecture":"HIROSHIMA KEN","city":"HIROSHIMA SHI NAKA KU","town":"FUNAIRIMACHI","perfecture_jp":"広島県","jp_add_1":"広島市中区","jp_add_2":"舟入町"},"7300033":{"post_code":"7300033","prefecture":"HIROSHIMA KEN","city":"HIROSHIMA SHI NAKA KU","town":"HORIKAWACHO","perfecture_jp":"広島県","jp_add_1":"広島市中区","jp_add_2":"堀川町"},"7300802":{"post_code":"7300802","prefecture":"HIROSHIMA KEN","city":"HIROSHIMA SHI NAKA KU","town":"HONKAWACHO","perfecture_jp":"広島県","jp_add_1":"広島市中区","jp_add_2":"本川町"},"7300035":{"post_code":"7300035","prefecture":"HIROSHIMA KEN","city":"HIROSHIMA SHI NAKA KU","town":"HONDORI","perfecture_jp":"広島県","jp_add_1":"広島市中区","jp_add_2":"本通"},"7300029":{"post_code":"7300029","prefecture":"HIROSHIMA KEN","city":"HIROSHIMA SHI NAKA KU","town":"MIKAWACHO","perfecture_jp":"広島県","jp_add_1":"広島市中区","jp_add_2":"三川町"},"7300054":{"post_code":"7300054","prefecture":"HIROSHIMA KEN","city":"HIROSHIMA SHI NAKA KU","town":"MINAMISENDA HIGASHIMACHI","perfecture_jp":"広島県","jp_add_1":"広島市中区","jp_add_2":"南千田東町"},"7300055":{"post_code":"7300055","prefecture":"HIROSHIMA KEN","city":"HIROSHIMA SHI NAKA KU","town":"MINAMISENDA NISHIMACHI","perfecture_jp":"広島県","jp_add_1":"広島市中区","jp_add_2":"南千田西町"},"7300049":{"post_code":"7300049","prefecture":"HIROSHIMA KEN","city":"HIROSHIMA SHI NAKA KU","town":"MINAMITAKEYACHO","perfecture_jp":"広島県","jp_add_1":"広島市中区","jp_add_2":"南竹屋町"},"7300826":{"post_code":"7300826","prefecture":"HIROSHIMA KEN","city":"HIROSHIMA SHI NAKA KU","town":"MINAMIYOSHIJIMA","perfecture_jp":"広島県","jp_add_1":"広島市中区","jp_add_2":"南吉島"},"7300011":{"post_code":"7300011","prefecture":"HIROSHIMA KEN","city":"HIROSHIMA SHI NAKA KU","town":"MOTOMACHI","perfecture_jp":"広島県","jp_add_1":"広島市中区","jp_add_2":"基町"},"7300027":{"post_code":"7300027","prefecture":"HIROSHIMA KEN","city":"HIROSHIMA SHI NAKA KU","town":"YAGEMBORI","perfecture_jp":"広島県","jp_add_1":"広島市中区","jp_add_2":"薬研堀"},"7300023":{"post_code":"7300023","prefecture":"HIROSHIMA KEN","city":"HIROSHIMA SHI NAKA KU","town":"YAYOICHO","perfecture_jp":"広島県","jp_add_1":"広島市中区","jp_add_2":"弥生町"},"7300824":{"post_code":"7300824","prefecture":"HIROSHIMA KEN","city":"HIROSHIMA SHI NAKA KU","town":"YOSHIJIMA SHIMMACHI","perfecture_jp":"広島県","jp_add_1":"広島市中区","jp_add_2":"吉島新町"},"7300822":{"post_code":"7300822","prefecture":"HIROSHIMA KEN","city":"HIROSHIMA SHI NAKA KU","town":"YOSHIJIMA HIGASHI","perfecture_jp":"広島県","jp_add_1":"広島市中区","jp_add_2":"吉島東"},"7300823":{"post_code":"7300823","prefecture":"HIROSHIMA KEN","city":"HIROSHIMA SHI NAKA KU","town":"YOSHIJIMA NISHI","perfecture_jp":"広島県","jp_add_1":"広島市中区","jp_add_2":"吉島西"},"7300821":{"post_code":"7300821","prefecture":"HIROSHIMA KEN","city":"HIROSHIMA SHI NAKA KU","town":"YOSHIJIMACHO","perfecture_jp":"広島県","jp_add_1":"広島市中区","jp_add_2":"吉島町"}}