{"7330000":{"post_code":"7330000","prefecture":"HIROSHIMA KEN","city":"HIROSHIMA SHI NISHI KU","town":"IKANIKEISAIGANAIBAAI","perfecture_jp":"広島県","jp_add_1":"広島市西区","jp_add_2":""},"7330845":{"post_code":"7330845","prefecture":"HIROSHIMA KEN","city":"HIROSHIMA SHI NISHI KU","town":"INOKUCHICHO","perfecture_jp":"広島県","jp_add_1":"広島市西区","jp_add_2":"井口町"},"7330842":{"post_code":"7330842","prefecture":"HIROSHIMA KEN","city":"HIROSHIMA SHI NISHI KU","town":"INOKUCHI","perfecture_jp":"広島県","jp_add_1":"広島市西区","jp_add_2":"井口"},"7330843":{"post_code":"7330843","prefecture":"HIROSHIMA KEN","city":"HIROSHIMA SHI NISHI KU","town":"INOKUCHI SUZUGADAI","perfecture_jp":"広島県","jp_add_1":"広島市西区","jp_add_2":"井口鈴が台"},"7330841":{"post_code":"7330841","prefecture":"HIROSHIMA KEN","city":"HIROSHIMA SHI NISHI KU","town":"INOKUCHI MYOJIN","perfecture_jp":"広島県","jp_add_1":"広島市西区","jp_add_2":"井口明神"},"7330844":{"post_code":"7330844","prefecture":"HIROSHIMA KEN","city":"HIROSHIMA SHI NISHI KU","town":"INOKUCHIDAI","perfecture_jp":"広島県","jp_add_1":"広島市西区","jp_add_2":"井口台"},"7330004":{"post_code":"7330004","prefecture":"HIROSHIMA KEN","city":"HIROSHIMA SHI NISHI KU","town":"UCHIKOSHICHO","perfecture_jp":"広島県","jp_add_1":"広島市西区","jp_add_2":"打越町"},"7330831":{"post_code":"7330831","prefecture":"HIROSHIMA KEN","city":"HIROSHIMA SHI NISHI KU","town":"OGI","perfecture_jp":"広島県","jp_add_1":"広島市西区","jp_add_2":"扇"},"7330001":{"post_code":"7330001","prefecture":"HIROSHIMA KEN","city":"HIROSHIMA SHI NISHI KU","town":"OSHIBA","perfecture_jp":"広島県","jp_add_1":"広島市西区","jp_add_2":"大芝"},"7330007":{"post_code":"7330007","prefecture":"HIROSHIMA KEN","city":"HIROSHIMA SHI NISHI KU","town":"OMIYA","perfecture_jp":"広島県","jp_add_1":"広島市西区","jp_add_2":"大宮"},"7330025":{"post_code":"7330025","prefecture":"HIROSHIMA KEN","city":"HIROSHIMA SHI NISHI KU","town":"OGAWACHIMACHI","perfecture_jp":"広島県","jp_add_1":"広島市西区","jp_add_2":"小河内町"},"7330021":{"post_code":"7330021","prefecture":"HIROSHIMA KEN","city":"HIROSHIMA SHI NISHI KU","town":"KAMITEMMACHO","perfecture_jp":"広島県","jp_add_1":"広島市西区","jp_add_2":"上天満町"},"7330036":{"post_code":"7330036","prefecture":"HIROSHIMA KEN","city":"HIROSHIMA SHI NISHI KU","town":"KANON SHIMMACHI","perfecture_jp":"広島県","jp_add_1":"広島市西区","jp_add_2":"観音新町"},"7330033":{"post_code":"7330033","prefecture":"HIROSHIMA KEN","city":"HIROSHIMA SHI NISHI KU","town":"KANON HOMMACHI","perfecture_jp":"広島県","jp_add_1":"広島市西区","jp_add_2":"観音本町"},"7330031":{"post_code":"7330031","prefecture":"HIROSHIMA KEN","city":"HIROSHIMA SHI NISHI KU","town":"KANOMMACHI","perfecture_jp":"広島県","jp_add_1":"広島市西区","jp_add_2":"観音町"},"7330864":{"post_code":"7330864","prefecture":"HIROSHIMA KEN","city":"HIROSHIMA SHI NISHI KU","town":"KUSATSU UMEGADAI","perfecture_jp":"広島県","jp_add_1":"広島市西区","jp_add_2":"草津梅が台"},"7330834":{"post_code":"7330834","prefecture":"HIROSHIMA KEN","city":"HIROSHIMA SHI NISHI KU","town":"KUSATSU SHIMMACHI","perfecture_jp":"広島県","jp_add_1":"広島市西区","jp_add_2":"草津新町"},"7330862":{"post_code":"7330862","prefecture":"HIROSHIMA KEN","city":"HIROSHIMA SHI NISHI KU","town":"KUSATSU HAMAMACHI","perfecture_jp":"広島県","jp_add_1":"広島市西区","jp_add_2":"草津浜町"},"7330865":{"post_code":"7330865","prefecture":"HIROSHIMA KEN","city":"HIROSHIMA SHI NISHI KU","town":"KUSATSU HOMMACHI","perfecture_jp":"広島県","jp_add_1":"広島市西区","jp_add_2":"草津本町"},"7330861":{"post_code":"7330861","prefecture":"HIROSHIMA KEN","city":"HIROSHIMA SHI NISHI KU","town":"KUSATSU HIGASHI","perfecture_jp":"広島県","jp_add_1":"広島市西区","jp_add_2":"草津東"},"7330863":{"post_code":"7330863","prefecture":"HIROSHIMA KEN","city":"HIROSHIMA SHI NISHI KU","town":"KUSATSU MINAMI","perfecture_jp":"広島県","jp_add_1":"広島市西区","jp_add_2":"草津南"},"7330832":{"post_code":"7330832","prefecture":"HIROSHIMA KEN","city":"HIROSHIMA SHI NISHI KU","town":"KUSATSUKO","perfecture_jp":"広島県","jp_add_1":"広島市西区","jp_add_2":"草津港"},"7330002":{"post_code":"7330002","prefecture":"HIROSHIMA KEN","city":"HIROSHIMA SHI NISHI KU","town":"KUSUNOKICHO","perfecture_jp":"広島県","jp_add_1":"広島市西区","jp_add_2":"楠木町"},"7330815":{"post_code":"7330815","prefecture":"HIROSHIMA KEN","city":"HIROSHIMA SHI NISHI KU","town":"KOI UE","perfecture_jp":"広島県","jp_add_1":"広島市西区","jp_add_2":"己斐上"},"7330816":{"post_code":"7330816","prefecture":"HIROSHIMA KEN","city":"HIROSHIMA SHI NISHI KU","town":"KOI OSAKO","perfecture_jp":"広島県","jp_add_1":"広島市西区","jp_add_2":"己斐大迫"},"7330813":{"post_code":"7330813","prefecture":"HIROSHIMA KEN","city":"HIROSHIMA SHI NISHI KU","town":"KOI NAKA","perfecture_jp":"広島県","jp_add_1":"広島市西区","jp_add_2":"己斐中"},"7330814":{"post_code":"7330814","prefecture":"HIROSHIMA KEN","city":"HIROSHIMA SHI NISHI KU","town":"KOI NISHIMACHI","perfecture_jp":"広島県","jp_add_1":"広島市西区","jp_add_2":"己斐西町"},"7330812":{"post_code":"7330812","prefecture":"HIROSHIMA KEN","city":"HIROSHIMA SHI NISHI KU","town":"KOI HOMMACHI","perfecture_jp":"広島県","jp_add_1":"広島市西区","jp_add_2":"己斐本町"},"7330811":{"post_code":"7330811","prefecture":"HIROSHIMA KEN","city":"HIROSHIMA SHI NISHI KU","town":"KOI HIGASHI","perfecture_jp":"広島県","jp_add_1":"広島市西区","jp_add_2":"己斐東"},"7330822":{"post_code":"7330822","prefecture":"HIROSHIMA KEN","city":"HIROSHIMA SHI NISHI KU","town":"KOGO NAKA","perfecture_jp":"広島県","jp_add_1":"広島市西区","jp_add_2":"庚午中"},"7330823":{"post_code":"7330823","prefecture":"HIROSHIMA KEN","city":"HIROSHIMA SHI NISHI KU","town":"KOGO MINAMI","perfecture_jp":"広島県","jp_add_1":"広島市西区","jp_add_2":"庚午南"},"7330821":{"post_code":"7330821","prefecture":"HIROSHIMA KEN","city":"HIROSHIMA SHI NISHI KU","town":"KOGO KITA","perfecture_jp":"広島県","jp_add_1":"広島市西区","jp_add_2":"庚午北"},"7330833":{"post_code":"7330833","prefecture":"HIROSHIMA KEN","city":"HIROSHIMA SHI NISHI KU","town":"SHOKOSENTA","perfecture_jp":"広島県","jp_add_1":"広島市西区","jp_add_2":"商工センター"},"7330801":{"post_code":"7330801","prefecture":"HIROSHIMA KEN","city":"HIROSHIMA SHI NISHI KU","town":"SHINJOCHO","perfecture_jp":"広島県","jp_add_1":"広島市西区","jp_add_2":"新庄町"},"7330852":{"post_code":"7330852","prefecture":"HIROSHIMA KEN","city":"HIROSHIMA SHI NISHI KU","town":"SUZUGAMINECHO","perfecture_jp":"広島県","jp_add_1":"広島市西区","jp_add_2":"鈴が峰町"},"7330871":{"post_code":"7330871","prefecture":"HIROSHIMA KEN","city":"HIROSHIMA SHI NISHI KU","town":"TAKASU","perfecture_jp":"広島県","jp_add_1":"広島市西区","jp_add_2":"高須"},"7330876":{"post_code":"7330876","prefecture":"HIROSHIMA KEN","city":"HIROSHIMA SHI NISHI KU","town":"TAKASUDAI","perfecture_jp":"広島県","jp_add_1":"広島市西区","jp_add_2":"高須台"},"7330851":{"post_code":"7330851","prefecture":"HIROSHIMA KEN","city":"HIROSHIMA SHI NISHI KU","town":"TAKATA","perfecture_jp":"広島県","jp_add_1":"広島市西区","jp_add_2":"田方"},"7330022":{"post_code":"7330022","prefecture":"HIROSHIMA KEN","city":"HIROSHIMA SHI NISHI KU","town":"TEMMACHO","perfecture_jp":"広島県","jp_add_1":"広島市西区","jp_add_2":"天満町"},"7330012":{"post_code":"7330012","prefecture":"HIROSHIMA KEN","city":"HIROSHIMA SHI NISHI KU","town":"NAKAHIROMACHI","perfecture_jp":"広島県","jp_add_1":"広島市西区","jp_add_2":"中広町"},"7330037":{"post_code":"7330037","prefecture":"HIROSHIMA KEN","city":"HIROSHIMA SHI NISHI KU","town":"NISHIKANOMMACHI","perfecture_jp":"広島県","jp_add_1":"広島市西区","jp_add_2":"西観音町"},"7330032":{"post_code":"7330032","prefecture":"HIROSHIMA KEN","city":"HIROSHIMA SHI NISHI KU","town":"HIGASHIKANOMMACHI","perfecture_jp":"広島県","jp_add_1":"広島市西区","jp_add_2":"東観音町"},"7330024":{"post_code":"7330024","prefecture":"HIROSHIMA KEN","city":"HIROSHIMA SHI NISHI KU","town":"FUKUSHIMACHO","perfecture_jp":"広島県","jp_add_1":"広島市西区","jp_add_2":"福島町"},"7330875":{"post_code":"7330875","prefecture":"HIROSHIMA KEN","city":"HIROSHIMA SHI NISHI KU","town":"FURUE UE","perfecture_jp":"広島県","jp_add_1":"広島市西区","jp_add_2":"古江上"},"7330873":{"post_code":"7330873","prefecture":"HIROSHIMA KEN","city":"HIROSHIMA SHI NISHI KU","town":"FURUE SHIMMACHI","perfecture_jp":"広島県","jp_add_1":"広島市西区","jp_add_2":"古江新町"},"7330872":{"post_code":"7330872","prefecture":"HIROSHIMA KEN","city":"HIROSHIMA SHI NISHI KU","town":"FURUE HIGASHIMACHI","perfecture_jp":"広島県","jp_add_1":"広島市西区","jp_add_2":"古江東町"},"7330874":{"post_code":"7330874","prefecture":"HIROSHIMA KEN","city":"HIROSHIMA SHI NISHI KU","town":"FURUE NISHIMACHI","perfecture_jp":"広島県","jp_add_1":"広島市西区","jp_add_2":"古江西町"},"7330877":{"post_code":"7330877","prefecture":"HIROSHIMA KEN","city":"HIROSHIMA SHI NISHI KU","town":"FURUTADAI","perfecture_jp":"広島県","jp_add_1":"広島市西区","jp_add_2":"古田台"},"7330006":{"post_code":"7330006","prefecture":"HIROSHIMA KEN","city":"HIROSHIMA SHI NISHI KU","town":"MISASAKITAMACHI","perfecture_jp":"広島県","jp_add_1":"広島市西区","jp_add_2":"三篠北町"},"7330003":{"post_code":"7330003","prefecture":"HIROSHIMA KEN","city":"HIROSHIMA SHI NISHI KU","town":"MISASAMACHI","perfecture_jp":"広島県","jp_add_1":"広島市西区","jp_add_2":"三篠町"},"7330802":{"post_code":"7330802","prefecture":"HIROSHIMA KEN","city":"HIROSHIMA SHI NISHI KU","town":"MITAKIHOMMACHI","perfecture_jp":"広島県","jp_add_1":"広島市西区","jp_add_2":"三滝本町"},"7330005":{"post_code":"7330005","prefecture":"HIROSHIMA KEN","city":"HIROSHIMA SHI NISHI KU","town":"MITAKIMACHI","perfecture_jp":"広島県","jp_add_1":"広島市西区","jp_add_2":"三滝町"},"7330805":{"post_code":"7330805","prefecture":"HIROSHIMA KEN","city":"HIROSHIMA SHI NISHI KU","town":"MITAKIYAMA","perfecture_jp":"広島県","jp_add_1":"広島市西区","jp_add_2":"三滝山"},"7330035":{"post_code":"7330035","prefecture":"HIROSHIMA KEN","city":"HIROSHIMA SHI NISHI KU","town":"MINAMIKANON","perfecture_jp":"広島県","jp_add_1":"広島市西区","jp_add_2":"南観音"},"7330034":{"post_code":"7330034","prefecture":"HIROSHIMA KEN","city":"HIROSHIMA SHI NISHI KU","town":"MINAMIKANOMMACHI","perfecture_jp":"広島県","jp_add_1":"広島市西区","jp_add_2":"南観音町"},"7330023":{"post_code":"7330023","prefecture":"HIROSHIMA KEN","city":"HIROSHIMA SHI NISHI KU","town":"MIYAKOMACHI","perfecture_jp":"広島県","jp_add_1":"広島市西区","jp_add_2":"都町"},"7330853":{"post_code":"7330853","prefecture":"HIROSHIMA KEN","city":"HIROSHIMA SHI NISHI KU","town":"YAMADASHIMMACHI","perfecture_jp":"広島県","jp_add_1":"広島市西区","jp_add_2":"山田新町"},"7330854":{"post_code":"7330854","prefecture":"HIROSHIMA KEN","city":"HIROSHIMA SHI NISHI KU","town":"YAMADACHO","perfecture_jp":"広島県","jp_add_1":"広島市西区","jp_add_2":"山田町"},"7330804":{"post_code":"7330804","prefecture":"HIROSHIMA KEN","city":"HIROSHIMA SHI NISHI KU","town":"YAMATECHO","perfecture_jp":"広島県","jp_add_1":"広島市西区","jp_add_2":"山手町"},"7330013":{"post_code":"7330013","prefecture":"HIROSHIMA KEN","city":"HIROSHIMA SHI NISHI KU","town":"YOKOGAWASHIMMACHI","perfecture_jp":"広島県","jp_add_1":"広島市西区","jp_add_2":"横川新町"},"7330011":{"post_code":"7330011","prefecture":"HIROSHIMA KEN","city":"HIROSHIMA SHI NISHI KU","town":"YOKOGAWACHO","perfecture_jp":"広島県","jp_add_1":"広島市西区","jp_add_2":"横川町"},"7330803":{"post_code":"7330803","prefecture":"HIROSHIMA KEN","city":"HIROSHIMA SHI NISHI KU","town":"RYUOCHO","perfecture_jp":"広島県","jp_add_1":"広島市西区","jp_add_2":"竜王町"}}