{"7350000":{"post_code":"7350000","prefecture":"HIROSHIMA KEN","city":"AKI GUN FUCHU CHO","town":"IKANIKEISAIGANAIBAAI","perfecture_jp":"広島県","jp_add_1":"安芸郡府中町","jp_add_2":""},"7350016":{"post_code":"7350016","prefecture":"HIROSHIMA KEN","city":"AKI GUN FUCHU CHO","town":"AOSAKINAKA","perfecture_jp":"広島県","jp_add_1":"安芸郡府中町","jp_add_2":"青崎中"},"7350015":{"post_code":"7350015","prefecture":"HIROSHIMA KEN","city":"AKI GUN FUCHU CHO","town":"AOSAKIHIGASHI","perfecture_jp":"広島県","jp_add_1":"安芸郡府中町","jp_add_2":"青崎東"},"7350017":{"post_code":"7350017","prefecture":"HIROSHIMA KEN","city":"AKI GUN FUCHU CHO","town":"AOSAKIMINAMI","perfecture_jp":"広島県","jp_add_1":"安芸郡府中町","jp_add_2":"青崎南"},"7350007":{"post_code":"7350007","prefecture":"HIROSHIMA KEN","city":"AKI GUN FUCHU CHO","town":"ISHIIJO","perfecture_jp":"広島県","jp_add_1":"安芸郡府中町","jp_add_2":"石井城"},"7350021":{"post_code":"7350021","prefecture":"HIROSHIMA KEN","city":"AKI GUN FUCHU CHO","town":"OSU","perfecture_jp":"広島県","jp_add_1":"安芸郡府中町","jp_add_2":"大須"},"7350022":{"post_code":"7350022","prefecture":"HIROSHIMA KEN","city":"AKI GUN FUCHU CHO","town":"ODORI","perfecture_jp":"広島県","jp_add_1":"安芸郡府中町","jp_add_2":"大通"},"7350025":{"post_code":"7350025","prefecture":"HIROSHIMA KEN","city":"AKI GUN FUCHU CHO","town":"KOGOMORI","perfecture_jp":"広島県","jp_add_1":"安芸郡府中町","jp_add_2":"鹿籠"},"7350001":{"post_code":"7350001","prefecture":"HIROSHIMA KEN","city":"AKI GUN FUCHU CHO","town":"SAKURAGAOKA","perfecture_jp":"広島県","jp_add_1":"安芸郡府中町","jp_add_2":"桜ケ丘"},"7350002":{"post_code":"7350002","prefecture":"HIROSHIMA KEN","city":"AKI GUN FUCHU CHO","town":"SHIMIZUGAOKA","perfecture_jp":"広島県","jp_add_1":"安芸郡府中町","jp_add_2":"清水ケ丘"},"7350009":{"post_code":"7350009","prefecture":"HIROSHIMA KEN","city":"AKI GUN FUCHU CHO","town":"JOGAOKA","perfecture_jp":"広島県","jp_add_1":"安芸郡府中町","jp_add_2":"城ケ丘"},"7350028":{"post_code":"7350028","prefecture":"HIROSHIMA KEN","city":"AKI GUN FUCHU CHO","town":"SHINCHI","perfecture_jp":"広島県","jp_add_1":"安芸郡府中町","jp_add_2":"新地"},"7350011":{"post_code":"7350011","prefecture":"HIROSHIMA KEN","city":"AKI GUN FUCHU CHO","town":"SETOHAIMU","perfecture_jp":"広島県","jp_add_1":"安芸郡府中町","jp_add_2":"瀬戸ハイム"},"7350027":{"post_code":"7350027","prefecture":"HIROSHIMA KEN","city":"AKI GUN FUCHU CHO","town":"SENDAI","perfecture_jp":"広島県","jp_add_1":"安芸郡府中町","jp_add_2":"千代"},"7350008":{"post_code":"7350008","prefecture":"HIROSHIMA KEN","city":"AKI GUN FUCHU CHO","town":"TSURUE","perfecture_jp":"広島県","jp_add_1":"安芸郡府中町","jp_add_2":"鶴江"},"7350013":{"post_code":"7350013","prefecture":"HIROSHIMA KEN","city":"AKI GUN FUCHU CHO","town":"HAMADA","perfecture_jp":"広島県","jp_add_1":"安芸郡府中町","jp_add_2":"浜田"},"7350023":{"post_code":"7350023","prefecture":"HIROSHIMA KEN","city":"AKI GUN FUCHU CHO","town":"HAMADAHOMMACHI","perfecture_jp":"広島県","jp_add_1":"安芸郡府中町","jp_add_2":"浜田本町"},"7350006":{"post_code":"7350006","prefecture":"HIROSHIMA KEN","city":"AKI GUN FUCHU CHO","town":"HOMMACHI","perfecture_jp":"広島県","jp_add_1":"安芸郡府中町","jp_add_2":"本町"},"7350003":{"post_code":"7350003","prefecture":"HIROSHIMA KEN","city":"AKI GUN FUCHU CHO","town":"MIKUMARI","perfecture_jp":"広島県","jp_add_1":"安芸郡府中町","jp_add_2":"みくまり"},"7350024":{"post_code":"7350024","prefecture":"HIROSHIMA KEN","city":"AKI GUN FUCHU CHO","town":"MIDORIGAOKA","perfecture_jp":"広島県","jp_add_1":"安芸郡府中町","jp_add_2":"緑ケ丘"},"7350005":{"post_code":"7350005","prefecture":"HIROSHIMA KEN","city":"AKI GUN FUCHU CHO","town":"MIYANOMACHI","perfecture_jp":"広島県","jp_add_1":"安芸郡府中町","jp_add_2":"宮の町"},"7350029":{"post_code":"7350029","prefecture":"HIROSHIMA KEN","city":"AKI GUN FUCHU CHO","town":"MOKAGE","perfecture_jp":"広島県","jp_add_1":"安芸郡府中町","jp_add_2":"茂陰"},"7350026":{"post_code":"7350026","prefecture":"HIROSHIMA KEN","city":"AKI GUN FUCHU CHO","town":"MOMOYAMA","perfecture_jp":"広島県","jp_add_1":"安芸郡府中町","jp_add_2":"桃山"},"7350014":{"post_code":"7350014","prefecture":"HIROSHIMA KEN","city":"AKI GUN FUCHU CHO","town":"YANAGIGAOKA","perfecture_jp":"広島県","jp_add_1":"安芸郡府中町","jp_add_2":"柳ケ丘"},"7350012":{"post_code":"7350012","prefecture":"HIROSHIMA KEN","city":"AKI GUN FUCHU CHO","town":"YAHATA","perfecture_jp":"広島県","jp_add_1":"安芸郡府中町","jp_add_2":"八幡"},"7350004":{"post_code":"7350004","prefecture":"HIROSHIMA KEN","city":"AKI GUN FUCHU CHO","town":"YAMADA","perfecture_jp":"広島県","jp_add_1":"安芸郡府中町","jp_add_2":"山田"}}