{"7400000":{"post_code":"7400000","prefecture":"YAMAGUCHI KEN","city":"KUGA GUN WAKI CHO","town":"IKANIKEISAIGANAIBAAI","perfecture_jp":"山口県","jp_add_1":"岩国市","jp_add_2":""},"7400304":{"post_code":"7400304","prefecture":"YAMAGUCHI KEN","city":"IWAKUNI SHI","town":"AINOTANI","perfecture_jp":"山口県","jp_add_1":"岩国市","jp_add_2":"相ノ谷"},"7400024":{"post_code":"7400024","prefecture":"YAMAGUCHI KEN","city":"IWAKUNI SHI","town":"ASAHIMACHI","perfecture_jp":"山口県","jp_add_1":"岩国市","jp_add_2":"旭町"},"7400037":{"post_code":"7400037","prefecture":"YAMAGUCHI KEN","city":"IWAKUNI SHI","town":"ATAGOMACHI","perfecture_jp":"山口県","jp_add_1":"岩国市","jp_add_2":"愛宕町"},"7400003":{"post_code":"7400003","prefecture":"YAMAGUCHI KEN","city":"IWAKUNI SHI","town":"IIDAMACHI","perfecture_jp":"山口県","jp_add_1":"岩国市","jp_add_2":"飯田町"},"7400324":{"post_code":"7400324","prefecture":"YAMAGUCHI KEN","city":"IWAKUNI SHI","town":"IFUSA","perfecture_jp":"山口県","jp_add_1":"岩国市","jp_add_2":"伊房"},"7400017":{"post_code":"7400017","prefecture":"YAMAGUCHI KEN","city":"IWAKUNI SHI","town":"IMAZUMACHI","perfecture_jp":"山口県","jp_add_1":"岩国市","jp_add_2":"今津町"},"7400321":{"post_code":"7400321","prefecture":"YAMAGUCHI KEN","city":"IWAKUNI SHI","town":"IRINO","perfecture_jp":"山口県","jp_add_1":"岩国市","jp_add_2":"入野"},"7400317":{"post_code":"7400317","prefecture":"YAMAGUCHI KEN","city":"IWAKUNI SHI","town":"UEDA","perfecture_jp":"山口県","jp_add_1":"岩国市","jp_add_2":"上田"},"7400042":{"post_code":"7400042","prefecture":"YAMAGUCHI KEN","city":"IWAKUNI SHI","town":"OGIMACHI","perfecture_jp":"山口県","jp_add_1":"岩国市","jp_add_2":"青木町"},"7400323":{"post_code":"7400323","prefecture":"YAMAGUCHI KEN","city":"IWAKUNI SHI","town":"OYAMA","perfecture_jp":"山口県","jp_add_1":"岩国市","jp_add_2":"大山"},"7400032":{"post_code":"7400032","prefecture":"YAMAGUCHI KEN","city":"IWAKUNI SHI","town":"OZUMACHI","perfecture_jp":"山口県","jp_add_1":"岩国市","jp_add_2":"尾津町"},"7400013":{"post_code":"7400013","prefecture":"YAMAGUCHI KEN","city":"IWAKUNI SHI","town":"KATSURAMACHI","perfecture_jp":"山口県","jp_add_1":"岩国市","jp_add_2":"桂町"},"7400015":{"post_code":"7400015","prefecture":"YAMAGUCHI KEN","city":"IWAKUNI SHI","town":"KAWAGUCHIMACHI","perfecture_jp":"山口県","jp_add_1":"岩国市","jp_add_2":"川口町"},"7400023":{"post_code":"7400023","prefecture":"YAMAGUCHI KEN","city":"IWAKUNI SHI","town":"KAWASHIMOMACHI","perfecture_jp":"山口県","jp_add_1":"岩国市","jp_add_2":"川下町"},"7400311":{"post_code":"7400311","prefecture":"YAMAGUCHI KEN","city":"IWAKUNI SHI","town":"KAWARADANI","perfecture_jp":"山口県","jp_add_1":"岩国市","jp_add_2":"瓦谷"},"7400303":{"post_code":"7400303","prefecture":"YAMAGUCHI KEN","city":"IWAKUNI SHI","town":"KUINA","perfecture_jp":"山口県","jp_add_1":"岩国市","jp_add_2":"杭名"},"7400028":{"post_code":"7400028","prefecture":"YAMAGUCHI KEN","city":"IWAKUNI SHI","town":"KUSUNOKIMACHI","perfecture_jp":"山口県","jp_add_1":"岩国市","jp_add_2":"楠町"},"7400026":{"post_code":"7400026","prefecture":"YAMAGUCHI KEN","city":"IWAKUNI SHI","town":"KURUMAMACHI","perfecture_jp":"山口県","jp_add_1":"岩国市","jp_add_2":"車町"},"7400041":{"post_code":"7400041","prefecture":"YAMAGUCHI KEN","city":"IWAKUNI SHI","town":"KUROISOMACHI","perfecture_jp":"山口県","jp_add_1":"岩国市","jp_add_2":"黒磯町"},"7400302":{"post_code":"7400302","prefecture":"YAMAGUCHI KEN","city":"IWAKUNI SHI","town":"SHIMO","perfecture_jp":"山口県","jp_add_1":"岩国市","jp_add_2":"下"},"7400312":{"post_code":"7400312","prefecture":"YAMAGUCHI KEN","city":"IWAKUNI SHI","town":"SHUCHI","perfecture_jp":"山口県","jp_add_1":"岩国市","jp_add_2":"守内"},"7400001":{"post_code":"7400001","prefecture":"YAMAGUCHI KEN","city":"IWAKUNI SHI","town":"SHOZOKUMACHI","perfecture_jp":"山口県","jp_add_1":"岩国市","jp_add_2":"装束町"},"7400004":{"post_code":"7400004","prefecture":"YAMAGUCHI KEN","city":"IWAKUNI SHI","town":"SHOWAMACHI","perfecture_jp":"山口県","jp_add_1":"岩国市","jp_add_2":"昭和町"},"7400002":{"post_code":"7400002","prefecture":"YAMAGUCHI KEN","city":"IWAKUNI SHI","town":"SHIMMINATOMACHI","perfecture_jp":"山口県","jp_add_1":"岩国市","jp_add_2":"新港町"},"7400019":{"post_code":"7400019","prefecture":"YAMAGUCHI KEN","city":"IWAKUNI SHI","town":"SUNAYAMAMACHI","perfecture_jp":"山口県","jp_add_1":"岩国市","jp_add_2":"砂山町"},"7400327":{"post_code":"7400327","prefecture":"YAMAGUCHI KEN","city":"IWAKUNI SHI","town":"SUMI","perfecture_jp":"山口県","jp_add_1":"岩国市","jp_add_2":"角"},"7400325":{"post_code":"7400325","prefecture":"YAMAGUCHI KEN","city":"IWAKUNI SHI","town":"TAKEYASU","perfecture_jp":"山口県","jp_add_1":"岩国市","jp_add_2":"竹安"},"7400011":{"post_code":"7400011","prefecture":"YAMAGUCHI KEN","city":"IWAKUNI SHI","town":"TATEISHIMACHI","perfecture_jp":"山口県","jp_add_1":"岩国市","jp_add_2":"立石町"},"7400315":{"post_code":"7400315","prefecture":"YAMAGUCHI KEN","city":"IWAKUNI SHI","town":"CHIKANOBU","perfecture_jp":"山口県","jp_add_1":"岩国市","jp_add_2":"近延"},"7400044":{"post_code":"7400044","prefecture":"YAMAGUCHI KEN","city":"IWAKUNI SHI","town":"TSUZU","perfecture_jp":"山口県","jp_add_1":"岩国市","jp_add_2":"通津"},"7400314":{"post_code":"7400314","prefecture":"YAMAGUCHI KEN","city":"IWAKUNI SHI","town":"TERAYAMA","perfecture_jp":"山口県","jp_add_1":"岩国市","jp_add_2":"寺山"},"7400306":{"post_code":"7400306","prefecture":"YAMAGUCHI KEN","city":"IWAKUNI SHI","town":"TENNO","perfecture_jp":"山口県","jp_add_1":"岩国市","jp_add_2":"天尾"},"7400027":{"post_code":"7400027","prefecture":"YAMAGUCHI KEN","city":"IWAKUNI SHI","town":"NAKAZUMACHI","perfecture_jp":"山口県","jp_add_1":"岩国市","jp_add_2":"中津町"},"7400045":{"post_code":"7400045","prefecture":"YAMAGUCHI KEN","city":"IWAKUNI SHI","town":"NAGANO","perfecture_jp":"山口県","jp_add_1":"岩国市","jp_add_2":"長野"},"7400033":{"post_code":"7400033","prefecture":"YAMAGUCHI KEN","city":"IWAKUNI SHI","town":"NADAMACHI","perfecture_jp":"山口県","jp_add_1":"岩国市","jp_add_2":"灘町"},"7400901":{"post_code":"7400901","prefecture":"YAMAGUCHI KEN","city":"IWAKUNI SHI","town":"NISHIKIMACHI USA","perfecture_jp":"山口県","jp_add_1":"岩国市","jp_add_2":"錦町宇佐"},"7400904":{"post_code":"7400904","prefecture":"YAMAGUCHI KEN","city":"IWAKUNI SHI","town":"NISHIKIMACHI USAGO (MUKATAO)","perfecture_jp":"山口県","jp_add_1":"岩国市","jp_add_2":"錦町宇佐郷"},"7400902":{"post_code":"7400902","prefecture":"YAMAGUCHI KEN","city":"IWAKUNI SHI","town":"NISHIKIMACHI USAGO(SONOTA)","perfecture_jp":"山口県","jp_add_1":"岩国市","jp_add_2":"錦町宇佐郷"},"7400721":{"post_code":"7400721","prefecture":"YAMAGUCHI KEN","city":"IWAKUNI SHI","town":"NISHIKIMACHI ONO","perfecture_jp":"山口県","jp_add_1":"岩国市","jp_add_2":"錦町大野"},"7400903":{"post_code":"7400903","prefecture":"YAMAGUCHI KEN","city":"IWAKUNI SHI","town":"NISHIKIMACHI OHARA","perfecture_jp":"山口県","jp_add_1":"岩国市","jp_add_2":"錦町大原"},"7400811":{"post_code":"7400811","prefecture":"YAMAGUCHI KEN","city":"IWAKUNI SHI","town":"NISHIKIMACHI SUGAWA","perfecture_jp":"山口県","jp_add_1":"岩国市","jp_add_2":"錦町須川"},"7400722":{"post_code":"7400722","prefecture":"YAMAGUCHI KEN","city":"IWAKUNI SHI","town":"NISHIKIMACHI NAKANOSE","perfecture_jp":"山口県","jp_add_1":"岩国市","jp_add_2":"錦町中ノ瀬"},"7400725":{"post_code":"7400725","prefecture":"YAMAGUCHI KEN","city":"IWAKUNI SHI","town":"NISHIKIMACHI NOTANI","perfecture_jp":"山口県","jp_add_1":"岩国市","jp_add_2":"錦町野谷"},"7400724":{"post_code":"7400724","prefecture":"YAMAGUCHI KEN","city":"IWAKUNI SHI","town":"NISHIKIMACHI HIROSE","perfecture_jp":"山口県","jp_add_1":"岩国市","jp_add_2":"錦町広瀬"},"7400812":{"post_code":"7400812","prefecture":"YAMAGUCHI KEN","city":"IWAKUNI SHI","town":"NISHIKIMACHI FUKAGAWA","perfecture_jp":"山口県","jp_add_1":"岩国市","jp_add_2":"錦町深川"},"7400723":{"post_code":"7400723","prefecture":"YAMAGUCHI KEN","city":"IWAKUNI SHI","town":"NISHIKIMACHI FUNOTANI","perfecture_jp":"山口県","jp_add_1":"岩国市","jp_add_2":"錦町府谷"},"7400051":{"post_code":"7400051","prefecture":"YAMAGUCHI KEN","city":"IWAKUNI SHI","town":"HASHIRAJIMA","perfecture_jp":"山口県","jp_add_1":"岩国市","jp_add_2":"柱島"},"7400322":{"post_code":"7400322","prefecture":"YAMAGUCHI KEN","city":"IWAKUNI SHI","town":"HATAKI","perfecture_jp":"山口県","jp_add_1":"岩国市","jp_add_2":"廿木"},"7400326":{"post_code":"7400326","prefecture":"YAMAGUCHI KEN","city":"IWAKUNI SHI","town":"HABU","perfecture_jp":"山口県","jp_add_1":"岩国市","jp_add_2":"土生"},"7400014":{"post_code":"7400014","prefecture":"YAMAGUCHI KEN","city":"IWAKUNI SHI","town":"HINODEMACHI","perfecture_jp":"山口県","jp_add_1":"岩国市","jp_add_2":"日の出町"},"7400036":{"post_code":"7400036","prefecture":"YAMAGUCHI KEN","city":"IWAKUNI SHI","town":"FUJUMACHI","perfecture_jp":"山口県","jp_add_1":"岩国市","jp_add_2":"藤生町"},"7400305":{"post_code":"7400305","prefecture":"YAMAGUCHI KEN","city":"IWAKUNI SHI","town":"FUTASHIKA","perfecture_jp":"山口県","jp_add_1":"岩国市","jp_add_2":"二鹿"},"7400313":{"post_code":"7400313","prefecture":"YAMAGUCHI KEN","city":"IWAKUNI SHI","town":"HOKI","perfecture_jp":"山口県","jp_add_1":"岩国市","jp_add_2":"保木"},"7400043":{"post_code":"7400043","prefecture":"YAMAGUCHI KEN","city":"IWAKUNI SHI","town":"HOZUMACHI","perfecture_jp":"山口県","jp_add_1":"岩国市","jp_add_2":"保津町"},"7400604":{"post_code":"7400604","prefecture":"YAMAGUCHI KEN","city":"IWAKUNI SHI","town":"HONGOMACHI UZUKA","perfecture_jp":"山口県","jp_add_1":"岩国市","jp_add_2":"本郷町宇塚"},"7400605":{"post_code":"7400605","prefecture":"YAMAGUCHI KEN","city":"IWAKUNI SHI","town":"HONGOMACHI NISHIKUROZAWA","perfecture_jp":"山口県","jp_add_1":"岩国市","jp_add_2":"本郷町西黒沢"},"7400603":{"post_code":"7400603","prefecture":"YAMAGUCHI KEN","city":"IWAKUNI SHI","town":"HONGOMACHI HANO","perfecture_jp":"山口県","jp_add_1":"岩国市","jp_add_2":"本郷町波野"},"7400602":{"post_code":"7400602","prefecture":"YAMAGUCHI KEN","city":"IWAKUNI SHI","town":"HONGOMACHI HONGO","perfecture_jp":"山口県","jp_add_1":"岩国市","jp_add_2":"本郷町本郷"},"7400601":{"post_code":"7400601","prefecture":"YAMAGUCHI KEN","city":"IWAKUNI SHI","town":"HONGOMACHI HONDANI","perfecture_jp":"山口県","jp_add_1":"岩国市","jp_add_2":"本郷町本谷"},"7400018":{"post_code":"7400018","prefecture":"YAMAGUCHI KEN","city":"IWAKUNI SHI","town":"MARIFUMACHI","perfecture_jp":"山口県","jp_add_1":"岩国市","jp_add_2":"麻里布町"},"7400016":{"post_code":"7400016","prefecture":"YAMAGUCHI KEN","city":"IWAKUNI SHI","town":"MIKASAMACHI","perfecture_jp":"山口県","jp_add_1":"岩国市","jp_add_2":"三笠町"},"7400501":{"post_code":"7400501","prefecture":"YAMAGUCHI KEN","city":"IWAKUNI SHI","town":"MIKAWAMACHI KOGAWA","perfecture_jp":"山口県","jp_add_1":"岩国市","jp_add_2":"美川町小川"},"7400502":{"post_code":"7400502","prefecture":"YAMAGUCHI KEN","city":"IWAKUNI SHI","town":"MIKAWAMACHI SHIMEGAMI","perfecture_jp":"山口県","jp_add_1":"岩国市","jp_add_2":"美川町四馬神"},"7400503":{"post_code":"7400503","prefecture":"YAMAGUCHI KEN","city":"IWAKUNI SHI","town":"MIKAWAMACHI SOEDANI","perfecture_jp":"山口県","jp_add_1":"岩国市","jp_add_2":"美川町添谷"},"7400504":{"post_code":"7400504","prefecture":"YAMAGUCHI KEN","city":"IWAKUNI SHI","town":"MIKAWAMACHI NAGUWA","perfecture_jp":"山口県","jp_add_1":"岩国市","jp_add_2":"美川町南桑"},"7400505":{"post_code":"7400505","prefecture":"YAMAGUCHI KEN","city":"IWAKUNI SHI","town":"MIKAWAMACHI NEKASA","perfecture_jp":"山口県","jp_add_1":"岩国市","jp_add_2":"美川町根笠"},"7400025":{"post_code":"7400025","prefecture":"YAMAGUCHI KEN","city":"IWAKUNI SHI","town":"MISUMIMACHI","perfecture_jp":"山口県","jp_add_1":"岩国市","jp_add_2":"三角町"},"7400035":{"post_code":"7400035","prefecture":"YAMAGUCHI KEN","city":"IWAKUNI SHI","town":"MIDOROMACHI","perfecture_jp":"山口県","jp_add_1":"岩国市","jp_add_2":"海土路町"},"7400034":{"post_code":"7400034","prefecture":"YAMAGUCHI KEN","city":"IWAKUNI SHI","town":"MINAMIIWAKUNIMACHI","perfecture_jp":"山口県","jp_add_1":"岩国市","jp_add_2":"南岩国町"},"7401241":{"post_code":"7401241","prefecture":"YAMAGUCHI KEN","city":"IWAKUNI SHI","town":"MIWAMACHI AKA","perfecture_jp":"山口県","jp_add_1":"岩国市","jp_add_2":"美和町阿賀"},"7401201":{"post_code":"7401201","prefecture":"YAMAGUCHI KEN","city":"IWAKUNI SHI","town":"MIWAMACHI AKIGAKE","perfecture_jp":"山口県","jp_add_1":"岩国市","jp_add_2":"美和町秋掛"},"7401231":{"post_code":"7401231","prefecture":"YAMAGUCHI KEN","city":"IWAKUNI SHI","town":"MIWAMACHI IKIMI","perfecture_jp":"山口県","jp_add_1":"岩国市","jp_add_2":"美和町生見"},"7401217":{"post_code":"7401217","prefecture":"YAMAGUCHI KEN","city":"IWAKUNI SHI","town":"MIWAMACHI ONEGAWA","perfecture_jp":"山口県","jp_add_1":"岩国市","jp_add_2":"美和町大根川"},"7401211":{"post_code":"7401211","prefecture":"YAMAGUCHI KEN","city":"IWAKUNI SHI","town":"MIWAMACHI KAMAGAHARA","perfecture_jp":"山口県","jp_add_1":"岩国市","jp_add_2":"美和町釜ケ原"},"7401221":{"post_code":"7401221","prefecture":"YAMAGUCHI KEN","city":"IWAKUNI SHI","town":"MIWAMACHI KAMIDATOKO","perfecture_jp":"山口県","jp_add_1":"岩国市","jp_add_2":"美和町上駄床"},"7401213":{"post_code":"7401213","prefecture":"YAMAGUCHI KEN","city":"IWAKUNI SHI","town":"MIWAMACHI GANNE","perfecture_jp":"山口県","jp_add_1":"岩国市","jp_add_2":"美和町岸根"},"7401202":{"post_code":"7401202","prefecture":"YAMAGUCHI KEN","city":"IWAKUNI SHI","town":"MIWAMACHI KITANAKAYAMA","perfecture_jp":"山口県","jp_add_1":"岩国市","jp_add_2":"美和町北中山"},"7401212":{"post_code":"7401212","prefecture":"YAMAGUCHI KEN","city":"IWAKUNI SHI","town":"MIWAMACHI KUROSAWA","perfecture_jp":"山口県","jp_add_1":"岩国市","jp_add_2":"美和町黒沢"},"7401224":{"post_code":"7401224","prefecture":"YAMAGUCHI KEN","city":"IWAKUNI SHI","town":"MIWAMACHI SAZAKA","perfecture_jp":"山口県","jp_add_1":"岩国市","jp_add_2":"美和町佐坂"},"7401225":{"post_code":"7401225","prefecture":"YAMAGUCHI KEN","city":"IWAKUNI SHI","town":"MIWAMACHI SHIBUKUMA","perfecture_jp":"山口県","jp_add_1":"岩国市","jp_add_2":"美和町渋前"},"7401242":{"post_code":"7401242","prefecture":"YAMAGUCHI KEN","city":"IWAKUNI SHI","town":"MIWAMACHI SHIMOBATA","perfecture_jp":"山口県","jp_add_1":"岩国市","jp_add_2":"美和町下畑"},"7401219":{"post_code":"7401219","prefecture":"YAMAGUCHI KEN","city":"IWAKUNI SHI","town":"MIWAMACHI SETONOCHI","perfecture_jp":"山口県","jp_add_1":"岩国市","jp_add_2":"美和町瀬戸ノ内"},"7401222":{"post_code":"7401222","prefecture":"YAMAGUCHI KEN","city":"IWAKUNI SHI","town":"MIWAMACHI TANOKUCHI","perfecture_jp":"山口県","jp_add_1":"岩国市","jp_add_2":"美和町田ノ口"},"7401218":{"post_code":"7401218","prefecture":"YAMAGUCHI KEN","city":"IWAKUNI SHI","town":"MIWAMACHI NAKAGAUCHI","perfecture_jp":"山口県","jp_add_1":"岩国市","jp_add_2":"美和町中垣内"},"7401215":{"post_code":"7401215","prefecture":"YAMAGUCHI KEN","city":"IWAKUNI SHI","town":"MIWAMACHI NAGATANI","perfecture_jp":"山口県","jp_add_1":"岩国市","jp_add_2":"美和町長谷"},"7401223":{"post_code":"7401223","prefecture":"YAMAGUCHI KEN","city":"IWAKUNI SHI","town":"MIWAMACHI NAMERA","perfecture_jp":"山口県","jp_add_1":"岩国市","jp_add_2":"美和町滑"},"7401232":{"post_code":"7401232","prefecture":"YAMAGUCHI KEN","city":"IWAKUNI SHI","town":"MIWAMACHI NISHIBATA","perfecture_jp":"山口県","jp_add_1":"岩国市","jp_add_2":"美和町西畑"},"7401216":{"post_code":"7401216","prefecture":"YAMAGUCHI KEN","city":"IWAKUNI SHI","town":"MIWAMACHI HINATA","perfecture_jp":"山口県","jp_add_1":"岩国市","jp_add_2":"美和町日宛"},"7401214":{"post_code":"7401214","prefecture":"YAMAGUCHI KEN","city":"IWAKUNI SHI","town":"MIWAMACHI YURITANI","perfecture_jp":"山口県","jp_add_1":"岩国市","jp_add_2":"美和町百合谷"},"7400021":{"post_code":"7400021","prefecture":"YAMAGUCHI KEN","city":"IWAKUNI SHI","town":"MURONOKIMACHI","perfecture_jp":"山口県","jp_add_1":"岩国市","jp_add_2":"室の木町"},"7400012":{"post_code":"7400012","prefecture":"YAMAGUCHI KEN","city":"IWAKUNI SHI","town":"MOTOMACHI","perfecture_jp":"山口県","jp_add_1":"岩国市","jp_add_2":"元町"},"7400031":{"post_code":"7400031","prefecture":"YAMAGUCHI KEN","city":"IWAKUNI SHI","town":"MONZEMMACHI","perfecture_jp":"山口県","jp_add_1":"岩国市","jp_add_2":"門前町"},"7400022":{"post_code":"7400022","prefecture":"YAMAGUCHI KEN","city":"IWAKUNI SHI","town":"YAMATEMACHI","perfecture_jp":"山口県","jp_add_1":"岩国市","jp_add_2":"山手町"},"7401455":{"post_code":"7401455","prefecture":"YAMAGUCHI KEN","city":"IWAKUNI SHI","town":"YUMACHI KITA","perfecture_jp":"山口県","jp_add_1":"岩国市","jp_add_2":"由宇町北"},"7401432":{"post_code":"7401432","prefecture":"YAMAGUCHI KEN","city":"IWAKUNI SHI","town":"YUMACHI SHINTO","perfecture_jp":"山口県","jp_add_1":"岩国市","jp_add_2":"由宇町神東"},"7401441":{"post_code":"7401441","prefecture":"YAMAGUCHI KEN","city":"IWAKUNI SHI","town":"YUMACHI CHIDORIGAOKA","perfecture_jp":"山口県","jp_add_1":"岩国市","jp_add_2":"由宇町千鳥ケ丘"},"7401428":{"post_code":"7401428","prefecture":"YAMAGUCHI KEN","city":"IWAKUNI SHI","town":"YUMACHI CHUO","perfecture_jp":"山口県","jp_add_1":"岩国市","jp_add_2":"由宇町中央"},"7401454":{"post_code":"7401454","prefecture":"YAMAGUCHI KEN","city":"IWAKUNI SHI","town":"YUMACHI NISHI","perfecture_jp":"山口県","jp_add_1":"岩国市","jp_add_2":"由宇町西"},"7401424":{"post_code":"7401424","prefecture":"YAMAGUCHI KEN","city":"IWAKUNI SHI","town":"YUMACHI MINATO","perfecture_jp":"山口県","jp_add_1":"岩国市","jp_add_2":"由宇町港"},"7401451":{"post_code":"7401451","prefecture":"YAMAGUCHI KEN","city":"IWAKUNI SHI","town":"YUMACHI MINAMI","perfecture_jp":"山口県","jp_add_1":"岩国市","jp_add_2":"由宇町南"},"7401425":{"post_code":"7401425","prefecture":"YAMAGUCHI KEN","city":"IWAKUNI SHI","town":"YUMACHI MINAMIOKI","perfecture_jp":"山口県","jp_add_1":"岩国市","jp_add_2":"由宇町南沖"},"7401426":{"post_code":"7401426","prefecture":"YAMAGUCHI KEN","city":"IWAKUNI SHI","town":"YUMACHI YUSAKI","perfecture_jp":"山口県","jp_add_1":"岩国市","jp_add_2":"由宇町由宇崎"},"7401431":{"post_code":"7401431","prefecture":"YAMAGUCHI KEN","city":"IWAKUNI SHI","town":"YUMACHI(ARAKE)","perfecture_jp":"山口県","jp_add_1":"岩国市","jp_add_2":"由宇町"},"7401405":{"post_code":"7401405","prefecture":"YAMAGUCHI KEN","city":"IWAKUNI SHI","town":"YUMACHI(KASAZUKA)","perfecture_jp":"山口県","jp_add_1":"岩国市","jp_add_2":"由宇町"},"7401413":{"post_code":"7401413","prefecture":"YAMAGUCHI KEN","city":"IWAKUNI SHI","town":"YUMACHI(KAMIKITA)","perfecture_jp":"山口県","jp_add_1":"岩国市","jp_add_2":"由宇町"},"7401406":{"post_code":"7401406","prefecture":"YAMAGUCHI KEN","city":"IWAKUNI SHI","town":"YUMACHI(GOSEI)","perfecture_jp":"山口県","jp_add_1":"岩国市","jp_add_2":"由宇町"},"7401411":{"post_code":"7401411","prefecture":"YAMAGUCHI KEN","city":"IWAKUNI SHI","town":"YUMACHI(SHIMIZU)","perfecture_jp":"山口県","jp_add_1":"岩国市","jp_add_2":"由宇町"},"7401402":{"post_code":"7401402","prefecture":"YAMAGUCHI KEN","city":"IWAKUNI SHI","town":"YUMACHI(SHOSHIN)","perfecture_jp":"山口県","jp_add_1":"岩国市","jp_add_2":"由宇町"},"7401452":{"post_code":"7401452","prefecture":"YAMAGUCHI KEN","city":"IWAKUNI SHI","town":"YUMACHI(SEINAN)","perfecture_jp":"山口県","jp_add_1":"岩国市","jp_add_2":"由宇町"},"7401401":{"post_code":"7401401","prefecture":"YAMAGUCHI KEN","city":"IWAKUNI SHI","town":"YUMACHI(TERAZAKO)","perfecture_jp":"山口県","jp_add_1":"岩国市","jp_add_2":"由宇町"},"7401403":{"post_code":"7401403","prefecture":"YAMAGUCHI KEN","city":"IWAKUNI SHI","town":"YUMACHI(NAKAKURA)","perfecture_jp":"山口県","jp_add_1":"岩国市","jp_add_2":"由宇町"},"7401412":{"post_code":"7401412","prefecture":"YAMAGUCHI KEN","city":"IWAKUNI SHI","town":"YUMACHI(NAKAMURA)","perfecture_jp":"山口県","jp_add_1":"岩国市","jp_add_2":"由宇町"},"7401404":{"post_code":"7401404","prefecture":"YAMAGUCHI KEN","city":"IWAKUNI SHI","town":"YUMACHI(NISHIKU)","perfecture_jp":"山口県","jp_add_1":"岩国市","jp_add_2":"由宇町"},"7401407":{"post_code":"7401407","prefecture":"YAMAGUCHI KEN","city":"IWAKUNI SHI","town":"YUMACHI(YOKOMICHI)","perfecture_jp":"山口県","jp_add_1":"岩国市","jp_add_2":"由宇町"},"7401488":{"post_code":"7401488","prefecture":"YAMAGUCHI KEN","city":"IWAKUNI SHI","town":"YUMACHI(SONOTA)","perfecture_jp":"山口県","jp_add_1":"岩国市","jp_add_2":"由宇町"},"7400301":{"post_code":"7400301","prefecture":"YAMAGUCHI KEN","city":"IWAKUNI SHI","town":"YUKABA","perfecture_jp":"山口県","jp_add_1":"岩国市","jp_add_2":"行波"},"7400316":{"post_code":"7400316","prefecture":"YAMAGUCHI KEN","city":"IWAKUNI SHI","town":"YUKIMASA","perfecture_jp":"山口県","jp_add_1":"岩国市","jp_add_2":"行正"},"7400063":{"post_code":"7400063","prefecture":"YAMAGUCHI KEN","city":"KUGA GUN WAKI CHO","town":"SEKIGAHAMA","perfecture_jp":"山口県","jp_add_1":"玖珂郡和木町","jp_add_2":"関ケ浜"},"7400062":{"post_code":"7400062","prefecture":"YAMAGUCHI KEN","city":"KUGA GUN WAKI CHO","town":"SETA","perfecture_jp":"山口県","jp_add_1":"玖珂郡和木町","jp_add_2":"瀬田"},"7400061":{"post_code":"7400061","prefecture":"YAMAGUCHI KEN","city":"KUGA GUN WAKI CHO","town":"WAKI","perfecture_jp":"山口県","jp_add_1":"玖珂郡和木町","jp_add_2":"和木"}}