{"7420332":{"post_code":"7420332","prefecture":"YAMAGUCHI KEN","city":"IWAKUNI SHI","town":"KUGAMACHI (AYAMA)","perfecture_jp":"山口県","jp_add_1":"岩国市","jp_add_2":"玖珂町"},"7420338":{"post_code":"7420338","prefecture":"YAMAGUCHI KEN","city":"IWAKUNI SHI","town":"KUGAMACHI (ARINOBU)","perfecture_jp":"山口県","jp_add_1":"岩国市","jp_add_2":"玖珂町"},"7420321":{"post_code":"7420321","prefecture":"YAMAGUCHI KEN","city":"IWAKUNI SHI","town":"KUGAMACHI (ICHIGASHIRA)","perfecture_jp":"山口県","jp_add_1":"岩国市","jp_add_2":"玖珂町"},"7420334":{"post_code":"7420334","prefecture":"YAMAGUCHI KEN","city":"IWAKUNI SHI","town":"KUGAMACHI (USUDA)","perfecture_jp":"山口県","jp_add_1":"岩国市","jp_add_2":"玖珂町"},"7420322":{"post_code":"7420322","prefecture":"YAMAGUCHI KEN","city":"IWAKUNI SHI","town":"KUGAMACHI (UWAICHI)","perfecture_jp":"山口県","jp_add_1":"岩国市","jp_add_2":"玖珂町"},"7420324":{"post_code":"7420324","prefecture":"YAMAGUCHI KEN","city":"IWAKUNI SHI","town":"KUGAMACHI (EKIDORI)","perfecture_jp":"山口県","jp_add_1":"岩国市","jp_add_2":"玖珂町"},"7420342":{"post_code":"7420342","prefecture":"YAMAGUCHI KEN","city":"IWAKUNI SHI","town":"KUGAMACHI (OTA)","perfecture_jp":"山口県","jp_add_1":"岩国市","jp_add_2":"玖珂町"},"7420312":{"post_code":"7420312","prefecture":"YAMAGUCHI KEN","city":"IWAKUNI SHI","town":"KUGAMACHI (KAMIDANI)","perfecture_jp":"山口県","jp_add_1":"岩国市","jp_add_2":"玖珂町"},"7420311":{"post_code":"7420311","prefecture":"YAMAGUCHI KEN","city":"IWAKUNI SHI","town":"KUGAMACHI (KIMMEIJI)","perfecture_jp":"山口県","jp_add_1":"岩国市","jp_add_2":"玖珂町"},"7420337":{"post_code":"7420337","prefecture":"YAMAGUCHI KEN","city":"IWAKUNI SHI","town":"KUGAMACHI (KUMONKYU)","perfecture_jp":"山口県","jp_add_1":"岩国市","jp_add_2":"玖珂町"},"7420331":{"post_code":"7420331","prefecture":"YAMAGUCHI KEN","city":"IWAKUNI SHI","town":"KUGAMACHI (KURAKAKE)","perfecture_jp":"山口県","jp_add_1":"岩国市","jp_add_2":"玖珂町"},"7420313":{"post_code":"7420313","prefecture":"YAMAGUCHI KEN","city":"IWAKUNI SHI","town":"KUGAMACHI (SHIMODANI)","perfecture_jp":"山口県","jp_add_1":"岩国市","jp_add_2":"玖珂町"},"7420336":{"post_code":"7420336","prefecture":"YAMAGUCHI KEN","city":"IWAKUNI SHI","town":"KUGAMACHI (SHINICHI)","perfecture_jp":"山口県","jp_add_1":"岩国市","jp_add_2":"玖珂町"},"7420335":{"post_code":"7420335","prefecture":"YAMAGUCHI KEN","city":"IWAKUNI SHI","town":"KUGAMACHI (SHIMMACHI)","perfecture_jp":"山口県","jp_add_1":"岩国市","jp_add_2":"玖珂町"},"7420315":{"post_code":"7420315","prefecture":"YAMAGUCHI KEN","city":"IWAKUNI SHI","town":"KUGAMACHI (SEDA)","perfecture_jp":"山口県","jp_add_1":"岩国市","jp_add_2":"玖珂町"},"7420333":{"post_code":"7420333","prefecture":"YAMAGUCHI KEN","city":"IWAKUNI SHI","town":"KUGAMACHI (SENZOKU)","perfecture_jp":"山口県","jp_add_1":"岩国市","jp_add_2":"玖珂町"},"7420326":{"post_code":"7420326","prefecture":"YAMAGUCHI KEN","city":"IWAKUNI SHI","town":"KUGAMACHI (DODO)","perfecture_jp":"山口県","jp_add_1":"岩国市","jp_add_2":"玖珂町"},"7420314":{"post_code":"7420314","prefecture":"YAMAGUCHI KEN","city":"IWAKUNI SHI","town":"KUGAMACHI (NOGUCHI)","perfecture_jp":"山口県","jp_add_1":"岩国市","jp_add_2":"玖珂町"},"7420343":{"post_code":"7420343","prefecture":"YAMAGUCHI KEN","city":"IWAKUNI SHI","town":"KUGAMACHI (NOJI)","perfecture_jp":"山口県","jp_add_1":"岩国市","jp_add_2":"玖珂町"},"7420344":{"post_code":"7420344","prefecture":"YAMAGUCHI KEN","city":"IWAKUNI SHI","town":"KUGAMACHI (BANCHINOMI)","perfecture_jp":"山口県","jp_add_1":"岩国市","jp_add_2":"玖珂町"},"7420325":{"post_code":"7420325","prefecture":"YAMAGUCHI KEN","city":"IWAKUNI SHI","town":"KUGAMACHI (HOMMACHI)","perfecture_jp":"山口県","jp_add_1":"岩国市","jp_add_2":"玖珂町"},"7420323":{"post_code":"7420323","prefecture":"YAMAGUCHI KEN","city":"IWAKUNI SHI","town":"KUGAMACHI (YATSU)","perfecture_jp":"山口県","jp_add_1":"岩国市","jp_add_2":"玖珂町"},"7420341":{"post_code":"7420341","prefecture":"YAMAGUCHI KEN","city":"IWAKUNI SHI","town":"KUGAMACHI (YANAIDA)","perfecture_jp":"山口県","jp_add_1":"岩国市","jp_add_2":"玖珂町"},"7420411":{"post_code":"7420411","prefecture":"YAMAGUCHI KEN","city":"IWAKUNI SHI","town":"SHUTOMACHI AKEMIDANI","perfecture_jp":"山口県","jp_add_1":"岩国市","jp_add_2":"周東町明見谷"},"7420422":{"post_code":"7420422","prefecture":"YAMAGUCHI KEN","city":"IWAKUNI SHI","town":"SHUTOMACHI OSOGOE","perfecture_jp":"山口県","jp_add_1":"岩国市","jp_add_2":"周東町獺越"},"7420413":{"post_code":"7420413","prefecture":"YAMAGUCHI KEN","city":"IWAKUNI SHI","town":"SHUTOMACHI KAMIKUBARA","perfecture_jp":"山口県","jp_add_1":"岩国市","jp_add_2":"周東町上久原"},"7420426":{"post_code":"7420426","prefecture":"YAMAGUCHI KEN","city":"IWAKUNI SHI","town":"SHUTOMACHI KAMISUDORI","perfecture_jp":"山口県","jp_add_1":"岩国市","jp_add_2":"周東町上須通"},"7420412":{"post_code":"7420412","prefecture":"YAMAGUCHI KEN","city":"IWAKUNI SHI","town":"SHUTOMACHI KAWAKAMI","perfecture_jp":"山口県","jp_add_1":"岩国市","jp_add_2":"周東町川上"},"7420424":{"post_code":"7420424","prefecture":"YAMAGUCHI KEN","city":"IWAKUNI SHI","town":"SHUTOMACHI SASUGAWA","perfecture_jp":"山口県","jp_add_1":"岩国市","jp_add_2":"周東町差川"},"7420421":{"post_code":"7420421","prefecture":"YAMAGUCHI KEN","city":"IWAKUNI SHI","town":"SHUTOMACHI SANZEGAWA","perfecture_jp":"山口県","jp_add_1":"岩国市","jp_add_2":"周東町三瀬川"},"7420417":{"post_code":"7420417","prefecture":"YAMAGUCHI KEN","city":"IWAKUNI SHI","town":"SHUTOMACHI SHIMOKUBARA","perfecture_jp":"山口県","jp_add_1":"岩国市","jp_add_2":"周東町下久原"},"7420423":{"post_code":"7420423","prefecture":"YAMAGUCHI KEN","city":"IWAKUNI SHI","town":"SHUTOMACHI SHIMOSUDORI","perfecture_jp":"山口県","jp_add_1":"岩国市","jp_add_2":"周東町下須通"},"7420301":{"post_code":"7420301","prefecture":"YAMAGUCHI KEN","city":"IWAKUNI SHI","town":"SHUTOMACHI SO","perfecture_jp":"山口県","jp_add_1":"岩国市","jp_add_2":"周東町祖生"},"7420414":{"post_code":"7420414","prefecture":"YAMAGUCHI KEN","city":"IWAKUNI SHI","town":"SHUTOMACHI TAJIRI","perfecture_jp":"山口県","jp_add_1":"岩国市","jp_add_2":"周東町田尻"},"7420415":{"post_code":"7420415","prefecture":"YAMAGUCHI KEN","city":"IWAKUNI SHI","town":"SHUTOMACHI NAKAYAMA","perfecture_jp":"山口県","jp_add_1":"岩国市","jp_add_2":"周東町中山"},"7420425":{"post_code":"7420425","prefecture":"YAMAGUCHI KEN","city":"IWAKUNI SHI","town":"SHUTOMACHI NISHINAGANO","perfecture_jp":"山口県","jp_add_1":"岩国市","jp_add_2":"周東町西長野"},"7420427":{"post_code":"7420427","prefecture":"YAMAGUCHI KEN","city":"IWAKUNI SHI","town":"SHUTOMACHI HIYOJI","perfecture_jp":"山口県","jp_add_1":"岩国市","jp_add_2":"周東町樋余地"},"7420416":{"post_code":"7420416","prefecture":"YAMAGUCHI KEN","city":"IWAKUNI SHI","town":"SHUTOMACHI YODA","perfecture_jp":"山口県","jp_add_1":"岩国市","jp_add_2":"周東町用田"},"7420000":{"post_code":"7420000","prefecture":"YAMAGUCHI KEN","city":"YANAI SHI","town":"IKANIKEISAIGANAIBAAI","perfecture_jp":"山口県","jp_add_1":"柳井市","jp_add_2":""},"7421351":{"post_code":"7421351","prefecture":"YAMAGUCHI KEN","city":"YANAI SHI","town":"ASAHIGAOKA","perfecture_jp":"山口県","jp_add_1":"柳井市","jp_add_2":"旭ケ丘"},"7421353":{"post_code":"7421353","prefecture":"YAMAGUCHI KEN","city":"YANAI SHI","town":"ATSUKI","perfecture_jp":"山口県","jp_add_1":"柳井市","jp_add_2":"阿月"},"7420201":{"post_code":"7420201","prefecture":"YAMAGUCHI KEN","city":"YANAI SHI","town":"IKACHI","perfecture_jp":"山口県","jp_add_1":"柳井市","jp_add_2":"伊陸"},"7421352":{"post_code":"7421352","prefecture":"YAMAGUCHI KEN","city":"YANAI SHI","town":"IHONOSHO","perfecture_jp":"山口県","jp_add_1":"柳井市","jp_add_2":"伊保庄"},"7420036":{"post_code":"7420036","prefecture":"YAMAGUCHI KEN","city":"YANAI SHI","town":"EKINAN","perfecture_jp":"山口県","jp_add_1":"柳井市","jp_add_2":"駅南"},"7420003":{"post_code":"7420003","prefecture":"YAMAGUCHI KEN","city":"YANAI SHI","town":"KATANO NISHI","perfecture_jp":"山口県","jp_add_1":"柳井市","jp_add_2":"片野西"},"7420012":{"post_code":"7420012","prefecture":"YAMAGUCHI KEN","city":"YANAI SHI","town":"KITAHAMA","perfecture_jp":"山口県","jp_add_1":"柳井市","jp_add_2":"北浜"},"7420032":{"post_code":"7420032","prefecture":"YAMAGUCHI KEN","city":"YANAI SHI","town":"KOGAISAKU","perfecture_jp":"山口県","jp_add_1":"柳井市","jp_add_2":"古開作"},"7420009":{"post_code":"7420009","prefecture":"YAMAGUCHI KEN","city":"YANAI SHI","town":"SHINICHI","perfecture_jp":"山口県","jp_add_1":"柳井市","jp_add_2":"新市"},"7420011":{"post_code":"7420011","prefecture":"YAMAGUCHI KEN","city":"YANAI SHI","town":"SHINICHI OKI","perfecture_jp":"山口県","jp_add_1":"柳井市","jp_add_2":"新市沖"},"7420008":{"post_code":"7420008","prefecture":"YAMAGUCHI KEN","city":"YANAI SHI","town":"SHINICHI KITA","perfecture_jp":"山口県","jp_add_1":"柳井市","jp_add_2":"新市北"},"7420010":{"post_code":"7420010","prefecture":"YAMAGUCHI KEN","city":"YANAI SHI","town":"SHINICHI MINAMI","perfecture_jp":"山口県","jp_add_1":"柳井市","jp_add_2":"新市南"},"7420033":{"post_code":"7420033","prefecture":"YAMAGUCHI KEN","city":"YANAI SHI","town":"SHINJO","perfecture_jp":"山口県","jp_add_1":"柳井市","jp_add_2":"新庄"},"7420006":{"post_code":"7420006","prefecture":"YAMAGUCHI KEN","city":"YANAI SHI","town":"SHINTENCHI","perfecture_jp":"山口県","jp_add_1":"柳井市","jp_add_2":"新天地"},"7420035":{"post_code":"7420035","prefecture":"YAMAGUCHI KEN","city":"YANAI SHI","town":"CHUO","perfecture_jp":"山口県","jp_add_1":"柳井市","jp_add_2":"中央"},"7420005":{"post_code":"7420005","prefecture":"YAMAGUCHI KEN","city":"YANAI SHI","town":"TENJIN","perfecture_jp":"山口県","jp_add_1":"柳井市","jp_add_2":"天神"},"7420004":{"post_code":"7420004","prefecture":"YAMAGUCHI KEN","city":"YANAI SHI","town":"DOTEMACHI","perfecture_jp":"山口県","jp_add_1":"柳井市","jp_add_2":"土手町"},"7420024":{"post_code":"7420024","prefecture":"YAMAGUCHI KEN","city":"YANAI SHI","town":"NYUTAUMMINAMIMACHI","perfecture_jp":"山口県","jp_add_1":"柳井市","jp_add_2":"ニュータウン南町"},"7420007":{"post_code":"7420007","prefecture":"YAMAGUCHI KEN","city":"YANAI SHI","town":"HIGASHIDOTE","perfecture_jp":"山口県","jp_add_1":"柳井市","jp_add_2":"東土手"},"7420111":{"post_code":"7420111","prefecture":"YAMAGUCHI KEN","city":"YANAI SHI","town":"HIZUMI","perfecture_jp":"山口県","jp_add_1":"柳井市","jp_add_2":"日積"},"7420001":{"post_code":"7420001","prefecture":"YAMAGUCHI KEN","city":"YANAI SHI","town":"HIMEDA","perfecture_jp":"山口県","jp_add_1":"柳井市","jp_add_2":"姫田"},"7420041":{"post_code":"7420041","prefecture":"YAMAGUCHI KEN","city":"YANAI SHI","town":"HEIGUN","perfecture_jp":"山口県","jp_add_1":"柳井市","jp_add_2":"平郡"},"7420023":{"post_code":"7420023","prefecture":"YAMAGUCHI KEN","city":"YANAI SHI","town":"MINAMIHAMA","perfecture_jp":"山口県","jp_add_1":"柳井市","jp_add_2":"南浜"},"7420031":{"post_code":"7420031","prefecture":"YAMAGUCHI KEN","city":"YANAI SHI","town":"MINAMIMACHI","perfecture_jp":"山口県","jp_add_1":"柳井市","jp_add_2":"南町"},"7420021":{"post_code":"7420021","prefecture":"YAMAGUCHI KEN","city":"YANAI SHI","town":"YANAI","perfecture_jp":"山口県","jp_add_1":"柳井市","jp_add_2":"柳井"},"7420022":{"post_code":"7420022","prefecture":"YAMAGUCHI KEN","city":"YANAI SHI","town":"YANAITSU","perfecture_jp":"山口県","jp_add_1":"柳井市","jp_add_2":"柳井津"},"7420002":{"post_code":"7420002","prefecture":"YAMAGUCHI KEN","city":"YANAI SHI","town":"YAMANE","perfecture_jp":"山口県","jp_add_1":"柳井市","jp_add_2":"山根"},"7420034":{"post_code":"7420034","prefecture":"YAMAGUCHI KEN","city":"YANAI SHI","town":"YOTA","perfecture_jp":"山口県","jp_add_1":"柳井市","jp_add_2":"余田"},"7422100":{"post_code":"7422100","prefecture":"YAMAGUCHI KEN","city":"OSHIMA GUN SUOOSHIMA CHO","town":"IKANIKEISAIGANAIBAAI","perfecture_jp":"山口県","jp_add_1":"大島郡周防大島町","jp_add_2":""},"7422807":{"post_code":"7422807","prefecture":"YAMAGUCHI KEN","city":"OSHIMA GUN SUOOSHIMA CHO","town":"AKI","perfecture_jp":"山口県","jp_add_1":"大島郡周防大島町","jp_add_2":"秋"},"7422712":{"post_code":"7422712","prefecture":"YAMAGUCHI KEN","city":"OSHIMA GUN SUOOSHIMA CHO","town":"IZUI","perfecture_jp":"山口県","jp_add_1":"大島郡周防大島町","jp_add_2":"出井"},"7422601":{"post_code":"7422601","prefecture":"YAMAGUCHI KEN","city":"OSHIMA GUN SUOOSHIMA CHO","town":"IHOTA(RYOGENDA)","perfecture_jp":"山口県","jp_add_1":"大島郡周防大島町","jp_add_2":"伊保田"},"7422801":{"post_code":"7422801","prefecture":"YAMAGUCHI KEN","city":"OSHIMA GUN SUOOSHIMA CHO","town":"UKASHIMA","perfecture_jp":"山口県","jp_add_1":"大島郡周防大島町","jp_add_2":"浮島"},"7422515":{"post_code":"7422515","prefecture":"YAMAGUCHI KEN","city":"OSHIMA GUN SUOOSHIMA CHO","town":"UCHINONYU","perfecture_jp":"山口県","jp_add_1":"大島郡周防大島町","jp_add_2":"内入"},"7422922":{"post_code":"7422922","prefecture":"YAMAGUCHI KEN","city":"OSHIMA GUN SUOOSHIMA CHO","town":"OKIKAMUROJIMA","perfecture_jp":"山口県","jp_add_1":"大島郡周防大島町","jp_add_2":"沖家室島"},"7422108":{"post_code":"7422108","prefecture":"YAMAGUCHI KEN","city":"OSHIMA GUN SUOOSHIMA CHO","town":"KASASAJIMA","perfecture_jp":"山口県","jp_add_1":"大島郡周防大島町","jp_add_2":"笠佐島"},"7422511":{"post_code":"7422511","prefecture":"YAMAGUCHI KEN","city":"OSHIMA GUN SUOOSHIMA CHO","town":"KATAZOE","perfecture_jp":"山口県","jp_add_1":"大島郡周防大島町","jp_add_2":"片添"},"7422711":{"post_code":"7422711","prefecture":"YAMAGUCHI KEN","city":"OSHIMA GUN SUOOSHIMA CHO","town":"KABO","perfecture_jp":"山口県","jp_add_1":"大島郡周防大島町","jp_add_2":"家房"},"7422301":{"post_code":"7422301","prefecture":"YAMAGUCHI KEN","city":"OSHIMA GUN SUOOSHIMA CHO","town":"KUKA","perfecture_jp":"山口県","jp_add_1":"大島郡周防大島町","jp_add_2":"久賀"},"7422514":{"post_code":"7422514","prefecture":"YAMAGUCHI KEN","city":"OSHIMA GUN SUOOSHIMA CHO","town":"KONORA","perfecture_jp":"山口県","jp_add_1":"大島郡周防大島町","jp_add_2":"神浦"},"7422517":{"post_code":"7422517","prefecture":"YAMAGUCHI KEN","city":"OSHIMA GUN SUOOSHIMA CHO","town":"KODOMARI","perfecture_jp":"山口県","jp_add_1":"大島郡周防大島町","jp_add_2":"小泊"},"7422106":{"post_code":"7422106","prefecture":"YAMAGUCHI KEN","city":"OSHIMA GUN SUOOSHIMA CHO","town":"KOMATSU","perfecture_jp":"山口県","jp_add_1":"大島郡周防大島町","jp_add_2":"小松"},"7422105":{"post_code":"7422105","prefecture":"YAMAGUCHI KEN","city":"OSHIMA GUN SUOOSHIMA CHO","town":"KOMATSUKAISAKU","perfecture_jp":"山口県","jp_add_1":"大島郡周防大島町","jp_add_2":"小松開作"},"7422923":{"post_code":"7422923","prefecture":"YAMAGUCHI KEN","city":"OSHIMA GUN SUOOSHIMA CHO","town":"JIKAMURO(SARE)","perfecture_jp":"山口県","jp_add_1":"大島郡周防大島町","jp_add_2":"地家室"},"7422104":{"post_code":"7422104","prefecture":"YAMAGUCHI KEN","city":"OSHIMA GUN SUOOSHIMA CHO","town":"SHISA","perfecture_jp":"山口県","jp_add_1":"大島郡周防大島町","jp_add_2":"志佐"},"7422713":{"post_code":"7422713","prefecture":"YAMAGUCHI KEN","city":"OSHIMA GUN SUOOSHIMA CHO","town":"TSUNOGI","perfecture_jp":"山口県","jp_add_1":"大島郡周防大島町","jp_add_2":"津海木"},"7422803":{"post_code":"7422803","prefecture":"YAMAGUCHI KEN","city":"OSHIMA GUN SUOOSHIMA CHO","town":"DOI","perfecture_jp":"山口県","jp_add_1":"大島郡周防大島町","jp_add_2":"土居"},"7422924":{"post_code":"7422924","prefecture":"YAMAGUCHI KEN","city":"OSHIMA GUN SUOOSHIMA CHO","town":"TONONYU(IZAKI)","perfecture_jp":"山口県","jp_add_1":"大島郡周防大島町","jp_add_2":"外入"},"7422806":{"post_code":"7422806","prefecture":"YAMAGUCHI KEN","city":"OSHIMA GUN SUOOSHIMA CHO","town":"NISHIAGENOSHO","perfecture_jp":"山口県","jp_add_1":"大島郡周防大島町","jp_add_2":"西安下庄"},"7422921":{"post_code":"7422921","prefecture":"YAMAGUCHI KEN","city":"OSHIMA GUN SUOOSHIMA CHO","town":"NISHIGATA(FUNAKOSHI)","perfecture_jp":"山口県","jp_add_1":"大島郡周防大島町","jp_add_2":"西方"},"7422101":{"post_code":"7422101","prefecture":"YAMAGUCHI KEN","city":"OSHIMA GUN SUOOSHIMA CHO","town":"NISHIMIGAMA","perfecture_jp":"山口県","jp_add_1":"大島郡周防大島町","jp_add_2":"西三蒲"},"7422103":{"post_code":"7422103","prefecture":"YAMAGUCHI KEN","city":"OSHIMA GUN SUOOSHIMA CHO","town":"NISHIYASHIRO","perfecture_jp":"山口県","jp_add_1":"大島郡周防大島町","jp_add_2":"西屋代"},"7422805":{"post_code":"7422805","prefecture":"YAMAGUCHI KEN","city":"OSHIMA GUN SUOOSHIMA CHO","town":"HIGASHIAGENOSHO","perfecture_jp":"山口県","jp_add_1":"大島郡周防大島町","jp_add_2":"東安下庄"},"7422102":{"post_code":"7422102","prefecture":"YAMAGUCHI KEN","city":"OSHIMA GUN SUOOSHIMA CHO","town":"HIGASHIMIGAMA","perfecture_jp":"山口県","jp_add_1":"大島郡周防大島町","jp_add_2":"東三蒲"},"7422107":{"post_code":"7422107","prefecture":"YAMAGUCHI KEN","city":"OSHIMA GUN SUOOSHIMA CHO","town":"HIGASHIYASHIRO","perfecture_jp":"山口県","jp_add_1":"大島郡周防大島町","jp_add_2":"東屋代"},"7422804":{"post_code":"7422804","prefecture":"YAMAGUCHI KEN","city":"OSHIMA GUN SUOOSHIMA CHO","town":"HIKUMA","perfecture_jp":"山口県","jp_add_1":"大島郡周防大島町","jp_add_2":"日前"},"7422716":{"post_code":"7422716","prefecture":"YAMAGUCHI KEN","city":"OSHIMA GUN SUOOSHIMA CHO","town":"HIMI","perfecture_jp":"山口県","jp_add_1":"大島郡周防大島町","jp_add_2":"日見"},"7422512":{"post_code":"7422512","prefecture":"YAMAGUCHI KEN","city":"OSHIMA GUN SUOOSHIMA CHO","town":"HIRANO","perfecture_jp":"山口県","jp_add_1":"大島郡周防大島町","jp_add_2":"平野"},"7422714":{"post_code":"7422714","prefecture":"YAMAGUCHI KEN","city":"OSHIMA GUN SUOOSHIMA CHO","town":"HETA","perfecture_jp":"山口県","jp_add_1":"大島郡周防大島町","jp_add_2":"戸田"},"7422302":{"post_code":"7422302","prefecture":"YAMAGUCHI KEN","city":"OSHIMA GUN SUOOSHIMA CHO","town":"MUKUNO","perfecture_jp":"山口県","jp_add_1":"大島郡周防大島町","jp_add_2":"椋野"},"7422513":{"post_code":"7422513","prefecture":"YAMAGUCHI KEN","city":"OSHIMA GUN SUOOSHIMA CHO","town":"MORI","perfecture_jp":"山口県","jp_add_1":"大島郡周防大島町","jp_add_2":"森"},"7422602":{"post_code":"7422602","prefecture":"YAMAGUCHI KEN","city":"OSHIMA GUN SUOOSHIMA CHO","town":"YU(HYUGADOMARI)","perfecture_jp":"山口県","jp_add_1":"大島郡周防大島町","jp_add_2":"油宇"},"7422802":{"post_code":"7422802","prefecture":"YAMAGUCHI KEN","city":"OSHIMA GUN SUOOSHIMA CHO","town":"YURA","perfecture_jp":"山口県","jp_add_1":"大島郡周防大島町","jp_add_2":"油良"},"7422715":{"post_code":"7422715","prefecture":"YAMAGUCHI KEN","city":"OSHIMA GUN SUOOSHIMA CHO","town":"YOKOMI","perfecture_jp":"山口県","jp_add_1":"大島郡周防大島町","jp_add_2":"横見"},"7422518":{"post_code":"7422518","prefecture":"YAMAGUCHI KEN","city":"OSHIMA GUN SUOOSHIMA CHO","town":"WASA","perfecture_jp":"山口県","jp_add_1":"大島郡周防大島町","jp_add_2":"和佐"},"7422516":{"post_code":"7422516","prefecture":"YAMAGUCHI KEN","city":"OSHIMA GUN SUOOSHIMA CHO","town":"WADA","perfecture_jp":"山口県","jp_add_1":"大島郡周防大島町","jp_add_2":"和田"},"7421400":{"post_code":"7421400","prefecture":"YAMAGUCHI KEN","city":"KUMAGE GUN KAMINOSEKI CHO","town":"IKANIKEISAIGANAIBAAI","perfecture_jp":"山口県","jp_add_1":"熊毛郡上関町","jp_add_2":""},"7421401":{"post_code":"7421401","prefecture":"YAMAGUCHI KEN","city":"KUMAGE GUN KAMINOSEKI CHO","town":"IWAISHIMA","perfecture_jp":"山口県","jp_add_1":"熊毛郡上関町","jp_add_2":"祝島"},"7421402":{"post_code":"7421402","prefecture":"YAMAGUCHI KEN","city":"KUMAGE GUN KAMINOSEKI CHO","town":"NAGASHIMA","perfecture_jp":"山口県","jp_add_1":"熊毛郡上関町","jp_add_2":"長島"},"7421403":{"post_code":"7421403","prefecture":"YAMAGUCHI KEN","city":"KUMAGE GUN KAMINOSEKI CHO","town":"MUROTSU","perfecture_jp":"山口県","jp_add_1":"熊毛郡上関町","jp_add_2":"室津"},"7421404":{"post_code":"7421404","prefecture":"YAMAGUCHI KEN","city":"KUMAGE GUN KAMINOSEKI CHO","town":"YASHIMA","perfecture_jp":"山口県","jp_add_1":"熊毛郡上関町","jp_add_2":"八島"},"7421500":{"post_code":"7421500","prefecture":"YAMAGUCHI KEN","city":"KUMAGE GUN TABUSE CHO","town":"IKANIKEISAIGANAIBAAI","perfecture_jp":"山口県","jp_add_1":"熊毛郡田布施町","jp_add_2":""},"7421516":{"post_code":"7421516","prefecture":"YAMAGUCHI KEN","city":"KUMAGE GUN TABUSE CHO","town":"UMASHIMA","perfecture_jp":"山口県","jp_add_1":"熊毛郡田布施町","jp_add_2":"馬島"},"7421501":{"post_code":"7421501","prefecture":"YAMAGUCHI KEN","city":"KUMAGE GUN TABUSE CHO","town":"OHANO","perfecture_jp":"山口県","jp_add_1":"熊毛郡田布施町","jp_add_2":"大波野"},"7421513":{"post_code":"7421513","prefecture":"YAMAGUCHI KEN","city":"KUMAGE GUN TABUSE CHO","town":"OGODANCHI","perfecture_jp":"山口県","jp_add_1":"熊毛郡田布施町","jp_add_2":"麻郷"},"7421512":{"post_code":"7421512","prefecture":"YAMAGUCHI KEN","city":"KUMAGE GUN TABUSE CHO","town":"OGOOKU","perfecture_jp":"山口県","jp_add_1":"熊毛郡田布施町","jp_add_2":"麻郷奥"},"7421515":{"post_code":"7421515","prefecture":"YAMAGUCHI KEN","city":"KUMAGE GUN TABUSE CHO","town":"KAMITABUSE","perfecture_jp":"山口県","jp_add_1":"熊毛郡田布施町","jp_add_2":"上田布施"},"7421504":{"post_code":"7421504","prefecture":"YAMAGUCHI KEN","city":"KUMAGE GUN TABUSE CHO","town":"KAWANISHI","perfecture_jp":"山口県","jp_add_1":"熊毛郡田布施町","jp_add_2":"川西"},"7421511":{"post_code":"7421511","prefecture":"YAMAGUCHI KEN","city":"KUMAGE GUN TABUSE CHO","town":"SHIMOTABUSE","perfecture_jp":"山口県","jp_add_1":"熊毛郡田布施町","jp_add_2":"下田布施"},"7421503":{"post_code":"7421503","prefecture":"YAMAGUCHI KEN","city":"KUMAGE GUN TABUSE CHO","town":"SHUKUI","perfecture_jp":"山口県","jp_add_1":"熊毛郡田布施町","jp_add_2":"宿井"},"7421517":{"post_code":"7421517","prefecture":"YAMAGUCHI KEN","city":"KUMAGE GUN TABUSE CHO","town":"CHUOMINAMI","perfecture_jp":"山口県","jp_add_1":"熊毛郡田布施町","jp_add_2":"中央南"},"7421502":{"post_code":"7421502","prefecture":"YAMAGUCHI KEN","city":"KUMAGE GUN TABUSE CHO","town":"HANO","perfecture_jp":"山口県","jp_add_1":"熊毛郡田布施町","jp_add_2":"波野"},"7421514":{"post_code":"7421514","prefecture":"YAMAGUCHI KEN","city":"KUMAGE GUN TABUSE CHO","town":"BEFU","perfecture_jp":"山口県","jp_add_1":"熊毛郡田布施町","jp_add_2":"別府"},"7421100":{"post_code":"7421100","prefecture":"YAMAGUCHI KEN","city":"KUMAGE GUN HIRAO CHO","town":"IKANIKEISAIGANAIBAAI","perfecture_jp":"山口県","jp_add_1":"熊毛郡平生町","jp_add_2":""},"7421104":{"post_code":"7421104","prefecture":"YAMAGUCHI KEN","city":"KUMAGE GUN HIRAO CHO","town":"USANAGI","perfecture_jp":"山口県","jp_add_1":"熊毛郡平生町","jp_add_2":"宇佐木"},"7421106":{"post_code":"7421106","prefecture":"YAMAGUCHI KEN","city":"KUMAGE GUN HIRAO CHO","town":"ONOMINAMI","perfecture_jp":"山口県","jp_add_1":"熊毛郡平生町","jp_add_2":"大野南"},"7421105":{"post_code":"7421105","prefecture":"YAMAGUCHI KEN","city":"KUMAGE GUN HIRAO CHO","town":"ONOKITA","perfecture_jp":"山口県","jp_add_1":"熊毛郡平生町","jp_add_2":"大野北"},"7421113":{"post_code":"7421113","prefecture":"YAMAGUCHI KEN","city":"KUMAGE GUN HIRAO CHO","town":"OKUNI","perfecture_jp":"山口県","jp_add_1":"熊毛郡平生町","jp_add_2":"尾国"},"7421112":{"post_code":"7421112","prefecture":"YAMAGUCHI KEN","city":"KUMAGE GUN HIRAO CHO","town":"OGUNI","perfecture_jp":"山口県","jp_add_1":"熊毛郡平生町","jp_add_2":"小郡"},"7421111":{"post_code":"7421111","prefecture":"YAMAGUCHI KEN","city":"KUMAGE GUN HIRAO CHO","town":"SAGA","perfecture_jp":"山口県","jp_add_1":"熊毛郡平生町","jp_add_2":"佐賀"},"7421114":{"post_code":"7421114","prefecture":"YAMAGUCHI KEN","city":"KUMAGE GUN HIRAO CHO","town":"SAGOJIMA","perfecture_jp":"山口県","jp_add_1":"熊毛郡平生町","jp_add_2":"佐合島"},"7421107":{"post_code":"7421107","prefecture":"YAMAGUCHI KEN","city":"KUMAGE GUN HIRAO CHO","town":"SONE","perfecture_jp":"山口県","jp_add_1":"熊毛郡平生町","jp_add_2":"曽根"},"7421103":{"post_code":"7421103","prefecture":"YAMAGUCHI KEN","city":"KUMAGE GUN HIRAO CHO","town":"TATEGAHAMA","perfecture_jp":"山口県","jp_add_1":"熊毛郡平生町","jp_add_2":"竪ケ浜"},"7421101":{"post_code":"7421101","prefecture":"YAMAGUCHI KEN","city":"KUMAGE GUN HIRAO CHO","town":"HIRAOMACHI","perfecture_jp":"山口県","jp_add_1":"熊毛郡平生町","jp_add_2":"平生町"},"7421102":{"post_code":"7421102","prefecture":"YAMAGUCHI KEN","city":"KUMAGE GUN HIRAO CHO","town":"HIRAOMURA","perfecture_jp":"山口県","jp_add_1":"熊毛郡平生町","jp_add_2":"平生村"}}