{"7430000":{"post_code":"7430000","prefecture":"YAMAGUCHI KEN","city":"HIKARI SHI","town":"IKANIKEISAIGANAIBAAI","perfecture_jp":"山口県","jp_add_1":"光市","jp_add_2":""},"7430021":{"post_code":"7430021","prefecture":"YAMAGUCHI KEN","city":"HIKARI SHI","town":"ASAE","perfecture_jp":"山口県","jp_add_1":"光市","jp_add_2":"浅江"},"7430051":{"post_code":"7430051","prefecture":"YAMAGUCHI KEN","city":"HIKARI SHI","town":"IWAGARI","perfecture_jp":"山口県","jp_add_1":"光市","jp_add_2":"岩狩"},"7430103":{"post_code":"7430103","prefecture":"YAMAGUCHI KEN","city":"HIKARI SHI","town":"IWATA","perfecture_jp":"山口県","jp_add_1":"光市","jp_add_2":"岩田"},"7430104":{"post_code":"7430104","prefecture":"YAMAGUCHI KEN","city":"HIKARI SHI","town":"IWATATATENO","perfecture_jp":"山口県","jp_add_1":"光市","jp_add_2":"岩田立野"},"7430003":{"post_code":"7430003","prefecture":"YAMAGUCHI KEN","city":"HIKARI SHI","town":"USHIMA","perfecture_jp":"山口県","jp_add_1":"光市","jp_add_2":"牛島"},"7430065":{"post_code":"7430065","prefecture":"YAMAGUCHI KEN","city":"HIKARI SHI","town":"KAMISHIMATA","perfecture_jp":"山口県","jp_add_1":"光市","jp_add_2":"上島田"},"7430046":{"post_code":"7430046","prefecture":"YAMAGUCHI KEN","city":"HIKARI SHI","town":"KIZONO","perfecture_jp":"山口県","jp_add_1":"光市","jp_add_2":"木園"},"7430043":{"post_code":"7430043","prefecture":"YAMAGUCHI KEN","city":"HIKARI SHI","town":"KYOWACHO","perfecture_jp":"山口県","jp_add_1":"光市","jp_add_2":"協和町"},"7430061":{"post_code":"7430061","prefecture":"YAMAGUCHI KEN","city":"HIKARI SHI","town":"KOZUO","perfecture_jp":"山口県","jp_add_1":"光市","jp_add_2":"小周防"},"7430101":{"post_code":"7430101","prefecture":"YAMAGUCHI KEN","city":"HIKARI SHI","town":"SHIOTA","perfecture_jp":"山口県","jp_add_1":"光市","jp_add_2":"塩田"},"7430063":{"post_code":"7430063","prefecture":"YAMAGUCHI KEN","city":"HIKARI SHI","town":"SHIMATA","perfecture_jp":"山口県","jp_add_1":"光市","jp_add_2":"島田"},"7430012":{"post_code":"7430012","prefecture":"YAMAGUCHI KEN","city":"HIKARI SHI","town":"SEMBODAI","perfecture_jp":"山口県","jp_add_1":"光市","jp_add_2":"千坊台"},"7430042":{"post_code":"7430042","prefecture":"YAMAGUCHI KEN","city":"HIKARI SHI","town":"TAKARAMACHI","perfecture_jp":"山口県","jp_add_1":"光市","jp_add_2":"宝町"},"7430062":{"post_code":"7430062","prefecture":"YAMAGUCHI KEN","city":"HIKARI SHI","town":"TATENO","perfecture_jp":"山口県","jp_add_1":"光市","jp_add_2":"立野"},"7430013":{"post_code":"7430013","prefecture":"YAMAGUCHI KEN","city":"HIKARI SHI","town":"CHUO","perfecture_jp":"山口県","jp_add_1":"光市","jp_add_2":"中央"},"7430105":{"post_code":"7430105","prefecture":"YAMAGUCHI KEN","city":"HIKARI SHI","town":"TSUKARI","perfecture_jp":"山口県","jp_add_1":"光市","jp_add_2":"束荷"},"7430064":{"post_code":"7430064","prefecture":"YAMAGUCHI KEN","city":"HIKARI SHI","town":"NAKASHIMATA","perfecture_jp":"山口県","jp_add_1":"光市","jp_add_2":"中島田"},"7430048":{"post_code":"7430048","prefecture":"YAMAGUCHI KEN","city":"HIKARI SHI","town":"NAKAMURACHO","perfecture_jp":"山口県","jp_add_1":"光市","jp_add_2":"中村町"},"7430031":{"post_code":"7430031","prefecture":"YAMAGUCHI KEN","city":"HIKARI SHI","town":"NIJIGAOKA","perfecture_jp":"山口県","jp_add_1":"光市","jp_add_2":"虹ケ丘"},"7430022":{"post_code":"7430022","prefecture":"YAMAGUCHI KEN","city":"HIKARI SHI","town":"NIJIGAHAMA","perfecture_jp":"山口県","jp_add_1":"光市","jp_add_2":"虹ケ浜"},"7430047":{"post_code":"7430047","prefecture":"YAMAGUCHI KEN","city":"HIKARI SHI","town":"HANAZONO","perfecture_jp":"山口県","jp_add_1":"光市","jp_add_2":"花園"},"7430023":{"post_code":"7430023","prefecture":"YAMAGUCHI KEN","city":"HIKARI SHI","town":"HIKARIGAOKA","perfecture_jp":"山口県","jp_add_1":"光市","jp_add_2":"光ケ丘"},"7430041":{"post_code":"7430041","prefecture":"YAMAGUCHI KEN","city":"HIKARI SHI","town":"MARUYAMACHO","perfecture_jp":"山口県","jp_add_1":"光市","jp_add_2":"丸山町"},"7430052":{"post_code":"7430052","prefecture":"YAMAGUCHI KEN","city":"HIKARI SHI","town":"MII","perfecture_jp":"山口県","jp_add_1":"光市","jp_add_2":"三井"},"7430011":{"post_code":"7430011","prefecture":"YAMAGUCHI KEN","city":"HIKARI SHI","town":"MITSUI","perfecture_jp":"山口県","jp_add_1":"光市","jp_add_2":"光井"},"7430045":{"post_code":"7430045","prefecture":"YAMAGUCHI KEN","city":"HIKARI SHI","town":"MIYANOSHITACHO","perfecture_jp":"山口県","jp_add_1":"光市","jp_add_2":"宮ノ下町"},"7430102":{"post_code":"7430102","prefecture":"YAMAGUCHI KEN","city":"HIKARI SHI","town":"MIWA","perfecture_jp":"山口県","jp_add_1":"光市","jp_add_2":"三輪"},"7430007":{"post_code":"7430007","prefecture":"YAMAGUCHI KEN","city":"HIKARI SHI","town":"MUROZUMI","perfecture_jp":"山口県","jp_add_1":"光市","jp_add_2":"室積"},"7430004":{"post_code":"7430004","prefecture":"YAMAGUCHI KEN","city":"HIKARI SHI","town":"MUROZUMIICHINOBE","perfecture_jp":"山口県","jp_add_1":"光市","jp_add_2":"室積市延"},"7430002":{"post_code":"7430002","prefecture":"YAMAGUCHI KEN","city":"HIKARI SHI","town":"MUROZUMIURA","perfecture_jp":"山口県","jp_add_1":"光市","jp_add_2":"室積浦"},"7430072":{"post_code":"7430072","prefecture":"YAMAGUCHI KEN","city":"HIKARI SHI","town":"MUROZUMIOMACHI","perfecture_jp":"山口県","jp_add_1":"光市","jp_add_2":"室積大町"},"7430075":{"post_code":"7430075","prefecture":"YAMAGUCHI KEN","city":"HIKARI SHI","town":"MUROZUMIOKITA","perfecture_jp":"山口県","jp_add_1":"光市","jp_add_2":"室積沖田"},"7430071":{"post_code":"7430071","prefecture":"YAMAGUCHI KEN","city":"HIKARI SHI","town":"MUROZUMISHINKAI","perfecture_jp":"山口県","jp_add_1":"光市","jp_add_2":"室積新開"},"7430006":{"post_code":"7430006","prefecture":"YAMAGUCHI KEN","city":"HIKARI SHI","town":"MUROZUMIJINDEN","perfecture_jp":"山口県","jp_add_1":"光市","jp_add_2":"室積神田"},"7430008":{"post_code":"7430008","prefecture":"YAMAGUCHI KEN","city":"HIKARI SHI","town":"MUROZUMICHUOCHO","perfecture_jp":"山口県","jp_add_1":"光市","jp_add_2":"室積中央町"},"7430074":{"post_code":"7430074","prefecture":"YAMAGUCHI KEN","city":"HIKARI SHI","town":"MUROZUMINISHINOSHO","perfecture_jp":"山口県","jp_add_1":"光市","jp_add_2":"室積西ノ庄"},"7430005":{"post_code":"7430005","prefecture":"YAMAGUCHI KEN","city":"HIKARI SHI","town":"MUROZUMIHIGASHINOSHO","perfecture_jp":"山口県","jp_add_1":"光市","jp_add_2":"室積東ノ庄"},"7430073":{"post_code":"7430073","prefecture":"YAMAGUCHI KEN","city":"HIKARI SHI","town":"MUROZUMIMASAKI","perfecture_jp":"山口県","jp_add_1":"光市","jp_add_2":"室積正木"},"7430009":{"post_code":"7430009","prefecture":"YAMAGUCHI KEN","city":"HIKARI SHI","town":"MUROZUMIMATSUBARA","perfecture_jp":"山口県","jp_add_1":"光市","jp_add_2":"室積松原"},"7430001":{"post_code":"7430001","prefecture":"YAMAGUCHI KEN","city":"HIKARI SHI","town":"MUROZUMIMURA","perfecture_jp":"山口県","jp_add_1":"光市","jp_add_2":"室積村"},"7430044":{"post_code":"7430044","prefecture":"YAMAGUCHI KEN","city":"HIKARI SHI","town":"WADACHO","perfecture_jp":"山口県","jp_add_1":"光市","jp_add_2":"和田町"}}