{"7450000":{"post_code":"7450000","prefecture":"YAMAGUCHI KEN","city":"SHUNAN SHI","town":"IKANIKEISAIGANAIBAAI","perfecture_jp":"山口県","jp_add_1":"周南市","jp_add_2":""},"7450055":{"post_code":"7450055","prefecture":"YAMAGUCHI KEN","city":"SHUNAN SHI","town":"AIOICHO","perfecture_jp":"山口県","jp_add_1":"周南市","jp_add_2":"相生町"},"7450842":{"post_code":"7450842","prefecture":"YAMAGUCHI KEN","city":"SHUNAN SHI","town":"AOYAMACHO","perfecture_jp":"山口県","jp_add_1":"周南市","jp_add_2":"青山町"},"7450825":{"post_code":"7450825","prefecture":"YAMAGUCHI KEN","city":"SHUNAN SHI","town":"AKIZUKI","perfecture_jp":"山口県","jp_add_1":"周南市","jp_add_2":"秋月"},"7450821":{"post_code":"7450821","prefecture":"YAMAGUCHI KEN","city":"SHUNAN SHI","town":"AKEBONOCHO","perfecture_jp":"山口県","jp_add_1":"周南市","jp_add_2":"曙町"},"7450124":{"post_code":"7450124","prefecture":"YAMAGUCHI KEN","city":"SHUNAN SHI","town":"ADOJI","perfecture_jp":"山口県","jp_add_1":"周南市","jp_add_2":"莇地"},"7450014":{"post_code":"7450014","prefecture":"YAMAGUCHI KEN","city":"SHUNAN SHI","town":"IIJIMACHO","perfecture_jp":"山口県","jp_add_1":"周南市","jp_add_2":"飯島町"},"7450833":{"post_code":"7450833","prefecture":"YAMAGUCHI KEN","city":"SHUNAN SHI","town":"IZUMIBARACHO","perfecture_jp":"山口県","jp_add_1":"周南市","jp_add_2":"泉原町"},"7450882":{"post_code":"7450882","prefecture":"YAMAGUCHI KEN","city":"SHUNAN SHI","town":"ICHINOIDE","perfecture_jp":"山口県","jp_add_1":"周南市","jp_add_2":"一ノ井手"},"7450872":{"post_code":"7450872","prefecture":"YAMAGUCHI KEN","city":"SHUNAN SHI","town":"ICHIBANCHO","perfecture_jp":"山口県","jp_add_1":"周南市","jp_add_2":"一番町"},"7450074":{"post_code":"7450074","prefecture":"YAMAGUCHI KEN","city":"SHUNAN SHI","town":"IMAJUKUCHO","perfecture_jp":"山口県","jp_add_1":"周南市","jp_add_2":"今宿町"},"7450063":{"post_code":"7450063","prefecture":"YAMAGUCHI KEN","city":"SHUNAN SHI","town":"IMAZUMICHO","perfecture_jp":"山口県","jp_add_1":"周南市","jp_add_2":"今住町"},"7450047":{"post_code":"7450047","prefecture":"YAMAGUCHI KEN","city":"SHUNAN SHI","town":"IRIFUNECHO","perfecture_jp":"山口県","jp_add_1":"周南市","jp_add_2":"入船町"},"7450887":{"post_code":"7450887","prefecture":"YAMAGUCHI KEN","city":"SHUNAN SHI","town":"UMAYA","perfecture_jp":"山口県","jp_add_1":"周南市","jp_add_2":"馬屋"},"7450076":{"post_code":"7450076","prefecture":"YAMAGUCHI KEN","city":"SHUNAN SHI","town":"UMEZONOCHO","perfecture_jp":"山口県","jp_add_1":"周南市","jp_add_2":"梅園町"},"7450856":{"post_code":"7450856","prefecture":"YAMAGUCHI KEN","city":"SHUNAN SHI","town":"URAYAMA","perfecture_jp":"山口県","jp_add_1":"周南市","jp_add_2":"浦山"},"7450857":{"post_code":"7450857","prefecture":"YAMAGUCHI KEN","city":"SHUNAN SHI","town":"URAYAMAKAISAKU","perfecture_jp":"山口県","jp_add_1":"周南市","jp_add_2":"浦山開作"},"7450862":{"post_code":"7450862","prefecture":"YAMAGUCHI KEN","city":"SHUNAN SHI","town":"EGUCHI","perfecture_jp":"山口県","jp_add_1":"周南市","jp_add_2":"江口"},"7450826":{"post_code":"7450826","prefecture":"YAMAGUCHI KEN","city":"SHUNAN SHI","town":"ENOMIYACHO","perfecture_jp":"山口県","jp_add_1":"周南市","jp_add_2":"江の宮町"},"7450041":{"post_code":"7450041","prefecture":"YAMAGUCHI KEN","city":"SHUNAN SHI","town":"EBISUMACHI","perfecture_jp":"山口県","jp_add_1":"周南市","jp_add_2":"戎町"},"7450832":{"post_code":"7450832","prefecture":"YAMAGUCHI KEN","city":"SHUNAN SHI","town":"OGICHO","perfecture_jp":"山口県","jp_add_1":"周南市","jp_add_2":"扇町"},"7450824":{"post_code":"7450824","prefecture":"YAMAGUCHI KEN","city":"SHUNAN SHI","town":"OUCHICHO","perfecture_jp":"山口県","jp_add_1":"周南市","jp_add_2":"大内町"},"7450651":{"post_code":"7450651","prefecture":"YAMAGUCHI KEN","city":"SHUNAN SHI","town":"OKAWACHI","perfecture_jp":"山口県","jp_add_1":"周南市","jp_add_2":"大河内"},"7450301":{"post_code":"7450301","prefecture":"YAMAGUCHI KEN","city":"SHUNAN SHI","town":"OSHIO","perfecture_jp":"山口県","jp_add_1":"周南市","jp_add_2":"大潮"},"7450803":{"post_code":"7450803","prefecture":"YAMAGUCHI KEN","city":"SHUNAN SHI","town":"OSHIMA","perfecture_jp":"山口県","jp_add_1":"周南市","jp_add_2":"大島"},"7450057":{"post_code":"7450057","prefecture":"YAMAGUCHI KEN","city":"SHUNAN SHI","town":"OZUSHIMA","perfecture_jp":"山口県","jp_add_1":"周南市","jp_add_2":"大津島"},"7450242":{"post_code":"7450242","prefecture":"YAMAGUCHI KEN","city":"SHUNAN SHI","town":"ODORI","perfecture_jp":"山口県","jp_add_1":"周南市","jp_add_2":"大道理"},"7450241":{"post_code":"7450241","prefecture":"YAMAGUCHI KEN","city":"SHUNAN SHI","town":"OMUKAI","perfecture_jp":"山口県","jp_add_1":"周南市","jp_add_2":"大向"},"7450066":{"post_code":"7450066","prefecture":"YAMAGUCHI KEN","city":"SHUNAN SHI","town":"OKADACHO","perfecture_jp":"山口県","jp_add_1":"周南市","jp_add_2":"岡田町"},"7450051":{"post_code":"7450051","prefecture":"YAMAGUCHI KEN","city":"SHUNAN SHI","town":"OKIMICHO","perfecture_jp":"山口県","jp_add_1":"周南市","jp_add_2":"沖見町"},"7450611":{"post_code":"7450611","prefecture":"YAMAGUCHI KEN","city":"SHUNAN SHI","town":"OKUSEKIYA","perfecture_jp":"山口県","jp_add_1":"周南市","jp_add_2":"奥関屋"},"7450871":{"post_code":"7450871","prefecture":"YAMAGUCHI KEN","city":"SHUNAN SHI","town":"OYUMICHO","perfecture_jp":"山口県","jp_add_1":"周南市","jp_add_2":"御弓町"},"7450615":{"post_code":"7450615","prefecture":"YAMAGUCHI KEN","city":"SHUNAN SHI","town":"KATSUMAGAOKA","perfecture_jp":"山口県","jp_add_1":"周南市","jp_add_2":"勝間ヶ丘"},"7450617":{"post_code":"7450617","prefecture":"YAMAGUCHI KEN","city":"SHUNAN SHI","town":"KATSUMABARA","perfecture_jp":"山口県","jp_add_1":"周南市","jp_add_2":"勝間原"},"7450302":{"post_code":"7450302","prefecture":"YAMAGUCHI KEN","city":"SHUNAN SHI","town":"KANOKAMI","perfecture_jp":"山口県","jp_add_1":"周南市","jp_add_2":"鹿野上"},"7450304":{"post_code":"7450304","prefecture":"YAMAGUCHI KEN","city":"SHUNAN SHI","town":"KANOSHIMO","perfecture_jp":"山口県","jp_add_1":"周南市","jp_add_2":"鹿野下"},"7450303":{"post_code":"7450303","prefecture":"YAMAGUCHI KEN","city":"SHUNAN SHI","town":"KANONAKA","perfecture_jp":"山口県","jp_add_1":"周南市","jp_add_2":"鹿野中"},"7450817":{"post_code":"7450817","prefecture":"YAMAGUCHI KEN","city":"SHUNAN SHI","town":"KAMITOISHICHO","perfecture_jp":"山口県","jp_add_1":"周南市","jp_add_2":"上遠石町"},"7450858":{"post_code":"7450858","prefecture":"YAMAGUCHI KEN","city":"SHUNAN SHI","town":"KAYO","perfecture_jp":"山口県","jp_add_1":"周南市","jp_add_2":"花陽"},"7450855":{"post_code":"7450855","prefecture":"YAMAGUCHI KEN","city":"SHUNAN SHI","town":"KAWAKAMI","perfecture_jp":"山口県","jp_add_1":"周南市","jp_add_2":"川上"},"7450012":{"post_code":"7450012","prefecture":"YAMAGUCHI KEN","city":"SHUNAN SHI","town":"KAWABATACHO","perfecture_jp":"山口県","jp_add_1":"周南市","jp_add_2":"川端町"},"7450845":{"post_code":"7450845","prefecture":"YAMAGUCHI KEN","city":"SHUNAN SHI","town":"KAWAHIGASHICHO","perfecture_jp":"山口県","jp_add_1":"周南市","jp_add_2":"河東町"},"7450852":{"post_code":"7450852","prefecture":"YAMAGUCHI KEN","city":"SHUNAN SHI","town":"KAWAMAGARI","perfecture_jp":"山口県","jp_add_1":"周南市","jp_add_2":"川曲"},"7450071":{"post_code":"7450071","prefecture":"YAMAGUCHI KEN","city":"SHUNAN SHI","town":"KISANDORI","perfecture_jp":"山口県","jp_add_1":"周南市","jp_add_2":"岐山通り"},"7450864":{"post_code":"7450864","prefecture":"YAMAGUCHI KEN","city":"SHUNAN SHI","town":"KITAYAMA","perfecture_jp":"山口県","jp_add_1":"周南市","jp_add_2":"北山"},"7450007":{"post_code":"7450007","prefecture":"YAMAGUCHI KEN","city":"SHUNAN SHI","town":"KINANCHO","perfecture_jp":"山口県","jp_add_1":"周南市","jp_add_2":"岐南町"},"7450032":{"post_code":"7450032","prefecture":"YAMAGUCHI KEN","city":"SHUNAN SHI","town":"GINZA","perfecture_jp":"山口県","jp_add_1":"周南市","jp_add_2":"銀座"},"7450031":{"post_code":"7450031","prefecture":"YAMAGUCHI KEN","city":"SHUNAN SHI","town":"GINNANGAI","perfecture_jp":"山口県","jp_add_1":"周南市","jp_add_2":"銀南街"},"7450805":{"post_code":"7450805","prefecture":"YAMAGUCHI KEN","city":"SHUNAN SHI","town":"KUSHIGAHAMA","perfecture_jp":"山口県","jp_add_1":"周南市","jp_add_2":"櫛ケ浜"},"7450831":{"post_code":"7450831","prefecture":"YAMAGUCHI KEN","city":"SHUNAN SHI","town":"KUSUNOKI","perfecture_jp":"山口県","jp_add_1":"周南市","jp_add_2":"楠木"},"7450663":{"post_code":"7450663","prefecture":"YAMAGUCHI KEN","city":"SHUNAN SHI","town":"KUMAGECHUOCHO","perfecture_jp":"山口県","jp_add_1":"周南市","jp_add_2":"熊毛中央町"},"7450801":{"post_code":"7450801","prefecture":"YAMAGUCHI KEN","city":"SHUNAN SHI","town":"KUME","perfecture_jp":"山口県","jp_add_1":"周南市","jp_add_2":"久米"},"7450802":{"post_code":"7450802","prefecture":"YAMAGUCHI KEN","city":"SHUNAN SHI","town":"KURIYA","perfecture_jp":"山口県","jp_add_1":"周南市","jp_add_2":"栗屋"},"7450886":{"post_code":"7450886","prefecture":"YAMAGUCHI KEN","city":"SHUNAN SHI","town":"KUROIWACHO","perfecture_jp":"山口県","jp_add_1":"周南市","jp_add_2":"黒岩町"},"7450836":{"post_code":"7450836","prefecture":"YAMAGUCHI KEN","city":"SHUNAN SHI","town":"KEIMANCHO","perfecture_jp":"山口県","jp_add_1":"周南市","jp_add_2":"慶万町"},"7450874":{"post_code":"7450874","prefecture":"YAMAGUCHI KEN","city":"SHUNAN SHI","town":"KOENKU","perfecture_jp":"山口県","jp_add_1":"周南市","jp_add_2":"公園区"},"7450027":{"post_code":"7450027","prefecture":"YAMAGUCHI KEN","city":"SHUNAN SHI","town":"KOJIMACHI","perfecture_jp":"山口県","jp_add_1":"周南市","jp_add_2":"糀町"},"7450822":{"post_code":"7450822","prefecture":"YAMAGUCHI KEN","city":"SHUNAN SHI","town":"KODACHO","perfecture_jp":"山口県","jp_add_1":"周南市","jp_add_2":"孝田町"},"7450878":{"post_code":"7450878","prefecture":"YAMAGUCHI KEN","city":"SHUNAN SHI","town":"KONODAI","perfecture_jp":"山口県","jp_add_1":"周南市","jp_add_2":"幸の台"},"7450814":{"post_code":"7450814","prefecture":"YAMAGUCHI KEN","city":"SHUNAN SHI","town":"KOKAI","perfecture_jp":"山口県","jp_add_1":"周南市","jp_add_2":"鼓海"},"7450614":{"post_code":"7450614","prefecture":"YAMAGUCHI KEN","city":"SHUNAN SHI","town":"GOSHOBARA","perfecture_jp":"山口県","jp_add_1":"周南市","jp_add_2":"御所尾原"},"7450005":{"post_code":"7450005","prefecture":"YAMAGUCHI KEN","city":"SHUNAN SHI","town":"KODAMACHO","perfecture_jp":"山口県","jp_add_1":"周南市","jp_add_2":"児玉町"},"7450641":{"post_code":"7450641","prefecture":"YAMAGUCHI KEN","city":"SHUNAN SHI","town":"KOMATSUBARA","perfecture_jp":"山口県","jp_add_1":"周南市","jp_add_2":"小松原"},"7450046":{"post_code":"7450046","prefecture":"YAMAGUCHI KEN","city":"SHUNAN SHI","town":"GONGENCHO","perfecture_jp":"山口県","jp_add_1":"周南市","jp_add_2":"権現町"},"7450883":{"post_code":"7450883","prefecture":"YAMAGUCHI KEN","city":"SHUNAN SHI","town":"SAKAEDANI","perfecture_jp":"山口県","jp_add_1":"周南市","jp_add_2":"栄谷"},"7450037":{"post_code":"7450037","prefecture":"YAMAGUCHI KEN","city":"SHUNAN SHI","town":"SAKAEMACHI","perfecture_jp":"山口県","jp_add_1":"周南市","jp_add_2":"栄町"},"7450806":{"post_code":"7450806","prefecture":"YAMAGUCHI KEN","city":"SHUNAN SHI","town":"SAKURAGI","perfecture_jp":"山口県","jp_add_1":"周南市","jp_add_2":"桜木"},"7450011":{"post_code":"7450011","prefecture":"YAMAGUCHI KEN","city":"SHUNAN SHI","town":"SAKURABABADORI","perfecture_jp":"山口県","jp_add_1":"周南市","jp_add_2":"桜馬場通り"},"7450652":{"post_code":"7450652","prefecture":"YAMAGUCHI KEN","city":"SHUNAN SHI","town":"SACHIGAOKA","perfecture_jp":"山口県","jp_add_1":"周南市","jp_add_2":"幸ケ丘"},"7450811":{"post_code":"7450811","prefecture":"YAMAGUCHI KEN","city":"SHUNAN SHI","town":"SATSUKICHO","perfecture_jp":"山口県","jp_add_1":"周南市","jp_add_2":"五月町"},"7450003":{"post_code":"7450003","prefecture":"YAMAGUCHI KEN","city":"SHUNAN SHI","town":"SAMBANCHO","perfecture_jp":"山口県","jp_add_1":"周南市","jp_add_2":"三番町"},"7450834":{"post_code":"7450834","prefecture":"YAMAGUCHI KEN","city":"SHUNAN SHI","town":"SHIMIZUCHO","perfecture_jp":"山口県","jp_add_1":"周南市","jp_add_2":"清水町"},"7450654":{"post_code":"7450654","prefecture":"YAMAGUCHI KEN","city":"SHUNAN SHI","town":"JIYUGAOKA","perfecture_jp":"山口県","jp_add_1":"周南市","jp_add_2":"自由ケ丘"},"7450823":{"post_code":"7450823","prefecture":"YAMAGUCHI KEN","city":"SHUNAN SHI","town":"SHUYO","perfecture_jp":"山口県","jp_add_1":"周南市","jp_add_2":"周陽"},"7450807":{"post_code":"7450807","prefecture":"YAMAGUCHI KEN","city":"SHUNAN SHI","town":"JOGAOKA","perfecture_jp":"山口県","jp_add_1":"周南市","jp_add_2":"城ケ丘"},"7450853":{"post_code":"7450853","prefecture":"YAMAGUCHI KEN","city":"SHUNAN SHI","town":"JOSON","perfecture_jp":"山口県","jp_add_1":"周南市","jp_add_2":"上村"},"7450061":{"post_code":"7450061","prefecture":"YAMAGUCHI KEN","city":"SHUNAN SHI","town":"SHOROCHO","perfecture_jp":"山口県","jp_add_1":"周南市","jp_add_2":"鐘楼町"},"7450013":{"post_code":"7450013","prefecture":"YAMAGUCHI KEN","city":"SHUNAN SHI","town":"SHOWADORI","perfecture_jp":"山口県","jp_add_1":"周南市","jp_add_2":"昭和通り"},"7450843":{"post_code":"7450843","prefecture":"YAMAGUCHI KEN","city":"SHUNAN SHI","town":"SHINGUCHO","perfecture_jp":"山口県","jp_add_1":"周南市","jp_add_2":"新宮町"},"7450056":{"post_code":"7450056","prefecture":"YAMAGUCHI KEN","city":"SHUNAN SHI","town":"SHINJUKUDORI","perfecture_jp":"山口県","jp_add_1":"周南市","jp_add_2":"新宿通"},"7450643":{"post_code":"7450643","prefecture":"YAMAGUCHI KEN","city":"SHUNAN SHI","town":"SHINSEIKODAI","perfecture_jp":"山口県","jp_add_1":"周南市","jp_add_2":"新清光台"},"7450861":{"post_code":"7450861","prefecture":"YAMAGUCHI KEN","city":"SHUNAN SHI","town":"SHINCHI","perfecture_jp":"山口県","jp_add_1":"周南市","jp_add_2":"新地"},"7450867":{"post_code":"7450867","prefecture":"YAMAGUCHI KEN","city":"SHUNAN SHI","town":"SHIMBORI","perfecture_jp":"山口県","jp_add_1":"周南市","jp_add_2":"新堀"},"7450017":{"post_code":"7450017","prefecture":"YAMAGUCHI KEN","city":"SHUNAN SHI","town":"SHIMMACHI","perfecture_jp":"山口県","jp_add_1":"周南市","jp_add_2":"新町"},"7450804":{"post_code":"7450804","prefecture":"YAMAGUCHI KEN","city":"SHUNAN SHI","town":"SUKUMOJIMA","perfecture_jp":"山口県","jp_add_1":"周南市","jp_add_2":"粭島"},"7450121":{"post_code":"7450121","prefecture":"YAMAGUCHI KEN","city":"SHUNAN SHI","town":"SUSUMA OKU","perfecture_jp":"山口県","jp_add_1":"周南市","jp_add_2":"須々万奥"},"7450122":{"post_code":"7450122","prefecture":"YAMAGUCHI KEN","city":"SHUNAN SHI","town":"SUSUMA HONGO","perfecture_jp":"山口県","jp_add_1":"周南市","jp_add_2":"須々万本郷"},"7450401":{"post_code":"7450401","prefecture":"YAMAGUCHI KEN","city":"SHUNAN SHI","town":"SUMA","perfecture_jp":"山口県","jp_add_1":"周南市","jp_add_2":"須万"},"7450026":{"post_code":"7450026","prefecture":"YAMAGUCHI KEN","city":"SHUNAN SHI","town":"SUMIZAKICHO","perfecture_jp":"山口県","jp_add_1":"周南市","jp_add_2":"住崎町"},"7450064":{"post_code":"7450064","prefecture":"YAMAGUCHI KEN","city":"SHUNAN SHI","town":"SUMIYOSHICHO","perfecture_jp":"山口県","jp_add_1":"周南市","jp_add_2":"住吉町"},"7450653":{"post_code":"7450653","prefecture":"YAMAGUCHI KEN","city":"SHUNAN SHI","town":"SEIKODAICHO","perfecture_jp":"山口県","jp_add_1":"周南市","jp_add_2":"清光台町"},"7450623":{"post_code":"7450623","prefecture":"YAMAGUCHI KEN","city":"SHUNAN SHI","town":"SEINO","perfecture_jp":"山口県","jp_add_1":"周南市","jp_add_2":"清尾"},"7450827":{"post_code":"7450827","prefecture":"YAMAGUCHI KEN","city":"SHUNAN SHI","town":"SETOMICHO","perfecture_jp":"山口県","jp_add_1":"周南市","jp_add_2":"瀬戸見町"},"7450885":{"post_code":"7450885","prefecture":"YAMAGUCHI KEN","city":"SHUNAN SHI","town":"TAKAODANCHI","perfecture_jp":"山口県","jp_add_1":"周南市","jp_add_2":"高尾団地"},"7450662":{"post_code":"7450662","prefecture":"YAMAGUCHI KEN","city":"SHUNAN SHI","town":"TAKAMIZUHARA","perfecture_jp":"山口県","jp_add_1":"周南市","jp_add_2":"高水原"},"7450025":{"post_code":"7450025","prefecture":"YAMAGUCHI KEN","city":"SHUNAN SHI","town":"CHIKKOCHO","perfecture_jp":"山口県","jp_add_1":"周南市","jp_add_2":"築港町"},"7450044":{"post_code":"7450044","prefecture":"YAMAGUCHI KEN","city":"SHUNAN SHI","town":"CHIYODACHO","perfecture_jp":"山口県","jp_add_1":"周南市","jp_add_2":"千代田町"},"7450062":{"post_code":"7450062","prefecture":"YAMAGUCHI KEN","city":"SHUNAN SHI","town":"TSUKIOKACHO","perfecture_jp":"山口県","jp_add_1":"周南市","jp_add_2":"月丘町"},"7450001":{"post_code":"7450001","prefecture":"YAMAGUCHI KEN","city":"SHUNAN SHI","town":"TSUJIMACHI","perfecture_jp":"山口県","jp_add_1":"周南市","jp_add_2":"辻町"},"7450632":{"post_code":"7450632","prefecture":"YAMAGUCHI KEN","city":"SHUNAN SHI","town":"TSURUMIDAI","perfecture_jp":"山口県","jp_add_1":"周南市","jp_add_2":"鶴見台"},"7450816":{"post_code":"7450816","prefecture":"YAMAGUCHI KEN","city":"SHUNAN SHI","town":"TOISHI","perfecture_jp":"山口県","jp_add_1":"周南市","jp_add_2":"遠石"},"7450123":{"post_code":"7450123","prefecture":"YAMAGUCHI KEN","city":"SHUNAN SHI","town":"TOKUYAMA(SUGIGATOGE)","perfecture_jp":"山口県","jp_add_1":"周南市","jp_add_2":"徳山"},"7450851":{"post_code":"7450851","prefecture":"YAMAGUCHI KEN","city":"SHUNAN SHI","town":"TOKUYAMA(SONOTA)","perfecture_jp":"山口県","jp_add_1":"周南市","jp_add_2":"徳山"},"7450045":{"post_code":"7450045","prefecture":"YAMAGUCHI KEN","city":"SHUNAN SHI","town":"TOKUYAMAMINATOMACHI","perfecture_jp":"山口県","jp_add_1":"周南市","jp_add_2":"徳山港町"},"7450876":{"post_code":"7450876","prefecture":"YAMAGUCHI KEN","city":"SHUNAN SHI","town":"NAKAKONGOZAN","perfecture_jp":"山口県","jp_add_1":"周南市","jp_add_2":"中金剛山"},"7450511":{"post_code":"7450511","prefecture":"YAMAGUCHI KEN","city":"SHUNAN SHI","town":"NAKAZU KITA","perfecture_jp":"山口県","jp_add_1":"周南市","jp_add_2":"中須北"},"7450512":{"post_code":"7450512","prefecture":"YAMAGUCHI KEN","city":"SHUNAN SHI","town":"NAKAZU MINAMI","perfecture_jp":"山口県","jp_add_1":"周南市","jp_add_2":"中須南"},"7450854":{"post_code":"7450854","prefecture":"YAMAGUCHI KEN","city":"SHUNAN SHI","town":"NAKANO","perfecture_jp":"山口県","jp_add_1":"周南市","jp_add_2":"中野"},"7450125":{"post_code":"7450125","prefecture":"YAMAGUCHI KEN","city":"SHUNAN SHI","town":"NAGAHO","perfecture_jp":"山口県","jp_add_1":"周南市","jp_add_2":"長穂"},"7450642":{"post_code":"7450642","prefecture":"YAMAGUCHI KEN","city":"SHUNAN SHI","town":"NAKAMURA","perfecture_jp":"山口県","jp_add_1":"周南市","jp_add_2":"中村"},"7450023":{"post_code":"7450023","prefecture":"YAMAGUCHI KEN","city":"SHUNAN SHI","town":"NACHICHO","perfecture_jp":"山口県","jp_add_1":"周南市","jp_add_2":"那智町"},"7450875":{"post_code":"7450875","prefecture":"YAMAGUCHI KEN","city":"SHUNAN SHI","town":"NISHIKONGOZAN","perfecture_jp":"山口県","jp_add_1":"周南市","jp_add_2":"西金剛山"},"7450054":{"post_code":"7450054","prefecture":"YAMAGUCHI KEN","city":"SHUNAN SHI","town":"NISHIMATSUBARA","perfecture_jp":"山口県","jp_add_1":"周南市","jp_add_2":"西松原"},"7450884":{"post_code":"7450884","prefecture":"YAMAGUCHI KEN","city":"SHUNAN SHI","town":"NINOIDE","perfecture_jp":"山口県","jp_add_1":"周南市","jp_add_2":"二ノ井手"},"7450002":{"post_code":"7450002","prefecture":"YAMAGUCHI KEN","city":"SHUNAN SHI","town":"NIBANCHO","perfecture_jp":"山口県","jp_add_1":"周南市","jp_add_2":"二番町"},"7450042":{"post_code":"7450042","prefecture":"YAMAGUCHI KEN","city":"SHUNAN SHI","town":"NOGAMICHO","perfecture_jp":"山口県","jp_add_1":"周南市","jp_add_2":"野上町"},"7450022":{"post_code":"7450022","prefecture":"YAMAGUCHI KEN","city":"SHUNAN SHI","town":"HASHIMOTOCHO","perfecture_jp":"山口県","jp_add_1":"周南市","jp_add_2":"橋本町"},"7450865":{"post_code":"7450865","prefecture":"YAMAGUCHI KEN","city":"SHUNAN SHI","town":"HASUGAEKI","perfecture_jp":"山口県","jp_add_1":"周南市","jp_add_2":"蓮ヶ浴"},"7450052":{"post_code":"7450052","prefecture":"YAMAGUCHI KEN","city":"SHUNAN SHI","town":"HATSUNECHO","perfecture_jp":"山口県","jp_add_1":"周南市","jp_add_2":"初音町"},"7450006":{"post_code":"7450006","prefecture":"YAMAGUCHI KEN","city":"SHUNAN SHI","town":"HANABATAKECHO","perfecture_jp":"山口県","jp_add_1":"周南市","jp_add_2":"花畠町"},"7450844":{"post_code":"7450844","prefecture":"YAMAGUCHI KEN","city":"SHUNAN SHI","town":"HAYATAMACHO","perfecture_jp":"山口県","jp_add_1":"周南市","jp_add_2":"速玉町"},"7450621":{"post_code":"7450621","prefecture":"YAMAGUCHI KEN","city":"SHUNAN SHI","town":"HARA","perfecture_jp":"山口県","jp_add_1":"周南市","jp_add_2":"原"},"7450065":{"post_code":"7450065","prefecture":"YAMAGUCHI KEN","city":"SHUNAN SHI","town":"HARAJUKUCHO","perfecture_jp":"山口県","jp_add_1":"周南市","jp_add_2":"原宿町"},"7450024":{"post_code":"7450024","prefecture":"YAMAGUCHI KEN","city":"SHUNAN SHI","town":"HARUMICHO","perfecture_jp":"山口県","jp_add_1":"周南市","jp_add_2":"晴海町"},"7450869":{"post_code":"7450869","prefecture":"YAMAGUCHI KEN","city":"SHUNAN SHI","town":"HIGASHIKITAYAMA","perfecture_jp":"山口県","jp_add_1":"周南市","jp_add_2":"東北山"},"7450877":{"post_code":"7450877","prefecture":"YAMAGUCHI KEN","city":"SHUNAN SHI","town":"HIGASHIKONGOZAN","perfecture_jp":"山口県","jp_add_1":"周南市","jp_add_2":"東金剛山"},"7450881":{"post_code":"7450881","prefecture":"YAMAGUCHI KEN","city":"SHUNAN SHI","town":"HIGASHITSUJI","perfecture_jp":"山口県","jp_add_1":"周南市","jp_add_2":"東辻"},"7450846":{"post_code":"7450846","prefecture":"YAMAGUCHI KEN","city":"SHUNAN SHI","town":"HIGASHIYAMACHO","perfecture_jp":"山口県","jp_add_1":"周南市","jp_add_2":"東山町"},"7450622":{"post_code":"7450622","prefecture":"YAMAGUCHI KEN","city":"SHUNAN SHI","town":"HIGUCHI","perfecture_jp":"山口県","jp_add_1":"周南市","jp_add_2":"樋口"},"7450866":{"post_code":"7450866","prefecture":"YAMAGUCHI KEN","city":"SHUNAN SHI","town":"HIJIKOSHI","perfecture_jp":"山口県","jp_add_1":"周南市","jp_add_2":"土越"},"7450808":{"post_code":"7450808","prefecture":"YAMAGUCHI KEN","city":"SHUNAN SHI","town":"HIRABARACHO","perfecture_jp":"山口県","jp_add_1":"周南市","jp_add_2":"平原町"},"7450618":{"post_code":"7450618","prefecture":"YAMAGUCHI KEN","city":"SHUNAN SHI","town":"FUJIGADAI","perfecture_jp":"山口県","jp_add_1":"周南市","jp_add_2":"藤ヶ台"},"7450015":{"post_code":"7450015","prefecture":"YAMAGUCHI KEN","city":"SHUNAN SHI","town":"HEIWADORI","perfecture_jp":"山口県","jp_add_1":"周南市","jp_add_2":"平和通り"},"7451131":{"post_code":"7451131","prefecture":"YAMAGUCHI KEN","city":"SHUNAN SHI","town":"HETA","perfecture_jp":"山口県","jp_add_1":"周南市","jp_add_2":"戸田"},"7450036":{"post_code":"7450036","prefecture":"YAMAGUCHI KEN","city":"SHUNAN SHI","town":"HOMMACHI","perfecture_jp":"山口県","jp_add_1":"周南市","jp_add_2":"本町"},"7450835":{"post_code":"7450835","prefecture":"YAMAGUCHI KEN","city":"SHUNAN SHI","town":"MAIGURUMACHO","perfecture_jp":"山口県","jp_add_1":"周南市","jp_add_2":"舞車町"},"7450847":{"post_code":"7450847","prefecture":"YAMAGUCHI KEN","city":"SHUNAN SHI","town":"MATSUHOCHO","perfecture_jp":"山口県","jp_add_1":"周南市","jp_add_2":"松保町"},"7450053":{"post_code":"7450053","prefecture":"YAMAGUCHI KEN","city":"SHUNAN SHI","town":"MIKAGECHO","perfecture_jp":"山口県","jp_add_1":"周南市","jp_add_2":"御影町"},"7450873":{"post_code":"7450873","prefecture":"YAMAGUCHI KEN","city":"SHUNAN SHI","town":"MITAGAWA","perfecture_jp":"山口県","jp_add_1":"周南市","jp_add_2":"三田川"},"7450402":{"post_code":"7450402","prefecture":"YAMAGUCHI KEN","city":"SHUNAN SHI","town":"MITAKE","perfecture_jp":"山口県","jp_add_1":"周南市","jp_add_2":"金峰"},"7450616":{"post_code":"7450616","prefecture":"YAMAGUCHI KEN","city":"SHUNAN SHI","town":"MIDORIGAOKA","perfecture_jp":"山口県","jp_add_1":"周南市","jp_add_2":"緑ケ丘"},"7450075":{"post_code":"7450075","prefecture":"YAMAGUCHI KEN","city":"SHUNAN SHI","town":"MIDORIMACHI","perfecture_jp":"山口県","jp_add_1":"周南市","jp_add_2":"緑町"},"7450868":{"post_code":"7450868","prefecture":"YAMAGUCHI KEN","city":"SHUNAN SHI","town":"MINAMIURAYAMACHO","perfecture_jp":"山口県","jp_add_1":"周南市","jp_add_2":"南浦山町"},"7450033":{"post_code":"7450033","prefecture":"YAMAGUCHI KEN","city":"SHUNAN SHI","town":"MINAMIGINZA","perfecture_jp":"山口県","jp_add_1":"周南市","jp_add_2":"みなみ銀座"},"7450043":{"post_code":"7450043","prefecture":"YAMAGUCHI KEN","city":"SHUNAN SHI","town":"MIYAKOMACHI","perfecture_jp":"山口県","jp_add_1":"周南市","jp_add_2":"都町"},"7450815":{"post_code":"7450815","prefecture":"YAMAGUCHI KEN","city":"SHUNAN SHI","town":"MIYAMAECHO","perfecture_jp":"山口県","jp_add_1":"周南市","jp_add_2":"宮前町"},"7450863":{"post_code":"7450863","prefecture":"YAMAGUCHI KEN","city":"SHUNAN SHI","town":"MIYAMACHO","perfecture_jp":"山口県","jp_add_1":"周南市","jp_add_2":"御山町"},"7450034":{"post_code":"7450034","prefecture":"YAMAGUCHI KEN","city":"SHUNAN SHI","town":"MIYUKIDORI","perfecture_jp":"山口県","jp_add_1":"周南市","jp_add_2":"御幸通り"},"7450004":{"post_code":"7450004","prefecture":"YAMAGUCHI KEN","city":"SHUNAN SHI","town":"MORICHO","perfecture_jp":"山口県","jp_add_1":"周南市","jp_add_2":"毛利町"},"7450501":{"post_code":"7450501","prefecture":"YAMAGUCHI KEN","city":"SHUNAN SHI","town":"YASHIRO","perfecture_jp":"山口県","jp_add_1":"周南市","jp_add_2":"八代"},"7450631":{"post_code":"7450631","prefecture":"YAMAGUCHI KEN","city":"SHUNAN SHI","town":"YASUDA","perfecture_jp":"山口県","jp_add_1":"周南市","jp_add_2":"安田"},"7450021":{"post_code":"7450021","prefecture":"YAMAGUCHI KEN","city":"SHUNAN SHI","town":"YANAGIMACHI","perfecture_jp":"山口県","jp_add_1":"周南市","jp_add_2":"柳町"},"7450072":{"post_code":"7450072","prefecture":"YAMAGUCHI KEN","city":"SHUNAN SHI","town":"YAYOICHO","perfecture_jp":"山口県","jp_add_1":"周南市","jp_add_2":"弥生町"},"7450035":{"post_code":"7450035","prefecture":"YAMAGUCHI KEN","city":"SHUNAN SHI","town":"YURAKUCHO","perfecture_jp":"山口県","jp_add_1":"周南市","jp_add_2":"有楽町"},"7450813":{"post_code":"7450813","prefecture":"YAMAGUCHI KEN","city":"SHUNAN SHI","town":"YUKACHO","perfecture_jp":"山口県","jp_add_1":"周南市","jp_add_2":"由加町"},"7450837":{"post_code":"7450837","prefecture":"YAMAGUCHI KEN","city":"SHUNAN SHI","town":"YUZURIHA","perfecture_jp":"山口県","jp_add_1":"周南市","jp_add_2":"譲羽"},"7451132":{"post_code":"7451132","prefecture":"YAMAGUCHI KEN","city":"SHUNAN SHI","town":"YUNO","perfecture_jp":"山口県","jp_add_1":"周南市","jp_add_2":"湯野"},"7450613":{"post_code":"7450613","prefecture":"YAMAGUCHI KEN","city":"SHUNAN SHI","town":"YUMEGAOKA","perfecture_jp":"山口県","jp_add_1":"周南市","jp_add_2":"夢ケ丘"},"7450812":{"post_code":"7450812","prefecture":"YAMAGUCHI KEN","city":"SHUNAN SHI","town":"YOKOHAMACHO","perfecture_jp":"山口県","jp_add_1":"周南市","jp_add_2":"横浜町"},"7450612":{"post_code":"7450612","prefecture":"YAMAGUCHI KEN","city":"SHUNAN SHI","town":"YOBISAKA","perfecture_jp":"山口県","jp_add_1":"周南市","jp_add_2":"呼坂"},"7450661":{"post_code":"7450661","prefecture":"YAMAGUCHI KEN","city":"SHUNAN SHI","town":"YOBISAKAHOMMACHI","perfecture_jp":"山口県","jp_add_1":"周南市","jp_add_2":"呼坂本町"},"7450073":{"post_code":"7450073","prefecture":"YAMAGUCHI KEN","city":"SHUNAN SHI","town":"YOYOGIDORI","perfecture_jp":"山口県","jp_add_1":"周南市","jp_add_2":"代々木通り"},"7450841":{"post_code":"7450841","prefecture":"YAMAGUCHI KEN","city":"SHUNAN SHI","town":"WAKAKUSACHO","perfecture_jp":"山口県","jp_add_1":"周南市","jp_add_2":"若草町"},"7450016":{"post_code":"7450016","prefecture":"YAMAGUCHI KEN","city":"SHUNAN SHI","town":"WAKAMIYACHO","perfecture_jp":"山口県","jp_add_1":"周南市","jp_add_2":"若宮町"}}