{"7460105":{"post_code":"7460105","prefecture":"YAMAGUCHI KEN","city":"SHUNAN SHI","town":"UMAGAMI","perfecture_jp":"山口県","jp_add_1":"周南市","jp_add_2":"馬神"},"7460027":{"post_code":"7460027","prefecture":"YAMAGUCHI KEN","city":"SHUNAN SHI","town":"OGAWAYACHO","perfecture_jp":"山口県","jp_add_1":"周南市","jp_add_2":"小川屋町"},"7460013":{"post_code":"7460013","prefecture":"YAMAGUCHI KEN","city":"SHUNAN SHI","town":"OKEGAWACHO","perfecture_jp":"山口県","jp_add_1":"周南市","jp_add_2":"桶川町"},"7460083":{"post_code":"7460083","prefecture":"YAMAGUCHI KEN","city":"SHUNAN SHI","town":"OBATA","perfecture_jp":"山口県","jp_add_1":"周南市","jp_add_2":"小畑"},"7460051":{"post_code":"7460051","prefecture":"YAMAGUCHI KEN","city":"SHUNAN SHI","town":"OHIMECHO","perfecture_jp":"山口県","jp_add_1":"周南市","jp_add_2":"御姫町"},"7460036":{"post_code":"7460036","prefecture":"YAMAGUCHI KEN","city":"SHUNAN SHI","town":"ONDA","perfecture_jp":"山口県","jp_add_1":"周南市","jp_add_2":"温田"},"7460006":{"post_code":"7460006","prefecture":"YAMAGUCHI KEN","city":"SHUNAN SHI","town":"KAISEICHO","perfecture_jp":"山口県","jp_add_1":"周南市","jp_add_2":"開成町"},"7460055":{"post_code":"7460055","prefecture":"YAMAGUCHI KEN","city":"SHUNAN SHI","town":"KASEGAWARACHO","perfecture_jp":"山口県","jp_add_1":"周南市","jp_add_2":"かせ河原町"},"7460065":{"post_code":"7460065","prefecture":"YAMAGUCHI KEN","city":"SHUNAN SHI","town":"KAMISAKOCHO","perfecture_jp":"山口県","jp_add_1":"周南市","jp_add_2":"上迫町"},"7460001":{"post_code":"7460001","prefecture":"YAMAGUCHI KEN","city":"SHUNAN SHI","town":"KAWASAKI","perfecture_jp":"山口県","jp_add_1":"周南市","jp_add_2":"川崎"},"7460009":{"post_code":"7460009","prefecture":"YAMAGUCHI KEN","city":"SHUNAN SHI","town":"KAWATE","perfecture_jp":"山口県","jp_add_1":"周南市","jp_add_2":"川手"},"7460024":{"post_code":"7460024","prefecture":"YAMAGUCHI KEN","city":"SHUNAN SHI","town":"KOIZUMI","perfecture_jp":"山口県","jp_add_1":"周南市","jp_add_2":"古泉"},"7460032":{"post_code":"7460032","prefecture":"YAMAGUCHI KEN","city":"SHUNAN SHI","town":"KOCHICHO","perfecture_jp":"山口県","jp_add_1":"周南市","jp_add_2":"河内町"},"7460031":{"post_code":"7460031","prefecture":"YAMAGUCHI KEN","city":"SHUNAN SHI","town":"SAKANECHO","perfecture_jp":"山口県","jp_add_1":"周南市","jp_add_2":"坂根町"},"7460061":{"post_code":"7460061","prefecture":"YAMAGUCHI KEN","city":"SHUNAN SHI","town":"SARAYAMACHO","perfecture_jp":"山口県","jp_add_1":"周南市","jp_add_2":"皿山町"},"7460008":{"post_code":"7460008","prefecture":"YAMAGUCHI KEN","city":"SHUNAN SHI","town":"SHIIGICHO","perfecture_jp":"山口県","jp_add_1":"周南市","jp_add_2":"椎木町"},"7460081":{"post_code":"7460081","prefecture":"YAMAGUCHI KEN","city":"SHUNAN SHI","town":"SHIKUMA","perfecture_jp":"山口県","jp_add_1":"周南市","jp_add_2":"四熊"},"7460015":{"post_code":"7460015","prefecture":"YAMAGUCHI KEN","city":"SHUNAN SHI","town":"SHIMIZU","perfecture_jp":"山口県","jp_add_1":"周南市","jp_add_2":"清水"},"7460082":{"post_code":"7460082","prefecture":"YAMAGUCHI KEN","city":"SHUNAN SHI","town":"SHIMOKAMI","perfecture_jp":"山口県","jp_add_1":"周南市","jp_add_2":"下上"},"7460041":{"post_code":"7460041","prefecture":"YAMAGUCHI KEN","city":"SHUNAN SHI","town":"SHACHICHO","perfecture_jp":"山口県","jp_add_1":"周南市","jp_add_2":"社地町"},"7460045":{"post_code":"7460045","prefecture":"YAMAGUCHI KEN","city":"SHUNAN SHI","town":"SHINCHICHO","perfecture_jp":"山口県","jp_add_1":"周南市","jp_add_2":"新地町"},"7460033":{"post_code":"7460033","prefecture":"YAMAGUCHI KEN","city":"SHUNAN SHI","town":"SHINZUTSUMICHO","perfecture_jp":"山口県","jp_add_1":"周南市","jp_add_2":"新堤町"},"7460043":{"post_code":"7460043","prefecture":"YAMAGUCHI KEN","city":"SHUNAN SHI","town":"SHINDEN","perfecture_jp":"山口県","jp_add_1":"周南市","jp_add_2":"新田"},"7460018":{"post_code":"7460018","prefecture":"YAMAGUCHI KEN","city":"SHUNAN SHI","town":"DAIJIN","perfecture_jp":"山口県","jp_add_1":"周南市","jp_add_2":"大神"},"7460103":{"post_code":"7460103","prefecture":"YAMAGUCHI KEN","city":"SHUNAN SHI","town":"TAO","perfecture_jp":"山口県","jp_add_1":"周南市","jp_add_2":"垰"},"7460101":{"post_code":"7460101","prefecture":"YAMAGUCHI KEN","city":"SHUNAN SHI","town":"TAKASE","perfecture_jp":"山口県","jp_add_1":"周南市","jp_add_2":"高瀬"},"7460007":{"post_code":"7460007","prefecture":"YAMAGUCHI KEN","city":"SHUNAN SHI","town":"TAKESHIMACHO","perfecture_jp":"山口県","jp_add_1":"周南市","jp_add_2":"竹島町"},"7460016":{"post_code":"7460016","prefecture":"YAMAGUCHI KEN","city":"SHUNAN SHI","town":"CHUOCHO","perfecture_jp":"山口県","jp_add_1":"周南市","jp_add_2":"中央町"},"7460011":{"post_code":"7460011","prefecture":"YAMAGUCHI KEN","city":"SHUNAN SHI","town":"DOI","perfecture_jp":"山口県","jp_add_1":"周南市","jp_add_2":"土井"},"7460003":{"post_code":"7460003","prefecture":"YAMAGUCHI KEN","city":"SHUNAN SHI","town":"DOGENCHO","perfecture_jp":"山口県","jp_add_1":"周南市","jp_add_2":"道源町"},"7460034":{"post_code":"7460034","prefecture":"YAMAGUCHI KEN","city":"SHUNAN SHI","town":"TONDA","perfecture_jp":"山口県","jp_add_1":"周南市","jp_add_2":"富田"},"7460054":{"post_code":"7460054","prefecture":"YAMAGUCHI KEN","city":"SHUNAN SHI","town":"NAGATACHO","perfecture_jp":"山口県","jp_add_1":"周南市","jp_add_2":"長田町"},"7460052":{"post_code":"7460052","prefecture":"YAMAGUCHI KEN","city":"SHUNAN SHI","town":"NAKANAWATECHO","perfecture_jp":"山口県","jp_add_1":"周南市","jp_add_2":"中畷町"},"7460005":{"post_code":"7460005","prefecture":"YAMAGUCHI KEN","city":"SHUNAN SHI","town":"NAGISACHO","perfecture_jp":"山口県","jp_add_1":"周南市","jp_add_2":"渚町"},"7460102":{"post_code":"7460102","prefecture":"YAMAGUCHI KEN","city":"SHUNAN SHI","town":"NATSUKIRI","perfecture_jp":"山口県","jp_add_1":"周南市","jp_add_2":"夏切"},"7460002":{"post_code":"7460002","prefecture":"YAMAGUCHI KEN","city":"SHUNAN SHI","town":"NISHICHIYODACHO","perfecture_jp":"山口県","jp_add_1":"周南市","jp_add_2":"西千代田町"},"7460044":{"post_code":"7460044","prefecture":"YAMAGUCHI KEN","city":"SHUNAN SHI","town":"NISHIMASUCHO","perfecture_jp":"山口県","jp_add_1":"周南市","jp_add_2":"西桝町"},"7460022":{"post_code":"7460022","prefecture":"YAMAGUCHI KEN","city":"SHUNAN SHI","town":"NOMURA","perfecture_jp":"山口県","jp_add_1":"周南市","jp_add_2":"野村"},"7460023":{"post_code":"7460023","prefecture":"YAMAGUCHI KEN","city":"SHUNAN SHI","town":"NOMURAMINAMIMACHI","perfecture_jp":"山口県","jp_add_1":"周南市","jp_add_2":"野村南町"},"7460056":{"post_code":"7460056","prefecture":"YAMAGUCHI KEN","city":"SHUNAN SHI","town":"HAJIMA","perfecture_jp":"山口県","jp_add_1":"周南市","jp_add_2":"羽島"},"7460021":{"post_code":"7460021","prefecture":"YAMAGUCHI KEN","city":"SHUNAN SHI","town":"HANAZONOCHO","perfecture_jp":"山口県","jp_add_1":"周南市","jp_add_2":"花園町"},"7460026":{"post_code":"7460026","prefecture":"YAMAGUCHI KEN","city":"SHUNAN SHI","town":"HAMADA","perfecture_jp":"山口県","jp_add_1":"周南市","jp_add_2":"浜田"},"7460035":{"post_code":"7460035","prefecture":"YAMAGUCHI KEN","city":"SHUNAN SHI","town":"HIJICHO","perfecture_jp":"山口県","jp_add_1":"周南市","jp_add_2":"日地町"},"7460029":{"post_code":"7460029","prefecture":"YAMAGUCHI KEN","city":"SHUNAN SHI","town":"HIRANO","perfecture_jp":"山口県","jp_add_1":"周南市","jp_add_2":"平野"},"7460038":{"post_code":"7460038","prefecture":"YAMAGUCHI KEN","city":"SHUNAN SHI","town":"FUKUGAWA","perfecture_jp":"山口県","jp_add_1":"周南市","jp_add_2":"福川"},"7460062":{"post_code":"7460062","prefecture":"YAMAGUCHI KEN","city":"SHUNAN SHI","town":"FUKUGAWANAKAICHICHO","perfecture_jp":"山口県","jp_add_1":"周南市","jp_add_2":"福川中市町"},"7460042":{"post_code":"7460042","prefecture":"YAMAGUCHI KEN","city":"SHUNAN SHI","town":"FUKUGAWAMINAMIMACHI","perfecture_jp":"山口県","jp_add_1":"周南市","jp_add_2":"福川南町"},"7460025":{"post_code":"7460025","prefecture":"YAMAGUCHI KEN","city":"SHUNAN SHI","town":"FURUICHI","perfecture_jp":"山口県","jp_add_1":"周南市","jp_add_2":"古市"},"7460014":{"post_code":"7460014","prefecture":"YAMAGUCHI KEN","city":"SHUNAN SHI","town":"FURUKAWACHO","perfecture_jp":"山口県","jp_add_1":"周南市","jp_add_2":"古川町"},"7460063":{"post_code":"7460063","prefecture":"YAMAGUCHI KEN","city":"SHUNAN SHI","town":"HONJINCHO","perfecture_jp":"山口県","jp_add_1":"周南市","jp_add_2":"本陣町"},"7460012":{"post_code":"7460012","prefecture":"YAMAGUCHI KEN","city":"SHUNAN SHI","town":"MADOKORO","perfecture_jp":"山口県","jp_add_1":"周南市","jp_add_2":"政所"},"7460037":{"post_code":"7460037","prefecture":"YAMAGUCHI KEN","city":"SHUNAN SHI","town":"MARUYAMACHO","perfecture_jp":"山口県","jp_add_1":"周南市","jp_add_2":"丸山町"},"7460004":{"post_code":"7460004","prefecture":"YAMAGUCHI KEN","city":"SHUNAN SHI","town":"MISASACHO","perfecture_jp":"山口県","jp_add_1":"周南市","jp_add_2":"三笹町"},"7460028":{"post_code":"7460028","prefecture":"YAMAGUCHI KEN","city":"SHUNAN SHI","town":"MINATOMACHI","perfecture_jp":"山口県","jp_add_1":"周南市","jp_add_2":"港町"},"7460017":{"post_code":"7460017","prefecture":"YAMAGUCHI KEN","city":"SHUNAN SHI","town":"MIYANOMAE","perfecture_jp":"山口県","jp_add_1":"周南市","jp_add_2":"宮の前"},"7460053":{"post_code":"7460053","prefecture":"YAMAGUCHI KEN","city":"SHUNAN SHI","town":"MURO","perfecture_jp":"山口県","jp_add_1":"周南市","jp_add_2":"室尾"},"7460084":{"post_code":"7460084","prefecture":"YAMAGUCHI KEN","city":"SHUNAN SHI","town":"YAJI","perfecture_jp":"山口県","jp_add_1":"周南市","jp_add_2":"夜市"},"7460104":{"post_code":"7460104","prefecture":"YAMAGUCHI KEN","city":"SHUNAN SHI","town":"YONEMITSU","perfecture_jp":"山口県","jp_add_1":"周南市","jp_add_2":"米光"},"7460019":{"post_code":"7460019","prefecture":"YAMAGUCHI KEN","city":"SHUNAN SHI","town":"RINKAICHO","perfecture_jp":"山口県","jp_add_1":"周南市","jp_add_2":"臨海町"},"7460064":{"post_code":"7460064","prefecture":"YAMAGUCHI KEN","city":"SHUNAN SHI","town":"WAKAYAMA","perfecture_jp":"山口県","jp_add_1":"周南市","jp_add_2":"若山"}}