{"7500000":{"post_code":"7500000","prefecture":"YAMAGUCHI KEN","city":"SHIMONOSEKI SHI","town":"IKANIKEISAIGANAIBAAI","perfecture_jp":"山口県","jp_add_1":"下関市","jp_add_2":""},"7500007":{"post_code":"7500007","prefecture":"YAMAGUCHI KEN","city":"SHIMONOSEKI SHI","town":"AKAMACHO","perfecture_jp":"山口県","jp_add_1":"下関市","jp_add_2":"赤間町"},"7500003":{"post_code":"7500003","prefecture":"YAMAGUCHI KEN","city":"SHIMONOSEKI SHI","town":"AMIDAIJICHO","perfecture_jp":"山口県","jp_add_1":"下関市","jp_add_2":"阿弥陀寺町"},"7500036":{"post_code":"7500036","prefecture":"YAMAGUCHI KEN","city":"SHIMONOSEKI SHI","town":"ARUKAPOTO","perfecture_jp":"山口県","jp_add_1":"下関市","jp_add_2":"あるかぽーと"},"7500065":{"post_code":"7500065","prefecture":"YAMAGUCHI KEN","city":"SHIMONOSEKI SHI","town":"IZAKICHO","perfecture_jp":"山口県","jp_add_1":"下関市","jp_add_2":"伊崎町"},"7500064":{"post_code":"7500064","prefecture":"YAMAGUCHI KEN","city":"SHIMONOSEKI SHI","town":"IMAURACHO","perfecture_jp":"山口県","jp_add_1":"下関市","jp_add_2":"今浦町"},"7500013":{"post_code":"7500013","prefecture":"YAMAGUCHI KEN","city":"SHIMONOSEKI SHI","town":"IRIECHO","perfecture_jp":"山口県","jp_add_1":"下関市","jp_add_2":"入江町"},"7500027":{"post_code":"7500027","prefecture":"YAMAGUCHI KEN","city":"SHIMONOSEKI SHI","town":"UEJOCHO","perfecture_jp":"山口県","jp_add_1":"下関市","jp_add_2":"上条町"},"7500251":{"post_code":"7500251","prefecture":"YAMAGUCHI KEN","city":"SHIMONOSEKI SHI","town":"UEDA","perfecture_jp":"山口県","jp_add_1":"下関市","jp_add_2":"植田"},"7500252":{"post_code":"7500252","prefecture":"YAMAGUCHI KEN","city":"SHIMONOSEKI SHI","town":"UTSUI KAMI","perfecture_jp":"山口県","jp_add_1":"下関市","jp_add_2":"内日上"},"7500253":{"post_code":"7500253","prefecture":"YAMAGUCHI KEN","city":"SHIMONOSEKI SHI","town":"UTSUI SHIMO","perfecture_jp":"山口県","jp_add_1":"下関市","jp_add_2":"内日下"},"7501111":{"post_code":"7501111","prefecture":"YAMAGUCHI KEN","city":"SHIMONOSEKI SHI","town":"UZUI","perfecture_jp":"山口県","jp_add_1":"下関市","jp_add_2":"宇津井"},"7501115":{"post_code":"7501115","prefecture":"YAMAGUCHI KEN","city":"SHIMONOSEKI SHI","town":"OKIUZUI","perfecture_jp":"山口県","jp_add_1":"下関市","jp_add_2":"王喜宇津井"},"7501114":{"post_code":"7501114","prefecture":"YAMAGUCHI KEN","city":"SHIMONOSEKI SHI","town":"OKIHOMMACHI","perfecture_jp":"山口県","jp_add_1":"下関市","jp_add_2":"王喜本町"},"7501171":{"post_code":"7501171","prefecture":"YAMAGUCHI KEN","city":"SHIMONOSEKI SHI","town":"OCHI","perfecture_jp":"山口県","jp_add_1":"下関市","jp_add_2":"阿内"},"7500051":{"post_code":"7500051","prefecture":"YAMAGUCHI KEN","city":"SHIMONOSEKI SHI","town":"OTSUBOHOMMACHI","perfecture_jp":"山口県","jp_add_1":"下関市","jp_add_2":"大坪本町"},"7501147":{"post_code":"7501147","prefecture":"YAMAGUCHI KEN","city":"SHIMONOSEKI SHI","town":"OZUKI ICHIHARACHO","perfecture_jp":"山口県","jp_add_1":"下関市","jp_add_2":"小月市原町"},"7501143":{"post_code":"7501143","prefecture":"YAMAGUCHI KEN","city":"SHIMONOSEKI SHI","town":"OZUKI EKIMAE","perfecture_jp":"山口県","jp_add_1":"下関市","jp_add_2":"小月駅前"},"7501134":{"post_code":"7501134","prefecture":"YAMAGUCHI KEN","city":"SHIMONOSEKI SHI","town":"OZUKI KYODOMARI","perfecture_jp":"山口県","jp_add_1":"下関市","jp_add_2":"小月京泊"},"7501146":{"post_code":"7501146","prefecture":"YAMAGUCHI KEN","city":"SHIMONOSEKI SHI","town":"OZUKI KOENCHO","perfecture_jp":"山口県","jp_add_1":"下関市","jp_add_2":"小月公園町"},"7501136":{"post_code":"7501136","prefecture":"YAMAGUCHI KEN","city":"SHIMONOSEKI SHI","town":"OZUKI KOJIMA","perfecture_jp":"山口県","jp_add_1":"下関市","jp_add_2":"小月小島"},"7501141":{"post_code":"7501141","prefecture":"YAMAGUCHI KEN","city":"SHIMONOSEKI SHI","town":"OZUKI SAIWAIMACHI","perfecture_jp":"山口県","jp_add_1":"下関市","jp_add_2":"小月幸町"},"7501145":{"post_code":"7501145","prefecture":"YAMAGUCHI KEN","city":"SHIMONOSEKI SHI","town":"OZUKI SUGISAKO","perfecture_jp":"山口県","jp_add_1":"下関市","jp_add_2":"小月杉迫"},"7501133":{"post_code":"7501133","prefecture":"YAMAGUCHI KEN","city":"SHIMONOSEKI SHI","town":"OZUKI TAKAOCHO","perfecture_jp":"山口県","jp_add_1":"下関市","jp_add_2":"小月高雄町"},"7501144":{"post_code":"7501144","prefecture":"YAMAGUCHI KEN","city":"SHIMONOSEKI SHI","town":"OZUKI CHAYA","perfecture_jp":"山口県","jp_add_1":"下関市","jp_add_2":"小月茶屋"},"7501131":{"post_code":"7501131","prefecture":"YAMAGUCHI KEN","city":"SHIMONOSEKI SHI","town":"OZUKI CHO","perfecture_jp":"山口県","jp_add_1":"下関市","jp_add_2":"小月町"},"7501135":{"post_code":"7501135","prefecture":"YAMAGUCHI KEN","city":"SHIMONOSEKI SHI","town":"OZUKI NISHINODAI","perfecture_jp":"山口県","jp_add_1":"下関市","jp_add_2":"小月西の台"},"7501142":{"post_code":"7501142","prefecture":"YAMAGUCHI KEN","city":"SHIMONOSEKI SHI","town":"OZUKI HOMMACHI","perfecture_jp":"山口県","jp_add_1":"下関市","jp_add_2":"小月本町"},"7501137":{"post_code":"7501137","prefecture":"YAMAGUCHI KEN","city":"SHIMONOSEKI SHI","town":"OZUKI MINAMIMACHI","perfecture_jp":"山口県","jp_add_1":"下関市","jp_add_2":"小月南町"},"7501132":{"post_code":"7501132","prefecture":"YAMAGUCHI KEN","city":"SHIMONOSEKI SHI","town":"OZUKI MIYANOMACHI","perfecture_jp":"山口県","jp_add_1":"下関市","jp_add_2":"小月宮の町"},"7500031":{"post_code":"7500031","prefecture":"YAMAGUCHI KEN","city":"SHIMONOSEKI SHI","town":"KASUGACHO","perfecture_jp":"山口県","jp_add_1":"下関市","jp_add_2":"春日町"},"7500061":{"post_code":"7500061","prefecture":"YAMAGUCHI KEN","city":"SHIMONOSEKI SHI","town":"KAMISHINCHICHO","perfecture_jp":"山口県","jp_add_1":"下関市","jp_add_2":"上新地町"},"7500009":{"post_code":"7500009","prefecture":"YAMAGUCHI KEN","city":"SHIMONOSEKI SHI","town":"KAMITANAKAMACHI","perfecture_jp":"山口県","jp_add_1":"下関市","jp_add_2":"上田中町"},"7500005":{"post_code":"7500005","prefecture":"YAMAGUCHI KEN","city":"SHIMONOSEKI SHI","town":"KARATOCHO","perfecture_jp":"山口県","jp_add_1":"下関市","jp_add_2":"唐戸町"},"7500032":{"post_code":"7500032","prefecture":"YAMAGUCHI KEN","city":"SHIMONOSEKI SHI","town":"KANSEICHO","perfecture_jp":"山口県","jp_add_1":"下関市","jp_add_2":"関西町"},"7500022":{"post_code":"7500022","prefecture":"YAMAGUCHI KEN","city":"SHIMONOSEKI SHI","town":"KANSEIHOMMACHI","perfecture_jp":"山口県","jp_add_1":"下関市","jp_add_2":"関西本町"},"7500044":{"post_code":"7500044","prefecture":"YAMAGUCHI KEN","city":"SHIMONOSEKI SHI","town":"KANDACHO","perfecture_jp":"山口県","jp_add_1":"下関市","jp_add_2":"神田町"},"7500012":{"post_code":"7500012","prefecture":"YAMAGUCHI KEN","city":"SHIMONOSEKI SHI","town":"KANNONZAKICHO","perfecture_jp":"山口県","jp_add_1":"下関市","jp_add_2":"観音崎町"},"7500311":{"post_code":"7500311","prefecture":"YAMAGUCHI KEN","city":"SHIMONOSEKI SHI","town":"KIKUGAWACHO KAMIONO","perfecture_jp":"山口県","jp_add_1":"下関市","jp_add_2":"菊川町上大野"},"7500321":{"post_code":"7500321","prefecture":"YAMAGUCHI KEN","city":"SHIMONOSEKI SHI","town":"KIKUGAWACHO KAMIOKAEDA","perfecture_jp":"山口県","jp_add_1":"下関市","jp_add_2":"菊川町上岡枝"},"7500314":{"post_code":"7500314","prefecture":"YAMAGUCHI KEN","city":"SHIMONOSEKI SHI","town":"KIKUGAWACHO KAMITABE","perfecture_jp":"山口県","jp_add_1":"下関市","jp_add_2":"菊川町上田部"},"7500307":{"post_code":"7500307","prefecture":"YAMAGUCHI KEN","city":"SHIMONOSEKI SHI","town":"KIKUGAWACHO KAMIHOKI","perfecture_jp":"山口県","jp_add_1":"下関市","jp_add_2":"菊川町上保木"},"7500325":{"post_code":"7500325","prefecture":"YAMAGUCHI KEN","city":"SHIMONOSEKI SHI","town":"KIKUGAWACHO KIBA","perfecture_jp":"山口県","jp_add_1":"下関市","jp_add_2":"菊川町貴飯"},"7500305":{"post_code":"7500305","prefecture":"YAMAGUCHI KEN","city":"SHIMONOSEKI SHI","town":"KIKUGAWACHO KUTSUWAI","perfecture_jp":"山口県","jp_add_1":"下関市","jp_add_2":"菊川町轡井"},"7500324":{"post_code":"7500324","prefecture":"YAMAGUCHI KEN","city":"SHIMONOSEKI SHI","town":"KIKUGAWACHO KUNO","perfecture_jp":"山口県","jp_add_1":"下関市","jp_add_2":"菊川町久野"},"7500312":{"post_code":"7500312","prefecture":"YAMAGUCHI KEN","city":"SHIMONOSEKI SHI","town":"KIKUGAWACHO SHIMOONO","perfecture_jp":"山口県","jp_add_1":"下関市","jp_add_2":"菊川町下大野"},"7500317":{"post_code":"7500317","prefecture":"YAMAGUCHI KEN","city":"SHIMONOSEKI SHI","town":"KIKUGAWACHO SHIMOKAEDA","perfecture_jp":"山口県","jp_add_1":"下関市","jp_add_2":"菊川町下岡枝"},"7500306":{"post_code":"7500306","prefecture":"YAMAGUCHI KEN","city":"SHIMONOSEKI SHI","town":"KIKUGAWACHO SHIMOHOKI","perfecture_jp":"山口県","jp_add_1":"下関市","jp_add_2":"菊川町下保木"},"7500313":{"post_code":"7500313","prefecture":"YAMAGUCHI KEN","city":"SHIMONOSEKI SHI","town":"KIKUGAWACHO TABE","perfecture_jp":"山口県","jp_add_1":"下関市","jp_add_2":"菊川町田部"},"7500315":{"post_code":"7500315","prefecture":"YAMAGUCHI KEN","city":"SHIMONOSEKI SHI","town":"KIKUGAWACHO NANAMI","perfecture_jp":"山口県","jp_add_1":"下関市","jp_add_2":"菊川町七見"},"7500322":{"post_code":"7500322","prefecture":"YAMAGUCHI KEN","city":"SHIMONOSEKI SHI","town":"KIKUGAWACHO NARAZAKI","perfecture_jp":"山口県","jp_add_1":"下関市","jp_add_2":"菊川町楢崎"},"7500301":{"post_code":"7500301","prefecture":"YAMAGUCHI KEN","city":"SHIMONOSEKI SHI","town":"KIKUGAWACHO NISHINAKAYAMA","perfecture_jp":"山口県","jp_add_1":"下関市","jp_add_2":"菊川町西中山"},"7500323":{"post_code":"7500323","prefecture":"YAMAGUCHI KEN","city":"SHIMONOSEKI SHI","town":"KIKUGAWACHO NISSHIN","perfecture_jp":"山口県","jp_add_1":"下関市","jp_add_2":"菊川町日新"},"7500302":{"post_code":"7500302","prefecture":"YAMAGUCHI KEN","city":"SHIMONOSEKI SHI","town":"KIKUGAWACHO HIGASHINAKAYAMA","perfecture_jp":"山口県","jp_add_1":"下関市","jp_add_2":"菊川町東中山"},"7500304":{"post_code":"7500304","prefecture":"YAMAGUCHI KEN","city":"SHIMONOSEKI SHI","town":"KIKUGAWACHO MICHIICHI","perfecture_jp":"山口県","jp_add_1":"下関市","jp_add_2":"菊川町道市"},"7500303":{"post_code":"7500303","prefecture":"YAMAGUCHI KEN","city":"SHIMONOSEKI SHI","town":"KIKUGAWACHO MOMINOKI","perfecture_jp":"山口県","jp_add_1":"下関市","jp_add_2":"菊川町樅ノ木"},"7500316":{"post_code":"7500316","prefecture":"YAMAGUCHI KEN","city":"SHIMONOSEKI SHI","town":"KIKUGAWACHO YOSHIKA","perfecture_jp":"山口県","jp_add_1":"下関市","jp_add_2":"菊川町吉賀"},"7501151":{"post_code":"7501151","prefecture":"YAMAGUCHI KEN","city":"SHIMONOSEKI SHI","town":"KIYOSUE","perfecture_jp":"山口県","jp_add_1":"下関市","jp_add_2":"清末"},"7501156":{"post_code":"7501156","prefecture":"YAMAGUCHI KEN","city":"SHIMONOSEKI SHI","town":"KIYOSUE HIGASHIMACHI","perfecture_jp":"山口県","jp_add_1":"下関市","jp_add_2":"清末東町"},"7501153":{"post_code":"7501153","prefecture":"YAMAGUCHI KEN","city":"SHIMONOSEKI SHI","town":"KIYOSUE KURAMA","perfecture_jp":"山口県","jp_add_1":"下関市","jp_add_2":"清末鞍馬"},"7501162":{"post_code":"7501162","prefecture":"YAMAGUCHI KEN","city":"SHIMONOSEKI SHI","town":"KIYOSUE GOMO","perfecture_jp":"山口県","jp_add_1":"下関市","jp_add_2":"清末五毛"},"7501152":{"post_code":"7501152","prefecture":"YAMAGUCHI KEN","city":"SHIMONOSEKI SHI","town":"KIYOSUE JINYA","perfecture_jp":"山口県","jp_add_1":"下関市","jp_add_2":"清末陣屋"},"7501163":{"post_code":"7501163","prefecture":"YAMAGUCHI KEN","city":"SHIMONOSEKI SHI","town":"KIYOSUE SEMBO","perfecture_jp":"山口県","jp_add_1":"下関市","jp_add_2":"清末千房"},"7501164":{"post_code":"7501164","prefecture":"YAMAGUCHI KEN","city":"SHIMONOSEKI SHI","town":"KIYOSUE DAIMON","perfecture_jp":"山口県","jp_add_1":"下関市","jp_add_2":"清末大門"},"7501155":{"post_code":"7501155","prefecture":"YAMAGUCHI KEN","city":"SHIMONOSEKI SHI","town":"KIYOSUE NAKAMACHI","perfecture_jp":"山口県","jp_add_1":"下関市","jp_add_2":"清末中町"},"7501161":{"post_code":"7501161","prefecture":"YAMAGUCHI KEN","city":"SHIMONOSEKI SHI","town":"KIYOSUE NISHIMACHI","perfecture_jp":"山口県","jp_add_1":"下関市","jp_add_2":"清末西町"},"7501154":{"post_code":"7501154","prefecture":"YAMAGUCHI KEN","city":"SHIMONOSEKI SHI","town":"KIYOSUE HOMMACHI","perfecture_jp":"山口県","jp_add_1":"下関市","jp_add_2":"清末本町"},"7500041":{"post_code":"7500041","prefecture":"YAMAGUCHI KEN","city":"SHIMONOSEKI SHI","town":"KOYOCHO","perfecture_jp":"山口県","jp_add_1":"下関市","jp_add_2":"向洋町"},"7501112":{"post_code":"7501112","prefecture":"YAMAGUCHI KEN","city":"SHIMONOSEKI SHI","town":"KOYAGAWAHOMMACHI","perfecture_jp":"山口県","jp_add_1":"下関市","jp_add_2":"木屋川本町"},"7501113":{"post_code":"7501113","prefecture":"YAMAGUCHI KEN","city":"SHIMONOSEKI SHI","town":"KOYAGAWAMINAMIMACHI","perfecture_jp":"山口県","jp_add_1":"下関市","jp_add_2":"木屋川南町"},"7500058":{"post_code":"7500058","prefecture":"YAMAGUCHI KEN","city":"SHIMONOSEKI SHI","town":"KOMPIRACHO","perfecture_jp":"山口県","jp_add_1":"下関市","jp_add_2":"金比羅町"},"7500001":{"post_code":"7500001","prefecture":"YAMAGUCHI KEN","city":"SHIMONOSEKI SHI","town":"SAIWAIMACHI","perfecture_jp":"山口県","jp_add_1":"下関市","jp_add_2":"幸町"},"7500049":{"post_code":"7500049","prefecture":"YAMAGUCHI KEN","city":"SHIMONOSEKI SHI","town":"SAKAEMACHI","perfecture_jp":"山口県","jp_add_1":"下関市","jp_add_2":"栄町"},"7500035":{"post_code":"7500035","prefecture":"YAMAGUCHI KEN","city":"SHIMONOSEKI SHI","town":"SAKURAYAMACHO","perfecture_jp":"山口県","jp_add_1":"下関市","jp_add_2":"桜山町"},"7500024":{"post_code":"7500024","prefecture":"YAMAGUCHI KEN","city":"SHIMONOSEKI SHI","town":"SASAYAMACHO","perfecture_jp":"山口県","jp_add_1":"下関市","jp_add_2":"笹山町"},"7500059":{"post_code":"7500059","prefecture":"YAMAGUCHI KEN","city":"SHIMONOSEKI SHI","town":"SHIOIRICHO","perfecture_jp":"山口県","jp_add_1":"下関市","jp_add_2":"汐入町"},"7501116":{"post_code":"7501116","prefecture":"YAMAGUCHI KEN","city":"SHIMONOSEKI SHI","town":"SHIRASAKI","perfecture_jp":"山口県","jp_add_1":"下関市","jp_add_2":"白崎"},"7500063":{"post_code":"7500063","prefecture":"YAMAGUCHI KEN","city":"SHIMONOSEKI SHI","town":"SHINCHICHO","perfecture_jp":"山口県","jp_add_1":"下関市","jp_add_2":"新地町"},"7500062":{"post_code":"7500062","prefecture":"YAMAGUCHI KEN","city":"SHIMONOSEKI SHI","town":"SHINCHINISHIMACHI","perfecture_jp":"山口県","jp_add_1":"下関市","jp_add_2":"新地西町"},"7500057":{"post_code":"7500057","prefecture":"YAMAGUCHI KEN","city":"SHIMONOSEKI SHI","town":"SUJIKAWACHO","perfecture_jp":"山口県","jp_add_1":"下関市","jp_add_2":"筋川町"},"7500056":{"post_code":"7500056","prefecture":"YAMAGUCHI KEN","city":"SHIMONOSEKI SHI","town":"SUJIGAHAMACHO","perfecture_jp":"山口県","jp_add_1":"下関市","jp_add_2":"筋ケ浜町"},"7500053":{"post_code":"7500053","prefecture":"YAMAGUCHI KEN","city":"SHIMONOSEKI SHI","town":"TAIHEICHO","perfecture_jp":"山口県","jp_add_1":"下関市","jp_add_2":"大平町"},"7500025":{"post_code":"7500025","prefecture":"YAMAGUCHI KEN","city":"SHIMONOSEKI SHI","town":"TAKEZAKICHO","perfecture_jp":"山口県","jp_add_1":"下関市","jp_add_2":"竹崎町"},"7500008":{"post_code":"7500008","prefecture":"YAMAGUCHI KEN","city":"SHIMONOSEKI SHI","town":"TANAKAMACHI","perfecture_jp":"山口県","jp_add_1":"下関市","jp_add_2":"田中町"},"7500042":{"post_code":"7500042","prefecture":"YAMAGUCHI KEN","city":"SHIMONOSEKI SHI","town":"CHUOCHO","perfecture_jp":"山口県","jp_add_1":"下関市","jp_add_2":"中央町"},"7500451":{"post_code":"7500451","prefecture":"YAMAGUCHI KEN","city":"SHIMONOSEKI SHI","town":"TOYOTACHO AZAKAMI","perfecture_jp":"山口県","jp_add_1":"下関市","jp_add_2":"豊田町阿座上"},"7500404":{"post_code":"7500404","prefecture":"YAMAGUCHI KEN","city":"SHIMONOSEKI SHI","town":"TOYOTACHO ARAKI","perfecture_jp":"山口県","jp_add_1":"下関市","jp_add_2":"豊田町荒木"},"7500403":{"post_code":"7500403","prefecture":"YAMAGUCHI KEN","city":"SHIMONOSEKI SHI","town":"TOYOTACHO ICHINOMATA","perfecture_jp":"山口県","jp_add_1":"下関市","jp_add_2":"豊田町一ノ俣"},"7500412":{"post_code":"7500412","prefecture":"YAMAGUCHI KEN","city":"SHIMONOSEKI SHI","town":"TOYOTACHO INAMI","perfecture_jp":"山口県","jp_add_1":"下関市","jp_add_2":"豊田町稲見"},"7500442":{"post_code":"7500442","prefecture":"YAMAGUCHI KEN","city":"SHIMONOSEKI SHI","town":"TOYOTACHO INAMITSU","perfecture_jp":"山口県","jp_add_1":"下関市","jp_add_2":"豊田町稲光"},"7500431":{"post_code":"7500431","prefecture":"YAMAGUCHI KEN","city":"SHIMONOSEKI SHI","town":"TOYOTACHO IMADE","perfecture_jp":"山口県","jp_add_1":"下関市","jp_add_2":"豊田町今出"},"7500415":{"post_code":"7500415","prefecture":"YAMAGUCHI KEN","city":"SHIMONOSEKI SHI","town":"TOYOTACHO UKIISHI","perfecture_jp":"山口県","jp_add_1":"下関市","jp_add_2":"豊田町浮石"},"7500411":{"post_code":"7500411","prefecture":"YAMAGUCHI KEN","city":"SHIMONOSEKI SHI","town":"TOYOTACHO UNAI","perfecture_jp":"山口県","jp_add_1":"下関市","jp_add_2":"豊田町宇内"},"7500452":{"post_code":"7500452","prefecture":"YAMAGUCHI KEN","city":"SHIMONOSEKI SHI","town":"TOYOTACHO ERA","perfecture_jp":"山口県","jp_add_1":"下関市","jp_add_2":"豊田町江良"},"7500433":{"post_code":"7500433","prefecture":"YAMAGUCHI KEN","city":"SHIMONOSEKI SHI","town":"TOYOTACHO OKAWACHI","perfecture_jp":"山口県","jp_add_1":"下関市","jp_add_2":"豊田町大河内"},"7500455":{"post_code":"7500455","prefecture":"YAMAGUCHI KEN","city":"SHIMONOSEKI SHI","town":"TOYOTACHO KIDO","perfecture_jp":"山口県","jp_add_1":"下関市","jp_add_2":"豊田町城戸"},"7500413":{"post_code":"7500413","prefecture":"YAMAGUCHI KEN","city":"SHIMONOSEKI SHI","town":"TOYOTACHO KINDO","perfecture_jp":"山口県","jp_add_1":"下関市","jp_add_2":"豊田町金道"},"7500402":{"post_code":"7500402","prefecture":"YAMAGUCHI KEN","city":"SHIMONOSEKI SHI","town":"TOYOTACHO SANO","perfecture_jp":"山口県","jp_add_1":"下関市","jp_add_2":"豊田町佐野"},"7500432":{"post_code":"7500432","prefecture":"YAMAGUCHI KEN","city":"SHIMONOSEKI SHI","town":"TOYOTACHO JIYOSHI","perfecture_jp":"山口県","jp_add_1":"下関市","jp_add_2":"豊田町地吉"},"7500416":{"post_code":"7500416","prefecture":"YAMAGUCHI KEN","city":"SHIMONOSEKI SHI","town":"TOYOTACHO TAKANOKO","perfecture_jp":"山口県","jp_add_1":"下関市","jp_add_2":"豊田町鷹子"},"7500446":{"post_code":"7500446","prefecture":"YAMAGUCHI KEN","city":"SHIMONOSEKI SHI","town":"TOYOTACHO TAKAYAMA","perfecture_jp":"山口県","jp_add_1":"下関市","jp_add_2":"豊田町高山"},"7500453":{"post_code":"7500453","prefecture":"YAMAGUCHI KEN","city":"SHIMONOSEKI SHI","town":"TOYOTACHO TARAI","perfecture_jp":"山口県","jp_add_1":"下関市","jp_add_2":"豊田町手洗"},"7500401":{"post_code":"7500401","prefecture":"YAMAGUCHI KEN","city":"SHIMONOSEKI SHI","town":"TOYOTACHO TONOI","perfecture_jp":"山口県","jp_add_1":"下関市","jp_add_2":"豊田町殿居"},"7500421":{"post_code":"7500421","prefecture":"YAMAGUCHI KEN","city":"SHIMONOSEKI SHI","town":"TOYOTACHO TONOSHIKI","perfecture_jp":"山口県","jp_add_1":"下関市","jp_add_2":"豊田町殿敷"},"7500441":{"post_code":"7500441","prefecture":"YAMAGUCHI KEN","city":"SHIMONOSEKI SHI","town":"TOYOTACHO NAKAMURA","perfecture_jp":"山口県","jp_add_1":"下関市","jp_add_2":"豊田町中村"},"7500422":{"post_code":"7500422","prefecture":"YAMAGUCHI KEN","city":"SHIMONOSEKI SHI","town":"TOYOTACHO NARAWARA","perfecture_jp":"山口県","jp_add_1":"下関市","jp_add_2":"豊田町楢原"},"7500423":{"post_code":"7500423","prefecture":"YAMAGUCHI KEN","city":"SHIMONOSEKI SHI","town":"TOYOTACHO NISHIICHI","perfecture_jp":"山口県","jp_add_1":"下関市","jp_add_2":"豊田町西市"},"7500454":{"post_code":"7500454","prefecture":"YAMAGUCHI KEN","city":"SHIMONOSEKI SHI","town":"TOYOTACHO NISHINAGANO","perfecture_jp":"山口県","jp_add_1":"下関市","jp_add_2":"豊田町西長野"},"7500425":{"post_code":"7500425","prefecture":"YAMAGUCHI KEN","city":"SHIMONOSEKI SHI","town":"TOYOTACHO NIWATA","perfecture_jp":"山口県","jp_add_1":"下関市","jp_add_2":"豊田町庭田"},"7500444":{"post_code":"7500444","prefecture":"YAMAGUCHI KEN","city":"SHIMONOSEKI SHI","town":"TOYOTACHO HAGIWARA","perfecture_jp":"山口県","jp_add_1":"下関市","jp_add_2":"豊田町萩原"},"7500445":{"post_code":"7500445","prefecture":"YAMAGUCHI KEN","city":"SHIMONOSEKI SHI","town":"TOYOTACHO HIGASHINAGANO","perfecture_jp":"山口県","jp_add_1":"下関市","jp_add_2":"豊田町東長野"},"7500443":{"post_code":"7500443","prefecture":"YAMAGUCHI KEN","city":"SHIMONOSEKI SHI","town":"TOYOTACHO HINO","perfecture_jp":"山口県","jp_add_1":"下関市","jp_add_2":"豊田町日野"},"7500405":{"post_code":"7500405","prefecture":"YAMAGUCHI KEN","city":"SHIMONOSEKI SHI","town":"TOYOTACHO MUKUROJI","perfecture_jp":"山口県","jp_add_1":"下関市","jp_add_2":"豊田町杢路子"},"7500414":{"post_code":"7500414","prefecture":"YAMAGUCHI KEN","city":"SHIMONOSEKI SHI","town":"TOYOTACHO YAJI","perfecture_jp":"山口県","jp_add_1":"下関市","jp_add_2":"豊田町八道"},"7500424":{"post_code":"7500424","prefecture":"YAMAGUCHI KEN","city":"SHIMONOSEKI SHI","town":"TOYOTACHO YATA","perfecture_jp":"山口県","jp_add_1":"下関市","jp_add_2":"豊田町矢田"},"7500004":{"post_code":"7500004","prefecture":"YAMAGUCHI KEN","city":"SHIMONOSEKI SHI","town":"NAKANOCHO","perfecture_jp":"山口県","jp_add_1":"下関市","jp_add_2":"中之町"},"7500023":{"post_code":"7500023","prefecture":"YAMAGUCHI KEN","city":"SHIMONOSEKI SHI","town":"NAGASAKI SHIMMACHI","perfecture_jp":"山口県","jp_add_1":"下関市","jp_add_2":"長崎新町"},"7500021":{"post_code":"7500021","prefecture":"YAMAGUCHI KEN","city":"SHIMONOSEKI SHI","town":"NAGASAKI CHUOCHO","perfecture_jp":"山口県","jp_add_1":"下関市","jp_add_2":"長崎中央町"},"7500028":{"post_code":"7500028","prefecture":"YAMAGUCHI KEN","city":"SHIMONOSEKI SHI","town":"NAGASAKI HOMMACHI","perfecture_jp":"山口県","jp_add_1":"下関市","jp_add_2":"長崎本町"},"7500029":{"post_code":"7500029","prefecture":"YAMAGUCHI KEN","city":"SHIMONOSEKI SHI","town":"NAGASAKICHO","perfecture_jp":"山口県","jp_add_1":"下関市","jp_add_2":"長崎町"},"7500026":{"post_code":"7500026","prefecture":"YAMAGUCHI KEN","city":"SHIMONOSEKI SHI","town":"NAGATOMACHI","perfecture_jp":"山口県","jp_add_1":"下関市","jp_add_2":"長門町"},"7500006":{"post_code":"7500006","prefecture":"YAMAGUCHI KEN","city":"SHIMONOSEKI SHI","town":"NABECHO","perfecture_jp":"山口県","jp_add_1":"下関市","jp_add_2":"南部町"},"7500015":{"post_code":"7500015","prefecture":"YAMAGUCHI KEN","city":"SHIMONOSEKI SHI","town":"NISHIIRIECHO","perfecture_jp":"山口県","jp_add_1":"下関市","jp_add_2":"西入江町"},"7500054":{"post_code":"7500054","prefecture":"YAMAGUCHI KEN","city":"SHIMONOSEKI SHI","town":"NISHIOTSUBOCHO","perfecture_jp":"山口県","jp_add_1":"下関市","jp_add_2":"西大坪町"},"7500034":{"post_code":"7500034","prefecture":"YAMAGUCHI KEN","city":"SHIMONOSEKI SHI","town":"NISHIKANDACHO","perfecture_jp":"山口県","jp_add_1":"下関市","jp_add_2":"西神田町"},"7500014":{"post_code":"7500014","prefecture":"YAMAGUCHI KEN","city":"SHIMONOSEKI SHI","town":"HANANOCHO","perfecture_jp":"山口県","jp_add_1":"下関市","jp_add_2":"岬之町"},"7500046":{"post_code":"7500046","prefecture":"YAMAGUCHI KEN","city":"SHIMONOSEKI SHI","town":"HAYAMACHO","perfecture_jp":"山口県","jp_add_1":"下関市","jp_add_2":"羽山町"},"7500043":{"post_code":"7500043","prefecture":"YAMAGUCHI KEN","city":"SHIMONOSEKI SHI","town":"HIGASHIKANDACHO","perfecture_jp":"山口県","jp_add_1":"下関市","jp_add_2":"東神田町"},"7500048":{"post_code":"7500048","prefecture":"YAMAGUCHI KEN","city":"SHIMONOSEKI SHI","town":"HIGASHIMUKAIYAMACHO","perfecture_jp":"山口県","jp_add_1":"下関市","jp_add_2":"東向山町"},"7500066":{"post_code":"7500066","prefecture":"YAMAGUCHI KEN","city":"SHIMONOSEKI SHI","town":"HIGASHIYAMATOMACHI","perfecture_jp":"山口県","jp_add_1":"下関市","jp_add_2":"東大和町"},"7500071":{"post_code":"7500071","prefecture":"YAMAGUCHI KEN","city":"SHIMONOSEKI SHI","town":"HIKOSHIMA AMANOGOCHO","perfecture_jp":"山口県","jp_add_1":"下関市","jp_add_2":"彦島海士郷町"},"7500075":{"post_code":"7500075","prefecture":"YAMAGUCHI KEN","city":"SHIMONOSEKI SHI","town":"HIKOSHIMA ENORACHO","perfecture_jp":"山口県","jp_add_1":"下関市","jp_add_2":"彦島江の浦町"},"7500073":{"post_code":"7500073","prefecture":"YAMAGUCHI KEN","city":"SHIMONOSEKI SHI","town":"HIKOSHIMA OINOYAMAKOEN","perfecture_jp":"山口県","jp_add_1":"下関市","jp_add_2":"彦島老の山公園"},"7500072":{"post_code":"7500072","prefecture":"YAMAGUCHI KEN","city":"SHIMONOSEKI SHI","town":"HIKOSHIMA OIMACHI","perfecture_jp":"山口県","jp_add_1":"下関市","jp_add_2":"彦島老町"},"7500083":{"post_code":"7500083","prefecture":"YAMAGUCHI KEN","city":"SHIMONOSEKI SHI","town":"HIKOSHIMA SAKURAGAOKACHO","perfecture_jp":"山口県","jp_add_1":"下関市","jp_add_2":"彦島桜ケ丘町"},"7500092":{"post_code":"7500092","prefecture":"YAMAGUCHI KEN","city":"SHIMONOSEKI SHI","town":"HIKOSHIMA SAKOMACHI","perfecture_jp":"山口県","jp_add_1":"下関市","jp_add_2":"彦島迫町"},"7500086":{"post_code":"7500086","prefecture":"YAMAGUCHI KEN","city":"SHIMONOSEKI SHI","town":"HIKOSHIMA SHIOHAMACHO","perfecture_jp":"山口県","jp_add_1":"下関市","jp_add_2":"彦島塩浜町"},"7500078":{"post_code":"7500078","prefecture":"YAMAGUCHI KEN","city":"SHIMONOSEKI SHI","town":"HIKOSHIMA SUGITACHO","perfecture_jp":"山口県","jp_add_1":"下関市","jp_add_2":"彦島杉田町"},"7500081":{"post_code":"7500081","prefecture":"YAMAGUCHI KEN","city":"SHIMONOSEKI SHI","town":"HIKOSHIMA SUMAKURACHO","perfecture_jp":"山口県","jp_add_1":"下関市","jp_add_2":"彦島角倉町"},"7500094":{"post_code":"7500094","prefecture":"YAMAGUCHI KEN","city":"SHIMONOSEKI SHI","town":"HIKOSHIMA TAKENOKOJIMACHO","perfecture_jp":"山口県","jp_add_1":"下関市","jp_add_2":"彦島竹ノ子島町"},"7500085":{"post_code":"7500085","prefecture":"YAMAGUCHI KEN","city":"SHIMONOSEKI SHI","town":"HIKOSHIMA TANOKUBICHO","perfecture_jp":"山口県","jp_add_1":"下関市","jp_add_2":"彦島田の首町"},"7500076":{"post_code":"7500076","prefecture":"YAMAGUCHI KEN","city":"SHIMONOSEKI SHI","town":"HIKOSHIMA DESHIMATSUCHO","perfecture_jp":"山口県","jp_add_1":"下関市","jp_add_2":"彦島弟子待町"},"7500077":{"post_code":"7500077","prefecture":"YAMAGUCHI KEN","city":"SHIMONOSEKI SHI","town":"HIKOSHIMA DESHIMATSUHIGASHIMACHI","perfecture_jp":"山口県","jp_add_1":"下関市","jp_add_2":"彦島弟子待東町"},"7500093":{"post_code":"7500093","prefecture":"YAMAGUCHI KEN","city":"SHIMONOSEKI SHI","town":"HIKOSHIMA NISHIYAMACHO","perfecture_jp":"山口県","jp_add_1":"下関市","jp_add_2":"彦島西山町"},"7500087":{"post_code":"7500087","prefecture":"YAMAGUCHI KEN","city":"SHIMONOSEKI SHI","town":"HIKOSHIMA FUKURACHO","perfecture_jp":"山口県","jp_add_1":"下関市","jp_add_2":"彦島福浦町"},"7500074":{"post_code":"7500074","prefecture":"YAMAGUCHI KEN","city":"SHIMONOSEKI SHI","town":"HIKOSHIMA HOMMURACHO","perfecture_jp":"山口県","jp_add_1":"下関市","jp_add_2":"彦島本村町"},"7500091":{"post_code":"7500091","prefecture":"YAMAGUCHI KEN","city":"SHIMONOSEKI SHI","town":"HIKOSHIMA MIDORICHO","perfecture_jp":"山口県","jp_add_1":"下関市","jp_add_2":"彦島緑町"},"7500084":{"post_code":"7500084","prefecture":"YAMAGUCHI KEN","city":"SHIMONOSEKI SHI","town":"HIKOSHIMA MUKAICHO","perfecture_jp":"山口県","jp_add_1":"下関市","jp_add_2":"彦島向井町"},"7500082":{"post_code":"7500082","prefecture":"YAMAGUCHI KEN","city":"SHIMONOSEKI SHI","town":"HIKOSHIMA YAMANAKACHO","perfecture_jp":"山口県","jp_add_1":"下関市","jp_add_2":"彦島山中町"},"7500052":{"post_code":"7500052","prefecture":"YAMAGUCHI KEN","city":"SHIMONOSEKI SHI","town":"FUJITSUKUCHO","perfecture_jp":"山口県","jp_add_1":"下関市","jp_add_2":"藤附町"},"7500018":{"post_code":"7500018","prefecture":"YAMAGUCHI KEN","city":"SHIMONOSEKI SHI","town":"BUZENDACHO","perfecture_jp":"山口県","jp_add_1":"下関市","jp_add_2":"豊前田町"},"7500017":{"post_code":"7500017","prefecture":"YAMAGUCHI KEN","city":"SHIMONOSEKI SHI","town":"HOSOESHIMMACHI","perfecture_jp":"山口県","jp_add_1":"下関市","jp_add_2":"細江新町"},"7500016":{"post_code":"7500016","prefecture":"YAMAGUCHI KEN","city":"SHIMONOSEKI SHI","town":"HOSOECHO","perfecture_jp":"山口県","jp_add_1":"下関市","jp_add_2":"細江町"},"7501121":{"post_code":"7501121","prefecture":"YAMAGUCHI KEN","city":"SHIMONOSEKI SHI","town":"MATSUYA","perfecture_jp":"山口県","jp_add_1":"下関市","jp_add_2":"松屋"},"7501122":{"post_code":"7501122","prefecture":"YAMAGUCHI KEN","city":"SHIMONOSEKI SHI","town":"MATSUYAKAMIMACHI","perfecture_jp":"山口県","jp_add_1":"下関市","jp_add_2":"松屋上町"},"7501123":{"post_code":"7501123","prefecture":"YAMAGUCHI KEN","city":"SHIMONOSEKI SHI","town":"MATSUYAHIGASHIMACHI","perfecture_jp":"山口県","jp_add_1":"下関市","jp_add_2":"松屋東町"},"7501124":{"post_code":"7501124","prefecture":"YAMAGUCHI KEN","city":"SHIMONOSEKI SHI","town":"MATSUYAHOMMACHI","perfecture_jp":"山口県","jp_add_1":"下関市","jp_add_2":"松屋本町"},"7500019":{"post_code":"7500019","prefecture":"YAMAGUCHI KEN","city":"SHIMONOSEKI SHI","town":"MARUYAMACHO","perfecture_jp":"山口県","jp_add_1":"下関市","jp_add_2":"丸山町"},"7500055":{"post_code":"7500055","prefecture":"YAMAGUCHI KEN","city":"SHIMONOSEKI SHI","town":"MINAMIOTSUBOCHO","perfecture_jp":"山口県","jp_add_1":"下関市","jp_add_2":"南大坪町"},"7500002":{"post_code":"7500002","prefecture":"YAMAGUCHI KEN","city":"SHIMONOSEKI SHI","town":"MIYADAMACHI","perfecture_jp":"山口県","jp_add_1":"下関市","jp_add_2":"宮田町"},"7500047":{"post_code":"7500047","prefecture":"YAMAGUCHI KEN","city":"SHIMONOSEKI SHI","town":"MUKAIYAMACHO","perfecture_jp":"山口県","jp_add_1":"下関市","jp_add_2":"向山町"},"7500095":{"post_code":"7500095","prefecture":"YAMAGUCHI KEN","city":"SHIMONOSEKI SHI","town":"MUTSUREJIMA","perfecture_jp":"山口県","jp_add_1":"下関市","jp_add_2":"六連島"},"7500011":{"post_code":"7500011","prefecture":"YAMAGUCHI KEN","city":"SHIMONOSEKI SHI","town":"MEICHICHO","perfecture_jp":"山口県","jp_add_1":"下関市","jp_add_2":"名池町"},"7500045":{"post_code":"7500045","prefecture":"YAMAGUCHI KEN","city":"SHIMONOSEKI SHI","town":"MOTOMACHI","perfecture_jp":"山口県","jp_add_1":"下関市","jp_add_2":"元町"},"7500033":{"post_code":"7500033","prefecture":"YAMAGUCHI KEN","city":"SHIMONOSEKI SHI","town":"YAMATECHO","perfecture_jp":"山口県","jp_add_1":"下関市","jp_add_2":"山手町"},"7500067":{"post_code":"7500067","prefecture":"YAMAGUCHI KEN","city":"SHIMONOSEKI SHI","town":"YAMATOMACHI","perfecture_jp":"山口県","jp_add_1":"下関市","jp_add_2":"大和町"},"7501101":{"post_code":"7501101","prefecture":"YAMAGUCHI KEN","city":"SHIMONOSEKI SHI","town":"YOSHIDA","perfecture_jp":"山口県","jp_add_1":"下関市","jp_add_2":"吉田"},"7501102":{"post_code":"7501102","prefecture":"YAMAGUCHI KEN","city":"SHIMONOSEKI SHI","town":"YOSHIDAJIKATA","perfecture_jp":"山口県","jp_add_1":"下関市","jp_add_2":"吉田地方"},"7500601":{"post_code":"7500601","prefecture":"YAMAGUCHI KEN","city":"MINE SHI","town":"TOYOTAMAECHO ASOKAMI","perfecture_jp":"山口県","jp_add_1":"美祢市","jp_add_2":"豊田前町麻生上"},"7500602":{"post_code":"7500602","prefecture":"YAMAGUCHI KEN","city":"MINE SHI","town":"TOYOTAMAECHO ASOSHIMO","perfecture_jp":"山口県","jp_add_1":"美祢市","jp_add_2":"豊田前町麻生下"},"7500603":{"post_code":"7500603","prefecture":"YAMAGUCHI KEN","city":"MINE SHI","town":"TOYOTAMAECHO IMAYAMA","perfecture_jp":"山口県","jp_add_1":"美祢市","jp_add_2":"豊田前町今山"},"7500606":{"post_code":"7500606","prefecture":"YAMAGUCHI KEN","city":"MINE SHI","town":"TOYOTAMAECHO DAKE","perfecture_jp":"山口県","jp_add_1":"美祢市","jp_add_2":"豊田前町嶽"},"7500605":{"post_code":"7500605","prefecture":"YAMAGUCHI KEN","city":"MINE SHI","town":"TOYOTAMAECHO FURUEBOSHI","perfecture_jp":"山口県","jp_add_1":"美祢市","jp_add_2":"豊田前町古烏帽子"},"7500604":{"post_code":"7500604","prefecture":"YAMAGUCHI KEN","city":"MINE SHI","town":"TOYOTAMAECHO HOHO","perfecture_jp":"山口県","jp_add_1":"美祢市","jp_add_2":"豊田前町保々"}}