{"7520902":{"post_code":"7520902","prefecture":"YAMAGUCHI KEN","city":"SHIMONOSEKI SHI","town":"AKAIKECHO","perfecture_jp":"山口県","jp_add_1":"下関市","jp_add_2":"赤池町"},"7520923":{"post_code":"7520923","prefecture":"YAMAGUCHI KEN","city":"SHIMONOSEKI SHI","town":"UBE","perfecture_jp":"山口県","jp_add_1":"下関市","jp_add_2":"宇部"},"7520916":{"post_code":"7520916","prefecture":"YAMAGUCHI KEN","city":"SHIMONOSEKI SHI","town":"OJI KAMIMACHI","perfecture_jp":"山口県","jp_add_1":"下関市","jp_add_2":"王司上町"},"7520912":{"post_code":"7520912","prefecture":"YAMAGUCHI KEN","city":"SHIMONOSEKI SHI","town":"OJI KAWABATA","perfecture_jp":"山口県","jp_add_1":"下関市","jp_add_2":"王司川端"},"7520911":{"post_code":"7520911","prefecture":"YAMAGUCHI KEN","city":"SHIMONOSEKI SHI","town":"OJI KANDA","perfecture_jp":"山口県","jp_add_1":"下関市","jp_add_2":"王司神田"},"7520915":{"post_code":"7520915","prefecture":"YAMAGUCHI KEN","city":"SHIMONOSEKI SHI","town":"OJI HOMMACHI","perfecture_jp":"山口県","jp_add_1":"下関市","jp_add_2":"王司本町"},"7520924":{"post_code":"7520924","prefecture":"YAMAGUCHI KEN","city":"SHIMONOSEKI SHI","town":"OJI MINAMIMACHI","perfecture_jp":"山口県","jp_add_1":"下関市","jp_add_2":"王司南町"},"7520904":{"post_code":"7520904","prefecture":"YAMAGUCHI KEN","city":"SHIMONOSEKI SHI","town":"KAZUMITSU","perfecture_jp":"山口県","jp_add_1":"下関市","jp_add_2":"員光"},"7520903":{"post_code":"7520903","prefecture":"YAMAGUCHI KEN","city":"SHIMONOSEKI SHI","town":"KAZUMITSUCHO","perfecture_jp":"山口県","jp_add_1":"下関市","jp_add_2":"員光町"},"7520925":{"post_code":"7520925","prefecture":"YAMAGUCHI KEN","city":"SHIMONOSEKI SHI","town":"KAMEHAMACHO","perfecture_jp":"山口県","jp_add_1":"下関市","jp_add_2":"亀浜町"},"7520907":{"post_code":"7520907","prefecture":"YAMAGUCHI KEN","city":"SHIMONOSEKI SHI","town":"KANDA","perfecture_jp":"山口県","jp_add_1":"下関市","jp_add_2":"神田"},"7520921":{"post_code":"7520921","prefecture":"YAMAGUCHI KEN","city":"SHIMONOSEKI SHI","town":"SAIGAWA","perfecture_jp":"山口県","jp_add_1":"下関市","jp_add_2":"才川"},"7520991":{"post_code":"7520991","prefecture":"YAMAGUCHI KEN","city":"SHIMONOSEKI SHI","town":"TAKAHATA","perfecture_jp":"山口県","jp_add_1":"下関市","jp_add_2":"高畑"},"7520922":{"post_code":"7520922","prefecture":"YAMAGUCHI KEN","city":"SHIMONOSEKI SHI","town":"CHIDORIGAOKACHO","perfecture_jp":"山口県","jp_add_1":"下関市","jp_add_2":"千鳥ケ丘町"},"7520914":{"post_code":"7520914","prefecture":"YAMAGUCHI KEN","city":"SHIMONOSEKI SHI","town":"CHIDORIHAMACHO","perfecture_jp":"山口県","jp_add_1":"下関市","jp_add_2":"千鳥浜町"},"7520962":{"post_code":"7520962","prefecture":"YAMAGUCHI KEN","city":"SHIMONOSEKI SHI","town":"CHOFU ANYOJI","perfecture_jp":"山口県","jp_add_1":"下関市","jp_add_2":"長府安養寺"},"7520957":{"post_code":"7520957","prefecture":"YAMAGUCHI KEN","city":"SHIMONOSEKI SHI","town":"CHOFU INNAICHO","perfecture_jp":"山口県","jp_add_1":"下関市","jp_add_2":"長府印内町"},"7520952":{"post_code":"7520952","prefecture":"YAMAGUCHI KEN","city":"SHIMONOSEKI SHI","town":"CHOFU EGEMACHI","perfecture_jp":"山口県","jp_add_1":"下関市","jp_add_2":"長府江下町"},"7520971":{"post_code":"7520971","prefecture":"YAMAGUCHI KEN","city":"SHIMONOSEKI SHI","town":"CHOFU OSAKACHO","perfecture_jp":"山口県","jp_add_1":"下関市","jp_add_2":"長府逢坂町"},"7520927":{"post_code":"7520927","prefecture":"YAMAGUCHI KEN","city":"SHIMONOSEKI SHI","town":"CHOFU OGIMACHI","perfecture_jp":"山口県","jp_add_1":"下関市","jp_add_2":"長府扇町"},"7520959":{"post_code":"7520959","prefecture":"YAMAGUCHI KEN","city":"SHIMONOSEKI SHI","town":"CHOFU KANAYACHO","perfecture_jp":"山口県","jp_add_1":"下関市","jp_add_2":"長府金屋町"},"7520958":{"post_code":"7520958","prefecture":"YAMAGUCHI KEN","city":"SHIMONOSEKI SHI","town":"CHOFU KANAYAHAMACHO","perfecture_jp":"山口県","jp_add_1":"下関市","jp_add_2":"長府金屋浜町"},"7520966":{"post_code":"7520966","prefecture":"YAMAGUCHI KEN","city":"SHIMONOSEKI SHI","town":"CHOFU KAMENOKO","perfecture_jp":"山口県","jp_add_1":"下関市","jp_add_2":"長府亀の甲"},"7520979":{"post_code":"7520979","prefecture":"YAMAGUCHI KEN","city":"SHIMONOSEKI SHI","town":"CHOFU KAWABATA","perfecture_jp":"山口県","jp_add_1":"下関市","jp_add_2":"長府川端"},"7520980":{"post_code":"7520980","prefecture":"YAMAGUCHI KEN","city":"SHIMONOSEKI SHI","town":"CHOFU KUROMONCHO","perfecture_jp":"山口県","jp_add_1":"下関市","jp_add_2":"長府黒門町"},"7520986":{"post_code":"7520986","prefecture":"YAMAGUCHI KEN","city":"SHIMONOSEKI SHI","town":"CHOFU KUROMONHIGASHIMACHI","perfecture_jp":"山口県","jp_add_1":"下関市","jp_add_2":"長府黒門東町"},"7520989":{"post_code":"7520989","prefecture":"YAMAGUCHI KEN","city":"SHIMONOSEKI SHI","town":"CHOFU KUROMOMMINAMIMACHI","perfecture_jp":"山口県","jp_add_1":"下関市","jp_add_2":"長府黒門南町"},"7520954":{"post_code":"7520954","prefecture":"YAMAGUCHI KEN","city":"SHIMONOSEKI SHI","town":"CHOFU KOJOCHO","perfecture_jp":"山口県","jp_add_1":"下関市","jp_add_2":"長府古城町"},"7520968":{"post_code":"7520968","prefecture":"YAMAGUCHI KEN","city":"SHIMONOSEKI SHI","town":"CHOFU KONYACHO","perfecture_jp":"山口県","jp_add_1":"下関市","jp_add_2":"長府紺屋町"},"7520928":{"post_code":"7520928","prefecture":"YAMAGUCHI KEN","city":"SHIMONOSEKI SHI","town":"CHOFU SAIGAWA","perfecture_jp":"山口県","jp_add_1":"下関市","jp_add_2":"長府才川"},"7520978":{"post_code":"7520978","prefecture":"YAMAGUCHI KEN","city":"SHIMONOSEKI SHI","town":"CHOFU SAMURAIMACHI","perfecture_jp":"山口県","jp_add_1":"下関市","jp_add_2":"長府侍町"},"7520942":{"post_code":"7520942","prefecture":"YAMAGUCHI KEN","city":"SHIMONOSEKI SHI","town":"CHOFU SHIOJICHO","perfecture_jp":"山口県","jp_add_1":"下関市","jp_add_2":"長府四王司町"},"7520941":{"post_code":"7520941","prefecture":"YAMAGUCHI KEN","city":"SHIMONOSEKI SHI","town":"CHOFU SHINSHIOJICHO","perfecture_jp":"山口県","jp_add_1":"下関市","jp_add_2":"長府新四王司町"},"7520982":{"post_code":"7520982","prefecture":"YAMAGUCHI KEN","city":"SHIMONOSEKI SHI","town":"CHOFU SHIMMATSUBARACHO","perfecture_jp":"山口県","jp_add_1":"下関市","jp_add_2":"長府新松原町"},"7520970":{"post_code":"7520970","prefecture":"YAMAGUCHI KEN","city":"SHIMONOSEKI SHI","town":"CHOFU SOSHAMACHI","perfecture_jp":"山口県","jp_add_1":"下関市","jp_add_2":"長府惣社町"},"7520985":{"post_code":"7520985","prefecture":"YAMAGUCHI KEN","city":"SHIMONOSEKI SHI","town":"CHOFU SOTORACHO","perfecture_jp":"山口県","jp_add_1":"下関市","jp_add_2":"長府外浦町"},"7520994":{"post_code":"7520994","prefecture":"YAMAGUCHI KEN","city":"SHIMONOSEKI SHI","town":"CHOFU TAKABACHO","perfecture_jp":"山口県","jp_add_1":"下関市","jp_add_2":"長府高場町"},"7520961":{"post_code":"7520961","prefecture":"YAMAGUCHI KEN","city":"SHIMONOSEKI SHI","town":"CHOFU TAMANORACHO","perfecture_jp":"山口県","jp_add_1":"下関市","jp_add_2":"長府珠の浦町"},"7520945":{"post_code":"7520945","prefecture":"YAMAGUCHI KEN","city":"SHIMONOSEKI SHI","town":"CHOFU TOYORACHO","perfecture_jp":"山口県","jp_add_1":"下関市","jp_add_2":"長府豊浦町"},"7520974":{"post_code":"7520974","prefecture":"YAMAGUCHI KEN","city":"SHIMONOSEKI SHI","town":"CHOFU DOINOCHICHO","perfecture_jp":"山口県","jp_add_1":"下関市","jp_add_2":"長府土居の内町"},"7520946":{"post_code":"7520946","prefecture":"YAMAGUCHI KEN","city":"SHIMONOSEKI SHI","town":"CHOFU NAKAOCHO","perfecture_jp":"山口県","jp_add_1":"下関市","jp_add_2":"長府中尾町"},"7520963":{"post_code":"7520963","prefecture":"YAMAGUCHI KEN","city":"SHIMONOSEKI SHI","town":"CHOFU NAKADOIKITAMACHI","perfecture_jp":"山口県","jp_add_1":"下関市","jp_add_2":"長府中土居北町"},"7520964":{"post_code":"7520964","prefecture":"YAMAGUCHI KEN","city":"SHIMONOSEKI SHI","town":"CHOFU NAKADOIHOMMACHI","perfecture_jp":"山口県","jp_add_1":"下関市","jp_add_2":"長府中土居本町"},"7520973":{"post_code":"7520973","prefecture":"YAMAGUCHI KEN","city":"SHIMONOSEKI SHI","town":"CHOFU NAKANOCHO","perfecture_jp":"山口県","jp_add_1":"下関市","jp_add_2":"長府中之町"},"7520975":{"post_code":"7520975","prefecture":"YAMAGUCHI KEN","city":"SHIMONOSEKI SHI","town":"CHOFU NAKAHAMACHO","perfecture_jp":"山口県","jp_add_1":"下関市","jp_add_2":"長府中浜町"},"7520944":{"post_code":"7520944","prefecture":"YAMAGUCHI KEN","city":"SHIMONOSEKI SHI","town":"CHOFU NAKAROPPACHO","perfecture_jp":"山口県","jp_add_1":"下関市","jp_add_2":"長府中六波町"},"7520992":{"post_code":"7520992","prefecture":"YAMAGUCHI KEN","city":"SHIMONOSEKI SHI","town":"CHOFU NOGURUMECHO","perfecture_jp":"山口県","jp_add_1":"下関市","jp_add_2":"長府野久留米町"},"7520987":{"post_code":"7520987","prefecture":"YAMAGUCHI KEN","city":"SHIMONOSEKI SHI","town":"CHOFU HAGOROMOCHO","perfecture_jp":"山口県","jp_add_1":"下関市","jp_add_2":"長府羽衣町"},"7520988":{"post_code":"7520988","prefecture":"YAMAGUCHI KEN","city":"SHIMONOSEKI SHI","town":"CHOFU HAGOROMOMINAMIMACHI","perfecture_jp":"山口県","jp_add_1":"下関市","jp_add_2":"長府羽衣南町"},"7520993":{"post_code":"7520993","prefecture":"YAMAGUCHI KEN","city":"SHIMONOSEKI SHI","town":"CHOFU HAMAURACHO","perfecture_jp":"山口県","jp_add_1":"下関市","jp_add_2":"長府浜浦町"},"7520998":{"post_code":"7520998","prefecture":"YAMAGUCHI KEN","city":"SHIMONOSEKI SHI","town":"CHOFU HAMAURANISHIMACHI","perfecture_jp":"山口県","jp_add_1":"下関市","jp_add_2":"長府浜浦西町"},"7520995":{"post_code":"7520995","prefecture":"YAMAGUCHI KEN","city":"SHIMONOSEKI SHI","town":"CHOFU HAMAURAMINAMIMACHI","perfecture_jp":"山口県","jp_add_1":"下関市","jp_add_2":"長府浜浦南町"},"7520977":{"post_code":"7520977","prefecture":"YAMAGUCHI KEN","city":"SHIMONOSEKI SHI","town":"CHOFU HIGASHISAMURAIMACHI","perfecture_jp":"山口県","jp_add_1":"下関市","jp_add_2":"長府東侍町"},"7520951":{"post_code":"7520951","prefecture":"YAMAGUCHI KEN","city":"SHIMONOSEKI SHI","town":"CHOFU HINODECHO","perfecture_jp":"山口県","jp_add_1":"下関市","jp_add_2":"長府日の出町"},"7520972":{"post_code":"7520972","prefecture":"YAMAGUCHI KEN","city":"SHIMONOSEKI SHI","town":"CHOFU FURUESHOJICHO","perfecture_jp":"山口県","jp_add_1":"下関市","jp_add_2":"長府古江小路町"},"7520943":{"post_code":"7520943","prefecture":"YAMAGUCHI KEN","city":"SHIMONOSEKI SHI","town":"CHOFU HOJOCHO","perfecture_jp":"山口県","jp_add_1":"下関市","jp_add_2":"長府豊城町"},"7520956":{"post_code":"7520956","prefecture":"YAMAGUCHI KEN","city":"SHIMONOSEKI SHI","town":"CHOFU MAEYAHATACHO","perfecture_jp":"山口県","jp_add_1":"下関市","jp_add_2":"長府前八幡町"},"7520935":{"post_code":"7520935","prefecture":"YAMAGUCHI KEN","city":"SHIMONOSEKI SHI","town":"CHOFU MATSUODANAKAMACHI","perfecture_jp":"山口県","jp_add_1":"下関市","jp_add_2":"長府松小田中町"},"7520934":{"post_code":"7520934","prefecture":"YAMAGUCHI KEN","city":"SHIMONOSEKI SHI","town":"CHOFU MATSUODAHIGASHIMACHI","perfecture_jp":"山口県","jp_add_1":"下関市","jp_add_2":"長府松小田東町"},"7520937":{"post_code":"7520937","prefecture":"YAMAGUCHI KEN","city":"SHIMONOSEKI SHI","town":"CHOFU MATSUODANISHIMACHI","perfecture_jp":"山口県","jp_add_1":"下関市","jp_add_2":"長府松小田西町"},"7520936":{"post_code":"7520936","prefecture":"YAMAGUCHI KEN","city":"SHIMONOSEKI SHI","town":"CHOFU MATSUODAMINAMIMACHI","perfecture_jp":"山口県","jp_add_1":"下関市","jp_add_2":"長府松小田南町"},"7520932":{"post_code":"7520932","prefecture":"YAMAGUCHI KEN","city":"SHIMONOSEKI SHI","town":"CHOFU MATSUODAKITAMACHI","perfecture_jp":"山口県","jp_add_1":"下関市","jp_add_2":"長府松小田北町"},"7520933":{"post_code":"7520933","prefecture":"YAMAGUCHI KEN","city":"SHIMONOSEKI SHI","town":"CHOFU MATSUODAHOMMACHI","perfecture_jp":"山口県","jp_add_1":"下関市","jp_add_2":"長府松小田本町"},"7520983":{"post_code":"7520983","prefecture":"YAMAGUCHI KEN","city":"SHIMONOSEKI SHI","town":"CHOFU MATSUBARACHO","perfecture_jp":"山口県","jp_add_1":"下関市","jp_add_2":"長府松原町"},"7520948":{"post_code":"7520948","prefecture":"YAMAGUCHI KEN","city":"SHIMONOSEKI SHI","town":"CHOFU MANJUSHIMMACHI","perfecture_jp":"山口県","jp_add_1":"下関市","jp_add_2":"長府満珠新町"},"7520947":{"post_code":"7520947","prefecture":"YAMAGUCHI KEN","city":"SHIMONOSEKI SHI","town":"CHOFU MANJUCHO","perfecture_jp":"山口県","jp_add_1":"下関市","jp_add_2":"長府満珠町"},"7520965":{"post_code":"7520965","prefecture":"YAMAGUCHI KEN","city":"SHIMONOSEKI SHI","town":"CHOFU MISHIMACHO","perfecture_jp":"山口県","jp_add_1":"下関市","jp_add_2":"長府三島町"},"7520953":{"post_code":"7520953","prefecture":"YAMAGUCHI KEN","city":"SHIMONOSEKI SHI","town":"CHOFU MINATOMACHI","perfecture_jp":"山口県","jp_add_1":"下関市","jp_add_2":"長府港町"},"7520976":{"post_code":"7520976","prefecture":"YAMAGUCHI KEN","city":"SHIMONOSEKI SHI","town":"CHOFU MINAMINOCHO","perfecture_jp":"山口県","jp_add_1":"下関市","jp_add_2":"長府南之町"},"7520984":{"post_code":"7520984","prefecture":"YAMAGUCHI KEN","city":"SHIMONOSEKI SHI","town":"CHOFU MIYAZAKICHO","perfecture_jp":"山口県","jp_add_1":"下関市","jp_add_2":"長府宮崎町"},"7520967":{"post_code":"7520967","prefecture":"YAMAGUCHI KEN","city":"SHIMONOSEKI SHI","town":"CHOFU MIYANOCHICHO","perfecture_jp":"山口県","jp_add_1":"下関市","jp_add_2":"長府宮の内町"},"7520996":{"post_code":"7520996","prefecture":"YAMAGUCHI KEN","city":"SHIMONOSEKI SHI","town":"CHOFU MUKAIDACHO","perfecture_jp":"山口県","jp_add_1":"下関市","jp_add_2":"長府向田町"},"7520955":{"post_code":"7520955","prefecture":"YAMAGUCHI KEN","city":"SHIMONOSEKI SHI","town":"CHOFU YAHATACHO","perfecture_jp":"山口県","jp_add_1":"下関市","jp_add_2":"長府八幡町"},"7520981":{"post_code":"7520981","prefecture":"YAMAGUCHI KEN","city":"SHIMONOSEKI SHI","town":"TOYORAMURA","perfecture_jp":"山口県","jp_add_1":"下関市","jp_add_2":"豊浦村"},"7520905":{"post_code":"7520905","prefecture":"YAMAGUCHI KEN","city":"SHIMONOSEKI SHI","town":"NISHIKANNONCHO","perfecture_jp":"山口県","jp_add_1":"下関市","jp_add_2":"西観音町"},"7520913":{"post_code":"7520913","prefecture":"YAMAGUCHI KEN","city":"SHIMONOSEKI SHI","town":"NOGIHAMA","perfecture_jp":"山口県","jp_add_1":"下関市","jp_add_2":"乃木浜"},"7520906":{"post_code":"7520906","prefecture":"YAMAGUCHI KEN","city":"SHIMONOSEKI SHI","town":"HIGASHIKANNONCHO","perfecture_jp":"山口県","jp_add_1":"下関市","jp_add_2":"東観音町"},"7520997":{"post_code":"7520997","prefecture":"YAMAGUCHI KEN","city":"SHIMONOSEKI SHI","town":"MAEDA","perfecture_jp":"山口県","jp_add_1":"下関市","jp_add_2":"前田"},"7520931":{"post_code":"7520931","prefecture":"YAMAGUCHI KEN","city":"SHIMONOSEKI SHI","town":"MATSUODA","perfecture_jp":"山口県","jp_add_1":"下関市","jp_add_2":"松小田"},"7520901":{"post_code":"7520901","prefecture":"YAMAGUCHI KEN","city":"SHIMONOSEKI SHI","town":"YAMADA","perfecture_jp":"山口県","jp_add_1":"下関市","jp_add_2":"山田"},"7520926":{"post_code":"7520926","prefecture":"YAMAGUCHI KEN","city":"SHIMONOSEKI SHI","town":"YUMETAUN","perfecture_jp":"山口県","jp_add_1":"下関市","jp_add_2":"ゆめタウン"}}