{"7530000":{"post_code":"7530000","prefecture":"YAMAGUCHI KEN","city":"YAMAGUCHI SHI","town":"IKANIKEISAIGANAIBAAI","perfecture_jp":"山口県","jp_add_1":"山口市","jp_add_2":""},"7530821":{"post_code":"7530821","prefecture":"YAMAGUCHI KEN","city":"YAMAGUCHI SHI","town":"AOI","perfecture_jp":"山口県","jp_add_1":"山口市","jp_add_2":"葵"},"7530012":{"post_code":"7530012","prefecture":"YAMAGUCHI KEN","city":"YAMAGUCHI SHI","town":"AOBADAI","perfecture_jp":"山口県","jp_add_1":"山口市","jp_add_2":"青葉台"},"7530067":{"post_code":"7530067","prefecture":"YAMAGUCHI KEN","city":"YAMAGUCHI SHI","town":"AKAZUMACHO","perfecture_jp":"山口県","jp_add_1":"山口市","jp_add_2":"赤妻町"},"7530061":{"post_code":"7530061","prefecture":"YAMAGUCHI KEN","city":"YAMAGUCHI SHI","town":"ASAKURACHO","perfecture_jp":"山口県","jp_add_1":"山口市","jp_add_2":"朝倉町"},"7530871":{"post_code":"7530871","prefecture":"YAMAGUCHI KEN","city":"YAMAGUCHI SHI","town":"ASADA","perfecture_jp":"山口県","jp_add_1":"山口市","jp_add_2":"朝田"},"7530872":{"post_code":"7530872","prefecture":"YAMAGUCHI KEN","city":"YAMAGUCHI SHI","town":"YAMAGUCHIKENRYUTSUSENTA","perfecture_jp":"山口県","jp_add_1":"山口市","jp_add_2":"朝田流通センター"},"7530051":{"post_code":"7530051","prefecture":"YAMAGUCHI KEN","city":"YAMAGUCHI SHI","town":"ASAHIDORI","perfecture_jp":"山口県","jp_add_1":"山口市","jp_add_2":"旭通り"},"7530038":{"post_code":"7530038","prefecture":"YAMAGUCHI KEN","city":"YAMAGUCHI SHI","town":"ISHIGANNONCHO","perfecture_jp":"山口県","jp_add_1":"山口市","jp_add_2":"石観音町"},"7530815":{"post_code":"7530815","prefecture":"YAMAGUCHI KEN","city":"YAMAGUCHI SHI","town":"ISHINKOEN","perfecture_jp":"山口県","jp_add_1":"山口市","jp_add_2":"維新公園"},"7530066":{"post_code":"7530066","prefecture":"YAMAGUCHI KEN","city":"YAMAGUCHI SHI","town":"IZUMICHO","perfecture_jp":"山口県","jp_add_1":"山口市","jp_add_2":"泉町"},"7530079":{"post_code":"7530079","prefecture":"YAMAGUCHI KEN","city":"YAMAGUCHI SHI","town":"ITOYONE","perfecture_jp":"山口県","jp_add_1":"山口市","jp_add_2":"糸米"},"7530055":{"post_code":"7530055","prefecture":"YAMAGUCHI KEN","city":"YAMAGUCHI SHI","town":"IMAICHO","perfecture_jp":"山口県","jp_add_1":"山口市","jp_add_2":"今井町"},"7530083":{"post_code":"7530083","prefecture":"YAMAGUCHI KEN","city":"YAMAGUCHI SHI","town":"USHIROGAWARA","perfecture_jp":"山口県","jp_add_1":"山口市","jp_add_2":"後河原"},"7530048":{"post_code":"7530048","prefecture":"YAMAGUCHI KEN","city":"YAMAGUCHI SHI","town":"EKIDORI","perfecture_jp":"山口県","jp_add_1":"山口市","jp_add_2":"駅通り"},"7530017":{"post_code":"7530017","prefecture":"YAMAGUCHI KEN","city":"YAMAGUCHI SHI","town":"ERA","perfecture_jp":"山口県","jp_add_1":"山口市","jp_add_2":"江良"},"7530036":{"post_code":"7530036","prefecture":"YAMAGUCHI KEN","city":"YAMAGUCHI SHI","town":"ENSEIJICHO","perfecture_jp":"山口県","jp_add_1":"山口市","jp_add_2":"円政寺"},"7530033":{"post_code":"7530033","prefecture":"YAMAGUCHI KEN","city":"YAMAGUCHI SHI","town":"OICHICHO","perfecture_jp":"山口県","jp_add_1":"山口市","jp_add_2":"大市町"},"7530242":{"post_code":"7530242","prefecture":"YAMAGUCHI KEN","city":"YAMAGUCHI SHI","town":"OUCHI SHOKYOTO","perfecture_jp":"山口県","jp_add_1":"山口市","jp_add_2":"大内小京都"},"7530241":{"post_code":"7530241","prefecture":"YAMAGUCHI KEN","city":"YAMAGUCHI SHI","town":"OUCHI TOIDA","perfecture_jp":"山口県","jp_add_1":"山口市","jp_add_2":"大内問田"},"7530211":{"post_code":"7530211","prefecture":"YAMAGUCHI KEN","city":"YAMAGUCHI SHI","town":"OUCHI NAGANO","perfecture_jp":"山口県","jp_add_1":"山口市","jp_add_2":"大内長野"},"7530231":{"post_code":"7530231","prefecture":"YAMAGUCHI KEN","city":"YAMAGUCHI SHI","town":"OUCHI HIKAMI","perfecture_jp":"山口県","jp_add_1":"山口市","jp_add_2":"大内氷上"},"7530243":{"post_code":"7530243","prefecture":"YAMAGUCHI KEN","city":"YAMAGUCHI SHI","town":"OUCHI HIMEYAMADAI","perfecture_jp":"山口県","jp_add_1":"山口市","jp_add_2":"大内姫山台"},"7530214":{"post_code":"7530214","prefecture":"YAMAGUCHI KEN","city":"YAMAGUCHI SHI","town":"OUCHI MIHORI","perfecture_jp":"山口県","jp_add_1":"山口市","jp_add_2":"大内御堀"},"7530215":{"post_code":"7530215","prefecture":"YAMAGUCHI KEN","city":"YAMAGUCHI SHI","town":"OUCHI YATA","perfecture_jp":"山口県","jp_add_1":"山口市","jp_add_2":"大内矢田"},"7530221":{"post_code":"7530221","prefecture":"YAMAGUCHI KEN","city":"YAMAGUCHI SHI","town":"OUCHI YATAKITA","perfecture_jp":"山口県","jp_add_1":"山口市","jp_add_2":"大内矢田北"},"7530222":{"post_code":"7530222","prefecture":"YAMAGUCHI KEN","city":"YAMAGUCHI SHI","town":"OUCHI YATAMINAMI","perfecture_jp":"山口県","jp_add_1":"山口市","jp_add_2":"大内矢田南"},"7530072":{"post_code":"7530072","prefecture":"YAMAGUCHI KEN","city":"YAMAGUCHI SHI","town":"OTEMACHI","perfecture_jp":"山口県","jp_add_1":"山口市","jp_add_2":"大手町"},"7530093":{"post_code":"7530093","prefecture":"YAMAGUCHI KEN","city":"YAMAGUCHI SHI","town":"ODONOOJI","perfecture_jp":"山口県","jp_add_1":"山口市","jp_add_2":"大殿大路"},"7530062":{"post_code":"7530062","prefecture":"YAMAGUCHI KEN","city":"YAMAGUCHI SHI","town":"OGICHO","perfecture_jp":"山口県","jp_add_1":"山口市","jp_add_2":"荻町"},"7530022":{"post_code":"7530022","prefecture":"YAMAGUCHI KEN","city":"YAMAGUCHI SHI","town":"ORIMOTO","perfecture_jp":"山口県","jp_add_1":"山口市","jp_add_2":"折本"},"7530073":{"post_code":"7530073","prefecture":"YAMAGUCHI KEN","city":"YAMAGUCHI SHI","town":"KASUGACHO","perfecture_jp":"山口県","jp_add_1":"山口市","jp_add_2":"春日町"},"7530024":{"post_code":"7530024","prefecture":"YAMAGUCHI KEN","city":"YAMAGUCHI SHI","town":"KANAKOSOCHO","perfecture_jp":"山口県","jp_add_1":"山口市","jp_add_2":"金古曽町"},"7530091":{"post_code":"7530091","prefecture":"YAMAGUCHI KEN","city":"YAMAGUCHI SHI","town":"TENGE","perfecture_jp":"山口県","jp_add_1":"山口市","jp_add_2":"上宇野令"},"7530213":{"post_code":"7530213","prefecture":"YAMAGUCHI KEN","city":"YAMAGUCHI SHI","town":"KAMIOSABA","perfecture_jp":"山口県","jp_add_1":"山口市","jp_add_2":"上小鯖"},"7530035":{"post_code":"7530035","prefecture":"YAMAGUCHI KEN","city":"YAMAGUCHI SHI","town":"KAMITATEKOJI","perfecture_jp":"山口県","jp_add_1":"山口市","jp_add_2":"上竪小路"},"7530891":{"post_code":"7530891","prefecture":"YAMAGUCHI KEN","city":"YAMAGUCHI SHI","town":"KAMITENGEMACHI","perfecture_jp":"山口県","jp_add_1":"山口市","jp_add_2":"上天花町"},"7530089":{"post_code":"7530089","prefecture":"YAMAGUCHI KEN","city":"YAMAGUCHI SHI","town":"KAMEYAMACHO","perfecture_jp":"山口県","jp_add_1":"山口市","jp_add_2":"亀山町"},"7530064":{"post_code":"7530064","prefecture":"YAMAGUCHI KEN","city":"YAMAGUCHI SHI","town":"KANDACHO","perfecture_jp":"山口県","jp_add_1":"山口市","jp_add_2":"神田町"},"7530095":{"post_code":"7530095","prefecture":"YAMAGUCHI KEN","city":"YAMAGUCHI SHI","town":"KIMACHI","perfecture_jp":"山口県","jp_add_1":"山口市","jp_add_2":"木町"},"7530065":{"post_code":"7530065","prefecture":"YAMAGUCHI KEN","city":"YAMAGUCHI SHI","town":"KUSUNOKICHO","perfecture_jp":"山口県","jp_add_1":"山口市","jp_add_2":"楠木町"},"7530084":{"post_code":"7530084","prefecture":"YAMAGUCHI KEN","city":"YAMAGUCHI SHI","town":"SENTOSHOJI","perfecture_jp":"山口県","jp_add_1":"山口市","jp_add_2":"久保小路"},"7530077":{"post_code":"7530077","prefecture":"YAMAGUCHI KEN","city":"YAMAGUCHI SHI","town":"KUMANOCHO","perfecture_jp":"山口県","jp_add_1":"山口市","jp_add_2":"熊野町"},"7530851":{"post_code":"7530851","prefecture":"YAMAGUCHI KEN","city":"YAMAGUCHI SHI","town":"KUROKAWA","perfecture_jp":"山口県","jp_add_1":"山口市","jp_add_2":"黒川"},"7530081":{"post_code":"7530081","prefecture":"YAMAGUCHI KEN","city":"YAMAGUCHI SHI","town":"KOZANCHO","perfecture_jp":"山口県","jp_add_1":"山口市","jp_add_2":"香山町"},"7530045":{"post_code":"7530045","prefecture":"YAMAGUCHI KEN","city":"YAMAGUCHI SHI","town":"KOGANECHO","perfecture_jp":"山口県","jp_add_1":"山口市","jp_add_2":"黄金町"},"7530087":{"post_code":"7530087","prefecture":"YAMAGUCHI KEN","city":"YAMAGUCHI SHI","town":"KOMEYACHO","perfecture_jp":"山口県","jp_add_1":"山口市","jp_add_2":"米屋町"},"7530826":{"post_code":"7530826","prefecture":"YAMAGUCHI KEN","city":"YAMAGUCHI SHI","town":"SAIWAICHO","perfecture_jp":"山口県","jp_add_1":"山口市","jp_add_2":"幸町"},"7530021":{"post_code":"7530021","prefecture":"YAMAGUCHI KEN","city":"YAMAGUCHI SHI","town":"SAKURABATAKE","perfecture_jp":"山口県","jp_add_1":"山口市","jp_add_2":"桜畠"},"7530023":{"post_code":"7530023","prefecture":"YAMAGUCHI KEN","city":"YAMAGUCHI SHI","town":"SANNOMIYA","perfecture_jp":"山口県","jp_add_1":"山口市","jp_add_2":"三の宮"},"7530052":{"post_code":"7530052","prefecture":"YAMAGUCHI KEN","city":"YAMAGUCHI SHI","town":"SANWACHO","perfecture_jp":"山口県","jp_add_1":"山口市","jp_add_2":"三和町"},"7530025":{"post_code":"7530025","prefecture":"YAMAGUCHI KEN","city":"YAMAGUCHI SHI","town":"SHIBASAKICHO","perfecture_jp":"山口県","jp_add_1":"山口市","jp_add_2":"芝崎町"},"7530058":{"post_code":"7530058","prefecture":"YAMAGUCHI KEN","city":"YAMAGUCHI SHI","town":"SHIMOICHICHO","perfecture_jp":"山口県","jp_add_1":"山口市","jp_add_2":"下市町"},"7530212":{"post_code":"7530212","prefecture":"YAMAGUCHI KEN","city":"YAMAGUCHI SHI","town":"SHIMOSABA","perfecture_jp":"山口県","jp_add_1":"山口市","jp_add_2":"下小鯖"},"7530034":{"post_code":"7530034","prefecture":"YAMAGUCHI KEN","city":"YAMAGUCHI SHI","town":"SHIMOTATEKOJI","perfecture_jp":"山口県","jp_add_1":"山口市","jp_add_2":"下竪小路"},"7530070":{"post_code":"7530070","prefecture":"YAMAGUCHI KEN","city":"YAMAGUCHI SHI","town":"SHIRAISHI","perfecture_jp":"山口県","jp_add_1":"山口市","jp_add_2":"白石"},"7530085":{"post_code":"7530085","prefecture":"YAMAGUCHI KEN","city":"YAMAGUCHI SHI","town":"SHIMBABA","perfecture_jp":"山口県","jp_add_1":"山口市","jp_add_2":"新馬場"},"7530822":{"post_code":"7530822","prefecture":"YAMAGUCHI KEN","city":"YAMAGUCHI SHI","town":"SUFUCHO","perfecture_jp":"山口県","jp_add_1":"山口市","jp_add_2":"周布町"},"7530076":{"post_code":"7530076","prefecture":"YAMAGUCHI KEN","city":"YAMAGUCHI SHI","town":"SENTOCHO","perfecture_jp":"山口県","jp_add_1":"山口市","jp_add_2":"泉都町"},"7530042":{"post_code":"7530042","prefecture":"YAMAGUCHI KEN","city":"YAMAGUCHI SHI","town":"SODAYUCHO","perfecture_jp":"山口県","jp_add_1":"山口市","jp_add_2":"惣太夫町"},"7530812":{"post_code":"7530812","prefecture":"YAMAGUCHI KEN","city":"YAMAGUCHI SHI","town":"TAKARACHO","perfecture_jp":"山口県","jp_add_1":"山口市","jp_add_2":"宝町"},"7530071":{"post_code":"7530071","prefecture":"YAMAGUCHI KEN","city":"YAMAGUCHI SHI","town":"TAKIMACHI","perfecture_jp":"山口県","jp_add_1":"山口市","jp_add_2":"滝町"},"7530074":{"post_code":"7530074","prefecture":"YAMAGUCHI KEN","city":"YAMAGUCHI SHI","town":"CHUO","perfecture_jp":"山口県","jp_add_1":"山口市","jp_add_2":"中央"},"7530047":{"post_code":"7530047","prefecture":"YAMAGUCHI KEN","city":"YAMAGUCHI SHI","town":"DOJOMONZEN","perfecture_jp":"山口県","jp_add_1":"山口市","jp_add_2":"道場門前"},"7530037":{"post_code":"7530037","prefecture":"YAMAGUCHI KEN","city":"YAMAGUCHI SHI","town":"DOSOCHO","perfecture_jp":"山口県","jp_add_1":"山口市","jp_add_2":"道祖町"},"7530032":{"post_code":"7530032","prefecture":"YAMAGUCHI KEN","city":"YAMAGUCHI SHI","town":"DONOMAECHO","perfecture_jp":"山口県","jp_add_1":"山口市","jp_add_2":"堂の前町"},"7530054":{"post_code":"7530054","prefecture":"YAMAGUCHI KEN","city":"YAMAGUCHI SHI","town":"TOMITABARACHO","perfecture_jp":"山口県","jp_add_1":"山口市","jp_add_2":"富田原町"},"7530086":{"post_code":"7530086","prefecture":"YAMAGUCHI KEN","city":"YAMAGUCHI SHI","town":"NAKAICHICHO","perfecture_jp":"山口県","jp_add_1":"山口市","jp_add_2":"中市町"},"7530801":{"post_code":"7530801","prefecture":"YAMAGUCHI KEN","city":"YAMAGUCHI SHI","town":"NAKAO","perfecture_jp":"山口県","jp_add_1":"山口市","jp_add_2":"中尾"},"7530088":{"post_code":"7530088","prefecture":"YAMAGUCHI KEN","city":"YAMAGUCHI SHI","town":"NAKAGAWARACHO","perfecture_jp":"山口県","jp_add_1":"山口市","jp_add_2":"中河原"},"7530075":{"post_code":"7530075","prefecture":"YAMAGUCHI KEN","city":"YAMAGUCHI SHI","town":"NAKAZONOCHO","perfecture_jp":"山口県","jp_add_1":"山口市","jp_add_2":"中園町"},"7530018":{"post_code":"7530018","prefecture":"YAMAGUCHI KEN","city":"YAMAGUCHI SHI","town":"NANAODAI","perfecture_jp":"山口県","jp_add_1":"山口市","jp_add_2":"七尾台"},"7530068":{"post_code":"7530068","prefecture":"YAMAGUCHI KEN","city":"YAMAGUCHI SHI","town":"NISHIKICHO","perfecture_jp":"山口県","jp_add_1":"山口市","jp_add_2":"錦町"},"7530301":{"post_code":"7530301","prefecture":"YAMAGUCHI KEN","city":"YAMAGUCHI SHI","town":"NIHO KAMIGO","perfecture_jp":"山口県","jp_add_1":"山口市","jp_add_2":"仁保上郷"},"7530303":{"post_code":"7530303","prefecture":"YAMAGUCHI KEN","city":"YAMAGUCHI SHI","town":"NIHO SHIMOGO","perfecture_jp":"山口県","jp_add_1":"山口市","jp_add_2":"仁保下郷"},"7530302":{"post_code":"7530302","prefecture":"YAMAGUCHI KEN","city":"YAMAGUCHI SHI","town":"NIHO NAKAGO","perfecture_jp":"山口県","jp_add_1":"山口市","jp_add_2":"仁保中郷"},"7530094":{"post_code":"7530094","prefecture":"YAMAGUCHI KEN","city":"YAMAGUCHI SHI","town":"NODA","perfecture_jp":"山口県","jp_add_1":"山口市","jp_add_2":"野田"},"7530041":{"post_code":"7530041","prefecture":"YAMAGUCHI KEN","city":"YAMAGUCHI SHI","town":"HIGASHIYAMA","perfecture_jp":"山口県","jp_add_1":"山口市","jp_add_2":"東山"},"7530831":{"post_code":"7530831","prefecture":"YAMAGUCHI KEN","city":"YAMAGUCHI SHI","town":"HIRAI","perfecture_jp":"山口県","jp_add_1":"山口市","jp_add_2":"平井"},"7530015":{"post_code":"7530015","prefecture":"YAMAGUCHI KEN","city":"YAMAGUCHI SHI","town":"HIRANO","perfecture_jp":"山口県","jp_add_1":"山口市","jp_add_2":"平野"},"7530031":{"post_code":"7530031","prefecture":"YAMAGUCHI KEN","city":"YAMAGUCHI SHI","town":"FURUKUMA","perfecture_jp":"山口県","jp_add_1":"山口市","jp_add_2":"古熊"},"7530824":{"post_code":"7530824","prefecture":"YAMAGUCHI KEN","city":"YAMAGUCHI SHI","town":"HOZUMICHO","perfecture_jp":"山口県","jp_add_1":"山口市","jp_add_2":"穂積町"},"7530046":{"post_code":"7530046","prefecture":"YAMAGUCHI KEN","city":"YAMAGUCHI SHI","town":"HOMMACHI","perfecture_jp":"山口県","jp_add_1":"山口市","jp_add_2":"本町"},"7530057":{"post_code":"7530057","prefecture":"YAMAGUCHI KEN","city":"YAMAGUCHI SHI","town":"MAEMACHI","perfecture_jp":"山口県","jp_add_1":"山口市","jp_add_2":"前町"},"7530053":{"post_code":"7530053","prefecture":"YAMAGUCHI KEN","city":"YAMAGUCHI SHI","town":"MATSUMICHO","perfecture_jp":"山口県","jp_add_1":"山口市","jp_add_2":"松美町"},"7530082":{"post_code":"7530082","prefecture":"YAMAGUCHI KEN","city":"YAMAGUCHI SHI","town":"MIZUNOECHO","perfecture_jp":"山口県","jp_add_1":"山口市","jp_add_2":"水の上町"},"7530016":{"post_code":"7530016","prefecture":"YAMAGUCHI KEN","city":"YAMAGUCHI SHI","town":"MIDORIGAOKA","perfecture_jp":"山口県","jp_add_1":"山口市","jp_add_2":"緑ヶ丘"},"7530078":{"post_code":"7530078","prefecture":"YAMAGUCHI KEN","city":"YAMAGUCHI SHI","town":"MIDORICHO","perfecture_jp":"山口県","jp_add_1":"山口市","jp_add_2":"緑町"},"7530043":{"post_code":"7530043","prefecture":"YAMAGUCHI KEN","city":"YAMAGUCHI SHI","town":"MIYAJIMACHO","perfecture_jp":"山口県","jp_add_1":"山口市","jp_add_2":"宮島町"},"7530001":{"post_code":"7530001","prefecture":"YAMAGUCHI KEN","city":"YAMAGUCHI SHI","town":"MIYANO KAMI","perfecture_jp":"山口県","jp_add_1":"山口市","jp_add_2":"宮野上"},"7530011":{"post_code":"7530011","prefecture":"YAMAGUCHI KEN","city":"YAMAGUCHI SHI","town":"MIYANO SHIMO","perfecture_jp":"山口県","jp_add_1":"山口市","jp_add_2":"宮野下"},"7530063":{"post_code":"7530063","prefecture":"YAMAGUCHI KEN","city":"YAMAGUCHI SHI","town":"MOTOMACHI","perfecture_jp":"山口県","jp_add_1":"山口市","jp_add_2":"元町"},"7530861":{"post_code":"7530861","prefecture":"YAMAGUCHI KEN","city":"YAMAGUCHI SHI","town":"YABARA","perfecture_jp":"山口県","jp_add_1":"山口市","jp_add_2":"矢原"},"7530825":{"post_code":"7530825","prefecture":"YAMAGUCHI KEN","city":"YAMAGUCHI SHI","town":"YABARACHO","perfecture_jp":"山口県","jp_add_1":"山口市","jp_add_2":"矢原町"},"7530092":{"post_code":"7530092","prefecture":"YAMAGUCHI KEN","city":"YAMAGUCHI SHI","town":"YAWATANOBABA","perfecture_jp":"山口県","jp_add_1":"山口市","jp_add_2":"八幡馬場"},"7530056":{"post_code":"7530056","prefecture":"YAMAGUCHI KEN","city":"YAMAGUCHI SHI","town":"YUDAONSEN","perfecture_jp":"山口県","jp_add_1":"山口市","jp_add_2":"湯田温泉"},"7530811":{"post_code":"7530811","prefecture":"YAMAGUCHI KEN","city":"YAMAGUCHI SHI","town":"YOSHIKI","perfecture_jp":"山口県","jp_add_1":"山口市","jp_add_2":"吉敷"},"7530817":{"post_code":"7530817","prefecture":"YAMAGUCHI KEN","city":"YAMAGUCHI SHI","town":"YOSHIKIAKADA","perfecture_jp":"山口県","jp_add_1":"山口市","jp_add_2":"吉敷赤田"},"7530818":{"post_code":"7530818","prefecture":"YAMAGUCHI KEN","city":"YAMAGUCHI SHI","town":"YOSHIKIKAMIHIGASHI","perfecture_jp":"山口県","jp_add_1":"山口市","jp_add_2":"吉敷上東"},"7530816":{"post_code":"7530816","prefecture":"YAMAGUCHI KEN","city":"YAMAGUCHI SHI","town":"YOSHIKISABATA","perfecture_jp":"山口県","jp_add_1":"山口市","jp_add_2":"吉敷佐畑"},"7530814":{"post_code":"7530814","prefecture":"YAMAGUCHI KEN","city":"YAMAGUCHI SHI","town":"YOSHIKISHIMOHIGASHI","perfecture_jp":"山口県","jp_add_1":"山口市","jp_add_2":"吉敷下東"},"7530813":{"post_code":"7530813","prefecture":"YAMAGUCHI KEN","city":"YAMAGUCHI SHI","town":"YOSHIKINAKAHIGASHI","perfecture_jp":"山口県","jp_add_1":"山口市","jp_add_2":"吉敷中東"},"7530841":{"post_code":"7530841","prefecture":"YAMAGUCHI KEN","city":"YAMAGUCHI SHI","town":"YOSHIDA","perfecture_jp":"山口県","jp_add_1":"山口市","jp_add_2":"吉田"},"7530823":{"post_code":"7530823","prefecture":"YAMAGUCHI KEN","city":"YAMAGUCHI SHI","town":"WAKAMIYACHO","perfecture_jp":"山口県","jp_add_1":"山口市","jp_add_2":"若宮町"},"7530044":{"post_code":"7530044","prefecture":"YAMAGUCHI KEN","city":"YAMAGUCHI SHI","town":"WANIISHICHO","perfecture_jp":"山口県","jp_add_1":"山口市","jp_add_2":"鰐石町"},"7530101":{"post_code":"7530101","prefecture":"YAMAGUCHI KEN","city":"HAGI SHI","town":"SASANAMI","perfecture_jp":"山口県","jp_add_1":"萩市","jp_add_2":"佐々並"}}