{"7541314":{"post_code":"7541314","prefecture":"YAMAGUCHI KEN","city":"UBE SHI","town":"ICHIIBARA","perfecture_jp":"山口県","jp_add_1":"宇部市","jp_add_2":"櫟原"},"7541312":{"post_code":"7541312","prefecture":"YAMAGUCHI KEN","city":"UBE SHI","town":"UTSUGIONO","perfecture_jp":"山口県","jp_add_1":"宇部市","jp_add_2":"棯小野"},"7541311":{"post_code":"7541311","prefecture":"YAMAGUCHI KEN","city":"UBE SHI","town":"ONO","perfecture_jp":"山口県","jp_add_1":"宇部市","jp_add_2":"小野"},"7541315":{"post_code":"7541315","prefecture":"YAMAGUCHI KEN","city":"UBE SHI","town":"NYOIJI","perfecture_jp":"山口県","jp_add_1":"宇部市","jp_add_2":"如意寺"},"7541313":{"post_code":"7541313","prefecture":"YAMAGUCHI KEN","city":"UBE SHI","town":"FUJIGOCHI","perfecture_jp":"山口県","jp_add_1":"宇部市","jp_add_2":"藤河内"},"7541102":{"post_code":"7541102","prefecture":"YAMAGUCHI KEN","city":"YAMAGUCHI SHI","town":"AIO NISHI","perfecture_jp":"山口県","jp_add_1":"山口市","jp_add_2":"秋穂西"},"7541101":{"post_code":"7541101","prefecture":"YAMAGUCHI KEN","city":"YAMAGUCHI SHI","town":"AIO HIGASHI","perfecture_jp":"山口県","jp_add_1":"山口市","jp_add_2":"秋穂東"},"7540893":{"post_code":"7540893","prefecture":"YAMAGUCHI KEN","city":"YAMAGUCHI SHI","town":"AIOFUTAJIMA","perfecture_jp":"山口県","jp_add_1":"山口市","jp_add_2":"秋穂二島"},"7541277":{"post_code":"7541277","prefecture":"YAMAGUCHI KEN","city":"YAMAGUCHI SHI","town":"AJISU","perfecture_jp":"山口県","jp_add_1":"山口市","jp_add_2":"阿知須"},"7540896":{"post_code":"7540896","prefecture":"YAMAGUCHI KEN","city":"YAMAGUCHI SHI","town":"EZAKI","perfecture_jp":"山口県","jp_add_1":"山口市","jp_add_2":"江崎"},"7540029":{"post_code":"7540029","prefecture":"YAMAGUCHI KEN","city":"YAMAGUCHI SHI","town":"OGORI ISHIMMACHI","perfecture_jp":"山口県","jp_add_1":"山口市","jp_add_2":"小郡維新町"},"7540008":{"post_code":"7540008","prefecture":"YAMAGUCHI KEN","city":"YAMAGUCHI SHI","town":"OGORI ENZANISHICHO","perfecture_jp":"山口県","jp_add_1":"山口市","jp_add_2":"小郡円座西町"},"7540007":{"post_code":"7540007","prefecture":"YAMAGUCHI KEN","city":"YAMAGUCHI SHI","town":"OGORI ENZAHIGASHICHO","perfecture_jp":"山口県","jp_add_1":"山口市","jp_add_2":"小郡円座東町"},"7540015":{"post_code":"7540015","prefecture":"YAMAGUCHI KEN","city":"YAMAGUCHI SHI","town":"OGORI OEMACHI","perfecture_jp":"山口県","jp_add_1":"山口市","jp_add_2":"小郡大江町"},"7540006":{"post_code":"7540006","prefecture":"YAMAGUCHI KEN","city":"YAMAGUCHI SHI","town":"OGORI OZAKICHO","perfecture_jp":"山口県","jp_add_1":"山口市","jp_add_2":"小郡尾崎町"},"7540004":{"post_code":"7540004","prefecture":"YAMAGUCHI KEN","city":"YAMAGUCHI SHI","town":"OGORI KANAHORICHO","perfecture_jp":"山口県","jp_add_1":"山口市","jp_add_2":"小郡金堀町"},"7540001":{"post_code":"7540001","prefecture":"YAMAGUCHI KEN","city":"YAMAGUCHI SHI","town":"OGORI KAMIGO","perfecture_jp":"山口県","jp_add_1":"山口市","jp_add_2":"小郡上郷"},"7540028":{"post_code":"7540028","prefecture":"YAMAGUCHI KEN","city":"YAMAGUCHI SHI","town":"OGORI KYURYOMACHI","perfecture_jp":"山口県","jp_add_1":"山口市","jp_add_2":"小郡給領町"},"7540021":{"post_code":"7540021","prefecture":"YAMAGUCHI KEN","city":"YAMAGUCHI SHI","town":"OGORI KOGANEMACHI","perfecture_jp":"山口県","jp_add_1":"山口市","jp_add_2":"小郡黄金町"},"7540026":{"post_code":"7540026","prefecture":"YAMAGUCHI KEN","city":"YAMAGUCHI SHI","town":"OGORI SAKAEMACHI","perfecture_jp":"山口県","jp_add_1":"山口市","jp_add_2":"小郡栄町"},"7540027":{"post_code":"7540027","prefecture":"YAMAGUCHI KEN","city":"YAMAGUCHI SHI","town":"OGORI SANGENYAMACHI","perfecture_jp":"山口県","jp_add_1":"山口市","jp_add_2":"小郡三軒屋町"},"7540002":{"post_code":"7540002","prefecture":"YAMAGUCHI KEN","city":"YAMAGUCHI SHI","town":"OGORI SHIMOGO","perfecture_jp":"山口県","jp_add_1":"山口市","jp_add_2":"小郡下郷"},"7540031":{"post_code":"7540031","prefecture":"YAMAGUCHI KEN","city":"YAMAGUCHI SHI","town":"OGORI SHIMMACHI","perfecture_jp":"山口県","jp_add_1":"山口市","jp_add_2":"小郡新町"},"7540014":{"post_code":"7540014","prefecture":"YAMAGUCHI KEN","city":"YAMAGUCHI SHI","town":"OGORI TAKASAGOMACHI","perfecture_jp":"山口県","jp_add_1":"山口市","jp_add_2":"小郡高砂町"},"7540022":{"post_code":"7540022","prefecture":"YAMAGUCHI KEN","city":"YAMAGUCHI SHI","town":"OGORI HANAZONOMACHI","perfecture_jp":"山口県","jp_add_1":"山口市","jp_add_2":"小郡花園町"},"7540033":{"post_code":"7540033","prefecture":"YAMAGUCHI KEN","city":"YAMAGUCHI SHI","town":"OGORI HIKARIGAOKA","perfecture_jp":"山口県","jp_add_1":"山口市","jp_add_2":"小郡光が丘"},"7540025":{"post_code":"7540025","prefecture":"YAMAGUCHI KEN","city":"YAMAGUCHI SHI","town":"OGORI HIRASAMACHI","perfecture_jp":"山口県","jp_add_1":"山口市","jp_add_2":"小郡平砂町"},"7540012":{"post_code":"7540012","prefecture":"YAMAGUCHI KEN","city":"YAMAGUCHI SHI","town":"OGORI FUNAKURAMACHI","perfecture_jp":"山口県","jp_add_1":"山口市","jp_add_2":"小郡船倉町"},"7540020":{"post_code":"7540020","prefecture":"YAMAGUCHI KEN","city":"YAMAGUCHI SHI","town":"OGORI HEISEIMACHI","perfecture_jp":"山口県","jp_add_1":"山口市","jp_add_2":"小郡平成町"},"7540023":{"post_code":"7540023","prefecture":"YAMAGUCHI KEN","city":"YAMAGUCHI SHI","town":"OGORI MAEDAMACHI","perfecture_jp":"山口県","jp_add_1":"山口市","jp_add_2":"小郡前田町"},"7540003":{"post_code":"7540003","prefecture":"YAMAGUCHI KEN","city":"YAMAGUCHI SHI","town":"OGORI MANA","perfecture_jp":"山口県","jp_add_1":"山口市","jp_add_2":"小郡真名"},"7540013":{"post_code":"7540013","prefecture":"YAMAGUCHI KEN","city":"YAMAGUCHI SHI","town":"OGORI MIDORIMACHI","perfecture_jp":"山口県","jp_add_1":"山口市","jp_add_2":"小郡緑町"},"7540011":{"post_code":"7540011","prefecture":"YAMAGUCHI KEN","city":"YAMAGUCHI SHI","town":"OGORI MIYUKIMACHI","perfecture_jp":"山口県","jp_add_1":"山口市","jp_add_2":"小郡御幸町"},"7540032":{"post_code":"7540032","prefecture":"YAMAGUCHI KEN","city":"YAMAGUCHI SHI","town":"OGORI MIRAIMACHI","perfecture_jp":"山口県","jp_add_1":"山口市","jp_add_2":"小郡みらい町"},"7540005":{"post_code":"7540005","prefecture":"YAMAGUCHI KEN","city":"YAMAGUCHI SHI","town":"OGORI YAMATEKAMIMACHI","perfecture_jp":"山口県","jp_add_1":"山口市","jp_add_2":"小郡山手上町"},"7540024":{"post_code":"7540024","prefecture":"YAMAGUCHI KEN","city":"YAMAGUCHI SHI","town":"OGORI WAKAKUSAMACHI","perfecture_jp":"山口県","jp_add_1":"山口市","jp_add_2":"小郡若草町"},"7540897":{"post_code":"7540897","prefecture":"YAMAGUCHI KEN","city":"YAMAGUCHI SHI","town":"KAGAWA","perfecture_jp":"山口県","jp_add_1":"山口市","jp_add_2":"嘉川"},"7540894":{"post_code":"7540894","prefecture":"YAMAGUCHI KEN","city":"YAMAGUCHI SHI","town":"SAYAMA","perfecture_jp":"山口県","jp_add_1":"山口市","jp_add_2":"佐山"},"7540891":{"post_code":"7540891","prefecture":"YAMAGUCHI KEN","city":"YAMAGUCHI SHI","town":"SUE","perfecture_jp":"山口県","jp_add_1":"山口市","jp_add_2":"陶"},"7540892":{"post_code":"7540892","prefecture":"YAMAGUCHI KEN","city":"YAMAGUCHI SHI","town":"NATAJIMA","perfecture_jp":"山口県","jp_add_1":"山口市","jp_add_2":"名田島"},"7540895":{"post_code":"7540895","prefecture":"YAMAGUCHI KEN","city":"YAMAGUCHI SHI","town":"FUKAMIZO","perfecture_jp":"山口県","jp_add_1":"山口市","jp_add_2":"深溝"},"7540411":{"post_code":"7540411","prefecture":"YAMAGUCHI KEN","city":"HAGI SHI","town":"AKIRAGI","perfecture_jp":"山口県","jp_add_1":"萩市","jp_add_2":"明木"},"7540602":{"post_code":"7540602","prefecture":"YAMAGUCHI KEN","city":"MINE SHI","town":"SHUHOCHO AOKAGE","perfecture_jp":"山口県","jp_add_1":"美祢市","jp_add_2":"秋芳町青景"},"7540511":{"post_code":"7540511","prefecture":"YAMAGUCHI KEN","city":"MINE SHI","town":"SHUHOCHO AKIYOSHI","perfecture_jp":"山口県","jp_add_1":"美祢市","jp_add_2":"秋芳町秋吉"},"7540513":{"post_code":"7540513","prefecture":"YAMAGUCHI KEN","city":"MINE SHI","town":"SHUHOCHO IWANAGASHIMOGO","perfecture_jp":"山口県","jp_add_1":"美祢市","jp_add_2":"秋芳町岩永下郷"},"7540512":{"post_code":"7540512","prefecture":"YAMAGUCHI KEN","city":"MINE SHI","town":"SHUHOCHO IWANAGAHONGO","perfecture_jp":"山口県","jp_add_1":"美祢市","jp_add_2":"秋芳町岩永本郷"},"7540601":{"post_code":"7540601","prefecture":"YAMAGUCHI KEN","city":"MINE SHI","town":"SHUHOCHO KAMA","perfecture_jp":"山口県","jp_add_1":"美祢市","jp_add_2":"秋芳町嘉万"},"7540603":{"post_code":"7540603","prefecture":"YAMAGUCHI KEN","city":"MINE SHI","town":"SHUHOCHO BEPPU","perfecture_jp":"山口県","jp_add_1":"美祢市","jp_add_2":"秋芳町別府"},"7540514":{"post_code":"7540514","prefecture":"YAMAGUCHI KEN","city":"MINE SHI","town":"SHUHOCHO (SONOTA)","perfecture_jp":"山口県","jp_add_1":"美祢市","jp_add_2":"秋芳町"},"7540302":{"post_code":"7540302","prefecture":"YAMAGUCHI KEN","city":"MINE SHI","town":"MITOCHO AKA","perfecture_jp":"山口県","jp_add_1":"美祢市","jp_add_2":"美東町赤"},"7540212":{"post_code":"7540212","prefecture":"YAMAGUCHI KEN","city":"MINE SHI","town":"MITOCHO AYAGI","perfecture_jp":"山口県","jp_add_1":"美祢市","jp_add_2":"美東町綾木"},"7540301":{"post_code":"7540301","prefecture":"YAMAGUCHI KEN","city":"MINE SHI","town":"MITOCHO EDO","perfecture_jp":"山口県","jp_add_1":"美祢市","jp_add_2":"美東町絵堂"},"7540211":{"post_code":"7540211","prefecture":"YAMAGUCHI KEN","city":"MINE SHI","town":"MITOCHO ODA","perfecture_jp":"山口県","jp_add_1":"美祢市","jp_add_2":"美東町大田"},"7540123":{"post_code":"7540123","prefecture":"YAMAGUCHI KEN","city":"MINE SHI","town":"MITOCHO ONO","perfecture_jp":"山口県","jp_add_1":"美祢市","jp_add_2":"美東町小野"},"7540121":{"post_code":"7540121","prefecture":"YAMAGUCHI KEN","city":"MINE SHI","town":"MITOCHO NAGATA","perfecture_jp":"山口県","jp_add_1":"美祢市","jp_add_2":"美東町長田"},"7540213":{"post_code":"7540213","prefecture":"YAMAGUCHI KEN","city":"MINE SHI","town":"MITOCHO NAGANOBORI","perfecture_jp":"山口県","jp_add_1":"美祢市","jp_add_2":"美東町長登"},"7540122":{"post_code":"7540122","prefecture":"YAMAGUCHI KEN","city":"MINE SHI","town":"MITOCHO MANA","perfecture_jp":"山口県","jp_add_1":"美祢市","jp_add_2":"美東町真名"},"7540214":{"post_code":"7540214","prefecture":"YAMAGUCHI KEN","city":"MINE SHI","town":"MITOCHO (SONOTA)","perfecture_jp":"山口県","jp_add_1":"美祢市","jp_add_2":"美東町"}}