{"7580000":{"post_code":"7580000","prefecture":"YAMAGUCHI KEN","city":"HAGI SHI","town":"IKANIKEISAIGANAIBAAI","perfecture_jp":"山口県","jp_add_1":"萩市","jp_add_2":""},"7580001":{"post_code":"7580001","prefecture":"YAMAGUCHI KEN","city":"HAGI SHI","town":"AISHIMA","perfecture_jp":"山口県","jp_add_1":"萩市","jp_add_2":"相島"},"7580051":{"post_code":"7580051","prefecture":"YAMAGUCHI KEN","city":"HAGI SHI","town":"ABURAYACHO","perfecture_jp":"山口県","jp_add_1":"萩市","jp_add_2":"油屋町"},"7580052":{"post_code":"7580052","prefecture":"YAMAGUCHI KEN","city":"HAGI SHI","town":"IMAUONOTANAMACHI","perfecture_jp":"山口県","jp_add_1":"萩市","jp_add_2":"今魚店町"},"7580021":{"post_code":"7580021","prefecture":"YAMAGUCHI KEN","city":"HAGI SHI","town":"IMAFURUHAGIMACHI","perfecture_jp":"山口県","jp_add_1":"萩市","jp_add_2":"今古萩町"},"7580033":{"post_code":"7580033","prefecture":"YAMAGUCHI KEN","city":"HAGI SHI","town":"EBISUCHO","perfecture_jp":"山口県","jp_add_1":"萩市","jp_add_2":"恵美須町"},"7580041":{"post_code":"7580041","prefecture":"YAMAGUCHI KEN","city":"HAGI SHI","town":"EMUKAI","perfecture_jp":"山口県","jp_add_1":"萩市","jp_add_2":"江向"},"7580003":{"post_code":"7580003","prefecture":"YAMAGUCHI KEN","city":"HAGI SHI","town":"OSHIMA","perfecture_jp":"山口県","jp_add_1":"萩市","jp_add_2":"大島"},"7580042":{"post_code":"7580042","prefecture":"YAMAGUCHI KEN","city":"HAGI SHI","town":"OMOTOMACHI","perfecture_jp":"山口県","jp_add_1":"萩市","jp_add_2":"御許町"},"7580301":{"post_code":"7580301","prefecture":"YAMAGUCHI KEN","city":"HAGI SHI","town":"KATAMATA","perfecture_jp":"山口県","jp_add_1":"萩市","jp_add_2":"片俣"},"7580043":{"post_code":"7580043","prefecture":"YAMAGUCHI KEN","city":"HAGI SHI","town":"SHIMOGOKEMMACHI","perfecture_jp":"山口県","jp_add_1":"萩市","jp_add_2":"上五間町"},"7580044":{"post_code":"7580044","prefecture":"YAMAGUCHI KEN","city":"HAGI SHI","town":"KARAHIMACHI","perfecture_jp":"山口県","jp_add_1":"萩市","jp_add_2":"唐樋町"},"7580141":{"post_code":"7580141","prefecture":"YAMAGUCHI KEN","city":"HAGI SHI","town":"KAWAKAMI","perfecture_jp":"山口県","jp_add_1":"萩市","jp_add_2":"川上"},"7580031":{"post_code":"7580031","prefecture":"YAMAGUCHI KEN","city":"HAGI SHI","town":"KAWASHIMA","perfecture_jp":"山口県","jp_add_1":"萩市","jp_add_2":"川島"},"7580071":{"post_code":"7580071","prefecture":"YAMAGUCHI KEN","city":"HAGI SHI","town":"KAWARAMACHI","perfecture_jp":"山口県","jp_add_1":"萩市","jp_add_2":"瓦町"},"7580053":{"post_code":"7580053","prefecture":"YAMAGUCHI KEN","city":"HAGI SHI","town":"KITAKATAKAWAMACHI","perfecture_jp":"山口県","jp_add_1":"萩市","jp_add_2":"北片河町"},"7580032":{"post_code":"7580032","prefecture":"YAMAGUCHI KEN","city":"HAGI SHI","town":"KITAFURUHAGIMACHI","perfecture_jp":"山口県","jp_add_1":"萩市","jp_add_2":"北古萩町"},"7580304":{"post_code":"7580304","prefecture":"YAMAGUCHI KEN","city":"HAGI SHI","town":"KIBEKAMI","perfecture_jp":"山口県","jp_add_1":"萩市","jp_add_2":"吉部上"},"7580305":{"post_code":"7580305","prefecture":"YAMAGUCHI KEN","city":"HAGI SHI","town":"KIBESHIMO","perfecture_jp":"山口県","jp_add_1":"萩市","jp_add_2":"吉部下"},"7580034":{"post_code":"7580034","prefecture":"YAMAGUCHI KEN","city":"HAGI SHI","town":"KUMAGAYACHO","perfecture_jp":"山口県","jp_add_1":"萩市","jp_add_2":"熊谷町"},"7580213":{"post_code":"7580213","prefecture":"YAMAGUCHI KEN","city":"HAGI SHI","town":"KUROGAWA","perfecture_jp":"山口県","jp_add_1":"萩市","jp_add_2":"黒川"},"7580073":{"post_code":"7580073","prefecture":"YAMAGUCHI KEN","city":"HAGI SHI","town":"KOZOE","perfecture_jp":"山口県","jp_add_1":"萩市","jp_add_2":"河添"},"7580072":{"post_code":"7580072","prefecture":"YAMAGUCHI KEN","city":"HAGI SHI","town":"GOFUKUMACHI","perfecture_jp":"山口県","jp_add_1":"萩市","jp_add_2":"呉服町"},"7580045":{"post_code":"7580045","prefecture":"YAMAGUCHI KEN","city":"HAGI SHI","town":"KOMEYACHO","perfecture_jp":"山口県","jp_add_1":"萩市","jp_add_2":"米屋町"},"7580035":{"post_code":"7580035","prefecture":"YAMAGUCHI KEN","city":"HAGI SHI","town":"SAIKUMACHI","perfecture_jp":"山口県","jp_add_1":"萩市","jp_add_2":"細工町"},"7580036":{"post_code":"7580036","prefecture":"YAMAGUCHI KEN","city":"HAGI SHI","town":"SHIOYACHO","perfecture_jp":"山口県","jp_add_1":"萩市","jp_add_2":"塩屋町"},"7580501":{"post_code":"7580501","prefecture":"YAMAGUCHI KEN","city":"HAGI SHI","town":"SHIBUKI","perfecture_jp":"山口県","jp_add_1":"萩市","jp_add_2":"紫福"},"7580302":{"post_code":"7580302","prefecture":"YAMAGUCHI KEN","city":"HAGI SHI","town":"TAKASAKAMI","perfecture_jp":"山口県","jp_add_1":"萩市","jp_add_2":"高佐上"},"7580303":{"post_code":"7580303","prefecture":"YAMAGUCHI KEN","city":"HAGI SHI","town":"TAKASASHIMO","perfecture_jp":"山口県","jp_add_1":"萩市","jp_add_2":"高佐下"},"7580054":{"post_code":"7580054","prefecture":"YAMAGUCHI KEN","city":"HAGI SHI","town":"TARUYACHO","perfecture_jp":"山口県","jp_add_1":"萩市","jp_add_2":"樽屋町"},"7580011":{"post_code":"7580011","prefecture":"YAMAGUCHI KEN","city":"HAGI SHI","town":"CHINTO","perfecture_jp":"山口県","jp_add_1":"萩市","jp_add_2":"椿東"},"7580061":{"post_code":"7580061","prefecture":"YAMAGUCHI KEN","city":"HAGI SHI","town":"TSUBAKI","perfecture_jp":"山口県","jp_add_1":"萩市","jp_add_2":"椿"},"7580037":{"post_code":"7580037","prefecture":"YAMAGUCHI KEN","city":"HAGI SHI","town":"TSUMORICHO","perfecture_jp":"山口県","jp_add_1":"萩市","jp_add_2":"津守町"},"7580046":{"post_code":"7580046","prefecture":"YAMAGUCHI KEN","city":"HAGI SHI","town":"NISHITAMACHI","perfecture_jp":"山口県","jp_add_1":"萩市","jp_add_2":"西田町"},"7580062":{"post_code":"7580062","prefecture":"YAMAGUCHI KEN","city":"HAGI SHI","town":"HASHIMOTOMACHI","perfecture_jp":"山口県","jp_add_1":"萩市","jp_add_2":"橋本町"},"7580023":{"post_code":"7580023","prefecture":"YAMAGUCHI KEN","city":"HAGI SHI","town":"HAMASAKISHINCHO","perfecture_jp":"山口県","jp_add_1":"萩市","jp_add_2":"浜崎新町"},"7580022":{"post_code":"7580022","prefecture":"YAMAGUCHI KEN","city":"HAGI SHI","town":"HAMASAKIMACHI","perfecture_jp":"山口県","jp_add_1":"萩市","jp_add_2":"浜崎町"},"7580055":{"post_code":"7580055","prefecture":"YAMAGUCHI KEN","city":"HAGI SHI","town":"HARUWAKACHO","perfecture_jp":"山口県","jp_add_1":"萩市","jp_add_2":"春若町"},"7580047":{"post_code":"7580047","prefecture":"YAMAGUCHI KEN","city":"HAGI SHI","town":"HIGASHITAMACHI","perfecture_jp":"山口県","jp_add_1":"萩市","jp_add_2":"東田町"},"7580024":{"post_code":"7580024","prefecture":"YAMAGUCHI KEN","city":"HAGI SHI","town":"HIGASHIHAMASAKIMACHI","perfecture_jp":"山口県","jp_add_1":"萩市","jp_add_2":"東浜崎町"},"7580004":{"post_code":"7580004","prefecture":"YAMAGUCHI KEN","city":"HAGI SHI","town":"HISHIMA","perfecture_jp":"山口県","jp_add_1":"萩市","jp_add_2":"肥島"},"7580025":{"post_code":"7580025","prefecture":"YAMAGUCHI KEN","city":"HAGI SHI","town":"HIJIWARA","perfecture_jp":"山口県","jp_add_1":"萩市","jp_add_2":"土原"},"7580002":{"post_code":"7580002","prefecture":"YAMAGUCHI KEN","city":"HAGI SHI","town":"HITSUSHIMA","perfecture_jp":"山口県","jp_add_1":"萩市","jp_add_2":"櫃島"},"7580074":{"post_code":"7580074","prefecture":"YAMAGUCHI KEN","city":"HAGI SHI","town":"HIYAKOMACHI","perfecture_jp":"山口県","jp_add_1":"萩市","jp_add_2":"平安古町"},"7580211":{"post_code":"7580211","prefecture":"YAMAGUCHI KEN","city":"HAGI SHI","town":"FUKUIKAMI","perfecture_jp":"山口県","jp_add_1":"萩市","jp_add_2":"福井上"},"7580212":{"post_code":"7580212","prefecture":"YAMAGUCHI KEN","city":"HAGI SHI","town":"FUKUISHIMO","perfecture_jp":"山口県","jp_add_1":"萩市","jp_add_2":"福井下"},"7580056":{"post_code":"7580056","prefecture":"YAMAGUCHI KEN","city":"HAGI SHI","town":"FURUONOTANAMACHI","perfecture_jp":"山口県","jp_add_1":"萩市","jp_add_2":"古魚店町"},"7580026":{"post_code":"7580026","prefecture":"YAMAGUCHI KEN","city":"HAGI SHI","town":"FURUHAGIMACHI","perfecture_jp":"山口県","jp_add_1":"萩市","jp_add_2":"古萩町"},"7580057":{"post_code":"7580057","prefecture":"YAMAGUCHI KEN","city":"HAGI SHI","town":"HORIUCHI","perfecture_jp":"山口県","jp_add_1":"萩市","jp_add_2":"堀内"},"7580701":{"post_code":"7580701","prefecture":"YAMAGUCHI KEN","city":"HAGI SHI","town":"MISHIMA","perfecture_jp":"山口県","jp_add_1":"萩市","jp_add_2":"見島"},"7580076":{"post_code":"7580076","prefecture":"YAMAGUCHI KEN","city":"HAGI SHI","town":"MINAMIKATAKAWAMACHI","perfecture_jp":"山口県","jp_add_1":"萩市","jp_add_2":"南片河町"},"7580077":{"post_code":"7580077","prefecture":"YAMAGUCHI KEN","city":"HAGI SHI","town":"MINAMIFURUHAGIMACHI","perfecture_jp":"山口県","jp_add_1":"萩市","jp_add_2":"南古萩町"},"7580063":{"post_code":"7580063","prefecture":"YAMAGUCHI KEN","city":"HAGI SHI","town":"YAMADA","perfecture_jp":"山口県","jp_add_1":"萩市","jp_add_2":"山田"},"7580027":{"post_code":"7580027","prefecture":"YAMAGUCHI KEN","city":"HAGI SHI","town":"YOSHIDACHO","perfecture_jp":"山口県","jp_add_1":"萩市","jp_add_2":"吉田町"},"7580613":{"post_code":"7580613","prefecture":"YAMAGUCHI KEN","city":"ABU GUN ABU CHO","town":"UBUKA","perfecture_jp":"山口県","jp_add_1":"阿武郡阿武町","jp_add_2":"宇生賀"},"7580612":{"post_code":"7580612","prefecture":"YAMAGUCHI KEN","city":"ABU GUN ABU CHO","town":"FUKUDAKAMI","perfecture_jp":"山口県","jp_add_1":"阿武郡阿武町","jp_add_2":"福田上"},"7580611":{"post_code":"7580611","prefecture":"YAMAGUCHI KEN","city":"ABU GUN ABU CHO","town":"FUKUDASHIMO","perfecture_jp":"山口県","jp_add_1":"阿武郡阿武町","jp_add_2":"福田下"}}