{"7630000":{"post_code":"7630000","prefecture":"KAGAWA KEN","city":"MARUGAME SHI","town":"IKANIKEISAIGANAIBAAI","perfecture_jp":"香川県","jp_add_1":"丸亀市","jp_add_2":""},"7630084":{"post_code":"7630084","prefecture":"KAGAWA KEN","city":"MARUGAME SHI","town":"IINOCHOHIGASHIFUTA","perfecture_jp":"香川県","jp_add_1":"丸亀市","jp_add_2":"飯野町東二"},"7630085":{"post_code":"7630085","prefecture":"KAGAWA KEN","city":"MARUGAME SHI","town":"IINOCHOHIGASHIBUN","perfecture_jp":"香川県","jp_add_1":"丸亀市","jp_add_2":"飯野町東分"},"7630086":{"post_code":"7630086","prefecture":"KAGAWA KEN","city":"MARUGAME SHI","town":"IINOCHONISHIBUN","perfecture_jp":"香川県","jp_add_1":"丸亀市","jp_add_2":"飯野町西分"},"7630025":{"post_code":"7630025","prefecture":"KAGAWA KEN","city":"MARUGAME SHI","town":"ICHIBANCHO","perfecture_jp":"香川県","jp_add_1":"丸亀市","jp_add_2":"一番丁"},"7630051":{"post_code":"7630051","prefecture":"KAGAWA KEN","city":"MARUGAME SHI","town":"IMAZUCHO","perfecture_jp":"香川県","jp_add_1":"丸亀市","jp_add_2":"今津町"},"7630006":{"post_code":"7630006","prefecture":"KAGAWA KEN","city":"MARUGAME SHI","town":"UOYAMACHI","perfecture_jp":"香川県","jp_add_1":"丸亀市","jp_add_2":"魚屋町"},"7630231":{"post_code":"7630231","prefecture":"KAGAWA KEN","city":"MARUGAME SHI","town":"USHIJIMA","perfecture_jp":"香川県","jp_add_1":"丸亀市","jp_add_2":"牛島"},"7630034":{"post_code":"7630034","prefecture":"KAGAWA KEN","city":"MARUGAME SHI","town":"OTECHO","perfecture_jp":"香川県","jp_add_1":"丸亀市","jp_add_2":"大手町"},"7630053":{"post_code":"7630053","prefecture":"KAGAWA KEN","city":"MARUGAME SHI","town":"KANAKURACHO","perfecture_jp":"香川県","jp_add_1":"丸亀市","jp_add_2":"金倉町"},"7630003":{"post_code":"7630003","prefecture":"KAGAWA KEN","city":"MARUGAME SHI","town":"KAYAMACHI","perfecture_jp":"香川県","jp_add_1":"丸亀市","jp_add_2":"葭町"},"7630092":{"post_code":"7630092","prefecture":"KAGAWA KEN","city":"MARUGAME SHI","town":"KAWANISHICHOMINAMI","perfecture_jp":"香川県","jp_add_1":"丸亀市","jp_add_2":"川西町南"},"7630091":{"post_code":"7630091","prefecture":"KAGAWA KEN","city":"MARUGAME SHI","town":"KAWANISHICHOKITA","perfecture_jp":"香川県","jp_add_1":"丸亀市","jp_add_2":"川西町北"},"7630002":{"post_code":"7630002","prefecture":"KAGAWA KEN","city":"MARUGAME SHI","town":"KAWARAMACHI","perfecture_jp":"香川県","jp_add_1":"丸亀市","jp_add_2":"瓦町"},"7630015":{"post_code":"7630015","prefecture":"KAGAWA KEN","city":"MARUGAME SHI","town":"KITAHIRAYAMACHO","perfecture_jp":"香川県","jp_add_1":"丸亀市","jp_add_2":"北平山町"},"7630073":{"post_code":"7630073","prefecture":"KAGAWA KEN","city":"MARUGAME SHI","town":"KUBARACHO","perfecture_jp":"香川県","jp_add_1":"丸亀市","jp_add_2":"柞原町"},"7630029":{"post_code":"7630029","prefecture":"KAGAWA KEN","city":"MARUGAME SHI","town":"KUBANCHO","perfecture_jp":"香川県","jp_add_1":"丸亀市","jp_add_2":"九番丁"},"7630093":{"post_code":"7630093","prefecture":"KAGAWA KEN","city":"MARUGAME SHI","town":"GUNGECHO","perfecture_jp":"香川県","jp_add_1":"丸亀市","jp_add_2":"郡家町"},"7630014":{"post_code":"7630014","prefecture":"KAGAWA KEN","city":"MARUGAME SHI","town":"GOBUSHOCHO","perfecture_jp":"香川県","jp_add_1":"丸亀市","jp_add_2":"御供所町"},"7630004":{"post_code":"7630004","prefecture":"KAGAWA KEN","city":"MARUGAME SHI","town":"KOMEYACHO","perfecture_jp":"香川県","jp_add_1":"丸亀市","jp_add_2":"米屋町"},"7630048":{"post_code":"7630048","prefecture":"KAGAWA KEN","city":"MARUGAME SHI","town":"SAIWAICHO","perfecture_jp":"香川県","jp_add_1":"丸亀市","jp_add_2":"幸町"},"7630094":{"post_code":"7630094","prefecture":"KAGAWA KEN","city":"MARUGAME SHI","town":"SANJOCHO","perfecture_jp":"香川県","jp_add_1":"丸亀市","jp_add_2":"三条町"},"7630065":{"post_code":"7630065","prefecture":"KAGAWA KEN","city":"MARUGAME SHI","town":"SHIOYACHO","perfecture_jp":"香川県","jp_add_1":"丸亀市","jp_add_2":"塩屋町"},"7630027":{"post_code":"7630027","prefecture":"KAGAWA KEN","city":"MARUGAME SHI","town":"SHICHIBANCHO","perfecture_jp":"香川県","jp_add_1":"丸亀市","jp_add_2":"七番丁"},"7630030":{"post_code":"7630030","prefecture":"KAGAWA KEN","city":"MARUGAME SHI","town":"JUBANCHO","perfecture_jp":"香川県","jp_add_1":"丸亀市","jp_add_2":"十番丁"},"7630013":{"post_code":"7630013","prefecture":"KAGAWA KEN","city":"MARUGAME SHI","town":"JOTOCHO","perfecture_jp":"香川県","jp_add_1":"丸亀市","jp_add_2":"城東町"},"7630031":{"post_code":"7630031","prefecture":"KAGAWA KEN","city":"MARUGAME SHI","town":"JONANCHO","perfecture_jp":"香川県","jp_add_1":"丸亀市","jp_add_2":"城南町"},"7630032":{"post_code":"7630032","prefecture":"KAGAWA KEN","city":"MARUGAME SHI","town":"JOSEICHO","perfecture_jp":"香川県","jp_add_1":"丸亀市","jp_add_2":"城西町"},"7630061":{"post_code":"7630061","prefecture":"KAGAWA KEN","city":"MARUGAME SHI","town":"SHOWACHO","perfecture_jp":"香川県","jp_add_1":"丸亀市","jp_add_2":"昭和町"},"7630024":{"post_code":"7630024","prefecture":"KAGAWA KEN","city":"MARUGAME SHI","town":"SHIWAKUMACHI","perfecture_jp":"香川県","jp_add_1":"丸亀市","jp_add_2":"塩飽町"},"7630055":{"post_code":"7630055","prefecture":"KAGAWA KEN","city":"MARUGAME SHI","town":"SHINDENCHO","perfecture_jp":"香川県","jp_add_1":"丸亀市","jp_add_2":"新田町"},"7630063":{"post_code":"7630063","prefecture":"KAGAWA KEN","city":"MARUGAME SHI","town":"SHINHAMACHO","perfecture_jp":"香川県","jp_add_1":"丸亀市","jp_add_2":"新浜町"},"7630045":{"post_code":"7630045","prefecture":"KAGAWA KEN","city":"MARUGAME SHI","town":"SHIMMACHI","perfecture_jp":"香川県","jp_add_1":"丸亀市","jp_add_2":"新町"},"7630007":{"post_code":"7630007","prefecture":"KAGAWA KEN","city":"MARUGAME SHI","town":"SOKOMACHI","perfecture_jp":"香川県","jp_add_1":"丸亀市","jp_add_2":"宗古町"},"7630071":{"post_code":"7630071","prefecture":"KAGAWA KEN","city":"MARUGAME SHI","town":"TAMURACHO","perfecture_jp":"香川県","jp_add_1":"丸亀市","jp_add_2":"田村町"},"7630095":{"post_code":"7630095","prefecture":"KAGAWA KEN","city":"MARUGAME SHI","town":"TARUMICHO","perfecture_jp":"香川県","jp_add_1":"丸亀市","jp_add_2":"垂水町"},"7630052":{"post_code":"7630052","prefecture":"KAGAWA KEN","city":"MARUGAME SHI","town":"TSUNOMORICHO","perfecture_jp":"香川県","jp_add_1":"丸亀市","jp_add_2":"津森町"},"7630111":{"post_code":"7630111","prefecture":"KAGAWA KEN","city":"MARUGAME SHI","town":"TESHIMACHO","perfecture_jp":"香川県","jp_add_1":"丸亀市","jp_add_2":"手島町"},"7630066":{"post_code":"7630066","prefecture":"KAGAWA KEN","city":"MARUGAME SHI","town":"TEMMACHO","perfecture_jp":"香川県","jp_add_1":"丸亀市","jp_add_2":"天満町"},"7630043":{"post_code":"7630043","prefecture":"KAGAWA KEN","city":"MARUGAME SHI","town":"TORICHO","perfecture_jp":"香川県","jp_add_1":"丸亀市","jp_add_2":"通町"},"7630021":{"post_code":"7630021","prefecture":"KAGAWA KEN","city":"MARUGAME SHI","town":"TOMIYAMACHI","perfecture_jp":"香川県","jp_add_1":"丸亀市","jp_add_2":"富屋町"},"7630012":{"post_code":"7630012","prefecture":"KAGAWA KEN","city":"MARUGAME SHI","town":"DOICHO","perfecture_jp":"香川県","jp_add_1":"丸亀市","jp_add_2":"土居町"},"7630082":{"post_code":"7630082","prefecture":"KAGAWA KEN","city":"MARUGAME SHI","town":"DOKICHOHIGASHI","perfecture_jp":"香川県","jp_add_1":"丸亀市","jp_add_2":"土器町東"},"7630081":{"post_code":"7630081","prefecture":"KAGAWA KEN","city":"MARUGAME SHI","town":"DOKICHONISHI","perfecture_jp":"香川県","jp_add_1":"丸亀市","jp_add_2":"土器町西"},"7630083":{"post_code":"7630083","prefecture":"KAGAWA KEN","city":"MARUGAME SHI","town":"DOKICHOKITA","perfecture_jp":"香川県","jp_add_1":"丸亀市","jp_add_2":"土器町北"},"7630054":{"post_code":"7630054","prefecture":"KAGAWA KEN","city":"MARUGAME SHI","town":"NAKAZUCHO","perfecture_jp":"香川県","jp_add_1":"丸亀市","jp_add_2":"中津町"},"7630033":{"post_code":"7630033","prefecture":"KAGAWA KEN","city":"MARUGAME SHI","town":"NAKABUCHO","perfecture_jp":"香川県","jp_add_1":"丸亀市","jp_add_2":"中府町"},"7630046":{"post_code":"7630046","prefecture":"KAGAWA KEN","city":"MARUGAME SHI","town":"NANJOMACHI","perfecture_jp":"香川県","jp_add_1":"丸亀市","jp_add_2":"南条町"},"7630041":{"post_code":"7630041","prefecture":"KAGAWA KEN","city":"MARUGAME SHI","town":"NISHIHIRAYAMACHO","perfecture_jp":"香川県","jp_add_1":"丸亀市","jp_add_2":"西平山町"},"7630047":{"post_code":"7630047","prefecture":"KAGAWA KEN","city":"MARUGAME SHI","town":"NISHIHOMMACHI","perfecture_jp":"香川県","jp_add_1":"丸亀市","jp_add_2":"西本町"},"7630028":{"post_code":"7630028","prefecture":"KAGAWA KEN","city":"MARUGAME SHI","town":"HACHIBANCHO","perfecture_jp":"香川県","jp_add_1":"丸亀市","jp_add_2":"八番丁"},"7630022":{"post_code":"7630022","prefecture":"KAGAWA KEN","city":"MARUGAME SHI","town":"HAMAMACHI","perfecture_jp":"香川県","jp_add_1":"丸亀市","jp_add_2":"浜町"},"7630075":{"post_code":"7630075","prefecture":"KAGAWA KEN","city":"MARUGAME SHI","town":"HARADADANCHI","perfecture_jp":"香川県","jp_add_1":"丸亀市","jp_add_2":"原田団地"},"7630074":{"post_code":"7630074","prefecture":"KAGAWA KEN","city":"MARUGAME SHI","town":"HARADACHO","perfecture_jp":"香川県","jp_add_1":"丸亀市","jp_add_2":"原田町"},"7630105":{"post_code":"7630105","prefecture":"KAGAWA KEN","city":"MARUGAME SHI","town":"HIROSHIMACHOAOKI","perfecture_jp":"香川県","jp_add_1":"丸亀市","jp_add_2":"広島町青木"},"7630106":{"post_code":"7630106","prefecture":"KAGAWA KEN","city":"MARUGAME SHI","town":"HIROSHIMACHOICHII","perfecture_jp":"香川県","jp_add_1":"丸亀市","jp_add_2":"広島町市井"},"7630102":{"post_code":"7630102","prefecture":"KAGAWA KEN","city":"MARUGAME SHI","town":"HIROSHIMACHOENORA","perfecture_jp":"香川県","jp_add_1":"丸亀市","jp_add_2":"広島町江の浦"},"7630108":{"post_code":"7630108","prefecture":"KAGAWA KEN","city":"MARUGAME SHI","town":"HIROSHIMACHOOTESHIMA","perfecture_jp":"香川県","jp_add_1":"丸亀市","jp_add_2":"広島町小手島"},"7630103":{"post_code":"7630103","prefecture":"KAGAWA KEN","city":"MARUGAME SHI","town":"HIROSHIMACHOKAMANOKOSHI","perfecture_jp":"香川県","jp_add_1":"丸亀市","jp_add_2":"広島町釜の越"},"7630104":{"post_code":"7630104","prefecture":"KAGAWA KEN","city":"MARUGAME SHI","town":"HIROSHIMACHOKORO","perfecture_jp":"香川県","jp_add_1":"丸亀市","jp_add_2":"広島町甲路"},"7630101":{"post_code":"7630101","prefecture":"KAGAWA KEN","city":"MARUGAME SHI","town":"HIROSHIMACHOTATEISHI","perfecture_jp":"香川県","jp_add_1":"丸亀市","jp_add_2":"広島町立石"},"7630107":{"post_code":"7630107","prefecture":"KAGAWA KEN","city":"MARUGAME SHI","town":"HIROSHIMACHOMORA","perfecture_jp":"香川県","jp_add_1":"丸亀市","jp_add_2":"広島町茂浦"},"7630044":{"post_code":"7630044","prefecture":"KAGAWA KEN","city":"MARUGAME SHI","town":"FUKUSHIMACHO","perfecture_jp":"香川県","jp_add_1":"丸亀市","jp_add_2":"福島町"},"7630011":{"post_code":"7630011","prefecture":"KAGAWA KEN","city":"MARUGAME SHI","town":"FUJIMICHO","perfecture_jp":"香川県","jp_add_1":"丸亀市","jp_add_2":"富士見町"},"7630001":{"post_code":"7630001","prefecture":"KAGAWA KEN","city":"MARUGAME SHI","town":"FURUTAIMACHI","perfecture_jp":"香川県","jp_add_1":"丸亀市","jp_add_2":"風袋町"},"7630062":{"post_code":"7630062","prefecture":"KAGAWA KEN","city":"MARUGAME SHI","town":"HORAICHO","perfecture_jp":"香川県","jp_add_1":"丸亀市","jp_add_2":"蓬莱町"},"7630225":{"post_code":"7630225","prefecture":"KAGAWA KEN","city":"MARUGAME SHI","town":"HONJIMACHOIKENOHAMA","perfecture_jp":"香川県","jp_add_1":"丸亀市","jp_add_2":"本島町生の浜"},"7630228":{"post_code":"7630228","prefecture":"KAGAWA KEN","city":"MARUGAME SHI","town":"HONJIMACHOOURA","perfecture_jp":"香川県","jp_add_1":"丸亀市","jp_add_2":"本島町大浦"},"7630221":{"post_code":"7630221","prefecture":"KAGAWA KEN","city":"MARUGAME SHI","town":"HONJIMACHOKASASHIMA","perfecture_jp":"香川県","jp_add_1":"丸亀市","jp_add_2":"本島町笠島"},"7630222":{"post_code":"7630222","prefecture":"KAGAWA KEN","city":"MARUGAME SHI","town":"HONJIMACHOKOSHO","perfecture_jp":"香川県","jp_add_1":"丸亀市","jp_add_2":"本島町甲生"},"7630224":{"post_code":"7630224","prefecture":"KAGAWA KEN","city":"MARUGAME SHI","town":"HONJIMACHOKOSAKA","perfecture_jp":"香川県","jp_add_1":"丸亀市","jp_add_2":"本島町小阪"},"7630226":{"post_code":"7630226","prefecture":"KAGAWA KEN","city":"MARUGAME SHI","town":"HONJIMACHOSHIRIHAMA","perfecture_jp":"香川県","jp_add_1":"丸亀市","jp_add_2":"本島町尻浜"},"7630223":{"post_code":"7630223","prefecture":"KAGAWA KEN","city":"MARUGAME SHI","town":"HONJIMACHOTOMARI","perfecture_jp":"香川県","jp_add_1":"丸亀市","jp_add_2":"本島町泊"},"7630227":{"post_code":"7630227","prefecture":"KAGAWA KEN","city":"MARUGAME SHI","town":"HONJIMACHOFUKUDA","perfecture_jp":"香川県","jp_add_1":"丸亀市","jp_add_2":"本島町福田"},"7630023":{"post_code":"7630023","prefecture":"KAGAWA KEN","city":"MARUGAME SHI","town":"HOMMACHI","perfecture_jp":"香川県","jp_add_1":"丸亀市","jp_add_2":"本町"},"7630064":{"post_code":"7630064","prefecture":"KAGAWA KEN","city":"MARUGAME SHI","town":"MAEJIOYACHO","perfecture_jp":"香川県","jp_add_1":"丸亀市","jp_add_2":"前塩屋町"},"7630005":{"post_code":"7630005","prefecture":"KAGAWA KEN","city":"MARUGAME SHI","town":"MATSUYACHO","perfecture_jp":"香川県","jp_add_1":"丸亀市","jp_add_2":"松屋町"},"7630042":{"post_code":"7630042","prefecture":"KAGAWA KEN","city":"MARUGAME SHI","town":"MINATOMACHI","perfecture_jp":"香川県","jp_add_1":"丸亀市","jp_add_2":"港町"},"7630072":{"post_code":"7630072","prefecture":"KAGAWA KEN","city":"MARUGAME SHI","town":"YAMANOKITACHO","perfecture_jp":"香川県","jp_add_1":"丸亀市","jp_add_2":"山北町"},"7630026":{"post_code":"7630026","prefecture":"KAGAWA KEN","city":"MARUGAME SHI","town":"ROKUBANCHO","perfecture_jp":"香川県","jp_add_1":"丸亀市","jp_add_2":"六番丁"}}