{"7660000":{"post_code":"7660000","prefecture":"KAGAWA KEN","city":"NAKATADO GUN MANNO CHO","town":"IKANIKEISAIGANAIBAAI","perfecture_jp":"香川県","jp_add_1":"仲多度郡琴平町","jp_add_2":""},"7660004":{"post_code":"7660004","prefecture":"KAGAWA KEN","city":"NAKATADO GUN KOTOHIRA CHO","town":"ENAI","perfecture_jp":"香川県","jp_add_1":"仲多度郡琴平町","jp_add_2":"榎井"},"7660006":{"post_code":"7660006","prefecture":"KAGAWA KEN","city":"NAKATADO GUN KOTOHIRA CHO","town":"KAMIKUSHINASHI","perfecture_jp":"香川県","jp_add_1":"仲多度郡琴平町","jp_add_2":"上櫛梨"},"7660002":{"post_code":"7660002","prefecture":"KAGAWA KEN","city":"NAKATADO GUN KOTOHIRA CHO","town":"KOTOHIRACHO(1-426-BANCHI.KAWAHIGASH","perfecture_jp":"香川県","jp_add_1":"仲多度郡琴平町","jp_add_2":"琴平町"},"7660001":{"post_code":"7660001","prefecture":"KAGAWA KEN","city":"NAKATADO GUN KOTOHIRA CHO","town":"KOTOHIRACHO(427-BANCHIIJO.KAWANISHI","perfecture_jp":"香川県","jp_add_1":"仲多度郡琴平町","jp_add_2":"琴平町"},"7660003":{"post_code":"7660003","prefecture":"KAGAWA KEN","city":"NAKATADO GUN KOTOHIRA CHO","town":"GOJO","perfecture_jp":"香川県","jp_add_1":"仲多度郡琴平町","jp_add_2":"五條"},"7660007":{"post_code":"7660007","prefecture":"KAGAWA KEN","city":"NAKATADO GUN KOTOHIRA CHO","town":"SHIMOKUSHINASHI","perfecture_jp":"香川県","jp_add_1":"仲多度郡琴平町","jp_add_2":"下櫛梨"},"7660005":{"post_code":"7660005","prefecture":"KAGAWA KEN","city":"NAKATADO GUN KOTOHIRA CHO","town":"NODA","perfecture_jp":"香川県","jp_add_1":"仲多度郡琴平町","jp_add_2":"苗田"},"7660204":{"post_code":"7660204","prefecture":"KAGAWA KEN","city":"NAKATADO GUN MANNO CHO","town":"KATSURA","perfecture_jp":"香川県","jp_add_1":"仲多度郡まんのう町","jp_add_2":"勝浦"},"7660203":{"post_code":"7660203","prefecture":"KAGAWA KEN","city":"NAKATADO GUN MANNO CHO","town":"KAWAHIGASHI","perfecture_jp":"香川県","jp_add_1":"仲多度郡まんのう町","jp_add_2":"川東"},"7660024":{"post_code":"7660024","prefecture":"KAGAWA KEN","city":"NAKATADO GUN MANNO CHO","town":"KANNO","perfecture_jp":"香川県","jp_add_1":"仲多度郡まんのう町","jp_add_2":"神野"},"7660026":{"post_code":"7660026","prefecture":"KAGAWA KEN","city":"NAKATADO GUN MANNO CHO","town":"KISHINOE","perfecture_jp":"香川県","jp_add_1":"仲多度郡まんのう町","jp_add_2":"岸上"},"7660011":{"post_code":"7660011","prefecture":"KAGAWA KEN","city":"NAKATADO GUN MANNO CHO","town":"KUMON","perfecture_jp":"香川県","jp_add_1":"仲多度郡まんのう町","jp_add_2":"公文"},"7660027":{"post_code":"7660027","prefecture":"KAGAWA KEN","city":"NAKATADO GUN MANNO CHO","town":"GOJO","perfecture_jp":"香川県","jp_add_1":"仲多度郡まんのう町","jp_add_2":"五條"},"7660021":{"post_code":"7660021","prefecture":"KAGAWA KEN","city":"NAKATADO GUN MANNO CHO","town":"SHIJO","perfecture_jp":"香川県","jp_add_1":"仲多度郡まんのう町","jp_add_2":"四條"},"7660017":{"post_code":"7660017","prefecture":"KAGAWA KEN","city":"NAKATADO GUN MANNO CHO","town":"SUMISHONISHI","perfecture_jp":"香川県","jp_add_1":"仲多度郡まんのう町","jp_add_2":"炭所西"},"7660016":{"post_code":"7660016","prefecture":"KAGAWA KEN","city":"NAKATADO GUN MANNO CHO","town":"SUMISHOHIGASHI","perfecture_jp":"香川県","jp_add_1":"仲多度郡まんのう町","jp_add_2":"炭所東"},"7660201":{"post_code":"7660201","prefecture":"KAGAWA KEN","city":"NAKATADO GUN MANNO CHO","town":"SODA","perfecture_jp":"香川県","jp_add_1":"仲多度郡まんのう町","jp_add_2":"造田"},"7660015":{"post_code":"7660015","prefecture":"KAGAWA KEN","city":"NAKATADO GUN MANNO CHO","town":"NAGAO","perfecture_jp":"香川県","jp_add_1":"仲多度郡まんのう町","jp_add_2":"長尾"},"7660202":{"post_code":"7660202","prefecture":"KAGAWA KEN","city":"NAKATADO GUN MANNO CHO","town":"NAKATO","perfecture_jp":"香川県","jp_add_1":"仲多度郡まんのう町","jp_add_2":"中通"},"7660012":{"post_code":"7660012","prefecture":"KAGAWA KEN","city":"NAKATADO GUN MANNO CHO","town":"NISHITAKASHINO","perfecture_jp":"香川県","jp_add_1":"仲多度郡まんのう町","jp_add_2":"西高篠"},"7660014":{"post_code":"7660014","prefecture":"KAGAWA KEN","city":"NAKATADO GUN MANNO CHO","town":"HAZAMA","perfecture_jp":"香川県","jp_add_1":"仲多度郡まんのう町","jp_add_2":"羽間"},"7660013":{"post_code":"7660013","prefecture":"KAGAWA KEN","city":"NAKATADO GUN MANNO CHO","town":"HIGASHITAKASHINO","perfecture_jp":"香川県","jp_add_1":"仲多度郡まんのう町","jp_add_2":"東高篠"},"7660025":{"post_code":"7660025","prefecture":"KAGAWA KEN","city":"NAKATADO GUN MANNO CHO","town":"MANO","perfecture_jp":"香川県","jp_add_1":"仲多度郡まんのう町","jp_add_2":"真野"},"7660023":{"post_code":"7660023","prefecture":"KAGAWA KEN","city":"NAKATADO GUN MANNO CHO","town":"YOSHINO","perfecture_jp":"香川県","jp_add_1":"仲多度郡まんのう町","jp_add_2":"吉野"},"7660022":{"post_code":"7660022","prefecture":"KAGAWA KEN","city":"NAKATADO GUN MANNO CHO","town":"YOSHINOSHIMO","perfecture_jp":"香川県","jp_add_1":"仲多度郡まんのう町","jp_add_2":"吉野下"}}