{"7690105":{"post_code":"7690105","prefecture":"KAGAWA KEN","city":"TAKAMATSU SHI","town":"KOKUBUNJICHO KASHIHARA","perfecture_jp":"香川県","jp_add_1":"高松市","jp_add_2":"国分寺町柏原"},"7690102":{"post_code":"7690102","prefecture":"KAGAWA KEN","city":"TAKAMATSU SHI","town":"KOKUBUNJICHO KOKUBU","perfecture_jp":"香川県","jp_add_1":"高松市","jp_add_2":"国分寺町国分"},"7690104":{"post_code":"7690104","prefecture":"KAGAWA KEN","city":"TAKAMATSU SHI","town":"KOKUBUNJICHO SHIMMYO","perfecture_jp":"香川県","jp_add_1":"高松市","jp_add_2":"国分寺町新名"},"7690101":{"post_code":"7690101","prefecture":"KAGAWA KEN","city":"TAKAMATSU SHI","town":"KOKUBUNJICHO NII","perfecture_jp":"香川県","jp_add_1":"高松市","jp_add_2":"国分寺町新居"},"7690103":{"post_code":"7690103","prefecture":"KAGAWA KEN","city":"TAKAMATSU SHI","town":"KOKUBUNJICHO FUKE","perfecture_jp":"香川県","jp_add_1":"高松市","jp_add_2":"国分寺町福家"},"7691617":{"post_code":"7691617","prefecture":"KAGAWA KEN","city":"KANONJI SHI","town":"ONOHARACHO AOKA","perfecture_jp":"香川県","jp_add_1":"観音寺市","jp_add_2":"大野原町青岡"},"7691624":{"post_code":"7691624","prefecture":"KAGAWA KEN","city":"KANONJI SHI","town":"ONOHARACHO ARIKI","perfecture_jp":"香川県","jp_add_1":"観音寺市","jp_add_2":"大野原町有木"},"7691621":{"post_code":"7691621","prefecture":"KAGAWA KEN","city":"KANONJI SHI","town":"ONOHARACHO ISEKI","perfecture_jp":"香川県","jp_add_1":"観音寺市","jp_add_2":"大野原町井関"},"7691622":{"post_code":"7691622","prefecture":"KAGAWA KEN","city":"KANONJI SHI","town":"ONOHARACHO UCHINONO","perfecture_jp":"香川県","jp_add_1":"観音寺市","jp_add_2":"大野原町内野々"},"7691625":{"post_code":"7691625","prefecture":"KAGAWA KEN","city":"KANONJI SHI","town":"ONOHARACHO EBISUKUI","perfecture_jp":"香川県","jp_add_1":"観音寺市","jp_add_2":"大野原町海老済"},"7691611":{"post_code":"7691611","prefecture":"KAGAWA KEN","city":"KANONJI SHI","town":"ONOHARACHO ONOHARA","perfecture_jp":"香川県","jp_add_1":"観音寺市","jp_add_2":"大野原町大野原"},"7691623":{"post_code":"7691623","prefecture":"KAGAWA KEN","city":"KANONJI SHI","town":"ONOHARACHO TANONO","perfecture_jp":"香川県","jp_add_1":"観音寺市","jp_add_2":"大野原町田野々"},"7691612":{"post_code":"7691612","prefecture":"KAGAWA KEN","city":"KANONJI SHI","town":"ONOHARACHO NAKAHIME","perfecture_jp":"香川県","jp_add_1":"観音寺市","jp_add_2":"大野原町中姫"},"7691614":{"post_code":"7691614","prefecture":"KAGAWA KEN","city":"KANONJI SHI","town":"ONOHARACHO HAGIWARA","perfecture_jp":"香川県","jp_add_1":"観音寺市","jp_add_2":"大野原町萩原"},"7691613":{"post_code":"7691613","prefecture":"KAGAWA KEN","city":"KANONJI SHI","town":"ONOHARACHO HANAINA","perfecture_jp":"香川県","jp_add_1":"観音寺市","jp_add_2":"大野原町花稲"},"7691616":{"post_code":"7691616","prefecture":"KAGAWA KEN","city":"KANONJI SHI","town":"ONOHARACHO FUKUDAHARA","perfecture_jp":"香川県","jp_add_1":"観音寺市","jp_add_2":"大野原町福田原"},"7691615":{"post_code":"7691615","prefecture":"KAGAWA KEN","city":"KANONJI SHI","town":"ONOHARACHO MARUI","perfecture_jp":"香川県","jp_add_1":"観音寺市","jp_add_2":"大野原町丸井"},"7691601":{"post_code":"7691601","prefecture":"KAGAWA KEN","city":"KANONJI SHI","town":"TOYOHAMACHO HIMEHAMA","perfecture_jp":"香川県","jp_add_1":"観音寺市","jp_add_2":"豊浜町姫浜"},"7691604":{"post_code":"7691604","prefecture":"KAGAWA KEN","city":"KANONJI SHI","town":"TOYOHAMACHO MINORA","perfecture_jp":"香川県","jp_add_1":"観音寺市","jp_add_2":"豊浜町箕浦"},"7691603":{"post_code":"7691603","prefecture":"KAGAWA KEN","city":"KANONJI SHI","town":"TOYOHAMACHO WADA","perfecture_jp":"香川県","jp_add_1":"観音寺市","jp_add_2":"豊浜町和田"},"7691602":{"post_code":"7691602","prefecture":"KAGAWA KEN","city":"KANONJI SHI","town":"TOYOHAMACHO WADAHAMA","perfecture_jp":"香川県","jp_add_1":"観音寺市","jp_add_2":"豊浜町和田浜"},"7692300":{"post_code":"7692300","prefecture":"KAGAWA KEN","city":"SANUKI SHI","town":"IKANIKEISAIGANAIBAAI","perfecture_jp":"香川県","jp_add_1":"さぬき市","jp_add_2":""},"7692103":{"post_code":"7692103","prefecture":"KAGAWA KEN","city":"SANUKI SHI","town":"ODA","perfecture_jp":"香川県","jp_add_1":"さぬき市","jp_add_2":"小田"},"7692104":{"post_code":"7692104","prefecture":"KAGAWA KEN","city":"SANUKI SHI","town":"KABE","perfecture_jp":"香川県","jp_add_1":"さぬき市","jp_add_2":"鴨部"},"7692102":{"post_code":"7692102","prefecture":"KAGAWA KEN","city":"SANUKI SHI","town":"KAMOSHO","perfecture_jp":"香川県","jp_add_1":"さぬき市","jp_add_2":"鴨庄"},"7692322":{"post_code":"7692322","prefecture":"KAGAWA KEN","city":"SANUKI SHI","town":"SANGAWAMACHI ISHIDANISHI","perfecture_jp":"香川県","jp_add_1":"さぬき市","jp_add_2":"寒川町石田西"},"7692321":{"post_code":"7692321","prefecture":"KAGAWA KEN","city":"SANUKI SHI","town":"SANGAWAMACHI ISHIDAHIGASHI","perfecture_jp":"香川県","jp_add_1":"さぬき市","jp_add_2":"寒川町石田東"},"7692323":{"post_code":"7692323","prefecture":"KAGAWA KEN","city":"SANUKI SHI","town":"SANGAWAMACHI KANZAKI","perfecture_jp":"香川県","jp_add_1":"さぬき市","jp_add_2":"寒川町神前"},"7692101":{"post_code":"7692101","prefecture":"KAGAWA KEN","city":"SANUKI SHI","town":"SHIDO","perfecture_jp":"香川県","jp_add_1":"さぬき市","jp_add_2":"志度"},"7692304":{"post_code":"7692304","prefecture":"KAGAWA KEN","city":"SANUKI SHI","town":"SHOWA","perfecture_jp":"香川県","jp_add_1":"さぬき市","jp_add_2":"昭和"},"7692105":{"post_code":"7692105","prefecture":"KAGAWA KEN","city":"SANUKI SHI","town":"SUE","perfecture_jp":"香川県","jp_add_1":"さぬき市","jp_add_2":"末"},"7692315":{"post_code":"7692315","prefecture":"KAGAWA KEN","city":"SANUKI SHI","town":"ZOTA(ORENJITAUN)","perfecture_jp":"香川県","jp_add_1":"さぬき市","jp_add_2":"造田"},"7692314":{"post_code":"7692314","prefecture":"KAGAWA KEN","city":"SANUKI SHI","town":"ZOTAOTOI","perfecture_jp":"香川県","jp_add_1":"さぬき市","jp_add_2":"造田乙井"},"7692312":{"post_code":"7692312","prefecture":"KAGAWA KEN","city":"SANUKI SHI","town":"ZOTAKOREHIRO","perfecture_jp":"香川県","jp_add_1":"さぬき市","jp_add_2":"造田是弘"},"7692313":{"post_code":"7692313","prefecture":"KAGAWA KEN","city":"SANUKI SHI","town":"ZOTANOMADA","perfecture_jp":"香川県","jp_add_1":"さぬき市","jp_add_2":"造田野間田"},"7692311":{"post_code":"7692311","prefecture":"KAGAWA KEN","city":"SANUKI SHI","town":"ZOTAMIYANISHI","perfecture_jp":"香川県","jp_add_1":"さぬき市","jp_add_2":"造田宮西"},"7692306":{"post_code":"7692306","prefecture":"KAGAWA KEN","city":"SANUKI SHI","town":"TAWA","perfecture_jp":"香川県","jp_add_1":"さぬき市","jp_add_2":"多和"},"7692401":{"post_code":"7692401","prefecture":"KAGAWA KEN","city":"SANUKI SHI","town":"TSUDAMACHI TSUDA","perfecture_jp":"香川県","jp_add_1":"さぬき市","jp_add_2":"津田町津田"},"7692402":{"post_code":"7692402","prefecture":"KAGAWA KEN","city":"SANUKI SHI","town":"TSUDAMACHI TSURUWA","perfecture_jp":"香川県","jp_add_1":"さぬき市","jp_add_2":"津田町鶴羽"},"7692302":{"post_code":"7692302","prefecture":"KAGAWA KEN","city":"SANUKI SHI","town":"NAGAONISHI","perfecture_jp":"香川県","jp_add_1":"さぬき市","jp_add_2":"長尾西"},"7692301":{"post_code":"7692301","prefecture":"KAGAWA KEN","city":"SANUKI SHI","town":"NAGAOHIGASHI","perfecture_jp":"香川県","jp_add_1":"さぬき市","jp_add_2":"長尾東"},"7692303":{"post_code":"7692303","prefecture":"KAGAWA KEN","city":"SANUKI SHI","town":"NAGAOMYO","perfecture_jp":"香川県","jp_add_1":"さぬき市","jp_add_2":"長尾名"},"7692305":{"post_code":"7692305","prefecture":"KAGAWA KEN","city":"SANUKI SHI","town":"MAEYAMA","perfecture_jp":"香川県","jp_add_1":"さぬき市","jp_add_2":"前山"},"7692700":{"post_code":"7692700","prefecture":"KAGAWA KEN","city":"HIGASHIKAGAWA SHI","town":"IKANIKEISAIGANAIBAAI","perfecture_jp":"香川県","jp_add_1":"東かがわ市","jp_add_2":""},"7692703":{"post_code":"7692703","prefecture":"KAGAWA KEN","city":"HIGASHIKAGAWA SHI","town":"IZA","perfecture_jp":"香川県","jp_add_1":"東かがわ市","jp_add_2":"伊座"},"7692520":{"post_code":"7692520","prefecture":"KAGAWA KEN","city":"HIGASHIKAGAWA SHI","town":"UMASHINO","perfecture_jp":"香川県","jp_add_1":"東かがわ市","jp_add_2":"馬篠"},"7692902":{"post_code":"7692902","prefecture":"KAGAWA KEN","city":"HIGASHIKAGAWA SHI","town":"UMAYADO","perfecture_jp":"香川県","jp_add_1":"東かがわ市","jp_add_2":"馬宿"},"7692908":{"post_code":"7692908","prefecture":"KAGAWA KEN","city":"HIGASHIKAGAWA SHI","town":"OMI","perfecture_jp":"香川県","jp_add_1":"東かがわ市","jp_add_2":"小海"},"7692513":{"post_code":"7692513","prefecture":"KAGAWA KEN","city":"HIGASHIKAGAWA SHI","town":"OTANI","perfecture_jp":"香川県","jp_add_1":"東かがわ市","jp_add_2":"大谷"},"7692521":{"post_code":"7692521","prefecture":"KAGAWA KEN","city":"HIGASHIKAGAWA SHI","town":"OCHI","perfecture_jp":"香川県","jp_add_1":"東かがわ市","jp_add_2":"大内"},"7692512":{"post_code":"7692512","prefecture":"KAGAWA KEN","city":"HIGASHIKAGAWA SHI","town":"OCHIAI","perfecture_jp":"香川県","jp_add_1":"東かがわ市","jp_add_2":"落合"},"7692602":{"post_code":"7692602","prefecture":"KAGAWA KEN","city":"HIGASHIKAGAWA SHI","town":"KAWAHIGASHI","perfecture_jp":"香川県","jp_add_1":"東かがわ市","jp_add_2":"川東"},"7692906":{"post_code":"7692906","prefecture":"KAGAWA KEN","city":"HIGASHIKAGAWA SHI","town":"KAWAMATA","perfecture_jp":"香川県","jp_add_1":"東かがわ市","jp_add_2":"川股"},"7692704":{"post_code":"7692704","prefecture":"KAGAWA KEN","city":"HIGASHIKAGAWA SHI","town":"KIRAI","perfecture_jp":"香川県","jp_add_1":"東かがわ市","jp_add_2":"帰来"},"7692905":{"post_code":"7692905","prefecture":"KAGAWA KEN","city":"HIGASHIKAGAWA SHI","town":"KUREHA","perfecture_jp":"香川県","jp_add_1":"東かがわ市","jp_add_2":"黒羽"},"7692511":{"post_code":"7692511","prefecture":"KAGAWA KEN","city":"HIGASHIKAGAWA SHI","town":"KOISO","perfecture_jp":"香川県","jp_add_1":"東かがわ市","jp_add_2":"小磯"},"7692519":{"post_code":"7692519","prefecture":"KAGAWA KEN","city":"HIGASHIKAGAWA SHI","town":"KOZARE","perfecture_jp":"香川県","jp_add_1":"東かがわ市","jp_add_2":"小砂"},"7692715":{"post_code":"7692715","prefecture":"KAGAWA KEN","city":"HIGASHIKAGAWA SHI","town":"GOMYO","perfecture_jp":"香川県","jp_add_1":"東かがわ市","jp_add_2":"五名"},"7692904":{"post_code":"7692904","prefecture":"KAGAWA KEN","city":"HIGASHIKAGAWA SHI","town":"SAKAMOTO","perfecture_jp":"香川県","jp_add_1":"東かがわ市","jp_add_2":"坂元"},"7692601":{"post_code":"7692601","prefecture":"KAGAWA KEN","city":"HIGASHIKAGAWA SHI","town":"SAMBOMMATSU","perfecture_jp":"香川県","jp_add_1":"東かがわ市","jp_add_2":"三本松"},"7692705":{"post_code":"7692705","prefecture":"KAGAWA KEN","city":"HIGASHIKAGAWA SHI","town":"SHIROTORI","perfecture_jp":"香川県","jp_add_1":"東かがわ市","jp_add_2":"白鳥"},"7692516":{"post_code":"7692516","prefecture":"KAGAWA KEN","city":"HIGASHIKAGAWA SHI","town":"DOI","perfecture_jp":"香川県","jp_add_1":"東かがわ市","jp_add_2":"土居"},"7692605":{"post_code":"7692605","prefecture":"KAGAWA KEN","city":"HIGASHIKAGAWA SHI","town":"NAKASUJI","perfecture_jp":"香川県","jp_add_1":"東かがわ市","jp_add_2":"中筋"},"7692518":{"post_code":"7692518","prefecture":"KAGAWA KEN","city":"HIGASHIKAGAWA SHI","town":"NAKAYAMA","perfecture_jp":"香川県","jp_add_1":"東かがわ市","jp_add_2":"中山"},"7692604":{"post_code":"7692604","prefecture":"KAGAWA KEN","city":"HIGASHIKAGAWA SHI","town":"NISHIMURA","perfecture_jp":"香川県","jp_add_1":"東かがわ市","jp_add_2":"西村"},"7692712":{"post_code":"7692712","prefecture":"KAGAWA KEN","city":"HIGASHIKAGAWA SHI","town":"NISHIYAMA","perfecture_jp":"香川県","jp_add_1":"東かがわ市","jp_add_2":"西山"},"7692714":{"post_code":"7692714","prefecture":"KAGAWA KEN","city":"HIGASHIKAGAWA SHI","town":"NYUNOYAMA","perfecture_jp":"香川県","jp_add_1":"東かがわ市","jp_add_2":"入野山"},"7692711":{"post_code":"7692711","prefecture":"KAGAWA KEN","city":"HIGASHIKAGAWA SHI","town":"HIGASHIYAMA","perfecture_jp":"香川県","jp_add_1":"東かがわ市","jp_add_2":"東山"},"7692901":{"post_code":"7692901","prefecture":"KAGAWA KEN","city":"HIGASHIKAGAWA SHI","town":"HIKETA","perfecture_jp":"香川県","jp_add_1":"東かがわ市","jp_add_2":"引田"},"7692515":{"post_code":"7692515","prefecture":"KAGAWA KEN","city":"HIGASHIKAGAWA SHI","town":"MACHIDA","perfecture_jp":"香川県","jp_add_1":"東かがわ市","jp_add_2":"町田"},"7692514":{"post_code":"7692514","prefecture":"KAGAWA KEN","city":"HIGASHIKAGAWA SHI","town":"MATSUSAKI","perfecture_jp":"香川県","jp_add_1":"東かがわ市","jp_add_2":"松崎"},"7692702":{"post_code":"7692702","prefecture":"KAGAWA KEN","city":"HIGASHIKAGAWA SHI","town":"MATSUBARA","perfecture_jp":"香川県","jp_add_1":"東かがわ市","jp_add_2":"松原"},"7692606":{"post_code":"7692606","prefecture":"KAGAWA KEN","city":"HIGASHIKAGAWA SHI","town":"MIZUSHI","perfecture_jp":"香川県","jp_add_1":"東かがわ市","jp_add_2":"水主"},"7692517":{"post_code":"7692517","prefecture":"KAGAWA KEN","city":"HIGASHIKAGAWA SHI","town":"MIDONO","perfecture_jp":"香川県","jp_add_1":"東かがわ市","jp_add_2":"三殿"},"7692701":{"post_code":"7692701","prefecture":"KAGAWA KEN","city":"HIGASHIKAGAWA SHI","town":"MINATO","perfecture_jp":"香川県","jp_add_1":"東かがわ市","jp_add_2":"湊"},"7692903":{"post_code":"7692903","prefecture":"KAGAWA KEN","city":"HIGASHIKAGAWA SHI","town":"MINAMINO","perfecture_jp":"香川県","jp_add_1":"東かがわ市","jp_add_2":"南野"},"7692603":{"post_code":"7692603","prefecture":"KAGAWA KEN","city":"HIGASHIKAGAWA SHI","town":"YOKOCHI","perfecture_jp":"香川県","jp_add_1":"東かがわ市","jp_add_2":"横内"},"7692907":{"post_code":"7692907","prefecture":"KAGAWA KEN","city":"HIGASHIKAGAWA SHI","town":"YOSHIDA","perfecture_jp":"香川県","jp_add_1":"東かがわ市","jp_add_2":"吉田"},"7692713":{"post_code":"7692713","prefecture":"KAGAWA KEN","city":"HIGASHIKAGAWA SHI","town":"YODAYAMA","perfecture_jp":"香川県","jp_add_1":"東かがわ市","jp_add_2":"与田山"},"7690401":{"post_code":"7690401","prefecture":"KAGAWA KEN","city":"MITOYO SHI","town":"SAITACHO SAITAKAMI","perfecture_jp":"香川県","jp_add_1":"三豊市","jp_add_2":"財田町財田上"},"7690402":{"post_code":"7690402","prefecture":"KAGAWA KEN","city":"MITOYO SHI","town":"SAITACHO SAITANAKA","perfecture_jp":"香川県","jp_add_1":"三豊市","jp_add_2":"財田町財田中"},"7691108":{"post_code":"7691108","prefecture":"KAGAWA KEN","city":"MITOYO SHI","town":"TAKUMACHO AWASHIMA","perfecture_jp":"香川県","jp_add_1":"三豊市","jp_add_2":"詫間町粟島"},"7691104":{"post_code":"7691104","prefecture":"KAGAWA KEN","city":"MITOYO SHI","town":"TAKUMACHO OHAMA","perfecture_jp":"香川県","jp_add_1":"三豊市","jp_add_2":"詫間町大浜"},"7691103":{"post_code":"7691103","prefecture":"KAGAWA KEN","city":"MITOYO SHI","town":"TAKUMACHO KODA","perfecture_jp":"香川県","jp_add_1":"三豊市","jp_add_2":"詫間町香田"},"7691109":{"post_code":"7691109","prefecture":"KAGAWA KEN","city":"MITOYO SHI","town":"TAKUMACHO SHISHIJIMA","perfecture_jp":"香川県","jp_add_1":"三豊市","jp_add_2":"詫間町志々島"},"7691101":{"post_code":"7691101","prefecture":"KAGAWA KEN","city":"MITOYO SHI","town":"TAKUMACHO TAKUMA","perfecture_jp":"香川県","jp_add_1":"三豊市","jp_add_2":"詫間町詫間"},"7691105":{"post_code":"7691105","prefecture":"KAGAWA KEN","city":"MITOYO SHI","town":"TAKUMACHO TSUMU","perfecture_jp":"香川県","jp_add_1":"三豊市","jp_add_2":"詫間町積"},"7691107":{"post_code":"7691107","prefecture":"KAGAWA KEN","city":"MITOYO SHI","town":"TAKUMACHO NAMARI","perfecture_jp":"香川県","jp_add_1":"三豊市","jp_add_2":"詫間町生里"},"7691106":{"post_code":"7691106","prefecture":"KAGAWA KEN","city":"MITOYO SHI","town":"TAKUMACHO HAKO","perfecture_jp":"香川県","jp_add_1":"三豊市","jp_add_2":"詫間町箱"},"7691102":{"post_code":"7691102","prefecture":"KAGAWA KEN","city":"MITOYO SHI","town":"TAKUMACHO MATSUSAKI","perfecture_jp":"香川県","jp_add_1":"三豊市","jp_add_2":"詫間町松崎"},"7691507":{"post_code":"7691507","prefecture":"KAGAWA KEN","city":"MITOYO SHI","town":"TOYONAKACHO OKAMOTO","perfecture_jp":"香川県","jp_add_1":"三豊市","jp_add_2":"豊中町岡本"},"7691502":{"post_code":"7691502","prefecture":"KAGAWA KEN","city":"MITOYO SHI","town":"TOYONAKACHO KASADAKASAOKA","perfecture_jp":"香川県","jp_add_1":"三豊市","jp_add_2":"豊中町笠田笠岡"},"7691503":{"post_code":"7691503","prefecture":"KAGAWA KEN","city":"MITOYO SHI","town":"TOYONAKACHO KASADATAKEDA","perfecture_jp":"香川県","jp_add_1":"三豊市","jp_add_2":"豊中町笠田竹田"},"7691504":{"post_code":"7691504","prefecture":"KAGAWA KEN","city":"MITOYO SHI","town":"TOYONAKACHO KAMIDAKANO","perfecture_jp":"香川県","jp_add_1":"三豊市","jp_add_2":"豊中町上高野"},"7691508":{"post_code":"7691508","prefecture":"KAGAWA KEN","city":"MITOYO SHI","town":"TOYONAKACHO SHIMODAKANO","perfecture_jp":"香川県","jp_add_1":"三豊市","jp_add_2":"豊中町下高野"},"7691501":{"post_code":"7691501","prefecture":"KAGAWA KEN","city":"MITOYO SHI","town":"TOYONAKACHO HIJIDAI","perfecture_jp":"香川県","jp_add_1":"三豊市","jp_add_2":"豊中町比地大"},"7691505":{"post_code":"7691505","prefecture":"KAGAWA KEN","city":"MITOYO SHI","town":"TOYONAKACHO MOTOYAMA OTSU","perfecture_jp":"香川県","jp_add_1":"三豊市","jp_add_2":"豊中町本山乙"},"7691506":{"post_code":"7691506","prefecture":"KAGAWA KEN","city":"MITOYO SHI","town":"TOYONAKACHO MOTOYAMA KO","perfecture_jp":"香川県","jp_add_1":"三豊市","jp_add_2":"豊中町本山甲"},"7691410":{"post_code":"7691410","prefecture":"KAGAWA KEN","city":"MITOYO SHI","town":"NIOCHO IENORA","perfecture_jp":"香川県","jp_add_1":"三豊市","jp_add_2":"仁尾町家の浦"},"7691404":{"post_code":"7691404","prefecture":"KAGAWA KEN","city":"MITOYO SHI","town":"NIOCHO NIO OTSU","perfecture_jp":"香川県","jp_add_1":"三豊市","jp_add_2":"仁尾町仁尾乙"},"7691401":{"post_code":"7691401","prefecture":"KAGAWA KEN","city":"MITOYO SHI","town":"NIOCHO NIO KI","perfecture_jp":"香川県","jp_add_1":"三豊市","jp_add_2":"仁尾町仁尾己"},"7691408":{"post_code":"7691408","prefecture":"KAGAWA KEN","city":"MITOYO SHI","town":"NIOCHO NIO KO","perfecture_jp":"香川県","jp_add_1":"三豊市","jp_add_2":"仁尾町仁尾甲"},"7691405":{"post_code":"7691405","prefecture":"KAGAWA KEN","city":"MITOYO SHI","town":"NIOCHO NIO KO","perfecture_jp":"香川県","jp_add_1":"三豊市","jp_add_2":"仁尾町仁尾庚"},"7691406":{"post_code":"7691406","prefecture":"KAGAWA KEN","city":"MITOYO SHI","town":"NIOCHO NIO SHIN","perfecture_jp":"香川県","jp_add_1":"三豊市","jp_add_2":"仁尾町仁尾辛"},"7691407":{"post_code":"7691407","prefecture":"KAGAWA KEN","city":"MITOYO SHI","town":"NIOCHO NIO TEI","perfecture_jp":"香川県","jp_add_1":"三豊市","jp_add_2":"仁尾町仁尾丁"},"7691403":{"post_code":"7691403","prefecture":"KAGAWA KEN","city":"MITOYO SHI","town":"NIOCHO NIO HEI","perfecture_jp":"香川県","jp_add_1":"三豊市","jp_add_2":"仁尾町仁尾丙"},"7691402":{"post_code":"7691402","prefecture":"KAGAWA KEN","city":"MITOYO SHI","town":"NIOCHO NIO BO","perfecture_jp":"香川県","jp_add_1":"三豊市","jp_add_2":"仁尾町仁尾戊"},"7690200":{"post_code":"7690200","prefecture":"KAGAWA KEN","city":"AYAUTA GUN UTAZU CHO","town":"IKANIKEISAIGANAIBAAI","perfecture_jp":"香川県","jp_add_1":"綾歌郡宇多津町","jp_add_2":""},"7690210":{"post_code":"7690210","prefecture":"KAGAWA KEN","city":"AYAUTA GUN UTAZU CHO","town":"UTAZUCHONOTSUGINIBANCHIGAKURUBAAI","perfecture_jp":"香川県","jp_add_1":"綾歌郡宇多津町","jp_add_2":""},"7690227":{"post_code":"7690227","prefecture":"KAGAWA KEN","city":"AYAUTA GUN UTAZU CHO","town":"IWAYA","perfecture_jp":"香川県","jp_add_1":"綾歌郡宇多津町","jp_add_2":"岩屋"},"7690222":{"post_code":"7690222","prefecture":"KAGAWA KEN","city":"AYAUTA GUN UTAZU CHO","town":"OHASHI","perfecture_jp":"香川県","jp_add_1":"綾歌郡宇多津町","jp_add_2":"大橋"},"7690226":{"post_code":"7690226","prefecture":"KAGAWA KEN","city":"AYAUTA GUN UTAZU CHO","town":"SAKASHITA","perfecture_jp":"香川県","jp_add_1":"綾歌郡宇多津町","jp_add_2":"坂下"},"7690223":{"post_code":"7690223","prefecture":"KAGAWA KEN","city":"AYAUTA GUN UTAZU CHO","town":"SHINGAI","perfecture_jp":"香川県","jp_add_1":"綾歌郡宇多津町","jp_add_2":"新開"},"7690225":{"post_code":"7690225","prefecture":"KAGAWA KEN","city":"AYAUTA GUN UTAZU CHO","town":"SHIMMACHI","perfecture_jp":"香川県","jp_add_1":"綾歌郡宇多津町","jp_add_2":"新町"},"7690211":{"post_code":"7690211","prefecture":"KAGAWA KEN","city":"AYAUTA GUN UTAZU CHO","town":"JURAKUJI","perfecture_jp":"香川県","jp_add_1":"綾歌郡宇多津町","jp_add_2":"十楽寺"},"7690212":{"post_code":"7690212","prefecture":"KAGAWA KEN","city":"AYAUTA GUN UTAZU CHO","town":"NUMANOIKE","perfecture_jp":"香川県","jp_add_1":"綾歌郡宇多津町","jp_add_2":"沼ノ池"},"7690201":{"post_code":"7690201","prefecture":"KAGAWA KEN","city":"AYAUTA GUN UTAZU CHO","town":"HAMA1-BANCHO","perfecture_jp":"香川県","jp_add_1":"綾歌郡宇多津町","jp_add_2":"浜一番丁"},"7690202":{"post_code":"7690202","prefecture":"KAGAWA KEN","city":"AYAUTA GUN UTAZU CHO","town":"HAMA2-BANCHO","perfecture_jp":"香川県","jp_add_1":"綾歌郡宇多津町","jp_add_2":"浜二番丁"},"7690203":{"post_code":"7690203","prefecture":"KAGAWA KEN","city":"AYAUTA GUN UTAZU CHO","town":"HAMA3-BANCHO","perfecture_jp":"香川県","jp_add_1":"綾歌郡宇多津町","jp_add_2":"浜三番丁"},"7690204":{"post_code":"7690204","prefecture":"KAGAWA KEN","city":"AYAUTA GUN UTAZU CHO","town":"HAMA4-BANCHO","perfecture_jp":"香川県","jp_add_1":"綾歌郡宇多津町","jp_add_2":"浜四番丁"},"7690205":{"post_code":"7690205","prefecture":"KAGAWA KEN","city":"AYAUTA GUN UTAZU CHO","town":"HAMA5-BANCHO","perfecture_jp":"香川県","jp_add_1":"綾歌郡宇多津町","jp_add_2":"浜五番丁"},"7690206":{"post_code":"7690206","prefecture":"KAGAWA KEN","city":"AYAUTA GUN UTAZU CHO","town":"HAMA6-BANCHO","perfecture_jp":"香川県","jp_add_1":"綾歌郡宇多津町","jp_add_2":"浜六番丁"},"7690207":{"post_code":"7690207","prefecture":"KAGAWA KEN","city":"AYAUTA GUN UTAZU CHO","town":"HAMA7-BANCHO","perfecture_jp":"香川県","jp_add_1":"綾歌郡宇多津町","jp_add_2":"浜七番丁"},"7690208":{"post_code":"7690208","prefecture":"KAGAWA KEN","city":"AYAUTA GUN UTAZU CHO","town":"HAMA8-BANCHO","perfecture_jp":"香川県","jp_add_1":"綾歌郡宇多津町","jp_add_2":"浜八番丁"},"7690209":{"post_code":"7690209","prefecture":"KAGAWA KEN","city":"AYAUTA GUN UTAZU CHO","town":"HAMA9-BANCHO","perfecture_jp":"香川県","jp_add_1":"綾歌郡宇多津町","jp_add_2":"浜九番丁"},"7690213":{"post_code":"7690213","prefecture":"KAGAWA KEN","city":"AYAUTA GUN UTAZU CHO","town":"HIGASHIBUN","perfecture_jp":"香川県","jp_add_1":"綾歌郡宇多津町","jp_add_2":"東分"},"7690224":{"post_code":"7690224","prefecture":"KAGAWA KEN","city":"AYAUTA GUN UTAZU CHO","town":"HIRAYAMA","perfecture_jp":"香川県","jp_add_1":"綾歌郡宇多津町","jp_add_2":"平山"},"7690228":{"post_code":"7690228","prefecture":"KAGAWA KEN","city":"AYAUTA GUN UTAZU CHO","town":"MUKAUYAMA","perfecture_jp":"香川県","jp_add_1":"綾歌郡宇多津町","jp_add_2":"向山"},"7690221":{"post_code":"7690221","prefecture":"KAGAWA KEN","city":"AYAUTA GUN UTAZU CHO","town":"YOSHIDA","perfecture_jp":"香川県","jp_add_1":"綾歌郡宇多津町","jp_add_2":"吉田"},"7690313":{"post_code":"7690313","prefecture":"KAGAWA KEN","city":"NAKATADO GUN MANNO CHO","town":"IKAMA","perfecture_jp":"香川県","jp_add_1":"仲多度郡まんのう町","jp_add_2":"生間"},"7690315":{"post_code":"7690315","prefecture":"KAGAWA KEN","city":"NAKATADO GUN MANNO CHO","town":"USHIROYAMA","perfecture_jp":"香川県","jp_add_1":"仲多度郡まんのう町","jp_add_2":"後山"},"7690319":{"post_code":"7690319","prefecture":"KAGAWA KEN","city":"NAKATADO GUN MANNO CHO","town":"OIAGE","perfecture_jp":"香川県","jp_add_1":"仲多度郡まんのう町","jp_add_2":"追上"},"7690316":{"post_code":"7690316","prefecture":"KAGAWA KEN","city":"NAKATADO GUN MANNO CHO","town":"OKUCHI","perfecture_jp":"香川県","jp_add_1":"仲多度郡まんのう町","jp_add_2":"大口"},"7690311":{"post_code":"7690311","prefecture":"KAGAWA KEN","city":"NAKATADO GUN MANNO CHO","town":"KAITA","perfecture_jp":"香川県","jp_add_1":"仲多度郡まんのう町","jp_add_2":"買田"},"7690301":{"post_code":"7690301","prefecture":"KAGAWA KEN","city":"NAKATADO GUN MANNO CHO","town":"SABUMI","perfecture_jp":"香川県","jp_add_1":"仲多度郡まんのう町","jp_add_2":"佐文"},"7690302":{"post_code":"7690302","prefecture":"KAGAWA KEN","city":"NAKATADO GUN MANNO CHO","town":"SHIOIRI","perfecture_jp":"香川県","jp_add_1":"仲多度郡まんのう町","jp_add_2":"塩入"},"7690303":{"post_code":"7690303","prefecture":"KAGAWA KEN","city":"NAKATADO GUN MANNO CHO","town":"SHICHIKA","perfecture_jp":"香川県","jp_add_1":"仲多度郡まんのう町","jp_add_2":"七箇"},"7690317":{"post_code":"7690317","prefecture":"KAGAWA KEN","city":"NAKATADO GUN MANNO CHO","town":"SHIMME","perfecture_jp":"香川県","jp_add_1":"仲多度郡まんのう町","jp_add_2":"新目"},"7690314":{"post_code":"7690314","prefecture":"KAGAWA KEN","city":"NAKATADO GUN MANNO CHO","town":"HONOYAMA","perfecture_jp":"香川県","jp_add_1":"仲多度郡まんのう町","jp_add_2":"帆山"},"7690312":{"post_code":"7690312","prefecture":"KAGAWA KEN","city":"NAKATADO GUN MANNO CHO","town":"MIYADA","perfecture_jp":"香川県","jp_add_1":"仲多度郡まんのう町","jp_add_2":"宮田"},"7690318":{"post_code":"7690318","prefecture":"KAGAWA KEN","city":"NAKATADO GUN MANNO CHO","town":"YAMAWAKI","perfecture_jp":"香川県","jp_add_1":"仲多度郡まんのう町","jp_add_2":"山脇"}}