{"7714265":{"post_code":"7714265","prefecture":"TOKUSHIMA KEN","city":"TOKUSHIMA SHI","town":"IITANICHO","perfecture_jp":"徳島県","jp_add_1":"徳島市","jp_add_2":"飯谷町"},"7711156":{"post_code":"7711156","prefecture":"TOKUSHIMA KEN","city":"TOKUSHIMA SHI","town":"OJINCHOOJINSANGYODANCHI","perfecture_jp":"徳島県","jp_add_1":"徳島市","jp_add_2":"応神町応神産業団地"},"7711152":{"post_code":"7711152","prefecture":"TOKUSHIMA KEN","city":"TOKUSHIMA SHI","town":"OJINCHONAKAHARA","perfecture_jp":"徳島県","jp_add_1":"徳島市","jp_add_2":"応神町中原"},"7711154":{"post_code":"7711154","prefecture":"TOKUSHIMA KEN","city":"TOKUSHIMA SHI","town":"OJINCHOHIGASHISADAKATA","perfecture_jp":"徳島県","jp_add_1":"徳島市","jp_add_2":"応神町東貞方"},"7711155":{"post_code":"7711155","prefecture":"TOKUSHIMA KEN","city":"TOKUSHIMA SHI","town":"OJINCHONISHISADAKATA","perfecture_jp":"徳島県","jp_add_1":"徳島市","jp_add_2":"応神町西貞方"},"7711151":{"post_code":"7711151","prefecture":"TOKUSHIMA KEN","city":"TOKUSHIMA SHI","town":"OJINCHOFURUKAWA","perfecture_jp":"徳島県","jp_add_1":"徳島市","jp_add_2":"応神町古川"},"7711153":{"post_code":"7711153","prefecture":"TOKUSHIMA KEN","city":"TOKUSHIMA SHI","town":"OJINCHOYOSHINARI","perfecture_jp":"徳島県","jp_add_1":"徳島市","jp_add_2":"応神町吉成"},"7710101":{"post_code":"7710101","prefecture":"TOKUSHIMA KEN","city":"TOKUSHIMA SHI","town":"KAWAUCHICHO(ASAHINO)","perfecture_jp":"徳島県","jp_add_1":"徳島市","jp_add_2":"川内町"},"7710144":{"post_code":"7710144","prefecture":"TOKUSHIMA KEN","city":"TOKUSHIMA SHI","town":"KAWAUCHICHO(ENOKISE)","perfecture_jp":"徳島県","jp_add_1":"徳島市","jp_add_2":"川内町"},"7710131":{"post_code":"7710131","prefecture":"TOKUSHIMA KEN","city":"TOKUSHIMA SHI","town":"KAWAUCHICHO(OMATSU)","perfecture_jp":"徳島県","jp_add_1":"徳島市","jp_add_2":"川内町"},"7710142":{"post_code":"7710142","prefecture":"TOKUSHIMA KEN","city":"TOKUSHIMA SHI","town":"KAWAUCHICHO(OKINOSHIMA)","perfecture_jp":"徳島県","jp_add_1":"徳島市","jp_add_2":"川内町"},"7710130":{"post_code":"7710130","prefecture":"TOKUSHIMA KEN","city":"TOKUSHIMA SHI","town":"KAWAUCHICHO(KAGASUNO)","perfecture_jp":"徳島県","jp_add_1":"徳島市","jp_add_2":"川内町"},"7710125":{"post_code":"7710125","prefecture":"TOKUSHIMA KEN","city":"TOKUSHIMA SHI","town":"KAWAUCHICHO(KANAOKA)","perfecture_jp":"徳島県","jp_add_1":"徳島市","jp_add_2":"川内町"},"7710126":{"post_code":"7710126","prefecture":"TOKUSHIMA KEN","city":"TOKUSHIMA SHI","town":"KAWAUCHICHO(KAMIBETSUKUHIGASHI)","perfecture_jp":"徳島県","jp_add_1":"徳島市","jp_add_2":"川内町"},"7710127":{"post_code":"7710127","prefecture":"TOKUSHIMA KEN","city":"TOKUSHIMA SHI","town":"KAWAUCHICHO(KAMIBETSUKUMINAMI)","perfecture_jp":"徳島県","jp_add_1":"徳島市","jp_add_2":"川内町"},"7710128":{"post_code":"7710128","prefecture":"TOKUSHIMA KEN","city":"TOKUSHIMA SHI","town":"KAWAUCHICHO(KAMIBETSUKUKITA)","perfecture_jp":"徳島県","jp_add_1":"徳島市","jp_add_2":"川内町"},"7710129":{"post_code":"7710129","prefecture":"TOKUSHIMA KEN","city":"TOKUSHIMA SHI","town":"KAWAUCHICHO(KITAHARA)","perfecture_jp":"徳島県","jp_add_1":"徳島市","jp_add_2":"川内町"},"7710103":{"post_code":"7710103","prefecture":"TOKUSHIMA KEN","city":"TOKUSHIMA SHI","town":"KAWAUCHICHO(KOMATSUHIGASHI)","perfecture_jp":"徳島県","jp_add_1":"徳島市","jp_add_2":"川内町"},"7710104":{"post_code":"7710104","prefecture":"TOKUSHIMA KEN","city":"TOKUSHIMA SHI","town":"KAWAUCHICHO(KOMATSUNISHI)","perfecture_jp":"徳島県","jp_add_1":"徳島市","jp_add_2":"川内町"},"7710102":{"post_code":"7710102","prefecture":"TOKUSHIMA KEN","city":"TOKUSHIMA SHI","town":"KAWAUCHICHO(KOMATSUKITA)","perfecture_jp":"徳島県","jp_add_1":"徳島市","jp_add_2":"川内町"},"7710106":{"post_code":"7710106","prefecture":"TOKUSHIMA KEN","city":"TOKUSHIMA SHI","town":"KAWAUCHICHO(SHIMOBETSUKUHIGASHI)","perfecture_jp":"徳島県","jp_add_1":"徳島市","jp_add_2":"川内町"},"7710105":{"post_code":"7710105","prefecture":"TOKUSHIMA KEN","city":"TOKUSHIMA SHI","town":"KAWAUCHICHO(SHIMOBETSUKUNISHI)","perfecture_jp":"徳島県","jp_add_1":"徳島市","jp_add_2":"川内町"},"7710121":{"post_code":"7710121","prefecture":"TOKUSHIMA KEN","city":"TOKUSHIMA SHI","town":"KAWAUCHICHO(SUZUEHIGASHI)","perfecture_jp":"徳島県","jp_add_1":"徳島市","jp_add_2":"川内町"},"7710122":{"post_code":"7710122","prefecture":"TOKUSHIMA KEN","city":"TOKUSHIMA SHI","town":"KAWAUCHICHO(SUZUENISHI)","perfecture_jp":"徳島県","jp_add_1":"徳島市","jp_add_2":"川内町"},"7710124":{"post_code":"7710124","prefecture":"TOKUSHIMA KEN","city":"TOKUSHIMA SHI","town":"KAWAUCHICHO(SUZUEMINAMI)","perfecture_jp":"徳島県","jp_add_1":"徳島市","jp_add_2":"川内町"},"7710123":{"post_code":"7710123","prefecture":"TOKUSHIMA KEN","city":"TOKUSHIMA SHI","town":"KAWAUCHICHO(SUZUEKITA)","perfecture_jp":"徳島県","jp_add_1":"徳島市","jp_add_2":"川内町"},"7710141":{"post_code":"7710141","prefecture":"TOKUSHIMA KEN","city":"TOKUSHIMA SHI","town":"KAWAUCHICHO(TAKEZUKA)","perfecture_jp":"徳島県","jp_add_1":"徳島市","jp_add_2":"川内町"},"7710117":{"post_code":"7710117","prefecture":"TOKUSHIMA KEN","city":"TOKUSHIMA SHI","town":"KAWAUCHICHO(TSURUSHIMA)","perfecture_jp":"徳島県","jp_add_1":"徳島市","jp_add_2":"川内町"},"7710111":{"post_code":"7710111","prefecture":"TOKUSHIMA KEN","city":"TOKUSHIMA SHI","town":"KAWAUCHICHO(TOMIHISA)","perfecture_jp":"徳島県","jp_add_1":"徳島市","jp_add_2":"川内町"},"7710112":{"post_code":"7710112","prefecture":"TOKUSHIMA KEN","city":"TOKUSHIMA SHI","town":"KAWAUCHICHO(TOMIYOSHI)","perfecture_jp":"徳島県","jp_add_1":"徳島市","jp_add_2":"川内町"},"7710143":{"post_code":"7710143","prefecture":"TOKUSHIMA KEN","city":"TOKUSHIMA SHI","town":"KAWAUCHICHO(NAKASHIMA)","perfecture_jp":"徳島県","jp_add_1":"徳島市","jp_add_2":"川内町"},"7710132":{"post_code":"7710132","prefecture":"TOKUSHIMA KEN","city":"TOKUSHIMA SHI","town":"KAWAUCHICHO(HIRAISHIEBISUNO)","perfecture_jp":"徳島県","jp_add_1":"徳島市","jp_add_2":"川内町"},"7710133":{"post_code":"7710133","prefecture":"TOKUSHIMA KEN","city":"TOKUSHIMA SHI","town":"KAWAUCHICHO(HIRAISHIEBISUNOBANGAI)","perfecture_jp":"徳島県","jp_add_1":"徳島市","jp_add_2":"川内町"},"7710136":{"post_code":"7710136","prefecture":"TOKUSHIMA KEN","city":"TOKUSHIMA SHI","town":"KAWAUCHICHO(HIRAISHIKODEN)","perfecture_jp":"徳島県","jp_add_1":"徳島市","jp_add_2":"川内町"},"7710134":{"post_code":"7710134","prefecture":"TOKUSHIMA KEN","city":"TOKUSHIMA SHI","town":"KAWAUCHICHO(HIRAISHISUMIYOSHI)","perfecture_jp":"徳島県","jp_add_1":"徳島市","jp_add_2":"川内町"},"7710138":{"post_code":"7710138","prefecture":"TOKUSHIMA KEN","city":"TOKUSHIMA SHI","town":"KAWAUCHICHO(HIRAISHIRYUTSUDANCHI)","perfecture_jp":"徳島県","jp_add_1":"徳島市","jp_add_2":"川内町"},"7710135":{"post_code":"7710135","prefecture":"TOKUSHIMA KEN","city":"TOKUSHIMA SHI","town":"KAWAUCHICHO(HIRAISHIWAKAMATSU)","perfecture_jp":"徳島県","jp_add_1":"徳島市","jp_add_2":"川内町"},"7710137":{"post_code":"7710137","prefecture":"TOKUSHIMA KEN","city":"TOKUSHIMA SHI","town":"KAWAUCHICHO(HIRAISHIWAKAMIYA)","perfecture_jp":"徳島県","jp_add_1":"徳島市","jp_add_2":"川内町"},"7710113":{"post_code":"7710113","prefecture":"TOKUSHIMA KEN","city":"TOKUSHIMA SHI","town":"KAWAUCHICHO(MATSUOKA)","perfecture_jp":"徳島県","jp_add_1":"徳島市","jp_add_2":"川内町"},"7710116":{"post_code":"7710116","prefecture":"TOKUSHIMA KEN","city":"TOKUSHIMA SHI","town":"KAWAUCHICHO(MIYAJIMANISHIKINO)","perfecture_jp":"徳島県","jp_add_1":"徳島市","jp_add_2":"川内町"},"7710115":{"post_code":"7710115","prefecture":"TOKUSHIMA KEN","city":"TOKUSHIMA SHI","town":"KAWAUCHICHO(MIYAJIMAHAMA)","perfecture_jp":"徳島県","jp_add_1":"徳島市","jp_add_2":"川内町"},"7710114":{"post_code":"7710114","prefecture":"TOKUSHIMA KEN","city":"TOKUSHIMA SHI","town":"KAWAUCHICHO(MIYAJIMAHONURA)","perfecture_jp":"徳島県","jp_add_1":"徳島市","jp_add_2":"川内町"},"7710139":{"post_code":"7710139","prefecture":"TOKUSHIMA KEN","city":"TOKUSHIMA SHI","town":"KAWAUCHICHO(YONEZU)","perfecture_jp":"徳島県","jp_add_1":"徳島市","jp_add_2":"川内町"},"7714267":{"post_code":"7714267","prefecture":"TOKUSHIMA KEN","city":"TOKUSHIMA SHI","town":"SHIBUNOCHO","perfecture_jp":"徳島県","jp_add_1":"徳島市","jp_add_2":"渋野町"},"7714263":{"post_code":"7714263","prefecture":"TOKUSHIMA KEN","city":"TOKUSHIMA SHI","town":"JOROKUCHO(JORYO)","perfecture_jp":"徳島県","jp_add_1":"徳島市","jp_add_2":"丈六町"},"7714262":{"post_code":"7714262","prefecture":"TOKUSHIMA KEN","city":"TOKUSHIMA SHI","town":"JOROKUCHO(NAGAO)","perfecture_jp":"徳島県","jp_add_1":"徳島市","jp_add_2":"丈六町"},"7714261":{"post_code":"7714261","prefecture":"TOKUSHIMA KEN","city":"TOKUSHIMA SHI","town":"JOROKUCHO(SONOTA)","perfecture_jp":"徳島県","jp_add_1":"徳島市","jp_add_2":"丈六町"},"7714264":{"post_code":"7714264","prefecture":"TOKUSHIMA KEN","city":"TOKUSHIMA SHI","town":"TAKARACHO","perfecture_jp":"徳島県","jp_add_1":"徳島市","jp_add_2":"多家良町"},"7714266":{"post_code":"7714266","prefecture":"TOKUSHIMA KEN","city":"TOKUSHIMA SHI","town":"HATACHO","perfecture_jp":"徳島県","jp_add_1":"徳島市","jp_add_2":"八多町"},"7710372":{"post_code":"7710372","prefecture":"TOKUSHIMA KEN","city":"NARUTO SHI","town":"KITANADACHOAWATA","perfecture_jp":"徳島県","jp_add_1":"鳴門市","jp_add_2":"北灘町粟田"},"7710373":{"post_code":"7710373","prefecture":"TOKUSHIMA KEN","city":"NARUTO SHI","town":"KITANADACHOOURA","perfecture_jp":"徳島県","jp_add_1":"鳴門市","jp_add_2":"北灘町大浦"},"7710377":{"post_code":"7710377","prefecture":"TOKUSHIMA KEN","city":"NARUTO SHI","town":"KITANADACHOOZU","perfecture_jp":"徳島県","jp_add_1":"鳴門市","jp_add_2":"北灘町大須"},"7710376":{"post_code":"7710376","prefecture":"TOKUSHIMA KEN","city":"NARUTO SHI","town":"KITANADACHOORINO","perfecture_jp":"徳島県","jp_add_1":"鳴門市","jp_add_2":"北灘町折野"},"7710371":{"post_code":"7710371","prefecture":"TOKUSHIMA KEN","city":"NARUTO SHI","town":"KITANADACHOKUSHIKI","perfecture_jp":"徳島県","jp_add_1":"鳴門市","jp_add_2":"北灘町櫛木"},"7710378":{"post_code":"7710378","prefecture":"TOKUSHIMA KEN","city":"NARUTO SHI","town":"KITANADACHOGONORA","perfecture_jp":"徳島県","jp_add_1":"鳴門市","jp_add_2":"北灘町碁浦"},"7710374":{"post_code":"7710374","prefecture":"TOKUSHIMA KEN","city":"NARUTO SHI","town":"KITANADACHOSHUKUMODANI","perfecture_jp":"徳島県","jp_add_1":"鳴門市","jp_add_2":"北灘町宿毛谷"},"7710375":{"post_code":"7710375","prefecture":"TOKUSHIMA KEN","city":"NARUTO SHI","town":"KITANADACHOTORIGAMARU","perfecture_jp":"徳島県","jp_add_1":"鳴門市","jp_add_2":"北灘町鳥ケ丸"},"7710360":{"post_code":"7710360","prefecture":"TOKUSHIMA KEN","city":"NARUTO SHI","town":"SETOCHOAKINOKAMI(SONOTA)","perfecture_jp":"徳島県","jp_add_1":"鳴門市","jp_add_2":"瀬戸町明神"},"7710362":{"post_code":"7710362","prefecture":"TOKUSHIMA KEN","city":"NARUTO SHI","town":"SETOCHOKITADOMARI(OMI)","perfecture_jp":"徳島県","jp_add_1":"鳴門市","jp_add_2":"瀬戸町北泊"},"7710364":{"post_code":"7710364","prefecture":"TOKUSHIMA KEN","city":"NARUTO SHI","town":"SETOCHOKITADOMARI(SONOTA)","perfecture_jp":"徳島県","jp_add_1":"鳴門市","jp_add_2":"瀬戸町北泊"},"7710367":{"post_code":"7710367","prefecture":"TOKUSHIMA KEN","city":"NARUTO SHI","town":"SETOCHOOSHIMADA","perfecture_jp":"徳島県","jp_add_1":"鳴門市","jp_add_2":"瀬戸町大島田"},"7710366":{"post_code":"7710366","prefecture":"TOKUSHIMA KEN","city":"NARUTO SHI","town":"SETOCHONAKASHIMADA","perfecture_jp":"徳島県","jp_add_1":"鳴門市","jp_add_2":"瀬戸町中島田"},"7710365":{"post_code":"7710365","prefecture":"TOKUSHIMA KEN","city":"NARUTO SHI","town":"SETOCHOKOSHIMADA","perfecture_jp":"徳島県","jp_add_1":"鳴門市","jp_add_2":"瀬戸町小島田"},"7710361":{"post_code":"7710361","prefecture":"TOKUSHIMA KEN","city":"NARUTO SHI","town":"SETOCHODONORA","perfecture_jp":"徳島県","jp_add_1":"鳴門市","jp_add_2":"瀬戸町堂浦"},"7710363":{"post_code":"7710363","prefecture":"TOKUSHIMA KEN","city":"NARUTO SHI","town":"SETOCHOMINATODANI","perfecture_jp":"徳島県","jp_add_1":"鳴門市","jp_add_2":"瀬戸町湊谷"},"7710369":{"post_code":"7710369","prefecture":"TOKUSHIMA KEN","city":"NARUTO SHI","town":"SETOCHOMUSA","perfecture_jp":"徳島県","jp_add_1":"鳴門市","jp_add_2":"瀬戸町撫佐"},"7710368":{"post_code":"7710368","prefecture":"TOKUSHIMA KEN","city":"NARUTO SHI","town":"SETOCHOMURO","perfecture_jp":"徳島県","jp_add_1":"鳴門市","jp_add_2":"瀬戸町室"},"7715177":{"post_code":"7715177","prefecture":"TOKUSHIMA KEN","city":"ANAN SHI","town":"OICHO","perfecture_jp":"徳島県","jp_add_1":"阿南市","jp_add_2":"大井町"},"7715176":{"post_code":"7715176","prefecture":"TOKUSHIMA KEN","city":"ANAN SHI","town":"OTAICHO","perfecture_jp":"徳島県","jp_add_1":"阿南市","jp_add_2":"大田井町"},"7715173":{"post_code":"7715173","prefecture":"TOKUSHIMA KEN","city":"ANAN SHI","town":"KAMOCHO","perfecture_jp":"徳島県","jp_add_1":"阿南市","jp_add_2":"加茂町"},"7715170":{"post_code":"7715170","prefecture":"TOKUSHIMA KEN","city":"ANAN SHI","town":"KUSUNECHO","perfecture_jp":"徳島県","jp_add_1":"阿南市","jp_add_2":"楠根町"},"7715171":{"post_code":"7715171","prefecture":"TOKUSHIMA KEN","city":"ANAN SHI","town":"KUMADANICHO","perfecture_jp":"徳島県","jp_add_1":"阿南市","jp_add_2":"熊谷町"},"7715178":{"post_code":"7715178","prefecture":"TOKUSHIMA KEN","city":"ANAN SHI","town":"SAKARICHO","perfecture_jp":"徳島県","jp_add_1":"阿南市","jp_add_2":"十八女町"},"7715174":{"post_code":"7715174","prefecture":"TOKUSHIMA KEN","city":"ANAN SHI","town":"SUIICHO","perfecture_jp":"徳島県","jp_add_1":"阿南市","jp_add_2":"水井町"},"7715179":{"post_code":"7715179","prefecture":"TOKUSHIMA KEN","city":"ANAN SHI","town":"FUKASECHO","perfecture_jp":"徳島県","jp_add_1":"阿南市","jp_add_2":"深瀬町"},"7715175":{"post_code":"7715175","prefecture":"TOKUSHIMA KEN","city":"ANAN SHI","town":"HOSONOCHO","perfecture_jp":"徳島県","jp_add_1":"阿南市","jp_add_2":"細野町"},"7715172":{"post_code":"7715172","prefecture":"TOKUSHIMA KEN","city":"ANAN SHI","town":"YOSHIICHO","perfecture_jp":"徳島県","jp_add_1":"阿南市","jp_add_2":"吉井町"},"7711700":{"post_code":"7711700","prefecture":"TOKUSHIMA KEN","city":"AWA SHI","town":"IKANIKEISAIGANAIBAAI","perfecture_jp":"徳島県","jp_add_1":"阿波市","jp_add_2":""},"7711705":{"post_code":"7711705","prefecture":"TOKUSHIMA KEN","city":"AWA SHI","town":"AWACHO MATSUKAWAUCHI","perfecture_jp":"徳島県","jp_add_1":"阿波市","jp_add_2":"阿波町赤坂"},"7711701":{"post_code":"7711701","prefecture":"TOKUSHIMA KEN","city":"AWA SHI","town":"AWACHO MINAMITANIJIMA","perfecture_jp":"徳島県","jp_add_1":"阿波市","jp_add_2":"阿波町伊沢市"},"7711703":{"post_code":"7711703","prefecture":"TOKUSHIMA KEN","city":"AWA SHI","town":"AWACHO MINAMISHIBO","perfecture_jp":"徳島県","jp_add_1":"阿波市","jp_add_2":"阿波町伊沢田"},"7711704":{"post_code":"7711704","prefecture":"TOKUSHIMA KEN","city":"AWA SHI","town":"AWACHO YAMANOKAMI","perfecture_jp":"徳島県","jp_add_1":"阿波市","jp_add_2":"阿波町伊沢谷東縁"},"7711702":{"post_code":"7711702","prefecture":"TOKUSHIMA KEN","city":"AWA SHI","town":"AWACHO WASADA","perfecture_jp":"徳島県","jp_add_1":"阿波市","jp_add_2":"阿波町伊勢"},"7711706":{"post_code":"7711706","prefecture":"TOKUSHIMA KEN","city":"AWA SHI","town":"AWACHO MINAMINISHIDANI","perfecture_jp":"徳島県","jp_add_1":"阿波市","jp_add_2":"阿波町岩津"},"7711602":{"post_code":"7711602","prefecture":"TOKUSHIMA KEN","city":"AWA SHI","town":"ICHIBACHO ICHIBA(UENODAN)","perfecture_jp":"徳島県","jp_add_1":"阿波市","jp_add_2":"市場町市場"},"7711603":{"post_code":"7711603","prefecture":"TOKUSHIMA KEN","city":"AWA SHI","town":"ICHIBACHO ICHIBA(KISHINOSHITA)","perfecture_jp":"徳島県","jp_add_1":"阿波市","jp_add_2":"市場町市場"},"7711601":{"post_code":"7711601","prefecture":"TOKUSHIMA KEN","city":"AWA SHI","town":"ICHIBACHO ICHIBA(KOZAKI)","perfecture_jp":"徳島県","jp_add_1":"阿波市","jp_add_2":"市場町市場"},"7711604":{"post_code":"7711604","prefecture":"TOKUSHIMA KEN","city":"AWA SHI","town":"ICHIBACHO ICHIBA(MACHISUJI)","perfecture_jp":"徳島県","jp_add_1":"阿波市","jp_add_2":"市場町市場"},"7711626":{"post_code":"7711626","prefecture":"TOKUSHIMA KEN","city":"AWA SHI","town":"ICHIBACHO ITSUKI","perfecture_jp":"徳島県","jp_add_1":"阿波市","jp_add_2":"市場町伊月"},"7711714":{"post_code":"7711714","prefecture":"TOKUSHIMA KEN","city":"AWA SHI","town":"ICHIBACHO INUNOHAKA(KOTAKE)","perfecture_jp":"徳島県","jp_add_1":"阿波市","jp_add_2":"市場町犬墓"},"7711614":{"post_code":"7711614","prefecture":"TOKUSHIMA KEN","city":"AWA SHI","town":"ICHIBACHO INUNOHAKA(SONOTA)","perfecture_jp":"徳島県","jp_add_1":"阿波市","jp_add_2":"市場町犬墓"},"7711615":{"post_code":"7711615","prefecture":"TOKUSHIMA KEN","city":"AWA SHI","town":"ICHIBACHO OKAGE","perfecture_jp":"徳島県","jp_add_1":"阿波市","jp_add_2":"市場町大影"},"7711627":{"post_code":"7711627","prefecture":"TOKUSHIMA KEN","city":"AWA SHI","town":"ICHIBACHO ONOJIMA","perfecture_jp":"徳島県","jp_add_1":"阿波市","jp_add_2":"市場町大野島"},"7711613":{"post_code":"7711613","prefecture":"TOKUSHIMA KEN","city":"AWA SHI","town":"ICHIBACHO OMATA","perfecture_jp":"徳島県","jp_add_1":"阿波市","jp_add_2":"市場町大俣"},"7711621":{"post_code":"7711621","prefecture":"TOKUSHIMA KEN","city":"AWA SHI","town":"ICHIBACHO OBARI","perfecture_jp":"徳島県","jp_add_1":"阿波市","jp_add_2":"市場町尾開"},"7711611":{"post_code":"7711611","prefecture":"TOKUSHIMA KEN","city":"AWA SHI","town":"ICHIBACHO KAGAMI(KITAKAGAMI)","perfecture_jp":"徳島県","jp_add_1":"阿波市","jp_add_2":"市場町香美"},"7711610":{"post_code":"7711610","prefecture":"TOKUSHIMA KEN","city":"AWA SHI","town":"ICHIBACHO KAGAMI(SONOTA)","perfecture_jp":"徳島県","jp_add_1":"阿波市","jp_add_2":"市場町香美"},"7711612":{"post_code":"7711612","prefecture":"TOKUSHIMA KEN","city":"AWA SHI","town":"ICHIBACHO KAMIGIRAI","perfecture_jp":"徳島県","jp_add_1":"阿波市","jp_add_2":"市場町上喜来"},"7711623":{"post_code":"7711623","prefecture":"TOKUSHIMA KEN","city":"AWA SHI","town":"ICHIBACHO KIRIHATA","perfecture_jp":"徳島県","jp_add_1":"阿波市","jp_add_2":"市場町切幡"},"7711622":{"post_code":"7711622","prefecture":"TOKUSHIMA KEN","city":"AWA SHI","town":"ICHIBACHO KOZAKI","perfecture_jp":"徳島県","jp_add_1":"阿波市","jp_add_2":"市場町興崎"},"7711616":{"post_code":"7711616","prefecture":"TOKUSHIMA KEN","city":"AWA SHI","town":"ICHIBACHO HIGAIDANI","perfecture_jp":"徳島県","jp_add_1":"阿波市","jp_add_2":"市場町日開谷"},"7711624":{"post_code":"7711624","prefecture":"TOKUSHIMA KEN","city":"AWA SHI","town":"ICHIBACHO YAMANOE","perfecture_jp":"徳島県","jp_add_1":"阿波市","jp_add_2":"市場町山野上"},"7711625":{"post_code":"7711625","prefecture":"TOKUSHIMA KEN","city":"AWA SHI","town":"ICHIBACHO YAWATA","perfecture_jp":"徳島県","jp_add_1":"阿波市","jp_add_2":"市場町八幡"},"7711501":{"post_code":"7711501","prefecture":"TOKUSHIMA KEN","city":"AWA SHI","town":"DONARICHO AKIZUKI","perfecture_jp":"徳島県","jp_add_1":"阿波市","jp_add_2":"土成町秋月"},"7711503":{"post_code":"7711503","prefecture":"TOKUSHIMA KEN","city":"AWA SHI","town":"DONARICHO URANOIKE","perfecture_jp":"徳島県","jp_add_1":"阿波市","jp_add_2":"土成町浦池"},"7711505":{"post_code":"7711505","prefecture":"TOKUSHIMA KEN","city":"AWA SHI","town":"DONARICHO KORI","perfecture_jp":"徳島県","jp_add_1":"阿波市","jp_add_2":"土成町郡"},"7711509":{"post_code":"7711509","prefecture":"TOKUSHIMA KEN","city":"AWA SHI","town":"DONARICHO TAKAO","perfecture_jp":"徳島県","jp_add_1":"阿波市","jp_add_2":"土成町高尾"},"7711506":{"post_code":"7711506","prefecture":"TOKUSHIMA KEN","city":"AWA SHI","town":"DONARICHO DONARI","perfecture_jp":"徳島県","jp_add_1":"阿波市","jp_add_2":"土成町土成"},"7711504":{"post_code":"7711504","prefecture":"TOKUSHIMA KEN","city":"AWA SHI","town":"DONARICHO NARITO","perfecture_jp":"徳島県","jp_add_1":"阿波市","jp_add_2":"土成町成当"},"7711502":{"post_code":"7711502","prefecture":"TOKUSHIMA KEN","city":"AWA SHI","town":"DONARICHO MIZUTA","perfecture_jp":"徳島県","jp_add_1":"阿波市","jp_add_2":"土成町水田"},"7711508":{"post_code":"7711508","prefecture":"TOKUSHIMA KEN","city":"AWA SHI","town":"DONARICHO MIYAGAWAUCHI","perfecture_jp":"徳島県","jp_add_1":"阿波市","jp_add_2":"土成町宮川内"},"7711507":{"post_code":"7711507","prefecture":"TOKUSHIMA KEN","city":"AWA SHI","town":"DONARICHO YOSHIDA","perfecture_jp":"徳島県","jp_add_1":"阿波市","jp_add_2":"土成町吉田"},"7711401":{"post_code":"7711401","prefecture":"TOKUSHIMA KEN","city":"AWA SHI","town":"YOSHINOCHO KAKIHARA","perfecture_jp":"徳島県","jp_add_1":"阿波市","jp_add_2":"吉野町柿原"},"7711403":{"post_code":"7711403","prefecture":"TOKUSHIMA KEN","city":"AWA SHI","town":"YOSHINOCHO GOJO","perfecture_jp":"徳島県","jp_add_1":"阿波市","jp_add_2":"吉野町五条"},"7711402":{"post_code":"7711402","prefecture":"TOKUSHIMA KEN","city":"AWA SHI","town":"YOSHINOCHO SAIJO","perfecture_jp":"徳島県","jp_add_1":"阿波市","jp_add_2":"吉野町西条"},"7712107":{"post_code":"7712107","prefecture":"TOKUSHIMA KEN","city":"MIMA SHI","town":"YAMANATSUWARABI.YOSHIMIZU)","perfecture_jp":"徳島県","jp_add_1":"美馬市","jp_add_2":"美馬町"},"7712106":{"post_code":"7712106","prefecture":"TOKUSHIMA KEN","city":"MIMA SHI","town":"NISHIARAKAWA.NUMADAJIMA.HIGASHIARAK","perfecture_jp":"徳島県","jp_add_1":"美馬市","jp_add_2":"美馬町"},"7712102":{"post_code":"7712102","prefecture":"TOKUSHIMA KEN","city":"MIMA SHI","town":"YAMAHASHIDANI.YOKO)","perfecture_jp":"徳島県","jp_add_1":"美馬市","jp_add_2":"美馬町"},"7712105":{"post_code":"7712105","prefecture":"TOKUSHIMA KEN","city":"MIMA SHI","town":"KITATSUCHIGAKUBO.KINYUDO.TAKINOMIYA","perfecture_jp":"徳島県","jp_add_1":"美馬市","jp_add_2":"美馬町"},"7712103":{"post_code":"7712103","prefecture":"TOKUSHIMA KEN","city":"MIMA SHI","town":"BOGATANI.MIZUKUBO.MUNENOBUN.YANAI)","perfecture_jp":"徳島県","jp_add_1":"美馬市","jp_add_2":"美馬町"},"7712101":{"post_code":"7712101","prefecture":"TOKUSHIMA KEN","city":"MIMA SHI","town":"MIMACHO(IRIKURA.OKUBO.KIRIKUBO.SHOB","perfecture_jp":"徳島県","jp_add_1":"美馬市","jp_add_2":"美馬町"},"7712104":{"post_code":"7712104","prefecture":"TOKUSHIMA KEN","city":"MIMA SHI","town":"MUNESHIGE.YAKUSHI)","perfecture_jp":"徳島県","jp_add_1":"美馬市","jp_add_2":"美馬町"},"7712302":{"post_code":"7712302","prefecture":"TOKUSHIMA KEN","city":"MIYOSHI SHI","town":"MINOCHO KAMONOMIYA","perfecture_jp":"徳島県","jp_add_1":"三好市","jp_add_2":"三野町加茂野宮"},"7712304":{"post_code":"7712304","prefecture":"TOKUSHIMA KEN","city":"MIYOSHI SHI","town":"MINOCHO SHIBO","perfecture_jp":"徳島県","jp_add_1":"三好市","jp_add_2":"三野町芝生"},"7712301":{"post_code":"7712301","prefecture":"TOKUSHIMA KEN","city":"MIYOSHI SHI","town":"MINOCHO SHIMIZU","perfecture_jp":"徳島県","jp_add_1":"三好市","jp_add_2":"三野町清水"},"7712303":{"post_code":"7712303","prefecture":"TOKUSHIMA KEN","city":"MIYOSHI SHI","town":"MINOCHO SEIRIKI","perfecture_jp":"徳島県","jp_add_1":"三好市","jp_add_2":"三野町勢力"},"7712305":{"post_code":"7712305","prefecture":"TOKUSHIMA KEN","city":"MIYOSHI SHI","town":"MINOCHO TACHINO","perfecture_jp":"徳島県","jp_add_1":"三好市","jp_add_2":"三野町太刀野"},"7712306":{"post_code":"7712306","prefecture":"TOKUSHIMA KEN","city":"MIYOSHI SHI","town":"MINOCHO TACHINOYAMA","perfecture_jp":"徳島県","jp_add_1":"三好市","jp_add_2":"三野町太刀野山"},"7714300":{"post_code":"7714300","prefecture":"TOKUSHIMA KEN","city":"KATSURA GUN KATSURA CHO","town":"IKANIKEISAIGANAIBAAI","perfecture_jp":"徳島県","jp_add_1":"勝浦郡勝浦町","jp_add_2":""},"7714303":{"post_code":"7714303","prefecture":"TOKUSHIMA KEN","city":"KATSURA GUN KATSURA CHO","town":"IKUNA","perfecture_jp":"徳島県","jp_add_1":"勝浦郡勝浦町","jp_add_2":"生名"},"7714308":{"post_code":"7714308","prefecture":"TOKUSHIMA KEN","city":"KATSURA GUN KATSURA CHO","town":"SAKAMOTO","perfecture_jp":"徳島県","jp_add_1":"勝浦郡勝浦町","jp_add_2":"坂本"},"7714306":{"post_code":"7714306","prefecture":"TOKUSHIMA KEN","city":"KATSURA GUN KATSURA CHO","town":"TANANO","perfecture_jp":"徳島県","jp_add_1":"勝浦郡勝浦町","jp_add_2":"棚野"},"7714302":{"post_code":"7714302","prefecture":"TOKUSHIMA KEN","city":"KATSURA GUN KATSURA CHO","town":"NAKATSUNO","perfecture_jp":"徳島県","jp_add_1":"勝浦郡勝浦町","jp_add_2":"中角"},"7714301":{"post_code":"7714301","prefecture":"TOKUSHIMA KEN","city":"KATSURA GUN KATSURA CHO","town":"NUE","perfecture_jp":"徳島県","jp_add_1":"勝浦郡勝浦町","jp_add_2":"沼江"},"7714305":{"post_code":"7714305","prefecture":"TOKUSHIMA KEN","city":"KATSURA GUN KATSURA CHO","town":"HISAKUNI","perfecture_jp":"徳島県","jp_add_1":"勝浦郡勝浦町","jp_add_2":"久国"},"7714304":{"post_code":"7714304","prefecture":"TOKUSHIMA KEN","city":"KATSURA GUN KATSURA CHO","town":"HOSHITANI","perfecture_jp":"徳島県","jp_add_1":"勝浦郡勝浦町","jp_add_2":"星谷"},"7714307":{"post_code":"7714307","prefecture":"TOKUSHIMA KEN","city":"KATSURA GUN KATSURA CHO","town":"MITANI","perfecture_jp":"徳島県","jp_add_1":"勝浦郡勝浦町","jp_add_2":"三渓"},"7714500":{"post_code":"7714500","prefecture":"TOKUSHIMA KEN","city":"KATSURA GUN KAMIKATSU CHO","town":"IKANIKEISAIGANAIBAAI","perfecture_jp":"徳島県","jp_add_1":"勝浦郡上勝町","jp_add_2":""},"7714502":{"post_code":"7714502","prefecture":"TOKUSHIMA KEN","city":"KATSURA GUN KAMIKATSU CHO","town":"ASAHI","perfecture_jp":"徳島県","jp_add_1":"勝浦郡上勝町","jp_add_2":"旭"},"7714503":{"post_code":"7714503","prefecture":"TOKUSHIMA KEN","city":"KATSURA GUN KAMIKATSU CHO","town":"IKUMI","perfecture_jp":"徳島県","jp_add_1":"勝浦郡上勝町","jp_add_2":"生実"},"7714501":{"post_code":"7714501","prefecture":"TOKUSHIMA KEN","city":"KATSURA GUN KAMIKATSU CHO","town":"FUKUHARA","perfecture_jp":"徳島県","jp_add_1":"勝浦郡上勝町","jp_add_2":"福原"},"7714504":{"post_code":"7714504","prefecture":"TOKUSHIMA KEN","city":"KATSURA GUN KAMIKATSU CHO","town":"HOJI","perfecture_jp":"徳島県","jp_add_1":"勝浦郡上勝町","jp_add_2":"傍示"},"7714505":{"post_code":"7714505","prefecture":"TOKUSHIMA KEN","city":"KATSURA GUN KAMIKATSU CHO","town":"MASAKI","perfecture_jp":"徳島県","jp_add_1":"勝浦郡上勝町","jp_add_2":"正木"},"7714100":{"post_code":"7714100","prefecture":"TOKUSHIMA KEN","city":"MYODO GUN SANAGOCHI SON","town":"IKANIKEISAIGANAIBAAI","perfecture_jp":"徳島県","jp_add_1":"名東郡佐那河内村","jp_add_2":""},"7714102":{"post_code":"7714102","prefecture":"TOKUSHIMA KEN","city":"MYODO GUN SANAGOCHI SON","town":"KAMI","perfecture_jp":"徳島県","jp_add_1":"名東郡佐那河内村","jp_add_2":"上"},"7714101":{"post_code":"7714101","prefecture":"TOKUSHIMA KEN","city":"MYODO GUN SANAGOCHI SON","town":"SHIMO","perfecture_jp":"徳島県","jp_add_1":"名東郡佐那河内村","jp_add_2":"下"},"7713200":{"post_code":"7713200","prefecture":"TOKUSHIMA KEN","city":"MYOZAI GUN KAMIYAMA CHO","town":"IKANIKEISAIGANAIBAAI","perfecture_jp":"徳島県","jp_add_1":"名西郡神山町","jp_add_2":""},"7713202":{"post_code":"7713202","prefecture":"TOKUSHIMA KEN","city":"MYOZAI GUN KAMIYAMA CHO","town":"ANO(YOTSUGI)","perfecture_jp":"徳島県","jp_add_1":"名西郡神山町","jp_add_2":"阿野"},"7713201":{"post_code":"7713201","prefecture":"TOKUSHIMA KEN","city":"MYOZAI GUN KAMIYAMA CHO","town":"ANO(SONOTA)","perfecture_jp":"徳島県","jp_add_1":"名西郡神山町","jp_add_2":"阿野"},"7713203":{"post_code":"7713203","prefecture":"TOKUSHIMA KEN","city":"MYOZAI GUN KAMIYAMA CHO","town":"ORONO","perfecture_jp":"徳島県","jp_add_1":"名西郡神山町","jp_add_2":"鬼籠野"},"7713422":{"post_code":"7713422","prefecture":"TOKUSHIMA KEN","city":"MYOZAI GUN KAMIYAMA CHO","town":"KAMIBUN","perfecture_jp":"徳島県","jp_add_1":"名西郡神山町","jp_add_2":"上分"},"7713421":{"post_code":"7713421","prefecture":"TOKUSHIMA KEN","city":"MYOZAI GUN KAMIYAMA CHO","town":"SHIMOBUN","perfecture_jp":"徳島県","jp_add_1":"名西郡神山町","jp_add_2":"下分"},"7713311":{"post_code":"7713311","prefecture":"TOKUSHIMA KEN","city":"MYOZAI GUN KAMIYAMA CHO","town":"JINRYO(HONNOMA)","perfecture_jp":"徳島県","jp_add_1":"名西郡神山町","jp_add_2":"神領"},"7713310":{"post_code":"7713310","prefecture":"TOKUSHIMA KEN","city":"MYOZAI GUN KAMIYAMA CHO","town":"JINRYO(SONOTA)","perfecture_jp":"徳島県","jp_add_1":"名西郡神山町","jp_add_2":"神領"},"7715200":{"post_code":"7715200","prefecture":"TOKUSHIMA KEN","city":"NAKA GUN NAKA CHO","town":"IKANIKEISAIGANAIBAAI","perfecture_jp":"徳島県","jp_add_1":"那賀郡那賀町","jp_add_2":""},"7715207":{"post_code":"7715207","prefecture":"TOKUSHIMA KEN","city":"NAKA GUN NAKA CHO","town":"AI","perfecture_jp":"徳島県","jp_add_1":"那賀郡那賀町","jp_add_2":"阿井"},"7715403":{"post_code":"7715403","prefecture":"TOKUSHIMA KEN","city":"NAKA GUN NAKA CHO","town":"AIKAWA","perfecture_jp":"徳島県","jp_add_1":"那賀郡那賀町","jp_add_2":"鮎川"},"7715323":{"post_code":"7715323","prefecture":"TOKUSHIMA KEN","city":"NAKA GUN NAKA CHO","town":"AINA","perfecture_jp":"徳島県","jp_add_1":"那賀郡那賀町","jp_add_2":"相名"},"7715401":{"post_code":"7715401","prefecture":"TOKUSHIMA KEN","city":"NAKA GUN NAKA CHO","town":"ASO","perfecture_jp":"徳島県","jp_add_1":"那賀郡那賀町","jp_add_2":"朝生"},"7716101":{"post_code":"7716101","prefecture":"TOKUSHIMA KEN","city":"NAKA GUN NAKA CHO","town":"AZUE","perfecture_jp":"徳島県","jp_add_1":"那賀郡那賀町","jp_add_2":"阿津江"},"7716103":{"post_code":"7716103","prefecture":"TOKUSHIMA KEN","city":"NAKA GUN NAKA CHO","town":"IZURIHA","perfecture_jp":"徳島県","jp_add_1":"那賀郡那賀町","jp_add_2":"出羽"},"7715324":{"post_code":"7715324","prefecture":"TOKUSHIMA KEN","city":"NAKA GUN NAKA CHO","town":"INOTANI","perfecture_jp":"徳島県","jp_add_1":"那賀郡那賀町","jp_add_2":"井ノ谷"},"7715405":{"post_code":"7715405","prefecture":"TOKUSHIMA KEN","city":"NAKA GUN NAKA CHO","town":"IRINO","perfecture_jp":"徳島県","jp_add_1":"那賀郡那賀町","jp_add_2":"入野"},"7716118":{"post_code":"7716118","prefecture":"TOKUSHIMA KEN","city":"NAKA GUN NAKA CHO","town":"IWAKURA","perfecture_jp":"徳島県","jp_add_1":"那賀郡那賀町","jp_add_2":"岩倉"},"7715328":{"post_code":"7715328","prefecture":"TOKUSHIMA KEN","city":"NAKA GUN NAKA CHO","town":"UKENOTANI","perfecture_jp":"徳島県","jp_add_1":"那賀郡那賀町","jp_add_2":"請ノ谷"},"7715404":{"post_code":"7715404","prefecture":"TOKUSHIMA KEN","city":"NAKA GUN NAKA CHO","town":"USHIWA","perfecture_jp":"徳島県","jp_add_1":"那賀郡那賀町","jp_add_2":"牛輪"},"7715504":{"post_code":"7715504","prefecture":"TOKUSHIMA KEN","city":"NAKA GUN NAKA CHO","town":"USUGATANI","perfecture_jp":"徳島県","jp_add_1":"那賀郡那賀町","jp_add_2":"臼ケ谷"},"7715326":{"post_code":"7715326","prefecture":"TOKUSHIMA KEN","city":"NAKA GUN NAKA CHO","town":"UCHIYAMA","perfecture_jp":"徳島県","jp_add_1":"那賀郡那賀町","jp_add_2":"内山"},"7715321":{"post_code":"7715321","prefecture":"TOKUSHIMA KEN","city":"NAKA GUN NAKA CHO","town":"UMAJI","perfecture_jp":"徳島県","jp_add_1":"那賀郡那賀町","jp_add_2":"馬路"},"7715320":{"post_code":"7715320","prefecture":"TOKUSHIMA KEN","city":"NAKA GUN NAKA CHO","town":"ENOKIDANI","perfecture_jp":"徳島県","jp_add_1":"那賀郡那賀町","jp_add_2":"榎谷"},"7715410":{"post_code":"7715410","prefecture":"TOKUSHIMA KEN","city":"NAKA GUN NAKA CHO","town":"OKUBO","perfecture_jp":"徳島県","jp_add_1":"那賀郡那賀町","jp_add_2":"大久保"},"7715516":{"post_code":"7715516","prefecture":"TOKUSHIMA KEN","city":"NAKA GUN NAKA CHO","town":"OTO","perfecture_jp":"徳島県","jp_add_1":"那賀郡那賀町","jp_add_2":"大戸"},"7716322":{"post_code":"7716322","prefecture":"TOKUSHIMA KEN","city":"NAKA GUN NAKA CHO","town":"OTONO","perfecture_jp":"徳島県","jp_add_1":"那賀郡那賀町","jp_add_2":"大殿"},"7716115":{"post_code":"7716115","prefecture":"TOKUSHIMA KEN","city":"NAKA GUN NAKA CHO","town":"OBATAKE","perfecture_jp":"徳島県","jp_add_1":"那賀郡那賀町","jp_add_2":"小畠"},"7715501":{"post_code":"7715501","prefecture":"TOKUSHIMA KEN","city":"NAKA GUN NAKA CHO","town":"ONDANI","perfecture_jp":"徳島県","jp_add_1":"那賀郡那賀町","jp_add_2":"音谷"},"7715407":{"post_code":"7715407","prefecture":"TOKUSHIMA KEN","city":"NAKA GUN NAKA CHO","town":"ONDORI","perfecture_jp":"徳島県","jp_add_1":"那賀郡那賀町","jp_add_2":"雄"},"7716328":{"post_code":"7716328","prefecture":"TOKUSHIMA KEN","city":"NAKA GUN NAKA CHO","town":"KAIKAWA","perfecture_jp":"徳島県","jp_add_1":"那賀郡那賀町","jp_add_2":"海川"},"7715413":{"post_code":"7715413","prefecture":"TOKUSHIMA KEN","city":"NAKA GUN NAKA CHO","town":"KAGEDANI","perfecture_jp":"徳島県","jp_add_1":"那賀郡那賀町","jp_add_2":"蔭谷"},"7716107":{"post_code":"7716107","prefecture":"TOKUSHIMA KEN","city":"NAKA GUN NAKA CHO","town":"KAKEBAN","perfecture_jp":"徳島県","jp_add_1":"那賀郡那賀町","jp_add_2":"掛盤"},"7716117":{"post_code":"7716117","prefecture":"TOKUSHIMA KEN","city":"NAKA GUN NAKA CHO","town":"KAWANARI","perfecture_jp":"徳島県","jp_add_1":"那賀郡那賀町","jp_add_2":"川成"},"7715515":{"post_code":"7715515","prefecture":"TOKUSHIMA KEN","city":"NAKA GUN NAKA CHO","town":"KAWAMATA","perfecture_jp":"徳島県","jp_add_1":"那賀郡那賀町","jp_add_2":"川俣"},"7716105":{"post_code":"7716105","prefecture":"TOKUSHIMA KEN","city":"NAKA GUN NAKA CHO","town":"KITO","perfecture_jp":"徳島県","jp_add_1":"那賀郡那賀町","jp_add_2":"木頭"},"7716402":{"post_code":"7716402","prefecture":"TOKUSHIMA KEN","city":"NAKA GUN NAKA CHO","town":"KITO IZUHARA","perfecture_jp":"徳島県","jp_add_1":"那賀郡那賀町","jp_add_2":"木頭出原"},"7716511":{"post_code":"7716511","prefecture":"TOKUSHIMA KEN","city":"NAKA GUN NAKA CHO","town":"KITO ORIU","perfecture_jp":"徳島県","jp_add_1":"那賀郡那賀町","jp_add_2":"木頭折宇"},"7716512":{"post_code":"7716512","prefecture":"TOKUSHIMA KEN","city":"NAKA GUN NAKA CHO","town":"KITO KITAGAWA","perfecture_jp":"徳島県","jp_add_1":"那賀郡那賀町","jp_add_2":"木頭北川"},"7716401":{"post_code":"7716401","prefecture":"TOKUSHIMA KEN","city":"NAKA GUN NAKA CHO","town":"KITO SUKE","perfecture_jp":"徳島県","jp_add_1":"那賀郡那賀町","jp_add_2":"木頭助"},"7716405":{"post_code":"7716405","prefecture":"TOKUSHIMA KEN","city":"NAKA GUN NAKA CHO","town":"KITO NISHIU","perfecture_jp":"徳島県","jp_add_1":"那賀郡那賀町","jp_add_2":"木頭西宇"},"7716404":{"post_code":"7716404","prefecture":"TOKUSHIMA KEN","city":"NAKA GUN NAKA CHO","town":"KITO MINAMIU","perfecture_jp":"徳島県","jp_add_1":"那賀郡那賀町","jp_add_2":"木頭南宇"},"7716403":{"post_code":"7716403","prefecture":"TOKUSHIMA KEN","city":"NAKA GUN NAKA CHO","town":"KITO WAMUDA","perfecture_jp":"徳島県","jp_add_1":"那賀郡那賀町","jp_add_2":"木頭和無田"},"7716102":{"post_code":"7716102","prefecture":"TOKUSHIMA KEN","city":"NAKA GUN NAKA CHO","town":"KITOMYO","perfecture_jp":"徳島県","jp_add_1":"那賀郡那賀町","jp_add_2":"木頭名"},"7716111":{"post_code":"7716111","prefecture":"TOKUSHIMA KEN","city":"NAKA GUN NAKA CHO","town":"KOIZUMI","perfecture_jp":"徳島県","jp_add_1":"那賀郡那賀町","jp_add_2":"小泉"},"7716324":{"post_code":"7716324","prefecture":"TOKUSHIMA KEN","city":"NAKA GUN NAKA CHO","town":"GOSHODANI","perfecture_jp":"徳島県","jp_add_1":"那賀郡那賀町","jp_add_2":"御所谷"},"7715209":{"post_code":"7715209","prefecture":"TOKUSHIMA KEN","city":"NAKA GUN NAKA CHO","town":"KONIU","perfecture_jp":"徳島県","jp_add_1":"那賀郡那賀町","jp_add_2":"小仁宇"},"7715512":{"post_code":"7715512","prefecture":"TOKUSHIMA KEN","city":"NAKA GUN NAKA CHO","town":"KOBAKARI","perfecture_jp":"徳島県","jp_add_1":"那賀郡那賀町","jp_add_2":"小計"},"7715503":{"post_code":"7715503","prefecture":"TOKUSHIMA KEN","city":"NAKA GUN NAKA CHO","town":"KOHAMA","perfecture_jp":"徳島県","jp_add_1":"那賀郡那賀町","jp_add_2":"小浜"},"7716106":{"post_code":"7716106","prefecture":"TOKUSHIMA KEN","city":"NAKA GUN NAKA CHO","town":"SAKASHU","perfecture_jp":"徳島県","jp_add_1":"那賀郡那賀町","jp_add_2":"坂州"},"7715502":{"post_code":"7715502","prefecture":"TOKUSHIMA KEN","city":"NAKA GUN NAKA CHO","town":"SAKURADANI","perfecture_jp":"徳島県","jp_add_1":"那賀郡那賀町","jp_add_2":"桜谷"},"7716114":{"post_code":"7716114","prefecture":"TOKUSHIMA KEN","city":"NAKA GUN NAKA CHO","town":"SAWADANI","perfecture_jp":"徳島県","jp_add_1":"那賀郡那賀町","jp_add_2":"沢谷"},"7716325":{"post_code":"7716325","prefecture":"TOKUSHIMA KEN","city":"NAKA GUN NAKA CHO","town":"JOGATANI","perfecture_jp":"徳島県","jp_add_1":"那賀郡那賀町","jp_add_2":"丈ケ谷"},"7715507":{"post_code":"7715507","prefecture":"TOKUSHIMA KEN","city":"NAKA GUN NAKA CHO","town":"SHOBU","perfecture_jp":"徳島県","jp_add_1":"那賀郡那賀町","jp_add_2":"菖蒲"},"7716323":{"post_code":"7716323","prefecture":"TOKUSHIMA KEN","city":"NAKA GUN NAKA CHO","town":"SHIRAISHI","perfecture_jp":"徳島県","jp_add_1":"那賀郡那賀町","jp_add_2":"白石"},"7716112":{"post_code":"7716112","prefecture":"TOKUSHIMA KEN","city":"NAKA GUN NAKA CHO","town":"TAKANO","perfecture_jp":"徳島県","jp_add_1":"那賀郡那賀町","jp_add_2":"高野"},"7715329":{"post_code":"7715329","prefecture":"TOKUSHIMA KEN","city":"NAKA GUN NAKA CHO","town":"TAKEGATANI","perfecture_jp":"徳島県","jp_add_1":"那賀郡那賀町","jp_add_2":"竹ケ谷"},"7715322":{"post_code":"7715322","prefecture":"TOKUSHIMA KEN","city":"NAKA GUN NAKA CHO","town":"TANIUCHI","perfecture_jp":"徳島県","jp_add_1":"那賀郡那賀町","jp_add_2":"谷内"},"7716113":{"post_code":"7716113","prefecture":"TOKUSHIMA KEN","city":"NAKA GUN NAKA CHO","town":"TERAUCHI","perfecture_jp":"徳島県","jp_add_1":"那賀郡那賀町","jp_add_2":"寺内"},"7716104":{"post_code":"7716104","prefecture":"TOKUSHIMA KEN","city":"NAKA GUN NAKA CHO","town":"TOYAMA","perfecture_jp":"徳島県","jp_add_1":"那賀郡那賀町","jp_add_2":"当山"},"7715202":{"post_code":"7715202","prefecture":"TOKUSHIMA KEN","city":"NAKA GUN NAKA CHO","town":"TOSA","perfecture_jp":"徳島県","jp_add_1":"那賀郡那賀町","jp_add_2":"土佐"},"7715505":{"post_code":"7715505","prefecture":"TOKUSHIMA KEN","city":"NAKA GUN NAKA CHO","town":"NAGAYASU","perfecture_jp":"徳島県","jp_add_1":"那賀郡那賀町","jp_add_2":"長安"},"7715204":{"post_code":"7715204","prefecture":"TOKUSHIMA KEN","city":"NAKA GUN NAKA CHO","town":"NAKAYAMA","perfecture_jp":"徳島県","jp_add_1":"那賀郡那賀町","jp_add_2":"中山"},"7716327":{"post_code":"7716327","prefecture":"TOKUSHIMA KEN","city":"NAKA GUN NAKA CHO","town":"NARUSE","perfecture_jp":"徳島県","jp_add_1":"那賀郡那賀町","jp_add_2":"成瀬"},"7715208":{"post_code":"7715208","prefecture":"TOKUSHIMA KEN","city":"NAKA GUN NAKA CHO","town":"NIU","perfecture_jp":"徳島県","jp_add_1":"那賀郡那賀町","jp_add_2":"仁宇"},"7715327":{"post_code":"7715327","prefecture":"TOKUSHIMA KEN","city":"NAKA GUN NAKA CHO","town":"NISHINO","perfecture_jp":"徳島県","jp_add_1":"那賀郡那賀町","jp_add_2":"西納"},"7715406":{"post_code":"7715406","prefecture":"TOKUSHIMA KEN","city":"NAKA GUN NAKA CHO","town":"NOBUNO","perfecture_jp":"徳島県","jp_add_1":"那賀郡那賀町","jp_add_2":"延野"},"7715518":{"post_code":"7715518","prefecture":"TOKUSHIMA KEN","city":"NAKA GUN NAKA CHO","town":"HAIGYU","perfecture_jp":"徳島県","jp_add_1":"那賀郡那賀町","jp_add_2":"拝宮"},"7715409":{"post_code":"7715409","prefecture":"TOKUSHIMA KEN","city":"NAKA GUN NAKA CHO","town":"HACHI","perfecture_jp":"徳島県","jp_add_1":"那賀郡那賀町","jp_add_2":"鉢"},"7715532":{"post_code":"7715532","prefecture":"TOKUSHIMA KEN","city":"NAKA GUN NAKA CHO","town":"HANAZE","perfecture_jp":"徳島県","jp_add_1":"那賀郡那賀町","jp_add_2":"花瀬"},"7715531":{"post_code":"7715531","prefecture":"TOKUSHIMA KEN","city":"NAKA GUN NAKA CHO","town":"HIURA","perfecture_jp":"徳島県","jp_add_1":"那賀郡那賀町","jp_add_2":"日浦"},"7715508":{"post_code":"7715508","prefecture":"TOKUSHIMA KEN","city":"NAKA GUN NAKA CHO","town":"HIGASHIO","perfecture_jp":"徳島県","jp_add_1":"那賀郡那賀町","jp_add_2":"東尾"},"7715506":{"post_code":"7715506","prefecture":"TOKUSHIMA KEN","city":"NAKA GUN NAKA CHO","town":"HISONE","perfecture_jp":"徳島県","jp_add_1":"那賀郡那賀町","jp_add_2":"桧曽根"},"7715517":{"post_code":"7715517","prefecture":"TOKUSHIMA KEN","city":"NAKA GUN NAKA CHO","town":"HIMA","perfecture_jp":"徳島県","jp_add_1":"那賀郡那賀町","jp_add_2":"日真"},"7716321":{"post_code":"7716321","prefecture":"TOKUSHIMA KEN","city":"NAKA GUN NAKA CHO","town":"HIRADANI","perfecture_jp":"徳島県","jp_add_1":"那賀郡那賀町","jp_add_2":"平谷"},"7715325":{"post_code":"7715325","prefecture":"TOKUSHIMA KEN","city":"NAKA GUN NAKA CHO","town":"HIRANO","perfecture_jp":"徳島県","jp_add_1":"那賀郡那賀町","jp_add_2":"平野"},"7715514":{"post_code":"7715514","prefecture":"TOKUSHIMA KEN","city":"NAKA GUN NAKA CHO","town":"FUKAMORI","perfecture_jp":"徳島県","jp_add_1":"那賀郡那賀町","jp_add_2":"深森"},"7716326":{"post_code":"7716326","prefecture":"TOKUSHIMA KEN","city":"NAKA GUN NAKA CHO","town":"FUDONO","perfecture_jp":"徳島県","jp_add_1":"那賀郡那賀町","jp_add_2":"府殿"},"7715513":{"post_code":"7715513","prefecture":"TOKUSHIMA KEN","city":"NAKA GUN NAKA CHO","town":"FURUYA","perfecture_jp":"徳島県","jp_add_1":"那賀郡那賀町","jp_add_2":"古屋"},"7715412":{"post_code":"7715412","prefecture":"TOKUSHIMA KEN","city":"NAKA GUN NAKA CHO","town":"HONO","perfecture_jp":"徳島県","jp_add_1":"那賀郡那賀町","jp_add_2":"朴野"},"7715511":{"post_code":"7715511","prefecture":"TOKUSHIMA KEN","city":"NAKA GUN NAKA CHO","town":"MISAKI","perfecture_jp":"徳島県","jp_add_1":"那賀郡那賀町","jp_add_2":"水崎"},"7715206":{"post_code":"7715206","prefecture":"TOKUSHIMA KEN","city":"NAKA GUN NAKA CHO","town":"MOMAE","perfecture_jp":"徳島県","jp_add_1":"那賀郡那賀町","jp_add_2":"百合"},"7715205":{"post_code":"7715205","prefecture":"TOKUSHIMA KEN","city":"NAKA GUN NAKA CHO","town":"MOMAEDANI","perfecture_jp":"徳島県","jp_add_1":"那賀郡那賀町","jp_add_2":"百合谷"},"7715402":{"post_code":"7715402","prefecture":"TOKUSHIMA KEN","city":"NAKA GUN NAKA CHO","town":"YANANOE","perfecture_jp":"徳島県","jp_add_1":"那賀郡那賀町","jp_add_2":"簗ノ上"},"7715411":{"post_code":"7715411","prefecture":"TOKUSHIMA KEN","city":"NAKA GUN NAKA CHO","town":"YOKOISHI","perfecture_jp":"徳島県","jp_add_1":"那賀郡那賀町","jp_add_2":"横石"},"7716116":{"post_code":"7716116","prefecture":"TOKUSHIMA KEN","city":"NAKA GUN NAKA CHO","town":"YOKODANI","perfecture_jp":"徳島県","jp_add_1":"那賀郡那賀町","jp_add_2":"横谷"},"7715408":{"post_code":"7715408","prefecture":"TOKUSHIMA KEN","city":"NAKA GUN NAKA CHO","town":"YOSHINO","perfecture_jp":"徳島県","jp_add_1":"那賀郡那賀町","jp_add_2":"吉野"},"7715201":{"post_code":"7715201","prefecture":"TOKUSHIMA KEN","city":"NAKA GUN NAKA CHO","town":"WAJIKI","perfecture_jp":"徳島県","jp_add_1":"那賀郡那賀町","jp_add_2":"和食"},"7715203":{"post_code":"7715203","prefecture":"TOKUSHIMA KEN","city":"NAKA GUN NAKA CHO","town":"WAJIKIGO","perfecture_jp":"徳島県","jp_add_1":"那賀郡那賀町","jp_add_2":"和食郷"},"7710200":{"post_code":"7710200","prefecture":"TOKUSHIMA KEN","city":"ITANO GUN KITAJIMA CHO","town":"IKANIKEISAIGANAIBAAI","perfecture_jp":"徳島県","jp_add_1":"板野郡松茂町","jp_add_2":""},"7710219":{"post_code":"7710219","prefecture":"TOKUSHIMA KEN","city":"ITANO GUN MATSUSHIGE CHO","town":"SASAGINO","perfecture_jp":"徳島県","jp_add_1":"板野郡松茂町","jp_add_2":"笹木野"},"7710218":{"post_code":"7710218","prefecture":"TOKUSHIMA KEN","city":"ITANO GUN MATSUSHIGE CHO","town":"SUMIYOSHI","perfecture_jp":"徳島県","jp_add_1":"板野郡松茂町","jp_add_2":"住吉"},"7710215":{"post_code":"7710215","prefecture":"TOKUSHIMA KEN","city":"ITANO GUN MATSUSHIGE CHO","town":"TOYOKA","perfecture_jp":"徳島県","jp_add_1":"板野郡松茂町","jp_add_2":"豊岡"},"7710217":{"post_code":"7710217","prefecture":"TOKUSHIMA KEN","city":"ITANO GUN MATSUSHIGE CHO","town":"TOYONAKA","perfecture_jp":"徳島県","jp_add_1":"板野郡松茂町","jp_add_2":"豊中"},"7710213":{"post_code":"7710213","prefecture":"TOKUSHIMA KEN","city":"ITANO GUN MATSUSHIGE CHO","town":"TOYOHISA","perfecture_jp":"徳島県","jp_add_1":"板野郡松茂町","jp_add_2":"豊久"},"7710212":{"post_code":"7710212","prefecture":"TOKUSHIMA KEN","city":"ITANO GUN MATSUSHIGE CHO","town":"NAKAGIRAI","perfecture_jp":"徳島県","jp_add_1":"板野郡松茂町","jp_add_2":"中喜来"},"7710211":{"post_code":"7710211","prefecture":"TOKUSHIMA KEN","city":"ITANO GUN MATSUSHIGE CHO","town":"NAGAGISHI","perfecture_jp":"徳島県","jp_add_1":"板野郡松茂町","jp_add_2":"長岸"},"7710216":{"post_code":"7710216","prefecture":"TOKUSHIMA KEN","city":"ITANO GUN MATSUSHIGE CHO","town":"NAGAHARA","perfecture_jp":"徳島県","jp_add_1":"板野郡松茂町","jp_add_2":"長原"},"7710220":{"post_code":"7710220","prefecture":"TOKUSHIMA KEN","city":"ITANO GUN MATSUSHIGE CHO","town":"HIROSHIMA","perfecture_jp":"徳島県","jp_add_1":"板野郡松茂町","jp_add_2":"広島"},"7710214":{"post_code":"7710214","prefecture":"TOKUSHIMA KEN","city":"ITANO GUN MATSUSHIGE CHO","town":"MITSUHO","perfecture_jp":"徳島県","jp_add_1":"板野郡松茂町","jp_add_2":"満穂"},"7710205":{"post_code":"7710205","prefecture":"TOKUSHIMA KEN","city":"ITANO GUN KITAJIMA CHO","town":"EJIRI","perfecture_jp":"徳島県","jp_add_1":"板野郡北島町","jp_add_2":"江尻"},"7710201":{"post_code":"7710201","prefecture":"TOKUSHIMA KEN","city":"ITANO GUN KITAJIMA CHO","town":"KITAMURA","perfecture_jp":"徳島県","jp_add_1":"板野郡北島町","jp_add_2":"北村"},"7710207":{"post_code":"7710207","prefecture":"TOKUSHIMA KEN","city":"ITANO GUN KITAJIMA CHO","town":"SHINKIRAI","perfecture_jp":"徳島県","jp_add_1":"板野郡北島町","jp_add_2":"新喜来"},"7710204":{"post_code":"7710204","prefecture":"TOKUSHIMA KEN","city":"ITANO GUN KITAJIMA CHO","town":"TAINOHAMA","perfecture_jp":"徳島県","jp_add_1":"板野郡北島町","jp_add_2":"鯛浜"},"7710206":{"post_code":"7710206","prefecture":"TOKUSHIMA KEN","city":"ITANO GUN KITAJIMA CHO","town":"TAKABO","perfecture_jp":"徳島県","jp_add_1":"板野郡北島町","jp_add_2":"高房"},"7710202":{"post_code":"7710202","prefecture":"TOKUSHIMA KEN","city":"ITANO GUN KITAJIMA CHO","town":"TAROHACHIZU","perfecture_jp":"徳島県","jp_add_1":"板野郡北島町","jp_add_2":"太郎八須"},"7710203":{"post_code":"7710203","prefecture":"TOKUSHIMA KEN","city":"ITANO GUN KITAJIMA CHO","town":"NAKAMURA","perfecture_jp":"徳島県","jp_add_1":"板野郡北島町","jp_add_2":"中村"},"7711200":{"post_code":"7711200","prefecture":"TOKUSHIMA KEN","city":"ITANO GUN AIZUMI CHO","town":"IKANIKEISAIGANAIBAAI","perfecture_jp":"徳島県","jp_add_1":"板野郡藍住町","jp_add_2":""},"7711202":{"post_code":"7711202","prefecture":"TOKUSHIMA KEN","city":"ITANO GUN AIZUMI CHO","town":"OKUNO(WADA)","perfecture_jp":"徳島県","jp_add_1":"板野郡藍住町","jp_add_2":"奥野"},"7711203":{"post_code":"7711203","prefecture":"TOKUSHIMA KEN","city":"ITANO GUN AIZUMI CHO","town":"OKUNO(YAKAMIMAE)","perfecture_jp":"徳島県","jp_add_1":"板野郡藍住町","jp_add_2":"奥野"},"7711201":{"post_code":"7711201","prefecture":"TOKUSHIMA KEN","city":"ITANO GUN AIZUMI CHO","town":"OKUNO(SONOTA)","perfecture_jp":"徳島県","jp_add_1":"板野郡藍住町","jp_add_2":"奥野"},"7711240":{"post_code":"7711240","prefecture":"TOKUSHIMA KEN","city":"ITANO GUN AIZUMI CHO","town":"OTOZE","perfecture_jp":"徳島県","jp_add_1":"板野郡藍住町","jp_add_2":"乙瀬"},"7711262":{"post_code":"7711262","prefecture":"TOKUSHIMA KEN","city":"ITANO GUN AIZUMI CHO","town":"KASAGI(NISHINO)","perfecture_jp":"徳島県","jp_add_1":"板野郡藍住町","jp_add_2":"笠木"},"7711261":{"post_code":"7711261","prefecture":"TOKUSHIMA KEN","city":"ITANO GUN AIZUMI CHO","town":"KASAGI(HIGASHINO)","perfecture_jp":"徳島県","jp_add_1":"板野郡藍住町","jp_add_2":"笠木"},"7711260":{"post_code":"7711260","prefecture":"TOKUSHIMA KEN","city":"ITANO GUN AIZUMI CHO","town":"KASAGI(SONOTA)","perfecture_jp":"徳島県","jp_add_1":"板野郡藍住町","jp_add_2":"笠木"},"7711271":{"post_code":"7711271","prefecture":"TOKUSHIMA KEN","city":"ITANO GUN AIZUMI CHO","town":"SHOZUI(KOJIMA)","perfecture_jp":"徳島県","jp_add_1":"板野郡藍住町","jp_add_2":"勝瑞"},"7711273":{"post_code":"7711273","prefecture":"TOKUSHIMA KEN","city":"ITANO GUN AIZUMI CHO","town":"SHOZUI(HIGASHIKATSUCHI)","perfecture_jp":"徳島県","jp_add_1":"板野郡藍住町","jp_add_2":"勝瑞"},"7711272":{"post_code":"7711272","prefecture":"TOKUSHIMA KEN","city":"ITANO GUN AIZUMI CHO","town":"SHOZUI(SEICHO)","perfecture_jp":"徳島県","jp_add_1":"板野郡藍住町","jp_add_2":"勝瑞"},"7711270":{"post_code":"7711270","prefecture":"TOKUSHIMA KEN","city":"ITANO GUN AIZUMI CHO","town":"SHOZUI(SONOTA)","perfecture_jp":"徳島県","jp_add_1":"板野郡藍住町","jp_add_2":"勝瑞"},"7711267":{"post_code":"7711267","prefecture":"TOKUSHIMA KEN","city":"ITANO GUN AIZUMI CHO","town":"SUMIYOSHI(EBATA)","perfecture_jp":"徳島県","jp_add_1":"板野郡藍住町","jp_add_2":"住吉"},"7711265":{"post_code":"7711265","prefecture":"TOKUSHIMA KEN","city":"ITANO GUN AIZUMI CHO","town":"SUMIYOSHI(CHIDORIGAHAMA)","perfecture_jp":"徳島県","jp_add_1":"板野郡藍住町","jp_add_2":"住吉"},"7711266":{"post_code":"7711266","prefecture":"TOKUSHIMA KEN","city":"ITANO GUN AIZUMI CHO","town":"SUMIYOSHI(WAKAMIYA)","perfecture_jp":"徳島県","jp_add_1":"板野郡藍住町","jp_add_2":"住吉"},"7711264":{"post_code":"7711264","prefecture":"TOKUSHIMA KEN","city":"ITANO GUN AIZUMI CHO","town":"SUMIYOSHI(SONOTA)","perfecture_jp":"徳島県","jp_add_1":"板野郡藍住町","jp_add_2":"住吉"},"7711212":{"post_code":"7711212","prefecture":"TOKUSHIMA KEN","city":"ITANO GUN AIZUMI CHO","town":"TOKUMEI(MAEZUNISHI)","perfecture_jp":"徳島県","jp_add_1":"板野郡藍住町","jp_add_2":"徳命"},"7711211":{"post_code":"7711211","prefecture":"TOKUSHIMA KEN","city":"ITANO GUN AIZUMI CHO","town":"TOKUMEI(MOTOMURAHIGASHI)","perfecture_jp":"徳島県","jp_add_1":"板野郡藍住町","jp_add_2":"徳命"},"7711210":{"post_code":"7711210","prefecture":"TOKUSHIMA KEN","city":"ITANO GUN AIZUMI CHO","town":"TOKUMEI(SONOTA)","perfecture_jp":"徳島県","jp_add_1":"板野郡藍住町","jp_add_2":"徳命"},"7711232":{"post_code":"7711232","prefecture":"TOKUSHIMA KEN","city":"ITANO GUN AIZUMI CHO","town":"TOMIYOSHI(HOMI)","perfecture_jp":"徳島県","jp_add_1":"板野郡藍住町","jp_add_2":"富吉"},"7711231":{"post_code":"7711231","prefecture":"TOKUSHIMA KEN","city":"ITANO GUN AIZUMI CHO","town":"TOMIYOSHI(TOYOYOSHI)","perfecture_jp":"徳島県","jp_add_1":"板野郡藍住町","jp_add_2":"富吉"},"7711230":{"post_code":"7711230","prefecture":"TOKUSHIMA KEN","city":"ITANO GUN AIZUMI CHO","town":"TOMIYOSHI(SONOTA)","perfecture_jp":"徳島県","jp_add_1":"板野郡藍住町","jp_add_2":"富吉"},"7711224":{"post_code":"7711224","prefecture":"TOKUSHIMA KEN","city":"ITANO GUN AIZUMI CHO","town":"HIGASHINAKATOMI(YARIBAHOJI)","perfecture_jp":"徳島県","jp_add_1":"板野郡藍住町","jp_add_2":"東中富"},"7711222":{"post_code":"7711222","prefecture":"TOKUSHIMA KEN","city":"ITANO GUN AIZUMI CHO","town":"HIGASHINAKATOMI(KITAHOJI)","perfecture_jp":"徳島県","jp_add_1":"板野郡藍住町","jp_add_2":"東中富"},"7711223":{"post_code":"7711223","prefecture":"TOKUSHIMA KEN","city":"ITANO GUN AIZUMI CHO","town":"HIGASHINAKATOMI(TENNOHOJI)","perfecture_jp":"徳島県","jp_add_1":"板野郡藍住町","jp_add_2":"東中富"},"7711221":{"post_code":"7711221","prefecture":"TOKUSHIMA KEN","city":"ITANO GUN AIZUMI CHO","town":"HIGASHINAKATOMI(NAGAEHOJI)","perfecture_jp":"徳島県","jp_add_1":"板野郡藍住町","jp_add_2":"東中富"},"7711220":{"post_code":"7711220","prefecture":"TOKUSHIMA KEN","city":"ITANO GUN AIZUMI CHO","town":"HIGASHINAKATOMI(SONOTA)","perfecture_jp":"徳島県","jp_add_1":"板野郡藍住町","jp_add_2":"東中富"},"7711253":{"post_code":"7711253","prefecture":"TOKUSHIMA KEN","city":"ITANO GUN AIZUMI CHO","town":"YAKAMI(YASUTO)","perfecture_jp":"徳島県","jp_add_1":"板野郡藍住町","jp_add_2":"矢上"},"7711252":{"post_code":"7711252","prefecture":"TOKUSHIMA KEN","city":"ITANO GUN AIZUMI CHO","town":"YAKAMI(KITABUN)","perfecture_jp":"徳島県","jp_add_1":"板野郡藍住町","jp_add_2":"矢上"},"7711251":{"post_code":"7711251","prefecture":"TOKUSHIMA KEN","city":"ITANO GUN AIZUMI CHO","town":"YAKAMI(HARA)","perfecture_jp":"徳島県","jp_add_1":"板野郡藍住町","jp_add_2":"矢上"},"7711250":{"post_code":"7711250","prefecture":"TOKUSHIMA KEN","city":"ITANO GUN AIZUMI CHO","town":"YAKAMI(SONOTA)","perfecture_jp":"徳島県","jp_add_1":"板野郡藍住町","jp_add_2":"矢上"},"7711300":{"post_code":"7711300","prefecture":"TOKUSHIMA KEN","city":"ITANO GUN KAMIITA CHO","town":"IKANIKEISAIGANAIBAAI","perfecture_jp":"徳島県","jp_add_1":"板野郡上板町","jp_add_2":""},"7711310":{"post_code":"7711310","prefecture":"TOKUSHIMA KEN","city":"ITANO GUN KAMIITA CHO","town":"IZUMIDANI","perfecture_jp":"徳島県","jp_add_1":"板野郡上板町","jp_add_2":"泉谷"},"7711301":{"post_code":"7711301","prefecture":"TOKUSHIMA KEN","city":"ITANO GUN KAMIITA CHO","town":"KAJIYABARA","perfecture_jp":"徳島県","jp_add_1":"板野郡上板町","jp_add_2":"鍛冶屋原"},"7711345":{"post_code":"7711345","prefecture":"TOKUSHIMA KEN","city":"ITANO GUN KAMIITA CHO","town":"KAMIROKUJO","perfecture_jp":"徳島県","jp_add_1":"板野郡上板町","jp_add_2":"上六條"},"7711320":{"post_code":"7711320","prefecture":"TOKUSHIMA KEN","city":"ITANO GUN KAMIITA CHO","town":"KANYAKE","perfecture_jp":"徳島県","jp_add_1":"板野郡上板町","jp_add_2":"神宅"},"7711342":{"post_code":"7711342","prefecture":"TOKUSHIMA KEN","city":"ITANO GUN KAMIITA CHO","town":"SATOZUKA","perfecture_jp":"徳島県","jp_add_1":"板野郡上板町","jp_add_2":"佐藤塚"},"7711343":{"post_code":"7711343","prefecture":"TOKUSHIMA KEN","city":"ITANO GUN KAMIITA CHO","town":"SHIINOMOTO","perfecture_jp":"徳島県","jp_add_1":"板野郡上板町","jp_add_2":"椎本"},"7711302":{"post_code":"7711302","prefecture":"TOKUSHIMA KEN","city":"ITANO GUN KAMIITA CHO","town":"SHICHIJO","perfecture_jp":"徳島県","jp_add_1":"板野郡上板町","jp_add_2":"七條"},"7711344":{"post_code":"7711344","prefecture":"TOKUSHIMA KEN","city":"ITANO GUN KAMIITA CHO","town":"SHIMOROKUJO","perfecture_jp":"徳島県","jp_add_1":"板野郡上板町","jp_add_2":"下六條"},"7711350":{"post_code":"7711350","prefecture":"TOKUSHIMA KEN","city":"ITANO GUN KAMIITA CHO","town":"SEBE","perfecture_jp":"徳島県","jp_add_1":"板野郡上板町","jp_add_2":"瀬部"},"7711341":{"post_code":"7711341","prefecture":"TOKUSHIMA KEN","city":"ITANO GUN KAMIITA CHO","town":"DAIJUSHINDEN","perfecture_jp":"徳島県","jp_add_1":"板野郡上板町","jp_add_2":"第十新田"},"7711346":{"post_code":"7711346","prefecture":"TOKUSHIMA KEN","city":"ITANO GUN KAMIITA CHO","town":"TAKAISO","perfecture_jp":"徳島県","jp_add_1":"板野郡上板町","jp_add_2":"高磯"},"7711347":{"post_code":"7711347","prefecture":"TOKUSHIMA KEN","city":"ITANO GUN KAMIITA CHO","town":"TAKASE","perfecture_jp":"徳島県","jp_add_1":"板野郡上板町","jp_add_2":"高瀬"},"7711330":{"post_code":"7711330","prefecture":"TOKUSHIMA KEN","city":"ITANO GUN KAMIITA CHO","town":"NISHIBUN","perfecture_jp":"徳島県","jp_add_1":"板野郡上板町","jp_add_2":"西分"},"7711311":{"post_code":"7711311","prefecture":"TOKUSHIMA KEN","city":"ITANO GUN KAMIITA CHO","town":"HIKINO","perfecture_jp":"徳島県","jp_add_1":"板野郡上板町","jp_add_2":"引野"},"7712502":{"post_code":"7712502","prefecture":"TOKUSHIMA KEN","city":"MIYOSHI GUN HIGASHIMIYOSHI CHO","town":"ASHIRO","perfecture_jp":"徳島県","jp_add_1":"三好郡東みよし町","jp_add_2":"足代"},"7712503":{"post_code":"7712503","prefecture":"TOKUSHIMA KEN","city":"MIYOSHI GUN HIGASHIMIYOSHI CHO","town":"HIGASHIYAMA","perfecture_jp":"徳島県","jp_add_1":"三好郡東みよし町","jp_add_2":"東山"},"7712501":{"post_code":"7712501","prefecture":"TOKUSHIMA KEN","city":"MIYOSHI GUN HIGASHIMIYOSHI CHO","town":"HIRUMA","perfecture_jp":"徳島県","jp_add_1":"三好郡東みよし町","jp_add_2":"昼間"}}