{"7720000":{"post_code":"7720000","prefecture":"TOKUSHIMA KEN","city":"NARUTO SHI","town":"IKANIKEISAIGANAIBAAI","perfecture_jp":"徳島県","jp_add_1":"鳴門市","jp_add_2":""},"7720041":{"post_code":"7720041","prefecture":"TOKUSHIMA KEN","city":"NARUTO SHI","town":"OTSUCHOOSHIRO","perfecture_jp":"徳島県","jp_add_1":"鳴門市","jp_add_2":"大津町大代"},"7720031":{"post_code":"7720031","prefecture":"TOKUSHIMA KEN","city":"NARUTO SHI","town":"OTSUCHOKIZUNO","perfecture_jp":"徳島県","jp_add_1":"鳴門市","jp_add_2":"大津町木津野"},"7720044":{"post_code":"7720044","prefecture":"TOKUSHIMA KEN","city":"NARUTO SHI","town":"OTSUCHODAIKO","perfecture_jp":"徳島県","jp_add_1":"鳴門市","jp_add_2":"大津町大幸"},"7720043":{"post_code":"7720043","prefecture":"TOKUSHIMA KEN","city":"NARUTO SHI","town":"OTSUCHODANZEKI","perfecture_jp":"徳島県","jp_add_1":"鳴門市","jp_add_2":"大津町段関"},"7720034":{"post_code":"7720034","prefecture":"TOKUSHIMA KEN","city":"NARUTO SHI","town":"OTSUCHOTOKUNAGA","perfecture_jp":"徳島県","jp_add_1":"鳴門市","jp_add_2":"大津町徳長"},"7720033":{"post_code":"7720033","prefecture":"TOKUSHIMA KEN","city":"NARUTO SHI","town":"OTSUCHONAGAE","perfecture_jp":"徳島県","jp_add_1":"鳴門市","jp_add_2":"大津町長江"},"7720042":{"post_code":"7720042","prefecture":"TOKUSHIMA KEN","city":"NARUTO SHI","town":"OTSUCHOBIZENJIMA","perfecture_jp":"徳島県","jp_add_1":"鳴門市","jp_add_2":"大津町備前島"},"7720035":{"post_code":"7720035","prefecture":"TOKUSHIMA KEN","city":"NARUTO SHI","town":"OTSUCHOYAGURA","perfecture_jp":"徳島県","jp_add_1":"鳴門市","jp_add_2":"大津町矢倉"},"7720032":{"post_code":"7720032","prefecture":"TOKUSHIMA KEN","city":"NARUTO SHI","town":"OTSUCHOYOSHINAGA","perfecture_jp":"徳島県","jp_add_1":"鳴門市","jp_add_2":"大津町吉永"},"7720022":{"post_code":"7720022","prefecture":"TOKUSHIMA KEN","city":"NARUTO SHI","town":"SATORACHOAWAZU","perfecture_jp":"徳島県","jp_add_1":"鳴門市","jp_add_2":"里浦町粟津"},"7720021":{"post_code":"7720021","prefecture":"TOKUSHIMA KEN","city":"NARUTO SHI","town":"SATORACHOSATORA","perfecture_jp":"徳島県","jp_add_1":"鳴門市","jp_add_2":"里浦町里浦"},"7720060":{"post_code":"7720060","prefecture":"TOKUSHIMA KEN","city":"NARUTO SHI","town":"SETOCHOAKINOKAMI(KUSUNOKIDANI.NIKEN","perfecture_jp":"徳島県","jp_add_1":"鳴門市","jp_add_2":"瀬戸町明神"},"7720051":{"post_code":"7720051","prefecture":"TOKUSHIMA KEN","city":"NARUTO SHI","town":"NARUTOCHO TAKASHIMA","perfecture_jp":"徳島県","jp_add_1":"鳴門市","jp_add_2":"鳴門町高島"},"7720053":{"post_code":"7720053","prefecture":"TOKUSHIMA KEN","city":"NARUTO SHI","town":"NARUTOCHO TOSADOMARIURA","perfecture_jp":"徳島県","jp_add_1":"鳴門市","jp_add_2":"鳴門町土佐泊浦"},"7720052":{"post_code":"7720052","prefecture":"TOKUSHIMA KEN","city":"NARUTO SHI","town":"NARUTOCHO MITSUISHI","perfecture_jp":"徳島県","jp_add_1":"鳴門市","jp_add_2":"鳴門町三ツ石"},"7720011":{"post_code":"7720011","prefecture":"TOKUSHIMA KEN","city":"NARUTO SHI","town":"MUYACHO OKUWAJIMA","perfecture_jp":"徳島県","jp_add_1":"鳴門市","jp_add_2":"撫養町大桑島"},"7720012":{"post_code":"7720012","prefecture":"TOKUSHIMA KEN","city":"NARUTO SHI","town":"MUYACHO KOKUWAJIMA","perfecture_jp":"徳島県","jp_add_1":"鳴門市","jp_add_2":"撫養町小桑島"},"7720013":{"post_code":"7720013","prefecture":"TOKUSHIMA KEN","city":"NARUTO SHI","town":"MUYACHO OKAZAKI","perfecture_jp":"徳島県","jp_add_1":"鳴門市","jp_add_2":"撫養町岡崎"},"7720004":{"post_code":"7720004","prefecture":"TOKUSHIMA KEN","city":"NARUTO SHI","town":"MUYACHO KIZU","perfecture_jp":"徳島県","jp_add_1":"鳴門市","jp_add_2":"撫養町木津"},"7720001":{"post_code":"7720001","prefecture":"TOKUSHIMA KEN","city":"NARUTO SHI","town":"MUYACHO KUROSAKI","perfecture_jp":"徳島県","jp_add_1":"鳴門市","jp_add_2":"撫養町黒崎"},"7720002":{"post_code":"7720002","prefecture":"TOKUSHIMA KEN","city":"NARUTO SHI","town":"MUYACHO SAITA","perfecture_jp":"徳島県","jp_add_1":"鳴門市","jp_add_2":"撫養町斎田"},"7720017":{"post_code":"7720017","prefecture":"TOKUSHIMA KEN","city":"NARUTO SHI","town":"MUYACHO TATEIWA","perfecture_jp":"徳島県","jp_add_1":"鳴門市","jp_add_2":"撫養町立岩"},"7720016":{"post_code":"7720016","prefecture":"TOKUSHIMA KEN","city":"NARUTO SHI","town":"MUYACHO HAYASAKI","perfecture_jp":"徳島県","jp_add_1":"鳴門市","jp_add_2":"撫養町林崎"},"7720014":{"post_code":"7720014","prefecture":"TOKUSHIMA KEN","city":"NARUTO SHI","town":"MUYACHO BEZAITEN","perfecture_jp":"徳島県","jp_add_1":"鳴門市","jp_add_2":"撫養町弁財天"},"7720003":{"post_code":"7720003","prefecture":"TOKUSHIMA KEN","city":"NARUTO SHI","town":"MUYACHO MINAMIHAMA","perfecture_jp":"徳島県","jp_add_1":"鳴門市","jp_add_2":"撫養町南浜"},"7720015":{"post_code":"7720015","prefecture":"TOKUSHIMA KEN","city":"NARUTO SHI","town":"MUYACHO KITAHAMA","perfecture_jp":"徳島県","jp_add_1":"鳴門市","jp_add_2":"撫養町北浜"}}