{"7730070":{"post_code":"7730070","prefecture":"TOKUSHIMA KEN","city":"TOKUSHIMA SHI","town":"OBARACHO(KOMIKO.KOMIKOYAMA)","perfecture_jp":"徳島県","jp_add_1":"徳島市","jp_add_2":"大原町"},"7730000":{"post_code":"7730000","prefecture":"TOKUSHIMA KEN","city":"KOMATSUSHIMA SHI","town":"IKANIKEISAIGANAIBAAI","perfecture_jp":"徳島県","jp_add_1":"小松島市","jp_add_2":""},"7730024":{"post_code":"7730024","prefecture":"TOKUSHIMA KEN","city":"KOMATSUSHIMA SHI","town":"AISHINDENCHO","perfecture_jp":"徳島県","jp_add_1":"小松島市","jp_add_2":"間新田町"},"7730021":{"post_code":"7730021","prefecture":"TOKUSHIMA KEN","city":"KOMATSUSHIMA SHI","town":"AKAISHICHO","perfecture_jp":"徳島県","jp_add_1":"小松島市","jp_add_2":"赤石町"},"7730014":{"post_code":"7730014","prefecture":"TOKUSHIMA KEN","city":"KOMATSUSHIMA SHI","town":"EDACHO","perfecture_jp":"徳島県","jp_add_1":"小松島市","jp_add_2":"江田町"},"7730022":{"post_code":"7730022","prefecture":"TOKUSHIMA KEN","city":"KOMATSUSHIMA SHI","town":"OHAYASHICHO","perfecture_jp":"徳島県","jp_add_1":"小松島市","jp_add_2":"大林町"},"7730007":{"post_code":"7730007","prefecture":"TOKUSHIMA KEN","city":"KOMATSUSHIMA SHI","town":"KANAISOCHO","perfecture_jp":"徳島県","jp_add_1":"小松島市","jp_add_2":"金磯町"},"7730002":{"post_code":"7730002","prefecture":"TOKUSHIMA KEN","city":"KOMATSUSHIMA SHI","town":"KANDASECHO","perfecture_jp":"徳島県","jp_add_1":"小松島市","jp_add_2":"神田瀬町"},"7730018":{"post_code":"7730018","prefecture":"TOKUSHIMA KEN","city":"KOMATSUSHIMA SHI","town":"KUSHIBUCHICHO","perfecture_jp":"徳島県","jp_add_1":"小松島市","jp_add_2":"櫛淵町"},"7730001":{"post_code":"7730001","prefecture":"TOKUSHIMA KEN","city":"KOMATSUSHIMA SHI","town":"KOMATSUSHIMACHO","perfecture_jp":"徳島県","jp_add_1":"小松島市","jp_add_2":"小松島町"},"7730023":{"post_code":"7730023","prefecture":"TOKUSHIMA KEN","city":"KOMATSUSHIMA SHI","town":"SAKANOCHO","perfecture_jp":"徳島県","jp_add_1":"小松島市","jp_add_2":"坂野町"},"7730009":{"post_code":"7730009","prefecture":"TOKUSHIMA KEN","city":"KOMATSUSHIMA SHI","town":"SHIBOCHO","perfecture_jp":"徳島県","jp_add_1":"小松島市","jp_add_2":"芝生町"},"7730012":{"post_code":"7730012","prefecture":"TOKUSHIMA KEN","city":"KOMATSUSHIMA SHI","town":"TAURACHO","perfecture_jp":"徳島県","jp_add_1":"小松島市","jp_add_2":"田浦町"},"7730017":{"post_code":"7730017","prefecture":"TOKUSHIMA KEN","city":"KOMATSUSHIMA SHI","town":"TATSUECHO","perfecture_jp":"徳島県","jp_add_1":"小松島市","jp_add_2":"立江町"},"7730008":{"post_code":"7730008","prefecture":"TOKUSHIMA KEN","city":"KOMATSUSHIMA SHI","town":"TANOCHO","perfecture_jp":"徳島県","jp_add_1":"小松島市","jp_add_2":"田野町"},"7730015":{"post_code":"7730015","prefecture":"TOKUSHIMA KEN","city":"KOMATSUSHIMA SHI","town":"CHUDENCHO","perfecture_jp":"徳島県","jp_add_1":"小松島市","jp_add_2":"中田町"},"7730019":{"post_code":"7730019","prefecture":"TOKUSHIMA KEN","city":"KOMATSUSHIMA SHI","town":"TOYORACHO","perfecture_jp":"徳島県","jp_add_1":"小松島市","jp_add_2":"豊浦町"},"7730016":{"post_code":"7730016","prefecture":"TOKUSHIMA KEN","city":"KOMATSUSHIMA SHI","town":"NAKANOGOCHO","perfecture_jp":"徳島県","jp_add_1":"小松島市","jp_add_2":"中郷町"},"7730011":{"post_code":"7730011","prefecture":"TOKUSHIMA KEN","city":"KOMATSUSHIMA SHI","town":"NIIMICHO","perfecture_jp":"徳島県","jp_add_1":"小松島市","jp_add_2":"新居見町"},"7730010":{"post_code":"7730010","prefecture":"TOKUSHIMA KEN","city":"KOMATSUSHIMA SHI","town":"HIGAINOCHO","perfecture_jp":"徳島県","jp_add_1":"小松島市","jp_add_2":"日開野町"},"7730004":{"post_code":"7730004","prefecture":"TOKUSHIMA KEN","city":"KOMATSUSHIMA SHI","town":"HORIKAWACHO","perfecture_jp":"徳島県","jp_add_1":"小松島市","jp_add_2":"堀川町"},"7730013":{"post_code":"7730013","prefecture":"TOKUSHIMA KEN","city":"KOMATSUSHIMA SHI","town":"MAEBARACHO","perfecture_jp":"徳島県","jp_add_1":"小松島市","jp_add_2":"前原町"},"7730003":{"post_code":"7730003","prefecture":"TOKUSHIMA KEN","city":"KOMATSUSHIMA SHI","town":"MATSUSHIMACHO","perfecture_jp":"徳島県","jp_add_1":"小松島市","jp_add_2":"松島町"},"7730005":{"post_code":"7730005","prefecture":"TOKUSHIMA KEN","city":"KOMATSUSHIMA SHI","town":"MINAMIKOMATSUSHIMACHO","perfecture_jp":"徳島県","jp_add_1":"小松島市","jp_add_2":"南小松島町"},"7730006":{"post_code":"7730006","prefecture":"TOKUSHIMA KEN","city":"KOMATSUSHIMA SHI","town":"YOKOSUCHO","perfecture_jp":"徳島県","jp_add_1":"小松島市","jp_add_2":"横須町"},"7730031":{"post_code":"7730031","prefecture":"TOKUSHIMA KEN","city":"KOMATSUSHIMA SHI","town":"WADAJIMACHO(MATSUDASHINDEN)","perfecture_jp":"徳島県","jp_add_1":"小松島市","jp_add_2":"和田島町"},"7730025":{"post_code":"7730025","prefecture":"TOKUSHIMA KEN","city":"KOMATSUSHIMA SHI","town":"WADAJIMACHO(SONOTA)","perfecture_jp":"徳島県","jp_add_1":"小松島市","jp_add_2":"和田島町"},"7730020":{"post_code":"7730020","prefecture":"TOKUSHIMA KEN","city":"KOMATSUSHIMA SHI","town":"WADATSUBIRAKICHO","perfecture_jp":"徳島県","jp_add_1":"小松島市","jp_add_2":"和田津開町"}}