{"7780000":{"post_code":"7780000","prefecture":"TOKUSHIMA KEN","city":"MIYOSHI SHI","town":"IKANIKEISAIGANAIBAAI","perfecture_jp":"徳島県","jp_add_1":"三好市","jp_add_2":""},"7780012":{"post_code":"7780012","prefecture":"TOKUSHIMA KEN","city":"MIYOSHI SHI","town":"IKEDACHO IKEMINAMI","perfecture_jp":"徳島県","jp_add_1":"三好市","jp_add_2":"池田町イケミナミ"},"7780014":{"post_code":"7780014","prefecture":"TOKUSHIMA KEN","city":"MIYOSHI SHI","town":"IKEDACHO ITANO","perfecture_jp":"徳島県","jp_add_1":"三好市","jp_add_2":"池田町イタノ"},"7780001":{"post_code":"7780001","prefecture":"TOKUSHIMA KEN","city":"MIYOSHI SHI","town":"IKEDACHO UENO","perfecture_jp":"徳島県","jp_add_1":"三好市","jp_add_2":"池田町ウエノ"},"7780010":{"post_code":"7780010","prefecture":"TOKUSHIMA KEN","city":"MIYOSHI SHI","town":"IKEDACHO UEMATSU","perfecture_jp":"徳島県","jp_add_1":"三好市","jp_add_2":"池田町ウエマツ"},"7785252":{"post_code":"7785252","prefecture":"TOKUSHIMA KEN","city":"MIYOSHI SHI","town":"IKEDACHO UMAJI","perfecture_jp":"徳島県","jp_add_1":"三好市","jp_add_2":"池田町馬路"},"7780008":{"post_code":"7780008","prefecture":"TOKUSHIMA KEN","city":"MIYOSHI SHI","town":"IKEDACHO KUYAUJI","perfecture_jp":"徳島県","jp_add_1":"三好市","jp_add_2":"池田町クヤウジ"},"7785253":{"post_code":"7785253","prefecture":"TOKUSHIMA KEN","city":"MIYOSHI SHI","town":"IKEDACHO SANO","perfecture_jp":"徳島県","jp_add_1":"三好市","jp_add_2":"池田町佐野"},"7780003":{"post_code":"7780003","prefecture":"TOKUSHIMA KEN","city":"MIYOSHI SHI","town":"IKEDACHO SARADA","perfecture_jp":"徳島県","jp_add_1":"三好市","jp_add_2":"池田町サラダ"},"7780005":{"post_code":"7780005","prefecture":"TOKUSHIMA KEN","city":"MIYOSHI SHI","town":"IKEDACHO SHIMA","perfecture_jp":"徳島県","jp_add_1":"三好市","jp_add_2":"池田町シマ"},"7780020":{"post_code":"7780020","prefecture":"TOKUSHIMA KEN","city":"MIYOSHI SHI","town":"IKEDACHO SHUZU","perfecture_jp":"徳島県","jp_add_1":"三好市","jp_add_2":"池田町州津"},"7780004":{"post_code":"7780004","prefecture":"TOKUSHIMA KEN","city":"MIYOSHI SHI","town":"IKEDACHO SHIMMACHI","perfecture_jp":"徳島県","jp_add_1":"三好市","jp_add_2":"池田町シンマチ"},"7780013":{"post_code":"7780013","prefecture":"TOKUSHIMA KEN","city":"MIYOSHI SHI","town":"IKEDACHO SHINYAMA","perfecture_jp":"徳島県","jp_add_1":"三好市","jp_add_2":"池田町シンヤマ"},"7780006":{"post_code":"7780006","prefecture":"TOKUSHIMA KEN","city":"MIYOSHI SHI","town":"IKEDACHO TOGE","perfecture_jp":"徳島県","jp_add_1":"三好市","jp_add_2":"池田町トウゲ"},"7780031":{"post_code":"7780031","prefecture":"TOKUSHIMA KEN","city":"MIYOSHI SHI","town":"IKEDACHO NISHIYAMA (YOKOSAKO)","perfecture_jp":"徳島県","jp_add_1":"三好市","jp_add_2":"池田町西山"},"7780032":{"post_code":"7780032","prefecture":"TOKUSHIMA KEN","city":"MIYOSHI SHI","town":"IKEDACHO NISHIYAMA (MIYANOHIGASHI)","perfecture_jp":"徳島県","jp_add_1":"三好市","jp_add_2":"池田町西山"},"7780040":{"post_code":"7780040","prefecture":"TOKUSHIMA KEN","city":"MIYOSHI SHI","town":"IKEDACHO NISHIYAMA(SONOTA)","perfecture_jp":"徳島県","jp_add_1":"三好市","jp_add_2":"池田町西山"},"7785251":{"post_code":"7785251","prefecture":"TOKUSHIMA KEN","city":"MIYOSHI SHI","town":"IKEDACHO HAKUCHI","perfecture_jp":"徳島県","jp_add_1":"三好市","jp_add_2":"池田町白地"},"7780011":{"post_code":"7780011","prefecture":"TOKUSHIMA KEN","city":"MIYOSHI SHI","town":"IKEDACHO HAYASHI","perfecture_jp":"徳島県","jp_add_1":"三好市","jp_add_2":"池田町ハヤシ"},"7780002":{"post_code":"7780002","prefecture":"TOKUSHIMA KEN","city":"MIYOSHI SHI","town":"IKEDACHO MACHI","perfecture_jp":"徳島県","jp_add_1":"三好市","jp_add_2":"池田町マチ"},"7780165":{"post_code":"7780165","prefecture":"TOKUSHIMA KEN","city":"MIYOSHI SHI","town":"IKEDACHO MATSUO(IYAONSEN.MATSUMOTO3","perfecture_jp":"徳島県","jp_add_1":"三好市","jp_add_2":"池田町松尾"},"7780009":{"post_code":"7780009","prefecture":"TOKUSHIMA KEN","city":"MIYOSHI SHI","town":"IKEDACHO YASAN","perfecture_jp":"徳島県","jp_add_1":"三好市","jp_add_2":"池田町ヤサン"},"7780007":{"post_code":"7780007","prefecture":"TOKUSHIMA KEN","city":"MIYOSHI SHI","town":"IKEDACHO YAMADA","perfecture_jp":"徳島県","jp_add_1":"三好市","jp_add_2":"池田町ヤマダ"},"7780104":{"post_code":"7780104","prefecture":"TOKUSHIMA KEN","city":"MIYOSHI SHI","town":"NISHIIYAYAMAMURA MINAMIYAMA","perfecture_jp":"徳島県","jp_add_1":"三好市","jp_add_2":"西祖谷山村吾橋"},"7780103":{"post_code":"7780103","prefecture":"TOKUSHIMA KEN","city":"MIYOSHI SHI","town":"NISHIIYAYAMAMURA ARUSE","perfecture_jp":"徳島県","jp_add_1":"三好市","jp_add_2":"西祖谷山村有瀬"},"7780101":{"post_code":"7780101","prefecture":"TOKUSHIMA KEN","city":"MIYOSHI SHI","town":"NISHIIYAYAMAMURA MYOJI","perfecture_jp":"徳島県","jp_add_1":"三好市","jp_add_2":"西祖谷山村一宇"},"7780102":{"post_code":"7780102","prefecture":"TOKUSHIMA KEN","city":"MIYOSHI SHI","town":"NISHIIYAYAMAMURA NAKAO","perfecture_jp":"徳島県","jp_add_1":"三好市","jp_add_2":"西祖谷山村今久保"},"7780105":{"post_code":"7780105","prefecture":"TOKUSHIMA KEN","city":"MIYOSHI SHI","town":"NISHIIYAYAMAMURA HIGASHINISHIOKA","perfecture_jp":"徳島県","jp_add_1":"三好市","jp_add_2":"西祖谷山村後山"},"7780205":{"post_code":"7780205","prefecture":"TOKUSHIMA KEN","city":"MIYOSHI SHI","town":"HIGASHIIYA MOTTOI","perfecture_jp":"徳島県","jp_add_1":"三好市","jp_add_2":"東祖谷阿佐"},"7780206":{"post_code":"7780206","prefecture":"TOKUSHIMA KEN","city":"MIYOSHI SHI","town":"HIGASHIIYA WADA","perfecture_jp":"徳島県","jp_add_1":"三好市","jp_add_2":"東祖谷今井"},"7780204":{"post_code":"7780204","prefecture":"TOKUSHIMA KEN","city":"MIYOSHI SHI","town":"HIGASHIIYA WAKABAYASHI","perfecture_jp":"徳島県","jp_add_1":"三好市","jp_add_2":"東祖谷大枝"},"7780203":{"post_code":"7780203","prefecture":"TOKUSHIMA KEN","city":"MIYOSHI SHI","town":"HIGASHIIYA HAYASHI","perfecture_jp":"徳島県","jp_add_1":"三好市","jp_add_2":"東祖谷奥の井"},"7780202":{"post_code":"7780202","prefecture":"TOKUSHIMA KEN","city":"MIYOSHI SHI","town":"HIGASHIIYA KUBO","perfecture_jp":"徳島県","jp_add_1":"三好市","jp_add_2":"東祖谷落合"},"7780201":{"post_code":"7780201","prefecture":"TOKUSHIMA KEN","city":"MIYOSHI SHI","town":"HIGASHIIYA MINOKOSHI","perfecture_jp":"徳島県","jp_add_1":"三好市","jp_add_2":"東祖谷菅生"},"7785254":{"post_code":"7785254","prefecture":"TOKUSHIMA KEN","city":"MIYOSHI SHI","town":"YAMASHIROCHO SARE (MINEBATA)","perfecture_jp":"徳島県","jp_add_1":"三好市","jp_add_2":"山城町佐連"}}