{"7800000":{"post_code":"7800000","prefecture":"KOCHI KEN","city":"KOCHI SHI","town":"IKANIKEISAIGANAIBAAI","perfecture_jp":"高知県","jp_add_1":"高知市","jp_add_2":""},"7800054":{"post_code":"7800054","prefecture":"KOCHI KEN","city":"KOCHI SHI","town":"AIOICHO","perfecture_jp":"高知県","jp_add_1":"高知市","jp_add_2":"相生町"},"7800813":{"post_code":"7800813","prefecture":"KOCHI KEN","city":"KOCHI SHI","town":"AOYAGICHO","perfecture_jp":"高知県","jp_add_1":"高知市","jp_add_2":"青柳町"},"7800936":{"post_code":"7800936","prefecture":"KOCHI KEN","city":"KOCHI SHI","town":"AKAISHICHO","perfecture_jp":"高知県","jp_add_1":"高知市","jp_add_2":"赤石町"},"7808072":{"post_code":"7808072","prefecture":"KOCHI KEN","city":"KOCHI SHI","town":"AKEBONOCHO","perfecture_jp":"高知県","jp_add_1":"高知市","jp_add_2":"曙町"},"7808061":{"post_code":"7808061","prefecture":"KOCHI KEN","city":"KOCHI SHI","town":"ASAKURA KO","perfecture_jp":"高知県","jp_add_1":"高知市","jp_add_2":"朝倉甲"},"7808062":{"post_code":"7808062","prefecture":"KOCHI KEN","city":"KOCHI SHI","town":"ASAKURA OTSU","perfecture_jp":"高知県","jp_add_1":"高知市","jp_add_2":"朝倉乙"},"7808063":{"post_code":"7808063","prefecture":"KOCHI KEN","city":"KOCHI SHI","town":"ASAKURA HEI","perfecture_jp":"高知県","jp_add_1":"高知市","jp_add_2":"朝倉丙"},"7808064":{"post_code":"7808064","prefecture":"KOCHI KEN","city":"KOCHI SHI","town":"ASAKURA TEI","perfecture_jp":"高知県","jp_add_1":"高知市","jp_add_2":"朝倉丁"},"7808065":{"post_code":"7808065","prefecture":"KOCHI KEN","city":"KOCHI SHI","town":"ASAKURA BO","perfecture_jp":"高知県","jp_add_1":"高知市","jp_add_2":"朝倉戊"},"7808066":{"post_code":"7808066","prefecture":"KOCHI KEN","city":"KOCHI SHI","town":"ASAKURA KI","perfecture_jp":"高知県","jp_add_1":"高知市","jp_add_2":"朝倉己"},"7808077":{"post_code":"7808077","prefecture":"KOCHI KEN","city":"KOCHI SHI","town":"ASAKURANISHIMACHI","perfecture_jp":"高知県","jp_add_1":"高知市","jp_add_2":"朝倉西町"},"7808076":{"post_code":"7808076","prefecture":"KOCHI KEN","city":"KOCHI SHI","town":"ASAKURAHIGASHIMACHI","perfecture_jp":"高知県","jp_add_1":"高知市","jp_add_2":"朝倉東町"},"7808075":{"post_code":"7808075","prefecture":"KOCHI KEN","city":"KOCHI SHI","town":"ASAKURAMINAMIMACHI","perfecture_jp":"高知県","jp_add_1":"高知市","jp_add_2":"朝倉南町"},"7808074":{"post_code":"7808074","prefecture":"KOCHI KEN","city":"KOCHI SHI","town":"ASAKURAYOKOMACHI","perfecture_jp":"高知県","jp_add_1":"高知市","jp_add_2":"朝倉横町"},"7808073":{"post_code":"7808073","prefecture":"KOCHI KEN","city":"KOCHI SHI","town":"ASAKURAHOMMACHI","perfecture_jp":"高知県","jp_add_1":"高知市","jp_add_2":"朝倉本町"},"7800938":{"post_code":"7800938","prefecture":"KOCHI KEN","city":"KOCHI SHI","town":"ASAHIEKIMAECHO","perfecture_jp":"高知県","jp_add_1":"高知市","jp_add_2":"旭駅前町"},"7800943":{"post_code":"7800943","prefecture":"KOCHI KEN","city":"KOCHI SHI","town":"ASAHIKAMIMACHI","perfecture_jp":"高知県","jp_add_1":"高知市","jp_add_2":"旭上町"},"7800955":{"post_code":"7800955","prefecture":"KOCHI KEN","city":"KOCHI SHI","town":"ASAHITENJINCHO","perfecture_jp":"高知県","jp_add_1":"高知市","jp_add_2":"旭天神町"},"7800935":{"post_code":"7800935","prefecture":"KOCHI KEN","city":"KOCHI SHI","town":"ASAHIMACHI","perfecture_jp":"高知県","jp_add_1":"高知市","jp_add_2":"旭町"},"7800051":{"post_code":"7800051","prefecture":"KOCHI KEN","city":"KOCHI SHI","town":"ATAGOMACHI","perfecture_jp":"高知県","jp_add_1":"高知市","jp_add_2":"愛宕町"},"7800025":{"post_code":"7800025","prefecture":"KOCHI KEN","city":"KOCHI SHI","town":"ATAGOYAMA","perfecture_jp":"高知県","jp_add_1":"高知市","jp_add_2":"愛宕山"},"7800027":{"post_code":"7800027","prefecture":"KOCHI KEN","city":"KOCHI SHI","town":"ATAGOYAMAMINAMIMACHI","perfecture_jp":"高知県","jp_add_1":"高知市","jp_add_2":"愛宕山南町"},"7800921":{"post_code":"7800921","prefecture":"KOCHI KEN","city":"KOCHI SHI","town":"IGUCHICHO","perfecture_jp":"高知県","jp_add_1":"高知市","jp_add_2":"井口町"},"7808038":{"post_code":"7808038","prefecture":"KOCHI KEN","city":"KOCHI SHI","town":"ISHITATECHO","perfecture_jp":"高知県","jp_add_1":"高知市","jp_add_2":"石立町"},"7800064":{"post_code":"7800064","prefecture":"KOCHI KEN","city":"KOCHI SHI","town":"IZUMICHO","perfecture_jp":"高知県","jp_add_1":"高知市","jp_add_2":"和泉町"},"7800046":{"post_code":"7800046","prefecture":"KOCHI KEN","city":"KOCHI SHI","town":"ISEZAKICHO","perfecture_jp":"高知県","jp_add_1":"高知市","jp_add_2":"伊勢崎町"},"7800814":{"post_code":"7800814","prefecture":"KOCHI KEN","city":"KOCHI SHI","town":"INARICHO","perfecture_jp":"高知県","jp_add_1":"高知市","jp_add_2":"稲荷町"},"7800041":{"post_code":"7800041","prefecture":"KOCHI KEN","city":"KOCHI SHI","town":"IRIAKECHO","perfecture_jp":"高知県","jp_add_1":"高知市","jp_add_2":"入明町"},"7800948":{"post_code":"7800948","prefecture":"KOCHI KEN","city":"KOCHI SHI","town":"IWAGABUCHI","perfecture_jp":"高知県","jp_add_1":"高知市","jp_add_2":"岩ケ淵"},"7808083":{"post_code":"7808083","prefecture":"KOCHI KEN","city":"KOCHI SHI","town":"UGURUSU","perfecture_jp":"高知県","jp_add_1":"高知市","jp_add_2":"鵜来巣"},"7808008":{"post_code":"7808008","prefecture":"KOCHI KEN","city":"KOCHI SHI","town":"USHIOSHIMMACHI","perfecture_jp":"高知県","jp_add_1":"高知市","jp_add_2":"潮新町"},"7800031":{"post_code":"7800031","prefecture":"KOCHI KEN","city":"KOCHI SHI","town":"UTSUNO","perfecture_jp":"高知県","jp_add_1":"高知市","jp_add_2":"宇津野"},"7808011":{"post_code":"7808011","prefecture":"KOCHI KEN","city":"KOCHI SHI","town":"UMENOTSUJI","perfecture_jp":"高知県","jp_add_1":"高知市","jp_add_2":"梅ノ辻"},"7800844":{"post_code":"7800844","prefecture":"KOCHI KEN","city":"KOCHI SHI","town":"EIKOKUJICHO","perfecture_jp":"高知県","jp_add_1":"高知市","jp_add_2":"永国寺町"},"7800053":{"post_code":"7800053","prefecture":"KOCHI KEN","city":"KOCHI SHI","town":"EKIMAECHO","perfecture_jp":"高知県","jp_add_1":"高知市","jp_add_2":"駅前町"},"7800928":{"post_code":"7800928","prefecture":"KOCHI KEN","city":"KOCHI SHI","town":"ECHIZEMMACHI","perfecture_jp":"高知県","jp_add_1":"高知市","jp_add_2":"越前町"},"7800086":{"post_code":"7800086","prefecture":"KOCHI KEN","city":"KOCHI SHI","town":"EBINOMARU","perfecture_jp":"高知県","jp_add_1":"高知市","jp_add_2":"海老ノ丸"},"7800974":{"post_code":"7800974","prefecture":"KOCHI KEN","city":"KOCHI SHI","town":"ENGYOJI","perfecture_jp":"高知県","jp_add_1":"高知市","jp_add_2":"円行寺"},"7800842":{"post_code":"7800842","prefecture":"KOCHI KEN","city":"KOCHI SHI","town":"OTESUJI","perfecture_jp":"高知県","jp_add_1":"高知市","jp_add_2":"追手筋"},"7800052":{"post_code":"7800052","prefecture":"KOCHI KEN","city":"KOCHI SHI","town":"OKAWASUJI","perfecture_jp":"高知県","jp_add_1":"高知市","jp_add_2":"大川筋"},"7800947":{"post_code":"7800947","prefecture":"KOCHI KEN","city":"KOCHI SHI","town":"OTANI","perfecture_jp":"高知県","jp_add_1":"高知市","jp_add_2":"大谷"},"7808085":{"post_code":"7808085","prefecture":"KOCHI KEN","city":"KOCHI SHI","town":"OTANIKOENCHO","perfecture_jp":"高知県","jp_add_1":"高知市","jp_add_2":"大谷公園町"},"7808031":{"post_code":"7808031","prefecture":"KOCHI KEN","city":"KOCHI SHI","town":"OHARACHO","perfecture_jp":"高知県","jp_add_1":"高知市","jp_add_2":"大原町"},"7800801":{"post_code":"7800801","prefecture":"KOCHI KEN","city":"KOCHI SHI","town":"OKURACHO","perfecture_jp":"高知県","jp_add_1":"高知市","jp_add_2":"小倉町"},"7800915":{"post_code":"7800915","prefecture":"KOCHI KEN","city":"KOCHI SHI","town":"OZUCHO","perfecture_jp":"高知県","jp_add_1":"高知市","jp_add_2":"小津町"},"7800841":{"post_code":"7800841","prefecture":"KOCHI KEN","city":"KOCHI SHI","town":"OBIYAMACHI","perfecture_jp":"高知県","jp_add_1":"高知市","jp_add_2":"帯屋町"},"7800032":{"post_code":"7800032","prefecture":"KOCHI KEN","city":"KOCHI SHI","town":"KAGANOI","perfecture_jp":"高知県","jp_add_1":"高知市","jp_add_2":"加賀野井"},"7800933":{"post_code":"7800933","prefecture":"KOCHI KEN","city":"KOCHI SHI","town":"KAGAMIGAWACHO","perfecture_jp":"高知県","jp_add_1":"高知市","jp_add_2":"鏡川町"},"7800946":{"post_code":"7800946","prefecture":"KOCHI KEN","city":"KOCHI SHI","town":"KAMIHONGUCHO","perfecture_jp":"高知県","jp_add_1":"高知市","jp_add_2":"上本宮町"},"7800901":{"post_code":"7800901","prefecture":"KOCHI KEN","city":"KOCHI SHI","town":"KAMIMACHI","perfecture_jp":"高知県","jp_add_1":"高知市","jp_add_2":"上町"},"7808052":{"post_code":"7808052","prefecture":"KOCHI KEN","city":"KOCHI SHI","town":"KAMOBE(CHOME)","perfecture_jp":"高知県","jp_add_1":"高知市","jp_add_2":"鴨部"},"7808050":{"post_code":"7808050","prefecture":"KOCHI KEN","city":"KOCHI SHI","town":"KAMOBE(SONOTA)","perfecture_jp":"高知県","jp_add_1":"高知市","jp_add_2":"鴨部"},"7808051":{"post_code":"7808051","prefecture":"KOCHI KEN","city":"KOCHI SHI","town":"KAMOBEKAMIMACHI","perfecture_jp":"高知県","jp_add_1":"高知市","jp_add_2":"鴨部上町"},"7808071":{"post_code":"7808071","prefecture":"KOCHI KEN","city":"KOCHI SHI","town":"KAMOBETAKAMACHI","perfecture_jp":"高知県","jp_add_1":"高知市","jp_add_2":"鴨部高町"},"7800994":{"post_code":"7800994","prefecture":"KOCHI KEN","city":"KOCHI SHI","town":"KARAIWA","perfecture_jp":"高知県","jp_add_1":"高知市","jp_add_2":"唐岩"},"7800073":{"post_code":"7800073","prefecture":"KOCHI KEN","city":"KOCHI SHI","town":"KITAKANADA","perfecture_jp":"高知県","jp_add_1":"高知市","jp_add_2":"北金田"},"7800081":{"post_code":"7800081","prefecture":"KOCHI KEN","city":"KOCHI SHI","town":"KITAKAWAZOE","perfecture_jp":"高知県","jp_add_1":"高知市","jp_add_2":"北川添"},"7800088":{"post_code":"7800088","prefecture":"KOCHI KEN","city":"KOCHI SHI","town":"KITAKUBO","perfecture_jp":"高知県","jp_add_1":"高知市","jp_add_2":"北久保"},"7800083":{"post_code":"7800083","prefecture":"KOCHI KEN","city":"KOCHI SHI","town":"KITAGOZA","perfecture_jp":"高知県","jp_add_1":"高知市","jp_add_2":"北御座"},"7808003":{"post_code":"7808003","prefecture":"KOCHI KEN","city":"KOCHI SHI","town":"KITASHINTACHO","perfecture_jp":"高知県","jp_add_1":"高知市","jp_add_2":"北新田町"},"7800022":{"post_code":"7800022","prefecture":"KOCHI KEN","city":"KOCHI SHI","town":"KITAJINZENJI","perfecture_jp":"高知県","jp_add_1":"高知市","jp_add_2":"北秦泉寺"},"7808028":{"post_code":"7808028","prefecture":"KOCHI KEN","city":"KOCHI SHI","town":"KITATAKAMICHO","perfecture_jp":"高知県","jp_add_1":"高知市","jp_add_2":"北高見町"},"7808019":{"post_code":"7808019","prefecture":"KOCHI KEN","city":"KOCHI SHI","town":"KITATAKESHIMACHO","perfecture_jp":"高知県","jp_add_1":"高知市","jp_add_2":"北竹島町"},"7808026":{"post_code":"7808026","prefecture":"KOCHI KEN","city":"KOCHI SHI","town":"KITANAKAYAMA","perfecture_jp":"高知県","jp_add_1":"高知市","jp_add_2":"北中山"},"7800913":{"post_code":"7800913","prefecture":"KOCHI KEN","city":"KOCHI SHI","town":"KITAHATTANCHO","perfecture_jp":"高知県","jp_add_1":"高知市","jp_add_2":"北八反町"},"7800956":{"post_code":"7800956","prefecture":"KOCHI KEN","city":"KOCHI SHI","town":"KITABATACHO","perfecture_jp":"高知県","jp_add_1":"高知市","jp_add_2":"北端町"},"7800056":{"post_code":"7800056","prefecture":"KOCHI KEN","city":"KOCHI SHI","town":"KITAHOMMACHI","perfecture_jp":"高知県","jp_add_1":"高知市","jp_add_2":"北本町"},"7800832":{"post_code":"7800832","prefecture":"KOCHI KEN","city":"KOCHI SHI","town":"KUTANDA","perfecture_jp":"高知県","jp_add_1":"高知市","jp_add_2":"九反田"},"7800963":{"post_code":"7800963","prefecture":"KOCHI KEN","city":"KOCHI SHI","town":"KUCHIHOSOYAMA","perfecture_jp":"高知県","jp_add_1":"高知市","jp_add_2":"口細山"},"7800001":{"post_code":"7800001","prefecture":"KOCHI KEN","city":"KOCHI SHI","town":"KURENO","perfecture_jp":"高知県","jp_add_1":"高知市","jp_add_2":"久礼野"},"7808032":{"post_code":"7808032","prefecture":"KOCHI KEN","city":"KOCHI SHI","town":"KOISHIGICHO","perfecture_jp":"高知県","jp_add_1":"高知市","jp_add_2":"小石木町"},"7800811":{"post_code":"7800811","prefecture":"KOCHI KEN","city":"KOCHI SHI","town":"KOKADAI","perfecture_jp":"高知県","jp_add_1":"高知市","jp_add_2":"弘化台"},"7808033":{"post_code":"7808033","prefecture":"KOCHI KEN","city":"KOCHI SHI","town":"KOZAKI","perfecture_jp":"高知県","jp_add_1":"高知市","jp_add_2":"幸崎"},"7808040":{"post_code":"7808040","prefecture":"KOCHI KEN","city":"KOCHI SHI","town":"KODA","perfecture_jp":"高知県","jp_add_1":"高知市","jp_add_2":"神田"},"7808035":{"post_code":"7808035","prefecture":"KOCHI KEN","city":"KOCHI SHI","town":"GONOSECHO","perfecture_jp":"高知県","jp_add_1":"高知市","jp_add_2":"河ノ瀬町"},"7800055":{"post_code":"7800055","prefecture":"KOCHI KEN","city":"KOCHI SHI","town":"KOYOCHO","perfecture_jp":"高知県","jp_add_1":"高知市","jp_add_2":"江陽町"},"7800043":{"post_code":"7800043","prefecture":"KOCHI KEN","city":"KOCHI SHI","town":"KOTOBUKICHO","perfecture_jp":"高知県","jp_add_1":"高知市","jp_add_2":"寿町"},"7800045":{"post_code":"7800045","prefecture":"KOCHI KEN","city":"KOCHI SHI","town":"SAIWAICHO","perfecture_jp":"高知県","jp_add_1":"高知市","jp_add_2":"幸町"},"7800823":{"post_code":"7800823","prefecture":"KOCHI KEN","city":"KOCHI SHI","town":"SAEMBACHO","perfecture_jp":"高知県","jp_add_1":"高知市","jp_add_2":"菜園場町"},"7800834":{"post_code":"7800834","prefecture":"KOCHI KEN","city":"KOCHI SHI","town":"SAKAIMACHI","perfecture_jp":"高知県","jp_add_1":"高知市","jp_add_2":"堺町"},"7800061":{"post_code":"7800061","prefecture":"KOCHI KEN","city":"KOCHI SHI","town":"SAKAEDACHO","perfecture_jp":"高知県","jp_add_1":"高知市","jp_add_2":"栄田町"},"7800047":{"post_code":"7800047","prefecture":"KOCHI KEN","city":"KOCHI SHI","town":"SAGAMICHO","perfecture_jp":"高知県","jp_add_1":"高知市","jp_add_2":"相模町"},"7800821":{"post_code":"7800821","prefecture":"KOCHI KEN","city":"KOCHI SHI","town":"SAKURAICHO","perfecture_jp":"高知県","jp_add_1":"高知市","jp_add_2":"桜井町"},"7800929":{"post_code":"7800929","prefecture":"KOCHI KEN","city":"KOCHI SHI","town":"SAKURABABA","perfecture_jp":"高知県","jp_add_1":"高知市","jp_add_2":"桜馬場"},"7800954":{"post_code":"7800954","prefecture":"KOCHI KEN","city":"KOCHI SHI","town":"SASAKICHO","perfecture_jp":"高知県","jp_add_1":"高知市","jp_add_2":"佐々木町"},"7800923":{"post_code":"7800923","prefecture":"KOCHI KEN","city":"KOCHI SHI","town":"SANNOMARU","perfecture_jp":"高知県","jp_add_1":"高知市","jp_add_2":"三ノ丸"},"7808010":{"post_code":"7808010","prefecture":"KOCHI KEN","city":"KOCHI SHI","town":"SAMBASHIDORI","perfecture_jp":"高知県","jp_add_1":"高知市","jp_add_2":"桟橋通"},"7800065":{"post_code":"7800065","prefecture":"KOCHI KEN","city":"KOCHI SHI","town":"SHIOTACHO","perfecture_jp":"高知県","jp_add_1":"高知市","jp_add_2":"塩田町"},"7808014":{"post_code":"7808014","prefecture":"KOCHI KEN","city":"KOCHI SHI","town":"SHIOYAZAKIMACHI","perfecture_jp":"高知県","jp_add_1":"高知市","jp_add_2":"塩屋崎町"},"7800002":{"post_code":"7800002","prefecture":"KOCHI KEN","city":"KOCHI SHI","town":"SHIGEKURA","perfecture_jp":"高知県","jp_add_1":"高知市","jp_add_2":"重倉"},"7800805":{"post_code":"7800805","prefecture":"KOCHI KEN","city":"KOCHI SHI","town":"SHINONOMECHO","perfecture_jp":"高知県","jp_add_1":"高知市","jp_add_2":"東雲町"},"7800975":{"post_code":"7800975","prefecture":"KOCHI KEN","city":"KOCHI SHI","town":"SHIBAMAKI","perfecture_jp":"高知県","jp_add_1":"高知市","jp_add_2":"柴巻"},"7800934":{"post_code":"7800934","prefecture":"KOCHI KEN","city":"KOCHI SHI","town":"SHIMOJIMACHO","perfecture_jp":"高知県","jp_add_1":"高知市","jp_add_2":"下島町"},"7800916":{"post_code":"7800916","prefecture":"KOCHI KEN","city":"KOCHI SHI","town":"JOHOKUCHO","perfecture_jp":"高知県","jp_add_1":"高知市","jp_add_2":"城北町"},"7808037":{"post_code":"7808037","prefecture":"KOCHI KEN","city":"KOCHI SHI","town":"JOYAMACHO","perfecture_jp":"高知県","jp_add_1":"高知市","jp_add_2":"城山町"},"7800996":{"post_code":"7800996","prefecture":"KOCHI KEN","city":"KOCHI SHI","town":"JORI","perfecture_jp":"高知県","jp_add_1":"高知市","jp_add_2":"上里"},"7800063":{"post_code":"7800063","prefecture":"KOCHI KEN","city":"KOCHI SHI","town":"SHOWAMACHI","perfecture_jp":"高知県","jp_add_1":"高知市","jp_add_2":"昭和町"},"7800824":{"post_code":"7800824","prefecture":"KOCHI KEN","city":"KOCHI SHI","town":"SHIROMICHO","perfecture_jp":"高知県","jp_add_1":"高知市","jp_add_2":"城見町"},"7808004":{"post_code":"7808004","prefecture":"KOCHI KEN","city":"KOCHI SHI","town":"SHINTACHO","perfecture_jp":"高知県","jp_add_1":"高知市","jp_add_2":"新田町"},"7800062":{"post_code":"7800062","prefecture":"KOCHI KEN","city":"KOCHI SHI","town":"SHINHOMMACHI","perfecture_jp":"高知県","jp_add_1":"高知市","jp_add_2":"新本町"},"7800911":{"post_code":"7800911","prefecture":"KOCHI KEN","city":"KOCHI SHI","town":"SHINYASHIKI","perfecture_jp":"高知県","jp_add_1":"高知市","jp_add_2":"新屋敷"},"7800944":{"post_code":"7800944","prefecture":"KOCHI KEN","city":"KOCHI SHI","town":"SUIGENCHO","perfecture_jp":"高知県","jp_add_1":"高知市","jp_add_2":"水源町"},"7800903":{"post_code":"7800903","prefecture":"KOCHI KEN","city":"KOCHI SHI","town":"SUIDOCHO","perfecture_jp":"高知県","jp_add_1":"高知市","jp_add_2":"水通町"},"7800072":{"post_code":"7800072","prefecture":"KOCHI KEN","city":"KOCHI SHI","town":"SUGIIRU","perfecture_jp":"高知県","jp_add_1":"高知市","jp_add_2":"杉井流"},"7800991":{"post_code":"7800991","prefecture":"KOCHI KEN","city":"KOCHI SHI","town":"SOANJI","perfecture_jp":"高知県","jp_add_1":"高知市","jp_add_2":"宗安寺"},"7800926":{"post_code":"7800926","prefecture":"KOCHI KEN","city":"KOCHI SHI","town":"DAIZENCHO","perfecture_jp":"高知県","jp_add_1":"高知市","jp_add_2":"大膳町"},"7800862":{"post_code":"7800862","prefecture":"KOCHI KEN","city":"KOCHI SHI","town":"TAKAJOMACHI","perfecture_jp":"高知県","jp_add_1":"高知市","jp_add_2":"鷹匠町"},"7800071":{"post_code":"7800071","prefecture":"KOCHI KEN","city":"KOCHI SHI","town":"TAKASONE","perfecture_jp":"高知県","jp_add_1":"高知市","jp_add_2":"高そね"},"7808027":{"post_code":"7808027","prefecture":"KOCHI KEN","city":"KOCHI SHI","town":"TAKAMICHO","perfecture_jp":"高知県","jp_add_1":"高知市","jp_add_2":"高見町"},"7800914":{"post_code":"7800914","prefecture":"KOCHI KEN","city":"KOCHI SHI","town":"TAKARAMACHI","perfecture_jp":"高知県","jp_add_1":"高知市","jp_add_2":"宝町"},"7808018":{"post_code":"7808018","prefecture":"KOCHI KEN","city":"KOCHI SHI","town":"TAKESHIMACHO","perfecture_jp":"高知県","jp_add_1":"高知市","jp_add_2":"竹島町"},"7800931":{"post_code":"7800931","prefecture":"KOCHI KEN","city":"KOCHI SHI","town":"TAMAMIZUCHO","perfecture_jp":"高知県","jp_add_1":"高知市","jp_add_2":"玉水町"},"7800806":{"post_code":"7800806","prefecture":"KOCHI KEN","city":"KOCHI SHI","town":"CHIYORICHO","perfecture_jp":"高知県","jp_add_1":"高知市","jp_add_2":"知寄町"},"7800952":{"post_code":"7800952","prefecture":"KOCHI KEN","city":"KOCHI SHI","town":"TSUKANOHARA","perfecture_jp":"高知県","jp_add_1":"高知市","jp_add_2":"塚ノ原"},"7808012":{"post_code":"7808012","prefecture":"KOCHI KEN","city":"KOCHI SHI","town":"TENJINCHO","perfecture_jp":"高知県","jp_add_1":"高知市","jp_add_2":"天神町"},"7808001":{"post_code":"7808001","prefecture":"KOCHI KEN","city":"KOCHI SHI","town":"DOIMACHI","perfecture_jp":"高知県","jp_add_1":"高知市","jp_add_2":"土居町"},"7800864":{"post_code":"7800864","prefecture":"KOCHI KEN","city":"KOCHI SHI","town":"TOJIMMACHI","perfecture_jp":"高知県","jp_add_1":"高知市","jp_add_2":"唐人町"},"7800904":{"post_code":"7800904","prefecture":"KOCHI KEN","city":"KOCHI SHI","town":"TORICHO","perfecture_jp":"高知県","jp_add_1":"高知市","jp_add_2":"通町"},"7800949":{"post_code":"7800949","prefecture":"KOCHI KEN","city":"KOCHI SHI","town":"TORIGOE","perfecture_jp":"高知県","jp_add_1":"高知市","jp_add_2":"鳥越"},"7800983":{"post_code":"7800983","prefecture":"KOCHI KEN","city":"KOCHI SHI","town":"NAKAKUMA","perfecture_jp":"高知県","jp_add_1":"高知市","jp_add_2":"中久万"},"7800021":{"post_code":"7800021","prefecture":"KOCHI KEN","city":"KOCHI SHI","town":"NAKAJINZENJI","perfecture_jp":"高知県","jp_add_1":"高知市","jp_add_2":"中秦泉寺"},"7800044":{"post_code":"7800044","prefecture":"KOCHI KEN","city":"KOCHI SHI","town":"NAKASUIDO","perfecture_jp":"高知県","jp_add_1":"高知市","jp_add_2":"中水道"},"7800937":{"post_code":"7800937","prefecture":"KOCHI KEN","city":"KOCHI SHI","town":"NAKASUKACHO","perfecture_jp":"高知県","jp_add_1":"高知市","jp_add_2":"中須賀町"},"7808007":{"post_code":"7808007","prefecture":"KOCHI KEN","city":"KOCHI SHI","town":"NAKATACHO","perfecture_jp":"高知県","jp_add_1":"高知市","jp_add_2":"仲田町"},"7800831":{"post_code":"7800831","prefecture":"KOCHI KEN","city":"KOCHI SHI","town":"NAKANOSHIMA","perfecture_jp":"高知県","jp_add_1":"高知市","jp_add_2":"中の島"},"7800817":{"post_code":"7800817","prefecture":"KOCHI KEN","city":"KOCHI SHI","town":"NAKAHOEICHO","perfecture_jp":"高知県","jp_add_1":"高知市","jp_add_2":"中宝永町"},"7800972":{"post_code":"7800972","prefecture":"KOCHI KEN","city":"KOCHI SHI","town":"NAKAMAMA","perfecture_jp":"高知県","jp_add_1":"高知市","jp_add_2":"中万々"},"7800953":{"post_code":"7800953","prefecture":"KOCHI KEN","city":"KOCHI SHI","town":"NAGAOYAMACHO","perfecture_jp":"高知県","jp_add_1":"高知市","jp_add_2":"長尾山町"},"7800003":{"post_code":"7800003","prefecture":"KOCHI KEN","city":"KOCHI SHI","town":"NANATSUBUCHI","perfecture_jp":"高知県","jp_add_1":"高知市","jp_add_2":"七ツ淵"},"7800992":{"post_code":"7800992","prefecture":"KOCHI KEN","city":"KOCHI SHI","town":"NAMEGAWA","perfecture_jp":"高知県","jp_add_1":"高知市","jp_add_2":"行川"},"7800932":{"post_code":"7800932","prefecture":"KOCHI KEN","city":"KOCHI SHI","town":"NAWATECHO","perfecture_jp":"高知県","jp_add_1":"高知市","jp_add_2":"縄手町"},"7800984":{"post_code":"7800984","prefecture":"KOCHI KEN","city":"KOCHI SHI","town":"NISHIKUMA","perfecture_jp":"高知県","jp_add_1":"高知市","jp_add_2":"西久万"},"7800033":{"post_code":"7800033","prefecture":"KOCHI KEN","city":"KOCHI SHI","town":"NISHIJINZENJI","perfecture_jp":"高知県","jp_add_1":"高知市","jp_add_2":"西秦泉寺"},"7800951":{"post_code":"7800951","prefecture":"KOCHI KEN","city":"KOCHI SHI","town":"NISHITSUKANOHARA","perfecture_jp":"高知県","jp_add_1":"高知市","jp_add_2":"西塚ノ原"},"7800925":{"post_code":"7800925","prefecture":"KOCHI KEN","city":"KOCHI SHI","town":"NISHIMACHI","perfecture_jp":"高知県","jp_add_1":"高知市","jp_add_2":"西町"},"7800843":{"post_code":"7800843","prefecture":"KOCHI KEN","city":"KOCHI SHI","town":"NIJUDAIMACHI","perfecture_jp":"高知県","jp_add_1":"高知市","jp_add_2":"廿代町"},"7800825":{"post_code":"7800825","prefecture":"KOCHI KEN","city":"KOCHI SHI","town":"NONIMMACHI","perfecture_jp":"高知県","jp_add_1":"高知市","jp_add_2":"農人町"},"7808006":{"post_code":"7808006","prefecture":"KOCHI KEN","city":"KOCHI SHI","town":"HAGIMACHI","perfecture_jp":"高知県","jp_add_1":"高知市","jp_add_2":"萩町"},"7800026":{"post_code":"7800026","prefecture":"KOCHI KEN","city":"KOCHI SHI","town":"HADAMINAMIMACHI","perfecture_jp":"高知県","jp_add_1":"高知市","jp_add_2":"秦南町"},"7800912":{"post_code":"7800912","prefecture":"KOCHI KEN","city":"KOCHI SHI","town":"HATTANCHO","perfecture_jp":"高知県","jp_add_1":"高知市","jp_add_2":"八反町"},"7808021":{"post_code":"7808021","prefecture":"KOCHI KEN","city":"KOCHI SHI","town":"HARAMIHIGASHIMACHI","perfecture_jp":"高知県","jp_add_1":"高知市","jp_add_2":"孕東町"},"7808022":{"post_code":"7808022","prefecture":"KOCHI KEN","city":"KOCHI SHI","town":"HARAMINISHIMACHI","perfecture_jp":"高知県","jp_add_1":"高知市","jp_add_2":"孕西町"},"7808087":{"post_code":"7808087","prefecture":"KOCHI KEN","city":"KOCHI SHI","town":"HARIGI KITA","perfecture_jp":"高知県","jp_add_1":"高知市","jp_add_2":"針木北"},"7808090":{"post_code":"7808090","prefecture":"KOCHI KEN","city":"KOCHI SHI","town":"HARIGI NISHI","perfecture_jp":"高知県","jp_add_1":"高知市","jp_add_2":"針木西"},"7808086":{"post_code":"7808086","prefecture":"KOCHI KEN","city":"KOCHI SHI","town":"HARIGI HIGASHIMACHI","perfecture_jp":"高知県","jp_add_1":"高知市","jp_add_2":"針木東町"},"7808088":{"post_code":"7808088","prefecture":"KOCHI KEN","city":"KOCHI SHI","town":"HARIGI HOMMACHI","perfecture_jp":"高知県","jp_add_1":"高知市","jp_add_2":"針木本町"},"7808089":{"post_code":"7808089","prefecture":"KOCHI KEN","city":"KOCHI SHI","town":"HARIGI MINAMI","perfecture_jp":"高知県","jp_add_1":"高知市","jp_add_2":"針木南"},"7800993":{"post_code":"7800993","prefecture":"KOCHI KEN","city":"KOCHI SHI","town":"HARIHARA","perfecture_jp":"高知県","jp_add_1":"高知市","jp_add_2":"針原"},"7800822":{"post_code":"7800822","prefecture":"KOCHI KEN","city":"KOCHI SHI","town":"HARIMAYACHO","perfecture_jp":"高知県","jp_add_1":"高知市","jp_add_2":"はりまや町"},"7808039":{"post_code":"7808039","prefecture":"KOCHI KEN","city":"KOCHI SHI","town":"HIGASHIISHITATECHO","perfecture_jp":"高知県","jp_add_1":"高知市","jp_add_2":"東石立町"},"7800982":{"post_code":"7800982","prefecture":"KOCHI KEN","city":"KOCHI SHI","town":"HIGASHIKUMA","perfecture_jp":"高知県","jp_add_1":"高知市","jp_add_2":"東久万"},"7808036":{"post_code":"7808036","prefecture":"KOCHI KEN","city":"KOCHI SHI","town":"HIGASHIJOYAMACHO","perfecture_jp":"高知県","jp_add_1":"高知市","jp_add_2":"東城山町"},"7800023":{"post_code":"7800023","prefecture":"KOCHI KEN","city":"KOCHI SHI","town":"HIGASHIJINZENJI","perfecture_jp":"高知県","jp_add_1":"高知市","jp_add_2":"東秦泉寺"},"7800962":{"post_code":"7800962","prefecture":"KOCHI KEN","city":"KOCHI SHI","town":"HIJI","perfecture_jp":"高知県","jp_add_1":"高知市","jp_add_2":"尾立"},"7800066":{"post_code":"7800066","prefecture":"KOCHI KEN","city":"KOCHI SHI","town":"HIJIMACHO","perfecture_jp":"高知県","jp_add_1":"高知市","jp_add_2":"比島町"},"7808013":{"post_code":"7808013","prefecture":"KOCHI KEN","city":"KOCHI SHI","town":"HITSUZANCHO","perfecture_jp":"高知県","jp_add_1":"高知市","jp_add_2":"筆山町"},"7800981":{"post_code":"7800981","prefecture":"KOCHI KEN","city":"KOCHI SHI","town":"HITOTSUBASHICHO","perfecture_jp":"高知県","jp_add_1":"高知市","jp_add_2":"一ツ橋町"},"7800804":{"post_code":"7800804","prefecture":"KOCHI KEN","city":"KOCHI SHI","town":"HINODECHO","perfecture_jp":"高知県","jp_add_1":"高知市","jp_add_2":"日の出町"},"7808015":{"post_code":"7808015","prefecture":"KOCHI KEN","city":"KOCHI SHI","town":"HYAKKOKUCHO","perfecture_jp":"高知県","jp_add_1":"高知市","jp_add_2":"百石町"},"7808024":{"post_code":"7808024","prefecture":"KOCHI KEN","city":"KOCHI SHI","town":"FUKADANICHO","perfecture_jp":"高知県","jp_add_1":"高知市","jp_add_2":"深谷町"},"7800966":{"post_code":"7800966","prefecture":"KOCHI KEN","city":"KOCHI SHI","town":"FUKUIOGIMACHI","perfecture_jp":"高知県","jp_add_1":"高知市","jp_add_2":"福井扇町"},"7800965":{"post_code":"7800965","prefecture":"KOCHI KEN","city":"KOCHI SHI","town":"FUKUICHO","perfecture_jp":"高知県","jp_add_1":"高知市","jp_add_2":"福井町"},"7800967":{"post_code":"7800967","prefecture":"KOCHI KEN","city":"KOCHI SHI","town":"FUKUIHIGASHIMACHI","perfecture_jp":"高知県","jp_add_1":"高知市","jp_add_2":"福井東町"},"7800085":{"post_code":"7800085","prefecture":"KOCHI KEN","city":"KOCHI SHI","town":"FUDABA","perfecture_jp":"高知県","jp_add_1":"高知市","jp_add_2":"札場"},"7800815":{"post_code":"7800815","prefecture":"KOCHI KEN","city":"KOCHI SHI","town":"FUTABACHO","perfecture_jp":"高知県","jp_add_1":"高知市","jp_add_2":"二葉町"},"7800922":{"post_code":"7800922","prefecture":"KOCHI KEN","city":"KOCHI SHI","town":"HEIWACHO","perfecture_jp":"高知県","jp_add_1":"高知市","jp_add_2":"平和町"},"7800818":{"post_code":"7800818","prefecture":"KOCHI KEN","city":"KOCHI SHI","town":"HOEICHO","perfecture_jp":"高知県","jp_add_1":"高知市","jp_add_2":"宝永町"},"7800042":{"post_code":"7800042","prefecture":"KOCHI KEN","city":"KOCHI SHI","town":"HORAGAJIMACHO","perfecture_jp":"高知県","jp_add_1":"高知市","jp_add_2":"洞ケ島町"},"7800945":{"post_code":"7800945","prefecture":"KOCHI KEN","city":"KOCHI SHI","town":"HONGUCHO","perfecture_jp":"高知県","jp_add_1":"高知市","jp_add_2":"本宮町"},"7800902":{"post_code":"7800902","prefecture":"KOCHI KEN","city":"KOCHI SHI","town":"HONCHOSUJI","perfecture_jp":"高知県","jp_add_1":"高知市","jp_add_2":"本丁筋"},"7800870":{"post_code":"7800870","prefecture":"KOCHI KEN","city":"KOCHI SHI","town":"HOMMACHI","perfecture_jp":"高知県","jp_add_1":"高知市","jp_add_2":"本町"},"7800024":{"post_code":"7800024","prefecture":"KOCHI KEN","city":"KOCHI SHI","town":"MAEZATO","perfecture_jp":"高知県","jp_add_1":"高知市","jp_add_2":"前里"},"7808084":{"post_code":"7808084","prefecture":"KOCHI KEN","city":"KOCHI SHI","town":"MAKIYAMACHO","perfecture_jp":"高知県","jp_add_1":"高知市","jp_add_2":"槇山町"},"7800861":{"post_code":"7800861","prefecture":"KOCHI KEN","city":"KOCHI SHI","town":"MASUGATA","perfecture_jp":"高知県","jp_add_1":"高知市","jp_add_2":"升形"},"7800973":{"post_code":"7800973","prefecture":"KOCHI KEN","city":"KOCHI SHI","town":"MAMA","perfecture_jp":"高知県","jp_add_1":"高知市","jp_add_2":"万々"},"7800802":{"post_code":"7800802","prefecture":"KOCHI KEN","city":"KOCHI SHI","town":"MARUIKECHO","perfecture_jp":"高知県","jp_add_1":"高知市","jp_add_2":"丸池町"},"7800850":{"post_code":"7800850","prefecture":"KOCHI KEN","city":"KOCHI SHI","town":"MARUNOCHI","perfecture_jp":"高知県","jp_add_1":"高知市","jp_add_2":"丸ノ内"},"7800034":{"post_code":"7800034","prefecture":"KOCHI KEN","city":"KOCHI SHI","town":"MISONOCHO","perfecture_jp":"高知県","jp_add_1":"高知市","jp_add_2":"三園町"},"7800004":{"post_code":"7800004","prefecture":"KOCHI KEN","city":"KOCHI SHI","town":"MITANI","perfecture_jp":"高知県","jp_add_1":"高知市","jp_add_2":"三谷"},"7800976":{"post_code":"7800976","prefecture":"KOCHI KEN","city":"KOCHI SHI","town":"MIZUKI","perfecture_jp":"高知県","jp_add_1":"高知市","jp_add_2":"みづき"},"7800977":{"post_code":"7800977","prefecture":"KOCHI KEN","city":"KOCHI SHI","town":"MIZUKIYAMA","perfecture_jp":"高知県","jp_add_1":"高知市","jp_add_2":"みづき山"},"7800074":{"post_code":"7800074","prefecture":"KOCHI KEN","city":"KOCHI SHI","town":"MINAMIKANADA","perfecture_jp":"高知県","jp_add_1":"高知市","jp_add_2":"南金田"},"7800082":{"post_code":"7800082","prefecture":"KOCHI KEN","city":"KOCHI SHI","town":"MINAMIKAWAZOE","perfecture_jp":"高知県","jp_add_1":"高知市","jp_add_2":"南川添"},"7800087":{"post_code":"7800087","prefecture":"KOCHI KEN","city":"KOCHI SHI","town":"MINAMIKUBO","perfecture_jp":"高知県","jp_add_1":"高知市","jp_add_2":"南久保"},"7800985":{"post_code":"7800985","prefecture":"KOCHI KEN","city":"KOCHI SHI","town":"MINAMIKUMA","perfecture_jp":"高知県","jp_add_1":"高知市","jp_add_2":"南久万"},"7808034":{"post_code":"7808034","prefecture":"KOCHI KEN","city":"KOCHI SHI","town":"MINAMIGONOSECHO","perfecture_jp":"高知県","jp_add_1":"高知市","jp_add_2":"南河ノ瀬町"},"7800084":{"post_code":"7800084","prefecture":"KOCHI KEN","city":"KOCHI SHI","town":"MINAMIGOZA","perfecture_jp":"高知県","jp_add_1":"高知市","jp_add_2":"南御座"},"7808005":{"post_code":"7808005","prefecture":"KOCHI KEN","city":"KOCHI SHI","town":"MINAMISHINTACHO","perfecture_jp":"高知県","jp_add_1":"高知市","jp_add_2":"南新田町"},"7808017":{"post_code":"7808017","prefecture":"KOCHI KEN","city":"KOCHI SHI","town":"MINAMITAKESHIMACHO","perfecture_jp":"高知県","jp_add_1":"高知市","jp_add_2":"南竹島町"},"7808025":{"post_code":"7808025","prefecture":"KOCHI KEN","city":"KOCHI SHI","town":"MINAMINAKAYAMA","perfecture_jp":"高知県","jp_add_1":"高知市","jp_add_2":"南中山"},"7808016":{"post_code":"7808016","prefecture":"KOCHI KEN","city":"KOCHI SHI","town":"MINAMINOMARUCHO","perfecture_jp":"高知県","jp_add_1":"高知市","jp_add_2":"南ノ丸町"},"7800833":{"post_code":"7800833","prefecture":"KOCHI KEN","city":"KOCHI SHI","town":"MINAMIHARIMAYACHO","perfecture_jp":"高知県","jp_add_1":"高知市","jp_add_2":"南はりまや町"},"7800816":{"post_code":"7800816","prefecture":"KOCHI KEN","city":"KOCHI SHI","town":"MINAMIHOEICHO","perfecture_jp":"高知県","jp_add_1":"高知市","jp_add_2":"南宝永町"},"7800971":{"post_code":"7800971","prefecture":"KOCHI KEN","city":"KOCHI SHI","town":"MINAMIMAMA","perfecture_jp":"高知県","jp_add_1":"高知市","jp_add_2":"南万々"},"7800942":{"post_code":"7800942","prefecture":"KOCHI KEN","city":"KOCHI SHI","town":"MINAMIMOTOMACHI","perfecture_jp":"高知県","jp_add_1":"高知市","jp_add_2":"南元町"},"7800924":{"post_code":"7800924","prefecture":"KOCHI KEN","city":"KOCHI SHI","town":"MIYAMAECHO","perfecture_jp":"高知県","jp_add_1":"高知市","jp_add_2":"宮前町"},"7800941":{"post_code":"7800941","prefecture":"KOCHI KEN","city":"KOCHI SHI","town":"MOTOMACHI","perfecture_jp":"高知県","jp_add_1":"高知市","jp_add_2":"元町"},"7808002":{"post_code":"7808002","prefecture":"KOCHI KEN","city":"KOCHI SHI","town":"YAKUCHICHO","perfecture_jp":"高知県","jp_add_1":"高知市","jp_add_2":"役知町"},"7800957":{"post_code":"7800957","prefecture":"KOCHI KEN","city":"KOCHI SHI","town":"YAMATECHO","perfecture_jp":"高知県","jp_add_1":"高知市","jp_add_2":"山手町"},"7800927":{"post_code":"7800927","prefecture":"KOCHI KEN","city":"KOCHI SHI","town":"YAMANOHANACHO","perfecture_jp":"高知県","jp_add_1":"高知市","jp_add_2":"山ノ端町"},"7800803":{"post_code":"7800803","prefecture":"KOCHI KEN","city":"KOCHI SHI","town":"YAYOICHO","perfecture_jp":"高知県","jp_add_1":"高知市","jp_add_2":"弥生町"},"7800964":{"post_code":"7800964","prefecture":"KOCHI KEN","city":"KOCHI SHI","town":"YOKOCHI","perfecture_jp":"高知県","jp_add_1":"高知市","jp_add_2":"横内"},"7800048":{"post_code":"7800048","prefecture":"KOCHI KEN","city":"KOCHI SHI","town":"YOSHIDACHO","perfecture_jp":"高知県","jp_add_1":"高知市","jp_add_2":"吉田町"},"7800863":{"post_code":"7800863","prefecture":"KOCHI KEN","city":"KOCHI SHI","town":"YORIKIMACHI","perfecture_jp":"高知県","jp_add_1":"高知市","jp_add_2":"与力町"},"7800995":{"post_code":"7800995","prefecture":"KOCHI KEN","city":"KOCHI SHI","town":"RYOKE","perfecture_jp":"高知県","jp_add_1":"高知市","jp_add_2":"領家"},"7800961":{"post_code":"7800961","prefecture":"KOCHI KEN","city":"KOCHI SHI","town":"RENDAI","perfecture_jp":"高知県","jp_add_1":"高知市","jp_add_2":"蓮台"},"7808023":{"post_code":"7808023","prefecture":"KOCHI KEN","city":"KOCHI SHI","town":"ROKUSENJICHO","perfecture_jp":"高知県","jp_add_1":"高知市","jp_add_2":"六泉寺町"},"7808081":{"post_code":"7808081","prefecture":"KOCHI KEN","city":"KOCHI SHI","town":"WAKAKUSACHO","perfecture_jp":"高知県","jp_add_1":"高知市","jp_add_2":"若草町"},"7808082":{"post_code":"7808082","prefecture":"KOCHI KEN","city":"KOCHI SHI","town":"WAKAKUSAMINAMIMACHI","perfecture_jp":"高知県","jp_add_1":"高知市","jp_add_2":"若草南町"},"7800812":{"post_code":"7800812","prefecture":"KOCHI KEN","city":"KOCHI SHI","town":"WAKAMATSUCHO","perfecture_jp":"高知県","jp_add_1":"高知市","jp_add_2":"若松町"}}