{"7820000":{"post_code":"7820000","prefecture":"KOCHI KEN","city":"KAMI SHI","town":"IKANIKEISAIGANAIBAAI","perfecture_jp":"高知県","jp_add_1":"香美市","jp_add_2":""},"7820033":{"post_code":"7820033","prefecture":"KOCHI KEN","city":"KAMI SHI","town":"TOSAYAMADACHO ASAHIMACHI","perfecture_jp":"高知県","jp_add_1":"香美市","jp_add_2":"土佐山田町旭町"},"7820072":{"post_code":"7820072","prefecture":"KOCHI KEN","city":"KAMI SHI","town":"TOSAYAMADACHO ARATANI","perfecture_jp":"高知県","jp_add_1":"香美市","jp_add_2":"土佐山田町有谷"},"7820009":{"post_code":"7820009","prefecture":"KOCHI KEN","city":"KAMI SHI","town":"TOSAYAMADACHO IGENOKI","perfecture_jp":"高知県","jp_add_1":"香美市","jp_add_2":"土佐山田町神母ノ木"},"7820059":{"post_code":"7820059","prefecture":"KOCHI KEN","city":"KAMI SHI","town":"TOSAYAMADACHO IRINO","perfecture_jp":"高知県","jp_add_1":"香美市","jp_add_2":"土佐山田町入野"},"7820017":{"post_code":"7820017","prefecture":"KOCHI KEN","city":"KAMI SHI","town":"TOSAYAMADACHO IWAZUMI","perfecture_jp":"高知県","jp_add_1":"香美市","jp_add_2":"土佐山田町岩積"},"7820021":{"post_code":"7820021","prefecture":"KOCHI KEN","city":"KAMI SHI","town":"TOSAYAMADACHO IWATSUGI","perfecture_jp":"高知県","jp_add_1":"香美市","jp_add_2":"土佐山田町岩次"},"7820054":{"post_code":"7820054","prefecture":"KOCHI KEN","city":"KAMI SHI","town":"TOSAYAMADACHO UE","perfecture_jp":"高知県","jp_add_1":"香美市","jp_add_2":"土佐山田町植"},"7820074":{"post_code":"7820074","prefecture":"KOCHI KEN","city":"KAMI SHI","town":"TOSAYAMADACHO OGONYU","perfecture_jp":"高知県","jp_add_1":"香美市","jp_add_2":"土佐山田町大後入"},"7820078":{"post_code":"7820078","prefecture":"KOCHI KEN","city":"KAMI SHI","town":"TOSAYAMADACHO OHIRA","perfecture_jp":"高知県","jp_add_1":"香美市","jp_add_2":"土佐山田町大平"},"7820014":{"post_code":"7820014","prefecture":"KOCHI KEN","city":"KAMI SHI","town":"TOSAYAMADACHO ODAJIMA","perfecture_jp":"高知県","jp_add_1":"香美市","jp_add_2":"土佐山田町小田島"},"7820006":{"post_code":"7820006","prefecture":"KOCHI KEN","city":"KAMI SHI","town":"TOSAYAMADACHO KAGEYAMA","perfecture_jp":"高知県","jp_add_1":"香美市","jp_add_2":"土佐山田町影山"},"7820056":{"post_code":"7820056","prefecture":"KOCHI KEN","city":"KAMI SHI","town":"TOSAYAMADACHO KAMIKAIDA","perfecture_jp":"高知県","jp_add_1":"香美市","jp_add_2":"土佐山田町上改田"},"7820012":{"post_code":"7820012","prefecture":"KOCHI KEN","city":"KAMI SHI","town":"TOSAYAMADACHO KAMO","perfecture_jp":"高知県","jp_add_1":"香美市","jp_add_2":"土佐山田町加茂"},"7820022":{"post_code":"7820022","prefecture":"KOCHI KEN","city":"KAMI SHI","town":"TOSAYAMADACHO KYODEN (TATEISHI)","perfecture_jp":"高知県","jp_add_1":"香美市","jp_add_2":"土佐山田町京田"},"7820023":{"post_code":"7820023","prefecture":"KOCHI KEN","city":"KAMI SHI","town":"TOSAYAMADACHO KYODEN(SONOTA)","perfecture_jp":"高知県","jp_add_1":"香美市","jp_add_2":"土佐山田町京田"},"7820051":{"post_code":"7820051","prefecture":"KOCHI KEN","city":"KAMI SHI","town":"TOSAYAMADACHO KUZUME(ABURAISHI.ZENG","perfecture_jp":"高知県","jp_add_1":"香美市","jp_add_2":"土佐山田町楠目"},"7820039":{"post_code":"7820039","prefecture":"KOCHI KEN","city":"KAMI SHI","town":"TOSAYAMADACHO SAKAEMACHI","perfecture_jp":"高知県","jp_add_1":"香美市","jp_add_2":"土佐山田町栄町"},"7820005":{"post_code":"7820005","prefecture":"KOCHI KEN","city":"KAMI SHI","town":"TOSAYAMADACHO SAKAKAWA","perfecture_jp":"高知県","jp_add_1":"香美市","jp_add_2":"土佐山田町逆川"},"7820008":{"post_code":"7820008","prefecture":"KOCHI KEN","city":"KAMI SHI","town":"TOSAYAMADACHO SAKOYABU","perfecture_jp":"高知県","jp_add_1":"香美市","jp_add_2":"土佐山田町佐古薮"},"7820071":{"post_code":"7820071","prefecture":"KOCHI KEN","city":"KAMI SHI","town":"TOSAYAMADACHO SATAKE","perfecture_jp":"高知県","jp_add_1":"香美市","jp_add_2":"土佐山田町佐竹"},"7820077":{"post_code":"7820077","prefecture":"KOCHI KEN","city":"KAMI SHI","town":"TOSAYAMADACHO SANO (NIIDA)","perfecture_jp":"高知県","jp_add_1":"香美市","jp_add_2":"土佐山田町佐野"},"7820079":{"post_code":"7820079","prefecture":"KOCHI KEN","city":"KAMI SHI","town":"TOSAYAMADACHO SANO(SONOTA)","perfecture_jp":"高知県","jp_add_1":"香美市","jp_add_2":"土佐山田町佐野"},"7820015":{"post_code":"7820015","prefecture":"KOCHI KEN","city":"KAMI SHI","town":"TOSAYAMADACHO SHIMONOMURA","perfecture_jp":"高知県","jp_add_1":"香美市","jp_add_2":"土佐山田町下ノ村"},"7820058":{"post_code":"7820058","prefecture":"KOCHI KEN","city":"KAMI SHI","town":"TOSAYAMADACHO SHINGAI","perfecture_jp":"高知県","jp_add_1":"香美市","jp_add_2":"土佐山田町新改"},"7820038":{"post_code":"7820038","prefecture":"KOCHI KEN","city":"KAMI SHI","town":"TOSAYAMADACHO JINZANCHO","perfecture_jp":"高知県","jp_add_1":"香美市","jp_add_2":"土佐山田町秦山町"},"7820024":{"post_code":"7820024","prefecture":"KOCHI KEN","city":"KAMI SHI","town":"TOSAYAMADACHO JINTSUJI","perfecture_jp":"高知県","jp_add_1":"香美市","jp_add_2":"土佐山田町神通寺"},"7820001":{"post_code":"7820001","prefecture":"KOCHI KEN","city":"KAMI SHI","town":"TOSAYAMADACHO SUITA","perfecture_jp":"高知県","jp_add_1":"香美市","jp_add_2":"土佐山田町杉田"},"7820055":{"post_code":"7820055","prefecture":"KOCHI KEN","city":"KAMI SHI","town":"TOSAYAMADACHO SUE","perfecture_jp":"高知県","jp_add_1":"香美市","jp_add_2":"土佐山田町須江"},"7820061":{"post_code":"7820061","prefecture":"KOCHI KEN","city":"KAMI SHI","town":"TOSAYAMADACHO SOGABEGAWA","perfecture_jp":"高知県","jp_add_1":"香美市","jp_add_2":"土佐山田町曽我部川"},"7820064":{"post_code":"7820064","prefecture":"KOCHI KEN","city":"KAMI SHI","town":"TOSAYAMADACHO DAIHOJI","perfecture_jp":"高知県","jp_add_1":"香美市","jp_add_2":"土佐山田町大法寺"},"7820034":{"post_code":"7820034","prefecture":"KOCHI KEN","city":"KAMI SHI","town":"TOSAYAMADACHO TAKARAMACHI","perfecture_jp":"高知県","jp_add_1":"香美市","jp_add_2":"土佐山田町宝町"},"7820010":{"post_code":"7820010","prefecture":"KOCHI KEN","city":"KAMI SHI","town":"TOSAYAMADACHO TEKUNOPAKU","perfecture_jp":"高知県","jp_add_1":"香美市","jp_add_2":"土佐山田町テクノパーク"},"7820018":{"post_code":"7820018","prefecture":"KOCHI KEN","city":"KAMI SHI","town":"TOSAYAMADACHO TOITAJIMA","perfecture_jp":"高知県","jp_add_1":"香美市","jp_add_2":"土佐山田町戸板島"},"7820073":{"post_code":"7820073","prefecture":"KOCHI KEN","city":"KAMI SHI","town":"TOSAYAMADACHO NAKAGONYU","perfecture_jp":"高知県","jp_add_1":"香美市","jp_add_2":"土佐山田町中後入"},"7820019":{"post_code":"7820019","prefecture":"KOCHI KEN","city":"KAMI SHI","town":"TOSAYAMADACHO NAKANO","perfecture_jp":"高知県","jp_add_1":"香美市","jp_add_2":"土佐山田町中野"},"7820075":{"post_code":"7820075","prefecture":"KOCHI KEN","city":"KAMI SHI","town":"TOSAYAMADACHO NISHIGONYU","perfecture_jp":"高知県","jp_add_1":"香美市","jp_add_2":"土佐山田町西後入"},"7820032":{"post_code":"7820032","prefecture":"KOCHI KEN","city":"KAMI SHI","town":"TOSAYAMADACHO NISHIHOMMACHI","perfecture_jp":"高知県","jp_add_1":"香美市","jp_add_2":"土佐山田町西本町"},"7820004":{"post_code":"7820004","prefecture":"KOCHI KEN","city":"KAMI SHI","town":"TOSAYAMADACHO HAZAMA","perfecture_jp":"高知県","jp_add_1":"香美市","jp_add_2":"土佐山田町間"},"7820007":{"post_code":"7820007","prefecture":"KOCHI KEN","city":"KAMI SHI","town":"TOSAYAMADACHO HAYASHIDA","perfecture_jp":"高知県","jp_add_1":"香美市","jp_add_2":"土佐山田町林田"},"7820063":{"post_code":"7820063","prefecture":"KOCHI KEN","city":"KAMI SHI","town":"TOSAYAMADACHO HIGASHIGAWA","perfecture_jp":"高知県","jp_add_1":"香美市","jp_add_2":"土佐山田町東川"},"7820031":{"post_code":"7820031","prefecture":"KOCHI KEN","city":"KAMI SHI","town":"TOSAYAMADACHO HIGASHIHOMMACHI","perfecture_jp":"高知県","jp_add_1":"香美市","jp_add_2":"土佐山田町東本町"},"7820057":{"post_code":"7820057","prefecture":"KOCHI KEN","city":"KAMI SHI","town":"TOSAYAMADACHO HISATSUGI","perfecture_jp":"高知県","jp_add_1":"香美市","jp_add_2":"土佐山田町久次"},"7820035":{"post_code":"7820035","prefecture":"KOCHI KEN","city":"KAMI SHI","town":"TOSAYAMADACHO HYAKKOKUCHO","perfecture_jp":"高知県","jp_add_1":"香美市","jp_add_2":"土佐山田町百石町"},"7820062":{"post_code":"7820062","prefecture":"KOCHI KEN","city":"KAMI SHI","town":"TOSAYAMADACHO HIRAYAMA(SONOTA)","perfecture_jp":"高知県","jp_add_1":"香美市","jp_add_2":"土佐山田町平山"},"7820002":{"post_code":"7820002","prefecture":"KOCHI KEN","city":"KAMI SHI","town":"TOSAYAMADACHO FUNADANI","perfecture_jp":"高知県","jp_add_1":"香美市","jp_add_2":"土佐山田町船谷"},"7820076":{"post_code":"7820076","prefecture":"KOCHI KEN","city":"KAMI SHI","town":"TOSAYAMADACHO HOMMURA","perfecture_jp":"高知県","jp_add_1":"香美市","jp_add_2":"土佐山田町本村"},"7820013":{"post_code":"7820013","prefecture":"KOCHI KEN","city":"KAMI SHI","town":"TOSAYAMADACHO MACHIDA","perfecture_jp":"高知県","jp_add_1":"香美市","jp_add_2":"土佐山田町町田"},"7820025":{"post_code":"7820025","prefecture":"KOCHI KEN","city":"KAMI SHI","town":"TOSAYAMADACHO MATSUMOTO","perfecture_jp":"高知県","jp_add_1":"香美市","jp_add_2":"土佐山田町松本"},"7820003":{"post_code":"7820003","prefecture":"KOCHI KEN","city":"KAMI SHI","town":"TOSAYAMADACHO MIYANOKUCHI","perfecture_jp":"高知県","jp_add_1":"香美市","jp_add_2":"土佐山田町宮ノ口"},"7820037":{"post_code":"7820037","prefecture":"KOCHI KEN","city":"KAMI SHI","town":"TOSAYAMADACHO MIYAMAECHO","perfecture_jp":"高知県","jp_add_1":"香美市","jp_add_2":"土佐山田町宮前町"},"7820016":{"post_code":"7820016","prefecture":"KOCHI KEN","city":"KAMI SHI","town":"TOSAYAMADACHO YAMADA(KOJIMA.HACHIOJ","perfecture_jp":"高知県","jp_add_1":"香美市","jp_add_2":"土佐山田町山田"},"7820011":{"post_code":"7820011","prefecture":"KOCHI KEN","city":"KAMI SHI","town":"TOSAYAMADACHO YAMADAJIMA","perfecture_jp":"高知県","jp_add_1":"香美市","jp_add_2":"土佐山田町山田島"},"7820043":{"post_code":"7820043","prefecture":"KOCHI KEN","city":"KAMI SHI","town":"TOSAYAMADACHO(KITAGUMINISHI)","perfecture_jp":"高知県","jp_add_1":"香美市","jp_add_2":"土佐山田町"},"7820041":{"post_code":"7820041","prefecture":"KOCHI KEN","city":"KAMI SHI","town":"TOSAYAMADACHO(KITAHOMMACHI)","perfecture_jp":"高知県","jp_add_1":"香美市","jp_add_2":"土佐山田町"},"7820045":{"post_code":"7820045","prefecture":"KOCHI KEN","city":"KAMI SHI","town":"TOSAYAMADACHO(KUROTSUCHI)","perfecture_jp":"高知県","jp_add_1":"香美市","jp_add_2":"土佐山田町"},"7820044":{"post_code":"7820044","prefecture":"KOCHI KEN","city":"KAMI SHI","town":"TOSAYAMADACHO(NAKAGUMI)","perfecture_jp":"高知県","jp_add_1":"香美市","jp_add_2":"土佐山田町"},"7820036":{"post_code":"7820036","prefecture":"KOCHI KEN","city":"KAMI SHI","town":"TOSAYAMADACHO(FURUMACHI)","perfecture_jp":"高知県","jp_add_1":"香美市","jp_add_2":"土佐山田町"},"7820042":{"post_code":"7820042","prefecture":"KOCHI KEN","city":"KAMI SHI","town":"TOSAYAMADACHO(MAEYAMA)","perfecture_jp":"高知県","jp_add_1":"香美市","jp_add_2":"土佐山田町"},"7820046":{"post_code":"7820046","prefecture":"KOCHI KEN","city":"KAMI SHI","town":"TOSAYAMADACHO(MINAMIGUMI)","perfecture_jp":"高知県","jp_add_1":"香美市","jp_add_2":"土佐山田町"},"7820047":{"post_code":"7820047","prefecture":"KOCHI KEN","city":"KAMI SHI","town":"TOSAYAMADACHO(SONOTA)","perfecture_jp":"高知県","jp_add_1":"香美市","jp_add_2":"土佐山田町"}}