{"7840000":{"post_code":"7840000","prefecture":"KOCHI KEN","city":"AKI SHI","town":"IKANIKEISAIGANAIBAAI","perfecture_jp":"高知県","jp_add_1":"安芸市","jp_add_2":""},"7840033":{"post_code":"7840033","prefecture":"KOCHI KEN","city":"AKI SHI","town":"AKANO KO","perfecture_jp":"高知県","jp_add_1":"安芸市","jp_add_2":"赤野甲"},"7840034":{"post_code":"7840034","prefecture":"KOCHI KEN","city":"AKI SHI","town":"AKANO OTSU","perfecture_jp":"高知県","jp_add_1":"安芸市","jp_add_2":"赤野乙"},"7840057":{"post_code":"7840057","prefecture":"KOCHI KEN","city":"AKI SHI","town":"AKINOKAWA KO","perfecture_jp":"高知県","jp_add_1":"安芸市","jp_add_2":"安芸ノ川甲"},"7840058":{"post_code":"7840058","prefecture":"KOCHI KEN","city":"AKI SHI","town":"AKINOKAWA OTSU","perfecture_jp":"高知県","jp_add_1":"安芸市","jp_add_2":"安芸ノ川乙"},"7840031":{"post_code":"7840031","prefecture":"KOCHI KEN","city":"AKI SHI","town":"ANANAI KO","perfecture_jp":"高知県","jp_add_1":"安芸市","jp_add_2":"穴内甲"},"7840032":{"post_code":"7840032","prefecture":"KOCHI KEN","city":"AKI SHI","town":"ANANAI OTSU","perfecture_jp":"高知県","jp_add_1":"安芸市","jp_add_2":"穴内乙"},"7840045":{"post_code":"7840045","prefecture":"KOCHI KEN","city":"AKI SHI","town":"IOKI","perfecture_jp":"高知県","jp_add_1":"安芸市","jp_add_2":"伊尾木"},"7840051":{"post_code":"7840051","prefecture":"KOCHI KEN","city":"AKI SHI","town":"INOKUCHI KO","perfecture_jp":"高知県","jp_add_1":"安芸市","jp_add_2":"井ノ口甲"},"7840052":{"post_code":"7840052","prefecture":"KOCHI KEN","city":"AKI SHI","town":"INOKUCHI OTSU","perfecture_jp":"高知県","jp_add_1":"安芸市","jp_add_2":"井ノ口乙"},"7840029":{"post_code":"7840029","prefecture":"KOCHI KEN","city":"AKI SHI","town":"UENO","perfecture_jp":"高知県","jp_add_1":"安芸市","jp_add_2":"植野"},"7840274":{"post_code":"7840274","prefecture":"KOCHI KEN","city":"AKI SHI","town":"OI KO","perfecture_jp":"高知県","jp_add_1":"安芸市","jp_add_2":"大井甲"},"7840275":{"post_code":"7840275","prefecture":"KOCHI KEN","city":"AKI SHI","town":"OI OTSU","perfecture_jp":"高知県","jp_add_1":"安芸市","jp_add_2":"大井乙"},"7840055":{"post_code":"7840055","prefecture":"KOCHI KEN","city":"AKI SHI","town":"OGAWA KO","perfecture_jp":"高知県","jp_add_1":"安芸市","jp_add_2":"尾川甲"},"7840056":{"post_code":"7840056","prefecture":"KOCHI KEN","city":"AKI SHI","town":"OGAWA OTSU","perfecture_jp":"高知県","jp_add_1":"安芸市","jp_add_2":"尾川乙"},"7840053":{"post_code":"7840053","prefecture":"KOCHI KEN","city":"AKI SHI","town":"ODANI","perfecture_jp":"高知県","jp_add_1":"安芸市","jp_add_2":"小谷"},"7840043":{"post_code":"7840043","prefecture":"KOCHI KEN","city":"AKI SHI","town":"KAWAKITA KO","perfecture_jp":"高知県","jp_add_1":"安芸市","jp_add_2":"川北甲"},"7840044":{"post_code":"7840044","prefecture":"KOCHI KEN","city":"AKI SHI","town":"KAWAKITA OTSU","perfecture_jp":"高知県","jp_add_1":"安芸市","jp_add_2":"川北乙"},"7840003":{"post_code":"7840003","prefecture":"KOCHI KEN","city":"AKI SHI","town":"KUSECHO","perfecture_jp":"高知県","jp_add_1":"安芸市","jp_add_2":"久世町"},"7840273":{"post_code":"7840273","prefecture":"KOCHI KEN","city":"AKI SHI","town":"KUROSE","perfecture_jp":"高知県","jp_add_1":"安芸市","jp_add_2":"黒瀬"},"7840028":{"post_code":"7840028","prefecture":"KOCHI KEN","city":"AKI SHI","town":"KURODORI","perfecture_jp":"高知県","jp_add_1":"安芸市","jp_add_2":"黒鳥"},"7840276":{"post_code":"7840276","prefecture":"KOCHI KEN","city":"AKI SHI","town":"KOI","perfecture_jp":"高知県","jp_add_1":"安芸市","jp_add_2":"古井"},"7840007":{"post_code":"7840007","prefecture":"KOCHI KEN","city":"AKI SHI","town":"KOTOBUKICHO","perfecture_jp":"高知県","jp_add_1":"安芸市","jp_add_2":"寿町"},"7840021":{"post_code":"7840021","prefecture":"KOCHI KEN","city":"AKI SHI","town":"SAIWAICHO","perfecture_jp":"高知県","jp_add_1":"安芸市","jp_add_2":"幸町"},"7840026":{"post_code":"7840026","prefecture":"KOCHI KEN","city":"AKI SHI","town":"SAKURAGAOKACHO","perfecture_jp":"高知県","jp_add_1":"安芸市","jp_add_2":"桜ケ丘町"},"7840277":{"post_code":"7840277","prefecture":"KOCHI KEN","city":"AKI SHI","town":"SHIMA","perfecture_jp":"高知県","jp_add_1":"安芸市","jp_add_2":"島"},"7840046":{"post_code":"7840046","prefecture":"KOCHI KEN","city":"AKI SHI","town":"SHIMOYAMA","perfecture_jp":"高知県","jp_add_1":"安芸市","jp_add_2":"下山"},"7840022":{"post_code":"7840022","prefecture":"KOCHI KEN","city":"AKI SHI","town":"SHONOSHIBACHO","perfecture_jp":"高知県","jp_add_1":"安芸市","jp_add_2":"庄之芝町"},"7840008":{"post_code":"7840008","prefecture":"KOCHI KEN","city":"AKI SHI","town":"SEIWACHO","perfecture_jp":"高知県","jp_add_1":"安芸市","jp_add_2":"清和町"},"7840041":{"post_code":"7840041","prefecture":"KOCHI KEN","city":"AKI SHI","town":"SOZU","perfecture_jp":"高知県","jp_add_1":"安芸市","jp_add_2":"僧津"},"7840023":{"post_code":"7840023","prefecture":"KOCHI KEN","city":"AKI SHI","town":"SOMEICHO","perfecture_jp":"高知県","jp_add_1":"安芸市","jp_add_2":"染井町"},"7840024":{"post_code":"7840024","prefecture":"KOCHI KEN","city":"AKI SHI","town":"CHITOSECHO","perfecture_jp":"高知県","jp_add_1":"安芸市","jp_add_2":"千歳町"},"7840025":{"post_code":"7840025","prefecture":"KOCHI KEN","city":"AKI SHI","town":"TSUKUMOCHO","perfecture_jp":"高知県","jp_add_1":"安芸市","jp_add_2":"津久茂町"},"7840042":{"post_code":"7840042","prefecture":"KOCHI KEN","city":"AKI SHI","town":"DOI","perfecture_jp":"高知県","jp_add_1":"安芸市","jp_add_2":"土居"},"7840054":{"post_code":"7840054","prefecture":"KOCHI KEN","city":"AKI SHI","town":"TOCHINOKI","perfecture_jp":"高知県","jp_add_1":"安芸市","jp_add_2":"栃ノ木"},"7840271":{"post_code":"7840271","prefecture":"KOCHI KEN","city":"AKI SHI","town":"NABIKA","perfecture_jp":"高知県","jp_add_1":"安芸市","jp_add_2":"奈比賀"},"7840020":{"post_code":"7840020","prefecture":"KOCHI KEN","city":"AKI SHI","town":"NISHIHAMA","perfecture_jp":"高知県","jp_add_1":"安芸市","jp_add_2":"西浜"},"7840272":{"post_code":"7840272","prefecture":"KOCHI KEN","city":"AKI SHI","town":"NYUGAUCHI","perfecture_jp":"高知県","jp_add_1":"安芸市","jp_add_2":"入河内"},"7840061":{"post_code":"7840061","prefecture":"KOCHI KEN","city":"AKI SHI","town":"HATAYAMA KO","perfecture_jp":"高知県","jp_add_1":"安芸市","jp_add_2":"畑山甲"},"7840062":{"post_code":"7840062","prefecture":"KOCHI KEN","city":"AKI SHI","town":"HATAYAMA OTSU","perfecture_jp":"高知県","jp_add_1":"安芸市","jp_add_2":"畑山乙"},"7840063":{"post_code":"7840063","prefecture":"KOCHI KEN","city":"AKI SHI","town":"HATAYAMA HEI","perfecture_jp":"高知県","jp_add_1":"安芸市","jp_add_2":"畑山丙"},"7840002":{"post_code":"7840002","prefecture":"KOCHI KEN","city":"AKI SHI","town":"HANAZONOCHO","perfecture_jp":"高知県","jp_add_1":"安芸市","jp_add_2":"花園町"},"7840010":{"post_code":"7840010","prefecture":"KOCHI KEN","city":"AKI SHI","town":"HIGASHIHAMA","perfecture_jp":"高知県","jp_add_1":"安芸市","jp_add_2":"東浜"},"7840006":{"post_code":"7840006","prefecture":"KOCHI KEN","city":"AKI SHI","town":"HINODECHO","perfecture_jp":"高知県","jp_add_1":"安芸市","jp_add_2":"日ノ出町"},"7840278":{"post_code":"7840278","prefecture":"KOCHI KEN","city":"AKI SHI","town":"BETCHAKU","perfecture_jp":"高知県","jp_add_1":"安芸市","jp_add_2":"別役"},"7840027":{"post_code":"7840027","prefecture":"KOCHI KEN","city":"AKI SHI","town":"HOEICHO","perfecture_jp":"高知県","jp_add_1":"安芸市","jp_add_2":"宝永町"},"7840004":{"post_code":"7840004","prefecture":"KOCHI KEN","city":"AKI SHI","town":"HOMMACHI","perfecture_jp":"高知県","jp_add_1":"安芸市","jp_add_2":"本町"},"7840064":{"post_code":"7840064","prefecture":"KOCHI KEN","city":"AKI SHI","town":"MAIKAWA","perfecture_jp":"高知県","jp_add_1":"安芸市","jp_add_2":"舞川"},"7840005":{"post_code":"7840005","prefecture":"KOCHI KEN","city":"AKI SHI","town":"MINATOMACHI","perfecture_jp":"高知県","jp_add_1":"安芸市","jp_add_2":"港町"},"7840001":{"post_code":"7840001","prefecture":"KOCHI KEN","city":"AKI SHI","town":"YANOMARU","perfecture_jp":"高知県","jp_add_1":"安芸市","jp_add_2":"矢ノ丸"},"7840065":{"post_code":"7840065","prefecture":"KOCHI KEN","city":"KAMI SHI","town":"MONOBECHO NAKATSUO","perfecture_jp":"高知県","jp_add_1":"香美市","jp_add_2":"物部町中津尾"}}