{"7860000":{"post_code":"7860000","prefecture":"KOCHI KEN","city":"TAKAOKA GUN SHIMANTO CHO","town":"IKANIKEISAIGANAIBAAI","perfecture_jp":"高知県","jp_add_1":"高岡郡四万十町","jp_add_2":""},"7860327":{"post_code":"7860327","prefecture":"KOCHI KEN","city":"TAKAOKA GUN SHIMANTO CHO","town":"AIZARE","perfecture_jp":"高知県","jp_add_1":"高岡郡四万十町","jp_add_2":"相去"},"7860075":{"post_code":"7860075","prefecture":"KOCHI KEN","city":"TAKAOKA GUN SHIMANTO CHO","town":"AKIMARU","perfecture_jp":"高知県","jp_add_1":"高岡郡四万十町","jp_add_2":"秋丸"},"7860064":{"post_code":"7860064","prefecture":"KOCHI KEN","city":"TAKAOKA GUN SHIMANTO CHO","town":"IEJIGAWA","perfecture_jp":"高知県","jp_add_1":"高岡郡四万十町","jp_add_2":"家地川"},"7860533":{"post_code":"7860533","prefecture":"KOCHI KEN","city":"TAKAOKA GUN SHIMANTO CHO","town":"ISAKI","perfecture_jp":"高知県","jp_add_1":"高岡郡四万十町","jp_add_2":"井崎"},"7860088":{"post_code":"7860088","prefecture":"KOCHI KEN","city":"TAKAOKA GUN SHIMANTO CHO","town":"ICHIUBARA","perfecture_jp":"高知県","jp_add_1":"高岡郡四万十町","jp_add_2":"市生原"},"7860325":{"post_code":"7860325","prefecture":"KOCHI KEN","city":"TAKAOKA GUN SHIMANTO CHO","town":"ICHINOMATA","perfecture_jp":"高知県","jp_add_1":"高岡郡四万十町","jp_add_2":"市ノ又"},"7860094":{"post_code":"7860094","prefecture":"KOCHI KEN","city":"TAKAOKA GUN SHIMANTO CHO","town":"ITTOHYO","perfecture_jp":"高知県","jp_add_1":"高岡郡四万十町","jp_add_2":"一斗俵"},"7860037":{"post_code":"7860037","prefecture":"KOCHI KEN","city":"TAKAOKA GUN SHIMANTO CHO","town":"UONOKAWA","perfecture_jp":"高知県","jp_add_1":"高岡郡四万十町","jp_add_2":"魚の川"},"7860322":{"post_code":"7860322","prefecture":"KOCHI KEN","city":"TAKAOKA GUN SHIMANTO CHO","town":"UTSUIGAWA","perfecture_jp":"高知県","jp_add_1":"高岡郡四万十町","jp_add_2":"打井川"},"7860523":{"post_code":"7860523","prefecture":"KOCHI KEN","city":"TAKAOKA GUN SHIMANTO CHO","town":"URAGOSHI","perfecture_jp":"高知県","jp_add_1":"高岡郡四万十町","jp_add_2":"浦越"},"7860307":{"post_code":"7860307","prefecture":"KOCHI KEN","city":"TAKAOKA GUN SHIMANTO CHO","town":"ESHI","perfecture_jp":"高知県","jp_add_1":"高岡郡四万十町","jp_add_2":"江師"},"7860532":{"post_code":"7860532","prefecture":"KOCHI KEN","city":"TAKAOKA GUN SHIMANTO CHO","town":"OIGAWA","perfecture_jp":"高知県","jp_add_1":"高岡郡四万十町","jp_add_2":"大井川"},"7860016":{"post_code":"7860016","prefecture":"KOCHI KEN","city":"TAKAOKA GUN SHIMANTO CHO","town":"OINO","perfecture_jp":"高知県","jp_add_1":"高岡郡四万十町","jp_add_2":"大井野"},"7860058":{"post_code":"7860058","prefecture":"KOCHI KEN","city":"TAKAOKA GUN SHIMANTO CHO","town":"OTSURUTSU","perfecture_jp":"高知県","jp_add_1":"高岡郡四万十町","jp_add_2":"大鶴津"},"7860067":{"post_code":"7860067","prefecture":"KOCHI KEN","city":"TAKAOKA GUN SHIMANTO CHO","town":"OMUKAI","perfecture_jp":"高知県","jp_add_1":"高岡郡四万十町","jp_add_2":"大向"},"7860045":{"post_code":"7860045","prefecture":"KOCHI KEN","city":"TAKAOKA GUN SHIMANTO CHO","town":"OKITSU(1-1699-BAN)","perfecture_jp":"高知県","jp_add_1":"高岡郡四万十町","jp_add_2":"興津"},"7860046":{"post_code":"7860046","prefecture":"KOCHI KEN","city":"TAKAOKA GUN SHIMANTO CHO","town":"OKITSU(SONOTA)","perfecture_jp":"高知県","jp_add_1":"高岡郡四万十町","jp_add_2":"興津"},"7860517":{"post_code":"7860517","prefecture":"KOCHI KEN","city":"TAKAOKA GUN SHIMANTO CHO","town":"OKUODO","perfecture_jp":"高知県","jp_add_1":"高岡郡四万十町","jp_add_2":"奥大道"},"7860038":{"post_code":"7860038","prefecture":"KOCHI KEN","city":"TAKAOKA GUN SHIMANTO CHO","town":"OKUKUREJI","perfecture_jp":"高知県","jp_add_1":"高岡郡四万十町","jp_add_2":"奥呉地"},"7860071":{"post_code":"7860071","prefecture":"KOCHI KEN","city":"TAKAOKA GUN SHIMANTO CHO","town":"OKUGONOKAWA","perfecture_jp":"高知県","jp_add_1":"高岡郡四万十町","jp_add_2":"奥神ノ川"},"7860531":{"post_code":"7860531","prefecture":"KOCHI KEN","city":"TAKAOKA GUN SHIMANTO CHO","town":"ONO","perfecture_jp":"高知県","jp_add_1":"高岡郡四万十町","jp_add_2":"小野"},"7860048":{"post_code":"7860048","prefecture":"KOCHI KEN","city":"TAKAOKA GUN SHIMANTO CHO","town":"OYAGAUCHI","perfecture_jp":"高知県","jp_add_1":"高岡郡四万十町","jp_add_2":"親ケ内"},"7860078":{"post_code":"7860078","prefecture":"KOCHI KEN","city":"TAKAOKA GUN SHIMANTO CHO","town":"OREAI","perfecture_jp":"高知県","jp_add_1":"高岡郡四万十町","jp_add_2":"折合"},"7860034":{"post_code":"7860034","prefecture":"KOCHI KEN","city":"TAKAOKA GUN SHIMANTO CHO","town":"KAEZAKAMOTO","perfecture_jp":"高知県","jp_add_1":"高岡郡四万十町","jp_add_2":"替坂本"},"7860011":{"post_code":"7860011","prefecture":"KOCHI KEN","city":"TAKAOKA GUN SHIMANTO CHO","town":"KAGETSUGAOKA","perfecture_jp":"高知県","jp_add_1":"高岡郡四万十町","jp_add_2":"香月が丘"},"7860032":{"post_code":"7860032","prefecture":"KOCHI KEN","city":"TAKAOKA GUN SHIMANTO CHO","town":"KAGENO","perfecture_jp":"高知県","jp_add_1":"高岡郡四万十町","jp_add_2":"影野"},"7860049":{"post_code":"7860049","prefecture":"KOCHI KEN","city":"TAKAOKA GUN SHIMANTO CHO","town":"KAZUKO","perfecture_jp":"高知県","jp_add_1":"高岡郡四万十町","jp_add_2":"数神"},"7860098":{"post_code":"7860098","prefecture":"KOCHI KEN","city":"TAKAOKA GUN SHIMANTO CHO","town":"KAMIAKIMARU","perfecture_jp":"高知県","jp_add_1":"高岡郡四万十町","jp_add_2":"上秋丸"},"7860305":{"post_code":"7860305","prefecture":"KOCHI KEN","city":"TAKAOKA GUN SHIMANTO CHO","town":"KAMIOKA","perfecture_jp":"高知県","jp_add_1":"高岡郡四万十町","jp_add_2":"上岡"},"7860522":{"post_code":"7860522","prefecture":"KOCHI KEN","city":"TAKAOKA GUN SHIMANTO CHO","town":"KAYABUKUTE","perfecture_jp":"高知県","jp_add_1":"高岡郡四万十町","jp_add_2":"茅吹手"},"7860326":{"post_code":"7860326","prefecture":"KOCHI KEN","city":"TAKAOKA GUN SHIMANTO CHO","town":"KARASUDE","perfecture_jp":"高知県","jp_add_1":"高岡郡四万十町","jp_add_2":"烏手"},"7860514":{"post_code":"7860514","prefecture":"KOCHI KEN","city":"TAKAOKA GUN SHIMANTO CHO","town":"KAWAUCHI","perfecture_jp":"高知県","jp_add_1":"高岡郡四万十町","jp_add_2":"河内"},"7860091":{"post_code":"7860091","prefecture":"KOCHI KEN","city":"TAKAOKA GUN SHIMANTO CHO","town":"KAWANOCHI","perfecture_jp":"高知県","jp_add_1":"高岡郡四万十町","jp_add_2":"川ノ内"},"7860012":{"post_code":"7860012","prefecture":"KOCHI KEN","city":"TAKAOKA GUN SHIMANTO CHO","town":"KITAKOTOHIRAMACHI","perfecture_jp":"高知県","jp_add_1":"高岡郡四万十町","jp_add_2":"北琴平町"},"7860303":{"post_code":"7860303","prefecture":"KOCHI KEN","city":"TAKAOKA GUN SHIMANTO CHO","town":"KINOKAWA","perfecture_jp":"高知県","jp_add_1":"高岡郡四万十町","jp_add_2":"希ノ川"},"7860003":{"post_code":"7860003","prefecture":"KOCHI KEN","city":"TAKAOKA GUN SHIMANTO CHO","town":"KINJONO","perfecture_jp":"高知県","jp_add_1":"高岡郡四万十町","jp_add_2":"金上野"},"7860516":{"post_code":"7860516","prefecture":"KOCHI KEN","city":"TAKAOKA GUN SHIMANTO CHO","town":"KUCHIODO","perfecture_jp":"高知県","jp_add_1":"高岡郡四万十町","jp_add_2":"口大道"},"7860073":{"post_code":"7860073","prefecture":"KOCHI KEN","city":"TAKAOKA GUN SHIMANTO CHO","town":"KUCHIGONOKAWA","perfecture_jp":"高知県","jp_add_1":"高岡郡四万十町","jp_add_2":"口神ノ川"},"7860010":{"post_code":"7860010","prefecture":"KOCHI KEN","city":"TAKAOKA GUN SHIMANTO CHO","town":"KUBOKAWA","perfecture_jp":"高知県","jp_add_1":"高岡郡四万十町","jp_add_2":"窪川"},"7860515":{"post_code":"7860515","prefecture":"KOCHI KEN","city":"TAKAOKA GUN SHIMANTO CHO","town":"KUBOKAWA","perfecture_jp":"高知県","jp_add_1":"高岡郡四万十町","jp_add_2":"久保川"},"7860096":{"post_code":"7860096","prefecture":"KOCHI KEN","city":"TAKAOKA GUN SHIMANTO CHO","town":"KUBOKAWANAKATSUGAWA","perfecture_jp":"高知県","jp_add_1":"高岡郡四万十町","jp_add_2":"窪川中津川"},"7860042":{"post_code":"7860042","prefecture":"KOCHI KEN","city":"TAKAOKA GUN SHIMANTO CHO","town":"KUROISHI","perfecture_jp":"高知県","jp_add_1":"高岡郡四万十町","jp_add_2":"黒石"},"7860306":{"post_code":"7860306","prefecture":"KOCHI KEN","city":"TAKAOKA GUN SHIMANTO CHO","town":"KOISHI","perfecture_jp":"高知県","jp_add_1":"高岡郡四万十町","jp_add_2":"小石"},"7860017":{"post_code":"7860017","prefecture":"KOCHI KEN","city":"TAKAOKA GUN SHIMANTO CHO","town":"KONOSAI","perfecture_jp":"高知県","jp_add_1":"高岡郡四万十町","jp_add_2":"神ノ西"},"7860502":{"post_code":"7860502","prefecture":"KOCHI KEN","city":"TAKAOKA GUN SHIMANTO CHO","town":"KOJO","perfecture_jp":"高知県","jp_add_1":"高岡郡四万十町","jp_add_2":"古城"},"7860057":{"post_code":"7860057","prefecture":"KOCHI KEN","city":"TAKAOKA GUN SHIMANTO CHO","town":"KOZURUTSU","perfecture_jp":"高知県","jp_add_1":"高岡郡四万十町","jp_add_2":"小鶴津"},"7860013":{"post_code":"7860013","prefecture":"KOCHI KEN","city":"TAKAOKA GUN SHIMANTO CHO","town":"KOTOHIRAMACHI","perfecture_jp":"高知県","jp_add_1":"高岡郡四万十町","jp_add_2":"琴平町"},"7860022":{"post_code":"7860022","prefecture":"KOCHI KEN","city":"TAKAOKA GUN SHIMANTO CHO","town":"KOMUKAI","perfecture_jp":"高知県","jp_add_1":"高岡郡四万十町","jp_add_2":"小向"},"7860313":{"post_code":"7860313","prefecture":"KOCHI KEN","city":"TAKAOKA GUN SHIMANTO CHO","town":"KOYAGAUCHI","perfecture_jp":"高知県","jp_add_1":"高岡郡四万十町","jp_add_2":"木屋ケ内"},"7860028":{"post_code":"7860028","prefecture":"KOCHI KEN","city":"TAKAOKA GUN SHIMANTO CHO","town":"GONGEMBARA","perfecture_jp":"高知県","jp_add_1":"高岡郡四万十町","jp_add_2":"根元原"},"7860015":{"post_code":"7860015","prefecture":"KOCHI KEN","city":"TAKAOKA GUN SHIMANTO CHO","town":"SAIBARA","perfecture_jp":"高知県","jp_add_1":"高岡郡四万十町","jp_add_2":"西原"},"7860008":{"post_code":"7860008","prefecture":"KOCHI KEN","city":"TAKAOKA GUN SHIMANTO CHO","town":"SAKAKIYAMACHO","perfecture_jp":"高知県","jp_add_1":"高岡郡四万十町","jp_add_2":"榊山町"},"7860087":{"post_code":"7860087","prefecture":"KOCHI KEN","city":"TAKAOKA GUN SHIMANTO CHO","town":"SAKUYA","perfecture_jp":"高知県","jp_add_1":"高岡郡四万十町","jp_add_2":"作屋"},"7860524":{"post_code":"7860524","prefecture":"KOCHI KEN","city":"TAKAOKA GUN SHIMANTO CHO","town":"SATOKAWA","perfecture_jp":"高知県","jp_add_1":"高岡郡四万十町","jp_add_2":"里川"},"7860004":{"post_code":"7860004","prefecture":"KOCHI KEN","city":"TAKAOKA GUN SHIMANTO CHO","town":"SHIGEKUSHICHO","perfecture_jp":"高知県","jp_add_1":"高岡郡四万十町","jp_add_2":"茂串町"},"7860018":{"post_code":"7860018","prefecture":"KOCHI KEN","city":"TAKAOKA GUN SHIMANTO CHO","town":"SHIDEHARA","perfecture_jp":"高知県","jp_add_1":"高岡郡四万十町","jp_add_2":"仕出原"},"7860304":{"post_code":"7860304","prefecture":"KOCHI KEN","city":"TAKAOKA GUN SHIMANTO CHO","town":"SHIMOKA","perfecture_jp":"高知県","jp_add_1":"高岡郡四万十町","jp_add_2":"下岡"},"7860036":{"post_code":"7860036","prefecture":"KOCHI KEN","city":"TAKAOKA GUN SHIMANTO CHO","town":"SHIMOKUREJI","perfecture_jp":"高知県","jp_add_1":"高岡郡四万十町","jp_add_2":"下呉地"},"7860315":{"post_code":"7860315","prefecture":"KOCHI KEN","city":"TAKAOKA GUN SHIMANTO CHO","town":"SHIMOTSUI","perfecture_jp":"高知県","jp_add_1":"高岡郡四万十町","jp_add_2":"下津井"},"7860314":{"post_code":"7860314","prefecture":"KOCHI KEN","city":"TAKAOKA GUN SHIMANTO CHO","town":"SHIMODO","perfecture_jp":"高知県","jp_add_1":"高岡郡四万十町","jp_add_2":"下道"},"7860092":{"post_code":"7860092","prefecture":"KOCHI KEN","city":"TAKAOKA GUN SHIMANTO CHO","town":"SHOGANO","perfecture_jp":"高知県","jp_add_1":"高岡郡四万十町","jp_add_2":"勝賀野"},"7860323":{"post_code":"7860323","prefecture":"KOCHI KEN","city":"TAKAOKA GUN SHIMANTO CHO","town":"JOGU","perfecture_jp":"高知県","jp_add_1":"高岡郡四万十町","jp_add_2":"上宮"},"7860513":{"post_code":"7860513","prefecture":"KOCHI KEN","city":"TAKAOKA GUN SHIMANTO CHO","town":"SHOWA OTSU","perfecture_jp":"高知県","jp_add_1":"高岡郡四万十町","jp_add_2":"昭和乙"},"7860512":{"post_code":"7860512","prefecture":"KOCHI KEN","city":"TAKAOKA GUN SHIMANTO CHO","town":"SHOWA KO","perfecture_jp":"高知県","jp_add_1":"高岡郡四万十町","jp_add_2":"昭和甲"},"7860511":{"post_code":"7860511","prefecture":"KOCHI KEN","city":"TAKAOKA GUN SHIMANTO CHO","town":"SHOWA(SONOTA)","perfecture_jp":"高知県","jp_add_1":"高岡郡四万十町","jp_add_2":"昭和"},"7860501":{"post_code":"7860501","prefecture":"KOCHI KEN","city":"TAKAOKA GUN SHIMANTO CHO","town":"JIYOSHI","perfecture_jp":"高知県","jp_add_1":"高岡郡四万十町","jp_add_2":"地吉"},"7860056":{"post_code":"7860056","prefecture":"KOCHI KEN","city":"TAKAOKA GUN SHIMANTO CHO","town":"SHIWA","perfecture_jp":"高知県","jp_add_1":"高岡郡四万十町","jp_add_2":"志和"},"7860055":{"post_code":"7860055","prefecture":"KOCHI KEN","city":"TAKAOKA GUN SHIMANTO CHO","town":"SHIWAMINE","perfecture_jp":"高知県","jp_add_1":"高岡郡四万十町","jp_add_2":"志和峰"},"7860014":{"post_code":"7860014","prefecture":"KOCHI KEN","city":"TAKAOKA GUN SHIMANTO CHO","town":"SHINGAICHO","perfecture_jp":"高知県","jp_add_1":"高岡郡四万十町","jp_add_2":"新開町"},"7860302":{"post_code":"7860302","prefecture":"KOCHI KEN","city":"TAKAOKA GUN SHIMANTO CHO","town":"SERI","perfecture_jp":"高知県","jp_add_1":"高岡郡四万十町","jp_add_2":"瀬里"},"7860066":{"post_code":"7860066","prefecture":"KOCHI KEN","city":"TAKAOKA GUN SHIMANTO CHO","town":"SORANOKAWA","perfecture_jp":"高知県","jp_add_1":"高岡郡四万十町","jp_add_2":"天の川"},"7860301":{"post_code":"7860301","prefecture":"KOCHI KEN","city":"TAKAOKA GUN SHIMANTO CHO","town":"TAISHO(TSUZURAGAWA.TODOROKIZAKIOFUK","perfecture_jp":"高知県","jp_add_1":"高岡郡四万十町","jp_add_2":"大正"},"7860312":{"post_code":"7860312","prefecture":"KOCHI KEN","city":"TAKAOKA GUN SHIMANTO CHO","town":"TAISHOONARO","perfecture_jp":"高知県","jp_add_1":"高岡郡四万十町","jp_add_2":"大正大奈路"},"7860321":{"post_code":"7860321","prefecture":"KOCHI KEN","city":"TAKAOKA GUN SHIMANTO CHO","town":"TAISHOKITANOKAWA","perfecture_jp":"高知県","jp_add_1":"高岡郡四万十町","jp_add_2":"大正北ノ川"},"7860316":{"post_code":"7860316","prefecture":"KOCHI KEN","city":"TAKAOKA GUN SHIMANTO CHO","town":"TAISHONAKATSUKAWA","perfecture_jp":"高知県","jp_add_1":"高岡郡四万十町","jp_add_2":"大正中津川"},"7860063":{"post_code":"7860063","prefecture":"KOCHI KEN","city":"TAKAOKA GUN SHIMANTO CHO","town":"TAKANO","perfecture_jp":"高知県","jp_add_1":"高岡郡四万十町","jp_add_2":"高野"},"7860521":{"post_code":"7860521","prefecture":"KOCHI KEN","city":"TAKAOKA GUN SHIMANTO CHO","town":"TSUGA","perfecture_jp":"高知県","jp_add_1":"高岡郡四万十町","jp_add_2":"津賀"},"7860076":{"post_code":"7860076","prefecture":"KOCHI KEN","city":"TAKAOKA GUN SHIMANTO CHO","town":"TERANO","perfecture_jp":"高知県","jp_add_1":"高岡郡四万十町","jp_add_2":"寺野"},"7860052":{"post_code":"7860052","prefecture":"KOCHI KEN","city":"TAKAOKA GUN SHIMANTO CHO","town":"DOI","perfecture_jp":"高知県","jp_add_1":"高岡郡四万十町","jp_add_2":"土居"},"7860033":{"post_code":"7860033","prefecture":"KOCHI KEN","city":"TAKAOKA GUN SHIMANTO CHO","town":"DOTOKU","perfecture_jp":"高知県","jp_add_1":"高岡郡四万十町","jp_add_2":"道徳"},"7860504":{"post_code":"7860504","prefecture":"KOCHI KEN","city":"TAKAOKA GUN SHIMANTO CHO","town":"TOKAWA","perfecture_jp":"高知県","jp_add_1":"高岡郡四万十町","jp_add_2":"十川"},"7860535":{"post_code":"7860535","prefecture":"KOCHI KEN","city":"TAKAOKA GUN SHIMANTO CHO","town":"TOWAKAWAGUCHI","perfecture_jp":"高知県","jp_add_1":"高岡郡四万十町","jp_add_2":"十和川口"},"7860503":{"post_code":"7860503","prefecture":"KOCHI KEN","city":"TAKAOKA GUN SHIMANTO CHO","town":"TOGAWA","perfecture_jp":"高知県","jp_add_1":"高岡郡四万十町","jp_add_2":"戸川"},"7860031":{"post_code":"7860031","prefecture":"KOCHI KEN","city":"TAKAOKA GUN SHIMANTO CHO","town":"TOKONABE","perfecture_jp":"高知県","jp_add_1":"高岡郡四万十町","jp_add_2":"床鍋"},"7860025":{"post_code":"7860025","prefecture":"KOCHI KEN","city":"TAKAOKA GUN SHIMANTO CHO","town":"TOMIOKA","perfecture_jp":"高知県","jp_add_1":"高岡郡四万十町","jp_add_2":"富岡"},"7860072":{"post_code":"7860072","prefecture":"KOCHI KEN","city":"TAKAOKA GUN SHIMANTO CHO","town":"NAKAGONOKAWA","perfecture_jp":"高知県","jp_add_1":"高岡郡四万十町","jp_add_2":"中神ノ川"},"7860023":{"post_code":"7860023","prefecture":"KOCHI KEN","city":"TAKAOKA GUN SHIMANTO CHO","town":"NAKANOKOE","perfecture_jp":"高知県","jp_add_1":"高岡郡四万十町","jp_add_2":"中ノ越"},"7860081":{"post_code":"7860081","prefecture":"KOCHI KEN","city":"TAKAOKA GUN SHIMANTO CHO","town":"NAKAMURA","perfecture_jp":"高知県","jp_add_1":"高岡郡四万十町","jp_add_2":"中村"},"7860082":{"post_code":"7860082","prefecture":"KOCHI KEN","city":"TAKAOKA GUN SHIMANTO CHO","town":"NANASATO","perfecture_jp":"高知県","jp_add_1":"高岡郡四万十町","jp_add_2":"七里"},"7860041":{"post_code":"7860041","prefecture":"KOCHI KEN","city":"TAKAOKA GUN SHIMANTO CHO","town":"NARO","perfecture_jp":"高知県","jp_add_1":"高岡郡四万十町","jp_add_2":"奈路"},"7860021":{"post_code":"7860021","prefecture":"KOCHI KEN","city":"TAKAOKA GUN SHIMANTO CHO","town":"NIIDA","perfecture_jp":"高知県","jp_add_1":"高岡郡四万十町","jp_add_2":"仁井田"},"7860083":{"post_code":"7860083","prefecture":"KOCHI KEN","city":"TAKAOKA GUN SHIMANTO CHO","town":"NISHIKAWAZUNO","perfecture_jp":"高知県","jp_add_1":"高岡郡四万十町","jp_add_2":"西川角"},"7860311":{"post_code":"7860311","prefecture":"KOCHI KEN","city":"TAKAOKA GUN SHIMANTO CHO","town":"NISHINOKAWA","perfecture_jp":"高知県","jp_add_1":"高岡郡四万十町","jp_add_2":"西ノ川"},"7860085":{"post_code":"7860085","prefecture":"KOCHI KEN","city":"TAKAOKA GUN SHIMANTO CHO","town":"NENEZAKI","perfecture_jp":"高知県","jp_add_1":"高岡郡四万十町","jp_add_2":"根々崎"},"7860065":{"post_code":"7860065","prefecture":"KOCHI KEN","city":"TAKAOKA GUN SHIMANTO CHO","town":"NOJI","perfecture_jp":"高知県","jp_add_1":"高岡郡四万十町","jp_add_2":"野地"},"7860525":{"post_code":"7860525","prefecture":"KOCHI KEN","city":"TAKAOKA GUN SHIMANTO CHO","town":"NONOGAWA","perfecture_jp":"高知県","jp_add_1":"高岡郡四万十町","jp_add_2":"野々川"},"7860047":{"post_code":"7860047","prefecture":"KOCHI KEN","city":"TAKAOKA GUN SHIMANTO CHO","town":"HASSENZU","perfecture_jp":"高知県","jp_add_1":"高岡郡四万十町","jp_add_2":"八千数"},"7860054":{"post_code":"7860054","prefecture":"KOCHI KEN","city":"TAKAOKA GUN SHIMANTO CHO","town":"HANNOKAWA","perfecture_jp":"高知県","jp_add_1":"高岡郡四万十町","jp_add_2":"飯ノ川"},"7860027":{"post_code":"7860027","prefecture":"KOCHI KEN","city":"TAKAOKA GUN SHIMANTO CHO","town":"HIGASHIONARO","perfecture_jp":"高知県","jp_add_1":"高岡郡四万十町","jp_add_2":"東大奈路"},"7860084":{"post_code":"7860084","prefecture":"KOCHI KEN","city":"TAKAOKA GUN SHIMANTO CHO","town":"HIGASHIKAWAZUNO","perfecture_jp":"高知県","jp_add_1":"高岡郡四万十町","jp_add_2":"東川角"},"7860093":{"post_code":"7860093","prefecture":"KOCHI KEN","city":"TAKAOKA GUN SHIMANTO CHO","town":"HIGASHIKITANOKAWA","perfecture_jp":"高知県","jp_add_1":"高岡郡四万十町","jp_add_2":"東北ノ川"},"7860006":{"post_code":"7860006","prefecture":"KOCHI KEN","city":"TAKAOKA GUN SHIMANTO CHO","town":"HIGASHIMACHI","perfecture_jp":"高知県","jp_add_1":"高岡郡四万十町","jp_add_2":"東町"},"7860077":{"post_code":"7860077","prefecture":"KOCHI KEN","city":"TAKAOKA GUN SHIMANTO CHO","town":"HISAHARA","perfecture_jp":"高知県","jp_add_1":"高岡郡四万十町","jp_add_2":"桧生原"},"7860097":{"post_code":"7860097","prefecture":"KOCHI KEN","city":"TAKAOKA GUN SHIMANTO CHO","town":"HINOJI","perfecture_jp":"高知県","jp_add_1":"高岡郡四万十町","jp_add_2":"日野地"},"7860026":{"post_code":"7860026","prefecture":"KOCHI KEN","city":"TAKAOKA GUN SHIMANTO CHO","town":"HIRAGUSHI","perfecture_jp":"高知県","jp_add_1":"高岡郡四万十町","jp_add_2":"平串"},"7860051":{"post_code":"7860051","prefecture":"KOCHI KEN","city":"TAKAOKA GUN SHIMANTO CHO","town":"HIRANO","perfecture_jp":"高知県","jp_add_1":"高岡郡四万十町","jp_add_2":"平野"},"7860324":{"post_code":"7860324","prefecture":"KOCHI KEN","city":"TAKAOKA GUN SHIMANTO CHO","town":"HIROSE","perfecture_jp":"高知県","jp_add_1":"高岡郡四万十町","jp_add_2":"弘瀬"},"7860534":{"post_code":"7860534","prefecture":"KOCHI KEN","city":"TAKAOKA GUN SHIMANTO CHO","town":"HIROSE","perfecture_jp":"高知県","jp_add_1":"高岡郡四万十町","jp_add_2":"広瀬"},"7860053":{"post_code":"7860053","prefecture":"KOCHI KEN","city":"TAKAOKA GUN SHIMANTO CHO","town":"HIROMI","perfecture_jp":"高知県","jp_add_1":"高岡郡四万十町","jp_add_2":"弘見"},"7860001":{"post_code":"7860001","prefecture":"KOCHI KEN","city":"TAKAOKA GUN SHIMANTO CHO","town":"FUJINOGAWA","perfecture_jp":"高知県","jp_add_1":"高岡郡四万十町","jp_add_2":"藤ノ川"},"7860007":{"post_code":"7860007","prefecture":"KOCHI KEN","city":"TAKAOKA GUN SHIMANTO CHO","town":"FURUICHIMACHI","perfecture_jp":"高知県","jp_add_1":"高岡郡四万十町","jp_add_2":"古市町"},"7860043":{"post_code":"7860043","prefecture":"KOCHI KEN","city":"TAKAOKA GUN SHIMANTO CHO","town":"HONDO","perfecture_jp":"高知県","jp_add_1":"高岡郡四万十町","jp_add_2":"本堂"},"7860005":{"post_code":"7860005","prefecture":"KOCHI KEN","city":"TAKAOKA GUN SHIMANTO CHO","town":"HOMMACHI","perfecture_jp":"高知県","jp_add_1":"高岡郡四万十町","jp_add_2":"本町"},"7860002":{"post_code":"7860002","prefecture":"KOCHI KEN","city":"TAKAOKA GUN SHIMANTO CHO","town":"MITSUKE","perfecture_jp":"高知県","jp_add_1":"高岡郡四万十町","jp_add_2":"見付"},"7860074":{"post_code":"7860074","prefecture":"KOCHI KEN","city":"TAKAOKA GUN SHIMANTO CHO","town":"MINAMIKAWAGUCHI","perfecture_jp":"高知県","jp_add_1":"高岡郡四万十町","jp_add_2":"南川口"},"7860061":{"post_code":"7860061","prefecture":"KOCHI KEN","city":"TAKAOKA GUN SHIMANTO CHO","town":"MINENOE","perfecture_jp":"高知県","jp_add_1":"高岡郡四万十町","jp_add_2":"峰ノ上"},"7860086":{"post_code":"7860086","prefecture":"KOCHI KEN","city":"TAKAOKA GUN SHIMANTO CHO","town":"MIYAUCHI","perfecture_jp":"高知県","jp_add_1":"高岡郡四万十町","jp_add_2":"宮内"},"7860024":{"post_code":"7860024","prefecture":"KOCHI KEN","city":"TAKAOKA GUN SHIMANTO CHO","town":"MUKAIGAWA","perfecture_jp":"高知県","jp_add_1":"高岡郡四万十町","jp_add_2":"向川"},"7860308":{"post_code":"7860308","prefecture":"KOCHI KEN","city":"TAKAOKA GUN SHIMANTO CHO","town":"YOSHIKAWA","perfecture_jp":"高知県","jp_add_1":"高岡郡四万十町","jp_add_2":"芳川"},"7860044":{"post_code":"7860044","prefecture":"KOCHI KEN","city":"TAKAOKA GUN SHIMANTO CHO","town":"YOTSUJI","perfecture_jp":"高知県","jp_add_1":"高岡郡四万十町","jp_add_2":"与津地"},"7860095":{"post_code":"7860095","prefecture":"KOCHI KEN","city":"TAKAOKA GUN SHIMANTO CHO","town":"YONEOKU","perfecture_jp":"高知県","jp_add_1":"高岡郡四万十町","jp_add_2":"米奥"},"7860035":{"post_code":"7860035","prefecture":"KOCHI KEN","city":"TAKAOKA GUN SHIMANTO CHO","town":"ROKUTANJI","perfecture_jp":"高知県","jp_add_1":"高岡郡四万十町","jp_add_2":"六反地"},"7860068":{"post_code":"7860068","prefecture":"KOCHI KEN","city":"TAKAOKA GUN SHIMANTO CHO","town":"WAKAI","perfecture_jp":"高知県","jp_add_1":"高岡郡四万十町","jp_add_2":"若井"},"7860062":{"post_code":"7860062","prefecture":"KOCHI KEN","city":"TAKAOKA GUN SHIMANTO CHO","town":"WAKAIGAWA","perfecture_jp":"高知県","jp_add_1":"高岡郡四万十町","jp_add_2":"若井川"}}