{"7880000":{"post_code":"7880000","prefecture":"KOCHI KEN","city":"SUKUMO SHI","town":"IKANIKEISAIGANAIBAAI","perfecture_jp":"高知県","jp_add_1":"宿毛市","jp_add_2":""},"7880021":{"post_code":"7880021","prefecture":"KOCHI KEN","city":"SUKUMO SHI","town":"IKESHIMA","perfecture_jp":"高知県","jp_add_1":"宿毛市","jp_add_2":"池島"},"7880023":{"post_code":"7880023","prefecture":"KOCHI KEN","city":"SUKUMO SHI","town":"USUSUKI","perfecture_jp":"高知県","jp_add_1":"宿毛市","jp_add_2":"宇須々木"},"7880009":{"post_code":"7880009","prefecture":"KOCHI KEN","city":"SUKUMO SHI","town":"EKIHIGASHIMACHI","perfecture_jp":"高知県","jp_add_1":"宿毛市","jp_add_2":"駅東町"},"7880010":{"post_code":"7880010","prefecture":"KOCHI KEN","city":"SUKUMO SHI","town":"EKIMAECHO","perfecture_jp":"高知県","jp_add_1":"宿毛市","jp_add_2":"駅前町"},"7880014":{"post_code":"7880014","prefecture":"KOCHI KEN","city":"SUKUMO SHI","town":"OSHIMA","perfecture_jp":"高知県","jp_add_1":"宿毛市","jp_add_2":"大島"},"7880034":{"post_code":"7880034","prefecture":"KOCHI KEN","city":"SUKUMO SHI","town":"OBUKAURA","perfecture_jp":"高知県","jp_add_1":"宿毛市","jp_add_2":"大深浦"},"7880679":{"post_code":"7880679","prefecture":"KOCHI KEN","city":"SUKUMO SHI","town":"OKINOSHIMACHO UGURUSHIMA","perfecture_jp":"高知県","jp_add_1":"宿毛市","jp_add_2":"沖の島町鵜来島"},"7880678":{"post_code":"7880678","prefecture":"KOCHI KEN","city":"SUKUMO SHI","town":"OKINOSHIMACHO HIROSE","perfecture_jp":"高知県","jp_add_1":"宿毛市","jp_add_2":"沖の島町弘瀬"},"7880677":{"post_code":"7880677","prefecture":"KOCHI KEN","city":"SUKUMO SHI","town":"OKINOSHIMACHO MOSHIMA","perfecture_jp":"高知県","jp_add_1":"宿毛市","jp_add_2":"沖の島町母島"},"7880051":{"post_code":"7880051","prefecture":"KOCHI KEN","city":"SUKUMO SHI","town":"OSHINOKAWA","perfecture_jp":"高知県","jp_add_1":"宿毛市","jp_add_2":"押ノ川"},"7880031":{"post_code":"7880031","prefecture":"KOCHI KEN","city":"SUKUMO SHI","town":"KAIZUKA","perfecture_jp":"高知県","jp_add_1":"宿毛市","jp_add_2":"貝塚"},"7880013":{"post_code":"7880013","prefecture":"KOCHI KEN","city":"SUKUMO SHI","town":"KATASHIMA","perfecture_jp":"高知県","jp_add_1":"宿毛市","jp_add_2":"片島"},"7880024":{"post_code":"7880024","prefecture":"KOCHI KEN","city":"SUKUMO SHI","town":"KABA","perfecture_jp":"高知県","jp_add_1":"宿毛市","jp_add_2":"樺"},"7880035":{"post_code":"7880035","prefecture":"KOCHI KEN","city":"SUKUMO SHI","town":"KUSAGIYABU","perfecture_jp":"高知県","jp_add_1":"宿毛市","jp_add_2":"草木薮"},"7880027":{"post_code":"7880027","prefecture":"KOCHI KEN","city":"SUKUMO SHI","town":"KONANDAI","perfecture_jp":"高知県","jp_add_1":"宿毛市","jp_add_2":"港南台"},"7880272":{"post_code":"7880272","prefecture":"KOCHI KEN","city":"SUKUMO SHI","town":"KOZUKUSHICHO ISHIHARA","perfecture_jp":"高知県","jp_add_1":"宿毛市","jp_add_2":"小筑紫町石原"},"7880267":{"post_code":"7880267","prefecture":"KOCHI KEN","city":"SUKUMO SHI","town":"KOZUKUSHICHO IYONO","perfecture_jp":"高知県","jp_add_1":"宿毛市","jp_add_2":"小筑紫町伊与野"},"7880266":{"post_code":"7880266","prefecture":"KOCHI KEN","city":"SUKUMO SHI","town":"KOZUKUSHICHO OMI","perfecture_jp":"高知県","jp_add_1":"宿毛市","jp_add_2":"小筑紫町大海"},"7880262":{"post_code":"7880262","prefecture":"KOCHI KEN","city":"SUKUMO SHI","town":"KOZUKUSHICHO KORA","perfecture_jp":"高知県","jp_add_1":"宿毛市","jp_add_2":"小筑紫町小浦"},"7880271":{"post_code":"7880271","prefecture":"KOCHI KEN","city":"SUKUMO SHI","town":"KOZUKUSHICHO KOZUKUSHI","perfecture_jp":"高知県","jp_add_1":"宿毛市","jp_add_2":"小筑紫町小筑紫"},"7880274":{"post_code":"7880274","prefecture":"KOCHI KEN","city":"SUKUMO SHI","town":"KOZUKUSHICHO SAKAKI","perfecture_jp":"高知県","jp_add_1":"宿毛市","jp_add_2":"小筑紫町栄喜"},"7880261":{"post_code":"7880261","prefecture":"KOCHI KEN","city":"SUKUMO SHI","town":"KOZUKUSHICHO TANORA","perfecture_jp":"高知県","jp_add_1":"宿毛市","jp_add_2":"小筑紫町田ノ浦"},"7880268":{"post_code":"7880268","prefecture":"KOCHI KEN","city":"SUKUMO SHI","town":"KOZUKUSHICHO TSUGANOGAWA","perfecture_jp":"高知県","jp_add_1":"宿毛市","jp_add_2":"小筑紫町都賀ノ川"},"7880263":{"post_code":"7880263","prefecture":"KOCHI KEN","city":"SUKUMO SHI","town":"KOZUKUSHICHO NAIGAINORA","perfecture_jp":"高知県","jp_add_1":"宿毛市","jp_add_2":"小筑紫町内外ノ浦"},"7880273":{"post_code":"7880273","prefecture":"KOCHI KEN","city":"SUKUMO SHI","town":"KOZUKUSHICHO FUKURA","perfecture_jp":"高知県","jp_add_1":"宿毛市","jp_add_2":"小筑紫町福良"},"7880265":{"post_code":"7880265","prefecture":"KOCHI KEN","city":"SUKUMO SHI","town":"KOZUKUSHICHO MINATO","perfecture_jp":"高知県","jp_add_1":"宿毛市","jp_add_2":"小筑紫町湊"},"7880264":{"post_code":"7880264","prefecture":"KOCHI KEN","city":"SUKUMO SHI","town":"KOZUKUSHICHO YOBISAKI","perfecture_jp":"高知県","jp_add_1":"宿毛市","jp_add_2":"小筑紫町呼崎"},"7880033":{"post_code":"7880033","prefecture":"KOCHI KEN","city":"SUKUMO SHI","town":"KOBUKAURA","perfecture_jp":"高知県","jp_add_1":"宿毛市","jp_add_2":"小深浦"},"7880003":{"post_code":"7880003","prefecture":"KOCHI KEN","city":"SUKUMO SHI","town":"SAIWAICHO","perfecture_jp":"高知県","jp_add_1":"宿毛市","jp_add_2":"幸町"},"7880053":{"post_code":"7880053","prefecture":"KOCHI KEN","city":"SUKUMO SHI","town":"SAKANOSHITA","perfecture_jp":"高知県","jp_add_1":"宿毛市","jp_add_2":"坂ノ下"},"7880054":{"post_code":"7880054","prefecture":"KOCHI KEN","city":"SUKUMO SHI","town":"SAKURAGAOKA","perfecture_jp":"高知県","jp_add_1":"宿毛市","jp_add_2":"さくらが丘"},"7880006":{"post_code":"7880006","prefecture":"KOCHI KEN","city":"SUKUMO SHI","town":"SAKURAMACHI","perfecture_jp":"高知県","jp_add_1":"宿毛市","jp_add_2":"桜町"},"7880030":{"post_code":"7880030","prefecture":"KOCHI KEN","city":"SUKUMO SHI","town":"SHIKINOKA","perfecture_jp":"高知県","jp_add_1":"宿毛市","jp_add_2":"四季の丘"},"7880026":{"post_code":"7880026","prefecture":"KOCHI KEN","city":"SUKUMO SHI","town":"JIYUGAOKA","perfecture_jp":"高知県","jp_add_1":"宿毛市","jp_add_2":"自由ケ丘"},"7880028":{"post_code":"7880028","prefecture":"KOCHI KEN","city":"SUKUMO SHI","town":"SHINKO","perfecture_jp":"高知県","jp_add_1":"宿毛市","jp_add_2":"新港"},"7880011":{"post_code":"7880011","prefecture":"KOCHI KEN","city":"SUKUMO SHI","town":"SHINDEN","perfecture_jp":"高知県","jp_add_1":"宿毛市","jp_add_2":"新田"},"7880012":{"post_code":"7880012","prefecture":"KOCHI KEN","city":"SUKUMO SHI","town":"TAKASAGO","perfecture_jp":"高知県","jp_add_1":"宿毛市","jp_add_2":"高砂"},"7880001":{"post_code":"7880001","prefecture":"KOCHI KEN","city":"SUKUMO SHI","town":"CHUO","perfecture_jp":"高知県","jp_add_1":"宿毛市","jp_add_2":"中央"},"7880039":{"post_code":"7880039","prefecture":"KOCHI KEN","city":"SUKUMO SHI","town":"NAKATSUNO","perfecture_jp":"高知県","jp_add_1":"宿毛市","jp_add_2":"中角"},"7880004":{"post_code":"7880004","prefecture":"KOCHI KEN","city":"SUKUMO SHI","town":"NAGATACHO","perfecture_jp":"高知県","jp_add_1":"宿毛市","jp_add_2":"長田町"},"7880015":{"post_code":"7880015","prefecture":"KOCHI KEN","city":"SUKUMO SHI","town":"NISHIKATASHIMA","perfecture_jp":"高知県","jp_add_1":"宿毛市","jp_add_2":"西片島"},"7880032":{"post_code":"7880032","prefecture":"KOCHI KEN","city":"SUKUMO SHI","town":"NISHIKI","perfecture_jp":"高知県","jp_add_1":"宿毛市","jp_add_2":"錦"},"7880025":{"post_code":"7880025","prefecture":"KOCHI KEN","city":"SUKUMO SHI","town":"NISHIMACHI","perfecture_jp":"高知県","jp_add_1":"宿毛市","jp_add_2":"西町"},"7880038":{"post_code":"7880038","prefecture":"KOCHI KEN","city":"SUKUMO SHI","town":"NINOMIYA","perfecture_jp":"高知県","jp_add_1":"宿毛市","jp_add_2":"二ノ宮"},"7880036":{"post_code":"7880036","prefecture":"KOCHI KEN","city":"SUKUMO SHI","town":"NOJI","perfecture_jp":"高知県","jp_add_1":"宿毛市","jp_add_2":"野地"},"7880005":{"post_code":"7880005","prefecture":"KOCHI KEN","city":"SUKUMO SHI","town":"HAGIWARA","perfecture_jp":"高知県","jp_add_1":"宿毛市","jp_add_2":"萩原"},"7880041":{"post_code":"7880041","prefecture":"KOCHI KEN","city":"SUKUMO SHI","town":"HASHIKAMICHOIDEI","perfecture_jp":"高知県","jp_add_1":"宿毛市","jp_add_2":"橋上町出井"},"7880045":{"post_code":"7880045","prefecture":"KOCHI KEN","city":"SUKUMO SHI","town":"HASHIKAMICHOOKUNARO","perfecture_jp":"高知県","jp_add_1":"宿毛市","jp_add_2":"橋上町奥奈路"},"7880044":{"post_code":"7880044","prefecture":"KOCHI KEN","city":"SUKUMO SHI","town":"HASHIKAMICHOKAMIARI","perfecture_jp":"高知県","jp_add_1":"宿毛市","jp_add_2":"橋上町神有"},"7880048":{"post_code":"7880048","prefecture":"KOCHI KEN","city":"SUKUMO SHI","town":"HASHIKAMICHOKYOHO","perfecture_jp":"高知県","jp_add_1":"宿毛市","jp_add_2":"橋上町京法"},"7880042":{"post_code":"7880042","prefecture":"KOCHI KEN","city":"SUKUMO SHI","town":"HASHIKAMICHOKUSUYAMA","perfecture_jp":"高知県","jp_add_1":"宿毛市","jp_add_2":"橋上町楠山"},"7880049":{"post_code":"7880049","prefecture":"KOCHI KEN","city":"SUKUMO SHI","town":"HASHIKAMICHOGENJUYABU","perfecture_jp":"高知県","jp_add_1":"宿毛市","jp_add_2":"橋上町還住薮"},"7880043":{"post_code":"7880043","prefecture":"KOCHI KEN","city":"SUKUMO SHI","town":"HASHIKAMICHOSAKAMOTO","perfecture_jp":"高知県","jp_add_1":"宿毛市","jp_add_2":"橋上町坂本"},"7880046":{"post_code":"7880046","prefecture":"KOCHI KEN","city":"SUKUMO SHI","town":"HASHIKAMICHOHASHIKAMI","perfecture_jp":"高知県","jp_add_1":"宿毛市","jp_add_2":"橋上町橋上"},"7880047":{"post_code":"7880047","prefecture":"KOCHI KEN","city":"SUKUMO SHI","town":"HASHIKAMICHOHIRANO","perfecture_jp":"高知県","jp_add_1":"宿毛市","jp_add_2":"橋上町平野"},"7880781":{"post_code":"7880781","prefecture":"KOCHI KEN","city":"SUKUMO SHI","town":"HIRATACHOKUROKAWA","perfecture_jp":"高知県","jp_add_1":"宿毛市","jp_add_2":"平田町黒川"},"7880782":{"post_code":"7880782","prefecture":"KOCHI KEN","city":"SUKUMO SHI","town":"HIRATACHONAKAYAMA","perfecture_jp":"高知県","jp_add_1":"宿毛市","jp_add_2":"平田町中山"},"7880786":{"post_code":"7880786","prefecture":"KOCHI KEN","city":"SUKUMO SHI","town":"HIRATACHOHIGASHIDAIRA","perfecture_jp":"高知県","jp_add_1":"宿毛市","jp_add_2":"平田町東平"},"7880783":{"post_code":"7880783","prefecture":"KOCHI KEN","city":"SUKUMO SHI","town":"HIRATACHOHENAI","perfecture_jp":"高知県","jp_add_1":"宿毛市","jp_add_2":"平田町戸内"},"7880007":{"post_code":"7880007","prefecture":"KOCHI KEN","city":"SUKUMO SHI","town":"MATSUDAMACHI","perfecture_jp":"高知県","jp_add_1":"宿毛市","jp_add_2":"松田町"},"7880002":{"post_code":"7880002","prefecture":"KOCHI KEN","city":"SUKUMO SHI","town":"MINAMIOKISUGA","perfecture_jp":"高知県","jp_add_1":"宿毛市","jp_add_2":"南沖須賀"},"7880022":{"post_code":"7880022","prefecture":"KOCHI KEN","city":"SUKUMO SHI","town":"MUKUZU","perfecture_jp":"高知県","jp_add_1":"宿毛市","jp_add_2":"藻津"},"7880037":{"post_code":"7880037","prefecture":"KOCHI KEN","city":"SUKUMO SHI","town":"YAMAKITA","perfecture_jp":"高知県","jp_add_1":"宿毛市","jp_add_2":"山北"},"7880784":{"post_code":"7880784","prefecture":"KOCHI KEN","city":"SUKUMO SHI","town":"YAMANACHOYAMADA","perfecture_jp":"高知県","jp_add_1":"宿毛市","jp_add_2":"山奈町山田"},"7880785":{"post_code":"7880785","prefecture":"KOCHI KEN","city":"SUKUMO SHI","town":"YAMANACHOYOSHINA","perfecture_jp":"高知県","jp_add_1":"宿毛市","jp_add_2":"山奈町芳奈"},"7880008":{"post_code":"7880008","prefecture":"KOCHI KEN","city":"SUKUMO SHI","town":"YOICHIMYO","perfecture_jp":"高知県","jp_add_1":"宿毛市","jp_add_2":"与市明"},"7880052":{"post_code":"7880052","prefecture":"KOCHI KEN","city":"SUKUMO SHI","town":"WADA","perfecture_jp":"高知県","jp_add_1":"宿毛市","jp_add_2":"和田"},"7880300":{"post_code":"7880300","prefecture":"KOCHI KEN","city":"HATA GUN OTSUKI CHO","town":"IKANIKEISAIGANAIBAAI","perfecture_jp":"高知県","jp_add_1":"幡多郡大月町","jp_add_2":""},"7880332":{"post_code":"7880332","prefecture":"KOCHI KEN","city":"HATA GUN OTSUKI CHO","town":"AKADOMARI","perfecture_jp":"高知県","jp_add_1":"幡多郡大月町","jp_add_2":"赤泊"},"7880351":{"post_code":"7880351","prefecture":"KOCHI KEN","city":"HATA GUN OTSUKI CHO","town":"AMAJI","perfecture_jp":"高知県","jp_add_1":"幡多郡大月町","jp_add_2":"安満地"},"7880342":{"post_code":"7880342","prefecture":"KOCHI KEN","city":"HATA GUN OTSUKI CHO","town":"ISSAI","perfecture_jp":"高知県","jp_add_1":"幡多郡大月町","jp_add_2":"一切"},"7880324":{"post_code":"7880324","prefecture":"KOCHI KEN","city":"HATA GUN OTSUKI CHO","town":"OURA","perfecture_jp":"高知県","jp_add_1":"幡多郡大月町","jp_add_2":"大浦"},"7880334":{"post_code":"7880334","prefecture":"KOCHI KEN","city":"HATA GUN OTSUKI CHO","town":"KASHINORA","perfecture_jp":"高知県","jp_add_1":"幡多郡大月町","jp_add_2":"樫ノ浦"},"7880314":{"post_code":"7880314","prefecture":"KOCHI KEN","city":"HATA GUN OTSUKI CHO","town":"KASHIRATSUDOI","perfecture_jp":"高知県","jp_add_1":"幡多郡大月町","jp_add_2":"頭集"},"7880343":{"post_code":"7880343","prefecture":"KOCHI KEN","city":"HATA GUN OTSUKI CHO","town":"KASHIWAJIMA","perfecture_jp":"高知県","jp_add_1":"幡多郡大月町","jp_add_2":"柏島"},"7880335":{"post_code":"7880335","prefecture":"KOCHI KEN","city":"HATA GUN OTSUKI CHO","town":"KARAIWA","perfecture_jp":"高知県","jp_add_1":"幡多郡大月町","jp_add_2":"唐岩"},"7880331":{"post_code":"7880331","prefecture":"KOCHI KEN","city":"HATA GUN OTSUKI CHO","town":"HIMENOI","perfecture_jp":"高知県","jp_add_1":"幡多郡大月町","jp_add_2":"口目塚"},"7880322":{"post_code":"7880322","prefecture":"KOCHI KEN","city":"HATA GUN OTSUKI CHO","town":"KOSAITSUNO","perfecture_jp":"高知県","jp_add_1":"幡多郡大月町","jp_add_2":"小才角"},"7880315":{"post_code":"7880315","prefecture":"KOCHI KEN","city":"HATA GUN OTSUKI CHO","town":"KOMAME","perfecture_jp":"高知県","jp_add_1":"幡多郡大月町","jp_add_2":"古満目"},"7880323":{"post_code":"7880323","prefecture":"KOCHI KEN","city":"HATA GUN OTSUKI CHO","town":"SAITSUNO","perfecture_jp":"高知県","jp_add_1":"幡多郡大月町","jp_add_2":"才角"},"7880312":{"post_code":"7880312","prefecture":"KOCHI KEN","city":"HATA GUN OTSUKI CHO","town":"SEIO","perfecture_jp":"高知県","jp_add_1":"幡多郡大月町","jp_add_2":"清王"},"7880363":{"post_code":"7880363","prefecture":"KOCHI KEN","city":"HATA GUN OTSUKI CHO","town":"SOINOKAWA","perfecture_jp":"高知県","jp_add_1":"幡多郡大月町","jp_add_2":"添ノ川"},"7880313":{"post_code":"7880313","prefecture":"KOCHI KEN","city":"HATA GUN OTSUKI CHO","town":"SOUGATA","perfecture_jp":"高知県","jp_add_1":"幡多郡大月町","jp_add_2":"周防形"},"7880352":{"post_code":"7880352","prefecture":"KOCHI KEN","city":"HATA GUN OTSUKI CHO","town":"TACHIBANAURA","perfecture_jp":"高知県","jp_add_1":"幡多郡大月町","jp_add_2":"橘浦"},"7880361":{"post_code":"7880361","prefecture":"KOCHI KEN","city":"HATA GUN OTSUKI CHO","town":"TATSUGASAKO","perfecture_jp":"高知県","jp_add_1":"幡多郡大月町","jp_add_2":"龍ケ迫"},"7880325":{"post_code":"7880325","prefecture":"KOCHI KEN","city":"HATA GUN OTSUKI CHO","town":"TSUKIGAOKA","perfecture_jp":"高知県","jp_add_1":"幡多郡大月町","jp_add_2":"月ケ丘"},"7880353":{"post_code":"7880353","prefecture":"KOCHI KEN","city":"HATA GUN OTSUKI CHO","town":"TOMARIURA","perfecture_jp":"高知県","jp_add_1":"幡多郡大月町","jp_add_2":"泊浦"},"7880333":{"post_code":"7880333","prefecture":"KOCHI KEN","city":"HATA GUN OTSUKI CHO","town":"NISHIDOMARI","perfecture_jp":"高知県","jp_add_1":"幡多郡大月町","jp_add_2":"西泊"},"7880321":{"post_code":"7880321","prefecture":"KOCHI KEN","city":"HATA GUN OTSUKI CHO","town":"HARUDO","perfecture_jp":"高知県","jp_add_1":"幡多郡大月町","jp_add_2":"春遠"},"7880341":{"post_code":"7880341","prefecture":"KOCHI KEN","city":"HATA GUN OTSUKI CHO","town":"HIRAYAMA","perfecture_jp":"高知県","jp_add_1":"幡多郡大月町","jp_add_2":"平山"},"7880302":{"post_code":"7880302","prefecture":"KOCHI KEN","city":"HATA GUN OTSUKI CHO","town":"HIROMI","perfecture_jp":"高知県","jp_add_1":"幡多郡大月町","jp_add_2":"弘見"},"7880311":{"post_code":"7880311","prefecture":"KOCHI KEN","city":"HATA GUN OTSUKI CHO","town":"HOKOTSUCHI","perfecture_jp":"高知県","jp_add_1":"幡多郡大月町","jp_add_2":"鉾土"},"7880362":{"post_code":"7880362","prefecture":"KOCHI KEN","city":"HATA GUN OTSUKI CHO","town":"YOSHINOSAWA","perfecture_jp":"高知県","jp_add_1":"幡多郡大月町","jp_add_2":"芳ノ沢"}}