{"7890582":{"post_code":"7890582","prefecture":"KOCHI KEN","city":"KAMI SHI","town":"TOSAYAMADACHO KAKUMODANI","perfecture_jp":"高知県","jp_add_1":"香美市","jp_add_2":"土佐山田町角茂谷"},"7890586":{"post_code":"7890586","prefecture":"KOCHI KEN","city":"KAMI SHI","town":"TOSAYAMADACHO KASHINOTANI","perfecture_jp":"高知県","jp_add_1":"香美市","jp_add_2":"土佐山田町樫谷"},"7890587":{"post_code":"7890587","prefecture":"KOCHI KEN","city":"KAMI SHI","town":"TOSAYAMADACHO KAMIANANAI","perfecture_jp":"高知県","jp_add_1":"香美市","jp_add_2":"土佐山田町上穴内"},"7890584":{"post_code":"7890584","prefecture":"KOCHI KEN","city":"KAMI SHI","town":"TOSAYAMADACHO KITATAKIMOTO","perfecture_jp":"高知県","jp_add_1":"香美市","jp_add_2":"土佐山田町北滝本"},"7890585":{"post_code":"7890585","prefecture":"KOCHI KEN","city":"KAMI SHI","town":"TOSAYAMADACHO SHIGETO","perfecture_jp":"高知県","jp_add_1":"香美市","jp_add_2":"土佐山田町繁藤"},"7890581":{"post_code":"7890581","prefecture":"KOCHI KEN","city":"KAMI SHI","town":"TOSAYAMADACHO NISHIMATA","perfecture_jp":"高知県","jp_add_1":"香美市","jp_add_2":"土佐山田町西又"},"7890583":{"post_code":"7890583","prefecture":"KOCHI KEN","city":"KAMI SHI","town":"TOSAYAMADACHO HIRAYAMA(OKADAMARU.FU","perfecture_jp":"高知県","jp_add_1":"香美市","jp_add_2":"土佐山田町平山"},"7890300":{"post_code":"7890300","prefecture":"KOCHI KEN","city":"NAGAOKA GUN OTOYO CHO","town":"IKANIKEISAIGANAIBAAI","perfecture_jp":"高知県","jp_add_1":"長岡郡大豊町","jp_add_2":""},"7890167":{"post_code":"7890167","prefecture":"KOCHI KEN","city":"NAGAOKA GUN OTOYO CHO","town":"AO","perfecture_jp":"高知県","jp_add_1":"長岡郡大豊町","jp_add_2":"粟生"},"7890307":{"post_code":"7890307","prefecture":"KOCHI KEN","city":"NAGAOKA GUN OTOYO CHO","town":"ANANAI","perfecture_jp":"高知県","jp_add_1":"長岡郡大豊町","jp_add_2":"穴内"},"7890237":{"post_code":"7890237","prefecture":"KOCHI KEN","city":"NAGAOKA GUN OTOYO CHO","town":"IONOTANI","perfecture_jp":"高知県","jp_add_1":"長岡郡大豊町","jp_add_2":"庵谷"},"7890157":{"post_code":"7890157","prefecture":"KOCHI KEN","city":"NAGAOKA GUN OTOYO CHO","town":"IKADAGI","perfecture_jp":"高知県","jp_add_1":"長岡郡大豊町","jp_add_2":"筏木"},"7890233":{"post_code":"7890233","prefecture":"KOCHI KEN","city":"NAGAOKA GUN OTOYO CHO","town":"ISODANI","perfecture_jp":"高知県","jp_add_1":"長岡郡大豊町","jp_add_2":"磯谷"},"7890158":{"post_code":"7890158","prefecture":"KOCHI KEN","city":"NAGAOKA GUN OTOYO CHO","town":"IWAHARA","perfecture_jp":"高知県","jp_add_1":"長岡郡大豊町","jp_add_2":"岩原"},"7890323":{"post_code":"7890323","prefecture":"KOCHI KEN","city":"NAGAOKA GUN OTOYO CHO","town":"UMAZE","perfecture_jp":"高知県","jp_add_1":"長岡郡大豊町","jp_add_2":"馬瀬"},"7890306":{"post_code":"7890306","prefecture":"KOCHI KEN","city":"NAGAOKA GUN OTOYO CHO","town":"O","perfecture_jp":"高知県","jp_add_1":"長岡郡大豊町","jp_add_2":"尾生"},"7890248":{"post_code":"7890248","prefecture":"KOCHI KEN","city":"NAGAOKA GUN OTOYO CHO","town":"OKUBO","perfecture_jp":"高知県","jp_add_1":"長岡郡大豊町","jp_add_2":"大久保"},"7890247":{"post_code":"7890247","prefecture":"KOCHI KEN","city":"NAGAOKA GUN OTOYO CHO","town":"OSUNAGO","perfecture_jp":"高知県","jp_add_1":"長岡郡大豊町","jp_add_2":"大砂子"},"7890173":{"post_code":"7890173","prefecture":"KOCHI KEN","city":"NAGAOKA GUN OTOYO CHO","town":"ODAIRA(TAKAHARA)","perfecture_jp":"高知県","jp_add_1":"長岡郡大豊町","jp_add_2":"大平"},"7890169":{"post_code":"7890169","prefecture":"KOCHI KEN","city":"NAGAOKA GUN OTOYO CHO","town":"ODAIRA(SONOTA)","perfecture_jp":"高知県","jp_add_1":"長岡郡大豊町","jp_add_2":"大平"},"7890170":{"post_code":"7890170","prefecture":"KOCHI KEN","city":"NAGAOKA GUN OTOYO CHO","town":"ODAKI(OCHIAI)","perfecture_jp":"高知県","jp_add_1":"長岡郡大豊町","jp_add_2":"大滝"},"7890171":{"post_code":"7890171","prefecture":"KOCHI KEN","city":"NAGAOKA GUN OTOYO CHO","town":"ODAKI(SONOTA)","perfecture_jp":"高知県","jp_add_1":"長岡郡大豊町","jp_add_2":"大滝"},"7890316":{"post_code":"7890316","prefecture":"KOCHI KEN","city":"NAGAOKA GUN OTOYO CHO","town":"OGAWA","perfecture_jp":"高知県","jp_add_1":"長岡郡大豊町","jp_add_2":"小川"},"7890231":{"post_code":"7890231","prefecture":"KOCHI KEN","city":"NAGAOKA GUN OTOYO CHO","town":"OKUOTA","perfecture_jp":"高知県","jp_add_1":"長岡郡大豊町","jp_add_2":"奥大田"},"7890321":{"post_code":"7890321","prefecture":"KOCHI KEN","city":"NAGAOKA GUN OTOYO CHO","town":"KAKUMODANI","perfecture_jp":"高知県","jp_add_1":"長岡郡大豊町","jp_add_2":"角茂谷"},"7890232":{"post_code":"7890232","prefecture":"KOCHI KEN","city":"NAGAOKA GUN OTOYO CHO","town":"KAJIGAUCHI(ISHIDO.SAGAI)","perfecture_jp":"高知県","jp_add_1":"長岡郡大豊町","jp_add_2":"梶ケ内"},"7890428":{"post_code":"7890428","prefecture":"KOCHI KEN","city":"NAGAOKA GUN OTOYO CHO","town":"KAZURAWARA(CHINONO)","perfecture_jp":"高知県","jp_add_1":"長岡郡大豊町","jp_add_2":"葛原"},"7890302":{"post_code":"7890302","prefecture":"KOCHI KEN","city":"NAGAOKA GUN OTOYO CHO","town":"KAZURAWARA(SONOTA)","perfecture_jp":"高知県","jp_add_1":"長岡郡大豊町","jp_add_2":"葛原"},"7890252":{"post_code":"7890252","prefecture":"KOCHI KEN","city":"NAGAOKA GUN OTOYO CHO","town":"KAMIHIGASHI","perfecture_jp":"高知県","jp_add_1":"長岡郡大豊町","jp_add_2":"上東"},"7890172":{"post_code":"7890172","prefecture":"KOCHI KEN","city":"NAGAOKA GUN OTOYO CHO","town":"KAWAI","perfecture_jp":"高知県","jp_add_1":"長岡郡大豊町","jp_add_2":"川井"},"7890303":{"post_code":"7890303","prefecture":"KOCHI KEN","city":"NAGAOKA GUN OTOYO CHO","town":"KAWAGUCHI","perfecture_jp":"高知県","jp_add_1":"長岡郡大豊町","jp_add_2":"川口"},"7890313":{"post_code":"7890313","prefecture":"KOCHI KEN","city":"NAGAOKA GUN OTOYO CHO","town":"KAWAGUCHIMINAMI","perfecture_jp":"高知県","jp_add_1":"長岡郡大豊町","jp_add_2":"川口南"},"7890241":{"post_code":"7890241","prefecture":"KOCHI KEN","city":"NAGAOKA GUN OTOYO CHO","town":"KAWADO","perfecture_jp":"高知県","jp_add_1":"長岡郡大豊町","jp_add_2":"川戸"},"7890325":{"post_code":"7890325","prefecture":"KOCHI KEN","city":"NAGAOKA GUN OTOYO CHO","town":"KITAGAWA","perfecture_jp":"高知県","jp_add_1":"長岡郡大豊町","jp_add_2":"北川"},"7890324":{"post_code":"7890324","prefecture":"KOCHI KEN","city":"NAGAOKA GUN OTOYO CHO","town":"KUSUNOKI","perfecture_jp":"高知県","jp_add_1":"長岡郡大豊町","jp_add_2":"久寿軒"},"7890250":{"post_code":"7890250","prefecture":"KOCHI KEN","city":"NAGAOKA GUN OTOYO CHO","town":"KUROISHI","perfecture_jp":"高知県","jp_add_1":"長岡郡大豊町","jp_add_2":"黒石"},"7890255":{"post_code":"7890255","prefecture":"KOCHI KEN","city":"NAGAOKA GUN OTOYO CHO","town":"SAGAYAMA","perfecture_jp":"高知県","jp_add_1":"長岡郡大豊町","jp_add_2":"佐賀山"},"7890305":{"post_code":"7890305","prefecture":"KOCHI KEN","city":"NAGAOKA GUN OTOYO CHO","town":"SHIKINOIWA","perfecture_jp":"高知県","jp_add_1":"長岡郡大豊町","jp_add_2":"式岩"},"7890311":{"post_code":"7890311","prefecture":"KOCHI KEN","city":"NAGAOKA GUN OTOYO CHO","town":"SUGI","perfecture_jp":"高知県","jp_add_1":"長岡郡大豊町","jp_add_2":"杉"},"7890312":{"post_code":"7890312","prefecture":"KOCHI KEN","city":"NAGAOKA GUN OTOYO CHO","town":"TAKAZU","perfecture_jp":"高知県","jp_add_1":"長岡郡大豊町","jp_add_2":"高須"},"7890426":{"post_code":"7890426","prefecture":"KOCHI KEN","city":"NAGAOKA GUN OTOYO CHO","town":"TAJIKAWAKAMIMYO","perfecture_jp":"高知県","jp_add_1":"長岡郡大豊町","jp_add_2":"立川上名"},"7890427":{"post_code":"7890427","prefecture":"KOCHI KEN","city":"NAGAOKA GUN OTOYO CHO","town":"TAJIKAWASHIMOMYO","perfecture_jp":"高知県","jp_add_1":"長岡郡大豊町","jp_add_2":"立川下名"},"7890168":{"post_code":"7890168","prefecture":"KOCHI KEN","city":"NAGAOKA GUN OTOYO CHO","town":"TATSUNO","perfecture_jp":"高知県","jp_add_1":"長岡郡大豊町","jp_add_2":"立野"},"7890304":{"post_code":"7890304","prefecture":"KOCHI KEN","city":"NAGAOKA GUN OTOYO CHO","town":"TANI","perfecture_jp":"高知県","jp_add_1":"長岡郡大豊町","jp_add_2":"谷"},"7890301":{"post_code":"7890301","prefecture":"KOCHI KEN","city":"NAGAOKA GUN OTOYO CHO","town":"TSUGE(HINOKIO)","perfecture_jp":"高知県","jp_add_1":"長岡郡大豊町","jp_add_2":"津家"},"7890242":{"post_code":"7890242","prefecture":"KOCHI KEN","city":"NAGAOKA GUN OTOYO CHO","town":"TSUREBI","perfecture_jp":"高知県","jp_add_1":"長岡郡大豊町","jp_add_2":"連火"},"7890234":{"post_code":"7890234","prefecture":"KOCHI KEN","city":"NAGAOKA GUN OTOYO CHO","town":"TERAUCHI(OTAGUCHI)","perfecture_jp":"高知県","jp_add_1":"長岡郡大豊町","jp_add_2":"寺内"},"7890322":{"post_code":"7890322","prefecture":"KOCHI KEN","city":"NAGAOKA GUN OTOYO CHO","town":"TODENO","perfecture_jp":"高知県","jp_add_1":"長岡郡大豊町","jp_add_2":"戸手野"},"7890174":{"post_code":"7890174","prefecture":"KOCHI KEN","city":"NAGAOKA GUN OTOYO CHO","town":"NAKAUCHI","perfecture_jp":"高知県","jp_add_1":"長岡郡大豊町","jp_add_2":"中内"},"7890315":{"post_code":"7890315","prefecture":"KOCHI KEN","city":"NAGAOKA GUN OTOYO CHO","town":"NAKAMURADAIO","perfecture_jp":"高知県","jp_add_1":"長岡郡大豊町","jp_add_2":"中村大王"},"7890251":{"post_code":"7890251","prefecture":"KOCHI KEN","city":"NAGAOKA GUN OTOYO CHO","town":"NAKAYA","perfecture_jp":"高知県","jp_add_1":"長岡郡大豊町","jp_add_2":"中屋"},"7890245":{"post_code":"7890245","prefecture":"KOCHI KEN","city":"NAGAOKA GUN OTOYO CHO","town":"NAGAFUCHI","perfecture_jp":"高知県","jp_add_1":"長岡郡大豊町","jp_add_2":"永淵"},"7890165":{"post_code":"7890165","prefecture":"KOCHI KEN","city":"NAGAOKA GUN OTOYO CHO","town":"NISHIGAWA","perfecture_jp":"高知県","jp_add_1":"長岡郡大豊町","jp_add_2":"西川"},"7890243":{"post_code":"7890243","prefecture":"KOCHI KEN","city":"NAGAOKA GUN OTOYO CHO","town":"NISHIKUBO","perfecture_jp":"高知県","jp_add_1":"長岡郡大豊町","jp_add_2":"西久保"},"7890254":{"post_code":"7890254","prefecture":"KOCHI KEN","city":"NAGAOKA GUN OTOYO CHO","town":"NISHIDOI","perfecture_jp":"高知県","jp_add_1":"長岡郡大豊町","jp_add_2":"西土居"},"7890159":{"post_code":"7890159","prefecture":"KOCHI KEN","city":"NAGAOKA GUN OTOYO CHO","town":"NISHIMINE(MITANI)","perfecture_jp":"高知県","jp_add_1":"長岡郡大豊町","jp_add_2":"西峰"},"7890160":{"post_code":"7890160","prefecture":"KOCHI KEN","city":"NAGAOKA GUN OTOYO CHO","town":"NISHIMINE(SONOTA)","perfecture_jp":"高知県","jp_add_1":"長岡郡大豊町","jp_add_2":"西峰"},"7890162":{"post_code":"7890162","prefecture":"KOCHI KEN","city":"NAGAOKA GUN OTOYO CHO","town":"NUTA","perfecture_jp":"高知県","jp_add_1":"長岡郡大豊町","jp_add_2":"怒田"},"7890314":{"post_code":"7890314","prefecture":"KOCHI KEN","city":"NAGAOKA GUN OTOYO CHO","town":"HIURA","perfecture_jp":"高知県","jp_add_1":"長岡郡大豊町","jp_add_2":"日浦"},"7890166":{"post_code":"7890166","prefecture":"KOCHI KEN","city":"NAGAOKA GUN OTOYO CHO","town":"HIGASHIDOI","perfecture_jp":"高知県","jp_add_1":"長岡郡大豊町","jp_add_2":"東土居"},"7890235":{"post_code":"7890235","prefecture":"KOCHI KEN","city":"NAGAOKA GUN OTOYO CHO","town":"FUNATO","perfecture_jp":"高知県","jp_add_1":"長岡郡大豊町","jp_add_2":"船戸"},"7890163":{"post_code":"7890163","prefecture":"KOCHI KEN","city":"NAGAOKA GUN OTOYO CHO","town":"MINAMIDAIO","perfecture_jp":"高知県","jp_add_1":"長岡郡大豊町","jp_add_2":"南大王"},"7890244":{"post_code":"7890244","prefecture":"KOCHI KEN","city":"NAGAOKA GUN OTOYO CHO","town":"MOMOHARA","perfecture_jp":"高知県","jp_add_1":"長岡郡大豊町","jp_add_2":"桃原"},"7890156":{"post_code":"7890156","prefecture":"KOCHI KEN","city":"NAGAOKA GUN OTOYO CHO","town":"YAKAWA","perfecture_jp":"高知県","jp_add_1":"長岡郡大豊町","jp_add_2":"八川"},"7890253":{"post_code":"7890253","prefecture":"KOCHI KEN","city":"NAGAOKA GUN OTOYO CHO","town":"YASUNONO","perfecture_jp":"高知県","jp_add_1":"長岡郡大豊町","jp_add_2":"安野々"},"7890246":{"post_code":"7890246","prefecture":"KOCHI KEN","city":"NAGAOKA GUN OTOYO CHO","town":"YANAGINO","perfecture_jp":"高知県","jp_add_1":"長岡郡大豊町","jp_add_2":"柳野"},"7890161":{"post_code":"7890161","prefecture":"KOCHI KEN","city":"NAGAOKA GUN OTOYO CHO","town":"YUNOKI","perfecture_jp":"高知県","jp_add_1":"長岡郡大豊町","jp_add_2":"柚木"},"7890164":{"post_code":"7890164","prefecture":"KOCHI KEN","city":"NAGAOKA GUN OTOYO CHO","town":"YONE","perfecture_jp":"高知県","jp_add_1":"長岡郡大豊町","jp_add_2":"八畝"},"7890236":{"post_code":"7890236","prefecture":"KOCHI KEN","city":"NAGAOKA GUN OTOYO CHO","town":"WADA(METSUKE)","perfecture_jp":"高知県","jp_add_1":"長岡郡大豊町","jp_add_2":"和田"},"7891300":{"post_code":"7891300","prefecture":"KOCHI KEN","city":"TAKAOKA GUN NAKATOSA CHO","town":"IKANIKEISAIGANAIBAAI","perfecture_jp":"高知県","jp_add_1":"高岡郡中土佐町","jp_add_2":""},"7891413":{"post_code":"7891413","prefecture":"KOCHI KEN","city":"TAKAOKA GUN NAKATOSA CHO","town":"ONOMI ARASE","perfecture_jp":"高知県","jp_add_1":"高岡郡中土佐町","jp_add_2":"大野見荒瀬"},"7891414":{"post_code":"7891414","prefecture":"KOCHI KEN","city":"TAKAOKA GUN NAKATOSA CHO","town":"ONOMI IGENO","perfecture_jp":"高知県","jp_add_1":"高岡郡中土佐町","jp_add_2":"大野見神母野"},"7891405":{"post_code":"7891405","prefecture":"KOCHI KEN","city":"TAKAOKA GUN NAKATOSA CHO","town":"ONOMI ISEGAWA","perfecture_jp":"高知県","jp_add_1":"高岡郡中土佐町","jp_add_2":"大野見伊勢川"},"7891418":{"post_code":"7891418","prefecture":"KOCHI KEN","city":"TAKAOKA GUN NAKATOSA CHO","town":"ONOMI OMATA","perfecture_jp":"高知県","jp_add_1":"高岡郡中土佐町","jp_add_2":"大野見大股"},"7891412":{"post_code":"7891412","prefecture":"KOCHI KEN","city":"TAKAOKA GUN NAKATOSA CHO","town":"ONOMI KAWAOKU","perfecture_jp":"高知県","jp_add_1":"高岡郡中土佐町","jp_add_2":"大野見川奥"},"7891416":{"post_code":"7891416","prefecture":"KOCHI KEN","city":"TAKAOKA GUN NAKATOSA CHO","town":"ONOMI KUDARUKAWA","perfecture_jp":"高知県","jp_add_1":"高岡郡中土佐町","jp_add_2":"大野見下ル川"},"7891403":{"post_code":"7891403","prefecture":"KOCHI KEN","city":"TAKAOKA GUN NAKATOSA CHO","town":"ONOMI KUMAAKI","perfecture_jp":"高知県","jp_add_1":"高岡郡中土佐町","jp_add_2":"大野見久万秋"},"7891419":{"post_code":"7891419","prefecture":"KOCHI KEN","city":"TAKAOKA GUN NAKATOSA CHO","town":"ONOMI SHIMANOGAWA","perfecture_jp":"高知県","jp_add_1":"高岡郡中土佐町","jp_add_2":"大野見島ノ川"},"7891409":{"post_code":"7891409","prefecture":"KOCHI KEN","city":"TAKAOKA GUN NAKATOSA CHO","town":"ONOMI TAKEHARA","perfecture_jp":"高知県","jp_add_1":"高岡郡中土佐町","jp_add_2":"大野見竹原"},"7891410":{"post_code":"7891410","prefecture":"KOCHI KEN","city":"TAKAOKA GUN NAKATOSA CHO","town":"ONOMI TSUGANOKAWA","perfecture_jp":"高知県","jp_add_1":"高岡郡中土佐町","jp_add_2":"大野見栂ノ川"},"7891415":{"post_code":"7891415","prefecture":"KOCHI KEN","city":"TAKAOKA GUN NAKATOSA CHO","town":"ONOMI TERANO","perfecture_jp":"高知県","jp_add_1":"高岡郡中土佐町","jp_add_2":"大野見寺野"},"7891411":{"post_code":"7891411","prefecture":"KOCHI KEN","city":"TAKAOKA GUN NAKATOSA CHO","town":"ONOMI TOKORONO","perfecture_jp":"高知県","jp_add_1":"高岡郡中土佐町","jp_add_2":"大野見野老野"},"7891408":{"post_code":"7891408","prefecture":"KOCHI KEN","city":"TAKAOKA GUN NAKATOSA CHO","town":"ONOMI NAGANO","perfecture_jp":"高知県","jp_add_1":"高岡郡中土佐町","jp_add_2":"大野見長野"},"7891404":{"post_code":"7891404","prefecture":"KOCHI KEN","city":"TAKAOKA GUN NAKATOSA CHO","town":"ONOMI NARO","perfecture_jp":"高知県","jp_add_1":"高岡郡中土佐町","jp_add_2":"大野見奈路"},"7891417":{"post_code":"7891417","prefecture":"KOCHI KEN","city":"TAKAOKA GUN NAKATOSA CHO","town":"ONOMI HAGINAKA","perfecture_jp":"高知県","jp_add_1":"高岡郡中土佐町","jp_add_2":"大野見萩中"},"7891402":{"post_code":"7891402","prefecture":"KOCHI KEN","city":"TAKAOKA GUN NAKATOSA CHO","town":"ONOMI HASHIDANI","perfecture_jp":"高知県","jp_add_1":"高岡郡中土佐町","jp_add_2":"大野見橋谷"},"7891406":{"post_code":"7891406","prefecture":"KOCHI KEN","city":"TAKAOKA GUN NAKATOSA CHO","town":"ONOMI MAKINONO","perfecture_jp":"高知県","jp_add_1":"高岡郡中土佐町","jp_add_2":"大野見槇野々"},"7891407":{"post_code":"7891407","prefecture":"KOCHI KEN","city":"TAKAOKA GUN NAKATOSA CHO","town":"ONOMI MITSUMATA","perfecture_jp":"高知県","jp_add_1":"高岡郡中土佐町","jp_add_2":"大野見三ツ又"},"7891401":{"post_code":"7891401","prefecture":"KOCHI KEN","city":"TAKAOKA GUN NAKATOSA CHO","town":"ONOMI YOSHINO","perfecture_jp":"高知県","jp_add_1":"高岡郡中土佐町","jp_add_2":"大野見吉野"},"7891302":{"post_code":"7891302","prefecture":"KOCHI KEN","city":"TAKAOKA GUN NAKATOSA CHO","town":"KAMINOKAE","perfecture_jp":"高知県","jp_add_1":"高岡郡中土佐町","jp_add_2":"上ノ加江"},"7891301":{"post_code":"7891301","prefecture":"KOCHI KEN","city":"TAKAOKA GUN NAKATOSA CHO","town":"KURE","perfecture_jp":"高知県","jp_add_1":"高岡郡中土佐町","jp_add_2":"久礼"},"7891304":{"post_code":"7891304","prefecture":"KOCHI KEN","city":"TAKAOKA GUN NAKATOSA CHO","town":"YAIKAOTSU","perfecture_jp":"高知県","jp_add_1":"高岡郡中土佐町","jp_add_2":"矢井賀乙"},"7891303":{"post_code":"7891303","prefecture":"KOCHI KEN","city":"TAKAOKA GUN NAKATOSA CHO","town":"YAIKAKO","perfecture_jp":"高知県","jp_add_1":"高岡郡中土佐町","jp_add_2":"矢井賀甲"},"7891200":{"post_code":"7891200","prefecture":"KOCHI KEN","city":"TAKAOKA GUN SAKAWA CHO","town":"IKANIKEISAIGANAIBAAI","perfecture_jp":"高知県","jp_add_1":"高岡郡佐川町","jp_add_2":""},"7891217":{"post_code":"7891217","prefecture":"KOCHI KEN","city":"TAKAOKA GUN SAKAWA CHO","town":"OTAKAWA","perfecture_jp":"高知県","jp_add_1":"高岡郡佐川町","jp_add_2":"大田川"},"7891202":{"post_code":"7891202","prefecture":"KOCHI KEN","city":"TAKAOKA GUN SAKAWA CHO","town":"OTSU","perfecture_jp":"高知県","jp_add_1":"高岡郡佐川町","jp_add_2":"乙"},"7891204":{"post_code":"7891204","prefecture":"KOCHI KEN","city":"TAKAOKA GUN SAKAWA CHO","town":"KAMO","perfecture_jp":"高知県","jp_add_1":"高岡郡佐川町","jp_add_2":"加茂"},"7891235":{"post_code":"7891235","prefecture":"KOCHI KEN","city":"TAKAOKA GUN SAKAWA CHO","town":"KAWANOCHIGUMI","perfecture_jp":"高知県","jp_add_1":"高岡郡佐川町","jp_add_2":"川ノ内組"},"7891211":{"post_code":"7891211","prefecture":"KOCHI KEN","city":"TAKAOKA GUN SAKAWA CHO","town":"KUROHARA","perfecture_jp":"高知県","jp_add_1":"高岡郡佐川町","jp_add_2":"黒原"},"7891201":{"post_code":"7891201","prefecture":"KOCHI KEN","city":"TAKAOKA GUN SAKAWA CHO","town":"KO","perfecture_jp":"高知県","jp_add_1":"高岡郡佐川町","jp_add_2":"甲"},"7891216":{"post_code":"7891216","prefecture":"KOCHI KEN","city":"TAKAOKA GUN SAKAWA CHO","town":"SHODA","perfecture_jp":"高知県","jp_add_1":"高岡郡佐川町","jp_add_2":"庄田"},"7891215":{"post_code":"7891215","prefecture":"KOCHI KEN","city":"TAKAOKA GUN SAKAWA CHO","town":"ZUIO","perfecture_jp":"高知県","jp_add_1":"高岡郡佐川町","jp_add_2":"瑞応"},"7891233":{"post_code":"7891233","prefecture":"KOCHI KEN","city":"TAKAOKA GUN SAKAWA CHO","town":"NAKAGUMI","perfecture_jp":"高知県","jp_add_1":"高岡郡佐川町","jp_add_2":"中組"},"7891214":{"post_code":"7891214","prefecture":"KOCHI KEN","city":"TAKAOKA GUN SAKAWA CHO","town":"NAKANO","perfecture_jp":"高知県","jp_add_1":"高岡郡佐川町","jp_add_2":"中野"},"7891231":{"post_code":"7891231","prefecture":"KOCHI KEN","city":"TAKAOKA GUN SAKAWA CHO","town":"NAGANO","perfecture_jp":"高知県","jp_add_1":"高岡郡佐川町","jp_add_2":"永野"},"7891234":{"post_code":"7891234","prefecture":"KOCHI KEN","city":"TAKAOKA GUN SAKAWA CHO","town":"NISHIGUMI","perfecture_jp":"高知県","jp_add_1":"高岡郡佐川町","jp_add_2":"西組"},"7891222":{"post_code":"7891222","prefecture":"KOCHI KEN","city":"TAKAOKA GUN SAKAWA CHO","town":"NISHIYAMAGUMI","perfecture_jp":"高知県","jp_add_1":"高岡郡佐川町","jp_add_2":"西山組"},"7891223":{"post_code":"7891223","prefecture":"KOCHI KEN","city":"TAKAOKA GUN SAKAWA CHO","town":"NISHIYAMAKO","perfecture_jp":"高知県","jp_add_1":"高岡郡佐川町","jp_add_2":"西山耕"},"7891232":{"post_code":"7891232","prefecture":"KOCHI KEN","city":"TAKAOKA GUN SAKAWA CHO","town":"HIGASHIGUMI","perfecture_jp":"高知県","jp_add_1":"高岡郡佐川町","jp_add_2":"東組"},"7891218":{"post_code":"7891218","prefecture":"KOCHI KEN","city":"TAKAOKA GUN SAKAWA CHO","town":"HIRANO","perfecture_jp":"高知県","jp_add_1":"高岡郡佐川町","jp_add_2":"平野"},"7891213":{"post_code":"7891213","prefecture":"KOCHI KEN","city":"TAKAOKA GUN SAKAWA CHO","town":"FUTATSUNO","perfecture_jp":"高知県","jp_add_1":"高岡郡佐川町","jp_add_2":"二ツ野"},"7891224":{"post_code":"7891224","prefecture":"KOCHI KEN","city":"TAKAOKA GUN SAKAWA CHO","town":"FURUHATAKO","perfecture_jp":"高知県","jp_add_1":"高岡郡佐川町","jp_add_2":"古畑耕"},"7891203":{"post_code":"7891203","prefecture":"KOCHI KEN","city":"TAKAOKA GUN SAKAWA CHO","town":"HEI","perfecture_jp":"高知県","jp_add_1":"高岡郡佐川町","jp_add_2":"丙"},"7891221":{"post_code":"7891221","prefecture":"KOCHI KEN","city":"TAKAOKA GUN SAKAWA CHO","town":"HONGOKO","perfecture_jp":"高知県","jp_add_1":"高岡郡佐川町","jp_add_2":"本郷耕"},"7891225":{"post_code":"7891225","prefecture":"KOCHI KEN","city":"TAKAOKA GUN SAKAWA CHO","town":"MINEKO","perfecture_jp":"高知県","jp_add_1":"高岡郡佐川町","jp_add_2":"峰耕"},"7891205":{"post_code":"7891205","prefecture":"KOCHI KEN","city":"TAKAOKA GUN SAKAWA CHO","town":"MUROHARA","perfecture_jp":"高知県","jp_add_1":"高岡郡佐川町","jp_add_2":"室原"},"7891212":{"post_code":"7891212","prefecture":"KOCHI KEN","city":"TAKAOKA GUN SAKAWA CHO","town":"YOTSUJIRO","perfecture_jp":"高知県","jp_add_1":"高岡郡佐川町","jp_add_2":"四ツ白"},"7891900":{"post_code":"7891900","prefecture":"KOCHI KEN","city":"HATA GUN KUROSHIO CHO","town":"IKANIKEISAIGANAIBAAI","perfecture_jp":"高知県","jp_add_1":"幡多郡黒潮町","jp_add_2":""},"7891903":{"post_code":"7891903","prefecture":"KOCHI KEN","city":"HATA GUN KUROSHIO CHO","town":"ARIIGAWA","perfecture_jp":"高知県","jp_add_1":"幡多郡黒潮町","jp_add_2":"有井川"},"7891904":{"post_code":"7891904","prefecture":"KOCHI KEN","city":"HATA GUN KUROSHIO CHO","town":"IDA","perfecture_jp":"高知県","jp_add_1":"幡多郡黒潮町","jp_add_2":"伊田"},"7891701":{"post_code":"7891701","prefecture":"KOCHI KEN","city":"HATA GUN KUROSHIO CHO","town":"ICHINOSE","perfecture_jp":"高知県","jp_add_1":"幡多郡黒潮町","jp_add_2":"市野瀬"},"7891711":{"post_code":"7891711","prefecture":"KOCHI KEN","city":"HATA GUN KUROSHIO CHO","town":"ICHINONOGAWA","perfecture_jp":"高知県","jp_add_1":"幡多郡黒潮町","jp_add_2":"市野々川"},"7891934":{"post_code":"7891934","prefecture":"KOCHI KEN","city":"HATA GUN KUROSHIO CHO","town":"IDEGUCHI","perfecture_jp":"高知県","jp_add_1":"幡多郡黒潮町","jp_add_2":"出口"},"7891713":{"post_code":"7891713","prefecture":"KOCHI KEN","city":"HATA GUN KUROSHIO CHO","town":"IYOKI","perfecture_jp":"高知県","jp_add_1":"幡多郡黒潮町","jp_add_2":"伊与喜"},"7891931":{"post_code":"7891931","prefecture":"KOCHI KEN","city":"HATA GUN KUROSHIO CHO","town":"IRINO","perfecture_jp":"高知県","jp_add_1":"幡多郡黒潮町","jp_add_2":"入野"},"7891911":{"post_code":"7891911","prefecture":"KOCHI KEN","city":"HATA GUN KUROSHIO CHO","town":"UKIBUCHI","perfecture_jp":"高知県","jp_add_1":"幡多郡黒潮町","jp_add_2":"浮鞭"},"7891924":{"post_code":"7891924","prefecture":"KOCHI KEN","city":"HATA GUN KUROSHIO CHO","town":"UMANI","perfecture_jp":"高知県","jp_add_1":"幡多郡黒潮町","jp_add_2":"馬荷"},"7891923":{"post_code":"7891923","prefecture":"KOCHI KEN","city":"HATA GUN KUROSHIO CHO","town":"OIGAWA","perfecture_jp":"高知県","jp_add_1":"幡多郡黒潮町","jp_add_2":"大井川"},"7891925":{"post_code":"7891925","prefecture":"KOCHI KEN","city":"HATA GUN KUROSHIO CHO","town":"OGATATACHIBANAGAWA","perfecture_jp":"高知県","jp_add_1":"幡多郡黒潮町","jp_add_2":"大方橘川"},"7891913":{"post_code":"7891913","prefecture":"KOCHI KEN","city":"HATA GUN KUROSHIO CHO","town":"OKUMINATOGAWA","perfecture_jp":"高知県","jp_add_1":"幡多郡黒潮町","jp_add_2":"奥湊川"},"7891936":{"post_code":"7891936","prefecture":"KOCHI KEN","city":"HATA GUN KUROSHIO CHO","town":"OMBOBATA","perfecture_jp":"高知県","jp_add_1":"幡多郡黒潮町","jp_add_2":"御坊畑"},"7891705":{"post_code":"7891705","prefecture":"KOCHI KEN","city":"HATA GUN KUROSHIO CHO","town":"KAINA","perfecture_jp":"高知県","jp_add_1":"幡多郡黒潮町","jp_add_2":"荷稲"},"7891901":{"post_code":"7891901","prefecture":"KOCHI KEN","city":"HATA GUN KUROSHIO CHO","town":"KAMIKAWAGUCHI","perfecture_jp":"高知県","jp_add_1":"幡多郡黒潮町","jp_add_2":"上川口"},"7891935":{"post_code":"7891935","prefecture":"KOCHI KEN","city":"HATA GUN KUROSHIO CHO","town":"KAMITANOKUCHI","perfecture_jp":"高知県","jp_add_1":"幡多郡黒潮町","jp_add_2":"上田の口"},"7891921":{"post_code":"7891921","prefecture":"KOCHI KEN","city":"HATA GUN KUROSHIO CHO","town":"KAMOCHI","perfecture_jp":"高知県","jp_add_1":"幡多郡黒潮町","jp_add_2":"加持"},"7891922":{"post_code":"7891922","prefecture":"KOCHI KEN","city":"HATA GUN KUROSHIO CHO","town":"KAMOCHIGAWA","perfecture_jp":"高知県","jp_add_1":"幡多郡黒潮町","jp_add_2":"加持川"},"7891704":{"post_code":"7891704","prefecture":"KOCHI KEN","city":"HATA GUN KUROSHIO CHO","town":"KAWAOKU","perfecture_jp":"高知県","jp_add_1":"幡多郡黒潮町","jp_add_2":"川奥"},"7891912":{"post_code":"7891912","prefecture":"KOCHI KEN","city":"HATA GUN KUROSHIO CHO","town":"KUCHIMINATOGAWA","perfecture_jp":"高知県","jp_add_1":"幡多郡黒潮町","jp_add_2":"口湊川"},"7891715":{"post_code":"7891715","prefecture":"KOCHI KEN","city":"HATA GUN KUROSHIO CHO","town":"KUMAI","perfecture_jp":"高知県","jp_add_1":"幡多郡黒潮町","jp_add_2":"熊井"},"7891716":{"post_code":"7891716","prefecture":"KOCHI KEN","city":"HATA GUN KUROSHIO CHO","town":"KUMANORA","perfecture_jp":"高知県","jp_add_1":"幡多郡黒潮町","jp_add_2":"熊野浦"},"7891706":{"post_code":"7891706","prefecture":"KOCHI KEN","city":"HATA GUN KUROSHIO CHO","town":"KOGURONOKAWA","perfecture_jp":"高知県","jp_add_1":"幡多郡黒潮町","jp_add_2":"小黒ノ川"},"7891703":{"post_code":"7891703","prefecture":"KOCHI KEN","city":"HATA GUN KUROSHIO CHO","town":"KOBUSHINOKAWA","perfecture_jp":"高知県","jp_add_1":"幡多郡黒潮町","jp_add_2":"拳ノ川"},"7891723":{"post_code":"7891723","prefecture":"KOCHI KEN","city":"HATA GUN KUROSHIO CHO","town":"SAGA (UMAJI)","perfecture_jp":"高知県","jp_add_1":"幡多郡黒潮町","jp_add_2":"佐賀"},"7891722":{"post_code":"7891722","prefecture":"KOCHI KEN","city":"HATA GUN KUROSHIO CHO","town":"SAGA (SAKAORI)","perfecture_jp":"高知県","jp_add_1":"幡多郡黒潮町","jp_add_2":"佐賀"},"7891721":{"post_code":"7891721","prefecture":"KOCHI KEN","city":"HATA GUN KUROSHIO CHO","town":"SAGA (NAKAKADO)","perfecture_jp":"高知県","jp_add_1":"幡多郡黒潮町","jp_add_2":"佐賀"},"7891724":{"post_code":"7891724","prefecture":"KOCHI KEN","city":"HATA GUN KUROSHIO CHO","town":"SAGA (YOKOHAMA)","perfecture_jp":"高知県","jp_add_1":"幡多郡黒潮町","jp_add_2":"佐賀"},"7891720":{"post_code":"7891720","prefecture":"KOCHI KEN","city":"HATA GUN KUROSHIO CHO","town":"SAGA(SONOTA)","perfecture_jp":"高知県","jp_add_1":"幡多郡黒潮町","jp_add_2":"佐賀"},"7891702":{"post_code":"7891702","prefecture":"KOCHI KEN","city":"HATA GUN KUROSHIO CHO","town":"SAGATACHIBANAGAWA","perfecture_jp":"高知県","jp_add_1":"幡多郡黒潮町","jp_add_2":"佐賀橘川"},"7891932":{"post_code":"7891932","prefecture":"KOCHI KEN","city":"HATA GUN KUROSHIO CHO","town":"SHIMOTANOKUCHI","perfecture_jp":"高知県","jp_add_1":"幡多郡黒潮町","jp_add_2":"下田の口"},"7891725":{"post_code":"7891725","prefecture":"KOCHI KEN","city":"HATA GUN KUROSHIO CHO","town":"SHIRAHAMA","perfecture_jp":"高知県","jp_add_1":"幡多郡黒潮町","jp_add_2":"白浜"},"7891708":{"post_code":"7891708","prefecture":"KOCHI KEN","city":"HATA GUN KUROSHIO CHO","town":"SUZU","perfecture_jp":"高知県","jp_add_1":"幡多郡黒潮町","jp_add_2":"鈴"},"7891933":{"post_code":"7891933","prefecture":"KOCHI KEN","city":"HATA GUN KUROSHIO CHO","town":"TANORA","perfecture_jp":"高知県","jp_add_1":"幡多郡黒潮町","jp_add_2":"田野浦"},"7891707":{"post_code":"7891707","prefecture":"KOCHI KEN","city":"HATA GUN KUROSHIO CHO","town":"NAKANOKAWA","perfecture_jp":"高知県","jp_add_1":"幡多郡黒潮町","jp_add_2":"中ノ川"},"7891905":{"post_code":"7891905","prefecture":"KOCHI KEN","city":"HATA GUN KUROSHIO CHO","town":"NADA","perfecture_jp":"高知県","jp_add_1":"幡多郡黒潮町","jp_add_2":"灘"},"7891714":{"post_code":"7891714","prefecture":"KOCHI KEN","city":"HATA GUN KUROSHIO CHO","town":"FUJINAWA","perfecture_jp":"高知県","jp_add_1":"幡多郡黒潮町","jp_add_2":"藤縄"},"7891712":{"post_code":"7891712","prefecture":"KOCHI KEN","city":"HATA GUN KUROSHIO CHO","town":"FUBAHARA","perfecture_jp":"高知県","jp_add_1":"幡多郡黒潮町","jp_add_2":"不破原"},"7891902":{"post_code":"7891902","prefecture":"KOCHI KEN","city":"HATA GUN KUROSHIO CHO","town":"MINAGAWA","perfecture_jp":"高知県","jp_add_1":"幡多郡黒潮町","jp_add_2":"蜷川"}}