{"7900064":{"post_code":"7900064","prefecture":"EHIME KEN","city":"MATSUYAMA SHI","town":"AIKOCHO","perfecture_jp":"愛媛県","jp_add_1":"松山市","jp_add_2":"愛光町"},"7900876":{"post_code":"7900876","prefecture":"EHIME KEN","city":"MATSUYAMA SHI","town":"ASAHIMACHI","perfecture_jp":"愛媛県","jp_add_1":"松山市","jp_add_2":"旭町"},"7900952":{"post_code":"7900952","prefecture":"EHIME KEN","city":"MATSUYAMA SHI","town":"ASODAMACHI","perfecture_jp":"愛媛県","jp_add_1":"松山市","jp_add_2":"朝生田町"},"7900951":{"post_code":"7900951","prefecture":"EHIME KEN","city":"MATSUYAMA SHI","town":"AMAYAMAMACHI","perfecture_jp":"愛媛県","jp_add_1":"松山市","jp_add_2":"天山"},"7900934":{"post_code":"7900934","prefecture":"EHIME KEN","city":"MATSUYAMA SHI","town":"IAI","perfecture_jp":"愛媛県","jp_add_1":"松山市","jp_add_2":"居相"},"7900051":{"post_code":"7900051","prefecture":"EHIME KEN","city":"MATSUYAMA SHI","town":"IKUSHIMACHI","perfecture_jp":"愛媛県","jp_add_1":"松山市","jp_add_2":"生石町"},"7900852":{"post_code":"7900852","prefecture":"EHIME KEN","city":"MATSUYAMA SHI","town":"ISHITE","perfecture_jp":"愛媛県","jp_add_1":"松山市","jp_add_2":"石手"},"7900902":{"post_code":"7900902","prefecture":"EHIME KEN","city":"MATSUYAMA SHI","town":"ISHITESHIRAISHI","perfecture_jp":"愛媛県","jp_add_1":"松山市","jp_add_2":"石手白石"},"7900025":{"post_code":"7900025","prefecture":"EHIME KEN","city":"MATSUYAMA SHI","town":"IZUMIMACHI","perfecture_jp":"愛媛県","jp_add_1":"松山市","jp_add_2":"泉町"},"7900941":{"post_code":"7900941","prefecture":"EHIME KEN","city":"MATSUYAMA SHI","town":"IZUMIMINAMI","perfecture_jp":"愛媛県","jp_add_1":"松山市","jp_add_2":"和泉南"},"7900038":{"post_code":"7900038","prefecture":"EHIME KEN","city":"MATSUYAMA SHI","town":"IZUMIKITA","perfecture_jp":"愛媛県","jp_add_1":"松山市","jp_add_2":"和泉北"},"7900948":{"post_code":"7900948","prefecture":"EHIME KEN","city":"MATSUYAMA SHI","town":"ICHITSUBONISHIMACHI","perfecture_jp":"愛媛県","jp_add_1":"松山市","jp_add_2":"市坪西町"},"7900947":{"post_code":"7900947","prefecture":"EHIME KEN","city":"MATSUYAMA SHI","town":"ICHITSUBOMINAMI","perfecture_jp":"愛媛県","jp_add_1":"松山市","jp_add_2":"市坪南"},"7900946":{"post_code":"7900946","prefecture":"EHIME KEN","city":"MATSUYAMA SHI","town":"ICHITSUBOKITA","perfecture_jp":"愛媛県","jp_add_1":"松山市","jp_add_2":"市坪北"},"7900001":{"post_code":"7900001","prefecture":"EHIME KEN","city":"MATSUYAMA SHI","town":"ICHIBANCHO","perfecture_jp":"愛媛県","jp_add_1":"松山市","jp_add_2":"一番町"},"7900833":{"post_code":"7900833","prefecture":"EHIME KEN","city":"MATSUYAMA SHI","town":"IWAIDANI","perfecture_jp":"愛媛県","jp_add_1":"松山市","jp_add_2":"祝谷"},"7900835":{"post_code":"7900835","prefecture":"EHIME KEN","city":"MATSUYAMA SHI","town":"IWAIDANIHIGASHIMACHI","perfecture_jp":"愛媛県","jp_add_1":"松山市","jp_add_2":"祝谷東町"},"7900832":{"post_code":"7900832","prefecture":"EHIME KEN","city":"MATSUYAMA SHI","town":"IWAIDANINISHIMACHI","perfecture_jp":"愛媛県","jp_add_1":"松山市","jp_add_2":"祝谷西町"},"7900834":{"post_code":"7900834","prefecture":"EHIME KEN","city":"MATSUYAMA SHI","town":"IWAIDANIMACHI","perfecture_jp":"愛媛県","jp_add_1":"松山市","jp_add_2":"祝谷町"},"7900854":{"post_code":"7900854","prefecture":"EHIME KEN","city":"MATSUYAMA SHI","town":"IWASAKIMACHI","perfecture_jp":"愛媛県","jp_add_1":"松山市","jp_add_2":"岩崎町"},"7900022":{"post_code":"7900022","prefecture":"EHIME KEN","city":"MATSUYAMA SHI","town":"EIDAIMACHI","perfecture_jp":"愛媛県","jp_add_1":"松山市","jp_add_2":"永代町"},"7900962":{"post_code":"7900962","prefecture":"EHIME KEN","city":"MATSUYAMA SHI","town":"EDAMATSU","perfecture_jp":"愛媛県","jp_add_1":"松山市","jp_add_2":"枝松"},"7900004":{"post_code":"7900004","prefecture":"EHIME KEN","city":"MATSUYAMA SHI","town":"OKAIDO","perfecture_jp":"愛媛県","jp_add_1":"松山市","jp_add_2":"大街道"},"7900067":{"post_code":"7900067","prefecture":"EHIME KEN","city":"MATSUYAMA SHI","town":"OTEMACHI","perfecture_jp":"愛媛県","jp_add_1":"松山市","jp_add_2":"大手町"},"7900036":{"post_code":"7900036","prefecture":"EHIME KEN","city":"MATSUYAMA SHI","town":"OGURI","perfecture_jp":"愛媛県","jp_add_1":"松山市","jp_add_2":"小栗"},"7900037":{"post_code":"7900037","prefecture":"EHIME KEN","city":"MATSUYAMA SHI","town":"OGURIMACHI","perfecture_jp":"愛媛県","jp_add_1":"松山市","jp_add_2":"小栗町"},"7900933":{"post_code":"7900933","prefecture":"EHIME KEN","city":"MATSUYAMA SHI","town":"OCHI","perfecture_jp":"愛媛県","jp_add_1":"松山市","jp_add_2":"越智"},"7900024":{"post_code":"7900024","prefecture":"EHIME KEN","city":"MATSUYAMA SHI","town":"KASUGAMACHI","perfecture_jp":"愛媛県","jp_add_1":"松山市","jp_add_2":"春日町"},"7900801":{"post_code":"7900801","prefecture":"EHIME KEN","city":"MATSUYAMA SHI","town":"KACHIMACHI","perfecture_jp":"愛媛県","jp_add_1":"松山市","jp_add_2":"歩行町"},"7900878":{"post_code":"7900878","prefecture":"EHIME KEN","city":"MATSUYAMA SHI","town":"KATSUYAMACHO","perfecture_jp":"愛媛県","jp_add_1":"松山市","jp_add_2":"勝山町"},"7900853":{"post_code":"7900853","prefecture":"EHIME KEN","city":"MATSUYAMA SHI","town":"KAMIICHI","perfecture_jp":"愛媛県","jp_add_1":"松山市","jp_add_2":"上市"},"7900813":{"post_code":"7900813","prefecture":"EHIME KEN","city":"MATSUYAMA SHI","town":"KAYAMACHI","perfecture_jp":"愛媛県","jp_add_1":"松山市","jp_add_2":"萱町"},"7900013":{"post_code":"7900013","prefecture":"EHIME KEN","city":"MATSUYAMA SHI","town":"KAWARAMACHI","perfecture_jp":"愛媛県","jp_add_1":"松山市","jp_add_2":"河原町"},"7900965":{"post_code":"7900965","prefecture":"EHIME KEN","city":"MATSUYAMA SHI","town":"GIOMMACHI","perfecture_jp":"愛媛県","jp_add_1":"松山市","jp_add_2":"祇園町"},"7900923":{"post_code":"7900923","prefecture":"EHIME KEN","city":"MATSUYAMA SHI","town":"KITAKUMEMACHI","perfecture_jp":"愛媛県","jp_add_1":"松山市","jp_add_2":"北久米町"},"7900867":{"post_code":"7900867","prefecture":"EHIME KEN","city":"MATSUYAMA SHI","town":"KITATACHIBANAMACHI","perfecture_jp":"愛媛県","jp_add_1":"松山市","jp_add_2":"北立花町"},"7900033":{"post_code":"7900033","prefecture":"EHIME KEN","city":"MATSUYAMA SHI","town":"KITAFUJIWARAMACHI","perfecture_jp":"愛媛県","jp_add_1":"松山市","jp_add_2":"北藤原町"},"7900873":{"post_code":"7900873","prefecture":"EHIME KEN","city":"MATSUYAMA SHI","town":"KITAMOCHIDAMACHI","perfecture_jp":"愛媛県","jp_add_1":"松山市","jp_add_2":"北持田町"},"7900821":{"post_code":"7900821","prefecture":"EHIME KEN","city":"MATSUYAMA SHI","town":"KIYACHO","perfecture_jp":"愛媛県","jp_add_1":"松山市","jp_add_2":"木屋町"},"7900802":{"post_code":"7900802","prefecture":"EHIME KEN","city":"MATSUYAMA SHI","town":"KIYOMACHI","perfecture_jp":"愛媛県","jp_add_1":"松山市","jp_add_2":"喜与町"},"7900054":{"post_code":"7900054","prefecture":"EHIME KEN","city":"MATSUYAMA SHI","town":"KUKODORI(1.2-CHOME)","perfecture_jp":"愛媛県","jp_add_1":"松山市","jp_add_2":"空港通"},"7900911":{"post_code":"7900911","prefecture":"EHIME KEN","city":"MATSUYAMA SHI","town":"KUWABARA","perfecture_jp":"愛媛県","jp_add_1":"松山市","jp_add_2":"桑原"},"7900963":{"post_code":"7900963","prefecture":"EHIME KEN","city":"MATSUYAMA SHI","town":"KOSAKA","perfecture_jp":"愛媛県","jp_add_1":"松山市","jp_add_2":"小坂"},"7900863":{"post_code":"7900863","prefecture":"EHIME KEN","city":"MATSUYAMA SHI","town":"KONOHANAMACHI","perfecture_jp":"愛媛県","jp_add_1":"松山市","jp_add_2":"此花町"},"7900838":{"post_code":"7900838","prefecture":"EHIME KEN","city":"MATSUYAMA SHI","town":"SAKURADANICHO","perfecture_jp":"愛媛県","jp_add_1":"松山市","jp_add_2":"桜谷町"},"7900914":{"post_code":"7900914","prefecture":"EHIME KEN","city":"MATSUYAMA SHI","town":"SANCHO","perfecture_jp":"愛媛県","jp_add_1":"松山市","jp_add_2":"三町"},"7900003":{"post_code":"7900003","prefecture":"EHIME KEN","city":"MATSUYAMA SHI","town":"SAMBANCHO","perfecture_jp":"愛媛県","jp_add_1":"松山市","jp_add_2":"三番町"},"7900803":{"post_code":"7900803","prefecture":"EHIME KEN","city":"MATSUYAMA SHI","town":"SHINONOMECHO","perfecture_jp":"愛媛県","jp_add_1":"松山市","jp_add_2":"東雲町"},"7900823":{"post_code":"7900823","prefecture":"EHIME KEN","city":"MATSUYAMA SHI","town":"SHIMIZUMACHI","perfecture_jp":"愛媛県","jp_add_1":"松山市","jp_add_2":"清水町"},"7900904":{"post_code":"7900904","prefecture":"EHIME KEN","city":"MATSUYAMA SHI","town":"SHOENJI","perfecture_jp":"愛媛県","jp_add_1":"松山市","jp_add_2":"正円寺"},"7900851":{"post_code":"7900851","prefecture":"EHIME KEN","city":"MATSUYAMA SHI","town":"JOKOJICHO","perfecture_jp":"愛媛県","jp_add_1":"松山市","jp_add_2":"常光寺町"},"7900872":{"post_code":"7900872","prefecture":"EHIME KEN","city":"MATSUYAMA SHI","town":"SHOWAMACHI","perfecture_jp":"愛媛県","jp_add_1":"松山市","jp_add_2":"昭和町"},"7900901":{"post_code":"7900901","prefecture":"EHIME KEN","city":"MATSUYAMA SHI","town":"SHINISHITE","perfecture_jp":"愛媛県","jp_add_1":"松山市","jp_add_2":"新石手"},"7900865":{"post_code":"7900865","prefecture":"EHIME KEN","city":"MATSUYAMA SHI","town":"SHINDATEMACHI","perfecture_jp":"愛媛県","jp_add_1":"松山市","jp_add_2":"新立町"},"7900023":{"post_code":"7900023","prefecture":"EHIME KEN","city":"MATSUYAMA SHI","town":"SUEHIROMACHI","perfecture_jp":"愛媛県","jp_add_1":"松山市","jp_add_2":"末広町"},"7900822":{"post_code":"7900822","prefecture":"EHIME KEN","city":"MATSUYAMA SHI","town":"TAKASAGOMACHI","perfecture_jp":"愛媛県","jp_add_1":"松山市","jp_add_2":"高砂町"},"7900925":{"post_code":"7900925","prefecture":"EHIME KEN","city":"MATSUYAMA SHI","town":"TAKANOKOMACHI","perfecture_jp":"愛媛県","jp_add_1":"松山市","jp_add_2":"鷹子町"},"7900967":{"post_code":"7900967","prefecture":"EHIME KEN","city":"MATSUYAMA SHI","town":"TAKUSENCHO","perfecture_jp":"愛媛県","jp_add_1":"松山市","jp_add_2":"拓川町"},"7900053":{"post_code":"7900053","prefecture":"EHIME KEN","city":"MATSUYAMA SHI","town":"TAKEWARA","perfecture_jp":"愛媛県","jp_add_1":"松山市","jp_add_2":"竹原"},"7900052":{"post_code":"7900052","prefecture":"EHIME KEN","city":"MATSUYAMA SHI","town":"TAKEWARAMACHI","perfecture_jp":"愛媛県","jp_add_1":"松山市","jp_add_2":"竹原町"},"7900966":{"post_code":"7900966","prefecture":"EHIME KEN","city":"MATSUYAMA SHI","town":"TACHIBANA","perfecture_jp":"愛媛県","jp_add_1":"松山市","jp_add_2":"立花"},"7900905":{"post_code":"7900905","prefecture":"EHIME KEN","city":"MATSUYAMA SHI","town":"TARUMI","perfecture_jp":"愛媛県","jp_add_1":"松山市","jp_add_2":"樽味"},"7900011":{"post_code":"7900011","prefecture":"EHIME KEN","city":"MATSUYAMA SHI","town":"CHIFUNEMACHI","perfecture_jp":"愛媛県","jp_add_1":"松山市","jp_add_2":"千舟町"},"7900916":{"post_code":"7900916","prefecture":"EHIME KEN","city":"MATSUYAMA SHI","town":"TSUKAMOTO","perfecture_jp":"愛媛県","jp_add_1":"松山市","jp_add_2":"束本"},"7900864":{"post_code":"7900864","prefecture":"EHIME KEN","city":"MATSUYAMA SHI","town":"TSUKIYAMACHO","perfecture_jp":"愛媛県","jp_add_1":"松山市","jp_add_2":"築山町"},"7900063":{"post_code":"7900063","prefecture":"EHIME KEN","city":"MATSUYAMA SHI","town":"TSUJIMACHI","perfecture_jp":"愛媛県","jp_add_1":"松山市","jp_add_2":"辻町"},"7900048":{"post_code":"7900048","prefecture":"EHIME KEN","city":"MATSUYAMA SHI","town":"DEAI","perfecture_jp":"愛媛県","jp_add_1":"松山市","jp_add_2":"出合"},"7900827":{"post_code":"7900827","prefecture":"EHIME KEN","city":"MATSUYAMA SHI","town":"TEPPOCHO","perfecture_jp":"愛媛県","jp_add_1":"松山市","jp_add_2":"鉄砲町"},"7900056":{"post_code":"7900056","prefecture":"EHIME KEN","city":"MATSUYAMA SHI","town":"DOIDAMACHI","perfecture_jp":"愛媛県","jp_add_1":"松山市","jp_add_2":"土居田町"},"7900844":{"post_code":"7900844","prefecture":"EHIME KEN","city":"MATSUYAMA SHI","town":"DOGOICHIMAN","perfecture_jp":"愛媛県","jp_add_1":"松山市","jp_add_2":"道後一万"},"7900845":{"post_code":"7900845","prefecture":"EHIME KEN","city":"MATSUYAMA SHI","town":"DOGOIMAICHI","perfecture_jp":"愛媛県","jp_add_1":"松山市","jp_add_2":"道後今市"},"7900846":{"post_code":"7900846","prefecture":"EHIME KEN","city":"MATSUYAMA SHI","town":"DOGOKITASHIRO","perfecture_jp":"愛媛県","jp_add_1":"松山市","jp_add_2":"道後北代"},"7900848":{"post_code":"7900848","prefecture":"EHIME KEN","city":"MATSUYAMA SHI","town":"DOGOKITAMACHI","perfecture_jp":"愛媛県","jp_add_1":"松山市","jp_add_2":"道後喜多町"},"7900857":{"post_code":"7900857","prefecture":"EHIME KEN","city":"MATSUYAMA SHI","town":"DOGOKOEN","perfecture_jp":"愛媛県","jp_add_1":"松山市","jp_add_2":"道後公園"},"7900836":{"post_code":"7900836","prefecture":"EHIME KEN","city":"MATSUYAMA SHI","town":"DOGOSAGIDANICHO","perfecture_jp":"愛媛県","jp_add_1":"松山市","jp_add_2":"道後鷺谷町"},"7900841":{"post_code":"7900841","prefecture":"EHIME KEN","city":"MATSUYAMA SHI","town":"DOGOTAKOCHO","perfecture_jp":"愛媛県","jp_add_1":"松山市","jp_add_2":"道後多幸町"},"7900825":{"post_code":"7900825","prefecture":"EHIME KEN","city":"MATSUYAMA SHI","town":"DOGOHIMATA","perfecture_jp":"愛媛県","jp_add_1":"松山市","jp_add_2":"道後樋又"},"7900858":{"post_code":"7900858","prefecture":"EHIME KEN","city":"MATSUYAMA SHI","town":"DOGOHIMEZUKA","perfecture_jp":"愛媛県","jp_add_1":"松山市","jp_add_2":"道後姫塚"},"7900847":{"post_code":"7900847","prefecture":"EHIME KEN","city":"MATSUYAMA SHI","town":"DOGOMIDORIDAI","perfecture_jp":"愛媛県","jp_add_1":"松山市","jp_add_2":"道後緑台"},"7900837":{"post_code":"7900837","prefecture":"EHIME KEN","city":"MATSUYAMA SHI","town":"DOGOYUZUKICHO","perfecture_jp":"愛媛県","jp_add_1":"松山市","jp_add_2":"道後湯月町"},"7900842":{"post_code":"7900842","prefecture":"EHIME KEN","city":"MATSUYAMA SHI","town":"DOGOYUNOMACHI","perfecture_jp":"愛媛県","jp_add_1":"松山市","jp_add_2":"道後湯之町"},"7900843":{"post_code":"7900843","prefecture":"EHIME KEN","city":"MATSUYAMA SHI","town":"DOGOMACHI(1.2-CHOME)","perfecture_jp":"愛媛県","jp_add_1":"松山市","jp_add_2":"道後町"},"7900032":{"post_code":"7900032","prefecture":"EHIME KEN","city":"MATSUYAMA SHI","town":"DOBASHIMACHI","perfecture_jp":"愛媛県","jp_add_1":"松山市","jp_add_2":"土橋町"},"7900804":{"post_code":"7900804","prefecture":"EHIME KEN","city":"MATSUYAMA SHI","town":"NAKAICHIMAMMACHI","perfecture_jp":"愛媛県","jp_add_1":"松山市","jp_add_2":"中一万町"},"7900964":{"post_code":"7900964","prefecture":"EHIME KEN","city":"MATSUYAMA SHI","town":"NAKAMURA","perfecture_jp":"愛媛県","jp_add_1":"松山市","jp_add_2":"中村"},"7900866":{"post_code":"7900866","prefecture":"EHIME KEN","city":"MATSUYAMA SHI","town":"NAGAKIMACHI","perfecture_jp":"愛媛県","jp_add_1":"松山市","jp_add_2":"永木町"},"7900931":{"post_code":"7900931","prefecture":"EHIME KEN","city":"MATSUYAMA SHI","town":"NISHIISHII","perfecture_jp":"愛媛県","jp_add_1":"松山市","jp_add_2":"西石井"},"7900805":{"post_code":"7900805","prefecture":"EHIME KEN","city":"MATSUYAMA SHI","town":"NISHIICHIMAMMACHI","perfecture_jp":"愛媛県","jp_add_1":"松山市","jp_add_2":"西一万町"},"7900877":{"post_code":"7900877","prefecture":"EHIME KEN","city":"MATSUYAMA SHI","town":"NISHIKIMACHI","perfecture_jp":"愛媛県","jp_add_1":"松山市","jp_add_2":"錦町"},"7900002":{"post_code":"7900002","prefecture":"EHIME KEN","city":"MATSUYAMA SHI","town":"NIBANCHO","perfecture_jp":"愛媛県","jp_add_1":"松山市","jp_add_2":"二番町"},"7900913":{"post_code":"7900913","prefecture":"EHIME KEN","city":"MATSUYAMA SHI","town":"HATADERA","perfecture_jp":"愛媛県","jp_add_1":"松山市","jp_add_2":"畑寺"},"7900912":{"post_code":"7900912","prefecture":"EHIME KEN","city":"MATSUYAMA SHI","town":"HATADERAMACHI","perfecture_jp":"愛媛県","jp_add_1":"松山市","jp_add_2":"畑寺町"},"7900005":{"post_code":"7900005","prefecture":"EHIME KEN","city":"MATSUYAMA SHI","town":"HANAZONOMACHI","perfecture_jp":"愛媛県","jp_add_1":"松山市","jp_add_2":"花園町"},"7900055":{"post_code":"7900055","prefecture":"EHIME KEN","city":"MATSUYAMA SHI","town":"HARITAMACHI","perfecture_jp":"愛媛県","jp_add_1":"松山市","jp_add_2":"針田町"},"7900932":{"post_code":"7900932","prefecture":"EHIME KEN","city":"MATSUYAMA SHI","town":"HIGASHIISHII","perfecture_jp":"愛媛県","jp_add_1":"松山市","jp_add_2":"東石井"},"7900871":{"post_code":"7900871","prefecture":"EHIME KEN","city":"MATSUYAMA SHI","town":"HIGASHIICHIMAMMACHI","perfecture_jp":"愛媛県","jp_add_1":"松山市","jp_add_2":"東一万町"},"7900903":{"post_code":"7900903","prefecture":"EHIME KEN","city":"MATSUYAMA SHI","town":"HIGASHINO","perfecture_jp":"愛媛県","jp_add_1":"松山市","jp_add_2":"東野"},"7900961":{"post_code":"7900961","prefecture":"EHIME KEN","city":"MATSUYAMA SHI","town":"HINODEMACHI","perfecture_jp":"愛媛県","jp_add_1":"松山市","jp_add_2":"日の出町"},"7900921":{"post_code":"7900921","prefecture":"EHIME KEN","city":"MATSUYAMA SHI","town":"FUKUONJIMACHI","perfecture_jp":"愛媛県","jp_add_1":"松山市","jp_add_2":"福音寺町"},"7900035":{"post_code":"7900035","prefecture":"EHIME KEN","city":"MATSUYAMA SHI","town":"FUJIWARA","perfecture_jp":"愛媛県","jp_add_1":"松山市","jp_add_2":"藤原"},"7900034":{"post_code":"7900034","prefecture":"EHIME KEN","city":"MATSUYAMA SHI","town":"FUJIWARAMACHI","perfecture_jp":"愛媛県","jp_add_1":"松山市","jp_add_2":"藤原町"},"7900945":{"post_code":"7900945","prefecture":"EHIME KEN","city":"MATSUYAMA SHI","town":"FURUKAWAMACHI","perfecture_jp":"愛媛県","jp_add_1":"松山市","jp_add_2":"古川町"},"7900944":{"post_code":"7900944","prefecture":"EHIME KEN","city":"MATSUYAMA SHI","town":"FURUKAWANISHI","perfecture_jp":"愛媛県","jp_add_1":"松山市","jp_add_2":"古川西"},"7900943":{"post_code":"7900943","prefecture":"EHIME KEN","city":"MATSUYAMA SHI","town":"FURUKAWAMINAMI","perfecture_jp":"愛媛県","jp_add_1":"松山市","jp_add_2":"古川南"},"7900942":{"post_code":"7900942","prefecture":"EHIME KEN","city":"MATSUYAMA SHI","town":"FURUKAWAKITA","perfecture_jp":"愛媛県","jp_add_1":"松山市","jp_add_2":"古川北"},"7900826":{"post_code":"7900826","prefecture":"EHIME KEN","city":"MATSUYAMA SHI","town":"BUNKYOCHO","perfecture_jp":"愛媛県","jp_add_1":"松山市","jp_add_2":"文京町"},"7900807":{"post_code":"7900807","prefecture":"EHIME KEN","city":"MATSUYAMA SHI","town":"HEIWADORI","perfecture_jp":"愛媛県","jp_add_1":"松山市","jp_add_2":"平和通"},"7900041":{"post_code":"7900041","prefecture":"EHIME KEN","city":"MATSUYAMA SHI","town":"HOMENKAMI","perfecture_jp":"愛媛県","jp_add_1":"松山市","jp_add_2":"保免上"},"7900042":{"post_code":"7900042","prefecture":"EHIME KEN","city":"MATSUYAMA SHI","town":"HOMENNAKA","perfecture_jp":"愛媛県","jp_add_1":"松山市","jp_add_2":"保免中"},"7900043":{"post_code":"7900043","prefecture":"EHIME KEN","city":"MATSUYAMA SHI","town":"HOMENNISHI","perfecture_jp":"愛媛県","jp_add_1":"松山市","jp_add_2":"保免西"},"7900922":{"post_code":"7900922","prefecture":"EHIME KEN","city":"MATSUYAMA SHI","town":"HOSHIOKAMACHI","perfecture_jp":"愛媛県","jp_add_1":"松山市","jp_add_2":"星岡"},"7900007":{"post_code":"7900007","prefecture":"EHIME KEN","city":"MATSUYAMA SHI","town":"HORINOCHI","perfecture_jp":"愛媛県","jp_add_1":"松山市","jp_add_2":"堀之内"},"7900811":{"post_code":"7900811","prefecture":"EHIME KEN","city":"MATSUYAMA SHI","town":"HOMMACHI","perfecture_jp":"愛媛県","jp_add_1":"松山市","jp_add_2":"本町"},"7900812":{"post_code":"7900812","prefecture":"EHIME KEN","city":"MATSUYAMA SHI","town":"MASAKIMACHI","perfecture_jp":"愛媛県","jp_add_1":"松山市","jp_add_2":"松前町"},"7900021":{"post_code":"7900021","prefecture":"EHIME KEN","city":"MATSUYAMA SHI","town":"MASAGOCHO","perfecture_jp":"愛媛県","jp_add_1":"松山市","jp_add_2":"真砂町"},"7900915":{"post_code":"7900915","prefecture":"EHIME KEN","city":"MATSUYAMA SHI","town":"MATSUSUE","perfecture_jp":"愛媛県","jp_add_1":"松山市","jp_add_2":"松末"},"7900008":{"post_code":"7900008","prefecture":"EHIME KEN","city":"MATSUYAMA SHI","town":"MARUNOCHI","perfecture_jp":"愛媛県","jp_add_1":"松山市","jp_add_2":"丸之内"},"7900814":{"post_code":"7900814","prefecture":"EHIME KEN","city":"MATSUYAMA SHI","town":"MISAKEMACHI","perfecture_jp":"愛媛県","jp_add_1":"松山市","jp_add_2":"味酒町"},"7900875":{"post_code":"7900875","prefecture":"EHIME KEN","city":"MATSUYAMA SHI","town":"MITAKARAMACHI","perfecture_jp":"愛媛県","jp_add_1":"松山市","jp_add_2":"御宝町"},"7900806":{"post_code":"7900806","prefecture":"EHIME KEN","city":"MATSUYAMA SHI","town":"MIDORIMACHI","perfecture_jp":"愛媛県","jp_add_1":"松山市","jp_add_2":"緑町"},"7900012":{"post_code":"7900012","prefecture":"EHIME KEN","city":"MATSUYAMA SHI","town":"MINATOMACHI","perfecture_jp":"愛媛県","jp_add_1":"松山市","jp_add_2":"湊町"},"7900062":{"post_code":"7900062","prefecture":"EHIME KEN","city":"MATSUYAMA SHI","town":"MINAMIEDO","perfecture_jp":"愛媛県","jp_add_1":"松山市","jp_add_2":"南江戸"},"7900061":{"post_code":"7900061","prefecture":"EHIME KEN","city":"MATSUYAMA SHI","town":"MINAMIEDOMACHI","perfecture_jp":"愛媛県","jp_add_1":"松山市","jp_add_2":"南江戸町"},"7900924":{"post_code":"7900924","prefecture":"EHIME KEN","city":"MATSUYAMA SHI","town":"MINAMIKUMEMACHI","perfecture_jp":"愛媛県","jp_add_1":"松山市","jp_add_2":"南久米町"},"7900006":{"post_code":"7900006","prefecture":"EHIME KEN","city":"MATSUYAMA SHI","town":"MINAMIHORIBATACHO","perfecture_jp":"愛媛県","jp_add_1":"松山市","jp_add_2":"南堀端町"},"7900856":{"post_code":"7900856","prefecture":"EHIME KEN","city":"MATSUYAMA SHI","town":"MINAMIMACHI","perfecture_jp":"愛媛県","jp_add_1":"松山市","jp_add_2":"南町"},"7900874":{"post_code":"7900874","prefecture":"EHIME KEN","city":"MATSUYAMA SHI","town":"MINAMIMOCHIDAMACHI","perfecture_jp":"愛媛県","jp_add_1":"松山市","jp_add_2":"南持田町"},"7900066":{"post_code":"7900066","prefecture":"EHIME KEN","city":"MATSUYAMA SHI","town":"MIYATAMACHI","perfecture_jp":"愛媛県","jp_add_1":"松山市","jp_add_2":"宮田町"},"7900065":{"post_code":"7900065","prefecture":"EHIME KEN","city":"MATSUYAMA SHI","town":"MIYANISHI","perfecture_jp":"愛媛県","jp_add_1":"松山市","jp_add_2":"宮西"},"7900824":{"post_code":"7900824","prefecture":"EHIME KEN","city":"MATSUYAMA SHI","town":"MIYUKI","perfecture_jp":"愛媛県","jp_add_1":"松山市","jp_add_2":"御幸"},"7900026":{"post_code":"7900026","prefecture":"EHIME KEN","city":"MATSUYAMA SHI","town":"MUROMACHI","perfecture_jp":"愛媛県","jp_add_1":"松山市","jp_add_2":"室町"},"7900855":{"post_code":"7900855","prefecture":"EHIME KEN","city":"MATSUYAMA SHI","town":"MOCHIDAMACHI","perfecture_jp":"愛媛県","jp_add_1":"松山市","jp_add_2":"持田町"},"7900861":{"post_code":"7900861","prefecture":"EHIME KEN","city":"MATSUYAMA SHI","town":"MOMIJIMACHI","perfecture_jp":"愛媛県","jp_add_1":"松山市","jp_add_2":"紅葉町"},"7900014":{"post_code":"7900014","prefecture":"EHIME KEN","city":"MATSUYAMA SHI","town":"YANAIMACHI","perfecture_jp":"愛媛県","jp_add_1":"松山市","jp_add_2":"柳井町"},"7900831":{"post_code":"7900831","prefecture":"EHIME KEN","city":"MATSUYAMA SHI","town":"YAMADACHO","perfecture_jp":"愛媛県","jp_add_1":"松山市","jp_add_2":"山田町"},"7900031":{"post_code":"7900031","prefecture":"EHIME KEN","city":"MATSUYAMA SHI","town":"YUGUN","perfecture_jp":"愛媛県","jp_add_1":"松山市","jp_add_2":"雄郡"},"7900862":{"post_code":"7900862","prefecture":"EHIME KEN","city":"MATSUYAMA SHI","town":"YUWATARIMACHI","perfecture_jp":"愛媛県","jp_add_1":"松山市","jp_add_2":"湯渡町"},"7900045":{"post_code":"7900045","prefecture":"EHIME KEN","city":"MATSUYAMA SHI","town":"YOGONAKA","perfecture_jp":"愛媛県","jp_add_1":"松山市","jp_add_2":"余戸中"},"7900044":{"post_code":"7900044","prefecture":"EHIME KEN","city":"MATSUYAMA SHI","town":"YOGOHIGASHI","perfecture_jp":"愛媛県","jp_add_1":"松山市","jp_add_2":"余戸東"},"7900046":{"post_code":"7900046","prefecture":"EHIME KEN","city":"MATSUYAMA SHI","town":"YOGONISHI","perfecture_jp":"愛媛県","jp_add_1":"松山市","jp_add_2":"余戸西"},"7900047":{"post_code":"7900047","prefecture":"EHIME KEN","city":"MATSUYAMA SHI","town":"YOGOMINAMI","perfecture_jp":"愛媛県","jp_add_1":"松山市","jp_add_2":"余戸南"},"7900808":{"post_code":"7900808","prefecture":"EHIME KEN","city":"MATSUYAMA SHI","town":"WAKAKUSACHO","perfecture_jp":"愛媛県","jp_add_1":"松山市","jp_add_2":"若草町"}}