{"7910000":{"post_code":"7910000","prefecture":"EHIME KEN","city":"MATSUYAMA SHI","town":"IKANIKEISAIGANAIBAAI","perfecture_jp":"愛媛県","jp_add_1":"松山市","jp_add_2":""},"7918076":{"post_code":"7918076","prefecture":"EHIME KEN","city":"MATSUYAMA SHI","town":"AIZUMACHI","perfecture_jp":"愛媛県","jp_add_1":"松山市","jp_add_2":"会津町"},"7910124":{"post_code":"7910124","prefecture":"EHIME KEN","city":"MATSUYAMA SHI","town":"AONAMIMACHI","perfecture_jp":"愛媛県","jp_add_1":"松山市","jp_add_2":"青波町"},"7918019":{"post_code":"7918019","prefecture":"EHIME KEN","city":"MATSUYAMA SHI","town":"AOBADAI","perfecture_jp":"愛媛県","jp_add_1":"松山市","jp_add_2":"青葉台"},"7918024":{"post_code":"7918024","prefecture":"EHIME KEN","city":"MATSUYAMA SHI","town":"ASAHIGAOKA","perfecture_jp":"愛媛県","jp_add_1":"松山市","jp_add_2":"朝日ケ丘"},"7918023":{"post_code":"7918023","prefecture":"EHIME KEN","city":"MATSUYAMA SHI","town":"ASAMI","perfecture_jp":"愛媛県","jp_add_1":"松山市","jp_add_2":"朝美"},"7918006":{"post_code":"7918006","prefecture":"EHIME KEN","city":"MATSUYAMA SHI","town":"ANJOJIMACHI","perfecture_jp":"愛媛県","jp_add_1":"松山市","jp_add_2":"安城寺町"},"7918084":{"post_code":"7918084","prefecture":"EHIME KEN","city":"MATSUYAMA SHI","town":"ISHIFUROMACHI","perfecture_jp":"愛媛県","jp_add_1":"松山市","jp_add_2":"石風呂町"},"7911114":{"post_code":"7911114","prefecture":"EHIME KEN","city":"MATSUYAMA SHI","town":"IDOMACHI","perfecture_jp":"愛媛県","jp_add_1":"松山市","jp_add_2":"井門町"},"7911106":{"post_code":"7911106","prefecture":"EHIME KEN","city":"MATSUYAMA SHI","town":"IMAZAIKE","perfecture_jp":"愛媛県","jp_add_1":"松山市","jp_add_2":"今在家"},"7911103":{"post_code":"7911103","prefecture":"EHIME KEN","city":"MATSUYAMA SHI","town":"IMAZAIKEMACHI","perfecture_jp":"愛媛県","jp_add_1":"松山市","jp_add_2":"今在家町"},"7911136":{"post_code":"7911136","prefecture":"EHIME KEN","city":"MATSUYAMA SHI","town":"UENOMACHI","perfecture_jp":"愛媛県","jp_add_1":"松山市","jp_add_2":"上野町"},"7918077":{"post_code":"7918077","prefecture":"EHIME KEN","city":"MATSUYAMA SHI","town":"UCHIHAMACHO","perfecture_jp":"愛媛県","jp_add_1":"松山市","jp_add_2":"内浜町"},"7918051":{"post_code":"7918051","prefecture":"EHIME KEN","city":"MATSUYAMA SHI","town":"UMEDAMACHI","perfecture_jp":"愛媛県","jp_add_1":"松山市","jp_add_2":"梅田町"},"7914506":{"post_code":"7914506","prefecture":"EHIME KEN","city":"MATSUYAMA SHI","town":"UWAMA","perfecture_jp":"愛媛県","jp_add_1":"松山市","jp_add_2":"宇和間"},"7911134":{"post_code":"7911134","prefecture":"EHIME KEN","city":"MATSUYAMA SHI","town":"EBARAMACHI","perfecture_jp":"愛媛県","jp_add_1":"松山市","jp_add_2":"恵原町"},"7910134":{"post_code":"7910134","prefecture":"EHIME KEN","city":"MATSUYAMA SHI","town":"OINOMACHI","perfecture_jp":"愛媛県","jp_add_1":"松山市","jp_add_2":"大井野町"},"7918057":{"post_code":"7918057","prefecture":"EHIME KEN","city":"MATSUYAMA SHI","town":"OKAGA","perfecture_jp":"愛媛県","jp_add_1":"松山市","jp_add_2":"大可賀"},"7911126":{"post_code":"7911126","prefecture":"EHIME KEN","city":"MATSUYAMA SHI","town":"OHASHIMACHI","perfecture_jp":"愛媛県","jp_add_1":"松山市","jp_add_2":"大橋町"},"7910241":{"post_code":"7910241","prefecture":"EHIME KEN","city":"MATSUYAMA SHI","town":"ONOMACHI","perfecture_jp":"愛媛県","jp_add_1":"松山市","jp_add_2":"小野町"},"7914502":{"post_code":"7914502","prefecture":"EHIME KEN","city":"MATSUYAMA SHI","town":"OBAMA","perfecture_jp":"愛媛県","jp_add_1":"松山市","jp_add_2":"小浜"},"7918058":{"post_code":"7918058","prefecture":"EHIME KEN","city":"MATSUYAMA SHI","town":"KAIGANDORI","perfecture_jp":"愛媛県","jp_add_1":"松山市","jp_add_2":"海岸通"},"7918091":{"post_code":"7918091","prefecture":"EHIME KEN","city":"MATSUYAMA SHI","town":"KADOTAMACHI","perfecture_jp":"愛媛県","jp_add_1":"松山市","jp_add_2":"門田町"},"7910111":{"post_code":"7910111","prefecture":"EHIME KEN","city":"MATSUYAMA SHI","town":"KAMIIDAIMACHI","perfecture_jp":"愛媛県","jp_add_1":"松山市","jp_add_2":"上伊台町"},"7911124":{"post_code":"7911124","prefecture":"EHIME KEN","city":"MATSUYAMA SHI","town":"KAMIGAWARAMACHI","perfecture_jp":"愛媛県","jp_add_1":"松山市","jp_add_2":"上川原町"},"7910103":{"post_code":"7910103","prefecture":"EHIME KEN","city":"MATSUYAMA SHI","town":"KAMITAKANOMACHI","perfecture_jp":"愛媛県","jp_add_1":"松山市","jp_add_2":"上高野町"},"7914322":{"post_code":"7914322","prefecture":"EHIME KEN","city":"MATSUYAMA SHI","town":"KAMINUWA","perfecture_jp":"愛媛県","jp_add_1":"松山市","jp_add_2":"上怒和"},"7918004":{"post_code":"7918004","prefecture":"EHIME KEN","city":"MATSUYAMA SHI","town":"KAMOGAWA","perfecture_jp":"愛媛県","jp_add_1":"松山市","jp_add_2":"鴨川"},"7910132":{"post_code":"7910132","prefecture":"EHIME KEN","city":"MATSUYAMA SHI","town":"KAWANAKAMACHI","perfecture_jp":"愛媛県","jp_add_1":"松山市","jp_add_2":"河中町"},"7910129":{"post_code":"7910129","prefecture":"EHIME KEN","city":"MATSUYAMA SHI","town":"KAWANOGOMACHI","perfecture_jp":"愛媛県","jp_add_1":"松山市","jp_add_2":"川の郷町"},"7918063":{"post_code":"7918063","prefecture":"EHIME KEN","city":"MATSUYAMA SHI","town":"KANDAMACHI","perfecture_jp":"愛媛県","jp_add_1":"松山市","jp_add_2":"神田町"},"7911102":{"post_code":"7911102","prefecture":"EHIME KEN","city":"MATSUYAMA SHI","town":"KISHIMACHI","perfecture_jp":"愛媛県","jp_add_1":"松山市","jp_add_2":"来住町"},"7911105":{"post_code":"7911105","prefecture":"EHIME KEN","city":"MATSUYAMA SHI","town":"KITAIDO","perfecture_jp":"愛媛県","jp_add_1":"松山市","jp_add_2":"北井門"},"7910242":{"post_code":"7910242","prefecture":"EHIME KEN","city":"MATSUYAMA SHI","town":"KITAUMEMOTOMACHI","perfecture_jp":"愛媛県","jp_add_1":"松山市","jp_add_2":"北梅本町"},"7918031":{"post_code":"7918031","prefecture":"EHIME KEN","city":"MATSUYAMA SHI","town":"KITASAYACHO","perfecture_jp":"愛媛県","jp_add_1":"松山市","jp_add_2":"北斎院町"},"7911104":{"post_code":"7911104","prefecture":"EHIME KEN","city":"MATSUYAMA SHI","town":"KITADOI","perfecture_jp":"愛媛県","jp_add_1":"松山市","jp_add_2":"北土居"},"7918041":{"post_code":"7918041","prefecture":"EHIME KEN","city":"MATSUYAMA SHI","town":"KITAYOSHIDAMACHI","perfecture_jp":"愛媛県","jp_add_1":"松山市","jp_add_2":"北吉田町"},"7918025":{"post_code":"7918025","prefecture":"EHIME KEN","city":"MATSUYAMA SHI","town":"KINUYAMA","perfecture_jp":"愛媛県","jp_add_1":"松山市","jp_add_2":"衣山"},"7918055":{"post_code":"7918055","prefecture":"EHIME KEN","city":"MATSUYAMA SHI","town":"KIYOSUMI","perfecture_jp":"愛媛県","jp_add_1":"松山市","jp_add_2":"清住"},"7910054":{"post_code":"7910054","prefecture":"EHIME KEN","city":"MATSUYAMA SHI","town":"KUKODORI(3-7-CHOME)","perfecture_jp":"愛媛県","jp_add_1":"松山市","jp_add_2":"空港通"},"7910150":{"post_code":"7910150","prefecture":"EHIME KEN","city":"MATSUYAMA SHI","town":"KUGAWA","perfecture_jp":"愛媛県","jp_add_1":"松山市","jp_add_2":"九川"},"7911132":{"post_code":"7911132","prefecture":"EHIME KEN","city":"MATSUYAMA SHI","town":"KUTANIMACHI","perfecture_jp":"愛媛県","jp_add_1":"松山市","jp_add_2":"久谷町"},"7918035":{"post_code":"7918035","prefecture":"EHIME KEN","city":"MATSUYAMA SHI","town":"KUBOTAMACHI","perfecture_jp":"愛媛県","jp_add_1":"松山市","jp_add_2":"久保田町"},"7911131":{"post_code":"7911131","prefecture":"EHIME KEN","city":"MATSUYAMA SHI","town":"KUBONOMACHI","perfecture_jp":"愛媛県","jp_add_1":"松山市","jp_add_2":"窪野町"},"7914507":{"post_code":"7914507","prefecture":"EHIME KEN","city":"MATSUYAMA SHI","town":"KUMATA","perfecture_jp":"愛媛県","jp_add_1":"松山市","jp_add_2":"熊田"},"7918016":{"post_code":"7918016","prefecture":"EHIME KEN","city":"MATSUYAMA SHI","town":"KUMANODAI","perfecture_jp":"愛媛県","jp_add_1":"松山市","jp_add_2":"久万ノ台"},"7911101":{"post_code":"7911101","prefecture":"EHIME KEN","city":"MATSUYAMA SHI","town":"KUMEKUBOTAMACHI","perfecture_jp":"愛媛県","jp_add_1":"松山市","jp_add_2":"久米窪田町"},"7914505":{"post_code":"7914505","prefecture":"EHIME KEN","city":"MATSUYAMA SHI","town":"KONORA","perfecture_jp":"愛媛県","jp_add_1":"松山市","jp_add_2":"神浦"},"7911125":{"post_code":"7911125","prefecture":"EHIME KEN","city":"MATSUYAMA SHI","town":"KOMURAMACHI","perfecture_jp":"愛媛県","jp_add_1":"松山市","jp_add_2":"小村町"},"7910135":{"post_code":"7910135","prefecture":"EHIME KEN","city":"MATSUYAMA SHI","town":"KOMENOMACHI","perfecture_jp":"愛媛県","jp_add_1":"松山市","jp_add_2":"米野町"},"7918072":{"post_code":"7918072","prefecture":"EHIME KEN","city":"MATSUYAMA SHI","town":"SAKURAGAOKA","perfecture_jp":"愛媛県","jp_add_1":"松山市","jp_add_2":"桜ケ丘"},"7910104":{"post_code":"7910104","prefecture":"EHIME KEN","city":"MATSUYAMA SHI","town":"JIKIBAMACHI","perfecture_jp":"愛媛県","jp_add_1":"松山市","jp_add_2":"食場町"},"7918003":{"post_code":"7918003","prefecture":"EHIME KEN","city":"MATSUYAMA SHI","town":"SHITSUKAWAMACHI","perfecture_jp":"愛媛県","jp_add_1":"松山市","jp_add_2":"志津川町"},"7910112":{"post_code":"7910112","prefecture":"EHIME KEN","city":"MATSUYAMA SHI","town":"SHIMOIDAIMACHI","perfecture_jp":"愛媛県","jp_add_1":"松山市","jp_add_2":"下伊台町"},"7910123":{"post_code":"7910123","prefecture":"EHIME KEN","city":"MATSUYAMA SHI","town":"SHUKUNOMACHI","perfecture_jp":"愛媛県","jp_add_1":"松山市","jp_add_2":"宿野町"},"7911133":{"post_code":"7911133","prefecture":"EHIME KEN","city":"MATSUYAMA SHI","town":"JORURIMACHI","perfecture_jp":"愛媛県","jp_add_1":"松山市","jp_add_2":"浄瑠璃町"},"7918083":{"post_code":"7918083","prefecture":"EHIME KEN","city":"MATSUYAMA SHI","town":"SHINHAMAMACHI","perfecture_jp":"愛媛県","jp_add_1":"松山市","jp_add_2":"新浜町"},"7910122":{"post_code":"7910122","prefecture":"EHIME KEN","city":"MATSUYAMA SHI","town":"SUEMACHI","perfecture_jp":"愛媛県","jp_add_1":"松山市","jp_add_2":"末町"},"7918052":{"post_code":"7918052","prefecture":"EHIME KEN","city":"MATSUYAMA SHI","town":"SUGAMACHI","perfecture_jp":"愛媛県","jp_add_1":"松山市","jp_add_2":"須賀町"},"7910105":{"post_code":"7910105","prefecture":"EHIME KEN","city":"MATSUYAMA SHI","town":"SUGITATEMACHI","perfecture_jp":"愛媛県","jp_add_1":"松山市","jp_add_2":"杉立町"},"7918062":{"post_code":"7918062","prefecture":"EHIME KEN","city":"MATSUYAMA SHI","town":"SUMIYOSHI","perfecture_jp":"愛媛県","jp_add_1":"松山市","jp_add_2":"住吉"},"7911111":{"post_code":"7911111","prefecture":"EHIME KEN","city":"MATSUYAMA SHI","town":"TAKAIMACHI","perfecture_jp":"愛媛県","jp_add_1":"松山市","jp_add_2":"高井町"},"7918036":{"post_code":"7918036","prefecture":"EHIME KEN","city":"MATSUYAMA SHI","town":"TAKAOKAMACHI","perfecture_jp":"愛媛県","jp_add_1":"松山市","jp_add_2":"高岡町"},"7918007":{"post_code":"7918007","prefecture":"EHIME KEN","city":"MATSUYAMA SHI","town":"TAKAGICHO","perfecture_jp":"愛媛県","jp_add_1":"松山市","jp_add_2":"高木町"},"7910102":{"post_code":"7910102","prefecture":"EHIME KEN","city":"MATSUYAMA SHI","town":"TAKANOMACHI","perfecture_jp":"愛媛県","jp_add_1":"松山市","jp_add_2":"高野町"},"7918081":{"post_code":"7918081","prefecture":"EHIME KEN","city":"MATSUYAMA SHI","town":"TAKAHAMAMACHI","perfecture_jp":"愛媛県","jp_add_1":"松山市","jp_add_2":"高浜町"},"7918079":{"post_code":"7918079","prefecture":"EHIME KEN","city":"MATSUYAMA SHI","town":"TAKAYAMACHO","perfecture_jp":"愛媛県","jp_add_1":"松山市","jp_add_2":"高山町"},"7918086":{"post_code":"7918086","prefecture":"EHIME KEN","city":"MATSUYAMA SHI","town":"TATSUMICHO","perfecture_jp":"愛媛県","jp_add_1":"松山市","jp_add_2":"辰巳町"},"7918002":{"post_code":"7918002","prefecture":"EHIME KEN","city":"MATSUYAMA SHI","town":"TANIMACHI","perfecture_jp":"愛媛県","jp_add_1":"松山市","jp_add_2":"谷町"},"7910126":{"post_code":"7910126","prefecture":"EHIME KEN","city":"MATSUYAMA SHI","town":"TAMATANIMACHI","perfecture_jp":"愛媛県","jp_add_1":"松山市","jp_add_2":"玉谷町"},"7918015":{"post_code":"7918015","prefecture":"EHIME KEN","city":"MATSUYAMA SHI","town":"CHUO","perfecture_jp":"愛媛県","jp_add_1":"松山市","jp_add_2":"中央"},"7911122":{"post_code":"7911122","prefecture":"EHIME KEN","city":"MATSUYAMA SHI","town":"TSUYOSHIMACHI","perfecture_jp":"愛媛県","jp_add_1":"松山市","jp_add_2":"津吉町"},"7914324":{"post_code":"7914324","prefecture":"EHIME KEN","city":"MATSUYAMA SHI","town":"TSUWAJI","perfecture_jp":"愛媛県","jp_add_1":"松山市","jp_add_2":"津和地"},"7911115":{"post_code":"7911115","prefecture":"EHIME KEN","city":"MATSUYAMA SHI","town":"DOIMACHI","perfecture_jp":"愛媛県","jp_add_1":"松山市","jp_add_2":"土居町"},"7918018":{"post_code":"7918018","prefecture":"EHIME KEN","city":"MATSUYAMA SHI","town":"TOIYACHO","perfecture_jp":"愛媛県","jp_add_1":"松山市","jp_add_2":"問屋町"},"7918093":{"post_code":"7918093","prefecture":"EHIME KEN","city":"MATSUYAMA SHI","town":"TOMARIMACHI","perfecture_jp":"愛媛県","jp_add_1":"松山市","jp_add_2":"泊町"},"7918034":{"post_code":"7918034","prefecture":"EHIME KEN","city":"MATSUYAMA SHI","town":"TOMIHISAMACHI","perfecture_jp":"愛媛県","jp_add_1":"松山市","jp_add_2":"富久町"},"7918078":{"post_code":"7918078","prefecture":"EHIME KEN","city":"MATSUYAMA SHI","town":"NAKASUGA","perfecture_jp":"愛媛県","jp_add_1":"松山市","jp_add_2":"中須賀"},"7911121":{"post_code":"7911121","prefecture":"EHIME KEN","city":"MATSUYAMA SHI","town":"NAKANOMACHI","perfecture_jp":"愛媛県","jp_add_1":"松山市","jp_add_2":"中野町"},"7914503":{"post_code":"7914503","prefecture":"EHIME KEN","city":"MATSUYAMA SHI","town":"NAGASHI","perfecture_jp":"愛媛県","jp_add_1":"松山市","jp_add_2":"長師"},"7914511":{"post_code":"7914511","prefecture":"EHIME KEN","city":"MATSUYAMA SHI","town":"NAKAJIMA AWAI","perfecture_jp":"愛媛県","jp_add_1":"松山市","jp_add_2":"中島粟井"},"7914501":{"post_code":"7914501","prefecture":"EHIME KEN","city":"MATSUYAMA SHI","town":"NAKAJIMA OURA","perfecture_jp":"愛媛県","jp_add_1":"松山市","jp_add_2":"中島大浦"},"7918017":{"post_code":"7918017","prefecture":"EHIME KEN","city":"MATSUYAMA SHI","town":"NISHINAGATOCHO","perfecture_jp":"愛媛県","jp_add_1":"松山市","jp_add_2":"西長戸町"},"7911135":{"post_code":"7911135","prefecture":"EHIME KEN","city":"MATSUYAMA SHI","town":"NISHINOMACHI","perfecture_jp":"愛媛県","jp_add_1":"松山市","jp_add_2":"西野町"},"7918044":{"post_code":"7918044","prefecture":"EHIME KEN","city":"MATSUYAMA SHI","town":"NISHIHABUMACHI","perfecture_jp":"愛媛県","jp_add_1":"松山市","jp_add_2":"西垣生町"},"7914509":{"post_code":"7914509","prefecture":"EHIME KEN","city":"MATSUYAMA SHI","town":"NYO","perfecture_jp":"愛媛県","jp_add_1":"松山市","jp_add_2":"饒"},"7914432":{"post_code":"7914432","prefecture":"EHIME KEN","city":"MATSUYAMA SHI","town":"NOGUTSUNA","perfecture_jp":"愛媛県","jp_add_1":"松山市","jp_add_2":"野忽那"},"7918082":{"post_code":"7918082","prefecture":"EHIME KEN","city":"MATSUYAMA SHI","town":"BAISHINJIMACHI","perfecture_jp":"愛媛県","jp_add_1":"松山市","jp_add_2":"梅津寺町"},"7910113":{"post_code":"7910113","prefecture":"EHIME KEN","city":"MATSUYAMA SHI","town":"HAKUSUIDAI","perfecture_jp":"愛媛県","jp_add_1":"松山市","jp_add_2":"白水台"},"7914510":{"post_code":"7914510","prefecture":"EHIME KEN","city":"MATSUYAMA SHI","town":"HATARI","perfecture_jp":"愛媛県","jp_add_1":"松山市","jp_add_2":"畑里"},"7918066":{"post_code":"7918066","prefecture":"EHIME KEN","city":"MATSUYAMA SHI","town":"HARAIKAWA","perfecture_jp":"愛媛県","jp_add_1":"松山市","jp_add_2":"祓川"},"7918087":{"post_code":"7918087","prefecture":"EHIME KEN","city":"MATSUYAMA SHI","town":"HARUMICHO","perfecture_jp":"愛媛県","jp_add_1":"松山市","jp_add_2":"春美町"},"7911123":{"post_code":"7911123","prefecture":"EHIME KEN","city":"MATSUYAMA SHI","town":"HIGASHIGATAMACHI","perfecture_jp":"愛媛県","jp_add_1":"松山市","jp_add_2":"東方町"},"7910133":{"post_code":"7910133","prefecture":"EHIME KEN","city":"MATSUYAMA SHI","town":"HIGASHIGAWAMACHI","perfecture_jp":"愛媛県","jp_add_1":"松山市","jp_add_2":"東川町"},"7918005":{"post_code":"7918005","prefecture":"EHIME KEN","city":"MATSUYAMA SHI","town":"HIGASHINAGATO","perfecture_jp":"愛媛県","jp_add_1":"松山市","jp_add_2":"東長戸"},"7918043":{"post_code":"7918043","prefecture":"EHIME KEN","city":"MATSUYAMA SHI","town":"HIGASHIHABUMACHI","perfecture_jp":"愛媛県","jp_add_1":"松山市","jp_add_2":"東垣生町"},"7918074":{"post_code":"7918074","prefecture":"EHIME KEN","city":"MATSUYAMA SHI","town":"HIGASHIYAMAMACHI","perfecture_jp":"愛媛県","jp_add_1":"松山市","jp_add_2":"東山町"},"7918075":{"post_code":"7918075","prefecture":"EHIME KEN","city":"MATSUYAMA SHI","town":"HIBARIGAOKA","perfecture_jp":"愛媛県","jp_add_1":"松山市","jp_add_2":"ひばりケ丘"},"7918012":{"post_code":"7918012","prefecture":"EHIME KEN","city":"MATSUYAMA SHI","town":"HIMEBARA","perfecture_jp":"愛媛県","jp_add_1":"松山市","jp_add_2":"姫原"},"7910243":{"post_code":"7910243","prefecture":"EHIME KEN","city":"MATSUYAMA SHI","town":"HIRAIMACHI","perfecture_jp":"愛媛県","jp_add_1":"松山市","jp_add_2":"平井町"},"7918001":{"post_code":"7918001","prefecture":"EHIME KEN","city":"MATSUYAMA SHI","town":"HIRATAMACHI","perfecture_jp":"愛媛県","jp_add_1":"松山市","jp_add_2":"平田町"},"7910128":{"post_code":"7910128","prefecture":"EHIME KEN","city":"MATSUYAMA SHI","town":"FUKUMIGAWAMACHI","perfecture_jp":"愛媛県","jp_add_1":"松山市","jp_add_2":"福見川町"},"7910127":{"post_code":"7910127","prefecture":"EHIME KEN","city":"MATSUYAMA SHI","town":"FUJINOMACHI","perfecture_jp":"愛媛県","jp_add_1":"松山市","jp_add_2":"藤野町"},"7914323":{"post_code":"7914323","prefecture":"EHIME KEN","city":"MATSUYAMA SHI","town":"FUTAGAMI","perfecture_jp":"愛媛県","jp_add_1":"松山市","jp_add_2":"二神"},"7918073":{"post_code":"7918073","prefecture":"EHIME KEN","city":"MATSUYAMA SHI","town":"FUNEGATANICHO","perfecture_jp":"愛媛県","jp_add_1":"松山市","jp_add_2":"船ケ谷町"},"7918067":{"post_code":"7918067","prefecture":"EHIME KEN","city":"MATSUYAMA SHI","town":"FURUMITSUMACHI","perfecture_jp":"愛媛県","jp_add_1":"松山市","jp_add_2":"古三津"},"7918056":{"post_code":"7918056","prefecture":"EHIME KEN","city":"MATSUYAMA SHI","town":"BEFUCHO","perfecture_jp":"愛媛県","jp_add_1":"松山市","jp_add_2":"別府町"},"7918054":{"post_code":"7918054","prefecture":"EHIME KEN","city":"MATSUYAMA SHI","town":"MATSUECHO","perfecture_jp":"愛媛県","jp_add_1":"松山市","jp_add_2":"松江町"},"7918071":{"post_code":"7918071","prefecture":"EHIME KEN","city":"MATSUYAMA SHI","town":"MATSUNOKI","perfecture_jp":"愛媛県","jp_add_1":"松山市","jp_add_2":"松ノ木"},"7918022":{"post_code":"7918022","prefecture":"EHIME KEN","city":"MATSUYAMA SHI","town":"MISAWA","perfecture_jp":"愛媛県","jp_add_1":"松山市","jp_add_2":"美沢"},"7918065":{"post_code":"7918065","prefecture":"EHIME KEN","city":"MATSUYAMA SHI","town":"MISUGIMACHI","perfecture_jp":"愛媛県","jp_add_1":"松山市","jp_add_2":"三杉町"},"7910101":{"post_code":"7910101","prefecture":"EHIME KEN","city":"MATSUYAMA SHI","town":"MIZONOBEMACHI","perfecture_jp":"愛媛県","jp_add_1":"松山市","jp_add_2":"溝辺町"},"7918061":{"post_code":"7918061","prefecture":"EHIME KEN","city":"MATSUYAMA SHI","town":"MITSU","perfecture_jp":"愛媛県","jp_add_1":"松山市","jp_add_2":"三津"},"7918060":{"post_code":"7918060","prefecture":"EHIME KEN","city":"MATSUYAMA SHI","town":"MITSUFUTO","perfecture_jp":"愛媛県","jp_add_1":"松山市","jp_add_2":"三津ふ頭"},"7918068":{"post_code":"7918068","prefecture":"EHIME KEN","city":"MATSUYAMA SHI","town":"MIDORIGAOKA","perfecture_jp":"愛媛県","jp_add_1":"松山市","jp_add_2":"みどりケ丘"},"7910244":{"post_code":"7910244","prefecture":"EHIME KEN","city":"MATSUYAMA SHI","town":"MIDOROMACHI","perfecture_jp":"愛媛県","jp_add_1":"松山市","jp_add_2":"水泥町"},"7910131":{"post_code":"7910131","prefecture":"EHIME KEN","city":"MATSUYAMA SHI","town":"MINAKUCHIMACHI","perfecture_jp":"愛媛県","jp_add_1":"松山市","jp_add_2":"水口町"},"7918085":{"post_code":"7918085","prefecture":"EHIME KEN","city":"MATSUYAMA SHI","town":"MINATOYAMAMACHI","perfecture_jp":"愛媛県","jp_add_1":"松山市","jp_add_2":"港山町"},"7910245":{"post_code":"7910245","prefecture":"EHIME KEN","city":"MATSUYAMA SHI","town":"MINAMIUMEMOTOMACHI","perfecture_jp":"愛媛県","jp_add_1":"松山市","jp_add_2":"南梅本町"},"7918032":{"post_code":"7918032","prefecture":"EHIME KEN","city":"MATSUYAMA SHI","town":"MINAMISAYACHO","perfecture_jp":"愛媛県","jp_add_1":"松山市","jp_add_2":"南斎院町"},"7911112":{"post_code":"7911112","prefecture":"EHIME KEN","city":"MATSUYAMA SHI","town":"MINAMITAKAIMACHI","perfecture_jp":"愛媛県","jp_add_1":"松山市","jp_add_2":"南高井町"},"7911116":{"post_code":"7911116","prefecture":"EHIME KEN","city":"MATSUYAMA SHI","town":"MINAMIDOIMACHI","perfecture_jp":"愛媛県","jp_add_1":"松山市","jp_add_2":"南土居町"},"7910114":{"post_code":"7910114","prefecture":"EHIME KEN","city":"MATSUYAMA SHI","town":"MINAMIHAKUSUI","perfecture_jp":"愛媛県","jp_add_1":"松山市","jp_add_2":"南白水"},"7918042":{"post_code":"7918042","prefecture":"EHIME KEN","city":"MATSUYAMA SHI","town":"MINAMIYOSHIDAMACHI","perfecture_jp":"愛媛県","jp_add_1":"松山市","jp_add_2":"南吉田町"},"7914504":{"post_code":"7914504","prefecture":"EHIME KEN","city":"MATSUYAMA SHI","town":"MIYANO","perfecture_jp":"愛媛県","jp_add_1":"松山市","jp_add_2":"宮野"},"7918027":{"post_code":"7918027","prefecture":"EHIME KEN","city":"MATSUYAMA SHI","town":"MYOJINOKA","perfecture_jp":"愛媛県","jp_add_1":"松山市","jp_add_2":"明神丘"},"7914431":{"post_code":"7914431","prefecture":"EHIME KEN","city":"MATSUYAMA SHI","town":"MUZUKI","perfecture_jp":"愛媛県","jp_add_1":"松山市","jp_add_2":"睦月"},"7914321":{"post_code":"7914321","prefecture":"EHIME KEN","city":"MATSUYAMA SHI","town":"MOTONUWA","perfecture_jp":"愛媛県","jp_add_1":"松山市","jp_add_2":"元怒和"},"7918064":{"post_code":"7918064","prefecture":"EHIME KEN","city":"MATSUYAMA SHI","town":"MOTOMACHI","perfecture_jp":"愛媛県","jp_add_1":"松山市","jp_add_2":"元町"},"7911113":{"post_code":"7911113","prefecture":"EHIME KEN","city":"MATSUYAMA SHI","town":"MORIMATSUMACHI","perfecture_jp":"愛媛県","jp_add_1":"松山市","jp_add_2":"森松町"},"7918013":{"post_code":"7918013","prefecture":"EHIME KEN","city":"MATSUYAMA SHI","town":"YAMAGOE(CHOME)","perfecture_jp":"愛媛県","jp_add_1":"松山市","jp_add_2":"山越"},"7918014":{"post_code":"7918014","prefecture":"EHIME KEN","city":"MATSUYAMA SHI","town":"YAMAGOEMACHI","perfecture_jp":"愛媛県","jp_add_1":"松山市","jp_add_2":"山越町"},"7918026":{"post_code":"7918026","prefecture":"EHIME KEN","city":"MATSUYAMA SHI","town":"YAMANISHICHO","perfecture_jp":"愛媛県","jp_add_1":"松山市","jp_add_2":"山西町"},"7910121":{"post_code":"7910121","prefecture":"EHIME KEN","city":"MATSUYAMA SHI","town":"YUNOYAMA","perfecture_jp":"愛媛県","jp_add_1":"松山市","jp_add_2":"湯の山"},"7910120":{"post_code":"7910120","prefecture":"EHIME KEN","city":"MATSUYAMA SHI","town":"YUNOYAMAHIGASHI","perfecture_jp":"愛媛県","jp_add_1":"松山市","jp_add_2":"湯の山東"},"7910125":{"post_code":"7910125","prefecture":"EHIME KEN","city":"MATSUYAMA SHI","town":"YUYAMAYANAGI","perfecture_jp":"愛媛県","jp_add_1":"松山市","jp_add_2":"湯山柳"},"7918092":{"post_code":"7918092","prefecture":"EHIME KEN","city":"MATSUYAMA SHI","town":"YURAMACHI","perfecture_jp":"愛媛県","jp_add_1":"松山市","jp_add_2":"由良町"},"7914508":{"post_code":"7914508","prefecture":"EHIME KEN","city":"MATSUYAMA SHI","town":"YOSHIKI","perfecture_jp":"愛媛県","jp_add_1":"松山市","jp_add_2":"吉木"},"7918069":{"post_code":"7918069","prefecture":"EHIME KEN","city":"MATSUYAMA SHI","town":"YOSHINOCHO","perfecture_jp":"愛媛県","jp_add_1":"松山市","jp_add_2":"吉野町"},"7918011":{"post_code":"7918011","prefecture":"EHIME KEN","city":"MATSUYAMA SHI","town":"YOSHIFUJI","perfecture_jp":"愛媛県","jp_add_1":"松山市","jp_add_2":"吉藤"},"7918021":{"post_code":"7918021","prefecture":"EHIME KEN","city":"MATSUYAMA SHI","town":"ROKKENYACHO","perfecture_jp":"愛媛県","jp_add_1":"松山市","jp_add_2":"六軒家町"},"7918053":{"post_code":"7918053","prefecture":"EHIME KEN","city":"MATSUYAMA SHI","town":"WAKABACHO","perfecture_jp":"愛媛県","jp_add_1":"松山市","jp_add_2":"若葉町"},"7910562":{"post_code":"7910562","prefecture":"EHIME KEN","city":"SAIJO SHI","town":"KOMATSUCHO ISHIZUCHI(KAMITOISHI)","perfecture_jp":"愛媛県","jp_add_1":"西条市","jp_add_2":"小松町石鎚"},"7910533":{"post_code":"7910533","prefecture":"EHIME KEN","city":"SAIJO SHI","town":"TAMBARACHO AKAO","perfecture_jp":"愛媛県","jp_add_1":"西条市","jp_add_2":"丹原町明穂"},"7910508":{"post_code":"7910508","prefecture":"EHIME KEN","city":"SAIJO SHI","town":"TAMBARACHO IKEDA","perfecture_jp":"愛媛県","jp_add_1":"西条市","jp_add_2":"丹原町池田"},"7910532":{"post_code":"7910532","prefecture":"EHIME KEN","city":"SAIJO SHI","town":"TAMBARACHO ISHIKYO","perfecture_jp":"愛媛県","jp_add_1":"西条市","jp_add_2":"丹原町石経"},"7910503":{"post_code":"7910503","prefecture":"EHIME KEN","city":"SAIJO SHI","town":"TAMBARACHO IMAI","perfecture_jp":"愛媛県","jp_add_1":"西条市","jp_add_2":"丹原町今井"},"7910537":{"post_code":"7910537","prefecture":"EHIME KEN","city":"SAIJO SHI","town":"TAMBARACHO USUZAKA","perfecture_jp":"愛媛県","jp_add_1":"西条市","jp_add_2":"丹原町臼坂"},"7910525":{"post_code":"7910525","prefecture":"EHIME KEN","city":"SAIJO SHI","town":"TAMBARACHO KAWANE","perfecture_jp":"愛媛県","jp_add_1":"西条市","jp_add_2":"丹原町川根"},"7910502":{"post_code":"7910502","prefecture":"EHIME KEN","city":"SAIJO SHI","town":"TAMBARACHO GANRENJI","perfecture_jp":"愛媛県","jp_add_1":"西条市","jp_add_2":"丹原町願連寺"},"7910523":{"post_code":"7910523","prefecture":"EHIME KEN","city":"SAIJO SHI","town":"TAMBARACHO KITATANO","perfecture_jp":"愛媛県","jp_add_1":"西条市","jp_add_2":"丹原町北田野"},"7910542":{"post_code":"7910542","prefecture":"EHIME KEN","city":"SAIJO SHI","town":"TAMBARACHO KUSUKUBO","perfecture_jp":"愛媛県","jp_add_1":"西条市","jp_add_2":"丹原町楠窪"},"7910504":{"post_code":"7910504","prefecture":"EHIME KEN","city":"SAIJO SHI","town":"TAMBARACHO KUMYOJI","perfecture_jp":"愛媛県","jp_add_1":"西条市","jp_add_2":"丹原町久妙寺"},"7910541":{"post_code":"7910541","prefecture":"EHIME KEN","city":"SAIJO SHI","town":"TAMBARACHO KURASE","perfecture_jp":"愛媛県","jp_add_1":"西条市","jp_add_2":"丹原町鞍瀬"},"7910531":{"post_code":"7910531","prefecture":"EHIME KEN","city":"SAIJO SHI","town":"TAMBARACHO KURUMI","perfecture_jp":"愛媛県","jp_add_1":"西条市","jp_add_2":"丹原町来見"},"7910507":{"post_code":"7910507","prefecture":"EHIME KEN","city":"SAIJO SHI","town":"TAMBARACHO KOCHI","perfecture_jp":"愛媛県","jp_add_1":"西条市","jp_add_2":"丹原町高知"},"7910505":{"post_code":"7910505","prefecture":"EHIME KEN","city":"SAIJO SHI","town":"TAMBARACHO KOTA","perfecture_jp":"愛媛県","jp_add_1":"西条市","jp_add_2":"丹原町古田"},"7910535":{"post_code":"7910535","prefecture":"EHIME KEN","city":"SAIJO SHI","town":"TAMBARACHO SHIKAWA","perfecture_jp":"愛媛県","jp_add_1":"西条市","jp_add_2":"丹原町志川"},"7910527":{"post_code":"7910527","prefecture":"EHIME KEN","city":"SAIJO SHI","town":"TAMBARACHO SEKIYA","perfecture_jp":"愛媛県","jp_add_1":"西条市","jp_add_2":"丹原町関屋"},"7910524":{"post_code":"7910524","prefecture":"EHIME KEN","city":"SAIJO SHI","town":"TAMBARACHO TAKAMATSU","perfecture_jp":"愛媛県","jp_add_1":"西条市","jp_add_2":"丹原町高松"},"7910526":{"post_code":"7910526","prefecture":"EHIME KEN","city":"SAIJO SHI","town":"TAMBARACHO TATAKI","perfecture_jp":"愛媛県","jp_add_1":"西条市","jp_add_2":"丹原町田滝"},"7910522":{"post_code":"7910522","prefecture":"EHIME KEN","city":"SAIJO SHI","town":"TAMBARACHO TANOWAGATA","perfecture_jp":"愛媛県","jp_add_1":"西条市","jp_add_2":"丹原町田野上方"},"7910510":{"post_code":"7910510","prefecture":"EHIME KEN","city":"SAIJO SHI","town":"TAMBARACHO TAMBARA","perfecture_jp":"愛媛県","jp_add_1":"西条市","jp_add_2":"丹原町丹原"},"7910538":{"post_code":"7910538","prefecture":"EHIME KEN","city":"SAIJO SHI","town":"TAMBARACHO CHIHARA","perfecture_jp":"愛媛県","jp_add_1":"西条市","jp_add_2":"丹原町千原"},"7910534":{"post_code":"7910534","prefecture":"EHIME KEN","city":"SAIJO SHI","town":"TAMBARACHO TERAO","perfecture_jp":"愛媛県","jp_add_1":"西条市","jp_add_2":"丹原町寺尾"},"7910506":{"post_code":"7910506","prefecture":"EHIME KEN","city":"SAIJO SHI","town":"TAMBARACHO TOKUNO","perfecture_jp":"愛媛県","jp_add_1":"西条市","jp_add_2":"丹原町徳能"},"7910501":{"post_code":"7910501","prefecture":"EHIME KEN","city":"SAIJO SHI","town":"TAMBARACHO TOKUNODESAKU","perfecture_jp":"愛媛県","jp_add_1":"西条市","jp_add_2":"丹原町徳能出作"},"7910521":{"post_code":"7910521","prefecture":"EHIME KEN","city":"SAIJO SHI","town":"TAMBARACHO NAGANO","perfecture_jp":"愛媛県","jp_add_1":"西条市","jp_add_2":"丹原町長野"},"7910543":{"post_code":"7910543","prefecture":"EHIME KEN","city":"SAIJO SHI","town":"TAMBARACHO MYOGA","perfecture_jp":"愛媛県","jp_add_1":"西条市","jp_add_2":"丹原町明河"},"7910536":{"post_code":"7910536","prefecture":"EHIME KEN","city":"SAIJO SHI","town":"TAMBARACHO YUYAGUCHI","perfecture_jp":"愛媛県","jp_add_1":"西条市","jp_add_2":"丹原町湯谷口"},"7913203":{"post_code":"7913203","prefecture":"EHIME KEN","city":"IYO SHI","town":"NAKAYAMACHO IZUBUCHI (TOYOKA.HIGASH","perfecture_jp":"愛媛県","jp_add_1":"伊予市","jp_add_2":"中山町出渕"},"7913204":{"post_code":"7913204","prefecture":"EHIME KEN","city":"IYO SHI","town":"NAKAYAMACHO IZUBUCHI(SONOTA)","perfecture_jp":"愛媛県","jp_add_1":"伊予市","jp_add_2":"中山町出渕"},"7913202":{"post_code":"7913202","prefecture":"EHIME KEN","city":"IYO SHI","town":"NAKAYAMACHO KURIDA","perfecture_jp":"愛媛県","jp_add_1":"伊予市","jp_add_2":"中山町栗田"},"7913201":{"post_code":"7913201","prefecture":"EHIME KEN","city":"IYO SHI","town":"NAKAYAMACHO SARETANI","perfecture_jp":"愛媛県","jp_add_1":"伊予市","jp_add_2":"中山町佐礼谷"},"7913205":{"post_code":"7913205","prefecture":"EHIME KEN","city":"IYO SHI","town":"NAKAYAMACHO NAKAYAMA(IZUMIMACHI)","perfecture_jp":"愛媛県","jp_add_1":"伊予市","jp_add_2":"中山町中山"},"7913206":{"post_code":"7913206","prefecture":"EHIME KEN","city":"IYO SHI","town":"NAKAYAMACHO NAKAYAMA(SONOTA)","perfecture_jp":"愛媛県","jp_add_1":"伊予市","jp_add_2":"中山町中山"},"7910200":{"post_code":"7910200","prefecture":"EHIME KEN","city":"TOON SHI","town":"IKANIKEISAIGANAIBAAI","perfecture_jp":"愛媛県","jp_add_1":"東温市","jp_add_2":""},"7910315":{"post_code":"7910315","prefecture":"EHIME KEN","city":"TOON SHI","town":"IUCHI","perfecture_jp":"愛媛県","jp_add_1":"東温市","jp_add_2":"井内"},"7910221":{"post_code":"7910221","prefecture":"EHIME KEN","city":"TOON SHI","town":"UEMURA","perfecture_jp":"愛媛県","jp_add_1":"東温市","jp_add_2":"上村"},"7910213":{"post_code":"7910213","prefecture":"EHIME KEN","city":"TOON SHI","town":"USHIBUCHI","perfecture_jp":"愛媛県","jp_add_1":"東温市","jp_add_2":"牛渕"},"7910223":{"post_code":"7910223","prefecture":"EHIME KEN","city":"TOON SHI","town":"KAMIBAYASHI","perfecture_jp":"愛媛県","jp_add_1":"東温市","jp_add_2":"上林"},"7910321":{"post_code":"7910321","prefecture":"EHIME KEN","city":"TOON SHI","town":"KAWANOCHI","perfecture_jp":"愛媛県","jp_add_1":"東温市","jp_add_2":"河之内"},"7910303":{"post_code":"7910303","prefecture":"EHIME KEN","city":"TOON SHI","town":"KITAGATA","perfecture_jp":"愛媛県","jp_add_1":"東温市","jp_add_2":"北方"},"7910215":{"post_code":"7910215","prefecture":"EHIME KEN","city":"TOON SHI","town":"KITANODA","perfecture_jp":"愛媛県","jp_add_1":"東温市","jp_add_2":"北野田"},"7910204":{"post_code":"7910204","prefecture":"EHIME KEN","city":"TOON SHI","town":"SHITSUKAWA","perfecture_jp":"愛媛県","jp_add_1":"東温市","jp_add_2":"志津川"},"7910222":{"post_code":"7910222","prefecture":"EHIME KEN","city":"TOON SHI","town":"SHIMOBAYASHI","perfecture_jp":"愛媛県","jp_add_1":"東温市","jp_add_2":"下林"},"7910311":{"post_code":"7910311","prefecture":"EHIME KEN","city":"TOON SHI","town":"SUNOCHI KO","perfecture_jp":"愛媛県","jp_add_1":"東温市","jp_add_2":"則之内甲"},"7910312":{"post_code":"7910312","prefecture":"EHIME KEN","city":"TOON SHI","town":"SUNOCHI OTSU","perfecture_jp":"愛媛県","jp_add_1":"東温市","jp_add_2":"則之内乙"},"7910313":{"post_code":"7910313","prefecture":"EHIME KEN","city":"TOON SHI","town":"SUNOCHI HEI","perfecture_jp":"愛媛県","jp_add_1":"東温市","jp_add_2":"則之内丙"},"7910212":{"post_code":"7910212","prefecture":"EHIME KEN","city":"TOON SHI","town":"TANOKUBO","perfecture_jp":"愛媛県","jp_add_1":"東温市","jp_add_2":"田窪"},"7910322":{"post_code":"7910322","prefecture":"EHIME KEN","city":"TOON SHI","town":"NAMEGAWA","perfecture_jp":"愛媛県","jp_add_1":"東温市","jp_add_2":"滑川"},"7910205":{"post_code":"7910205","prefecture":"EHIME KEN","city":"TOON SHI","town":"NISHIOKA","perfecture_jp":"愛媛県","jp_add_1":"東温市","jp_add_2":"西岡"},"7910216":{"post_code":"7910216","prefecture":"EHIME KEN","city":"TOON SHI","town":"NODA","perfecture_jp":"愛媛県","jp_add_1":"東温市","jp_add_2":"野田"},"7910202":{"post_code":"7910202","prefecture":"EHIME KEN","city":"TOON SHI","town":"HINOKUCHI","perfecture_jp":"愛媛県","jp_add_1":"東温市","jp_add_2":"樋口"},"7910314":{"post_code":"7910314","prefecture":"EHIME KEN","city":"TOON SHI","town":"MASEKAWA","perfecture_jp":"愛媛県","jp_add_1":"東温市","jp_add_2":"松瀬川"},"7910301":{"post_code":"7910301","prefecture":"EHIME KEN","city":"TOON SHI","town":"MINAMIGATA","perfecture_jp":"愛媛県","jp_add_1":"東温市","jp_add_2":"南方"},"7910214":{"post_code":"7910214","prefecture":"EHIME KEN","city":"TOON SHI","town":"MINAMINODA","perfecture_jp":"愛媛県","jp_add_1":"東温市","jp_add_2":"南野田"},"7910211":{"post_code":"7910211","prefecture":"EHIME KEN","city":"TOON SHI","town":"MINARA","perfecture_jp":"愛媛県","jp_add_1":"東温市","jp_add_2":"見奈良"},"7910323":{"post_code":"7910323","prefecture":"EHIME KEN","city":"TOON SHI","town":"MYOGA","perfecture_jp":"愛媛県","jp_add_1":"東温市","jp_add_2":"明河"},"7910201":{"post_code":"7910201","prefecture":"EHIME KEN","city":"TOON SHI","town":"YAMANOCHI","perfecture_jp":"愛媛県","jp_add_1":"東温市","jp_add_2":"山之内"},"7910203":{"post_code":"7910203","prefecture":"EHIME KEN","city":"TOON SHI","town":"YOKOGAWARA","perfecture_jp":"愛媛県","jp_add_1":"東温市","jp_add_2":"横河原"},"7910302":{"post_code":"7910302","prefecture":"EHIME KEN","city":"TOON SHI","town":"YOSHIHISA","perfecture_jp":"愛媛県","jp_add_1":"東温市","jp_add_2":"吉久"},"7911200":{"post_code":"7911200","prefecture":"EHIME KEN","city":"KAMIUKENA GUN KUMAKOGEN CHO","town":"IKANIKEISAIGANAIBAAI","perfecture_jp":"愛媛県","jp_add_1":"上浮穴郡久万高原町","jp_add_2":""},"7911709":{"post_code":"7911709","prefecture":"EHIME KEN","city":"KAMIUKENA GUN KUMAKOGEN CHO","town":"AINOKI","perfecture_jp":"愛媛県","jp_add_1":"上浮穴郡久万高原町","jp_add_2":"相の木"},"7911705":{"post_code":"7911705","prefecture":"EHIME KEN","city":"KAMIUKENA GUN KUMAKOGEN CHO","town":"AINOMINE","perfecture_jp":"愛媛県","jp_add_1":"上浮穴郡久万高原町","jp_add_2":"相の峰"},"7911505":{"post_code":"7911505","prefecture":"EHIME KEN","city":"KAMIUKENA GUN KUMAKOGEN CHO","town":"ARIEDA","perfecture_jp":"愛媛県","jp_add_1":"上浮穴郡久万高原町","jp_add_2":"有枝"},"7911202":{"post_code":"7911202","prefecture":"EHIME KEN","city":"KAMIUKENA GUN KUMAKOGEN CHO","town":"IRINO","perfecture_jp":"愛媛県","jp_add_1":"上浮穴郡久万高原町","jp_add_2":"入野"},"7911504":{"post_code":"7911504","prefecture":"EHIME KEN","city":"KAMIUKENA GUN KUMAKOGEN CHO","town":"OGAWA","perfecture_jp":"愛媛県","jp_add_1":"上浮穴郡久万高原町","jp_add_2":"大川"},"7911702":{"post_code":"7911702","prefecture":"EHIME KEN","city":"KAMIUKENA GUN KUMAKOGEN CHO","town":"ONARU","perfecture_jp":"愛媛県","jp_add_1":"上浮穴郡久万高原町","jp_add_2":"大成"},"7911703":{"post_code":"7911703","prefecture":"EHIME KEN","city":"KAMIUKENA GUN KUMAKOGEN CHO","town":"KASAGATA","perfecture_jp":"愛媛県","jp_add_1":"上浮穴郡久万高原町","jp_add_2":"笠方"},"7911501":{"post_code":"7911501","prefecture":"EHIME KEN","city":"KAMIUKENA GUN KUMAKOGEN CHO","town":"KAMIKUROIWA","perfecture_jp":"愛媛県","jp_add_1":"上浮穴郡久万高原町","jp_add_2":"上黒岩"},"7911206":{"post_code":"7911206","prefecture":"EHIME KEN","city":"KAMIUKENA GUN KUMAKOGEN CHO","town":"KAMINOJIRI","perfecture_jp":"愛媛県","jp_add_1":"上浮穴郡久万高原町","jp_add_2":"上野尻"},"7911211":{"post_code":"7911211","prefecture":"EHIME KEN","city":"KAMIUKENA GUN KUMAKOGEN CHO","town":"KAMIHATANOKAWA","perfecture_jp":"愛媛県","jp_add_1":"上浮穴郡久万高原町","jp_add_2":"上畑野川"},"7911201":{"post_code":"7911201","prefecture":"EHIME KEN","city":"KAMIUKENA GUN KUMAKOGEN CHO","town":"KUMA","perfecture_jp":"愛媛県","jp_add_1":"上浮穴郡久万高原町","jp_add_2":"久万"},"7911515":{"post_code":"7911515","prefecture":"EHIME KEN","city":"KAMIUKENA GUN KUMAKOGEN CHO","town":"KUROFUJIGAWA","perfecture_jp":"愛媛県","jp_add_1":"上浮穴郡久万高原町","jp_add_2":"黒藤川"},"7911708":{"post_code":"7911708","prefecture":"EHIME KEN","city":"KAMIUKENA GUN KUMAKOGEN CHO","town":"KONOKO","perfecture_jp":"愛媛県","jp_add_1":"上浮穴郡久万高原町","jp_add_2":"河の子"},"7911514":{"post_code":"7911514","prefecture":"EHIME KEN","city":"KAMIUKENA GUN KUMAKOGEN CHO","town":"SAWATARI","perfecture_jp":"愛媛県","jp_add_1":"上浮穴郡久万高原町","jp_add_2":"沢渡"},"7911513":{"post_code":"7911513","prefecture":"EHIME KEN","city":"KAMIUKENA GUN KUMAKOGEN CHO","town":"SHIDE","perfecture_jp":"愛媛県","jp_add_1":"上浮穴郡久万高原町","jp_add_2":"仕出"},"7911701":{"post_code":"7911701","prefecture":"EHIME KEN","city":"KAMIUKENA GUN KUMAKOGEN CHO","town":"SHIBUKUSA","perfecture_jp":"愛媛県","jp_add_1":"上浮穴郡久万高原町","jp_add_2":"渋草"},"7911207":{"post_code":"7911207","prefecture":"EHIME KEN","city":"KAMIUKENA GUN KUMAKOGEN CHO","town":"SHIMONOJIRI","perfecture_jp":"愛媛県","jp_add_1":"上浮穴郡久万高原町","jp_add_2":"下野尻"},"7911212":{"post_code":"7911212","prefecture":"EHIME KEN","city":"KAMIUKENA GUN KUMAKOGEN CHO","town":"SHIMOHATANOKAWA","perfecture_jp":"愛媛県","jp_add_1":"上浮穴郡久万高原町","jp_add_2":"下畑野川"},"7911205":{"post_code":"7911205","prefecture":"EHIME KEN","city":"KAMIUKENA GUN KUMAKOGEN CHO","town":"SUGO","perfecture_jp":"愛媛県","jp_add_1":"上浮穴郡久万高原町","jp_add_2":"菅生"},"7911223":{"post_code":"7911223","prefecture":"EHIME KEN","city":"KAMIUKENA GUN KUMAKOGEN CHO","town":"CHICHINOKAWA","perfecture_jp":"愛媛県","jp_add_1":"上浮穴郡久万高原町","jp_add_2":"父野川"},"7911221":{"post_code":"7911221","prefecture":"EHIME KEN","city":"KAMIUKENA GUN KUMAKOGEN CHO","town":"TSUYUMINE","perfecture_jp":"愛媛県","jp_add_1":"上浮穴郡久万高原町","jp_add_2":"露峰"},"7911213":{"post_code":"7911213","prefecture":"EHIME KEN","city":"KAMIUKENA GUN KUMAKOGEN CHO","town":"NAOSE","perfecture_jp":"愛媛県","jp_add_1":"上浮穴郡久万高原町","jp_add_2":"直瀬"},"7911707":{"post_code":"7911707","prefecture":"EHIME KEN","city":"KAMIUKENA GUN KUMAKOGEN CHO","town":"NAKAGUMI","perfecture_jp":"愛媛県","jp_add_1":"上浮穴郡久万高原町","jp_add_2":"中組"},"7911502":{"post_code":"7911502","prefecture":"EHIME KEN","city":"KAMIUKENA GUN KUMAKOGEN CHO","town":"NAKAKUROIWA","perfecture_jp":"愛媛県","jp_add_1":"上浮穴郡久万高原町","jp_add_2":"中黒岩"},"7911803":{"post_code":"7911803","prefecture":"EHIME KEN","city":"KAMIUKENA GUN KUMAKOGEN CHO","town":"NAKATSU","perfecture_jp":"愛媛県","jp_add_1":"上浮穴郡久万高原町","jp_add_2":"中津"},"7911511":{"post_code":"7911511","prefecture":"EHIME KEN","city":"KAMIUKENA GUN KUMAKOGEN CHO","town":"NANATORI","perfecture_jp":"愛媛県","jp_add_1":"上浮穴郡久万高原町","jp_add_2":"七鳥"},"7911802":{"post_code":"7911802","prefecture":"EHIME KEN","city":"KAMIUKENA GUN KUMAKOGEN CHO","town":"NISHIDANI","perfecture_jp":"愛媛県","jp_add_1":"上浮穴郡久万高原町","jp_add_2":"西谷"},"7911203":{"post_code":"7911203","prefecture":"EHIME KEN","city":"KAMIUKENA GUN KUMAKOGEN CHO","town":"NISHIMYOJIN","perfecture_jp":"愛媛県","jp_add_1":"上浮穴郡久万高原町","jp_add_2":"西明神"},"7911222":{"post_code":"7911222","prefecture":"EHIME KEN","city":"KAMIUKENA GUN KUMAKOGEN CHO","town":"NIMYO","perfecture_jp":"愛媛県","jp_add_1":"上浮穴郡久万高原町","jp_add_2":"二名"},"7911512":{"post_code":"7911512","prefecture":"EHIME KEN","city":"KAMIUKENA GUN KUMAKOGEN CHO","town":"HIGASHIGAWA","perfecture_jp":"愛媛県","jp_add_1":"上浮穴郡久万高原町","jp_add_2":"東川"},"7911204":{"post_code":"7911204","prefecture":"EHIME KEN","city":"KAMIUKENA GUN KUMAKOGEN CHO","town":"HIGASHIMYOJIN","perfecture_jp":"愛媛県","jp_add_1":"上浮穴郡久万高原町","jp_add_2":"東明神"},"7911503":{"post_code":"7911503","prefecture":"EHIME KEN","city":"KAMIUKENA GUN KUMAKOGEN CHO","town":"HINORA","perfecture_jp":"愛媛県","jp_add_1":"上浮穴郡久万高原町","jp_add_2":"日野浦"},"7911706":{"post_code":"7911706","prefecture":"EHIME KEN","city":"KAMIUKENA GUN KUMAKOGEN CHO","town":"HONGUMI","perfecture_jp":"愛媛県","jp_add_1":"上浮穴郡久万高原町","jp_add_2":"本組"},"7911704":{"post_code":"7911704","prefecture":"EHIME KEN","city":"KAMIUKENA GUN KUMAKOGEN CHO","town":"MAEGUMI","perfecture_jp":"愛媛県","jp_add_1":"上浮穴郡久万高原町","jp_add_2":"前組"},"7911801":{"post_code":"7911801","prefecture":"EHIME KEN","city":"KAMIUKENA GUN KUMAKOGEN CHO","town":"YANAIGAWA","perfecture_jp":"愛媛県","jp_add_1":"上浮穴郡久万高原町","jp_add_2":"柳井川"},"7911710":{"post_code":"7911710","prefecture":"EHIME KEN","city":"KAMIUKENA GUN KUMAKOGEN CHO","town":"WAKAYAMA","perfecture_jp":"愛媛県","jp_add_1":"上浮穴郡久万高原町","jp_add_2":"若山"},"7913100":{"post_code":"7913100","prefecture":"EHIME KEN","city":"IYO GUN MASAKI CHO","town":"IKANIKEISAIGANAIBAAI","perfecture_jp":"愛媛県","jp_add_1":"伊予郡松前町","jp_add_2":""},"7913141":{"post_code":"7913141","prefecture":"EHIME KEN","city":"IYO GUN MASAKI CHO","town":"EKUBI","perfecture_jp":"愛媛県","jp_add_1":"伊予郡松前町","jp_add_2":"恵久美"},"7913153":{"post_code":"7913153","prefecture":"EHIME KEN","city":"IYO GUN MASAKI CHO","town":"OMIZO","perfecture_jp":"愛媛県","jp_add_1":"伊予郡松前町","jp_add_2":"大溝"},"7913142":{"post_code":"7913142","prefecture":"EHIME KEN","city":"IYO GUN MASAKI CHO","town":"KAMITAKAYANAGI","perfecture_jp":"愛媛県","jp_add_1":"伊予郡松前町","jp_add_2":"上高柳"},"7913161":{"post_code":"7913161","prefecture":"EHIME KEN","city":"IYO GUN MASAKI CHO","town":"KANZAKI","perfecture_jp":"愛媛県","jp_add_1":"伊予郡松前町","jp_add_2":"神崎"},"7913131":{"post_code":"7913131","prefecture":"EHIME KEN","city":"IYO GUN MASAKI CHO","town":"KITAGAWARA","perfecture_jp":"愛媛県","jp_add_1":"伊予郡松前町","jp_add_2":"北川原"},"7913102":{"post_code":"7913102","prefecture":"EHIME KEN","city":"IYO GUN MASAKI CHO","town":"KITAKURODA","perfecture_jp":"愛媛県","jp_add_1":"伊予郡松前町","jp_add_2":"北黒田"},"7913162":{"post_code":"7913162","prefecture":"EHIME KEN","city":"IYO GUN MASAKI CHO","town":"SHUTSUSAKU","perfecture_jp":"愛媛県","jp_add_1":"伊予郡松前町","jp_add_2":"出作"},"7913133":{"post_code":"7913133","prefecture":"EHIME KEN","city":"IYO GUN MASAKI CHO","town":"SHONOCHI","perfecture_jp":"愛媛県","jp_add_1":"伊予郡松前町","jp_add_2":"昌農内"},"7913143":{"post_code":"7913143","prefecture":"EHIME KEN","city":"IYO GUN MASAKI CHO","town":"DAIMA","perfecture_jp":"愛媛県","jp_add_1":"伊予郡松前町","jp_add_2":"大間"},"7913120":{"post_code":"7913120","prefecture":"EHIME KEN","city":"IYO GUN MASAKI CHO","town":"TSUTSUI","perfecture_jp":"愛媛県","jp_add_1":"伊予郡松前町","jp_add_2":"筒井"},"7913155":{"post_code":"7913155","prefecture":"EHIME KEN","city":"IYO GUN MASAKI CHO","town":"TSURUYOSHI","perfecture_jp":"愛媛県","jp_add_1":"伊予郡松前町","jp_add_2":"鶴吉"},"7913163":{"post_code":"7913163","prefecture":"EHIME KEN","city":"IYO GUN MASAKI CHO","town":"TOKUMARU","perfecture_jp":"愛媛県","jp_add_1":"伊予郡松前町","jp_add_2":"徳丸"},"7913164":{"post_code":"7913164","prefecture":"EHIME KEN","city":"IYO GUN MASAKI CHO","town":"NAKAGAWARA","perfecture_jp":"愛媛県","jp_add_1":"伊予郡松前町","jp_add_2":"中川原"},"7913152":{"post_code":"7913152","prefecture":"EHIME KEN","city":"IYO GUN MASAKI CHO","town":"NAGATA","perfecture_jp":"愛媛県","jp_add_1":"伊予郡松前町","jp_add_2":"永田"},"7913134":{"post_code":"7913134","prefecture":"EHIME KEN","city":"IYO GUN MASAKI CHO","town":"NISHIKOIZUMI","perfecture_jp":"愛媛県","jp_add_1":"伊予郡松前町","jp_add_2":"西古泉"},"7913132":{"post_code":"7913132","prefecture":"EHIME KEN","city":"IYO GUN MASAKI CHO","town":"NISHITAKAYANAGI","perfecture_jp":"愛媛県","jp_add_1":"伊予郡松前町","jp_add_2":"西高柳"},"7913110":{"post_code":"7913110","prefecture":"EHIME KEN","city":"IYO GUN MASAKI CHO","town":"HAMA","perfecture_jp":"愛媛県","jp_add_1":"伊予郡松前町","jp_add_2":"浜"},"7913151":{"post_code":"7913151","prefecture":"EHIME KEN","city":"IYO GUN MASAKI CHO","town":"HIGASHIKOIZUMI","perfecture_jp":"愛媛県","jp_add_1":"伊予郡松前町","jp_add_2":"東古泉"},"7913101":{"post_code":"7913101","prefecture":"EHIME KEN","city":"IYO GUN MASAKI CHO","town":"MINAMIKURODA","perfecture_jp":"愛媛県","jp_add_1":"伊予郡松前町","jp_add_2":"南黒田"},"7913154":{"post_code":"7913154","prefecture":"EHIME KEN","city":"IYO GUN MASAKI CHO","town":"YOKOTA","perfecture_jp":"愛媛県","jp_add_1":"伊予郡松前町","jp_add_2":"横田"},"7912100":{"post_code":"7912100","prefecture":"EHIME KEN","city":"IYO GUN TOBE CHO","town":"IKANIKEISAIGANAIBAAI","perfecture_jp":"愛媛県","jp_add_1":"伊予郡砥部町","jp_add_2":""},"7912114":{"post_code":"7912114","prefecture":"EHIME KEN","city":"IYO GUN TOBE CHO","town":"ASO","perfecture_jp":"愛媛県","jp_add_1":"伊予郡砥部町","jp_add_2":"麻生"},"7912142":{"post_code":"7912142","prefecture":"EHIME KEN","city":"IYO GUN TOBE CHO","town":"IWAYA","perfecture_jp":"愛媛県","jp_add_1":"伊予郡砥部町","jp_add_2":"岩谷"},"7912141":{"post_code":"7912141","prefecture":"EHIME KEN","city":"IYO GUN TOBE CHO","town":"IWAYAGUCHI","perfecture_jp":"愛媛県","jp_add_1":"伊予郡砥部町","jp_add_2":"岩谷口"},"7912135":{"post_code":"7912135","prefecture":"EHIME KEN","city":"IYO GUN TOBE CHO","town":"UNOSAKI","perfecture_jp":"愛媛県","jp_add_1":"伊予郡砥部町","jp_add_2":"鵜ノ崎"},"7912206":{"post_code":"7912206","prefecture":"EHIME KEN","city":"IYO GUN TOBE CHO","town":"OIDANI","perfecture_jp":"愛媛県","jp_add_1":"伊予郡砥部町","jp_add_2":"多居谷"},"7912126":{"post_code":"7912126","prefecture":"EHIME KEN","city":"IYO GUN TOBE CHO","town":"OKAKURA","perfecture_jp":"愛媛県","jp_add_1":"伊予郡砥部町","jp_add_2":"大角蔵"},"7912145":{"post_code":"7912145","prefecture":"EHIME KEN","city":"IYO GUN TOBE CHO","town":"OHIRA","perfecture_jp":"愛媛県","jp_add_1":"伊予郡砥部町","jp_add_2":"大平"},"7912132":{"post_code":"7912132","prefecture":"EHIME KEN","city":"IYO GUN TOBE CHO","town":"OMINAMI","perfecture_jp":"愛媛県","jp_add_1":"伊予郡砥部町","jp_add_2":"大南"},"7912117":{"post_code":"7912117","prefecture":"EHIME KEN","city":"IYO GUN TOBE CHO","town":"KAMIHARAMACHI","perfecture_jp":"愛媛県","jp_add_1":"伊予郡砥部町","jp_add_2":"上原町"},"7912123":{"post_code":"7912123","prefecture":"EHIME KEN","city":"IYO GUN TOBE CHO","town":"KAWAI","perfecture_jp":"愛媛県","jp_add_1":"伊予郡砥部町","jp_add_2":"川井"},"7912143":{"post_code":"7912143","prefecture":"EHIME KEN","city":"IYO GUN TOBE CHO","town":"KAWANOBORI","perfecture_jp":"愛媛県","jp_add_1":"伊予郡砥部町","jp_add_2":"川登"},"7912131":{"post_code":"7912131","prefecture":"EHIME KEN","city":"IYO GUN TOBE CHO","town":"KITAKAWAGE","perfecture_jp":"愛媛県","jp_add_1":"伊予郡砥部町","jp_add_2":"北川毛"},"7912133":{"post_code":"7912133","prefecture":"EHIME KEN","city":"IYO GUN TOBE CHO","town":"GOHOMMATSU","perfecture_jp":"愛媛県","jp_add_1":"伊予郡砥部町","jp_add_2":"五本松"},"7912112":{"post_code":"7912112","prefecture":"EHIME KEN","city":"IYO GUN TOBE CHO","town":"SHIGEMITSU","perfecture_jp":"愛媛県","jp_add_1":"伊予郡砥部町","jp_add_2":"重光"},"7912113":{"post_code":"7912113","prefecture":"EHIME KEN","city":"IYO GUN TOBE CHO","town":"JITSUCHO","perfecture_jp":"愛媛県","jp_add_1":"伊予郡砥部町","jp_add_2":"拾町"},"7912122":{"post_code":"7912122","prefecture":"EHIME KEN","city":"IYO GUN TOBE CHO","town":"SENZOKU","perfecture_jp":"愛媛県","jp_add_1":"伊予郡砥部町","jp_add_2":"千足"},"7912207":{"post_code":"7912207","prefecture":"EHIME KEN","city":"IYO GUN TOBE CHO","town":"SEMBA","perfecture_jp":"愛媛県","jp_add_1":"伊予郡砥部町","jp_add_2":"仙波"},"7912205":{"post_code":"7912205","prefecture":"EHIME KEN","city":"IYO GUN TOBE CHO","town":"SOZU","perfecture_jp":"愛媛県","jp_add_1":"伊予郡砥部町","jp_add_2":"総津"},"7912204":{"post_code":"7912204","prefecture":"EHIME KEN","city":"IYO GUN TOBE CHO","town":"TAKAICHI","perfecture_jp":"愛媛県","jp_add_1":"伊予郡砥部町","jp_add_2":"高市"},"7912103":{"post_code":"7912103","prefecture":"EHIME KEN","city":"IYO GUN TOBE CHO","town":"TAKODA(UENODANCHI)","perfecture_jp":"愛媛県","jp_add_1":"伊予郡砥部町","jp_add_2":"高尾田"},"7912102":{"post_code":"7912102","prefecture":"EHIME KEN","city":"IYO GUN TOBE CHO","town":"TAKODA(TOBEDANCHI)","perfecture_jp":"愛媛県","jp_add_1":"伊予郡砥部町","jp_add_2":"高尾田"},"7912101":{"post_code":"7912101","prefecture":"EHIME KEN","city":"IYO GUN TOBE CHO","town":"TAKODA(SONOTA)","perfecture_jp":"愛媛県","jp_add_1":"伊予郡砥部町","jp_add_2":"高尾田"},"7912124":{"post_code":"7912124","prefecture":"EHIME KEN","city":"IYO GUN TOBE CHO","town":"TANORA","perfecture_jp":"愛媛県","jp_add_1":"伊予郡砥部町","jp_add_2":"田ノ浦"},"7912202":{"post_code":"7912202","prefecture":"EHIME KEN","city":"IYO GUN TOBE CHO","town":"TAMATANI","perfecture_jp":"愛媛県","jp_add_1":"伊予郡砥部町","jp_add_2":"玉谷"},"7912134":{"post_code":"7912134","prefecture":"EHIME KEN","city":"IYO GUN TOBE CHO","town":"TOYAMA","perfecture_jp":"愛媛県","jp_add_1":"伊予郡砥部町","jp_add_2":"外山"},"7912203":{"post_code":"7912203","prefecture":"EHIME KEN","city":"IYO GUN TOBE CHO","town":"NAKANOKAWA","perfecture_jp":"愛媛県","jp_add_1":"伊予郡砥部町","jp_add_2":"中野川"},"7912125":{"post_code":"7912125","prefecture":"EHIME KEN","city":"IYO GUN TOBE CHO","town":"NANAORE","perfecture_jp":"愛媛県","jp_add_1":"伊予郡砥部町","jp_add_2":"七折"},"7912116":{"post_code":"7912116","prefecture":"EHIME KEN","city":"IYO GUN TOBE CHO","town":"HARAMACHI","perfecture_jp":"愛媛県","jp_add_1":"伊予郡砥部町","jp_add_2":"原町"},"7912144":{"post_code":"7912144","prefecture":"EHIME KEN","city":"IYO GUN TOBE CHO","town":"MANNEN","perfecture_jp":"愛媛県","jp_add_1":"伊予郡砥部町","jp_add_2":"万年"},"7912201":{"post_code":"7912201","prefecture":"EHIME KEN","city":"IYO GUN TOBE CHO","town":"MITSUHO","perfecture_jp":"愛媛県","jp_add_1":"伊予郡砥部町","jp_add_2":"満穂"},"7912121":{"post_code":"7912121","prefecture":"EHIME KEN","city":"IYO GUN TOBE CHO","town":"MIYAUCHI(YAMANAMI)","perfecture_jp":"愛媛県","jp_add_1":"伊予郡砥部町","jp_add_2":"宮内"},"7912120":{"post_code":"7912120","prefecture":"EHIME KEN","city":"IYO GUN TOBE CHO","town":"MIYAUCHI(SONOTA)","perfecture_jp":"愛媛県","jp_add_1":"伊予郡砥部町","jp_add_2":"宮内"},"7912115":{"post_code":"7912115","prefecture":"EHIME KEN","city":"IYO GUN TOBE CHO","town":"MYOKA","perfecture_jp":"愛媛県","jp_add_1":"伊予郡砥部町","jp_add_2":"三角"},"7912111":{"post_code":"7912111","prefecture":"EHIME KEN","city":"IYO GUN TOBE CHO","town":"YAKURA","perfecture_jp":"愛媛県","jp_add_1":"伊予郡砥部町","jp_add_2":"八倉"},"7913300":{"post_code":"7913300","prefecture":"EHIME KEN","city":"KITA GUN UCHIKO CHO","town":"IKANIKEISAIGANAIBAAI","perfecture_jp":"愛媛県","jp_add_1":"喜多郡内子町","jp_add_2":""},"7913343":{"post_code":"7913343","prefecture":"EHIME KEN","city":"KITA GUN UCHIKO CHO","town":"ISHIDATAMI","perfecture_jp":"愛媛県","jp_add_1":"喜多郡内子町","jp_add_2":"石畳"},"7913351":{"post_code":"7913351","prefecture":"EHIME KEN","city":"KITA GUN UCHIKO CHO","town":"IYOKI","perfecture_jp":"愛媛県","jp_add_1":"喜多郡内子町","jp_add_2":"五百木"},"7913514":{"post_code":"7913514","prefecture":"EHIME KEN","city":"KITA GUN UCHIKO CHO","town":"USUKI","perfecture_jp":"愛媛県","jp_add_1":"喜多郡内子町","jp_add_2":"臼杵"},"7913301":{"post_code":"7913301","prefecture":"EHIME KEN","city":"KITA GUN UCHIKO CHO","town":"UCHIKO","perfecture_jp":"愛媛県","jp_add_1":"喜多郡内子町","jp_add_2":"内子"},"7913360":{"post_code":"7913360","prefecture":"EHIME KEN","city":"KITA GUN UCHIKO CHO","town":"OSE","perfecture_jp":"愛媛県","jp_add_1":"喜多郡内子町","jp_add_2":"大瀬"},"7913363":{"post_code":"7913363","prefecture":"EHIME KEN","city":"KITA GUN UCHIKO CHO","town":"OSEHIGASHI","perfecture_jp":"愛媛県","jp_add_1":"喜多郡内子町","jp_add_2":"大瀬東"},"7913364":{"post_code":"7913364","prefecture":"EHIME KEN","city":"KITA GUN UCHIKO CHO","town":"OSEMINAMI","perfecture_jp":"愛媛県","jp_add_1":"喜多郡内子町","jp_add_2":"大瀬南"},"7913362":{"post_code":"7913362","prefecture":"EHIME KEN","city":"KITA GUN UCHIKO CHO","town":"OSEKITA(OTSUKAGEYAMA.KUMANOTAKI.KOG","perfecture_jp":"愛媛県","jp_add_1":"喜多郡内子町","jp_add_2":"大瀬北"},"7913361":{"post_code":"7913361","prefecture":"EHIME KEN","city":"KITA GUN UCHIKO CHO","town":"OSECHUO(UKAWA.OKUBO.OTSUNARI.NAKANO","perfecture_jp":"愛媛県","jp_add_1":"喜多郡内子町","jp_add_2":"大瀬中央"},"7913504":{"post_code":"7913504","prefecture":"EHIME KEN","city":"KITA GUN UCHIKO CHO","town":"OHIRA","perfecture_jp":"愛媛県","jp_add_1":"喜多郡内子町","jp_add_2":"大平"},"7913501":{"post_code":"7913501","prefecture":"EHIME KEN","city":"KITA GUN UCHIKO CHO","town":"ODA","perfecture_jp":"愛媛県","jp_add_1":"喜多郡内子町","jp_add_2":"小田"},"7913524":{"post_code":"7913524","prefecture":"EHIME KEN","city":"KITA GUN UCHIKO CHO","town":"ODAMIYAMA","perfecture_jp":"愛媛県","jp_add_1":"喜多郡内子町","jp_add_2":"小田深山"},"7913523":{"post_code":"7913523","prefecture":"EHIME KEN","city":"KITA GUN UCHIKO CHO","town":"KAMIGAWA","perfecture_jp":"愛媛県","jp_add_1":"喜多郡内子町","jp_add_2":"上川"},"7913513":{"post_code":"7913513","prefecture":"EHIME KEN","city":"KITA GUN UCHIKO CHO","town":"KAMITADO","perfecture_jp":"愛媛県","jp_add_1":"喜多郡内子町","jp_add_2":"上田渡"},"7913321":{"post_code":"7913321","prefecture":"EHIME KEN","city":"KITA GUN UCHIKO CHO","town":"KAWANAKA","perfecture_jp":"愛媛県","jp_add_1":"喜多郡内子町","jp_add_2":"川中"},"7913342":{"post_code":"7913342","prefecture":"EHIME KEN","city":"KITA GUN UCHIKO CHO","town":"KAWANOCHI","perfecture_jp":"愛媛県","jp_add_1":"喜多郡内子町","jp_add_2":"河内"},"7913310":{"post_code":"7913310","prefecture":"EHIME KEN","city":"KITA GUN UCHIKO CHO","town":"SHIROMAWARI","perfecture_jp":"愛媛県","jp_add_1":"喜多郡内子町","jp_add_2":"城廻"},"7913331":{"post_code":"7913331","prefecture":"EHIME KEN","city":"KITA GUN UCHIKO CHO","town":"TACHIYAMA","perfecture_jp":"愛媛県","jp_add_1":"喜多郡内子町","jp_add_2":"立山"},"7913505":{"post_code":"7913505","prefecture":"EHIME KEN","city":"KITA GUN UCHIKO CHO","town":"TATEISHI","perfecture_jp":"愛媛県","jp_add_1":"喜多郡内子町","jp_add_2":"立石"},"7913322":{"post_code":"7913322","prefecture":"EHIME KEN","city":"KITA GUN UCHIKO CHO","town":"CHISEI","perfecture_jp":"愛媛県","jp_add_1":"喜多郡内子町","jp_add_2":"知清"},"7913502":{"post_code":"7913502","prefecture":"EHIME KEN","city":"KITA GUN UCHIKO CHO","town":"TERAMURA","perfecture_jp":"愛媛県","jp_add_1":"喜多郡内子町","jp_add_2":"寺村"},"7913522":{"post_code":"7913522","prefecture":"EHIME KEN","city":"KITA GUN UCHIKO CHO","town":"NAKAGAWA","perfecture_jp":"愛媛県","jp_add_1":"喜多郡内子町","jp_add_2":"中川"},"7913512":{"post_code":"7913512","prefecture":"EHIME KEN","city":"KITA GUN UCHIKO CHO","town":"NAKATADO","perfecture_jp":"愛媛県","jp_add_1":"喜多郡内子町","jp_add_2":"中田渡"},"7913503":{"post_code":"7913503","prefecture":"EHIME KEN","city":"KITA GUN UCHIKO CHO","town":"HINOKAWA","perfecture_jp":"愛媛県","jp_add_1":"喜多郡内子町","jp_add_2":"日野川"},"7913332":{"post_code":"7913332","prefecture":"EHIME KEN","city":"KITA GUN UCHIKO CHO","town":"FUROKU","perfecture_jp":"愛媛県","jp_add_1":"喜多郡内子町","jp_add_2":"袋口"},"7913521":{"post_code":"7913521","prefecture":"EHIME KEN","city":"KITA GUN UCHIKO CHO","town":"HONGAWA","perfecture_jp":"愛媛県","jp_add_1":"喜多郡内子町","jp_add_2":"本川"},"7913506":{"post_code":"7913506","prefecture":"EHIME KEN","city":"KITA GUN UCHIKO CHO","town":"MINAMIYAMA","perfecture_jp":"愛媛県","jp_add_1":"喜多郡内子町","jp_add_2":"南山"},"7913352":{"post_code":"7913352","prefecture":"EHIME KEN","city":"KITA GUN UCHIKO CHO","town":"MURASAKI","perfecture_jp":"愛媛県","jp_add_1":"喜多郡内子町","jp_add_2":"村前"},"7913511":{"post_code":"7913511","prefecture":"EHIME KEN","city":"KITA GUN UCHIKO CHO","town":"YOSHINOKAWA","perfecture_jp":"愛媛県","jp_add_1":"喜多郡内子町","jp_add_2":"吉野川"},"7913341":{"post_code":"7913341","prefecture":"EHIME KEN","city":"KITA GUN UCHIKO CHO","town":"RONDEN","perfecture_jp":"愛媛県","jp_add_1":"喜多郡内子町","jp_add_2":"論田"}}