{"7940000":{"post_code":"7940000","prefecture":"EHIME KEN","city":"IMABARI SHI","town":"IKANIKEISAIGANAIBAAI","perfecture_jp":"愛媛県","jp_add_1":"今治市","jp_add_2":""},"7940081":{"post_code":"7940081","prefecture":"EHIME KEN","city":"IMABARI SHI","town":"AGATA","perfecture_jp":"愛媛県","jp_add_1":"今治市","jp_add_2":"阿方"},"7940042":{"post_code":"7940042","prefecture":"EHIME KEN","city":"IMABARI SHI","town":"ASAHIMACHI","perfecture_jp":"愛媛県","jp_add_1":"今治市","jp_add_2":"旭町"},"7940861":{"post_code":"7940861","prefecture":"EHIME KEN","city":"IMABARI SHI","town":"IKANASHI","perfecture_jp":"愛媛県","jp_add_1":"今治市","jp_add_2":"五十嵐"},"7940085":{"post_code":"7940085","prefecture":"EHIME KEN","city":"IMABARI SHI","town":"IKOINOKA","perfecture_jp":"愛媛県","jp_add_1":"今治市","jp_add_2":"いこいの丘"},"7940006":{"post_code":"7940006","prefecture":"EHIME KEN","city":"IMABARI SHI","town":"ISHIICHO","perfecture_jp":"愛媛県","jp_add_1":"今治市","jp_add_2":"石井町"},"7940824":{"post_code":"7940824","prefecture":"EHIME KEN","city":"IMABARI SHI","town":"ISHIBASHICHO","perfecture_jp":"愛媛県","jp_add_1":"今治市","jp_add_2":"石橋町"},"7940057":{"post_code":"7940057","prefecture":"EHIME KEN","city":"IMABARI SHI","town":"IZUMIGAWACHO","perfecture_jp":"愛媛県","jp_add_1":"今治市","jp_add_2":"泉川町"},"7940014":{"post_code":"7940014","prefecture":"EHIME KEN","city":"IMABARI SHI","town":"IMABARIMURA(HIKIJIMA)","perfecture_jp":"愛媛県","jp_add_1":"今治市","jp_add_2":"今治村"},"7940062":{"post_code":"7940062","prefecture":"EHIME KEN","city":"IMABARI SHI","town":"UMAGOECHO","perfecture_jp":"愛媛県","jp_add_1":"今治市","jp_add_2":"馬越町"},"7940061":{"post_code":"7940061","prefecture":"EHIME KEN","city":"IMABARI SHI","town":"UMAGOENIBANKOCHI","perfecture_jp":"愛媛県","jp_add_1":"今治市","jp_add_2":"馬越二番耕地"},"7940035":{"post_code":"7940035","prefecture":"EHIME KEN","city":"IMABARI SHI","town":"EDABORICHO","perfecture_jp":"愛媛県","jp_add_1":"今治市","jp_add_2":"枝堀町"},"7940031":{"post_code":"7940031","prefecture":"EHIME KEN","city":"IMABARI SHI","town":"EBISUCHO","perfecture_jp":"愛媛県","jp_add_1":"今治市","jp_add_2":"恵美須町"},"7940084":{"post_code":"7940084","prefecture":"EHIME KEN","city":"IMABARI SHI","town":"ENGI","perfecture_jp":"愛媛県","jp_add_1":"今治市","jp_add_2":"延喜"},"7940005":{"post_code":"7940005","prefecture":"EHIME KEN","city":"IMABARI SHI","town":"OSHINDENCHO","perfecture_jp":"愛媛県","jp_add_1":"今治市","jp_add_2":"大新田町"},"7940002":{"post_code":"7940002","prefecture":"EHIME KEN","city":"IMABARI SHI","town":"OHAMACHO","perfecture_jp":"愛媛県","jp_add_1":"今治市","jp_add_2":"大浜町"},"7941303":{"post_code":"7941303","prefecture":"EHIME KEN","city":"IMABARI SHI","town":"OMISHIMACHO AKEBI","perfecture_jp":"愛媛県","jp_add_1":"今治市","jp_add_2":"大三島町明日"},"7941305":{"post_code":"7941305","prefecture":"EHIME KEN","city":"IMABARI SHI","town":"OMISHIMACHO UTENA","perfecture_jp":"愛媛県","jp_add_1":"今治市","jp_add_2":"大三島町台"},"7941308":{"post_code":"7941308","prefecture":"EHIME KEN","city":"IMABARI SHI","town":"OMISHIMACHO URADO","perfecture_jp":"愛媛県","jp_add_1":"今治市","jp_add_2":"大三島町浦戸"},"7941302":{"post_code":"7941302","prefecture":"EHIME KEN","city":"IMABARI SHI","town":"OMISHIMACHO OMI","perfecture_jp":"愛媛県","jp_add_1":"今治市","jp_add_2":"大三島町大見"},"7941307":{"post_code":"7941307","prefecture":"EHIME KEN","city":"IMABARI SHI","town":"OMISHIMACHO KUCHISUBO","perfecture_jp":"愛媛県","jp_add_1":"今治市","jp_add_2":"大三島町口総"},"7941306":{"post_code":"7941306","prefecture":"EHIME KEN","city":"IMABARI SHI","town":"OMISHIMACHO NONOE","perfecture_jp":"愛媛県","jp_add_1":"今治市","jp_add_2":"大三島町野々江"},"7941301":{"post_code":"7941301","prefecture":"EHIME KEN","city":"IMABARI SHI","town":"OMISHIMACHO HIGAI","perfecture_jp":"愛媛県","jp_add_1":"今治市","jp_add_2":"大三島町肥海"},"7941304":{"post_code":"7941304","prefecture":"EHIME KEN","city":"IMABARI SHI","town":"OMISHIMACHO MIYAURA","perfecture_jp":"愛媛県","jp_add_1":"今治市","jp_add_2":"大三島町宮浦"},"7941309":{"post_code":"7941309","prefecture":"EHIME KEN","city":"IMABARI SHI","town":"OMISHIMACHO MUNAGATA","perfecture_jp":"愛媛県","jp_add_1":"今治市","jp_add_2":"大三島町宗方"},"7940017":{"post_code":"7940017","prefecture":"EHIME KEN","city":"IMABARI SHI","town":"KAZAHAYACHO","perfecture_jp":"愛媛県","jp_add_1":"今治市","jp_add_2":"風早町"},"7940013":{"post_code":"7940013","prefecture":"EHIME KEN","city":"IMABARI SHI","town":"KATAHARACHO","perfecture_jp":"愛媛県","jp_add_1":"今治市","jp_add_2":"片原町"},"7940063":{"post_code":"7940063","prefecture":"EHIME KEN","city":"IMABARI SHI","town":"KATAYAMA","perfecture_jp":"愛媛県","jp_add_1":"今治市","jp_add_2":"片山"},"7940822":{"post_code":"7940822","prefecture":"EHIME KEN","city":"IMABARI SHI","town":"KANANCHO","perfecture_jp":"愛媛県","jp_add_1":"今治市","jp_add_2":"河南町"},"7940004":{"post_code":"7940004","prefecture":"EHIME KEN","city":"IMABARI SHI","town":"KANEBACHO","perfecture_jp":"愛媛県","jp_add_1":"今治市","jp_add_2":"鐘場町"},"7941403":{"post_code":"7941403","prefecture":"EHIME KEN","city":"IMABARI SHI","town":"KAMIURACHO AMAZAKI","perfecture_jp":"愛媛県","jp_add_1":"今治市","jp_add_2":"上浦町甘崎"},"7941402":{"post_code":"7941402","prefecture":"EHIME KEN","city":"IMABARI SHI","town":"KAMIURACHO INOKUCHI","perfecture_jp":"愛媛県","jp_add_1":"今治市","jp_add_2":"上浦町井口"},"7941401":{"post_code":"7941401","prefecture":"EHIME KEN","city":"IMABARI SHI","town":"KAMIURACHO SAKARI","perfecture_jp":"愛媛県","jp_add_1":"今治市","jp_add_2":"上浦町盛"},"7941404":{"post_code":"7941404","prefecture":"EHIME KEN","city":"IMABARI SHI","town":"KAMIURACHO SETO","perfecture_jp":"愛媛県","jp_add_1":"今治市","jp_add_2":"上浦町瀬戸"},"7940074":{"post_code":"7940074","prefecture":"EHIME KEN","city":"IMABARI SHI","town":"KANNOMIYA","perfecture_jp":"愛媛県","jp_add_1":"今治市","jp_add_2":"神宮"},"7940804":{"post_code":"7940804","prefecture":"EHIME KEN","city":"IMABARI SHI","town":"GIONCHO","perfecture_jp":"愛媛県","jp_add_1":"今治市","jp_add_2":"祇園町"},"7940812":{"post_code":"7940812","prefecture":"EHIME KEN","city":"IMABARI SHI","town":"KITAKOGECHO","perfecture_jp":"愛媛県","jp_add_1":"今治市","jp_add_2":"北高下町"},"7940803":{"post_code":"7940803","prefecture":"EHIME KEN","city":"IMABARI SHI","town":"KITATORIUCHO","perfecture_jp":"愛媛県","jp_add_1":"今治市","jp_add_2":"北鳥生町"},"7940011":{"post_code":"7940011","prefecture":"EHIME KEN","city":"IMABARI SHI","town":"KITAHAMACHO","perfecture_jp":"愛媛県","jp_add_1":"今治市","jp_add_2":"北浜町"},"7940054":{"post_code":"7940054","prefecture":"EHIME KEN","city":"IMABARI SHI","town":"KITAHIYOSHICHO","perfecture_jp":"愛媛県","jp_add_1":"今治市","jp_add_2":"北日吉町"},"7940028":{"post_code":"7940028","prefecture":"EHIME KEN","city":"IMABARI SHI","town":"KITAHORAICHO","perfecture_jp":"愛媛県","jp_add_1":"今治市","jp_add_2":"北宝来町"},"7940813":{"post_code":"7940813","prefecture":"EHIME KEN","city":"IMABARI SHI","town":"KINUBOSHICHO","perfecture_jp":"愛媛県","jp_add_1":"今治市","jp_add_2":"衣干町"},"7940024":{"post_code":"7940024","prefecture":"EHIME KEN","city":"IMABARI SHI","town":"KYOEICHO","perfecture_jp":"愛媛県","jp_add_1":"今治市","jp_add_2":"共栄町"},"7940044":{"post_code":"7940044","prefecture":"EHIME KEN","city":"IMABARI SHI","town":"KURASHIKICHO","perfecture_jp":"愛媛県","jp_add_1":"今治市","jp_add_2":"蔵敷町"},"7940069":{"post_code":"7940069","prefecture":"EHIME KEN","city":"IMABARI SHI","town":"KURIEITEIBUHIRUZU","perfecture_jp":"愛媛県","jp_add_1":"今治市","jp_add_2":"クリエイティブヒルズ"},"7940059":{"post_code":"7940059","prefecture":"EHIME KEN","city":"IMABARI SHI","town":"KOIKECHO","perfecture_jp":"愛媛県","jp_add_1":"今治市","jp_add_2":"鯉池町"},"7940064":{"post_code":"7940064","prefecture":"EHIME KEN","city":"IMABARI SHI","town":"KOIZUMI","perfecture_jp":"愛媛県","jp_add_1":"今治市","jp_add_2":"小泉"},"7940826":{"post_code":"7940826","prefecture":"EHIME KEN","city":"IMABARI SHI","town":"GOSHINYASHIKICHO","perfecture_jp":"愛媛県","jp_add_1":"今治市","jp_add_2":"郷新屋敷町"},"7940823":{"post_code":"7940823","prefecture":"EHIME KEN","city":"IMABARI SHI","town":"GOHONCHO","perfecture_jp":"愛媛県","jp_add_1":"今治市","jp_add_2":"郷本町"},"7940825":{"post_code":"7940825","prefecture":"EHIME KEN","city":"IMABARI SHI","town":"GOROKUGAUCHICHO","perfecture_jp":"愛媛県","jp_add_1":"今治市","jp_add_2":"郷六ケ内町"},"7940805":{"post_code":"7940805","prefecture":"EHIME KEN","city":"IMABARI SHI","town":"KOJOJICHO","perfecture_jp":"愛媛県","jp_add_1":"今治市","jp_add_2":"広紹寺町"},"7940051":{"post_code":"7940051","prefecture":"EHIME KEN","city":"IMABARI SHI","town":"KOCHICHO","perfecture_jp":"愛媛県","jp_add_1":"今治市","jp_add_2":"高地町"},"7940037":{"post_code":"7940037","prefecture":"EHIME KEN","city":"IMABARI SHI","town":"KOGANECHO","perfecture_jp":"愛媛県","jp_add_1":"今治市","jp_add_2":"黄金町"},"7940021":{"post_code":"7940021","prefecture":"EHIME KEN","city":"IMABARI SHI","town":"KOMEYAMACHI","perfecture_jp":"愛媛県","jp_add_1":"今治市","jp_add_2":"米屋町"},"7940023":{"post_code":"7940023","prefecture":"EHIME KEN","city":"IMABARI SHI","town":"SAKAEMACHI","perfecture_jp":"愛媛県","jp_add_1":"今治市","jp_add_2":"栄町"},"7940086":{"post_code":"7940086","prefecture":"EHIME KEN","city":"IMABARI SHI","town":"SHIMANAMINOMORI","perfecture_jp":"愛媛県","jp_add_1":"今治市","jp_add_2":"しまなみの杜"},"7940087":{"post_code":"7940087","prefecture":"EHIME KEN","city":"IMABARI SHI","town":"SHIMANAMIHIRUZU","perfecture_jp":"愛媛県","jp_add_1":"今治市","jp_add_2":"しまなみヒルズ"},"7940038":{"post_code":"7940038","prefecture":"EHIME KEN","city":"IMABARI SHI","town":"SUEHIROCHO","perfecture_jp":"愛媛県","jp_add_1":"今治市","jp_add_2":"末広町"},"7940001":{"post_code":"7940001","prefecture":"EHIME KEN","city":"IMABARI SHI","town":"SUNABACHO","perfecture_jp":"愛媛県","jp_add_1":"今治市","jp_add_2":"砂場町"},"7941103":{"post_code":"7941103","prefecture":"EHIME KEN","city":"IMABARI SHI","town":"SEKIZEN OGE","perfecture_jp":"愛媛県","jp_add_1":"今治市","jp_add_2":"関前大下"},"7941101":{"post_code":"7941101","prefecture":"EHIME KEN","city":"IMABARI SHI","town":"SEKIZEN OKAMURA","perfecture_jp":"愛媛県","jp_add_1":"今治市","jp_add_2":"関前岡村"},"7941102":{"post_code":"7941102","prefecture":"EHIME KEN","city":"IMABARI SHI","town":"SEKIZEN KOGE","perfecture_jp":"愛媛県","jp_add_1":"今治市","jp_add_2":"関前小大下"},"7940058":{"post_code":"7940058","prefecture":"EHIME KEN","city":"IMABARI SHI","town":"SOSHACHO","perfecture_jp":"愛媛県","jp_add_1":"今治市","jp_add_2":"蒼社町"},"7940025":{"post_code":"7940025","prefecture":"EHIME KEN","city":"IMABARI SHI","town":"TAISHOCHO","perfecture_jp":"愛媛県","jp_add_1":"今治市","jp_add_2":"大正町"},"7940066":{"post_code":"7940066","prefecture":"EHIME KEN","city":"IMABARI SHI","town":"TAKAHASHI","perfecture_jp":"愛媛県","jp_add_1":"今治市","jp_add_2":"高橋"},"7940067":{"post_code":"7940067","prefecture":"EHIME KEN","city":"IMABARI SHI","town":"TAKAHASHIFUREAINOKA","perfecture_jp":"愛媛県","jp_add_1":"今治市","jp_add_2":"高橋ふれあいの丘"},"7940083":{"post_code":"7940083","prefecture":"EHIME KEN","city":"IMABARI SHI","town":"TAKUMA","perfecture_jp":"愛媛県","jp_add_1":"今治市","jp_add_2":"宅間"},"7940821":{"post_code":"7940821","prefecture":"EHIME KEN","city":"IMABARI SHI","town":"TACHIBANACHO","perfecture_jp":"愛媛県","jp_add_1":"今治市","jp_add_2":"立花町"},"7940102":{"post_code":"7940102","prefecture":"EHIME KEN","city":"IMABARI SHI","town":"TAMAGAWACHO ONO","perfecture_jp":"愛媛県","jp_add_1":"今治市","jp_add_2":"玉川町大野"},"7940117":{"post_code":"7940117","prefecture":"EHIME KEN","city":"IMABARI SHI","town":"TAMAGAWACHO ONIBARA","perfecture_jp":"愛媛県","jp_add_1":"今治市","jp_add_2":"玉川町鬼原"},"7940125":{"post_code":"7940125","prefecture":"EHIME KEN","city":"IMABARI SHI","town":"TAMAGAWACHO KAZURATANI","perfecture_jp":"愛媛県","jp_add_1":"今治市","jp_add_2":"玉川町葛谷"},"7940107":{"post_code":"7940107","prefecture":"EHIME KEN","city":"IMABARI SHI","town":"TAMAGAWACHO KATSURA","perfecture_jp":"愛媛県","jp_add_1":"今治市","jp_add_2":"玉川町桂"},"7940122":{"post_code":"7940122","prefecture":"EHIME KEN","city":"IMABARI SHI","town":"TAMAGAWACHO KIJI","perfecture_jp":"愛媛県","jp_add_1":"今治市","jp_add_2":"玉川町木地"},"7940115":{"post_code":"7940115","prefecture":"EHIME KEN","city":"IMABARI SHI","town":"TAMAGAWACHO KOYA","perfecture_jp":"愛媛県","jp_add_1":"今治市","jp_add_2":"玉川町高野"},"7940112":{"post_code":"7940112","prefecture":"EHIME KEN","city":"IMABARI SHI","town":"TAMAGAWACHO KOKAMBE","perfecture_jp":"愛媛県","jp_add_1":"今治市","jp_add_2":"玉川町小鴨部"},"7940101":{"post_code":"7940101","prefecture":"EHIME KEN","city":"IMABARI SHI","town":"TAMAGAWACHO SANDANJI","perfecture_jp":"愛媛県","jp_add_1":"今治市","jp_add_2":"玉川町三反地"},"7940104":{"post_code":"7940104","prefecture":"EHIME KEN","city":"IMABARI SHI","town":"TAMAGAWACHO SURUGI","perfecture_jp":"愛媛県","jp_add_1":"今治市","jp_add_2":"玉川町摺木"},"7940109":{"post_code":"7940109","prefecture":"EHIME KEN","city":"IMABARI SHI","town":"TAMAGAWACHO NAGATANI","perfecture_jp":"愛媛県","jp_add_1":"今治市","jp_add_2":"玉川町長谷"},"7940111":{"post_code":"7940111","prefecture":"EHIME KEN","city":"IMABARI SHI","town":"TAMAGAWACHO NAKAMURA","perfecture_jp":"愛媛県","jp_add_1":"今治市","jp_add_2":"玉川町中村"},"7940106":{"post_code":"7940106","prefecture":"EHIME KEN","city":"IMABARI SHI","town":"TAMAGAWACHO NABEJI","perfecture_jp":"愛媛県","jp_add_1":"今治市","jp_add_2":"玉川町鍋地"},"7940121":{"post_code":"7940121","prefecture":"EHIME KEN","city":"IMABARI SHI","town":"TAMAGAWACHO NIBUKAWA","perfecture_jp":"愛媛県","jp_add_1":"今治市","jp_add_2":"玉川町鈍川"},"7940116":{"post_code":"7940116","prefecture":"EHIME KEN","city":"IMABARI SHI","town":"TAMAGAWACHO HATADERA","perfecture_jp":"愛媛県","jp_add_1":"今治市","jp_add_2":"玉川町畑寺"},"7940113":{"post_code":"7940113","prefecture":"EHIME KEN","city":"IMABARI SHI","town":"TAMAGAWACHO BESSHO","perfecture_jp":"愛媛県","jp_add_1":"今治市","jp_add_2":"玉川町別所"},"7940103":{"post_code":"7940103","prefecture":"EHIME KEN","city":"IMABARI SHI","town":"TAMAGAWACHO HOKAIJI","perfecture_jp":"愛媛県","jp_add_1":"今治市","jp_add_2":"玉川町法界寺"},"7940108":{"post_code":"7940108","prefecture":"EHIME KEN","city":"IMABARI SHI","town":"TAMAGAWACHO MIMAYA","perfecture_jp":"愛媛県","jp_add_1":"今治市","jp_add_2":"玉川町御厩"},"7940114":{"post_code":"7940114","prefecture":"EHIME KEN","city":"IMABARI SHI","town":"TAMAGAWACHO YAWATA","perfecture_jp":"愛媛県","jp_add_1":"今治市","jp_add_2":"玉川町八幡"},"7940105":{"post_code":"7940105","prefecture":"EHIME KEN","city":"IMABARI SHI","town":"TAMAGAWACHO YOWAGI","perfecture_jp":"愛媛県","jp_add_1":"今治市","jp_add_2":"玉川町與和木"},"7940124":{"post_code":"7940124","prefecture":"EHIME KEN","city":"IMABARI SHI","town":"TAMAGAWACHO RYUOKAKAMI","perfecture_jp":"愛媛県","jp_add_1":"今治市","jp_add_2":"玉川町龍岡上"},"7940123":{"post_code":"7940123","prefecture":"EHIME KEN","city":"IMABARI SHI","town":"TAMAGAWACHO RYUOKASHIMO","perfecture_jp":"愛媛県","jp_add_1":"今治市","jp_add_2":"玉川町龍岡下"},"7940007":{"post_code":"7940007","prefecture":"EHIME KEN","city":"IMABARI SHI","town":"CHIKAMICHO","perfecture_jp":"愛媛県","jp_add_1":"今治市","jp_add_2":"近見町"},"7940827":{"post_code":"7940827","prefecture":"EHIME KEN","city":"IMABARI SHI","town":"TSUJIDO","perfecture_jp":"愛媛県","jp_add_1":"今治市","jp_add_2":"辻堂"},"7940815":{"post_code":"7940815","prefecture":"EHIME KEN","city":"IMABARI SHI","town":"TSUCHIBASHICHO","perfecture_jp":"愛媛県","jp_add_1":"今治市","jp_add_2":"土橋町"},"7940032":{"post_code":"7940032","prefecture":"EHIME KEN","city":"IMABARI SHI","town":"TEMPOZANCHO","perfecture_jp":"愛媛県","jp_add_1":"今治市","jp_add_2":"天保山町"},"7940036":{"post_code":"7940036","prefecture":"EHIME KEN","city":"IMABARI SHI","town":"TORICHO","perfecture_jp":"愛媛県","jp_add_1":"今治市","jp_add_2":"通町"},"7940015":{"post_code":"7940015","prefecture":"EHIME KEN","city":"IMABARI SHI","town":"TOKIWACHO","perfecture_jp":"愛媛県","jp_add_1":"今治市","jp_add_2":"常盤町"},"7940863":{"post_code":"7940863","prefecture":"EHIME KEN","city":"IMABARI SHI","town":"TOKUSHIGE","perfecture_jp":"愛媛県","jp_add_1":"今治市","jp_add_2":"徳重"},"7940840":{"post_code":"7940840","prefecture":"EHIME KEN","city":"IMABARI SHI","town":"NAKADERA","perfecture_jp":"愛媛県","jp_add_1":"今治市","jp_add_2":"中寺"},"7940016":{"post_code":"7940016","prefecture":"EHIME KEN","city":"IMABARI SHI","town":"NAKABAMACHO","perfecture_jp":"愛媛県","jp_add_1":"今治市","jp_add_2":"中浜町"},"7940055":{"post_code":"7940055","prefecture":"EHIME KEN","city":"IMABARI SHI","town":"NAKAHIYOSHICHO","perfecture_jp":"愛媛県","jp_add_1":"今治市","jp_add_2":"中日吉町"},"7940068":{"post_code":"7940068","prefecture":"EHIME KEN","city":"IMABARI SHI","town":"NIGIWAIHIROBA","perfecture_jp":"愛媛県","jp_add_1":"今治市","jp_add_2":"にぎわい広場"},"7940850":{"post_code":"7940850","prefecture":"EHIME KEN","city":"IMABARI SHI","town":"NIYA","perfecture_jp":"愛媛県","jp_add_1":"今治市","jp_add_2":"新谷"},"7940082":{"post_code":"7940082","prefecture":"EHIME KEN","city":"IMABARI SHI","town":"NOMA","perfecture_jp":"愛媛県","jp_add_1":"今治市","jp_add_2":"野間"},"7942301":{"post_code":"7942301","prefecture":"EHIME KEN","city":"IMABARI SHI","town":"HAKATACHO AROZU","perfecture_jp":"愛媛県","jp_add_1":"今治市","jp_add_2":"伯方町有津"},"7942303":{"post_code":"7942303","prefecture":"EHIME KEN","city":"IMABARI SHI","town":"HAKATACHO IKATA","perfecture_jp":"愛媛県","jp_add_1":"今治市","jp_add_2":"伯方町伊方"},"7942302":{"post_code":"7942302","prefecture":"EHIME KEN","city":"IMABARI SHI","town":"HAKATACHO KANORA","perfecture_jp":"愛媛県","jp_add_1":"今治市","jp_add_2":"伯方町叶浦"},"7942304":{"post_code":"7942304","prefecture":"EHIME KEN","city":"IMABARI SHI","town":"HAKATACHO KITAURA","perfecture_jp":"愛媛県","jp_add_1":"今治市","jp_add_2":"伯方町北浦"},"7942305":{"post_code":"7942305","prefecture":"EHIME KEN","city":"IMABARI SHI","town":"HAKATACHO KINORA","perfecture_jp":"愛媛県","jp_add_1":"今治市","jp_add_2":"伯方町木浦"},"7940831":{"post_code":"7940831","prefecture":"EHIME KEN","city":"IMABARI SHI","town":"HATCHOHIGASHI","perfecture_jp":"愛媛県","jp_add_1":"今治市","jp_add_2":"八町東"},"7940832":{"post_code":"7940832","prefecture":"EHIME KEN","city":"IMABARI SHI","town":"HATCHONISHI","perfecture_jp":"愛媛県","jp_add_1":"今治市","jp_add_2":"八町西"},"7940801":{"post_code":"7940801","prefecture":"EHIME KEN","city":"IMABARI SHI","town":"HIGASHITORIUCHO","perfecture_jp":"愛媛県","jp_add_1":"今治市","jp_add_2":"東鳥生町"},"7940033":{"post_code":"7940033","prefecture":"EHIME KEN","city":"IMABARI SHI","town":"HIGASHIMONCHO","perfecture_jp":"愛媛県","jp_add_1":"今治市","jp_add_2":"東門町"},"7940026":{"post_code":"7940026","prefecture":"EHIME KEN","city":"IMABARI SHI","town":"BEKKUCHO","perfecture_jp":"愛媛県","jp_add_1":"今治市","jp_add_2":"別宮町"},"7940065":{"post_code":"7940065","prefecture":"EHIME KEN","city":"IMABARI SHI","town":"BETSUMYO","perfecture_jp":"愛媛県","jp_add_1":"今治市","jp_add_2":"別名"},"7940018":{"post_code":"7940018","prefecture":"EHIME KEN","city":"IMABARI SHI","town":"HOMMACHI","perfecture_jp":"愛媛県","jp_add_1":"今治市","jp_add_2":"本町"},"7940041":{"post_code":"7940041","prefecture":"EHIME KEN","city":"IMABARI SHI","town":"MATSUMOTOCHO","perfecture_jp":"愛媛県","jp_add_1":"今治市","jp_add_2":"松本町"},"7940034":{"post_code":"7940034","prefecture":"EHIME KEN","city":"IMABARI SHI","town":"MISUKACHO","perfecture_jp":"愛媛県","jp_add_1":"今治市","jp_add_2":"美須賀町"},"7940003":{"post_code":"7940003","prefecture":"EHIME KEN","city":"IMABARI SHI","town":"MINATOCHO","perfecture_jp":"愛媛県","jp_add_1":"今治市","jp_add_2":"湊町"},"7940811":{"post_code":"7940811","prefecture":"EHIME KEN","city":"IMABARI SHI","town":"MINAMIKOGECHO","perfecture_jp":"愛媛県","jp_add_1":"今治市","jp_add_2":"南高下町"},"7940027":{"post_code":"7940027","prefecture":"EHIME KEN","city":"IMABARI SHI","town":"MINAMIDAIMONCHO","perfecture_jp":"愛媛県","jp_add_1":"今治市","jp_add_2":"南大門町"},"7940802":{"post_code":"7940802","prefecture":"EHIME KEN","city":"IMABARI SHI","town":"MINAMITORIUCHO","perfecture_jp":"愛媛県","jp_add_1":"今治市","jp_add_2":"南鳥生町"},"7940056":{"post_code":"7940056","prefecture":"EHIME KEN","city":"IMABARI SHI","town":"MINAMIHIYOSHICHO","perfecture_jp":"愛媛県","jp_add_1":"今治市","jp_add_2":"南日吉町"},"7940043":{"post_code":"7940043","prefecture":"EHIME KEN","city":"IMABARI SHI","town":"MINAMIHORAICHO","perfecture_jp":"愛媛県","jp_add_1":"今治市","jp_add_2":"南宝来町"},"7940012":{"post_code":"7940012","prefecture":"EHIME KEN","city":"IMABARI SHI","town":"MIHOCHO","perfecture_jp":"愛媛県","jp_add_1":"今治市","jp_add_2":"美保町"},"7942204":{"post_code":"7942204","prefecture":"EHIME KEN","city":"IMABARI SHI","town":"MIYAKUBOCHO TOMORA","perfecture_jp":"愛媛県","jp_add_1":"今治市","jp_add_2":"宮窪町友浦"},"7942201":{"post_code":"7942201","prefecture":"EHIME KEN","city":"IMABARI SHI","town":"MIYAKUBOCHO HAYAKAWA","perfecture_jp":"愛媛県","jp_add_1":"今治市","jp_add_2":"宮窪町早川"},"7942203":{"post_code":"7942203","prefecture":"EHIME KEN","city":"IMABARI SHI","town":"MIYAKUBOCHO MIYAKUBO","perfecture_jp":"愛媛県","jp_add_1":"今治市","jp_add_2":"宮窪町宮窪"},"7942202":{"post_code":"7942202","prefecture":"EHIME KEN","city":"IMABARI SHI","town":"MIYAKUBOCHO YOSOKUNI","perfecture_jp":"愛媛県","jp_add_1":"今治市","jp_add_2":"宮窪町余所国"},"7940052":{"post_code":"7940052","prefecture":"EHIME KEN","city":"IMABARI SHI","town":"MIYASHITACHO","perfecture_jp":"愛媛県","jp_add_1":"今治市","jp_add_2":"宮下町"},"7940022":{"post_code":"7940022","prefecture":"EHIME KEN","city":"IMABARI SHI","town":"MUROYACHO","perfecture_jp":"愛媛県","jp_add_1":"今治市","jp_add_2":"室屋町"},"7940073":{"post_code":"7940073","prefecture":"EHIME KEN","city":"IMABARI SHI","town":"YATA","perfecture_jp":"愛媛県","jp_add_1":"今治市","jp_add_2":"矢田"},"7940053":{"post_code":"7940053","prefecture":"EHIME KEN","city":"IMABARI SHI","town":"YAMAKATACHO","perfecture_jp":"愛媛県","jp_add_1":"今治市","jp_add_2":"山方町"},"7940072":{"post_code":"7940072","prefecture":"EHIME KEN","city":"IMABARI SHI","town":"YAMAJI","perfecture_jp":"愛媛県","jp_add_1":"今治市","jp_add_2":"山路"},"7940071":{"post_code":"7940071","prefecture":"EHIME KEN","city":"IMABARI SHI","town":"YAMAJICHO","perfecture_jp":"愛媛県","jp_add_1":"今治市","jp_add_2":"山路町"},"7940814":{"post_code":"7940814","prefecture":"EHIME KEN","city":"IMABARI SHI","town":"YOKOTACHO","perfecture_jp":"愛媛県","jp_add_1":"今治市","jp_add_2":"横田町"},"7942111":{"post_code":"7942111","prefecture":"EHIME KEN","city":"IMABARI SHI","town":"YOSHIUMICHO SAIWAISHINDEN","perfecture_jp":"愛媛県","jp_add_1":"今治市","jp_add_2":"吉海町幸新田"},"7942117":{"post_code":"7942117","prefecture":"EHIME KEN","city":"IMABARI SHI","town":"YOSHIUMICHO SHOMI","perfecture_jp":"愛媛県","jp_add_1":"今治市","jp_add_2":"吉海町正味"},"7942101":{"post_code":"7942101","prefecture":"EHIME KEN","city":"IMABARI SHI","town":"YOSHIUMICHO TANORA","perfecture_jp":"愛媛県","jp_add_1":"今治市","jp_add_2":"吉海町田浦"},"7942119":{"post_code":"7942119","prefecture":"EHIME KEN","city":"IMABARI SHI","town":"YOSHIUMICHO TSUSHIMA","perfecture_jp":"愛媛県","jp_add_1":"今治市","jp_add_2":"吉海町津島"},"7942102":{"post_code":"7942102","prefecture":"EHIME KEN","city":"IMABARI SHI","town":"YOSHIUMICHO TOMARI","perfecture_jp":"愛媛県","jp_add_1":"今治市","jp_add_2":"吉海町泊"},"7942116":{"post_code":"7942116","prefecture":"EHIME KEN","city":"IMABARI SHI","town":"YOSHIUMICHO NAGOMA","perfecture_jp":"愛媛県","jp_add_1":"今治市","jp_add_2":"吉海町名駒"},"7942104":{"post_code":"7942104","prefecture":"EHIME KEN","city":"IMABARI SHI","town":"YOSHIUMICHO NIE","perfecture_jp":"愛媛県","jp_add_1":"今治市","jp_add_2":"吉海町仁江"},"7942103":{"post_code":"7942103","prefecture":"EHIME KEN","city":"IMABARI SHI","town":"YOSHIUMICHO FUKUDA","perfecture_jp":"愛媛県","jp_add_1":"今治市","jp_add_2":"吉海町福田"},"7942118":{"post_code":"7942118","prefecture":"EHIME KEN","city":"IMABARI SHI","town":"YOSHIUMICHO FUSUMA","perfecture_jp":"愛媛県","jp_add_1":"今治市","jp_add_2":"吉海町臥間"},"7942112":{"post_code":"7942112","prefecture":"EHIME KEN","city":"IMABARI SHI","town":"YOSHIUMICHO HONJO","perfecture_jp":"愛媛県","jp_add_1":"今治市","jp_add_2":"吉海町本庄"},"7942115":{"post_code":"7942115","prefecture":"EHIME KEN","city":"IMABARI SHI","town":"YOSHIUMICHO MINAMIURA","perfecture_jp":"愛媛県","jp_add_1":"今治市","jp_add_2":"吉海町南浦"},"7942114":{"post_code":"7942114","prefecture":"EHIME KEN","city":"IMABARI SHI","town":"YOSHIUMICHO MYO","perfecture_jp":"愛媛県","jp_add_1":"今治市","jp_add_2":"吉海町名"},"7942113":{"post_code":"7942113","prefecture":"EHIME KEN","city":"IMABARI SHI","town":"YOSHIUMICHO MUKUNA","perfecture_jp":"愛媛県","jp_add_1":"今治市","jp_add_2":"吉海町椋名"},"7942110":{"post_code":"7942110","prefecture":"EHIME KEN","city":"IMABARI SHI","town":"YOSHIUMICHO YAWATA","perfecture_jp":"愛媛県","jp_add_1":"今治市","jp_add_2":"吉海町八幡"},"7940862":{"post_code":"7940862","prefecture":"EHIME KEN","city":"IMABARI SHI","town":"YOMURA","perfecture_jp":"愛媛県","jp_add_1":"今治市","jp_add_2":"四村"},"7942500":{"post_code":"7942500","prefecture":"EHIME KEN","city":"OCHI GUN KAMIJIMA CHO","town":"IKANIKEISAIGANAIBAAI","perfecture_jp":"愛媛県","jp_add_1":"越智郡上島町","jp_add_2":""},"7942550":{"post_code":"7942550","prefecture":"EHIME KEN","city":"OCHI GUN KAMIJIMA CHO","town":"IKINA","perfecture_jp":"愛媛県","jp_add_1":"越智郡上島町","jp_add_2":"生名"},"7942410":{"post_code":"7942410","prefecture":"EHIME KEN","city":"OCHI GUN KAMIJIMA CHO","town":"IWAGI","perfecture_jp":"愛媛県","jp_add_1":"越智郡上島町","jp_add_2":"岩城"},"7942540":{"post_code":"7942540","prefecture":"EHIME KEN","city":"OCHI GUN KAMIJIMA CHO","town":"UOSHIMAICHIBANKOCHI","perfecture_jp":"愛媛県","jp_add_1":"越智郡上島町","jp_add_2":"魚島一番耕地"},"7942541":{"post_code":"7942541","prefecture":"EHIME KEN","city":"OCHI GUN KAMIJIMA CHO","town":"UOSHIMANIBANKOCHI","perfecture_jp":"愛媛県","jp_add_1":"越智郡上島町","jp_add_2":"魚島二番耕地"},"7942542":{"post_code":"7942542","prefecture":"EHIME KEN","city":"OCHI GUN KAMIJIMA CHO","town":"UOSHIMASAMBANKOCHI","perfecture_jp":"愛媛県","jp_add_1":"越智郡上島町","jp_add_2":"魚島三番耕地"},"7942508":{"post_code":"7942508","prefecture":"EHIME KEN","city":"OCHI GUN KAMIJIMA CHO","town":"YUGE OTA","perfecture_jp":"愛媛県","jp_add_1":"越智郡上島町","jp_add_2":"弓削太田"},"7942513":{"post_code":"7942513","prefecture":"EHIME KEN","city":"OCHI GUN KAMIJIMA CHO","town":"YUGE OTANI","perfecture_jp":"愛媛県","jp_add_1":"越智郡上島町","jp_add_2":"弓削大谷"},"7942510":{"post_code":"7942510","prefecture":"EHIME KEN","city":"OCHI GUN KAMIJIMA CHO","town":"YUGE KAMADA","perfecture_jp":"愛媛県","jp_add_1":"越智郡上島町","jp_add_2":"弓削鎌田"},"7942503":{"post_code":"7942503","prefecture":"EHIME KEN","city":"OCHI GUN KAMIJIMA CHO","town":"YUGE HYAKKAN","perfecture_jp":"愛媛県","jp_add_1":"越智郡上島町","jp_add_2":"弓削上弓削"},"7942512":{"post_code":"7942512","prefecture":"EHIME KEN","city":"OCHI GUN KAMIJIMA CHO","town":"YUGE KARIO","perfecture_jp":"愛媛県","jp_add_1":"越智郡上島町","jp_add_2":"弓削狩尾"},"7942501":{"post_code":"7942501","prefecture":"EHIME KEN","city":"OCHI GUN KAMIJIMA CHO","town":"YUGE KUJIURA","perfecture_jp":"愛媛県","jp_add_1":"越智郡上島町","jp_add_2":"弓削久司浦"},"7942520":{"post_code":"7942520","prefecture":"EHIME KEN","city":"OCHI GUN KAMIJIMA CHO","town":"YUGE SASHIMA","perfecture_jp":"愛媛県","jp_add_1":"越智郡上島町","jp_add_2":"弓削佐島"},"7942502":{"post_code":"7942502","prefecture":"EHIME KEN","city":"OCHI GUN KAMIJIMA CHO","town":"YUGE SAWAZU","perfecture_jp":"愛媛県","jp_add_1":"越智郡上島町","jp_add_2":"弓削沢津"},"7942506":{"post_code":"7942506","prefecture":"EHIME KEN","city":"OCHI GUN KAMIJIMA CHO","town":"YUGE SHIMOYUGE","perfecture_jp":"愛媛県","jp_add_1":"越智郡上島町","jp_add_2":"弓削下弓削"},"7942530":{"post_code":"7942530","prefecture":"EHIME KEN","city":"OCHI GUN KAMIJIMA CHO","town":"YUGE TOYOSHIMA","perfecture_jp":"愛媛県","jp_add_1":"越智郡上島町","jp_add_2":"弓削豊島"},"7942509":{"post_code":"7942509","prefecture":"EHIME KEN","city":"OCHI GUN KAMIJIMA CHO","town":"YUGE HABU","perfecture_jp":"愛媛県","jp_add_1":"越智郡上島町","jp_add_2":"弓削土生"},"7942504":{"post_code":"7942504","prefecture":"EHIME KEN","city":"OCHI GUN KAMIJIMA CHO","town":"YUGE HIKINO","perfecture_jp":"愛媛県","jp_add_1":"越智郡上島町","jp_add_2":"弓削引野"},"7942511":{"post_code":"7942511","prefecture":"EHIME KEN","city":"OCHI GUN KAMIJIMA CHO","town":"YUGE HIBI","perfecture_jp":"愛媛県","jp_add_1":"越智郡上島町","jp_add_2":"弓削日比"},"7942507":{"post_code":"7942507","prefecture":"EHIME KEN","city":"OCHI GUN KAMIJIMA CHO","town":"YUGE FUJITANI","perfecture_jp":"愛媛県","jp_add_1":"越智郡上島町","jp_add_2":"弓削藤谷"},"7942505":{"post_code":"7942505","prefecture":"EHIME KEN","city":"OCHI GUN KAMIJIMA CHO","town":"YUGE MYOJIN","perfecture_jp":"愛媛県","jp_add_1":"越智郡上島町","jp_add_2":"弓削明神"}}