{"7960000":{"post_code":"7960000","prefecture":"EHIME KEN","city":"YAWATAHAMA SHI","town":"IKANIKEISAIGANAIBAAI","perfecture_jp":"愛媛県","jp_add_1":"八幡浜市","jp_add_2":""},"7960088":{"post_code":"7960088","prefecture":"EHIME KEN","city":"YAWATAHAMA SHI","town":"YAWATAHAMASHINOTSUGINIBANCHIGAKURUB","perfecture_jp":"愛媛県","jp_add_1":"八幡浜市","jp_add_2":""},"7960081":{"post_code":"7960081","prefecture":"EHIME KEN","city":"YAWATAHAMA SHI","town":"ASASHIOBASHI","perfecture_jp":"愛媛県","jp_add_1":"八幡浜市","jp_add_2":"朝汐橋"},"7960086":{"post_code":"7960086","prefecture":"EHIME KEN","city":"YAWATAHAMA SHI","town":"ASAHIMACHI","perfecture_jp":"愛媛県","jp_add_1":"八幡浜市","jp_add_2":"旭町"},"7960056":{"post_code":"7960056","prefecture":"EHIME KEN","city":"YAWATAHAMA SHI","town":"ATAGO","perfecture_jp":"愛媛県","jp_add_1":"八幡浜市","jp_add_2":"愛宕"},"7968054":{"post_code":"7968054","prefecture":"EHIME KEN","city":"YAWATAHAMA SHI","town":"ANAI","perfecture_jp":"愛媛県","jp_add_1":"八幡浜市","jp_add_2":"穴井"},"7960022":{"post_code":"7960022","prefecture":"EHIME KEN","city":"YAWATAHAMA SHI","town":"EKIMAE","perfecture_jp":"愛媛県","jp_add_1":"八幡浜市","jp_add_2":"駅前"},"7960031":{"post_code":"7960031","prefecture":"EHIME KEN","city":"YAWATAHAMA SHI","town":"EDOKA","perfecture_jp":"愛媛県","jp_add_1":"八幡浜市","jp_add_2":"江戸岡"},"7960061":{"post_code":"7960061","prefecture":"EHIME KEN","city":"YAWATAHAMA SHI","town":"EBISAKI","perfecture_jp":"愛媛県","jp_add_1":"八幡浜市","jp_add_2":"海老崎"},"7960073":{"post_code":"7960073","prefecture":"EHIME KEN","city":"YAWATAHAMA SHI","town":"EBISUMACHI","perfecture_jp":"愛媛県","jp_add_1":"八幡浜市","jp_add_2":"戎町"},"7968060":{"post_code":"7968060","prefecture":"EHIME KEN","city":"YAWATAHAMA SHI","town":"OSHIMA","perfecture_jp":"愛媛県","jp_add_1":"八幡浜市","jp_add_2":"大島"},"7968001":{"post_code":"7968001","prefecture":"EHIME KEN","city":"YAWATAHAMA SHI","town":"OTANIGUCHI","perfecture_jp":"愛媛県","jp_add_1":"八幡浜市","jp_add_2":"大谷口"},"7960004":{"post_code":"7960004","prefecture":"EHIME KEN","city":"YAWATAHAMA SHI","town":"OHIRA (TSUBAI)","perfecture_jp":"愛媛県","jp_add_1":"八幡浜市","jp_add_2":"大平"},"7960002":{"post_code":"7960002","prefecture":"EHIME KEN","city":"YAWATAHAMA SHI","town":"OHIRA(HANAZONOCHO)","perfecture_jp":"愛媛県","jp_add_1":"八幡浜市","jp_add_2":"大平"},"7960003":{"post_code":"7960003","prefecture":"EHIME KEN","city":"YAWATAHAMA SHI","town":"OHIRA(SONOTA)","perfecture_jp":"愛媛県","jp_add_1":"八幡浜市","jp_add_2":"大平"},"7960087":{"post_code":"7960087","prefecture":"EHIME KEN","city":"YAWATAHAMA SHI","town":"OKISHINDEN","perfecture_jp":"愛媛県","jp_add_1":"八幡浜市","jp_add_2":"沖新田"},"7960053":{"post_code":"7960053","prefecture":"EHIME KEN","city":"YAWATAHAMA SHI","town":"KAIBOEN","perfecture_jp":"愛媛県","jp_add_1":"八幡浜市","jp_add_2":"海望園"},"7960065":{"post_code":"7960065","prefecture":"EHIME KEN","city":"YAWATAHAMA SHI","town":"KATAYAMACHO","perfecture_jp":"愛媛県","jp_add_1":"八幡浜市","jp_add_2":"片山町"},"7968036":{"post_code":"7968036","prefecture":"EHIME KEN","city":"YAWATAHAMA SHI","town":"KAMANOKURA","perfecture_jp":"愛媛県","jp_add_1":"八幡浜市","jp_add_2":"釜倉"},"7968051":{"post_code":"7968051","prefecture":"EHIME KEN","city":"YAWATAHAMA SHI","town":"KAWAKAMICHOKAMIDOMARI","perfecture_jp":"愛媛県","jp_add_1":"八幡浜市","jp_add_2":"川上町上泊"},"7968050":{"post_code":"7968050","prefecture":"EHIME KEN","city":"YAWATAHAMA SHI","town":"KAWAKAMICHOKAWANAZU","perfecture_jp":"愛媛県","jp_add_1":"八幡浜市","jp_add_2":"川上町川名津"},"7968052":{"post_code":"7968052","prefecture":"EHIME KEN","city":"YAWATAHAMA SHI","town":"KAWAKAMICHOSHIRAISHI","perfecture_jp":"愛媛県","jp_add_1":"八幡浜市","jp_add_2":"川上町白石"},"7968025":{"post_code":"7968025","prefecture":"EHIME KEN","city":"YAWATAHAMA SHI","town":"KAWANOCHI","perfecture_jp":"愛媛県","jp_add_1":"八幡浜市","jp_add_2":"川之内"},"7960082":{"post_code":"7960082","prefecture":"EHIME KEN","city":"YAWATAHAMA SHI","town":"KITADAIKOKUMACHI","perfecture_jp":"愛媛県","jp_add_1":"八幡浜市","jp_add_2":"北大黒町"},"7960048":{"post_code":"7960048","prefecture":"EHIME KEN","city":"YAWATAHAMA SHI","town":"KITAHAMA","perfecture_jp":"愛媛県","jp_add_1":"八幡浜市","jp_add_2":"北浜"},"7960011":{"post_code":"7960011","prefecture":"EHIME KEN","city":"YAWATAHAMA SHI","town":"KITAMACHI","perfecture_jp":"愛媛県","jp_add_1":"八幡浜市","jp_add_2":"木多町"},"7960042":{"post_code":"7960042","prefecture":"EHIME KEN","city":"YAWATAHAMA SHI","town":"KITAMACHI","perfecture_jp":"愛媛県","jp_add_1":"八幡浜市","jp_add_2":"喜多町"},"7960046":{"post_code":"7960046","prefecture":"EHIME KEN","city":"YAWATAHAMA SHI","town":"KYUMINATO","perfecture_jp":"愛媛県","jp_add_1":"八幡浜市","jp_add_2":"旧港"},"7960077":{"post_code":"7960077","prefecture":"EHIME KEN","city":"YAWATAHAMA SHI","town":"KYUYAKUBAMAEDORI","perfecture_jp":"愛媛県","jp_add_1":"八幡浜市","jp_add_2":"旧役場前通"},"7968015":{"post_code":"7968015","prefecture":"EHIME KEN","city":"YAWATAHAMA SHI","town":"KUNIGI","perfecture_jp":"愛媛県","jp_add_1":"八幡浜市","jp_add_2":"国木"},"7968008":{"post_code":"7968008","prefecture":"EHIME KEN","city":"YAWATAHAMA SHI","town":"KURINORA","perfecture_jp":"愛媛県","jp_add_1":"八幡浜市","jp_add_2":"栗野浦"},"7968020":{"post_code":"7968020","prefecture":"EHIME KEN","city":"YAWATAHAMA SHI","town":"GO","perfecture_jp":"愛媛県","jp_add_1":"八幡浜市","jp_add_2":"郷"},"7968041":{"post_code":"7968041","prefecture":"EHIME KEN","city":"YAWATAHAMA SHI","town":"GODA","perfecture_jp":"愛媛県","jp_add_1":"八幡浜市","jp_add_2":"合田"},"7968010":{"post_code":"7968010","prefecture":"EHIME KEN","city":"YAWATAHAMA SHI","town":"GOTANDA","perfecture_jp":"愛媛県","jp_add_1":"八幡浜市","jp_add_2":"五反田"},"7960054":{"post_code":"7960054","prefecture":"EHIME KEN","city":"YAWATAHAMA SHI","town":"KOTOHIRACHO","perfecture_jp":"愛媛県","jp_add_1":"八幡浜市","jp_add_2":"琴平町"},"7960041":{"post_code":"7960041","prefecture":"EHIME KEN","city":"YAWATAHAMA SHI","town":"SAIBANSHODORI","perfecture_jp":"愛媛県","jp_add_1":"八幡浜市","jp_add_2":"裁判所通"},"7960051":{"post_code":"7960051","prefecture":"EHIME KEN","city":"YAWATAHAMA SHI","town":"SAIWAIMACHI","perfecture_jp":"愛媛県","jp_add_1":"八幡浜市","jp_add_2":"幸町"},"7968004":{"post_code":"7968004","prefecture":"EHIME KEN","city":"YAWATAHAMA SHI","town":"SANGYODORI","perfecture_jp":"愛媛県","jp_add_1":"八幡浜市","jp_add_2":"産業通"},"7968040":{"post_code":"7968040","prefecture":"EHIME KEN","city":"YAWATAHAMA SHI","town":"SHITAMA","perfecture_jp":"愛媛県","jp_add_1":"八幡浜市","jp_add_2":"舌間"},"7960069":{"post_code":"7960069","prefecture":"EHIME KEN","city":"YAWATAHAMA SHI","town":"SHITAMICHI","perfecture_jp":"愛媛県","jp_add_1":"八幡浜市","jp_add_2":"下道"},"7960028":{"post_code":"7960028","prefecture":"EHIME KEN","city":"YAWATAHAMA SHI","town":"SHIMIZUMACHI","perfecture_jp":"愛媛県","jp_add_1":"八幡浜市","jp_add_2":"清水町"},"7960037":{"post_code":"7960037","prefecture":"EHIME KEN","city":"YAWATAHAMA SHI","town":"SHOWADORI","perfecture_jp":"愛媛県","jp_add_1":"八幡浜市","jp_add_2":"昭和通"},"7960047":{"post_code":"7960047","prefecture":"EHIME KEN","city":"YAWATAHAMA SHI","town":"SHIROHAMADORI","perfecture_jp":"愛媛県","jp_add_1":"八幡浜市","jp_add_2":"白浜通"},"7960062":{"post_code":"7960062","prefecture":"EHIME KEN","city":"YAWATAHAMA SHI","town":"SHINEICHO","perfecture_jp":"愛媛県","jp_add_1":"八幡浜市","jp_add_2":"新栄町"},"7960036":{"post_code":"7960036","prefecture":"EHIME KEN","city":"YAWATAHAMA SHI","town":"SHINKAWA","perfecture_jp":"愛媛県","jp_add_1":"八幡浜市","jp_add_2":"新川"},"7960024":{"post_code":"7960024","prefecture":"EHIME KEN","city":"YAWATAHAMA SHI","town":"JINGUDORI","perfecture_jp":"愛媛県","jp_add_1":"八幡浜市","jp_add_2":"神宮通"},"7960023":{"post_code":"7960023","prefecture":"EHIME KEN","city":"YAWATAHAMA SHI","town":"JINGUMAE","perfecture_jp":"愛媛県","jp_add_1":"八幡浜市","jp_add_2":"神宮前"},"7960071":{"post_code":"7960071","prefecture":"EHIME KEN","city":"YAWATAHAMA SHI","town":"SHIMMACHI","perfecture_jp":"愛媛県","jp_add_1":"八幡浜市","jp_add_2":"新町"},"7960074":{"post_code":"7960074","prefecture":"EHIME KEN","city":"YAWATAHAMA SHI","town":"SHIMMINATO","perfecture_jp":"愛媛県","jp_add_1":"八幡浜市","jp_add_2":"新港"},"7960014":{"post_code":"7960014","prefecture":"EHIME KEN","city":"YAWATAHAMA SHI","town":"SHINWADAMACHI","perfecture_jp":"愛媛県","jp_add_1":"八幡浜市","jp_add_2":"新和田町"},"7960035":{"post_code":"7960035","prefecture":"EHIME KEN","city":"YAWATAHAMA SHI","town":"SUSAKI","perfecture_jp":"愛媛県","jp_add_1":"八幡浜市","jp_add_2":"須崎"},"7960064":{"post_code":"7960064","prefecture":"EHIME KEN","city":"YAWATAHAMA SHI","town":"SEMBADORI","perfecture_jp":"愛媛県","jp_add_1":"八幡浜市","jp_add_2":"船場通"},"7960083":{"post_code":"7960083","prefecture":"EHIME KEN","city":"YAWATAHAMA SHI","town":"DAIKOKUMACHI","perfecture_jp":"愛媛県","jp_add_1":"八幡浜市","jp_add_2":"大黒町"},"7960033":{"post_code":"7960033","prefecture":"EHIME KEN","city":"YAWATAHAMA SHI","town":"TAISHOMACHI","perfecture_jp":"愛媛県","jp_add_1":"八幡浜市","jp_add_2":"大正町"},"7960055":{"post_code":"7960055","prefecture":"EHIME KEN","city":"YAWATAHAMA SHI","town":"DAIMON","perfecture_jp":"愛媛県","jp_add_1":"八幡浜市","jp_add_2":"大門"},"7960005":{"post_code":"7960005","prefecture":"EHIME KEN","city":"YAWATAHAMA SHI","town":"TAKANOJI","perfecture_jp":"愛媛県","jp_add_1":"八幡浜市","jp_add_2":"高野地"},"7968037":{"post_code":"7968037","prefecture":"EHIME KEN","city":"YAWATAHAMA SHI","town":"TANI","perfecture_jp":"愛媛県","jp_add_1":"八幡浜市","jp_add_2":"谷"},"7960067":{"post_code":"7960067","prefecture":"EHIME KEN","city":"YAWATAHAMA SHI","town":"CHUO","perfecture_jp":"愛媛県","jp_add_1":"八幡浜市","jp_add_2":"中央"},"7960078":{"post_code":"7960078","prefecture":"EHIME KEN","city":"YAWATAHAMA SHI","town":"CHUOMAKETTO","perfecture_jp":"愛媛県","jp_add_1":"八幡浜市","jp_add_2":"中央マーケット"},"7960076":{"post_code":"7960076","prefecture":"EHIME KEN","city":"YAWATAHAMA SHI","town":"CHIYODAMACHI","perfecture_jp":"愛媛県","jp_add_1":"八幡浜市","jp_add_2":"千代田町"},"7960085":{"post_code":"7960085","prefecture":"EHIME KEN","city":"YAWATAHAMA SHI","town":"TENJINDORI","perfecture_jp":"愛媛県","jp_add_1":"八幡浜市","jp_add_2":"天神通"},"7968030":{"post_code":"7968030","prefecture":"EHIME KEN","city":"YAWATAHAMA SHI","town":"NAKATSUKAWA","perfecture_jp":"愛媛県","jp_add_1":"八幡浜市","jp_add_2":"中津川"},"7960075":{"post_code":"7960075","prefecture":"EHIME KEN","city":"YAWATAHAMA SHI","town":"NAKANOMACHI","perfecture_jp":"愛媛県","jp_add_1":"八幡浜市","jp_add_2":"仲之町"},"7960044":{"post_code":"7960044","prefecture":"EHIME KEN","city":"YAWATAHAMA SHI","town":"NISHIOMIYACHO","perfecture_jp":"愛媛県","jp_add_1":"八幡浜市","jp_add_2":"西近江屋町"},"7960045":{"post_code":"7960045","prefecture":"EHIME KEN","city":"YAWATAHAMA SHI","town":"NISHIOMIYACHOHAMADORI","perfecture_jp":"愛媛県","jp_add_1":"八幡浜市","jp_add_2":"西近江屋町浜通"},"7960029":{"post_code":"7960029","prefecture":"EHIME KEN","city":"YAWATAHAMA SHI","town":"HANAKOJI","perfecture_jp":"愛媛県","jp_add_1":"八幡浜市","jp_add_2":"花小路"},"7960034":{"post_code":"7960034","prefecture":"EHIME KEN","city":"YAWATAHAMA SHI","town":"HAMADAMACHI","perfecture_jp":"愛媛県","jp_add_1":"八幡浜市","jp_add_2":"浜田町"},"7960068":{"post_code":"7960068","prefecture":"EHIME KEN","city":"YAWATAHAMA SHI","town":"HAMANOCHO","perfecture_jp":"愛媛県","jp_add_1":"八幡浜市","jp_add_2":"浜之町"},"7960043":{"post_code":"7960043","prefecture":"EHIME KEN","city":"YAWATAHAMA SHI","town":"HIGASHIOMIYACHO","perfecture_jp":"愛媛県","jp_add_1":"八幡浜市","jp_add_2":"東近江屋町"},"7960032":{"post_code":"7960032","prefecture":"EHIME KEN","city":"YAWATAHAMA SHI","town":"HIGASHISHINKAWA","perfecture_jp":"愛媛県","jp_add_1":"八幡浜市","jp_add_2":"東新川"},"7960025":{"post_code":"7960025","prefecture":"EHIME KEN","city":"YAWATAHAMA SHI","town":"HIGASHIYANOMACHI","perfecture_jp":"愛媛県","jp_add_1":"八幡浜市","jp_add_2":"東矢野町"},"7960170":{"post_code":"7960170","prefecture":"EHIME KEN","city":"YAWATAHAMA SHI","town":"HIZUCHICHO","perfecture_jp":"愛媛県","jp_add_1":"八幡浜市","jp_add_2":"日土町"},"7960021":{"post_code":"7960021","prefecture":"EHIME KEN","city":"YAWATAHAMA SHI","town":"HINOKIDANI","perfecture_jp":"愛媛県","jp_add_1":"八幡浜市","jp_add_2":"桧谷"},"7968002":{"post_code":"7968002","prefecture":"EHIME KEN","city":"YAWATAHAMA SHI","town":"HIROSE","perfecture_jp":"愛媛県","jp_add_1":"八幡浜市","jp_add_2":"広瀬"},"7968039":{"post_code":"7968039","prefecture":"EHIME KEN","city":"YAWATAHAMA SHI","town":"FUKINOKAWA","perfecture_jp":"愛媛県","jp_add_1":"八幡浜市","jp_add_2":"布喜川"},"7968003":{"post_code":"7968003","prefecture":"EHIME KEN","city":"YAWATAHAMA SHI","town":"FURUMACHI","perfecture_jp":"愛媛県","jp_add_1":"八幡浜市","jp_add_2":"古町"},"7960203":{"post_code":"7960203","prefecture":"EHIME KEN","city":"YAWATAHAMA SHI","town":"HONAICHO ISAKI","perfecture_jp":"愛媛県","jp_add_1":"八幡浜市","jp_add_2":"保内町磯崎"},"7960201":{"post_code":"7960201","prefecture":"EHIME KEN","city":"YAWATAHAMA SHI","town":"HONAICHO KAWANOISHI","perfecture_jp":"愛媛県","jp_add_1":"八幡浜市","jp_add_2":"保内町川之石"},"7960111":{"post_code":"7960111","prefecture":"EHIME KEN","city":"YAWATAHAMA SHI","town":"HONAICHO KIKI","perfecture_jp":"愛媛県","jp_add_1":"八幡浜市","jp_add_2":"保内町喜木"},"7960204":{"post_code":"7960204","prefecture":"EHIME KEN","city":"YAWATAHAMA SHI","town":"HONAICHO KIKITSU","perfecture_jp":"愛媛県","jp_add_1":"八幡浜市","jp_add_2":"保内町喜木津"},"7960112":{"post_code":"7960112","prefecture":"EHIME KEN","city":"YAWATAHAMA SHI","town":"HONAICHO SUGAWA","perfecture_jp":"愛媛県","jp_add_1":"八幡浜市","jp_add_2":"保内町須川"},"7960205":{"post_code":"7960205","prefecture":"EHIME KEN","city":"YAWATAHAMA SHI","town":"HONAICHO HIROHAYA","perfecture_jp":"愛媛県","jp_add_1":"八幡浜市","jp_add_2":"保内町広早"},"7960202":{"post_code":"7960202","prefecture":"EHIME KEN","city":"YAWATAHAMA SHI","town":"HONAICHO MIYAUCHI","perfecture_jp":"愛媛県","jp_add_1":"八幡浜市","jp_add_2":"保内町宮内"},"7960066":{"post_code":"7960066","prefecture":"EHIME KEN","city":"YAWATAHAMA SHI","town":"HOMMACHI","perfecture_jp":"愛媛県","jp_add_1":"八幡浜市","jp_add_2":"本町"},"7968053":{"post_code":"7968053","prefecture":"EHIME KEN","city":"YAWATAHAMA SHI","town":"MAAJIRO","perfecture_jp":"愛媛県","jp_add_1":"八幡浜市","jp_add_2":"真網代"},"7960027":{"post_code":"7960027","prefecture":"EHIME KEN","city":"YAWATAHAMA SHI","town":"MATSUKAGECHO","perfecture_jp":"愛媛県","jp_add_1":"八幡浜市","jp_add_2":"松蔭町"},"7960010":{"post_code":"7960010","prefecture":"EHIME KEN","city":"YAWATAHAMA SHI","town":"MATSUKAYA","perfecture_jp":"愛媛県","jp_add_1":"八幡浜市","jp_add_2":"松柏"},"7960052":{"post_code":"7960052","prefecture":"EHIME KEN","city":"YAWATAHAMA SHI","town":"MATSUMOTOCHO","perfecture_jp":"愛媛県","jp_add_1":"八幡浜市","jp_add_2":"松本町"},"7960072":{"post_code":"7960072","prefecture":"EHIME KEN","city":"YAWATAHAMA SHI","town":"MINATOMACHI","perfecture_jp":"愛媛県","jp_add_1":"八幡浜市","jp_add_2":"港町"},"7960012":{"post_code":"7960012","prefecture":"EHIME KEN","city":"YAWATAHAMA SHI","town":"MINAMIGAYA","perfecture_jp":"愛媛県","jp_add_1":"八幡浜市","jp_add_2":"南柏"},"7960084":{"post_code":"7960084","prefecture":"EHIME KEN","city":"YAWATAHAMA SHI","town":"MINAMIDAIKOKUMACHI","perfecture_jp":"愛媛県","jp_add_1":"八幡浜市","jp_add_2":"南大黒町"},"7960001":{"post_code":"7960001","prefecture":"EHIME KEN","city":"YAWATAHAMA SHI","town":"MUKAINADA","perfecture_jp":"愛媛県","jp_add_1":"八幡浜市","jp_add_2":"向灘"},"7968011":{"post_code":"7968011","prefecture":"EHIME KEN","city":"YAWATAHAMA SHI","town":"MOTOJODANCHI","perfecture_jp":"愛媛県","jp_add_1":"八幡浜市","jp_add_2":"元城団地"},"7968006":{"post_code":"7968006","prefecture":"EHIME KEN","city":"YAWATAHAMA SHI","town":"YASHIRO(CHOME)","perfecture_jp":"愛媛県","jp_add_1":"八幡浜市","jp_add_2":"八代"},"7968007":{"post_code":"7968007","prefecture":"EHIME KEN","city":"YAWATAHAMA SHI","town":"YASHIRO(BANCHI)","perfecture_jp":"愛媛県","jp_add_1":"八幡浜市","jp_add_2":"八代"},"7968005":{"post_code":"7968005","prefecture":"EHIME KEN","city":"YAWATAHAMA SHI","town":"YANOMACHI(TOKUMBO)","perfecture_jp":"愛媛県","jp_add_1":"八幡浜市","jp_add_2":"矢野町"},"7960026":{"post_code":"7960026","prefecture":"EHIME KEN","city":"YAWATAHAMA SHI","town":"YANOMACHI(SONOTA)","perfecture_jp":"愛媛県","jp_add_1":"八幡浜市","jp_add_2":"矢野町"},"7960013":{"post_code":"7960013","prefecture":"EHIME KEN","city":"YAWATAHAMA SHI","town":"YAMAGUI","perfecture_jp":"愛媛県","jp_add_1":"八幡浜市","jp_add_2":"山越"},"7968038":{"post_code":"7968038","prefecture":"EHIME KEN","city":"YAWATAHAMA SHI","town":"YOKOHIRA","perfecture_jp":"愛媛県","jp_add_1":"八幡浜市","jp_add_2":"横平"},"7960063":{"post_code":"7960063","prefecture":"EHIME KEN","city":"YAWATAHAMA SHI","town":"YOKOMACHI","perfecture_jp":"愛媛県","jp_add_1":"八幡浜市","jp_add_2":"横町"},"7968035":{"post_code":"7968035","prefecture":"EHIME KEN","city":"YAWATAHAMA SHI","town":"WAKAYAMA","perfecture_jp":"愛媛県","jp_add_1":"八幡浜市","jp_add_2":"若山"},"7960907":{"post_code":"7960907","prefecture":"EHIME KEN","city":"SEIYO SHI","town":"MIKAMECHO ASADATSU","perfecture_jp":"愛媛県","jp_add_1":"西予市","jp_add_2":"三瓶町朝立"},"7960909":{"post_code":"7960909","prefecture":"EHIME KEN","city":"SEIYO SHI","town":"MIKAMECHO AZUCHI","perfecture_jp":"愛媛県","jp_add_1":"西予市","jp_add_2":"三瓶町安土"},"7960910":{"post_code":"7960910","prefecture":"EHIME KEN","city":"SEIYO SHI","town":"MIKAMECHO ARAJIRO","perfecture_jp":"愛媛県","jp_add_1":"西予市","jp_add_2":"三瓶町有網代"},"7960911":{"post_code":"7960911","prefecture":"EHIME KEN","city":"SEIYO SHI","town":"MIKAMECHO ARATACHI","perfecture_jp":"愛媛県","jp_add_1":"西予市","jp_add_2":"三瓶町有太刀"},"7960906":{"post_code":"7960906","prefecture":"EHIME KEN","city":"SEIYO SHI","town":"MIKAMECHO IZUMI","perfecture_jp":"愛媛県","jp_add_1":"西予市","jp_add_2":"三瓶町和泉"},"7960913":{"post_code":"7960913","prefecture":"EHIME KEN","city":"SEIYO SHI","town":"MIKAMECHO KURANUKI","perfecture_jp":"愛媛県","jp_add_1":"西予市","jp_add_2":"三瓶町蔵貫"},"7960912":{"post_code":"7960912","prefecture":"EHIME KEN","city":"SEIYO SHI","town":"MIKAMECHO KURANUKIURA","perfecture_jp":"愛媛県","jp_add_1":"西予市","jp_add_2":"三瓶町蔵貫浦"},"7960905":{"post_code":"7960905","prefecture":"EHIME KEN","city":"SEIYO SHI","town":"MIKAMECHO SHIGIYAMA","perfecture_jp":"愛媛県","jp_add_1":"西予市","jp_add_2":"三瓶町鴫山"},"7960915":{"post_code":"7960915","prefecture":"EHIME KEN","city":"SEIYO SHI","town":"MIKAMECHO SHIMODOMARI","perfecture_jp":"愛媛県","jp_add_1":"西予市","jp_add_2":"三瓶町下泊"},"7960901":{"post_code":"7960901","prefecture":"EHIME KEN","city":"SEIYO SHI","town":"MIKAMECHO SHUKI","perfecture_jp":"愛媛県","jp_add_1":"西予市","jp_add_2":"三瓶町周木"},"7960908":{"post_code":"7960908","prefecture":"EHIME KEN","city":"SEIYO SHI","town":"MIKAMECHO TSUBURI","perfecture_jp":"愛媛県","jp_add_1":"西予市","jp_add_2":"三瓶町津布理"},"7960902":{"post_code":"7960902","prefecture":"EHIME KEN","city":"SEIYO SHI","town":"MIKAMECHO NAGAHAYA","perfecture_jp":"愛媛県","jp_add_1":"西予市","jp_add_2":"三瓶町長早"},"7960903":{"post_code":"7960903","prefecture":"EHIME KEN","city":"SEIYO SHI","town":"MIKAMECHO NIGYU","perfecture_jp":"愛媛県","jp_add_1":"西予市","jp_add_2":"三瓶町二及"},"7960904":{"post_code":"7960904","prefecture":"EHIME KEN","city":"SEIYO SHI","town":"MIKAMECHO HABU","perfecture_jp":"愛媛県","jp_add_1":"西予市","jp_add_2":"三瓶町垣生"},"7960914":{"post_code":"7960914","prefecture":"EHIME KEN","city":"SEIYO SHI","town":"MIKAMECHO MINAE","perfecture_jp":"愛媛県","jp_add_1":"西予市","jp_add_2":"三瓶町皆江"},"7960300":{"post_code":"7960300","prefecture":"EHIME KEN","city":"NISHIUWA GUN IKATA CHO","town":"IKANIKEISAIGANAIBAAI","perfecture_jp":"愛媛県","jp_add_1":"西宇和郡伊方町","jp_add_2":""},"7960501":{"post_code":"7960501","prefecture":"EHIME KEN","city":"NISHIUWA GUN IKATA CHO","town":"ASHINARU","perfecture_jp":"愛媛県","jp_add_1":"西宇和郡伊方町","jp_add_2":"足成"},"7960304":{"post_code":"7960304","prefecture":"EHIME KEN","city":"NISHIUWA GUN IKATA CHO","town":"IKATAGOSHI","perfecture_jp":"愛媛県","jp_add_1":"西宇和郡伊方町","jp_add_2":"伊方越"},"7960805":{"post_code":"7960805","prefecture":"EHIME KEN","city":"NISHIUWA GUN IKATA CHO","town":"INORA","perfecture_jp":"愛媛県","jp_add_1":"西宇和郡伊方町","jp_add_2":"井野浦"},"7960503":{"post_code":"7960503","prefecture":"EHIME KEN","city":"NISHIUWA GUN IKATA CHO","town":"OE","perfecture_jp":"愛媛県","jp_add_1":"西宇和郡伊方町","jp_add_2":"大江"},"7960612":{"post_code":"7960612","prefecture":"EHIME KEN","city":"NISHIUWA GUN IKATA CHO","town":"OKU","perfecture_jp":"愛媛県","jp_add_1":"西宇和郡伊方町","jp_add_2":"大久"},"7960804":{"post_code":"7960804","prefecture":"EHIME KEN","city":"NISHIUWA GUN IKATA CHO","town":"OSADA","perfecture_jp":"愛媛県","jp_add_1":"西宇和郡伊方町","jp_add_2":"大佐田"},"7960308":{"post_code":"7960308","prefecture":"EHIME KEN","city":"NISHIUWA GUN IKATA CHO","town":"OHAMA","perfecture_jp":"愛媛県","jp_add_1":"西宇和郡伊方町","jp_add_2":"大浜"},"7960815":{"post_code":"7960815","prefecture":"EHIME KEN","city":"NISHIUWA GUN IKATA CHO","town":"KAMAGI","perfecture_jp":"愛媛県","jp_add_1":"西宇和郡伊方町","jp_add_2":"釜木"},"7960303":{"post_code":"7960303","prefecture":"EHIME KEN","city":"NISHIUWA GUN IKATA CHO","town":"KAMEURA","perfecture_jp":"愛媛県","jp_add_1":"西宇和郡伊方町","jp_add_2":"亀浦"},"7960305":{"post_code":"7960305","prefecture":"EHIME KEN","city":"NISHIUWA GUN IKATA CHO","town":"KAWAUCHI","perfecture_jp":"愛媛県","jp_add_1":"西宇和郡伊方町","jp_add_2":"河内"},"7960312":{"post_code":"7960312","prefecture":"EHIME KEN","city":"NISHIUWA GUN IKATA CHO","town":"KAWANAGATA","perfecture_jp":"愛媛県","jp_add_1":"西宇和郡伊方町","jp_add_2":"川永田"},"7960611":{"post_code":"7960611","prefecture":"EHIME KEN","city":"NISHIUWA GUN IKATA CHO","town":"KAWANOHAMA","perfecture_jp":"愛媛県","jp_add_1":"西宇和郡伊方町","jp_add_2":"川之浜"},"7960822":{"post_code":"7960822","prefecture":"EHIME KEN","city":"NISHIUWA GUN IKATA CHO","town":"KUSHI","perfecture_jp":"愛媛県","jp_add_1":"西宇和郡伊方町","jp_add_2":"串"},"7960421":{"post_code":"7960421","prefecture":"EHIME KEN","city":"NISHIUWA GUN IKATA CHO","town":"KUCHO","perfecture_jp":"愛媛県","jp_add_1":"西宇和郡伊方町","jp_add_2":"九町"},"7960613":{"post_code":"7960613","prefecture":"EHIME KEN","city":"NISHIUWA GUN IKATA CHO","town":"KOZAKI","perfecture_jp":"愛媛県","jp_add_1":"西宇和郡伊方町","jp_add_2":"神崎"},"7960615":{"post_code":"7960615","prefecture":"EHIME KEN","city":"NISHIUWA GUN IKATA CHO","town":"KOMO","perfecture_jp":"愛媛県","jp_add_1":"西宇和郡伊方町","jp_add_2":"高茂"},"7960505":{"post_code":"7960505","prefecture":"EHIME KEN","city":"NISHIUWA GUN IKATA CHO","town":"KOJIMA","perfecture_jp":"愛媛県","jp_add_1":"西宇和郡伊方町","jp_add_2":"小島"},"7960302":{"post_code":"7960302","prefecture":"EHIME KEN","city":"NISHIUWA GUN IKATA CHO","town":"KONAKAURA","perfecture_jp":"愛媛県","jp_add_1":"西宇和郡伊方町","jp_add_2":"小中浦"},"7960803":{"post_code":"7960803","prefecture":"EHIME KEN","city":"NISHIUWA GUN IKATA CHO","town":"SADA","perfecture_jp":"愛媛県","jp_add_1":"西宇和郡伊方町","jp_add_2":"佐田"},"7960506":{"post_code":"7960506","prefecture":"EHIME KEN","city":"NISHIUWA GUN IKATA CHO","town":"SHIONASHI","perfecture_jp":"愛媛県","jp_add_1":"西宇和郡伊方町","jp_add_2":"塩成"},"7960504":{"post_code":"7960504","prefecture":"EHIME KEN","city":"NISHIUWA GUN IKATA CHO","town":"SHITSU","perfecture_jp":"愛媛県","jp_add_1":"西宇和郡伊方町","jp_add_2":"志津"},"7960823":{"post_code":"7960823","prefecture":"EHIME KEN","city":"NISHIUWA GUN IKATA CHO","town":"SHONO","perfecture_jp":"愛媛県","jp_add_1":"西宇和郡伊方町","jp_add_2":"正野"},"7960802":{"post_code":"7960802","prefecture":"EHIME KEN","city":"NISHIUWA GUN IKATA CHO","town":"TAKAURA","perfecture_jp":"愛媛県","jp_add_1":"西宇和郡伊方町","jp_add_2":"高浦"},"7960614":{"post_code":"7960614","prefecture":"EHIME KEN","city":"NISHIUWA GUN IKATA CHO","town":"TABU","perfecture_jp":"愛媛県","jp_add_1":"西宇和郡伊方町","jp_add_2":"田部"},"7960313":{"post_code":"7960313","prefecture":"EHIME KEN","city":"NISHIUWA GUN IKATA CHO","town":"TOYONORA","perfecture_jp":"愛媛県","jp_add_1":"西宇和郡伊方町","jp_add_2":"豊之浦"},"7960311":{"post_code":"7960311","prefecture":"EHIME KEN","city":"NISHIUWA GUN IKATA CHO","town":"NAKAURA","perfecture_jp":"愛媛県","jp_add_1":"西宇和郡伊方町","jp_add_2":"中浦"},"7960307":{"post_code":"7960307","prefecture":"EHIME KEN","city":"NISHIUWA GUN IKATA CHO","town":"NAKANOHAMA","perfecture_jp":"愛媛県","jp_add_1":"西宇和郡伊方町","jp_add_2":"中之浜"},"7960816":{"post_code":"7960816","prefecture":"EHIME KEN","city":"NISHIUWA GUN IKATA CHO","town":"NATORI","perfecture_jp":"愛媛県","jp_add_1":"西宇和郡伊方町","jp_add_2":"名取"},"7960306":{"post_code":"7960306","prefecture":"EHIME KEN","city":"NISHIUWA GUN IKATA CHO","town":"NITANOHAMA","perfecture_jp":"愛媛県","jp_add_1":"西宇和郡伊方町","jp_add_2":"仁田之浜"},"7960814":{"post_code":"7960814","prefecture":"EHIME KEN","city":"NISHIUWA GUN IKATA CHO","town":"HIRAISO","perfecture_jp":"愛媛県","jp_add_1":"西宇和郡伊方町","jp_add_2":"平礒"},"7960813":{"post_code":"7960813","prefecture":"EHIME KEN","city":"NISHIUWA GUN IKATA CHO","town":"FUTANAZU","perfecture_jp":"愛媛県","jp_add_1":"西宇和郡伊方町","jp_add_2":"二名津"},"7960422":{"post_code":"7960422","prefecture":"EHIME KEN","city":"NISHIUWA GUN IKATA CHO","town":"FUTAMI","perfecture_jp":"愛媛県","jp_add_1":"西宇和郡伊方町","jp_add_2":"二見"},"7960811":{"post_code":"7960811","prefecture":"EHIME KEN","city":"NISHIUWA GUN IKATA CHO","town":"MATSU","perfecture_jp":"愛媛県","jp_add_1":"西宇和郡伊方町","jp_add_2":"松"},"7960801":{"post_code":"7960801","prefecture":"EHIME KEN","city":"NISHIUWA GUN IKATA CHO","town":"MISAKI","perfecture_jp":"愛媛県","jp_add_1":"西宇和郡伊方町","jp_add_2":"三崎"},"7960502":{"post_code":"7960502","prefecture":"EHIME KEN","city":"NISHIUWA GUN IKATA CHO","town":"MITSUKUE","perfecture_jp":"愛媛県","jp_add_1":"西宇和郡伊方町","jp_add_2":"三机"},"7960301":{"post_code":"7960301","prefecture":"EHIME KEN","city":"NISHIUWA GUN IKATA CHO","town":"MINATORA","perfecture_jp":"愛媛県","jp_add_1":"西宇和郡伊方町","jp_add_2":"湊浦"},"7960812":{"post_code":"7960812","prefecture":"EHIME KEN","city":"NISHIUWA GUN IKATA CHO","town":"MYOJIN","perfecture_jp":"愛媛県","jp_add_1":"西宇和郡伊方町","jp_add_2":"明神"},"7960821":{"post_code":"7960821","prefecture":"EHIME KEN","city":"NISHIUWA GUN IKATA CHO","town":"YOBOKORI","perfecture_jp":"愛媛県","jp_add_1":"西宇和郡伊方町","jp_add_2":"与侈"}}