{"7980000":{"post_code":"7980000","prefecture":"EHIME KEN","city":"UWAJIMA SHI","town":"IKANIKEISAIGANAIBAAI","perfecture_jp":"愛媛県","jp_add_1":"宇和島市","jp_add_2":""},"7980030":{"post_code":"7980030","prefecture":"EHIME KEN","city":"UWAJIMA SHI","town":"AKEBONOCHO","perfecture_jp":"愛媛県","jp_add_1":"宇和島市","jp_add_2":"曙町"},"7980004":{"post_code":"7980004","prefecture":"EHIME KEN","city":"UWAJIMA SHI","town":"ASAHIMACHI","perfecture_jp":"愛媛県","jp_add_1":"宇和島市","jp_add_2":"朝日町"},"7980042":{"post_code":"7980042","prefecture":"EHIME KEN","city":"UWAJIMA SHI","town":"ATAGOCHO","perfecture_jp":"愛媛県","jp_add_1":"宇和島市","jp_add_2":"愛宕町"},"7980026":{"post_code":"7980026","prefecture":"EHIME KEN","city":"UWAJIMA SHI","town":"IZUMIMACHI","perfecture_jp":"愛媛県","jp_add_1":"宇和島市","jp_add_2":"泉町"},"7980023":{"post_code":"7980023","prefecture":"EHIME KEN","city":"UWAJIMA SHI","town":"IBUKICHO(KITAUWAJIMACHO)","perfecture_jp":"愛媛県","jp_add_1":"宇和島市","jp_add_2":"伊吹町"},"7980024":{"post_code":"7980024","prefecture":"EHIME KEN","city":"UWAJIMA SHI","town":"IBUKICHO(KITADORI)","perfecture_jp":"愛媛県","jp_add_1":"宇和島市","jp_add_2":"伊吹町"},"7980025":{"post_code":"7980025","prefecture":"EHIME KEN","city":"UWAJIMA SHI","town":"IBUKICHO(HIGASHIDORI)","perfecture_jp":"愛媛県","jp_add_1":"宇和島市","jp_add_2":"伊吹町"},"7980022":{"post_code":"7980022","prefecture":"EHIME KEN","city":"UWAJIMA SHI","town":"IBUKICHO(SONOTA)","perfecture_jp":"愛媛県","jp_add_1":"宇和島市","jp_add_2":"伊吹町"},"7980078":{"post_code":"7980078","prefecture":"EHIME KEN","city":"UWAJIMA SHI","town":"IWAINOMORI","perfecture_jp":"愛媛県","jp_add_1":"宇和島市","jp_add_2":"祝森"},"7980043":{"post_code":"7980043","prefecture":"EHIME KEN","city":"UWAJIMA SHI","town":"UWATSUCHO","perfecture_jp":"愛媛県","jp_add_1":"宇和島市","jp_add_2":"宇和津町"},"7980032":{"post_code":"7980032","prefecture":"EHIME KEN","city":"UWAJIMA SHI","town":"EBISUMACHI","perfecture_jp":"愛媛県","jp_add_1":"宇和島市","jp_add_2":"恵美須町"},"7980001":{"post_code":"7980001","prefecture":"EHIME KEN","city":"UWAJIMA SHI","town":"OURA(AKAMATSU)","perfecture_jp":"愛媛県","jp_add_1":"宇和島市","jp_add_2":"大浦"},"7980002":{"post_code":"7980002","prefecture":"EHIME KEN","city":"UWAJIMA SHI","town":"OURA(SONOTA)","perfecture_jp":"愛媛県","jp_add_1":"宇和島市","jp_add_2":"大浦"},"7980039":{"post_code":"7980039","prefecture":"EHIME KEN","city":"UWAJIMA SHI","town":"OMIYACHO","perfecture_jp":"愛媛県","jp_add_1":"宇和島市","jp_add_2":"大宮町"},"7980063":{"post_code":"7980063","prefecture":"EHIME KEN","city":"UWAJIMA SHI","town":"OKACHIMACHI","perfecture_jp":"愛媛県","jp_add_1":"宇和島市","jp_add_2":"御徒町"},"7980027":{"post_code":"7980027","prefecture":"EHIME KEN","city":"UWAJIMA SHI","town":"KAKIHARA","perfecture_jp":"愛媛県","jp_add_1":"宇和島市","jp_add_2":"柿原"},"7980053":{"post_code":"7980053","prefecture":"EHIME KEN","city":"UWAJIMA SHI","town":"KAKOCHO","perfecture_jp":"愛媛県","jp_add_1":"宇和島市","jp_add_2":"賀古町"},"7980076":{"post_code":"7980076","prefecture":"EHIME KEN","city":"UWAJIMA SHI","town":"KAWACHI(YAKUSHIDANI)","perfecture_jp":"愛媛県","jp_add_1":"宇和島市","jp_add_2":"川内"},"7980075":{"post_code":"7980075","prefecture":"EHIME KEN","city":"UWAJIMA SHI","town":"KAWACHI(SONOTA)","perfecture_jp":"愛媛県","jp_add_1":"宇和島市","jp_add_2":"川内"},"7980010":{"post_code":"7980010","prefecture":"EHIME KEN","city":"UWAJIMA SHI","town":"FUJIE","perfecture_jp":"愛媛県","jp_add_1":"宇和島市","jp_add_2":"北新町"},"7980052":{"post_code":"7980052","prefecture":"EHIME KEN","city":"UWAJIMA SHI","town":"KYOMACHI","perfecture_jp":"愛媛県","jp_add_1":"宇和島市","jp_add_2":"京町"},"7980093":{"post_code":"7980093","prefecture":"EHIME KEN","city":"UWAJIMA SHI","town":"KOIKE","perfecture_jp":"愛媛県","jp_add_1":"宇和島市","jp_add_2":"小池"},"7980091":{"post_code":"7980091","prefecture":"EHIME KEN","city":"UWAJIMA SHI","town":"KOKUBO","perfecture_jp":"愛媛県","jp_add_1":"宇和島市","jp_add_2":"石応"},"7980061":{"post_code":"7980061","prefecture":"EHIME KEN","city":"UWAJIMA SHI","town":"GOTEMMACHI","perfecture_jp":"愛媛県","jp_add_1":"宇和島市","jp_add_2":"御殿町"},"7980007":{"post_code":"7980007","prefecture":"EHIME KEN","city":"UWAJIMA SHI","town":"KOTOBUKICHO","perfecture_jp":"愛媛県","jp_add_1":"宇和島市","jp_add_2":"寿町"},"7980092":{"post_code":"7980092","prefecture":"EHIME KEN","city":"UWAJIMA SHI","town":"KOHAMA","perfecture_jp":"愛媛県","jp_add_1":"宇和島市","jp_add_2":"小浜"},"7980211":{"post_code":"7980211","prefecture":"EHIME KEN","city":"UWAJIMA SHI","town":"KOMOBUCHI","perfecture_jp":"愛媛県","jp_add_1":"宇和島市","jp_add_2":"蒋渕"},"7980064":{"post_code":"7980064","prefecture":"EHIME KEN","city":"UWAJIMA SHI","town":"SAIKIMACHI","perfecture_jp":"愛媛県","jp_add_1":"宇和島市","jp_add_2":"佐伯町"},"7980031":{"post_code":"7980031","prefecture":"EHIME KEN","city":"UWAJIMA SHI","town":"SAKAEMACHIMINATO","perfecture_jp":"愛媛県","jp_add_1":"宇和島市","jp_add_2":"栄町港"},"7980087":{"post_code":"7980087","prefecture":"EHIME KEN","city":"UWAJIMA SHI","town":"SAKASHIZU","perfecture_jp":"愛媛県","jp_add_1":"宇和島市","jp_add_2":"坂下津"},"7980062":{"post_code":"7980062","prefecture":"EHIME KEN","city":"UWAJIMA SHI","town":"SAKURAMACHI","perfecture_jp":"愛媛県","jp_add_1":"宇和島市","jp_add_2":"桜町"},"7980054":{"post_code":"7980054","prefecture":"EHIME KEN","city":"UWAJIMA SHI","town":"SASAMACHI","perfecture_jp":"愛媛県","jp_add_1":"宇和島市","jp_add_2":"笹町"},"7980104":{"post_code":"7980104","prefecture":"EHIME KEN","city":"UWAJIMA SHI","town":"SHITABA","perfecture_jp":"愛媛県","jp_add_1":"宇和島市","jp_add_2":"下波"},"7980090":{"post_code":"7980090","prefecture":"EHIME KEN","city":"UWAJIMA SHI","town":"SHIRAHAMA","perfecture_jp":"愛媛県","jp_add_1":"宇和島市","jp_add_2":"白浜"},"7980070":{"post_code":"7980070","prefecture":"EHIME KEN","city":"UWAJIMA SHI","town":"JINDENGAWARA","perfecture_jp":"愛媛県","jp_add_1":"宇和島市","jp_add_2":"神田川原"},"7980080":{"post_code":"7980080","prefecture":"EHIME KEN","city":"UWAJIMA SHI","town":"SHINDENCHO","perfecture_jp":"愛媛県","jp_add_1":"宇和島市","jp_add_2":"新田町"},"7980035":{"post_code":"7980035","prefecture":"EHIME KEN","city":"UWAJIMA SHI","town":"SHIMMACHI","perfecture_jp":"愛媛県","jp_add_1":"宇和島市","jp_add_2":"新町"},"7980011":{"post_code":"7980011","prefecture":"EHIME KEN","city":"UWAJIMA SHI","town":"SUKADORI","perfecture_jp":"愛媛県","jp_add_1":"宇和島市","jp_add_2":"須賀通"},"7980003":{"post_code":"7980003","prefecture":"EHIME KEN","city":"UWAJIMA SHI","town":"SUMIYOSHICHO","perfecture_jp":"愛媛県","jp_add_1":"宇和島市","jp_add_2":"住吉町"},"7980045":{"post_code":"7980045","prefecture":"EHIME KEN","city":"UWAJIMA SHI","town":"DAICHOJIOKU","perfecture_jp":"愛媛県","jp_add_1":"宇和島市","jp_add_2":"大超寺奥"},"7980020":{"post_code":"7980020","prefecture":"EHIME KEN","city":"UWAJIMA SHI","town":"TAKAGUSHI","perfecture_jp":"愛媛県","jp_add_1":"宇和島市","jp_add_2":"高串"},"7980040":{"post_code":"7980040","prefecture":"EHIME KEN","city":"UWAJIMA SHI","town":"CHUOCHO","perfecture_jp":"愛媛県","jp_add_1":"宇和島市","jp_add_2":"中央町"},"7980005":{"post_code":"7980005","prefecture":"EHIME KEN","city":"UWAJIMA SHI","town":"TSUKIJICHO","perfecture_jp":"愛媛県","jp_add_1":"宇和島市","jp_add_2":"築地町"},"7983344":{"post_code":"7983344","prefecture":"EHIME KEN","city":"UWAJIMA SHI","town":"TSUSHIMACHO ARASHI","perfecture_jp":"愛媛県","jp_add_1":"宇和島市","jp_add_2":"津島町嵐"},"7983311":{"post_code":"7983311","prefecture":"EHIME KEN","city":"UWAJIMA SHI","town":"TSUSHIMACHO IWABUCHI","perfecture_jp":"愛媛県","jp_add_1":"宇和島市","jp_add_2":"津島町岩淵"},"7983301":{"post_code":"7983301","prefecture":"EHIME KEN","city":"UWAJIMA SHI","town":"TSUSHIMACHO IWAMATSU","perfecture_jp":"愛媛県","jp_add_1":"宇和島市","jp_add_2":"津島町岩松"},"7983331":{"post_code":"7983331","prefecture":"EHIME KEN","city":"UWAJIMA SHI","town":"TSUSHIMACHO USHIRO","perfecture_jp":"愛媛県","jp_add_1":"宇和島市","jp_add_2":"津島町後"},"7983342":{"post_code":"7983342","prefecture":"EHIME KEN","city":"UWAJIMA SHI","town":"TSUSHIMACHO URASHIRI","perfecture_jp":"愛媛県","jp_add_1":"宇和島市","jp_add_2":"津島町浦知"},"7983341":{"post_code":"7983341","prefecture":"EHIME KEN","city":"UWAJIMA SHI","town":"TSUSHIMACHO ENJO","perfecture_jp":"愛媛県","jp_add_1":"宇和島市","jp_add_2":"津島町塩定"},"7983337":{"post_code":"7983337","prefecture":"EHIME KEN","city":"UWAJIMA SHI","town":"TSUSHIMACHO OURA","perfecture_jp":"愛媛県","jp_add_1":"宇和島市","jp_add_2":"津島町大浦"},"7983338":{"post_code":"7983338","prefecture":"EHIME KEN","city":"UWAJIMA SHI","town":"TSUSHIMACHO KAKINORA","perfecture_jp":"愛媛県","jp_add_1":"宇和島市","jp_add_2":"津島町柿之浦"},"7983323":{"post_code":"7983323","prefecture":"EHIME KEN","city":"UWAJIMA SHI","town":"TSUSHIMACHO KAMIHATAJI","perfecture_jp":"愛媛県","jp_add_1":"宇和島市","jp_add_2":"津島町上畑地"},"7983362":{"post_code":"7983362","prefecture":"EHIME KEN","city":"UWAJIMA SHI","town":"TSUSHIMACHO KITANADA OTSU","perfecture_jp":"愛媛県","jp_add_1":"宇和島市","jp_add_2":"津島町北灘乙"},"7983361":{"post_code":"7983361","prefecture":"EHIME KEN","city":"UWAJIMA SHI","town":"TSUSHIMACHO KITANADA KO","perfecture_jp":"愛媛県","jp_add_1":"宇和島市","jp_add_2":"津島町北灘甲"},"7983363":{"post_code":"7983363","prefecture":"EHIME KEN","city":"UWAJIMA SHI","town":"TSUSHIMACHO KITANADA HEI","perfecture_jp":"愛媛県","jp_add_1":"宇和島市","jp_add_2":"津島町北灘丙"},"7983364":{"post_code":"7983364","prefecture":"EHIME KEN","city":"UWAJIMA SHI","town":"TSUSHIMACHO KITANADATEI(OHISAGE.KOH","perfecture_jp":"愛媛県","jp_add_1":"宇和島市","jp_add_2":"津島町北灘丁"},"7983312":{"post_code":"7983312","prefecture":"EHIME KEN","city":"UWAJIMA SHI","town":"TSUSHIMACHO SANZAI","perfecture_jp":"愛媛県","jp_add_1":"宇和島市","jp_add_2":"津島町山財"},"7983322":{"post_code":"7983322","prefecture":"EHIME KEN","city":"UWAJIMA SHI","town":"TSUSHIMACHO SHIMOHATAJI OTSU(KAMIMA","perfecture_jp":"愛媛県","jp_add_1":"宇和島市","jp_add_2":"津島町下畑地乙"},"7983321":{"post_code":"7983321","prefecture":"EHIME KEN","city":"UWAJIMA SHI","town":"TSUSHIMACHO SHIMOHATAJI(OTSUONOZOKU","perfecture_jp":"愛媛県","jp_add_1":"宇和島市","jp_add_2":"津島町下畑地"},"7983332":{"post_code":"7983332","prefecture":"EHIME KEN","city":"UWAJIMA SHI","town":"TSUSHIMACHO SUGE","perfecture_jp":"愛媛県","jp_add_1":"宇和島市","jp_add_2":"津島町須下"},"7983356":{"post_code":"7983356","prefecture":"EHIME KEN","city":"UWAJIMA SHI","town":"TSUSHIMACHO SONE","perfecture_jp":"愛媛県","jp_add_1":"宇和島市","jp_add_2":"津島町曽根"},"7983354":{"post_code":"7983354","prefecture":"EHIME KEN","city":"UWAJIMA SHI","town":"TSUSHIMACHO TAOROSHI","perfecture_jp":"愛媛県","jp_add_1":"宇和島市","jp_add_2":"津島町田颪"},"7983302":{"post_code":"7983302","prefecture":"EHIME KEN","city":"UWAJIMA SHI","town":"TSUSHIMACHO TAKATA","perfecture_jp":"愛媛県","jp_add_1":"宇和島市","jp_add_2":"津島町高田"},"7983358":{"post_code":"7983358","prefecture":"EHIME KEN","city":"UWAJIMA SHI","town":"TSUSHIMACHO TAKEGASHIMA","perfecture_jp":"愛媛県","jp_add_1":"宇和島市","jp_add_2":"津島町竹ケ島"},"7983357":{"post_code":"7983357","prefecture":"EHIME KEN","city":"UWAJIMA SHI","town":"TSUSHIMACHO TANOHAMA","perfecture_jp":"愛媛県","jp_add_1":"宇和島市","jp_add_2":"津島町田之浜"},"7983303":{"post_code":"7983303","prefecture":"EHIME KEN","city":"UWAJIMA SHI","town":"TSUSHIMACHO CHIKAIE","perfecture_jp":"愛媛県","jp_add_1":"宇和島市","jp_add_2":"津島町近家"},"7983352":{"post_code":"7983352","prefecture":"EHIME KEN","city":"UWAJIMA SHI","town":"TSUSHIMACHO TSUBOI","perfecture_jp":"愛媛県","jp_add_1":"宇和島市","jp_add_2":"津島町坪井"},"7983353":{"post_code":"7983353","prefecture":"EHIME KEN","city":"UWAJIMA SHI","town":"TSUSHIMACHO DOROMEZU","perfecture_jp":"愛媛県","jp_add_1":"宇和島市","jp_add_2":"津島町泥目水"},"7983333":{"post_code":"7983333","prefecture":"EHIME KEN","city":"UWAJIMA SHI","town":"TSUSHIMACHO NARU","perfecture_jp":"愛媛県","jp_add_1":"宇和島市","jp_add_2":"津島町成"},"7983346":{"post_code":"7983346","prefecture":"EHIME KEN","city":"UWAJIMA SHI","town":"TSUSHIMACHO NEZUNAKI","perfecture_jp":"愛媛県","jp_add_1":"宇和島市","jp_add_2":"津島町鼡鳴"},"7983343":{"post_code":"7983343","prefecture":"EHIME KEN","city":"UWAJIMA SHI","town":"TSUSHIMACHO HARIGI","perfecture_jp":"愛媛県","jp_add_1":"宇和島市","jp_add_2":"津島町針木"},"7983335":{"post_code":"7983335","prefecture":"EHIME KEN","city":"UWAJIMA SHI","town":"TSUSHIMACHO HIRAI","perfecture_jp":"愛媛県","jp_add_1":"宇和島市","jp_add_2":"津島町平井"},"7983336":{"post_code":"7983336","prefecture":"EHIME KEN","city":"UWAJIMA SHI","town":"TSUSHIMACHO MAGARASU","perfecture_jp":"愛媛県","jp_add_1":"宇和島市","jp_add_2":"津島町曲烏"},"7983272":{"post_code":"7983272","prefecture":"EHIME KEN","city":"UWAJIMA SHI","town":"TSUSHIMACHO MAKIGAWA","perfecture_jp":"愛媛県","jp_add_1":"宇和島市","jp_add_2":"津島町槇川"},"7983313":{"post_code":"7983313","prefecture":"EHIME KEN","city":"UWAJIMA SHI","town":"TSUSHIMACHO MASUHO","perfecture_jp":"愛媛県","jp_add_1":"宇和島市","jp_add_2":"津島町増穂"},"7983271":{"post_code":"7983271","prefecture":"EHIME KEN","city":"UWAJIMA SHI","town":"TSUSHIMACHO MIUCHI","perfecture_jp":"愛媛県","jp_add_1":"宇和島市","jp_add_2":"津島町御内"},"7983351":{"post_code":"7983351","prefecture":"EHIME KEN","city":"UWAJIMA SHI","town":"TSUSHIMACHO YUDACHI","perfecture_jp":"愛媛県","jp_add_1":"宇和島市","jp_add_2":"津島町弓立"},"7983345":{"post_code":"7983345","prefecture":"EHIME KEN","city":"UWAJIMA SHI","town":"TSUSHIMACHO YOKORA","perfecture_jp":"愛媛県","jp_add_1":"宇和島市","jp_add_2":"津島町横浦"},"7983334":{"post_code":"7983334","prefecture":"EHIME KEN","city":"UWAJIMA SHI","town":"TSUSHIMACHO RYOKE","perfecture_jp":"愛媛県","jp_add_1":"宇和島市","jp_add_2":"津島町漁家"},"7983355":{"post_code":"7983355","prefecture":"EHIME KEN","city":"UWAJIMA SHI","town":"TSUSHIMACHO WAKI","perfecture_jp":"愛媛県","jp_add_1":"宇和島市","jp_add_2":"津島町脇"},"7980033":{"post_code":"7980033","prefecture":"EHIME KEN","city":"UWAJIMA SHI","town":"TSURUSHIMACHO","perfecture_jp":"愛媛県","jp_add_1":"宇和島市","jp_add_2":"鶴島町"},"7980065":{"post_code":"7980065","prefecture":"EHIME KEN","city":"UWAJIMA SHI","town":"TENSHAKOEN","perfecture_jp":"愛媛県","jp_add_1":"宇和島市","jp_add_2":"天赦公園"},"7980036":{"post_code":"7980036","prefecture":"EHIME KEN","city":"UWAJIMA SHI","town":"TENJIMMACHI","perfecture_jp":"愛媛県","jp_add_1":"宇和島市","jp_add_2":"天神町"},"7980212":{"post_code":"7980212","prefecture":"EHIME KEN","city":"UWAJIMA SHI","town":"TOJIMA","perfecture_jp":"愛媛県","jp_add_1":"宇和島市","jp_add_2":"戸島"},"7980081":{"post_code":"7980081","prefecture":"EHIME KEN","city":"UWAJIMA SHI","town":"NAKAZAWACHO","perfecture_jp":"愛媛県","jp_add_1":"宇和島市","jp_add_2":"中沢町"},"7980082":{"post_code":"7980082","prefecture":"EHIME KEN","city":"UWAJIMA SHI","town":"NAGAHORI","perfecture_jp":"愛媛県","jp_add_1":"宇和島市","jp_add_2":"長堀"},"7980083":{"post_code":"7980083","prefecture":"EHIME KEN","city":"UWAJIMA SHI","town":"NATSUMECHO","perfecture_jp":"愛媛県","jp_add_1":"宇和島市","jp_add_2":"夏目町"},"7980074":{"post_code":"7980074","prefecture":"EHIME KEN","city":"UWAJIMA SHI","town":"NAMIMATSU","perfecture_jp":"愛媛県","jp_add_1":"宇和島市","jp_add_2":"並松"},"7980034":{"post_code":"7980034","prefecture":"EHIME KEN","city":"UWAJIMA SHI","town":"NISHIKIMACHI","perfecture_jp":"愛媛県","jp_add_1":"宇和島市","jp_add_2":"錦町"},"7982146":{"post_code":"7982146","prefecture":"EHIME KEN","city":"UWAJIMA SHI","town":"NOGAWA(NAMETOKO)","perfecture_jp":"愛媛県","jp_add_1":"宇和島市","jp_add_2":"野川"},"7980044":{"post_code":"7980044","prefecture":"EHIME KEN","city":"UWAJIMA SHI","town":"NOGAWA(SONOTA)","perfecture_jp":"愛媛県","jp_add_1":"宇和島市","jp_add_2":"野川"},"7980098":{"post_code":"7980098","prefecture":"EHIME KEN","city":"UWAJIMA SHI","town":"HAMAGURI","perfecture_jp":"愛媛県","jp_add_1":"宇和島市","jp_add_2":"蛤"},"7980099":{"post_code":"7980099","prefecture":"EHIME KEN","city":"UWAJIMA SHI","town":"HIBURISHIMA","perfecture_jp":"愛媛県","jp_add_1":"宇和島市","jp_add_2":"日振島"},"7980097":{"post_code":"7980097","prefecture":"EHIME KEN","city":"UWAJIMA SHI","town":"HYAKUNORA","perfecture_jp":"愛媛県","jp_add_1":"宇和島市","jp_add_2":"百之浦"},"7980095":{"post_code":"7980095","prefecture":"EHIME KEN","city":"UWAJIMA SHI","town":"HIRAURA","perfecture_jp":"愛媛県","jp_add_1":"宇和島市","jp_add_2":"平浦"},"7980051":{"post_code":"7980051","prefecture":"EHIME KEN","city":"UWAJIMA SHI","town":"HIROKOJI","perfecture_jp":"愛媛県","jp_add_1":"宇和島市","jp_add_2":"広小路"},"7980066":{"post_code":"7980066","prefecture":"EHIME KEN","city":"UWAJIMA SHI","town":"BUNKYOCHO","perfecture_jp":"愛媛県","jp_add_1":"宇和島市","jp_add_2":"文京町"},"7980086":{"post_code":"7980086","prefecture":"EHIME KEN","city":"UWAJIMA SHI","town":"BETSUTO","perfecture_jp":"愛媛県","jp_add_1":"宇和島市","jp_add_2":"別当"},"7980006":{"post_code":"7980006","prefecture":"EHIME KEN","city":"UWAJIMA SHI","town":"BENTENCHO","perfecture_jp":"愛媛県","jp_add_1":"宇和島市","jp_add_2":"弁天町"},"7980088":{"post_code":"7980088","prefecture":"EHIME KEN","city":"UWAJIMA SHI","town":"HODE","perfecture_jp":"愛媛県","jp_add_1":"宇和島市","jp_add_2":"保手"},"7980050":{"post_code":"7980050","prefecture":"EHIME KEN","city":"UWAJIMA SHI","town":"HORIBATACHO","perfecture_jp":"愛媛県","jp_add_1":"宇和島市","jp_add_2":"堀端町"},"7980096":{"post_code":"7980096","prefecture":"EHIME KEN","city":"UWAJIMA SHI","town":"HONKUSHIMA","perfecture_jp":"愛媛県","jp_add_1":"宇和島市","jp_add_2":"本九島"},"7980041":{"post_code":"7980041","prefecture":"EHIME KEN","city":"UWAJIMA SHI","town":"HOMMACHIOTE","perfecture_jp":"愛媛県","jp_add_1":"宇和島市","jp_add_2":"本町追手"},"7980067":{"post_code":"7980067","prefecture":"EHIME KEN","city":"UWAJIMA SHI","town":"MASUGATACHO","perfecture_jp":"愛媛県","jp_add_1":"宇和島市","jp_add_2":"桝形町"},"7980037":{"post_code":"7980037","prefecture":"EHIME KEN","city":"UWAJIMA SHI","town":"MARUOCHO(CHOME)","perfecture_jp":"愛媛県","jp_add_1":"宇和島市","jp_add_2":"丸穂町"},"7980038":{"post_code":"7980038","prefecture":"EHIME KEN","city":"UWAJIMA SHI","town":"MARUO(BANCHI)","perfecture_jp":"愛媛県","jp_add_1":"宇和島市","jp_add_2":"丸穂"},"7980060":{"post_code":"7980060","prefecture":"EHIME KEN","city":"UWAJIMA SHI","town":"MARUNOCHI","perfecture_jp":"愛媛県","jp_add_1":"宇和島市","jp_add_2":"丸之内"},"7980101":{"post_code":"7980101","prefecture":"EHIME KEN","city":"UWAJIMA SHI","town":"MIURAHIGASHI","perfecture_jp":"愛媛県","jp_add_1":"宇和島市","jp_add_2":"三浦東"},"7980102":{"post_code":"7980102","prefecture":"EHIME KEN","city":"UWAJIMA SHI","town":"MIURANISHI","perfecture_jp":"愛媛県","jp_add_1":"宇和島市","jp_add_2":"三浦西"},"7980021":{"post_code":"7980021","prefecture":"EHIME KEN","city":"UWAJIMA SHI","town":"MITSUMA","perfecture_jp":"愛媛県","jp_add_1":"宇和島市","jp_add_2":"光満"},"7981136":{"post_code":"7981136","prefecture":"EHIME KEN","city":"UWAJIMA SHI","town":"MIMACHO OUCHI","perfecture_jp":"愛媛県","jp_add_1":"宇和島市","jp_add_2":"三間町大内"},"7981101":{"post_code":"7981101","prefecture":"EHIME KEN","city":"UWAJIMA SHI","town":"MIMACHO OFUJI","perfecture_jp":"愛媛県","jp_add_1":"宇和島市","jp_add_2":"三間町大藤"},"7981141":{"post_code":"7981141","prefecture":"EHIME KEN","city":"UWAJIMA SHI","town":"MIMACHO ONJI","perfecture_jp":"愛媛県","jp_add_1":"宇和島市","jp_add_2":"三間町音地"},"7981134":{"post_code":"7981134","prefecture":"EHIME KEN","city":"UWAJIMA SHI","town":"MIMACHO KANADO","perfecture_jp":"愛媛県","jp_add_1":"宇和島市","jp_add_2":"三間町金銅"},"7981137":{"post_code":"7981137","prefecture":"EHIME KEN","city":"UWAJIMA SHI","town":"MIMACHO KANECHIKA","perfecture_jp":"愛媛県","jp_add_1":"宇和島市","jp_add_2":"三間町兼近"},"7981121":{"post_code":"7981121","prefecture":"EHIME KEN","city":"UWAJIMA SHI","town":"MIMACHO KAWANOCHI","perfecture_jp":"愛媛県","jp_add_1":"宇和島市","jp_add_2":"三間町川之内"},"7981111":{"post_code":"7981111","prefecture":"EHIME KEN","city":"UWAJIMA SHI","town":"MIMACHO KITAMASUO","perfecture_jp":"愛媛県","jp_add_1":"宇和島市","jp_add_2":"三間町北増穂"},"7981116":{"post_code":"7981116","prefecture":"EHIME KEN","city":"UWAJIMA SHI","town":"MIMACHO KUROIJI","perfecture_jp":"愛媛県","jp_add_1":"宇和島市","jp_add_2":"三間町黒井地"},"7981143":{"post_code":"7981143","prefecture":"EHIME KEN","city":"UWAJIMA SHI","town":"MIMACHO KUROKAWA","perfecture_jp":"愛媛県","jp_add_1":"宇和島市","jp_add_2":"三間町黒川"},"7981122":{"post_code":"7981122","prefecture":"EHIME KEN","city":"UWAJIMA SHI","town":"MIMACHO KOSOGAWA","perfecture_jp":"愛媛県","jp_add_1":"宇和島市","jp_add_2":"三間町小沢川"},"7981135":{"post_code":"7981135","prefecture":"EHIME KEN","city":"UWAJIMA SHI","town":"MIMACHO KOTODA","perfecture_jp":"愛媛県","jp_add_1":"宇和島市","jp_add_2":"三間町古藤田"},"7981139":{"post_code":"7981139","prefecture":"EHIME KEN","city":"UWAJIMA SHI","town":"MIMACHO KORENOBU","perfecture_jp":"愛媛県","jp_add_1":"宇和島市","jp_add_2":"三間町是延"},"7981105":{"post_code":"7981105","prefecture":"EHIME KEN","city":"UWAJIMA SHI","town":"MIMACHO KOREYOSHI","perfecture_jp":"愛媛県","jp_add_1":"宇和島市","jp_add_2":"三間町是能"},"7981102":{"post_code":"7981102","prefecture":"EHIME KEN","city":"UWAJIMA SHI","town":"MIMACHO SUNAWACHI","perfecture_jp":"愛媛県","jp_add_1":"宇和島市","jp_add_2":"三間町則"},"7981104":{"post_code":"7981104","prefecture":"EHIME KEN","city":"UWAJIMA SHI","town":"MIMACHO SONE","perfecture_jp":"愛媛県","jp_add_1":"宇和島市","jp_add_2":"三間町曽根"},"7981131":{"post_code":"7981131","prefecture":"EHIME KEN","city":"UWAJIMA SHI","town":"MIMACHO TAGAWA","perfecture_jp":"愛媛県","jp_add_1":"宇和島市","jp_add_2":"三間町田川"},"7981138":{"post_code":"7981138","prefecture":"EHIME KEN","city":"UWAJIMA SHI","town":"MIMACHO DOIKAKIUCHI","perfecture_jp":"愛媛県","jp_add_1":"宇和島市","jp_add_2":"三間町土居垣内"},"7981125":{"post_code":"7981125","prefecture":"EHIME KEN","city":"UWAJIMA SHI","town":"MIMACHO DOINAKA","perfecture_jp":"愛媛県","jp_add_1":"宇和島市","jp_add_2":"三間町土居中"},"7981115":{"post_code":"7981115","prefecture":"EHIME KEN","city":"UWAJIMA SHI","town":"MIMACHO TOGARI","perfecture_jp":"愛媛県","jp_add_1":"宇和島市","jp_add_2":"三間町戸雁"},"7981133":{"post_code":"7981133","prefecture":"EHIME KEN","city":"UWAJIMA SHI","town":"MIMACHO NAKANONAKA","perfecture_jp":"愛媛県","jp_add_1":"宇和島市","jp_add_2":"三間町中野中"},"7981132":{"post_code":"7981132","prefecture":"EHIME KEN","city":"UWAJIMA SHI","town":"MIMACHO NAMIOKA","perfecture_jp":"愛媛県","jp_add_1":"宇和島市","jp_add_2":"三間町波岡"},"7981103":{"post_code":"7981103","prefecture":"EHIME KEN","city":"UWAJIMA SHI","town":"MIMACHO NARUIE","perfecture_jp":"愛媛県","jp_add_1":"宇和島市","jp_add_2":"三間町成家"},"7981113":{"post_code":"7981113","prefecture":"EHIME KEN","city":"UWAJIMA SHI","town":"MIMACHO HAZAME","perfecture_jp":"愛媛県","jp_add_1":"宇和島市","jp_add_2":"三間町迫目"},"7981124":{"post_code":"7981124","prefecture":"EHIME KEN","city":"UWAJIMA SHI","town":"MIMACHO MASUDA","perfecture_jp":"愛媛県","jp_add_1":"宇和島市","jp_add_2":"三間町増田"},"7981142":{"post_code":"7981142","prefecture":"EHIME KEN","city":"UWAJIMA SHI","town":"MIMACHO MIMANAKAIDA","perfecture_jp":"愛媛県","jp_add_1":"宇和島市","jp_add_2":"三間町三間中間"},"7981112":{"post_code":"7981112","prefecture":"EHIME KEN","city":"UWAJIMA SHI","town":"MIMACHO MIYANOSHITA","perfecture_jp":"愛媛県","jp_add_1":"宇和島市","jp_add_2":"三間町宮野下"},"7981114":{"post_code":"7981114","prefecture":"EHIME KEN","city":"UWAJIMA SHI","town":"MIMACHO MUDEN","perfecture_jp":"愛媛県","jp_add_1":"宇和島市","jp_add_2":"三間町務田"},"7981123":{"post_code":"7981123","prefecture":"EHIME KEN","city":"UWAJIMA SHI","town":"MIMACHO MOTOMUNE","perfecture_jp":"愛媛県","jp_add_1":"宇和島市","jp_add_2":"三間町元宗"},"7980085":{"post_code":"7980085","prefecture":"EHIME KEN","city":"UWAJIMA SHI","town":"MIYASHITA","perfecture_jp":"愛媛県","jp_add_1":"宇和島市","jp_add_2":"宮下"},"7980013":{"post_code":"7980013","prefecture":"EHIME KEN","city":"UWAJIMA SHI","town":"MIYUKIMACHI","perfecture_jp":"愛媛県","jp_add_1":"宇和島市","jp_add_2":"御幸町"},"7980071":{"post_code":"7980071","prefecture":"EHIME KEN","city":"UWAJIMA SHI","town":"MYODENJIMAE","perfecture_jp":"愛媛県","jp_add_1":"宇和島市","jp_add_2":"妙典寺前"},"7980068":{"post_code":"7980068","prefecture":"EHIME KEN","city":"UWAJIMA SHI","town":"MEIRINCHO","perfecture_jp":"愛媛県","jp_add_1":"宇和島市","jp_add_2":"明倫町"},"7980072":{"post_code":"7980072","prefecture":"EHIME KEN","city":"UWAJIMA SHI","town":"MOTOYUIGI","perfecture_jp":"愛媛県","jp_add_1":"宇和島市","jp_add_2":"元結掛"},"7980077":{"post_code":"7980077","prefecture":"EHIME KEN","city":"UWAJIMA SHI","town":"YASUDA","perfecture_jp":"愛媛県","jp_add_1":"宇和島市","jp_add_2":"保田"},"7980073":{"post_code":"7980073","prefecture":"EHIME KEN","city":"UWAJIMA SHI","town":"YAMAGIWA","perfecture_jp":"愛媛県","jp_add_1":"宇和島市","jp_add_2":"山際"},"7980103":{"post_code":"7980103","prefecture":"EHIME KEN","city":"UWAJIMA SHI","town":"YUSU","perfecture_jp":"愛媛県","jp_add_1":"宇和島市","jp_add_2":"遊子"},"7980084":{"post_code":"7980084","prefecture":"EHIME KEN","city":"UWAJIMA SHI","town":"YORIMATSU","perfecture_jp":"愛媛県","jp_add_1":"宇和島市","jp_add_2":"寄松"},"7980094":{"post_code":"7980094","prefecture":"EHIME KEN","city":"UWAJIMA SHI","town":"WARABI","perfecture_jp":"愛媛県","jp_add_1":"宇和島市","jp_add_2":"蕨"},"7980014":{"post_code":"7980014","prefecture":"EHIME KEN","city":"UWAJIMA SHI","town":"WAREIKOEN","perfecture_jp":"愛媛県","jp_add_1":"宇和島市","jp_add_2":"和霊公園"},"7980016":{"post_code":"7980016","prefecture":"EHIME KEN","city":"UWAJIMA SHI","town":"WAREINAKAMACHI","perfecture_jp":"愛媛県","jp_add_1":"宇和島市","jp_add_2":"和霊中町"},"7980017":{"post_code":"7980017","prefecture":"EHIME KEN","city":"UWAJIMA SHI","town":"WAREIHIGASHIMACHI","perfecture_jp":"愛媛県","jp_add_1":"宇和島市","jp_add_2":"和霊東町"},"7980015":{"post_code":"7980015","prefecture":"EHIME KEN","city":"UWAJIMA SHI","town":"WAREIMOTOMACHI","perfecture_jp":"愛媛県","jp_add_1":"宇和島市","jp_add_2":"和霊元町"},"7980012":{"post_code":"7980012","prefecture":"EHIME KEN","city":"UWAJIMA SHI","town":"WAREICHO","perfecture_jp":"愛媛県","jp_add_1":"宇和島市","jp_add_2":"和霊町"},"7982100":{"post_code":"7982100","prefecture":"EHIME KEN","city":"KITAUWA GUN MATSUNO CHO","town":"IKANIKEISAIGANAIBAAI","perfecture_jp":"愛媛県","jp_add_1":"北宇和郡松野町","jp_add_2":""},"7982113":{"post_code":"7982113","prefecture":"EHIME KEN","city":"KITAUWA GUN MATSUNO CHO","town":"OKUNOKAWA","perfecture_jp":"愛媛県","jp_add_1":"北宇和郡松野町","jp_add_2":"奥野川"},"7982105":{"post_code":"7982105","prefecture":"EHIME KEN","city":"KITAUWA GUN MATSUNO CHO","town":"KAMIIEJI","perfecture_jp":"愛媛県","jp_add_1":"北宇和郡松野町","jp_add_2":"上家地"},"7982104":{"post_code":"7982104","prefecture":"EHIME KEN","city":"KITAUWA GUN MATSUNO CHO","town":"TOMIOKA","perfecture_jp":"愛媛県","jp_add_1":"北宇和郡松野町","jp_add_2":"富岡"},"7982103":{"post_code":"7982103","prefecture":"EHIME KEN","city":"KITAUWA GUN MATSUNO CHO","town":"TOYOKA","perfecture_jp":"愛媛県","jp_add_1":"北宇和郡松野町","jp_add_2":"豊岡"},"7982102":{"post_code":"7982102","prefecture":"EHIME KEN","city":"KITAUWA GUN MATSUNO CHO","town":"NOBINONO","perfecture_jp":"愛媛県","jp_add_1":"北宇和郡松野町","jp_add_2":"延野々"},"7982101":{"post_code":"7982101","prefecture":"EHIME KEN","city":"KITAUWA GUN MATSUNO CHO","town":"MATSUMARU","perfecture_jp":"愛媛県","jp_add_1":"北宇和郡松野町","jp_add_2":"松丸"},"7982106":{"post_code":"7982106","prefecture":"EHIME KEN","city":"KITAUWA GUN MATSUNO CHO","town":"MEGURO","perfecture_jp":"愛媛県","jp_add_1":"北宇和郡松野町","jp_add_2":"目黒"},"7982111":{"post_code":"7982111","prefecture":"EHIME KEN","city":"KITAUWA GUN MATSUNO CHO","town":"YOSHINO","perfecture_jp":"愛媛県","jp_add_1":"北宇和郡松野町","jp_add_2":"吉野"},"7982112":{"post_code":"7982112","prefecture":"EHIME KEN","city":"KITAUWA GUN MATSUNO CHO","town":"WARABYO","perfecture_jp":"愛媛県","jp_add_1":"北宇和郡松野町","jp_add_2":"蕨生"},"7981300":{"post_code":"7981300","prefecture":"EHIME KEN","city":"KITAUWA GUN KIHOKU CHO","town":"IKANIKEISAIGANAIBAAI","perfecture_jp":"愛媛県","jp_add_1":"北宇和郡鬼北町","jp_add_2":""},"7981375":{"post_code":"7981375","prefecture":"EHIME KEN","city":"KITAUWA GUN KIHOKU CHO","town":"AZEYA","perfecture_jp":"愛媛県","jp_add_1":"北宇和郡鬼北町","jp_add_2":"畔屋"},"7981371":{"post_code":"7981371","prefecture":"EHIME KEN","city":"KITAUWA GUN KIHOKU CHO","town":"IKUTA","perfecture_jp":"愛媛県","jp_add_1":"北宇和郡鬼北町","jp_add_2":"生田"},"7981332":{"post_code":"7981332","prefecture":"EHIME KEN","city":"KITAUWA GUN KIHOKU CHO","town":"IZUME","perfecture_jp":"愛媛県","jp_add_1":"北宇和郡鬼北町","jp_add_2":"出目"},"7981323":{"post_code":"7981323","prefecture":"EHIME KEN","city":"KITAUWA GUN KIHOKU CHO","town":"IWAYA","perfecture_jp":"愛媛県","jp_add_1":"北宇和郡鬼北町","jp_add_2":"岩谷"},"7981363":{"post_code":"7981363","prefecture":"EHIME KEN","city":"KITAUWA GUN KIHOKU CHO","town":"UCHIFUKATA","perfecture_jp":"愛媛県","jp_add_1":"北宇和郡鬼北町","jp_add_2":"内深田"},"7981301":{"post_code":"7981301","prefecture":"EHIME KEN","city":"KITAUWA GUN KIHOKU CHO","town":"OJIKU","perfecture_jp":"愛媛県","jp_add_1":"北宇和郡鬼北町","jp_add_2":"大宿"},"7981331":{"post_code":"7981331","prefecture":"EHIME KEN","city":"KITAUWA GUN KIHOKU CHO","town":"OKINONO","perfecture_jp":"愛媛県","jp_add_1":"北宇和郡鬼北町","jp_add_2":"興野々"},"7981321":{"post_code":"7981321","prefecture":"EHIME KEN","city":"KITAUWA GUN KIHOKU CHO","town":"OGUWA","perfecture_jp":"愛媛県","jp_add_1":"北宇和郡鬼北町","jp_add_2":"小倉"},"7981503":{"post_code":"7981503","prefecture":"EHIME KEN","city":"KITAUWA GUN KIHOKU CHO","town":"KAMIONO","perfecture_jp":"愛媛県","jp_add_1":"北宇和郡鬼北町","jp_add_2":"上大野"},"7981501":{"post_code":"7981501","prefecture":"EHIME KEN","city":"KITAUWA GUN KIHOKU CHO","town":"KAMIKAGIYAMA","perfecture_jp":"愛媛県","jp_add_1":"北宇和郡鬼北町","jp_add_2":"上鍵山"},"7981322":{"post_code":"7981322","prefecture":"EHIME KEN","city":"KITAUWA GUN KIHOKU CHO","town":"KAMIKAWA","perfecture_jp":"愛媛県","jp_add_1":"北宇和郡鬼北町","jp_add_2":"上川"},"7981312":{"post_code":"7981312","prefecture":"EHIME KEN","city":"KITAUWA GUN KIHOKU CHO","town":"KAWAKAMI","perfecture_jp":"愛媛県","jp_add_1":"北宇和郡鬼北町","jp_add_2":"川上"},"7981354":{"post_code":"7981354","prefecture":"EHIME KEN","city":"KITAUWA GUN KIHOKU CHO","town":"KITAGAWA","perfecture_jp":"愛媛県","jp_add_1":"北宇和郡鬼北町","jp_add_2":"北川"},"7981362":{"post_code":"7981362","prefecture":"EHIME KEN","city":"KITAUWA GUN KIHOKU CHO","town":"KIYONOBU","perfecture_jp":"愛媛県","jp_add_1":"北宇和郡鬼北町","jp_add_2":"清延"},"7981361":{"post_code":"7981361","prefecture":"EHIME KEN","city":"KITAUWA GUN KIHOKU CHO","town":"KUNITO","perfecture_jp":"愛媛県","jp_add_1":"北宇和郡鬼北町","jp_add_2":"国遠"},"7981314":{"post_code":"7981314","prefecture":"EHIME KEN","city":"KITAUWA GUN KIHOKU CHO","town":"KUBO","perfecture_jp":"愛媛県","jp_add_1":"北宇和郡鬼北町","jp_add_2":"久保"},"7981324":{"post_code":"7981324","prefecture":"EHIME KEN","city":"KITAUWA GUN KIHOKU CHO","town":"KONISHINONO","perfecture_jp":"愛媛県","jp_add_1":"北宇和郡鬼北町","jp_add_2":"小西野々"},"7981311":{"post_code":"7981311","prefecture":"EHIME KEN","city":"KITAUWA GUN KIHOKU CHO","town":"KOMATSU","perfecture_jp":"愛媛県","jp_add_1":"北宇和郡鬼北町","jp_add_2":"小松"},"7981367":{"post_code":"7981367","prefecture":"EHIME KEN","city":"KITAUWA GUN KIHOKU CHO","town":"SAWAMATSU","perfecture_jp":"愛媛県","jp_add_1":"北宇和郡鬼北町","jp_add_2":"沢松"},"7981355":{"post_code":"7981355","prefecture":"EHIME KEN","city":"KITAUWA GUN KIHOKU CHO","town":"SHIBA","perfecture_jp":"愛媛県","jp_add_1":"北宇和郡鬼北町","jp_add_2":"芝"},"7981302":{"post_code":"7981302","prefecture":"EHIME KEN","city":"KITAUWA GUN KIHOKU CHO","town":"SHIMOONO","perfecture_jp":"愛媛県","jp_add_1":"北宇和郡鬼北町","jp_add_2":"下大野"},"7981502":{"post_code":"7981502","prefecture":"EHIME KEN","city":"KITAUWA GUN KIHOKU CHO","town":"SHIMOKAGIYAMA","perfecture_jp":"愛媛県","jp_add_1":"北宇和郡鬼北町","jp_add_2":"下鍵山"},"7981373":{"post_code":"7981373","prefecture":"EHIME KEN","city":"KITAUWA GUN KIHOKU CHO","town":"SEIZUI","perfecture_jp":"愛媛県","jp_add_1":"北宇和郡鬼北町","jp_add_2":"清水"},"7981341":{"post_code":"7981341","prefecture":"EHIME KEN","city":"KITAUWA GUN KIHOKU CHO","town":"CHIKANAGA(ASAHIMACHI)","perfecture_jp":"愛媛県","jp_add_1":"北宇和郡鬼北町","jp_add_2":"近永"},"7981342":{"post_code":"7981342","prefecture":"EHIME KEN","city":"KITAUWA GUN KIHOKU CHO","town":"CHIKANAGA(SAKAEMACHI)","perfecture_jp":"愛媛県","jp_add_1":"北宇和郡鬼北町","jp_add_2":"近永"},"7981343":{"post_code":"7981343","prefecture":"EHIME KEN","city":"KITAUWA GUN KIHOKU CHO","town":"CHIKANAGA(SHIMMACHI)","perfecture_jp":"愛媛県","jp_add_1":"北宇和郡鬼北町","jp_add_2":"近永"},"7981344":{"post_code":"7981344","prefecture":"EHIME KEN","city":"KITAUWA GUN KIHOKU CHO","town":"CHIKANAGA(HOMMACHI)","perfecture_jp":"愛媛県","jp_add_1":"北宇和郡鬼北町","jp_add_2":"近永"},"7981345":{"post_code":"7981345","prefecture":"EHIME KEN","city":"KITAUWA GUN KIHOKU CHO","town":"CHIKANAGA(MINAMIMACHI)","perfecture_jp":"愛媛県","jp_add_1":"北宇和郡鬼北町","jp_add_2":"近永"},"7981505":{"post_code":"7981505","prefecture":"EHIME KEN","city":"KITAUWA GUN KIHOKU CHO","town":"CHICHINOKAWAKAMI","perfecture_jp":"愛媛県","jp_add_1":"北宇和郡鬼北町","jp_add_2":"父野川上"},"7981506":{"post_code":"7981506","prefecture":"EHIME KEN","city":"KITAUWA GUN KIHOKU CHO","town":"CHICHINOKAWANAKA","perfecture_jp":"愛媛県","jp_add_1":"北宇和郡鬼北町","jp_add_2":"父野川中"},"7981507":{"post_code":"7981507","prefecture":"EHIME KEN","city":"KITAUWA GUN KIHOKU CHO","town":"CHICHINOKAWASHIMO","perfecture_jp":"愛媛県","jp_add_1":"北宇和郡鬼北町","jp_add_2":"父野川下"},"7981333":{"post_code":"7981333","prefecture":"EHIME KEN","city":"KITAUWA GUN KIHOKU CHO","town":"NAGANOICHI","perfecture_jp":"愛媛県","jp_add_1":"北宇和郡鬼北町","jp_add_2":"永野市"},"7981356":{"post_code":"7981356","prefecture":"EHIME KEN","city":"KITAUWA GUN KIHOKU CHO","town":"NAKANOKAWA","perfecture_jp":"愛媛県","jp_add_1":"北宇和郡鬼北町","jp_add_2":"中野川"},"7981352":{"post_code":"7981352","prefecture":"EHIME KEN","city":"KITAUWA GUN KIHOKU CHO","town":"NARA(NARUKAWA)","perfecture_jp":"愛媛県","jp_add_1":"北宇和郡鬼北町","jp_add_2":"奈良"},"7981353":{"post_code":"7981353","prefecture":"EHIME KEN","city":"KITAUWA GUN KIHOKU CHO","town":"NARA(MIZUWAKARE)","perfecture_jp":"愛媛県","jp_add_1":"北宇和郡鬼北町","jp_add_2":"奈良"},"7981351":{"post_code":"7981351","prefecture":"EHIME KEN","city":"KITAUWA GUN KIHOKU CHO","town":"NARA(SONOTA)","perfecture_jp":"愛媛県","jp_add_1":"北宇和郡鬼北町","jp_add_2":"奈良"},"7981374":{"post_code":"7981374","prefecture":"EHIME KEN","city":"KITAUWA GUN KIHOKU CHO","town":"NARIFUJI","perfecture_jp":"愛媛県","jp_add_1":"北宇和郡鬼北町","jp_add_2":"成藤"},"7981365":{"post_code":"7981365","prefecture":"EHIME KEN","city":"KITAUWA GUN KIHOKU CHO","town":"NISHINAKA","perfecture_jp":"愛媛県","jp_add_1":"北宇和郡鬼北町","jp_add_2":"西仲"},"7981372":{"post_code":"7981372","prefecture":"EHIME KEN","city":"KITAUWA GUN KIHOKU CHO","town":"NISHINONO","perfecture_jp":"愛媛県","jp_add_1":"北宇和郡鬼北町","jp_add_2":"西野々"},"7981313":{"post_code":"7981313","prefecture":"EHIME KEN","city":"KITAUWA GUN KIHOKU CHO","town":"NOBUKAWA","perfecture_jp":"愛媛県","jp_add_1":"北宇和郡鬼北町","jp_add_2":"延川"},"7981366":{"post_code":"7981366","prefecture":"EHIME KEN","city":"KITAUWA GUN KIHOKU CHO","town":"HIGASHINAKA","perfecture_jp":"愛媛県","jp_add_1":"北宇和郡鬼北町","jp_add_2":"東仲"},"7981504":{"post_code":"7981504","prefecture":"EHIME KEN","city":"KITAUWA GUN KIHOKU CHO","town":"HYUGAI","perfecture_jp":"愛媛県","jp_add_1":"北宇和郡鬼北町","jp_add_2":"日向谷"},"7981303":{"post_code":"7981303","prefecture":"EHIME KEN","city":"KITAUWA GUN KIHOKU CHO","town":"HIROMI","perfecture_jp":"愛媛県","jp_add_1":"北宇和郡鬼北町","jp_add_2":"広見"},"7981364":{"post_code":"7981364","prefecture":"EHIME KEN","city":"KITAUWA GUN KIHOKU CHO","town":"YOSHINAMI","perfecture_jp":"愛媛県","jp_add_1":"北宇和郡鬼北町","jp_add_2":"吉波"},"7984100":{"post_code":"7984100","prefecture":"EHIME KEN","city":"MINAMIUWA GUN AINAN CHO","town":"IKANIKEISAIGANAIBAAI","perfecture_jp":"愛媛県","jp_add_1":"南宇和郡愛南町","jp_add_2":""},"7984123":{"post_code":"7984123","prefecture":"EHIME KEN","city":"MINAMIUWA GUN AINAN CHO","town":"AKAMIZU","perfecture_jp":"愛媛県","jp_add_1":"南宇和郡愛南町","jp_add_2":"赤水"},"7983708":{"post_code":"7983708","prefecture":"EHIME KEN","city":"MINAMIUWA GUN AINAN CHO","town":"AJIRO","perfecture_jp":"愛媛県","jp_add_1":"南宇和郡愛南町","jp_add_2":"網代"},"7984345":{"post_code":"7984345","prefecture":"EHIME KEN","city":"MINAMIUWA GUN AINAN CHO","town":"ATSUMORI","perfecture_jp":"愛媛県","jp_add_1":"南宇和郡愛南町","jp_add_2":"敦盛"},"7983705":{"post_code":"7983705","prefecture":"EHIME KEN","city":"MINAMIUWA GUN AINAN CHO","town":"IEKUSHI","perfecture_jp":"愛媛県","jp_add_1":"南宇和郡愛南町","jp_add_2":"家串"},"7984408":{"post_code":"7984408","prefecture":"EHIME KEN","city":"MINAMIUWA GUN AINAN CHO","town":"IPPOMMATSU","perfecture_jp":"愛媛県","jp_add_1":"南宇和郡愛南町","jp_add_2":"一本松"},"7984351":{"post_code":"7984351","prefecture":"EHIME KEN","city":"MINAMIUWA GUN AINAN CHO","town":"IRUKAGOE","perfecture_jp":"愛媛県","jp_add_1":"南宇和郡愛南町","jp_add_2":"鯆越"},"7984344":{"post_code":"7984344","prefecture":"EHIME KEN","city":"MINAMIUWA GUN AINAN CHO","town":"IWAMIZU","perfecture_jp":"愛媛県","jp_add_1":"南宇和郡愛南町","jp_add_2":"岩水"},"7984206":{"post_code":"7984206","prefecture":"EHIME KEN","city":"MINAMIUWA GUN AINAN CHO","town":"UCHIDOMARI","perfecture_jp":"愛媛県","jp_add_1":"南宇和郡愛南町","jp_add_2":"内泊"},"7984407":{"post_code":"7984407","prefecture":"EHIME KEN","city":"MINAMIUWA GUN AINAN CHO","town":"UWAODO","perfecture_jp":"愛媛県","jp_add_1":"南宇和郡愛南町","jp_add_2":"上大道"},"7984214":{"post_code":"7984214","prefecture":"EHIME KEN","city":"MINAMIUWA GUN AINAN CHO","town":"ONARUKAWA","perfecture_jp":"愛媛県","jp_add_1":"南宇和郡愛南町","jp_add_2":"大成川"},"7984347":{"post_code":"7984347","prefecture":"EHIME KEN","city":"MINAMIUWA GUN AINAN CHO","town":"OHAMA","perfecture_jp":"愛媛県","jp_add_1":"南宇和郡愛南町","jp_add_2":"大浜"},"7984343":{"post_code":"7984343","prefecture":"EHIME KEN","city":"MINAMIUWA GUN AINAN CHO","town":"KAKIUCHI","perfecture_jp":"愛媛県","jp_add_1":"南宇和郡愛南町","jp_add_2":"垣内"},"7984346":{"post_code":"7984346","prefecture":"EHIME KEN","city":"MINAMIUWA GUN AINAN CHO","town":"KAKINORA","perfecture_jp":"愛媛県","jp_add_1":"南宇和郡愛南町","jp_add_2":"柿ノ浦"},"7984204":{"post_code":"7984204","prefecture":"EHIME KEN","city":"MINAMIUWA GUN AINAN CHO","town":"KASHIZUKU","perfecture_jp":"愛媛県","jp_add_1":"南宇和郡愛南町","jp_add_2":"樫月"},"7984209":{"post_code":"7984209","prefecture":"EHIME KEN","city":"MINAMIUWA GUN AINAN CHO","town":"KASHIMA","perfecture_jp":"愛媛県","jp_add_1":"南宇和郡愛南町","jp_add_2":"鹿島"},"7983701":{"post_code":"7983701","prefecture":"EHIME KEN","city":"MINAMIUWA GUN AINAN CHO","town":"KASHIWA","perfecture_jp":"愛媛県","jp_add_1":"南宇和郡愛南町","jp_add_2":"柏"},"7983702":{"post_code":"7983702","prefecture":"EHIME KEN","city":"MINAMIUWA GUN AINAN CHO","town":"KASHIWAZAKI","perfecture_jp":"愛媛県","jp_add_1":"南宇和郡愛南町","jp_add_2":"柏崎"},"7984219":{"post_code":"7984219","prefecture":"EHIME KEN","city":"MINAMIUWA GUN AINAN CHO","town":"KOMO","perfecture_jp":"愛媛県","jp_add_1":"南宇和郡愛南町","jp_add_2":"高茂"},"7984203":{"post_code":"7984203","prefecture":"EHIME KEN","city":"MINAMIUWA GUN AINAN CHO","town":"KORA","perfecture_jp":"愛媛県","jp_add_1":"南宇和郡愛南町","jp_add_2":"小浦"},"7984201":{"post_code":"7984201","prefecture":"EHIME KEN","city":"MINAMIUWA GUN AINAN CHO","town":"KOSHIDA","perfecture_jp":"愛媛県","jp_add_1":"南宇和郡愛南町","jp_add_2":"越田"},"7984215":{"post_code":"7984215","prefecture":"EHIME KEN","city":"MINAMIUWA GUN AINAN CHO","town":"KONARUKAWA","perfecture_jp":"愛媛県","jp_add_1":"南宇和郡愛南町","jp_add_2":"小成川"},"7984403":{"post_code":"7984403","prefecture":"EHIME KEN","city":"MINAMIUWA GUN AINAN CHO","town":"KOYAMA","perfecture_jp":"愛媛県","jp_add_1":"南宇和郡愛南町","jp_add_2":"小山"},"7984126":{"post_code":"7984126","prefecture":"EHIME KEN","city":"MINAMIUWA GUN AINAN CHO","town":"SARUNAGI","perfecture_jp":"愛媛県","jp_add_1":"南宇和郡愛南町","jp_add_2":"猿鳴"},"7984212":{"post_code":"7984212","prefecture":"EHIME KEN","city":"MINAMIUWA GUN AINAN CHO","town":"SHIMOHISAGE","perfecture_jp":"愛媛県","jp_add_1":"南宇和郡愛南町","jp_add_2":"下久家"},"7984131":{"post_code":"7984131","prefecture":"EHIME KEN","city":"MINAMIUWA GUN AINAN CHO","town":"JOHEN KO","perfecture_jp":"愛媛県","jp_add_1":"南宇和郡愛南町","jp_add_2":"城辺甲"},"7984132":{"post_code":"7984132","prefecture":"EHIME KEN","city":"MINAMIUWA GUN AINAN CHO","town":"JOHEN OTSU","perfecture_jp":"愛媛県","jp_add_1":"南宇和郡愛南町","jp_add_2":"城辺乙"},"7983703":{"post_code":"7983703","prefecture":"EHIME KEN","city":"MINAMIUWA GUN AINAN CHO","town":"SUNOKAWA","perfecture_jp":"愛媛県","jp_add_1":"南宇和郡愛南町","jp_add_2":"須ノ川"},"7984136":{"post_code":"7984136","prefecture":"EHIME KEN","city":"MINAMIUWA GUN AINAN CHO","town":"SOZU","perfecture_jp":"愛媛県","jp_add_1":"南宇和郡愛南町","jp_add_2":"僧都"},"7984208":{"post_code":"7984208","prefecture":"EHIME KEN","city":"MINAMIUWA GUN AINAN CHO","town":"SOTODOMARI","perfecture_jp":"愛媛県","jp_add_1":"南宇和郡愛南町","jp_add_2":"外泊"},"7984124":{"post_code":"7984124","prefecture":"EHIME KEN","city":"MINAMIUWA GUN AINAN CHO","town":"TAKAHATA","perfecture_jp":"愛媛県","jp_add_1":"南宇和郡愛南町","jp_add_2":"高畑"},"7984213":{"post_code":"7984213","prefecture":"EHIME KEN","city":"MINAMIUWA GUN AINAN CHO","town":"TARUMI","perfecture_jp":"愛媛県","jp_add_1":"南宇和郡愛南町","jp_add_2":"樽見"},"7984125":{"post_code":"7984125","prefecture":"EHIME KEN","city":"MINAMIUWA GUN AINAN CHO","town":"NAKAURA","perfecture_jp":"愛媛県","jp_add_1":"南宇和郡愛南町","jp_add_2":"中浦"},"7984348":{"post_code":"7984348","prefecture":"EHIME KEN","city":"MINAMIUWA GUN AINAN CHO","town":"NAKATAMA","perfecture_jp":"愛媛県","jp_add_1":"南宇和郡愛南町","jp_add_2":"中玉"},"7984207":{"post_code":"7984207","prefecture":"EHIME KEN","city":"MINAMIUWA GUN AINAN CHO","town":"NAKADOMARI","perfecture_jp":"愛媛県","jp_add_1":"南宇和郡愛南町","jp_add_2":"中泊"},"7984404":{"post_code":"7984404","prefecture":"EHIME KEN","city":"MINAMIUWA GUN AINAN CHO","town":"NAKANOKAWA","perfecture_jp":"愛媛県","jp_add_1":"南宇和郡愛南町","jp_add_2":"中川"},"7983707":{"post_code":"7983707","prefecture":"EHIME KEN","city":"MINAMIUWA GUN AINAN CHO","town":"NAGAMIYAMA","perfecture_jp":"愛媛県","jp_add_1":"南宇和郡愛南町","jp_add_2":"魚神山"},"7984211":{"post_code":"7984211","prefecture":"EHIME KEN","city":"MINAMIUWA GUN AINAN CHO","town":"HISAGE","perfecture_jp":"愛媛県","jp_add_1":"南宇和郡愛南町","jp_add_2":"久家"},"7984353":{"post_code":"7984353","prefecture":"EHIME KEN","city":"MINAMIUWA GUN AINAN CHO","town":"HISAYOSHI","perfecture_jp":"愛媛県","jp_add_1":"南宇和郡愛南町","jp_add_2":"久良"},"7983704":{"post_code":"7983704","prefecture":"EHIME KEN","city":"MINAMIUWA GUN AINAN CHO","town":"HIRABAE","perfecture_jp":"愛媛県","jp_add_1":"南宇和郡愛南町","jp_add_2":"平碆"},"7984406":{"post_code":"7984406","prefecture":"EHIME KEN","city":"MINAMIUWA GUN AINAN CHO","town":"HIROMI","perfecture_jp":"愛媛県","jp_add_1":"南宇和郡愛南町","jp_add_2":"広見"},"7984342":{"post_code":"7984342","prefecture":"EHIME KEN","city":"MINAMIUWA GUN AINAN CHO","town":"FUKAURA","perfecture_jp":"愛媛県","jp_add_1":"南宇和郡愛南町","jp_add_2":"深浦"},"7984216":{"post_code":"7984216","prefecture":"EHIME KEN","city":"MINAMIUWA GUN AINAN CHO","town":"FUKURA","perfecture_jp":"愛媛県","jp_add_1":"南宇和郡愛南町","jp_add_2":"福浦"},"7984205":{"post_code":"7984205","prefecture":"EHIME KEN","city":"MINAMIUWA GUN AINAN CHO","town":"FUNAKOSHI","perfecture_jp":"愛媛県","jp_add_1":"南宇和郡愛南町","jp_add_2":"船越"},"7984352":{"post_code":"7984352","prefecture":"EHIME KEN","city":"MINAMIUWA GUN AINAN CHO","town":"FURUTSUKI","perfecture_jp":"愛媛県","jp_add_1":"南宇和郡愛南町","jp_add_2":"古月"},"7984122":{"post_code":"7984122","prefecture":"EHIME KEN","city":"MINAMIUWA GUN AINAN CHO","town":"BOJONARUKAWA","perfecture_jp":"愛媛県","jp_add_1":"南宇和郡愛南町","jp_add_2":"防城成川"},"7984401":{"post_code":"7984401","prefecture":"EHIME KEN","city":"MINAMIUWA GUN AINAN CHO","town":"MASAKI","perfecture_jp":"愛媛県","jp_add_1":"南宇和郡愛南町","jp_add_2":"正木"},"7984402":{"post_code":"7984402","prefecture":"EHIME KEN","city":"MINAMIUWA GUN AINAN CHO","town":"MASUDA","perfecture_jp":"愛媛県","jp_add_1":"南宇和郡愛南町","jp_add_2":"増田"},"7984101":{"post_code":"7984101","prefecture":"EHIME KEN","city":"MINAMIUWA GUN AINAN CHO","town":"MISHO KIKUGAWA","perfecture_jp":"愛媛県","jp_add_1":"南宇和郡愛南町","jp_add_2":"御荘菊川"},"7984103":{"post_code":"7984103","prefecture":"EHIME KEN","city":"MINAMIUWA GUN AINAN CHO","town":"MISHO NAGASU","perfecture_jp":"愛媛県","jp_add_1":"南宇和郡愛南町","jp_add_2":"御荘長洲"},"7984105":{"post_code":"7984105","prefecture":"EHIME KEN","city":"MINAMIUWA GUN AINAN CHO","town":"MISHO NAGATSUKI","perfecture_jp":"愛媛県","jp_add_1":"南宇和郡愛南町","jp_add_2":"御荘長月"},"7984110":{"post_code":"7984110","prefecture":"EHIME KEN","city":"MINAMIUWA GUN AINAN CHO","town":"MISHO HIRAJO","perfecture_jp":"愛媛県","jp_add_1":"南宇和郡愛南町","jp_add_2":"御荘平城"},"7984102":{"post_code":"7984102","prefecture":"EHIME KEN","city":"MINAMIUWA GUN AINAN CHO","town":"MISHO HIRAYAMA","perfecture_jp":"愛媛県","jp_add_1":"南宇和郡愛南町","jp_add_2":"御荘平山"},"7984121":{"post_code":"7984121","prefecture":"EHIME KEN","city":"MINAMIUWA GUN AINAN CHO","town":"MISHO MIDORO","perfecture_jp":"愛媛県","jp_add_1":"南宇和郡愛南町","jp_add_2":"御荘深泥"},"7984104":{"post_code":"7984104","prefecture":"EHIME KEN","city":"MINAMIUWA GUN AINAN CHO","town":"MISHO WAGUCHI","perfecture_jp":"愛媛県","jp_add_1":"南宇和郡愛南町","jp_add_2":"御荘和口"},"7984405":{"post_code":"7984405","prefecture":"EHIME KEN","city":"MINAMIUWA GUN AINAN CHO","town":"MICHIKURA","perfecture_jp":"愛媛県","jp_add_1":"南宇和郡愛南町","jp_add_2":"満倉"},"7984134":{"post_code":"7984134","prefecture":"EHIME KEN","city":"MINAMIUWA GUN AINAN CHO","town":"MIDORI KO","perfecture_jp":"愛媛県","jp_add_1":"南宇和郡愛南町","jp_add_2":"緑甲"},"7984133":{"post_code":"7984133","prefecture":"EHIME KEN","city":"MINAMIUWA GUN AINAN CHO","town":"MIDORI OTSU","perfecture_jp":"愛媛県","jp_add_1":"南宇和郡愛南町","jp_add_2":"緑乙"},"7984135":{"post_code":"7984135","prefecture":"EHIME KEN","city":"MINAMIUWA GUN AINAN CHO","town":"MIDORI HEI","perfecture_jp":"愛媛県","jp_add_1":"南宇和郡愛南町","jp_add_2":"緑丙"},"7984217":{"post_code":"7984217","prefecture":"EHIME KEN","city":"MINAMIUWA GUN AINAN CHO","town":"MUGIGAURA","perfecture_jp":"愛媛県","jp_add_1":"南宇和郡愛南町","jp_add_2":"麦ケ浦"},"7984218":{"post_code":"7984218","prefecture":"EHIME KEN","city":"MINAMIUWA GUN AINAN CHO","town":"MUSHADOMARI","perfecture_jp":"愛媛県","jp_add_1":"南宇和郡愛南町","jp_add_2":"武者泊"},"7983706":{"post_code":"7983706","prefecture":"EHIME KEN","city":"MINAMIUWA GUN AINAN CHO","town":"YUTAI","perfecture_jp":"愛媛県","jp_add_1":"南宇和郡愛南町","jp_add_2":"油袋"},"7984202":{"post_code":"7984202","prefecture":"EHIME KEN","city":"MINAMIUWA GUN AINAN CHO","town":"YUDACHI","perfecture_jp":"愛媛県","jp_add_1":"南宇和郡愛南町","jp_add_2":"弓立"},"7984341":{"post_code":"7984341","prefecture":"EHIME KEN","city":"MINAMIUWA GUN AINAN CHO","town":"RENJOJI","perfecture_jp":"愛媛県","jp_add_1":"南宇和郡愛南町","jp_add_2":"蓮乗寺"},"7984349":{"post_code":"7984349","prefecture":"EHIME KEN","city":"MINAMIUWA GUN AINAN CHO","town":"WAKIMOTO","perfecture_jp":"愛媛県","jp_add_1":"南宇和郡愛南町","jp_add_2":"脇本"}}