{"8010864":{"post_code":"8010864","prefecture":"FUKUOKA KEN","city":"KITAKYUSHU SHI MOJI KU","town":"OIMATSUCHO","perfecture_jp":"福岡県","jp_add_1":"北九州市門司区","jp_add_2":"老松町"},"8010883":{"post_code":"8010883","prefecture":"FUKUOKA KEN","city":"KITAKYUSHU SHI MOJI KU","town":"OKUBO","perfecture_jp":"福岡県","jp_add_1":"北九州市門司区","jp_add_2":"大久保"},"8010811":{"post_code":"8010811","prefecture":"FUKUOKA KEN","city":"KITAKYUSHU SHI MOJI KU","town":"OTSUMI","perfecture_jp":"福岡県","jp_add_1":"北九州市門司区","jp_add_2":"大積"},"8010876":{"post_code":"8010876","prefecture":"FUKUOKA KEN","city":"KITAKYUSHU SHI MOJI KU","town":"KAGETSUEN","perfecture_jp":"福岡県","jp_add_1":"北九州市門司区","jp_add_2":"花月園"},"8010801":{"post_code":"8010801","prefecture":"FUKUOKA KEN","city":"KITAKYUSHU SHI MOJI KU","town":"KAZASHI(1-3-CHOME)","perfecture_jp":"福岡県","jp_add_1":"北九州市門司区","jp_add_2":"風師"},"8010823":{"post_code":"8010823","prefecture":"FUKUOKA KEN","city":"KITAKYUSHU SHI MOJI KU","town":"KASUGAMACHI","perfecture_jp":"福岡県","jp_add_1":"北九州市門司区","jp_add_2":"春日町"},"8010871":{"post_code":"8010871","prefecture":"FUKUOKA KEN","city":"KITAKYUSHU SHI MOJI KU","town":"KAMIHOMMACHI","perfecture_jp":"福岡県","jp_add_1":"北九州市門司区","jp_add_2":"上本町"},"8010812":{"post_code":"8010812","prefecture":"FUKUOKA KEN","city":"KITAKYUSHU SHI MOJI KU","town":"KITAKU","perfecture_jp":"福岡県","jp_add_1":"北九州市門司区","jp_add_2":"喜多久"},"8010854":{"post_code":"8010854","prefecture":"FUKUOKA KEN","city":"KITAKYUSHU SHI MOJI KU","town":"KYUMOJI","perfecture_jp":"福岡県","jp_add_1":"北九州市門司区","jp_add_2":"旧門司"},"8010833":{"post_code":"8010833","prefecture":"FUKUOKA KEN","city":"KITAKYUSHU SHI MOJI KU","town":"KIYOTAKI","perfecture_jp":"福岡県","jp_add_1":"北九州市門司区","jp_add_2":"清滝"},"8010882":{"post_code":"8010882","prefecture":"FUKUOKA KEN","city":"KITAKYUSHU SHI MOJI KU","town":"KIYOMI","perfecture_jp":"福岡県","jp_add_1":"北九州市門司区","jp_add_2":"清見"},"8010886":{"post_code":"8010886","prefecture":"FUKUOKA KEN","city":"KITAKYUSHU SHI MOJI KU","town":"KIYOMISAYAMACHI","perfecture_jp":"福岡県","jp_add_1":"北九州市門司区","jp_add_2":"清見佐夜町"},"8010808":{"post_code":"8010808","prefecture":"FUKUOKA KEN","city":"KITAKYUSHU SHI MOJI KU","town":"KUZUHA(1-CHOME)","perfecture_jp":"福岡県","jp_add_1":"北九州市門司区","jp_add_2":"葛葉"},"8010821":{"post_code":"8010821","prefecture":"FUKUOKA KEN","city":"KITAKYUSHU SHI MOJI KU","town":"KUROGAWA","perfecture_jp":"福岡県","jp_add_1":"北九州市門司区","jp_add_2":"黒川"},"8010826":{"post_code":"8010826","prefecture":"FUKUOKA KEN","city":"KITAKYUSHU SHI MOJI KU","town":"KUROGAWAHIGASHI","perfecture_jp":"福岡県","jp_add_1":"北九州市門司区","jp_add_2":"黒川東"},"8010825":{"post_code":"8010825","prefecture":"FUKUOKA KEN","city":"KITAKYUSHU SHI MOJI KU","town":"KUROGAWANISHI","perfecture_jp":"福岡県","jp_add_1":"北九州市門司区","jp_add_2":"黒川西"},"8010863":{"post_code":"8010863","prefecture":"FUKUOKA KEN","city":"KITAKYUSHU SHI MOJI KU","town":"SAKAEMACHI","perfecture_jp":"福岡県","jp_add_1":"北九州市門司区","jp_add_2":"栄町"},"8010865":{"post_code":"8010865","prefecture":"FUKUOKA KEN","city":"KITAKYUSHU SHI MOJI KU","town":"SHOJIMACHI","perfecture_jp":"福岡県","jp_add_1":"北九州市門司区","jp_add_2":"庄司町"},"8010802":{"post_code":"8010802","prefecture":"FUKUOKA KEN","city":"KITAKYUSHU SHI MOJI KU","town":"SHIRANOE","perfecture_jp":"福岡県","jp_add_1":"北九州市門司区","jp_add_2":"白野江"},"8010885":{"post_code":"8010885","prefecture":"FUKUOKA KEN","city":"KITAKYUSHU SHI MOJI KU","town":"SHINKAI","perfecture_jp":"福岡県","jp_add_1":"北九州市門司区","jp_add_2":"新開"},"8010884":{"post_code":"8010884","prefecture":"FUKUOKA KEN","city":"KITAKYUSHU SHI MOJI KU","town":"SETOMACHI","perfecture_jp":"福岡県","jp_add_1":"北九州市門司区","jp_add_2":"瀬戸町"},"8010822":{"post_code":"8010822","prefecture":"FUKUOKA KEN","city":"KITAKYUSHU SHI MOJI KU","town":"TAKASAGOMACHI","perfecture_jp":"福岡県","jp_add_1":"北九州市門司区","jp_add_2":"高砂町"},"8010805":{"post_code":"8010805","prefecture":"FUKUOKA KEN","city":"KITAKYUSHU SHI MOJI KU","town":"TACHINORAKAIGAN","perfecture_jp":"福岡県","jp_add_1":"北九州市門司区","jp_add_2":"太刀浦海岸"},"8010872":{"post_code":"8010872","prefecture":"FUKUOKA KEN","city":"KITAKYUSHU SHI MOJI KU","town":"TANIMACHI","perfecture_jp":"福岡県","jp_add_1":"北九州市門司区","jp_add_2":"谷町"},"8010803":{"post_code":"8010803","prefecture":"FUKUOKA KEN","city":"KITAKYUSHU SHI MOJI KU","town":"TANORA","perfecture_jp":"福岡県","jp_add_1":"北九州市門司区","jp_add_2":"田野浦"},"8010804":{"post_code":"8010804","prefecture":"FUKUOKA KEN","city":"KITAKYUSHU SHI MOJI KU","town":"TANORAKAIGAN","perfecture_jp":"福岡県","jp_add_1":"北九州市門司区","jp_add_2":"田野浦海岸"},"8010861":{"post_code":"8010861","prefecture":"FUKUOKA KEN","city":"KITAKYUSHU SHI MOJI KU","town":"NAGATANI","perfecture_jp":"福岡県","jp_add_1":"北九州市門司区","jp_add_2":"長谷"},"8010881":{"post_code":"8010881","prefecture":"FUKUOKA KEN","city":"KITAKYUSHU SHI MOJI KU","town":"NARUTAKE","perfecture_jp":"福岡県","jp_add_1":"北九州市門司区","jp_add_2":"鳴竹"},"8010841":{"post_code":"8010841","prefecture":"FUKUOKA KEN","city":"KITAKYUSHU SHI MOJI KU","town":"NISHIKAIGAN","perfecture_jp":"福岡県","jp_add_1":"北九州市門司区","jp_add_2":"西海岸"},"8010862":{"post_code":"8010862","prefecture":"FUKUOKA KEN","city":"KITAKYUSHU SHI MOJI KU","town":"NISHIKIMACHI","perfecture_jp":"福岡県","jp_add_1":"北九州市門司区","jp_add_2":"錦町"},"8010874":{"post_code":"8010874","prefecture":"FUKUOKA KEN","city":"KITAKYUSHU SHI MOJI KU","town":"HATAKEDAMACHI","perfecture_jp":"福岡県","jp_add_1":"北九州市門司区","jp_add_2":"畑田町"},"8010856":{"post_code":"8010856","prefecture":"FUKUOKA KEN","city":"KITAKYUSHU SHI MOJI KU","town":"HAMAMACHI","perfecture_jp":"福岡県","jp_add_1":"北九州市門司区","jp_add_2":"浜町"},"8010851":{"post_code":"8010851","prefecture":"FUKUOKA KEN","city":"KITAKYUSHU SHI MOJI KU","town":"HIGASHIHOMMACHI","perfecture_jp":"福岡県","jp_add_1":"北九州市門司区","jp_add_2":"東本町"},"8010853":{"post_code":"8010853","prefecture":"FUKUOKA KEN","city":"KITAKYUSHU SHI MOJI KU","town":"HIGASHIMINATOMACHI","perfecture_jp":"福岡県","jp_add_1":"北九州市門司区","jp_add_2":"東港町"},"8010873":{"post_code":"8010873","prefecture":"FUKUOKA KEN","city":"KITAKYUSHU SHI MOJI KU","town":"HIGASHIMOJI","perfecture_jp":"福岡県","jp_add_1":"北九州市門司区","jp_add_2":"東門司"},"8010813":{"post_code":"8010813","prefecture":"FUKUOKA KEN","city":"KITAKYUSHU SHI MOJI KU","town":"HISHAKUDA","perfecture_jp":"福岡県","jp_add_1":"北九州市門司区","jp_add_2":"柄杓田"},"8010814":{"post_code":"8010814","prefecture":"FUKUOKA KEN","city":"KITAKYUSHU SHI MOJI KU","town":"HISHAKUDAMACHI","perfecture_jp":"福岡県","jp_add_1":"北九州市門司区","jp_add_2":"柄杓田町"},"8010842":{"post_code":"8010842","prefecture":"FUKUOKA KEN","city":"KITAKYUSHU SHI MOJI KU","town":"HIROISHI","perfecture_jp":"福岡県","jp_add_1":"北九州市門司区","jp_add_2":"広石"},"8010875":{"post_code":"8010875","prefecture":"FUKUOKA KEN","city":"KITAKYUSHU SHI MOJI KU","town":"HOSHIAN","perfecture_jp":"福岡県","jp_add_1":"北九州市門司区","jp_add_2":"法師庵"},"8010834":{"post_code":"8010834","prefecture":"FUKUOKA KEN","city":"KITAKYUSHU SHI MOJI KU","town":"HOMMACHI","perfecture_jp":"福岡県","jp_add_1":"北九州市門司区","jp_add_2":"本町"},"8010831":{"post_code":"8010831","prefecture":"FUKUOKA KEN","city":"KITAKYUSHU SHI MOJI KU","town":"MARUYAMA","perfecture_jp":"福岡県","jp_add_1":"北九州市門司区","jp_add_2":"丸山"},"8010824":{"post_code":"8010824","prefecture":"FUKUOKA KEN","city":"KITAKYUSHU SHI MOJI KU","town":"MARUYAMAYOSHINOMACHI","perfecture_jp":"福岡県","jp_add_1":"北九州市門司区","jp_add_2":"丸山吉野町"},"8010852":{"post_code":"8010852","prefecture":"FUKUOKA KEN","city":"KITAKYUSHU SHI MOJI KU","town":"MINATOMACHI","perfecture_jp":"福岡県","jp_add_1":"北九州市門司区","jp_add_2":"港町"},"8010855":{"post_code":"8010855","prefecture":"FUKUOKA KEN","city":"KITAKYUSHU SHI MOJI KU","town":"MOJI","perfecture_jp":"福岡県","jp_add_1":"北九州市門司区","jp_add_2":"門司"},"8010832":{"post_code":"8010832","prefecture":"FUKUOKA KEN","city":"KITAKYUSHU SHI MOJI KU","town":"MOTOKIYOTAKI","perfecture_jp":"福岡県","jp_add_1":"北九州市門司区","jp_add_2":"元清滝"}}