{"8020000":{"post_code":"8020000","prefecture":"FUKUOKA KEN","city":"KITAKYUSHU SHI KOKURAMINAMI KU","town":"IKANIKEISAIGANAIBAAI","perfecture_jp":"福岡県","jp_add_1":"北九州市小倉北区","jp_add_2":""},"8020091":{"post_code":"8020091","prefecture":"FUKUOKA KEN","city":"KITAKYUSHU SHI KOKURAKITA KU","town":"AINOSHIMA","perfecture_jp":"福岡県","jp_add_1":"北九州市小倉北区","jp_add_2":"藍島"},"8020032":{"post_code":"8020032","prefecture":"FUKUOKA KEN","city":"KITAKYUSHU SHI KOKURAKITA KU","town":"AKASAKA","perfecture_jp":"福岡県","jp_add_1":"北九州市小倉北区","jp_add_2":"赤坂"},"8020031":{"post_code":"8020031","prefecture":"FUKUOKA KEN","city":"KITAKYUSHU SHI KOKURAKITA KU","town":"AKASAKAKAIGAN","perfecture_jp":"福岡県","jp_add_1":"北九州市小倉北区","jp_add_2":"赤坂海岸"},"8020001":{"post_code":"8020001","prefecture":"FUKUOKA KEN","city":"KITAKYUSHU SHI KOKURAKITA KU","town":"ASANO","perfecture_jp":"福岡県","jp_add_1":"北九州市小倉北区","jp_add_2":"浅野"},"8020043":{"post_code":"8020043","prefecture":"FUKUOKA KEN","city":"KITAKYUSHU SHI KOKURAKITA KU","town":"ASHIHARA","perfecture_jp":"福岡県","jp_add_1":"北九州市小倉北区","jp_add_2":"足原"},"8020042":{"post_code":"8020042","prefecture":"FUKUOKA KEN","city":"KITAKYUSHU SHI KOKURAKITA KU","town":"ADACHI","perfecture_jp":"福岡県","jp_add_1":"北九州市小倉北区","jp_add_2":"足立"},"8020006":{"post_code":"8020006","prefecture":"FUKUOKA KEN","city":"KITAKYUSHU SHI KOKURAKITA KU","town":"UOMACHI","perfecture_jp":"福岡県","jp_add_1":"北九州市小倉北区","jp_add_2":"魚町"},"8020016":{"post_code":"8020016","prefecture":"FUKUOKA KEN","city":"KITAKYUSHU SHI KOKURAKITA KU","town":"USAMACHI","perfecture_jp":"福岡県","jp_add_1":"北九州市小倉北区","jp_add_2":"宇佐町"},"8020092":{"post_code":"8020092","prefecture":"FUKUOKA KEN","city":"KITAKYUSHU SHI KOKURAKITA KU","town":"UMASHIMA","perfecture_jp":"福岡県","jp_add_1":"北九州市小倉北区","jp_add_2":"馬島"},"8020083":{"post_code":"8020083","prefecture":"FUKUOKA KEN","city":"KITAKYUSHU SHI KOKURAKITA KU","town":"ENAMICHO","perfecture_jp":"福岡県","jp_add_1":"北九州市小倉北区","jp_add_2":"江南町"},"8020015":{"post_code":"8020015","prefecture":"FUKUOKA KEN","city":"KITAKYUSHU SHI KOKURAKITA KU","town":"OTAMACHI","perfecture_jp":"福岡県","jp_add_1":"北九州市小倉北区","jp_add_2":"大田町"},"8020026":{"post_code":"8020026","prefecture":"FUKUOKA KEN","city":"KITAKYUSHU SHI KOKURAKITA KU","town":"OBATAKE","perfecture_jp":"福岡県","jp_add_1":"北九州市小倉北区","jp_add_2":"大畠"},"8020004":{"post_code":"8020004","prefecture":"FUKUOKA KEN","city":"KITAKYUSHU SHI KOKURAKITA KU","town":"KAJIMACHI","perfecture_jp":"福岡県","jp_add_1":"北九州市小倉北区","jp_add_2":"鍛冶町"},"8020064":{"post_code":"8020064","prefecture":"FUKUOKA KEN","city":"KITAKYUSHU SHI KOKURAKITA KU","town":"KATANO","perfecture_jp":"福岡県","jp_add_1":"北九州市小倉北区","jp_add_2":"片野"},"8020062":{"post_code":"8020062","prefecture":"FUKUOKA KEN","city":"KITAKYUSHU SHI KOKURAKITA KU","town":"KATANOSHIMMACHI","perfecture_jp":"福岡県","jp_add_1":"北九州市小倉北区","jp_add_2":"片野新町"},"8020022":{"post_code":"8020022","prefecture":"FUKUOKA KEN","city":"KITAKYUSHU SHI KOKURAKITA KU","town":"KAMITOMINO","perfecture_jp":"福岡県","jp_add_1":"北九州市小倉北区","jp_add_2":"上富野"},"8020084":{"post_code":"8020084","prefecture":"FUKUOKA KEN","city":"KITAKYUSHU SHI KOKURAKITA KU","town":"KAWARAGUCHI","perfecture_jp":"福岡県","jp_add_1":"北九州市小倉北区","jp_add_2":"香春口"},"8020045":{"post_code":"8020045","prefecture":"FUKUOKA KEN","city":"KITAKYUSHU SHI KOKURAKITA KU","town":"KANTAKE","perfecture_jp":"福岡県","jp_add_1":"北九州市小倉北区","jp_add_2":"神岳"},"8020073":{"post_code":"8020073","prefecture":"FUKUOKA KEN","city":"KITAKYUSHU SHI KOKURAKITA KU","town":"KIFUNEMACHI","perfecture_jp":"福岡県","jp_add_1":"北九州市小倉北区","jp_add_2":"貴船町"},"8020002":{"post_code":"8020002","prefecture":"FUKUOKA KEN","city":"KITAKYUSHU SHI KOKURAKITA KU","town":"KYOMACHI","perfecture_jp":"福岡県","jp_add_1":"北九州市小倉北区","jp_add_2":"京町"},"8020052":{"post_code":"8020052","prefecture":"FUKUOKA KEN","city":"KITAKYUSHU SHI KOKURAKITA KU","town":"KIRIGAOKA","perfecture_jp":"福岡県","jp_add_1":"北九州市小倉北区","jp_add_2":"霧ケ丘"},"8020044":{"post_code":"8020044","prefecture":"FUKUOKA KEN","city":"KITAKYUSHU SHI KOKURAKITA KU","town":"KUMAMOTO","perfecture_jp":"福岡県","jp_add_1":"北九州市小倉北区","jp_add_2":"熊本"},"8020056":{"post_code":"8020056","prefecture":"FUKUOKA KEN","city":"KITAKYUSHU SHI KOKURAKITA KU","town":"KUROZUMICHO","perfecture_jp":"福岡県","jp_add_1":"北九州市小倉北区","jp_add_2":"黒住町"},"8020051":{"post_code":"8020051","prefecture":"FUKUOKA KEN","city":"KITAKYUSHU SHI KOKURAKITA KU","town":"KUROBARU","perfecture_jp":"福岡県","jp_add_1":"北九州市小倉北区","jp_add_2":"黒原"},"8020071":{"post_code":"8020071","prefecture":"FUKUOKA KEN","city":"KITAKYUSHU SHI KOKURAKITA KU","town":"KOGANE","perfecture_jp":"福岡県","jp_add_1":"北九州市小倉北区","jp_add_2":"黄金"},"8020003":{"post_code":"8020003","prefecture":"FUKUOKA KEN","city":"KITAKYUSHU SHI KOKURAKITA KU","town":"KOMEMACHI","perfecture_jp":"福岡県","jp_add_1":"北九州市小倉北区","jp_add_2":"米町"},"8020037":{"post_code":"8020037","prefecture":"FUKUOKA KEN","city":"KITAKYUSHU SHI KOKURAKITA KU","town":"KOMONJI","perfecture_jp":"福岡県","jp_add_1":"北九州市小倉北区","jp_add_2":"小文字"},"8020081":{"post_code":"8020081","prefecture":"FUKUOKA KEN","city":"KITAKYUSHU SHI KOKURAKITA KU","town":"KONYAMACHI","perfecture_jp":"福岡県","jp_add_1":"北九州市小倉北区","jp_add_2":"紺屋町"},"8020005":{"post_code":"8020005","prefecture":"FUKUOKA KEN","city":"KITAKYUSHU SHI KOKURAKITA KU","town":"SAKAIMACHI","perfecture_jp":"福岡県","jp_add_1":"北九州市小倉北区","jp_add_2":"堺町"},"8020061":{"post_code":"8020061","prefecture":"FUKUOKA KEN","city":"KITAKYUSHU SHI KOKURAKITA KU","town":"SABUROMARU","perfecture_jp":"福岡県","jp_add_1":"北九州市小倉北区","jp_add_2":"三郎丸"},"8020024":{"post_code":"8020024","prefecture":"FUKUOKA KEN","city":"KITAKYUSHU SHI KOKURAKITA KU","town":"SAMMONCHO","perfecture_jp":"福岡県","jp_add_1":"北九州市小倉北区","jp_add_2":"山門町"},"8020011":{"post_code":"8020011","prefecture":"FUKUOKA KEN","city":"KITAKYUSHU SHI KOKURAKITA KU","town":"SHIGEZUMI","perfecture_jp":"福岡県","jp_add_1":"北九州市小倉北区","jp_add_2":"重住"},"8020023":{"post_code":"8020023","prefecture":"FUKUOKA KEN","city":"KITAKYUSHU SHI KOKURAKITA KU","town":"SHIMOTOMINO","perfecture_jp":"福岡県","jp_add_1":"北九州市小倉北区","jp_add_2":"下富野"},"8020025":{"post_code":"8020025","prefecture":"FUKUOKA KEN","city":"KITAKYUSHU SHI KOKURAKITA KU","town":"JUZANCHO","perfecture_jp":"福岡県","jp_add_1":"北九州市小倉北区","jp_add_2":"寿山町"},"8020055":{"post_code":"8020055","prefecture":"FUKUOKA KEN","city":"KITAKYUSHU SHI KOKURAKITA KU","town":"JONODANCHI","perfecture_jp":"福岡県","jp_add_1":"北九州市小倉北区","jp_add_2":"城野団地"},"8020075":{"post_code":"8020075","prefecture":"FUKUOKA KEN","city":"KITAKYUSHU SHI KOKURAKITA KU","town":"SHOWAMACHI","perfecture_jp":"福岡県","jp_add_1":"北九州市小倉北区","jp_add_2":"昭和町"},"8020074":{"post_code":"8020074","prefecture":"FUKUOKA KEN","city":"KITAKYUSHU SHI KOKURAKITA KU","town":"SHIRAGANE","perfecture_jp":"福岡県","jp_add_1":"北九州市小倉北区","jp_add_2":"白銀"},"8020038":{"post_code":"8020038","prefecture":"FUKUOKA KEN","city":"KITAKYUSHU SHI KOKURAKITA KU","town":"SHINKOCHO","perfecture_jp":"福岡県","jp_add_1":"北九州市小倉北区","jp_add_2":"神幸町"},"8020012":{"post_code":"8020012","prefecture":"FUKUOKA KEN","city":"KITAKYUSHU SHI KOKURAKITA KU","town":"SUEHIRO","perfecture_jp":"福岡県","jp_add_1":"北九州市小倉北区","jp_add_2":"末広"},"8020034":{"post_code":"8020034","prefecture":"FUKUOKA KEN","city":"KITAKYUSHU SHI KOKURAKITA KU","town":"SUGAMACHI","perfecture_jp":"福岡県","jp_add_1":"北九州市小倉北区","jp_add_2":"須賀町"},"8020014":{"post_code":"8020014","prefecture":"FUKUOKA KEN","city":"KITAKYUSHU SHI KOKURAKITA KU","town":"SUNATSU","perfecture_jp":"福岡県","jp_add_1":"北九州市小倉北区","jp_add_2":"砂津"},"8020008":{"post_code":"8020008","prefecture":"FUKUOKA KEN","city":"KITAKYUSHU SHI KOKURAKITA KU","town":"SENDOMACHI","perfecture_jp":"福岡県","jp_add_1":"北九州市小倉北区","jp_add_2":"船頭町"},"8020007":{"post_code":"8020007","prefecture":"FUKUOKA KEN","city":"KITAKYUSHU SHI KOKURAKITA KU","town":"SEMBAMACHI","perfecture_jp":"福岡県","jp_add_1":"北九州市小倉北区","jp_add_2":"船場町"},"8020021":{"post_code":"8020021","prefecture":"FUKUOKA KEN","city":"KITAKYUSHU SHI KOKURAKITA KU","town":"TAKAHAMA","perfecture_jp":"福岡県","jp_add_1":"北九州市小倉北区","jp_add_2":"高浜"},"8020053":{"post_code":"8020053","prefecture":"FUKUOKA KEN","city":"KITAKYUSHU SHI KOKURAKITA KU","town":"TAKABO","perfecture_jp":"福岡県","jp_add_1":"北九州市小倉北区","jp_add_2":"高坊"},"8020035":{"post_code":"8020035","prefecture":"FUKUOKA KEN","city":"KITAKYUSHU SHI KOKURAKITA KU","town":"TOKIWAMACHI","perfecture_jp":"福岡県","jp_add_1":"北九州市小倉北区","jp_add_2":"常盤町"},"8020036":{"post_code":"8020036","prefecture":"FUKUOKA KEN","city":"KITAKYUSHU SHI KOKURAKITA KU","town":"TOMINO","perfecture_jp":"福岡県","jp_add_1":"北九州市小倉北区","jp_add_2":"富野"},"8020033":{"post_code":"8020033","prefecture":"FUKUOKA KEN","city":"KITAKYUSHU SHI KOKURAKITA KU","town":"TOMINODAI","perfecture_jp":"福岡県","jp_add_1":"北九州市小倉北区","jp_add_2":"富野台"},"8020076":{"post_code":"8020076","prefecture":"FUKUOKA KEN","city":"KITAKYUSHU SHI KOKURAKITA KU","town":"NAKASHIMA","perfecture_jp":"福岡県","jp_add_1":"北九州市小倉北区","jp_add_2":"中島"},"8020018":{"post_code":"8020018","prefecture":"FUKUOKA KEN","city":"KITAKYUSHU SHI KOKURAKITA KU","town":"NAKATSUGUCHI","perfecture_jp":"福岡県","jp_add_1":"北九州市小倉北区","jp_add_2":"中津口"},"8020013":{"post_code":"8020013","prefecture":"FUKUOKA KEN","city":"KITAKYUSHU SHI KOKURAKITA KU","town":"NAGAHAMAMACHI","perfecture_jp":"福岡県","jp_add_1":"北九州市小倉北区","jp_add_2":"長浜町"},"8020066":{"post_code":"8020066","prefecture":"FUKUOKA KEN","city":"KITAKYUSHU SHI KOKURAKITA KU","town":"HAGIZAKIMACHI","perfecture_jp":"福岡県","jp_add_1":"北九州市小倉北区","jp_add_2":"萩崎町"},"8020077":{"post_code":"8020077","prefecture":"FUKUOKA KEN","city":"KITAKYUSHU SHI KOKURAKITA KU","town":"BASHAKU","perfecture_jp":"福岡県","jp_add_1":"北九州市小倉北区","jp_add_2":"馬借"},"8020072":{"post_code":"8020072","prefecture":"FUKUOKA KEN","city":"KITAKYUSHU SHI KOKURAKITA KU","town":"HIGASHISHINOZAKI","perfecture_jp":"福岡県","jp_add_1":"北九州市小倉北区","jp_add_2":"東篠崎"},"8020054":{"post_code":"8020054","prefecture":"FUKUOKA KEN","city":"KITAKYUSHU SHI KOKURAKITA KU","town":"HIGASHIJONOMACHI","perfecture_jp":"福岡県","jp_add_1":"北九州市小倉北区","jp_add_2":"東城野町"},"8020082":{"post_code":"8020082","prefecture":"FUKUOKA KEN","city":"KITAKYUSHU SHI KOKURAKITA KU","town":"FURUSEMBAMACHI","perfecture_jp":"福岡県","jp_add_1":"北九州市小倉北区","jp_add_2":"古船場町"},"8020065":{"post_code":"8020065","prefecture":"FUKUOKA KEN","city":"KITAKYUSHU SHI KOKURAKITA KU","town":"MIHAGINO","perfecture_jp":"福岡県","jp_add_1":"北九州市小倉北区","jp_add_2":"三萩野"},"8020041":{"post_code":"8020041","prefecture":"FUKUOKA KEN","city":"KITAKYUSHU SHI KOKURAKITA KU","town":"MYOKENCHO","perfecture_jp":"福岡県","jp_add_1":"北九州市小倉北区","jp_add_2":"妙見町"},"8020017":{"post_code":"8020017","prefecture":"FUKUOKA KEN","city":"KITAKYUSHU SHI KOKURAKITA KU","town":"MEIWAMACHI","perfecture_jp":"福岡県","jp_add_1":"北九州市小倉北区","jp_add_2":"明和町"},"8020085":{"post_code":"8020085","prefecture":"FUKUOKA KEN","city":"KITAKYUSHU SHI KOKURAKITA KU","town":"YOSHINOMACHI","perfecture_jp":"福岡県","jp_add_1":"北九州市小倉北区","jp_add_2":"吉野町"},"8020063":{"post_code":"8020063","prefecture":"FUKUOKA KEN","city":"KITAKYUSHU SHI KOKURAKITA KU","town":"WAKAFUJICHO","perfecture_jp":"福岡県","jp_add_1":"北九州市小倉北区","jp_add_2":"若富士町"},"8020838":{"post_code":"8020838","prefecture":"FUKUOKA KEN","city":"KITAKYUSHU SHI KOKURAMINAMI KU","town":"ISHIDAMACHI","perfecture_jp":"福岡県","jp_add_1":"北九州市小倉南区","jp_add_2":"石田町"},"8020836":{"post_code":"8020836","prefecture":"FUKUOKA KEN","city":"KITAKYUSHU SHI KOKURAMINAMI KU","town":"ISHIDAMINAMI","perfecture_jp":"福岡県","jp_add_1":"北九州市小倉南区","jp_add_2":"石田南"},"8020834":{"post_code":"8020834","prefecture":"FUKUOKA KEN","city":"KITAKYUSHU SHI KOKURAMINAMI KU","town":"KAKUREMINO","perfecture_jp":"福岡県","jp_add_1":"北九州市小倉南区","jp_add_2":"隠蓑"},"8020833":{"post_code":"8020833","prefecture":"FUKUOKA KEN","city":"KITAKYUSHU SHI KOKURAMINAMI KU","town":"KAMIISHIDA","perfecture_jp":"福岡県","jp_add_1":"北九州市小倉南区","jp_add_2":"上石田"},"8020978":{"post_code":"8020978","prefecture":"FUKUOKA KEN","city":"KITAKYUSHU SHI KOKURAMINAMI KU","town":"GAMO","perfecture_jp":"福岡県","jp_add_1":"北九州市小倉南区","jp_add_2":"蒲生"},"8020981":{"post_code":"8020981","prefecture":"FUKUOKA KEN","city":"KITAKYUSHU SHI KOKURAMINAMI KU","town":"KIKUGAOKA","perfecture_jp":"福岡県","jp_add_1":"北九州市小倉南区","jp_add_2":"企救丘"},"8020841":{"post_code":"8020841","prefecture":"FUKUOKA KEN","city":"KITAKYUSHU SHI KOKURAMINAMI KU","town":"KITAGATA","perfecture_jp":"福岡県","jp_add_1":"北九州市小倉南区","jp_add_2":"北方"},"8020985":{"post_code":"8020985","prefecture":"FUKUOKA KEN","city":"KITAKYUSHU SHI KOKURAMINAMI KU","town":"SHII","perfecture_jp":"福岡県","jp_add_1":"北九州市小倉南区","jp_add_2":"志井"},"8020984":{"post_code":"8020984","prefecture":"FUKUOKA KEN","city":"KITAKYUSHU SHI KOKURAMINAMI KU","town":"SHIIKOEN","perfecture_jp":"福岡県","jp_add_1":"北九州市小倉南区","jp_add_2":"志井公園"},"8020986":{"post_code":"8020986","prefecture":"FUKUOKA KEN","city":"KITAKYUSHU SHI KOKURAMINAMI KU","town":"SHIITAKAHADAI","perfecture_jp":"福岡県","jp_add_1":"北九州市小倉南区","jp_add_2":"志井鷹羽台"},"8020811":{"post_code":"8020811","prefecture":"FUKUOKA KEN","city":"KITAKYUSHU SHI KOKURAMINAMI KU","town":"SHIGEZUMI","perfecture_jp":"福岡県","jp_add_1":"北九州市小倉南区","jp_add_2":"重住"},"8020983":{"post_code":"8020983","prefecture":"FUKUOKA KEN","city":"KITAKYUSHU SHI KOKURAMINAMI KU","town":"SHITOKU","perfecture_jp":"福岡県","jp_add_1":"北九州市小倉南区","jp_add_2":"志徳"},"8020832":{"post_code":"8020832","prefecture":"FUKUOKA KEN","city":"KITAKYUSHU SHI KOKURAMINAMI KU","town":"SHIMOISHIDA","perfecture_jp":"福岡県","jp_add_1":"北九州市小倉南区","jp_add_2":"下石田"},"8020804":{"post_code":"8020804","prefecture":"FUKUOKA KEN","city":"KITAKYUSHU SHI KOKURAMINAMI KU","town":"SHIMOJONO","perfecture_jp":"福岡県","jp_add_1":"北九州市小倉南区","jp_add_2":"下城野"},"8020977":{"post_code":"8020977","prefecture":"FUKUOKA KEN","city":"KITAKYUSHU SHI KOKURAMINAMI KU","town":"SHIMOMINAMIGATA","perfecture_jp":"福岡県","jp_add_1":"北九州市小倉南区","jp_add_2":"下南方"},"8020802":{"post_code":"8020802","prefecture":"FUKUOKA KEN","city":"KITAKYUSHU SHI KOKURAMINAMI KU","town":"JONO","perfecture_jp":"福岡県","jp_add_1":"北九州市小倉南区","jp_add_2":"城野"},"8020973":{"post_code":"8020973","prefecture":"FUKUOKA KEN","city":"KITAKYUSHU SHI KOKURAMINAMI KU","town":"SEIWADAI","perfecture_jp":"福岡県","jp_add_1":"北九州市小倉南区","jp_add_2":"星和台"},"8020974":{"post_code":"8020974","prefecture":"FUKUOKA KEN","city":"KITAKYUSHU SHI KOKURAMINAMI KU","town":"TOKURIKI","perfecture_jp":"福岡県","jp_add_1":"北九州市小倉南区","jp_add_2":"徳力"},"8020979":{"post_code":"8020979","prefecture":"FUKUOKA KEN","city":"KITAKYUSHU SHI KOKURAMINAMI KU","town":"TOKURIKISHIMMACHI","perfecture_jp":"福岡県","jp_add_1":"北九州市小倉南区","jp_add_2":"徳力新町"},"8020975":{"post_code":"8020975","prefecture":"FUKUOKA KEN","city":"KITAKYUSHU SHI KOKURAMINAMI KU","town":"TOKURIKIDANCHI","perfecture_jp":"福岡県","jp_add_1":"北九州市小倉南区","jp_add_2":"徳力団地"},"8020812":{"post_code":"8020812","prefecture":"FUKUOKA KEN","city":"KITAKYUSHU SHI KOKURAMINAMI KU","town":"NISHIMIZUMACHI","perfecture_jp":"福岡県","jp_add_1":"北九州市小倉南区","jp_add_2":"西水町"},"8020814":{"post_code":"8020814","prefecture":"FUKUOKA KEN","city":"KITAKYUSHU SHI KOKURAMINAMI KU","town":"NINATAWAKAZONO","perfecture_jp":"福岡県","jp_add_1":"北九州市小倉南区","jp_add_2":"蜷田若園"},"8020805":{"post_code":"8020805","prefecture":"FUKUOKA KEN","city":"KITAKYUSHU SHI KOKURAMINAMI KU","town":"HACHIMANCHO","perfecture_jp":"福岡県","jp_add_1":"北九州市小倉南区","jp_add_2":"八幡町"},"8020837":{"post_code":"8020837","prefecture":"FUKUOKA KEN","city":"KITAKYUSHU SHI KOKURAMINAMI KU","town":"HAYAMACHO","perfecture_jp":"福岡県","jp_add_1":"北九州市小倉南区","jp_add_2":"葉山町"},"8020803":{"post_code":"8020803","prefecture":"FUKUOKA KEN","city":"KITAKYUSHU SHI KOKURAMINAMI KU","town":"HARUGAOKA","perfecture_jp":"福岡県","jp_add_1":"北九州市小倉南区","jp_add_2":"春ケ丘"},"8020813":{"post_code":"8020813","prefecture":"FUKUOKA KEN","city":"KITAKYUSHU SHI KOKURAMINAMI KU","town":"HIGASHIMIZUMACHI","perfecture_jp":"福岡県","jp_add_1":"北九州市小倉南区","jp_add_2":"東水町"},"8020842":{"post_code":"8020842","prefecture":"FUKUOKA KEN","city":"KITAKYUSHU SHI KOKURAMINAMI KU","town":"HINODEMACHI","perfecture_jp":"福岡県","jp_add_1":"北九州市小倉南区","jp_add_2":"日の出町"},"8020801":{"post_code":"8020801","prefecture":"FUKUOKA KEN","city":"KITAKYUSHU SHI KOKURAMINAMI KU","town":"FUJIMI","perfecture_jp":"福岡県","jp_add_1":"北九州市小倉南区","jp_add_2":"富士見"},"8020835":{"post_code":"8020835","prefecture":"FUKUOKA KEN","city":"KITAKYUSHU SHI KOKURAMINAMI KU","town":"HORIKOSHI","perfecture_jp":"福岡県","jp_add_1":"北九州市小倉南区","jp_add_2":"堀越"},"8020823":{"post_code":"8020823","prefecture":"FUKUOKA KEN","city":"KITAKYUSHU SHI KOKURAMINAMI KU","town":"MAIGAOKA","perfecture_jp":"福岡県","jp_add_1":"北九州市小倉南区","jp_add_2":"舞ケ丘"},"8020976":{"post_code":"8020976","prefecture":"FUKUOKA KEN","city":"KITAKYUSHU SHI KOKURAMINAMI KU","town":"MINAMIGATA","perfecture_jp":"福岡県","jp_add_1":"北九州市小倉南区","jp_add_2":"南方"},"8020815":{"post_code":"8020815","prefecture":"FUKUOKA KEN","city":"KITAKYUSHU SHI KOKURAMINAMI KU","town":"MINAMIWAKAZONOMACHI","perfecture_jp":"福岡県","jp_add_1":"北九州市小倉南区","jp_add_2":"南若園町"},"8020972":{"post_code":"8020972","prefecture":"FUKUOKA KEN","city":"KITAKYUSHU SHI KOKURAMINAMI KU","town":"MORITSUNE","perfecture_jp":"福岡県","jp_add_1":"北九州市小倉南区","jp_add_2":"守恒"},"8020971":{"post_code":"8020971","prefecture":"FUKUOKA KEN","city":"KITAKYUSHU SHI KOKURAMINAMI KU","town":"MORITSUNEHOMMACHI","perfecture_jp":"福岡県","jp_add_1":"北九州市小倉南区","jp_add_2":"守恒本町"},"8020831":{"post_code":"8020831","prefecture":"FUKUOKA KEN","city":"KITAKYUSHU SHI KOKURAMINAMI KU","town":"YAESUMACHI","perfecture_jp":"福岡県","jp_add_1":"北九州市小倉南区","jp_add_2":"八重洲町"},"8020982":{"post_code":"8020982","prefecture":"FUKUOKA KEN","city":"KITAKYUSHU SHI KOKURAMINAMI KU","town":"YAMATE","perfecture_jp":"福岡県","jp_add_1":"北九州市小倉南区","jp_add_2":"山手"},"8020824":{"post_code":"8020824","prefecture":"FUKUOKA KEN","city":"KITAKYUSHU SHI KOKURAMINAMI KU","town":"YOKOSHIRO","perfecture_jp":"福岡県","jp_add_1":"北九州市小倉南区","jp_add_2":"横代"},"8020825":{"post_code":"8020825","prefecture":"FUKUOKA KEN","city":"KITAKYUSHU SHI KOKURAMINAMI KU","town":"YOKOSHIROHAYAMA","perfecture_jp":"福岡県","jp_add_1":"北九州市小倉南区","jp_add_2":"横代葉山"},"8020822":{"post_code":"8020822","prefecture":"FUKUOKA KEN","city":"KITAKYUSHU SHI KOKURAMINAMI KU","town":"YOKOSHIROHIGASHIMACHI","perfecture_jp":"福岡県","jp_add_1":"北九州市小倉南区","jp_add_2":"横代東町"},"8020826":{"post_code":"8020826","prefecture":"FUKUOKA KEN","city":"KITAKYUSHU SHI KOKURAMINAMI KU","town":"YOKOSHIROMINAMIMACHI","perfecture_jp":"福岡県","jp_add_1":"北九州市小倉南区","jp_add_2":"横代南町"},"8020821":{"post_code":"8020821","prefecture":"FUKUOKA KEN","city":"KITAKYUSHU SHI KOKURAMINAMI KU","town":"YOKOSHIROKITAMACHI","perfecture_jp":"福岡県","jp_add_1":"北九州市小倉南区","jp_add_2":"横代北町"},"8020816":{"post_code":"8020816","prefecture":"FUKUOKA KEN","city":"KITAKYUSHU SHI KOKURAMINAMI KU","town":"WAKAZONO","perfecture_jp":"福岡県","jp_add_1":"北九州市小倉南区","jp_add_2":"若園"}}