{"8040000":{"post_code":"8040000","prefecture":"FUKUOKA KEN","city":"KITAKYUSHU SHI TOBATA KU","town":"IKANIKEISAIGANAIBAAI","perfecture_jp":"福岡県","jp_add_1":"北九州市戸畑区","jp_add_2":""},"8040083":{"post_code":"8040083","prefecture":"FUKUOKA KEN","city":"KITAKYUSHU SHI TOBATA KU","town":"ASAHIMACHI","perfecture_jp":"福岡県","jp_add_1":"北九州市戸畑区","jp_add_2":"旭町"},"8040062":{"post_code":"8040062","prefecture":"FUKUOKA KEN","city":"KITAKYUSHU SHI TOBATA KU","town":"ASO","perfecture_jp":"福岡県","jp_add_1":"北九州市戸畑区","jp_add_2":"浅生"},"8040021":{"post_code":"8040021","prefecture":"FUKUOKA KEN","city":"KITAKYUSHU SHI TOBATA KU","town":"ICHIEDA","perfecture_jp":"福岡県","jp_add_1":"北九州市戸畑区","jp_add_2":"一枝"},"8040064":{"post_code":"8040064","prefecture":"FUKUOKA KEN","city":"KITAKYUSHU SHI TOBATA KU","town":"OKIDAI","perfecture_jp":"福岡県","jp_add_1":"北九州市戸畑区","jp_add_2":"沖台"},"8040071":{"post_code":"8040071","prefecture":"FUKUOKA KEN","city":"KITAKYUSHU SHI TOBATA KU","town":"KAWASHIRO","perfecture_jp":"福岡県","jp_add_1":"北九州市戸畑区","jp_add_2":"川代"},"8040043":{"post_code":"8040043","prefecture":"FUKUOKA KEN","city":"KITAKYUSHU SHI TOBATA KU","town":"KANNONJICHO","perfecture_jp":"福岡県","jp_add_1":"北九州市戸畑区","jp_add_2":"観音寺町"},"8040075":{"post_code":"8040075","prefecture":"FUKUOKA KEN","city":"KITAKYUSHU SHI TOBATA KU","town":"KITATORIHATAMACHI","perfecture_jp":"福岡県","jp_add_1":"北九州市戸畑区","jp_add_2":"北鳥旗町"},"8040076":{"post_code":"8040076","prefecture":"FUKUOKA KEN","city":"KITAKYUSHU SHI TOBATA KU","town":"GINZA","perfecture_jp":"福岡県","jp_add_1":"北九州市戸畑区","jp_add_2":"銀座"},"8040092":{"post_code":"8040092","prefecture":"FUKUOKA KEN","city":"KITAKYUSHU SHI TOBATA KU","town":"KOSHIBA","perfecture_jp":"福岡県","jp_add_1":"北九州市戸畑区","jp_add_2":"小芝"},"8040022":{"post_code":"8040022","prefecture":"FUKUOKA KEN","city":"KITAKYUSHU SHI TOBATA KU","town":"KOMPIRACHO","perfecture_jp":"福岡県","jp_add_1":"北九州市戸畑区","jp_add_2":"金比羅町"},"8040084":{"post_code":"8040084","prefecture":"FUKUOKA KEN","city":"KITAKYUSHU SHI TOBATA KU","town":"SAIWAIMACHI","perfecture_jp":"福岡県","jp_add_1":"北九州市戸畑区","jp_add_2":"幸町"},"8040013":{"post_code":"8040013","prefecture":"FUKUOKA KEN","city":"KITAKYUSHU SHI TOBATA KU","town":"SAKAIGAWA","perfecture_jp":"福岡県","jp_add_1":"北九州市戸畑区","jp_add_2":"境川"},"8040093":{"post_code":"8040093","prefecture":"FUKUOKA KEN","city":"KITAKYUSHU SHI TOBATA KU","town":"SAWAMI","perfecture_jp":"福岡県","jp_add_1":"北九州市戸畑区","jp_add_2":"沢見"},"8040091":{"post_code":"8040091","prefecture":"FUKUOKA KEN","city":"KITAKYUSHU SHI TOBATA KU","town":"SANROKUMACHI","perfecture_jp":"福岡県","jp_add_1":"北九州市戸畑区","jp_add_2":"三六町"},"8040033":{"post_code":"8040033","prefecture":"FUKUOKA KEN","city":"KITAKYUSHU SHI TOBATA KU","town":"SHIINOKICHO","perfecture_jp":"福岡県","jp_add_1":"北九州市戸畑区","jp_add_2":"椎ノ木町"},"8040067":{"post_code":"8040067","prefecture":"FUKUOKA KEN","city":"KITAKYUSHU SHI TOBATA KU","town":"SHIOIMACHI","perfecture_jp":"福岡県","jp_add_1":"北九州市戸畑区","jp_add_2":"汐井町"},"8040063":{"post_code":"8040063","prefecture":"FUKUOKA KEN","city":"KITAKYUSHU SHI TOBATA KU","town":"SHOZUMACHI","perfecture_jp":"福岡県","jp_add_1":"北九州市戸畑区","jp_add_2":"正津町"},"8040082":{"post_code":"8040082","prefecture":"FUKUOKA KEN","city":"KITAKYUSHU SHI TOBATA KU","town":"SHINIKE","perfecture_jp":"福岡県","jp_add_1":"北九州市戸畑区","jp_add_2":"新池"},"8040065":{"post_code":"8040065","prefecture":"FUKUOKA KEN","city":"KITAKYUSHU SHI TOBATA KU","town":"SHINKAWAMACHI","perfecture_jp":"福岡県","jp_add_1":"北九州市戸畑区","jp_add_2":"新川町"},"8040044":{"post_code":"8040044","prefecture":"FUKUOKA KEN","city":"KITAKYUSHU SHI TOBATA KU","town":"SUGAWARA","perfecture_jp":"福岡県","jp_add_1":"北九州市戸畑区","jp_add_2":"菅原"},"8040015":{"post_code":"8040015","prefecture":"FUKUOKA KEN","city":"KITAKYUSHU SHI TOBATA KU","town":"SENSUICHO","perfecture_jp":"福岡県","jp_add_1":"北九州市戸畑区","jp_add_2":"仙水町"},"8040081":{"post_code":"8040081","prefecture":"FUKUOKA KEN","city":"KITAKYUSHU SHI TOBATA KU","town":"SEMBO","perfecture_jp":"福岡県","jp_add_1":"北九州市戸畑区","jp_add_2":"千防"},"8040051":{"post_code":"8040051","prefecture":"FUKUOKA KEN","city":"KITAKYUSHU SHI TOBATA KU","town":"TAKAMINE","perfecture_jp":"福岡県","jp_add_1":"北九州市戸畑区","jp_add_2":"高峰"},"8040014":{"post_code":"8040014","prefecture":"FUKUOKA KEN","city":"KITAKYUSHU SHI TOBATA KU","town":"TSUCHITORIMACHI","perfecture_jp":"福岡県","jp_add_1":"北九州市戸畑区","jp_add_2":"土取町"},"8040094":{"post_code":"8040094","prefecture":"FUKUOKA KEN","city":"KITAKYUSHU SHI TOBATA KU","town":"TENJIN","perfecture_jp":"福岡県","jp_add_1":"北九州市戸畑区","jp_add_2":"天神"},"8040041":{"post_code":"8040041","prefecture":"FUKUOKA KEN","city":"KITAKYUSHU SHI TOBATA KU","town":"TENRAIJI","perfecture_jp":"福岡県","jp_add_1":"北九州市戸畑区","jp_add_2":"天籟寺"},"8040004":{"post_code":"8040004","prefecture":"FUKUOKA KEN","city":"KITAKYUSHU SHI TOBATA KU","town":"TOBATA","perfecture_jp":"福岡県","jp_add_1":"北九州市戸畑区","jp_add_2":"戸畑"},"8040001":{"post_code":"8040001","prefecture":"FUKUOKA KEN","city":"KITAKYUSHU SHI TOBATA KU","town":"TOBIHATACHO","perfecture_jp":"福岡県","jp_add_1":"北九州市戸畑区","jp_add_2":"飛幡町"},"8040002":{"post_code":"8040002","prefecture":"FUKUOKA KEN","city":"KITAKYUSHU SHI TOBATA KU","town":"NAKABARU(SAKINOHAMA)","perfecture_jp":"福岡県","jp_add_1":"北九州市戸畑区","jp_add_2":"中原"},"8040003":{"post_code":"8040003","prefecture":"FUKUOKA KEN","city":"KITAKYUSHU SHI TOBATA KU","town":"NAKABARUSHIMMACHI","perfecture_jp":"福岡県","jp_add_1":"北九州市戸畑区","jp_add_2":"中原新町"},"8040012":{"post_code":"8040012","prefecture":"FUKUOKA KEN","city":"KITAKYUSHU SHI TOBATA KU","town":"NAKABARUHIGASHI","perfecture_jp":"福岡県","jp_add_1":"北九州市戸畑区","jp_add_2":"中原東"},"8040011":{"post_code":"8040011","prefecture":"FUKUOKA KEN","city":"KITAKYUSHU SHI TOBATA KU","town":"NAKABARUNISHI","perfecture_jp":"福岡県","jp_add_1":"北九州市戸畑区","jp_add_2":"中原西"},"8040061":{"post_code":"8040061","prefecture":"FUKUOKA KEN","city":"KITAKYUSHU SHI TOBATA KU","town":"NAKAHOMMACHI","perfecture_jp":"福岡県","jp_add_1":"北九州市戸畑区","jp_add_2":"中本町"},"8040032":{"post_code":"8040032","prefecture":"FUKUOKA KEN","city":"KITAKYUSHU SHI TOBATA KU","town":"NISHIOTANI","perfecture_jp":"福岡県","jp_add_1":"北九州市戸畑区","jp_add_2":"西大谷"},"8040024":{"post_code":"8040024","prefecture":"FUKUOKA KEN","city":"KITAKYUSHU SHI TOBATA KU","town":"NISHISAYAGATANIMACHI","perfecture_jp":"福岡県","jp_add_1":"北九州市戸畑区","jp_add_2":"西鞘ケ谷町"},"8040066":{"post_code":"8040066","prefecture":"FUKUOKA KEN","city":"KITAKYUSHU SHI TOBATA KU","town":"HATSUNECHO","perfecture_jp":"福岡県","jp_add_1":"北九州市戸畑区","jp_add_2":"初音町"},"8040031":{"post_code":"8040031","prefecture":"FUKUOKA KEN","city":"KITAKYUSHU SHI TOBATA KU","town":"HIGASHIOTANI","perfecture_jp":"福岡県","jp_add_1":"北九州市戸畑区","jp_add_2":"東大谷"},"8040023":{"post_code":"8040023","prefecture":"FUKUOKA KEN","city":"KITAKYUSHU SHI TOBATA KU","town":"HIGASHISAYAGATANIMACHI","perfecture_jp":"福岡県","jp_add_1":"北九州市戸畑区","jp_add_2":"東鞘ケ谷町"},"8040025":{"post_code":"8040025","prefecture":"FUKUOKA KEN","city":"KITAKYUSHU SHI TOBATA KU","town":"FUKURYUGI","perfecture_jp":"福岡県","jp_add_1":"北九州市戸畑区","jp_add_2":"福柳木"},"8040053":{"post_code":"8040053","prefecture":"FUKUOKA KEN","city":"KITAKYUSHU SHI TOBATA KU","town":"MAKIYAMA","perfecture_jp":"福岡県","jp_add_1":"北九州市戸畑区","jp_add_2":"牧山"},"8040077":{"post_code":"8040077","prefecture":"FUKUOKA KEN","city":"KITAKYUSHU SHI TOBATA KU","town":"MAKIYAMAKAIGAN","perfecture_jp":"福岡県","jp_add_1":"北九州市戸畑区","jp_add_2":"牧山海岸"},"8040054":{"post_code":"8040054","prefecture":"FUKUOKA KEN","city":"KITAKYUSHU SHI TOBATA KU","town":"MAKIYAMASHIMMACHI","perfecture_jp":"福岡県","jp_add_1":"北九州市戸畑区","jp_add_2":"牧山新町"},"8040052":{"post_code":"8040052","prefecture":"FUKUOKA KEN","city":"KITAKYUSHU SHI TOBATA KU","town":"MARUMACHI","perfecture_jp":"福岡県","jp_add_1":"北九州市戸畑区","jp_add_2":"丸町"},"8040074":{"post_code":"8040074","prefecture":"FUKUOKA KEN","city":"KITAKYUSHU SHI TOBATA KU","town":"MINAMITORIHATAMACHI","perfecture_jp":"福岡県","jp_add_1":"北九州市戸畑区","jp_add_2":"南鳥旗町"},"8040073":{"post_code":"8040073","prefecture":"FUKUOKA KEN","city":"KITAKYUSHU SHI TOBATA KU","town":"MEIJIMACHI","perfecture_jp":"福岡県","jp_add_1":"北九州市戸畑区","jp_add_2":"明治町"},"8040072":{"post_code":"8040072","prefecture":"FUKUOKA KEN","city":"KITAKYUSHU SHI TOBATA KU","town":"MOTOMIYAMACHI","perfecture_jp":"福岡県","jp_add_1":"北九州市戸畑区","jp_add_2":"元宮町"},"8040042":{"post_code":"8040042","prefecture":"FUKUOKA KEN","city":"KITAKYUSHU SHI TOBATA KU","town":"YOMIYA","perfecture_jp":"福岡県","jp_add_1":"北九州市戸畑区","jp_add_2":"夜宮"}}