{"8050000":{"post_code":"8050000","prefecture":"FUKUOKA KEN","city":"KITAKYUSHU SHI YAHATAHIGASHI KU","town":"IKANIKEISAIGANAIBAAI","perfecture_jp":"福岡県","jp_add_1":"北九州市八幡東区","jp_add_2":""},"8050001":{"post_code":"8050001","prefecture":"FUKUOKA KEN","city":"KITAKYUSHU SHI YAHATAHIGASHI KU","town":"ARATE","perfecture_jp":"福岡県","jp_add_1":"北九州市八幡東区","jp_add_2":"荒手"},"8050015":{"post_code":"8050015","prefecture":"FUKUOKA KEN","city":"KITAKYUSHU SHI YAHATAHIGASHI KU","town":"ARODA","perfecture_jp":"福岡県","jp_add_1":"北九州市八幡東区","jp_add_2":"荒生田"},"8050021":{"post_code":"8050021","prefecture":"FUKUOKA KEN","city":"KITAKYUSHU SHI YAHATAHIGASHI KU","town":"ISHITSUBOMACHI","perfecture_jp":"福岡県","jp_add_1":"北九州市八幡東区","jp_add_2":"石坪町"},"8050037":{"post_code":"8050037","prefecture":"FUKUOKA KEN","city":"KITAKYUSHU SHI YAHATAHIGASHI KU","town":"INOKURAMACHI","perfecture_jp":"福岡県","jp_add_1":"北九州市八幡東区","jp_add_2":"猪倉町"},"8050041":{"post_code":"8050041","prefecture":"FUKUOKA KEN","city":"KITAKYUSHU SHI YAHATAHIGASHI KU","town":"IWAIMACHI","perfecture_jp":"福岡県","jp_add_1":"北九州市八幡東区","jp_add_2":"祝町"},"8050002":{"post_code":"8050002","prefecture":"FUKUOKA KEN","city":"KITAKYUSHU SHI YAHATAHIGASHI KU","town":"EDAMITSU","perfecture_jp":"福岡県","jp_add_1":"北九州市八幡東区","jp_add_2":"枝光"},"8050008":{"post_code":"8050008","prefecture":"FUKUOKA KEN","city":"KITAKYUSHU SHI YAHATAHIGASHI KU","town":"EDAMITSUHOMMACHI","perfecture_jp":"福岡県","jp_add_1":"北九州市八幡東区","jp_add_2":"枝光本町"},"8050048":{"post_code":"8050048","prefecture":"FUKUOKA KEN","city":"KITAKYUSHU SHI YAHATAHIGASHI KU","town":"OKURA","perfecture_jp":"福岡県","jp_add_1":"北九州市八幡東区","jp_add_2":"大蔵"},"8050053":{"post_code":"8050053","prefecture":"FUKUOKA KEN","city":"KITAKYUSHU SHI YAHATAHIGASHI KU","town":"OTANI","perfecture_jp":"福岡県","jp_add_1":"北九州市八幡東区","jp_add_2":"大谷"},"8050038":{"post_code":"8050038","prefecture":"FUKUOKA KEN","city":"KITAKYUSHU SHI YAHATAHIGASHI KU","town":"OHIRAMACHI","perfecture_jp":"福岡県","jp_add_1":"北九州市八幡東区","jp_add_2":"大平町"},"8050003":{"post_code":"8050003","prefecture":"FUKUOKA KEN","city":"KITAKYUSHU SHI YAHATAHIGASHI KU","town":"OMIYAMACHI","perfecture_jp":"福岡県","jp_add_1":"北九州市八幡東区","jp_add_2":"大宮町"},"8050057":{"post_code":"8050057","prefecture":"FUKUOKA KEN","city":"KITAKYUSHU SHI YAHATAHIGASHI KU","town":"OGURA(OAZA)","perfecture_jp":"福岡県","jp_add_1":"北九州市八幡東区","jp_add_2":"尾倉"},"8050059":{"post_code":"8050059","prefecture":"FUKUOKA KEN","city":"KITAKYUSHU SHI YAHATAHIGASHI KU","town":"OGURA(CHOME)","perfecture_jp":"福岡県","jp_add_1":"北九州市八幡東区","jp_add_2":"尾倉"},"8050043":{"post_code":"8050043","prefecture":"FUKUOKA KEN","city":"KITAKYUSHU SHI YAHATAHIGASHI KU","town":"KATSUYAMA","perfecture_jp":"福岡県","jp_add_1":"北九州市八幡東区","jp_add_2":"勝山"},"8050018":{"post_code":"8050018","prefecture":"FUKUOKA KEN","city":"KITAKYUSHU SHI YAHATAHIGASHI KU","town":"KAMIHOMMACHI","perfecture_jp":"福岡県","jp_add_1":"北九州市八幡東区","jp_add_2":"上本町"},"8050055":{"post_code":"8050055","prefecture":"FUKUOKA KEN","city":"KITAKYUSHU SHI YAHATAHIGASHI KU","town":"KAMIYAMAMACHI","perfecture_jp":"福岡県","jp_add_1":"北九州市八幡東区","jp_add_2":"神山町"},"8050045":{"post_code":"8050045","prefecture":"FUKUOKA KEN","city":"KITAKYUSHU SHI YAHATAHIGASHI KU","town":"KAWACHI","perfecture_jp":"福岡県","jp_add_1":"北九州市八幡東区","jp_add_2":"河内"},"8050012":{"post_code":"8050012","prefecture":"FUKUOKA KEN","city":"KITAKYUSHU SHI YAHATAHIGASHI KU","town":"KAWABUCHIMACHI","perfecture_jp":"福岡県","jp_add_1":"北九州市八幡東区","jp_add_2":"川淵町"},"8050067":{"post_code":"8050067","prefecture":"FUKUOKA KEN","city":"KITAKYUSHU SHI YAHATAHIGASHI KU","town":"GION","perfecture_jp":"福岡県","jp_add_1":"北九州市八幡東区","jp_add_2":"祇園"},"8050066":{"post_code":"8050066","prefecture":"FUKUOKA KEN","city":"KITAKYUSHU SHI YAHATAHIGASHI KU","town":"GIOMBARAMACHI","perfecture_jp":"福岡県","jp_add_1":"北九州市八幡東区","jp_add_2":"祇園原町"},"8050034":{"post_code":"8050034","prefecture":"FUKUOKA KEN","city":"KITAKYUSHU SHI YAHATAHIGASHI KU","town":"KIYOTA","perfecture_jp":"福岡県","jp_add_1":"北九州市八幡東区","jp_add_2":"清田"},"8050047":{"post_code":"8050047","prefecture":"FUKUOKA KEN","city":"KITAKYUSHU SHI YAHATAHIGASHI KU","town":"KEISHOMACHI","perfecture_jp":"福岡県","jp_add_1":"北九州市八幡東区","jp_add_2":"景勝町"},"8050036":{"post_code":"8050036","prefecture":"FUKUOKA KEN","city":"KITAKYUSHU SHI YAHATAHIGASHI KU","town":"KOGUMANO","perfecture_jp":"福岡県","jp_add_1":"北九州市八幡東区","jp_add_2":"小熊野"},"8050035":{"post_code":"8050035","prefecture":"FUKUOKA KEN","city":"KITAKYUSHU SHI YAHATAHIGASHI KU","town":"SANJI","perfecture_jp":"福岡県","jp_add_1":"北九州市八幡東区","jp_add_2":"山路"},"8050033":{"post_code":"8050033","prefecture":"FUKUOKA KEN","city":"KITAKYUSHU SHI YAHATAHIGASHI KU","town":"SANJIMATSUOMACHI","perfecture_jp":"福岡県","jp_add_1":"北九州市八幡東区","jp_add_2":"山路松尾町"},"8050017":{"post_code":"8050017","prefecture":"FUKUOKA KEN","city":"KITAKYUSHU SHI YAHATAHIGASHI KU","town":"SANNO","perfecture_jp":"福岡県","jp_add_1":"北九州市八幡東区","jp_add_2":"山王"},"8050013":{"post_code":"8050013","prefecture":"FUKUOKA KEN","city":"KITAKYUSHU SHI YAHATAHIGASHI KU","town":"SHOWA","perfecture_jp":"福岡県","jp_add_1":"北九州市八幡東区","jp_add_2":"昭和"},"8050007":{"post_code":"8050007","prefecture":"FUKUOKA KEN","city":"KITAKYUSHU SHI YAHATAHIGASHI KU","town":"SHIRAKAWAMACHI","perfecture_jp":"福岡県","jp_add_1":"北九州市八幡東区","jp_add_2":"白川町"},"8050049":{"post_code":"8050049","prefecture":"FUKUOKA KEN","city":"KITAKYUSHU SHI YAHATAHIGASHI KU","town":"SUEHIROMACHI","perfecture_jp":"福岡県","jp_add_1":"北九州市八幡東区","jp_add_2":"末広町"},"8050006":{"post_code":"8050006","prefecture":"FUKUOKA KEN","city":"KITAKYUSHU SHI YAHATAHIGASHI KU","town":"SUWA","perfecture_jp":"福岡県","jp_add_1":"北九州市八幡東区","jp_add_2":"諏訪"},"8050016":{"post_code":"8050016","prefecture":"FUKUOKA KEN","city":"KITAKYUSHU SHI YAHATAHIGASHI KU","town":"TAKAMI","perfecture_jp":"福岡県","jp_add_1":"北九州市八幡東区","jp_add_2":"高見"},"8050022":{"post_code":"8050022","prefecture":"FUKUOKA KEN","city":"KITAKYUSHU SHI YAHATAHIGASHI KU","town":"TAKESHITAMACHI","perfecture_jp":"福岡県","jp_add_1":"北九州市八幡東区","jp_add_2":"竹下町"},"8050046":{"post_code":"8050046","prefecture":"FUKUOKA KEN","city":"KITAKYUSHU SHI YAHATAHIGASHI KU","town":"TASHIRO","perfecture_jp":"福岡県","jp_add_1":"北九州市八幡東区","jp_add_2":"田代"},"8050014":{"post_code":"8050014","prefecture":"FUKUOKA KEN","city":"KITAKYUSHU SHI YAHATAHIGASHI KU","town":"CHAYAMACHI","perfecture_jp":"福岡県","jp_add_1":"北九州市八幡東区","jp_add_2":"茶屋町"},"8050019":{"post_code":"8050019","prefecture":"FUKUOKA KEN","city":"KITAKYUSHU SHI YAHATAHIGASHI KU","town":"CHUO","perfecture_jp":"福岡県","jp_add_1":"北九州市八幡東区","jp_add_2":"中央"},"8050031":{"post_code":"8050031","prefecture":"FUKUOKA KEN","city":"KITAKYUSHU SHI YAHATAHIGASHI KU","town":"TSUKIDA","perfecture_jp":"福岡県","jp_add_1":"北九州市八幡東区","jp_add_2":"槻田"},"8050054":{"post_code":"8050054","prefecture":"FUKUOKA KEN","city":"KITAKYUSHU SHI YAHATAHIGASHI KU","town":"TENJIMMACHI","perfecture_jp":"福岡県","jp_add_1":"北九州市八幡東区","jp_add_2":"天神町"},"8050025":{"post_code":"8050025","prefecture":"FUKUOKA KEN","city":"KITAKYUSHU SHI YAHATAHIGASHI KU","town":"NAKAO","perfecture_jp":"福岡県","jp_add_1":"北九州市八幡東区","jp_add_2":"中尾"},"8050024":{"post_code":"8050024","prefecture":"FUKUOKA KEN","city":"KITAKYUSHU SHI YAHATAHIGASHI KU","town":"NAKAHATA","perfecture_jp":"福岡県","jp_add_1":"北九州市八幡東区","jp_add_2":"中畑"},"8050064":{"post_code":"8050064","prefecture":"FUKUOKA KEN","city":"KITAKYUSHU SHI YAHATAHIGASHI KU","town":"NISHIDAIRAMACHI","perfecture_jp":"福岡県","jp_add_1":"北九州市八幡東区","jp_add_2":"西台良町"},"8050061":{"post_code":"8050061","prefecture":"FUKUOKA KEN","city":"KITAKYUSHU SHI YAHATAHIGASHI KU","town":"NISHIHOMMACHI","perfecture_jp":"福岡県","jp_add_1":"北九州市八幡東区","jp_add_2":"西本町"},"8050052":{"post_code":"8050052","prefecture":"FUKUOKA KEN","city":"KITAKYUSHU SHI YAHATAHIGASHI KU","town":"NISHIMARUYAMAMACHI","perfecture_jp":"福岡県","jp_add_1":"北九州市八幡東区","jp_add_2":"西丸山町"},"8050042":{"post_code":"8050042","prefecture":"FUKUOKA KEN","city":"KITAKYUSHU SHI YAHATAHIGASHI KU","town":"HAGOROMOMACHI","perfecture_jp":"福岡県","jp_add_1":"北九州市八幡東区","jp_add_2":"羽衣町"},"8050011":{"post_code":"8050011","prefecture":"FUKUOKA KEN","city":"KITAKYUSHU SHI YAHATAHIGASHI KU","town":"HACHIOJIMACHI","perfecture_jp":"福岡県","jp_add_1":"北九州市八幡東区","jp_add_2":"八王寺町"},"8050065":{"post_code":"8050065","prefecture":"FUKUOKA KEN","city":"KITAKYUSHU SHI YAHATAHIGASHI KU","town":"HANAOMACHI","perfecture_jp":"福岡県","jp_add_1":"北九州市八幡東区","jp_add_2":"花尾町"},"8050050":{"post_code":"8050050","prefecture":"FUKUOKA KEN","city":"KITAKYUSHU SHI YAHATAHIGASHI KU","town":"HARUNOMACHI","perfecture_jp":"福岡県","jp_add_1":"北九州市八幡東区","jp_add_2":"春の町"},"8050071":{"post_code":"8050071","prefecture":"FUKUOKA KEN","city":"KITAKYUSHU SHI YAHATAHIGASHI KU","town":"HIGASHIDA","perfecture_jp":"福岡県","jp_add_1":"北九州市八幡東区","jp_add_2":"東田"},"8050063":{"post_code":"8050063","prefecture":"FUKUOKA KEN","city":"KITAKYUSHU SHI YAHATAHIGASHI KU","town":"HIGASHIDAIRAMACHI","perfecture_jp":"福岡県","jp_add_1":"北九州市八幡東区","jp_add_2":"東台良町"},"8050027":{"post_code":"8050027","prefecture":"FUKUOKA KEN","city":"KITAKYUSHU SHI YAHATAHIGASHI KU","town":"HIGASHITETSUMACHI","perfecture_jp":"福岡県","jp_add_1":"北九州市八幡東区","jp_add_2":"東鉄町"},"8050051":{"post_code":"8050051","prefecture":"FUKUOKA KEN","city":"KITAKYUSHU SHI YAHATAHIGASHI KU","town":"HIGASHIMARUYAMAMACHI","perfecture_jp":"福岡県","jp_add_1":"北九州市八幡東区","jp_add_2":"東丸山町"},"8050026":{"post_code":"8050026","prefecture":"FUKUOKA KEN","city":"KITAKYUSHU SHI YAHATAHIGASHI KU","town":"HIGASHIYAMA","perfecture_jp":"福岡県","jp_add_1":"北九州市八幡東区","jp_add_2":"東山"},"8050004":{"post_code":"8050004","prefecture":"FUKUOKA KEN","city":"KITAKYUSHU SHI YAHATAHIGASHI KU","town":"HINODE","perfecture_jp":"福岡県","jp_add_1":"北九州市八幡東区","jp_add_2":"日の出"},"8050062":{"post_code":"8050062","prefecture":"FUKUOKA KEN","city":"KITAKYUSHU SHI YAHATAHIGASHI KU","town":"HIRANO","perfecture_jp":"福岡県","jp_add_1":"北九州市八幡東区","jp_add_2":"平野"},"8050005":{"post_code":"8050005","prefecture":"FUKUOKA KEN","city":"KITAKYUSHU SHI YAHATAHIGASHI KU","town":"FUJIMIMACHI","perfecture_jp":"福岡県","jp_add_1":"北九州市八幡東区","jp_add_2":"藤見町"},"8050056":{"post_code":"8050056","prefecture":"FUKUOKA KEN","city":"KITAKYUSHU SHI YAHATAHIGASHI KU","town":"HOBASHIRA","perfecture_jp":"福岡県","jp_add_1":"北九州市八幡東区","jp_add_2":"帆柱"},"8050058":{"post_code":"8050058","prefecture":"FUKUOKA KEN","city":"KITAKYUSHU SHI YAHATAHIGASHI KU","town":"MAEDA(OAZA)","perfecture_jp":"福岡県","jp_add_1":"北九州市八幡東区","jp_add_2":"前田"},"8050069":{"post_code":"8050069","prefecture":"FUKUOKA KEN","city":"KITAKYUSHU SHI YAHATAHIGASHI KU","town":"MAEDA(CHOME)","perfecture_jp":"福岡県","jp_add_1":"北九州市八幡東区","jp_add_2":"前田"},"8050032":{"post_code":"8050032","prefecture":"FUKUOKA KEN","city":"KITAKYUSHU SHI YAHATAHIGASHI KU","town":"MATSUOMACHI","perfecture_jp":"福岡県","jp_add_1":"北九州市八幡東区","jp_add_2":"松尾町"},"8050009":{"post_code":"8050009","prefecture":"FUKUOKA KEN","city":"KITAKYUSHU SHI YAHATAHIGASHI KU","town":"MIYATAMACHI","perfecture_jp":"福岡県","jp_add_1":"北九州市八幡東区","jp_add_2":"宮田町"},"8050023":{"post_code":"8050023","prefecture":"FUKUOKA KEN","city":"KITAKYUSHU SHI YAHATAHIGASHI KU","town":"MIYANOMACHI","perfecture_jp":"福岡県","jp_add_1":"北九州市八幡東区","jp_add_2":"宮の町"},"8050068":{"post_code":"8050068","prefecture":"FUKUOKA KEN","city":"KITAKYUSHU SHI YAHATAHIGASHI KU","town":"MOMOZONO","perfecture_jp":"福岡県","jp_add_1":"北九州市八幡東区","jp_add_2":"桃園"},"8050044":{"post_code":"8050044","prefecture":"FUKUOKA KEN","city":"KITAKYUSHU SHI YAHATAHIGASHI KU","town":"YUTAKAMACHI","perfecture_jp":"福岡県","jp_add_1":"北九州市八幡東区","jp_add_2":"豊町"}}