{"8080000":{"post_code":"8080000","prefecture":"FUKUOKA KEN","city":"KITAKYUSHU SHI WAKAMATSU KU","town":"IKANIKEISAIGANAIBAAI","perfecture_jp":"福岡県","jp_add_1":"北九州市若松区","jp_add_2":""},"8080141":{"post_code":"8080141","prefecture":"FUKUOKA KEN","city":"KITAKYUSHU SHI WAKAMATSU KU","town":"AOBADAI HIGASHI","perfecture_jp":"福岡県","jp_add_1":"北九州市若松区","jp_add_2":"青葉台東"},"8080143":{"post_code":"8080143","prefecture":"FUKUOKA KEN","city":"KITAKYUSHU SHI WAKAMATSU KU","town":"AOBADAI NISHI","perfecture_jp":"福岡県","jp_add_1":"北九州市若松区","jp_add_2":"青葉台西"},"8080142":{"post_code":"8080142","prefecture":"FUKUOKA KEN","city":"KITAKYUSHU SHI WAKAMATSU KU","town":"AOBADAI MINAMI","perfecture_jp":"福岡県","jp_add_1":"北九州市若松区","jp_add_2":"青葉台南"},"8080175":{"post_code":"8080175","prefecture":"FUKUOKA KEN","city":"KITAKYUSHU SHI WAKAMATSU KU","town":"AKAIWAMACHI(10-12-BANCHI)","perfecture_jp":"福岡県","jp_add_1":"北九州市若松区","jp_add_2":"赤岩町"},"8080075":{"post_code":"8080075","prefecture":"FUKUOKA KEN","city":"KITAKYUSHU SHI WAKAMATSU KU","town":"AKAIWAMACHI(SONOTA)","perfecture_jp":"福岡県","jp_add_1":"北九州市若松区","jp_add_2":"赤岩町"},"8080003":{"post_code":"8080003","prefecture":"FUKUOKA KEN","city":"KITAKYUSHU SHI WAKAMATSU KU","town":"AKASAKIMACHI","perfecture_jp":"福岡県","jp_add_1":"北九州市若松区","jp_add_2":"赤崎町"},"8080073":{"post_code":"8080073","prefecture":"FUKUOKA KEN","city":"KITAKYUSHU SHI WAKAMATSU KU","town":"AKASHIMAMACHI","perfecture_jp":"福岡県","jp_add_1":"北九州市若松区","jp_add_2":"赤島町"},"8080122":{"post_code":"8080122","prefecture":"FUKUOKA KEN","city":"KITAKYUSHU SHI WAKAMATSU KU","town":"AMASUMI","perfecture_jp":"福岡県","jp_add_1":"北九州市若松区","jp_add_2":"蜑住"},"8080123":{"post_code":"8080123","prefecture":"FUKUOKA KEN","city":"KITAKYUSHU SHI WAKAMATSU KU","town":"ARIGE","perfecture_jp":"福岡県","jp_add_1":"北九州市若松区","jp_add_2":"有毛"},"8080022":{"post_code":"8080022","prefecture":"FUKUOKA KEN","city":"KITAKYUSHU SHI WAKAMATSU KU","town":"ANSE","perfecture_jp":"福岡県","jp_add_1":"北九州市若松区","jp_add_2":"安瀬"},"8080124":{"post_code":"8080124","prefecture":"FUKUOKA KEN","city":"KITAKYUSHU SHI WAKAMATSU KU","town":"ANYA","perfecture_jp":"福岡県","jp_add_1":"北九州市若松区","jp_add_2":"安屋"},"8080071":{"post_code":"8080071","prefecture":"FUKUOKA KEN","city":"KITAKYUSHU SHI WAKAMATSU KU","town":"IMAMITSU","perfecture_jp":"福岡県","jp_add_1":"北九州市若松区","jp_add_2":"今光"},"8080014":{"post_code":"8080014","prefecture":"FUKUOKA KEN","city":"KITAKYUSHU SHI WAKAMATSU KU","town":"EISEIGAWAMACHI","perfecture_jp":"福岡県","jp_add_1":"北九州市若松区","jp_add_2":"栄盛川町"},"8080032":{"post_code":"8080032","prefecture":"FUKUOKA KEN","city":"KITAKYUSHU SHI WAKAMATSU KU","town":"OIMATSU","perfecture_jp":"福岡県","jp_add_1":"北九州市若松区","jp_add_2":"老松"},"8080061":{"post_code":"8080061","prefecture":"FUKUOKA KEN","city":"KITAKYUSHU SHI WAKAMATSU KU","town":"OIKEMACHI","perfecture_jp":"福岡県","jp_add_1":"北九州市若松区","jp_add_2":"大池町"},"8080033":{"post_code":"8080033","prefecture":"FUKUOKA KEN","city":"KITAKYUSHU SHI WAKAMATSU KU","town":"OIDOMACHI","perfecture_jp":"福岡県","jp_add_1":"北九州市若松区","jp_add_2":"大井戸町"},"8080051":{"post_code":"8080051","prefecture":"FUKUOKA KEN","city":"KITAKYUSHU SHI WAKAMATSU KU","town":"OTANIMACHI","perfecture_jp":"福岡県","jp_add_1":"北九州市若松区","jp_add_2":"大谷町"},"8080133":{"post_code":"8080133","prefecture":"FUKUOKA KEN","city":"KITAKYUSHU SHI WAKAMATSU KU","town":"OTORII","perfecture_jp":"福岡県","jp_add_1":"北九州市若松区","jp_add_2":"大鳥居"},"8080008":{"post_code":"8080008","prefecture":"FUKUOKA KEN","city":"KITAKYUSHU SHI WAKAMATSU KU","town":"TSUBAKI.WAKINORA)","perfecture_jp":"福岡県","jp_add_1":"北九州市若松区","jp_add_2":"小竹"},"8080108":{"post_code":"8080108","prefecture":"FUKUOKA KEN","city":"KITAKYUSHU SHI WAKAMATSU KU","town":"ODAKE(SONOTA)","perfecture_jp":"福岡県","jp_add_1":"北九州市若松区","jp_add_2":"小竹"},"8080134":{"post_code":"8080134","prefecture":"FUKUOKA KEN","city":"KITAKYUSHU SHI WAKAMATSU KU","town":"OTOMARU","perfecture_jp":"福岡県","jp_add_1":"北九州市若松区","jp_add_2":"乙丸"},"8080106":{"post_code":"8080106","prefecture":"FUKUOKA KEN","city":"KITAKYUSHU SHI WAKAMATSU KU","town":"KATAYAMA","perfecture_jp":"福岡県","jp_add_1":"北九州市若松区","jp_add_2":"片山"},"8080015":{"post_code":"8080015","prefecture":"FUKUOKA KEN","city":"KITAKYUSHU SHI WAKAMATSU KU","town":"KAMIHARAMACHI","perfecture_jp":"福岡県","jp_add_1":"北九州市若松区","jp_add_2":"上原町"},"8080105":{"post_code":"8080105","prefecture":"FUKUOKA KEN","city":"KITAKYUSHU SHI WAKAMATSU KU","town":"KAMODA","perfecture_jp":"福岡県","jp_add_1":"北九州市若松区","jp_add_2":"鴨生田"},"8080023":{"post_code":"8080023","prefecture":"FUKUOKA KEN","city":"KITAKYUSHU SHI WAKAMATSU KU","town":"KITAHAMA","perfecture_jp":"福岡県","jp_add_1":"北九州市若松区","jp_add_2":"北浜"},"8080027":{"post_code":"8080027","prefecture":"FUKUOKA KEN","city":"KITAKYUSHU SHI WAKAMATSU KU","town":"KITAMINATOMACHI","perfecture_jp":"福岡県","jp_add_1":"北九州市若松区","jp_add_2":"北湊町"},"8080011":{"post_code":"8080011","prefecture":"FUKUOKA KEN","city":"KITAKYUSHU SHI WAKAMATSU KU","town":"KYONAMMACHI","perfecture_jp":"福岡県","jp_add_1":"北九州市若松区","jp_add_2":"響南町"},"8080066":{"post_code":"8080066","prefecture":"FUKUOKA KEN","city":"KITAKYUSHU SHI WAKAMATSU KU","town":"KUKINOMICHUO","perfecture_jp":"福岡県","jp_add_1":"北九州市若松区","jp_add_2":"くきのうみ中央"},"8080054":{"post_code":"8080054","prefecture":"FUKUOKA KEN","city":"KITAKYUSHU SHI WAKAMATSU KU","town":"KUKINOHAMA","perfecture_jp":"福岡県","jp_add_1":"北九州市若松区","jp_add_2":"久岐の浜"},"8080007":{"post_code":"8080007","prefecture":"FUKUOKA KEN","city":"KITAKYUSHU SHI WAKAMATSU KU","town":"KOISHI","perfecture_jp":"福岡県","jp_add_1":"北九州市若松区","jp_add_2":"小石"},"8080001":{"post_code":"8080001","prefecture":"FUKUOKA KEN","city":"KITAKYUSHU SHI WAKAMATSU KU","town":"KOISHIHOMMURAMACHI","perfecture_jp":"福岡県","jp_add_1":"北九州市若松区","jp_add_2":"小石本村町"},"8080046":{"post_code":"8080046","prefecture":"FUKUOKA KEN","city":"KITAKYUSHU SHI WAKAMATSU KU","town":"KOITOMACHI","perfecture_jp":"福岡県","jp_add_1":"北九州市若松区","jp_add_2":"小糸町"},"8080002":{"post_code":"8080002","prefecture":"FUKUOKA KEN","city":"KITAKYUSHU SHI WAKAMATSU KU","town":"KOYOMACHI","perfecture_jp":"福岡県","jp_add_1":"北九州市若松区","jp_add_2":"向洋町"},"8080132":{"post_code":"8080132","prefecture":"FUKUOKA KEN","city":"KITAKYUSHU SHI WAKAMATSU KU","town":"KOSHIKI","perfecture_jp":"福岡県","jp_add_1":"北九州市若松区","jp_add_2":"小敷"},"8080139":{"post_code":"8080139","prefecture":"FUKUOKA KEN","city":"KITAKYUSHU SHI WAKAMATSU KU","town":"KOSHIKIHIBIKINO","perfecture_jp":"福岡県","jp_add_1":"北九州市若松区","jp_add_2":"小敷ひびきの"},"8080026":{"post_code":"8080026","prefecture":"FUKUOKA KEN","city":"KITAKYUSHU SHI WAKAMATSU KU","town":"SAKURAMACHI","perfecture_jp":"福岡県","jp_add_1":"北九州市若松区","jp_add_2":"桜町"},"8080041":{"post_code":"8080041","prefecture":"FUKUOKA KEN","city":"KITAKYUSHU SHI WAKAMATSU KU","town":"SAKODAMACHI","perfecture_jp":"福岡県","jp_add_1":"北九州市若松区","jp_add_2":"迫田町"},"8080131":{"post_code":"8080131","prefecture":"FUKUOKA KEN","city":"KITAKYUSHU SHI WAKAMATSU KU","town":"SHIOYA","perfecture_jp":"福岡県","jp_add_1":"北九州市若松区","jp_add_2":"塩屋"},"8080005":{"post_code":"8080005","prefecture":"FUKUOKA KEN","city":"KITAKYUSHU SHI WAKAMATSU KU","town":"SHIMOHARAMACHI","perfecture_jp":"福岡県","jp_add_1":"北九州市若松区","jp_add_2":"下原町"},"8080052":{"post_code":"8080052","prefecture":"FUKUOKA KEN","city":"KITAKYUSHU SHI WAKAMATSU KU","town":"SHINOTANIMACHI","perfecture_jp":"福岡県","jp_add_1":"北九州市若松区","jp_add_2":"新大谷町"},"8080053":{"post_code":"8080053","prefecture":"FUKUOKA KEN","city":"KITAKYUSHU SHI WAKAMATSU KU","town":"SUTARA","perfecture_jp":"福岡県","jp_add_1":"北九州市若松区","jp_add_2":"修多羅"},"8080148":{"post_code":"8080148","prefecture":"FUKUOKA KEN","city":"KITAKYUSHU SHI WAKAMATSU KU","town":"TAKASU","perfecture_jp":"福岡県","jp_add_1":"北九州市若松区","jp_add_2":"高須"},"8080144":{"post_code":"8080144","prefecture":"FUKUOKA KEN","city":"KITAKYUSHU SHI WAKAMATSU KU","town":"TAKASU HIGASHI","perfecture_jp":"福岡県","jp_add_1":"北九州市若松区","jp_add_2":"高須東"},"8080146":{"post_code":"8080146","prefecture":"FUKUOKA KEN","city":"KITAKYUSHU SHI WAKAMATSU KU","town":"TAKASU NISHI","perfecture_jp":"福岡県","jp_add_1":"北九州市若松区","jp_add_2":"高須西"},"8080145":{"post_code":"8080145","prefecture":"FUKUOKA KEN","city":"KITAKYUSHU SHI WAKAMATSU KU","town":"TAKASU MINAMI","perfecture_jp":"福岡県","jp_add_1":"北九州市若松区","jp_add_2":"高須南"},"8080147":{"post_code":"8080147","prefecture":"FUKUOKA KEN","city":"KITAKYUSHU SHI WAKAMATSU KU","town":"TAKASU KITA","perfecture_jp":"福岡県","jp_add_1":"北九州市若松区","jp_add_2":"高須北"},"8080121":{"post_code":"8080121","prefecture":"FUKUOKA KEN","city":"KITAKYUSHU SHI WAKAMATSU KU","town":"TAKENAMI","perfecture_jp":"福岡県","jp_add_1":"北九州市若松区","jp_add_2":"竹並"},"8080042":{"post_code":"8080042","prefecture":"FUKUOKA KEN","city":"KITAKYUSHU SHI WAKAMATSU KU","town":"TANADAMACHI","perfecture_jp":"福岡県","jp_add_1":"北九州市若松区","jp_add_2":"棚田町"},"8080076":{"post_code":"8080076","prefecture":"FUKUOKA KEN","city":"KITAKYUSHU SHI WAKAMATSU KU","town":"DOJIMARU","perfecture_jp":"福岡県","jp_add_1":"北九州市若松区","jp_add_2":"童子丸"},"8080112":{"post_code":"8080112","prefecture":"FUKUOKA KEN","city":"KITAKYUSHU SHI WAKAMATSU KU","town":"TONDA","perfecture_jp":"福岡県","jp_add_1":"北九州市若松区","jp_add_2":"頓田"},"8080025":{"post_code":"8080025","prefecture":"FUKUOKA KEN","city":"KITAKYUSHU SHI WAKAMATSU KU","town":"NAKAGAWAMACHI","perfecture_jp":"福岡県","jp_add_1":"北九州市若松区","jp_add_2":"中川町"},"8080047":{"post_code":"8080047","prefecture":"FUKUOKA KEN","city":"KITAKYUSHU SHI WAKAMATSU KU","town":"NAKAHATAMACHI","perfecture_jp":"福岡県","jp_add_1":"北九州市若松区","jp_add_2":"中畑町"},"8080013":{"post_code":"8080013","prefecture":"FUKUOKA KEN","city":"KITAKYUSHU SHI WAKAMATSU KU","town":"NAMIUCHIMACHI","perfecture_jp":"福岡県","jp_add_1":"北九州市若松区","jp_add_2":"波打町"},"8080004":{"post_code":"8080004","prefecture":"FUKUOKA KEN","city":"KITAKYUSHU SHI WAKAMATSU KU","town":"NISHIKOISHIMACHI","perfecture_jp":"福岡県","jp_add_1":"北九州市若松区","jp_add_2":"西小石町"},"8080031":{"post_code":"8080031","prefecture":"FUKUOKA KEN","city":"KITAKYUSHU SHI WAKAMATSU KU","town":"NISHIZONOMACHI","perfecture_jp":"福岡県","jp_add_1":"北九州市若松区","jp_add_2":"西園町"},"8080101":{"post_code":"8080101","prefecture":"FUKUOKA KEN","city":"KITAKYUSHU SHI WAKAMATSU KU","town":"NISHITENJIMMACHI","perfecture_jp":"福岡県","jp_add_1":"北九州市若松区","jp_add_2":"西天神町"},"8080043":{"post_code":"8080043","prefecture":"FUKUOKA KEN","city":"KITAKYUSHU SHI WAKAMATSU KU","town":"NISHIHATAMACHI","perfecture_jp":"福岡県","jp_add_1":"北九州市若松区","jp_add_2":"西畑町"},"8080035":{"post_code":"8080035","prefecture":"FUKUOKA KEN","city":"KITAKYUSHU SHI WAKAMATSU KU","town":"HAKUSAN","perfecture_jp":"福岡県","jp_add_1":"北九州市若松区","jp_add_2":"白山"},"8080104":{"post_code":"8080104","prefecture":"FUKUOKA KEN","city":"KITAKYUSHU SHI WAKAMATSU KU","town":"HATAKEDA","perfecture_jp":"福岡県","jp_add_1":"北九州市若松区","jp_add_2":"畠田"},"8080055":{"post_code":"8080055","prefecture":"FUKUOKA KEN","city":"KITAKYUSHU SHI WAKAMATSU KU","town":"HATADANIMACHI","perfecture_jp":"福岡県","jp_add_1":"北九州市若松区","jp_add_2":"畑谷町"},"8080136":{"post_code":"8080136","prefecture":"FUKUOKA KEN","city":"KITAKYUSHU SHI WAKAMATSU KU","town":"HANANOJI","perfecture_jp":"福岡県","jp_add_1":"北九州市若松区","jp_add_2":"花野路"},"8080024":{"post_code":"8080024","prefecture":"FUKUOKA KEN","city":"KITAKYUSHU SHI WAKAMATSU KU","town":"HAMAMACHI","perfecture_jp":"福岡県","jp_add_1":"北九州市若松区","jp_add_2":"浜町"},"8080113":{"post_code":"8080113","prefecture":"FUKUOKA KEN","city":"KITAKYUSHU SHI WAKAMATSU KU","town":"HARAIGAWA","perfecture_jp":"福岡県","jp_add_1":"北九州市若松区","jp_add_2":"払川"},"8080016":{"post_code":"8080016","prefecture":"FUKUOKA KEN","city":"KITAKYUSHU SHI WAKAMATSU KU","town":"HARAMACHI","perfecture_jp":"福岡県","jp_add_1":"北九州市若松区","jp_add_2":"原町"},"8080017":{"post_code":"8080017","prefecture":"FUKUOKA KEN","city":"KITAKYUSHU SHI WAKAMATSU KU","town":"HIGASHIKOISHIMACHI","perfecture_jp":"福岡県","jp_add_1":"北九州市若松区","jp_add_2":"東小石町"},"8080044":{"post_code":"8080044","prefecture":"FUKUOKA KEN","city":"KITAKYUSHU SHI WAKAMATSU KU","town":"HIGASHIHATAMACHI","perfecture_jp":"福岡県","jp_add_1":"北九州市若松区","jp_add_2":"東畑町"},"8080102":{"post_code":"8080102","prefecture":"FUKUOKA KEN","city":"KITAKYUSHU SHI WAKAMATSU KU","town":"HIGASHIFUTAJIMA","perfecture_jp":"福岡県","jp_add_1":"北九州市若松区","jp_add_2":"東二島"},"8080135":{"post_code":"8080135","prefecture":"FUKUOKA KEN","city":"KITAKYUSHU SHI WAKAMATSU KU","town":"HIBIKINO","perfecture_jp":"福岡県","jp_add_1":"北九州市若松区","jp_add_2":"ひびきの"},"8080138":{"post_code":"8080138","prefecture":"FUKUOKA KEN","city":"KITAKYUSHU SHI WAKAMATSU KU","town":"HIBIKINOKITA","perfecture_jp":"福岡県","jp_add_1":"北九州市若松区","jp_add_2":"ひびきの北"},"8080137":{"post_code":"8080137","prefecture":"FUKUOKA KEN","city":"KITAKYUSHU SHI WAKAMATSU KU","town":"HIBIKINOMINAMI","perfecture_jp":"福岡県","jp_add_1":"北九州市若松区","jp_add_2":"ひびきの南"},"8080021":{"post_code":"8080021","prefecture":"FUKUOKA KEN","city":"KITAKYUSHU SHI WAKAMATSU KU","town":"HIBIKIMACHI","perfecture_jp":"福岡県","jp_add_1":"北九州市若松区","jp_add_2":"響町"},"8080012":{"post_code":"8080012","prefecture":"FUKUOKA KEN","city":"KITAKYUSHU SHI WAKAMATSU KU","town":"FUKAMACHI","perfecture_jp":"福岡県","jp_add_1":"北九州市若松区","jp_add_2":"深町"},"8080065":{"post_code":"8080065","prefecture":"FUKUOKA KEN","city":"KITAKYUSHU SHI WAKAMATSU KU","town":"FUJINOKI","perfecture_jp":"福岡県","jp_add_1":"北九州市若松区","jp_add_2":"藤木"},"8080074":{"post_code":"8080074","prefecture":"FUKUOKA KEN","city":"KITAKYUSHU SHI WAKAMATSU KU","town":"FUJINOKI","perfecture_jp":"福岡県","jp_add_1":"北九州市若松区","jp_add_2":"藤ノ木"},"8080103":{"post_code":"8080103","prefecture":"FUKUOKA KEN","city":"KITAKYUSHU SHI WAKAMATSU KU","town":"FUTAJIMA","perfecture_jp":"福岡県","jp_add_1":"北九州市若松区","jp_add_2":"二島"},"8080062":{"post_code":"8080062","prefecture":"FUKUOKA KEN","city":"KITAKYUSHU SHI WAKAMATSU KU","town":"FURUMAE","perfecture_jp":"福岡県","jp_add_1":"北九州市若松区","jp_add_2":"古前"},"8080034":{"post_code":"8080034","prefecture":"FUKUOKA KEN","city":"KITAKYUSHU SHI WAKAMATSU KU","town":"HOMMACHI","perfecture_jp":"福岡県","jp_add_1":"北九州市若松区","jp_add_2":"本町"},"8080109":{"post_code":"8080109","prefecture":"FUKUOKA KEN","city":"KITAKYUSHU SHI WAKAMATSU KU","town":"MINAMIFUTAJIMA","perfecture_jp":"福岡県","jp_add_1":"北九州市若松区","jp_add_2":"南二島"},"8080006":{"post_code":"8080006","prefecture":"FUKUOKA KEN","city":"KITAKYUSHU SHI WAKAMATSU KU","town":"MIYAMAEMACHI","perfecture_jp":"福岡県","jp_add_1":"北九州市若松区","jp_add_2":"宮前町"},"8080064":{"post_code":"8080064","prefecture":"FUKUOKA KEN","city":"KITAKYUSHU SHI WAKAMATSU KU","town":"MIYAMARU","perfecture_jp":"福岡県","jp_add_1":"北九州市若松区","jp_add_2":"宮丸"},"8080111":{"post_code":"8080111","prefecture":"FUKUOKA KEN","city":"KITAKYUSHU SHI WAKAMATSU KU","town":"YANAGASAKIMACHI","perfecture_jp":"福岡県","jp_add_1":"北九州市若松区","jp_add_2":"柳崎町"},"8080036":{"post_code":"8080036","prefecture":"FUKUOKA KEN","city":"KITAKYUSHU SHI WAKAMATSU KU","town":"YAMATEMACHI","perfecture_jp":"福岡県","jp_add_1":"北九州市若松区","jp_add_2":"山手町"},"8080045":{"post_code":"8080045","prefecture":"FUKUOKA KEN","city":"KITAKYUSHU SHI WAKAMATSU KU","town":"YAMANODOMACHI","perfecture_jp":"福岡県","jp_add_1":"北九州市若松区","jp_add_2":"山ノ堂町"},"8080072":{"post_code":"8080072","prefecture":"FUKUOKA KEN","city":"KITAKYUSHU SHI WAKAMATSU KU","town":"YURINOMACHI","perfecture_jp":"福岡県","jp_add_1":"北九州市若松区","jp_add_2":"百合野町"},"8080077":{"post_code":"8080077","prefecture":"FUKUOKA KEN","city":"KITAKYUSHU SHI WAKAMATSU KU","town":"YOJAKUMACHI","perfecture_jp":"福岡県","jp_add_1":"北九州市若松区","jp_add_2":"用勺町"},"8080063":{"post_code":"8080063","prefecture":"FUKUOKA KEN","city":"KITAKYUSHU SHI WAKAMATSU KU","town":"WADAMACHI","perfecture_jp":"福岡県","jp_add_1":"北九州市若松区","jp_add_2":"和田町"}}