{"8090000":{"post_code":"8090000","prefecture":"FUKUOKA KEN","city":"NAKAMA SHI","town":"IKANIKEISAIGANAIBAAI","perfecture_jp":"福岡県","jp_add_1":"中間市","jp_add_2":""},"8090021":{"post_code":"8090021","prefecture":"FUKUOKA KEN","city":"NAKAMA SHI","town":"ASAGIRI","perfecture_jp":"福岡県","jp_add_1":"中間市","jp_add_2":"朝霧"},"8090024":{"post_code":"8090024","prefecture":"FUKUOKA KEN","city":"NAKAMA SHI","town":"IKEDA","perfecture_jp":"福岡県","jp_add_1":"中間市","jp_add_2":"池田"},"8090011":{"post_code":"8090011","prefecture":"FUKUOKA KEN","city":"NAKAMA SHI","town":"IWASE","perfecture_jp":"福岡県","jp_add_1":"中間市","jp_add_2":"岩瀬"},"8090041":{"post_code":"8090041","prefecture":"FUKUOKA KEN","city":"NAKAMA SHI","town":"IWASE NISHIMACHI","perfecture_jp":"福岡県","jp_add_1":"中間市","jp_add_2":"岩瀬西町"},"8090023":{"post_code":"8090023","prefecture":"FUKUOKA KEN","city":"NAKAMA SHI","town":"OGIGAURA","perfecture_jp":"福岡県","jp_add_1":"中間市","jp_add_2":"扇ケ浦"},"8090026":{"post_code":"8090026","prefecture":"FUKUOKA KEN","city":"NAKAMA SHI","town":"OTSUJIMACHI","perfecture_jp":"福岡県","jp_add_1":"中間市","jp_add_2":"大辻町"},"8090039":{"post_code":"8090039","prefecture":"FUKUOKA KEN","city":"NAKAMA SHI","town":"ONETO","perfecture_jp":"福岡県","jp_add_1":"中間市","jp_add_2":"大根土"},"8090031":{"post_code":"8090031","prefecture":"FUKUOKA KEN","city":"NAKAMA SHI","town":"ODAGAURA","perfecture_jp":"福岡県","jp_add_1":"中間市","jp_add_2":"小田ケ浦"},"8090003":{"post_code":"8090003","prefecture":"FUKUOKA KEN","city":"NAKAMA SHI","town":"KAMISOKOINO","perfecture_jp":"福岡県","jp_add_1":"中間市","jp_add_2":"上底井野"},"8090013":{"post_code":"8090013","prefecture":"FUKUOKA KEN","city":"NAKAMA SHI","town":"KAMIRENGEJI","perfecture_jp":"福岡県","jp_add_1":"中間市","jp_add_2":"上蓮花寺"},"8090017":{"post_code":"8090017","prefecture":"FUKUOKA KEN","city":"NAKAMA SHI","town":"SAKURADAI","perfecture_jp":"福岡県","jp_add_1":"中間市","jp_add_2":"桜台"},"8090004":{"post_code":"8090004","prefecture":"FUKUOKA KEN","city":"NAKAMA SHI","town":"SHIMOOKUMA","perfecture_jp":"福岡県","jp_add_1":"中間市","jp_add_2":"下大隈"},"8090012":{"post_code":"8090012","prefecture":"FUKUOKA KEN","city":"NAKAMA SHI","town":"SHIMORENGEJI","perfecture_jp":"福岡県","jp_add_1":"中間市","jp_add_2":"下蓮花寺"},"8090038":{"post_code":"8090038","prefecture":"FUKUOKA KEN","city":"NAKAMA SHI","town":"JOKAMACHI","perfecture_jp":"福岡県","jp_add_1":"中間市","jp_add_2":"浄花町"},"8090015":{"post_code":"8090015","prefecture":"FUKUOKA KEN","city":"NAKAMA SHI","town":"TAGA","perfecture_jp":"福岡県","jp_add_1":"中間市","jp_add_2":"太賀"},"8090030":{"post_code":"8090030","prefecture":"FUKUOKA KEN","city":"NAKAMA SHI","town":"CHUO","perfecture_jp":"福岡県","jp_add_1":"中間市","jp_add_2":"中央"},"8090018":{"post_code":"8090018","prefecture":"FUKUOKA KEN","city":"NAKAMA SHI","town":"TORITANI","perfecture_jp":"福岡県","jp_add_1":"中間市","jp_add_2":"通谷"},"8090033":{"post_code":"8090033","prefecture":"FUKUOKA KEN","city":"NAKAMA SHI","town":"DOTENOCHI","perfecture_jp":"福岡県","jp_add_1":"中間市","jp_add_2":"土手ノ内"},"8090032":{"post_code":"8090032","prefecture":"FUKUOKA KEN","city":"NAKAMA SHI","town":"NAKAO","perfecture_jp":"福岡県","jp_add_1":"中間市","jp_add_2":"中尾"},"8090002":{"post_code":"8090002","prefecture":"FUKUOKA KEN","city":"NAKAMA SHI","town":"NAKASOKOINO","perfecture_jp":"福岡県","jp_add_1":"中間市","jp_add_2":"中底井野"},"8090036":{"post_code":"8090036","prefecture":"FUKUOKA KEN","city":"NAKAMA SHI","town":"NAGATSU","perfecture_jp":"福岡県","jp_add_1":"中間市","jp_add_2":"長津"},"8090037":{"post_code":"8090037","prefecture":"FUKUOKA KEN","city":"NAKAMA SHI","town":"NAKAZURU","perfecture_jp":"福岡県","jp_add_1":"中間市","jp_add_2":"中鶴"},"8090034":{"post_code":"8090034","prefecture":"FUKUOKA KEN","city":"NAKAMA SHI","town":"NAKAMA","perfecture_jp":"福岡県","jp_add_1":"中間市","jp_add_2":"中間"},"8090027":{"post_code":"8090027","prefecture":"FUKUOKA KEN","city":"NAKAMA SHI","town":"NANAEMACHI","perfecture_jp":"福岡県","jp_add_1":"中間市","jp_add_2":"七重町"},"8090022":{"post_code":"8090022","prefecture":"FUKUOKA KEN","city":"NAKAMA SHI","town":"NABEYAMAMACHI","perfecture_jp":"福岡県","jp_add_1":"中間市","jp_add_2":"鍋山町"},"8090001":{"post_code":"8090001","prefecture":"FUKUOKA KEN","city":"NAKAMA SHI","town":"HABU","perfecture_jp":"福岡県","jp_add_1":"中間市","jp_add_2":"垣生"},"8090019":{"post_code":"8090019","prefecture":"FUKUOKA KEN","city":"NAKAMA SHI","town":"HIGASHINAKAMA","perfecture_jp":"福岡県","jp_add_1":"中間市","jp_add_2":"東中間"},"8090025":{"post_code":"8090025","prefecture":"FUKUOKA KEN","city":"NAKAMA SHI","town":"FUKASAKA","perfecture_jp":"福岡県","jp_add_1":"中間市","jp_add_2":"深坂"},"8090016":{"post_code":"8090016","prefecture":"FUKUOKA KEN","city":"NAKAMA SHI","town":"HOSHIGAOKA","perfecture_jp":"福岡県","jp_add_1":"中間市","jp_add_2":"星ケ丘"},"8090035":{"post_code":"8090035","prefecture":"FUKUOKA KEN","city":"NAKAMA SHI","town":"MATSUGAOKA","perfecture_jp":"福岡県","jp_add_1":"中間市","jp_add_2":"松ケ岡"},"8090028":{"post_code":"8090028","prefecture":"FUKUOKA KEN","city":"NAKAMA SHI","town":"YAYOI","perfecture_jp":"福岡県","jp_add_1":"中間市","jp_add_2":"弥生"},"8090014":{"post_code":"8090014","prefecture":"FUKUOKA KEN","city":"NAKAMA SHI","town":"RENGEJI","perfecture_jp":"福岡県","jp_add_1":"中間市","jp_add_2":"蓮花寺"}}