{"8100801":{"post_code":"8100801","prefecture":"FUKUOKA KEN","city":"FUKUOKA SHI HAKATA KU","town":"NAKASU","perfecture_jp":"福岡県","jp_add_1":"福岡市博多区","jp_add_2":"中洲"},"8100802":{"post_code":"8100802","prefecture":"FUKUOKA KEN","city":"FUKUOKA SHI HAKATA KU","town":"NAKASUNAKASHIMAMACHI","perfecture_jp":"福岡県","jp_add_1":"福岡市博多区","jp_add_2":"中洲中島町"},"8100000":{"post_code":"8100000","prefecture":"FUKUOKA KEN","city":"FUKUOKA SHI CHUO KU","town":"IKANIKEISAIGANAIBAAI","perfecture_jp":"福岡県","jp_add_1":"福岡市中央区","jp_add_2":""},"8100042":{"post_code":"8100042","prefecture":"FUKUOKA KEN","city":"FUKUOKA SHI CHUO KU","town":"AKASAKA","perfecture_jp":"福岡県","jp_add_1":"福岡市中央区","jp_add_2":"赤坂"},"8100076":{"post_code":"8100076","prefecture":"FUKUOKA KEN","city":"FUKUOKA SHI CHUO KU","town":"ARATSU","perfecture_jp":"福岡県","jp_add_1":"福岡市中央区","jp_add_2":"荒津"},"8100062":{"post_code":"8100062","prefecture":"FUKUOKA KEN","city":"FUKUOKA SHI CHUO KU","town":"ARATO","perfecture_jp":"福岡県","jp_add_1":"福岡市中央区","jp_add_2":"荒戸"},"8100067":{"post_code":"8100067","prefecture":"FUKUOKA KEN","city":"FUKUOKA SHI CHUO KU","town":"IZAKI","perfecture_jp":"福岡県","jp_add_1":"福岡市中央区","jp_add_2":"伊崎"},"8100021":{"post_code":"8100021","prefecture":"FUKUOKA KEN","city":"FUKUOKA SHI CHUO KU","town":"IMAIZUMI","perfecture_jp":"福岡県","jp_add_1":"福岡市中央区","jp_add_2":"今泉"},"8100054":{"post_code":"8100054","prefecture":"FUKUOKA KEN","city":"FUKUOKA SHI CHUO KU","town":"IMAGAWA","perfecture_jp":"福岡県","jp_add_1":"福岡市中央区","jp_add_2":"今川"},"8100074":{"post_code":"8100074","prefecture":"FUKUOKA KEN","city":"FUKUOKA SHI CHUO KU","town":"OTEMON","perfecture_jp":"福岡県","jp_add_1":"福岡市中央区","jp_add_2":"大手門"},"8100052":{"post_code":"8100052","prefecture":"FUKUOKA KEN","city":"FUKUOKA SHI CHUO KU","town":"OHORI","perfecture_jp":"福岡県","jp_add_1":"福岡市中央区","jp_add_2":"大濠"},"8100051":{"post_code":"8100051","prefecture":"FUKUOKA KEN","city":"FUKUOKA SHI CHUO KU","town":"OHORIKOEN","perfecture_jp":"福岡県","jp_add_1":"福岡市中央区","jp_add_2":"大濠公園"},"8100013":{"post_code":"8100013","prefecture":"FUKUOKA KEN","city":"FUKUOKA SHI CHUO KU","town":"OMIYA","perfecture_jp":"福岡県","jp_add_1":"福岡市中央区","jp_add_2":"大宮"},"8100033":{"post_code":"8100033","prefecture":"FUKUOKA KEN","city":"FUKUOKA SHI CHUO KU","town":"OZASA","perfecture_jp":"福岡県","jp_add_1":"福岡市中央区","jp_add_2":"小笹"},"8100005":{"post_code":"8100005","prefecture":"FUKUOKA KEN","city":"FUKUOKA SHI CHUO KU","town":"KIYOKAWA","perfecture_jp":"福岡県","jp_add_1":"福岡市中央区","jp_add_2":"清川"},"8100045":{"post_code":"8100045","prefecture":"FUKUOKA KEN","city":"FUKUOKA SHI CHUO KU","town":"KUSAGAE","perfecture_jp":"福岡県","jp_add_1":"福岡市中央区","jp_add_2":"草香江"},"8100055":{"post_code":"8100055","prefecture":"FUKUOKA KEN","city":"FUKUOKA SHI CHUO KU","town":"KUROMON","perfecture_jp":"福岡県","jp_add_1":"福岡市中央区","jp_add_2":"黒門"},"8100023":{"post_code":"8100023","prefecture":"FUKUOKA KEN","city":"FUKUOKA SHI CHUO KU","town":"KEGO","perfecture_jp":"福岡県","jp_add_1":"福岡市中央区","jp_add_2":"警固"},"8100027":{"post_code":"8100027","prefecture":"FUKUOKA KEN","city":"FUKUOKA SHI CHUO KU","town":"GOSHOGADANI","perfecture_jp":"福岡県","jp_add_1":"福岡市中央区","jp_add_2":"御所ケ谷"},"8100024":{"post_code":"8100024","prefecture":"FUKUOKA KEN","city":"FUKUOKA SHI CHUO KU","town":"SAKURAZAKA","perfecture_jp":"福岡県","jp_add_1":"福岡市中央区","jp_add_2":"桜坂"},"8100034":{"post_code":"8100034","prefecture":"FUKUOKA KEN","city":"FUKUOKA SHI CHUO KU","town":"SASAOKA","perfecture_jp":"福岡県","jp_add_1":"福岡市中央区","jp_add_2":"笹丘"},"8100018":{"post_code":"8100018","prefecture":"FUKUOKA KEN","city":"FUKUOKA SHI CHUO KU","town":"SANSODORI","perfecture_jp":"福岡県","jp_add_1":"福岡市中央区","jp_add_2":"山荘通"},"8100028":{"post_code":"8100028","prefecture":"FUKUOKA KEN","city":"FUKUOKA SHI CHUO KU","town":"JOSUIDORI","perfecture_jp":"福岡県","jp_add_1":"福岡市中央区","jp_add_2":"浄水通"},"8100043":{"post_code":"8100043","prefecture":"FUKUOKA KEN","city":"FUKUOKA SHI CHUO KU","town":"JONAI","perfecture_jp":"福岡県","jp_add_1":"福岡市中央区","jp_add_2":"城内"},"8100012":{"post_code":"8100012","prefecture":"FUKUOKA KEN","city":"FUKUOKA SHI CHUO KU","town":"SHIROGANE","perfecture_jp":"福岡県","jp_add_1":"福岡市中央区","jp_add_2":"白金"},"8100064":{"post_code":"8100064","prefecture":"FUKUOKA KEN","city":"FUKUOKA SHI CHUO KU","town":"JIGYO","perfecture_jp":"福岡県","jp_add_1":"福岡市中央区","jp_add_2":"地行"},"8100065":{"post_code":"8100065","prefecture":"FUKUOKA KEN","city":"FUKUOKA SHI CHUO KU","town":"JIGYOHAMA","perfecture_jp":"福岡県","jp_add_1":"福岡市中央区","jp_add_2":"地行浜"},"8100041":{"post_code":"8100041","prefecture":"FUKUOKA KEN","city":"FUKUOKA SHI CHUO KU","town":"DAIMYO","perfecture_jp":"福岡県","jp_add_1":"福岡市中央区","jp_add_2":"大名"},"8100011":{"post_code":"8100011","prefecture":"FUKUOKA KEN","city":"FUKUOKA SHI CHUO KU","town":"TAKASAGO","perfecture_jp":"福岡県","jp_add_1":"福岡市中央区","jp_add_2":"高砂"},"8100031":{"post_code":"8100031","prefecture":"FUKUOKA KEN","city":"FUKUOKA SHI CHUO KU","town":"TANI","perfecture_jp":"福岡県","jp_add_1":"福岡市中央区","jp_add_2":"谷"},"8100032":{"post_code":"8100032","prefecture":"FUKUOKA KEN","city":"FUKUOKA SHI CHUO KU","town":"TERUKUNI","perfecture_jp":"福岡県","jp_add_1":"福岡市中央区","jp_add_2":"輝国"},"8100001":{"post_code":"8100001","prefecture":"FUKUOKA KEN","city":"FUKUOKA SHI CHUO KU","town":"TENJIN","perfecture_jp":"福岡県","jp_add_1":"福岡市中央区","jp_add_2":"天神"},"8100063":{"post_code":"8100063","prefecture":"FUKUOKA KEN","city":"FUKUOKA SHI CHUO KU","town":"TOJIMMACHI","perfecture_jp":"福岡県","jp_add_1":"福岡市中央区","jp_add_2":"唐人町"},"8100053":{"post_code":"8100053","prefecture":"FUKUOKA KEN","city":"FUKUOKA SHI CHUO KU","town":"TORIKAI","perfecture_jp":"福岡県","jp_add_1":"福岡市中央区","jp_add_2":"鳥飼"},"8100072":{"post_code":"8100072","prefecture":"FUKUOKA KEN","city":"FUKUOKA SHI CHUO KU","town":"NAGAHAMA","perfecture_jp":"福岡県","jp_add_1":"福岡市中央区","jp_add_2":"長浜"},"8100015":{"post_code":"8100015","prefecture":"FUKUOKA KEN","city":"FUKUOKA SHI CHUO KU","town":"NANOKAWA","perfecture_jp":"福岡県","jp_add_1":"福岡市中央区","jp_add_2":"那の川"},"8100071":{"post_code":"8100071","prefecture":"FUKUOKA KEN","city":"FUKUOKA SHI CHUO KU","town":"NANOTSU","perfecture_jp":"福岡県","jp_add_1":"福岡市中央区","jp_add_2":"那の津"},"8100061":{"post_code":"8100061","prefecture":"FUKUOKA KEN","city":"FUKUOKA SHI CHUO KU","town":"NISHIKOEN","perfecture_jp":"福岡県","jp_add_1":"福岡市中央区","jp_add_2":"西公園"},"8100002":{"post_code":"8100002","prefecture":"FUKUOKA KEN","city":"FUKUOKA SHI CHUO KU","town":"NISHINAKASU","perfecture_jp":"福岡県","jp_add_1":"福岡市中央区","jp_add_2":"西中洲"},"8100035":{"post_code":"8100035","prefecture":"FUKUOKA KEN","city":"FUKUOKA SHI CHUO KU","town":"BAIKOEN","perfecture_jp":"福岡県","jp_add_1":"福岡市中央区","jp_add_2":"梅光園"},"8100036":{"post_code":"8100036","prefecture":"FUKUOKA KEN","city":"FUKUOKA SHI CHUO KU","town":"BAIKOENDANCHI","perfecture_jp":"福岡県","jp_add_1":"福岡市中央区","jp_add_2":"梅光園団地"},"8100003":{"post_code":"8100003","prefecture":"FUKUOKA KEN","city":"FUKUOKA SHI CHUO KU","town":"HARUYOSHI","perfecture_jp":"福岡県","jp_add_1":"福岡市中央区","jp_add_2":"春吉"},"8100014":{"post_code":"8100014","prefecture":"FUKUOKA KEN","city":"FUKUOKA SHI CHUO KU","town":"HIRAO","perfecture_jp":"福岡県","jp_add_1":"福岡市中央区","jp_add_2":"平尾"},"8100017":{"post_code":"8100017","prefecture":"FUKUOKA KEN","city":"FUKUOKA SHI CHUO KU","town":"HIRAOKAMACHI","perfecture_jp":"福岡県","jp_add_1":"福岡市中央区","jp_add_2":"平丘町"},"8100029":{"post_code":"8100029","prefecture":"FUKUOKA KEN","city":"FUKUOKA SHI CHUO KU","town":"HIRAOJOSUIMACHI","perfecture_jp":"福岡県","jp_add_1":"福岡市中央区","jp_add_2":"平尾浄水町"},"8100066":{"post_code":"8100066","prefecture":"FUKUOKA KEN","city":"FUKUOKA SHI CHUO KU","town":"FUKUHAMA","perfecture_jp":"福岡県","jp_add_1":"福岡市中央区","jp_add_2":"福浜"},"8100026":{"post_code":"8100026","prefecture":"FUKUOKA KEN","city":"FUKUOKA SHI CHUO KU","town":"FURUKOGARASUMACHI","perfecture_jp":"福岡県","jp_add_1":"福岡市中央区","jp_add_2":"古小烏町"},"8100016":{"post_code":"8100016","prefecture":"FUKUOKA KEN","city":"FUKUOKA SHI CHUO KU","town":"HEIWA","perfecture_jp":"福岡県","jp_add_1":"福岡市中央区","jp_add_2":"平和"},"8100073":{"post_code":"8100073","prefecture":"FUKUOKA KEN","city":"FUKUOKA SHI CHUO KU","town":"MAIZURU","perfecture_jp":"福岡県","jp_add_1":"福岡市中央区","jp_add_2":"舞鶴"},"8100075":{"post_code":"8100075","prefecture":"FUKUOKA KEN","city":"FUKUOKA SHI CHUO KU","town":"MINATO","perfecture_jp":"福岡県","jp_add_1":"福岡市中央区","jp_add_2":"港"},"8100037":{"post_code":"8100037","prefecture":"FUKUOKA KEN","city":"FUKUOKA SHI CHUO KU","town":"MINAMIKOEN","perfecture_jp":"福岡県","jp_add_1":"福岡市中央区","jp_add_2":"南公園"},"8100022":{"post_code":"8100022","prefecture":"FUKUOKA KEN","city":"FUKUOKA SHI CHUO KU","town":"YAKUIN","perfecture_jp":"福岡県","jp_add_1":"福岡市中央区","jp_add_2":"薬院"},"8100025":{"post_code":"8100025","prefecture":"FUKUOKA KEN","city":"FUKUOKA SHI CHUO KU","town":"YAKUINIFUKUMACHI","perfecture_jp":"福岡県","jp_add_1":"福岡市中央区","jp_add_2":"薬院伊福町"},"8100044":{"post_code":"8100044","prefecture":"FUKUOKA KEN","city":"FUKUOKA SHI CHUO KU","town":"ROPPOMMATSU","perfecture_jp":"福岡県","jp_add_1":"福岡市中央区","jp_add_2":"六本松"},"8100004":{"post_code":"8100004","prefecture":"FUKUOKA KEN","city":"FUKUOKA SHI CHUO KU","town":"WATANABEDORI","perfecture_jp":"福岡県","jp_add_1":"福岡市中央区","jp_add_2":"渡辺通"}}