{"8180000":{"post_code":"8180000","prefecture":"FUKUOKA KEN","city":"CHIKUSHINO SHI","town":"IKANIKEISAIGANAIBAAI","perfecture_jp":"福岡県","jp_add_1":"筑紫野市","jp_add_2":""},"8180011":{"post_code":"8180011","prefecture":"FUKUOKA KEN","city":"CHIKUSHINO SHI","town":"ASHIKI","perfecture_jp":"福岡県","jp_add_1":"筑紫野市","jp_add_2":"阿志岐"},"8180012":{"post_code":"8180012","prefecture":"FUKUOKA KEN","city":"CHIKUSHINO SHI","town":"AMAYAMA","perfecture_jp":"福岡県","jp_add_1":"筑紫野市","jp_add_2":"天山"},"8180068":{"post_code":"8180068","prefecture":"FUKUOKA KEN","city":"CHIKUSHINO SHI","town":"ISHIZAKI","perfecture_jp":"福岡県","jp_add_1":"筑紫野市","jp_add_2":"石崎"},"8180014":{"post_code":"8180014","prefecture":"FUKUOKA KEN","city":"CHIKUSHINO SHI","town":"USHIJIMA","perfecture_jp":"福岡県","jp_add_1":"筑紫野市","jp_add_2":"牛島"},"8180034":{"post_code":"8180034","prefecture":"FUKUOKA KEN","city":"CHIKUSHINO SHI","town":"UTSUKUSHIGAOKA MINAMI","perfecture_jp":"福岡県","jp_add_1":"筑紫野市","jp_add_2":"美しが丘南"},"8180035":{"post_code":"8180035","prefecture":"FUKUOKA KEN","city":"CHIKUSHINO SHI","town":"UTSUKUSHIGAOKA KITA","perfecture_jp":"福岡県","jp_add_1":"筑紫野市","jp_add_2":"美しが丘北"},"8180033":{"post_code":"8180033","prefecture":"FUKUOKA KEN","city":"CHIKUSHINO SHI","town":"UMAICHI","perfecture_jp":"福岡県","jp_add_1":"筑紫野市","jp_add_2":"馬市"},"8180006":{"post_code":"8180006","prefecture":"FUKUOKA KEN","city":"CHIKUSHINO SHI","town":"OISHI","perfecture_jp":"福岡県","jp_add_1":"筑紫野市","jp_add_2":"大石"},"8180013":{"post_code":"8180013","prefecture":"FUKUOKA KEN","city":"CHIKUSHINO SHI","town":"OKADA","perfecture_jp":"福岡県","jp_add_1":"筑紫野市","jp_add_2":"岡田"},"8180041":{"post_code":"8180041","prefecture":"FUKUOKA KEN","city":"CHIKUSHINO SHI","town":"KAMIKOGA","perfecture_jp":"福岡県","jp_add_1":"筑紫野市","jp_add_2":"上古賀"},"8180031":{"post_code":"8180031","prefecture":"FUKUOKA KEN","city":"CHIKUSHINO SHI","town":"KUMA","perfecture_jp":"福岡県","jp_add_1":"筑紫野市","jp_add_2":"隈"},"8180002":{"post_code":"8180002","prefecture":"FUKUOKA KEN","city":"CHIKUSHINO SHI","town":"KOZONO","perfecture_jp":"福岡県","jp_add_1":"筑紫野市","jp_add_2":"香園"},"8180047":{"post_code":"8180047","prefecture":"FUKUOKA KEN","city":"CHIKUSHINO SHI","town":"KOGA","perfecture_jp":"福岡県","jp_add_1":"筑紫野市","jp_add_2":"古賀"},"8180063":{"post_code":"8180063","prefecture":"FUKUOKA KEN","city":"CHIKUSHINO SHI","town":"SAKURADAI","perfecture_jp":"福岡県","jp_add_1":"筑紫野市","jp_add_2":"桜台"},"8180021":{"post_code":"8180021","prefecture":"FUKUOKA KEN","city":"CHIKUSHINO SHI","town":"SHITAMI","perfecture_jp":"福岡県","jp_add_1":"筑紫野市","jp_add_2":"下見"},"8180054":{"post_code":"8180054","prefecture":"FUKUOKA KEN","city":"CHIKUSHINO SHI","town":"SUGIZUKA","perfecture_jp":"福岡県","jp_add_1":"筑紫野市","jp_add_2":"杉塚"},"8180067":{"post_code":"8180067","prefecture":"FUKUOKA KEN","city":"CHIKUSHINO SHI","town":"ZOKUMYOIN","perfecture_jp":"福岡県","jp_add_1":"筑紫野市","jp_add_2":"俗明院"},"8180025":{"post_code":"8180025","prefecture":"FUKUOKA KEN","city":"CHIKUSHINO SHI","town":"CHIKUSHI","perfecture_jp":"福岡県","jp_add_1":"筑紫野市","jp_add_2":"筑紫"},"8180022":{"post_code":"8180022","prefecture":"FUKUOKA KEN","city":"CHIKUSHINO SHI","town":"CHIKUSHIEKIMAEDORI","perfecture_jp":"福岡県","jp_add_1":"筑紫野市","jp_add_2":"筑紫駅前通"},"8180064":{"post_code":"8180064","prefecture":"FUKUOKA KEN","city":"CHIKUSHINO SHI","town":"TSUNEMATSU","perfecture_jp":"福岡県","jp_add_1":"筑紫野市","jp_add_2":"常松"},"8180053":{"post_code":"8180053","prefecture":"FUKUOKA KEN","city":"CHIKUSHINO SHI","town":"TEMPAIZAKA","perfecture_jp":"福岡県","jp_add_1":"筑紫野市","jp_add_2":"天拝坂"},"8180055":{"post_code":"8180055","prefecture":"FUKUOKA KEN","city":"CHIKUSHINO SHI","town":"TONOHARU","perfecture_jp":"福岡県","jp_add_1":"筑紫野市","jp_add_2":"塔原"},"8180059":{"post_code":"8180059","prefecture":"FUKUOKA KEN","city":"CHIKUSHINO SHI","town":"TONOHARUHIGASHI","perfecture_jp":"福岡県","jp_add_1":"筑紫野市","jp_add_2":"塔原東"},"8180073":{"post_code":"8180073","prefecture":"FUKUOKA KEN","city":"CHIKUSHINO SHI","town":"TONOHARUNISHI","perfecture_jp":"福岡県","jp_add_1":"筑紫野市","jp_add_2":"塔原西"},"8180074":{"post_code":"8180074","prefecture":"FUKUOKA KEN","city":"CHIKUSHINO SHI","town":"TONOHARUMINAMI","perfecture_jp":"福岡県","jp_add_1":"筑紫野市","jp_add_2":"塔原南"},"8180066":{"post_code":"8180066","prefecture":"FUKUOKA KEN","city":"CHIKUSHINO SHI","town":"NAGAOKA","perfecture_jp":"福岡県","jp_add_1":"筑紫野市","jp_add_2":"永岡"},"8180032":{"post_code":"8180032","prefecture":"FUKUOKA KEN","city":"CHIKUSHINO SHI","town":"NISHIODA","perfecture_jp":"福岡県","jp_add_1":"筑紫野市","jp_add_2":"西小田"},"8180044":{"post_code":"8180044","prefecture":"FUKUOKA KEN","city":"CHIKUSHINO SHI","town":"HAGIWARA","perfecture_jp":"福岡県","jp_add_1":"筑紫野市","jp_add_2":"萩原"},"8180085":{"post_code":"8180085","prefecture":"FUKUOKA KEN","city":"CHIKUSHINO SHI","town":"HARISURIKITA","perfecture_jp":"福岡県","jp_add_1":"筑紫野市","jp_add_2":"針摺北"},"8180083":{"post_code":"8180083","prefecture":"FUKUOKA KEN","city":"CHIKUSHINO SHI","town":"HARISURICHUO","perfecture_jp":"福岡県","jp_add_1":"筑紫野市","jp_add_2":"針摺中央"},"8180084":{"post_code":"8180084","prefecture":"FUKUOKA KEN","city":"CHIKUSHINO SHI","town":"HARISURINISHI","perfecture_jp":"福岡県","jp_add_1":"筑紫野市","jp_add_2":"針摺西"},"8180081":{"post_code":"8180081","prefecture":"FUKUOKA KEN","city":"CHIKUSHINO SHI","town":"HARISURIHIGASHI","perfecture_jp":"福岡県","jp_add_1":"筑紫野市","jp_add_2":"針摺東"},"8180082":{"post_code":"8180082","prefecture":"FUKUOKA KEN","city":"CHIKUSHINO SHI","town":"HARISURIMINAMI","perfecture_jp":"福岡県","jp_add_1":"筑紫野市","jp_add_2":"針摺南"},"8180005":{"post_code":"8180005","prefecture":"FUKUOKA KEN","city":"CHIKUSHINO SHI","town":"HARU","perfecture_jp":"福岡県","jp_add_1":"筑紫野市","jp_add_2":"原"},"8180024":{"post_code":"8180024","prefecture":"FUKUOKA KEN","city":"CHIKUSHINO SHI","town":"HARUDA","perfecture_jp":"福岡県","jp_add_1":"筑紫野市","jp_add_2":"原田"},"8180036":{"post_code":"8180036","prefecture":"FUKUOKA KEN","city":"CHIKUSHINO SHI","town":"HIKARIGAOKA","perfecture_jp":"福岡県","jp_add_1":"筑紫野市","jp_add_2":"光が丘"},"8180045":{"post_code":"8180045","prefecture":"FUKUOKA KEN","city":"CHIKUSHINO SHI","town":"BYODOJI","perfecture_jp":"福岡県","jp_add_1":"筑紫野市","jp_add_2":"平等寺"},"8180051":{"post_code":"8180051","prefecture":"FUKUOKA KEN","city":"CHIKUSHINO SHI","town":"FUTSUKAICHI","perfecture_jp":"福岡県","jp_add_1":"筑紫野市","jp_add_2":"二日市"},"8180056":{"post_code":"8180056","prefecture":"FUKUOKA KEN","city":"CHIKUSHINO SHI","town":"FUTSUKAICHIKITA","perfecture_jp":"福岡県","jp_add_1":"筑紫野市","jp_add_2":"二日市北"},"8180072":{"post_code":"8180072","prefecture":"FUKUOKA KEN","city":"CHIKUSHINO SHI","town":"FUTSUKAICHICHUO","perfecture_jp":"福岡県","jp_add_1":"筑紫野市","jp_add_2":"二日市中央"},"8180071":{"post_code":"8180071","prefecture":"FUKUOKA KEN","city":"CHIKUSHINO SHI","town":"FUTSUKAICHINISHI","perfecture_jp":"福岡県","jp_add_1":"筑紫野市","jp_add_2":"二日市西"},"8180057":{"post_code":"8180057","prefecture":"FUKUOKA KEN","city":"CHIKUSHINO SHI","town":"FUTSUKAICHIMINAMI","perfecture_jp":"福岡県","jp_add_1":"筑紫野市","jp_add_2":"二日市南"},"8180007":{"post_code":"8180007","prefecture":"FUKUOKA KEN","city":"CHIKUSHINO SHI","town":"HONDOJI","perfecture_jp":"福岡県","jp_add_1":"筑紫野市","jp_add_2":"本道寺"},"8180026":{"post_code":"8180026","prefecture":"FUKUOKA KEN","city":"CHIKUSHINO SHI","town":"MISAKI","perfecture_jp":"福岡県","jp_add_1":"筑紫野市","jp_add_2":"美咲"},"8180052":{"post_code":"8180052","prefecture":"FUKUOKA KEN","city":"CHIKUSHINO SHI","town":"MUSASHI","perfecture_jp":"福岡県","jp_add_1":"筑紫野市","jp_add_2":"武藏"},"8180043":{"post_code":"8180043","prefecture":"FUKUOKA KEN","city":"CHIKUSHINO SHI","town":"MUSASHIGAOKA","perfecture_jp":"福岡県","jp_add_1":"筑紫野市","jp_add_2":"むさしケ丘"},"8180061":{"post_code":"8180061","prefecture":"FUKUOKA KEN","city":"CHIKUSHINO SHI","town":"MURASAKI","perfecture_jp":"福岡県","jp_add_1":"筑紫野市","jp_add_2":"紫"},"8180065":{"post_code":"8180065","prefecture":"FUKUOKA KEN","city":"CHIKUSHINO SHI","town":"MOROTA","perfecture_jp":"福岡県","jp_add_1":"筑紫野市","jp_add_2":"諸田"},"8180003":{"post_code":"8180003","prefecture":"FUKUOKA KEN","city":"CHIKUSHINO SHI","town":"YAMAE","perfecture_jp":"福岡県","jp_add_1":"筑紫野市","jp_add_2":"山家"},"8180046":{"post_code":"8180046","prefecture":"FUKUOKA KEN","city":"CHIKUSHINO SHI","town":"YAMAGUCHI","perfecture_jp":"福岡県","jp_add_1":"筑紫野市","jp_add_2":"山口"},"8180001":{"post_code":"8180001","prefecture":"FUKUOKA KEN","city":"CHIKUSHINO SHI","town":"YUSUBARU","perfecture_jp":"福岡県","jp_add_1":"筑紫野市","jp_add_2":"柚須原"},"8180058":{"post_code":"8180058","prefecture":"FUKUOKA KEN","city":"CHIKUSHINO SHI","town":"YUMACHI","perfecture_jp":"福岡県","jp_add_1":"筑紫野市","jp_add_2":"湯町"},"8180004":{"post_code":"8180004","prefecture":"FUKUOKA KEN","city":"CHIKUSHINO SHI","town":"YOSHIKI","perfecture_jp":"福岡県","jp_add_1":"筑紫野市","jp_add_2":"吉木"},"8180042":{"post_code":"8180042","prefecture":"FUKUOKA KEN","city":"CHIKUSHINO SHI","town":"RYUMYOJI","perfecture_jp":"福岡県","jp_add_1":"筑紫野市","jp_add_2":"立明寺"},"8180023":{"post_code":"8180023","prefecture":"FUKUOKA KEN","city":"CHIKUSHINO SHI","town":"WAKAE","perfecture_jp":"福岡県","jp_add_1":"筑紫野市","jp_add_2":"若江"},"8180100":{"post_code":"8180100","prefecture":"FUKUOKA KEN","city":"DAZAIFU SHI","town":"IKANIKEISAIGANAIBAAI","perfecture_jp":"福岡県","jp_add_1":"太宰府市","jp_add_2":""},"8180137":{"post_code":"8180137","prefecture":"FUKUOKA KEN","city":"DAZAIFU SHI","town":"AOBADAI","perfecture_jp":"福岡県","jp_add_1":"太宰府市","jp_add_2":"青葉台"},"8180121":{"post_code":"8180121","prefecture":"FUKUOKA KEN","city":"DAZAIFU SHI","town":"AOYAMA","perfecture_jp":"福岡県","jp_add_1":"太宰府市","jp_add_2":"青山"},"8180118":{"post_code":"8180118","prefecture":"FUKUOKA KEN","city":"DAZAIFU SHI","town":"ISHIZAKA","perfecture_jp":"福岡県","jp_add_1":"太宰府市","jp_add_2":"石坂"},"8180115":{"post_code":"8180115","prefecture":"FUKUOKA KEN","city":"DAZAIFU SHI","town":"UCHIYAMA","perfecture_jp":"福岡県","jp_add_1":"太宰府市","jp_add_2":"内山"},"8180123":{"post_code":"8180123","prefecture":"FUKUOKA KEN","city":"DAZAIFU SHI","town":"UMEGAOKA","perfecture_jp":"福岡県","jp_add_1":"太宰府市","jp_add_2":"梅ケ丘"},"8180134":{"post_code":"8180134","prefecture":"FUKUOKA KEN","city":"DAZAIFU SHI","town":"OZANO","perfecture_jp":"福岡県","jp_add_1":"太宰府市","jp_add_2":"大佐野"},"8180101":{"post_code":"8180101","prefecture":"FUKUOKA KEN","city":"DAZAIFU SHI","town":"KANZEONJI","perfecture_jp":"福岡県","jp_add_1":"太宰府市","jp_add_2":"観世音寺"},"8180114":{"post_code":"8180114","prefecture":"FUKUOKA KEN","city":"DAZAIFU SHI","town":"KITADANI","perfecture_jp":"福岡県","jp_add_1":"太宰府市","jp_add_2":"北谷"},"8180132":{"post_code":"8180132","prefecture":"FUKUOKA KEN","city":"DAZAIFU SHI","town":"KOKUBU","perfecture_jp":"福岡県","jp_add_1":"太宰府市","jp_add_2":"国分"},"8180125":{"post_code":"8180125","prefecture":"FUKUOKA KEN","city":"DAZAIFU SHI","town":"GOJO","perfecture_jp":"福岡県","jp_add_1":"太宰府市","jp_add_2":"五条"},"8180139":{"post_code":"8180139","prefecture":"FUKUOKA KEN","city":"DAZAIFU SHI","town":"SAITO","perfecture_jp":"福岡県","jp_add_1":"太宰府市","jp_add_2":"宰都"},"8180117":{"post_code":"8180117","prefecture":"FUKUOKA KEN","city":"DAZAIFU SHI","town":"SAIFU","perfecture_jp":"福岡県","jp_add_1":"太宰府市","jp_add_2":"宰府"},"8180133":{"post_code":"8180133","prefecture":"FUKUOKA KEN","city":"DAZAIFU SHI","town":"SAKAMOTO","perfecture_jp":"福岡県","jp_add_1":"太宰府市","jp_add_2":"坂本"},"8180111":{"post_code":"8180111","prefecture":"FUKUOKA KEN","city":"DAZAIFU SHI","town":"SANJO","perfecture_jp":"福岡県","jp_add_1":"太宰府市","jp_add_2":"三条"},"8180102":{"post_code":"8180102","prefecture":"FUKUOKA KEN","city":"DAZAIFU SHI","town":"SHIRAKAWA","perfecture_jp":"福岡県","jp_add_1":"太宰府市","jp_add_2":"白川"},"8180103":{"post_code":"8180103","prefecture":"FUKUOKA KEN","city":"DAZAIFU SHI","town":"SUZAKU","perfecture_jp":"福岡県","jp_add_1":"太宰府市","jp_add_2":"朱雀"},"8180122":{"post_code":"8180122","prefecture":"FUKUOKA KEN","city":"DAZAIFU SHI","town":"TAKAO","perfecture_jp":"福岡県","jp_add_1":"太宰府市","jp_add_2":"高雄"},"8180104":{"post_code":"8180104","prefecture":"FUKUOKA KEN","city":"DAZAIFU SHI","town":"TONOKOGA","perfecture_jp":"福岡県","jp_add_1":"太宰府市","jp_add_2":"通古賀"},"8180105":{"post_code":"8180105","prefecture":"FUKUOKA KEN","city":"DAZAIFU SHI","town":"TOFUROMINAMI","perfecture_jp":"福岡県","jp_add_1":"太宰府市","jp_add_2":"都府楼南"},"8180136":{"post_code":"8180136","prefecture":"FUKUOKA KEN","city":"DAZAIFU SHI","town":"NAGAURADAI","perfecture_jp":"福岡県","jp_add_1":"太宰府市","jp_add_2":"長浦台"},"8180124":{"post_code":"8180124","prefecture":"FUKUOKA KEN","city":"DAZAIFU SHI","town":"BAIKOEN","perfecture_jp":"福岡県","jp_add_1":"太宰府市","jp_add_2":"梅香苑"},"8180110":{"post_code":"8180110","prefecture":"FUKUOKA KEN","city":"DAZAIFU SHI","town":"MIKASA","perfecture_jp":"福岡県","jp_add_1":"太宰府市","jp_add_2":"御笠"},"8180131":{"post_code":"8180131","prefecture":"FUKUOKA KEN","city":"DAZAIFU SHI","town":"MIZUKI","perfecture_jp":"福岡県","jp_add_1":"太宰府市","jp_add_2":"水城"},"8180135":{"post_code":"8180135","prefecture":"FUKUOKA KEN","city":"DAZAIFU SHI","town":"MUKAIZANO","perfecture_jp":"福岡県","jp_add_1":"太宰府市","jp_add_2":"向佐野"},"8180138":{"post_code":"8180138","prefecture":"FUKUOKA KEN","city":"DAZAIFU SHI","town":"YOSHIMATSU","perfecture_jp":"福岡県","jp_add_1":"太宰府市","jp_add_2":"吉松"},"8180119":{"post_code":"8180119","prefecture":"FUKUOKA KEN","city":"DAZAIFU SHI","town":"RENGAYA","perfecture_jp":"福岡県","jp_add_1":"太宰府市","jp_add_2":"連歌屋"}}