{"8190000":{"post_code":"8190000","prefecture":"FUKUOKA KEN","city":"FUKUOKA SHI NISHI KU","town":"IKANIKEISAIGANAIBAAI","perfecture_jp":"福岡県","jp_add_1":"福岡市西区","jp_add_2":""},"8190015":{"post_code":"8190015","prefecture":"FUKUOKA KEN","city":"FUKUOKA SHI NISHI KU","town":"ATAGO","perfecture_jp":"福岡県","jp_add_1":"福岡市西区","jp_add_2":"愛宕"},"8190013":{"post_code":"8190013","prefecture":"FUKUOKA KEN","city":"FUKUOKA SHI NISHI KU","town":"ATAGOHAMA","perfecture_jp":"福岡県","jp_add_1":"福岡市西区","jp_add_2":"愛宕浜"},"8190007":{"post_code":"8190007","prefecture":"FUKUOKA KEN","city":"FUKUOKA SHI NISHI KU","town":"ATAGOMINAMI","perfecture_jp":"福岡県","jp_add_1":"福岡市西区","jp_add_2":"愛宕南"},"8190371":{"post_code":"8190371","prefecture":"FUKUOKA KEN","city":"FUKUOKA SHI NISHI KU","town":"IIJI","perfecture_jp":"福岡県","jp_add_1":"福岡市西区","jp_add_2":"飯氏"},"8190037":{"post_code":"8190037","prefecture":"FUKUOKA KEN","city":"FUKUOKA SHI NISHI KU","town":"IIMORI","perfecture_jp":"福岡県","jp_add_1":"福岡市西区","jp_add_2":"飯盛"},"8190042":{"post_code":"8190042","prefecture":"FUKUOKA KEN","city":"FUKUOKA SHI NISHI KU","town":"IKIDANCHI","perfecture_jp":"福岡県","jp_add_1":"福岡市西区","jp_add_2":"壱岐団地"},"8190055":{"post_code":"8190055","prefecture":"FUKUOKA KEN","city":"FUKUOKA SHI NISHI KU","town":"IKINOMATSUBARA","perfecture_jp":"福岡県","jp_add_1":"福岡市西区","jp_add_2":"生の松原"},"8190044":{"post_code":"8190044","prefecture":"FUKUOKA KEN","city":"FUKUOKA SHI NISHI KU","town":"IKIMATSUDAI","perfecture_jp":"福岡県","jp_add_1":"福岡市西区","jp_add_2":"生松台"},"8190025":{"post_code":"8190025","prefecture":"FUKUOKA KEN","city":"FUKUOKA SHI NISHI KU","town":"ISHIMARU","perfecture_jp":"福岡県","jp_add_1":"福岡市西区","jp_add_2":"石丸"},"8190381":{"post_code":"8190381","prefecture":"FUKUOKA KEN","city":"FUKUOKA SHI NISHI KU","town":"IZUMI","perfecture_jp":"福岡県","jp_add_1":"福岡市西区","jp_add_2":"泉"},"8190167":{"post_code":"8190167","prefecture":"FUKUOKA KEN","city":"FUKUOKA SHI NISHI KU","town":"IMAJUKU","perfecture_jp":"福岡県","jp_add_1":"福岡市西区","jp_add_2":"今宿"},"8190162":{"post_code":"8190162","prefecture":"FUKUOKA KEN","city":"FUKUOKA SHI NISHI KU","town":"IMAJUKU AOKI","perfecture_jp":"福岡県","jp_add_1":"福岡市西区","jp_add_2":"今宿青木"},"8190168":{"post_code":"8190168","prefecture":"FUKUOKA KEN","city":"FUKUOKA SHI NISHI KU","town":"IMAJUKUEKIMAE","perfecture_jp":"福岡県","jp_add_1":"福岡市西区","jp_add_2":"今宿駅前"},"8190163":{"post_code":"8190163","prefecture":"FUKUOKA KEN","city":"FUKUOKA SHI NISHI KU","town":"IMAJUKU KAMINOHARU","perfecture_jp":"福岡県","jp_add_1":"福岡市西区","jp_add_2":"今宿上ノ原"},"8190164":{"post_code":"8190164","prefecture":"FUKUOKA KEN","city":"FUKUOKA SHI NISHI KU","town":"IMAJUKUMACHI","perfecture_jp":"福岡県","jp_add_1":"福岡市西区","jp_add_2":"今宿町"},"8190169":{"post_code":"8190169","prefecture":"FUKUOKA KEN","city":"FUKUOKA SHI NISHI KU","town":"IMAJUKUNISHI","perfecture_jp":"福岡県","jp_add_1":"福岡市西区","jp_add_2":"今宿西"},"8190161":{"post_code":"8190161","prefecture":"FUKUOKA KEN","city":"FUKUOKA SHI NISHI KU","town":"IMAJUKUHIGASHI","perfecture_jp":"福岡県","jp_add_1":"福岡市西区","jp_add_2":"今宿東"},"8190165":{"post_code":"8190165","prefecture":"FUKUOKA KEN","city":"FUKUOKA SHI NISHI KU","town":"IMAZU","perfecture_jp":"福岡県","jp_add_1":"福岡市西区","jp_add_2":"今津"},"8190372":{"post_code":"8190372","prefecture":"FUKUOKA KEN","city":"FUKUOKA SHI NISHI KU","town":"UDAGAWARA","perfecture_jp":"福岡県","jp_add_1":"福岡市西区","jp_add_2":"宇田川原"},"8190005":{"post_code":"8190005","prefecture":"FUKUOKA KEN","city":"FUKUOKA SHI NISHI KU","town":"UCHIHAMA","perfecture_jp":"福岡県","jp_add_1":"福岡市西区","jp_add_2":"内浜"},"8190021":{"post_code":"8190021","prefecture":"FUKUOKA KEN","city":"FUKUOKA SHI NISHI KU","town":"OMACHIDANCHI","perfecture_jp":"福岡県","jp_add_1":"福岡市西区","jp_add_2":"大町団地"},"8190001":{"post_code":"8190001","prefecture":"FUKUOKA KEN","city":"FUKUOKA SHI NISHI KU","town":"ODO","perfecture_jp":"福岡県","jp_add_1":"福岡市西区","jp_add_2":"小戸"},"8190011":{"post_code":"8190011","prefecture":"FUKUOKA KEN","city":"FUKUOKA SHI NISHI KU","town":"ORONOSHIMA","perfecture_jp":"福岡県","jp_add_1":"福岡市西区","jp_add_2":"小呂島"},"8190035":{"post_code":"8190035","prefecture":"FUKUOKA KEN","city":"FUKUOKA SHI NISHI KU","town":"KANATAKE","perfecture_jp":"福岡県","jp_add_1":"福岡市西区","jp_add_2":"金武"},"8190054":{"post_code":"8190054","prefecture":"FUKUOKA KEN","city":"FUKUOKA SHI NISHI KU","town":"KAMIYAMATO","perfecture_jp":"福岡県","jp_add_1":"福岡市西区","jp_add_2":"上山門"},"8190379":{"post_code":"8190379","prefecture":"FUKUOKA KEN","city":"FUKUOKA SHI NISHI KU","town":"KITABARU","perfecture_jp":"福岡県","jp_add_1":"福岡市西区","jp_add_2":"北原"},"8190388":{"post_code":"8190388","prefecture":"FUKUOKA KEN","city":"FUKUOKA SHI NISHI KU","town":"KYUDAISHIMMACHI","perfecture_jp":"福岡県","jp_add_1":"福岡市西区","jp_add_2":"九大新町"},"8190204":{"post_code":"8190204","prefecture":"FUKUOKA KEN","city":"FUKUOKA SHI NISHI KU","town":"KUSABA","perfecture_jp":"福岡県","jp_add_1":"福岡市西区","jp_add_2":"草場"},"8190382":{"post_code":"8190382","prefecture":"FUKUOKA KEN","city":"FUKUOKA SHI NISHI KU","town":"KUWABARA","perfecture_jp":"福岡県","jp_add_1":"福岡市西区","jp_add_2":"桑原"},"8190205":{"post_code":"8190205","prefecture":"FUKUOKA KEN","city":"FUKUOKA SHI NISHI KU","town":"GENKAISHIMA","perfecture_jp":"福岡県","jp_add_1":"福岡市西区","jp_add_2":"玄界島"},"8190203":{"post_code":"8190203","prefecture":"FUKUOKA KEN","city":"FUKUOKA SHI NISHI KU","town":"KOTA","perfecture_jp":"福岡県","jp_add_1":"福岡市西区","jp_add_2":"小田"},"8190367":{"post_code":"8190367","prefecture":"FUKUOKA KEN","city":"FUKUOKA SHI NISHI KU","town":"SAITO","perfecture_jp":"福岡県","jp_add_1":"福岡市西区","jp_add_2":"西都"},"8190052":{"post_code":"8190052","prefecture":"FUKUOKA KEN","city":"FUKUOKA SHI NISHI KU","town":"SHIMOYAMATO","perfecture_jp":"福岡県","jp_add_1":"福岡市西区","jp_add_2":"下山門"},"8190051":{"post_code":"8190051","prefecture":"FUKUOKA KEN","city":"FUKUOKA SHI NISHI KU","town":"SHIMOYAMATODANCHI","perfecture_jp":"福岡県","jp_add_1":"福岡市西区","jp_add_2":"下山門団地"},"8190024":{"post_code":"8190024","prefecture":"FUKUOKA KEN","city":"FUKUOKA SHI NISHI KU","town":"JUROGAWADANCHI","perfecture_jp":"福岡県","jp_add_1":"福岡市西区","jp_add_2":"十郎川団地"},"8190041":{"post_code":"8190041","prefecture":"FUKUOKA KEN","city":"FUKUOKA SHI NISHI KU","town":"JUROKUCHO","perfecture_jp":"福岡県","jp_add_1":"福岡市西区","jp_add_2":"拾六町"},"8190045":{"post_code":"8190045","prefecture":"FUKUOKA KEN","city":"FUKUOKA SHI NISHI KU","town":"JUROKUCHODANCHI","perfecture_jp":"福岡県","jp_add_1":"福岡市西区","jp_add_2":"拾六町団地"},"8190053":{"post_code":"8190053","prefecture":"FUKUOKA KEN","city":"FUKUOKA SHI NISHI KU","town":"JONOHARUDANCHI","perfecture_jp":"福岡県","jp_add_1":"福岡市西区","jp_add_2":"城の原団地"},"8190373":{"post_code":"8190373","prefecture":"FUKUOKA KEN","city":"FUKUOKA SHI NISHI KU","town":"SUSENJI","perfecture_jp":"福岡県","jp_add_1":"福岡市西区","jp_add_2":"周船寺"},"8190374":{"post_code":"8190374","prefecture":"FUKUOKA KEN","city":"FUKUOKA SHI NISHI KU","town":"SENRI","perfecture_jp":"福岡県","jp_add_1":"福岡市西区","jp_add_2":"千里"},"8190034":{"post_code":"8190034","prefecture":"FUKUOKA KEN","city":"FUKUOKA SHI NISHI KU","town":"TA","perfecture_jp":"福岡県","jp_add_1":"福岡市西区","jp_add_2":"田"},"8190383":{"post_code":"8190383","prefecture":"FUKUOKA KEN","city":"FUKUOKA SHI NISHI KU","town":"TAJIRI","perfecture_jp":"福岡県","jp_add_1":"福岡市西区","jp_add_2":"田尻"},"8190384":{"post_code":"8190384","prefecture":"FUKUOKA KEN","city":"FUKUOKA SHI NISHI KU","town":"TAROMARU","perfecture_jp":"福岡県","jp_add_1":"福岡市西区","jp_add_2":"太郎丸"},"8190032":{"post_code":"8190032","prefecture":"FUKUOKA KEN","city":"FUKUOKA SHI NISHI KU","town":"TOGIRE","perfecture_jp":"福岡県","jp_add_1":"福岡市西区","jp_add_2":"戸切"},"8190375":{"post_code":"8190375","prefecture":"FUKUOKA KEN","city":"FUKUOKA SHI NISHI KU","town":"TOKUNAGA","perfecture_jp":"福岡県","jp_add_1":"福岡市西区","jp_add_2":"徳永"},"8190378":{"post_code":"8190378","prefecture":"FUKUOKA KEN","city":"FUKUOKA SHI NISHI KU","town":"TOKUNAGAKITA","perfecture_jp":"福岡県","jp_add_1":"福岡市西区","jp_add_2":"徳永北"},"8190014":{"post_code":"8190014","prefecture":"FUKUOKA KEN","city":"FUKUOKA SHI NISHI KU","town":"TOYOHAMA","perfecture_jp":"福岡県","jp_add_1":"福岡市西区","jp_add_2":"豊浜"},"8190039":{"post_code":"8190039","prefecture":"FUKUOKA KEN","city":"FUKUOKA SHI NISHI KU","town":"NISHIIRIBE","perfecture_jp":"福岡県","jp_add_1":"福岡市西区","jp_add_2":"西入部"},"8190202":{"post_code":"8190202","prefecture":"FUKUOKA KEN","city":"FUKUOKA SHI NISHI KU","town":"NISHINORA","perfecture_jp":"福岡県","jp_add_1":"福岡市西区","jp_add_2":"西浦"},"8190046":{"post_code":"8190046","prefecture":"FUKUOKA KEN","city":"FUKUOKA SHI NISHI KU","town":"NISHINOKA","perfecture_jp":"福岡県","jp_add_1":"福岡市西区","jp_add_2":"西の丘"},"8190043":{"post_code":"8190043","prefecture":"FUKUOKA KEN","city":"FUKUOKA SHI NISHI KU","town":"NOKATA","perfecture_jp":"福岡県","jp_add_1":"福岡市西区","jp_add_2":"野方"},"8190012":{"post_code":"8190012","prefecture":"FUKUOKA KEN","city":"FUKUOKA SHI NISHI KU","town":"NOKO","perfecture_jp":"福岡県","jp_add_1":"福岡市西区","jp_add_2":"能古"},"8190033":{"post_code":"8190033","prefecture":"FUKUOKA KEN","city":"FUKUOKA SHI NISHI KU","town":"HASHIMOTO(OAZA)","perfecture_jp":"福岡県","jp_add_1":"福岡市西区","jp_add_2":"橋本"},"8190031":{"post_code":"8190031","prefecture":"FUKUOKA KEN","city":"FUKUOKA SHI NISHI KU","town":"HASHIMOTO(CHOME)","perfecture_jp":"福岡県","jp_add_1":"福岡市西区","jp_add_2":"橋本"},"8190038":{"post_code":"8190038","prefecture":"FUKUOKA KEN","city":"FUKUOKA SHI NISHI KU","town":"HANEDO","perfecture_jp":"福岡県","jp_add_1":"福岡市西区","jp_add_2":"羽根戸"},"8190022":{"post_code":"8190022","prefecture":"FUKUOKA KEN","city":"FUKUOKA SHI NISHI KU","town":"FUKUSHIGE","perfecture_jp":"福岡県","jp_add_1":"福岡市西区","jp_add_2":"福重"},"8190023":{"post_code":"8190023","prefecture":"FUKUOKA KEN","city":"FUKUOKA SHI NISHI KU","town":"FUKUSHIGEDANCHI","perfecture_jp":"福岡県","jp_add_1":"福岡市西区","jp_add_2":"福重団地"},"8190387":{"post_code":"8190387","prefecture":"FUKUOKA KEN","city":"FUKUOKA SHI NISHI KU","town":"FUJIMI","perfecture_jp":"福岡県","jp_add_1":"福岡市西区","jp_add_2":"富士見"},"8190201":{"post_code":"8190201","prefecture":"FUKUOKA KEN","city":"FUKUOKA SHI NISHI KU","town":"MIYANORA","perfecture_jp":"福岡県","jp_add_1":"福岡市西区","jp_add_2":"宮浦"},"8190376":{"post_code":"8190376","prefecture":"FUKUOKA KEN","city":"FUKUOKA SHI NISHI KU","town":"MYOBARU","perfecture_jp":"福岡県","jp_add_1":"福岡市西区","jp_add_2":"女原"},"8190377":{"post_code":"8190377","prefecture":"FUKUOKA KEN","city":"FUKUOKA SHI NISHI KU","town":"MYOBARUKITA","perfecture_jp":"福岡県","jp_add_1":"福岡市西区","jp_add_2":"女原北"},"8190030":{"post_code":"8190030","prefecture":"FUKUOKA KEN","city":"FUKUOKA SHI NISHI KU","town":"MUROMIGAOKA","perfecture_jp":"福岡県","jp_add_1":"福岡市西区","jp_add_2":"室見が丘"},"8190002":{"post_code":"8190002","prefecture":"FUKUOKA KEN","city":"FUKUOKA SHI NISHI KU","town":"MEINOHAMA","perfecture_jp":"福岡県","jp_add_1":"福岡市西区","jp_add_2":"姪の浜"},"8190006":{"post_code":"8190006","prefecture":"FUKUOKA KEN","city":"FUKUOKA SHI NISHI KU","town":"MEINOHAMAEKIMINAMI","perfecture_jp":"福岡県","jp_add_1":"福岡市西区","jp_add_2":"姪浜駅南"},"8190385":{"post_code":"8190385","prefecture":"FUKUOKA KEN","city":"FUKUOKA SHI NISHI KU","town":"MOTOKA","perfecture_jp":"福岡県","jp_add_1":"福岡市西区","jp_add_2":"元岡"},"8190386":{"post_code":"8190386","prefecture":"FUKUOKA KEN","city":"FUKUOKA SHI NISHI KU","town":"MOTOHAMA","perfecture_jp":"福岡県","jp_add_1":"福岡市西区","jp_add_2":"元浜"},"8190166":{"post_code":"8190166","prefecture":"FUKUOKA KEN","city":"FUKUOKA SHI NISHI KU","town":"YOKOHAMA(1-2-CHOME)","perfecture_jp":"福岡県","jp_add_1":"福岡市西区","jp_add_2":"横浜"},"8190366":{"post_code":"8190366","prefecture":"FUKUOKA KEN","city":"FUKUOKA SHI NISHI KU","town":"YOKOHAMA(3-CHOME)","perfecture_jp":"福岡県","jp_add_1":"福岡市西区","jp_add_2":"横浜"},"8190036":{"post_code":"8190036","prefecture":"FUKUOKA KEN","city":"FUKUOKA SHI NISHI KU","town":"YOSHITAKE","perfecture_jp":"福岡県","jp_add_1":"福岡市西区","jp_add_2":"吉武"},"8191100":{"post_code":"8191100","prefecture":"FUKUOKA KEN","city":"ITOSHIMA SHI","town":"IKANIKEISAIGANAIBAAI","perfecture_jp":"福岡県","jp_add_1":"糸島市","jp_add_2":""},"8191132":{"post_code":"8191132","prefecture":"FUKUOKA KEN","city":"ITOSHIMA SHI","town":"ARITA","perfecture_jp":"福岡県","jp_add_1":"糸島市","jp_add_2":"有田"},"8191127":{"post_code":"8191127","prefecture":"FUKUOKA KEN","city":"ITOSHIMA SHI","town":"ARITACHUO","perfecture_jp":"福岡県","jp_add_1":"糸島市","jp_add_2":"有田中央"},"8191152":{"post_code":"8191152","prefecture":"FUKUOKA KEN","city":"ITOSHIMA SHI","town":"IIBARU","perfecture_jp":"福岡県","jp_add_1":"糸島市","jp_add_2":"飯原"},"8191103":{"post_code":"8191103","prefecture":"FUKUOKA KEN","city":"ITOSHIMA SHI","town":"IKEDA","perfecture_jp":"福岡県","jp_add_1":"糸島市","jp_add_2":"池田"},"8191562":{"post_code":"8191562","prefecture":"FUKUOKA KEN","city":"ITOSHIMA SHI","town":"ITA","perfecture_jp":"福岡県","jp_add_1":"糸島市","jp_add_2":"井田"},"8191101":{"post_code":"8191101","prefecture":"FUKUOKA KEN","city":"ITOSHIMA SHI","town":"ITAMOCHI","perfecture_jp":"福岡県","jp_add_1":"糸島市","jp_add_2":"板持"},"8191126":{"post_code":"8191126","prefecture":"FUKUOKA KEN","city":"ITOSHIMA SHI","town":"IWAMOTO","perfecture_jp":"福岡県","jp_add_1":"糸島市","jp_add_2":"岩本"},"8191582":{"post_code":"8191582","prefecture":"FUKUOKA KEN","city":"ITOSHIMA SHI","town":"IWARA","perfecture_jp":"福岡県","jp_add_1":"糸島市","jp_add_2":"井原"},"8191112":{"post_code":"8191112","prefecture":"FUKUOKA KEN","city":"ITOSHIMA SHI","town":"URASHI","perfecture_jp":"福岡県","jp_add_1":"糸島市","jp_add_2":"浦志"},"8191105":{"post_code":"8191105","prefecture":"FUKUOKA KEN","city":"ITOSHIMA SHI","town":"URU","perfecture_jp":"福岡県","jp_add_1":"糸島市","jp_add_2":"潤"},"8191573":{"post_code":"8191573","prefecture":"FUKUOKA KEN","city":"ITOSHIMA SHI","town":"OMARU","perfecture_jp":"福岡県","jp_add_1":"糸島市","jp_add_2":"王丸"},"8191135":{"post_code":"8191135","prefecture":"FUKUOKA KEN","city":"ITOSHIMA SHI","town":"OURA","perfecture_jp":"福岡県","jp_add_1":"糸島市","jp_add_2":"大浦"},"8191121":{"post_code":"8191121","prefecture":"FUKUOKA KEN","city":"ITOSHIMA SHI","town":"OGINORA","perfecture_jp":"福岡県","jp_add_1":"糸島市","jp_add_2":"荻浦"},"8191124":{"post_code":"8191124","prefecture":"FUKUOKA KEN","city":"ITOSHIMA SHI","town":"KAFURI","perfecture_jp":"福岡県","jp_add_1":"糸島市","jp_add_2":"加布里"},"8191123":{"post_code":"8191123","prefecture":"FUKUOKA KEN","city":"ITOSHIMA SHI","town":"KAMIARI","perfecture_jp":"福岡県","jp_add_1":"糸島市","jp_add_2":"神在"},"8191155":{"post_code":"8191155","prefecture":"FUKUOKA KEN","city":"ITOSHIMA SHI","town":"KAWATSUKI","perfecture_jp":"福岡県","jp_add_1":"糸島市","jp_add_2":"川付"},"8191574":{"post_code":"8191574","prefecture":"FUKUOKA KEN","city":"ITOSHIMA SHI","town":"KAWABARU","perfecture_jp":"福岡県","jp_add_1":"糸島市","jp_add_2":"川原"},"8191141":{"post_code":"8191141","prefecture":"FUKUOKA KEN","city":"ITOSHIMA SHI","town":"KURAMOCHI","perfecture_jp":"福岡県","jp_add_1":"糸島市","jp_add_2":"蔵持"},"8191563":{"post_code":"8191563","prefecture":"FUKUOKA KEN","city":"ITOSHIMA SHI","town":"KORAIJI","perfecture_jp":"福岡県","jp_add_1":"糸島市","jp_add_2":"高来寺"},"8191147":{"post_code":"8191147","prefecture":"FUKUOKA KEN","city":"ITOSHIMA SHI","town":"KORIKI","perfecture_jp":"福岡県","jp_add_1":"糸島市","jp_add_2":"香力"},"8191106":{"post_code":"8191106","prefecture":"FUKUOKA KEN","city":"ITOSHIMA SHI","town":"SHITO","perfecture_jp":"福岡県","jp_add_1":"糸島市","jp_add_2":"志登"},"8191131":{"post_code":"8191131","prefecture":"FUKUOKA KEN","city":"ITOSHIMA SHI","town":"SHINOWARA","perfecture_jp":"福岡県","jp_add_1":"糸島市","jp_add_2":"篠原"},"8191129":{"post_code":"8191129","prefecture":"FUKUOKA KEN","city":"ITOSHIMA SHI","town":"SHINOWARANISHI","perfecture_jp":"福岡県","jp_add_1":"糸島市","jp_add_2":"篠原西"},"8191128":{"post_code":"8191128","prefecture":"FUKUOKA KEN","city":"ITOSHIMA SHI","town":"SHINOWARAHIGASHI","perfecture_jp":"福岡県","jp_add_1":"糸島市","jp_add_2":"篠原東"},"8191301":{"post_code":"8191301","prefecture":"FUKUOKA KEN","city":"ITOSHIMA SHI","town":"SHIMA IDAHARA","perfecture_jp":"福岡県","jp_add_1":"糸島市","jp_add_2":"志摩井田原"},"8191313":{"post_code":"8191313","prefecture":"FUKUOKA KEN","city":"ITOSHIMA SHI","town":"SHIMA INADOME","perfecture_jp":"福岡県","jp_add_1":"糸島市","jp_add_2":"志摩稲留"},"8191315":{"post_code":"8191315","prefecture":"FUKUOKA KEN","city":"ITOSHIMA SHI","town":"SHIMA INABA","perfecture_jp":"福岡県","jp_add_1":"糸島市","jp_add_2":"志摩稲葉"},"8191334":{"post_code":"8191334","prefecture":"FUKUOKA KEN","city":"ITOSHIMA SHI","town":"SHIMA KISHI","perfecture_jp":"福岡県","jp_add_1":"糸島市","jp_add_2":"志摩岐志"},"8191331":{"post_code":"8191331","prefecture":"FUKUOKA KEN","city":"ITOSHIMA SHI","town":"SHIMA KUGA","perfecture_jp":"福岡県","jp_add_1":"糸島市","jp_add_2":"志摩久家"},"8191335":{"post_code":"8191335","prefecture":"FUKUOKA KEN","city":"ITOSHIMA SHI","town":"SHIMA KEYA","perfecture_jp":"福岡県","jp_add_1":"糸島市","jp_add_2":"志摩芥屋"},"8191323":{"post_code":"8191323","prefecture":"FUKUOKA KEN","city":"ITOSHIMA SHI","town":"SHIMA KOGANEMARU","perfecture_jp":"福岡県","jp_add_1":"糸島市","jp_add_2":"志摩小金丸"},"8191321":{"post_code":"8191321","prefecture":"FUKUOKA KEN","city":"ITOSHIMA SHI","town":"SHIMA KOFUJI","perfecture_jp":"福岡県","jp_add_1":"糸島市","jp_add_2":"志摩小富士"},"8191304":{"post_code":"8191304","prefecture":"FUKUOKA KEN","city":"ITOSHIMA SHI","town":"SHIMA SAKURAI","perfecture_jp":"福岡県","jp_add_1":"糸島市","jp_add_2":"志摩桜井"},"8191333":{"post_code":"8191333","prefecture":"FUKUOKA KEN","city":"ITOSHIMA SHI","town":"SHIMA SHIMMACHI","perfecture_jp":"福岡県","jp_add_1":"糸島市","jp_add_2":"志摩新町"},"8191311":{"post_code":"8191311","prefecture":"FUKUOKA KEN","city":"ITOSHIMA SHI","town":"SHIMA TSUWAZAKI","perfecture_jp":"福岡県","jp_add_1":"糸島市","jp_add_2":"志摩津和崎"},"8191325":{"post_code":"8191325","prefecture":"FUKUOKA KEN","city":"ITOSHIMA SHI","town":"SHIMA NISHIKAIZUKA","perfecture_jp":"福岡県","jp_add_1":"糸島市","jp_add_2":"志摩西貝塚"},"8191303":{"post_code":"8191303","prefecture":"FUKUOKA KEN","city":"ITOSHIMA SHI","town":"SHIMA NOGITA","perfecture_jp":"福岡県","jp_add_1":"糸島市","jp_add_2":"志摩野北"},"8191312":{"post_code":"8191312","prefecture":"FUKUOKA KEN","city":"ITOSHIMA SHI","town":"SHIMA HATSU","perfecture_jp":"福岡県","jp_add_1":"糸島市","jp_add_2":"志摩初"},"8191305":{"post_code":"8191305","prefecture":"FUKUOKA KEN","city":"ITOSHIMA SHI","town":"SHIMA BABA","perfecture_jp":"福岡県","jp_add_1":"糸島市","jp_add_2":"志摩馬場"},"8191324":{"post_code":"8191324","prefecture":"FUKUOKA KEN","city":"ITOSHIMA SHI","town":"SHIMA HIGASHIKAIZUKA","perfecture_jp":"福岡県","jp_add_1":"糸島市","jp_add_2":"志摩東貝塚"},"8191336":{"post_code":"8191336","prefecture":"FUKUOKA KEN","city":"ITOSHIMA SHI","town":"SHIMA HIMESHIMA","perfecture_jp":"福岡県","jp_add_1":"糸島市","jp_add_2":"志摩姫島"},"8191332":{"post_code":"8191332","prefecture":"FUKUOKA KEN","city":"ITOSHIMA SHI","town":"SHIMA FUNAKOSHI","perfecture_jp":"福岡県","jp_add_1":"糸島市","jp_add_2":"志摩船越"},"8191306":{"post_code":"8191306","prefecture":"FUKUOKA KEN","city":"ITOSHIMA SHI","town":"SHIMA MATSUGUMA","perfecture_jp":"福岡県","jp_add_1":"糸島市","jp_add_2":"志摩松隈"},"8191322":{"post_code":"8191322","prefecture":"FUKUOKA KEN","city":"ITOSHIMA SHI","town":"SHIMA MITOKO","perfecture_jp":"福岡県","jp_add_1":"糸島市","jp_add_2":"志摩御床"},"8191314":{"post_code":"8191314","prefecture":"FUKUOKA KEN","city":"ITOSHIMA SHI","town":"SHIMA MOROYOSHI","perfecture_jp":"福岡県","jp_add_1":"糸島市","jp_add_2":"志摩師吉"},"8191302":{"post_code":"8191302","prefecture":"FUKUOKA KEN","city":"ITOSHIMA SHI","town":"SHIMA YOSHIDA","perfecture_jp":"福岡県","jp_add_1":"糸島市","jp_add_2":"志摩吉田"},"8191154":{"post_code":"8191154","prefecture":"FUKUOKA KEN","city":"ITOSHIMA SHI","town":"SHIRAITO","perfecture_jp":"福岡県","jp_add_1":"糸島市","jp_add_2":"白糸"},"8191114":{"post_code":"8191114","prefecture":"FUKUOKA KEN","city":"ITOSHIMA SHI","town":"SHINDEN","perfecture_jp":"福岡県","jp_add_1":"糸島市","jp_add_2":"新田"},"8191581":{"post_code":"8191581","prefecture":"FUKUOKA KEN","city":"ITOSHIMA SHI","town":"ZUIBAIJI","perfecture_jp":"福岡県","jp_add_1":"糸島市","jp_add_2":"瑞梅寺"},"8191572":{"post_code":"8191572","prefecture":"FUKUOKA KEN","city":"ITOSHIMA SHI","town":"SUENAGA","perfecture_jp":"福岡県","jp_add_1":"糸島市","jp_add_2":"末永"},"8191156":{"post_code":"8191156","prefecture":"FUKUOKA KEN","city":"ITOSHIMA SHI","town":"SETO","perfecture_jp":"福岡県","jp_add_1":"糸島市","jp_add_2":"瀬戸"},"8191561":{"post_code":"8191561","prefecture":"FUKUOKA KEN","city":"ITOSHIMA SHI","town":"SONE","perfecture_jp":"福岡県","jp_add_1":"糸島市","jp_add_2":"曽根"},"8191564":{"post_code":"8191564","prefecture":"FUKUOKA KEN","city":"ITOSHIMA SHI","town":"DAIMON","perfecture_jp":"福岡県","jp_add_1":"糸島市","jp_add_2":"大門"},"8191143":{"post_code":"8191143","prefecture":"FUKUOKA KEN","city":"ITOSHIMA SHI","town":"TAKAUE","perfecture_jp":"福岡県","jp_add_1":"糸島市","jp_add_2":"高上"},"8191571":{"post_code":"8191571","prefecture":"FUKUOKA KEN","city":"ITOSHIMA SHI","town":"TAKASU","perfecture_jp":"福岡県","jp_add_1":"糸島市","jp_add_2":"高祖"},"8191102":{"post_code":"8191102","prefecture":"FUKUOKA KEN","city":"ITOSHIMA SHI","town":"TAKATA","perfecture_jp":"福岡県","jp_add_1":"糸島市","jp_add_2":"高田"},"8191134":{"post_code":"8191134","prefecture":"FUKUOKA KEN","city":"ITOSHIMA SHI","town":"TAKU","perfecture_jp":"福岡県","jp_add_1":"糸島市","jp_add_2":"多久"},"8191125":{"post_code":"8191125","prefecture":"FUKUOKA KEN","city":"ITOSHIMA SHI","town":"CHIHAYASHINDEN","perfecture_jp":"福岡県","jp_add_1":"糸島市","jp_add_2":"千早新田"},"8191111":{"post_code":"8191111","prefecture":"FUKUOKA KEN","city":"ITOSHIMA SHI","town":"TOMARI","perfecture_jp":"福岡県","jp_add_1":"糸島市","jp_add_2":"泊"},"8191133":{"post_code":"8191133","prefecture":"FUKUOKA KEN","city":"ITOSHIMA SHI","town":"TOMI","perfecture_jp":"福岡県","jp_add_1":"糸島市","jp_add_2":"富"},"8191153":{"post_code":"8191153","prefecture":"FUKUOKA KEN","city":"ITOSHIMA SHI","town":"NAGANO","perfecture_jp":"福岡県","jp_add_1":"糸島市","jp_add_2":"長野"},"8191575":{"post_code":"8191575","prefecture":"FUKUOKA KEN","city":"ITOSHIMA SHI","town":"NISHINODO","perfecture_jp":"福岡県","jp_add_1":"糸島市","jp_add_2":"西堂"},"8191622":{"post_code":"8191622","prefecture":"FUKUOKA KEN","city":"ITOSHIMA SHI","town":"NIJO IKISAN","perfecture_jp":"福岡県","jp_add_1":"糸島市","jp_add_2":"二丈一貴山"},"8191623":{"post_code":"8191623","prefecture":"FUKUOKA KEN","city":"ITOSHIMA SHI","town":"NIJO ISHIZAKI","perfecture_jp":"福岡県","jp_add_1":"糸島市","jp_add_2":"二丈石崎"},"8191611":{"post_code":"8191611","prefecture":"FUKUOKA KEN","city":"ITOSHIMA SHI","town":"NIJO KATAYAMA","perfecture_jp":"福岡県","jp_add_1":"糸島市","jp_add_2":"二丈片山"},"8191621":{"post_code":"8191621","prefecture":"FUKUOKA KEN","city":"ITOSHIMA SHI","town":"NIJO KAMIFUKAE","perfecture_jp":"福岡県","jp_add_1":"糸島市","jp_add_2":"二丈上深江"},"8191642":{"post_code":"8191642","prefecture":"FUKUOKA KEN","city":"ITOSHIMA SHI","town":"NIJO SHIKAKA","perfecture_jp":"福岡県","jp_add_1":"糸島市","jp_add_2":"二丈鹿家"},"8191616":{"post_code":"8191616","prefecture":"FUKUOKA KEN","city":"ITOSHIMA SHI","town":"NIJO TAKE","perfecture_jp":"福岡県","jp_add_1":"糸島市","jp_add_2":"二丈武"},"8191615":{"post_code":"8191615","prefecture":"FUKUOKA KEN","city":"ITOSHIMA SHI","town":"NIJO TANAKA","perfecture_jp":"福岡県","jp_add_1":"糸島市","jp_add_2":"二丈田中"},"8191625":{"post_code":"8191625","prefecture":"FUKUOKA KEN","city":"ITOSHIMA SHI","town":"NIJO NAGAISHI","perfecture_jp":"福岡県","jp_add_1":"糸島市","jp_add_2":"二丈長石"},"8191614":{"post_code":"8191614","prefecture":"FUKUOKA KEN","city":"ITOSHIMA SHI","town":"NIJO HAMAKUBO","perfecture_jp":"福岡県","jp_add_1":"糸島市","jp_add_2":"二丈浜窪"},"8191626":{"post_code":"8191626","prefecture":"FUKUOKA KEN","city":"ITOSHIMA SHI","town":"NIJO HARO","perfecture_jp":"福岡県","jp_add_1":"糸島市","jp_add_2":"二丈波呂"},"8191601":{"post_code":"8191601","prefecture":"FUKUOKA KEN","city":"ITOSHIMA SHI","town":"NIJO FUKAE","perfecture_jp":"福岡県","jp_add_1":"糸島市","jp_add_2":"二丈深江"},"8191631":{"post_code":"8191631","prefecture":"FUKUOKA KEN","city":"ITOSHIMA SHI","town":"NIJO FUKUI","perfecture_jp":"福岡県","jp_add_1":"糸島市","jp_add_2":"二丈福井"},"8191612":{"post_code":"8191612","prefecture":"FUKUOKA KEN","city":"ITOSHIMA SHI","town":"NIJO MASUE(SHIMOMASUE)","perfecture_jp":"福岡県","jp_add_1":"糸島市","jp_add_2":"二丈松末"},"8191613":{"post_code":"8191613","prefecture":"FUKUOKA KEN","city":"ITOSHIMA SHI","town":"NIJO MASUE(SONOTA)","perfecture_jp":"福岡県","jp_add_1":"糸島市","jp_add_2":"二丈松末"},"8191627":{"post_code":"8191627","prefecture":"FUKUOKA KEN","city":"ITOSHIMA SHI","town":"NIJO MATSUKUNI","perfecture_jp":"福岡県","jp_add_1":"糸島市","jp_add_2":"二丈松国"},"8191624":{"post_code":"8191624","prefecture":"FUKUOKA KEN","city":"ITOSHIMA SHI","town":"NIJO MITSUYOSHI","perfecture_jp":"福岡県","jp_add_1":"糸島市","jp_add_2":"二丈満吉"},"8191641":{"post_code":"8191641","prefecture":"FUKUOKA KEN","city":"ITOSHIMA SHI","town":"NIJO YOSHII","perfecture_jp":"福岡県","jp_add_1":"糸島市","jp_add_2":"二丈吉井"},"8191104":{"post_code":"8191104","prefecture":"FUKUOKA KEN","city":"ITOSHIMA SHI","town":"HATAE","perfecture_jp":"福岡県","jp_add_1":"糸島市","jp_add_2":"波多江"},"8191107":{"post_code":"8191107","prefecture":"FUKUOKA KEN","city":"ITOSHIMA SHI","town":"HATAEEKIKITA","perfecture_jp":"福岡県","jp_add_1":"糸島市","jp_add_2":"波多江駅北"},"8191108":{"post_code":"8191108","prefecture":"FUKUOKA KEN","city":"ITOSHIMA SHI","town":"HATAEEKIMINAMI","perfecture_jp":"福岡県","jp_add_1":"糸島市","jp_add_2":"波多江駅南"},"8191122":{"post_code":"8191122","prefecture":"FUKUOKA KEN","city":"ITOSHIMA SHI","town":"HIGASHI","perfecture_jp":"福岡県","jp_add_1":"糸島市","jp_add_2":"東"},"8191151":{"post_code":"8191151","prefecture":"FUKUOKA KEN","city":"ITOSHIMA SHI","town":"HON","perfecture_jp":"福岡県","jp_add_1":"糸島市","jp_add_2":"本"},"8191113":{"post_code":"8191113","prefecture":"FUKUOKA KEN","city":"ITOSHIMA SHI","town":"MAEBARU","perfecture_jp":"福岡県","jp_add_1":"糸島市","jp_add_2":"前原"},"8191138":{"post_code":"8191138","prefecture":"FUKUOKA KEN","city":"ITOSHIMA SHI","town":"MAEBARUEKIMINAMI","perfecture_jp":"福岡県","jp_add_1":"糸島市","jp_add_2":"前原駅南"},"8191118":{"post_code":"8191118","prefecture":"FUKUOKA KEN","city":"ITOSHIMA SHI","town":"MAEBARUKITA","perfecture_jp":"福岡県","jp_add_1":"糸島市","jp_add_2":"前原北"},"8191116":{"post_code":"8191116","prefecture":"FUKUOKA KEN","city":"ITOSHIMA SHI","town":"MAEBARUCHUO","perfecture_jp":"福岡県","jp_add_1":"糸島市","jp_add_2":"前原中央"},"8191117":{"post_code":"8191117","prefecture":"FUKUOKA KEN","city":"ITOSHIMA SHI","town":"MAEBARUNISHI","perfecture_jp":"福岡県","jp_add_1":"糸島市","jp_add_2":"前原西"},"8191119":{"post_code":"8191119","prefecture":"FUKUOKA KEN","city":"ITOSHIMA SHI","town":"MAEBARUHIGASHI","perfecture_jp":"福岡県","jp_add_1":"糸島市","jp_add_2":"前原東"},"8191139":{"post_code":"8191139","prefecture":"FUKUOKA KEN","city":"ITOSHIMA SHI","town":"MAEBARUMINAMI","perfecture_jp":"福岡県","jp_add_1":"糸島市","jp_add_2":"前原南"},"8191583":{"post_code":"8191583","prefecture":"FUKUOKA KEN","city":"ITOSHIMA SHI","town":"MIKUMO","perfecture_jp":"福岡県","jp_add_1":"糸島市","jp_add_2":"三雲"},"8191146":{"post_code":"8191146","prefecture":"FUKUOKA KEN","city":"ITOSHIMA SHI","town":"MISAKA","perfecture_jp":"福岡県","jp_add_1":"糸島市","jp_add_2":"三坂"},"8191136":{"post_code":"8191136","prefecture":"FUKUOKA KEN","city":"ITOSHIMA SHI","town":"MISAKIGAOKA","perfecture_jp":"福岡県","jp_add_1":"糸島市","jp_add_2":"美咲が丘"},"8191137":{"post_code":"8191137","prefecture":"FUKUOKA KEN","city":"ITOSHIMA SHI","town":"MINAKAZEDAI","perfecture_jp":"福岡県","jp_add_1":"糸島市","jp_add_2":"南風台"},"8191142":{"post_code":"8191142","prefecture":"FUKUOKA KEN","city":"ITOSHIMA SHI","town":"YASHIMA","perfecture_jp":"福岡県","jp_add_1":"糸島市","jp_add_2":"八島"},"8191144":{"post_code":"8191144","prefecture":"FUKUOKA KEN","city":"ITOSHIMA SHI","town":"YAMAGITA","perfecture_jp":"福岡県","jp_add_1":"糸島市","jp_add_2":"山北"},"8191115":{"post_code":"8191115","prefecture":"FUKUOKA KEN","city":"ITOSHIMA SHI","town":"YUBI","perfecture_jp":"福岡県","jp_add_1":"糸島市","jp_add_2":"油比"},"8191145":{"post_code":"8191145","prefecture":"FUKUOKA KEN","city":"ITOSHIMA SHI","town":"RAIZAN","perfecture_jp":"福岡県","jp_add_1":"糸島市","jp_add_2":"雷山"}}