{"8200000":{"post_code":"8200000","prefecture":"FUKUOKA KEN","city":"IIZUKA SHI","town":"IKANIKEISAIGANAIBAAI","perfecture_jp":"福岡県","jp_add_1":"飯塚市","jp_add_2":""},"8200052":{"post_code":"8200052","prefecture":"FUKUOKA KEN","city":"IIZUKA SHI","town":"AIDA","perfecture_jp":"福岡県","jp_add_1":"飯塚市","jp_add_2":"相田"},"8200704":{"post_code":"8200704","prefecture":"FUKUOKA KEN","city":"IIZUKA SHI","town":"AE","perfecture_jp":"福岡県","jp_add_1":"飯塚市","jp_add_2":"阿恵"},"8200106":{"post_code":"8200106","prefecture":"FUKUOKA KEN","city":"IIZUKA SHI","town":"AKASAKA","perfecture_jp":"福岡県","jp_add_1":"飯塚市","jp_add_2":"赤坂"},"8200083":{"post_code":"8200083","prefecture":"FUKUOKA KEN","city":"IIZUKA SHI","town":"AKIMATSU","perfecture_jp":"福岡県","jp_add_1":"飯塚市","jp_add_2":"秋松"},"8200112":{"post_code":"8200112","prefecture":"FUKUOKA KEN","city":"IIZUKA SHI","town":"ARII","perfecture_jp":"福岡県","jp_add_1":"飯塚市","jp_add_2":"有井"},"8200111":{"post_code":"8200111","prefecture":"FUKUOKA KEN","city":"IIZUKA SHI","town":"ARIYASU","perfecture_jp":"福岡県","jp_add_1":"飯塚市","jp_add_2":"有安"},"8200041":{"post_code":"8200041","prefecture":"FUKUOKA KEN","city":"IIZUKA SHI","town":"IIZUKA","perfecture_jp":"福岡県","jp_add_1":"飯塚市","jp_add_2":"飯塚"},"8200054":{"post_code":"8200054","prefecture":"FUKUOKA KEN","city":"IIZUKA SHI","town":"IKAWA","perfecture_jp":"福岡県","jp_add_1":"飯塚市","jp_add_2":"伊川"},"8200053":{"post_code":"8200053","prefecture":"FUKUOKA KEN","city":"IIZUKA SHI","town":"IGISU","perfecture_jp":"福岡県","jp_add_1":"飯塚市","jp_add_2":"伊岐須"},"8200103":{"post_code":"8200103","prefecture":"FUKUOKA KEN","city":"IIZUKA SHI","town":"IRIMIZU","perfecture_jp":"福岡県","jp_add_1":"飯塚市","jp_add_2":"入水"},"8200706":{"post_code":"8200706","prefecture":"FUKUOKA KEN","city":"IIZUKA SHI","town":"UCHINO","perfecture_jp":"福岡県","jp_add_1":"飯塚市","jp_add_2":"内野"},"8200021":{"post_code":"8200021","prefecture":"FUKUOKA KEN","city":"IIZUKA SHI","town":"URUNO","perfecture_jp":"福岡県","jp_add_1":"飯塚市","jp_add_2":"潤野"},"8200081":{"post_code":"8200081","prefecture":"FUKUOKA KEN","city":"IIZUKA SHI","town":"EDAKUNI","perfecture_jp":"福岡県","jp_add_1":"飯塚市","jp_add_2":"枝国"},"8200114":{"post_code":"8200114","prefecture":"FUKUOKA KEN","city":"IIZUKA SHI","town":"OKADO","perfecture_jp":"福岡県","jp_add_1":"飯塚市","jp_add_2":"大門"},"8200089":{"post_code":"8200089","prefecture":"FUKUOKA KEN","city":"IIZUKA SHI","town":"OBASA","perfecture_jp":"福岡県","jp_add_1":"飯塚市","jp_add_2":"小正"},"8201112":{"post_code":"8201112","prefecture":"FUKUOKA KEN","city":"IIZUKA SHI","town":"KAKENOMA","perfecture_jp":"福岡県","jp_add_1":"飯塚市","jp_add_2":"鹿毛馬"},"8200068":{"post_code":"8200068","prefecture":"FUKUOKA KEN","city":"IIZUKA SHI","town":"KATASHIMA","perfecture_jp":"福岡県","jp_add_1":"飯塚市","jp_add_2":"片島"},"8200013":{"post_code":"8200013","prefecture":"FUKUOKA KEN","city":"IIZUKA SHI","town":"KAMIMIO","perfecture_jp":"福岡県","jp_add_1":"飯塚市","jp_add_2":"上三緒"},"8200011":{"post_code":"8200011","prefecture":"FUKUOKA KEN","city":"IIZUKA SHI","town":"KAYANOMORI","perfecture_jp":"福岡県","jp_add_1":"飯塚市","jp_add_2":"柏の森"},"8200002":{"post_code":"8200002","prefecture":"FUKUOKA KEN","city":"IIZUKA SHI","town":"KAWASHIMA","perfecture_jp":"福岡県","jp_add_1":"飯塚市","jp_add_2":"川島"},"8200067":{"post_code":"8200067","prefecture":"FUKUOKA KEN","city":"IIZUKA SHI","town":"KAWAZU","perfecture_jp":"福岡県","jp_add_1":"飯塚市","jp_add_2":"川津"},"8200703":{"post_code":"8200703","prefecture":"FUKUOKA KEN","city":"IIZUKA SHI","town":"KITAKOGA","perfecture_jp":"福岡県","jp_add_1":"飯塚市","jp_add_2":"北古賀"},"8201114":{"post_code":"8201114","prefecture":"FUKUOKA KEN","city":"IIZUKA SHI","town":"KUCHINOHARA","perfecture_jp":"福岡県","jp_add_1":"飯塚市","jp_add_2":"口原"},"8200078":{"post_code":"8200078","prefecture":"FUKUOKA KEN","city":"IIZUKA SHI","town":"KUBOSHIRO","perfecture_jp":"福岡県","jp_add_1":"飯塚市","jp_add_2":"久保白"},"8200707":{"post_code":"8200707","prefecture":"FUKUOKA KEN","city":"IIZUKA SHI","town":"KUWAMAGARI","perfecture_jp":"福岡県","jp_add_1":"飯塚市","jp_add_2":"桑曲"},"8200049":{"post_code":"8200049","prefecture":"FUKUOKA KEN","city":"IIZUKA SHI","town":"KENGEIJI","perfecture_jp":"福岡県","jp_add_1":"飯塚市","jp_add_2":"建花寺"},"8200066":{"post_code":"8200066","prefecture":"FUKUOKA KEN","city":"IIZUKA SHI","town":"KOBUKURO","perfecture_jp":"福岡県","jp_add_1":"飯塚市","jp_add_2":"幸袋"},"8200015":{"post_code":"8200015","prefecture":"FUKUOKA KEN","city":"IIZUKA SHI","town":"KOMODA","perfecture_jp":"福岡県","jp_add_1":"飯塚市","jp_add_2":"菰田"},"8200016":{"post_code":"8200016","prefecture":"FUKUOKA KEN","city":"IIZUKA SHI","town":"KOMODA HIGASHI","perfecture_jp":"福岡県","jp_add_1":"飯塚市","jp_add_2":"菰田東"},"8200017":{"post_code":"8200017","prefecture":"FUKUOKA KEN","city":"IIZUKA SHI","town":"KOMODA NISHI","perfecture_jp":"福岡県","jp_add_1":"飯塚市","jp_add_2":"菰田西"},"8201113":{"post_code":"8201113","prefecture":"FUKUOKA KEN","city":"IIZUKA SHI","town":"SAYO","perfecture_jp":"福岡県","jp_add_1":"飯塚市","jp_add_2":"佐與"},"8200012":{"post_code":"8200012","prefecture":"FUKUOKA KEN","city":"IIZUKA SHI","town":"SHIMOMIO","perfecture_jp":"福岡県","jp_add_1":"飯塚市","jp_add_2":"下三緒"},"8200062":{"post_code":"8200062","prefecture":"FUKUOKA KEN","city":"IIZUKA SHI","town":"SHAKANO","perfecture_jp":"福岡県","jp_add_1":"飯塚市","jp_add_2":"目尾"},"8200087":{"post_code":"8200087","prefecture":"FUKUOKA KEN","city":"IIZUKA SHI","town":"SHARIKURA","perfecture_jp":"福岡県","jp_add_1":"飯塚市","jp_add_2":"舎利蔵"},"8200051":{"post_code":"8200051","prefecture":"FUKUOKA KEN","city":"IIZUKA SHI","town":"SHOSHI","perfecture_jp":"福岡県","jp_add_1":"飯塚市","jp_add_2":"庄司"},"8200113":{"post_code":"8200113","prefecture":"FUKUOKA KEN","city":"IIZUKA SHI","town":"SHONAIMOTOYOSHI","perfecture_jp":"福岡県","jp_add_1":"飯塚市","jp_add_2":"庄内元吉"},"8200005":{"post_code":"8200005","prefecture":"FUKUOKA KEN","city":"IIZUKA SHI","town":"SHINIIZUKA","perfecture_jp":"福岡県","jp_add_1":"飯塚市","jp_add_2":"新飯塚"},"8200004":{"post_code":"8200004","prefecture":"FUKUOKA KEN","city":"IIZUKA SHI","town":"SHINTATEIWA","perfecture_jp":"福岡県","jp_add_1":"飯塚市","jp_add_2":"新立岩"},"8201111":{"post_code":"8201111","prefecture":"FUKUOKA KEN","city":"IIZUKA SHI","town":"SEITA","perfecture_jp":"福岡県","jp_add_1":"飯塚市","jp_add_2":"勢田"},"8200046":{"post_code":"8200046","prefecture":"FUKUOKA KEN","city":"IIZUKA SHI","town":"DAINICHIJI","perfecture_jp":"福岡県","jp_add_1":"飯塚市","jp_add_2":"大日寺"},"8200712":{"post_code":"8200712","prefecture":"FUKUOKA KEN","city":"IIZUKA SHI","town":"DAIBU","perfecture_jp":"福岡県","jp_add_1":"飯塚市","jp_add_2":"大分"},"8200104":{"post_code":"8200104","prefecture":"FUKUOKA KEN","city":"IIZUKA SHI","town":"TAKAKURA","perfecture_jp":"福岡県","jp_add_1":"飯塚市","jp_add_2":"高倉"},"8200079":{"post_code":"8200079","prefecture":"FUKUOKA KEN","city":"IIZUKA SHI","town":"TAKATA","perfecture_jp":"福岡県","jp_add_1":"飯塚市","jp_add_2":"高田"},"8200116":{"post_code":"8200116","prefecture":"FUKUOKA KEN","city":"IIZUKA SHI","town":"TADA","perfecture_jp":"福岡県","jp_add_1":"飯塚市","jp_add_2":"多田"},"8200071":{"post_code":"8200071","prefecture":"FUKUOKA KEN","city":"IIZUKA SHI","town":"TADAKUMA","perfecture_jp":"福岡県","jp_add_1":"飯塚市","jp_add_2":"忠隈"},"8200003":{"post_code":"8200003","prefecture":"FUKUOKA KEN","city":"IIZUKA SHI","town":"TATEIWA","perfecture_jp":"福岡県","jp_add_1":"飯塚市","jp_add_2":"立岩"},"8200076":{"post_code":"8200076","prefecture":"FUKUOKA KEN","city":"IIZUKA SHI","town":"TAROMARU","perfecture_jp":"福岡県","jp_add_1":"飯塚市","jp_add_2":"太郎丸"},"8200705":{"post_code":"8200705","prefecture":"FUKUOKA KEN","city":"IIZUKA SHI","town":"CHIKUHOMOTOYOSHI","perfecture_jp":"福岡県","jp_add_1":"飯塚市","jp_add_2":"筑穂元吉"},"8200064":{"post_code":"8200064","prefecture":"FUKUOKA KEN","city":"IIZUKA SHI","town":"TSUSHIMA","perfecture_jp":"福岡県","jp_add_1":"飯塚市","jp_add_2":"津島"},"8200105":{"post_code":"8200105","prefecture":"FUKUOKA KEN","city":"IIZUKA SHI","town":"TSUTSUNO","perfecture_jp":"福岡県","jp_add_1":"飯塚市","jp_add_2":"筒野"},"8200101":{"post_code":"8200101","prefecture":"FUKUOKA KEN","city":"IIZUKA SHI","town":"TSUNAWAKI","perfecture_jp":"福岡県","jp_add_1":"飯塚市","jp_add_2":"綱分"},"8200084":{"post_code":"8200084","prefecture":"FUKUOKA KEN","city":"IIZUKA SHI","town":"TSUBAKI","perfecture_jp":"福岡県","jp_add_1":"飯塚市","jp_add_2":"椿"},"8200014":{"post_code":"8200014","prefecture":"FUKUOKA KEN","city":"IIZUKA SHI","town":"TSURUMIO","perfecture_jp":"福岡県","jp_add_1":"飯塚市","jp_add_2":"鶴三緒"},"8200086":{"post_code":"8200086","prefecture":"FUKUOKA KEN","city":"IIZUKA SHI","town":"TSUWARA","perfecture_jp":"福岡県","jp_add_1":"飯塚市","jp_add_2":"津原"},"8200075":{"post_code":"8200075","prefecture":"FUKUOKA KEN","city":"IIZUKA SHI","town":"TENTO","perfecture_jp":"福岡県","jp_add_1":"飯塚市","jp_add_2":"天道"},"8200033":{"post_code":"8200033","prefecture":"FUKUOKA KEN","city":"IIZUKA SHI","town":"TOKUZEN","perfecture_jp":"福岡県","jp_add_1":"飯塚市","jp_add_2":"徳前"},"8200713":{"post_code":"8200713","prefecture":"FUKUOKA KEN","city":"IIZUKA SHI","town":"NAIJU","perfecture_jp":"福岡県","jp_add_1":"飯塚市","jp_add_2":"内住"},"8200065":{"post_code":"8200065","prefecture":"FUKUOKA KEN","city":"IIZUKA SHI","town":"NAKA","perfecture_jp":"福岡県","jp_add_1":"飯塚市","jp_add_2":"中"},"8200701":{"post_code":"8200701","prefecture":"FUKUOKA KEN","city":"IIZUKA SHI","town":"NAGAO","perfecture_jp":"福岡県","jp_add_1":"飯塚市","jp_add_2":"長尾"},"8200001":{"post_code":"8200001","prefecture":"FUKUOKA KEN","city":"IIZUKA SHI","town":"NAMAZUTA","perfecture_jp":"福岡県","jp_add_1":"飯塚市","jp_add_2":"鯰田"},"8200031":{"post_code":"8200031","prefecture":"FUKUOKA KEN","city":"IIZUKA SHI","town":"NISHITOKUZEN","perfecture_jp":"福岡県","jp_add_1":"飯塚市","jp_add_2":"西徳前"},"8200043":{"post_code":"8200043","prefecture":"FUKUOKA KEN","city":"IIZUKA SHI","town":"NISHIMACHI","perfecture_jp":"福岡県","jp_add_1":"飯塚市","jp_add_2":"西町"},"8200115":{"post_code":"8200115","prefecture":"FUKUOKA KEN","city":"IIZUKA SHI","town":"NIHO","perfecture_jp":"福岡県","jp_add_1":"飯塚市","jp_add_2":"仁保"},"8200045":{"post_code":"8200045","prefecture":"FUKUOKA KEN","city":"IIZUKA SHI","town":"HANASE","perfecture_jp":"福岡県","jp_add_1":"飯塚市","jp_add_2":"花瀬"},"8200032":{"post_code":"8200032","prefecture":"FUKUOKA KEN","city":"IIZUKA SHI","town":"HIGASHITOKUZEN","perfecture_jp":"福岡県","jp_add_1":"飯塚市","jp_add_2":"東徳前"},"8200702":{"post_code":"8200702","prefecture":"FUKUOKA KEN","city":"IIZUKA SHI","town":"HIRATSUKA","perfecture_jp":"福岡県","jp_add_1":"飯塚市","jp_add_2":"平塚"},"8200073":{"post_code":"8200073","prefecture":"FUKUOKA KEN","city":"IIZUKA SHI","town":"HIRATSUNE","perfecture_jp":"福岡県","jp_add_1":"飯塚市","jp_add_2":"平恒"},"8200088":{"post_code":"8200088","prefecture":"FUKUOKA KEN","city":"IIZUKA SHI","town":"BEMBUN","perfecture_jp":"福岡県","jp_add_1":"飯塚市","jp_add_2":"弁分"},"8200070":{"post_code":"8200070","prefecture":"FUKUOKA KEN","city":"IIZUKA SHI","town":"HORIIKE","perfecture_jp":"福岡県","jp_add_1":"飯塚市","jp_add_2":"堀池"},"8200042":{"post_code":"8200042","prefecture":"FUKUOKA KEN","city":"IIZUKA SHI","town":"HOMMACHI","perfecture_jp":"福岡県","jp_add_1":"飯塚市","jp_add_2":"本町"},"8200709":{"post_code":"8200709","prefecture":"FUKUOKA KEN","city":"IIZUKA SHI","town":"MASHIKI","perfecture_jp":"福岡県","jp_add_1":"飯塚市","jp_add_2":"馬敷"},"8200072":{"post_code":"8200072","prefecture":"FUKUOKA KEN","city":"IIZUKA SHI","town":"MINAMIO","perfecture_jp":"福岡県","jp_add_1":"飯塚市","jp_add_2":"南尾"},"8200069":{"post_code":"8200069","prefecture":"FUKUOKA KEN","city":"IIZUKA SHI","town":"MIYAMACHI","perfecture_jp":"福岡県","jp_add_1":"飯塚市","jp_add_2":"宮町"},"8200022":{"post_code":"8200022","prefecture":"FUKUOKA KEN","city":"IIZUKA SHI","town":"MYOJOJI","perfecture_jp":"福岡県","jp_add_1":"飯塚市","jp_add_2":"明星寺"},"8200077":{"post_code":"8200077","prefecture":"FUKUOKA KEN","city":"IIZUKA SHI","town":"MUKUMOTO","perfecture_jp":"福岡県","jp_add_1":"飯塚市","jp_add_2":"椋本"},"8200047":{"post_code":"8200047","prefecture":"FUKUOKA KEN","city":"IIZUKA SHI","town":"YAKIYAMA","perfecture_jp":"福岡県","jp_add_1":"飯塚市","jp_add_2":"八木山"},"8200085":{"post_code":"8200085","prefecture":"FUKUOKA KEN","city":"IIZUKA SHI","town":"YASUTSUNE","perfecture_jp":"福岡県","jp_add_1":"飯塚市","jp_add_2":"安恒"},"8200063":{"post_code":"8200063","prefecture":"FUKUOKA KEN","city":"IIZUKA SHI","town":"YANAGIBASHI","perfecture_jp":"福岡県","jp_add_1":"飯塚市","jp_add_2":"柳橋"},"8200711":{"post_code":"8200711","prefecture":"FUKUOKA KEN","city":"IIZUKA SHI","town":"YAMAGUCHI","perfecture_jp":"福岡県","jp_add_1":"飯塚市","jp_add_2":"山口"},"8200102":{"post_code":"8200102","prefecture":"FUKUOKA KEN","city":"IIZUKA SHI","town":"YAMAKURA","perfecture_jp":"福岡県","jp_add_1":"飯塚市","jp_add_2":"山倉"},"8200708":{"post_code":"8200708","prefecture":"FUKUOKA KEN","city":"IIZUKA SHI","town":"YAYAMA","perfecture_jp":"福岡県","jp_add_1":"飯塚市","jp_add_2":"弥山"},"8200044":{"post_code":"8200044","prefecture":"FUKUOKA KEN","city":"IIZUKA SHI","town":"YOKOTA","perfecture_jp":"福岡県","jp_add_1":"飯塚市","jp_add_2":"横田"},"8200018":{"post_code":"8200018","prefecture":"FUKUOKA KEN","city":"IIZUKA SHI","town":"YOSHIOMACHI","perfecture_jp":"福岡県","jp_add_1":"飯塚市","jp_add_2":"芳雄町"},"8200040":{"post_code":"8200040","prefecture":"FUKUOKA KEN","city":"IIZUKA SHI","town":"YOSHIHARAMACHI","perfecture_jp":"福岡県","jp_add_1":"飯塚市","jp_add_2":"吉原町"},"8200061":{"post_code":"8200061","prefecture":"FUKUOKA KEN","city":"IIZUKA SHI","town":"YOSHIKITA","perfecture_jp":"福岡県","jp_add_1":"飯塚市","jp_add_2":"吉北"},"8200074":{"post_code":"8200074","prefecture":"FUKUOKA KEN","city":"IIZUKA SHI","town":"RAKUICHI","perfecture_jp":"福岡県","jp_add_1":"飯塚市","jp_add_2":"楽市"},"8200048":{"post_code":"8200048","prefecture":"FUKUOKA KEN","city":"IIZUKA SHI","town":"RENDAIJI","perfecture_jp":"福岡県","jp_add_1":"飯塚市","jp_add_2":"蓮台寺"},"8200082":{"post_code":"8200082","prefecture":"FUKUOKA KEN","city":"IIZUKA SHI","town":"WAKANA","perfecture_jp":"福岡県","jp_add_1":"飯塚市","jp_add_2":"若菜"},"8200200":{"post_code":"8200200","prefecture":"FUKUOKA KEN","city":"KAMA SHI","town":"IKANIKEISAIGANAIBAAI","perfecture_jp":"福岡県","jp_add_1":"嘉麻市","jp_add_2":""},"8200331":{"post_code":"8200331","prefecture":"FUKUOKA KEN","city":"KAMA SHI","town":"AKUTADA","perfecture_jp":"福岡県","jp_add_1":"嘉麻市","jp_add_2":"芥田"},"8200501":{"post_code":"8200501","prefecture":"FUKUOKA KEN","city":"KAMA SHI","town":"IIDA","perfecture_jp":"福岡県","jp_add_1":"嘉麻市","jp_add_2":"飯田"},"8200334":{"post_code":"8200334","prefecture":"FUKUOKA KEN","city":"KAMA SHI","town":"IZUMIKOCHI","perfecture_jp":"福岡県","jp_add_1":"嘉麻市","jp_add_2":"泉河内"},"8200204":{"post_code":"8200204","prefecture":"FUKUOKA KEN","city":"KAMA SHI","town":"INATSUKISAIDA","perfecture_jp":"福岡県","jp_add_1":"嘉麻市","jp_add_2":"稲築才田"},"8200205":{"post_code":"8200205","prefecture":"FUKUOKA KEN","city":"KAMA SHI","town":"IWASAKI","perfecture_jp":"福岡県","jp_add_1":"嘉麻市","jp_add_2":"岩崎"},"8200301":{"post_code":"8200301","prefecture":"FUKUOKA KEN","city":"KAMA SHI","town":"USHIKUMA","perfecture_jp":"福岡県","jp_add_1":"嘉麻市","jp_add_2":"牛隈"},"8200321":{"post_code":"8200321","prefecture":"FUKUOKA KEN","city":"KAMA SHI","town":"UMAMI","perfecture_jp":"福岡県","jp_add_1":"嘉麻市","jp_add_2":"馬見"},"8200201":{"post_code":"8200201","prefecture":"FUKUOKA KEN","city":"KAMA SHI","town":"URUSHIO","perfecture_jp":"福岡県","jp_add_1":"嘉麻市","jp_add_2":"漆生"},"8200304":{"post_code":"8200304","prefecture":"FUKUOKA KEN","city":"KAMA SHI","town":"OKUMA(SONOTA)","perfecture_jp":"福岡県","jp_add_1":"嘉麻市","jp_add_2":"大隈"},"8200302":{"post_code":"8200302","prefecture":"FUKUOKA KEN","city":"KAMA SHI","town":"OKUMAMACHI(SONOTA)","perfecture_jp":"福岡県","jp_add_1":"嘉麻市","jp_add_2":"大隈町"},"8200314":{"post_code":"8200314","prefecture":"FUKUOKA KEN","city":"KAMA SHI","town":"ONODANI","perfecture_jp":"福岡県","jp_add_1":"嘉麻市","jp_add_2":"小野谷"},"8200336":{"post_code":"8200336","prefecture":"FUKUOKA KEN","city":"KAMA SHI","town":"KAHOSAITA","perfecture_jp":"福岡県","jp_add_1":"嘉麻市","jp_add_2":"嘉穂才田"},"8200311":{"post_code":"8200311","prefecture":"FUKUOKA KEN","city":"KAMA SHI","town":"KAMI","perfecture_jp":"福岡県","jp_add_1":"嘉麻市","jp_add_2":"上"},"8200502":{"post_code":"8200502","prefecture":"FUKUOKA KEN","city":"KAMA SHI","town":"KAMIUSUI","perfecture_jp":"福岡県","jp_add_1":"嘉麻市","jp_add_2":"上臼井"},"8200306":{"post_code":"8200306","prefecture":"FUKUOKA KEN","city":"KAMA SHI","town":"KAMISAIGO","perfecture_jp":"福岡県","jp_add_1":"嘉麻市","jp_add_2":"上西郷"},"8200206":{"post_code":"8200206","prefecture":"FUKUOKA KEN","city":"KAMA SHI","town":"KAMO","perfecture_jp":"福岡県","jp_add_1":"嘉麻市","jp_add_2":"鴨生"},"8200207":{"post_code":"8200207","prefecture":"FUKUOKA KEN","city":"KAMA SHI","town":"KUCHINOHARU","perfecture_jp":"福岡県","jp_add_1":"嘉麻市","jp_add_2":"口春"},"8200337":{"post_code":"8200337","prefecture":"FUKUOKA KEN","city":"KAMA SHI","town":"KUROBARU","perfecture_jp":"福岡県","jp_add_1":"嘉麻市","jp_add_2":"九郎原"},"8200313":{"post_code":"8200313","prefecture":"FUKUOKA KEN","city":"KAMA SHI","town":"KUWANO","perfecture_jp":"福岡県","jp_add_1":"嘉麻市","jp_add_2":"桑野"},"8200503":{"post_code":"8200503","prefecture":"FUKUOKA KEN","city":"KAMA SHI","town":"KODAI","perfecture_jp":"福岡県","jp_add_1":"嘉麻市","jp_add_2":"光代"},"8200305":{"post_code":"8200305","prefecture":"FUKUOKA KEN","city":"KAMA SHI","town":"SADATSUKI","perfecture_jp":"福岡県","jp_add_1":"嘉麻市","jp_add_2":"貞月"},"8200323":{"post_code":"8200323","prefecture":"FUKUOKA KEN","city":"KAMA SHI","town":"SHIINOKI","perfecture_jp":"福岡県","jp_add_1":"嘉麻市","jp_add_2":"椎木"},"8200504":{"post_code":"8200504","prefecture":"FUKUOKA KEN","city":"KAMA SHI","town":"SHIMOSUI","perfecture_jp":"福岡県","jp_add_1":"嘉麻市","jp_add_2":"下臼井"},"8200332":{"post_code":"8200332","prefecture":"FUKUOKA KEN","city":"KAMA SHI","town":"SENZU","perfecture_jp":"福岡県","jp_add_1":"嘉麻市","jp_add_2":"千手"},"8200333":{"post_code":"8200333","prefecture":"FUKUOKA KEN","city":"KAMA SHI","town":"DAIRIKI","perfecture_jp":"福岡県","jp_add_1":"嘉麻市","jp_add_2":"大力"},"8200303":{"post_code":"8200303","prefecture":"FUKUOKA KEN","city":"KAMA SHI","town":"NAKAMASU","perfecture_jp":"福岡県","jp_add_1":"嘉麻市","jp_add_2":"中益"},"8200505":{"post_code":"8200505","prefecture":"FUKUOKA KEN","city":"KAMA SHI","town":"NISHINOGO","perfecture_jp":"福岡県","jp_add_1":"嘉麻市","jp_add_2":"西郷"},"8200335":{"post_code":"8200335","prefecture":"FUKUOKA KEN","city":"KAMA SHI","town":"HIGASHIHATA","perfecture_jp":"福岡県","jp_add_1":"嘉麻市","jp_add_2":"東畑"},"8200203":{"post_code":"8200203","prefecture":"FUKUOKA KEN","city":"KAMA SHI","town":"HIRA","perfecture_jp":"福岡県","jp_add_1":"嘉麻市","jp_add_2":"平"},"8200506":{"post_code":"8200506","prefecture":"FUKUOKA KEN","city":"KAMA SHI","town":"HIRAYAMA","perfecture_jp":"福岡県","jp_add_1":"嘉麻市","jp_add_2":"平山"},"8200322":{"post_code":"8200322","prefecture":"FUKUOKA KEN","city":"KAMA SHI","town":"HEI","perfecture_jp":"福岡県","jp_add_1":"嘉麻市","jp_add_2":"屏"},"8200312":{"post_code":"8200312","prefecture":"FUKUOKA KEN","city":"KAMA SHI","town":"MIYAYOSHI","perfecture_jp":"福岡県","jp_add_1":"嘉麻市","jp_add_2":"宮吉"},"8200202":{"post_code":"8200202","prefecture":"FUKUOKA KEN","city":"KAMA SHI","town":"YAMANO","perfecture_jp":"福岡県","jp_add_1":"嘉麻市","jp_add_2":"山野"},"8201100":{"post_code":"8201100","prefecture":"FUKUOKA KEN","city":"KURATE GUN KOTAKE MACHI","town":"IKANIKEISAIGANAIBAAI","perfecture_jp":"福岡県","jp_add_1":"鞍手郡小竹町","jp_add_2":""},"8201102":{"post_code":"8201102","prefecture":"FUKUOKA KEN","city":"KURATE GUN KOTAKE MACHI","town":"AKAJI","perfecture_jp":"福岡県","jp_add_1":"鞍手郡小竹町","jp_add_2":"赤地"},"8201103":{"post_code":"8201103","prefecture":"FUKUOKA KEN","city":"KURATE GUN KOTAKE MACHI","town":"KATSUNO","perfecture_jp":"福岡県","jp_add_1":"鞍手郡小竹町","jp_add_2":"勝野"},"8201101":{"post_code":"8201101","prefecture":"FUKUOKA KEN","city":"KURATE GUN KOTAKE MACHI","town":"GOTOKU","perfecture_jp":"福岡県","jp_add_1":"鞍手郡小竹町","jp_add_2":"御徳"},"8201105":{"post_code":"8201105","prefecture":"FUKUOKA KEN","city":"KURATE GUN KOTAKE MACHI","town":"SHINYAMAZAKI","perfecture_jp":"福岡県","jp_add_1":"鞍手郡小竹町","jp_add_2":"新山崎"},"8201106":{"post_code":"8201106","prefecture":"FUKUOKA KEN","city":"KURATE GUN KOTAKE MACHI","town":"NARAZU","perfecture_jp":"福岡県","jp_add_1":"鞍手郡小竹町","jp_add_2":"南良津"},"8201104":{"post_code":"8201104","prefecture":"FUKUOKA KEN","city":"KURATE GUN KOTAKE MACHI","town":"NIIDA","perfecture_jp":"福岡県","jp_add_1":"鞍手郡小竹町","jp_add_2":"新多"},"8200600":{"post_code":"8200600","prefecture":"FUKUOKA KEN","city":"KAHO GUN KEISEN MACHI","town":"IKANIKEISAIGANAIBAAI","perfecture_jp":"福岡県","jp_add_1":"嘉穂郡桂川町","jp_add_2":""},"8200601":{"post_code":"8200601","prefecture":"FUKUOKA KEN","city":"KAHO GUN KEISEN MACHI","town":"UCHIYAMADA","perfecture_jp":"福岡県","jp_add_1":"嘉穂郡桂川町","jp_add_2":"内山田"},"8200602":{"post_code":"8200602","prefecture":"FUKUOKA KEN","city":"KAHO GUN KEISEN MACHI","town":"KUROMARU","perfecture_jp":"福岡県","jp_add_1":"嘉穂郡桂川町","jp_add_2":"九郎丸"},"8200603":{"post_code":"8200603","prefecture":"FUKUOKA KEN","city":"KAHO GUN KEISEN MACHI","town":"JUMEI","perfecture_jp":"福岡県","jp_add_1":"嘉穂郡桂川町","jp_add_2":"寿命"},"8200604":{"post_code":"8200604","prefecture":"FUKUOKA KEN","city":"KAHO GUN KEISEN MACHI","town":"SETO","perfecture_jp":"福岡県","jp_add_1":"嘉穂郡桂川町","jp_add_2":"瀬戸"},"8200605":{"post_code":"8200605","prefecture":"FUKUOKA KEN","city":"KAHO GUN KEISEN MACHI","town":"CHUYA","perfecture_jp":"福岡県","jp_add_1":"嘉穂郡桂川町","jp_add_2":"中屋"},"8200606":{"post_code":"8200606","prefecture":"FUKUOKA KEN","city":"KAHO GUN KEISEN MACHI","town":"TOI","perfecture_jp":"福岡県","jp_add_1":"嘉穂郡桂川町","jp_add_2":"土居"},"8200607":{"post_code":"8200607","prefecture":"FUKUOKA KEN","city":"KAHO GUN KEISEN MACHI","town":"HAJI","perfecture_jp":"福岡県","jp_add_1":"嘉穂郡桂川町","jp_add_2":"土師"},"8200608":{"post_code":"8200608","prefecture":"FUKUOKA KEN","city":"KAHO GUN KEISEN MACHI","town":"MAMEDA","perfecture_jp":"福岡県","jp_add_1":"嘉穂郡桂川町","jp_add_2":"豆田"},"8200609":{"post_code":"8200609","prefecture":"FUKUOKA KEN","city":"KAHO GUN KEISEN MACHI","town":"YOSHIKUMA","perfecture_jp":"福岡県","jp_add_1":"嘉穂郡桂川町","jp_add_2":"吉隈"}}