{"8220000":{"post_code":"8220000","prefecture":"FUKUOKA KEN","city":"NOGATA SHI","town":"IKANIKEISAIGANAIBAAI","perfecture_jp":"福岡県","jp_add_1":"直方市","jp_add_2":""},"8220012":{"post_code":"8220012","prefecture":"FUKUOKA KEN","city":"NOGATA SHI","town":"AKAJI","perfecture_jp":"福岡県","jp_add_1":"直方市","jp_add_2":"赤地"},"8220031":{"post_code":"8220031","prefecture":"FUKUOKA KEN","city":"NOGATA SHI","town":"UEKI","perfecture_jp":"福岡県","jp_add_1":"直方市","jp_add_2":"植木"},"8220005":{"post_code":"8220005","prefecture":"FUKUOKA KEN","city":"NOGATA SHI","town":"EIMANJI","perfecture_jp":"福岡県","jp_add_1":"直方市","jp_add_2":"永満寺"},"8220006":{"post_code":"8220006","prefecture":"FUKUOKA KEN","city":"NOGATA SHI","town":"KAMIZAKAI","perfecture_jp":"福岡県","jp_add_1":"直方市","jp_add_2":"上境"},"8220033":{"post_code":"8220033","prefecture":"FUKUOKA KEN","city":"NOGATA SHI","town":"KAMISHINNYU","perfecture_jp":"福岡県","jp_add_1":"直方市","jp_add_2":"上新入"},"8220003":{"post_code":"8220003","prefecture":"FUKUOKA KEN","city":"NOGATA SHI","town":"KAMITONNO","perfecture_jp":"福岡県","jp_add_1":"直方市","jp_add_2":"上頓野"},"8220001":{"post_code":"8220001","prefecture":"FUKUOKA KEN","city":"NOGATA SHI","town":"GANDA","perfecture_jp":"福岡県","jp_add_1":"直方市","jp_add_2":"感田"},"8220007":{"post_code":"8220007","prefecture":"FUKUOKA KEN","city":"NOGATA SHI","town":"SHIMOZAKAI","perfecture_jp":"福岡県","jp_add_1":"直方市","jp_add_2":"下境"},"8220032":{"post_code":"8220032","prefecture":"FUKUOKA KEN","city":"NOGATA SHI","town":"SHIMOSHINNYU","perfecture_jp":"福岡県","jp_add_1":"直方市","jp_add_2":"下新入"},"8220023":{"post_code":"8220023","prefecture":"FUKUOKA KEN","city":"NOGATA SHI","town":"SHINSEIMACHI","perfecture_jp":"福岡県","jp_add_1":"直方市","jp_add_2":"神正町"},"8220021":{"post_code":"8220021","prefecture":"FUKUOKA KEN","city":"NOGATA SHI","town":"SHINCHIMACHI","perfecture_jp":"福岡県","jp_add_1":"直方市","jp_add_2":"新知町"},"8220015":{"post_code":"8220015","prefecture":"FUKUOKA KEN","city":"NOGATA SHI","town":"SHIMMACHI","perfecture_jp":"福岡県","jp_add_1":"直方市","jp_add_2":"新町"},"8220024":{"post_code":"8220024","prefecture":"FUKUOKA KEN","city":"NOGATA SHI","town":"SUSAKIMACHI","perfecture_jp":"福岡県","jp_add_1":"直方市","jp_add_2":"須崎町"},"8220022":{"post_code":"8220022","prefecture":"FUKUOKA KEN","city":"NOGATA SHI","town":"CHIKO","perfecture_jp":"福岡県","jp_add_1":"直方市","jp_add_2":"知古"},"8220026":{"post_code":"8220026","prefecture":"FUKUOKA KEN","city":"NOGATA SHI","town":"TSUDAMACHI","perfecture_jp":"福岡県","jp_add_1":"直方市","jp_add_2":"津田町"},"8220017":{"post_code":"8220017","prefecture":"FUKUOKA KEN","city":"NOGATA SHI","town":"TONOMACHI","perfecture_jp":"福岡県","jp_add_1":"直方市","jp_add_2":"殿町"},"8220002":{"post_code":"8220002","prefecture":"FUKUOKA KEN","city":"NOGATA SHI","town":"TONNO","perfecture_jp":"福岡県","jp_add_1":"直方市","jp_add_2":"頓野"},"8220011":{"post_code":"8220011","prefecture":"FUKUOKA KEN","city":"NOGATA SHI","town":"NAKAIZUMI","perfecture_jp":"福岡県","jp_add_1":"直方市","jp_add_2":"中泉"},"8220016":{"post_code":"8220016","prefecture":"FUKUOKA KEN","city":"NOGATA SHI","town":"NOGATA","perfecture_jp":"福岡県","jp_add_1":"直方市","jp_add_2":"直方"},"8220004":{"post_code":"8220004","prefecture":"FUKUOKA KEN","city":"NOGATA SHI","town":"HATA","perfecture_jp":"福岡県","jp_add_1":"直方市","jp_add_2":"畑"},"8220025":{"post_code":"8220025","prefecture":"FUKUOKA KEN","city":"NOGATA SHI","town":"HIYOSHIMACHI","perfecture_jp":"福岡県","jp_add_1":"直方市","jp_add_2":"日吉町"},"8220027":{"post_code":"8220027","prefecture":"FUKUOKA KEN","city":"NOGATA SHI","town":"FURUMACHI","perfecture_jp":"福岡県","jp_add_1":"直方市","jp_add_2":"古町"},"8220014":{"post_code":"8220014","prefecture":"FUKUOKA KEN","city":"NOGATA SHI","town":"MARUYAMAMACHI","perfecture_jp":"福岡県","jp_add_1":"直方市","jp_add_2":"丸山町"},"8220013":{"post_code":"8220013","prefecture":"FUKUOKA KEN","city":"NOGATA SHI","town":"MIZOHORI","perfecture_jp":"福岡県","jp_add_1":"直方市","jp_add_2":"溝堀"},"8220034":{"post_code":"8220034","prefecture":"FUKUOKA KEN","city":"NOGATA SHI","town":"YAMABE","perfecture_jp":"福岡県","jp_add_1":"直方市","jp_add_2":"山部"},"8220008":{"post_code":"8220008","prefecture":"FUKUOKA KEN","city":"NOGATA SHI","town":"YUNOHARA","perfecture_jp":"福岡県","jp_add_1":"直方市","jp_add_2":"湯野原"},"8220144":{"post_code":"8220144","prefecture":"FUKUOKA KEN","city":"MIYAWAKA SHI","town":"INAMITSU","perfecture_jp":"福岡県","jp_add_1":"宮若市","jp_add_2":"稲光"},"8220134":{"post_code":"8220134","prefecture":"FUKUOKA KEN","city":"MIYAWAKA SHI","town":"INUNAKI","perfecture_jp":"福岡県","jp_add_1":"宮若市","jp_add_2":"犬鳴"},"8220131":{"post_code":"8220131","prefecture":"FUKUOKA KEN","city":"MIYAWAKA SHI","town":"OTONO","perfecture_jp":"福岡県","jp_add_1":"宮若市","jp_add_2":"乙野"},"8220111":{"post_code":"8220111","prefecture":"FUKUOKA KEN","city":"MIYAWAKA SHI","town":"KANAMARU","perfecture_jp":"福岡県","jp_add_1":"宮若市","jp_add_2":"金丸"},"8220113":{"post_code":"8220113","prefecture":"FUKUOKA KEN","city":"MIYAWAKA SHI","town":"KANO","perfecture_jp":"福岡県","jp_add_1":"宮若市","jp_add_2":"金生"},"8220146":{"post_code":"8220146","prefecture":"FUKUOKA KEN","city":"MIYAWAKA SHI","town":"KUROMARU","perfecture_jp":"福岡県","jp_add_1":"宮若市","jp_add_2":"黒丸"},"8220132":{"post_code":"8220132","prefecture":"FUKUOKA KEN","city":"MIYAWAKA SHI","town":"KOBUSHI","perfecture_jp":"福岡県","jp_add_1":"宮若市","jp_add_2":"小伏"},"8220123":{"post_code":"8220123","prefecture":"FUKUOKA KEN","city":"MIYAWAKA SHI","town":"SANGAHATA","perfecture_jp":"福岡県","jp_add_1":"宮若市","jp_add_2":"三ケ畑"},"8220122":{"post_code":"8220122","prefecture":"FUKUOKA KEN","city":"MIYAWAKA SHI","town":"SHIMO","perfecture_jp":"福岡県","jp_add_1":"宮若市","jp_add_2":"下"},"8220141":{"post_code":"8220141","prefecture":"FUKUOKA KEN","city":"MIYAWAKA SHI","town":"TAIRA","perfecture_jp":"福岡県","jp_add_1":"宮若市","jp_add_2":"平"},"8220143":{"post_code":"8220143","prefecture":"FUKUOKA KEN","city":"MIYAWAKA SHI","town":"TAKANO","perfecture_jp":"福岡県","jp_add_1":"宮若市","jp_add_2":"高野"},"8220142":{"post_code":"8220142","prefecture":"FUKUOKA KEN","city":"MIYAWAKA SHI","town":"TAKEHARA","perfecture_jp":"福岡県","jp_add_1":"宮若市","jp_add_2":"竹原"},"8220152":{"post_code":"8220152","prefecture":"FUKUOKA KEN","city":"MIYAWAKA SHI","town":"NUMAGUCHI","perfecture_jp":"福岡県","jp_add_1":"宮若市","jp_add_2":"沼口"},"8220112":{"post_code":"8220112","prefecture":"FUKUOKA KEN","city":"MIYAWAKA SHI","town":"HARADA","perfecture_jp":"福岡県","jp_add_1":"宮若市","jp_add_2":"原田"},"8220101":{"post_code":"8220101","prefecture":"FUKUOKA KEN","city":"MIYAWAKA SHI","town":"FUKUMARU","perfecture_jp":"福岡県","jp_add_1":"宮若市","jp_add_2":"福丸"},"8220124":{"post_code":"8220124","prefecture":"FUKUOKA KEN","city":"MIYAWAKA SHI","town":"HERIYAMAHATA","perfecture_jp":"福岡県","jp_add_1":"宮若市","jp_add_2":"縁山畑"},"8220151":{"post_code":"8220151","prefecture":"FUKUOKA KEN","city":"MIYAWAKA SHI","town":"MIZUHARA","perfecture_jp":"福岡県","jp_add_1":"宮若市","jp_add_2":"水原"},"8220145":{"post_code":"8220145","prefecture":"FUKUOKA KEN","city":"MIYAWAKA SHI","town":"MIYANAGA","perfecture_jp":"福岡県","jp_add_1":"宮若市","jp_add_2":"宮永"},"8220153":{"post_code":"8220153","prefecture":"FUKUOKA KEN","city":"MIYAWAKA SHI","town":"YAMAGUCHI","perfecture_jp":"福岡県","jp_add_1":"宮若市","jp_add_2":"山口"},"8220121":{"post_code":"8220121","prefecture":"FUKUOKA KEN","city":"MIYAWAKA SHI","town":"YUBARU","perfecture_jp":"福岡県","jp_add_1":"宮若市","jp_add_2":"湯原"},"8220133":{"post_code":"8220133","prefecture":"FUKUOKA KEN","city":"MIYAWAKA SHI","town":"WAKITA","perfecture_jp":"福岡県","jp_add_1":"宮若市","jp_add_2":"脇田"},"8221400":{"post_code":"8221400","prefecture":"FUKUOKA KEN","city":"TAGAWA GUN KAWARA MACHI","town":"IKANIKEISAIGANAIBAAI","perfecture_jp":"福岡県","jp_add_1":"田川郡香春町","jp_add_2":""},"8221402":{"post_code":"8221402","prefecture":"FUKUOKA KEN","city":"TAGAWA GUN KAWARA MACHI","town":"KAGAMIYAMA","perfecture_jp":"福岡県","jp_add_1":"田川郡香春町","jp_add_2":"鏡山"},"8221404":{"post_code":"8221404","prefecture":"FUKUOKA KEN","city":"TAGAWA GUN KAWARA MACHI","town":"KAKISHITA","perfecture_jp":"福岡県","jp_add_1":"田川郡香春町","jp_add_2":"柿下"},"8221406":{"post_code":"8221406","prefecture":"FUKUOKA KEN","city":"TAGAWA GUN KAWARA MACHI","town":"KAWARA","perfecture_jp":"福岡県","jp_add_1":"田川郡香春町","jp_add_2":"香春"},"8221401":{"post_code":"8221401","prefecture":"FUKUOKA KEN","city":"TAGAWA GUN KAWARA MACHI","town":"SAIDOSHO","perfecture_jp":"福岡県","jp_add_1":"田川郡香春町","jp_add_2":"採銅所"},"8221403":{"post_code":"8221403","prefecture":"FUKUOKA KEN","city":"TAGAWA GUN KAWARA MACHI","town":"TAKANO","perfecture_jp":"福岡県","jp_add_1":"田川郡香春町","jp_add_2":"高野"},"8221405":{"post_code":"8221405","prefecture":"FUKUOKA KEN","city":"TAGAWA GUN KAWARA MACHI","town":"NAKATSUBARU","perfecture_jp":"福岡県","jp_add_1":"田川郡香春町","jp_add_2":"中津原"},"8221300":{"post_code":"8221300","prefecture":"FUKUOKA KEN","city":"TAGAWA GUN ITODA MACHI","town":"IKANIKEISAIGANAIBAAI","perfecture_jp":"福岡県","jp_add_1":"田川郡糸田町","jp_add_2":""},"8221324":{"post_code":"8221324","prefecture":"FUKUOKA KEN","city":"TAGAWA GUN ITODA MACHI","town":"ASAHIGAOKA","perfecture_jp":"福岡県","jp_add_1":"田川郡糸田町","jp_add_2":"旭ケ丘"},"8221313":{"post_code":"8221313","prefecture":"FUKUOKA KEN","city":"TAGAWA GUN ITODA MACHI","town":"UCHIKOSHI","perfecture_jp":"福岡県","jp_add_1":"田川郡糸田町","jp_add_2":"打越"},"8221302":{"post_code":"8221302","prefecture":"FUKUOKA KEN","city":"TAGAWA GUN ITODA MACHI","town":"OKUMA","perfecture_jp":"福岡県","jp_add_1":"田川郡糸田町","jp_add_2":"大熊"},"8221316":{"post_code":"8221316","prefecture":"FUKUOKA KEN","city":"TAGAWA GUN ITODA MACHI","town":"KAMIITODA","perfecture_jp":"福岡県","jp_add_1":"田川郡糸田町","jp_add_2":"上糸田"},"8221311":{"post_code":"8221311","prefecture":"FUKUOKA KEN","city":"TAGAWA GUN ITODA MACHI","town":"KITAKU","perfecture_jp":"福岡県","jp_add_1":"田川郡糸田町","jp_add_2":"北区"},"8221306":{"post_code":"8221306","prefecture":"FUKUOKA KEN","city":"TAGAWA GUN ITODA MACHI","town":"KIFUNE","perfecture_jp":"福岡県","jp_add_1":"田川郡糸田町","jp_add_2":"貴船"},"8221322":{"post_code":"8221322","prefecture":"FUKUOKA KEN","city":"TAGAWA GUN ITODA MACHI","town":"SAIBU","perfecture_jp":"福岡県","jp_add_1":"田川郡糸田町","jp_add_2":"西部"},"8221312":{"post_code":"8221312","prefecture":"FUKUOKA KEN","city":"TAGAWA GUN ITODA MACHI","town":"SHIMOITODA","perfecture_jp":"福岡県","jp_add_1":"田川郡糸田町","jp_add_2":"下糸田"},"8221304":{"post_code":"8221304","prefecture":"FUKUOKA KEN","city":"TAGAWA GUN ITODA MACHI","town":"JIYUGAOKA","perfecture_jp":"福岡県","jp_add_1":"田川郡糸田町","jp_add_2":"自由ケ丘"},"8221323":{"post_code":"8221323","prefecture":"FUKUOKA KEN","city":"TAGAWA GUN ITODA MACHI","town":"SHINOKA","perfecture_jp":"福岡県","jp_add_1":"田川郡糸田町","jp_add_2":"真岡"},"8221314":{"post_code":"8221314","prefecture":"FUKUOKA KEN","city":"TAGAWA GUN ITODA MACHI","town":"NAKAITODA","perfecture_jp":"福岡県","jp_add_1":"田川郡糸田町","jp_add_2":"中糸田"},"8221326":{"post_code":"8221326","prefecture":"FUKUOKA KEN","city":"TAGAWA GUN ITODA MACHI","town":"NEZUGAIKE","perfecture_jp":"福岡県","jp_add_1":"田川郡糸田町","jp_add_2":"鼡ケ池"},"8221318":{"post_code":"8221318","prefecture":"FUKUOKA KEN","city":"TAGAWA GUN ITODA MACHI","town":"HARU","perfecture_jp":"福岡県","jp_add_1":"田川郡糸田町","jp_add_2":"原"},"8221301":{"post_code":"8221301","prefecture":"FUKUOKA KEN","city":"TAGAWA GUN ITODA MACHI","town":"HORIKAWA","perfecture_jp":"福岡県","jp_add_1":"田川郡糸田町","jp_add_2":"堀川"},"8221325":{"post_code":"8221325","prefecture":"FUKUOKA KEN","city":"TAGAWA GUN ITODA MACHI","town":"MINAMIITODA","perfecture_jp":"福岡県","jp_add_1":"田川郡糸田町","jp_add_2":"南糸田"},"8221317":{"post_code":"8221317","prefecture":"FUKUOKA KEN","city":"TAGAWA GUN ITODA MACHI","town":"MIYAGAWA1","perfecture_jp":"福岡県","jp_add_1":"田川郡糸田町","jp_add_2":"宮川一"},"8221315":{"post_code":"8221315","prefecture":"FUKUOKA KEN","city":"TAGAWA GUN ITODA MACHI","town":"MIYAGAWA2","perfecture_jp":"福岡県","jp_add_1":"田川郡糸田町","jp_add_2":"宮川二"},"8221321":{"post_code":"8221321","prefecture":"FUKUOKA KEN","city":"TAGAWA GUN ITODA MACHI","town":"MIYATANI","perfecture_jp":"福岡県","jp_add_1":"田川郡糸田町","jp_add_2":"宮谷"},"8221307":{"post_code":"8221307","prefecture":"FUKUOKA KEN","city":"TAGAWA GUN ITODA MACHI","town":"MIYATOKO","perfecture_jp":"福岡県","jp_add_1":"田川郡糸田町","jp_add_2":"宮床"},"8221305":{"post_code":"8221305","prefecture":"FUKUOKA KEN","city":"TAGAWA GUN ITODA MACHI","town":"MIYATOKODANCHI","perfecture_jp":"福岡県","jp_add_1":"田川郡糸田町","jp_add_2":"宮床団地"},"8221303":{"post_code":"8221303","prefecture":"FUKUOKA KEN","city":"TAGAWA GUN ITODA MACHI","town":"MOMOYAMA","perfecture_jp":"福岡県","jp_add_1":"田川郡糸田町","jp_add_2":"桃山"},"8221200":{"post_code":"8221200","prefecture":"FUKUOKA KEN","city":"TAGAWA GUN FUKUCHI MACHI","town":"IKANIKEISAIGANAIBAAI","perfecture_jp":"福岡県","jp_add_1":"田川郡福智町","jp_add_2":""},"8221101":{"post_code":"8221101","prefecture":"FUKUOKA KEN","city":"TAGAWA GUN FUKUCHI MACHI","town":"AKAIKE","perfecture_jp":"福岡県","jp_add_1":"田川郡福智町","jp_add_2":"赤池"},"8221102":{"post_code":"8221102","prefecture":"FUKUOKA KEN","city":"TAGAWA GUN FUKUCHI MACHI","town":"AGANO","perfecture_jp":"福岡県","jp_add_1":"田川郡福智町","jp_add_2":"上野"},"8221211":{"post_code":"8221211","prefecture":"FUKUOKA KEN","city":"TAGAWA GUN FUKUCHI MACHI","town":"IKATA","perfecture_jp":"福岡県","jp_add_1":"田川郡福智町","jp_add_2":"伊方"},"8221103":{"post_code":"8221103","prefecture":"FUKUOKA KEN","city":"TAGAWA GUN FUKUCHI MACHI","town":"ICHIBA","perfecture_jp":"福岡県","jp_add_1":"田川郡福智町","jp_add_2":"市場"},"8221201":{"post_code":"8221201","prefecture":"FUKUOKA KEN","city":"TAGAWA GUN FUKUCHI MACHI","town":"KANADA","perfecture_jp":"福岡県","jp_add_1":"田川郡福智町","jp_add_2":"金田"},"8221202":{"post_code":"8221202","prefecture":"FUKUOKA KEN","city":"TAGAWA GUN FUKUCHI MACHI","town":"KOZAKI","perfecture_jp":"福岡県","jp_add_1":"田川郡福智町","jp_add_2":"神崎"},"8221212":{"post_code":"8221212","prefecture":"FUKUOKA KEN","city":"TAGAWA GUN FUKUCHI MACHI","town":"BENJO","perfecture_jp":"福岡県","jp_add_1":"田川郡福智町","jp_add_2":"弁城"}}