{"8250000":{"post_code":"8250000","prefecture":"FUKUOKA KEN","city":"TAGAWA SHI","town":"IKANIKEISAIGANAIBAAI","perfecture_jp":"福岡県","jp_add_1":"田川市","jp_add_2":""},"8250001":{"post_code":"8250001","prefecture":"FUKUOKA KEN","city":"TAGAWA SHI","town":"IKARI","perfecture_jp":"福岡県","jp_add_1":"田川市","jp_add_2":"伊加利"},"8250002":{"post_code":"8250002","prefecture":"FUKUOKA KEN","city":"TAGAWA SHI","town":"ITA","perfecture_jp":"福岡県","jp_add_1":"田川市","jp_add_2":"伊田"},"8250015":{"post_code":"8250015","prefecture":"FUKUOKA KEN","city":"TAGAWA SHI","town":"ITAMACHI","perfecture_jp":"福岡県","jp_add_1":"田川市","jp_add_2":"伊田町"},"8250014":{"post_code":"8250014","prefecture":"FUKUOKA KEN","city":"TAGAWA SHI","town":"UOMACHI","perfecture_jp":"福岡県","jp_add_1":"田川市","jp_add_2":"魚町"},"8250017":{"post_code":"8250017","prefecture":"FUKUOKA KEN","city":"TAGAWA SHI","town":"KOTOBUKIMACHI","perfecture_jp":"福岡県","jp_add_1":"田川市","jp_add_2":"寿町"},"8250011":{"post_code":"8250011","prefecture":"FUKUOKA KEN","city":"TAGAWA SHI","town":"SAKAEMACHI","perfecture_jp":"福岡県","jp_add_1":"田川市","jp_add_2":"栄町"},"8250003":{"post_code":"8250003","prefecture":"FUKUOKA KEN","city":"TAGAWA SHI","town":"SHIRATORIMACHI","perfecture_jp":"福岡県","jp_add_1":"田川市","jp_add_2":"白鳥町"},"8250016":{"post_code":"8250016","prefecture":"FUKUOKA KEN","city":"TAGAWA SHI","town":"SHIMMACHI","perfecture_jp":"福岡県","jp_add_1":"田川市","jp_add_2":"新町"},"8250013":{"post_code":"8250013","prefecture":"FUKUOKA KEN","city":"TAGAWA SHI","town":"CHUOMACHI","perfecture_jp":"福岡県","jp_add_1":"田川市","jp_add_2":"中央町"},"8250004":{"post_code":"8250004","prefecture":"FUKUOKA KEN","city":"TAGAWA SHI","town":"NATSUYOSHI","perfecture_jp":"福岡県","jp_add_1":"田川市","jp_add_2":"夏吉"},"8250018":{"post_code":"8250018","prefecture":"FUKUOKA KEN","city":"TAGAWA SHI","town":"BANDAMACHI","perfecture_jp":"福岡県","jp_add_1":"田川市","jp_add_2":"番田町"},"8250012":{"post_code":"8250012","prefecture":"FUKUOKA KEN","city":"TAGAWA SHI","town":"HINODEMACHI","perfecture_jp":"福岡県","jp_add_1":"田川市","jp_add_2":"日の出町"},"8250005":{"post_code":"8250005","prefecture":"FUKUOKA KEN","city":"TAGAWA SHI","town":"HOSHII","perfecture_jp":"福岡県","jp_add_1":"田川市","jp_add_2":"糒"}}