{"8280000":{"post_code":"8280000","prefecture":"FUKUOKA KEN","city":"BUZEN SHI","town":"IKANIKEISAIGANAIBAAI","perfecture_jp":"福岡県","jp_add_1":"豊前市","jp_add_2":""},"8280065":{"post_code":"8280065","prefecture":"FUKUOKA KEN","city":"BUZEN SHI","town":"AOHATA","perfecture_jp":"福岡県","jp_add_1":"豊前市","jp_add_2":"青畑"},"8280027":{"post_code":"8280027","prefecture":"FUKUOKA KEN","city":"BUZEN SHI","town":"AKAGUMA","perfecture_jp":"福岡県","jp_add_1":"豊前市","jp_add_2":"赤熊"},"8280061":{"post_code":"8280061","prefecture":"FUKUOKA KEN","city":"BUZEN SHI","town":"ARAHORI","perfecture_jp":"福岡県","jp_add_1":"豊前市","jp_add_2":"荒堀"},"8280035":{"post_code":"8280035","prefecture":"FUKUOKA KEN","city":"BUZEN SHI","town":"ICHIMARU","perfecture_jp":"福岡県","jp_add_1":"豊前市","jp_add_2":"市丸"},"8280062":{"post_code":"8280062","prefecture":"FUKUOKA KEN","city":"BUZEN SHI","town":"IMAICHI","perfecture_jp":"福岡県","jp_add_1":"豊前市","jp_add_2":"今市"},"8280083":{"post_code":"8280083","prefecture":"FUKUOKA KEN","city":"BUZEN SHI","town":"IWAYA","perfecture_jp":"福岡県","jp_add_1":"豊前市","jp_add_2":"岩屋"},"8280022":{"post_code":"8280022","prefecture":"FUKUOKA KEN","city":"BUZEN SHI","town":"UNOSHIMA","perfecture_jp":"福岡県","jp_add_1":"豊前市","jp_add_2":"宇島"},"8280082":{"post_code":"8280082","prefecture":"FUKUOKA KEN","city":"BUZEN SHI","town":"OKAWACHI","perfecture_jp":"福岡県","jp_add_1":"豊前市","jp_add_2":"大河内"},"8280066":{"post_code":"8280066","prefecture":"FUKUOKA KEN","city":"BUZEN SHI","town":"OMURA","perfecture_jp":"福岡県","jp_add_1":"豊前市","jp_add_2":"大村"},"8280064":{"post_code":"8280064","prefecture":"FUKUOKA KEN","city":"BUZEN SHI","town":"ONISHI","perfecture_jp":"福岡県","jp_add_1":"豊前市","jp_add_2":"大西"},"8280049":{"post_code":"8280049","prefecture":"FUKUOKA KEN","city":"BUZEN SHI","town":"ONINOKI","perfecture_jp":"福岡県","jp_add_1":"豊前市","jp_add_2":"鬼木"},"8280045":{"post_code":"8280045","prefecture":"FUKUOKA KEN","city":"BUZEN SHI","town":"KAIMO","perfecture_jp":"福岡県","jp_add_1":"豊前市","jp_add_2":"皆毛"},"8280041":{"post_code":"8280041","prefecture":"FUKUOKA KEN","city":"BUZEN SHI","town":"KAJIYA","perfecture_jp":"福岡県","jp_add_1":"豊前市","jp_add_2":"梶屋"},"8280077":{"post_code":"8280077","prefecture":"FUKUOKA KEN","city":"BUZEN SHI","town":"KAMIKAWASOKO","perfecture_jp":"福岡県","jp_add_1":"豊前市","jp_add_2":"上川底"},"8280013":{"post_code":"8280013","prefecture":"FUKUOKA KEN","city":"BUZEN SHI","town":"KAWACHI","perfecture_jp":"福岡県","jp_add_1":"豊前市","jp_add_2":"川内"},"8280055":{"post_code":"8280055","prefecture":"FUKUOKA KEN","city":"BUZEN SHI","town":"KAWAHARADA","perfecture_jp":"福岡県","jp_add_1":"豊前市","jp_add_2":"河原田"},"8280043":{"post_code":"8280043","prefecture":"FUKUOKA KEN","city":"BUZEN SHI","town":"KISHII","perfecture_jp":"福岡県","jp_add_1":"豊前市","jp_add_2":"岸井"},"8280048":{"post_code":"8280048","prefecture":"FUKUOKA KEN","city":"BUZEN SHI","town":"KYUROTSUCHI","perfecture_jp":"福岡県","jp_add_1":"豊前市","jp_add_2":"久路土"},"8280023":{"post_code":"8280023","prefecture":"FUKUOKA KEN","city":"BUZEN SHI","town":"KUTSUGAWA","perfecture_jp":"福岡県","jp_add_1":"豊前市","jp_add_2":"沓川"},"8280086":{"post_code":"8280086","prefecture":"FUKUOKA KEN","city":"BUZEN SHI","town":"KUBOTE","perfecture_jp":"福岡県","jp_add_1":"豊前市","jp_add_2":"求菩提"},"8280044":{"post_code":"8280044","prefecture":"FUKUOKA KEN","city":"BUZEN SHI","town":"KOISHIHARA","perfecture_jp":"福岡県","jp_add_1":"豊前市","jp_add_2":"小石原"},"8280036":{"post_code":"8280036","prefecture":"FUKUOKA KEN","city":"BUZEN SHI","town":"KOINUMARU","perfecture_jp":"福岡県","jp_add_1":"豊前市","jp_add_2":"小犬丸"},"8280072":{"post_code":"8280072","prefecture":"FUKUOKA KEN","city":"BUZEN SHI","town":"SAIO","perfecture_jp":"福岡県","jp_add_1":"豊前市","jp_add_2":"才尾"},"8280032":{"post_code":"8280032","prefecture":"FUKUOKA KEN","city":"BUZEN SHI","town":"SANRAKU","perfecture_jp":"福岡県","jp_add_1":"豊前市","jp_add_2":"三楽"},"8280084":{"post_code":"8280084","prefecture":"FUKUOKA KEN","city":"BUZEN SHI","town":"SHINOSE","perfecture_jp":"福岡県","jp_add_1":"豊前市","jp_add_2":"篠瀬"},"8280075":{"post_code":"8280075","prefecture":"FUKUOKA KEN","city":"BUZEN SHI","town":"SHIMOKAWASOKO","perfecture_jp":"福岡県","jp_add_1":"豊前市","jp_add_2":"下川底"},"8280074":{"post_code":"8280074","prefecture":"FUKUOKA KEN","city":"BUZEN SHI","town":"SHIMOKAWACHI","perfecture_jp":"福岡県","jp_add_1":"豊前市","jp_add_2":"下河内"},"8280002":{"post_code":"8280002","prefecture":"FUKUOKA KEN","city":"BUZEN SHI","town":"SHOE","perfecture_jp":"福岡県","jp_add_1":"豊前市","jp_add_2":"松江"},"8280026":{"post_code":"8280026","prefecture":"FUKUOKA KEN","city":"BUZEN SHI","town":"SHOZU","perfecture_jp":"福岡県","jp_add_1":"豊前市","jp_add_2":"清水町"},"8280011":{"post_code":"8280011","prefecture":"FUKUOKA KEN","city":"BUZEN SHI","town":"SHIROMARU","perfecture_jp":"福岡県","jp_add_1":"豊前市","jp_add_2":"四郎丸"},"8280028":{"post_code":"8280028","prefecture":"FUKUOKA KEN","city":"BUZEN SHI","town":"SEIHO","perfecture_jp":"福岡県","jp_add_1":"豊前市","jp_add_2":"青豊"},"8280046":{"post_code":"8280046","prefecture":"FUKUOKA KEN","city":"BUZEN SHI","town":"TAKATA","perfecture_jp":"福岡県","jp_add_1":"豊前市","jp_add_2":"高田"},"8280053":{"post_code":"8280053","prefecture":"FUKUOKA KEN","city":"BUZEN SHI","town":"CHIZUKA","perfecture_jp":"福岡県","jp_add_1":"豊前市","jp_add_2":"千束"},"8280025":{"post_code":"8280025","prefecture":"FUKUOKA KEN","city":"BUZEN SHI","town":"TSUNEDOMI","perfecture_jp":"福岡県","jp_add_1":"豊前市","jp_add_2":"恒富"},"8280081":{"post_code":"8280081","prefecture":"FUKUOKA KEN","city":"BUZEN SHI","town":"TENWA","perfecture_jp":"福岡県","jp_add_1":"豊前市","jp_add_2":"天和"},"8280052":{"post_code":"8280052","prefecture":"FUKUOKA KEN","city":"BUZEN SHI","town":"TODA","perfecture_jp":"福岡県","jp_add_1":"豊前市","jp_add_2":"塔田"},"8280085":{"post_code":"8280085","prefecture":"FUKUOKA KEN","city":"BUZEN SHI","town":"TORIIHATA","perfecture_jp":"福岡県","jp_add_1":"豊前市","jp_add_2":"鳥井畑"},"8280012":{"post_code":"8280012","prefecture":"FUKUOKA KEN","city":"BUZEN SHI","town":"TORIGOE","perfecture_jp":"福岡県","jp_add_1":"豊前市","jp_add_2":"鳥越"},"8280076":{"post_code":"8280076","prefecture":"FUKUOKA KEN","city":"BUZEN SHI","town":"NAKAGAWASOKO","perfecture_jp":"福岡県","jp_add_1":"豊前市","jp_add_2":"中川底"},"8280003":{"post_code":"8280003","prefecture":"FUKUOKA KEN","city":"BUZEN SHI","town":"NAKAMURA","perfecture_jp":"福岡県","jp_add_1":"豊前市","jp_add_2":"中村"},"8280054":{"post_code":"8280054","prefecture":"FUKUOKA KEN","city":"BUZEN SHI","town":"NAGAHISA","perfecture_jp":"福岡県","jp_add_1":"豊前市","jp_add_2":"永久"},"8280063":{"post_code":"8280063","prefecture":"FUKUOKA KEN","city":"BUZEN SHI","town":"NODA","perfecture_jp":"福岡県","jp_add_1":"豊前市","jp_add_2":"野田"},"8280073":{"post_code":"8280073","prefecture":"FUKUOKA KEN","city":"BUZEN SHI","town":"HASAMA","perfecture_jp":"福岡県","jp_add_1":"豊前市","jp_add_2":"挾間"},"8280005":{"post_code":"8280005","prefecture":"FUKUOKA KEN","city":"BUZEN SHI","town":"HATA","perfecture_jp":"福岡県","jp_add_1":"豊前市","jp_add_2":"畑"},"8280001":{"post_code":"8280001","prefecture":"FUKUOKA KEN","city":"BUZEN SHI","town":"HATAKENAKA","perfecture_jp":"福岡県","jp_add_1":"豊前市","jp_add_2":"畠中"},"8280021":{"post_code":"8280021","prefecture":"FUKUOKA KEN","city":"BUZEN SHI","town":"HACHIYA","perfecture_jp":"福岡県","jp_add_1":"豊前市","jp_add_2":"八屋"},"8280004":{"post_code":"8280004","prefecture":"FUKUOKA KEN","city":"BUZEN SHI","town":"BABA","perfecture_jp":"福岡県","jp_add_1":"豊前市","jp_add_2":"馬場"},"8280024":{"post_code":"8280024","prefecture":"FUKUOKA KEN","city":"BUZEN SHI","town":"HISAMATSU","perfecture_jp":"福岡県","jp_add_1":"豊前市","jp_add_2":"久松"},"8280047":{"post_code":"8280047","prefecture":"FUKUOKA KEN","city":"BUZEN SHI","town":"HIROSE","perfecture_jp":"福岡県","jp_add_1":"豊前市","jp_add_2":"広瀬"},"8280042":{"post_code":"8280042","prefecture":"FUKUOKA KEN","city":"BUZEN SHI","town":"HORITATE","perfecture_jp":"福岡県","jp_add_1":"豊前市","jp_add_2":"堀立"},"8280031":{"post_code":"8280031","prefecture":"FUKUOKA KEN","city":"BUZEN SHI","town":"MIKEKADO","perfecture_jp":"福岡県","jp_add_1":"豊前市","jp_add_2":"三毛門"},"8280034":{"post_code":"8280034","prefecture":"FUKUOKA KEN","city":"BUZEN SHI","town":"MORIHISA","perfecture_jp":"福岡県","jp_add_1":"豊前市","jp_add_2":"森久"},"8280056":{"post_code":"8280056","prefecture":"FUKUOKA KEN","city":"BUZEN SHI","town":"YAKUSHIJI","perfecture_jp":"福岡県","jp_add_1":"豊前市","jp_add_2":"薬師寺"},"8280071":{"post_code":"8280071","prefecture":"FUKUOKA KEN","city":"BUZEN SHI","town":"YAMAUCHI","perfecture_jp":"福岡県","jp_add_1":"豊前市","jp_add_2":"山内"},"8280051":{"post_code":"8280051","prefecture":"FUKUOKA KEN","city":"BUZEN SHI","town":"YOSHIKI","perfecture_jp":"福岡県","jp_add_1":"豊前市","jp_add_2":"吉木"},"8280033":{"post_code":"8280033","prefecture":"FUKUOKA KEN","city":"BUZEN SHI","town":"ROKURO","perfecture_jp":"福岡県","jp_add_1":"豊前市","jp_add_2":"六郎"}}