{"8300011":{"post_code":"8300011","prefecture":"FUKUOKA KEN","city":"KURUME SHI","town":"ASAHIMACHI","perfecture_jp":"福岡県","jp_add_1":"久留米市","jp_add_2":"旭町"},"8300029":{"post_code":"8300029","prefecture":"FUKUOKA KEN","city":"KURUME SHI","town":"ARAIMACHI","perfecture_jp":"福岡県","jp_add_1":"久留米市","jp_add_2":"洗町"},"8300063":{"post_code":"8300063","prefecture":"FUKUOKA KEN","city":"KURUME SHI","town":"ARAKIMACHI ARAKI","perfecture_jp":"福岡県","jp_add_1":"久留米市","jp_add_2":"荒木町荒木"},"8300065":{"post_code":"8300065","prefecture":"FUKUOKA KEN","city":"KURUME SHI","town":"ARAKIMACHI IMA","perfecture_jp":"福岡県","jp_add_1":"久留米市","jp_add_2":"荒木町今"},"8300066":{"post_code":"8300066","prefecture":"FUKUOKA KEN","city":"KURUME SHI","town":"ARAKIMACHI SHIMOARAKI","perfecture_jp":"福岡県","jp_add_1":"久留米市","jp_add_2":"荒木町下荒木"},"8300062":{"post_code":"8300062","prefecture":"FUKUOKA KEN","city":"KURUME SHI","town":"ARAKIMACHI SHIRAKUCHI","perfecture_jp":"福岡県","jp_add_1":"久留米市","jp_add_2":"荒木町白口"},"8300064":{"post_code":"8300064","prefecture":"FUKUOKA KEN","city":"KURUME SHI","town":"ARAKIMACHI FUJITA","perfecture_jp":"福岡県","jp_add_1":"久留米市","jp_add_2":"荒木町藤田"},"8300048":{"post_code":"8300048","prefecture":"FUKUOKA KEN","city":"KURUME SHI","town":"UMEMITSUMACHI","perfecture_jp":"福岡県","jp_add_1":"久留米市","jp_add_2":"梅満町"},"8300059":{"post_code":"8300059","prefecture":"FUKUOKA KEN","city":"KURUME SHI","town":"EDOYASHIKI","perfecture_jp":"福岡県","jp_add_1":"久留米市","jp_add_2":"江戸屋敷"},"8300049":{"post_code":"8300049","prefecture":"FUKUOKA KEN","city":"KURUME SHI","town":"OISHIMACHI","perfecture_jp":"福岡県","jp_add_1":"久留米市","jp_add_2":"大石町"},"8300034":{"post_code":"8300034","prefecture":"FUKUOKA KEN","city":"KURUME SHI","town":"OTEMACHI","perfecture_jp":"福岡県","jp_add_1":"久留米市","jp_add_2":"大手町"},"8300055":{"post_code":"8300055","prefecture":"FUKUOKA KEN","city":"KURUME SHI","town":"KAMITSU","perfecture_jp":"福岡県","jp_add_1":"久留米市","jp_add_2":"上津"},"8300052":{"post_code":"8300052","prefecture":"FUKUOKA KEN","city":"KURUME SHI","town":"KAMITSUMACHI","perfecture_jp":"福岡県","jp_add_1":"久留米市","jp_add_2":"上津町"},"8301127":{"post_code":"8301127","prefecture":"FUKUOKA KEN","city":"KURUME SHI","town":"KITANOMACHI AKASHI","perfecture_jp":"福岡県","jp_add_1":"久留米市","jp_add_2":"北野町赤司"},"8301116":{"post_code":"8301116","prefecture":"FUKUOKA KEN","city":"KURUME SHI","town":"KITANOMACHI ISHIZAKI","perfecture_jp":"福岡県","jp_add_1":"久留米市","jp_add_2":"北野町石崎"},"8301126":{"post_code":"8301126","prefecture":"FUKUOKA KEN","city":"KURUME SHI","town":"KITANOMACHI INAKAZU","perfecture_jp":"福岡県","jp_add_1":"久留米市","jp_add_2":"北野町稲数"},"8301122":{"post_code":"8301122","prefecture":"FUKUOKA KEN","city":"KURUME SHI","town":"KITANOMACHI IMAYAMA","perfecture_jp":"福岡県","jp_add_1":"久留米市","jp_add_2":"北野町今山"},"8301104":{"post_code":"8301104","prefecture":"FUKUOKA KEN","city":"KURUME SHI","town":"KITANOMACHI OKI","perfecture_jp":"福岡県","jp_add_1":"久留米市","jp_add_2":"北野町大城"},"8301125":{"post_code":"8301125","prefecture":"FUKUOKA KEN","city":"KURUME SHI","town":"KITANOMACHI OTOMARU","perfecture_jp":"福岡県","jp_add_1":"久留米市","jp_add_2":"北野町乙丸"},"8301124":{"post_code":"8301124","prefecture":"FUKUOKA KEN","city":"KURUME SHI","town":"KITANOMACHI OTOYOSHI","perfecture_jp":"福岡県","jp_add_1":"久留米市","jp_add_2":"北野町乙吉"},"8301103":{"post_code":"8301103","prefecture":"FUKUOKA KEN","city":"KURUME SHI","town":"KITANOMACHI KANESHIMA","perfecture_jp":"福岡県","jp_add_1":"久留米市","jp_add_2":"北野町金島"},"8301117":{"post_code":"8301117","prefecture":"FUKUOKA KEN","city":"KURUME SHI","town":"KITANOMACHI KAMIYUGE","perfecture_jp":"福岡県","jp_add_1":"久留米市","jp_add_2":"北野町上弓削"},"8301114":{"post_code":"8301114","prefecture":"FUKUOKA KEN","city":"KURUME SHI","town":"KITANOMACHI KORA","perfecture_jp":"福岡県","jp_add_1":"久留米市","jp_add_2":"北野町高良"},"8301121":{"post_code":"8301121","prefecture":"FUKUOKA KEN","city":"KURUME SHI","town":"KITANOMACHI JUROMARU","perfecture_jp":"福岡県","jp_add_1":"久留米市","jp_add_2":"北野町十郎丸"},"8301112":{"post_code":"8301112","prefecture":"FUKUOKA KEN","city":"KURUME SHI","town":"KITANOMACHI JINYA","perfecture_jp":"福岡県","jp_add_1":"久留米市","jp_add_2":"北野町陣屋"},"8301111":{"post_code":"8301111","prefecture":"FUKUOKA KEN","city":"KURUME SHI","town":"KITANOMACHI CHIYOJIMA","perfecture_jp":"福岡県","jp_add_1":"久留米市","jp_add_2":"北野町千代島"},"8301107":{"post_code":"8301107","prefecture":"FUKUOKA KEN","city":"KURUME SHI","town":"KITANOMACHI TSUKAJIMA","perfecture_jp":"福岡県","jp_add_1":"久留米市","jp_add_2":"北野町塚島"},"8301123":{"post_code":"8301123","prefecture":"FUKUOKA KEN","city":"KURUME SHI","town":"KITANOMACHI TOMITA","perfecture_jp":"福岡県","jp_add_1":"久留米市","jp_add_2":"北野町冨多"},"8301115":{"post_code":"8301115","prefecture":"FUKUOKA KEN","city":"KURUME SHI","town":"KITANOMACHI TORISU","perfecture_jp":"福岡県","jp_add_1":"久留米市","jp_add_2":"北野町鳥巣"},"8301113":{"post_code":"8301113","prefecture":"FUKUOKA KEN","city":"KURUME SHI","town":"KITANOMACHI NAKA","perfecture_jp":"福岡県","jp_add_1":"久留米市","jp_add_2":"北野町中"},"8301101":{"post_code":"8301101","prefecture":"FUKUOKA KEN","city":"KURUME SHI","town":"KITANOMACHI NAKAGAWA","perfecture_jp":"福岡県","jp_add_1":"久留米市","jp_add_2":"北野町中川"},"8301105":{"post_code":"8301105","prefecture":"FUKUOKA KEN","city":"KURUME SHI","town":"KITANOMACHI NAKASHIMA","perfecture_jp":"福岡県","jp_add_1":"久留米市","jp_add_2":"北野町中島"},"8301106":{"post_code":"8301106","prefecture":"FUKUOKA KEN","city":"KURUME SHI","town":"KITANOMACHI NIOMARU","perfecture_jp":"福岡県","jp_add_1":"久留米市","jp_add_2":"北野町仁王丸"},"8301102":{"post_code":"8301102","prefecture":"FUKUOKA KEN","city":"KURUME SHI","town":"KITANOMACHI YAEGAME","perfecture_jp":"福岡県","jp_add_1":"久留米市","jp_add_2":"北野町八重亀"},"8300028":{"post_code":"8300028","prefecture":"FUKUOKA KEN","city":"KURUME SHI","town":"KYOMACHI","perfecture_jp":"福岡県","jp_add_1":"久留米市","jp_add_2":"京町"},"8300013":{"post_code":"8300013","prefecture":"FUKUOKA KEN","city":"KURUME SHI","town":"KUSHIHARAMACHI","perfecture_jp":"福岡県","jp_add_1":"久留米市","jp_add_2":"櫛原町"},"8300045":{"post_code":"8300045","prefecture":"FUKUOKA KEN","city":"KURUME SHI","town":"KOGASHIRAMACHI","perfecture_jp":"福岡県","jp_add_1":"久留米市","jp_add_2":"小頭町"},"8300001":{"post_code":"8300001","prefecture":"FUKUOKA KEN","city":"KURUME SHI","town":"KOMORINO","perfecture_jp":"福岡県","jp_add_1":"久留米市","jp_add_2":"小森野"},"8300021":{"post_code":"8300021","prefecture":"FUKUOKA KEN","city":"KURUME SHI","town":"SASAYAMAMACHI","perfecture_jp":"福岡県","jp_add_1":"久留米市","jp_add_2":"篠山町"},"8300036":{"post_code":"8300036","prefecture":"FUKUOKA KEN","city":"KURUME SHI","town":"SHINOHARAMACHI","perfecture_jp":"福岡県","jp_add_1":"久留米市","jp_add_2":"篠原町"},"8300042":{"post_code":"8300042","prefecture":"FUKUOKA KEN","city":"KURUME SHI","town":"SHOJIMAMACHI","perfecture_jp":"福岡県","jp_add_1":"久留米市","jp_add_2":"荘島町"},"8300222":{"post_code":"8300222","prefecture":"FUKUOKA KEN","city":"KURUME SHI","town":"JOJIMAMACHI AOKISHIMA","perfecture_jp":"福岡県","jp_add_1":"久留米市","jp_add_2":"城島町青木島"},"8300201":{"post_code":"8300201","prefecture":"FUKUOKA KEN","city":"KURUME SHI","town":"JOJIMAMACHI ASHIZUKA","perfecture_jp":"福岡県","jp_add_1":"久留米市","jp_add_2":"城島町芦塚"},"8300221":{"post_code":"8300221","prefecture":"FUKUOKA KEN","city":"KURUME SHI","town":"JOJIMAMACHI UKISHIMA","perfecture_jp":"福岡県","jp_add_1":"久留米市","jp_add_2":"城島町浮島"},"8300204":{"post_code":"8300204","prefecture":"FUKUOKA KEN","city":"KURUME SHI","town":"JOJIMAMACHI UCHINO","perfecture_jp":"福岡県","jp_add_1":"久留米市","jp_add_2":"城島町内野"},"8300213":{"post_code":"8300213","prefecture":"FUKUOKA KEN","city":"KURUME SHI","town":"JOJIMAMACHI EGAMI","perfecture_jp":"福岡県","jp_add_1":"久留米市","jp_add_2":"城島町江上"},"8300212":{"post_code":"8300212","prefecture":"FUKUOKA KEN","city":"KURUME SHI","town":"JOJIMAMACHI EGAMIKAMI","perfecture_jp":"福岡県","jp_add_1":"久留米市","jp_add_2":"城島町江上上"},"8300214":{"post_code":"8300214","prefecture":"FUKUOKA KEN","city":"KURUME SHI","town":"JOJIMAMACHI EGAMIHON","perfecture_jp":"福岡県","jp_add_1":"久留米市","jp_add_2":"城島町江上本"},"8300216":{"post_code":"8300216","prefecture":"FUKUOKA KEN","city":"KURUME SHI","town":"JOJIMAMACHI ESHIMA","perfecture_jp":"福岡県","jp_add_1":"久留米市","jp_add_2":"城島町江島"},"8300205":{"post_code":"8300205","prefecture":"FUKUOKA KEN","city":"KURUME SHI","town":"JOJIMAMACHI OYORI","perfecture_jp":"福岡県","jp_add_1":"久留米市","jp_add_2":"城島町大依"},"8300224":{"post_code":"8300224","prefecture":"FUKUOKA KEN","city":"KURUME SHI","town":"JOJIMAMACHI KAMIAOKI","perfecture_jp":"福岡県","jp_add_1":"久留米市","jp_add_2":"城島町上青木"},"8300225":{"post_code":"8300225","prefecture":"FUKUOKA KEN","city":"KURUME SHI","town":"JOJIMAMACHI SHIMOAOKI","perfecture_jp":"福岡県","jp_add_1":"久留米市","jp_add_2":"城島町下青木"},"8300202":{"post_code":"8300202","prefecture":"FUKUOKA KEN","city":"KURUME SHI","town":"JOJIMAMACHI SHIMODA","perfecture_jp":"福岡県","jp_add_1":"久留米市","jp_add_2":"城島町下田"},"8300207":{"post_code":"8300207","prefecture":"FUKUOKA KEN","city":"KURUME SHI","town":"JOJIMAMACHI JOJIMA","perfecture_jp":"福岡県","jp_add_1":"久留米市","jp_add_2":"城島町城島"},"8300223":{"post_code":"8300223","prefecture":"FUKUOKA KEN","city":"KURUME SHI","town":"JOJIMAMACHI SHIROMARU","perfecture_jp":"福岡県","jp_add_1":"久留米市","jp_add_2":"城島町四郎丸"},"8300211":{"post_code":"8300211","prefecture":"FUKUOKA KEN","city":"KURUME SHI","town":"JOJIMAMACHI NARATSU","perfecture_jp":"福岡県","jp_add_1":"久留米市","jp_add_2":"城島町楢津"},"8300226":{"post_code":"8300226","prefecture":"FUKUOKA KEN","city":"KURUME SHI","town":"JOJIMAMACHI NISHIAOKI","perfecture_jp":"福岡県","jp_add_1":"久留米市","jp_add_2":"城島町西青木"},"8300203":{"post_code":"8300203","prefecture":"FUKUOKA KEN","city":"KURUME SHI","town":"JOJIMAMACHI HAMA","perfecture_jp":"福岡県","jp_add_1":"久留米市","jp_add_2":"城島町浜"},"8300215":{"post_code":"8300215","prefecture":"FUKUOKA KEN","city":"KURUME SHI","town":"JOJIMAMACHI HARANAKAMUTA","perfecture_jp":"福岡県","jp_add_1":"久留米市","jp_add_2":"城島町原中牟田"},"8300206":{"post_code":"8300206","prefecture":"FUKUOKA KEN","city":"KURUME SHI","town":"JOJIMAMACHI ROKUCHOBARU","perfecture_jp":"福岡県","jp_add_1":"久留米市","jp_add_2":"城島町六町原"},"8300022":{"post_code":"8300022","prefecture":"FUKUOKA KEN","city":"KURUME SHI","town":"JONAMMACHI","perfecture_jp":"福岡県","jp_add_1":"久留米市","jp_add_2":"城南町"},"8300041":{"post_code":"8300041","prefecture":"FUKUOKA KEN","city":"KURUME SHI","town":"SHIRAYAMAMACHI","perfecture_jp":"福岡県","jp_add_1":"久留米市","jp_add_2":"白山町"},"8300037":{"post_code":"8300037","prefecture":"FUKUOKA KEN","city":"KURUME SHI","town":"SUWANOMACHI","perfecture_jp":"福岡県","jp_add_1":"久留米市","jp_add_2":"諏訪野町"},"8300025":{"post_code":"8300025","prefecture":"FUKUOKA KEN","city":"KURUME SHI","town":"SENOSHITAMACHI","perfecture_jp":"福岡県","jp_add_1":"久留米市","jp_add_2":"瀬下町"},"8300079":{"post_code":"8300079","prefecture":"FUKUOKA KEN","city":"KURUME SHI","town":"DAIZENJIOHASHI","perfecture_jp":"福岡県","jp_add_1":"久留米市","jp_add_2":"大善寺大橋"},"8300075":{"post_code":"8300075","prefecture":"FUKUOKA KEN","city":"KURUME SHI","town":"DAIZENJIMACHI KURODA","perfecture_jp":"福岡県","jp_add_1":"久留米市","jp_add_2":"大善寺町黒田"},"8300077":{"post_code":"8300077","prefecture":"FUKUOKA KEN","city":"KURUME SHI","town":"DAIZENJIMACHI NAKATSU","perfecture_jp":"福岡県","jp_add_1":"久留米市","jp_add_2":"大善寺町中津"},"8300076":{"post_code":"8300076","prefecture":"FUKUOKA KEN","city":"KURUME SHI","town":"DAIZENJIMACHI FUJIYOSHI","perfecture_jp":"福岡県","jp_add_1":"久留米市","jp_add_2":"大善寺町藤吉"},"8300073":{"post_code":"8300073","prefecture":"FUKUOKA KEN","city":"KURUME SHI","town":"DAIZENJIMACHI MIYAMOTO","perfecture_jp":"福岡県","jp_add_1":"久留米市","jp_add_2":"大善寺町宮本"},"8300074":{"post_code":"8300074","prefecture":"FUKUOKA KEN","city":"KURUME SHI","town":"DAIZENJIMACHI YOAKE","perfecture_jp":"福岡県","jp_add_1":"久留米市","jp_add_2":"大善寺町夜明"},"8300070":{"post_code":"8300070","prefecture":"FUKUOKA KEN","city":"KURUME SHI","town":"DAIZENJIMINAMI","perfecture_jp":"福岡県","jp_add_1":"久留米市","jp_add_2":"大善寺南"},"8300002":{"post_code":"8300002","prefecture":"FUKUOKA KEN","city":"KURUME SHI","town":"TAKANO","perfecture_jp":"福岡県","jp_add_1":"久留米市","jp_add_2":"高野"},"8300023":{"post_code":"8300023","prefecture":"FUKUOKA KEN","city":"KURUME SHI","town":"CHUOMACHI","perfecture_jp":"福岡県","jp_add_1":"久留米市","jp_add_2":"中央町"},"8300061":{"post_code":"8300061","prefecture":"FUKUOKA KEN","city":"KURUME SHI","town":"TSUBUKU IMAMACHI","perfecture_jp":"福岡県","jp_add_1":"久留米市","jp_add_2":"津福今町"},"8300047":{"post_code":"8300047","prefecture":"FUKUOKA KEN","city":"KURUME SHI","town":"TSUBUKU HOMMACHI","perfecture_jp":"福岡県","jp_add_1":"久留米市","jp_add_2":"津福本町"},"8300014":{"post_code":"8300014","prefecture":"FUKUOKA KEN","city":"KURUME SHI","town":"TERAMACHI","perfecture_jp":"福岡県","jp_add_1":"久留米市","jp_add_2":"寺町"},"8300033":{"post_code":"8300033","prefecture":"FUKUOKA KEN","city":"KURUME SHI","town":"TENJIMMACHI","perfecture_jp":"福岡県","jp_add_1":"久留米市","jp_add_2":"天神町"},"8300035":{"post_code":"8300035","prefecture":"FUKUOKA KEN","city":"KURUME SHI","town":"TOWAMACHI","perfecture_jp":"福岡県","jp_add_1":"久留米市","jp_add_2":"東和町"},"8300016":{"post_code":"8300016","prefecture":"FUKUOKA KEN","city":"KURUME SHI","town":"TORIHIGASHIMACHI","perfecture_jp":"福岡県","jp_add_1":"久留米市","jp_add_2":"通東町"},"8300005":{"post_code":"8300005","prefecture":"FUKUOKA KEN","city":"KURUME SHI","town":"TORIHOKAMACHI","perfecture_jp":"福岡県","jp_add_1":"久留米市","jp_add_2":"通外町"},"8300018":{"post_code":"8300018","prefecture":"FUKUOKA KEN","city":"KURUME SHI","town":"TORIMACHI","perfecture_jp":"福岡県","jp_add_1":"久留米市","jp_add_2":"通町"},"8300027":{"post_code":"8300027","prefecture":"FUKUOKA KEN","city":"KURUME SHI","town":"NAGATOISHI","perfecture_jp":"福岡県","jp_add_1":"久留米市","jp_add_2":"長門石"},"8300026":{"post_code":"8300026","prefecture":"FUKUOKA KEN","city":"KURUME SHI","town":"NAGATOISHIMACHI","perfecture_jp":"福岡県","jp_add_1":"久留米市","jp_add_2":"長門石町"},"8300024":{"post_code":"8300024","prefecture":"FUKUOKA KEN","city":"KURUME SHI","town":"NAWATEMACHI","perfecture_jp":"福岡県","jp_add_1":"久留米市","jp_add_2":"縄手町"},"8300006":{"post_code":"8300006","prefecture":"FUKUOKA KEN","city":"KURUME SHI","town":"NANKUNNISHIMACHI","perfecture_jp":"福岡県","jp_add_1":"久留米市","jp_add_2":"南薫西町"},"8300004":{"post_code":"8300004","prefecture":"FUKUOKA KEN","city":"KURUME SHI","town":"NANKUMMACHI","perfecture_jp":"福岡県","jp_add_1":"久留米市","jp_add_2":"南薫町"},"8300038":{"post_code":"8300038","prefecture":"FUKUOKA KEN","city":"KURUME SHI","town":"NISHIMACHI","perfecture_jp":"福岡県","jp_add_1":"久留米市","jp_add_2":"西町"},"8300058":{"post_code":"8300058","prefecture":"FUKUOKA KEN","city":"KURUME SHI","town":"NOBUSUMA","perfecture_jp":"福岡県","jp_add_1":"久留米市","jp_add_2":"野伏間"},"8300039":{"post_code":"8300039","prefecture":"FUKUOKA KEN","city":"KURUME SHI","town":"HANABATAKE","perfecture_jp":"福岡県","jp_add_1":"久留米市","jp_add_2":"花畑"},"8300046":{"post_code":"8300046","prefecture":"FUKUOKA KEN","city":"KURUME SHI","town":"HARANKOGAMACHI","perfecture_jp":"福岡県","jp_add_1":"久留米市","jp_add_2":"原古賀町"},"8300003":{"post_code":"8300003","prefecture":"FUKUOKA KEN","city":"KURUME SHI","town":"HIGASHIKUSHIHARAMACHI","perfecture_jp":"福岡県","jp_add_1":"久留米市","jp_add_2":"東櫛原町"},"8300032":{"post_code":"8300032","prefecture":"FUKUOKA KEN","city":"KURUME SHI","town":"HIGASHIMACHI","perfecture_jp":"福岡県","jp_add_1":"久留米市","jp_add_2":"東町"},"8300012":{"post_code":"8300012","prefecture":"FUKUOKA KEN","city":"KURUME SHI","town":"HINODEMACHI","perfecture_jp":"福岡県","jp_add_1":"久留米市","jp_add_2":"日ノ出町"},"8300017":{"post_code":"8300017","prefecture":"FUKUOKA KEN","city":"KURUME SHI","town":"HIYOSHIMACHI","perfecture_jp":"福岡県","jp_add_1":"久留米市","jp_add_2":"日吉町"},"8300057":{"post_code":"8300057","prefecture":"FUKUOKA KEN","city":"KURUME SHI","town":"FUJIMITSU","perfecture_jp":"福岡県","jp_add_1":"久留米市","jp_add_2":"藤光"},"8300054":{"post_code":"8300054","prefecture":"FUKUOKA KEN","city":"KURUME SHI","town":"FUJIMITSUMACHI","perfecture_jp":"福岡県","jp_add_1":"久留米市","jp_add_2":"藤光町"},"8300053":{"post_code":"8300053","prefecture":"FUKUOKA KEN","city":"KURUME SHI","town":"FUJIYAMAMACHI","perfecture_jp":"福岡県","jp_add_1":"久留米市","jp_add_2":"藤山町"},"8300015":{"post_code":"8300015","prefecture":"FUKUOKA KEN","city":"KURUME SHI","town":"HOTARUGAWAMACHI","perfecture_jp":"福岡県","jp_add_1":"久留米市","jp_add_2":"螢川町"},"8300044":{"post_code":"8300044","prefecture":"FUKUOKA KEN","city":"KURUME SHI","town":"HOMMACHI","perfecture_jp":"福岡県","jp_add_1":"久留米市","jp_add_2":"本町"},"8300043":{"post_code":"8300043","prefecture":"FUKUOKA KEN","city":"KURUME SHI","town":"MATSUGAEMACHI","perfecture_jp":"福岡県","jp_add_1":"久留米市","jp_add_2":"松ケ枝町"},"8300113":{"post_code":"8300113","prefecture":"FUKUOKA KEN","city":"KURUME SHI","town":"MIZUMAMACHI IKIIWA","perfecture_jp":"福岡県","jp_add_1":"久留米市","jp_add_2":"三潴町生岩"},"8300115":{"post_code":"8300115","prefecture":"FUKUOKA KEN","city":"KURUME SHI","town":"MIZUMAMACHI ITCHOBARU","perfecture_jp":"福岡県","jp_add_1":"久留米市","jp_add_2":"三潴町壱町原"},"8300116":{"post_code":"8300116","prefecture":"FUKUOKA KEN","city":"KURUME SHI","town":"MIZUMAMACHI KIYOMATSU","perfecture_jp":"福岡県","jp_add_1":"久留米市","jp_add_2":"三潴町清松"},"8300105":{"post_code":"8300105","prefecture":"FUKUOKA KEN","city":"KURUME SHI","town":"MIZUMAMACHI KUSABA","perfecture_jp":"福岡県","jp_add_1":"久留米市","jp_add_2":"三潴町草場"},"8300103":{"post_code":"8300103","prefecture":"FUKUOKA KEN","city":"KURUME SHI","town":"MIZUMAMACHI TAKAMIZUMA","perfecture_jp":"福岡県","jp_add_1":"久留米市","jp_add_2":"三潴町高三潴"},"8300102":{"post_code":"8300102","prefecture":"FUKUOKA KEN","city":"KURUME SHI","town":"MIZUMAMACHI TAGAWA","perfecture_jp":"福岡県","jp_add_1":"久留米市","jp_add_2":"三潴町田川"},"8300112":{"post_code":"8300112","prefecture":"FUKUOKA KEN","city":"KURUME SHI","town":"MIZUMAMACHI TAMAMITSU","perfecture_jp":"福岡県","jp_add_1":"久留米市","jp_add_2":"三潴町玉満"},"8300111":{"post_code":"8300111","prefecture":"FUKUOKA KEN","city":"KURUME SHI","town":"MIZUMAMACHI NISHIMUTA","perfecture_jp":"福岡県","jp_add_1":"久留米市","jp_add_2":"三潴町西牟田"},"8300101":{"post_code":"8300101","prefecture":"FUKUOKA KEN","city":"KURUME SHI","town":"MIZUMAMACHI HAYATSUZAKI","perfecture_jp":"福岡県","jp_add_1":"久留米市","jp_add_2":"三潴町早津崎"},"8300104":{"post_code":"8300104","prefecture":"FUKUOKA KEN","city":"KURUME SHI","town":"MIZUMAMACHI HARUDA","perfecture_jp":"福岡県","jp_add_1":"久留米市","jp_add_2":"三潴町原田"},"8300114":{"post_code":"8300114","prefecture":"FUKUOKA KEN","city":"KURUME SHI","town":"MIZUMAMACHI FUKUMITSU","perfecture_jp":"福岡県","jp_add_1":"久留米市","jp_add_2":"三潴町福光"},"8300051":{"post_code":"8300051","prefecture":"FUKUOKA KEN","city":"KURUME SHI","town":"MINAMI","perfecture_jp":"福岡県","jp_add_1":"久留米市","jp_add_2":"南"},"8300031":{"post_code":"8300031","prefecture":"FUKUOKA KEN","city":"KURUME SHI","town":"MUTSUMOMMACHI","perfecture_jp":"福岡県","jp_add_1":"久留米市","jp_add_2":"六ツ門町"},"8300056":{"post_code":"8300056","prefecture":"FUKUOKA KEN","city":"KURUME SHI","town":"MOTOYAMA","perfecture_jp":"福岡県","jp_add_1":"久留米市","jp_add_2":"本山"},"8300078":{"post_code":"8300078","prefecture":"FUKUOKA KEN","city":"KURUME SHI","town":"YASUTAKEMACHI SUMIYOSHI","perfecture_jp":"福岡県","jp_add_1":"久留米市","jp_add_2":"安武町住吉"},"8300071":{"post_code":"8300071","prefecture":"FUKUOKA KEN","city":"KURUME SHI","town":"YASUTAKEMACHI TAKESHIMA","perfecture_jp":"福岡県","jp_add_1":"久留米市","jp_add_2":"安武町武島"},"8300072":{"post_code":"8300072","prefecture":"FUKUOKA KEN","city":"KURUME SHI","town":"YASUTAKEMACHI YASUTAKEHON","perfecture_jp":"福岡県","jp_add_1":"久留米市","jp_add_2":"安武町安武本"},"8301200":{"post_code":"8301200","prefecture":"FUKUOKA KEN","city":"MII GUN TACHIARAI MACHI","town":"IKANIKEISAIGANAIBAAI","perfecture_jp":"福岡県","jp_add_1":"三井郡大刀洗町","jp_add_2":""},"8301223":{"post_code":"8301223","prefecture":"FUKUOKA KEN","city":"MII GUN TACHIARAI MACHI","town":"IMA","perfecture_jp":"福岡県","jp_add_1":"三井郡大刀洗町","jp_add_2":"今"},"8301224":{"post_code":"8301224","prefecture":"FUKUOKA KEN","city":"MII GUN TACHIARAI MACHI","town":"UNOKI","perfecture_jp":"福岡県","jp_add_1":"三井郡大刀洗町","jp_add_2":"鵜木"},"8301213":{"post_code":"8301213","prefecture":"FUKUOKA KEN","city":"MII GUN TACHIARAI MACHI","town":"KASUGA","perfecture_jp":"福岡県","jp_add_1":"三井郡大刀洗町","jp_add_2":"春日"},"8301222":{"post_code":"8301222","prefecture":"FUKUOKA KEN","city":"MII GUN TACHIARAI MACHI","town":"KAMITAKAHASHI","perfecture_jp":"福岡県","jp_add_1":"三井郡大刀洗町","jp_add_2":"上高橋"},"8301212":{"post_code":"8301212","prefecture":"FUKUOKA KEN","city":"MII GUN TACHIARAI MACHI","town":"KOCHO","perfecture_jp":"福岡県","jp_add_1":"三井郡大刀洗町","jp_add_2":"甲条"},"8301214":{"post_code":"8301214","prefecture":"FUKUOKA KEN","city":"MII GUN TACHIARAI MACHI","town":"SAKAEDA","perfecture_jp":"福岡県","jp_add_1":"三井郡大刀洗町","jp_add_2":"栄田"},"8301225":{"post_code":"8301225","prefecture":"FUKUOKA KEN","city":"MII GUN TACHIARAI MACHI","town":"SHIMOTAKAHASHI","perfecture_jp":"福岡県","jp_add_1":"三井郡大刀洗町","jp_add_2":"下高橋"},"8301202":{"post_code":"8301202","prefecture":"FUKUOKA KEN","city":"MII GUN TACHIARAI MACHI","town":"SUGANO","perfecture_jp":"福岡県","jp_add_1":"三井郡大刀洗町","jp_add_2":"菅野"},"8301221":{"post_code":"8301221","prefecture":"FUKUOKA KEN","city":"MII GUN TACHIARAI MACHI","town":"TAKAE","perfecture_jp":"福岡県","jp_add_1":"三井郡大刀洗町","jp_add_2":"高樋"},"8301201":{"post_code":"8301201","prefecture":"FUKUOKA KEN","city":"MII GUN TACHIARAI MACHI","town":"TOMITA","perfecture_jp":"福岡県","jp_add_1":"三井郡大刀洗町","jp_add_2":"冨多"},"8301206":{"post_code":"8301206","prefecture":"FUKUOKA KEN","city":"MII GUN TACHIARAI MACHI","town":"NAKAGAWA","perfecture_jp":"福岡県","jp_add_1":"三井郡大刀洗町","jp_add_2":"中川"},"8301204":{"post_code":"8301204","prefecture":"FUKUOKA KEN","city":"MII GUN TACHIARAI MACHI","town":"NISHIBARU","perfecture_jp":"福岡県","jp_add_1":"三井郡大刀洗町","jp_add_2":"西原"},"8301211":{"post_code":"8301211","prefecture":"FUKUOKA KEN","city":"MII GUN TACHIARAI MACHI","town":"HONGO","perfecture_jp":"福岡県","jp_add_1":"三井郡大刀洗町","jp_add_2":"本郷"},"8301203":{"post_code":"8301203","prefecture":"FUKUOKA KEN","city":"MII GUN TACHIARAI MACHI","town":"MIKAWA","perfecture_jp":"福岡県","jp_add_1":"三井郡大刀洗町","jp_add_2":"三川"},"8301205":{"post_code":"8301205","prefecture":"FUKUOKA KEN","city":"MII GUN TACHIARAI MACHI","town":"MORUBE","perfecture_jp":"福岡県","jp_add_1":"三井郡大刀洗町","jp_add_2":"守部"},"8301226":{"post_code":"8301226","prefecture":"FUKUOKA KEN","city":"MII GUN TACHIARAI MACHI","town":"YAMAGUMA","perfecture_jp":"福岡県","jp_add_1":"三井郡大刀洗町","jp_add_2":"山隈"},"8300400":{"post_code":"8300400","prefecture":"FUKUOKA KEN","city":"MIZUMA GUN OKI MACHI","town":"IKANIKEISAIGANAIBAAI","perfecture_jp":"福岡県","jp_add_1":"三潴郡大木町","jp_add_2":""},"8300425":{"post_code":"8300425","prefecture":"FUKUOKA KEN","city":"MIZUMA GUN OKI MACHI","town":"IKADAMIZO","perfecture_jp":"福岡県","jp_add_1":"三潴郡大木町","jp_add_2":"筏溝"},"8300415":{"post_code":"8300415","prefecture":"FUKUOKA KEN","city":"MIZUMA GUN OKI MACHI","town":"EGEKOGA","perfecture_jp":"福岡県","jp_add_1":"三潴郡大木町","jp_add_2":"絵下古賀"},"8300403":{"post_code":"8300403","prefecture":"FUKUOKA KEN","city":"MIZUMA GUN OKI MACHI","town":"OZUMI","perfecture_jp":"福岡県","jp_add_1":"三潴郡大木町","jp_add_2":"大角"},"8300423":{"post_code":"8300423","prefecture":"FUKUOKA KEN","city":"MIZUMA GUN OKI MACHI","town":"OYABU","perfecture_jp":"福岡県","jp_add_1":"三潴郡大木町","jp_add_2":"大藪"},"8300421":{"post_code":"8300421","prefecture":"FUKUOKA KEN","city":"MIZUMA GUN OKI MACHI","town":"OKUMUTA","perfecture_jp":"福岡県","jp_add_1":"三潴郡大木町","jp_add_2":"奥牟田"},"8300414":{"post_code":"8300414","prefecture":"FUKUOKA KEN","city":"MIZUMA GUN OKI MACHI","town":"KAMIKISAKI","perfecture_jp":"福岡県","jp_add_1":"三潴郡大木町","jp_add_2":"上木佐木"},"8300404":{"post_code":"8300404","prefecture":"FUKUOKA KEN","city":"MIZUMA GUN OKI MACHI","town":"KAMISHIRAKAKI","perfecture_jp":"福岡県","jp_add_1":"三潴郡大木町","jp_add_2":"上白垣"},"8300417":{"post_code":"8300417","prefecture":"FUKUOKA KEN","city":"MIZUMA GUN OKI MACHI","town":"KAMIHACHIIN","perfecture_jp":"福岡県","jp_add_1":"三潴郡大木町","jp_add_2":"上八院"},"8300413":{"post_code":"8300413","prefecture":"FUKUOKA KEN","city":"MIZUMA GUN OKI MACHI","town":"KAMIMUTAGUCHI","perfecture_jp":"福岡県","jp_add_1":"三潴郡大木町","jp_add_2":"上牟田口"},"8300401":{"post_code":"8300401","prefecture":"FUKUOKA KEN","city":"MIZUMA GUN OKI MACHI","town":"SASABUCHI","perfecture_jp":"福岡県","jp_add_1":"三潴郡大木町","jp_add_2":"笹渕"},"8300412":{"post_code":"8300412","prefecture":"FUKUOKA KEN","city":"MIZUMA GUN OKI MACHI","town":"SAMURAIJIMA","perfecture_jp":"福岡県","jp_add_1":"三潴郡大木町","jp_add_2":"侍島"},"8300422":{"post_code":"8300422","prefecture":"FUKUOKA KEN","city":"MIZUMA GUN OKI MACHI","town":"TAKAHASHI","perfecture_jp":"福岡県","jp_add_1":"三潴郡大木町","jp_add_2":"高橋"},"8300416":{"post_code":"8300416","prefecture":"FUKUOKA KEN","city":"MIZUMA GUN OKI MACHI","town":"HATCHOMUTA","perfecture_jp":"福岡県","jp_add_1":"三潴郡大木町","jp_add_2":"八町牟田"},"8300411":{"post_code":"8300411","prefecture":"FUKUOKA KEN","city":"MIZUMA GUN OKI MACHI","town":"HIRUIKE","perfecture_jp":"福岡県","jp_add_1":"三潴郡大木町","jp_add_2":"蛭池"},"8300402":{"post_code":"8300402","prefecture":"FUKUOKA KEN","city":"MIZUMA GUN OKI MACHI","town":"FUKUDO","perfecture_jp":"福岡県","jp_add_1":"三潴郡大木町","jp_add_2":"福土"},"8300406":{"post_code":"8300406","prefecture":"FUKUOKA KEN","city":"MIZUMA GUN OKI MACHI","town":"MAEMUTA","perfecture_jp":"福岡県","jp_add_1":"三潴郡大木町","jp_add_2":"前牟田"},"8300424":{"post_code":"8300424","prefecture":"FUKUOKA KEN","city":"MIZUMA GUN OKI MACHI","town":"MIYAMATSU","perfecture_jp":"福岡県","jp_add_1":"三潴郡大木町","jp_add_2":"三八松"},"8300405":{"post_code":"8300405","prefecture":"FUKUOKA KEN","city":"MIZUMA GUN OKI MACHI","town":"YOKOMIZO","perfecture_jp":"福岡県","jp_add_1":"三潴郡大木町","jp_add_2":"横溝"}}