{"8310000":{"post_code":"8310000","prefecture":"FUKUOKA KEN","city":"OKAWA SHI","town":"IKANIKEISAIGANAIBAAI","perfecture_jp":"福岡県","jp_add_1":"大川市","jp_add_2":""},"8310031":{"post_code":"8310031","prefecture":"FUKUOKA KEN","city":"OKAWA SHI","town":"AGEMAKI","perfecture_jp":"福岡県","jp_add_1":"大川市","jp_add_2":"上巻"},"8310004":{"post_code":"8310004","prefecture":"FUKUOKA KEN","city":"OKAWA SHI","town":"ENOKIZU","perfecture_jp":"福岡県","jp_add_1":"大川市","jp_add_2":"榎津"},"8310045":{"post_code":"8310045","prefecture":"FUKUOKA KEN","city":"OKAWA SHI","town":"ONOSHIMA","perfecture_jp":"福岡県","jp_add_1":"大川市","jp_add_2":"大野島"},"8310021":{"post_code":"8310021","prefecture":"FUKUOKA KEN","city":"OKAWA SHI","town":"OHASHI","perfecture_jp":"福岡県","jp_add_1":"大川市","jp_add_2":"大橋"},"8310027":{"post_code":"8310027","prefecture":"FUKUOKA KEN","city":"OKAWA SHI","town":"OGISHIMA","perfecture_jp":"福岡県","jp_add_1":"大川市","jp_add_2":"荻島"},"8310024":{"post_code":"8310024","prefecture":"FUKUOKA KEN","city":"OKAWA SHI","town":"ONIKOGA","perfecture_jp":"福岡県","jp_add_1":"大川市","jp_add_2":"鬼古賀"},"8310008":{"post_code":"8310008","prefecture":"FUKUOKA KEN","city":"OKAWA SHI","town":"KANEGAE","perfecture_jp":"福岡県","jp_add_1":"大川市","jp_add_2":"鐘ケ江"},"8310012":{"post_code":"8310012","prefecture":"FUKUOKA KEN","city":"OKAWA SHI","town":"KAMISHIRAKAKI","perfecture_jp":"福岡県","jp_add_1":"大川市","jp_add_2":"上白垣"},"8310032":{"post_code":"8310032","prefecture":"FUKUOKA KEN","city":"OKAWA SHI","town":"KITAKOGA","perfecture_jp":"福岡県","jp_add_1":"大川市","jp_add_2":"北古賀"},"8310042":{"post_code":"8310042","prefecture":"FUKUOKA KEN","city":"OKAWA SHI","town":"KUAMI","perfecture_jp":"福岡県","jp_add_1":"大川市","jp_add_2":"九網"},"8310002":{"post_code":"8310002","prefecture":"FUKUOKA KEN","city":"OKAWA SHI","town":"GEBAYASHI","perfecture_jp":"福岡県","jp_add_1":"大川市","jp_add_2":"下林"},"8310028":{"post_code":"8310028","prefecture":"FUKUOKA KEN","city":"OKAWA SHI","town":"GOBARU","perfecture_jp":"福岡県","jp_add_1":"大川市","jp_add_2":"郷原"},"8310041":{"post_code":"8310041","prefecture":"FUKUOKA KEN","city":"OKAWA SHI","town":"KOBO","perfecture_jp":"福岡県","jp_add_1":"大川市","jp_add_2":"小保"},"8310025":{"post_code":"8310025","prefecture":"FUKUOKA KEN","city":"OKAWA SHI","town":"SAKAI","perfecture_jp":"福岡県","jp_add_1":"大川市","jp_add_2":"坂井"},"8310016":{"post_code":"8310016","prefecture":"FUKUOKA KEN","city":"OKAWA SHI","town":"SAKEMI","perfecture_jp":"福岡県","jp_add_1":"大川市","jp_add_2":"酒見"},"8310001":{"post_code":"8310001","prefecture":"FUKUOKA KEN","city":"OKAWA SHI","town":"SHIMOAOKI","perfecture_jp":"福岡県","jp_add_1":"大川市","jp_add_2":"下青木"},"8310022":{"post_code":"8310022","prefecture":"FUKUOKA KEN","city":"OKAWA SHI","town":"SHIMOKISAKI","perfecture_jp":"福岡県","jp_add_1":"大川市","jp_add_2":"下木佐木"},"8310011":{"post_code":"8310011","prefecture":"FUKUOKA KEN","city":"OKAWA SHI","town":"SHIMOSHIRAKAKI","perfecture_jp":"福岡県","jp_add_1":"大川市","jp_add_2":"下白垣"},"8310017":{"post_code":"8310017","prefecture":"FUKUOKA KEN","city":"OKAWA SHI","town":"SHIMOHACHIIN","perfecture_jp":"福岡県","jp_add_1":"大川市","jp_add_2":"下八院"},"8310023":{"post_code":"8310023","prefecture":"FUKUOKA KEN","city":"OKAWA SHI","town":"SHIMOMUTAGUCHI","perfecture_jp":"福岡県","jp_add_1":"大川市","jp_add_2":"下牟田口"},"8310043":{"post_code":"8310043","prefecture":"FUKUOKA KEN","city":"OKAWA SHI","town":"SHINDEN","perfecture_jp":"福岡県","jp_add_1":"大川市","jp_add_2":"新田"},"8310035":{"post_code":"8310035","prefecture":"FUKUOKA KEN","city":"OKAWA SHI","town":"TSU","perfecture_jp":"福岡県","jp_add_1":"大川市","jp_add_2":"津"},"8310007":{"post_code":"8310007","prefecture":"FUKUOKA KEN","city":"OKAWA SHI","town":"DOKAIJIMA","perfecture_jp":"福岡県","jp_add_1":"大川市","jp_add_2":"道海島"},"8310014":{"post_code":"8310014","prefecture":"FUKUOKA KEN","city":"OKAWA SHI","town":"NAKAKIMURO","perfecture_jp":"福岡県","jp_add_1":"大川市","jp_add_2":"中木室"},"8310006":{"post_code":"8310006","prefecture":"FUKUOKA KEN","city":"OKAWA SHI","town":"NAKAKOGA","perfecture_jp":"福岡県","jp_add_1":"大川市","jp_add_2":"中古賀"},"8310013":{"post_code":"8310013","prefecture":"FUKUOKA KEN","city":"OKAWA SHI","town":"NAKAHACHIIN","perfecture_jp":"福岡県","jp_add_1":"大川市","jp_add_2":"中八院"},"8310033":{"post_code":"8310033","prefecture":"FUKUOKA KEN","city":"OKAWA SHI","town":"HATAHO","perfecture_jp":"福岡県","jp_add_1":"大川市","jp_add_2":"幡保"},"8310034":{"post_code":"8310034","prefecture":"FUKUOKA KEN","city":"OKAWA SHI","town":"HITOTSUKI","perfecture_jp":"福岡県","jp_add_1":"大川市","jp_add_2":"一木"},"8310044":{"post_code":"8310044","prefecture":"FUKUOKA KEN","city":"OKAWA SHI","town":"BENIYA","perfecture_jp":"福岡県","jp_add_1":"大川市","jp_add_2":"紅粉屋"},"8310015":{"post_code":"8310015","prefecture":"FUKUOKA KEN","city":"OKAWA SHI","town":"HONGIMURO","perfecture_jp":"福岡県","jp_add_1":"大川市","jp_add_2":"本木室"},"8310026":{"post_code":"8310026","prefecture":"FUKUOKA KEN","city":"OKAWA SHI","town":"MITSUMARU","perfecture_jp":"福岡県","jp_add_1":"大川市","jp_add_2":"三丸"},"8310005":{"post_code":"8310005","prefecture":"FUKUOKA KEN","city":"OKAWA SHI","town":"MUKAIJIMA","perfecture_jp":"福岡県","jp_add_1":"大川市","jp_add_2":"向島"},"8310003":{"post_code":"8310003","prefecture":"FUKUOKA KEN","city":"OKAWA SHI","town":"MORODOMI","perfecture_jp":"福岡県","jp_add_1":"大川市","jp_add_2":"諸富"}}