{"8320000":{"post_code":"8320000","prefecture":"FUKUOKA KEN","city":"YANAGAWA SHI","town":"IKANIKEISAIGANAIBAAI","perfecture_jp":"福岡県","jp_add_1":"柳川市","jp_add_2":""},"8320026":{"post_code":"8320026","prefecture":"FUKUOKA KEN","city":"YANAGAWA SHI","town":"AKEBONOMACHI","perfecture_jp":"福岡県","jp_add_1":"柳川市","jp_add_2":"曙町"},"8320022":{"post_code":"8320022","prefecture":"FUKUOKA KEN","city":"YANAGAWA SHI","town":"ASAHIMACHI","perfecture_jp":"福岡県","jp_add_1":"柳川市","jp_add_2":"旭町"},"8320054":{"post_code":"8320054","prefecture":"FUKUOKA KEN","city":"YANAGAWA SHI","town":"ARIAKEMACHI","perfecture_jp":"福岡県","jp_add_1":"柳川市","jp_add_2":"有明町"},"8320042":{"post_code":"8320042","prefecture":"FUKUOKA KEN","city":"YANAGAWA SHI","town":"ISSHIMMACHI","perfecture_jp":"福岡県","jp_add_1":"柳川市","jp_add_2":"一新町"},"8320066":{"post_code":"8320066","prefecture":"FUKUOKA KEN","city":"YANAGAWA SHI","town":"INARIMACHI","perfecture_jp":"福岡県","jp_add_1":"柳川市","jp_add_2":"稲荷町"},"8320025":{"post_code":"8320025","prefecture":"FUKUOKA KEN","city":"YANAGAWA SHI","town":"EBISUMACHI","perfecture_jp":"福岡県","jp_add_1":"柳川市","jp_add_2":"恵美須町"},"8320046":{"post_code":"8320046","prefecture":"FUKUOKA KEN","city":"YANAGAWA SHI","town":"OSHUMACHI","perfecture_jp":"福岡県","jp_add_1":"柳川市","jp_add_2":"奥州町"},"8320053":{"post_code":"8320053","prefecture":"FUKUOKA KEN","city":"YANAGAWA SHI","town":"OHAMAMACHI","perfecture_jp":"福岡県","jp_add_1":"柳川市","jp_add_2":"大浜町"},"8320065":{"post_code":"8320065","prefecture":"FUKUOKA KEN","city":"YANAGAWA SHI","town":"OKINOHATAMACHI","perfecture_jp":"福岡県","jp_add_1":"柳川市","jp_add_2":"沖端町"},"8320067":{"post_code":"8320067","prefecture":"FUKUOKA KEN","city":"YANAGAWA SHI","town":"ONDOMACHI","perfecture_jp":"福岡県","jp_add_1":"柳川市","jp_add_2":"鬼童町"},"8320073":{"post_code":"8320073","prefecture":"FUKUOKA KEN","city":"YANAGAWA SHI","town":"KAJIYAMACHI","perfecture_jp":"福岡県","jp_add_1":"柳川市","jp_add_2":"鍛冶屋町"},"8320041":{"post_code":"8320041","prefecture":"FUKUOKA KEN","city":"YANAGAWA SHI","town":"KATAHARAMACHI","perfecture_jp":"福岡県","jp_add_1":"柳川市","jp_add_2":"片原町"},"8320016":{"post_code":"8320016","prefecture":"FUKUOKA KEN","city":"YANAGAWA SHI","town":"KANIMACHI","perfecture_jp":"福岡県","jp_add_1":"柳川市","jp_add_2":"蟹町"},"8320013":{"post_code":"8320013","prefecture":"FUKUOKA KEN","city":"YANAGAWA SHI","town":"KAMIMACHI","perfecture_jp":"福岡県","jp_add_1":"柳川市","jp_add_2":"上町"},"8320058":{"post_code":"8320058","prefecture":"FUKUOKA KEN","city":"YANAGAWA SHI","town":"KAMIMIYANAGAMACHI","perfecture_jp":"福岡県","jp_add_1":"柳川市","jp_add_2":"上宮永町"},"8320007":{"post_code":"8320007","prefecture":"FUKUOKA KEN","city":"YANAGAWA SHI","town":"KANNO","perfecture_jp":"福岡県","jp_add_1":"柳川市","jp_add_2":"金納"},"8320001":{"post_code":"8320001","prefecture":"FUKUOKA KEN","city":"YANAGAWA SHI","town":"GAMO","perfecture_jp":"福岡県","jp_add_1":"柳川市","jp_add_2":"蒲生"},"8320034":{"post_code":"8320034","prefecture":"FUKUOKA KEN","city":"YANAGAWA SHI","town":"KITANAGAEMACHI","perfecture_jp":"福岡県","jp_add_1":"柳川市","jp_add_2":"北長柄町"},"8320023":{"post_code":"8320023","prefecture":"FUKUOKA KEN","city":"YANAGAWA SHI","town":"KYOMACHI","perfecture_jp":"福岡県","jp_add_1":"柳川市","jp_add_2":"京町"},"8320086":{"post_code":"8320086","prefecture":"FUKUOKA KEN","city":"YANAGAWA SHI","town":"KUKUHARA","perfecture_jp":"福岡県","jp_add_1":"柳川市","jp_add_2":"久々原"},"8320072":{"post_code":"8320072","prefecture":"FUKUOKA KEN","city":"YANAGAWA SHI","town":"KOJIYAMACHI","perfecture_jp":"福岡県","jp_add_1":"柳川市","jp_add_2":"糀屋町"},"8320082":{"post_code":"8320082","prefecture":"FUKUOKA KEN","city":"YANAGAWA SHI","town":"KOGA","perfecture_jp":"福岡県","jp_add_1":"柳川市","jp_add_2":"古賀"},"8320036":{"post_code":"8320036","prefecture":"FUKUOKA KEN","city":"YANAGAWA SHI","town":"KODOGUMACHI","perfecture_jp":"福岡県","jp_add_1":"柳川市","jp_add_2":"小道具町"},"8320037":{"post_code":"8320037","prefecture":"FUKUOKA KEN","city":"YANAGAWA SHI","town":"SAIKUMACHI","perfecture_jp":"福岡県","jp_add_1":"柳川市","jp_add_2":"細工町"},"8320017":{"post_code":"8320017","prefecture":"FUKUOKA KEN","city":"YANAGAWA SHI","town":"ZAIMOKUMACHI","perfecture_jp":"福岡県","jp_add_1":"柳川市","jp_add_2":"材木町"},"8320076":{"post_code":"8320076","prefecture":"FUKUOKA KEN","city":"YANAGAWA SHI","town":"SAKAMOTOMACHI","perfecture_jp":"福岡県","jp_add_1":"柳川市","jp_add_2":"坂本町"},"8320059":{"post_code":"8320059","prefecture":"FUKUOKA KEN","city":"YANAGAWA SHI","town":"SHIMOMIYANAGAMACHI","perfecture_jp":"福岡県","jp_add_1":"柳川市","jp_add_2":"下宮永町"},"8320068":{"post_code":"8320068","prefecture":"FUKUOKA KEN","city":"YANAGAWA SHI","town":"JOGUMACHI","perfecture_jp":"福岡県","jp_add_1":"柳川市","jp_add_2":"城隅町"},"8320084":{"post_code":"8320084","prefecture":"FUKUOKA KEN","city":"YANAGAWA SHI","town":"SHONAMMACHI","perfecture_jp":"福岡県","jp_add_1":"柳川市","jp_add_2":"昭南町"},"8320062":{"post_code":"8320062","prefecture":"FUKUOKA KEN","city":"YANAGAWA SHI","town":"JONAMMACHI","perfecture_jp":"福岡県","jp_add_1":"柳川市","jp_add_2":"城南町"},"8320071":{"post_code":"8320071","prefecture":"FUKUOKA KEN","city":"YANAGAWA SHI","town":"SHINFUNATSUMACHI","perfecture_jp":"福岡県","jp_add_1":"柳川市","jp_add_2":"新船津町"},"8320069":{"post_code":"8320069","prefecture":"FUKUOKA KEN","city":"YANAGAWA SHI","town":"SHINHOKAMACHI","perfecture_jp":"福岡県","jp_add_1":"柳川市","jp_add_2":"新外町"},"8320032":{"post_code":"8320032","prefecture":"FUKUOKA KEN","city":"YANAGAWA SHI","town":"SHIMMACHI","perfecture_jp":"福岡県","jp_add_1":"柳川市","jp_add_2":"新町"},"8320021":{"post_code":"8320021","prefecture":"FUKUOKA KEN","city":"YANAGAWA SHI","town":"SUMIMACHI","perfecture_jp":"福岡県","jp_add_1":"柳川市","jp_add_2":"隅町"},"8320002":{"post_code":"8320002","prefecture":"FUKUOKA KEN","city":"YANAGAWA SHI","town":"TAKASHIMA","perfecture_jp":"福岡県","jp_add_1":"柳川市","jp_add_2":"高島"},"8320003":{"post_code":"8320003","prefecture":"FUKUOKA KEN","city":"YANAGAWA SHI","town":"TATEISHI","perfecture_jp":"福岡県","jp_add_1":"柳川市","jp_add_2":"立石"},"8320089":{"post_code":"8320089","prefecture":"FUKUOKA KEN","city":"YANAGAWA SHI","town":"TAWAKI","perfecture_jp":"福岡県","jp_add_1":"柳川市","jp_add_2":"田脇"},"8320077":{"post_code":"8320077","prefecture":"FUKUOKA KEN","city":"YANAGAWA SHI","town":"CHIKUSHIMACHI","perfecture_jp":"福岡県","jp_add_1":"柳川市","jp_add_2":"筑紫町"},"8320051":{"post_code":"8320051","prefecture":"FUKUOKA KEN","city":"YANAGAWA SHI","town":"TSUKUDAMACHI","perfecture_jp":"福岡県","jp_add_1":"柳川市","jp_add_2":"佃町"},"8320024":{"post_code":"8320024","prefecture":"FUKUOKA KEN","city":"YANAGAWA SHI","town":"TSUJIMACHI","perfecture_jp":"福岡県","jp_add_1":"柳川市","jp_add_2":"辻町"},"8320031":{"post_code":"8320031","prefecture":"FUKUOKA KEN","city":"YANAGAWA SHI","town":"TSUBAHARAMACHI","perfecture_jp":"福岡県","jp_add_1":"柳川市","jp_add_2":"椿原町"},"8320043":{"post_code":"8320043","prefecture":"FUKUOKA KEN","city":"YANAGAWA SHI","town":"DEKIMACHI","perfecture_jp":"福岡県","jp_add_1":"柳川市","jp_add_2":"出来町"},"8320028":{"post_code":"8320028","prefecture":"FUKUOKA KEN","city":"YANAGAWA SHI","town":"TOKIWAMACHI","perfecture_jp":"福岡県","jp_add_1":"柳川市","jp_add_2":"常盤町"},"8320012":{"post_code":"8320012","prefecture":"FUKUOKA KEN","city":"YANAGAWA SHI","town":"NAKAMACHI","perfecture_jp":"福岡県","jp_add_1":"柳川市","jp_add_2":"中町"},"8320087":{"post_code":"8320087","prefecture":"FUKUOKA KEN","city":"YANAGAWA SHI","town":"NANATSUE","perfecture_jp":"福岡県","jp_add_1":"柳川市","jp_add_2":"七ツ家"},"8320015":{"post_code":"8320015","prefecture":"FUKUOKA KEN","city":"YANAGAWA SHI","town":"NISHIUOYAMACHI","perfecture_jp":"福岡県","jp_add_1":"柳川市","jp_add_2":"西魚屋町"},"8320005":{"post_code":"8320005","prefecture":"FUKUOKA KEN","city":"YANAGAWA SHI","town":"NISHIKAMACHI","perfecture_jp":"福岡県","jp_add_1":"柳川市","jp_add_2":"西蒲池"},"8320081":{"post_code":"8320081","prefecture":"FUKUOKA KEN","city":"YANAGAWA SHI","town":"NISHIHAMATAKE","perfecture_jp":"福岡県","jp_add_1":"柳川市","jp_add_2":"西浜武"},"8320088":{"post_code":"8320088","prefecture":"FUKUOKA KEN","city":"YANAGAWA SHI","town":"HASAMA","perfecture_jp":"福岡県","jp_add_1":"柳川市","jp_add_2":"間"},"8320052":{"post_code":"8320052","prefecture":"FUKUOKA KEN","city":"YANAGAWA SHI","town":"HASHIMOTOMACHI","perfecture_jp":"福岡県","jp_add_1":"柳川市","jp_add_2":"橋本町"},"8320029":{"post_code":"8320029","prefecture":"FUKUOKA KEN","city":"YANAGAWA SHI","town":"HACHIKEMMACHI","perfecture_jp":"福岡県","jp_add_1":"柳川市","jp_add_2":"八軒町"},"8320035":{"post_code":"8320035","prefecture":"FUKUOKA KEN","city":"YANAGAWA SHI","town":"HIGASHIUOYAMACHI","perfecture_jp":"福岡県","jp_add_1":"柳川市","jp_add_2":"東魚屋町"},"8320006":{"post_code":"8320006","prefecture":"FUKUOKA KEN","city":"YANAGAWA SHI","town":"HIGASHIKAMACHI","perfecture_jp":"福岡県","jp_add_1":"柳川市","jp_add_2":"東蒲池"},"8320044":{"post_code":"8320044","prefecture":"FUKUOKA KEN","city":"YANAGAWA SHI","town":"FUKUROMACHI","perfecture_jp":"福岡県","jp_add_1":"柳川市","jp_add_2":"袋町"},"8320011":{"post_code":"8320011","prefecture":"FUKUOKA KEN","city":"YANAGAWA SHI","town":"HOKAMACHI","perfecture_jp":"福岡県","jp_add_1":"柳川市","jp_add_2":"保加町"},"8320061":{"post_code":"8320061","prefecture":"FUKUOKA KEN","city":"YANAGAWA SHI","town":"HONJOMACHI","perfecture_jp":"福岡県","jp_add_1":"柳川市","jp_add_2":"本城町"},"8320045":{"post_code":"8320045","prefecture":"FUKUOKA KEN","city":"YANAGAWA SHI","town":"HOMMACHI","perfecture_jp":"福岡県","jp_add_1":"柳川市","jp_add_2":"本町"},"8320805":{"post_code":"8320805","prefecture":"FUKUOKA KEN","city":"YANAGAWA SHI","town":"MITSUHASHIMACHI ISODORI","perfecture_jp":"福岡県","jp_add_1":"柳川市","jp_add_2":"三橋町磯鳥"},"8320823":{"post_code":"8320823","prefecture":"FUKUOKA KEN","city":"YANAGAWA SHI","town":"MITSUHASHIMACHI IMAKOGA","perfecture_jp":"福岡県","jp_add_1":"柳川市","jp_add_2":"三橋町今古賀"},"8320807":{"post_code":"8320807","prefecture":"FUKUOKA KEN","city":"YANAGAWA SHI","town":"MITSUHASHIMACHI EDAMITSU","perfecture_jp":"福岡県","jp_add_1":"柳川市","jp_add_2":"三橋町枝光"},"8320825":{"post_code":"8320825","prefecture":"FUKUOKA KEN","city":"YANAGAWA SHI","town":"MITSUHASHIMACHI EMAGARI","perfecture_jp":"福岡県","jp_add_1":"柳川市","jp_add_2":"三橋町江曲"},"8320801":{"post_code":"8320801","prefecture":"FUKUOKA KEN","city":"YANAGAWA SHI","town":"MITSUHASHIMACHI OKIDA","perfecture_jp":"福岡県","jp_add_1":"柳川市","jp_add_2":"三橋町起田"},"8320827":{"post_code":"8320827","prefecture":"FUKUOKA KEN","city":"YANAGAWA SHI","town":"MITSUHASHIMACHI KAMAFUNATSU","perfecture_jp":"福岡県","jp_add_1":"柳川市","jp_add_2":"三橋町蒲船津"},"8320804":{"post_code":"8320804","prefecture":"FUKUOKA KEN","city":"YANAGAWA SHI","town":"MITSUHASHIMACHI KINOMOTO","perfecture_jp":"福岡県","jp_add_1":"柳川市","jp_add_2":"三橋町木元"},"8320812":{"post_code":"8320812","prefecture":"FUKUOKA KEN","city":"YANAGAWA SHI","town":"MITSUHASHIMACHI GOJITCHO","perfecture_jp":"福岡県","jp_add_1":"柳川市","jp_add_2":"三橋町五拾町"},"8320822":{"post_code":"8320822","prefecture":"FUKUOKA KEN","city":"YANAGAWA SHI","town":"MITSUHASHIMACHI SHIMOHYAKUCHO","perfecture_jp":"福岡県","jp_add_1":"柳川市","jp_add_2":"三橋町下百町"},"8320815":{"post_code":"8320815","prefecture":"FUKUOKA KEN","city":"YANAGAWA SHI","town":"MITSUHASHIMACHI SHIRATORI","perfecture_jp":"福岡県","jp_add_1":"柳川市","jp_add_2":"三橋町白鳥"},"8320826":{"post_code":"8320826","prefecture":"FUKUOKA KEN","city":"YANAGAWA SHI","town":"MITSUHASHIMACHI TAKAHATAKE","perfecture_jp":"福岡県","jp_add_1":"柳川市","jp_add_2":"三橋町高畑"},"8320813":{"post_code":"8320813","prefecture":"FUKUOKA KEN","city":"YANAGAWA SHI","town":"MITSUHASHIMACHI TANOMACHI","perfecture_jp":"福岡県","jp_add_1":"柳川市","jp_add_2":"三橋町棚町"},"8320814":{"post_code":"8320814","prefecture":"FUKUOKA KEN","city":"YANAGAWA SHI","town":"MITSUHASHIMACHI TARUMI","perfecture_jp":"福岡県","jp_add_1":"柳川市","jp_add_2":"三橋町垂見"},"8320811":{"post_code":"8320811","prefecture":"FUKUOKA KEN","city":"YANAGAWA SHI","town":"MITSUHASHIMACHI NAKAYAMA","perfecture_jp":"福岡県","jp_add_1":"柳川市","jp_add_2":"三橋町中山"},"8320816":{"post_code":"8320816","prefecture":"FUKUOKA KEN","city":"YANAGAWA SHI","town":"MITSUHASHIMACHI HISASUE","perfecture_jp":"福岡県","jp_add_1":"柳川市","jp_add_2":"三橋町久末"},"8320821":{"post_code":"8320821","prefecture":"FUKUOKA KEN","city":"YANAGAWA SHI","town":"MITSUHASHIMACHI HYAKUCHO","perfecture_jp":"福岡県","jp_add_1":"柳川市","jp_add_2":"三橋町百町"},"8320824":{"post_code":"8320824","prefecture":"FUKUOKA KEN","city":"YANAGAWA SHI","town":"MITSUHASHIMACHI FUJIYOSHI","perfecture_jp":"福岡県","jp_add_1":"柳川市","jp_add_2":"三橋町藤吉"},"8320828":{"post_code":"8320828","prefecture":"FUKUOKA KEN","city":"YANAGAWA SHI","town":"MITSUHASHIMACHI MASAYUKI","perfecture_jp":"福岡県","jp_add_1":"柳川市","jp_add_2":"三橋町正行"},"8320803":{"post_code":"8320803","prefecture":"FUKUOKA KEN","city":"YANAGAWA SHI","town":"MITSUHASHIMACHI MIMURA","perfecture_jp":"福岡県","jp_add_1":"柳川市","jp_add_2":"三橋町新村"},"8320806":{"post_code":"8320806","prefecture":"FUKUOKA KEN","city":"YANAGAWA SHI","town":"MITSUHASHIMACHI YANAGAWA","perfecture_jp":"福岡県","jp_add_1":"柳川市","jp_add_2":"三橋町柳河"},"8320802":{"post_code":"8320802","prefecture":"FUKUOKA KEN","city":"YANAGAWA SHI","town":"MITSUHASHIMACHI YOSHIGAI","perfecture_jp":"福岡県","jp_add_1":"柳川市","jp_add_2":"三橋町吉開"},"8320033":{"post_code":"8320033","prefecture":"FUKUOKA KEN","city":"YANAGAWA SHI","town":"MINAMINAGAEMACHI","perfecture_jp":"福岡県","jp_add_1":"柳川市","jp_add_2":"南長柄町"},"8320083":{"post_code":"8320083","prefecture":"FUKUOKA KEN","city":"YANAGAWA SHI","town":"MINAMIHAMATAKE","perfecture_jp":"福岡県","jp_add_1":"柳川市","jp_add_2":"南浜武"},"8320064":{"post_code":"8320064","prefecture":"FUKUOKA KEN","city":"YANAGAWA SHI","town":"MIYANAGAMACHI","perfecture_jp":"福岡県","jp_add_1":"柳川市","jp_add_2":"宮永町"},"8320063":{"post_code":"8320063","prefecture":"FUKUOKA KEN","city":"YANAGAWA SHI","town":"MOAMMACHI","perfecture_jp":"福岡県","jp_add_1":"柳川市","jp_add_2":"茂庵町"},"8320018":{"post_code":"8320018","prefecture":"FUKUOKA KEN","city":"YANAGAWA SHI","town":"MOTOFUNATSUMACHI","perfecture_jp":"福岡県","jp_add_1":"柳川市","jp_add_2":"本船津町"},"8320074":{"post_code":"8320074","prefecture":"FUKUOKA KEN","city":"YANAGAWA SHI","town":"MOTOMACHI","perfecture_jp":"福岡県","jp_add_1":"柳川市","jp_add_2":"元町"},"8320014":{"post_code":"8320014","prefecture":"FUKUOKA KEN","city":"YANAGAWA SHI","town":"YAOYAMACHI","perfecture_jp":"福岡県","jp_add_1":"柳川市","jp_add_2":"八百屋町"},"8320004":{"post_code":"8320004","prefecture":"FUKUOKA KEN","city":"YANAGAWA SHI","town":"YAKABE","perfecture_jp":"福岡県","jp_add_1":"柳川市","jp_add_2":"矢加部"},"8320057":{"post_code":"8320057","prefecture":"FUKUOKA KEN","city":"YANAGAWA SHI","town":"YASHIROMACHI","perfecture_jp":"福岡県","jp_add_1":"柳川市","jp_add_2":"弥四郎町"},"8320056":{"post_code":"8320056","prefecture":"FUKUOKA KEN","city":"YANAGAWA SHI","town":"YADOMIHOMMACHI","perfecture_jp":"福岡県","jp_add_1":"柳川市","jp_add_2":"矢留本町"},"8320050":{"post_code":"8320050","prefecture":"FUKUOKA KEN","city":"YANAGAWA SHI","town":"YADOMIMACHI","perfecture_jp":"福岡県","jp_add_1":"柳川市","jp_add_2":"矢留町"},"8320075":{"post_code":"8320075","prefecture":"FUKUOKA KEN","city":"YANAGAWA SHI","town":"YANAGIMACHI","perfecture_jp":"福岡県","jp_add_1":"柳川市","jp_add_2":"柳町"},"8320027":{"post_code":"8320027","prefecture":"FUKUOKA KEN","city":"YANAGAWA SHI","town":"YOKOYAMAMACHI","perfecture_jp":"福岡県","jp_add_1":"柳川市","jp_add_2":"横山町"},"8320055":{"post_code":"8320055","prefecture":"FUKUOKA KEN","city":"YANAGAWA SHI","town":"YOSHITOMIMACHI","perfecture_jp":"福岡県","jp_add_1":"柳川市","jp_add_2":"吉富町"},"8320085":{"post_code":"8320085","prefecture":"FUKUOKA KEN","city":"YANAGAWA SHI","town":"YOSHIHARA","perfecture_jp":"福岡県","jp_add_1":"柳川市","jp_add_2":"吉原"}}