{"8340000":{"post_code":"8340000","prefecture":"FUKUOKA KEN","city":"YAME SHI","town":"IKANIKEISAIGANAIBAAI","perfecture_jp":"福岡県","jp_add_1":"八女市","jp_add_2":""},"8340047":{"post_code":"8340047","prefecture":"FUKUOKA KEN","city":"YAME SHI","town":"INADOMI","perfecture_jp":"福岡県","jp_add_1":"八女市","jp_add_2":"稲富"},"8340026":{"post_code":"8340026","prefecture":"FUKUOKA KEN","city":"YAME SHI","town":"INOBU","perfecture_jp":"福岡県","jp_add_1":"八女市","jp_add_2":"井延"},"8340061":{"post_code":"8340061","prefecture":"FUKUOKA KEN","city":"YAME SHI","town":"IMABUKU","perfecture_jp":"福岡県","jp_add_1":"八女市","jp_add_2":"今福"},"8340062":{"post_code":"8340062","prefecture":"FUKUOKA KEN","city":"YAME SHI","town":"IWASAKI","perfecture_jp":"福岡県","jp_add_1":"八女市","jp_add_2":"岩崎"},"8340055":{"post_code":"8340055","prefecture":"FUKUOKA KEN","city":"YAME SHI","town":"UNOIKE","perfecture_jp":"福岡県","jp_add_1":"八女市","jp_add_2":"鵜池"},"8340013":{"post_code":"8340013","prefecture":"FUKUOKA KEN","city":"YAME SHI","town":"OGOMORI","perfecture_jp":"福岡県","jp_add_1":"八女市","jp_add_2":"大籠"},"8340005":{"post_code":"8340005","prefecture":"FUKUOKA KEN","city":"YAME SHI","town":"OJIMA","perfecture_jp":"福岡県","jp_add_1":"八女市","jp_add_2":"大島"},"8340041":{"post_code":"8340041","prefecture":"FUKUOKA KEN","city":"YAME SHI","town":"ODAMA","perfecture_jp":"福岡県","jp_add_1":"八女市","jp_add_2":"緒玉"},"8340064":{"post_code":"8340064","prefecture":"FUKUOKA KEN","city":"YAME SHI","town":"KAMAHARA","perfecture_jp":"福岡県","jp_add_1":"八女市","jp_add_2":"蒲原"},"8340065":{"post_code":"8340065","prefecture":"FUKUOKA KEN","city":"YAME SHI","town":"KAMENOKO","perfecture_jp":"福岡県","jp_add_1":"八女市","jp_add_2":"亀甲"},"8340053":{"post_code":"8340053","prefecture":"FUKUOKA KEN","city":"YAME SHI","town":"KAWAINU","perfecture_jp":"福岡県","jp_add_1":"八女市","jp_add_2":"川犬"},"8340021":{"post_code":"8340021","prefecture":"FUKUOKA KEN","city":"YAME SHI","town":"KITATAGATA","perfecture_jp":"福岡県","jp_add_1":"八女市","jp_add_2":"北田形"},"8340025":{"post_code":"8340025","prefecture":"FUKUOKA KEN","city":"YAME SHI","town":"KITOIN","perfecture_jp":"福岡県","jp_add_1":"八女市","jp_add_2":"祈祷院"},"8340046":{"post_code":"8340046","prefecture":"FUKUOKA KEN","city":"YAME SHI","town":"KUNITAKE","perfecture_jp":"福岡県","jp_add_1":"八女市","jp_add_2":"国武"},"8341221":{"post_code":"8341221","prefecture":"FUKUOKA KEN","city":"YAME SHI","town":"KUROGIMACHI IMA","perfecture_jp":"福岡県","jp_add_1":"八女市","jp_add_2":"黒木町今"},"8341202":{"post_code":"8341202","prefecture":"FUKUOKA KEN","city":"YAME SHI","town":"KUROGIMACHI OBUCHI","perfecture_jp":"福岡県","jp_add_1":"八女市","jp_add_2":"黒木町大淵"},"8341212":{"post_code":"8341212","prefecture":"FUKUOKA KEN","city":"YAME SHI","town":"KUROGIMACHI KAKO","perfecture_jp":"福岡県","jp_add_1":"八女市","jp_add_2":"黒木町鹿子生"},"8341222":{"post_code":"8341222","prefecture":"FUKUOKA KEN","city":"YAME SHI","town":"KUROGIMACHI KASAHARA","perfecture_jp":"福岡県","jp_add_1":"八女市","jp_add_2":"黒木町笠原"},"8341201":{"post_code":"8341201","prefecture":"FUKUOKA KEN","city":"YAME SHI","town":"KUROGIMACHI KITAOBUCHI","perfecture_jp":"福岡県","jp_add_1":"八女市","jp_add_2":"黒木町北大淵"},"8341203":{"post_code":"8341203","prefecture":"FUKUOKA KEN","city":"YAME SHI","town":"KUROGIMACHI KITAGOYA","perfecture_jp":"福岡県","jp_add_1":"八女市","jp_add_2":"黒木町北木屋"},"8341217":{"post_code":"8341217","prefecture":"FUKUOKA KEN","city":"YAME SHI","town":"KUROGIMACHI KUROGI","perfecture_jp":"福岡県","jp_add_1":"八女市","jp_add_2":"黒木町黒木"},"8341216":{"post_code":"8341216","prefecture":"FUKUOKA KEN","city":"YAME SHI","town":"KUROGIMACHI KUWAHARA","perfecture_jp":"福岡県","jp_add_1":"八女市","jp_add_2":"黒木町桑原"},"8341204":{"post_code":"8341204","prefecture":"FUKUOKA KEN","city":"YAME SHI","town":"KUROGIMACHI KOYA","perfecture_jp":"福岡県","jp_add_1":"八女市","jp_add_2":"黒木町木屋"},"8341205":{"post_code":"8341205","prefecture":"FUKUOKA KEN","city":"YAME SHI","town":"KUROGIMACHI TASHIRO","perfecture_jp":"福岡県","jp_add_1":"八女市","jp_add_2":"黒木町田代"},"8341214":{"post_code":"8341214","prefecture":"FUKUOKA KEN","city":"YAME SHI","town":"KUROGIMACHI TAMOTO","perfecture_jp":"福岡県","jp_add_1":"八女市","jp_add_2":"黒木町田本"},"8341211":{"post_code":"8341211","prefecture":"FUKUOKA KEN","city":"YAME SHI","town":"KUROGIMACHI TSUCHIKUBO","perfecture_jp":"福岡県","jp_add_1":"八女市","jp_add_2":"黒木町土窪"},"8341213":{"post_code":"8341213","prefecture":"FUKUOKA KEN","city":"YAME SHI","town":"KUROGIMACHI HOMBUN","perfecture_jp":"福岡県","jp_add_1":"八女市","jp_add_2":"黒木町本分"},"8341215":{"post_code":"8341215","prefecture":"FUKUOKA KEN","city":"YAME SHI","town":"KUROGIMACHI YUBETA","perfecture_jp":"福岡県","jp_add_1":"八女市","jp_add_2":"黒木町湯辺田"},"8340002":{"post_code":"8340002","prefecture":"FUKUOKA KEN","city":"YAME SHI","town":"KUROTSUCHI","perfecture_jp":"福岡県","jp_add_1":"八女市","jp_add_2":"黒土"},"8340042":{"post_code":"8340042","prefecture":"FUKUOKA KEN","city":"YAME SHI","town":"SAKAIDA","perfecture_jp":"福岡県","jp_add_1":"八女市","jp_add_2":"酒井田"},"8341101":{"post_code":"8341101","prefecture":"FUKUOKA KEN","city":"YAME SHI","town":"JOYOMACHI KAMIYOKOYAMA","perfecture_jp":"福岡県","jp_add_1":"八女市","jp_add_2":"上陽町上横山"},"8341102":{"post_code":"8341102","prefecture":"FUKUOKA KEN","city":"YAME SHI","town":"JOYOMACHI KITAKAWAUCHI","perfecture_jp":"福岡県","jp_add_1":"八女市","jp_add_2":"上陽町北川内"},"8341103":{"post_code":"8341103","prefecture":"FUKUOKA KEN","city":"YAME SHI","town":"JOYOMACHI KUKIHARA","perfecture_jp":"福岡県","jp_add_1":"八女市","jp_add_2":"上陽町久木原"},"8341104":{"post_code":"8341104","prefecture":"FUKUOKA KEN","city":"YAME SHI","town":"JOYOMACHI SHIMOYOKOYAMA","perfecture_jp":"福岡県","jp_add_1":"八女市","jp_add_2":"上陽町下横山"},"8340052":{"post_code":"8340052","prefecture":"FUKUOKA KEN","city":"YAME SHI","town":"SHINJO","perfecture_jp":"福岡県","jp_add_1":"八女市","jp_add_2":"新庄"},"8340045":{"post_code":"8340045","prefecture":"FUKUOKA KEN","city":"YAME SHI","town":"TAIRA","perfecture_jp":"福岡県","jp_add_1":"八女市","jp_add_2":"平"},"8340034":{"post_code":"8340034","prefecture":"FUKUOKA KEN","city":"YAME SHI","town":"TAKATSUKA","perfecture_jp":"福岡県","jp_add_1":"八女市","jp_add_2":"高塚"},"8340001":{"post_code":"8340001","prefecture":"FUKUOKA KEN","city":"YAME SHI","town":"TAKUMADA","perfecture_jp":"福岡県","jp_add_1":"八女市","jp_add_2":"宅間田"},"8340014":{"post_code":"8340014","prefecture":"FUKUOKA KEN","city":"YAME SHI","town":"TADAMI","perfecture_jp":"福岡県","jp_add_1":"八女市","jp_add_2":"忠見"},"8340082":{"post_code":"8340082","prefecture":"FUKUOKA KEN","city":"YAME SHI","town":"TACHIBANAMACHI KANEMATSU","perfecture_jp":"福岡県","jp_add_1":"八女市","jp_add_2":"立花町兼松"},"8340083":{"post_code":"8340083","prefecture":"FUKUOKA KEN","city":"YAME SHI","town":"TACHIBANAMACHI KAMIHEBARU","perfecture_jp":"福岡県","jp_add_1":"八女市","jp_add_2":"立花町上辺春"},"8340085":{"post_code":"8340085","prefecture":"FUKUOKA KEN","city":"YAME SHI","town":"TACHIBANAMACHI KITAYAMA","perfecture_jp":"福岡県","jp_add_1":"八女市","jp_add_2":"立花町北山"},"8340073":{"post_code":"8340073","prefecture":"FUKUOKA KEN","city":"YAME SHI","town":"TACHIBANAMACHI SHIMOHEBARU","perfecture_jp":"福岡県","jp_add_1":"八女市","jp_add_2":"立花町下辺春"},"8340084":{"post_code":"8340084","prefecture":"FUKUOKA KEN","city":"YAME SHI","town":"TACHIBANAMACHI SHIRAKI","perfecture_jp":"福岡県","jp_add_1":"八女市","jp_add_2":"立花町白木"},"8340071":{"post_code":"8340071","prefecture":"FUKUOKA KEN","city":"YAME SHI","town":"TACHIBANAMACHI TAGATA","perfecture_jp":"福岡県","jp_add_1":"八女市","jp_add_2":"立花町田形"},"8340074":{"post_code":"8340074","prefecture":"FUKUOKA KEN","city":"YAME SHI","town":"TACHIBANAMACHI TANIGAWA","perfecture_jp":"福岡県","jp_add_1":"八女市","jp_add_2":"立花町谷川"},"8340072":{"post_code":"8340072","prefecture":"FUKUOKA KEN","city":"YAME SHI","town":"TACHIBANAMACHI TOKUDANI","perfecture_jp":"福岡県","jp_add_1":"八女市","jp_add_2":"立花町遠久谷"},"8340075":{"post_code":"8340075","prefecture":"FUKUOKA KEN","city":"YAME SHI","town":"TACHIBANAMACHI HARUJIMA","perfecture_jp":"福岡県","jp_add_1":"八女市","jp_add_2":"立花町原島"},"8340081":{"post_code":"8340081","prefecture":"FUKUOKA KEN","city":"YAME SHI","town":"TACHIBANAMACHI YAMASAKI","perfecture_jp":"福岡県","jp_add_1":"八女市","jp_add_2":"立花町山崎"},"8340067":{"post_code":"8340067","prefecture":"FUKUOKA KEN","city":"YAME SHI","town":"TATSUGAHARA","perfecture_jp":"福岡県","jp_add_1":"八女市","jp_add_2":"龍ケ原"},"8340051":{"post_code":"8340051","prefecture":"FUKUOKA KEN","city":"YAME SHI","town":"TATENO","perfecture_jp":"福岡県","jp_add_1":"八女市","jp_add_2":"立野"},"8340024":{"post_code":"8340024","prefecture":"FUKUOKA KEN","city":"YAME SHI","town":"TSUNOE","perfecture_jp":"福岡県","jp_add_1":"八女市","jp_add_2":"津江"},"8340016":{"post_code":"8340016","prefecture":"FUKUOKA KEN","city":"YAME SHI","town":"TOYOBUKU","perfecture_jp":"福岡県","jp_add_1":"八女市","jp_add_2":"豊福"},"8340011":{"post_code":"8340011","prefecture":"FUKUOKA KEN","city":"YAME SHI","town":"NAGANO","perfecture_jp":"福岡県","jp_add_1":"八女市","jp_add_2":"長野"},"8340004":{"post_code":"8340004","prefecture":"FUKUOKA KEN","city":"YAME SHI","town":"NOSO","perfecture_jp":"福岡県","jp_add_1":"八女市","jp_add_2":"納楚"},"8340023":{"post_code":"8340023","prefecture":"FUKUOKA KEN","city":"YAME SHI","town":"BABA","perfecture_jp":"福岡県","jp_add_1":"八女市","jp_add_2":"馬場"},"8340043":{"post_code":"8340043","prefecture":"FUKUOKA KEN","city":"YAME SHI","town":"HIKARI","perfecture_jp":"福岡県","jp_add_1":"八女市","jp_add_2":"光"},"8340003":{"post_code":"8340003","prefecture":"FUKUOKA KEN","city":"YAME SHI","town":"HIRATA","perfecture_jp":"福岡県","jp_add_1":"八女市","jp_add_2":"平田"},"8340201":{"post_code":"8340201","prefecture":"FUKUOKA KEN","city":"YAME SHI","town":"HOSHINOMURA","perfecture_jp":"福岡県","jp_add_1":"八女市","jp_add_2":"星野村"},"8340015":{"post_code":"8340015","prefecture":"FUKUOKA KEN","city":"YAME SHI","town":"HON","perfecture_jp":"福岡県","jp_add_1":"八女市","jp_add_2":"本"},"8340054":{"post_code":"8340054","prefecture":"FUKUOKA KEN","city":"YAME SHI","town":"MAEKOGA","perfecture_jp":"福岡県","jp_add_1":"八女市","jp_add_2":"前古賀"},"8340032":{"post_code":"8340032","prefecture":"FUKUOKA KEN","city":"YAME SHI","town":"MIYANO","perfecture_jp":"福岡県","jp_add_1":"八女市","jp_add_2":"宮野"},"8340066":{"post_code":"8340066","prefecture":"FUKUOKA KEN","city":"YAME SHI","town":"MUROKA","perfecture_jp":"福岡県","jp_add_1":"八女市","jp_add_2":"室岡"},"8340031":{"post_code":"8340031","prefecture":"FUKUOKA KEN","city":"YAME SHI","town":"MOTOMACHI","perfecture_jp":"福岡県","jp_add_1":"八女市","jp_add_2":"本町"},"8340063":{"post_code":"8340063","prefecture":"FUKUOKA KEN","city":"YAME SHI","town":"MOTOMURA","perfecture_jp":"福岡県","jp_add_1":"八女市","jp_add_2":"本村"},"8340022":{"post_code":"8340022","prefecture":"FUKUOKA KEN","city":"YAME SHI","town":"YANAJIMA","perfecture_jp":"福岡県","jp_add_1":"八女市","jp_add_2":"柳島"},"8340033":{"post_code":"8340033","prefecture":"FUKUOKA KEN","city":"YAME SHI","town":"YANAZE","perfecture_jp":"福岡県","jp_add_1":"八女市","jp_add_2":"柳瀬"},"8340044":{"post_code":"8340044","prefecture":"FUKUOKA KEN","city":"YAME SHI","town":"YABARA","perfecture_jp":"福岡県","jp_add_1":"八女市","jp_add_2":"矢原"},"8341401":{"post_code":"8341401","prefecture":"FUKUOKA KEN","city":"YAME SHI","town":"YABEMURA KITAYABE","perfecture_jp":"福岡県","jp_add_1":"八女市","jp_add_2":"矢部村北矢部"},"8341402":{"post_code":"8341402","prefecture":"FUKUOKA KEN","city":"YAME SHI","town":"YABEMURA YABE","perfecture_jp":"福岡県","jp_add_1":"八女市","jp_add_2":"矢部村矢部"},"8340012":{"post_code":"8340012","prefecture":"FUKUOKA KEN","city":"YAME SHI","town":"YAMAUCHI","perfecture_jp":"福岡県","jp_add_1":"八女市","jp_add_2":"山内"},"8340006":{"post_code":"8340006","prefecture":"FUKUOKA KEN","city":"YAME SHI","town":"YOSHIDA","perfecture_jp":"福岡県","jp_add_1":"八女市","jp_add_2":"吉田"},"8340100":{"post_code":"8340100","prefecture":"FUKUOKA KEN","city":"YAME GUN HIROKAWA MACHI","town":"IKANIKEISAIGANAIBAAI","perfecture_jp":"福岡県","jp_add_1":"八女郡広川町","jp_add_2":""},"8340122":{"post_code":"8340122","prefecture":"FUKUOKA KEN","city":"YAME GUN HIROKAWA MACHI","town":"ICHIJO","perfecture_jp":"福岡県","jp_add_1":"八女郡広川町","jp_add_2":"一條"},"8340114":{"post_code":"8340114","prefecture":"FUKUOKA KEN","city":"YAME GUN HIROKAWA MACHI","town":"OTA","perfecture_jp":"福岡県","jp_add_1":"八女郡広川町","jp_add_2":"太田"},"8340113":{"post_code":"8340113","prefecture":"FUKUOKA KEN","city":"YAME GUN HIROKAWA MACHI","town":"KAWAKAMI","perfecture_jp":"福岡県","jp_add_1":"八女郡広川町","jp_add_2":"川上"},"8340101":{"post_code":"8340101","prefecture":"FUKUOKA KEN","city":"YAME GUN HIROKAWA MACHI","town":"KOJIO","perfecture_jp":"福岡県","jp_add_1":"八女郡広川町","jp_add_2":"小椎尾"},"8340105":{"post_code":"8340105","prefecture":"FUKUOKA KEN","city":"YAME GUN HIROKAWA MACHI","town":"NAGANOBU","perfecture_jp":"福岡県","jp_add_1":"八女郡広川町","jp_add_2":"長延"},"8340115":{"post_code":"8340115","prefecture":"FUKUOKA KEN","city":"YAME GUN HIROKAWA MACHI","town":"NIISHIRO","perfecture_jp":"福岡県","jp_add_1":"八女郡広川町","jp_add_2":"新代"},"8340112":{"post_code":"8340112","prefecture":"FUKUOKA KEN","city":"YAME GUN HIROKAWA MACHI","town":"HISAIZUMI","perfecture_jp":"福岡県","jp_add_1":"八女郡広川町","jp_add_2":"久泉"},"8340111":{"post_code":"8340111","prefecture":"FUKUOKA KEN","city":"YAME GUN HIROKAWA MACHI","town":"HIYOSHI","perfecture_jp":"福岡県","jp_add_1":"八女郡広川町","jp_add_2":"日吉"},"8340121":{"post_code":"8340121","prefecture":"FUKUOKA KEN","city":"YAME GUN HIROKAWA MACHI","town":"HIROKAWA","perfecture_jp":"福岡県","jp_add_1":"八女郡広川町","jp_add_2":"広川"},"8340123":{"post_code":"8340123","prefecture":"FUKUOKA KEN","city":"YAME GUN HIROKAWA MACHI","town":"FUJITA","perfecture_jp":"福岡県","jp_add_1":"八女郡広川町","jp_add_2":"藤田"},"8340102":{"post_code":"8340102","prefecture":"FUKUOKA KEN","city":"YAME GUN HIROKAWA MACHI","town":"MIZUHARA","perfecture_jp":"福岡県","jp_add_1":"八女郡広川町","jp_add_2":"水原"},"8340104":{"post_code":"8340104","prefecture":"FUKUOKA KEN","city":"YAME GUN HIROKAWA MACHI","town":"YOSHITSUNE","perfecture_jp":"福岡県","jp_add_1":"八女郡広川町","jp_add_2":"吉常"},"8340103":{"post_code":"8340103","prefecture":"FUKUOKA KEN","city":"YAME GUN HIROKAWA MACHI","town":"ROKUTA","perfecture_jp":"福岡県","jp_add_1":"八女郡広川町","jp_add_2":"六田"}}