{"8370905":{"post_code":"8370905","prefecture":"FUKUOKA KEN","city":"OMUTA SHI","town":"AMAGI","perfecture_jp":"福岡県","jp_add_1":"大牟田市","jp_add_2":"甘木"},"8370922":{"post_code":"8370922","prefecture":"FUKUOKA KEN","city":"OMUTA SHI","town":"IMAYAMA","perfecture_jp":"福岡県","jp_add_1":"大牟田市","jp_add_2":"今山"},"8370913":{"post_code":"8370913","prefecture":"FUKUOKA KEN","city":"OMUTA SHI","town":"IWAMOTO","perfecture_jp":"福岡県","jp_add_1":"大牟田市","jp_add_2":"岩本"},"8370910":{"post_code":"8370910","prefecture":"FUKUOKA KEN","city":"OMUTA SHI","town":"IWAMOTOSHIMMACHI","perfecture_jp":"福岡県","jp_add_1":"大牟田市","jp_add_2":"岩本新町"},"8370902":{"post_code":"8370902","prefecture":"FUKUOKA KEN","city":"OMUTA SHI","town":"KAMIUCHI","perfecture_jp":"福岡県","jp_add_1":"大牟田市","jp_add_2":"上内"},"8370926":{"post_code":"8370926","prefecture":"FUKUOKA KEN","city":"OMUTA SHI","town":"KAMISHIRAKAWAMACHI","perfecture_jp":"福岡県","jp_add_1":"大牟田市","jp_add_2":"上白川町"},"8370917":{"post_code":"8370917","prefecture":"FUKUOKA KEN","city":"OMUTA SHI","town":"KUSAGI","perfecture_jp":"福岡県","jp_add_1":"大牟田市","jp_add_2":"草木"},"8370924":{"post_code":"8370924","prefecture":"FUKUOKA KEN","city":"OMUTA SHI","town":"KUNUGI","perfecture_jp":"福岡県","jp_add_1":"大牟田市","jp_add_2":"歴木"},"8370915":{"post_code":"8370915","prefecture":"FUKUOKA KEN","city":"OMUTA SHI","town":"KUBUKI","perfecture_jp":"福岡県","jp_add_1":"大牟田市","jp_add_2":"久福木"},"8370906":{"post_code":"8370906","prefecture":"FUKUOKA KEN","city":"OMUTA SHI","town":"KURANAGA","perfecture_jp":"福岡県","jp_add_1":"大牟田市","jp_add_2":"倉永"},"8370901":{"post_code":"8370901","prefecture":"FUKUOKA KEN","city":"OMUTA SHI","town":"SHIKA","perfecture_jp":"福岡県","jp_add_1":"大牟田市","jp_add_2":"四ケ"},"8370907":{"post_code":"8370907","prefecture":"FUKUOKA KEN","city":"OMUTA SHI","town":"SHIKASHIMMACHI","perfecture_jp":"福岡県","jp_add_1":"大牟田市","jp_add_2":"四箇新町"},"8370928":{"post_code":"8370928","prefecture":"FUKUOKA KEN","city":"OMUTA SHI","town":"SHIMOSHIRAKAWAMACHI","perfecture_jp":"福岡県","jp_add_1":"大牟田市","jp_add_2":"下白川町"},"8370925":{"post_code":"8370925","prefecture":"FUKUOKA KEN","city":"OMUTA SHI","town":"SHIRAKAWA","perfecture_jp":"福岡県","jp_add_1":"大牟田市","jp_add_2":"白川"},"8370912":{"post_code":"8370912","prefecture":"FUKUOKA KEN","city":"OMUTA SHI","town":"SHIRAGANE","perfecture_jp":"福岡県","jp_add_1":"大牟田市","jp_add_2":"白銀"},"8370923":{"post_code":"8370923","prefecture":"FUKUOKA KEN","city":"OMUTA SHI","town":"SHIMMACHI","perfecture_jp":"福岡県","jp_add_1":"大牟田市","jp_add_2":"新町"},"8370916":{"post_code":"8370916","prefecture":"FUKUOKA KEN","city":"OMUTA SHI","town":"TAKUMA","perfecture_jp":"福岡県","jp_add_1":"大牟田市","jp_add_2":"田隈"},"8370911":{"post_code":"8370911","prefecture":"FUKUOKA KEN","city":"OMUTA SHI","town":"TACHIBANA","perfecture_jp":"福岡県","jp_add_1":"大牟田市","jp_add_2":"橘"},"8370927":{"post_code":"8370927","prefecture":"FUKUOKA KEN","city":"OMUTA SHI","town":"NAKASHIRAKAWAMACHI","perfecture_jp":"福岡県","jp_add_1":"大牟田市","jp_add_2":"中白川町"},"8370921":{"post_code":"8370921","prefecture":"FUKUOKA KEN","city":"OMUTA SHI","town":"MIIKE","perfecture_jp":"福岡県","jp_add_1":"大牟田市","jp_add_2":"三池"},"8370903":{"post_code":"8370903","prefecture":"FUKUOKA KEN","city":"OMUTA SHI","town":"MIYAZAKI","perfecture_jp":"福岡県","jp_add_1":"大牟田市","jp_add_2":"宮崎"},"8370914":{"post_code":"8370914","prefecture":"FUKUOKA KEN","city":"OMUTA SHI","town":"MIYABE","perfecture_jp":"福岡県","jp_add_1":"大牟田市","jp_add_2":"宮部"},"8370904":{"post_code":"8370904","prefecture":"FUKUOKA KEN","city":"OMUTA SHI","town":"YOSHINO","perfecture_jp":"福岡県","jp_add_1":"大牟田市","jp_add_2":"吉野"}}