{"8390000":{"post_code":"8390000","prefecture":"FUKUOKA KEN","city":"KURUME SHI","town":"IKANIKEISAIGANAIBAAI","perfecture_jp":"福岡県","jp_add_1":"久留米市","jp_add_2":""},"8390861":{"post_code":"8390861","prefecture":"FUKUOKA KEN","city":"KURUME SHI","town":"AIKAWAMACHI","perfecture_jp":"福岡県","jp_add_1":"久留米市","jp_add_2":"合川町"},"8390843":{"post_code":"8390843","prefecture":"FUKUOKA KEN","city":"KURUME SHI","town":"ASAZUMAMACHI","perfecture_jp":"福岡県","jp_add_1":"久留米市","jp_add_2":"朝妻町"},"8390832":{"post_code":"8390832","prefecture":"FUKUOKA KEN","city":"KURUME SHI","town":"OHASHIMACHI AIRAKU","perfecture_jp":"福岡県","jp_add_1":"久留米市","jp_add_2":"大橋町合楽"},"8390833":{"post_code":"8390833","prefecture":"FUKUOKA KEN","city":"KURUME SHI","town":"OHASHIMACHI TSUNEMOCHI","perfecture_jp":"福岡県","jp_add_1":"久留米市","jp_add_2":"大橋町常持"},"8390831":{"post_code":"8390831","prefecture":"FUKUOKA KEN","city":"KURUME SHI","town":"OHASHIMACHI NINAGAWA","perfecture_jp":"福岡県","jp_add_1":"久留米市","jp_add_2":"大橋町蜷川"},"8390835":{"post_code":"8390835","prefecture":"FUKUOKA KEN","city":"KURUME SHI","town":"KUSANOMACHI KUSANO","perfecture_jp":"福岡県","jp_add_1":"久留米市","jp_add_2":"草野町草野"},"8390834":{"post_code":"8390834","prefecture":"FUKUOKA KEN","city":"KURUME SHI","town":"KUSANOMACHI KOTOBAYASHI","perfecture_jp":"福岡県","jp_add_1":"久留米市","jp_add_2":"草野町紅桃林"},"8390837":{"post_code":"8390837","prefecture":"FUKUOKA KEN","city":"KURUME SHI","town":"KUSANOMACHI YAHAGI","perfecture_jp":"福岡県","jp_add_1":"久留米市","jp_add_2":"草野町矢作"},"8390836":{"post_code":"8390836","prefecture":"FUKUOKA KEN","city":"KURUME SHI","town":"KUSANOMACHI YOSHIKI","perfecture_jp":"福岡県","jp_add_1":"久留米市","jp_add_2":"草野町吉木"},"8390852":{"post_code":"8390852","prefecture":"FUKUOKA KEN","city":"KURUME SHI","town":"KORAUCHIMACHI","perfecture_jp":"福岡県","jp_add_1":"久留米市","jp_add_2":"高良内町"},"8390863":{"post_code":"8390863","prefecture":"FUKUOKA KEN","city":"KURUME SHI","town":"KOKUBUMACHI","perfecture_jp":"福岡県","jp_add_1":"久留米市","jp_add_2":"国分町"},"8390865":{"post_code":"8390865","prefecture":"FUKUOKA KEN","city":"KURUME SHI","town":"SHINAIKAWA","perfecture_jp":"福岡県","jp_add_1":"久留米市","jp_add_2":"新合川"},"8390853":{"post_code":"8390853","prefecture":"FUKUOKA KEN","city":"KURUME SHI","town":"SEIHO","perfecture_jp":"福岡県","jp_add_1":"久留米市","jp_add_2":"青峰"},"8390824":{"post_code":"8390824","prefecture":"FUKUOKA KEN","city":"KURUME SHI","town":"ZENDOJIMACHI IIDA","perfecture_jp":"福岡県","jp_add_1":"久留米市","jp_add_2":"善導寺町飯田"},"8390822":{"post_code":"8390822","prefecture":"FUKUOKA KEN","city":"KURUME SHI","town":"ZENDOJIMACHI KIZUKA","perfecture_jp":"福岡県","jp_add_1":"久留米市","jp_add_2":"善導寺町木塚"},"8390825":{"post_code":"8390825","prefecture":"FUKUOKA KEN","city":"KURUME SHI","town":"ZENDOJIMACHI SHIMA","perfecture_jp":"福岡県","jp_add_1":"久留米市","jp_add_2":"善導寺町島"},"8390823":{"post_code":"8390823","prefecture":"FUKUOKA KEN","city":"KURUME SHI","town":"ZENDOJIMACHI YODA","perfecture_jp":"福岡県","jp_add_1":"久留米市","jp_add_2":"善導寺町与田"},"8390821":{"post_code":"8390821","prefecture":"FUKUOKA KEN","city":"KURUME SHI","town":"DAIROBARUMACHI","perfecture_jp":"福岡県","jp_add_1":"久留米市","jp_add_2":"太郎原町"},"8391203":{"post_code":"8391203","prefecture":"FUKUOKA KEN","city":"KURUME SHI","town":"TANUSHIMARUMACHI AKINARI","perfecture_jp":"福岡県","jp_add_1":"久留米市","jp_add_2":"田主丸町秋成"},"8391227":{"post_code":"8391227","prefecture":"FUKUOKA KEN","city":"KURUME SHI","town":"TANUSHIMARUMACHI ASAMORI","perfecture_jp":"福岡県","jp_add_1":"久留米市","jp_add_2":"田主丸町朝森"},"8391212":{"post_code":"8391212","prefecture":"FUKUOKA KEN","city":"KURUME SHI","town":"TANUSHIMARUMACHI ISHIKAKI","perfecture_jp":"福岡県","jp_add_1":"久留米市","jp_add_2":"田主丸町石垣"},"8391223":{"post_code":"8391223","prefecture":"FUKUOKA KEN","city":"KURUME SHI","town":"TANUSHIMARUMACHI IMAE","perfecture_jp":"福岡県","jp_add_1":"久留米市","jp_add_2":"田主丸町以真恵"},"8391228":{"post_code":"8391228","prefecture":"FUKUOKA KEN","city":"KURUME SHI","town":"TANUSHIMARUMACHI ERI","perfecture_jp":"福岡県","jp_add_1":"久留米市","jp_add_2":"田主丸町恵利"},"8391221":{"post_code":"8391221","prefecture":"FUKUOKA KEN","city":"KURUME SHI","town":"TANUSHIMARUMACHI KAMIHARU","perfecture_jp":"福岡県","jp_add_1":"久留米市","jp_add_2":"田主丸町上原"},"8391222":{"post_code":"8391222","prefecture":"FUKUOKA KEN","city":"KURUME SHI","town":"TANUSHIMARUMACHI SHITSUKASHIMA","perfecture_jp":"福岡県","jp_add_1":"久留米市","jp_add_2":"田主丸町志塚島"},"8391225":{"post_code":"8391225","prefecture":"FUKUOKA KEN","city":"KURUME SHI","town":"TANUSHIMARUMACHI SUGAHARA","perfecture_jp":"福岡県","jp_add_1":"久留米市","jp_add_2":"田主丸町菅原"},"8391202":{"post_code":"8391202","prefecture":"FUKUOKA KEN","city":"KURUME SHI","town":"TANUSHIMARUMACHI TAKATORI","perfecture_jp":"福岡県","jp_add_1":"久留米市","jp_add_2":"田主丸町鷹取"},"8391215":{"post_code":"8391215","prefecture":"FUKUOKA KEN","city":"KURUME SHI","town":"TANUSHIMARUMACHI TAKENO","perfecture_jp":"福岡県","jp_add_1":"久留米市","jp_add_2":"田主丸町竹野"},"8391233":{"post_code":"8391233","prefecture":"FUKUOKA KEN","city":"KURUME SHI","town":"TANUSHIMARUMACHI TANUSHIMARU","perfecture_jp":"福岡県","jp_add_1":"久留米市","jp_add_2":"田主丸町田主丸"},"8391214":{"post_code":"8391214","prefecture":"FUKUOKA KEN","city":"KURUME SHI","town":"TANUSHIMARUMACHI CHITOKU","perfecture_jp":"福岡県","jp_add_1":"久留米市","jp_add_2":"田主丸町地徳"},"8391232":{"post_code":"8391232","prefecture":"FUKUOKA KEN","city":"KURUME SHI","town":"TANUSHIMARUMACHI TOKIWA","perfecture_jp":"福岡県","jp_add_1":"久留米市","jp_add_2":"田主丸町常盤"},"8391234":{"post_code":"8391234","prefecture":"FUKUOKA KEN","city":"KURUME SHI","town":"TANUSHIMARUMACHI TOYOKI","perfecture_jp":"福岡県","jp_add_1":"久留米市","jp_add_2":"田主丸町豊城"},"8391216":{"post_code":"8391216","prefecture":"FUKUOKA KEN","city":"KURUME SHI","town":"TANUSHIMARUMACHI NAKAO","perfecture_jp":"福岡県","jp_add_1":"久留米市","jp_add_2":"田主丸町中尾"},"8391201":{"post_code":"8391201","prefecture":"FUKUOKA KEN","city":"KURUME SHI","town":"TANUSHIMARUMACHI NAGASU","perfecture_jp":"福岡県","jp_add_1":"久留米市","jp_add_2":"田主丸町長栖"},"8391231":{"post_code":"8391231","prefecture":"FUKUOKA KEN","city":"KURUME SHI","town":"TANUSHIMARUMACHI NODA","perfecture_jp":"福岡県","jp_add_1":"久留米市","jp_add_2":"田主丸町野田"},"8391204":{"post_code":"8391204","prefecture":"FUKUOKA KEN","city":"KURUME SHI","town":"TANUSHIMARUMACHI FUEKI","perfecture_jp":"福岡県","jp_add_1":"久留米市","jp_add_2":"田主丸町殖木"},"8391205":{"post_code":"8391205","prefecture":"FUKUOKA KEN","city":"KURUME SHI","town":"TANUSHIMARUMACHI FUNAGOSHI","perfecture_jp":"福岡県","jp_add_1":"久留米市","jp_add_2":"田主丸町船越"},"8391224":{"post_code":"8391224","prefecture":"FUKUOKA KEN","city":"KURUME SHI","town":"TANUSHIMARUMACHI MAKI","perfecture_jp":"福岡県","jp_add_1":"久留米市","jp_add_2":"田主丸町牧"},"8391213":{"post_code":"8391213","prefecture":"FUKUOKA KEN","city":"KURUME SHI","town":"TANUSHIMARUMACHI MASUODA","perfecture_jp":"福岡県","jp_add_1":"久留米市","jp_add_2":"田主丸町益生田"},"8391211":{"post_code":"8391211","prefecture":"FUKUOKA KEN","city":"KURUME SHI","town":"TANUSHIMARUMACHI MORIBE","perfecture_jp":"福岡県","jp_add_1":"久留米市","jp_add_2":"田主丸町森部"},"8391226":{"post_code":"8391226","prefecture":"FUKUOKA KEN","city":"KURUME SHI","town":"TANUSHIMARUMACHI YAHATA","perfecture_jp":"福岡県","jp_add_1":"久留米市","jp_add_2":"田主丸町八幡"},"8391206":{"post_code":"8391206","prefecture":"FUKUOKA KEN","city":"KURUME SHI","town":"TANUSHIMARUMACHI YOSHIMOTO","perfecture_jp":"福岡県","jp_add_1":"久留米市","jp_add_2":"田主丸町吉本"},"8390862":{"post_code":"8390862","prefecture":"FUKUOKA KEN","city":"KURUME SHI","town":"NONAKAMACHI","perfecture_jp":"福岡県","jp_add_1":"久留米市","jp_add_2":"野中町"},"8390809":{"post_code":"8390809","prefecture":"FUKUOKA KEN","city":"KURUME SHI","town":"HIGASHIAIKAWA","perfecture_jp":"福岡県","jp_add_1":"久留米市","jp_add_2":"東合川"},"8390808":{"post_code":"8390808","prefecture":"FUKUOKA KEN","city":"KURUME SHI","town":"HIGASHIAIKAWA SHIMMACHI","perfecture_jp":"福岡県","jp_add_1":"久留米市","jp_add_2":"東合川新町"},"8390806":{"post_code":"8390806","prefecture":"FUKUOKA KEN","city":"KURUME SHI","town":"HIGASHIAIKAWAHIIDEMACHI","perfecture_jp":"福岡県","jp_add_1":"久留米市","jp_add_2":"東合川干出町"},"8390807":{"post_code":"8390807","prefecture":"FUKUOKA KEN","city":"KURUME SHI","town":"HIGASHIAIKAWAMACHI","perfecture_jp":"福岡県","jp_add_1":"久留米市","jp_add_2":"東合川町"},"8390864":{"post_code":"8390864","prefecture":"FUKUOKA KEN","city":"KURUME SHI","town":"HYAKUNENKOEN","perfecture_jp":"福岡県","jp_add_1":"久留米市","jp_add_2":"百年公園"},"8390842":{"post_code":"8390842","prefecture":"FUKUOKA KEN","city":"KURUME SHI","town":"MII ASAZUMA","perfecture_jp":"福岡県","jp_add_1":"久留米市","jp_add_2":"御井朝妻"},"8390841":{"post_code":"8390841","prefecture":"FUKUOKA KEN","city":"KURUME SHI","town":"MII HATAZAKI","perfecture_jp":"福岡県","jp_add_1":"久留米市","jp_add_2":"御井旗崎"},"8390851":{"post_code":"8390851","prefecture":"FUKUOKA KEN","city":"KURUME SHI","town":"MIIMACHI","perfecture_jp":"福岡県","jp_add_1":"久留米市","jp_add_2":"御井町"},"8390801":{"post_code":"8390801","prefecture":"FUKUOKA KEN","city":"KURUME SHI","town":"MIYANOJIN","perfecture_jp":"福岡県","jp_add_1":"久留米市","jp_add_2":"宮ノ陣"},"8390803":{"post_code":"8390803","prefecture":"FUKUOKA KEN","city":"KURUME SHI","town":"MIYANOJIMMACHI OTO","perfecture_jp":"福岡県","jp_add_1":"久留米市","jp_add_2":"宮ノ陣町大杜"},"8390802":{"post_code":"8390802","prefecture":"FUKUOKA KEN","city":"KURUME SHI","town":"MIYANOJIMMACHI GOROMARU","perfecture_jp":"福岡県","jp_add_1":"久留米市","jp_add_2":"宮ノ陣町五郎丸"},"8390805":{"post_code":"8390805","prefecture":"FUKUOKA KEN","city":"KURUME SHI","town":"MIYANOJIMMACHI HATCHOJIMA","perfecture_jp":"福岡県","jp_add_1":"久留米市","jp_add_2":"宮ノ陣町八丁島"},"8390804":{"post_code":"8390804","prefecture":"FUKUOKA KEN","city":"KURUME SHI","town":"MIYANOJIMMACHI WAKAMATSU","perfecture_jp":"福岡県","jp_add_1":"久留米市","jp_add_2":"宮ノ陣町若松"},"8390812":{"post_code":"8390812","prefecture":"FUKUOKA KEN","city":"KURUME SHI","town":"YAMAKAWA AINO","perfecture_jp":"福岡県","jp_add_1":"久留米市","jp_add_2":"山川安居野"},"8390813":{"post_code":"8390813","prefecture":"FUKUOKA KEN","city":"KURUME SHI","town":"YAMAKAWA ICHINOEMACHI","perfecture_jp":"福岡県","jp_add_1":"久留米市","jp_add_2":"山川市ノ上町"},"8390814":{"post_code":"8390814","prefecture":"FUKUOKA KEN","city":"KURUME SHI","town":"YAMAKAWA OIWAKE","perfecture_jp":"福岡県","jp_add_1":"久留米市","jp_add_2":"山川追分"},"8390815":{"post_code":"8390815","prefecture":"FUKUOKA KEN","city":"KURUME SHI","town":"YAMAKAWA KUTSUGATAMACHI","perfecture_jp":"福岡県","jp_add_1":"久留米市","jp_add_2":"山川沓形町"},"8390811":{"post_code":"8390811","prefecture":"FUKUOKA KEN","city":"KURUME SHI","town":"YAMAKAWA KUMASHIRO","perfecture_jp":"福岡県","jp_add_1":"久留米市","jp_add_2":"山川神代"},"8390816":{"post_code":"8390816","prefecture":"FUKUOKA KEN","city":"KURUME SHI","town":"YAMAKAWA NOGUCHIMACHI","perfecture_jp":"福岡県","jp_add_1":"久留米市","jp_add_2":"山川野口町"},"8390817":{"post_code":"8390817","prefecture":"FUKUOKA KEN","city":"KURUME SHI","town":"YAMAKAWAMACHI","perfecture_jp":"福岡県","jp_add_1":"久留米市","jp_add_2":"山川町"},"8390827":{"post_code":"8390827","prefecture":"FUKUOKA KEN","city":"KURUME SHI","town":"YAMAMOTOMACHI TOYODA","perfecture_jp":"福岡県","jp_add_1":"久留米市","jp_add_2":"山本町豊田"},"8390826":{"post_code":"8390826","prefecture":"FUKUOKA KEN","city":"KURUME SHI","town":"YAMAMOTOMACHI MINO","perfecture_jp":"福岡県","jp_add_1":"久留米市","jp_add_2":"山本町耳納"},"8390251":{"post_code":"8390251","prefecture":"FUKUOKA KEN","city":"YANAGAWA SHI","town":"YAMATOMACHI AKENO","perfecture_jp":"福岡県","jp_add_1":"柳川市","jp_add_2":"大和町明野"},"8390263":{"post_code":"8390263","prefecture":"FUKUOKA KEN","city":"YANAGAWA SHI","town":"YAMATOMACHI OTSUBO","perfecture_jp":"福岡県","jp_add_1":"柳川市","jp_add_2":"大和町大坪"},"8390252":{"post_code":"8390252","prefecture":"FUKUOKA KEN","city":"YANAGAWA SHI","town":"YAMATOMACHI SAKAE","perfecture_jp":"福岡県","jp_add_1":"柳川市","jp_add_2":"大和町栄"},"8390261":{"post_code":"8390261","prefecture":"FUKUOKA KEN","city":"YANAGAWA SHI","town":"YAMATOMACHI SARAKAKIBIRAKI","perfecture_jp":"福岡県","jp_add_1":"柳川市","jp_add_2":"大和町皿垣開"},"8390243":{"post_code":"8390243","prefecture":"FUKUOKA KEN","city":"YANAGAWA SHI","town":"YAMATOMACHI SHIOTSUKA","perfecture_jp":"福岡県","jp_add_1":"柳川市","jp_add_2":"大和町塩塚"},"8390253":{"post_code":"8390253","prefecture":"FUKUOKA KEN","city":"YANAGAWA SHI","town":"YAMATOMACHI TAKANO","perfecture_jp":"福岡県","jp_add_1":"柳川市","jp_add_2":"大和町鷹ノ尾"},"8390264":{"post_code":"8390264","prefecture":"FUKUOKA KEN","city":"YANAGAWA SHI","town":"YAMATOMACHI TANIGAKI","perfecture_jp":"福岡県","jp_add_1":"柳川市","jp_add_2":"大和町谷垣"},"8390241":{"post_code":"8390241","prefecture":"FUKUOKA KEN","city":"YANAGAWA SHI","town":"YAMATOMACHI TOKUMASU","perfecture_jp":"福岡県","jp_add_1":"柳川市","jp_add_2":"大和町徳益"},"8390242":{"post_code":"8390242","prefecture":"FUKUOKA KEN","city":"YANAGAWA SHI","town":"YAMATOMACHI TOYOHARA","perfecture_jp":"福岡県","jp_add_1":"柳川市","jp_add_2":"大和町豊原"},"8390254":{"post_code":"8390254","prefecture":"FUKUOKA KEN","city":"YANAGAWA SHI","town":"YAMATOMACHI NAKASHIMA","perfecture_jp":"福岡県","jp_add_1":"柳川市","jp_add_2":"大和町中島"},"8390262":{"post_code":"8390262","prefecture":"FUKUOKA KEN","city":"YANAGAWA SHI","town":"YAMATOMACHI NAGATABIRAKI","perfecture_jp":"福岡県","jp_add_1":"柳川市","jp_add_2":"大和町永田開"},"8390244":{"post_code":"8390244","prefecture":"FUKUOKA KEN","city":"YANAGAWA SHI","town":"YAMATOMACHI ROKUGO","perfecture_jp":"福岡県","jp_add_1":"柳川市","jp_add_2":"大和町六合"},"8391400":{"post_code":"8391400","prefecture":"FUKUOKA KEN","city":"UKIHA SHI","town":"IKANIKEISAIGANAIBAAI","perfecture_jp":"福岡県","jp_add_1":"うきは市","jp_add_2":""},"8391401":{"post_code":"8391401","prefecture":"FUKUOKA KEN","city":"UKIHA SHI","town":"UKIHAMACHI ASADA","perfecture_jp":"福岡県","jp_add_1":"うきは市","jp_add_2":"浮羽町朝田"},"8391415":{"post_code":"8391415","prefecture":"FUKUOKA KEN","city":"UKIHA SHI","town":"UKIHAMACHI IMOGAWA","perfecture_jp":"福岡県","jp_add_1":"うきは市","jp_add_2":"浮羽町妹川"},"8391402":{"post_code":"8391402","prefecture":"FUKUOKA KEN","city":"UKIHA SHI","town":"UKIHAMACHI UKIHA","perfecture_jp":"福岡県","jp_add_1":"うきは市","jp_add_2":"浮羽町浮羽"},"8391412":{"post_code":"8391412","prefecture":"FUKUOKA KEN","city":"UKIHA SHI","town":"UKIHAMACHI KOJIO","perfecture_jp":"福岡県","jp_add_1":"うきは市","jp_add_2":"浮羽町小塩"},"8391406":{"post_code":"8391406","prefecture":"FUKUOKA KEN","city":"UKIHA SHI","town":"UKIHAMACHI TAKAMI","perfecture_jp":"福岡県","jp_add_1":"うきは市","jp_add_2":"浮羽町高見"},"8391414":{"post_code":"8391414","prefecture":"FUKUOKA KEN","city":"UKIHA SHI","town":"UKIHAMACHI TAGOMORI","perfecture_jp":"福岡県","jp_add_1":"うきは市","jp_add_2":"浮羽町田篭"},"8391411":{"post_code":"8391411","prefecture":"FUKUOKA KEN","city":"UKIHA SHI","town":"UKIHAMACHI NAGAREKAWA","perfecture_jp":"福岡県","jp_add_1":"うきは市","jp_add_2":"浮羽町流川"},"8391413":{"post_code":"8391413","prefecture":"FUKUOKA KEN","city":"UKIHA SHI","town":"UKIHAMACHI NIIKAWA","perfecture_jp":"福岡県","jp_add_1":"うきは市","jp_add_2":"浮羽町新川"},"8391404":{"post_code":"8391404","prefecture":"FUKUOKA KEN","city":"UKIHA SHI","town":"UKIHAMACHI NISHIKUMANOE","perfecture_jp":"福岡県","jp_add_1":"うきは市","jp_add_2":"浮羽町西隈上"},"8391403":{"post_code":"8391403","prefecture":"FUKUOKA KEN","city":"UKIHA SHI","town":"UKIHAMACHI HIGASHIKUMANOE","perfecture_jp":"福岡県","jp_add_1":"うきは市","jp_add_2":"浮羽町東隈上"},"8391405":{"post_code":"8391405","prefecture":"FUKUOKA KEN","city":"UKIHA SHI","town":"UKIHAMACHI FURUKAWA","perfecture_jp":"福岡県","jp_add_1":"うきは市","jp_add_2":"浮羽町古川"},"8391407":{"post_code":"8391407","prefecture":"FUKUOKA KEN","city":"UKIHA SHI","town":"UKIHAMACHI MIHARU","perfecture_jp":"福岡県","jp_add_1":"うきは市","jp_add_2":"浮羽町三春"},"8391408":{"post_code":"8391408","prefecture":"FUKUOKA KEN","city":"UKIHA SHI","town":"UKIHAMACHI YAMAKITA","perfecture_jp":"福岡県","jp_add_1":"うきは市","jp_add_2":"浮羽町山北"},"8391321":{"post_code":"8391321","prefecture":"FUKUOKA KEN","city":"UKIHA SHI","town":"YOSHIIMACHI","perfecture_jp":"福岡県","jp_add_1":"うきは市","jp_add_2":"吉井町"},"8391342":{"post_code":"8391342","prefecture":"FUKUOKA KEN","city":"UKIHA SHI","town":"YOSHIIMACHI IKUHA","perfecture_jp":"福岡県","jp_add_1":"うきは市","jp_add_2":"吉井町生葉"},"8391341":{"post_code":"8391341","prefecture":"FUKUOKA KEN","city":"UKIHA SHI","town":"YOSHIIMACHI ENAMI","perfecture_jp":"福岡県","jp_add_1":"うきは市","jp_add_2":"吉井町江南"},"8391312":{"post_code":"8391312","prefecture":"FUKUOKA KEN","city":"UKIHA SHI","town":"YOSHIIMACHI KIYOSE","perfecture_jp":"福岡県","jp_add_1":"うきは市","jp_add_2":"吉井町清瀬"},"8391301":{"post_code":"8391301","prefecture":"FUKUOKA KEN","city":"UKIHA SHI","town":"YOSHIIMACHI SAKURAI","perfecture_jp":"福岡県","jp_add_1":"うきは市","jp_add_2":"吉井町桜井"},"8391343":{"post_code":"8391343","prefecture":"FUKUOKA KEN","city":"UKIHA SHI","town":"YOSHIIMACHI TAKATORI","perfecture_jp":"福岡県","jp_add_1":"うきは市","jp_add_2":"吉井町鷹取"},"8391307":{"post_code":"8391307","prefecture":"FUKUOKA KEN","city":"UKIHA SHI","town":"YOSHIIMACHI TACHIBANADA","perfecture_jp":"福岡県","jp_add_1":"うきは市","jp_add_2":"吉井町橘田"},"8391304":{"post_code":"8391304","prefecture":"FUKUOKA KEN","city":"UKIHA SHI","town":"YOSHIIMACHI CHITOSE","perfecture_jp":"福岡県","jp_add_1":"うきは市","jp_add_2":"吉井町千年"},"8391302":{"post_code":"8391302","prefecture":"FUKUOKA KEN","city":"UKIHA SHI","town":"YOSHIIMACHI TOKUMARU","perfecture_jp":"福岡県","jp_add_1":"うきは市","jp_add_2":"吉井町徳丸"},"8391333":{"post_code":"8391333","prefecture":"FUKUOKA KEN","city":"UKIHA SHI","town":"YOSHIIMACHI TOMINAGA","perfecture_jp":"福岡県","jp_add_1":"うきは市","jp_add_2":"吉井町富永"},"8391344":{"post_code":"8391344","prefecture":"FUKUOKA KEN","city":"UKIHA SHI","town":"YOSHIIMACHI NAGASU","perfecture_jp":"福岡県","jp_add_1":"うきは市","jp_add_2":"吉井町長栖"},"8391306":{"post_code":"8391306","prefecture":"FUKUOKA KEN","city":"UKIHA SHI","town":"YOSHIIMACHI NIIHARU","perfecture_jp":"福岡県","jp_add_1":"うきは市","jp_add_2":"吉井町新治"},"8391305":{"post_code":"8391305","prefecture":"FUKUOKA KEN","city":"UKIHA SHI","town":"YOSHIIMACHI FUKUNAGA","perfecture_jp":"福岡県","jp_add_1":"うきは市","jp_add_2":"吉井町福永"},"8391332":{"post_code":"8391332","prefecture":"FUKUOKA KEN","city":"UKIHA SHI","town":"YOSHIIMACHI FUKUMASU","perfecture_jp":"福岡県","jp_add_1":"うきは市","jp_add_2":"吉井町福益"},"8391303":{"post_code":"8391303","prefecture":"FUKUOKA KEN","city":"UKIHA SHI","town":"YOSHIIMACHI MIYADA","perfecture_jp":"福岡県","jp_add_1":"うきは市","jp_add_2":"吉井町宮田"},"8391331":{"post_code":"8391331","prefecture":"FUKUOKA KEN","city":"UKIHA SHI","town":"YOSHIIMACHI YABE","perfecture_jp":"福岡県","jp_add_1":"うきは市","jp_add_2":"吉井町屋部"},"8391308":{"post_code":"8391308","prefecture":"FUKUOKA KEN","city":"UKIHA SHI","town":"YOSHIIMACHI YAWATA","perfecture_jp":"福岡県","jp_add_1":"うきは市","jp_add_2":"吉井町八和田"},"8391311":{"post_code":"8391311","prefecture":"FUKUOKA KEN","city":"UKIHA SHI","town":"YOSHIIMACHI WAKAMIYA","perfecture_jp":"福岡県","jp_add_1":"うきは市","jp_add_2":"吉井町若宮"},"8390214":{"post_code":"8390214","prefecture":"FUKUOKA KEN","city":"MIYAMA SHI","town":"TAKATAMACHI IMABUKU","perfecture_jp":"福岡県","jp_add_1":"みやま市","jp_add_2":"高田町今福"},"8390223":{"post_code":"8390223","prefecture":"FUKUOKA KEN","city":"MIYAMA SHI","town":"TAKATAMACHI IWATSU","perfecture_jp":"福岡県","jp_add_1":"みやま市","jp_add_2":"高田町岩津"},"8390202":{"post_code":"8390202","prefecture":"FUKUOKA KEN","city":"MIYAMA SHI","town":"TAKATAMACHI EIJI","perfecture_jp":"福岡県","jp_add_1":"みやま市","jp_add_2":"高田町永治"},"8390213":{"post_code":"8390213","prefecture":"FUKUOKA KEN","city":"MIYAMA SHI","town":"TAKATAMACHI ENORA","perfecture_jp":"福岡県","jp_add_1":"みやま市","jp_add_2":"高田町江浦"},"8390212":{"post_code":"8390212","prefecture":"FUKUOKA KEN","city":"MIYAMA SHI","town":"TAKATAMACHI ENORAMACHI","perfecture_jp":"福岡県","jp_add_1":"みやま市","jp_add_2":"高田町江浦町"},"8390225":{"post_code":"8390225","prefecture":"FUKUOKA KEN","city":"MIYAMA SHI","town":"TAKATAMACHI KAMIKUSUDA","perfecture_jp":"福岡県","jp_add_1":"みやま市","jp_add_2":"高田町上楠田"},"8390204":{"post_code":"8390204","prefecture":"FUKUOKA KEN","city":"MIYAMA SHI","town":"TAKATAMACHI KITASHINGAI","perfecture_jp":"福岡県","jp_add_1":"みやま市","jp_add_2":"高田町北新開"},"8390203":{"post_code":"8390203","prefecture":"FUKUOKA KEN","city":"MIYAMA SHI","town":"TAKATAMACHI KUROSAKIBIRAKI","perfecture_jp":"福岡県","jp_add_1":"みやま市","jp_add_2":"高田町黒崎開"},"8390221":{"post_code":"8390221","prefecture":"FUKUOKA KEN","city":"MIYAMA SHI","town":"TAKATAMACHI SHIMOKUSUDA","perfecture_jp":"福岡県","jp_add_1":"みやま市","jp_add_2":"高田町下楠田"},"8390201":{"post_code":"8390201","prefecture":"FUKUOKA KEN","city":"MIYAMA SHI","town":"TAKATAMACHI SHOWABIRAKI","perfecture_jp":"福岡県","jp_add_1":"みやま市","jp_add_2":"高田町昭和開"},"8390224":{"post_code":"8390224","prefecture":"FUKUOKA KEN","city":"MIYAMA SHI","town":"TAKATAMACHI TAJIRI","perfecture_jp":"福岡県","jp_add_1":"みやま市","jp_add_2":"高田町田尻"},"8390211":{"post_code":"8390211","prefecture":"FUKUOKA KEN","city":"MIYAMA SHI","town":"TAKATAMACHI TOKUSHIMA","perfecture_jp":"福岡県","jp_add_1":"みやま市","jp_add_2":"高田町徳島"},"8390215":{"post_code":"8390215","prefecture":"FUKUOKA KEN","city":"MIYAMA SHI","town":"TAKATAMACHI NOSE","perfecture_jp":"福岡県","jp_add_1":"みやま市","jp_add_2":"高田町濃施"},"8390222":{"post_code":"8390222","prefecture":"FUKUOKA KEN","city":"MIYAMA SHI","town":"TAKATAMACHI HARU","perfecture_jp":"福岡県","jp_add_1":"みやま市","jp_add_2":"高田町原"},"8390205":{"post_code":"8390205","prefecture":"FUKUOKA KEN","city":"MIYAMA SHI","town":"TAKATAMACHI MINAMISHINGAI","perfecture_jp":"福岡県","jp_add_1":"みやま市","jp_add_2":"高田町南新開"},"8391421":{"post_code":"8391421","prefecture":"OITA KEN","city":"HITA SHI","town":"MAETSUEMACHI YUGI(1-800-BANCHI.CHIT","perfecture_jp":"大分県","jp_add_1":"日田市","jp_add_2":"前津江町柚木"}}