{"8400812":{"post_code":"8400812","prefecture":"SAGA KEN","city":"SAGA SHI","town":"AIKEICHO","perfecture_jp":"佐賀県","jp_add_1":"佐賀市","jp_add_2":"愛敬町"},"8400042":{"post_code":"8400042","prefecture":"SAGA KEN","city":"SAGA SHI","town":"AKAMATSUMACHI","perfecture_jp":"佐賀県","jp_add_1":"佐賀市","jp_add_2":"赤松町"},"8400053":{"post_code":"8400053","prefecture":"SAGA KEN","city":"SAGA SHI","town":"ASAHIMACHI","perfecture_jp":"佐賀県","jp_add_1":"佐賀市","jp_add_2":"朝日町"},"8400844":{"post_code":"8400844","prefecture":"SAGA KEN","city":"SAGA SHI","town":"ISEMACHI","perfecture_jp":"佐賀県","jp_add_1":"佐賀市","jp_add_2":"伊勢町"},"8400052":{"post_code":"8400052","prefecture":"SAGA KEN","city":"SAGA SHI","town":"IMASHUKUMACHI","perfecture_jp":"佐賀県","jp_add_1":"佐賀市","jp_add_2":"今宿町"},"8400801":{"post_code":"8400801","prefecture":"SAGA KEN","city":"SAGA SHI","town":"EKIMAECHUO","perfecture_jp":"佐賀県","jp_add_1":"佐賀市","jp_add_2":"駅前中央"},"8400816":{"post_code":"8400816","prefecture":"SAGA KEN","city":"SAGA SHI","town":"EKIMINAMIHOMMACHI","perfecture_jp":"佐賀県","jp_add_1":"佐賀市","jp_add_2":"駅南本町"},"8400811":{"post_code":"8400811","prefecture":"SAGA KEN","city":"SAGA SHI","town":"OTAKARA","perfecture_jp":"佐賀県","jp_add_1":"佐賀市","jp_add_2":"大財"},"8400802":{"post_code":"8400802","prefecture":"SAGA KEN","city":"SAGA SHI","town":"OTAKARAKITAMACHI","perfecture_jp":"佐賀県","jp_add_1":"佐賀市","jp_add_2":"大財北町"},"8400021":{"post_code":"8400021","prefecture":"SAGA KEN","city":"SAGA SHI","town":"ONIMARUCHO","perfecture_jp":"佐賀県","jp_add_1":"佐賀市","jp_add_2":"鬼丸町"},"8400862":{"post_code":"8400862","prefecture":"SAGA KEN","city":"SAGA SHI","town":"KASEMACHI OGIMACHI","perfecture_jp":"佐賀県","jp_add_1":"佐賀市","jp_add_2":"嘉瀬町扇町"},"8400864":{"post_code":"8400864","prefecture":"SAGA KEN","city":"SAGA SHI","town":"KASEMACHI OGINO","perfecture_jp":"佐賀県","jp_add_1":"佐賀市","jp_add_2":"嘉瀬町荻野"},"8400863":{"post_code":"8400863","prefecture":"SAGA KEN","city":"SAGA SHI","town":"KASEMACHI JUGO","perfecture_jp":"佐賀県","jp_add_1":"佐賀市","jp_add_2":"嘉瀬町十五"},"8400861":{"post_code":"8400861","prefecture":"SAGA KEN","city":"SAGA SHI","town":"KASEMACHI NAKABARU","perfecture_jp":"佐賀県","jp_add_1":"佐賀市","jp_add_2":"嘉瀬町中原"},"8400806":{"post_code":"8400806","prefecture":"SAGA KEN","city":"SAGA SHI","town":"KAMIZONO","perfecture_jp":"佐賀県","jp_add_1":"佐賀市","jp_add_2":"神園"},"8402212":{"post_code":"8402212","prefecture":"SAGA KEN","city":"SAGA SHI","town":"KAWASOEMACHI INUIDO","perfecture_jp":"佐賀県","jp_add_1":"佐賀市","jp_add_2":"川副町犬井道"},"8402211":{"post_code":"8402211","prefecture":"SAGA KEN","city":"SAGA SHI","town":"KAWASOEMACHI ODAKUMA","perfecture_jp":"佐賀県","jp_add_1":"佐賀市","jp_add_2":"川副町大詫間"},"8402213":{"post_code":"8402213","prefecture":"SAGA KEN","city":"SAGA SHI","town":"KAWASOEMACHI KANOE","perfecture_jp":"佐賀県","jp_add_1":"佐賀市","jp_add_2":"川副町鹿江"},"8402214":{"post_code":"8402214","prefecture":"SAGA KEN","city":"SAGA SHI","town":"KAWASOEMACHI KOGOMORI","perfecture_jp":"佐賀県","jp_add_1":"佐賀市","jp_add_2":"川副町小々森"},"8402205":{"post_code":"8402205","prefecture":"SAGA KEN","city":"SAGA SHI","town":"KAWASOEMACHI NANRI","perfecture_jp":"佐賀県","jp_add_1":"佐賀市","jp_add_2":"川副町南里"},"8402204":{"post_code":"8402204","prefecture":"SAGA KEN","city":"SAGA SHI","town":"KAWASOEMACHI NISHIKOGA","perfecture_jp":"佐賀県","jp_add_1":"佐賀市","jp_add_2":"川副町西古賀"},"8402203":{"post_code":"8402203","prefecture":"SAGA KEN","city":"SAGA SHI","town":"KAWASOEMACHI HAYATSUE","perfecture_jp":"佐賀県","jp_add_1":"佐賀市","jp_add_2":"川副町早津江"},"8402202":{"post_code":"8402202","prefecture":"SAGA KEN","city":"SAGA SHI","town":"KAWASOEMACHI HAYATSUETSU","perfecture_jp":"佐賀県","jp_add_1":"佐賀市","jp_add_2":"川副町早津江津"},"8402201":{"post_code":"8402201","prefecture":"SAGA KEN","city":"SAGA SHI","town":"KAWASOEMACHI FUKUDOMI","perfecture_jp":"佐賀県","jp_add_1":"佐賀市","jp_add_2":"川副町福富"},"8400843":{"post_code":"8400843","prefecture":"SAGA KEN","city":"SAGA SHI","town":"KAWAHARAMACHI","perfecture_jp":"佐賀県","jp_add_1":"佐賀市","jp_add_2":"川原町"},"8400011":{"post_code":"8400011","prefecture":"SAGA KEN","city":"SAGA SHI","town":"KITAKAWASOEMACHI EGAMI","perfecture_jp":"佐賀県","jp_add_1":"佐賀市","jp_add_2":"北川副町江上"},"8400013":{"post_code":"8400013","prefecture":"SAGA KEN","city":"SAGA SHI","town":"KITAKAWASOEMACHI SHINGO","perfecture_jp":"佐賀県","jp_add_1":"佐賀市","jp_add_2":"北川副町新郷"},"8400012":{"post_code":"8400012","prefecture":"SAGA KEN","city":"SAGA SHI","town":"KITAKAWASOEMACHI MITSUNORI","perfecture_jp":"佐賀県","jp_add_1":"佐賀市","jp_add_2":"北川副町光法"},"8400015":{"post_code":"8400015","prefecture":"SAGA KEN","city":"SAGA SHI","town":"KIHARA","perfecture_jp":"佐賀県","jp_add_1":"佐賀市","jp_add_2":"木原"},"8400804":{"post_code":"8400804","prefecture":"SAGA KEN","city":"SAGA SHI","town":"KONOHIGASHI","perfecture_jp":"佐賀県","jp_add_1":"佐賀市","jp_add_2":"神野東"},"8400805":{"post_code":"8400805","prefecture":"SAGA KEN","city":"SAGA SHI","town":"KONONISHI","perfecture_jp":"佐賀県","jp_add_1":"佐賀市","jp_add_2":"神野西"},"8400008":{"post_code":"8400008","prefecture":"SAGA KEN","city":"SAGA SHI","town":"KOSEMACHI USHIJIMA","perfecture_jp":"佐賀県","jp_add_1":"佐賀市","jp_add_2":"巨勢町牛島"},"8400007":{"post_code":"8400007","prefecture":"SAGA KEN","city":"SAGA SHI","town":"KOSEMACHI TAKAO","perfecture_jp":"佐賀県","jp_add_1":"佐賀市","jp_add_2":"巨勢町高尾"},"8400001":{"post_code":"8400001","prefecture":"SAGA KEN","city":"SAGA SHI","town":"KOSEMACHI SHURITA","perfecture_jp":"佐賀県","jp_add_1":"佐賀市","jp_add_2":"巨勢町修理田"},"8400006":{"post_code":"8400006","prefecture":"SAGA KEN","city":"SAGA SHI","town":"KOSEMACHI TOZAI","perfecture_jp":"佐賀県","jp_add_1":"佐賀市","jp_add_2":"巨勢町東西"},"8400824":{"post_code":"8400824","prefecture":"SAGA KEN","city":"SAGA SHI","town":"GOFUKUMOTOMACHI","perfecture_jp":"佐賀県","jp_add_1":"佐賀市","jp_add_2":"呉服元町"},"8400056":{"post_code":"8400056","prefecture":"SAGA KEN","city":"SAGA SHI","town":"KONYAMACHI","perfecture_jp":"佐賀県","jp_add_1":"佐賀市","jp_add_2":"紺屋町"},"8400055":{"post_code":"8400055","prefecture":"SAGA KEN","city":"SAGA SHI","town":"ZAIMOKU","perfecture_jp":"佐賀県","jp_add_1":"佐賀市","jp_add_2":"材木"},"8400803":{"post_code":"8400803","prefecture":"SAGA KEN","city":"SAGA SHI","town":"SAKAEMACHI","perfecture_jp":"佐賀県","jp_add_1":"佐賀市","jp_add_2":"栄町"},"8400044":{"post_code":"8400044","prefecture":"SAGA KEN","city":"SAGA SHI","town":"SAYANOMOTOMACHI","perfecture_jp":"佐賀県","jp_add_1":"佐賀市","jp_add_2":"道祖元町"},"8400031":{"post_code":"8400031","prefecture":"SAGA KEN","city":"SAGA SHI","town":"SHIMODAMACHI","perfecture_jp":"佐賀県","jp_add_1":"佐賀市","jp_add_2":"下田町"},"8400855":{"post_code":"8400855","prefecture":"SAGA KEN","city":"SAGA SHI","town":"SHOEIMACHI","perfecture_jp":"佐賀県","jp_add_1":"佐賀市","jp_add_2":"昭栄町"},"8400041":{"post_code":"8400041","prefecture":"SAGA KEN","city":"SAGA SHI","town":"JONAI","perfecture_jp":"佐賀県","jp_add_1":"佐賀市","jp_add_2":"城内"},"8400043":{"post_code":"8400043","prefecture":"SAGA KEN","city":"SAGA SHI","town":"SHIRAGEMACHI","perfecture_jp":"佐賀県","jp_add_1":"佐賀市","jp_add_2":"精町"},"8400826":{"post_code":"8400826","prefecture":"SAGA KEN","city":"SAGA SHI","town":"SHIRAYAMA","perfecture_jp":"佐賀県","jp_add_1":"佐賀市","jp_add_2":"白山"},"8400859":{"post_code":"8400859","prefecture":"SAGA KEN","city":"SAGA SHI","town":"SHINEINISHI","perfecture_jp":"佐賀県","jp_add_1":"佐賀市","jp_add_2":"新栄西"},"8400850":{"post_code":"8400850","prefecture":"SAGA KEN","city":"SAGA SHI","town":"SHINEIHIGASHI","perfecture_jp":"佐賀県","jp_add_1":"佐賀市","jp_add_2":"新栄東"},"8400017":{"post_code":"8400017","prefecture":"SAGA KEN","city":"SAGA SHI","town":"SHINGOHOMMACHI","perfecture_jp":"佐賀県","jp_add_1":"佐賀市","jp_add_2":"新郷本町"},"8400856":{"post_code":"8400856","prefecture":"SAGA KEN","city":"SAGA SHI","town":"SHINSEIMACHI","perfecture_jp":"佐賀県","jp_add_1":"佐賀市","jp_add_2":"新生町"},"8400032":{"post_code":"8400032","prefecture":"SAGA KEN","city":"SAGA SHI","town":"SUEHIRO","perfecture_jp":"佐賀県","jp_add_1":"佐賀市","jp_add_2":"末広"},"8400814":{"post_code":"8400814","prefecture":"SAGA KEN","city":"SAGA SHI","town":"SEISHOMACHI","perfecture_jp":"佐賀県","jp_add_1":"佐賀市","jp_add_2":"成章町"},"8400822":{"post_code":"8400822","prefecture":"SAGA KEN","city":"SAGA SHI","town":"TAKAGIMACHI","perfecture_jp":"佐賀県","jp_add_1":"佐賀市","jp_add_2":"高木町"},"8400051":{"post_code":"8400051","prefecture":"SAGA KEN","city":"SAGA SHI","town":"TASHIRO","perfecture_jp":"佐賀県","jp_add_1":"佐賀市","jp_add_2":"田代"},"8400842":{"post_code":"8400842","prefecture":"SAGA KEN","city":"SAGA SHI","town":"TAFUSE","perfecture_jp":"佐賀県","jp_add_1":"佐賀市","jp_add_2":"多布施"},"8400825":{"post_code":"8400825","prefecture":"SAGA KEN","city":"SAGA SHI","town":"CHUOHOMMACHI","perfecture_jp":"佐賀県","jp_add_1":"佐賀市","jp_add_2":"中央本町"},"8400815":{"post_code":"8400815","prefecture":"SAGA KEN","city":"SAGA SHI","town":"TENJIN","perfecture_jp":"佐賀県","jp_add_1":"佐賀市","jp_add_2":"天神"},"8400851":{"post_code":"8400851","prefecture":"SAGA KEN","city":"SAGA SHI","town":"TENYU","perfecture_jp":"佐賀県","jp_add_1":"佐賀市","jp_add_2":"天祐"},"8400858":{"post_code":"8400858","prefecture":"SAGA KEN","city":"SAGA SHI","town":"TENYUDANCHI","perfecture_jp":"佐賀県","jp_add_1":"佐賀市","jp_add_2":"天祐団地"},"8400813":{"post_code":"8400813","prefecture":"SAGA KEN","city":"SAGA SHI","town":"TOJIN","perfecture_jp":"佐賀県","jp_add_1":"佐賀市","jp_add_2":"唐人"},"8400852":{"post_code":"8400852","prefecture":"SAGA KEN","city":"SAGA SHI","town":"NAKAOREMACHI","perfecture_jp":"佐賀県","jp_add_1":"佐賀市","jp_add_2":"中折町"},"8400833":{"post_code":"8400833","prefecture":"SAGA KEN","city":"SAGA SHI","town":"NAKANOKOJI","perfecture_jp":"佐賀県","jp_add_1":"佐賀市","jp_add_2":"中の小路"},"8400022":{"post_code":"8400022","prefecture":"SAGA KEN","city":"SAGA SHI","town":"NAKANOTATEMACHI","perfecture_jp":"佐賀県","jp_add_1":"佐賀市","jp_add_2":"中の館町"},"8400853":{"post_code":"8400853","prefecture":"SAGA KEN","city":"SAGA SHI","town":"NAGASEMACHI","perfecture_jp":"佐賀県","jp_add_1":"佐賀市","jp_add_2":"長瀬町"},"8400857":{"post_code":"8400857","prefecture":"SAGA KEN","city":"SAGA SHI","town":"NABESHIMAMACHI YAE","perfecture_jp":"佐賀県","jp_add_1":"佐賀市","jp_add_2":"鍋島町八戸"},"8400046":{"post_code":"8400046","prefecture":"SAGA KEN","city":"SAGA SHI","town":"NISHIUOMACHI","perfecture_jp":"佐賀県","jp_add_1":"佐賀市","jp_add_2":"西魚町"},"8400045":{"post_code":"8400045","prefecture":"SAGA KEN","city":"SAGA SHI","town":"NISHITASHIRO","perfecture_jp":"佐賀県","jp_add_1":"佐賀市","jp_add_2":"西田代"},"8400035":{"post_code":"8400035","prefecture":"SAGA KEN","city":"SAGA SHI","town":"NISHIYOKAMACHI IMAZU","perfecture_jp":"佐賀県","jp_add_1":"佐賀市","jp_add_2":"西与賀町今津"},"8400037":{"post_code":"8400037","prefecture":"SAGA KEN","city":"SAGA SHI","town":"NISHIYOKAMACHI SOOTSU","perfecture_jp":"佐賀県","jp_add_1":"佐賀市","jp_add_2":"西与賀町相応津"},"8400034":{"post_code":"8400034","prefecture":"SAGA KEN","city":"SAGA SHI","town":"NISHIYOKAMACHI RINGE","perfecture_jp":"佐賀県","jp_add_1":"佐賀市","jp_add_2":"西与賀町厘外"},"8400036":{"post_code":"8400036","prefecture":"SAGA KEN","city":"SAGA SHI","town":"NISHIYOKAMACHI TAKATARO","perfecture_jp":"佐賀県","jp_add_1":"佐賀市","jp_add_2":"西与賀町高太郎"},"8400005":{"post_code":"8400005","prefecture":"SAGA KEN","city":"SAGA SHI","town":"HASUIKEMACHI HASUIKE","perfecture_jp":"佐賀県","jp_add_1":"佐賀市","jp_add_2":"蓮池町蓮池"},"8400003":{"post_code":"8400003","prefecture":"SAGA KEN","city":"SAGA SHI","town":"HASUIKEMACHI KOGA","perfecture_jp":"佐賀県","jp_add_1":"佐賀市","jp_add_2":"蓮池町古賀"},"8400004":{"post_code":"8400004","prefecture":"SAGA KEN","city":"SAGA SHI","town":"HASUIKEMACHI KOMATSU","perfecture_jp":"佐賀県","jp_add_1":"佐賀市","jp_add_2":"蓮池町小松"},"8400002":{"post_code":"8400002","prefecture":"SAGA KEN","city":"SAGA SHI","town":"HASUIKEMACHI MISHIMA","perfecture_jp":"佐賀県","jp_add_1":"佐賀市","jp_add_2":"蓮池町見島"},"8400834":{"post_code":"8400834","prefecture":"SAGA KEN","city":"SAGA SHI","town":"HACHIMANKOJI","perfecture_jp":"佐賀県","jp_add_1":"佐賀市","jp_add_2":"八幡小路"},"8400033":{"post_code":"8400033","prefecture":"SAGA KEN","city":"SAGA SHI","town":"HIKARI","perfecture_jp":"佐賀県","jp_add_1":"佐賀市","jp_add_2":"光"},"8400821":{"post_code":"8400821","prefecture":"SAGA KEN","city":"SAGA SHI","town":"HIGASHISAGAMACHI","perfecture_jp":"佐賀県","jp_add_1":"佐賀市","jp_add_2":"東佐賀町"},"8402223":{"post_code":"8402223","prefecture":"SAGA KEN","city":"SAGA SHI","town":"HIGASHIYOKACHO ISAGAI","perfecture_jp":"佐賀県","jp_add_1":"佐賀市","jp_add_2":"東与賀町飯盛"},"8402221":{"post_code":"8402221","prefecture":"SAGA KEN","city":"SAGA SHI","town":"HIGASHIYOKACHO SHIMOKOGA","perfecture_jp":"佐賀県","jp_add_1":"佐賀市","jp_add_2":"東与賀町下古賀"},"8402222":{"post_code":"8402222","prefecture":"SAGA KEN","city":"SAGA SHI","town":"HIGASHIYOKACHO TANAKA","perfecture_jp":"佐賀県","jp_add_1":"佐賀市","jp_add_2":"東与賀町田中"},"8400503":{"post_code":"8400503","prefecture":"SAGA KEN","city":"SAGA SHI","town":"FUJICHO ICHIKAWA","perfecture_jp":"佐賀県","jp_add_1":"佐賀市","jp_add_2":"富士町市川"},"8400514":{"post_code":"8400514","prefecture":"SAGA KEN","city":"SAGA SHI","town":"FUJICHO UCHINO","perfecture_jp":"佐賀県","jp_add_1":"佐賀市","jp_add_2":"富士町内野"},"8400516":{"post_code":"8400516","prefecture":"SAGA KEN","city":"SAGA SHI","town":"FUJICHO UMENO","perfecture_jp":"佐賀県","jp_add_1":"佐賀市","jp_add_2":"富士町梅野"},"8400533":{"post_code":"8400533","prefecture":"SAGA KEN","city":"SAGA SHI","town":"FUJICHO OKUSHI","perfecture_jp":"佐賀県","jp_add_1":"佐賀市","jp_add_2":"富士町大串"},"8400532":{"post_code":"8400532","prefecture":"SAGA KEN","city":"SAGA SHI","town":"FUJICHO ONO","perfecture_jp":"佐賀県","jp_add_1":"佐賀市","jp_add_2":"富士町大野"},"8400521":{"post_code":"8400521","prefecture":"SAGA KEN","city":"SAGA SHI","town":"FUJICHO OSOEGAWA","perfecture_jp":"佐賀県","jp_add_1":"佐賀市","jp_add_2":"富士町小副川"},"8400511":{"post_code":"8400511","prefecture":"SAGA KEN","city":"SAGA SHI","town":"FUJICHO KAMABARU","perfecture_jp":"佐賀県","jp_add_1":"佐賀市","jp_add_2":"富士町鎌原"},"8400545":{"post_code":"8400545","prefecture":"SAGA KEN","city":"SAGA SHI","town":"FUJICHO KAMIOSE","perfecture_jp":"佐賀県","jp_add_1":"佐賀市","jp_add_2":"富士町上合瀬"},"8400512":{"post_code":"8400512","prefecture":"SAGA KEN","city":"SAGA SHI","town":"FUJICHO KAMIKUMAKAWA","perfecture_jp":"佐賀県","jp_add_1":"佐賀市","jp_add_2":"富士町上熊川"},"8400536":{"post_code":"8400536","prefecture":"SAGA KEN","city":"SAGA SHI","town":"FUJICHO KAMIMUTSURO","perfecture_jp":"佐賀県","jp_add_1":"佐賀市","jp_add_2":"富士町上無津呂"},"8400531":{"post_code":"8400531","prefecture":"SAGA KEN","city":"SAGA SHI","town":"FUJICHO KURINAMI","perfecture_jp":"佐賀県","jp_add_1":"佐賀市","jp_add_2":"富士町栗並"},"8400543":{"post_code":"8400543","prefecture":"SAGA KEN","city":"SAGA SHI","town":"FUJICHO KOBA","perfecture_jp":"佐賀県","jp_add_1":"佐賀市","jp_add_2":"富士町古場"},"8400544":{"post_code":"8400544","prefecture":"SAGA KEN","city":"SAGA SHI","town":"FUJICHO SHIMOOSE","perfecture_jp":"佐賀県","jp_add_1":"佐賀市","jp_add_2":"富士町下合瀬"},"8400513":{"post_code":"8400513","prefecture":"SAGA KEN","city":"SAGA SHI","town":"FUJICHO SHIMOKUMAKAWA","perfecture_jp":"佐賀県","jp_add_1":"佐賀市","jp_add_2":"富士町下熊川"},"8400535":{"post_code":"8400535","prefecture":"SAGA KEN","city":"SAGA SHI","town":"FUJICHO SHIMOMUTSURO","perfecture_jp":"佐賀県","jp_add_1":"佐賀市","jp_add_2":"富士町下無津呂"},"8400502":{"post_code":"8400502","prefecture":"SAGA KEN","city":"SAGA SHI","town":"FUJICHO SUGIYAMA","perfecture_jp":"佐賀県","jp_add_1":"佐賀市","jp_add_2":"富士町杉山"},"8400541":{"post_code":"8400541","prefecture":"SAGA KEN","city":"SAGA SHI","town":"FUJICHO SEKIYA","perfecture_jp":"佐賀県","jp_add_1":"佐賀市","jp_add_2":"富士町関屋"},"8400504":{"post_code":"8400504","prefecture":"SAGA KEN","city":"SAGA SHI","town":"FUJICHO CHANOKI","perfecture_jp":"佐賀県","jp_add_1":"佐賀市","jp_add_2":"富士町苣木"},"8400534":{"post_code":"8400534","prefecture":"SAGA KEN","city":"SAGA SHI","town":"FUJICHO NAKABARU","perfecture_jp":"佐賀県","jp_add_1":"佐賀市","jp_add_2":"富士町中原"},"8400522":{"post_code":"8400522","prefecture":"SAGA KEN","city":"SAGA SHI","town":"FUJICHO HATASE","perfecture_jp":"佐賀県","jp_add_1":"佐賀市","jp_add_2":"富士町畑瀬"},"8400542":{"post_code":"8400542","prefecture":"SAGA KEN","city":"SAGA SHI","town":"FUJICHO FUJISE","perfecture_jp":"佐賀県","jp_add_1":"佐賀市","jp_add_2":"富士町藤瀬"},"8400501":{"post_code":"8400501","prefecture":"SAGA KEN","city":"SAGA SHI","town":"FUJICHO FURUYU","perfecture_jp":"佐賀県","jp_add_1":"佐賀市","jp_add_2":"富士町古湯"},"8400515":{"post_code":"8400515","prefecture":"SAGA KEN","city":"SAGA SHI","town":"FUJICHO MATSUSE","perfecture_jp":"佐賀県","jp_add_1":"佐賀市","jp_add_2":"富士町松瀬"},"8400537":{"post_code":"8400537","prefecture":"SAGA KEN","city":"SAGA SHI","town":"FUJICHO MANAGO","perfecture_jp":"佐賀県","jp_add_1":"佐賀市","jp_add_2":"富士町麻那古"},"8400832":{"post_code":"8400832","prefecture":"SAGA KEN","city":"SAGA SHI","town":"HORIKAWACHO","perfecture_jp":"佐賀県","jp_add_1":"佐賀市","jp_add_2":"堀川町"},"8400025":{"post_code":"8400025","prefecture":"SAGA KEN","city":"SAGA SHI","town":"HONJOMACHI KANOKO","perfecture_jp":"佐賀県","jp_add_1":"佐賀市","jp_add_2":"本庄町鹿子"},"8400027":{"post_code":"8400027","prefecture":"SAGA KEN","city":"SAGA SHI","town":"HONJOMACHI HONJO","perfecture_jp":"佐賀県","jp_add_1":"佐賀市","jp_add_2":"本庄町本庄"},"8400026":{"post_code":"8400026","prefecture":"SAGA KEN","city":"SAGA SHI","town":"HONJOMACHI SHORI","perfecture_jp":"佐賀県","jp_add_1":"佐賀市","jp_add_2":"本庄町正里"},"8400024":{"post_code":"8400024","prefecture":"SAGA KEN","city":"SAGA SHI","town":"HONJOMACHI SUETSUGU","perfecture_jp":"佐賀県","jp_add_1":"佐賀市","jp_add_2":"本庄町末次"},"8400023":{"post_code":"8400023","prefecture":"SAGA KEN","city":"SAGA SHI","town":"HONJOMACHI FUKURO","perfecture_jp":"佐賀県","jp_add_1":"佐賀市","jp_add_2":"本庄町袋"},"8400831":{"post_code":"8400831","prefecture":"SAGA KEN","city":"SAGA SHI","town":"MATSUBARA","perfecture_jp":"佐賀県","jp_add_1":"佐賀市","jp_add_2":"松原"},"8400054":{"post_code":"8400054","prefecture":"SAGA KEN","city":"SAGA SHI","town":"MIZUGAE","perfecture_jp":"佐賀県","jp_add_1":"佐賀市","jp_add_2":"水ケ江"},"8400841":{"post_code":"8400841","prefecture":"SAGA KEN","city":"SAGA SHI","town":"MIDORIKOJI","perfecture_jp":"佐賀県","jp_add_1":"佐賀市","jp_add_2":"緑小路"},"8400016":{"post_code":"8400016","prefecture":"SAGA KEN","city":"SAGA SHI","town":"MINAMISAGA","perfecture_jp":"佐賀県","jp_add_1":"佐賀市","jp_add_2":"南佐賀"},"8402101":{"post_code":"8402101","prefecture":"SAGA KEN","city":"SAGA SHI","town":"MORODOMICHO ODO","perfecture_jp":"佐賀県","jp_add_1":"佐賀市","jp_add_2":"諸富町大堂"},"8402102":{"post_code":"8402102","prefecture":"SAGA KEN","city":"SAGA SHI","town":"MORODOMICHO TAMESHIGE","perfecture_jp":"佐賀県","jp_add_1":"佐賀市","jp_add_2":"諸富町為重"},"8402103":{"post_code":"8402103","prefecture":"SAGA KEN","city":"SAGA SHI","town":"MORODOMICHO TERAITSU","perfecture_jp":"佐賀県","jp_add_1":"佐賀市","jp_add_2":"諸富町寺井津"},"8402104":{"post_code":"8402104","prefecture":"SAGA KEN","city":"SAGA SHI","town":"MORODOMICHO TOKUDOMI","perfecture_jp":"佐賀県","jp_add_1":"佐賀市","jp_add_2":"諸富町徳富"},"8402105":{"post_code":"8402105","prefecture":"SAGA KEN","city":"SAGA SHI","town":"MORODOMICHO MORODOMITSU","perfecture_jp":"佐賀県","jp_add_1":"佐賀市","jp_add_2":"諸富町諸富津"},"8402106":{"post_code":"8402106","prefecture":"SAGA KEN","city":"SAGA SHI","town":"MORODOMICHO YAMARYO","perfecture_jp":"佐賀県","jp_add_1":"佐賀市","jp_add_2":"諸富町山領"},"8400854":{"post_code":"8400854","prefecture":"SAGA KEN","city":"SAGA SHI","town":"YAE","perfecture_jp":"佐賀県","jp_add_1":"佐賀市","jp_add_2":"八戸"},"8400823":{"post_code":"8400823","prefecture":"SAGA KEN","city":"SAGA SHI","town":"YANAGIMACHI","perfecture_jp":"佐賀県","jp_add_1":"佐賀市","jp_add_2":"柳町"},"8400212":{"post_code":"8400212","prefecture":"SAGA KEN","city":"SAGA SHI","town":"YAMATOCHO IKENOE","perfecture_jp":"佐賀県","jp_add_1":"佐賀市","jp_add_2":"大和町池上"},"8400203":{"post_code":"8400203","prefecture":"SAGA KEN","city":"SAGA SHI","town":"YAMATOCHO UMENO","perfecture_jp":"佐賀県","jp_add_1":"佐賀市","jp_add_2":"大和町梅野"},"8400214":{"post_code":"8400214","prefecture":"SAGA KEN","city":"SAGA SHI","town":"YAMATOCHO KAWAKAMI","perfecture_jp":"佐賀県","jp_add_1":"佐賀市","jp_add_2":"大和町川上"},"8400202":{"post_code":"8400202","prefecture":"SAGA KEN","city":"SAGA SHI","town":"YAMATOCHO KUCHII","perfecture_jp":"佐賀県","jp_add_1":"佐賀市","jp_add_2":"大和町久池井"},"8400213":{"post_code":"8400213","prefecture":"SAGA KEN","city":"SAGA SHI","town":"YAMATOCHO KURUMA","perfecture_jp":"佐賀県","jp_add_1":"佐賀市","jp_add_2":"大和町久留間"},"8400205":{"post_code":"8400205","prefecture":"SAGA KEN","city":"SAGA SHI","town":"YAMATOCHO NAO","perfecture_jp":"佐賀県","jp_add_1":"佐賀市","jp_add_2":"大和町名尾"},"8400201":{"post_code":"8400201","prefecture":"SAGA KEN","city":"SAGA SHI","town":"YAMATOCHO NIIJI","perfecture_jp":"佐賀県","jp_add_1":"佐賀市","jp_add_2":"大和町尼寺"},"8400215":{"post_code":"8400215","prefecture":"SAGA KEN","city":"SAGA SHI","town":"YAMATOCHO HATTABARU","perfecture_jp":"佐賀県","jp_add_1":"佐賀市","jp_add_2":"大和町八反原"},"8400211":{"post_code":"8400211","prefecture":"SAGA KEN","city":"SAGA SHI","town":"YAMATOCHO HIGASHIYAMADA","perfecture_jp":"佐賀県","jp_add_1":"佐賀市","jp_add_2":"大和町東山田"},"8400204":{"post_code":"8400204","prefecture":"SAGA KEN","city":"SAGA SHI","town":"YAMATOCHO MATSUSE","perfecture_jp":"佐賀県","jp_add_1":"佐賀市","jp_add_2":"大和町松瀬"},"8400047":{"post_code":"8400047","prefecture":"SAGA KEN","city":"SAGA SHI","town":"YOKAMACHI","perfecture_jp":"佐賀県","jp_add_1":"佐賀市","jp_add_2":"与賀町"},"8400845":{"post_code":"8400845","prefecture":"SAGA KEN","city":"SAGA SHI","town":"ROKUZAMACHI","perfecture_jp":"佐賀県","jp_add_1":"佐賀市","jp_add_2":"六座町"},"8401106":{"post_code":"8401106","prefecture":"SAGA KEN","city":"MIYAKI GUN MIYAKI CHO","town":"ICHITAKE","perfecture_jp":"佐賀県","jp_add_1":"三養基郡みやき町","jp_add_2":"市武"},"8401103":{"post_code":"8401103","prefecture":"SAGA KEN","city":"MIYAKI GUN MIYAKI CHO","town":"SAKAGUCHI","perfecture_jp":"佐賀県","jp_add_1":"三養基郡みやき町","jp_add_2":"坂口"},"8401102":{"post_code":"8401102","prefecture":"SAGA KEN","city":"MIYAKI GUN MIYAKI CHO","town":"TENKENJI","perfecture_jp":"佐賀県","jp_add_1":"三養基郡みやき町","jp_add_2":"天建寺"},"8401101":{"post_code":"8401101","prefecture":"SAGA KEN","city":"MIYAKI GUN MIYAKI CHO","town":"NISHIJIMA","perfecture_jp":"佐賀県","jp_add_1":"三養基郡みやき町","jp_add_2":"西島"},"8401104":{"post_code":"8401104","prefecture":"SAGA KEN","city":"MIYAKI GUN MIYAKI CHO","town":"HIGASHITSU","perfecture_jp":"佐賀県","jp_add_1":"三養基郡みやき町","jp_add_2":"東津"},"8401105":{"post_code":"8401105","prefecture":"SAGA KEN","city":"MIYAKI GUN MIYAKI CHO","town":"YORIUTO","perfecture_jp":"佐賀県","jp_add_1":"三養基郡みやき町","jp_add_2":"寄人"}}