{"8410000":{"post_code":"8410000","prefecture":"SAGA KEN","city":"TOSU SHI","town":"IKANIKEISAIGANAIBAAI","perfecture_jp":"佐賀県","jp_add_1":"鳥栖市","jp_add_2":""},"8410036":{"post_code":"8410036","prefecture":"SAGA KEN","city":"TOSU SHI","town":"AKIBAMACHI","perfecture_jp":"佐賀県","jp_add_1":"鳥栖市","jp_add_2":"秋葉町"},"8410082":{"post_code":"8410082","prefecture":"SAGA KEN","city":"TOSU SHI","town":"ASAIMACHI","perfecture_jp":"佐賀県","jp_add_1":"鳥栖市","jp_add_2":"浅井町"},"8410068":{"post_code":"8410068","prefecture":"SAGA KEN","city":"TOSU SHI","town":"ASAHISHIMMACHI","perfecture_jp":"佐賀県","jp_add_1":"鳥栖市","jp_add_2":"あさひ新町"},"8410045":{"post_code":"8410045","prefecture":"SAGA KEN","city":"TOSU SHI","town":"ANRAKUJIMACHI","perfecture_jp":"佐賀県","jp_add_1":"鳥栖市","jp_add_2":"安楽寺町"},"8410022":{"post_code":"8410022","prefecture":"SAGA KEN","city":"TOSU SHI","town":"IIDAMACHI","perfecture_jp":"佐賀県","jp_add_1":"鳥栖市","jp_add_2":"飯田町"},"8410047":{"post_code":"8410047","prefecture":"SAGA KEN","city":"TOSU SHI","town":"IMAIZUMIMACHI","perfecture_jp":"佐賀県","jp_add_1":"鳥栖市","jp_add_2":"今泉町"},"8410001":{"post_code":"8410001","prefecture":"SAGA KEN","city":"TOSU SHI","town":"IMAMACHI","perfecture_jp":"佐賀県","jp_add_1":"鳥栖市","jp_add_2":"今町"},"8410086":{"post_code":"8410086","prefecture":"SAGA KEN","city":"TOSU SHI","town":"USHIWARAMACHI","perfecture_jp":"佐賀県","jp_add_1":"鳥栖市","jp_add_2":"牛原町"},"8410073":{"post_code":"8410073","prefecture":"SAGA KEN","city":"TOSU SHI","town":"EJIMAMACHI","perfecture_jp":"佐賀県","jp_add_1":"鳥栖市","jp_add_2":"江島町"},"8410003":{"post_code":"8410003","prefecture":"SAGA KEN","city":"TOSU SHI","town":"KATODAMACHI","perfecture_jp":"佐賀県","jp_add_1":"鳥栖市","jp_add_2":"加藤田町"},"8410081":{"post_code":"8410081","prefecture":"SAGA KEN","city":"TOSU SHI","town":"KAYAKATAMACHI","perfecture_jp":"佐賀県","jp_add_1":"鳥栖市","jp_add_2":"萱方町"},"8410087":{"post_code":"8410087","prefecture":"SAGA KEN","city":"TOSU SHI","town":"KAWACHIMACHI","perfecture_jp":"佐賀県","jp_add_1":"鳥栖市","jp_add_2":"河内町"},"8410066":{"post_code":"8410066","prefecture":"SAGA KEN","city":"TOSU SHI","town":"GITOKUMACHI","perfecture_jp":"佐賀県","jp_add_1":"鳥栖市","jp_add_2":"儀徳町"},"8410034":{"post_code":"8410034","prefecture":"SAGA KEN","city":"TOSU SHI","town":"KYOMACHI","perfecture_jp":"佐賀県","jp_add_1":"鳥栖市","jp_add_2":"京町"},"8410056":{"post_code":"8410056","prefecture":"SAGA KEN","city":"TOSU SHI","town":"KURANOE","perfecture_jp":"佐賀県","jp_add_1":"鳥栖市","jp_add_2":"蔵上"},"8410054":{"post_code":"8410054","prefecture":"SAGA KEN","city":"TOSU SHI","town":"KURANOEMACHI","perfecture_jp":"佐賀県","jp_add_1":"鳥栖市","jp_add_2":"蔵上町"},"8410004":{"post_code":"8410004","prefecture":"SAGA KEN","city":"TOSU SHI","town":"KONOEMACHI","perfecture_jp":"佐賀県","jp_add_1":"鳥栖市","jp_add_2":"神辺町"},"8410083":{"post_code":"8410083","prefecture":"SAGA KEN","city":"TOSU SHI","town":"KOGAMACHI","perfecture_jp":"佐賀県","jp_add_1":"鳥栖市","jp_add_2":"古賀町"},"8410062":{"post_code":"8410062","prefecture":"SAGA KEN","city":"TOSU SHI","town":"SAITSUMACHI","perfecture_jp":"佐賀県","jp_add_1":"鳥栖市","jp_add_2":"幸津町"},"8410041":{"post_code":"8410041","prefecture":"SAGA KEN","city":"TOSU SHI","town":"SAKAI HIGASHIMACHI","perfecture_jp":"佐賀県","jp_add_1":"鳥栖市","jp_add_2":"酒井東町"},"8410042":{"post_code":"8410042","prefecture":"SAGA KEN","city":"TOSU SHI","town":"SAKAI NISHIMACHI","perfecture_jp":"佐賀県","jp_add_1":"鳥栖市","jp_add_2":"酒井西町"},"8410088":{"post_code":"8410088","prefecture":"SAGA KEN","city":"TOSU SHI","town":"SAKURAGAOKAMACHI","perfecture_jp":"佐賀県","jp_add_1":"鳥栖市","jp_add_2":"桜ケ丘町"},"8410014":{"post_code":"8410014","prefecture":"SAGA KEN","city":"TOSU SHI","town":"SAKURAMACHI","perfecture_jp":"佐賀県","jp_add_1":"鳥栖市","jp_add_2":"桜町"},"8410063":{"post_code":"8410063","prefecture":"SAGA KEN","city":"TOSU SHI","town":"SHIMONOMACHI","perfecture_jp":"佐賀県","jp_add_1":"鳥栖市","jp_add_2":"下野町"},"8410052":{"post_code":"8410052","prefecture":"SAGA KEN","city":"TOSU SHI","town":"SHUKUMACHI","perfecture_jp":"佐賀県","jp_add_1":"鳥栖市","jp_add_2":"宿町"},"8410025":{"post_code":"8410025","prefecture":"SAGA KEN","city":"TOSU SHI","town":"SONEZAKIMACHI","perfecture_jp":"佐賀県","jp_add_1":"鳥栖市","jp_add_2":"曽根崎町"},"8410032":{"post_code":"8410032","prefecture":"SAGA KEN","city":"TOSU SHI","town":"TAISHOMACHI","perfecture_jp":"佐賀県","jp_add_1":"鳥栖市","jp_add_2":"大正町"},"8410044":{"post_code":"8410044","prefecture":"SAGA KEN","city":"TOSU SHI","town":"TAKATAMACHI","perfecture_jp":"佐賀県","jp_add_1":"鳥栖市","jp_add_2":"高田町"},"8410015":{"post_code":"8410015","prefecture":"SAGA KEN","city":"TOSU SHI","town":"TASHIRO KAMMACHI","perfecture_jp":"佐賀県","jp_add_1":"鳥栖市","jp_add_2":"田代上町"},"8410012":{"post_code":"8410012","prefecture":"SAGA KEN","city":"TOSU SHI","town":"TASHIRO SHOMACHI","perfecture_jp":"佐賀県","jp_add_1":"鳥栖市","jp_add_2":"田代昌町"},"8410013":{"post_code":"8410013","prefecture":"SAGA KEN","city":"TOSU SHI","town":"TASHIRO SHIMMACHI","perfecture_jp":"佐賀県","jp_add_1":"鳥栖市","jp_add_2":"田代新町"},"8410017":{"post_code":"8410017","prefecture":"SAGA KEN","city":"TOSU SHI","town":"TASHIRO DAIKAMMACHI","perfecture_jp":"佐賀県","jp_add_1":"鳥栖市","jp_add_2":"田代大官町"},"8410016":{"post_code":"8410016","prefecture":"SAGA KEN","city":"TOSU SHI","town":"TASHIRO HOKAMACHI","perfecture_jp":"佐賀県","jp_add_1":"鳥栖市","jp_add_2":"田代外町"},"8410018":{"post_code":"8410018","prefecture":"SAGA KEN","city":"TOSU SHI","town":"TASHIRO HOMMACHI","perfecture_jp":"佐賀県","jp_add_1":"鳥栖市","jp_add_2":"田代本町"},"8410075":{"post_code":"8410075","prefecture":"SAGA KEN","city":"TOSU SHI","town":"TATEISHIMACHI","perfecture_jp":"佐賀県","jp_add_1":"鳥栖市","jp_add_2":"立石町"},"8410039":{"post_code":"8410039","prefecture":"SAGA KEN","city":"TOSU SHI","town":"DOIMACHI","perfecture_jp":"佐賀県","jp_add_1":"鳥栖市","jp_add_2":"土井町"},"8410061":{"post_code":"8410061","prefecture":"SAGA KEN","city":"TOSU SHI","town":"TODOROKIMACHI","perfecture_jp":"佐賀県","jp_add_1":"鳥栖市","jp_add_2":"轟木町"},"8410011":{"post_code":"8410011","prefecture":"SAGA KEN","city":"TOSU SHI","town":"NAGAYOSHIMACHI","perfecture_jp":"佐賀県","jp_add_1":"鳥栖市","jp_add_2":"永吉町"},"8410074":{"post_code":"8410074","prefecture":"SAGA KEN","city":"TOSU SHI","town":"NISHISHIMMACHI","perfecture_jp":"佐賀県","jp_add_1":"鳥栖市","jp_add_2":"西新町"},"8410067":{"post_code":"8410067","prefecture":"SAGA KEN","city":"TOSU SHI","town":"NISHIDAMACHI","perfecture_jp":"佐賀県","jp_add_1":"鳥栖市","jp_add_2":"西田町"},"8410089":{"post_code":"8410089","prefecture":"SAGA KEN","city":"TOSU SHI","town":"NIJIGAOKAMACHI","perfecture_jp":"佐賀県","jp_add_1":"鳥栖市","jp_add_2":"虹ケ丘町"},"8410021":{"post_code":"8410021","prefecture":"SAGA KEN","city":"TOSU SHI","town":"HATAZAKIMACHI","perfecture_jp":"佐賀県","jp_add_1":"鳥栖市","jp_add_2":"幡崎町"},"8410071":{"post_code":"8410071","prefecture":"SAGA KEN","city":"TOSU SHI","town":"HARAKOGAMACHI","perfecture_jp":"佐賀県","jp_add_1":"鳥栖市","jp_add_2":"原古賀町"},"8410024":{"post_code":"8410024","prefecture":"SAGA KEN","city":"TOSU SHI","town":"HARUMACHI","perfecture_jp":"佐賀県","jp_add_1":"鳥栖市","jp_add_2":"原町"},"8410035":{"post_code":"8410035","prefecture":"SAGA KEN","city":"TOSU SHI","town":"HIGASHIMACHI","perfecture_jp":"佐賀県","jp_add_1":"鳥栖市","jp_add_2":"東町"},"8410023":{"post_code":"8410023","prefecture":"SAGA KEN","city":"TOSU SHI","town":"HIMEKATAMACHI","perfecture_jp":"佐賀県","jp_add_1":"鳥栖市","jp_add_2":"姫方町"},"8410076":{"post_code":"8410076","prefecture":"SAGA KEN","city":"TOSU SHI","town":"HIRATAMACHI","perfecture_jp":"佐賀県","jp_add_1":"鳥栖市","jp_add_2":"平田町"},"8410048":{"post_code":"8410048","prefecture":"SAGA KEN","city":"TOSU SHI","town":"FUJINOKIMACHI","perfecture_jp":"佐賀県","jp_add_1":"鳥栖市","jp_add_2":"藤木町"},"8410053":{"post_code":"8410053","prefecture":"SAGA KEN","city":"TOSU SHI","town":"FUTSUHARAMACHI","perfecture_jp":"佐賀県","jp_add_1":"鳥栖市","jp_add_2":"布津原町"},"8410038":{"post_code":"8410038","prefecture":"SAGA KEN","city":"TOSU SHI","town":"FURUNOMACHI","perfecture_jp":"佐賀県","jp_add_1":"鳥栖市","jp_add_2":"古野町"},"8410033":{"post_code":"8410033","prefecture":"SAGA KEN","city":"TOSU SHI","town":"HONDORIMACHI","perfecture_jp":"佐賀県","jp_add_1":"鳥栖市","jp_add_2":"本通町"},"8410026":{"post_code":"8410026","prefecture":"SAGA KEN","city":"TOSU SHI","town":"HONDOSUMACHI","perfecture_jp":"佐賀県","jp_add_1":"鳥栖市","jp_add_2":"本鳥栖町"},"8410037":{"post_code":"8410037","prefecture":"SAGA KEN","city":"TOSU SHI","town":"HOMMACHI","perfecture_jp":"佐賀県","jp_add_1":"鳥栖市","jp_add_2":"本町"},"8410065":{"post_code":"8410065","prefecture":"SAGA KEN","city":"TOSU SHI","town":"MAEDAMACHI","perfecture_jp":"佐賀県","jp_add_1":"鳥栖市","jp_add_2":"前田町"},"8410046":{"post_code":"8410046","prefecture":"SAGA KEN","city":"TOSU SHI","town":"MAKIMACHI","perfecture_jp":"佐賀県","jp_add_1":"鳥栖市","jp_add_2":"真木町"},"8410027":{"post_code":"8410027","prefecture":"SAGA KEN","city":"TOSU SHI","town":"MATSUBARAMACHI","perfecture_jp":"佐賀県","jp_add_1":"鳥栖市","jp_add_2":"松原町"},"8410064":{"post_code":"8410064","prefecture":"SAGA KEN","city":"TOSU SHI","town":"MISHIMAMACHI","perfecture_jp":"佐賀県","jp_add_1":"鳥栖市","jp_add_2":"三島町"},"8410043":{"post_code":"8410043","prefecture":"SAGA KEN","city":"TOSU SHI","town":"MIZUYAMACHI","perfecture_jp":"佐賀県","jp_add_1":"鳥栖市","jp_add_2":"水屋町"},"8410072":{"post_code":"8410072","prefecture":"SAGA KEN","city":"TOSU SHI","town":"MURATAMACHI","perfecture_jp":"佐賀県","jp_add_1":"鳥栖市","jp_add_2":"村田町"},"8410051":{"post_code":"8410051","prefecture":"SAGA KEN","city":"TOSU SHI","town":"MOTOMACHI","perfecture_jp":"佐賀県","jp_add_1":"鳥栖市","jp_add_2":"元町"},"8410055":{"post_code":"8410055","prefecture":"SAGA KEN","city":"TOSU SHI","town":"YABUMACHI","perfecture_jp":"佐賀県","jp_add_1":"鳥栖市","jp_add_2":"養父町"},"8410084":{"post_code":"8410084","prefecture":"SAGA KEN","city":"TOSU SHI","town":"YAMAURAMACHI","perfecture_jp":"佐賀県","jp_add_1":"鳥栖市","jp_add_2":"山浦町"},"8410085":{"post_code":"8410085","prefecture":"SAGA KEN","city":"TOSU SHI","town":"YAMATOMACHI","perfecture_jp":"佐賀県","jp_add_1":"鳥栖市","jp_add_2":"山都町"},"8410005":{"post_code":"8410005","prefecture":"SAGA KEN","city":"TOSU SHI","town":"YAYOIGAOKA","perfecture_jp":"佐賀県","jp_add_1":"鳥栖市","jp_add_2":"弥生が丘"},"8410031":{"post_code":"8410031","prefecture":"SAGA KEN","city":"TOSU SHI","town":"YARITAMACHI","perfecture_jp":"佐賀県","jp_add_1":"鳥栖市","jp_add_2":"鎗田町"},"8410002":{"post_code":"8410002","prefecture":"SAGA KEN","city":"TOSU SHI","town":"YUBIMACHI","perfecture_jp":"佐賀県","jp_add_1":"鳥栖市","jp_add_2":"柚比町"},"8410200":{"post_code":"8410200","prefecture":"SAGA KEN","city":"MIYAKI GUN KIYAMA CHO","town":"IKANIKEISAIGANAIBAAI","perfecture_jp":"佐賀県","jp_add_1":"三養基郡基山町","jp_add_2":""},"8410205":{"post_code":"8410205","prefecture":"SAGA KEN","city":"MIYAKI GUN KIYAMA CHO","town":"KEYAKIDAI","perfecture_jp":"佐賀県","jp_add_1":"三養基郡基山町","jp_add_2":"けやき台"},"8410201":{"post_code":"8410201","prefecture":"SAGA KEN","city":"MIYAKI GUN KIYAMA CHO","town":"KOKURA","perfecture_jp":"佐賀県","jp_add_1":"三養基郡基山町","jp_add_2":"小倉"},"8410203":{"post_code":"8410203","prefecture":"SAGA KEN","city":"MIYAKI GUN KIYAMA CHO","town":"SONOBE","perfecture_jp":"佐賀県","jp_add_1":"三養基郡基山町","jp_add_2":"園部"},"8410202":{"post_code":"8410202","prefecture":"SAGA KEN","city":"MIYAKI GUN KIYAMA CHO","town":"NAGANO","perfecture_jp":"佐賀県","jp_add_1":"三養基郡基山町","jp_add_2":"長野"},"8410204":{"post_code":"8410204","prefecture":"SAGA KEN","city":"MIYAKI GUN KIYAMA CHO","town":"MIYAURA","perfecture_jp":"佐賀県","jp_add_1":"三養基郡基山町","jp_add_2":"宮浦"}}