{"8430000":{"post_code":"8430000","prefecture":"SAGA KEN","city":"TAKEO SHI","town":"IKANIKEISAIGANAIBAAI","perfecture_jp":"佐賀県","jp_add_1":"武雄市","jp_add_2":""},"8430003":{"post_code":"8430003","prefecture":"SAGA KEN","city":"TAKEO SHI","town":"ASAHICHO ASHIHARA","perfecture_jp":"佐賀県","jp_add_1":"武雄市","jp_add_2":"朝日町芦原"},"8430001":{"post_code":"8430001","prefecture":"SAGA KEN","city":"TAKEO SHI","town":"ASAHICHO AMAGU","perfecture_jp":"佐賀県","jp_add_1":"武雄市","jp_add_2":"朝日町甘久"},"8430002":{"post_code":"8430002","prefecture":"SAGA KEN","city":"TAKEO SHI","town":"ASAHICHO NAKANO","perfecture_jp":"佐賀県","jp_add_1":"武雄市","jp_add_2":"朝日町中野"},"8430023":{"post_code":"8430023","prefecture":"SAGA KEN","city":"TAKEO SHI","town":"TAKEOCHO SHOWA","perfecture_jp":"佐賀県","jp_add_1":"武雄市","jp_add_2":"武雄町昭和"},"8430022":{"post_code":"8430022","prefecture":"SAGA KEN","city":"TAKEO SHI","town":"TAKEOCHO TAKEO","perfecture_jp":"佐賀県","jp_add_1":"武雄市","jp_add_2":"武雄町武雄"},"8430024":{"post_code":"8430024","prefecture":"SAGA KEN","city":"TAKEO SHI","town":"TAKEOCHO TOMIOKA","perfecture_jp":"佐賀県","jp_add_1":"武雄市","jp_add_2":"武雄町富岡"},"8430021":{"post_code":"8430021","prefecture":"SAGA KEN","city":"TAKEO SHI","town":"TAKEOCHO NAGASHIMA","perfecture_jp":"佐賀県","jp_add_1":"武雄市","jp_add_2":"武雄町永島"},"8430011":{"post_code":"8430011","prefecture":"SAGA KEN","city":"TAKEO SHI","town":"TACHIBANACHO ASHIHARA","perfecture_jp":"佐賀県","jp_add_1":"武雄市","jp_add_2":"橘町芦原"},"8430012":{"post_code":"8430012","prefecture":"SAGA KEN","city":"TAKEO SHI","town":"TACHIBANACHO KATAJIRO","perfecture_jp":"佐賀県","jp_add_1":"武雄市","jp_add_2":"橘町片白"},"8430013":{"post_code":"8430013","prefecture":"SAGA KEN","city":"TAKEO SHI","town":"TACHIBANACHO DAINICHI","perfecture_jp":"佐賀県","jp_add_1":"武雄市","jp_add_2":"橘町大日"},"8430014":{"post_code":"8430014","prefecture":"SAGA KEN","city":"TAKEO SHI","town":"TACHIBANACHO NAGASHIMA","perfecture_jp":"佐賀県","jp_add_1":"武雄市","jp_add_2":"橘町永島"},"8430231":{"post_code":"8430231","prefecture":"SAGA KEN","city":"TAKEO SHI","town":"NISHIKAWANOBORICHO KOTAJI","perfecture_jp":"佐賀県","jp_add_1":"武雄市","jp_add_2":"西川登町小田志"},"8430232":{"post_code":"8430232","prefecture":"SAGA KEN","city":"TAKEO SHI","town":"NISHIKAWANOBORICHO JINROKU","perfecture_jp":"佐賀県","jp_add_1":"武雄市","jp_add_2":"西川登町神六"},"8430233":{"post_code":"8430233","prefecture":"SAGA KEN","city":"TAKEO SHI","town":"HIGASHIKAWANOBORICHO NAGANO","perfecture_jp":"佐賀県","jp_add_1":"武雄市","jp_add_2":"東川登町永野"},"8430234":{"post_code":"8430234","prefecture":"SAGA KEN","city":"TAKEO SHI","town":"HIGASHIKAWANOBORICHO HAKAMANO","perfecture_jp":"佐賀県","jp_add_1":"武雄市","jp_add_2":"東川登町袴野"},"8430151":{"post_code":"8430151","prefecture":"SAGA KEN","city":"TAKEO SHI","town":"WAKAKICHOKAWAGO","perfecture_jp":"佐賀県","jp_add_1":"武雄市","jp_add_2":"若木町川古"},"8430152":{"post_code":"8430152","prefecture":"SAGA KEN","city":"TAKEO SHI","town":"WAKAKICHOMOTOBE","perfecture_jp":"佐賀県","jp_add_1":"武雄市","jp_add_2":"若木町本部"},"8430153":{"post_code":"8430153","prefecture":"SAGA KEN","city":"TAKEO SHI","town":"WAKAKICHOMOMONOKAWA","perfecture_jp":"佐賀県","jp_add_1":"武雄市","jp_add_2":"若木町桃川"},"8430300":{"post_code":"8430300","prefecture":"SAGA KEN","city":"URESHINO SHI","town":"IKANIKEISAIGANAIBAAI","perfecture_jp":"佐賀県","jp_add_1":"嬉野市","jp_add_2":""},"8430304":{"post_code":"8430304","prefecture":"SAGA KEN","city":"URESHINO SHI","town":"URESHINOMACHI IWAYAGAWACHI","perfecture_jp":"佐賀県","jp_add_1":"嬉野市","jp_add_2":"嬉野町岩屋川内"},"8430301":{"post_code":"8430301","prefecture":"SAGA KEN","city":"URESHINO SHI","town":"URESHINOMACHI SHIMOJUKU","perfecture_jp":"佐賀県","jp_add_1":"嬉野市","jp_add_2":"嬉野町下宿"},"8430302":{"post_code":"8430302","prefecture":"SAGA KEN","city":"URESHINO SHI","town":"URESHINOMACHI SHIMONO","perfecture_jp":"佐賀県","jp_add_1":"嬉野市","jp_add_2":"嬉野町下野"},"8430305":{"post_code":"8430305","prefecture":"SAGA KEN","city":"URESHINO SHI","town":"URESHINOMACHI FUDOYAMA","perfecture_jp":"佐賀県","jp_add_1":"嬉野市","jp_add_2":"嬉野町不動山"},"8430303":{"post_code":"8430303","prefecture":"SAGA KEN","city":"URESHINO SHI","town":"URESHINOMACHI YOSHIDA","perfecture_jp":"佐賀県","jp_add_1":"嬉野市","jp_add_2":"嬉野町吉田"}}