{"8470000":{"post_code":"8470000","prefecture":"SAGA KEN","city":"KARATSU SHI","town":"IKANIKEISAIGANAIBAAI","perfecture_jp":"佐賀県","jp_add_1":"唐津市","jp_add_2":""},"8470823":{"post_code":"8470823","prefecture":"SAGA KEN","city":"KARATSU SHI","town":"ASAHIGAOKA","perfecture_jp":"佐賀県","jp_add_1":"唐津市","jp_add_2":"旭が丘"},"8470841":{"post_code":"8470841","prefecture":"SAGA KEN","city":"KARATSU SHI","town":"ASAHIMACHI","perfecture_jp":"佐賀県","jp_add_1":"唐津市","jp_add_2":"朝日町"},"8470832":{"post_code":"8470832","prefecture":"SAGA KEN","city":"KARATSU SHI","town":"ISHISHI","perfecture_jp":"佐賀県","jp_add_1":"唐津市","jp_add_2":"石志"},"8470042":{"post_code":"8470042","prefecture":"SAGA KEN","city":"KARATSU SHI","town":"UOYAMACHI","perfecture_jp":"佐賀県","jp_add_1":"唐津市","jp_add_2":"魚屋町"},"8470025":{"post_code":"8470025","prefecture":"SAGA KEN","city":"KARATSU SHI","town":"UKI","perfecture_jp":"佐賀県","jp_add_1":"唐津市","jp_add_2":"宇木"},"8470804":{"post_code":"8470804","prefecture":"SAGA KEN","city":"KARATSU SHI","town":"USHIROGAWACHI","perfecture_jp":"佐賀県","jp_add_1":"唐津市","jp_add_2":"後川内"},"8470124":{"post_code":"8470124","prefecture":"SAGA KEN","city":"KARATSU SHI","town":"URA","perfecture_jp":"佐賀県","jp_add_1":"唐津市","jp_add_2":"浦"},"8470853":{"post_code":"8470853","prefecture":"SAGA KEN","city":"KARATSU SHI","town":"EGAWAMACHI","perfecture_jp":"佐賀県","jp_add_1":"唐津市","jp_add_2":"江川町"},"8470123":{"post_code":"8470123","prefecture":"SAGA KEN","city":"KARATSU SHI","town":"EZARUKI","perfecture_jp":"佐賀県","jp_add_1":"唐津市","jp_add_2":"枝去木"},"8470132":{"post_code":"8470132","prefecture":"SAGA KEN","city":"KARATSU SHI","town":"OKA","perfecture_jp":"佐賀県","jp_add_1":"唐津市","jp_add_2":"相賀"},"8470066":{"post_code":"8470066","prefecture":"SAGA KEN","city":"KARATSU SHI","town":"OISHIMACHI","perfecture_jp":"佐賀県","jp_add_1":"唐津市","jp_add_2":"大石町"},"8470873":{"post_code":"8470873","prefecture":"SAGA KEN","city":"KARATSU SHI","town":"KAIGANDORI","perfecture_jp":"佐賀県","jp_add_1":"唐津市","jp_add_2":"海岸通"},"8470022":{"post_code":"8470022","prefecture":"SAGA KEN","city":"KARATSU SHI","town":"KAGAMI","perfecture_jp":"佐賀県","jp_add_1":"唐津市","jp_add_2":"鏡"},"8470028":{"post_code":"8470028","prefecture":"SAGA KEN","city":"KARATSU SHI","town":"KAGAMISHINKAI","perfecture_jp":"佐賀県","jp_add_1":"唐津市","jp_add_2":"鏡新開"},"8470065":{"post_code":"8470065","prefecture":"SAGA KEN","city":"KARATSU SHI","town":"KAKOMACHI","perfecture_jp":"佐賀県","jp_add_1":"唐津市","jp_add_2":"水主町"},"8470026":{"post_code":"8470026","prefecture":"SAGA KEN","city":"KARATSU SHI","town":"KASHIWAZAKI","perfecture_jp":"佐賀県","jp_add_1":"唐津市","jp_add_2":"柏崎"},"8470131":{"post_code":"8470131","prefecture":"SAGA KEN","city":"KARATSU SHI","town":"KASHIWAJIMA","perfecture_jp":"佐賀県","jp_add_1":"唐津市","jp_add_2":"神集島"},"8470055":{"post_code":"8470055","prefecture":"SAGA KEN","city":"KARATSU SHI","town":"KATANAMACHI","perfecture_jp":"佐賀県","jp_add_1":"唐津市","jp_add_2":"刀町"},"8470015":{"post_code":"8470015","prefecture":"SAGA KEN","city":"KARATSU SHI","town":"KITAJONAI","perfecture_jp":"佐賀県","jp_add_1":"唐津市","jp_add_2":"北城内"},"8471212":{"post_code":"8471212","prefecture":"SAGA KEN","city":"KARATSU SHI","town":"KITAHATA OSUGI","perfecture_jp":"佐賀県","jp_add_1":"唐津市","jp_add_2":"北波多大杉"},"8471221":{"post_code":"8471221","prefecture":"SAGA KEN","city":"KARATSU SHI","town":"KITAHATA KAMIHIRANO","perfecture_jp":"佐賀県","jp_add_1":"唐津市","jp_add_2":"北波多上平野"},"8471211":{"post_code":"8471211","prefecture":"SAGA KEN","city":"KARATSU SHI","town":"KITAHATA KISHIYAMA","perfecture_jp":"佐賀県","jp_add_1":"唐津市","jp_add_2":"北波多岸山"},"8471225":{"post_code":"8471225","prefecture":"SAGA KEN","city":"KARATSU SHI","town":"KITAHATA SHIGE","perfecture_jp":"佐賀県","jp_add_1":"唐津市","jp_add_2":"北波多志気"},"8471223":{"post_code":"8471223","prefecture":"SAGA KEN","city":"KARATSU SHI","town":"KITAHATA SHIMOHIRANO","perfecture_jp":"佐賀県","jp_add_1":"唐津市","jp_add_2":"北波多下平野"},"8471213":{"post_code":"8471213","prefecture":"SAGA KEN","city":"KARATSU SHI","town":"KITAHATA TAKEARI","perfecture_jp":"佐賀県","jp_add_1":"唐津市","jp_add_2":"北波多竹有"},"8471202":{"post_code":"8471202","prefecture":"SAGA KEN","city":"KARATSU SHI","town":"KITAHATA TANAKA","perfecture_jp":"佐賀県","jp_add_1":"唐津市","jp_add_2":"北波多田中"},"8471201":{"post_code":"8471201","prefecture":"SAGA KEN","city":"KARATSU SHI","town":"KITAHATA TOKUSUE","perfecture_jp":"佐賀県","jp_add_1":"唐津市","jp_add_2":"北波多徳須恵"},"8471222":{"post_code":"8471222","prefecture":"SAGA KEN","city":"KARATSU SHI","town":"KITAHATA NARUFUCHI","perfecture_jp":"佐賀県","jp_add_1":"唐津市","jp_add_2":"北波多成渕"},"8471214":{"post_code":"8471214","prefecture":"SAGA KEN","city":"KARATSU SHI","town":"KITAHATA HIEDA","perfecture_jp":"佐賀県","jp_add_1":"唐津市","jp_add_2":"北波多稗田"},"8471203":{"post_code":"8471203","prefecture":"SAGA KEN","city":"KARATSU SHI","town":"KITAHATA YAMAHIKO","perfecture_jp":"佐賀県","jp_add_1":"唐津市","jp_add_2":"北波多山彦"},"8471224":{"post_code":"8471224","prefecture":"SAGA KEN","city":"KARATSU SHI","town":"KITAHATA YUKIAINO","perfecture_jp":"佐賀県","jp_add_1":"唐津市","jp_add_2":"北波多行合野"},"8470045":{"post_code":"8470045","prefecture":"SAGA KEN","city":"KARATSU SHI","town":"KYOMACHI","perfecture_jp":"佐賀県","jp_add_1":"唐津市","jp_add_2":"京町"},"8470044":{"post_code":"8470044","prefecture":"SAGA KEN","city":"KARATSU SHI","town":"KIWATAMACHI","perfecture_jp":"佐賀県","jp_add_1":"唐津市","jp_add_2":"木綿町"},"8470817":{"post_code":"8470817","prefecture":"SAGA KEN","city":"KARATSU SHI","town":"KUMANOHARAMACHI","perfecture_jp":"佐賀県","jp_add_1":"唐津市","jp_add_2":"熊原町"},"8470884":{"post_code":"8470884","prefecture":"SAGA KEN","city":"KARATSU SHI","town":"KUMANOMINE","perfecture_jp":"佐賀県","jp_add_1":"唐津市","jp_add_2":"熊ノ峰"},"8470033":{"post_code":"8470033","prefecture":"SAGA KEN","city":"KARATSU SHI","town":"KURI","perfecture_jp":"佐賀県","jp_add_1":"唐津市","jp_add_2":"久里"},"8470824":{"post_code":"8470824","prefecture":"SAGA KEN","city":"KARATSU SHI","town":"KODA","perfecture_jp":"佐賀県","jp_add_1":"唐津市","jp_add_2":"神田"},"8470052":{"post_code":"8470052","prefecture":"SAGA KEN","city":"KARATSU SHI","town":"GOFUKUMACHI","perfecture_jp":"佐賀県","jp_add_1":"唐津市","jp_add_2":"呉服町"},"8470054":{"post_code":"8470054","prefecture":"SAGA KEN","city":"KARATSU SHI","town":"KOMEYAMACHI","perfecture_jp":"佐賀県","jp_add_1":"唐津市","jp_add_2":"米屋町"},"8470053":{"post_code":"8470053","prefecture":"SAGA KEN","city":"KARATSU SHI","town":"KONYAMACHI","perfecture_jp":"佐賀県","jp_add_1":"唐津市","jp_add_2":"紺屋町"},"8470061":{"post_code":"8470061","prefecture":"SAGA KEN","city":"KARATSU SHI","town":"ZAIMOKUMACHI","perfecture_jp":"佐賀県","jp_add_1":"唐津市","jp_add_2":"材木町"},"8470011":{"post_code":"8470011","prefecture":"SAGA KEN","city":"KARATSU SHI","town":"SAKAEMACHI","perfecture_jp":"佐賀県","jp_add_1":"唐津市","jp_add_2":"栄町"},"8470843":{"post_code":"8470843","prefecture":"SAGA KEN","city":"KARATSU SHI","town":"SAKURANOBABA","perfecture_jp":"佐賀県","jp_add_1":"唐津市","jp_add_2":"桜馬場"},"8470104":{"post_code":"8470104","prefecture":"SAGA KEN","city":"KARATSU SHI","town":"SAKURAMACHI","perfecture_jp":"佐賀県","jp_add_1":"唐津市","jp_add_2":"桜町"},"8470111":{"post_code":"8470111","prefecture":"SAGA KEN","city":"KARATSU SHI","town":"SASHI","perfecture_jp":"佐賀県","jp_add_1":"唐津市","jp_add_2":"佐志"},"8470113":{"post_code":"8470113","prefecture":"SAGA KEN","city":"KARATSU SHI","town":"SASHI NAKAZATO","perfecture_jp":"佐賀県","jp_add_1":"唐津市","jp_add_2":"佐志中里"},"8470114":{"post_code":"8470114","prefecture":"SAGA KEN","city":"KARATSU SHI","town":"SASHI NAKADORI","perfecture_jp":"佐賀県","jp_add_1":"唐津市","jp_add_2":"佐志中通"},"8470115":{"post_code":"8470115","prefecture":"SAGA KEN","city":"KARATSU SHI","town":"SASHI HAMAMACHI","perfecture_jp":"佐賀県","jp_add_1":"唐津市","jp_add_2":"佐志浜町"},"8470112":{"post_code":"8470112","prefecture":"SAGA KEN","city":"KARATSU SHI","town":"SASHI MINAMI","perfecture_jp":"佐賀県","jp_add_1":"唐津市","jp_add_2":"佐志南"},"8470883":{"post_code":"8470883","prefecture":"SAGA KEN","city":"KARATSU SHI","town":"SHIGEKAWACHI","perfecture_jp":"佐賀県","jp_add_1":"唐津市","jp_add_2":"重河内"},"8470067":{"post_code":"8470067","prefecture":"SAGA KEN","city":"KARATSU SHI","town":"JUNIMMACHI","perfecture_jp":"佐賀県","jp_add_1":"唐津市","jp_add_2":"十人町"},"8470021":{"post_code":"8470021","prefecture":"SAGA KEN","city":"KARATSU SHI","town":"SHONANCHO","perfecture_jp":"佐賀県","jp_add_1":"唐津市","jp_add_2":"松南町"},"8470043":{"post_code":"8470043","prefecture":"SAGA KEN","city":"KARATSU SHI","town":"SHINKOMACHI(HIGASHISHINKOMACHI)","perfecture_jp":"佐賀県","jp_add_1":"唐津市","jp_add_2":"新興町"},"8470816":{"post_code":"8470816","prefecture":"SAGA KEN","city":"KARATSU SHI","town":"SHINKOMACHI(NISHISHINKOMACHI)","perfecture_jp":"佐賀県","jp_add_1":"唐津市","jp_add_2":"新興町"},"8470813":{"post_code":"8470813","prefecture":"SAGA KEN","city":"KARATSU SHI","town":"SHIMMACHI","perfecture_jp":"佐賀県","jp_add_1":"唐津市","jp_add_2":"新町"},"8470882":{"post_code":"8470882","prefecture":"SAGA KEN","city":"KARATSU SHI","town":"SUGAMUTA","perfecture_jp":"佐賀県","jp_add_1":"唐津市","jp_add_2":"菅牟田"},"8470001":{"post_code":"8470001","prefecture":"SAGA KEN","city":"KARATSU SHI","town":"SOZUI","perfecture_jp":"佐賀県","jp_add_1":"唐津市","jp_add_2":"双水"},"8470012":{"post_code":"8470012","prefecture":"SAGA KEN","city":"KARATSU SHI","town":"DAIMYOKOJI","perfecture_jp":"佐賀県","jp_add_1":"唐津市","jp_add_2":"大名小路"},"8470803":{"post_code":"8470803","prefecture":"SAGA KEN","city":"KARATSU SHI","town":"DAIRA","perfecture_jp":"佐賀県","jp_add_1":"唐津市","jp_add_2":"大良"},"8470046":{"post_code":"8470046","prefecture":"SAGA KEN","city":"KARATSU SHI","town":"TAKASAGOMACHI","perfecture_jp":"佐賀県","jp_add_1":"唐津市","jp_add_2":"高砂町"},"8470027":{"post_code":"8470027","prefecture":"SAGA KEN","city":"KARATSU SHI","town":"TAKASHIMA","perfecture_jp":"佐賀県","jp_add_1":"唐津市","jp_add_2":"高島"},"8470881":{"post_code":"8470881","prefecture":"SAGA KEN","city":"KARATSU SHI","town":"TAKEKOBA","perfecture_jp":"佐賀県","jp_add_1":"唐津市","jp_add_2":"竹木場"},"8470831":{"post_code":"8470831","prefecture":"SAGA KEN","city":"KARATSU SHI","town":"CHICHIKA","perfecture_jp":"佐賀県","jp_add_1":"唐津市","jp_add_2":"千々賀"},"8470821":{"post_code":"8470821","prefecture":"SAGA KEN","city":"KARATSU SHI","town":"CHODA","perfecture_jp":"佐賀県","jp_add_1":"唐津市","jp_add_2":"町田"},"8470041":{"post_code":"8470041","prefecture":"SAGA KEN","city":"KARATSU SHI","town":"CHIYODAMACHI","perfecture_jp":"佐賀県","jp_add_1":"唐津市","jp_add_2":"千代田町"},"8470312":{"post_code":"8470312","prefecture":"SAGA KEN","city":"KARATSU SHI","town":"CHINZEIMACHI AKAGI","perfecture_jp":"佐賀県","jp_add_1":"唐津市","jp_add_2":"鎮西町赤木"},"8470327":{"post_code":"8470327","prefecture":"SAGA KEN","city":"KARATSU SHI","town":"CHINZEIMACHI ISHIMURO","perfecture_jp":"佐賀県","jp_add_1":"唐津市","jp_add_2":"鎮西町石室"},"8470323":{"post_code":"8470323","prefecture":"SAGA KEN","city":"KARATSU SHI","town":"CHINZEIMACHI IWANO","perfecture_jp":"佐賀県","jp_add_1":"唐津市","jp_add_2":"鎮西町岩野"},"8470322":{"post_code":"8470322","prefecture":"SAGA KEN","city":"KARATSU SHI","town":"CHINZEIMACHI UCHIAGE","perfecture_jp":"佐賀県","jp_add_1":"唐津市","jp_add_2":"鎮西町打上"},"8470317":{"post_code":"8470317","prefecture":"SAGA KEN","city":"KARATSU SHI","town":"CHINZEIMACHI KAKARASHIMA","perfecture_jp":"佐賀県","jp_add_1":"唐津市","jp_add_2":"鎮西町加唐島"},"8470325":{"post_code":"8470325","prefecture":"SAGA KEN","city":"KARATSU SHI","town":"CHINZEIMACHI KAKURA","perfecture_jp":"佐賀県","jp_add_1":"唐津市","jp_add_2":"鎮西町加倉"},"8470403":{"post_code":"8470403","prefecture":"SAGA KEN","city":"KARATSU SHI","town":"CHINZEIMACHI KUSHI","perfecture_jp":"佐賀県","jp_add_1":"唐津市","jp_add_2":"鎮西町串"},"8470324":{"post_code":"8470324","prefecture":"SAGA KEN","city":"KARATSU SHI","town":"CHINZEIMACHI KONO","perfecture_jp":"佐賀県","jp_add_1":"唐津市","jp_add_2":"鎮西町高野"},"8470313":{"post_code":"8470313","prefecture":"SAGA KEN","city":"KARATSU SHI","town":"CHINZEIMACHI SHIOZURU","perfecture_jp":"佐賀県","jp_add_1":"唐津市","jp_add_2":"鎮西町塩鶴"},"8470314":{"post_code":"8470314","prefecture":"SAGA KEN","city":"KARATSU SHI","town":"CHINZEIMACHI SHOBU","perfecture_jp":"佐賀県","jp_add_1":"唐津市","jp_add_2":"鎮西町菖蒲"},"8470316":{"post_code":"8470316","prefecture":"SAGA KEN","city":"KARATSU SHI","town":"CHINZEIMACHI NAKANO","perfecture_jp":"佐賀県","jp_add_1":"唐津市","jp_add_2":"鎮西町中野"},"8470401":{"post_code":"8470401","prefecture":"SAGA KEN","city":"KARATSU SHI","town":"CHINZEIMACHI NAGOYA","perfecture_jp":"佐賀県","jp_add_1":"唐津市","jp_add_2":"鎮西町名護屋"},"8470402":{"post_code":"8470402","prefecture":"SAGA KEN","city":"KARATSU SHI","town":"CHINZEIMACHI NOMOTO","perfecture_jp":"佐賀県","jp_add_1":"唐津市","jp_add_2":"鎮西町野元"},"8470404":{"post_code":"8470404","prefecture":"SAGA KEN","city":"KARATSU SHI","town":"CHINZEIMACHI HADO","perfecture_jp":"佐賀県","jp_add_1":"唐津市","jp_add_2":"鎮西町波戸"},"8470326":{"post_code":"8470326","prefecture":"SAGA KEN","city":"KARATSU SHI","town":"CHINZEIMACHI HAYATA","perfecture_jp":"佐賀県","jp_add_1":"唐津市","jp_add_2":"鎮西町早田"},"8470405":{"post_code":"8470405","prefecture":"SAGA KEN","city":"KARATSU SHI","town":"CHINZEIMACHI MADARASHIMA","perfecture_jp":"佐賀県","jp_add_1":"唐津市","jp_add_2":"鎮西町馬渡島"},"8470406":{"post_code":"8470406","prefecture":"SAGA KEN","city":"KARATSU SHI","town":"CHINZEIMACHI MATSUSHIMA","perfecture_jp":"佐賀県","jp_add_1":"唐津市","jp_add_2":"鎮西町松島"},"8470311":{"post_code":"8470311","prefecture":"SAGA KEN","city":"KARATSU SHI","town":"CHINZEIMACHI MARUDA","perfecture_jp":"佐賀県","jp_add_1":"唐津市","jp_add_2":"鎮西町丸田"},"8470315":{"post_code":"8470315","prefecture":"SAGA KEN","city":"KARATSU SHI","town":"CHINZEIMACHI YATOKO","perfecture_jp":"佐賀県","jp_add_1":"唐津市","jp_add_2":"鎮西町八床"},"8470321":{"post_code":"8470321","prefecture":"SAGA KEN","city":"KARATSU SHI","town":"CHINZEIMACHI YOKOTAKE","perfecture_jp":"佐賀県","jp_add_1":"唐津市","jp_add_2":"鎮西町横竹"},"8470885":{"post_code":"8470885","prefecture":"SAGA KEN","city":"KARATSU SHI","town":"TONOKAWA","perfecture_jp":"佐賀県","jp_add_1":"唐津市","jp_add_2":"唐川"},"8470122":{"post_code":"8470122","prefecture":"SAGA KEN","city":"KARATSU SHI","town":"TOBO","perfecture_jp":"佐賀県","jp_add_1":"唐津市","jp_add_2":"唐房"},"8470134":{"post_code":"8470134","prefecture":"SAGA KEN","city":"KARATSU SHI","town":"NAKAZATO","perfecture_jp":"佐賀県","jp_add_1":"唐津市","jp_add_2":"中里"},"8470101":{"post_code":"8470101","prefecture":"SAGA KEN","city":"KARATSU SHI","town":"NAKANOSEDORI","perfecture_jp":"佐賀県","jp_add_1":"唐津市","jp_add_2":"中瀬通"},"8470034":{"post_code":"8470034","prefecture":"SAGA KEN","city":"KARATSU SHI","town":"NAKABARU","perfecture_jp":"佐賀県","jp_add_1":"唐津市","jp_add_2":"中原"},"8470051":{"post_code":"8470051","prefecture":"SAGA KEN","city":"KARATSU SHI","town":"NAKAMACHI","perfecture_jp":"佐賀県","jp_add_1":"唐津市","jp_add_2":"中町"},"8470862":{"post_code":"8470862","prefecture":"SAGA KEN","city":"KARATSU SHI","town":"NAKAYAMAMACHI","perfecture_jp":"佐賀県","jp_add_1":"唐津市","jp_add_2":"中山町"},"8470822":{"post_code":"8470822","prefecture":"SAGA KEN","city":"KARATSU SHI","town":"NAGATANI","perfecture_jp":"佐賀県","jp_add_1":"唐津市","jp_add_2":"長谷"},"8470802":{"post_code":"8470802","prefecture":"SAGA KEN","city":"KARATSU SHI","town":"NASHIGAWACHI","perfecture_jp":"佐賀県","jp_add_1":"唐津市","jp_add_2":"梨川内"},"8471101":{"post_code":"8471101","prefecture":"SAGA KEN","city":"KARATSU SHI","town":"NANAYAMA ARAKAWA","perfecture_jp":"佐賀県","jp_add_1":"唐津市","jp_add_2":"七山荒川"},"8471103":{"post_code":"8471103","prefecture":"SAGA KEN","city":"KARATSU SHI","town":"NANAYAMA IKEBARU","perfecture_jp":"佐賀県","jp_add_1":"唐津市","jp_add_2":"七山池原"},"8471104":{"post_code":"8471104","prefecture":"SAGA KEN","city":"KARATSU SHI","town":"NANAYAMA KIURA","perfecture_jp":"佐賀県","jp_add_1":"唐津市","jp_add_2":"七山木浦"},"8471108":{"post_code":"8471108","prefecture":"SAGA KEN","city":"KARATSU SHI","town":"NANAYAMA SHIRAKI","perfecture_jp":"佐賀県","jp_add_1":"唐津市","jp_add_2":"七山白木"},"8471106":{"post_code":"8471106","prefecture":"SAGA KEN","city":"KARATSU SHI","town":"NANAYAMA TAKIGAWA","perfecture_jp":"佐賀県","jp_add_1":"唐津市","jp_add_2":"七山滝川"},"8471105":{"post_code":"8471105","prefecture":"SAGA KEN","city":"KARATSU SHI","town":"NANAYAMA NIBU","perfecture_jp":"佐賀県","jp_add_1":"唐津市","jp_add_2":"七山仁部"},"8471107":{"post_code":"8471107","prefecture":"SAGA KEN","city":"KARATSU SHI","town":"NANAYAMA FUJIKAWA","perfecture_jp":"佐賀県","jp_add_1":"唐津市","jp_add_2":"七山藤川"},"8471102":{"post_code":"8471102","prefecture":"SAGA KEN","city":"KARATSU SHI","town":"NANAYAMA MANOKAWA","perfecture_jp":"佐賀県","jp_add_1":"唐津市","jp_add_2":"七山馬川"},"8470844":{"post_code":"8470844","prefecture":"SAGA KEN","city":"KARATSU SHI","town":"NABATAKE","perfecture_jp":"佐賀県","jp_add_1":"唐津市","jp_add_2":"菜畑"},"8470872":{"post_code":"8470872","prefecture":"SAGA KEN","city":"KARATSU SHI","town":"NISHIOSHIMAMACHI","perfecture_jp":"佐賀県","jp_add_1":"唐津市","jp_add_2":"西大島町"},"8470875":{"post_code":"8470875","prefecture":"SAGA KEN","city":"KARATSU SHI","town":"NISHIKARATSU","perfecture_jp":"佐賀県","jp_add_1":"唐津市","jp_add_2":"西唐津"},"8470014":{"post_code":"8470014","prefecture":"SAGA KEN","city":"KARATSU SHI","town":"NISHIJONAI","perfecture_jp":"佐賀県","jp_add_1":"唐津市","jp_add_2":"西城内"},"8470815":{"post_code":"8470815","prefecture":"SAGA KEN","city":"KARATSU SHI","town":"NISHIDERAMACHI","perfecture_jp":"佐賀県","jp_add_1":"唐津市","jp_add_2":"西寺町"},"8470855":{"post_code":"8470855","prefecture":"SAGA KEN","city":"KARATSU SHI","town":"NISHINOHAMAMACHI","perfecture_jp":"佐賀県","jp_add_1":"唐津市","jp_add_2":"西浜町"},"8470854":{"post_code":"8470854","prefecture":"SAGA KEN","city":"KARATSU SHI","town":"NISHIHATAMACHI","perfecture_jp":"佐賀県","jp_add_1":"唐津市","jp_add_2":"西旗町"},"8470003":{"post_code":"8470003","prefecture":"SAGA KEN","city":"KARATSU SHI","town":"HASHIMOTO","perfecture_jp":"佐賀県","jp_add_1":"唐津市","jp_add_2":"橋本"},"8470103":{"post_code":"8470103","prefecture":"SAGA KEN","city":"KARATSU SHI","town":"HASHIMOTOMACHI","perfecture_jp":"佐賀県","jp_add_1":"唐津市","jp_add_2":"橋本町"},"8470833":{"post_code":"8470833","prefecture":"SAGA KEN","city":"KARATSU SHI","town":"HATASHIMA","perfecture_jp":"佐賀県","jp_add_1":"唐津市","jp_add_2":"畑島"},"8470023":{"post_code":"8470023","prefecture":"SAGA KEN","city":"KARATSU SHI","town":"HADA","perfecture_jp":"佐賀県","jp_add_1":"唐津市","jp_add_2":"半田"},"8470121":{"post_code":"8470121","prefecture":"SAGA KEN","city":"KARATSU SHI","town":"HATOGAWA","perfecture_jp":"佐賀県","jp_add_1":"唐津市","jp_add_2":"鳩川"},"8470031":{"post_code":"8470031","prefecture":"SAGA KEN","city":"KARATSU SHI","town":"HARU","perfecture_jp":"佐賀県","jp_add_1":"唐津市","jp_add_2":"原"},"8470024":{"post_code":"8470024","prefecture":"SAGA KEN","city":"KARATSU SHI","town":"HIGASHIUKI","perfecture_jp":"佐賀県","jp_add_1":"唐津市","jp_add_2":"東宇木"},"8470871":{"post_code":"8470871","prefecture":"SAGA KEN","city":"KARATSU SHI","town":"HIGASHIOSHIMAMACHI","perfecture_jp":"佐賀県","jp_add_1":"唐津市","jp_add_2":"東大島町"},"8470017":{"post_code":"8470017","prefecture":"SAGA KEN","city":"KARATSU SHI","town":"HIGASHIKARATSU","perfecture_jp":"佐賀県","jp_add_1":"唐津市","jp_add_2":"東唐津"},"8470016":{"post_code":"8470016","prefecture":"SAGA KEN","city":"KARATSU SHI","town":"HIGASHIJONAI","perfecture_jp":"佐賀県","jp_add_1":"唐津市","jp_add_2":"東城内"},"8470063":{"post_code":"8470063","prefecture":"SAGA KEN","city":"KARATSU SHI","town":"HIGASHIMACHI","perfecture_jp":"佐賀県","jp_add_1":"唐津市","jp_add_2":"東町"},"8470801":{"post_code":"8470801","prefecture":"SAGA KEN","city":"KARATSU SHI","town":"HIGASHIYAMA","perfecture_jp":"佐賀県","jp_add_1":"唐津市","jp_add_2":"東山"},"8471502":{"post_code":"8471502","prefecture":"SAGA KEN","city":"KARATSU SHI","town":"HIZEMMACHI AKASAKA","perfecture_jp":"佐賀県","jp_add_1":"唐津市","jp_add_2":"肥前町赤坂"},"8471517":{"post_code":"8471517","prefecture":"SAGA KEN","city":"KARATSU SHI","town":"HIZEMMACHI AGEKURA","perfecture_jp":"佐賀県","jp_add_1":"唐津市","jp_add_2":"肥前町上ケ倉"},"8471522":{"post_code":"8471522","prefecture":"SAGA KEN","city":"KARATSU SHI","town":"HIZEMMACHI INUGASHIRA","perfecture_jp":"佐賀県","jp_add_1":"唐津市","jp_add_2":"肥前町犬頭"},"8471526":{"post_code":"8471526","prefecture":"SAGA KEN","city":"KARATSU SHI","town":"HIZEMMACHI IRINO","perfecture_jp":"佐賀県","jp_add_1":"唐津市","jp_add_2":"肥前町入野"},"8471512":{"post_code":"8471512","prefecture":"SAGA KEN","city":"KARATSU SHI","town":"HIZEMMACHI UMEZAKI","perfecture_jp":"佐賀県","jp_add_1":"唐津市","jp_add_2":"肥前町梅崎"},"8471516":{"post_code":"8471516","prefecture":"SAGA KEN","city":"KARATSU SHI","town":"HIZEMMACHI URIGASAKA","perfecture_jp":"佐賀県","jp_add_1":"唐津市","jp_add_2":"肥前町瓜ケ坂"},"8471506":{"post_code":"8471506","prefecture":"SAGA KEN","city":"KARATSU SHI","town":"HIZEMMACHI OURA","perfecture_jp":"佐賀県","jp_add_1":"唐津市","jp_add_2":"肥前町大浦"},"8471501":{"post_code":"8471501","prefecture":"SAGA KEN","city":"KARATSU SHI","town":"HIZEMMACHI KIRIGO","perfecture_jp":"佐賀県","jp_add_1":"唐津市","jp_add_2":"肥前町切木"},"8471505":{"post_code":"8471505","prefecture":"SAGA KEN","city":"KARATSU SHI","town":"HIZEMMACHI SUGINORA","perfecture_jp":"佐賀県","jp_add_1":"唐津市","jp_add_2":"肥前町杉野浦"},"8471521":{"post_code":"8471521","prefecture":"SAGA KEN","city":"KARATSU SHI","town":"HIZEMMACHI TANO","perfecture_jp":"佐賀県","jp_add_1":"唐津市","jp_add_2":"肥前町田野"},"8471527":{"post_code":"8471527","prefecture":"SAGA KEN","city":"KARATSU SHI","town":"HIZEMMACHI TSURUMAKI","perfecture_jp":"佐賀県","jp_add_1":"唐津市","jp_add_2":"肥前町鶴牧"},"8471513":{"post_code":"8471513","prefecture":"SAGA KEN","city":"KARATSU SHI","town":"HIZEMMACHI TERAURA","perfecture_jp":"佐賀県","jp_add_1":"唐津市","jp_add_2":"肥前町寺浦"},"8471504":{"post_code":"8471504","prefecture":"SAGA KEN","city":"KARATSU SHI","town":"HIZEMMACHI NAKAURA","perfecture_jp":"佐賀県","jp_add_1":"唐津市","jp_add_2":"肥前町中浦"},"8471511":{"post_code":"8471511","prefecture":"SAGA KEN","city":"KARATSU SHI","town":"HIZEMMACHI NIIKOBA","perfecture_jp":"佐賀県","jp_add_1":"唐津市","jp_add_2":"肥前町新木場"},"8471514":{"post_code":"8471514","prefecture":"SAGA KEN","city":"KARATSU SHI","town":"HIZEMMACHI NITANO","perfecture_jp":"佐賀県","jp_add_1":"唐津市","jp_add_2":"肥前町仁田野尾"},"8471525":{"post_code":"8471525","prefecture":"SAGA KEN","city":"KARATSU SHI","town":"HIZEMMACHI NOSA","perfecture_jp":"佐賀県","jp_add_1":"唐津市","jp_add_2":"肥前町納所"},"8471523":{"post_code":"8471523","prefecture":"SAGA KEN","city":"KARATSU SHI","town":"HIZEMMACHI HOSHIKA","perfecture_jp":"佐賀県","jp_add_1":"唐津市","jp_add_2":"肥前町星賀"},"8471515":{"post_code":"8471515","prefecture":"SAGA KEN","city":"KARATSU SHI","town":"HIZEMMACHI MAGARIKAWA","perfecture_jp":"佐賀県","jp_add_1":"唐津市","jp_add_2":"肥前町万賀里川"},"8471507":{"post_code":"8471507","prefecture":"SAGA KEN","city":"KARATSU SHI","town":"HIZEMMACHI MITSUKOSHI","perfecture_jp":"佐賀県","jp_add_1":"唐津市","jp_add_2":"肥前町満越"},"8471524":{"post_code":"8471524","prefecture":"SAGA KEN","city":"KARATSU SHI","town":"HIZEMMACHI MUKUSHIMA","perfecture_jp":"佐賀県","jp_add_1":"唐津市","jp_add_2":"肥前町向島"},"8471503":{"post_code":"8471503","prefecture":"SAGA KEN","city":"KARATSU SHI","town":"HIZEMMACHI YUNORA","perfecture_jp":"佐賀県","jp_add_1":"唐津市","jp_add_2":"肥前町湯野浦"},"8470812":{"post_code":"8470812","prefecture":"SAGA KEN","city":"KARATSU SHI","town":"HIRANOMACHI","perfecture_jp":"佐賀県","jp_add_1":"唐津市","jp_add_2":"平野町"},"8470874":{"post_code":"8470874","prefecture":"SAGA KEN","city":"KARATSU SHI","town":"FUJISAKIDORI","perfecture_jp":"佐賀県","jp_add_1":"唐津市","jp_add_2":"藤崎通"},"8470851":{"post_code":"8470851","prefecture":"SAGA KEN","city":"KARATSU SHI","town":"FUJIMIMACHI","perfecture_jp":"佐賀県","jp_add_1":"唐津市","jp_add_2":"富士見町"},"8470861":{"post_code":"8470861","prefecture":"SAGA KEN","city":"KARATSU SHI","town":"FUTAGO","perfecture_jp":"佐賀県","jp_add_1":"唐津市","jp_add_2":"二タ子"},"8470062":{"post_code":"8470062","prefecture":"SAGA KEN","city":"KARATSU SHI","town":"FUNAMIYAMACHI","perfecture_jp":"佐賀県","jp_add_1":"唐津市","jp_add_2":"船宮町"},"8470056":{"post_code":"8470056","prefecture":"SAGA KEN","city":"KARATSU SHI","town":"BOZUMACHI","perfecture_jp":"佐賀県","jp_add_1":"唐津市","jp_add_2":"坊主町"},"8470047":{"post_code":"8470047","prefecture":"SAGA KEN","city":"KARATSU SHI","town":"HOMMACHI","perfecture_jp":"佐賀県","jp_add_1":"唐津市","jp_add_2":"本町"},"8470133":{"post_code":"8470133","prefecture":"SAGA KEN","city":"KARATSU SHI","town":"MINATOMACHI","perfecture_jp":"佐賀県","jp_add_1":"唐津市","jp_add_2":"湊町"},"8470013":{"post_code":"8470013","prefecture":"SAGA KEN","city":"KARATSU SHI","town":"MINAMIJONAI","perfecture_jp":"佐賀県","jp_add_1":"唐津市","jp_add_2":"南城内"},"8470876":{"post_code":"8470876","prefecture":"SAGA KEN","city":"KARATSU SHI","town":"MINAMIFUJIMICHO","perfecture_jp":"佐賀県","jp_add_1":"唐津市","jp_add_2":"南富士見町"},"8470863":{"post_code":"8470863","prefecture":"SAGA KEN","city":"KARATSU SHI","town":"MYOKEMMACHI","perfecture_jp":"佐賀県","jp_add_1":"唐津市","jp_add_2":"妙見町"},"8470825":{"post_code":"8470825","prefecture":"SAGA KEN","city":"KARATSU SHI","town":"MIRUKASHI","perfecture_jp":"佐賀県","jp_add_1":"唐津市","jp_add_2":"見借"},"8470064":{"post_code":"8470064","prefecture":"SAGA KEN","city":"KARATSU SHI","town":"MOTOISHIMACHI","perfecture_jp":"佐賀県","jp_add_1":"唐津市","jp_add_2":"元石町"},"8470852":{"post_code":"8470852","prefecture":"SAGA KEN","city":"KARATSU SHI","town":"MOTOHATAMACHI","perfecture_jp":"佐賀県","jp_add_1":"唐津市","jp_add_2":"元旗町"},"8470811":{"post_code":"8470811","prefecture":"SAGA KEN","city":"KARATSU SHI","town":"YAOYAMACHI","perfecture_jp":"佐賀県","jp_add_1":"唐津市","jp_add_2":"八百屋町"},"8470135":{"post_code":"8470135","prefecture":"SAGA KEN","city":"KARATSU SHI","town":"YAKATAISHI","perfecture_jp":"佐賀県","jp_add_1":"唐津市","jp_add_2":"屋形石"},"8470102":{"post_code":"8470102","prefecture":"SAGA KEN","city":"KARATSU SHI","town":"YAHATAMACHI","perfecture_jp":"佐賀県","jp_add_1":"唐津市","jp_add_2":"八幡町"},"8470004":{"post_code":"8470004","prefecture":"SAGA KEN","city":"KARATSU SHI","town":"YABUTA","perfecture_jp":"佐賀県","jp_add_1":"唐津市","jp_add_2":"養母田"},"8470005":{"post_code":"8470005","prefecture":"SAGA KEN","city":"KARATSU SHI","town":"YABUTAONIZUKA","perfecture_jp":"佐賀県","jp_add_1":"唐津市","jp_add_2":"養母田鬼塚"},"8470842":{"post_code":"8470842","prefecture":"SAGA KEN","city":"KARATSU SHI","town":"YAMASHITAMACHI","perfecture_jp":"佐賀県","jp_add_1":"唐津市","jp_add_2":"山下町"},"8470834":{"post_code":"8470834","prefecture":"SAGA KEN","city":"KARATSU SHI","town":"YAMADA","perfecture_jp":"佐賀県","jp_add_1":"唐津市","jp_add_2":"山田"},"8470002":{"post_code":"8470002","prefecture":"SAGA KEN","city":"KARATSU SHI","town":"YAMAMOTO","perfecture_jp":"佐賀県","jp_add_1":"唐津市","jp_add_2":"山本"},"8470032":{"post_code":"8470032","prefecture":"SAGA KEN","city":"KARATSU SHI","town":"YUHI","perfecture_jp":"佐賀県","jp_add_1":"唐津市","jp_add_2":"夕日"},"8470814":{"post_code":"8470814","prefecture":"SAGA KEN","city":"KARATSU SHI","town":"YUMITAKAMACHI","perfecture_jp":"佐賀県","jp_add_1":"唐津市","jp_add_2":"弓鷹町"},"8470136":{"post_code":"8470136","prefecture":"SAGA KEN","city":"KARATSU SHI","town":"YOKONO","perfecture_jp":"佐賀県","jp_add_1":"唐津市","jp_add_2":"横野"},"8470301":{"post_code":"8470301","prefecture":"SAGA KEN","city":"KARATSU SHI","town":"YOBUKOCHO ODOMO","perfecture_jp":"佐賀県","jp_add_1":"唐津市","jp_add_2":"呼子町大友"},"8470306":{"post_code":"8470306","prefecture":"SAGA KEN","city":"KARATSU SHI","town":"YOBUKOCHO OGAWASHIMA","perfecture_jp":"佐賀県","jp_add_1":"唐津市","jp_add_2":"呼子町小川島"},"8470305":{"post_code":"8470305","prefecture":"SAGA KEN","city":"KARATSU SHI","town":"YOBUKOCHO KABESHIMA","perfecture_jp":"佐賀県","jp_add_1":"唐津市","jp_add_2":"呼子町加部島"},"8470302":{"post_code":"8470302","prefecture":"SAGA KEN","city":"KARATSU SHI","town":"YOBUKOCHO KODOMO","perfecture_jp":"佐賀県","jp_add_1":"唐津市","jp_add_2":"呼子町小友"},"8470304":{"post_code":"8470304","prefecture":"SAGA KEN","city":"KARATSU SHI","town":"YOBUKOCHO TONONORA","perfecture_jp":"佐賀県","jp_add_1":"唐津市","jp_add_2":"呼子町殿ノ浦"},"8470303":{"post_code":"8470303","prefecture":"SAGA KEN","city":"KARATSU SHI","town":"YOBUKOCHO YOBUKO","perfecture_jp":"佐賀県","jp_add_1":"唐津市","jp_add_2":"呼子町呼子"},"8470071":{"post_code":"8470071","prefecture":"SAGA KEN","city":"KARATSU SHI","town":"WATADA AMAMACHI","perfecture_jp":"佐賀県","jp_add_1":"唐津市","jp_add_2":"和多田海士町"},"8470083":{"post_code":"8470083","prefecture":"SAGA KEN","city":"KARATSU SHI","town":"WATADA ODOI","perfecture_jp":"佐賀県","jp_add_1":"唐津市","jp_add_2":"和多田大土井"},"8470074":{"post_code":"8470074","prefecture":"SAGA KEN","city":"KARATSU SHI","town":"WATADA SAKIISHI","perfecture_jp":"佐賀県","jp_add_1":"唐津市","jp_add_2":"和多田先石"},"8470082":{"post_code":"8470082","prefecture":"SAGA KEN","city":"KARATSU SHI","town":"WATADA TEMMANCHO","perfecture_jp":"佐賀県","jp_add_1":"唐津市","jp_add_2":"和多田天満町"},"8470084":{"post_code":"8470084","prefecture":"SAGA KEN","city":"KARATSU SHI","town":"WATADA NISHIYAMA","perfecture_jp":"佐賀県","jp_add_1":"唐津市","jp_add_2":"和多田西山"},"8470073":{"post_code":"8470073","prefecture":"SAGA KEN","city":"KARATSU SHI","town":"WATADA HIGASHIHYAKUNIMMACHI","perfecture_jp":"佐賀県","jp_add_1":"唐津市","jp_add_2":"和多田東百人町"},"8470072":{"post_code":"8470072","prefecture":"SAGA KEN","city":"KARATSU SHI","town":"WATADA HYAKUNIMMACHI","perfecture_jp":"佐賀県","jp_add_1":"唐津市","jp_add_2":"和多田百人町"},"8470085":{"post_code":"8470085","prefecture":"SAGA KEN","city":"KARATSU SHI","town":"WATADA HOMMURA","perfecture_jp":"佐賀県","jp_add_1":"唐津市","jp_add_2":"和多田本村"},"8470081":{"post_code":"8470081","prefecture":"SAGA KEN","city":"KARATSU SHI","town":"WATADA MINAMISAKIISHI","perfecture_jp":"佐賀県","jp_add_1":"唐津市","jp_add_2":"和多田南先石"},"8470075":{"post_code":"8470075","prefecture":"SAGA KEN","city":"KARATSU SHI","town":"WATADA YOJAKU","perfecture_jp":"佐賀県","jp_add_1":"唐津市","jp_add_2":"和多田用尺"},"8471400":{"post_code":"8471400","prefecture":"SAGA KEN","city":"HIGASHIMATSURA GUN GENKAI CHO","town":"IKANIKEISAIGANAIBAAI","perfecture_jp":"佐賀県","jp_add_1":"東松浦郡玄海町","jp_add_2":""},"8471403":{"post_code":"8471403","prefecture":"SAGA KEN","city":"HIGASHIMATSURA GUN GENKAI CHO","town":"ARIURAKAMI","perfecture_jp":"佐賀県","jp_add_1":"東松浦郡玄海町","jp_add_2":"有浦上"},"8471402":{"post_code":"8471402","prefecture":"SAGA KEN","city":"HIGASHIMATSURA GUN GENKAI CHO","town":"ARIURASHIMO","perfecture_jp":"佐賀県","jp_add_1":"東松浦郡玄海町","jp_add_2":"有浦下"},"8471423":{"post_code":"8471423","prefecture":"SAGA KEN","city":"HIGASHIMATSURA GUN GENKAI CHO","town":"ISHIDA","perfecture_jp":"佐賀県","jp_add_1":"東松浦郡玄海町","jp_add_2":"石田"},"8471441":{"post_code":"8471441","prefecture":"SAGA KEN","city":"HIGASHIMATSURA GUN GENKAI CHO","town":"IMAMURA","perfecture_jp":"佐賀県","jp_add_1":"東松浦郡玄海町","jp_add_2":"今村"},"8471434":{"post_code":"8471434","prefecture":"SAGA KEN","city":"HIGASHIMATSURA GUN GENKAI CHO","town":"OZONO","perfecture_jp":"佐賀県","jp_add_1":"東松浦郡玄海町","jp_add_2":"大薗"},"8471413":{"post_code":"8471413","prefecture":"SAGA KEN","city":"HIGASHIMATSURA GUN GENKAI CHO","town":"OTORI","perfecture_jp":"佐賀県","jp_add_1":"東松浦郡玄海町","jp_add_2":"大鳥"},"8471443":{"post_code":"8471443","prefecture":"SAGA KEN","city":"HIGASHIMATSURA GUN GENKAI CHO","town":"KARIDACHI","perfecture_jp":"佐賀県","jp_add_1":"東松浦郡玄海町","jp_add_2":"仮立"},"8471435":{"post_code":"8471435","prefecture":"SAGA KEN","city":"HIGASHIMATSURA GUN GENKAI CHO","town":"KARIYA","perfecture_jp":"佐賀県","jp_add_1":"東松浦郡玄海町","jp_add_2":"仮屋"},"8471401":{"post_code":"8471401","prefecture":"SAGA KEN","city":"HIGASHIMATSURA GUN GENKAI CHO","town":"KOGAKURA","perfecture_jp":"佐賀県","jp_add_1":"東松浦郡玄海町","jp_add_2":"小加倉"},"8471424":{"post_code":"8471424","prefecture":"SAGA KEN","city":"HIGASHIMATSURA GUN GENKAI CHO","town":"SAKAE","perfecture_jp":"佐賀県","jp_add_1":"東松浦郡玄海町","jp_add_2":"栄"},"8471445":{"post_code":"8471445","prefecture":"SAGA KEN","city":"HIGASHIMATSURA GUN GENKAI CHO","town":"SHIMOMIYA","perfecture_jp":"佐賀県","jp_add_1":"東松浦郡玄海町","jp_add_2":"下宮"},"8471422":{"post_code":"8471422","prefecture":"SAGA KEN","city":"HIGASHIMATSURA GUN GENKAI CHO","town":"SHINDEN","perfecture_jp":"佐賀県","jp_add_1":"東松浦郡玄海町","jp_add_2":"新田"},"8471415":{"post_code":"8471415","prefecture":"SAGA KEN","city":"HIGASHIMATSURA GUN GENKAI CHO","town":"SOSOROGAWACHI","perfecture_jp":"佐賀県","jp_add_1":"東松浦郡玄海町","jp_add_2":"座川内"},"8471412":{"post_code":"8471412","prefecture":"SAGA KEN","city":"HIGASHIMATSURA GUN GENKAI CHO","town":"TASHIRO","perfecture_jp":"佐賀県","jp_add_1":"東松浦郡玄海町","jp_add_2":"田代"},"8471442":{"post_code":"8471442","prefecture":"SAGA KEN","city":"HIGASHIMATSURA GUN GENKAI CHO","town":"CHIKAGAWACHI","perfecture_jp":"佐賀県","jp_add_1":"東松浦郡玄海町","jp_add_2":"値賀川内"},"8471411":{"post_code":"8471411","prefecture":"SAGA KEN","city":"HIGASHIMATSURA GUN GENKAI CHO","town":"TODOROKI","perfecture_jp":"佐賀県","jp_add_1":"東松浦郡玄海町","jp_add_2":"轟木"},"8471444":{"post_code":"8471444","prefecture":"SAGA KEN","city":"HIGASHIMATSURA GUN GENKAI CHO","town":"NAKADORI","perfecture_jp":"佐賀県","jp_add_1":"東松浦郡玄海町","jp_add_2":"中通"},"8471404":{"post_code":"8471404","prefecture":"SAGA KEN","city":"HIGASHIMATSURA GUN GENKAI CHO","town":"NAGAKURA","perfecture_jp":"佐賀県","jp_add_1":"東松浦郡玄海町","jp_add_2":"長倉"},"8471425":{"post_code":"8471425","prefecture":"SAGA KEN","city":"HIGASHIMATSURA GUN GENKAI CHO","town":"HANANOKI","perfecture_jp":"佐賀県","jp_add_1":"東松浦郡玄海町","jp_add_2":"花の木"},"8471433":{"post_code":"8471433","prefecture":"SAGA KEN","city":"HIGASHIMATSURA GUN GENKAI CHO","town":"HAMANORA","perfecture_jp":"佐賀県","jp_add_1":"東松浦郡玄海町","jp_add_2":"浜野浦"},"8471432":{"post_code":"8471432","prefecture":"SAGA KEN","city":"HIGASHIMATSURA GUN GENKAI CHO","town":"HIRAO","perfecture_jp":"佐賀県","jp_add_1":"東松浦郡玄海町","jp_add_2":"平尾"},"8471431":{"post_code":"8471431","prefecture":"SAGA KEN","city":"HIGASHIMATSURA GUN GENKAI CHO","town":"FUONJI","perfecture_jp":"佐賀県","jp_add_1":"東松浦郡玄海町","jp_add_2":"普恩寺"},"8471405":{"post_code":"8471405","prefecture":"SAGA KEN","city":"HIGASHIMATSURA GUN GENKAI CHO","town":"FUJIHIRA","perfecture_jp":"佐賀県","jp_add_1":"東松浦郡玄海町","jp_add_2":"藤平"},"8471446":{"post_code":"8471446","prefecture":"SAGA KEN","city":"HIGASHIMATSURA GUN GENKAI CHO","town":"HOKAWAZU","perfecture_jp":"佐賀県","jp_add_1":"東松浦郡玄海町","jp_add_2":"外津"},"8471416":{"post_code":"8471416","prefecture":"SAGA KEN","city":"HIGASHIMATSURA GUN GENKAI CHO","town":"MUKATA","perfecture_jp":"佐賀県","jp_add_1":"東松浦郡玄海町","jp_add_2":"牟形"},"8471421":{"post_code":"8471421","prefecture":"SAGA KEN","city":"HIGASHIMATSURA GUN GENKAI CHO","town":"MORORA","perfecture_jp":"佐賀県","jp_add_1":"東松浦郡玄海町","jp_add_2":"諸浦"},"8471414":{"post_code":"8471414","prefecture":"SAGA KEN","city":"HIGASHIMATSURA GUN GENKAI CHO","town":"YUNO","perfecture_jp":"佐賀県","jp_add_1":"東松浦郡玄海町","jp_add_2":"湯野尾"}}