{"8480000":{"post_code":"8480000","prefecture":"SAGA KEN","city":"IMARI SHI","town":"IKANIKEISAIGANAIBAAI","perfecture_jp":"佐賀県","jp_add_1":"伊万里市","jp_add_2":""},"8480047":{"post_code":"8480047","prefecture":"SAGA KEN","city":"IMARI SHI","town":"IMARICHO KO","perfecture_jp":"佐賀県","jp_add_1":"伊万里市","jp_add_2":"伊万里町甲"},"8480046":{"post_code":"8480046","prefecture":"SAGA KEN","city":"IMARI SHI","town":"IMARICHO OTSU","perfecture_jp":"佐賀県","jp_add_1":"伊万里市","jp_add_2":"伊万里町乙"},"8480024":{"post_code":"8480024","prefecture":"SAGA KEN","city":"IMARI SHI","town":"OKAWACHICHO KO","perfecture_jp":"佐賀県","jp_add_1":"伊万里市","jp_add_2":"大川内町甲"},"8480025":{"post_code":"8480025","prefecture":"SAGA KEN","city":"IMARI SHI","town":"OKAWACHICHO OTSU","perfecture_jp":"佐賀県","jp_add_1":"伊万里市","jp_add_2":"大川内町乙"},"8480026":{"post_code":"8480026","prefecture":"SAGA KEN","city":"IMARI SHI","town":"OKAWACHICHO HEI","perfecture_jp":"佐賀県","jp_add_1":"伊万里市","jp_add_2":"大川内町丙"},"8480021":{"post_code":"8480021","prefecture":"SAGA KEN","city":"IMARI SHI","town":"OTSUBOCHO KO","perfecture_jp":"佐賀県","jp_add_1":"伊万里市","jp_add_2":"大坪町甲"},"8480022":{"post_code":"8480022","prefecture":"SAGA KEN","city":"IMARI SHI","town":"OTSUBOCHO OTSU","perfecture_jp":"佐賀県","jp_add_1":"伊万里市","jp_add_2":"大坪町乙"},"8480023":{"post_code":"8480023","prefecture":"SAGA KEN","city":"IMARI SHI","town":"OTSUBOCHO HEI","perfecture_jp":"佐賀県","jp_add_1":"伊万里市","jp_add_2":"大坪町丙"},"8480044":{"post_code":"8480044","prefecture":"SAGA KEN","city":"IMARI SHI","town":"KISUCHO","perfecture_jp":"佐賀県","jp_add_1":"伊万里市","jp_add_2":"木須町"},"8480124":{"post_code":"8480124","prefecture":"SAGA KEN","city":"IMARI SHI","town":"KUROGAWACHO(NAMURADANCHI)","perfecture_jp":"佐賀県","jp_add_1":"伊万里市","jp_add_2":"黒川町"},"8480123":{"post_code":"8480123","prefecture":"SAGA KEN","city":"IMARI SHI","town":"KUROGAWACHO OKUROGAWA","perfecture_jp":"佐賀県","jp_add_1":"伊万里市","jp_add_2":"黒川町大黒川"},"8480146":{"post_code":"8480146","prefecture":"SAGA KEN","city":"IMARI SHI","town":"KUROGAWACHO KUROSHIO","perfecture_jp":"佐賀県","jp_add_1":"伊万里市","jp_add_2":"黒川町黒塩"},"8480125":{"post_code":"8480125","prefecture":"SAGA KEN","city":"IMARI SHI","town":"KUROGAWACHO KOKUROGAWA","perfecture_jp":"佐賀県","jp_add_1":"伊万里市","jp_add_2":"黒川町小黒川"},"8480121":{"post_code":"8480121","prefecture":"SAGA KEN","city":"IMARI SHI","town":"KUROGAWACHO SHIOYA","perfecture_jp":"佐賀県","jp_add_1":"伊万里市","jp_add_2":"黒川町塩屋"},"8480141":{"post_code":"8480141","prefecture":"SAGA KEN","city":"IMARI SHI","town":"KUROGAWACHO SHIMIZU","perfecture_jp":"佐賀県","jp_add_1":"伊万里市","jp_add_2":"黒川町清水"},"8480142":{"post_code":"8480142","prefecture":"SAGA KEN","city":"IMARI SHI","town":"KUROGAWACHO TACHIME","perfecture_jp":"佐賀県","jp_add_1":"伊万里市","jp_add_2":"黒川町立目"},"8480145":{"post_code":"8480145","prefecture":"SAGA KEN","city":"IMARI SHI","town":"KUROGAWACHO TSUBAKIHARA","perfecture_jp":"佐賀県","jp_add_1":"伊万里市","jp_add_2":"黒川町椿原"},"8480132":{"post_code":"8480132","prefecture":"SAGA KEN","city":"IMARI SHI","town":"KUROGAWACHO NAGAO","perfecture_jp":"佐賀県","jp_add_1":"伊万里市","jp_add_2":"黒川町長尾"},"8480131":{"post_code":"8480131","prefecture":"SAGA KEN","city":"IMARI SHI","town":"KUROGAWACHO HATAGAWACHI","perfecture_jp":"佐賀県","jp_add_1":"伊万里市","jp_add_2":"黒川町畑川内"},"8480134":{"post_code":"8480134","prefecture":"SAGA KEN","city":"IMARI SHI","town":"KUROGAWACHO HANABUSA","perfecture_jp":"佐賀県","jp_add_1":"伊万里市","jp_add_2":"黒川町花房"},"8480122":{"post_code":"8480122","prefecture":"SAGA KEN","city":"IMARI SHI","town":"KUROGAWACHO FUKUDA","perfecture_jp":"佐賀県","jp_add_1":"伊万里市","jp_add_2":"黒川町福田"},"8480133":{"post_code":"8480133","prefecture":"SAGA KEN","city":"IMARI SHI","town":"KUROGAWACHO MATENO","perfecture_jp":"佐賀県","jp_add_1":"伊万里市","jp_add_2":"黒川町真手野"},"8480143":{"post_code":"8480143","prefecture":"SAGA KEN","city":"IMARI SHI","town":"KUROGAWACHO MUTA","perfecture_jp":"佐賀県","jp_add_1":"伊万里市","jp_add_2":"黒川町牟田"},"8480144":{"post_code":"8480144","prefecture":"SAGA KEN","city":"IMARI SHI","town":"KUROGAWACHO YOKONO","perfecture_jp":"佐賀県","jp_add_1":"伊万里市","jp_add_2":"黒川町横野"},"8480041":{"post_code":"8480041","prefecture":"SAGA KEN","city":"IMARI SHI","town":"SHINTENCHO","perfecture_jp":"佐賀県","jp_add_1":"伊万里市","jp_add_2":"新天町"},"8480043":{"post_code":"8480043","prefecture":"SAGA KEN","city":"IMARI SHI","town":"SETOCHO","perfecture_jp":"佐賀県","jp_add_1":"伊万里市","jp_add_2":"瀬戸町"},"8480027":{"post_code":"8480027","prefecture":"SAGA KEN","city":"IMARI SHI","town":"TACHIBANACHO","perfecture_jp":"佐賀県","jp_add_1":"伊万里市","jp_add_2":"立花町"},"8480032":{"post_code":"8480032","prefecture":"SAGA KEN","city":"IMARI SHI","town":"NIRICHO OZATOKO","perfecture_jp":"佐賀県","jp_add_1":"伊万里市","jp_add_2":"二里町大里甲"},"8480035":{"post_code":"8480035","prefecture":"SAGA KEN","city":"IMARI SHI","town":"NIRICHO OZATOTSU","perfecture_jp":"佐賀県","jp_add_1":"伊万里市","jp_add_2":"二里町大里乙"},"8480034":{"post_code":"8480034","prefecture":"SAGA KEN","city":"IMARI SHI","town":"NIRICHO NAKAZATOKO","perfecture_jp":"佐賀県","jp_add_1":"伊万里市","jp_add_2":"二里町中里甲"},"8480033":{"post_code":"8480033","prefecture":"SAGA KEN","city":"IMARI SHI","town":"NIRICHO NAKAZATOTSU","perfecture_jp":"佐賀県","jp_add_1":"伊万里市","jp_add_2":"二里町中里乙"},"8480031":{"post_code":"8480031","prefecture":"SAGA KEN","city":"IMARI SHI","town":"NIRICHO HACHIYAGARAMI","perfecture_jp":"佐賀県","jp_add_1":"伊万里市","jp_add_2":"二里町八谷搦"},"8480042":{"post_code":"8480042","prefecture":"SAGA KEN","city":"IMARI SHI","town":"HASUIKECHO","perfecture_jp":"佐賀県","jp_add_1":"伊万里市","jp_add_2":"蓮池町"},"8480113":{"post_code":"8480113","prefecture":"SAGA KEN","city":"IMARI SHI","town":"HATATSUCHO ITAGI","perfecture_jp":"佐賀県","jp_add_1":"伊万里市","jp_add_2":"波多津町板木"},"8480116":{"post_code":"8480116","prefecture":"SAGA KEN","city":"IMARI SHI","town":"HATATSUCHO INO","perfecture_jp":"佐賀県","jp_add_1":"伊万里市","jp_add_2":"波多津町井野尾"},"8480103":{"post_code":"8480103","prefecture":"SAGA KEN","city":"IMARI SHI","town":"HATATSUCHO UCHINO","perfecture_jp":"佐賀県","jp_add_1":"伊万里市","jp_add_2":"波多津町内野"},"8480111":{"post_code":"8480111","prefecture":"SAGA KEN","city":"IMARI SHI","town":"HATATSUCHO KOBA","perfecture_jp":"佐賀県","jp_add_1":"伊万里市","jp_add_2":"波多津町木場"},"8480104":{"post_code":"8480104","prefecture":"SAGA KEN","city":"IMARI SHI","town":"HATATSUCHO SUSUYA","perfecture_jp":"佐賀県","jp_add_1":"伊万里市","jp_add_2":"波多津町煤屋"},"8480112":{"post_code":"8480112","prefecture":"SAGA KEN","city":"IMARI SHI","town":"HATATSUCHO TASHIRO","perfecture_jp":"佐賀県","jp_add_1":"伊万里市","jp_add_2":"波多津町田代"},"8480101":{"post_code":"8480101","prefecture":"SAGA KEN","city":"IMARI SHI","town":"HATATSUCHO TSUJI","perfecture_jp":"佐賀県","jp_add_1":"伊万里市","jp_add_2":"波多津町辻"},"8480117":{"post_code":"8480117","prefecture":"SAGA KEN","city":"IMARI SHI","town":"HATATSUCHO TSUTSUI","perfecture_jp":"佐賀県","jp_add_1":"伊万里市","jp_add_2":"波多津町筒井"},"8480114":{"post_code":"8480114","prefecture":"SAGA KEN","city":"IMARI SHI","town":"HATATSUCHO TSURUNUSHIYA","perfecture_jp":"佐賀県","jp_add_1":"伊万里市","jp_add_2":"波多津町津留主屋"},"8480115":{"post_code":"8480115","prefecture":"SAGA KEN","city":"IMARI SHI","town":"HATATSUCHO NAKAYAMA","perfecture_jp":"佐賀県","jp_add_1":"伊万里市","jp_add_2":"波多津町中山"},"8480102":{"post_code":"8480102","prefecture":"SAGA KEN","city":"IMARI SHI","town":"HATATSUCHO HATATSU","perfecture_jp":"佐賀県","jp_add_1":"伊万里市","jp_add_2":"波多津町畑津"},"8480105":{"post_code":"8480105","prefecture":"SAGA KEN","city":"IMARI SHI","town":"HATATSUCHO MATEGATA","perfecture_jp":"佐賀県","jp_add_1":"伊万里市","jp_add_2":"波多津町馬蛤潟"},"8480045":{"post_code":"8480045","prefecture":"SAGA KEN","city":"IMARI SHI","town":"MATSUSHIMACHO","perfecture_jp":"佐賀県","jp_add_1":"伊万里市","jp_add_2":"松島町"},"8480007":{"post_code":"8480007","prefecture":"SAGA KEN","city":"IMARI SHI","town":"MINAMIHATACHO IDENO","perfecture_jp":"佐賀県","jp_add_1":"伊万里市","jp_add_2":"南波多町井手野"},"8480011":{"post_code":"8480011","prefecture":"SAGA KEN","city":"IMARI SHI","town":"MINAMIHATACHO OKAWABARU","perfecture_jp":"佐賀県","jp_add_1":"伊万里市","jp_add_2":"南波多町大川原"},"8480005":{"post_code":"8480005","prefecture":"SAGA KEN","city":"IMARI SHI","town":"MINAMIHATACHO OMAGARI","perfecture_jp":"佐賀県","jp_add_1":"伊万里市","jp_add_2":"南波多町大曲"},"8480013":{"post_code":"8480013","prefecture":"SAGA KEN","city":"IMARI SHI","town":"MINAMIHATACHO KASAJI","perfecture_jp":"佐賀県","jp_add_1":"伊万里市","jp_add_2":"南波多町笠椎"},"8480014":{"post_code":"8480014","prefecture":"SAGA KEN","city":"IMARI SHI","town":"MINAMIHATACHO KOMUGIHARU","perfecture_jp":"佐賀県","jp_add_1":"伊万里市","jp_add_2":"南波多町小麦原"},"8480001":{"post_code":"8480001","prefecture":"SAGA KEN","city":"IMARI SHI","town":"MINAMIHATACHO JUBASHI","perfecture_jp":"佐賀県","jp_add_1":"伊万里市","jp_add_2":"南波多町重橋"},"8480006":{"post_code":"8480006","prefecture":"SAGA KEN","city":"IMARI SHI","town":"MINAMIHATACHO TAKAZE","perfecture_jp":"佐賀県","jp_add_1":"伊万里市","jp_add_2":"南波多町高瀬"},"8480002":{"post_code":"8480002","prefecture":"SAGA KEN","city":"IMARI SHI","town":"MINAMIHATACHO TANIGUCHI","perfecture_jp":"佐賀県","jp_add_1":"伊万里市","jp_add_2":"南波多町谷口"},"8480004":{"post_code":"8480004","prefecture":"SAGA KEN","city":"IMARI SHI","town":"MINAMIHATACHO TSUZUMI","perfecture_jp":"佐賀県","jp_add_1":"伊万里市","jp_add_2":"南波多町水留"},"8480016":{"post_code":"8480016","prefecture":"SAGA KEN","city":"IMARI SHI","town":"MINAMIHATACHO HARAYASHIKI","perfecture_jp":"佐賀県","jp_add_1":"伊万里市","jp_add_2":"南波多町原屋敷"},"8480015":{"post_code":"8480015","prefecture":"SAGA KEN","city":"IMARI SHI","town":"MINAMIHATACHO FUMANEKI","perfecture_jp":"佐賀県","jp_add_1":"伊万里市","jp_add_2":"南波多町府招"},"8480012":{"post_code":"8480012","prefecture":"SAGA KEN","city":"IMARI SHI","town":"MINAMIHATACHO FURUKO","perfecture_jp":"佐賀県","jp_add_1":"伊万里市","jp_add_2":"南波多町古川"},"8480003":{"post_code":"8480003","prefecture":"SAGA KEN","city":"IMARI SHI","town":"MINAMIHATACHO FURUSATO","perfecture_jp":"佐賀県","jp_add_1":"伊万里市","jp_add_2":"南波多町古里"},"8480028":{"post_code":"8480028","prefecture":"SAGA KEN","city":"IMARI SHI","town":"WAKIDACHO","perfecture_jp":"佐賀県","jp_add_1":"伊万里市","jp_add_2":"脇田町"},"8480404":{"post_code":"8480404","prefecture":"NAGASAKI KEN","city":"MATSURA SHI","town":"FUKUSHIMACHO ASAGAIMEN","perfecture_jp":"長崎県","jp_add_1":"松浦市","jp_add_2":"福島町浅谷免"},"8480401":{"post_code":"8480401","prefecture":"NAGASAKI KEN","city":"MATSURA SHI","town":"FUKUSHIMACHO KINAISEMEN","perfecture_jp":"長崎県","jp_add_1":"松浦市","jp_add_2":"福島町喜内瀬免"},"8480408":{"post_code":"8480408","prefecture":"NAGASAKI KEN","city":"MATSURA SHI","town":"FUKUSHIMACHO SATOMEN","perfecture_jp":"長崎県","jp_add_1":"松浦市","jp_add_2":"福島町里免"},"8480403":{"post_code":"8480403","prefecture":"NAGASAKI KEN","city":"MATSURA SHI","town":"FUKUSHIMACHO SHIOHAMAMEN","perfecture_jp":"長崎県","jp_add_1":"松浦市","jp_add_2":"福島町塩浜免"},"8480405":{"post_code":"8480405","prefecture":"NAGASAKI KEN","city":"MATSURA SHI","town":"FUKUSHIMACHO DOYAMEN","perfecture_jp":"長崎県","jp_add_1":"松浦市","jp_add_2":"福島町土谷免"},"8480407":{"post_code":"8480407","prefecture":"NAGASAKI KEN","city":"MATSURA SHI","town":"FUKUSHIMACHO NABEGUSHIMEN","perfecture_jp":"長崎県","jp_add_1":"松浦市","jp_add_2":"福島町鍋串免"},"8480402":{"post_code":"8480402","prefecture":"NAGASAKI KEN","city":"MATSURA SHI","town":"FUKUSHIMACHO HASHIMEN","perfecture_jp":"長崎県","jp_add_1":"松浦市","jp_add_2":"福島町端免"},"8480406":{"post_code":"8480406","prefecture":"NAGASAKI KEN","city":"MATSURA SHI","town":"FUKUSHIMACHO HARUMEN","perfecture_jp":"長崎県","jp_add_1":"松浦市","jp_add_2":"福島町原免"}}