{"8511122":{"post_code":"8511122","prefecture":"NAGASAKI KEN","city":"NAGASAKI SHI","town":"AIGAWAMACHI","perfecture_jp":"長崎県","jp_add_1":"長崎市","jp_add_2":"相川町"},"8512321":{"post_code":"8512321","prefecture":"NAGASAKI KEN","city":"NAGASAKI SHI","town":"AKAKUBIMACHI","perfecture_jp":"長崎県","jp_add_1":"長崎市","jp_add_2":"赤首町"},"8512212":{"post_code":"8512212","prefecture":"NAGASAKI KEN","city":"NAGASAKI SHI","town":"AZEKARIMACHI","perfecture_jp":"長崎県","jp_add_1":"長崎市","jp_add_2":"畝刈町"},"8512201":{"post_code":"8512201","prefecture":"NAGASAKI KEN","city":"NAGASAKI SHI","town":"AZEMACHI","perfecture_jp":"長崎県","jp_add_1":"長崎市","jp_add_2":"畦町"},"8510123":{"post_code":"8510123","prefecture":"NAGASAKI KEN","city":"NAGASAKI SHI","town":"ABAMACHI","perfecture_jp":"長崎県","jp_add_1":"長崎市","jp_add_2":"網場町"},"8511201":{"post_code":"8511201","prefecture":"NAGASAKI KEN","city":"NAGASAKI SHI","town":"IOJIMAMACHI","perfecture_jp":"長崎県","jp_add_1":"長崎市","jp_add_2":"伊王島町"},"8510254":{"post_code":"8510254","prefecture":"NAGASAKI KEN","city":"NAGASAKI SHI","town":"IKANORAMACHI","perfecture_jp":"長崎県","jp_add_1":"長崎市","jp_add_2":"飯香浦町"},"8510502":{"post_code":"8510502","prefecture":"NAGASAKI KEN","city":"NAGASAKI SHI","town":"IGAYADOMACHI","perfecture_jp":"長崎県","jp_add_1":"長崎市","jp_add_2":"以下宿町"},"8510135":{"post_code":"8510135","prefecture":"NAGASAKI KEN","city":"NAGASAKI SHI","town":"UTSUTSUGAWAMACHI","perfecture_jp":"長崎県","jp_add_1":"長崎市","jp_add_2":"現川町"},"8510302":{"post_code":"8510302","prefecture":"NAGASAKI KEN","city":"NAGASAKI SHI","town":"OGOMORIMACHI","perfecture_jp":"長崎県","jp_add_1":"長崎市","jp_add_2":"大籠町"},"8510244":{"post_code":"8510244","prefecture":"NAGASAKI KEN","city":"NAGASAKI SHI","town":"OSAKIMACHI","perfecture_jp":"長崎県","jp_add_1":"長崎市","jp_add_2":"大崎町"},"8510255":{"post_code":"8510255","prefecture":"NAGASAKI KEN","city":"NAGASAKI SHI","town":"OTAOMACHI","perfecture_jp":"長崎県","jp_add_1":"長崎市","jp_add_2":"太田尾町"},"8510115":{"post_code":"8510115","prefecture":"NAGASAKI KEN","city":"NAGASAKI SHI","town":"KAKIDO","perfecture_jp":"長崎県","jp_add_1":"長崎市","jp_add_2":"かき道"},"8511134":{"post_code":"8511134","prefecture":"NAGASAKI KEN","city":"NAGASAKI SHI","town":"KAKIDOMARIMACHI","perfecture_jp":"長崎県","jp_add_1":"長崎市","jp_add_2":"柿泊町"},"8512202":{"post_code":"8512202","prefecture":"NAGASAKI KEN","city":"NAGASAKI SHI","town":"KASHIYAMAMACHI","perfecture_jp":"長崎県","jp_add_1":"長崎市","jp_add_2":"樫山町"},"8510124":{"post_code":"8510124","prefecture":"NAGASAKI KEN","city":"NAGASAKI SHI","town":"KASUGAMACHI","perfecture_jp":"長崎県","jp_add_1":"長崎市","jp_add_2":"春日町"},"8511131":{"post_code":"8511131","prefecture":"NAGASAKI KEN","city":"NAGASAKI SHI","town":"KAMIURAMACHI","perfecture_jp":"長崎県","jp_add_1":"長崎市","jp_add_2":"上浦町"},"8512426":{"post_code":"8512426","prefecture":"NAGASAKI KEN","city":"NAGASAKI SHI","town":"KAMIONOMACHI","perfecture_jp":"長崎県","jp_add_1":"長崎市","jp_add_2":"上大野町"},"8512324":{"post_code":"8512324","prefecture":"NAGASAKI KEN","city":"NAGASAKI SHI","town":"KAMIKUROSAKIMACHI","perfecture_jp":"長崎県","jp_add_1":"長崎市","jp_add_2":"上黒崎町"},"8510111":{"post_code":"8510111","prefecture":"NAGASAKI KEN","city":"NAGASAKI SHI","town":"KAMITOISHIMACHI","perfecture_jp":"長崎県","jp_add_1":"長崎市","jp_add_2":"上戸石町"},"8510401":{"post_code":"8510401","prefecture":"NAGASAKI KEN","city":"NAGASAKI SHI","town":"KAYAKIMACHI","perfecture_jp":"長崎県","jp_add_1":"長崎市","jp_add_2":"蚊焼町"},"8510112":{"post_code":"8510112","prefecture":"NAGASAKI KEN","city":"NAGASAKI SHI","town":"KAWACHIMACHI","perfecture_jp":"長崎県","jp_add_1":"長崎市","jp_add_2":"川内町"},"8510407":{"post_code":"8510407","prefecture":"NAGASAKI KEN","city":"NAGASAKI SHI","town":"KAWARAMACHI","perfecture_jp":"長崎県","jp_add_1":"長崎市","jp_add_2":"川原町"},"8510242":{"post_code":"8510242","prefecture":"NAGASAKI KEN","city":"NAGASAKI SHI","town":"KITAURAMACHI","perfecture_jp":"長崎県","jp_add_1":"長崎市","jp_add_2":"北浦町"},"8512211":{"post_code":"8512211","prefecture":"NAGASAKI KEN","city":"NAGASAKI SHI","town":"KYODOMARI","perfecture_jp":"長崎県","jp_add_1":"長崎市","jp_add_2":"京泊"},"8513214":{"post_code":"8513214","prefecture":"NAGASAKI KEN","city":"NAGASAKI SHI","town":"KINKAI OHIRAMACHI","perfecture_jp":"長崎県","jp_add_1":"長崎市","jp_add_2":"琴海大平町"},"8513215":{"post_code":"8513215","prefecture":"NAGASAKI KEN","city":"NAGASAKI SHI","town":"KINKAI ODOMACHI","perfecture_jp":"長崎県","jp_add_1":"長崎市","jp_add_2":"琴海尾戸町"},"8513213":{"post_code":"8513213","prefecture":"NAGASAKI KEN","city":"NAGASAKI SHI","town":"KINKAI KATAGAMIMACHI","perfecture_jp":"長崎県","jp_add_1":"長崎市","jp_add_2":"琴海形上町"},"8513211":{"post_code":"8513211","prefecture":"NAGASAKI KEN","city":"NAGASAKI SHI","town":"KINKAI TONEHARAMACHI","perfecture_jp":"長崎県","jp_add_1":"長崎市","jp_add_2":"琴海戸根原町"},"8513103":{"post_code":"8513103","prefecture":"NAGASAKI KEN","city":"NAGASAKI SHI","town":"KINKAI TONEMACHI","perfecture_jp":"長崎県","jp_add_1":"長崎市","jp_add_2":"琴海戸根町"},"8513102":{"post_code":"8513102","prefecture":"NAGASAKI KEN","city":"NAGASAKI SHI","town":"KINKAI MURAMATSUMACHI","perfecture_jp":"長崎県","jp_add_1":"長崎市","jp_add_2":"琴海村松町"},"8510501":{"post_code":"8510501","prefecture":"NAGASAKI KEN","city":"NAGASAKI SHI","town":"KUROHAMAMACHI","perfecture_jp":"長崎県","jp_add_1":"長崎市","jp_add_2":"黒浜町"},"8512403":{"post_code":"8512403","prefecture":"NAGASAKI KEN","city":"NAGASAKI SHI","town":"KONORAEGAWAMACHI","perfecture_jp":"長崎県","jp_add_1":"長崎市","jp_add_2":"神浦江川町"},"8512411":{"post_code":"8512411","prefecture":"NAGASAKI KEN","city":"NAGASAKI SHI","town":"KONORAOGIYAMAMACHI","perfecture_jp":"長崎県","jp_add_1":"長崎市","jp_add_2":"神浦扇山町"},"8512422":{"post_code":"8512422","prefecture":"NAGASAKI KEN","city":"NAGASAKI SHI","town":"KONORAKAMIONAKAOMACHI","perfecture_jp":"長崎県","jp_add_1":"長崎市","jp_add_2":"神浦上大中尾町"},"8512424":{"post_code":"8512424","prefecture":"NAGASAKI KEN","city":"NAGASAKI SHI","town":"KONORAKAMIDOTOKUMACHI","perfecture_jp":"長崎県","jp_add_1":"長崎市","jp_add_2":"神浦上道徳町"},"8512421":{"post_code":"8512421","prefecture":"NAGASAKI KEN","city":"NAGASAKI SHI","town":"KONORAKITAONAKAOMACHI","perfecture_jp":"長崎県","jp_add_1":"長崎市","jp_add_2":"神浦北大中尾町"},"8512401":{"post_code":"8512401","prefecture":"NAGASAKI KEN","city":"NAGASAKI SHI","town":"KONORAKUCHIBUKUMACHI","perfecture_jp":"長崎県","jp_add_1":"長崎市","jp_add_2":"神浦口福町"},"8512423":{"post_code":"8512423","prefecture":"NAGASAKI KEN","city":"NAGASAKI SHI","town":"KONORASHIMOONAKAOMACHI","perfecture_jp":"長崎県","jp_add_1":"長崎市","jp_add_2":"神浦下大中尾町"},"8512425":{"post_code":"8512425","prefecture":"NAGASAKI KEN","city":"NAGASAKI SHI","town":"KONORASHIMODOTOKUMACHI","perfecture_jp":"長崎県","jp_add_1":"長崎市","jp_add_2":"神浦下道徳町"},"8512413":{"post_code":"8512413","prefecture":"NAGASAKI KEN","city":"NAGASAKI SHI","town":"KONORANATSUIMACHI","perfecture_jp":"長崎県","jp_add_1":"長崎市","jp_add_2":"神浦夏井町"},"8512404":{"post_code":"8512404","prefecture":"NAGASAKI KEN","city":"NAGASAKI SHI","town":"KONORAMARUOMACHI","perfecture_jp":"長崎県","jp_add_1":"長崎市","jp_add_2":"神浦丸尾町"},"8512405":{"post_code":"8512405","prefecture":"NAGASAKI KEN","city":"NAGASAKI SHI","town":"KONORAMUKAIMACHI","perfecture_jp":"長崎県","jp_add_1":"長崎市","jp_add_2":"神浦向町"},"8510310":{"post_code":"8510310","prefecture":"NAGASAKI KEN","city":"NAGASAKI SHI","town":"KOYAGIMACHI","perfecture_jp":"長崎県","jp_add_1":"長崎市","jp_add_2":"香焼町"},"8511132":{"post_code":"8511132","prefecture":"NAGASAKI KEN","city":"NAGASAKI SHI","town":"KOEBARU","perfecture_jp":"長崎県","jp_add_1":"長崎市","jp_add_2":"小江原"},"8511133":{"post_code":"8511133","prefecture":"NAGASAKI KEN","city":"NAGASAKI SHI","town":"KOEMACHI","perfecture_jp":"長崎県","jp_add_1":"長崎市","jp_add_2":"小江町"},"8510101":{"post_code":"8510101","prefecture":"NAGASAKI KEN","city":"NAGASAKI SHI","town":"KOGAMACHI","perfecture_jp":"長崎県","jp_add_1":"長崎市","jp_add_2":"古賀町"},"8510122":{"post_code":"8510122","prefecture":"NAGASAKI KEN","city":"NAGASAKI SHI","town":"SAKAI","perfecture_jp":"長崎県","jp_add_1":"長崎市","jp_add_2":"界"},"8512207":{"post_code":"8512207","prefecture":"NAGASAKI KEN","city":"NAGASAKI SHI","town":"SAKURANOSATO","perfecture_jp":"長崎県","jp_add_1":"長崎市","jp_add_2":"さくらの里"},"8512206":{"post_code":"8512206","prefecture":"NAGASAKI KEN","city":"NAGASAKI SHI","town":"SANKYOMACHI","perfecture_jp":"長崎県","jp_add_1":"長崎市","jp_add_2":"三京町"},"8510125":{"post_code":"8510125","prefecture":"NAGASAKI KEN","city":"NAGASAKI SHI","town":"SHIOMIMACHI","perfecture_jp":"長崎県","jp_add_1":"長崎市","jp_add_2":"潮見町"},"8511137":{"post_code":"8511137","prefecture":"NAGASAKI KEN","city":"NAGASAKI SHI","town":"SHIKIMIMACHI","perfecture_jp":"長崎県","jp_add_1":"長崎市","jp_add_2":"式見町"},"8512427":{"post_code":"8512427","prefecture":"NAGASAKI KEN","city":"NAGASAKI SHI","town":"SHIMOONOMACHI","perfecture_jp":"長崎県","jp_add_1":"長崎市","jp_add_2":"下大野町"},"8512326":{"post_code":"8512326","prefecture":"NAGASAKI KEN","city":"NAGASAKI SHI","town":"SHIMOKUROSAKIMACHI","perfecture_jp":"長崎県","jp_add_1":"長崎市","jp_add_2":"下黒崎町"},"8510121":{"post_code":"8510121","prefecture":"NAGASAKI KEN","city":"NAGASAKI SHI","town":"SHUKUMACHI","perfecture_jp":"長崎県","jp_add_1":"長崎市","jp_add_2":"宿町"},"8512323":{"post_code":"8512323","prefecture":"NAGASAKI KEN","city":"NAGASAKI SHI","town":"SHIMMAKINOMACHI","perfecture_jp":"長崎県","jp_add_1":"長崎市","jp_add_2":"新牧野町"},"8510126":{"post_code":"8510126","prefecture":"NAGASAKI KEN","city":"NAGASAKI SHI","town":"SUSUKIZUKAMACHI","perfecture_jp":"長崎県","jp_add_1":"長崎市","jp_add_2":"芒塚町"},"8511125":{"post_code":"8511125","prefecture":"NAGASAKI KEN","city":"NAGASAKI SHI","town":"SONODAMACHI","perfecture_jp":"長崎県","jp_add_1":"長崎市","jp_add_2":"園田町"},"8512213":{"post_code":"8512213","prefecture":"NAGASAKI KEN","city":"NAGASAKI SHI","town":"TAIRAMACHI","perfecture_jp":"長崎県","jp_add_1":"長崎市","jp_add_2":"多以良町"},"8511315":{"post_code":"8511315","prefecture":"NAGASAKI KEN","city":"NAGASAKI SHI","town":"TAKASHIMAMACHI","perfecture_jp":"長崎県","jp_add_1":"長崎市","jp_add_2":"高島町"},"8510137":{"post_code":"8510137","prefecture":"NAGASAKI KEN","city":"NAGASAKI SHI","town":"TAKASHIRODAI","perfecture_jp":"長崎県","jp_add_1":"長崎市","jp_add_2":"高城台"},"8510503":{"post_code":"8510503","prefecture":"NAGASAKI KEN","city":"NAGASAKI SHI","town":"TAKAHAMAMACHI","perfecture_jp":"長崎県","jp_add_1":"長崎市","jp_add_2":"高浜町"},"8510251":{"post_code":"8510251","prefecture":"NAGASAKI KEN","city":"NAGASAKI SHI","town":"TAGAMI","perfecture_jp":"長崎県","jp_add_1":"長崎市","jp_add_2":"田上"},"8510252":{"post_code":"8510252","prefecture":"NAGASAKI KEN","city":"NAGASAKI SHI","town":"TADEWARAMACHI","perfecture_jp":"長崎県","jp_add_1":"長崎市","jp_add_2":"田手原町"},"8510134":{"post_code":"8510134","prefecture":"NAGASAKI KEN","city":"NAGASAKI SHI","town":"TANAKAMACHI","perfecture_jp":"長崎県","jp_add_1":"長崎市","jp_add_2":"田中町"},"8510405":{"post_code":"8510405","prefecture":"NAGASAKI KEN","city":"NAGASAKI SHI","town":"TAMESHIMACHI","perfecture_jp":"長崎県","jp_add_1":"長崎市","jp_add_2":"為石町"},"8510245":{"post_code":"8510245","prefecture":"NAGASAKI KEN","city":"NAGASAKI SHI","town":"CHIJIMACHI","perfecture_jp":"長崎県","jp_add_1":"長崎市","jp_add_2":"千々町"},"8510102":{"post_code":"8510102","prefecture":"NAGASAKI KEN","city":"NAGASAKI SHI","town":"TSUTSUJIGAOKA","perfecture_jp":"長崎県","jp_add_1":"長崎市","jp_add_2":"つつじが丘"},"8510406":{"post_code":"8510406","prefecture":"NAGASAKI KEN","city":"NAGASAKI SHI","town":"TSUBAKIGAOKAMACHI","perfecture_jp":"長崎県","jp_add_1":"長崎市","jp_add_2":"椿が丘町"},"8510132":{"post_code":"8510132","prefecture":"NAGASAKI KEN","city":"NAGASAKI SHI","town":"TSURUNOMACHI","perfecture_jp":"長崎県","jp_add_1":"長崎市","jp_add_2":"鶴の尾町"},"8511135":{"post_code":"8511135","prefecture":"NAGASAKI KEN","city":"NAGASAKI SHI","town":"TEGUMAMACHI","perfecture_jp":"長崎県","jp_add_1":"長崎市","jp_add_2":"手熊町"},"8510113":{"post_code":"8510113","prefecture":"NAGASAKI KEN","city":"NAGASAKI SHI","town":"TOISHIMACHI","perfecture_jp":"長崎県","jp_add_1":"長崎市","jp_add_2":"戸石町"},"8510404":{"post_code":"8510404","prefecture":"NAGASAKI KEN","city":"NAGASAKI SHI","town":"TODAOMACHI","perfecture_jp":"長崎県","jp_add_1":"長崎市","jp_add_2":"藤田尾町"},"8513212":{"post_code":"8513212","prefecture":"NAGASAKI KEN","city":"NAGASAKI SHI","town":"NAGAURAMACHI","perfecture_jp":"長崎県","jp_add_1":"長崎市","jp_add_2":"長浦町"},"8510103":{"post_code":"8510103","prefecture":"NAGASAKI KEN","city":"NAGASAKI SHI","town":"NAKAZATOMACHI","perfecture_jp":"長崎県","jp_add_1":"長崎市","jp_add_2":"中里町"},"8512325":{"post_code":"8512325","prefecture":"NAGASAKI KEN","city":"NAGASAKI SHI","town":"NAGATAMACHI","perfecture_jp":"長崎県","jp_add_1":"長崎市","jp_add_2":"永田町"},"8512215":{"post_code":"8512215","prefecture":"NAGASAKI KEN","city":"NAGASAKI SHI","town":"NARUMIDAI","perfecture_jp":"長崎県","jp_add_1":"長崎市","jp_add_2":"鳴見台"},"8512214":{"post_code":"8512214","prefecture":"NAGASAKI KEN","city":"NAGASAKI SHI","town":"NARUMIMACHI","perfecture_jp":"長崎県","jp_add_1":"長崎市","jp_add_2":"鳴見町"},"8510504":{"post_code":"8510504","prefecture":"NAGASAKI KEN","city":"NAGASAKI SHI","town":"NANGOSHIMACHI","perfecture_jp":"長崎県","jp_add_1":"長崎市","jp_add_2":"南越町"},"8513101":{"post_code":"8513101","prefecture":"NAGASAKI KEN","city":"NAGASAKI SHI","town":"NISHIUMIMACHI","perfecture_jp":"長崎県","jp_add_1":"長崎市","jp_add_2":"西海町"},"8512322":{"post_code":"8512322","prefecture":"NAGASAKI KEN","city":"NAGASAKI SHI","town":"NISHISHITSUMACHI","perfecture_jp":"長崎県","jp_add_1":"長崎市","jp_add_2":"西出津町"},"8510403":{"post_code":"8510403","prefecture":"NAGASAKI KEN","city":"NAGASAKI SHI","town":"NUNOMAKIMACHI","perfecture_jp":"長崎県","jp_add_1":"長崎市","jp_add_2":"布巻町"},"8510507":{"post_code":"8510507","prefecture":"NAGASAKI KEN","city":"NAGASAKI SHI","town":"NOMOZAKIKABASHIMAMACHI","perfecture_jp":"長崎県","jp_add_1":"長崎市","jp_add_2":"野母崎樺島町"},"8510505":{"post_code":"8510505","prefecture":"NAGASAKI KEN","city":"NAGASAKI SHI","town":"NOMOMACHI","perfecture_jp":"長崎県","jp_add_1":"長崎市","jp_add_2":"野母町"},"8510253":{"post_code":"8510253","prefecture":"NAGASAKI KEN","city":"NAGASAKI SHI","town":"HAYASAKAMACHI","perfecture_jp":"長崎県","jp_add_1":"長崎市","jp_add_2":"早坂町"},"8510402":{"post_code":"8510402","prefecture":"NAGASAKI KEN","city":"NAGASAKI SHI","town":"HARUMIDAIMACHI","perfecture_jp":"長崎県","jp_add_1":"長崎市","jp_add_2":"晴海台町"},"8512327":{"post_code":"8512327","prefecture":"NAGASAKI KEN","city":"NAGASAKI SHI","town":"HIGASHISHITSUMACHI","perfecture_jp":"長崎県","jp_add_1":"長崎市","jp_add_2":"東出津町"},"8510116":{"post_code":"8510116","prefecture":"NAGASAKI KEN","city":"NAGASAKI SHI","town":"HIGASHIMACHI","perfecture_jp":"長崎県","jp_add_1":"長崎市","jp_add_2":"東町"},"8510136":{"post_code":"8510136","prefecture":"NAGASAKI KEN","city":"NAGASAKI SHI","town":"HIRAMAMACHI","perfecture_jp":"長崎県","jp_add_1":"長崎市","jp_add_2":"平間町"},"8510301":{"post_code":"8510301","prefecture":"NAGASAKI KEN","city":"NAGASAKI SHI","town":"FUKAHORIMACHI","perfecture_jp":"長崎県","jp_add_1":"長崎市","jp_add_2":"深堀町"},"8510104":{"post_code":"8510104","prefecture":"NAGASAKI KEN","city":"NAGASAKI SHI","town":"FUNAISHIMACHI","perfecture_jp":"長崎県","jp_add_1":"長崎市","jp_add_2":"船石町"},"8512216":{"post_code":"8512216","prefecture":"NAGASAKI KEN","city":"NAGASAKI SHI","town":"HOYODAI","perfecture_jp":"長崎県","jp_add_1":"長崎市","jp_add_2":"豊洋台"},"8510114":{"post_code":"8510114","prefecture":"NAGASAKI KEN","city":"NAGASAKI SHI","town":"MAKISHIMAMACHI","perfecture_jp":"長崎県","jp_add_1":"長崎市","jp_add_2":"牧島町"},"8511124":{"post_code":"8511124","prefecture":"NAGASAKI KEN","city":"NAGASAKI SHI","town":"MAKINOMACHI","perfecture_jp":"長崎県","jp_add_1":"長崎市","jp_add_2":"牧野町"},"8512205":{"post_code":"8512205","prefecture":"NAGASAKI KEN","city":"NAGASAKI SHI","town":"MATSUZAKIMACHI","perfecture_jp":"長崎県","jp_add_1":"長崎市","jp_add_2":"松崎町"},"8510131":{"post_code":"8510131","prefecture":"NAGASAKI KEN","city":"NAGASAKI SHI","town":"MATSUBARAMACHI","perfecture_jp":"長崎県","jp_add_1":"長崎市","jp_add_2":"松原町"},"8512203":{"post_code":"8512203","prefecture":"NAGASAKI KEN","city":"NAGASAKI SHI","town":"MIEDAMACHI","perfecture_jp":"長崎県","jp_add_1":"長崎市","jp_add_2":"三重田町"},"8512204":{"post_code":"8512204","prefecture":"NAGASAKI KEN","city":"NAGASAKI SHI","town":"MIEMACHI","perfecture_jp":"長崎県","jp_add_1":"長崎市","jp_add_2":"三重町"},"8511121":{"post_code":"8511121","prefecture":"NAGASAKI KEN","city":"NAGASAKI SHI","town":"MISAKIMACHI","perfecture_jp":"長崎県","jp_add_1":"長崎市","jp_add_2":"見崎町"},"8510408":{"post_code":"8510408","prefecture":"NAGASAKI KEN","city":"NAGASAKI SHI","town":"MIYAZAKIMACHI","perfecture_jp":"長崎県","jp_add_1":"長崎市","jp_add_2":"宮崎町"},"8510243":{"post_code":"8510243","prefecture":"NAGASAKI KEN","city":"NAGASAKI SHI","town":"MIYAZURIMACHI","perfecture_jp":"長崎県","jp_add_1":"長崎市","jp_add_2":"宮摺町"},"8511136":{"post_code":"8511136","prefecture":"NAGASAKI KEN","city":"NAGASAKI SHI","town":"MUKAEMACHI","perfecture_jp":"長崎県","jp_add_1":"長崎市","jp_add_2":"向町"},"8510241":{"post_code":"8510241","prefecture":"NAGASAKI KEN","city":"NAGASAKI SHI","town":"MOGIMACHI","perfecture_jp":"長崎県","jp_add_1":"長崎市","jp_add_2":"茂木町"},"8510133":{"post_code":"8510133","prefecture":"NAGASAKI KEN","city":"NAGASAKI SHI","town":"YAGAMIMACHI","perfecture_jp":"長崎県","jp_add_1":"長崎市","jp_add_2":"矢上町"},"8511123":{"post_code":"8511123","prefecture":"NAGASAKI KEN","city":"NAGASAKI SHI","town":"YOTSUEMACHI","perfecture_jp":"長崎県","jp_add_1":"長崎市","jp_add_2":"四杖町"},"8510506":{"post_code":"8510506","prefecture":"NAGASAKI KEN","city":"NAGASAKI SHI","town":"WAKIMISAKIMACHI","perfecture_jp":"長崎県","jp_add_1":"長崎市","jp_add_2":"脇岬町"},"8513500":{"post_code":"8513500","prefecture":"NAGASAKI KEN","city":"SAIKAI SHI","town":"IKANIKEISAIGANAIBAAI","perfecture_jp":"長崎県","jp_add_1":"西海市","jp_add_2":""},"8513507":{"post_code":"8513507","prefecture":"NAGASAKI KEN","city":"SAIKAI SHI","town":"SAIKAICHO AMAKUBOGO","perfecture_jp":"長崎県","jp_add_1":"西海市","jp_add_2":"西海町天久保郷"},"8513503":{"post_code":"8513503","prefecture":"NAGASAKI KEN","city":"SAIKAI SHI","town":"SAIKAICHO OTAHARAGO","perfecture_jp":"長崎県","jp_add_1":"西海市","jp_add_2":"西海町太田原郷"},"8513505":{"post_code":"8513505","prefecture":"NAGASAKI KEN","city":"SAIKAI SHI","town":"SAIKAICHO OTAWAGO","perfecture_jp":"長崎県","jp_add_1":"西海市","jp_add_2":"西海町太田和郷"},"8513508":{"post_code":"8513508","prefecture":"NAGASAKI KEN","city":"SAIKAI SHI","town":"SAIKAICHO OMODAKAGO","perfecture_jp":"長崎県","jp_add_1":"西海市","jp_add_2":"西海町面高郷"},"8513502":{"post_code":"8513502","prefecture":"NAGASAKI KEN","city":"SAIKAI SHI","town":"SAIKAICHO KAWACHIGO","perfecture_jp":"長崎県","jp_add_1":"西海市","jp_add_2":"西海町川内郷"},"8513506":{"post_code":"8513506","prefecture":"NAGASAKI KEN","city":"SAIKAI SHI","town":"SAIKAICHO KUROKUCHIGO","perfecture_jp":"長崎県","jp_add_1":"西海市","jp_add_2":"西海町黒口郷"},"8513504":{"post_code":"8513504","prefecture":"NAGASAKI KEN","city":"SAIKAI SHI","town":"SAIKAICHO KOBAGO","perfecture_jp":"長崎県","jp_add_1":"西海市","jp_add_2":"西海町木場郷"},"8513501":{"post_code":"8513501","prefecture":"NAGASAKI KEN","city":"SAIKAI SHI","town":"SAIKAICHO TANNOGO","perfecture_jp":"長崎県","jp_add_1":"西海市","jp_add_2":"西海町丹納郷"},"8513511":{"post_code":"8513511","prefecture":"NAGASAKI KEN","city":"SAIKAI SHI","town":"SAIKAICHO MIZUNORAGO","perfecture_jp":"長崎県","jp_add_1":"西海市","jp_add_2":"西海町水浦郷"},"8513509":{"post_code":"8513509","prefecture":"NAGASAKI KEN","city":"SAIKAI SHI","town":"SAIKAICHO YOKOSEGO","perfecture_jp":"長崎県","jp_add_1":"西海市","jp_add_2":"西海町横瀬郷"},"8513421":{"post_code":"8513421","prefecture":"NAGASAKI KEN","city":"SAIKAI SHI","town":"SEIHICHO INORAGO","perfecture_jp":"長崎県","jp_add_1":"西海市","jp_add_2":"西彼町伊ノ浦郷"},"8513424":{"post_code":"8513424","prefecture":"NAGASAKI KEN","city":"SAIKAI SHI","town":"SEIHICHO OKUSHIGO","perfecture_jp":"長崎県","jp_add_1":"西海市","jp_add_2":"西彼町大串郷"},"8513313":{"post_code":"8513313","prefecture":"NAGASAKI KEN","city":"SAIKAI SHI","town":"SEIHICHO KAZAHAYAGO","perfecture_jp":"長崎県","jp_add_1":"西海市","jp_add_2":"西彼町風早郷"},"8513304":{"post_code":"8513304","prefecture":"NAGASAKI KEN","city":"SAIKAI SHI","town":"SEIHICHO KAMIDAKEGO","perfecture_jp":"長崎県","jp_add_1":"西海市","jp_add_2":"西彼町上岳郷"},"8513303":{"post_code":"8513303","prefecture":"NAGASAKI KEN","city":"SAIKAI SHI","town":"SEIHICHO KAMEURAGO","perfecture_jp":"長崎県","jp_add_1":"西海市","jp_add_2":"西彼町亀浦郷"},"8513422":{"post_code":"8513422","prefecture":"NAGASAKI KEN","city":"SAIKAI SHI","town":"SEIHICHO KOMUKAEGO","perfecture_jp":"長崎県","jp_add_1":"西海市","jp_add_2":"西彼町小迎郷"},"8513305":{"post_code":"8513305","prefecture":"NAGASAKI KEN","city":"SAIKAI SHI","town":"SEIHICHO JIKIBAGO","perfecture_jp":"長崎県","jp_add_1":"西海市","jp_add_2":"西彼町喰場郷"},"8513311":{"post_code":"8513311","prefecture":"NAGASAKI KEN","city":"SAIKAI SHI","town":"SEIHICHO SHIMOTAKEGO","perfecture_jp":"長崎県","jp_add_1":"西海市","jp_add_2":"西彼町下岳郷"},"8513314":{"post_code":"8513314","prefecture":"NAGASAKI KEN","city":"SAIKAI SHI","town":"SEIHICHO SHIRANITAGO","perfecture_jp":"長崎県","jp_add_1":"西海市","jp_add_2":"西彼町白似田郷"},"8513312":{"post_code":"8513312","prefecture":"NAGASAKI KEN","city":"SAIKAI SHI","town":"SEIHICHO SHIROSAKIGO","perfecture_jp":"長崎県","jp_add_1":"西海市","jp_add_2":"西彼町白崎郷"},"8513306":{"post_code":"8513306","prefecture":"NAGASAKI KEN","city":"SAIKAI SHI","town":"SEIHICHO TORIKAGO(KAWAYAMA)","perfecture_jp":"長崎県","jp_add_1":"西海市","jp_add_2":"西彼町鳥加郷"},"8513406":{"post_code":"8513406","prefecture":"NAGASAKI KEN","city":"SAIKAI SHI","town":"SEIHICHO TORIKAGO(SONOTA)","perfecture_jp":"長崎県","jp_add_1":"西海市","jp_add_2":"西彼町鳥加郷"},"8513302":{"post_code":"8513302","prefecture":"NAGASAKI KEN","city":"SAIKAI SHI","town":"SEIHICHO NAKAYAMAGO","perfecture_jp":"長崎県","jp_add_1":"西海市","jp_add_2":"西彼町中山郷"},"8513315":{"post_code":"8513315","prefecture":"NAGASAKI KEN","city":"SAIKAI SHI","town":"SEIHICHO HIRABARUGO","perfecture_jp":"長崎県","jp_add_1":"西海市","jp_add_2":"西彼町平原郷"},"8513425":{"post_code":"8513425","prefecture":"NAGASAKI KEN","city":"SAIKAI SHI","town":"SEIHICHO HIRAYAMAGO","perfecture_jp":"長崎県","jp_add_1":"西海市","jp_add_2":"西彼町平山郷"},"8513301":{"post_code":"8513301","prefecture":"NAGASAKI KEN","city":"SAIKAI SHI","town":"SEIHICHO MIYAURAGO","perfecture_jp":"長崎県","jp_add_1":"西海市","jp_add_2":"西彼町宮浦郷"},"8513423":{"post_code":"8513423","prefecture":"NAGASAKI KEN","city":"SAIKAI SHI","town":"SEIHICHO YAKIHARAGO","perfecture_jp":"長崎県","jp_add_1":"西海市","jp_add_2":"西彼町八木原郷"},"8512100":{"post_code":"8512100","prefecture":"NAGASAKI KEN","city":"NISHISONOGI GUN TOGITSU CHO","town":"IKANIKEISAIGANAIBAAI","perfecture_jp":"長崎県","jp_add_1":"西彼杵郡長与町","jp_add_2":""},"8512128":{"post_code":"8512128","prefecture":"NAGASAKI KEN","city":"NISHISONOGI GUN NAGAYO CHO","town":"URERIGO","perfecture_jp":"長崎県","jp_add_1":"西彼杵郡長与町","jp_add_2":"嬉里郷"},"8512121":{"post_code":"8512121","prefecture":"NAGASAKI KEN","city":"NISHISONOGI GUN NAGAYO CHO","town":"OKAGO","perfecture_jp":"長崎県","jp_add_1":"西彼杵郡長与町","jp_add_2":"岡郷"},"8512127":{"post_code":"8512127","prefecture":"NAGASAKI KEN","city":"NISHISONOGI GUN NAGAYO CHO","town":"KODAGO","perfecture_jp":"長崎県","jp_add_1":"西彼杵郡長与町","jp_add_2":"高田郷"},"8512129":{"post_code":"8512129","prefecture":"NAGASAKI KEN","city":"NISHISONOGI GUN NAGAYO CHO","town":"SAITOGO","perfecture_jp":"長崎県","jp_add_1":"西彼杵郡長与町","jp_add_2":"斉藤郷"},"8512123":{"post_code":"8512123","prefecture":"NAGASAKI KEN","city":"NISHISONOGI GUN NAGAYO CHO","town":"HIRAKOBAGO","perfecture_jp":"長崎県","jp_add_1":"西彼杵郡長与町","jp_add_2":"平木場郷"},"8512122":{"post_code":"8512122","prefecture":"NAGASAKI KEN","city":"NISHISONOGI GUN NAGAYO CHO","town":"HONGAWACHIGO","perfecture_jp":"長崎県","jp_add_1":"西彼杵郡長与町","jp_add_2":"本川内郷"},"8512130":{"post_code":"8512130","prefecture":"NAGASAKI KEN","city":"NISHISONOGI GUN NAGAYO CHO","town":"MANABINO","perfecture_jp":"長崎県","jp_add_1":"西彼杵郡長与町","jp_add_2":"まなび野"},"8512124":{"post_code":"8512124","prefecture":"NAGASAKI KEN","city":"NISHISONOGI GUN NAGAYO CHO","town":"MARUTAGO","perfecture_jp":"長崎県","jp_add_1":"西彼杵郡長与町","jp_add_2":"丸田郷"},"8512125":{"post_code":"8512125","prefecture":"NAGASAKI KEN","city":"NISHISONOGI GUN NAGAYO CHO","town":"MINEGO","perfecture_jp":"長崎県","jp_add_1":"西彼杵郡長与町","jp_add_2":"三根郷"},"8512126":{"post_code":"8512126","prefecture":"NAGASAKI KEN","city":"NISHISONOGI GUN NAGAYO CHO","town":"YOSHIMUTAGO","perfecture_jp":"長崎県","jp_add_1":"西彼杵郡長与町","jp_add_2":"吉無田郷"},"8512105":{"post_code":"8512105","prefecture":"NAGASAKI KEN","city":"NISHISONOGI GUN TOGITSU CHO","town":"URAGO","perfecture_jp":"長崎県","jp_add_1":"西彼杵郡時津町","jp_add_2":"浦郷"},"8512107":{"post_code":"8512107","prefecture":"NAGASAKI KEN","city":"NISHISONOGI GUN TOGITSU CHO","town":"KURURIGO","perfecture_jp":"長崎県","jp_add_1":"西彼杵郡時津町","jp_add_2":"久留里郷"},"8512106":{"post_code":"8512106","prefecture":"NAGASAKI KEN","city":"NISHISONOGI GUN TOGITSU CHO","town":"SASOKOGO","perfecture_jp":"長崎県","jp_add_1":"西彼杵郡時津町","jp_add_2":"左底郷"},"8512111":{"post_code":"8512111","prefecture":"NAGASAKI KEN","city":"NISHISONOGI GUN TOGITSU CHO","town":"SHISHIGAWAGO","perfecture_jp":"長崎県","jp_add_1":"西彼杵郡時津町","jp_add_2":"子々川郷"},"8512101":{"post_code":"8512101","prefecture":"NAGASAKI KEN","city":"NISHISONOGI GUN TOGITSU CHO","town":"NISHITOGITSUGO","perfecture_jp":"長崎県","jp_add_1":"西彼杵郡時津町","jp_add_2":"西時津郷"},"8512104":{"post_code":"8512104","prefecture":"NAGASAKI KEN","city":"NISHISONOGI GUN TOGITSU CHO","town":"NODAGO","perfecture_jp":"長崎県","jp_add_1":"西彼杵郡時津町","jp_add_2":"野田郷"},"8512102":{"post_code":"8512102","prefecture":"NAGASAKI KEN","city":"NISHISONOGI GUN TOGITSU CHO","town":"HAMADAGO","perfecture_jp":"長崎県","jp_add_1":"西彼杵郡時津町","jp_add_2":"浜田郷"},"8512108":{"post_code":"8512108","prefecture":"NAGASAKI KEN","city":"NISHISONOGI GUN TOGITSU CHO","town":"HINAMIGO","perfecture_jp":"長崎県","jp_add_1":"西彼杵郡時津町","jp_add_2":"日並郷"},"8512103":{"post_code":"8512103","prefecture":"NAGASAKI KEN","city":"NISHISONOGI GUN TOGITSU CHO","town":"MOTOMURAGO","perfecture_jp":"長崎県","jp_add_1":"西彼杵郡時津町","jp_add_2":"元村郷"}}