{"8550000":{"post_code":"8550000","prefecture":"NAGASAKI KEN","city":"SHIMABARA SHI","town":"IKANIKEISAIGANAIBAAI","perfecture_jp":"長崎県","jp_add_1":"島原市","jp_add_2":""},"8550038":{"post_code":"8550038","prefecture":"NAGASAKI KEN","city":"SHIMABARA SHI","town":"SHIMABARASHINOTSUGINIBANCHIGAKURUBA","perfecture_jp":"長崎県","jp_add_1":"島原市","jp_add_2":""},"8550855":{"post_code":"8550855","prefecture":"NAGASAKI KEN","city":"SHIMABARA SHI","town":"AOBAMACHI","perfecture_jp":"長崎県","jp_add_1":"島原市","jp_add_2":"青葉町"},"8550021":{"post_code":"8550021","prefecture":"NAGASAKI KEN","city":"SHIMABARA SHI","town":"ABURABORIMACHI","perfecture_jp":"長崎県","jp_add_1":"島原市","jp_add_2":"油堀町"},"8550002":{"post_code":"8550002","prefecture":"NAGASAKI KEN","city":"SHIMABARA SHI","town":"ARAIKIRIMACHI","perfecture_jp":"長崎県","jp_add_1":"島原市","jp_add_2":"洗切町"},"8550813":{"post_code":"8550813","prefecture":"NAGASAKI KEN","city":"SHIMABARA SHI","town":"ARIMAFUNATSUMACHI","perfecture_jp":"長崎県","jp_add_1":"島原市","jp_add_2":"有馬船津町"},"8550023":{"post_code":"8550023","prefecture":"NAGASAKI KEN","city":"SHIMABARA SHI","town":"IDENOKAWAMACHI","perfecture_jp":"長崎県","jp_add_1":"島原市","jp_add_2":"出の川町"},"8550015":{"post_code":"8550015","prefecture":"NAGASAKI KEN","city":"SHIMABARA SHI","town":"IDEHIRAMACHI","perfecture_jp":"長崎県","jp_add_1":"島原市","jp_add_2":"出平町"},"8550046":{"post_code":"8550046","prefecture":"NAGASAKI KEN","city":"SHIMABARA SHI","town":"IMAGAWAMACHI","perfecture_jp":"長崎県","jp_add_1":"島原市","jp_add_2":"今川町"},"8550853":{"post_code":"8550853","prefecture":"NAGASAKI KEN","city":"SHIMABARA SHI","town":"UENOHARA","perfecture_jp":"長崎県","jp_add_1":"島原市","jp_add_2":"上の原"},"8550045":{"post_code":"8550045","prefecture":"NAGASAKI KEN","city":"SHIMABARA SHI","town":"UENOMACHI","perfecture_jp":"長崎県","jp_add_1":"島原市","jp_add_2":"上の町"},"8550071":{"post_code":"8550071","prefecture":"NAGASAKI KEN","city":"SHIMABARA SHI","town":"UTOMACHI","perfecture_jp":"長崎県","jp_add_1":"島原市","jp_add_2":"宇土町"},"8550872":{"post_code":"8550872","prefecture":"NAGASAKI KEN","city":"SHIMABARA SHI","town":"UMEZONOMACHI","perfecture_jp":"長崎県","jp_add_1":"島原市","jp_add_2":"梅園町"},"8550817":{"post_code":"8550817","prefecture":"NAGASAKI KEN","city":"SHIMABARA SHI","town":"URATA","perfecture_jp":"長崎県","jp_add_1":"島原市","jp_add_2":"浦田"},"8550056":{"post_code":"8550056","prefecture":"NAGASAKI KEN","city":"SHIMABARA SHI","town":"URANOKAWA","perfecture_jp":"長崎県","jp_add_1":"島原市","jp_add_2":"浦の川"},"8550067":{"post_code":"8550067","prefecture":"NAGASAKI KEN","city":"SHIMABARA SHI","town":"UWAJINCHO","perfecture_jp":"長崎県","jp_add_1":"島原市","jp_add_2":"上新丁"},"8550059":{"post_code":"8550059","prefecture":"NAGASAKI KEN","city":"SHIMABARA SHI","town":"EDOCHO","perfecture_jp":"長崎県","jp_add_1":"島原市","jp_add_2":"江戸丁"},"8550816":{"post_code":"8550816","prefecture":"NAGASAKI KEN","city":"SHIMABARA SHI","town":"EBISUMACHI","perfecture_jp":"長崎県","jp_add_1":"島原市","jp_add_2":"蛭子町"},"8550017":{"post_code":"8550017","prefecture":"NAGASAKI KEN","city":"SHIMABARA SHI","town":"ERIMACHI","perfecture_jp":"長崎県","jp_add_1":"島原市","jp_add_2":"江里町"},"8550878":{"post_code":"8550878","prefecture":"NAGASAKI KEN","city":"SHIMABARA SHI","town":"OJIMOMACHI","perfecture_jp":"長崎県","jp_add_1":"島原市","jp_add_2":"大下町"},"8550012":{"post_code":"8550012","prefecture":"NAGASAKI KEN","city":"SHIMABARA SHI","town":"OTEBARAMACHI","perfecture_jp":"長崎県","jp_add_1":"島原市","jp_add_2":"大手原町"},"8550011":{"post_code":"8550011","prefecture":"NAGASAKI KEN","city":"SHIMABARA SHI","town":"OCHOZUMACHI","perfecture_jp":"長崎県","jp_add_1":"島原市","jp_add_2":"御手水町"},"8550066":{"post_code":"8550066","prefecture":"NAGASAKI KEN","city":"SHIMABARA SHI","town":"KAKINOKIMACHI","perfecture_jp":"長崎県","jp_add_1":"島原市","jp_add_2":"柿の木町"},"8550064":{"post_code":"8550064","prefecture":"NAGASAKI KEN","city":"SHIMABARA SHI","town":"KASHIWANOMACHI","perfecture_jp":"長崎県","jp_add_1":"島原市","jp_add_2":"柏野町"},"8550042":{"post_code":"8550042","prefecture":"NAGASAKI KEN","city":"SHIMABARA SHI","town":"KATAMACHI","perfecture_jp":"長崎県","jp_add_1":"島原市","jp_add_2":"片町"},"8550881":{"post_code":"8550881","prefecture":"NAGASAKI KEN","city":"SHIMABARA SHI","town":"KADOCHIMACHI","perfecture_jp":"長崎県","jp_add_1":"島原市","jp_add_2":"門内町"},"8550874":{"post_code":"8550874","prefecture":"NAGASAKI KEN","city":"SHIMABARA SHI","town":"KAMADAMACHI","perfecture_jp":"長崎県","jp_add_1":"島原市","jp_add_2":"鎌田町"},"8550076":{"post_code":"8550076","prefecture":"NAGASAKI KEN","city":"SHIMABARA SHI","town":"KAMIORIHASHIMACHI","perfecture_jp":"長崎県","jp_add_1":"島原市","jp_add_2":"上折橋町"},"8550808":{"post_code":"8550808","prefecture":"NAGASAKI KEN","city":"SHIMABARA SHI","town":"KAMIMACHI","perfecture_jp":"長崎県","jp_add_1":"島原市","jp_add_2":"加美町"},"8550004":{"post_code":"8550004","prefecture":"NAGASAKI KEN","city":"SHIMABARA SHI","town":"KAMENOKOMACHI","perfecture_jp":"長崎県","jp_add_1":"島原市","jp_add_2":"亀の甲町"},"8550873":{"post_code":"8550873","prefecture":"NAGASAKI KEN","city":"SHIMABARA SHI","town":"KITAANTOKUMACHI","perfecture_jp":"長崎県","jp_add_1":"島原市","jp_add_2":"北安徳町"},"8550886":{"post_code":"8550886","prefecture":"NAGASAKI KEN","city":"SHIMABARA SHI","town":"KITAKAMIKOBAMACHI","perfecture_jp":"長崎県","jp_add_1":"島原市","jp_add_2":"北上木場町"},"8550078":{"post_code":"8550078","prefecture":"NAGASAKI KEN","city":"SHIMABARA SHI","town":"KITASEMBONGIMACHI","perfecture_jp":"長崎県","jp_add_1":"島原市","jp_add_2":"北千本木町"},"8550058":{"post_code":"8550058","prefecture":"NAGASAKI KEN","city":"SHIMABARA SHI","town":"KITABARAMACHI","perfecture_jp":"長崎県","jp_add_1":"島原市","jp_add_2":"北原町"},"8550032":{"post_code":"8550032","prefecture":"NAGASAKI KEN","city":"SHIMABARA SHI","town":"KITAMOMMACHI","perfecture_jp":"長崎県","jp_add_1":"島原市","jp_add_2":"北門町"},"8550841":{"post_code":"8550841","prefecture":"NAGASAKI KEN","city":"SHIMABARA SHI","town":"KUEYAMAMACHI","perfecture_jp":"長崎県","jp_add_1":"島原市","jp_add_2":"崩山町"},"8550026":{"post_code":"8550026","prefecture":"NAGASAKI KEN","city":"SHIMABARA SHI","town":"KUREISHIBARUMACHI","perfecture_jp":"長崎県","jp_add_1":"島原市","jp_add_2":"礫石原町"},"8550836":{"post_code":"8550836","prefecture":"NAGASAKI KEN","city":"SHIMABARA SHI","town":"KONAMMACHI","perfecture_jp":"長崎県","jp_add_1":"島原市","jp_add_2":"湖南町"},"8550856":{"post_code":"8550856","prefecture":"NAGASAKI KEN","city":"SHIMABARA SHI","town":"KOYAMAMACHI","perfecture_jp":"長崎県","jp_add_1":"島原市","jp_add_2":"小山町"},"8550832":{"post_code":"8550832","prefecture":"NAGASAKI KEN","city":"SHIMABARA SHI","town":"SAKAUEMACHI","perfecture_jp":"長崎県","jp_add_1":"島原市","jp_add_2":"坂上町"},"8550842":{"post_code":"8550842","prefecture":"NAGASAKI KEN","city":"SHIMABARA SHI","town":"SAKAEMACHI","perfecture_jp":"長崎県","jp_add_1":"島原市","jp_add_2":"栄町"},"8550833":{"post_code":"8550833","prefecture":"NAGASAKI KEN","city":"SHIMABARA SHI","town":"SAKASHITAMACHI","perfecture_jp":"長崎県","jp_add_1":"島原市","jp_add_2":"坂下町"},"8550035":{"post_code":"8550035","prefecture":"NAGASAKI KEN","city":"SHIMABARA SHI","town":"SAKIGAKEMACHI","perfecture_jp":"長崎県","jp_add_1":"島原市","jp_add_2":"先魁町"},"8550809":{"post_code":"8550809","prefecture":"NAGASAKI KEN","city":"SHIMABARA SHI","town":"SAKURAMACHI","perfecture_jp":"長崎県","jp_add_1":"島原市","jp_add_2":"桜町"},"8550051":{"post_code":"8550051","prefecture":"NAGASAKI KEN","city":"SHIMABARA SHI","town":"SAKURAMOMMACHI","perfecture_jp":"長崎県","jp_add_1":"島原市","jp_add_2":"桜門町"},"8550006":{"post_code":"8550006","prefecture":"NAGASAKI KEN","city":"SHIMABARA SHI","town":"JICHUMACHI","perfecture_jp":"長崎県","jp_add_1":"島原市","jp_add_2":"寺中町"},"8550055":{"post_code":"8550055","prefecture":"NAGASAKI KEN","city":"SHIMABARA SHI","town":"SHITAJINCHO","perfecture_jp":"長崎県","jp_add_1":"島原市","jp_add_2":"下新丁"},"8550052":{"post_code":"8550052","prefecture":"NAGASAKI KEN","city":"SHIMABARA SHI","town":"SHITANOCHO","perfecture_jp":"長崎県","jp_add_1":"島原市","jp_add_2":"下の丁"},"8550075":{"post_code":"8550075","prefecture":"NAGASAKI KEN","city":"SHIMABARA SHI","town":"SHIMORIHASHIMACHI","perfecture_jp":"長崎県","jp_add_1":"島原市","jp_add_2":"下折橋町"},"8550861":{"post_code":"8550861","prefecture":"NAGASAKI KEN","city":"SHIMABARA SHI","town":"SHIMOKAWASHIRIMACHI","perfecture_jp":"長崎県","jp_add_1":"島原市","jp_add_2":"下川尻町"},"8550014":{"post_code":"8550014","prefecture":"NAGASAKI KEN","city":"SHIMABARA SHI","town":"SHIMOMIYAMACHI","perfecture_jp":"長崎県","jp_add_1":"島原市","jp_add_2":"下宮町"},"8550053":{"post_code":"8550053","prefecture":"NAGASAKI KEN","city":"SHIMABARA SHI","town":"JOSEINAKANOCHO","perfecture_jp":"長崎県","jp_add_1":"島原市","jp_add_2":"城西中の丁"},"8550036":{"post_code":"8550036","prefecture":"NAGASAKI KEN","city":"SHIMABARA SHI","town":"JONAI","perfecture_jp":"長崎県","jp_add_1":"島原市","jp_add_2":"城内"},"8550885":{"post_code":"8550885","prefecture":"NAGASAKI KEN","city":"SHIMABARA SHI","town":"SHIRATANIMACHI","perfecture_jp":"長崎県","jp_add_1":"島原市","jp_add_2":"白谷町"},"8550807":{"post_code":"8550807","prefecture":"NAGASAKI KEN","city":"SHIMABARA SHI","town":"SHIRACHIMACHI","perfecture_jp":"長崎県","jp_add_1":"島原市","jp_add_2":"白土町"},"8550811":{"post_code":"8550811","prefecture":"NAGASAKI KEN","city":"SHIMABARA SHI","town":"SHIRACHIMOMOYAMA","perfecture_jp":"長崎県","jp_add_1":"島原市","jp_add_2":"白土桃山"},"8550074":{"post_code":"8550074","prefecture":"NAGASAKI KEN","city":"SHIMABARA SHI","town":"SHIROMIMACHI","perfecture_jp":"長崎県","jp_add_1":"島原市","jp_add_2":"城見町"},"8550057":{"post_code":"8550057","prefecture":"NAGASAKI KEN","city":"SHIMABARA SHI","town":"SHINDACHI","perfecture_jp":"長崎県","jp_add_1":"島原市","jp_add_2":"新建"},"8550043":{"post_code":"8550043","prefecture":"NAGASAKI KEN","city":"SHIMABARA SHI","town":"SHINDEMMACHI","perfecture_jp":"長崎県","jp_add_1":"島原市","jp_add_2":"新田町"},"8550033":{"post_code":"8550033","prefecture":"NAGASAKI KEN","city":"SHIMABARA SHI","town":"SHIMBABAMACHI","perfecture_jp":"長崎県","jp_add_1":"島原市","jp_add_2":"新馬場町"},"8550803":{"post_code":"8550803","prefecture":"NAGASAKI KEN","city":"SHIMABARA SHI","town":"SHIMMACHI","perfecture_jp":"長崎県","jp_add_1":"島原市","jp_add_2":"新町"},"8550862":{"post_code":"8550862","prefecture":"NAGASAKI KEN","city":"SHIMABARA SHI","town":"SHIMMINATO","perfecture_jp":"長崎県","jp_add_1":"島原市","jp_add_2":"新湊"},"8550843":{"post_code":"8550843","prefecture":"NAGASAKI KEN","city":"SHIMABARA SHI","town":"SHINYAMA","perfecture_jp":"長崎県","jp_add_1":"島原市","jp_add_2":"新山"},"8550863":{"post_code":"8550863","prefecture":"NAGASAKI KEN","city":"SHIMABARA SHI","town":"SHINWAMACHI","perfecture_jp":"長崎県","jp_add_1":"島原市","jp_add_2":"親和町"},"8550068":{"post_code":"8550068","prefecture":"NAGASAKI KEN","city":"SHIMABARA SHI","town":"SUGIYAMAMACHI","perfecture_jp":"長崎県","jp_add_1":"島原市","jp_add_2":"杉山町"},"8550801":{"post_code":"8550801","prefecture":"NAGASAKI KEN","city":"SHIMABARA SHI","town":"TAKAJIMA","perfecture_jp":"長崎県","jp_add_1":"島原市","jp_add_2":"高島"},"8550025":{"post_code":"8550025","prefecture":"NAGASAKI KEN","city":"SHIMABARA SHI","town":"TATENOMACHI","perfecture_jp":"長崎県","jp_add_1":"島原市","jp_add_2":"立野町"},"8550034":{"post_code":"8550034","prefecture":"NAGASAKI KEN","city":"SHIMABARA SHI","town":"TAMACHI","perfecture_jp":"長崎県","jp_add_1":"島原市","jp_add_2":"田町"},"8550864":{"post_code":"8550864","prefecture":"NAGASAKI KEN","city":"SHIMABARA SHI","town":"CHICHIBUGAURAMACHI","perfecture_jp":"長崎県","jp_add_1":"島原市","jp_add_2":"秩父が浦町"},"8550007":{"post_code":"8550007","prefecture":"NAGASAKI KEN","city":"SHIMABARA SHI","town":"TSUBUKIMACHI","perfecture_jp":"長崎県","jp_add_1":"島原市","jp_add_2":"津吹町"},"8550814":{"post_code":"8550814","prefecture":"NAGASAKI KEN","city":"SHIMABARA SHI","town":"TSUMACHI","perfecture_jp":"長崎県","jp_add_1":"島原市","jp_add_2":"津町"},"8550852":{"post_code":"8550852","prefecture":"NAGASAKI KEN","city":"SHIMABARA SHI","town":"TERAMACHI","perfecture_jp":"長崎県","jp_add_1":"島原市","jp_add_2":"寺町"},"8550883":{"post_code":"8550883","prefecture":"NAGASAKI KEN","city":"SHIMABARA SHI","town":"TENJIMMOTOMACHI","perfecture_jp":"長崎県","jp_add_1":"島原市","jp_add_2":"天神元町"},"8550875":{"post_code":"8550875","prefecture":"NAGASAKI KEN","city":"SHIMABARA SHI","town":"NAKAANTOKUMACHI","perfecture_jp":"長崎県","jp_add_1":"島原市","jp_add_2":"中安徳町"},"8550061":{"post_code":"8550061","prefecture":"NAGASAKI KEN","city":"SHIMABARA SHI","town":"NAKAOMACHI","perfecture_jp":"長崎県","jp_add_1":"島原市","jp_add_2":"中尾町"},"8550822":{"post_code":"8550822","prefecture":"NAGASAKI KEN","city":"SHIMABARA SHI","town":"NAKAGUMIMACHI","perfecture_jp":"長崎県","jp_add_1":"島原市","jp_add_2":"中組町"},"8550001":{"post_code":"8550001","prefecture":"NAGASAKI KEN","city":"SHIMABARA SHI","town":"NAKANOMACHI","perfecture_jp":"長崎県","jp_add_1":"島原市","jp_add_2":"中野町"},"8550005":{"post_code":"8550005","prefecture":"NAGASAKI KEN","city":"SHIMABARA SHI","town":"NAKABARAMACHI","perfecture_jp":"長崎県","jp_add_1":"島原市","jp_add_2":"中原町"},"8550806":{"post_code":"8550806","prefecture":"NAGASAKI KEN","city":"SHIMABARA SHI","town":"NAKAHORIMACHI","perfecture_jp":"長崎県","jp_add_1":"島原市","jp_add_2":"中堀町"},"8550044":{"post_code":"8550044","prefecture":"NAGASAKI KEN","city":"SHIMABARA SHI","town":"NAKAMACHI","perfecture_jp":"長崎県","jp_add_1":"島原市","jp_add_2":"中町"},"8550022":{"post_code":"8550022","prefecture":"NAGASAKI KEN","city":"SHIMABARA SHI","town":"NAGANUKIMACHI","perfecture_jp":"長崎県","jp_add_1":"島原市","jp_add_2":"長貫町"},"8550018":{"post_code":"8550018","prefecture":"NAGASAKI KEN","city":"SHIMABARA SHI","town":"NISHIMACHI","perfecture_jp":"長崎県","jp_add_1":"島原市","jp_add_2":"西町"},"8550835":{"post_code":"8550835","prefecture":"NAGASAKI KEN","city":"SHIMABARA SHI","town":"NISHIYAHATAMACHI","perfecture_jp":"長崎県","jp_add_1":"島原市","jp_add_2":"西八幡町"},"8550884":{"post_code":"8550884","prefecture":"NAGASAKI KEN","city":"SHIMABARA SHI","town":"NITAMACHI","perfecture_jp":"長崎県","jp_add_1":"島原市","jp_add_2":"仁田町"},"8550854":{"post_code":"8550854","prefecture":"NAGASAKI KEN","city":"SHIMABARA SHI","town":"HAGIGAOKA","perfecture_jp":"長崎県","jp_add_1":"島原市","jp_add_2":"萩が丘"},"8550851":{"post_code":"8550851","prefecture":"NAGASAKI KEN","city":"SHIMABARA SHI","town":"HAGIHARA","perfecture_jp":"長崎県","jp_add_1":"島原市","jp_add_2":"萩原"},"8550824":{"post_code":"8550824","prefecture":"NAGASAKI KEN","city":"SHIMABARA SHI","town":"HAKUSAMMACHI","perfecture_jp":"長崎県","jp_add_1":"島原市","jp_add_2":"白山町"},"8550877":{"post_code":"8550877","prefecture":"NAGASAKI KEN","city":"SHIMABARA SHI","town":"HAMANOMACHI","perfecture_jp":"長崎県","jp_add_1":"島原市","jp_add_2":"浜の町"},"8550008":{"post_code":"8550008","prefecture":"NAGASAKI KEN","city":"SHIMABARA SHI","town":"HARAGUCHIMACHI","perfecture_jp":"長崎県","jp_add_1":"島原市","jp_add_2":"原口町"},"8550063":{"post_code":"8550063","prefecture":"NAGASAKI KEN","city":"SHIMABARA SHI","town":"HARAMACHI","perfecture_jp":"長崎県","jp_add_1":"島原市","jp_add_2":"原町"},"8550013":{"post_code":"8550013","prefecture":"NAGASAKI KEN","city":"SHIMABARA SHI","town":"HIEDAMACHI","perfecture_jp":"長崎県","jp_add_1":"島原市","jp_add_2":"稗田町"},"8550024":{"post_code":"8550024","prefecture":"NAGASAKI KEN","city":"SHIMABARA SHI","town":"HIROKOYAMACHI","perfecture_jp":"長崎県","jp_add_1":"島原市","jp_add_2":"広高野町"},"8550825":{"post_code":"8550825","prefecture":"NAGASAKI KEN","city":"SHIMABARA SHI","town":"HIROBABAMACHI","perfecture_jp":"長崎県","jp_add_1":"島原市","jp_add_2":"広馬場町"},"8550882":{"post_code":"8550882","prefecture":"NAGASAKI KEN","city":"SHIMABARA SHI","town":"FUDANOMOTOMACHI","perfecture_jp":"長崎県","jp_add_1":"島原市","jp_add_2":"札の元町"},"8550865":{"post_code":"8550865","prefecture":"NAGASAKI KEN","city":"SHIMABARA SHI","town":"FUNADOMARIMACHI","perfecture_jp":"長崎県","jp_add_1":"島原市","jp_add_2":"船泊町"},"8550054":{"post_code":"8550054","prefecture":"NAGASAKI KEN","city":"SHIMABARA SHI","town":"FURUCHO","perfecture_jp":"長崎県","jp_add_1":"島原市","jp_add_2":"古丁"},"8550879":{"post_code":"8550879","prefecture":"NAGASAKI KEN","city":"SHIMABARA SHI","town":"HEISEIMACHI","perfecture_jp":"長崎県","jp_add_1":"島原市","jp_add_2":"平成町"},"8550802":{"post_code":"8550802","prefecture":"NAGASAKI KEN","city":"SHIMABARA SHI","town":"BENTEMMACHI","perfecture_jp":"長崎県","jp_add_1":"島原市","jp_add_2":"弁天町"},"8550805":{"post_code":"8550805","prefecture":"NAGASAKI KEN","city":"SHIMABARA SHI","town":"HORIMACHI","perfecture_jp":"長崎県","jp_add_1":"島原市","jp_add_2":"堀町"},"8550073":{"post_code":"8550073","prefecture":"NAGASAKI KEN","city":"SHIMABARA SHI","town":"HONKOJIMACHI","perfecture_jp":"長崎県","jp_add_1":"島原市","jp_add_2":"本光寺町"},"8550062":{"post_code":"8550062","prefecture":"NAGASAKI KEN","city":"SHIMABARA SHI","town":"HOMMACHI","perfecture_jp":"長崎県","jp_add_1":"島原市","jp_add_2":"本町"},"8550031":{"post_code":"8550031","prefecture":"NAGASAKI KEN","city":"SHIMABARA SHI","town":"MAEHAMAMACHI","perfecture_jp":"長崎県","jp_add_1":"島原市","jp_add_2":"前浜町"},"8550003":{"post_code":"8550003","prefecture":"NAGASAKI KEN","city":"SHIMABARA SHI","town":"MIEMACHI","perfecture_jp":"長崎県","jp_add_1":"島原市","jp_add_2":"三会町"},"8550867":{"post_code":"8550867","prefecture":"NAGASAKI KEN","city":"SHIMABARA SHI","town":"MIDORIMACHI","perfecture_jp":"長崎県","jp_add_1":"島原市","jp_add_2":"緑町"},"8550821":{"post_code":"8550821","prefecture":"NAGASAKI KEN","city":"SHIMABARA SHI","town":"MINATOSHINCHIMACHI","perfecture_jp":"長崎県","jp_add_1":"島原市","jp_add_2":"湊新地町"},"8550823":{"post_code":"8550823","prefecture":"NAGASAKI KEN","city":"SHIMABARA SHI","town":"MINATOMACHI","perfecture_jp":"長崎県","jp_add_1":"島原市","jp_add_2":"湊町"},"8550831":{"post_code":"8550831","prefecture":"NAGASAKI KEN","city":"SHIMABARA SHI","town":"MINATOMICHI","perfecture_jp":"長崎県","jp_add_1":"島原市","jp_add_2":"湊道"},"8550876":{"post_code":"8550876","prefecture":"NAGASAKI KEN","city":"SHIMABARA SHI","town":"MINAMIANTOKUMACHI","perfecture_jp":"長崎県","jp_add_1":"島原市","jp_add_2":"南安徳町"},"8550065":{"post_code":"8550065","prefecture":"NAGASAKI KEN","city":"SHIMABARA SHI","town":"MINAMIKASHIWANOMACHI","perfecture_jp":"長崎県","jp_add_1":"島原市","jp_add_2":"南柏野町"},"8550887":{"post_code":"8550887","prefecture":"NAGASAKI KEN","city":"SHIMABARA SHI","town":"MINAMIKAMIKOBAMACHI","perfecture_jp":"長崎県","jp_add_1":"島原市","jp_add_2":"南上木場町"},"8550871":{"post_code":"8550871","prefecture":"NAGASAKI KEN","city":"SHIMABARA SHI","town":"MINAMIKUEYAMAMACHI","perfecture_jp":"長崎県","jp_add_1":"島原市","jp_add_2":"南崩山町"},"8550866":{"post_code":"8550866","prefecture":"NAGASAKI KEN","city":"SHIMABARA SHI","town":"MINAMISHIMOKAWASHIRIMACHI","perfecture_jp":"長崎県","jp_add_1":"島原市","jp_add_2":"南下川尻町"},"8550077":{"post_code":"8550077","prefecture":"NAGASAKI KEN","city":"SHIMABARA SHI","town":"MINAMISEMBONGIMACHI","perfecture_jp":"長崎県","jp_add_1":"島原市","jp_add_2":"南千本木町"},"8550041":{"post_code":"8550041","prefecture":"NAGASAKI KEN","city":"SHIMABARA SHI","town":"MIYANOMACHI","perfecture_jp":"長崎県","jp_add_1":"島原市","jp_add_2":"宮の町"},"8550072":{"post_code":"8550072","prefecture":"NAGASAKI KEN","city":"SHIMABARA SHI","town":"MUTSUGIMACHI","perfecture_jp":"長崎県","jp_add_1":"島原市","jp_add_2":"六ツ木町"},"8550815":{"post_code":"8550815","prefecture":"NAGASAKI KEN","city":"SHIMABARA SHI","town":"MOTOFUNATSUMACHI","perfecture_jp":"長崎県","jp_add_1":"島原市","jp_add_2":"元船津町"},"8550834":{"post_code":"8550834","prefecture":"NAGASAKI KEN","city":"SHIMABARA SHI","town":"YAHATAMACHI","perfecture_jp":"長崎県","jp_add_1":"島原市","jp_add_2":"八幡町"},"8550016":{"post_code":"8550016","prefecture":"NAGASAKI KEN","city":"SHIMABARA SHI","town":"YAMADERAMACHI","perfecture_jp":"長崎県","jp_add_1":"島原市","jp_add_2":"山寺町"},"8550804":{"post_code":"8550804","prefecture":"NAGASAKI KEN","city":"SHIMABARA SHI","town":"YOROZUMACHI","perfecture_jp":"長崎県","jp_add_1":"島原市","jp_add_2":"万町"},"8550812":{"post_code":"8550812","prefecture":"NAGASAKI KEN","city":"SHIMABARA SHI","town":"REINAN","perfecture_jp":"長崎県","jp_add_1":"島原市","jp_add_2":"霊南"}}