{"8580918":{"post_code":"8580918","prefecture":"NAGASAKI KEN","city":"SASEBO SHI","town":"AINORACHO","perfecture_jp":"長崎県","jp_add_1":"佐世保市","jp_add_2":"相浦町"},"8580917":{"post_code":"8580917","prefecture":"NAGASAKI KEN","city":"SASEBO SHI","town":"ATAGOCHO","perfecture_jp":"長崎県","jp_add_1":"佐世保市","jp_add_2":"愛宕町"},"8580926":{"post_code":"8580926","prefecture":"NAGASAKI KEN","city":"SASEBO SHI","town":"OGATACHO","perfecture_jp":"長崎県","jp_add_1":"佐世保市","jp_add_2":"大潟町"},"8580902":{"post_code":"8580902","prefecture":"NAGASAKI KEN","city":"SASEBO SHI","town":"ODORIISHICHO","perfecture_jp":"長崎県","jp_add_1":"佐世保市","jp_add_2":"踊石町"},"8580965":{"post_code":"8580965","prefecture":"NAGASAKI KEN","city":"SASEBO SHI","town":"ONOCHO(SONOTA)","perfecture_jp":"長崎県","jp_add_1":"佐世保市","jp_add_2":"小野町"},"8580922":{"post_code":"8580922","prefecture":"NAGASAKI KEN","city":"SASEBO SHI","town":"KASHIMAECHO","perfecture_jp":"長崎県","jp_add_1":"佐世保市","jp_add_2":"鹿子前町"},"8580915":{"post_code":"8580915","prefecture":"NAGASAKI KEN","city":"SASEBO SHI","town":"KAMIAINORACHO","perfecture_jp":"長崎県","jp_add_1":"佐世保市","jp_add_2":"上相浦町"},"8580903":{"post_code":"8580903","prefecture":"NAGASAKI KEN","city":"SASEBO SHI","town":"KAMIMOTOYAMACHO","perfecture_jp":"長崎県","jp_add_1":"佐世保市","jp_add_2":"上本山町"},"8580914":{"post_code":"8580914","prefecture":"NAGASAKI KEN","city":"SASEBO SHI","town":"KAWASHIMOCHO","perfecture_jp":"長崎県","jp_add_1":"佐世保市","jp_add_2":"川下町"},"8580916":{"post_code":"8580916","prefecture":"NAGASAKI KEN","city":"SASEBO SHI","town":"KINOMIYACHO","perfecture_jp":"長崎県","jp_add_1":"佐世保市","jp_add_2":"木宮町"},"8580925":{"post_code":"8580925","prefecture":"NAGASAKI KEN","city":"SASEBO SHI","town":"SHIINOKICHO","perfecture_jp":"長崎県","jp_add_1":"佐世保市","jp_add_2":"椎木町"},"8580905":{"post_code":"8580905","prefecture":"NAGASAKI KEN","city":"SASEBO SHI","town":"SHIMOMOTOYAMACHO","perfecture_jp":"長崎県","jp_add_1":"佐世保市","jp_add_2":"下本山町"},"8580913":{"post_code":"8580913","prefecture":"NAGASAKI KEN","city":"SASEBO SHI","town":"SHINDENCHO","perfecture_jp":"長崎県","jp_add_1":"佐世保市","jp_add_2":"新田町"},"8580924":{"post_code":"8580924","prefecture":"NAGASAKI KEN","city":"SASEBO SHI","town":"SEIWADAIMACHI","perfecture_jp":"長崎県","jp_add_1":"佐世保市","jp_add_2":"星和台町"},"8580931":{"post_code":"8580931","prefecture":"NAGASAKI KEN","city":"SASEBO SHI","town":"TAKASHIMACHO","perfecture_jp":"長崎県","jp_add_1":"佐世保市","jp_add_2":"高島町"},"8580901":{"post_code":"8580901","prefecture":"NAGASAKI KEN","city":"SASEBO SHI","town":"TAKENOCHO","perfecture_jp":"長崎県","jp_add_1":"佐世保市","jp_add_2":"岳野町"},"8580911":{"post_code":"8580911","prefecture":"NAGASAKI KEN","city":"SASEBO SHI","town":"TAKEBECHO","perfecture_jp":"長崎県","jp_add_1":"佐世保市","jp_add_2":"竹辺町"},"8580907":{"post_code":"8580907","prefecture":"NAGASAKI KEN","city":"SASEBO SHI","town":"TANAGATACHO","perfecture_jp":"長崎県","jp_add_1":"佐世保市","jp_add_2":"棚方町"},"8580921":{"post_code":"8580921","prefecture":"NAGASAKI KEN","city":"SASEBO SHI","town":"NAGASAKACHO","perfecture_jp":"長崎県","jp_add_1":"佐世保市","jp_add_2":"長坂町"},"8580904":{"post_code":"8580904","prefecture":"NAGASAKI KEN","city":"SASEBO SHI","town":"NAKAZATOCHO","perfecture_jp":"長崎県","jp_add_1":"佐世保市","jp_add_2":"中里町"},"8580906":{"post_code":"8580906","prefecture":"NAGASAKI KEN","city":"SASEBO SHI","town":"HACHINOKUBOCHO","perfecture_jp":"長崎県","jp_add_1":"佐世保市","jp_add_2":"八の久保町"},"8580908":{"post_code":"8580908","prefecture":"NAGASAKI KEN","city":"SASEBO SHI","town":"HIKARIMACHI","perfecture_jp":"長崎県","jp_add_1":"佐世保市","jp_add_2":"光町"},"8580923":{"post_code":"8580923","prefecture":"NAGASAKI KEN","city":"SASEBO SHI","town":"HINOCHO","perfecture_jp":"長崎県","jp_add_1":"佐世保市","jp_add_2":"日野町"},"8580912":{"post_code":"8580912","prefecture":"NAGASAKI KEN","city":"SASEBO SHI","town":"HOGAURACHO","perfecture_jp":"長崎県","jp_add_1":"佐世保市","jp_add_2":"母ケ浦町"}}