{"8593241":{"post_code":"8593241","prefecture":"NAGASAKI KEN","city":"SASEBO SHI","town":"ARIFUKUCHO","perfecture_jp":"長崎県","jp_add_1":"佐世保市","jp_add_2":"有福町"},"8593225":{"post_code":"8593225","prefecture":"NAGASAKI KEN","city":"SASEBO SHI","town":"URAGAWACHICHO","perfecture_jp":"長崎県","jp_add_1":"佐世保市","jp_add_2":"浦川内町"},"8593202":{"post_code":"8593202","prefecture":"NAGASAKI KEN","city":"SASEBO SHI","town":"UWABARUCHO","perfecture_jp":"長崎県","jp_add_1":"佐世保市","jp_add_2":"上原町"},"8593244":{"post_code":"8593244","prefecture":"NAGASAKI KEN","city":"SASEBO SHI","town":"EGAMICHO","perfecture_jp":"長崎県","jp_add_1":"佐世保市","jp_add_2":"江上町"},"8593165":{"post_code":"8593165","prefecture":"NAGASAKI KEN","city":"SASEBO SHI","town":"ENAGACHO","perfecture_jp":"長崎県","jp_add_1":"佐世保市","jp_add_2":"江永町"},"8596131":{"post_code":"8596131","prefecture":"NAGASAKI KEN","city":"SASEBO SHI","town":"EMUKAECHO AKASAKA","perfecture_jp":"長崎県","jp_add_1":"佐世保市","jp_add_2":"江迎町赤坂"},"8596111":{"post_code":"8596111","prefecture":"NAGASAKI KEN","city":"SASEBO SHI","town":"EMUKAECHO IIRAZAKA","perfecture_jp":"長崎県","jp_add_1":"佐世保市","jp_add_2":"江迎町飯良坂"},"8596133":{"post_code":"8596133","prefecture":"NAGASAKI KEN","city":"SASEBO SHI","town":"EMUKAECHO INOTSUKI","perfecture_jp":"長崎県","jp_add_1":"佐世保市","jp_add_2":"江迎町猪調"},"8596103":{"post_code":"8596103","prefecture":"NAGASAKI KEN","city":"SASEBO SHI","town":"EMUKAECHO UMETATE","perfecture_jp":"長崎県","jp_add_1":"佐世保市","jp_add_2":"江迎町埋立"},"8596114":{"post_code":"8596114","prefecture":"NAGASAKI KEN","city":"SASEBO SHI","town":"EMUKAECHO EBIRAO","perfecture_jp":"長崎県","jp_add_1":"佐世保市","jp_add_2":"江迎町箙尾"},"8596121":{"post_code":"8596121","prefecture":"NAGASAKI KEN","city":"SASEBO SHI","town":"EMUKAECHO OKUGAWACHI","perfecture_jp":"長崎県","jp_add_1":"佐世保市","jp_add_2":"江迎町奥川内"},"8596105":{"post_code":"8596105","prefecture":"NAGASAKI KEN","city":"SASEBO SHI","town":"EMUKAECHO KAJINOMURA","perfecture_jp":"長崎県","jp_add_1":"佐世保市","jp_add_2":"江迎町梶ノ村"},"8596102":{"post_code":"8596102","prefecture":"NAGASAKI KEN","city":"SASEBO SHI","town":"EMUKAECHO KAMIGAWACHI","perfecture_jp":"長崎県","jp_add_1":"佐世保市","jp_add_2":"江迎町上川内"},"8596106":{"post_code":"8596106","prefecture":"NAGASAKI KEN","city":"SASEBO SHI","town":"EMUKAECHO KITADA","perfecture_jp":"長崎県","jp_add_1":"佐世保市","jp_add_2":"江迎町北田"},"8596126":{"post_code":"8596126","prefecture":"NAGASAKI KEN","city":"SASEBO SHI","town":"EMUKAECHO KITAHIRA","perfecture_jp":"長崎県","jp_add_1":"佐世保市","jp_add_2":"江迎町北平"},"8596113":{"post_code":"8596113","prefecture":"NAGASAKI KEN","city":"SASEBO SHI","town":"EMUKAECHO KURIKOSHI","perfecture_jp":"長崎県","jp_add_1":"佐世保市","jp_add_2":"江迎町栗越"},"8596123":{"post_code":"8596123","prefecture":"NAGASAKI KEN","city":"SASEBO SHI","town":"EMUKAECHO KOGAWACHI","perfecture_jp":"長崎県","jp_add_1":"佐世保市","jp_add_2":"江迎町小川内"},"8596132":{"post_code":"8596132","prefecture":"NAGASAKI KEN","city":"SASEBO SHI","town":"EMUKAECHO SHITONOJI","perfecture_jp":"長崎県","jp_add_1":"佐世保市","jp_add_2":"江迎町志戸氏"},"8596104":{"post_code":"8596104","prefecture":"NAGASAKI KEN","city":"SASEBO SHI","town":"EMUKAECHO SUETACHIBANA","perfecture_jp":"長崎県","jp_add_1":"佐世保市","jp_add_2":"江迎町末橘"},"8596134":{"post_code":"8596134","prefecture":"NAGASAKI KEN","city":"SASEBO SHI","town":"EMUKAECHO TANOMOTO","perfecture_jp":"長崎県","jp_add_1":"佐世保市","jp_add_2":"江迎町田ノ元"},"8596115":{"post_code":"8596115","prefecture":"NAGASAKI KEN","city":"SASEBO SHI","town":"EMUKAECHO NAKAO","perfecture_jp":"長崎県","jp_add_1":"佐世保市","jp_add_2":"江迎町中尾"},"8596101":{"post_code":"8596101","prefecture":"NAGASAKI KEN","city":"SASEBO SHI","town":"EMUKAECHO NAGASAKA","perfecture_jp":"長崎県","jp_add_1":"佐世保市","jp_add_2":"江迎町長坂"},"8596122":{"post_code":"8596122","prefecture":"NAGASAKI KEN","city":"SASEBO SHI","town":"EMUKAECHO NANAKAI","perfecture_jp":"長崎県","jp_add_1":"佐世保市","jp_add_2":"江迎町七腕"},"8596112":{"post_code":"8596112","prefecture":"NAGASAKI KEN","city":"SASEBO SHI","town":"EMUKAECHO NEBIKI","perfecture_jp":"長崎県","jp_add_1":"佐世保市","jp_add_2":"江迎町根引"},"8596125":{"post_code":"8596125","prefecture":"NAGASAKI KEN","city":"SASEBO SHI","town":"EMUKAECHO MIURA","perfecture_jp":"長崎県","jp_add_1":"佐世保市","jp_add_2":"江迎町三浦"},"8596124":{"post_code":"8596124","prefecture":"NAGASAKI KEN","city":"SASEBO SHI","town":"EMUKAECHO MIDAREBASHI","perfecture_jp":"長崎県","jp_add_1":"佐世保市","jp_add_2":"江迎町乱橋"},"8593233":{"post_code":"8593233","prefecture":"NAGASAKI KEN","city":"SASEBO SHI","town":"OKUYAMACHO","perfecture_jp":"長崎県","jp_add_1":"佐世保市","jp_add_2":"奥山町"},"8593216":{"post_code":"8593216","prefecture":"NAGASAKI KEN","city":"SASEBO SHI","town":"KATSUMICHO","perfecture_jp":"長崎県","jp_add_1":"佐世保市","jp_add_2":"勝海町"},"8593166":{"post_code":"8593166","prefecture":"NAGASAKI KEN","city":"SASEBO SHI","town":"KIHARACHO","perfecture_jp":"長崎県","jp_add_1":"佐世保市","jp_add_2":"木原町"},"8593161":{"post_code":"8593161","prefecture":"NAGASAKI KEN","city":"SASEBO SHI","town":"KUCHINOCHO","perfecture_jp":"長崎県","jp_add_1":"佐世保市","jp_add_2":"口の尾町"},"8593157":{"post_code":"8593157","prefecture":"NAGASAKI KEN","city":"SASEBO SHI","town":"KUWAKOBACHO","perfecture_jp":"長崎県","jp_add_1":"佐世保市","jp_add_2":"桑木場町"},"8593164":{"post_code":"8593164","prefecture":"NAGASAKI KEN","city":"SASEBO SHI","town":"KOKONNOCHO","perfecture_jp":"長崎県","jp_add_1":"佐世保市","jp_add_2":"心野町"},"8593214":{"post_code":"8593214","prefecture":"NAGASAKI KEN","city":"SASEBO SHI","town":"GONJOJI","perfecture_jp":"長崎県","jp_add_1":"佐世保市","jp_add_2":"権常寺"},"8593213":{"post_code":"8593213","prefecture":"NAGASAKI KEN","city":"SASEBO SHI","town":"GONJOJICHO","perfecture_jp":"長崎県","jp_add_1":"佐世保市","jp_add_2":"権常寺町"},"8593226":{"post_code":"8593226","prefecture":"NAGASAKI KEN","city":"SASEBO SHI","town":"SAKIOKACHO","perfecture_jp":"長崎県","jp_add_1":"佐世保市","jp_add_2":"崎岡町"},"8593242":{"post_code":"8593242","prefecture":"NAGASAKI KEN","city":"SASEBO SHI","town":"SASHIKATACHO","perfecture_jp":"長崎県","jp_add_1":"佐世保市","jp_add_2":"指方町"},"8593211":{"post_code":"8593211","prefecture":"NAGASAKI KEN","city":"SASEBO SHI","town":"SANAECHO","perfecture_jp":"長崎県","jp_add_1":"佐世保市","jp_add_2":"早苗町"},"8593154":{"post_code":"8593154","prefecture":"NAGASAKI KEN","city":"SASEBO SHI","town":"SHIOHITASHICHO","perfecture_jp":"長崎県","jp_add_1":"佐世保市","jp_add_2":"塩浸町"},"8596201":{"post_code":"8596201","prefecture":"NAGASAKI KEN","city":"SASEBO SHI","town":"SHIKAMACHICHO OYA","perfecture_jp":"長崎県","jp_add_1":"佐世保市","jp_add_2":"鹿町町大屋"},"8596202":{"post_code":"8596202","prefecture":"NAGASAKI KEN","city":"SASEBO SHI","town":"SHIKAMACHICHO KAMIUTAGAURA","perfecture_jp":"長崎県","jp_add_1":"佐世保市","jp_add_2":"鹿町町上歌ヶ浦"},"8596203":{"post_code":"8596203","prefecture":"NAGASAKI KEN","city":"SASEBO SHI","town":"SHIKAMACHICHO KUCHINOSATO","perfecture_jp":"長崎県","jp_add_1":"佐世保市","jp_add_2":"鹿町町口ノ里"},"8596144":{"post_code":"8596144","prefecture":"NAGASAKI KEN","city":"SASEBO SHI","town":"SHIKAMACHICHO SHIKAMACHI","perfecture_jp":"長崎県","jp_add_1":"佐世保市","jp_add_2":"鹿町町鹿町"},"8596204":{"post_code":"8596204","prefecture":"NAGASAKI KEN","city":"SASEBO SHI","town":"SHIKAMACHICHO SHIMOTAGAURA","perfecture_jp":"長崎県","jp_add_1":"佐世保市","jp_add_2":"鹿町町下歌ヶ浦"},"8596141":{"post_code":"8596141","prefecture":"NAGASAKI KEN","city":"SASEBO SHI","town":"SHIKAMACHICHO SHINFUKAE","perfecture_jp":"長崎県","jp_add_1":"佐世保市","jp_add_2":"鹿町町新深江"},"8596145":{"post_code":"8596145","prefecture":"NAGASAKI KEN","city":"SASEBO SHI","town":"SHIKAMACHICHO DOINORA","perfecture_jp":"長崎県","jp_add_1":"佐世保市","jp_add_2":"鹿町町土肥ノ浦"},"8596205":{"post_code":"8596205","prefecture":"NAGASAKI KEN","city":"SASEBO SHI","town":"SHIKAMACHICHO NAKANO","perfecture_jp":"長崎県","jp_add_1":"佐世保市","jp_add_2":"鹿町町中野"},"8596206":{"post_code":"8596206","prefecture":"NAGASAKI KEN","city":"SASEBO SHI","town":"SHIKAMACHICHO NAGUSHI","perfecture_jp":"長崎県","jp_add_1":"佐世保市","jp_add_2":"鹿町町長串"},"8596142":{"post_code":"8596142","prefecture":"NAGASAKI KEN","city":"SASEBO SHI","town":"SHIKAMACHICHO FUKAE","perfecture_jp":"長崎県","jp_add_1":"佐世保市","jp_add_2":"鹿町町深江"},"8596143":{"post_code":"8596143","prefecture":"NAGASAKI KEN","city":"SASEBO SHI","town":"SHIKAMACHICHO FUKAEGATA","perfecture_jp":"長崎県","jp_add_1":"佐世保市","jp_add_2":"鹿町町深江潟"},"8596207":{"post_code":"8596207","prefecture":"NAGASAKI KEN","city":"SASEBO SHI","town":"SHIKAMACHICHO FUNENOMURA","perfecture_jp":"長崎県","jp_add_1":"佐世保市","jp_add_2":"鹿町町船ノ村"},"8593224":{"post_code":"8593224","prefecture":"NAGASAKI KEN","city":"SASEBO SHI","town":"SHIGEOCHO","perfecture_jp":"長崎県","jp_add_1":"佐世保市","jp_add_2":"重尾町"},"8593156":{"post_code":"8593156","prefecture":"NAGASAKI KEN","city":"SASEBO SHI","town":"SHIMONOHARUCHO","perfecture_jp":"長崎県","jp_add_1":"佐世保市","jp_add_2":"下の原町"},"8593237":{"post_code":"8593237","prefecture":"NAGASAKI KEN","city":"SASEBO SHI","town":"JOMACHO","perfecture_jp":"長崎県","jp_add_1":"佐世保市","jp_add_2":"城間町"},"8593158":{"post_code":"8593158","prefecture":"NAGASAKI KEN","city":"SASEBO SHI","town":"SHINGAECHO","perfecture_jp":"長崎県","jp_add_1":"佐世保市","jp_add_2":"新替町"},"8593152":{"post_code":"8593152","prefecture":"NAGASAKI KEN","city":"SASEBO SHI","town":"SHINGYOECHO","perfecture_jp":"長崎県","jp_add_1":"佐世保市","jp_add_2":"新行江町"},"8593203":{"post_code":"8593203","prefecture":"NAGASAKI KEN","city":"SASEBO SHI","town":"JINNOCHICHO","perfecture_jp":"長崎県","jp_add_1":"佐世保市","jp_add_2":"陣の内町"},"8596401":{"post_code":"8596401","prefecture":"NAGASAKI KEN","city":"SASEBO SHI","town":"SECHIBARUCHO AKAKOBA","perfecture_jp":"長崎県","jp_add_1":"佐世保市","jp_add_2":"世知原町赤木場"},"8596402":{"post_code":"8596402","prefecture":"NAGASAKI KEN","city":"SASEBO SHI","town":"SECHIBARUCHO IWAYAGUCHI","perfecture_jp":"長崎県","jp_add_1":"佐世保市","jp_add_2":"世知原町岩谷口"},"8596403":{"post_code":"8596403","prefecture":"NAGASAKI KEN","city":"SASEBO SHI","town":"SECHIBARUCHO UENOHARA","perfecture_jp":"長崎県","jp_add_1":"佐世保市","jp_add_2":"世知原町上野原"},"8596404":{"post_code":"8596404","prefecture":"NAGASAKI KEN","city":"SASEBO SHI","town":"SECHIBARUCHO OTA","perfecture_jp":"長崎県","jp_add_1":"佐世保市","jp_add_2":"世知原町太田"},"8596405":{"post_code":"8596405","prefecture":"NAGASAKI KEN","city":"SASEBO SHI","town":"SECHIBARUCHO KAISAKU","perfecture_jp":"長崎県","jp_add_1":"佐世保市","jp_add_2":"世知原町開作"},"8596406":{"post_code":"8596406","prefecture":"NAGASAKI KEN","city":"SASEBO SHI","town":"SECHIBARUCHO KIURABARU","perfecture_jp":"長崎県","jp_add_1":"佐世保市","jp_add_2":"世知原町木浦原"},"8596407":{"post_code":"8596407","prefecture":"NAGASAKI KEN","city":"SASEBO SHI","town":"SECHIBARUCHO KITAGAWACHI","perfecture_jp":"長崎県","jp_add_1":"佐世保市","jp_add_2":"世知原町北川内"},"8596408":{"post_code":"8596408","prefecture":"NAGASAKI KEN","city":"SASEBO SHI","town":"SECHIBARUCHO KURIMUKAE","perfecture_jp":"長崎県","jp_add_1":"佐世保市","jp_add_2":"世知原町栗迎"},"8596411":{"post_code":"8596411","prefecture":"NAGASAKI KEN","city":"SASEBO SHI","town":"SECHIBARUCHO NAGATASHIRO","perfecture_jp":"長崎県","jp_add_1":"佐世保市","jp_add_2":"世知原町長田代"},"8596409":{"post_code":"8596409","prefecture":"NAGASAKI KEN","city":"SASEBO SHI","town":"SECHIBARUCHO NAKADORI","perfecture_jp":"長崎県","jp_add_1":"佐世保市","jp_add_2":"世知原町中通"},"8596412":{"post_code":"8596412","prefecture":"NAGASAKI KEN","city":"SASEBO SHI","town":"SECHIBARUCHO NISHINOTAKE","perfecture_jp":"長崎県","jp_add_1":"佐世保市","jp_add_2":"世知原町西ノ岳"},"8596413":{"post_code":"8596413","prefecture":"NAGASAKI KEN","city":"SASEBO SHI","town":"SECHIBARUCHO YANAZE","perfecture_jp":"長崎県","jp_add_1":"佐世保市","jp_add_2":"世知原町笥瀬"},"8596414":{"post_code":"8596414","prefecture":"NAGASAKI KEN","city":"SASEBO SHI","town":"SECHIBARUCHO YABITSU","perfecture_jp":"長崎県","jp_add_1":"佐世保市","jp_add_2":"世知原町矢櫃"},"8596415":{"post_code":"8596415","prefecture":"NAGASAKI KEN","city":"SASEBO SHI","town":"SECHIBARUCHO YARIMAKI","perfecture_jp":"長崎県","jp_add_1":"佐世保市","jp_add_2":"世知原町槍巻"},"8593231":{"post_code":"8593231","prefecture":"NAGASAKI KEN","city":"SASEBO SHI","town":"SEDOCHO","perfecture_jp":"長崎県","jp_add_1":"佐世保市","jp_add_2":"瀬道町"},"8593205":{"post_code":"8593205","prefecture":"NAGASAKI KEN","city":"SASEBO SHI","town":"TANORACHO","perfecture_jp":"長崎県","jp_add_1":"佐世保市","jp_add_2":"田の浦町"},"8593234":{"post_code":"8593234","prefecture":"NAGASAKI KEN","city":"SASEBO SHI","town":"NAGAHATACHO","perfecture_jp":"長崎県","jp_add_1":"佐世保市","jp_add_2":"長畑町"},"8593221":{"post_code":"8593221","prefecture":"NAGASAKI KEN","city":"SASEBO SHI","town":"NAKAHARACHO","perfecture_jp":"長崎県","jp_add_1":"佐世保市","jp_add_2":"中原町"},"8593215":{"post_code":"8593215","prefecture":"NAGASAKI KEN","city":"SASEBO SHI","town":"HAIKI","perfecture_jp":"長崎県","jp_add_1":"佐世保市","jp_add_2":"早岐"},"8593243":{"post_code":"8593243","prefecture":"NAGASAKI KEN","city":"SASEBO SHI","town":"HAUSUTEMBOSUMACHI","perfecture_jp":"長崎県","jp_add_1":"佐世保市","jp_add_2":"ハウステンボス町"},"8593236":{"post_code":"8593236","prefecture":"NAGASAKI KEN","city":"SASEBO SHI","town":"HAENOSAKICHO","perfecture_jp":"長崎県","jp_add_1":"佐世保市","jp_add_2":"南風崎町"},"8593232":{"post_code":"8593232","prefecture":"NAGASAKI KEN","city":"SASEBO SHI","town":"HAGISAKACHO","perfecture_jp":"長崎県","jp_add_1":"佐世保市","jp_add_2":"萩坂町"},"8593212":{"post_code":"8593212","prefecture":"NAGASAKI KEN","city":"SASEBO SHI","town":"HANATAKA","perfecture_jp":"長崎県","jp_add_1":"佐世保市","jp_add_2":"花高"},"8593454":{"post_code":"8593454","prefecture":"NAGASAKI KEN","city":"SASEBO SHI","town":"HARIO KITAMACHI","perfecture_jp":"長崎県","jp_add_1":"佐世保市","jp_add_2":"針尾北町"},"8593452":{"post_code":"8593452","prefecture":"NAGASAKI KEN","city":"SASEBO SHI","town":"HARIO NAKAMACHI","perfecture_jp":"長崎県","jp_add_1":"佐世保市","jp_add_2":"針尾中町"},"8593453":{"post_code":"8593453","prefecture":"NAGASAKI KEN","city":"SASEBO SHI","town":"HARIO NISHIMACHI","perfecture_jp":"長崎県","jp_add_1":"佐世保市","jp_add_2":"針尾西町"},"8593451":{"post_code":"8593451","prefecture":"NAGASAKI KEN","city":"SASEBO SHI","town":"HARIO HIGASHIMACHI","perfecture_jp":"長崎県","jp_add_1":"佐世保市","jp_add_2":"針尾東町"},"8593201":{"post_code":"8593201","prefecture":"NAGASAKI KEN","city":"SASEBO SHI","town":"HIRAMATSUCHO","perfecture_jp":"長崎県","jp_add_1":"佐世保市","jp_add_2":"平松町"},"8593223":{"post_code":"8593223","prefecture":"NAGASAKI KEN","city":"SASEBO SHI","town":"HIROTA","perfecture_jp":"長崎県","jp_add_1":"佐世保市","jp_add_2":"広田"},"8593222":{"post_code":"8593222","prefecture":"NAGASAKI KEN","city":"SASEBO SHI","town":"HIRODACHO","perfecture_jp":"長崎県","jp_add_1":"佐世保市","jp_add_2":"広田町"},"8593153":{"post_code":"8593153","prefecture":"NAGASAKI KEN","city":"SASEBO SHI","town":"MIKAWACHISHIMMACHI","perfecture_jp":"長崎県","jp_add_1":"佐世保市","jp_add_2":"三川内新町"},"8593155":{"post_code":"8593155","prefecture":"NAGASAKI KEN","city":"SASEBO SHI","town":"MIKAWACHICHO","perfecture_jp":"長崎県","jp_add_1":"佐世保市","jp_add_2":"三川内町"},"8593151":{"post_code":"8593151","prefecture":"NAGASAKI KEN","city":"SASEBO SHI","town":"MIKAWACHIHOMMACHI","perfecture_jp":"長崎県","jp_add_1":"佐世保市","jp_add_2":"三川内本町"},"8593235":{"post_code":"8593235","prefecture":"NAGASAKI KEN","city":"SASEBO SHI","town":"MIYAZUCHO","perfecture_jp":"長崎県","jp_add_1":"佐世保市","jp_add_2":"宮津町"},"8593163":{"post_code":"8593163","prefecture":"NAGASAKI KEN","city":"SASEBO SHI","town":"YOKOTECHO","perfecture_jp":"長崎県","jp_add_1":"佐世保市","jp_add_2":"横手町"},"8596303":{"post_code":"8596303","prefecture":"NAGASAKI KEN","city":"SASEBO SHI","town":"YOSHIICHO ITABI","perfecture_jp":"長崎県","jp_add_1":"佐世保市","jp_add_2":"吉井町板樋"},"8596325":{"post_code":"8596325","prefecture":"NAGASAKI KEN","city":"SASEBO SHI","town":"YOSHIICHO OWATARI","perfecture_jp":"長崎県","jp_add_1":"佐世保市","jp_add_2":"吉井町大渡"},"8596316":{"post_code":"8596316","prefecture":"NAGASAKI KEN","city":"SASEBO SHI","town":"YOSHIICHO OTSUISHIO","perfecture_jp":"長崎県","jp_add_1":"佐世保市","jp_add_2":"吉井町乙石尾"},"8596322":{"post_code":"8596322","prefecture":"NAGASAKI KEN","city":"SASEBO SHI","town":"YOSHIICHO ODORIZE","perfecture_jp":"長崎県","jp_add_1":"佐世保市","jp_add_2":"吉井町踊瀬"},"8596304":{"post_code":"8596304","prefecture":"NAGASAKI KEN","city":"SASEBO SHI","town":"YOSHIICHO KAJIKOBA","perfecture_jp":"長崎県","jp_add_1":"佐世保市","jp_add_2":"吉井町梶木場"},"8596313":{"post_code":"8596313","prefecture":"NAGASAKI KEN","city":"SASEBO SHI","town":"YOSHIICHO KAMIYOSHIDA","perfecture_jp":"長崎県","jp_add_1":"佐世保市","jp_add_2":"吉井町上吉田"},"8596315":{"post_code":"8596315","prefecture":"NAGASAKI KEN","city":"SASEBO SHI","town":"YOSHIICHO SHIMOBARU","perfecture_jp":"長崎県","jp_add_1":"佐世保市","jp_add_2":"吉井町下原"},"8596301":{"post_code":"8596301","prefecture":"NAGASAKI KEN","city":"SASEBO SHI","town":"YOSHIICHO SONO","perfecture_jp":"長崎県","jp_add_1":"佐世保市","jp_add_2":"吉井町草ノ尾"},"8596317":{"post_code":"8596317","prefecture":"NAGASAKI KEN","city":"SASEBO SHI","town":"YOSHIICHO TAKAMINE","perfecture_jp":"長崎県","jp_add_1":"佐世保市","jp_add_2":"吉井町高峰"},"8596326":{"post_code":"8596326","prefecture":"NAGASAKI KEN","city":"SASEBO SHI","town":"YOSHIICHO TATEISHI","perfecture_jp":"長崎県","jp_add_1":"佐世保市","jp_add_2":"吉井町立石"},"8596314":{"post_code":"8596314","prefecture":"NAGASAKI KEN","city":"SASEBO SHI","town":"YOSHIICHO TABARU","perfecture_jp":"長崎県","jp_add_1":"佐世保市","jp_add_2":"吉井町田原"},"8596305":{"post_code":"8596305","prefecture":"NAGASAKI KEN","city":"SASEBO SHI","town":"YOSHIICHO NAOYA","perfecture_jp":"長崎県","jp_add_1":"佐世保市","jp_add_2":"吉井町直谷"},"8596311":{"post_code":"8596311","prefecture":"NAGASAKI KEN","city":"SASEBO SHI","town":"YOSHIICHO HASHIKAWACHI","perfecture_jp":"長崎県","jp_add_1":"佐世保市","jp_add_2":"吉井町橋川内"},"8596312":{"post_code":"8596312","prefecture":"NAGASAKI KEN","city":"SASEBO SHI","town":"YOSHIICHO HASHIGUCHI","perfecture_jp":"長崎県","jp_add_1":"佐世保市","jp_add_2":"吉井町橋口"},"8596323":{"post_code":"8596323","prefecture":"NAGASAKI KEN","city":"SASEBO SHI","town":"YOSHIICHO HARUAKE","perfecture_jp":"長崎県","jp_add_1":"佐世保市","jp_add_2":"吉井町春明"},"8596302":{"post_code":"8596302","prefecture":"NAGASAKI KEN","city":"SASEBO SHI","town":"YOSHIICHO FUKUI","perfecture_jp":"長崎県","jp_add_1":"佐世保市","jp_add_2":"吉井町福井"},"8596321":{"post_code":"8596321","prefecture":"NAGASAKI KEN","city":"SASEBO SHI","town":"YOSHIICHO MAEDAKE","perfecture_jp":"長崎県","jp_add_1":"佐世保市","jp_add_2":"吉井町前岳"},"8596324":{"post_code":"8596324","prefecture":"NAGASAKI KEN","city":"SASEBO SHI","town":"YOSHIICHO YOSHIMOTO","perfecture_jp":"長崎県","jp_add_1":"佐世保市","jp_add_2":"吉井町吉元"},"8593162":{"post_code":"8593162","prefecture":"NAGASAKI KEN","city":"SASEBO SHI","town":"YOSHIFUKUCHO","perfecture_jp":"長崎県","jp_add_1":"佐世保市","jp_add_2":"吉福町"},"8593204":{"post_code":"8593204","prefecture":"NAGASAKI KEN","city":"SASEBO SHI","town":"WAKATAKEDAIMACHI","perfecture_jp":"長崎県","jp_add_1":"佐世保市","jp_add_2":"若竹台町"},"8591412":{"post_code":"8591412","prefecture":"NAGASAKI KEN","city":"SHIMABARA SHI","town":"ARIAKECHO OMISAKI OTSU","perfecture_jp":"長崎県","jp_add_1":"島原市","jp_add_2":"有明町大三東乙"},"8591411":{"post_code":"8591411","prefecture":"NAGASAKI KEN","city":"SHIMABARA SHI","town":"ARIAKECHO OMISAKI KO","perfecture_jp":"長崎県","jp_add_1":"島原市","jp_add_2":"有明町大三東甲"},"8591414":{"post_code":"8591414","prefecture":"NAGASAKI KEN","city":"SHIMABARA SHI","town":"ARIAKECHO OMISAKI TEI","perfecture_jp":"長崎県","jp_add_1":"島原市","jp_add_2":"有明町大三東丁"},"8591413":{"post_code":"8591413","prefecture":"NAGASAKI KEN","city":"SHIMABARA SHI","town":"ARIAKECHO OMISAKI HEI","perfecture_jp":"長崎県","jp_add_1":"島原市","jp_add_2":"有明町大三東丙"},"8591415":{"post_code":"8591415","prefecture":"NAGASAKI KEN","city":"SHIMABARA SHI","town":"ARIAKECHO OMISAKI BO","perfecture_jp":"長崎県","jp_add_1":"島原市","jp_add_2":"有明町大三東戊"},"8591402":{"post_code":"8591402","prefecture":"NAGASAKI KEN","city":"SHIMABARA SHI","town":"ARIAKECHO YUE OTSU","perfecture_jp":"長崎県","jp_add_1":"島原市","jp_add_2":"有明町湯江乙"},"8591401":{"post_code":"8591401","prefecture":"NAGASAKI KEN","city":"SHIMABARA SHI","town":"ARIAKECHO YUE KO","perfecture_jp":"長崎県","jp_add_1":"島原市","jp_add_2":"有明町湯江甲"},"8591404":{"post_code":"8591404","prefecture":"NAGASAKI KEN","city":"SHIMABARA SHI","town":"ARIAKECHO YUE TEI","perfecture_jp":"長崎県","jp_add_1":"島原市","jp_add_2":"有明町湯江丁"},"8591403":{"post_code":"8591403","prefecture":"NAGASAKI KEN","city":"SHIMABARA SHI","town":"ARIAKECHO YUE HEI","perfecture_jp":"長崎県","jp_add_1":"島原市","jp_add_2":"有明町湯江丙"},"8590311":{"post_code":"8590311","prefecture":"NAGASAKI KEN","city":"ISAHAYA SHI","town":"AZUKISAKIMACHI","perfecture_jp":"長崎県","jp_add_1":"諫早市","jp_add_2":"小豆崎町"},"8590315":{"post_code":"8590315","prefecture":"NAGASAKI KEN","city":"ISAHAYA SHI","town":"OBAMACHI","perfecture_jp":"長崎県","jp_add_1":"諫早市","jp_add_2":"大場町"},"8590314":{"post_code":"8590314","prefecture":"NAGASAKI KEN","city":"ISAHAYA SHI","town":"OCHOZUMACHI","perfecture_jp":"長崎県","jp_add_1":"諫早市","jp_add_2":"御手水町"},"8590303":{"post_code":"8590303","prefecture":"NAGASAKI KEN","city":"ISAHAYA SHI","town":"KOTEMMACHI","perfecture_jp":"長崎県","jp_add_1":"諫早市","jp_add_2":"高天町"},"8590166":{"post_code":"8590166","prefecture":"NAGASAKI KEN","city":"ISAHAYA SHI","town":"KONAGAICHO IZAKI","perfecture_jp":"長崎県","jp_add_1":"諫早市","jp_add_2":"小長井町井崎"},"8590151":{"post_code":"8590151","prefecture":"NAGASAKI KEN","city":"ISAHAYA SHI","town":"KONAGAICHO UCHIKOSHI","perfecture_jp":"長崎県","jp_add_1":"諫早市","jp_add_2":"小長井町打越"},"8590152":{"post_code":"8590152","prefecture":"NAGASAKI KEN","city":"ISAHAYA SHI","town":"KONAGAICHO OGARAMI","perfecture_jp":"長崎県","jp_add_1":"諫早市","jp_add_2":"小長井町大搦"},"8590153":{"post_code":"8590153","prefecture":"NAGASAKI KEN","city":"ISAHAYA SHI","town":"KONAGAICHO OMINE","perfecture_jp":"長崎県","jp_add_1":"諫早市","jp_add_2":"小長井町大峰"},"8590165":{"post_code":"8590165","prefecture":"NAGASAKI KEN","city":"ISAHAYA SHI","town":"KONAGAICHO OGAWAHARAURA","perfecture_jp":"長崎県","jp_add_1":"諫早市","jp_add_2":"小長井町小川原浦"},"8590154":{"post_code":"8590154","prefecture":"NAGASAKI KEN","city":"ISAHAYA SHI","town":"KONAGAICHO KOCHI","perfecture_jp":"長崎県","jp_add_1":"諫早市","jp_add_2":"小長井町川内"},"8590161":{"post_code":"8590161","prefecture":"NAGASAKI KEN","city":"ISAHAYA SHI","town":"KONAGAICHO KOBA","perfecture_jp":"長崎県","jp_add_1":"諫早市","jp_add_2":"小長井町古場"},"8590162":{"post_code":"8590162","prefecture":"NAGASAKI KEN","city":"ISAHAYA SHI","town":"KONAGAICHO SHINTABARU","perfecture_jp":"長崎県","jp_add_1":"諫早市","jp_add_2":"小長井町新田原"},"8590163":{"post_code":"8590163","prefecture":"NAGASAKI KEN","city":"ISAHAYA SHI","town":"KONAGAICHO TABARU","perfecture_jp":"長崎県","jp_add_1":"諫早市","jp_add_2":"小長井町田原"},"8590167":{"post_code":"8590167","prefecture":"NAGASAKI KEN","city":"ISAHAYA SHI","town":"KONAGAICHO TODAKE","perfecture_jp":"長崎県","jp_add_1":"諫早市","jp_add_2":"小長井町遠竹"},"8590164":{"post_code":"8590164","prefecture":"NAGASAKI KEN","city":"ISAHAYA SHI","town":"KONAGAICHO MAKI","perfecture_jp":"長崎県","jp_add_1":"諫早市","jp_add_2":"小長井町牧"},"8590305":{"post_code":"8590305","prefecture":"NAGASAKI KEN","city":"ISAHAYA SHI","town":"SARUZAKIMACHI","perfecture_jp":"長崎県","jp_add_1":"諫早市","jp_add_2":"猿崎町"},"8590302":{"post_code":"8590302","prefecture":"NAGASAKI KEN","city":"ISAHAYA SHI","town":"SHOKYUJIMACHI","perfecture_jp":"長崎県","jp_add_1":"諫早市","jp_add_2":"正久寺町"},"8590307":{"post_code":"8590307","prefecture":"NAGASAKI KEN","city":"ISAHAYA SHI","town":"SHIRAKIMINEMACHI","perfecture_jp":"長崎県","jp_add_1":"諫早市","jp_add_2":"白木峰町"},"8590304":{"post_code":"8590304","prefecture":"NAGASAKI KEN","city":"ISAHAYA SHI","town":"SHIRAHAMAMACHI","perfecture_jp":"長崎県","jp_add_1":"諫早市","jp_add_2":"白浜町"},"8590306":{"post_code":"8590306","prefecture":"NAGASAKI KEN","city":"ISAHAYA SHI","town":"SHIRAHARAMACHI","perfecture_jp":"長崎県","jp_add_1":"諫早市","jp_add_2":"白原町"},"8590121":{"post_code":"8590121","prefecture":"NAGASAKI KEN","city":"ISAHAYA SHI","town":"TAKAKICHO IZUMI","perfecture_jp":"長崎県","jp_add_1":"諫早市","jp_add_2":"高来町泉"},"8590111":{"post_code":"8590111","prefecture":"NAGASAKI KEN","city":"ISAHAYA SHI","town":"TAKAKICHO UWAGUMI","perfecture_jp":"長崎県","jp_add_1":"諫早市","jp_add_2":"高来町上与"},"8590171":{"post_code":"8590171","prefecture":"NAGASAKI KEN","city":"ISAHAYA SHI","town":"TAKAKICHO OEKANTAKU","perfecture_jp":"長崎県","jp_add_1":"諫早市","jp_add_2":"高来町小江干拓"},"8590101":{"post_code":"8590101","prefecture":"NAGASAKI KEN","city":"ISAHAYA SHI","town":"TAKAKICHO OTO","perfecture_jp":"長崎県","jp_add_1":"諫早市","jp_add_2":"高来町大戸"},"8590102":{"post_code":"8590102","prefecture":"NAGASAKI KEN","city":"ISAHAYA SHI","town":"TAKAKICHO ORIYAMA","perfecture_jp":"長崎県","jp_add_1":"諫早市","jp_add_2":"高来町折山"},"8590146":{"post_code":"8590146","prefecture":"NAGASAKI KEN","city":"ISAHAYA SHI","town":"TAKAKICHO KANASAKI","perfecture_jp":"長崎県","jp_add_1":"諫早市","jp_add_2":"高来町金崎"},"8590141":{"post_code":"8590141","prefecture":"NAGASAKI KEN","city":"ISAHAYA SHI","town":"TAKAKICHO KUMIZU","perfecture_jp":"長崎県","jp_add_1":"諫早市","jp_add_2":"高来町汲水"},"8590122":{"post_code":"8590122","prefecture":"NAGASAKI KEN","city":"ISAHAYA SHI","town":"TAKAKICHO KUROSAKI","perfecture_jp":"長崎県","jp_add_1":"諫早市","jp_add_2":"高来町黒崎"},"8590142":{"post_code":"8590142","prefecture":"NAGASAKI KEN","city":"ISAHAYA SHI","town":"TAKAKICHO KURONITA","perfecture_jp":"長崎県","jp_add_1":"諫早市","jp_add_2":"高来町黒新田"},"8590131":{"post_code":"8590131","prefecture":"NAGASAKI KEN","city":"ISAHAYA SHI","town":"TAKAKICHO KOZUKURA","perfecture_jp":"長崎県","jp_add_1":"諫早市","jp_add_2":"高来町神津倉"},"8590103":{"post_code":"8590103","prefecture":"NAGASAKI KEN","city":"ISAHAYA SHI","town":"TAKAKICHO KOBA","perfecture_jp":"長崎県","jp_add_1":"諫早市","jp_add_2":"高来町古場"},"8590112":{"post_code":"8590112","prefecture":"NAGASAKI KEN","city":"ISAHAYA SHI","town":"TAKAKICHO KOBUNATSU","perfecture_jp":"長崎県","jp_add_1":"諫早市","jp_add_2":"高来町小船津"},"8590123":{"post_code":"8590123","prefecture":"NAGASAKI KEN","city":"ISAHAYA SHI","town":"TAKAKICHO KOMINE","perfecture_jp":"長崎県","jp_add_1":"諫早市","jp_add_2":"高来町小峰"},"8590143":{"post_code":"8590143","prefecture":"NAGASAKI KEN","city":"ISAHAYA SHI","town":"TAKAKICHO SAKAMOTO","perfecture_jp":"長崎県","jp_add_1":"諫早市","jp_add_2":"高来町坂元"},"8590124":{"post_code":"8590124","prefecture":"NAGASAKI KEN","city":"ISAHAYA SHI","town":"TAKAKICHO SATO","perfecture_jp":"長崎県","jp_add_1":"諫早市","jp_add_2":"高来町里"},"8590132":{"post_code":"8590132","prefecture":"NAGASAKI KEN","city":"ISAHAYA SHI","town":"TAKAKICHO SAMBUICHI","perfecture_jp":"長崎県","jp_add_1":"諫早市","jp_add_2":"高来町三部壱"},"8590113":{"post_code":"8590113","prefecture":"NAGASAKI KEN","city":"ISAHAYA SHI","town":"TAKAKICHO SHITAGUMI","perfecture_jp":"長崎県","jp_add_1":"諫早市","jp_add_2":"高来町下与"},"8590125":{"post_code":"8590125","prefecture":"NAGASAKI KEN","city":"ISAHAYA SHI","town":"TAKAKICHO ZENJUJI","perfecture_jp":"長崎県","jp_add_1":"諫早市","jp_add_2":"高来町善住寺"},"8590104":{"post_code":"8590104","prefecture":"NAGASAKI KEN","city":"ISAHAYA SHI","town":"TAKAKICHO TACHIYAMA","perfecture_jp":"長崎県","jp_add_1":"諫早市","jp_add_2":"高来町建山"},"8590115":{"post_code":"8590115","prefecture":"NAGASAKI KEN","city":"ISAHAYA SHI","town":"TAKAKICHO NISHINO","perfecture_jp":"長崎県","jp_add_1":"諫早市","jp_add_2":"高来町西尾"},"8590114":{"post_code":"8590114","prefecture":"NAGASAKI KEN","city":"ISAHAYA SHI","town":"TAKAKICHO NISHIHIRABARU","perfecture_jp":"長崎県","jp_add_1":"諫早市","jp_add_2":"高来町西平原"},"8590126":{"post_code":"8590126","prefecture":"NAGASAKI KEN","city":"ISAHAYA SHI","town":"TAKAKICHO NORIGAWA","perfecture_jp":"長崎県","jp_add_1":"諫早市","jp_add_2":"高来町法川"},"8590133":{"post_code":"8590133","prefecture":"NAGASAKI KEN","city":"ISAHAYA SHI","town":"TAKAKICHO HIGASHIHIRABARU","perfecture_jp":"長崎県","jp_add_1":"諫早市","jp_add_2":"高来町東平原"},"8590116":{"post_code":"8590116","prefecture":"NAGASAKI KEN","city":"ISAHAYA SHI","town":"TAKAKICHO HIRATA","perfecture_jp":"長崎県","jp_add_1":"諫早市","jp_add_2":"高来町平田"},"8590106":{"post_code":"8590106","prefecture":"NAGASAKI KEN","city":"ISAHAYA SHI","town":"TAKAKICHO FUJITO","perfecture_jp":"長崎県","jp_add_1":"諫早市","jp_add_2":"高来町冨地戸"},"8590105":{"post_code":"8590105","prefecture":"NAGASAKI KEN","city":"ISAHAYA SHI","town":"TAKAKICHO FUNATSU","perfecture_jp":"長崎県","jp_add_1":"諫早市","jp_add_2":"高来町船津"},"8590127":{"post_code":"8590127","prefecture":"NAGASAKI KEN","city":"ISAHAYA SHI","town":"TAKAKICHO MACHIMYO","perfecture_jp":"長崎県","jp_add_1":"諫早市","jp_add_2":"高来町町名"},"8590147":{"post_code":"8590147","prefecture":"NAGASAKI KEN","city":"ISAHAYA SHI","town":"TAKAKICHO MIZUNORA","perfecture_jp":"長崎県","jp_add_1":"諫早市","jp_add_2":"高来町水ノ浦"},"8590144":{"post_code":"8590144","prefecture":"NAGASAKI KEN","city":"ISAHAYA SHI","town":"TAKAKICHO MIZOGUCHI","perfecture_jp":"長崎県","jp_add_1":"諫早市","jp_add_2":"高来町溝口"},"8590117":{"post_code":"8590117","prefecture":"NAGASAKI KEN","city":"ISAHAYA SHI","town":"TAKAKICHO MINE","perfecture_jp":"長崎県","jp_add_1":"諫早市","jp_add_2":"高来町峰"},"8590145":{"post_code":"8590145","prefecture":"NAGASAKI KEN","city":"ISAHAYA SHI","town":"TAKAKICHO YAMAMICHI","perfecture_jp":"長崎県","jp_add_1":"諫早市","jp_add_2":"高来町山道"},"8590403":{"post_code":"8590403","prefecture":"NAGASAKI KEN","city":"ISAHAYA SHI","town":"TARAMICHO ICHINUNO","perfecture_jp":"長崎県","jp_add_1":"諫早市","jp_add_2":"多良見町市布"},"8590402":{"post_code":"8590402","prefecture":"NAGASAKI KEN","city":"ISAHAYA SHI","town":"TARAMICHO KAKOI","perfecture_jp":"長崎県","jp_add_1":"諫早市","jp_add_2":"多良見町囲"},"8590406":{"post_code":"8590406","prefecture":"NAGASAKI KEN","city":"ISAHAYA SHI","town":"TARAMICHO KIDOKO","perfecture_jp":"長崎県","jp_add_1":"諫早市","jp_add_2":"多良見町木床"},"8590401":{"post_code":"8590401","prefecture":"NAGASAKI KEN","city":"ISAHAYA SHI","town":"TARAMICHO KEYA","perfecture_jp":"長崎県","jp_add_1":"諫早市","jp_add_2":"多良見町化屋"},"8590418":{"post_code":"8590418","prefecture":"NAGASAKI KEN","city":"ISAHAYA SHI","town":"TARAMICHO SASE","perfecture_jp":"長崎県","jp_add_1":"諫早市","jp_add_2":"多良見町佐瀬"},"8590407":{"post_code":"8590407","prefecture":"NAGASAKI KEN","city":"ISAHAYA SHI","town":"TARAMICHO SHISAIDO","perfecture_jp":"長崎県","jp_add_1":"諫早市","jp_add_2":"多良見町シーサイド"},"8590405":{"post_code":"8590405","prefecture":"NAGASAKI KEN","city":"ISAHAYA SHI","town":"TARAMICHO NAKAZATO","perfecture_jp":"長崎県","jp_add_1":"諫早市","jp_add_2":"多良見町中里"},"8590404":{"post_code":"8590404","prefecture":"NAGASAKI KEN","city":"ISAHAYA SHI","town":"TARAMICHO NISHIKAWAUCHI","perfecture_jp":"長崎県","jp_add_1":"諫早市","jp_add_2":"多良見町西川内"},"8590412":{"post_code":"8590412","prefecture":"NAGASAKI KEN","city":"ISAHAYA SHI","town":"TARAMICHO NISHIZONO","perfecture_jp":"長崎県","jp_add_1":"諫早市","jp_add_2":"多良見町西園"},"8590416":{"post_code":"8590416","prefecture":"NAGASAKI KEN","city":"ISAHAYA SHI","town":"TARAMICHO NOGAWAUCHI","perfecture_jp":"長崎県","jp_add_1":"諫早市","jp_add_2":"多良見町野川内"},"8590413":{"post_code":"8590413","prefecture":"NAGASAKI KEN","city":"ISAHAYA SHI","town":"TARAMICHO NOZOE","perfecture_jp":"長崎県","jp_add_1":"諫早市","jp_add_2":"多良見町野副"},"8590411":{"post_code":"8590411","prefecture":"NAGASAKI KEN","city":"ISAHAYA SHI","town":"TARAMICHO HIGASHIZONO","perfecture_jp":"長崎県","jp_add_1":"諫早市","jp_add_2":"多良見町東園"},"8590417":{"post_code":"8590417","prefecture":"NAGASAKI KEN","city":"ISAHAYA SHI","town":"TARAMICHO FUNATSU","perfecture_jp":"長崎県","jp_add_1":"諫早市","jp_add_2":"多良見町舟津"},"8590414":{"post_code":"8590414","prefecture":"NAGASAKI KEN","city":"ISAHAYA SHI","town":"TARAMICHO MOTOGAMA","perfecture_jp":"長崎県","jp_add_1":"諫早市","jp_add_2":"多良見町元釜"},"8590415":{"post_code":"8590415","prefecture":"NAGASAKI KEN","city":"ISAHAYA SHI","town":"TARAMICHO YAMAGAWAUCHI","perfecture_jp":"長崎県","jp_add_1":"諫早市","jp_add_2":"多良見町山川内"},"8590313":{"post_code":"8590313","prefecture":"NAGASAKI KEN","city":"ISAHAYA SHI","town":"NAKADAMACHI","perfecture_jp":"長崎県","jp_add_1":"諫早市","jp_add_2":"中田町"},"8590301":{"post_code":"8590301","prefecture":"NAGASAKI KEN","city":"ISAHAYA SHI","town":"NAGATAMACHI","perfecture_jp":"長崎県","jp_add_1":"諫早市","jp_add_2":"長田町"},"8590312":{"post_code":"8590312","prefecture":"NAGASAKI KEN","city":"ISAHAYA SHI","town":"NISHIZATOMACHI","perfecture_jp":"長崎県","jp_add_1":"諫早市","jp_add_2":"西里町"},"8595100":{"post_code":"8595100","prefecture":"NAGASAKI KEN","city":"HIRADO SHI","town":"IKANIKEISAIGANAIBAAI","perfecture_jp":"長崎県","jp_add_1":"平戸市","jp_add_2":""},"8595384":{"post_code":"8595384","prefecture":"NAGASAKI KEN","city":"HIRADO SHI","town":"AKAMATSUCHO","perfecture_jp":"長崎県","jp_add_1":"平戸市","jp_add_2":"赤松町"},"8595122":{"post_code":"8595122","prefecture":"NAGASAKI KEN","city":"HIRADO SHI","town":"AKENOKAWACHICHO","perfecture_jp":"長崎県","jp_add_1":"平戸市","jp_add_2":"明の川内町"},"8595515":{"post_code":"8595515","prefecture":"NAGASAKI KEN","city":"HIRADO SHI","town":"AYUKAWACHO","perfecture_jp":"長崎県","jp_add_1":"平戸市","jp_add_2":"鮎川町"},"8595382":{"post_code":"8595382","prefecture":"NAGASAKI KEN","city":"HIRADO SHI","town":"IIRACHO","perfecture_jp":"長崎県","jp_add_1":"平戸市","jp_add_2":"飯良町"},"8595701":{"post_code":"8595701","prefecture":"NAGASAKI KEN","city":"HIRADO SHI","town":"IKITSUKICHO ICHIBU","perfecture_jp":"長崎県","jp_add_1":"平戸市","jp_add_2":"生月町壱部"},"8595702":{"post_code":"8595702","prefecture":"NAGASAKI KEN","city":"HIRADO SHI","town":"IKITSUKICHO ICHIBURA","perfecture_jp":"長崎県","jp_add_1":"平戸市","jp_add_2":"生月町壱部浦"},"8595703":{"post_code":"8595703","prefecture":"NAGASAKI KEN","city":"HIRADO SHI","town":"IKITSUKICHO SATOMEN","perfecture_jp":"長崎県","jp_add_1":"平戸市","jp_add_2":"生月町里免"},"8595705":{"post_code":"8595705","prefecture":"NAGASAKI KEN","city":"HIRADO SHI","town":"IKITSUKICHO TACHIURA","perfecture_jp":"長崎県","jp_add_1":"平戸市","jp_add_2":"生月町舘浦"},"8595707":{"post_code":"8595707","prefecture":"NAGASAKI KEN","city":"HIRADO SHI","town":"IKITSUKICHO MISAKI","perfecture_jp":"長崎県","jp_add_1":"平戸市","jp_add_2":"生月町御崎"},"8595706":{"post_code":"8595706","prefecture":"NAGASAKI KEN","city":"HIRADO SHI","town":"IKITSUKICHO MINAMIMEN","perfecture_jp":"長崎県","jp_add_1":"平戸市","jp_add_2":"生月町南免"},"8595704":{"post_code":"8595704","prefecture":"NAGASAKI KEN","city":"HIRADO SHI","town":"IKITSUKICHO YAMADAMEN","perfecture_jp":"長崎県","jp_add_1":"平戸市","jp_add_2":"生月町山田免"},"8595502":{"post_code":"8595502","prefecture":"NAGASAKI KEN","city":"HIRADO SHI","town":"ITOYACHO","perfecture_jp":"長崎県","jp_add_1":"平戸市","jp_add_2":"猪渡谷町"},"8595121":{"post_code":"8595121","prefecture":"NAGASAKI KEN","city":"HIRADO SHI","town":"IWANOECHO","perfecture_jp":"長崎県","jp_add_1":"平戸市","jp_add_2":"岩の上町"},"8595117":{"post_code":"8595117","prefecture":"NAGASAKI KEN","city":"HIRADO SHI","town":"UONOTANACHO","perfecture_jp":"長崎県","jp_add_1":"平戸市","jp_add_2":"魚の棚町"},"8595111":{"post_code":"8595111","prefecture":"NAGASAKI KEN","city":"HIRADO SHI","town":"URANOCHO","perfecture_jp":"長崎県","jp_add_1":"平戸市","jp_add_2":"浦の町"},"8595376":{"post_code":"8595376","prefecture":"NAGASAKI KEN","city":"HIRADO SHI","town":"OISHIWAKICHO","perfecture_jp":"長崎県","jp_add_1":"平戸市","jp_add_2":"大石脇町"},"8595383":{"post_code":"8595383","prefecture":"NAGASAKI KEN","city":"HIRADO SHI","town":"OKAWARACHO","perfecture_jp":"長崎県","jp_add_1":"平戸市","jp_add_2":"大川原町"},"8595102":{"post_code":"8595102","prefecture":"NAGASAKI KEN","city":"HIRADO SHI","town":"OKUBOCHO","perfecture_jp":"長崎県","jp_add_1":"平戸市","jp_add_2":"大久保町"},"8595516":{"post_code":"8595516","prefecture":"NAGASAKI KEN","city":"HIRADO SHI","town":"OSASHICHO","perfecture_jp":"長崎県","jp_add_1":"平戸市","jp_add_2":"大佐志町"},"8595532":{"post_code":"8595532","prefecture":"NAGASAKI KEN","city":"HIRADO SHI","town":"OSHIJIKICHO","perfecture_jp":"長崎県","jp_add_1":"平戸市","jp_add_2":"大志々伎町"},"8595805":{"post_code":"8595805","prefecture":"NAGASAKI KEN","city":"HIRADO SHI","town":"OSHIMAMURA AZUCHIKAWACHI","perfecture_jp":"長崎県","jp_add_1":"平戸市","jp_add_2":"大島村的山川内"},"8595806":{"post_code":"8595806","prefecture":"NAGASAKI KEN","city":"HIRADO SHI","town":"OSHIMAMURA AZUCHITODA","perfecture_jp":"長崎県","jp_add_1":"平戸市","jp_add_2":"大島村的山戸田"},"8595804":{"post_code":"8595804","prefecture":"NAGASAKI KEN","city":"HIRADO SHI","town":"OSHIMAMURA ONEZAKA","perfecture_jp":"長崎県","jp_add_1":"平戸市","jp_add_2":"大島村大根坂"},"8595801":{"post_code":"8595801","prefecture":"NAGASAKI KEN","city":"HIRADO SHI","town":"OSHIMAMURA KONORA","perfecture_jp":"長崎県","jp_add_1":"平戸市","jp_add_2":"大島村神浦"},"8595803":{"post_code":"8595803","prefecture":"NAGASAKI KEN","city":"HIRADO SHI","town":"OSHIMAMURA NISHIUDO","perfecture_jp":"長崎県","jp_add_1":"平戸市","jp_add_2":"大島村西宇戸"},"8595802":{"post_code":"8595802","prefecture":"NAGASAKI KEN","city":"HIRADO SHI","town":"OSHIMAMURA MAEBIRA","perfecture_jp":"長崎県","jp_add_1":"平戸市","jp_add_2":"大島村前平"},"8595123":{"post_code":"8595123","prefecture":"NAGASAKI KEN","city":"HIRADO SHI","town":"ONOCHO","perfecture_jp":"長崎県","jp_add_1":"平戸市","jp_add_2":"大野町"},"8595131":{"post_code":"8595131","prefecture":"NAGASAKI KEN","city":"HIRADO SHI","town":"OYAMACHO","perfecture_jp":"長崎県","jp_add_1":"平戸市","jp_add_2":"大山町"},"8595534":{"post_code":"8595534","prefecture":"NAGASAKI KEN","city":"HIRADO SHI","town":"ODACHO","perfecture_jp":"長崎県","jp_add_1":"平戸市","jp_add_2":"小田町"},"8595152":{"post_code":"8595152","prefecture":"NAGASAKI KEN","city":"HIRADO SHI","town":"KAGAMIGAWACHO","perfecture_jp":"長崎県","jp_add_1":"平戸市","jp_add_2":"鏡川町"},"8595373":{"post_code":"8595373","prefecture":"NAGASAKI KEN","city":"HIRADO SHI","town":"KASUGACHO","perfecture_jp":"長崎県","jp_add_1":"平戸市","jp_add_2":"春日町"},"8595524":{"post_code":"8595524","prefecture":"NAGASAKI KEN","city":"HIRADO SHI","town":"KAMIAGECHO","perfecture_jp":"長崎県","jp_add_1":"平戸市","jp_add_2":"神上町"},"8595503":{"post_code":"8595503","prefecture":"NAGASAKI KEN","city":"HIRADO SHI","town":"KAMINAKATSURACHO","perfecture_jp":"長崎県","jp_add_1":"平戸市","jp_add_2":"上中津良町"},"8595132":{"post_code":"8595132","prefecture":"NAGASAKI KEN","city":"HIRADO SHI","town":"KAWACHICHO","perfecture_jp":"長崎県","jp_add_1":"平戸市","jp_add_2":"川内町"},"8595362":{"post_code":"8595362","prefecture":"NAGASAKI KEN","city":"HIRADO SHI","town":"KIGATSUCHO","perfecture_jp":"長崎県","jp_add_1":"平戸市","jp_add_2":"木ケ津町"},"8595113":{"post_code":"8595113","prefecture":"NAGASAKI KEN","city":"HIRADO SHI","town":"KIHIKIDACHO","perfecture_jp":"長崎県","jp_add_1":"平戸市","jp_add_2":"木引田町"},"8595363":{"post_code":"8595363","prefecture":"NAGASAKI KEN","city":"HIRADO SHI","town":"KUSAZUMICHO","perfecture_jp":"長崎県","jp_add_1":"平戸市","jp_add_2":"草積町"},"8595522":{"post_code":"8595522","prefecture":"NAGASAKI KEN","city":"HIRADO SHI","town":"KONOKAWACHO","perfecture_jp":"長崎県","jp_add_1":"平戸市","jp_add_2":"神ノ川町"},"8595118":{"post_code":"8595118","prefecture":"NAGASAKI KEN","city":"HIRADO SHI","town":"KOYAMACHI","perfecture_jp":"長崎県","jp_add_1":"平戸市","jp_add_2":"紺屋町"},"8595365":{"post_code":"8595365","prefecture":"NAGASAKI KEN","city":"HIRADO SHI","town":"KOBACHO","perfecture_jp":"長崎県","jp_add_1":"平戸市","jp_add_2":"木場町"},"8595151":{"post_code":"8595151","prefecture":"NAGASAKI KEN","city":"HIRADO SHI","town":"KOHIKICHO","perfecture_jp":"長崎県","jp_add_1":"平戸市","jp_add_2":"木引町"},"8595104":{"post_code":"8595104","prefecture":"NAGASAKI KEN","city":"HIRADO SHI","town":"SAKIGATACHO","perfecture_jp":"長崎県","jp_add_1":"平戸市","jp_add_2":"崎方町"},"8595505":{"post_code":"8595505","prefecture":"NAGASAKI KEN","city":"HIRADO SHI","town":"SHIKISACHO","perfecture_jp":"長崎県","jp_add_1":"平戸市","jp_add_2":"敷佐町"},"8595371":{"post_code":"8595371","prefecture":"NAGASAKI KEN","city":"HIRADO SHI","town":"SHISHICHO","perfecture_jp":"長崎県","jp_add_1":"平戸市","jp_add_2":"獅子町"},"8595533":{"post_code":"8595533","prefecture":"NAGASAKI KEN","city":"HIRADO SHI","town":"SHIJIKICHO","perfecture_jp":"長崎県","jp_add_1":"平戸市","jp_add_2":"志々伎町"},"8595511":{"post_code":"8595511","prefecture":"NAGASAKI KEN","city":"HIRADO SHI","town":"SHIBUNECHO","perfecture_jp":"長崎県","jp_add_1":"平戸市","jp_add_2":"神船町"},"8595504":{"post_code":"8595504","prefecture":"NAGASAKI KEN","city":"HIRADO SHI","town":"SHIMONAKATSURACHO","perfecture_jp":"長崎県","jp_add_1":"平戸市","jp_add_2":"下中津良町"},"8595144":{"post_code":"8595144","prefecture":"NAGASAKI KEN","city":"HIRADO SHI","town":"SHIMONAKANOCHO","perfecture_jp":"長崎県","jp_add_1":"平戸市","jp_add_2":"下中野町"},"8595142":{"post_code":"8595142","prefecture":"NAGASAKI KEN","city":"HIRADO SHI","town":"SHUSHICHO","perfecture_jp":"長崎県","jp_add_1":"平戸市","jp_add_2":"主師町"},"8595116":{"post_code":"8595116","prefecture":"NAGASAKI KEN","city":"HIRADO SHI","town":"SHOKUNINCHO","perfecture_jp":"長崎県","jp_add_1":"平戸市","jp_add_2":"職人町"},"8595115":{"post_code":"8595115","prefecture":"NAGASAKI KEN","city":"HIRADO SHI","town":"SHIMMACHI","perfecture_jp":"長崎県","jp_add_1":"平戸市","jp_add_2":"新町"},"8595372":{"post_code":"8595372","prefecture":"NAGASAKI KEN","city":"HIRADO SHI","town":"TAKAGOECHO","perfecture_jp":"長崎県","jp_add_1":"平戸市","jp_add_2":"高越町"},"8595101":{"post_code":"8595101","prefecture":"NAGASAKI KEN","city":"HIRADO SHI","town":"TAKUSHIMACHO","perfecture_jp":"長崎県","jp_add_1":"平戸市","jp_add_2":"度島町"},"8595527":{"post_code":"8595527","prefecture":"NAGASAKI KEN","city":"HIRADO SHI","town":"TASHIROCHO","perfecture_jp":"長崎県","jp_add_1":"平戸市","jp_add_2":"田代町"},"8595103":{"post_code":"8595103","prefecture":"NAGASAKI KEN","city":"HIRADO SHI","town":"TASUKECHO","perfecture_jp":"長崎県","jp_add_1":"平戸市","jp_add_2":"田助町"},"8594822":{"post_code":"8594822","prefecture":"NAGASAKI KEN","city":"HIRADO SHI","town":"TABIRACHO ISSEKIMEN","perfecture_jp":"長崎県","jp_add_1":"平戸市","jp_add_2":"田平町一関免"},"8594814":{"post_code":"8594814","prefecture":"NAGASAKI KEN","city":"HIRADO SHI","town":"TABIRACHO IYOSHIMEN","perfecture_jp":"長崎県","jp_add_1":"平戸市","jp_add_2":"田平町以善免"},"8594821":{"post_code":"8594821","prefecture":"NAGASAKI KEN","city":"HIRADO SHI","town":"TABIRACHO OKUBOMEN","perfecture_jp":"長崎県","jp_add_1":"平戸市","jp_add_2":"田平町大久保免"},"8594823":{"post_code":"8594823","prefecture":"NAGASAKI KEN","city":"HIRADO SHI","town":"TABIRACHO OGITAMEN","perfecture_jp":"長崎県","jp_add_1":"平戸市","jp_add_2":"田平町荻田免"},"8594804":{"post_code":"8594804","prefecture":"NAGASAKI KEN","city":"HIRADO SHI","town":"TABIRACHO KAMIGAMEMEN","perfecture_jp":"長崎県","jp_add_1":"平戸市","jp_add_2":"田平町上亀免"},"8594803":{"post_code":"8594803","prefecture":"NAGASAKI KEN","city":"HIRADO SHI","town":"TABIRACHO KOZAKIMEN","perfecture_jp":"長崎県","jp_add_1":"平戸市","jp_add_2":"田平町小崎免"},"8594824":{"post_code":"8594824","prefecture":"NAGASAKI KEN","city":"HIRADO SHI","town":"TABIRACHO KOTEDAMEN","perfecture_jp":"長崎県","jp_add_1":"平戸市","jp_add_2":"田平町小手田免"},"8594807":{"post_code":"8594807","prefecture":"NAGASAKI KEN","city":"HIRADO SHI","town":"TABIRACHO SATOMEN","perfecture_jp":"長崎県","jp_add_1":"平戸市","jp_add_2":"田平町里免"},"8594806":{"post_code":"8594806","prefecture":"NAGASAKI KEN","city":"HIRADO SHI","town":"TABIRACHO SHIMOGAMEMEN","perfecture_jp":"長崎県","jp_add_1":"平戸市","jp_add_2":"田平町下亀免"},"8594815":{"post_code":"8594815","prefecture":"NAGASAKI KEN","city":"HIRADO SHI","town":"TABIRACHO SHIMODERAMEN","perfecture_jp":"長崎県","jp_add_1":"平戸市","jp_add_2":"田平町下寺免"},"8594801":{"post_code":"8594801","prefecture":"NAGASAKI KEN","city":"HIRADO SHI","town":"TABIRACHO TAKEZAKIMEN","perfecture_jp":"長崎県","jp_add_1":"平戸市","jp_add_2":"田平町岳崎免"},"8594812":{"post_code":"8594812","prefecture":"NAGASAKI KEN","city":"HIRADO SHI","town":"TABIRACHO TASHIROMEN","perfecture_jp":"長崎県","jp_add_1":"平戸市","jp_add_2":"田平町田代免"},"8594826":{"post_code":"8594826","prefecture":"NAGASAKI KEN","city":"HIRADO SHI","town":"TABIRACHO NODAMEN","perfecture_jp":"長崎県","jp_add_1":"平戸市","jp_add_2":"田平町野田免"},"8594813":{"post_code":"8594813","prefecture":"NAGASAKI KEN","city":"HIRADO SHI","town":"TABIRACHO FUKATSUKIMEN","perfecture_jp":"長崎県","jp_add_1":"平戸市","jp_add_2":"田平町深月免"},"8594802":{"post_code":"8594802","prefecture":"NAGASAKI KEN","city":"HIRADO SHI","town":"TABIRACHO FUKUZAKIMEN","perfecture_jp":"長崎県","jp_add_1":"平戸市","jp_add_2":"田平町福崎免"},"8594811":{"post_code":"8594811","prefecture":"NAGASAKI KEN","city":"HIRADO SHI","town":"TABIRACHO FURUKAJIMEN","perfecture_jp":"長崎県","jp_add_1":"平戸市","jp_add_2":"田平町古梶免"},"8594805":{"post_code":"8594805","prefecture":"NAGASAKI KEN","city":"HIRADO SHI","town":"TABIRACHO MOTOYAMAMEN","perfecture_jp":"長崎県","jp_add_1":"平戸市","jp_add_2":"田平町本山免"},"8594825":{"post_code":"8594825","prefecture":"NAGASAKI KEN","city":"HIRADO SHI","town":"TABIRACHO YAMAUCHIMEN","perfecture_jp":"長崎県","jp_add_1":"平戸市","jp_add_2":"田平町山内免"},"8594827":{"post_code":"8594827","prefecture":"NAGASAKI KEN","city":"HIRADO SHI","town":"TABIRACHO YOKOSHIMAMEN","perfecture_jp":"長崎県","jp_add_1":"平戸市","jp_add_2":"田平町横島免"},"8595114":{"post_code":"8595114","prefecture":"NAGASAKI KEN","city":"HIRADO SHI","town":"TSUKIJICHO","perfecture_jp":"長崎県","jp_add_1":"平戸市","jp_add_2":"築地町"},"8595513":{"post_code":"8595513","prefecture":"NAGASAKI KEN","city":"HIRADO SHI","town":"TSUJICHO","perfecture_jp":"長崎県","jp_add_1":"平戸市","jp_add_2":"辻町"},"8595501":{"post_code":"8595501","prefecture":"NAGASAKI KEN","city":"HIRADO SHI","town":"TSUTSUMICHO","perfecture_jp":"長崎県","jp_add_1":"平戸市","jp_add_2":"堤町"},"8595512":{"post_code":"8595512","prefecture":"NAGASAKI KEN","city":"HIRADO SHI","town":"TSUYOSHICHO","perfecture_jp":"長崎県","jp_add_1":"平戸市","jp_add_2":"津吉町"},"8595153":{"post_code":"8595153","prefecture":"NAGASAKI KEN","city":"HIRADO SHI","town":"TOISHIGAWACHO","perfecture_jp":"長崎県","jp_add_1":"平戸市","jp_add_2":"戸石川町"},"8595133":{"post_code":"8595133","prefecture":"NAGASAKI KEN","city":"HIRADO SHI","town":"NAKANOOKUBOCHO","perfecture_jp":"長崎県","jp_add_1":"平戸市","jp_add_2":"中野大久保町"},"8595526":{"post_code":"8595526","prefecture":"NAGASAKI KEN","city":"HIRADO SHI","town":"NISHINAKAYAMACHO","perfecture_jp":"長崎県","jp_add_1":"平戸市","jp_add_2":"西中山町"},"8595381":{"post_code":"8595381","prefecture":"NAGASAKI KEN","city":"HIRADO SHI","town":"NESHIKOCHO","perfecture_jp":"長崎県","jp_add_1":"平戸市","jp_add_2":"根獅子町"},"8595535":{"post_code":"8595535","prefecture":"NAGASAKI KEN","city":"HIRADO SHI","town":"NOKOCHO","perfecture_jp":"長崎県","jp_add_1":"平戸市","jp_add_2":"野子町"},"8595531":{"post_code":"8595531","prefecture":"NAGASAKI KEN","city":"HIRADO SHI","town":"HAIFUKUCHO","perfecture_jp":"長崎県","jp_add_1":"平戸市","jp_add_2":"早福町"},"8595525":{"post_code":"8595525","prefecture":"NAGASAKI KEN","city":"HIRADO SHI","town":"HIGASHINAKAYAMACHO","perfecture_jp":"長崎県","jp_add_1":"平戸市","jp_add_2":"東中山町"},"8595361":{"post_code":"8595361","prefecture":"NAGASAKI KEN","city":"HIRADO SHI","town":"HIMOSASHICHO","perfecture_jp":"長崎県","jp_add_1":"平戸市","jp_add_2":"紐差町"},"8595374":{"post_code":"8595374","prefecture":"NAGASAKI KEN","city":"HIRADO SHI","town":"FUKAGAWACHO","perfecture_jp":"長崎県","jp_add_1":"平戸市","jp_add_2":"深川町"},"8595514":{"post_code":"8595514","prefecture":"NAGASAKI KEN","city":"HIRADO SHI","town":"BUDAIJICHO","perfecture_jp":"長崎県","jp_add_1":"平戸市","jp_add_2":"無代寺町"},"8595521":{"post_code":"8595521","prefecture":"NAGASAKI KEN","city":"HIRADO SHI","town":"FUNAGICHO","perfecture_jp":"長崎県","jp_add_1":"平戸市","jp_add_2":"船木町"},"8595145":{"post_code":"8595145","prefecture":"NAGASAKI KEN","city":"HIRADO SHI","town":"FURUECHO","perfecture_jp":"長崎県","jp_add_1":"平戸市","jp_add_2":"古江町"},"8595375":{"post_code":"8595375","prefecture":"NAGASAKI KEN","city":"HIRADO SHI","town":"HEGONOHARACHO","perfecture_jp":"長崎県","jp_add_1":"平戸市","jp_add_2":"朶の原町"},"8595143":{"post_code":"8595143","prefecture":"NAGASAKI KEN","city":"HIRADO SHI","town":"BOGATACHO","perfecture_jp":"長崎県","jp_add_1":"平戸市","jp_add_2":"坊方町"},"8595366":{"post_code":"8595366","prefecture":"NAGASAKI KEN","city":"HIRADO SHI","town":"HOKICHO","perfecture_jp":"長崎県","jp_add_1":"平戸市","jp_add_2":"宝亀町"},"8595523":{"post_code":"8595523","prefecture":"NAGASAKI KEN","city":"HIRADO SHI","town":"MAETSUYOSHICHO","perfecture_jp":"長崎県","jp_add_1":"平戸市","jp_add_2":"前津吉町"},"8595134":{"post_code":"8595134","prefecture":"NAGASAKI KEN","city":"HIRADO SHI","town":"MIZUTARICHO","perfecture_jp":"長崎県","jp_add_1":"平戸市","jp_add_2":"水垂町"},"8595112":{"post_code":"8595112","prefecture":"NAGASAKI KEN","city":"HIRADO SHI","town":"MIYANOCHO","perfecture_jp":"長崎県","jp_add_1":"平戸市","jp_add_2":"宮の町"},"8595364":{"post_code":"8595364","prefecture":"NAGASAKI KEN","city":"HIRADO SHI","town":"MUKAEHIMOSASHICHO","perfecture_jp":"長崎県","jp_add_1":"平戸市","jp_add_2":"迎紐差町"},"8595141":{"post_code":"8595141","prefecture":"NAGASAKI KEN","city":"HIRADO SHI","town":"YAMANAKACHO","perfecture_jp":"長崎県","jp_add_1":"平戸市","jp_add_2":"山中町"},"8594500":{"post_code":"8594500","prefecture":"NAGASAKI KEN","city":"MATSURA SHI","town":"IKANIKEISAIGANAIBAAI","perfecture_jp":"長崎県","jp_add_1":"松浦市","jp_add_2":""},"8594528":{"post_code":"8594528","prefecture":"NAGASAKI KEN","city":"MATSURA SHI","town":"IMAFUKUCHOURAMEN","perfecture_jp":"長崎県","jp_add_1":"松浦市","jp_add_2":"今福町浦免"},"8594521":{"post_code":"8594521","prefecture":"NAGASAKI KEN","city":"MATSURA SHI","town":"IMAFUKUCHOKITAMEN","perfecture_jp":"長崎県","jp_add_1":"松浦市","jp_add_2":"今福町北免"},"8594524":{"post_code":"8594524","prefecture":"NAGASAKI KEN","city":"MATSURA SHI","town":"IMAFUKUCHOKOBAMEN","perfecture_jp":"長崎県","jp_add_1":"松浦市","jp_add_2":"今福町木場免"},"8594526":{"post_code":"8594526","prefecture":"NAGASAKI KEN","city":"MATSURA SHI","town":"IMAFUKUCHOSAKANOMEN","perfecture_jp":"長崎県","jp_add_1":"松浦市","jp_add_2":"今福町坂野免"},"8594525":{"post_code":"8594525","prefecture":"NAGASAKI KEN","city":"MATSURA SHI","town":"IMAFUKUCHOTERAGEMEN","perfecture_jp":"長崎県","jp_add_1":"松浦市","jp_add_2":"今福町寺上免"},"8594529":{"post_code":"8594529","prefecture":"NAGASAKI KEN","city":"MATSURA SHI","town":"IMAFUKUCHOTOBISHIMAMEN","perfecture_jp":"長崎県","jp_add_1":"松浦市","jp_add_2":"今福町飛島免"},"8594523":{"post_code":"8594523","prefecture":"NAGASAKI KEN","city":"MATSURA SHI","town":"IMAFUKUCHONABERUBAEMEN","perfecture_jp":"長崎県","jp_add_1":"松浦市","jp_add_2":"今福町滑栄免"},"8594522":{"post_code":"8594522","prefecture":"NAGASAKI KEN","city":"MATSURA SHI","town":"IMAFUKUCHOHIGASHIMEN","perfecture_jp":"長崎県","jp_add_1":"松浦市","jp_add_2":"今福町東免"},"8594527":{"post_code":"8594527","prefecture":"NAGASAKI KEN","city":"MATSURA SHI","town":"IMAFUKUCHOHOTOKEZAKAMEN","perfecture_jp":"長崎県","jp_add_1":"松浦市","jp_add_2":"今福町仏坂免"},"8594511":{"post_code":"8594511","prefecture":"NAGASAKI KEN","city":"MATSURA SHI","town":"SHISACHOAKAGIMEN","perfecture_jp":"長崎県","jp_add_1":"松浦市","jp_add_2":"志佐町赤木免"},"8594518":{"post_code":"8594518","prefecture":"NAGASAKI KEN","city":"MATSURA SHI","town":"SHISACHOIKENARIMEN","perfecture_jp":"長崎県","jp_add_1":"松浦市","jp_add_2":"志佐町池成免"},"8594501":{"post_code":"8594501","prefecture":"NAGASAKI KEN","city":"MATSURA SHI","town":"SHISACHOURAMEN","perfecture_jp":"長崎県","jp_add_1":"松浦市","jp_add_2":"志佐町浦免"},"8594504":{"post_code":"8594504","prefecture":"NAGASAKI KEN","city":"MATSURA SHI","town":"SHISACHOKAYANOKIMEN","perfecture_jp":"長崎県","jp_add_1":"松浦市","jp_add_2":"志佐町栢木免"},"8594502":{"post_code":"8594502","prefecture":"NAGASAKI KEN","city":"MATSURA SHI","town":"SHISACHOSATOMEN","perfecture_jp":"長崎県","jp_add_1":"松浦市","jp_add_2":"志佐町里免"},"8594507":{"post_code":"8594507","prefecture":"NAGASAKI KEN","city":"MATSURA SHI","town":"SHISACHOSHONOMEN","perfecture_jp":"長崎県","jp_add_1":"松浦市","jp_add_2":"志佐町庄野免"},"8594506":{"post_code":"8594506","prefecture":"NAGASAKI KEN","city":"MATSURA SHI","town":"SHISACHOSHIRAHAMAMEN","perfecture_jp":"長崎県","jp_add_1":"松浦市","jp_add_2":"志佐町白浜免"},"8594503":{"post_code":"8594503","prefecture":"NAGASAKI KEN","city":"MATSURA SHI","town":"SHISACHOTAKANOMEN","perfecture_jp":"長崎県","jp_add_1":"松浦市","jp_add_2":"志佐町高野免"},"8594513":{"post_code":"8594513","prefecture":"NAGASAKI KEN","city":"MATSURA SHI","town":"SHISACHOTANOHIRAMEN","perfecture_jp":"長崎県","jp_add_1":"松浦市","jp_add_2":"志佐町田ノ平免"},"8594516":{"post_code":"8594516","prefecture":"NAGASAKI KEN","city":"MATSURA SHI","town":"SHISACHONAGANOMEN","perfecture_jp":"長崎県","jp_add_1":"松浦市","jp_add_2":"志佐町長野免"},"8594505":{"post_code":"8594505","prefecture":"NAGASAKI KEN","city":"MATSURA SHI","town":"SHISACHONISHIYAMAMEN","perfecture_jp":"長崎県","jp_add_1":"松浦市","jp_add_2":"志佐町西山免"},"8594515":{"post_code":"8594515","prefecture":"NAGASAKI KEN","city":"MATSURA SHI","town":"SHISACHOHIEKOBAMEN","perfecture_jp":"長崎県","jp_add_1":"松浦市","jp_add_2":"志佐町稗木場免"},"8594512":{"post_code":"8594512","prefecture":"NAGASAKI KEN","city":"MATSURA SHI","town":"SHISACHOFUEFUKIMEN","perfecture_jp":"長崎県","jp_add_1":"松浦市","jp_add_2":"志佐町笛吹免"},"8594514":{"post_code":"8594514","prefecture":"NAGASAKI KEN","city":"MATSURA SHI","town":"SHISACHOYUNOKIGAWACHIMEN","perfecture_jp":"長崎県","jp_add_1":"松浦市","jp_add_2":"志佐町柚木川内免"},"8594517":{"post_code":"8594517","prefecture":"NAGASAKI KEN","city":"MATSURA SHI","town":"SHISACHOYOKOBETAMEN","perfecture_jp":"長崎県","jp_add_1":"松浦市","jp_add_2":"志佐町横辺田免"},"8594301":{"post_code":"8594301","prefecture":"NAGASAKI KEN","city":"MATSURA SHI","town":"TAKASHIMACHO AOURAMEN","perfecture_jp":"長崎県","jp_add_1":"松浦市","jp_add_2":"鷹島町阿翁浦免"},"8594302":{"post_code":"8594302","prefecture":"NAGASAKI KEN","city":"MATSURA SHI","town":"TAKASHIMACHO AOMEN","perfecture_jp":"長崎県","jp_add_1":"松浦市","jp_add_2":"鷹島町阿翁免"},"8594309":{"post_code":"8594309","prefecture":"NAGASAKI KEN","city":"MATSURA SHI","town":"TAKASHIMACHO KUROSHIMAMEN","perfecture_jp":"長崎県","jp_add_1":"松浦市","jp_add_2":"鷹島町黒島免"},"8594303":{"post_code":"8594303","prefecture":"NAGASAKI KEN","city":"MATSURA SHI","town":"TAKASHIMACHO KOZAKIMEN","perfecture_jp":"長崎県","jp_add_1":"松浦市","jp_add_2":"鷹島町神崎免"},"8594304":{"post_code":"8594304","prefecture":"NAGASAKI KEN","city":"MATSURA SHI","town":"TAKASHIMACHO SATOMEN","perfecture_jp":"長崎県","jp_add_1":"松浦市","jp_add_2":"鷹島町里免"},"8594307":{"post_code":"8594307","prefecture":"NAGASAKI KEN","city":"MATSURA SHI","town":"TAKASHIMACHO SANRIMEN","perfecture_jp":"長崎県","jp_add_1":"松浦市","jp_add_2":"鷹島町三里免"},"8594305":{"post_code":"8594305","prefecture":"NAGASAKI KEN","city":"MATSURA SHI","town":"TAKASHIMACHO NAKADORIMEN","perfecture_jp":"長崎県","jp_add_1":"松浦市","jp_add_2":"鷹島町中通免"},"8594306":{"post_code":"8594306","prefecture":"NAGASAKI KEN","city":"MATSURA SHI","town":"TAKASHIMACHO HARUMEN","perfecture_jp":"長崎県","jp_add_1":"松浦市","jp_add_2":"鷹島町原免"},"8594308":{"post_code":"8594308","prefecture":"NAGASAKI KEN","city":"MATSURA SHI","town":"TAKASHIMACHO FUNATOZUMEN","perfecture_jp":"長崎県","jp_add_1":"松浦市","jp_add_2":"鷹島町船唐津免"},"8594533":{"post_code":"8594533","prefecture":"NAGASAKI KEN","city":"MATSURA SHI","town":"TSUKINOKAWACHOKAMIMEN","perfecture_jp":"長崎県","jp_add_1":"松浦市","jp_add_2":"調川町上免"},"8594532":{"post_code":"8594532","prefecture":"NAGASAKI KEN","city":"MATSURA SHI","town":"TSUKINOKAWACHONAKAMEN","perfecture_jp":"長崎県","jp_add_1":"松浦市","jp_add_2":"調川町中免"},"8594536":{"post_code":"8594536","prefecture":"NAGASAKI KEN","city":"MATSURA SHI","town":"TSUKINOKAWACHOSHIMOMEN","perfecture_jp":"長崎県","jp_add_1":"松浦市","jp_add_2":"調川町下免"},"8594534":{"post_code":"8594534","prefecture":"NAGASAKI KEN","city":"MATSURA SHI","town":"TSUKINOKAWACHOSHIRAIMEN","perfecture_jp":"長崎県","jp_add_1":"松浦市","jp_add_2":"調川町白井免"},"8594531":{"post_code":"8594531","prefecture":"NAGASAKI KEN","city":"MATSURA SHI","town":"TSUKINOKAWACHOHIRAOMEN","perfecture_jp":"長崎県","jp_add_1":"松浦市","jp_add_2":"調川町平尾免"},"8594535":{"post_code":"8594535","prefecture":"NAGASAKI KEN","city":"MATSURA SHI","town":"TSUKINOKAWACHOMATSUYAMADAMEN","perfecture_jp":"長崎県","jp_add_1":"松浦市","jp_add_2":"調川町松山田免"},"8594745":{"post_code":"8594745","prefecture":"NAGASAKI KEN","city":"MATSURA SHI","town":"HOSHIKACHOAOSHIMAMEN","perfecture_jp":"長崎県","jp_add_1":"松浦市","jp_add_2":"星鹿町青島免"},"8594741":{"post_code":"8594741","prefecture":"NAGASAKI KEN","city":"MATSURA SHI","town":"HOSHIKACHOKITAKUBOMEN","perfecture_jp":"長崎県","jp_add_1":"松浦市","jp_add_2":"星鹿町北久保免"},"8594743":{"post_code":"8594743","prefecture":"NAGASAKI KEN","city":"MATSURA SHI","town":"HOSHIKACHOSHIMODAMEN","perfecture_jp":"長崎県","jp_add_1":"松浦市","jp_add_2":"星鹿町下田免"},"8594744":{"post_code":"8594744","prefecture":"NAGASAKI KEN","city":"MATSURA SHI","town":"HOSHIKACHOTAKEZAKIMEN","perfecture_jp":"長崎県","jp_add_1":"松浦市","jp_add_2":"星鹿町岳崎免"},"8594742":{"post_code":"8594742","prefecture":"NAGASAKI KEN","city":"MATSURA SHI","town":"HOSHIKACHOMUTAMEN","perfecture_jp":"長崎県","jp_add_1":"松浦市","jp_add_2":"星鹿町牟田免"},"8594761":{"post_code":"8594761","prefecture":"NAGASAKI KEN","city":"MATSURA SHI","town":"MIKURIYACHOTABARUMEN","perfecture_jp":"長崎県","jp_add_1":"松浦市","jp_add_2":"御厨町相坂免"},"8594751":{"post_code":"8594751","prefecture":"NAGASAKI KEN","city":"MATSURA SHI","town":"MIKURIYACHOIKEDAMEN","perfecture_jp":"長崎県","jp_add_1":"松浦市","jp_add_2":"御厨町池田免"},"8594777":{"post_code":"8594777","prefecture":"NAGASAKI KEN","city":"MATSURA SHI","town":"MIKURIYACHOITABASHIMEN","perfecture_jp":"長崎県","jp_add_1":"松浦市","jp_add_2":"御厨町板橋免"},"8594758":{"post_code":"8594758","prefecture":"NAGASAKI KEN","city":"MATSURA SHI","town":"MIKURIYACHOOSAKIMEN","perfecture_jp":"長崎県","jp_add_1":"松浦市","jp_add_2":"御厨町大崎免"},"8594773":{"post_code":"8594773","prefecture":"NAGASAKI KEN","city":"MATSURA SHI","town":"MIKURIYACHOKAMINOBORIKIMEN","perfecture_jp":"長崎県","jp_add_1":"松浦市","jp_add_2":"御厨町上登木免"},"8594764":{"post_code":"8594764","prefecture":"NAGASAKI KEN","city":"MATSURA SHI","town":"MIKURIYACHOKARIHARAMEN","perfecture_jp":"長崎県","jp_add_1":"松浦市","jp_add_2":"御厨町狩原免"},"8594767":{"post_code":"8594767","prefecture":"NAGASAKI KEN","city":"MATSURA SHI","town":"MIKURIYACHOKAWACHIMEN","perfecture_jp":"長崎県","jp_add_1":"松浦市","jp_add_2":"御厨町川内免"},"8594754":{"post_code":"8594754","prefecture":"NAGASAKI KEN","city":"MATSURA SHI","town":"MIKURIYACHOKITABIRAMEN","perfecture_jp":"長崎県","jp_add_1":"松浦市","jp_add_2":"御厨町北平免"},"8594775":{"post_code":"8594775","prefecture":"NAGASAKI KEN","city":"MATSURA SHI","town":"MIKURIYACHOKOKKONOMEN","perfecture_jp":"長崎県","jp_add_1":"松浦市","jp_add_2":"御厨町郭公尾免"},"8594776":{"post_code":"8594776","prefecture":"NAGASAKI KEN","city":"MATSURA SHI","town":"MIKURIYACHOKOBAMEN","perfecture_jp":"長崎県","jp_add_1":"松浦市","jp_add_2":"御厨町木場免"},"8594762":{"post_code":"8594762","prefecture":"NAGASAKI KEN","city":"MATSURA SHI","town":"MIKURIYACHOKOBUNEMEN","perfecture_jp":"長崎県","jp_add_1":"松浦市","jp_add_2":"御厨町小船免"},"8594765":{"post_code":"8594765","prefecture":"NAGASAKI KEN","city":"MATSURA SHI","town":"MIKURIYACHOKOMENOYAMAMEN","perfecture_jp":"長崎県","jp_add_1":"松浦市","jp_add_2":"御厨町米ノ山免"},"8594752":{"post_code":"8594752","prefecture":"NAGASAKI KEN","city":"MATSURA SHI","town":"MIKURIYACHOSATOMEN","perfecture_jp":"長崎県","jp_add_1":"松浦市","jp_add_2":"御厨町里免"},"8594771":{"post_code":"8594771","prefecture":"NAGASAKI KEN","city":"MATSURA SHI","town":"MIKURIYACHOSHIMONOBORIKIMEN","perfecture_jp":"長崎県","jp_add_1":"松浦市","jp_add_2":"御厨町下登木免"},"8594757":{"post_code":"8594757","prefecture":"NAGASAKI KEN","city":"MATSURA SHI","town":"MIKURIYACHOTAKANOMEN","perfecture_jp":"長崎県","jp_add_1":"松浦市","jp_add_2":"御厨町高野免"},"8594778":{"post_code":"8594778","prefecture":"NAGASAKI KEN","city":"MATSURA SHI","town":"MIKURIYACHOTASHIROMEN","perfecture_jp":"長崎県","jp_add_1":"松浦市","jp_add_2":"御厨町田代免"},"8594774":{"post_code":"8594774","prefecture":"NAGASAKI KEN","city":"MATSURA SHI","town":"MIKURIYACHOTACHIKIMEN","perfecture_jp":"長崎県","jp_add_1":"松浦市","jp_add_2":"御厨町立木免"},"8594772":{"post_code":"8594772","prefecture":"NAGASAKI KEN","city":"MATSURA SHI","town":"MIKURIYACHOTERANOMEN","perfecture_jp":"長崎県","jp_add_1":"松浦市","jp_add_2":"御厨町寺ノ尾免"},"8594753":{"post_code":"8594753","prefecture":"NAGASAKI KEN","city":"MATSURA SHI","town":"MIKURIYACHONAKANOMEN","perfecture_jp":"長崎県","jp_add_1":"松浦市","jp_add_2":"御厨町中野免"},"8594769":{"post_code":"8594769","prefecture":"NAGASAKI KEN","city":"MATSURA SHI","town":"MIKURIYACHONISHIKOBAMEN","perfecture_jp":"長崎県","jp_add_1":"松浦市","jp_add_2":"御厨町西木場免"},"8594768":{"post_code":"8594768","prefecture":"NAGASAKI KEN","city":"MATSURA SHI","town":"MIKURIYACHONISHIDAMEN","perfecture_jp":"長崎県","jp_add_1":"松浦市","jp_add_2":"御厨町西田免"},"8594766":{"post_code":"8594766","prefecture":"NAGASAKI KEN","city":"MATSURA SHI","town":"MIKURIYACHOFUJUMEN","perfecture_jp":"長崎県","jp_add_1":"松浦市","jp_add_2":"御厨町普住免"},"8594756":{"post_code":"8594756","prefecture":"NAGASAKI KEN","city":"MATSURA SHI","town":"MIKURIYACHOMAEDAMEN","perfecture_jp":"長崎県","jp_add_1":"松浦市","jp_add_2":"御厨町前田免"},"8594763":{"post_code":"8594763","prefecture":"NAGASAKI KEN","city":"MATSURA SHI","town":"MIKURIYACHOYAMANEMEN","perfecture_jp":"長崎県","jp_add_1":"松浦市","jp_add_2":"御厨町山根免"},"8594755":{"post_code":"8594755","prefecture":"NAGASAKI KEN","city":"MATSURA SHI","town":"MIKURIYACHOYOKOKUBOMEN","perfecture_jp":"長崎県","jp_add_1":"松浦市","jp_add_2":"御厨町横久保免"},"8591116":{"post_code":"8591116","prefecture":"NAGASAKI KEN","city":"UNZEN SHI","town":"AZUMACHO ABOMYO","perfecture_jp":"長崎県","jp_add_1":"雲仙市","jp_add_2":"吾妻町阿母名"},"8591107":{"post_code":"8591107","prefecture":"NAGASAKI KEN","city":"UNZEN SHI","town":"AZUMACHO USHIGUCHIMYO","perfecture_jp":"長崎県","jp_add_1":"雲仙市","jp_add_2":"吾妻町牛口名"},"8591115":{"post_code":"8591115","prefecture":"NAGASAKI KEN","city":"UNZEN SHI","town":"AZUMACHO EICHUMYO","perfecture_jp":"長崎県","jp_add_1":"雲仙市","jp_add_2":"吾妻町永中名"},"8591106":{"post_code":"8591106","prefecture":"NAGASAKI KEN","city":"UNZEN SHI","town":"AZUMACHO OKOBAMYO","perfecture_jp":"長崎県","jp_add_1":"雲仙市","jp_add_2":"吾妻町大木場名"},"8591114":{"post_code":"8591114","prefecture":"NAGASAKI KEN","city":"UNZEN SHI","town":"AZUMACHO KAWATOKOMYO","perfecture_jp":"長崎県","jp_add_1":"雲仙市","jp_add_2":"吾妻町川床名"},"8591112":{"post_code":"8591112","prefecture":"NAGASAKI KEN","city":"UNZEN SHI","town":"AZUMACHO KURIBAYASHIMYO","perfecture_jp":"長崎県","jp_add_1":"雲仙市","jp_add_2":"吾妻町栗林名"},"8591102":{"post_code":"8591102","prefecture":"NAGASAKI KEN","city":"UNZEN SHI","town":"AZUMACHO KOBAMYO","perfecture_jp":"長崎県","jp_add_1":"雲仙市","jp_add_2":"吾妻町木場名"},"8591105":{"post_code":"8591105","prefecture":"NAGASAKI KEN","city":"UNZEN SHI","town":"AZUMACHO TANOHIRAMYO","perfecture_jp":"長崎県","jp_add_1":"雲仙市","jp_add_2":"吾妻町田之平名"},"8591113":{"post_code":"8591113","prefecture":"NAGASAKI KEN","city":"UNZEN SHI","town":"AZUMACHO NUNOEMYO","perfecture_jp":"長崎県","jp_add_1":"雲仙市","jp_add_2":"吾妻町布江名"},"8591111":{"post_code":"8591111","prefecture":"NAGASAKI KEN","city":"UNZEN SHI","town":"AZUMACHO BABAMYO","perfecture_jp":"長崎県","jp_add_1":"雲仙市","jp_add_2":"吾妻町馬場名"},"8591103":{"post_code":"8591103","prefecture":"NAGASAKI KEN","city":"UNZEN SHI","town":"AZUMACHO HIRAEMYO","perfecture_jp":"長崎県","jp_add_1":"雲仙市","jp_add_2":"吾妻町平江名"},"8591104":{"post_code":"8591104","prefecture":"NAGASAKI KEN","city":"UNZEN SHI","town":"AZUMACHO FURUSHIROMYO","perfecture_jp":"長崎県","jp_add_1":"雲仙市","jp_add_2":"吾妻町古城名"},"8591101":{"post_code":"8591101","prefecture":"NAGASAKI KEN","city":"UNZEN SHI","town":"AZUMACHO MOTOMURAMYO","perfecture_jp":"長崎県","jp_add_1":"雲仙市","jp_add_2":"吾妻町本村名"},"8591302":{"post_code":"8591302","prefecture":"NAGASAKI KEN","city":"UNZEN SHI","town":"KUNIMICHO KOJIRO OTSU","perfecture_jp":"長崎県","jp_add_1":"雲仙市","jp_add_2":"国見町神代乙"},"8591306":{"post_code":"8591306","prefecture":"NAGASAKI KEN","city":"UNZEN SHI","town":"KUNIMICHO KOJIRO KI","perfecture_jp":"長崎県","jp_add_1":"雲仙市","jp_add_2":"国見町神代己"},"8591301":{"post_code":"8591301","prefecture":"NAGASAKI KEN","city":"UNZEN SHI","town":"KUNIMICHO KOJIRO KO","perfecture_jp":"長崎県","jp_add_1":"雲仙市","jp_add_2":"国見町神代甲"},"8591307":{"post_code":"8591307","prefecture":"NAGASAKI KEN","city":"UNZEN SHI","town":"KUNIMICHO KOJIRO KO","perfecture_jp":"長崎県","jp_add_1":"雲仙市","jp_add_2":"国見町神代庚"},"8591308":{"post_code":"8591308","prefecture":"NAGASAKI KEN","city":"UNZEN SHI","town":"KUNIMICHO KOJIRO SHIN","perfecture_jp":"長崎県","jp_add_1":"雲仙市","jp_add_2":"国見町神代辛"},"8591304":{"post_code":"8591304","prefecture":"NAGASAKI KEN","city":"UNZEN SHI","town":"KUNIMICHO KOJIRO TEI","perfecture_jp":"長崎県","jp_add_1":"雲仙市","jp_add_2":"国見町神代丁"},"8591303":{"post_code":"8591303","prefecture":"NAGASAKI KEN","city":"UNZEN SHI","town":"KUNIMICHO KOJIRO HEI","perfecture_jp":"長崎県","jp_add_1":"雲仙市","jp_add_2":"国見町神代丙"},"8591305":{"post_code":"8591305","prefecture":"NAGASAKI KEN","city":"UNZEN SHI","town":"KUNIMICHO KOJIRO BO","perfecture_jp":"長崎県","jp_add_1":"雲仙市","jp_add_2":"国見町神代戊"},"8591322":{"post_code":"8591322","prefecture":"NAGASAKI KEN","city":"UNZEN SHI","town":"KUNIMICHO TAIRA OTSU","perfecture_jp":"長崎県","jp_add_1":"雲仙市","jp_add_2":"国見町多比良乙"},"8591321":{"post_code":"8591321","prefecture":"NAGASAKI KEN","city":"UNZEN SHI","town":"KUNIMICHO TAIRA KO","perfecture_jp":"長崎県","jp_add_1":"雲仙市","jp_add_2":"国見町多比良甲"},"8591324":{"post_code":"8591324","prefecture":"NAGASAKI KEN","city":"UNZEN SHI","town":"KUNIMICHO TAIRA TEI","perfecture_jp":"長崎県","jp_add_1":"雲仙市","jp_add_2":"国見町多比良丁"},"8591323":{"post_code":"8591323","prefecture":"NAGASAKI KEN","city":"UNZEN SHI","town":"KUNIMICHO TAIRA HEI","perfecture_jp":"長崎県","jp_add_1":"雲仙市","jp_add_2":"国見町多比良丙"},"8591325":{"post_code":"8591325","prefecture":"NAGASAKI KEN","city":"UNZEN SHI","town":"KUNIMICHO TAIRA BO","perfecture_jp":"長崎県","jp_add_1":"雲仙市","jp_add_2":"国見町多比良戊"},"8591312":{"post_code":"8591312","prefecture":"NAGASAKI KEN","city":"UNZEN SHI","town":"KUNIMICHO HIJIKURO OTSU","perfecture_jp":"長崎県","jp_add_1":"雲仙市","jp_add_2":"国見町土黒乙"},"8591316":{"post_code":"8591316","prefecture":"NAGASAKI KEN","city":"UNZEN SHI","town":"KUNIMICHO HIJIKURO KI","perfecture_jp":"長崎県","jp_add_1":"雲仙市","jp_add_2":"国見町土黒己"},"8591311":{"post_code":"8591311","prefecture":"NAGASAKI KEN","city":"UNZEN SHI","town":"KUNIMICHO HIJIKURO KO","perfecture_jp":"長崎県","jp_add_1":"雲仙市","jp_add_2":"国見町土黒甲"},"8591317":{"post_code":"8591317","prefecture":"NAGASAKI KEN","city":"UNZEN SHI","town":"KUNIMICHO HIJIKURO KO","perfecture_jp":"長崎県","jp_add_1":"雲仙市","jp_add_2":"国見町土黒庚"},"8591314":{"post_code":"8591314","prefecture":"NAGASAKI KEN","city":"UNZEN SHI","town":"KUNIMICHO HIJIKURO TEI","perfecture_jp":"長崎県","jp_add_1":"雲仙市","jp_add_2":"国見町土黒丁"},"8591313":{"post_code":"8591313","prefecture":"NAGASAKI KEN","city":"UNZEN SHI","town":"KUNIMICHO HIJIKURO HEI","perfecture_jp":"長崎県","jp_add_1":"雲仙市","jp_add_2":"国見町土黒丙"},"8591315":{"post_code":"8591315","prefecture":"NAGASAKI KEN","city":"UNZEN SHI","town":"KUNIMICHO HIJIKURO BO","perfecture_jp":"長崎県","jp_add_1":"雲仙市","jp_add_2":"国見町土黒戊"},"8591214":{"post_code":"8591214","prefecture":"NAGASAKI KEN","city":"UNZEN SHI","town":"MIZUHOCHO IFUKU OTSU","perfecture_jp":"長崎県","jp_add_1":"雲仙市","jp_add_2":"瑞穂町伊福乙"},"8591213":{"post_code":"8591213","prefecture":"NAGASAKI KEN","city":"UNZEN SHI","town":"MIZUHOCHO IFUKU KO","perfecture_jp":"長崎県","jp_add_1":"雲仙市","jp_add_2":"瑞穂町伊福甲"},"8591216":{"post_code":"8591216","prefecture":"NAGASAKI KEN","city":"UNZEN SHI","town":"MIZUHOCHO KOBE OTSU","perfecture_jp":"長崎県","jp_add_1":"雲仙市","jp_add_2":"瑞穂町古部乙"},"8591215":{"post_code":"8591215","prefecture":"NAGASAKI KEN","city":"UNZEN SHI","town":"MIZUHOCHO KOBE KO","perfecture_jp":"長崎県","jp_add_1":"雲仙市","jp_add_2":"瑞穂町古部甲"},"8591203":{"post_code":"8591203","prefecture":"NAGASAKI KEN","city":"UNZEN SHI","town":"MIZUHOCHO SAIGO OTSU","perfecture_jp":"長崎県","jp_add_1":"雲仙市","jp_add_2":"瑞穂町西郷乙"},"8591212":{"post_code":"8591212","prefecture":"NAGASAKI KEN","city":"UNZEN SHI","town":"MIZUHOCHO SAIGO KI","perfecture_jp":"長崎県","jp_add_1":"雲仙市","jp_add_2":"瑞穂町西郷己"},"8591202":{"post_code":"8591202","prefecture":"NAGASAKI KEN","city":"UNZEN SHI","town":"MIZUHOCHO SAIGO KO","perfecture_jp":"長崎県","jp_add_1":"雲仙市","jp_add_2":"瑞穂町西郷甲"},"8591201":{"post_code":"8591201","prefecture":"NAGASAKI KEN","city":"UNZEN SHI","town":"MIZUHOCHO SAIGO KO","perfecture_jp":"長崎県","jp_add_1":"雲仙市","jp_add_2":"瑞穂町西郷庚"},"8591206":{"post_code":"8591206","prefecture":"NAGASAKI KEN","city":"UNZEN SHI","town":"MIZUHOCHO SAIGO SHIN","perfecture_jp":"長崎県","jp_add_1":"雲仙市","jp_add_2":"瑞穂町西郷辛"},"8591205":{"post_code":"8591205","prefecture":"NAGASAKI KEN","city":"UNZEN SHI","town":"MIZUHOCHO SAIGO TEI","perfecture_jp":"長崎県","jp_add_1":"雲仙市","jp_add_2":"瑞穂町西郷丁"},"8591204":{"post_code":"8591204","prefecture":"NAGASAKI KEN","city":"UNZEN SHI","town":"MIZUHOCHO SAIGO HEI","perfecture_jp":"長崎県","jp_add_1":"雲仙市","jp_add_2":"瑞穂町西郷丙"},"8591211":{"post_code":"8591211","prefecture":"NAGASAKI KEN","city":"UNZEN SHI","town":"MIZUHOCHO SAIGO BO","perfecture_jp":"長崎県","jp_add_1":"雲仙市","jp_add_2":"瑞穂町西郷戊"},"8592600":{"post_code":"8592600","prefecture":"NAGASAKI KEN","city":"MINAMISHIMABARA SHI","town":"IKANIKEISAIGANAIBAAI","perfecture_jp":"長崎県","jp_add_1":"南島原市","jp_add_2":""},"8592121":{"post_code":"8592121","prefecture":"NAGASAKI KEN","city":"MINAMISHIMABARA SHI","town":"ARIECHO ISHIDA","perfecture_jp":"長崎県","jp_add_1":"南島原市","jp_add_2":"有家町石田"},"8592122":{"post_code":"8592122","prefecture":"NAGASAKI KEN","city":"MINAMISHIMABARA SHI","town":"ARIECHO OZONO","perfecture_jp":"長崎県","jp_add_1":"南島原市","jp_add_2":"有家町大苑"},"8592203":{"post_code":"8592203","prefecture":"NAGASAKI KEN","city":"MINAMISHIMABARA SHI","town":"ARIECHO ONOE","perfecture_jp":"長崎県","jp_add_1":"南島原市","jp_add_2":"有家町尾上"},"8592204":{"post_code":"8592204","prefecture":"NAGASAKI KEN","city":"MINAMISHIMABARA SHI","town":"ARIECHO KAMAGA","perfecture_jp":"長崎県","jp_add_1":"南島原市","jp_add_2":"有家町蒲河"},"8592201":{"post_code":"8592201","prefecture":"NAGASAKI KEN","city":"MINAMISHIMABARA SHI","town":"ARIECHO KUBO","perfecture_jp":"長崎県","jp_add_1":"南島原市","jp_add_2":"有家町久保"},"8592205":{"post_code":"8592205","prefecture":"NAGASAKI KEN","city":"MINAMISHIMABARA SHI","town":"ARIECHO KOGAWA","perfecture_jp":"長崎県","jp_add_1":"南島原市","jp_add_2":"有家町小川"},"8592206":{"post_code":"8592206","prefecture":"NAGASAKI KEN","city":"MINAMISHIMABARA SHI","town":"ARIECHO NAKASUKAWA","perfecture_jp":"長崎県","jp_add_1":"南島原市","jp_add_2":"有家町中須川"},"8592123":{"post_code":"8592123","prefecture":"NAGASAKI KEN","city":"MINAMISHIMABARA SHI","town":"ARIECHO HARAO","perfecture_jp":"長崎県","jp_add_1":"南島原市","jp_add_2":"有家町原尾"},"8592202":{"post_code":"8592202","prefecture":"NAGASAKI KEN","city":"MINAMISHIMABARA SHI","town":"ARIECHO YAMAGAWA","perfecture_jp":"長崎県","jp_add_1":"南島原市","jp_add_2":"有家町山川"},"8592605":{"post_code":"8592605","prefecture":"NAGASAKI KEN","city":"MINAMISHIMABARA SHI","town":"KAZUSACHO OTSU","perfecture_jp":"長崎県","jp_add_1":"南島原市","jp_add_2":"加津佐町乙"},"8592601":{"post_code":"8592601","prefecture":"NAGASAKI KEN","city":"MINAMISHIMABARA SHI","town":"KAZUSACHO KI","perfecture_jp":"長崎県","jp_add_1":"南島原市","jp_add_2":"加津佐町己"},"8592606":{"post_code":"8592606","prefecture":"NAGASAKI KEN","city":"MINAMISHIMABARA SHI","town":"KAZUSACHO KO","perfecture_jp":"長崎県","jp_add_1":"南島原市","jp_add_2":"加津佐町甲"},"8592603":{"post_code":"8592603","prefecture":"NAGASAKI KEN","city":"MINAMISHIMABARA SHI","town":"KAZUSACHO TEI","perfecture_jp":"長崎県","jp_add_1":"南島原市","jp_add_2":"加津佐町丁"},"8592604":{"post_code":"8592604","prefecture":"NAGASAKI KEN","city":"MINAMISHIMABARA SHI","town":"KAZUSACHO HEI","perfecture_jp":"長崎県","jp_add_1":"南島原市","jp_add_2":"加津佐町丙"},"8592602":{"post_code":"8592602","prefecture":"NAGASAKI KEN","city":"MINAMISHIMABARA SHI","town":"KAZUSACHO BO","perfecture_jp":"長崎県","jp_add_1":"南島原市","jp_add_2":"加津佐町戊"},"8592302":{"post_code":"8592302","prefecture":"NAGASAKI KEN","city":"MINAMISHIMABARA SHI","town":"KITAARIMACHO OTSU","perfecture_jp":"長崎県","jp_add_1":"南島原市","jp_add_2":"北有馬町乙"},"8592306":{"post_code":"8592306","prefecture":"NAGASAKI KEN","city":"MINAMISHIMABARA SHI","town":"KITAARIMACHO KI","perfecture_jp":"長崎県","jp_add_1":"南島原市","jp_add_2":"北有馬町己"},"8592301":{"post_code":"8592301","prefecture":"NAGASAKI KEN","city":"MINAMISHIMABARA SHI","town":"KITAARIMACHO KO","perfecture_jp":"長崎県","jp_add_1":"南島原市","jp_add_2":"北有馬町甲"},"8592304":{"post_code":"8592304","prefecture":"NAGASAKI KEN","city":"MINAMISHIMABARA SHI","town":"KITAARIMACHO TEI","perfecture_jp":"長崎県","jp_add_1":"南島原市","jp_add_2":"北有馬町丁"},"8592303":{"post_code":"8592303","prefecture":"NAGASAKI KEN","city":"MINAMISHIMABARA SHI","town":"KITAARIMACHO HEI","perfecture_jp":"長崎県","jp_add_1":"南島原市","jp_add_2":"北有馬町丙"},"8592305":{"post_code":"8592305","prefecture":"NAGASAKI KEN","city":"MINAMISHIMABARA SHI","town":"KITAARIMACHO BO","perfecture_jp":"長崎県","jp_add_1":"南島原市","jp_add_2":"北有馬町戊"},"8592501":{"post_code":"8592501","prefecture":"NAGASAKI KEN","city":"MINAMISHIMABARA SHI","town":"KUCHINOTSUCHO OTSU","perfecture_jp":"長崎県","jp_add_1":"南島原市","jp_add_2":"口之津町乙"},"8592502":{"post_code":"8592502","prefecture":"NAGASAKI KEN","city":"MINAMISHIMABARA SHI","town":"KUCHINOTSUCHO KO","perfecture_jp":"長崎県","jp_add_1":"南島原市","jp_add_2":"口之津町甲"},"8592503":{"post_code":"8592503","prefecture":"NAGASAKI KEN","city":"MINAMISHIMABARA SHI","town":"KUCHINOTSUCHO TEI","perfecture_jp":"長崎県","jp_add_1":"南島原市","jp_add_2":"口之津町丁"},"8592504":{"post_code":"8592504","prefecture":"NAGASAKI KEN","city":"MINAMISHIMABARA SHI","town":"KUCHINOTSUCHO HEI","perfecture_jp":"長崎県","jp_add_1":"南島原市","jp_add_2":"口之津町丙"},"8592211":{"post_code":"8592211","prefecture":"NAGASAKI KEN","city":"MINAMISHIMABARA SHI","town":"NISHIARIECHO SATOBO","perfecture_jp":"長崎県","jp_add_1":"南島原市","jp_add_2":"西有家町里坊"},"8592214":{"post_code":"8592214","prefecture":"NAGASAKI KEN","city":"MINAMISHIMABARA SHI","town":"NISHIARIECHO JIONJI","perfecture_jp":"長崎県","jp_add_1":"南島原市","jp_add_2":"西有家町慈恩寺"},"8592212":{"post_code":"8592212","prefecture":"NAGASAKI KEN","city":"MINAMISHIMABARA SHI","town":"NISHIARIECHO SUKAWA","perfecture_jp":"長崎県","jp_add_1":"南島原市","jp_add_2":"西有家町須川"},"8592216":{"post_code":"8592216","prefecture":"NAGASAKI KEN","city":"MINAMISHIMABARA SHI","town":"NISHIARIECHO TATSUISHI","perfecture_jp":"長崎県","jp_add_1":"南島原市","jp_add_2":"西有家町龍石"},"8592215":{"post_code":"8592215","prefecture":"NAGASAKI KEN","city":"MINAMISHIMABARA SHI","town":"NISHIARIECHO NAGANO","perfecture_jp":"長崎県","jp_add_1":"南島原市","jp_add_2":"西有家町長野"},"8592213":{"post_code":"8592213","prefecture":"NAGASAKI KEN","city":"MINAMISHIMABARA SHI","town":"NISHIARIECHO MIDAKE","perfecture_jp":"長崎県","jp_add_1":"南島原市","jp_add_2":"西有家町見岳"},"8591502":{"post_code":"8591502","prefecture":"NAGASAKI KEN","city":"MINAMISHIMABARA SHI","town":"FUKAECHO OTSU","perfecture_jp":"長崎県","jp_add_1":"南島原市","jp_add_2":"深江町乙"},"8591501":{"post_code":"8591501","prefecture":"NAGASAKI KEN","city":"MINAMISHIMABARA SHI","town":"FUKAECHO KO","perfecture_jp":"長崎県","jp_add_1":"南島原市","jp_add_2":"深江町甲"},"8591504":{"post_code":"8591504","prefecture":"NAGASAKI KEN","city":"MINAMISHIMABARA SHI","town":"FUKAECHO TEI","perfecture_jp":"長崎県","jp_add_1":"南島原市","jp_add_2":"深江町丁"},"8591503":{"post_code":"8591503","prefecture":"NAGASAKI KEN","city":"MINAMISHIMABARA SHI","town":"FUKAECHO HEI","perfecture_jp":"長崎県","jp_add_1":"南島原市","jp_add_2":"深江町丙"},"8591505":{"post_code":"8591505","prefecture":"NAGASAKI KEN","city":"MINAMISHIMABARA SHI","town":"FUKAECHO BO","perfecture_jp":"長崎県","jp_add_1":"南島原市","jp_add_2":"深江町戊"},"8592112":{"post_code":"8592112","prefecture":"NAGASAKI KEN","city":"MINAMISHIMABARA SHI","town":"FUTSUCHO OTSU","perfecture_jp":"長崎県","jp_add_1":"南島原市","jp_add_2":"布津町乙"},"8592111":{"post_code":"8592111","prefecture":"NAGASAKI KEN","city":"MINAMISHIMABARA SHI","town":"FUTSUCHO KO","perfecture_jp":"長崎県","jp_add_1":"南島原市","jp_add_2":"布津町甲"},"8592113":{"post_code":"8592113","prefecture":"NAGASAKI KEN","city":"MINAMISHIMABARA SHI","town":"FUTSUCHO HEI","perfecture_jp":"長崎県","jp_add_1":"南島原市","jp_add_2":"布津町丙"},"8592412":{"post_code":"8592412","prefecture":"NAGASAKI KEN","city":"MINAMISHIMABARA SHI","town":"MINAMIARIMACHO OTSU","perfecture_jp":"長崎県","jp_add_1":"南島原市","jp_add_2":"南有馬町乙"},"8592316":{"post_code":"8592316","prefecture":"NAGASAKI KEN","city":"MINAMISHIMABARA SHI","town":"MINAMIARIMACHO KI (FURUZONOTOROTSUG","perfecture_jp":"長崎県","jp_add_1":"南島原市","jp_add_2":"南有馬町己"},"8592416":{"post_code":"8592416","prefecture":"NAGASAKI KEN","city":"MINAMISHIMABARA SHI","town":"MINAMIARIMACHO KI(SONOTA)","perfecture_jp":"長崎県","jp_add_1":"南島原市","jp_add_2":"南有馬町己"},"8592411":{"post_code":"8592411","prefecture":"NAGASAKI KEN","city":"MINAMISHIMABARA SHI","town":"MINAMIARIMACHO KO","perfecture_jp":"長崎県","jp_add_1":"南島原市","jp_add_2":"南有馬町甲"},"8592414":{"post_code":"8592414","prefecture":"NAGASAKI KEN","city":"MINAMISHIMABARA SHI","town":"MINAMIARIMACHO TEI","perfecture_jp":"長崎県","jp_add_1":"南島原市","jp_add_2":"南有馬町丁"},"8592413":{"post_code":"8592413","prefecture":"NAGASAKI KEN","city":"MINAMISHIMABARA SHI","town":"MINAMIARIMACHO HEI","perfecture_jp":"長崎県","jp_add_1":"南島原市","jp_add_2":"南有馬町丙"},"8592415":{"post_code":"8592415","prefecture":"NAGASAKI KEN","city":"MINAMISHIMABARA SHI","town":"MINAMIARIMACHO BO","perfecture_jp":"長崎県","jp_add_1":"南島原市","jp_add_2":"南有馬町戊"},"8593800":{"post_code":"8593800","prefecture":"NAGASAKI KEN","city":"HIGASHISONOGI GUN HIGASHISONOGI CHO","town":"IKANIKEISAIGANAIBAAI","perfecture_jp":"長崎県","jp_add_1":"東彼杵郡東彼杵町","jp_add_2":""},"8593811":{"post_code":"8593811","prefecture":"NAGASAKI KEN","city":"HIGASHISONOGI GUN HIGASHISONOGI CHO","town":"ONEGOTOGO","perfecture_jp":"長崎県","jp_add_1":"東彼杵郡東彼杵町","jp_add_2":"大音琴郷"},"8593926":{"post_code":"8593926","prefecture":"NAGASAKI KEN","city":"HIGASHISONOGI GUN HIGASHISONOGI CHO","town":"KABURAGO","perfecture_jp":"長崎県","jp_add_1":"東彼杵郡東彼杵町","jp_add_2":"蕪郷"},"8593805":{"post_code":"8593805","prefecture":"NAGASAKI KEN","city":"HIGASHISONOGI GUN HIGASHISONOGI CHO","town":"KAWACHIGO","perfecture_jp":"長崎県","jp_add_1":"東彼杵郡東彼杵町","jp_add_2":"川内郷"},"8593809":{"post_code":"8593809","prefecture":"NAGASAKI KEN","city":"HIGASHISONOGI GUN HIGASHISONOGI CHO","town":"KUCHIKIDAGO","perfecture_jp":"長崎県","jp_add_1":"東彼杵郡東彼杵町","jp_add_2":"口木田郷"},"8593808":{"post_code":"8593808","prefecture":"NAGASAKI KEN","city":"HIGASHISONOGI GUN HIGASHISONOGI CHO","town":"KURAMOTOGO","perfecture_jp":"長崎県","jp_add_1":"東彼杵郡東彼杵町","jp_add_2":"蔵本郷"},"8593812":{"post_code":"8593812","prefecture":"NAGASAKI KEN","city":"HIGASHISONOGI GUN HIGASHISONOGI CHO","town":"KONEGOTOGO","perfecture_jp":"長崎県","jp_add_1":"東彼杵郡東彼杵町","jp_add_2":"小音琴郷"},"8593931":{"post_code":"8593931","prefecture":"NAGASAKI KEN","city":"HIGASHISONOGI GUN HIGASHISONOGI CHO","town":"KOBAGO","perfecture_jp":"長崎県","jp_add_1":"東彼杵郡東彼杵町","jp_add_2":"木場郷"},"8593802":{"post_code":"8593802","prefecture":"NAGASAKI KEN","city":"HIGASHISONOGI GUN HIGASHISONOGI CHO","town":"SAKAMOTOGO","perfecture_jp":"長崎県","jp_add_1":"東彼杵郡東彼杵町","jp_add_2":"坂本郷"},"8593929":{"post_code":"8593929","prefecture":"NAGASAKI KEN","city":"HIGASHISONOGI GUN HIGASHISONOGI CHO","town":"SATOGO","perfecture_jp":"長崎県","jp_add_1":"東彼杵郡東彼杵町","jp_add_2":"里郷"},"8593803":{"post_code":"8593803","prefecture":"NAGASAKI KEN","city":"HIGASHISONOGI GUN HIGASHISONOGI CHO","town":"SUGAMUTAGO","perfecture_jp":"長崎県","jp_add_1":"東彼杵郡東彼杵町","jp_add_2":"菅無田郷"},"8593923":{"post_code":"8593923","prefecture":"NAGASAKI KEN","city":"HIGASHISONOGI GUN HIGASHISONOGI CHO","town":"SETOGO","perfecture_jp":"長崎県","jp_add_1":"東彼杵郡東彼杵町","jp_add_2":"瀬戸郷"},"8593807":{"post_code":"8593807","prefecture":"NAGASAKI KEN","city":"HIGASHISONOGI GUN HIGASHISONOGI CHO","town":"SONOGISHUKUGO","perfecture_jp":"長崎県","jp_add_1":"東彼杵郡東彼杵町","jp_add_2":"彼杵宿郷"},"8593927":{"post_code":"8593927","prefecture":"NAGASAKI KEN","city":"HIGASHISONOGI GUN HIGASHISONOGI CHO","town":"DAJIGO","perfecture_jp":"長崎県","jp_add_1":"東彼杵郡東彼杵町","jp_add_2":"駄地郷"},"8593924":{"post_code":"8593924","prefecture":"NAGASAKI KEN","city":"HIGASHISONOGI GUN HIGASHISONOGI CHO","town":"TANORAGO","perfecture_jp":"長崎県","jp_add_1":"東彼杵郡東彼杵町","jp_add_2":"太ノ浦郷"},"8593921":{"post_code":"8593921","prefecture":"NAGASAKI KEN","city":"HIGASHISONOGI GUN HIGASHISONOGI CHO","town":"CHIWATASHUKUGO","perfecture_jp":"長崎県","jp_add_1":"東彼杵郡東彼杵町","jp_add_2":"千綿宿郷"},"8593932":{"post_code":"8593932","prefecture":"NAGASAKI KEN","city":"HIGASHISONOGI GUN HIGASHISONOGI CHO","town":"TOMEGO","perfecture_jp":"長崎県","jp_add_1":"東彼杵郡東彼杵町","jp_add_2":"遠目郷"},"8593801":{"post_code":"8593801","prefecture":"NAGASAKI KEN","city":"HIGASHISONOGI GUN HIGASHISONOGI CHO","town":"NAKAOGO","perfecture_jp":"長崎県","jp_add_1":"東彼杵郡東彼杵町","jp_add_2":"中尾郷"},"8593925":{"post_code":"8593925","prefecture":"NAGASAKI KEN","city":"HIGASHISONOGI GUN HIGASHISONOGI CHO","town":"NAKATAKEGO","perfecture_jp":"長崎県","jp_add_1":"東彼杵郡東彼杵町","jp_add_2":"中岳郷"},"8593922":{"post_code":"8593922","prefecture":"NAGASAKI KEN","city":"HIGASHISONOGI GUN HIGASHISONOGI CHO","town":"HACHITANDAGO","perfecture_jp":"長崎県","jp_add_1":"東彼杵郡東彼杵町","jp_add_2":"八反田郷"},"8593933":{"post_code":"8593933","prefecture":"NAGASAKI KEN","city":"HIGASHISONOGI GUN HIGASHISONOGI CHO","town":"HITOTSUISHIGO","perfecture_jp":"長崎県","jp_add_1":"東彼杵郡東彼杵町","jp_add_2":"一ッ石郷"},"8593928":{"post_code":"8593928","prefecture":"NAGASAKI KEN","city":"HIGASHISONOGI GUN HIGASHISONOGI CHO","town":"HIRANITAGO","perfecture_jp":"長崎県","jp_add_1":"東彼杵郡東彼杵町","jp_add_2":"平似田郷"},"8593804":{"post_code":"8593804","prefecture":"NAGASAKI KEN","city":"HIGASHISONOGI GUN HIGASHISONOGI CHO","town":"HOONJIGO","perfecture_jp":"長崎県","jp_add_1":"東彼杵郡東彼杵町","jp_add_2":"法音寺郷"},"8593806":{"post_code":"8593806","prefecture":"NAGASAKI KEN","city":"HIGASHISONOGI GUN HIGASHISONOGI CHO","town":"MINEGO","perfecture_jp":"長崎県","jp_add_1":"東彼杵郡東彼杵町","jp_add_2":"三根郷"},"8593600":{"post_code":"8593600","prefecture":"NAGASAKI KEN","city":"HIGASHISONOGI GUN KAWATANA CHO","town":"IKANIKEISAIGANAIBAAI","perfecture_jp":"長崎県","jp_add_1":"東彼杵郡川棚町","jp_add_2":""},"8593604":{"post_code":"8593604","prefecture":"NAGASAKI KEN","city":"HIGASHISONOGI GUN KAWATANA CHO","town":"ISHIKIGO","perfecture_jp":"長崎県","jp_add_1":"東彼杵郡川棚町","jp_add_2":"石木郷"},"8593601":{"post_code":"8593601","prefecture":"NAGASAKI KEN","city":"HIGASHISONOGI GUN KAWATANA CHO","town":"INORIGOCHIGO","perfecture_jp":"長崎県","jp_add_1":"東彼杵郡川棚町","jp_add_2":"猪乗川内郷"},"8593603":{"post_code":"8593603","prefecture":"NAGASAKI KEN","city":"HIGASHISONOGI GUN KAWATANA CHO","town":"IWAYAGO","perfecture_jp":"長崎県","jp_add_1":"東彼杵郡川棚町","jp_add_2":"岩屋郷"},"8593618":{"post_code":"8593618","prefecture":"NAGASAKI KEN","city":"HIGASHISONOGI GUN KAWATANA CHO","town":"OGUSHIGO","perfecture_jp":"長崎県","jp_add_1":"東彼杵郡川棚町","jp_add_2":"小串郷"},"8593613":{"post_code":"8593613","prefecture":"NAGASAKI KEN","city":"HIGASHISONOGI GUN KAWATANA CHO","town":"KAMIGUMIGO","perfecture_jp":"長崎県","jp_add_1":"東彼杵郡川棚町","jp_add_2":"上組郷"},"8593612":{"post_code":"8593612","prefecture":"NAGASAKI KEN","city":"HIGASHISONOGI GUN KAWATANA CHO","town":"GOTANDAGO","perfecture_jp":"長崎県","jp_add_1":"東彼杵郡川棚町","jp_add_2":"五反田郷"},"8593606":{"post_code":"8593606","prefecture":"NAGASAKI KEN","city":"HIGASHISONOGI GUN KAWATANA CHO","town":"KONEGOTOGO","perfecture_jp":"長崎県","jp_add_1":"東彼杵郡川棚町","jp_add_2":"小音琴郷"},"8593602":{"post_code":"8593602","prefecture":"NAGASAKI KEN","city":"HIGASHISONOGI GUN KAWATANA CHO","town":"KOBAGO","perfecture_jp":"長崎県","jp_add_1":"東彼杵郡川棚町","jp_add_2":"木場郷"},"8593608":{"post_code":"8593608","prefecture":"NAGASAKI KEN","city":"HIGASHISONOGI GUN KAWATANA CHO","town":"SAKAEMACHI","perfecture_jp":"長崎県","jp_add_1":"東彼杵郡川棚町","jp_add_2":"栄町"},"8593615":{"post_code":"8593615","prefecture":"NAGASAKI KEN","city":"HIGASHISONOGI GUN KAWATANA CHO","town":"SHIMOGUMIGO","perfecture_jp":"長崎県","jp_add_1":"東彼杵郡川棚町","jp_add_2":"下組郷"},"8593616":{"post_code":"8593616","prefecture":"NAGASAKI KEN","city":"HIGASHISONOGI GUN KAWATANA CHO","town":"SHIROISHIGO","perfecture_jp":"長崎県","jp_add_1":"東彼杵郡川棚町","jp_add_2":"白石郷"},"8593607":{"post_code":"8593607","prefecture":"NAGASAKI KEN","city":"HIGASHISONOGI GUN KAWATANA CHO","town":"SHIROYAMACHO","perfecture_jp":"長崎県","jp_add_1":"東彼杵郡川棚町","jp_add_2":"城山町"},"8593619":{"post_code":"8593619","prefecture":"NAGASAKI KEN","city":"HIGASHISONOGI GUN KAWATANA CHO","town":"SHINGAEGO","perfecture_jp":"長崎県","jp_add_1":"東彼杵郡川棚町","jp_add_2":"新谷郷"},"8593614":{"post_code":"8593614","prefecture":"NAGASAKI KEN","city":"HIGASHISONOGI GUN KAWATANA CHO","town":"NAKAGUMIGO","perfecture_jp":"長崎県","jp_add_1":"東彼杵郡川棚町","jp_add_2":"中組郷"},"8593611":{"post_code":"8593611","prefecture":"NAGASAKI KEN","city":"HIGASHISONOGI GUN KAWATANA CHO","town":"NAKAYAMAGO","perfecture_jp":"長崎県","jp_add_1":"東彼杵郡川棚町","jp_add_2":"中山郷"},"8593617":{"post_code":"8593617","prefecture":"NAGASAKI KEN","city":"HIGASHISONOGI GUN KAWATANA CHO","town":"MITSUGOEGO","perfecture_jp":"長崎県","jp_add_1":"東彼杵郡川棚町","jp_add_2":"三越郷"},"8593605":{"post_code":"8593605","prefecture":"NAGASAKI KEN","city":"HIGASHISONOGI GUN KAWATANA CHO","town":"MOMOZUGO","perfecture_jp":"長崎県","jp_add_1":"東彼杵郡川棚町","jp_add_2":"百津郷"},"8593700":{"post_code":"8593700","prefecture":"NAGASAKI KEN","city":"HIGASHISONOGI GUN HASAMI CHO","town":"IKANIKEISAIGANAIBAAI","perfecture_jp":"長崎県","jp_add_1":"東彼杵郡波佐見町","jp_add_2":""},"8593711":{"post_code":"8593711","prefecture":"NAGASAKI KEN","city":"HIGASHISONOGI GUN HASAMI CHO","town":"ISEKIGO","perfecture_jp":"長崎県","jp_add_1":"東彼杵郡波佐見町","jp_add_2":"井石郷"},"8593713":{"post_code":"8593713","prefecture":"NAGASAKI KEN","city":"HIGASHISONOGI GUN HASAMI CHO","town":"ONIGIGO","perfecture_jp":"長崎県","jp_add_1":"東彼杵郡波佐見町","jp_add_2":"鬼木郷"},"8593701":{"post_code":"8593701","prefecture":"NAGASAKI KEN","city":"HIGASHISONOGI GUN HASAMI CHO","town":"ORISHIKISEGO","perfecture_jp":"長崎県","jp_add_1":"東彼杵郡波佐見町","jp_add_2":"折敷瀬郷"},"8593714":{"post_code":"8593714","prefecture":"NAGASAKI KEN","city":"HIGASHISONOGI GUN HASAMI CHO","town":"KANAYAGO","perfecture_jp":"長崎県","jp_add_1":"東彼杵郡波佐見町","jp_add_2":"金屋郷"},"8593721":{"post_code":"8593721","prefecture":"NAGASAKI KEN","city":"HIGASHISONOGI GUN HASAMI CHO","town":"KAWACHIGO","perfecture_jp":"長崎県","jp_add_1":"東彼杵郡波佐見町","jp_add_2":"川内郷"},"8593704":{"post_code":"8593704","prefecture":"NAGASAKI KEN","city":"HIGASHISONOGI GUN HASAMI CHO","town":"KODARUGO","perfecture_jp":"長崎県","jp_add_1":"東彼杵郡波佐見町","jp_add_2":"小樽郷"},"8593727":{"post_code":"8593727","prefecture":"NAGASAKI KEN","city":"HIGASHISONOGI GUN HASAMI CHO","town":"SARAYAMAGO","perfecture_jp":"長崎県","jp_add_1":"東彼杵郡波佐見町","jp_add_2":"皿山郷"},"8593724":{"post_code":"8593724","prefecture":"NAGASAKI KEN","city":"HIGASHISONOGI GUN HASAMI CHO","town":"SHIORIGO","perfecture_jp":"長崎県","jp_add_1":"東彼杵郡波佐見町","jp_add_2":"志折郷"},"8593715":{"post_code":"8593715","prefecture":"NAGASAKI KEN","city":"HIGASHISONOGI GUN HASAMI CHO","town":"SHUKUGO","perfecture_jp":"長崎県","jp_add_1":"東彼杵郡波佐見町","jp_add_2":"宿郷"},"8593722":{"post_code":"8593722","prefecture":"NAGASAKI KEN","city":"HIGASHISONOGI GUN HASAMI CHO","town":"TAKEBETAGO","perfecture_jp":"長崎県","jp_add_1":"東彼杵郡波佐見町","jp_add_2":"岳辺田郷"},"8593716":{"post_code":"8593716","prefecture":"NAGASAKI KEN","city":"HIGASHISONOGI GUN HASAMI CHO","town":"TANOKASHIRAGO","perfecture_jp":"長崎県","jp_add_1":"東彼杵郡波佐見町","jp_add_2":"田ノ頭郷"},"8593712":{"post_code":"8593712","prefecture":"NAGASAKI KEN","city":"HIGASHISONOGI GUN HASAMI CHO","town":"NAKAOGO","perfecture_jp":"長崎県","jp_add_1":"東彼杵郡波佐見町","jp_add_2":"中尾郷"},"8593705":{"post_code":"8593705","prefecture":"NAGASAKI KEN","city":"HIGASHISONOGI GUN HASAMI CHO","town":"NAGAOGO","perfecture_jp":"長崎県","jp_add_1":"東彼杵郡波佐見町","jp_add_2":"永尾郷"},"8593725":{"post_code":"8593725","prefecture":"NAGASAKI KEN","city":"HIGASHISONOGI GUN HASAMI CHO","town":"NAGANOGO","perfecture_jp":"長崎県","jp_add_1":"東彼杵郡波佐見町","jp_add_2":"長野郷"},"8593703":{"post_code":"8593703","prefecture":"NAGASAKI KEN","city":"HIGASHISONOGI GUN HASAMI CHO","town":"NONOKAWAGO","perfecture_jp":"長崎県","jp_add_1":"東彼杵郡波佐見町","jp_add_2":"野々川郷"},"8593726":{"post_code":"8593726","prefecture":"NAGASAKI KEN","city":"HIGASHISONOGI GUN HASAMI CHO","town":"HIEKOBAGO","perfecture_jp":"長崎県","jp_add_1":"東彼杵郡波佐見町","jp_add_2":"稗木場郷"},"8593723":{"post_code":"8593723","prefecture":"NAGASAKI KEN","city":"HIGASHISONOGI GUN HASAMI CHO","town":"HIRANOGO","perfecture_jp":"長崎県","jp_add_1":"東彼杵郡波佐見町","jp_add_2":"平野郷"},"8593706":{"post_code":"8593706","prefecture":"NAGASAKI KEN","city":"HIGASHISONOGI GUN HASAMI CHO","town":"MITSUMATAGO","perfecture_jp":"長崎県","jp_add_1":"東彼杵郡波佐見町","jp_add_2":"三股郷"},"8593728":{"post_code":"8593728","prefecture":"NAGASAKI KEN","city":"HIGASHISONOGI GUN HASAMI CHO","town":"MURAGIGO","perfecture_jp":"長崎県","jp_add_1":"東彼杵郡波佐見町","jp_add_2":"村木郷"},"8593702":{"post_code":"8593702","prefecture":"NAGASAKI KEN","city":"HIGASHISONOGI GUN HASAMI CHO","town":"YUMUTAGO","perfecture_jp":"長崎県","jp_add_1":"東彼杵郡波佐見町","jp_add_2":"湯無田郷"}}