{"8600801":{"post_code":"8600801","prefecture":"KUMAMOTO KEN","city":"KUMAMOTO SHI CHUO KU","town":"ANSEIMACHI","perfecture_jp":"熊本県","jp_add_1":"熊本市中央区","jp_add_2":"安政町"},"8600841":{"post_code":"8600841","prefecture":"KUMAMOTO KEN","city":"KUMAMOTO SHI CHUO KU","town":"IGAWABUCHIMACHI","perfecture_jp":"熊本県","jp_add_1":"熊本市中央区","jp_add_2":"井川淵町"},"8600043":{"post_code":"8600043","prefecture":"KUMAMOTO KEN","city":"KUMAMOTO SHI CHUO KU","town":"ITAYAMACHI","perfecture_jp":"熊本県","jp_add_1":"熊本市中央区","jp_add_2":"板屋町"},"8600031":{"post_code":"8600031","prefecture":"KUMAMOTO KEN","city":"KUMAMOTO SHI CHUO KU","town":"UOYAMACHI","perfecture_jp":"熊本県","jp_add_1":"熊本市中央区","jp_add_2":"魚屋町"},"8600077":{"post_code":"8600077","prefecture":"KUMAMOTO KEN","city":"KUMAMOTO SHI CHUO KU","town":"UCHITSUBOIMACHI","perfecture_jp":"熊本県","jp_add_1":"熊本市中央区","jp_add_2":"内坪井町"},"8600026":{"post_code":"8600026","prefecture":"KUMAMOTO KEN","city":"KUMAMOTO SHI CHUO KU","town":"KAJIYAMACHI","perfecture_jp":"熊本県","jp_add_1":"熊本市中央区","jp_add_2":"鍛冶屋町"},"8600021":{"post_code":"8600021","prefecture":"KUMAMOTO KEN","city":"KUMAMOTO SHI CHUO KU","town":"KAMIKAJIYAMACHI","perfecture_jp":"熊本県","jp_add_1":"熊本市中央区","jp_add_2":"上鍛冶屋町"},"8600845":{"post_code":"8600845","prefecture":"KUMAMOTO KEN","city":"KUMAMOTO SHI CHUO KU","town":"KAMITORICHO","perfecture_jp":"熊本県","jp_add_1":"熊本市中央区","jp_add_2":"上通町"},"8600847":{"post_code":"8600847","prefecture":"KUMAMOTO KEN","city":"KUMAMOTO SHI CHUO KU","town":"KAMIBAYASHIMACHI","perfecture_jp":"熊本県","jp_add_1":"熊本市中央区","jp_add_2":"上林町"},"8600804":{"post_code":"8600804","prefecture":"KUMAMOTO KEN","city":"KUMAMOTO SHI CHUO KU","town":"KARASHIMACHO","perfecture_jp":"熊本県","jp_add_1":"熊本市中央区","jp_add_2":"辛島町"},"8600039":{"post_code":"8600039","prefecture":"KUMAMOTO KEN","city":"KUMAMOTO SHI CHUO KU","town":"KAWABATAMACHI","perfecture_jp":"熊本県","jp_add_1":"熊本市中央区","jp_add_2":"川端町"},"8600023":{"post_code":"8600023","prefecture":"KUMAMOTO KEN","city":"KUMAMOTO SHI CHUO KU","town":"KAWARAMACHI","perfecture_jp":"熊本県","jp_add_1":"熊本市中央区","jp_add_2":"河原町"},"8600855":{"post_code":"8600855","prefecture":"KUMAMOTO KEN","city":"KUMAMOTO SHI CHUO KU","town":"KITASENDAMBATAMACHI","perfecture_jp":"熊本県","jp_add_1":"熊本市中央区","jp_add_2":"北千反畑町"},"8600078":{"post_code":"8600078","prefecture":"KUMAMOTO KEN","city":"KUMAMOTO SHI CHUO KU","town":"KYOMACHI","perfecture_jp":"熊本県","jp_add_1":"熊本市中央区","jp_add_2":"京町"},"8600081":{"post_code":"8600081","prefecture":"KUMAMOTO KEN","city":"KUMAMOTO SHI NISHI KU","town":"KYOMACHIHONCHO","perfecture_jp":"熊本県","jp_add_1":"熊本市中央区","jp_add_2":"京町本丁"},"8600843":{"post_code":"8600843","prefecture":"KUMAMOTO KEN","city":"KUMAMOTO SHI CHUO KU","town":"KUSABACHO","perfecture_jp":"熊本県","jp_add_1":"熊本市中央区","jp_add_2":"草葉町"},"8600862":{"post_code":"8600862","prefecture":"KUMAMOTO KEN","city":"KUMAMOTO SHI KITA KU","town":"KUROKAMI","perfecture_jp":"熊本県","jp_add_1":"熊本市中央区","jp_add_2":"黒髪"},"8600014":{"post_code":"8600014","prefecture":"KUMAMOTO KEN","city":"KUMAMOTO SHI CHUO KU","town":"KEITOKUBORIMACHI","perfecture_jp":"熊本県","jp_add_1":"熊本市中央区","jp_add_2":"慶徳堀町"},"8600033":{"post_code":"8600033","prefecture":"KUMAMOTO KEN","city":"KUMAMOTO SHI CHUO KU","town":"KOYA AMIDAJIMACHI","perfecture_jp":"熊本県","jp_add_1":"熊本市中央区","jp_add_2":"紺屋阿弥陀寺町"},"8600012":{"post_code":"8600012","prefecture":"KUMAMOTO KEN","city":"KUMAMOTO SHI CHUO KU","town":"KOYA IMAMACHI","perfecture_jp":"熊本県","jp_add_1":"熊本市中央区","jp_add_2":"紺屋今町"},"8600025":{"post_code":"8600025","prefecture":"KUMAMOTO KEN","city":"KUMAMOTO SHI CHUO KU","town":"KOYAMACHI","perfecture_jp":"熊本県","jp_add_1":"熊本市中央区","jp_add_2":"紺屋町"},"8600851":{"post_code":"8600851","prefecture":"KUMAMOTO KEN","city":"KUMAMOTO SHI CHUO KU","town":"KOKAIHOMMACHI","perfecture_jp":"熊本県","jp_add_1":"熊本市中央区","jp_add_2":"子飼本町"},"8600042":{"post_code":"8600042","prefecture":"KUMAMOTO KEN","city":"KUMAMOTO SHI CHUO KU","town":"KOZAWAMACHI","perfecture_jp":"熊本県","jp_add_1":"熊本市中央区","jp_add_2":"小沢町"},"8600003":{"post_code":"8600003","prefecture":"KUMAMOTO KEN","city":"KUMAMOTO SHI CHUO KU","town":"KOJOMACHI","perfecture_jp":"熊本県","jp_add_1":"熊本市中央区","jp_add_2":"古城町"},"8600076":{"post_code":"8600076","prefecture":"KUMAMOTO KEN","city":"KUMAMOTO SHI CHUO KU","town":"KOSEN","perfecture_jp":"熊本県","jp_add_1":"熊本市中央区","jp_add_2":"壺川"},"8600813":{"post_code":"8600813","prefecture":"KUMAMOTO KEN","city":"KUMAMOTO SHI CHUO KU","town":"KOTOHIRA","perfecture_jp":"熊本県","jp_add_1":"熊本市中央区","jp_add_2":"琴平"},"8600814":{"post_code":"8600814","prefecture":"KUMAMOTO KEN","city":"KUMAMOTO SHI CHUO KU","town":"KOTOHIRAHOMMACHI","perfecture_jp":"熊本県","jp_add_1":"熊本市中央区","jp_add_2":"琴平本町"},"8600035":{"post_code":"8600035","prefecture":"KUMAMOTO KEN","city":"KUMAMOTO SHI CHUO KU","town":"GOFUKUMACHI","perfecture_jp":"熊本県","jp_add_1":"熊本市中央区","jp_add_2":"呉服町"},"8600029":{"post_code":"8600029","prefecture":"KUMAMOTO KEN","city":"KUMAMOTO SHI CHUO KU","town":"KOMEYAMACHI","perfecture_jp":"熊本県","jp_add_1":"熊本市中央区","jp_add_2":"米屋町"},"8600041":{"post_code":"8600041","prefecture":"KUMAMOTO KEN","city":"KUMAMOTO SHI CHUO KU","town":"SAIKUMACHI","perfecture_jp":"熊本県","jp_add_1":"熊本市中央区","jp_add_2":"細工町"},"8600805":{"post_code":"8600805","prefecture":"KUMAMOTO KEN","city":"KUMAMOTO SHI CHUO KU","town":"SAKURAMACHI","perfecture_jp":"熊本県","jp_add_1":"熊本市中央区","jp_add_2":"桜町"},"8600073":{"post_code":"8600073","prefecture":"KUMAMOTO KEN","city":"KUMAMOTO SHI NISHI KU","town":"SHIMASAKI","perfecture_jp":"熊本県","jp_add_1":"熊本市中央区","jp_add_2":"島崎"},"8600807":{"post_code":"8600807","prefecture":"KUMAMOTO KEN","city":"KUMAMOTO SHI CHUO KU","town":"SHIMOTORI","perfecture_jp":"熊本県","jp_add_1":"熊本市中央区","jp_add_2":"下通"},"8600824":{"post_code":"8600824","prefecture":"KUMAMOTO KEN","city":"KUMAMOTO SHI MINAMI KU","town":"JUZENJI","perfecture_jp":"熊本県","jp_add_1":"熊本市中央区","jp_add_2":"十禅寺"},"8600825":{"post_code":"8600825","prefecture":"KUMAMOTO KEN","city":"KUMAMOTO SHI CHUO KU","town":"JUZENJIMACHI","perfecture_jp":"熊本県","jp_add_1":"熊本市中央区","jp_add_2":"十禅寺町"},"8600846":{"post_code":"8600846","prefecture":"KUMAMOTO KEN","city":"KUMAMOTO SHI CHUO KU","town":"JOTOMACHI","perfecture_jp":"熊本県","jp_add_1":"熊本市中央区","jp_add_2":"城東町"},"8600011":{"post_code":"8600011","prefecture":"KUMAMOTO KEN","city":"KUMAMOTO SHI CHUO KU","town":"SHINKAJIYAMACHI","perfecture_jp":"熊本県","jp_add_1":"熊本市中央区","jp_add_2":"新鍛冶屋町"},"8600803":{"post_code":"8600803","prefecture":"KUMAMOTO KEN","city":"KUMAMOTO SHI CHUO KU","town":"SHINSHIGAI","perfecture_jp":"熊本県","jp_add_1":"熊本市中央区","jp_add_2":"新市街"},"8600004":{"post_code":"8600004","prefecture":"KUMAMOTO KEN","city":"KUMAMOTO SHI CHUO KU","town":"SHIMMACHI","perfecture_jp":"熊本県","jp_add_1":"熊本市中央区","jp_add_2":"新町"},"8600844":{"post_code":"8600844","prefecture":"KUMAMOTO KEN","city":"KUMAMOTO SHI CHUO KU","town":"SUIDOCHO","perfecture_jp":"熊本県","jp_add_1":"熊本市中央区","jp_add_2":"水道町"},"8600019":{"post_code":"8600019","prefecture":"KUMAMOTO KEN","city":"KUMAMOTO SHI CHUO KU","town":"SEMBAMACHI","perfecture_jp":"熊本県","jp_add_1":"熊本市中央区","jp_add_2":"船場町"},"8600018":{"post_code":"8600018","prefecture":"KUMAMOTO KEN","city":"KUMAMOTO SHI CHUO KU","town":"SEMBAMACHISHIMO","perfecture_jp":"熊本県","jp_add_1":"熊本市中央区","jp_add_2":"船場町下"},"8600006":{"post_code":"8600006","prefecture":"KUMAMOTO KEN","city":"KUMAMOTO SHI CHUO KU","town":"DANIYAMAHOMMACHI","perfecture_jp":"熊本県","jp_add_1":"熊本市中央区","jp_add_2":"段山本町"},"8600001":{"post_code":"8600001","prefecture":"KUMAMOTO KEN","city":"KUMAMOTO SHI CHUO KU","town":"CHIBAJOMACHI","perfecture_jp":"熊本県","jp_add_1":"熊本市中央区","jp_add_2":"千葉城町"},"8600802":{"post_code":"8600802","prefecture":"KUMAMOTO KEN","city":"KUMAMOTO SHI CHUO KU","town":"CHUOGAI","perfecture_jp":"熊本県","jp_add_1":"熊本市中央区","jp_add_2":"中央街"},"8600863":{"post_code":"8600863","prefecture":"KUMAMOTO KEN","city":"KUMAMOTO SHI CHUO KU","town":"TSUBOI","perfecture_jp":"熊本県","jp_add_1":"熊本市中央区","jp_add_2":"坪井"},"8600808":{"post_code":"8600808","prefecture":"KUMAMOTO KEN","city":"KUMAMOTO SHI CHUO KU","town":"TETORIHONCHO","perfecture_jp":"熊本県","jp_add_1":"熊本市中央区","jp_add_2":"手取本町"},"8600013":{"post_code":"8600013","prefecture":"KUMAMOTO KEN","city":"KUMAMOTO SHI CHUO KU","town":"TORICHO","perfecture_jp":"熊本県","jp_add_1":"熊本市中央区","jp_add_2":"通町"},"8600028":{"post_code":"8600028","prefecture":"KUMAMOTO KEN","city":"KUMAMOTO SHI CHUO KU","town":"NAKATOJIMMACHI","perfecture_jp":"熊本県","jp_add_1":"熊本市中央区","jp_add_2":"中唐人町"},"8600037":{"post_code":"8600037","prefecture":"KUMAMOTO KEN","city":"KUMAMOTO SHI CHUO KU","town":"NISHIAMIDAJIMACHI","perfecture_jp":"熊本県","jp_add_1":"熊本市中央区","jp_add_2":"西阿弥陀寺町"},"8600853":{"post_code":"8600853","prefecture":"KUMAMOTO KEN","city":"KUMAMOTO SHI CHUO KU","town":"NISHIKOKAIMACHI","perfecture_jp":"熊本県","jp_add_1":"熊本市中央区","jp_add_2":"西子飼町"},"8600027":{"post_code":"8600027","prefecture":"KUMAMOTO KEN","city":"KUMAMOTO SHI CHUO KU","town":"NISHITOJIMMACHI","perfecture_jp":"熊本県","jp_add_1":"熊本市中央区","jp_add_2":"西唐人町"},"8600008":{"post_code":"8600008","prefecture":"KUMAMOTO KEN","city":"KUMAMOTO SHI CHUO KU","town":"NINOMARU","perfecture_jp":"熊本県","jp_add_1":"熊本市中央区","jp_add_2":"二の丸"},"8600832":{"post_code":"8600832","prefecture":"KUMAMOTO KEN","city":"KUMAMOTO SHI CHUO KU","town":"HAGIWARAMACHI","perfecture_jp":"熊本県","jp_add_1":"熊本市中央区","jp_add_2":"萩原町"},"8600831":{"post_code":"8600831","prefecture":"KUMAMOTO KEN","city":"KUMAMOTO SHI MINAMI KU","town":"HACHIOJIMACHI","perfecture_jp":"熊本県","jp_add_1":"熊本市中央区","jp_add_2":"八王寺町"},"8600806":{"post_code":"8600806","prefecture":"KUMAMOTO KEN","city":"KUMAMOTO SHI CHUO KU","town":"HANABATACHO","perfecture_jp":"熊本県","jp_add_1":"熊本市中央区","jp_add_2":"花畑町"},"8600815":{"post_code":"8600815","prefecture":"KUMAMOTO KEN","city":"KUMAMOTO SHI CHUO KU","town":"HARUTAKEMACHI","perfecture_jp":"熊本県","jp_add_1":"熊本市中央区","jp_add_2":"春竹町"},"8600034":{"post_code":"8600034","prefecture":"KUMAMOTO KEN","city":"KUMAMOTO SHI CHUO KU","town":"HIGASHIAMIDAJIMACHI","perfecture_jp":"熊本県","jp_add_1":"熊本市中央区","jp_add_2":"東阿弥陀寺町"},"8600854":{"post_code":"8600854","prefecture":"KUMAMOTO KEN","city":"KUMAMOTO SHI CHUO KU","town":"HIGASHIKOKAIMACHI","perfecture_jp":"熊本県","jp_add_1":"熊本市中央区","jp_add_2":"東子飼町"},"8600038":{"post_code":"8600038","prefecture":"KUMAMOTO KEN","city":"KUMAMOTO SHI CHUO KU","town":"FURUOKEYAMACHI","perfecture_jp":"熊本県","jp_add_1":"熊本市中央区","jp_add_2":"古桶屋町"},"8600015":{"post_code":"8600015","prefecture":"KUMAMOTO KEN","city":"KUMAMOTO SHI CHUO KU","town":"FURUKAWAMACHI","perfecture_jp":"熊本県","jp_add_1":"熊本市中央区","jp_add_2":"古川町"},"8600007":{"post_code":"8600007","prefecture":"KUMAMOTO KEN","city":"KUMAMOTO SHI CHUO KU","town":"FURUKYOMACHI","perfecture_jp":"熊本県","jp_add_1":"熊本市中央区","jp_add_2":"古京町"},"8600036":{"post_code":"8600036","prefecture":"KUMAMOTO KEN","city":"KUMAMOTO SHI CHUO KU","town":"FURUDAIKUMACHI","perfecture_jp":"熊本県","jp_add_1":"熊本市中央区","jp_add_2":"古大工町"},"8600833":{"post_code":"8600833","prefecture":"KUMAMOTO KEN","city":"KUMAMOTO SHI MINAMI KU","town":"HEISEI","perfecture_jp":"熊本県","jp_add_1":"熊本市中央区","jp_add_2":"平成"},"8600811":{"post_code":"8600811","prefecture":"KUMAMOTO KEN","city":"KUMAMOTO SHI CHUO KU","town":"HONJO","perfecture_jp":"熊本県","jp_add_1":"熊本市中央区","jp_add_2":"本荘"},"8600816":{"post_code":"8600816","prefecture":"KUMAMOTO KEN","city":"KUMAMOTO SHI CHUO KU","town":"HONJOMACHI","perfecture_jp":"熊本県","jp_add_1":"熊本市中央区","jp_add_2":"本荘町"},"8600002":{"post_code":"8600002","prefecture":"KUMAMOTO KEN","city":"KUMAMOTO SHI CHUO KU","town":"HOMMARU","perfecture_jp":"熊本県","jp_add_1":"熊本市中央区","jp_add_2":"本丸"},"8600024":{"post_code":"8600024","prefecture":"KUMAMOTO KEN","city":"KUMAMOTO SHI CHUO KU","town":"MATSUBARAMACHI","perfecture_jp":"熊本県","jp_add_1":"熊本市中央区","jp_add_2":"松原町"},"8600812":{"post_code":"8600812","prefecture":"KUMAMOTO KEN","city":"KUMAMOTO SHI CHUO KU","town":"MINAMIKUMAMOTO","perfecture_jp":"熊本県","jp_add_1":"熊本市中央区","jp_add_2":"南熊本"},"8600842":{"post_code":"8600842","prefecture":"KUMAMOTO KEN","city":"KUMAMOTO SHI CHUO KU","town":"MINAMISENDAMBATAMACHI","perfecture_jp":"熊本県","jp_add_1":"熊本市中央区","jp_add_2":"南千反畑町"},"8600848":{"post_code":"8600848","prefecture":"KUMAMOTO KEN","city":"KUMAMOTO SHI CHUO KU","town":"MINAMITSUBOIMACHI","perfecture_jp":"熊本県","jp_add_1":"熊本市中央区","jp_add_2":"南坪井町"},"8600005":{"post_code":"8600005","prefecture":"KUMAMOTO KEN","city":"KUMAMOTO SHI CHUO KU","town":"MIYAUCHI","perfecture_jp":"熊本県","jp_add_1":"熊本市中央区","jp_add_2":"宮内"},"8600856":{"post_code":"8600856","prefecture":"KUMAMOTO KEN","city":"KUMAMOTO SHI CHUO KU","town":"MYOTAIJIMACHI","perfecture_jp":"熊本県","jp_add_1":"熊本市中央区","jp_add_2":"妙体寺町"},"8600817":{"post_code":"8600817","prefecture":"KUMAMOTO KEN","city":"KUMAMOTO SHI CHUO KU","town":"MUKAEMACHI","perfecture_jp":"熊本県","jp_add_1":"熊本市中央区","jp_add_2":"迎町"},"8600821":{"post_code":"8600821","prefecture":"KUMAMOTO KEN","city":"KUMAMOTO SHI CHUO KU","town":"MOTOYAMA","perfecture_jp":"熊本県","jp_add_1":"熊本市中央区","jp_add_2":"本山"},"8600822":{"post_code":"8600822","prefecture":"KUMAMOTO KEN","city":"KUMAMOTO SHI CHUO KU","town":"MOTOYAMAMACHI","perfecture_jp":"熊本県","jp_add_1":"熊本市中央区","jp_add_2":"本山町"},"8600852":{"post_code":"8600852","prefecture":"KUMAMOTO KEN","city":"KUMAMOTO SHI CHUO KU","town":"YAKUENCHO","perfecture_jp":"熊本県","jp_add_1":"熊本市中央区","jp_add_2":"薬園町"},"8600016":{"post_code":"8600016","prefecture":"KUMAMOTO KEN","city":"KUMAMOTO SHI CHUO KU","town":"YAMASAKIMACHI","perfecture_jp":"熊本県","jp_add_1":"熊本市中央区","jp_add_2":"山崎町"},"8600818":{"post_code":"8600818","prefecture":"KUMAMOTO KEN","city":"KUMAMOTO SHI CHUO KU","town":"YAYOICHO","perfecture_jp":"熊本県","jp_add_1":"熊本市中央区","jp_add_2":"弥生町"},"8600022":{"post_code":"8600022","prefecture":"KUMAMOTO KEN","city":"KUMAMOTO SHI CHUO KU","town":"YOKOKOYAMACHI","perfecture_jp":"熊本県","jp_add_1":"熊本市中央区","jp_add_2":"横紺屋町"},"8600046":{"post_code":"8600046","prefecture":"KUMAMOTO KEN","city":"KUMAMOTO SHI NISHI KU","town":"YOKOTE","perfecture_jp":"熊本県","jp_add_1":"熊本市中央区","jp_add_2":"横手"},"8600823":{"post_code":"8600823","prefecture":"KUMAMOTO KEN","city":"KUMAMOTO SHI CHUO KU","town":"YOYASUMACHI","perfecture_jp":"熊本県","jp_add_1":"熊本市中央区","jp_add_2":"世安町"},"8600032":{"post_code":"8600032","prefecture":"KUMAMOTO KEN","city":"KUMAMOTO SHI CHUO KU","town":"YOROZUMACHI","perfecture_jp":"熊本県","jp_add_1":"熊本市中央区","jp_add_2":"万町"},"8600017":{"post_code":"8600017","prefecture":"KUMAMOTO KEN","city":"KUMAMOTO SHI CHUO KU","town":"REMPEICHO","perfecture_jp":"熊本県","jp_add_1":"熊本市中央区","jp_add_2":"練兵町"},"8600071":{"post_code":"8600071","prefecture":"KUMAMOTO KEN","city":"KUMAMOTO SHI NISHI KU","town":"IKEGAMEMACHI","perfecture_jp":"熊本県","jp_add_1":"熊本市西区","jp_add_2":"池亀町"},"8600082":{"post_code":"8600082","prefecture":"KUMAMOTO KEN","city":"KUMAMOTO SHI KITA KU","town":"IKEDA","perfecture_jp":"熊本県","jp_add_1":"熊本市西区","jp_add_2":"池田"},"8600048":{"post_code":"8600048","prefecture":"KUMAMOTO KEN","city":"KUMAMOTO SHI NISHI KU","town":"IKENOEMACHI","perfecture_jp":"熊本県","jp_add_1":"熊本市西区","jp_add_2":"池上町"},"8600047":{"post_code":"8600047","prefecture":"KUMAMOTO KEN","city":"KUMAMOTO SHI NISHI KU","town":"KASUGA","perfecture_jp":"熊本県","jp_add_1":"熊本市西区","jp_add_2":"春日"},"8600079":{"post_code":"8600079","prefecture":"KUMAMOTO KEN","city":"KUMAMOTO SHI NISHI KU","town":"KAMIKUMAMOTO","perfecture_jp":"熊本県","jp_add_1":"熊本市西区","jp_add_2":"上熊本"},"8600068":{"post_code":"8600068","prefecture":"KUMAMOTO KEN","city":"KUMAMOTO SHI NISHI KU","town":"KAMIDAI","perfecture_jp":"熊本県","jp_add_1":"熊本市西区","jp_add_2":"上代"},"8600061":{"post_code":"8600061","prefecture":"KUMAMOTO KEN","city":"KUMAMOTO SHI NISHI KU","town":"KAMITAKAHASHI","perfecture_jp":"熊本県","jp_add_1":"熊本市西区","jp_add_2":"上高橋"},"8600067":{"post_code":"8600067","prefecture":"KUMAMOTO KEN","city":"KUMAMOTO SHI NISHI KU","town":"JOZAN ODOMO","perfecture_jp":"熊本県","jp_add_1":"熊本市西区","jp_add_2":"城山大塘"},"8600063":{"post_code":"8600063","prefecture":"KUMAMOTO KEN","city":"KUMAMOTO SHI NISHI KU","town":"JOZAN KAMIDAIMACHI","perfecture_jp":"熊本県","jp_add_1":"熊本市西区","jp_add_2":"城山上代町"},"8600066":{"post_code":"8600066","prefecture":"KUMAMOTO KEN","city":"KUMAMOTO SHI NISHI KU","town":"JOZAN SHIMODAI","perfecture_jp":"熊本県","jp_add_1":"熊本市西区","jp_add_2":"城山下代"},"8600064":{"post_code":"8600064","prefecture":"KUMAMOTO KEN","city":"KUMAMOTO SHI NISHI KU","town":"JOZAN HANDA","perfecture_jp":"熊本県","jp_add_1":"熊本市西区","jp_add_2":"城山半田"},"8600065":{"post_code":"8600065","prefecture":"KUMAMOTO KEN","city":"KUMAMOTO SHI NISHI KU","town":"JOZAN YAKUSHI","perfecture_jp":"熊本県","jp_add_1":"熊本市西区","jp_add_2":"城山薬師"},"8600056":{"post_code":"8600056","prefecture":"KUMAMOTO KEN","city":"KUMAMOTO SHI NISHI KU","town":"SHINTOGAWARA","perfecture_jp":"熊本県","jp_add_1":"熊本市西区","jp_add_2":"新土河原"},"8600062":{"post_code":"8600062","prefecture":"KUMAMOTO KEN","city":"KUMAMOTO SHI NISHI KU","town":"TAKAHASHIMACHI","perfecture_jp":"熊本県","jp_add_1":"熊本市西区","jp_add_2":"高橋町"},"8600053":{"post_code":"8600053","prefecture":"KUMAMOTO KEN","city":"KUMAMOTO SHI NISHI KU","town":"TASAKI","perfecture_jp":"熊本県","jp_add_1":"熊本市西区","jp_add_2":"田崎"},"8600052":{"post_code":"8600052","prefecture":"KUMAMOTO KEN","city":"KUMAMOTO SHI NISHI KU","town":"TASAKIHOMMACHI","perfecture_jp":"熊本県","jp_add_1":"熊本市西区","jp_add_2":"田崎本町"},"8600058":{"post_code":"8600058","prefecture":"KUMAMOTO KEN","city":"KUMAMOTO SHI NISHI KU","town":"TASAKIMACHI","perfecture_jp":"熊本県","jp_add_1":"熊本市西区","jp_add_2":"田崎町"},"8600044":{"post_code":"8600044","prefecture":"KUMAMOTO KEN","city":"KUMAMOTO SHI NISHI KU","town":"TANIOZAKIMACHI","perfecture_jp":"熊本県","jp_add_1":"熊本市西区","jp_add_2":"谷尾崎町"},"8600088":{"post_code":"8600088","prefecture":"KUMAMOTO KEN","city":"KUMAMOTO SHI KITA KU","town":"TSUNORAMACHI","perfecture_jp":"熊本県","jp_add_1":"熊本市西区","jp_add_2":"津浦町"},"8600074":{"post_code":"8600074","prefecture":"KUMAMOTO KEN","city":"KUMAMOTO SHI NISHI KU","town":"DEMACHI","perfecture_jp":"熊本県","jp_add_1":"熊本市西区","jp_add_2":"出町"},"8600045":{"post_code":"8600045","prefecture":"KUMAMOTO KEN","city":"KUMAMOTO SHI NISHI KU","town":"TOSAKAMACHI","perfecture_jp":"熊本県","jp_add_1":"熊本市西区","jp_add_2":"戸坂町"},"8600051":{"post_code":"8600051","prefecture":"KUMAMOTO KEN","city":"KUMAMOTO SHI NISHI KU","town":"NIHONGI","perfecture_jp":"熊本県","jp_add_1":"熊本市西区","jp_add_2":"二本木"},"8600059":{"post_code":"8600059","prefecture":"KUMAMOTO KEN","city":"KUMAMOTO SHI NISHI KU","town":"NONAKA","perfecture_jp":"熊本県","jp_add_1":"熊本市西区","jp_add_2":"野中"},"8600072":{"post_code":"8600072","prefecture":"KUMAMOTO KEN","city":"KUMAMOTO SHI NISHI KU","town":"HANAZONO","perfecture_jp":"熊本県","jp_add_1":"熊本市西区","jp_add_2":"花園"},"8600075":{"post_code":"8600075","prefecture":"KUMAMOTO KEN","city":"KUMAMOTO SHI NISHI KU","town":"HIEDAMACHI","perfecture_jp":"熊本県","jp_add_1":"熊本市西区","jp_add_2":"稗田町"},"8600054":{"post_code":"8600054","prefecture":"KUMAMOTO KEN","city":"KUMAMOTO SHI NISHI KU","town":"YASHIMA","perfecture_jp":"熊本県","jp_add_1":"熊本市西区","jp_add_2":"八島"},"8600057":{"post_code":"8600057","prefecture":"KUMAMOTO KEN","city":"KUMAMOTO SHI NISHI KU","town":"YASHIMAMACHI","perfecture_jp":"熊本県","jp_add_1":"熊本市西区","jp_add_2":"八島町"},"8600055":{"post_code":"8600055","prefecture":"KUMAMOTO KEN","city":"KUMAMOTO SHI NISHI KU","town":"RENDAIJI","perfecture_jp":"熊本県","jp_add_1":"熊本市西区","jp_add_2":"蓮台寺"},"8600834":{"post_code":"8600834","prefecture":"KUMAMOTO KEN","city":"KUMAMOTO SHI MINAMI KU","town":"EGOE","perfecture_jp":"熊本県","jp_add_1":"熊本市南区","jp_add_2":"江越"},"8600826":{"post_code":"8600826","prefecture":"KUMAMOTO KEN","city":"KUMAMOTO SHI MINAMI KU","town":"HIRATA","perfecture_jp":"熊本県","jp_add_1":"熊本市南区","jp_add_2":"平田"},"8600086":{"post_code":"8600086","prefecture":"KUMAMOTO KEN","city":"KUMAMOTO SHI KITA KU","town":"UCHIGOSHIMACHI","perfecture_jp":"熊本県","jp_add_1":"熊本市北区","jp_add_2":"打越町"},"8600083":{"post_code":"8600083","prefecture":"KUMAMOTO KEN","city":"KUMAMOTO SHI KITA KU","town":"OKUBO","perfecture_jp":"熊本県","jp_add_1":"熊本市北区","jp_add_2":"大窪"},"8600861":{"post_code":"8600861","prefecture":"KUMAMOTO KEN","city":"KUMAMOTO SHI KITA KU","town":"KUROKAMIMACHI TSUBOI","perfecture_jp":"熊本県","jp_add_1":"熊本市北区","jp_add_2":"黒髪町坪井"},"8600087":{"post_code":"8600087","prefecture":"KUMAMOTO KEN","city":"KUMAMOTO SHI KITA KU","town":"SHIMIZUMACHI UCHIGOSHI","perfecture_jp":"熊本県","jp_add_1":"熊本市北区","jp_add_2":"清水町打越"},"8600085":{"post_code":"8600085","prefecture":"KUMAMOTO KEN","city":"KUMAMOTO SHI KITA KU","town":"TAKAHIRA","perfecture_jp":"熊本県","jp_add_1":"熊本市北区","jp_add_2":"高平"},"8600084":{"post_code":"8600084","prefecture":"KUMAMOTO KEN","city":"KUMAMOTO SHI KITA KU","town":"YAMAMURO","perfecture_jp":"熊本県","jp_add_1":"熊本市北区","jp_add_2":"山室"}}