{"8610000":{"post_code":"8610000","prefecture":"KUMAMOTO KEN","city":"KUMAMOTO SHI KITA KU","town":"IKANIKEISAIGANAIBAAI","perfecture_jp":"熊本県","jp_add_1":"熊本市中央区","jp_add_2":""},"8618072":{"post_code":"8618072","prefecture":"KUMAMOTO KEN","city":"KUMAMOTO SHI KITA KU","town":"MUROZONOMACHI","perfecture_jp":"熊本県","jp_add_1":"熊本市中央区","jp_add_2":"室園町"},"8612104":{"post_code":"8612104","prefecture":"KUMAMOTO KEN","city":"KUMAMOTO SHI HIGASHI KU","town":"AKITSU","perfecture_jp":"熊本県","jp_add_1":"熊本市東区","jp_add_2":"秋津"},"8612107":{"post_code":"8612107","prefecture":"KUMAMOTO KEN","city":"KUMAMOTO SHI HIGASHI KU","town":"AKITSUSHIMMACHI","perfecture_jp":"熊本県","jp_add_1":"熊本市東区","jp_add_2":"秋津新町"},"8612105":{"post_code":"8612105","prefecture":"KUMAMOTO KEN","city":"KUMAMOTO SHI HIGASHI KU","town":"AKITSUMACHI AKITA","perfecture_jp":"熊本県","jp_add_1":"熊本市東区","jp_add_2":"秋津町秋田"},"8618046":{"post_code":"8618046","prefecture":"KUMAMOTO KEN","city":"KUMAMOTO SHI HIGASHI KU","town":"ISHIWARA","perfecture_jp":"熊本県","jp_add_1":"熊本市東区","jp_add_2":"石原"},"8618014":{"post_code":"8618014","prefecture":"KUMAMOTO KEN","city":"KUMAMOTO SHI HIGASHI KU","town":"ISHIWARAMACHI","perfecture_jp":"熊本県","jp_add_1":"熊本市東区","jp_add_2":"石原町"},"8618045":{"post_code":"8618045","prefecture":"KUMAMOTO KEN","city":"KUMAMOTO SHI HIGASHI KU","town":"OYAMA","perfecture_jp":"熊本県","jp_add_1":"熊本市東区","jp_add_2":"小山"},"8618030":{"post_code":"8618030","prefecture":"KUMAMOTO KEN","city":"KUMAMOTO SHI HIGASHI KU","town":"OYAMAMACHI","perfecture_jp":"熊本県","jp_add_1":"熊本市東区","jp_add_2":"小山町"},"8618011":{"post_code":"8618011","prefecture":"KUMAMOTO KEN","city":"KUMAMOTO SHI HIGASHI KU","town":"KAKIZEMACHI","perfecture_jp":"熊本県","jp_add_1":"熊本市東区","jp_add_2":"鹿帰瀬町"},"8618010":{"post_code":"8618010","prefecture":"KUMAMOTO KEN","city":"KUMAMOTO SHI HIGASHI KU","town":"KAMINABE","perfecture_jp":"熊本県","jp_add_1":"熊本市東区","jp_add_2":"上南部"},"8618017":{"post_code":"8618017","prefecture":"KUMAMOTO KEN","city":"KUMAMOTO SHI HIGASHI KU","town":"KAMINABEMACHI","perfecture_jp":"熊本県","jp_add_1":"熊本市東区","jp_add_2":"上南部町"},"8618044":{"post_code":"8618044","prefecture":"KUMAMOTO KEN","city":"KUMAMOTO SHI HIGASHI KU","town":"KOZONO","perfecture_jp":"熊本県","jp_add_1":"熊本市東区","jp_add_2":"神園"},"8618035":{"post_code":"8618035","prefecture":"KUMAMOTO KEN","city":"KUMAMOTO SHI HIGASHI KU","town":"GORYO","perfecture_jp":"熊本県","jp_add_1":"熊本市東区","jp_add_2":"御領"},"8612101":{"post_code":"8612101","prefecture":"KUMAMOTO KEN","city":"KUMAMOTO SHI HIGASHI KU","town":"SAKURAGI","perfecture_jp":"熊本県","jp_add_1":"熊本市東区","jp_add_2":"桜木"},"8618019":{"post_code":"8618019","prefecture":"KUMAMOTO KEN","city":"KUMAMOTO SHI HIGASHI KU","town":"SHIMONABE","perfecture_jp":"熊本県","jp_add_1":"熊本市東区","jp_add_2":"下南部"},"8612108":{"post_code":"8612108","prefecture":"KUMAMOTO KEN","city":"KUMAMOTO SHI HIGASHI KU","town":"SHOWAMACHI","perfecture_jp":"熊本県","jp_add_1":"熊本市東区","jp_add_2":"昭和町"},"8618028":{"post_code":"8618028","prefecture":"KUMAMOTO KEN","city":"KUMAMOTO SHI HIGASHI KU","town":"SHINNABE","perfecture_jp":"熊本県","jp_add_1":"熊本市東区","jp_add_2":"新南部"},"8618041":{"post_code":"8618041","prefecture":"KUMAMOTO KEN","city":"KUMAMOTO SHI HIGASHI KU","town":"TOSHIMA","perfecture_jp":"熊本県","jp_add_1":"熊本市東区","jp_add_2":"戸島"},"8618043":{"post_code":"8618043","prefecture":"KUMAMOTO KEN","city":"KUMAMOTO SHI HIGASHI KU","town":"TOSHIMANISHI","perfecture_jp":"熊本県","jp_add_1":"熊本市東区","jp_add_2":"戸島西"},"8618042":{"post_code":"8618042","prefecture":"KUMAMOTO KEN","city":"KUMAMOTO SHI HIGASHI KU","town":"TOSHIMAHOMMACHI","perfecture_jp":"熊本県","jp_add_1":"熊本市東区","jp_add_2":"戸島本町"},"8618031":{"post_code":"8618031","prefecture":"KUMAMOTO KEN","city":"KUMAMOTO SHI HIGASHI KU","town":"TOSHIMAMACHI","perfecture_jp":"熊本県","jp_add_1":"熊本市東区","jp_add_2":"戸島町"},"8618015":{"post_code":"8618015","prefecture":"KUMAMOTO KEN","city":"KUMAMOTO SHI HIGASHI KU","town":"NAKAEMACHI","perfecture_jp":"熊本県","jp_add_1":"熊本市東区","jp_add_2":"中江町"},"8618037":{"post_code":"8618037","prefecture":"KUMAMOTO KEN","city":"KUMAMOTO SHI HIGASHI KU","town":"NAGAMINENISHI","perfecture_jp":"熊本県","jp_add_1":"熊本市東区","jp_add_2":"長嶺西"},"8618038":{"post_code":"8618038","prefecture":"KUMAMOTO KEN","city":"KUMAMOTO SHI HIGASHI KU","town":"NAGAMINEHIGASHI","perfecture_jp":"熊本県","jp_add_1":"熊本市東区","jp_add_2":"長嶺東"},"8618039":{"post_code":"8618039","prefecture":"KUMAMOTO KEN","city":"KUMAMOTO SHI HIGASHI KU","town":"NAGAMINEMINAMI","perfecture_jp":"熊本県","jp_add_1":"熊本市東区","jp_add_2":"長嶺南"},"8618029":{"post_code":"8618029","prefecture":"KUMAMOTO KEN","city":"KUMAMOTO SHI HIGASHI KU","town":"NISHIBARU","perfecture_jp":"熊本県","jp_add_1":"熊本市東区","jp_add_2":"西原"},"8612102":{"post_code":"8612102","prefecture":"KUMAMOTO KEN","city":"KUMAMOTO SHI HIGASHI KU","town":"NUYAMAZU","perfecture_jp":"熊本県","jp_add_1":"熊本市東区","jp_add_2":"沼山津"},"8618034":{"post_code":"8618034","prefecture":"KUMAMOTO KEN","city":"KUMAMOTO SHI HIGASHI KU","town":"HATTANDA","perfecture_jp":"熊本県","jp_add_1":"熊本市東区","jp_add_2":"八反田"},"8612118":{"post_code":"8612118","prefecture":"KUMAMOTO KEN","city":"KUMAMOTO SHI HIGASHI KU","town":"HANATATE(1-4-CHOME)","perfecture_jp":"熊本県","jp_add_1":"熊本市東区","jp_add_2":"花立"},"8612106":{"post_code":"8612106","prefecture":"KUMAMOTO KEN","city":"KUMAMOTO SHI HIGASHI KU","town":"HIGASHINO","perfecture_jp":"熊本県","jp_add_1":"熊本市東区","jp_add_2":"東野"},"8618012":{"post_code":"8618012","prefecture":"KUMAMOTO KEN","city":"KUMAMOTO SHI HIGASHI KU","town":"HIRAYAMAMACHI","perfecture_jp":"熊本県","jp_add_1":"熊本市東区","jp_add_2":"平山町"},"8618013":{"post_code":"8618013","prefecture":"KUMAMOTO KEN","city":"KUMAMOTO SHI HIGASHI KU","town":"YUGEMACHI","perfecture_jp":"熊本県","jp_add_1":"熊本市東区","jp_add_2":"弓削町"},"8618016":{"post_code":"8618016","prefecture":"KUMAMOTO KEN","city":"KUMAMOTO SHI HIGASHI KU","town":"YOSHIWARAMACHI","perfecture_jp":"熊本県","jp_add_1":"熊本市東区","jp_add_2":"吉原町"},"8612103":{"post_code":"8612103","prefecture":"KUMAMOTO KEN","city":"KUMAMOTO SHI HIGASHI KU","town":"WAKABA(4-6-CHOME)","perfecture_jp":"熊本県","jp_add_1":"熊本市東区","jp_add_2":"若葉"},"8615273":{"post_code":"8615273","prefecture":"KUMAMOTO KEN","city":"KUMAMOTO SHI NISHI KU","town":"OKISHIMMACHI","perfecture_jp":"熊本県","jp_add_1":"熊本市西区","jp_add_2":"沖新町"},"8615287":{"post_code":"8615287","prefecture":"KUMAMOTO KEN","city":"KUMAMOTO SHI NISHI KU","town":"OSHIMA","perfecture_jp":"熊本県","jp_add_1":"熊本市西区","jp_add_2":"小島"},"8615285":{"post_code":"8615285","prefecture":"KUMAMOTO KEN","city":"KUMAMOTO SHI NISHI KU","town":"OSHIMA KAMIMACHI","perfecture_jp":"熊本県","jp_add_1":"熊本市西区","jp_add_2":"小島上町"},"8615284":{"post_code":"8615284","prefecture":"KUMAMOTO KEN","city":"KUMAMOTO SHI NISHI KU","town":"OSHIMA SHIMOMACHI","perfecture_jp":"熊本県","jp_add_1":"熊本市西区","jp_add_2":"小島下町"},"8615289":{"post_code":"8615289","prefecture":"KUMAMOTO KEN","city":"KUMAMOTO SHI NISHI KU","town":"KAMIMATSUOMACHI","perfecture_jp":"熊本県","jp_add_1":"熊本市西区","jp_add_2":"上松尾町"},"8615341":{"post_code":"8615341","prefecture":"KUMAMOTO KEN","city":"KUMAMOTO SHI NISHI KU","town":"KAWACHIMACHI OTAO","perfecture_jp":"熊本県","jp_add_1":"熊本市西区","jp_add_2":"河内町大多尾"},"8615345":{"post_code":"8615345","prefecture":"KUMAMOTO KEN","city":"KUMAMOTO SHI NISHI KU","town":"KAWACHIMACHI OMONOGI","perfecture_jp":"熊本県","jp_add_1":"熊本市西区","jp_add_2":"河内町面木"},"8615346":{"post_code":"8615346","prefecture":"KUMAMOTO KEN","city":"KUMAMOTO SHI NISHI KU","town":"KAWACHIMACHI KAWACHI","perfecture_jp":"熊本県","jp_add_1":"熊本市西区","jp_add_2":"河内町河内"},"8615348":{"post_code":"8615348","prefecture":"KUMAMOTO KEN","city":"KUMAMOTO SHI NISHI KU","town":"KAWACHIMACHI SHIRAHAMA","perfecture_jp":"熊本県","jp_add_1":"熊本市西区","jp_add_2":"河内町白浜"},"8615344":{"post_code":"8615344","prefecture":"KUMAMOTO KEN","city":"KUMAMOTO SHI NISHI KU","town":"KAWACHIMACHI TAKE","perfecture_jp":"熊本県","jp_add_1":"熊本市西区","jp_add_2":"河内町岳"},"8615342":{"post_code":"8615342","prefecture":"KUMAMOTO KEN","city":"KUMAMOTO SHI NISHI KU","town":"KAWACHIMACHI TOMONJI","perfecture_jp":"熊本県","jp_add_1":"熊本市西区","jp_add_2":"河内町東門寺"},"8615343":{"post_code":"8615343","prefecture":"KUMAMOTO KEN","city":"KUMAMOTO SHI NISHI KU","town":"KAWACHIMACHI NOIDE","perfecture_jp":"熊本県","jp_add_1":"熊本市西区","jp_add_2":"河内町野出"},"8615347":{"post_code":"8615347","prefecture":"KUMAMOTO KEN","city":"KUMAMOTO SHI NISHI KU","town":"KAWACHIMACHI FUNATSU","perfecture_jp":"熊本県","jp_add_1":"熊本市西区","jp_add_2":"河内町船津"},"8615274":{"post_code":"8615274","prefecture":"KUMAMOTO KEN","city":"KUMAMOTO SHI NISHI KU","town":"SHIMMINATO","perfecture_jp":"熊本県","jp_add_1":"熊本市西区","jp_add_2":"新港"},"8615272":{"post_code":"8615272","prefecture":"KUMAMOTO KEN","city":"KUMAMOTO SHI NISHI KU","town":"NAKASHIMAMACHI","perfecture_jp":"熊本県","jp_add_1":"熊本市西区","jp_add_2":"中島町"},"8615271":{"post_code":"8615271","prefecture":"KUMAMOTO KEN","city":"KUMAMOTO SHI NISHI KU","town":"NAKAHARAMACHI","perfecture_jp":"熊本県","jp_add_1":"熊本市西区","jp_add_2":"中原町"},"8615286":{"post_code":"8615286","prefecture":"KUMAMOTO KEN","city":"KUMAMOTO SHI NISHI KU","town":"NAKAMATSUOMACHI","perfecture_jp":"熊本県","jp_add_1":"熊本市西区","jp_add_2":"中松尾町"},"8615288":{"post_code":"8615288","prefecture":"KUMAMOTO KEN","city":"KUMAMOTO SHI NISHI KU","town":"NISHIMATSUOMACHI","perfecture_jp":"熊本県","jp_add_1":"熊本市西区","jp_add_2":"西松尾町"},"8615280":{"post_code":"8615280","prefecture":"KUMAMOTO KEN","city":"KUMAMOTO SHI NISHI KU","town":"MATSUO","perfecture_jp":"熊本県","jp_add_1":"熊本市西区","jp_add_2":"松尾"},"8615281":{"post_code":"8615281","prefecture":"KUMAMOTO KEN","city":"KUMAMOTO SHI NISHI KU","town":"MATSUOMACHI CHIKOZU","perfecture_jp":"熊本県","jp_add_1":"熊本市西区","jp_add_2":"松尾町近津"},"8615282":{"post_code":"8615282","prefecture":"KUMAMOTO KEN","city":"KUMAMOTO SHI NISHI KU","town":"MATSUOMACHI HIRAYAMA","perfecture_jp":"熊本県","jp_add_1":"熊本市西区","jp_add_2":"松尾町平山"},"8614121":{"post_code":"8614121","prefecture":"KUMAMOTO KEN","city":"KUMAMOTO SHI MINAMI KU","town":"AIDOMIMACHI","perfecture_jp":"熊本県","jp_add_1":"熊本市南区","jp_add_2":"会富町"},"8614136":{"post_code":"8614136","prefecture":"KUMAMOTO KEN","city":"KUMAMOTO SHI MINAMI KU","town":"ARAOMACHI","perfecture_jp":"熊本県","jp_add_1":"熊本市南区","jp_add_2":"荒尾"},"8615251":{"post_code":"8615251","prefecture":"KUMAMOTO KEN","city":"KUMAMOTO SHI MINAMI KU","town":"IMAMACHI","perfecture_jp":"熊本県","jp_add_1":"熊本市南区","jp_add_2":"今町"},"8614124":{"post_code":"8614124","prefecture":"KUMAMOTO KEN","city":"KUMAMOTO SHI MINAMI KU","town":"UJIGUCHIMACHI","perfecture_jp":"熊本県","jp_add_1":"熊本市南区","jp_add_2":"海路口町"},"8614131":{"post_code":"8614131","prefecture":"KUMAMOTO KEN","city":"KUMAMOTO SHI MINAMI KU","town":"USUBAMACHI","perfecture_jp":"熊本県","jp_add_1":"熊本市南区","jp_add_2":"薄場"},"8614127":{"post_code":"8614127","prefecture":"KUMAMOTO KEN","city":"KUMAMOTO SHI MINAMI KU","town":"UCHIDAMACHI","perfecture_jp":"熊本県","jp_add_1":"熊本市南区","jp_add_2":"内田町"},"8614125":{"post_code":"8614125","prefecture":"KUMAMOTO KEN","city":"KUMAMOTO SHI MINAMI KU","town":"OKUKOGAMACHI","perfecture_jp":"熊本県","jp_add_1":"熊本市南区","jp_add_2":"奥古閑町"},"8614132":{"post_code":"8614132","prefecture":"KUMAMOTO KEN","city":"KUMAMOTO SHI MINAMI KU","town":"KAMINOGO","perfecture_jp":"熊本県","jp_add_1":"熊本市南区","jp_add_2":"上ノ郷"},"8614134":{"post_code":"8614134","prefecture":"KUMAMOTO KEN","city":"KUMAMOTO SHI MINAMI KU","town":"KARIKUSA","perfecture_jp":"熊本県","jp_add_1":"熊本市南区","jp_add_2":"刈草"},"8614123":{"post_code":"8614123","prefecture":"KUMAMOTO KEN","city":"KUMAMOTO SHI MINAMI KU","town":"KAWAGUCHIMACHI","perfecture_jp":"熊本県","jp_add_1":"熊本市南区","jp_add_2":"川口町"},"8614115":{"post_code":"8614115","prefecture":"KUMAMOTO KEN","city":"KUMAMOTO SHI MINAMI KU","town":"KAWASHIRI","perfecture_jp":"熊本県","jp_add_1":"熊本市南区","jp_add_2":"川尻"},"8614111":{"post_code":"8614111","prefecture":"KUMAMOTO KEN","city":"KUMAMOTO SHI MINAMI KU","town":"GOSHI","perfecture_jp":"熊本県","jp_add_1":"熊本市南区","jp_add_2":"合志"},"8614108":{"post_code":"8614108","prefecture":"KUMAMOTO KEN","city":"KUMAMOTO SHI MINAMI KU","town":"KODA","perfecture_jp":"熊本県","jp_add_1":"熊本市南区","jp_add_2":"幸田"},"8614117":{"post_code":"8614117","prefecture":"KUMAMOTO KEN","city":"KUMAMOTO SHI MINAMI KU","town":"GONDOMACHI","perfecture_jp":"熊本県","jp_add_1":"熊本市南区","jp_add_2":"護藤町"},"8614133":{"post_code":"8614133","prefecture":"KUMAMOTO KEN","city":"KUMAMOTO SHI MINAMI KU","town":"SHIMAMACHI","perfecture_jp":"熊本県","jp_add_1":"熊本市南区","jp_add_2":"島町"},"8614231":{"post_code":"8614231","prefecture":"KUMAMOTO KEN","city":"KUMAMOTO SHI MINAMI KU","town":"JONAMMACHI AKAMI","perfecture_jp":"熊本県","jp_add_1":"熊本市南区","jp_add_2":"城南町赤見"},"8614224":{"post_code":"8614224","prefecture":"KUMAMOTO KEN","city":"KUMAMOTO SHI MINAMI KU","town":"JONAMMACHI ADAKA","perfecture_jp":"熊本県","jp_add_1":"熊本市南区","jp_add_2":"城南町阿高"},"8614205":{"post_code":"8614205","prefecture":"KUMAMOTO KEN","city":"KUMAMOTO SHI MINAMI KU","town":"JONAMMACHI IKARI","perfecture_jp":"熊本県","jp_add_1":"熊本市南区","jp_add_2":"城南町碇"},"8614213":{"post_code":"8614213","prefecture":"KUMAMOTO KEN","city":"KUMAMOTO SHI MINAMI KU","town":"JONAMMACHI IZUMI","perfecture_jp":"熊本県","jp_add_1":"熊本市南区","jp_add_2":"城南町出水"},"8614211":{"post_code":"8614211","prefecture":"KUMAMOTO KEN","city":"KUMAMOTO SHI MINAMI KU","town":"JONAMMACHI IMAYOSHINO","perfecture_jp":"熊本県","jp_add_1":"熊本市南区","jp_add_2":"城南町今吉野"},"8614203":{"post_code":"8614203","prefecture":"KUMAMOTO KEN","city":"KUMAMOTO SHI MINAMI KU","town":"JONAMMACHI KUMANOSHO","perfecture_jp":"熊本県","jp_add_1":"熊本市南区","jp_add_2":"城南町隈庄"},"8614201":{"post_code":"8614201","prefecture":"KUMAMOTO KEN","city":"KUMAMOTO SHI MINAMI KU","town":"JONAMMACHI SAKANO","perfecture_jp":"熊本県","jp_add_1":"熊本市南区","jp_add_2":"城南町坂野"},"8614206":{"post_code":"8614206","prefecture":"KUMAMOTO KEN","city":"KUMAMOTO SHI MINAMI KU","town":"JONAMMACHI SANSAN","perfecture_jp":"熊本県","jp_add_1":"熊本市南区","jp_add_2":"城南町さんさん"},"8614215":{"post_code":"8614215","prefecture":"KUMAMOTO KEN","city":"KUMAMOTO SHI MINAMI KU","town":"JONAMMACHI SHIZUME","perfecture_jp":"熊本県","jp_add_1":"熊本市南区","jp_add_2":"城南町沈目"},"8614236":{"post_code":"8614236","prefecture":"KUMAMOTO KEN","city":"KUMAMOTO SHI MINAMI KU","town":"JONAMMACHI SHIMADA","perfecture_jp":"熊本県","jp_add_1":"熊本市南区","jp_add_2":"城南町島田"},"8614204":{"post_code":"8614204","prefecture":"KUMAMOTO KEN","city":"KUMAMOTO SHI MINAMI KU","town":"JONAMMACHI SHIMOMIYAJI","perfecture_jp":"熊本県","jp_add_1":"熊本市南区","jp_add_2":"城南町下宮地"},"8614221":{"post_code":"8614221","prefecture":"KUMAMOTO KEN","city":"KUMAMOTO SHI MINAMI KU","town":"JONAMMACHI JINNAI","perfecture_jp":"熊本県","jp_add_1":"熊本市南区","jp_add_2":"城南町陳内"},"8614232":{"post_code":"8614232","prefecture":"KUMAMOTO KEN","city":"KUMAMOTO SHI MINAMI KU","town":"JONAMMACHI TAKA","perfecture_jp":"熊本県","jp_add_1":"熊本市南区","jp_add_2":"城南町高"},"8614235":{"post_code":"8614235","prefecture":"KUMAMOTO KEN","city":"KUMAMOTO SHI MINAMI KU","town":"JONAMMACHI CHIMACHI","perfecture_jp":"熊本県","jp_add_1":"熊本市南区","jp_add_2":"城南町千町"},"8614212":{"post_code":"8614212","prefecture":"KUMAMOTO KEN","city":"KUMAMOTO SHI MINAMI KU","town":"JONAMMACHI TSUIJI","perfecture_jp":"熊本県","jp_add_1":"熊本市南区","jp_add_2":"城南町築地"},"8614226":{"post_code":"8614226","prefecture":"KUMAMOTO KEN","city":"KUMAMOTO SHI MINAMI KU","town":"JONAMMACHI TSUKAWARA","perfecture_jp":"熊本県","jp_add_1":"熊本市南区","jp_add_2":"城南町塚原"},"8614234":{"post_code":"8614234","prefecture":"KUMAMOTO KEN","city":"KUMAMOTO SHI MINAMI KU","town":"JONAMMACHI NAGA","perfecture_jp":"熊本県","jp_add_1":"熊本市南区","jp_add_2":"城南町永"},"8614233":{"post_code":"8614233","prefecture":"KUMAMOTO KEN","city":"KUMAMOTO SHI MINAMI KU","town":"JONAMMACHI NIUNOMIYA","perfecture_jp":"熊本県","jp_add_1":"熊本市南区","jp_add_2":"城南町丹生宮"},"8614225":{"post_code":"8614225","prefecture":"KUMAMOTO KEN","city":"KUMAMOTO SHI MINAMI KU","town":"JONAMMACHI HIGASHIADAKA","perfecture_jp":"熊本県","jp_add_1":"熊本市南区","jp_add_2":"城南町東阿高"},"8614223":{"post_code":"8614223","prefecture":"KUMAMOTO KEN","city":"KUMAMOTO SHI MINAMI KU","town":"JONAMMACHI FUJIYAMA","perfecture_jp":"熊本県","jp_add_1":"熊本市南区","jp_add_2":"城南町藤山"},"8614214":{"post_code":"8614214","prefecture":"KUMAMOTO KEN","city":"KUMAMOTO SHI MINAMI KU","town":"JONAMMACHI MAINOHARA","perfecture_jp":"熊本県","jp_add_1":"熊本市南区","jp_add_2":"城南町舞原"},"8614202":{"post_code":"8614202","prefecture":"KUMAMOTO KEN","city":"KUMAMOTO SHI MINAMI KU","town":"JONAMMACHI MIYAJI","perfecture_jp":"熊本県","jp_add_1":"熊本市南区","jp_add_2":"城南町宮地"},"8614237":{"post_code":"8614237","prefecture":"KUMAMOTO KEN","city":"KUMAMOTO SHI MINAMI KU","town":"JONAMMACHI ROKUTA","perfecture_jp":"熊本県","jp_add_1":"熊本市南区","jp_add_2":"城南町六田"},"8614222":{"post_code":"8614222","prefecture":"KUMAMOTO KEN","city":"KUMAMOTO SHI MINAMI KU","town":"JONAMMACHI WANIZE","perfecture_jp":"熊本県","jp_add_1":"熊本市南区","jp_add_2":"城南町鰐瀬"},"8614112":{"post_code":"8614112","prefecture":"KUMAMOTO KEN","city":"KUMAMOTO SHI MINAMI KU","town":"SHIRAFUJI","perfecture_jp":"熊本県","jp_add_1":"熊本市南区","jp_add_2":"白藤"},"8615264":{"post_code":"8615264","prefecture":"KUMAMOTO KEN","city":"KUMAMOTO SHI MINAMI KU","town":"SHIROISHIMACHI","perfecture_jp":"熊本県","jp_add_1":"熊本市南区","jp_add_2":"白石町"},"8615255":{"post_code":"8615255","prefecture":"KUMAMOTO KEN","city":"KUMAMOTO SHI MINAMI KU","town":"SUNAHARAMACHI","perfecture_jp":"熊本県","jp_add_1":"熊本市南区","jp_add_2":"砂原町"},"8614126":{"post_code":"8614126","prefecture":"KUMAMOTO KEN","city":"KUMAMOTO SHI MINAMI KU","town":"ZENDOMOMACHI","perfecture_jp":"熊本県","jp_add_1":"熊本市南区","jp_add_2":"銭塘町"},"8614101":{"post_code":"8614101","prefecture":"KUMAMOTO KEN","city":"KUMAMOTO SHI MINAMI KU","town":"CHIKAMI","perfecture_jp":"熊本県","jp_add_1":"熊本市南区","jp_add_2":"近見"},"8615252":{"post_code":"8615252","prefecture":"KUMAMOTO KEN","city":"KUMAMOTO SHI MINAMI KU","town":"TOGAWARAMACHI","perfecture_jp":"熊本県","jp_add_1":"熊本市南区","jp_add_2":"土河原町"},"8614135":{"post_code":"8614135","prefecture":"KUMAMOTO KEN","city":"KUMAMOTO SHI MINAMI KU","town":"TOBIMACHI","perfecture_jp":"熊本県","jp_add_1":"熊本市南区","jp_add_2":"鳶町"},"8614146":{"post_code":"8614146","prefecture":"KUMAMOTO KEN","city":"KUMAMOTO SHI MINAMI KU","town":"TOMIAIMACHI ENOKIZU","perfecture_jp":"熊本県","jp_add_1":"熊本市南区","jp_add_2":"富合町榎津"},"8614145":{"post_code":"8614145","prefecture":"KUMAMOTO KEN","city":"KUMAMOTO SHI MINAMI KU","town":"TOMIAIMACHI OMACHI","perfecture_jp":"熊本県","jp_add_1":"熊本市南区","jp_add_2":"富合町大町"},"8614141":{"post_code":"8614141","prefecture":"KUMAMOTO KEN","city":"KUMAMOTO SHI MINAMI KU","town":"TOMIAIMACHI OFUNATE","perfecture_jp":"熊本県","jp_add_1":"熊本市南区","jp_add_2":"富合町御船手"},"8614165":{"post_code":"8614165","prefecture":"KUMAMOTO KEN","city":"KUMAMOTO SHI MINAMI KU","town":"TOMIAIMACHI KAKINOE","perfecture_jp":"熊本県","jp_add_1":"熊本市南区","jp_add_2":"富合町硴江"},"8614143":{"post_code":"8614143","prefecture":"KUMAMOTO KEN","city":"KUMAMOTO SHI MINAMI KU","town":"TOMIAIMACHI KAMISUGI","perfecture_jp":"熊本県","jp_add_1":"熊本市南区","jp_add_2":"富合町上杉"},"8614151":{"post_code":"8614151","prefecture":"KUMAMOTO KEN","city":"KUMAMOTO SHI MINAMI KU","town":"TOMIAIMACHI KIYOFUJI","perfecture_jp":"熊本県","jp_add_1":"熊本市南区","jp_add_2":"富合町清藤"},"8614153":{"post_code":"8614153","prefecture":"KUMAMOTO KEN","city":"KUMAMOTO SHI MINAMI KU","town":"TOMIAIMACHI KIWARA","perfecture_jp":"熊本県","jp_add_1":"熊本市南区","jp_add_2":"富合町木原"},"8614161":{"post_code":"8614161","prefecture":"KUMAMOTO KEN","city":"KUMAMOTO SHI MINAMI KU","town":"TOMIAIMACHI KOIWASE","perfecture_jp":"熊本県","jp_add_1":"熊本市南区","jp_add_2":"富合町小岩瀬"},"8614166":{"post_code":"8614166","prefecture":"KUMAMOTO KEN","city":"KUMAMOTO SHI MINAMI KU","town":"TOMIAIMACHI KOZAKI","perfecture_jp":"熊本県","jp_add_1":"熊本市南区","jp_add_2":"富合町莎崎"},"8614157":{"post_code":"8614157","prefecture":"KUMAMOTO KEN","city":"KUMAMOTO SHI MINAMI KU","town":"TOMIAIMACHI KOGA","perfecture_jp":"熊本県","jp_add_1":"熊本市南区","jp_add_2":"富合町古閑"},"8614162":{"post_code":"8614162","prefecture":"KUMAMOTO KEN","city":"KUMAMOTO SHI MINAMI KU","town":"TOMIAIMACHI KOKUCHO","perfecture_jp":"熊本県","jp_add_1":"熊本市南区","jp_add_2":"富合町国町"},"8614167":{"post_code":"8614167","prefecture":"KUMAMOTO KEN","city":"KUMAMOTO SHI MINAMI KU","town":"TOMIAIMACHI KOMONOE","perfecture_jp":"熊本県","jp_add_1":"熊本市南区","jp_add_2":"富合町菰江"},"8614163":{"post_code":"8614163","prefecture":"KUMAMOTO KEN","city":"KUMAMOTO SHI MINAMI KU","town":"TOMIAIMACHI SHIJIMIZU","perfecture_jp":"熊本県","jp_add_1":"熊本市南区","jp_add_2":"富合町志々水"},"8614144":{"post_code":"8614144","prefecture":"KUMAMOTO KEN","city":"KUMAMOTO SHI MINAMI KU","town":"TOMIAIMACHI SHAKADO","perfecture_jp":"熊本県","jp_add_1":"熊本市南区","jp_add_2":"富合町釈迦堂"},"8614152":{"post_code":"8614152","prefecture":"KUMAMOTO KEN","city":"KUMAMOTO SHI MINAMI KU","town":"TOMIAIMACHI SHIN","perfecture_jp":"熊本県","jp_add_1":"熊本市南区","jp_add_2":"富合町新"},"8614142":{"post_code":"8614142","prefecture":"KUMAMOTO KEN","city":"KUMAMOTO SHI MINAMI KU","town":"TOMIAIMACHI SUGIJIMA","perfecture_jp":"熊本県","jp_add_1":"熊本市南区","jp_add_2":"富合町杉島"},"8614156":{"post_code":"8614156","prefecture":"KUMAMOTO KEN","city":"KUMAMOTO SHI MINAMI KU","town":"TOMIAIMACHI TANOSHIRI","perfecture_jp":"熊本県","jp_add_1":"熊本市南区","jp_add_2":"富合町田尻"},"8614164":{"post_code":"8614164","prefecture":"KUMAMOTO KEN","city":"KUMAMOTO SHI MINAMI KU","town":"TOMIAIMACHI NISHITANOSHIRI","perfecture_jp":"熊本県","jp_add_1":"熊本市南区","jp_add_2":"富合町西田尻"},"8614154":{"post_code":"8614154","prefecture":"KUMAMOTO KEN","city":"KUMAMOTO SHI MINAMI KU","town":"TOMIAIMACHI HIRABARU","perfecture_jp":"熊本県","jp_add_1":"熊本市南区","jp_add_2":"富合町平原"},"8614147":{"post_code":"8614147","prefecture":"KUMAMOTO KEN","city":"KUMAMOTO SHI MINAMI KU","town":"TOMIAIMACHI MAINOE","perfecture_jp":"熊本県","jp_add_1":"熊本市南区","jp_add_2":"富合町廻江"},"8614155":{"post_code":"8614155","prefecture":"KUMAMOTO KEN","city":"KUMAMOTO SHI MINAMI KU","town":"TOMIAIMACHI MINAMITANOSHIRI","perfecture_jp":"熊本県","jp_add_1":"熊本市南区","jp_add_2":"富合町南田尻"},"8614116":{"post_code":"8614116","prefecture":"KUMAMOTO KEN","city":"KUMAMOTO SHI MINAMI KU","town":"NAKAMUTAMACHI","perfecture_jp":"熊本県","jp_add_1":"熊本市南区","jp_add_2":"中無田町"},"8615263":{"post_code":"8615263","prefecture":"KUMAMOTO KEN","city":"KUMAMOTO SHI MINAMI KU","town":"NAMITATEMACHI","perfecture_jp":"熊本県","jp_add_1":"熊本市南区","jp_add_2":"並建町"},"8614137":{"post_code":"8614137","prefecture":"KUMAMOTO KEN","city":"KUMAMOTO SHI MINAMI KU","town":"NOGUCHIMACHI","perfecture_jp":"熊本県","jp_add_1":"熊本市南区","jp_add_2":"野口"},"8614114":{"post_code":"8614114","prefecture":"KUMAMOTO KEN","city":"KUMAMOTO SHI MINAMI KU","town":"NODA","perfecture_jp":"熊本県","jp_add_1":"熊本市南区","jp_add_2":"野田"},"8615265":{"post_code":"8615265","prefecture":"KUMAMOTO KEN","city":"KUMAMOTO SHI MINAMI KU","town":"HATAGUCHIMACHI","perfecture_jp":"熊本県","jp_add_1":"熊本市南区","jp_add_2":"畠口町"},"8615253":{"post_code":"8615253","prefecture":"KUMAMOTO KEN","city":"KUMAMOTO SHI MINAMI KU","town":"HAFUJIMACHI","perfecture_jp":"熊本県","jp_add_1":"熊本市南区","jp_add_2":"八分字町"},"8615262":{"post_code":"8615262","prefecture":"KUMAMOTO KEN","city":"KUMAMOTO SHI MINAMI KU","town":"HAMAGUCHIMACHI","perfecture_jp":"熊本県","jp_add_1":"熊本市南区","jp_add_2":"浜口町"},"8614109":{"post_code":"8614109","prefecture":"KUMAMOTO KEN","city":"KUMAMOTO SHI MINAMI KU","town":"HIYOSHI","perfecture_jp":"熊本県","jp_add_1":"熊本市南区","jp_add_2":"日吉"},"8615254":{"post_code":"8615254","prefecture":"KUMAMOTO KEN","city":"KUMAMOTO SHI MINAMI KU","town":"MAGODAIMACHI","perfecture_jp":"熊本県","jp_add_1":"熊本市南区","jp_add_2":"孫代町"},"8614122":{"post_code":"8614122","prefecture":"KUMAMOTO KEN","city":"KUMAMOTO SHI MINAMI KU","town":"MIDORIMACHI","perfecture_jp":"熊本県","jp_add_1":"熊本市南区","jp_add_2":"美登里町"},"8614106":{"post_code":"8614106","prefecture":"KUMAMOTO KEN","city":"KUMAMOTO SHI MINAMI KU","town":"MINAMITAKAE","perfecture_jp":"熊本県","jp_add_1":"熊本市南区","jp_add_2":"南高江"},"8614104":{"post_code":"8614104","prefecture":"KUMAMOTO KEN","city":"KUMAMOTO SHI MINAMI KU","town":"MIYUKI KIBEMACHI","perfecture_jp":"熊本県","jp_add_1":"熊本市南区","jp_add_2":"御幸木部町"},"8614102":{"post_code":"8614102","prefecture":"KUMAMOTO KEN","city":"KUMAMOTO SHI MINAMI KU","town":"MIYUKI NISHIMUTAMACHI","perfecture_jp":"熊本県","jp_add_1":"熊本市南区","jp_add_2":"御幸西無田町"},"8614103":{"post_code":"8614103","prefecture":"KUMAMOTO KEN","city":"KUMAMOTO SHI MINAMI KU","town":"MIYUKI FUEDAMACHI","perfecture_jp":"熊本県","jp_add_1":"熊本市南区","jp_add_2":"御幸笛田町"},"8614173":{"post_code":"8614173","prefecture":"KUMAMOTO KEN","city":"KUMAMOTO SHI MINAMI KU","town":"MIYUKIKIBE","perfecture_jp":"熊本県","jp_add_1":"熊本市南区","jp_add_2":"御幸木部"},"8614171":{"post_code":"8614171","prefecture":"KUMAMOTO KEN","city":"KUMAMOTO SHI MINAMI KU","town":"MIYUKINISHI","perfecture_jp":"熊本県","jp_add_1":"熊本市南区","jp_add_2":"御幸西"},"8614172":{"post_code":"8614172","prefecture":"KUMAMOTO KEN","city":"KUMAMOTO SHI MINAMI KU","town":"MIYUKIFUEDA","perfecture_jp":"熊本県","jp_add_1":"熊本市南区","jp_add_2":"御幸笛田"},"8615261":{"post_code":"8615261","prefecture":"KUMAMOTO KEN","city":"KUMAMOTO SHI MINAMI KU","town":"MUTAGUCHIMACHI","perfecture_jp":"熊本県","jp_add_1":"熊本市南区","jp_add_2":"無田口町"},"8614105":{"post_code":"8614105","prefecture":"KUMAMOTO KEN","city":"KUMAMOTO SHI MINAMI KU","town":"MOTOMIMACHI","perfecture_jp":"熊本県","jp_add_1":"熊本市南区","jp_add_2":"元三町"},"8614113":{"post_code":"8614113","prefecture":"KUMAMOTO KEN","city":"KUMAMOTO SHI MINAMI KU","town":"YAHATA","perfecture_jp":"熊本県","jp_add_1":"熊本市南区","jp_add_2":"八幡"},"8618081":{"post_code":"8618081","prefecture":"KUMAMOTO KEN","city":"KUMAMOTO SHI KITA KU","town":"ASODA","perfecture_jp":"熊本県","jp_add_1":"熊本市北区","jp_add_2":"麻生田"},"8615501":{"post_code":"8615501","prefecture":"KUMAMOTO KEN","city":"KUMAMOTO SHI KITA KU","town":"ARAKIMACHI","perfecture_jp":"熊本県","jp_add_1":"熊本市北区","jp_add_2":"改寄町"},"8615533":{"post_code":"8615533","prefecture":"KUMAMOTO KEN","city":"KUMAMOTO SHI KITA KU","town":"IZUMIMACHI","perfecture_jp":"熊本県","jp_add_1":"熊本市北区","jp_add_2":"和泉町"},"8610142":{"post_code":"8610142","prefecture":"KUMAMOTO KEN","city":"KUMAMOTO SHI KITA KU","town":"UEKIMACHI ABUMIDA","perfecture_jp":"熊本県","jp_add_1":"熊本市北区","jp_add_2":"植木町鐙田"},"8610123":{"post_code":"8610123","prefecture":"KUMAMOTO KEN","city":"KUMAMOTO SHI KITA KU","town":"UEKIMACHI ARIZUMI","perfecture_jp":"熊本県","jp_add_1":"熊本市北区","jp_add_2":"植木町有泉"},"8610124":{"post_code":"8610124","prefecture":"KUMAMOTO KEN","city":"KUMAMOTO SHI KITA KU","town":"UEKIMACHI ISHIKAWA","perfecture_jp":"熊本県","jp_add_1":"熊本市北区","jp_add_2":"植木町石川"},"8610113":{"post_code":"8610113","prefecture":"KUMAMOTO KEN","city":"KUMAMOTO SHI KITA KU","town":"UEKIMACHI ICHIBO","perfecture_jp":"熊本県","jp_add_1":"熊本市北区","jp_add_2":"植木町伊知坊"},"8610104":{"post_code":"8610104","prefecture":"KUMAMOTO KEN","city":"KUMAMOTO SHI KITA KU","town":"UEKIMACHI IMAFUJI","perfecture_jp":"熊本県","jp_add_1":"熊本市北区","jp_add_2":"植木町今藤"},"8610136":{"post_code":"8610136","prefecture":"KUMAMOTO KEN","city":"KUMAMOTO SHI KITA KU","town":"UEKIMACHI IWANO","perfecture_jp":"熊本県","jp_add_1":"熊本市北区","jp_add_2":"植木町岩野"},"8610132":{"post_code":"8610132","prefecture":"KUMAMOTO KEN","city":"KUMAMOTO SHI KITA KU","town":"UEKIMACHI UEKI","perfecture_jp":"熊本県","jp_add_1":"熊本市北区","jp_add_2":"植木町植木"},"8610152":{"post_code":"8610152","prefecture":"KUMAMOTO KEN","city":"KUMAMOTO SHI KITA KU","town":"UEKIMACHI UEKOGA","perfecture_jp":"熊本県","jp_add_1":"熊本市北区","jp_add_2":"植木町上古閑"},"8610156":{"post_code":"8610156","prefecture":"KUMAMOTO KEN","city":"KUMAMOTO SHI KITA KU","town":"UEKIMACHI USHIROKOGA","perfecture_jp":"熊本県","jp_add_1":"熊本市北区","jp_add_2":"植木町後古閑"},"8610102":{"post_code":"8610102","prefecture":"KUMAMOTO KEN","city":"KUMAMOTO SHI KITA KU","town":"UEKIMACHI UCHI","perfecture_jp":"熊本県","jp_add_1":"熊本市北区","jp_add_2":"植木町内"},"8610153":{"post_code":"8610153","prefecture":"KUMAMOTO KEN","city":"KUMAMOTO SHI KITA KU","town":"UEKIMACHI ENDAIJI","perfecture_jp":"熊本県","jp_add_1":"熊本市北区","jp_add_2":"植木町円台寺"},"8610126":{"post_code":"8610126","prefecture":"KUMAMOTO KEN","city":"KUMAMOTO SHI KITA KU","town":"UEKIMACHI OI","perfecture_jp":"熊本県","jp_add_1":"熊本市北区","jp_add_2":"植木町大井"},"8610145":{"post_code":"8610145","prefecture":"KUMAMOTO KEN","city":"KUMAMOTO SHI KITA KU","town":"UEKIMACHI OGISAKO","perfecture_jp":"熊本県","jp_add_1":"熊本市北区","jp_add_2":"植木町荻迫"},"8610125":{"post_code":"8610125","prefecture":"KUMAMOTO KEN","city":"KUMAMOTO SHI KITA KU","town":"UEKIMACHI ONO","perfecture_jp":"熊本県","jp_add_1":"熊本市北区","jp_add_2":"植木町小野"},"8610127":{"post_code":"8610127","prefecture":"KUMAMOTO KEN","city":"KUMAMOTO SHI KITA KU","town":"UEKIMACHI KAMEKO","perfecture_jp":"熊本県","jp_add_1":"熊本市北区","jp_add_2":"植木町亀甲"},"8610151":{"post_code":"8610151","prefecture":"KUMAMOTO KEN","city":"KUMAMOTO SHI KITA KU","town":"UEKIMACHI KITOME","perfecture_jp":"熊本県","jp_add_1":"熊本市北区","jp_add_2":"植木町木留"},"8610103":{"post_code":"8610103","prefecture":"KUMAMOTO KEN","city":"KUMAMOTO SHI KITA KU","town":"UEKIMACHI KIYOMIZU","perfecture_jp":"熊本県","jp_add_1":"熊本市北区","jp_add_2":"植木町清水"},"8610161":{"post_code":"8610161","prefecture":"KUMAMOTO KEN","city":"KUMAMOTO SHI KITA KU","town":"UEKIMACHI KURAKAKE","perfecture_jp":"熊本県","jp_add_1":"熊本市北区","jp_add_2":"植木町鞍掛"},"8610122":{"post_code":"8610122","prefecture":"KUMAMOTO KEN","city":"KUMAMOTO SHI KITA KU","town":"UEKIMACHI KOGA","perfecture_jp":"熊本県","jp_add_1":"熊本市北区","jp_add_2":"植木町古閑"},"8610116":{"post_code":"8610116","prefecture":"KUMAMOTO KEN","city":"KUMAMOTO SHI KITA KU","town":"UEKIMACHI SHIKIDE","perfecture_jp":"熊本県","jp_add_1":"熊本市北区","jp_add_2":"植木町色出"},"8610117":{"post_code":"8610117","prefecture":"KUMAMOTO KEN","city":"KUMAMOTO SHI KITA KU","town":"UEKIMACHI SHOSEI","perfecture_jp":"熊本県","jp_add_1":"熊本市北区","jp_add_2":"植木町正清"},"8610164":{"post_code":"8610164","prefecture":"KUMAMOTO KEN","city":"KUMAMOTO SHI KITA KU","town":"UEKIMACHI SUZUMUGI","perfecture_jp":"熊本県","jp_add_1":"熊本市北区","jp_add_2":"植木町鈴麦"},"8610143":{"post_code":"8610143","prefecture":"KUMAMOTO KEN","city":"KUMAMOTO SHI KITA KU","town":"UEKIMACHI DAIWA","perfecture_jp":"熊本県","jp_add_1":"熊本市北区","jp_add_2":"植木町大和"},"8610112":{"post_code":"8610112","prefecture":"KUMAMOTO KEN","city":"KUMAMOTO SHI KITA KU","town":"UEKIMACHI TASOKO","perfecture_jp":"熊本県","jp_add_1":"熊本市北区","jp_add_2":"植木町田底"},"8610133":{"post_code":"8610133","prefecture":"KUMAMOTO KEN","city":"KUMAMOTO SHI KITA KU","town":"UEKIMACHI TARUMIZU","perfecture_jp":"熊本県","jp_add_1":"熊本市北区","jp_add_2":"植木町滴水"},"8610155":{"post_code":"8610155","prefecture":"KUMAMOTO KEN","city":"KUMAMOTO SHI KITA KU","town":"UEKIMACHI TODOROKI","perfecture_jp":"熊本県","jp_add_1":"熊本市北区","jp_add_2":"植木町轟"},"8610162":{"post_code":"8610162","prefecture":"KUMAMOTO KEN","city":"KUMAMOTO SHI KITA KU","town":"UEKIMACHI TOMIO","perfecture_jp":"熊本県","jp_add_1":"熊本市北区","jp_add_2":"植木町富応"},"8610163":{"post_code":"8610163","prefecture":"KUMAMOTO KEN","city":"KUMAMOTO SHI KITA KU","town":"UEKIMACHI TOYOKA","perfecture_jp":"熊本県","jp_add_1":"熊本市北区","jp_add_2":"植木町豊岡"},"8610106":{"post_code":"8610106","prefecture":"KUMAMOTO KEN","city":"KUMAMOTO SHI KITA KU","town":"UEKIMACHI TOYODA","perfecture_jp":"熊本県","jp_add_1":"熊本市北区","jp_add_2":"植木町豊田"},"8610141":{"post_code":"8610141","prefecture":"KUMAMOTO KEN","city":"KUMAMOTO SHI KITA KU","town":"UEKIMACHI NATATSUKA","perfecture_jp":"熊本県","jp_add_1":"熊本市北区","jp_add_2":"植木町投刀塚"},"8610154":{"post_code":"8610154","prefecture":"KUMAMOTO KEN","city":"KUMAMOTO SHI KITA KU","town":"UEKIMACHI NACHI","perfecture_jp":"熊本県","jp_add_1":"熊本市北区","jp_add_2":"植木町那知"},"8610135":{"post_code":"8610135","prefecture":"KUMAMOTO KEN","city":"KUMAMOTO SHI KITA KU","town":"UEKIMACHI HITOTSUGI","perfecture_jp":"熊本県","jp_add_1":"熊本市北区","jp_add_2":"植木町一木"},"8610121":{"post_code":"8610121","prefecture":"KUMAMOTO KEN","city":"KUMAMOTO SHI KITA KU","town":"UEKIMACHI HIRAI","perfecture_jp":"熊本県","jp_add_1":"熊本市北区","jp_add_2":"植木町平井"},"8610144":{"post_code":"8610144","prefecture":"KUMAMOTO KEN","city":"KUMAMOTO SHI KITA KU","town":"UEKIMACHI HIRANO","perfecture_jp":"熊本県","jp_add_1":"熊本市北区","jp_add_2":"植木町平野"},"8610165":{"post_code":"8610165","prefecture":"KUMAMOTO KEN","city":"KUMAMOTO SHI KITA KU","town":"UEKIMACHI HIRABARU","perfecture_jp":"熊本県","jp_add_1":"熊本市北区","jp_add_2":"植木町平原"},"8610131":{"post_code":"8610131","prefecture":"KUMAMOTO KEN","city":"KUMAMOTO SHI KITA KU","town":"UEKIMACHI HIROZUMI","perfecture_jp":"熊本県","jp_add_1":"熊本市北区","jp_add_2":"植木町広住"},"8610114":{"post_code":"8610114","prefecture":"KUMAMOTO KEN","city":"KUMAMOTO SHI KITA KU","town":"UEKIMACHI FUNAJIMA","perfecture_jp":"熊本県","jp_add_1":"熊本市北区","jp_add_2":"植木町舟島"},"8610146":{"post_code":"8610146","prefecture":"KUMAMOTO KEN","city":"KUMAMOTO SHI KITA KU","town":"UEKIMACHI HETANO","perfecture_jp":"熊本県","jp_add_1":"熊本市北区","jp_add_2":"植木町辺田野"},"8610105":{"post_code":"8610105","prefecture":"KUMAMOTO KEN","city":"KUMAMOTO SHI KITA KU","town":"UEKIMACHI MITORI","perfecture_jp":"熊本県","jp_add_1":"熊本市北区","jp_add_2":"植木町味取"},"8610111":{"post_code":"8610111","prefecture":"KUMAMOTO KEN","city":"KUMAMOTO SHI KITA KU","town":"UEKIMACHI MIYABARU","perfecture_jp":"熊本県","jp_add_1":"熊本市北区","jp_add_2":"植木町宮原"},"8610134":{"post_code":"8610134","prefecture":"KUMAMOTO KEN","city":"KUMAMOTO SHI KITA KU","town":"UEKIMACHI MONO","perfecture_jp":"熊本県","jp_add_1":"熊本市北区","jp_add_2":"植木町舞尾"},"8610101":{"post_code":"8610101","prefecture":"KUMAMOTO KEN","city":"KUMAMOTO SHI KITA KU","town":"UEKIMACHI YAMAMOTO","perfecture_jp":"熊本県","jp_add_1":"熊本市北区","jp_add_2":"植木町山本"},"8610115":{"post_code":"8610115","prefecture":"KUMAMOTO KEN","city":"KUMAMOTO SHI KITA KU","town":"UEKIMACHI YONETSUKA","perfecture_jp":"熊本県","jp_add_1":"熊本市北区","jp_add_2":"植木町米塚"},"8618082":{"post_code":"8618082","prefecture":"KUMAMOTO KEN","city":"KUMAMOTO SHI KITA KU","town":"USAGIDANI","perfecture_jp":"熊本県","jp_add_1":"熊本市北区","jp_add_2":"兎谷"},"8615502":{"post_code":"8615502","prefecture":"KUMAMOTO KEN","city":"KUMAMOTO SHI KITA KU","town":"OTORIIMACHI","perfecture_jp":"熊本県","jp_add_1":"熊本市北区","jp_add_2":"大鳥居町"},"8615512":{"post_code":"8615512","prefecture":"KUMAMOTO KEN","city":"KUMAMOTO SHI KITA KU","town":"KAJIOMACHI","perfecture_jp":"熊本県","jp_add_1":"熊本市北区","jp_add_2":"梶尾町"},"8615521":{"post_code":"8615521","prefecture":"KUMAMOTO KEN","city":"KUMAMOTO SHI KITA KU","town":"KANOKOGIMACHI","perfecture_jp":"熊本県","jp_add_1":"熊本市北区","jp_add_2":"鹿子木町"},"8615534":{"post_code":"8615534","prefecture":"KUMAMOTO KEN","city":"KUMAMOTO SHI KITA KU","town":"KAMAOMACHI","perfecture_jp":"熊本県","jp_add_1":"熊本市北区","jp_add_2":"釜尾町"},"8615531":{"post_code":"8615531","prefecture":"KUMAMOTO KEN","city":"KUMAMOTO SHI KITA KU","town":"KITAZAKOMACHI","perfecture_jp":"熊本県","jp_add_1":"熊本市北区","jp_add_2":"北迫町"},"8618003":{"post_code":"8618003","prefecture":"KUMAMOTO KEN","city":"KUMAMOTO SHI KITA KU","town":"KUSUNOKI","perfecture_jp":"熊本県","jp_add_1":"熊本市北区","jp_add_2":"楠"},"8615511":{"post_code":"8615511","prefecture":"KUMAMOTO KEN","city":"KUMAMOTO SHI KITA KU","town":"KUSUNOMACHI","perfecture_jp":"熊本県","jp_add_1":"熊本市北区","jp_add_2":"楠野町"},"8615504":{"post_code":"8615504","prefecture":"KUMAMOTO KEN","city":"KUMAMOTO SHI KITA KU","town":"KOITOYAMAMACHI","perfecture_jp":"熊本県","jp_add_1":"熊本市北区","jp_add_2":"小糸山町"},"8618084":{"post_code":"8618084","prefecture":"KUMAMOTO KEN","city":"KUMAMOTO SHI KITA KU","town":"SHIMIZU IWAKURA","perfecture_jp":"熊本県","jp_add_1":"熊本市北区","jp_add_2":"清水岩倉"},"8618066":{"post_code":"8618066","prefecture":"KUMAMOTO KEN","city":"KUMAMOTO SHI KITA KU","town":"SHIMIZU KAMEIMACHI","perfecture_jp":"熊本県","jp_add_1":"熊本市北区","jp_add_2":"清水亀井町"},"8618075":{"post_code":"8618075","prefecture":"KUMAMOTO KEN","city":"KUMAMOTO SHI KITA KU","town":"SHIMIZU SHINCHI","perfecture_jp":"熊本県","jp_add_1":"熊本市北区","jp_add_2":"清水新地"},"8618065":{"post_code":"8618065","prefecture":"KUMAMOTO KEN","city":"KUMAMOTO SHI KITA KU","town":"SHIMIZU HIGASHIMACHI","perfecture_jp":"熊本県","jp_add_1":"熊本市北区","jp_add_2":"清水東町"},"8618074":{"post_code":"8618074","prefecture":"KUMAMOTO KEN","city":"KUMAMOTO SHI KITA KU","town":"SHIMIZU HOMMACHI","perfecture_jp":"熊本県","jp_add_1":"熊本市北区","jp_add_2":"清水本町"},"8618068":{"post_code":"8618068","prefecture":"KUMAMOTO KEN","city":"KUMAMOTO SHI KITA KU","town":"SHIMIZU MANGOKU","perfecture_jp":"熊本県","jp_add_1":"熊本市北区","jp_add_2":"清水万石"},"8618073":{"post_code":"8618073","prefecture":"KUMAMOTO KEN","city":"KUMAMOTO SHI KITA KU","town":"SHIMIZUMACHI MATSUZAKI","perfecture_jp":"熊本県","jp_add_1":"熊本市北区","jp_add_2":"清水町松崎"},"8618071":{"post_code":"8618071","prefecture":"KUMAMOTO KEN","city":"KUMAMOTO SHI KITA KU","town":"SHIMIZUMACHI MUROZONO","perfecture_jp":"熊本県","jp_add_1":"熊本市北区","jp_add_2":"清水町室園"},"8615526":{"post_code":"8615526","prefecture":"KUMAMOTO KEN","city":"KUMAMOTO SHI KITA KU","town":"SHIMOSUZURIKAWA","perfecture_jp":"熊本県","jp_add_1":"熊本市北区","jp_add_2":"下硯川"},"8615522":{"post_code":"8615522","prefecture":"KUMAMOTO KEN","city":"KUMAMOTO SHI KITA KU","town":"SHIMOSUZURIKAWAMACHI","perfecture_jp":"熊本県","jp_add_1":"熊本市北区","jp_add_2":"下硯川町"},"8615524":{"post_code":"8615524","prefecture":"KUMAMOTO KEN","city":"KUMAMOTO SHI KITA KU","town":"SUZURIKAWAMACHI","perfecture_jp":"熊本県","jp_add_1":"熊本市北区","jp_add_2":"硯川町"},"8618006":{"post_code":"8618006","prefecture":"KUMAMOTO KEN","city":"KUMAMOTO SHI KITA KU","town":"TATSUDA","perfecture_jp":"熊本県","jp_add_1":"熊本市北区","jp_add_2":"龍田"},"8618005":{"post_code":"8618005","prefecture":"KUMAMOTO KEN","city":"KUMAMOTO SHI KITA KU","town":"TATSUDAJINNAI","perfecture_jp":"熊本県","jp_add_1":"熊本市北区","jp_add_2":"龍田陳内"},"8618002":{"post_code":"8618002","prefecture":"KUMAMOTO KEN","city":"KUMAMOTO SHI KITA KU","town":"TATSUDAMACHI YUGE","perfecture_jp":"熊本県","jp_add_1":"熊本市北区","jp_add_2":"龍田町弓削"},"8618007":{"post_code":"8618007","prefecture":"KUMAMOTO KEN","city":"KUMAMOTO SHI KITA KU","town":"TATSUDAYUGE","perfecture_jp":"熊本県","jp_add_1":"熊本市北区","jp_add_2":"龍田弓削"},"8615532":{"post_code":"8615532","prefecture":"KUMAMOTO KEN","city":"KUMAMOTO SHI KITA KU","town":"TAROZAKOMACHI","perfecture_jp":"熊本県","jp_add_1":"熊本市北区","jp_add_2":"太郎迫町"},"8615517":{"post_code":"8615517","prefecture":"KUMAMOTO KEN","city":"KUMAMOTO SHI KITA KU","town":"TSURUHADA","perfecture_jp":"熊本県","jp_add_1":"熊本市北区","jp_add_2":"鶴羽田"},"8615513":{"post_code":"8615513","prefecture":"KUMAMOTO KEN","city":"KUMAMOTO SHI KITA KU","town":"TSURUHADAMACHI","perfecture_jp":"熊本県","jp_add_1":"熊本市北区","jp_add_2":"鶴羽田町"},"8615525":{"post_code":"8615525","prefecture":"KUMAMOTO KEN","city":"KUMAMOTO SHI KITA KU","town":"TOKUO","perfecture_jp":"熊本県","jp_add_1":"熊本市北区","jp_add_2":"徳王"},"8615523":{"post_code":"8615523","prefecture":"KUMAMOTO KEN","city":"KUMAMOTO SHI KITA KU","town":"TOKUOMACHI","perfecture_jp":"熊本県","jp_add_1":"熊本市北区","jp_add_2":"徳王町"},"8615516":{"post_code":"8615516","prefecture":"KUMAMOTO KEN","city":"KUMAMOTO SHI KITA KU","town":"NISHIKAJIOMACHI","perfecture_jp":"熊本県","jp_add_1":"熊本市北区","jp_add_2":"西梶尾町"},"8618083":{"post_code":"8618083","prefecture":"KUMAMOTO KEN","city":"KUMAMOTO SHI KITA KU","town":"NIRENOKI","perfecture_jp":"熊本県","jp_add_1":"熊本市北区","jp_add_2":"楡木"},"8618064":{"post_code":"8618064","prefecture":"KUMAMOTO KEN","city":"KUMAMOTO SHI KITA KU","town":"HAKENOMIYA","perfecture_jp":"熊本県","jp_add_1":"熊本市北区","jp_add_2":"八景水谷"},"8615514":{"post_code":"8615514","prefecture":"KUMAMOTO KEN","city":"KUMAMOTO SHI KITA KU","town":"HIDA","perfecture_jp":"熊本県","jp_add_1":"熊本市北区","jp_add_2":"飛田"},"8615537":{"post_code":"8615537","prefecture":"KUMAMOTO KEN","city":"KUMAMOTO SHI KITA KU","town":"MANRAKUJIMACHI","perfecture_jp":"熊本県","jp_add_1":"熊本市北区","jp_add_2":"万楽寺町"},"8615535":{"post_code":"8615535","prefecture":"KUMAMOTO KEN","city":"KUMAMOTO SHI KITA KU","town":"MITSUGUMACHI","perfecture_jp":"熊本県","jp_add_1":"熊本市北区","jp_add_2":"貢町"},"8618001":{"post_code":"8618001","prefecture":"KUMAMOTO KEN","city":"KUMAMOTO SHI KITA KU","town":"MUSASHIGAOKA","perfecture_jp":"熊本県","jp_add_1":"熊本市北区","jp_add_2":"武蔵ケ丘"},"8615503":{"post_code":"8615503","prefecture":"KUMAMOTO KEN","city":"KUMAMOTO SHI KITA KU","town":"MEITOKUMACHI","perfecture_jp":"熊本県","jp_add_1":"熊本市北区","jp_add_2":"明徳町"},"8615515":{"post_code":"8615515","prefecture":"KUMAMOTO KEN","city":"KUMAMOTO SHI KITA KU","town":"YOMOGIMACHI","perfecture_jp":"熊本県","jp_add_1":"熊本市北区","jp_add_2":"四方寄町"},"8615536":{"post_code":"8615536","prefecture":"KUMAMOTO KEN","city":"KUMAMOTO SHI KITA KU","town":"RYUFUKUJIMACHI","perfecture_jp":"熊本県","jp_add_1":"熊本市北区","jp_add_2":"立福寺町"},"8615401":{"post_code":"8615401","prefecture":"KUMAMOTO KEN","city":"TAMANA SHI","town":"TENSUIMACHI OAMA","perfecture_jp":"熊本県","jp_add_1":"玉名市","jp_add_2":"天水町小天"},"8615406":{"post_code":"8615406","prefecture":"KUMAMOTO KEN","city":"TAMANA SHI","town":"TENSUIMACHI OTA","perfecture_jp":"熊本県","jp_add_1":"玉名市","jp_add_2":"天水町尾田"},"8615404":{"post_code":"8615404","prefecture":"KUMAMOTO KEN","city":"TAMANA SHI","town":"TENSUIMACHI TAKEZAKI","perfecture_jp":"熊本県","jp_add_1":"玉名市","jp_add_2":"天水町竹崎"},"8615402":{"post_code":"8615402","prefecture":"KUMAMOTO KEN","city":"TAMANA SHI","town":"TENSUIMACHI TACHIBANA","perfecture_jp":"熊本県","jp_add_1":"玉名市","jp_add_2":"天水町立花"},"8615405":{"post_code":"8615405","prefecture":"KUMAMOTO KEN","city":"TAMANA SHI","town":"TENSUIMACHI NOBETA","perfecture_jp":"熊本県","jp_add_1":"玉名市","jp_add_2":"天水町野部田"},"8615403":{"post_code":"8615403","prefecture":"KUMAMOTO KEN","city":"TAMANA SHI","town":"TENSUIMACHI HETAMI","perfecture_jp":"熊本県","jp_add_1":"玉名市","jp_add_2":"天水町部田見"},"8610500":{"post_code":"8610500","prefecture":"KUMAMOTO KEN","city":"YAMAGA SHI","town":"IKANIKEISAIGANAIBAAI","perfecture_jp":"熊本県","jp_add_1":"山鹿市","jp_add_2":""},"8610547":{"post_code":"8610547","prefecture":"KUMAMOTO KEN","city":"YAMAGA SHI","town":"AZONO","perfecture_jp":"熊本県","jp_add_1":"山鹿市","jp_add_2":"麻生野"},"8610553":{"post_code":"8610553","prefecture":"KUMAMOTO KEN","city":"YAMAGA SHI","town":"ISHI","perfecture_jp":"熊本県","jp_add_1":"山鹿市","jp_add_2":"石"},"8610512":{"post_code":"8610512","prefecture":"KUMAMOTO KEN","city":"YAMAGA SHI","town":"IZUMIMACHI","perfecture_jp":"熊本県","jp_add_1":"山鹿市","jp_add_2":"泉町"},"8610517":{"post_code":"8610517","prefecture":"KUMAMOTO KEN","city":"YAMAGA SHI","town":"OHASHIDORI","perfecture_jp":"熊本県","jp_add_1":"山鹿市","jp_add_2":"大橋通"},"8610521":{"post_code":"8610521","prefecture":"KUMAMOTO KEN","city":"YAMAGA SHI","town":"OSAKA","perfecture_jp":"熊本県","jp_add_1":"山鹿市","jp_add_2":"小坂"},"8610543":{"post_code":"8610543","prefecture":"KUMAMOTO KEN","city":"YAMAGA SHI","town":"OBARU","perfecture_jp":"熊本県","jp_add_1":"山鹿市","jp_add_2":"小原"},"8610555":{"post_code":"8610555","prefecture":"KUMAMOTO KEN","city":"YAMAGA SHI","town":"OMURE","perfecture_jp":"熊本県","jp_add_1":"山鹿市","jp_add_2":"小群"},"8610565":{"post_code":"8610565","prefecture":"KUMAMOTO KEN","city":"YAMAGA SHI","town":"KAOMACHI AIZATO","perfecture_jp":"熊本県","jp_add_1":"山鹿市","jp_add_2":"鹿央町合里"},"8610561":{"post_code":"8610561","prefecture":"KUMAMOTO KEN","city":"YAMAGA SHI","town":"KAOMACHI IWABARU","perfecture_jp":"熊本県","jp_add_1":"山鹿市","jp_add_2":"鹿央町岩原"},"8610574":{"post_code":"8610574","prefecture":"KUMAMOTO KEN","city":"YAMAGA SHI","town":"KAOMACHI UMENOKIDANI","perfecture_jp":"熊本県","jp_add_1":"山鹿市","jp_add_2":"鹿央町梅木谷"},"8610576":{"post_code":"8610576","prefecture":"KUMAMOTO KEN","city":"YAMAGA SHI","town":"KAOMACHI OURA","perfecture_jp":"熊本県","jp_add_1":"山鹿市","jp_add_2":"鹿央町大浦"},"8610571":{"post_code":"8610571","prefecture":"KUMAMOTO KEN","city":"YAMAGA SHI","town":"KAOMACHI KITADANI","perfecture_jp":"熊本県","jp_add_1":"山鹿市","jp_add_2":"鹿央町北谷"},"8610573":{"post_code":"8610573","prefecture":"KUMAMOTO KEN","city":"YAMAGA SHI","town":"KAOMACHI SHIMONO","perfecture_jp":"熊本県","jp_add_1":"山鹿市","jp_add_2":"鹿央町霜野"},"8610563":{"post_code":"8610563","prefecture":"KUMAMOTO KEN","city":"YAMAGA SHI","town":"KAOMACHI CHIDA","perfecture_jp":"熊本県","jp_add_1":"山鹿市","jp_add_2":"鹿央町千田"},"8610575":{"post_code":"8610575","prefecture":"KUMAMOTO KEN","city":"YAMAGA SHI","town":"KAOMACHI CHUNORA","perfecture_jp":"熊本県","jp_add_1":"山鹿市","jp_add_2":"鹿央町中浦"},"8610572":{"post_code":"8610572","prefecture":"KUMAMOTO KEN","city":"YAMAGA SHI","town":"KAOMACHI NIODO","perfecture_jp":"熊本県","jp_add_1":"山鹿市","jp_add_2":"鹿央町仁王堂"},"8610564":{"post_code":"8610564","prefecture":"KUMAMOTO KEN","city":"YAMAGA SHI","town":"KAOMACHI HIRO","perfecture_jp":"熊本県","jp_add_1":"山鹿市","jp_add_2":"鹿央町広"},"8610562":{"post_code":"8610562","prefecture":"KUMAMOTO KEN","city":"YAMAGA SHI","town":"KAOMACHI MOCHIMATSU","perfecture_jp":"熊本県","jp_add_1":"山鹿市","jp_add_2":"鹿央町持松"},"8610532":{"post_code":"8610532","prefecture":"KUMAMOTO KEN","city":"YAMAGA SHI","town":"KAKOTORI","perfecture_jp":"熊本県","jp_add_1":"山鹿市","jp_add_2":"鹿校通"},"8610382":{"post_code":"8610382","prefecture":"KUMAMOTO KEN","city":"YAMAGA SHI","town":"KATODA","perfecture_jp":"熊本県","jp_add_1":"山鹿市","jp_add_2":"方保田"},"8610602":{"post_code":"8610602","prefecture":"KUMAMOTO KEN","city":"YAMAGA SHI","town":"KAHOKUMACHI IMO","perfecture_jp":"熊本県","jp_add_1":"山鹿市","jp_add_2":"鹿北町芋生"},"8610603":{"post_code":"8610603","prefecture":"KUMAMOTO KEN","city":"YAMAGA SHI","town":"KAHOKUMACHI IWANO","perfecture_jp":"熊本県","jp_add_1":"山鹿市","jp_add_2":"鹿北町岩野"},"8610604":{"post_code":"8610604","prefecture":"KUMAMOTO KEN","city":"YAMAGA SHI","town":"KAHOKUMACHI SHIIMOCHI","perfecture_jp":"熊本県","jp_add_1":"山鹿市","jp_add_2":"鹿北町椎持"},"8610601":{"post_code":"8610601","prefecture":"KUMAMOTO KEN","city":"YAMAGA SHI","town":"KAHOKUMACHI SHICHO","perfecture_jp":"熊本県","jp_add_1":"山鹿市","jp_add_2":"鹿北町四丁"},"8610605":{"post_code":"8610605","prefecture":"KUMAMOTO KEN","city":"YAMAGA SHI","town":"KAHOKUMACHI TAKU","perfecture_jp":"熊本県","jp_add_1":"山鹿市","jp_add_2":"鹿北町多久"},"8610524":{"post_code":"8610524","prefecture":"KUMAMOTO KEN","city":"YAMAGA SHI","town":"KAMIYOSHIDA","perfecture_jp":"熊本県","jp_add_1":"山鹿市","jp_add_2":"上吉田"},"8610523":{"post_code":"8610523","prefecture":"KUMAMOTO KEN","city":"YAMAGA SHI","town":"KAMO","perfecture_jp":"熊本県","jp_add_1":"山鹿市","jp_add_2":"蒲生"},"8610311":{"post_code":"8610311","prefecture":"KUMAMOTO KEN","city":"YAMAGA SHI","town":"KAMOTOMACHI ISHIBUCHI","perfecture_jp":"熊本県","jp_add_1":"山鹿市","jp_add_2":"鹿本町石渕"},"8610315":{"post_code":"8610315","prefecture":"KUMAMOTO KEN","city":"YAMAGA SHI","town":"KAMOTOMACHI OSHIMA","perfecture_jp":"熊本県","jp_add_1":"山鹿市","jp_add_2":"鹿本町小嶋"},"8610312":{"post_code":"8610312","prefecture":"KUMAMOTO KEN","city":"YAMAGA SHI","town":"KAMOTOMACHI KAJIYA","perfecture_jp":"熊本県","jp_add_1":"山鹿市","jp_add_2":"鹿本町梶屋"},"8610331":{"post_code":"8610331","prefecture":"KUMAMOTO KEN","city":"YAMAGA SHI","town":"KAMOTOMACHI KUTAMI","perfecture_jp":"熊本県","jp_add_1":"山鹿市","jp_add_2":"鹿本町来民"},"8610324":{"post_code":"8610324","prefecture":"KUMAMOTO KEN","city":"YAMAGA SHI","town":"KAMOTOMACHI KOYANAGI","perfecture_jp":"熊本県","jp_add_1":"山鹿市","jp_add_2":"鹿本町小柳"},"8610316":{"post_code":"8610316","prefecture":"KUMAMOTO KEN","city":"YAMAGA SHI","town":"KAMOTOMACHI SHIMOTAKAHASHI","perfecture_jp":"熊本県","jp_add_1":"山鹿市","jp_add_2":"鹿本町下高橋"},"8610323":{"post_code":"8610323","prefecture":"KUMAMOTO KEN","city":"YAMAGA SHI","town":"KAMOTOMACHI SHIMOBUNDA","perfecture_jp":"熊本県","jp_add_1":"山鹿市","jp_add_2":"鹿本町下分田"},"8610301":{"post_code":"8610301","prefecture":"KUMAMOTO KEN","city":"YAMAGA SHI","town":"KAMOTOMACHI SHO","perfecture_jp":"熊本県","jp_add_1":"山鹿市","jp_add_2":"鹿本町庄"},"8610303":{"post_code":"8610303","prefecture":"KUMAMOTO KEN","city":"YAMAGA SHI","town":"KAMOTOMACHI TAKAHASHI","perfecture_jp":"熊本県","jp_add_1":"山鹿市","jp_add_2":"鹿本町高橋"},"8610302":{"post_code":"8610302","prefecture":"KUMAMOTO KEN","city":"YAMAGA SHI","town":"KAMOTOMACHI TSUBUKURO","perfecture_jp":"熊本県","jp_add_1":"山鹿市","jp_add_2":"鹿本町津袋"},"8610314":{"post_code":"8610314","prefecture":"KUMAMOTO KEN","city":"YAMAGA SHI","town":"KAMOTOMACHI NAKAGAWA","perfecture_jp":"熊本県","jp_add_1":"山鹿市","jp_add_2":"鹿本町中川"},"8610313":{"post_code":"8610313","prefecture":"KUMAMOTO KEN","city":"YAMAGA SHI","town":"KAMOTOMACHI NAKADOMI","perfecture_jp":"熊本県","jp_add_1":"山鹿市","jp_add_2":"鹿本町中富"},"8610322":{"post_code":"8610322","prefecture":"KUMAMOTO KEN","city":"YAMAGA SHI","town":"KAMOTOMACHI NAKABUNDA","perfecture_jp":"熊本県","jp_add_1":"山鹿市","jp_add_2":"鹿本町中分田"},"8610321":{"post_code":"8610321","prefecture":"KUMAMOTO KEN","city":"YAMAGA SHI","town":"KAMOTOMACHI BUNDA","perfecture_jp":"熊本県","jp_add_1":"山鹿市","jp_add_2":"鹿本町分田"},"8610304":{"post_code":"8610304","prefecture":"KUMAMOTO KEN","city":"YAMAGA SHI","town":"KAMOTOMACHI MIUTA","perfecture_jp":"熊本県","jp_add_1":"山鹿市","jp_add_2":"鹿本町御宇田"},"8610519":{"post_code":"8610519","prefecture":"KUMAMOTO KEN","city":"YAMAGA SHI","town":"KAWABATAMACHI","perfecture_jp":"熊本県","jp_add_1":"山鹿市","jp_add_2":"川端町"},"8610412":{"post_code":"8610412","prefecture":"KUMAMOTO KEN","city":"YAMAGA SHI","town":"KIKUKAMACHI AIRA","perfecture_jp":"熊本県","jp_add_1":"山鹿市","jp_add_2":"菊鹿町相良"},"8610421":{"post_code":"8610421","prefecture":"KUMAMOTO KEN","city":"YAMAGA SHI","town":"KIKUKAMACHI ASAGO","perfecture_jp":"熊本県","jp_add_1":"山鹿市","jp_add_2":"菊鹿町阿佐古"},"8610423":{"post_code":"8610423","prefecture":"KUMAMOTO KEN","city":"YAMAGA SHI","town":"KIKUKAMACHI IKENAGA","perfecture_jp":"熊本県","jp_add_1":"山鹿市","jp_add_2":"菊鹿町池永"},"8610402":{"post_code":"8610402","prefecture":"KUMAMOTO KEN","city":"YAMAGA SHI","town":"KIKUKAMACHI ODA","perfecture_jp":"熊本県","jp_add_1":"山鹿市","jp_add_2":"菊鹿町太田"},"8610414":{"post_code":"8610414","prefecture":"KUMAMOTO KEN","city":"YAMAGA SHI","town":"KIKUKAMACHI KAMIUCHIDA","perfecture_jp":"熊本県","jp_add_1":"山鹿市","jp_add_2":"菊鹿町上内田"},"8610404":{"post_code":"8610404","prefecture":"KUMAMOTO KEN","city":"YAMAGA SHI","town":"KIKUKAMACHI KAMINAGANO","perfecture_jp":"熊本県","jp_add_1":"山鹿市","jp_add_2":"菊鹿町上永野"},"8610426":{"post_code":"8610426","prefecture":"KUMAMOTO KEN","city":"YAMAGA SHI","town":"KIKUKAMACHI KINO","perfecture_jp":"熊本県","jp_add_1":"山鹿市","jp_add_2":"菊鹿町木野"},"8610403":{"post_code":"8610403","prefecture":"KUMAMOTO KEN","city":"YAMAGA SHI","town":"KIKUKAMACHI GOROMARU","perfecture_jp":"熊本県","jp_add_1":"山鹿市","jp_add_2":"菊鹿町五郎丸"},"8610406":{"post_code":"8610406","prefecture":"KUMAMOTO KEN","city":"YAMAGA SHI","town":"KIKUKAMACHI SHIMOCHIDA","perfecture_jp":"熊本県","jp_add_1":"山鹿市","jp_add_2":"菊鹿町下内田"},"8610405":{"post_code":"8610405","prefecture":"KUMAMOTO KEN","city":"YAMAGA SHI","town":"KIKUKAMACHI SHIMONAGANO","perfecture_jp":"熊本県","jp_add_1":"山鹿市","jp_add_2":"菊鹿町下永野"},"8610401":{"post_code":"8610401","prefecture":"KUMAMOTO KEN","city":"YAMAGA SHI","town":"KIKUKAMACHI NAGA","perfecture_jp":"熊本県","jp_add_1":"山鹿市","jp_add_2":"菊鹿町長"},"8610424":{"post_code":"8610424","prefecture":"KUMAMOTO KEN","city":"YAMAGA SHI","town":"KIKUKAMACHI MATSUO","perfecture_jp":"熊本県","jp_add_1":"山鹿市","jp_add_2":"菊鹿町松尾"},"8610422":{"post_code":"8610422","prefecture":"KUMAMOTO KEN","city":"YAMAGA SHI","town":"KIKUKAMACHI MIYANOHARU","perfecture_jp":"熊本県","jp_add_1":"山鹿市","jp_add_2":"菊鹿町宮原"},"8610413":{"post_code":"8610413","prefecture":"KUMAMOTO KEN","city":"YAMAGA SHI","town":"KIKUKAMACHI YATANI","perfecture_jp":"熊本県","jp_add_1":"山鹿市","jp_add_2":"菊鹿町矢谷"},"8610411":{"post_code":"8610411","prefecture":"KUMAMOTO KEN","city":"YAMAGA SHI","town":"KIKUKAMACHI YAMAUCHI","perfecture_jp":"熊本県","jp_add_1":"山鹿市","jp_add_2":"菊鹿町山内"},"8610425":{"post_code":"8610425","prefecture":"KUMAMOTO KEN","city":"YAMAGA SHI","town":"KIKUKAMACHI YONABARU","perfecture_jp":"熊本県","jp_add_1":"山鹿市","jp_add_2":"菊鹿町米原"},"8610522":{"post_code":"8610522","prefecture":"KUMAMOTO KEN","city":"YAMAGA SHI","town":"KUBARU","perfecture_jp":"熊本県","jp_add_1":"山鹿市","jp_add_2":"久原"},"8610511":{"post_code":"8610511","prefecture":"KUMAMOTO KEN","city":"YAMAGA SHI","town":"KUMAIRIMACHI","perfecture_jp":"熊本県","jp_add_1":"山鹿市","jp_add_2":"熊入町"},"8610533":{"post_code":"8610533","prefecture":"KUMAMOTO KEN","city":"YAMAGA SHI","town":"KOGA","perfecture_jp":"熊本県","jp_add_1":"山鹿市","jp_add_2":"古閑"},"8610546":{"post_code":"8610546","prefecture":"KUMAMOTO KEN","city":"YAMAGA SHI","town":"SAKADA","perfecture_jp":"熊本県","jp_add_1":"山鹿市","jp_add_2":"坂田"},"8610542":{"post_code":"8610542","prefecture":"KUMAMOTO KEN","city":"YAMAGA SHI","town":"SHIJIKI","perfecture_jp":"熊本県","jp_add_1":"山鹿市","jp_add_2":"志々岐"},"8610526":{"post_code":"8610526","prefecture":"KUMAMOTO KEN","city":"YAMAGA SHI","town":"SHIMOYOSHIDA","perfecture_jp":"熊本県","jp_add_1":"山鹿市","jp_add_2":"下吉田"},"8610554":{"post_code":"8610554","prefecture":"KUMAMOTO KEN","city":"YAMAGA SHI","town":"JO","perfecture_jp":"熊本県","jp_add_1":"山鹿市","jp_add_2":"城"},"8610515":{"post_code":"8610515","prefecture":"KUMAMOTO KEN","city":"YAMAGA SHI","town":"SHOWAMACHI","perfecture_jp":"熊本県","jp_add_1":"山鹿市","jp_add_2":"昭和町"},"8610514":{"post_code":"8610514","prefecture":"KUMAMOTO KEN","city":"YAMAGA SHI","town":"SHIMMACHI","perfecture_jp":"熊本県","jp_add_1":"山鹿市","jp_add_2":"新町"},"8610552":{"post_code":"8610552","prefecture":"KUMAMOTO KEN","city":"YAMAGA SHI","town":"SUGI","perfecture_jp":"熊本県","jp_add_1":"山鹿市","jp_add_2":"杉"},"8610516":{"post_code":"8610516","prefecture":"KUMAMOTO KEN","city":"YAMAGA SHI","town":"CHUODORI","perfecture_jp":"熊本県","jp_add_1":"山鹿市","jp_add_2":"中央通"},"8610548":{"post_code":"8610548","prefecture":"KUMAMOTO KEN","city":"YAMAGA SHI","town":"TSUBAI","perfecture_jp":"熊本県","jp_add_1":"山鹿市","jp_add_2":"椿井"},"8610551":{"post_code":"8610551","prefecture":"KUMAMOTO KEN","city":"YAMAGA SHI","town":"TSURU","perfecture_jp":"熊本県","jp_add_1":"山鹿市","jp_add_2":"津留"},"8610527":{"post_code":"8610527","prefecture":"KUMAMOTO KEN","city":"YAMAGA SHI","town":"TERAJIMA","perfecture_jp":"熊本県","jp_add_1":"山鹿市","jp_add_2":"寺島"},"8610531":{"post_code":"8610531","prefecture":"KUMAMOTO KEN","city":"YAMAGA SHI","town":"NAKA","perfecture_jp":"熊本県","jp_add_1":"山鹿市","jp_add_2":"中"},"8610534":{"post_code":"8610534","prefecture":"KUMAMOTO KEN","city":"YAMAGA SHI","town":"NAGASAKA","perfecture_jp":"熊本県","jp_add_1":"山鹿市","jp_add_2":"長坂"},"8610525":{"post_code":"8610525","prefecture":"KUMAMOTO KEN","city":"YAMAGA SHI","town":"NAZUKA","perfecture_jp":"熊本県","jp_add_1":"山鹿市","jp_add_2":"名塚"},"8610541":{"post_code":"8610541","prefecture":"KUMAMOTO KEN","city":"YAMAGA SHI","town":"NABETA","perfecture_jp":"熊本県","jp_add_1":"山鹿市","jp_add_2":"鍋田"},"8610545":{"post_code":"8610545","prefecture":"KUMAMOTO KEN","city":"YAMAGA SHI","town":"NISHIMAKI","perfecture_jp":"熊本県","jp_add_1":"山鹿市","jp_add_2":"西牧"},"8610556":{"post_code":"8610556","prefecture":"KUMAMOTO KEN","city":"YAMAGA SHI","town":"HIRAYAMA","perfecture_jp":"熊本県","jp_add_1":"山鹿市","jp_add_2":"平山"},"8610381":{"post_code":"8610381","prefecture":"KUMAMOTO KEN","city":"YAMAGA SHI","town":"FUJII","perfecture_jp":"熊本県","jp_add_1":"山鹿市","jp_add_2":"藤井"},"8610544":{"post_code":"8610544","prefecture":"KUMAMOTO KEN","city":"YAMAGA SHI","town":"HODATA","perfecture_jp":"熊本県","jp_add_1":"山鹿市","jp_add_2":"保多田"},"8610535":{"post_code":"8610535","prefecture":"KUMAMOTO KEN","city":"YAMAGA SHI","town":"MINAMIJIMA","perfecture_jp":"熊本県","jp_add_1":"山鹿市","jp_add_2":"南島"},"8610513":{"post_code":"8610513","prefecture":"KUMAMOTO KEN","city":"YAMAGA SHI","town":"MUNAKATA","perfecture_jp":"熊本県","jp_add_1":"山鹿市","jp_add_2":"宗方"},"8610518":{"post_code":"8610518","prefecture":"KUMAMOTO KEN","city":"YAMAGA SHI","town":"MUNAKATADORI","perfecture_jp":"熊本県","jp_add_1":"山鹿市","jp_add_2":"宗方通"},"8610501":{"post_code":"8610501","prefecture":"KUMAMOTO KEN","city":"YAMAGA SHI","town":"YAMAGA","perfecture_jp":"熊本県","jp_add_1":"山鹿市","jp_add_2":"山鹿"},"8611300":{"post_code":"8611300","prefecture":"KUMAMOTO KEN","city":"KIKUCHI SHI","town":"IKANIKEISAIGANAIBAAI","perfecture_jp":"熊本県","jp_add_1":"菊池市","jp_add_2":""},"8611311":{"post_code":"8611311","prefecture":"KUMAMOTO KEN","city":"KIKUCHI SHI","town":"AKAHOSHI","perfecture_jp":"熊本県","jp_add_1":"菊池市","jp_add_2":"赤星"},"8611686":{"post_code":"8611686","prefecture":"KUMAMOTO KEN","city":"KIKUCHI SHI","town":"ICHINOSE","perfecture_jp":"熊本県","jp_add_1":"菊池市","jp_add_2":"市野瀬"},"8611313":{"post_code":"8611313","prefecture":"KUMAMOTO KEN","city":"KIKUCHI SHI","town":"IDETA","perfecture_jp":"熊本県","jp_add_1":"菊池市","jp_add_2":"出田"},"8611303":{"post_code":"8611303","prefecture":"KUMAMOTO KEN","city":"KIKUCHI SHI","town":"IMA","perfecture_jp":"熊本県","jp_add_1":"菊池市","jp_add_2":"今"},"8611683":{"post_code":"8611683","prefecture":"KUMAMOTO KEN","city":"KIKUCHI SHI","town":"OHIRA","perfecture_jp":"熊本県","jp_add_1":"菊池市","jp_add_2":"大平"},"8611673":{"post_code":"8611673","prefecture":"KUMAMOTO KEN","city":"KIKUCHI SHI","town":"OGI","perfecture_jp":"熊本県","jp_add_1":"菊池市","jp_add_2":"小木"},"8611307":{"post_code":"8611307","prefecture":"KUMAMOTO KEN","city":"KIKUCHI SHI","town":"KATAKAKU","perfecture_jp":"熊本県","jp_add_1":"菊池市","jp_add_2":"片角"},"8611315":{"post_code":"8611315","prefecture":"KUMAMOTO KEN","city":"KIKUCHI SHI","town":"KIKOJI","perfecture_jp":"熊本県","jp_add_1":"菊池市","jp_add_2":"木柑子"},"8611305":{"post_code":"8611305","prefecture":"KUMAMOTO KEN","city":"KIKUCHI SHI","town":"KITAMIYA","perfecture_jp":"熊本県","jp_add_1":"菊池市","jp_add_2":"北宮"},"8611326":{"post_code":"8611326","prefecture":"KUMAMOTO KEN","city":"KIKUCHI SHI","town":"KINO","perfecture_jp":"熊本県","jp_add_1":"菊池市","jp_add_2":"木野"},"8611322":{"post_code":"8611322","prefecture":"KUMAMOTO KEN","city":"KIKUCHI SHI","town":"GYOKUSHOJI","perfecture_jp":"熊本県","jp_add_1":"菊池市","jp_add_2":"玉祥寺"},"8611325":{"post_code":"8611325","prefecture":"KUMAMOTO KEN","city":"KIKUCHI SHI","town":"KESAO","perfecture_jp":"熊本県","jp_add_1":"菊池市","jp_add_2":"袈裟尾"},"8611301":{"post_code":"8611301","prefecture":"KUMAMOTO KEN","city":"KIKUCHI SHI","town":"KOBA","perfecture_jp":"熊本県","jp_add_1":"菊池市","jp_add_2":"木庭"},"8611682":{"post_code":"8611682","prefecture":"KUMAMOTO KEN","city":"KIKUCHI SHI","town":"SHIGEMI","perfecture_jp":"熊本県","jp_add_1":"菊池市","jp_add_2":"重味"},"8611211":{"post_code":"8611211","prefecture":"KUMAMOTO KEN","city":"KIKUCHI SHI","town":"SHISUIMACHI KAMEO","perfecture_jp":"熊本県","jp_add_1":"菊池市","jp_add_2":"泗水町亀尾"},"8611203":{"post_code":"8611203","prefecture":"KUMAMOTO KEN","city":"KIKUCHI SHI","town":"SHISUIMACHI SUMIYOSHI","perfecture_jp":"熊本県","jp_add_1":"菊池市","jp_add_2":"泗水町住吉"},"8611214":{"post_code":"8611214","prefecture":"KUMAMOTO KEN","city":"KIKUCHI SHI","town":"SHISUIMACHI TASHIMA","perfecture_jp":"熊本県","jp_add_1":"菊池市","jp_add_2":"泗水町田島"},"8611202":{"post_code":"8611202","prefecture":"KUMAMOTO KEN","city":"KIKUCHI SHI","town":"SHISUIMACHI TOMINO","perfecture_jp":"熊本県","jp_add_1":"菊池市","jp_add_2":"泗水町富納"},"8611212":{"post_code":"8611212","prefecture":"KUMAMOTO KEN","city":"KIKUCHI SHI","town":"SHISUIMACHI TOYOMIZU","perfecture_jp":"熊本県","jp_add_1":"菊池市","jp_add_2":"泗水町豊水"},"8611204":{"post_code":"8611204","prefecture":"KUMAMOTO KEN","city":"KIKUCHI SHI","town":"SHISUIMACHI NAGA","perfecture_jp":"熊本県","jp_add_1":"菊池市","jp_add_2":"泗水町永"},"8611205":{"post_code":"8611205","prefecture":"KUMAMOTO KEN","city":"KIKUCHI SHI","town":"SHISUIMACHI FUKUMOTO","perfecture_jp":"熊本県","jp_add_1":"菊池市","jp_add_2":"泗水町福本"},"8611213":{"post_code":"8611213","prefecture":"KUMAMOTO KEN","city":"KIKUCHI SHI","town":"SHISUIMACHI MINAMITASHIMA","perfecture_jp":"熊本県","jp_add_1":"菊池市","jp_add_2":"泗水町南田島"},"8611201":{"post_code":"8611201","prefecture":"KUMAMOTO KEN","city":"KIKUCHI SHI","town":"SHISUIMACHI YOSHITOMI","perfecture_jp":"熊本県","jp_add_1":"菊池市","jp_add_2":"泗水町吉富"},"8611363":{"post_code":"8611363","prefecture":"KUMAMOTO KEN","city":"KIKUCHI SHI","town":"SHICHIJOMACHI ARAMAKI","perfecture_jp":"熊本県","jp_add_1":"菊池市","jp_add_2":"七城町荒牧"},"8611365":{"post_code":"8611365","prefecture":"KUMAMOTO KEN","city":"KIKUCHI SHI","town":"SHICHIJOMACHI UTENA","perfecture_jp":"熊本県","jp_add_1":"菊池市","jp_add_2":"七城町台"},"8611368":{"post_code":"8611368","prefecture":"KUMAMOTO KEN","city":"KIKUCHI SHI","town":"SHICHIJOMACHI OKADA","perfecture_jp":"熊本県","jp_add_1":"菊池市","jp_add_2":"七城町岡田"},"8611345":{"post_code":"8611345","prefecture":"KUMAMOTO KEN","city":"KIKUCHI SHI","town":"SHICHIJOMACHI ONOZAKI","perfecture_jp":"熊本県","jp_add_1":"菊池市","jp_add_2":"七城町小野崎"},"8611356":{"post_code":"8611356","prefecture":"KUMAMOTO KEN","city":"KIKUCHI SHI","town":"SHICHIJOMACHI KAE","perfecture_jp":"熊本県","jp_add_1":"菊池市","jp_add_2":"七城町加恵"},"8611342":{"post_code":"8611342","prefecture":"KUMAMOTO KEN","city":"KIKUCHI SHI","town":"SHICHIJOMACHI KAMEO","perfecture_jp":"熊本県","jp_add_1":"菊池市","jp_add_2":"七城町亀尾"},"8611341":{"post_code":"8611341","prefecture":"KUMAMOTO KEN","city":"KIKUCHI SHI","town":"SHICHIJOMACHI KIYOMIZU","perfecture_jp":"熊本県","jp_add_1":"菊池市","jp_add_2":"七城町清水"},"8611353":{"post_code":"8611353","prefecture":"KUMAMOTO KEN","city":"KIKUCHI SHI","town":"SHICHIJOMACHI KOSAMACHI","perfecture_jp":"熊本県","jp_add_1":"菊池市","jp_add_2":"七城町甲佐町"},"8611354":{"post_code":"8611354","prefecture":"KUMAMOTO KEN","city":"KIKUCHI SHI","town":"SHICHIJOMACHI KOMOIRI","perfecture_jp":"熊本県","jp_add_1":"菊池市","jp_add_2":"七城町菰入"},"8611352":{"post_code":"8611352","prefecture":"KUMAMOTO KEN","city":"KIKUCHI SHI","town":"SHICHIJOMACHI SHINKOGA","perfecture_jp":"熊本県","jp_add_1":"菊池市","jp_add_2":"七城町新古閑"},"8611351":{"post_code":"8611351","prefecture":"KUMAMOTO KEN","city":"KIKUCHI SHI","town":"SHICHIJOMACHI SUNADA","perfecture_jp":"熊本県","jp_add_1":"菊池市","jp_add_2":"七城町砂田"},"8611366":{"post_code":"8611366","prefecture":"KUMAMOTO KEN","city":"KIKUCHI SHI","town":"SHICHIJOMACHI SETOGUCHI","perfecture_jp":"熊本県","jp_add_1":"菊池市","jp_add_2":"七城町瀬戸口"},"8611344":{"post_code":"8611344","prefecture":"KUMAMOTO KEN","city":"KIKUCHI SHI","town":"SHICHIJOMACHI SOSAKI","perfecture_jp":"熊本県","jp_add_1":"菊池市","jp_add_2":"七城町蘇崎"},"8611355":{"post_code":"8611355","prefecture":"KUMAMOTO KEN","city":"KIKUCHI SHI","town":"SHICHIJOMACHI TAKAJIMA","perfecture_jp":"熊本県","jp_add_1":"菊池市","jp_add_2":"七城町高島"},"8611357":{"post_code":"8611357","prefecture":"KUMAMOTO KEN","city":"KIKUCHI SHI","town":"SHICHIJOMACHI TAKATA","perfecture_jp":"熊本県","jp_add_1":"菊池市","jp_add_2":"七城町高田"},"8611367":{"post_code":"8611367","prefecture":"KUMAMOTO KEN","city":"KIKUCHI SHI","town":"SHICHIJOMACHI NAGAREKAWA","perfecture_jp":"熊本県","jp_add_1":"菊池市","jp_add_2":"七城町流川"},"8611346":{"post_code":"8611346","prefecture":"KUMAMOTO KEN","city":"KIKUCHI SHI","town":"SHICHIJOMACHI HASHITA","perfecture_jp":"熊本県","jp_add_1":"菊池市","jp_add_2":"七城町橋田"},"8611343":{"post_code":"8611343","prefecture":"KUMAMOTO KEN","city":"KIKUCHI SHI","town":"SHICHIJOMACHI HAYASHIBARU","perfecture_jp":"熊本県","jp_add_1":"菊池市","jp_add_2":"七城町林原"},"8611364":{"post_code":"8611364","prefecture":"KUMAMOTO KEN","city":"KIKUCHI SHI","town":"SHICHIJOMACHI HETA","perfecture_jp":"熊本県","jp_add_1":"菊池市","jp_add_2":"七城町辺田"},"8611361":{"post_code":"8611361","prefecture":"KUMAMOTO KEN","city":"KIKUCHI SHI","town":"SHICHIJOMACHI MITSUGI","perfecture_jp":"熊本県","jp_add_1":"菊池市","jp_add_2":"七城町水次"},"8611362":{"post_code":"8611362","prefecture":"KUMAMOTO KEN","city":"KIKUCHI SHI","town":"SHICHIJOMACHI YAMASAKI","perfecture_jp":"熊本県","jp_add_1":"菊池市","jp_add_2":"七城町山崎"},"8611442":{"post_code":"8611442","prefecture":"KUMAMOTO KEN","city":"KIKUCHI SHI","town":"SHICHOBUN","perfecture_jp":"熊本県","jp_add_1":"菊池市","jp_add_2":"四町分"},"8611302":{"post_code":"8611302","prefecture":"KUMAMOTO KEN","city":"KIKUCHI SHI","town":"SHIMOKAWAHARU","perfecture_jp":"熊本県","jp_add_1":"菊池市","jp_add_2":"下河原"},"8611306":{"post_code":"8611306","prefecture":"KUMAMOTO KEN","city":"KIKUCHI SHI","town":"DAIRINJI","perfecture_jp":"熊本県","jp_add_1":"菊池市","jp_add_2":"大琳寺"},"8611684":{"post_code":"8611684","prefecture":"KUMAMOTO KEN","city":"KIKUCHI SHI","town":"TOYOMA","perfecture_jp":"熊本県","jp_add_1":"菊池市","jp_add_2":"豊間"},"8611316":{"post_code":"8611316","prefecture":"KUMAMOTO KEN","city":"KIKUCHI SHI","town":"NAGATA","perfecture_jp":"熊本県","jp_add_1":"菊池市","jp_add_2":"長田"},"8611323":{"post_code":"8611323","prefecture":"KUMAMOTO KEN","city":"KIKUCHI SHI","town":"NISHIDERA","perfecture_jp":"熊本県","jp_add_1":"菊池市","jp_add_2":"西寺"},"8611685":{"post_code":"8611685","prefecture":"KUMAMOTO KEN","city":"KIKUCHI SHI","town":"NISHIHAZAMA","perfecture_jp":"熊本県","jp_add_1":"菊池市","jp_add_2":"西迫間"},"8611324":{"post_code":"8611324","prefecture":"KUMAMOTO KEN","city":"KIKUCHI SHI","town":"NOMAGUCHI","perfecture_jp":"熊本県","jp_add_1":"菊池市","jp_add_2":"野間口"},"8611441":{"post_code":"8611441","prefecture":"KUMAMOTO KEN","city":"KIKUCHI SHI","town":"HARU","perfecture_jp":"熊本県","jp_add_1":"菊池市","jp_add_2":"原"},"8611671":{"post_code":"8611671","prefecture":"KUMAMOTO KEN","city":"KIKUCHI SHI","town":"HANJAKU","perfecture_jp":"熊本県","jp_add_1":"菊池市","jp_add_2":"班蛇口"},"8611321":{"post_code":"8611321","prefecture":"KUMAMOTO KEN","city":"KIKUCHI SHI","town":"HIEGATA","perfecture_jp":"熊本県","jp_add_1":"菊池市","jp_add_2":"稗方"},"8611314":{"post_code":"8611314","prefecture":"KUMAMOTO KEN","city":"KIKUCHI SHI","town":"HIROSE","perfecture_jp":"熊本県","jp_add_1":"菊池市","jp_add_2":"広瀬"},"8611304":{"post_code":"8611304","prefecture":"KUMAMOTO KEN","city":"KIKUCHI SHI","town":"FUKAGAWA","perfecture_jp":"熊本県","jp_add_1":"菊池市","jp_add_2":"深川"},"8611309":{"post_code":"8611309","prefecture":"KUMAMOTO KEN","city":"KIKUCHI SHI","town":"FUJITA","perfecture_jp":"熊本県","jp_add_1":"菊池市","jp_add_2":"藤田"},"8611317":{"post_code":"8611317","prefecture":"KUMAMOTO KEN","city":"KIKUCHI SHI","town":"MURADA","perfecture_jp":"熊本県","jp_add_1":"菊池市","jp_add_2":"村田"},"8611312":{"post_code":"8611312","prefecture":"KUMAMOTO KEN","city":"KIKUCHI SHI","town":"MORIKITA","perfecture_jp":"熊本県","jp_add_1":"菊池市","jp_add_2":"森北"},"8611681":{"post_code":"8611681","prefecture":"KUMAMOTO KEN","city":"KIKUCHI SHI","town":"YUKINO","perfecture_jp":"熊本県","jp_add_1":"菊池市","jp_add_2":"雪野"},"8611672":{"post_code":"8611672","prefecture":"KUMAMOTO KEN","city":"KIKUCHI SHI","town":"RYUMON","perfecture_jp":"熊本県","jp_add_1":"菊池市","jp_add_2":"龍門"},"8611331":{"post_code":"8611331","prefecture":"KUMAMOTO KEN","city":"KIKUCHI SHI","town":"WAIFU","perfecture_jp":"熊本県","jp_add_1":"菊池市","jp_add_2":"隈府"},"8611308":{"post_code":"8611308","prefecture":"KUMAMOTO KEN","city":"KIKUCHI SHI","town":"WATARU","perfecture_jp":"熊本県","jp_add_1":"菊池市","jp_add_2":"亘"},"8616102":{"post_code":"8616102","prefecture":"KUMAMOTO KEN","city":"KAMIAMAKUSA SHI","town":"MATSUSHIMAMACHI AITSU","perfecture_jp":"熊本県","jp_add_1":"上天草市","jp_add_2":"松島町合津"},"8616101":{"post_code":"8616101","prefecture":"KUMAMOTO KEN","city":"KAMIAMAKUSA SHI","town":"MATSUSHIMAMACHI AMURA","perfecture_jp":"熊本県","jp_add_1":"上天草市","jp_add_2":"松島町阿村"},"8616103":{"post_code":"8616103","prefecture":"KUMAMOTO KEN","city":"KAMIAMAKUSA SHI","town":"MATSUSHIMAMACHI IMAIZUMI","perfecture_jp":"熊本県","jp_add_1":"上天草市","jp_add_2":"松島町今泉"},"8616104":{"post_code":"8616104","prefecture":"KUMAMOTO KEN","city":"KAMIAMAKUSA SHI","town":"MATSUSHIMAMACHI UCHINOKAWAUCHI","perfecture_jp":"熊本県","jp_add_1":"上天草市","jp_add_2":"松島町内野河内"},"8616105":{"post_code":"8616105","prefecture":"KUMAMOTO KEN","city":"KAMIAMAKUSA SHI","town":"MATSUSHIMAMACHI KYORAGI","perfecture_jp":"熊本県","jp_add_1":"上天草市","jp_add_2":"松島町教良木"},"8614301":{"post_code":"8614301","prefecture":"KUMAMOTO KEN","city":"UKI SHI","town":"TOYONOMACHI ITOISHI","perfecture_jp":"熊本県","jp_add_1":"宇城市","jp_add_2":"豊野町糸石"},"8614303":{"post_code":"8614303","prefecture":"KUMAMOTO KEN","city":"UKI SHI","town":"TOYONOMACHI KAMIGO","perfecture_jp":"熊本県","jp_add_1":"宇城市","jp_add_2":"豊野町上郷"},"8614304":{"post_code":"8614304","prefecture":"KUMAMOTO KEN","city":"UKI SHI","town":"TOYONOMACHI SHIMOGO","perfecture_jp":"熊本県","jp_add_1":"宇城市","jp_add_2":"豊野町下郷"},"8614307":{"post_code":"8614307","prefecture":"KUMAMOTO KEN","city":"UKI SHI","town":"TOYONOMACHI SUBAYASHI","perfecture_jp":"熊本県","jp_add_1":"宇城市","jp_add_2":"豊野町巣林"},"8614302":{"post_code":"8614302","prefecture":"KUMAMOTO KEN","city":"UKI SHI","town":"TOYONOMACHI NAKAMA","perfecture_jp":"熊本県","jp_add_1":"宇城市","jp_add_2":"豊野町中間"},"8614306":{"post_code":"8614306","prefecture":"KUMAMOTO KEN","city":"UKI SHI","town":"TOYONOMACHI YASUMI","perfecture_jp":"熊本県","jp_add_1":"宇城市","jp_add_2":"豊野町安見"},"8614305":{"post_code":"8614305","prefecture":"KUMAMOTO KEN","city":"UKI SHI","town":"TOYONOMACHI YAMASAKI","perfecture_jp":"熊本県","jp_add_1":"宇城市","jp_add_2":"豊野町山崎"},"8617201":{"post_code":"8617201","prefecture":"KUMAMOTO KEN","city":"AMAKUSA SHI","town":"ARIAKEMACHI AKASAKI","perfecture_jp":"熊本県","jp_add_1":"天草市","jp_add_2":"有明町赤崎"},"8617203":{"post_code":"8617203","prefecture":"KUMAMOTO KEN","city":"AMAKUSA SHI","town":"ARIAKEMACHI OURA","perfecture_jp":"熊本県","jp_add_1":"天草市","jp_add_2":"有明町大浦"},"8617314":{"post_code":"8617314","prefecture":"KUMAMOTO KEN","city":"AMAKUSA SHI","town":"ARIAKEMACHI OSHIMAGO","perfecture_jp":"熊本県","jp_add_1":"天草市","jp_add_2":"有明町大島子"},"8617204":{"post_code":"8617204","prefecture":"KUMAMOTO KEN","city":"AMAKUSA SHI","town":"ARIAKEMACHI KUSUBO","perfecture_jp":"熊本県","jp_add_1":"天草市","jp_add_2":"有明町楠甫"},"8617311":{"post_code":"8617311","prefecture":"KUMAMOTO KEN","city":"AMAKUSA SHI","town":"ARIAKEMACHI KOTSURA","perfecture_jp":"熊本県","jp_add_1":"天草市","jp_add_2":"有明町上津浦"},"8617313":{"post_code":"8617313","prefecture":"KUMAMOTO KEN","city":"AMAKUSA SHI","town":"ARIAKEMACHI KOSHIMAGO","perfecture_jp":"熊本県","jp_add_1":"天草市","jp_add_2":"有明町小島子"},"8617312":{"post_code":"8617312","prefecture":"KUMAMOTO KEN","city":"AMAKUSA SHI","town":"ARIAKEMACHI SHIMOTSURA","perfecture_jp":"熊本県","jp_add_1":"天草市","jp_add_2":"有明町下津浦"},"8617202":{"post_code":"8617202","prefecture":"KUMAMOTO KEN","city":"AMAKUSA SHI","town":"ARIAKEMACHI SUJI","perfecture_jp":"熊本県","jp_add_1":"天草市","jp_add_2":"有明町須子"},"8616401":{"post_code":"8616401","prefecture":"KUMAMOTO KEN","city":"AMAKUSA SHI","town":"KURATAKEMACHI URA","perfecture_jp":"熊本県","jp_add_1":"天草市","jp_add_2":"倉岳町浦"},"8616402":{"post_code":"8616402","prefecture":"KUMAMOTO KEN","city":"AMAKUSA SHI","town":"KURATAKEMACHI TANASOKO","perfecture_jp":"熊本県","jp_add_1":"天草市","jp_add_2":"倉岳町棚底"},"8616403":{"post_code":"8616403","prefecture":"KUMAMOTO KEN","city":"AMAKUSA SHI","town":"KURATAKEMACHI MIYADA","perfecture_jp":"熊本県","jp_add_1":"天草市","jp_add_2":"倉岳町宮田"},"8616551":{"post_code":"8616551","prefecture":"KUMAMOTO KEN","city":"AMAKUSA SHI","town":"SHIMORAMACHI","perfecture_jp":"熊本県","jp_add_1":"天草市","jp_add_2":"下浦町"},"8616301":{"post_code":"8616301","prefecture":"KUMAMOTO KEN","city":"AMAKUSA SHI","town":"SUMOTOMACHI UCHIDA","perfecture_jp":"熊本県","jp_add_1":"天草市","jp_add_2":"栖本町打田"},"8616302":{"post_code":"8616302","prefecture":"KUMAMOTO KEN","city":"AMAKUSA SHI","town":"SUMOTOMACHI KAWACHI","perfecture_jp":"熊本県","jp_add_1":"天草市","jp_add_2":"栖本町河内"},"8616303":{"post_code":"8616303","prefecture":"KUMAMOTO KEN","city":"AMAKUSA SHI","town":"SUMOTOMACHI BABA","perfecture_jp":"熊本県","jp_add_1":"天草市","jp_add_2":"栖本町馬場"},"8616304":{"post_code":"8616304","prefecture":"KUMAMOTO KEN","city":"AMAKUSA SHI","town":"SUMOTOMACHI FURUE","perfecture_jp":"熊本県","jp_add_1":"天草市","jp_add_2":"栖本町古江"},"8616305":{"post_code":"8616305","prefecture":"KUMAMOTO KEN","city":"AMAKUSA SHI","town":"SUMOTOMACHI YUFUNEHARA","perfecture_jp":"熊本県","jp_add_1":"天草市","jp_add_2":"栖本町湯船原"},"8611100":{"post_code":"8611100","prefecture":"KUMAMOTO KEN","city":"KOSHI SHI","town":"IKANIKEISAIGANAIBAAI","perfecture_jp":"熊本県","jp_add_1":"合志市","jp_add_2":""},"8611101":{"post_code":"8611101","prefecture":"KUMAMOTO KEN","city":"KOSHI SHI","town":"AIOI","perfecture_jp":"熊本県","jp_add_1":"合志市","jp_add_2":"合生"},"8611111":{"post_code":"8611111","prefecture":"KUMAMOTO KEN","city":"KOSHI SHI","town":"KAMINOSHO","perfecture_jp":"熊本県","jp_add_1":"合志市","jp_add_2":"上庄"},"8611112":{"post_code":"8611112","prefecture":"KUMAMOTO KEN","city":"KOSHI SHI","town":"KIKUDOMI","perfecture_jp":"熊本県","jp_add_1":"合志市","jp_add_2":"幾久富"},"8611113":{"post_code":"8611113","prefecture":"KUMAMOTO KEN","city":"KOSHI SHI","town":"SAKAE","perfecture_jp":"熊本県","jp_add_1":"合志市","jp_add_2":"栄"},"8611102":{"post_code":"8611102","prefecture":"KUMAMOTO KEN","city":"KOSHI SHI","town":"SUYA","perfecture_jp":"熊本県","jp_add_1":"合志市","jp_add_2":"須屋"},"8611114":{"post_code":"8611114","prefecture":"KUMAMOTO KEN","city":"KOSHI SHI","town":"TAKABA","perfecture_jp":"熊本県","jp_add_1":"合志市","jp_add_2":"竹迫"},"8611115":{"post_code":"8611115","prefecture":"KUMAMOTO KEN","city":"KOSHI SHI","town":"TOYOKA","perfecture_jp":"熊本県","jp_add_1":"合志市","jp_add_2":"豊岡"},"8611103":{"post_code":"8611103","prefecture":"KUMAMOTO KEN","city":"KOSHI SHI","town":"NONOSHIMA","perfecture_jp":"熊本県","jp_add_1":"合志市","jp_add_2":"野々島"},"8611116":{"post_code":"8611116","prefecture":"KUMAMOTO KEN","city":"KOSHI SHI","town":"FUKUHARA","perfecture_jp":"熊本県","jp_add_1":"合志市","jp_add_2":"福原"},"8611104":{"post_code":"8611104","prefecture":"KUMAMOTO KEN","city":"KOSHI SHI","town":"MIYOSHI","perfecture_jp":"熊本県","jp_add_1":"合志市","jp_add_2":"御代志"},"8611105":{"post_code":"8611105","prefecture":"KUMAMOTO KEN","city":"KOSHI SHI","town":"WABU","perfecture_jp":"熊本県","jp_add_1":"合志市","jp_add_2":"上生"},"8614700":{"post_code":"8614700","prefecture":"KUMAMOTO KEN","city":"SHIMOMASHIKI GUN MISATO MACHI","town":"IKANIKEISAIGANAIBAAI","perfecture_jp":"熊本県","jp_add_1":"下益城郡美里町","jp_add_2":""},"8614714":{"post_code":"8614714","prefecture":"KUMAMOTO KEN","city":"SHIMOMASHIKI GUN MISATO MACHI","town":"ABE","perfecture_jp":"熊本県","jp_add_1":"下益城郡美里町","jp_add_2":"安部"},"8614716":{"post_code":"8614716","prefecture":"KUMAMOTO KEN","city":"SHIMOMASHIKI GUN MISATO MACHI","town":"ISHINO","perfecture_jp":"熊本県","jp_add_1":"下益城郡美里町","jp_add_2":"石野"},"8614734":{"post_code":"8614734","prefecture":"KUMAMOTO KEN","city":"SHIMOMASHIKI GUN MISATO MACHI","town":"IMA","perfecture_jp":"熊本県","jp_add_1":"下益城郡美里町","jp_add_2":"今"},"8614404":{"post_code":"8614404","prefecture":"KUMAMOTO KEN","city":"SHIMOMASHIKI GUN MISATO MACHI","town":"IWASHITA","perfecture_jp":"熊本県","jp_add_1":"下益城郡美里町","jp_add_2":"岩下"},"8614413":{"post_code":"8614413","prefecture":"KUMAMOTO KEN","city":"SHIMOMASHIKI GUN MISATO MACHI","town":"IWANO","perfecture_jp":"熊本県","jp_add_1":"下益城郡美里町","jp_add_2":"岩野"},"8614703":{"post_code":"8614703","prefecture":"KUMAMOTO KEN","city":"SHIMOMASHIKI GUN MISATO MACHI","town":"UNENO","perfecture_jp":"熊本県","jp_add_1":"下益城郡美里町","jp_add_2":"畝野"},"8614701":{"post_code":"8614701","prefecture":"KUMAMOTO KEN","city":"SHIMOMASHIKI GUN MISATO MACHI","town":"OISO","perfecture_jp":"熊本県","jp_add_1":"下益城郡美里町","jp_add_2":"大井早"},"8614726":{"post_code":"8614726","prefecture":"KUMAMOTO KEN","city":"SHIMOMASHIKI GUN MISATO MACHI","town":"OKUBO","perfecture_jp":"熊本県","jp_add_1":"下益城郡美里町","jp_add_2":"大窪"},"8614401":{"post_code":"8614401","prefecture":"KUMAMOTO KEN","city":"SHIMOMASHIKI GUN MISATO MACHI","town":"OSOZU","perfecture_jp":"熊本県","jp_add_1":"下益城郡美里町","jp_add_2":"大沢水"},"8614712":{"post_code":"8614712","prefecture":"KUMAMOTO KEN","city":"SHIMOMASHIKI GUN MISATO MACHI","town":"KASHIWAGAWA","perfecture_jp":"熊本県","jp_add_1":"下益城郡美里町","jp_add_2":"柏川"},"8614402":{"post_code":"8614402","prefecture":"KUMAMOTO KEN","city":"SHIMOMASHIKI GUN MISATO MACHI","town":"KATASHIDA","perfecture_jp":"熊本県","jp_add_1":"下益城郡美里町","jp_add_2":"堅志田"},"8614405":{"post_code":"8614405","prefecture":"KUMAMOTO KEN","city":"SHIMOMASHIKI GUN MISATO MACHI","town":"KAYANO","perfecture_jp":"熊本県","jp_add_1":"下益城郡美里町","jp_add_2":"萱野"},"8614707":{"post_code":"8614707","prefecture":"KUMAMOTO KEN","city":"SHIMOMASHIKI GUN MISATO MACHI","town":"KAWAGOSHI","perfecture_jp":"熊本県","jp_add_1":"下益城郡美里町","jp_add_2":"川越"},"8614425":{"post_code":"8614425","prefecture":"KUMAMOTO KEN","city":"SHIMOMASHIKI GUN MISATO MACHI","town":"KISOGAWACHI","perfecture_jp":"熊本県","jp_add_1":"下益城郡美里町","jp_add_2":"木早川内"},"8614715":{"post_code":"8614715","prefecture":"KUMAMOTO KEN","city":"SHIMOMASHIKI GUN MISATO MACHI","town":"KIYOMIZU","perfecture_jp":"熊本県","jp_add_1":"下益城郡美里町","jp_add_2":"清水"},"8614731":{"post_code":"8614731","prefecture":"KUMAMOTO KEN","city":"SHIMOMASHIKI GUN MISATO MACHI","town":"KURIZAKI","perfecture_jp":"熊本県","jp_add_1":"下益城郡美里町","jp_add_2":"栗崎"},"8614424":{"post_code":"8614424","prefecture":"KUMAMOTO KEN","city":"SHIMOMASHIKI GUN MISATO MACHI","town":"KOICHINO","perfecture_jp":"熊本県","jp_add_1":"下益城郡美里町","jp_add_2":"小市野"},"8614706":{"post_code":"8614706","prefecture":"KUMAMOTO KEN","city":"SHIMOMASHIKI GUN MISATO MACHI","town":"KOSABIRA","perfecture_jp":"熊本県","jp_add_1":"下益城郡美里町","jp_add_2":"甲佐平"},"8614737":{"post_code":"8614737","prefecture":"KUMAMOTO KEN","city":"SHIMOMASHIKI GUN MISATO MACHI","town":"KOGA","perfecture_jp":"熊本県","jp_add_1":"下益城郡美里町","jp_add_2":"古閑"},"8614411":{"post_code":"8614411","prefecture":"KUMAMOTO KEN","city":"SHIMOMASHIKI GUN MISATO MACHI","town":"KOMUSHIRO","perfecture_jp":"熊本県","jp_add_1":"下益城郡美里町","jp_add_2":"小筵"},"8614723":{"post_code":"8614723","prefecture":"KUMAMOTO KEN","city":"SHIMOMASHIKI GUN MISATO MACHI","town":"SAKAI","perfecture_jp":"熊本県","jp_add_1":"下益城郡美里町","jp_add_2":"境"},"8614725":{"post_code":"8614725","prefecture":"KUMAMOTO KEN","city":"SHIMOMASHIKI GUN MISATO MACHI","town":"SAKANUKI","perfecture_jp":"熊本県","jp_add_1":"下益城郡美里町","jp_add_2":"坂貫"},"8614415":{"post_code":"8614415","prefecture":"KUMAMOTO KEN","city":"SHIMOMASHIKI GUN MISATO MACHI","town":"SAKAMOTO","perfecture_jp":"熊本県","jp_add_1":"下益城郡美里町","jp_add_2":"坂本"},"8614412":{"post_code":"8614412","prefecture":"KUMAMOTO KEN","city":"SHIMOMASHIKI GUN MISATO MACHI","town":"SAMATA","perfecture_jp":"熊本県","jp_add_1":"下益城郡美里町","jp_add_2":"佐俣"},"8614735":{"post_code":"8614735","prefecture":"KUMAMOTO KEN","city":"SHIMOMASHIKI GUN MISATO MACHI","town":"SANGA","perfecture_jp":"熊本県","jp_add_1":"下益城郡美里町","jp_add_2":"三加"},"8614426":{"post_code":"8614426","prefecture":"KUMAMOTO KEN","city":"SHIMOMASHIKI GUN MISATO MACHI","town":"SHIRAISHINO","perfecture_jp":"熊本県","jp_add_1":"下益城郡美里町","jp_add_2":"白石野"},"8614721":{"post_code":"8614721","prefecture":"KUMAMOTO KEN","city":"SHIMOMASHIKI GUN MISATO MACHI","town":"TSUCHIBAMI","perfecture_jp":"熊本県","jp_add_1":"下益城郡美里町","jp_add_2":"土喰"},"8614414":{"post_code":"8614414","prefecture":"KUMAMOTO KEN","city":"SHIMOMASHIKI GUN MISATO MACHI","town":"TSUBAKI","perfecture_jp":"熊本県","jp_add_1":"下益城郡美里町","jp_add_2":"椿"},"8614427":{"post_code":"8614427","prefecture":"KUMAMOTO KEN","city":"SHIMOMASHIKI GUN MISATO MACHI","town":"TSURU","perfecture_jp":"熊本県","jp_add_1":"下益城郡美里町","jp_add_2":"津留"},"8614702":{"post_code":"8614702","prefecture":"KUMAMOTO KEN","city":"SHIMOMASHIKI GUN MISATO MACHI","town":"TONO","perfecture_jp":"熊本県","jp_add_1":"下益城郡美里町","jp_add_2":"遠野"},"8614705":{"post_code":"8614705","prefecture":"KUMAMOTO KEN","city":"SHIMOMASHIKI GUN MISATO MACHI","town":"TOYOTOMI","perfecture_jp":"熊本県","jp_add_1":"下益城郡美里町","jp_add_2":"豊富"},"8614417":{"post_code":"8614417","prefecture":"KUMAMOTO KEN","city":"SHIMOMASHIKI GUN MISATO MACHI","town":"NAKA","perfecture_jp":"熊本県","jp_add_1":"下益城郡美里町","jp_add_2":"中"},"8614422":{"post_code":"8614422","prefecture":"KUMAMOTO KEN","city":"SHIMOMASHIKI GUN MISATO MACHI","town":"NAGAONO","perfecture_jp":"熊本県","jp_add_1":"下益城郡美里町","jp_add_2":"長尾野"},"8614403":{"post_code":"8614403","prefecture":"KUMAMOTO KEN","city":"SHIMOMASHIKI GUN MISATO MACHI","town":"NAKAGORI","perfecture_jp":"熊本県","jp_add_1":"下益城郡美里町","jp_add_2":"中郡"},"8614407":{"post_code":"8614407","prefecture":"KUMAMOTO KEN","city":"SHIMOMASHIKI GUN MISATO MACHI","town":"NAKASHOJI","perfecture_jp":"熊本県","jp_add_1":"下益城郡美里町","jp_add_2":"中小路"},"8614722":{"post_code":"8614722","prefecture":"KUMAMOTO KEN","city":"SHIMOMASHIKI GUN MISATO MACHI","town":"NAGATOMI","perfecture_jp":"熊本県","jp_add_1":"下益城郡美里町","jp_add_2":"永富"},"8614736":{"post_code":"8614736","prefecture":"KUMAMOTO KEN","city":"SHIMOMASHIKI GUN MISATO MACHI","town":"NAGOSHIDANI","perfecture_jp":"熊本県","jp_add_1":"下益城郡美里町","jp_add_2":"名越谷"},"8614733":{"post_code":"8614733","prefecture":"KUMAMOTO KEN","city":"SHIMOMASHIKI GUN MISATO MACHI","town":"NIWADA","perfecture_jp":"熊本県","jp_add_1":"下益城郡美里町","jp_add_2":"二和田"},"8614406":{"post_code":"8614406","prefecture":"KUMAMOTO KEN","city":"SHIMOMASHIKI GUN MISATO MACHI","town":"BABA","perfecture_jp":"熊本県","jp_add_1":"下益城郡美里町","jp_add_2":"馬場"},"8614713":{"post_code":"8614713","prefecture":"KUMAMOTO KEN","city":"SHIMOMASHIKI GUN MISATO MACHI","town":"HAYAKUSU","perfecture_jp":"熊本県","jp_add_1":"下益城郡美里町","jp_add_2":"早楠"},"8614416":{"post_code":"8614416","prefecture":"KUMAMOTO KEN","city":"SHIMOMASHIKI GUN MISATO MACHI","town":"HARAIGAWA","perfecture_jp":"熊本県","jp_add_1":"下益城郡美里町","jp_add_2":"払川"},"8614421":{"post_code":"8614421","prefecture":"KUMAMOTO KEN","city":"SHIMOMASHIKI GUN MISATO MACHI","town":"HARADA","perfecture_jp":"熊本県","jp_add_1":"下益城郡美里町","jp_add_2":"原田"},"8614727":{"post_code":"8614727","prefecture":"KUMAMOTO KEN","city":"SHIMOMASHIKI GUN MISATO MACHI","town":"HARAMACHI","perfecture_jp":"熊本県","jp_add_1":"下益城郡美里町","jp_add_2":"原町"},"8614711":{"post_code":"8614711","prefecture":"KUMAMOTO KEN","city":"SHIMOMASHIKI GUN MISATO MACHI","town":"HORAOKA","perfecture_jp":"熊本県","jp_add_1":"下益城郡美里町","jp_add_2":"洞岳"},"8614423":{"post_code":"8614423","prefecture":"KUMAMOTO KEN","city":"SHIMOMASHIKI GUN MISATO MACHI","town":"MATSUNOHARA","perfecture_jp":"熊本県","jp_add_1":"下益城郡美里町","jp_add_2":"松野原"},"8614732":{"post_code":"8614732","prefecture":"KUMAMOTO KEN","city":"SHIMOMASHIKI GUN MISATO MACHI","town":"MITSUWA","perfecture_jp":"熊本県","jp_add_1":"下益城郡美里町","jp_add_2":"三和"},"8614704":{"post_code":"8614704","prefecture":"KUMAMOTO KEN","city":"SHIMOMASHIKI GUN MISATO MACHI","town":"YUI","perfecture_jp":"熊本県","jp_add_1":"下益城郡美里町","jp_add_2":"涌井"},"8610800":{"post_code":"8610800","prefecture":"KUMAMOTO KEN","city":"TAMANA GUN NANKAN MACHI","town":"IKANIKEISAIGANAIBAAI","perfecture_jp":"熊本県","jp_add_1":"玉名郡南関町","jp_add_2":""},"8610812":{"post_code":"8610812","prefecture":"KUMAMOTO KEN","city":"TAMANA GUN NANKAN MACHI","town":"AINOTANI","perfecture_jp":"熊本県","jp_add_1":"玉名郡南関町","jp_add_2":"相谷"},"8610832":{"post_code":"8610832","prefecture":"KUMAMOTO KEN","city":"TAMANA GUN NANKAN MACHI","town":"IMA","perfecture_jp":"熊本県","jp_add_1":"玉名郡南関町","jp_add_2":"今"},"8610822":{"post_code":"8610822","prefecture":"KUMAMOTO KEN","city":"TAMANA GUN NANKAN MACHI","town":"KAMISAKASHITA","perfecture_jp":"熊本県","jp_add_1":"玉名郡南関町","jp_add_2":"上坂下"},"8610837":{"post_code":"8610837","prefecture":"KUMAMOTO KEN","city":"TAMANA GUN NANKAN MACHI","town":"KAMINAGATA","perfecture_jp":"熊本県","jp_add_1":"玉名郡南関町","jp_add_2":"上長田"},"8610836":{"post_code":"8610836","prefecture":"KUMAMOTO KEN","city":"TAMANA GUN NANKAN MACHI","town":"KUSHIGE","perfecture_jp":"熊本県","jp_add_1":"玉名郡南関町","jp_add_2":"久重"},"8610814":{"post_code":"8610814","prefecture":"KUMAMOTO KEN","city":"TAMANA GUN NANKAN MACHI","town":"KOEI","perfecture_jp":"熊本県","jp_add_1":"玉名郡南関町","jp_add_2":"肥猪"},"8610813":{"post_code":"8610813","prefecture":"KUMAMOTO KEN","city":"TAMANA GUN NANKAN MACHI","town":"KOEIMACHI","perfecture_jp":"熊本県","jp_add_1":"玉名郡南関町","jp_add_2":"肥猪町"},"8610811":{"post_code":"8610811","prefecture":"KUMAMOTO KEN","city":"TAMANA GUN NANKAN MACHI","town":"KOBARU","perfecture_jp":"熊本県","jp_add_1":"玉名郡南関町","jp_add_2":"小原"},"8610821":{"post_code":"8610821","prefecture":"KUMAMOTO KEN","city":"TAMANA GUN NANKAN MACHI","town":"SHIMOSAKASHITA","perfecture_jp":"熊本県","jp_add_1":"玉名郡南関町","jp_add_2":"下坂下"},"8610805":{"post_code":"8610805","prefecture":"KUMAMOTO KEN","city":"TAMANA GUN NANKAN MACHI","town":"SEKISHIMO","perfecture_jp":"熊本県","jp_add_1":"玉名郡南関町","jp_add_2":"関下"},"8610801":{"post_code":"8610801","prefecture":"KUMAMOTO KEN","city":"TAMANA GUN NANKAN MACHI","town":"SEKIHOKAME","perfecture_jp":"熊本県","jp_add_1":"玉名郡南関町","jp_add_2":"関外目"},"8610803":{"post_code":"8610803","prefecture":"KUMAMOTO KEN","city":"TAMANA GUN NANKAN MACHI","town":"SEKIMACHI","perfecture_jp":"熊本県","jp_add_1":"玉名郡南関町","jp_add_2":"関町"},"8610804":{"post_code":"8610804","prefecture":"KUMAMOTO KEN","city":"TAMANA GUN NANKAN MACHI","town":"SEKIMURA","perfecture_jp":"熊本県","jp_add_1":"玉名郡南関町","jp_add_2":"関村"},"8610802":{"post_code":"8610802","prefecture":"KUMAMOTO KEN","city":"TAMANA GUN NANKAN MACHI","town":"SEKIHIGASHI","perfecture_jp":"熊本県","jp_add_1":"玉名郡南関町","jp_add_2":"関東"},"8610833":{"post_code":"8610833","prefecture":"KUMAMOTO KEN","city":"TAMANA GUN NANKAN MACHI","town":"TAKAKUNO","perfecture_jp":"熊本県","jp_add_1":"玉名郡南関町","jp_add_2":"高久野"},"8610815":{"post_code":"8610815","prefecture":"KUMAMOTO KEN","city":"TAMANA GUN NANKAN MACHI","town":"TOYONAGA","perfecture_jp":"熊本県","jp_add_1":"玉名郡南関町","jp_add_2":"豊永"},"8610835":{"post_code":"8610835","prefecture":"KUMAMOTO KEN","city":"TAMANA GUN NANKAN MACHI","town":"NAGAYAMA","perfecture_jp":"熊本県","jp_add_1":"玉名郡南関町","jp_add_2":"長山"},"8610831":{"post_code":"8610831","prefecture":"KUMAMOTO KEN","city":"TAMANA GUN NANKAN MACHI","town":"HOSONAGA","perfecture_jp":"熊本県","jp_add_1":"玉名郡南関町","jp_add_2":"細永"},"8610834":{"post_code":"8610834","prefecture":"KUMAMOTO KEN","city":"TAMANA GUN NANKAN MACHI","town":"MIYAO","perfecture_jp":"熊本県","jp_add_1":"玉名郡南関町","jp_add_2":"宮尾"},"8610823":{"post_code":"8610823","prefecture":"KUMAMOTO KEN","city":"TAMANA GUN NANKAN MACHI","town":"YOTSUHARA","perfecture_jp":"熊本県","jp_add_1":"玉名郡南関町","jp_add_2":"四ツ原"},"8610913":{"post_code":"8610913","prefecture":"KUMAMOTO KEN","city":"TAMANA GUN NAGOMI MACHI","town":"ITAKUSU","perfecture_jp":"熊本県","jp_add_1":"玉名郡和水町","jp_add_2":"板楠"},"8610922":{"post_code":"8610922","prefecture":"KUMAMOTO KEN","city":"TAMANA GUN NAGOMI MACHI","town":"IWA","perfecture_jp":"熊本県","jp_add_1":"玉名郡和水町","jp_add_2":"岩"},"8610924":{"post_code":"8610924","prefecture":"KUMAMOTO KEN","city":"TAMANA GUN NAGOMI MACHI","town":"OTAGURO","perfecture_jp":"熊本県","jp_add_1":"玉名郡和水町","jp_add_2":"大田黒"},"8610914":{"post_code":"8610914","prefecture":"KUMAMOTO KEN","city":"TAMANA GUN NAGOMI MACHI","town":"KAMIITAKUSU","perfecture_jp":"熊本県","jp_add_1":"玉名郡和水町","jp_add_2":"上板楠"},"8610911":{"post_code":"8610911","prefecture":"KUMAMOTO KEN","city":"TAMANA GUN NAGOMI MACHI","town":"KAMIJITCHO","perfecture_jp":"熊本県","jp_add_1":"玉名郡和水町","jp_add_2":"上十町"},"8610901":{"post_code":"8610901","prefecture":"KUMAMOTO KEN","city":"TAMANA GUN NAGOMI MACHI","town":"KAMIWANI","perfecture_jp":"熊本県","jp_add_1":"玉名郡和水町","jp_add_2":"上和仁"},"8610921":{"post_code":"8610921","prefecture":"KUMAMOTO KEN","city":"TAMANA GUN NAGOMI MACHI","town":"TSUDA","perfecture_jp":"熊本県","jp_add_1":"玉名郡和水町","jp_add_2":"津田"},"8610912":{"post_code":"8610912","prefecture":"KUMAMOTO KEN","city":"TAMANA GUN NAGOMI MACHI","town":"NAKAJITCHO","perfecture_jp":"熊本県","jp_add_1":"玉名郡和水町","jp_add_2":"中十町"},"8610905":{"post_code":"8610905","prefecture":"KUMAMOTO KEN","city":"TAMANA GUN NAGOMI MACHI","town":"NAKABAYASHI","perfecture_jp":"熊本県","jp_add_1":"玉名郡和水町","jp_add_2":"中林"},"8610902":{"post_code":"8610902","prefecture":"KUMAMOTO KEN","city":"TAMANA GUN NAGOMI MACHI","town":"NAKAWANI","perfecture_jp":"熊本県","jp_add_1":"玉名郡和水町","jp_add_2":"中和仁"},"8610906":{"post_code":"8610906","prefecture":"KUMAMOTO KEN","city":"TAMANA GUN NAGOMI MACHI","town":"NISHIYOSHIJI","perfecture_jp":"熊本県","jp_add_1":"玉名郡和水町","jp_add_2":"西吉地"},"8610925":{"post_code":"8610925","prefecture":"KUMAMOTO KEN","city":"TAMANA GUN NAGOMI MACHI","town":"NODA","perfecture_jp":"熊本県","jp_add_1":"玉名郡和水町","jp_add_2":"野田"},"8610904":{"post_code":"8610904","prefecture":"KUMAMOTO KEN","city":"TAMANA GUN NAGOMI MACHI","town":"HIGASHIYOSHIJI","perfecture_jp":"熊本県","jp_add_1":"玉名郡和水町","jp_add_2":"東吉地"},"8610923":{"post_code":"8610923","prefecture":"KUMAMOTO KEN","city":"TAMANA GUN NAGOMI MACHI","town":"HIRANO","perfecture_jp":"熊本県","jp_add_1":"玉名郡和水町","jp_add_2":"平野"},"8610915":{"post_code":"8610915","prefecture":"KUMAMOTO KEN","city":"TAMANA GUN NAGOMI MACHI","town":"YAMAJITCHO","perfecture_jp":"熊本県","jp_add_1":"玉名郡和水町","jp_add_2":"山十町"},"8610903":{"post_code":"8610903","prefecture":"KUMAMOTO KEN","city":"TAMANA GUN NAGOMI MACHI","town":"WANI","perfecture_jp":"熊本県","jp_add_1":"玉名郡和水町","jp_add_2":"和仁"},"8612400":{"post_code":"8612400","prefecture":"KUMAMOTO KEN","city":"ASO GUN NISHIHARA MURA","town":"IKANIKEISAIGANAIBAAI","perfecture_jp":"熊本県","jp_add_1":"阿蘇郡西原村","jp_add_2":""},"8612404":{"post_code":"8612404","prefecture":"KUMAMOTO KEN","city":"ASO GUN NISHIHARA MURA","town":"KAWAHARA","perfecture_jp":"熊本県","jp_add_1":"阿蘇郡西原村","jp_add_2":"河原"},"8612402":{"post_code":"8612402","prefecture":"KUMAMOTO KEN","city":"ASO GUN NISHIHARA MURA","town":"KOMORI","perfecture_jp":"熊本県","jp_add_1":"阿蘇郡西原村","jp_add_2":"小森"},"8612401":{"post_code":"8612401","prefecture":"KUMAMOTO KEN","city":"ASO GUN NISHIHARA MURA","town":"TORIKO","perfecture_jp":"熊本県","jp_add_1":"阿蘇郡西原村","jp_add_2":"鳥子"},"8612403":{"post_code":"8612403","prefecture":"KUMAMOTO KEN","city":"ASO GUN NISHIHARA MURA","town":"FUTA","perfecture_jp":"熊本県","jp_add_1":"阿蘇郡西原村","jp_add_2":"布田"},"8612405":{"post_code":"8612405","prefecture":"KUMAMOTO KEN","city":"ASO GUN NISHIHARA MURA","town":"MIYAYAMA","perfecture_jp":"熊本県","jp_add_1":"阿蘇郡西原村","jp_add_2":"宮山"},"8613200":{"post_code":"8613200","prefecture":"KUMAMOTO KEN","city":"KAMIMASHIKI GUN MIFUNE MACHI","town":"IKANIKEISAIGANAIBAAI","perfecture_jp":"熊本県","jp_add_1":"上益城郡御船町","jp_add_2":""},"8613322":{"post_code":"8613322","prefecture":"KUMAMOTO KEN","city":"KAMIMASHIKI GUN MIFUNE MACHI","town":"UENO","perfecture_jp":"熊本県","jp_add_1":"上益城郡御船町","jp_add_2":"上野"},"8613202":{"post_code":"8613202","prefecture":"KUMAMOTO KEN","city":"KAMIMASHIKI GUN MIFUNE MACHI","town":"OZAKA","perfecture_jp":"熊本県","jp_add_1":"上益城郡御船町","jp_add_2":"小坂"},"8613204":{"post_code":"8613204","prefecture":"KUMAMOTO KEN","city":"KAMIMASHIKI GUN MIFUNE MACHI","town":"KINOKURA","perfecture_jp":"熊本県","jp_add_1":"上益城郡御船町","jp_add_2":"木倉"},"8613201":{"post_code":"8613201","prefecture":"KUMAMOTO KEN","city":"KAMIMASHIKI GUN MIFUNE MACHI","town":"JIN","perfecture_jp":"熊本県","jp_add_1":"上益城郡御船町","jp_add_2":"陣"},"8613203":{"post_code":"8613203","prefecture":"KUMAMOTO KEN","city":"KAMIMASHIKI GUN MIFUNE MACHI","town":"TAKAKI","perfecture_jp":"熊本県","jp_add_1":"上益城郡御船町","jp_add_2":"高木"},"8613208":{"post_code":"8613208","prefecture":"KUMAMOTO KEN","city":"KAMIMASHIKI GUN MIFUNE MACHI","town":"TAKIO","perfecture_jp":"熊本県","jp_add_1":"上益城郡御船町","jp_add_2":"滝尾"},"8613205":{"post_code":"8613205","prefecture":"KUMAMOTO KEN","city":"KAMIMASHIKI GUN MIFUNE MACHI","town":"TAKIGAWA","perfecture_jp":"熊本県","jp_add_1":"上益城郡御船町","jp_add_2":"滝川"},"8613323":{"post_code":"8613323","prefecture":"KUMAMOTO KEN","city":"KAMIMASHIKI GUN MIFUNE MACHI","town":"TASHIRO","perfecture_jp":"熊本県","jp_add_1":"上益城郡御船町","jp_add_2":"田代"},"8613131":{"post_code":"8613131","prefecture":"KUMAMOTO KEN","city":"KAMIMASHIKI GUN MIFUNE MACHI","town":"TOYOAKI","perfecture_jp":"熊本県","jp_add_1":"上益城郡御船町","jp_add_2":"豊秋"},"8613421":{"post_code":"8613421","prefecture":"KUMAMOTO KEN","city":"KAMIMASHIKI GUN MIFUNE MACHI","town":"NANATAKI(MATSUNOHAE)","perfecture_jp":"熊本県","jp_add_1":"上益城郡御船町","jp_add_2":"七滝"},"8613321":{"post_code":"8613321","prefecture":"KUMAMOTO KEN","city":"KAMIMASHIKI GUN MIFUNE MACHI","town":"NANATAKI(SONOTA)","perfecture_jp":"熊本県","jp_add_1":"上益城郡御船町","jp_add_2":"七滝"},"8613206":{"post_code":"8613206","prefecture":"KUMAMOTO KEN","city":"KAMIMASHIKI GUN MIFUNE MACHI","town":"HETAMI","perfecture_jp":"熊本県","jp_add_1":"上益城郡御船町","jp_add_2":"辺田見"},"8613211":{"post_code":"8613211","prefecture":"KUMAMOTO KEN","city":"KAMIMASHIKI GUN MIFUNE MACHI","town":"MIZUKOSHI","perfecture_jp":"熊本県","jp_add_1":"上益城郡御船町","jp_add_2":"水越"},"8613207":{"post_code":"8613207","prefecture":"KUMAMOTO KEN","city":"KAMIMASHIKI GUN MIFUNE MACHI","town":"MIFUNE","perfecture_jp":"熊本県","jp_add_1":"上益城郡御船町","jp_add_2":"御船"},"8613100":{"post_code":"8613100","prefecture":"KUMAMOTO KEN","city":"KAMIMASHIKI GUN KASHIMA MACHI","town":"IKANIKEISAIGANAIBAAI","perfecture_jp":"熊本県","jp_add_1":"上益城郡嘉島町","jp_add_2":""},"8613103":{"post_code":"8613103","prefecture":"KUMAMOTO KEN","city":"KAMIMASHIKI GUN KASHIMA MACHI","town":"ITERA","perfecture_jp":"熊本県","jp_add_1":"上益城郡嘉島町","jp_add_2":"井寺"},"8613109":{"post_code":"8613109","prefecture":"KUMAMOTO KEN","city":"KAMIMASHIKI GUN KASHIMA MACHI","town":"INUBUCHI","perfecture_jp":"熊本県","jp_add_1":"上益城郡嘉島町","jp_add_2":"犬渕"},"8613106":{"post_code":"8613106","prefecture":"KUMAMOTO KEN","city":"KAMIMASHIKI GUN KASHIMA MACHI","town":"UEJIMA","perfecture_jp":"熊本県","jp_add_1":"上益城郡嘉島町","jp_add_2":"上島"},"8613107":{"post_code":"8613107","prefecture":"KUMAMOTO KEN","city":"KAMIMASHIKI GUN KASHIMA MACHI","town":"KAMINAKAMA","perfecture_jp":"熊本県","jp_add_1":"上益城郡嘉島町","jp_add_2":"上仲間"},"8613105":{"post_code":"8613105","prefecture":"KUMAMOTO KEN","city":"KAMIMASHIKI GUN KASHIMA MACHI","town":"KAMIROKKA","perfecture_jp":"熊本県","jp_add_1":"上益城郡嘉島町","jp_add_2":"上六嘉"},"8613104":{"post_code":"8613104","prefecture":"KUMAMOTO KEN","city":"KAMIMASHIKI GUN KASHIMA MACHI","town":"KITAAMAGI","perfecture_jp":"熊本県","jp_add_1":"上益城郡嘉島町","jp_add_2":"北甘木"},"8613108":{"post_code":"8613108","prefecture":"KUMAMOTO KEN","city":"KAMIMASHIKI GUN KASHIMA MACHI","town":"SHIMONAKAMA","perfecture_jp":"熊本県","jp_add_1":"上益城郡嘉島町","jp_add_2":"下仲間"},"8613102":{"post_code":"8613102","prefecture":"KUMAMOTO KEN","city":"KAMIMASHIKI GUN KASHIMA MACHI","town":"SHIMOROKKA","perfecture_jp":"熊本県","jp_add_1":"上益城郡嘉島町","jp_add_2":"下六嘉"},"8613101":{"post_code":"8613101","prefecture":"KUMAMOTO KEN","city":"KAMIMASHIKI GUN KASHIMA MACHI","town":"NAMAZU","perfecture_jp":"熊本県","jp_add_1":"上益城郡嘉島町","jp_add_2":"鯰"},"8612200":{"post_code":"8612200","prefecture":"KUMAMOTO KEN","city":"KAMIMASHIKI GUN MASHIKI MACHI","town":"IKANIKEISAIGANAIBAAI","perfecture_jp":"熊本県","jp_add_1":"上益城郡益城町","jp_add_2":""},"8612221":{"post_code":"8612221","prefecture":"KUMAMOTO KEN","city":"KAMIMASHIKI GUN MASHIKI MACHI","town":"AKAI","perfecture_jp":"熊本県","jp_add_1":"上益城郡益城町","jp_add_2":"赤井"},"8612223":{"post_code":"8612223","prefecture":"KUMAMOTO KEN","city":"KAMIMASHIKI GUN MASHIKI MACHI","town":"OIKE","perfecture_jp":"熊本県","jp_add_1":"上益城郡益城町","jp_add_2":"小池"},"8612204":{"post_code":"8612204","prefecture":"KUMAMOTO KEN","city":"KAMIMASHIKI GUN MASHIKI MACHI","town":"OYATSU","perfecture_jp":"熊本県","jp_add_1":"上益城郡益城町","jp_add_2":"小谷"},"8612203":{"post_code":"8612203","prefecture":"KUMAMOTO KEN","city":"KAMIMASHIKI GUN MASHIKI MACHI","town":"KAMIJIN","perfecture_jp":"熊本県","jp_add_1":"上益城郡益城町","jp_add_2":"上陳"},"8612242":{"post_code":"8612242","prefecture":"KUMAMOTO KEN","city":"KAMIMASHIKI GUN MASHIKI MACHI","town":"KIYAMA","perfecture_jp":"熊本県","jp_add_1":"上益城郡益城町","jp_add_2":"木山"},"8612234":{"post_code":"8612234","prefecture":"KUMAMOTO KEN","city":"KAMIMASHIKI GUN MASHIKI MACHI","town":"KOGA","perfecture_jp":"熊本県","jp_add_1":"上益城郡益城町","jp_add_2":"古閑"},"8612201":{"post_code":"8612201","prefecture":"KUMAMOTO KEN","city":"KAMIMASHIKI GUN MASHIKI MACHI","town":"JICHU","perfecture_jp":"熊本県","jp_add_1":"上益城郡益城町","jp_add_2":"寺中"},"8612224":{"post_code":"8612224","prefecture":"KUMAMOTO KEN","city":"KAMIMASHIKI GUN MASHIKI MACHI","town":"SHIMADA","perfecture_jp":"熊本県","jp_add_1":"上益城郡益城町","jp_add_2":"島田"},"8612206":{"post_code":"8612206","prefecture":"KUMAMOTO KEN","city":"KAMIMASHIKI GUN MASHIKI MACHI","town":"SHIMOJIN","perfecture_jp":"熊本県","jp_add_1":"上益城郡益城町","jp_add_2":"下陳"},"8612205":{"post_code":"8612205","prefecture":"KUMAMOTO KEN","city":"KAMIMASHIKI GUN MASHIKI MACHI","town":"SUGIDO","perfecture_jp":"熊本県","jp_add_1":"上益城郡益城町","jp_add_2":"杉堂"},"8612233":{"post_code":"8612233","prefecture":"KUMAMOTO KEN","city":"KAMIMASHIKI GUN MASHIKI MACHI","town":"SORYO","perfecture_jp":"熊本県","jp_add_1":"上益城郡益城町","jp_add_2":"惣領"},"8612202":{"post_code":"8612202","prefecture":"KUMAMOTO KEN","city":"KAMIMASHIKI GUN MASHIKI MACHI","town":"TABARU","perfecture_jp":"熊本県","jp_add_1":"上益城郡益城町","jp_add_2":"田原"},"8612243":{"post_code":"8612243","prefecture":"KUMAMOTO KEN","city":"KAMIMASHIKI GUN MASHIKI MACHI","town":"TSUJINOSHIRO","perfecture_jp":"熊本県","jp_add_1":"上益城郡益城町","jp_add_2":"辻の城"},"8612244":{"post_code":"8612244","prefecture":"KUMAMOTO KEN","city":"KAMIMASHIKI GUN MASHIKI MACHI","town":"TERASAKO","perfecture_jp":"熊本県","jp_add_1":"上益城郡益城町","jp_add_2":"寺迫"},"8612222":{"post_code":"8612222","prefecture":"KUMAMOTO KEN","city":"KAMIMASHIKI GUN MASHIKI MACHI","town":"TOGAWA","perfecture_jp":"熊本県","jp_add_1":"上益城郡益城町","jp_add_2":"砥川"},"8612212":{"post_code":"8612212","prefecture":"KUMAMOTO KEN","city":"KAMIMASHIKI GUN MASHIKI MACHI","town":"HIRATA","perfecture_jp":"熊本県","jp_add_1":"上益城郡益城町","jp_add_2":"平田"},"8612236":{"post_code":"8612236","prefecture":"KUMAMOTO KEN","city":"KAMIMASHIKI GUN MASHIKI MACHI","town":"HIROSAKI","perfecture_jp":"熊本県","jp_add_1":"上益城郡益城町","jp_add_2":"広崎"},"8612235":{"post_code":"8612235","prefecture":"KUMAMOTO KEN","city":"KAMIMASHIKI GUN MASHIKI MACHI","town":"FUKUDOMI","perfecture_jp":"熊本県","jp_add_1":"上益城郡益城町","jp_add_2":"福富"},"8612211":{"post_code":"8612211","prefecture":"KUMAMOTO KEN","city":"KAMIMASHIKI GUN MASHIKI MACHI","town":"FUKUHARA","perfecture_jp":"熊本県","jp_add_1":"上益城郡益城町","jp_add_2":"福原"},"8612232":{"post_code":"8612232","prefecture":"KUMAMOTO KEN","city":"KAMIMASHIKI GUN MASHIKI MACHI","town":"MAMIZU","perfecture_jp":"熊本県","jp_add_1":"上益城郡益城町","jp_add_2":"馬水"},"8612241":{"post_code":"8612241","prefecture":"KUMAMOTO KEN","city":"KAMIMASHIKI GUN MASHIKI MACHI","town":"MIYAZONO","perfecture_jp":"熊本県","jp_add_1":"上益城郡益城町","jp_add_2":"宮園"},"8612231":{"post_code":"8612231","prefecture":"KUMAMOTO KEN","city":"KAMIMASHIKI GUN MASHIKI MACHI","town":"YASUNAGA","perfecture_jp":"熊本県","jp_add_1":"上益城郡益城町","jp_add_2":"安永"},"8614600":{"post_code":"8614600","prefecture":"KUMAMOTO KEN","city":"KAMIMASHIKI GUN KOSA MACHI","town":"IKANIKEISAIGANAIBAAI","perfecture_jp":"熊本県","jp_add_1":"上益城郡甲佐町","jp_add_2":""},"8614618":{"post_code":"8614618","prefecture":"KUMAMOTO KEN","city":"KAMIMASHIKI GUN KOSA MACHI","town":"ASOBARU","perfecture_jp":"熊本県","jp_add_1":"上益城郡甲佐町","jp_add_2":"麻生原"},"8614605":{"post_code":"8614605","prefecture":"KUMAMOTO KEN","city":"KAMIMASHIKI GUN KOSA MACHI","town":"ARIYASU","perfecture_jp":"熊本県","jp_add_1":"上益城郡甲佐町","jp_add_2":"有安"},"8613242":{"post_code":"8613242","prefecture":"KUMAMOTO KEN","city":"KAMIMASHIKI GUN KOSA MACHI","town":"ITODA","perfecture_jp":"熊本県","jp_add_1":"上益城郡甲佐町","jp_add_2":"糸田"},"8614601":{"post_code":"8614601","prefecture":"KUMAMOTO KEN","city":"KAMIMASHIKI GUN KOSA MACHI","town":"IWASHITA","perfecture_jp":"熊本県","jp_add_1":"上益城郡甲佐町","jp_add_2":"岩下"},"8614604":{"post_code":"8614604","prefecture":"KUMAMOTO KEN","city":"KAMIMASHIKI GUN KOSA MACHI","town":"OMACHI","perfecture_jp":"熊本県","jp_add_1":"上益城郡甲佐町","jp_add_2":"大町"},"8614634":{"post_code":"8614634","prefecture":"KUMAMOTO KEN","city":"KAMIMASHIKI GUN KOSA MACHI","town":"OGA","perfecture_jp":"熊本県","jp_add_1":"上益城郡甲佐町","jp_add_2":"小鹿"},"8614631":{"post_code":"8614631","prefecture":"KUMAMOTO KEN","city":"KAMIMASHIKI GUN KOSA MACHI","town":"KAMIAGE","perfecture_jp":"熊本県","jp_add_1":"上益城郡甲佐町","jp_add_2":"上揚"},"8614622":{"post_code":"8614622","prefecture":"KUMAMOTO KEN","city":"KAMIMASHIKI GUN KOSA MACHI","town":"KAMISOGAWA","perfecture_jp":"熊本県","jp_add_1":"上益城郡甲佐町","jp_add_2":"上早川"},"8614632":{"post_code":"8614632","prefecture":"KUMAMOTO KEN","city":"KAMIMASHIKI GUN KOSA MACHI","town":"SAKADANI","perfecture_jp":"熊本県","jp_add_1":"上益城郡甲佐町","jp_add_2":"坂谷"},"8613244":{"post_code":"8613244","prefecture":"KUMAMOTO KEN","city":"KAMIMASHIKI GUN KOSA MACHI","town":"SHIBAWARA","perfecture_jp":"熊本県","jp_add_1":"上益城郡甲佐町","jp_add_2":"芝原"},"8614621":{"post_code":"8614621","prefecture":"KUMAMOTO KEN","city":"KAMIMASHIKI GUN KOSA MACHI","town":"SHIMOYOKOTA","perfecture_jp":"熊本県","jp_add_1":"上益城郡甲佐町","jp_add_2":"下横田"},"8613243":{"post_code":"8613243","prefecture":"KUMAMOTO KEN","city":"KAMIMASHIKI GUN KOSA MACHI","town":"SHIRAHATA","perfecture_jp":"熊本県","jp_add_1":"上益城郡甲佐町","jp_add_2":"白旗"},"8613241":{"post_code":"8613241","prefecture":"KUMAMOTO KEN","city":"KAMIMASHIKI GUN KOSA MACHI","town":"SOGAWA","perfecture_jp":"熊本県","jp_add_1":"上益城郡甲佐町","jp_add_2":"早川"},"8614616":{"post_code":"8614616","prefecture":"KUMAMOTO KEN","city":"KAMIMASHIKI GUN KOSA MACHI","town":"TAGUCHI","perfecture_jp":"熊本県","jp_add_1":"上益城郡甲佐町","jp_add_2":"田口"},"8614617":{"post_code":"8614617","prefecture":"KUMAMOTO KEN","city":"KAMIMASHIKI GUN KOSA MACHI","town":"TSUSHIDA","perfecture_jp":"熊本県","jp_add_1":"上益城郡甲佐町","jp_add_2":"津志田"},"8614607":{"post_code":"8614607","prefecture":"KUMAMOTO KEN","city":"KAMIMASHIKI GUN KOSA MACHI","town":"TOYOCHI","perfecture_jp":"熊本県","jp_add_1":"上益城郡甲佐町","jp_add_2":"豊内"},"8614614":{"post_code":"8614614","prefecture":"KUMAMOTO KEN","city":"KAMIMASHIKI GUN KOSA MACHI","town":"NAKAYAMA","perfecture_jp":"熊本県","jp_add_1":"上益城郡甲佐町","jp_add_2":"中山"},"8614623":{"post_code":"8614623","prefecture":"KUMAMOTO KEN","city":"KAMIMASHIKI GUN KOSA MACHI","town":"NAKAYOKOTA","perfecture_jp":"熊本県","jp_add_1":"上益城郡甲佐町","jp_add_2":"中横田"},"8614609":{"post_code":"8614609","prefecture":"KUMAMOTO KEN","city":"KAMIMASHIKI GUN KOSA MACHI","town":"NISHISAMANO","perfecture_jp":"熊本県","jp_add_1":"上益城郡甲佐町","jp_add_2":"西寒野"},"8614633":{"post_code":"8614633","prefecture":"KUMAMOTO KEN","city":"KAMIMASHIKI GUN KOSA MACHI","town":"NISHIHARU","perfecture_jp":"熊本県","jp_add_1":"上益城郡甲佐町","jp_add_2":"西原"},"8614603":{"post_code":"8614603","prefecture":"KUMAMOTO KEN","city":"KAMIMASHIKI GUN KOSA MACHI","town":"NITAGO","perfecture_jp":"熊本県","jp_add_1":"上益城郡甲佐町","jp_add_2":"仁田子"},"8614608":{"post_code":"8614608","prefecture":"KUMAMOTO KEN","city":"KAMIMASHIKI GUN KOSA MACHI","town":"HIGASHISAMANO","perfecture_jp":"熊本県","jp_add_1":"上益城郡甲佐町","jp_add_2":"東寒野"},"8614611":{"post_code":"8614611","prefecture":"KUMAMOTO KEN","city":"KAMIMASHIKI GUN KOSA MACHI","town":"FUNATSU","perfecture_jp":"熊本県","jp_add_1":"上益城郡甲佐町","jp_add_2":"船津"},"8614615":{"post_code":"8614615","prefecture":"KUMAMOTO KEN","city":"KAMIMASHIKI GUN KOSA MACHI","town":"FURYO","perfecture_jp":"熊本県","jp_add_1":"上益城郡甲佐町","jp_add_2":"府領"},"8614602":{"post_code":"8614602","prefecture":"KUMAMOTO KEN","city":"KAMIMASHIKI GUN KOSA MACHI","town":"MIDORIMACHI","perfecture_jp":"熊本県","jp_add_1":"上益城郡甲佐町","jp_add_2":"緑町"},"8614613":{"post_code":"8614613","prefecture":"KUMAMOTO KEN","city":"KAMIMASHIKI GUN KOSA MACHI","town":"MINAMISANGA","perfecture_jp":"熊本県","jp_add_1":"上益城郡甲佐町","jp_add_2":"南三箇"},"8614635":{"post_code":"8614635","prefecture":"KUMAMOTO KEN","city":"KAMIMASHIKI GUN KOSA MACHI","town":"YASUHIRA","perfecture_jp":"熊本県","jp_add_1":"上益城郡甲佐町","jp_add_2":"安平"},"8614606":{"post_code":"8614606","prefecture":"KUMAMOTO KEN","city":"KAMIMASHIKI GUN KOSA MACHI","town":"YOKOTA","perfecture_jp":"熊本県","jp_add_1":"上益城郡甲佐町","jp_add_2":"横田"},"8613245":{"post_code":"8613245","prefecture":"KUMAMOTO KEN","city":"KAMIMASHIKI GUN KOSA MACHI","town":"YOSHIDA","perfecture_jp":"熊本県","jp_add_1":"上益城郡甲佐町","jp_add_2":"吉田"},"8614612":{"post_code":"8614612","prefecture":"KUMAMOTO KEN","city":"KAMIMASHIKI GUN KOSA MACHI","town":"YOMOCHI","perfecture_jp":"熊本県","jp_add_1":"上益城郡甲佐町","jp_add_2":"世持"},"8613500":{"post_code":"8613500","prefecture":"KUMAMOTO KEN","city":"KAMIMASHIKI GUN YAMATO CHO","town":"IKANIKEISAIGANAIBAAI","perfecture_jp":"熊本県","jp_add_1":"上益城郡山都町","jp_add_2":""},"8613781":{"post_code":"8613781","prefecture":"KUMAMOTO KEN","city":"KAMIMASHIKI GUN YAMATO CHO","town":"ASAYAMA","perfecture_jp":"熊本県","jp_add_1":"上益城郡山都町","jp_add_2":"麻山"},"8613541":{"post_code":"8613541","prefecture":"KUMAMOTO KEN","city":"KAMIMASHIKI GUN YAMATO CHO","town":"ASHIYADA","perfecture_jp":"熊本県","jp_add_1":"上益城郡山都町","jp_add_2":"芦屋田"},"8613521":{"post_code":"8613521","prefecture":"KUMAMOTO KEN","city":"KAMIMASHIKI GUN YAMATO CHO","town":"ARADANI","perfecture_jp":"熊本県","jp_add_1":"上益城郡山都町","jp_add_2":"荒谷"},"8613937":{"post_code":"8613937","prefecture":"KUMAMOTO KEN","city":"KAMIMASHIKI GUN YAMATO CHO","town":"ISE","perfecture_jp":"熊本県","jp_add_1":"上益城郡山都町","jp_add_2":"伊勢"},"8613842":{"post_code":"8613842","prefecture":"KUMAMOTO KEN","city":"KAMIMASHIKI GUN YAMATO CHO","town":"ICHINOHARU","perfecture_jp":"熊本県","jp_add_1":"上益城郡山都町","jp_add_2":"市野原"},"8613542":{"post_code":"8613542","prefecture":"KUMAMOTO KEN","city":"KAMIMASHIKI GUN YAMATO CHO","town":"ICHIBARU","perfecture_jp":"熊本県","jp_add_1":"上益城郡山都町","jp_add_2":"市原"},"8613665":{"post_code":"8613665","prefecture":"KUMAMOTO KEN","city":"KAMIMASHIKI GUN YAMATO CHO","town":"INUKAI","perfecture_jp":"熊本県","jp_add_1":"上益城郡山都町","jp_add_2":"犬飼"},"8613913":{"post_code":"8613913","prefecture":"KUMAMOTO KEN","city":"KAMIMASHIKI GUN YAMATO CHO","town":"IMA","perfecture_jp":"熊本県","jp_add_1":"上益城郡山都町","jp_add_2":"今"},"8613832":{"post_code":"8613832","prefecture":"KUMAMOTO KEN","city":"KAMIMASHIKI GUN YAMATO CHO","town":"IMUTA","perfecture_jp":"熊本県","jp_add_1":"上益城郡山都町","jp_add_2":"井無田"},"8613511":{"post_code":"8613511","prefecture":"KUMAMOTO KEN","city":"KAMIMASHIKI GUN YAMATO CHO","town":"IRISA","perfecture_jp":"熊本県","jp_add_1":"上益城郡山都町","jp_add_2":"入佐"},"8613905":{"post_code":"8613905","prefecture":"KUMAMOTO KEN","city":"KAMIMASHIKI GUN YAMATO CHO","town":"ONO","perfecture_jp":"熊本県","jp_add_1":"上益城郡山都町","jp_add_2":"大野"},"8613811":{"post_code":"8613811","prefecture":"KUMAMOTO KEN","city":"KAMIMASHIKI GUN YAMATO CHO","town":"OHIRA","perfecture_jp":"熊本県","jp_add_1":"上益城郡山都町","jp_add_2":"大平"},"8613926":{"post_code":"8613926","prefecture":"KUMAMOTO KEN","city":"KAMIMASHIKI GUN YAMATO CHO","town":"OMIKUCHI","perfecture_jp":"熊本県","jp_add_1":"上益城郡山都町","jp_add_2":"大見口"},"8613788":{"post_code":"8613788","prefecture":"KUMAMOTO KEN","city":"KAMIMASHIKI GUN YAMATO CHO","town":"OZASA","perfecture_jp":"熊本県","jp_add_1":"上益城郡山都町","jp_add_2":"小笹"},"8613789":{"post_code":"8613789","prefecture":"KUMAMOTO KEN","city":"KAMIMASHIKI GUN YAMATO CHO","town":"OTOKONARI","perfecture_jp":"熊本県","jp_add_1":"上益城郡山都町","jp_add_2":"男成"},"8613844":{"post_code":"8613844","prefecture":"KUMAMOTO KEN","city":"KAMIMASHIKI GUN YAMATO CHO","town":"ONOJIRI","perfecture_jp":"熊本県","jp_add_1":"上益城郡山都町","jp_add_2":"尾野尻"},"8613801":{"post_code":"8613801","prefecture":"KUMAMOTO KEN","city":"KAMIMASHIKI GUN YAMATO CHO","town":"OMINE","perfecture_jp":"熊本県","jp_add_1":"上益城郡山都町","jp_add_2":"小峰"},"8613923":{"post_code":"8613923","prefecture":"KUMAMOTO KEN","city":"KAMIMASHIKI GUN YAMATO CHO","town":"KASHIWA","perfecture_jp":"熊本県","jp_add_1":"上益城郡山都町","jp_add_2":"柏"},"8613451":{"post_code":"8613451","prefecture":"KUMAMOTO KEN","city":"KAMIMASHIKI GUN YAMATO CHO","town":"KANEUCHI","perfecture_jp":"熊本県","jp_add_1":"上益城郡山都町","jp_add_2":"金内"},"8613843":{"post_code":"8613843","prefecture":"KUMAMOTO KEN","city":"KAMIMASHIKI GUN YAMATO CHO","town":"KAMANO","perfecture_jp":"熊本県","jp_add_1":"上益城郡山都町","jp_add_2":"鎌野"},"8613782":{"post_code":"8613782","prefecture":"KUMAMOTO KEN","city":"KAMIMASHIKI GUN YAMATO CHO","town":"KAMIGAWAINO","perfecture_jp":"熊本県","jp_add_1":"上益城郡山都町","jp_add_2":"上川井野"},"8613925":{"post_code":"8613925","prefecture":"KUMAMOTO KEN","city":"KAMIMASHIKI GUN YAMATO CHO","town":"KAMIZASHIO","perfecture_jp":"熊本県","jp_add_1":"上益城郡山都町","jp_add_2":"上差尾"},"8613906":{"post_code":"8613906","prefecture":"KUMAMOTO KEN","city":"KAMIMASHIKI GUN YAMATO CHO","town":"KAMINOMAE","perfecture_jp":"熊本県","jp_add_1":"上益城郡山都町","jp_add_2":"神ノ前"},"8613841":{"post_code":"8613841","prefecture":"KUMAMOTO KEN","city":"KAMIMASHIKI GUN YAMATO CHO","town":"KARIYA","perfecture_jp":"熊本県","jp_add_1":"上益城郡山都町","jp_add_2":"仮屋"},"8613813":{"post_code":"8613813","prefecture":"KUMAMOTO KEN","city":"KAMIMASHIKI GUN YAMATO CHO","town":"KAWAGUCHI","perfecture_jp":"熊本県","jp_add_1":"上益城郡山都町","jp_add_2":"川口"},"8613784":{"post_code":"8613784","prefecture":"KUMAMOTO KEN","city":"KAMIMASHIKI GUN YAMATO CHO","town":"KAWANO","perfecture_jp":"熊本県","jp_add_1":"上益城郡山都町","jp_add_2":"川野"},"8613455":{"post_code":"8613455","prefecture":"KUMAMOTO KEN","city":"KAMIMASHIKI GUN YAMATO CHO","town":"KITANAKASHIMA","perfecture_jp":"熊本県","jp_add_1":"上益城郡山都町","jp_add_2":"北中島"},"8613802":{"post_code":"8613802","prefecture":"KUMAMOTO KEN","city":"KAMIMASHIKI GUN YAMATO CHO","town":"KIHARADANI","perfecture_jp":"熊本県","jp_add_1":"上益城郡山都町","jp_add_2":"木原谷"},"8613531":{"post_code":"8613531","prefecture":"KUMAMOTO KEN","city":"KAMIMASHIKI GUN YAMATO CHO","town":"KUZUHARA","perfecture_jp":"熊本県","jp_add_1":"上益城郡山都町","jp_add_2":"葛原"},"8613501":{"post_code":"8613501","prefecture":"KUMAMOTO KEN","city":"KAMIMASHIKI GUN YAMATO CHO","town":"KUROKAWA","perfecture_jp":"熊本県","jp_add_1":"上益城郡山都町","jp_add_2":"黒川"},"8613512":{"post_code":"8613512","prefecture":"KUMAMOTO KEN","city":"KAMIMASHIKI GUN YAMATO CHO","town":"GEBAO","perfecture_jp":"熊本県","jp_add_1":"上益城郡山都町","jp_add_2":"下馬尾"},"8613834":{"post_code":"8613834","prefecture":"KUMAMOTO KEN","city":"KAMIMASHIKI GUN YAMATO CHO","town":"KOZUKI","perfecture_jp":"熊本県","jp_add_1":"上益城郡山都町","jp_add_2":"高月"},"8613831":{"post_code":"8613831","prefecture":"KUMAMOTO KEN","city":"KAMIMASHIKI GUN YAMATO CHO","town":"GONOHARU","perfecture_jp":"熊本県","jp_add_1":"上益城郡山都町","jp_add_2":"郷野原"},"8613502":{"post_code":"8613502","prefecture":"KUMAMOTO KEN","city":"KAMIMASHIKI GUN YAMATO CHO","town":"GOSHO","perfecture_jp":"熊本県","jp_add_1":"上益城郡山都町","jp_add_2":"御所"},"8613803":{"post_code":"8613803","prefecture":"KUMAMOTO KEN","city":"KAMIMASHIKI GUN YAMATO CHO","town":"KONAKADAKE","perfecture_jp":"熊本県","jp_add_1":"上益城郡山都町","jp_add_2":"小中竹"},"8613532":{"post_code":"8613532","prefecture":"KUMAMOTO KEN","city":"KAMIMASHIKI GUN YAMATO CHO","town":"SARUWATARI","perfecture_jp":"熊本県","jp_add_1":"上益城郡山都町","jp_add_2":"猿渡"},"8613533":{"post_code":"8613533","prefecture":"KUMAMOTO KEN","city":"KAMIMASHIKI GUN YAMATO CHO","town":"SANGA","perfecture_jp":"熊本県","jp_add_1":"上益城郡山都町","jp_add_2":"三ケ"},"8613915":{"post_code":"8613915","prefecture":"KUMAMOTO KEN","city":"KAMIMASHIKI GUN YAMATO CHO","town":"SHIOIDESAKO","perfecture_jp":"熊本県","jp_add_1":"上益城郡山都町","jp_add_2":"塩出迫"},"8613916":{"post_code":"8613916","prefecture":"KUMAMOTO KEN","city":"KAMIMASHIKI GUN YAMATO CHO","town":"SHIOBARU","perfecture_jp":"熊本県","jp_add_1":"上益城郡山都町","jp_add_2":"塩原"},"8613454":{"post_code":"8613454","prefecture":"KUMAMOTO KEN","city":"KAMIMASHIKI GUN YAMATO CHO","town":"SHIMAKI","perfecture_jp":"熊本県","jp_add_1":"上益城郡山都町","jp_add_2":"島木"},"8613513":{"post_code":"8613513","prefecture":"KUMAMOTO KEN","city":"KAMIMASHIKI GUN YAMATO CHO","town":"SHIMOICHI","perfecture_jp":"熊本県","jp_add_1":"上益城郡山都町","jp_add_2":"下市"},"8613786":{"post_code":"8613786","prefecture":"KUMAMOTO KEN","city":"KAMIMASHIKI GUN YAMATO CHO","town":"SHIMOGAWAINO","perfecture_jp":"熊本県","jp_add_1":"上益城郡山都町","jp_add_2":"下川井野"},"8613503":{"post_code":"8613503","prefecture":"KUMAMOTO KEN","city":"KAMIMASHIKI GUN YAMATO CHO","town":"SHIMONAREISHI","perfecture_jp":"熊本県","jp_add_1":"上益城郡山都町","jp_add_2":"下名連石"},"8613932":{"post_code":"8613932","prefecture":"KUMAMOTO KEN","city":"KAMIMASHIKI GUN YAMATO CHO","town":"SHIMOYAMA","perfecture_jp":"熊本県","jp_add_1":"上益城郡山都町","jp_add_2":"下山"},"8613543":{"post_code":"8613543","prefecture":"KUMAMOTO KEN","city":"KAMIMASHIKI GUN YAMATO CHO","town":"JOTERA","perfecture_jp":"熊本県","jp_add_1":"上益城郡山都町","jp_add_2":"上寺"},"8613514":{"post_code":"8613514","prefecture":"KUMAMOTO KEN","city":"KAMIMASHIKI GUN YAMATO CHO","town":"JOHARA","perfecture_jp":"熊本県","jp_add_1":"上益城郡山都町","jp_add_2":"城原"},"8613515":{"post_code":"8613515","prefecture":"KUMAMOTO KEN","city":"KAMIMASHIKI GUN YAMATO CHO","town":"JOHIRA","perfecture_jp":"熊本県","jp_add_1":"上益城郡山都町","jp_add_2":"城平"},"8613907":{"post_code":"8613907","prefecture":"KUMAMOTO KEN","city":"KAMIMASHIKI GUN YAMATO CHO","town":"SHIRAISHI","perfecture_jp":"熊本県","jp_add_1":"上益城郡山都町","jp_add_2":"白石"},"8613522":{"post_code":"8613522","prefecture":"KUMAMOTO KEN","city":"KAMIMASHIKI GUN YAMATO CHO","town":"SHIRAONO","perfecture_jp":"熊本県","jp_add_1":"上益城郡山都町","jp_add_2":"白小野"},"8613664":{"post_code":"8613664","prefecture":"KUMAMOTO KEN","city":"KAMIMASHIKI GUN YAMATO CHO","town":"SHIRAFUJI","perfecture_jp":"熊本県","jp_add_1":"上益城郡山都町","jp_add_2":"白藤"},"8613663":{"post_code":"8613663","prefecture":"KUMAMOTO KEN","city":"KAMIMASHIKI GUN YAMATO CHO","town":"SHINKO","perfecture_jp":"熊本県","jp_add_1":"上益城郡山都町","jp_add_2":"新小"},"8613544":{"post_code":"8613544","prefecture":"KUMAMOTO KEN","city":"KAMIMASHIKI GUN YAMATO CHO","town":"SUGIKI","perfecture_jp":"熊本県","jp_add_1":"上益城郡山都町","jp_add_2":"杉木"},"8613671":{"post_code":"8613671","prefecture":"KUMAMOTO KEN","city":"KAMIMASHIKI GUN YAMATO CHO","town":"SUGE","perfecture_jp":"熊本県","jp_add_1":"上益城郡山都町","jp_add_2":"菅"},"8613911":{"post_code":"8613911","prefecture":"KUMAMOTO KEN","city":"KAMIMASHIKI GUN YAMATO CHO","town":"SUGEO","perfecture_jp":"熊本県","jp_add_1":"上益城郡山都町","jp_add_2":"菅尾"},"8613805":{"post_code":"8613805","prefecture":"KUMAMOTO KEN","city":"KAMIMASHIKI GUN YAMATO CHO","town":"SUBARU","perfecture_jp":"熊本県","jp_add_1":"上益城郡山都町","jp_add_2":"須原"},"8613523":{"post_code":"8613523","prefecture":"KUMAMOTO KEN","city":"KAMIMASHIKI GUN YAMATO CHO","town":"ZEI","perfecture_jp":"熊本県","jp_add_1":"上益城郡山都町","jp_add_2":"勢井"},"8613516":{"post_code":"8613516","prefecture":"KUMAMOTO KEN","city":"KAMIMASHIKI GUN YAMATO CHO","town":"SENDAKI","perfecture_jp":"熊本県","jp_add_1":"上益城郡山都町","jp_add_2":"千滝"},"8613452":{"post_code":"8613452","prefecture":"KUMAMOTO KEN","city":"KAMIMASHIKI GUN YAMATO CHO","town":"TAONO","perfecture_jp":"熊本県","jp_add_1":"上益城郡山都町","jp_add_2":"田小野"},"8613933":{"post_code":"8613933","prefecture":"KUMAMOTO KEN","city":"KAMIMASHIKI GUN YAMATO CHO","town":"TAKATSUJI","perfecture_jp":"熊本県","jp_add_1":"上益城郡山都町","jp_add_2":"高辻"},"8613934":{"post_code":"8613934","prefecture":"KUMAMOTO KEN","city":"KAMIMASHIKI GUN YAMATO CHO","town":"TAKABATA","perfecture_jp":"熊本県","jp_add_1":"上益城郡山都町","jp_add_2":"高畑"},"8613902":{"post_code":"8613902","prefecture":"KUMAMOTO KEN","city":"KAMIMASHIKI GUN YAMATO CHO","town":"TAKIGAMI","perfecture_jp":"熊本県","jp_add_1":"上益城郡山都町","jp_add_2":"滝上"},"8613931":{"post_code":"8613931","prefecture":"KUMAMOTO KEN","city":"KAMIMASHIKI GUN YAMATO CHO","town":"TACHIBANA","perfecture_jp":"熊本県","jp_add_1":"上益城郡山都町","jp_add_2":"橘"},"8613785":{"post_code":"8613785","prefecture":"KUMAMOTO KEN","city":"KAMIMASHIKI GUN YAMATO CHO","town":"TADOKORO","perfecture_jp":"熊本県","jp_add_1":"上益城郡山都町","jp_add_2":"田所"},"8613927":{"post_code":"8613927","prefecture":"KUMAMOTO KEN","city":"KAMIMASHIKI GUN YAMATO CHO","town":"TAMAME","perfecture_jp":"熊本県","jp_add_1":"上益城郡山都町","jp_add_2":"玉目"},"8613662":{"post_code":"8613662","prefecture":"KUMAMOTO KEN","city":"KAMIMASHIKI GUN YAMATO CHO","town":"TAYOSHI","perfecture_jp":"熊本県","jp_add_1":"上益城郡山都町","jp_add_2":"田吉"},"8613673":{"post_code":"8613673","prefecture":"KUMAMOTO KEN","city":"KAMIMASHIKI GUN YAMATO CHO","town":"TSURU","perfecture_jp":"熊本県","jp_add_1":"上益城郡山都町","jp_add_2":"津留"},"8613812":{"post_code":"8613812","prefecture":"KUMAMOTO KEN","city":"KAMIMASHIKI GUN YAMATO CHO","town":"TSURUKETA","perfecture_jp":"熊本県","jp_add_1":"上益城郡山都町","jp_add_2":"鶴ケ田"},"8613908":{"post_code":"8613908","prefecture":"KUMAMOTO KEN","city":"KAMIMASHIKI GUN YAMATO CHO","town":"NAGASAKI","perfecture_jp":"熊本県","jp_add_1":"上益城郡山都町","jp_add_2":"長崎"},"8613545":{"post_code":"8613545","prefecture":"KUMAMOTO KEN","city":"KAMIMASHIKI GUN YAMATO CHO","town":"NAGATA","perfecture_jp":"熊本県","jp_add_1":"上益城郡山都町","jp_add_2":"長田"},"8613928":{"post_code":"8613928","prefecture":"KUMAMOTO KEN","city":"KAMIMASHIKI GUN YAMATO CHO","town":"NAGATANI","perfecture_jp":"熊本県","jp_add_1":"上益城郡山都町","jp_add_2":"長谷"},"8613661":{"post_code":"8613661","prefecture":"KUMAMOTO KEN","city":"KAMIMASHIKI GUN YAMATO CHO","town":"NAGAHARA","perfecture_jp":"熊本県","jp_add_1":"上益城郡山都町","jp_add_2":"長原"},"8613783":{"post_code":"8613783","prefecture":"KUMAMOTO KEN","city":"KAMIMASHIKI GUN YAMATO CHO","town":"NARIGIMI","perfecture_jp":"熊本県","jp_add_1":"上益城郡山都町","jp_add_2":"成君"},"8613922":{"post_code":"8613922","prefecture":"KUMAMOTO KEN","city":"KAMIMASHIKI GUN YAMATO CHO","town":"NISEMOTO","perfecture_jp":"熊本県","jp_add_1":"上益城郡山都町","jp_add_2":"二瀬本"},"8613804":{"post_code":"8613804","prefecture":"KUMAMOTO KEN","city":"KAMIMASHIKI GUN YAMATO CHO","town":"NUKIHARU","perfecture_jp":"熊本県","jp_add_1":"上益城郡山都町","jp_add_2":"貫原"},"8613787":{"post_code":"8613787","prefecture":"KUMAMOTO KEN","city":"KAMIMASHIKI GUN YAMATO CHO","town":"NOJIRI","perfecture_jp":"熊本県","jp_add_1":"上益城郡山都町","jp_add_2":"野尻"},"8613517":{"post_code":"8613517","prefecture":"KUMAMOTO KEN","city":"KAMIMASHIKI GUN YAMATO CHO","town":"HATA","perfecture_jp":"熊本県","jp_add_1":"上益城郡山都町","jp_add_2":"畑"},"8613921":{"post_code":"8613921","prefecture":"KUMAMOTO KEN","city":"KAMIMASHIKI GUN YAMATO CHO","town":"HACHIBOKU","perfecture_jp":"熊本県","jp_add_1":"上益城郡山都町","jp_add_2":"八木"},"8613914":{"post_code":"8613914","prefecture":"KUMAMOTO KEN","city":"KAMIMASHIKI GUN YAMATO CHO","town":"HANAGAMI","perfecture_jp":"熊本県","jp_add_1":"上益城郡山都町","jp_add_2":"花上"},"8613518":{"post_code":"8613518","prefecture":"KUMAMOTO KEN","city":"KAMIMASHIKI GUN YAMATO CHO","town":"HAMAMACHI","perfecture_jp":"熊本県","jp_add_1":"上益城郡山都町","jp_add_2":"浜町"},"8613453":{"post_code":"8613453","prefecture":"KUMAMOTO KEN","city":"KAMIMASHIKI GUN YAMATO CHO","town":"HARA","perfecture_jp":"熊本県","jp_add_1":"上益城郡山都町","jp_add_2":"原"},"8613935":{"post_code":"8613935","prefecture":"KUMAMOTO KEN","city":"KAMIMASHIKI GUN YAMATO CHO","town":"HIGASHITAKEBARU","perfecture_jp":"熊本県","jp_add_1":"上益城郡山都町","jp_add_2":"東竹原"},"8613524":{"post_code":"8613524","prefecture":"KUMAMOTO KEN","city":"KAMIMASHIKI GUN YAMATO CHO","town":"FUJIKI","perfecture_jp":"熊本県","jp_add_1":"上益城郡山都町","jp_add_2":"藤木"},"8613924":{"post_code":"8613924","prefecture":"KUMAMOTO KEN","city":"KAMIMASHIKI GUN YAMATO CHO","town":"FUTAZURU","perfecture_jp":"熊本県","jp_add_1":"上益城郡山都町","jp_add_2":"二津留"},"8613904":{"post_code":"8613904","prefecture":"KUMAMOTO KEN","city":"KAMIMASHIKI GUN YAMATO CHO","town":"HOGANO","perfecture_jp":"熊本県","jp_add_1":"上益城郡山都町","jp_add_2":"方ケ野"},"8613835":{"post_code":"8613835","prefecture":"KUMAMOTO KEN","city":"KAMIMASHIKI GUN YAMATO CHO","town":"HOTOKEBARU","perfecture_jp":"熊本県","jp_add_1":"上益城郡山都町","jp_add_2":"仏原"},"8613525":{"post_code":"8613525","prefecture":"KUMAMOTO KEN","city":"KAMIMASHIKI GUN YAMATO CHO","town":"MAKINO","perfecture_jp":"熊本県","jp_add_1":"上益城郡山都町","jp_add_2":"牧野"},"8613901":{"post_code":"8613901","prefecture":"KUMAMOTO KEN","city":"KAMIMASHIKI GUN YAMATO CHO","town":"MAMIHARA","perfecture_jp":"熊本県","jp_add_1":"上益城郡山都町","jp_add_2":"馬見原"},"8613526":{"post_code":"8613526","prefecture":"KUMAMOTO KEN","city":"KAMIMASHIKI GUN YAMATO CHO","town":"MANZAKA","perfecture_jp":"熊本県","jp_add_1":"上益城郡山都町","jp_add_2":"万坂"},"8613845":{"post_code":"8613845","prefecture":"KUMAMOTO KEN","city":"KAMIMASHIKI GUN YAMATO CHO","town":"MIDORIKAWA","perfecture_jp":"熊本県","jp_add_1":"上益城郡山都町","jp_add_2":"緑川"},"8613546":{"post_code":"8613546","prefecture":"KUMAMOTO KEN","city":"KAMIMASHIKI GUN YAMATO CHO","town":"MINAMIDA","perfecture_jp":"熊本県","jp_add_1":"上益城郡山都町","jp_add_2":"南田"},"8613672":{"post_code":"8613672","prefecture":"KUMAMOTO KEN","city":"KAMIMASHIKI GUN YAMATO CHO","town":"MEMARU","perfecture_jp":"熊本県","jp_add_1":"上益城郡山都町","jp_add_2":"目丸"},"8613833":{"post_code":"8613833","prefecture":"KUMAMOTO KEN","city":"KAMIMASHIKI GUN YAMATO CHO","town":"YASUKATA","perfecture_jp":"熊本県","jp_add_1":"上益城郡山都町","jp_add_2":"安方"},"8613903":{"post_code":"8613903","prefecture":"KUMAMOTO KEN","city":"KAMIMASHIKI GUN YAMATO CHO","town":"YANAIBARU","perfecture_jp":"熊本県","jp_add_1":"上益城郡山都町","jp_add_2":"柳井原"},"8613936":{"post_code":"8613936","prefecture":"KUMAMOTO KEN","city":"KAMIMASHIKI GUN YAMATO CHO","town":"YANAGI","perfecture_jp":"熊本県","jp_add_1":"上益城郡山都町","jp_add_2":"柳"},"8613547":{"post_code":"8613547","prefecture":"KUMAMOTO KEN","city":"KAMIMASHIKI GUN YAMATO CHO","town":"YAMADA","perfecture_jp":"熊本県","jp_add_1":"上益城郡山都町","jp_add_2":"山田"},"8613534":{"post_code":"8613534","prefecture":"KUMAMOTO KEN","city":"KAMIMASHIKI GUN YAMATO CHO","town":"YUNOKI","perfecture_jp":"熊本県","jp_add_1":"上益城郡山都町","jp_add_2":"柚木"},"8613806":{"post_code":"8613806","prefecture":"KUMAMOTO KEN","city":"KAMIMASHIKI GUN YAMATO CHO","town":"YONEO","perfecture_jp":"熊本県","jp_add_1":"上益城郡山都町","jp_add_2":"米生"},"8613912":{"post_code":"8613912","prefecture":"KUMAMOTO KEN","city":"KAMIMASHIKI GUN YAMATO CHO","town":"YONESAKO","perfecture_jp":"熊本県","jp_add_1":"上益城郡山都町","jp_add_2":"米迫"}}