{"8640000":{"post_code":"8640000","prefecture":"KUMAMOTO KEN","city":"ARAO SHI","town":"IKANIKEISAIGANAIBAAI","perfecture_jp":"熊本県","jp_add_1":"荒尾市","jp_add_2":""},"8640041":{"post_code":"8640041","prefecture":"KUMAMOTO KEN","city":"ARAO SHI","town":"ARAO","perfecture_jp":"熊本県","jp_add_1":"荒尾市","jp_add_2":"荒尾"},"8640021":{"post_code":"8640021","prefecture":"KUMAMOTO KEN","city":"ARAO SHI","town":"ICHIBU","perfecture_jp":"熊本県","jp_add_1":"荒尾市","jp_add_2":"一部"},"8640026":{"post_code":"8640026","prefecture":"KUMAMOTO KEN","city":"ARAO SHI","town":"USHINOMIZU","perfecture_jp":"熊本県","jp_add_1":"荒尾市","jp_add_2":"牛水"},"8640057":{"post_code":"8640057","prefecture":"KUMAMOTO KEN","city":"ARAO SHI","town":"OSHIMA","perfecture_jp":"熊本県","jp_add_1":"荒尾市","jp_add_2":"大島"},"8640051":{"post_code":"8640051","prefecture":"KUMAMOTO KEN","city":"ARAO SHI","town":"OSHIMAMACHI","perfecture_jp":"熊本県","jp_add_1":"荒尾市","jp_add_2":"大島町"},"8640005":{"post_code":"8640005","prefecture":"KUMAMOTO KEN","city":"ARAO SHI","town":"OHIRAMACHI","perfecture_jp":"熊本県","jp_add_1":"荒尾市","jp_add_2":"大平町"},"8640162":{"post_code":"8640162","prefecture":"KUMAMOTO KEN","city":"ARAO SHI","town":"KANAYAMA","perfecture_jp":"熊本県","jp_add_1":"荒尾市","jp_add_2":"金山"},"8640165":{"post_code":"8640165","prefecture":"KUMAMOTO KEN","city":"ARAO SHI","town":"KABA","perfecture_jp":"熊本県","jp_add_1":"荒尾市","jp_add_2":"樺"},"8640013":{"post_code":"8640013","prefecture":"KUMAMOTO KEN","city":"ARAO SHI","town":"KAMIIDE","perfecture_jp":"熊本県","jp_add_1":"荒尾市","jp_add_2":"上井手"},"8640014":{"post_code":"8640014","prefecture":"KUMAMOTO KEN","city":"ARAO SHI","town":"KAMIHIRAYAMA","perfecture_jp":"熊本県","jp_add_1":"荒尾市","jp_add_2":"上平山"},"8640031":{"post_code":"8640031","prefecture":"KUMAMOTO KEN","city":"ARAO SHI","town":"KAWANOBORI(1773-1979.1981-2010.2050","perfecture_jp":"熊本県","jp_add_1":"荒尾市","jp_add_2":"川登"},"8640131":{"post_code":"8640131","prefecture":"KUMAMOTO KEN","city":"ARAO SHI","town":"KAWANOBORI(SONOTA)","perfecture_jp":"熊本県","jp_add_1":"荒尾市","jp_add_2":"川登"},"8640004":{"post_code":"8640004","prefecture":"KUMAMOTO KEN","city":"ARAO SHI","town":"KUNAI","perfecture_jp":"熊本県","jp_add_1":"荒尾市","jp_add_2":"宮内"},"8640003":{"post_code":"8640003","prefecture":"KUMAMOTO KEN","city":"ARAO SHI","town":"KUNAIDEME","perfecture_jp":"熊本県","jp_add_1":"荒尾市","jp_add_2":"宮内出目"},"8640027":{"post_code":"8640027","prefecture":"KUMAMOTO KEN","city":"ARAO SHI","town":"KURAMITSU","perfecture_jp":"熊本県","jp_add_1":"荒尾市","jp_add_2":"蔵満"},"8640161":{"post_code":"8640161","prefecture":"KUMAMOTO KEN","city":"ARAO SHI","town":"KOMOYA","perfecture_jp":"熊本県","jp_add_1":"荒尾市","jp_add_2":"菰屋"},"8640022":{"post_code":"8640022","prefecture":"KUMAMOTO KEN","city":"ARAO SHI","town":"SAKURAYAMAMACHI","perfecture_jp":"熊本県","jp_add_1":"荒尾市","jp_add_2":"桜山町"},"8640011":{"post_code":"8640011","prefecture":"KUMAMOTO KEN","city":"ARAO SHI","town":"SHIMOIDE","perfecture_jp":"熊本県","jp_add_1":"荒尾市","jp_add_2":"下井手"},"8640056":{"post_code":"8640056","prefecture":"KUMAMOTO KEN","city":"ARAO SHI","town":"SHOWAMACHI","perfecture_jp":"熊本県","jp_add_1":"荒尾市","jp_add_2":"昭和町"},"8640006":{"post_code":"8640006","prefecture":"KUMAMOTO KEN","city":"ARAO SHI","town":"SUMIYOSHIMACHI","perfecture_jp":"熊本県","jp_add_1":"荒尾市","jp_add_2":"住吉町"},"8640054":{"post_code":"8640054","prefecture":"KUMAMOTO KEN","city":"ARAO SHI","town":"TAISHOMACHI","perfecture_jp":"熊本県","jp_add_1":"荒尾市","jp_add_2":"大正町"},"8640025":{"post_code":"8640025","prefecture":"KUMAMOTO KEN","city":"ARAO SHI","town":"TAKAHAMA","perfecture_jp":"熊本県","jp_add_1":"荒尾市","jp_add_2":"高浜"},"8640053":{"post_code":"8640053","prefecture":"KUMAMOTO KEN","city":"ARAO SHI","town":"NISHIBARUMACHI","perfecture_jp":"熊本県","jp_add_1":"荒尾市","jp_add_2":"西原町"},"8640163":{"post_code":"8640163","prefecture":"KUMAMOTO KEN","city":"ARAO SHI","town":"NOBARA","perfecture_jp":"熊本県","jp_add_1":"荒尾市","jp_add_2":"野原"},"8640164":{"post_code":"8640164","prefecture":"KUMAMOTO KEN","city":"ARAO SHI","town":"HACHIMANDAI","perfecture_jp":"熊本県","jp_add_1":"荒尾市","jp_add_2":"八幡台"},"8640001":{"post_code":"8640001","prefecture":"KUMAMOTO KEN","city":"ARAO SHI","town":"HARAMANDA","perfecture_jp":"熊本県","jp_add_1":"荒尾市","jp_add_2":"原万田"},"8640042":{"post_code":"8640042","prefecture":"KUMAMOTO KEN","city":"ARAO SHI","town":"HIGASHIYAKATA","perfecture_jp":"熊本県","jp_add_1":"荒尾市","jp_add_2":"東屋形"},"8640055":{"post_code":"8640055","prefecture":"KUMAMOTO KEN","city":"ARAO SHI","town":"HINODEMACHI","perfecture_jp":"熊本県","jp_add_1":"荒尾市","jp_add_2":"日の出町"},"8640015":{"post_code":"8640015","prefecture":"KUMAMOTO KEN","city":"ARAO SHI","town":"HIRAYAMA","perfecture_jp":"熊本県","jp_add_1":"荒尾市","jp_add_2":"平山"},"8640166":{"post_code":"8640166","prefecture":"KUMAMOTO KEN","city":"ARAO SHI","town":"FUMOTO","perfecture_jp":"熊本県","jp_add_1":"荒尾市","jp_add_2":"府本"},"8640012":{"post_code":"8640012","prefecture":"KUMAMOTO KEN","city":"ARAO SHI","town":"HONIDE","perfecture_jp":"熊本県","jp_add_1":"荒尾市","jp_add_2":"本井手"},"8640032":{"post_code":"8640032","prefecture":"KUMAMOTO KEN","city":"ARAO SHI","town":"MASUNAGA","perfecture_jp":"熊本県","jp_add_1":"荒尾市","jp_add_2":"増永"},"8640002":{"post_code":"8640002","prefecture":"KUMAMOTO KEN","city":"ARAO SHI","town":"MANDA","perfecture_jp":"熊本県","jp_add_1":"荒尾市","jp_add_2":"万田"},"8640023":{"post_code":"8640023","prefecture":"KUMAMOTO KEN","city":"ARAO SHI","town":"MIZUNO","perfecture_jp":"熊本県","jp_add_1":"荒尾市","jp_add_2":"水野"},"8640033":{"post_code":"8640033","prefecture":"KUMAMOTO KEN","city":"ARAO SHI","town":"MIDORIGAOKA","perfecture_jp":"熊本県","jp_add_1":"荒尾市","jp_add_2":"緑ケ丘"},"8640052":{"post_code":"8640052","prefecture":"KUMAMOTO KEN","city":"ARAO SHI","town":"YOTSUYAMAMACHI","perfecture_jp":"熊本県","jp_add_1":"荒尾市","jp_add_2":"四ツ山町"}}