{"8650000":{"post_code":"8650000","prefecture":"KUMAMOTO KEN","city":"TAMANA SHI","town":"IKANIKEISAIGANAIBAAI","perfecture_jp":"熊本県","jp_add_1":"玉名市","jp_add_2":""},"8650004":{"post_code":"8650004","prefecture":"KUMAMOTO KEN","city":"TAMANA SHI","town":"AOKI","perfecture_jp":"熊本県","jp_add_1":"玉名市","jp_add_2":"青木"},"8650035":{"post_code":"8650035","prefecture":"KUMAMOTO KEN","city":"TAMANA SHI","town":"AONO","perfecture_jp":"熊本県","jp_add_1":"玉名市","jp_add_2":"青野"},"8650026":{"post_code":"8650026","prefecture":"KUMAMOTO KEN","city":"TAMANA SHI","town":"AKIMARU","perfecture_jp":"熊本県","jp_add_1":"玉名市","jp_add_2":"秋丸"},"8650014":{"post_code":"8650014","prefecture":"KUMAMOTO KEN","city":"TAMANA SHI","town":"ANRAKUJI","perfecture_jp":"熊本県","jp_add_1":"玉名市","jp_add_2":"安楽寺"},"8650045":{"post_code":"8650045","prefecture":"KUMAMOTO KEN","city":"TAMANA SHI","town":"IKURA MINAMIKATA","perfecture_jp":"熊本県","jp_add_1":"玉名市","jp_add_2":"伊倉南方"},"8650041":{"post_code":"8650041","prefecture":"KUMAMOTO KEN","city":"TAMANA SHI","town":"IKURA KITAKATA","perfecture_jp":"熊本県","jp_add_1":"玉名市","jp_add_2":"伊倉北方"},"8650008":{"post_code":"8650008","prefecture":"KUMAMOTO KEN","city":"TAMANA SHI","town":"ISHINUKI","perfecture_jp":"熊本県","jp_add_1":"玉名市","jp_add_2":"石貫"},"8650016":{"post_code":"8650016","prefecture":"KUMAMOTO KEN","city":"TAMANA SHI","town":"IWASAKI","perfecture_jp":"熊本県","jp_add_1":"玉名市","jp_add_2":"岩崎"},"8650024":{"post_code":"8650024","prefecture":"KUMAMOTO KEN","city":"TAMANA SHI","town":"EITOKUJI","perfecture_jp":"熊本県","jp_add_1":"玉名市","jp_add_2":"永徳寺"},"8650023":{"post_code":"8650023","prefecture":"KUMAMOTO KEN","city":"TAMANA SHI","town":"OKURA","perfecture_jp":"熊本県","jp_add_1":"玉名市","jp_add_2":"大倉"},"8650055":{"post_code":"8650055","prefecture":"KUMAMOTO KEN","city":"TAMANA SHI","town":"OHAMAMACHI","perfecture_jp":"熊本県","jp_add_1":"玉名市","jp_add_2":"大浜町"},"8650054":{"post_code":"8650054","prefecture":"KUMAMOTO KEN","city":"TAMANA SHI","town":"OSHIMA","perfecture_jp":"熊本県","jp_add_1":"玉名市","jp_add_2":"小島"},"8650048":{"post_code":"8650048","prefecture":"KUMAMOTO KEN","city":"TAMANA SHI","town":"ONOJIRI","perfecture_jp":"熊本県","jp_add_1":"玉名市","jp_add_2":"小野尻"},"8650044":{"post_code":"8650044","prefecture":"KUMAMOTO KEN","city":"TAMANA SHI","town":"KATASUWA","perfecture_jp":"熊本県","jp_add_1":"玉名市","jp_add_2":"片諏訪"},"8650011":{"post_code":"8650011","prefecture":"KUMAMOTO KEN","city":"TAMANA SHI","town":"KAMIODA","perfecture_jp":"熊本県","jp_add_1":"玉名市","jp_add_2":"上小田"},"8650015":{"post_code":"8650015","prefecture":"KUMAMOTO KEN","city":"TAMANA SHI","town":"KAMENOKO","perfecture_jp":"熊本県","jp_add_1":"玉名市","jp_add_2":"亀甲"},"8650007":{"post_code":"8650007","prefecture":"KUMAMOTO KEN","city":"TAMANA SHI","town":"KAWASAKI","perfecture_jp":"熊本県","jp_add_1":"玉名市","jp_add_2":"河崎"},"8650047":{"post_code":"8650047","prefecture":"KUMAMOTO KEN","city":"TAMANA SHI","town":"KAWASHIMA","perfecture_jp":"熊本県","jp_add_1":"玉名市","jp_add_2":"川島"},"8650017":{"post_code":"8650017","prefecture":"KUMAMOTO KEN","city":"TAMANA SHI","town":"KAWABETA","perfecture_jp":"熊本県","jp_add_1":"玉名市","jp_add_2":"川部田"},"8650032":{"post_code":"8650032","prefecture":"KUMAMOTO KEN","city":"TAMANA SHI","town":"KITASAKAMONTA","perfecture_jp":"熊本県","jp_add_1":"玉名市","jp_add_2":"北坂門田"},"8650046":{"post_code":"8650046","prefecture":"KUMAMOTO KEN","city":"TAMANA SHI","town":"KITAMUTA","perfecture_jp":"熊本県","jp_add_1":"玉名市","jp_add_2":"北牟田"},"8650057":{"post_code":"8650057","prefecture":"KUMAMOTO KEN","city":"TAMANA SHI","town":"KOBAMA","perfecture_jp":"熊本県","jp_add_1":"玉名市","jp_add_2":"小浜"},"8650013":{"post_code":"8650013","prefecture":"KUMAMOTO KEN","city":"TAMANA SHI","town":"SHIMO","perfecture_jp":"熊本県","jp_add_1":"玉名市","jp_add_2":"下"},"8650018":{"post_code":"8650018","prefecture":"KUMAMOTO KEN","city":"TAMANA SHI","town":"SHIMODA","perfecture_jp":"熊本県","jp_add_1":"玉名市","jp_add_2":"下小田"},"8650053":{"post_code":"8650053","prefecture":"KUMAMOTO KEN","city":"TAMANA SHI","town":"SENDAGAWARA","perfecture_jp":"熊本県","jp_add_1":"玉名市","jp_add_2":"千田川原"},"8650025":{"post_code":"8650025","prefecture":"KUMAMOTO KEN","city":"TAMANA SHI","town":"TAKASE","perfecture_jp":"熊本県","jp_add_1":"玉名市","jp_add_2":"高瀬"},"8650031":{"post_code":"8650031","prefecture":"KUMAMOTO KEN","city":"TAMANA SHI","town":"TASAKI","perfecture_jp":"熊本県","jp_add_1":"玉名市","jp_add_2":"田崎"},"8650005":{"post_code":"8650005","prefecture":"KUMAMOTO KEN","city":"TAMANA SHI","town":"TAMANA","perfecture_jp":"熊本県","jp_add_1":"玉名市","jp_add_2":"玉名"},"8650065":{"post_code":"8650065","prefecture":"KUMAMOTO KEN","city":"TAMANA SHI","town":"TSUIJI","perfecture_jp":"熊本県","jp_add_1":"玉名市","jp_add_2":"築地"},"8650001":{"post_code":"8650001","prefecture":"KUMAMOTO KEN","city":"TAMANA SHI","town":"TSUKIDA","perfecture_jp":"熊本県","jp_add_1":"玉名市","jp_add_2":"月田"},"8650021":{"post_code":"8650021","prefecture":"KUMAMOTO KEN","city":"TAMANA SHI","town":"TSURU","perfecture_jp":"熊本県","jp_add_1":"玉名市","jp_add_2":"津留"},"8650022":{"post_code":"8650022","prefecture":"KUMAMOTO KEN","city":"TAMANA SHI","town":"TERADA","perfecture_jp":"熊本県","jp_add_1":"玉名市","jp_add_2":"寺田"},"8650062":{"post_code":"8650062","prefecture":"KUMAMOTO KEN","city":"TAMANA SHI","town":"TOMINO","perfecture_jp":"熊本県","jp_add_1":"玉名市","jp_add_2":"富尾"},"8650064":{"post_code":"8650064","prefecture":"KUMAMOTO KEN","city":"TAMANA SHI","town":"NAKA","perfecture_jp":"熊本県","jp_add_1":"玉名市","jp_add_2":"中"},"8650063":{"post_code":"8650063","prefecture":"KUMAMOTO KEN","city":"TAMANA SHI","town":"NAKAO","perfecture_jp":"熊本県","jp_add_1":"玉名市","jp_add_2":"中尾"},"8650033":{"post_code":"8650033","prefecture":"KUMAMOTO KEN","city":"TAMANA SHI","town":"NAKASAKAMONTA","perfecture_jp":"熊本県","jp_add_1":"玉名市","jp_add_2":"中坂門田"},"8650056":{"post_code":"8650056","prefecture":"KUMAMOTO KEN","city":"TAMANA SHI","town":"NAMEISHI","perfecture_jp":"熊本県","jp_add_1":"玉名市","jp_add_2":"滑石"},"8650002":{"post_code":"8650002","prefecture":"KUMAMOTO KEN","city":"TAMANA SHI","town":"HAKODANI","perfecture_jp":"熊本県","jp_add_1":"玉名市","jp_add_2":"箱谷"},"8650051":{"post_code":"8650051","prefecture":"KUMAMOTO KEN","city":"TAMANA SHI","town":"HANEGI","perfecture_jp":"熊本県","jp_add_1":"玉名市","jp_add_2":"繁根木"},"8650052":{"post_code":"8650052","prefecture":"KUMAMOTO KEN","city":"TAMANA SHI","town":"MATSUKI","perfecture_jp":"熊本県","jp_add_1":"玉名市","jp_add_2":"松木"},"8650003":{"post_code":"8650003","prefecture":"KUMAMOTO KEN","city":"TAMANA SHI","town":"MIZONOE","perfecture_jp":"熊本県","jp_add_1":"玉名市","jp_add_2":"溝上"},"8650009":{"post_code":"8650009","prefecture":"KUMAMOTO KEN","city":"TAMANA SHI","town":"MITSUKAWA","perfecture_jp":"熊本県","jp_add_1":"玉名市","jp_add_2":"三ツ川"},"8650034":{"post_code":"8650034","prefecture":"KUMAMOTO KEN","city":"TAMANA SHI","town":"MINAMISAKAMONTA","perfecture_jp":"熊本県","jp_add_1":"玉名市","jp_add_2":"南坂門田"},"8650042":{"post_code":"8650042","prefecture":"KUMAMOTO KEN","city":"TAMANA SHI","town":"MIYABARA","perfecture_jp":"熊本県","jp_add_1":"玉名市","jp_add_2":"宮原"},"8650027":{"post_code":"8650027","prefecture":"KUMAMOTO KEN","city":"TAMANA SHI","town":"MUKOZURU","perfecture_jp":"熊本県","jp_add_1":"玉名市","jp_add_2":"向津留"},"8650066":{"post_code":"8650066","prefecture":"KUMAMOTO KEN","city":"TAMANA SHI","town":"YAMADA","perfecture_jp":"熊本県","jp_add_1":"玉名市","jp_add_2":"山田"},"8650012":{"post_code":"8650012","prefecture":"KUMAMOTO KEN","city":"TAMANA SHI","town":"YAMABETA","perfecture_jp":"熊本県","jp_add_1":"玉名市","jp_add_2":"山部田"},"8650071":{"post_code":"8650071","prefecture":"KUMAMOTO KEN","city":"TAMANA SHI","town":"YOKOSHIMAMACHI OZONO","perfecture_jp":"熊本県","jp_add_1":"玉名市","jp_add_2":"横島町大園"},"8650073":{"post_code":"8650073","prefecture":"KUMAMOTO KEN","city":"TAMANA SHI","town":"YOKOSHIMAMACHI KYOEI","perfecture_jp":"熊本県","jp_add_1":"玉名市","jp_add_2":"横島町共栄"},"8650072":{"post_code":"8650072","prefecture":"KUMAMOTO KEN","city":"TAMANA SHI","town":"YOKOSHIMAMACHI YOKOSHIMA","perfecture_jp":"熊本県","jp_add_1":"玉名市","jp_add_2":"横島町横島"},"8650043":{"post_code":"8650043","prefecture":"KUMAMOTO KEN","city":"TAMANA SHI","town":"YOKOTA","perfecture_jp":"熊本県","jp_add_1":"玉名市","jp_add_2":"横田"},"8650061":{"post_code":"8650061","prefecture":"KUMAMOTO KEN","city":"TAMANA SHI","town":"RYUGANJI","perfecture_jp":"熊本県","jp_add_1":"玉名市","jp_add_2":"立願寺"},"8650006":{"post_code":"8650006","prefecture":"KUMAMOTO KEN","city":"TAMANA SHI","town":"RYOHAZAMA","perfecture_jp":"熊本県","jp_add_1":"玉名市","jp_add_2":"両迫間"},"8650058":{"post_code":"8650058","prefecture":"KUMAMOTO KEN","city":"TAMANA SHI","town":"ROKUTA","perfecture_jp":"熊本県","jp_add_1":"玉名市","jp_add_2":"六田"},"8650100":{"post_code":"8650100","prefecture":"KUMAMOTO KEN","city":"TAMANA GUN NAGOMI MACHI","town":"IKANIKEISAIGANAIBAAI","perfecture_jp":"熊本県","jp_add_1":"玉名郡和水町","jp_add_2":""},"8650114":{"post_code":"8650114","prefecture":"KUMAMOTO KEN","city":"TAMANA GUN NAGOMI MACHI","town":"IWASHIRI","perfecture_jp":"熊本県","jp_add_1":"玉名郡和水町","jp_add_2":"岩尻"},"8650104":{"post_code":"8650104","prefecture":"KUMAMOTO KEN","city":"TAMANA GUN NAGOMI MACHI","town":"UCHIDA","perfecture_jp":"熊本県","jp_add_1":"玉名郡和水町","jp_add_2":"内田"},"8650101":{"post_code":"8650101","prefecture":"KUMAMOTO KEN","city":"TAMANA GUN NAGOMI MACHI","town":"EGURI","perfecture_jp":"熊本県","jp_add_1":"玉名郡和水町","jp_add_2":"江栗"},"8650136":{"post_code":"8650136","prefecture":"KUMAMOTO KEN","city":"TAMANA GUN NAGOMI MACHI","town":"ETA","perfecture_jp":"熊本県","jp_add_1":"玉名郡和水町","jp_add_2":"江田"},"8650121":{"post_code":"8650121","prefecture":"KUMAMOTO KEN","city":"TAMANA GUN NAGOMI MACHI","town":"ENOKIBARU","perfecture_jp":"熊本県","jp_add_1":"玉名郡和水町","jp_add_2":"榎原"},"8650112":{"post_code":"8650112","prefecture":"KUMAMOTO KEN","city":"TAMANA GUN NAGOMI MACHI","town":"OYA","perfecture_jp":"熊本県","jp_add_1":"玉名郡和水町","jp_add_2":"大屋"},"8650116":{"post_code":"8650116","prefecture":"KUMAMOTO KEN","city":"TAMANA GUN NAGOMI MACHI","town":"KAMADO","perfecture_jp":"熊本県","jp_add_1":"玉名郡和水町","jp_add_2":"竈門"},"8650115":{"post_code":"8650115","prefecture":"KUMAMOTO KEN","city":"TAMANA GUN NAGOMI MACHI","town":"KUBENO","perfecture_jp":"熊本県","jp_add_1":"玉名郡和水町","jp_add_2":"久米野"},"8650117":{"post_code":"8650117","prefecture":"KUMAMOTO KEN","city":"TAMANA GUN NAGOMI MACHI","town":"SHIGUCHINAGA","perfecture_jp":"熊本県","jp_add_1":"玉名郡和水町","jp_add_2":"志口永"},"8650111":{"post_code":"8650111","prefecture":"KUMAMOTO KEN","city":"TAMANA GUN NAGOMI MACHI","town":"SHIMOTSUWARA","perfecture_jp":"熊本県","jp_add_1":"玉名郡和水町","jp_add_2":"下津原"},"8650135":{"post_code":"8650135","prefecture":"KUMAMOTO KEN","city":"TAMANA GUN NAGOMI MACHI","town":"SEGAWA","perfecture_jp":"熊本県","jp_add_1":"玉名郡和水町","jp_add_2":"瀬川"},"8650122":{"post_code":"8650122","prefecture":"KUMAMOTO KEN","city":"TAMANA GUN NAGOMI MACHI","town":"TAKANO","perfecture_jp":"熊本県","jp_add_1":"玉名郡和水町","jp_add_2":"高野"},"8650103":{"post_code":"8650103","prefecture":"KUMAMOTO KEN","city":"TAMANA GUN NAGOMI MACHI","town":"NAGAODA","perfecture_jp":"熊本県","jp_add_1":"玉名郡和水町","jp_add_2":"長小田"},"8650132":{"post_code":"8650132","prefecture":"KUMAMOTO KEN","city":"TAMANA GUN NAGOMI MACHI","town":"HAGIWARA","perfecture_jp":"熊本県","jp_add_1":"玉名郡和水町","jp_add_2":"萩原"},"8650124":{"post_code":"8650124","prefecture":"KUMAMOTO KEN","city":"TAMANA GUN NAGOMI MACHI","town":"HARUGUCHI","perfecture_jp":"熊本県","jp_add_1":"玉名郡和水町","jp_add_2":"原口"},"8650102":{"post_code":"8650102","prefecture":"KUMAMOTO KEN","city":"TAMANA GUN NAGOMI MACHI","town":"HISAIBARU","perfecture_jp":"熊本県","jp_add_1":"玉名郡和水町","jp_add_2":"久井原"},"8650134":{"post_code":"8650134","prefecture":"KUMAMOTO KEN","city":"TAMANA GUN NAGOMI MACHI","town":"HIBIRA","perfecture_jp":"熊本県","jp_add_1":"玉名郡和水町","jp_add_2":"日平"},"8650125":{"post_code":"8650125","prefecture":"KUMAMOTO KEN","city":"TAMANA GUN NAGOMI MACHI","town":"FUJITA","perfecture_jp":"熊本県","jp_add_1":"玉名郡和水町","jp_add_2":"藤田"},"8650133":{"post_code":"8650133","prefecture":"KUMAMOTO KEN","city":"TAMANA GUN NAGOMI MACHI","town":"HEBORA","perfecture_jp":"熊本県","jp_add_1":"玉名郡和水町","jp_add_2":"蜻浦"},"8650126":{"post_code":"8650126","prefecture":"KUMAMOTO KEN","city":"TAMANA GUN NAGOMI MACHI","town":"MAEBARU","perfecture_jp":"熊本県","jp_add_1":"玉名郡和水町","jp_add_2":"前原"},"8650123":{"post_code":"8650123","prefecture":"KUMAMOTO KEN","city":"TAMANA GUN NAGOMI MACHI","town":"MEDO","perfecture_jp":"熊本県","jp_add_1":"玉名郡和水町","jp_add_2":"米渡尾"},"8650131":{"post_code":"8650131","prefecture":"KUMAMOTO KEN","city":"TAMANA GUN NAGOMI MACHI","town":"MOTEGI","perfecture_jp":"熊本県","jp_add_1":"玉名郡和水町","jp_add_2":"用木"},"8650113":{"post_code":"8650113","prefecture":"KUMAMOTO KEN","city":"TAMANA GUN NAGOMI MACHI","town":"YAIGOME","perfecture_jp":"熊本県","jp_add_1":"玉名郡和水町","jp_add_2":"焼米"}}