{"8695152":{"post_code":"8695152","prefecture":"KUMAMOTO KEN","city":"YATSUSHIRO SHI","town":"AGEMACHI","perfecture_jp":"熊本県","jp_add_1":"八代市","jp_add_2":"揚町"},"8694501":{"post_code":"8694501","prefecture":"KUMAMOTO KEN","city":"YATSUSHIRO SHI","town":"IZUMIMACHI KAKIZAKO(8628-BANCHI)","perfecture_jp":"熊本県","jp_add_1":"八代市","jp_add_2":"泉町柿迫"},"8694401":{"post_code":"8694401","prefecture":"KUMAMOTO KEN","city":"YATSUSHIRO SHI","town":"IZUMIMACHI KAKIZAKO(SONOTA)","perfecture_jp":"熊本県","jp_add_1":"八代市","jp_add_2":"泉町柿迫"},"8694402":{"post_code":"8694402","prefecture":"KUMAMOTO KEN","city":"YATSUSHIRO SHI","town":"IZUMIMACHI KURIGI","perfecture_jp":"熊本県","jp_add_1":"八代市","jp_add_2":"泉町栗木"},"8694513":{"post_code":"8694513","prefecture":"KUMAMOTO KEN","city":"YATSUSHIRO SHI","town":"IZUMIMACHI KUREKO","perfecture_jp":"熊本県","jp_add_1":"八代市","jp_add_2":"泉町久連子"},"8694514":{"post_code":"8694514","prefecture":"KUMAMOTO KEN","city":"YATSUSHIRO SHI","town":"IZUMIMACHI SHIIBARU","perfecture_jp":"熊本県","jp_add_1":"八代市","jp_add_2":"泉町椎原"},"8694403":{"post_code":"8694403","prefecture":"KUMAMOTO KEN","city":"YATSUSHIRO SHI","town":"IZUMIMACHI SHIMODAKE","perfecture_jp":"熊本県","jp_add_1":"八代市","jp_add_2":"泉町下岳"},"8694515":{"post_code":"8694515","prefecture":"KUMAMOTO KEN","city":"YATSUSHIRO SHI","town":"IZUMIMACHI NITAO","perfecture_jp":"熊本県","jp_add_1":"八代市","jp_add_2":"泉町仁田尾"},"8694511":{"post_code":"8694511","prefecture":"KUMAMOTO KEN","city":"YATSUSHIRO SHI","town":"IZUMIMACHI HAGI","perfecture_jp":"熊本県","jp_add_1":"八代市","jp_add_2":"泉町葉木"},"8694512":{"post_code":"8694512","prefecture":"KUMAMOTO KEN","city":"YATSUSHIRO SHI","town":"IZUMIMACHI MOMIGI","perfecture_jp":"熊本県","jp_add_1":"八代市","jp_add_2":"泉町樅木"},"8694611":{"post_code":"8694611","prefecture":"KUMAMOTO KEN","city":"YATSUSHIRO SHI","town":"OKAMACHI SHOJI","perfecture_jp":"熊本県","jp_add_1":"八代市","jp_add_2":"岡町小路"},"8694613":{"post_code":"8694613","prefecture":"KUMAMOTO KEN","city":"YATSUSHIRO SHI","town":"OKAMACHI TANIGAWA","perfecture_jp":"熊本県","jp_add_1":"八代市","jp_add_2":"岡町谷川"},"8694612":{"post_code":"8694612","prefecture":"KUMAMOTO KEN","city":"YATSUSHIRO SHI","town":"OKAMACHI NAKA","perfecture_jp":"熊本県","jp_add_1":"八代市","jp_add_2":"岡町中"},"8694213":{"post_code":"8694213","prefecture":"KUMAMOTO KEN","city":"YATSUSHIRO SHI","town":"KAGAMIMACHI ARISA","perfecture_jp":"熊本県","jp_add_1":"八代市","jp_add_2":"鏡町有佐"},"8694202":{"post_code":"8694202","prefecture":"KUMAMOTO KEN","city":"YATSUSHIRO SHI","town":"KAGAMIMACHI UCHIDA","perfecture_jp":"熊本県","jp_add_1":"八代市","jp_add_2":"鏡町内田"},"8694223":{"post_code":"8694223","prefecture":"KUMAMOTO KEN","city":"YATSUSHIRO SHI","town":"KAGAMIMACHI KAIZU","perfecture_jp":"熊本県","jp_add_1":"八代市","jp_add_2":"鏡町貝洲"},"8694203":{"post_code":"8694203","prefecture":"KUMAMOTO KEN","city":"YATSUSHIRO SHI","town":"KAGAMIMACHI KAGAMI","perfecture_jp":"熊本県","jp_add_1":"八代市","jp_add_2":"鏡町鏡"},"8694201":{"post_code":"8694201","prefecture":"KUMAMOTO KEN","city":"YATSUSHIRO SHI","town":"KAGAMIMACHI KAGAMIMURA","perfecture_jp":"熊本県","jp_add_1":"八代市","jp_add_2":"鏡町鏡村"},"8694211":{"post_code":"8694211","prefecture":"KUMAMOTO KEN","city":"YATSUSHIRO SHI","town":"KAGAMIMACHI KAMIKAGAMI","perfecture_jp":"熊本県","jp_add_1":"八代市","jp_add_2":"鏡町上鏡"},"8694225":{"post_code":"8694225","prefecture":"KUMAMOTO KEN","city":"YATSUSHIRO SHI","town":"KAGAMIMACHI KITASHINCHI","perfecture_jp":"熊本県","jp_add_1":"八代市","jp_add_2":"鏡町北新地"},"8694224":{"post_code":"8694224","prefecture":"KUMAMOTO KEN","city":"YATSUSHIRO SHI","town":"KAGAMIMACHI SHIOHAMA","perfecture_jp":"熊本県","jp_add_1":"八代市","jp_add_2":"鏡町塩浜"},"8694204":{"post_code":"8694204","prefecture":"KUMAMOTO KEN","city":"YATSUSHIRO SHI","town":"KAGAMIMACHI SHIBAKUCHI","perfecture_jp":"熊本県","jp_add_1":"八代市","jp_add_2":"鏡町芝口"},"8694212":{"post_code":"8694212","prefecture":"KUMAMOTO KEN","city":"YATSUSHIRO SHI","town":"KAGAMIMACHI SHIMOARISA","perfecture_jp":"熊本県","jp_add_1":"八代市","jp_add_2":"鏡町下有佐"},"8694215":{"post_code":"8694215","prefecture":"KUMAMOTO KEN","city":"YATSUSHIRO SHI","town":"KAGAMIMACHI SHIMOMURA","perfecture_jp":"熊本県","jp_add_1":"八代市","jp_add_2":"鏡町下村"},"8694214":{"post_code":"8694214","prefecture":"KUMAMOTO KEN","city":"YATSUSHIRO SHI","town":"KAGAMIMACHI NAKASHIMA","perfecture_jp":"熊本県","jp_add_1":"八代市","jp_add_2":"鏡町中島"},"8694205":{"post_code":"8694205","prefecture":"KUMAMOTO KEN","city":"YATSUSHIRO SHI","town":"KAGAMIMACHI NOZAKI","perfecture_jp":"熊本県","jp_add_1":"八代市","jp_add_2":"鏡町野崎"},"8694221":{"post_code":"8694221","prefecture":"KUMAMOTO KEN","city":"YATSUSHIRO SHI","town":"KAGAMIMACHI HODE","perfecture_jp":"熊本県","jp_add_1":"八代市","jp_add_2":"鏡町宝出"},"8694222":{"post_code":"8694222","prefecture":"KUMAMOTO KEN","city":"YATSUSHIRO SHI","town":"KAGAMIMACHI RYODE","perfecture_jp":"熊本県","jp_add_1":"八代市","jp_add_2":"鏡町両出"},"8694615":{"post_code":"8694615","prefecture":"KUMAMOTO KEN","city":"YATSUSHIRO SHI","town":"KAWATAMACHI HIGASHI","perfecture_jp":"熊本県","jp_add_1":"八代市","jp_add_2":"川田町東"},"8694616":{"post_code":"8694616","prefecture":"KUMAMOTO KEN","city":"YATSUSHIRO SHI","town":"KAWATAMACHI NISHI","perfecture_jp":"熊本県","jp_add_1":"八代市","jp_add_2":"川田町西"},"8695162":{"post_code":"8695162","prefecture":"KUMAMOTO KEN","city":"YATSUSHIRO SHI","town":"KITABARAMACHI","perfecture_jp":"熊本県","jp_add_1":"八代市","jp_add_2":"北原町"},"8695166":{"post_code":"8695166","prefecture":"KUMAMOTO KEN","city":"YATSUSHIRO SHI","town":"KITAHEIWAMACHI","perfecture_jp":"熊本県","jp_add_1":"八代市","jp_add_2":"北平和町"},"8694614":{"post_code":"8694614","prefecture":"KUMAMOTO KEN","city":"YATSUSHIRO SHI","town":"KOZENJIMACHI","perfecture_jp":"熊本県","jp_add_1":"八代市","jp_add_2":"興善寺町"},"8696104":{"post_code":"8696104","prefecture":"KUMAMOTO KEN","city":"YATSUSHIRO SHI","town":"SAKAMOTOMACHI AYUGAERI","perfecture_jp":"熊本県","jp_add_1":"八代市","jp_add_2":"坂本町鮎帰"},"8696115":{"post_code":"8696115","prefecture":"KUMAMOTO KEN","city":"YATSUSHIRO SHI","town":"SAKAMOTOMACHI ARASE","perfecture_jp":"熊本県","jp_add_1":"八代市","jp_add_2":"坂本町荒瀬"},"8696114":{"post_code":"8696114","prefecture":"KUMAMOTO KEN","city":"YATSUSHIRO SHI","town":"SAKAMOTOMACHI ICHINOMATA","perfecture_jp":"熊本県","jp_add_1":"八代市","jp_add_2":"坂本町市ノ俣"},"8696112":{"post_code":"8696112","prefecture":"KUMAMOTO KEN","city":"YATSUSHIRO SHI","town":"SAKAMOTOMACHI KAMASE","perfecture_jp":"熊本県","jp_add_1":"八代市","jp_add_2":"坂本町鎌瀬"},"8695221":{"post_code":"8695221","prefecture":"KUMAMOTO KEN","city":"YATSUSHIRO SHI","town":"SAKAMOTOMACHI KAWATAKE","perfecture_jp":"熊本県","jp_add_1":"八代市","jp_add_2":"坂本町川嶽"},"8695225":{"post_code":"8695225","prefecture":"KUMAMOTO KEN","city":"YATSUSHIRO SHI","town":"SAKAMOTOMACHI KUDARAGIKAMI","perfecture_jp":"熊本県","jp_add_1":"八代市","jp_add_2":"坂本町百済来上"},"8695224":{"post_code":"8695224","prefecture":"KUMAMOTO KEN","city":"YATSUSHIRO SHI","town":"SAKAMOTOMACHI KUDARAGISHIMO","perfecture_jp":"熊本県","jp_add_1":"八代市","jp_add_2":"坂本町百済来下"},"8696101":{"post_code":"8696101","prefecture":"KUMAMOTO KEN","city":"YATSUSHIRO SHI","town":"SAKAMOTOMACHI SAIBU","perfecture_jp":"熊本県","jp_add_1":"八代市","jp_add_2":"坂本町西部"},"8696105":{"post_code":"8696105","prefecture":"KUMAMOTO KEN","city":"YATSUSHIRO SHI","town":"SAKAMOTOMACHI SAKAMOTO","perfecture_jp":"熊本県","jp_add_1":"八代市","jp_add_2":"坂本町坂本"},"8695223":{"post_code":"8695223","prefecture":"KUMAMOTO KEN","city":"YATSUSHIRO SHI","town":"SAKAMOTOMACHI TAGAMI","perfecture_jp":"熊本県","jp_add_1":"八代市","jp_add_2":"坂本町田上"},"8695222":{"post_code":"8695222","prefecture":"KUMAMOTO KEN","city":"YATSUSHIRO SHI","town":"SAKAMOTOMACHI TSURUBAMI","perfecture_jp":"熊本県","jp_add_1":"八代市","jp_add_2":"坂本町鶴喰"},"8696103":{"post_code":"8696103","prefecture":"KUMAMOTO KEN","city":"YATSUSHIRO SHI","town":"SAKAMOTOMACHI NAKATANI","perfecture_jp":"熊本県","jp_add_1":"八代市","jp_add_2":"坂本町中谷"},"8696113":{"post_code":"8696113","prefecture":"KUMAMOTO KEN","city":"YATSUSHIRO SHI","town":"SAKAMOTOMACHI NAKATSUMICHI","perfecture_jp":"熊本県","jp_add_1":"八代市","jp_add_2":"坂本町中津道"},"8696111":{"post_code":"8696111","prefecture":"KUMAMOTO KEN","city":"YATSUSHIRO SHI","town":"SAKAMOTOMACHI HAGI","perfecture_jp":"熊本県","jp_add_1":"八代市","jp_add_2":"坂本町葉木"},"8696102":{"post_code":"8696102","prefecture":"KUMAMOTO KEN","city":"YATSUSHIRO SHI","town":"SAKAMOTOMACHI FUKAMI","perfecture_jp":"熊本県","jp_add_1":"八代市","jp_add_2":"坂本町深水"},"8695151":{"post_code":"8695151","prefecture":"KUMAMOTO KEN","city":"YATSUSHIRO SHI","town":"SHIKIGAWACHIMACHI","perfecture_jp":"熊本県","jp_add_1":"八代市","jp_add_2":"敷川内町"},"8694723":{"post_code":"8694723","prefecture":"KUMAMOTO KEN","city":"YATSUSHIRO SHI","town":"SHOWA DOJIMMACHI","perfecture_jp":"熊本県","jp_add_1":"八代市","jp_add_2":"昭和同仁町"},"8694721":{"post_code":"8694721","prefecture":"KUMAMOTO KEN","city":"YATSUSHIRO SHI","town":"SHOWA NISSHIMMACHI","perfecture_jp":"熊本県","jp_add_1":"八代市","jp_add_2":"昭和日進町"},"8694722":{"post_code":"8694722","prefecture":"KUMAMOTO KEN","city":"YATSUSHIRO SHI","town":"SHOWA MEICHOMACHI","perfecture_jp":"熊本県","jp_add_1":"八代市","jp_add_2":"昭和明徴町"},"8694701":{"post_code":"8694701","prefecture":"KUMAMOTO KEN","city":"YATSUSHIRO SHI","town":"SENCHOMACHI OMUTA","perfecture_jp":"熊本県","jp_add_1":"八代市","jp_add_2":"千丁町太牟田"},"8694704":{"post_code":"8694704","prefecture":"KUMAMOTO KEN","city":"YATSUSHIRO SHI","town":"SENCHOMACHI KOGADE","perfecture_jp":"熊本県","jp_add_1":"八代市","jp_add_2":"千丁町古閑出"},"8694703":{"post_code":"8694703","prefecture":"KUMAMOTO KEN","city":"YATSUSHIRO SHI","town":"SENCHOMACHI SHIMMUTA","perfecture_jp":"熊本県","jp_add_1":"八代市","jp_add_2":"千丁町新牟田"},"8694702":{"post_code":"8694702","prefecture":"KUMAMOTO KEN","city":"YATSUSHIRO SHI","town":"SENCHOMACHI YOSHIOMARU","perfecture_jp":"熊本県","jp_add_1":"八代市","jp_add_2":"千丁町吉王丸"},"8695164":{"post_code":"8695164","prefecture":"KUMAMOTO KEN","city":"YATSUSHIRO SHI","town":"SOZOMACHI","perfecture_jp":"熊本県","jp_add_1":"八代市","jp_add_2":"鼠蔵町"},"8695154":{"post_code":"8695154","prefecture":"KUMAMOTO KEN","city":"YATSUSHIRO SHI","town":"TAKAUEHOMMACHI","perfecture_jp":"熊本県","jp_add_1":"八代市","jp_add_2":"高植本町"},"8694303":{"post_code":"8694303","prefecture":"KUMAMOTO KEN","city":"YATSUSHIRO SHI","town":"TOYOMACHI KAWAMATA","perfecture_jp":"熊本県","jp_add_1":"八代市","jp_add_2":"東陽町河俣"},"8694302":{"post_code":"8694302","prefecture":"KUMAMOTO KEN","city":"YATSUSHIRO SHI","town":"TOYOMACHI KITA","perfecture_jp":"熊本県","jp_add_1":"八代市","jp_add_2":"東陽町北"},"8694304":{"post_code":"8694304","prefecture":"KUMAMOTO KEN","city":"YATSUSHIRO SHI","town":"TOYOMACHI KORA","perfecture_jp":"熊本県","jp_add_1":"八代市","jp_add_2":"東陽町小浦"},"8694301":{"post_code":"8694301","prefecture":"KUMAMOTO KEN","city":"YATSUSHIRO SHI","town":"TOYOMACHI MINAMI","perfecture_jp":"熊本県","jp_add_1":"八代市","jp_add_2":"東陽町南"},"8695146":{"post_code":"8695146","prefecture":"KUMAMOTO KEN","city":"YATSUSHIRO SHI","town":"HINAGU OTSUBOMACHI","perfecture_jp":"熊本県","jp_add_1":"八代市","jp_add_2":"日奈久大坪町"},"8695134":{"post_code":"8695134","prefecture":"KUMAMOTO KEN","city":"YATSUSHIRO SHI","town":"HINAGU KAMINISHIMACHI","perfecture_jp":"熊本県","jp_add_1":"八代市","jp_add_2":"日奈久上西町"},"8695133":{"post_code":"8695133","prefecture":"KUMAMOTO KEN","city":"YATSUSHIRO SHI","town":"HINAGU NAKANISHIMACHI","perfecture_jp":"熊本県","jp_add_1":"八代市","jp_add_2":"日奈久中西町"},"8695132":{"post_code":"8695132","prefecture":"KUMAMOTO KEN","city":"YATSUSHIRO SHI","town":"HINAGU SHIMONISHIMACHI","perfecture_jp":"熊本県","jp_add_1":"八代市","jp_add_2":"日奈久下西町"},"8695148":{"post_code":"8695148","prefecture":"KUMAMOTO KEN","city":"YATSUSHIRO SHI","town":"HINAGU SAKAEMACHI","perfecture_jp":"熊本県","jp_add_1":"八代市","jp_add_2":"日奈久栄町"},"8695141":{"post_code":"8695141","prefecture":"KUMAMOTO KEN","city":"YATSUSHIRO SHI","town":"HINAGU SHIOMINAMIMACHI","perfecture_jp":"熊本県","jp_add_1":"八代市","jp_add_2":"日奈久塩南町"},"8695142":{"post_code":"8695142","prefecture":"KUMAMOTO KEN","city":"YATSUSHIRO SHI","town":"HINAGU SHIOKITAMACHI","perfecture_jp":"熊本県","jp_add_1":"八代市","jp_add_2":"日奈久塩北町"},"8695147":{"post_code":"8695147","prefecture":"KUMAMOTO KEN","city":"YATSUSHIRO SHI","town":"HINAGU SHINKAIMACHI","perfecture_jp":"熊本県","jp_add_1":"八代市","jp_add_2":"日奈久新開町"},"8695145":{"post_code":"8695145","prefecture":"KUMAMOTO KEN","city":"YATSUSHIRO SHI","town":"HINAGU SHINDEMMACHI","perfecture_jp":"熊本県","jp_add_1":"八代市","jp_add_2":"日奈久新田町"},"8695143":{"post_code":"8695143","prefecture":"KUMAMOTO KEN","city":"YATSUSHIRO SHI","town":"HINAGU TAKENOCHIMACHI","perfecture_jp":"熊本県","jp_add_1":"八代市","jp_add_2":"日奈久竹之内町"},"8695135":{"post_code":"8695135","prefecture":"KUMAMOTO KEN","city":"YATSUSHIRO SHI","town":"HINAGU NAKAMACHI","perfecture_jp":"熊本県","jp_add_1":"八代市","jp_add_2":"日奈久中町"},"8695137":{"post_code":"8695137","prefecture":"KUMAMOTO KEN","city":"YATSUSHIRO SHI","town":"HINAGU HAMAMACHI","perfecture_jp":"熊本県","jp_add_1":"八代市","jp_add_2":"日奈久浜町"},"8695136":{"post_code":"8695136","prefecture":"KUMAMOTO KEN","city":"YATSUSHIRO SHI","town":"HINAGU HIGASHIMACHI","perfecture_jp":"熊本県","jp_add_1":"八代市","jp_add_2":"日奈久東町"},"8695138":{"post_code":"8695138","prefecture":"KUMAMOTO KEN","city":"YATSUSHIRO SHI","town":"HINAGU HEISEIMACHI","perfecture_jp":"熊本県","jp_add_1":"八代市","jp_add_2":"日奈久平成町"},"8695131":{"post_code":"8695131","prefecture":"KUMAMOTO KEN","city":"YATSUSHIRO SHI","town":"HINAGU MAGOSHIMACHI","perfecture_jp":"熊本県","jp_add_1":"八代市","jp_add_2":"日奈久馬越町"},"8695144":{"post_code":"8695144","prefecture":"KUMAMOTO KEN","city":"YATSUSHIRO SHI","town":"HINAGU YAMASHITAMACHI","perfecture_jp":"熊本県","jp_add_1":"八代市","jp_add_2":"日奈久山下町"},"8695173":{"post_code":"8695173","prefecture":"KUMAMOTO KEN","city":"YATSUSHIRO SHI","town":"FUTAMI AKAMATSUMACHI","perfecture_jp":"熊本県","jp_add_1":"八代市","jp_add_2":"二見赤松町"},"8695174":{"post_code":"8695174","prefecture":"KUMAMOTO KEN","city":"YATSUSHIRO SHI","town":"FUTAMI SHIMOONOMACHI","perfecture_jp":"熊本県","jp_add_1":"八代市","jp_add_2":"二見下大野町"},"8695171":{"post_code":"8695171","prefecture":"KUMAMOTO KEN","city":"YATSUSHIRO SHI","town":"FUTAMI SUGUCHIMACHI","perfecture_jp":"熊本県","jp_add_1":"八代市","jp_add_2":"二見洲口町"},"8695175":{"post_code":"8695175","prefecture":"KUMAMOTO KEN","city":"YATSUSHIRO SHI","town":"FUTAMI NOTAZAKIMACHI","perfecture_jp":"熊本県","jp_add_1":"八代市","jp_add_2":"二見野田崎町"},"8695172":{"post_code":"8695172","prefecture":"KUMAMOTO KEN","city":"YATSUSHIRO SHI","town":"FUTAMI HOMMACHI","perfecture_jp":"熊本県","jp_add_1":"八代市","jp_add_2":"二見本町"},"8695155":{"post_code":"8695155","prefecture":"KUMAMOTO KEN","city":"YATSUSHIRO SHI","town":"MIZUSHIMAMACHI","perfecture_jp":"熊本県","jp_add_1":"八代市","jp_add_2":"水島町"},"8695163":{"post_code":"8695163","prefecture":"KUMAMOTO KEN","city":"YATSUSHIRO SHI","town":"MITSUEGOMACHI","perfecture_jp":"熊本県","jp_add_1":"八代市","jp_add_2":"三江湖町"},"8695165":{"post_code":"8695165","prefecture":"KUMAMOTO KEN","city":"YATSUSHIRO SHI","town":"MINAMIHEIWAMACHI","perfecture_jp":"熊本県","jp_add_1":"八代市","jp_add_2":"南平和町"},"8695153":{"post_code":"8695153","prefecture":"KUMAMOTO KEN","city":"YATSUSHIRO SHI","town":"MOYAIMACHI","perfecture_jp":"熊本県","jp_add_1":"八代市","jp_add_2":"催合町"},"8695161":{"post_code":"8695161","prefecture":"KUMAMOTO KEN","city":"YATSUSHIRO SHI","town":"YOSHIMUTAMACHI","perfecture_jp":"熊本県","jp_add_1":"八代市","jp_add_2":"葭牟田町"},"8690213":{"post_code":"8690213","prefecture":"KUMAMOTO KEN","city":"TAMANA SHI","town":"TAIMEIMACHI OGIZAKI","perfecture_jp":"熊本県","jp_add_1":"玉名市","jp_add_2":"岱明町扇崎"},"8690224":{"post_code":"8690224","prefecture":"KUMAMOTO KEN","city":"TAMANA SHI","town":"TAIMEIMACHI ONOSHIMO","perfecture_jp":"熊本県","jp_add_1":"玉名市","jp_add_2":"岱明町大野下"},"8690235":{"post_code":"8690235","prefecture":"KUMAMOTO KEN","city":"TAMANA SHI","town":"TAIMEIMACHI JO(HIBARIGAOKA)","perfecture_jp":"熊本県","jp_add_1":"玉名市","jp_add_2":"岱明町古閑"},"8690233":{"post_code":"8690233","prefecture":"KUMAMOTO KEN","city":"TAMANA SHI","town":"TAIMEIMACHI KOGA(SONOTA)","perfecture_jp":"熊本県","jp_add_1":"玉名市","jp_add_2":"岱明町古閑"},"8690236":{"post_code":"8690236","prefecture":"KUMAMOTO KEN","city":"TAMANA SHI","town":"TAIMEIMACHI SAISHOJI(SONOTA)","perfecture_jp":"熊本県","jp_add_1":"玉名市","jp_add_2":"岱明町西照寺"},"8690212":{"post_code":"8690212","prefecture":"KUMAMOTO KEN","city":"TAMANA SHI","town":"TAIMEIMACHI SHIMOKINOSU","perfecture_jp":"熊本県","jp_add_1":"玉名市","jp_add_2":"岱明町下沖洲"},"8690221":{"post_code":"8690221","prefecture":"KUMAMOTO KEN","city":"TAMANA SHI","town":"TAIMEIMACHI SHIMOMAEHARA","perfecture_jp":"熊本県","jp_add_1":"玉名市","jp_add_2":"岱明町下前原"},"8690232":{"post_code":"8690232","prefecture":"KUMAMOTO KEN","city":"TAMANA SHI","town":"TAIMEIMACHI JO(SONOTA)","perfecture_jp":"熊本県","jp_add_1":"玉名市","jp_add_2":"岱明町上"},"8690231":{"post_code":"8690231","prefecture":"KUMAMOTO KEN","city":"TAMANA SHI","town":"TAIMEIMACHI SHOYAMA","perfecture_jp":"熊本県","jp_add_1":"玉名市","jp_add_2":"岱明町庄山"},"8690202":{"post_code":"8690202","prefecture":"KUMAMOTO KEN","city":"TAMANA SHI","town":"TAIMEIMACHI TAKAMICHI","perfecture_jp":"熊本県","jp_add_1":"玉名市","jp_add_2":"岱明町高道"},"8690223":{"post_code":"8690223","prefecture":"KUMAMOTO KEN","city":"TAMANA SHI","town":"TAIMEIMACHI NAKADO","perfecture_jp":"熊本県","jp_add_1":"玉名市","jp_add_2":"岱明町中土"},"8690211":{"post_code":"8690211","prefecture":"KUMAMOTO KEN","city":"TAMANA SHI","town":"TAIMEIMACHI NABE","perfecture_jp":"熊本県","jp_add_1":"玉名市","jp_add_2":"岱明町鍋"},"8690222":{"post_code":"8690222","prefecture":"KUMAMOTO KEN","city":"TAMANA SHI","town":"TAIMEIMACHI NOGUCHI","perfecture_jp":"熊本県","jp_add_1":"玉名市","jp_add_2":"岱明町野口"},"8690203":{"post_code":"8690203","prefecture":"KUMAMOTO KEN","city":"TAMANA SHI","town":"TAIMEIMACHI HAMADA","perfecture_jp":"熊本県","jp_add_1":"玉名市","jp_add_2":"岱明町浜田"},"8690238":{"post_code":"8690238","prefecture":"KUMAMOTO KEN","city":"TAMANA SHI","town":"TAIMEIMACHI HIRAKIDA","perfecture_jp":"熊本県","jp_add_1":"玉名市","jp_add_2":"岱明町開田"},"8690234":{"post_code":"8690234","prefecture":"KUMAMOTO KEN","city":"TAMANA SHI","town":"TAIMEIMACHI MISAKI","perfecture_jp":"熊本県","jp_add_1":"玉名市","jp_add_2":"岱明町三崎"},"8690201":{"post_code":"8690201","prefecture":"KUMAMOTO KEN","city":"TAMANA SHI","town":"TAIMEIMACHI YAMASHITA","perfecture_jp":"熊本県","jp_add_1":"玉名市","jp_add_2":"岱明町山下"},"8691206":{"post_code":"8691206","prefecture":"KUMAMOTO KEN","city":"KIKUCHI SHI","town":"KYOKUSHI ISAKA","perfecture_jp":"熊本県","jp_add_1":"菊池市","jp_add_2":"旭志伊坂"},"8691208":{"post_code":"8691208","prefecture":"KUMAMOTO KEN","city":"KIKUCHI SHI","town":"KYOKUSHI IHAGI","perfecture_jp":"熊本県","jp_add_1":"菊池市","jp_add_2":"旭志伊萩"},"8691203":{"post_code":"8691203","prefecture":"KUMAMOTO KEN","city":"KIKUCHI SHI","town":"KYOKUSHI OTARU","perfecture_jp":"熊本県","jp_add_1":"菊池市","jp_add_2":"旭志尾足"},"8691204":{"post_code":"8691204","prefecture":"KUMAMOTO KEN","city":"KIKUCHI SHI","town":"KYOKUSHI OBARU","perfecture_jp":"熊本県","jp_add_1":"菊池市","jp_add_2":"旭志小原"},"8691205":{"post_code":"8691205","prefecture":"KUMAMOTO KEN","city":"KIKUCHI SHI","town":"KYOKUSHI KAWABE","perfecture_jp":"熊本県","jp_add_1":"菊池市","jp_add_2":"旭志川辺"},"8691207":{"post_code":"8691207","prefecture":"KUMAMOTO KEN","city":"KIKUCHI SHI","town":"KYOKUSHI SHIMMEI","perfecture_jp":"熊本県","jp_add_1":"菊池市","jp_add_2":"旭志新明"},"8691202":{"post_code":"8691202","prefecture":"KUMAMOTO KEN","city":"KIKUCHI SHI","town":"KYOKUSHI FUMOTO","perfecture_jp":"熊本県","jp_add_1":"菊池市","jp_add_2":"旭志麓"},"8691201":{"post_code":"8691201","prefecture":"KUMAMOTO KEN","city":"KIKUCHI SHI","town":"KYOKUSHI BENRI","perfecture_jp":"熊本県","jp_add_1":"菊池市","jp_add_2":"旭志弁利"},"8690400":{"post_code":"8690400","prefecture":"KUMAMOTO KEN","city":"UTO SHI","town":"IKANIKEISAIGANAIBAAI","perfecture_jp":"熊本県","jp_add_1":"宇土市","jp_add_2":""},"8693175":{"post_code":"8693175","prefecture":"KUMAMOTO KEN","city":"UTO SHI","town":"AKASEMACHI","perfecture_jp":"熊本県","jp_add_1":"宇土市","jp_add_2":"赤瀬町"},"8690432":{"post_code":"8690432","prefecture":"KUMAMOTO KEN","city":"UTO SHI","town":"ASAHIMACHI","perfecture_jp":"熊本県","jp_add_1":"宇土市","jp_add_2":"旭町"},"8690465":{"post_code":"8690465","prefecture":"KUMAMOTO KEN","city":"UTO SHI","town":"ABIKIMACHI","perfecture_jp":"熊本県","jp_add_1":"宇土市","jp_add_2":"網引町"},"8690461":{"post_code":"8690461","prefecture":"KUMAMOTO KEN","city":"UTO SHI","town":"AMIZUMACHI","perfecture_jp":"熊本県","jp_add_1":"宇土市","jp_add_2":"網津町"},"8690441":{"post_code":"8690441","prefecture":"KUMAMOTO KEN","city":"UTO SHI","town":"ISHIKOJIMACHI","perfecture_jp":"熊本県","jp_add_1":"宇土市","jp_add_2":"石小路町"},"8690456":{"post_code":"8690456","prefecture":"KUMAMOTO KEN","city":"UTO SHI","town":"ISHIBASHIMACHI","perfecture_jp":"熊本県","jp_add_1":"宇土市","jp_add_2":"石橋町"},"8690435":{"post_code":"8690435","prefecture":"KUMAMOTO KEN","city":"UTO SHI","town":"ICHIRIGIMACHI","perfecture_jp":"熊本県","jp_add_1":"宇土市","jp_add_2":"一里木町"},"8690423":{"post_code":"8690423","prefecture":"KUMAMOTO KEN","city":"UTO SHI","town":"IMUTAMACHI","perfecture_jp":"熊本県","jp_add_1":"宇土市","jp_add_2":"伊無田町"},"8690422":{"post_code":"8690422","prefecture":"KUMAMOTO KEN","city":"UTO SHI","town":"IRICHIMACHI","perfecture_jp":"熊本県","jp_add_1":"宇土市","jp_add_2":"入地町"},"8690412":{"post_code":"8690412","prefecture":"KUMAMOTO KEN","city":"UTO SHI","town":"IWAKOSOMACHI","perfecture_jp":"熊本県","jp_add_1":"宇土市","jp_add_2":"岩古曽町"},"8690405":{"post_code":"8690405","prefecture":"KUMAMOTO KEN","city":"UTO SHI","town":"UMANOSEMACHI","perfecture_jp":"熊本県","jp_add_1":"宇土市","jp_add_2":"馬之瀬町"},"8690445":{"post_code":"8690445","prefecture":"KUMAMOTO KEN","city":"UTO SHI","town":"URATAMACHI","perfecture_jp":"熊本県","jp_add_1":"宇土市","jp_add_2":"浦田町"},"8690464":{"post_code":"8690464","prefecture":"KUMAMOTO KEN","city":"UTO SHI","town":"EZUKAMACHI","perfecture_jp":"熊本県","jp_add_1":"宇土市","jp_add_2":"恵塚町"},"8693172":{"post_code":"8693172","prefecture":"KUMAMOTO KEN","city":"UTO SHI","town":"KAMIODAMACHI","perfecture_jp":"熊本県","jp_add_1":"宇土市","jp_add_2":"上網田町"},"8690451":{"post_code":"8690451","prefecture":"KUMAMOTO KEN","city":"UTO SHI","town":"KITADAMBARAMACHI","perfecture_jp":"熊本県","jp_add_1":"宇土市","jp_add_2":"北段原町"},"8690425":{"post_code":"8690425","prefecture":"KUMAMOTO KEN","city":"UTO SHI","town":"KURIZAKIMACHI","perfecture_jp":"熊本県","jp_add_1":"宇土市","jp_add_2":"栗崎町"},"8690426":{"post_code":"8690426","prefecture":"KUMAMOTO KEN","city":"UTO SHI","town":"KOAIMACHI","perfecture_jp":"熊本県","jp_add_1":"宇土市","jp_add_2":"神合町"},"8690415":{"post_code":"8690415","prefecture":"KUMAMOTO KEN","city":"UTO SHI","town":"KOZATOMACHI","perfecture_jp":"熊本県","jp_add_1":"宇土市","jp_add_2":"古保里町"},"8690454":{"post_code":"8690454","prefecture":"KUMAMOTO KEN","city":"UTO SHI","town":"KOJOMACHI","perfecture_jp":"熊本県","jp_add_1":"宇土市","jp_add_2":"古城町"},"8690417":{"post_code":"8690417","prefecture":"KUMAMOTO KEN","city":"UTO SHI","town":"SAKAIMEMACHI","perfecture_jp":"熊本県","jp_add_1":"宇土市","jp_add_2":"境目町"},"8690453":{"post_code":"8690453","prefecture":"KUMAMOTO KEN","city":"UTO SHI","town":"SAKAEMACHI","perfecture_jp":"熊本県","jp_add_1":"宇土市","jp_add_2":"栄町"},"8690402":{"post_code":"8690402","prefecture":"KUMAMOTO KEN","city":"UTO SHI","town":"SASAWARAMACHI","perfecture_jp":"熊本県","jp_add_1":"宇土市","jp_add_2":"笹原町"},"8690406":{"post_code":"8690406","prefecture":"KUMAMOTO KEN","city":"UTO SHI","town":"SAJITCHO","perfecture_jp":"熊本県","jp_add_1":"宇土市","jp_add_2":"三拾町"},"8693173":{"post_code":"8693173","prefecture":"KUMAMOTO KEN","city":"UTO SHI","town":"SHIMOUDAMACHI","perfecture_jp":"熊本県","jp_add_1":"宇土市","jp_add_2":"下網田町"},"8690462":{"post_code":"8690462","prefecture":"KUMAMOTO KEN","city":"UTO SHI","town":"JOTSUKAMACHI","perfecture_jp":"熊本県","jp_add_1":"宇土市","jp_add_2":"城塚町"},"8690442":{"post_code":"8690442","prefecture":"KUMAMOTO KEN","city":"UTO SHI","town":"JONORAMACHI","perfecture_jp":"熊本県","jp_add_1":"宇土市","jp_add_2":"城之浦町"},"8690436":{"post_code":"8690436","prefecture":"KUMAMOTO KEN","city":"UTO SHI","town":"JOFUMACHI","perfecture_jp":"熊本県","jp_add_1":"宇土市","jp_add_2":"定府町"},"8690403":{"post_code":"8690403","prefecture":"KUMAMOTO KEN","city":"UTO SHI","town":"SHINGAIMACHI","perfecture_jp":"熊本県","jp_add_1":"宇土市","jp_add_2":"新開町"},"8690433":{"post_code":"8690433","prefecture":"KUMAMOTO KEN","city":"UTO SHI","town":"SHINKOJIMACHI","perfecture_jp":"熊本県","jp_add_1":"宇土市","jp_add_2":"新小路町"},"8690444":{"post_code":"8690444","prefecture":"KUMAMOTO KEN","city":"UTO SHI","town":"SHIMMACHI","perfecture_jp":"熊本県","jp_add_1":"宇土市","jp_add_2":"新町"},"8690419":{"post_code":"8690419","prefecture":"KUMAMOTO KEN","city":"UTO SHI","town":"SHIMMATSUWARAMACHI","perfecture_jp":"熊本県","jp_add_1":"宇土市","jp_add_2":"新松原町"},"8690424":{"post_code":"8690424","prefecture":"KUMAMOTO KEN","city":"UTO SHI","town":"SHIMMEMACHI","perfecture_jp":"熊本県","jp_add_1":"宇土市","jp_add_2":"神馬町"},"8690401":{"post_code":"8690401","prefecture":"KUMAMOTO KEN","city":"UTO SHI","town":"SUMIYOSHIMACHI","perfecture_jp":"熊本県","jp_add_1":"宇土市","jp_add_2":"住吉町"},"8690418":{"post_code":"8690418","prefecture":"KUMAMOTO KEN","city":"UTO SHI","town":"ZENDOJIMACHI","perfecture_jp":"熊本県","jp_add_1":"宇土市","jp_add_2":"善道寺町"},"8690443":{"post_code":"8690443","prefecture":"KUMAMOTO KEN","city":"UTO SHI","town":"SEMBAMACHI","perfecture_jp":"熊本県","jp_add_1":"宇土市","jp_add_2":"船場町"},"8690452":{"post_code":"8690452","prefecture":"KUMAMOTO KEN","city":"UTO SHI","town":"TAKAYANAGIMACHI","perfecture_jp":"熊本県","jp_add_1":"宇土市","jp_add_2":"高柳町"},"8690414":{"post_code":"8690414","prefecture":"KUMAMOTO KEN","city":"UTO SHI","town":"TACHIOKAMACHI","perfecture_jp":"熊本県","jp_add_1":"宇土市","jp_add_2":"立岡町"},"8690408":{"post_code":"8690408","prefecture":"KUMAMOTO KEN","city":"UTO SHI","town":"TSUIGOMEMACHI","perfecture_jp":"熊本県","jp_add_1":"宇土市","jp_add_2":"築籠町"},"8690455":{"post_code":"8690455","prefecture":"KUMAMOTO KEN","city":"UTO SHI","town":"TSUBAWARAMACHI","perfecture_jp":"熊本県","jp_add_1":"宇土市","jp_add_2":"椿原町"},"8693174":{"post_code":"8693174","prefecture":"KUMAMOTO KEN","city":"UTO SHI","town":"TOGUCHIMACHI","perfecture_jp":"熊本県","jp_add_1":"宇土市","jp_add_2":"戸口町"},"8693171":{"post_code":"8693171","prefecture":"KUMAMOTO KEN","city":"UTO SHI","town":"NAGAHAMAMACHI","perfecture_jp":"熊本県","jp_add_1":"宇土市","jp_add_2":"長浜町"},"8690463":{"post_code":"8690463","prefecture":"KUMAMOTO KEN","city":"UTO SHI","town":"NOZURUMACHI","perfecture_jp":"熊本県","jp_add_1":"宇土市","jp_add_2":"野鶴町"},"8690404":{"post_code":"8690404","prefecture":"KUMAMOTO KEN","city":"UTO SHI","town":"HASHIRIGATAMACHI","perfecture_jp":"熊本県","jp_add_1":"宇土市","jp_add_2":"走潟町"},"8690410":{"post_code":"8690410","prefecture":"KUMAMOTO KEN","city":"UTO SHI","town":"HANAZONODAIMACHI","perfecture_jp":"熊本県","jp_add_1":"宇土市","jp_add_2":"花園台町"},"8690413":{"post_code":"8690413","prefecture":"KUMAMOTO KEN","city":"UTO SHI","town":"HANAZONOMACHI","perfecture_jp":"熊本県","jp_add_1":"宇土市","jp_add_2":"花園町"},"8690431":{"post_code":"8690431","prefecture":"KUMAMOTO KEN","city":"UTO SHI","town":"HOMMACHI","perfecture_jp":"熊本県","jp_add_1":"宇土市","jp_add_2":"本町"},"8690407":{"post_code":"8690407","prefecture":"KUMAMOTO KEN","city":"UTO SHI","town":"MATSUWARAMACHI","perfecture_jp":"熊本県","jp_add_1":"宇土市","jp_add_2":"松原町"},"8690416":{"post_code":"8690416","prefecture":"KUMAMOTO KEN","city":"UTO SHI","town":"MATSUYAMAMACHI","perfecture_jp":"熊本県","jp_add_1":"宇土市","jp_add_2":"松山町"},"8690411":{"post_code":"8690411","prefecture":"KUMAMOTO KEN","city":"UTO SHI","town":"MIZUMACHI","perfecture_jp":"熊本県","jp_add_1":"宇土市","jp_add_2":"水町"},"8690421":{"post_code":"8690421","prefecture":"KUMAMOTO KEN","city":"UTO SHI","town":"MINAMIDAMBARAMACHI","perfecture_jp":"熊本県","jp_add_1":"宇土市","jp_add_2":"南段原町"},"8690457":{"post_code":"8690457","prefecture":"KUMAMOTO KEN","city":"UTO SHI","town":"MIYANOSHOMACHI","perfecture_jp":"熊本県","jp_add_1":"宇土市","jp_add_2":"宮庄町"},"8690434":{"post_code":"8690434","prefecture":"KUMAMOTO KEN","city":"UTO SHI","town":"MONNAIMACHI","perfecture_jp":"熊本県","jp_add_1":"宇土市","jp_add_2":"門内町"},"8693600":{"post_code":"8693600","prefecture":"KUMAMOTO KEN","city":"KAMIAMAKUSA SHI","town":"IKANIKEISAIGANAIBAAI","perfecture_jp":"熊本県","jp_add_1":"上天草市","jp_add_2":""},"8693604":{"post_code":"8693604","prefecture":"KUMAMOTO KEN","city":"KAMIAMAKUSA SHI","town":"OYANOMACHI IWA","perfecture_jp":"熊本県","jp_add_1":"上天草市","jp_add_2":"大矢野町維和"},"8693602":{"post_code":"8693602","prefecture":"KUMAMOTO KEN","city":"KAMIAMAKUSA SHI","town":"OYANOMACHI KAMI","perfecture_jp":"熊本県","jp_add_1":"上天草市","jp_add_2":"大矢野町上"},"8693603":{"post_code":"8693603","prefecture":"KUMAMOTO KEN","city":"KAMIAMAKUSA SHI","town":"OYANOMACHI NAKA","perfecture_jp":"熊本県","jp_add_1":"上天草市","jp_add_2":"大矢野町中"},"8693601":{"post_code":"8693601","prefecture":"KUMAMOTO KEN","city":"KAMIAMAKUSA SHI","town":"OYANOMACHI NOBORITATE","perfecture_jp":"熊本県","jp_add_1":"上天草市","jp_add_2":"大矢野町登立"},"8693711":{"post_code":"8693711","prefecture":"KUMAMOTO KEN","city":"KAMIAMAKUSA SHI","town":"OYANOMACHI YUSHIMA","perfecture_jp":"熊本県","jp_add_1":"上天草市","jp_add_2":"大矢野町湯島"},"8690500":{"post_code":"8690500","prefecture":"KUMAMOTO KEN","city":"UKI SHI","town":"IKANIKEISAIGANAIBAAI","perfecture_jp":"熊本県","jp_add_1":"宇城市","jp_add_2":""},"8690624":{"post_code":"8690624","prefecture":"KUMAMOTO KEN","city":"UKI SHI","town":"OGAWAMACHI EGASHIRA","perfecture_jp":"熊本県","jp_add_1":"宇城市","jp_add_2":"小川町江頭"},"8690621":{"post_code":"8690621","prefecture":"KUMAMOTO KEN","city":"UKI SHI","town":"OGAWAMACHI OGAWA","perfecture_jp":"熊本県","jp_add_1":"宇城市","jp_add_2":"小川町小川"},"8690623":{"post_code":"8690623","prefecture":"KUMAMOTO KEN","city":"UKI SHI","town":"OGAWAMACHI KAWAJIRI","perfecture_jp":"熊本県","jp_add_1":"宇城市","jp_add_2":"小川町川尻"},"8690601":{"post_code":"8690601","prefecture":"KUMAMOTO KEN","city":"UKI SHI","town":"OGAWAMACHI KITAONO","perfecture_jp":"熊本県","jp_add_1":"宇城市","jp_add_2":"小川町北小野"},"8690616":{"post_code":"8690616","prefecture":"KUMAMOTO KEN","city":"UKI SHI","town":"OGAWAMACHI KITAKAITO","perfecture_jp":"熊本県","jp_add_1":"宇城市","jp_add_2":"小川町北海東"},"8690631":{"post_code":"8690631","prefecture":"KUMAMOTO KEN","city":"UKI SHI","town":"OGAWAMACHI KITASHINDEN","perfecture_jp":"熊本県","jp_add_1":"宇城市","jp_add_2":"小川町北新田"},"8690604":{"post_code":"8690604","prefecture":"KUMAMOTO KEN","city":"UKI SHI","town":"OGAWAMACHI KITABETA","perfecture_jp":"熊本県","jp_add_1":"宇城市","jp_add_2":"小川町北部田"},"8690606":{"post_code":"8690606","prefecture":"KUMAMOTO KEN","city":"UKI SHI","town":"OGAWAMACHI GONOE","perfecture_jp":"熊本県","jp_add_1":"宇城市","jp_add_2":"小川町河江"},"8690635":{"post_code":"8690635","prefecture":"KUMAMOTO KEN","city":"UKI SHI","town":"OGAWAMACHI SHIRANUI","perfecture_jp":"熊本県","jp_add_1":"宇城市","jp_add_2":"小川町不知火"},"8690633":{"post_code":"8690633","prefecture":"KUMAMOTO KEN","city":"UKI SHI","town":"OGAWAMACHI SHINDEN","perfecture_jp":"熊本県","jp_add_1":"宇城市","jp_add_2":"小川町新田"},"8690636":{"post_code":"8690636","prefecture":"KUMAMOTO KEN","city":"UKI SHI","town":"OGAWAMACHI SHINDENDE","perfecture_jp":"熊本県","jp_add_1":"宇城市","jp_add_2":"小川町新田出"},"8690634":{"post_code":"8690634","prefecture":"KUMAMOTO KEN","city":"UKI SHI","town":"OGAWAMACHI SUMIYOSHI","perfecture_jp":"熊本県","jp_add_1":"宇城市","jp_add_2":"小川町住吉"},"8690602":{"post_code":"8690602","prefecture":"KUMAMOTO KEN","city":"UKI SHI","town":"OGAWAMACHI NAKAONO","perfecture_jp":"熊本県","jp_add_1":"宇城市","jp_add_2":"小川町中小野"},"8690615":{"post_code":"8690615","prefecture":"KUMAMOTO KEN","city":"UKI SHI","town":"OGAWAMACHI NISHIKAITO","perfecture_jp":"熊本県","jp_add_1":"宇城市","jp_add_2":"小川町西海東"},"8690622":{"post_code":"8690622","prefecture":"KUMAMOTO KEN","city":"UKI SHI","town":"OGAWAMACHI NISHIKITAOGAWA","perfecture_jp":"熊本県","jp_add_1":"宇城市","jp_add_2":"小川町西北小川"},"8690613":{"post_code":"8690613","prefecture":"KUMAMOTO KEN","city":"UKI SHI","town":"OGAWAMACHI HIGASHIOGAWA","perfecture_jp":"熊本県","jp_add_1":"宇城市","jp_add_2":"小川町東小川"},"8690611":{"post_code":"8690611","prefecture":"KUMAMOTO KEN","city":"UKI SHI","town":"OGAWAMACHI HIGASHIKAITO","perfecture_jp":"熊本県","jp_add_1":"宇城市","jp_add_2":"小川町東海東"},"8690614":{"post_code":"8690614","prefecture":"KUMAMOTO KEN","city":"UKI SHI","town":"OGAWAMACHI MINAMIOGAWA","perfecture_jp":"熊本県","jp_add_1":"宇城市","jp_add_2":"小川町南小川"},"8690603":{"post_code":"8690603","prefecture":"KUMAMOTO KEN","city":"UKI SHI","town":"OGAWAMACHI MINAMIONO","perfecture_jp":"熊本県","jp_add_1":"宇城市","jp_add_2":"小川町南小野"},"8690612":{"post_code":"8690612","prefecture":"KUMAMOTO KEN","city":"UKI SHI","town":"OGAWAMACHI MINAMIKAITO","perfecture_jp":"熊本県","jp_add_1":"宇城市","jp_add_2":"小川町南海東"},"8690632":{"post_code":"8690632","prefecture":"KUMAMOTO KEN","city":"UKI SHI","town":"OGAWAMACHI MINAMISHINDEN","perfecture_jp":"熊本県","jp_add_1":"宇城市","jp_add_2":"小川町南新田"},"8690605":{"post_code":"8690605","prefecture":"KUMAMOTO KEN","city":"UKI SHI","town":"OGAWAMACHI MINAMIBETA","perfecture_jp":"熊本県","jp_add_1":"宇城市","jp_add_2":"小川町南部田"},"8690563":{"post_code":"8690563","prefecture":"KUMAMOTO KEN","city":"UKI SHI","town":"SHIRANUHIMACHI URAGAMI","perfecture_jp":"熊本県","jp_add_1":"宇城市","jp_add_2":"不知火町浦上"},"8693471":{"post_code":"8693471","prefecture":"KUMAMOTO KEN","city":"UKI SHI","town":"SHIRANUHIMACHI EINO","perfecture_jp":"熊本県","jp_add_1":"宇城市","jp_add_2":"不知火町永尾"},"8693473":{"post_code":"8693473","prefecture":"KUMAMOTO KEN","city":"UKI SHI","town":"SHIRANUHIMACHI OMI","perfecture_jp":"熊本県","jp_add_1":"宇城市","jp_add_2":"不知火町大見"},"8690554":{"post_code":"8690554","prefecture":"KUMAMOTO KEN","city":"UKI SHI","town":"SHIRANUHIMACHI KASHIWAHARA","perfecture_jp":"熊本県","jp_add_1":"宇城市","jp_add_2":"不知火町柏原"},"8690561":{"post_code":"8690561","prefecture":"KUMAMOTO KEN","city":"UKI SHI","town":"SHIRANUHIMACHI KAMEMATSU","perfecture_jp":"熊本県","jp_add_1":"宇城市","jp_add_2":"不知火町亀松"},"8690552":{"post_code":"8690552","prefecture":"KUMAMOTO KEN","city":"UKI SHI","town":"SHIRANUHIMACHI KORA","perfecture_jp":"熊本県","jp_add_1":"宇城市","jp_add_2":"不知火町高良"},"8690553":{"post_code":"8690553","prefecture":"KUMAMOTO KEN","city":"UKI SHI","town":"SHIRANUHIMACHI KOSOBU","perfecture_jp":"熊本県","jp_add_1":"宇城市","jp_add_2":"不知火町小曽部"},"8690551":{"post_code":"8690551","prefecture":"KUMAMOTO KEN","city":"UKI SHI","town":"SHIRANUHIMACHI GORYO","perfecture_jp":"熊本県","jp_add_1":"宇城市","jp_add_2":"不知火町御領"},"8690562":{"post_code":"8690562","prefecture":"KUMAMOTO KEN","city":"UKI SHI","town":"SHIRANUHIMACHI NAGASAKI","perfecture_jp":"熊本県","jp_add_1":"宇城市","jp_add_2":"不知火町長崎"},"8693472":{"post_code":"8693472","prefecture":"KUMAMOTO KEN","city":"UKI SHI","town":"SHIRANUHIMACHI MATSUAI","perfecture_jp":"熊本県","jp_add_1":"宇城市","jp_add_2":"不知火町松合"},"8690544":{"post_code":"8690544","prefecture":"KUMAMOTO KEN","city":"UKI SHI","town":"MATSUBASEMACHI ASAKAWA","perfecture_jp":"熊本県","jp_add_1":"宇城市","jp_add_2":"松橋町浅川"},"8690522":{"post_code":"8690522","prefecture":"KUMAMOTO KEN","city":"UKI SHI","town":"MATSUBASEMACHI UCHIDA","perfecture_jp":"熊本県","jp_add_1":"宇城市","jp_add_2":"松橋町内田"},"8690521":{"post_code":"8690521","prefecture":"KUMAMOTO KEN","city":"UKI SHI","town":"MATSUBASEMACHI URAKAWACHI","perfecture_jp":"熊本県","jp_add_1":"宇城市","jp_add_2":"松橋町浦川内"},"8690531":{"post_code":"8690531","prefecture":"KUMAMOTO KEN","city":"UKI SHI","town":"MATSUBASEMACHI ONO","perfecture_jp":"熊本県","jp_add_1":"宇城市","jp_add_2":"松橋町大野"},"8690503":{"post_code":"8690503","prefecture":"KUMAMOTO KEN","city":"UKI SHI","town":"MATSUBASEMACHI KIRARA","perfecture_jp":"熊本県","jp_add_1":"宇城市","jp_add_2":"松橋町きらら"},"8690532":{"post_code":"8690532","prefecture":"KUMAMOTO KEN","city":"UKI SHI","town":"MATSUBASEMACHI KUGU","perfecture_jp":"熊本県","jp_add_1":"宇城市","jp_add_2":"松橋町久具"},"8690512":{"post_code":"8690512","prefecture":"KUMAMOTO KEN","city":"UKI SHI","town":"MATSUBASEMACHI KOYAMA","perfecture_jp":"熊本県","jp_add_1":"宇城市","jp_add_2":"松橋町古保山"},"8690545":{"post_code":"8690545","prefecture":"KUMAMOTO KEN","city":"UKI SHI","town":"MATSUBASEMACHI SUNAGAWA","perfecture_jp":"熊本県","jp_add_1":"宇城市","jp_add_2":"松橋町砂川"},"8690523":{"post_code":"8690523","prefecture":"KUMAMOTO KEN","city":"UKI SHI","town":"MATSUBASEMACHI TAKEZAKI","perfecture_jp":"熊本県","jp_add_1":"宇城市","jp_add_2":"松橋町竹崎"},"8690542":{"post_code":"8690542","prefecture":"KUMAMOTO KEN","city":"UKI SHI","town":"MATSUBASEMACHI TOYOZAKI","perfecture_jp":"熊本県","jp_add_1":"宇城市","jp_add_2":"松橋町豊崎"},"8690524":{"post_code":"8690524","prefecture":"KUMAMOTO KEN","city":"UKI SHI","town":"MATSUBASEMACHI TOYOFUKU","perfecture_jp":"熊本県","jp_add_1":"宇城市","jp_add_2":"松橋町豊福"},"8690534":{"post_code":"8690534","prefecture":"KUMAMOTO KEN","city":"UKI SHI","town":"MATSUBASEMACHI NISHISHIMOGO","perfecture_jp":"熊本県","jp_add_1":"宇城市","jp_add_2":"松橋町西下郷"},"8690513":{"post_code":"8690513","prefecture":"KUMAMOTO KEN","city":"UKI SHI","town":"MATSUBASEMACHI HAGIO","perfecture_jp":"熊本県","jp_add_1":"宇城市","jp_add_2":"松橋町萩尾"},"8690541":{"post_code":"8690541","prefecture":"KUMAMOTO KEN","city":"UKI SHI","town":"MATSUBASEMACHI HIGASHIMATSUZAKI","perfecture_jp":"熊本県","jp_add_1":"宇城市","jp_add_2":"松橋町東松崎"},"8690511":{"post_code":"8690511","prefecture":"KUMAMOTO KEN","city":"UKI SHI","town":"MATSUBASEMACHI MAGANO","perfecture_jp":"熊本県","jp_add_1":"宇城市","jp_add_2":"松橋町曲野"},"8690502":{"post_code":"8690502","prefecture":"KUMAMOTO KEN","city":"UKI SHI","town":"MATSUBASEMACHI MATSUBASE","perfecture_jp":"熊本県","jp_add_1":"宇城市","jp_add_2":"松橋町松橋"},"8690501":{"post_code":"8690501","prefecture":"KUMAMOTO KEN","city":"UKI SHI","town":"MATSUBASEMACHI MATSUYAMA","perfecture_jp":"熊本県","jp_add_1":"宇城市","jp_add_2":"松橋町松山"},"8690543":{"post_code":"8690543","prefecture":"KUMAMOTO KEN","city":"UKI SHI","town":"MATSUBASEMACHI MINAMITOYOZAKI","perfecture_jp":"熊本県","jp_add_1":"宇城市","jp_add_2":"松橋町南豊崎"},"8690546":{"post_code":"8690546","prefecture":"KUMAMOTO KEN","city":"UKI SHI","town":"MATSUBASEMACHI MIFUNE","perfecture_jp":"熊本県","jp_add_1":"宇城市","jp_add_2":"松橋町御船"},"8690533":{"post_code":"8690533","prefecture":"KUMAMOTO KEN","city":"UKI SHI","town":"MATSUBASEMACHI RYONAKAMA","perfecture_jp":"熊本県","jp_add_1":"宇城市","jp_add_2":"松橋町両仲間"},"8693411":{"post_code":"8693411","prefecture":"KUMAMOTO KEN","city":"UKI SHI","town":"MISUMIMACHI OKUCHI","perfecture_jp":"熊本県","jp_add_1":"宇城市","jp_add_2":"三角町大口"},"8693201":{"post_code":"8693201","prefecture":"KUMAMOTO KEN","city":"UKI SHI","town":"MISUMIMACHI OTAO","perfecture_jp":"熊本県","jp_add_1":"宇城市","jp_add_2":"三角町大田尾"},"8693202":{"post_code":"8693202","prefecture":"KUMAMOTO KEN","city":"UKI SHI","town":"MISUMIMACHI KONORA","perfecture_jp":"熊本県","jp_add_1":"宇城市","jp_add_2":"三角町郡浦"},"8693413":{"post_code":"8693413","prefecture":"KUMAMOTO KEN","city":"UKI SHI","town":"MISUMIMACHI SATONORA","perfecture_jp":"熊本県","jp_add_1":"宇城市","jp_add_2":"三角町里浦"},"8693412":{"post_code":"8693412","prefecture":"KUMAMOTO KEN","city":"UKI SHI","town":"MISUMIMACHI TEBA","perfecture_jp":"熊本県","jp_add_1":"宇城市","jp_add_2":"三角町手場"},"8693203":{"post_code":"8693203","prefecture":"KUMAMOTO KEN","city":"UKI SHI","town":"MISUMIMACHI TOBASE","perfecture_jp":"熊本県","jp_add_1":"宇城市","jp_add_2":"三角町戸馳"},"8693204":{"post_code":"8693204","prefecture":"KUMAMOTO KEN","city":"UKI SHI","town":"MISUMIMACHI NAKAMURA","perfecture_jp":"熊本県","jp_add_1":"宇城市","jp_add_2":"三角町中村"},"8693205":{"post_code":"8693205","prefecture":"KUMAMOTO KEN","city":"UKI SHI","town":"MISUMIMACHI HATA","perfecture_jp":"熊本県","jp_add_1":"宇城市","jp_add_2":"三角町波多"},"8693206":{"post_code":"8693206","prefecture":"KUMAMOTO KEN","city":"UKI SHI","town":"MISUMIMACHI MAEGOSHI","perfecture_jp":"熊本県","jp_add_1":"宇城市","jp_add_2":"三角町前越"},"8693207":{"post_code":"8693207","prefecture":"KUMAMOTO KEN","city":"UKI SHI","town":"MISUMIMACHI MISUMIURA","perfecture_jp":"熊本県","jp_add_1":"宇城市","jp_add_2":"三角町三角浦"},"8692600":{"post_code":"8692600","prefecture":"KUMAMOTO KEN","city":"ASO SHI","town":"IKANIKEISAIGANAIBAAI","perfecture_jp":"熊本県","jp_add_1":"阿蘇市","jp_add_2":""},"8692232":{"post_code":"8692232","prefecture":"KUMAMOTO KEN","city":"ASO SHI","town":"AKAMIZU","perfecture_jp":"熊本県","jp_add_1":"阿蘇市","jp_add_2":"赤水"},"8692236":{"post_code":"8692236","prefecture":"KUMAMOTO KEN","city":"ASO SHI","town":"ATOGASE","perfecture_jp":"熊本県","jp_add_1":"阿蘇市","jp_add_2":"跡ケ瀬"},"8692621":{"post_code":"8692621","prefecture":"KUMAMOTO KEN","city":"ASO SHI","town":"ICHINOMIYAMACHI OGINOKUSA","perfecture_jp":"熊本県","jp_add_1":"阿蘇市","jp_add_2":"一の宮町荻の草"},"8692603":{"post_code":"8692603","prefecture":"KUMAMOTO KEN","city":"ASO SHI","town":"ICHINOMIYAMACHI KITASAKANASHI","perfecture_jp":"熊本県","jp_add_1":"阿蘇市","jp_add_2":"一の宮町北坂梨"},"8692611":{"post_code":"8692611","prefecture":"KUMAMOTO KEN","city":"ASO SHI","town":"ICHINOMIYAMACHI SAKANASHI","perfecture_jp":"熊本県","jp_add_1":"阿蘇市","jp_add_2":"一の宮町坂梨"},"8692602":{"post_code":"8692602","prefecture":"KUMAMOTO KEN","city":"ASO SHI","town":"ICHINOMIYAMACHI SANNO","perfecture_jp":"熊本県","jp_add_1":"阿蘇市","jp_add_2":"一の宮町三野"},"8692601":{"post_code":"8692601","prefecture":"KUMAMOTO KEN","city":"ASO SHI","town":"ICHINOMIYAMACHI TENO","perfecture_jp":"熊本県","jp_add_1":"阿蘇市","jp_add_2":"一の宮町手野"},"8692604":{"post_code":"8692604","prefecture":"KUMAMOTO KEN","city":"ASO SHI","town":"ICHINOMIYAMACHI NAKASAKANASHI","perfecture_jp":"熊本県","jp_add_1":"阿蘇市","jp_add_2":"一の宮町中坂梨"},"8692613":{"post_code":"8692613","prefecture":"KUMAMOTO KEN","city":"ASO SHI","town":"ICHINOMIYAMACHI NAKADORI","perfecture_jp":"熊本県","jp_add_1":"阿蘇市","jp_add_2":"一の宮町中通"},"8692612":{"post_code":"8692612","prefecture":"KUMAMOTO KEN","city":"ASO SHI","town":"ICHINOMIYAMACHI MIYAJI","perfecture_jp":"熊本県","jp_add_1":"阿蘇市","jp_add_2":"一の宮町宮地"},"8692315":{"post_code":"8692315","prefecture":"KUMAMOTO KEN","city":"ASO SHI","town":"IMAMACHI","perfecture_jp":"熊本県","jp_add_1":"阿蘇市","jp_add_2":"今町"},"8692301":{"post_code":"8692301","prefecture":"KUMAMOTO KEN","city":"ASO SHI","town":"UCHINOMAKI","perfecture_jp":"熊本県","jp_add_1":"阿蘇市","jp_add_2":"内牧"},"8692312":{"post_code":"8692312","prefecture":"KUMAMOTO KEN","city":"ASO SHI","town":"OKURA","perfecture_jp":"熊本県","jp_add_1":"阿蘇市","jp_add_2":"小倉"},"8692307":{"post_code":"8692307","prefecture":"KUMAMOTO KEN","city":"ASO SHI","town":"OZATO","perfecture_jp":"熊本県","jp_add_1":"阿蘇市","jp_add_2":"小里"},"8692226":{"post_code":"8692226","prefecture":"KUMAMOTO KEN","city":"ASO SHI","town":"OTOHIME","perfecture_jp":"熊本県","jp_add_1":"阿蘇市","jp_add_2":"乙姫"},"8692314":{"post_code":"8692314","prefecture":"KUMAMOTO KEN","city":"ASO SHI","town":"ONODA","perfecture_jp":"熊本県","jp_add_1":"阿蘇市","jp_add_2":"小野田"},"8692235":{"post_code":"8692235","prefecture":"KUMAMOTO KEN","city":"ASO SHI","town":"KARIO","perfecture_jp":"熊本県","jp_add_1":"阿蘇市","jp_add_2":"狩尾"},"8692224":{"post_code":"8692224","prefecture":"KUMAMOTO KEN","city":"ASO SHI","town":"KURABARU","perfecture_jp":"熊本県","jp_add_1":"阿蘇市","jp_add_2":"蔵原"},"8692234":{"post_code":"8692234","prefecture":"KUMAMOTO KEN","city":"ASO SHI","town":"KURUMAGAERI","perfecture_jp":"熊本県","jp_add_1":"阿蘇市","jp_add_2":"車帰"},"8692225":{"post_code":"8692225","prefecture":"KUMAMOTO KEN","city":"ASO SHI","town":"KUROKAWA","perfecture_jp":"熊本県","jp_add_1":"阿蘇市","jp_add_2":"黒川"},"8692316":{"post_code":"8692316","prefecture":"KUMAMOTO KEN","city":"ASO SHI","town":"KURONAGAREMACHI","perfecture_jp":"熊本県","jp_add_1":"阿蘇市","jp_add_2":"黒流町"},"8692311":{"post_code":"8692311","prefecture":"KUMAMOTO KEN","city":"ASO SHI","town":"KOJI","perfecture_jp":"熊本県","jp_add_1":"阿蘇市","jp_add_2":"小池"},"8692223":{"post_code":"8692223","prefecture":"KUMAMOTO KEN","city":"ASO SHI","town":"TAKAWARA","perfecture_jp":"熊本県","jp_add_1":"阿蘇市","jp_add_2":"竹原"},"8692231":{"post_code":"8692231","prefecture":"KUMAMOTO KEN","city":"ASO SHI","town":"NAGAKUSA","perfecture_jp":"熊本県","jp_add_1":"阿蘇市","jp_add_2":"永草"},"8692803":{"post_code":"8692803","prefecture":"KUMAMOTO KEN","city":"ASO SHI","town":"NAMINO AKANITA","perfecture_jp":"熊本県","jp_add_1":"阿蘇市","jp_add_2":"波野赤仁田"},"8692802":{"post_code":"8692802","prefecture":"KUMAMOTO KEN","city":"ASO SHI","town":"NAMINO OZONO","perfecture_jp":"熊本県","jp_add_1":"阿蘇市","jp_add_2":"波野小園"},"8692801":{"post_code":"8692801","prefecture":"KUMAMOTO KEN","city":"ASO SHI","town":"NAMINO SHOCHINO","perfecture_jp":"熊本県","jp_add_1":"阿蘇市","jp_add_2":"波野小地野"},"8692807":{"post_code":"8692807","prefecture":"KUMAMOTO KEN","city":"ASO SHI","town":"NAMINO SHINNAMINO","perfecture_jp":"熊本県","jp_add_1":"阿蘇市","jp_add_2":"波野新波野"},"8692804":{"post_code":"8692804","prefecture":"KUMAMOTO KEN","city":"ASO SHI","town":"NAMINO TAKIMIZU","perfecture_jp":"熊本県","jp_add_1":"阿蘇市","jp_add_2":"波野滝水"},"8692805":{"post_code":"8692805","prefecture":"KUMAMOTO KEN","city":"ASO SHI","town":"NAMINO NAKAE","perfecture_jp":"熊本県","jp_add_1":"阿蘇市","jp_add_2":"波野中江"},"8692806":{"post_code":"8692806","prefecture":"KUMAMOTO KEN","city":"ASO SHI","town":"NAMINO NAMINO","perfecture_jp":"熊本県","jp_add_1":"阿蘇市","jp_add_2":"波野波野"},"8692303":{"post_code":"8692303","prefecture":"KUMAMOTO KEN","city":"ASO SHI","town":"NISHIKOZONO","perfecture_jp":"熊本県","jp_add_1":"阿蘇市","jp_add_2":"西小園"},"8692222":{"post_code":"8692222","prefecture":"KUMAMOTO KEN","city":"ASO SHI","town":"NISHIMACHI","perfecture_jp":"熊本県","jp_add_1":"阿蘇市","jp_add_2":"西町"},"8692304":{"post_code":"8692304","prefecture":"KUMAMOTO KEN","city":"ASO SHI","town":"NISHIYUNORA","perfecture_jp":"熊本県","jp_add_1":"阿蘇市","jp_add_2":"西湯浦"},"8692237":{"post_code":"8692237","prefecture":"KUMAMOTO KEN","city":"ASO SHI","town":"MATOISHI","perfecture_jp":"熊本県","jp_add_1":"阿蘇市","jp_add_2":"的石"},"8692302":{"post_code":"8692302","prefecture":"KUMAMOTO KEN","city":"ASO SHI","town":"MIKUBO","perfecture_jp":"熊本県","jp_add_1":"阿蘇市","jp_add_2":"三久保"},"8692306":{"post_code":"8692306","prefecture":"KUMAMOTO KEN","city":"ASO SHI","town":"MINAMIMIYABARU","perfecture_jp":"熊本県","jp_add_1":"阿蘇市","jp_add_2":"南宮原"},"8692233":{"post_code":"8692233","prefecture":"KUMAMOTO KEN","city":"ASO SHI","town":"MUTA","perfecture_jp":"熊本県","jp_add_1":"阿蘇市","jp_add_2":"無田"},"8692221":{"post_code":"8692221","prefecture":"KUMAMOTO KEN","city":"ASO SHI","town":"YAKUIMBARU","perfecture_jp":"熊本県","jp_add_1":"阿蘇市","jp_add_2":"役犬原"},"8692413":{"post_code":"8692413","prefecture":"KUMAMOTO KEN","city":"ASO SHI","town":"YAMADA(KURATOKO.HASHIDAI.MYOGAHARA)","perfecture_jp":"熊本県","jp_add_1":"阿蘇市","jp_add_2":"山田"},"8692313":{"post_code":"8692313","prefecture":"KUMAMOTO KEN","city":"ASO SHI","town":"YAMADA(SONOTA)","perfecture_jp":"熊本県","jp_add_1":"阿蘇市","jp_add_2":"山田"},"8692305":{"post_code":"8692305","prefecture":"KUMAMOTO KEN","city":"ASO SHI","town":"YUNORA","perfecture_jp":"熊本県","jp_add_1":"阿蘇市","jp_add_2":"湯浦"},"8690300":{"post_code":"8690300","prefecture":"KUMAMOTO KEN","city":"TAMANA GUN GYOKUTO MACHI","town":"IKANIKEISAIGANAIBAAI","perfecture_jp":"熊本県","jp_add_1":"玉名郡玉東町","jp_add_2":""},"8690301":{"post_code":"8690301","prefecture":"KUMAMOTO KEN","city":"TAMANA GUN GYOKUTO MACHI","town":"INASA","perfecture_jp":"熊本県","jp_add_1":"玉名郡玉東町","jp_add_2":"稲佐"},"8690304":{"post_code":"8690304","prefecture":"KUMAMOTO KEN","city":"TAMANA GUN GYOKUTO MACHI","town":"URATA","perfecture_jp":"熊本県","jp_add_1":"玉名郡玉東町","jp_add_2":"浦田"},"8690305":{"post_code":"8690305","prefecture":"KUMAMOTO KEN","city":"TAMANA GUN GYOKUTO MACHI","town":"KAMIKONOHA","perfecture_jp":"熊本県","jp_add_1":"玉名郡玉東町","jp_add_2":"上木葉"},"8690313":{"post_code":"8690313","prefecture":"KUMAMOTO KEN","city":"TAMANA GUN GYOKUTO MACHI","town":"KAMISHIRAKI","perfecture_jp":"熊本県","jp_add_1":"玉名郡玉東町","jp_add_2":"上白木"},"8690303":{"post_code":"8690303","prefecture":"KUMAMOTO KEN","city":"TAMANA GUN GYOKUTO MACHI","town":"KONOHA","perfecture_jp":"熊本県","jp_add_1":"玉名郡玉東町","jp_add_2":"木葉"},"8690321":{"post_code":"8690321","prefecture":"KUMAMOTO KEN","city":"TAMANA GUN GYOKUTO MACHI","town":"SAIANJI","perfecture_jp":"熊本県","jp_add_1":"玉名郡玉東町","jp_add_2":"西安寺"},"8690312":{"post_code":"8690312","prefecture":"KUMAMOTO KEN","city":"TAMANA GUN GYOKUTO MACHI","town":"SHIRAKI","perfecture_jp":"熊本県","jp_add_1":"玉名郡玉東町","jp_add_2":"白木"},"8690322":{"post_code":"8690322","prefecture":"KUMAMOTO KEN","city":"TAMANA GUN GYOKUTO MACHI","town":"HARAKURA","perfecture_jp":"熊本県","jp_add_1":"玉名郡玉東町","jp_add_2":"原倉"},"8690311":{"post_code":"8690311","prefecture":"KUMAMOTO KEN","city":"TAMANA GUN GYOKUTO MACHI","town":"FUTAMATA","perfecture_jp":"熊本県","jp_add_1":"玉名郡玉東町","jp_add_2":"二俣"},"8690302":{"post_code":"8690302","prefecture":"KUMAMOTO KEN","city":"TAMANA GUN GYOKUTO MACHI","town":"YAMAGUCHI","perfecture_jp":"熊本県","jp_add_1":"玉名郡玉東町","jp_add_2":"山口"},"8690100":{"post_code":"8690100","prefecture":"KUMAMOTO KEN","city":"TAMANA GUN NAGASU MACHI","town":"IKANIKEISAIGANAIBAAI","perfecture_jp":"熊本県","jp_add_1":"玉名郡長洲町","jp_add_2":""},"8690113":{"post_code":"8690113","prefecture":"KUMAMOTO KEN","city":"TAMANA GUN NAGASU MACHI","town":"ARIAKE","perfecture_jp":"熊本県","jp_add_1":"玉名郡長洲町","jp_add_2":"有明"},"8690122":{"post_code":"8690122","prefecture":"KUMAMOTO KEN","city":"TAMANA GUN NAGASU MACHI","town":"UMEDA","perfecture_jp":"熊本県","jp_add_1":"玉名郡長洲町","jp_add_2":"梅田"},"8690102":{"post_code":"8690102","prefecture":"KUMAMOTO KEN","city":"TAMANA GUN NAGASU MACHI","town":"ORISAKI","perfecture_jp":"熊本県","jp_add_1":"玉名郡長洲町","jp_add_2":"折崎"},"8690104":{"post_code":"8690104","prefecture":"KUMAMOTO KEN","city":"TAMANA GUN NAGASU MACHI","town":"KAMIOKINOSU","perfecture_jp":"熊本県","jp_add_1":"玉名郡長洲町","jp_add_2":"上沖洲"},"8690105":{"post_code":"8690105","prefecture":"KUMAMOTO KEN","city":"TAMANA GUN NAGASU MACHI","town":"SEIGENJI","perfecture_jp":"熊本県","jp_add_1":"玉名郡長洲町","jp_add_2":"清源寺"},"8690121":{"post_code":"8690121","prefecture":"KUMAMOTO KEN","city":"TAMANA GUN NAGASU MACHI","town":"TAKAHAMA","perfecture_jp":"熊本県","jp_add_1":"玉名郡長洲町","jp_add_2":"高浜"},"8690106":{"post_code":"8690106","prefecture":"KUMAMOTO KEN","city":"TAMANA GUN NAGASU MACHI","town":"NAGASHIO","perfecture_jp":"熊本県","jp_add_1":"玉名郡長洲町","jp_add_2":"永塩"},"8690123":{"post_code":"8690123","prefecture":"KUMAMOTO KEN","city":"TAMANA GUN NAGASU MACHI","town":"NAGASU","perfecture_jp":"熊本県","jp_add_1":"玉名郡長洲町","jp_add_2":"長洲"},"8690103":{"post_code":"8690103","prefecture":"KUMAMOTO KEN","city":"TAMANA GUN NAGASU MACHI","town":"HARAKA","perfecture_jp":"熊本県","jp_add_1":"玉名郡長洲町","jp_add_2":"腹赤"},"8690112":{"post_code":"8690112","prefecture":"KUMAMOTO KEN","city":"TAMANA GUN NAGASU MACHI","town":"HIMEGAURA","perfecture_jp":"熊本県","jp_add_1":"玉名郡長洲町","jp_add_2":"姫ケ浦"},"8690101":{"post_code":"8690101","prefecture":"KUMAMOTO KEN","city":"TAMANA GUN NAGASU MACHI","town":"MIYANO","perfecture_jp":"熊本県","jp_add_1":"玉名郡長洲町","jp_add_2":"宮野"},"8690111":{"post_code":"8690111","prefecture":"KUMAMOTO KEN","city":"TAMANA GUN NAGASU MACHI","town":"MEISHIHAMA","perfecture_jp":"熊本県","jp_add_1":"玉名郡長洲町","jp_add_2":"名石浜"},"8691200":{"post_code":"8691200","prefecture":"KUMAMOTO KEN","city":"KIKUCHI GUN OZU MACHI","town":"IKANIKEISAIGANAIBAAI","perfecture_jp":"熊本県","jp_add_1":"菊池郡大津町","jp_add_2":""},"8691222":{"post_code":"8691222","prefecture":"KUMAMOTO KEN","city":"KIKUCHI GUN OZU MACHI","town":"IWASAKA","perfecture_jp":"熊本県","jp_add_1":"菊池郡大津町","jp_add_2":"岩坂"},"8691233":{"post_code":"8691233","prefecture":"KUMAMOTO KEN","city":"KIKUCHI GUN OZU MACHI","town":"OZU","perfecture_jp":"熊本県","jp_add_1":"菊池郡大津町","jp_add_2":"大津"},"8691219":{"post_code":"8691219","prefecture":"KUMAMOTO KEN","city":"KIKUCHI GUN OZU MACHI","town":"OBAYASHI","perfecture_jp":"熊本県","jp_add_1":"菊池郡大津町","jp_add_2":"大林"},"8691225":{"post_code":"8691225","prefecture":"KUMAMOTO KEN","city":"KIKUCHI GUN OZU MACHI","town":"SHIMOMACHI","perfecture_jp":"熊本県","jp_add_1":"菊池郡大津町","jp_add_2":"下町"},"8691227":{"post_code":"8691227","prefecture":"KUMAMOTO KEN","city":"KIKUCHI GUN OZU MACHI","town":"SHIN","perfecture_jp":"熊本県","jp_add_1":"菊池郡大津町","jp_add_2":"新"},"8691221":{"post_code":"8691221","prefecture":"KUMAMOTO KEN","city":"KIKUCHI GUN OZU MACHI","town":"JINNAI","perfecture_jp":"熊本県","jp_add_1":"菊池郡大津町","jp_add_2":"陣内"},"8691236":{"post_code":"8691236","prefecture":"KUMAMOTO KEN","city":"KIKUCHI GUN OZU MACHI","town":"SUGIMIZU","perfecture_jp":"熊本県","jp_add_1":"菊池郡大津町","jp_add_2":"杉水"},"8691214":{"post_code":"8691214","prefecture":"KUMAMOTO KEN","city":"KIKUCHI GUN OZU MACHI","town":"SETA","perfecture_jp":"熊本県","jp_add_1":"菊池郡大津町","jp_add_2":"瀬田"},"8691232":{"post_code":"8691232","prefecture":"KUMAMOTO KEN","city":"KIKUCHI GUN OZU MACHI","town":"TAKAONO","perfecture_jp":"熊本県","jp_add_1":"菊池郡大津町","jp_add_2":"高尾野"},"8691223":{"post_code":"8691223","prefecture":"KUMAMOTO KEN","city":"KIKUCHI GUN OZU MACHI","town":"NAKASHIMA","perfecture_jp":"熊本県","jp_add_1":"菊池郡大津町","jp_add_2":"中島"},"8691216":{"post_code":"8691216","prefecture":"KUMAMOTO KEN","city":"KIKUCHI GUN OZU MACHI","town":"NISHIKINO","perfecture_jp":"熊本県","jp_add_1":"菊池郡大津町","jp_add_2":"錦野"},"8691226":{"post_code":"8691226","prefecture":"KUMAMOTO KEN","city":"KIKUCHI GUN OZU MACHI","town":"HAIZUKA","perfecture_jp":"熊本県","jp_add_1":"菊池郡大津町","jp_add_2":"灰塚"},"8691234":{"post_code":"8691234","prefecture":"KUMAMOTO KEN","city":"KIKUCHI GUN OZU MACHI","town":"HIKINOMIZU","perfecture_jp":"熊本県","jp_add_1":"菊池郡大津町","jp_add_2":"引水"},"8691231":{"post_code":"8691231","prefecture":"KUMAMOTO KEN","city":"KIKUCHI GUN OZU MACHI","town":"HIRAKAWA","perfecture_jp":"熊本県","jp_add_1":"菊池郡大津町","jp_add_2":"平川"},"8691218":{"post_code":"8691218","prefecture":"KUMAMOTO KEN","city":"KIKUCHI GUN OZU MACHI","town":"FUKEDA","perfecture_jp":"熊本県","jp_add_1":"菊池郡大津町","jp_add_2":"吹田"},"8691213":{"post_code":"8691213","prefecture":"KUMAMOTO KEN","city":"KIKUCHI GUN OZU MACHI","town":"FURUJO","perfecture_jp":"熊本県","jp_add_1":"菊池郡大津町","jp_add_2":"古城"},"8691215":{"post_code":"8691215","prefecture":"KUMAMOTO KEN","city":"KIKUCHI GUN OZU MACHI","town":"HOKAMAKI","perfecture_jp":"熊本県","jp_add_1":"菊池郡大津町","jp_add_2":"外牧"},"8691212":{"post_code":"8691212","prefecture":"KUMAMOTO KEN","city":"KIKUCHI GUN OZU MACHI","town":"MAKI","perfecture_jp":"熊本県","jp_add_1":"菊池郡大津町","jp_add_2":"真木"},"8691224":{"post_code":"8691224","prefecture":"KUMAMOTO KEN","city":"KIKUCHI GUN OZU MACHI","town":"MACHI","perfecture_jp":"熊本県","jp_add_1":"菊池郡大津町","jp_add_2":"町"},"8691237":{"post_code":"8691237","prefecture":"KUMAMOTO KEN","city":"KIKUCHI GUN OZU MACHI","town":"MISAKINO","perfecture_jp":"熊本県","jp_add_1":"菊池郡大津町","jp_add_2":"美咲野"},"8691235":{"post_code":"8691235","prefecture":"KUMAMOTO KEN","city":"KIKUCHI GUN OZU MACHI","town":"MURO","perfecture_jp":"熊本県","jp_add_1":"菊池郡大津町","jp_add_2":"室"},"8691217":{"post_code":"8691217","prefecture":"KUMAMOTO KEN","city":"KIKUCHI GUN OZU MACHI","town":"MORI","perfecture_jp":"熊本県","jp_add_1":"菊池郡大津町","jp_add_2":"森"},"8691211":{"post_code":"8691211","prefecture":"KUMAMOTO KEN","city":"KIKUCHI GUN OZU MACHI","town":"YAGOGAWA","perfecture_jp":"熊本県","jp_add_1":"菊池郡大津町","jp_add_2":"矢護川"},"8691100":{"post_code":"8691100","prefecture":"KUMAMOTO KEN","city":"KIKUCHI GUN KIKUYO MACHI","town":"IKANIKEISAIGANAIBAAI","perfecture_jp":"熊本県","jp_add_1":"菊池郡菊陽町","jp_add_2":""},"8691115":{"post_code":"8691115","prefecture":"KUMAMOTO KEN","city":"KIKUCHI GUN KIKUYO MACHI","town":"OKINO","perfecture_jp":"熊本県","jp_add_1":"菊池郡菊陽町","jp_add_2":"沖野"},"8691107":{"post_code":"8691107","prefecture":"KUMAMOTO KEN","city":"KIKUCHI GUN KIKUYO MACHI","town":"KARAKAWA","perfecture_jp":"熊本県","jp_add_1":"菊池郡菊陽町","jp_add_2":"辛川"},"8691103":{"post_code":"8691103","prefecture":"KUMAMOTO KEN","city":"KIKUCHI GUN KIKUYO MACHI","town":"KUBOTA","perfecture_jp":"熊本県","jp_add_1":"菊池郡菊陽町","jp_add_2":"久保田"},"8691114":{"post_code":"8691114","prefecture":"KUMAMOTO KEN","city":"KIKUCHI GUN KIKUYO MACHI","town":"KOYODAI","perfecture_jp":"熊本県","jp_add_1":"菊池郡菊陽町","jp_add_2":"向陽台"},"8691109":{"post_code":"8691109","prefecture":"KUMAMOTO KEN","city":"KIKUCHI GUN KIKUYO MACHI","town":"SHINYAMA","perfecture_jp":"熊本県","jp_add_1":"菊池郡菊陽町","jp_add_2":"新山"},"8691110":{"post_code":"8691110","prefecture":"KUMAMOTO KEN","city":"KIKUCHI GUN KIKUYO MACHI","town":"SUGINAMIDAI","perfecture_jp":"熊本県","jp_add_1":"菊池郡菊陽町","jp_add_2":"杉並台"},"8691101":{"post_code":"8691101","prefecture":"KUMAMOTO KEN","city":"KIKUCHI GUN KIKUYO MACHI","town":"TSUKURE","perfecture_jp":"熊本県","jp_add_1":"菊池郡菊陽町","jp_add_2":"津久礼"},"8691104":{"post_code":"8691104","prefecture":"KUMAMOTO KEN","city":"KIKUCHI GUN KIKUYO MACHI","town":"TOTSUGI","perfecture_jp":"熊本県","jp_add_1":"菊池郡菊陽町","jp_add_2":"戸次"},"8691113":{"post_code":"8691113","prefecture":"KUMAMOTO KEN","city":"KIKUCHI GUN KIKUYO MACHI","town":"HANATATE","perfecture_jp":"熊本県","jp_add_1":"菊池郡菊陽町","jp_add_2":"花立"},"8691105":{"post_code":"8691105","prefecture":"KUMAMOTO KEN","city":"KIKUCHI GUN KIKUYO MACHI","town":"BABAGUSU","perfecture_jp":"熊本県","jp_add_1":"菊池郡菊陽町","jp_add_2":"馬場楠"},"8691102":{"post_code":"8691102","prefecture":"KUMAMOTO KEN","city":"KIKUCHI GUN KIKUYO MACHI","town":"HARAMIZU","perfecture_jp":"熊本県","jp_add_1":"菊池郡菊陽町","jp_add_2":"原水"},"8691108":{"post_code":"8691108","prefecture":"KUMAMOTO KEN","city":"KIKUCHI GUN KIKUYO MACHI","town":"HIKARINOMORI","perfecture_jp":"熊本県","jp_add_1":"菊池郡菊陽町","jp_add_2":"光の森"},"8691106":{"post_code":"8691106","prefecture":"KUMAMOTO KEN","city":"KIKUCHI GUN KIKUYO MACHI","town":"MAGATE","perfecture_jp":"熊本県","jp_add_1":"菊池郡菊陽町","jp_add_2":"曲手"},"8691111":{"post_code":"8691111","prefecture":"KUMAMOTO KEN","city":"KIKUCHI GUN KIKUYO MACHI","town":"MUSASHIGAOKA","perfecture_jp":"熊本県","jp_add_1":"菊池郡菊陽町","jp_add_2":"武蔵ヶ丘"},"8691112":{"post_code":"8691112","prefecture":"KUMAMOTO KEN","city":"KIKUCHI GUN KIKUYO MACHI","town":"MUSASHIGAOKAKITA","perfecture_jp":"熊本県","jp_add_1":"菊池郡菊陽町","jp_add_2":"武蔵ヶ丘北"},"8692400":{"post_code":"8692400","prefecture":"KUMAMOTO KEN","city":"ASO GUN MINAMIOGUNI MACHI","town":"IKANIKEISAIGANAIBAAI","perfecture_jp":"熊本県","jp_add_1":"阿蘇郡南小国町","jp_add_2":""},"8692401":{"post_code":"8692401","prefecture":"KUMAMOTO KEN","city":"ASO GUN MINAMIOGUNI MACHI","town":"AKABABA","perfecture_jp":"熊本県","jp_add_1":"阿蘇郡南小国町","jp_add_2":"赤馬場"},"8692403":{"post_code":"8692403","prefecture":"KUMAMOTO KEN","city":"ASO GUN MINAMIOGUNI MACHI","town":"NAKABARU","perfecture_jp":"熊本県","jp_add_1":"阿蘇郡南小国町","jp_add_2":"中原"},"8692402":{"post_code":"8692402","prefecture":"KUMAMOTO KEN","city":"ASO GUN MINAMIOGUNI MACHI","town":"MANGANJI","perfecture_jp":"熊本県","jp_add_1":"阿蘇郡南小国町","jp_add_2":"満願寺"},"8692500":{"post_code":"8692500","prefecture":"KUMAMOTO KEN","city":"ASO GUN OGUNI MACHI","town":"IKANIKEISAIGANAIBAAI","perfecture_jp":"熊本県","jp_add_1":"阿蘇郡小国町","jp_add_2":""},"8692506":{"post_code":"8692506","prefecture":"KUMAMOTO KEN","city":"ASO GUN OGUNI MACHI","town":"KAMIDA","perfecture_jp":"熊本県","jp_add_1":"阿蘇郡小国町","jp_add_2":"上田"},"8692505":{"post_code":"8692505","prefecture":"KUMAMOTO KEN","city":"ASO GUN OGUNI MACHI","town":"KITAZATO","perfecture_jp":"熊本県","jp_add_1":"阿蘇郡小国町","jp_add_2":"北里"},"8692502":{"post_code":"8692502","prefecture":"KUMAMOTO KEN","city":"ASO GUN OGUNI MACHI","town":"KUROBUCHI","perfecture_jp":"熊本県","jp_add_1":"阿蘇郡小国町","jp_add_2":"黒渕"},"8692503":{"post_code":"8692503","prefecture":"KUMAMOTO KEN","city":"ASO GUN OGUNI MACHI","town":"SHIMOJO","perfecture_jp":"熊本県","jp_add_1":"阿蘇郡小国町","jp_add_2":"下城"},"8692504":{"post_code":"8692504","prefecture":"KUMAMOTO KEN","city":"ASO GUN OGUNI MACHI","town":"NISHIZATO","perfecture_jp":"熊本県","jp_add_1":"阿蘇郡小国町","jp_add_2":"西里"},"8692501":{"post_code":"8692501","prefecture":"KUMAMOTO KEN","city":"ASO GUN OGUNI MACHI","town":"MIYAHARA","perfecture_jp":"熊本県","jp_add_1":"阿蘇郡小国町","jp_add_2":"宮原"},"8692700":{"post_code":"8692700","prefecture":"KUMAMOTO KEN","city":"ASO GUN UBUYAMA MURA","town":"IKANIKEISAIGANAIBAAI","perfecture_jp":"熊本県","jp_add_1":"阿蘇郡産山村","jp_add_2":""},"8692705":{"post_code":"8692705","prefecture":"KUMAMOTO KEN","city":"ASO GUN UBUYAMA MURA","town":"UBUYAMA","perfecture_jp":"熊本県","jp_add_1":"阿蘇郡産山村","jp_add_2":"産山"},"8692702":{"post_code":"8692702","prefecture":"KUMAMOTO KEN","city":"ASO GUN UBUYAMA MURA","town":"ORI","perfecture_jp":"熊本県","jp_add_1":"阿蘇郡産山村","jp_add_2":"大利"},"8692701":{"post_code":"8692701","prefecture":"KUMAMOTO KEN","city":"ASO GUN UBUYAMA MURA","town":"KATAMATA","perfecture_jp":"熊本県","jp_add_1":"阿蘇郡産山村","jp_add_2":"片俣"},"8692704":{"post_code":"8692704","prefecture":"KUMAMOTO KEN","city":"ASO GUN UBUYAMA MURA","town":"TAJIRI","perfecture_jp":"熊本県","jp_add_1":"阿蘇郡産山村","jp_add_2":"田尻"},"8692703":{"post_code":"8692703","prefecture":"KUMAMOTO KEN","city":"ASO GUN UBUYAMA MURA","town":"YAMAGA","perfecture_jp":"熊本県","jp_add_1":"阿蘇郡産山村","jp_add_2":"山鹿"},"8691600":{"post_code":"8691600","prefecture":"KUMAMOTO KEN","city":"ASO GUN TAKAMORI MACHI","town":"IKANIKEISAIGANAIBAAI","perfecture_jp":"熊本県","jp_add_1":"阿蘇郡高森町","jp_add_2":""},"8691825":{"post_code":"8691825","prefecture":"KUMAMOTO KEN","city":"ASO GUN TAKAMORI MACHI","town":"OKUDARI","perfecture_jp":"熊本県","jp_add_1":"阿蘇郡高森町","jp_add_2":"尾下"},"8691601":{"post_code":"8691601","prefecture":"KUMAMOTO KEN","city":"ASO GUN TAKAMORI MACHI","town":"KAMISHIKIMI","perfecture_jp":"熊本県","jp_add_1":"阿蘇郡高森町","jp_add_2":"上色見"},"8691826":{"post_code":"8691826","prefecture":"KUMAMOTO KEN","city":"ASO GUN TAKAMORI MACHI","town":"KAWARA","perfecture_jp":"熊本県","jp_add_1":"阿蘇郡高森町","jp_add_2":"河原"},"8691811":{"post_code":"8691811","prefecture":"KUMAMOTO KEN","city":"ASO GUN TAKAMORI MACHI","town":"KUSAKABE","perfecture_jp":"熊本県","jp_add_1":"阿蘇郡高森町","jp_add_2":"草部"},"8691603":{"post_code":"8691603","prefecture":"KUMAMOTO KEN","city":"ASO GUN TAKAMORI MACHI","town":"SHIKIMI","perfecture_jp":"熊本県","jp_add_1":"阿蘇郡高森町","jp_add_2":"色見"},"8691815":{"post_code":"8691815","prefecture":"KUMAMOTO KEN","city":"ASO GUN TAKAMORI MACHI","town":"SHITAGIRI","perfecture_jp":"熊本県","jp_add_1":"阿蘇郡高森町","jp_add_2":"下切"},"8691813":{"post_code":"8691813","prefecture":"KUMAMOTO KEN","city":"ASO GUN TAKAMORI MACHI","town":"SUGAYAMA","perfecture_jp":"熊本県","jp_add_1":"阿蘇郡高森町","jp_add_2":"菅山"},"8691812":{"post_code":"8691812","prefecture":"KUMAMOTO KEN","city":"ASO GUN TAKAMORI MACHI","town":"SERIGUCHI","perfecture_jp":"熊本県","jp_add_1":"阿蘇郡高森町","jp_add_2":"芹口"},"8691602":{"post_code":"8691602","prefecture":"KUMAMOTO KEN","city":"ASO GUN TAKAMORI MACHI","town":"TAKAMORI","perfecture_jp":"熊本県","jp_add_1":"阿蘇郡高森町","jp_add_2":"高森"},"8691823":{"post_code":"8691823","prefecture":"KUMAMOTO KEN","city":"ASO GUN TAKAMORI MACHI","town":"TSURU","perfecture_jp":"熊本県","jp_add_1":"阿蘇郡高森町","jp_add_2":"津留"},"8691821":{"post_code":"8691821","prefecture":"KUMAMOTO KEN","city":"ASO GUN TAKAMORI MACHI","town":"NAKA","perfecture_jp":"熊本県","jp_add_1":"阿蘇郡高森町","jp_add_2":"中"},"8691814":{"post_code":"8691814","prefecture":"KUMAMOTO KEN","city":"ASO GUN TAKAMORI MACHI","town":"NAGANOHARU","perfecture_jp":"熊本県","jp_add_1":"阿蘇郡高森町","jp_add_2":"永野原"},"8691824":{"post_code":"8691824","prefecture":"KUMAMOTO KEN","city":"ASO GUN TAKAMORI MACHI","town":"NOJIRI","perfecture_jp":"熊本県","jp_add_1":"阿蘇郡高森町","jp_add_2":"野尻"},"8691822":{"post_code":"8691822","prefecture":"KUMAMOTO KEN","city":"ASO GUN TAKAMORI MACHI","town":"YATSUDA","perfecture_jp":"熊本県","jp_add_1":"阿蘇郡高森町","jp_add_2":"矢津田"},"8691400":{"post_code":"8691400","prefecture":"KUMAMOTO KEN","city":"ASO GUN MINAMIASO MURA","town":"IKANIKEISAIGANAIBAAI","perfecture_jp":"熊本県","jp_add_1":"阿蘇郡南阿蘇村","jp_add_2":""},"8691504":{"post_code":"8691504","prefecture":"KUMAMOTO KEN","city":"ASO GUN MINAMIASO MURA","town":"ICHIZEKI","perfecture_jp":"熊本県","jp_add_1":"阿蘇郡南阿蘇村","jp_add_2":"一関"},"8691411":{"post_code":"8691411","prefecture":"KUMAMOTO KEN","city":"ASO GUN MINAMIASO MURA","town":"KAIN","perfecture_jp":"熊本県","jp_add_1":"阿蘇郡南阿蘇村","jp_add_2":"河陰"},"8691404":{"post_code":"8691404","prefecture":"KUMAMOTO KEN","city":"ASO GUN MINAMIASO MURA","town":"KAWAYO","perfecture_jp":"熊本県","jp_add_1":"阿蘇郡南阿蘇村","jp_add_2":"河陽"},"8691402":{"post_code":"8691402","prefecture":"KUMAMOTO KEN","city":"ASO GUN MINAMIASO MURA","town":"SHIMONO","perfecture_jp":"熊本県","jp_add_1":"阿蘇郡南阿蘇村","jp_add_2":"下野"},"8691502":{"post_code":"8691502","prefecture":"KUMAMOTO KEN","city":"ASO GUN MINAMIASO MURA","town":"SHIRAKAWA","perfecture_jp":"熊本県","jp_add_1":"阿蘇郡南阿蘇村","jp_add_2":"白川"},"8691401":{"post_code":"8691401","prefecture":"KUMAMOTO KEN","city":"ASO GUN MINAMIASO MURA","town":"TATENO","perfecture_jp":"熊本県","jp_add_1":"阿蘇郡南阿蘇村","jp_add_2":"立野"},"8691403":{"post_code":"8691403","prefecture":"KUMAMOTO KEN","city":"ASO GUN MINAMIASO MURA","town":"NAGANO","perfecture_jp":"熊本県","jp_add_1":"阿蘇郡南阿蘇村","jp_add_2":"長野"},"8692205":{"post_code":"8692205","prefecture":"KUMAMOTO KEN","city":"ASO GUN MINAMIASO MURA","town":"NAKAMATSU(FURUBOCHU)","perfecture_jp":"熊本県","jp_add_1":"阿蘇郡南阿蘇村","jp_add_2":"中松"},"8691505":{"post_code":"8691505","prefecture":"KUMAMOTO KEN","city":"ASO GUN MINAMIASO MURA","town":"NAKAMATSU(SONOTA)","perfecture_jp":"熊本県","jp_add_1":"阿蘇郡南阿蘇村","jp_add_2":"中松"},"8691412":{"post_code":"8691412","prefecture":"KUMAMOTO KEN","city":"ASO GUN MINAMIASO MURA","town":"HISAISHI","perfecture_jp":"熊本県","jp_add_1":"阿蘇郡南阿蘇村","jp_add_2":"久石"},"8691503":{"post_code":"8691503","prefecture":"KUMAMOTO KEN","city":"ASO GUN MINAMIASO MURA","town":"YOSHIDA","perfecture_jp":"熊本県","jp_add_1":"阿蘇郡南阿蘇村","jp_add_2":"吉田"},"8691501":{"post_code":"8691501","prefecture":"KUMAMOTO KEN","city":"ASO GUN MINAMIASO MURA","town":"RYOHEI","perfecture_jp":"熊本県","jp_add_1":"阿蘇郡南阿蘇村","jp_add_2":"両併"},"8694600":{"post_code":"8694600","prefecture":"KUMAMOTO KEN","city":"YATSUSHIRO GUN HIKAWA CHO","town":"IKANIKEISAIGANAIBAAI","perfecture_jp":"熊本県","jp_add_1":"八代郡氷川町","jp_add_2":""},"8694812":{"post_code":"8694812","prefecture":"KUMAMOTO KEN","city":"YATSUSHIRO GUN HIKAWA CHO","town":"AMIDO","perfecture_jp":"熊本県","jp_add_1":"八代郡氷川町","jp_add_2":"網道"},"8694604":{"post_code":"8694604","prefecture":"KUMAMOTO KEN","city":"YATSUSHIRO GUN HIKAWA CHO","town":"ARISA","perfecture_jp":"熊本県","jp_add_1":"八代郡氷川町","jp_add_2":"有佐"},"8694601":{"post_code":"8694601","prefecture":"KUMAMOTO KEN","city":"YATSUSHIRO GUN HIKAWA CHO","town":"IMA","perfecture_jp":"熊本県","jp_add_1":"八代郡氷川町","jp_add_2":"今"},"8694804":{"post_code":"8694804","prefecture":"KUMAMOTO KEN","city":"YATSUSHIRO GUN HIKAWA CHO","town":"ONO","perfecture_jp":"熊本県","jp_add_1":"八代郡氷川町","jp_add_2":"大野"},"8694607":{"post_code":"8694607","prefecture":"KUMAMOTO KEN","city":"YATSUSHIRO GUN HIKAWA CHO","town":"KAKOI","perfecture_jp":"熊本県","jp_add_1":"八代郡氷川町","jp_add_2":"栫"},"8694815":{"post_code":"8694815","prefecture":"KUMAMOTO KEN","city":"YATSUSHIRO GUN HIKAWA CHO","town":"KASHIMA","perfecture_jp":"熊本県","jp_add_1":"八代郡氷川町","jp_add_2":"鹿島"},"8694811":{"post_code":"8694811","prefecture":"KUMAMOTO KEN","city":"YATSUSHIRO GUN HIKAWA CHO","town":"KANO","perfecture_jp":"熊本県","jp_add_1":"八代郡氷川町","jp_add_2":"鹿野"},"8694806":{"post_code":"8694806","prefecture":"KUMAMOTO KEN","city":"YATSUSHIRO GUN HIKAWA CHO","town":"KAWAHARA","perfecture_jp":"熊本県","jp_add_1":"八代郡氷川町","jp_add_2":"河原"},"8694814":{"post_code":"8694814","prefecture":"KUMAMOTO KEN","city":"YATSUSHIRO GUN HIKAWA CHO","town":"SHIMACHI","perfecture_jp":"熊本県","jp_add_1":"八代郡氷川町","jp_add_2":"島地"},"8694801":{"post_code":"8694801","prefecture":"KUMAMOTO KEN","city":"YATSUSHIRO GUN HIKAWA CHO","town":"SHINDEN","perfecture_jp":"熊本県","jp_add_1":"八代郡氷川町","jp_add_2":"新田"},"8694802":{"post_code":"8694802","prefecture":"KUMAMOTO KEN","city":"YATSUSHIRO GUN HIKAWA CHO","town":"TAKATSUKA","perfecture_jp":"熊本県","jp_add_1":"八代郡氷川町","jp_add_2":"高塚"},"8694603":{"post_code":"8694603","prefecture":"KUMAMOTO KEN","city":"YATSUSHIRO GUN HIKAWA CHO","town":"TATEGAMI","perfecture_jp":"熊本県","jp_add_1":"八代郡氷川町","jp_add_2":"立神"},"8694605":{"post_code":"8694605","prefecture":"KUMAMOTO KEN","city":"YATSUSHIRO GUN HIKAWA CHO","town":"NAKASHIMA","perfecture_jp":"熊本県","jp_add_1":"八代郡氷川町","jp_add_2":"中島"},"8694805":{"post_code":"8694805","prefecture":"KUMAMOTO KEN","city":"YATSUSHIRO GUN HIKAWA CHO","town":"NOZU","perfecture_jp":"熊本県","jp_add_1":"八代郡氷川町","jp_add_2":"野津"},"8694606":{"post_code":"8694606","prefecture":"KUMAMOTO KEN","city":"YATSUSHIRO GUN HIKAWA CHO","town":"HAYAO","perfecture_jp":"熊本県","jp_add_1":"八代郡氷川町","jp_add_2":"早尾"},"8694602":{"post_code":"8694602","prefecture":"KUMAMOTO KEN","city":"YATSUSHIRO GUN HIKAWA CHO","town":"MIYAHARA","perfecture_jp":"熊本県","jp_add_1":"八代郡氷川町","jp_add_2":"宮原"},"8694608":{"post_code":"8694608","prefecture":"KUMAMOTO KEN","city":"YATSUSHIRO GUN HIKAWA CHO","town":"MIYAHARA EIKYU","perfecture_jp":"熊本県","jp_add_1":"八代郡氷川町","jp_add_2":"宮原栄久"},"8694803":{"post_code":"8694803","prefecture":"KUMAMOTO KEN","city":"YATSUSHIRO GUN HIKAWA CHO","town":"YOSHIMOTO","perfecture_jp":"熊本県","jp_add_1":"八代郡氷川町","jp_add_2":"吉本"},"8694813":{"post_code":"8694813","prefecture":"KUMAMOTO KEN","city":"YATSUSHIRO GUN HIKAWA CHO","town":"WAKASU","perfecture_jp":"熊本県","jp_add_1":"八代郡氷川町","jp_add_2":"若洲"},"8695400":{"post_code":"8695400","prefecture":"KUMAMOTO KEN","city":"ASHIKITA GUN ASHIKITA MACHI","town":"IKANIKEISAIGANAIBAAI","perfecture_jp":"熊本県","jp_add_1":"葦北郡芦北町","jp_add_2":""},"8695561":{"post_code":"8695561","prefecture":"KUMAMOTO KEN","city":"ASHIKITA GUN ASHIKITA MACHI","town":"ASHIKITA(KITADA.NAKAWARI.NISHIWARI.","perfecture_jp":"熊本県","jp_add_1":"葦北郡芦北町","jp_add_2":"芦北"},"8695461":{"post_code":"8695461","prefecture":"KUMAMOTO KEN","city":"ASHIKITA GUN ASHIKITA MACHI","town":"ASHIKITA(SONOTA)","perfecture_jp":"熊本県","jp_add_1":"葦北郡芦北町","jp_add_2":"芦北"},"8696301":{"post_code":"8696301","prefecture":"KUMAMOTO KEN","city":"ASHIKITA GUN ASHIKITA MACHI","town":"AMATSUKI","perfecture_jp":"熊本県","jp_add_1":"葦北郡芦北町","jp_add_2":"天月"},"8696306":{"post_code":"8696306","prefecture":"KUMAMOTO KEN","city":"ASHIKITA GUN ASHIKITA MACHI","town":"ICHINOSE","perfecture_jp":"熊本県","jp_add_1":"葦北郡芦北町","jp_add_2":"市野瀬"},"8695307":{"post_code":"8695307","prefecture":"KUMAMOTO KEN","city":"ASHIKITA GUN ASHIKITA MACHI","town":"IMUTA","perfecture_jp":"熊本県","jp_add_1":"葦北郡芦北町","jp_add_2":"井牟田"},"8695304":{"post_code":"8695304","prefecture":"KUMAMOTO KEN","city":"ASHIKITA GUN ASHIKITA MACHI","town":"UMINORA","perfecture_jp":"熊本県","jp_add_1":"葦北郡芦北町","jp_add_2":"海浦"},"8696215":{"post_code":"8696215","prefecture":"KUMAMOTO KEN","city":"ASHIKITA GUN ASHIKITA MACHI","town":"UWABARU","perfecture_jp":"熊本県","jp_add_1":"葦北郡芦北町","jp_add_2":"上原"},"8696211":{"post_code":"8696211","prefecture":"KUMAMOTO KEN","city":"ASHIKITA GUN ASHIKITA MACHI","town":"EBIRASE","perfecture_jp":"熊本県","jp_add_1":"葦北郡芦北町","jp_add_2":"箙瀬"},"8696213":{"post_code":"8696213","prefecture":"KUMAMOTO KEN","city":"ASHIKITA GUN ASHIKITA MACHI","town":"OIWA","perfecture_jp":"熊本県","jp_add_1":"葦北郡芦北町","jp_add_2":"大岩"},"8695574":{"post_code":"8695574","prefecture":"KUMAMOTO KEN","city":"ASHIKITA GUN ASHIKITA MACHI","town":"OKAWACHI","perfecture_jp":"熊本県","jp_add_1":"葦北郡芦北町","jp_add_2":"大川内"},"8695422":{"post_code":"8695422","prefecture":"KUMAMOTO KEN","city":"ASHIKITA GUN ASHIKITA MACHI","town":"ONITA","perfecture_jp":"熊本県","jp_add_1":"葦北郡芦北町","jp_add_2":"大尼田"},"8696305":{"post_code":"8696305","prefecture":"KUMAMOTO KEN","city":"ASHIKITA GUN ASHIKITA MACHI","town":"ONO","perfecture_jp":"熊本県","jp_add_1":"葦北郡芦北町","jp_add_2":"大野"},"8695431":{"post_code":"8695431","prefecture":"KUMAMOTO KEN","city":"ASHIKITA GUN ASHIKITA MACHI","town":"OTOJIYA","perfecture_jp":"熊本県","jp_add_1":"葦北郡芦北町","jp_add_2":"乙千屋"},"8696216":{"post_code":"8696216","prefecture":"KUMAMOTO KEN","city":"ASHIKITA GUN ASHIKITA MACHI","town":"KAIJI","perfecture_jp":"熊本県","jp_add_1":"葦北郡芦北町","jp_add_2":"海路"},"8696304":{"post_code":"8696304","prefecture":"KUMAMOTO KEN","city":"ASHIKITA GUN ASHIKITA MACHI","town":"KUNIMI","perfecture_jp":"熊本県","jp_add_1":"葦北郡芦北町","jp_add_2":"国見"},"8696214":{"post_code":"8696214","prefecture":"KUMAMOTO KEN","city":"ASHIKITA GUN ASHIKITA MACHI","town":"KUROIWA","perfecture_jp":"熊本県","jp_add_1":"葦北郡芦北町","jp_add_2":"黒岩"},"8695434":{"post_code":"8695434","prefecture":"KUMAMOTO KEN","city":"ASHIKITA GUN ASHIKITA MACHI","town":"KUWABARA","perfecture_jp":"熊本県","jp_add_1":"葦北郡芦北町","jp_add_2":"桑原"},"8695303":{"post_code":"8695303","prefecture":"KUMAMOTO KEN","city":"ASHIKITA GUN ASHIKITA MACHI","town":"KODANORA","perfecture_jp":"熊本県","jp_add_1":"葦北郡芦北町","jp_add_2":"小田浦"},"8695441":{"post_code":"8695441","prefecture":"KUMAMOTO KEN","city":"ASHIKITA GUN ASHIKITA MACHI","town":"SASHIKI","perfecture_jp":"熊本県","jp_add_1":"葦北郡芦北町","jp_add_2":"佐敷"},"8696307":{"post_code":"8696307","prefecture":"KUMAMOTO KEN","city":"ASHIKITA GUN ASHIKITA MACHI","town":"SHIOHITASHI","perfecture_jp":"熊本県","jp_add_1":"葦北郡芦北町","jp_add_2":"塩浸"},"8696302":{"post_code":"8696302","prefecture":"KUMAMOTO KEN","city":"ASHIKITA GUN ASHIKITA MACHI","town":"SHIRAISHI","perfecture_jp":"熊本県","jp_add_1":"葦北郡芦北町","jp_add_2":"白石"},"8695452":{"post_code":"8695452","prefecture":"KUMAMOTO KEN","city":"ASHIKITA GUN ASHIKITA MACHI","town":"SHIRAIWA","perfecture_jp":"熊本県","jp_add_1":"葦北郡芦北町","jp_add_2":"白岩"},"8696308":{"post_code":"8696308","prefecture":"KUMAMOTO KEN","city":"ASHIKITA GUN ASHIKITA MACHI","town":"SHIRAKI","perfecture_jp":"熊本県","jp_add_1":"葦北郡芦北町","jp_add_2":"白木"},"8695576":{"post_code":"8695576","prefecture":"KUMAMOTO KEN","city":"ASHIKITA GUN ASHIKITA MACHI","town":"TAKAOKA","perfecture_jp":"熊本県","jp_add_1":"葦北郡芦北町","jp_add_2":"高岡"},"8695443":{"post_code":"8695443","prefecture":"KUMAMOTO KEN","city":"ASHIKITA GUN ASHIKITA MACHI","town":"TAGAWA","perfecture_jp":"熊本県","jp_add_1":"葦北郡芦北町","jp_add_2":"田川"},"8695421":{"post_code":"8695421","prefecture":"KUMAMOTO KEN","city":"ASHIKITA GUN ASHIKITA MACHI","town":"TACHIKAWA","perfecture_jp":"熊本県","jp_add_1":"葦北郡芦北町","jp_add_2":"立川"},"8695302":{"post_code":"8695302","prefecture":"KUMAMOTO KEN","city":"ASHIKITA GUN ASHIKITA MACHI","town":"TANORA","perfecture_jp":"熊本県","jp_add_1":"葦北郡芦北町","jp_add_2":"田浦"},"8695305":{"post_code":"8695305","prefecture":"KUMAMOTO KEN","city":"ASHIKITA GUN ASHIKITA MACHI","town":"TANORAMACHI","perfecture_jp":"熊本県","jp_add_1":"葦北郡芦北町","jp_add_2":"田浦町"},"8696303":{"post_code":"8696303","prefecture":"KUMAMOTO KEN","city":"ASHIKITA GUN ASHIKITA MACHI","town":"TSUGE","perfecture_jp":"熊本県","jp_add_1":"葦北郡芦北町","jp_add_2":"告"},"8695454":{"post_code":"8695454","prefecture":"KUMAMOTO KEN","city":"ASHIKITA GUN ASHIKITA MACHI","town":"TSURUGIYAMA","perfecture_jp":"熊本県","jp_add_1":"葦北郡芦北町","jp_add_2":"鶴木山"},"8695571":{"post_code":"8695571","prefecture":"KUMAMOTO KEN","city":"ASHIKITA GUN ASHIKITA MACHI","town":"TOYOKA","perfecture_jp":"熊本県","jp_add_1":"葦北郡芦北町","jp_add_2":"豊岡"},"8695453":{"post_code":"8695453","prefecture":"KUMAMOTO KEN","city":"ASHIKITA GUN ASHIKITA MACHI","town":"HAKARIISHI","perfecture_jp":"熊本県","jp_add_1":"葦北郡芦北町","jp_add_2":"計石"},"8695306":{"post_code":"8695306","prefecture":"KUMAMOTO KEN","city":"ASHIKITA GUN ASHIKITA MACHI","town":"HATATO","perfecture_jp":"熊本県","jp_add_1":"葦北郡芦北町","jp_add_2":"波多島"},"8695442":{"post_code":"8695442","prefecture":"KUMAMOTO KEN","city":"ASHIKITA GUN ASHIKITA MACHI","town":"HANAOKA","perfecture_jp":"熊本県","jp_add_1":"葦北郡芦北町","jp_add_2":"花岡"},"8695424":{"post_code":"8695424","prefecture":"KUMAMOTO KEN","city":"ASHIKITA GUN ASHIKITA MACHI","town":"FUSHIKI","perfecture_jp":"熊本県","jp_add_1":"葦北郡芦北町","jp_add_2":"伏木氏"},"8695575":{"post_code":"8695575","prefecture":"KUMAMOTO KEN","city":"ASHIKITA GUN ASHIKITA MACHI","town":"FURUISHI","perfecture_jp":"熊本県","jp_add_1":"葦北郡芦北町","jp_add_2":"古石"},"8695423":{"post_code":"8695423","prefecture":"KUMAMOTO KEN","city":"ASHIKITA GUN ASHIKITA MACHI","town":"MATSUBAE","perfecture_jp":"熊本県","jp_add_1":"葦北郡芦北町","jp_add_2":"松生"},"8695572":{"post_code":"8695572","prefecture":"KUMAMOTO KEN","city":"ASHIKITA GUN ASHIKITA MACHI","town":"MARUYAMA","perfecture_jp":"熊本県","jp_add_1":"葦北郡芦北町","jp_add_2":"丸山"},"8695451":{"post_code":"8695451","prefecture":"KUMAMOTO KEN","city":"ASHIKITA GUN ASHIKITA MACHI","town":"MICHIGAWACHI","perfecture_jp":"熊本県","jp_add_1":"葦北郡芦北町","jp_add_2":"道川内"},"8695562":{"post_code":"8695562","prefecture":"KUMAMOTO KEN","city":"ASHIKITA GUN ASHIKITA MACHI","town":"MIYAZAKI","perfecture_jp":"熊本県","jp_add_1":"葦北郡芦北町","jp_add_2":"宮崎"},"8695432":{"post_code":"8695432","prefecture":"KUMAMOTO KEN","city":"ASHIKITA GUN ASHIKITA MACHI","town":"MIYANORA","perfecture_jp":"熊本県","jp_add_1":"葦北郡芦北町","jp_add_2":"宮浦"},"8695564":{"post_code":"8695564","prefecture":"KUMAMOTO KEN","city":"ASHIKITA GUN ASHIKITA MACHI","town":"MESHIMA","perfecture_jp":"熊本県","jp_add_1":"葦北郡芦北町","jp_add_2":"女島"},"8695433":{"post_code":"8695433","prefecture":"KUMAMOTO KEN","city":"ASHIKITA GUN ASHIKITA MACHI","town":"YAHATA","perfecture_jp":"熊本県","jp_add_1":"葦北郡芦北町","jp_add_2":"八幡"},"8695563":{"post_code":"8695563","prefecture":"KUMAMOTO KEN","city":"ASHIKITA GUN ASHIKITA MACHI","town":"YUNORA","perfecture_jp":"熊本県","jp_add_1":"葦北郡芦北町","jp_add_2":"湯浦"},"8695301":{"post_code":"8695301","prefecture":"KUMAMOTO KEN","city":"ASHIKITA GUN ASHIKITA MACHI","town":"YOKOIGI","perfecture_jp":"熊本県","jp_add_1":"葦北郡芦北町","jp_add_2":"横居木"},"8696212":{"post_code":"8696212","prefecture":"KUMAMOTO KEN","city":"ASHIKITA GUN ASHIKITA MACHI","town":"YOSHIO","perfecture_jp":"熊本県","jp_add_1":"葦北郡芦北町","jp_add_2":"吉尾"},"8695573":{"post_code":"8695573","prefecture":"KUMAMOTO KEN","city":"ASHIKITA GUN ASHIKITA MACHI","town":"YONEDA","perfecture_jp":"熊本県","jp_add_1":"葦北郡芦北町","jp_add_2":"米田"},"8695600":{"post_code":"8695600","prefecture":"KUMAMOTO KEN","city":"ASHIKITA GUN TSUNAGI MACHI","town":"IKANIKEISAIGANAIBAAI","perfecture_jp":"熊本県","jp_add_1":"葦北郡津奈木町","jp_add_2":""},"8695603":{"post_code":"8695603","prefecture":"KUMAMOTO KEN","city":"ASHIKITA GUN TSUNAGI MACHI","town":"IWAKI","perfecture_jp":"熊本県","jp_add_1":"葦北郡津奈木町","jp_add_2":"岩城"},"8695604":{"post_code":"8695604","prefecture":"KUMAMOTO KEN","city":"ASHIKITA GUN TSUNAGI MACHI","town":"KOTSUNAGI","perfecture_jp":"熊本県","jp_add_1":"葦北郡津奈木町","jp_add_2":"小津奈木"},"8695601":{"post_code":"8695601","prefecture":"KUMAMOTO KEN","city":"ASHIKITA GUN TSUNAGI MACHI","town":"CHIYO","perfecture_jp":"熊本県","jp_add_1":"葦北郡津奈木町","jp_add_2":"千代"},"8695602":{"post_code":"8695602","prefecture":"KUMAMOTO KEN","city":"ASHIKITA GUN TSUNAGI MACHI","town":"TSUNAGI","perfecture_jp":"熊本県","jp_add_1":"葦北郡津奈木町","jp_add_2":"津奈木"},"8695605":{"post_code":"8695605","prefecture":"KUMAMOTO KEN","city":"ASHIKITA GUN TSUNAGI MACHI","town":"FUKUHAMA","perfecture_jp":"熊本県","jp_add_1":"葦北郡津奈木町","jp_add_2":"福浜"},"8696400":{"post_code":"8696400","prefecture":"KUMAMOTO KEN","city":"KUMA GUN KUMA MURA","town":"IKANIKEISAIGANAIBAAI","perfecture_jp":"熊本県","jp_add_1":"球磨郡球磨村","jp_add_2":""},"8696403":{"post_code":"8696403","prefecture":"KUMAMOTO KEN","city":"KUMA GUN KUMA MURA","town":"ISSHOCHI","perfecture_jp":"熊本県","jp_add_1":"球磨郡球磨村","jp_add_2":"一勝地"},"8696405":{"post_code":"8696405","prefecture":"KUMAMOTO KEN","city":"KUMA GUN KUMA MURA","town":"OSE(SAWAMI)","perfecture_jp":"熊本県","jp_add_1":"球磨郡球磨村","jp_add_2":"大瀬"},"8696205":{"post_code":"8696205","prefecture":"KUMAMOTO KEN","city":"KUMA GUN KUMA MURA","town":"OSE(SONOTA)","perfecture_jp":"熊本県","jp_add_1":"球磨郡球磨村","jp_add_2":"大瀬"},"8696404":{"post_code":"8696404","prefecture":"KUMAMOTO KEN","city":"KUMA GUN KUMA MURA","town":"KONOSE(OTSUKI.KURATANI.SAKAGUCHI.TA","perfecture_jp":"熊本県","jp_add_1":"球磨郡球磨村","jp_add_2":"神瀬"},"8696204":{"post_code":"8696204","prefecture":"KUMAMOTO KEN","city":"KUMA GUN KUMA MURA","town":"KONOSE(SONOTA)","perfecture_jp":"熊本県","jp_add_1":"球磨郡球磨村","jp_add_2":"神瀬"},"8696402":{"post_code":"8696402","prefecture":"KUMAMOTO KEN","city":"KUMA GUN KUMA MURA","town":"SANGAURA","perfecture_jp":"熊本県","jp_add_1":"球磨郡球磨村","jp_add_2":"三ケ浦"},"8696401":{"post_code":"8696401","prefecture":"KUMAMOTO KEN","city":"KUMA GUN KUMA MURA","town":"WATARI","perfecture_jp":"熊本県","jp_add_1":"球磨郡球磨村","jp_add_2":"渡"}}