{"8700100":{"post_code":"8700100","prefecture":"OITA KEN","city":"OITA SHI","town":"IKANIKEISAIGANAIBAAI","perfecture_jp":"大分県","jp_add_1":"大分市","jp_add_2":""},"8700278":{"post_code":"8700278","prefecture":"OITA KEN","city":"OITA SHI","town":"AOSAKI","perfecture_jp":"大分県","jp_add_1":"大分市","jp_add_2":"青崎"},"8700875":{"post_code":"8700875","prefecture":"OITA KEN","city":"OITA SHI","town":"AOBADAI","perfecture_jp":"大分県","jp_add_1":"大分市","jp_add_2":"青葉台"},"8700908":{"post_code":"8700908","prefecture":"OITA KEN","city":"OITA SHI","town":"AOBAMACHI","perfecture_jp":"大分県","jp_add_1":"大分市","jp_add_2":"青葉町"},"8700317":{"post_code":"8700317","prefecture":"OITA KEN","city":"OITA SHI","town":"AKAGAWA","perfecture_jp":"大分県","jp_add_1":"大分市","jp_add_2":"丹川"},"8700857":{"post_code":"8700857","prefecture":"OITA KEN","city":"OITA SHI","town":"AKEGAWARA","perfecture_jp":"大分県","jp_add_1":"大分市","jp_add_2":"明磧"},"8700162":{"post_code":"8700162","prefecture":"OITA KEN","city":"OITA SHI","town":"AKENOTAKAO","perfecture_jp":"大分県","jp_add_1":"大分市","jp_add_2":"明野高尾"},"8700161":{"post_code":"8700161","prefecture":"OITA KEN","city":"OITA SHI","town":"AKENOHIGASHI","perfecture_jp":"大分県","jp_add_1":"大分市","jp_add_2":"明野東"},"8700164":{"post_code":"8700164","prefecture":"OITA KEN","city":"OITA SHI","town":"AKENONISHI","perfecture_jp":"大分県","jp_add_1":"大分市","jp_add_2":"明野西"},"8700163":{"post_code":"8700163","prefecture":"OITA KEN","city":"OITA SHI","town":"AKENOMINAMI","perfecture_jp":"大分県","jp_add_1":"大分市","jp_add_2":"明野南"},"8700165":{"post_code":"8700165","prefecture":"OITA KEN","city":"OITA SHI","town":"AKENOKITA","perfecture_jp":"大分県","jp_add_1":"大分市","jp_add_2":"明野北"},"8700166":{"post_code":"8700166","prefecture":"OITA KEN","city":"OITA SHI","town":"AKENOKITAMACHI","perfecture_jp":"大分県","jp_add_1":"大分市","jp_add_2":"明野北町"},"8700167":{"post_code":"8700167","prefecture":"OITA KEN","city":"OITA SHI","town":"AKENOKOYODAI","perfecture_jp":"大分県","jp_add_1":"大分市","jp_add_2":"明野紅陽台"},"8700168":{"post_code":"8700168","prefecture":"OITA KEN","city":"OITA SHI","town":"AKENOHAITSU","perfecture_jp":"大分県","jp_add_1":"大分市","jp_add_2":"明野ハイツ"},"8700273":{"post_code":"8700273","prefecture":"OITA KEN","city":"OITA SHI","town":"AKEBONODAI","perfecture_jp":"大分県","jp_add_1":"大分市","jp_add_2":"曙台"},"8700884":{"post_code":"8700884","prefecture":"OITA KEN","city":"OITA SHI","town":"ASAHIMACHI","perfecture_jp":"大分県","jp_add_1":"大分市","jp_add_2":"旭町"},"8700014":{"post_code":"8700014","prefecture":"OITA KEN","city":"OITA SHI","town":"ASHIZAKI","perfecture_jp":"大分県","jp_add_1":"大分市","jp_add_2":"芦崎"},"8700858":{"post_code":"8700858","prefecture":"OITA KEN","city":"OITA SHI","town":"AMAGASE","perfecture_jp":"大分県","jp_add_1":"大分市","jp_add_2":"尼ケ瀬"},"8700113":{"post_code":"8700113","prefecture":"OITA KEN","city":"OITA SHI","town":"IEJIMA","perfecture_jp":"大分県","jp_add_1":"大分市","jp_add_2":"家島"},"8700003":{"post_code":"8700003","prefecture":"OITA KEN","city":"OITA SHI","town":"IKUSHI","perfecture_jp":"大分県","jp_add_1":"大分市","jp_add_2":"生石"},"8700001":{"post_code":"8700001","prefecture":"OITA KEN","city":"OITA SHI","town":"IKUSHI MINATOMACHI","perfecture_jp":"大分県","jp_add_1":"大分市","jp_add_2":"生石港町"},"8700041":{"post_code":"8700041","prefecture":"OITA KEN","city":"OITA SHI","town":"IZUMIMACHI","perfecture_jp":"大分県","jp_add_1":"大分市","jp_add_2":"泉町"},"8701151":{"post_code":"8701151","prefecture":"OITA KEN","city":"OITA SHI","town":"ICHI","perfecture_jp":"大分県","jp_add_1":"大分市","jp_add_2":"市"},"8700316":{"post_code":"8700316","prefecture":"OITA KEN","city":"OITA SHI","town":"ICHIGI","perfecture_jp":"大分県","jp_add_1":"大分市","jp_add_2":"一木"},"8700312":{"post_code":"8700312","prefecture":"OITA KEN","city":"OITA SHI","town":"ICHINO","perfecture_jp":"大分県","jp_add_1":"大分市","jp_add_2":"市尾"},"8700112":{"post_code":"8700112","prefecture":"OITA KEN","city":"OITA SHI","town":"ICHINOSU","perfecture_jp":"大分県","jp_add_1":"大分市","jp_add_2":"一の洲"},"8700134":{"post_code":"8700134","prefecture":"OITA KEN","city":"OITA SHI","town":"INO","perfecture_jp":"大分県","jp_add_1":"大分市","jp_add_2":"猪野"},"8701223":{"post_code":"8701223","prefecture":"OITA KEN","city":"OITA SHI","town":"IMAICHI","perfecture_jp":"大分県","jp_add_1":"大分市","jp_add_2":"今市"},"8700938":{"post_code":"8700938","prefecture":"OITA KEN","city":"OITA SHI","town":"IMAZURU","perfecture_jp":"大分県","jp_add_1":"大分市","jp_add_2":"今津留"},"8701202":{"post_code":"8701202","prefecture":"OITA KEN","city":"OITA SHI","town":"IRIKURA","perfecture_jp":"大分県","jp_add_1":"大分市","jp_add_2":"入蔵"},"8700936":{"post_code":"8700936","prefecture":"OITA KEN","city":"OITA SHI","town":"IWATAMACHI","perfecture_jp":"大分県","jp_add_1":"大分市","jp_add_2":"岩田町"},"8700886":{"post_code":"8700886","prefecture":"OITA KEN","city":"OITA SHI","town":"UEDAMACHI","perfecture_jp":"大分県","jp_add_1":"大分市","jp_add_2":"上田町"},"8700836":{"post_code":"8700836","prefecture":"OITA KEN","city":"OITA SHI","town":"UENOMINAMI","perfecture_jp":"大分県","jp_add_1":"大分市","jp_add_2":"上野南"},"8700835":{"post_code":"8700835","prefecture":"OITA KEN","city":"OITA SHI","town":"UENOGAOKA","perfecture_jp":"大分県","jp_add_1":"大分市","jp_add_2":"上野丘"},"8700833":{"post_code":"8700833","prefecture":"OITA KEN","city":"OITA SHI","town":"UENOGAOKA HIGASHI","perfecture_jp":"大分県","jp_add_1":"大分市","jp_add_2":"上野丘東"},"8700834":{"post_code":"8700834","prefecture":"OITA KEN","city":"OITA SHI","town":"UENOGAOKA NISHI","perfecture_jp":"大分県","jp_add_1":"大分市","jp_add_2":"上野丘西"},"8700832":{"post_code":"8700832","prefecture":"OITA KEN","city":"OITA SHI","town":"UENOMACHI","perfecture_jp":"大分県","jp_add_1":"大分市","jp_add_2":"上野町"},"8700956":{"post_code":"8700956","prefecture":"OITA KEN","city":"OITA SHI","town":"URAKAWADANCHI","perfecture_jp":"大分県","jp_add_1":"大分市","jp_add_2":"裏川団地"},"8700889":{"post_code":"8700889","prefecture":"OITA KEN","city":"OITA SHI","town":"ENOKUMA","perfecture_jp":"大分県","jp_add_1":"大分市","jp_add_2":"荏隈"},"8700322":{"post_code":"8700322","prefecture":"OITA KEN","city":"OITA SHI","town":"EBISUMACHI","perfecture_jp":"大分県","jp_add_1":"大分市","jp_add_2":"恵比寿町"},"8700819":{"post_code":"8700819","prefecture":"OITA KEN","city":"OITA SHI","town":"OJI SHIMMACHI","perfecture_jp":"大分県","jp_add_1":"大分市","jp_add_2":"王子新町"},"8700006":{"post_code":"8700006","prefecture":"OITA KEN","city":"OITA SHI","town":"OJI NAKAMACHI","perfecture_jp":"大分県","jp_add_1":"大分市","jp_add_2":"王子中町"},"8700004":{"post_code":"8700004","prefecture":"OITA KEN","city":"OITA SHI","town":"OJI MINATOMACHI","perfecture_jp":"大分県","jp_add_1":"大分市","jp_add_2":"王子港町"},"8700008":{"post_code":"8700008","prefecture":"OITA KEN","city":"OITA SHI","town":"OJI NISHIMACHI","perfecture_jp":"大分県","jp_add_1":"大分市","jp_add_2":"王子西町"},"8700007":{"post_code":"8700007","prefecture":"OITA KEN","city":"OITA SHI","town":"OJI MINAMIMACHI","perfecture_jp":"大分県","jp_add_1":"大分市","jp_add_2":"王子南町"},"8700005":{"post_code":"8700005","prefecture":"OITA KEN","city":"OITA SHI","town":"OJI KITAMACHI","perfecture_jp":"大分県","jp_add_1":"大分市","jp_add_2":"王子北町"},"8700813":{"post_code":"8700813","prefecture":"OITA KEN","city":"OITA SHI","town":"OJI YAMANOTEMACHI","perfecture_jp":"大分県","jp_add_1":"大分市","jp_add_2":"王子山の手町"},"8700009":{"post_code":"8700009","prefecture":"OITA KEN","city":"OITA SHI","town":"OJIMACHI","perfecture_jp":"大分県","jp_add_1":"大分市","jp_add_2":"王子町"},"8700321":{"post_code":"8700321","prefecture":"OITA KEN","city":"OITA SHI","town":"ONOSE","perfecture_jp":"大分県","jp_add_1":"大分市","jp_add_2":"王ノ瀬"},"8700851":{"post_code":"8700851","prefecture":"OITA KEN","city":"OITA SHI","town":"OISHIMACHI","perfecture_jp":"大分県","jp_add_1":"大分市","jp_add_2":"大石町"},"8700319":{"post_code":"8700319","prefecture":"OITA KEN","city":"OITA SHI","town":"OITARYUTSUGYOMUDANCHI","perfecture_jp":"大分県","jp_add_1":"大分市","jp_add_2":"大分流通業務団地"},"8700806":{"post_code":"8700806","prefecture":"OITA KEN","city":"OITA SHI","town":"OKUBO","perfecture_jp":"大分県","jp_add_1":"大分市","jp_add_2":"大久保"},"8700266":{"post_code":"8700266","prefecture":"OITA KEN","city":"OITA SHI","town":"OZAI","perfecture_jp":"大分県","jp_add_1":"大分市","jp_add_2":"大在"},"8700245":{"post_code":"8700245","prefecture":"OITA KEN","city":"OITA SHI","town":"OZAIKITA","perfecture_jp":"大分県","jp_add_1":"大分市","jp_add_2":"大在北"},"8700251":{"post_code":"8700251","prefecture":"OITA KEN","city":"OITA SHI","town":"OZAICHUO","perfecture_jp":"大分県","jp_add_1":"大分市","jp_add_2":"大在中央"},"8700252":{"post_code":"8700252","prefecture":"OITA KEN","city":"OITA SHI","town":"OZAIHAMA","perfecture_jp":"大分県","jp_add_1":"大分市","jp_add_2":"大在浜"},"8700906":{"post_code":"8700906","prefecture":"OITA KEN","city":"OITA SHI","town":"OSUHAMA","perfecture_jp":"大分県","jp_add_1":"大分市","jp_add_2":"大州浜"},"8701125":{"post_code":"8701125","prefecture":"OITA KEN","city":"OITA SHI","town":"OZONODANCHI","perfecture_jp":"大分県","jp_add_1":"大分市","jp_add_2":"大園団地"},"8701214":{"post_code":"8701214","prefecture":"OITA KEN","city":"OITA SHI","town":"OTA","perfecture_jp":"大分県","jp_add_1":"大分市","jp_add_2":"太田"},"8700907":{"post_code":"8700907","prefecture":"OITA KEN","city":"OITA SHI","town":"OTSUMACHI","perfecture_jp":"大分県","jp_add_1":"大分市","jp_add_2":"大津町"},"8700123":{"post_code":"8700123","prefecture":"OITA KEN","city":"OITA SHI","town":"OTSURU","perfecture_jp":"大分県","jp_add_1":"大分市","jp_add_2":"大津留"},"8700022":{"post_code":"8700022","prefecture":"OITA KEN","city":"OITA SHI","town":"OTEMACHI","perfecture_jp":"大分県","jp_add_1":"大分市","jp_add_2":"大手町"},"8700822":{"post_code":"8700822","prefecture":"OITA KEN","city":"OITA SHI","town":"OMICHIMACHI","perfecture_jp":"大分県","jp_add_1":"大分市","jp_add_2":"大道町"},"8700158":{"post_code":"8700158","prefecture":"OITA KEN","city":"OITA SHI","town":"OKA","perfecture_jp":"大分県","jp_add_1":"大分市","jp_add_2":"岡"},"8701131":{"post_code":"8701131","prefecture":"OITA KEN","city":"OITA SHI","town":"OKAGAWA","perfecture_jp":"大分県","jp_add_1":"大分市","jp_add_2":"岡川"},"8700159":{"post_code":"8700159","prefecture":"OITA KEN","city":"OITA SHI","town":"OKASHIMMACHI","perfecture_jp":"大分県","jp_add_1":"大分市","jp_add_2":"岡新町"},"8701164":{"post_code":"8701164","prefecture":"OITA KEN","city":"OITA SHI","town":"OGINODAIJUTAKUCHI","perfecture_jp":"大分県","jp_add_1":"大分市","jp_add_2":"雄城台住宅地"},"8701165":{"post_code":"8701165","prefecture":"OITA KEN","city":"OITA SHI","town":"OGINODAIDANCHI","perfecture_jp":"大分県","jp_add_1":"大分市","jp_add_2":"雄城台団地"},"8701121":{"post_code":"8701121","prefecture":"OITA KEN","city":"OITA SHI","town":"OSHINO","perfecture_jp":"大分県","jp_add_1":"大分市","jp_add_2":"鴛野"},"8700144":{"post_code":"8700144","prefecture":"OITA KEN","city":"OITA SHI","town":"OTOZU","perfecture_jp":"大分県","jp_add_1":"大分市","jp_add_2":"乙津"},"8700145":{"post_code":"8700145","prefecture":"OITA KEN","city":"OITA SHI","town":"OTOZUMACHI","perfecture_jp":"大分県","jp_add_1":"大分市","jp_add_2":"乙津町"},"8700146":{"post_code":"8700146","prefecture":"OITA KEN","city":"OITA SHI","town":"OTOZUMINATOMACHI","perfecture_jp":"大分県","jp_add_1":"大分市","jp_add_2":"乙津港町"},"8700114":{"post_code":"8700114","prefecture":"OITA KEN","city":"OITA SHI","town":"ONAKASHIMA","perfecture_jp":"大分県","jp_add_1":"大分市","jp_add_2":"小中島"},"8701171":{"post_code":"8701171","prefecture":"OITA KEN","city":"OITA SHI","town":"ONIZAKI","perfecture_jp":"大分県","jp_add_1":"大分市","jp_add_2":"鬼崎"},"8701153":{"post_code":"8701153","prefecture":"OITA KEN","city":"OITA SHI","town":"ONOZURU","perfecture_jp":"大分県","jp_add_1":"大分市","jp_add_2":"小野鶴"},"8701156":{"post_code":"8701156","prefecture":"OITA KEN","city":"OITA SHI","town":"ONOTSURUSHIMMACHI","perfecture_jp":"大分県","jp_add_1":"大分市","jp_add_2":"小野鶴新町"},"8701150":{"post_code":"8701150","prefecture":"OITA KEN","city":"OITA SHI","town":"ONOTSURUMINAMI","perfecture_jp":"大分県","jp_add_1":"大分市","jp_add_2":"小野鶴南"},"8700107":{"post_code":"8700107","prefecture":"OITA KEN","city":"OITA SHI","town":"KAIWARA","perfecture_jp":"大分県","jp_add_1":"大分市","jp_add_2":"海原"},"8700877":{"post_code":"8700877","prefecture":"OITA KEN","city":"OITA SHI","town":"KAKU","perfecture_jp":"大分県","jp_add_1":"大分市","jp_add_2":"賀来"},"8700848":{"post_code":"8700848","prefecture":"OITA KEN","city":"OITA SHI","town":"KAKUKITA","perfecture_jp":"大分県","jp_add_1":"大分市","jp_add_2":"賀来北"},"8700850":{"post_code":"8700850","prefecture":"OITA KEN","city":"OITA SHI","town":"KAKUNISHI","perfecture_jp":"大分県","jp_add_1":"大分市","jp_add_2":"賀来西"},"8700849":{"post_code":"8700849","prefecture":"OITA KEN","city":"OITA SHI","town":"KAKUMINAMI","perfecture_jp":"大分県","jp_add_1":"大分市","jp_add_2":"賀来南"},"8700011":{"post_code":"8700011","prefecture":"OITA KEN","city":"OITA SHI","town":"KASUGAURA","perfecture_jp":"大分県","jp_add_1":"大分市","jp_add_2":"春日浦"},"8700943":{"post_code":"8700943","prefecture":"OITA KEN","city":"OITA SHI","town":"KATASHIMA","perfecture_jp":"大分県","jp_add_1":"大分市","jp_add_2":"片島"},"8700949":{"post_code":"8700949","prefecture":"OITA KEN","city":"OITA SHI","town":"KATASHIMADAI","perfecture_jp":"大分県","jp_add_1":"大分市","jp_add_2":"かたしま台"},"8700133":{"post_code":"8700133","prefecture":"OITA KEN","city":"OITA SHI","town":"KATSURAGI","perfecture_jp":"大分県","jp_add_1":"大分市","jp_add_2":"葛木"},"8700026":{"post_code":"8700026","prefecture":"OITA KEN","city":"OITA SHI","town":"KANAIKEMACHI","perfecture_jp":"大分県","jp_add_1":"大分市","jp_add_2":"金池町"},"8700839":{"post_code":"8700839","prefecture":"OITA KEN","city":"OITA SHI","town":"KANAIKEMINAMI","perfecture_jp":"大分県","jp_add_1":"大分市","jp_add_2":"金池南"},"8700831":{"post_code":"8700831","prefecture":"OITA KEN","city":"OITA SHI","town":"KANAMEMACHI","perfecture_jp":"大分県","jp_add_1":"大分市","jp_add_2":"要町"},"8700879":{"post_code":"8700879","prefecture":"OITA KEN","city":"OITA SHI","town":"KANAYAZAKO","perfecture_jp":"大分県","jp_add_1":"大分市","jp_add_2":"金谷迫"},"8700926":{"post_code":"8700926","prefecture":"OITA KEN","city":"OITA SHI","town":"KANO","perfecture_jp":"大分県","jp_add_1":"大分市","jp_add_2":"加納"},"8700817":{"post_code":"8700817","prefecture":"OITA KEN","city":"OITA SHI","town":"KAMIKASUGAMACHI","perfecture_jp":"大分県","jp_add_1":"大分市","jp_add_2":"上春日町"},"8700805":{"post_code":"8700805","prefecture":"OITA KEN","city":"OITA SHI","town":"KAMISHIRAKI","perfecture_jp":"大分県","jp_add_1":"大分市","jp_add_2":"上白木"},"8701215":{"post_code":"8701215","prefecture":"OITA KEN","city":"OITA SHI","town":"KAMITSUME","perfecture_jp":"大分県","jp_add_1":"大分市","jp_add_2":"上詰"},"8701111":{"post_code":"8701111","prefecture":"OITA KEN","city":"OITA SHI","town":"KAMIHANDA","perfecture_jp":"大分県","jp_add_1":"大分市","jp_add_2":"上判田"},"8701152":{"post_code":"8701152","prefecture":"OITA KEN","city":"OITA SHI","town":"KAMIMUNAKATA","perfecture_jp":"大分県","jp_add_1":"大分市","jp_add_2":"上宗方"},"8700808":{"post_code":"8700808","prefecture":"OITA KEN","city":"OITA SHI","town":"KAMIYAHATA","perfecture_jp":"大分県","jp_add_1":"大分市","jp_add_2":"上八幡"},"8700927":{"post_code":"8700927","prefecture":"OITA KEN","city":"OITA SHI","town":"KITASHIMOGORI","perfecture_jp":"大分県","jp_add_1":"大分市","jp_add_2":"北下郡"},"8700102":{"post_code":"8700102","prefecture":"OITA KEN","city":"OITA SHI","town":"KITATSURUSAKI","perfecture_jp":"大分県","jp_add_1":"大分市","jp_add_2":"北鶴崎"},"8700311":{"post_code":"8700311","prefecture":"OITA KEN","city":"OITA SHI","town":"KIDA","perfecture_jp":"大分県","jp_add_1":"大分市","jp_add_2":"木田"},"8700809":{"post_code":"8700809","prefecture":"OITA KEN","city":"OITA SHI","town":"KICHOBARU","perfecture_jp":"大分県","jp_add_1":"大分市","jp_add_2":"机張原"},"8701161":{"post_code":"8701161","prefecture":"OITA KEN","city":"OITA SHI","town":"KINOE","perfecture_jp":"大分県","jp_add_1":"大分市","jp_add_2":"木上"},"8700870":{"post_code":"8700870","prefecture":"OITA KEN","city":"OITA SHI","town":"KINOSAKA","perfecture_jp":"大分県","jp_add_1":"大分市","jp_add_2":"季の坂"},"8700959":{"post_code":"8700959","prefecture":"OITA KEN","city":"OITA SHI","town":"KIBOGAOKA","perfecture_jp":"大分県","jp_add_1":"大分市","jp_add_2":"希望が丘"},"8700129":{"post_code":"8700129","prefecture":"OITA KEN","city":"OITA SHI","town":"KYOGAOKAMINAMI","perfecture_jp":"大分県","jp_add_1":"大分市","jp_add_2":"京が丘南"},"8701162":{"post_code":"8701162","prefecture":"OITA KEN","city":"OITA SHI","town":"KUCHIDO","perfecture_jp":"大分県","jp_add_1":"大分市","jp_add_2":"口戸"},"8700314":{"post_code":"8700314","prefecture":"OITA KEN","city":"OITA SHI","town":"KUDO","perfecture_jp":"大分県","jp_add_1":"大分市","jp_add_2":"久土"},"8700304":{"post_code":"8700304","prefecture":"OITA KEN","city":"OITA SHI","town":"KUBARU","perfecture_jp":"大分県","jp_add_1":"大分市","jp_add_2":"久原"},"8700324":{"post_code":"8700324","prefecture":"OITA KEN","city":"OITA SHI","town":"KUBARUKITA","perfecture_jp":"大分県","jp_add_1":"大分市","jp_add_2":"久原北"},"8700325":{"post_code":"8700325","prefecture":"OITA KEN","city":"OITA SHI","town":"KUBARUCHUO","perfecture_jp":"大分県","jp_add_1":"大分市","jp_add_2":"久原中央"},"8700326":{"post_code":"8700326","prefecture":"OITA KEN","city":"OITA SHI","town":"KUBARUMINAMI","perfecture_jp":"大分県","jp_add_1":"大分市","jp_add_2":"久原南"},"8700124":{"post_code":"8700124","prefecture":"OITA KEN","city":"OITA SHI","town":"KEI","perfecture_jp":"大分県","jp_add_1":"大分市","jp_add_2":"毛井"},"8700025":{"post_code":"8700025","prefecture":"OITA KEN","city":"OITA SHI","town":"KENTOKUMACHI","perfecture_jp":"大分県","jp_add_1":"大分市","jp_add_2":"顕徳町"},"8700147":{"post_code":"8700147","prefecture":"OITA KEN","city":"OITA SHI","town":"KOIKEBARU","perfecture_jp":"大分県","jp_add_1":"大分市","jp_add_2":"小池原"},"8700173":{"post_code":"8700173","prefecture":"OITA KEN","city":"OITA SHI","town":"KOENDORI","perfecture_jp":"大分県","jp_add_1":"大分市","jp_add_2":"公園通り"},"8700174":{"post_code":"8700174","prefecture":"OITA KEN","city":"OITA SHI","town":"KOENDORINISHI","perfecture_jp":"大分県","jp_add_1":"大分市","jp_add_2":"公園通り西"},"8700935":{"post_code":"8700935","prefecture":"OITA KEN","city":"OITA SHI","town":"KOGAZURU","perfecture_jp":"大分県","jp_add_1":"大分市","jp_add_2":"古ケ鶴"},"8700864":{"post_code":"8700864","prefecture":"OITA KEN","city":"OITA SHI","town":"KOKUBU","perfecture_jp":"大分県","jp_add_1":"大分市","jp_add_2":"国分"},"8700869":{"post_code":"8700869","prefecture":"OITA KEN","city":"OITA SHI","town":"KOKUBUSHIMMACHI","perfecture_jp":"大分県","jp_add_1":"大分市","jp_add_2":"国分新町"},"8700863":{"post_code":"8700863","prefecture":"OITA KEN","city":"OITA SHI","town":"KOKUBUDAI","perfecture_jp":"大分県","jp_add_1":"大分市","jp_add_2":"国分台"},"8700865":{"post_code":"8700865","prefecture":"OITA KEN","city":"OITA SHI","town":"KOKUBUDANCHI","perfecture_jp":"大分県","jp_add_1":"大分市","jp_add_2":"国分団地"},"8700327":{"post_code":"8700327","prefecture":"OITA KEN","city":"OITA SHI","town":"KOZAI","perfecture_jp":"大分県","jp_add_1":"大分市","jp_add_2":"小佐井"},"8700036":{"post_code":"8700036","prefecture":"OITA KEN","city":"OITA SHI","town":"KOTOBUKIMACHI","perfecture_jp":"大分県","jp_add_1":"大分市","jp_add_2":"寿町"},"8701134":{"post_code":"8701134","prefecture":"OITA KEN","city":"OITA SHI","town":"KOBARUDANCHI","perfecture_jp":"大分県","jp_add_1":"大分市","jp_add_2":"小原団地"},"8700302":{"post_code":"8700302","prefecture":"OITA KEN","city":"OITA SHI","town":"SAKANOICHI","perfecture_jp":"大分県","jp_add_1":"大分市","jp_add_2":"坂ノ市"},"8700307":{"post_code":"8700307","prefecture":"OITA KEN","city":"OITA SHI","town":"SAKANOICHICHUO","perfecture_jp":"大分県","jp_add_1":"大分市","jp_add_2":"坂ノ市中央"},"8700309":{"post_code":"8700309","prefecture":"OITA KEN","city":"OITA SHI","town":"SAKANOICHINISHI","perfecture_jp":"大分県","jp_add_1":"大分市","jp_add_2":"坂ノ市西"},"8700308":{"post_code":"8700308","prefecture":"OITA KEN","city":"OITA SHI","town":"SAKANOICHIMINAMI","perfecture_jp":"大分県","jp_add_1":"大分市","jp_add_2":"坂ノ市南"},"8700838":{"post_code":"8700838","prefecture":"OITA KEN","city":"OITA SHI","town":"SAKURAGAOKA","perfecture_jp":"大分県","jp_add_1":"大分市","jp_add_2":"桜ケ丘"},"8700272":{"post_code":"8700272","prefecture":"OITA KEN","city":"OITA SHI","town":"SAKO","perfecture_jp":"大分県","jp_add_1":"大分市","jp_add_2":"迫"},"8700303":{"post_code":"8700303","prefecture":"OITA KEN","city":"OITA SHI","town":"SATO","perfecture_jp":"大分県","jp_add_1":"大分市","jp_add_2":"里"},"8700315":{"post_code":"8700315","prefecture":"OITA KEN","city":"OITA SHI","town":"SANO","perfecture_jp":"大分県","jp_add_1":"大分市","jp_add_2":"佐野"},"8701212":{"post_code":"8701212","prefecture":"OITA KEN","city":"OITA SHI","town":"SAWATA","perfecture_jp":"大分県","jp_add_1":"大分市","jp_add_2":"沢田"},"8701120":{"post_code":"8701120","prefecture":"OITA KEN","city":"OITA SHI","town":"SANSHAINSHIKIDO","perfecture_jp":"大分県","jp_add_1":"大分市","jp_add_2":"サンシャインしきど"},"8700829":{"post_code":"8700829","prefecture":"OITA KEN","city":"OITA SHI","town":"SHIIZAKO","perfecture_jp":"大分県","jp_add_1":"大分市","jp_add_2":"椎迫"},"8700253":{"post_code":"8700253","prefecture":"OITA KEN","city":"OITA SHI","town":"SHIOMI","perfecture_jp":"大分県","jp_add_1":"大分市","jp_add_2":"汐見"},"8701122":{"post_code":"8701122","prefecture":"OITA KEN","city":"OITA SHI","town":"SHIKIDO","perfecture_jp":"大分県","jp_add_1":"大分市","jp_add_2":"敷戸"},"8701107":{"post_code":"8701107","prefecture":"OITA KEN","city":"OITA SHI","town":"SHIKIDOEKIKITAMACHI","perfecture_jp":"大分県","jp_add_1":"大分市","jp_add_2":"敷戸駅北町"},"8701102":{"post_code":"8701102","prefecture":"OITA KEN","city":"OITA SHI","town":"SHIKIDO SHIMMACHI","perfecture_jp":"大分県","jp_add_1":"大分市","jp_add_2":"敷戸新町"},"8701106":{"post_code":"8701106","prefecture":"OITA KEN","city":"OITA SHI","town":"SHIKIDODAI","perfecture_jp":"大分県","jp_add_1":"大分市","jp_add_2":"敷戸台"},"8701104":{"post_code":"8701104","prefecture":"OITA KEN","city":"OITA SHI","town":"SHIKIDO HIGASHIMACHI","perfecture_jp":"大分県","jp_add_1":"大分市","jp_add_2":"敷戸東町"},"8701103":{"post_code":"8701103","prefecture":"OITA KEN","city":"OITA SHI","town":"SHIKIDO NISHIMACHI","perfecture_jp":"大分県","jp_add_1":"大分市","jp_add_2":"敷戸西町"},"8701105":{"post_code":"8701105","prefecture":"OITA KEN","city":"OITA SHI","town":"SHIKIDO MINAMIMACHI","perfecture_jp":"大分県","jp_add_1":"大分市","jp_add_2":"敷戸南町"},"8701101":{"post_code":"8701101","prefecture":"OITA KEN","city":"OITA SHI","town":"SHIKIDO KITAMACHI","perfecture_jp":"大分県","jp_add_1":"大分市","jp_add_2":"敷戸北町"},"8700821":{"post_code":"8700821","prefecture":"OITA KEN","city":"OITA SHI","town":"SHITE","perfecture_jp":"大分県","jp_add_1":"大分市","jp_add_2":"志手"},"8700261":{"post_code":"8700261","prefecture":"OITA KEN","city":"OITA SHI","town":"SHIMURA","perfecture_jp":"大分県","jp_add_1":"大分市","jp_add_2":"志村"},"8700952":{"post_code":"8700952","prefecture":"OITA KEN","city":"OITA SHI","town":"SHIMOGORI KITA","perfecture_jp":"大分県","jp_add_1":"大分市","jp_add_2":"下郡北"},"8700954":{"post_code":"8700954","prefecture":"OITA KEN","city":"OITA SHI","town":"SHIMOGORI CHUO","perfecture_jp":"大分県","jp_add_1":"大分市","jp_add_2":"下郡中央"},"8700953":{"post_code":"8700953","prefecture":"OITA KEN","city":"OITA SHI","town":"SHIMOGORI HIGASHI","perfecture_jp":"大分県","jp_add_1":"大分市","jp_add_2":"下郡東"},"8700955":{"post_code":"8700955","prefecture":"OITA KEN","city":"OITA SHI","town":"SHIMOGORI MINAMI","perfecture_jp":"大分県","jp_add_1":"大分市","jp_add_2":"下郡南"},"8700951":{"post_code":"8700951","prefecture":"OITA KEN","city":"OITA SHI","town":"SHIMOGORI","perfecture_jp":"大分県","jp_add_1":"大分市","jp_add_2":"下郡"},"8700941":{"post_code":"8700941","prefecture":"OITA KEN","city":"OITA SHI","town":"SHIMOGORI KOGYODANCHI","perfecture_jp":"大分県","jp_add_1":"大分市","jp_add_2":"下郡工業団地"},"8700803":{"post_code":"8700803","prefecture":"OITA KEN","city":"OITA SHI","town":"SHIMOSHIRAKI","perfecture_jp":"大分県","jp_add_1":"大分市","jp_add_2":"下白木"},"8700118":{"post_code":"8700118","prefecture":"OITA KEN","city":"OITA SHI","town":"SHIMOTOKUMARU","perfecture_jp":"大分県","jp_add_1":"大分市","jp_add_2":"下徳丸"},"8701213":{"post_code":"8701213","prefecture":"OITA KEN","city":"OITA SHI","town":"SHIMOHARA","perfecture_jp":"大分県","jp_add_1":"大分市","jp_add_2":"下原"},"8701112":{"post_code":"8701112","prefecture":"OITA KEN","city":"OITA SHI","town":"SHIMOHANDA","perfecture_jp":"大分県","jp_add_1":"大分市","jp_add_2":"下判田"},"8701141":{"post_code":"8701141","prefecture":"OITA KEN","city":"OITA SHI","town":"SHIMOMUNAKATA","perfecture_jp":"大分県","jp_add_1":"大分市","jp_add_2":"下宗方"},"8700807":{"post_code":"8700807","prefecture":"OITA KEN","city":"OITA SHI","town":"SHIMOYAHATA","perfecture_jp":"大分県","jp_add_1":"大分市","jp_add_2":"下八幡"},"8700241":{"post_code":"8700241","prefecture":"OITA KEN","city":"OITA SHI","town":"SHOZAKAI","perfecture_jp":"大分県","jp_add_1":"大分市","jp_add_2":"庄境"},"8700922":{"post_code":"8700922","prefecture":"OITA KEN","city":"OITA SHI","town":"JOTOMACHI(3-NO22.4-NO2.4-NO30)","perfecture_jp":"大分県","jp_add_1":"大分市","jp_add_2":"城東町"},"8700153":{"post_code":"8700153","prefecture":"OITA KEN","city":"OITA SHI","town":"JOTOMACHI(SONOTA)","perfecture_jp":"大分県","jp_add_1":"大分市","jp_add_2":"城東町"},"8700824":{"post_code":"8700824","prefecture":"OITA KEN","city":"OITA SHI","town":"JONANHIGASHIMACHI","perfecture_jp":"大分県","jp_add_1":"大分市","jp_add_2":"城南東町"},"8700826":{"post_code":"8700826","prefecture":"OITA KEN","city":"OITA SHI","town":"JONANNISHIMACHI","perfecture_jp":"大分県","jp_add_1":"大分市","jp_add_2":"城南西町"},"8700825":{"post_code":"8700825","prefecture":"OITA KEN","city":"OITA SHI","town":"JONAMMINAMIMACHI","perfecture_jp":"大分県","jp_add_1":"大分市","jp_add_2":"城南南町"},"8700827":{"post_code":"8700827","prefecture":"OITA KEN","city":"OITA SHI","town":"JONANKITAMACHI","perfecture_jp":"大分県","jp_add_1":"大分市","jp_add_2":"城南北町"},"8700828":{"post_code":"8700828","prefecture":"OITA KEN","city":"OITA SHI","town":"JONANYAMATEDAI","perfecture_jp":"大分県","jp_add_1":"大分市","jp_add_2":"城南山手台"},"8700267":{"post_code":"8700267","prefecture":"OITA KEN","city":"OITA SHI","town":"JOHARU","perfecture_jp":"大分県","jp_add_1":"大分市","jp_add_2":"城原"},"8700876":{"post_code":"8700876","prefecture":"OITA KEN","city":"OITA SHI","town":"SHONOHARU","perfecture_jp":"大分県","jp_add_1":"大分市","jp_add_2":"庄の原"},"8700045":{"post_code":"8700045","prefecture":"OITA KEN","city":"OITA SHI","town":"SHIROSAKIMACHI","perfecture_jp":"大分県","jp_add_1":"大分市","jp_add_2":"城崎町"},"8700818":{"post_code":"8700818","prefecture":"OITA KEN","city":"OITA SHI","town":"SHINKASUGAMACHI","perfecture_jp":"大分県","jp_add_1":"大分市","jp_add_2":"新春日町"},"8700015":{"post_code":"8700015","prefecture":"OITA KEN","city":"OITA SHI","town":"SHINKAWA NISHI","perfecture_jp":"大分県","jp_add_1":"大分市","jp_add_2":"新川西"},"8700016":{"post_code":"8700016","prefecture":"OITA KEN","city":"OITA SHI","town":"SHINKAWAMACHI","perfecture_jp":"大分県","jp_add_1":"大分市","jp_add_2":"新川町"},"8700911":{"post_code":"8700911","prefecture":"OITA KEN","city":"OITA SHI","town":"SHINGAI","perfecture_jp":"大分県","jp_add_1":"大分市","jp_add_2":"新貝"},"8700919":{"post_code":"8700919","prefecture":"OITA KEN","city":"OITA SHI","town":"SHINSAKAEMACHI","perfecture_jp":"大分県","jp_add_1":"大分市","jp_add_2":"新栄町"},"8700028":{"post_code":"8700028","prefecture":"OITA KEN","city":"OITA SHI","town":"SHIMMACHI","perfecture_jp":"大分県","jp_add_1":"大分市","jp_add_2":"新町"},"8700172":{"post_code":"8700172","prefecture":"OITA KEN","city":"OITA SHI","town":"SHIMMEIJI","perfecture_jp":"大分県","jp_add_1":"大分市","jp_add_2":"新明治"},"8700027":{"post_code":"8700027","prefecture":"OITA KEN","city":"OITA SHI","town":"SUEHIROMACHI","perfecture_jp":"大分県","jp_add_1":"大分市","jp_add_2":"末広町"},"8700244":{"post_code":"8700244","prefecture":"OITA KEN","city":"OITA SHI","town":"SUGA","perfecture_jp":"大分県","jp_add_1":"大分市","jp_add_2":"須賀"},"8700032":{"post_code":"8700032","prefecture":"OITA KEN","city":"OITA SHI","town":"SUMIYOSHIMACHI","perfecture_jp":"大分県","jp_add_1":"大分市","jp_add_2":"住吉町"},"8700031":{"post_code":"8700031","prefecture":"OITA KEN","city":"OITA SHI","town":"SEIKEMACHI","perfecture_jp":"大分県","jp_add_1":"大分市","jp_add_2":"勢家町"},"8701114":{"post_code":"8701114","prefecture":"OITA KEN","city":"OITA SHI","town":"SEIWADAI","perfecture_jp":"大分県","jp_add_1":"大分市","jp_add_2":"星和台"},"8700115":{"post_code":"8700115","prefecture":"OITA KEN","city":"OITA SHI","town":"SEKIZONO","perfecture_jp":"大分県","jp_add_1":"大分市","jp_add_2":"関園"},"8700048":{"post_code":"8700048","prefecture":"OITA KEN","city":"OITA SHI","town":"SEKIDEMMACHI","perfecture_jp":"大分県","jp_add_1":"大分市","jp_add_2":"碩田町"},"8700132":{"post_code":"8700132","prefecture":"OITA KEN","city":"OITA SHI","town":"SENZAI","perfecture_jp":"大分県","jp_add_1":"大分市","jp_add_2":"千歳"},"8701123":{"post_code":"8701123","prefecture":"OITA KEN","city":"OITA SHI","town":"SODA","perfecture_jp":"大分県","jp_add_1":"大分市","jp_add_2":"寒田"},"8701138":{"post_code":"8701138","prefecture":"OITA KEN","city":"OITA SHI","town":"SODA KITAMACHI","perfecture_jp":"大分県","jp_add_1":"大分市","jp_add_2":"寒田北町"},"8701139":{"post_code":"8701139","prefecture":"OITA KEN","city":"OITA SHI","town":"SODA MINAMIMACHI","perfecture_jp":"大分県","jp_add_1":"大分市","jp_add_2":"寒田南町"},"8700837":{"post_code":"8700837","prefecture":"OITA KEN","city":"OITA SHI","town":"TAIHEIMACHI","perfecture_jp":"大分県","jp_add_1":"大分市","jp_add_2":"太平町"},"8701116":{"post_code":"8701116","prefecture":"OITA KEN","city":"OITA SHI","town":"TAKAE CHUO","perfecture_jp":"大分県","jp_add_1":"大分市","jp_add_2":"高江中央"},"8701117":{"post_code":"8701117","prefecture":"OITA KEN","city":"OITA SHI","town":"TAKAE NISHI","perfecture_jp":"大分県","jp_add_1":"大分市","jp_add_2":"高江西"},"8701118":{"post_code":"8701118","prefecture":"OITA KEN","city":"OITA SHI","town":"TAKAE MINAMI","perfecture_jp":"大分県","jp_add_1":"大分市","jp_add_2":"高江南"},"8701119":{"post_code":"8701119","prefecture":"OITA KEN","city":"OITA SHI","town":"TAKAE KITA","perfecture_jp":"大分県","jp_add_1":"大分市","jp_add_2":"高江北"},"8700873":{"post_code":"8700873","prefecture":"OITA KEN","city":"OITA SHI","town":"TAKAODAI","perfecture_jp":"大分県","jp_add_1":"大分市","jp_add_2":"高尾台"},"8700872":{"post_code":"8700872","prefecture":"OITA KEN","city":"OITA SHI","town":"TAKASAKI","perfecture_jp":"大分県","jp_add_1":"大分市","jp_add_2":"高崎"},"8700029":{"post_code":"8700029","prefecture":"OITA KEN","city":"OITA SHI","town":"TAKASAGOMACHI","perfecture_jp":"大分県","jp_add_1":"大分市","jp_add_2":"高砂町"},"8700156":{"post_code":"8700156","prefecture":"OITA KEN","city":"OITA SHI","town":"TAKAJO SHIMMACHI","perfecture_jp":"大分県","jp_add_1":"大分市","jp_add_2":"高城新町"},"8700148":{"post_code":"8700148","prefecture":"OITA KEN","city":"OITA SHI","town":"TAKAJODAI","perfecture_jp":"大分県","jp_add_1":"大分市","jp_add_2":"高城台"},"8700149":{"post_code":"8700149","prefecture":"OITA KEN","city":"OITA SHI","town":"TAKAJODANCHI","perfecture_jp":"大分県","jp_add_1":"大分市","jp_add_2":"高城団地"},"8700923":{"post_code":"8700923","prefecture":"OITA KEN","city":"OITA SHI","town":"TAKAJONISHIMACHI(1-7-BAN)","perfecture_jp":"大分県","jp_add_1":"大分市","jp_add_2":"高城西町"},"8700154":{"post_code":"8700154","prefecture":"OITA KEN","city":"OITA SHI","town":"TAKAJONISHIMACHI(SONOTA)","perfecture_jp":"大分県","jp_add_1":"大分市","jp_add_2":"高城西町"},"8700157":{"post_code":"8700157","prefecture":"OITA KEN","city":"OITA SHI","town":"TAKAJO HOMMACHI","perfecture_jp":"大分県","jp_add_1":"大分市","jp_add_2":"高城本町"},"8700155":{"post_code":"8700155","prefecture":"OITA KEN","city":"OITA SHI","town":"TAKAJO MINAMIMACHI","perfecture_jp":"大分県","jp_add_1":"大分市","jp_add_2":"高城南町"},"8701142":{"post_code":"8701142","prefecture":"OITA KEN","city":"OITA SHI","town":"TAKASE","perfecture_jp":"大分県","jp_add_1":"大分市","jp_add_2":"高瀬"},"8701222":{"post_code":"8701222","prefecture":"OITA KEN","city":"OITA SHI","town":"TAKAHARA","perfecture_jp":"大分県","jp_add_1":"大分市","jp_add_2":"高原"},"8700917":{"post_code":"8700917","prefecture":"OITA KEN","city":"OITA SHI","town":"TAKAMATSU","perfecture_jp":"大分県","jp_add_1":"大分市","jp_add_2":"高松"},"8700916":{"post_code":"8700916","prefecture":"OITA KEN","city":"OITA SHI","town":"TAKAMATSUHIGASHI","perfecture_jp":"大分県","jp_add_1":"大分市","jp_add_2":"高松東"},"8700265":{"post_code":"8700265","prefecture":"OITA KEN","city":"OITA SHI","town":"TAKESHITA","perfecture_jp":"大分県","jp_add_1":"大分市","jp_add_2":"竹下"},"8700882":{"post_code":"8700882","prefecture":"OITA KEN","city":"OITA SHI","town":"TAKENOE","perfecture_jp":"大分県","jp_add_1":"大分市","jp_add_2":"竹の上"},"8701211":{"post_code":"8701211","prefecture":"OITA KEN","city":"OITA SHI","town":"TAKEYA","perfecture_jp":"大分県","jp_add_1":"大分市","jp_add_2":"竹矢"},"8701143":{"post_code":"8701143","prefecture":"OITA KEN","city":"OITA SHI","town":"TAJIRI","perfecture_jp":"大分県","jp_add_1":"大分市","jp_add_2":"田尻"},"8701144":{"post_code":"8701144","prefecture":"OITA KEN","city":"OITA SHI","town":"TAJIRI GURINHAITSU","perfecture_jp":"大分県","jp_add_1":"大分市","jp_add_2":"田尻グリーンハイツ"},"8701145":{"post_code":"8701145","prefecture":"OITA KEN","city":"OITA SHI","town":"TAJIRIMINAMI","perfecture_jp":"大分県","jp_add_1":"大分市","jp_add_2":"田尻南"},"8700852":{"post_code":"8700852","prefecture":"OITA KEN","city":"OITA SHI","town":"TANAKAMACHI","perfecture_jp":"大分県","jp_add_1":"大分市","jp_add_2":"田中町"},"8700274":{"post_code":"8700274","prefecture":"OITA KEN","city":"OITA SHI","town":"TANEGU","perfecture_jp":"大分県","jp_add_1":"大分市","jp_add_2":"種具"},"8700802":{"post_code":"8700802","prefecture":"OITA KEN","city":"OITA SHI","town":"TANORA","perfecture_jp":"大分県","jp_add_1":"大分市","jp_add_2":"田ノ浦"},"8701154":{"post_code":"8701154","prefecture":"OITA KEN","city":"OITA SHI","town":"TABARU","perfecture_jp":"大分県","jp_add_1":"大分市","jp_add_2":"田原"},"8701155":{"post_code":"8701155","prefecture":"OITA KEN","city":"OITA SHI","town":"TAMAZAWA","perfecture_jp":"大分県","jp_add_1":"大分市","jp_add_2":"玉沢"},"8700816":{"post_code":"8700816","prefecture":"OITA KEN","city":"OITA SHI","town":"TAMUROMACHI","perfecture_jp":"大分県","jp_add_1":"大分市","jp_add_2":"田室町"},"8701124":{"post_code":"8701124","prefecture":"OITA KEN","city":"OITA SHI","town":"DANNOHARU","perfecture_jp":"大分県","jp_add_1":"大分市","jp_add_2":"旦野原"},"8700035":{"post_code":"8700035","prefecture":"OITA KEN","city":"OITA SHI","town":"CHUOMACHI","perfecture_jp":"大分県","jp_add_1":"大分市","jp_add_2":"中央町"},"8700033":{"post_code":"8700033","prefecture":"OITA KEN","city":"OITA SHI","town":"CHIYOMACHI","perfecture_jp":"大分県","jp_add_1":"大分市","jp_add_2":"千代町"},"8701204":{"post_code":"8701204","prefecture":"OITA KEN","city":"OITA SHI","town":"TSUJIHARU","perfecture_jp":"大分県","jp_add_1":"大分市","jp_add_2":"辻原"},"8700116":{"post_code":"8700116","prefecture":"OITA KEN","city":"OITA SHI","town":"TSUNEYUKI","perfecture_jp":"大分県","jp_add_1":"大分市","jp_add_2":"常行"},"8700271":{"post_code":"8700271","prefecture":"OITA KEN","city":"OITA SHI","town":"TSUNOKOBARU","perfecture_jp":"大分県","jp_add_1":"大分市","jp_add_2":"角子原"},"8700242":{"post_code":"8700242","prefecture":"OITA KEN","city":"OITA SHI","town":"TSUNOGOMINAMI","perfecture_jp":"大分県","jp_add_1":"大分市","jp_add_2":"角子南"},"8701166":{"post_code":"8701166","prefecture":"OITA KEN","city":"OITA SHI","town":"TSUBAKIGAOKA","perfecture_jp":"大分県","jp_add_1":"大分市","jp_add_2":"椿ケ丘"},"8700945":{"post_code":"8700945","prefecture":"OITA KEN","city":"OITA SHI","town":"TSUMORI","perfecture_jp":"大分県","jp_add_1":"大分市","jp_add_2":"津守"},"8700106":{"post_code":"8700106","prefecture":"OITA KEN","city":"OITA SHI","town":"TSURUSAKI","perfecture_jp":"大分県","jp_add_1":"大分市","jp_add_2":"鶴崎"},"8700120":{"post_code":"8700120","prefecture":"OITA KEN","city":"OITA SHI","town":"TSURUSAKIKOSUMOSUDANCHI","perfecture_jp":"大分県","jp_add_1":"大分市","jp_add_2":"鶴崎コスモス団地"},"8700279":{"post_code":"8700279","prefecture":"OITA KEN","city":"OITA SHI","town":"TSURUSAKIYOKODAI","perfecture_jp":"大分県","jp_add_1":"大分市","jp_add_2":"つるさき陽光台"},"8700121":{"post_code":"8700121","prefecture":"OITA KEN","city":"OITA SHI","town":"TSURUSE","perfecture_jp":"大分県","jp_add_1":"大分市","jp_add_2":"鶴瀬"},"8700137":{"post_code":"8700137","prefecture":"OITA KEN","city":"OITA SHI","town":"TERASAKIMACHI","perfecture_jp":"大分県","jp_add_1":"大分市","jp_add_2":"寺崎町"},"8701148":{"post_code":"8701148","prefecture":"OITA KEN","city":"OITA SHI","town":"TENRYOHAITSU","perfecture_jp":"大分県","jp_add_1":"大分市","jp_add_2":"天領ハイツ"},"8700861":{"post_code":"8700861","prefecture":"OITA KEN","city":"OITA SHI","town":"TOI","perfecture_jp":"大分県","jp_add_1":"大分市","jp_add_2":"東院"},"8700867":{"post_code":"8700867","prefecture":"OITA KEN","city":"OITA SHI","town":"TONODAI","perfecture_jp":"大分県","jp_add_1":"大分市","jp_add_2":"東野台"},"8700109":{"post_code":"8700109","prefecture":"OITA KEN","city":"OITA SHI","town":"TOKUSHIMA","perfecture_jp":"大分県","jp_add_1":"大分市","jp_add_2":"徳島"},"8700947":{"post_code":"8700947","prefecture":"OITA KEN","city":"OITA SHI","town":"TOMIOKA","perfecture_jp":"大分県","jp_add_1":"大分市","jp_add_2":"富岡"},"8700018":{"post_code":"8700018","prefecture":"OITA KEN","city":"OITA SHI","town":"TOYOMI","perfecture_jp":"大分県","jp_add_1":"大分市","jp_add_2":"豊海"},"8700862":{"post_code":"8700862","prefecture":"OITA KEN","city":"OITA SHI","town":"NAKAO","perfecture_jp":"大分県","jp_add_1":"大分市","jp_add_2":"中尾"},"8700039":{"post_code":"8700039","prefecture":"OITA KEN","city":"OITA SHI","town":"NAKAKASUGAMACHI","perfecture_jp":"大分県","jp_add_1":"大分市","jp_add_2":"中春日町"},"8700049":{"post_code":"8700049","prefecture":"OITA KEN","city":"OITA SHI","town":"NAKASHIMA CHUO","perfecture_jp":"大分県","jp_add_1":"大分市","jp_add_2":"中島中央"},"8700043":{"post_code":"8700043","prefecture":"OITA KEN","city":"OITA SHI","town":"NAKASHIMA HIGASHI","perfecture_jp":"大分県","jp_add_1":"大分市","jp_add_2":"中島東"},"8700047":{"post_code":"8700047","prefecture":"OITA KEN","city":"OITA SHI","town":"NAKASHIMA NISHI","perfecture_jp":"大分県","jp_add_1":"大分市","jp_add_2":"中島西"},"8700101":{"post_code":"8700101","prefecture":"OITA KEN","city":"OITA SHI","town":"NAKATSURUSAKI","perfecture_jp":"大分県","jp_add_1":"大分市","jp_add_2":"中鶴崎"},"8700939":{"post_code":"8700939","prefecture":"OITA KEN","city":"OITA SHI","town":"NAKAZURU","perfecture_jp":"大分県","jp_add_1":"大分市","jp_add_2":"中津留"},"8700135":{"post_code":"8700135","prefecture":"OITA KEN","city":"OITA SHI","town":"NAKANISHIMACHI","perfecture_jp":"大分県","jp_add_1":"大分市","jp_add_2":"仲西町"},"8700111":{"post_code":"8700111","prefecture":"OITA KEN","city":"OITA SHI","town":"NAKANOSU","perfecture_jp":"大分県","jp_add_1":"大分市","jp_add_2":"中ノ洲"},"8700859":{"post_code":"8700859","prefecture":"OITA KEN","city":"OITA SHI","town":"NAKANOSEDANCHI","perfecture_jp":"大分県","jp_add_1":"大分市","jp_add_2":"中の瀬団地"},"8701113":{"post_code":"8701113","prefecture":"OITA KEN","city":"OITA SHI","town":"NAKAHANDA","perfecture_jp":"大分県","jp_add_1":"大分市","jp_add_2":"中判田"},"8700929":{"post_code":"8700929","prefecture":"OITA KEN","city":"OITA SHI","town":"NAGATANIMACHI","perfecture_jp":"大分県","jp_add_1":"大分市","jp_add_2":"長谷町"},"8700023":{"post_code":"8700023","prefecture":"OITA KEN","city":"OITA SHI","town":"NAGAHAMAMACHI","perfecture_jp":"大分県","jp_add_1":"大分市","jp_add_2":"長浜町"},"8700801":{"post_code":"8700801","prefecture":"OITA KEN","city":"OITA SHI","town":"NARUKAWA","perfecture_jp":"大分県","jp_add_1":"大分市","jp_add_2":"鳴川"},"8700046":{"post_code":"8700046","prefecture":"OITA KEN","city":"OITA SHI","town":"NIAGEMACHI","perfecture_jp":"大分県","jp_add_1":"大分市","jp_add_2":"荷揚町"},"8701221":{"post_code":"8701221","prefecture":"OITA KEN","city":"OITA SHI","town":"NIOKI","perfecture_jp":"大分県","jp_add_1":"大分市","jp_add_2":"荷尾杵"},"8700820":{"post_code":"8700820","prefecture":"OITA KEN","city":"OITA SHI","town":"NISHIOMICHI","perfecture_jp":"大分県","jp_add_1":"大分市","jp_add_2":"西大道"},"8700038":{"post_code":"8700038","prefecture":"OITA KEN","city":"OITA SHI","town":"NISHIKASUGAMACHI","perfecture_jp":"大分県","jp_add_1":"大分市","jp_add_2":"西春日町"},"8700024":{"post_code":"8700024","prefecture":"OITA KEN","city":"OITA SHI","town":"NISHIKIMACHI","perfecture_jp":"大分県","jp_add_1":"大分市","jp_add_2":"錦町"},"8700901":{"post_code":"8700901","prefecture":"OITA KEN","city":"OITA SHI","town":"NISHISHINCHI","perfecture_jp":"大分県","jp_add_1":"大分市","jp_add_2":"西新地"},"8700105":{"post_code":"8700105","prefecture":"OITA KEN","city":"OITA SHI","town":"NISHITSURUSAKI","perfecture_jp":"大分県","jp_add_1":"大分市","jp_add_2":"西鶴崎"},"8700902":{"post_code":"8700902","prefecture":"OITA KEN","city":"OITA SHI","town":"NISHINOSU","perfecture_jp":"大分県","jp_add_1":"大分市","jp_add_2":"西ノ洲"},"8700931":{"post_code":"8700931","prefecture":"OITA KEN","city":"OITA SHI","town":"NISHIHAMA","perfecture_jp":"大分県","jp_add_1":"大分市","jp_add_2":"西浜"},"8700874":{"post_code":"8700874","prefecture":"OITA KEN","city":"OITA SHI","town":"NIJIGAOKA","perfecture_jp":"大分県","jp_add_1":"大分市","jp_add_2":"にじが丘"},"8701167":{"post_code":"8701167","prefecture":"OITA KEN","city":"OITA SHI","town":"NIHODANCHI","perfecture_jp":"大分県","jp_add_1":"大分市","jp_add_2":"二豊団地"},"8700318":{"post_code":"8700318","prefecture":"OITA KEN","city":"OITA SHI","town":"NYU","perfecture_jp":"大分県","jp_add_1":"大分市","jp_add_2":"丹生"},"8700270":{"post_code":"8700270","prefecture":"OITA KEN","city":"OITA SHI","town":"NOZOMIGAOKA","perfecture_jp":"大分県","jp_add_1":"大分市","jp_add_2":"望みが丘"},"8700868":{"post_code":"8700868","prefecture":"OITA KEN","city":"OITA SHI","town":"NODA","perfecture_jp":"大分県","jp_add_1":"大分市","jp_add_2":"野田"},"8701203":{"post_code":"8701203","prefecture":"OITA KEN","city":"OITA SHI","town":"NOTSUHARU","perfecture_jp":"大分県","jp_add_1":"大分市","jp_add_2":"野津原"},"8700921":{"post_code":"8700921","prefecture":"OITA KEN","city":"OITA SHI","town":"HAGIWARA","perfecture_jp":"大分県","jp_add_1":"大分市","jp_add_2":"萩原"},"8700856":{"post_code":"8700856","prefecture":"OITA KEN","city":"OITA SHI","town":"HATAKENAKA","perfecture_jp":"大分県","jp_add_1":"大分市","jp_add_2":"畑中"},"8700942":{"post_code":"8700942","prefecture":"OITA KEN","city":"OITA SHI","town":"HADA","perfecture_jp":"大分県","jp_add_1":"大分市","jp_add_2":"羽田"},"8700243":{"post_code":"8700243","prefecture":"OITA KEN","city":"OITA SHI","town":"HANAEGAWA","perfecture_jp":"大分県","jp_add_1":"大分市","jp_add_2":"花江川"},"8700846":{"post_code":"8700846","prefecture":"OITA KEN","city":"OITA SHI","town":"HANAZONO","perfecture_jp":"大分県","jp_add_1":"大分市","jp_add_2":"花園"},"8700915":{"post_code":"8700915","prefecture":"OITA KEN","city":"OITA SHI","town":"HANATAKAMATSU","perfecture_jp":"大分県","jp_add_1":"大分市","jp_add_2":"花高松"},"8700933":{"post_code":"8700933","prefecture":"OITA KEN","city":"OITA SHI","town":"HANAZURU","perfecture_jp":"大分県","jp_add_1":"大分市","jp_add_2":"花津留"},"8701128":{"post_code":"8701128","prefecture":"OITA KEN","city":"OITA SHI","town":"HANANOKIZAKA","perfecture_jp":"大分県","jp_add_1":"大分市","jp_add_2":"花の木坂"},"8700880":{"post_code":"8700880","prefecture":"OITA KEN","city":"OITA SHI","town":"HANANOMORI","perfecture_jp":"大分県","jp_add_1":"大分市","jp_add_2":"はなの森"},"8700323":{"post_code":"8700323","prefecture":"OITA KEN","city":"OITA SHI","town":"HAMANAKA","perfecture_jp":"大分県","jp_add_1":"大分市","jp_add_2":"浜中"},"8700002":{"post_code":"8700002","prefecture":"OITA KEN","city":"OITA SHI","town":"HAMANOICHI","perfecture_jp":"大分県","jp_add_1":"大分市","jp_add_2":"浜の市"},"8700013":{"post_code":"8700013","prefecture":"OITA KEN","city":"OITA SHI","town":"HAMAMACHI HIGASHI","perfecture_jp":"大分県","jp_add_1":"大分市","jp_add_2":"浜町東"},"8700012":{"post_code":"8700012","prefecture":"OITA KEN","city":"OITA SHI","town":"HAMAMACHI KITA","perfecture_jp":"大分県","jp_add_1":"大分市","jp_add_2":"浜町北"},"8700854":{"post_code":"8700854","prefecture":"OITA KEN","city":"OITA SHI","town":"HAYA","perfecture_jp":"大分県","jp_add_1":"大分市","jp_add_2":"羽屋"},"8700853":{"post_code":"8700853","prefecture":"OITA KEN","city":"OITA SHI","town":"HAYASHIMMACHI","perfecture_jp":"大分県","jp_add_1":"大分市","jp_add_2":"羽屋新町"},"8700138":{"post_code":"8700138","prefecture":"OITA KEN","city":"OITA SHI","town":"HARUKAWA","perfecture_jp":"大分県","jp_add_1":"大分市","jp_add_2":"原川"},"8700912":{"post_code":"8700912","prefecture":"OITA KEN","city":"OITA SHI","town":"HARUSHIMMACHI","perfecture_jp":"大分県","jp_add_1":"大分市","jp_add_2":"原新町"},"8701110":{"post_code":"8701110","prefecture":"OITA KEN","city":"OITA SHI","town":"HANDADAI","perfecture_jp":"大分県","jp_add_1":"大分市","jp_add_2":"判田台"},"8701126":{"post_code":"8701126","prefecture":"OITA KEN","city":"OITA SHI","town":"HANDADAI KITA","perfecture_jp":"大分県","jp_add_1":"大分市","jp_add_2":"判田台北"},"8701108":{"post_code":"8701108","prefecture":"OITA KEN","city":"OITA SHI","town":"HANDADAI HIGASHI","perfecture_jp":"大分県","jp_add_1":"大分市","jp_add_2":"判田台東"},"8701109":{"post_code":"8701109","prefecture":"OITA KEN","city":"OITA SHI","town":"HANDADAI MINAMI","perfecture_jp":"大分県","jp_add_1":"大分市","jp_add_2":"判田台南"},"8700914":{"post_code":"8700914","prefecture":"OITA KEN","city":"OITA SHI","town":"HIOKA","perfecture_jp":"大分県","jp_add_1":"大分市","jp_add_2":"日岡"},"8700151":{"post_code":"8700151","prefecture":"OITA KEN","city":"OITA SHI","town":"HIGASHIAKENO","perfecture_jp":"大分県","jp_add_1":"大分市","jp_add_2":"東明野"},"8700306":{"post_code":"8700306","prefecture":"OITA KEN","city":"OITA SHI","town":"HIGASHIUENO","perfecture_jp":"大分県","jp_add_1":"大分市","jp_add_2":"東上野"},"8700823":{"post_code":"8700823","prefecture":"OITA KEN","city":"OITA SHI","town":"HIGASHIOMICHI","perfecture_jp":"大分県","jp_add_1":"大分市","jp_add_2":"東大道"},"8700037":{"post_code":"8700037","prefecture":"OITA KEN","city":"OITA SHI","town":"HIGASHIKASUGAMACHI","perfecture_jp":"大分県","jp_add_1":"大分市","jp_add_2":"東春日町"},"8700103":{"post_code":"8700103","prefecture":"OITA KEN","city":"OITA SHI","town":"HIGASHITSURUSAKI","perfecture_jp":"大分県","jp_add_1":"大分市","jp_add_2":"東鶴崎"},"8700934":{"post_code":"8700934","prefecture":"OITA KEN","city":"OITA SHI","town":"HIGASHIZURU","perfecture_jp":"大分県","jp_add_1":"大分市","jp_add_2":"東津留"},"8700932":{"post_code":"8700932","prefecture":"OITA KEN","city":"OITA SHI","town":"HIGASHIHAMA","perfecture_jp":"大分県","jp_add_1":"大分市","jp_add_2":"東浜"},"8700150":{"post_code":"8700150","prefecture":"OITA KEN","city":"OITA SHI","town":"HIGASHIBARU","perfecture_jp":"大分県","jp_add_1":"大分市","jp_add_2":"東原"},"8700871":{"post_code":"8700871","prefecture":"OITA KEN","city":"OITA SHI","town":"HIGASHIYAHATA","perfecture_jp":"大分県","jp_add_1":"大分市","jp_add_2":"東八幡"},"8701115":{"post_code":"8701115","prefecture":"OITA KEN","city":"OITA SHI","town":"HIBARIGAOKA","perfecture_jp":"大分県","jp_add_1":"大分市","jp_add_2":"ひばりケ丘"},"8700301":{"post_code":"8700301","prefecture":"OITA KEN","city":"OITA SHI","town":"HIYOSHIBARU","perfecture_jp":"大分県","jp_add_1":"大分市","jp_add_2":"日吉原"},"8700918":{"post_code":"8700918","prefecture":"OITA KEN","city":"OITA SHI","town":"HIYOSHIMACHI","perfecture_jp":"大分県","jp_add_1":"大分市","jp_add_2":"日吉町"},"8700866":{"post_code":"8700866","prefecture":"OITA KEN","city":"OITA SHI","town":"HIRAYOKOSE","perfecture_jp":"大分県","jp_add_1":"大分市","jp_add_2":"平横瀬"},"8700277":{"post_code":"8700277","prefecture":"OITA KEN","city":"OITA SHI","town":"HIROCHI","perfecture_jp":"大分県","jp_add_1":"大分市","jp_add_2":"広内"},"8700847":{"post_code":"8700847","prefecture":"OITA KEN","city":"OITA SHI","town":"HIROSEMACHI","perfecture_jp":"大分県","jp_add_1":"大分市","jp_add_2":"広瀬町"},"8700881":{"post_code":"8700881","prefecture":"OITA KEN","city":"OITA SHI","town":"FUKAGAWAUCHI","perfecture_jp":"大分県","jp_add_1":"大分市","jp_add_2":"深河内"},"8701205":{"post_code":"8701205","prefecture":"OITA KEN","city":"OITA SHI","town":"FUKUMUNE","perfecture_jp":"大分県","jp_add_1":"大分市","jp_add_2":"福宗"},"8701147":{"post_code":"8701147","prefecture":"OITA KEN","city":"OITA SHI","town":"FUJIGAOKA","perfecture_jp":"大分県","jp_add_1":"大分市","jp_add_2":"ふじが丘"},"8700957":{"post_code":"8700957","prefecture":"OITA KEN","city":"OITA SHI","town":"FUJINODAI","perfecture_jp":"大分県","jp_add_1":"大分市","jp_add_2":"藤の台"},"8701176":{"post_code":"8701176","prefecture":"OITA KEN","city":"OITA SHI","town":"FUJIMIGAOKA HIGASHI","perfecture_jp":"大分県","jp_add_1":"大分市","jp_add_2":"富士見が丘東"},"8701177":{"post_code":"8701177","prefecture":"OITA KEN","city":"OITA SHI","town":"FUJIMIGAOKA NISHI","perfecture_jp":"大分県","jp_add_1":"大分市","jp_add_2":"富士見が丘西"},"8700887":{"post_code":"8700887","prefecture":"OITA KEN","city":"OITA SHI","town":"FUTAMATAMACHI","perfecture_jp":"大分県","jp_add_1":"大分市","jp_add_2":"二又町"},"8700021":{"post_code":"8700021","prefecture":"OITA KEN","city":"OITA SHI","town":"FUNAIMACHI","perfecture_jp":"大分県","jp_add_1":"大分市","jp_add_2":"府内町"},"8700855":{"post_code":"8700855","prefecture":"OITA KEN","city":"OITA SHI","town":"BUNYO","perfecture_jp":"大分県","jp_add_1":"大分市","jp_add_2":"豊饒"},"8700844":{"post_code":"8700844","prefecture":"OITA KEN","city":"OITA SHI","town":"FURUGO","perfecture_jp":"大分県","jp_add_1":"大分市","jp_add_2":"古国府"},"8700845":{"post_code":"8700845","prefecture":"OITA KEN","city":"OITA SHI","town":"FURUGOHIGASHI","perfecture_jp":"大分県","jp_add_1":"大分市","jp_add_2":"古国府東"},"8700017":{"post_code":"8700017","prefecture":"OITA KEN","city":"OITA SHI","town":"BENTEN","perfecture_jp":"大分県","jp_add_1":"大分市","jp_add_2":"弁天"},"8700948":{"post_code":"8700948","prefecture":"OITA KEN","city":"OITA SHI","town":"HOGAWARADAI","perfecture_jp":"大分県","jp_add_1":"大分市","jp_add_2":"芳河原台"},"8700171":{"post_code":"8700171","prefecture":"OITA KEN","city":"OITA SHI","town":"HOSHODAI","perfecture_jp":"大分県","jp_add_1":"大分市","jp_add_2":"法勝台"},"8700305":{"post_code":"8700305","prefecture":"OITA KEN","city":"OITA SHI","town":"HOSO","perfecture_jp":"大分県","jp_add_1":"大分市","jp_add_2":"細"},"8700044":{"post_code":"8700044","prefecture":"OITA KEN","city":"OITA SHI","town":"MAIZURUMACHI","perfecture_jp":"大分県","jp_add_1":"大分市","jp_add_2":"舞鶴町"},"8701146":{"post_code":"8701146","prefecture":"OITA KEN","city":"OITA SHI","town":"695.718.733.1481.1555.1618-BANCHI)","perfecture_jp":"大分県","jp_add_1":"大分市","jp_add_2":"曲"},"8700946":{"post_code":"8700946","prefecture":"OITA KEN","city":"OITA SHI","town":"MAGARI(SONOTA)","perfecture_jp":"大分県","jp_add_1":"大分市","jp_add_2":"曲"},"8700924":{"post_code":"8700924","prefecture":"OITA KEN","city":"OITA SHI","town":"MAKI(1-3-CHOME.SHIRATAKIB.C.TAKAMI)","perfecture_jp":"大分県","jp_add_1":"大分市","jp_add_2":"牧"},"8700152":{"post_code":"8700152","prefecture":"OITA KEN","city":"OITA SHI","town":"MAKI(SONOTA)","perfecture_jp":"大分県","jp_add_1":"大分市","jp_add_2":"牧"},"8700925":{"post_code":"8700925","prefecture":"OITA KEN","city":"OITA SHI","town":"MAKIKAMIMACHI","perfecture_jp":"大分県","jp_add_1":"大分市","jp_add_2":"牧上町"},"8700125":{"post_code":"8700125","prefecture":"OITA KEN","city":"OITA SHI","town":"MATSUOKA","perfecture_jp":"大分県","jp_add_1":"大分市","jp_add_2":"松岡"},"8701168":{"post_code":"8701168","prefecture":"OITA KEN","city":"OITA SHI","town":"MATSUGAOKA","perfecture_jp":"大分県","jp_add_1":"大分市","jp_add_2":"松が丘"},"8700913":{"post_code":"8700913","prefecture":"OITA KEN","city":"OITA SHI","town":"MATSUBARAMACHI","perfecture_jp":"大分県","jp_add_1":"大分市","jp_add_2":"松原町"},"8700268":{"post_code":"8700268","prefecture":"OITA KEN","city":"OITA SHI","town":"MADOKORO","perfecture_jp":"大分県","jp_add_1":"大分市","jp_add_2":"政所"},"8700122":{"post_code":"8700122","prefecture":"OITA KEN","city":"OITA SHI","town":"MARUGAME","perfecture_jp":"大分県","jp_add_1":"大分市","jp_add_2":"丸亀"},"8700888":{"post_code":"8700888","prefecture":"OITA KEN","city":"OITA SHI","town":"MIKETAMACHI","perfecture_jp":"大分県","jp_add_1":"大分市","jp_add_2":"三ケ田町"},"8700108":{"post_code":"8700108","prefecture":"OITA KEN","city":"OITA SHI","town":"MISA","perfecture_jp":"大分県","jp_add_1":"大分市","jp_add_2":"三佐"},"8700143":{"post_code":"8700143","prefecture":"OITA KEN","city":"OITA SHI","town":"MITSUGAWA KAMI","perfecture_jp":"大分県","jp_add_1":"大分市","jp_add_2":"三川上"},"8700142":{"post_code":"8700142","prefecture":"OITA KEN","city":"OITA SHI","town":"MITSUGAWA SHIMO","perfecture_jp":"大分県","jp_add_1":"大分市","jp_add_2":"三川下"},"8700141":{"post_code":"8700141","prefecture":"OITA KEN","city":"OITA SHI","town":"MITSUGAWA SHIMMACHI","perfecture_jp":"大分県","jp_add_1":"大分市","jp_add_2":"三川新町"},"8701132":{"post_code":"8701132","prefecture":"OITA KEN","city":"OITA SHI","town":"MITSUYOSHI","perfecture_jp":"大分県","jp_add_1":"大分市","jp_add_2":"光吉"},"8701135":{"post_code":"8701135","prefecture":"OITA KEN","city":"OITA SHI","town":"MITSUYOSHISHIMMACHI","perfecture_jp":"大分県","jp_add_1":"大分市","jp_add_2":"光吉新町"},"8701136":{"post_code":"8701136","prefecture":"OITA KEN","city":"OITA SHI","town":"MITSUYOSHIDAI","perfecture_jp":"大分県","jp_add_1":"大分市","jp_add_2":"光吉台"},"8701172":{"post_code":"8701172","prefecture":"OITA KEN","city":"OITA SHI","town":"MIDORIGAOKA","perfecture_jp":"大分県","jp_add_1":"大分市","jp_add_2":"緑が丘"},"8700131":{"post_code":"8700131","prefecture":"OITA KEN","city":"OITA SHI","town":"MINAHARU","perfecture_jp":"大分県","jp_add_1":"大分市","jp_add_2":"皆春"},"8700117":{"post_code":"8700117","prefecture":"OITA KEN","city":"OITA SHI","town":"MINAMI","perfecture_jp":"大分県","jp_add_1":"大分市","jp_add_2":"南"},"8700812":{"post_code":"8700812","prefecture":"OITA KEN","city":"OITA SHI","town":"MINAMIIKUSHI HIGASHI","perfecture_jp":"大分県","jp_add_1":"大分市","jp_add_2":"南生石東"},"8700811":{"post_code":"8700811","prefecture":"OITA KEN","city":"OITA SHI","town":"MINAMIIKUSHI NISHI","perfecture_jp":"大分県","jp_add_1":"大分市","jp_add_2":"南生石西"},"8700814":{"post_code":"8700814","prefecture":"OITA KEN","city":"OITA SHI","town":"MINAMIOJIMACHI","perfecture_jp":"大分県","jp_add_1":"大分市","jp_add_2":"南王子町"},"8700815":{"post_code":"8700815","prefecture":"OITA KEN","city":"OITA SHI","town":"MINAMIKASUGAMACHI","perfecture_jp":"大分県","jp_add_1":"大分市","jp_add_2":"南春日町"},"8700928":{"post_code":"8700928","prefecture":"OITA KEN","city":"OITA SHI","town":"MINAMISHIMOGORI","perfecture_jp":"大分県","jp_add_1":"大分市","jp_add_2":"南下郡"},"8700885":{"post_code":"8700885","prefecture":"OITA KEN","city":"OITA SHI","town":"MINAMITAIHEIJI","perfecture_jp":"大分県","jp_add_1":"大分市","jp_add_2":"南太平寺"},"8700104":{"post_code":"8700104","prefecture":"OITA KEN","city":"OITA SHI","town":"MINAMITSURUSAKI","perfecture_jp":"大分県","jp_add_1":"大分市","jp_add_2":"南鶴崎"},"8700937":{"post_code":"8700937","prefecture":"OITA KEN","city":"OITA SHI","town":"MINAMIZURU","perfecture_jp":"大分県","jp_add_1":"大分市","jp_add_2":"南津留"},"8700276":{"post_code":"8700276","prefecture":"OITA KEN","city":"OITA SHI","town":"MIYAKAWAUCHI","perfecture_jp":"大分県","jp_add_1":"大分市","jp_add_2":"宮河内"},"8700275":{"post_code":"8700275","prefecture":"OITA KEN","city":"OITA SHI","town":"MIYAKAWAUCHI HAIRANDO","perfecture_jp":"大分県","jp_add_1":"大分市","jp_add_2":"宮河内ハイランド"},"8700034":{"post_code":"8700034","prefecture":"OITA KEN","city":"OITA SHI","town":"MIYAKOMACHI","perfecture_jp":"大分県","jp_add_1":"大分市","jp_add_2":"都町"},"8701133":{"post_code":"8701133","prefecture":"OITA KEN","city":"OITA SHI","town":"MIYAZAKI","perfecture_jp":"大分県","jp_add_1":"大分市","jp_add_2":"宮崎"},"8701137":{"post_code":"8701137","prefecture":"OITA KEN","city":"OITA SHI","town":"MIYAZAKIDAI","perfecture_jp":"大分県","jp_add_1":"大分市","jp_add_2":"宮崎台"},"8700878":{"post_code":"8700878","prefecture":"OITA KEN","city":"OITA SHI","town":"MIYAZONO","perfecture_jp":"大分県","jp_add_1":"大分市","jp_add_2":"宮苑"},"8700804":{"post_code":"8700804","prefecture":"OITA KEN","city":"OITA SHI","town":"MIYUKI","perfecture_jp":"大分県","jp_add_1":"大分市","jp_add_2":"御幸町"},"8700030":{"post_code":"8700030","prefecture":"OITA KEN","city":"OITA SHI","town":"MIYOSHI","perfecture_jp":"大分県","jp_add_1":"大分市","jp_add_2":"三芳"},"8700903":{"post_code":"8700903","prefecture":"OITA KEN","city":"OITA SHI","town":"MUKAIBARU OKI","perfecture_jp":"大分県","jp_add_1":"大分市","jp_add_2":"向原沖"},"8700904":{"post_code":"8700904","prefecture":"OITA KEN","city":"OITA SHI","town":"MUKAIBARU HIGASHI","perfecture_jp":"大分県","jp_add_1":"大分市","jp_add_2":"向原東"},"8700905":{"post_code":"8700905","prefecture":"OITA KEN","city":"OITA SHI","town":"MUKAIBARU NISHI","perfecture_jp":"大分県","jp_add_1":"大分市","jp_add_2":"向原西"},"8701159":{"post_code":"8701159","prefecture":"OITA KEN","city":"OITA SHI","town":"MUNAKATADAI KITA","perfecture_jp":"大分県","jp_add_1":"大分市","jp_add_2":"宗方台北"},"8701158":{"post_code":"8701158","prefecture":"OITA KEN","city":"OITA SHI","town":"MUNAKATADAI NISHI","perfecture_jp":"大分県","jp_add_1":"大分市","jp_add_2":"宗方台西"},"8701157":{"post_code":"8701157","prefecture":"OITA KEN","city":"OITA SHI","town":"MUNAKATADAI HIGASHI","perfecture_jp":"大分県","jp_add_1":"大分市","jp_add_2":"宗方台東"},"8701163":{"post_code":"8701163","prefecture":"OITA KEN","city":"OITA SHI","town":"2925-BANCHI)","perfecture_jp":"大分県","jp_add_1":"大分市","jp_add_2":"廻栖野"},"8701201":{"post_code":"8701201","prefecture":"OITA KEN","city":"OITA SHI","town":"MEGUSUNO(SONOTA)","perfecture_jp":"大分県","jp_add_1":"大分市","jp_add_2":"廻栖野"},"8700944":{"post_code":"8700944","prefecture":"OITA KEN","city":"OITA SHI","town":"MERA","perfecture_jp":"大分県","jp_add_1":"大分市","jp_add_2":"米良"},"8701174":{"post_code":"8701174","prefecture":"OITA KEN","city":"OITA SHI","town":"MOEGIDAI","perfecture_jp":"大分県","jp_add_1":"大分市","jp_add_2":"萌葱台"},"8700843":{"post_code":"8700843","prefecture":"OITA KEN","city":"OITA SHI","town":"MOTOMACHI","perfecture_jp":"大分県","jp_add_1":"大分市","jp_add_2":"元町"},"8700139":{"post_code":"8700139","prefecture":"OITA KEN","city":"OITA SHI","town":"MOMOZONODANCHI","perfecture_jp":"大分県","jp_add_1":"大分市","jp_add_2":"桃園団地"},"8700128":{"post_code":"8700128","prefecture":"OITA KEN","city":"OITA SHI","town":"MORI","perfecture_jp":"大分県","jp_add_1":"大分市","jp_add_2":"森"},"8700127":{"post_code":"8700127","prefecture":"OITA KEN","city":"OITA SHI","town":"MORIMACHI","perfecture_jp":"大分県","jp_add_1":"大分市","jp_add_2":"森町"},"8700136":{"post_code":"8700136","prefecture":"OITA KEN","city":"OITA SHI","town":"YAMAZUMACHI","perfecture_jp":"大分県","jp_add_1":"大分市","jp_add_2":"山津町"},"8700313":{"post_code":"8700313","prefecture":"OITA KEN","city":"OITA SHI","town":"YAYAMA","perfecture_jp":"大分県","jp_add_1":"大分市","jp_add_2":"屋山"},"8700042":{"post_code":"8700042","prefecture":"OITA KEN","city":"OITA SHI","town":"YUTAKAMACHI","perfecture_jp":"大分県","jp_add_1":"大分市","jp_add_2":"豊町"},"8700958":{"post_code":"8700958","prefecture":"OITA KEN","city":"OITA SHI","town":"YUMEGAOKA","perfecture_jp":"大分県","jp_add_1":"大分市","jp_add_2":"ゆめが丘"},"8700126":{"post_code":"8700126","prefecture":"OITA KEN","city":"OITA SHI","town":"YOKO","perfecture_jp":"大分県","jp_add_1":"大分市","jp_add_2":"横尾"},"8701173":{"post_code":"8701173","prefecture":"OITA KEN","city":"OITA SHI","town":"YOKOSE","perfecture_jp":"大分県","jp_add_1":"大分市","jp_add_2":"横瀬"},"8700263":{"post_code":"8700263","prefecture":"OITA KEN","city":"OITA SHI","town":"YOKOTA","perfecture_jp":"大分県","jp_add_1":"大分市","jp_add_2":"横田"},"8700254":{"post_code":"8700254","prefecture":"OITA KEN","city":"OITA SHI","town":"YOKOZUKA","perfecture_jp":"大分県","jp_add_1":"大分市","jp_add_2":"横塚"},"8700883":{"post_code":"8700883","prefecture":"OITA KEN","city":"OITA SHI","town":"RYOGO","perfecture_jp":"大分県","jp_add_1":"大分市","jp_add_2":"永興"},"8700842":{"post_code":"8700842","prefecture":"OITA KEN","city":"OITA SHI","town":"ROKUBOMINAMIMACHI","perfecture_jp":"大分県","jp_add_1":"大分市","jp_add_2":"六坊南町"},"8700841":{"post_code":"8700841","prefecture":"OITA KEN","city":"OITA SHI","town":"ROKUBOKITAMACHI","perfecture_jp":"大分県","jp_add_1":"大分市","jp_add_2":"六坊北町"}}