{"8797504":{"post_code":"8797504","prefecture":"OITA KEN","city":"OITA SHI","town":"ANDO","perfecture_jp":"大分県","jp_add_1":"大分市","jp_add_2":"安藤"},"8792203":{"post_code":"8792203","prefecture":"OITA KEN","city":"OITA SHI","town":"ISSHAKUYA","perfecture_jp":"大分県","jp_add_1":"大分市","jp_add_2":"一尺屋"},"8797885":{"post_code":"8797885","prefecture":"OITA KEN","city":"OITA SHI","town":"UMEGAOKA","perfecture_jp":"大分県","jp_add_1":"大分市","jp_add_2":"梅が丘"},"8792114":{"post_code":"8792114","prefecture":"OITA KEN","city":"OITA SHI","town":"OHIRA","perfecture_jp":"大分県","jp_add_1":"大分市","jp_add_2":"大平"},"8797881":{"post_code":"8797881","prefecture":"OITA KEN","city":"OITA SHI","town":"OKU","perfecture_jp":"大分県","jp_add_1":"大分市","jp_add_2":"奥"},"8797764":{"post_code":"8797764","prefecture":"OITA KEN","city":"OITA SHI","town":"KAMIHETSUGI","perfecture_jp":"大分県","jp_add_1":"大分市","jp_add_2":"上戸次"},"8797503":{"post_code":"8797503","prefecture":"OITA KEN","city":"OITA SHI","town":"KAWARAUCHI","perfecture_jp":"大分県","jp_add_1":"大分市","jp_add_2":"河原内"},"8792113":{"post_code":"8792113","prefecture":"OITA KEN","city":"OITA SHI","town":"KISAGAMI","perfecture_jp":"大分県","jp_add_1":"大分市","jp_add_2":"木佐上"},"8797762":{"post_code":"8797762","prefecture":"OITA KEN","city":"OITA SHI","town":"KEYAKIDAI","perfecture_jp":"大分県","jp_add_1":"大分市","jp_add_2":"けやき台"},"8792201":{"post_code":"8792201","prefecture":"OITA KEN","city":"OITA SHI","town":"SAGANOSEKI","perfecture_jp":"大分県","jp_add_1":"大分市","jp_add_2":"佐賀関"},"8797884":{"post_code":"8797884","prefecture":"OITA KEN","city":"OITA SHI","town":"SHITSURU","perfecture_jp":"大分県","jp_add_1":"大分市","jp_add_2":"志津留"},"8797763":{"post_code":"8797763","prefecture":"OITA KEN","city":"OITA SHI","town":"SHIMOHETSUGI","perfecture_jp":"大分県","jp_add_1":"大分市","jp_add_2":"下戸次"},"8792115":{"post_code":"8792115","prefecture":"OITA KEN","city":"OITA SHI","town":"SHUKI","perfecture_jp":"大分県","jp_add_1":"大分市","jp_add_2":"志生木"},"8792202":{"post_code":"8792202","prefecture":"OITA KEN","city":"OITA SHI","town":"SHIRAKI","perfecture_jp":"大分県","jp_add_1":"大分市","jp_add_2":"白木"},"8797882":{"post_code":"8797882","prefecture":"OITA KEN","city":"OITA SHI","town":"SUGIBARU","perfecture_jp":"大分県","jp_add_1":"大分市","jp_add_2":"杉原"},"8797501":{"post_code":"8797501","prefecture":"OITA KEN","city":"OITA SHI","town":"TAKENAKA","perfecture_jp":"大分県","jp_add_1":"大分市","jp_add_2":"竹中"},"8797872":{"post_code":"8797872","prefecture":"OITA KEN","city":"OITA SHI","town":"TSUKIGATA","perfecture_jp":"大分県","jp_add_1":"大分市","jp_add_2":"月形"},"8797871":{"post_code":"8797871","prefecture":"OITA KEN","city":"OITA SHI","town":"TSUJI","perfecture_jp":"大分県","jp_add_1":"大分市","jp_add_2":"辻"},"8797761":{"post_code":"8797761","prefecture":"OITA KEN","city":"OITA SHI","town":"NAKAHETSUGI","perfecture_jp":"大分県","jp_add_1":"大分市","jp_add_2":"中戸次"},"8797883":{"post_code":"8797883","prefecture":"OITA KEN","city":"OITA SHI","town":"HAGIO","perfecture_jp":"大分県","jp_add_1":"大分市","jp_add_2":"萩尾"},"8797502":{"post_code":"8797502","prefecture":"OITA KEN","city":"OITA SHI","town":"HATANOBORI","perfecture_jp":"大分県","jp_add_1":"大分市","jp_add_2":"端登"},"8792112":{"post_code":"8792112","prefecture":"OITA KEN","city":"OITA SHI","town":"BABA","perfecture_jp":"大分県","jp_add_1":"大分市","jp_add_2":"馬場"},"8797874":{"post_code":"8797874","prefecture":"OITA KEN","city":"OITA SHI","town":"FUKURA","perfecture_jp":"大分県","jp_add_1":"大分市","jp_add_2":"福良"},"8792111":{"post_code":"8792111","prefecture":"OITA KEN","city":"OITA SHI","town":"HONKOZAKI","perfecture_jp":"大分県","jp_add_1":"大分市","jp_add_2":"本神崎"},"8797765":{"post_code":"8797765","prefecture":"OITA KEN","city":"OITA SHI","town":"MISONODANCHI","perfecture_jp":"大分県","jp_add_1":"大分市","jp_add_2":"美園団地"},"8797873":{"post_code":"8797873","prefecture":"OITA KEN","city":"OITA SHI","town":"MIYAO","perfecture_jp":"大分県","jp_add_1":"大分市","jp_add_2":"宮尾"},"8797875":{"post_code":"8797875","prefecture":"OITA KEN","city":"OITA SHI","town":"YOSHINOHARU","perfecture_jp":"大分県","jp_add_1":"大分市","jp_add_2":"吉野原"},"8795551":{"post_code":"8795551","prefecture":"OITA KEN","city":"BEPPU SHI","town":"UCHINARI","perfecture_jp":"大分県","jp_add_1":"別府市","jp_add_2":"内成"},"8795552":{"post_code":"8795552","prefecture":"OITA KEN","city":"BEPPU SHI","town":"KOGANOHARU","perfecture_jp":"大分県","jp_add_1":"別府市","jp_add_2":"古賀原"},"8790106":{"post_code":"8790106","prefecture":"OITA KEN","city":"NAKATSU SHI","town":"AKASAKO","perfecture_jp":"大分県","jp_add_1":"中津市","jp_add_2":"赤迫"},"8790111":{"post_code":"8790111","prefecture":"OITA KEN","city":"NAKATSU SHI","town":"IDODA","perfecture_jp":"大分県","jp_add_1":"中津市","jp_add_2":"伊藤田"},"8790105":{"post_code":"8790105","prefecture":"OITA KEN","city":"NAKATSU SHI","town":"INUMARU","perfecture_jp":"大分県","jp_add_1":"中津市","jp_add_2":"犬丸"},"8790101":{"post_code":"8790101","prefecture":"OITA KEN","city":"NAKATSU SHI","town":"IMAZU","perfecture_jp":"大分県","jp_add_1":"中津市","jp_add_2":"今津"},"8790103":{"post_code":"8790103","prefecture":"OITA KEN","city":"NAKATSU SHI","town":"UENO","perfecture_jp":"大分県","jp_add_1":"中津市","jp_add_2":"植野"},"8790113":{"post_code":"8790113","prefecture":"OITA KEN","city":"NAKATSU SHI","town":"KITABARU","perfecture_jp":"大分県","jp_add_1":"中津市","jp_add_2":"北原"},"8790122":{"post_code":"8790122","prefecture":"OITA KEN","city":"NAKATSU SHI","town":"SADANOMI","perfecture_jp":"大分県","jp_add_1":"中津市","jp_add_2":"定留"},"8790225":{"post_code":"8790225","prefecture":"OITA KEN","city":"NAKATSU SHI","town":"SANKO KAMIFUKOZU","perfecture_jp":"大分県","jp_add_1":"中津市","jp_add_2":"三光上深水"},"8790221":{"post_code":"8790221","prefecture":"OITA KEN","city":"NAKATSU SHI","town":"SANKO KAMIMAKUSA","perfecture_jp":"大分県","jp_add_1":"中津市","jp_add_2":"三光上秣"},"8790224":{"post_code":"8790224","prefecture":"OITA KEN","city":"NAKATSU SHI","town":"SANKO SHIMOFUKOZU","perfecture_jp":"大分県","jp_add_1":"中津市","jp_add_2":"三光下深水"},"8790223":{"post_code":"8790223","prefecture":"OITA KEN","city":"NAKATSU SHI","town":"SANKO SHIMOMAKUSA","perfecture_jp":"大分県","jp_add_1":"中津市","jp_add_2":"三光下秣"},"8790222":{"post_code":"8790222","prefecture":"OITA KEN","city":"NAKATSU SHI","town":"SANKO NISHIMAKUSA","perfecture_jp":"大分県","jp_add_1":"中津市","jp_add_2":"三光西秣"},"8790107":{"post_code":"8790107","prefecture":"OITA KEN","city":"NAKATSU SHI","town":"SHOWASHINDEN","perfecture_jp":"大分県","jp_add_1":"中津市","jp_add_2":"昭和新田"},"8790123":{"post_code":"8790123","prefecture":"OITA KEN","city":"NAKATSU SHI","town":"TAJIRI","perfecture_jp":"大分県","jp_add_1":"中津市","jp_add_2":"田尻"},"8790124":{"post_code":"8790124","prefecture":"OITA KEN","city":"NAKATSU SHI","town":"TAJIRIZAKI","perfecture_jp":"大分県","jp_add_1":"中津市","jp_add_2":"田尻崎"},"8790102":{"post_code":"8790102","prefecture":"OITA KEN","city":"NAKATSU SHI","town":"NABESHIMA","perfecture_jp":"大分県","jp_add_1":"中津市","jp_add_2":"鍋島"},"8790104":{"post_code":"8790104","prefecture":"OITA KEN","city":"NAKATSU SHI","town":"NOYORI","perfecture_jp":"大分県","jp_add_1":"中津市","jp_add_2":"野依"},"8790112":{"post_code":"8790112","prefecture":"OITA KEN","city":"NAKATSU SHI","town":"FUKUSHIMA","perfecture_jp":"大分県","jp_add_1":"中津市","jp_add_2":"福島"},"8790121":{"post_code":"8790121","prefecture":"OITA KEN","city":"NAKATSU SHI","town":"MOROTA","perfecture_jp":"大分県","jp_add_1":"中津市","jp_add_2":"諸田"},"8794202":{"post_code":"8794202","prefecture":"OITA KEN","city":"HITA SHI","town":"AMAGASEMACHI AKAIWA","perfecture_jp":"大分県","jp_add_1":"日田市","jp_add_2":"天瀬町赤岩"},"8794123":{"post_code":"8794123","prefecture":"OITA KEN","city":"HITA SHI","town":"AMAGASEMACHI ONAGOHATA","perfecture_jp":"大分県","jp_add_1":"日田市","jp_add_2":"天瀬町女子畑"},"8794122":{"post_code":"8794122","prefecture":"OITA KEN","city":"HITA SHI","town":"AMAGASEMACHI GOTA","perfecture_jp":"大分県","jp_add_1":"日田市","jp_add_2":"天瀬町合田"},"8794201":{"post_code":"8794201","prefecture":"OITA KEN","city":"HITA SHI","town":"AMAGASEMACHI SAKURADAKE","perfecture_jp":"大分県","jp_add_1":"日田市","jp_add_2":"天瀬町桜竹"},"8794121":{"post_code":"8794121","prefecture":"OITA KEN","city":"HITA SHI","town":"AMAGASEMACHI MABARU","perfecture_jp":"大分県","jp_add_1":"日田市","jp_add_2":"天瀬町馬原"},"8794203":{"post_code":"8794203","prefecture":"OITA KEN","city":"HITA SHI","town":"AMAGASEMACHI YUYAMA","perfecture_jp":"大分県","jp_add_1":"日田市","jp_add_2":"天瀬町湯山"},"8793201":{"post_code":"8793201","prefecture":"OITA KEN","city":"SAIKI SHI","town":"UME OHIRA","perfecture_jp":"大分県","jp_add_1":"佐伯市","jp_add_2":"宇目大平"},"8793301":{"post_code":"8793301","prefecture":"OITA KEN","city":"SAIKI SHI","town":"UME ONOICHI","perfecture_jp":"大分県","jp_add_1":"佐伯市","jp_add_2":"宇目小野市"},"8793202":{"post_code":"8793202","prefecture":"OITA KEN","city":"SAIKI SHI","town":"UME KAWACHI","perfecture_jp":"大分県","jp_add_1":"佐伯市","jp_add_2":"宇目河内"},"8793402":{"post_code":"8793402","prefecture":"OITA KEN","city":"SAIKI SHI","town":"UME KIURAUCHI","perfecture_jp":"大分県","jp_add_1":"佐伯市","jp_add_2":"宇目木浦内"},"8793401":{"post_code":"8793401","prefecture":"OITA KEN","city":"SAIKI SHI","town":"UME KIURAKOZAN","perfecture_jp":"大分県","jp_add_1":"佐伯市","jp_add_2":"宇目木浦鉱山"},"8793203":{"post_code":"8793203","prefecture":"OITA KEN","city":"SAIKI SHI","town":"UME SHIOMIZONO","perfecture_jp":"大分県","jp_add_1":"佐伯市","jp_add_2":"宇目塩見園"},"8793204":{"post_code":"8793204","prefecture":"OITA KEN","city":"SAIKI SHI","town":"UME SHIGEOKA","perfecture_jp":"大分県","jp_add_1":"佐伯市","jp_add_2":"宇目重岡"},"8793205":{"post_code":"8793205","prefecture":"OITA KEN","city":"SAIKI SHI","town":"UME SENZOKU","perfecture_jp":"大分県","jp_add_1":"佐伯市","jp_add_2":"宇目千束"},"8793302":{"post_code":"8793302","prefecture":"OITA KEN","city":"SAIKI SHI","town":"UME MINAMITABARU","perfecture_jp":"大分県","jp_add_1":"佐伯市","jp_add_2":"宇目南田原"},"8792601":{"post_code":"8792601","prefecture":"OITA KEN","city":"SAIKI SHI","town":"KAMIURA AZAMUIURA","perfecture_jp":"大分県","jp_add_1":"佐伯市","jp_add_2":"上浦浅海井浦"},"8792602":{"post_code":"8792602","prefecture":"OITA KEN","city":"SAIKI SHI","town":"KAMIURA TSUIURA","perfecture_jp":"大分県","jp_add_1":"佐伯市","jp_add_2":"上浦津井浦"},"8792603":{"post_code":"8792603","prefecture":"OITA KEN","city":"SAIKI SHI","town":"KAMIURA NIINAMEURA","perfecture_jp":"大分県","jp_add_1":"佐伯市","jp_add_2":"上浦最勝海浦"},"8793101":{"post_code":"8793101","prefecture":"OITA KEN","city":"SAIKI SHI","town":"NAOKAWA AKAGI","perfecture_jp":"大分県","jp_add_1":"佐伯市","jp_add_2":"直川赤木"},"8793102":{"post_code":"8793102","prefecture":"OITA KEN","city":"SAIKI SHI","town":"NAOKAWA KAMINAOMI","perfecture_jp":"大分県","jp_add_1":"佐伯市","jp_add_2":"直川上直見"},"8793103":{"post_code":"8793103","prefecture":"OITA KEN","city":"SAIKI SHI","town":"NAOKAWA SHIMONAOMI","perfecture_jp":"大分県","jp_add_1":"佐伯市","jp_add_2":"直川下直見"},"8793104":{"post_code":"8793104","prefecture":"OITA KEN","city":"SAIKI SHI","town":"NAOKAWA NITAHARA","perfecture_jp":"大分県","jp_add_1":"佐伯市","jp_add_2":"直川仁田原"},"8793105":{"post_code":"8793105","prefecture":"OITA KEN","city":"SAIKI SHI","town":"NAOKAWA YOKOGAWA","perfecture_jp":"大分県","jp_add_1":"佐伯市","jp_add_2":"直川横川"},"8792400":{"post_code":"8792400","prefecture":"OITA KEN","city":"TSUKUMI SHI","town":"IKANIKEISAIGANAIBAAI","perfecture_jp":"大分県","jp_add_1":"津久見市","jp_add_2":""},"8792682":{"post_code":"8792682","prefecture":"OITA KEN","city":"TSUKUMI SHI","town":"AJIRO","perfecture_jp":"大分県","jp_add_1":"津久見市","jp_add_2":"網代"},"8792445":{"post_code":"8792445","prefecture":"OITA KEN","city":"TSUKUMI SHI","town":"IMUTAMACHI","perfecture_jp":"大分県","jp_add_1":"津久見市","jp_add_2":"井無田町"},"8792459":{"post_code":"8792459","prefecture":"OITA KEN","city":"TSUKUMI SHI","town":"IRIFUNE HIGASHIMACHI","perfecture_jp":"大分県","jp_add_1":"津久見市","jp_add_2":"入船東町"},"8792458":{"post_code":"8792458","prefecture":"OITA KEN","city":"TSUKUMI SHI","town":"IRIFUNE NISHIMACHI","perfecture_jp":"大分県","jp_add_1":"津久見市","jp_add_2":"入船西町"},"8792411":{"post_code":"8792411","prefecture":"OITA KEN","city":"TSUKUMI SHI","town":"IWAYAMACHI","perfecture_jp":"大分県","jp_add_1":"津久見市","jp_add_2":"岩屋町"},"8792431":{"post_code":"8792431","prefecture":"OITA KEN","city":"TSUKUMI SHI","town":"OTOMOMACHI","perfecture_jp":"大分県","jp_add_1":"津久見市","jp_add_2":"大友町"},"8792455":{"post_code":"8792455","prefecture":"OITA KEN","city":"TSUKUMI SHI","town":"OKAMACHI","perfecture_jp":"大分県","jp_add_1":"津久見市","jp_add_2":"岡町"},"8792475":{"post_code":"8792475","prefecture":"OITA KEN","city":"TSUKUMI SHI","town":"KATAURA","perfecture_jp":"大分県","jp_add_1":"津久見市","jp_add_2":"堅浦"},"8792461":{"post_code":"8792461","prefecture":"OITA KEN","city":"TSUKUMI SHI","town":"KAMIAOE","perfecture_jp":"大分県","jp_add_1":"津久見市","jp_add_2":"上青江"},"8792436":{"post_code":"8792436","prefecture":"OITA KEN","city":"TSUKUMI SHI","town":"KAMIMIYAMOTOMACHI","perfecture_jp":"大分県","jp_add_1":"津久見市","jp_add_2":"上宮本町"},"8792471":{"post_code":"8792471","prefecture":"OITA KEN","city":"TSUKUMI SHI","town":"GONOMOTOMACHI","perfecture_jp":"大分県","jp_add_1":"津久見市","jp_add_2":"合ノ元町"},"8792453":{"post_code":"8792453","prefecture":"OITA KEN","city":"TSUKUMI SHI","town":"KOZONOMACHI","perfecture_jp":"大分県","jp_add_1":"津久見市","jp_add_2":"小園町"},"8792454":{"post_code":"8792454","prefecture":"OITA KEN","city":"TSUKUMI SHI","town":"JIZOMACHI","perfecture_jp":"大分県","jp_add_1":"津久見市","jp_add_2":"地蔵町"},"8792457":{"post_code":"8792457","prefecture":"OITA KEN","city":"TSUKUMI SHI","town":"SHITEMACHI","perfecture_jp":"大分県","jp_add_1":"津久見市","jp_add_2":"志手町"},"8792446":{"post_code":"8792446","prefecture":"OITA KEN","city":"TSUKUMI SHI","town":"SHIMOAOE","perfecture_jp":"大分県","jp_add_1":"津久見市","jp_add_2":"下青江"},"8792451":{"post_code":"8792451","prefecture":"OITA KEN","city":"TSUKUMI SHI","town":"SHIMMACHI","perfecture_jp":"大分県","jp_add_1":"津久見市","jp_add_2":"新町"},"8792443":{"post_code":"8792443","prefecture":"OITA KEN","city":"TSUKUMI SHI","town":"SEMENTOMACHI","perfecture_jp":"大分県","jp_add_1":"津久見市","jp_add_2":"セメント町"},"8792412":{"post_code":"8792412","prefecture":"OITA KEN","city":"TSUKUMI SHI","town":"TAKASUMACHI","perfecture_jp":"大分県","jp_add_1":"津久見市","jp_add_2":"高洲町"},"8792434":{"post_code":"8792434","prefecture":"OITA KEN","city":"TSUKUMI SHI","town":"TACHIBANAMACHI","perfecture_jp":"大分県","jp_add_1":"津久見市","jp_add_2":"立花町"},"8792401":{"post_code":"8792401","prefecture":"OITA KEN","city":"TSUKUMI SHI","town":"CHINU","perfecture_jp":"大分県","jp_add_1":"津久見市","jp_add_2":"千怒"},"8792441":{"post_code":"8792441","prefecture":"OITA KEN","city":"TSUKUMI SHI","town":"CHUOMACHI","perfecture_jp":"大分県","jp_add_1":"津久見市","jp_add_2":"中央町"},"8792421":{"post_code":"8792421","prefecture":"OITA KEN","city":"TSUKUMI SHI","town":"TSUKUMI","perfecture_jp":"大分県","jp_add_1":"津久見市","jp_add_2":"津久見"},"8792413":{"post_code":"8792413","prefecture":"OITA KEN","city":"TSUKUMI SHI","town":"TSUKUMIURA","perfecture_jp":"大分県","jp_add_1":"津久見市","jp_add_2":"津久見浦"},"8792474":{"post_code":"8792474","prefecture":"OITA KEN","city":"TSUKUMI SHI","town":"TOKURA","perfecture_jp":"大分県","jp_add_1":"津久見市","jp_add_2":"徳浦"},"8792472":{"post_code":"8792472","prefecture":"OITA KEN","city":"TSUKUMI SHI","town":"TOKURA HOMMACHI","perfecture_jp":"大分県","jp_add_1":"津久見市","jp_add_2":"徳浦本町"},"8792473":{"post_code":"8792473","prefecture":"OITA KEN","city":"TSUKUMI SHI","town":"TOKURA MIYAMACHI","perfecture_jp":"大分県","jp_add_1":"津久見市","jp_add_2":"徳浦宮町"},"8792433":{"post_code":"8792433","prefecture":"OITA KEN","city":"TSUKUMI SHI","town":"NAKADAMACHI","perfecture_jp":"大分県","jp_add_1":"津久見市","jp_add_2":"中田町"},"8792452":{"post_code":"8792452","prefecture":"OITA KEN","city":"TSUKUMI SHI","town":"NAKAMACHI","perfecture_jp":"大分県","jp_add_1":"津久見市","jp_add_2":"中町"},"8792476":{"post_code":"8792476","prefecture":"OITA KEN","city":"TSUKUMI SHI","town":"NAGAME","perfecture_jp":"大分県","jp_add_1":"津久見市","jp_add_2":"長目"},"8792681":{"post_code":"8792681","prefecture":"OITA KEN","city":"TSUKUMI SHI","town":"HIMI","perfecture_jp":"大分県","jp_add_1":"津久見市","jp_add_2":"日見"},"8792432":{"post_code":"8792432","prefecture":"OITA KEN","city":"TSUKUMI SHI","town":"BUNKYOMACHI","perfecture_jp":"大分県","jp_add_1":"津久見市","jp_add_2":"文京町"},"8792501":{"post_code":"8792501","prefecture":"OITA KEN","city":"TSUKUMI SHI","town":"HOTOJIMA","perfecture_jp":"大分県","jp_add_1":"津久見市","jp_add_2":"保戸島"},"8792442":{"post_code":"8792442","prefecture":"OITA KEN","city":"TSUKUMI SHI","town":"MINATOMACHI","perfecture_jp":"大分県","jp_add_1":"津久見市","jp_add_2":"港町"},"8792435":{"post_code":"8792435","prefecture":"OITA KEN","city":"TSUKUMI SHI","town":"MIYAMOTOMACHI","perfecture_jp":"大分県","jp_add_1":"津久見市","jp_add_2":"宮本町"},"8792444":{"post_code":"8792444","prefecture":"OITA KEN","city":"TSUKUMI SHI","town":"MOTOMACHI","perfecture_jp":"大分県","jp_add_1":"津久見市","jp_add_2":"元町"},"8792456":{"post_code":"8792456","prefecture":"OITA KEN","city":"TSUKUMI SHI","town":"MONZEMMACHI","perfecture_jp":"大分県","jp_add_1":"津久見市","jp_add_2":"門前町"},"8792422":{"post_code":"8792422","prefecture":"OITA KEN","city":"TSUKUMI SHI","town":"YATO","perfecture_jp":"大分県","jp_add_1":"津久見市","jp_add_2":"八戸"},"8792683":{"post_code":"8792683","prefecture":"OITA KEN","city":"TSUKUMI SHI","town":"YORA","perfecture_jp":"大分県","jp_add_1":"津久見市","jp_add_2":"四浦"},"8796182":{"post_code":"8796182","prefecture":"OITA KEN","city":"TAKETA SHI","town":"IMA","perfecture_jp":"大分県","jp_add_1":"竹田市","jp_add_2":"今"},"8796134":{"post_code":"8796134","prefecture":"OITA KEN","city":"TAKETA SHI","town":"OGIMACHI URITSUKURI","perfecture_jp":"大分県","jp_add_1":"竹田市","jp_add_2":"荻町瓜作"},"8796113":{"post_code":"8796113","prefecture":"OITA KEN","city":"TAKETA SHI","town":"OGIMACHI ERAHARU","perfecture_jp":"大分県","jp_add_1":"竹田市","jp_add_2":"荻町恵良原"},"8796126":{"post_code":"8796126","prefecture":"OITA KEN","city":"TAKETA SHI","town":"OGIMACHI ODAIRA","perfecture_jp":"大分県","jp_add_1":"竹田市","jp_add_2":"荻町大平"},"8796122":{"post_code":"8796122","prefecture":"OITA KEN","city":"TAKETA SHI","town":"OGIMACHI KASHIWABARU","perfecture_jp":"大分県","jp_add_1":"竹田市","jp_add_2":"荻町柏原"},"8796127":{"post_code":"8796127","prefecture":"OITA KEN","city":"TAKETA SHI","town":"OGIMACHI KANAINO","perfecture_jp":"大分県","jp_add_1":"竹田市","jp_add_2":"荻町叶野"},"8796135":{"post_code":"8796135","prefecture":"OITA KEN","city":"TAKETA SHI","town":"OGIMACHI KITABARU","perfecture_jp":"大分県","jp_add_1":"竹田市","jp_add_2":"荻町北原"},"8796101":{"post_code":"8796101","prefecture":"OITA KEN","city":"TAKETA SHI","town":"OGIMACHI KINOSHITA","perfecture_jp":"大分県","jp_add_1":"竹田市","jp_add_2":"荻町木下"},"8796121":{"post_code":"8796121","prefecture":"OITA KEN","city":"TAKETA SHI","town":"OGIMACHI KUWAGI","perfecture_jp":"大分県","jp_add_1":"竹田市","jp_add_2":"荻町桑木"},"8796132":{"post_code":"8796132","prefecture":"OITA KEN","city":"TAKETA SHI","town":"OGIMACHI SAIFUKUJI","perfecture_jp":"大分県","jp_add_1":"竹田市","jp_add_2":"荻町西福寺"},"8796131":{"post_code":"8796131","prefecture":"OITA KEN","city":"TAKETA SHI","town":"OGIMACHI SHIGITA","perfecture_jp":"大分県","jp_add_1":"竹田市","jp_add_2":"荻町鴫田"},"8796103":{"post_code":"8796103","prefecture":"OITA KEN","city":"TAKETA SHI","town":"OGIMACHI SHINDO","perfecture_jp":"大分県","jp_add_1":"竹田市","jp_add_2":"荻町新藤"},"8796116":{"post_code":"8796116","prefecture":"OITA KEN","city":"TAKETA SHI","town":"OGIMACHI TAKAJO","perfecture_jp":"大分県","jp_add_1":"竹田市","jp_add_2":"荻町高城"},"8796128":{"post_code":"8796128","prefecture":"OITA KEN","city":"TAKETA SHI","town":"OGIMACHI TAKANERIKI","perfecture_jp":"大分県","jp_add_1":"竹田市","jp_add_2":"荻町高練木"},"8796133":{"post_code":"8796133","prefecture":"OITA KEN","city":"TAKETA SHI","town":"OGIMACHI TASHIRO","perfecture_jp":"大分県","jp_add_1":"竹田市","jp_add_2":"荻町田代"},"8796115":{"post_code":"8796115","prefecture":"OITA KEN","city":"TAKETA SHI","town":"OGIMACHI BABA","perfecture_jp":"大分県","jp_add_1":"竹田市","jp_add_2":"荻町馬場"},"8796124":{"post_code":"8796124","prefecture":"OITA KEN","city":"TAKETA SHI","town":"OGIMACHI HINATAME","perfecture_jp":"大分県","jp_add_1":"竹田市","jp_add_2":"荻町陽目"},"8796104":{"post_code":"8796104","prefecture":"OITA KEN","city":"TAKETA SHI","town":"OGIMACHI FUJIWATARI","perfecture_jp":"大分県","jp_add_1":"竹田市","jp_add_2":"荻町藤渡"},"8796125":{"post_code":"8796125","prefecture":"OITA KEN","city":"TAKETA SHI","town":"OGIMACHI BUTSUMEN","perfecture_jp":"大分県","jp_add_1":"竹田市","jp_add_2":"荻町仏面"},"8796112":{"post_code":"8796112","prefecture":"OITA KEN","city":"TAKETA SHI","town":"OGIMACHI MASENO","perfecture_jp":"大分県","jp_add_1":"竹田市","jp_add_2":"荻町馬背野"},"8796102":{"post_code":"8796102","prefecture":"OITA KEN","city":"TAKETA SHI","town":"OGIMACHI MADOKORO","perfecture_jp":"大分県","jp_add_1":"竹田市","jp_add_2":"荻町政所"},"8796111":{"post_code":"8796111","prefecture":"OITA KEN","city":"TAKETA SHI","town":"OGIMACHI MINAMIGAWACHI","perfecture_jp":"大分県","jp_add_1":"竹田市","jp_add_2":"荻町南河内"},"8796123":{"post_code":"8796123","prefecture":"OITA KEN","city":"TAKETA SHI","town":"OGIMACHI MIYABIRA","perfecture_jp":"大分県","jp_add_1":"竹田市","jp_add_2":"荻町宮平"},"8796181":{"post_code":"8796181","prefecture":"OITA KEN","city":"TAKETA SHI","town":"OZUKA","perfecture_jp":"大分県","jp_add_1":"竹田市","jp_add_2":"小塚"},"8796184":{"post_code":"8796184","prefecture":"OITA KEN","city":"TAKETA SHI","town":"SUGO","perfecture_jp":"大分県","jp_add_1":"竹田市","jp_add_2":"菅生"},"8796183":{"post_code":"8796183","prefecture":"OITA KEN","city":"TAKETA SHI","town":"TOE","perfecture_jp":"大分県","jp_add_1":"竹田市","jp_add_2":"戸上"},"8790600":{"post_code":"8790600","prefecture":"OITA KEN","city":"BUNGOTAKADA SHI","town":"IKANIKEISAIGANAIBAAI","perfecture_jp":"大分県","jp_add_1":"豊後高田市","jp_add_2":""},"8790733":{"post_code":"8790733","prefecture":"OITA KEN","city":"BUNGOTAKADA SHI","town":"ARAO","perfecture_jp":"大分県","jp_add_1":"豊後高田市","jp_add_2":"荒尾"},"8790722":{"post_code":"8790722","prefecture":"OITA KEN","city":"BUNGOTAKADA SHI","town":"ICHIHATA","perfecture_jp":"大分県","jp_add_1":"豊後高田市","jp_add_2":"一畑"},"8790626":{"post_code":"8790626","prefecture":"OITA KEN","city":"BUNGOTAKADA SHI","town":"IMAMACHI","perfecture_jp":"大分県","jp_add_1":"豊後高田市","jp_add_2":"今町"},"8790723":{"post_code":"8790723","prefecture":"OITA KEN","city":"BUNGOTAKADA SHI","town":"UMENOKI","perfecture_jp":"大分県","jp_add_1":"豊後高田市","jp_add_2":"梅ノ木"},"8790605":{"post_code":"8790605","prefecture":"OITA KEN","city":"BUNGOTAKADA SHI","town":"ODAMA","perfecture_jp":"大分県","jp_add_1":"豊後高田市","jp_add_2":"御玉"},"8790622":{"post_code":"8790622","prefecture":"OITA KEN","city":"BUNGOTAKADA SHI","town":"KAJIYAMACHI","perfecture_jp":"大分県","jp_add_1":"豊後高田市","jp_add_2":"鍛治屋町"},"8790603":{"post_code":"8790603","prefecture":"OITA KEN","city":"BUNGOTAKADA SHI","town":"KANAE","perfecture_jp":"大分県","jp_add_1":"豊後高田市","jp_add_2":"鼎"},"8790623":{"post_code":"8790623","prefecture":"OITA KEN","city":"BUNGOTAKADA SHI","town":"KANAYAMACHI","perfecture_jp":"大分県","jp_add_1":"豊後高田市","jp_add_2":"金谷町"},"8790721":{"post_code":"8790721","prefecture":"OITA KEN","city":"BUNGOTAKADA SHI","town":"KAREGAWA","perfecture_jp":"大分県","jp_add_1":"豊後高田市","jp_add_2":"加礼川"},"8790601":{"post_code":"8790601","prefecture":"OITA KEN","city":"BUNGOTAKADA SHI","town":"KUSAJI","perfecture_jp":"大分県","jp_add_1":"豊後高田市","jp_add_2":"草地"},"8790614":{"post_code":"8790614","prefecture":"OITA KEN","city":"BUNGOTAKADA SHI","town":"KUNAWA","perfecture_jp":"大分県","jp_add_1":"豊後高田市","jp_add_2":"来縄"},"8790608":{"post_code":"8790608","prefecture":"OITA KEN","city":"BUNGOTAKADA SHI","town":"KURESAKI","perfecture_jp":"大分県","jp_add_1":"豊後高田市","jp_add_2":"呉崎"},"8790613":{"post_code":"8790613","prefecture":"OITA KEN","city":"BUNGOTAKADA SHI","town":"KODAWARA","perfecture_jp":"大分県","jp_add_1":"豊後高田市","jp_add_2":"小田原"},"8790621":{"post_code":"8790621","prefecture":"OITA KEN","city":"BUNGOTAKADA SHI","town":"KORENAGAMACHI","perfecture_jp":"大分県","jp_add_1":"豊後高田市","jp_add_2":"是永町"},"8790615":{"post_code":"8790615","prefecture":"OITA KEN","city":"BUNGOTAKADA SHI","town":"SAKAI","perfecture_jp":"大分県","jp_add_1":"豊後高田市","jp_add_2":"界"},"8790612":{"post_code":"8790612","prefecture":"OITA KEN","city":"BUNGOTAKADA SHI","town":"SANO","perfecture_jp":"大分県","jp_add_1":"豊後高田市","jp_add_2":"佐野"},"8790609":{"post_code":"8790609","prefecture":"OITA KEN","city":"BUNGOTAKADA SHI","town":"JODAI","perfecture_jp":"大分県","jp_add_1":"豊後高田市","jp_add_2":"城台"},"8790607":{"post_code":"8790607","prefecture":"OITA KEN","city":"BUNGOTAKADA SHI","town":"SHINEI","perfecture_jp":"大分県","jp_add_1":"豊後高田市","jp_add_2":"新栄"},"8790724":{"post_code":"8790724","prefecture":"OITA KEN","city":"BUNGOTAKADA SHI","town":"SHINJO","perfecture_jp":"大分県","jp_add_1":"豊後高田市","jp_add_2":"新城"},"8790627":{"post_code":"8790627","prefecture":"OITA KEN","city":"BUNGOTAKADA SHI","town":"SHINCHI","perfecture_jp":"大分県","jp_add_1":"豊後高田市","jp_add_2":"新地"},"8790628":{"post_code":"8790628","prefecture":"OITA KEN","city":"BUNGOTAKADA SHI","town":"SHIMMACHI","perfecture_jp":"大分県","jp_add_1":"豊後高田市","jp_add_2":"新町"},"8790732":{"post_code":"8790732","prefecture":"OITA KEN","city":"BUNGOTAKADA SHI","town":"DAIRIKI","perfecture_jp":"大分県","jp_add_1":"豊後高田市","jp_add_2":"大力"},"8790617":{"post_code":"8790617","prefecture":"OITA KEN","city":"BUNGOTAKADA SHI","town":"TAKADA","perfecture_jp":"大分県","jp_add_1":"豊後高田市","jp_add_2":"高田"},"8790843":{"post_code":"8790843","prefecture":"OITA KEN","city":"BUNGOTAKADA SHI","town":"TASHIBUAIWARA","perfecture_jp":"大分県","jp_add_1":"豊後高田市","jp_add_2":"田染相原"},"8790842":{"post_code":"8790842","prefecture":"OITA KEN","city":"BUNGOTAKADA SHI","town":"TASHIBUIKEBE","perfecture_jp":"大分県","jp_add_1":"豊後高田市","jp_add_2":"田染池部"},"8790844":{"post_code":"8790844","prefecture":"OITA KEN","city":"BUNGOTAKADA SHI","town":"TASHIBUENO","perfecture_jp":"大分県","jp_add_1":"豊後高田市","jp_add_2":"田染上野"},"8790854":{"post_code":"8790854","prefecture":"OITA KEN","city":"BUNGOTAKADA SHI","town":"TASHIBUOSAKI","perfecture_jp":"大分県","jp_add_1":"豊後高田市","jp_add_2":"田染小崎"},"8790853":{"post_code":"8790853","prefecture":"OITA KEN","city":"BUNGOTAKADA SHI","town":"TASHIBUHIRANO","perfecture_jp":"大分県","jp_add_1":"豊後高田市","jp_add_2":"田染平野"},"8790841":{"post_code":"8790841","prefecture":"OITA KEN","city":"BUNGOTAKADA SHI","town":"TASHIBUFUKI","perfecture_jp":"大分県","jp_add_1":"豊後高田市","jp_add_2":"田染蕗"},"8790855":{"post_code":"8790855","prefecture":"OITA KEN","city":"BUNGOTAKADA SHI","town":"TASHIBUMAKI","perfecture_jp":"大分県","jp_add_1":"豊後高田市","jp_add_2":"田染真木"},"8790852":{"post_code":"8790852","prefecture":"OITA KEN","city":"BUNGOTAKADA SHI","town":"TASHIBUMANAKA","perfecture_jp":"大分県","jp_add_1":"豊後高田市","jp_add_2":"田染真中"},"8790851":{"post_code":"8790851","prefecture":"OITA KEN","city":"BUNGOTAKADA SHI","town":"TASHIBUYOKOMINE","perfecture_jp":"大分県","jp_add_1":"豊後高田市","jp_add_2":"田染横嶺"},"8790606":{"post_code":"8790606","prefecture":"OITA KEN","city":"BUNGOTAKADA SHI","town":"TAMATSU","perfecture_jp":"大分県","jp_add_1":"豊後高田市","jp_add_2":"玉津"},"8790618":{"post_code":"8790618","prefecture":"OITA KEN","city":"BUNGOTAKADA SHI","town":"CHUODORI","perfecture_jp":"大分県","jp_add_1":"豊後高田市","jp_add_2":"中央通"},"8790734":{"post_code":"8790734","prefecture":"OITA KEN","city":"BUNGOTAKADA SHI","town":"TSUIJI","perfecture_jp":"大分県","jp_add_1":"豊後高田市","jp_add_2":"築地"},"8790731":{"post_code":"8790731","prefecture":"OITA KEN","city":"BUNGOTAKADA SHI","town":"NAGAIWAYA","perfecture_jp":"大分県","jp_add_1":"豊後高田市","jp_add_2":"長岩屋"},"8790619":{"post_code":"8790619","prefecture":"OITA KEN","city":"BUNGOTAKADA SHI","town":"HAMAMACHI","perfecture_jp":"大分県","jp_add_1":"豊後高田市","jp_add_2":"浜町"},"8790602":{"post_code":"8790602","prefecture":"OITA KEN","city":"BUNGOTAKADA SHI","town":"HARAIDA","perfecture_jp":"大分県","jp_add_1":"豊後高田市","jp_add_2":"払田"},"8790624":{"post_code":"8790624","prefecture":"OITA KEN","city":"BUNGOTAKADA SHI","town":"HOMMACHI","perfecture_jp":"大分県","jp_add_1":"豊後高田市","jp_add_2":"本町"},"8790735":{"post_code":"8790735","prefecture":"OITA KEN","city":"BUNGOTAKADA SHI","town":"MATSUYUKI","perfecture_jp":"大分県","jp_add_1":"豊後高田市","jp_add_2":"松行"},"8790616":{"post_code":"8790616","prefecture":"OITA KEN","city":"BUNGOTAKADA SHI","town":"MIZUSAKI","perfecture_jp":"大分県","jp_add_1":"豊後高田市","jp_add_2":"水崎"},"8790625":{"post_code":"8790625","prefecture":"OITA KEN","city":"BUNGOTAKADA SHI","town":"MIZUTORI","perfecture_jp":"大分県","jp_add_1":"豊後高田市","jp_add_2":"水取"},"8790604":{"post_code":"8790604","prefecture":"OITA KEN","city":"BUNGOTAKADA SHI","town":"MIWA","perfecture_jp":"大分県","jp_add_1":"豊後高田市","jp_add_2":"美和"},"8790611":{"post_code":"8790611","prefecture":"OITA KEN","city":"BUNGOTAKADA SHI","town":"MORI","perfecture_jp":"大分県","jp_add_1":"豊後高田市","jp_add_2":"森"},"8790901":{"post_code":"8790901","prefecture":"OITA KEN","city":"KITSUKI SHI","town":"OTA ISHIMARU","perfecture_jp":"大分県","jp_add_1":"杵築市","jp_add_2":"大田石丸"},"8790904":{"post_code":"8790904","prefecture":"OITA KEN","city":"KITSUKI SHI","town":"OTA ONO","perfecture_jp":"大分県","jp_add_1":"杵築市","jp_add_2":"大田小野"},"8790902":{"post_code":"8790902","prefecture":"OITA KEN","city":"KITSUKI SHI","town":"OTA KUTSUKAKE","perfecture_jp":"大分県","jp_add_1":"杵築市","jp_add_2":"大田沓掛"},"8790912":{"post_code":"8790912","prefecture":"OITA KEN","city":"KITSUKI SHI","town":"OTA SHIRAKIHARA","perfecture_jp":"大分県","jp_add_1":"杵築市","jp_add_2":"大田白木原"},"8790903":{"post_code":"8790903","prefecture":"OITA KEN","city":"KITSUKI SHI","town":"OTA NAGAMATSU","perfecture_jp":"大分県","jp_add_1":"杵築市","jp_add_2":"大田永松"},"8790911":{"post_code":"8790911","prefecture":"OITA KEN","city":"KITSUKI SHI","town":"OTA HADAKATA","perfecture_jp":"大分県","jp_add_1":"杵築市","jp_add_2":"大田波多方"},"8790941":{"post_code":"8790941","prefecture":"OITA KEN","city":"KITSUKI SHI","town":"OTA MATAMIZU(SONOTA)","perfecture_jp":"大分県","jp_add_1":"杵築市","jp_add_2":"大田俣水"},"8791311":{"post_code":"8791311","prefecture":"OITA KEN","city":"KITSUKI SHI","town":"YAMAGAMACHI UCHIGAWANO","perfecture_jp":"大分県","jp_add_1":"杵築市","jp_add_2":"山香町内河野"},"8791304":{"post_code":"8791304","prefecture":"OITA KEN","city":"KITSUKI SHI","town":"YAMAGAMACHI ODAKE","perfecture_jp":"大分県","jp_add_1":"杵築市","jp_add_2":"山香町小武"},"8791313":{"post_code":"8791313","prefecture":"OITA KEN","city":"KITSUKI SHI","town":"YAMAGAMACHI KUGINO","perfecture_jp":"大分県","jp_add_1":"杵築市","jp_add_2":"山香町久木野尾"},"8791305":{"post_code":"8791305","prefecture":"OITA KEN","city":"KITSUKI SHI","town":"YAMAGAMACHI KURANARI","perfecture_jp":"大分県","jp_add_1":"杵築市","jp_add_2":"山香町倉成"},"8791303":{"post_code":"8791303","prefecture":"OITA KEN","city":"KITSUKI SHI","town":"YAMAGAMACHI SHIMO","perfecture_jp":"大分県","jp_add_1":"杵築市","jp_add_2":"山香町下"},"8791302":{"post_code":"8791302","prefecture":"OITA KEN","city":"KITSUKI SHI","town":"YAMAGAMACHI TATEISHI","perfecture_jp":"大分県","jp_add_1":"杵築市","jp_add_2":"山香町立石"},"8791307":{"post_code":"8791307","prefecture":"OITA KEN","city":"KITSUKI SHI","town":"YAMAGAMACHI NOHARU","perfecture_jp":"大分県","jp_add_1":"杵築市","jp_add_2":"山香町野原"},"8791312":{"post_code":"8791312","prefecture":"OITA KEN","city":"KITSUKI SHI","town":"YAMAGAMACHI HISASHI","perfecture_jp":"大分県","jp_add_1":"杵築市","jp_add_2":"山香町日指"},"8791306":{"post_code":"8791306","prefecture":"OITA KEN","city":"KITSUKI SHI","town":"YAMAGAMACHI HIROSE","perfecture_jp":"大分県","jp_add_1":"杵築市","jp_add_2":"山香町広瀬"},"8791314":{"post_code":"8791314","prefecture":"OITA KEN","city":"KITSUKI SHI","town":"YAMAGAMACHI MINAMIHATA","perfecture_jp":"大分県","jp_add_1":"杵築市","jp_add_2":"山香町南畑"},"8791301":{"post_code":"8791301","prefecture":"OITA KEN","city":"KITSUKI SHI","town":"YAMAGAMACHI MUKUNO","perfecture_jp":"大分県","jp_add_1":"杵築市","jp_add_2":"山香町向野"},"8791315":{"post_code":"8791315","prefecture":"OITA KEN","city":"KITSUKI SHI","town":"YAMAGAMACHI YAMAURA","perfecture_jp":"大分県","jp_add_1":"杵築市","jp_add_2":"山香町山浦"},"8791316":{"post_code":"8791316","prefecture":"OITA KEN","city":"KITSUKI SHI","town":"YAMAGAMACHI YOSHINOWATARI","perfecture_jp":"大分県","jp_add_1":"杵築市","jp_add_2":"山香町吉野渡"},"8791138":{"post_code":"8791138","prefecture":"OITA KEN","city":"USA SHI","town":"AOMORI","perfecture_jp":"大分県","jp_add_1":"宇佐市","jp_add_2":"青森"},"8790233":{"post_code":"8790233","prefecture":"OITA KEN","city":"USA SHI","town":"AKAO","perfecture_jp":"大分県","jp_add_1":"宇佐市","jp_add_2":"赤尾"},"8790501":{"post_code":"8790501","prefecture":"OITA KEN","city":"USA SHI","town":"ASO","perfecture_jp":"大分県","jp_add_1":"宇佐市","jp_add_2":"麻生"},"8790312":{"post_code":"8790312","prefecture":"OITA KEN","city":"USA SHI","town":"ARAKI","perfecture_jp":"大分県","jp_add_1":"宇佐市","jp_add_2":"荒木"},"8790444":{"post_code":"8790444","prefecture":"OITA KEN","city":"USA SHI","town":"ISHIDA","perfecture_jp":"大分県","jp_add_1":"宇佐市","jp_add_2":"石田"},"8791131":{"post_code":"8791131","prefecture":"OITA KEN","city":"USA SHI","town":"IDEMITSU","perfecture_jp":"大分県","jp_add_1":"宇佐市","jp_add_2":"出光"},"8790514":{"post_code":"8790514","prefecture":"OITA KEN","city":"USA SHI","town":"IMANARI","perfecture_jp":"大分県","jp_add_1":"宇佐市","jp_add_2":"今成"},"8790234":{"post_code":"8790234","prefecture":"OITA KEN","city":"USA SHI","town":"IMANI","perfecture_jp":"大分県","jp_add_1":"宇佐市","jp_add_2":"今仁"},"8791132":{"post_code":"8791132","prefecture":"OITA KEN","city":"USA SHI","town":"IWASAKI","perfecture_jp":"大分県","jp_add_1":"宇佐市","jp_add_2":"岩崎"},"8790453":{"post_code":"8790453","prefecture":"OITA KEN","city":"USA SHI","town":"UEDA","perfecture_jp":"大分県","jp_add_1":"宇佐市","jp_add_2":"上田"},"8791126":{"post_code":"8791126","prefecture":"OITA KEN","city":"USA SHI","town":"EGUMA","perfecture_jp":"大分県","jp_add_1":"宇佐市","jp_add_2":"江熊"},"8790464":{"post_code":"8790464","prefecture":"OITA KEN","city":"USA SHI","town":"OTSUKA","perfecture_jp":"大分県","jp_add_1":"宇佐市","jp_add_2":"大塚"},"8790232":{"post_code":"8790232","prefecture":"OITA KEN","city":"USA SHI","town":"ONEGAWA","perfecture_jp":"大分県","jp_add_1":"宇佐市","jp_add_2":"大根川"},"8790301":{"post_code":"8790301","prefecture":"OITA KEN","city":"USA SHI","town":"OTOMESHINDEN","perfecture_jp":"大分県","jp_add_1":"宇佐市","jp_add_2":"乙女新田"},"8790304":{"post_code":"8790304","prefecture":"OITA KEN","city":"USA SHI","town":"ONAGAI","perfecture_jp":"大分県","jp_add_1":"宇佐市","jp_add_2":"尾永井"},"8791128":{"post_code":"8791128","prefecture":"OITA KEN","city":"USA SHI","town":"KANAMARU","perfecture_jp":"大分県","jp_add_1":"宇佐市","jp_add_2":"金丸"},"8790303":{"post_code":"8790303","prefecture":"OITA KEN","city":"USA SHI","town":"KAMIOTOME","perfecture_jp":"大分県","jp_add_1":"宇佐市","jp_add_2":"上乙女"},"8790163":{"post_code":"8790163","prefecture":"OITA KEN","city":"USA SHI","town":"KAMISHIKIDA","perfecture_jp":"大分県","jp_add_1":"宇佐市","jp_add_2":"上敷田"},"8790153":{"post_code":"8790153","prefecture":"OITA KEN","city":"USA SHI","town":"KAMISHO","perfecture_jp":"大分県","jp_add_1":"宇佐市","jp_add_2":"上庄"},"8790313":{"post_code":"8790313","prefecture":"OITA KEN","city":"USA SHI","town":"KAMITAKA","perfecture_jp":"大分県","jp_add_1":"宇佐市","jp_add_2":"上高"},"8790305":{"post_code":"8790305","prefecture":"OITA KEN","city":"USA SHI","town":"KAMITAKEI","perfecture_jp":"大分県","jp_add_1":"宇佐市","jp_add_2":"上高家"},"8790315":{"post_code":"8790315","prefecture":"OITA KEN","city":"USA SHI","town":"KAMITOKIEDA","perfecture_jp":"大分県","jp_add_1":"宇佐市","jp_add_2":"上時枝"},"8790466":{"post_code":"8790466","prefecture":"OITA KEN","city":"USA SHI","town":"KAMIHAITA(SONOTA)","perfecture_jp":"大分県","jp_add_1":"宇佐市","jp_add_2":"上拝田"},"8790472":{"post_code":"8790472","prefecture":"OITA KEN","city":"USA SHI","town":"KAMIMOTOSHIGE","perfecture_jp":"大分県","jp_add_1":"宇佐市","jp_add_2":"上元重"},"8790456":{"post_code":"8790456","prefecture":"OITA KEN","city":"USA SHI","town":"KARASHIMA","perfecture_jp":"大分県","jp_add_1":"宇佐市","jp_add_2":"辛島"},"8791137":{"post_code":"8791137","prefecture":"OITA KEN","city":"USA SHI","town":"KARIUDA","perfecture_jp":"大分県","jp_add_1":"宇佐市","jp_add_2":"苅宇田"},"8790452":{"post_code":"8790452","prefecture":"OITA KEN","city":"USA SHI","town":"KAWABE","perfecture_jp":"大分県","jp_add_1":"宇佐市","jp_add_2":"川部"},"8790516":{"post_code":"8790516","prefecture":"OITA KEN","city":"USA SHI","town":"KINOCHI","perfecture_jp":"大分県","jp_add_1":"宇佐市","jp_add_2":"木内"},"8790235":{"post_code":"8790235","prefecture":"OITA KEN","city":"USA SHI","town":"KIBE","perfecture_jp":"大分県","jp_add_1":"宇佐市","jp_add_2":"木部"},"8790443":{"post_code":"8790443","prefecture":"OITA KEN","city":"USA SHI","town":"KUZUHARA","perfecture_jp":"大分県","jp_add_1":"宇佐市","jp_add_2":"葛原"},"8790512":{"post_code":"8790512","prefecture":"OITA KEN","city":"USA SHI","town":"KURO","perfecture_jp":"大分県","jp_add_1":"宇佐市","jp_add_2":"黒"},"8790455":{"post_code":"8790455","prefecture":"OITA KEN","city":"USA SHI","town":"GO","perfecture_jp":"大分県","jp_add_1":"宇佐市","jp_add_2":"閤"},"8791136":{"post_code":"8791136","prefecture":"OITA KEN","city":"USA SHI","town":"SAIGI","perfecture_jp":"大分県","jp_add_1":"宇佐市","jp_add_2":"西木"},"8790237":{"post_code":"8790237","prefecture":"OITA KEN","city":"USA SHI","town":"SANO","perfecture_jp":"大分県","jp_add_1":"宇佐市","jp_add_2":"佐野"},"8790314":{"post_code":"8790314","prefecture":"OITA KEN","city":"USA SHI","town":"SARUWATARI","perfecture_jp":"大分県","jp_add_1":"宇佐市","jp_add_2":"猿渡"},"8790457":{"post_code":"8790457","prefecture":"OITA KEN","city":"USA SHI","town":"SHIBAHARA","perfecture_jp":"大分県","jp_add_1":"宇佐市","jp_add_2":"芝原"},"8790236":{"post_code":"8790236","prefecture":"OITA KEN","city":"USA SHI","town":"SHIMIZU","perfecture_jp":"大分県","jp_add_1":"宇佐市","jp_add_2":"清水"},"8790302":{"post_code":"8790302","prefecture":"OITA KEN","city":"USA SHI","town":"SHIMOTOME","perfecture_jp":"大分県","jp_add_1":"宇佐市","jp_add_2":"下乙女"},"8790161":{"post_code":"8790161","prefecture":"OITA KEN","city":"USA SHI","town":"SHIMOSHIKIDA","perfecture_jp":"大分県","jp_add_1":"宇佐市","jp_add_2":"下敷田"},"8790152":{"post_code":"8790152","prefecture":"OITA KEN","city":"USA SHI","town":"SHIMOSHO","perfecture_jp":"大分県","jp_add_1":"宇佐市","jp_add_2":"下庄"},"8790317":{"post_code":"8790317","prefecture":"OITA KEN","city":"USA SHI","town":"SHIMOTAKA","perfecture_jp":"大分県","jp_add_1":"宇佐市","jp_add_2":"下高"},"8790308":{"post_code":"8790308","prefecture":"OITA KEN","city":"USA SHI","town":"SHIMOTAKEI","perfecture_jp":"大分県","jp_add_1":"宇佐市","jp_add_2":"下高家"},"8790316":{"post_code":"8790316","prefecture":"OITA KEN","city":"USA SHI","town":"SHIMOTOKIEDA","perfecture_jp":"大分県","jp_add_1":"宇佐市","jp_add_2":"下時枝"},"8790465":{"post_code":"8790465","prefecture":"OITA KEN","city":"USA SHI","town":"SHIMOHAITA","perfecture_jp":"大分県","jp_add_1":"宇佐市","jp_add_2":"下拝田"},"8790473":{"post_code":"8790473","prefecture":"OITA KEN","city":"USA SHI","town":"SHIMOMOTOSHIGE","perfecture_jp":"大分県","jp_add_1":"宇佐市","jp_add_2":"下元重"},"8790442":{"post_code":"8790442","prefecture":"OITA KEN","city":"USA SHI","town":"JOI","perfecture_jp":"大分県","jp_add_1":"宇佐市","jp_add_2":"城井"},"8790515":{"post_code":"8790515","prefecture":"OITA KEN","city":"USA SHI","town":"SUE","perfecture_jp":"大分県","jp_add_1":"宇佐市","jp_add_2":"末"},"8790502":{"post_code":"8790502","prefecture":"OITA KEN","city":"USA SHI","town":"TAKENOKUBI","perfecture_jp":"大分県","jp_add_1":"宇佐市","jp_add_2":"岳ノ首"},"8791123":{"post_code":"8791123","prefecture":"OITA KEN","city":"USA SHI","town":"TATEISHI","perfecture_jp":"大分県","jp_add_1":"宇佐市","jp_add_2":"立石"},"8790164":{"post_code":"8790164","prefecture":"OITA KEN","city":"USA SHI","town":"TOMIYAMA","perfecture_jp":"大分県","jp_add_1":"宇佐市","jp_add_2":"富山"},"8790513":{"post_code":"8790513","prefecture":"OITA KEN","city":"USA SHI","town":"NAKA","perfecture_jp":"大分県","jp_add_1":"宇佐市","jp_add_2":"中"},"8790162":{"post_code":"8790162","prefecture":"OITA KEN","city":"USA SHI","town":"NAKASHIKIDA","perfecture_jp":"大分県","jp_add_1":"宇佐市","jp_add_2":"中敷田"},"8790463":{"post_code":"8790463","prefecture":"OITA KEN","city":"USA SHI","town":"NAKAHARU","perfecture_jp":"大分県","jp_add_1":"宇佐市","jp_add_2":"中原"},"8790503":{"post_code":"8790503","prefecture":"OITA KEN","city":"USA SHI","town":"NADA","perfecture_jp":"大分県","jp_add_1":"宇佐市","jp_add_2":"灘"},"8790306":{"post_code":"8790306","prefecture":"OITA KEN","city":"USA SHI","town":"NISHITAKEI","perfecture_jp":"大分県","jp_add_1":"宇佐市","jp_add_2":"西高家"},"8791127":{"post_code":"8791127","prefecture":"OITA KEN","city":"USA SHI","town":"NISHIYASHIKI","perfecture_jp":"大分県","jp_add_1":"宇佐市","jp_add_2":"西屋敷"},"8791134":{"post_code":"8791134","prefecture":"OITA KEN","city":"USA SHI","town":"HASHIZU","perfecture_jp":"大分県","jp_add_1":"宇佐市","jp_add_2":"橋津"},"8790451":{"post_code":"8790451","prefecture":"OITA KEN","city":"USA SHI","town":"HATAKEDA","perfecture_jp":"大分県","jp_add_1":"宇佐市","jp_add_2":"畑田"},"8790307":{"post_code":"8790307","prefecture":"OITA KEN","city":"USA SHI","town":"HAMATAKEI","perfecture_jp":"大分県","jp_add_1":"宇佐市","jp_add_2":"浜高家"},"8791133":{"post_code":"8791133","prefecture":"OITA KEN","city":"USA SHI","town":"HIASHI","perfecture_jp":"大分県","jp_add_1":"宇佐市","jp_add_2":"日足"},"8791121":{"post_code":"8791121","prefecture":"OITA KEN","city":"USA SHI","town":"HIGASHIOBORI","perfecture_jp":"大分県","jp_add_1":"宇佐市","jp_add_2":"東大堀"},"8790309":{"post_code":"8790309","prefecture":"OITA KEN","city":"USA SHI","town":"HIGASHITAKEI","perfecture_jp":"大分県","jp_add_1":"宇佐市","jp_add_2":"東高家"},"8790461":{"post_code":"8790461","prefecture":"OITA KEN","city":"USA SHI","town":"HIDA","perfecture_jp":"大分県","jp_add_1":"宇佐市","jp_add_2":"樋田"},"8790462":{"post_code":"8790462","prefecture":"OITA KEN","city":"USA SHI","town":"BYU","perfecture_jp":"大分県","jp_add_1":"宇佐市","jp_add_2":"別府"},"8790454":{"post_code":"8790454","prefecture":"OITA KEN","city":"USA SHI","town":"HOKYOJI","perfecture_jp":"大分県","jp_add_1":"宇佐市","jp_add_2":"法鏡寺"},"8790231":{"post_code":"8790231","prefecture":"OITA KEN","city":"USA SHI","town":"MINAMISHIKIDA","perfecture_jp":"大分県","jp_add_1":"宇佐市","jp_add_2":"南敷田"},"8790151":{"post_code":"8790151","prefecture":"OITA KEN","city":"USA SHI","town":"MIYAGUMA","perfecture_jp":"大分県","jp_add_1":"宇佐市","jp_add_2":"宮熊"},"8790311":{"post_code":"8790311","prefecture":"OITA KEN","city":"USA SHI","town":"MORIYAMA","perfecture_jp":"大分県","jp_add_1":"宇佐市","jp_add_2":"森山"},"8791124":{"post_code":"8791124","prefecture":"OITA KEN","city":"USA SHI","town":"YAMA","perfecture_jp":"大分県","jp_add_1":"宇佐市","jp_add_2":"山"},"8790504":{"post_code":"8790504","prefecture":"OITA KEN","city":"USA SHI","town":"YAMAGUCHI","perfecture_jp":"大分県","jp_add_1":"宇佐市","jp_add_2":"山口"},"8790474":{"post_code":"8790474","prefecture":"OITA KEN","city":"USA SHI","town":"YAMASHITA","perfecture_jp":"大分県","jp_add_1":"宇佐市","jp_add_2":"山下"},"8790511":{"post_code":"8790511","prefecture":"OITA KEN","city":"USA SHI","town":"YAMABUKURO","perfecture_jp":"大分県","jp_add_1":"宇佐市","jp_add_2":"山袋"},"8790467":{"post_code":"8790467","prefecture":"OITA KEN","city":"USA SHI","town":"YAMAMOTO","perfecture_jp":"大分県","jp_add_1":"宇佐市","jp_add_2":"山本"},"8791122":{"post_code":"8791122","prefecture":"OITA KEN","city":"USA SHI","town":"YOKOTA","perfecture_jp":"大分県","jp_add_1":"宇佐市","jp_add_2":"横田"},"8790441":{"post_code":"8790441","prefecture":"OITA KEN","city":"USA SHI","town":"YOSHIMATSU","perfecture_jp":"大分県","jp_add_1":"宇佐市","jp_add_2":"吉松"},"8790471":{"post_code":"8790471","prefecture":"OITA KEN","city":"USA SHI","town":"YOKKAICHI","perfecture_jp":"大分県","jp_add_1":"宇佐市","jp_add_2":"四日市"},"8791125":{"post_code":"8791125","prefecture":"OITA KEN","city":"USA SHI","town":"RYOKAI","perfecture_jp":"大分県","jp_add_1":"宇佐市","jp_add_2":"両戒"},"8791135":{"post_code":"8791135","prefecture":"OITA KEN","city":"USA SHI","town":"WAKI","perfecture_jp":"大分県","jp_add_1":"宇佐市","jp_add_2":"和気"},"8797100":{"post_code":"8797100","prefecture":"OITA KEN","city":"BUNGOONO SHI","town":"IKANIKEISAIGANAIBAAI","perfecture_jp":"大分県","jp_add_1":"豊後大野市","jp_add_2":""},"8796222":{"post_code":"8796222","prefecture":"OITA KEN","city":"BUNGOONO SHI","town":"ASAJIMACHI ASAJI","perfecture_jp":"大分県","jp_add_1":"豊後大野市","jp_add_2":"朝地町朝地"},"8796224":{"post_code":"8796224","prefecture":"OITA KEN","city":"BUNGOONO SHI","town":"ASAJIMACHI IKEDA","perfecture_jp":"大分県","jp_add_1":"豊後大野市","jp_add_2":"朝地町池田"},"8796223":{"post_code":"8796223","prefecture":"OITA KEN","city":"BUNGOONO SHI","town":"ASAJIMACHI ITAIZAKO","perfecture_jp":"大分県","jp_add_1":"豊後大野市","jp_add_2":"朝地町板井迫"},"8796201":{"post_code":"8796201","prefecture":"OITA KEN","city":"BUNGOONO SHI","town":"ASAJIMACHI ICHIMANDA","perfecture_jp":"大分県","jp_add_1":"豊後大野市","jp_add_2":"朝地町市万田"},"8796213":{"post_code":"8796213","prefecture":"OITA KEN","city":"BUNGOONO SHI","town":"ASAJIMACHI KAMIOTSUKA","perfecture_jp":"大分県","jp_add_1":"豊後大野市","jp_add_2":"朝地町上尾塚"},"8796333":{"post_code":"8796333","prefecture":"OITA KEN","city":"BUNGOONO SHI","town":"ASAJIMACHI KURIBAYASHI","perfecture_jp":"大分県","jp_add_1":"豊後大野市","jp_add_2":"朝地町栗林"},"8796212":{"post_code":"8796212","prefecture":"OITA KEN","city":"BUNGOONO SHI","town":"ASAJIMACHI SHIGA","perfecture_jp":"大分県","jp_add_1":"豊後大野市","jp_add_2":"朝地町志賀"},"8796202":{"post_code":"8796202","prefecture":"OITA KEN","city":"BUNGOONO SHI","town":"ASAJIMACHI SHIMONO","perfecture_jp":"大分県","jp_add_1":"豊後大野市","jp_add_2":"朝地町下野"},"8796221":{"post_code":"8796221","prefecture":"OITA KEN","city":"BUNGOONO SHI","town":"ASAJIMACHI TSUBOIZUMI","perfecture_jp":"大分県","jp_add_1":"豊後大野市","jp_add_2":"朝地町坪泉"},"8796331":{"post_code":"8796331","prefecture":"OITA KEN","city":"BUNGOONO SHI","town":"ASAJIMACHI TORITA","perfecture_jp":"大分県","jp_add_1":"豊後大野市","jp_add_2":"朝地町鳥田"},"8796334":{"post_code":"8796334","prefecture":"OITA KEN","city":"BUNGOONO SHI","town":"ASAJIMACHI NASHIKO","perfecture_jp":"大分県","jp_add_1":"豊後大野市","jp_add_2":"朝地町梨小"},"8796211":{"post_code":"8796211","prefecture":"OITA KEN","city":"BUNGOONO SHI","town":"ASAJIMACHI MIYAO","perfecture_jp":"大分県","jp_add_1":"豊後大野市","jp_add_2":"朝地町宮生"},"8796332":{"post_code":"8796332","prefecture":"OITA KEN","city":"BUNGOONO SHI","town":"ASAJIMACHI WATADA","perfecture_jp":"大分県","jp_add_1":"豊後大野市","jp_add_2":"朝地町綿田"},"8797301":{"post_code":"8797301","prefecture":"OITA KEN","city":"BUNGOONO SHI","town":"INUKAIMACHI INUKAI","perfecture_jp":"大分県","jp_add_1":"豊後大野市","jp_add_2":"犬飼町犬飼"},"8797304":{"post_code":"8797304","prefecture":"OITA KEN","city":"BUNGOONO SHI","town":"INUKAIMACHI OSO","perfecture_jp":"大分県","jp_add_1":"豊後大野市","jp_add_2":"犬飼町大寒"},"8797302":{"post_code":"8797302","prefecture":"OITA KEN","city":"BUNGOONO SHI","town":"INUKAIMACHI KUBARU","perfecture_jp":"大分県","jp_add_1":"豊後大野市","jp_add_2":"犬飼町久原"},"8797314":{"post_code":"8797314","prefecture":"OITA KEN","city":"BUNGOONO SHI","town":"INUKAIMACHI KURIGAHATA","perfecture_jp":"大分県","jp_add_1":"豊後大野市","jp_add_2":"犬飼町栗ケ畑"},"8797313":{"post_code":"8797313","prefecture":"OITA KEN","city":"BUNGOONO SHI","town":"INUKAIMACHI KUROMATSU","perfecture_jp":"大分県","jp_add_1":"豊後大野市","jp_add_2":"犬飼町黒松"},"8797312":{"post_code":"8797312","prefecture":"OITA KEN","city":"BUNGOONO SHI","town":"INUKAIMACHI KOZUHARU","perfecture_jp":"大分県","jp_add_1":"豊後大野市","jp_add_2":"犬飼町高津原"},"8797307":{"post_code":"8797307","prefecture":"OITA KEN","city":"BUNGOONO SHI","town":"INUKAIMACHI SASAMUTA","perfecture_jp":"大分県","jp_add_1":"豊後大野市","jp_add_2":"犬飼町西寒田"},"8797311":{"post_code":"8797311","prefecture":"OITA KEN","city":"BUNGOONO SHI","town":"INUKAIMACHI SHIBAKITA","perfecture_jp":"大分県","jp_add_1":"豊後大野市","jp_add_2":"犬飼町柴北"},"8797306":{"post_code":"8797306","prefecture":"OITA KEN","city":"BUNGOONO SHI","town":"INUKAIMACHI SHIMOTSUO","perfecture_jp":"大分県","jp_add_1":"豊後大野市","jp_add_2":"犬飼町下津尾"},"8797305":{"post_code":"8797305","prefecture":"OITA KEN","city":"BUNGOONO SHI","town":"INUKAIMACHI TAHARA","perfecture_jp":"大分県","jp_add_1":"豊後大野市","jp_add_2":"犬飼町田原"},"8797316":{"post_code":"8797316","prefecture":"OITA KEN","city":"BUNGOONO SHI","town":"INUKAIMACHI NAGAHATA","perfecture_jp":"大分県","jp_add_1":"豊後大野市","jp_add_2":"犬飼町長畑"},"8797315":{"post_code":"8797315","prefecture":"OITA KEN","city":"BUNGOONO SHI","town":"INUKAIMACHI YAMAUCHI","perfecture_jp":"大分県","jp_add_1":"豊後大野市","jp_add_2":"犬飼町山内"},"8797303":{"post_code":"8797303","prefecture":"OITA KEN","city":"BUNGOONO SHI","town":"INUKAIMACHI YUNOKI","perfecture_jp":"大分県","jp_add_1":"豊後大野市","jp_add_2":"犬飼町柚野木"},"8796401":{"post_code":"8796401","prefecture":"OITA KEN","city":"BUNGOONO SHI","town":"ONOMACHI ANDO","perfecture_jp":"大分県","jp_add_1":"豊後大野市","jp_add_2":"大野町安藤"},"8796404":{"post_code":"8796404","prefecture":"OITA KEN","city":"BUNGOONO SHI","town":"ONOMACHI USHIRODA","perfecture_jp":"大分県","jp_add_1":"豊後大野市","jp_add_2":"大野町後田"},"8796433":{"post_code":"8796433","prefecture":"OITA KEN","city":"BUNGOONO SHI","town":"ONOMACHI OHARU","perfecture_jp":"大分県","jp_add_1":"豊後大野市","jp_add_2":"大野町大原"},"8796445":{"post_code":"8796445","prefecture":"OITA KEN","city":"BUNGOONO SHI","town":"ONOMACHI KATASHIMA","perfecture_jp":"大分県","jp_add_1":"豊後大野市","jp_add_2":"大野町片島"},"8796435":{"post_code":"8796435","prefecture":"OITA KEN","city":"BUNGOONO SHI","town":"ONOMACHI KITAZONO","perfecture_jp":"大分県","jp_add_1":"豊後大野市","jp_add_2":"大野町北園"},"8796434":{"post_code":"8796434","prefecture":"OITA KEN","city":"BUNGOONO SHI","town":"ONOMACHI KUWABARU","perfecture_jp":"大分県","jp_add_1":"豊後大野市","jp_add_2":"大野町桑原"},"8796426":{"post_code":"8796426","prefecture":"OITA KEN","city":"BUNGOONO SHI","town":"ONOMACHI KORIYAMA","perfecture_jp":"大分県","jp_add_1":"豊後大野市","jp_add_2":"大野町郡山"},"8796422":{"post_code":"8796422","prefecture":"OITA KEN","city":"BUNGOONO SHI","town":"ONOMACHI KOGURAKI","perfecture_jp":"大分県","jp_add_1":"豊後大野市","jp_add_2":"大野町小倉木"},"8796431":{"post_code":"8796431","prefecture":"OITA KEN","city":"BUNGOONO SHI","town":"ONOMACHI SAKAIJI","perfecture_jp":"大分県","jp_add_1":"豊後大野市","jp_add_2":"大野町酒井寺"},"8796408":{"post_code":"8796408","prefecture":"OITA KEN","city":"BUNGOONO SHI","town":"ONOMACHI SAWATA","perfecture_jp":"大分県","jp_add_1":"豊後大野市","jp_add_2":"大野町沢田"},"8796406":{"post_code":"8796406","prefecture":"OITA KEN","city":"BUNGOONO SHI","town":"ONOMACHI SUGIZONO","perfecture_jp":"大分県","jp_add_1":"豊後大野市","jp_add_2":"大野町杉園"},"8796405":{"post_code":"8796405","prefecture":"OITA KEN","city":"BUNGOONO SHI","town":"ONOMACHI DAISANGO","perfecture_jp":"大分県","jp_add_1":"豊後大野市","jp_add_2":"大野町代三五"},"8796444":{"post_code":"8796444","prefecture":"OITA KEN","city":"BUNGOONO SHI","town":"ONOMACHI TASHIRO","perfecture_jp":"大分県","jp_add_1":"豊後大野市","jp_add_2":"大野町田代"},"8796441":{"post_code":"8796441","prefecture":"OITA KEN","city":"BUNGOONO SHI","town":"ONOMACHI TANAKA","perfecture_jp":"大分県","jp_add_1":"豊後大野市","jp_add_2":"大野町田中"},"8796407":{"post_code":"8796407","prefecture":"OITA KEN","city":"BUNGOONO SHI","town":"ONOMACHI TOTOKI","perfecture_jp":"大分県","jp_add_1":"豊後大野市","jp_add_2":"大野町十時"},"8796402":{"post_code":"8796402","prefecture":"OITA KEN","city":"BUNGOONO SHI","town":"ONOMACHI NAKAHAJI","perfecture_jp":"大分県","jp_add_1":"豊後大野市","jp_add_2":"大野町中土師"},"8796403":{"post_code":"8796403","prefecture":"OITA KEN","city":"BUNGOONO SHI","town":"ONOMACHI NAGAHATA","perfecture_jp":"大分県","jp_add_1":"豊後大野市","jp_add_2":"大野町長畑"},"8796421":{"post_code":"8796421","prefecture":"OITA KEN","city":"BUNGOONO SHI","town":"ONOMACHI NAKABARU","perfecture_jp":"大分県","jp_add_1":"豊後大野市","jp_add_2":"大野町中原"},"8796424":{"post_code":"8796424","prefecture":"OITA KEN","city":"BUNGOONO SHI","town":"ONOMACHI NATASE","perfecture_jp":"大分県","jp_add_1":"豊後大野市","jp_add_2":"大野町夏足"},"8796442":{"post_code":"8796442","prefecture":"OITA KEN","city":"BUNGOONO SHI","town":"ONOMACHI FUJIKITA","perfecture_jp":"大分県","jp_add_1":"豊後大野市","jp_add_2":"大野町藤北"},"8796443":{"post_code":"8796443","prefecture":"OITA KEN","city":"BUNGOONO SHI","town":"ONOMACHI MIYAZAKO","perfecture_jp":"大分県","jp_add_1":"豊後大野市","jp_add_2":"大野町宮迫"},"8796423":{"post_code":"8796423","prefecture":"OITA KEN","city":"BUNGOONO SHI","town":"ONOMACHI YADA","perfecture_jp":"大分県","jp_add_1":"豊後大野市","jp_add_2":"大野町矢田"},"8796432":{"post_code":"8796432","prefecture":"OITA KEN","city":"BUNGOONO SHI","town":"ONOMACHI YABARU","perfecture_jp":"大分県","jp_add_1":"豊後大野市","jp_add_2":"大野町屋原"},"8796425":{"post_code":"8796425","prefecture":"OITA KEN","city":"BUNGOONO SHI","town":"ONOMACHI RYOKE","perfecture_jp":"大分県","jp_add_1":"豊後大野市","jp_add_2":"大野町両家"},"8796613":{"post_code":"8796613","prefecture":"OITA KEN","city":"BUNGOONO SHI","town":"OGATAMACHI INOE","perfecture_jp":"大分県","jp_add_1":"豊後大野市","jp_add_2":"緒方町井上"},"8796864":{"post_code":"8796864","prefecture":"OITA KEN","city":"BUNGOONO SHI","town":"OGATAMACHI UWAHATA","perfecture_jp":"大分県","jp_add_1":"豊後大野市","jp_add_2":"緒方町上畑"},"8796633":{"post_code":"8796633","prefecture":"OITA KEN","city":"BUNGOONO SHI","town":"OGATAMACHI OATE","perfecture_jp":"大分県","jp_add_1":"豊後大野市","jp_add_2":"緒方町小宛"},"8796759":{"post_code":"8796759","prefecture":"OITA KEN","city":"BUNGOONO SHI","town":"OGATAMACHI OISHI","perfecture_jp":"大分県","jp_add_1":"豊後大野市","jp_add_2":"緒方町大石"},"8796861":{"post_code":"8796861","prefecture":"OITA KEN","city":"BUNGOONO SHI","town":"OGATAMACHI OHARU","perfecture_jp":"大分県","jp_add_1":"豊後大野市","jp_add_2":"緒方町小原"},"8796865":{"post_code":"8796865","prefecture":"OITA KEN","city":"BUNGOONO SHI","town":"OGATAMACHI OBIRAKOZAN","perfecture_jp":"大分県","jp_add_1":"豊後大野市","jp_add_2":"緒方町尾平鉱山"},"8796625":{"post_code":"8796625","prefecture":"OITA KEN","city":"BUNGOONO SHI","town":"OGATAMACHI KAMIINUZUKA","perfecture_jp":"大分県","jp_add_1":"豊後大野市","jp_add_2":"緒方町上犬塚"},"8796642":{"post_code":"8796642","prefecture":"OITA KEN","city":"BUNGOONO SHI","town":"OGATAMACHI KAMIJIZAI","perfecture_jp":"大分県","jp_add_1":"豊後大野市","jp_add_2":"緒方町上自在"},"8796751":{"post_code":"8796751","prefecture":"OITA KEN","city":"BUNGOONO SHI","town":"OGATAMACHI KAMITOSHINO","perfecture_jp":"大分県","jp_add_1":"豊後大野市","jp_add_2":"緒方町上年野"},"8796755":{"post_code":"8796755","prefecture":"OITA KEN","city":"BUNGOONO SHI","town":"OGATAMACHI KAMIFUYUBARU","perfecture_jp":"大分県","jp_add_1":"豊後大野市","jp_add_2":"緒方町上冬原"},"8796757":{"post_code":"8796757","prefecture":"OITA KEN","city":"BUNGOONO SHI","town":"OGATAMACHI KINO","perfecture_jp":"大分県","jp_add_1":"豊後大野市","jp_add_2":"緒方町木野"},"8796641":{"post_code":"8796641","prefecture":"OITA KEN","city":"BUNGOONO SHI","town":"OGATAMACHI KUSABUKANO","perfecture_jp":"大分県","jp_add_1":"豊後大野市","jp_add_2":"緒方町草深野"},"8796616":{"post_code":"8796616","prefecture":"OITA KEN","city":"BUNGOONO SHI","town":"OGATAMACHI KUDOCHI","perfecture_jp":"大分県","jp_add_1":"豊後大野市","jp_add_2":"緒方町久土知"},"8796862":{"post_code":"8796862","prefecture":"OITA KEN","city":"BUNGOONO SHI","town":"OGATAMACHI KURIU","perfecture_jp":"大分県","jp_add_1":"豊後大野市","jp_add_2":"緒方町栗生"},"8796612":{"post_code":"8796612","prefecture":"OITA KEN","city":"BUNGOONO SHI","town":"OGATAMACHI KOSHIO","perfecture_jp":"大分県","jp_add_1":"豊後大野市","jp_add_2":"緒方町越生"},"8796602":{"post_code":"8796602","prefecture":"OITA KEN","city":"BUNGOONO SHI","town":"OGATAMACHI SHIGA","perfecture_jp":"大分県","jp_add_1":"豊後大野市","jp_add_2":"緒方町志賀"},"8796635":{"post_code":"8796635","prefecture":"OITA KEN","city":"BUNGOONO SHI","town":"OGATAMACHI JIKUMARU","perfecture_jp":"大分県","jp_add_1":"豊後大野市","jp_add_2":"緒方町軸丸"},"8796643":{"post_code":"8796643","prefecture":"OITA KEN","city":"BUNGOONO SHI","town":"OGATAMACHI SHIMOJIZAI","perfecture_jp":"大分県","jp_add_1":"豊後大野市","jp_add_2":"緒方町下自在"},"8796753":{"post_code":"8796753","prefecture":"OITA KEN","city":"BUNGOONO SHI","town":"OGATAMACHI SHIMOTOKUDA","perfecture_jp":"大分県","jp_add_1":"豊後大野市","jp_add_2":"緒方町下徳田"},"8796626":{"post_code":"8796626","prefecture":"OITA KEN","city":"BUNGOONO SHI","town":"OGATAMACHI TAIKA","perfecture_jp":"大分県","jp_add_1":"豊後大野市","jp_add_2":"緒方町大化"},"8796863":{"post_code":"8796863","prefecture":"OITA KEN","city":"BUNGOONO SHI","town":"OGATAMACHI TAIZAKO","perfecture_jp":"大分県","jp_add_1":"豊後大野市","jp_add_2":"緒方町滞迫"},"8796614":{"post_code":"8796614","prefecture":"OITA KEN","city":"BUNGOONO SHI","town":"OGATAMACHI CHITA","perfecture_jp":"大分県","jp_add_1":"豊後大野市","jp_add_2":"緒方町知田"},"8796632":{"post_code":"8796632","prefecture":"OITA KEN","city":"BUNGOONO SHI","town":"OGATAMACHI TSUJI","perfecture_jp":"大分県","jp_add_1":"豊後大野市","jp_add_2":"緒方町辻"},"8796634":{"post_code":"8796634","prefecture":"OITA KEN","city":"BUNGOONO SHI","town":"OGATAMACHI TERABARU","perfecture_jp":"大分県","jp_add_1":"豊後大野市","jp_add_2":"緒方町寺原"},"8796622":{"post_code":"8796622","prefecture":"OITA KEN","city":"BUNGOONO SHI","town":"OGATAMACHI TENJIN","perfecture_jp":"大分県","jp_add_1":"豊後大野市","jp_add_2":"緒方町天神"},"8796756":{"post_code":"8796756","prefecture":"OITA KEN","city":"BUNGOONO SHI","town":"OGATAMACHI TOKUDA","perfecture_jp":"大分県","jp_add_1":"豊後大野市","jp_add_2":"緒方町徳田"},"8796758":{"post_code":"8796758","prefecture":"OITA KEN","city":"BUNGOONO SHI","town":"OGATAMACHI NAKANO","perfecture_jp":"大分県","jp_add_1":"豊後大野市","jp_add_2":"緒方町中野"},"8796611":{"post_code":"8796611","prefecture":"OITA KEN","city":"BUNGOONO SHI","town":"OGATAMACHI NATASE","perfecture_jp":"大分県","jp_add_1":"豊後大野市","jp_add_2":"緒方町夏足"},"8796621":{"post_code":"8796621","prefecture":"OITA KEN","city":"BUNGOONO SHI","town":"OGATAMACHI NOJIRI","perfecture_jp":"大分県","jp_add_1":"豊後大野市","jp_add_2":"緒方町野尻"},"8796601":{"post_code":"8796601","prefecture":"OITA KEN","city":"BUNGOONO SHI","town":"OGATAMACHI BABA","perfecture_jp":"大分県","jp_add_1":"豊後大野市","jp_add_2":"緒方町馬場"},"8796631":{"post_code":"8796631","prefecture":"OITA KEN","city":"BUNGOONO SHI","town":"OGATAMACHI HARAJIRI","perfecture_jp":"大分県","jp_add_1":"豊後大野市","jp_add_2":"緒方町原尻"},"8796624":{"post_code":"8796624","prefecture":"OITA KEN","city":"BUNGOONO SHI","town":"OGATAMACHI HIRAISHI","perfecture_jp":"大分県","jp_add_1":"豊後大野市","jp_add_2":"緒方町平石"},"8796615":{"post_code":"8796615","prefecture":"OITA KEN","city":"BUNGOONO SHI","town":"OGATAMACHI FUNAGAWA","perfecture_jp":"大分県","jp_add_1":"豊後大野市","jp_add_2":"緒方町鮒川"},"8796754":{"post_code":"8796754","prefecture":"OITA KEN","city":"BUNGOONO SHI","town":"OGATAMACHI FUYUBARU","perfecture_jp":"大分県","jp_add_1":"豊後大野市","jp_add_2":"緒方町冬原"},"8796623":{"post_code":"8796623","prefecture":"OITA KEN","city":"BUNGOONO SHI","town":"OGATAMACHI MASEBATA","perfecture_jp":"大分県","jp_add_1":"豊後大野市","jp_add_2":"緒方町馬背畑"},"8796752":{"post_code":"8796752","prefecture":"OITA KEN","city":"BUNGOONO SHI","town":"OGATAMACHI YUGI","perfecture_jp":"大分県","jp_add_1":"豊後大野市","jp_add_2":"緒方町柚木"},"8796902":{"post_code":"8796902","prefecture":"OITA KEN","city":"BUNGOONO SHI","town":"KIYOKAWAMACHI AMAZUTSUMI","perfecture_jp":"大分県","jp_add_1":"豊後大野市","jp_add_2":"清川町雨堤"},"8796901":{"post_code":"8796901","prefecture":"OITA KEN","city":"BUNGOONO SHI","town":"KIYOKAWAMACHI USUO","perfecture_jp":"大分県","jp_add_1":"豊後大野市","jp_add_2":"清川町臼尾"},"8796911":{"post_code":"8796911","prefecture":"OITA KEN","city":"BUNGOONO SHI","town":"KIYOKAWAMACHI UTAEDA","perfecture_jp":"大分県","jp_add_1":"豊後大野市","jp_add_2":"清川町宇田枝"},"8796922":{"post_code":"8796922","prefecture":"OITA KEN","city":"BUNGOONO SHI","town":"KIYOKAWAMACHI OSHIROTANI","perfecture_jp":"大分県","jp_add_1":"豊後大野市","jp_add_2":"清川町大白谷"},"8796903":{"post_code":"8796903","prefecture":"OITA KEN","city":"BUNGOONO SHI","town":"KIYOKAWAMACHI SUNADA","perfecture_jp":"大分県","jp_add_1":"豊後大野市","jp_add_2":"清川町砂田"},"8796914":{"post_code":"8796914","prefecture":"OITA KEN","city":"BUNGOONO SHI","town":"KIYOKAWAMACHI SOCHI","perfecture_jp":"大分県","jp_add_1":"豊後大野市","jp_add_2":"清川町左右知"},"8796904":{"post_code":"8796904","prefecture":"OITA KEN","city":"BUNGOONO SHI","town":"KIYOKAWAMACHI TENJIN","perfecture_jp":"大分県","jp_add_1":"豊後大野市","jp_add_2":"清川町天神"},"8796913":{"post_code":"8796913","prefecture":"OITA KEN","city":"BUNGOONO SHI","town":"KIYOKAWAMACHI HIRAISHI","perfecture_jp":"大分県","jp_add_1":"豊後大野市","jp_add_2":"清川町平石"},"8796921":{"post_code":"8796921","prefecture":"OITA KEN","city":"BUNGOONO SHI","town":"KIYOKAWAMACHI FUSENO","perfecture_jp":"大分県","jp_add_1":"豊後大野市","jp_add_2":"清川町伏野"},"8796905":{"post_code":"8796905","prefecture":"OITA KEN","city":"BUNGOONO SHI","town":"KIYOKAWAMACHI MITAMA","perfecture_jp":"大分県","jp_add_1":"豊後大野市","jp_add_2":"清川町三玉"},"8796912":{"post_code":"8796912","prefecture":"OITA KEN","city":"BUNGOONO SHI","town":"KIYOKAWAMACHI MUKUSA","perfecture_jp":"大分県","jp_add_1":"豊後大野市","jp_add_2":"清川町六種"},"8797403":{"post_code":"8797403","prefecture":"OITA KEN","city":"BUNGOONO SHI","town":"CHITOSEMACHI ISHIDA","perfecture_jp":"大分県","jp_add_1":"豊後大野市","jp_add_2":"千歳町石田"},"8797411":{"post_code":"8797411","prefecture":"OITA KEN","city":"BUNGOONO SHI","town":"CHITOSEMACHI SHIBAYAMA","perfecture_jp":"大分県","jp_add_1":"豊後大野市","jp_add_2":"千歳町柴山"},"8797413":{"post_code":"8797413","prefecture":"OITA KEN","city":"BUNGOONO SHI","town":"CHITOSEMACHI SHIMOYAMA","perfecture_jp":"大分県","jp_add_1":"豊後大野市","jp_add_2":"千歳町下山"},"8797412":{"post_code":"8797412","prefecture":"OITA KEN","city":"BUNGOONO SHI","town":"CHITOSEMACHI TAKAHATA","perfecture_jp":"大分県","jp_add_1":"豊後大野市","jp_add_2":"千歳町高畑"},"8797404":{"post_code":"8797404","prefecture":"OITA KEN","city":"BUNGOONO SHI","town":"CHITOSEMACHI NAGAMINE","perfecture_jp":"大分県","jp_add_1":"豊後大野市","jp_add_2":"千歳町長峰"},"8797401":{"post_code":"8797401","prefecture":"OITA KEN","city":"BUNGOONO SHI","town":"CHITOSEMACHI NIIDONO","perfecture_jp":"大分県","jp_add_1":"豊後大野市","jp_add_2":"千歳町新殿"},"8797402":{"post_code":"8797402","prefecture":"OITA KEN","city":"BUNGOONO SHI","town":"CHITOSEMACHI FUNADA","perfecture_jp":"大分県","jp_add_1":"豊後大野市","jp_add_2":"千歳町船田"},"8797414":{"post_code":"8797414","prefecture":"OITA KEN","city":"BUNGOONO SHI","town":"CHITOSEMACHI MAEDA","perfecture_jp":"大分県","jp_add_1":"豊後大野市","jp_add_2":"千歳町前田"},"8797111":{"post_code":"8797111","prefecture":"OITA KEN","city":"BUNGOONO SHI","town":"MIEMACHI AKAMINE","perfecture_jp":"大分県","jp_add_1":"豊後大野市","jp_add_2":"三重町赤嶺"},"8797141":{"post_code":"8797141","prefecture":"OITA KEN","city":"BUNGOONO SHI","town":"MIEMACHI AKIBA","perfecture_jp":"大分県","jp_add_1":"豊後大野市","jp_add_2":"三重町秋葉"},"8797108":{"post_code":"8797108","prefecture":"OITA KEN","city":"BUNGOONO SHI","town":"MIEMACHI ASASE","perfecture_jp":"大分県","jp_add_1":"豊後大野市","jp_add_2":"三重町浅瀬"},"8797105":{"post_code":"8797105","prefecture":"OITA KEN","city":"BUNGOONO SHI","town":"MIEMACHI ASHIKARI","perfecture_jp":"大分県","jp_add_1":"豊後大野市","jp_add_2":"三重町芦刈"},"8797106":{"post_code":"8797106","prefecture":"OITA KEN","city":"BUNGOONO SHI","town":"MIEMACHI ISAKO","perfecture_jp":"大分県","jp_add_1":"豊後大野市","jp_add_2":"三重町井迫"},"8797131":{"post_code":"8797131","prefecture":"OITA KEN","city":"BUNGOONO SHI","town":"MIEMACHI ICHIBA","perfecture_jp":"大分県","jp_add_1":"豊後大野市","jp_add_2":"三重町市場"},"8797125":{"post_code":"8797125","prefecture":"OITA KEN","city":"BUNGOONO SHI","town":"MIEMACHI UCHIDA","perfecture_jp":"大分県","jp_add_1":"豊後大野市","jp_add_2":"三重町内田"},"8797124":{"post_code":"8797124","prefecture":"OITA KEN","city":"BUNGOONO SHI","town":"MIEMACHI UCHIYAMA","perfecture_jp":"大分県","jp_add_1":"豊後大野市","jp_add_2":"三重町内山"},"8797264":{"post_code":"8797264","prefecture":"OITA KEN","city":"BUNGOONO SHI","town":"MIEMACHI OSHIROTANI","perfecture_jp":"大分県","jp_add_1":"豊後大野市","jp_add_2":"三重町大白谷"},"8797262":{"post_code":"8797262","prefecture":"OITA KEN","city":"BUNGOONO SHI","town":"MIEMACHI OKUBATA","perfecture_jp":"大分県","jp_add_1":"豊後大野市","jp_add_2":"三重町奥畑"},"8797104":{"post_code":"8797104","prefecture":"OITA KEN","city":"BUNGOONO SHI","town":"MIEMACHI OSAKA","perfecture_jp":"大分県","jp_add_1":"豊後大野市","jp_add_2":"三重町小坂"},"8797142":{"post_code":"8797142","prefecture":"OITA KEN","city":"BUNGOONO SHI","town":"MIEMACHI ODA","perfecture_jp":"大分県","jp_add_1":"豊後大野市","jp_add_2":"三重町小田"},"8797107":{"post_code":"8797107","prefecture":"OITA KEN","city":"BUNGOONO SHI","town":"MIEMACHI KAMITAWARA","perfecture_jp":"大分県","jp_add_1":"豊後大野市","jp_add_2":"三重町上田原"},"8797154":{"post_code":"8797154","prefecture":"OITA KEN","city":"BUNGOONO SHI","town":"MIEMACHI KAWABE","perfecture_jp":"大分県","jp_add_1":"豊後大野市","jp_add_2":"三重町川辺"},"8797102":{"post_code":"8797102","prefecture":"OITA KEN","city":"BUNGOONO SHI","town":"MIEMACHI SUGO","perfecture_jp":"大分県","jp_add_1":"豊後大野市","jp_add_2":"三重町菅生"},"8797153":{"post_code":"8797153","prefecture":"OITA KEN","city":"BUNGOONO SHI","town":"MIEMACHI TAMADA","perfecture_jp":"大分県","jp_add_1":"豊後大野市","jp_add_2":"三重町玉田"},"8797263":{"post_code":"8797263","prefecture":"OITA KEN","city":"BUNGOONO SHI","town":"MIEMACHI NAKAZURU","perfecture_jp":"大分県","jp_add_1":"豊後大野市","jp_add_2":"三重町中津留"},"8797151":{"post_code":"8797151","prefecture":"OITA KEN","city":"BUNGOONO SHI","town":"MIEMACHI NISHIIZUMI","perfecture_jp":"大分県","jp_add_1":"豊後大野市","jp_add_2":"三重町西泉"},"8797103":{"post_code":"8797103","prefecture":"OITA KEN","city":"BUNGOONO SHI","town":"MIEMACHI NISHIHATA","perfecture_jp":"大分県","jp_add_1":"豊後大野市","jp_add_2":"三重町西畑"},"8797143":{"post_code":"8797143","prefecture":"OITA KEN","city":"BUNGOONO SHI","town":"MIEMACHI HISADA","perfecture_jp":"大分県","jp_add_1":"豊後大野市","jp_add_2":"三重町久田"},"8797261":{"post_code":"8797261","prefecture":"OITA KEN","city":"BUNGOONO SHI","town":"MIEMACHI FUSENO","perfecture_jp":"大分県","jp_add_1":"豊後大野市","jp_add_2":"三重町伏野"},"8797144":{"post_code":"8797144","prefecture":"OITA KEN","city":"BUNGOONO SHI","town":"MIEMACHI HONJO","perfecture_jp":"大分県","jp_add_1":"豊後大野市","jp_add_2":"三重町本城"},"8797123":{"post_code":"8797123","prefecture":"OITA KEN","city":"BUNGOONO SHI","town":"MIEMACHI MATSUO","perfecture_jp":"大分県","jp_add_1":"豊後大野市","jp_add_2":"三重町松尾"},"8797101":{"post_code":"8797101","prefecture":"OITA KEN","city":"BUNGOONO SHI","town":"MIEMACHI MIYANO","perfecture_jp":"大分県","jp_add_1":"豊後大野市","jp_add_2":"三重町宮野"},"8797155":{"post_code":"8797155","prefecture":"OITA KEN","city":"BUNGOONO SHI","town":"MIEMACHI MUKONO","perfecture_jp":"大分県","jp_add_1":"豊後大野市","jp_add_2":"三重町向野"},"8797152":{"post_code":"8797152","prefecture":"OITA KEN","city":"BUNGOONO SHI","town":"MIEMACHI MOMOEDA","perfecture_jp":"大分県","jp_add_1":"豊後大野市","jp_add_2":"三重町百枝"},"8797121":{"post_code":"8797121","prefecture":"OITA KEN","city":"BUNGOONO SHI","town":"MIEMACHI YAMABU","perfecture_jp":"大分県","jp_add_1":"豊後大野市","jp_add_2":"三重町山部"},"8797122":{"post_code":"8797122","prefecture":"OITA KEN","city":"BUNGOONO SHI","town":"MIEMACHI WASHIDANI","perfecture_jp":"大分県","jp_add_1":"豊後大野市","jp_add_2":"三重町鷲谷"},"8795400":{"post_code":"8795400","prefecture":"OITA KEN","city":"YUFU SHI","town":"IKANIKEISAIGANAIBAAI","perfecture_jp":"大分県","jp_add_1":"由布市","jp_add_2":""},"8795423":{"post_code":"8795423","prefecture":"OITA KEN","city":"YUFU SHI","town":"SHONAICHO ASONO","perfecture_jp":"大分県","jp_add_1":"由布市","jp_add_2":"庄内町阿蘇野"},"8795404":{"post_code":"8795404","prefecture":"OITA KEN","city":"YUFU SHI","town":"SHONAICHO ICHIGI","perfecture_jp":"大分県","jp_add_1":"由布市","jp_add_2":"庄内町櫟木"},"8795413":{"post_code":"8795413","prefecture":"OITA KEN","city":"YUFU SHI","town":"SHONAICHO OTATSU","perfecture_jp":"大分県","jp_add_1":"由布市","jp_add_2":"庄内町大龍"},"8795402":{"post_code":"8795402","prefecture":"OITA KEN","city":"YUFU SHI","town":"SHONAICHO OBASAMA","perfecture_jp":"大分県","jp_add_1":"由布市","jp_add_2":"庄内町小挾間"},"8795421":{"post_code":"8795421","prefecture":"OITA KEN","city":"YUFU SHI","town":"SHONAICHO KAKIHARU","perfecture_jp":"大分県","jp_add_1":"由布市","jp_add_2":"庄内町柿原"},"8795401":{"post_code":"8795401","prefecture":"OITA KEN","city":"YUFU SHI","town":"SHONAICHO KITAOTSURU","perfecture_jp":"大分県","jp_add_1":"由布市","jp_add_2":"庄内町北大津留"},"8795412":{"post_code":"8795412","prefecture":"OITA KEN","city":"YUFU SHI","town":"SHONAICHO GOKASE","perfecture_jp":"大分県","jp_add_1":"由布市","jp_add_2":"庄内町五ケ瀬"},"8795434":{"post_code":"8795434","prefecture":"OITA KEN","city":"YUFU SHI","town":"SHONAICHO SHONAIBARU","perfecture_jp":"大分県","jp_add_1":"由布市","jp_add_2":"庄内町庄内原"},"8795433":{"post_code":"8795433","prefecture":"OITA KEN","city":"YUFU SHI","town":"SHONAICHO TAKAOKA","perfecture_jp":"大分県","jp_add_1":"由布市","jp_add_2":"庄内町高岡"},"8795411":{"post_code":"8795411","prefecture":"OITA KEN","city":"YUFU SHI","town":"SHONAICHO TATSUHARU","perfecture_jp":"大分県","jp_add_1":"由布市","jp_add_2":"庄内町龍原"},"8795424":{"post_code":"8795424","prefecture":"OITA KEN","city":"YUFU SHI","town":"SHONAICHO NAONOCHIYAMA","perfecture_jp":"大分県","jp_add_1":"由布市","jp_add_2":"庄内町直野内山"},"8795435":{"post_code":"8795435","prefecture":"OITA KEN","city":"YUFU SHI","town":"SHONAICHO NAKA","perfecture_jp":"大分県","jp_add_1":"由布市","jp_add_2":"庄内町中"},"8795431":{"post_code":"8795431","prefecture":"OITA KEN","city":"YUFU SHI","town":"SHONAICHO NAGANO","perfecture_jp":"大分県","jp_add_1":"由布市","jp_add_2":"庄内町長野"},"8795436":{"post_code":"8795436","prefecture":"OITA KEN","city":"YUFU SHI","town":"SHONAICHO NISHI","perfecture_jp":"大分県","jp_add_1":"由布市","jp_add_2":"庄内町西"},"8795408":{"post_code":"8795408","prefecture":"OITA KEN","city":"YUFU SHI","town":"SHONAICHO NISHIOTSURU","perfecture_jp":"大分県","jp_add_1":"由布市","jp_add_2":"庄内町西大津留"},"8795406":{"post_code":"8795406","prefecture":"OITA KEN","city":"YUFU SHI","town":"SHONAICHO NISHICHOHO","perfecture_jp":"大分県","jp_add_1":"由布市","jp_add_2":"庄内町西長宝"},"8795422":{"post_code":"8795422","prefecture":"OITA KEN","city":"YUFU SHI","town":"SHONAICHO NOBATAKE","perfecture_jp":"大分県","jp_add_1":"由布市","jp_add_2":"庄内町野畑"},"8795432":{"post_code":"8795432","prefecture":"OITA KEN","city":"YUFU SHI","town":"SHONAICHO HATAKEDA","perfecture_jp":"大分県","jp_add_1":"由布市","jp_add_2":"庄内町畑田"},"8795403":{"post_code":"8795403","prefecture":"OITA KEN","city":"YUFU SHI","town":"SHONAICHO HIGASHIOTSURU","perfecture_jp":"大分県","jp_add_1":"由布市","jp_add_2":"庄内町東大津留"},"8795405":{"post_code":"8795405","prefecture":"OITA KEN","city":"YUFU SHI","town":"SHONAICHO HIGASHICHOHO","perfecture_jp":"大分県","jp_add_1":"由布市","jp_add_2":"庄内町東長宝"},"8795437":{"post_code":"8795437","prefecture":"OITA KEN","city":"YUFU SHI","town":"SHONAICHO HIRAISHI","perfecture_jp":"大分県","jp_add_1":"由布市","jp_add_2":"庄内町平石"},"8795425":{"post_code":"8795425","prefecture":"OITA KEN","city":"YUFU SHI","town":"SHONAICHO FUCHI","perfecture_jp":"大分県","jp_add_1":"由布市","jp_add_2":"庄内町渕"},"8795407":{"post_code":"8795407","prefecture":"OITA KEN","city":"YUFU SHI","town":"SHONAICHO MINAMIOTSURU","perfecture_jp":"大分県","jp_add_1":"由布市","jp_add_2":"庄内町南大津留"},"8795516":{"post_code":"8795516","prefecture":"OITA KEN","city":"YUFU SHI","town":"HASAMAMACHI AKANO","perfecture_jp":"大分県","jp_add_1":"由布市","jp_add_2":"挾間町赤野"},"8795503":{"post_code":"8795503","prefecture":"OITA KEN","city":"YUFU SHI","town":"HASAMAMACHI IDAIGAOKA","perfecture_jp":"大分県","jp_add_1":"由布市","jp_add_2":"挾間町医大ケ丘"},"8795517":{"post_code":"8795517","prefecture":"OITA KEN","city":"YUFU SHI","town":"HASAMAMACHI UCHINARI","perfecture_jp":"大分県","jp_add_1":"由布市","jp_add_2":"挾間町内成"},"8795521":{"post_code":"8795521","prefecture":"OITA KEN","city":"YUFU SHI","town":"HASAMAMACHI ONIGASE","perfecture_jp":"大分県","jp_add_1":"由布市","jp_add_2":"挾間町鬼瀬"},"8795501":{"post_code":"8795501","prefecture":"OITA KEN","city":"YUFU SHI","town":"HASAMAMACHI ONIZAKI","perfecture_jp":"大分県","jp_add_1":"由布市","jp_add_2":"挾間町鬼崎"},"8795522":{"post_code":"8795522","prefecture":"OITA KEN","city":"YUFU SHI","town":"HASAMAMACHI ONO","perfecture_jp":"大分県","jp_add_1":"由布市","jp_add_2":"挾間町小野"},"8795518":{"post_code":"8795518","prefecture":"OITA KEN","city":"YUFU SHI","town":"HASAMAMACHI KITAGATA","perfecture_jp":"大分県","jp_add_1":"由布市","jp_add_2":"挾間町北方"},"8795512":{"post_code":"8795512","prefecture":"OITA KEN","city":"YUFU SHI","town":"HASAMAMACHI KUBACHI","perfecture_jp":"大分県","jp_add_1":"由布市","jp_add_2":"挾間町来鉢"},"8795523":{"post_code":"8795523","prefecture":"OITA KEN","city":"YUFU SHI","town":"HASAMAMACHI SHINOHARA","perfecture_jp":"大分県","jp_add_1":"由布市","jp_add_2":"挾間町篠原"},"8795504":{"post_code":"8795504","prefecture":"OITA KEN","city":"YUFU SHI","town":"HASAMAMACHI SHIMOICHI","perfecture_jp":"大分県","jp_add_1":"由布市","jp_add_2":"挾間町下市"},"8795513":{"post_code":"8795513","prefecture":"OITA KEN","city":"YUFU SHI","town":"HASAMAMACHI TAKAZAKI","perfecture_jp":"大分県","jp_add_1":"由布市","jp_add_2":"挾間町高崎"},"8795519":{"post_code":"8795519","prefecture":"OITA KEN","city":"YUFU SHI","town":"HASAMAMACHI TASHIRO","perfecture_jp":"大分県","jp_add_1":"由布市","jp_add_2":"挾間町田代"},"8795531":{"post_code":"8795531","prefecture":"OITA KEN","city":"YUFU SHI","town":"HASAMAMACHI TANI","perfecture_jp":"大分県","jp_add_1":"由布市","jp_add_2":"挾間町谷"},"8795532":{"post_code":"8795532","prefecture":"OITA KEN","city":"YUFU SHI","town":"HASAMAMACHI TSUTSUGUCHI","perfecture_jp":"大分県","jp_add_1":"由布市","jp_add_2":"挾間町筒口"},"8795510":{"post_code":"8795510","prefecture":"OITA KEN","city":"YUFU SHI","town":"HASAMAMACHI TOI","perfecture_jp":"大分県","jp_add_1":"由布市","jp_add_2":"挾間町東院"},"8795524":{"post_code":"8795524","prefecture":"OITA KEN","city":"YUFU SHI","town":"HASAMAMACHI TOKIMATSU","perfecture_jp":"大分県","jp_add_1":"由布市","jp_add_2":"挾間町時松"},"8795514":{"post_code":"8795514","prefecture":"OITA KEN","city":"YUFU SHI","town":"HASAMAMACHI NANAZOSHI","perfecture_jp":"大分県","jp_add_1":"由布市","jp_add_2":"挾間町七蔵司"},"8795506":{"post_code":"8795506","prefecture":"OITA KEN","city":"YUFU SHI","town":"HASAMAMACHI HASAMA","perfecture_jp":"大分県","jp_add_1":"由布市","jp_add_2":"挾間町挾間"},"8795511":{"post_code":"8795511","prefecture":"OITA KEN","city":"YUFU SHI","town":"HASAMAMACHI FURUNO","perfecture_jp":"大分県","jp_add_1":"由布市","jp_add_2":"挾間町古野"},"8795525":{"post_code":"8795525","prefecture":"OITA KEN","city":"YUFU SHI","town":"HASAMAMACHI HONOKI","perfecture_jp":"大分県","jp_add_1":"由布市","jp_add_2":"挾間町朴木"},"8795515":{"post_code":"8795515","prefecture":"OITA KEN","city":"YUFU SHI","town":"HASAMAMACHI MIFUNE","perfecture_jp":"大分県","jp_add_1":"由布市","jp_add_2":"挾間町三船"},"8795502":{"post_code":"8795502","prefecture":"OITA KEN","city":"YUFU SHI","town":"HASAMAMACHI MUKAINOHARU","perfecture_jp":"大分県","jp_add_1":"由布市","jp_add_2":"挾間町向原"},"8795102":{"post_code":"8795102","prefecture":"OITA KEN","city":"YUFU SHI","town":"YUFUINCHO KAWAKAMI","perfecture_jp":"大分県","jp_add_1":"由布市","jp_add_2":"湯布院町川上"},"8795114":{"post_code":"8795114","prefecture":"OITA KEN","city":"YUFU SHI","town":"YUFUINCHO KAWAKITA","perfecture_jp":"大分県","jp_add_1":"由布市","jp_add_2":"湯布院町川北"},"8795113":{"post_code":"8795113","prefecture":"OITA KEN","city":"YUFU SHI","town":"YUFUINCHO KAWANISHI","perfecture_jp":"大分県","jp_add_1":"由布市","jp_add_2":"湯布院町川西"},"8795103":{"post_code":"8795103","prefecture":"OITA KEN","city":"YUFU SHI","town":"YUFUINCHO KAWAMINAMI","perfecture_jp":"大分県","jp_add_1":"由布市","jp_add_2":"湯布院町川南"},"8795111":{"post_code":"8795111","prefecture":"OITA KEN","city":"YUFU SHI","town":"YUFUINCHO SHIMOYUNOHIRA","perfecture_jp":"大分県","jp_add_1":"由布市","jp_add_2":"湯布院町下湯平"},"8795101":{"post_code":"8795101","prefecture":"OITA KEN","city":"YUFU SHI","town":"YUFUINCHO TSUKAWARA","perfecture_jp":"大分県","jp_add_1":"由布市","jp_add_2":"湯布院町塚原"},"8795104":{"post_code":"8795104","prefecture":"OITA KEN","city":"YUFU SHI","town":"YUFUINCHO NAKAGAWA","perfecture_jp":"大分県","jp_add_1":"由布市","jp_add_2":"湯布院町中川"},"8795112":{"post_code":"8795112","prefecture":"OITA KEN","city":"YUFU SHI","town":"YUFUINCHO YUNOHIRA","perfecture_jp":"大分県","jp_add_1":"由布市","jp_add_2":"湯布院町湯平"},"8791500":{"post_code":"8791500","prefecture":"OITA KEN","city":"HAYAMI GUN HIJI MACHI","town":"IKANIKEISAIGANAIBAAI","perfecture_jp":"大分県","jp_add_1":"速見郡日出町","jp_add_2":""},"8791506":{"post_code":"8791506","prefecture":"OITA KEN","city":"HAYAMI GUN HIJI MACHI","town":"HIJIMACHINOTSUGINIBANCHIGAKURUBAAI","perfecture_jp":"大分県","jp_add_1":"速見郡日出町","jp_add_2":""},"8791504":{"post_code":"8791504","prefecture":"OITA KEN","city":"HAYAMI GUN HIJI MACHI","town":"OGA","perfecture_jp":"大分県","jp_add_1":"速見郡日出町","jp_add_2":"大神"},"8791505":{"post_code":"8791505","prefecture":"OITA KEN","city":"HAYAMI GUN HIJI MACHI","town":"KAWASAKI","perfecture_jp":"大分県","jp_add_1":"速見郡日出町","jp_add_2":"川崎"},"8791507":{"post_code":"8791507","prefecture":"OITA KEN","city":"HAYAMI GUN HIJI MACHI","town":"TOYOKA","perfecture_jp":"大分県","jp_add_1":"速見郡日出町","jp_add_2":"豊岡"},"8791508":{"post_code":"8791508","prefecture":"OITA KEN","city":"HAYAMI GUN HIJI MACHI","town":"HIRAMICHI","perfecture_jp":"大分県","jp_add_1":"速見郡日出町","jp_add_2":"平道"},"8791501":{"post_code":"8791501","prefecture":"OITA KEN","city":"HAYAMI GUN HIJI MACHI","town":"HIROSE","perfecture_jp":"大分県","jp_add_1":"速見郡日出町","jp_add_2":"広瀬"},"8791502":{"post_code":"8791502","prefecture":"OITA KEN","city":"HAYAMI GUN HIJI MACHI","town":"FUJIWARA","perfecture_jp":"大分県","jp_add_1":"速見郡日出町","jp_add_2":"藤原"},"8791503":{"post_code":"8791503","prefecture":"OITA KEN","city":"HAYAMI GUN HIJI MACHI","town":"MANAI","perfecture_jp":"大分県","jp_add_1":"速見郡日出町","jp_add_2":"真那井"},"8791509":{"post_code":"8791509","prefecture":"OITA KEN","city":"HAYAMI GUN HIJI MACHI","town":"MINAMIHATA","perfecture_jp":"大分県","jp_add_1":"速見郡日出町","jp_add_2":"南畑"},"8794800":{"post_code":"8794800","prefecture":"OITA KEN","city":"KUSU GUN KOKONOE MACHI","town":"IKANIKEISAIGANAIBAAI","perfecture_jp":"大分県","jp_add_1":"玖珠郡九重町","jp_add_2":""},"8794721":{"post_code":"8794721","prefecture":"OITA KEN","city":"KUSU GUN KOKONOE MACHI","town":"AWANO","perfecture_jp":"大分県","jp_add_1":"玖珠郡九重町","jp_add_2":"粟野"},"8794803":{"post_code":"8794803","prefecture":"OITA KEN","city":"KUSU GUN KOKONOE MACHI","town":"USHIRONOGAMI","perfecture_jp":"大分県","jp_add_1":"玖珠郡九重町","jp_add_2":"後野上"},"8794631":{"post_code":"8794631","prefecture":"OITA KEN","city":"KUSU GUN KOKONOE MACHI","town":"ERA","perfecture_jp":"大分県","jp_add_1":"玖珠郡九重町","jp_add_2":"恵良"},"8794724":{"post_code":"8794724","prefecture":"OITA KEN","city":"KUSU GUN KOKONOE MACHI","town":"SUGAWARA","perfecture_jp":"大分県","jp_add_1":"玖珠郡九重町","jp_add_2":"菅原"},"8794911":{"post_code":"8794911","prefecture":"OITA KEN","city":"KUSU GUN KOKONOE MACHI","town":"TANO","perfecture_jp":"大分県","jp_add_1":"玖珠郡九重町","jp_add_2":"田野"},"8794802":{"post_code":"8794802","prefecture":"OITA KEN","city":"KUSU GUN KOKONOE MACHI","town":"NOGAMI","perfecture_jp":"大分県","jp_add_1":"玖珠郡九重町","jp_add_2":"野上"},"8794722":{"post_code":"8794722","prefecture":"OITA KEN","city":"KUSU GUN KOKONOE MACHI","town":"HIKIJI","perfecture_jp":"大分県","jp_add_1":"玖珠郡九重町","jp_add_2":"引治"},"8794723":{"post_code":"8794723","prefecture":"OITA KEN","city":"KUSU GUN KOKONOE MACHI","town":"MACHIDA","perfecture_jp":"大分県","jp_add_1":"玖珠郡九重町","jp_add_2":"町田"},"8794632":{"post_code":"8794632","prefecture":"OITA KEN","city":"KUSU GUN KOKONOE MACHI","town":"MATSUGI","perfecture_jp":"大分県","jp_add_1":"玖珠郡九重町","jp_add_2":"松木"},"8794801":{"post_code":"8794801","prefecture":"OITA KEN","city":"KUSU GUN KOKONOE MACHI","town":"MIGITA(1-1464-BANCHI)","perfecture_jp":"大分県","jp_add_1":"玖珠郡九重町","jp_add_2":"右田"},"8794601":{"post_code":"8794601","prefecture":"OITA KEN","city":"KUSU GUN KOKONOE MACHI","town":"MIGITA(SONOTA)","perfecture_jp":"大分県","jp_add_1":"玖珠郡九重町","jp_add_2":"右田"},"8794912":{"post_code":"8794912","prefecture":"OITA KEN","city":"KUSU GUN KOKONOE MACHI","town":"YUTSUBO","perfecture_jp":"大分県","jp_add_1":"玖珠郡九重町","jp_add_2":"湯坪"},"8794400":{"post_code":"8794400","prefecture":"OITA KEN","city":"KUSU GUN KUSU MACHI","town":"IKANIKEISAIGANAIBAAI","perfecture_jp":"大分県","jp_add_1":"玖珠郡玖珠町","jp_add_2":""},"8794402":{"post_code":"8794402","prefecture":"OITA KEN","city":"KUSU GUN KUSU MACHI","town":"AYAGAKI","perfecture_jp":"大分県","jp_add_1":"玖珠郡玖珠町","jp_add_2":"綾垣"},"8794405":{"post_code":"8794405","prefecture":"OITA KEN","city":"KUSU GUN KUSU MACHI","town":"IWAMURO","perfecture_jp":"大分県","jp_add_1":"玖珠郡玖珠町","jp_add_2":"岩室"},"8794414":{"post_code":"8794414","prefecture":"OITA KEN","city":"KUSU GUN KUSU MACHI","town":"OKUMA","perfecture_jp":"大分県","jp_add_1":"玖珠郡玖珠町","jp_add_2":"大隈"},"8794521":{"post_code":"8794521","prefecture":"OITA KEN","city":"KUSU GUN KUSU MACHI","town":"OTA","perfecture_jp":"大分県","jp_add_1":"玖珠郡玖珠町","jp_add_2":"太田"},"8794411":{"post_code":"8794411","prefecture":"OITA KEN","city":"KUSU GUN KUSU MACHI","town":"OTA","perfecture_jp":"大分県","jp_add_1":"玖珠郡玖珠町","jp_add_2":"小田"},"8794523":{"post_code":"8794523","prefecture":"OITA KEN","city":"KUSU GUN KUSU MACHI","town":"KOGO","perfecture_jp":"大分県","jp_add_1":"玖珠郡玖珠町","jp_add_2":"古後"},"8794413":{"post_code":"8794413","prefecture":"OITA KEN","city":"KUSU GUN KUSU MACHI","town":"TSUKAWAKI","perfecture_jp":"大分県","jp_add_1":"玖珠郡玖珠町","jp_add_2":"塚脇"},"8794331":{"post_code":"8794331","prefecture":"OITA KEN","city":"KUSU GUN KUSU MACHI","town":"TOBATA","perfecture_jp":"大分県","jp_add_1":"玖珠郡玖珠町","jp_add_2":"戸畑"},"8794406":{"post_code":"8794406","prefecture":"OITA KEN","city":"KUSU GUN KUSU MACHI","town":"HIJIU","perfecture_jp":"大分県","jp_add_1":"玖珠郡玖珠町","jp_add_2":"日出生"},"8794403":{"post_code":"8794403","prefecture":"OITA KEN","city":"KUSU GUN KUSU MACHI","town":"HOASHI","perfecture_jp":"大分県","jp_add_1":"玖珠郡玖珠町","jp_add_2":"帆足"},"8794404":{"post_code":"8794404","prefecture":"OITA KEN","city":"KUSU GUN KUSU MACHI","town":"MORI","perfecture_jp":"大分県","jp_add_1":"玖珠郡玖珠町","jp_add_2":"森"},"8794332":{"post_code":"8794332","prefecture":"OITA KEN","city":"KUSU GUN KUSU MACHI","town":"ZUMARI.HANAGA.BOKUJO)","perfecture_jp":"大分県","jp_add_1":"玖珠郡玖珠町","jp_add_2":"山浦"},"8794732":{"post_code":"8794732","prefecture":"OITA KEN","city":"KUSU GUN KUSU MACHI","town":"YAMAURA(DAI1-DAIGENYA.DAI2-DAIGENYA","perfecture_jp":"大分県","jp_add_1":"玖珠郡玖珠町","jp_add_2":"山浦"},"8794522":{"post_code":"8794522","prefecture":"OITA KEN","city":"KUSU GUN KUSU MACHI","town":"YAMASHITA","perfecture_jp":"大分県","jp_add_1":"玖珠郡玖珠町","jp_add_2":"山下"},"8794412":{"post_code":"8794412","prefecture":"OITA KEN","city":"KUSU GUN KUSU MACHI","town":"YAMADA","perfecture_jp":"大分県","jp_add_1":"玖珠郡玖珠町","jp_add_2":"山田"},"8794401":{"post_code":"8794401","prefecture":"OITA KEN","city":"KUSU GUN KUSU MACHI","town":"YOKKAICHI(1-899-BANCHI)","perfecture_jp":"大分県","jp_add_1":"玖珠郡玖珠町","jp_add_2":"四日市"},"8794301":{"post_code":"8794301","prefecture":"OITA KEN","city":"KUSU GUN KUSU MACHI","town":"YOKKAICHI(SONOTA)","perfecture_jp":"大分県","jp_add_1":"玖珠郡玖珠町","jp_add_2":"四日市"}}