{"8820000":{"post_code":"8820000","prefecture":"MIYAZAKI KEN","city":"NOBEOKA SHI","town":"IKANIKEISAIGANAIBAAI","perfecture_jp":"宮崎県","jp_add_1":"延岡市","jp_add_2":""},"8820845":{"post_code":"8820845","prefecture":"MIYAZAKI KEN","city":"NOBEOKA SHI","town":"AGATAMACHI","perfecture_jp":"宮崎県","jp_add_1":"延岡市","jp_add_2":"安賀多町"},"8820847":{"post_code":"8820847","prefecture":"MIYAZAKI KEN","city":"NOBEOKA SHI","town":"ASAHIMACHI","perfecture_jp":"宮崎県","jp_add_1":"延岡市","jp_add_2":"旭町"},"8820872":{"post_code":"8820872","prefecture":"MIYAZAKI KEN","city":"NOBEOKA SHI","town":"ATAGOMACHI","perfecture_jp":"宮崎県","jp_add_1":"延岡市","jp_add_2":"愛宕町"},"8820871":{"post_code":"8820871","prefecture":"MIYAZAKI KEN","city":"NOBEOKA SHI","town":"ATAGOYAMA","perfecture_jp":"宮崎県","jp_add_1":"延岡市","jp_add_2":"愛宕山"},"8820071":{"post_code":"8820071","prefecture":"MIYAZAKI KEN","city":"NOBEOKA SHI","town":"AMORIMACHI","perfecture_jp":"宮崎県","jp_add_1":"延岡市","jp_add_2":"天下町"},"8820025":{"post_code":"8820025","prefecture":"MIYAZAKI KEN","city":"NOBEOKA SHI","town":"AWANOMYOMACHI","perfecture_jp":"宮崎県","jp_add_1":"延岡市","jp_add_2":"粟野名町"},"8820831":{"post_code":"8820831","prefecture":"MIYAZAKI KEN","city":"NOBEOKA SHI","town":"IDEGUCHIMACHI","perfecture_jp":"宮崎県","jp_add_1":"延岡市","jp_add_2":"出口町"},"8820856":{"post_code":"8820856","prefecture":"MIYAZAKI KEN","city":"NOBEOKA SHI","town":"IDEKITA","perfecture_jp":"宮崎県","jp_add_1":"延岡市","jp_add_2":"出北"},"8820003":{"post_code":"8820003","prefecture":"MIYAZAKI KEN","city":"NOBEOKA SHI","town":"INABAZAKIMACHI","perfecture_jp":"宮崎県","jp_add_1":"延岡市","jp_add_2":"稲葉崎町"},"8820095":{"post_code":"8820095","prefecture":"MIYAZAKI KEN","city":"NOBEOKA SHI","town":"URASHIROMACHI","perfecture_jp":"宮崎県","jp_add_1":"延岡市","jp_add_2":"浦城町"},"8820084":{"post_code":"8820084","prefecture":"MIYAZAKI KEN","city":"NOBEOKA SHI","town":"UWADAMACHI","perfecture_jp":"宮崎県","jp_add_1":"延岡市","jp_add_2":"宇和田町"},"8820046":{"post_code":"8820046","prefecture":"MIYAZAKI KEN","city":"NOBEOKA SHI","town":"EBISUMACHI","perfecture_jp":"宮崎県","jp_add_1":"延岡市","jp_add_2":"恵比須町"},"8820013":{"post_code":"8820013","prefecture":"MIYAZAKI KEN","city":"NOBEOKA SHI","town":"OIUCHIMACHI","perfecture_jp":"宮崎県","jp_add_1":"延岡市","jp_add_2":"追内町"},"8820001":{"post_code":"8820001","prefecture":"MIYAZAKI KEN","city":"NOBEOKA SHI","town":"OKAIMACHI","perfecture_jp":"宮崎県","jp_add_1":"延岡市","jp_add_2":"大峡町"},"8820027":{"post_code":"8820027","prefecture":"MIYAZAKI KEN","city":"NOBEOKA SHI","town":"OKADOMACHI","perfecture_jp":"宮崎県","jp_add_1":"延岡市","jp_add_2":"大門町"},"8820841":{"post_code":"8820841","prefecture":"MIYAZAKI KEN","city":"NOBEOKA SHI","town":"OSEMACHI","perfecture_jp":"宮崎県","jp_add_1":"延岡市","jp_add_2":"大瀬町"},"8820024":{"post_code":"8820024","prefecture":"MIYAZAKI KEN","city":"NOBEOKA SHI","town":"ODAKEMACHI","perfecture_jp":"宮崎県","jp_add_1":"延岡市","jp_add_2":"大武町"},"8820803":{"post_code":"8820803","prefecture":"MIYAZAKI KEN","city":"NOBEOKA SHI","town":"ONUKIMACHI","perfecture_jp":"宮崎県","jp_add_1":"延岡市","jp_add_2":"大貫町"},"8820086":{"post_code":"8820086","prefecture":"MIYAZAKI KEN","city":"NOBEOKA SHI","town":"ONOMACHI","perfecture_jp":"宮崎県","jp_add_1":"延岡市","jp_add_2":"大野町"},"8820056":{"post_code":"8820056","prefecture":"MIYAZAKI KEN","city":"NOBEOKA SHI","town":"OKATOMIMACHI","perfecture_jp":"宮崎県","jp_add_1":"延岡市","jp_add_2":"岡富町"},"8820057":{"post_code":"8820057","prefecture":"MIYAZAKI KEN","city":"NOBEOKA SHI","town":"OKATOMIYAMA","perfecture_jp":"宮崎県","jp_add_1":"延岡市","jp_add_2":"岡富山"},"8820075":{"post_code":"8820075","prefecture":"MIYAZAKI KEN","city":"NOBEOKA SHI","town":"OKAMOTOMACHI","perfecture_jp":"宮崎県","jp_add_1":"延岡市","jp_add_2":"岡元町"},"8820876":{"post_code":"8820876","prefecture":"MIYAZAKI KEN","city":"NOBEOKA SHI","town":"OKITAMACHI","perfecture_jp":"宮崎県","jp_add_1":"延岡市","jp_add_2":"沖田町"},"8820006":{"post_code":"8820006","prefecture":"MIYAZAKI KEN","city":"NOBEOKA SHI","town":"OZAKIMACHI","perfecture_jp":"宮崎県","jp_add_1":"延岡市","jp_add_2":"尾崎町"},"8820855":{"post_code":"8820855","prefecture":"MIYAZAKI KEN","city":"NOBEOKA SHI","town":"OROSHIHOMMACHI","perfecture_jp":"宮崎県","jp_add_1":"延岡市","jp_add_2":"卸本町"},"8820073":{"post_code":"8820073","prefecture":"MIYAZAKI KEN","city":"NOBEOKA SHI","town":"KAINOHATAMACHI","perfecture_jp":"宮崎県","jp_add_1":"延岡市","jp_add_2":"貝の畑町"},"8820085":{"post_code":"8820085","prefecture":"MIYAZAKI KEN","city":"NOBEOKA SHI","town":"KAGASEMACHI","perfecture_jp":"宮崎県","jp_add_1":"延岡市","jp_add_2":"鹿狩瀬町"},"8820004":{"post_code":"8820004","prefecture":"MIYAZAKI KEN","city":"NOBEOKA SHI","town":"KASHIYAMAMACHI","perfecture_jp":"宮崎県","jp_add_1":"延岡市","jp_add_2":"樫山町"},"8820012":{"post_code":"8820012","prefecture":"MIYAZAKI KEN","city":"NOBEOKA SHI","town":"KASHOJI","perfecture_jp":"宮崎県","jp_add_1":"延岡市","jp_add_2":"鹿小路"},"8820844":{"post_code":"8820844","prefecture":"MIYAZAKI KEN","city":"NOBEOKA SHI","town":"KASUGAMACHI","perfecture_jp":"宮崎県","jp_add_1":"延岡市","jp_add_2":"春日町"},"8820877":{"post_code":"8820877","prefecture":"MIYAZAKI KEN","city":"NOBEOKA SHI","town":"KATATAMACHI","perfecture_jp":"宮崎県","jp_add_1":"延岡市","jp_add_2":"片田町"},"8820867":{"post_code":"8820867","prefecture":"MIYAZAKI KEN","city":"NOBEOKA SHI","town":"KAMAEGUCHIMACHI","perfecture_jp":"宮崎県","jp_add_1":"延岡市","jp_add_2":"構口町"},"8820833":{"post_code":"8820833","prefecture":"MIYAZAKI KEN","city":"NOBEOKA SHI","town":"KAMIOSEMACHI","perfecture_jp":"宮崎県","jp_add_1":"延岡市","jp_add_2":"上大瀬町"},"8820885":{"post_code":"8820885","prefecture":"MIYAZAKI KEN","city":"NOBEOKA SHI","town":"KAMIMIWAMACHI","perfecture_jp":"宮崎県","jp_add_1":"延岡市","jp_add_2":"上三輪町"},"8820017":{"post_code":"8820017","prefecture":"MIYAZAKI KEN","city":"NOBEOKA SHI","town":"KAWASHIMAMACHI","perfecture_jp":"宮崎県","jp_add_1":"延岡市","jp_add_2":"川島町"},"8820033":{"post_code":"8820033","prefecture":"MIYAZAKI KEN","city":"NOBEOKA SHI","town":"KAWARASAKIMACHI","perfecture_jp":"宮崎県","jp_add_1":"延岡市","jp_add_2":"川原崎町"},"8820043":{"post_code":"8820043","prefecture":"MIYAZAKI KEN","city":"NOBEOKA SHI","town":"GIOMMACHI","perfecture_jp":"宮崎県","jp_add_1":"延岡市","jp_add_2":"祗園町"},"8820121":{"post_code":"8820121","prefecture":"MIYAZAKI KEN","city":"NOBEOKA SHI","town":"KITAKATAMACHI ITAKAMI","perfecture_jp":"宮崎県","jp_add_1":"延岡市","jp_add_2":"北方町板上"},"8820122":{"post_code":"8820122","prefecture":"MIYAZAKI KEN","city":"NOBEOKA SHI","town":"KITAKATAMACHI ITASHIMO","perfecture_jp":"宮崎県","jp_add_1":"延岡市","jp_add_2":"北方町板下"},"8820123":{"post_code":"8820123","prefecture":"MIYAZAKI KEN","city":"NOBEOKA SHI","town":"KITAKATAMACHI USOGOE","perfecture_jp":"宮崎県","jp_add_1":"延岡市","jp_add_2":"北方町うそ越"},"8820106":{"post_code":"8820106","prefecture":"MIYAZAKI KEN","city":"NOBEOKA SHI","town":"KITAKATAMACHI KASASHITA","perfecture_jp":"宮崎県","jp_add_1":"延岡市","jp_add_2":"北方町笠下"},"8820126":{"post_code":"8820126","prefecture":"MIYAZAKI KEN","city":"NOBEOKA SHI","town":"KITAKATAMACHI KAMIZAKI","perfecture_jp":"宮崎県","jp_add_1":"延岡市","jp_add_2":"北方町上崎"},"8820231":{"post_code":"8820231","prefecture":"MIYAZAKI KEN","city":"NOBEOKA SHI","town":"KITAKATAMACHI KAMISHISHIGAWA","perfecture_jp":"宮崎県","jp_add_1":"延岡市","jp_add_2":"北方町上鹿川"},"8820125":{"post_code":"8820125","prefecture":"MIYAZAKI KEN","city":"NOBEOKA SHI","town":"KITAKATAMACHI KAWAZURU","perfecture_jp":"宮崎県","jp_add_1":"延岡市","jp_add_2":"北方町川水流"},"8820129":{"post_code":"8820129","prefecture":"MIYAZAKI KEN","city":"NOBEOKA SHI","town":"KITAKATAMACHI KITAKUBOYAMA","perfecture_jp":"宮崎県","jp_add_1":"延岡市","jp_add_2":"北方町北久保山"},"8820127":{"post_code":"8820127","prefecture":"MIYAZAKI KEN","city":"NOBEOKA SHI","town":"KITAKATAMACHI KURATA","perfecture_jp":"宮崎県","jp_add_1":"延岡市","jp_add_2":"北方町蔵田"},"8820241":{"post_code":"8820241","prefecture":"MIYAZAKI KEN","city":"NOBEOKA SHI","town":"KITAKATAMACHI SANGAMURA","perfecture_jp":"宮崎県","jp_add_1":"延岡市","jp_add_2":"北方町三ケ村"},"8820237":{"post_code":"8820237","prefecture":"MIYAZAKI KEN","city":"NOBEOKA SHI","town":"KITAKATAMACHI SHIIBATA","perfecture_jp":"宮崎県","jp_add_1":"延岡市","jp_add_2":"北方町椎畑"},"8820232":{"post_code":"8820232","prefecture":"MIYAZAKI KEN","city":"NOBEOKA SHI","town":"KITAKATAMACHI SHIMOSHISHIGAWA","perfecture_jp":"宮崎県","jp_add_1":"延岡市","jp_add_2":"北方町下鹿川"},"8820233":{"post_code":"8820233","prefecture":"MIYAZAKI KEN","city":"NOBEOKA SHI","town":"KITAKATAMACHI SUGEBARU","perfecture_jp":"宮崎県","jp_add_1":"延岡市","jp_add_2":"北方町菅原"},"8820124":{"post_code":"8820124","prefecture":"MIYAZAKI KEN","city":"NOBEOKA SHI","town":"KITAKATAMACHI SOKI","perfecture_jp":"宮崎県","jp_add_1":"延岡市","jp_add_2":"北方町曽木"},"8820238":{"post_code":"8820238","prefecture":"MIYAZAKI KEN","city":"NOBEOKA SHI","town":"KITAKATAMACHI TAKISHITA","perfecture_jp":"宮崎県","jp_add_1":"延岡市","jp_add_2":"北方町滝下"},"8820104":{"post_code":"8820104","prefecture":"MIYAZAKI KEN","city":"NOBEOKA SHI","town":"KITAKATAMACHI TSUNODA","perfecture_jp":"宮崎県","jp_add_1":"延岡市","jp_add_2":"北方町角田"},"8820245":{"post_code":"8820245","prefecture":"MIYAZAKI KEN","city":"NOBEOKA SHI","town":"KITAKATAMACHI HAYAKAMI","perfecture_jp":"宮崎県","jp_add_1":"延岡市","jp_add_2":"北方町早上"},"8820244":{"post_code":"8820244","prefecture":"MIYAZAKI KEN","city":"NOBEOKA SHI","town":"KITAKATAMACHI HAYANAKA","perfecture_jp":"宮崎県","jp_add_1":"延岡市","jp_add_2":"北方町早中"},"8820243":{"post_code":"8820243","prefecture":"MIYAZAKI KEN","city":"NOBEOKA SHI","town":"KITAKATAMACHI HAYAHITO","perfecture_jp":"宮崎県","jp_add_1":"延岡市","jp_add_2":"北方町早日渡"},"8820236":{"post_code":"8820236","prefecture":"MIYAZAKI KEN","city":"NOBEOKA SHI","town":"KITAKATAMACHI HIBIRA","perfecture_jp":"宮崎県","jp_add_1":"延岡市","jp_add_2":"北方町日平"},"8820107":{"post_code":"8820107","prefecture":"MIYAZAKI KEN","city":"NOBEOKA SHI","town":"KITAKATAMACHI FUJINOKI","perfecture_jp":"宮崎県","jp_add_1":"延岡市","jp_add_2":"北方町藤の木"},"8820101":{"post_code":"8820101","prefecture":"MIYAZAKI KEN","city":"NOBEOKA SHI","town":"KITAKATAMACHI FUTAMATA","perfecture_jp":"宮崎県","jp_add_1":"延岡市","jp_add_2":"北方町二股"},"8820235":{"post_code":"8820235","prefecture":"MIYAZAKI KEN","city":"NOBEOKA SHI","town":"KITAKATAMACHI MAKIMINE","perfecture_jp":"宮崎県","jp_add_1":"延岡市","jp_add_2":"北方町槇峰"},"8820128":{"post_code":"8820128","prefecture":"MIYAZAKI KEN","city":"NOBEOKA SHI","town":"KITAKATAMACHI MINAMIKUBOYAMA","perfecture_jp":"宮崎県","jp_add_1":"延岡市","jp_add_2":"北方町南久保山"},"8820234":{"post_code":"8820234","prefecture":"MIYAZAKI KEN","city":"NOBEOKA SHI","town":"KITAKATAMACHI MIMICHI","perfecture_jp":"宮崎県","jp_add_1":"延岡市","jp_add_2":"北方町美々地"},"8820242":{"post_code":"8820242","prefecture":"MIYAZAKI KEN","city":"NOBEOKA SHI","town":"KITAKATAMACHI YAKAI","perfecture_jp":"宮崎県","jp_add_1":"延岡市","jp_add_2":"北方町八峡"},"8820097":{"post_code":"8820097","prefecture":"MIYAZAKI KEN","city":"NOBEOKA SHI","town":"KITAGAWAMACHI KAWACHIMYO(HORIGAWA)","perfecture_jp":"宮崎県","jp_add_1":"延岡市","jp_add_2":"北川町川内名"},"8820041":{"post_code":"8820041","prefecture":"MIYAZAKI KEN","city":"NOBEOKA SHI","town":"KITAKOJI","perfecture_jp":"宮崎県","jp_add_1":"延岡市","jp_add_2":"北小路"},"8820834":{"post_code":"8820834","prefecture":"MIYAZAKI KEN","city":"NOBEOKA SHI","town":"KITASHINKOJI","perfecture_jp":"宮崎県","jp_add_1":"延岡市","jp_add_2":"北新小路"},"8820814":{"post_code":"8820814","prefecture":"MIYAZAKI KEN","city":"NOBEOKA SHI","town":"KITAMACHI","perfecture_jp":"宮崎県","jp_add_1":"延岡市","jp_add_2":"北町"},"8820873":{"post_code":"8820873","prefecture":"MIYAZAKI KEN","city":"NOBEOKA SHI","town":"KYOEIMACHI","perfecture_jp":"宮崎県","jp_add_1":"延岡市","jp_add_2":"共栄町"},"8820091":{"post_code":"8820091","prefecture":"MIYAZAKI KEN","city":"NOBEOKA SHI","town":"KUWAHIRAMACHI","perfecture_jp":"宮崎県","jp_add_1":"延岡市","jp_add_2":"桑平町"},"8820093":{"post_code":"8820093","prefecture":"MIYAZAKI KEN","city":"NOBEOKA SHI","town":"KOBEMACHI","perfecture_jp":"宮崎県","jp_add_1":"延岡市","jp_add_2":"神戸町"},"8820076":{"post_code":"8820076","prefecture":"MIYAZAKI KEN","city":"NOBEOKA SHI","town":"KOGAWAMACHI","perfecture_jp":"宮崎県","jp_add_1":"延岡市","jp_add_2":"小川町"},"8820882":{"post_code":"8820882","prefecture":"MIYAZAKI KEN","city":"NOBEOKA SHI","town":"KONOMACHI","perfecture_jp":"宮崎県","jp_add_1":"延岡市","jp_add_2":"小野町"},"8820061":{"post_code":"8820061","prefecture":"MIYAZAKI KEN","city":"NOBEOKA SHI","town":"KOMINEMACHI","perfecture_jp":"宮崎県","jp_add_1":"延岡市","jp_add_2":"小峰町"},"8820047":{"post_code":"8820047","prefecture":"MIYAZAKI KEN","city":"NOBEOKA SHI","town":"KONYAMACHI","perfecture_jp":"宮崎県","jp_add_1":"延岡市","jp_add_2":"紺屋町"},"8820832":{"post_code":"8820832","prefecture":"MIYAZAKI KEN","city":"NOBEOKA SHI","town":"SAIKOJI","perfecture_jp":"宮崎県","jp_add_1":"延岡市","jp_add_2":"西小路"},"8820053":{"post_code":"8820053","prefecture":"MIYAZAKI KEN","city":"NOBEOKA SHI","town":"SAIWAIMACHI","perfecture_jp":"宮崎県","jp_add_1":"延岡市","jp_add_2":"幸町"},"8820054":{"post_code":"8820054","prefecture":"MIYAZAKI KEN","city":"NOBEOKA SHI","town":"SAKAEMACHI","perfecture_jp":"宮崎県","jp_add_1":"延岡市","jp_add_2":"栄町"},"8820007":{"post_code":"8820007","prefecture":"MIYAZAKI KEN","city":"NOBEOKA SHI","town":"SAKURAGAOKA","perfecture_jp":"宮崎県","jp_add_1":"延岡市","jp_add_2":"桜ケ丘"},"8820816":{"post_code":"8820816","prefecture":"MIYAZAKI KEN","city":"NOBEOKA SHI","town":"SAKURAKOJI","perfecture_jp":"宮崎県","jp_add_1":"延岡市","jp_add_2":"桜小路"},"8820036":{"post_code":"8820036","prefecture":"MIYAZAKI KEN","city":"NOBEOKA SHI","town":"SAKURAZONOMACHI","perfecture_jp":"宮崎県","jp_add_1":"延岡市","jp_add_2":"桜園町"},"8820002":{"post_code":"8820002","prefecture":"MIYAZAKI KEN","city":"NOBEOKA SHI","town":"SASHIKINOMACHI","perfecture_jp":"宮崎県","jp_add_1":"延岡市","jp_add_2":"差木野町"},"8820081":{"post_code":"8820081","prefecture":"MIYAZAKI KEN","city":"NOBEOKA SHI","town":"SANOMACHI","perfecture_jp":"宮崎県","jp_add_1":"延岡市","jp_add_2":"佐野町"},"8820864":{"post_code":"8820864","prefecture":"MIYAZAKI KEN","city":"NOBEOKA SHI","town":"SHIOHAMAMACHI","perfecture_jp":"宮崎県","jp_add_1":"延岡市","jp_add_2":"塩浜町"},"8820096":{"post_code":"8820096","prefecture":"MIYAZAKI KEN","city":"NOBEOKA SHI","town":"SHIMAURAMACHI","perfecture_jp":"宮崎県","jp_add_1":"延岡市","jp_add_2":"島浦町"},"8820883":{"post_code":"8820883","prefecture":"MIYAZAKI KEN","city":"NOBEOKA SHI","town":"SHIMOMIWAMACHI","perfecture_jp":"宮崎県","jp_add_1":"延岡市","jp_add_2":"下三輪町"},"8820034":{"post_code":"8820034","prefecture":"MIYAZAKI KEN","city":"NOBEOKA SHI","town":"SHOWAMACHI","perfecture_jp":"宮崎県","jp_add_1":"延岡市","jp_add_2":"昭和町"},"8820014":{"post_code":"8820014","prefecture":"MIYAZAKI KEN","city":"NOBEOKA SHI","town":"SHIROISHIMACHI","perfecture_jp":"宮崎県","jp_add_1":"延岡市","jp_add_2":"白石町"},"8820835":{"post_code":"8820835","prefecture":"MIYAZAKI KEN","city":"NOBEOKA SHI","town":"SHINKOJI","perfecture_jp":"宮崎県","jp_add_1":"延岡市","jp_add_2":"新小路"},"8820827":{"post_code":"8820827","prefecture":"MIYAZAKI KEN","city":"NOBEOKA SHI","town":"SHIMMACHI","perfecture_jp":"宮崎県","jp_add_1":"延岡市","jp_add_2":"新町"},"8820011":{"post_code":"8820011","prefecture":"MIYAZAKI KEN","city":"NOBEOKA SHI","town":"SUSAMACHI","perfecture_jp":"宮崎県","jp_add_1":"延岡市","jp_add_2":"須佐町"},"8820825":{"post_code":"8820825","prefecture":"MIYAZAKI KEN","city":"NOBEOKA SHI","town":"SUZAKIMACHI","perfecture_jp":"宮崎県","jp_add_1":"延岡市","jp_add_2":"須崎町"},"8820045":{"post_code":"8820045","prefecture":"MIYAZAKI KEN","city":"NOBEOKA SHI","town":"SENOKUCHIMACHI","perfecture_jp":"宮崎県","jp_add_1":"延岡市","jp_add_2":"瀬之口町"},"8820857":{"post_code":"8820857","prefecture":"MIYAZAKI KEN","city":"NOBEOKA SHI","town":"SORYOMACHI","perfecture_jp":"宮崎県","jp_add_1":"延岡市","jp_add_2":"惣領町"},"8820042":{"post_code":"8820042","prefecture":"MIYAZAKI KEN","city":"NOBEOKA SHI","town":"TAKACHIHODORI","perfecture_jp":"宮崎県","jp_add_1":"延岡市","jp_add_2":"高千穂通"},"8820064":{"post_code":"8820064","prefecture":"MIYAZAKI KEN","city":"NOBEOKA SHI","town":"TAKANOMACHI","perfecture_jp":"宮崎県","jp_add_1":"延岡市","jp_add_2":"高野町"},"8820874":{"post_code":"8820874","prefecture":"MIYAZAKI KEN","city":"NOBEOKA SHI","town":"DATEMACHI","perfecture_jp":"宮崎県","jp_add_1":"延岡市","jp_add_2":"伊達町"},"8820824":{"post_code":"8820824","prefecture":"MIYAZAKI KEN","city":"NOBEOKA SHI","town":"CHUODORI","perfecture_jp":"宮崎県","jp_add_1":"延岡市","jp_add_2":"中央通"},"8820836":{"post_code":"8820836","prefecture":"MIYAZAKI KEN","city":"NOBEOKA SHI","town":"TSUNETOMIMACHI","perfecture_jp":"宮崎県","jp_add_1":"延岡市","jp_add_2":"恒富町"},"8820865":{"post_code":"8820865","prefecture":"MIYAZAKI KEN","city":"NOBEOKA SHI","town":"TSURUGAOKA","perfecture_jp":"宮崎県","jp_add_1":"延岡市","jp_add_2":"鶴ケ丘"},"8820811":{"post_code":"8820811","prefecture":"MIYAZAKI KEN","city":"NOBEOKA SHI","town":"TENJINKOJI","perfecture_jp":"宮崎県","jp_add_1":"延岡市","jp_add_2":"天神小路"},"8820016":{"post_code":"8820016","prefecture":"MIYAZAKI KEN","city":"NOBEOKA SHI","town":"TOMIMACHI","perfecture_jp":"宮崎県","jp_add_1":"延岡市","jp_add_2":"東海町"},"8820051":{"post_code":"8820051","prefecture":"MIYAZAKI KEN","city":"NOBEOKA SHI","town":"TOMIYAMAMACHI","perfecture_jp":"宮崎県","jp_add_1":"延岡市","jp_add_2":"富美山町"},"8820031":{"post_code":"8820031","prefecture":"MIYAZAKI KEN","city":"NOBEOKA SHI","town":"NAKAGAWARAMACHI","perfecture_jp":"宮崎県","jp_add_1":"延岡市","jp_add_2":"中川原町"},"8820846":{"post_code":"8820846","prefecture":"MIYAZAKI KEN","city":"NOBEOKA SHI","town":"NAKASHIMAMACHI","perfecture_jp":"宮崎県","jp_add_1":"延岡市","jp_add_2":"中島町"},"8820032":{"post_code":"8820032","prefecture":"MIYAZAKI KEN","city":"NOBEOKA SHI","town":"NAKANOSECHO","perfecture_jp":"宮崎県","jp_add_1":"延岡市","jp_add_2":"中の瀬町"},"8820823":{"post_code":"8820823","prefecture":"MIYAZAKI KEN","city":"NOBEOKA SHI","town":"NAKAMACHI","perfecture_jp":"宮崎県","jp_add_1":"延岡市","jp_add_2":"中町"},"8820884":{"post_code":"8820884","prefecture":"MIYAZAKI KEN","city":"NOBEOKA SHI","town":"NAKAMIWAMACHI","perfecture_jp":"宮崎県","jp_add_1":"延岡市","jp_add_2":"中三輪町"},"8820843":{"post_code":"8820843","prefecture":"MIYAZAKI KEN","city":"NOBEOKA SHI","town":"NAGAIKEMACHI","perfecture_jp":"宮崎県","jp_add_1":"延岡市","jp_add_2":"永池町"},"8820854":{"post_code":"8820854","prefecture":"MIYAZAKI KEN","city":"NOBEOKA SHI","town":"NAGAHAMAMACHI","perfecture_jp":"宮崎県","jp_add_1":"延岡市","jp_add_2":"長浜町"},"8820005":{"post_code":"8820005","prefecture":"MIYAZAKI KEN","city":"NOBEOKA SHI","town":"NATSUTAMACHI","perfecture_jp":"宮崎県","jp_add_1":"延岡市","jp_add_2":"夏田町"},"8820804":{"post_code":"8820804","prefecture":"MIYAZAKI KEN","city":"NOBEOKA SHI","town":"NISHISHINAMACHI","perfecture_jp":"宮崎県","jp_add_1":"延岡市","jp_add_2":"西階町"},"8820802":{"post_code":"8820802","prefecture":"MIYAZAKI KEN","city":"NOBEOKA SHI","town":"NOJIMACHI","perfecture_jp":"宮崎県","jp_add_1":"延岡市","jp_add_2":"野地町"},"8820805":{"post_code":"8820805","prefecture":"MIYAZAKI KEN","city":"NOBEOKA SHI","town":"NOTA","perfecture_jp":"宮崎県","jp_add_1":"延岡市","jp_add_2":"野田"},"8820801":{"post_code":"8820801","prefecture":"MIYAZAKI KEN","city":"NOBEOKA SHI","town":"NOTAMACHI","perfecture_jp":"宮崎県","jp_add_1":"延岡市","jp_add_2":"野田町"},"8820052":{"post_code":"8820052","prefecture":"MIYAZAKI KEN","city":"NOBEOKA SHI","town":"HAGIMACHI","perfecture_jp":"宮崎県","jp_add_1":"延岡市","jp_add_2":"萩町"},"8820044":{"post_code":"8820044","prefecture":"MIYAZAKI KEN","city":"NOBEOKA SHI","town":"BAKUROMACHI","perfecture_jp":"宮崎県","jp_add_1":"延岡市","jp_add_2":"博労町"},"8820851":{"post_code":"8820851","prefecture":"MIYAZAKI KEN","city":"NOBEOKA SHI","town":"HAMAGO","perfecture_jp":"宮崎県","jp_add_1":"延岡市","jp_add_2":"浜砂"},"8820862":{"post_code":"8820862","prefecture":"MIYAZAKI KEN","city":"NOBEOKA SHI","town":"HAMAMACHI","perfecture_jp":"宮崎県","jp_add_1":"延岡市","jp_add_2":"浜町"},"8820852":{"post_code":"8820852","prefecture":"MIYAZAKI KEN","city":"NOBEOKA SHI","town":"HIGASHIHAMAGOMACHI","perfecture_jp":"宮崎県","jp_add_1":"延岡市","jp_add_2":"東浜砂町"},"8820813":{"post_code":"8820813","prefecture":"MIYAZAKI KEN","city":"NOBEOKA SHI","town":"HIGASHIHONKOJI","perfecture_jp":"宮崎県","jp_add_1":"延岡市","jp_add_2":"東本小路"},"8820035":{"post_code":"8820035","prefecture":"MIYAZAKI KEN","city":"NOBEOKA SHI","town":"HINODEMACHI","perfecture_jp":"宮崎県","jp_add_1":"延岡市","jp_add_2":"日の出町"},"8820861":{"post_code":"8820861","prefecture":"MIYAZAKI KEN","city":"NOBEOKA SHI","town":"BYUMACHI","perfecture_jp":"宮崎県","jp_add_1":"延岡市","jp_add_2":"別府町"},"8820065":{"post_code":"8820065","prefecture":"MIYAZAKI KEN","city":"NOBEOKA SHI","town":"HIRATAMACHI","perfecture_jp":"宮崎県","jp_add_1":"延岡市","jp_add_2":"平田町"},"8820866":{"post_code":"8820866","prefecture":"MIYAZAKI KEN","city":"NOBEOKA SHI","town":"HIRABARUMACHI","perfecture_jp":"宮崎県","jp_add_1":"延岡市","jp_add_2":"平原町"},"8820022":{"post_code":"8820022","prefecture":"MIYAZAKI KEN","city":"NOBEOKA SHI","town":"FUTATSUSHIMAMACHI","perfecture_jp":"宮崎県","jp_add_1":"延岡市","jp_add_2":"二ツ島町"},"8820826":{"post_code":"8820826","prefecture":"MIYAZAKI KEN","city":"NOBEOKA SHI","town":"FUNAGURAMACHI","perfecture_jp":"宮崎県","jp_add_1":"延岡市","jp_add_2":"船倉町"},"8820063":{"post_code":"8820063","prefecture":"MIYAZAKI KEN","city":"NOBEOKA SHI","town":"FURUKAWAMACHI","perfecture_jp":"宮崎県","jp_add_1":"延岡市","jp_add_2":"古川町"},"8820837":{"post_code":"8820837","prefecture":"MIYAZAKI KEN","city":"NOBEOKA SHI","town":"FURUSHIROMACHI","perfecture_jp":"宮崎県","jp_add_1":"延岡市","jp_add_2":"古城町"},"8820853":{"post_code":"8820853","prefecture":"MIYAZAKI KEN","city":"NOBEOKA SHI","town":"HOZAIMACHI","perfecture_jp":"宮崎県","jp_add_1":"延岡市","jp_add_2":"方財町"},"8820082":{"post_code":"8820082","prefecture":"MIYAZAKI KEN","city":"NOBEOKA SHI","town":"HORIMACHI","perfecture_jp":"宮崎県","jp_add_1":"延岡市","jp_add_2":"祝子町"},"8820074":{"post_code":"8820074","prefecture":"MIYAZAKI KEN","city":"NOBEOKA SHI","town":"HOSOMIMACHI","perfecture_jp":"宮崎県","jp_add_1":"延岡市","jp_add_2":"細見町"},"8820812":{"post_code":"8820812","prefecture":"MIYAZAKI KEN","city":"NOBEOKA SHI","town":"HONKOJI","perfecture_jp":"宮崎県","jp_add_1":"延岡市","jp_add_2":"本小路"},"8820821":{"post_code":"8820821","prefecture":"MIYAZAKI KEN","city":"NOBEOKA SHI","town":"HOMMACHI","perfecture_jp":"宮崎県","jp_add_1":"延岡市","jp_add_2":"本町"},"8820066":{"post_code":"8820066","prefecture":"MIYAZAKI KEN","city":"NOBEOKA SHI","town":"MAINOMACHI","perfecture_jp":"宮崎県","jp_add_1":"延岡市","jp_add_2":"舞野町"},"8820023":{"post_code":"8820023","prefecture":"MIYAZAKI KEN","city":"NOBEOKA SHI","town":"MAKIMACHI","perfecture_jp":"宮崎県","jp_add_1":"延岡市","jp_add_2":"牧町"},"8820062":{"post_code":"8820062","prefecture":"MIYAZAKI KEN","city":"NOBEOKA SHI","town":"MATSUYAMAMACHI","perfecture_jp":"宮崎県","jp_add_1":"延岡市","jp_add_2":"松山町"},"8820881":{"post_code":"8820881","prefecture":"MIYAZAKI KEN","city":"NOBEOKA SHI","town":"MISUMACHI","perfecture_jp":"宮崎県","jp_add_1":"延岡市","jp_add_2":"三須町"},"8820015":{"post_code":"8820015","prefecture":"MIYAZAKI KEN","city":"NOBEOKA SHI","town":"MIZUSHIRIMACHI","perfecture_jp":"宮崎県","jp_add_1":"延岡市","jp_add_2":"水尻町"},"8820842":{"post_code":"8820842","prefecture":"MIYAZAKI KEN","city":"NOBEOKA SHI","town":"MITSUZEMACHI","perfecture_jp":"宮崎県","jp_add_1":"延岡市","jp_add_2":"三ツ瀬町"},"8820863":{"post_code":"8820863","prefecture":"MIYAZAKI KEN","city":"NOBEOKA SHI","town":"MIDORIGAOKA","perfecture_jp":"宮崎県","jp_add_1":"延岡市","jp_add_2":"緑ケ丘"},"8820822":{"post_code":"8820822","prefecture":"MIYAZAKI KEN","city":"NOBEOKA SHI","town":"MINAMIMACHI","perfecture_jp":"宮崎県","jp_add_1":"延岡市","jp_add_2":"南町"},"8820092":{"post_code":"8820092","prefecture":"MIYAZAKI KEN","city":"NOBEOKA SHI","town":"MIYANAGAMACHI","perfecture_jp":"宮崎県","jp_add_1":"延岡市","jp_add_2":"宮長町"},"8820087":{"post_code":"8820087","prefecture":"MIYAZAKI KEN","city":"NOBEOKA SHI","town":"MYOMACHI","perfecture_jp":"宮崎県","jp_add_1":"延岡市","jp_add_2":"妙町"},"8820077":{"post_code":"8820077","prefecture":"MIYAZAKI KEN","city":"NOBEOKA SHI","town":"MUKABAKIMACHI","perfecture_jp":"宮崎県","jp_add_1":"延岡市","jp_add_2":"行縢町"},"8820021":{"post_code":"8820021","prefecture":"MIYAZAKI KEN","city":"NOBEOKA SHI","town":"MUSHIKAMACHI","perfecture_jp":"宮崎県","jp_add_1":"延岡市","jp_add_2":"無鹿町"},"8820094":{"post_code":"8820094","prefecture":"MIYAZAKI KEN","city":"NOBEOKA SHI","town":"YASUIMACHI","perfecture_jp":"宮崎県","jp_add_1":"延岡市","jp_add_2":"安井町"},"8820815":{"post_code":"8820815","prefecture":"MIYAZAKI KEN","city":"NOBEOKA SHI","town":"YANAZAWAMACHI","perfecture_jp":"宮崎県","jp_add_1":"延岡市","jp_add_2":"柳沢町"},"8820055":{"post_code":"8820055","prefecture":"MIYAZAKI KEN","city":"NOBEOKA SHI","town":"YAMASHITAMACHI","perfecture_jp":"宮崎県","jp_add_1":"延岡市","jp_add_2":"山下町"},"8820037":{"post_code":"8820037","prefecture":"MIYAZAKI KEN","city":"NOBEOKA SHI","town":"YAMATSUKIMACHI","perfecture_jp":"宮崎県","jp_add_1":"延岡市","jp_add_2":"山月町"},"8820083":{"post_code":"8820083","prefecture":"MIYAZAKI KEN","city":"NOBEOKA SHI","town":"YUGIMACHI","perfecture_jp":"宮崎県","jp_add_1":"延岡市","jp_add_2":"柚木町"},"8820026":{"post_code":"8820026","prefecture":"MIYAZAKI KEN","city":"NOBEOKA SHI","town":"YUNOKIDAMACHI","perfecture_jp":"宮崎県","jp_add_1":"延岡市","jp_add_2":"柚の木田町"},"8820072":{"post_code":"8820072","prefecture":"MIYAZAKI KEN","city":"NOBEOKA SHI","town":"YOSHINOMACHI","perfecture_jp":"宮崎県","jp_add_1":"延岡市","jp_add_2":"吉野町"},"8820875":{"post_code":"8820875","prefecture":"MIYAZAKI KEN","city":"NOBEOKA SHI","town":"WAKABAMACHI","perfecture_jp":"宮崎県","jp_add_1":"延岡市","jp_add_2":"若葉町"},"8821100":{"post_code":"8821100","prefecture":"MIYAZAKI KEN","city":"NISHIUSUKI GUN TAKACHIHO CHO","town":"IKANIKEISAIGANAIBAAI","perfecture_jp":"宮崎県","jp_add_1":"西臼杵郡高千穂町","jp_add_2":""},"8821621":{"post_code":"8821621","prefecture":"MIYAZAKI KEN","city":"NISHIUSUKI GUN TAKACHIHO CHO","town":"IWATO","perfecture_jp":"宮崎県","jp_add_1":"西臼杵郡高千穂町","jp_add_2":"岩戸"},"8821102":{"post_code":"8821102","prefecture":"MIYAZAKI KEN","city":"NISHIUSUKI GUN TAKACHIHO CHO","town":"OSHIKATA","perfecture_jp":"宮崎県","jp_add_1":"西臼杵郡高千穂町","jp_add_2":"押方"},"8821622":{"post_code":"8821622","prefecture":"MIYAZAKI KEN","city":"NISHIUSUKI GUN TAKACHIHO CHO","town":"KAMIIWATO","perfecture_jp":"宮崎県","jp_add_1":"西臼杵郡高千穂町","jp_add_2":"上岩戸"},"8821411":{"post_code":"8821411","prefecture":"MIYAZAKI KEN","city":"NISHIUSUKI GUN TAKACHIHO CHO","town":"KAMINO","perfecture_jp":"宮崎県","jp_add_1":"西臼杵郡高千穂町","jp_add_2":"上野"},"8821414":{"post_code":"8821414","prefecture":"MIYAZAKI KEN","city":"NISHIUSUKI GUN TAKACHIHO CHO","town":"KAWACHI","perfecture_jp":"宮崎県","jp_add_1":"西臼杵郡高千穂町","jp_add_2":"河内"},"8821415":{"post_code":"8821415","prefecture":"MIYAZAKI KEN","city":"NISHIUSUKI GUN TAKACHIHO CHO","town":"GOKASHO","perfecture_jp":"宮崎県","jp_add_1":"西臼杵郡高千穂町","jp_add_2":"五ケ所"},"8821412":{"post_code":"8821412","prefecture":"MIYAZAKI KEN","city":"NISHIUSUKI GUN TAKACHIHO CHO","town":"SHIMONO","perfecture_jp":"宮崎県","jp_add_1":"西臼杵郡高千穂町","jp_add_2":"下野"},"8821413":{"post_code":"8821413","prefecture":"MIYAZAKI KEN","city":"NISHIUSUKI GUN TAKACHIHO CHO","town":"TABARU","perfecture_jp":"宮崎県","jp_add_1":"西臼杵郡高千穂町","jp_add_2":"田原"},"8821101":{"post_code":"8821101","prefecture":"MIYAZAKI KEN","city":"NISHIUSUKI GUN TAKACHIHO CHO","town":"MITAI","perfecture_jp":"宮崎県","jp_add_1":"西臼杵郡高千穂町","jp_add_2":"三田井"},"8821103":{"post_code":"8821103","prefecture":"MIYAZAKI KEN","city":"NISHIUSUKI GUN TAKACHIHO CHO","town":"MUKOYAMA","perfecture_jp":"宮崎県","jp_add_1":"西臼杵郡高千穂町","jp_add_2":"向山"},"8820400":{"post_code":"8820400","prefecture":"MIYAZAKI KEN","city":"NISHIUSUKI GUN HINOKAGE CHO","town":"IKANIKEISAIGANAIBAAI","perfecture_jp":"宮崎県","jp_add_1":"西臼杵郡日之影町","jp_add_2":""},"8820302":{"post_code":"8820302","prefecture":"MIYAZAKI KEN","city":"NISHIUSUKI GUN HINOKAGE CHO","town":"IWAIKAWA(SAKAINO)","perfecture_jp":"宮崎県","jp_add_1":"西臼杵郡日之影町","jp_add_2":"岩井川"},"8820402":{"post_code":"8820402","prefecture":"MIYAZAKI KEN","city":"NISHIUSUKI GUN HINOKAGE CHO","town":"IWAIKAWA(SONOTA)","perfecture_jp":"宮崎県","jp_add_1":"西臼杵郡日之影町","jp_add_2":"岩井川"},"8820301":{"post_code":"8820301","prefecture":"MIYAZAKI KEN","city":"NISHIUSUKI GUN HINOKAGE CHO","town":"NISHINOCHI.FUNENO.YATO.YANAZAKI)","perfecture_jp":"宮崎県","jp_add_1":"西臼杵郡日之影町","jp_add_2":"七折"},"8820401":{"post_code":"8820401","prefecture":"MIYAZAKI KEN","city":"NISHIUSUKI GUN HINOKAGE CHO","town":"NANAORI(SONOTA)","perfecture_jp":"宮崎県","jp_add_1":"西臼杵郡日之影町","jp_add_2":"七折"},"8820403":{"post_code":"8820403","prefecture":"MIYAZAKI KEN","city":"NISHIUSUKI GUN HINOKAGE CHO","town":"MITATE","perfecture_jp":"宮崎県","jp_add_1":"西臼杵郡日之影町","jp_add_2":"見立"},"8820304":{"post_code":"8820304","prefecture":"MIYAZAKI KEN","city":"NISHIUSUKI GUN HINOKAGE CHO","town":"WAKEJO","perfecture_jp":"宮崎県","jp_add_1":"西臼杵郡日之影町","jp_add_2":"分城"},"8821200":{"post_code":"8821200","prefecture":"MIYAZAKI KEN","city":"NISHIUSUKI GUN GOKASE CHO","town":"IKANIKEISAIGANAIBAAI","perfecture_jp":"宮崎県","jp_add_1":"西臼杵郡五ヶ瀬町","jp_add_2":""},"8821201":{"post_code":"8821201","prefecture":"MIYAZAKI KEN","city":"NISHIUSUKI GUN GOKASE CHO","town":"KURAOKA","perfecture_jp":"宮崎県","jp_add_1":"西臼杵郡五ヶ瀬町","jp_add_2":"鞍岡"},"8821202":{"post_code":"8821202","prefecture":"MIYAZAKI KEN","city":"NISHIUSUKI GUN GOKASE CHO","town":"KUWANOCHI","perfecture_jp":"宮崎県","jp_add_1":"西臼杵郡五ヶ瀬町","jp_add_2":"桑野内"},"8821203":{"post_code":"8821203","prefecture":"MIYAZAKI KEN","city":"NISHIUSUKI GUN GOKASE CHO","town":"SANKASHO","perfecture_jp":"宮崎県","jp_add_1":"西臼杵郡五ヶ瀬町","jp_add_2":"三ヶ所"}}