{"8830000":{"post_code":"8830000","prefecture":"MIYAZAKI KEN","city":"HYUGA SHI","town":"IKANIKEISAIGANAIBAAI","perfecture_jp":"宮崎県","jp_add_1":"日向市","jp_add_2":""},"8830003":{"post_code":"8830003","prefecture":"MIYAZAKI KEN","city":"HYUGA SHI","town":"ISEGAHAMA","perfecture_jp":"宮崎県","jp_add_1":"日向市","jp_add_2":"伊勢ケ浜"},"8830044":{"post_code":"8830044","prefecture":"MIYAZAKI KEN","city":"HYUGA SHI","town":"UEMACHI","perfecture_jp":"宮崎県","jp_add_1":"日向市","jp_add_2":"上町"},"8830012":{"post_code":"8830012","prefecture":"MIYAZAKI KEN","city":"HYUGA SHI","town":"ERACHO","perfecture_jp":"宮崎県","jp_add_1":"日向市","jp_add_2":"江良町"},"8830053":{"post_code":"8830053","prefecture":"MIYAZAKI KEN","city":"HYUGA SHI","town":"KAJIKICHO","perfecture_jp":"宮崎県","jp_add_1":"日向市","jp_add_2":"梶木町"},"8830066":{"post_code":"8830066","prefecture":"MIYAZAKI KEN","city":"HYUGA SHI","town":"KAMEZAKI","perfecture_jp":"宮崎県","jp_add_1":"日向市","jp_add_2":"亀崎"},"8830068":{"post_code":"8830068","prefecture":"MIYAZAKI KEN","city":"HYUGA SHI","town":"KAMEZAKI NISHI","perfecture_jp":"宮崎県","jp_add_1":"日向市","jp_add_2":"亀崎西"},"8830067":{"post_code":"8830067","prefecture":"MIYAZAKI KEN","city":"HYUGA SHI","town":"KAMEZAKI HIGASHI","perfecture_jp":"宮崎県","jp_add_1":"日向市","jp_add_2":"亀崎東"},"8830041":{"post_code":"8830041","prefecture":"MIYAZAKI KEN","city":"HYUGA SHI","town":"KITAMACHI","perfecture_jp":"宮崎県","jp_add_1":"日向市","jp_add_2":"北町"},"8830038":{"post_code":"8830038","prefecture":"MIYAZAKI KEN","city":"HYUGA SHI","town":"GEIYOEN","perfecture_jp":"宮崎県","jp_add_1":"日向市","jp_add_2":"迎洋園"},"8830021":{"post_code":"8830021","prefecture":"MIYAZAKI KEN","city":"HYUGA SHI","town":"ZAIKOJI","perfecture_jp":"宮崎県","jp_add_1":"日向市","jp_add_2":"財光寺"},"8830024":{"post_code":"8830024","prefecture":"MIYAZAKI KEN","city":"HYUGA SHI","town":"ZAIKOJI OKANCHO","perfecture_jp":"宮崎県","jp_add_1":"日向市","jp_add_2":"財光寺往還町"},"8830023":{"post_code":"8830023","prefecture":"MIYAZAKI KEN","city":"HYUGA SHI","town":"ZAIKOJI OKIMACHI","perfecture_jp":"宮崎県","jp_add_1":"日向市","jp_add_2":"財光寺沖町"},"8830033":{"post_code":"8830033","prefecture":"MIYAZAKI KEN","city":"HYUGA SHI","town":"SHIOMI","perfecture_jp":"宮崎県","jp_add_1":"日向市","jp_add_2":"塩見"},"8830013":{"post_code":"8830013","prefecture":"MIYAZAKI KEN","city":"HYUGA SHI","town":"SHINSEICHO","perfecture_jp":"宮崎県","jp_add_1":"日向市","jp_add_2":"新生町"},"8830011":{"post_code":"8830011","prefecture":"MIYAZAKI KEN","city":"HYUGA SHI","town":"SONECHO","perfecture_jp":"宮崎県","jp_add_1":"日向市","jp_add_2":"曽根町"},"8830061":{"post_code":"8830061","prefecture":"MIYAZAKI KEN","city":"HYUGA SHI","town":"DAIOCHO","perfecture_jp":"宮崎県","jp_add_1":"日向市","jp_add_2":"大王町"},"8830042":{"post_code":"8830042","prefecture":"MIYAZAKI KEN","city":"HYUGA SHI","town":"TAKASAGOCHO","perfecture_jp":"宮崎県","jp_add_1":"日向市","jp_add_2":"高砂町"},"8830063":{"post_code":"8830063","prefecture":"MIYAZAKI KEN","city":"HYUGA SHI","town":"TAKESHIMACHO","perfecture_jp":"宮崎県","jp_add_1":"日向市","jp_add_2":"竹島町"},"8830052":{"post_code":"8830052","prefecture":"MIYAZAKI KEN","city":"HYUGA SHI","town":"TSURUMACHI","perfecture_jp":"宮崎県","jp_add_1":"日向市","jp_add_2":"鶴町"},"8830111":{"post_code":"8830111","prefecture":"MIYAZAKI KEN","city":"HYUGA SHI","town":"TOGOCHO SAKONOCHI","perfecture_jp":"宮崎県","jp_add_1":"日向市","jp_add_2":"東郷町迫野内"},"8830213":{"post_code":"8830213","prefecture":"MIYAZAKI KEN","city":"HYUGA SHI","town":"TOGOCHO SHIMOSANGE","perfecture_jp":"宮崎県","jp_add_1":"日向市","jp_add_2":"東郷町下三ケ"},"8830211":{"post_code":"8830211","prefecture":"MIYAZAKI KEN","city":"HYUGA SHI","town":"TOGOCHO TSUBOYA","perfecture_jp":"宮崎県","jp_add_1":"日向市","jp_add_2":"東郷町坪谷"},"8830108":{"post_code":"8830108","prefecture":"MIYAZAKI KEN","city":"HYUGA SHI","town":"TOGOCHO HAEBARU","perfecture_jp":"宮崎県","jp_add_1":"日向市","jp_add_2":"東郷町八重原"},"8830109":{"post_code":"8830109","prefecture":"MIYAZAKI KEN","city":"HYUGA SHI","town":"TOGOCHO YAMAGE","perfecture_jp":"宮崎県","jp_add_1":"日向市","jp_add_2":"東郷町山陰"},"8830101":{"post_code":"8830101","prefecture":"MIYAZAKI KEN","city":"HYUGA SHI","town":"TOGOCHO YAMAGEOTSU(SONOTA)","perfecture_jp":"宮崎県","jp_add_1":"日向市","jp_add_2":"東郷町山陰乙"},"8830105":{"post_code":"8830105","prefecture":"MIYAZAKI KEN","city":"HYUGA SHI","town":"TOGOCHO YAMAGEKI","perfecture_jp":"宮崎県","jp_add_1":"日向市","jp_add_2":"東郷町山陰己"},"8830107":{"post_code":"8830107","prefecture":"MIYAZAKI KEN","city":"HYUGA SHI","town":"TOGOCHO YAMAGEKO","perfecture_jp":"宮崎県","jp_add_1":"日向市","jp_add_2":"東郷町山陰庚"},"8830106":{"post_code":"8830106","prefecture":"MIYAZAKI KEN","city":"HYUGA SHI","town":"TOGOCHO YAMAGESHIN","perfecture_jp":"宮崎県","jp_add_1":"日向市","jp_add_2":"東郷町山陰辛"},"8830103":{"post_code":"8830103","prefecture":"MIYAZAKI KEN","city":"HYUGA SHI","town":"TOGOCHO YAMAGETEI","perfecture_jp":"宮崎県","jp_add_1":"日向市","jp_add_2":"東郷町山陰丁"},"8830102":{"post_code":"8830102","prefecture":"MIYAZAKI KEN","city":"HYUGA SHI","town":"TOGOCHO YAMAGEHEI","perfecture_jp":"宮崎県","jp_add_1":"日向市","jp_add_2":"東郷町山陰丙"},"8830104":{"post_code":"8830104","prefecture":"MIYAZAKI KEN","city":"HYUGA SHI","town":"TOGOCHO YAMAGEBO(513-NO1-INAI)","perfecture_jp":"宮崎県","jp_add_1":"日向市","jp_add_2":"東郷町山陰戊"},"8830212":{"post_code":"8830212","prefecture":"MIYAZAKI KEN","city":"HYUGA SHI","town":"TOGOCHO YAMAGEBO(SONOTA)","perfecture_jp":"宮崎県","jp_add_1":"日向市","jp_add_2":"東郷町山陰戊"},"8830034":{"post_code":"8830034","prefecture":"MIYAZAKI KEN","city":"HYUGA SHI","town":"TOMITAKA","perfecture_jp":"宮崎県","jp_add_1":"日向市","jp_add_2":"富高"},"8830005":{"post_code":"8830005","prefecture":"MIYAZAKI KEN","city":"HYUGA SHI","town":"NAKAHORICHO","perfecture_jp":"宮崎県","jp_add_1":"日向市","jp_add_2":"中堀町"},"8830046":{"post_code":"8830046","prefecture":"MIYAZAKI KEN","city":"HYUGA SHI","town":"NAKAMACHI","perfecture_jp":"宮崎県","jp_add_1":"日向市","jp_add_2":"中町"},"8830015":{"post_code":"8830015","prefecture":"MIYAZAKI KEN","city":"HYUGA SHI","town":"NAGAECHO","perfecture_jp":"宮崎県","jp_add_1":"日向市","jp_add_2":"永江町"},"8830004":{"post_code":"8830004","prefecture":"MIYAZAKI KEN","city":"HYUGA SHI","town":"HAMAMACHI","perfecture_jp":"宮崎県","jp_add_1":"日向市","jp_add_2":"浜町"},"8830014":{"post_code":"8830014","prefecture":"MIYAZAKI KEN","city":"HYUGA SHI","town":"HARAMACHI","perfecture_jp":"宮崎県","jp_add_1":"日向市","jp_add_2":"原町"},"8830035":{"post_code":"8830035","prefecture":"MIYAZAKI KEN","city":"HYUGA SHI","town":"HARUHARACHO","perfecture_jp":"宮崎県","jp_add_1":"日向市","jp_add_2":"春原町"},"8830062":{"post_code":"8830062","prefecture":"MIYAZAKI KEN","city":"HYUGA SHI","town":"HICHIYA","perfecture_jp":"宮崎県","jp_add_1":"日向市","jp_add_2":"日知屋"},"8830064":{"post_code":"8830064","prefecture":"MIYAZAKI KEN","city":"HYUGA SHI","town":"HICHIYA FURUTACHO","perfecture_jp":"宮崎県","jp_add_1":"日向市","jp_add_2":"日知屋古田町"},"8830022":{"post_code":"8830022","prefecture":"MIYAZAKI KEN","city":"HYUGA SHI","town":"HIRAIWA","perfecture_jp":"宮崎県","jp_add_1":"日向市","jp_add_2":"平岩"},"8830031":{"post_code":"8830031","prefecture":"MIYAZAKI KEN","city":"HYUGA SHI","town":"HIRACHO","perfecture_jp":"宮崎県","jp_add_1":"日向市","jp_add_2":"比良町"},"8830002":{"post_code":"8830002","prefecture":"MIYAZAKI KEN","city":"HYUGA SHI","town":"HIRANOCHO","perfecture_jp":"宮崎県","jp_add_1":"日向市","jp_add_2":"平野町"},"8830037":{"post_code":"8830037","prefecture":"MIYAZAKI KEN","city":"HYUGA SHI","town":"FUDOJI","perfecture_jp":"宮崎県","jp_add_1":"日向市","jp_add_2":"不動寺"},"8830065":{"post_code":"8830065","prefecture":"MIYAZAKI KEN","city":"HYUGA SHI","town":"FUNABACHO","perfecture_jp":"宮崎県","jp_add_1":"日向市","jp_add_2":"船場町"},"8830001":{"post_code":"8830001","prefecture":"MIYAZAKI KEN","city":"HYUGA SHI","town":"HOSOSHIMA","perfecture_jp":"宮崎県","jp_add_1":"日向市","jp_add_2":"細島"},"8830045":{"post_code":"8830045","prefecture":"MIYAZAKI KEN","city":"HYUGA SHI","town":"HOMMACHI","perfecture_jp":"宮崎県","jp_add_1":"日向市","jp_add_2":"本町"},"8830036":{"post_code":"8830036","prefecture":"MIYAZAKI KEN","city":"HYUGA SHI","town":"MINAMIMACHI","perfecture_jp":"宮崎県","jp_add_1":"日向市","jp_add_2":"南町"},"8830043":{"post_code":"8830043","prefecture":"MIYAZAKI KEN","city":"HYUGA SHI","town":"MIYAKOMACHI","perfecture_jp":"宮崎県","jp_add_1":"日向市","jp_add_2":"都町"},"8830051":{"post_code":"8830051","prefecture":"MIYAZAKI KEN","city":"HYUGA SHI","town":"MUKAECHO","perfecture_jp":"宮崎県","jp_add_1":"日向市","jp_add_2":"向江町"},"8830032":{"post_code":"8830032","prefecture":"MIYAZAKI KEN","city":"HYUGA SHI","town":"YAMASHITACHO","perfecture_jp":"宮崎県","jp_add_1":"日向市","jp_add_2":"山下町"},"8830006":{"post_code":"8830006","prefecture":"MIYAZAKI KEN","city":"HYUGA SHI","town":"YAMATECHO","perfecture_jp":"宮崎県","jp_add_1":"日向市","jp_add_2":"山手町"},"8831300":{"post_code":"8831300","prefecture":"MIYAZAKI KEN","city":"HIGASHIUSUKI GUN MOROTSUKA SON","town":"IKANIKEISAIGANAIBAAI","perfecture_jp":"宮崎県","jp_add_1":"東臼杵郡諸塚村","jp_add_2":""},"8831301":{"post_code":"8831301","prefecture":"MIYAZAKI KEN","city":"HIGASHIUSUKI GUN MOROTSUKA SON","town":"ESHIRO","perfecture_jp":"宮崎県","jp_add_1":"東臼杵郡諸塚村","jp_add_2":"家代"},"8831402":{"post_code":"8831402","prefecture":"MIYAZAKI KEN","city":"HIGASHIUSUKI GUN MOROTSUKA SON","town":"NANATSUYAMA(IIBOSHI.OBARAI.KAWAUCHI","perfecture_jp":"宮崎県","jp_add_1":"東臼杵郡諸塚村","jp_add_2":"七ツ山"},"8831302":{"post_code":"8831302","prefecture":"MIYAZAKI KEN","city":"HIGASHIUSUKI GUN MOROTSUKA SON","town":"NANATSUYAMA(SONOTA)","perfecture_jp":"宮崎県","jp_add_1":"東臼杵郡諸塚村","jp_add_2":"七ツ山"},"8831600":{"post_code":"8831600","prefecture":"MIYAZAKI KEN","city":"HIGASHIUSUKI GUN SHIIBA SON","town":"IKANIKEISAIGANAIBAAI","perfecture_jp":"宮崎県","jp_add_1":"東臼杵郡椎葉村","jp_add_2":""},"8830402":{"post_code":"8830402","prefecture":"MIYAZAKI KEN","city":"HIGASHIUSUKI GUN SHIIBA SON","town":"OKAWAUCHI(1-1302-BANCHI)","perfecture_jp":"宮崎県","jp_add_1":"東臼杵郡椎葉村","jp_add_2":"大河内"},"8831602":{"post_code":"8831602","prefecture":"MIYAZAKI KEN","city":"HIGASHIUSUKI GUN SHIIBA SON","town":"OKAWAUCHI(SONOTA)","perfecture_jp":"宮崎県","jp_add_1":"東臼杵郡椎葉村","jp_add_2":"大河内"},"8831601":{"post_code":"8831601","prefecture":"MIYAZAKI KEN","city":"HIGASHIUSUKI GUN SHIIBA SON","town":"SHIMOFUKURA","perfecture_jp":"宮崎県","jp_add_1":"東臼杵郡椎葉村","jp_add_2":"下福良"},"8831603":{"post_code":"8831603","prefecture":"MIYAZAKI KEN","city":"HIGASHIUSUKI GUN SHIIBA SON","town":"FUDONO","perfecture_jp":"宮崎県","jp_add_1":"東臼杵郡椎葉村","jp_add_2":"不土野"},"8831604":{"post_code":"8831604","prefecture":"MIYAZAKI KEN","city":"HIGASHIUSUKI GUN SHIIBA SON","town":"MATSUO","perfecture_jp":"宮崎県","jp_add_1":"東臼杵郡椎葉村","jp_add_2":"松尾"},"8831100":{"post_code":"8831100","prefecture":"MIYAZAKI KEN","city":"HIGASHIUSUKI GUN MISATO CHO","town":"IKANIKEISAIGANAIBAAI","perfecture_jp":"宮崎県","jp_add_1":"東臼杵郡美郷町","jp_add_2":""},"8831212":{"post_code":"8831212","prefecture":"MIYAZAKI KEN","city":"HIGASHIUSUKI GUN MISATO CHO","town":"SAIGO OBARU","perfecture_jp":"宮崎県","jp_add_1":"東臼杵郡美郷町","jp_add_2":"西郷小原"},"8831101":{"post_code":"8831101","prefecture":"MIYAZAKI KEN","city":"HIGASHIUSUKI GUN MISATO CHO","town":"SAIGO TASHIRO","perfecture_jp":"宮崎県","jp_add_1":"東臼杵郡美郷町","jp_add_2":"西郷田代"},"8831102":{"post_code":"8831102","prefecture":"MIYAZAKI KEN","city":"HIGASHIUSUKI GUN MISATO CHO","town":"SAIGO TATEISHI","perfecture_jp":"宮崎県","jp_add_1":"東臼杵郡美郷町","jp_add_2":"西郷立石"},"8831211":{"post_code":"8831211","prefecture":"MIYAZAKI KEN","city":"HIGASHIUSUKI GUN MISATO CHO","town":"SAIGO YAMASANGA","perfecture_jp":"宮崎県","jp_add_1":"東臼杵郡美郷町","jp_add_2":"西郷山三ヶ"},"8830303":{"post_code":"8830303","prefecture":"MIYAZAKI KEN","city":"HIGASHIUSUKI GUN MISATO CHO","town":"NANGO KAMIDOGAWA","perfecture_jp":"宮崎県","jp_add_1":"東臼杵郡美郷町","jp_add_2":"南郷上渡川"},"8830304":{"post_code":"8830304","prefecture":"MIYAZAKI KEN","city":"HIGASHIUSUKI GUN MISATO CHO","town":"NANGO KIJINO","perfecture_jp":"宮崎県","jp_add_1":"東臼杵郡美郷町","jp_add_2":"南郷鬼神野"},"8830302":{"post_code":"8830302","prefecture":"MIYAZAKI KEN","city":"HIGASHIUSUKI GUN MISATO CHO","town":"NANGO NAKADOGAWA","perfecture_jp":"宮崎県","jp_add_1":"東臼杵郡美郷町","jp_add_2":"南郷中渡川"},"8830306":{"post_code":"8830306","prefecture":"MIYAZAKI KEN","city":"HIGASHIUSUKI GUN MISATO CHO","town":"NANGO MIKADO","perfecture_jp":"宮崎県","jp_add_1":"東臼杵郡美郷町","jp_add_2":"南郷神門"},"8830301":{"post_code":"8830301","prefecture":"MIYAZAKI KEN","city":"HIGASHIUSUKI GUN MISATO CHO","town":"NANGO MIZUSHIDANI","perfecture_jp":"宮崎県","jp_add_1":"東臼杵郡美郷町","jp_add_2":"南郷水清谷"},"8830305":{"post_code":"8830305","prefecture":"MIYAZAKI KEN","city":"HIGASHIUSUKI GUN MISATO CHO","town":"NANGO YAMASANGA","perfecture_jp":"宮崎県","jp_add_1":"東臼杵郡美郷町","jp_add_2":"南郷山三ヶ"}}