{"8840000":{"post_code":"8840000","prefecture":"MIYAZAKI KEN","city":"KOYU GUN TAKANABE CHO","town":"IKANIKEISAIGANAIBAAI","perfecture_jp":"宮崎県","jp_add_1":"児湯郡高鍋町","jp_add_2":""},"8840006":{"post_code":"8840006","prefecture":"MIYAZAKI KEN","city":"KOYU GUN TAKANABE CHO","town":"UWAE","perfecture_jp":"宮崎県","jp_add_1":"児湯郡高鍋町","jp_add_2":"上江"},"8840004":{"post_code":"8840004","prefecture":"MIYAZAKI KEN","city":"KOYU GUN TAKANABE CHO","town":"KAGUCHIURA","perfecture_jp":"宮崎県","jp_add_1":"児湯郡高鍋町","jp_add_2":"蚊口浦"},"8840002":{"post_code":"8840002","prefecture":"MIYAZAKI KEN","city":"KOYU GUN TAKANABE CHO","town":"KITATAKANABE","perfecture_jp":"宮崎県","jp_add_1":"児湯郡高鍋町","jp_add_2":"北高鍋"},"8840001":{"post_code":"8840001","prefecture":"MIYAZAKI KEN","city":"KOYU GUN TAKANABE CHO","town":"TAKANABEMACHI","perfecture_jp":"宮崎県","jp_add_1":"児湯郡高鍋町","jp_add_2":"高鍋町"},"8840003":{"post_code":"8840003","prefecture":"MIYAZAKI KEN","city":"KOYU GUN TAKANABE CHO","town":"MINAMITAKANABE","perfecture_jp":"宮崎県","jp_add_1":"児湯郡高鍋町","jp_add_2":"南高鍋"},"8840005":{"post_code":"8840005","prefecture":"MIYAZAKI KEN","city":"KOYU GUN TAKANABE CHO","town":"MOCHIDA","perfecture_jp":"宮崎県","jp_add_1":"児湯郡高鍋町","jp_add_2":"持田"},"8840100":{"post_code":"8840100","prefecture":"MIYAZAKI KEN","city":"KOYU GUN KIJO CHO","town":"IKANIKEISAIGANAIBAAI","perfecture_jp":"宮崎県","jp_add_1":"児湯郡木城町","jp_add_2":""},"8840104":{"post_code":"8840104","prefecture":"MIYAZAKI KEN","city":"KOYU GUN KIJO CHO","town":"ISHIKAWAUCHI","perfecture_jp":"宮崎県","jp_add_1":"児湯郡木城町","jp_add_2":"石河内"},"8840103":{"post_code":"8840103","prefecture":"MIYAZAKI KEN","city":"KOYU GUN KIJO CHO","town":"KAWABARU","perfecture_jp":"宮崎県","jp_add_1":"児湯郡木城町","jp_add_2":"川原"},"8840102":{"post_code":"8840102","prefecture":"MIYAZAKI KEN","city":"KOYU GUN KIJO CHO","town":"SHIINOKI","perfecture_jp":"宮崎県","jp_add_1":"児湯郡木城町","jp_add_2":"椎木"},"8840101":{"post_code":"8840101","prefecture":"MIYAZAKI KEN","city":"KOYU GUN KIJO CHO","town":"TAKAJO","perfecture_jp":"宮崎県","jp_add_1":"児湯郡木城町","jp_add_2":"高城"},"8840105":{"post_code":"8840105","prefecture":"MIYAZAKI KEN","city":"KOYU GUN KIJO CHO","town":"NAKANOMATA","perfecture_jp":"宮崎県","jp_add_1":"児湯郡木城町","jp_add_2":"中之又"}}