{"8850000":{"post_code":"8850000","prefecture":"MIYAZAKI KEN","city":"MIYAKONOJO SHI","town":"IKANIKEISAIGANAIBAAI","perfecture_jp":"宮崎県","jp_add_1":"都城市","jp_add_2":""},"8850034":{"post_code":"8850034","prefecture":"MIYAZAKI KEN","city":"MIYAKONOJO SHI","town":"AYAMEBARUCHO","perfecture_jp":"宮崎県","jp_add_1":"都城市","jp_add_2":"菖蒲原町"},"8850041":{"post_code":"8850041","prefecture":"MIYAZAKI KEN","city":"MIYAKONOJO SHI","town":"ICHIMANJOCHO","perfecture_jp":"宮崎県","jp_add_1":"都城市","jp_add_2":"一万城町"},"8850064":{"post_code":"8850064","prefecture":"MIYAZAKI KEN","city":"MIYAKONOJO SHI","town":"IMAMACHI","perfecture_jp":"宮崎県","jp_add_1":"都城市","jp_add_2":"今町"},"8851101":{"post_code":"8851101","prefecture":"MIYAZAKI KEN","city":"MIYAKONOJO SHI","town":"IWAMITSUCHO","perfecture_jp":"宮崎県","jp_add_1":"都城市","jp_add_2":"岩満町"},"8850019":{"post_code":"8850019","prefecture":"MIYAZAKI KEN","city":"MIYAKONOJO SHI","town":"IWAYOSHI","perfecture_jp":"宮崎県","jp_add_1":"都城市","jp_add_2":"祝吉"},"8850014":{"post_code":"8850014","prefecture":"MIYAZAKI KEN","city":"MIYAKONOJO SHI","town":"IWAYOSHICHO","perfecture_jp":"宮崎県","jp_add_1":"都城市","jp_add_2":"祝吉町"},"8850063":{"post_code":"8850063","prefecture":"MIYAZAKI KEN","city":"MIYAKONOJO SHI","town":"UMEKITACHO","perfecture_jp":"宮崎県","jp_add_1":"都城市","jp_add_2":"梅北町"},"8850062":{"post_code":"8850062","prefecture":"MIYAZAKI KEN","city":"MIYAKONOJO SHI","town":"OIWADACHO","perfecture_jp":"宮崎県","jp_add_1":"都城市","jp_add_2":"大岩田町"},"8850112":{"post_code":"8850112","prefecture":"MIYAZAKI KEN","city":"MIYAKONOJO SHI","town":"OTOBOCHO","perfecture_jp":"宮崎県","jp_add_1":"都城市","jp_add_2":"乙房町"},"8850074":{"post_code":"8850074","prefecture":"MIYAZAKI KEN","city":"MIYAKONOJO SHI","town":"KAIMOTOCHO","perfecture_jp":"宮崎県","jp_add_1":"都城市","jp_add_2":"甲斐元町"},"8850111":{"post_code":"8850111","prefecture":"MIYAZAKI KEN","city":"MIYAKONOJO SHI","town":"KASHINOCHO","perfecture_jp":"宮崎県","jp_add_1":"都城市","jp_add_2":"菓子野町"},"8850001":{"post_code":"8850001","prefecture":"MIYAZAKI KEN","city":"MIYAKONOJO SHI","town":"KANADACHO","perfecture_jp":"宮崎県","jp_add_1":"都城市","jp_add_2":"金田町"},"8850012":{"post_code":"8850012","prefecture":"MIYAZAKI KEN","city":"MIYAKONOJO SHI","town":"KAMIKAWAHIGASHI","perfecture_jp":"宮崎県","jp_add_1":"都城市","jp_add_2":"上川東"},"8851103":{"post_code":"8851103","prefecture":"MIYAZAKI KEN","city":"MIYAKONOJO SHI","town":"KAMIZURUCHO","perfecture_jp":"宮崎県","jp_add_1":"都城市","jp_add_2":"上水流町"},"8850042":{"post_code":"8850042","prefecture":"MIYAZAKI KEN","city":"MIYAKONOJO SHI","town":"KAMINAGAECHO","perfecture_jp":"宮崎県","jp_add_1":"都城市","jp_add_2":"上長飯町"},"8850053":{"post_code":"8850053","prefecture":"MIYAZAKI KEN","city":"MIYAKONOJO SHI","town":"KAMIHIGASHICHO","perfecture_jp":"宮崎県","jp_add_1":"都城市","jp_add_2":"上東町"},"8850072":{"post_code":"8850072","prefecture":"MIYAZAKI KEN","city":"MIYAKONOJO SHI","town":"KAMMACHI","perfecture_jp":"宮崎県","jp_add_1":"都城市","jp_add_2":"上町"},"8850024":{"post_code":"8850024","prefecture":"MIYAZAKI KEN","city":"MIYAKONOJO SHI","town":"KITAHARACHO","perfecture_jp":"宮崎県","jp_add_1":"都城市","jp_add_2":"北原町"},"8850086":{"post_code":"8850086","prefecture":"MIYAZAKI KEN","city":"MIYAKONOJO SHI","town":"KUBOBARUCHO","perfecture_jp":"宮崎県","jp_add_1":"都城市","jp_add_2":"久保原町"},"8850051":{"post_code":"8850051","prefecture":"MIYAZAKI KEN","city":"MIYAKONOJO SHI","town":"KURAHARACHO","perfecture_jp":"宮崎県","jp_add_1":"都城市","jp_add_2":"蔵原町"},"8850018":{"post_code":"8850018","prefecture":"MIYAZAKI KEN","city":"MIYAKONOJO SHI","town":"KORIMOTO","perfecture_jp":"宮崎県","jp_add_1":"都城市","jp_add_2":"郡元"},"8850013":{"post_code":"8850013","prefecture":"MIYAZAKI KEN","city":"MIYAKONOJO SHI","town":"KORIMOTOCHO","perfecture_jp":"宮崎県","jp_add_1":"都城市","jp_add_2":"郡元町"},"8850084":{"post_code":"8850084","prefecture":"MIYAZAKI KEN","city":"MIYAKONOJO SHI","town":"GOJITCHO","perfecture_jp":"宮崎県","jp_add_1":"都城市","jp_add_2":"五十町"},"8850022":{"post_code":"8850022","prefecture":"MIYAZAKI KEN","city":"MIYAKONOJO SHI","town":"KOMATSUBARACHO","perfecture_jp":"宮崎県","jp_add_1":"都城市","jp_add_2":"小松原町"},"8850023":{"post_code":"8850023","prefecture":"MIYAZAKI KEN","city":"MIYAKONOJO SHI","town":"SAKAEMACHI","perfecture_jp":"宮崎県","jp_add_1":"都城市","jp_add_2":"栄町"},"8850093":{"post_code":"8850093","prefecture":"MIYAZAKI KEN","city":"MIYAKONOJO SHI","town":"SHIBITACHO","perfecture_jp":"宮崎県","jp_add_1":"都城市","jp_add_2":"志比田町"},"8850011":{"post_code":"8850011","prefecture":"MIYAZAKI KEN","city":"MIYAKONOJO SHI","town":"SHIMOKAWAHIGASHI","perfecture_jp":"宮崎県","jp_add_1":"都城市","jp_add_2":"下川東"},"8851102":{"post_code":"8851102","prefecture":"MIYAZAKI KEN","city":"MIYAKONOJO SHI","town":"SHIMOZURUCHO","perfecture_jp":"宮崎県","jp_add_1":"都城市","jp_add_2":"下水流町"},"8850061":{"post_code":"8850061","prefecture":"MIYAZAKI KEN","city":"MIYAKONOJO SHI","town":"SHIMONAGAECHO","perfecture_jp":"宮崎県","jp_add_1":"都城市","jp_add_2":"下長飯町"},"8850114":{"post_code":"8850114","prefecture":"MIYAZAKI KEN","city":"MIYAKONOJO SHI","town":"SHONAICHO","perfecture_jp":"宮崎県","jp_add_1":"都城市","jp_add_2":"庄内町"},"8850005":{"post_code":"8850005","prefecture":"MIYAZAKI KEN","city":"MIYAKONOJO SHI","town":"JINNOYAMACHO","perfecture_jp":"宮崎県","jp_add_1":"都城市","jp_add_2":"神之山町"},"8850113":{"post_code":"8850113","prefecture":"MIYAZAKI KEN","city":"MIYAKONOJO SHI","town":"SEKINOCHO","perfecture_jp":"宮崎県","jp_add_1":"都城市","jp_add_2":"関之尾町"},"8850015":{"post_code":"8850015","prefecture":"MIYAZAKI KEN","city":"MIYAKONOJO SHI","town":"SENCHO","perfecture_jp":"宮崎県","jp_add_1":"都城市","jp_add_2":"千町"},"8850026":{"post_code":"8850026","prefecture":"MIYAZAKI KEN","city":"MIYAKONOJO SHI","town":"DAIOCHO","perfecture_jp":"宮崎県","jp_add_1":"都城市","jp_add_2":"大王町"},"8850081":{"post_code":"8850081","prefecture":"MIYAZAKI KEN","city":"MIYAKONOJO SHI","town":"TAKAO","perfecture_jp":"宮崎県","jp_add_1":"都城市","jp_add_2":"鷹尾"},"8850003":{"post_code":"8850003","prefecture":"MIYAZAKI KEN","city":"MIYAKONOJO SHI","town":"TAKAGICHO","perfecture_jp":"宮崎県","jp_add_1":"都城市","jp_add_2":"高木町"},"8851311":{"post_code":"8851311","prefecture":"MIYAZAKI KEN","city":"MIYAKONOJO SHI","town":"TAKAJOCHO ARIMIZU","perfecture_jp":"宮崎県","jp_add_1":"都城市","jp_add_2":"高城町有水"},"8851205":{"post_code":"8851205","prefecture":"MIYAZAKI KEN","city":"MIYAKONOJO SHI","town":"TAKAJOCHO ISHIYAMA","perfecture_jp":"宮崎県","jp_add_1":"都城市","jp_add_2":"高城町石山"},"8851203":{"post_code":"8851203","prefecture":"MIYAZAKI KEN","city":"MIYAKONOJO SHI","town":"TAKAJOCHO OIDE","perfecture_jp":"宮崎県","jp_add_1":"都城市","jp_add_2":"高城町大井手"},"8851204":{"post_code":"8851204","prefecture":"MIYAZAKI KEN","city":"MIYAKONOJO SHI","town":"TAKAJOCHO SAKURAGI","perfecture_jp":"宮崎県","jp_add_1":"都城市","jp_add_2":"高城町桜木"},"8851312":{"post_code":"8851312","prefecture":"MIYAZAKI KEN","city":"MIYAKONOJO SHI","town":"TAKAJOCHO SHIKA","perfecture_jp":"宮崎県","jp_add_1":"都城市","jp_add_2":"高城町四家"},"8851201":{"post_code":"8851201","prefecture":"MIYAZAKI KEN","city":"MIYAKONOJO SHI","town":"TAKAJOCHO TAKAJO","perfecture_jp":"宮崎県","jp_add_1":"都城市","jp_add_2":"高城町高城"},"8851202":{"post_code":"8851202","prefecture":"MIYAZAKI KEN","city":"MIYAKONOJO SHI","town":"TAKAJOCHO HOMAMBO","perfecture_jp":"宮崎県","jp_add_1":"都城市","jp_add_2":"高城町穂満坊"},"8850221":{"post_code":"8850221","prefecture":"MIYAZAKI KEN","city":"MIYAKONOJO SHI","town":"TAKANOCHO","perfecture_jp":"宮崎県","jp_add_1":"都城市","jp_add_2":"高野町"},"8850035":{"post_code":"8850035","prefecture":"MIYAZAKI KEN","city":"MIYAKONOJO SHI","town":"TATENOCHO","perfecture_jp":"宮崎県","jp_add_1":"都城市","jp_add_2":"立野町"},"8850002":{"post_code":"8850002","prefecture":"MIYAZAKI KEN","city":"MIYAKONOJO SHI","town":"TAROBOCHO","perfecture_jp":"宮崎県","jp_add_1":"都城市","jp_add_2":"太郎坊町"},"8850033":{"post_code":"8850033","prefecture":"MIYAZAKI KEN","city":"MIYAKONOJO SHI","town":"TSUMAGAOKACHO","perfecture_jp":"宮崎県","jp_add_1":"都城市","jp_add_2":"妻ケ丘町"},"8850031":{"post_code":"8850031","prefecture":"MIYAZAKI KEN","city":"MIYAKONOJO SHI","town":"TENJINCHO","perfecture_jp":"宮崎県","jp_add_1":"都城市","jp_add_2":"天神町"},"8850017":{"post_code":"8850017","prefecture":"MIYAZAKI KEN","city":"MIYAKONOJO SHI","town":"TOSHIMICHO","perfecture_jp":"宮崎県","jp_add_1":"都城市","jp_add_2":"年見町"},"8850004":{"post_code":"8850004","prefecture":"MIYAZAKI KEN","city":"MIYAKONOJO SHI","town":"TOHOKUCHO","perfecture_jp":"宮崎県","jp_add_1":"都城市","jp_add_2":"都北町"},"8850043":{"post_code":"8850043","prefecture":"MIYAZAKI KEN","city":"MIYAKONOJO SHI","town":"TOYOMITSUCHO","perfecture_jp":"宮崎県","jp_add_1":"都城市","jp_add_2":"豊満町"},"8850032":{"post_code":"8850032","prefecture":"MIYAZAKI KEN","city":"MIYAKONOJO SHI","town":"NAKAHARACHO","perfecture_jp":"宮崎県","jp_add_1":"都城市","jp_add_2":"中原町"},"8850071":{"post_code":"8850071","prefecture":"MIYAZAKI KEN","city":"MIYAKONOJO SHI","town":"NAKAMACHI","perfecture_jp":"宮崎県","jp_add_1":"都城市","jp_add_2":"中町"},"8850225":{"post_code":"8850225","prefecture":"MIYAZAKI KEN","city":"MIYAKONOJO SHI","town":"NATSUOCHO","perfecture_jp":"宮崎県","jp_add_1":"都城市","jp_add_2":"夏尾町"},"8850076":{"post_code":"8850076","prefecture":"MIYAZAKI KEN","city":"MIYAKONOJO SHI","town":"NISHIMACHI","perfecture_jp":"宮崎県","jp_add_1":"都城市","jp_add_2":"西町"},"8851104":{"post_code":"8851104","prefecture":"MIYAZAKI KEN","city":"MIYAKONOJO SHI","town":"NONOMITANICHO","perfecture_jp":"宮崎県","jp_add_1":"都城市","jp_add_2":"野々美谷町"},"8850075":{"post_code":"8850075","prefecture":"MIYAZAKI KEN","city":"MIYAKONOJO SHI","town":"HACHIMANCHO","perfecture_jp":"宮崎県","jp_add_1":"都城市","jp_add_2":"八幡町"},"8850037":{"post_code":"8850037","prefecture":"MIYAZAKI KEN","city":"MIYAKONOJO SHI","town":"HANAGURICHO","perfecture_jp":"宮崎県","jp_add_1":"都城市","jp_add_2":"花繰町"},"8850055":{"post_code":"8850055","prefecture":"MIYAZAKI KEN","city":"MIYAKONOJO SHI","town":"HAYASUZUCHO","perfecture_jp":"宮崎県","jp_add_1":"都城市","jp_add_2":"早鈴町"},"8850016":{"post_code":"8850016","prefecture":"MIYAZAKI KEN","city":"MIYAKONOJO SHI","town":"HAYAMIZUCHO","perfecture_jp":"宮崎県","jp_add_1":"都城市","jp_add_2":"早水町"},"8850052":{"post_code":"8850052","prefecture":"MIYAZAKI KEN","city":"MIYAKONOJO SHI","town":"HIGASHIMACHI","perfecture_jp":"宮崎県","jp_add_1":"都城市","jp_add_2":"東町"},"8850073":{"post_code":"8850073","prefecture":"MIYAZAKI KEN","city":"MIYAKONOJO SHI","town":"HIMEGICHO","perfecture_jp":"宮崎県","jp_add_1":"都城市","jp_add_2":"姫城町"},"8850021":{"post_code":"8850021","prefecture":"MIYAZAKI KEN","city":"MIYAKONOJO SHI","town":"HIRAECHO","perfecture_jp":"宮崎県","jp_add_1":"都城市","jp_add_2":"平江町"},"8850085":{"post_code":"8850085","prefecture":"MIYAZAKI KEN","city":"MIYAKONOJO SHI","town":"HIRATSUKACHO","perfecture_jp":"宮崎県","jp_add_1":"都城市","jp_add_2":"平塚町"},"8850036":{"post_code":"8850036","prefecture":"MIYAZAKI KEN","city":"MIYAKONOJO SHI","town":"HIROHARACHO","perfecture_jp":"宮崎県","jp_add_1":"都城市","jp_add_2":"広原町"},"8850025":{"post_code":"8850025","prefecture":"MIYAZAKI KEN","city":"MIYAKONOJO SHI","town":"MAEDACHO","perfecture_jp":"宮崎県","jp_add_1":"都城市","jp_add_2":"前田町"},"8850077":{"post_code":"8850077","prefecture":"MIYAZAKI KEN","city":"MIYAKONOJO SHI","town":"MATSUMOTOCHO","perfecture_jp":"宮崎県","jp_add_1":"都城市","jp_add_2":"松元町"},"8851105":{"post_code":"8851105","prefecture":"MIYAZAKI KEN","city":"MIYAKONOJO SHI","town":"MARUTANICHO","perfecture_jp":"宮崎県","jp_add_1":"都城市","jp_add_2":"丸谷町"},"8850224":{"post_code":"8850224","prefecture":"MIYAZAKI KEN","city":"MIYAKONOJO SHI","town":"MIIKECHO","perfecture_jp":"宮崎県","jp_add_1":"都城市","jp_add_2":"御池町"},"8850222":{"post_code":"8850222","prefecture":"MIYAZAKI KEN","city":"MIYAKONOJO SHI","town":"MIKAWACHO","perfecture_jp":"宮崎県","jp_add_1":"都城市","jp_add_2":"美川町"},"8850082":{"post_code":"8850082","prefecture":"MIYAZAKI KEN","city":"MIYAKONOJO SHI","town":"MINAMITAKAOCHO","perfecture_jp":"宮崎県","jp_add_1":"都城市","jp_add_2":"南鷹尾町"},"8850092":{"post_code":"8850092","prefecture":"MIYAZAKI KEN","city":"MIYAKONOJO SHI","town":"MINAMIYOKOICHICHO","perfecture_jp":"宮崎県","jp_add_1":"都城市","jp_add_2":"南横市町"},"8850095":{"post_code":"8850095","prefecture":"MIYAZAKI KEN","city":"MIYAKONOJO SHI","town":"MINOBARUCHO","perfecture_jp":"宮崎県","jp_add_1":"都城市","jp_add_2":"蓑原町"},"8850083":{"post_code":"8850083","prefecture":"MIYAZAKI KEN","city":"MIYAKONOJO SHI","town":"MIYAKOJIMACHO","perfecture_jp":"宮崎県","jp_add_1":"都城市","jp_add_2":"都島町"},"8850094":{"post_code":"8850094","prefecture":"MIYAZAKI KEN","city":"MIYAKONOJO SHI","town":"MIYAKOBARUCHO","perfecture_jp":"宮崎県","jp_add_1":"都城市","jp_add_2":"都原町"},"8850078":{"post_code":"8850078","prefecture":"MIYAZAKI KEN","city":"MIYAKONOJO SHI","town":"MIYAMARUCHO","perfecture_jp":"宮崎県","jp_add_1":"都城市","jp_add_2":"宮丸町"},"8850079":{"post_code":"8850079","prefecture":"MIYAZAKI KEN","city":"MIYAKONOJO SHI","town":"MUTACHO","perfecture_jp":"宮崎県","jp_add_1":"都城市","jp_add_2":"牟田町"},"8850044":{"post_code":"8850044","prefecture":"MIYAZAKI KEN","city":"MIYAKONOJO SHI","town":"YASUHISACHO","perfecture_jp":"宮崎県","jp_add_1":"都城市","jp_add_2":"安久町"},"8850091":{"post_code":"8850091","prefecture":"MIYAZAKI KEN","city":"MIYAKONOJO SHI","town":"YOKOICHICHO","perfecture_jp":"宮崎県","jp_add_1":"都城市","jp_add_2":"横市町"},"8850006":{"post_code":"8850006","prefecture":"MIYAZAKI KEN","city":"MIYAKONOJO SHI","town":"YOSHIOCHO","perfecture_jp":"宮崎県","jp_add_1":"都城市","jp_add_2":"吉尾町"},"8850223":{"post_code":"8850223","prefecture":"MIYAZAKI KEN","city":"MIYAKONOJO SHI","town":"YOSHINOMOTOCHO","perfecture_jp":"宮崎県","jp_add_1":"都城市","jp_add_2":"吉之元町"},"8850054":{"post_code":"8850054","prefecture":"MIYAZAKI KEN","city":"MIYAKONOJO SHI","town":"WAKABACHO","perfecture_jp":"宮崎県","jp_add_1":"都城市","jp_add_2":"若葉町"}}