{"8860000":{"post_code":"8860000","prefecture":"MIYAZAKI KEN","city":"KOBAYASHI SHI","town":"IKANIKEISAIGANAIBAAI","perfecture_jp":"宮崎県","jp_add_1":"小林市","jp_add_2":""},"8860009":{"post_code":"8860009","prefecture":"MIYAZAKI KEN","city":"KOBAYASHI SHI","town":"EKIMINAMI","perfecture_jp":"宮崎県","jp_add_1":"小林市","jp_add_2":"駅南"},"8860006":{"post_code":"8860006","prefecture":"MIYAZAKI KEN","city":"KOBAYASHI SHI","town":"KITANISHIKATA","perfecture_jp":"宮崎県","jp_add_1":"小林市","jp_add_2":"北西方"},"8860115":{"post_code":"8860115","prefecture":"MIYAZAKI KEN","city":"KOBAYASHI SHI","town":"SUKI UCHIYAMA","perfecture_jp":"宮崎県","jp_add_1":"小林市","jp_add_2":"須木内山"},"8860112":{"post_code":"8860112","prefecture":"MIYAZAKI KEN","city":"KOBAYASHI SHI","town":"SUKI SHIMODA","perfecture_jp":"宮崎県","jp_add_1":"小林市","jp_add_2":"須木下田"},"8860113":{"post_code":"8860113","prefecture":"MIYAZAKI KEN","city":"KOBAYASHI SHI","town":"SUKI TORIDAMACHI","perfecture_jp":"宮崎県","jp_add_1":"小林市","jp_add_2":"須木鳥田町"},"8860111":{"post_code":"8860111","prefecture":"MIYAZAKI KEN","city":"KOBAYASHI SHI","town":"SUKI NAKAHARA","perfecture_jp":"宮崎県","jp_add_1":"小林市","jp_add_2":"須木中原"},"8860114":{"post_code":"8860114","prefecture":"MIYAZAKI KEN","city":"KOBAYASHI SHI","town":"SUKI NASAKI","perfecture_jp":"宮崎県","jp_add_1":"小林市","jp_add_2":"須木奈佐木"},"8860003":{"post_code":"8860003","prefecture":"MIYAZAKI KEN","city":"KOBAYASHI SHI","town":"TSUTSUMI","perfecture_jp":"宮崎県","jp_add_1":"小林市","jp_add_2":"堤"},"8860002":{"post_code":"8860002","prefecture":"MIYAZAKI KEN","city":"KOBAYASHI SHI","town":"TSURUZAKO","perfecture_jp":"宮崎県","jp_add_1":"小林市","jp_add_2":"水流迫"},"8860211":{"post_code":"8860211","prefecture":"MIYAZAKI KEN","city":"KOBAYASHI SHI","town":"NOJIRICHO KAMIYA","perfecture_jp":"宮崎県","jp_add_1":"小林市","jp_add_2":"野尻町紙屋"},"8860212":{"post_code":"8860212","prefecture":"MIYAZAKI KEN","city":"KOBAYASHI SHI","town":"NOJIRICHO HIGASHIFUMOTO","perfecture_jp":"宮崎県","jp_add_1":"小林市","jp_add_2":"野尻町東麓"},"8860213":{"post_code":"8860213","prefecture":"MIYAZAKI KEN","city":"KOBAYASHI SHI","town":"NOJIRICHO MIKANOYAMA","perfecture_jp":"宮崎県","jp_add_1":"小林市","jp_add_2":"野尻町三ケ野山"},"8860101":{"post_code":"8860101","prefecture":"MIYAZAKI KEN","city":"KOBAYASHI SHI","town":"HIGASHIKATA(5741.5871-BANCHI)","perfecture_jp":"宮崎県","jp_add_1":"小林市","jp_add_2":"東方"},"8860001":{"post_code":"8860001","prefecture":"MIYAZAKI KEN","city":"KOBAYASHI SHI","town":"HIGASHIKATA(SONOTA)","perfecture_jp":"宮崎県","jp_add_1":"小林市","jp_add_2":"東方"},"8860004":{"post_code":"8860004","prefecture":"MIYAZAKI KEN","city":"KOBAYASHI SHI","town":"HOSONO","perfecture_jp":"宮崎県","jp_add_1":"小林市","jp_add_2":"細野"},"8860008":{"post_code":"8860008","prefecture":"MIYAZAKI KEN","city":"KOBAYASHI SHI","town":"HOMMACHI","perfecture_jp":"宮崎県","jp_add_1":"小林市","jp_add_2":"本町"},"8860007":{"post_code":"8860007","prefecture":"MIYAZAKI KEN","city":"KOBAYASHI SHI","town":"MAGATA","perfecture_jp":"宮崎県","jp_add_1":"小林市","jp_add_2":"真方"},"8860005":{"post_code":"8860005","prefecture":"MIYAZAKI KEN","city":"KOBAYASHI SHI","town":"MINAMINISHIKATA","perfecture_jp":"宮崎県","jp_add_1":"小林市","jp_add_2":"南西方"},"8860203":{"post_code":"8860203","prefecture":"MIYAZAKI KEN","city":"HIGASHIMOROKATA GUN AYA CHO","town":"MINAMIMATA(KAMAMUTA)","perfecture_jp":"宮崎県","jp_add_1":"東諸県郡綾町","jp_add_2":"南俣"}}