{"8911545":{"post_code":"8911545","prefecture":"KAGOSHIMA KEN","city":"KAGOSHIMA SHI","town":"ARIMURACHO","perfecture_jp":"鹿児島県","jp_add_1":"鹿児島市","jp_add_2":"有村町"},"8911107":{"post_code":"8911107","prefecture":"KAGOSHIMA KEN","city":"KAGOSHIMA SHI","town":"ARIYADACHO","perfecture_jp":"鹿児島県","jp_add_1":"鹿児島市","jp_add_2":"有屋田町"},"8911203":{"post_code":"8911203","prefecture":"KAGOSHIMA KEN","city":"KAGOSHIMA SHI","town":"ISHIKICHO(4710-4741.4747-4761-3-BAN","perfecture_jp":"鹿児島県","jp_add_1":"鹿児島市","jp_add_2":"伊敷町"},"8911205":{"post_code":"8911205","prefecture":"KAGOSHIMA KEN","city":"KAGOSHIMA SHI","town":"INUZAKOCHO","perfecture_jp":"鹿児島県","jp_add_1":"鹿児島市","jp_add_2":"犬迫町"},"8910112":{"post_code":"8910112","prefecture":"KAGOSHIMA KEN","city":"KAGOSHIMA SHI","town":"UOMICHO","perfecture_jp":"鹿児島県","jp_add_1":"鹿児島市","jp_add_2":"魚見町"},"8911201":{"post_code":"8911201","prefecture":"KAGOSHIMA KEN","city":"KAGOSHIMA SHI","town":"OKANOHARACHO(SONOTA)","perfecture_jp":"鹿児島県","jp_add_1":"鹿児島市","jp_add_2":"岡之原町"},"8911222":{"post_code":"8911222","prefecture":"KAGOSHIMA KEN","city":"KAGOSHIMA SHI","town":"ONOCHO(4784-5118-BANCHI)","perfecture_jp":"鹿児島県","jp_add_1":"鹿児島市","jp_add_2":"小野町"},"8910111":{"post_code":"8910111","prefecture":"KAGOSHIMA KEN","city":"KAGOSHIMA SHI","town":"OBARACHO","perfecture_jp":"鹿児島県","jp_add_1":"鹿児島市","jp_add_2":"小原町"},"8910123":{"post_code":"8910123","prefecture":"KAGOSHIMA KEN","city":"KAGOSHIMA SHI","town":"OROSHIHOMMACHI","perfecture_jp":"鹿児島県","jp_add_1":"鹿児島市","jp_add_2":"卸本町"},"8910116":{"post_code":"8910116","prefecture":"KAGOSHIMA KEN","city":"KAGOSHIMA SHI","town":"KAMIFUKUMOTOCHO","perfecture_jp":"鹿児島県","jp_add_1":"鹿児島市","jp_add_2":"上福元町"},"8911275":{"post_code":"8911275","prefecture":"KAGOSHIMA KEN","city":"KAGOSHIMA SHI","town":"242.4244-BANCHI)","perfecture_jp":"鹿児島県","jp_add_1":"鹿児島市","jp_add_2":"川上町"},"8911103":{"post_code":"8911103","prefecture":"KAGOSHIMA KEN","city":"KAGOSHIMA SHI","town":"KAWADACHO","perfecture_jp":"鹿児島県","jp_add_1":"鹿児島市","jp_add_2":"川田町"},"8910201":{"post_code":"8910201","prefecture":"KAGOSHIMA KEN","city":"KAGOSHIMA SHI","town":"KIIRE SESEKUSHICHO","perfecture_jp":"鹿児島県","jp_add_1":"鹿児島市","jp_add_2":"喜入瀬々串町"},"8910202":{"post_code":"8910202","prefecture":"KAGOSHIMA KEN","city":"KAGOSHIMA SHI","town":"KIIRE NAKAMYOCHO","perfecture_jp":"鹿児島県","jp_add_1":"鹿児島市","jp_add_2":"喜入中名町"},"8910206":{"post_code":"8910206","prefecture":"KAGOSHIMA KEN","city":"KAGOSHIMA SHI","town":"KIIRE NUKUMICHO","perfecture_jp":"鹿児島県","jp_add_1":"鹿児島市","jp_add_2":"喜入生見町"},"8910204":{"post_code":"8910204","prefecture":"KAGOSHIMA KEN","city":"KAGOSHIMA SHI","town":"KIIRE HITOKURACHO","perfecture_jp":"鹿児島県","jp_add_1":"鹿児島市","jp_add_2":"喜入一倉町"},"8910205":{"post_code":"8910205","prefecture":"KAGOSHIMA KEN","city":"KAGOSHIMA SHI","town":"KIIRE MAENOHAMACHO","perfecture_jp":"鹿児島県","jp_add_1":"鹿児島市","jp_add_2":"喜入前之浜町"},"8910203":{"post_code":"8910203","prefecture":"KAGOSHIMA KEN","city":"KAGOSHIMA SHI","town":"KIIRECHO","perfecture_jp":"鹿児島県","jp_add_1":"鹿児島市","jp_add_2":"喜入町"},"8910107":{"post_code":"8910107","prefecture":"KAGOSHIMA KEN","city":"KAGOSHIMA SHI","town":"KIBOGAOKACHO","perfecture_jp":"鹿児島県","jp_add_1":"鹿児島市","jp_add_2":"希望ケ丘町"},"8910145":{"post_code":"8910145","prefecture":"KAGOSHIMA KEN","city":"KAGOSHIMA SHI","town":"KINKODAI","perfecture_jp":"鹿児島県","jp_add_1":"鹿児島市","jp_add_2":"錦江台"},"8911501":{"post_code":"8911501","prefecture":"KAGOSHIMA KEN","city":"KAGOSHIMA SHI","town":"KUROKAMICHO(HAZENOKIGADANI)","perfecture_jp":"鹿児島県","jp_add_1":"鹿児島市","jp_add_2":"黒神町"},"8911401":{"post_code":"8911401","prefecture":"KAGOSHIMA KEN","city":"KAGOSHIMA SHI","town":"KUROKAMICHO(SONOTA)","perfecture_jp":"鹿児島県","jp_add_1":"鹿児島市","jp_add_2":"黒神町"},"8911204":{"post_code":"8911204","prefecture":"KAGOSHIMA KEN","city":"KAGOSHIMA SHI","town":"KENOHIKARIGAOKA","perfecture_jp":"鹿児島県","jp_add_1":"鹿児島市","jp_add_2":"花野光ケ丘"},"8910103":{"post_code":"8910103","prefecture":"KAGOSHIMA KEN","city":"KAGOSHIMA SHI","town":"KOTOKUJIDAI","perfecture_jp":"鹿児島県","jp_add_1":"鹿児島市","jp_add_2":"皇徳寺台"},"8911402":{"post_code":"8911402","prefecture":"KAGOSHIMA KEN","city":"KAGOSHIMA SHI","town":"KOMENCHO","perfecture_jp":"鹿児島県","jp_add_1":"鹿児島市","jp_add_2":"高免町"},"8911108":{"post_code":"8911108","prefecture":"KAGOSHIMA KEN","city":"KAGOSHIMA SHI","town":"KORIYAMATAKEMACHI","perfecture_jp":"鹿児島県","jp_add_1":"鹿児島市","jp_add_2":"郡山岳町"},"8911105":{"post_code":"8911105","prefecture":"KAGOSHIMA KEN","city":"KAGOSHIMA SHI","town":"KORIYAMACHO","perfecture_jp":"鹿児島県","jp_add_1":"鹿児島市","jp_add_2":"郡山町"},"8910101":{"post_code":"8910101","prefecture":"KAGOSHIMA KEN","city":"KAGOSHIMA SHI","town":"GOKABEPPUCHO","perfecture_jp":"鹿児島県","jp_add_1":"鹿児島市","jp_add_2":"五ケ別府町"},"8910114":{"post_code":"8910114","prefecture":"KAGOSHIMA KEN","city":"KAGOSHIMA SHI","town":"KOMATSUBARA","perfecture_jp":"鹿児島県","jp_add_1":"鹿児島市","jp_add_2":"小松原"},"8911231":{"post_code":"8911231","prefecture":"KAGOSHIMA KEN","city":"KAGOSHIMA SHI","town":"KOYAMADACHO(SONOTA)","perfecture_jp":"鹿児島県","jp_add_1":"鹿児島市","jp_add_2":"小山田町"},"8910150":{"post_code":"8910150","prefecture":"KAGOSHIMA KEN","city":"KAGOSHIMA SHI","town":"SAKANOE","perfecture_jp":"鹿児島県","jp_add_1":"鹿児島市","jp_add_2":"坂之上"},"8910175":{"post_code":"8910175","prefecture":"KAGOSHIMA KEN","city":"KAGOSHIMA SHI","town":"SAKURAGAOKA(1-6-CHOME)","perfecture_jp":"鹿児島県","jp_add_1":"鹿児島市","jp_add_2":"桜ケ丘"},"8911420":{"post_code":"8911420","prefecture":"KAGOSHIMA KEN","city":"KAGOSHIMA SHI","town":"SAKURAJIMA AKAMIZUCHO","perfecture_jp":"鹿児島県","jp_add_1":"鹿児島市","jp_add_2":"桜島赤水町"},"8911417":{"post_code":"8911417","prefecture":"KAGOSHIMA KEN","city":"KAGOSHIMA SHI","town":"SAKURAJIMA AKOBARUCHO","perfecture_jp":"鹿児島県","jp_add_1":"鹿児島市","jp_add_2":"桜島赤生原町"},"8911418":{"post_code":"8911418","prefecture":"KAGOSHIMA KEN","city":"KAGOSHIMA SHI","town":"SAKURAJIMA KOIKECHO","perfecture_jp":"鹿児島県","jp_add_1":"鹿児島市","jp_add_2":"桜島小池町"},"8911414":{"post_code":"8911414","prefecture":"KAGOSHIMA KEN","city":"KAGOSHIMA SHI","town":"SAKURAJIMA SAIDOCHO","perfecture_jp":"鹿児島県","jp_add_1":"鹿児島市","jp_add_2":"桜島西道町"},"8911411":{"post_code":"8911411","prefecture":"KAGOSHIMA KEN","city":"KAGOSHIMA SHI","town":"SAKURAJIMA SHIRAHAMACHO","perfecture_jp":"鹿児島県","jp_add_1":"鹿児島市","jp_add_2":"桜島白浜町"},"8911416":{"post_code":"8911416","prefecture":"KAGOSHIMA KEN","city":"KAGOSHIMA SHI","town":"SAKURAJIMA TAKECHO","perfecture_jp":"鹿児島県","jp_add_1":"鹿児島市","jp_add_2":"桜島武町"},"8911415":{"post_code":"8911415","prefecture":"KAGOSHIMA KEN","city":"KAGOSHIMA SHI","town":"SAKURAJIMA FUJINOCHO","perfecture_jp":"鹿児島県","jp_add_1":"鹿児島市","jp_add_2":"桜島藤野町"},"8911412":{"post_code":"8911412","prefecture":"KAGOSHIMA KEN","city":"KAGOSHIMA SHI","town":"SAKURAJIMA FUTAMATACHO","perfecture_jp":"鹿児島県","jp_add_1":"鹿児島市","jp_add_2":"桜島二俣町"},"8911413":{"post_code":"8911413","prefecture":"KAGOSHIMA KEN","city":"KAGOSHIMA SHI","town":"SAKURAJIMA MATSURACHO","perfecture_jp":"鹿児島県","jp_add_1":"鹿児島市","jp_add_2":"桜島松浦町"},"8911419":{"post_code":"8911419","prefecture":"KAGOSHIMA KEN","city":"KAGOSHIMA SHI","town":"SAKURAJIMA YOKOYAMACHO","perfecture_jp":"鹿児島県","jp_add_1":"鹿児島市","jp_add_2":"桜島横山町"},"8910146":{"post_code":"8910146","prefecture":"KAGOSHIMA KEN","city":"KAGOSHIMA SHI","town":"JIGENJICHO","perfecture_jp":"鹿児島県","jp_add_1":"鹿児島市","jp_add_2":"慈眼寺町"},"8910144":{"post_code":"8910144","prefecture":"KAGOSHIMA KEN","city":"KAGOSHIMA SHI","town":"SHIMOFUKUMOTOCHO","perfecture_jp":"鹿児島県","jp_add_1":"鹿児島市","jp_add_2":"下福元町"},"8910106":{"post_code":"8910106","prefecture":"KAGOSHIMA KEN","city":"KAGOSHIMA SHI","town":"JIYUGAOKA","perfecture_jp":"鹿児島県","jp_add_1":"鹿児島市","jp_add_2":"自由ケ丘"},"8911403":{"post_code":"8911403","prefecture":"KAGOSHIMA KEN","city":"KAGOSHIMA SHI","town":"SHINJIMACHO","perfecture_jp":"鹿児島県","jp_add_1":"鹿児島市","jp_add_2":"新島町"},"8910109":{"post_code":"8910109","prefecture":"KAGOSHIMA KEN","city":"KAGOSHIMA SHI","town":"SEIWA","perfecture_jp":"鹿児島県","jp_add_1":"鹿児島市","jp_add_2":"清和"},"8910131":{"post_code":"8910131","prefecture":"KAGOSHIMA KEN","city":"KAGOSHIMA SHI","town":"TANIYAMAKO","perfecture_jp":"鹿児島県","jp_add_1":"鹿児島市","jp_add_2":"谷山港"},"8910141":{"post_code":"8910141","prefecture":"KAGOSHIMA KEN","city":"KAGOSHIMA SHI","town":"TANIYAMACHUO","perfecture_jp":"鹿児島県","jp_add_1":"鹿児島市","jp_add_2":"谷山中央"},"8910108":{"post_code":"8910108","prefecture":"KAGOSHIMA KEN","city":"KAGOSHIMA SHI","town":"CHUZAN","perfecture_jp":"鹿児島県","jp_add_1":"鹿児島市","jp_add_2":"中山"},"8910105":{"post_code":"8910105","prefecture":"KAGOSHIMA KEN","city":"KAGOSHIMA SHI","town":"CHUZANCHO","perfecture_jp":"鹿児島県","jp_add_1":"鹿児島市","jp_add_2":"中山町"},"8910115":{"post_code":"8910115","prefecture":"KAGOSHIMA KEN","city":"KAGOSHIMA SHI","town":"TOKAICHO","perfecture_jp":"鹿児島県","jp_add_1":"鹿児島市","jp_add_2":"東開町"},"8910132":{"post_code":"8910132","prefecture":"KAGOSHIMA KEN","city":"KAGOSHIMA SHI","town":"NANATSUJIMA","perfecture_jp":"鹿児島県","jp_add_1":"鹿児島市","jp_add_2":"七ツ島"},"8910122":{"post_code":"8910122","prefecture":"KAGOSHIMA KEN","city":"KAGOSHIMA SHI","town":"NANEI","perfecture_jp":"鹿児島県","jp_add_1":"鹿児島市","jp_add_2":"南栄"},"8911202":{"post_code":"8911202","prefecture":"KAGOSHIMA KEN","city":"KAGOSHIMA SHI","town":"NISHIISHIKI(5-7-CHOME)","perfecture_jp":"鹿児島県","jp_add_1":"鹿児島市","jp_add_2":"西伊敷"},"8911301":{"post_code":"8911301","prefecture":"KAGOSHIMA KEN","city":"KAGOSHIMA SHI","town":"NISHISATACHO","perfecture_jp":"鹿児島県","jp_add_1":"鹿児島市","jp_add_2":"西佐多町"},"8910117":{"post_code":"8910117","prefecture":"KAGOSHIMA KEN","city":"KAGOSHIMA SHI","town":"NISHITANIYAMA","perfecture_jp":"鹿児島県","jp_add_1":"鹿児島市","jp_add_2":"西谷山"},"8911106":{"post_code":"8911106","prefecture":"KAGOSHIMA KEN","city":"KAGOSHIMA SHI","town":"NISHIMATACHO","perfecture_jp":"鹿児島県","jp_add_1":"鹿児島市","jp_add_2":"西俣町"},"8911541":{"post_code":"8911541","prefecture":"KAGOSHIMA KEN","city":"KAGOSHIMA SHI","town":"NOJIRICHO","perfecture_jp":"鹿児島県","jp_add_1":"鹿児島市","jp_add_2":"野尻町"},"8911101":{"post_code":"8911101","prefecture":"KAGOSHIMA KEN","city":"KAGOSHIMA SHI","town":"HANAOMACHI","perfecture_jp":"鹿児島県","jp_add_1":"鹿児島市","jp_add_2":"花尾町"},"8911543":{"post_code":"8911543","prefecture":"KAGOSHIMA KEN","city":"KAGOSHIMA SHI","town":"HIGASHISAKURAJIMACHO","perfecture_jp":"鹿児島県","jp_add_1":"鹿児島市","jp_add_2":"東桜島町"},"8911302":{"post_code":"8911302","prefecture":"KAGOSHIMA KEN","city":"KAGOSHIMA SHI","town":"HIGASHISATACHO","perfecture_jp":"鹿児島県","jp_add_1":"鹿児島市","jp_add_2":"東佐多町"},"8910113":{"post_code":"8910113","prefecture":"KAGOSHIMA KEN","city":"KAGOSHIMA SHI","town":"HIGASHITANIYAMA","perfecture_jp":"鹿児島県","jp_add_1":"鹿児島市","jp_add_2":"東谷山"},"8911102":{"post_code":"8911102","prefecture":"KAGOSHIMA KEN","city":"KAGOSHIMA SHI","town":"HIGASHIMATACHO","perfecture_jp":"鹿児島県","jp_add_1":"鹿児島市","jp_add_2":"東俣町"},"8910151":{"post_code":"8910151","prefecture":"KAGOSHIMA KEN","city":"KAGOSHIMA SHI","town":"HIKARIYAMA","perfecture_jp":"鹿児島県","jp_add_1":"鹿児島市","jp_add_2":"光山"},"8910133":{"post_code":"8910133","prefecture":"KAGOSHIMA KEN","city":"KAGOSHIMA SHI","town":"HIRAKAWACHO","perfecture_jp":"鹿児島県","jp_add_1":"鹿児島市","jp_add_2":"平川町"},"8911544":{"post_code":"8911544","prefecture":"KAGOSHIMA KEN","city":"KAGOSHIMA SHI","town":"FURUSATOCHO","perfecture_jp":"鹿児島県","jp_add_1":"鹿児島市","jp_add_2":"古里町"},"8910102":{"post_code":"8910102","prefecture":"KAGOSHIMA KEN","city":"KAGOSHIMA SHI","town":"HOSHIGAMINE","perfecture_jp":"鹿児島県","jp_add_1":"鹿児島市","jp_add_2":"星ケ峯"},"8911303":{"post_code":"8911303","prefecture":"KAGOSHIMA KEN","city":"KAGOSHIMA SHI","town":"HONJOCHO","perfecture_jp":"鹿児島県","jp_add_1":"鹿児島市","jp_add_2":"本城町"},"8911304":{"post_code":"8911304","prefecture":"KAGOSHIMA KEN","city":"KAGOSHIMA SHI","town":"HOMMYOCHO","perfecture_jp":"鹿児島県","jp_add_1":"鹿児島市","jp_add_2":"本名町"},"8911274":{"post_code":"8911274","prefecture":"KAGOSHIMA KEN","city":"KAGOSHIMA SHI","town":"MIDORIGAOKACHO(35-BANIKO)","perfecture_jp":"鹿児島県","jp_add_1":"鹿児島市","jp_add_2":"緑ヶ丘町"},"8911206":{"post_code":"8911206","prefecture":"KAGOSHIMA KEN","city":"KAGOSHIMA SHI","town":"MINAYOSHICHO","perfecture_jp":"鹿児島県","jp_add_1":"鹿児島市","jp_add_2":"皆与志町"},"8911305":{"post_code":"8911305","prefecture":"KAGOSHIMA KEN","city":"KAGOSHIMA SHI","town":"MIYANORACHO","perfecture_jp":"鹿児島県","jp_add_1":"鹿児島市","jp_add_2":"宮之浦町"},"8911306":{"post_code":"8911306","prefecture":"KAGOSHIMA KEN","city":"KAGOSHIMA SHI","town":"MUREGAOKA","perfecture_jp":"鹿児島県","jp_add_1":"鹿児島市","jp_add_2":"牟礼岡"},"8911542":{"post_code":"8911542","prefecture":"KAGOSHIMA KEN","city":"KAGOSHIMA SHI","town":"MOCHIKICHO","perfecture_jp":"鹿児島県","jp_add_1":"鹿児島市","jp_add_2":"持木町"},"8910104":{"post_code":"8910104","prefecture":"KAGOSHIMA KEN","city":"KAGOSHIMA SHI","town":"YAMADACHO","perfecture_jp":"鹿児島県","jp_add_1":"鹿児島市","jp_add_2":"山田町"},"8911104":{"post_code":"8911104","prefecture":"KAGOSHIMA KEN","city":"KAGOSHIMA SHI","town":"YUSUKICHO","perfecture_jp":"鹿児島県","jp_add_1":"鹿児島市","jp_add_2":"油須木町"},"8910143":{"post_code":"8910143","prefecture":"KAGOSHIMA KEN","city":"KAGOSHIMA SHI","town":"WADA","perfecture_jp":"鹿児島県","jp_add_1":"鹿児島市","jp_add_2":"和田"},"8912301":{"post_code":"8912301","prefecture":"KAGOSHIMA KEN","city":"KANOYA SHI","town":"ARITAKECHO","perfecture_jp":"鹿児島県","jp_add_1":"鹿屋市","jp_add_2":"有武町"},"8912302":{"post_code":"8912302","prefecture":"KAGOSHIMA KEN","city":"KANOYA SHI","town":"OSUKICHO","perfecture_jp":"鹿児島県","jp_add_1":"鹿屋市","jp_add_2":"小薄町"},"8912312":{"post_code":"8912312","prefecture":"KAGOSHIMA KEN","city":"KANOYA SHI","town":"ONOBARUCHO","perfecture_jp":"鹿児島県","jp_add_1":"鹿屋市","jp_add_2":"小野原町"},"8912303":{"post_code":"8912303","prefecture":"KAGOSHIMA KEN","city":"KANOYA SHI","town":"KAIDOCHO","perfecture_jp":"鹿児島県","jp_add_1":"鹿屋市","jp_add_2":"海道町"},"8912311":{"post_code":"8912311","prefecture":"KAGOSHIMA KEN","city":"KANOYA SHI","town":"SHIROMIZUCHO","perfecture_jp":"鹿児島県","jp_add_1":"鹿屋市","jp_add_2":"白水町"},"8912313":{"post_code":"8912313","prefecture":"KAGOSHIMA KEN","city":"KANOYA SHI","town":"TENJINCHO","perfecture_jp":"鹿児島県","jp_add_1":"鹿屋市","jp_add_2":"天神町"},"8912305":{"post_code":"8912305","prefecture":"KAGOSHIMA KEN","city":"KANOYA SHI","town":"NEGIBARUCHO","perfecture_jp":"鹿児島県","jp_add_1":"鹿屋市","jp_add_2":"根木原町"},"8912304":{"post_code":"8912304","prefecture":"KAGOSHIMA KEN","city":"KANOYA SHI","town":"HANAOKACHO","perfecture_jp":"鹿児島県","jp_add_1":"鹿屋市","jp_add_2":"花岡町"},"8912306":{"post_code":"8912306","prefecture":"KAGOSHIMA KEN","city":"KANOYA SHI","town":"HANAZATOCHO","perfecture_jp":"鹿児島県","jp_add_1":"鹿屋市","jp_add_2":"花里町"},"8912314":{"post_code":"8912314","prefecture":"KAGOSHIMA KEN","city":"KANOYA SHI","town":"FUNAMACHO","perfecture_jp":"鹿児島県","jp_add_1":"鹿屋市","jp_add_2":"船間町"},"8912321":{"post_code":"8912321","prefecture":"KAGOSHIMA KEN","city":"KANOYA SHI","town":"FURUECHO","perfecture_jp":"鹿児島県","jp_add_1":"鹿屋市","jp_add_2":"古江町"},"8912322":{"post_code":"8912322","prefecture":"KAGOSHIMA KEN","city":"KANOYA SHI","town":"FURUSATOCHO","perfecture_jp":"鹿児島県","jp_add_1":"鹿屋市","jp_add_2":"古里町"},"8910400":{"post_code":"8910400","prefecture":"KAGOSHIMA KEN","city":"IBUSUKI SHI","town":"IKANIKEISAIGANAIBAAI","perfecture_jp":"鹿児島県","jp_add_1":"指宿市","jp_add_2":""},"8910312":{"post_code":"8910312","prefecture":"KAGOSHIMA KEN","city":"IBUSUKI SHI","town":"IKEDA","perfecture_jp":"鹿児島県","jp_add_1":"指宿市","jp_add_2":"池田"},"8910315":{"post_code":"8910315","prefecture":"KAGOSHIMA KEN","city":"IBUSUKI SHI","town":"IWAMOTO","perfecture_jp":"鹿児島県","jp_add_1":"指宿市","jp_add_2":"岩本"},"8910401":{"post_code":"8910401","prefecture":"KAGOSHIMA KEN","city":"IBUSUKI SHI","town":"OMURE","perfecture_jp":"鹿児島県","jp_add_1":"指宿市","jp_add_2":"大牟礼"},"8910601":{"post_code":"8910601","prefecture":"KAGOSHIMA KEN","city":"IBUSUKI SHI","town":"KAIMON UENO","perfecture_jp":"鹿児島県","jp_add_1":"指宿市","jp_add_2":"開聞上野"},"8910602":{"post_code":"8910602","prefecture":"KAGOSHIMA KEN","city":"IBUSUKI SHI","town":"KAIMON KAWASHIRI","perfecture_jp":"鹿児島県","jp_add_1":"指宿市","jp_add_2":"開聞川尻"},"8910603":{"post_code":"8910603","prefecture":"KAGOSHIMA KEN","city":"IBUSUKI SHI","town":"KAIMON JUTCHO","perfecture_jp":"鹿児島県","jp_add_1":"指宿市","jp_add_2":"開聞十町"},"8910604":{"post_code":"8910604","prefecture":"KAGOSHIMA KEN","city":"IBUSUKI SHI","town":"KAIMON SENTA","perfecture_jp":"鹿児島県","jp_add_1":"指宿市","jp_add_2":"開聞仙田"},"8910314":{"post_code":"8910314","prefecture":"KAGOSHIMA KEN","city":"IBUSUKI SHI","town":"KOMAKI","perfecture_jp":"鹿児島県","jp_add_1":"指宿市","jp_add_2":"小牧"},"8910403":{"post_code":"8910403","prefecture":"KAGOSHIMA KEN","city":"IBUSUKI SHI","town":"JUNICHO","perfecture_jp":"鹿児島県","jp_add_1":"指宿市","jp_add_2":"十二町"},"8910402":{"post_code":"8910402","prefecture":"KAGOSHIMA KEN","city":"IBUSUKI SHI","town":"JUTCHO","perfecture_jp":"鹿児島県","jp_add_1":"指宿市","jp_add_2":"十町"},"8910313":{"post_code":"8910313","prefecture":"KAGOSHIMA KEN","city":"IBUSUKI SHI","town":"SHINNISHIKATA","perfecture_jp":"鹿児島県","jp_add_1":"指宿市","jp_add_2":"新西方"},"8910311":{"post_code":"8910311","prefecture":"KAGOSHIMA KEN","city":"IBUSUKI SHI","town":"NISHIKATA","perfecture_jp":"鹿児島県","jp_add_1":"指宿市","jp_add_2":"西方"},"8910304":{"post_code":"8910304","prefecture":"KAGOSHIMA KEN","city":"IBUSUKI SHI","town":"10603-11015)","perfecture_jp":"鹿児島県","jp_add_1":"指宿市","jp_add_2":"東方"},"8910404":{"post_code":"8910404","prefecture":"KAGOSHIMA KEN","city":"IBUSUKI SHI","town":"HIGASHIKATA(SONOTA)","perfecture_jp":"鹿児島県","jp_add_1":"指宿市","jp_add_2":"東方"},"8910405":{"post_code":"8910405","prefecture":"KAGOSHIMA KEN","city":"IBUSUKI SHI","town":"MINATO","perfecture_jp":"鹿児島県","jp_add_1":"指宿市","jp_add_2":"湊"},"8910502":{"post_code":"8910502","prefecture":"KAGOSHIMA KEN","city":"IBUSUKI SHI","town":"YAMAGAWA ASAHICHO","perfecture_jp":"鹿児島県","jp_add_1":"指宿市","jp_add_2":"山川朝日町"},"8910507":{"post_code":"8910507","prefecture":"KAGOSHIMA KEN","city":"IBUSUKI SHI","town":"YAMAGAWA IRIFUNECHO","perfecture_jp":"鹿児島県","jp_add_1":"指宿市","jp_add_2":"山川入船町"},"8910614":{"post_code":"8910614","prefecture":"KAGOSHIMA KEN","city":"IBUSUKI SHI","town":"YAMAGAWA OYAMA(1400-1717-BAN)","perfecture_jp":"鹿児島県","jp_add_1":"指宿市","jp_add_2":"山川大山"},"8910514":{"post_code":"8910514","prefecture":"KAGOSHIMA KEN","city":"IBUSUKI SHI","town":"YAMAGAWA OYAMA(SONOTA)","perfecture_jp":"鹿児島県","jp_add_1":"指宿市","jp_add_2":"山川大山"},"8910513":{"post_code":"8910513","prefecture":"KAGOSHIMA KEN","city":"IBUSUKI SHI","town":"YAMAGAWA OKACHIYOGAMIZU","perfecture_jp":"鹿児島県","jp_add_1":"指宿市","jp_add_2":"山川岡児ケ水"},"8910515":{"post_code":"8910515","prefecture":"KAGOSHIMA KEN","city":"IBUSUKI SHI","town":"YAMAGAWA OGAWA","perfecture_jp":"鹿児島県","jp_add_1":"指宿市","jp_add_2":"山川小川"},"8910506":{"post_code":"8910506","prefecture":"KAGOSHIMA KEN","city":"IBUSUKI SHI","town":"YAMAGAWA KINSEICHO","perfecture_jp":"鹿児島県","jp_add_1":"指宿市","jp_add_2":"山川金生町"},"8910503":{"post_code":"8910503","prefecture":"KAGOSHIMA KEN","city":"IBUSUKI SHI","town":"YAMAGAWA SHIOMICHO","perfecture_jp":"鹿児島県","jp_add_1":"指宿市","jp_add_2":"山川潮見町"},"8910501":{"post_code":"8910501","prefecture":"KAGOSHIMA KEN","city":"IBUSUKI SHI","town":"YAMAGAWA SHINEICHO","perfecture_jp":"鹿児島県","jp_add_1":"指宿市","jp_add_2":"山川新栄町"},"8910504":{"post_code":"8910504","prefecture":"KAGOSHIMA KEN","city":"IBUSUKI SHI","town":"YAMAGAWA SHINSEICHO","perfecture_jp":"鹿児島県","jp_add_1":"指宿市","jp_add_2":"山川新生町"},"8910621":{"post_code":"8910621","prefecture":"KAGOSHIMA KEN","city":"IBUSUKI SHI","town":"YAMAGAWA TOSHINAGA","perfecture_jp":"鹿児島県","jp_add_1":"指宿市","jp_add_2":"山川利永"},"8910516":{"post_code":"8910516","prefecture":"KAGOSHIMA KEN","city":"IBUSUKI SHI","town":"YAMAGAWA NARIKAWA","perfecture_jp":"鹿児島県","jp_add_1":"指宿市","jp_add_2":"山川成川"},"8910512":{"post_code":"8910512","prefecture":"KAGOSHIMA KEN","city":"IBUSUKI SHI","town":"YAMAGAWA HAMACHIYOGAMIZU","perfecture_jp":"鹿児島県","jp_add_1":"指宿市","jp_add_2":"山川浜児ケ水"},"8910511":{"post_code":"8910511","prefecture":"KAGOSHIMA KEN","city":"IBUSUKI SHI","town":"YAMAGAWA FUKUMOTO","perfecture_jp":"鹿児島県","jp_add_1":"指宿市","jp_add_2":"山川福元"},"8910505":{"post_code":"8910505","prefecture":"KAGOSHIMA KEN","city":"IBUSUKI SHI","town":"YAMAGAWA YAMASHITACHO","perfecture_jp":"鹿児島県","jp_add_1":"指宿市","jp_add_2":"山川山下町"},"8910406":{"post_code":"8910406","prefecture":"KAGOSHIMA KEN","city":"IBUSUKI SHI","town":"YUNOHAMA","perfecture_jp":"鹿児島県","jp_add_1":"指宿市","jp_add_2":"湯の浜"},"8913100":{"post_code":"8913100","prefecture":"KAGOSHIMA KEN","city":"NISHINOMOTE SHI","town":"IKANIKEISAIGANAIBAAI","perfecture_jp":"鹿児島県","jp_add_1":"西之表市","jp_add_2":""},"8913432":{"post_code":"8913432","prefecture":"KAGOSHIMA KEN","city":"NISHINOMOTE SHI","town":"ANJO","perfecture_jp":"鹿児島県","jp_add_1":"西之表市","jp_add_2":"安城"},"8913102":{"post_code":"8913102","prefecture":"KAGOSHIMA KEN","city":"NISHINOMOTE SHI","town":"ANNO(1-3048.4901-4930-BANCHI)","perfecture_jp":"鹿児島県","jp_add_1":"西之表市","jp_add_2":"安納"},"8913202":{"post_code":"8913202","prefecture":"KAGOSHIMA KEN","city":"NISHINOMOTE SHI","town":"ANNO(SONOTA)","perfecture_jp":"鹿児島県","jp_add_1":"西之表市","jp_add_2":"安納"},"8913114":{"post_code":"8913114","prefecture":"KAGOSHIMA KEN","city":"NISHINOMOTE SHI","town":"IKEDA","perfecture_jp":"鹿児島県","jp_add_1":"西之表市","jp_add_2":"池田"},"8913221":{"post_code":"8913221","prefecture":"KAGOSHIMA KEN","city":"NISHINOMOTE SHI","town":"ISEKI","perfecture_jp":"鹿児島県","jp_add_1":"西之表市","jp_add_2":"伊関"},"8913116":{"post_code":"8913116","prefecture":"KAGOSHIMA KEN","city":"NISHINOMOTE SHI","town":"KAMOMECHO","perfecture_jp":"鹿児島県","jp_add_1":"西之表市","jp_add_2":"鴨女町"},"8913222":{"post_code":"8913222","prefecture":"KAGOSHIMA KEN","city":"NISHINOMOTE SHI","town":"KUNIGAMI","perfecture_jp":"鹿児島県","jp_add_1":"西之表市","jp_add_2":"国上"},"8913103":{"post_code":"8913103","prefecture":"KAGOSHIMA KEN","city":"NISHINOMOTE SHI","town":"GENNA","perfecture_jp":"鹿児島県","jp_add_1":"西之表市","jp_add_2":"現和"},"8913112":{"post_code":"8913112","prefecture":"KAGOSHIMA KEN","city":"NISHINOMOTE SHI","town":"SAKAEMACHI","perfecture_jp":"鹿児島県","jp_add_1":"西之表市","jp_add_2":"栄町"},"8913117":{"post_code":"8913117","prefecture":"KAGOSHIMA KEN","city":"NISHINOMOTE SHI","town":"SAKURAGAOKA","perfecture_jp":"鹿児島県","jp_add_1":"西之表市","jp_add_2":"桜が丘"},"8913104":{"post_code":"8913104","prefecture":"KAGOSHIMA KEN","city":"NISHINOMOTE SHI","town":"SUMIYOSHI","perfecture_jp":"鹿児島県","jp_add_1":"西之表市","jp_add_2":"住吉"},"8913115":{"post_code":"8913115","prefecture":"KAGOSHIMA KEN","city":"NISHINOMOTE SHI","town":"TENJINCHO","perfecture_jp":"鹿児島県","jp_add_1":"西之表市","jp_add_2":"天神町"},"8913101":{"post_code":"8913101","prefecture":"KAGOSHIMA KEN","city":"NISHINOMOTE SHI","town":"NISHINOMOTE","perfecture_jp":"鹿児島県","jp_add_1":"西之表市","jp_add_2":"西之表"},"8913111":{"post_code":"8913111","prefecture":"KAGOSHIMA KEN","city":"NISHINOMOTE SHI","town":"NISHIMACHI","perfecture_jp":"鹿児島県","jp_add_1":"西之表市","jp_add_2":"西町"},"8913113":{"post_code":"8913113","prefecture":"KAGOSHIMA KEN","city":"NISHINOMOTE SHI","town":"HIGASHIMACHI","perfecture_jp":"鹿児島県","jp_add_1":"西之表市","jp_add_2":"東町"},"8913431":{"post_code":"8913431","prefecture":"KAGOSHIMA KEN","city":"NISHINOMOTE SHI","town":"FURUTA","perfecture_jp":"鹿児島県","jp_add_1":"西之表市","jp_add_2":"古田"},"8913118":{"post_code":"8913118","prefecture":"KAGOSHIMA KEN","city":"NISHINOMOTE SHI","town":"MAGESHIMA","perfecture_jp":"鹿児島県","jp_add_1":"西之表市","jp_add_2":"馬毛島"},"8912100":{"post_code":"8912100","prefecture":"KAGOSHIMA KEN","city":"TARUMIZU SHI","town":"IKANIKEISAIGANAIBAAI","perfecture_jp":"鹿児島県","jp_add_1":"垂水市","jp_add_2":""},"8912125":{"post_code":"8912125","prefecture":"KAGOSHIMA KEN","city":"TARUMIZU SHI","town":"ASAHIMACHI","perfecture_jp":"鹿児島県","jp_add_1":"垂水市","jp_add_2":"旭町"},"8912103":{"post_code":"8912103","prefecture":"KAGOSHIMA KEN","city":"TARUMIZU SHI","town":"ICHIKI","perfecture_jp":"鹿児島県","jp_add_1":"垂水市","jp_add_2":"市木"},"8912101":{"post_code":"8912101","prefecture":"KAGOSHIMA KEN","city":"TARUMIZU SHI","town":"KAIGATA","perfecture_jp":"鹿児島県","jp_add_1":"垂水市","jp_add_2":"海潟"},"8912122":{"post_code":"8912122","prefecture":"KAGOSHIMA KEN","city":"TARUMIZU SHI","town":"KAMMACHI","perfecture_jp":"鹿児島県","jp_add_1":"垂水市","jp_add_2":"上町"},"8912124":{"post_code":"8912124","prefecture":"KAGOSHIMA KEN","city":"TARUMIZU SHI","town":"KINKOCHO","perfecture_jp":"鹿児島県","jp_add_1":"垂水市","jp_add_2":"錦江町"},"8912116":{"post_code":"8912116","prefecture":"KAGOSHIMA KEN","city":"TARUMIZU SHI","town":"KUNUGIBARU","perfecture_jp":"鹿児島県","jp_add_1":"垂水市","jp_add_2":"柊原"},"8912121":{"post_code":"8912121","prefecture":"KAGOSHIMA KEN","city":"TARUMIZU SHI","town":"SAKAEMACHI","perfecture_jp":"鹿児島県","jp_add_1":"垂水市","jp_add_2":"栄町"},"8912117":{"post_code":"8912117","prefecture":"KAGOSHIMA KEN","city":"TARUMIZU SHI","town":"SHIOSAICHO","perfecture_jp":"鹿児島県","jp_add_1":"垂水市","jp_add_2":"潮彩町"},"8912127":{"post_code":"8912127","prefecture":"KAGOSHIMA KEN","city":"TARUMIZU SHI","town":"SHIMOMIYACHO","perfecture_jp":"鹿児島県","jp_add_1":"垂水市","jp_add_2":"下宮町"},"8912114":{"post_code":"8912114","prefecture":"KAGOSHIMA KEN","city":"TARUMIZU SHI","town":"SHINJO","perfecture_jp":"鹿児島県","jp_add_1":"垂水市","jp_add_2":"新城"},"8912111":{"post_code":"8912111","prefecture":"KAGOSHIMA KEN","city":"TARUMIZU SHI","town":"SHIMMIDO","perfecture_jp":"鹿児島県","jp_add_1":"垂水市","jp_add_2":"新御堂"},"8912113":{"post_code":"8912113","prefecture":"KAGOSHIMA KEN","city":"TARUMIZU SHI","town":"TAKAJO","perfecture_jp":"鹿児島県","jp_add_1":"垂水市","jp_add_2":"高城"},"8912104":{"post_code":"8912104","prefecture":"KAGOSHIMA KEN","city":"TARUMIZU SHI","town":"TAGAMI","perfecture_jp":"鹿児島県","jp_add_1":"垂水市","jp_add_2":"田神"},"8912106":{"post_code":"8912106","prefecture":"KAGOSHIMA KEN","city":"TARUMIZU SHI","town":"CHUOCHO","perfecture_jp":"鹿児島県","jp_add_1":"垂水市","jp_add_2":"中央町"},"8912102":{"post_code":"8912102","prefecture":"KAGOSHIMA KEN","city":"TARUMIZU SHI","town":"NAKAMATA","perfecture_jp":"鹿児島県","jp_add_1":"垂水市","jp_add_2":"中俣"},"8912115":{"post_code":"8912115","prefecture":"KAGOSHIMA KEN","city":"TARUMIZU SHI","town":"HAMABIRA","perfecture_jp":"鹿児島県","jp_add_1":"垂水市","jp_add_2":"浜平"},"8912112":{"post_code":"8912112","prefecture":"KAGOSHIMA KEN","city":"TARUMIZU SHI","town":"HONJO","perfecture_jp":"鹿児島県","jp_add_1":"垂水市","jp_add_2":"本城"},"8912123":{"post_code":"8912123","prefecture":"KAGOSHIMA KEN","city":"TARUMIZU SHI","town":"HOMMACHI","perfecture_jp":"鹿児島県","jp_add_1":"垂水市","jp_add_2":"本町"},"8912105":{"post_code":"8912105","prefecture":"KAGOSHIMA KEN","city":"TARUMIZU SHI","town":"MATSUBARACHO","perfecture_jp":"鹿児島県","jp_add_1":"垂水市","jp_add_2":"松原町"},"8912126":{"post_code":"8912126","prefecture":"KAGOSHIMA KEN","city":"TARUMIZU SHI","town":"MINAMIMATSUBARACHO","perfecture_jp":"鹿児島県","jp_add_1":"垂水市","jp_add_2":"南松原町"},"8910705":{"post_code":"8910705","prefecture":"KAGOSHIMA KEN","city":"MINAMIKYUSHU SHI","town":"EICHO KAMIBEPPU","perfecture_jp":"鹿児島県","jp_add_1":"南九州市","jp_add_2":"頴娃町上別府"},"8910701":{"post_code":"8910701","prefecture":"KAGOSHIMA KEN","city":"MINAMIKYUSHU SHI","town":"EICHO KORI","perfecture_jp":"鹿児島県","jp_add_1":"南九州市","jp_add_2":"頴娃町郡"},"8910703":{"post_code":"8910703","prefecture":"KAGOSHIMA KEN","city":"MINAMIKYUSHU SHI","town":"EICHO GORYO","perfecture_jp":"鹿児島県","jp_add_1":"南九州市","jp_add_2":"頴娃町御領"},"8910704":{"post_code":"8910704","prefecture":"KAGOSHIMA KEN","city":"MINAMIKYUSHU SHI","town":"EICHO BEPPU","perfecture_jp":"鹿児島県","jp_add_1":"南九州市","jp_add_2":"頴娃町別府"},"8910702":{"post_code":"8910702","prefecture":"KAGOSHIMA KEN","city":"MINAMIKYUSHU SHI","town":"EICHO MAKINOCHI","perfecture_jp":"鹿児島県","jp_add_1":"南九州市","jp_add_2":"頴娃町牧之内"},"8910911":{"post_code":"8910911","prefecture":"KAGOSHIMA KEN","city":"MINAMIKYUSHU SHI","town":"CHIRANCHO SHIOYA","perfecture_jp":"鹿児島県","jp_add_1":"南九州市","jp_add_2":"知覧町塩屋"},"8910912":{"post_code":"8910912","prefecture":"KAGOSHIMA KEN","city":"MINAMIKYUSHU SHI","town":"CHIRANCHO MINAMIBEPPU","perfecture_jp":"鹿児島県","jp_add_1":"南九州市","jp_add_2":"知覧町南別府"},"8915200":{"post_code":"8915200","prefecture":"KAGOSHIMA KEN","city":"KAGOSHIMA GUN TOSHIMA MURA","town":"IKANIKEISAIGANAIBAAI","perfecture_jp":"鹿児島県","jp_add_1":"鹿児島郡十島村","jp_add_2":""},"8915204":{"post_code":"8915204","prefecture":"KAGOSHIMA KEN","city":"KAGOSHIMA GUN TOSHIMA MURA","town":"AKUSEKIJIMA","perfecture_jp":"鹿児島県","jp_add_1":"鹿児島郡十島村","jp_add_2":"悪石島"},"8915101":{"post_code":"8915101","prefecture":"KAGOSHIMA KEN","city":"KAGOSHIMA GUN TOSHIMA MURA","town":"KUCHINOSHIMA","perfecture_jp":"鹿児島県","jp_add_1":"鹿児島郡十島村","jp_add_2":"口之島"},"8915205":{"post_code":"8915205","prefecture":"KAGOSHIMA KEN","city":"KAGOSHIMA GUN TOSHIMA MURA","town":"KODAKARAJIMA","perfecture_jp":"鹿児島県","jp_add_1":"鹿児島郡十島村","jp_add_2":"小宝島"},"8915203":{"post_code":"8915203","prefecture":"KAGOSHIMA KEN","city":"KAGOSHIMA GUN TOSHIMA MURA","town":"SUWANOSEJIMA","perfecture_jp":"鹿児島県","jp_add_1":"鹿児島郡十島村","jp_add_2":"諏訪之瀬島"},"8915202":{"post_code":"8915202","prefecture":"KAGOSHIMA KEN","city":"KAGOSHIMA GUN TOSHIMA MURA","town":"TAIRAJIMA","perfecture_jp":"鹿児島県","jp_add_1":"鹿児島郡十島村","jp_add_2":"平島"},"8915301":{"post_code":"8915301","prefecture":"KAGOSHIMA KEN","city":"KAGOSHIMA GUN TOSHIMA MURA","town":"TAKARAJIMA","perfecture_jp":"鹿児島県","jp_add_1":"鹿児島郡十島村","jp_add_2":"宝島"},"8915201":{"post_code":"8915201","prefecture":"KAGOSHIMA KEN","city":"KAGOSHIMA GUN TOSHIMA MURA","town":"NAKANOSHIMA","perfecture_jp":"鹿児島県","jp_add_1":"鹿児島郡十島村","jp_add_2":"中之島"},"8913600":{"post_code":"8913600","prefecture":"KAGOSHIMA KEN","city":"KUMAGE GUN NAKATANE CHO","town":"IKANIKEISAIGANAIBAAI","perfecture_jp":"鹿児島県","jp_add_1":"熊毛郡中種子町","jp_add_2":""},"8913606":{"post_code":"8913606","prefecture":"KAGOSHIMA KEN","city":"KUMAGE GUN NAKATANE CHO","town":"SAKAI","perfecture_jp":"鹿児島県","jp_add_1":"熊毛郡中種子町","jp_add_2":"坂井"},"8913607":{"post_code":"8913607","prefecture":"KAGOSHIMA KEN","city":"KUMAGE GUN NAKATANE CHO","town":"TASHIMA","perfecture_jp":"鹿児島県","jp_add_1":"熊毛郡中種子町","jp_add_2":"田島"},"8913601":{"post_code":"8913601","prefecture":"KAGOSHIMA KEN","city":"KUMAGE GUN NAKATANE CHO","town":"NOKAN","perfecture_jp":"鹿児島県","jp_add_1":"熊毛郡中種子町","jp_add_2":"納官"},"8913604":{"post_code":"8913604","prefecture":"KAGOSHIMA KEN","city":"KUMAGE GUN NAKATANE CHO","town":"NOMA","perfecture_jp":"鹿児島県","jp_add_1":"熊毛郡中種子町","jp_add_2":"野間"},"8913602":{"post_code":"8913602","prefecture":"KAGOSHIMA KEN","city":"KUMAGE GUN NAKATANE CHO","town":"MAKIGAWA","perfecture_jp":"鹿児島県","jp_add_1":"熊毛郡中種子町","jp_add_2":"牧川"},"8913603":{"post_code":"8913603","prefecture":"KAGOSHIMA KEN","city":"KUMAGE GUN NAKATANE CHO","town":"MASUDA","perfecture_jp":"鹿児島県","jp_add_1":"熊毛郡中種子町","jp_add_2":"増田"},"8913605":{"post_code":"8913605","prefecture":"KAGOSHIMA KEN","city":"KUMAGE GUN NAKATANE CHO","town":"YUKU","perfecture_jp":"鹿児島県","jp_add_1":"熊毛郡中種子町","jp_add_2":"油久"},"8913700":{"post_code":"8913700","prefecture":"KAGOSHIMA KEN","city":"KUMAGE GUN MINAMITANE CHO","town":"IKANIKEISAIGANAIBAAI","perfecture_jp":"鹿児島県","jp_add_1":"熊毛郡南種子町","jp_add_2":""},"8913703":{"post_code":"8913703","prefecture":"KAGOSHIMA KEN","city":"KUMAGE GUN MINAMITANE CHO","town":"KUKINAGA","perfecture_jp":"鹿児島県","jp_add_1":"熊毛郡南種子町","jp_add_2":"茎永"},"8913706":{"post_code":"8913706","prefecture":"KAGOSHIMA KEN","city":"KUMAGE GUN MINAMITANE CHO","town":"SHIMAMA","perfecture_jp":"鹿児島県","jp_add_1":"熊毛郡南種子町","jp_add_2":"島間"},"8913701":{"post_code":"8913701","prefecture":"KAGOSHIMA KEN","city":"KUMAGE GUN MINAMITANE CHO","town":"NAKANOKAMI","perfecture_jp":"鹿児島県","jp_add_1":"熊毛郡南種子町","jp_add_2":"中之上"},"8913704":{"post_code":"8913704","prefecture":"KAGOSHIMA KEN","city":"KUMAGE GUN MINAMITANE CHO","town":"NAKANOSHIMO","perfecture_jp":"鹿児島県","jp_add_1":"熊毛郡南種子町","jp_add_2":"中之下"},"8913705":{"post_code":"8913705","prefecture":"KAGOSHIMA KEN","city":"KUMAGE GUN MINAMITANE CHO","town":"NISHINO","perfecture_jp":"鹿児島県","jp_add_1":"熊毛郡南種子町","jp_add_2":"西之"},"8913702":{"post_code":"8913702","prefecture":"KAGOSHIMA KEN","city":"KUMAGE GUN MINAMITANE CHO","town":"HIRAYAMA","perfecture_jp":"鹿児島県","jp_add_1":"熊毛郡南種子町","jp_add_2":"平山"},"8914200":{"post_code":"8914200","prefecture":"KAGOSHIMA KEN","city":"KUMAGE GUN YAKUSHIMA CHO","town":"IKANIKEISAIGANAIBAAI","perfecture_jp":"鹿児島県","jp_add_1":"熊毛郡屋久島町","jp_add_2":""},"8914311":{"post_code":"8914311","prefecture":"KAGOSHIMA KEN","city":"KUMAGE GUN YAKUSHIMA CHO","town":"AMBO","perfecture_jp":"鹿児島県","jp_add_1":"熊毛郡屋久島町","jp_add_2":"安房"},"8914203":{"post_code":"8914203","prefecture":"KAGOSHIMA KEN","city":"KUMAGE GUN YAKUSHIMA CHO","town":"ISSO","perfecture_jp":"鹿児島県","jp_add_1":"熊毛郡屋久島町","jp_add_2":"一湊"},"8914404":{"post_code":"8914404","prefecture":"KAGOSHIMA KEN","city":"KUMAGE GUN YAKUSHIMA CHO","town":"ONOAIDA","perfecture_jp":"鹿児島県","jp_add_1":"熊毛郡屋久島町","jp_add_2":"尾之間"},"8914206":{"post_code":"8914206","prefecture":"KAGOSHIMA KEN","city":"KUMAGE GUN YAKUSHIMA CHO","town":"KUSUGAWA","perfecture_jp":"鹿児島県","jp_add_1":"熊毛郡屋久島町","jp_add_2":"楠川"},"8914208":{"post_code":"8914208","prefecture":"KAGOSHIMA KEN","city":"KUMAGE GUN YAKUSHIMA CHO","town":"KUCHIERABUJIMA","perfecture_jp":"鹿児島県","jp_add_1":"熊毛郡屋久島町","jp_add_2":"口永良部島"},"8914409":{"post_code":"8914409","prefecture":"KAGOSHIMA KEN","city":"KUMAGE GUN YAKUSHIMA CHO","town":"KURIO","perfecture_jp":"鹿児島県","jp_add_1":"熊毛郡屋久島町","jp_add_2":"栗生"},"8914405":{"post_code":"8914405","prefecture":"KAGOSHIMA KEN","city":"KUMAGE GUN YAKUSHIMA CHO","town":"KOSHIMA","perfecture_jp":"鹿児島県","jp_add_1":"熊毛郡屋久島町","jp_add_2":"小島"},"8914207":{"post_code":"8914207","prefecture":"KAGOSHIMA KEN","city":"KUMAGE GUN YAKUSHIMA CHO","town":"KOSEDA","perfecture_jp":"鹿児島県","jp_add_1":"熊毛郡屋久島町","jp_add_2":"小瀬田"},"8914204":{"post_code":"8914204","prefecture":"KAGOSHIMA KEN","city":"KUMAGE GUN YAKUSHIMA CHO","town":"SHITOGO","perfecture_jp":"鹿児島県","jp_add_1":"熊毛郡屋久島町","jp_add_2":"志戸子"},"8914201":{"post_code":"8914201","prefecture":"KAGOSHIMA KEN","city":"KUMAGE GUN YAKUSHIMA CHO","town":"NAGATA","perfecture_jp":"鹿児島県","jp_add_1":"熊毛郡屋久島町","jp_add_2":"永田"},"8914408":{"post_code":"8914408","prefecture":"KAGOSHIMA KEN","city":"KUMAGE GUN YAKUSHIMA CHO","town":"NAKAMA","perfecture_jp":"鹿児島県","jp_add_1":"熊毛郡屋久島町","jp_add_2":"中間"},"8914403":{"post_code":"8914403","prefecture":"KAGOSHIMA KEN","city":"KUMAGE GUN YAKUSHIMA CHO","town":"HARA","perfecture_jp":"鹿児島県","jp_add_1":"熊毛郡屋久島町","jp_add_2":"原"},"8914406":{"post_code":"8914406","prefecture":"KAGOSHIMA KEN","city":"KUMAGE GUN YAKUSHIMA CHO","town":"HIRAUCHI","perfecture_jp":"鹿児島県","jp_add_1":"熊毛郡屋久島町","jp_add_2":"平内"},"8914312":{"post_code":"8914312","prefecture":"KAGOSHIMA KEN","city":"KUMAGE GUN YAKUSHIMA CHO","town":"FUNAYUKI","perfecture_jp":"鹿児島県","jp_add_1":"熊毛郡屋久島町","jp_add_2":"船行"},"8914205":{"post_code":"8914205","prefecture":"KAGOSHIMA KEN","city":"KUMAGE GUN YAKUSHIMA CHO","town":"MIYANORA","perfecture_jp":"鹿児島県","jp_add_1":"熊毛郡屋久島町","jp_add_2":"宮之浦"},"8914401":{"post_code":"8914401","prefecture":"KAGOSHIMA KEN","city":"KUMAGE GUN YAKUSHIMA CHO","town":"MUGIO(TAKABIRA)","perfecture_jp":"鹿児島県","jp_add_1":"熊毛郡屋久島町","jp_add_2":"麦生"},"8914402":{"post_code":"8914402","prefecture":"KAGOSHIMA KEN","city":"KUMAGE GUN YAKUSHIMA CHO","town":"MUGIO(SONOTA)","perfecture_jp":"鹿児島県","jp_add_1":"熊毛郡屋久島町","jp_add_2":"麦生"},"8914407":{"post_code":"8914407","prefecture":"KAGOSHIMA KEN","city":"KUMAGE GUN YAKUSHIMA CHO","town":"YUDOMARI","perfecture_jp":"鹿児島県","jp_add_1":"熊毛郡屋久島町","jp_add_2":"湯泊"},"8914202":{"post_code":"8914202","prefecture":"KAGOSHIMA KEN","city":"KUMAGE GUN YAKUSHIMA CHO","town":"YOSHIDA","perfecture_jp":"鹿児島県","jp_add_1":"熊毛郡屋久島町","jp_add_2":"吉田"},"8916200":{"post_code":"8916200","prefecture":"KAGOSHIMA KEN","city":"OSHIMA GUN KIKAI CHO","town":"IKANIKEISAIGANAIBAAI","perfecture_jp":"鹿児島県","jp_add_1":"大島郡喜界町","jp_add_2":""},"8916201":{"post_code":"8916201","prefecture":"KAGOSHIMA KEN","city":"OSHIMA GUN KIKAI CHO","town":"AKAREN","perfecture_jp":"鹿児島県","jp_add_1":"大島郡喜界町","jp_add_2":"赤連"},"8916162":{"post_code":"8916162","prefecture":"KAGOSHIMA KEN","city":"OSHIMA GUN KIKAI CHO","town":"ADEN","perfecture_jp":"鹿児島県","jp_add_1":"大島郡喜界町","jp_add_2":"阿伝"},"8916231":{"post_code":"8916231","prefecture":"KAGOSHIMA KEN","city":"OSHIMA GUN KIKAI CHO","town":"ARAKI","perfecture_jp":"鹿児島県","jp_add_1":"大島郡喜界町","jp_add_2":"荒木"},"8916221":{"post_code":"8916221","prefecture":"KAGOSHIMA KEN","city":"OSHIMA GUN KIKAI CHO","town":"IKEJI","perfecture_jp":"鹿児島県","jp_add_1":"大島郡喜界町","jp_add_2":"池治"},"8916217":{"post_code":"8916217","prefecture":"KAGOSHIMA KEN","city":"OSHIMA GUN KIKAI CHO","town":"ISAGO","perfecture_jp":"鹿児島県","jp_add_1":"大島郡喜界町","jp_add_2":"伊砂"},"8916141":{"post_code":"8916141","prefecture":"KAGOSHIMA KEN","city":"OSHIMA GUN KIKAI CHO","town":"ISANEKU","perfecture_jp":"鹿児島県","jp_add_1":"大島郡喜界町","jp_add_2":"伊実久"},"8916228":{"post_code":"8916228","prefecture":"KAGOSHIMA KEN","city":"OSHIMA GUN KIKAI CHO","town":"URAHARA","perfecture_jp":"鹿児島県","jp_add_1":"大島郡喜界町","jp_add_2":"浦原"},"8916213":{"post_code":"8916213","prefecture":"KAGOSHIMA KEN","city":"OSHIMA GUN KIKAI CHO","town":"OASATO","perfecture_jp":"鹿児島県","jp_add_1":"大島郡喜界町","jp_add_2":"大朝戸"},"8916142":{"post_code":"8916142","prefecture":"KAGOSHIMA KEN","city":"OSHIMA GUN KIKAI CHO","town":"ONOTSU","perfecture_jp":"鹿児島県","jp_add_1":"大島郡喜界町","jp_add_2":"小野津"},"8916161":{"post_code":"8916161","prefecture":"KAGOSHIMA KEN","city":"OSHIMA GUN KIKAI CHO","town":"KADON","perfecture_jp":"鹿児島県","jp_add_1":"大島郡喜界町","jp_add_2":"嘉鈍"},"8916233":{"post_code":"8916233","prefecture":"KAGOSHIMA KEN","city":"OSHIMA GUN KIKAI CHO","town":"KAMIKATETSU","perfecture_jp":"鹿児島県","jp_add_1":"大島郡喜界町","jp_add_2":"上嘉鉄"},"8916227":{"post_code":"8916227","prefecture":"KAGOSHIMA KEN","city":"OSHIMA GUN KIKAI CHO","town":"KAWAMINE","perfecture_jp":"鹿児島県","jp_add_1":"大島郡喜界町","jp_add_2":"川嶺"},"8916224":{"post_code":"8916224","prefecture":"KAGOSHIMA KEN","city":"OSHIMA GUN KIKAI CHO","town":"GUSUKU","perfecture_jp":"鹿児島県","jp_add_1":"大島郡喜界町","jp_add_2":"城久"},"8916164":{"post_code":"8916164","prefecture":"KAGOSHIMA KEN","city":"OSHIMA GUN KIKAI CHO","town":"KERAJI","perfecture_jp":"鹿児島県","jp_add_1":"大島郡喜界町","jp_add_2":"花良治"},"8916163":{"post_code":"8916163","prefecture":"KAGOSHIMA KEN","city":"OSHIMA GUN KIKAI CHO","town":"KERAJI(GAMO)","perfecture_jp":"鹿児島県","jp_add_1":"大島郡喜界町","jp_add_2":"花良治"},"8916216":{"post_code":"8916216","prefecture":"KAGOSHIMA KEN","city":"OSHIMA GUN KIKAI CHO","town":"SAKAMINE","perfecture_jp":"鹿児島県","jp_add_1":"大島郡喜界町","jp_add_2":"坂嶺"},"8916229":{"post_code":"8916229","prefecture":"KAGOSHIMA KEN","city":"OSHIMA GUN KIKAI CHO","town":"SAKIYAMA","perfecture_jp":"鹿児島県","jp_add_1":"大島郡喜界町","jp_add_2":"先山"},"8916144":{"post_code":"8916144","prefecture":"KAGOSHIMA KEN","city":"OSHIMA GUN KIKAI CHO","town":"SADEKU","perfecture_jp":"鹿児島県","jp_add_1":"大島郡喜界町","jp_add_2":"佐手久"},"8916151":{"post_code":"8916151","prefecture":"KAGOSHIMA KEN","city":"OSHIMA GUN KIKAI CHO","town":"SHIOMICHI","perfecture_jp":"鹿児島県","jp_add_1":"大島郡喜界町","jp_add_2":"塩道"},"8916143":{"post_code":"8916143","prefecture":"KAGOSHIMA KEN","city":"OSHIMA GUN KIKAI CHO","town":"SHITOKE","perfecture_jp":"鹿児島県","jp_add_1":"大島郡喜界町","jp_add_2":"志戸桶"},"8916222":{"post_code":"8916222","prefecture":"KAGOSHIMA KEN","city":"OSHIMA GUN KIKAI CHO","town":"SHIMANAKA","perfecture_jp":"鹿児島県","jp_add_1":"大島郡喜界町","jp_add_2":"島中"},"8916154":{"post_code":"8916154","prefecture":"KAGOSHIMA KEN","city":"OSHIMA GUN KIKAI CHO","town":"SHIRAMIZU","perfecture_jp":"鹿児島県","jp_add_1":"大島郡喜界町","jp_add_2":"白水"},"8916152":{"post_code":"8916152","prefecture":"KAGOSHIMA KEN","city":"OSHIMA GUN KIKAI CHO","town":"SOMACHI","perfecture_jp":"鹿児島県","jp_add_1":"大島郡喜界町","jp_add_2":"早町"},"8916223":{"post_code":"8916223","prefecture":"KAGOSHIMA KEN","city":"OSHIMA GUN KIKAI CHO","town":"TAKIGAWA","perfecture_jp":"鹿児島県","jp_add_1":"大島郡喜界町","jp_add_2":"滝川"},"8916232":{"post_code":"8916232","prefecture":"KAGOSHIMA KEN","city":"OSHIMA GUN KIKAI CHO","town":"TEKUZUKU","perfecture_jp":"鹿児島県","jp_add_1":"大島郡喜界町","jp_add_2":"手久津久"},"8916215":{"post_code":"8916215","prefecture":"KAGOSHIMA KEN","city":"OSHIMA GUN KIKAI CHO","town":"NAKAGUMA","perfecture_jp":"鹿児島県","jp_add_1":"大島郡喜界町","jp_add_2":"中熊"},"8916212":{"post_code":"8916212","prefecture":"KAGOSHIMA KEN","city":"OSHIMA GUN KIKAI CHO","town":"NAKAGUMA(SAKINAI)","perfecture_jp":"鹿児島県","jp_add_1":"大島郡喜界町","jp_add_2":"中熊"},"8916203":{"post_code":"8916203","prefecture":"KAGOSHIMA KEN","city":"OSHIMA GUN KIKAI CHO","town":"NAKASATO","perfecture_jp":"鹿児島県","jp_add_1":"大島郡喜界町","jp_add_2":"中里"},"8916211":{"post_code":"8916211","prefecture":"KAGOSHIMA KEN","city":"OSHIMA GUN KIKAI CHO","town":"NAKAMA","perfecture_jp":"鹿児島県","jp_add_1":"大島郡喜界町","jp_add_2":"中間"},"8916153":{"post_code":"8916153","prefecture":"KAGOSHIMA KEN","city":"OSHIMA GUN KIKAI CHO","town":"NAGAMINE","perfecture_jp":"鹿児島県","jp_add_1":"大島郡喜界町","jp_add_2":"長嶺"},"8916214":{"post_code":"8916214","prefecture":"KAGOSHIMA KEN","city":"OSHIMA GUN KIKAI CHO","town":"NISHIME","perfecture_jp":"鹿児島県","jp_add_1":"大島郡喜界町","jp_add_2":"西目"},"8916226":{"post_code":"8916226","prefecture":"KAGOSHIMA KEN","city":"OSHIMA GUN KIKAI CHO","town":"HASATO","perfecture_jp":"鹿児島県","jp_add_1":"大島郡喜界町","jp_add_2":"羽里"},"8916225":{"post_code":"8916225","prefecture":"KAGOSHIMA KEN","city":"OSHIMA GUN KIKAI CHO","town":"YAMADA","perfecture_jp":"鹿児島県","jp_add_1":"大島郡喜界町","jp_add_2":"山田"},"8916202":{"post_code":"8916202","prefecture":"KAGOSHIMA KEN","city":"OSHIMA GUN KIKAI CHO","town":"WAN","perfecture_jp":"鹿児島県","jp_add_1":"大島郡喜界町","jp_add_2":"湾"},"8917100":{"post_code":"8917100","prefecture":"KAGOSHIMA KEN","city":"OSHIMA GUN TOKUNOSHIMA CHO","town":"IKANIKEISAIGANAIBAAI","perfecture_jp":"鹿児島県","jp_add_1":"大島郡徳之島町","jp_add_2":""},"8917116":{"post_code":"8917116","prefecture":"KAGOSHIMA KEN","city":"OSHIMA GUN TOKUNOSHIMA CHO","town":"ASAHIGAOKA","perfecture_jp":"鹿児島県","jp_add_1":"大島郡徳之島町","jp_add_2":"旭ケ丘"},"8917114":{"post_code":"8917114","prefecture":"KAGOSHIMA KEN","city":"OSHIMA GUN TOKUNOSHIMA CHO","town":"INOKAWA","perfecture_jp":"鹿児島県","jp_add_1":"大島郡徳之島町","jp_add_2":"井之川"},"8917104":{"post_code":"8917104","prefecture":"KAGOSHIMA KEN","city":"OSHIMA GUN TOKUNOSHIMA CHO","town":"OMO","perfecture_jp":"鹿児島県","jp_add_1":"大島郡徳之島町","jp_add_2":"尾母"},"8917422":{"post_code":"8917422","prefecture":"KAGOSHIMA KEN","city":"OSHIMA GUN TOKUNOSHIMA CHO","town":"KANAMI","perfecture_jp":"鹿児島県","jp_add_1":"大島郡徳之島町","jp_add_2":"金見"},"8917113":{"post_code":"8917113","prefecture":"KAGOSHIMA KEN","city":"OSHIMA GUN TOKUNOSHIMA CHO","town":"KAMINOMINE","perfecture_jp":"鹿児島県","jp_add_1":"大島郡徳之島町","jp_add_2":"神之嶺"},"8917101":{"post_code":"8917101","prefecture":"KAGOSHIMA KEN","city":"OSHIMA GUN TOKUNOSHIMA CHO","town":"KAMETSU","perfecture_jp":"鹿児島県","jp_add_1":"大島郡徳之島町","jp_add_2":"亀津"},"8917102":{"post_code":"8917102","prefecture":"KAGOSHIMA KEN","city":"OSHIMA GUN TOKUNOSHIMA CHO","town":"KAMETOKU","perfecture_jp":"鹿児島県","jp_add_1":"大島郡徳之島町","jp_add_2":"亀徳"},"8917425":{"post_code":"8917425","prefecture":"KAGOSHIMA KEN","city":"OSHIMA GUN TOKUNOSHIMA CHO","town":"KEDOKU","perfecture_jp":"鹿児島県","jp_add_1":"大島郡徳之島町","jp_add_2":"花徳"},"8917423":{"post_code":"8917423","prefecture":"KAGOSHIMA KEN","city":"OSHIMA GUN TOKUNOSHIMA CHO","town":"SAN","perfecture_jp":"鹿児島県","jp_add_1":"大島郡徳之島町","jp_add_2":"山"},"8917115":{"post_code":"8917115","prefecture":"KAGOSHIMA KEN","city":"OSHIMA GUN TOKUNOSHIMA CHO","town":"SHIMOKUSHI","perfecture_jp":"鹿児島県","jp_add_1":"大島郡徳之島町","jp_add_2":"下久志"},"8917112":{"post_code":"8917112","prefecture":"KAGOSHIMA KEN","city":"OSHIMA GUN TOKUNOSHIMA CHO","town":"SHODA","perfecture_jp":"鹿児島県","jp_add_1":"大島郡徳之島町","jp_add_2":"諸田"},"8917105":{"post_code":"8917105","prefecture":"KAGOSHIMA KEN","city":"OSHIMA GUN TOKUNOSHIMA CHO","town":"SHIRAI","perfecture_jp":"鹿児島県","jp_add_1":"大島郡徳之島町","jp_add_2":"白井"},"8917421":{"post_code":"8917421","prefecture":"KAGOSHIMA KEN","city":"OSHIMA GUN TOKUNOSHIMA CHO","town":"TETE","perfecture_jp":"鹿児島県","jp_add_1":"大島郡徳之島町","jp_add_2":"手々"},"8917111":{"post_code":"8917111","prefecture":"KAGOSHIMA KEN","city":"OSHIMA GUN TOKUNOSHIMA CHO","town":"TOKUWASE","perfecture_jp":"鹿児島県","jp_add_1":"大島郡徳之島町","jp_add_2":"徳和瀬"},"8917424":{"post_code":"8917424","prefecture":"KAGOSHIMA KEN","city":"OSHIMA GUN TOKUNOSHIMA CHO","town":"TODOROKI","perfecture_jp":"鹿児島県","jp_add_1":"大島郡徳之島町","jp_add_2":"轟木"},"8917426":{"post_code":"8917426","prefecture":"KAGOSHIMA KEN","city":"OSHIMA GUN TOKUNOSHIMA CHO","town":"BOMA","perfecture_jp":"鹿児島県","jp_add_1":"大島郡徳之島町","jp_add_2":"母間"},"8917103":{"post_code":"8917103","prefecture":"KAGOSHIMA KEN","city":"OSHIMA GUN TOKUNOSHIMA CHO","town":"MINAMIHARA","perfecture_jp":"鹿児島県","jp_add_1":"大島郡徳之島町","jp_add_2":"南原"},"8917600":{"post_code":"8917600","prefecture":"KAGOSHIMA KEN","city":"OSHIMA GUN AMAGI CHO","town":"IKANIKEISAIGANAIBAAI","perfecture_jp":"鹿児島県","jp_add_1":"大島郡天城町","jp_add_2":""},"8917605":{"post_code":"8917605","prefecture":"KAGOSHIMA KEN","city":"OSHIMA GUN AMAGI CHO","town":"ASAMA","perfecture_jp":"鹿児島県","jp_add_1":"大島郡天城町","jp_add_2":"浅間"},"8917611":{"post_code":"8917611","prefecture":"KAGOSHIMA KEN","city":"OSHIMA GUN AMAGI CHO","town":"AMAGI","perfecture_jp":"鹿児島県","jp_add_1":"大島郡天城町","jp_add_2":"天城"},"8917622":{"post_code":"8917622","prefecture":"KAGOSHIMA KEN","city":"OSHIMA GUN AMAGI CHO","town":"OTSUKAWA","perfecture_jp":"鹿児島県","jp_add_1":"大島郡天城町","jp_add_2":"大津川"},"8917603":{"post_code":"8917603","prefecture":"KAGOSHIMA KEN","city":"OSHIMA GUN AMAGI CHO","town":"OKAZEN","perfecture_jp":"鹿児島県","jp_add_1":"大島郡天城町","jp_add_2":"岡前"},"8917621":{"post_code":"8917621","prefecture":"KAGOSHIMA KEN","city":"OSHIMA GUN AMAGI CHO","town":"KANEKU","perfecture_jp":"鹿児島県","jp_add_1":"大島郡天城町","jp_add_2":"兼久"},"8917623":{"post_code":"8917623","prefecture":"KAGOSHIMA KEN","city":"OSHIMA GUN AMAGI CHO","town":"SETAKI","perfecture_jp":"鹿児島県","jp_add_1":"大島郡天城町","jp_add_2":"瀬滝"},"8917624":{"post_code":"8917624","prefecture":"KAGOSHIMA KEN","city":"OSHIMA GUN AMAGI CHO","town":"TOBE","perfecture_jp":"鹿児島県","jp_add_1":"大島郡天城町","jp_add_2":"当部"},"8917731":{"post_code":"8917731","prefecture":"KAGOSHIMA KEN","city":"OSHIMA GUN AMAGI CHO","town":"NISHIAGINA","perfecture_jp":"鹿児島県","jp_add_1":"大島郡天城町","jp_add_2":"西阿木名"},"8917612":{"post_code":"8917612","prefecture":"KAGOSHIMA KEN","city":"OSHIMA GUN AMAGI CHO","town":"HETONO","perfecture_jp":"鹿児島県","jp_add_1":"大島郡天城町","jp_add_2":"平土野"},"8917604":{"post_code":"8917604","prefecture":"KAGOSHIMA KEN","city":"OSHIMA GUN AMAGI CHO","town":"MAENO","perfecture_jp":"鹿児島県","jp_add_1":"大島郡天城町","jp_add_2":"前野"},"8917602":{"post_code":"8917602","prefecture":"KAGOSHIMA KEN","city":"OSHIMA GUN AMAGI CHO","town":"MATSUBARA","perfecture_jp":"鹿児島県","jp_add_1":"大島郡天城町","jp_add_2":"松原"},"8917601":{"post_code":"8917601","prefecture":"KAGOSHIMA KEN","city":"OSHIMA GUN AMAGI CHO","town":"YONAMA","perfecture_jp":"鹿児島県","jp_add_1":"大島郡天城町","jp_add_2":"与名間"},"8918300":{"post_code":"8918300","prefecture":"KAGOSHIMA KEN","city":"OSHIMA GUN ISEN CHO","town":"IKANIKEISAIGANAIBAAI","perfecture_jp":"鹿児島県","jp_add_1":"大島郡伊仙町","jp_add_2":""},"8918322":{"post_code":"8918322","prefecture":"KAGOSHIMA KEN","city":"OSHIMA GUN ISEN CHO","town":"AGON","perfecture_jp":"鹿児島県","jp_add_1":"大島郡伊仙町","jp_add_2":"阿権"},"8918221":{"post_code":"8918221","prefecture":"KAGOSHIMA KEN","city":"OSHIMA GUN ISEN CHO","town":"ASAN(799-NO1-867-BANCHI)","perfecture_jp":"鹿児島県","jp_add_1":"大島郡伊仙町","jp_add_2":"阿三"},"8918321":{"post_code":"8918321","prefecture":"KAGOSHIMA KEN","city":"OSHIMA GUN ISEN CHO","town":"ASAN(SONOTA)","perfecture_jp":"鹿児島県","jp_add_1":"大島郡伊仙町","jp_add_2":"阿三"},"8918201":{"post_code":"8918201","prefecture":"KAGOSHIMA KEN","city":"OSHIMA GUN ISEN CHO","town":"ISEN","perfecture_jp":"鹿児島県","jp_add_1":"大島郡伊仙町","jp_add_2":"伊仙"},"8918324":{"post_code":"8918324","prefecture":"KAGOSHIMA KEN","city":"OSHIMA GUN ISEN CHO","town":"ITOKINA","perfecture_jp":"鹿児島県","jp_add_1":"大島郡伊仙町","jp_add_2":"糸木名"},"8918327":{"post_code":"8918327","prefecture":"KAGOSHIMA KEN","city":"OSHIMA GUN ISEN CHO","town":"INUTABU","perfecture_jp":"鹿児島県","jp_add_1":"大島郡伊仙町","jp_add_2":"犬田布"},"8918114":{"post_code":"8918114","prefecture":"KAGOSHIMA KEN","city":"OSHIMA GUN ISEN CHO","town":"OMONAWA","perfecture_jp":"鹿児島県","jp_add_1":"大島郡伊仙町","jp_add_2":"面縄"},"8918111":{"post_code":"8918111","prefecture":"KAGOSHIMA KEN","city":"OSHIMA GUN ISEN CHO","town":"KINEN","perfecture_jp":"鹿児島県","jp_add_1":"大島郡伊仙町","jp_add_2":"喜念"},"8918323":{"post_code":"8918323","prefecture":"KAGOSHIMA KEN","city":"OSHIMA GUN ISEN CHO","town":"KINOKO","perfecture_jp":"鹿児島県","jp_add_1":"大島郡伊仙町","jp_add_2":"木之香"},"8918216":{"post_code":"8918216","prefecture":"KAGOSHIMA KEN","city":"OSHIMA GUN ISEN CHO","town":"KEMBUKU(416-516-BANCHI)","perfecture_jp":"鹿児島県","jp_add_1":"大島郡伊仙町","jp_add_2":"検福"},"8918116":{"post_code":"8918116","prefecture":"KAGOSHIMA KEN","city":"OSHIMA GUN ISEN CHO","town":"KEMBUKU(SONOTA)","perfecture_jp":"鹿児島県","jp_add_1":"大島郡伊仙町","jp_add_2":"検福"},"8918329":{"post_code":"8918329","prefecture":"KAGOSHIMA KEN","city":"OSHIMA GUN ISEN CHO","town":"KOJIMA","perfecture_jp":"鹿児島県","jp_add_1":"大島郡伊仙町","jp_add_2":"小島"},"8918328":{"post_code":"8918328","prefecture":"KAGOSHIMA KEN","city":"OSHIMA GUN ISEN CHO","town":"SAKIBARU","perfecture_jp":"鹿児島県","jp_add_1":"大島郡伊仙町","jp_add_2":"崎原"},"8918112":{"post_code":"8918112","prefecture":"KAGOSHIMA KEN","city":"OSHIMA GUN ISEN CHO","town":"SABEN","perfecture_jp":"鹿児島県","jp_add_1":"大島郡伊仙町","jp_add_2":"佐弁"},"8918117":{"post_code":"8918117","prefecture":"KAGOSHIMA KEN","city":"OSHIMA GUN ISEN CHO","town":"NAKAYAMA","perfecture_jp":"鹿児島県","jp_add_1":"大島郡伊仙町","jp_add_2":"中山"},"8918326":{"post_code":"8918326","prefecture":"KAGOSHIMA KEN","city":"OSHIMA GUN ISEN CHO","town":"BANE","perfecture_jp":"鹿児島県","jp_add_1":"大島郡伊仙町","jp_add_2":"馬根"},"8918115":{"post_code":"8918115","prefecture":"KAGOSHIMA KEN","city":"OSHIMA GUN ISEN CHO","town":"FURUSATO","perfecture_jp":"鹿児島県","jp_add_1":"大島郡伊仙町","jp_add_2":"古里"},"8918113":{"post_code":"8918113","prefecture":"KAGOSHIMA KEN","city":"OSHIMA GUN ISEN CHO","town":"METEGU","perfecture_jp":"鹿児島県","jp_add_1":"大島郡伊仙町","jp_add_2":"目手久"},"8918325":{"post_code":"8918325","prefecture":"KAGOSHIMA KEN","city":"OSHIMA GUN ISEN CHO","town":"YAEZAO","perfecture_jp":"鹿児島県","jp_add_1":"大島郡伊仙町","jp_add_2":"八重竿"},"8919100":{"post_code":"8919100","prefecture":"KAGOSHIMA KEN","city":"OSHIMA GUN WADOMARI CHO","town":"IKANIKEISAIGANAIBAAI","perfecture_jp":"鹿児島県","jp_add_1":"大島郡和泊町","jp_add_2":""},"8919114":{"post_code":"8919114","prefecture":"KAGOSHIMA KEN","city":"OSHIMA GUN WADOMARI CHO","town":"AZEFU","perfecture_jp":"鹿児島県","jp_add_1":"大島郡和泊町","jp_add_2":"畦布"},"8919115":{"post_code":"8919115","prefecture":"KAGOSHIMA KEN","city":"OSHIMA GUN WADOMARI CHO","town":"INOBE","perfecture_jp":"鹿児島県","jp_add_1":"大島郡和泊町","jp_add_2":"伊延"},"8919116":{"post_code":"8919116","prefecture":"KAGOSHIMA KEN","city":"OSHIMA GUN WADOMARI CHO","town":"UETETECHINA","perfecture_jp":"鹿児島県","jp_add_1":"大島郡和泊町","jp_add_2":"上手々知名"},"8919131":{"post_code":"8919131","prefecture":"KAGOSHIMA KEN","city":"OSHIMA GUN WADOMARI CHO","town":"UCHIJIRO","perfecture_jp":"鹿児島県","jp_add_1":"大島郡和泊町","jp_add_2":"内城"},"8919125":{"post_code":"8919125","prefecture":"KAGOSHIMA KEN","city":"OSHIMA GUN WADOMARI CHO","town":"OJIRO","perfecture_jp":"鹿児島県","jp_add_1":"大島郡和泊町","jp_add_2":"大城"},"8919102":{"post_code":"8919102","prefecture":"KAGOSHIMA KEN","city":"OSHIMA GUN WADOMARI CHO","town":"KIBIRU","perfecture_jp":"鹿児島県","jp_add_1":"大島郡和泊町","jp_add_2":"喜美留"},"8919101":{"post_code":"8919101","prefecture":"KAGOSHIMA KEN","city":"OSHIMA GUN WADOMARI CHO","town":"KUNIGAMI","perfecture_jp":"鹿児島県","jp_add_1":"大島郡和泊町","jp_add_2":"国頭"},"8919132":{"post_code":"8919132","prefecture":"KAGOSHIMA KEN","city":"OSHIMA GUN WADOMARI CHO","town":"GORAN","perfecture_jp":"鹿児島県","jp_add_1":"大島郡和泊町","jp_add_2":"後蘭"},"8919136":{"post_code":"8919136","prefecture":"KAGOSHIMA KEN","city":"OSHIMA GUN WADOMARI CHO","town":"SENA","perfecture_jp":"鹿児島県","jp_add_1":"大島郡和泊町","jp_add_2":"瀬名"},"8919133":{"post_code":"8919133","prefecture":"KAGOSHIMA KEN","city":"OSHIMA GUN WADOMARI CHO","town":"TANIYAMA","perfecture_jp":"鹿児島県","jp_add_1":"大島郡和泊町","jp_add_2":"谷山"},"8919122":{"post_code":"8919122","prefecture":"KAGOSHIMA KEN","city":"OSHIMA GUN WADOMARI CHO","town":"TAMAJIRO","perfecture_jp":"鹿児島県","jp_add_1":"大島郡和泊町","jp_add_2":"玉城"},"8919103":{"post_code":"8919103","prefecture":"KAGOSHIMA KEN","city":"OSHIMA GUN WADOMARI CHO","town":"DEGI","perfecture_jp":"鹿児島県","jp_add_1":"大島郡和泊町","jp_add_2":"出花"},"8919111":{"post_code":"8919111","prefecture":"KAGOSHIMA KEN","city":"OSHIMA GUN WADOMARI CHO","town":"TEDECHINA","perfecture_jp":"鹿児島県","jp_add_1":"大島郡和泊町","jp_add_2":"手々知名"},"8919135":{"post_code":"8919135","prefecture":"KAGOSHIMA KEN","city":"OSHIMA GUN WADOMARI CHO","town":"NAGAMINE","perfecture_jp":"鹿児島県","jp_add_1":"大島郡和泊町","jp_add_2":"永嶺"},"8919134":{"post_code":"8919134","prefecture":"KAGOSHIMA KEN","city":"OSHIMA GUN WADOMARI CHO","town":"NISHI","perfecture_jp":"鹿児島県","jp_add_1":"大島郡和泊町","jp_add_2":"仁志"},"8919104":{"post_code":"8919104","prefecture":"KAGOSHIMA KEN","city":"OSHIMA GUN WADOMARI CHO","town":"NISHIBARU","perfecture_jp":"鹿児島県","jp_add_1":"大島郡和泊町","jp_add_2":"西原"},"8919121":{"post_code":"8919121","prefecture":"KAGOSHIMA KEN","city":"OSHIMA GUN WADOMARI CHO","town":"NEORI","perfecture_jp":"鹿児島県","jp_add_1":"大島郡和泊町","jp_add_2":"根折"},"8919124":{"post_code":"8919124","prefecture":"KAGOSHIMA KEN","city":"OSHIMA GUN WADOMARI CHO","town":"FURUSATO","perfecture_jp":"鹿児島県","jp_add_1":"大島郡和泊町","jp_add_2":"古里"},"8919123":{"post_code":"8919123","prefecture":"KAGOSHIMA KEN","city":"OSHIMA GUN WADOMARI CHO","town":"MINAKAWA","perfecture_jp":"鹿児島県","jp_add_1":"大島郡和泊町","jp_add_2":"皆川"},"8919113":{"post_code":"8919113","prefecture":"KAGOSHIMA KEN","city":"OSHIMA GUN WADOMARI CHO","town":"WA","perfecture_jp":"鹿児島県","jp_add_1":"大島郡和泊町","jp_add_2":"和"},"8919112":{"post_code":"8919112","prefecture":"KAGOSHIMA KEN","city":"OSHIMA GUN WADOMARI CHO","town":"WADOMARI","perfecture_jp":"鹿児島県","jp_add_1":"大島郡和泊町","jp_add_2":"和泊"},"8919200":{"post_code":"8919200","prefecture":"KAGOSHIMA KEN","city":"OSHIMA GUN CHINA CHO","town":"IKANIKEISAIGANAIBAAI","perfecture_jp":"鹿児島県","jp_add_1":"大島郡知名町","jp_add_2":""},"8919206":{"post_code":"8919206","prefecture":"KAGOSHIMA KEN","city":"OSHIMA GUN CHINA CHO","town":"AKAMINE","perfecture_jp":"鹿児島県","jp_add_1":"大島郡知名町","jp_add_2":"赤嶺"},"8919211":{"post_code":"8919211","prefecture":"KAGOSHIMA KEN","city":"OSHIMA GUN CHINA CHO","town":"ASHIKIYORA","perfecture_jp":"鹿児島県","jp_add_1":"大島郡知名町","jp_add_2":"芦清良"},"8919201":{"post_code":"8919201","prefecture":"KAGOSHIMA KEN","city":"OSHIMA GUN CHINA CHO","town":"AMATA","perfecture_jp":"鹿児島県","jp_add_1":"大島郡知名町","jp_add_2":"余多"},"8919221":{"post_code":"8919221","prefecture":"KAGOSHIMA KEN","city":"OSHIMA GUN CHINA CHO","town":"OTSUKAN","perfecture_jp":"鹿児島県","jp_add_1":"大島郡知名町","jp_add_2":"大津勘"},"8919234":{"post_code":"8919234","prefecture":"KAGOSHIMA KEN","city":"OSHIMA GUN CHINA CHO","town":"KAMISHIRO","perfecture_jp":"鹿児島県","jp_add_1":"大島郡知名町","jp_add_2":"上城"},"8919204":{"post_code":"8919204","prefecture":"KAGOSHIMA KEN","city":"OSHIMA GUN CHINA CHO","town":"KAMIHIRAKAWA","perfecture_jp":"鹿児島県","jp_add_1":"大島郡知名町","jp_add_2":"上平川"},"8919205":{"post_code":"8919205","prefecture":"KAGOSHIMA KEN","city":"OSHIMA GUN CHINA CHO","town":"GUSHIKEN","perfecture_jp":"鹿児島県","jp_add_1":"大島郡知名町","jp_add_2":"久志検"},"8919212":{"post_code":"8919212","prefecture":"KAGOSHIMA KEN","city":"OSHIMA GUN CHINA CHO","town":"KURONUKI","perfecture_jp":"鹿児島県","jp_add_1":"大島郡知名町","jp_add_2":"黒貫"},"8919207":{"post_code":"8919207","prefecture":"KAGOSHIMA KEN","city":"OSHIMA GUN CHINA CHO","town":"SAOZU","perfecture_jp":"鹿児島県","jp_add_1":"大島郡知名町","jp_add_2":"竿津"},"8919233":{"post_code":"8919233","prefecture":"KAGOSHIMA KEN","city":"OSHIMA GUN CHINA CHO","town":"SHIMOJIRO","perfecture_jp":"鹿児島県","jp_add_1":"大島郡知名町","jp_add_2":"下城"},"8919203":{"post_code":"8919203","prefecture":"KAGOSHIMA KEN","city":"OSHIMA GUN CHINA CHO","town":"SHIMOHIRAKAWA","perfecture_jp":"鹿児島県","jp_add_1":"大島郡知名町","jp_add_2":"下平川"},"8919232":{"post_code":"8919232","prefecture":"KAGOSHIMA KEN","city":"OSHIMA GUN CHINA CHO","town":"SHINJO","perfecture_jp":"鹿児島県","jp_add_1":"大島郡知名町","jp_add_2":"新城"},"8919223":{"post_code":"8919223","prefecture":"KAGOSHIMA KEN","city":"OSHIMA GUN CHINA CHO","town":"SUMIYOSHI","perfecture_jp":"鹿児島県","jp_add_1":"大島郡知名町","jp_add_2":"住吉"},"8919213":{"post_code":"8919213","prefecture":"KAGOSHIMA KEN","city":"OSHIMA GUN CHINA CHO","town":"SERIKAKU","perfecture_jp":"鹿児島県","jp_add_1":"大島郡知名町","jp_add_2":"瀬利覚"},"8919231":{"post_code":"8919231","prefecture":"KAGOSHIMA KEN","city":"OSHIMA GUN CHINA CHO","town":"TAMINA","perfecture_jp":"鹿児島県","jp_add_1":"大島郡知名町","jp_add_2":"田皆"},"8919214":{"post_code":"8919214","prefecture":"KAGOSHIMA KEN","city":"OSHIMA GUN CHINA CHO","town":"CHINA","perfecture_jp":"鹿児島県","jp_add_1":"大島郡知名町","jp_add_2":"知名"},"8919222":{"post_code":"8919222","prefecture":"KAGOSHIMA KEN","city":"OSHIMA GUN CHINA CHO","town":"TOKUDOKI","perfecture_jp":"鹿児島県","jp_add_1":"大島郡知名町","jp_add_2":"徳時"},"8919224":{"post_code":"8919224","prefecture":"KAGOSHIMA KEN","city":"OSHIMA GUN CHINA CHO","town":"MASANA","perfecture_jp":"鹿児島県","jp_add_1":"大島郡知名町","jp_add_2":"正名"},"8919215":{"post_code":"8919215","prefecture":"KAGOSHIMA KEN","city":"OSHIMA GUN CHINA CHO","town":"YAKOMO","perfecture_jp":"鹿児島県","jp_add_1":"大島郡知名町","jp_add_2":"屋子母"},"8919202":{"post_code":"8919202","prefecture":"KAGOSHIMA KEN","city":"OSHIMA GUN CHINA CHO","town":"YAJA","perfecture_jp":"鹿児島県","jp_add_1":"大島郡知名町","jp_add_2":"屋者"},"8919300":{"post_code":"8919300","prefecture":"KAGOSHIMA KEN","city":"OSHIMA GUN YORON CHO","town":"IKANIKEISAIGANAIBAAI","perfecture_jp":"鹿児島県","jp_add_1":"大島郡与論町","jp_add_2":""},"8919304":{"post_code":"8919304","prefecture":"KAGOSHIMA KEN","city":"OSHIMA GUN YORON CHO","town":"ASATO","perfecture_jp":"鹿児島県","jp_add_1":"大島郡与論町","jp_add_2":"朝戸"},"8919309":{"post_code":"8919309","prefecture":"KAGOSHIMA KEN","city":"OSHIMA GUN YORON CHO","town":"KANO","perfecture_jp":"鹿児島県","jp_add_1":"大島郡与論町","jp_add_2":"叶"},"8919303":{"post_code":"8919303","prefecture":"KAGOSHIMA KEN","city":"OSHIMA GUN YORON CHO","town":"GUSUKU","perfecture_jp":"鹿児島県","jp_add_1":"大島郡与論町","jp_add_2":"城"},"8919301":{"post_code":"8919301","prefecture":"KAGOSHIMA KEN","city":"OSHIMA GUN YORON CHO","town":"CHABANA","perfecture_jp":"鹿児島県","jp_add_1":"大島郡与論町","jp_add_2":"茶花"},"8919308":{"post_code":"8919308","prefecture":"KAGOSHIMA KEN","city":"OSHIMA GUN YORON CHO","town":"NAMA","perfecture_jp":"鹿児島県","jp_add_1":"大島郡与論町","jp_add_2":"那間"},"8919305":{"post_code":"8919305","prefecture":"KAGOSHIMA KEN","city":"OSHIMA GUN YORON CHO","town":"NISHIKU","perfecture_jp":"鹿児島県","jp_add_1":"大島郡与論町","jp_add_2":"西区"},"8919306":{"post_code":"8919306","prefecture":"KAGOSHIMA KEN","city":"OSHIMA GUN YORON CHO","town":"HIGASHIKU","perfecture_jp":"鹿児島県","jp_add_1":"大島郡与論町","jp_add_2":"東区"},"8919307":{"post_code":"8919307","prefecture":"KAGOSHIMA KEN","city":"OSHIMA GUN YORON CHO","town":"FURUSATO","perfecture_jp":"鹿児島県","jp_add_1":"大島郡与論町","jp_add_2":"古里"},"8919302":{"post_code":"8919302","prefecture":"KAGOSHIMA KEN","city":"OSHIMA GUN YORON CHO","town":"RITCHO","perfecture_jp":"鹿児島県","jp_add_1":"大島郡与論町","jp_add_2":"立長"}}