{"8930000":{"post_code":"8930000","prefecture":"KAGOSHIMA KEN","city":"KANOYA SHI","town":"IKANIKEISAIGANAIBAAI","perfecture_jp":"鹿児島県","jp_add_1":"鹿屋市","jp_add_2":""},"8931101":{"post_code":"8931101","prefecture":"KAGOSHIMA KEN","city":"KANOYA SHI","town":"AIRACHO KAMIMYO","perfecture_jp":"鹿児島県","jp_add_1":"鹿屋市","jp_add_2":"吾平町上名"},"8931102":{"post_code":"8931102","prefecture":"KAGOSHIMA KEN","city":"KANOYA SHI","town":"AIRACHO SHIMOMYO","perfecture_jp":"鹿児島県","jp_add_1":"鹿屋市","jp_add_2":"吾平町下名"},"8931103":{"post_code":"8931103","prefecture":"KAGOSHIMA KEN","city":"KANOYA SHI","town":"AIRACHO FUMOTO","perfecture_jp":"鹿児島県","jp_add_1":"鹿屋市","jp_add_2":"吾平町麓"},"8930022":{"post_code":"8930022","prefecture":"KAGOSHIMA KEN","city":"KANOYA SHI","town":"ASAHIBARUCHO","perfecture_jp":"鹿児島県","jp_add_1":"鹿屋市","jp_add_2":"旭原町"},"8930004":{"post_code":"8930004","prefecture":"KAGOSHIMA KEN","city":"KANOYA SHI","town":"ASAHIMACHI","perfecture_jp":"鹿児島県","jp_add_1":"鹿屋市","jp_add_2":"朝日町"},"8930035":{"post_code":"8930035","prefecture":"KAGOSHIMA KEN","city":"KANOYA SHI","town":"IIKUMACHO","perfecture_jp":"鹿児島県","jp_add_1":"鹿屋市","jp_add_2":"飯隈町"},"8930042":{"post_code":"8930042","prefecture":"KAGOSHIMA KEN","city":"KANOYA SHI","town":"IKEZONOCHO","perfecture_jp":"鹿児島県","jp_add_1":"鹿屋市","jp_add_2":"池園町"},"8930057":{"post_code":"8930057","prefecture":"KAGOSHIMA KEN","city":"KANOYA SHI","town":"IMASAKACHO","perfecture_jp":"鹿児島県","jp_add_1":"鹿屋市","jp_add_2":"今坂町"},"8930056":{"post_code":"8930056","prefecture":"KAGOSHIMA KEN","city":"KANOYA SHI","town":"UENOCHO","perfecture_jp":"鹿児島県","jp_add_1":"鹿屋市","jp_add_2":"上野町"},"8930011":{"post_code":"8930011","prefecture":"KAGOSHIMA KEN","city":"KANOYA SHI","town":"UTSUMA","perfecture_jp":"鹿児島県","jp_add_1":"鹿屋市","jp_add_2":"打馬"},"8930012":{"post_code":"8930012","prefecture":"KAGOSHIMA KEN","city":"KANOYA SHI","town":"OJICHO","perfecture_jp":"鹿児島県","jp_add_1":"鹿屋市","jp_add_2":"王子町"},"8930051":{"post_code":"8930051","prefecture":"KAGOSHIMA KEN","city":"KANOYA SHI","town":"OAIRACHO","perfecture_jp":"鹿児島県","jp_add_1":"鹿屋市","jp_add_2":"大姶良町"},"8930067":{"post_code":"8930067","prefecture":"KAGOSHIMA KEN","city":"KANOYA SHI","town":"OURACHO","perfecture_jp":"鹿児島県","jp_add_1":"鹿屋市","jp_add_2":"大浦町"},"8930009":{"post_code":"8930009","prefecture":"KAGOSHIMA KEN","city":"KANOYA SHI","town":"OTEMACHI","perfecture_jp":"鹿児島県","jp_add_1":"鹿屋市","jp_add_2":"大手町"},"8930023":{"post_code":"8930023","prefecture":"KAGOSHIMA KEN","city":"KANOYA SHI","town":"KASANOHARACHO","perfecture_jp":"鹿児島県","jp_add_1":"鹿屋市","jp_add_2":"笠之原町"},"8930131":{"post_code":"8930131","prefecture":"KAGOSHIMA KEN","city":"KANOYA SHI","town":"KAMITAKAKUMACHO","perfecture_jp":"鹿児島県","jp_add_1":"鹿屋市","jp_add_2":"上高隈町"},"8930061":{"post_code":"8930061","prefecture":"KAGOSHIMA KEN","city":"KANOYA SHI","town":"KAMIDANICHO","perfecture_jp":"鹿児島県","jp_add_1":"鹿屋市","jp_add_2":"上谷町"},"8930027":{"post_code":"8930027","prefecture":"KAGOSHIMA KEN","city":"KANOYA SHI","town":"KAMIHARAIGAWACHO","perfecture_jp":"鹿児島県","jp_add_1":"鹿屋市","jp_add_2":"上祓川町"},"8930032":{"post_code":"8930032","prefecture":"KAGOSHIMA KEN","city":"KANOYA SHI","town":"KAWANISHICHO","perfecture_jp":"鹿児島県","jp_add_1":"鹿屋市","jp_add_2":"川西町"},"8930031":{"post_code":"8930031","prefecture":"KAGOSHIMA KEN","city":"KANOYA SHI","town":"KAWAHIGASHICHO","perfecture_jp":"鹿児島県","jp_add_1":"鹿屋市","jp_add_2":"川東町"},"8930007":{"post_code":"8930007","prefecture":"KAGOSHIMA KEN","city":"KANOYA SHI","town":"KITADACHO","perfecture_jp":"鹿児島県","jp_add_1":"鹿屋市","jp_add_2":"北田町"},"8930201":{"post_code":"8930201","prefecture":"KAGOSHIMA KEN","city":"KANOYA SHI","town":"KIHOKUCHO KAMIMOBIKI","perfecture_jp":"鹿児島県","jp_add_1":"鹿屋市","jp_add_2":"輝北町上百引"},"8930202":{"post_code":"8930202","prefecture":"KAGOSHIMA KEN","city":"KANOYA SHI","town":"KIHOKUCHO SHIMOMOBIKI","perfecture_jp":"鹿児島県","jp_add_1":"鹿屋市","jp_add_2":"輝北町下百引"},"8930203":{"post_code":"8930203","prefecture":"KAGOSHIMA KEN","city":"KANOYA SHI","town":"KIHOKUCHO HIRABO","perfecture_jp":"鹿児島県","jp_add_1":"鹿屋市","jp_add_2":"輝北町平房"},"8930005":{"post_code":"8930005","prefecture":"KAGOSHIMA KEN","city":"KANOYA SHI","town":"KYOEICHO","perfecture_jp":"鹿児島県","jp_add_1":"鹿屋市","jp_add_2":"共栄町"},"8931602":{"post_code":"8931602","prefecture":"KAGOSHIMA KEN","city":"KANOYA SHI","town":"KUSHIRACHO ARISATO","perfecture_jp":"鹿児島県","jp_add_1":"鹿屋市","jp_add_2":"串良町有里"},"8931603":{"post_code":"8931603","prefecture":"KAGOSHIMA KEN","city":"KANOYA SHI","town":"KUSHIRACHO OKASAKI","perfecture_jp":"鹿児島県","jp_add_1":"鹿屋市","jp_add_2":"串良町岡崎"},"8931605":{"post_code":"8931605","prefecture":"KAGOSHIMA KEN","city":"KANOYA SHI","town":"KUSHIRACHO KAMIOBARU","perfecture_jp":"鹿児島県","jp_add_1":"鹿屋市","jp_add_2":"串良町上小原"},"8931604":{"post_code":"8931604","prefecture":"KAGOSHIMA KEN","city":"KANOYA SHI","town":"KUSHIRACHO SHIMOBARU","perfecture_jp":"鹿児島県","jp_add_1":"鹿屋市","jp_add_2":"串良町下小原"},"8931601":{"post_code":"8931601","prefecture":"KAGOSHIMA KEN","city":"KANOYA SHI","town":"KUSHIRACHO HOSOYAMADA","perfecture_jp":"鹿児島県","jp_add_1":"鹿屋市","jp_add_2":"串良町細山田"},"8930065":{"post_code":"8930065","prefecture":"KAGOSHIMA KEN","city":"KANOYA SHI","town":"GONOHARACHO","perfecture_jp":"鹿児島県","jp_add_1":"鹿屋市","jp_add_2":"郷之原町"},"8930001":{"post_code":"8930001","prefecture":"KAGOSHIMA KEN","city":"KANOYA SHI","town":"KOSENJOCHO","perfecture_jp":"鹿児島県","jp_add_1":"鹿屋市","jp_add_2":"古前城町"},"8930014":{"post_code":"8930014","prefecture":"KAGOSHIMA KEN","city":"KANOYA SHI","town":"KOTOBUKI","perfecture_jp":"鹿児島県","jp_add_1":"鹿屋市","jp_add_2":"寿"},"8930044":{"post_code":"8930044","prefecture":"KAGOSHIMA KEN","city":"KANOYA SHI","town":"SHISHIMECHO","perfecture_jp":"鹿児島県","jp_add_1":"鹿屋市","jp_add_2":"獅子目町"},"8930132":{"post_code":"8930132","prefecture":"KAGOSHIMA KEN","city":"KANOYA SHI","town":"SHIMOTAKAKUMACHO","perfecture_jp":"鹿児島県","jp_add_1":"鹿屋市","jp_add_2":"下高隈町"},"8930024":{"post_code":"8930024","prefecture":"KAGOSHIMA KEN","city":"KANOYA SHI","town":"SHIMOHARAIGAWACHO","perfecture_jp":"鹿児島県","jp_add_1":"鹿屋市","jp_add_2":"下祓川町"},"8930047":{"post_code":"8930047","prefecture":"KAGOSHIMA KEN","city":"KANOYA SHI","town":"SHIMOHORICHO","perfecture_jp":"鹿児島県","jp_add_1":"鹿屋市","jp_add_2":"下堀町"},"8930016":{"post_code":"8930016","prefecture":"KAGOSHIMA KEN","city":"KANOYA SHI","town":"SHIRASAKICHO","perfecture_jp":"鹿児島県","jp_add_1":"鹿屋市","jp_add_2":"白崎町"},"8930063":{"post_code":"8930063","prefecture":"KAGOSHIMA KEN","city":"KANOYA SHI","town":"SHINEICHO","perfecture_jp":"鹿児島県","jp_add_1":"鹿屋市","jp_add_2":"新栄町"},"8930015":{"post_code":"8930015","prefecture":"KAGOSHIMA KEN","city":"KANOYA SHI","town":"SHINKAWACHO","perfecture_jp":"鹿児島県","jp_add_1":"鹿屋市","jp_add_2":"新川町"},"8930062":{"post_code":"8930062","prefecture":"KAGOSHIMA KEN","city":"KANOYA SHI","town":"SHINSEICHO","perfecture_jp":"鹿児島県","jp_add_1":"鹿屋市","jp_add_2":"新生町"},"8930003":{"post_code":"8930003","prefecture":"KAGOSHIMA KEN","city":"KANOYA SHI","town":"SODACHO","perfecture_jp":"鹿児島県","jp_add_1":"鹿屋市","jp_add_2":"曽田町"},"8930054":{"post_code":"8930054","prefecture":"KAGOSHIMA KEN","city":"KANOYA SHI","town":"TAKASUCHO","perfecture_jp":"鹿児島県","jp_add_1":"鹿屋市","jp_add_2":"高須町"},"8930066":{"post_code":"8930066","prefecture":"KAGOSHIMA KEN","city":"KANOYA SHI","town":"TAKAMAKICHO","perfecture_jp":"鹿児島県","jp_add_1":"鹿屋市","jp_add_2":"高牧町"},"8930037":{"post_code":"8930037","prefecture":"KAGOSHIMA KEN","city":"KANOYA SHI","town":"TASAKICHO","perfecture_jp":"鹿児島県","jp_add_1":"鹿屋市","jp_add_2":"田崎町"},"8930045":{"post_code":"8930045","prefecture":"KAGOSHIMA KEN","city":"KANOYA SHI","town":"TABUCHICHO","perfecture_jp":"鹿児島県","jp_add_1":"鹿屋市","jp_add_2":"田淵町"},"8930052":{"post_code":"8930052","prefecture":"KAGOSHIMA KEN","city":"KANOYA SHI","town":"NAGAOBARUCHO","perfecture_jp":"鹿児島県","jp_add_1":"鹿屋市","jp_add_2":"永小原町"},"8930033":{"post_code":"8930033","prefecture":"KAGOSHIMA KEN","city":"KANOYA SHI","town":"NAGANODACHO","perfecture_jp":"鹿児島県","jp_add_1":"鹿屋市","jp_add_2":"永野田町"},"8930034":{"post_code":"8930034","prefecture":"KAGOSHIMA KEN","city":"KANOYA SHI","town":"NANUKICHO","perfecture_jp":"鹿児島県","jp_add_1":"鹿屋市","jp_add_2":"名貫町"},"8930008":{"post_code":"8930008","prefecture":"KAGOSHIMA KEN","city":"KANOYA SHI","town":"NISHIOTEMACHI","perfecture_jp":"鹿児島県","jp_add_1":"鹿屋市","jp_add_2":"西大手町"},"8930064":{"post_code":"8930064","prefecture":"KAGOSHIMA KEN","city":"KANOYA SHI","town":"NISHIHARA","perfecture_jp":"鹿児島県","jp_add_1":"鹿屋市","jp_add_2":"西原"},"8930025":{"post_code":"8930025","prefecture":"KAGOSHIMA KEN","city":"KANOYA SHI","town":"NISHIHARAIGAWACHO","perfecture_jp":"鹿児島県","jp_add_1":"鹿屋市","jp_add_2":"西祓川町"},"8930055":{"post_code":"8930055","prefecture":"KAGOSHIMA KEN","city":"KANOYA SHI","town":"NOZATOCHO","perfecture_jp":"鹿児島県","jp_add_1":"鹿屋市","jp_add_2":"野里町"},"8930036":{"post_code":"8930036","prefecture":"KAGOSHIMA KEN","city":"KANOYA SHI","town":"HAGITSUKACHO","perfecture_jp":"鹿児島県","jp_add_1":"鹿屋市","jp_add_2":"萩塚町"},"8930053":{"post_code":"8930053","prefecture":"KAGOSHIMA KEN","city":"KANOYA SHI","town":"HAMADACHO","perfecture_jp":"鹿児島県","jp_add_1":"鹿屋市","jp_add_2":"浜田町"},"8930026":{"post_code":"8930026","prefecture":"KAGOSHIMA KEN","city":"KANOYA SHI","town":"HARAIGAWACHO","perfecture_jp":"鹿児島県","jp_add_1":"鹿屋市","jp_add_2":"祓川町"},"8930021":{"post_code":"8930021","prefecture":"KAGOSHIMA KEN","city":"KANOYA SHI","town":"HIGASHIBARUCHO","perfecture_jp":"鹿児島県","jp_add_1":"鹿屋市","jp_add_2":"東原町"},"8930013":{"post_code":"8930013","prefecture":"KAGOSHIMA KEN","city":"KANOYA SHI","town":"FUDAMOTO","perfecture_jp":"鹿児島県","jp_add_1":"鹿屋市","jp_add_2":"札元"},"8930041":{"post_code":"8930041","prefecture":"KAGOSHIMA KEN","city":"KANOYA SHI","town":"HOSHIZUKACHO","perfecture_jp":"鹿児島県","jp_add_1":"鹿屋市","jp_add_2":"星塚町"},"8930002":{"post_code":"8930002","prefecture":"KAGOSHIMA KEN","city":"KANOYA SHI","town":"HOMMACHI","perfecture_jp":"鹿児島県","jp_add_1":"鹿屋市","jp_add_2":"本町"},"8930043":{"post_code":"8930043","prefecture":"KAGOSHIMA KEN","city":"KANOYA SHI","town":"MINAMICHO","perfecture_jp":"鹿児島県","jp_add_1":"鹿屋市","jp_add_2":"南町"},"8930006":{"post_code":"8930006","prefecture":"KAGOSHIMA KEN","city":"KANOYA SHI","town":"MUKAECHO","perfecture_jp":"鹿児島県","jp_add_1":"鹿屋市","jp_add_2":"向江町"},"8930046":{"post_code":"8930046","prefecture":"KAGOSHIMA KEN","city":"KANOYA SHI","town":"YOKOYAMACHO","perfecture_jp":"鹿児島県","jp_add_1":"鹿屋市","jp_add_2":"横山町"},"8931600":{"post_code":"8931600","prefecture":"KAGOSHIMA KEN","city":"KIMOTSUKI GUN HIGASHIKUSHIRA CHO","town":"IKANIKEISAIGANAIBAAI","perfecture_jp":"鹿児島県","jp_add_1":"肝属郡東串良町","jp_add_2":""},"8931612":{"post_code":"8931612","prefecture":"KAGOSHIMA KEN","city":"KIMOTSUKI GUN HIGASHIKUSHIRA CHO","town":"IKENOHARA","perfecture_jp":"鹿児島県","jp_add_1":"肝属郡東串良町","jp_add_2":"池之原"},"8931611":{"post_code":"8931611","prefecture":"KAGOSHIMA KEN","city":"KIMOTSUKI GUN HIGASHIKUSHIRA CHO","town":"IWAHIRO","perfecture_jp":"鹿児島県","jp_add_1":"肝属郡東串良町","jp_add_2":"岩弘"},"8931615":{"post_code":"8931615","prefecture":"KAGOSHIMA KEN","city":"KIMOTSUKI GUN HIGASHIKUSHIRA CHO","town":"KAWAHIGASHI","perfecture_jp":"鹿児島県","jp_add_1":"肝属郡東串良町","jp_add_2":"川東"},"8931613":{"post_code":"8931613","prefecture":"KAGOSHIMA KEN","city":"KIMOTSUKI GUN HIGASHIKUSHIRA CHO","town":"KAWANISHI","perfecture_jp":"鹿児島県","jp_add_1":"肝属郡東串良町","jp_add_2":"川西"},"8931614":{"post_code":"8931614","prefecture":"KAGOSHIMA KEN","city":"KIMOTSUKI GUN HIGASHIKUSHIRA CHO","town":"SHINKAWANISHI","perfecture_jp":"鹿児島県","jp_add_1":"肝属郡東串良町","jp_add_2":"新川西"},"8932300":{"post_code":"8932300","prefecture":"KAGOSHIMA KEN","city":"KIMOTSUKI GUN KINKO CHO","town":"IKANIKEISAIGANAIBAAI","perfecture_jp":"鹿児島県","jp_add_1":"肝属郡錦江町","jp_add_2":""},"8932301":{"post_code":"8932301","prefecture":"KAGOSHIMA KEN","city":"KIMOTSUKI GUN KINKO CHO","town":"KAMIKAWA","perfecture_jp":"鹿児島県","jp_add_1":"肝属郡錦江町","jp_add_2":"神川"},"8932302":{"post_code":"8932302","prefecture":"KAGOSHIMA KEN","city":"KIMOTSUKI GUN KINKO CHO","town":"SHIROMOTO","perfecture_jp":"鹿児島県","jp_add_1":"肝属郡錦江町","jp_add_2":"城元"},"8932402":{"post_code":"8932402","prefecture":"KAGOSHIMA KEN","city":"KIMOTSUKI GUN KINKO CHO","town":"TASHIRO KAWAHARA","perfecture_jp":"鹿児島県","jp_add_1":"肝属郡錦江町","jp_add_2":"田代川原"},"8932401":{"post_code":"8932401","prefecture":"KAGOSHIMA KEN","city":"KIMOTSUKI GUN KINKO CHO","town":"TASHIRO FUMOTO","perfecture_jp":"鹿児島県","jp_add_1":"肝属郡錦江町","jp_add_2":"田代麓"},"8932303":{"post_code":"8932303","prefecture":"KAGOSHIMA KEN","city":"KIMOTSUKI GUN KINKO CHO","town":"BABA","perfecture_jp":"鹿児島県","jp_add_1":"肝属郡錦江町","jp_add_2":"馬場"},"8932500":{"post_code":"8932500","prefecture":"KAGOSHIMA KEN","city":"KIMOTSUKI GUN MINAMIOSUMI CHO","town":"IKANIKEISAIGANAIBAAI","perfecture_jp":"鹿児島県","jp_add_1":"肝属郡南大隅町","jp_add_2":""},"8932601":{"post_code":"8932601","prefecture":"KAGOSHIMA KEN","city":"KIMOTSUKI GUN MINAMIOSUMI CHO","town":"SATA IZASHIKI","perfecture_jp":"鹿児島県","jp_add_1":"肝属郡南大隅町","jp_add_2":"佐多伊座敷"},"8932603":{"post_code":"8932603","prefecture":"KAGOSHIMA KEN","city":"KIMOTSUKI GUN MINAMIOSUMI CHO","town":"SATA KORI","perfecture_jp":"鹿児島県","jp_add_1":"肝属郡南大隅町","jp_add_2":"佐多郡"},"8932602":{"post_code":"8932602","prefecture":"KAGOSHIMA KEN","city":"KIMOTSUKI GUN MINAMIOSUMI CHO","town":"SATA HETSUKA","perfecture_jp":"鹿児島県","jp_add_1":"肝属郡南大隅町","jp_add_2":"佐多辺塚"},"8932604":{"post_code":"8932604","prefecture":"KAGOSHIMA KEN","city":"KIMOTSUKI GUN MINAMIOSUMI CHO","town":"SATA MAGOME","perfecture_jp":"鹿児島県","jp_add_1":"肝属郡南大隅町","jp_add_2":"佐多馬籠"},"8932501":{"post_code":"8932501","prefecture":"KAGOSHIMA KEN","city":"KIMOTSUKI GUN MINAMIOSUMI CHO","town":"NEJIME KAWAKITA","perfecture_jp":"鹿児島県","jp_add_1":"肝属郡南大隅町","jp_add_2":"根占川北"},"8932502":{"post_code":"8932502","prefecture":"KAGOSHIMA KEN","city":"KIMOTSUKI GUN MINAMIOSUMI CHO","town":"NEJIME KAWAMINAMI","perfecture_jp":"鹿児島県","jp_add_1":"肝属郡南大隅町","jp_add_2":"根占川南"},"8932505":{"post_code":"8932505","prefecture":"KAGOSHIMA KEN","city":"KIMOTSUKI GUN MINAMIOSUMI CHO","town":"NEJIME HETA","perfecture_jp":"鹿児島県","jp_add_1":"肝属郡南大隅町","jp_add_2":"根占辺田"},"8932504":{"post_code":"8932504","prefecture":"KAGOSHIMA KEN","city":"KIMOTSUKI GUN MINAMIOSUMI CHO","town":"NEJIME YAMAMOTO","perfecture_jp":"鹿児島県","jp_add_1":"肝属郡南大隅町","jp_add_2":"根占山本"},"8932503":{"post_code":"8932503","prefecture":"KAGOSHIMA KEN","city":"KIMOTSUKI GUN MINAMIOSUMI CHO","town":"NEJIME YOKOBEPPU","perfecture_jp":"鹿児島県","jp_add_1":"肝属郡南大隅町","jp_add_2":"根占横別府"},"8931200":{"post_code":"8931200","prefecture":"KAGOSHIMA KEN","city":"KIMOTSUKI GUN KIMOTSUKI CHO","town":"IKANIKEISAIGANAIBAAI","perfecture_jp":"鹿児島県","jp_add_1":"肝属郡肝付町","jp_add_2":""},"8931203":{"post_code":"8931203","prefecture":"KAGOSHIMA KEN","city":"KIMOTSUKI GUN KIMOTSUKI CHO","town":"USHIRODA","perfecture_jp":"鹿児島県","jp_add_1":"肝属郡肝付町","jp_add_2":"後田"},"8931511":{"post_code":"8931511","prefecture":"KAGOSHIMA KEN","city":"KIMOTSUKI GUN KIMOTSUKI CHO","town":"KISHIRA","perfecture_jp":"鹿児島県","jp_add_1":"肝属郡肝付町","jp_add_2":"岸良"},"8931401":{"post_code":"8931401","prefecture":"KAGOSHIMA KEN","city":"KIMOTSUKI GUN KIMOTSUKI CHO","town":"KITAKATA","perfecture_jp":"鹿児島県","jp_add_1":"肝属郡肝付町","jp_add_2":"北方"},"8931204":{"post_code":"8931204","prefecture":"KAGOSHIMA KEN","city":"KIMOTSUKI GUN KIMOTSUKI CHO","town":"TOMIYAMA","perfecture_jp":"鹿児島県","jp_add_1":"肝属郡肝付町","jp_add_2":"富山"},"8931207":{"post_code":"8931207","prefecture":"KAGOSHIMA KEN","city":"KIMOTSUKI GUN KIMOTSUKI CHO","town":"NIITOMI","perfecture_jp":"鹿児島県","jp_add_1":"肝属郡肝付町","jp_add_2":"新富"},"8931201":{"post_code":"8931201","prefecture":"KAGOSHIMA KEN","city":"KIMOTSUKI GUN KIMOTSUKI CHO","town":"NOSAKI","perfecture_jp":"鹿児島県","jp_add_1":"肝属郡肝付町","jp_add_2":"野崎"},"8931202":{"post_code":"8931202","prefecture":"KAGOSHIMA KEN","city":"KIMOTSUKI GUN KIMOTSUKI CHO","town":"HAMI","perfecture_jp":"鹿児島県","jp_add_1":"肝属郡肝付町","jp_add_2":"波見"},"8931206":{"post_code":"8931206","prefecture":"KAGOSHIMA KEN","city":"KIMOTSUKI GUN KIMOTSUKI CHO","town":"MAEDA","perfecture_jp":"鹿児島県","jp_add_1":"肝属郡肝付町","jp_add_2":"前田"},"8931402":{"post_code":"8931402","prefecture":"KAGOSHIMA KEN","city":"KIMOTSUKI GUN KIMOTSUKI CHO","town":"MINAMIKATA","perfecture_jp":"鹿児島県","jp_add_1":"肝属郡肝付町","jp_add_2":"南方"},"8931205":{"post_code":"8931205","prefecture":"KAGOSHIMA KEN","city":"KIMOTSUKI GUN KIMOTSUKI CHO","town":"MIYAGE","perfecture_jp":"鹿児島県","jp_add_1":"肝属郡肝付町","jp_add_2":"宮下"}}