{"8940000":{"post_code":"8940000","prefecture":"KAGOSHIMA KEN","city":"AMAMI SHI","town":"IKANIKEISAIGANAIBAAI","perfecture_jp":"鹿児島県","jp_add_1":"奄美市","jp_add_2":""},"8940501":{"post_code":"8940501","prefecture":"KAGOSHIMA KEN","city":"AMAMI SHI","town":"KASARICHO USHUKU","perfecture_jp":"鹿児島県","jp_add_1":"奄美市","jp_add_2":"笠利町宇宿"},"8940622":{"post_code":"8940622","prefecture":"KAGOSHIMA KEN","city":"AMAMI SHI","town":"KASARICHO KASARI","perfecture_jp":"鹿児島県","jp_add_1":"奄美市","jp_add_2":"笠利町笠利"},"8940625":{"post_code":"8940625","prefecture":"KAGOSHIMA KEN","city":"AMAMI SHI","town":"KASARICHO KAWAKAMI","perfecture_jp":"鹿児島県","jp_add_1":"奄美市","jp_add_2":"笠利町川上"},"8940507":{"post_code":"8940507","prefecture":"KAGOSHIMA KEN","city":"AMAMI SHI","town":"KASARICHO KISE","perfecture_jp":"鹿児島県","jp_add_1":"奄美市","jp_add_2":"笠利町喜瀬"},"8940511":{"post_code":"8940511","prefecture":"KAGOSHIMA KEN","city":"AMAMI SHI","town":"KASARICHO SATO","perfecture_jp":"鹿児島県","jp_add_1":"奄美市","jp_add_2":"笠利町里"},"8940627":{"post_code":"8940627","prefecture":"KAGOSHIMA KEN","city":"AMAMI SHI","town":"KASARICHO SANI","perfecture_jp":"鹿児島県","jp_add_1":"奄美市","jp_add_2":"笠利町佐仁"},"8940624":{"post_code":"8940624","prefecture":"KAGOSHIMA KEN","city":"AMAMI SHI","town":"KASARICHO SUNO","perfecture_jp":"鹿児島県","jp_add_1":"奄美市","jp_add_2":"笠利町須野"},"8940504":{"post_code":"8940504","prefecture":"KAGOSHIMA KEN","city":"AMAMI SHI","town":"KASARICHO SETSUTA","perfecture_jp":"鹿児島県","jp_add_1":"奄美市","jp_add_2":"笠利町節田"},"8940513":{"post_code":"8940513","prefecture":"KAGOSHIMA KEN","city":"AMAMI SHI","town":"KASARICHO SOTOGANEKU","perfecture_jp":"鹿児島県","jp_add_1":"奄美市","jp_add_2":"笠利町外金久"},"8940505":{"post_code":"8940505","prefecture":"KAGOSHIMA KEN","city":"AMAMI SHI","town":"KASARICHO TAIRA","perfecture_jp":"鹿児島県","jp_add_1":"奄美市","jp_add_2":"笠利町平"},"8940506":{"post_code":"8940506","prefecture":"KAGOSHIMA KEN","city":"AMAMI SHI","town":"KASARICHO TEKEBU","perfecture_jp":"鹿児島県","jp_add_1":"奄美市","jp_add_2":"笠利町手花部"},"8940512":{"post_code":"8940512","prefecture":"KAGOSHIMA KEN","city":"AMAMI SHI","town":"KASARICHO NAKAGANEKU","perfecture_jp":"鹿児島県","jp_add_1":"奄美市","jp_add_2":"笠利町中金久"},"8940623":{"post_code":"8940623","prefecture":"KAGOSHIMA KEN","city":"AMAMI SHI","town":"KASARICHO BERU","perfecture_jp":"鹿児島県","jp_add_1":"奄美市","jp_add_2":"笠利町辺留"},"8940502":{"post_code":"8940502","prefecture":"KAGOSHIMA KEN","city":"AMAMI SHI","town":"KASARICHO MANYA","perfecture_jp":"鹿児島県","jp_add_1":"奄美市","jp_add_2":"笠利町万屋"},"8940626":{"post_code":"8940626","prefecture":"KAGOSHIMA KEN","city":"AMAMI SHI","town":"KASARICHO YANI","perfecture_jp":"鹿児島県","jp_add_1":"奄美市","jp_add_2":"笠利町屋仁"},"8940621":{"post_code":"8940621","prefecture":"KAGOSHIMA KEN","city":"AMAMI SHI","town":"KASARICHO YO","perfecture_jp":"鹿児島県","jp_add_1":"奄美市","jp_add_2":"笠利町用"},"8940508":{"post_code":"8940508","prefecture":"KAGOSHIMA KEN","city":"AMAMI SHI","town":"KASARICHO YOAN","perfecture_jp":"鹿児島県","jp_add_1":"奄美市","jp_add_2":"笠利町用安"},"8940503":{"post_code":"8940503","prefecture":"KAGOSHIMA KEN","city":"AMAMI SHI","town":"KASARICHO WANO","perfecture_jp":"鹿児島県","jp_add_1":"奄美市","jp_add_2":"笠利町和野"},"8941201":{"post_code":"8941201","prefecture":"KAGOSHIMA KEN","city":"AMAMI SHI","town":"SUMIYOCHO ISHIHARA","perfecture_jp":"鹿児島県","jp_add_1":"奄美市","jp_add_2":"住用町石原"},"8941321":{"post_code":"8941321","prefecture":"KAGOSHIMA KEN","city":"AMAMI SHI","town":"SUMIYOCHO ICHI","perfecture_jp":"鹿児島県","jp_add_1":"奄美市","jp_add_2":"住用町市"},"8941203":{"post_code":"8941203","prefecture":"KAGOSHIMA KEN","city":"AMAMI SHI","town":"SUMIYOCHO KAMIYA","perfecture_jp":"鹿児島県","jp_add_1":"奄美市","jp_add_2":"住用町神屋"},"8941115":{"post_code":"8941115","prefecture":"KAGOSHIMA KEN","city":"AMAMI SHI","town":"SUMIYOCHO KAWAUCHI","perfecture_jp":"鹿児島県","jp_add_1":"奄美市","jp_add_2":"住用町川内"},"8941111":{"post_code":"8941111","prefecture":"KAGOSHIMA KEN","city":"AMAMI SHI","town":"SUMIYOCHO GUSUKU","perfecture_jp":"鹿児島県","jp_add_1":"奄美市","jp_add_2":"住用町城"},"8941116":{"post_code":"8941116","prefecture":"KAGOSHIMA KEN","city":"AMAMI SHI","town":"SUMIYOCHO SURIGACHI","perfecture_jp":"鹿児島県","jp_add_1":"奄美市","jp_add_2":"住用町摺勝"},"8941202":{"post_code":"8941202","prefecture":"KAGOSHIMA KEN","city":"AMAMI SHI","town":"SUMIYOCHO NISHINAKAMA","perfecture_jp":"鹿児島県","jp_add_1":"奄美市","jp_add_2":"住用町西仲間"},"8941114":{"post_code":"8941114","prefecture":"KAGOSHIMA KEN","city":"AMAMI SHI","town":"SUMIYOCHO HIGASHINAKAMA","perfecture_jp":"鹿児島県","jp_add_1":"奄美市","jp_add_2":"住用町東仲間"},"8941113":{"post_code":"8941113","prefecture":"KAGOSHIMA KEN","city":"AMAMI SHI","town":"SUMIYOCHO MIZATO","perfecture_jp":"鹿児島県","jp_add_1":"奄美市","jp_add_2":"住用町見里"},"8941205":{"post_code":"8941205","prefecture":"KAGOSHIMA KEN","city":"AMAMI SHI","town":"SUMIYOCHO YAKUGACHI","perfecture_jp":"鹿児島県","jp_add_1":"奄美市","jp_add_2":"住用町役勝"},"8941304":{"post_code":"8941304","prefecture":"KAGOSHIMA KEN","city":"AMAMI SHI","town":"SUMIYOCHO YAMMA(493-592-BANCHI.TODA","perfecture_jp":"鹿児島県","jp_add_1":"奄美市","jp_add_2":"住用町山間"},"8941204":{"post_code":"8941204","prefecture":"KAGOSHIMA KEN","city":"AMAMI SHI","town":"SUMIYOCHO YAMMA(SONOTA)","perfecture_jp":"鹿児島県","jp_add_1":"奄美市","jp_add_2":"住用町山間"},"8941112":{"post_code":"8941112","prefecture":"KAGOSHIMA KEN","city":"AMAMI SHI","town":"SUMIYOCHO WASE","perfecture_jp":"鹿児島県","jp_add_1":"奄美市","jp_add_2":"住用町和瀬"},"8940773":{"post_code":"8940773","prefecture":"KAGOSHIMA KEN","city":"AMAMI SHI","town":"NAZE ASATO","perfecture_jp":"鹿児島県","jp_add_1":"奄美市","jp_add_2":"名瀬朝戸"},"8940043":{"post_code":"8940043","prefecture":"KAGOSHIMA KEN","city":"AMAMI SHI","town":"NAZE ASANI","perfecture_jp":"鹿児島県","jp_add_1":"奄美市","jp_add_2":"名瀬朝仁"},"8940041":{"post_code":"8940041","prefecture":"KAGOSHIMA KEN","city":"AMAMI SHI","town":"NAZE ASANISHIMMACHI","perfecture_jp":"鹿児島県","jp_add_1":"奄美市","jp_add_2":"名瀬朝仁新町"},"8940042":{"post_code":"8940042","prefecture":"KAGOSHIMA KEN","city":"AMAMI SHI","town":"NAZE ASANICHO","perfecture_jp":"鹿児島県","jp_add_1":"奄美市","jp_add_2":"名瀬朝仁町"},"8940061":{"post_code":"8940061","prefecture":"KAGOSHIMA KEN","city":"AMAMI SHI","town":"NAZE ASAHICHO","perfecture_jp":"鹿児島県","jp_add_1":"奄美市","jp_add_2":"名瀬朝日町"},"8940351":{"post_code":"8940351","prefecture":"KAGOSHIMA KEN","city":"AMAMI SHI","town":"NAZE ASHIKEBU","perfecture_jp":"鹿児島県","jp_add_1":"奄美市","jp_add_2":"名瀬芦花部"},"8940002":{"post_code":"8940002","prefecture":"KAGOSHIMA KEN","city":"AMAMI SHI","town":"NAZE ARIYA","perfecture_jp":"鹿児島県","jp_add_1":"奄美市","jp_add_2":"名瀬有屋"},"8940062":{"post_code":"8940062","prefecture":"KAGOSHIMA KEN","city":"AMAMI SHI","town":"NAZE ARIYACHO","perfecture_jp":"鹿児島県","jp_add_1":"奄美市","jp_add_2":"名瀬有屋町"},"8940352":{"post_code":"8940352","prefecture":"KAGOSHIMA KEN","city":"AMAMI SHI","town":"NAZE ARIRA","perfecture_jp":"鹿児島県","jp_add_1":"奄美市","jp_add_2":"名瀬有良"},"8940011":{"post_code":"8940011","prefecture":"KAGOSHIMA KEN","city":"AMAMI SHI","town":"NAZE ANGACHICHO","perfecture_jp":"鹿児島県","jp_add_1":"奄美市","jp_add_2":"名瀬安勝町"},"8940017":{"post_code":"8940017","prefecture":"KAGOSHIMA KEN","city":"AMAMI SHI","town":"NAZE ISHIBASHICHO","perfecture_jp":"鹿児島県","jp_add_1":"奄美市","jp_add_2":"名瀬石橋町"},"8940774":{"post_code":"8940774","prefecture":"KAGOSHIMA KEN","city":"AMAMI SHI","town":"NAZE ITSUBUGACHI","perfecture_jp":"鹿児島県","jp_add_1":"奄美市","jp_add_2":"名瀬伊津部勝"},"8940021":{"post_code":"8940021","prefecture":"KAGOSHIMA KEN","city":"AMAMI SHI","town":"NAZE ITSUBUCHO","perfecture_jp":"鹿児島県","jp_add_1":"奄美市","jp_add_2":"名瀬伊津部町"},"8940024":{"post_code":"8940024","prefecture":"KAGOSHIMA KEN","city":"AMAMI SHI","town":"NAZE INECHO","perfecture_jp":"鹿児島県","jp_add_1":"奄美市","jp_add_2":"名瀬井根町"},"8940034":{"post_code":"8940034","prefecture":"KAGOSHIMA KEN","city":"AMAMI SHI","town":"NAZE IRIFUNECHO","perfecture_jp":"鹿児島県","jp_add_1":"奄美市","jp_add_2":"名瀬入舟町"},"8940108":{"post_code":"8940108","prefecture":"KAGOSHIMA KEN","city":"AMAMI SHI","town":"NAZE URAGAMI(KOMATA)","perfecture_jp":"鹿児島県","jp_add_1":"奄美市","jp_add_2":"名瀬浦上"},"8940008":{"post_code":"8940008","prefecture":"KAGOSHIMA KEN","city":"AMAMI SHI","town":"NAZE URAGAMI(SONOTA)","perfecture_jp":"鹿児島県","jp_add_1":"奄美市","jp_add_2":"名瀬浦上"},"8940068":{"post_code":"8940068","prefecture":"KAGOSHIMA KEN","city":"AMAMI SHI","town":"NAZE URAGAMICHO","perfecture_jp":"鹿児島県","jp_add_1":"奄美市","jp_add_2":"名瀬浦上町"},"8940013":{"post_code":"8940013","prefecture":"KAGOSHIMA KEN","city":"AMAMI SHI","town":"NAZE KASUGACHO","perfecture_jp":"鹿児島県","jp_add_1":"奄美市","jp_add_2":"名瀬春日町"},"8940031":{"post_code":"8940031","prefecture":"KAGOSHIMA KEN","city":"AMAMI SHI","town":"NAZE KANEKUCHO","perfecture_jp":"鹿児島県","jp_add_1":"奄美市","jp_add_2":"名瀬金久町"},"8940022":{"post_code":"8940022","prefecture":"KAGOSHIMA KEN","city":"AMAMI SHI","town":"NAZE KUSATOCHO","perfecture_jp":"鹿児島県","jp_add_1":"奄美市","jp_add_2":"名瀬久里町"},"8940046":{"post_code":"8940046","prefecture":"KAGOSHIMA KEN","city":"AMAMI SHI","town":"NAZE KOSHUKU","perfecture_jp":"鹿児島県","jp_add_1":"奄美市","jp_add_2":"名瀬小宿"},"8940006":{"post_code":"8940006","prefecture":"KAGOSHIMA KEN","city":"AMAMI SHI","town":"NAZE KOHAMACHO","perfecture_jp":"鹿児島県","jp_add_1":"奄美市","jp_add_2":"名瀬小浜町"},"8940012":{"post_code":"8940012","prefecture":"KAGOSHIMA KEN","city":"AMAMI SHI","town":"NAZE KOMATACHO","perfecture_jp":"鹿児島県","jp_add_1":"奄美市","jp_add_2":"名瀬小俣町"},"8940771":{"post_code":"8940771","prefecture":"KAGOSHIMA KEN","city":"AMAMI SHI","town":"NAZE KOMINATO","perfecture_jp":"鹿児島県","jp_add_1":"奄美市","jp_add_2":"名瀬小湊"},"8940025":{"post_code":"8940025","prefecture":"KAGOSHIMA KEN","city":"AMAMI SHI","town":"NAZE SAIWAICHO","perfecture_jp":"鹿児島県","jp_add_1":"奄美市","jp_add_2":"名瀬幸町"},"8940776":{"post_code":"8940776","prefecture":"KAGOSHIMA KEN","city":"AMAMI SHI","town":"NAZE SAKIBARU","perfecture_jp":"鹿児島県","jp_add_1":"奄美市","jp_add_2":"名瀬崎原"},"8940005":{"post_code":"8940005","prefecture":"KAGOSHIMA KEN","city":"AMAMI SHI","town":"NAZE SADAIKUMACHO","perfecture_jp":"鹿児島県","jp_add_1":"奄美市","jp_add_2":"名瀬佐大熊町"},"8940035":{"post_code":"8940035","prefecture":"KAGOSHIMA KEN","city":"AMAMI SHI","town":"NAZE SHIOHAMACHO","perfecture_jp":"鹿児島県","jp_add_1":"奄美市","jp_add_2":"名瀬塩浜町"},"8940027":{"post_code":"8940027","prefecture":"KAGOSHIMA KEN","city":"AMAMI SHI","town":"NAZE SUEHIROCHO","perfecture_jp":"鹿児島県","jp_add_1":"奄美市","jp_add_2":"名瀬末広町"},"8940001":{"post_code":"8940001","prefecture":"KAGOSHIMA KEN","city":"AMAMI SHI","town":"NAZE DAIKUMA","perfecture_jp":"鹿児島県","jp_add_1":"奄美市","jp_add_2":"名瀬大熊"},"8940009":{"post_code":"8940009","prefecture":"KAGOSHIMA KEN","city":"AMAMI SHI","town":"NAZE DAIKUMACHO","perfecture_jp":"鹿児島県","jp_add_1":"奄美市","jp_add_2":"名瀬大熊町"},"8940047":{"post_code":"8940047","prefecture":"KAGOSHIMA KEN","city":"AMAMI SHI","town":"NAZE CHINASE","perfecture_jp":"鹿児島県","jp_add_1":"奄美市","jp_add_2":"名瀬知名瀬"},"8940003":{"post_code":"8940003","prefecture":"KAGOSHIMA KEN","city":"AMAMI SHI","town":"NAZE NAKAGACHI","perfecture_jp":"鹿児島県","jp_add_1":"奄美市","jp_add_2":"名瀬仲勝"},"8940063":{"post_code":"8940063","prefecture":"KAGOSHIMA KEN","city":"AMAMI SHI","town":"NAZE NAKAGACHICHO","perfecture_jp":"鹿児島県","jp_add_1":"奄美市","jp_add_2":"名瀬仲勝町"},"8940023":{"post_code":"8940023","prefecture":"KAGOSHIMA KEN","city":"AMAMI SHI","town":"NAZE NAGATACHO","perfecture_jp":"鹿児島県","jp_add_1":"奄美市","jp_add_2":"名瀬永田町"},"8940036":{"post_code":"8940036","prefecture":"KAGOSHIMA KEN","city":"AMAMI SHI","town":"NAZE NAGAHAMACHO","perfecture_jp":"鹿児島県","jp_add_1":"奄美市","jp_add_2":"名瀬長浜町"},"8940775":{"post_code":"8940775","prefecture":"KAGOSHIMA KEN","city":"AMAMI SHI","town":"NAZE NAZEGACHI","perfecture_jp":"鹿児島県","jp_add_1":"奄美市","jp_add_2":"名瀬名瀬勝"},"8940772":{"post_code":"8940772","prefecture":"KAGOSHIMA KEN","city":"AMAMI SHI","town":"NAZE NISHINAKAGACHI","perfecture_jp":"鹿児島県","jp_add_1":"奄美市","jp_add_2":"名瀬西仲勝"},"8940048":{"post_code":"8940048","prefecture":"KAGOSHIMA KEN","city":"AMAMI SHI","town":"NAZE NESEBU","perfecture_jp":"鹿児島県","jp_add_1":"奄美市","jp_add_2":"名瀬根瀬部"},"8940004":{"post_code":"8940004","prefecture":"KAGOSHIMA KEN","city":"AMAMI SHI","town":"NAZE HATOHAMACHO","perfecture_jp":"鹿児島県","jp_add_1":"奄美市","jp_add_2":"名瀬鳩浜町"},"8940044":{"post_code":"8940044","prefecture":"KAGOSHIMA KEN","city":"AMAMI SHI","town":"NAZE HAMASATOCHO","perfecture_jp":"鹿児島県","jp_add_1":"奄美市","jp_add_2":"名瀬浜里町"},"8940014":{"post_code":"8940014","prefecture":"KAGOSHIMA KEN","city":"AMAMI SHI","town":"NAZE HIRATACHO","perfecture_jp":"鹿児島県","jp_add_1":"奄美市","jp_add_2":"名瀬平田町"},"8940045":{"post_code":"8940045","prefecture":"KAGOSHIMA KEN","city":"AMAMI SHI","town":"NAZE HIRAMATSUCHO","perfecture_jp":"鹿児島県","jp_add_1":"奄美市","jp_add_2":"名瀬平松町"},"8940016":{"post_code":"8940016","prefecture":"KAGOSHIMA KEN","city":"AMAMI SHI","town":"NAZE FURUTACHO","perfecture_jp":"鹿児島県","jp_add_1":"奄美市","jp_add_2":"名瀬古田町"},"8940015":{"post_code":"8940015","prefecture":"KAGOSHIMA KEN","city":"AMAMI SHI","town":"NAZE MANAZUCHO","perfecture_jp":"鹿児島県","jp_add_1":"奄美市","jp_add_2":"名瀬真名津町"},"8940026":{"post_code":"8940026","prefecture":"KAGOSHIMA KEN","city":"AMAMI SHI","town":"NAZE MINATOMACHI","perfecture_jp":"鹿児島県","jp_add_1":"奄美市","jp_add_2":"名瀬港町"},"8940032":{"post_code":"8940032","prefecture":"KAGOSHIMA KEN","city":"AMAMI SHI","town":"NAZE YANAGIMACHI","perfecture_jp":"鹿児島県","jp_add_1":"奄美市","jp_add_2":"名瀬柳町"},"8940033":{"post_code":"8940033","prefecture":"KAGOSHIMA KEN","city":"AMAMI SHI","town":"NAZE YANOWAKICHO","perfecture_jp":"鹿児島県","jp_add_1":"奄美市","jp_add_2":"名瀬矢之脇町"},"8940007":{"post_code":"8940007","prefecture":"KAGOSHIMA KEN","city":"AMAMI SHI","town":"NAZE WAKOCHO","perfecture_jp":"鹿児島県","jp_add_1":"奄美市","jp_add_2":"名瀬和光町"},"8943100":{"post_code":"8943100","prefecture":"KAGOSHIMA KEN","city":"OSHIMA GUN YAMATO SON","town":"IKANIKEISAIGANAIBAAI","perfecture_jp":"鹿児島県","jp_add_1":"大島郡大和村","jp_add_2":""},"8943214":{"post_code":"8943214","prefecture":"KAGOSHIMA KEN","city":"OSHIMA GUN YAMATO SON","town":"IMAZATO","perfecture_jp":"鹿児島県","jp_add_1":"大島郡大和村","jp_add_2":"今里"},"8943107":{"post_code":"8943107","prefecture":"KAGOSHIMA KEN","city":"OSHIMA GUN YAMATO SON","town":"OGANEKU","perfecture_jp":"鹿児島県","jp_add_1":"大島郡大和村","jp_add_2":"大金久"},"8943106":{"post_code":"8943106","prefecture":"KAGOSHIMA KEN","city":"OSHIMA GUN YAMATO SON","town":"ODANA","perfecture_jp":"鹿児島県","jp_add_1":"大島郡大和村","jp_add_2":"大棚"},"8943104":{"post_code":"8943104","prefecture":"KAGOSHIMA KEN","city":"OSHIMA GUN YAMATO SON","town":"ONGACHI","perfecture_jp":"鹿児島県","jp_add_1":"大島郡大和村","jp_add_2":"思勝"},"8943101":{"post_code":"8943101","prefecture":"KAGOSHIMA KEN","city":"OSHIMA GUN YAMATO SON","town":"KUNINAO","perfecture_jp":"鹿児島県","jp_add_1":"大島郡大和村","jp_add_2":"国直"},"8943213":{"post_code":"8943213","prefecture":"KAGOSHIMA KEN","city":"OSHIMA GUN YAMATO SON","town":"SHIDOKAN","perfecture_jp":"鹿児島県","jp_add_1":"大島郡大和村","jp_add_2":"志戸勘"},"8943103":{"post_code":"8943103","prefecture":"KAGOSHIMA KEN","city":"OSHIMA GUN YAMATO SON","town":"TSUNAGU","perfecture_jp":"鹿児島県","jp_add_1":"大島郡大和村","jp_add_2":"津名久"},"8943211":{"post_code":"8943211","prefecture":"KAGOSHIMA KEN","city":"OSHIMA GUN YAMATO SON","town":"TOEN","perfecture_jp":"鹿児島県","jp_add_1":"大島郡大和村","jp_add_2":"戸円"},"8943212":{"post_code":"8943212","prefecture":"KAGOSHIMA KEN","city":"OSHIMA GUN YAMATO SON","town":"NAON","perfecture_jp":"鹿児島県","jp_add_1":"大島郡大和村","jp_add_2":"名音"},"8943105":{"post_code":"8943105","prefecture":"KAGOSHIMA KEN","city":"OSHIMA GUN YAMATO SON","town":"YAMATOHAMA","perfecture_jp":"鹿児島県","jp_add_1":"大島郡大和村","jp_add_2":"大和浜"},"8943102":{"post_code":"8943102","prefecture":"KAGOSHIMA KEN","city":"OSHIMA GUN YAMATO SON","town":"YUWANGAMA","perfecture_jp":"鹿児島県","jp_add_1":"大島郡大和村","jp_add_2":"湯湾釜"},"8943300":{"post_code":"8943300","prefecture":"KAGOSHIMA KEN","city":"OSHIMA GUN UKEN SON","town":"IKANIKEISAIGANAIBAAI","perfecture_jp":"鹿児島県","jp_add_1":"大島郡宇検村","jp_add_2":""},"8943302":{"post_code":"8943302","prefecture":"KAGOSHIMA KEN","city":"OSHIMA GUN UKEN SON","town":"ASHIKEN","perfecture_jp":"鹿児島県","jp_add_1":"大島郡宇検村","jp_add_2":"芦検"},"8943632":{"post_code":"8943632","prefecture":"KAGOSHIMA KEN","city":"OSHIMA GUN UKEN SON","town":"AMURO","perfecture_jp":"鹿児島県","jp_add_1":"大島郡宇検村","jp_add_2":"阿室"},"8943413":{"post_code":"8943413","prefecture":"KAGOSHIMA KEN","city":"OSHIMA GUN UKEN SON","town":"IKEGACHI","perfecture_jp":"鹿児島県","jp_add_1":"大島郡宇検村","jp_add_2":"生勝"},"8943305":{"post_code":"8943305","prefecture":"KAGOSHIMA KEN","city":"OSHIMA GUN UKEN SON","town":"ISHIRA","perfecture_jp":"鹿児島県","jp_add_1":"大島郡宇検村","jp_add_2":"石良"},"8943411":{"post_code":"8943411","prefecture":"KAGOSHIMA KEN","city":"OSHIMA GUN UKEN SON","town":"UKEN","perfecture_jp":"鹿児島県","jp_add_1":"大島郡宇検村","jp_add_2":"宇検"},"8943412":{"post_code":"8943412","prefecture":"KAGOSHIMA KEN","city":"OSHIMA GUN UKEN SON","town":"KUSHI","perfecture_jp":"鹿児島県","jp_add_1":"大島郡宇検村","jp_add_2":"久志"},"8943522":{"post_code":"8943522","prefecture":"KAGOSHIMA KEN","city":"OSHIMA GUN UKEN SON","town":"SANEN","perfecture_jp":"鹿児島県","jp_add_1":"大島郡宇検村","jp_add_2":"佐念"},"8943304":{"post_code":"8943304","prefecture":"KAGOSHIMA KEN","city":"OSHIMA GUN UKEN SON","town":"SUKO","perfecture_jp":"鹿児島県","jp_add_1":"大島郡宇検村","jp_add_2":"須古"},"8943303":{"post_code":"8943303","prefecture":"KAGOSHIMA KEN","city":"OSHIMA GUN UKEN SON","town":"TAKEN","perfecture_jp":"鹿児島県","jp_add_1":"大島郡宇検村","jp_add_2":"田検"},"8943521":{"post_code":"8943521","prefecture":"KAGOSHIMA KEN","city":"OSHIMA GUN UKEN SON","town":"NAGARA","perfecture_jp":"鹿児島県","jp_add_1":"大島郡宇検村","jp_add_2":"名柄"},"8943523":{"post_code":"8943523","prefecture":"KAGOSHIMA KEN","city":"OSHIMA GUN UKEN SON","town":"BUREN","perfecture_jp":"鹿児島県","jp_add_1":"大島郡宇検村","jp_add_2":"部連"},"8943631":{"post_code":"8943631","prefecture":"KAGOSHIMA KEN","city":"OSHIMA GUN UKEN SON","town":"HEDA","perfecture_jp":"鹿児島県","jp_add_1":"大島郡宇検村","jp_add_2":"平田"},"8943633":{"post_code":"8943633","prefecture":"KAGOSHIMA KEN","city":"OSHIMA GUN UKEN SON","town":"YADON","perfecture_jp":"鹿児島県","jp_add_1":"大島郡宇検村","jp_add_2":"屋鈍"},"8943301":{"post_code":"8943301","prefecture":"KAGOSHIMA KEN","city":"OSHIMA GUN UKEN SON","town":"YUWAN","perfecture_jp":"鹿児島県","jp_add_1":"大島郡宇検村","jp_add_2":"湯湾"},"8941500":{"post_code":"8941500","prefecture":"KAGOSHIMA KEN","city":"OSHIMA GUN SETOCHI CHO","town":"IKANIKEISAIGANAIBAAI","perfecture_jp":"鹿児島県","jp_add_1":"大島郡瀬戸内町","jp_add_2":""},"8942234":{"post_code":"8942234","prefecture":"KAGOSHIMA KEN","city":"OSHIMA GUN SETOCHI CHO","town":"AKITOKU","perfecture_jp":"鹿児島県","jp_add_1":"大島郡瀬戸内町","jp_add_2":"秋徳"},"8941511":{"post_code":"8941511","prefecture":"KAGOSHIMA KEN","city":"OSHIMA GUN SETOCHI CHO","town":"AGINA","perfecture_jp":"鹿児島県","jp_add_1":"大島郡瀬戸内町","jp_add_2":"阿木名"},"8942411":{"post_code":"8942411","prefecture":"KAGOSHIMA KEN","city":"OSHIMA GUN SETOCHI CHO","town":"ADACHI","perfecture_jp":"鹿児島県","jp_add_1":"大島郡瀬戸内町","jp_add_2":"阿多地"},"8941744":{"post_code":"8941744","prefecture":"KAGOSHIMA KEN","city":"OSHIMA GUN SETOCHI CHO","town":"ATETSU","perfecture_jp":"鹿児島県","jp_add_1":"大島郡瀬戸内町","jp_add_2":"阿鉄"},"8941513":{"post_code":"8941513","prefecture":"KAGOSHIMA KEN","city":"OSHIMA GUN SETOCHI CHO","town":"AMINOKO","perfecture_jp":"鹿児島県","jp_add_1":"大島郡瀬戸内町","jp_add_2":"網野子"},"8941742":{"post_code":"8941742","prefecture":"KAGOSHIMA KEN","city":"OSHIMA GUN SETOCHI CHO","town":"AMUROGAMA","perfecture_jp":"鹿児島県","jp_add_1":"大島郡瀬戸内町","jp_add_2":"阿室釜"},"8942501":{"post_code":"8942501","prefecture":"KAGOSHIMA KEN","city":"OSHIMA GUN SETOCHI CHO","town":"IKEJI","perfecture_jp":"鹿児島県","jp_add_1":"大島郡瀬戸内町","jp_add_2":"池地"},"8942142":{"post_code":"8942142","prefecture":"KAGOSHIMA KEN","city":"OSHIMA GUN SETOCHI CHO","town":"IKEMMA","perfecture_jp":"鹿児島県","jp_add_1":"大島郡瀬戸内町","jp_add_2":"生間"},"8942236":{"post_code":"8942236","prefecture":"KAGOSHIMA KEN","city":"OSHIMA GUN SETOCHI CHO","town":"IKOMO","perfecture_jp":"鹿児島県","jp_add_1":"大島郡瀬戸内町","jp_add_2":"伊子茂"},"8941524":{"post_code":"8941524","prefecture":"KAGOSHIMA KEN","city":"OSHIMA GUN SETOCHI CHO","town":"ISU","perfecture_jp":"鹿児島県","jp_add_1":"大島郡瀬戸内町","jp_add_2":"伊須"},"8942502":{"post_code":"8942502","prefecture":"KAGOSHIMA KEN","city":"OSHIMA GUN SETOCHI CHO","town":"UKEAMURO","perfecture_jp":"鹿児島県","jp_add_1":"大島郡瀬戸内町","jp_add_2":"請阿室"},"8942235":{"post_code":"8942235","prefecture":"KAGOSHIMA KEN","city":"OSHIMA GUN SETOCHI CHO","town":"OSAI","perfecture_jp":"鹿児島県","jp_add_1":"大島郡瀬戸内町","jp_add_2":"於斉"},"8942231":{"post_code":"8942231","prefecture":"KAGOSHIMA KEN","city":"OSHIMA GUN SETOCHI CHO","town":"OSHIKAKU","perfecture_jp":"鹿児島県","jp_add_1":"大島郡瀬戸内町","jp_add_2":"押角"},"8941512":{"post_code":"8941512","prefecture":"KAGOSHIMA KEN","city":"OSHIMA GUN SETOCHI CHO","town":"KACHIURA","perfecture_jp":"鹿児島県","jp_add_1":"大島郡瀬戸内町","jp_add_2":"勝浦"},"8942232":{"post_code":"8942232","prefecture":"KAGOSHIMA KEN","city":"OSHIMA GUN SETOCHI CHO","town":"KACHIYUKI","perfecture_jp":"鹿児島県","jp_add_1":"大島郡瀬戸内町","jp_add_2":"勝能"},"8941522":{"post_code":"8941522","prefecture":"KAGOSHIMA KEN","city":"OSHIMA GUN SETOCHI CHO","town":"KATETSU","perfecture_jp":"鹿児島県","jp_add_1":"大島郡瀬戸内町","jp_add_2":"嘉鉄"},"8941515":{"post_code":"8941515","prefecture":"KAGOSHIMA KEN","city":"OSHIMA GUN SETOCHI CHO","town":"KATOKU","perfecture_jp":"鹿児島県","jp_add_1":"大島郡瀬戸内町","jp_add_2":"嘉徳"},"8942413":{"post_code":"8942413","prefecture":"KAGOSHIMA KEN","city":"OSHIMA GUN SETOCHI CHO","town":"KANYU","perfecture_jp":"鹿児島県","jp_add_1":"大島郡瀬戸内町","jp_add_2":"嘉入"},"8942417":{"post_code":"8942417","prefecture":"KAGOSHIMA KEN","city":"OSHIMA GUN SETOCHI CHO","town":"KIJI","perfecture_jp":"鹿児島県","jp_add_1":"大島郡瀬戸内町","jp_add_2":"木慈"},"8941851":{"post_code":"8941851","prefecture":"KAGOSHIMA KEN","city":"OSHIMA GUN SETOCHI CHO","town":"KUJI","perfecture_jp":"鹿児島県","jp_add_1":"大島郡瀬戸内町","jp_add_2":"久慈"},"8941854":{"post_code":"8941854","prefecture":"KAGOSHIMA KEN","city":"OSHIMA GUN SETOCHI CHO","town":"KUDADON","perfecture_jp":"鹿児島県","jp_add_1":"大島郡瀬戸内町","jp_add_2":"管鈍"},"8941746":{"post_code":"8941746","prefecture":"KAGOSHIMA KEN","city":"OSHIMA GUN SETOCHI CHO","town":"KUNETSU","perfecture_jp":"鹿児島県","jp_add_1":"大島郡瀬戸内町","jp_add_2":"久根津"},"8941853":{"post_code":"8941853","prefecture":"KAGOSHIMA KEN","city":"OSHIMA GUN SETOCHI CHO","town":"KETEN","perfecture_jp":"鹿児島県","jp_add_1":"大島郡瀬戸内町","jp_add_2":"花天"},"8942237":{"post_code":"8942237","prefecture":"KAGOSHIMA KEN","city":"OSHIMA GUN SETOCHI CHO","town":"KEDOMI","perfecture_jp":"鹿児島県","jp_add_1":"大島郡瀬戸内町","jp_add_2":"花富"},"8941852":{"post_code":"8941852","prefecture":"KAGOSHIMA KEN","city":"OSHIMA GUN SETOCHI CHO","town":"KOSHI","perfecture_jp":"鹿児島県","jp_add_1":"大島郡瀬戸内町","jp_add_2":"古志"},"8941743":{"post_code":"8941743","prefecture":"KAGOSHIMA KEN","city":"OSHIMA GUN SETOCHI CHO","town":"KONASE","perfecture_jp":"鹿児島県","jp_add_1":"大島郡瀬戸内町","jp_add_2":"小名瀬"},"8941508":{"post_code":"8941508","prefecture":"KAGOSHIMA KEN","city":"OSHIMA GUN SETOCHI CHO","town":"KONIYA","perfecture_jp":"鹿児島県","jp_add_1":"大島郡瀬戸内町","jp_add_2":"古仁屋"},"8941503":{"post_code":"8941503","prefecture":"KAGOSHIMA KEN","city":"OSHIMA GUN SETOCHI CHO","town":"KONIYA (OMINATO)","perfecture_jp":"鹿児島県","jp_add_1":"大島郡瀬戸内町","jp_add_2":"古仁屋"},"8941504":{"post_code":"8941504","prefecture":"KAGOSHIMA KEN","city":"OSHIMA GUN SETOCHI CHO","town":"KONIYA (KASUGA)","perfecture_jp":"鹿児島県","jp_add_1":"大島郡瀬戸内町","jp_add_2":"古仁屋"},"8941507":{"post_code":"8941507","prefecture":"KAGOSHIMA KEN","city":"OSHIMA GUN SETOCHI CHO","town":"KONIYA (SEKUI)","perfecture_jp":"鹿児島県","jp_add_1":"大島郡瀬戸内町","jp_add_2":"古仁屋"},"8941501":{"post_code":"8941501","prefecture":"KAGOSHIMA KEN","city":"OSHIMA GUN SETOCHI CHO","town":"KONIYA (TAKAOKA)","perfecture_jp":"鹿児島県","jp_add_1":"大島郡瀬戸内町","jp_add_2":"古仁屋"},"8941506":{"post_code":"8941506","prefecture":"KAGOSHIMA KEN","city":"OSHIMA GUN SETOCHI CHO","town":"KONIYA (FUNATSU)","perfecture_jp":"鹿児島県","jp_add_1":"大島郡瀬戸内町","jp_add_2":"古仁屋"},"8941505":{"post_code":"8941505","prefecture":"KAGOSHIMA KEN","city":"OSHIMA GUN SETOCHI CHO","town":"KONIYA (MATSUE)","perfecture_jp":"鹿児島県","jp_add_1":"大島郡瀬戸内町","jp_add_2":"古仁屋"},"8941502":{"post_code":"8941502","prefecture":"KAGOSHIMA KEN","city":"OSHIMA GUN SETOCHI CHO","town":"KONIYA (MIYAMAE)","perfecture_jp":"鹿児島県","jp_add_1":"大島郡瀬戸内町","jp_add_2":"古仁屋"},"8941510":{"post_code":"8941510","prefecture":"KAGOSHIMA KEN","city":"OSHIMA GUN SETOCHI CHO","town":"KONIYASEKUINISHI","perfecture_jp":"鹿児島県","jp_add_1":"大島郡瀬戸内町","jp_add_2":"古仁屋瀬久井西"},"8941509":{"post_code":"8941509","prefecture":"KAGOSHIMA KEN","city":"OSHIMA GUN SETOCHI CHO","town":"KONIYASEKUIHIGASHI","perfecture_jp":"鹿児島県","jp_add_1":"大島郡瀬戸内町","jp_add_2":"古仁屋瀬久井東"},"8942402":{"post_code":"8942402","prefecture":"KAGOSHIMA KEN","city":"OSHIMA GUN SETOCHI CHO","town":"SATSUKAWA","perfecture_jp":"鹿児島県","jp_add_1":"大島郡瀬戸内町","jp_add_2":"薩川"},"8942403":{"post_code":"8942403","prefecture":"KAGOSHIMA KEN","city":"OSHIMA GUN SETOCHI CHO","town":"SANEKU","perfecture_jp":"鹿児島県","jp_add_1":"大島郡瀬戸内町","jp_add_2":"実久"},"8941741":{"post_code":"8941741","prefecture":"KAGOSHIMA KEN","city":"OSHIMA GUN SETOCHI CHO","town":"SHINOKAWA","perfecture_jp":"鹿児島県","jp_add_1":"大島郡瀬戸内町","jp_add_2":"篠川"},"8942404":{"post_code":"8942404","prefecture":"KAGOSHIMA KEN","city":"OSHIMA GUN SETOCHI CHO","town":"SHIBA","perfecture_jp":"鹿児島県","jp_add_1":"大島郡瀬戸内町","jp_add_2":"芝"},"8942144":{"post_code":"8942144","prefecture":"KAGOSHIMA KEN","city":"OSHIMA GUN SETOCHI CHO","town":"SHOKAZU","perfecture_jp":"鹿児島県","jp_add_1":"大島郡瀬戸内町","jp_add_2":"諸数"},"8942141":{"post_code":"8942141","prefecture":"KAGOSHIMA KEN","city":"OSHIMA GUN SETOCHI CHO","town":"SHODON","perfecture_jp":"鹿児島県","jp_add_1":"大島郡瀬戸内町","jp_add_2":"諸鈍"},"8942412":{"post_code":"8942412","prefecture":"KAGOSHIMA KEN","city":"OSHIMA GUN SETOCHI CHO","town":"SUKOMO","perfecture_jp":"鹿児島県","jp_add_1":"大島郡瀬戸内町","jp_add_2":"須子茂"},"8941521":{"post_code":"8941521","prefecture":"KAGOSHIMA KEN","city":"OSHIMA GUN SETOCHI CHO","town":"SEISUI","perfecture_jp":"鹿児島県","jp_add_1":"大島郡瀬戸内町","jp_add_2":"清水"},"8942322":{"post_code":"8942322","prefecture":"KAGOSHIMA KEN","city":"OSHIMA GUN SETOCHI CHO","town":"SESO","perfecture_jp":"鹿児島県","jp_add_1":"大島郡瀬戸内町","jp_add_2":"瀬相"},"8942401":{"post_code":"8942401","prefecture":"KAGOSHIMA KEN","city":"OSHIMA GUN SETOCHI CHO","town":"SETAKE","perfecture_jp":"鹿児島県","jp_add_1":"大島郡瀬戸内町","jp_add_2":"瀬武"},"8941514":{"post_code":"8941514","prefecture":"KAGOSHIMA KEN","city":"OSHIMA GUN SETOCHI CHO","town":"SEKKO","perfecture_jp":"鹿児島県","jp_add_1":"大島郡瀬戸内町","jp_add_2":"節子"},"8941523":{"post_code":"8941523","prefecture":"KAGOSHIMA KEN","city":"OSHIMA GUN SETOCHI CHO","town":"SOKARU","perfecture_jp":"鹿児島県","jp_add_1":"大島郡瀬戸内町","jp_add_2":"蘇刈"},"8942416":{"post_code":"8942416","prefecture":"KAGOSHIMA KEN","city":"OSHIMA GUN SETOCHI CHO","town":"TAKENA","perfecture_jp":"鹿児島県","jp_add_1":"大島郡瀬戸内町","jp_add_2":"武名"},"8942415":{"post_code":"8942415","prefecture":"KAGOSHIMA KEN","city":"OSHIMA GUN SETOCHI CHO","town":"CHINORA","perfecture_jp":"鹿児島県","jp_add_1":"大島郡瀬戸内町","jp_add_2":"知之浦"},"8941531":{"post_code":"8941531","prefecture":"KAGOSHIMA KEN","city":"OSHIMA GUN SETOCHI CHO","town":"TEAN","perfecture_jp":"鹿児島県","jp_add_1":"大島郡瀬戸内町","jp_add_2":"手安"},"8942143":{"post_code":"8942143","prefecture":"KAGOSHIMA KEN","city":"OSHIMA GUN SETOCHI CHO","town":"DOREN","perfecture_jp":"鹿児島県","jp_add_1":"大島郡瀬戸内町","jp_add_2":"渡連"},"8942321":{"post_code":"8942321","prefecture":"KAGOSHIMA KEN","city":"OSHIMA GUN SETOCHI CHO","town":"NISHIAMURO","perfecture_jp":"鹿児島県","jp_add_1":"大島郡瀬戸内町","jp_add_2":"西阿室"},"8941855":{"post_code":"8941855","prefecture":"KAGOSHIMA KEN","city":"OSHIMA GUN SETOCHI CHO","town":"NISHIKOMI","perfecture_jp":"鹿児島県","jp_add_1":"大島郡瀬戸内町","jp_add_2":"西古見"},"8942233":{"post_code":"8942233","prefecture":"KAGOSHIMA KEN","city":"OSHIMA GUN SETOCHI CHO","town":"NOMIYAMA","perfecture_jp":"鹿児島県","jp_add_1":"大島郡瀬戸内町","jp_add_2":"野見山"},"8942323":{"post_code":"8942323","prefecture":"KAGOSHIMA KEN","city":"OSHIMA GUN SETOCHI CHO","town":"HYO","perfecture_jp":"鹿児島県","jp_add_1":"大島郡瀬戸内町","jp_add_2":"俵"},"8942414":{"post_code":"8942414","prefecture":"KAGOSHIMA KEN","city":"OSHIMA GUN SETOCHI CHO","town":"MIURA","perfecture_jp":"鹿児島県","jp_add_1":"大島郡瀬戸内町","jp_add_2":"三浦"},"8941745":{"post_code":"8941745","prefecture":"KAGOSHIMA KEN","city":"OSHIMA GUN SETOCHI CHO","town":"YUI","perfecture_jp":"鹿児島県","jp_add_1":"大島郡瀬戸内町","jp_add_2":"油井"},"8942601":{"post_code":"8942601","prefecture":"KAGOSHIMA KEN","city":"OSHIMA GUN SETOCHI CHO","town":"YORO","perfecture_jp":"鹿児島県","jp_add_1":"大島郡瀬戸内町","jp_add_2":"与路"},"8940100":{"post_code":"8940100","prefecture":"KAGOSHIMA KEN","city":"OSHIMA GUN TATSUGO CHO","town":"IKANIKEISAIGANAIBAAI","perfecture_jp":"鹿児島県","jp_add_1":"大島郡龍郷町","jp_add_2":""},"8940411":{"post_code":"8940411","prefecture":"KAGOSHIMA KEN","city":"OSHIMA GUN TATSUGO CHO","town":"AKAOGI","perfecture_jp":"鹿児島県","jp_add_1":"大島郡龍郷町","jp_add_2":"赤尾木"},"8940333":{"post_code":"8940333","prefecture":"KAGOSHIMA KEN","city":"OSHIMA GUN TATSUGO CHO","town":"AKINA","perfecture_jp":"鹿児島県","jp_add_1":"大島郡龍郷町","jp_add_2":"秋名"},"8940412":{"post_code":"8940412","prefecture":"KAGOSHIMA KEN","city":"OSHIMA GUN TATSUGO CHO","town":"ASHITOKU","perfecture_jp":"鹿児島県","jp_add_1":"大島郡龍郷町","jp_add_2":"芦徳"},"8940323":{"post_code":"8940323","prefecture":"KAGOSHIMA KEN","city":"OSHIMA GUN TATSUGO CHO","town":"ANKIYABA","perfecture_jp":"鹿児島県","jp_add_1":"大島郡龍郷町","jp_add_2":"安木屋場"},"8940332":{"post_code":"8940332","prefecture":"KAGOSHIMA KEN","city":"OSHIMA GUN TATSUGO CHO","town":"IKUSATO","perfecture_jp":"鹿児島県","jp_add_1":"大島郡龍郷町","jp_add_2":"幾里"},"8940104":{"post_code":"8940104","prefecture":"KAGOSHIMA KEN","city":"OSHIMA GUN TATSUGO CHO","town":"URA","perfecture_jp":"鹿児島県","jp_add_1":"大島郡龍郷町","jp_add_2":"浦"},"8940324":{"post_code":"8940324","prefecture":"KAGOSHIMA KEN","city":"OSHIMA GUN TATSUGO CHO","town":"EN","perfecture_jp":"鹿児島県","jp_add_1":"大島郡龍郷町","jp_add_2":"円"},"8940105":{"post_code":"8940105","prefecture":"KAGOSHIMA KEN","city":"OSHIMA GUN TATSUGO CHO","town":"OGACHI","perfecture_jp":"鹿児島県","jp_add_1":"大島郡龍郷町","jp_add_2":"大勝"},"8940331":{"post_code":"8940331","prefecture":"KAGOSHIMA KEN","city":"OSHIMA GUN TATSUGO CHO","town":"KADO","perfecture_jp":"鹿児島県","jp_add_1":"大島郡龍郷町","jp_add_2":"嘉渡"},"8940322":{"post_code":"8940322","prefecture":"KAGOSHIMA KEN","city":"OSHIMA GUN TATSUGO CHO","town":"KUBA","perfecture_jp":"鹿児島県","jp_add_1":"大島郡龍郷町","jp_add_2":"久場"},"8940102":{"post_code":"8940102","prefecture":"KAGOSHIMA KEN","city":"OSHIMA GUN TATSUGO CHO","town":"SEDOME","perfecture_jp":"鹿児島県","jp_add_1":"大島郡龍郷町","jp_add_2":"瀬留"},"8940321":{"post_code":"8940321","prefecture":"KAGOSHIMA KEN","city":"OSHIMA GUN TATSUGO CHO","town":"TATSUGO","perfecture_jp":"鹿児島県","jp_add_1":"大島郡龍郷町","jp_add_2":"龍郷"},"8940103":{"post_code":"8940103","prefecture":"KAGOSHIMA KEN","city":"OSHIMA GUN TATSUGO CHO","town":"TAMAZATO","perfecture_jp":"鹿児島県","jp_add_1":"大島郡龍郷町","jp_add_2":"玉里"},"8940107":{"post_code":"8940107","prefecture":"KAGOSHIMA KEN","city":"OSHIMA GUN TATSUGO CHO","town":"TOGUCHI","perfecture_jp":"鹿児島県","jp_add_1":"大島郡龍郷町","jp_add_2":"戸口"},"8940106":{"post_code":"8940106","prefecture":"KAGOSHIMA KEN","city":"OSHIMA GUN TATSUGO CHO","town":"NAKAGACHI","perfecture_jp":"鹿児島県","jp_add_1":"大島郡龍郷町","jp_add_2":"中勝"},"8940101":{"post_code":"8940101","prefecture":"KAGOSHIMA KEN","city":"OSHIMA GUN TATSUGO CHO","town":"YANYU","perfecture_jp":"鹿児島県","jp_add_1":"大島郡龍郷町","jp_add_2":"屋入"}}