{"8950000":{"post_code":"8950000","prefecture":"KAGOSHIMA KEN","city":"SATSUMASENDAI SHI","town":"IKANIKEISAIGANAIBAAI","perfecture_jp":"鹿児島県","jp_add_1":"薩摩川内市","jp_add_2":""},"8950044":{"post_code":"8950044","prefecture":"KAGOSHIMA KEN","city":"SATSUMASENDAI SHI","town":"AOYAMACHO","perfecture_jp":"鹿児島県","jp_add_1":"薩摩川内市","jp_add_2":"青山町"},"8950011":{"post_code":"8950011","prefecture":"KAGOSHIMA KEN","city":"SATSUMASENDAI SHI","town":"AMATATSUCHO","perfecture_jp":"鹿児島県","jp_add_1":"薩摩川内市","jp_add_2":"天辰町"},"8951402":{"post_code":"8951402","prefecture":"KAGOSHIMA KEN","city":"SATSUMASENDAI SHI","town":"IRIKICHO URANOMYO","perfecture_jp":"鹿児島県","jp_add_1":"薩摩川内市","jp_add_2":"入来町浦之名"},"8951401":{"post_code":"8951401","prefecture":"KAGOSHIMA KEN","city":"SATSUMASENDAI SHI","town":"IRIKICHO SOEDA","perfecture_jp":"鹿児島県","jp_add_1":"薩摩川内市","jp_add_2":"入来町副田"},"8950214":{"post_code":"8950214","prefecture":"KAGOSHIMA KEN","city":"SATSUMASENDAI SHI","town":"UNDOKOENCHO(3030-BANCHI)","perfecture_jp":"鹿児島県","jp_add_1":"薩摩川内市","jp_add_2":"運動公園町"},"8950077":{"post_code":"8950077","prefecture":"KAGOSHIMA KEN","city":"SATSUMASENDAI SHI","town":"UNDOKOENCHO(SONOTA)","perfecture_jp":"鹿児島県","jp_add_1":"薩摩川内市","jp_add_2":"運動公園町"},"8950076":{"post_code":"8950076","prefecture":"KAGOSHIMA KEN","city":"SATSUMASENDAI SHI","town":"OSHOJICHO","perfecture_jp":"鹿児島県","jp_add_1":"薩摩川内市","jp_add_2":"大小路町"},"8950035":{"post_code":"8950035","prefecture":"KAGOSHIMA KEN","city":"SATSUMASENDAI SHI","town":"OJIROECHO","perfecture_jp":"鹿児島県","jp_add_1":"薩摩川内市","jp_add_2":"尾白江町"},"8950031":{"post_code":"8950031","prefecture":"KAGOSHIMA KEN","city":"SATSUMASENDAI SHI","town":"KACHIMECHO","perfecture_jp":"鹿児島県","jp_add_1":"薩摩川内市","jp_add_2":"勝目町"},"8950067":{"post_code":"8950067","prefecture":"KAGOSHIMA KEN","city":"SATSUMASENDAI SHI","town":"KAMISENDAICHO","perfecture_jp":"鹿児島県","jp_add_1":"薩摩川内市","jp_add_2":"上川内町"},"8950033":{"post_code":"8950033","prefecture":"KAGOSHIMA KEN","city":"SATSUMASENDAI SHI","town":"KAWANAGANOCHO","perfecture_jp":"鹿児島県","jp_add_1":"薩摩川内市","jp_add_2":"川永野町"},"8950052":{"post_code":"8950052","prefecture":"KAGOSHIMA KEN","city":"SATSUMASENDAI SHI","town":"KANDACHO","perfecture_jp":"鹿児島県","jp_add_1":"薩摩川内市","jp_add_2":"神田町"},"8950004":{"post_code":"8950004","prefecture":"KAGOSHIMA KEN","city":"SATSUMASENDAI SHI","town":"KUJUCHO","perfecture_jp":"鹿児島県","jp_add_1":"薩摩川内市","jp_add_2":"久住町"},"8950002":{"post_code":"8950002","prefecture":"KAGOSHIMA KEN","city":"SATSUMASENDAI SHI","town":"KUSUMOTOCHO","perfecture_jp":"鹿児島県","jp_add_1":"薩摩川内市","jp_add_2":"楠元町"},"8950041":{"post_code":"8950041","prefecture":"KAGOSHIMA KEN","city":"SATSUMASENDAI SHI","town":"KUMANOJOCHO","perfecture_jp":"鹿児島県","jp_add_1":"薩摩川内市","jp_add_2":"隈之城町"},"8950132":{"post_code":"8950132","prefecture":"KAGOSHIMA KEN","city":"SATSUMASENDAI SHI","town":"GUMISAKICHO","perfecture_jp":"鹿児島県","jp_add_1":"薩摩川内市","jp_add_2":"久見崎町"},"8951502":{"post_code":"8951502","prefecture":"KAGOSHIMA KEN","city":"SATSUMASENDAI SHI","town":"KEDOINCHO IMUTA","perfecture_jp":"鹿児島県","jp_add_1":"薩摩川内市","jp_add_2":"祁答院町藺牟田"},"8951503":{"post_code":"8951503","prefecture":"KAGOSHIMA KEN","city":"SATSUMASENDAI SHI","town":"KEDOINCHO KAMIDE","perfecture_jp":"鹿児島県","jp_add_1":"薩摩川内市","jp_add_2":"祁答院町上手"},"8951504":{"post_code":"8951504","prefecture":"KAGOSHIMA KEN","city":"SATSUMASENDAI SHI","town":"KEDOINCHO KUROKI","perfecture_jp":"鹿児島県","jp_add_1":"薩摩川内市","jp_add_2":"祁答院町黒木"},"8951501":{"post_code":"8951501","prefecture":"KAGOSHIMA KEN","city":"SATSUMASENDAI SHI","town":"KEDOINCHO SHIMODE","perfecture_jp":"鹿児島県","jp_add_1":"薩摩川内市","jp_add_2":"祁答院町下手"},"8950073":{"post_code":"8950073","prefecture":"KAGOSHIMA KEN","city":"SATSUMASENDAI SHI","town":"KOKUBUNJICHO","perfecture_jp":"鹿児島県","jp_add_1":"薩摩川内市","jp_add_2":"国分寺町"},"8950066":{"post_code":"8950066","prefecture":"KAGOSHIMA KEN","city":"SATSUMASENDAI SHI","town":"GODAICHO","perfecture_jp":"鹿児島県","jp_add_1":"薩摩川内市","jp_add_2":"五代町"},"8950034":{"post_code":"8950034","prefecture":"KAGOSHIMA KEN","city":"SATSUMASENDAI SHI","town":"KOBANCHAYACHO","perfecture_jp":"鹿児島県","jp_add_1":"薩摩川内市","jp_add_2":"木場茶屋町"},"8950061":{"post_code":"8950061","prefecture":"KAGOSHIMA KEN","city":"SATSUMASENDAI SHI","town":"GORYOSHITACHO","perfecture_jp":"鹿児島県","jp_add_1":"薩摩川内市","jp_add_2":"御陵下町"},"8950213":{"post_code":"8950213","prefecture":"KAGOSHIMA KEN","city":"SATSUMASENDAI SHI","town":"JOKAMICHO","perfecture_jp":"鹿児島県","jp_add_1":"薩摩川内市","jp_add_2":"城上町"},"8950001":{"post_code":"8950001","prefecture":"KAGOSHIMA KEN","city":"SATSUMASENDAI SHI","town":"SHIRAHAMACHO","perfecture_jp":"鹿児島県","jp_add_1":"薩摩川内市","jp_add_2":"白浜町"},"8950022":{"post_code":"8950022","prefecture":"KAGOSHIMA KEN","city":"SATSUMASENDAI SHI","town":"SHIRAWACHO","perfecture_jp":"鹿児島県","jp_add_1":"薩摩川内市","jp_add_2":"白和町"},"8950062":{"post_code":"8950062","prefecture":"KAGOSHIMA KEN","city":"SATSUMASENDAI SHI","town":"DAIOCHO","perfecture_jp":"鹿児島県","jp_add_1":"薩摩川内市","jp_add_2":"大王町"},"8950071":{"post_code":"8950071","prefecture":"KAGOSHIMA KEN","city":"SATSUMASENDAI SHI","town":"TAUMICHO","perfecture_jp":"鹿児島県","jp_add_1":"薩摩川内市","jp_add_2":"田海町"},"8950131":{"post_code":"8950131","prefecture":"KAGOSHIMA KEN","city":"SATSUMASENDAI SHI","town":"TAKAECHO","perfecture_jp":"鹿児島県","jp_add_1":"薩摩川内市","jp_add_2":"高江町"},"8950211":{"post_code":"8950211","prefecture":"KAGOSHIMA KEN","city":"SATSUMASENDAI SHI","town":"TAKICHO","perfecture_jp":"鹿児島県","jp_add_1":"薩摩川内市","jp_add_2":"高城町"},"8950006":{"post_code":"8950006","prefecture":"KAGOSHIMA KEN","city":"SATSUMASENDAI SHI","town":"TASAKICHO","perfecture_jp":"鹿児島県","jp_add_1":"薩摩川内市","jp_add_2":"田崎町"},"8950072":{"post_code":"8950072","prefecture":"KAGOSHIMA KEN","city":"SATSUMASENDAI SHI","town":"CHUGOCHO","perfecture_jp":"鹿児島県","jp_add_1":"薩摩川内市","jp_add_2":"中郷"},"8951106":{"post_code":"8951106","prefecture":"KAGOSHIMA KEN","city":"SATSUMASENDAI SHI","town":"TOGOCHO ONOBUCHI","perfecture_jp":"鹿児島県","jp_add_1":"薩摩川内市","jp_add_2":"東郷町斧渕"},"8951101":{"post_code":"8951101","prefecture":"KAGOSHIMA KEN","city":"SATSUMASENDAI SHI","town":"TOGOCHO SHISHINO","perfecture_jp":"鹿児島県","jp_add_1":"薩摩川内市","jp_add_2":"東郷町宍野"},"8951103":{"post_code":"8951103","prefecture":"KAGOSHIMA KEN","city":"SATSUMASENDAI SHI","town":"TOGOCHO TORIMARU","perfecture_jp":"鹿児島県","jp_add_1":"薩摩川内市","jp_add_2":"東郷町鳥丸"},"8951105":{"post_code":"8951105","prefecture":"KAGOSHIMA KEN","city":"SATSUMASENDAI SHI","town":"TOGOCHO NOZE","perfecture_jp":"鹿児島県","jp_add_1":"薩摩川内市","jp_add_2":"東郷町南瀬"},"8951102":{"post_code":"8951102","prefecture":"KAGOSHIMA KEN","city":"SATSUMASENDAI SHI","town":"TOGOCHO FUJIKAWA","perfecture_jp":"鹿児島県","jp_add_1":"薩摩川内市","jp_add_2":"東郷町藤川"},"8951104":{"post_code":"8951104","prefecture":"KAGOSHIMA KEN","city":"SATSUMASENDAI SHI","town":"TOGOCHO YAMADA","perfecture_jp":"鹿児島県","jp_add_1":"薩摩川内市","jp_add_2":"東郷町山田"},"8950024":{"post_code":"8950024","prefecture":"KAGOSHIMA KEN","city":"SATSUMASENDAI SHI","town":"TORIOICHO","perfecture_jp":"鹿児島県","jp_add_1":"薩摩川内市","jp_add_2":"鳥追町"},"8950005":{"post_code":"8950005","prefecture":"KAGOSHIMA KEN","city":"SATSUMASENDAI SHI","town":"NAGATOSHICHO","perfecture_jp":"鹿児島県","jp_add_1":"薩摩川内市","jp_add_2":"永利町"},"8950042":{"post_code":"8950042","prefecture":"KAGOSHIMA KEN","city":"SATSUMASENDAI SHI","town":"NAKAFUKURACHO","perfecture_jp":"鹿児島県","jp_add_1":"薩摩川内市","jp_add_2":"中福良町"},"8950003":{"post_code":"8950003","prefecture":"KAGOSHIMA KEN","city":"SATSUMASENDAI SHI","town":"NAKAMURACHO","perfecture_jp":"鹿児島県","jp_add_1":"薩摩川内市","jp_add_2":"中村町"},"8950055":{"post_code":"8950055","prefecture":"KAGOSHIMA KEN","city":"SATSUMASENDAI SHI","town":"NISHIKAIMONCHO","perfecture_jp":"鹿児島県","jp_add_1":"薩摩川内市","jp_add_2":"西開聞町"},"8950027":{"post_code":"8950027","prefecture":"KAGOSHIMA KEN","city":"SATSUMASENDAI SHI","town":"NISHIMUKODACHO","perfecture_jp":"鹿児島県","jp_add_1":"薩摩川内市","jp_add_2":"西向田町"},"8950064":{"post_code":"8950064","prefecture":"KAGOSHIMA KEN","city":"SATSUMASENDAI SHI","town":"HANAKICHO","perfecture_jp":"鹿児島県","jp_add_1":"薩摩川内市","jp_add_2":"花木町"},"8950074":{"post_code":"8950074","prefecture":"KAGOSHIMA KEN","city":"SATSUMASENDAI SHI","town":"HARADACHO","perfecture_jp":"鹿児島県","jp_add_1":"薩摩川内市","jp_add_2":"原田町"},"8950075":{"post_code":"8950075","prefecture":"KAGOSHIMA KEN","city":"SATSUMASENDAI SHI","town":"HIGASHIOSHOJICHO","perfecture_jp":"鹿児島県","jp_add_1":"薩摩川内市","jp_add_2":"東大小路町"},"8950051":{"post_code":"8950051","prefecture":"KAGOSHIMA KEN","city":"SATSUMASENDAI SHI","town":"HIGASHIKAIMONCHO","perfecture_jp":"鹿児島県","jp_add_1":"薩摩川内市","jp_add_2":"東開聞町"},"8950026":{"post_code":"8950026","prefecture":"KAGOSHIMA KEN","city":"SATSUMASENDAI SHI","town":"HIGASHIMUKODACHO","perfecture_jp":"鹿児島県","jp_add_1":"薩摩川内市","jp_add_2":"東向田町"},"8950053":{"post_code":"8950053","prefecture":"KAGOSHIMA KEN","city":"SATSUMASENDAI SHI","town":"HIYAMIZUCHO","perfecture_jp":"鹿児島県","jp_add_1":"薩摩川内市","jp_add_2":"冷水町"},"8950012":{"post_code":"8950012","prefecture":"KAGOSHIMA KEN","city":"SATSUMASENDAI SHI","town":"HIRASACHO","perfecture_jp":"鹿児島県","jp_add_1":"薩摩川内市","jp_add_2":"平佐"},"8951203":{"post_code":"8951203","prefecture":"KAGOSHIMA KEN","city":"SATSUMASENDAI SHI","town":"HIWAKICHO ICHIHINO","perfecture_jp":"鹿児島県","jp_add_1":"薩摩川内市","jp_add_2":"樋脇町市比野"},"8951201":{"post_code":"8951201","prefecture":"KAGOSHIMA KEN","city":"SATSUMASENDAI SHI","town":"HIWAKICHO KURANO","perfecture_jp":"鹿児島県","jp_add_1":"薩摩川内市","jp_add_2":"樋脇町倉野"},"8951202":{"post_code":"8951202","prefecture":"KAGOSHIMA KEN","city":"SATSUMASENDAI SHI","town":"HIWAKICHO TONOHARA","perfecture_jp":"鹿児島県","jp_add_1":"薩摩川内市","jp_add_2":"樋脇町塔之原"},"8950065":{"post_code":"8950065","prefecture":"KAGOSHIMA KEN","city":"SATSUMASENDAI SHI","town":"MIYAUCHICHO","perfecture_jp":"鹿児島県","jp_add_1":"薩摩川内市","jp_add_2":"宮内町"},"8950043":{"post_code":"8950043","prefecture":"KAGOSHIMA KEN","city":"SATSUMASENDAI SHI","town":"MIYAKOCHO","perfecture_jp":"鹿児島県","jp_add_1":"薩摩川内市","jp_add_2":"都町"},"8950013":{"post_code":"8950013","prefecture":"KAGOSHIMA KEN","city":"SATSUMASENDAI SHI","town":"MIYAZAKICHO","perfecture_jp":"鹿児島県","jp_add_1":"薩摩川内市","jp_add_2":"宮崎町"},"8950056":{"post_code":"8950056","prefecture":"KAGOSHIMA KEN","city":"SATSUMASENDAI SHI","town":"MIYAZATOCHO","perfecture_jp":"鹿児島県","jp_add_1":"薩摩川内市","jp_add_2":"宮里町"},"8950025":{"post_code":"8950025","prefecture":"KAGOSHIMA KEN","city":"SATSUMASENDAI SHI","town":"MUKODACHO","perfecture_jp":"鹿児島県","jp_add_1":"薩摩川内市","jp_add_2":"向田町"},"8950021":{"post_code":"8950021","prefecture":"KAGOSHIMA KEN","city":"SATSUMASENDAI SHI","town":"MUKODAHOMMACHI","perfecture_jp":"鹿児島県","jp_add_1":"薩摩川内市","jp_add_2":"向田本町"},"8950007":{"post_code":"8950007","prefecture":"KAGOSHIMA KEN","city":"SATSUMASENDAI SHI","town":"MOMOTSUGICHO","perfecture_jp":"鹿児島県","jp_add_1":"薩摩川内市","jp_add_2":"百次町"},"8950036":{"post_code":"8950036","prefecture":"KAGOSHIMA KEN","city":"SATSUMASENDAI SHI","town":"YAGURACHO","perfecture_jp":"鹿児島県","jp_add_1":"薩摩川内市","jp_add_2":"矢倉町"},"8950032":{"post_code":"8950032","prefecture":"KAGOSHIMA KEN","city":"SATSUMASENDAI SHI","town":"YAMANOKUCHICHO","perfecture_jp":"鹿児島県","jp_add_1":"薩摩川内市","jp_add_2":"山之口町"},"8950212":{"post_code":"8950212","prefecture":"KAGOSHIMA KEN","city":"SATSUMASENDAI SHI","town":"YOZEICHO","perfecture_jp":"鹿児島県","jp_add_1":"薩摩川内市","jp_add_2":"陽成町"},"8950023":{"post_code":"8950023","prefecture":"KAGOSHIMA KEN","city":"SATSUMASENDAI SHI","town":"YOKOBABACHO","perfecture_jp":"鹿児島県","jp_add_1":"薩摩川内市","jp_add_2":"横馬場町"},"8950133":{"post_code":"8950133","prefecture":"KAGOSHIMA KEN","city":"SATSUMASENDAI SHI","town":"YORITACHO","perfecture_jp":"鹿児島県","jp_add_1":"薩摩川内市","jp_add_2":"寄田町"},"8950063":{"post_code":"8950063","prefecture":"KAGOSHIMA KEN","city":"SATSUMASENDAI SHI","town":"WAKABACHO","perfecture_jp":"鹿児島県","jp_add_1":"薩摩川内市","jp_add_2":"若葉町"},"8950054":{"post_code":"8950054","prefecture":"KAGOSHIMA KEN","city":"SATSUMASENDAI SHI","town":"WAKAMATSUCHO","perfecture_jp":"鹿児島県","jp_add_1":"薩摩川内市","jp_add_2":"若松町"},"8952500":{"post_code":"8952500","prefecture":"KAGOSHIMA KEN","city":"ISA SHI","town":"IKANIKEISAIGANAIBAAI","perfecture_jp":"鹿児島県","jp_add_1":"伊佐市","jp_add_2":""},"8952504":{"post_code":"8952504","prefecture":"KAGOSHIMA KEN","city":"ISA SHI","town":"OKUCHI AOKI","perfecture_jp":"鹿児島県","jp_add_1":"伊佐市","jp_add_2":"大口青木"},"8952501":{"post_code":"8952501","prefecture":"KAGOSHIMA KEN","city":"ISA SHI","town":"OKUCHI USHIO","perfecture_jp":"鹿児島県","jp_add_1":"伊佐市","jp_add_2":"大口牛尾"},"8952522":{"post_code":"8952522","prefecture":"KAGOSHIMA KEN","city":"ISA SHI","town":"OKUCHI OSHIMA","perfecture_jp":"鹿児島県","jp_add_1":"伊佐市","jp_add_2":"大口大島"},"8952507":{"post_code":"8952507","prefecture":"KAGOSHIMA KEN","city":"ISA SHI","town":"OKUCHI OTA","perfecture_jp":"鹿児島県","jp_add_1":"伊佐市","jp_add_2":"大口大田"},"8952523":{"post_code":"8952523","prefecture":"KAGOSHIMA KEN","city":"ISA SHI","town":"OKUCHI KANAHADA","perfecture_jp":"鹿児島県","jp_add_1":"伊佐市","jp_add_2":"大口金波田"},"8952513":{"post_code":"8952513","prefecture":"KAGOSHIMA KEN","city":"ISA SHI","town":"OKUCHI KAMIMACHI","perfecture_jp":"鹿児島県","jp_add_1":"伊佐市","jp_add_2":"大口上町"},"8952528":{"post_code":"8952528","prefecture":"KAGOSHIMA KEN","city":"ISA SHI","town":"OKUCHI KAWAIWAZE","perfecture_jp":"鹿児島県","jp_add_1":"伊佐市","jp_add_2":"大口川岩瀬"},"8952502":{"post_code":"8952502","prefecture":"KAGOSHIMA KEN","city":"ISA SHI","town":"OKUCHI KINOJI","perfecture_jp":"鹿児島県","jp_add_1":"伊佐市","jp_add_2":"大口木ノ氏"},"8952634":{"post_code":"8952634","prefecture":"KAGOSHIMA KEN","city":"ISA SHI","town":"OKUCHI KOGAWAUCHI","perfecture_jp":"鹿児島県","jp_add_1":"伊佐市","jp_add_2":"大口小川内"},"8952631":{"post_code":"8952631","prefecture":"KAGOSHIMA KEN","city":"ISA SHI","town":"OKUCHI KOGIHARA","perfecture_jp":"鹿児島県","jp_add_1":"伊佐市","jp_add_2":"大口小木原"},"8952511":{"post_code":"8952511","prefecture":"KAGOSHIMA KEN","city":"ISA SHI","town":"OKUCHI SATO","perfecture_jp":"鹿児島県","jp_add_1":"伊佐市","jp_add_2":"大口里"},"8952503":{"post_code":"8952503","prefecture":"KAGOSHIMA KEN","city":"ISA SHI","town":"OKUCHI SHINOHARA","perfecture_jp":"鹿児島県","jp_add_1":"伊佐市","jp_add_2":"大口篠原"},"8952525":{"post_code":"8952525","prefecture":"KAGOSHIMA KEN","city":"ISA SHI","town":"OKUCHI SHIMOTONO","perfecture_jp":"鹿児島県","jp_add_1":"伊佐市","jp_add_2":"大口下殿"},"8952529":{"post_code":"8952529","prefecture":"KAGOSHIMA KEN","city":"ISA SHI","town":"OKUCHI SHIRAKI","perfecture_jp":"鹿児島県","jp_add_1":"伊佐市","jp_add_2":"大口白木"},"8952441":{"post_code":"8952441","prefecture":"KAGOSHIMA KEN","city":"ISA SHI","town":"OKUCHI SOGI","perfecture_jp":"鹿児島県","jp_add_1":"伊佐市","jp_add_2":"大口曽木"},"8952527":{"post_code":"8952527","prefecture":"KAGOSHIMA KEN","city":"ISA SHI","town":"OKUCHI TASHIRO","perfecture_jp":"鹿児島県","jp_add_1":"伊佐市","jp_add_2":"大口田代"},"8952524":{"post_code":"8952524","prefecture":"KAGOSHIMA KEN","city":"ISA SHI","town":"OKUCHI DOZAKI","perfecture_jp":"鹿児島県","jp_add_1":"伊佐市","jp_add_2":"大口堂崎"},"8952521":{"post_code":"8952521","prefecture":"KAGOSHIMA KEN","city":"ISA SHI","town":"OKUCHI TORISU","perfecture_jp":"鹿児島県","jp_add_1":"伊佐市","jp_add_2":"大口鳥巣"},"8952506":{"post_code":"8952506","prefecture":"KAGOSHIMA KEN","city":"ISA SHI","town":"OKUCHI HARADA","perfecture_jp":"鹿児島県","jp_add_1":"伊佐市","jp_add_2":"大口原田"},"8952442":{"post_code":"8952442","prefecture":"KAGOSHIMA KEN","city":"ISA SHI","town":"OKUCHI HARIMOCHI","perfecture_jp":"鹿児島県","jp_add_1":"伊佐市","jp_add_2":"大口針持"},"8952633":{"post_code":"8952633","prefecture":"KAGOSHIMA KEN","city":"ISA SHI","town":"OKUCHI HIRAIZUMI","perfecture_jp":"鹿児島県","jp_add_1":"伊佐市","jp_add_2":"大口平出水"},"8952632":{"post_code":"8952632","prefecture":"KAGOSHIMA KEN","city":"ISA SHI","town":"OKUCHI FUCHIBE","perfecture_jp":"鹿児島県","jp_add_1":"伊佐市","jp_add_2":"大口渕辺"},"8952526":{"post_code":"8952526","prefecture":"KAGOSHIMA KEN","city":"ISA SHI","town":"OKUCHI MIYAHITO","perfecture_jp":"鹿児島県","jp_add_1":"伊佐市","jp_add_2":"大口宮人"},"8952505":{"post_code":"8952505","prefecture":"KAGOSHIMA KEN","city":"ISA SHI","town":"OKUCHI MEMARU","perfecture_jp":"鹿児島県","jp_add_1":"伊佐市","jp_add_2":"大口目丸"},"8952512":{"post_code":"8952512","prefecture":"KAGOSHIMA KEN","city":"ISA SHI","town":"OKUCHI MOTOMACHI","perfecture_jp":"鹿児島県","jp_add_1":"伊佐市","jp_add_2":"大口元町"},"8952635":{"post_code":"8952635","prefecture":"KAGOSHIMA KEN","city":"ISA SHI","town":"OKUCHI YAMANO","perfecture_jp":"鹿児島県","jp_add_1":"伊佐市","jp_add_2":"大口山野"},"8952811":{"post_code":"8952811","prefecture":"KAGOSHIMA KEN","city":"ISA SHI","town":"HISHIKARI ARATA","perfecture_jp":"鹿児島県","jp_add_1":"伊佐市","jp_add_2":"菱刈荒田"},"8952704":{"post_code":"8952704","prefecture":"KAGOSHIMA KEN","city":"ISA SHI","town":"HISHIKARI ICHIYAMA","perfecture_jp":"鹿児島県","jp_add_1":"伊佐市","jp_add_2":"菱刈市山"},"8952708":{"post_code":"8952708","prefecture":"KAGOSHIMA KEN","city":"ISA SHI","town":"HISHIKARI KAWAKITA","perfecture_jp":"鹿児島県","jp_add_1":"伊佐市","jp_add_2":"菱刈川北"},"8952812":{"post_code":"8952812","prefecture":"KAGOSHIMA KEN","city":"ISA SHI","town":"HISHIKARI KAWAMINAMI","perfecture_jp":"鹿児島県","jp_add_1":"伊佐市","jp_add_2":"菱刈川南"},"8952705":{"post_code":"8952705","prefecture":"KAGOSHIMA KEN","city":"ISA SHI","town":"HISHIKARI SHIGETOME","perfecture_jp":"鹿児島県","jp_add_1":"伊佐市","jp_add_2":"菱刈重留"},"8952702":{"post_code":"8952702","prefecture":"KAGOSHIMA KEN","city":"ISA SHI","town":"HISHIKARI SHIMODE","perfecture_jp":"鹿児島県","jp_add_1":"伊佐市","jp_add_2":"菱刈下手"},"8952706":{"post_code":"8952706","prefecture":"KAGOSHIMA KEN","city":"ISA SHI","town":"HISHIKARI TANAKA","perfecture_jp":"鹿児島県","jp_add_1":"伊佐市","jp_add_2":"菱刈田中"},"8952707":{"post_code":"8952707","prefecture":"KAGOSHIMA KEN","city":"ISA SHI","town":"HISHIKARI TOKUBE","perfecture_jp":"鹿児島県","jp_add_1":"伊佐市","jp_add_2":"菱刈徳辺"},"8952703":{"post_code":"8952703","prefecture":"KAGOSHIMA KEN","city":"ISA SHI","town":"HISHIKARI HANAKITA","perfecture_jp":"鹿児島県","jp_add_1":"伊佐市","jp_add_2":"菱刈花北"},"8952701":{"post_code":"8952701","prefecture":"KAGOSHIMA KEN","city":"ISA SHI","town":"HISHIKARI MAEME","perfecture_jp":"鹿児島県","jp_add_1":"伊佐市","jp_add_2":"菱刈前目"},"8952813":{"post_code":"8952813","prefecture":"KAGOSHIMA KEN","city":"ISA SHI","town":"HISHIKARI MINAMIURA","perfecture_jp":"鹿児島県","jp_add_1":"伊佐市","jp_add_2":"菱刈南浦"},"8951800":{"post_code":"8951800","prefecture":"KAGOSHIMA KEN","city":"SATSUMA GUN SATSUMA CHO","town":"IKANIKEISAIGANAIBAAI","perfecture_jp":"鹿児島県","jp_add_1":"薩摩郡さつま町","jp_add_2":""},"8951814":{"post_code":"8951814","prefecture":"KAGOSHIMA KEN","city":"SATSUMA GUN SATSUMA CHO","town":"ASAHIMACHI","perfecture_jp":"鹿児島県","jp_add_1":"薩摩郡さつま町","jp_add_2":"旭町"},"8952104":{"post_code":"8952104","prefecture":"KAGOSHIMA KEN","city":"SATSUMA GUN SATSUMA CHO","town":"KASHIWABARU","perfecture_jp":"鹿児島県","jp_add_1":"薩摩郡さつま町","jp_add_2":"柏原"},"8952131":{"post_code":"8952131","prefecture":"KAGOSHIMA KEN","city":"SATSUMA GUN SATSUMA CHO","town":"KUKINO","perfecture_jp":"鹿児島県","jp_add_1":"薩摩郡さつま町","jp_add_2":"柊野"},"8951722":{"post_code":"8951722","prefecture":"KAGOSHIMA KEN","city":"SATSUMA GUN SATSUMA CHO","town":"KUBUKI","perfecture_jp":"鹿児島県","jp_add_1":"薩摩郡さつま町","jp_add_2":"久富木"},"8952201":{"post_code":"8952201","prefecture":"KAGOSHIMA KEN","city":"SATSUMA GUN SATSUMA CHO","town":"GUMYO","perfecture_jp":"鹿児島県","jp_add_1":"薩摩郡さつま町","jp_add_2":"求名"},"8952102":{"post_code":"8952102","prefecture":"KAGOSHIMA KEN","city":"SATSUMA GUN SATSUMA CHO","town":"KOSHI","perfecture_jp":"鹿児島県","jp_add_1":"薩摩郡さつま町","jp_add_2":"神子"},"8952103":{"post_code":"8952103","prefecture":"KAGOSHIMA KEN","city":"SATSUMA GUN SATSUMA CHO","town":"SHIBI","perfecture_jp":"鹿児島県","jp_add_1":"薩摩郡さつま町","jp_add_2":"紫尾"},"8951805":{"post_code":"8951805","prefecture":"KAGOSHIMA KEN","city":"SATSUMA GUN SATSUMA CHO","town":"SHIRAOGAWA","perfecture_jp":"鹿児島県","jp_add_1":"薩摩郡さつま町","jp_add_2":"白男川"},"8951802":{"post_code":"8951802","prefecture":"KAGOSHIMA KEN","city":"SATSUMA GUN SATSUMA CHO","town":"TABARU","perfecture_jp":"鹿児島県","jp_add_1":"薩摩郡さつま町","jp_add_2":"田原"},"8952101":{"post_code":"8952101","prefecture":"KAGOSHIMA KEN","city":"SATSUMA GUN SATSUMA CHO","town":"TSURUDA","perfecture_jp":"鹿児島県","jp_add_1":"薩摩郡さつま町","jp_add_2":"鶴田"},"8951816":{"post_code":"8951816","prefecture":"KAGOSHIMA KEN","city":"SATSUMA GUN SATSUMA CHO","town":"TOKIYOSHI","perfecture_jp":"鹿児島県","jp_add_1":"薩摩郡さつま町","jp_add_2":"時吉"},"8951813":{"post_code":"8951813","prefecture":"KAGOSHIMA KEN","city":"SATSUMA GUN SATSUMA CHO","town":"TODOROMACHI","perfecture_jp":"鹿児島県","jp_add_1":"薩摩郡さつま町","jp_add_2":"轟町"},"8951806":{"post_code":"8951806","prefecture":"KAGOSHIMA KEN","city":"SATSUMA GUN SATSUMA CHO","town":"TOMARINO","perfecture_jp":"鹿児島県","jp_add_1":"薩摩郡さつま町","jp_add_2":"泊野"},"8951811":{"post_code":"8951811","prefecture":"KAGOSHIMA KEN","city":"SATSUMA GUN SATSUMA CHO","town":"TORAI","perfecture_jp":"鹿児島県","jp_add_1":"薩摩郡さつま町","jp_add_2":"虎居"},"8951812":{"post_code":"8951812","prefecture":"KAGOSHIMA KEN","city":"SATSUMA GUN SATSUMA CHO","town":"TORAIMACHI","perfecture_jp":"鹿児島県","jp_add_1":"薩摩郡さつま町","jp_add_2":"虎居町"},"8952202":{"post_code":"8952202","prefecture":"KAGOSHIMA KEN","city":"SATSUMA GUN SATSUMA CHO","town":"NAKATSUGAWA","perfecture_jp":"鹿児島県","jp_add_1":"薩摩郡さつま町","jp_add_2":"中津川"},"8952203":{"post_code":"8952203","prefecture":"KAGOSHIMA KEN","city":"SATSUMA GUN SATSUMA CHO","town":"NAGANO","perfecture_jp":"鹿児島県","jp_add_1":"薩摩郡さつま町","jp_add_2":"永野"},"8951815":{"post_code":"8951815","prefecture":"KAGOSHIMA KEN","city":"SATSUMA GUN SATSUMA CHO","town":"NISHISHIMMACHI","perfecture_jp":"鹿児島県","jp_add_1":"薩摩郡さつま町","jp_add_2":"西新町"},"8951807":{"post_code":"8951807","prefecture":"KAGOSHIMA KEN","city":"SATSUMA GUN SATSUMA CHO","town":"HIRAKAWA","perfecture_jp":"鹿児島県","jp_add_1":"薩摩郡さつま町","jp_add_2":"平川"},"8951801":{"post_code":"8951801","prefecture":"KAGOSHIMA KEN","city":"SATSUMA GUN SATSUMA CHO","town":"HIROSE","perfecture_jp":"鹿児島県","jp_add_1":"薩摩郡さつま町","jp_add_2":"広瀬"},"8951723":{"post_code":"8951723","prefecture":"KAGOSHIMA KEN","city":"SATSUMA GUN SATSUMA CHO","town":"FUTAWATARI","perfecture_jp":"鹿児島県","jp_add_1":"薩摩郡さつま町","jp_add_2":"二渡"},"8951804":{"post_code":"8951804","prefecture":"KAGOSHIMA KEN","city":"SATSUMA GUN SATSUMA CHO","town":"FUNAKI","perfecture_jp":"鹿児島県","jp_add_1":"薩摩郡さつま町","jp_add_2":"船木"},"8951803":{"post_code":"8951803","prefecture":"KAGOSHIMA KEN","city":"SATSUMA GUN SATSUMA CHO","town":"MIYANOJO YACHI","perfecture_jp":"鹿児島県","jp_add_1":"薩摩郡さつま町","jp_add_2":"宮之城屋地"},"8951721":{"post_code":"8951721","prefecture":"KAGOSHIMA KEN","city":"SATSUMA GUN SATSUMA CHO","town":"YAMASAKI","perfecture_jp":"鹿児島県","jp_add_1":"薩摩郡さつま町","jp_add_2":"山崎"},"8951817":{"post_code":"8951817","prefecture":"KAGOSHIMA KEN","city":"SATSUMA GUN SATSUMA CHO","town":"YUDA","perfecture_jp":"鹿児島県","jp_add_1":"薩摩郡さつま町","jp_add_2":"湯田"}}