{"8980000":{"post_code":"8980000","prefecture":"KAGOSHIMA KEN","city":"MAKURAZAKI SHI","town":"IKANIKEISAIGANAIBAAI","perfecture_jp":"鹿児島県","jp_add_1":"枕崎市","jp_add_2":""},"8980080":{"post_code":"8980080","prefecture":"KAGOSHIMA KEN","city":"MAKURAZAKI SHI","town":"AKEBONOCHO","perfecture_jp":"鹿児島県","jp_add_1":"枕崎市","jp_add_2":"あけぼの町"},"8980008":{"post_code":"8980008","prefecture":"KAGOSHIMA KEN","city":"MAKURAZAKI SHI","town":"ASAHIMACHI","perfecture_jp":"鹿児島県","jp_add_1":"枕崎市","jp_add_2":"旭町"},"8980006":{"post_code":"8980006","prefecture":"KAGOSHIMA KEN","city":"MAKURAZAKI SHI","town":"IZUMIMACHI","perfecture_jp":"鹿児島県","jp_add_1":"枕崎市","jp_add_2":"泉町"},"8980084":{"post_code":"8980084","prefecture":"KAGOSHIMA KEN","city":"MAKURAZAKI SHI","town":"ITASHIKINISHIMACHI","perfecture_jp":"鹿児島県","jp_add_1":"枕崎市","jp_add_2":"板敷西町"},"8980082":{"post_code":"8980082","prefecture":"KAGOSHIMA KEN","city":"MAKURAZAKI SHI","town":"ITASHIKIHOMMACHI","perfecture_jp":"鹿児島県","jp_add_1":"枕崎市","jp_add_2":"板敷本町"},"8980083":{"post_code":"8980083","prefecture":"KAGOSHIMA KEN","city":"MAKURAZAKI SHI","town":"ITASHIKIMINAMIMACHI","perfecture_jp":"鹿児島県","jp_add_1":"枕崎市","jp_add_2":"板敷南町"},"8980052":{"post_code":"8980052","prefecture":"KAGOSHIMA KEN","city":"MAKURAZAKI SHI","town":"IWASAKICHO","perfecture_jp":"鹿児島県","jp_add_1":"枕崎市","jp_add_2":"岩崎町"},"8980058":{"post_code":"8980058","prefecture":"KAGOSHIMA KEN","city":"MAKURAZAKI SHI","town":"IWADOCHO","perfecture_jp":"鹿児島県","jp_add_1":"枕崎市","jp_add_2":"岩戸町"},"8980009":{"post_code":"8980009","prefecture":"KAGOSHIMA KEN","city":"MAKURAZAKI SHI","town":"EBISUCHO","perfecture_jp":"鹿児島県","jp_add_1":"枕崎市","jp_add_2":"恵比須町"},"8980026":{"post_code":"8980026","prefecture":"KAGOSHIMA KEN","city":"MAKURAZAKI SHI","town":"OTSUKAKITAMACHI","perfecture_jp":"鹿児島県","jp_add_1":"枕崎市","jp_add_2":"大塚北町"},"8980028":{"post_code":"8980028","prefecture":"KAGOSHIMA KEN","city":"MAKURAZAKI SHI","town":"OTSUKANAKAMACHI","perfecture_jp":"鹿児島県","jp_add_1":"枕崎市","jp_add_2":"大塚中町"},"8980027":{"post_code":"8980027","prefecture":"KAGOSHIMA KEN","city":"MAKURAZAKI SHI","town":"OTSUKANISHIMACHI","perfecture_jp":"鹿児島県","jp_add_1":"枕崎市","jp_add_2":"大塚西町"},"8980029":{"post_code":"8980029","prefecture":"KAGOSHIMA KEN","city":"MAKURAZAKI SHI","town":"OTSUKAMINAMIMACHI","perfecture_jp":"鹿児島県","jp_add_1":"枕崎市","jp_add_2":"大塚南町"},"8980003":{"post_code":"8980003","prefecture":"KAGOSHIMA KEN","city":"MAKURAZAKI SHI","town":"ORIGUCHICHO","perfecture_jp":"鹿児島県","jp_add_1":"枕崎市","jp_add_2":"折口町"},"8980054":{"post_code":"8980054","prefecture":"KAGOSHIMA KEN","city":"MAKURAZAKI SHI","town":"KAGOFUMOTOMACHI","perfecture_jp":"鹿児島県","jp_add_1":"枕崎市","jp_add_2":"鹿篭麓町"},"8980044":{"post_code":"8980044","prefecture":"KAGOSHIMA KEN","city":"MAKURAZAKI SHI","town":"KASUGACHO","perfecture_jp":"鹿児島県","jp_add_1":"枕崎市","jp_add_2":"春日町"},"8980098":{"post_code":"8980098","prefecture":"KAGOSHIMA KEN","city":"MAKURAZAKI SHI","town":"KAYANOCHO","perfecture_jp":"鹿児島県","jp_add_1":"枕崎市","jp_add_2":"茅野町"},"8980057":{"post_code":"8980057","prefecture":"KAGOSHIMA KEN","city":"MAKURAZAKI SHI","town":"KIHARACHO","perfecture_jp":"鹿児島県","jp_add_1":"枕崎市","jp_add_2":"木原町"},"8980066":{"post_code":"8980066","prefecture":"KAGOSHIMA KEN","city":"MAKURAZAKI SHI","town":"KIYOMIZUMACHI","perfecture_jp":"鹿児島県","jp_add_1":"枕崎市","jp_add_2":"清水町"},"8980076":{"post_code":"8980076","prefecture":"KAGOSHIMA KEN","city":"MAKURAZAKI SHI","town":"KINZANCHO","perfecture_jp":"鹿児島県","jp_add_1":"枕崎市","jp_add_2":"金山町"},"8980074":{"post_code":"8980074","prefecture":"KAGOSHIMA KEN","city":"MAKURAZAKI SHI","town":"KINZANNISHIMACHI","perfecture_jp":"鹿児島県","jp_add_1":"枕崎市","jp_add_2":"金山西町"},"8980088":{"post_code":"8980088","prefecture":"KAGOSHIMA KEN","city":"MAKURAZAKI SHI","town":"KUNIMICHO","perfecture_jp":"鹿児島県","jp_add_1":"枕崎市","jp_add_2":"国見町"},"8980099":{"post_code":"8980099","prefecture":"KAGOSHIMA KEN","city":"MAKURAZAKI SHI","town":"KOTSUKACHO","perfecture_jp":"鹿児島県","jp_add_1":"枕崎市","jp_add_2":"小塚町"},"8980062":{"post_code":"8980062","prefecture":"KAGOSHIMA KEN","city":"MAKURAZAKI SHI","town":"KOTOBUKICHO","perfecture_jp":"鹿児島県","jp_add_1":"枕崎市","jp_add_2":"寿町"},"8980053":{"post_code":"8980053","prefecture":"KAGOSHIMA KEN","city":"MAKURAZAKI SHI","town":"KOBACHO","perfecture_jp":"鹿児島県","jp_add_1":"枕崎市","jp_add_2":"木場町"},"8980094":{"post_code":"8980094","prefecture":"KAGOSHIMA KEN","city":"MAKURAZAKI SHI","town":"KOMAMIZUCHO","perfecture_jp":"鹿児島県","jp_add_1":"枕崎市","jp_add_2":"駒水町"},"8980038":{"post_code":"8980038","prefecture":"KAGOSHIMA KEN","city":"MAKURAZAKI SHI","town":"SAKAENAKAMACHI","perfecture_jp":"鹿児島県","jp_add_1":"枕崎市","jp_add_2":"栄中町"},"8980037":{"post_code":"8980037","prefecture":"KAGOSHIMA KEN","city":"MAKURAZAKI SHI","town":"SAKAEHOMMACHI","perfecture_jp":"鹿児島県","jp_add_1":"枕崎市","jp_add_2":"栄本町"},"8980018":{"post_code":"8980018","prefecture":"KAGOSHIMA KEN","city":"MAKURAZAKI SHI","town":"SAKURAGICHO","perfecture_jp":"鹿児島県","jp_add_1":"枕崎市","jp_add_2":"桜木町"},"8980073":{"post_code":"8980073","prefecture":"KAGOSHIMA KEN","city":"MAKURAZAKI SHI","town":"SAKURAYAMAKAMIMACHI","perfecture_jp":"鹿児島県","jp_add_1":"枕崎市","jp_add_2":"桜山上町"},"8980061":{"post_code":"8980061","prefecture":"KAGOSHIMA KEN","city":"MAKURAZAKI SHI","town":"SAKURAYAMACHO","perfecture_jp":"鹿児島県","jp_add_1":"枕崎市","jp_add_2":"桜山町"},"8980055":{"post_code":"8980055","prefecture":"KAGOSHIMA KEN","city":"MAKURAZAKI SHI","town":"SAKURAYAMANISHIMACHI","perfecture_jp":"鹿児島県","jp_add_1":"枕崎市","jp_add_2":"桜山西町"},"8980065":{"post_code":"8980065","prefecture":"KAGOSHIMA KEN","city":"MAKURAZAKI SHI","town":"SAKURAYAMAHIGASHIMACHI","perfecture_jp":"鹿児島県","jp_add_1":"枕崎市","jp_add_2":"桜山東町"},"8980064":{"post_code":"8980064","prefecture":"KAGOSHIMA KEN","city":"MAKURAZAKI SHI","town":"SAKURAYAMAHOMMACHI","perfecture_jp":"鹿児島県","jp_add_1":"枕崎市","jp_add_2":"桜山本町"},"8980097":{"post_code":"8980097","prefecture":"KAGOSHIMA KEN","city":"MAKURAZAKI SHI","town":"SATOMACHI","perfecture_jp":"鹿児島県","jp_add_1":"枕崎市","jp_add_2":"里町"},"8980002":{"post_code":"8980002","prefecture":"KAGOSHIMA KEN","city":"MAKURAZAKI SHI","town":"SHIOMICHO","perfecture_jp":"鹿児島県","jp_add_1":"枕崎市","jp_add_2":"汐見町"},"8980041":{"post_code":"8980041","prefecture":"KAGOSHIMA KEN","city":"MAKURAZAKI SHI","town":"SHIOYAKITAMACHI","perfecture_jp":"鹿児島県","jp_add_1":"枕崎市","jp_add_2":"塩屋北町"},"8980042":{"post_code":"8980042","prefecture":"KAGOSHIMA KEN","city":"MAKURAZAKI SHI","town":"SHIOYAMINAMIMACHI","perfecture_jp":"鹿児島県","jp_add_1":"枕崎市","jp_add_2":"塩屋南町"},"8980095":{"post_code":"8980095","prefecture":"KAGOSHIMA KEN","city":"MAKURAZAKI SHI","town":"SHIMOMATSUCHO","perfecture_jp":"鹿児島県","jp_add_1":"枕崎市","jp_add_2":"下松町"},"8980089":{"post_code":"8980089","prefecture":"KAGOSHIMA KEN","city":"MAKURAZAKI SHI","town":"SHIRASAWAKITAMACHI","perfecture_jp":"鹿児島県","jp_add_1":"枕崎市","jp_add_2":"白沢北町"},"8980092":{"post_code":"8980092","prefecture":"KAGOSHIMA KEN","city":"MAKURAZAKI SHI","town":"SHIRASAWANISHIMACHI","perfecture_jp":"鹿児島県","jp_add_1":"枕崎市","jp_add_2":"白沢西町"},"8980091":{"post_code":"8980091","prefecture":"KAGOSHIMA KEN","city":"MAKURAZAKI SHI","town":"SHIRASAWAHIGASHIMACHI","perfecture_jp":"鹿児島県","jp_add_1":"枕崎市","jp_add_2":"白沢東町"},"8980007":{"post_code":"8980007","prefecture":"KAGOSHIMA KEN","city":"MAKURAZAKI SHI","town":"SHIMMACHI","perfecture_jp":"鹿児島県","jp_add_1":"枕崎市","jp_add_2":"新町"},"8980017":{"post_code":"8980017","prefecture":"KAGOSHIMA KEN","city":"MAKURAZAKI SHI","town":"SUMIYOSHICHO","perfecture_jp":"鹿児島県","jp_add_1":"枕崎市","jp_add_2":"住吉町"},"8980087":{"post_code":"8980087","prefecture":"KAGOSHIMA KEN","city":"MAKURAZAKI SHI","town":"SETOCHO","perfecture_jp":"鹿児島県","jp_add_1":"枕崎市","jp_add_2":"瀬戸町"},"8980047":{"post_code":"8980047","prefecture":"KAGOSHIMA KEN","city":"MAKURAZAKI SHI","town":"SONOMINISHIMACHI","perfecture_jp":"鹿児島県","jp_add_1":"枕崎市","jp_add_2":"園見西町"},"8980046":{"post_code":"8980046","prefecture":"KAGOSHIMA KEN","city":"MAKURAZAKI SHI","town":"SONOMIHOMMACHI","perfecture_jp":"鹿児島県","jp_add_1":"枕崎市","jp_add_2":"園見本町"},"8980016":{"post_code":"8980016","prefecture":"KAGOSHIMA KEN","city":"MAKURAZAKI SHI","town":"TAKAMICHO","perfecture_jp":"鹿児島県","jp_add_1":"枕崎市","jp_add_2":"高見町"},"8980045":{"post_code":"8980045","prefecture":"KAGOSHIMA KEN","city":"MAKURAZAKI SHI","town":"TATEGAMIKITAMACHI","perfecture_jp":"鹿児島県","jp_add_1":"枕崎市","jp_add_2":"立神北町"},"8980025":{"post_code":"8980025","prefecture":"KAGOSHIMA KEN","city":"MAKURAZAKI SHI","town":"TATEGAMIHOMMACHI","perfecture_jp":"鹿児島県","jp_add_1":"枕崎市","jp_add_2":"立神本町"},"8980075":{"post_code":"8980075","prefecture":"KAGOSHIMA KEN","city":"MAKURAZAKI SHI","town":"TABUGAWACHO","perfecture_jp":"鹿児島県","jp_add_1":"枕崎市","jp_add_2":"田布川町"},"8980051":{"post_code":"8980051","prefecture":"KAGOSHIMA KEN","city":"MAKURAZAKI SHI","town":"CHUOCHO","perfecture_jp":"鹿児島県","jp_add_1":"枕崎市","jp_add_2":"中央町"},"8980012":{"post_code":"8980012","prefecture":"KAGOSHIMA KEN","city":"MAKURAZAKI SHI","town":"CHIYODACHO","perfecture_jp":"鹿児島県","jp_add_1":"枕崎市","jp_add_2":"千代田町"},"8980081":{"post_code":"8980081","prefecture":"KAGOSHIMA KEN","city":"MAKURAZAKI SHI","town":"TOYOTOMEMACHI","perfecture_jp":"鹿児島県","jp_add_1":"枕崎市","jp_add_2":"豊留町"},"8980005":{"post_code":"8980005","prefecture":"KAGOSHIMA KEN","city":"MAKURAZAKI SHI","town":"NAKAMACHI","perfecture_jp":"鹿児島県","jp_add_1":"枕崎市","jp_add_2":"中町"},"8980024":{"post_code":"8980024","prefecture":"KAGOSHIMA KEN","city":"MAKURAZAKI SHI","town":"NISHIKAGO","perfecture_jp":"鹿児島県","jp_add_1":"枕崎市","jp_add_2":"西鹿篭"},"8980015":{"post_code":"8980015","prefecture":"KAGOSHIMA KEN","city":"MAKURAZAKI SHI","town":"NISHIHOMMACHI","perfecture_jp":"鹿児島県","jp_add_1":"枕崎市","jp_add_2":"西本町"},"8980093":{"post_code":"8980093","prefecture":"KAGOSHIMA KEN","city":"MAKURAZAKI SHI","town":"NITAURACHO","perfecture_jp":"鹿児島県","jp_add_1":"枕崎市","jp_add_2":"仁田浦町"},"8980021":{"post_code":"8980021","prefecture":"KAGOSHIMA KEN","city":"MAKURAZAKI SHI","town":"HIGASHIKAGO","perfecture_jp":"鹿児島県","jp_add_1":"枕崎市","jp_add_2":"東鹿篭"},"8980014":{"post_code":"8980014","prefecture":"KAGOSHIMA KEN","city":"MAKURAZAKI SHI","town":"HIGASHIHOMMACHI","perfecture_jp":"鹿児島県","jp_add_1":"枕崎市","jp_add_2":"東本町"},"8980043":{"post_code":"8980043","prefecture":"KAGOSHIMA KEN","city":"MAKURAZAKI SHI","town":"HINOKAMIKITAMACHI","perfecture_jp":"鹿児島県","jp_add_1":"枕崎市","jp_add_2":"火之神北町"},"8980048":{"post_code":"8980048","prefecture":"KAGOSHIMA KEN","city":"MAKURAZAKI SHI","town":"HINOKAMICHO","perfecture_jp":"鹿児島県","jp_add_1":"枕崎市","jp_add_2":"火之神町"},"8980049":{"post_code":"8980049","prefecture":"KAGOSHIMA KEN","city":"MAKURAZAKI SHI","town":"HINOKAMIMISAKICHO","perfecture_jp":"鹿児島県","jp_add_1":"枕崎市","jp_add_2":"火之神岬町"},"8980034":{"post_code":"8980034","prefecture":"KAGOSHIMA KEN","city":"MAKURAZAKI SHI","town":"HINODECHO","perfecture_jp":"鹿児島県","jp_add_1":"枕崎市","jp_add_2":"日之出町"},"8980035":{"post_code":"8980035","prefecture":"KAGOSHIMA KEN","city":"MAKURAZAKI SHI","town":"HIRATAMACHI","perfecture_jp":"鹿児島県","jp_add_1":"枕崎市","jp_add_2":"平田町"},"8980032":{"post_code":"8980032","prefecture":"KAGOSHIMA KEN","city":"MAKURAZAKI SHI","town":"BEPPU","perfecture_jp":"鹿児島県","jp_add_1":"枕崎市","jp_add_2":"別府"},"8980086":{"post_code":"8980086","prefecture":"KAGOSHIMA KEN","city":"MAKURAZAKI SHI","town":"BEPPUNISHIMACHI","perfecture_jp":"鹿児島県","jp_add_1":"枕崎市","jp_add_2":"別府西町"},"8980085":{"post_code":"8980085","prefecture":"KAGOSHIMA KEN","city":"MAKURAZAKI SHI","town":"BEPPUHIGASHIMACHI","perfecture_jp":"鹿児島県","jp_add_1":"枕崎市","jp_add_2":"別府東町"},"8980096":{"post_code":"8980096","prefecture":"KAGOSHIMA KEN","city":"MAKURAZAKI SHI","town":"MAKAYAMACHI","perfecture_jp":"鹿児島県","jp_add_1":"枕崎市","jp_add_2":"まかや町"},"8980031":{"post_code":"8980031","prefecture":"KAGOSHIMA KEN","city":"MAKURAZAKI SHI","town":"MAKURAZAKI","perfecture_jp":"鹿児島県","jp_add_1":"枕崎市","jp_add_2":"枕崎"},"8980001":{"post_code":"8980001","prefecture":"KAGOSHIMA KEN","city":"MAKURAZAKI SHI","town":"MATSUNOCHO","perfecture_jp":"鹿児島県","jp_add_1":"枕崎市","jp_add_2":"松之尾町"},"8980072":{"post_code":"8980072","prefecture":"KAGOSHIMA KEN","city":"MAKURAZAKI SHI","town":"MICHINOCHO","perfecture_jp":"鹿児島県","jp_add_1":"枕崎市","jp_add_2":"道野町"},"8980011":{"post_code":"8980011","prefecture":"KAGOSHIMA KEN","city":"MAKURAZAKI SHI","town":"MIDORIMACHI","perfecture_jp":"鹿児島県","jp_add_1":"枕崎市","jp_add_2":"緑町"},"8980004":{"post_code":"8980004","prefecture":"KAGOSHIMA KEN","city":"MAKURAZAKI SHI","town":"MINATOMACHI","perfecture_jp":"鹿児島県","jp_add_1":"枕崎市","jp_add_2":"港町"},"8980056":{"post_code":"8980056","prefecture":"KAGOSHIMA KEN","city":"MAKURAZAKI SHI","town":"MIHARAMACHI","perfecture_jp":"鹿児島県","jp_add_1":"枕崎市","jp_add_2":"美原町"},"8980022":{"post_code":"8980022","prefecture":"KAGOSHIMA KEN","city":"MAKURAZAKI SHI","town":"MIYATACHO","perfecture_jp":"鹿児島県","jp_add_1":"枕崎市","jp_add_2":"宮田町"},"8980033":{"post_code":"8980033","prefecture":"KAGOSHIMA KEN","city":"MAKURAZAKI SHI","town":"MIYAMAECHO","perfecture_jp":"鹿児島県","jp_add_1":"枕崎市","jp_add_2":"宮前町"},"8980071":{"post_code":"8980071","prefecture":"KAGOSHIMA KEN","city":"MAKURAZAKI SHI","town":"MIYAMACHO","perfecture_jp":"鹿児島県","jp_add_1":"枕崎市","jp_add_2":"美山町"},"8980063":{"post_code":"8980063","prefecture":"KAGOSHIMA KEN","city":"MAKURAZAKI SHI","town":"MYOKEMMACHI","perfecture_jp":"鹿児島県","jp_add_1":"枕崎市","jp_add_2":"妙見町"},"8980036":{"post_code":"8980036","prefecture":"KAGOSHIMA KEN","city":"MAKURAZAKI SHI","town":"MEIWACHO","perfecture_jp":"鹿児島県","jp_add_1":"枕崎市","jp_add_2":"明和町"},"8980013":{"post_code":"8980013","prefecture":"KAGOSHIMA KEN","city":"MAKURAZAKI SHI","town":"YAMATECHO","perfecture_jp":"鹿児島県","jp_add_1":"枕崎市","jp_add_2":"山手町"},"8980023":{"post_code":"8980023","prefecture":"KAGOSHIMA KEN","city":"MAKURAZAKI SHI","town":"WAKABACHO","perfecture_jp":"鹿児島県","jp_add_1":"枕崎市","jp_add_2":"若葉町"},"8980221":{"post_code":"8980221","prefecture":"KAGOSHIMA KEN","city":"MINAMISATSUMA SHI","town":"OURACHO(4713-5277-BANCHI)","perfecture_jp":"鹿児島県","jp_add_1":"南さつま市","jp_add_2":"大浦町"},"8980212":{"post_code":"8980212","prefecture":"KAGOSHIMA KEN","city":"MINAMISATSUMA SHI","town":"BONOTSUCHO AKIME","perfecture_jp":"鹿児島県","jp_add_1":"南さつま市","jp_add_2":"坊津町秋目"},"8980211":{"post_code":"8980211","prefecture":"KAGOSHIMA KEN","city":"MINAMISATSUMA SHI","town":"BONOTSUCHO KUSHI","perfecture_jp":"鹿児島県","jp_add_1":"南さつま市","jp_add_2":"坊津町久志"},"8980102":{"post_code":"8980102","prefecture":"KAGOSHIMA KEN","city":"MINAMISATSUMA SHI","town":"BONOTSUCHO TOMARI","perfecture_jp":"鹿児島県","jp_add_1":"南さつま市","jp_add_2":"坊津町泊"},"8980101":{"post_code":"8980101","prefecture":"KAGOSHIMA KEN","city":"MINAMISATSUMA SHI","town":"BONOTSUCHO BO","perfecture_jp":"鹿児島県","jp_add_1":"南さつま市","jp_add_2":"坊津町坊"}}