{"9010154":{"post_code":"9010154","prefecture":"OKINAWA KEN","city":"NAHA SHI","town":"AKAMINE","perfecture_jp":"沖縄県","jp_add_1":"那覇市","jp_add_2":"赤嶺"},"9010143":{"post_code":"9010143","prefecture":"OKINAWA KEN","city":"NAHA SHI","town":"ASHIMINE","perfecture_jp":"沖縄県","jp_add_1":"那覇市","jp_add_2":"安次嶺"},"9010153":{"post_code":"9010153","prefecture":"OKINAWA KEN","city":"NAHA SHI","town":"UEBARU","perfecture_jp":"沖縄県","jp_add_1":"那覇市","jp_add_2":"宇栄原"},"9010148":{"post_code":"9010148","prefecture":"OKINAWA KEN","city":"NAHA SHI","town":"OMINE","perfecture_jp":"沖縄県","jp_add_1":"那覇市","jp_add_2":"大嶺"},"9010152":{"post_code":"9010152","prefecture":"OKINAWA KEN","city":"NAHA SHI","town":"OROKU","perfecture_jp":"沖縄県","jp_add_1":"那覇市","jp_add_2":"小禄"},"9010142":{"post_code":"9010142","prefecture":"OKINAWA KEN","city":"NAHA SHI","town":"KAGAMIZU","perfecture_jp":"沖縄県","jp_add_1":"那覇市","jp_add_2":"鏡水"},"9010155":{"post_code":"9010155","prefecture":"OKINAWA KEN","city":"NAHA SHI","town":"KANAGUSUKU","perfecture_jp":"沖縄県","jp_add_1":"那覇市","jp_add_2":"金城"},"9010151":{"post_code":"9010151","prefecture":"OKINAWA KEN","city":"NAHA SHI","town":"KYOHARACHO","perfecture_jp":"沖縄県","jp_add_1":"那覇市","jp_add_2":"鏡原町"},"9010146":{"post_code":"9010146","prefecture":"OKINAWA KEN","city":"NAHA SHI","town":"GUSHI","perfecture_jp":"沖縄県","jp_add_1":"那覇市","jp_add_2":"具志"},"9010141":{"post_code":"9010141","prefecture":"OKINAWA KEN","city":"NAHA SHI","town":"SUMIYOSHICHO","perfecture_jp":"沖縄県","jp_add_1":"那覇市","jp_add_2":"住吉町"},"9010145":{"post_code":"9010145","prefecture":"OKINAWA KEN","city":"NAHA SHI","town":"TAKARA","perfecture_jp":"沖縄県","jp_add_1":"那覇市","jp_add_2":"高良"},"9010156":{"post_code":"9010156","prefecture":"OKINAWA KEN","city":"NAHA SHI","town":"TABARU","perfecture_jp":"沖縄県","jp_add_1":"那覇市","jp_add_2":"田原"},"9010144":{"post_code":"9010144","prefecture":"OKINAWA KEN","city":"NAHA SHI","town":"TOMA","perfecture_jp":"沖縄県","jp_add_1":"那覇市","jp_add_2":"当間"},"9010147":{"post_code":"9010147","prefecture":"OKINAWA KEN","city":"NAHA SHI","town":"MIYAGUSUKU","perfecture_jp":"沖縄県","jp_add_1":"那覇市","jp_add_2":"宮城"},"9012200":{"post_code":"9012200","prefecture":"OKINAWA KEN","city":"GINOWAN SHI","town":"IKANIKEISAIGANAIBAAI","perfecture_jp":"沖縄県","jp_add_1":"宜野湾市","jp_add_2":""},"9012206":{"post_code":"9012206","prefecture":"OKINAWA KEN","city":"GINOWAN SHI","town":"AICHI","perfecture_jp":"沖縄県","jp_add_1":"宜野湾市","jp_add_2":"愛知"},"9012205":{"post_code":"9012205","prefecture":"OKINAWA KEN","city":"GINOWAN SHI","town":"AKAMICHI","perfecture_jp":"沖縄県","jp_add_1":"宜野湾市","jp_add_2":"赤道"},"9012201":{"post_code":"9012201","prefecture":"OKINAWA KEN","city":"GINOWAN SHI","town":"ARAGUSUKU","perfecture_jp":"沖縄県","jp_add_1":"宜野湾市","jp_add_2":"新城"},"9012221":{"post_code":"9012221","prefecture":"OKINAWA KEN","city":"GINOWAN SHI","town":"ISA","perfecture_jp":"沖縄県","jp_add_1":"宜野湾市","jp_add_2":"伊佐"},"9012204":{"post_code":"9012204","prefecture":"OKINAWA KEN","city":"GINOWAN SHI","town":"UEHARA","perfecture_jp":"沖縄県","jp_add_1":"宜野湾市","jp_add_2":"上原"},"9012227":{"post_code":"9012227","prefecture":"OKINAWA KEN","city":"GINOWAN SHI","town":"UCHIDOMARI","perfecture_jp":"沖縄県","jp_add_1":"宜野湾市","jp_add_2":"宇地泊"},"9012225":{"post_code":"9012225","prefecture":"OKINAWA KEN","city":"GINOWAN SHI","town":"OJANA","perfecture_jp":"沖縄県","jp_add_1":"宜野湾市","jp_add_2":"大謝名"},"9012223":{"post_code":"9012223","prefecture":"OKINAWA KEN","city":"GINOWAN SHI","town":"OYAMA","perfecture_jp":"沖縄県","jp_add_1":"宜野湾市","jp_add_2":"大山"},"9012226":{"post_code":"9012226","prefecture":"OKINAWA KEN","city":"GINOWAN SHI","town":"KAKAZU","perfecture_jp":"沖縄県","jp_add_1":"宜野湾市","jp_add_2":"嘉数"},"9012214":{"post_code":"9012214","prefecture":"OKINAWA KEN","city":"GINOWAN SHI","town":"GANEKO","perfecture_jp":"沖縄県","jp_add_1":"宜野湾市","jp_add_2":"我如古"},"9012207":{"post_code":"9012207","prefecture":"OKINAWA KEN","city":"GINOWAN SHI","town":"KAMIYAMA","perfecture_jp":"沖縄県","jp_add_1":"宜野湾市","jp_add_2":"神山"},"9012211":{"post_code":"9012211","prefecture":"OKINAWA KEN","city":"GINOWAN SHI","town":"GINOWAN","perfecture_jp":"沖縄県","jp_add_1":"宜野湾市","jp_add_2":"宜野湾"},"9012222":{"post_code":"9012222","prefecture":"OKINAWA KEN","city":"GINOWAN SHI","town":"KIYUNA","perfecture_jp":"沖縄県","jp_add_1":"宜野湾市","jp_add_2":"喜友名"},"9012216":{"post_code":"9012216","prefecture":"OKINAWA KEN","city":"GINOWAN SHI","town":"SAMASHITA","perfecture_jp":"沖縄県","jp_add_1":"宜野湾市","jp_add_2":"佐真下"},"9012213":{"post_code":"9012213","prefecture":"OKINAWA KEN","city":"GINOWAN SHI","town":"SHIMASHI","perfecture_jp":"沖縄県","jp_add_1":"宜野湾市","jp_add_2":"志真志"},"9012212":{"post_code":"9012212","prefecture":"OKINAWA KEN","city":"GINOWAN SHI","town":"NAGATA","perfecture_jp":"沖縄県","jp_add_1":"宜野湾市","jp_add_2":"長田"},"9012203":{"post_code":"9012203","prefecture":"OKINAWA KEN","city":"GINOWAN SHI","town":"NODAKE","perfecture_jp":"沖縄県","jp_add_1":"宜野湾市","jp_add_2":"野嵩"},"9012202":{"post_code":"9012202","prefecture":"OKINAWA KEN","city":"GINOWAN SHI","town":"FUTEMMA","perfecture_jp":"沖縄県","jp_add_1":"宜野湾市","jp_add_2":"普天間"},"9012215":{"post_code":"9012215","prefecture":"OKINAWA KEN","city":"GINOWAN SHI","town":"MAEHARA","perfecture_jp":"沖縄県","jp_add_1":"宜野湾市","jp_add_2":"真栄原"},"9012224":{"post_code":"9012224","prefecture":"OKINAWA KEN","city":"GINOWAN SHI","town":"MASHIKI","perfecture_jp":"沖縄県","jp_add_1":"宜野湾市","jp_add_2":"真志喜"},"9012100":{"post_code":"9012100","prefecture":"OKINAWA KEN","city":"URASOE SHI","town":"IKANIKEISAIGANAIBAAI","perfecture_jp":"沖縄県","jp_add_1":"浦添市","jp_add_2":""},"9012114":{"post_code":"9012114","prefecture":"OKINAWA KEN","city":"URASOE SHI","town":"AHACHA","perfecture_jp":"沖縄県","jp_add_1":"浦添市","jp_add_2":"安波茶"},"9012132":{"post_code":"9012132","prefecture":"OKINAWA KEN","city":"URASOE SHI","town":"ISO","perfecture_jp":"沖縄県","jp_add_1":"浦添市","jp_add_2":"伊祖"},"9012128":{"post_code":"9012128","prefecture":"OKINAWA KEN","city":"URASOE SHI","town":"INANSE","perfecture_jp":"沖縄県","jp_add_1":"浦添市","jp_add_2":"伊奈武瀬"},"9012123":{"post_code":"9012123","prefecture":"OKINAWA KEN","city":"URASOE SHI","town":"IRIJIMA","perfecture_jp":"沖縄県","jp_add_1":"浦添市","jp_add_2":"西洲"},"9012121":{"post_code":"9012121","prefecture":"OKINAWA KEN","city":"URASOE SHI","town":"UCHIMA","perfecture_jp":"沖縄県","jp_add_1":"浦添市","jp_add_2":"内間"},"9012113":{"post_code":"9012113","prefecture":"OKINAWA KEN","city":"URASOE SHI","town":"OHIRA","perfecture_jp":"沖縄県","jp_add_1":"浦添市","jp_add_2":"大平"},"9012111":{"post_code":"9012111","prefecture":"OKINAWA KEN","city":"URASOE SHI","town":"KYOZUKA","perfecture_jp":"沖縄県","jp_add_1":"浦添市","jp_add_2":"経塚"},"9012133":{"post_code":"9012133","prefecture":"OKINAWA KEN","city":"URASOE SHI","town":"GUSUKUMA","perfecture_jp":"沖縄県","jp_add_1":"浦添市","jp_add_2":"城間"},"9012124":{"post_code":"9012124","prefecture":"OKINAWA KEN","city":"URASOE SHI","town":"KOWAN","perfecture_jp":"沖縄県","jp_add_1":"浦添市","jp_add_2":"小湾"},"9012122":{"post_code":"9012122","prefecture":"OKINAWA KEN","city":"URASOE SHI","town":"JITCHAKU","perfecture_jp":"沖縄県","jp_add_1":"浦添市","jp_add_2":"勢理客"},"9012112":{"post_code":"9012112","prefecture":"OKINAWA KEN","city":"URASOE SHI","town":"TAKUSHI","perfecture_jp":"沖縄県","jp_add_1":"浦添市","jp_add_2":"沢岻"},"9012104":{"post_code":"9012104","prefecture":"OKINAWA KEN","city":"URASOE SHI","town":"TOYAMA","perfecture_jp":"沖縄県","jp_add_1":"浦添市","jp_add_2":"当山"},"9012103":{"post_code":"9012103","prefecture":"OKINAWA KEN","city":"URASOE SHI","town":"NAKAMA","perfecture_jp":"沖縄県","jp_add_1":"浦添市","jp_add_2":"仲間"},"9012125":{"post_code":"9012125","prefecture":"OKINAWA KEN","city":"URASOE SHI","town":"NAKANISHI","perfecture_jp":"沖縄県","jp_add_1":"浦添市","jp_add_2":"仲西"},"9012101":{"post_code":"9012101","prefecture":"OKINAWA KEN","city":"URASOE SHI","town":"NISHIHARA","perfecture_jp":"沖縄県","jp_add_1":"浦添市","jp_add_2":"西原"},"9012102":{"post_code":"9012102","prefecture":"OKINAWA KEN","city":"URASOE SHI","town":"MAEDA","perfecture_jp":"沖縄県","jp_add_1":"浦添市","jp_add_2":"前田"},"9012131":{"post_code":"9012131","prefecture":"OKINAWA KEN","city":"URASOE SHI","town":"MAKIMINATO","perfecture_jp":"沖縄県","jp_add_1":"浦添市","jp_add_2":"牧港"},"9012134":{"post_code":"9012134","prefecture":"OKINAWA KEN","city":"URASOE SHI","town":"MINATOGAWA","perfecture_jp":"沖縄県","jp_add_1":"浦添市","jp_add_2":"港川"},"9012126":{"post_code":"9012126","prefecture":"OKINAWA KEN","city":"URASOE SHI","town":"MIYAGI","perfecture_jp":"沖縄県","jp_add_1":"浦添市","jp_add_2":"宮城"},"9012127":{"post_code":"9012127","prefecture":"OKINAWA KEN","city":"URASOE SHI","town":"YAFUSO","perfecture_jp":"沖縄県","jp_add_1":"浦添市","jp_add_2":"屋富祖"},"9010300":{"post_code":"9010300","prefecture":"OKINAWA KEN","city":"ITOMAN SHI","town":"IKANIKEISAIGANAIBAAI","perfecture_jp":"沖縄県","jp_add_1":"糸満市","jp_add_2":""},"9010301":{"post_code":"9010301","prefecture":"OKINAWA KEN","city":"ITOMAN SHI","town":"AHAGON","perfecture_jp":"沖縄県","jp_add_1":"糸満市","jp_add_2":"阿波根"},"9010323":{"post_code":"9010323","prefecture":"OKINAWA KEN","city":"ITOMAN SHI","town":"ARAKAKI","perfecture_jp":"沖縄県","jp_add_1":"糸満市","jp_add_2":"新垣"},"9010363":{"post_code":"9010363","prefecture":"OKINAWA KEN","city":"ITOMAN SHI","town":"ISHIKI","perfecture_jp":"沖縄県","jp_add_1":"糸満市","jp_add_2":"伊敷"},"9010342":{"post_code":"9010342","prefecture":"OKINAWA KEN","city":"ITOMAN SHI","town":"ITOSU","perfecture_jp":"沖縄県","jp_add_1":"糸満市","jp_add_2":"糸洲"},"9010361":{"post_code":"9010361","prefecture":"OKINAWA KEN","city":"ITOMAN SHI","town":"ITOMAN","perfecture_jp":"沖縄県","jp_add_1":"糸満市","jp_add_2":"糸満"},"9010344":{"post_code":"9010344","prefecture":"OKINAWA KEN","city":"ITOMAN SHI","town":"IHARA","perfecture_jp":"沖縄県","jp_add_1":"糸満市","jp_add_2":"伊原"},"9010332":{"post_code":"9010332","prefecture":"OKINAWA KEN","city":"ITOMAN SHI","town":"UEGUSUKU","perfecture_jp":"沖縄県","jp_add_1":"糸満市","jp_add_2":"宇江城"},"9010325":{"post_code":"9010325","prefecture":"OKINAWA KEN","city":"ITOMAN SHI","town":"OZATO","perfecture_jp":"沖縄県","jp_add_1":"糸満市","jp_add_2":"大里"},"9010334":{"post_code":"9010334","prefecture":"OKINAWA KEN","city":"ITOMAN SHI","town":"ODO","perfecture_jp":"沖縄県","jp_add_1":"糸満市","jp_add_2":"大度"},"9010313":{"post_code":"9010313","prefecture":"OKINAWA KEN","city":"ITOMAN SHI","town":"KAKAZU","perfecture_jp":"沖縄県","jp_add_1":"糸満市","jp_add_2":"賀数"},"9010303":{"post_code":"9010303","prefecture":"OKINAWA KEN","city":"ITOMAN SHI","town":"KANEGUSUKU","perfecture_jp":"沖縄県","jp_add_1":"糸満市","jp_add_2":"兼城"},"9010312":{"post_code":"9010312","prefecture":"OKINAWA KEN","city":"ITOMAN SHI","town":"KITANAMIHIRA","perfecture_jp":"沖縄県","jp_add_1":"糸満市","jp_add_2":"北波平"},"9010354":{"post_code":"9010354","prefecture":"OKINAWA KEN","city":"ITOMAN SHI","town":"KYAN","perfecture_jp":"沖縄県","jp_add_1":"糸満市","jp_add_2":"喜屋武"},"9010324":{"post_code":"9010324","prefecture":"OKINAWA KEN","city":"ITOMAN SHI","town":"KUNIYOSHI","perfecture_jp":"沖縄県","jp_add_1":"糸満市","jp_add_2":"国吉"},"9010341":{"post_code":"9010341","prefecture":"OKINAWA KEN","city":"ITOMAN SHI","town":"KOHAGURA","perfecture_jp":"沖縄県","jp_add_1":"糸満市","jp_add_2":"小波蔵"},"9010335":{"post_code":"9010335","prefecture":"OKINAWA KEN","city":"ITOMAN SHI","town":"KOMESU","perfecture_jp":"沖縄県","jp_add_1":"糸満市","jp_add_2":"米須"},"9010314":{"post_code":"9010314","prefecture":"OKINAWA KEN","city":"ITOMAN SHI","town":"ZAHA","perfecture_jp":"沖縄県","jp_add_1":"糸満市","jp_add_2":"座波"},"9010364":{"post_code":"9010364","prefecture":"OKINAWA KEN","city":"ITOMAN SHI","town":"SHIOZAKICHO","perfecture_jp":"沖縄県","jp_add_1":"糸満市","jp_add_2":"潮崎町"},"9010302":{"post_code":"9010302","prefecture":"OKINAWA KEN","city":"ITOMAN SHI","town":"SHIOHIRA","perfecture_jp":"沖縄県","jp_add_1":"糸満市","jp_add_2":"潮平"},"9010311":{"post_code":"9010311","prefecture":"OKINAWA KEN","city":"ITOMAN SHI","town":"TAKETOMI","perfecture_jp":"沖縄県","jp_add_1":"糸満市","jp_add_2":"武富"},"9010353":{"post_code":"9010353","prefecture":"OKINAWA KEN","city":"ITOMAN SHI","town":"TSUKAZATO","perfecture_jp":"沖縄県","jp_add_1":"糸満市","jp_add_2":"束里"},"9010315":{"post_code":"9010315","prefecture":"OKINAWA KEN","city":"ITOMAN SHI","town":"TERUYA","perfecture_jp":"沖縄県","jp_add_1":"糸満市","jp_add_2":"照屋"},"9010321":{"post_code":"9010321","prefecture":"OKINAWA KEN","city":"ITOMAN SHI","town":"TOYOHARA","perfecture_jp":"沖縄県","jp_add_1":"糸満市","jp_add_2":"豊原"},"9010351":{"post_code":"9010351","prefecture":"OKINAWA KEN","city":"ITOMAN SHI","town":"NASHIRO","perfecture_jp":"沖縄県","jp_add_1":"糸満市","jp_add_2":"名城"},"9010304":{"post_code":"9010304","prefecture":"OKINAWA KEN","city":"ITOMAN SHI","town":"NISHIKAWACHO","perfecture_jp":"沖縄県","jp_add_1":"糸満市","jp_add_2":"西川町"},"9010305":{"post_code":"9010305","prefecture":"OKINAWA KEN","city":"ITOMAN SHI","town":"NISHIZAKI","perfecture_jp":"沖縄県","jp_add_1":"糸満市","jp_add_2":"西崎"},"9010306":{"post_code":"9010306","prefecture":"OKINAWA KEN","city":"ITOMAN SHI","town":"NISHIZAKICHO","perfecture_jp":"沖縄県","jp_add_1":"糸満市","jp_add_2":"西崎町"},"9010345":{"post_code":"9010345","prefecture":"OKINAWA KEN","city":"ITOMAN SHI","town":"FUKUJI","perfecture_jp":"沖縄県","jp_add_1":"糸満市","jp_add_2":"福地"},"9010362":{"post_code":"9010362","prefecture":"OKINAWA KEN","city":"ITOMAN SHI","town":"MAEZATO","perfecture_jp":"沖縄県","jp_add_1":"糸満市","jp_add_2":"真栄里"},"9010331":{"post_code":"9010331","prefecture":"OKINAWA KEN","city":"ITOMAN SHI","town":"MAEHIRA","perfecture_jp":"沖縄県","jp_add_1":"糸満市","jp_add_2":"真栄平"},"9010336":{"post_code":"9010336","prefecture":"OKINAWA KEN","city":"ITOMAN SHI","town":"MAKABE","perfecture_jp":"沖縄県","jp_add_1":"糸満市","jp_add_2":"真壁"},"9010333":{"post_code":"9010333","prefecture":"OKINAWA KEN","city":"ITOMAN SHI","town":"MABUNI","perfecture_jp":"沖縄県","jp_add_1":"糸満市","jp_add_2":"摩文仁"},"9010343":{"post_code":"9010343","prefecture":"OKINAWA KEN","city":"ITOMAN SHI","town":"MINAMINAMIHIRA","perfecture_jp":"沖縄県","jp_add_1":"糸満市","jp_add_2":"南波平"},"9010352":{"post_code":"9010352","prefecture":"OKINAWA KEN","city":"ITOMAN SHI","town":"YAMAGUSUKU","perfecture_jp":"沖縄県","jp_add_1":"糸満市","jp_add_2":"山城"},"9010322":{"post_code":"9010322","prefecture":"OKINAWA KEN","city":"ITOMAN SHI","town":"YOZA","perfecture_jp":"沖縄県","jp_add_1":"糸満市","jp_add_2":"与座"},"9010200":{"post_code":"9010200","prefecture":"OKINAWA KEN","city":"TOMIGUSUKU SHI","town":"IKANIKEISAIGANAIBAAI","perfecture_jp":"沖縄県","jp_add_1":"豊見城市","jp_add_2":""},"9010232":{"post_code":"9010232","prefecture":"OKINAWA KEN","city":"TOMIGUSUKU SHI","town":"IRAHA","perfecture_jp":"沖縄県","jp_add_1":"豊見城市","jp_add_2":"伊良波"},"9010243":{"post_code":"9010243","prefecture":"OKINAWA KEN","city":"TOMIGUSUKU SHI","town":"UETA","perfecture_jp":"沖縄県","jp_add_1":"豊見城市","jp_add_2":"上田"},"9010223":{"post_code":"9010223","prefecture":"OKINAWA KEN","city":"TOMIGUSUKU SHI","town":"ONAGA","perfecture_jp":"沖縄県","jp_add_1":"豊見城市","jp_add_2":"翁長"},"9010202":{"post_code":"9010202","prefecture":"OKINAWA KEN","city":"TOMIGUSUKU SHI","town":"KAKAZU","perfecture_jp":"沖縄県","jp_add_1":"豊見城市","jp_add_2":"嘉数"},"9010231":{"post_code":"9010231","prefecture":"OKINAWA KEN","city":"TOMIGUSUKU SHI","town":"GANAHA","perfecture_jp":"沖縄県","jp_add_1":"豊見城市","jp_add_2":"我那覇"},"9010204":{"post_code":"9010204","prefecture":"OKINAWA KEN","city":"TOMIGUSUKU SHI","town":"KANERA","perfecture_jp":"沖縄県","jp_add_1":"豊見城市","jp_add_2":"金良"},"9010244":{"post_code":"9010244","prefecture":"OKINAWA KEN","city":"TOMIGUSUKU SHI","town":"GIBO","perfecture_jp":"沖縄県","jp_add_1":"豊見城市","jp_add_2":"宜保"},"9010221":{"post_code":"9010221","prefecture":"OKINAWA KEN","city":"TOMIGUSUKU SHI","town":"ZAYASU","perfecture_jp":"沖縄県","jp_add_1":"豊見城市","jp_add_2":"座安"},"9010233":{"post_code":"9010233","prefecture":"OKINAWA KEN","city":"TOMIGUSUKU SHI","town":"SENAGA","perfecture_jp":"沖縄県","jp_add_1":"豊見城市","jp_add_2":"瀬長"},"9010212":{"post_code":"9010212","prefecture":"OKINAWA KEN","city":"TOMIGUSUKU SHI","town":"TAIRA","perfecture_jp":"沖縄県","jp_add_1":"豊見城市","jp_add_2":"平良"},"9010213":{"post_code":"9010213","prefecture":"OKINAWA KEN","city":"TOMIGUSUKU SHI","town":"TAKAMINE","perfecture_jp":"沖縄県","jp_add_1":"豊見城市","jp_add_2":"高嶺"},"9010242":{"post_code":"9010242","prefecture":"OKINAWA KEN","city":"TOMIGUSUKU SHI","town":"TAKAYASU","perfecture_jp":"沖縄県","jp_add_1":"豊見城市","jp_add_2":"高安"},"9010234":{"post_code":"9010234","prefecture":"OKINAWA KEN","city":"TOMIGUSUKU SHI","town":"TAGAMI","perfecture_jp":"沖縄県","jp_add_1":"豊見城市","jp_add_2":"田頭"},"9010215":{"post_code":"9010215","prefecture":"OKINAWA KEN","city":"TOMIGUSUKU SHI","town":"TOKASHIKI","perfecture_jp":"沖縄県","jp_add_1":"豊見城市","jp_add_2":"渡嘉敷"},"9010222":{"post_code":"9010222","prefecture":"OKINAWA KEN","city":"TOMIGUSUKU SHI","town":"TOHASHINA","perfecture_jp":"沖縄県","jp_add_1":"豊見城市","jp_add_2":"渡橋名"},"9010241":{"post_code":"9010241","prefecture":"OKINAWA KEN","city":"TOMIGUSUKU SHI","town":"TOMIGUSUKU","perfecture_jp":"沖縄県","jp_add_1":"豊見城市","jp_add_2":"豊見城"},"9010225":{"post_code":"9010225","prefecture":"OKINAWA KEN","city":"TOMIGUSUKU SHI","town":"TOYOSAKI","perfecture_jp":"沖縄県","jp_add_1":"豊見城市","jp_add_2":"豊崎"},"9010235":{"post_code":"9010235","prefecture":"OKINAWA KEN","city":"TOMIGUSUKU SHI","town":"NAKACHI","perfecture_jp":"沖縄県","jp_add_1":"豊見城市","jp_add_2":"名嘉地"},"9010203":{"post_code":"9010203","prefecture":"OKINAWA KEN","city":"TOMIGUSUKU SHI","town":"NAGADO","perfecture_jp":"沖縄県","jp_add_1":"豊見城市","jp_add_2":"長堂"},"9010205":{"post_code":"9010205","prefecture":"OKINAWA KEN","city":"TOMIGUSUKU SHI","town":"NESABU","perfecture_jp":"沖縄県","jp_add_1":"豊見城市","jp_add_2":"根差部"},"9010211":{"post_code":"9010211","prefecture":"OKINAWA KEN","city":"TOMIGUSUKU SHI","town":"NOHA","perfecture_jp":"沖縄県","jp_add_1":"豊見城市","jp_add_2":"饒波"},"9010214":{"post_code":"9010214","prefecture":"OKINAWA KEN","city":"TOMIGUSUKU SHI","town":"BIN","perfecture_jp":"沖縄県","jp_add_1":"豊見城市","jp_add_2":"保栄茂"},"9010201":{"post_code":"9010201","prefecture":"OKINAWA KEN","city":"TOMIGUSUKU SHI","town":"MADAMBASHI","perfecture_jp":"沖縄県","jp_add_1":"豊見城市","jp_add_2":"真玉橋"},"9010224":{"post_code":"9010224","prefecture":"OKINAWA KEN","city":"TOMIGUSUKU SHI","town":"YONE","perfecture_jp":"沖縄県","jp_add_1":"豊見城市","jp_add_2":"与根"},"9011400":{"post_code":"9011400","prefecture":"OKINAWA KEN","city":"NANJO SHI","town":"IKANIKEISAIGANAIBAAI","perfecture_jp":"沖縄県","jp_add_1":"南城市","jp_add_2":""},"9011204":{"post_code":"9011204","prefecture":"OKINAWA KEN","city":"NANJO SHI","town":"OZATO INAMINE","perfecture_jp":"沖縄県","jp_add_1":"南城市","jp_add_2":"大里稲嶺"},"9011202":{"post_code":"9011202","prefecture":"OKINAWA KEN","city":"NANJO SHI","town":"OZATO OZATO","perfecture_jp":"沖縄県","jp_add_1":"南城市","jp_add_2":"大里大里"},"9011203":{"post_code":"9011203","prefecture":"OKINAWA KEN","city":"NANJO SHI","town":"OZATO OSHIRO","perfecture_jp":"沖縄県","jp_add_1":"南城市","jp_add_2":"大里大城"},"9011208":{"post_code":"9011208","prefecture":"OKINAWA KEN","city":"NANJO SHI","town":"OZATO TAIRA","perfecture_jp":"沖縄県","jp_add_1":"南城市","jp_add_2":"大里平良"},"9011205":{"post_code":"9011205","prefecture":"OKINAWA KEN","city":"NANJO SHI","town":"OZATO TAKAHIRA","perfecture_jp":"沖縄県","jp_add_1":"南城市","jp_add_2":"大里高平"},"9011206":{"post_code":"9011206","prefecture":"OKINAWA KEN","city":"NANJO SHI","town":"OZATO NAKAMA","perfecture_jp":"沖縄県","jp_add_1":"南城市","jp_add_2":"大里仲間"},"9011207":{"post_code":"9011207","prefecture":"OKINAWA KEN","city":"NANJO SHI","town":"OZATO FURUGEN","perfecture_jp":"沖縄県","jp_add_1":"南城市","jp_add_2":"大里古堅"},"9011201":{"post_code":"9011201","prefecture":"OKINAWA KEN","city":"NANJO SHI","town":"OZATO MINEI","perfecture_jp":"沖縄県","jp_add_1":"南城市","jp_add_2":"大里嶺井"},"9011401":{"post_code":"9011401","prefecture":"OKINAWA KEN","city":"NANJO SHI","town":"SASHIKI IBARA","perfecture_jp":"沖縄県","jp_add_1":"南城市","jp_add_2":"佐敷伊原"},"9011413":{"post_code":"9011413","prefecture":"OKINAWA KEN","city":"NANJO SHI","town":"SASHIKI OKOKU","perfecture_jp":"沖縄県","jp_add_1":"南城市","jp_add_2":"佐敷小谷"},"9011411":{"post_code":"9011411","prefecture":"OKINAWA KEN","city":"NANJO SHI","town":"SASHIKI KANEKU","perfecture_jp":"沖縄県","jp_add_1":"南城市","jp_add_2":"佐敷兼久"},"9011403":{"post_code":"9011403","prefecture":"OKINAWA KEN","city":"NANJO SHI","town":"SASHIKI SASHIKI","perfecture_jp":"沖縄県","jp_add_1":"南城市","jp_add_2":"佐敷佐敷"},"9011415":{"post_code":"9011415","prefecture":"OKINAWA KEN","city":"NANJO SHI","town":"SASHIKI SHINKAI","perfecture_jp":"沖縄県","jp_add_1":"南城市","jp_add_2":"佐敷新開"},"9011412":{"post_code":"9011412","prefecture":"OKINAWA KEN","city":"NANJO SHI","town":"SASHIKI SHINZATO","perfecture_jp":"沖縄県","jp_add_1":"南城市","jp_add_2":"佐敷新里"},"9011414":{"post_code":"9011414","prefecture":"OKINAWA KEN","city":"NANJO SHI","town":"SASHIKI TSUHAKO","perfecture_jp":"沖縄県","jp_add_1":"南城市","jp_add_2":"佐敷津波古"},"9011402":{"post_code":"9011402","prefecture":"OKINAWA KEN","city":"NANJO SHI","town":"SASHIKI TEDOKON","perfecture_jp":"沖縄県","jp_add_1":"南城市","jp_add_2":"佐敷手登根"},"9011405":{"post_code":"9011405","prefecture":"OKINAWA KEN","city":"NANJO SHI","town":"SASHIKI NAKAIHO","perfecture_jp":"沖縄県","jp_add_1":"南城市","jp_add_2":"佐敷仲伊保"},"9011404":{"post_code":"9011404","prefecture":"OKINAWA KEN","city":"NANJO SHI","town":"SASHIKI FUSOZAKI","perfecture_jp":"沖縄県","jp_add_1":"南城市","jp_add_2":"佐敷冨祖崎"},"9011406":{"post_code":"9011406","prefecture":"OKINAWA KEN","city":"NANJO SHI","town":"SASHIKI YABIKU","perfecture_jp":"沖縄県","jp_add_1":"南城市","jp_add_2":"佐敷屋比久"},"9010617":{"post_code":"9010617","prefecture":"OKINAWA KEN","city":"NANJO SHI","town":"TAMAGUSUKU AICHI","perfecture_jp":"沖縄県","jp_add_1":"南城市","jp_add_2":"玉城愛地"},"9010606":{"post_code":"9010606","prefecture":"OKINAWA KEN","city":"NANJO SHI","town":"TAMAGUSUKU ITOKAZU","perfecture_jp":"沖縄県","jp_add_1":"南城市","jp_add_2":"玉城糸数"},"9010614":{"post_code":"9010614","prefecture":"OKINAWA KEN","city":"NANJO SHI","town":"TAMAGUSUKU O","perfecture_jp":"沖縄県","jp_add_1":"南城市","jp_add_2":"玉城奥武"},"9010608":{"post_code":"9010608","prefecture":"OKINAWA KEN","city":"NANJO SHI","town":"TAMAGUSUKU OYAKEBARU","perfecture_jp":"沖縄県","jp_add_1":"南城市","jp_add_2":"玉城親慶原"},"9010601":{"post_code":"9010601","prefecture":"OKINAWA KEN","city":"NANJO SHI","town":"TAMAGUSUKU KAKINOHANA","perfecture_jp":"沖縄県","jp_add_1":"南城市","jp_add_2":"玉城垣花"},"9010607":{"post_code":"9010607","prefecture":"OKINAWA KEN","city":"NANJO SHI","town":"TAMAGUSUKU KIRABARU","perfecture_jp":"沖縄県","jp_add_1":"南城市","jp_add_2":"玉城喜良原"},"9010613":{"post_code":"9010613","prefecture":"OKINAWA KEN","city":"NANJO SHI","town":"TAMAGUSUKU SHIKEMBARU","perfecture_jp":"沖縄県","jp_add_1":"南城市","jp_add_2":"玉城志堅原"},"9010604":{"post_code":"9010604","prefecture":"OKINAWA KEN","city":"NANJO SHI","town":"TAMAGUSUKU TAMAGUSUKU","perfecture_jp":"沖縄県","jp_add_1":"南城市","jp_add_2":"玉城玉城"},"9010612":{"post_code":"9010612","prefecture":"OKINAWA KEN","city":"NANJO SHI","town":"TAMAGUSUKU TOYAMA","perfecture_jp":"沖縄県","jp_add_1":"南城市","jp_add_2":"玉城當山"},"9010605":{"post_code":"9010605","prefecture":"OKINAWA KEN","city":"NANJO SHI","town":"TAMAGUSUKU NAKAYAMA","perfecture_jp":"沖縄県","jp_add_1":"南城市","jp_add_2":"玉城中山"},"9010602":{"post_code":"9010602","prefecture":"OKINAWA KEN","city":"NANJO SHI","town":"TAMAGUSUKU NAKANDAKARI","perfecture_jp":"沖縄県","jp_add_1":"南城市","jp_add_2":"玉城仲村渠"},"9010603":{"post_code":"9010603","prefecture":"OKINAWA KEN","city":"NANJO SHI","town":"TAMAGUSUKU HYAKUNA","perfecture_jp":"沖縄県","jp_add_1":"南城市","jp_add_2":"玉城百名"},"9010611":{"post_code":"9010611","prefecture":"OKINAWA KEN","city":"NANJO SHI","town":"TAMAGUSUKU FUSATO","perfecture_jp":"沖縄県","jp_add_1":"南城市","jp_add_2":"玉城富里"},"9010618":{"post_code":"9010618","prefecture":"OKINAWA KEN","city":"NANJO SHI","town":"TAMAGUSUKU FUNAKOSHI","perfecture_jp":"沖縄県","jp_add_1":"南城市","jp_add_2":"玉城船越"},"9010615":{"post_code":"9010615","prefecture":"OKINAWA KEN","city":"NANJO SHI","town":"TAMAGUSUKU HORIKAWA","perfecture_jp":"沖縄県","jp_add_1":"南城市","jp_add_2":"玉城堀川"},"9010616":{"post_code":"9010616","prefecture":"OKINAWA KEN","city":"NANJO SHI","town":"TAMAGUSUKU MAEKAWA","perfecture_jp":"沖縄県","jp_add_1":"南城市","jp_add_2":"玉城前川"},"9010619":{"post_code":"9010619","prefecture":"OKINAWA KEN","city":"NANJO SHI","town":"TAMAGUSUKU YAKABU","perfecture_jp":"沖縄県","jp_add_1":"南城市","jp_add_2":"玉城屋嘉部"},"9011502":{"post_code":"9011502","prefecture":"OKINAWA KEN","city":"NANJO SHI","town":"CHINEN AZAMA","perfecture_jp":"沖縄県","jp_add_1":"南城市","jp_add_2":"知念安座真"},"9011504":{"post_code":"9011504","prefecture":"OKINAWA KEN","city":"NANJO SHI","town":"CHINEN UMINO","perfecture_jp":"沖縄県","jp_add_1":"南城市","jp_add_2":"知念海野"},"9011514":{"post_code":"9011514","prefecture":"OKINAWA KEN","city":"NANJO SHI","town":"CHINEN GUSHIKEN","perfecture_jp":"沖縄県","jp_add_1":"南城市","jp_add_2":"知念具志堅"},"9011501":{"post_code":"9011501","prefecture":"OKINAWA KEN","city":"NANJO SHI","town":"CHINEN KUDAKA","perfecture_jp":"沖縄県","jp_add_1":"南城市","jp_add_2":"知念久高"},"9011511":{"post_code":"9011511","prefecture":"OKINAWA KEN","city":"NANJO SHI","town":"CHINEN KUDEKEN","perfecture_jp":"沖縄県","jp_add_1":"南城市","jp_add_2":"知念久手堅"},"9011505":{"post_code":"9011505","prefecture":"OKINAWA KEN","city":"NANJO SHI","town":"CHINEN KUHARA","perfecture_jp":"沖縄県","jp_add_1":"南城市","jp_add_2":"知念久原"},"9011516":{"post_code":"9011516","prefecture":"OKINAWA KEN","city":"NANJO SHI","town":"CHINEN SHIKIYA","perfecture_jp":"沖縄県","jp_add_1":"南城市","jp_add_2":"知念志喜屋"},"9011503":{"post_code":"9011503","prefecture":"OKINAWA KEN","city":"NANJO SHI","town":"CHINEN CHINA","perfecture_jp":"沖縄県","jp_add_1":"南城市","jp_add_2":"知念知名"},"9011513":{"post_code":"9011513","prefecture":"OKINAWA KEN","city":"NANJO SHI","town":"CHINEN CHINEN","perfecture_jp":"沖縄県","jp_add_1":"南城市","jp_add_2":"知念知念"},"9011515":{"post_code":"9011515","prefecture":"OKINAWA KEN","city":"NANJO SHI","town":"CHINEN YAMAZATO","perfecture_jp":"沖縄県","jp_add_1":"南城市","jp_add_2":"知念山里"},"9011512":{"post_code":"9011512","prefecture":"OKINAWA KEN","city":"NANJO SHI","town":"CHINEN YOSHITOMI","perfecture_jp":"沖縄県","jp_add_1":"南城市","jp_add_2":"知念吉富"},"9011407":{"post_code":"9011407","prefecture":"OKINAWA KEN","city":"NANJO SHI","town":"TSUKISHIRO","perfecture_jp":"沖縄県","jp_add_1":"南城市","jp_add_2":"つきしろ"},"9012300":{"post_code":"9012300","prefecture":"OKINAWA KEN","city":"NAKAGAMI GUN KITANAKAGUSUKU SON","town":"IKANIKEISAIGANAIBAAI","perfecture_jp":"沖縄県","jp_add_1":"中頭郡北中城村","jp_add_2":""},"9012316":{"post_code":"9012316","prefecture":"OKINAWA KEN","city":"NAKAGAMI GUN KITANAKAGUSUKU SON","town":"ADANIYA","perfecture_jp":"沖縄県","jp_add_1":"中頭郡北中城村","jp_add_2":"安谷屋"},"9012313":{"post_code":"9012313","prefecture":"OKINAWA KEN","city":"NAKAGAMI GUN KITANAKAGUSUKU SON","town":"ATSUTA","perfecture_jp":"沖縄県","jp_add_1":"中頭郡北中城村","jp_add_2":"熱田"},"9012314":{"post_code":"9012314","prefecture":"OKINAWA KEN","city":"NAKAGAMI GUN KITANAKAGUSUKU SON","town":"OGUSUKU","perfecture_jp":"沖縄県","jp_add_1":"中頭郡北中城村","jp_add_2":"大城"},"9012315":{"post_code":"9012315","prefecture":"OKINAWA KEN","city":"NAKAGAMI GUN KITANAKAGUSUKU SON","town":"OGIDO","perfecture_jp":"沖縄県","jp_add_1":"中頭郡北中城村","jp_add_2":"荻道"},"9012311":{"post_code":"9012311","prefecture":"OKINAWA KEN","city":"NAKAGAMI GUN KITANAKAGUSUKU SON","town":"KISHABA","perfecture_jp":"沖縄県","jp_add_1":"中頭郡北中城村","jp_add_2":"喜舎場"},"9012301":{"post_code":"9012301","prefecture":"OKINAWA KEN","city":"NAKAGAMI GUN KITANAKAGUSUKU SON","town":"SHIMABUKU","perfecture_jp":"沖縄県","jp_add_1":"中頭郡北中城村","jp_add_2":"島袋"},"9012317":{"post_code":"9012317","prefecture":"OKINAWA KEN","city":"NAKAGAMI GUN KITANAKAGUSUKU SON","town":"ZUKERAN","perfecture_jp":"沖縄県","jp_add_1":"中頭郡北中城村","jp_add_2":"瑞慶覧"},"9012303":{"post_code":"9012303","prefecture":"OKINAWA KEN","city":"NAKAGAMI GUN KITANAKAGUSUKU SON","town":"CHUNJUN","perfecture_jp":"沖縄県","jp_add_1":"中頭郡北中城村","jp_add_2":"仲順"},"9012302":{"post_code":"9012302","prefecture":"OKINAWA KEN","city":"NAKAGAMI GUN KITANAKAGUSUKU SON","town":"TOGUCHI","perfecture_jp":"沖縄県","jp_add_1":"中頭郡北中城村","jp_add_2":"渡口"},"9012305":{"post_code":"9012305","prefecture":"OKINAWA KEN","city":"NAKAGAMI GUN KITANAKAGUSUKU SON","town":"HIGA","perfecture_jp":"沖縄県","jp_add_1":"中頭郡北中城村","jp_add_2":"比嘉"},"9012321":{"post_code":"9012321","prefecture":"OKINAWA KEN","city":"NAKAGAMI GUN KITANAKAGUSUKU SON","town":"MISAKI","perfecture_jp":"沖縄県","jp_add_1":"中頭郡北中城村","jp_add_2":"美崎"},"9012304":{"post_code":"9012304","prefecture":"OKINAWA KEN","city":"NAKAGAMI GUN KITANAKAGUSUKU SON","town":"YAGIBARU","perfecture_jp":"沖縄県","jp_add_1":"中頭郡北中城村","jp_add_2":"屋宜原"},"9012312":{"post_code":"9012312","prefecture":"OKINAWA KEN","city":"NAKAGAMI GUN KITANAKAGUSUKU SON","town":"WANIYA","perfecture_jp":"沖縄県","jp_add_1":"中頭郡北中城村","jp_add_2":"和仁屋"},"9012400":{"post_code":"9012400","prefecture":"OKINAWA KEN","city":"NAKAGAMI GUN NAKAGUSUKU SON","town":"IKANIKEISAIGANAIBAAI","perfecture_jp":"沖縄県","jp_add_1":"中頭郡中城村","jp_add_2":""},"9012407":{"post_code":"9012407","prefecture":"OKINAWA KEN","city":"NAKAGAMI GUN NAKAGUSUKU SON","town":"ASATO","perfecture_jp":"沖縄県","jp_add_1":"中頭郡中城村","jp_add_2":"安里"},"9012422":{"post_code":"9012422","prefecture":"OKINAWA KEN","city":"NAKAGAMI GUN NAKAGUSUKU SON","town":"ARAKAKI","perfecture_jp":"沖縄県","jp_add_1":"中頭郡中城村","jp_add_2":"新垣"},"9012403":{"post_code":"9012403","prefecture":"OKINAWA KEN","city":"NAKAGAMI GUN NAKAGUSUKU SON","town":"ISHADO","perfecture_jp":"沖縄県","jp_add_1":"中頭郡中城村","jp_add_2":"伊舎堂"},"9012417":{"post_code":"9012417","prefecture":"OKINAWA KEN","city":"NAKAGAMI GUN NAKAGUSUKU SON","town":"IJU","perfecture_jp":"沖縄県","jp_add_1":"中頭郡中城村","jp_add_2":"伊集"},"9012412":{"post_code":"9012412","prefecture":"OKINAWA KEN","city":"NAKAGAMI GUN NAKAGUSUKU SON","town":"OKUMA","perfecture_jp":"沖縄県","jp_add_1":"中頭郡中城村","jp_add_2":"奥間"},"9012423":{"post_code":"9012423","prefecture":"OKINAWA KEN","city":"NAKAGAMI GUN NAKAGUSUKU SON","town":"KITAUEBARU","perfecture_jp":"沖縄県","jp_add_1":"中頭郡中城村","jp_add_2":"北上原"},"9012414":{"post_code":"9012414","prefecture":"OKINAWA KEN","city":"NAKAGAMI GUN NAKAGUSUKU SON","town":"KITAHAMA","perfecture_jp":"沖縄県","jp_add_1":"中頭郡中城村","jp_add_2":"北浜"},"9012401":{"post_code":"9012401","prefecture":"OKINAWA KEN","city":"NAKAGAMI GUN NAKAGUSUKU SON","town":"KUBA","perfecture_jp":"沖縄県","jp_add_1":"中頭郡中城村","jp_add_2":"久場"},"9012404":{"post_code":"9012404","prefecture":"OKINAWA KEN","city":"NAKAGAMI GUN NAKAGUSUKU SON","town":"SOESHI","perfecture_jp":"沖縄県","jp_add_1":"中頭郡中城村","jp_add_2":"添石"},"9012413":{"post_code":"9012413","prefecture":"OKINAWA KEN","city":"NAKAGAMI GUN NAKAGUSUKU SON","town":"TSUHA","perfecture_jp":"沖縄県","jp_add_1":"中頭郡中城村","jp_add_2":"津覇"},"9012406":{"post_code":"9012406","prefecture":"OKINAWA KEN","city":"NAKAGAMI GUN NAKAGUSUKU SON","town":"TOMA","perfecture_jp":"沖縄県","jp_add_1":"中頭郡中城村","jp_add_2":"当間"},"9012402":{"post_code":"9012402","prefecture":"OKINAWA KEN","city":"NAKAGAMI GUN NAKAGUSUKU SON","town":"TOMARI","perfecture_jp":"沖縄県","jp_add_1":"中頭郡中城村","jp_add_2":"泊"},"9012421":{"post_code":"9012421","prefecture":"OKINAWA KEN","city":"NAKAGAMI GUN NAKAGUSUKU SON","town":"NOBORIMATA","perfecture_jp":"沖縄県","jp_add_1":"中頭郡中城村","jp_add_2":"登又"},"9012411":{"post_code":"9012411","prefecture":"OKINAWA KEN","city":"NAKAGAMI GUN NAKAGUSUKU SON","town":"HAMA","perfecture_jp":"沖縄県","jp_add_1":"中頭郡中城村","jp_add_2":"浜"},"9012424":{"post_code":"9012424","prefecture":"OKINAWA KEN","city":"NAKAGAMI GUN NAKAGUSUKU SON","town":"MINAMIUEBARU","perfecture_jp":"沖縄県","jp_add_1":"中頭郡中城村","jp_add_2":"南上原"},"9012415":{"post_code":"9012415","prefecture":"OKINAWA KEN","city":"NAKAGAMI GUN NAKAGUSUKU SON","town":"MINAMIHAMA","perfecture_jp":"沖縄県","jp_add_1":"中頭郡中城村","jp_add_2":"南浜"},"9012405":{"post_code":"9012405","prefecture":"OKINAWA KEN","city":"NAKAGAMI GUN NAKAGUSUKU SON","town":"YAGI","perfecture_jp":"沖縄県","jp_add_1":"中頭郡中城村","jp_add_2":"屋宜"},"9012416":{"post_code":"9012416","prefecture":"OKINAWA KEN","city":"NAKAGAMI GUN NAKAGUSUKU SON","town":"WAUKE","perfecture_jp":"沖縄県","jp_add_1":"中頭郡中城村","jp_add_2":"和宇慶"},"9011300":{"post_code":"9011300","prefecture":"OKINAWA KEN","city":"SHIMAJIRI GUN YONABARU CHO","town":"IKANIKEISAIGANAIBAAI","perfecture_jp":"沖縄県","jp_add_1":"島尻郡与那原町","jp_add_2":""},"9011304":{"post_code":"9011304","prefecture":"OKINAWA KEN","city":"SHIMAJIRI GUN YONABARU CHO","town":"AGARIHAMA","perfecture_jp":"沖縄県","jp_add_1":"島尻郡与那原町","jp_add_2":"東浜"},"9011301":{"post_code":"9011301","prefecture":"OKINAWA KEN","city":"SHIMAJIRI GUN YONABARU CHO","town":"ITARASHIKI","perfecture_jp":"沖縄県","jp_add_1":"島尻郡与那原町","jp_add_2":"板良敷"},"9011302":{"post_code":"9011302","prefecture":"OKINAWA KEN","city":"SHIMAJIRI GUN YONABARU CHO","town":"UEYONABARU","perfecture_jp":"沖縄県","jp_add_1":"島尻郡与那原町","jp_add_2":"上与那原"},"9011303":{"post_code":"9011303","prefecture":"OKINAWA KEN","city":"SHIMAJIRI GUN YONABARU CHO","town":"YONABARU","perfecture_jp":"沖縄県","jp_add_1":"島尻郡与那原町","jp_add_2":"与那原"},"9011100":{"post_code":"9011100","prefecture":"OKINAWA KEN","city":"SHIMAJIRI GUN HAEBARU CHO","town":"IKANIKEISAIGANAIBAAI","perfecture_jp":"沖縄県","jp_add_1":"島尻郡南風原町","jp_add_2":""},"9011105":{"post_code":"9011105","prefecture":"OKINAWA KEN","city":"SHIMAJIRI GUN HAEBARU CHO","town":"ARAKAWA","perfecture_jp":"沖縄県","jp_add_1":"島尻郡南風原町","jp_add_2":"新川"},"9011101":{"post_code":"9011101","prefecture":"OKINAWA KEN","city":"SHIMAJIRI GUN HAEBARU CHO","town":"ONA","perfecture_jp":"沖縄県","jp_add_1":"島尻郡南風原町","jp_add_2":"大名"},"9011111":{"post_code":"9011111","prefecture":"OKINAWA KEN","city":"SHIMAJIRI GUN HAEBARU CHO","town":"KANEGUSUKU","perfecture_jp":"沖縄県","jp_add_1":"島尻郡南風原町","jp_add_2":"兼城"},"9011114":{"post_code":"9011114","prefecture":"OKINAWA KEN","city":"SHIMAJIRI GUN HAEBARU CHO","town":"KAMIZATO","perfecture_jp":"沖縄県","jp_add_1":"島尻郡南風原町","jp_add_2":"神里"},"9011113":{"post_code":"9011113","prefecture":"OKINAWA KEN","city":"SHIMAJIRI GUN HAEBARU CHO","town":"KYAN","perfecture_jp":"沖縄県","jp_add_1":"島尻郡南風原町","jp_add_2":"喜屋武"},"9011117":{"post_code":"9011117","prefecture":"OKINAWA KEN","city":"SHIMAJIRI GUN HAEBARU CHO","town":"TSUKAZAN","perfecture_jp":"沖縄県","jp_add_1":"島尻郡南風原町","jp_add_2":"津嘉山"},"9011116":{"post_code":"9011116","prefecture":"OKINAWA KEN","city":"SHIMAJIRI GUN HAEBARU CHO","town":"TERUYA","perfecture_jp":"沖縄県","jp_add_1":"島尻郡南風原町","jp_add_2":"照屋"},"9011102":{"post_code":"9011102","prefecture":"OKINAWA KEN","city":"SHIMAJIRI GUN HAEBARU CHO","town":"MIYAGUSUKU","perfecture_jp":"沖縄県","jp_add_1":"島尻郡南風原町","jp_add_2":"宮城"},"9011104":{"post_code":"9011104","prefecture":"OKINAWA KEN","city":"SHIMAJIRI GUN HAEBARU CHO","town":"MIYAHIRA","perfecture_jp":"沖縄県","jp_add_1":"島尻郡南風原町","jp_add_2":"宮平"},"9011112":{"post_code":"9011112","prefecture":"OKINAWA KEN","city":"SHIMAJIRI GUN HAEBARU CHO","town":"MOTOBU","perfecture_jp":"沖縄県","jp_add_1":"島尻郡南風原町","jp_add_2":"本部"},"9011115":{"post_code":"9011115","prefecture":"OKINAWA KEN","city":"SHIMAJIRI GUN HAEBARU CHO","town":"YAMAKAWA","perfecture_jp":"沖縄県","jp_add_1":"島尻郡南風原町","jp_add_2":"山川"},"9011103":{"post_code":"9011103","prefecture":"OKINAWA KEN","city":"SHIMAJIRI GUN HAEBARU CHO","town":"YONAHA","perfecture_jp":"沖縄県","jp_add_1":"島尻郡南風原町","jp_add_2":"与那覇"},"9013500":{"post_code":"9013500","prefecture":"OKINAWA KEN","city":"SHIMAJIRI GUN TOKASHIKI SON","town":"IKANIKEISAIGANAIBAAI","perfecture_jp":"沖縄県","jp_add_1":"島尻郡渡嘉敷村","jp_add_2":""},"9013502":{"post_code":"9013502","prefecture":"OKINAWA KEN","city":"SHIMAJIRI GUN TOKASHIKI SON","town":"AHAREN","perfecture_jp":"沖縄県","jp_add_1":"島尻郡渡嘉敷村","jp_add_2":"阿波連"},"9013501":{"post_code":"9013501","prefecture":"OKINAWA KEN","city":"SHIMAJIRI GUN TOKASHIKI SON","town":"TOKASHIKI","perfecture_jp":"沖縄県","jp_add_1":"島尻郡渡嘉敷村","jp_add_2":"渡嘉敷"},"9013400":{"post_code":"9013400","prefecture":"OKINAWA KEN","city":"SHIMAJIRI GUN ZAMAMI SON","town":"IKANIKEISAIGANAIBAAI","perfecture_jp":"沖縄県","jp_add_1":"島尻郡座間味村","jp_add_2":""},"9013311":{"post_code":"9013311","prefecture":"OKINAWA KEN","city":"SHIMAJIRI GUN ZAMAMI SON","town":"AKA","perfecture_jp":"沖縄県","jp_add_1":"島尻郡座間味村","jp_add_2":"阿嘉"},"9013401":{"post_code":"9013401","prefecture":"OKINAWA KEN","city":"SHIMAJIRI GUN ZAMAMI SON","town":"ASA","perfecture_jp":"沖縄県","jp_add_1":"島尻郡座間味村","jp_add_2":"阿佐"},"9013403":{"post_code":"9013403","prefecture":"OKINAWA KEN","city":"SHIMAJIRI GUN ZAMAMI SON","town":"AMA","perfecture_jp":"沖縄県","jp_add_1":"島尻郡座間味村","jp_add_2":"阿真"},"9013312":{"post_code":"9013312","prefecture":"OKINAWA KEN","city":"SHIMAJIRI GUN ZAMAMI SON","town":"GERUMA","perfecture_jp":"沖縄県","jp_add_1":"島尻郡座間味村","jp_add_2":"慶留間"},"9013402":{"post_code":"9013402","prefecture":"OKINAWA KEN","city":"SHIMAJIRI GUN ZAMAMI SON","town":"ZAMAMI","perfecture_jp":"沖縄県","jp_add_1":"島尻郡座間味村","jp_add_2":"座間味"},"9013700":{"post_code":"9013700","prefecture":"OKINAWA KEN","city":"SHIMAJIRI GUN AGUNI SON","town":"IKANIKEISAIGANAIBAAI","perfecture_jp":"沖縄県","jp_add_1":"島尻郡粟国村","jp_add_2":""},"9013703":{"post_code":"9013703","prefecture":"OKINAWA KEN","city":"SHIMAJIRI GUN AGUNI SON","town":"NISHI","perfecture_jp":"沖縄県","jp_add_1":"島尻郡粟国村","jp_add_2":"西"},"9013701":{"post_code":"9013701","prefecture":"OKINAWA KEN","city":"SHIMAJIRI GUN AGUNI SON","town":"HAMA","perfecture_jp":"沖縄県","jp_add_1":"島尻郡粟国村","jp_add_2":"浜"},"9013702":{"post_code":"9013702","prefecture":"OKINAWA KEN","city":"SHIMAJIRI GUN AGUNI SON","town":"HIGASHI","perfecture_jp":"沖縄県","jp_add_1":"島尻郡粟国村","jp_add_2":"東"},"9013601":{"post_code":"9013601","prefecture":"OKINAWA KEN","city":"SHIMAJIRI GUN TONAKI SON","town":"TONAKISONICHIEN","perfecture_jp":"沖縄県","jp_add_1":"島尻郡渡名喜村","jp_add_2":"渡名喜村"},"9013800":{"post_code":"9013800","prefecture":"OKINAWA KEN","city":"SHIMAJIRI GUN MINAMIDAITO SON","town":"IKANIKEISAIGANAIBAAI","perfecture_jp":"沖縄県","jp_add_1":"島尻郡南大東村","jp_add_2":""},"9013806":{"post_code":"9013806","prefecture":"OKINAWA KEN","city":"SHIMAJIRI GUN MINAMIDAITO SON","town":"IKENOSAWA","perfecture_jp":"沖縄県","jp_add_1":"島尻郡南大東村","jp_add_2":"池之沢"},"9013801":{"post_code":"9013801","prefecture":"OKINAWA KEN","city":"SHIMAJIRI GUN MINAMIDAITO SON","town":"KITA","perfecture_jp":"沖縄県","jp_add_1":"島尻郡南大東村","jp_add_2":"北"},"9013803":{"post_code":"9013803","prefecture":"OKINAWA KEN","city":"SHIMAJIRI GUN MINAMIDAITO SON","town":"KYUTO","perfecture_jp":"沖縄県","jp_add_1":"島尻郡南大東村","jp_add_2":"旧東"},"9013805":{"post_code":"9013805","prefecture":"OKINAWA KEN","city":"SHIMAJIRI GUN MINAMIDAITO SON","town":"ZAISHO","perfecture_jp":"沖縄県","jp_add_1":"島尻郡南大東村","jp_add_2":"在所"},"9013802":{"post_code":"9013802","prefecture":"OKINAWA KEN","city":"SHIMAJIRI GUN MINAMIDAITO SON","town":"SHINTO","perfecture_jp":"沖縄県","jp_add_1":"島尻郡南大東村","jp_add_2":"新東"},"9013804":{"post_code":"9013804","prefecture":"OKINAWA KEN","city":"SHIMAJIRI GUN MINAMIDAITO SON","town":"MINAMI","perfecture_jp":"沖縄県","jp_add_1":"島尻郡南大東村","jp_add_2":"南"},"9013900":{"post_code":"9013900","prefecture":"OKINAWA KEN","city":"SHIMAJIRI GUN KITADAITO SON","town":"IKANIKEISAIGANAIBAAI","perfecture_jp":"沖縄県","jp_add_1":"島尻郡北大東村","jp_add_2":""},"9013902":{"post_code":"9013902","prefecture":"OKINAWA KEN","city":"SHIMAJIRI GUN KITADAITO SON","town":"NAKANO","perfecture_jp":"沖縄県","jp_add_1":"島尻郡北大東村","jp_add_2":"中野"},"9013903":{"post_code":"9013903","prefecture":"OKINAWA KEN","city":"SHIMAJIRI GUN KITADAITO SON","town":"MINATO","perfecture_jp":"沖縄県","jp_add_1":"島尻郡北大東村","jp_add_2":"港"},"9013901":{"post_code":"9013901","prefecture":"OKINAWA KEN","city":"SHIMAJIRI GUN KITADAITO SON","town":"MINAMI","perfecture_jp":"沖縄県","jp_add_1":"島尻郡北大東村","jp_add_2":"南"},"9013100":{"post_code":"9013100","prefecture":"OKINAWA KEN","city":"SHIMAJIRI GUN KUMEJIMA CHO","town":"IKANIKEISAIGANAIBAAI","perfecture_jp":"沖縄県","jp_add_1":"島尻郡久米島町","jp_add_2":""},"9013103":{"post_code":"9013103","prefecture":"OKINAWA KEN","city":"SHIMAJIRI GUN KUMEJIMA CHO","town":"AKA","perfecture_jp":"沖縄県","jp_add_1":"島尻郡久米島町","jp_add_2":"阿嘉"},"9013101":{"post_code":"9013101","prefecture":"OKINAWA KEN","city":"SHIMAJIRI GUN KUMEJIMA CHO","town":"UEGUSUKU","perfecture_jp":"沖縄県","jp_add_1":"島尻郡久米島町","jp_add_2":"宇江城"},"9013138":{"post_code":"9013138","prefecture":"OKINAWA KEN","city":"SHIMAJIRI GUN KUMEJIMA CHO","town":"UEZU","perfecture_jp":"沖縄県","jp_add_1":"島尻郡久米島町","jp_add_2":"上江洲"},"9013105":{"post_code":"9013105","prefecture":"OKINAWA KEN","city":"SHIMAJIRI GUN KUMEJIMA CHO","town":"UNE","perfecture_jp":"沖縄県","jp_add_1":"島尻郡久米島町","jp_add_2":"宇根"},"9013106":{"post_code":"9013106","prefecture":"OKINAWA KEN","city":"SHIMAJIRI GUN KUMEJIMA CHO","town":"O","perfecture_jp":"沖縄県","jp_add_1":"島尻郡久米島町","jp_add_2":"奥武"},"9013123":{"post_code":"9013123","prefecture":"OKINAWA KEN","city":"SHIMAJIRI GUN KUMEJIMA CHO","town":"OTA","perfecture_jp":"沖縄県","jp_add_1":"島尻郡久米島町","jp_add_2":"大田"},"9013132":{"post_code":"9013132","prefecture":"OKINAWA KEN","city":"SHIMAJIRI GUN KUMEJIMA CHO","town":"OHARA","perfecture_jp":"沖縄県","jp_add_1":"島尻郡久米島町","jp_add_2":"大原"},"9013121":{"post_code":"9013121","prefecture":"OKINAWA KEN","city":"SHIMAJIRI GUN KUMEJIMA CHO","town":"KADEKARU","perfecture_jp":"沖縄県","jp_add_1":"島尻郡久米島町","jp_add_2":"嘉手苅"},"9013122":{"post_code":"9013122","prefecture":"OKINAWA KEN","city":"SHIMAJIRI GUN KUMEJIMA CHO","town":"KANEGUSUKU","perfecture_jp":"沖縄県","jp_add_1":"島尻郡久米島町","jp_add_2":"兼城"},"9013133":{"post_code":"9013133","prefecture":"OKINAWA KEN","city":"SHIMAJIRI GUN KUMEJIMA CHO","town":"KITAHARA","perfecture_jp":"沖縄県","jp_add_1":"島尻郡久米島町","jp_add_2":"北原"},"9013115":{"post_code":"9013115","prefecture":"OKINAWA KEN","city":"SHIMAJIRI GUN KUMEJIMA CHO","town":"GIMA","perfecture_jp":"沖縄県","jp_add_1":"島尻郡久米島町","jp_add_2":"儀間"},"9013134":{"post_code":"9013134","prefecture":"OKINAWA KEN","city":"SHIMAJIRI GUN KUMEJIMA CHO","town":"GUSHIKAWA","perfecture_jp":"沖縄県","jp_add_1":"島尻郡久米島町","jp_add_2":"具志川"},"9013114":{"post_code":"9013114","prefecture":"OKINAWA KEN","city":"SHIMAJIRI GUN KUMEJIMA CHO","town":"SHIMAJIRI","perfecture_jp":"沖縄県","jp_add_1":"島尻郡久米島町","jp_add_2":"島尻"},"9013107":{"post_code":"9013107","prefecture":"OKINAWA KEN","city":"SHIMAJIRI GUN KUMEJIMA CHO","town":"JANADO","perfecture_jp":"沖縄県","jp_add_1":"島尻郡久米島町","jp_add_2":"謝名堂"},"9013113":{"post_code":"9013113","prefecture":"OKINAWA KEN","city":"SHIMAJIRI GUN KUMEJIMA CHO","town":"ZENDA","perfecture_jp":"沖縄県","jp_add_1":"島尻郡久米島町","jp_add_2":"銭田"},"9013125":{"post_code":"9013125","prefecture":"OKINAWA KEN","city":"SHIMAJIRI GUN KUMEJIMA CHO","town":"TORISHIMA","perfecture_jp":"沖縄県","jp_add_1":"島尻郡久米島町","jp_add_2":"鳥島"},"9013136":{"post_code":"9013136","prefecture":"OKINAWA KEN","city":"SHIMAJIRI GUN KUMEJIMA CHO","town":"NAKACHI","perfecture_jp":"沖縄県","jp_add_1":"島尻郡久米島町","jp_add_2":"仲地"},"9013124":{"post_code":"9013124","prefecture":"OKINAWA KEN","city":"SHIMAJIRI GUN KUMEJIMA CHO","town":"NAKADOMARI","perfecture_jp":"沖縄県","jp_add_1":"島尻郡久米島町","jp_add_2":"仲泊"},"9013135":{"post_code":"9013135","prefecture":"OKINAWA KEN","city":"SHIMAJIRI GUN KUMEJIMA CHO","town":"NAKANDAKARI","perfecture_jp":"沖縄県","jp_add_1":"島尻郡久米島町","jp_add_2":"仲村渠"},"9013131":{"post_code":"9013131","prefecture":"OKINAWA KEN","city":"SHIMAJIRI GUN KUMEJIMA CHO","town":"NISHIME","perfecture_jp":"沖縄県","jp_add_1":"島尻郡久米島町","jp_add_2":"西銘"},"9013108":{"post_code":"9013108","prefecture":"OKINAWA KEN","city":"SHIMAJIRI GUN KUMEJIMA CHO","town":"HIGA","perfecture_jp":"沖縄県","jp_add_1":"島尻郡久米島町","jp_add_2":"比嘉"},"9013102":{"post_code":"9013102","prefecture":"OKINAWA KEN","city":"SHIMAJIRI GUN KUMEJIMA CHO","town":"HIYAJO","perfecture_jp":"沖縄県","jp_add_1":"島尻郡久米島町","jp_add_2":"比屋定"},"9013112":{"post_code":"9013112","prefecture":"OKINAWA KEN","city":"SHIMAJIRI GUN KUMEJIMA CHO","town":"MAGARI","perfecture_jp":"沖縄県","jp_add_1":"島尻郡久米島町","jp_add_2":"真我里"},"9013104":{"post_code":"9013104","prefecture":"OKINAWA KEN","city":"SHIMAJIRI GUN KUMEJIMA CHO","town":"MAJA","perfecture_jp":"沖縄県","jp_add_1":"島尻郡久米島町","jp_add_2":"真謝"},"9013111":{"post_code":"9013111","prefecture":"OKINAWA KEN","city":"SHIMAJIRI GUN KUMEJIMA CHO","town":"YAMAGUSUKU","perfecture_jp":"沖縄県","jp_add_1":"島尻郡久米島町","jp_add_2":"山城"},"9013137":{"post_code":"9013137","prefecture":"OKINAWA KEN","city":"SHIMAJIRI GUN KUMEJIMA CHO","town":"YAMAZATO","perfecture_jp":"沖縄県","jp_add_1":"島尻郡久米島町","jp_add_2":"山里"},"9010400":{"post_code":"9010400","prefecture":"OKINAWA KEN","city":"SHIMAJIRI GUN YAESE CHO","town":"IKANIKEISAIGANAIBAAI","perfecture_jp":"沖縄県","jp_add_1":"島尻郡八重瀬町","jp_add_2":""},"9010514":{"post_code":"9010514","prefecture":"OKINAWA KEN","city":"SHIMAJIRI GUN YAESE CHO","town":"ASATO","perfecture_jp":"沖縄県","jp_add_1":"島尻郡八重瀬町","jp_add_2":"安里"},"9010503":{"post_code":"9010503","prefecture":"OKINAWA KEN","city":"SHIMAJIRI GUN YAESE CHO","town":"ARAGUSUKU","perfecture_jp":"沖縄県","jp_add_1":"島尻郡八重瀬町","jp_add_2":"新城"},"9010405":{"post_code":"9010405","prefecture":"OKINAWA KEN","city":"SHIMAJIRI GUN YAESE CHO","town":"IHA","perfecture_jp":"沖縄県","jp_add_1":"島尻郡八重瀬町","jp_add_2":"伊覇"},"9010412":{"post_code":"9010412","prefecture":"OKINAWA KEN","city":"SHIMAJIRI GUN YAESE CHO","town":"UETABARU","perfecture_jp":"沖縄県","jp_add_1":"島尻郡八重瀬町","jp_add_2":"上田原"},"9010502":{"post_code":"9010502","prefecture":"OKINAWA KEN","city":"SHIMAJIRI GUN YAESE CHO","town":"OTON","perfecture_jp":"沖縄県","jp_add_1":"島尻郡八重瀬町","jp_add_2":"大頓"},"9010416":{"post_code":"9010416","prefecture":"OKINAWA KEN","city":"SHIMAJIRI GUN YAESE CHO","town":"GISHI","perfecture_jp":"沖縄県","jp_add_1":"島尻郡八重瀬町","jp_add_2":"宜次"},"9010512":{"post_code":"9010512","prefecture":"OKINAWA KEN","city":"SHIMAJIRI GUN YAESE CHO","town":"GUSHICHAN","perfecture_jp":"沖縄県","jp_add_1":"島尻郡八重瀬町","jp_add_2":"具志頭"},"9010415":{"post_code":"9010415","prefecture":"OKINAWA KEN","city":"SHIMAJIRI GUN YAESE CHO","town":"KOGUSUKU","perfecture_jp":"沖縄県","jp_add_1":"島尻郡八重瀬町","jp_add_2":"小城"},"9010504":{"post_code":"9010504","prefecture":"OKINAWA KEN","city":"SHIMAJIRI GUN YAESE CHO","town":"KOSHIHARA","perfecture_jp":"沖縄県","jp_add_1":"島尻郡八重瀬町","jp_add_2":"後原"},"9010401":{"post_code":"9010401","prefecture":"OKINAWA KEN","city":"SHIMAJIRI GUN YAESE CHO","town":"KOCHINDA","perfecture_jp":"沖縄県","jp_add_1":"島尻郡八重瀬町","jp_add_2":"東風平"},"9010413":{"post_code":"9010413","prefecture":"OKINAWA KEN","city":"SHIMAJIRI GUN YAESE CHO","town":"SHITAHAKU","perfecture_jp":"沖縄県","jp_add_1":"島尻郡八重瀬町","jp_add_2":"志多伯"},"9010404":{"post_code":"9010404","prefecture":"OKINAWA KEN","city":"SHIMAJIRI GUN YAESE CHO","town":"TAKARA","perfecture_jp":"沖縄県","jp_add_1":"島尻郡八重瀬町","jp_add_2":"高良"},"9010414":{"post_code":"9010414","prefecture":"OKINAWA KEN","city":"SHIMAJIRI GUN YAESE CHO","town":"TOME","perfecture_jp":"沖縄県","jp_add_1":"島尻郡八重瀬町","jp_add_2":"当銘"},"9010411":{"post_code":"9010411","prefecture":"OKINAWA KEN","city":"SHIMAJIRI GUN YAESE CHO","town":"TOMOYOSE","perfecture_jp":"沖縄県","jp_add_1":"島尻郡八重瀬町","jp_add_2":"友寄"},"9010402":{"post_code":"9010402","prefecture":"OKINAWA KEN","city":"SHIMAJIRI GUN YAESE CHO","town":"TOMORI","perfecture_jp":"沖縄県","jp_add_1":"島尻郡八重瀬町","jp_add_2":"富盛"},"9010516":{"post_code":"9010516","prefecture":"OKINAWA KEN","city":"SHIMAJIRI GUN YAESE CHO","town":"NAKAZA","perfecture_jp":"沖縄県","jp_add_1":"島尻郡八重瀬町","jp_add_2":"仲座"},"9010501":{"post_code":"9010501","prefecture":"OKINAWA KEN","city":"SHIMAJIRI GUN YAESE CHO","town":"NAGAMO","perfecture_jp":"沖縄県","jp_add_1":"島尻郡八重瀬町","jp_add_2":"長毛"},"9010513":{"post_code":"9010513","prefecture":"OKINAWA KEN","city":"SHIMAJIRI GUN YAESE CHO","town":"HANASHIRO","perfecture_jp":"沖縄県","jp_add_1":"島尻郡八重瀬町","jp_add_2":"玻名城"},"9010417":{"post_code":"9010417","prefecture":"OKINAWA KEN","city":"SHIMAJIRI GUN YAESE CHO","town":"HOKAMA","perfecture_jp":"沖縄県","jp_add_1":"島尻郡八重瀬町","jp_add_2":"外間"},"9010511":{"post_code":"9010511","prefecture":"OKINAWA KEN","city":"SHIMAJIRI GUN YAESE CHO","town":"MINATOGAWA","perfecture_jp":"沖縄県","jp_add_1":"島尻郡八重瀬町","jp_add_2":"港川"},"9010406":{"post_code":"9010406","prefecture":"OKINAWA KEN","city":"SHIMAJIRI GUN YAESE CHO","town":"YAGIBARU","perfecture_jp":"沖縄県","jp_add_1":"島尻郡八重瀬町","jp_add_2":"屋宜原"},"9010515":{"post_code":"9010515","prefecture":"OKINAWA KEN","city":"SHIMAJIRI GUN YAESE CHO","town":"YOZA","perfecture_jp":"沖縄県","jp_add_1":"島尻郡八重瀬町","jp_add_2":"与座"},"9010403":{"post_code":"9010403","prefecture":"OKINAWA KEN","city":"SHIMAJIRI GUN YAESE CHO","town":"YONAGUSUKU","perfecture_jp":"沖縄県","jp_add_1":"島尻郡八重瀬町","jp_add_2":"世名城"}}