{"9030813":{"post_code":"9030813","prefecture":"OKINAWA KEN","city":"NAHA SHI","town":"SHURI AKATACHO","perfecture_jp":"沖縄県","jp_add_1":"那覇市","jp_add_2":"首里赤田町"},"9030811":{"post_code":"9030811","prefecture":"OKINAWA KEN","city":"NAHA SHI","town":"SHURI AKAHIRACHO","perfecture_jp":"沖縄県","jp_add_1":"那覇市","jp_add_2":"首里赤平町"},"9030824":{"post_code":"9030824","prefecture":"OKINAWA KEN","city":"NAHA SHI","town":"SHURI IKEHATACHO","perfecture_jp":"沖縄県","jp_add_1":"那覇市","jp_add_2":"首里池端町"},"9030804":{"post_code":"9030804","prefecture":"OKINAWA KEN","city":"NAHA SHI","town":"SHURI ISHIMINECHO","perfecture_jp":"沖縄県","jp_add_1":"那覇市","jp_add_2":"首里石嶺町"},"9030823":{"post_code":"9030823","prefecture":"OKINAWA KEN","city":"NAHA SHI","town":"SHURI ONAKACHO","perfecture_jp":"沖縄県","jp_add_1":"那覇市","jp_add_2":"首里大中町"},"9030802":{"post_code":"9030802","prefecture":"OKINAWA KEN","city":"NAHA SHI","town":"SHURI ONACHO","perfecture_jp":"沖縄県","jp_add_1":"那覇市","jp_add_2":"首里大名町"},"9030815":{"post_code":"9030815","prefecture":"OKINAWA KEN","city":"NAHA SHI","town":"SHURI KINJOCHO","perfecture_jp":"沖縄県","jp_add_1":"那覇市","jp_add_2":"首里金城町"},"9030821":{"post_code":"9030821","prefecture":"OKINAWA KEN","city":"NAHA SHI","town":"SHURI GIBOCHO","perfecture_jp":"沖縄県","jp_add_1":"那覇市","jp_add_2":"首里儀保町"},"9030807":{"post_code":"9030807","prefecture":"OKINAWA KEN","city":"NAHA SHI","town":"SHURI KUBAGAWACHO","perfecture_jp":"沖縄県","jp_add_1":"那覇市","jp_add_2":"首里久場川町"},"9030814":{"post_code":"9030814","prefecture":"OKINAWA KEN","city":"NAHA SHI","town":"SHURI SAKIYAMACHO","perfecture_jp":"沖縄県","jp_add_1":"那覇市","jp_add_2":"首里崎山町"},"9030826":{"post_code":"9030826","prefecture":"OKINAWA KEN","city":"NAHA SHI","town":"SHURI SAMUKAWACHO","perfecture_jp":"沖縄県","jp_add_1":"那覇市","jp_add_2":"首里寒川町"},"9030801":{"post_code":"9030801","prefecture":"OKINAWA KEN","city":"NAHA SHI","town":"SHURI SUEYOSHICHO","perfecture_jp":"沖縄県","jp_add_1":"那覇市","jp_add_2":"首里末吉町"},"9030803":{"post_code":"9030803","prefecture":"OKINAWA KEN","city":"NAHA SHI","town":"SHURI TAIRACHO","perfecture_jp":"沖縄県","jp_add_1":"那覇市","jp_add_2":"首里平良町"},"9030806":{"post_code":"9030806","prefecture":"OKINAWA KEN","city":"NAHA SHI","town":"SHURI TERACHO","perfecture_jp":"沖縄県","jp_add_1":"那覇市","jp_add_2":"首里汀良町"},"9030812":{"post_code":"9030812","prefecture":"OKINAWA KEN","city":"NAHA SHI","town":"SHURI TONOKURACHO","perfecture_jp":"沖縄県","jp_add_1":"那覇市","jp_add_2":"首里当蔵町"},"9030822":{"post_code":"9030822","prefecture":"OKINAWA KEN","city":"NAHA SHI","town":"SHURI TOBARUCHO","perfecture_jp":"沖縄県","jp_add_1":"那覇市","jp_add_2":"首里桃原町"},"9030805":{"post_code":"9030805","prefecture":"OKINAWA KEN","city":"NAHA SHI","town":"SHURI TORIHORICHO","perfecture_jp":"沖縄県","jp_add_1":"那覇市","jp_add_2":"首里鳥堀町"},"9030816":{"post_code":"9030816","prefecture":"OKINAWA KEN","city":"NAHA SHI","town":"SHURI MAWASHICHO","perfecture_jp":"沖縄県","jp_add_1":"那覇市","jp_add_2":"首里真和志町"},"9030825":{"post_code":"9030825","prefecture":"OKINAWA KEN","city":"NAHA SHI","town":"SHURI YAMAGAWACHO","perfecture_jp":"沖縄県","jp_add_1":"那覇市","jp_add_2":"首里山川町"},"9030100":{"post_code":"9030100","prefecture":"OKINAWA KEN","city":"NAKAGAMI GUN NISHIHARA CHO","town":"IKANIKEISAIGANAIBAAI","perfecture_jp":"沖縄県","jp_add_1":"中頭郡西原町","jp_add_2":""},"9030105":{"post_code":"9030105","prefecture":"OKINAWA KEN","city":"NAKAGAMI GUN NISHIHARA CHO","town":"AGARIZAKI","perfecture_jp":"沖縄県","jp_add_1":"中頭郡西原町","jp_add_2":"東崎"},"9030113":{"post_code":"9030113","prefecture":"OKINAWA KEN","city":"NAKAGAMI GUN NISHIHARA CHO","town":"AMURO","perfecture_jp":"沖縄県","jp_add_1":"中頭郡西原町","jp_add_2":"安室"},"9030115":{"post_code":"9030115","prefecture":"OKINAWA KEN","city":"NAKAGAMI GUN NISHIHARA CHO","town":"IKEDA","perfecture_jp":"沖縄県","jp_add_1":"中頭郡西原町","jp_add_2":"池田"},"9030125":{"post_code":"9030125","prefecture":"OKINAWA KEN","city":"NAKAGAMI GUN NISHIHARA CHO","town":"UEHARA","perfecture_jp":"沖縄県","jp_add_1":"中頭郡西原町","jp_add_2":"上原"},"9030121":{"post_code":"9030121","prefecture":"OKINAWA KEN","city":"NAKAGAMI GUN NISHIHARA CHO","town":"UCHIMA","perfecture_jp":"沖縄県","jp_add_1":"中頭郡西原町","jp_add_2":"内間"},"9030117":{"post_code":"9030117","prefecture":"OKINAWA KEN","city":"NAKAGAMI GUN NISHIHARA CHO","town":"ONAGA","perfecture_jp":"沖縄県","jp_add_1":"中頭郡西原町","jp_add_2":"翁長"},"9030103":{"post_code":"9030103","prefecture":"OKINAWA KEN","city":"NAKAGAMI GUN NISHIHARA CHO","town":"ONAHA","perfecture_jp":"沖縄県","jp_add_1":"中頭郡西原町","jp_add_2":"小那覇"},"9030101":{"post_code":"9030101","prefecture":"OKINAWA KEN","city":"NAKAGAMI GUN NISHIHARA CHO","town":"KAKEBOKU","perfecture_jp":"沖縄県","jp_add_1":"中頭郡西原町","jp_add_2":"掛保久"},"9030112":{"post_code":"9030112","prefecture":"OKINAWA KEN","city":"NAKAGAMI GUN NISHIHARA CHO","town":"GAJA","perfecture_jp":"沖縄県","jp_add_1":"中頭郡西原町","jp_add_2":"我謝"},"9030102":{"post_code":"9030102","prefecture":"OKINAWA KEN","city":"NAKAGAMI GUN NISHIHARA CHO","town":"KADEKARU","perfecture_jp":"沖縄県","jp_add_1":"中頭郡西原町","jp_add_2":"嘉手苅"},"9030104":{"post_code":"9030104","prefecture":"OKINAWA KEN","city":"NAKAGAMI GUN NISHIHARA CHO","town":"KANEKU","perfecture_jp":"沖縄県","jp_add_1":"中頭郡西原町","jp_add_2":"兼久"},"9030116":{"post_code":"9030116","prefecture":"OKINAWA KEN","city":"NAKAGAMI GUN NISHIHARA CHO","town":"KOCHI","perfecture_jp":"沖縄県","jp_add_1":"中頭郡西原町","jp_add_2":"幸地"},"9030122":{"post_code":"9030122","prefecture":"OKINAWA KEN","city":"NAKAGAMI GUN NISHIHARA CHO","town":"KOBASHIGAWA","perfecture_jp":"沖縄県","jp_add_1":"中頭郡西原町","jp_add_2":"小橋川"},"9030118":{"post_code":"9030118","prefecture":"OKINAWA KEN","city":"NAKAGAMI GUN NISHIHARA CHO","town":"KOHATSU","perfecture_jp":"沖縄県","jp_add_1":"中頭郡西原町","jp_add_2":"小波津"},"9030124":{"post_code":"9030124","prefecture":"OKINAWA KEN","city":"NAKAGAMI GUN NISHIHARA CHO","town":"GOYA","perfecture_jp":"沖縄県","jp_add_1":"中頭郡西原町","jp_add_2":"呉屋"},"9030129":{"post_code":"9030129","prefecture":"OKINAWA KEN","city":"NAKAGAMI GUN NISHIHARA CHO","town":"SEMBARU","perfecture_jp":"沖縄県","jp_add_1":"中頭郡西原町","jp_add_2":"千原"},"9030126":{"post_code":"9030126","prefecture":"OKINAWA KEN","city":"NAKAGAMI GUN NISHIHARA CHO","town":"TANABARU","perfecture_jp":"沖縄県","jp_add_1":"中頭郡西原町","jp_add_2":"棚原"},"9030123":{"post_code":"9030123","prefecture":"OKINAWA KEN","city":"NAKAGAMI GUN NISHIHARA CHO","town":"TSUHANAHA","perfecture_jp":"沖縄県","jp_add_1":"中頭郡西原町","jp_add_2":"津花波"},"9030114":{"post_code":"9030114","prefecture":"OKINAWA KEN","city":"NAKAGAMI GUN NISHIHARA CHO","town":"TOBARU","perfecture_jp":"沖縄県","jp_add_1":"中頭郡西原町","jp_add_2":"桃原"},"9030127":{"post_code":"9030127","prefecture":"OKINAWA KEN","city":"NAKAGAMI GUN NISHIHARA CHO","town":"TOKUSADA","perfecture_jp":"沖縄県","jp_add_1":"中頭郡西原町","jp_add_2":"徳佐田"},"9030128":{"post_code":"9030128","prefecture":"OKINAWA KEN","city":"NAKAGAMI GUN NISHIHARA CHO","town":"MORIKAWA","perfecture_jp":"沖縄県","jp_add_1":"中頭郡西原町","jp_add_2":"森川"},"9030111":{"post_code":"9030111","prefecture":"OKINAWA KEN","city":"NAKAGAMI GUN NISHIHARA CHO","town":"YONAGUSUKU","perfecture_jp":"沖縄県","jp_add_1":"中頭郡西原町","jp_add_2":"与那城"}}