{"9060000":{"post_code":"9060000","prefecture":"OKINAWA KEN","city":"MIYAKOJIMA SHI","town":"IKANIKEISAIGANAIBAAI","perfecture_jp":"沖縄県","jp_add_1":"宮古島市","jp_add_2":""},"9060502":{"post_code":"9060502","prefecture":"OKINAWA KEN","city":"MIYAKOJIMA SHI","town":"IRABU IKEMASOE","perfecture_jp":"沖縄県","jp_add_1":"宮古島市","jp_add_2":"伊良部池間添"},"9060503":{"post_code":"9060503","prefecture":"OKINAWA KEN","city":"MIYAKOJIMA SHI","town":"IRABU IRABU","perfecture_jp":"沖縄県","jp_add_1":"宮古島市","jp_add_2":"伊良部伊良部"},"9060505":{"post_code":"9060505","prefecture":"OKINAWA KEN","city":"MIYAKOJIMA SHI","town":"IRABU KUNINAKA","perfecture_jp":"沖縄県","jp_add_1":"宮古島市","jp_add_2":"伊良部国仲"},"9060507":{"post_code":"9060507","prefecture":"OKINAWA KEN","city":"MIYAKOJIMA SHI","town":"IRABU SAWADA","perfecture_jp":"沖縄県","jp_add_1":"宮古島市","jp_add_2":"伊良部佐和田"},"9060504":{"post_code":"9060504","prefecture":"OKINAWA KEN","city":"MIYAKOJIMA SHI","town":"IRABU NAKACHI","perfecture_jp":"沖縄県","jp_add_1":"宮古島市","jp_add_2":"伊良部仲地"},"9060506":{"post_code":"9060506","prefecture":"OKINAWA KEN","city":"MIYAKOJIMA SHI","town":"IRABU NAGAHAMA","perfecture_jp":"沖縄県","jp_add_1":"宮古島市","jp_add_2":"伊良部長浜"},"9060501":{"post_code":"9060501","prefecture":"OKINAWA KEN","city":"MIYAKOJIMA SHI","town":"IRABU MAESATOSOE","perfecture_jp":"沖縄県","jp_add_1":"宮古島市","jp_add_2":"伊良部前里添"},"9060204":{"post_code":"9060204","prefecture":"OKINAWA KEN","city":"MIYAKOJIMA SHI","town":"UENO UENO","perfecture_jp":"沖縄県","jp_add_1":"宮古島市","jp_add_2":"上野上野"},"9060202":{"post_code":"9060202","prefecture":"OKINAWA KEN","city":"MIYAKOJIMA SHI","town":"UENO SHINZATO","perfecture_jp":"沖縄県","jp_add_1":"宮古島市","jp_add_2":"上野新里"},"9060201":{"post_code":"9060201","prefecture":"OKINAWA KEN","city":"MIYAKOJIMA SHI","town":"UENO NOBARU","perfecture_jp":"沖縄県","jp_add_1":"宮古島市","jp_add_2":"上野野原"},"9060203":{"post_code":"9060203","prefecture":"OKINAWA KEN","city":"MIYAKOJIMA SHI","town":"UENO MIYAGUNI","perfecture_jp":"沖縄県","jp_add_1":"宮古島市","jp_add_2":"上野宮国"},"9060102":{"post_code":"9060102","prefecture":"OKINAWA KEN","city":"MIYAKOJIMA SHI","town":"GUSUKUBE ARAGUSUKU","perfecture_jp":"沖縄県","jp_add_1":"宮古島市","jp_add_2":"城辺新城"},"9060108":{"post_code":"9060108","prefecture":"OKINAWA KEN","city":"MIYAKOJIMA SHI","town":"GUSUKUBE URUKA","perfecture_jp":"沖縄県","jp_add_1":"宮古島市","jp_add_2":"城辺砂川"},"9060109":{"post_code":"9060109","prefecture":"OKINAWA KEN","city":"MIYAKOJIMA SHI","town":"GUSUKUBE SHIMOZATOSOE","perfecture_jp":"沖縄県","jp_add_1":"宮古島市","jp_add_2":"城辺下里添"},"9060107":{"post_code":"9060107","prefecture":"OKINAWA KEN","city":"MIYAKOJIMA SHI","town":"GUSUKUBE TOMORI","perfecture_jp":"沖縄県","jp_add_1":"宮古島市","jp_add_2":"城辺友利"},"9060105":{"post_code":"9060105","prefecture":"OKINAWA KEN","city":"MIYAKOJIMA SHI","town":"GUSUKUBE NAGAMA","perfecture_jp":"沖縄県","jp_add_1":"宮古島市","jp_add_2":"城辺長間"},"9060106":{"post_code":"9060106","prefecture":"OKINAWA KEN","city":"MIYAKOJIMA SHI","town":"GUSUKUBE NISHIZATOSOE","perfecture_jp":"沖縄県","jp_add_1":"宮古島市","jp_add_2":"城辺西里添"},"9060104":{"post_code":"9060104","prefecture":"OKINAWA KEN","city":"MIYAKOJIMA SHI","town":"GUSUKUBE HIGA","perfecture_jp":"沖縄県","jp_add_1":"宮古島市","jp_add_2":"城辺比嘉"},"9060103":{"post_code":"9060103","prefecture":"OKINAWA KEN","city":"MIYAKOJIMA SHI","town":"GUSUKUBE FUKUZATO","perfecture_jp":"沖縄県","jp_add_1":"宮古島市","jp_add_2":"城辺福里"},"9060101":{"post_code":"9060101","prefecture":"OKINAWA KEN","city":"MIYAKOJIMA SHI","town":"GUSUKUBE BORA","perfecture_jp":"沖縄県","jp_add_1":"宮古島市","jp_add_2":"城辺保良"},"9060304":{"post_code":"9060304","prefecture":"OKINAWA KEN","city":"MIYAKOJIMA SHI","town":"SHIMOJI UECHI","perfecture_jp":"沖縄県","jp_add_1":"宮古島市","jp_add_2":"下地上地"},"9060302":{"post_code":"9060302","prefecture":"OKINAWA KEN","city":"MIYAKOJIMA SHI","town":"SHIMOJI KADEKARI","perfecture_jp":"沖縄県","jp_add_1":"宮古島市","jp_add_2":"下地嘉手苅"},"9060301":{"post_code":"9060301","prefecture":"OKINAWA KEN","city":"MIYAKOJIMA SHI","town":"SHIMOJI KAWAMITSU","perfecture_jp":"沖縄県","jp_add_1":"宮古島市","jp_add_2":"下地川満"},"9060306":{"post_code":"9060306","prefecture":"OKINAWA KEN","city":"MIYAKOJIMA SHI","town":"SHIMOJI KURIMA","perfecture_jp":"沖縄県","jp_add_1":"宮古島市","jp_add_2":"下地来間"},"9060303":{"post_code":"9060303","prefecture":"OKINAWA KEN","city":"MIYAKOJIMA SHI","town":"SHIMOJI SUGAMA","perfecture_jp":"沖縄県","jp_add_1":"宮古島市","jp_add_2":"下地洲鎌"},"9060305":{"post_code":"9060305","prefecture":"OKINAWA KEN","city":"MIYAKOJIMA SHI","town":"SHIMOJI YONAHA","perfecture_jp":"沖縄県","jp_add_1":"宮古島市","jp_add_2":"下地与那覇"},"9060421":{"post_code":"9060421","prefecture":"OKINAWA KEN","city":"MIYAKOJIMA SHI","town":"HIRARA IKEMA","perfecture_jp":"沖縄県","jp_add_1":"宮古島市","jp_add_2":"平良池間"},"9060004":{"post_code":"9060004","prefecture":"OKINAWA KEN","city":"MIYAKOJIMA SHI","town":"HIRARA OURA","perfecture_jp":"沖縄県","jp_add_1":"宮古島市","jp_add_2":"平良大浦"},"9060001":{"post_code":"9060001","prefecture":"OKINAWA KEN","city":"MIYAKOJIMA SHI","town":"HIRARA OGAMI","perfecture_jp":"沖縄県","jp_add_1":"宮古島市","jp_add_2":"平良大神"},"9060002":{"post_code":"9060002","prefecture":"OKINAWA KEN","city":"MIYAKOJIMA SHI","town":"HIRARA KARIMATA","perfecture_jp":"沖縄県","jp_add_1":"宮古島市","jp_add_2":"平良狩俣"},"9060015":{"post_code":"9060015","prefecture":"OKINAWA KEN","city":"MIYAKOJIMA SHI","town":"HIRARA KUGAI","perfecture_jp":"沖縄県","jp_add_1":"宮古島市","jp_add_2":"平良久貝"},"9060003":{"post_code":"9060003","prefecture":"OKINAWA KEN","city":"MIYAKOJIMA SHI","town":"HIRARA SHIMAJIRI","perfecture_jp":"沖縄県","jp_add_1":"宮古島市","jp_add_2":"平良島尻"},"9060013":{"post_code":"9060013","prefecture":"OKINAWA KEN","city":"MIYAKOJIMA SHI","town":"HIRARA SHIMOZATO","perfecture_jp":"沖縄県","jp_add_1":"宮古島市","jp_add_2":"平良下里"},"9060008":{"post_code":"9060008","prefecture":"OKINAWA KEN","city":"MIYAKOJIMA SHI","town":"HIRARA NIKADORI","perfecture_jp":"沖縄県","jp_add_1":"宮古島市","jp_add_2":"平良荷川取"},"9060012":{"post_code":"9060012","prefecture":"OKINAWA KEN","city":"MIYAKOJIMA SHI","town":"HIRARA NISHIZATO","perfecture_jp":"沖縄県","jp_add_1":"宮古島市","jp_add_2":"平良西里"},"9060006":{"post_code":"9060006","prefecture":"OKINAWA KEN","city":"MIYAKOJIMA SHI","town":"HIRARA NISHINAKASONE","perfecture_jp":"沖縄県","jp_add_1":"宮古島市","jp_add_2":"平良西仲宗根"},"9060005":{"post_code":"9060005","prefecture":"OKINAWA KEN","city":"MIYAKOJIMA SHI","town":"HIRARA NISHIHARA","perfecture_jp":"沖縄県","jp_add_1":"宮古島市","jp_add_2":"平良西原"},"9060007":{"post_code":"9060007","prefecture":"OKINAWA KEN","city":"MIYAKOJIMA SHI","town":"HIRARA HIGASHINAKASONE","perfecture_jp":"沖縄県","jp_add_1":"宮古島市","jp_add_2":"平良東仲宗根"},"9060011":{"post_code":"9060011","prefecture":"OKINAWA KEN","city":"MIYAKOJIMA SHI","town":"HIRARA HIGASHINAKASONEZOE","perfecture_jp":"沖縄県","jp_add_1":"宮古島市","jp_add_2":"平良東仲宗根添"},"9060422":{"post_code":"9060422","prefecture":"OKINAWA KEN","city":"MIYAKOJIMA SHI","town":"HIRARA MAEZATO","perfecture_jp":"沖縄県","jp_add_1":"宮古島市","jp_add_2":"平良前里"},"9060014":{"post_code":"9060014","prefecture":"OKINAWA KEN","city":"MIYAKOJIMA SHI","town":"HIRARA MATSUBARA","perfecture_jp":"沖縄県","jp_add_1":"宮古島市","jp_add_2":"平良松原"},"9060600":{"post_code":"9060600","prefecture":"OKINAWA KEN","city":"MIYAKO GUN TARAMA SON","town":"IKANIKEISAIGANAIBAAI","perfecture_jp":"沖縄県","jp_add_1":"宮古郡多良間村","jp_add_2":""},"9060601":{"post_code":"9060601","prefecture":"OKINAWA KEN","city":"MIYAKO GUN TARAMA SON","town":"SHIOKAWA","perfecture_jp":"沖縄県","jp_add_1":"宮古郡多良間村","jp_add_2":"塩川"},"9060602":{"post_code":"9060602","prefecture":"OKINAWA KEN","city":"MIYAKO GUN TARAMA SON","town":"NAKASUJI","perfecture_jp":"沖縄県","jp_add_1":"宮古郡多良間村","jp_add_2":"仲筋"},"9060603":{"post_code":"9060603","prefecture":"OKINAWA KEN","city":"MIYAKO GUN TARAMA SON","town":"MINNA","perfecture_jp":"沖縄県","jp_add_1":"宮古郡多良間村","jp_add_2":"水納"}}