{"9070000":{"post_code":"9070000","prefecture":"OKINAWA KEN","city":"YAEYAMA GUN TAKETOMI CHO","town":"IKANIKEISAIGANAIBAAI","perfecture_jp":"沖縄県","jp_add_1":"石垣市","jp_add_2":""},"9070024":{"post_code":"9070024","prefecture":"OKINAWA KEN","city":"ISHIGAKI SHI","town":"ARAKAWA","perfecture_jp":"沖縄県","jp_add_1":"石垣市","jp_add_2":"新川"},"9070023":{"post_code":"9070023","prefecture":"OKINAWA KEN","city":"ISHIGAKI SHI","town":"ISHIGAKI","perfecture_jp":"沖縄県","jp_add_1":"石垣市","jp_add_2":"石垣"},"9070332":{"post_code":"9070332","prefecture":"OKINAWA KEN","city":"ISHIGAKI SHI","town":"IBARUMA","perfecture_jp":"沖縄県","jp_add_1":"石垣市","jp_add_2":"伊原間"},"9070022":{"post_code":"9070022","prefecture":"OKINAWA KEN","city":"ISHIGAKI SHI","town":"OKAWA","perfecture_jp":"沖縄県","jp_add_1":"石垣市","jp_add_2":"大川"},"9070001":{"post_code":"9070001","prefecture":"OKINAWA KEN","city":"ISHIGAKI SHI","town":"OHAMA","perfecture_jp":"沖縄県","jp_add_1":"石垣市","jp_add_2":"大浜"},"9070453":{"post_code":"9070453","prefecture":"OKINAWA KEN","city":"ISHIGAKI SHI","town":"KABIRA","perfecture_jp":"沖縄県","jp_add_1":"石垣市","jp_add_2":"川平"},"9070452":{"post_code":"9070452","prefecture":"OKINAWA KEN","city":"ISHIGAKI SHI","town":"SAKIEDA","perfecture_jp":"沖縄県","jp_add_1":"石垣市","jp_add_2":"崎枝"},"9070242":{"post_code":"9070242","prefecture":"OKINAWA KEN","city":"ISHIGAKI SHI","town":"SHIRAHO","perfecture_jp":"沖縄県","jp_add_1":"石垣市","jp_add_2":"白保"},"9070014":{"post_code":"9070014","prefecture":"OKINAWA KEN","city":"ISHIGAKI SHI","town":"SHINEICHO","perfecture_jp":"沖縄県","jp_add_1":"石垣市","jp_add_2":"新栄町"},"9070241":{"post_code":"9070241","prefecture":"OKINAWA KEN","city":"ISHIGAKI SHI","town":"TOZATO","perfecture_jp":"沖縄県","jp_add_1":"石垣市","jp_add_2":"桃里"},"9070004":{"post_code":"9070004","prefecture":"OKINAWA KEN","city":"ISHIGAKI SHI","town":"TONOSHIRO","perfecture_jp":"沖縄県","jp_add_1":"石垣市","jp_add_2":"登野城"},"9070021":{"post_code":"9070021","prefecture":"OKINAWA KEN","city":"ISHIGAKI SHI","town":"NAGURA","perfecture_jp":"沖縄県","jp_add_1":"石垣市","jp_add_2":"名蔵"},"9070333":{"post_code":"9070333","prefecture":"OKINAWA KEN","city":"ISHIGAKI SHI","town":"NOSOKO","perfecture_jp":"沖縄県","jp_add_1":"石垣市","jp_add_2":"野底"},"9070013":{"post_code":"9070013","prefecture":"OKINAWA KEN","city":"ISHIGAKI SHI","town":"HAMASAKICHO","perfecture_jp":"沖縄県","jp_add_1":"石垣市","jp_add_2":"浜崎町"},"9070003":{"post_code":"9070003","prefecture":"OKINAWA KEN","city":"ISHIGAKI SHI","town":"HIRAE","perfecture_jp":"沖縄県","jp_add_1":"石垣市","jp_add_2":"平得"},"9070331":{"post_code":"9070331","prefecture":"OKINAWA KEN","city":"ISHIGAKI SHI","town":"HIRAKUBO","perfecture_jp":"沖縄県","jp_add_1":"石垣市","jp_add_2":"平久保"},"9070451":{"post_code":"9070451","prefecture":"OKINAWA KEN","city":"ISHIGAKI SHI","town":"FUKAI","perfecture_jp":"沖縄県","jp_add_1":"石垣市","jp_add_2":"桴海"},"9070002":{"post_code":"9070002","prefecture":"OKINAWA KEN","city":"ISHIGAKI SHI","town":"MAEZATO","perfecture_jp":"沖縄県","jp_add_1":"石垣市","jp_add_2":"真栄里"},"9070012":{"post_code":"9070012","prefecture":"OKINAWA KEN","city":"ISHIGAKI SHI","town":"MISAKICHO","perfecture_jp":"沖縄県","jp_add_1":"石垣市","jp_add_2":"美崎町"},"9070243":{"post_code":"9070243","prefecture":"OKINAWA KEN","city":"ISHIGAKI SHI","town":"MIYARA","perfecture_jp":"沖縄県","jp_add_1":"石垣市","jp_add_2":"宮良"},"9070244":{"post_code":"9070244","prefecture":"OKINAWA KEN","city":"ISHIGAKI SHI","town":"MORIYAMA","perfecture_jp":"沖縄県","jp_add_1":"石垣市","jp_add_2":"盛山"},"9070011":{"post_code":"9070011","prefecture":"OKINAWA KEN","city":"ISHIGAKI SHI","town":"YASHIMACHO","perfecture_jp":"沖縄県","jp_add_1":"石垣市","jp_add_2":"八島町"},"9071435":{"post_code":"9071435","prefecture":"OKINAWA KEN","city":"YAEYAMA GUN TAKETOMI CHO","town":"ARAGUSUKU","perfecture_jp":"沖縄県","jp_add_1":"八重山郡竹富町","jp_add_2":"新城"},"9071542":{"post_code":"9071542","prefecture":"OKINAWA KEN","city":"YAEYAMA GUN TAKETOMI CHO","town":"IRIOMOTE","perfecture_jp":"沖縄県","jp_add_1":"八重山郡竹富町","jp_add_2":"西表"},"9071541":{"post_code":"9071541","prefecture":"OKINAWA KEN","city":"YAEYAMA GUN TAKETOMI CHO","town":"UEHARA","perfecture_jp":"沖縄県","jp_add_1":"八重山郡竹富町","jp_add_2":"上原"},"9071311":{"post_code":"9071311","prefecture":"OKINAWA KEN","city":"YAEYAMA GUN TAKETOMI CHO","town":"KUROSHIMA","perfecture_jp":"沖縄県","jp_add_1":"八重山郡竹富町","jp_add_2":"黒島"},"9071221":{"post_code":"9071221","prefecture":"OKINAWA KEN","city":"YAEYAMA GUN TAKETOMI CHO","town":"KOHAMA","perfecture_jp":"沖縄県","jp_add_1":"八重山郡竹富町","jp_add_2":"小浜"},"9071432":{"post_code":"9071432","prefecture":"OKINAWA KEN","city":"YAEYAMA GUN TAKETOMI CHO","town":"KOMI","perfecture_jp":"沖縄県","jp_add_1":"八重山郡竹富町","jp_add_2":"古見"},"9071543":{"post_code":"9071543","prefecture":"OKINAWA KEN","city":"YAEYAMA GUN TAKETOMI CHO","town":"SAKIYAMA","perfecture_jp":"沖縄県","jp_add_1":"八重山郡竹富町","jp_add_2":"崎山"},"9071431":{"post_code":"9071431","prefecture":"OKINAWA KEN","city":"YAEYAMA GUN TAKETOMI CHO","town":"TAKANA","perfecture_jp":"沖縄県","jp_add_1":"八重山郡竹富町","jp_add_2":"高那"},"9071101":{"post_code":"9071101","prefecture":"OKINAWA KEN","city":"YAEYAMA GUN TAKETOMI CHO","town":"TAKETOMI","perfecture_jp":"沖縄県","jp_add_1":"八重山郡竹富町","jp_add_2":"竹富"},"9071434":{"post_code":"9071434","prefecture":"OKINAWA KEN","city":"YAEYAMA GUN TAKETOMI CHO","town":"HAIMI","perfecture_jp":"沖縄県","jp_add_1":"八重山郡竹富町","jp_add_2":"南風見"},"9071433":{"post_code":"9071433","prefecture":"OKINAWA KEN","city":"YAEYAMA GUN TAKETOMI CHO","town":"HAIMINAKA","perfecture_jp":"沖縄県","jp_add_1":"八重山郡竹富町","jp_add_2":"南風見仲"},"9071751":{"post_code":"9071751","prefecture":"OKINAWA KEN","city":"YAEYAMA GUN TAKETOMI CHO","town":"HATERUMA","perfecture_jp":"沖縄県","jp_add_1":"八重山郡竹富町","jp_add_2":"波照間"},"9071544":{"post_code":"9071544","prefecture":"OKINAWA KEN","city":"YAEYAMA GUN TAKETOMI CHO","town":"HATOMA","perfecture_jp":"沖縄県","jp_add_1":"八重山郡竹富町","jp_add_2":"鳩間"},"9071800":{"post_code":"9071800","prefecture":"OKINAWA KEN","city":"YAEYAMA GUN YONAGUNI CHO","town":"IKANIKEISAIGANAIBAAI","perfecture_jp":"沖縄県","jp_add_1":"八重山郡与那国町","jp_add_2":""},"9071801":{"post_code":"9071801","prefecture":"OKINAWA KEN","city":"YAEYAMA GUN YONAGUNI CHO","town":"YONAGUNI","perfecture_jp":"沖縄県","jp_add_1":"八重山郡与那国町","jp_add_2":"与那国"}}