{"9103614":{"post_code":"9103614","prefecture":"FUKUI KEN","city":"FUKUI SHI","town":"AIDACHO","perfecture_jp":"福井県","jp_add_1":"福井市","jp_add_2":"在田町"},"9103556":{"post_code":"9103556","prefecture":"FUKUI KEN","city":"FUKUI SHI","town":"AKASAKACHO","perfecture_jp":"福井県","jp_add_1":"福井市","jp_add_2":"赤坂町"},"9102475":{"post_code":"9102475","prefecture":"FUKUI KEN","city":"FUKUI SHI","town":"AKADANICHO","perfecture_jp":"福井県","jp_add_1":"福井市","jp_add_2":"赤谷町"},"9102357":{"post_code":"9102357","prefecture":"FUKUI KEN","city":"FUKUI SHI","town":"ASADANICHO","perfecture_jp":"福井県","jp_add_1":"福井市","jp_add_2":"朝谷町"},"9103605":{"post_code":"9103605","prefecture":"FUKUI KEN","city":"FUKUI SHI","town":"ASAMIYACHO","perfecture_jp":"福井県","jp_add_1":"福井市","jp_add_2":"朝宮町"},"9103266":{"post_code":"9103266","prefecture":"FUKUI KEN","city":"FUKUI SHI","town":"HIGASHIDAIRACHO","perfecture_jp":"福井県","jp_add_1":"福井市","jp_add_2":"足谷町"},"9102463":{"post_code":"9102463","prefecture":"FUKUI KEN","city":"FUKUI SHI","town":"AJIMIKOCHICHO","perfecture_jp":"福井県","jp_add_1":"福井市","jp_add_2":"味見河内町"},"9100104":{"post_code":"9100104","prefecture":"FUKUI KEN","city":"FUKUI SHI","town":"ADOSECHO","perfecture_jp":"福井県","jp_add_1":"福井市","jp_add_2":"網戸瀬町"},"9102152":{"post_code":"9102152","prefecture":"FUKUI KEN","city":"FUKUI SHI","town":"ABAKACHO","perfecture_jp":"福井県","jp_add_1":"福井市","jp_add_2":"安波賀町"},"9102151":{"post_code":"9102151","prefecture":"FUKUI KEN","city":"FUKUI SHI","town":"ABAKANAKAJIMACHO","perfecture_jp":"福井県","jp_add_1":"福井市","jp_add_2":"安波賀中島町"},"9100124":{"post_code":"9100124","prefecture":"FUKUI KEN","city":"FUKUI SHI","town":"AMAIKECHO","perfecture_jp":"福井県","jp_add_1":"福井市","jp_add_2":"天池町"},"9103525":{"post_code":"9103525","prefecture":"FUKUI KEN","city":"FUKUI SHI","town":"AMAGATANICHO","perfecture_jp":"福井県","jp_add_1":"福井市","jp_add_2":"尼ケ谷町"},"9100041":{"post_code":"9100041","prefecture":"FUKUI KEN","city":"FUKUI SHI","town":"AMASUGOCHO","perfecture_jp":"福井県","jp_add_1":"福井市","jp_add_2":"天菅生町"},"9103402":{"post_code":"9103402","prefecture":"FUKUI KEN","city":"FUKUI SHI","town":"AYUKAWACHO","perfecture_jp":"福井県","jp_add_1":"福井市","jp_add_2":"鮎川町"},"9102172":{"post_code":"9102172","prefecture":"FUKUI KEN","city":"FUKUI SHI","town":"ARAKISHIMBOCHO","perfecture_jp":"福井県","jp_add_1":"福井市","jp_add_2":"荒木新保町"},"9102171":{"post_code":"9102171","prefecture":"FUKUI KEN","city":"FUKUI SHI","town":"ARAKICHO","perfecture_jp":"福井県","jp_add_1":"福井市","jp_add_2":"荒木町"},"9103251":{"post_code":"9103251","prefecture":"FUKUI KEN","city":"FUKUI SHI","town":"ARATANICHO","perfecture_jp":"福井県","jp_add_1":"福井市","jp_add_2":"荒谷町"},"9100014":{"post_code":"9100014","prefecture":"FUKUI KEN","city":"FUKUI SHI","town":"IKUHISACHO","perfecture_jp":"福井県","jp_add_1":"福井市","jp_add_2":"幾久町"},"9100013":{"post_code":"9100013","prefecture":"FUKUI KEN","city":"FUKUI SHI","town":"IKUYO","perfecture_jp":"福井県","jp_add_1":"福井市","jp_add_2":"幾代"},"9103555":{"post_code":"9103555","prefecture":"FUKUI KEN","city":"FUKUI SHI","town":"IKURACHO","perfecture_jp":"福井県","jp_add_1":"福井市","jp_add_2":"居倉町"},"9103106":{"post_code":"9103106","prefecture":"FUKUI KEN","city":"FUKUI SHI","town":"IKENOSHIRICHO","perfecture_jp":"福井県","jp_add_1":"福井市","jp_add_2":"池尻町"},"9103133":{"post_code":"9103133","prefecture":"FUKUI KEN","city":"FUKUI SHI","town":"ISHISHIMBOCHO","perfecture_jp":"福井県","jp_add_1":"福井市","jp_add_2":"石新保町"},"9103137":{"post_code":"9103137","prefecture":"FUKUI KEN","city":"FUKUI SHI","town":"ISHIBASHICHO","perfecture_jp":"福井県","jp_add_1":"福井市","jp_add_2":"石橋町"},"9103123":{"post_code":"9103123","prefecture":"FUKUI KEN","city":"FUKUI SHI","town":"ISHIBATAKECHO","perfecture_jp":"福井県","jp_add_1":"福井市","jp_add_2":"石畠町"},"9100122":{"post_code":"9100122","prefecture":"FUKUI KEN","city":"FUKUI SHI","town":"ISHIMORICHO","perfecture_jp":"福井県","jp_add_1":"福井市","jp_add_2":"石盛町"},"9100817":{"post_code":"9100817","prefecture":"FUKUI KEN","city":"FUKUI SHI","town":"IZUMIDACHO","perfecture_jp":"福井県","jp_add_1":"福井市","jp_add_2":"泉田町"},"9103262":{"post_code":"9103262","prefecture":"FUKUI KEN","city":"FUKUI SHI","town":"ICHIOJICHO","perfecture_jp":"福井県","jp_add_1":"福井市","jp_add_2":"一王寺町"},"9102222":{"post_code":"9102222","prefecture":"FUKUI KEN","city":"FUKUI SHI","town":"ICHINAMICHO","perfecture_jp":"福井県","jp_add_1":"福井市","jp_add_2":"市波町"},"9103125":{"post_code":"9103125","prefecture":"FUKUI KEN","city":"FUKUI SHI","town":"ICHINOSECHO","perfecture_jp":"福井県","jp_add_1":"福井市","jp_add_2":"市ノ瀬町"},"9103383":{"post_code":"9103383","prefecture":"FUKUI KEN","city":"FUKUI SHI","town":"ITOSAKICHO","perfecture_jp":"福井県","jp_add_1":"福井市","jp_add_2":"糸崎町"},"9100156":{"post_code":"9100156","prefecture":"FUKUI KEN","city":"FUKUI SHI","town":"INADA SHIMMACHI","perfecture_jp":"福井県","jp_add_1":"福井市","jp_add_2":"稲多新町"},"9100155":{"post_code":"9100155","prefecture":"FUKUI KEN","city":"FUKUI SHI","town":"INADA HAMAMACHI","perfecture_jp":"福井県","jp_add_1":"福井市","jp_add_2":"稲多浜町"},"9100154":{"post_code":"9100154","prefecture":"FUKUI KEN","city":"FUKUI SHI","town":"INADA MOTOMACHI","perfecture_jp":"福井県","jp_add_1":"福井市","jp_add_2":"稲多元町"},"9102177":{"post_code":"9102177","prefecture":"FUKUI KEN","city":"FUKUI SHI","town":"INAZUCHO","perfecture_jp":"福井県","jp_add_1":"福井市","jp_add_2":"稲津町"},"9103118":{"post_code":"9103118","prefecture":"FUKUI KEN","city":"FUKUI SHI","town":"UENOCHO","perfecture_jp":"福井県","jp_add_1":"福井市","jp_add_2":"上野町"},"9100134":{"post_code":"9100134","prefecture":"FUKUI KEN","city":"FUKUI SHI","town":"UENOHOMMACHI","perfecture_jp":"福井県","jp_add_1":"福井市","jp_add_2":"上野本町"},"9100135":{"post_code":"9100135","prefecture":"FUKUI KEN","city":"FUKUI SHI","town":"UENOHOMMACHISHIN","perfecture_jp":"福井県","jp_add_1":"福井市","jp_add_2":"上野本町新"},"9100055":{"post_code":"9100055","prefecture":"FUKUI KEN","city":"FUKUI SHI","town":"UEBUSECHO","perfecture_jp":"福井県","jp_add_1":"福井市","jp_add_2":"上伏町"},"9102227":{"post_code":"9102227","prefecture":"FUKUI KEN","city":"FUKUI SHI","town":"USAKAOTANICHO","perfecture_jp":"福井県","jp_add_1":"福井市","jp_add_2":"宇坂大谷町"},"9102223":{"post_code":"9102223","prefecture":"FUKUI KEN","city":"FUKUI SHI","town":"USAKABESSHOCHO","perfecture_jp":"福井県","jp_add_1":"福井市","jp_add_2":"宇坂別所町"},"9102211":{"post_code":"9102211","prefecture":"FUKUI KEN","city":"FUKUI SHI","town":"USOGAGUCHICHO","perfecture_jp":"福井県","jp_add_1":"福井市","jp_add_2":"獺ケ口町"},"9103522":{"post_code":"9103522","prefecture":"FUKUI KEN","city":"FUKUI SHI","town":"UTAIDANICHO","perfecture_jp":"福井県","jp_add_1":"福井市","jp_add_2":"謡谷町"},"9103116":{"post_code":"9103116","prefecture":"FUKUI KEN","city":"FUKUI SHI","town":"UCHIYAMANASHICHO","perfecture_jp":"福井県","jp_add_1":"福井市","jp_add_2":"内山梨子町"},"9100131":{"post_code":"9100131","prefecture":"FUKUI KEN","city":"FUKUI SHI","town":"URUSHIHARACHO","perfecture_jp":"福井県","jp_add_1":"福井市","jp_add_2":"漆原町"},"9103113":{"post_code":"9103113","prefecture":"FUKUI KEN","city":"FUKUI SHI","town":"EGAMICHO","perfecture_jp":"福井県","jp_add_1":"福井市","jp_add_2":"江上町"},"9100047":{"post_code":"9100047","prefecture":"FUKUI KEN","city":"FUKUI SHI","town":"EBISUKECHO","perfecture_jp":"福井県","jp_add_1":"福井市","jp_add_2":"海老助町"},"9102175":{"post_code":"9102175","prefecture":"FUKUI KEN","city":"FUKUI SHI","town":"ENJOJICHO","perfecture_jp":"福井県","jp_add_1":"福井市","jp_add_2":"円成寺町"},"9103371":{"post_code":"9103371","prefecture":"FUKUI KEN","city":"FUKUI SHI","town":"OKUBOCHO","perfecture_jp":"福井県","jp_add_1":"福井市","jp_add_2":"大窪町"},"9102213":{"post_code":"9102213","prefecture":"FUKUI KEN","city":"FUKUI SHI","town":"OKUBOCHO","perfecture_jp":"福井県","jp_add_1":"福井市","jp_add_2":"大久保町"},"9103253":{"post_code":"9103253","prefecture":"FUKUI KEN","city":"FUKUI SHI","town":"OTANICHO","perfecture_jp":"福井県","jp_add_1":"福井市","jp_add_2":"大谷町"},"9100005":{"post_code":"9100005","prefecture":"FUKUI KEN","city":"FUKUI SHI","town":"OTE","perfecture_jp":"福井県","jp_add_1":"福井市","jp_add_2":"大手"},"9103255":{"post_code":"9103255","prefecture":"FUKUI KEN","city":"FUKUI SHI","town":"OTOSHICHO","perfecture_jp":"福井県","jp_add_1":"福井市","jp_add_2":"大年町"},"9103551":{"post_code":"9103551","prefecture":"FUKUI KEN","city":"FUKUI SHI","town":"OMICHO","perfecture_jp":"福井県","jp_add_1":"福井市","jp_add_2":"大味町"},"9100016":{"post_code":"9100016","prefecture":"FUKUI KEN","city":"FUKUI SHI","town":"OMIYA","perfecture_jp":"福井県","jp_add_1":"福井市","jp_add_2":"大宮"},"9102334":{"post_code":"9102334","prefecture":"FUKUI KEN","city":"FUKUI SHI","town":"OMIYACHO","perfecture_jp":"福井県","jp_add_1":"福井市","jp_add_2":"大宮町"},"9103634":{"post_code":"9103634","prefecture":"FUKUI KEN","city":"FUKUI SHI","town":"OMORICHO","perfecture_jp":"福井県","jp_add_1":"福井市","jp_add_2":"大森町"},"9103515":{"post_code":"9103515","prefecture":"FUKUI KEN","city":"FUKUI SHI","town":"OYACHO","perfecture_jp":"福井県","jp_add_1":"福井市","jp_add_2":"大矢町"},"9100836":{"post_code":"9100836","prefecture":"FUKUI KEN","city":"FUKUI SHI","town":"OWADA","perfecture_jp":"福井県","jp_add_1":"福井市","jp_add_2":"大和田"},"9100802":{"post_code":"9100802","prefecture":"FUKUI KEN","city":"FUKUI SHI","town":"OWADACHO","perfecture_jp":"福井県","jp_add_1":"福井市","jp_add_2":"大和田町"},"9103268":{"post_code":"9103268","prefecture":"FUKUI KEN","city":"FUKUI SHI","town":"NAKADAIRACHO","perfecture_jp":"福井県","jp_add_1":"福井市","jp_add_2":"奥平町"},"9102465":{"post_code":"9102465","prefecture":"FUKUI KEN","city":"FUKUI SHI","town":"OTOMICHO","perfecture_jp":"福井県","jp_add_1":"福井市","jp_add_2":"小当見町"},"9103404":{"post_code":"9103404","prefecture":"FUKUI KEN","city":"FUKUI SHI","town":"ONYUCHO","perfecture_jp":"福井県","jp_add_1":"福井市","jp_add_2":"大丹生町"},"9103621":{"post_code":"9103621","prefecture":"FUKUI KEN","city":"FUKUI SHI","town":"OBACHO","perfecture_jp":"福井県","jp_add_1":"福井市","jp_add_2":"小羽町"},"9102474":{"post_code":"9102474","prefecture":"FUKUI KEN","city":"FUKUI SHI","town":"ORITATECHO","perfecture_jp":"福井県","jp_add_1":"福井市","jp_add_2":"折立町"},"9100842":{"post_code":"9100842","prefecture":"FUKUI KEN","city":"FUKUI SHI","town":"KAIHOTSU","perfecture_jp":"福井県","jp_add_1":"福井市","jp_add_2":"開発"},"9100841":{"post_code":"9100841","prefecture":"FUKUI KEN","city":"FUKUI SHI","town":"KAIHOTSUCHO","perfecture_jp":"福井県","jp_add_1":"福井市","jp_add_2":"開発町"},"9103265":{"post_code":"9103265","prefecture":"FUKUI KEN","city":"FUKUI SHI","town":"KAKIDANICHO","perfecture_jp":"福井県","jp_add_1":"福井市","jp_add_2":"柿谷町"},"9100028":{"post_code":"9100028","prefecture":"FUKUI KEN","city":"FUKUI SHI","town":"GAKUEN","perfecture_jp":"福井県","jp_add_1":"福井市","jp_add_2":"学園"},"9100022":{"post_code":"9100022","prefecture":"FUKUI KEN","city":"FUKUI SHI","town":"KAGETSU","perfecture_jp":"福井県","jp_add_1":"福井市","jp_add_2":"花月"},"9102205":{"post_code":"9102205","prefecture":"FUKUI KEN","city":"FUKUI SHI","town":"KAGOYACHO","perfecture_jp":"福井県","jp_add_1":"福井市","jp_add_2":"篭谷町"},"9103516":{"post_code":"9103516","prefecture":"FUKUI KEN","city":"FUKUI SHI","town":"KAZAOCHO","perfecture_jp":"福井県","jp_add_1":"福井市","jp_add_2":"風尾町"},"9103622":{"post_code":"9103622","prefecture":"FUKUI KEN","city":"FUKUI SHI","town":"KAZAMAKICHO","perfecture_jp":"福井県","jp_add_1":"福井市","jp_add_2":"風巻町"},"9103603":{"post_code":"9103603","prefecture":"FUKUI KEN","city":"FUKUI SHI","town":"KATAKASUCHO","perfecture_jp":"福井県","jp_add_1":"福井市","jp_add_2":"片粕町"},"9103611":{"post_code":"9103611","prefecture":"FUKUI KEN","city":"FUKUI SHI","town":"KATAYAMACHO","perfecture_jp":"福井県","jp_add_1":"福井市","jp_add_2":"片山町"},"9100856":{"post_code":"9100856","prefecture":"FUKUI KEN","city":"FUKUI SHI","town":"KATSUMI","perfecture_jp":"福井県","jp_add_1":"福井市","jp_add_2":"勝見"},"9102156":{"post_code":"9102156","prefecture":"FUKUI KEN","city":"FUKUI SHI","town":"KANAMATACHO","perfecture_jp":"福井県","jp_add_1":"福井市","jp_add_2":"鹿俣町"},"9103633":{"post_code":"9103633","prefecture":"FUKUI KEN","city":"FUKUI SHI","town":"KAMITEGACHO","perfecture_jp":"福井県","jp_add_1":"福井市","jp_add_2":"上天下町"},"9102174":{"post_code":"9102174","prefecture":"FUKUI KEN","city":"FUKUI SHI","town":"KAMITOGOCHO","perfecture_jp":"福井県","jp_add_1":"福井市","jp_add_2":"上東郷町"},"9100826":{"post_code":"9100826","prefecture":"FUKUI KEN","city":"FUKUI SHI","town":"KAMINAKACHO","perfecture_jp":"福井県","jp_add_1":"福井市","jp_add_2":"上中町"},"9102144":{"post_code":"9102144","prefecture":"FUKUI KEN","city":"FUKUI SHI","town":"KAMIBISHAMONCHO","perfecture_jp":"福井県","jp_add_1":"福井市","jp_add_2":"上毘沙門町"},"9100142":{"post_code":"9100142","prefecture":"FUKUI KEN","city":"FUKUI SHI","town":"KAMIMORIDA","perfecture_jp":"福井県","jp_add_1":"福井市","jp_add_2":"上森田"},"9100141":{"post_code":"9100141","prefecture":"FUKUI KEN","city":"FUKUI SHI","town":"KAMIMORIDACHO","perfecture_jp":"福井県","jp_add_1":"福井市","jp_add_2":"上森田町"},"9103644":{"post_code":"9103644","prefecture":"FUKUI KEN","city":"FUKUI SHI","town":"KAMOCHO","perfecture_jp":"福井県","jp_add_1":"福井市","jp_add_2":"加茂内町"},"9103553":{"post_code":"9103553","prefecture":"FUKUI KEN","city":"FUKUI SHI","town":"GAMOCHO","perfecture_jp":"福井県","jp_add_1":"福井市","jp_add_2":"蒲生町"},"9100105":{"post_code":"9100105","prefecture":"FUKUI KEN","city":"FUKUI SHI","town":"KAWAI KATSUMICHO","perfecture_jp":"福井県","jp_add_1":"福井市","jp_add_2":"河合勝見町"},"9100132":{"post_code":"9100132","prefecture":"FUKUI KEN","city":"FUKUI SHI","town":"KAWAI YORIYASUCHO","perfecture_jp":"福井県","jp_add_1":"福井市","jp_add_2":"河合寄安町"},"9100102":{"post_code":"9100102","prefecture":"FUKUI KEN","city":"FUKUI SHI","town":"KAWAI WASHIZUKACHO","perfecture_jp":"福井県","jp_add_1":"福井市","jp_add_2":"川合鷲塚町"},"9103136":{"post_code":"9103136","prefecture":"FUKUI KEN","city":"FUKUI SHI","town":"KAWASHIRICHO","perfecture_jp":"福井県","jp_add_1":"福井市","jp_add_2":"川尻町"},"9102462":{"post_code":"9102462","prefecture":"FUKUI KEN","city":"FUKUI SHI","town":"KANTOBECHO","perfecture_jp":"福井県","jp_add_1":"福井市","jp_add_2":"神当部町"},"9100042":{"post_code":"9100042","prefecture":"FUKUI KEN","city":"FUKUI SHI","town":"KISHIMIZUCHO","perfecture_jp":"福井県","jp_add_1":"福井市","jp_add_2":"岸水町"},"9103385":{"post_code":"9103385","prefecture":"FUKUI KEN","city":"FUKUI SHI","town":"KITASUGOCHO","perfecture_jp":"福井県","jp_add_1":"福井市","jp_add_2":"北菅生町"},"9100045":{"post_code":"9100045","prefecture":"FUKUI KEN","city":"FUKUI SHI","town":"KITANARAHARACHO","perfecture_jp":"福井県","jp_add_1":"福井市","jp_add_2":"北楢原町"},"9100815":{"post_code":"9100815","prefecture":"FUKUI KEN","city":"FUKUI SHI","town":"KITANOKAMICHO","perfecture_jp":"福井県","jp_add_1":"福井市","jp_add_2":"北野上町"},"9100814":{"post_code":"9100814","prefecture":"FUKUI KEN","city":"FUKUI SHI","town":"KITANOSHIMOCHO","perfecture_jp":"福井県","jp_add_1":"福井市","jp_add_2":"北野下町"},"9102153":{"post_code":"9102153","prefecture":"FUKUI KEN","city":"FUKUI SHI","town":"KIDONOCHICHO","perfecture_jp":"福井県","jp_add_1":"福井市","jp_add_2":"城戸ノ内町"},"9103147":{"post_code":"9103147","prefecture":"FUKUI KEN","city":"FUKUI SHI","town":"KINOSHITACHO","perfecture_jp":"福井県","jp_add_1":"福井市","jp_add_2":"木下町"},"9100012":{"post_code":"9100012","prefecture":"FUKUI KEN","city":"FUKUI SHI","town":"KYOEI","perfecture_jp":"福井県","jp_add_1":"福井市","jp_add_2":"経栄"},"9100011":{"post_code":"9100011","prefecture":"FUKUI KEN","city":"FUKUI SHI","town":"KYODEN","perfecture_jp":"福井県","jp_add_1":"福井市","jp_add_2":"経田"},"9103264":{"post_code":"9103264","prefecture":"FUKUI KEN","city":"FUKUI SHI","town":"KIYONECHO","perfecture_jp":"福井県","jp_add_1":"福井市","jp_add_2":"木米町"},"9103145":{"post_code":"9103145","prefecture":"FUKUI KEN","city":"FUKUI SHI","town":"KUSHINOCHO","perfecture_jp":"福井県","jp_add_1":"福井市","jp_add_2":"串野町"},"9103401":{"post_code":"9103401","prefecture":"FUKUI KEN","city":"FUKUI SHI","town":"KUNIMICHO","perfecture_jp":"福井県","jp_add_1":"福井市","jp_add_2":"国見町"},"9103518":{"post_code":"9103518","prefecture":"FUKUI KEN","city":"FUKUI SHI","town":"KUNIYAMACHO","perfecture_jp":"福井県","jp_add_1":"福井市","jp_add_2":"国山町"},"9103552":{"post_code":"9103552","prefecture":"FUKUI KEN","city":"FUKUI SHI","town":"GUMIZAKICHO","perfecture_jp":"福井県","jp_add_1":"福井市","jp_add_2":"茱崎町"},"9102356":{"post_code":"9102356","prefecture":"FUKUI KEN","city":"FUKUI SHI","town":"KURATSUKURICHO","perfecture_jp":"福井県","jp_add_1":"福井市","jp_add_2":"蔵作町"},"9103604":{"post_code":"9103604","prefecture":"FUKUI KEN","city":"FUKUI SHI","town":"GURINHAITSU","perfecture_jp":"福井県","jp_add_1":"福井市","jp_add_2":"グリーンハイツ"},"9100137":{"post_code":"9100137","prefecture":"FUKUI KEN","city":"FUKUI SHI","town":"KURIMORICHO","perfecture_jp":"福井県","jp_add_1":"福井市","jp_add_2":"栗森町"},"9100136":{"post_code":"9100136","prefecture":"FUKUI KEN","city":"FUKUI SHI","town":"KURIMORICHOHAMA","perfecture_jp":"福井県","jp_add_1":"福井市","jp_add_2":"栗森町浜"},"9103107":{"post_code":"9103107","prefecture":"FUKUI KEN","city":"FUKUI SHI","town":"KUROMARUJOCHO","perfecture_jp":"福井県","jp_add_1":"福井市","jp_add_2":"黒丸城町"},"9100052":{"post_code":"9100052","prefecture":"FUKUI KEN","city":"FUKUI SHI","town":"KUROMARUCHO","perfecture_jp":"福井県","jp_add_1":"福井市","jp_add_2":"黒丸町"},"9100822":{"post_code":"9100822","prefecture":"FUKUI KEN","city":"FUKUI SHI","town":"GENSHOJIMACHO","perfecture_jp":"福井県","jp_add_1":"福井市","jp_add_2":"玄正島町"},"9100021":{"post_code":"9100021","prefecture":"FUKUI KEN","city":"FUKUI SHI","town":"KENTOKU","perfecture_jp":"福井県","jp_add_1":"福井市","jp_add_2":"乾徳"},"9102353":{"post_code":"9102353","prefecture":"FUKUI KEN","city":"FUKUI SHI","town":"KOSAKAJIMACHO","perfecture_jp":"福井県","jp_add_1":"福井市","jp_add_2":"小宇坂島町"},"9102352":{"post_code":"9102352","prefecture":"FUKUI KEN","city":"FUKUI SHI","town":"KOSAKACHO","perfecture_jp":"福井県","jp_add_1":"福井市","jp_add_2":"小宇坂町"},"9103267":{"post_code":"9103267","prefecture":"FUKUI KEN","city":"FUKUI SHI","town":"KOCHICHO","perfecture_jp":"福井県","jp_add_1":"福井市","jp_add_2":"河内町"},"9100026":{"post_code":"9100026","prefecture":"FUKUI KEN","city":"FUKUI SHI","town":"KOYO","perfecture_jp":"福井県","jp_add_1":"福井市","jp_add_2":"光陽"},"9100051":{"post_code":"9100051","prefecture":"FUKUI KEN","city":"FUKUI SHI","town":"KORICHO","perfecture_jp":"福井県","jp_add_1":"福井市","jp_add_2":"郡町"},"9103613":{"post_code":"9103613","prefecture":"FUKUI KEN","city":"FUKUI SHI","town":"KOSHIKIDANICHO","perfecture_jp":"福井県","jp_add_1":"福井市","jp_add_2":"甑谷町"},"9103102":{"post_code":"9103102","prefecture":"FUKUI KEN","city":"FUKUI SHI","town":"KOJOCHO","perfecture_jp":"福井県","jp_add_1":"福井市","jp_add_2":"小尉町"},"9103112":{"post_code":"9103112","prefecture":"FUKUI KEN","city":"FUKUI SHI","town":"GOSHOGAICHICHO","perfecture_jp":"福井県","jp_add_1":"福井市","jp_add_2":"御所垣内町"},"9103405":{"post_code":"9103405","prefecture":"FUKUI KEN","city":"FUKUI SHI","town":"KONYUCHO","perfecture_jp":"福井県","jp_add_1":"福井市","jp_add_2":"小丹生町"},"9103122":{"post_code":"9103122","prefecture":"FUKUI KEN","city":"FUKUI SHI","town":"KONOCHO","perfecture_jp":"福井県","jp_add_1":"福井市","jp_add_2":"小野町"},"9103617":{"post_code":"9103617","prefecture":"FUKUI KEN","city":"FUKUI SHI","town":"GOYUCHO","perfecture_jp":"福井県","jp_add_1":"福井市","jp_add_2":"御油町"},"9102212":{"post_code":"9102212","prefecture":"FUKUI KEN","city":"FUKUI SHI","town":"KOWASHOZUCHO","perfecture_jp":"福井県","jp_add_1":"福井市","jp_add_2":"小和清水町"},"9103146":{"post_code":"9103146","prefecture":"FUKUI KEN","city":"FUKUI SHI","town":"KOWATACHO","perfecture_jp":"福井県","jp_add_1":"福井市","jp_add_2":"小幡町"},"9102347":{"post_code":"9102347","prefecture":"FUKUI KEN","city":"FUKUI SHI","town":"SAKAIDERACHO","perfecture_jp":"福井県","jp_add_1":"福井市","jp_add_2":"境寺町"},"9100151":{"post_code":"9100151","prefecture":"FUKUI KEN","city":"FUKUI SHI","town":"SAKAECHO","perfecture_jp":"福井県","jp_add_1":"福井市","jp_add_2":"栄町"},"9103645":{"post_code":"9103645","prefecture":"FUKUI KEN","city":"FUKUI SHI","town":"SASADANICHO","perfecture_jp":"福井県","jp_add_1":"福井市","jp_add_2":"笹谷町"},"9100121":{"post_code":"9100121","prefecture":"FUKUI KEN","city":"FUKUI SHI","town":"SADAMASACHO","perfecture_jp":"福井県","jp_add_1":"福井市","jp_add_2":"定正町"},"9100056":{"post_code":"9100056","prefecture":"FUKUI KEN","city":"FUKUI SHI","town":"SATOBESSHOSHIMMACHI","perfecture_jp":"福井県","jp_add_1":"福井市","jp_add_2":"里別所新町"},"9100057":{"post_code":"9100057","prefecture":"FUKUI KEN","city":"FUKUI SHI","town":"SATOBESSHOCHO","perfecture_jp":"福井県","jp_add_1":"福井市","jp_add_2":"里別所町"},"9103121":{"post_code":"9103121","prefecture":"FUKUI KEN","city":"FUKUI SHI","town":"SANOCHO","perfecture_jp":"福井県","jp_add_1":"福井市","jp_add_2":"佐野町"},"9100033":{"post_code":"9100033","prefecture":"FUKUI KEN","city":"FUKUI SHI","town":"SABUROMARU","perfecture_jp":"福井県","jp_add_1":"福井市","jp_add_2":"三郎丸"},"9100036":{"post_code":"9100036","prefecture":"FUKUI KEN","city":"FUKUI SHI","town":"SABUROMARUCHO","perfecture_jp":"福井県","jp_add_1":"福井市","jp_add_2":"三郎丸町"},"9102201":{"post_code":"9102201","prefecture":"FUKUI KEN","city":"FUKUI SHI","town":"SARADANICHO","perfecture_jp":"福井県","jp_add_1":"福井市","jp_add_2":"皿谷町"},"9102224":{"post_code":"9102224","prefecture":"FUKUI KEN","city":"FUKUI SHI","town":"SAMMANDANICHO","perfecture_jp":"福井県","jp_add_1":"福井市","jp_add_2":"三万谷町"},"9102143":{"post_code":"9102143","prefecture":"FUKUI KEN","city":"FUKUI SHI","town":"SHIKUNUNOCHO","perfecture_jp":"福井県","jp_add_1":"福井市","jp_add_2":"宿布町"},"9100823":{"post_code":"9100823","prefecture":"FUKUI KEN","city":"FUKUI SHI","town":"SHIGETATECHO","perfecture_jp":"福井県","jp_add_1":"福井市","jp_add_2":"重立町"},"9100043":{"post_code":"9100043","prefecture":"FUKUI KEN","city":"FUKUI SHI","town":"SHIJUTANICHO","perfecture_jp":"福井県","jp_add_1":"福井市","jp_add_2":"四十谷町"},"9100048":{"post_code":"9100048","prefecture":"FUKUI KEN","city":"FUKUI SHI","town":"JIZODOCHO","perfecture_jp":"福井県","jp_add_1":"福井市","jp_add_2":"地蔵堂町"},"9103635":{"post_code":"9103635","prefecture":"FUKUI KEN","city":"FUKUI SHI","town":"SHIZUGAOKA","perfecture_jp":"福井県","jp_add_1":"福井市","jp_add_2":"志津が丘"},"9102348":{"post_code":"9102348","prefecture":"FUKUI KEN","city":"FUKUI SHI","town":"SHINAGASECHO","perfecture_jp":"福井県","jp_add_1":"福井市","jp_add_2":"品ケ瀬町"},"9102148":{"post_code":"9102148","prefecture":"FUKUI KEN","city":"FUKUI SHI","town":"SHINOCHO","perfecture_jp":"福井県","jp_add_1":"福井市","jp_add_2":"篠尾町"},"9100845":{"post_code":"9100845","prefecture":"FUKUI KEN","city":"FUKUI SHI","town":"SHIHIGUCHI","perfecture_jp":"福井県","jp_add_1":"福井市","jp_add_2":"志比口"},"9103623":{"post_code":"9103623","prefecture":"FUKUI KEN","city":"FUKUI SHI","town":"SHIMADERACHO","perfecture_jp":"福井県","jp_add_1":"福井市","jp_add_2":"島寺町"},"9100821":{"post_code":"9100821","prefecture":"FUKUI KEN","city":"FUKUI SHI","town":"SHIMABASHICHO","perfecture_jp":"福井県","jp_add_1":"福井市","jp_add_2":"島橋町"},"9103111":{"post_code":"9103111","prefecture":"FUKUI KEN","city":"FUKUI SHI","town":"SHIMAYAMANASHICHO","perfecture_jp":"福井県","jp_add_1":"福井市","jp_add_2":"島山梨子町"},"9103607":{"post_code":"9103607","prefecture":"FUKUI KEN","city":"FUKUI SHI","town":"SHIMIZUSUGITANICHO","perfecture_jp":"福井県","jp_add_1":"福井市","jp_add_2":"清水杉谷町"},"9103601":{"post_code":"9103601","prefecture":"FUKUI KEN","city":"FUKUI SHI","town":"SHIMIZUCHO","perfecture_jp":"福井県","jp_add_1":"福井市","jp_add_2":"清水町"},"9103646":{"post_code":"9103646","prefecture":"FUKUI KEN","city":"FUKUI SHI","town":"SHIMIZUBATACHO","perfecture_jp":"福井県","jp_add_1":"福井市","jp_add_2":"清水畑町"},"9103612":{"post_code":"9103612","prefecture":"FUKUI KEN","city":"FUKUI SHI","town":"SHIMIZUYAMACHO","perfecture_jp":"福井県","jp_add_1":"福井市","jp_add_2":"清水山町"},"9103632":{"post_code":"9103632","prefecture":"FUKUI KEN","city":"FUKUI SHI","town":"SHIMOTEGACHO","perfecture_jp":"福井県","jp_add_1":"福井市","jp_add_2":"下天下町"},"9102173":{"post_code":"9102173","prefecture":"FUKUI KEN","city":"FUKUI SHI","town":"SHIMOTOGOCHO","perfecture_jp":"福井県","jp_add_1":"福井市","jp_add_2":"下東郷町"},"9102146":{"post_code":"9102146","prefecture":"FUKUI KEN","city":"FUKUI SHI","town":"SHIMOBISHAMONCHO","perfecture_jp":"福井県","jp_add_1":"福井市","jp_add_2":"下毘沙門町"},"9100146":{"post_code":"9100146","prefecture":"FUKUI KEN","city":"FUKUI SHI","town":"SHIMOMORIDA SAKURAMACHI","perfecture_jp":"福井県","jp_add_1":"福井市","jp_add_2":"下森田桜町"},"9100143":{"post_code":"9100143","prefecture":"FUKUI KEN","city":"FUKUI SHI","town":"SHIMOMORIDA SHIMMACHI","perfecture_jp":"福井県","jp_add_1":"福井市","jp_add_2":"下森田新町"},"9100145":{"post_code":"9100145","prefecture":"FUKUI KEN","city":"FUKUI SHI","town":"SHIMOMORIDA FUJIMAKICHO","perfecture_jp":"福井県","jp_add_1":"福井市","jp_add_2":"下森田藤巻町"},"9100144":{"post_code":"9100144","prefecture":"FUKUI KEN","city":"FUKUI SHI","town":"SHIMOMORIDA HOMMACHI","perfecture_jp":"福井県","jp_add_1":"福井市","jp_add_2":"下森田本町"},"9100147":{"post_code":"9100147","prefecture":"FUKUI KEN","city":"FUKUI SHI","town":"SHIMOMORIDACHO","perfecture_jp":"福井県","jp_add_1":"福井市","jp_add_2":"下森田町"},"9103513":{"post_code":"9103513","prefecture":"FUKUI KEN","city":"FUKUI SHI","town":"SHUKUDOCHO","perfecture_jp":"福井県","jp_add_1":"福井市","jp_add_2":"宿堂町"},"9100023":{"post_code":"9100023","prefecture":"FUKUI KEN","city":"FUKUI SHI","town":"JUNKA","perfecture_jp":"福井県","jp_add_1":"福井市","jp_add_2":"順化"},"9102147":{"post_code":"9102147","prefecture":"FUKUI KEN","city":"FUKUI SHI","town":"JOGANJICHO","perfecture_jp":"福井県","jp_add_1":"福井市","jp_add_2":"成願寺町"},"9102155":{"post_code":"9102155","prefecture":"FUKUI KEN","city":"FUKUI SHI","town":"JOKYOJICHO","perfecture_jp":"福井県","jp_add_1":"福井市","jp_add_2":"浄教寺町"},"9102166":{"post_code":"9102166","prefecture":"FUKUI KEN","city":"FUKUI SHI","town":"SHOJICHO","perfecture_jp":"福井県","jp_add_1":"福井市","jp_add_2":"小路町"},"9100853":{"post_code":"9100853","prefecture":"FUKUI KEN","city":"FUKUI SHI","town":"JOTO","perfecture_jp":"福井県","jp_add_1":"福井市","jp_add_2":"城東"},"9103117":{"post_code":"9103117","prefecture":"FUKUI KEN","city":"FUKUI SHI","town":"JODOJICHO","perfecture_jp":"福井県","jp_add_1":"福井市","jp_add_2":"浄土寺町"},"9103148":{"post_code":"9103148","prefecture":"FUKUI KEN","city":"FUKUI SHI","town":"SHOBUDANICHO","perfecture_jp":"福井県","jp_add_1":"福井市","jp_add_2":"菖蒲谷町"},"9103101":{"post_code":"9103101","prefecture":"FUKUI KEN","city":"FUKUI SHI","town":"SHOWASHIMMACHI","perfecture_jp":"福井県","jp_add_1":"福井市","jp_add_2":"昭和新町"},"9103131":{"post_code":"9103131","prefecture":"FUKUI KEN","city":"FUKUI SHI","town":"SHIRAKATACHO","perfecture_jp":"福井県","jp_add_1":"福井市","jp_add_2":"白方町"},"9103511":{"post_code":"9103511","prefecture":"FUKUI KEN","city":"FUKUI SHI","town":"SHIRATAKICHO","perfecture_jp":"福井県","jp_add_1":"福井市","jp_add_2":"白滝町"},"9103403":{"post_code":"9103403","prefecture":"FUKUI KEN","city":"FUKUI SHI","town":"SHIRAHAMACHO","perfecture_jp":"福井県","jp_add_1":"福井市","jp_add_2":"白浜町"},"9103557":{"post_code":"9103557","prefecture":"FUKUI KEN","city":"FUKUI SHI","town":"SHIROARICHO","perfecture_jp":"福井県","jp_add_1":"福井市","jp_add_2":"城有町"},"9100812":{"post_code":"9100812","prefecture":"FUKUI KEN","city":"FUKUI SHI","town":"SHINDENHOMMACHI","perfecture_jp":"福井県","jp_add_1":"福井市","jp_add_2":"新田本町"},"9100833":{"post_code":"9100833","prefecture":"FUKUI KEN","city":"FUKUI SHI","town":"SHIMBO","perfecture_jp":"福井県","jp_add_1":"福井市","jp_add_2":"新保"},"9100838":{"post_code":"9100838","prefecture":"FUKUI KEN","city":"FUKUI SHI","town":"SHIMBOKITA","perfecture_jp":"福井県","jp_add_1":"福井市","jp_add_2":"新保北"},"9100832":{"post_code":"9100832","prefecture":"FUKUI KEN","city":"FUKUI SHI","town":"SHIMBOCHO","perfecture_jp":"福井県","jp_add_1":"福井市","jp_add_2":"新保町"},"9102346":{"post_code":"9102346","prefecture":"FUKUI KEN","city":"FUKUI SHI","town":"SUIDANICHO","perfecture_jp":"福井県","jp_add_1":"福井市","jp_add_2":"椙谷町"},"9100034":{"post_code":"9100034","prefecture":"FUKUI KEN","city":"FUKUI SHI","town":"SUGAYA","perfecture_jp":"福井県","jp_add_1":"福井市","jp_add_2":"菅谷"},"9100035":{"post_code":"9100035","prefecture":"FUKUI KEN","city":"FUKUI SHI","town":"SUGAYACHO","perfecture_jp":"福井県","jp_add_1":"福井市","jp_add_2":"菅谷町"},"9103143":{"post_code":"9103143","prefecture":"FUKUI KEN","city":"FUKUI SHI","town":"SUNAGOSAKACHO","perfecture_jp":"福井県","jp_add_1":"福井市","jp_add_2":"砂子坂町"},"9103141":{"post_code":"9103141","prefecture":"FUKUI KEN","city":"FUKUI SHI","town":"SUNAGODACHO","perfecture_jp":"福井県","jp_add_1":"福井市","jp_add_2":"砂子田町"},"9103115":{"post_code":"9103115","prefecture":"FUKUI KEN","city":"FUKUI SHI","town":"SENCHO","perfecture_jp":"福井県","jp_add_1":"福井市","jp_add_2":"仙町"},"9100001":{"post_code":"9100001","prefecture":"FUKUI KEN","city":"FUKUI SHI","town":"DAIGANJI","perfecture_jp":"福井県","jp_add_1":"福井市","jp_add_2":"大願寺"},"9102141":{"post_code":"9102141","prefecture":"FUKUI KEN","city":"FUKUI SHI","town":"TAKAOCHO","perfecture_jp":"福井県","jp_add_1":"福井市","jp_add_2":"高尾町"},"9100805":{"post_code":"9100805","prefecture":"FUKUI KEN","city":"FUKUI SHI","town":"TAKAGI","perfecture_jp":"福井県","jp_add_1":"福井市","jp_add_2":"高木"},"9100804":{"post_code":"9100804","prefecture":"FUKUI KEN","city":"FUKUI SHI","town":"TAKAGICHUO","perfecture_jp":"福井県","jp_add_1":"福井市","jp_add_2":"高木中央"},"9100806":{"post_code":"9100806","prefecture":"FUKUI KEN","city":"FUKUI SHI","town":"TAKAGICHO","perfecture_jp":"福井県","jp_add_1":"福井市","jp_add_2":"高木町"},"9100807":{"post_code":"9100807","prefecture":"FUKUI KEN","city":"FUKUI SHI","town":"TAKAGIKITA","perfecture_jp":"福井県","jp_add_1":"福井市","jp_add_2":"高木北"},"9100070":{"post_code":"9100070","prefecture":"FUKUI KEN","city":"FUKUI SHI","town":"TAKAGINISHI","perfecture_jp":"福井県","jp_add_1":"福井市","jp_add_2":"高木西"},"9103374":{"post_code":"9103374","prefecture":"FUKUI KEN","city":"FUKUI SHI","town":"TAKASUCHO","perfecture_jp":"福井県","jp_add_1":"福井市","jp_add_2":"高須町"},"9102226":{"post_code":"9102226","prefecture":"FUKUI KEN","city":"FUKUI SHI","town":"TAKATACHO","perfecture_jp":"福井県","jp_add_1":"福井市","jp_add_2":"高田町"},"9100107":{"post_code":"9100107","prefecture":"FUKUI KEN","city":"FUKUI SHI","town":"TAKAYACHO","perfecture_jp":"福井県","jp_add_1":"福井市","jp_add_2":"高屋町"},"9100837":{"post_code":"9100837","prefecture":"FUKUI KEN","city":"FUKUI SHI","town":"TAKAYANAGI","perfecture_jp":"福井県","jp_add_1":"福井市","jp_add_2":"高柳"},"9100803":{"post_code":"9100803","prefecture":"FUKUI KEN","city":"FUKUI SHI","town":"TAKAYANAGICHO","perfecture_jp":"福井県","jp_add_1":"福井市","jp_add_2":"高柳町"},"9103643":{"post_code":"9103643","prefecture":"FUKUI KEN","city":"FUKUI SHI","town":"TAKINAMICHO","perfecture_jp":"福井県","jp_add_1":"福井市","jp_add_2":"滝波町"},"9103602":{"post_code":"9103602","prefecture":"FUKUI KEN","city":"FUKUI SHI","town":"TAKOCHO","perfecture_jp":"福井県","jp_add_1":"福井市","jp_add_2":"竹生町"},"9102225":{"post_code":"9102225","prefecture":"FUKUI KEN","city":"FUKUI SHI","town":"TAJIRICHO","perfecture_jp":"福井県","jp_add_1":"福井市","jp_add_2":"田尻町"},"9103606":{"post_code":"9103606","prefecture":"FUKUI KEN","city":"FUKUI SHI","town":"TAJIRITOCHITANICHO","perfecture_jp":"福井県","jp_add_1":"福井市","jp_add_2":"田尻栃谷町"},"9103124":{"post_code":"9103124","prefecture":"FUKUI KEN","city":"FUKUI SHI","town":"TANOKASHIRACHO","perfecture_jp":"福井県","jp_add_1":"福井市","jp_add_2":"田ノ頭町"},"9100044":{"post_code":"9100044","prefecture":"FUKUI KEN","city":"FUKUI SHI","town":"TANOTANICHO","perfecture_jp":"福井県","jp_add_1":"福井市","jp_add_2":"田ノ谷町"},"9103128":{"post_code":"9103128","prefecture":"FUKUI KEN","city":"FUKUI SHI","town":"TAMEYORICHO","perfecture_jp":"福井県","jp_add_1":"福井市","jp_add_2":"為寄町"},"9100018":{"post_code":"9100018","prefecture":"FUKUI KEN","city":"FUKUI SHI","town":"TAWARA","perfecture_jp":"福井県","jp_add_1":"福井市","jp_add_2":"田原"},"9103521":{"post_code":"9103521","prefecture":"FUKUI KEN","city":"FUKUI SHI","town":"CHIGOCHO","perfecture_jp":"福井県","jp_add_1":"福井市","jp_add_2":"千合町"},"9100006":{"post_code":"9100006","prefecture":"FUKUI KEN","city":"FUKUI SHI","town":"CHUO","perfecture_jp":"福井県","jp_add_1":"福井市","jp_add_2":"中央"},"9100101":{"post_code":"9100101","prefecture":"FUKUI KEN","city":"FUKUI SHI","town":"TSUKUSHINO","perfecture_jp":"福井県","jp_add_1":"福井市","jp_add_2":"つくし野"},"9100053":{"post_code":"9100053","prefecture":"FUKUI KEN","city":"FUKUI SHI","town":"TSUCHIHASHICHO","perfecture_jp":"福井県","jp_add_1":"福井市","jp_add_2":"土橋町"},"9103615":{"post_code":"9103615","prefecture":"FUKUI KEN","city":"FUKUI SHI","town":"TSUBOTANICHO","perfecture_jp":"福井県","jp_add_1":"福井市","jp_add_2":"坪谷町"},"9103114":{"post_code":"9103114","prefecture":"FUKUI KEN","city":"FUKUI SHI","town":"TSURUGIOTANICHO","perfecture_jp":"福井県","jp_add_1":"福井市","jp_add_2":"剣大谷町"},"9103138":{"post_code":"9103138","prefecture":"FUKUI KEN","city":"FUKUI SHI","town":"TEKUNOPOTO","perfecture_jp":"福井県","jp_add_1":"福井市","jp_add_2":"テクノポート"},"9100858":{"post_code":"9100858","prefecture":"FUKUI KEN","city":"FUKUI SHI","town":"TEYOSE","perfecture_jp":"福井県","jp_add_1":"福井市","jp_add_2":"手寄"},"9100801":{"post_code":"9100801","prefecture":"FUKUI KEN","city":"FUKUI SHI","town":"TERAMAECHO","perfecture_jp":"福井県","jp_add_1":"福井市","jp_add_2":"寺前町"},"9100024":{"post_code":"9100024","prefecture":"FUKUI KEN","city":"FUKUI SHI","town":"TERUTE","perfecture_jp":"福井県","jp_add_1":"福井市","jp_add_2":"照手"},"9100025":{"post_code":"9100025","prefecture":"FUKUI KEN","city":"FUKUI SHI","town":"TERUTECHO","perfecture_jp":"福井県","jp_add_1":"福井市","jp_add_2":"照手町"},"9102176":{"post_code":"9102176","prefecture":"FUKUI KEN","city":"FUKUI SHI","town":"TOGO NAKAJIMACHO","perfecture_jp":"福井県","jp_add_1":"福井市","jp_add_2":"東郷中島町"},"9102165":{"post_code":"9102165","prefecture":"FUKUI KEN","city":"FUKUI SHI","town":"TOGO NIKACHO","perfecture_jp":"福井県","jp_add_1":"福井市","jp_add_2":"東郷二ケ町"},"9100818":{"post_code":"9100818","prefecture":"FUKUI KEN","city":"FUKUI SHI","town":"DOJIMACHO","perfecture_jp":"福井県","jp_add_1":"福井市","jp_add_2":"堂島町"},"9103252":{"post_code":"9103252","prefecture":"FUKUI KEN","city":"FUKUI SHI","town":"TOBUCHO","perfecture_jp":"福井県","jp_add_1":"福井市","jp_add_2":"燈豊町"},"9100063":{"post_code":"9100063","prefecture":"FUKUI KEN","city":"FUKUI SHI","town":"TOMYOJI","perfecture_jp":"福井県","jp_add_1":"福井市","jp_add_2":"灯明寺"},"9100062":{"post_code":"9100062","prefecture":"FUKUI KEN","city":"FUKUI SHI","town":"TOMYOJICHO","perfecture_jp":"福井県","jp_add_1":"福井市","jp_add_2":"灯明寺町"},"9102178":{"post_code":"9102178","prefecture":"FUKUI KEN","city":"FUKUI SHI","town":"TOGANOCHO","perfecture_jp":"福井県","jp_add_1":"福井市","jp_add_2":"栂野町"},"9102202":{"post_code":"9102202","prefecture":"FUKUI KEN","city":"FUKUI SHI","town":"TOKORODANICHO","perfecture_jp":"福井県","jp_add_1":"福井市","jp_add_2":"所谷町"},"9102163":{"post_code":"9102163","prefecture":"FUKUI KEN","city":"FUKUI SHI","town":"TOCHIIZUMICHO","perfecture_jp":"福井県","jp_add_1":"福井市","jp_add_2":"栃泉町"},"9100027":{"post_code":"9100027","prefecture":"FUKUI KEN","city":"FUKUI SHI","town":"TOYOKA","perfecture_jp":"福井県","jp_add_1":"福井市","jp_add_2":"豊岡"},"9100857":{"post_code":"9100857","prefecture":"FUKUI KEN","city":"FUKUI SHI","town":"TOYOSHIMA","perfecture_jp":"福井県","jp_add_1":"福井市","jp_add_2":"豊島"},"9103263":{"post_code":"9103263","prefecture":"FUKUI KEN","city":"FUKUI SHI","town":"NAKAKOCHICHO","perfecture_jp":"福井県","jp_add_1":"福井市","jp_add_2":"中河内町"},"9100813":{"post_code":"9100813","prefecture":"FUKUI KEN","city":"FUKUI SHI","town":"NAKASHINDENCHO","perfecture_jp":"福井県","jp_add_1":"福井市","jp_add_2":"中新田町"},"9100103":{"post_code":"9100103","prefecture":"FUKUI KEN","city":"FUKUI SHI","town":"NAKATSUNOCHO","perfecture_jp":"福井県","jp_add_1":"福井市","jp_add_2":"中角町"},"9100816":{"post_code":"9100816","prefecture":"FUKUI KEN","city":"FUKUI SHI","town":"NAKANOGOCHO","perfecture_jp":"福井県","jp_add_1":"福井市","jp_add_2":"中ノ郷町"},"9102145":{"post_code":"9102145","prefecture":"FUKUI KEN","city":"FUKUI SHI","town":"NAKABISHAMONCHO","perfecture_jp":"福井県","jp_add_1":"福井市","jp_add_2":"中毘沙門町"},"9100811":{"post_code":"9100811","prefecture":"FUKUI KEN","city":"FUKUI SHI","town":"NAKAFUJISHIMBOCHO","perfecture_jp":"福井県","jp_add_1":"福井市","jp_add_2":"中藤新保町"},"9103256":{"post_code":"9103256","prefecture":"FUKUI KEN","city":"FUKUI SHI","town":"NAKAMACHI","perfecture_jp":"福井県","jp_add_1":"福井市","jp_add_2":"中町"},"9103127":{"post_code":"9103127","prefecture":"FUKUI KEN","city":"FUKUI SHI","town":"NAKAYAMACHO","perfecture_jp":"福井県","jp_add_1":"福井市","jp_add_2":"中山町"},"9102464":{"post_code":"9102464","prefecture":"FUKUI KEN","city":"FUKUI SHI","town":"NAKANTECHO","perfecture_jp":"福井県","jp_add_1":"福井市","jp_add_2":"中手町"},"9103384":{"post_code":"9103384","prefecture":"FUKUI KEN","city":"FUKUI SHI","town":"NAGAHASHICHO","perfecture_jp":"福井県","jp_add_1":"福井市","jp_add_2":"長橋町"},"9100844":{"post_code":"9100844","prefecture":"FUKUI KEN","city":"FUKUI SHI","town":"NAGAMOTOCHO","perfecture_jp":"福井県","jp_add_1":"福井市","jp_add_2":"長本町"},"9103142":{"post_code":"9103142","prefecture":"FUKUI KEN","city":"FUKUI SHI","town":"NAMIYOSECHO","perfecture_jp":"福井県","jp_add_1":"福井市","jp_add_2":"波寄町"},"9102221":{"post_code":"9102221","prefecture":"FUKUI KEN","city":"FUKUI SHI","town":"NARASECHO","perfecture_jp":"福井県","jp_add_1":"福井市","jp_add_2":"奈良瀬町"},"9102336":{"post_code":"9102336","prefecture":"FUKUI KEN","city":"FUKUI SHI","town":"NIICHO","perfecture_jp":"福井県","jp_add_1":"福井市","jp_add_2":"仁位町"},"9102355":{"post_code":"9102355","prefecture":"FUKUI KEN","city":"FUKUI SHI","town":"NISHIAMADACHO","perfecture_jp":"福井県","jp_add_1":"福井市","jp_add_2":"西天田町"},"9103261":{"post_code":"9103261","prefecture":"FUKUI KEN","city":"FUKUI SHI","town":"NISHIARAICHO","perfecture_jp":"福井県","jp_add_1":"福井市","jp_add_2":"西荒井町"},"9102466":{"post_code":"9102466","prefecture":"FUKUI KEN","city":"FUKUI SHI","town":"NISHIICHINUNOCHO","perfecture_jp":"福井県","jp_add_1":"福井市","jp_add_2":"西市布町"},"9100843":{"post_code":"9100843","prefecture":"FUKUI KEN","city":"FUKUI SHI","town":"NISHIKAIHOTSU","perfecture_jp":"福井県","jp_add_1":"福井市","jp_add_2":"西開発"},"9100855":{"post_code":"9100855","prefecture":"FUKUI KEN","city":"FUKUI SHI","town":"NISHIKATA","perfecture_jp":"福井県","jp_add_1":"福井市","jp_add_2":"西方"},"9102471":{"post_code":"9102471","prefecture":"FUKUI KEN","city":"FUKUI SHI","town":"NISHIKOBARACHO","perfecture_jp":"福井県","jp_add_1":"福井市","jp_add_2":"西河原町"},"9102157":{"post_code":"9102157","prefecture":"FUKUI KEN","city":"FUKUI SHI","town":"NISHISHIMMACHI","perfecture_jp":"福井県","jp_add_1":"福井市","jp_add_2":"西新町"},"9102203":{"post_code":"9102203","prefecture":"FUKUI KEN","city":"FUKUI SHI","town":"NISHINAKACHO","perfecture_jp":"福井県","jp_add_1":"福井市","jp_add_2":"西中町"},"9103105":{"post_code":"9103105","prefecture":"FUKUI KEN","city":"FUKUI SHI","town":"NISHINAKANOCHO","perfecture_jp":"福井県","jp_add_1":"福井市","jp_add_2":"西中野町"},"9103373":{"post_code":"9103373","prefecture":"FUKUI KEN","city":"FUKUI SHI","town":"NISHIHATACHO","perfecture_jp":"福井県","jp_add_1":"福井市","jp_add_2":"西畑町"},"9103372":{"post_code":"9103372","prefecture":"FUKUI KEN","city":"FUKUI SHI","town":"NISHIFUTATSUYACHO","perfecture_jp":"福井県","jp_add_1":"福井市","jp_add_2":"西二ツ屋町"},"9103512":{"post_code":"9103512","prefecture":"FUKUI KEN","city":"FUKUI SHI","town":"NISHIBESSHOCHO","perfecture_jp":"福井県","jp_add_1":"福井市","jp_add_2":"西別所町"},"9100037":{"post_code":"9100037","prefecture":"FUKUI KEN","city":"FUKUI SHI","town":"NISHIBORICHO","perfecture_jp":"福井県","jp_add_1":"福井市","jp_add_2":"西堀町"},"9100029":{"post_code":"9100029","prefecture":"FUKUI KEN","city":"FUKUI SHI","town":"NIKKO","perfecture_jp":"福井県","jp_add_1":"福井市","jp_add_2":"日光"},"9100067":{"post_code":"9100067","prefecture":"FUKUI KEN","city":"FUKUI SHI","town":"NITTAZUKA","perfecture_jp":"福井県","jp_add_1":"福井市","jp_add_2":"新田塚"},"9100064":{"post_code":"9100064","prefecture":"FUKUI KEN","city":"FUKUI SHI","town":"NITSUTAZUKACHO","perfecture_jp":"福井県","jp_add_1":"福井市","jp_add_2":"新田塚町"},"9100015":{"post_code":"9100015","prefecture":"FUKUI KEN","city":"FUKUI SHI","town":"NINOMIYA","perfecture_jp":"福井県","jp_add_1":"福井市","jp_add_2":"二の宮"},"9102335":{"post_code":"9102335","prefecture":"FUKUI KEN","city":"FUKUI SHI","town":"NUIBARACHO","perfecture_jp":"福井県","jp_add_1":"福井市","jp_add_2":"縫原町"},"9102333":{"post_code":"9102333","prefecture":"FUKUI KEN","city":"FUKUI SHI","town":"NONAMICHO(OIWAKE)","perfecture_jp":"福井県","jp_add_1":"福井市","jp_add_2":"野波町"},"9102332":{"post_code":"9102332","prefecture":"FUKUI KEN","city":"FUKUI SHI","town":"NONAMICHO(SONOTA)","perfecture_jp":"福井県","jp_add_1":"福井市","jp_add_2":"野波町"},"9102331":{"post_code":"9102331","prefecture":"FUKUI KEN","city":"FUKUI SHI","town":"HAKARIISHICHO","perfecture_jp":"福井県","jp_add_1":"福井市","jp_add_2":"計石町"},"9103517":{"post_code":"9103517","prefecture":"FUKUI KEN","city":"FUKUI SHI","town":"HATAKENAKACHO","perfecture_jp":"福井県","jp_add_1":"福井市","jp_add_2":"畠中町"},"9103554":{"post_code":"9103554","prefecture":"FUKUI KEN","city":"FUKUI SHI","town":"HAMAKITAYAMACHO","perfecture_jp":"福井県","jp_add_1":"福井市","jp_add_2":"浜北山町"},"9103132":{"post_code":"9103132","prefecture":"FUKUI KEN","city":"FUKUI SHI","town":"HAMASHIMACHO","perfecture_jp":"福井県","jp_add_1":"福井市","jp_add_2":"浜島町"},"9103377":{"post_code":"9103377","prefecture":"FUKUI KEN","city":"FUKUI SHI","town":"HAMAJUCHO","perfecture_jp":"福井県","jp_add_1":"福井市","jp_add_2":"浜住町"},"9103134":{"post_code":"9103134","prefecture":"FUKUI KEN","city":"FUKUI SHI","town":"HAMABESSHOCHO","perfecture_jp":"福井県","jp_add_1":"福井市","jp_add_2":"浜別所町"},"9100828":{"post_code":"9100828","prefecture":"FUKUI KEN","city":"FUKUI SHI","town":"HAYASHICHO","perfecture_jp":"福井県","jp_add_1":"福井市","jp_add_2":"林町"},"9100829":{"post_code":"9100829","prefecture":"FUKUI KEN","city":"FUKUI SHI","town":"HAYASHIFUJISHIMACHO","perfecture_jp":"福井県","jp_add_1":"福井市","jp_add_2":"林藤島町"},"9100825":{"post_code":"9100825","prefecture":"FUKUI KEN","city":"FUKUI SHI","town":"HARAMECHO","perfecture_jp":"福井県","jp_add_1":"福井市","jp_add_2":"原目町"},"9100019":{"post_code":"9100019","prefecture":"FUKUI KEN","city":"FUKUI SHI","town":"HARUYAMA","perfecture_jp":"福井県","jp_add_1":"福井市","jp_add_2":"春山"},"9102354":{"post_code":"9102354","prefecture":"FUKUI KEN","city":"FUKUI SHI","town":"HIGASHIAMADACHO","perfecture_jp":"福井県","jp_add_1":"福井市","jp_add_2":"東天田町"},"9102341":{"post_code":"9102341","prefecture":"FUKUI KEN","city":"FUKUI SHI","town":"HIGASHIKAWAKAMICHO","perfecture_jp":"福井県","jp_add_1":"福井市","jp_add_2":"東川上町"},"9102472":{"post_code":"9102472","prefecture":"FUKUI KEN","city":"FUKUI SHI","town":"HIGASHIKOBARACHO","perfecture_jp":"福井県","jp_add_1":"福井市","jp_add_2":"東河原町"},"9102154":{"post_code":"9102154","prefecture":"FUKUI KEN","city":"FUKUI SHI","town":"HIGASHISHIMMACHI","perfecture_jp":"福井県","jp_add_1":"福井市","jp_add_2":"東新町"},"9102342":{"post_code":"9102342","prefecture":"FUKUI KEN","city":"FUKUI SHI","town":"HIGASHIMATACHO","perfecture_jp":"福井県","jp_add_1":"福井市","jp_add_2":"東俣町"},"9100859":{"post_code":"9100859","prefecture":"FUKUI KEN","city":"FUKUI SHI","town":"HINODE","perfecture_jp":"福井県","jp_add_1":"福井市","jp_add_2":"日之出"},"9103641":{"post_code":"9103641","prefecture":"FUKUI KEN","city":"FUKUI SHI","town":"HIRAOCHO","perfecture_jp":"福井県","jp_add_1":"福井市","jp_add_2":"平尾町"},"9103126":{"post_code":"9103126","prefecture":"FUKUI KEN","city":"FUKUI SHI","town":"FUKASAKACHO","perfecture_jp":"福井県","jp_add_1":"福井市","jp_add_2":"深坂町"},"9100049":{"post_code":"9100049","prefecture":"FUKUI KEN","city":"FUKUI SHI","town":"FUKATANICHO","perfecture_jp":"福井県","jp_add_1":"福井市","jp_add_2":"深谷町"},"9102164":{"post_code":"9102164","prefecture":"FUKUI KEN","city":"FUKUI SHI","town":"FUKAMICHO","perfecture_jp":"福井県","jp_add_1":"福井市","jp_add_2":"深見町"},"9102214":{"post_code":"9102214","prefecture":"FUKUI KEN","city":"FUKUI SHI","town":"FUKUSHIMACHO","perfecture_jp":"福井県","jp_add_1":"福井市","jp_add_2":"福島町"},"9100827":{"post_code":"9100827","prefecture":"FUKUI KEN","city":"FUKUI SHI","town":"FUJISHIMACHO","perfecture_jp":"福井県","jp_add_1":"福井市","jp_add_2":"藤島町"},"9103523":{"post_code":"9103523","prefecture":"FUKUI KEN","city":"FUKUI SHI","town":"BUSHUCHO","perfecture_jp":"福井県","jp_add_1":"福井市","jp_add_2":"武周町"},"9103104":{"post_code":"9103104","prefecture":"FUKUI KEN","city":"FUKUI SHI","town":"FUSEDACHO","perfecture_jp":"福井県","jp_add_1":"福井市","jp_add_2":"布施田町"},"9103526":{"post_code":"9103526","prefecture":"FUKUI KEN","city":"FUKUI SHI","town":"FUTATSUYACHO","perfecture_jp":"福井県","jp_add_1":"福井市","jp_add_2":"二ツ屋町"},"9100109":{"post_code":"9100109","prefecture":"FUKUI KEN","city":"FUKUI SHI","town":"FUTSUKAICHICHO","perfecture_jp":"福井県","jp_add_1":"福井市","jp_add_2":"二日市町"},"9100808":{"post_code":"9100808","prefecture":"FUKUI KEN","city":"FUKUI SHI","town":"FUNABASHI","perfecture_jp":"福井県","jp_add_1":"福井市","jp_add_2":"舟橋"},"9100069":{"post_code":"9100069","prefecture":"FUKUI KEN","city":"FUKUI SHI","town":"FUNABASHIKUROTATSU","perfecture_jp":"福井県","jp_add_1":"福井市","jp_add_2":"舟橋黒竜"},"9100068":{"post_code":"9100068","prefecture":"FUKUI KEN","city":"FUKUI SHI","town":"FUNABASHISHIN","perfecture_jp":"福井県","jp_add_1":"福井市","jp_add_2":"舟橋新"},"9100061":{"post_code":"9100061","prefecture":"FUKUI KEN","city":"FUKUI SHI","town":"FUNABASHISHIMMACHI","perfecture_jp":"福井県","jp_add_1":"福井市","jp_add_2":"舟橋新町"},"9100809":{"post_code":"9100809","prefecture":"FUKUI KEN","city":"FUKUI SHI","town":"FUNABASHICHO","perfecture_jp":"福井県","jp_add_1":"福井市","jp_add_2":"舟橋町"},"9100152":{"post_code":"9100152","prefecture":"FUKUI KEN","city":"FUKUI SHI","town":"FURUICHI","perfecture_jp":"福井県","jp_add_1":"福井市","jp_add_2":"古市"},"9100153":{"post_code":"9100153","prefecture":"FUKUI KEN","city":"FUKUI SHI","town":"FURUICHICHO","perfecture_jp":"福井県","jp_add_1":"福井市","jp_add_2":"古市町"},"9100017":{"post_code":"9100017","prefecture":"FUKUI KEN","city":"FUKUI SHI","town":"BUNKYO","perfecture_jp":"福井県","jp_add_1":"福井市","jp_add_2":"文京"},"9103524":{"post_code":"9103524","prefecture":"FUKUI KEN","city":"FUKUI SHI","town":"BETSUBATACHO","perfecture_jp":"福井県","jp_add_1":"福井市","jp_add_2":"別畑町"},"9100004":{"post_code":"9100004","prefecture":"FUKUI KEN","city":"FUKUI SHI","town":"HOEI","perfecture_jp":"福井県","jp_add_1":"福井市","jp_add_2":"宝永"},"9100032":{"post_code":"9100032","prefecture":"FUKUI KEN","city":"FUKUI SHI","town":"HORINOMIYA","perfecture_jp":"福井県","jp_add_1":"福井市","jp_add_2":"堀ノ宮"},"9100031":{"post_code":"9100031","prefecture":"FUKUI KEN","city":"FUKUI SHI","town":"HORINOMIYACHO","perfecture_jp":"福井県","jp_add_1":"福井市","jp_add_2":"堀ノ宮町"},"9102142":{"post_code":"9102142","prefecture":"FUKUI KEN","city":"FUKUI SHI","town":"MAEBACHO","perfecture_jp":"福井県","jp_add_1":"福井市","jp_add_2":"前波町"},"9103616":{"post_code":"9103616","prefecture":"FUKUI KEN","city":"FUKUI SHI","town":"MAKURICHO","perfecture_jp":"福井県","jp_add_1":"福井市","jp_add_2":"真栗町"},"9100002":{"post_code":"9100002","prefecture":"FUKUI KEN","city":"FUKUI SHI","town":"MACHIYA","perfecture_jp":"福井県","jp_add_1":"福井市","jp_add_2":"町屋"},"9103382":{"post_code":"9103382","prefecture":"FUKUI KEN","city":"FUKUI SHI","town":"MATSUKAGECHO","perfecture_jp":"福井県","jp_add_1":"福井市","jp_add_2":"松蔭町"},"9100852":{"post_code":"9100852","prefecture":"FUKUI KEN","city":"FUKUI SHI","town":"MATSUSHIROCHO","perfecture_jp":"福井県","jp_add_1":"福井市","jp_add_2":"松城町"},"9100003":{"post_code":"9100003","prefecture":"FUKUI KEN","city":"FUKUI SHI","town":"MATSUMOTO","perfecture_jp":"福井県","jp_add_1":"福井市","jp_add_2":"松本"},"9102345":{"post_code":"9102345","prefecture":"FUKUI KEN","city":"FUKUI SHI","town":"MATOCHO","perfecture_jp":"福井県","jp_add_1":"福井市","jp_add_2":"間戸町"},"9100824":{"post_code":"9100824","prefecture":"FUKUI KEN","city":"FUKUI SHI","town":"MAYAMACHO","perfecture_jp":"福井県","jp_add_1":"福井市","jp_add_2":"間山町"},"9100834":{"post_code":"9100834","prefecture":"FUKUI KEN","city":"FUKUI SHI","town":"MARUYAMA","perfecture_jp":"福井県","jp_add_1":"福井市","jp_add_2":"丸山"},"9100835":{"post_code":"9100835","prefecture":"FUKUI KEN","city":"FUKUI SHI","town":"MARUYAMACHO","perfecture_jp":"福井県","jp_add_1":"福井市","jp_add_2":"丸山町"},"9103144":{"post_code":"9103144","prefecture":"FUKUI KEN","city":"FUKUI SHI","town":"MIZUKIRICHO","perfecture_jp":"福井県","jp_add_1":"福井市","jp_add_2":"水切町"},"9103514":{"post_code":"9103514","prefecture":"FUKUI KEN","city":"FUKUI SHI","town":"MIZUTANICHO","perfecture_jp":"福井県","jp_add_1":"福井市","jp_add_2":"水谷町"},"9100038":{"post_code":"9100038","prefecture":"FUKUI KEN","city":"FUKUI SHI","town":"MITSUYA","perfecture_jp":"福井県","jp_add_1":"福井市","jp_add_2":"三ツ屋"},"9100039":{"post_code":"9100039","prefecture":"FUKUI KEN","city":"FUKUI SHI","town":"MITSUYACHO","perfecture_jp":"福井県","jp_add_1":"福井市","jp_add_2":"三ツ屋町"},"9103608":{"post_code":"9103608","prefecture":"FUKUI KEN","city":"FUKUI SHI","town":"MITOMECHO","perfecture_jp":"福井県","jp_add_1":"福井市","jp_add_2":"三留町"},"9103386":{"post_code":"9103386","prefecture":"FUKUI KEN","city":"FUKUI SHI","town":"MINAMISUGOCHO","perfecture_jp":"福井県","jp_add_1":"福井市","jp_add_2":"南菅生町"},"9100046":{"post_code":"9100046","prefecture":"FUKUI KEN","city":"FUKUI SHI","town":"MINAMINARAHARACHO","perfecture_jp":"福井県","jp_add_1":"福井市","jp_add_2":"南楢原町"},"9102343":{"post_code":"9102343","prefecture":"FUKUI KEN","city":"FUKUI SHI","town":"MINAMINISHIMATACHO","perfecture_jp":"福井県","jp_add_1":"福井市","jp_add_2":"南西俣町"},"9102461":{"post_code":"9102461","prefecture":"FUKUI KEN","city":"FUKUI SHI","town":"MINAMINOTSUMATACHO","perfecture_jp":"福井県","jp_add_1":"福井市","jp_add_2":"南野津又町"},"9102344":{"post_code":"9102344","prefecture":"FUKUI KEN","city":"FUKUI SHI","town":"MINAMIMIYAJICHO","perfecture_jp":"福井県","jp_add_1":"福井市","jp_add_2":"南宮地町"},"9102162":{"post_code":"9102162","prefecture":"FUKUI KEN","city":"FUKUI SHI","town":"MINAMIYAMACHO","perfecture_jp":"福井県","jp_add_1":"福井市","jp_add_2":"南山町"},"9103381":{"post_code":"9103381","prefecture":"FUKUI KEN","city":"FUKUI SHI","town":"MINOCHO","perfecture_jp":"福井県","jp_add_1":"福井市","jp_add_2":"蓑町"},"9103103":{"post_code":"9103103","prefecture":"FUKUI KEN","city":"FUKUI SHI","town":"MIYAKECHO","perfecture_jp":"福井県","jp_add_1":"福井市","jp_add_2":"三宅町"},"9103375":{"post_code":"9103375","prefecture":"FUKUI KEN","city":"FUKUI SHI","town":"MIYAGOCHO","perfecture_jp":"福井県","jp_add_1":"福井市","jp_add_2":"宮郷町"},"9102204":{"post_code":"9102204","prefecture":"FUKUI KEN","city":"FUKUI SHI","town":"MIYAMAOTANICHO","perfecture_jp":"福井県","jp_add_1":"福井市","jp_add_2":"美山大谷町"},"9102351":{"post_code":"9102351","prefecture":"FUKUI KEN","city":"FUKUI SHI","town":"MIYAMACHO","perfecture_jp":"福井県","jp_add_1":"福井市","jp_add_2":"美山町"},"9100854":{"post_code":"9100854","prefecture":"FUKUI KEN","city":"FUKUI SHI","town":"MIYUKI","perfecture_jp":"福井県","jp_add_1":"福井市","jp_add_2":"御幸"},"9100106":{"post_code":"9100106","prefecture":"FUKUI KEN","city":"FUKUI SHI","town":"MUIKAICHICHO","perfecture_jp":"福井県","jp_add_1":"福井市","jp_add_2":"六日市町"},"9103376":{"post_code":"9103376","prefecture":"FUKUI KEN","city":"FUKUI SHI","town":"MERACHO","perfecture_jp":"福井県","jp_add_1":"福井市","jp_add_2":"和布町"},"9103378":{"post_code":"9103378","prefecture":"FUKUI KEN","city":"FUKUI SHI","town":"MENDORICHO","perfecture_jp":"福井県","jp_add_1":"福井市","jp_add_2":"免鳥町"},"9103642":{"post_code":"9103642","prefecture":"FUKUI KEN","city":"FUKUI SHI","town":"MOTORICHO","perfecture_jp":"福井県","jp_add_1":"福井市","jp_add_2":"本折町"},"9100133":{"post_code":"9100133","prefecture":"FUKUI KEN","city":"FUKUI SHI","town":"MORITASHIMBOCHO","perfecture_jp":"福井県","jp_add_1":"福井市","jp_add_2":"森田新保町"},"9100158":{"post_code":"9100158","prefecture":"FUKUI KEN","city":"FUKUI SHI","town":"YAEMAKI NAKACHO","perfecture_jp":"福井県","jp_add_1":"福井市","jp_add_2":"八重巻中町"},"9100157":{"post_code":"9100157","prefecture":"FUKUI KEN","city":"FUKUI SHI","town":"YAEMAKI HIGASHICHO","perfecture_jp":"福井県","jp_add_1":"福井市","jp_add_2":"八重巻東町"},"9100123":{"post_code":"9100123","prefecture":"FUKUI KEN","city":"FUKUI SHI","town":"YAEMAKICHO","perfecture_jp":"福井県","jp_add_1":"福井市","jp_add_2":"八重巻町"},"9102337":{"post_code":"9102337","prefecture":"FUKUI KEN","city":"FUKUI SHI","town":"YAKUSHICHO(KAMIYAKUSHI)","perfecture_jp":"福井県","jp_add_1":"福井市","jp_add_2":"薬師町"},"9102338":{"post_code":"9102338","prefecture":"FUKUI KEN","city":"FUKUI SHI","town":"YAKUSHICHO(SHIMOYAKUSHI)","perfecture_jp":"福井県","jp_add_1":"福井市","jp_add_2":"薬師町"},"9102339":{"post_code":"9102339","prefecture":"FUKUI KEN","city":"FUKUI SHI","town":"YAKUSHICHO(SONOTA)","perfecture_jp":"福井県","jp_add_1":"福井市","jp_add_2":"薬師町"},"9100054":{"post_code":"9100054","prefecture":"FUKUI KEN","city":"FUKUI SHI","town":"YASUTAKECHO","perfecture_jp":"福井県","jp_add_1":"福井市","jp_add_2":"安竹町"},"9102167":{"post_code":"9102167","prefecture":"FUKUI KEN","city":"FUKUI SHI","town":"YASUHARACHO","perfecture_jp":"福井県","jp_add_1":"福井市","jp_add_2":"安原町"},"9100066":{"post_code":"9100066","prefecture":"FUKUI KEN","city":"FUKUI SHI","town":"YATSUSHIMA","perfecture_jp":"福井県","jp_add_1":"福井市","jp_add_2":"八ツ島"},"9100065":{"post_code":"9100065","prefecture":"FUKUI KEN","city":"FUKUI SHI","town":"YATSUSHIMACHO","perfecture_jp":"福井県","jp_add_1":"福井市","jp_add_2":"八ツ島町"},"9103558":{"post_code":"9103558","prefecture":"FUKUI KEN","city":"FUKUI SHI","town":"YATSUMATACHO","perfecture_jp":"福井県","jp_add_1":"福井市","jp_add_2":"八ツ俣町"},"9103636":{"post_code":"9103636","prefecture":"FUKUI KEN","city":"FUKUI SHI","town":"YAMAUCHICHO","perfecture_jp":"福井県","jp_add_1":"福井市","jp_add_2":"山内町"},"9100108":{"post_code":"9100108","prefecture":"FUKUI KEN","city":"FUKUI SHI","town":"YAMAMUROCHO","perfecture_jp":"福井県","jp_add_1":"福井市","jp_add_2":"山室町"},"9103254":{"post_code":"9103254","prefecture":"FUKUI KEN","city":"FUKUI SHI","town":"YAWATACHO","perfecture_jp":"福井県","jp_add_1":"福井市","jp_add_2":"八幡町"},"9102473":{"post_code":"9102473","prefecture":"FUKUI KEN","city":"FUKUI SHI","town":"YOKOGOSHICHO","perfecture_jp":"福井県","jp_add_1":"福井市","jp_add_2":"横越町"},"9102206":{"post_code":"9102206","prefecture":"FUKUI KEN","city":"FUKUI SHI","town":"YOSHIYAMACHO(KAMIYOSHIYAMA)","perfecture_jp":"福井県","jp_add_1":"福井市","jp_add_2":"吉山町"},"9102207":{"post_code":"9102207","prefecture":"FUKUI KEN","city":"FUKUI SHI","town":"YOSHIYAMACHO(SHIMOYOSHIYAMA)","perfecture_jp":"福井県","jp_add_1":"福井市","jp_add_2":"吉山町"},"9102208":{"post_code":"9102208","prefecture":"FUKUI KEN","city":"FUKUI SHI","town":"YOSHIYAMACHO(SONOTA)","perfecture_jp":"福井県","jp_add_1":"福井市","jp_add_2":"吉山町"},"9100846":{"post_code":"9100846","prefecture":"FUKUI KEN","city":"FUKUI SHI","town":"YOTSUI","perfecture_jp":"福井県","jp_add_1":"福井市","jp_add_2":"四ツ井"},"9100851":{"post_code":"9100851","prefecture":"FUKUI KEN","city":"FUKUI SHI","town":"YONEMATSU","perfecture_jp":"福井県","jp_add_1":"福井市","jp_add_2":"米松"},"9103135":{"post_code":"9103135","prefecture":"FUKUI KEN","city":"FUKUI SHI","town":"RYOHASHIYACHO","perfecture_jp":"福井県","jp_add_1":"福井市","jp_add_2":"両橋屋町"},"9100831":{"post_code":"9100831","prefecture":"FUKUI KEN","city":"FUKUI SHI","town":"WAKAECHO","perfecture_jp":"福井県","jp_add_1":"福井市","jp_add_2":"若栄町"},"9102161":{"post_code":"9102161","prefecture":"FUKUI KEN","city":"FUKUI SHI","town":"WAKISANGACHO","perfecture_jp":"福井県","jp_add_1":"福井市","jp_add_2":"脇三ケ町"},"9103631":{"post_code":"9103631","prefecture":"FUKUI KEN","city":"FUKUI SHI","town":"WADACHO","perfecture_jp":"福井県","jp_add_1":"福井市","jp_add_2":"和田町"},"9104273":{"post_code":"9104273","prefecture":"FUKUI KEN","city":"AWARA SHI","town":"AKAO","perfecture_jp":"福井県","jp_add_1":"あわら市","jp_add_2":"赤尾"},"9104102":{"post_code":"9104102","prefecture":"FUKUI KEN","city":"AWARA SHI","town":"ASHIZURU","perfecture_jp":"福井県","jp_add_1":"あわら市","jp_add_2":"芦鶴"},"9104112":{"post_code":"9104112","prefecture":"FUKUI KEN","city":"AWARA SHI","town":"IEYOSHI","perfecture_jp":"福井県","jp_add_1":"あわら市","jp_add_2":"井江葭"},"9104111":{"post_code":"9104111","prefecture":"FUKUI KEN","city":"AWARA SHI","town":"USHIYAMA","perfecture_jp":"福井県","jp_add_1":"あわら市","jp_add_2":"牛山"},"9104104":{"post_code":"9104104","prefecture":"FUKUI KEN","city":"AWARA SHI","town":"ONSEN","perfecture_jp":"福井県","jp_add_1":"あわら市","jp_add_2":"温泉"},"9104134":{"post_code":"9104134","prefecture":"FUKUI KEN","city":"AWARA SHI","town":"KAMIBAN","perfecture_jp":"福井県","jp_add_1":"あわら市","jp_add_2":"上番"},"9104272":{"post_code":"9104272","prefecture":"FUKUI KEN","city":"AWARA SHI","town":"TOMITSU(KITAGATA)","perfecture_jp":"福井県","jp_add_1":"あわら市","jp_add_2":"北潟"},"9104146":{"post_code":"9104146","prefecture":"FUKUI KEN","city":"AWARA SHI","town":"KITAHONDO","perfecture_jp":"福井県","jp_add_1":"あわら市","jp_add_2":"北本堂"},"9104115":{"post_code":"9104115","prefecture":"FUKUI KEN","city":"AWARA SHI","town":"KUNIKAGE","perfecture_jp":"福井県","jp_add_1":"あわら市","jp_add_2":"国影"},"9104147":{"post_code":"9104147","prefecture":"FUKUI KEN","city":"AWARA SHI","town":"MIYAMAE","perfecture_jp":"福井県","jp_add_1":"あわら市","jp_add_2":"公文"},"9104142":{"post_code":"9104142","prefecture":"FUKUI KEN","city":"AWARA SHI","town":"KOMA","perfecture_jp":"福井県","jp_add_1":"あわら市","jp_add_2":"河間"},"9104122":{"post_code":"9104122","prefecture":"FUKUI KEN","city":"AWARA SHI","town":"SHIGEYOSHI","perfecture_jp":"福井県","jp_add_1":"あわら市","jp_add_2":"重義"},"9104138":{"post_code":"9104138","prefecture":"FUKUI KEN","city":"AWARA SHI","town":"SHIMOBAN","perfecture_jp":"福井県","jp_add_1":"あわら市","jp_add_2":"下番"},"9104276":{"post_code":"9104276","prefecture":"FUKUI KEN","city":"AWARA SHI","town":"JO","perfecture_jp":"福井県","jp_add_1":"あわら市","jp_add_2":"十三"},"9104275":{"post_code":"9104275","prefecture":"FUKUI KEN","city":"AWARA SHI","town":"JOSHINDEN","perfecture_jp":"福井県","jp_add_1":"あわら市","jp_add_2":"城新田"},"9104145":{"post_code":"9104145","prefecture":"FUKUI KEN","city":"AWARA SHI","town":"SUMIYA","perfecture_jp":"福井県","jp_add_1":"あわら市","jp_add_2":"角屋"},"9104124":{"post_code":"9104124","prefecture":"FUKUI KEN","city":"AWARA SHI","town":"TANAKANAKA","perfecture_jp":"福井県","jp_add_1":"あわら市","jp_add_2":"田中々"},"9104141":{"post_code":"9104141","prefecture":"FUKUI KEN","city":"AWARA SHI","town":"TAMAKI","perfecture_jp":"福井県","jp_add_1":"あわら市","jp_add_2":"玉木"},"9104132":{"post_code":"9104132","prefecture":"FUKUI KEN","city":"AWARA SHI","town":"TAMBAKU","perfecture_jp":"福井県","jp_add_1":"あわら市","jp_add_2":"谷畠"},"9104131":{"post_code":"9104131","prefecture":"FUKUI KEN","city":"AWARA SHI","town":"TOZENJI","perfecture_jp":"福井県","jp_add_1":"あわら市","jp_add_2":"東善寺"},"9104133":{"post_code":"9104133","prefecture":"FUKUI KEN","city":"AWARA SHI","town":"TODOROKI","perfecture_jp":"福井県","jp_add_1":"あわら市","jp_add_2":"轟木"},"9104144":{"post_code":"9104144","prefecture":"FUKUI KEN","city":"AWARA SHI","town":"NAKANOHAMA","perfecture_jp":"福井県","jp_add_1":"あわら市","jp_add_2":"中浜"},"9104137":{"post_code":"9104137","prefecture":"FUKUI KEN","city":"AWARA SHI","town":"NAKABAN","perfecture_jp":"福井県","jp_add_1":"あわら市","jp_add_2":"中番"},"9104277":{"post_code":"9104277","prefecture":"FUKUI KEN","city":"AWARA SHI","town":"NAMIMATSU","perfecture_jp":"福井県","jp_add_1":"あわら市","jp_add_2":"波松"},"9104127":{"post_code":"9104127","prefecture":"FUKUI KEN","city":"AWARA SHI","town":"NISHIONSEN","perfecture_jp":"福井県","jp_add_1":"あわら市","jp_add_2":"西温泉"},"9104126":{"post_code":"9104126","prefecture":"FUKUI KEN","city":"AWARA SHI","town":"NUNOME","perfecture_jp":"福井県","jp_add_1":"あわら市","jp_add_2":"布目"},"9104271":{"post_code":"9104271","prefecture":"FUKUI KEN","city":"AWARA SHI","town":"HAMASAKA","perfecture_jp":"福井県","jp_add_1":"あわら市","jp_add_2":"浜坂"},"9104123":{"post_code":"9104123","prefecture":"FUKUI KEN","city":"AWARA SHI","town":"BANDEN","perfecture_jp":"福井県","jp_add_1":"あわら市","jp_add_2":"番田"},"9104274":{"post_code":"9104274","prefecture":"FUKUI KEN","city":"AWARA SHI","town":"BANDONO","perfecture_jp":"福井県","jp_add_1":"あわら市","jp_add_2":"番堂野"},"9104121":{"post_code":"9104121","prefecture":"FUKUI KEN","city":"AWARA SHI","town":"HIGASHIONSEN","perfecture_jp":"福井県","jp_add_1":"あわら市","jp_add_2":"東温泉"},"9104103":{"post_code":"9104103","prefecture":"FUKUI KEN","city":"AWARA SHI","town":"FUTAOMOTE","perfecture_jp":"福井県","jp_add_1":"あわら市","jp_add_2":"二面"},"9104105":{"post_code":"9104105","prefecture":"FUKUI KEN","city":"AWARA SHI","town":"FUNATSU","perfecture_jp":"福井県","jp_add_1":"あわら市","jp_add_2":"舟津"},"9104125":{"post_code":"9104125","prefecture":"FUKUI KEN","city":"AWARA SHI","town":"HORIEJURAKU","perfecture_jp":"福井県","jp_add_1":"あわら市","jp_add_2":"堀江十楽"},"9104113":{"post_code":"9104113","prefecture":"FUKUI KEN","city":"AWARA SHI","town":"YOKOGAKI","perfecture_jp":"福井県","jp_add_1":"あわら市","jp_add_2":"横垣"},"9100200":{"post_code":"9100200","prefecture":"FUKUI KEN","city":"SAKAI SHI","town":"IKANIKEISAIGANAIBAAI","perfecture_jp":"福井県","jp_add_1":"坂井市","jp_add_2":""},"9100212":{"post_code":"9100212","prefecture":"FUKUI KEN","city":"SAKAI SHI","town":"MARUOKACHO AKASAKA","perfecture_jp":"福井県","jp_add_1":"坂井市","jp_add_2":"丸岡町赤坂"},"9100265":{"post_code":"9100265","prefecture":"FUKUI KEN","city":"SAKAI SHI","town":"MARUOKACHO ASAHI","perfecture_jp":"福井県","jp_add_1":"坂井市","jp_add_2":"丸岡町朝陽"},"9100301":{"post_code":"9100301","prefecture":"FUKUI KEN","city":"SAKAI SHI","town":"MARUOKACHO ATAGO","perfecture_jp":"福井県","jp_add_1":"坂井市","jp_add_2":"丸岡町愛宕"},"9100324":{"post_code":"9100324","prefecture":"FUKUI KEN","city":"SAKAI SHI","town":"MARUOKACHO ABURATAMETO","perfecture_jp":"福井県","jp_add_1":"坂井市","jp_add_2":"丸岡町油為頭"},"9100227":{"post_code":"9100227","prefecture":"FUKUI KEN","city":"SAKAI SHI","town":"MARUOKACHO ARAMACHI","perfecture_jp":"福井県","jp_add_1":"坂井市","jp_add_2":"丸岡町荒町"},"9100317":{"post_code":"9100317","prefecture":"FUKUI KEN","city":"SAKAI SHI","town":"MARUOKACHO ISHIGAMI","perfecture_jp":"福井県","jp_add_1":"坂井市","jp_add_2":"丸岡町石上"},"9100243":{"post_code":"9100243","prefecture":"FUKUI KEN","city":"SAKAI SHI","town":"MARUOKACHO ISHIKIDOCHO","perfecture_jp":"福井県","jp_add_1":"坂井市","jp_add_2":"丸岡町石城戸町"},"9100346":{"post_code":"9100346","prefecture":"FUKUI KEN","city":"SAKAI SHI","town":"MARUOKACHO ISOBESHIMA","perfecture_jp":"福井県","jp_add_1":"坂井市","jp_add_2":"丸岡町磯部島"},"9100368":{"post_code":"9100368","prefecture":"FUKUI KEN","city":"SAKAI SHI","town":"MARUOKACHO ISOBESHIMBO","perfecture_jp":"福井県","jp_add_1":"坂井市","jp_add_2":"丸岡町磯部新保"},"9100365":{"post_code":"9100365","prefecture":"FUKUI KEN","city":"SAKAI SHI","town":"MARUOKACHO ISOBEFUKUSHO","perfecture_jp":"福井県","jp_add_1":"坂井市","jp_add_2":"丸岡町磯部福庄"},"9100325":{"post_code":"9100325","prefecture":"FUKUI KEN","city":"SAKAI SHI","town":"MARUOKACHO ITAKURA","perfecture_jp":"福井県","jp_add_1":"坂井市","jp_add_2":"丸岡町板倉"},"9100254":{"post_code":"9100254","prefecture":"FUKUI KEN","city":"SAKAI SHI","town":"MARUOKACHO IPPONDEN","perfecture_jp":"福井県","jp_add_1":"坂井市","jp_add_2":"丸岡町一本田"},"9100253":{"post_code":"9100253","prefecture":"FUKUI KEN","city":"SAKAI SHI","town":"MARUOKACHO IPPONDENNAKA","perfecture_jp":"福井県","jp_add_1":"坂井市","jp_add_2":"丸岡町一本田中"},"9100251":{"post_code":"9100251","prefecture":"FUKUI KEN","city":"SAKAI SHI","town":"MARUOKACHO IPPONDENFUKUSHO","perfecture_jp":"福井県","jp_add_1":"坂井市","jp_add_2":"丸岡町一本田福所"},"9100237":{"post_code":"9100237","prefecture":"FUKUI KEN","city":"SAKAI SHI","town":"MARUOKACHO INUI","perfecture_jp":"福井県","jp_add_1":"坂井市","jp_add_2":"丸岡町乾"},"9100264":{"post_code":"9100264","prefecture":"FUKUI KEN","city":"SAKAI SHI","town":"MARUOKACHO INUISHIMODA","perfecture_jp":"福井県","jp_add_1":"坂井市","jp_add_2":"丸岡町乾下田"},"9100303":{"post_code":"9100303","prefecture":"FUKUI KEN","city":"SAKAI SHI","town":"MARUOKACHO INOTSUME","perfecture_jp":"福井県","jp_add_1":"坂井市","jp_add_2":"丸岡町猪爪"},"9100234":{"post_code":"9100234","prefecture":"FUKUI KEN","city":"SAKAI SHI","town":"MARUOKACHO IMAICHI","perfecture_jp":"福井県","jp_add_1":"坂井市","jp_add_2":"丸岡町今市"},"9100304":{"post_code":"9100304","prefecture":"FUKUI KEN","city":"SAKAI SHI","town":"MARUOKACHO IMAFUKU","perfecture_jp":"福井県","jp_add_1":"坂井市","jp_add_2":"丸岡町今福"},"9100348":{"post_code":"9100348","prefecture":"FUKUI KEN","city":"SAKAI SHI","town":"MARUOKACHO IMAMACHI","perfecture_jp":"福井県","jp_add_1":"坂井市","jp_add_2":"丸岡町今町"},"9100263":{"post_code":"9100263","prefecture":"FUKUI KEN","city":"SAKAI SHI","town":"MARUOKACHO UEDAMACHI","perfecture_jp":"福井県","jp_add_1":"坂井市","jp_add_2":"丸岡町上田町"},"9100356":{"post_code":"9100356","prefecture":"FUKUI KEN","city":"SAKAI SHI","town":"MARUOKACHO USHIGASHIMA","perfecture_jp":"福井県","jp_add_1":"坂井市","jp_add_2":"丸岡町牛ケ島"},"9100366":{"post_code":"9100366","prefecture":"FUKUI KEN","city":"SAKAI SHI","town":"MARUOKACHO UZUI","perfecture_jp":"福井県","jp_add_1":"坂井市","jp_add_2":"丸岡町宇随"},"9100275":{"post_code":"9100275","prefecture":"FUKUI KEN","city":"SAKAI SHI","town":"MARUOKACHO UDA","perfecture_jp":"福井県","jp_add_1":"坂井市","jp_add_2":"丸岡町宇田"},"9100313":{"post_code":"9100313","prefecture":"FUKUI KEN","city":"SAKAI SHI","town":"MARUOKACHO UCHIDA","perfecture_jp":"福井県","jp_add_1":"坂井市","jp_add_2":"丸岡町内田"},"9100322":{"post_code":"9100322","prefecture":"FUKUI KEN","city":"SAKAI SHI","town":"MARUOKACHO OMORI","perfecture_jp":"福井県","jp_add_1":"坂井市","jp_add_2":"丸岡町大森"},"9100315":{"post_code":"9100315","prefecture":"FUKUI KEN","city":"SAKAI SHI","town":"MARUOKACHO OGURO","perfecture_jp":"福井県","jp_add_1":"坂井市","jp_add_2":"丸岡町小黒"},"9100211":{"post_code":"9100211","prefecture":"FUKUI KEN","city":"SAKAI SHI","town":"MARUOKACHO ONAGATANI","perfecture_jp":"福井県","jp_add_1":"坂井市","jp_add_2":"丸岡町女形谷"},"9100232":{"post_code":"9100232","prefecture":"FUKUI KEN","city":"SAKAI SHI","town":"MARUOKACHO KASUMIGAOKA","perfecture_jp":"福井県","jp_add_1":"坂井市","jp_add_2":"丸岡町霞ケ丘"},"9100231":{"post_code":"9100231","prefecture":"FUKUI KEN","city":"SAKAI SHI","town":"MARUOKACHO KASUMICHO","perfecture_jp":"福井県","jp_add_1":"坂井市","jp_add_2":"丸岡町霞町"},"9100333":{"post_code":"9100333","prefecture":"FUKUI KEN","city":"SAKAI SHI","town":"MARUOKACHO KANEMOTO","perfecture_jp":"福井県","jp_add_1":"坂井市","jp_add_2":"丸岡町金元"},"9100335":{"post_code":"9100335","prefecture":"FUKUI KEN","city":"SAKAI SHI","town":"MARUOKACHO KAMIKANAYA","perfecture_jp":"福井県","jp_add_1":"坂井市","jp_add_2":"丸岡町上金屋"},"9100331":{"post_code":"9100331","prefecture":"FUKUI KEN","city":"SAKAI SHI","town":"MARUOKACHO KAMIKUMEDA","perfecture_jp":"福井県","jp_add_1":"坂井市","jp_add_2":"丸岡町上久米田"},"9100202":{"post_code":"9100202","prefecture":"FUKUI KEN","city":"SAKAI SHI","town":"MARUOKACHO KAMITAKEDA(OKA)","perfecture_jp":"福井県","jp_add_1":"坂井市","jp_add_2":"丸岡町上竹田"},"9100201":{"post_code":"9100201","prefecture":"FUKUI KEN","city":"SAKAI SHI","town":"MARUOKACHO KAMITAKEDA(SOTANI)","perfecture_jp":"福井県","jp_add_1":"坂井市","jp_add_2":"丸岡町上竹田"},"9100205":{"post_code":"9100205","prefecture":"FUKUI KEN","city":"SAKAI SHI","town":"MARUOKACHO KAMITAKEDA(SONOTA)","perfecture_jp":"福井県","jp_add_1":"坂井市","jp_add_2":"丸岡町上竹田"},"9100362":{"post_code":"9100362","prefecture":"FUKUI KEN","city":"SAKAI SHI","town":"MARUOKACHO KAMIYASUTA","perfecture_jp":"福井県","jp_add_1":"坂井市","jp_add_2":"丸岡町上安田"},"9100206":{"post_code":"9100206","prefecture":"FUKUI KEN","city":"SAKAI SHI","town":"MARUOKACHO KAWAKAMI","perfecture_jp":"福井県","jp_add_1":"坂井市","jp_add_2":"丸岡町川上"},"9100374":{"post_code":"9100374","prefecture":"FUKUI KEN","city":"SAKAI SHI","town":"MARUOKACHO KITAYOKOJI","perfecture_jp":"福井県","jp_add_1":"坂井市","jp_add_2":"丸岡町北横地"},"9100357":{"post_code":"9100357","prefecture":"FUKUI KEN","city":"SAKAI SHI","town":"MARUOKACHO GIMA","perfecture_jp":"福井県","jp_add_1":"坂井市","jp_add_2":"丸岡町儀間"},"9100347":{"post_code":"9100347","prefecture":"FUKUI KEN","city":"SAKAI SHI","town":"MARUOKACHO KUMANDO","perfecture_jp":"福井県","jp_add_1":"坂井市","jp_add_2":"丸岡町熊堂"},"9100276":{"post_code":"9100276","prefecture":"FUKUI KEN","city":"SAKAI SHI","town":"MARUOKACHO GENNYO","perfecture_jp":"福井県","jp_add_1":"坂井市","jp_add_2":"丸岡町玄女"},"9100262":{"post_code":"9100262","prefecture":"FUKUI KEN","city":"SAKAI SHI","town":"MARUOKACHO SAKAE","perfecture_jp":"福井県","jp_add_1":"坂井市","jp_add_2":"丸岡町栄"},"9100382":{"post_code":"9100382","prefecture":"FUKUI KEN","city":"SAKAI SHI","town":"MARUOKACHO SASAWADA","perfecture_jp":"福井県","jp_add_1":"坂井市","jp_add_2":"丸岡町笹和田"},"9100277":{"post_code":"9100277","prefecture":"FUKUI KEN","city":"SAKAI SHI","town":"MARUOKACHO SATOTAKEDA","perfecture_jp":"福井県","jp_add_1":"坂井市","jp_add_2":"丸岡町里竹田"},"9100302":{"post_code":"9100302","prefecture":"FUKUI KEN","city":"SAKAI SHI","town":"MARUOKACHO SATOMARUOKA","perfecture_jp":"福井県","jp_add_1":"坂井市","jp_add_2":"丸岡町里丸岡"},"9100223":{"post_code":"9100223","prefecture":"FUKUI KEN","city":"SAKAI SHI","town":"MARUOKACHO SAMBONGI","perfecture_jp":"福井県","jp_add_1":"坂井市","jp_add_2":"丸岡町三本木"},"9100316":{"post_code":"9100316","prefecture":"FUKUI KEN","city":"SAKAI SHI","town":"MARUOKACHO SHINOKA","perfecture_jp":"福井県","jp_add_1":"坂井市","jp_add_2":"丸岡町篠岡"},"9100332":{"post_code":"9100332","prefecture":"FUKUI KEN","city":"SAKAI SHI","town":"MARUOKACHO SHIMOKUMEDA","perfecture_jp":"福井県","jp_add_1":"坂井市","jp_add_2":"丸岡町下久米田"},"9100363":{"post_code":"9100363","prefecture":"FUKUI KEN","city":"SAKAI SHI","town":"MARUOKACHO SHIMOYASUTA","perfecture_jp":"福井県","jp_add_1":"坂井市","jp_add_2":"丸岡町下安田"},"9100221":{"post_code":"9100221","prefecture":"FUKUI KEN","city":"SAKAI SHI","town":"MARUOKACHO JOHOKU","perfecture_jp":"福井県","jp_add_1":"坂井市","jp_add_2":"丸岡町城北"},"9100345":{"post_code":"9100345","prefecture":"FUKUI KEN","city":"SAKAI SHI","town":"MARUOKACHO SHIROMARU","perfecture_jp":"福井県","jp_add_1":"坂井市","jp_add_2":"丸岡町四郎丸"},"9100369":{"post_code":"9100369","prefecture":"FUKUI KEN","city":"SAKAI SHI","town":"MARUOKACHO SHINKUZURYU","perfecture_jp":"福井県","jp_add_1":"坂井市","jp_add_2":"丸岡町新九頭竜"},"9100337":{"post_code":"9100337","prefecture":"FUKUI KEN","city":"SAKAI SHI","town":"MARUOKACHO SHINNARUKA","perfecture_jp":"福井県","jp_add_1":"坂井市","jp_add_2":"丸岡町新鳴鹿"},"9100352":{"post_code":"9100352","prefecture":"FUKUI KEN","city":"SAKAI SHI","town":"MARUOKACHO SHIMMA","perfecture_jp":"福井県","jp_add_1":"坂井市","jp_add_2":"丸岡町新間"},"9100326":{"post_code":"9100326","prefecture":"FUKUI KEN","city":"SAKAI SHI","town":"MARUOKACHO SUEMASA","perfecture_jp":"福井県","jp_add_1":"坂井市","jp_add_2":"丸岡町末政"},"9100274":{"post_code":"9100274","prefecture":"FUKUI KEN","city":"SAKAI SHI","town":"MARUOKACHO SENDA","perfecture_jp":"福井県","jp_add_1":"坂井市","jp_add_2":"丸岡町千田"},"9100312":{"post_code":"9100312","prefecture":"FUKUI KEN","city":"SAKAI SHI","town":"MARUOKACHO SOSOKI","perfecture_jp":"福井県","jp_add_1":"坂井市","jp_add_2":"丸岡町曽々木"},"9100355":{"post_code":"9100355","prefecture":"FUKUI KEN","city":"SAKAI SHI","town":"MARUOKACHO TAKASE","perfecture_jp":"福井県","jp_add_1":"坂井市","jp_add_2":"丸岡町高瀬"},"9100342":{"post_code":"9100342","prefecture":"FUKUI KEN","city":"SAKAI SHI","town":"MARUOKACHO TAKADA","perfecture_jp":"福井県","jp_add_1":"坂井市","jp_add_2":"丸岡町高田"},"9100373":{"post_code":"9100373","prefecture":"FUKUI KEN","city":"SAKAI SHI","town":"MARUOKACHO TAKAYANAGI","perfecture_jp":"福井県","jp_add_1":"坂井市","jp_add_2":"丸岡町高柳"},"9100235":{"post_code":"9100235","prefecture":"FUKUI KEN","city":"SAKAI SHI","town":"MARUOKACHO TATSUMICHO","perfecture_jp":"福井県","jp_add_1":"坂井市","jp_add_2":"丸岡町巽町"},"9100245":{"post_code":"9100245","prefecture":"FUKUI KEN","city":"SAKAI SHI","town":"MARUOKACHO TANIMACHI","perfecture_jp":"福井県","jp_add_1":"坂井市","jp_add_2":"丸岡町谷町"},"9100338":{"post_code":"9100338","prefecture":"FUKUI KEN","city":"SAKAI SHI","town":"MARUOKACHO TAMEYASU","perfecture_jp":"福井県","jp_add_1":"坂井市","jp_add_2":"丸岡町為安"},"9100213":{"post_code":"9100213","prefecture":"FUKUI KEN","city":"SAKAI SHI","town":"MARUOKACHO TAYA","perfecture_jp":"福井県","jp_add_1":"坂井市","jp_add_2":"丸岡町田屋"},"9100349":{"post_code":"9100349","prefecture":"FUKUI KEN","city":"SAKAI SHI","town":"MARUOKACHO TAMBO","perfecture_jp":"福井県","jp_add_1":"坂井市","jp_add_2":"丸岡町反保"},"9100353":{"post_code":"9100353","prefecture":"FUKUI KEN","city":"SAKAI SHI","town":"MARUOKACHO CHIKUGOSHOZU","perfecture_jp":"福井県","jp_add_1":"坂井市","jp_add_2":"丸岡町筑後清水"},"9100208":{"post_code":"9100208","prefecture":"FUKUI KEN","city":"SAKAI SHI","town":"MARUOKACHO TSUBOE","perfecture_jp":"福井県","jp_add_1":"坂井市","jp_add_2":"丸岡町坪江"},"9100343":{"post_code":"9100343","prefecture":"FUKUI KEN","city":"SAKAI SHI","town":"MARUOKACHO TSUBONOCHI","perfecture_jp":"福井県","jp_add_1":"坂井市","jp_add_2":"丸岡町坪ノ内"},"9100233":{"post_code":"9100233","prefecture":"FUKUI KEN","city":"SAKAI SHI","town":"MARUOKACHO TOYO","perfecture_jp":"福井県","jp_add_1":"坂井市","jp_add_2":"丸岡町東陽"},"9100244":{"post_code":"9100244","prefecture":"FUKUI KEN","city":"SAKAI SHI","town":"MARUOKACHO TOMITAMACHI","perfecture_jp":"福井県","jp_add_1":"坂井市","jp_add_2":"丸岡町富田町"},"9100344":{"post_code":"9100344","prefecture":"FUKUI KEN","city":"SAKAI SHI","town":"MARUOKACHO TOMOSUE","perfecture_jp":"福井県","jp_add_1":"坂井市","jp_add_2":"丸岡町友末"},"9100311":{"post_code":"9100311","prefecture":"FUKUI KEN","city":"SAKAI SHI","town":"MARUOKACHO TOYOHARA","perfecture_jp":"福井県","jp_add_1":"坂井市","jp_add_2":"丸岡町豊原"},"9100354":{"post_code":"9100354","prefecture":"FUKUI KEN","city":"SAKAI SHI","town":"MARUOKACHO TOYOHARATAKASE","perfecture_jp":"福井県","jp_add_1":"坂井市","jp_add_2":"丸岡町豊原高瀬"},"9100351":{"post_code":"9100351","prefecture":"FUKUI KEN","city":"SAKAI SHI","town":"MARUOKACHO TORAKUNI","perfecture_jp":"福井県","jp_add_1":"坂井市","jp_add_2":"丸岡町寅国"},"9100383":{"post_code":"9100383","prefecture":"FUKUI KEN","city":"SAKAI SHI","town":"MARUOKACHO NAGASAKI","perfecture_jp":"福井県","jp_add_1":"坂井市","jp_add_2":"丸岡町長崎"},"9100246":{"post_code":"9100246","prefecture":"FUKUI KEN","city":"SAKAI SHI","town":"MARUOKACHO NISHIURIYA","perfecture_jp":"福井県","jp_add_1":"坂井市","jp_add_2":"丸岡町西瓜屋"},"9100242":{"post_code":"9100242","prefecture":"FUKUI KEN","city":"SAKAI SHI","town":"MARUOKACHO NISHISATOMARUOKA","perfecture_jp":"福井県","jp_add_1":"坂井市","jp_add_2":"丸岡町西里丸岡"},"9100273":{"post_code":"9100273","prefecture":"FUKUI KEN","city":"SAKAI SHI","town":"MARUOKACHO NONE","perfecture_jp":"福井県","jp_add_1":"坂井市","jp_add_2":"丸岡町長畝"},"9100323":{"post_code":"9100323","prefecture":"FUKUI KEN","city":"SAKAI SHI","town":"MARUOKACHO NONAKASANNO","perfecture_jp":"福井県","jp_add_1":"坂井市","jp_add_2":"丸岡町野中山王"},"9100272":{"post_code":"9100272","prefecture":"FUKUI KEN","city":"SAKAI SHI","town":"MARUOKACHO NORIKANE","perfecture_jp":"福井県","jp_add_1":"坂井市","jp_add_2":"丸岡町乗兼"},"9100367":{"post_code":"9100367","prefecture":"FUKUI KEN","city":"SAKAI SHI","town":"MARUOKACHO HASAKI","perfecture_jp":"福井県","jp_add_1":"坂井市","jp_add_2":"丸岡町羽崎"},"9100214":{"post_code":"9100214","prefecture":"FUKUI KEN","city":"SAKAI SHI","town":"MARUOKACHO HATAKENAKA","perfecture_jp":"福井県","jp_add_1":"坂井市","jp_add_2":"丸岡町畑中"},"9100305":{"post_code":"9100305","prefecture":"FUKUI KEN","city":"SAKAI SHI","town":"MARUOKACHO HACHIMANCHO","perfecture_jp":"福井県","jp_add_1":"坂井市","jp_add_2":"丸岡町八幡町"},"9100224":{"post_code":"9100224","prefecture":"FUKUI KEN","city":"SAKAI SHI","town":"MARUOKACHO HAKKAGO","perfecture_jp":"福井県","jp_add_1":"坂井市","jp_add_2":"丸岡町八ケ郷"},"9100364":{"post_code":"9100364","prefecture":"FUKUI KEN","city":"SAKAI SHI","town":"MARUOKACHO HATCHO","perfecture_jp":"福井県","jp_add_1":"坂井市","jp_add_2":"丸岡町八丁"},"9100261":{"post_code":"9100261","prefecture":"FUKUI KEN","city":"SAKAI SHI","town":"MARUOKACHO HARINOKI","perfecture_jp":"福井県","jp_add_1":"坂井市","jp_add_2":"丸岡町針ノ木"},"9100334":{"post_code":"9100334","prefecture":"FUKUI KEN","city":"SAKAI SHI","town":"MARUOKACHO HIGASHIFUTATSUYA","perfecture_jp":"福井県","jp_add_1":"坂井市","jp_add_2":"丸岡町東二ツ屋"},"9100222":{"post_code":"9100222","prefecture":"FUKUI KEN","city":"SAKAI SHI","town":"MARUOKACHO FUSEYA","perfecture_jp":"福井県","jp_add_1":"坂井市","jp_add_2":"丸岡町伏屋"},"9100381":{"post_code":"9100381","prefecture":"FUKUI KEN","city":"SAKAI SHI","town":"MARUOKACHO FUNAYOSE","perfecture_jp":"福井県","jp_add_1":"坂井市","jp_add_2":"丸岡町舟寄"},"9100271":{"post_code":"9100271","prefecture":"FUKUI KEN","city":"SAKAI SHI","town":"MARUOKACHO HORIMIZU","perfecture_jp":"福井県","jp_add_1":"坂井市","jp_add_2":"丸岡町堀水"},"9100236":{"post_code":"9100236","prefecture":"FUKUI KEN","city":"SAKAI SHI","town":"MARUOKACHO HOMMACHI","perfecture_jp":"福井県","jp_add_1":"坂井市","jp_add_2":"丸岡町本町"},"9100314":{"post_code":"9100314","prefecture":"FUKUI KEN","city":"SAKAI SHI","town":"MARUOKACHO MASUTA","perfecture_jp":"福井県","jp_add_1":"坂井市","jp_add_2":"丸岡町舛田"},"9100225":{"post_code":"9100225","prefecture":"FUKUI KEN","city":"SAKAI SHI","town":"MARUOKACHO MATSUKAWA","perfecture_jp":"福井県","jp_add_1":"坂井市","jp_add_2":"丸岡町松川"},"9100226":{"post_code":"9100226","prefecture":"FUKUI KEN","city":"SAKAI SHI","town":"MARUOKACHO MATSUKAWACHO","perfecture_jp":"福井県","jp_add_1":"坂井市","jp_add_2":"丸岡町松川町"},"9100350":{"post_code":"9100350","prefecture":"FUKUI KEN","city":"SAKAI SHI","town":"MARUOKACHO MINAMIIMAICHI","perfecture_jp":"福井県","jp_add_1":"坂井市","jp_add_2":"丸岡町南今市"},"9100375":{"post_code":"9100375","prefecture":"FUKUI KEN","city":"SAKAI SHI","town":"MARUOKACHO MINAMIYOKOJI","perfecture_jp":"福井県","jp_add_1":"坂井市","jp_add_2":"丸岡町南横地"},"9100252":{"post_code":"9100252","prefecture":"FUKUI KEN","city":"SAKAI SHI","town":"MARUOKACHO MIYUKI","perfecture_jp":"福井県","jp_add_1":"坂井市","jp_add_2":"丸岡町御幸"},"9100361":{"post_code":"9100361","prefecture":"FUKUI KEN","city":"SAKAI SHI","town":"MARUOKACHO YASUTASHIN","perfecture_jp":"福井県","jp_add_1":"坂井市","jp_add_2":"丸岡町安田新"},"9100371":{"post_code":"9100371","prefecture":"FUKUI KEN","city":"SAKAI SHI","town":"MARUOKACHO YATSUKUCHI","perfecture_jp":"福井県","jp_add_1":"坂井市","jp_add_2":"丸岡町八ツ口"},"9100241":{"post_code":"9100241","prefecture":"FUKUI KEN","city":"SAKAI SHI","town":"MARUOKACHO YANAGIMACHI","perfecture_jp":"福井県","jp_add_1":"坂井市","jp_add_2":"丸岡町柳町"},"9100203":{"post_code":"9100203","prefecture":"FUKUI KEN","city":"SAKAI SHI","town":"MARUOKACHO YAMAGUCHI","perfecture_jp":"福井県","jp_add_1":"坂井市","jp_add_2":"丸岡町山口"},"9100207":{"post_code":"9100207","prefecture":"FUKUI KEN","city":"SAKAI SHI","town":"MARUOKACHO YAMAKUBO","perfecture_jp":"福井県","jp_add_1":"坂井市","jp_add_2":"丸岡町山久保"},"9100321":{"post_code":"9100321","prefecture":"FUKUI KEN","city":"SAKAI SHI","town":"MARUOKACHO YAMASAKISANGA","perfecture_jp":"福井県","jp_add_1":"坂井市","jp_add_2":"丸岡町山崎三ケ"},"9100204":{"post_code":"9100204","prefecture":"FUKUI KEN","city":"SAKAI SHI","town":"MARUOKACHO YAMATAKEDA","perfecture_jp":"福井県","jp_add_1":"坂井市","jp_add_2":"丸岡町山竹田"},"9100215":{"post_code":"9100215","prefecture":"FUKUI KEN","city":"SAKAI SHI","town":"MARUOKACHO YOKAWA","perfecture_jp":"福井県","jp_add_1":"坂井市","jp_add_2":"丸岡町与河"},"9100372":{"post_code":"9100372","prefecture":"FUKUI KEN","city":"SAKAI SHI","town":"MARUOKACHO YOSHIMASA","perfecture_jp":"福井県","jp_add_1":"坂井市","jp_add_2":"丸岡町吉政"},"9100384":{"post_code":"9100384","prefecture":"FUKUI KEN","city":"SAKAI SHI","town":"MARUOKACHO YOTSUYA","perfecture_jp":"福井県","jp_add_1":"坂井市","jp_add_2":"丸岡町四ツ屋"},"9100341":{"post_code":"9100341","prefecture":"FUKUI KEN","city":"SAKAI SHI","town":"MARUOKACHO YOTSUYANAGI","perfecture_jp":"福井県","jp_add_1":"坂井市","jp_add_2":"丸岡町四ツ柳"},"9100339":{"post_code":"9100339","prefecture":"FUKUI KEN","city":"SAKAI SHI","town":"MARUOKACHO YORINAGA","perfecture_jp":"福井県","jp_add_1":"坂井市","jp_add_2":"丸岡町寄永"},"9100336":{"post_code":"9100336","prefecture":"FUKUI KEN","city":"SAKAI SHI","town":"MARUOKACHO RAKUMA","perfecture_jp":"福井県","jp_add_1":"坂井市","jp_add_2":"丸岡町楽間"},"9101100":{"post_code":"9101100","prefecture":"FUKUI KEN","city":"YOSHIDA GUN EIHEIJI CHO","town":"IKANIKEISAIGANAIBAAI","perfecture_jp":"福井県","jp_add_1":"吉田郡永平寺町","jp_add_2":""},"9101323":{"post_code":"9101323","prefecture":"FUKUI KEN","city":"YOSHIDA GUN EIHEIJI CHO","town":"AZAMI","perfecture_jp":"福井県","jp_add_1":"吉田郡永平寺町","jp_add_2":"浅見"},"9101227":{"post_code":"9101227","prefecture":"FUKUI KEN","city":"YOSHIDA GUN EIHEIJI CHO","town":"ARATANI","perfecture_jp":"福井県","jp_add_1":"吉田郡永平寺町","jp_add_2":"荒谷"},"9101217":{"post_code":"9101217","prefecture":"FUKUI KEN","city":"YOSHIDA GUN EIHEIJI CHO","town":"IIJIMA","perfecture_jp":"福井県","jp_add_1":"吉田郡永平寺町","jp_add_2":"飯島"},"9101313":{"post_code":"9101313","prefecture":"FUKUI KEN","city":"YOSHIDA GUN EIHEIJI CHO","town":"ISHIGAMI","perfecture_jp":"福井県","jp_add_1":"吉田郡永平寺町","jp_add_2":"石上"},"9101302":{"post_code":"9101302","prefecture":"FUKUI KEN","city":"YOSHIDA GUN EIHEIJI CHO","town":"ICHIARAKAWA","perfecture_jp":"福井県","jp_add_1":"吉田郡永平寺町","jp_add_2":"市荒川"},"9101316":{"post_code":"9101316","prefecture":"FUKUI KEN","city":"YOSHIDA GUN EIHEIJI CHO","town":"ICHIUEMONJIMA","perfecture_jp":"福井県","jp_add_1":"吉田郡永平寺町","jp_add_2":"市右エ門島"},"9101226":{"post_code":"9101226","prefecture":"FUKUI KEN","city":"YOSHIDA GUN EIHEIJI CHO","town":"ICHINONO","perfecture_jp":"福井県","jp_add_1":"吉田郡永平寺町","jp_add_2":"市野々"},"9101204":{"post_code":"9101204","prefecture":"FUKUI KEN","city":"YOSHIDA GUN EIHEIJI CHO","town":"IWANO","perfecture_jp":"福井県","jp_add_1":"吉田郡永平寺町","jp_add_2":"岩野"},"9101322":{"post_code":"9101322","prefecture":"FUKUI KEN","city":"YOSHIDA GUN EIHEIJI CHO","town":"OTSUKI","perfecture_jp":"福井県","jp_add_1":"吉田郡永平寺町","jp_add_2":"大月"},"9101311":{"post_code":"9101311","prefecture":"FUKUI KEN","city":"YOSHIDA GUN EIHEIJI CHO","town":"ONOJIMA","perfecture_jp":"福井県","jp_add_1":"吉田郡永平寺町","jp_add_2":"大野島"},"9101203":{"post_code":"9101203","prefecture":"FUKUI KEN","city":"YOSHIDA GUN EIHEIJI CHO","town":"KAMIJOHOJI","perfecture_jp":"福井県","jp_add_1":"吉田郡永平寺町","jp_add_2":"上浄法寺"},"9101325":{"post_code":"9101325","prefecture":"FUKUI KEN","city":"YOSHIDA GUN EIHEIJI CHO","town":"KITAJIMA","perfecture_jp":"福井県","jp_add_1":"吉田郡永平寺町","jp_add_2":"北島"},"9101225":{"post_code":"9101225","prefecture":"FUKUI KEN","city":"YOSHIDA GUN EIHEIJI CHO","town":"KYOZEN","perfecture_jp":"福井県","jp_add_1":"吉田郡永平寺町","jp_add_2":"京善"},"9101314":{"post_code":"9101314","prefecture":"FUKUI KEN","city":"YOSHIDA GUN EIHEIJI CHO","town":"KURISUNAMI","perfecture_jp":"福井県","jp_add_1":"吉田郡永平寺町","jp_add_2":"栗住波"},"9101223":{"post_code":"9101223","prefecture":"FUKUI KEN","city":"YOSHIDA GUN EIHEIJI CHO","town":"KEYAKIDAI","perfecture_jp":"福井県","jp_add_1":"吉田郡永平寺町","jp_add_2":"けやき台"},"9101216":{"post_code":"9101216","prefecture":"FUKUI KEN","city":"YOSHIDA GUN EIHEIJI CHO","town":"KOMYOJI","perfecture_jp":"福井県","jp_add_1":"吉田郡永平寺町","jp_add_2":"光明寺"},"9101321":{"post_code":"9101321","prefecture":"FUKUI KEN","city":"YOSHIDA GUN EIHEIJI CHO","town":"SANNO","perfecture_jp":"福井県","jp_add_1":"吉田郡永平寺町","jp_add_2":"山王"},"9101228":{"post_code":"9101228","prefecture":"FUKUI KEN","city":"YOSHIDA GUN EIHEIJI CHO","town":"SHIHI","perfecture_jp":"福井県","jp_add_1":"吉田郡永平寺町","jp_add_2":"志比"},"9101312":{"post_code":"9101312","prefecture":"FUKUI KEN","city":"YOSHIDA GUN EIHEIJI CHO","town":"SHIMIZU","perfecture_jp":"福井県","jp_add_1":"吉田郡永平寺町","jp_add_2":"清水"},"9101202":{"post_code":"9101202","prefecture":"FUKUI KEN","city":"YOSHIDA GUN EIHEIJI CHO","town":"SHIMOJOHOJI","perfecture_jp":"福井県","jp_add_1":"吉田郡永平寺町","jp_add_2":"下浄法寺"},"9101222":{"post_code":"9101222","prefecture":"FUKUI KEN","city":"YOSHIDA GUN EIHEIJI CHO","town":"SUWAMA","perfecture_jp":"福井県","jp_add_1":"吉田郡永平寺町","jp_add_2":"諏訪間"},"9101315":{"post_code":"9101315","prefecture":"FUKUI KEN","city":"YOSHIDA GUN EIHEIJI CHO","town":"SESERAGI","perfecture_jp":"福井県","jp_add_1":"吉田郡永平寺町","jp_add_2":"せせらぎ"},"9101213":{"post_code":"9101213","prefecture":"FUKUI KEN","city":"YOSHIDA GUN EIHEIJI CHO","town":"TAKAHASHI","perfecture_jp":"福井県","jp_add_1":"吉田郡永平寺町","jp_add_2":"高橋"},"9101305":{"post_code":"9101305","prefecture":"FUKUI KEN","city":"YOSHIDA GUN EIHEIJI CHO","town":"TAKEHARA","perfecture_jp":"福井県","jp_add_1":"吉田郡永平寺町","jp_add_2":"竹原"},"9101214":{"post_code":"9101214","prefecture":"FUKUI KEN","city":"YOSHIDA GUN EIHEIJI CHO","town":"TANIGUCHI","perfecture_jp":"福井県","jp_add_1":"吉田郡永平寺町","jp_add_2":"谷口"},"9101224":{"post_code":"9101224","prefecture":"FUKUI KEN","city":"YOSHIDA GUN EIHEIJI CHO","town":"TERAMOTO","perfecture_jp":"福井県","jp_add_1":"吉田郡永平寺町","jp_add_2":"寺本"},"9101206":{"post_code":"9101206","prefecture":"FUKUI KEN","city":"YOSHIDA GUN EIHEIJI CHO","town":"TOCHIHARA","perfecture_jp":"福井県","jp_add_1":"吉田郡永平寺町","jp_add_2":"栃原"},"9101218":{"post_code":"9101218","prefecture":"FUKUI KEN","city":"YOSHIDA GUN EIHEIJI CHO","town":"DOMEKI","perfecture_jp":"福井県","jp_add_1":"吉田郡永平寺町","jp_add_2":"轟"},"9101301":{"post_code":"9101301","prefecture":"FUKUI KEN","city":"YOSHIDA GUN EIHEIJI CHO","town":"NAKAJIMA","perfecture_jp":"福井県","jp_add_1":"吉田郡永平寺町","jp_add_2":"中島"},"9101201":{"post_code":"9101201","prefecture":"FUKUI KEN","city":"YOSHIDA GUN EIHEIJI CHO","town":"NARUKASANGA","perfecture_jp":"福井県","jp_add_1":"吉田郡永平寺町","jp_add_2":"鳴鹿山鹿"},"9101324":{"post_code":"9101324","prefecture":"FUKUI KEN","city":"YOSHIDA GUN EIHEIJI CHO","town":"NONAKA","perfecture_jp":"福井県","jp_add_1":"吉田郡永平寺町","jp_add_2":"野中"},"9101215":{"post_code":"9101215","prefecture":"FUKUI KEN","city":"YOSHIDA GUN EIHEIJI CHO","town":"HANADANI","perfecture_jp":"福井県","jp_add_1":"吉田郡永平寺町","jp_add_2":"花谷"},"9101212":{"post_code":"9101212","prefecture":"FUKUI KEN","city":"YOSHIDA GUN EIHEIJI CHO","town":"HIGASHIFURUICHI","perfecture_jp":"福井県","jp_add_1":"吉田郡永平寺町","jp_add_2":"東古市"},"9101303":{"post_code":"9101303","prefecture":"FUKUI KEN","city":"YOSHIDA GUN EIHEIJI CHO","town":"FUJIMAKI","perfecture_jp":"福井県","jp_add_1":"吉田郡永平寺町","jp_add_2":"藤巻"},"9101211":{"post_code":"9101211","prefecture":"FUKUI KEN","city":"YOSHIDA GUN EIHEIJI CHO","town":"HOJIOKA","perfecture_jp":"福井県","jp_add_1":"吉田郡永平寺町","jp_add_2":"法寺岡"},"9101326":{"post_code":"9101326","prefecture":"FUKUI KEN","city":"YOSHIDA GUN EIHEIJI CHO","town":"MAKIFUKUSHIMA","perfecture_jp":"福井県","jp_add_1":"吉田郡永平寺町","jp_add_2":"牧福島"},"9101132":{"post_code":"9101132","prefecture":"FUKUI KEN","city":"YOSHIDA GUN EIHEIJI CHO","town":"MATSUOKA AOI","perfecture_jp":"福井県","jp_add_1":"吉田郡永平寺町","jp_add_2":"松岡葵"},"9101115":{"post_code":"9101115","prefecture":"FUKUI KEN","city":"YOSHIDA GUN EIHEIJI CHO","town":"MATSUOKA ISHIFUNE","perfecture_jp":"福井県","jp_add_1":"吉田郡永平寺町","jp_add_2":"松岡石舟"},"9101126":{"post_code":"9101126","prefecture":"FUKUI KEN","city":"YOSHIDA GUN EIHEIJI CHO","town":"MATSUOKA OBATA","perfecture_jp":"福井県","jp_add_1":"吉田郡永平寺町","jp_add_2":"松岡小畑"},"9101102":{"post_code":"9101102","prefecture":"FUKUI KEN","city":"YOSHIDA GUN EIHEIJI CHO","town":"MATSUOKA GAKUEN","perfecture_jp":"福井県","jp_add_1":"吉田郡永平寺町","jp_add_2":"松岡学園"},"9101133":{"post_code":"9101133","prefecture":"FUKUI KEN","city":"YOSHIDA GUN EIHEIJI CHO","town":"MATSUOKA KASUGA","perfecture_jp":"福井県","jp_add_1":"吉田郡永平寺町","jp_add_2":"松岡春日"},"9101103":{"post_code":"9101103","prefecture":"FUKUI KEN","city":"YOSHIDA GUN EIHEIJI CHO","town":"MATSUOKA KAMIAIZUKI","perfecture_jp":"福井県","jp_add_1":"吉田郡永平寺町","jp_add_2":"松岡上合月"},"9101124":{"post_code":"9101124","prefecture":"FUKUI KEN","city":"YOSHIDA GUN EIHEIJI CHO","town":"MATSUOKA KAMIYOSHINO","perfecture_jp":"福井県","jp_add_1":"吉田郡永平寺町","jp_add_2":"松岡上吉野"},"9101137":{"post_code":"9101137","prefecture":"FUKUI KEN","city":"YOSHIDA GUN EIHEIJI CHO","town":"MATSUOKA KANNON","perfecture_jp":"福井県","jp_add_1":"吉田郡永平寺町","jp_add_2":"松岡観音"},"9101131":{"post_code":"9101131","prefecture":"FUKUI KEN","city":"YOSHIDA GUN EIHEIJI CHO","town":"MATSUOKA KUNUGI","perfecture_jp":"福井県","jp_add_1":"吉田郡永平寺町","jp_add_2":"松岡椚"},"9101136":{"post_code":"9101136","prefecture":"FUKUI KEN","city":"YOSHIDA GUN EIHEIJI CHO","town":"MATSUOKA KUBO","perfecture_jp":"福井県","jp_add_1":"吉田郡永平寺町","jp_add_2":"松岡窪"},"9101142":{"post_code":"9101142","prefecture":"FUKUI KEN","city":"YOSHIDA GUN EIHEIJI CHO","town":"MATSUOKA KENJOJIMA","perfecture_jp":"福井県","jp_add_1":"吉田郡永平寺町","jp_add_2":"松岡兼定島"},"9101112":{"post_code":"9101112","prefecture":"FUKUI KEN","city":"YOSHIDA GUN EIHEIJI CHO","town":"MATSUOKA KOISAKA","perfecture_jp":"福井県","jp_add_1":"吉田郡永平寺町","jp_add_2":"松岡越坂"},"9101106":{"post_code":"9101106","prefecture":"FUKUI KEN","city":"YOSHIDA GUN EIHEIJI CHO","town":"MATSUOKA GOKURYO","perfecture_jp":"福井県","jp_add_1":"吉田郡永平寺町","jp_add_2":"松岡御公領"},"9101139":{"post_code":"9101139","prefecture":"FUKUI KEN","city":"YOSHIDA GUN EIHEIJI CHO","town":"MATSUOKA KONOSHITA","perfecture_jp":"福井県","jp_add_1":"吉田郡永平寺町","jp_add_2":"松岡木ノ下"},"9101134":{"post_code":"9101134","prefecture":"FUKUI KEN","city":"YOSHIDA GUN EIHEIJI CHO","town":"MATSUOKA SHIBAHARA","perfecture_jp":"福井県","jp_add_1":"吉田郡永平寺町","jp_add_2":"松岡芝原"},"9101111":{"post_code":"9101111","prefecture":"FUKUI KEN","city":"YOSHIDA GUN EIHEIJI CHO","town":"MATSUOKA SHIHIZAKAI","perfecture_jp":"福井県","jp_add_1":"吉田郡永平寺町","jp_add_2":"松岡志比堺"},"9101116":{"post_code":"9101116","prefecture":"FUKUI KEN","city":"YOSHIDA GUN EIHEIJI CHO","town":"MATSUOKA SHIMIZU","perfecture_jp":"福井県","jp_add_1":"吉田郡永平寺町","jp_add_2":"松岡清水"},"9101104":{"post_code":"9101104","prefecture":"FUKUI KEN","city":"YOSHIDA GUN EIHEIJI CHO","town":"MATSUOKA SHIMOAIZUKI","perfecture_jp":"福井県","jp_add_1":"吉田郡永平寺町","jp_add_2":"松岡下合月"},"9101114":{"post_code":"9101114","prefecture":"FUKUI KEN","city":"YOSHIDA GUN EIHEIJI CHO","town":"MATSUOKA JOTO","perfecture_jp":"福井県","jp_add_1":"吉田郡永平寺町","jp_add_2":"松岡城東"},"9101117":{"post_code":"9101117","prefecture":"FUKUI KEN","city":"YOSHIDA GUN EIHEIJI CHO","town":"MATSUOKA SHIMMEI","perfecture_jp":"福井県","jp_add_1":"吉田郡永平寺町","jp_add_2":"松岡神明"},"9101105":{"post_code":"9101105","prefecture":"FUKUI KEN","city":"YOSHIDA GUN EIHEIJI CHO","town":"MATSUOKA SUEMASA","perfecture_jp":"福井県","jp_add_1":"吉田郡永平寺町","jp_add_2":"松岡末政"},"9101125":{"post_code":"9101125","prefecture":"FUKUI KEN","city":"YOSHIDA GUN EIHEIJI CHO","town":"MATSUOKA NISHINONAKA","perfecture_jp":"福井県","jp_add_1":"吉田郡永平寺町","jp_add_2":"松岡西野中"},"9101101":{"post_code":"9101101","prefecture":"FUKUI KEN","city":"YOSHIDA GUN EIHEIJI CHO","town":"MATSUOKA HIZUME","perfecture_jp":"福井県","jp_add_1":"吉田郡永平寺町","jp_add_2":"松岡樋爪"},"9101144":{"post_code":"9101144","prefecture":"FUKUI KEN","city":"YOSHIDA GUN EIHEIJI CHO","town":"MATSUOKA HEISEI","perfecture_jp":"福井県","jp_add_1":"吉田郡永平寺町","jp_add_2":"松岡平成"},"9101113":{"post_code":"9101113","prefecture":"FUKUI KEN","city":"YOSHIDA GUN EIHEIJI CHO","town":"MATSUOKA MATSUGAOKA","perfecture_jp":"福井県","jp_add_1":"吉田郡永平寺町","jp_add_2":"松岡松ケ丘"},"9101138":{"post_code":"9101138","prefecture":"FUKUI KEN","city":"YOSHIDA GUN EIHEIJI CHO","town":"MATSUOKA MATSUGAHARA","perfecture_jp":"福井県","jp_add_1":"吉田郡永平寺町","jp_add_2":"松岡松ケ原"},"9101122":{"post_code":"9101122","prefecture":"FUKUI KEN","city":"YOSHIDA GUN EIHEIJI CHO","town":"MATSUOKA MIYASHIGE","perfecture_jp":"福井県","jp_add_1":"吉田郡永平寺町","jp_add_2":"松岡宮重"},"9101135":{"post_code":"9101135","prefecture":"FUKUI KEN","city":"YOSHIDA GUN EIHEIJI CHO","town":"MATSUOKA MURO","perfecture_jp":"福井県","jp_add_1":"吉田郡永平寺町","jp_add_2":"松岡室"},"9101118":{"post_code":"9101118","prefecture":"FUKUI KEN","city":"YOSHIDA GUN EIHEIJI CHO","town":"MATSUOKA YAKUSHI","perfecture_jp":"福井県","jp_add_1":"吉田郡永平寺町","jp_add_2":"松岡薬師"},"9101123":{"post_code":"9101123","prefecture":"FUKUI KEN","city":"YOSHIDA GUN EIHEIJI CHO","town":"MATSUOKA YUDANI","perfecture_jp":"福井県","jp_add_1":"吉田郡永平寺町","jp_add_2":"松岡湯谷"},"9101121":{"post_code":"9101121","prefecture":"FUKUI KEN","city":"YOSHIDA GUN EIHEIJI CHO","town":"MATSUOKA YOSHINO","perfecture_jp":"福井県","jp_add_1":"吉田郡永平寺町","jp_add_2":"松岡吉野"},"9101127":{"post_code":"9101127","prefecture":"FUKUI KEN","city":"YOSHIDA GUN EIHEIJI CHO","town":"MATSUOKA YOSHINOZAKAI","perfecture_jp":"福井県","jp_add_1":"吉田郡永平寺町","jp_add_2":"松岡吉野堺"},"9101141":{"post_code":"9101141","prefecture":"FUKUI KEN","city":"YOSHIDA GUN EIHEIJI CHO","town":"MATSUOKA RYOKE","perfecture_jp":"福井県","jp_add_1":"吉田郡永平寺町","jp_add_2":"松岡領家"},"9101143":{"post_code":"9101143","prefecture":"FUKUI KEN","city":"YOSHIDA GUN EIHEIJI CHO","town":"MATSUOKA WATARISHINDEN","perfecture_jp":"福井県","jp_add_1":"吉田郡永平寺町","jp_add_2":"松岡渡新田"},"9101221":{"post_code":"9101221","prefecture":"FUKUI KEN","city":"YOSHIDA GUN EIHEIJI CHO","town":"YAMA","perfecture_jp":"福井県","jp_add_1":"吉田郡永平寺町","jp_add_2":"山"},"9101205":{"post_code":"9101205","prefecture":"FUKUI KEN","city":"YOSHIDA GUN EIHEIJI CHO","town":"YOSHINAMI","perfecture_jp":"福井県","jp_add_1":"吉田郡永平寺町","jp_add_2":"吉波"},"9101304":{"post_code":"9101304","prefecture":"FUKUI KEN","city":"YOSHIDA GUN EIHEIJI CHO","town":"YOSHIMINE","perfecture_jp":"福井県","jp_add_1":"吉田郡永平寺町","jp_add_2":"吉峰"},"9102500":{"post_code":"9102500","prefecture":"FUKUI KEN","city":"IMADATE GUN IKEDA CHO","town":"IKANIKEISAIGANAIBAAI","perfecture_jp":"福井県","jp_add_1":"今立郡池田町","jp_add_2":""},"9102504":{"post_code":"9102504","prefecture":"FUKUI KEN","city":"IMADATE GUN IKEDA CHO","town":"ANZENJI","perfecture_jp":"福井県","jp_add_1":"今立郡池田町","jp_add_2":"安善寺"},"9102515":{"post_code":"9102515","prefecture":"FUKUI KEN","city":"IMADATE GUN IKEDA CHO","town":"IKEDA","perfecture_jp":"福井県","jp_add_1":"今立郡池田町","jp_add_2":"池田"},"9102527":{"post_code":"9102527","prefecture":"FUKUI KEN","city":"IMADATE GUN IKEDA CHO","town":"ITAGAKI","perfecture_jp":"福井県","jp_add_1":"今立郡池田町","jp_add_2":"板垣"},"9102525":{"post_code":"9102525","prefecture":"FUKUI KEN","city":"IMADATE GUN IKEDA CHO","town":"ICHI","perfecture_jp":"福井県","jp_add_1":"今立郡池田町","jp_add_2":"市"},"9102512":{"post_code":"9102512","prefecture":"FUKUI KEN","city":"IMADATE GUN IKEDA CHO","town":"INARI","perfecture_jp":"福井県","jp_add_1":"今立郡池田町","jp_add_2":"稲荷"},"9102534":{"post_code":"9102534","prefecture":"FUKUI KEN","city":"IMADATE GUN IKEDA CHO","town":"UOMI","perfecture_jp":"福井県","jp_add_1":"今立郡池田町","jp_add_2":"魚見"},"9102552":{"post_code":"9102552","prefecture":"FUKUI KEN","city":"IMADATE GUN IKEDA CHO","town":"OMOTO","perfecture_jp":"福井県","jp_add_1":"今立郡池田町","jp_add_2":"大本"},"9102551":{"post_code":"9102551","prefecture":"FUKUI KEN","city":"IMADATE GUN IKEDA CHO","town":"ODARUMI","perfecture_jp":"福井県","jp_add_1":"今立郡池田町","jp_add_2":"尾緩"},"9102557":{"post_code":"9102557","prefecture":"FUKUI KEN","city":"IMADATE GUN IKEDA CHO","town":"OBATAKE","perfecture_jp":"福井県","jp_add_1":"今立郡池田町","jp_add_2":"小畑"},"9102508":{"post_code":"9102508","prefecture":"FUKUI KEN","city":"IMADATE GUN IKEDA CHO","town":"KAKIGAHARA","perfecture_jp":"福井県","jp_add_1":"今立郡池田町","jp_add_2":"柿ケ原"},"9102514":{"post_code":"9102514","prefecture":"FUKUI KEN","city":"IMADATE GUN IKEDA CHO","town":"GAKUEN","perfecture_jp":"福井県","jp_add_1":"今立郡池田町","jp_add_2":"学園"},"9102553":{"post_code":"9102553","prefecture":"FUKUI KEN","city":"IMADATE GUN IKEDA CHO","town":"KAGOKAKE","perfecture_jp":"福井県","jp_add_1":"今立郡池田町","jp_add_2":"籠掛"},"9102554":{"post_code":"9102554","prefecture":"FUKUI KEN","city":"IMADATE GUN IKEDA CHO","town":"KANAMIDANI","perfecture_jp":"福井県","jp_add_1":"今立郡池田町","jp_add_2":"金見谷"},"9102526":{"post_code":"9102526","prefecture":"FUKUI KEN","city":"IMADATE GUN IKEDA CHO","town":"KAMIARATANI","perfecture_jp":"福井県","jp_add_1":"今立郡池田町","jp_add_2":"上荒谷"},"9102523":{"post_code":"9102523","prefecture":"FUKUI KEN","city":"IMADATE GUN IKEDA CHO","town":"SHIZUHARA","perfecture_jp":"福井県","jp_add_1":"今立郡池田町","jp_add_2":"河内"},"9102537":{"post_code":"9102537","prefecture":"FUKUI KEN","city":"IMADATE GUN IKEDA CHO","town":"SADAKATA","perfecture_jp":"福井県","jp_add_1":"今立郡池田町","jp_add_2":"定方"},"9102507":{"post_code":"9102507","prefecture":"FUKUI KEN","city":"IMADATE GUN IKEDA CHO","town":"SHIMIZUTANI","perfecture_jp":"福井県","jp_add_1":"今立郡池田町","jp_add_2":"清水谷"},"9102556":{"post_code":"9102556","prefecture":"FUKUI KEN","city":"IMADATE GUN IKEDA CHO","town":"MATSUGATANI","perfecture_jp":"福井県","jp_add_1":"今立郡池田町","jp_add_2":"白粟"},"9102532":{"post_code":"9102532","prefecture":"FUKUI KEN","city":"IMADATE GUN IKEDA CHO","town":"SHIMBO","perfecture_jp":"福井県","jp_add_1":"今立郡池田町","jp_add_2":"新保"},"9102535":{"post_code":"9102535","prefecture":"FUKUI KEN","city":"IMADATE GUN IKEDA CHO","town":"SUGO","perfecture_jp":"福井県","jp_add_1":"今立郡池田町","jp_add_2":"菅生"},"9102503":{"post_code":"9102503","prefecture":"FUKUI KEN","city":"IMADATE GUN IKEDA CHO","town":"TANIGUCHI","perfecture_jp":"福井県","jp_add_1":"今立郡池田町","jp_add_2":"谷口"},"9102555":{"post_code":"9102555","prefecture":"FUKUI KEN","city":"IMADATE GUN IKEDA CHO","town":"CHIYODANI","perfecture_jp":"福井県","jp_add_1":"今立郡池田町","jp_add_2":"千代谷"},"9102522":{"post_code":"9102522","prefecture":"FUKUI KEN","city":"IMADATE GUN IKEDA CHO","town":"TSUKIGASE","perfecture_jp":"福井県","jp_add_1":"今立郡池田町","jp_add_2":"月ケ瀬"},"9102521":{"post_code":"9102521","prefecture":"FUKUI KEN","city":"IMADATE GUN IKEDA CHO","town":"TSUNEYASU","perfecture_jp":"福井県","jp_add_1":"今立郡池田町","jp_add_2":"常安"},"9102513":{"post_code":"9102513","prefecture":"FUKUI KEN","city":"IMADATE GUN IKEDA CHO","town":"TERAJIMA","perfecture_jp":"福井県","jp_add_1":"今立郡池田町","jp_add_2":"寺島"},"9102517":{"post_code":"9102517","prefecture":"FUKUI KEN","city":"IMADATE GUN IKEDA CHO","town":"TERADANI","perfecture_jp":"福井県","jp_add_1":"今立郡池田町","jp_add_2":"寺谷"},"9102524":{"post_code":"9102524","prefecture":"FUKUI KEN","city":"IMADATE GUN IKEDA CHO","town":"DOAISARAO","perfecture_jp":"福井県","jp_add_1":"今立郡池田町","jp_add_2":"土合皿尾"},"9102536":{"post_code":"9102536","prefecture":"FUKUI KEN","city":"IMADATE GUN IKEDA CHO","town":"NISHIKAKUMA","perfecture_jp":"福井県","jp_add_1":"今立郡池田町","jp_add_2":"西角間"},"9102502":{"post_code":"9102502","prefecture":"FUKUI KEN","city":"IMADATE GUN IKEDA CHO","town":"NOJIRI","perfecture_jp":"福井県","jp_add_1":"今立郡池田町","jp_add_2":"野尻"},"9102531":{"post_code":"9102531","prefecture":"FUKUI KEN","city":"IMADATE GUN IKEDA CHO","town":"HIGASHIKAKUMA","perfecture_jp":"福井県","jp_add_1":"今立郡池田町","jp_add_2":"東角間"},"9102533":{"post_code":"9102533","prefecture":"FUKUI KEN","city":"IMADATE GUN IKEDA CHO","town":"HIGASHIMATA","perfecture_jp":"福井県","jp_add_1":"今立郡池田町","jp_add_2":"東俣"},"9102506":{"post_code":"9102506","prefecture":"FUKUI KEN","city":"IMADATE GUN IKEDA CHO","town":"HIROSE","perfecture_jp":"福井県","jp_add_1":"今立郡池田町","jp_add_2":"広瀬"},"9102505":{"post_code":"9102505","prefecture":"FUKUI KEN","city":"IMADATE GUN IKEDA CHO","town":"MIZUMI","perfecture_jp":"福井県","jp_add_1":"今立郡池田町","jp_add_2":"水海"},"9102501":{"post_code":"9102501","prefecture":"FUKUI KEN","city":"IMADATE GUN IKEDA CHO","town":"MOCHIKOSHI","perfecture_jp":"福井県","jp_add_1":"今立郡池田町","jp_add_2":"持越"},"9102511":{"post_code":"9102511","prefecture":"FUKUI KEN","city":"IMADATE GUN IKEDA CHO","town":"YABUTA","perfecture_jp":"福井県","jp_add_1":"今立郡池田町","jp_add_2":"薮田"},"9102516":{"post_code":"9102516","prefecture":"FUKUI KEN","city":"IMADATE GUN IKEDA CHO","town":"YAMADA","perfecture_jp":"福井県","jp_add_1":"今立郡池田町","jp_add_2":"山田"}}