{"9130053":{"post_code":"9130053","prefecture":"FUKUI KEN","city":"SAKAI SHI","town":"MIKUNICHO AOBADAI","perfecture_jp":"福井県","jp_add_1":"坂井市","jp_add_2":"三国町青葉台"},"9130022":{"post_code":"9130022","prefecture":"FUKUI KEN","city":"SAKAI SHI","town":"MIKUNICHO ABURAYA","perfecture_jp":"福井県","jp_add_1":"坂井市","jp_add_2":"三国町油屋"},"9130063":{"post_code":"9130063","prefecture":"FUKUI KEN","city":"SAKAI SHI","town":"MIKUNICHO ANTO (TOJIMBO)","perfecture_jp":"福井県","jp_add_1":"坂井市","jp_add_2":"三国町安島"},"9130064":{"post_code":"9130064","prefecture":"FUKUI KEN","city":"SAKAI SHI","town":"MIKUNICHO ANTO(SONOTA)","perfecture_jp":"福井県","jp_add_1":"坂井市","jp_add_2":"三国町安島"},"9130001":{"post_code":"9130001","prefecture":"FUKUI KEN","city":"SAKAI SHI","town":"MIKUNICHO IKEGAMI","perfecture_jp":"福井県","jp_add_1":"坂井市","jp_add_2":"三国町池上"},"9130024":{"post_code":"9130024","prefecture":"FUKUI KEN","city":"SAKAI SHI","town":"MIKUNICHO IKEMI","perfecture_jp":"福井県","jp_add_1":"坂井市","jp_add_2":"三国町池見"},"9130023":{"post_code":"9130023","prefecture":"FUKUI KEN","city":"SAKAI SHI","town":"MIKUNICHO ISHIMARU","perfecture_jp":"福井県","jp_add_1":"坂井市","jp_add_2":"三国町石丸"},"9130052":{"post_code":"9130052","prefecture":"FUKUI KEN","city":"SAKAI SHI","town":"MIKUNICHO UNDOKOEN","perfecture_jp":"福井県","jp_add_1":"坂井市","jp_add_2":"三国町運動公園"},"9130035":{"post_code":"9130035","prefecture":"FUKUI KEN","city":"SAKAI SHI","town":"MIKUNICHO YOKOGOSHI","perfecture_jp":"福井県","jp_add_1":"坂井市","jp_add_2":"三国町沖野々"},"9130041":{"post_code":"9130041","prefecture":"FUKUI KEN","city":"SAKAI SHI","town":"MIKUNICHO KAKUZEN","perfecture_jp":"福井県","jp_add_1":"坂井市","jp_add_2":"三国町覚善"},"9130061":{"post_code":"9130061","prefecture":"FUKUI KEN","city":"SAKAI SHI","town":"MIKUNICHO KAJI","perfecture_jp":"福井県","jp_add_1":"坂井市","jp_add_2":"三国町梶"},"9130002":{"post_code":"9130002","prefecture":"FUKUI KEN","city":"SAKAI SHI","town":"MIKUNICHO KADO","perfecture_jp":"福井県","jp_add_1":"坂井市","jp_add_2":"三国町加戸"},"9130025":{"post_code":"9130025","prefecture":"FUKUI KEN","city":"SAKAI SHI","town":"MIKUNICHO KAWASAKI","perfecture_jp":"福井県","jp_add_1":"坂井市","jp_add_2":"三国町川崎"},"9130046":{"post_code":"9130046","prefecture":"FUKUI KEN","city":"SAKAI SHI","town":"MIKUNICHO KITAHOMMACHI","perfecture_jp":"福井県","jp_add_1":"坂井市","jp_add_2":"三国町北本町"},"9130038":{"post_code":"9130038","prefecture":"FUKUI KEN","city":"SAKAI SHI","town":"MIKUNICHO YONOZU (TEKUNOPOTO)","perfecture_jp":"福井県","jp_add_1":"坂井市","jp_add_2":"三国町黒目"},"9130037":{"post_code":"9130037","prefecture":"FUKUI KEN","city":"SAKAI SHI","town":"MIKUNICHO KUROME(SONOTA)","perfecture_jp":"福井県","jp_add_1":"坂井市","jp_add_2":"三国町黒目"},"9130057":{"post_code":"9130057","prefecture":"FUKUI KEN","city":"SAKAI SHI","town":"MIKUNICHO KOMEGAWAKI","perfecture_jp":"福井県","jp_add_1":"坂井市","jp_add_2":"三国町米ケ脇"},"9130065":{"post_code":"9130065","prefecture":"FUKUI KEN","city":"SAKAI SHI","town":"MIKUNICHO SAKI","perfecture_jp":"福井県","jp_add_1":"坂井市","jp_add_2":"三国町崎"},"9130044":{"post_code":"9130044","prefecture":"FUKUI KEN","city":"SAKAI SHI","town":"MIKUNICHO SANNO","perfecture_jp":"福井県","jp_add_1":"坂井市","jp_add_2":"三国町山王"},"9130027":{"post_code":"9130027","prefecture":"FUKUI KEN","city":"SAKAI SHI","town":"MIKUNICHO SHIOMI","perfecture_jp":"福井県","jp_add_1":"坂井市","jp_add_2":"三国町汐見"},"9130033":{"post_code":"9130033","prefecture":"FUKUI KEN","city":"SAKAI SHI","town":"MIKUNICHO SHIMONO","perfecture_jp":"福井県","jp_add_1":"坂井市","jp_add_2":"三国町下野"},"9130056":{"post_code":"9130056","prefecture":"FUKUI KEN","city":"SAKAI SHI","town":"MIKUNICHO SHUKU","perfecture_jp":"福井県","jp_add_1":"坂井市","jp_add_2":"三国町宿"},"9130062":{"post_code":"9130062","prefecture":"FUKUI KEN","city":"SAKAI SHI","town":"MIKUNICHO JINGAOKA","perfecture_jp":"福井県","jp_add_1":"坂井市","jp_add_2":"三国町陣ケ岡"},"9130058":{"post_code":"9130058","prefecture":"FUKUI KEN","city":"SAKAI SHI","town":"MIKUNICHO SHINSHUKU","perfecture_jp":"福井県","jp_add_1":"坂井市","jp_add_2":"三国町新宿"},"9130031":{"post_code":"9130031","prefecture":"FUKUI KEN","city":"SAKAI SHI","town":"MIKUNICHO SHIMBO(SONOTA)","perfecture_jp":"福井県","jp_add_1":"坂井市","jp_add_2":"三国町新保"},"9130047":{"post_code":"9130047","prefecture":"FUKUI KEN","city":"SAKAI SHI","town":"MIKUNICHO SHIMMEI","perfecture_jp":"福井県","jp_add_1":"坂井市","jp_add_2":"三国町神明"},"9130054":{"post_code":"9130054","prefecture":"FUKUI KEN","city":"SAKAI SHI","town":"MIKUNICHO TAKIDANI","perfecture_jp":"福井県","jp_add_1":"坂井市","jp_add_2":"三国町滝谷"},"9130051":{"post_code":"9130051","prefecture":"FUKUI KEN","city":"SAKAI SHI","town":"MIKUNICHO DAKE","perfecture_jp":"福井県","jp_add_1":"坂井市","jp_add_2":"三国町嵩"},"9130017":{"post_code":"9130017","prefecture":"FUKUI KEN","city":"SAKAI SHI","town":"MIKUNICHO TAKEMATSU","perfecture_jp":"福井県","jp_add_1":"坂井市","jp_add_2":"三国町竹松"},"9130042":{"post_code":"9130042","prefecture":"FUKUI KEN","city":"SAKAI SHI","town":"MIKUNICHO CHUO","perfecture_jp":"福井県","jp_add_1":"坂井市","jp_add_2":"三国町中央"},"9130055":{"post_code":"9130055","prefecture":"FUKUI KEN","city":"SAKAI SHI","town":"MIKUNICHO TSUTSUJIGAOKA","perfecture_jp":"福井県","jp_add_1":"坂井市","jp_add_2":"三国町つつじが丘"},"9130014":{"post_code":"9130014","prefecture":"FUKUI KEN","city":"SAKAI SHI","town":"MIKUNICHO TONOE","perfecture_jp":"福井県","jp_add_1":"坂井市","jp_add_2":"三国町玉江"},"9130026":{"post_code":"9130026","prefecture":"FUKUI KEN","city":"SAKAI SHI","town":"MIKUNICHO TONOSHIMA","perfecture_jp":"福井県","jp_add_1":"坂井市","jp_add_2":"三国町殿島"},"9130012":{"post_code":"9130012","prefecture":"FUKUI KEN","city":"SAKAI SHI","town":"MIKUNICHO NISHIIMAICHI","perfecture_jp":"福井県","jp_add_1":"坂井市","jp_add_2":"三国町西今市"},"9130043":{"post_code":"9130043","prefecture":"FUKUI KEN","city":"SAKAI SHI","town":"MIKUNICHO NISHIKI","perfecture_jp":"福井県","jp_add_1":"坂井市","jp_add_2":"三国町錦"},"9130003":{"post_code":"9130003","prefecture":"FUKUI KEN","city":"SAKAI SHI","town":"MIKUNICHO NISHITANI","perfecture_jp":"福井県","jp_add_1":"坂井市","jp_add_2":"三国町西谷"},"9130034":{"post_code":"9130034","prefecture":"FUKUI KEN","city":"SAKAI SHI","town":"MIKUNICHO NISHINONAKA","perfecture_jp":"福井県","jp_add_1":"坂井市","jp_add_2":"三国町西野中"},"9130015":{"post_code":"9130015","prefecture":"FUKUI KEN","city":"SAKAI SHI","town":"MIKUNICHO NONAKA","perfecture_jp":"福井県","jp_add_1":"坂井市","jp_add_2":"三国町野中"},"9130005":{"post_code":"9130005","prefecture":"FUKUI KEN","city":"SAKAI SHI","town":"MIKUNICHO HAMAJI","perfecture_jp":"福井県","jp_add_1":"坂井市","jp_add_2":"三国町浜地"},"9130004":{"post_code":"9130004","prefecture":"FUKUI KEN","city":"SAKAI SHI","town":"MIKUNICHO HIRAYAMA","perfecture_jp":"福井県","jp_add_1":"坂井市","jp_add_2":"三国町平山"},"9130013":{"post_code":"9130013","prefecture":"FUKUI KEN","city":"SAKAI SHI","town":"MIKUNICHO FUJISAWA","perfecture_jp":"福井県","jp_add_1":"坂井市","jp_add_2":"三国町藤沢"},"9130016":{"post_code":"9130016","prefecture":"FUKUI KEN","city":"SAKAI SHI","town":"MIKUNICHO MIKUNIHIGASHI","perfecture_jp":"福井県","jp_add_1":"坂井市","jp_add_2":"三国町三国東"},"9130011":{"post_code":"9130011","prefecture":"FUKUI KEN","city":"SAKAI SHI","town":"MIKUNICHO MIZUI","perfecture_jp":"福井県","jp_add_1":"坂井市","jp_add_2":"三国町水居"},"9130048":{"post_code":"9130048","prefecture":"FUKUI KEN","city":"SAKAI SHI","town":"MIKUNICHO MIDORIGAOKA","perfecture_jp":"福井県","jp_add_1":"坂井市","jp_add_2":"三国町緑ケ丘"},"9130045":{"post_code":"9130045","prefecture":"FUKUI KEN","city":"SAKAI SHI","town":"MIKUNICHO MINAMIHOMMACHI","perfecture_jp":"福井県","jp_add_1":"坂井市","jp_add_2":"三国町南本町"},"9130032":{"post_code":"9130032","prefecture":"FUKUI KEN","city":"SAKAI SHI","town":"MIKUNICHO YAMAGISHI(SONOTA)","perfecture_jp":"福井県","jp_add_1":"坂井市","jp_add_2":"三国町山岸"},"9130036":{"post_code":"9130036","prefecture":"FUKUI KEN","city":"SAKAI SHI","town":"MIKUNICHO YONOZU(SONOTA)","perfecture_jp":"福井県","jp_add_1":"坂井市","jp_add_2":"三国町米納津"},"9130021":{"post_code":"9130021","prefecture":"FUKUI KEN","city":"SAKAI SHI","town":"MIKUNICHO RAKUEN","perfecture_jp":"福井県","jp_add_1":"坂井市","jp_add_2":"三国町楽円"}}