{"9140000":{"post_code":"9140000","prefecture":"FUKUI KEN","city":"TSURUGA SHI","town":"IKANIKEISAIGANAIBAAI","perfecture_jp":"福井県","jp_add_1":"敦賀市","jp_add_2":""},"9140062":{"post_code":"9140062","prefecture":"FUKUI KEN","city":"TSURUGA SHI","town":"AIOICHO","perfecture_jp":"福井県","jp_add_1":"敦賀市","jp_add_2":"相生町"},"9140272":{"post_code":"9140272","prefecture":"FUKUI KEN","city":"TSURUGA SHI","town":"AKASAKI","perfecture_jp":"福井県","jp_add_1":"敦賀市","jp_add_2":"赤崎"},"9140075":{"post_code":"9140075","prefecture":"FUKUI KEN","city":"TSURUGA SHI","town":"AKEBONOCHO","perfecture_jp":"福井県","jp_add_1":"敦賀市","jp_add_2":"曙町"},"9140266":{"post_code":"9140266","prefecture":"FUKUI KEN","city":"TSURUGA SHI","town":"AGENO","perfecture_jp":"福井県","jp_add_1":"敦賀市","jp_add_2":"挙野"},"9140315":{"post_code":"9140315","prefecture":"FUKUI KEN","city":"TSURUGA SHI","town":"ASOGUCHI","perfecture_jp":"福井県","jp_add_1":"敦賀市","jp_add_2":"麻生口"},"9140265":{"post_code":"9140265","prefecture":"FUKUI KEN","city":"TSURUGA SHI","town":"AZO","perfecture_jp":"福井県","jp_add_1":"敦賀市","jp_add_2":"阿曽"},"9140141":{"post_code":"9140141","prefecture":"FUKUI KEN","city":"TSURUGA SHI","town":"AZONO","perfecture_jp":"福井県","jp_add_1":"敦賀市","jp_add_2":"莇生野"},"9140014":{"post_code":"9140014","prefecture":"FUKUI KEN","city":"TSURUGA SHI","town":"IGAWA","perfecture_jp":"福井県","jp_add_1":"敦賀市","jp_add_2":"井川"},"9140004":{"post_code":"9140004","prefecture":"FUKUI KEN","city":"TSURUGA SHI","town":"IKENOKOCHI","perfecture_jp":"福井県","jp_add_1":"敦賀市","jp_add_2":"池河内"},"9140042":{"post_code":"9140042","prefecture":"FUKUI KEN","city":"TSURUGA SHI","town":"ISHIGACHO","perfecture_jp":"福井県","jp_add_1":"敦賀市","jp_add_2":"石ケ町"},"9140021":{"post_code":"9140021","prefecture":"FUKUI KEN","city":"TSURUGA SHI","town":"IZUMIGAOKACHO","perfecture_jp":"福井県","jp_add_1":"敦賀市","jp_add_2":"泉ケ丘町"},"9140124":{"post_code":"9140124","prefecture":"FUKUI KEN","city":"TSURUGA SHI","town":"ICHINONOCHO","perfecture_jp":"福井県","jp_add_1":"敦賀市","jp_add_2":"市野々"},"9140301":{"post_code":"9140301","prefecture":"FUKUI KEN","city":"TSURUGA SHI","town":"ICHIHASHI","perfecture_jp":"福井県","jp_add_1":"敦賀市","jp_add_2":"市橋"},"9140267":{"post_code":"9140267","prefecture":"FUKUI KEN","city":"TSURUGA SHI","town":"ITSUHATA","perfecture_jp":"福井県","jp_add_1":"敦賀市","jp_add_2":"五幡"},"9140805":{"post_code":"9140805","prefecture":"FUKUI KEN","city":"TSURUGA SHI","town":"IMOJICHO","perfecture_jp":"福井県","jp_add_1":"敦賀市","jp_add_2":"鋳物師町"},"9140844":{"post_code":"9140844","prefecture":"FUKUI KEN","city":"TSURUGA SHI","town":"IROHAMA","perfecture_jp":"福井県","jp_add_1":"敦賀市","jp_add_2":"色浜"},"9140003":{"post_code":"9140003","prefecture":"FUKUI KEN","city":"TSURUGA SHI","town":"USOGOCHI","perfecture_jp":"福井県","jp_add_1":"敦賀市","jp_add_2":"獺河内"},"9140843":{"post_code":"9140843","prefecture":"FUKUI KEN","city":"TSURUGA SHI","town":"URASOKO","perfecture_jp":"福井県","jp_add_1":"敦賀市","jp_add_2":"浦底"},"9140825":{"post_code":"9140825","prefecture":"FUKUI KEN","city":"TSURUGA SHI","town":"EIDAICHO","perfecture_jp":"福井県","jp_add_1":"敦賀市","jp_add_2":"永大町"},"9140268":{"post_code":"9140268","prefecture":"FUKUI KEN","city":"TSURUGA SHI","town":"ERA","perfecture_jp":"福井県","jp_add_1":"敦賀市","jp_add_2":"江良"},"9140303":{"post_code":"9140303","prefecture":"FUKUI KEN","city":"TSURUGA SHI","town":"OIWAKE","perfecture_jp":"福井県","jp_add_1":"敦賀市","jp_add_2":"追分"},"9140018":{"post_code":"9140018","prefecture":"FUKUI KEN","city":"TSURUGA SHI","town":"OKURA","perfecture_jp":"福井県","jp_add_1":"敦賀市","jp_add_2":"大蔵"},"9140262":{"post_code":"9140262","prefecture":"FUKUI KEN","city":"TSURUGA SHI","town":"OHIDA","perfecture_jp":"福井県","jp_add_1":"敦賀市","jp_add_2":"大比田"},"9140044":{"post_code":"9140044","prefecture":"FUKUI KEN","city":"TSURUGA SHI","town":"OKAYAMACHO","perfecture_jp":"福井県","jp_add_1":"敦賀市","jp_add_2":"岡山町"},"9140316":{"post_code":"9140316","prefecture":"FUKUI KEN","city":"TSURUGA SHI","town":"OKUASO","perfecture_jp":"福井県","jp_add_1":"敦賀市","jp_add_2":"奥麻生"},"9140311":{"post_code":"9140311","prefecture":"FUKUI KEN","city":"TSURUGA SHI","town":"OKUNO","perfecture_jp":"福井県","jp_add_1":"敦賀市","jp_add_2":"奥野"},"9140032":{"post_code":"9140032","prefecture":"FUKUI KEN","city":"TSURUGA SHI","town":"OGO","perfecture_jp":"福井県","jp_add_1":"敦賀市","jp_add_2":"小河"},"9140034":{"post_code":"9140034","prefecture":"FUKUI KEN","city":"TSURUGA SHI","town":"OGOGUCHI","perfecture_jp":"福井県","jp_add_1":"敦賀市","jp_add_2":"小河口"},"9140006":{"post_code":"9140006","prefecture":"FUKUI KEN","city":"TSURUGA SHI","town":"OSSAKA","perfecture_jp":"福井県","jp_add_1":"敦賀市","jp_add_2":"越坂"},"9140063":{"post_code":"9140063","prefecture":"FUKUI KEN","city":"TSURUGA SHI","town":"KAGURACHO","perfecture_jp":"福井県","jp_add_1":"敦賀市","jp_add_2":"神楽町"},"9140005":{"post_code":"9140005","prefecture":"FUKUI KEN","city":"TSURUGA SHI","town":"KASHIMAGARI","perfecture_jp":"福井県","jp_add_1":"敦賀市","jp_add_2":"樫曲"},"9140146":{"post_code":"9140146","prefecture":"FUKUI KEN","city":"TSURUGA SHI","town":"KANAYAMA","perfecture_jp":"福井県","jp_add_1":"敦賀市","jp_add_2":"金山"},"9140055":{"post_code":"9140055","prefecture":"FUKUI KEN","city":"TSURUGA SHI","town":"KANAWACHO","perfecture_jp":"福井県","jp_add_1":"敦賀市","jp_add_2":"鉄輪町"},"9140072":{"post_code":"9140072","prefecture":"FUKUI KEN","city":"TSURUGA SHI","town":"KANEGASAKICHO","perfecture_jp":"福井県","jp_add_1":"敦賀市","jp_add_2":"金ケ崎町"},"9140066":{"post_code":"9140066","prefecture":"FUKUI KEN","city":"TSURUGA SHI","town":"KAWASAKICHO","perfecture_jp":"福井県","jp_add_1":"敦賀市","jp_add_2":"川崎町"},"9140012":{"post_code":"9140012","prefecture":"FUKUI KEN","city":"TSURUGA SHI","town":"KAWAKITA","perfecture_jp":"福井県","jp_add_1":"敦賀市","jp_add_2":"川北"},"9140015":{"post_code":"9140015","prefecture":"FUKUI KEN","city":"TSURUGA SHI","town":"KAWAHARACHO","perfecture_jp":"福井県","jp_add_1":"敦賀市","jp_add_2":"河原町"},"9140039":{"post_code":"9140039","prefecture":"FUKUI KEN","city":"TSURUGA SHI","town":"HAORICHO","perfecture_jp":"福井県","jp_add_1":"敦賀市","jp_add_2":"観音町"},"9140814":{"post_code":"9140814","prefecture":"FUKUI KEN","city":"TSURUGA SHI","town":"KIZAKI","perfecture_jp":"福井県","jp_add_1":"敦賀市","jp_add_2":"木崎"},"9140043":{"post_code":"9140043","prefecture":"FUKUI KEN","city":"TSURUGA SHI","town":"KINUKAKECHO","perfecture_jp":"福井県","jp_add_1":"敦賀市","jp_add_2":"衣掛町"},"9140026":{"post_code":"9140026","prefecture":"FUKUI KEN","city":"TSURUGA SHI","town":"KINOMECHO","perfecture_jp":"福井県","jp_add_1":"敦賀市","jp_add_2":"木ノ芽町"},"9140052":{"post_code":"9140052","prefecture":"FUKUI KEN","city":"TSURUGA SHI","town":"KIYOMIZUCHO","perfecture_jp":"福井県","jp_add_1":"敦賀市","jp_add_2":"清水町"},"9140821":{"post_code":"9140821","prefecture":"FUKUI KEN","city":"TSURUGA SHI","town":"KUSHIKAWA","perfecture_jp":"福井県","jp_add_1":"敦賀市","jp_add_2":"櫛川"},"9140822":{"post_code":"9140822","prefecture":"FUKUI KEN","city":"TSURUGA SHI","town":"KUSHIKAWACHO","perfecture_jp":"福井県","jp_add_1":"敦賀市","jp_add_2":"櫛川町"},"9140138":{"post_code":"9140138","prefecture":"FUKUI KEN","city":"TSURUGA SHI","town":"KUSHIBAYASHI","perfecture_jp":"福井県","jp_add_1":"敦賀市","jp_add_2":"櫛林"},"9140831":{"post_code":"9140831","prefecture":"FUKUI KEN","city":"TSURUGA SHI","town":"KUTSU","perfecture_jp":"福井県","jp_add_1":"敦賀市","jp_add_2":"沓"},"9140823":{"post_code":"9140823","prefecture":"FUKUI KEN","city":"TSURUGA SHI","town":"KUTSUMI","perfecture_jp":"福井県","jp_add_1":"敦賀市","jp_add_2":"沓見"},"9140059":{"post_code":"9140059","prefecture":"FUKUI KEN","city":"TSURUGA SHI","town":"KUNIHIROCHO","perfecture_jp":"福井県","jp_add_1":"敦賀市","jp_add_2":"国広町"},"9140131":{"post_code":"9140131","prefecture":"FUKUI KEN","city":"TSURUGA SHI","town":"KUMOMMYO","perfecture_jp":"福井県","jp_add_1":"敦賀市","jp_add_2":"公文名"},"9140802":{"post_code":"9140802","prefecture":"FUKUI KEN","city":"TSURUGA SHI","town":"KURETAKECHO","perfecture_jp":"福井県","jp_add_1":"敦賀市","jp_add_2":"呉竹町"},"9140813":{"post_code":"9140813","prefecture":"FUKUI KEN","city":"TSURUGA SHI","town":"KUREHACHO","perfecture_jp":"福井県","jp_add_1":"敦賀市","jp_add_2":"呉羽町"},"9140045":{"post_code":"9140045","prefecture":"FUKUI KEN","city":"TSURUGA SHI","town":"KOTAKARI","perfecture_jp":"福井県","jp_add_1":"敦賀市","jp_add_2":"古田刈"},"9140132":{"post_code":"9140132","prefecture":"FUKUI KEN","city":"TSURUGA SHI","town":"GOMYO","perfecture_jp":"福井県","jp_add_1":"敦賀市","jp_add_2":"御名"},"9140077":{"post_code":"9140077","prefecture":"FUKUI KEN","city":"TSURUGA SHI","town":"SAKAESHIMMACHI","perfecture_jp":"福井県","jp_add_1":"敦賀市","jp_add_2":"栄新町"},"9140038":{"post_code":"9140038","prefecture":"FUKUI KEN","city":"TSURUGA SHI","town":"SAKANOSHITA","perfecture_jp":"福井県","jp_add_1":"敦賀市","jp_add_2":"坂下"},"9140144":{"post_code":"9140144","prefecture":"FUKUI KEN","city":"TSURUGA SHI","town":"SAKURAGAOKACHO","perfecture_jp":"福井県","jp_add_1":"敦賀市","jp_add_2":"桜ケ丘町"},"9140078":{"post_code":"9140078","prefecture":"FUKUI KEN","city":"TSURUGA SHI","town":"SAKURACHO","perfecture_jp":"福井県","jp_add_1":"敦賀市","jp_add_2":"桜町"},"9140143":{"post_code":"9140143","prefecture":"FUKUI KEN","city":"TSURUGA SHI","town":"SAWA","perfecture_jp":"福井県","jp_add_1":"敦賀市","jp_add_2":"沢"},"9140071":{"post_code":"9140071","prefecture":"FUKUI KEN","city":"TSURUGA SHI","town":"SHIMIZU","perfecture_jp":"福井県","jp_add_1":"敦賀市","jp_add_2":"泉"},"9140271":{"post_code":"9140271","prefecture":"FUKUI KEN","city":"TSURUGA SHI","town":"SHIMIZU(HIGASHIURA)","perfecture_jp":"福井県","jp_add_1":"敦賀市","jp_add_2":"泉"},"9140832":{"post_code":"9140832","prefecture":"FUKUI KEN","city":"TSURUGA SHI","town":"JOGU","perfecture_jp":"福井県","jp_add_1":"敦賀市","jp_add_2":"常宮"},"9140812":{"post_code":"9140812","prefecture":"FUKUI KEN","city":"TSURUGA SHI","town":"SHOWACHO","perfecture_jp":"福井県","jp_add_1":"敦賀市","jp_add_2":"昭和町"},"9140054":{"post_code":"9140054","prefecture":"FUKUI KEN","city":"TSURUGA SHI","town":"SHIROGANECHO","perfecture_jp":"福井県","jp_add_1":"敦賀市","jp_add_2":"白銀町"},"9140317":{"post_code":"9140317","prefecture":"FUKUI KEN","city":"TSURUGA SHI","town":"SHINDO","perfecture_jp":"福井県","jp_add_1":"敦賀市","jp_add_2":"新道"},"9140001":{"post_code":"9140001","prefecture":"FUKUI KEN","city":"TSURUGA SHI","town":"SHIMBO","perfecture_jp":"福井県","jp_add_1":"敦賀市","jp_add_2":"新保"},"9140803":{"post_code":"9140803","prefecture":"FUKUI KEN","city":"TSURUGA SHI","town":"SHIMMATSUSHIMACHO","perfecture_jp":"福井県","jp_add_1":"敦賀市","jp_add_2":"新松島町"},"9140122":{"post_code":"9140122","prefecture":"FUKUI KEN","city":"TSURUGA SHI","town":"SHINWACHO","perfecture_jp":"福井県","jp_add_1":"敦賀市","jp_add_2":"新和町"},"9140264":{"post_code":"9140264","prefecture":"FUKUI KEN","city":"TSURUGA SHI","town":"SUIZU","perfecture_jp":"福井県","jp_add_1":"敦賀市","jp_add_2":"杉津"},"9140314":{"post_code":"9140314","prefecture":"FUKUI KEN","city":"TSURUGA SHI","town":"SUGIHASHI","perfecture_jp":"福井県","jp_add_1":"敦賀市","jp_add_2":"杉箸"},"9140136":{"post_code":"9140136","prefecture":"FUKUI KEN","city":"TSURUGA SHI","town":"SUNAGARE","perfecture_jp":"福井県","jp_add_1":"敦賀市","jp_add_2":"砂流"},"9140147":{"post_code":"9140147","prefecture":"FUKUI KEN","city":"TSURUGA SHI","town":"SEKI","perfecture_jp":"福井県","jp_add_1":"敦賀市","jp_add_2":"関"},"9140312":{"post_code":"9140312","prefecture":"FUKUI KEN","city":"TSURUGA SHI","town":"SOSOGI","perfecture_jp":"福井県","jp_add_1":"敦賀市","jp_add_2":"曽々木"},"9140273":{"post_code":"9140273","prefecture":"FUKUI KEN","city":"TSURUGA SHI","town":"TAI","perfecture_jp":"福井県","jp_add_1":"敦賀市","jp_add_2":"田結"},"9140022":{"post_code":"9140022","prefecture":"FUKUI KEN","city":"TSURUGA SHI","town":"TAKANO","perfecture_jp":"福井県","jp_add_1":"敦賀市","jp_add_2":"高野"},"9140305":{"post_code":"9140305","prefecture":"FUKUI KEN","city":"TSURUGA SHI","town":"DAGUCHI","perfecture_jp":"福井県","jp_add_1":"敦賀市","jp_add_2":"駄口"},"9140007":{"post_code":"9140007","prefecture":"FUKUI KEN","city":"TSURUGA SHI","town":"TAJIRI","perfecture_jp":"福井県","jp_add_1":"敦賀市","jp_add_2":"田尻"},"9140841":{"post_code":"9140841","prefecture":"FUKUI KEN","city":"TSURUGA SHI","town":"TATEISHI","perfecture_jp":"福井県","jp_add_1":"敦賀市","jp_add_2":"立石"},"9140031":{"post_code":"9140031","prefecture":"FUKUI KEN","city":"TSURUGA SHI","town":"TANI","perfecture_jp":"福井県","jp_add_1":"敦賀市","jp_add_2":"谷"},"9140013":{"post_code":"9140013","prefecture":"FUKUI KEN","city":"TSURUGA SHI","town":"TANIGUCHI","perfecture_jp":"福井県","jp_add_1":"敦賀市","jp_add_2":"谷口"},"9140811":{"post_code":"9140811","prefecture":"FUKUI KEN","city":"TSURUGA SHI","town":"CHUOCHO","perfecture_jp":"福井県","jp_add_1":"敦賀市","jp_add_2":"中央町"},"9140056":{"post_code":"9140056","prefecture":"FUKUI KEN","city":"TSURUGA SHI","town":"TSUNAICHO","perfecture_jp":"福井県","jp_add_1":"敦賀市","jp_add_2":"津内町"},"9140074":{"post_code":"9140074","prefecture":"FUKUI KEN","city":"TSURUGA SHI","town":"TSUNOGACHO","perfecture_jp":"福井県","jp_add_1":"敦賀市","jp_add_2":"角鹿町"},"9140845":{"post_code":"9140845","prefecture":"FUKUI KEN","city":"TSURUGA SHI","town":"TE","perfecture_jp":"福井県","jp_add_1":"敦賀市","jp_add_2":"手"},"9140073":{"post_code":"9140073","prefecture":"FUKUI KEN","city":"TSURUGA SHI","town":"TEZUTSUCHO","perfecture_jp":"福井県","jp_add_1":"敦賀市","jp_add_2":"天筒町"},"9140036":{"post_code":"9140036","prefecture":"FUKUI KEN","city":"TSURUGA SHI","town":"DO","perfecture_jp":"福井県","jp_add_1":"敦賀市","jp_add_2":"堂"},"9140047":{"post_code":"9140047","prefecture":"FUKUI KEN","city":"TSURUGA SHI","town":"TOYOCHO","perfecture_jp":"福井県","jp_add_1":"敦賀市","jp_add_2":"東洋町"},"9140313":{"post_code":"9140313","prefecture":"FUKUI KEN","city":"TSURUGA SHI","town":"TONE","perfecture_jp":"福井県","jp_add_1":"敦賀市","jp_add_2":"刀根"},"9140028":{"post_code":"9140028","prefecture":"FUKUI KEN","city":"TSURUGA SHI","town":"NAKA","perfecture_jp":"福井県","jp_add_1":"敦賀市","jp_add_2":"中"},"9140046":{"post_code":"9140046","prefecture":"FUKUI KEN","city":"TSURUGA SHI","town":"NAGASO","perfecture_jp":"福井県","jp_add_1":"敦賀市","jp_add_2":"長沢"},"9140135":{"post_code":"9140135","prefecture":"FUKUI KEN","city":"TSURUGA SHI","town":"NAGATANI","perfecture_jp":"福井県","jp_add_1":"敦賀市","jp_add_2":"長谷"},"9140834":{"post_code":"9140834","prefecture":"FUKUI KEN","city":"TSURUGA SHI","town":"NAGO","perfecture_jp":"福井県","jp_add_1":"敦賀市","jp_add_2":"名子"},"9140041":{"post_code":"9140041","prefecture":"FUKUI KEN","city":"TSURUGA SHI","town":"NUNODACHO","perfecture_jp":"福井県","jp_add_1":"敦賀市","jp_add_2":"布田町"},"9140833":{"post_code":"9140833","prefecture":"FUKUI KEN","city":"TSURUGA SHI","town":"NOMA","perfecture_jp":"福井県","jp_add_1":"敦賀市","jp_add_2":"縄間"},"9140121":{"post_code":"9140121","prefecture":"FUKUI KEN","city":"TSURUGA SHI","town":"NOGAMI","perfecture_jp":"福井県","jp_add_1":"敦賀市","jp_add_2":"野神"},"9140145":{"post_code":"9140145","prefecture":"FUKUI KEN","city":"TSURUGA SHI","town":"NOSAKA","perfecture_jp":"福井県","jp_add_1":"敦賀市","jp_add_2":"野坂"},"9140142":{"post_code":"9140142","prefecture":"FUKUI KEN","city":"TSURUGA SHI","town":"HAGINOCHO","perfecture_jp":"福井県","jp_add_1":"敦賀市","jp_add_2":"萩野町"},"9140033":{"post_code":"9140033","prefecture":"FUKUI KEN","city":"TSURUGA SHI","town":"HATOHARA","perfecture_jp":"福井県","jp_add_1":"敦賀市","jp_add_2":"鳩原"},"9140002":{"post_code":"9140002","prefecture":"FUKUI KEN","city":"TSURUGA SHI","town":"HABARA","perfecture_jp":"福井県","jp_add_1":"敦賀市","jp_add_2":"葉原"},"9140824":{"post_code":"9140824","prefecture":"FUKUI KEN","city":"TSURUGA SHI","town":"HARA","perfecture_jp":"福井県","jp_add_1":"敦賀市","jp_add_2":"原"},"9140302":{"post_code":"9140302","prefecture":"FUKUI KEN","city":"TSURUGA SHI","town":"HIKIDA","perfecture_jp":"福井県","jp_add_1":"敦賀市","jp_add_2":"疋田"},"9140025":{"post_code":"9140025","prefecture":"FUKUI KEN","city":"TSURUGA SHI","town":"HINOMIZUCHO","perfecture_jp":"福井県","jp_add_1":"敦賀市","jp_add_2":"樋ノ水町"},"9140137":{"post_code":"9140137","prefecture":"FUKUI KEN","city":"TSURUGA SHI","town":"HIBARIGAOKACHO","perfecture_jp":"福井県","jp_add_1":"敦賀市","jp_add_2":"ひばりケ丘町"},"9140057":{"post_code":"9140057","prefecture":"FUKUI KEN","city":"TSURUGA SHI","town":"HIRAKICHO","perfecture_jp":"福井県","jp_add_1":"敦賀市","jp_add_2":"開町"},"9140023":{"post_code":"9140023","prefecture":"FUKUI KEN","city":"TSURUGA SHI","town":"FUKAGAWACHO","perfecture_jp":"福井県","jp_add_1":"敦賀市","jp_add_2":"深川町"},"9140304":{"post_code":"9140304","prefecture":"FUKUI KEN","city":"TSURUGA SHI","town":"FUKASAKA","perfecture_jp":"福井県","jp_add_1":"敦賀市","jp_add_2":"深坂"},"9140017":{"post_code":"9140017","prefecture":"FUKUI KEN","city":"TSURUGA SHI","town":"FUJIGAOKACHO","perfecture_jp":"福井県","jp_add_1":"敦賀市","jp_add_2":"藤ケ丘町"},"9140835":{"post_code":"9140835","prefecture":"FUKUI KEN","city":"TSURUGA SHI","town":"FUTAMURA","perfecture_jp":"福井県","jp_add_1":"敦賀市","jp_add_2":"二村"},"9140815":{"post_code":"9140815","prefecture":"FUKUI KEN","city":"TSURUGA SHI","town":"HEIWACHO","perfecture_jp":"福井県","jp_add_1":"敦賀市","jp_add_2":"平和町"},"9140061":{"post_code":"9140061","prefecture":"FUKUI KEN","city":"TSURUGA SHI","town":"HORAICHO","perfecture_jp":"福井県","jp_add_1":"敦賀市","jp_add_2":"蓬莱町"},"9140051":{"post_code":"9140051","prefecture":"FUKUI KEN","city":"TSURUGA SHI","town":"HOMMACHI","perfecture_jp":"福井県","jp_add_1":"敦賀市","jp_add_2":"本町"},"9140053":{"post_code":"9140053","prefecture":"FUKUI KEN","city":"TSURUGA SHI","town":"MAIZAKICHO","perfecture_jp":"福井県","jp_add_1":"敦賀市","jp_add_2":"舞崎町"},"9140065":{"post_code":"9140065","prefecture":"FUKUI KEN","city":"TSURUGA SHI","town":"MATSUECHO","perfecture_jp":"福井県","jp_add_1":"敦賀市","jp_add_2":"松栄町"},"9140801":{"post_code":"9140801","prefecture":"FUKUI KEN","city":"TSURUGA SHI","town":"MATSUSHIMACHO","perfecture_jp":"福井県","jp_add_1":"敦賀市","jp_add_2":"松島町"},"9140807":{"post_code":"9140807","prefecture":"FUKUI KEN","city":"TSURUGA SHI","town":"MATSUBACHO","perfecture_jp":"福井県","jp_add_1":"敦賀市","jp_add_2":"松葉町"},"9140806":{"post_code":"9140806","prefecture":"FUKUI KEN","city":"TSURUGA SHI","town":"MATSUBARACHO","perfecture_jp":"福井県","jp_add_1":"敦賀市","jp_add_2":"松原町"},"9140274":{"post_code":"9140274","prefecture":"FUKUI KEN","city":"TSURUGA SHI","town":"MARUYAMA","perfecture_jp":"福井県","jp_add_1":"敦賀市","jp_add_2":"鞠山"},"9140058":{"post_code":"9140058","prefecture":"FUKUI KEN","city":"TSURUGA SHI","town":"MISHIMACHO","perfecture_jp":"福井県","jp_add_1":"敦賀市","jp_add_2":"三島町"},"9140037":{"post_code":"9140037","prefecture":"FUKUI KEN","city":"TSURUGA SHI","town":"MICHINOKUCHI","perfecture_jp":"福井県","jp_add_1":"敦賀市","jp_add_2":"道口"},"9140133":{"post_code":"9140133","prefecture":"FUKUI KEN","city":"TSURUGA SHI","town":"MIDORIGAOKACHO","perfecture_jp":"福井県","jp_add_1":"敦賀市","jp_add_2":"みどりケ丘町"},"9140079":{"post_code":"9140079","prefecture":"FUKUI KEN","city":"TSURUGA SHI","town":"MINATOMACHI","perfecture_jp":"福井県","jp_add_1":"敦賀市","jp_add_2":"港町"},"9140011":{"post_code":"9140011","prefecture":"FUKUI KEN","city":"TSURUGA SHI","town":"MIYAMADERA","perfecture_jp":"福井県","jp_add_1":"敦賀市","jp_add_2":"深山寺"},"9140842":{"post_code":"9140842","prefecture":"FUKUI KEN","city":"TSURUGA SHI","town":"MYOJINCHO","perfecture_jp":"福井県","jp_add_1":"敦賀市","jp_add_2":"明神町"},"9140261":{"post_code":"9140261","prefecture":"FUKUI KEN","city":"TSURUGA SHI","town":"MOTOHIDA","perfecture_jp":"福井県","jp_add_1":"敦賀市","jp_add_2":"元比田"},"9140076":{"post_code":"9140076","prefecture":"FUKUI KEN","city":"TSURUGA SHI","town":"MOTOMACHI","perfecture_jp":"福井県","jp_add_1":"敦賀市","jp_add_2":"元町"},"9140134":{"post_code":"9140134","prefecture":"FUKUI KEN","city":"TSURUGA SHI","town":"YAMA","perfecture_jp":"福井県","jp_add_1":"敦賀市","jp_add_2":"山"},"9140035":{"post_code":"9140035","prefecture":"FUKUI KEN","city":"TSURUGA SHI","town":"YAMASHIMIZU","perfecture_jp":"福井県","jp_add_1":"敦賀市","jp_add_2":"山泉"},"9140306":{"post_code":"9140306","prefecture":"FUKUI KEN","city":"TSURUGA SHI","town":"YAMANAKA","perfecture_jp":"福井県","jp_add_1":"敦賀市","jp_add_2":"山中"},"9140064":{"post_code":"9140064","prefecture":"FUKUI KEN","city":"TSURUGA SHI","town":"YUKICHO","perfecture_jp":"福井県","jp_add_1":"敦賀市","jp_add_2":"結城町"},"9140263":{"post_code":"9140263","prefecture":"FUKUI KEN","city":"TSURUGA SHI","town":"YOKOHAMA","perfecture_jp":"福井県","jp_add_1":"敦賀市","jp_add_2":"横浜"},"9140016":{"post_code":"9140016","prefecture":"FUKUI KEN","city":"TSURUGA SHI","town":"YOZA","perfecture_jp":"福井県","jp_add_1":"敦賀市","jp_add_2":"余座"},"9140024":{"post_code":"9140024","prefecture":"FUKUI KEN","city":"TSURUGA SHI","town":"YOSHIKO","perfecture_jp":"福井県","jp_add_1":"敦賀市","jp_add_2":"吉河"},"9140027":{"post_code":"9140027","prefecture":"FUKUI KEN","city":"TSURUGA SHI","town":"WAKAIZUMICHO","perfecture_jp":"福井県","jp_add_1":"敦賀市","jp_add_2":"若泉町"},"9140125":{"post_code":"9140125","prefecture":"FUKUI KEN","city":"TSURUGA SHI","town":"WAKABACHO","perfecture_jp":"福井県","jp_add_1":"敦賀市","jp_add_2":"若葉町"},"9140123":{"post_code":"9140123","prefecture":"FUKUI KEN","city":"TSURUGA SHI","town":"WAKUNO","perfecture_jp":"福井県","jp_add_1":"敦賀市","jp_add_2":"和久野"}}