{"9180000":{"post_code":"9180000","prefecture":"FUKUI KEN","city":"FUKUI SHI","town":"IKANIKEISAIGANAIBAAI","perfecture_jp":"福井県","jp_add_1":"福井市","jp_add_2":""},"9188052":{"post_code":"9188052","prefecture":"FUKUI KEN","city":"FUKUI SHI","town":"AKARICHO","perfecture_jp":"福井県","jp_add_1":"福井市","jp_add_2":"明里町"},"9188007":{"post_code":"9188007","prefecture":"FUKUI KEN","city":"FUKUI SHI","town":"ASUWA","perfecture_jp":"福井県","jp_add_1":"福井市","jp_add_2":"足羽"},"9188006":{"post_code":"9188006","prefecture":"FUKUI KEN","city":"FUKUI SHI","town":"ASUWAKAMICHO","perfecture_jp":"福井県","jp_add_1":"福井市","jp_add_2":"足羽上町"},"9188183":{"post_code":"9188183","prefecture":"FUKUI KEN","city":"FUKUI SHI","town":"ASOZUSANGACHO","perfecture_jp":"福井県","jp_add_1":"福井市","jp_add_2":"浅水三ケ町"},"9188181":{"post_code":"9188181","prefecture":"FUKUI KEN","city":"FUKUI SHI","town":"ASOZUCHO","perfecture_jp":"福井県","jp_add_1":"福井市","jp_add_2":"浅水町"},"9188182":{"post_code":"9188182","prefecture":"FUKUI KEN","city":"FUKUI SHI","town":"ASOZUFUTSUKAMACHI","perfecture_jp":"福井県","jp_add_1":"福井市","jp_add_2":"浅水二日町"},"9188153":{"post_code":"9188153","prefecture":"FUKUI KEN","city":"FUKUI SHI","town":"ABOCHO","perfecture_jp":"福井県","jp_add_1":"福井市","jp_add_2":"安保町"},"9188232":{"post_code":"9188232","prefecture":"FUKUI KEN","city":"FUKUI SHI","town":"ARAKIBESSHIYOCHO","perfecture_jp":"福井県","jp_add_1":"福井市","jp_add_2":"荒木別所町"},"9188067":{"post_code":"9188067","prefecture":"FUKUI KEN","city":"FUKUI SHI","town":"IIZUKACHO","perfecture_jp":"福井県","jp_add_1":"福井市","jp_add_2":"飯塚町"},"9188104":{"post_code":"9188104","prefecture":"FUKUI KEN","city":"FUKUI SHI","town":"ITAGAKI","perfecture_jp":"福井県","jp_add_1":"福井市","jp_add_2":"板垣"},"9188103":{"post_code":"9188103","prefecture":"FUKUI KEN","city":"FUKUI SHI","town":"ITAGAKICHO","perfecture_jp":"福井県","jp_add_1":"福井市","jp_add_2":"板垣町"},"9188101":{"post_code":"9188101","prefecture":"FUKUI KEN","city":"FUKUI SHI","town":"IPPONGICHO","perfecture_jp":"福井県","jp_add_1":"福井市","jp_add_2":"一本木町"},"9188213":{"post_code":"9188213","prefecture":"FUKUI KEN","city":"FUKUI SHI","town":"IMAIZUMICHO","perfecture_jp":"福井県","jp_add_1":"福井市","jp_add_2":"今泉町"},"9188152":{"post_code":"9188152","prefecture":"FUKUI KEN","city":"FUKUI SHI","town":"IMAICHICHO","perfecture_jp":"福井県","jp_add_1":"福井市","jp_add_2":"今市町"},"9188217":{"post_code":"9188217","prefecture":"FUKUI KEN","city":"FUKUI SHI","town":"INDENCHO","perfecture_jp":"福井県","jp_add_1":"福井市","jp_add_2":"印田町"},"9188114":{"post_code":"9188114","prefecture":"FUKUI KEN","city":"FUKUI SHI","town":"USUI","perfecture_jp":"福井県","jp_add_1":"福井市","jp_add_2":"羽水"},"9188111":{"post_code":"9188111","prefecture":"FUKUI KEN","city":"FUKUI SHI","town":"UMAGAKICHO","perfecture_jp":"福井県","jp_add_1":"福井市","jp_add_2":"馬垣町"},"9188046":{"post_code":"9188046","prefecture":"FUKUI KEN","city":"FUKUI SHI","town":"UNDOKOEN","perfecture_jp":"福井県","jp_add_1":"福井市","jp_add_2":"運動公園"},"9188175":{"post_code":"9188175","prefecture":"FUKUI KEN","city":"FUKUI SHI","town":"EJIRIGAOKACHO","perfecture_jp":"福井県","jp_add_1":"福井市","jp_add_2":"江尻ケ丘町"},"9188016":{"post_code":"9188016","prefecture":"FUKUI KEN","city":"FUKUI SHI","town":"EBATACHO","perfecture_jp":"福井県","jp_add_1":"福井市","jp_add_2":"江端町"},"9188025":{"post_code":"9188025","prefecture":"FUKUI KEN","city":"FUKUI SHI","town":"EMORINAKACHO","perfecture_jp":"福井県","jp_add_1":"福井市","jp_add_2":"江守中"},"9188035":{"post_code":"9188035","prefecture":"FUKUI KEN","city":"FUKUI SHI","town":"EMORINOSATO","perfecture_jp":"福井県","jp_add_1":"福井市","jp_add_2":"江守の里"},"9188207":{"post_code":"9188207","prefecture":"FUKUI KEN","city":"FUKUI SHI","town":"ENZAN","perfecture_jp":"福井県","jp_add_1":"福井市","jp_add_2":"円山"},"9188018":{"post_code":"9188018","prefecture":"FUKUI KEN","city":"FUKUI SHI","town":"OSHIMACHO","perfecture_jp":"福井県","jp_add_1":"福井市","jp_add_2":"大島町"},"9188063":{"post_code":"9188063","prefecture":"FUKUI KEN","city":"FUKUI SHI","town":"OSECHO","perfecture_jp":"福井県","jp_add_1":"福井市","jp_add_2":"大瀬町"},"9188116":{"post_code":"9188116","prefecture":"FUKUI KEN","city":"FUKUI SHI","town":"OMACHI","perfecture_jp":"福井県","jp_add_1":"福井市","jp_add_2":"大町"},"9188228":{"post_code":"9188228","prefecture":"FUKUI KEN","city":"FUKUI SHI","town":"OKANISHITANICHO","perfecture_jp":"福井県","jp_add_1":"福井市","jp_add_2":"岡西谷町"},"9188071":{"post_code":"9188071","prefecture":"FUKUI KEN","city":"FUKUI SHI","town":"OSOGAMICHO","perfecture_jp":"福井県","jp_add_1":"福井市","jp_add_2":"恐神町"},"9188226":{"post_code":"9188226","prefecture":"FUKUI KEN","city":"FUKUI SHI","town":"OBATAKECHO","perfecture_jp":"福井県","jp_add_1":"福井市","jp_add_2":"大畑町"},"9188053":{"post_code":"9188053","prefecture":"FUKUI KEN","city":"FUKUI SHI","town":"OYAMADANICHO","perfecture_jp":"福井県","jp_add_1":"福井市","jp_add_2":"小山谷町"},"9188108":{"post_code":"9188108","prefecture":"FUKUI KEN","city":"FUKUI SHI","town":"KASUGA","perfecture_jp":"福井県","jp_add_1":"福井市","jp_add_2":"春日"},"9188107":{"post_code":"9188107","prefecture":"FUKUI KEN","city":"FUKUI SHI","town":"KASUGACHO","perfecture_jp":"福井県","jp_add_1":"福井市","jp_add_2":"春日町"},"9188166":{"post_code":"9188166","prefecture":"FUKUI KEN","city":"FUKUI SHI","town":"KAZUENAKACHO","perfecture_jp":"福井県","jp_add_1":"福井市","jp_add_2":"主計中町"},"9188061":{"post_code":"9188061","prefecture":"FUKUI KEN","city":"FUKUI SHI","town":"KANAYACHO","perfecture_jp":"福井県","jp_add_1":"福井市","jp_add_2":"金屋町"},"9188133":{"post_code":"9188133","prefecture":"FUKUI KEN","city":"FUKUI SHI","town":"KAMIAZODACHO","perfecture_jp":"福井県","jp_add_1":"福井市","jp_add_2":"上莇生田町"},"9188081":{"post_code":"9188081","prefecture":"FUKUI KEN","city":"FUKUI SHI","town":"KAMIIKARICHO","perfecture_jp":"福井県","jp_add_1":"福井市","jp_add_2":"上一光町"},"9188174":{"post_code":"9188174","prefecture":"FUKUI KEN","city":"FUKUI SHI","town":"KAMIEJIRICHO","perfecture_jp":"福井県","jp_add_1":"福井市","jp_add_2":"上江尻町"},"9188203":{"post_code":"9188203","prefecture":"FUKUI KEN","city":"FUKUI SHI","town":"KAMIKITANO","perfecture_jp":"福井県","jp_add_1":"福井市","jp_add_2":"上北野"},"9188132":{"post_code":"9188132","prefecture":"FUKUI KEN","city":"FUKUI SHI","town":"KAMIROKUJOCHO","perfecture_jp":"福井県","jp_add_1":"福井市","jp_add_2":"上六条町"},"9188057":{"post_code":"9188057","prefecture":"FUKUI KEN","city":"FUKUI SHI","town":"KAMOGAWARA","perfecture_jp":"福井県","jp_add_1":"福井市","jp_add_2":"加茂河原"},"9188054":{"post_code":"9188054","prefecture":"FUKUI KEN","city":"FUKUI SHI","town":"KAMOGAWARACHO","perfecture_jp":"福井県","jp_add_1":"福井市","jp_add_2":"加茂河原町"},"9188058":{"post_code":"9188058","prefecture":"FUKUI KEN","city":"FUKUI SHI","town":"KAMORYOKUENCHO","perfecture_jp":"福井県","jp_add_1":"福井市","jp_add_2":"加茂緑苑町"},"9188212":{"post_code":"9188212","prefecture":"FUKUI KEN","city":"FUKUI SHI","town":"KITAIMAIZUMICHO","perfecture_jp":"福井県","jp_add_1":"福井市","jp_add_2":"北今泉町"},"9188072":{"post_code":"9188072","prefecture":"FUKUI KEN","city":"FUKUI SHI","town":"KITAHORICHO","perfecture_jp":"福井県","jp_add_1":"福井市","jp_add_2":"北堀町"},"9188205":{"post_code":"9188205","prefecture":"FUKUI KEN","city":"FUKUI SHI","town":"KITAYOTSUI","perfecture_jp":"福井県","jp_add_1":"福井市","jp_add_2":"北四ツ居"},"9188206":{"post_code":"9188206","prefecture":"FUKUI KEN","city":"FUKUI SHI","town":"KITAYOTSUICHO","perfecture_jp":"福井県","jp_add_1":"福井市","jp_add_2":"北四ツ居町"},"9188105":{"post_code":"9188105","prefecture":"FUKUI KEN","city":"FUKUI SHI","town":"KIDA","perfecture_jp":"福井県","jp_add_1":"福井市","jp_add_2":"木田"},"9188106":{"post_code":"9188106","prefecture":"FUKUI KEN","city":"FUKUI SHI","town":"KIDACHO","perfecture_jp":"福井県","jp_add_1":"福井市","jp_add_2":"木田町"},"9188043":{"post_code":"9188043","prefecture":"FUKUI KEN","city":"FUKUI SHI","town":"KITSUNEBASHI","perfecture_jp":"福井県","jp_add_1":"福井市","jp_add_2":"狐橋"},"9188047":{"post_code":"9188047","prefecture":"FUKUI KEN","city":"FUKUI SHI","town":"KUKIZUCHO","perfecture_jp":"福井県","jp_add_1":"福井市","jp_add_2":"久喜津町"},"9188112":{"post_code":"9188112","prefecture":"FUKUI KEN","city":"FUKUI SHI","town":"GEBA","perfecture_jp":"福井県","jp_add_1":"福井市","jp_add_2":"下馬"},"9188113":{"post_code":"9188113","prefecture":"FUKUI KEN","city":"FUKUI SHI","town":"GEBACHO","perfecture_jp":"福井県","jp_add_1":"福井市","jp_add_2":"下馬町"},"9188003":{"post_code":"9188003","prefecture":"FUKUI KEN","city":"FUKUI SHI","town":"KEYA","perfecture_jp":"福井県","jp_add_1":"福井市","jp_add_2":"毛矢"},"9188221":{"post_code":"9188221","prefecture":"FUKUI KEN","city":"FUKUI SHI","town":"GENDATSUCHO","perfecture_jp":"福井県","jp_add_1":"福井市","jp_add_2":"堅達町"},"9188131":{"post_code":"9188131","prefecture":"FUKUI KEN","city":"FUKUI SHI","town":"KOINAZUCHO","perfecture_jp":"福井県","jp_add_1":"福井市","jp_add_2":"小稲津町"},"9188233":{"post_code":"9188233","prefecture":"FUKUI KEN","city":"FUKUI SHI","town":"GOSHIMACHO","perfecture_jp":"福井県","jp_add_1":"福井市","jp_add_2":"合島町"},"9188223":{"post_code":"9188223","prefecture":"FUKUI KEN","city":"FUKUI SHI","town":"KOSUICHO","perfecture_jp":"福井県","jp_add_1":"福井市","jp_add_2":"河水町"},"9188033":{"post_code":"9188033","prefecture":"FUKUI KEN","city":"FUKUI SHI","town":"GODANICHO","perfecture_jp":"福井県","jp_add_1":"福井市","jp_add_2":"合谷町"},"9188218":{"post_code":"9188218","prefecture":"FUKUI KEN","city":"FUKUI SHI","town":"KOMASUCHO","perfecture_jp":"福井県","jp_add_1":"福井市","jp_add_2":"河増町"},"9188083":{"post_code":"9188083","prefecture":"FUKUI KEN","city":"FUKUI SHI","town":"GOTAISHICHO","perfecture_jp":"福井県","jp_add_1":"福井市","jp_add_2":"五太子町"},"9188222":{"post_code":"9188222","prefecture":"FUKUI KEN","city":"FUKUI SHI","town":"SAKASHITACHO","perfecture_jp":"福井県","jp_add_1":"福井市","jp_add_2":"坂下町"},"9188002":{"post_code":"9188002","prefecture":"FUKUI KEN","city":"FUKUI SHI","town":"SANAICHO","perfecture_jp":"福井県","jp_add_1":"福井市","jp_add_2":"左内町"},"9188078":{"post_code":"9188078","prefecture":"FUKUI KEN","city":"FUKUI SHI","town":"SARAGECHO","perfecture_jp":"福井県","jp_add_1":"福井市","jp_add_2":"更毛町"},"9188176":{"post_code":"9188176","prefecture":"FUKUI KEN","city":"FUKUI SHI","town":"SANJUHASSHACHO","perfecture_jp":"福井県","jp_add_1":"福井市","jp_add_2":"三十八社町"},"9188164":{"post_code":"9188164","prefecture":"FUKUI KEN","city":"FUKUI SHI","town":"SAMBONGICHO","perfecture_jp":"福井県","jp_add_1":"福井市","jp_add_2":"三本木町"},"9188134":{"post_code":"9188134","prefecture":"FUKUI KEN","city":"FUKUI SHI","town":"SHIMOAZODACHO","perfecture_jp":"福井県","jp_add_1":"福井市","jp_add_2":"下莇生田町"},"9188017":{"post_code":"9188017","prefecture":"FUKUI KEN","city":"FUKUI SHI","town":"SHIMOARAICHO","perfecture_jp":"福井県","jp_add_1":"福井市","jp_add_2":"下荒井町"},"9188082":{"post_code":"9188082","prefecture":"FUKUI KEN","city":"FUKUI SHI","town":"SHIMOIKARICHO","perfecture_jp":"福井県","jp_add_1":"福井市","jp_add_2":"下一光町"},"9188062":{"post_code":"9188062","prefecture":"FUKUI KEN","city":"FUKUI SHI","town":"SHIMOICHICHO","perfecture_jp":"福井県","jp_add_1":"福井市","jp_add_2":"下市町"},"9188173":{"post_code":"9188173","prefecture":"FUKUI KEN","city":"FUKUI SHI","town":"SHIMOEJIRICHO","perfecture_jp":"福井県","jp_add_1":"福井市","jp_add_2":"下江尻町"},"9188037":{"post_code":"9188037","prefecture":"FUKUI KEN","city":"FUKUI SHI","town":"SHIMOEMORICHO","perfecture_jp":"福井県","jp_add_1":"福井市","jp_add_2":"下江守町"},"9188211":{"post_code":"9188211","prefecture":"FUKUI KEN","city":"FUKUI SHI","town":"SHIMONAKACHO","perfecture_jp":"福井県","jp_add_1":"福井市","jp_add_2":"下中町"},"9188135":{"post_code":"9188135","prefecture":"FUKUI KEN","city":"FUKUI SHI","town":"SHIMOROKUJOCHO","perfecture_jp":"福井県","jp_add_1":"福井市","jp_add_2":"下六条町"},"9188163":{"post_code":"9188163","prefecture":"FUKUI KEN","city":"FUKUI SHI","town":"SHONOCHO","perfecture_jp":"福井県","jp_add_1":"福井市","jp_add_2":"生野町"},"9188227":{"post_code":"9188227","prefecture":"FUKUI KEN","city":"FUKUI SHI","town":"JIROMARUCHO","perfecture_jp":"福井県","jp_add_1":"福井市","jp_add_2":"次郎丸町"},"9188036":{"post_code":"9188036","prefecture":"FUKUI KEN","city":"FUKUI SHI","town":"SHINSHIMOEMORICHO","perfecture_jp":"福井県","jp_add_1":"福井市","jp_add_2":"新下江守町"},"9188172":{"post_code":"9188172","prefecture":"FUKUI KEN","city":"FUKUI SHI","town":"SUEHIROMACHI","perfecture_jp":"福井県","jp_add_1":"福井市","jp_add_2":"末広町"},"9188077":{"post_code":"9188077","prefecture":"FUKUI KEN","city":"FUKUI SHI","town":"SUEMACHI","perfecture_jp":"福井県","jp_add_1":"福井市","jp_add_2":"末町"},"9188155":{"post_code":"9188155","prefecture":"FUKUI KEN","city":"FUKUI SHI","town":"SUGITANICHO","perfecture_jp":"福井県","jp_add_1":"福井市","jp_add_2":"杉谷町"},"9188239":{"post_code":"9188239","prefecture":"FUKUI KEN","city":"FUKUI SHI","town":"SEIWA","perfecture_jp":"福井県","jp_add_1":"福井市","jp_add_2":"成和"},"9188234":{"post_code":"9188234","prefecture":"FUKUI KEN","city":"FUKUI SHI","town":"SOMBOCHO","perfecture_jp":"福井県","jp_add_1":"福井市","jp_add_2":"曽万布町"},"9188202":{"post_code":"9188202","prefecture":"FUKUI KEN","city":"FUKUI SHI","town":"DAITO","perfecture_jp":"福井県","jp_add_1":"福井市","jp_add_2":"大東"},"9188044":{"post_code":"9188044","prefecture":"FUKUI KEN","city":"FUKUI SHI","town":"TAKATSUKACHO","perfecture_jp":"福井県","jp_add_1":"福井市","jp_add_2":"高塚町"},"9188031":{"post_code":"9188031","prefecture":"FUKUI KEN","city":"FUKUI SHI","town":"TANAIKECHO","perfecture_jp":"福井県","jp_add_1":"福井市","jp_add_2":"種池"},"9188011":{"post_code":"9188011","prefecture":"FUKUI KEN","city":"FUKUI SHI","town":"TSUKIMI","perfecture_jp":"福井県","jp_add_1":"福井市","jp_add_2":"月見"},"9188001":{"post_code":"9188001","prefecture":"FUKUI KEN","city":"FUKUI SHI","town":"TSUKUMO","perfecture_jp":"福井県","jp_add_1":"福井市","jp_add_2":"つくも"},"9188068":{"post_code":"9188068","prefecture":"FUKUI KEN","city":"FUKUI SHI","town":"TSUNORICHO","perfecture_jp":"福井県","jp_add_1":"福井市","jp_add_2":"角折町"},"9188162":{"post_code":"9188162","prefecture":"FUKUI KEN","city":"FUKUI SHI","town":"TSUNOHARACHO","perfecture_jp":"福井県","jp_add_1":"福井市","jp_add_2":"角原町"},"9188216":{"post_code":"9188216","prefecture":"FUKUI KEN","city":"FUKUI SHI","town":"TENGACHO","perfecture_jp":"福井県","jp_add_1":"福井市","jp_add_2":"殿下町"},"9188136":{"post_code":"9188136","prefecture":"FUKUI KEN","city":"FUKUI SHI","town":"TENNOCHO","perfecture_jp":"福井県","jp_add_1":"福井市","jp_add_2":"天王町"},"9188231":{"post_code":"9188231","prefecture":"FUKUI KEN","city":"FUKUI SHI","town":"TOIYACHO","perfecture_jp":"福井県","jp_add_1":"福井市","jp_add_2":"問屋町"},"9188165":{"post_code":"9188165","prefecture":"FUKUI KEN","city":"FUKUI SHI","town":"TOKUOCHO","perfecture_jp":"福井県","jp_add_1":"福井市","jp_add_2":"徳尾町"},"9188151":{"post_code":"9188151","prefecture":"FUKUI KEN","city":"FUKUI SHI","town":"NAKAARAIMACHI","perfecture_jp":"福井県","jp_add_1":"福井市","jp_add_2":"中荒井町"},"9188186":{"post_code":"9188186","prefecture":"FUKUI KEN","city":"FUKUI SHI","town":"NAKANO","perfecture_jp":"福井県","jp_add_1":"福井市","jp_add_2":"中野"},"9188185":{"post_code":"9188185","prefecture":"FUKUI KEN","city":"FUKUI SHI","town":"NAKANOCHO","perfecture_jp":"福井県","jp_add_1":"福井市","jp_add_2":"中野町"},"9188034":{"post_code":"9188034","prefecture":"FUKUI KEN","city":"FUKUI SHI","town":"NAGOCHO","perfecture_jp":"福井県","jp_add_1":"福井市","jp_add_2":"南居町"},"9188102":{"post_code":"9188102","prefecture":"FUKUI KEN","city":"FUKUI SHI","town":"NISHIITAGAKICHO","perfecture_jp":"福井県","jp_add_1":"福井市","jp_add_2":"西板垣町"},"9188064":{"post_code":"9188064","prefecture":"FUKUI KEN","city":"FUKUI SHI","town":"NISHIGAKUEN","perfecture_jp":"福井県","jp_add_1":"福井市","jp_add_2":"西学園"},"9188004":{"post_code":"9188004","prefecture":"FUKUI KEN","city":"FUKUI SHI","town":"NISHIKIDA","perfecture_jp":"福井県","jp_add_1":"福井市","jp_add_2":"西木田"},"9188041":{"post_code":"9188041","prefecture":"FUKUI KEN","city":"FUKUI SHI","town":"NISHISHIMONOCHO","perfecture_jp":"福井県","jp_add_1":"福井市","jp_add_2":"西下野町"},"9188023":{"post_code":"9188023","prefecture":"FUKUI KEN","city":"FUKUI SHI","town":"NISHITANI","perfecture_jp":"福井県","jp_add_1":"福井市","jp_add_2":"西谷"},"9188022":{"post_code":"9188022","prefecture":"FUKUI KEN","city":"FUKUI SHI","town":"NISHITANICHO","perfecture_jp":"福井県","jp_add_1":"福井市","jp_add_2":"西谷町"},"9188075":{"post_code":"9188075","prefecture":"FUKUI KEN","city":"FUKUI SHI","town":"HAZAKACHO","perfecture_jp":"福井県","jp_add_1":"福井市","jp_add_2":"羽坂町"},"9188224":{"post_code":"9188224","prefecture":"FUKUI KEN","city":"FUKUI SHI","town":"HANANOTANICHO","perfecture_jp":"福井県","jp_add_1":"福井市","jp_add_2":"花野谷町"},"9188187":{"post_code":"9188187","prefecture":"FUKUI KEN","city":"FUKUI SHI","town":"HANAMORICHO","perfecture_jp":"福井県","jp_add_1":"福井市","jp_add_2":"花守町"},"9188014":{"post_code":"9188014","prefecture":"FUKUI KEN","city":"FUKUI SHI","town":"HANANDO NAKA","perfecture_jp":"福井県","jp_add_1":"福井市","jp_add_2":"花堂中"},"9188013":{"post_code":"9188013","prefecture":"FUKUI KEN","city":"FUKUI SHI","town":"HANANDO HIGASHI","perfecture_jp":"福井県","jp_add_1":"福井市","jp_add_2":"花堂東"},"9188015":{"post_code":"9188015","prefecture":"FUKUI KEN","city":"FUKUI SHI","town":"HANANDO MINAMI","perfecture_jp":"福井県","jp_add_1":"福井市","jp_add_2":"花堂南"},"9188012":{"post_code":"9188012","prefecture":"FUKUI KEN","city":"FUKUI SHI","town":"HANANDO KITA","perfecture_jp":"福井県","jp_add_1":"福井市","jp_add_2":"花堂北"},"9188214":{"post_code":"9188214","prefecture":"FUKUI KEN","city":"FUKUI SHI","town":"HIGASHIIMAIZUMICHO","perfecture_jp":"福井県","jp_add_1":"福井市","jp_add_2":"東今泉町"},"9188042":{"post_code":"9188042","prefecture":"FUKUI KEN","city":"FUKUI SHI","town":"HIGASHISHIMONOCHO","perfecture_jp":"福井県","jp_add_1":"福井市","jp_add_2":"東下野町"},"9188156":{"post_code":"9188156","prefecture":"FUKUI KEN","city":"FUKUI SHI","town":"HIKIMECHO","perfecture_jp":"福井県","jp_add_1":"福井市","jp_add_2":"引目町"},"9188045":{"post_code":"9188045","prefecture":"FUKUI KEN","city":"FUKUI SHI","town":"FUKUSHIMMACHI","perfecture_jp":"福井県","jp_add_1":"福井市","jp_add_2":"福新町"},"9188027":{"post_code":"9188027","prefecture":"FUKUI KEN","city":"FUKUI SHI","town":"FUKUMACHI","perfecture_jp":"福井県","jp_add_1":"福井市","jp_add_2":"福"},"9188026":{"post_code":"9188026","prefecture":"FUKUI KEN","city":"FUKUI SHI","town":"FUCHIMACHI","perfecture_jp":"福井県","jp_add_1":"福井市","jp_add_2":"渕"},"9188154":{"post_code":"9188154","prefecture":"FUKUI KEN","city":"FUKUI SHI","town":"FUYUNOCHO","perfecture_jp":"福井県","jp_add_1":"福井市","jp_add_2":"冬野町"},"9188115":{"post_code":"9188115","prefecture":"FUKUI KEN","city":"FUKUI SHI","town":"BESSHOCHO","perfecture_jp":"福井県","jp_add_1":"福井市","jp_add_2":"別所町"},"9188161":{"post_code":"9188161","prefecture":"FUKUI KEN","city":"FUKUI SHI","town":"HOKOGASAKICHO","perfecture_jp":"福井県","jp_add_1":"福井市","jp_add_2":"鉾ケ崎町"},"9188074":{"post_code":"9188074","prefecture":"FUKUI KEN","city":"FUKUI SHI","town":"HOSOSAKACHO","perfecture_jp":"福井県","jp_add_1":"福井市","jp_add_2":"細坂町"},"9188076":{"post_code":"9188076","prefecture":"FUKUI KEN","city":"FUKUI SHI","town":"HONDOCHO","perfecture_jp":"福井県","jp_add_1":"福井市","jp_add_2":"本堂町"},"9188024":{"post_code":"9188024","prefecture":"FUKUI KEN","city":"FUKUI SHI","town":"MAIYACHO","perfecture_jp":"福井県","jp_add_1":"福井市","jp_add_2":"舞屋町"},"9188184":{"post_code":"9188184","prefecture":"FUKUI KEN","city":"FUKUI SHI","town":"MAKICHO","perfecture_jp":"福井県","jp_add_1":"福井市","jp_add_2":"真木町"},"9188188":{"post_code":"9188188","prefecture":"FUKUI KEN","city":"FUKUI SHI","town":"MIONOCHO","perfecture_jp":"福井県","jp_add_1":"福井市","jp_add_2":"三尾野町"},"9188065":{"post_code":"9188065","prefecture":"FUKUI KEN","city":"FUKUI SHI","town":"MIZUKOSHI","perfecture_jp":"福井県","jp_add_1":"福井市","jp_add_2":"水越"},"9188032":{"post_code":"9188032","prefecture":"FUKUI KEN","city":"FUKUI SHI","town":"MINAMIEMORICHO","perfecture_jp":"福井県","jp_add_1":"福井市","jp_add_2":"南江守町"},"9188204":{"post_code":"9188204","prefecture":"FUKUI KEN","city":"FUKUI SHI","town":"MINAMIYOTSUI","perfecture_jp":"福井県","jp_add_1":"福井市","jp_add_2":"南四ツ居"},"9188201":{"post_code":"9188201","prefecture":"FUKUI KEN","city":"FUKUI SHI","town":"MINAMIYOTSUICHO","perfecture_jp":"福井県","jp_add_1":"福井市","jp_add_2":"南四ツ居町"},"9188005":{"post_code":"9188005","prefecture":"FUKUI KEN","city":"FUKUI SHI","town":"MINORI","perfecture_jp":"福井県","jp_add_1":"福井市","jp_add_2":"みのり"},"9188225":{"post_code":"9188225","prefecture":"FUKUI KEN","city":"FUKUI SHI","town":"MIYAJICHO","perfecture_jp":"福井県","jp_add_1":"福井市","jp_add_2":"宮地町"},"9188051":{"post_code":"9188051","prefecture":"FUKUI KEN","city":"FUKUI SHI","town":"MOMOZONO","perfecture_jp":"福井県","jp_add_1":"福井市","jp_add_2":"桃園"},"9188171":{"post_code":"9188171","prefecture":"FUKUI KEN","city":"FUKUI SHI","town":"MORIYUKICHO","perfecture_jp":"福井県","jp_add_1":"福井市","jp_add_2":"森行町"},"9188021":{"post_code":"9188021","prefecture":"FUKUI KEN","city":"FUKUI SHI","town":"MONZENCHO","perfecture_jp":"福井県","jp_add_1":"福井市","jp_add_2":"門前"},"9188073":{"post_code":"9188073","prefecture":"FUKUI KEN","city":"FUKUI SHI","town":"YASUDACHO","perfecture_jp":"福井県","jp_add_1":"福井市","jp_add_2":"安田町"},"9188009":{"post_code":"9188009","prefecture":"FUKUI KEN","city":"FUKUI SHI","town":"YAMAOKUCHO","perfecture_jp":"福井県","jp_add_1":"福井市","jp_add_2":"山奥町"},"9188008":{"post_code":"9188008","prefecture":"FUKUI KEN","city":"FUKUI SHI","town":"YURAKUCHO","perfecture_jp":"福井県","jp_add_1":"福井市","jp_add_2":"有楽町"},"9188215":{"post_code":"9188215","prefecture":"FUKUI KEN","city":"FUKUI SHI","town":"RYOMACHI","perfecture_jp":"福井県","jp_add_1":"福井市","jp_add_2":"寮町"},"9188055":{"post_code":"9188055","prefecture":"FUKUI KEN","city":"FUKUI SHI","town":"WAKASUGICHO","perfecture_jp":"福井県","jp_add_1":"福井市","jp_add_2":"若杉"},"9188056":{"post_code":"9188056","prefecture":"FUKUI KEN","city":"FUKUI SHI","town":"WAKASUGIHAMA","perfecture_jp":"福井県","jp_add_1":"福井市","jp_add_2":"若杉浜"},"9188066":{"post_code":"9188066","prefecture":"FUKUI KEN","city":"FUKUI SHI","town":"WATARICHO","perfecture_jp":"福井県","jp_add_1":"福井市","jp_add_2":"渡町"},"9188238":{"post_code":"9188238","prefecture":"FUKUI KEN","city":"FUKUI SHI","town":"WADA","perfecture_jp":"福井県","jp_add_1":"福井市","jp_add_2":"和田"},"9188236":{"post_code":"9188236","prefecture":"FUKUI KEN","city":"FUKUI SHI","town":"WADA NAKA","perfecture_jp":"福井県","jp_add_1":"福井市","jp_add_2":"和田中"},"9188235":{"post_code":"9188235","prefecture":"FUKUI KEN","city":"FUKUI SHI","town":"WADA NAKACHO","perfecture_jp":"福井県","jp_add_1":"福井市","jp_add_2":"和田中町"},"9188237":{"post_code":"9188237","prefecture":"FUKUI KEN","city":"FUKUI SHI","town":"WADA HIGASHI","perfecture_jp":"福井県","jp_add_1":"福井市","jp_add_2":"和田東"}}