{"9190314":{"post_code":"9190314","prefecture":"FUKUI KEN","city":"FUKUI SHI","town":"IKEBUCHO","perfecture_jp":"福井県","jp_add_1":"福井市","jp_add_2":"生部町"},"9190303":{"post_code":"9190303","prefecture":"FUKUI KEN","city":"FUKUI SHI","town":"IWAKURACHO","perfecture_jp":"福井県","jp_add_1":"福井市","jp_add_2":"岩倉町"},"9190323":{"post_code":"9190323","prefecture":"FUKUI KEN","city":"FUKUI SHI","town":"OTACHO","perfecture_jp":"福井県","jp_add_1":"福井市","jp_add_2":"太田町"},"9190327":{"post_code":"9190327","prefecture":"FUKUI KEN","city":"FUKUI SHI","town":"ODOROCHO","perfecture_jp":"福井県","jp_add_1":"福井市","jp_add_2":"大土呂町"},"9190316":{"post_code":"9190316","prefecture":"FUKUI KEN","city":"FUKUI SHI","town":"OMURACHO","perfecture_jp":"福井県","jp_add_1":"福井市","jp_add_2":"大村町"},"9190322":{"post_code":"9190322","prefecture":"FUKUI KEN","city":"FUKUI SHI","town":"KAMIKOGITACHO","perfecture_jp":"福井県","jp_add_1":"福井市","jp_add_2":"上河北町"},"9190302":{"post_code":"9190302","prefecture":"FUKUI KEN","city":"FUKUI SHI","town":"KAMIHOSOECHO","perfecture_jp":"福井県","jp_add_1":"福井市","jp_add_2":"上細江町"},"9190318":{"post_code":"9190318","prefecture":"FUKUI KEN","city":"FUKUI SHI","town":"KITAYAMASHIMBOCHO","perfecture_jp":"福井県","jp_add_1":"福井市","jp_add_2":"北山新保町"},"9190317":{"post_code":"9190317","prefecture":"FUKUI KEN","city":"FUKUI SHI","town":"KITAYAMACHO","perfecture_jp":"福井県","jp_add_1":"福井市","jp_add_2":"北山町"},"9190321":{"post_code":"9190321","prefecture":"FUKUI KEN","city":"FUKUI SHI","town":"SHIMOKOGITACHO","perfecture_jp":"福井県","jp_add_1":"福井市","jp_add_2":"下河北町"},"9190373":{"post_code":"9190373","prefecture":"FUKUI KEN","city":"FUKUI SHI","town":"SHIMOTOGOCHO(SHIMMURA)","perfecture_jp":"福井県","jp_add_1":"福井市","jp_add_2":"下東郷町"},"9190301":{"post_code":"9190301","prefecture":"FUKUI KEN","city":"FUKUI SHI","town":"SHIMOHOSOECHO","perfecture_jp":"福井県","jp_add_1":"福井市","jp_add_2":"下細江町"},"9190328":{"post_code":"9190328","prefecture":"FUKUI KEN","city":"FUKUI SHI","town":"SHIMBIRAKICHO","perfecture_jp":"福井県","jp_add_1":"福井市","jp_add_2":"新開町"},"9190311":{"post_code":"9190311","prefecture":"FUKUI KEN","city":"FUKUI SHI","town":"TAJISHIMACHO","perfecture_jp":"福井県","jp_add_1":"福井市","jp_add_2":"田治島町"},"9190304":{"post_code":"9190304","prefecture":"FUKUI KEN","city":"FUKUI SHI","town":"TANAKACHO","perfecture_jp":"福井県","jp_add_1":"福井市","jp_add_2":"田中町"},"9190305":{"post_code":"9190305","prefecture":"FUKUI KEN","city":"FUKUI SHI","town":"TOKUMITSUCHO","perfecture_jp":"福井県","jp_add_1":"福井市","jp_add_2":"徳光町"},"9190313":{"post_code":"9190313","prefecture":"FUKUI KEN","city":"FUKUI SHI","town":"NISHIOMICHO","perfecture_jp":"福井県","jp_add_1":"福井市","jp_add_2":"西大味町"},"9190315":{"post_code":"9190315","prefecture":"FUKUI KEN","city":"FUKUI SHI","town":"NISHIBUKUROCHO","perfecture_jp":"福井県","jp_add_1":"福井市","jp_add_2":"西袋町"},"9190326":{"post_code":"9190326","prefecture":"FUKUI KEN","city":"FUKUI SHI","town":"HANDACHO","perfecture_jp":"福井県","jp_add_1":"福井市","jp_add_2":"半田町"},"9190312":{"post_code":"9190312","prefecture":"FUKUI KEN","city":"FUKUI SHI","town":"HIGASHIOMICHO","perfecture_jp":"福井県","jp_add_1":"福井市","jp_add_2":"東大味町"},"9190325":{"post_code":"9190325","prefecture":"FUKUI KEN","city":"FUKUI SHI","town":"FUTAGAMICHO","perfecture_jp":"福井県","jp_add_1":"福井市","jp_add_2":"二上町"},"9190324":{"post_code":"9190324","prefecture":"FUKUI KEN","city":"FUKUI SHI","town":"HODANICHO","perfecture_jp":"福井県","jp_add_1":"福井市","jp_add_2":"帆谷町"},"9191279":{"post_code":"9191279","prefecture":"FUKUI KEN","city":"TSURUGA SHI","town":"SHIRAKI","perfecture_jp":"福井県","jp_add_1":"敦賀市","jp_add_2":"白木"},"9190600":{"post_code":"9190600","prefecture":"FUKUI KEN","city":"AWARA SHI","town":"IKANIKEISAIGANAIBAAI","perfecture_jp":"福井県","jp_add_1":"あわら市","jp_add_2":""},"9190814":{"post_code":"9190814","prefecture":"FUKUI KEN","city":"AWARA SHI","town":"AONOKI","perfecture_jp":"福井県","jp_add_1":"あわら市","jp_add_2":"青ノ木"},"9190614":{"post_code":"9190614","prefecture":"FUKUI KEN","city":"AWARA SHI","town":"II","perfecture_jp":"福井県","jp_add_1":"あわら市","jp_add_2":"伊井"},"9190615":{"post_code":"9190615","prefecture":"FUKUI KEN","city":"AWARA SHI","town":"IKEGUCHI","perfecture_jp":"福井県","jp_add_1":"あわら市","jp_add_2":"池口"},"9190621":{"post_code":"9190621","prefecture":"FUKUI KEN","city":"AWARA SHI","town":"ICHIHIME","perfecture_jp":"福井県","jp_add_1":"あわら市","jp_add_2":"市姫"},"9190623":{"post_code":"9190623","prefecture":"FUKUI KEN","city":"AWARA SHI","town":"INAGOE","perfecture_jp":"福井県","jp_add_1":"あわら市","jp_add_2":"稲越"},"9190721":{"post_code":"9190721","prefecture":"FUKUI KEN","city":"AWARA SHI","town":"USHINOYA","perfecture_jp":"福井県","jp_add_1":"あわら市","jp_add_2":"牛ノ谷"},"9190735":{"post_code":"9190735","prefecture":"FUKUI KEN","city":"AWARA SHI","town":"USHIROYAMA","perfecture_jp":"福井県","jp_add_1":"あわら市","jp_add_2":"後山"},"9190722":{"post_code":"9190722","prefecture":"FUKUI KEN","city":"AWARA SHI","town":"UNEICHINONO","perfecture_jp":"福井県","jp_add_1":"あわら市","jp_add_2":"畝市野々"},"9190742":{"post_code":"9190742","prefecture":"FUKUI KEN","city":"AWARA SHI","town":"URYU","perfecture_jp":"福井県","jp_add_1":"あわら市","jp_add_2":"瓜生"},"9190724":{"post_code":"9190724","prefecture":"FUKUI KEN","city":"AWARA SHI","town":"UWANO","perfecture_jp":"福井県","jp_add_1":"あわら市","jp_add_2":"上野"},"9190628":{"post_code":"9190628","prefecture":"FUKUI KEN","city":"AWARA SHI","town":"OMIZO","perfecture_jp":"福井県","jp_add_1":"あわら市","jp_add_2":"大溝"},"9190812":{"post_code":"9190812","prefecture":"FUKUI KEN","city":"AWARA SHI","town":"KAKIBARA","perfecture_jp":"福井県","jp_add_1":"あわら市","jp_add_2":"柿原"},"9190732":{"post_code":"9190732","prefecture":"FUKUI KEN","city":"AWARA SHI","town":"KAMADANI","perfecture_jp":"福井県","jp_add_1":"あわら市","jp_add_2":"鎌谷"},"9190616":{"post_code":"9190616","prefecture":"FUKUI KEN","city":"AWARA SHI","town":"KAWARAIDE","perfecture_jp":"福井県","jp_add_1":"あわら市","jp_add_2":"河原井手"},"9190749":{"post_code":"9190749","prefecture":"FUKUI KEN","city":"AWARA SHI","town":"KITA","perfecture_jp":"福井県","jp_add_1":"あわら市","jp_add_2":"北"},"9190634":{"post_code":"9190634","prefecture":"FUKUI KEN","city":"AWARA SHI","town":"KITAKANAZU","perfecture_jp":"福井県","jp_add_1":"あわら市","jp_add_2":"北金津"},"9190748":{"post_code":"9190748","prefecture":"FUKUI KEN","city":"AWARA SHI","town":"KITANO","perfecture_jp":"福井県","jp_add_1":"あわら市","jp_add_2":"北野"},"9190744":{"post_code":"9190744","prefecture":"FUKUI KEN","city":"AWARA SHI","town":"KITAHIKIDA","perfecture_jp":"福井県","jp_add_1":"あわら市","jp_add_2":"北疋田"},"9190733":{"post_code":"9190733","prefecture":"FUKUI KEN","city":"AWARA SHI","town":"KIYOTAKI","perfecture_jp":"福井県","jp_add_1":"あわら市","jp_add_2":"清滝"},"9190736":{"post_code":"9190736","prefecture":"FUKUI KEN","city":"AWARA SHI","town":"KUNUGI","perfecture_jp":"福井県","jp_add_1":"あわら市","jp_add_2":"椚"},"9190723":{"post_code":"9190723","prefecture":"FUKUI KEN","city":"AWARA SHI","town":"KUMASAKA","perfecture_jp":"福井県","jp_add_1":"あわら市","jp_add_2":"熊坂"},"9190612":{"post_code":"9190612","prefecture":"FUKUI KEN","city":"AWARA SHI","town":"KUWABARA","perfecture_jp":"福井県","jp_add_1":"あわら市","jp_add_2":"桑原"},"9190737":{"post_code":"9190737","prefecture":"FUKUI KEN","city":"AWARA SHI","town":"GONZE","perfecture_jp":"福井県","jp_add_1":"あわら市","jp_add_2":"権世"},"9190731":{"post_code":"9190731","prefecture":"FUKUI KEN","city":"AWARA SHI","town":"GONZEICHINONO","perfecture_jp":"福井県","jp_add_1":"あわら市","jp_add_2":"権世市野々"},"9190817":{"post_code":"9190817","prefecture":"FUKUI KEN","city":"AWARA SHI","town":"SAKAGUCHI","perfecture_jp":"福井県","jp_add_1":"あわら市","jp_add_2":"坂口"},"9190726":{"post_code":"9190726","prefecture":"FUKUI KEN","city":"AWARA SHI","town":"SASAOKA","perfecture_jp":"福井県","jp_add_1":"あわら市","jp_add_2":"笹岡"},"9190804":{"post_code":"9190804","prefecture":"FUKUI KEN","city":"AWARA SHI","town":"SAWA","perfecture_jp":"福井県","jp_add_1":"あわら市","jp_add_2":"沢"},"9190727":{"post_code":"9190727","prefecture":"FUKUI KEN","city":"AWARA SHI","town":"SHIMOKANAYA","perfecture_jp":"福井県","jp_add_1":"あわら市","jp_add_2":"下金屋"},"9190604":{"post_code":"9190604","prefecture":"FUKUI KEN","city":"AWARA SHI","town":"JIYUGAOKA","perfecture_jp":"福井県","jp_add_1":"あわら市","jp_add_2":"自由ケ丘"},"9190745":{"post_code":"9190745","prefecture":"FUKUI KEN","city":"AWARA SHI","town":"JIROMARU","perfecture_jp":"福井県","jp_add_1":"あわら市","jp_add_2":"次郎丸"},"9190602":{"post_code":"9190602","prefecture":"FUKUI KEN","city":"AWARA SHI","town":"SUGANO","perfecture_jp":"福井県","jp_add_1":"あわら市","jp_add_2":"菅野"},"9190815":{"post_code":"9190815","prefecture":"FUKUI KEN","city":"AWARA SHI","town":"SEIO","perfecture_jp":"福井県","jp_add_1":"あわら市","jp_add_2":"清王"},"9190611":{"post_code":"9190611","prefecture":"FUKUI KEN","city":"AWARA SHI","town":"SEIMA","perfecture_jp":"福井県","jp_add_1":"あわら市","jp_add_2":"清間"},"9190631":{"post_code":"9190631","prefecture":"FUKUI KEN","city":"AWARA SHI","town":"TAKATSUKA","perfecture_jp":"福井県","jp_add_1":"あわら市","jp_add_2":"高塚"},"9190805":{"post_code":"9190805","prefecture":"FUKUI KEN","city":"AWARA SHI","town":"TAKI","perfecture_jp":"福井県","jp_add_1":"あわら市","jp_add_2":"滝"},"9190741":{"post_code":"9190741","prefecture":"FUKUI KEN","city":"AWARA SHI","town":"NAKAGAWA","perfecture_jp":"福井県","jp_add_1":"あわら市","jp_add_2":"中川"},"9190802":{"post_code":"9190802","prefecture":"FUKUI KEN","city":"AWARA SHI","town":"HASHIYA","perfecture_jp":"福井県","jp_add_1":"あわら市","jp_add_2":"橋屋"},"9190811":{"post_code":"9190811","prefecture":"FUKUI KEN","city":"AWARA SHI","town":"HASUGAURA","perfecture_jp":"福井県","jp_add_1":"あわら市","jp_add_2":"蓮ケ浦"},"9190633":{"post_code":"9190633","prefecture":"FUKUI KEN","city":"AWARA SHI","town":"HANANOMORI","perfecture_jp":"福井県","jp_add_1":"あわら市","jp_add_2":"花乃杜"},"9190632":{"post_code":"9190632","prefecture":"FUKUI KEN","city":"AWARA SHI","town":"HARUMIYA","perfecture_jp":"福井県","jp_add_1":"あわら市","jp_add_2":"春宮"},"9190746":{"post_code":"9190746","prefecture":"FUKUI KEN","city":"AWARA SHI","town":"HIGASHITANAKA","perfecture_jp":"福井県","jp_add_1":"あわら市","jp_add_2":"東田中"},"9190734":{"post_code":"9190734","prefecture":"FUKUI KEN","city":"AWARA SHI","town":"HIGASHIYAMA","perfecture_jp":"福井県","jp_add_1":"あわら市","jp_add_2":"東山"},"9190803":{"post_code":"9190803","prefecture":"FUKUI KEN","city":"AWARA SHI","town":"HIYAMA","perfecture_jp":"福井県","jp_add_1":"あわら市","jp_add_2":"樋山"},"9190613":{"post_code":"9190613","prefecture":"FUKUI KEN","city":"AWARA SHI","town":"FURUYAISHIZUKA","perfecture_jp":"福井県","jp_add_1":"あわら市","jp_add_2":"古屋石塚"},"9190801":{"post_code":"9190801","prefecture":"FUKUI KEN","city":"AWARA SHI","town":"HOSOROGI","perfecture_jp":"福井県","jp_add_1":"あわら市","jp_add_2":"細呂木"},"9190725":{"post_code":"9190725","prefecture":"FUKUI KEN","city":"AWARA SHI","town":"MAEDANI","perfecture_jp":"福井県","jp_add_1":"あわら市","jp_add_2":"前谷"},"9190747":{"post_code":"9190747","prefecture":"FUKUI KEN","city":"AWARA SHI","town":"MISUNO","perfecture_jp":"福井県","jp_add_1":"あわら市","jp_add_2":"御簾尾"},"9190743":{"post_code":"9190743","prefecture":"FUKUI KEN","city":"AWARA SHI","town":"MINAMIHIKIDA","perfecture_jp":"福井県","jp_add_1":"あわら市","jp_add_2":"南疋田"},"9190806":{"post_code":"9190806","prefecture":"FUKUI KEN","city":"AWARA SHI","town":"MIYADANI","perfecture_jp":"福井県","jp_add_1":"あわら市","jp_add_2":"宮谷"},"9190603":{"post_code":"9190603","prefecture":"FUKUI KEN","city":"AWARA SHI","town":"YACHI","perfecture_jp":"福井県","jp_add_1":"あわら市","jp_add_2":"矢地"},"9190813":{"post_code":"9190813","prefecture":"FUKUI KEN","city":"AWARA SHI","town":"YAMASAIHOJI","perfecture_jp":"福井県","jp_add_1":"あわら市","jp_add_2":"山西方寺"},"9190816":{"post_code":"9190816","prefecture":"FUKUI KEN","city":"AWARA SHI","town":"YAMAJURAKU","perfecture_jp":"福井県","jp_add_1":"あわら市","jp_add_2":"山十楽"},"9190601":{"post_code":"9190601","prefecture":"FUKUI KEN","city":"AWARA SHI","town":"YAMAMURO","perfecture_jp":"福井県","jp_add_1":"あわら市","jp_add_2":"山室"},"9190807":{"post_code":"9190807","prefecture":"FUKUI KEN","city":"AWARA SHI","town":"YUBINAKA","perfecture_jp":"福井県","jp_add_1":"あわら市","jp_add_2":"指中"},"9190517":{"post_code":"9190517","prefecture":"FUKUI KEN","city":"SAKAI SHI","town":"SAKAICHO ASAHI","perfecture_jp":"福井県","jp_add_1":"坂井市","jp_add_2":"坂井町朝日"},"9190531":{"post_code":"9190531","prefecture":"FUKUI KEN","city":"SAKAI SHI","town":"SAKAICHO IMAI","perfecture_jp":"福井県","jp_add_1":"坂井市","jp_add_2":"坂井町今井"},"9190547":{"post_code":"9190547","prefecture":"FUKUI KEN","city":"SAKAI SHI","town":"SAKAICHO OMI","perfecture_jp":"福井県","jp_add_1":"坂井市","jp_add_2":"坂井町大味"},"9190537":{"post_code":"9190537","prefecture":"FUKUI KEN","city":"SAKAI SHI","town":"SAKAICHO ORITO","perfecture_jp":"福井県","jp_add_1":"坂井市","jp_add_2":"坂井町折戸"},"9190522":{"post_code":"9190522","prefecture":"FUKUI KEN","city":"SAKAI SHI","town":"SAKAICHO KAMISHINJO","perfecture_jp":"福井県","jp_add_1":"坂井市","jp_add_2":"坂井町上新庄"},"9190502":{"post_code":"9190502","prefecture":"FUKUI KEN","city":"SAKAI SHI","town":"SAKAICHO KAMIZEKI","perfecture_jp":"福井県","jp_add_1":"坂井市","jp_add_2":"坂井町上関"},"9190526":{"post_code":"9190526","prefecture":"FUKUI KEN","city":"SAKAI SHI","town":"SAKAICHO KAMIHYOGO","perfecture_jp":"福井県","jp_add_1":"坂井市","jp_add_2":"坂井町上兵庫"},"9190505":{"post_code":"9190505","prefecture":"FUKUI KEN","city":"SAKAI SHI","town":"SAKAICHO KAWADA","perfecture_jp":"福井県","jp_add_1":"坂井市","jp_add_2":"坂井町河和田"},"9190536":{"post_code":"9190536","prefecture":"FUKUI KEN","city":"SAKAI SHI","town":"SAKAICHO KIBESHIMBO","perfecture_jp":"福井県","jp_add_1":"坂井市","jp_add_2":"坂井町木部新保"},"9190533":{"post_code":"9190533","prefecture":"FUKUI KEN","city":"SAKAI SHI","town":"SAKAICHO KIBEHIGASHI","perfecture_jp":"福井県","jp_add_1":"坂井市","jp_add_2":"坂井町木部東"},"9190534":{"post_code":"9190534","prefecture":"FUKUI KEN","city":"SAKAI SHI","town":"SAKAICHO KIYONAGA","perfecture_jp":"福井県","jp_add_1":"坂井市","jp_add_2":"坂井町清永"},"9190542":{"post_code":"9190542","prefecture":"FUKUI KEN","city":"SAKAI SHI","town":"SAKAICHO KURAGAICHI","perfecture_jp":"福井県","jp_add_1":"坂井市","jp_add_2":"坂井町蔵垣内"},"9190507":{"post_code":"9190507","prefecture":"FUKUI KEN","city":"SAKAI SHI","town":"SAKAICHO GOHON","perfecture_jp":"福井県","jp_add_1":"坂井市","jp_add_2":"坂井町五本"},"9190504":{"post_code":"9190504","prefecture":"FUKUI KEN","city":"SAKAI SHI","town":"SAKAICHO GOYUDEN","perfecture_jp":"福井県","jp_add_1":"坂井市","jp_add_2":"坂井町御油田"},"9190506":{"post_code":"9190506","prefecture":"FUKUI KEN","city":"SAKAI SHI","town":"SAKAICHO SADAMUNE","perfecture_jp":"福井県","jp_add_1":"坂井市","jp_add_2":"坂井町定旨"},"9190535":{"post_code":"9190535","prefecture":"FUKUI KEN","city":"SAKAI SHI","town":"SAKAICHO SHIMA","perfecture_jp":"福井県","jp_add_1":"坂井市","jp_add_2":"坂井町島"},"9190521":{"post_code":"9190521","prefecture":"FUKUI KEN","city":"SAKAI SHI","town":"SAKAICHO SHIMOSHINJO","perfecture_jp":"福井県","jp_add_1":"坂井市","jp_add_2":"坂井町下新庄"},"9190501":{"post_code":"9190501","prefecture":"FUKUI KEN","city":"SAKAI SHI","town":"SAKAICHO SHIMOZEKI","perfecture_jp":"福井県","jp_add_1":"坂井市","jp_add_2":"坂井町下関"},"9190527":{"post_code":"9190527","prefecture":"FUKUI KEN","city":"SAKAI SHI","town":"SAKAICHO SHIMOHYOGO","perfecture_jp":"福井県","jp_add_1":"坂井市","jp_add_2":"坂井町下兵庫"},"9190523":{"post_code":"9190523","prefecture":"FUKUI KEN","city":"SAKAI SHI","town":"SAKAICHO SHINJO","perfecture_jp":"福井県","jp_add_1":"坂井市","jp_add_2":"坂井町新庄"},"9190532":{"post_code":"9190532","prefecture":"FUKUI KEN","city":"SAKAI SHI","town":"SAKAICHO TAKAYANAGI","perfecture_jp":"福井県","jp_add_1":"坂井市","jp_add_2":"坂井町高柳"},"9190546":{"post_code":"9190546","prefecture":"FUKUI KEN","city":"SAKAI SHI","town":"SAKAICHO TAKO","perfecture_jp":"福井県","jp_add_1":"坂井市","jp_add_2":"坂井町蛸"},"9190513":{"post_code":"9190513","prefecture":"FUKUI KEN","city":"SAKAI SHI","town":"SAKAICHO TAJIMA","perfecture_jp":"福井県","jp_add_1":"坂井市","jp_add_2":"坂井町田島"},"9190514":{"post_code":"9190514","prefecture":"FUKUI KEN","city":"SAKAI SHI","town":"SAKAICHO TAJIMAKUBO","perfecture_jp":"福井県","jp_add_1":"坂井市","jp_add_2":"坂井町田島窪"},"9190525":{"post_code":"9190525","prefecture":"FUKUI KEN","city":"SAKAI SHI","town":"SAKAICHO TOKUBUNDEN","perfecture_jp":"福井県","jp_add_1":"坂井市","jp_add_2":"坂井町徳分田"},"9190511":{"post_code":"9190511","prefecture":"FUKUI KEN","city":"SAKAI SHI","town":"SAKAICHO NAGABATAKE","perfecture_jp":"福井県","jp_add_1":"坂井市","jp_add_2":"坂井町長畑"},"9190503":{"post_code":"9190503","prefecture":"FUKUI KEN","city":"SAKAI SHI","town":"SAKAICHO NAGAYA","perfecture_jp":"福井県","jp_add_1":"坂井市","jp_add_2":"坂井町長屋"},"9190543":{"post_code":"9190543","prefecture":"FUKUI KEN","city":"SAKAI SHI","town":"SAKAICHO NISHI","perfecture_jp":"福井県","jp_add_1":"坂井市","jp_add_2":"坂井町西"},"9190541":{"post_code":"9190541","prefecture":"FUKUI KEN","city":"SAKAI SHI","town":"SAKAICHO HIGASHI","perfecture_jp":"福井県","jp_add_1":"坂井市","jp_add_2":"坂井町東"},"9190545":{"post_code":"9190545","prefecture":"FUKUI KEN","city":"SAKAI SHI","town":"SAKAICHO HIGASHIARAI","perfecture_jp":"福井県","jp_add_1":"坂井市","jp_add_2":"坂井町東荒井"},"9190524":{"post_code":"9190524","prefecture":"FUKUI KEN","city":"SAKAI SHI","town":"SAKAICHO HIGASHINAGATA","perfecture_jp":"福井県","jp_add_1":"坂井市","jp_add_2":"坂井町東長田"},"9190544":{"post_code":"9190544","prefecture":"FUKUI KEN","city":"SAKAI SHI","town":"SAKAICHO HIGASHINAKANO","perfecture_jp":"福井県","jp_add_1":"坂井市","jp_add_2":"坂井町東中野"},"9190516":{"post_code":"9190516","prefecture":"FUKUI KEN","city":"SAKAI SHI","town":"SAKAICHO FUKUSHIMA","perfecture_jp":"福井県","jp_add_1":"坂井市","jp_add_2":"坂井町福島"},"9190512":{"post_code":"9190512","prefecture":"FUKUI KEN","city":"SAKAI SHI","town":"SAKAICHO MIYARYO","perfecture_jp":"福井県","jp_add_1":"坂井市","jp_add_2":"坂井町宮領"},"9190515":{"post_code":"9190515","prefecture":"FUKUI KEN","city":"SAKAI SHI","town":"SAKAICHO WAKAMIYA","perfecture_jp":"福井県","jp_add_1":"坂井市","jp_add_2":"坂井町若宮"},"9190483":{"post_code":"9190483","prefecture":"FUKUI KEN","city":"SAKAI SHI","town":"HARUECHO ISHIZUKA","perfecture_jp":"福井県","jp_add_1":"坂井市","jp_add_2":"春江町石塚"},"9190423":{"post_code":"9190423","prefecture":"FUKUI KEN","city":"SAKAI SHI","town":"HARUECHO ISHIBOTOKE","perfecture_jp":"福井県","jp_add_1":"坂井市","jp_add_2":"春江町石仏"},"9190424":{"post_code":"9190424","prefecture":"FUKUI KEN","city":"SAKAI SHI","town":"HARUECHO ICHIINO","perfecture_jp":"福井県","jp_add_1":"坂井市","jp_add_2":"春江町いちい野"},"9190425":{"post_code":"9190425","prefecture":"FUKUI KEN","city":"SAKAI SHI","town":"HARUECHO ICHIINOKITA","perfecture_jp":"福井県","jp_add_1":"坂井市","jp_add_2":"春江町いちい野北"},"9190426":{"post_code":"9190426","prefecture":"FUKUI KEN","city":"SAKAI SHI","town":"HARUECHO ICHIINOCHUO","perfecture_jp":"福井県","jp_add_1":"坂井市","jp_add_2":"春江町いちい野中央"},"9190403":{"post_code":"9190403","prefecture":"FUKUI KEN","city":"SAKAI SHI","town":"HARUECHO INOMUKAI","perfecture_jp":"福井県","jp_add_1":"坂井市","jp_add_2":"春江町井向"},"9190455":{"post_code":"9190455","prefecture":"FUKUI KEN","city":"SAKAI SHI","town":"HARUECHO EDOMEKAMI","perfecture_jp":"福井県","jp_add_1":"坂井市","jp_add_2":"春江町江留上"},"9190451":{"post_code":"9190451","prefecture":"FUKUI KEN","city":"SAKAI SHI","town":"HARUECHO EDOMEKAMIASAHI","perfecture_jp":"福井県","jp_add_1":"坂井市","jp_add_2":"春江町江留上旭"},"9190463":{"post_code":"9190463","prefecture":"FUKUI KEN","city":"SAKAI SHI","town":"HARUECHO EDOMEKAMISHOWA","perfecture_jp":"福井県","jp_add_1":"坂井市","jp_add_2":"春江町江留上昭和"},"9190465":{"post_code":"9190465","prefecture":"FUKUI KEN","city":"SAKAI SHI","town":"HARUECHO EDOMEKAMISHIMMACHI","perfecture_jp":"福井県","jp_add_1":"坂井市","jp_add_2":"春江町江留上新町"},"9190453":{"post_code":"9190453","prefecture":"FUKUI KEN","city":"SAKAI SHI","town":"HARUECHO EDOMEKAMICHUO","perfecture_jp":"福井県","jp_add_1":"坂井市","jp_add_2":"春江町江留上中央"},"9190464":{"post_code":"9190464","prefecture":"FUKUI KEN","city":"SAKAI SHI","town":"HARUECHO EDOMEKAMINISHIKI","perfecture_jp":"福井県","jp_add_1":"坂井市","jp_add_2":"春江町江留上錦"},"9190454":{"post_code":"9190454","prefecture":"FUKUI KEN","city":"SAKAI SHI","town":"HARUECHO EDOMEKAMIHINODE","perfecture_jp":"福井県","jp_add_1":"坂井市","jp_add_2":"春江町江留上日の出"},"9190452":{"post_code":"9190452","prefecture":"FUKUI KEN","city":"SAKAI SHI","town":"HARUECHO EDOMEKAMIHOMMACHI","perfecture_jp":"福井県","jp_add_1":"坂井市","jp_add_2":"春江町江留上本町"},"9190461":{"post_code":"9190461","prefecture":"FUKUI KEN","city":"SAKAI SHI","town":"HARUECHO EDOMEKAMIMIDORI","perfecture_jp":"福井県","jp_add_1":"坂井市","jp_add_2":"春江町江留上緑"},"9190462":{"post_code":"9190462","prefecture":"FUKUI KEN","city":"SAKAI SHI","town":"HARUECHO EDOMEKAMIYAMATO","perfecture_jp":"福井県","jp_add_1":"坂井市","jp_add_2":"春江町江留上大和"},"9190415":{"post_code":"9190415","prefecture":"FUKUI KEN","city":"SAKAI SHI","town":"HARUECHO EDOMESHIMO","perfecture_jp":"福井県","jp_add_1":"坂井市","jp_add_2":"春江町江留下"},"9190417":{"post_code":"9190417","prefecture":"FUKUI KEN","city":"SAKAI SHI","town":"HARUECHO EDOMESHIMOAIDEN","perfecture_jp":"福井県","jp_add_1":"坂井市","jp_add_2":"春江町江留下相田"},"9190416":{"post_code":"9190416","prefecture":"FUKUI KEN","city":"SAKAI SHI","town":"HARUECHO EDOMESHIMOWAE","perfecture_jp":"福井県","jp_add_1":"坂井市","jp_add_2":"春江町江留下宇和江"},"9190418":{"post_code":"9190418","prefecture":"FUKUI KEN","city":"SAKAI SHI","town":"HARUECHO EDOMESHIMOTAKAMICHI","perfecture_jp":"福井県","jp_add_1":"坂井市","jp_add_2":"春江町江留下高道"},"9190414":{"post_code":"9190414","prefecture":"FUKUI KEN","city":"SAKAI SHI","town":"HARUECHO EDOMESHIMOYASHIKI","perfecture_jp":"福井県","jp_add_1":"坂井市","jp_add_2":"春江町江留下屋敷"},"9190412":{"post_code":"9190412","prefecture":"FUKUI KEN","city":"SAKAI SHI","town":"HARUECHO EDOMENAKA","perfecture_jp":"福井県","jp_add_1":"坂井市","jp_add_2":"春江町江留中"},"9190421":{"post_code":"9190421","prefecture":"FUKUI KEN","city":"SAKAI SHI","town":"HARUECHO OBARI","perfecture_jp":"福井県","jp_add_1":"坂井市","jp_add_2":"春江町大針"},"9190402":{"post_code":"9190402","prefecture":"FUKUI KEN","city":"SAKAI SHI","town":"HARUECHO OMAKI","perfecture_jp":"福井県","jp_add_1":"坂井市","jp_add_2":"春江町大牧"},"9190422":{"post_code":"9190422","prefecture":"FUKUI KEN","city":"SAKAI SHI","town":"HARUECHO OKINUNOME","perfecture_jp":"福井県","jp_add_1":"坂井市","jp_add_2":"春江町沖布目"},"9190405":{"post_code":"9190405","prefecture":"FUKUI KEN","city":"SAKAI SHI","town":"HARUECHO KAMIKOMORI","perfecture_jp":"福井県","jp_add_1":"坂井市","jp_add_2":"春江町上小森"},"9190408":{"post_code":"9190408","prefecture":"FUKUI KEN","city":"SAKAI SHI","town":"HARUECHO KIBESAIHOJI","perfecture_jp":"福井県","jp_add_1":"坂井市","jp_add_2":"春江町木部西方寺"},"9190471":{"post_code":"9190471","prefecture":"FUKUI KEN","city":"SAKAI SHI","town":"HARUECHO KONGOJI","perfecture_jp":"福井県","jp_add_1":"坂井市","jp_add_2":"春江町金剛寺"},"9190434":{"post_code":"9190434","prefecture":"FUKUI KEN","city":"SAKAI SHI","town":"HARUECHO SAKAIMOTOMACHI","perfecture_jp":"福井県","jp_add_1":"坂井市","jp_add_2":"春江町境"},"9190441":{"post_code":"9190441","prefecture":"FUKUI KEN","city":"SAKAI SHI","town":"HARUECHO SADASHIGE","perfecture_jp":"福井県","jp_add_1":"坂井市","jp_add_2":"春江町定重"},"9190409":{"post_code":"9190409","prefecture":"FUKUI KEN","city":"SAKAI SHI","town":"HARUECHO SADAHIRO","perfecture_jp":"福井県","jp_add_1":"坂井市","jp_add_2":"春江町定広"},"9190406":{"post_code":"9190406","prefecture":"FUKUI KEN","city":"SAKAI SHI","town":"HARUECHO SHIMOKOMORI","perfecture_jp":"福井県","jp_add_1":"坂井市","jp_add_2":"春江町下小森"},"9190487":{"post_code":"9190487","prefecture":"FUKUI KEN","city":"SAKAI SHI","town":"HARUECHO SHOZEN","perfecture_jp":"福井県","jp_add_1":"坂井市","jp_add_2":"春江町正善"},"9190443":{"post_code":"9190443","prefecture":"FUKUI KEN","city":"SAKAI SHI","town":"HARUECHO SHORENGE","perfecture_jp":"福井県","jp_add_1":"坂井市","jp_add_2":"春江町正蓮花"},"9190413":{"post_code":"9190413","prefecture":"FUKUI KEN","city":"SAKAI SHI","town":"HARUECHO ZUIOJI","perfecture_jp":"福井県","jp_add_1":"坂井市","jp_add_2":"春江町随応寺"},"9190481":{"post_code":"9190481","prefecture":"FUKUI KEN","city":"SAKAI SHI","town":"HARUECHO SEMBOJI","perfecture_jp":"福井県","jp_add_1":"坂井市","jp_add_2":"春江町千歩寺"},"9190479":{"post_code":"9190479","prefecture":"FUKUI KEN","city":"SAKAI SHI","town":"HARUECHO TAKAE","perfecture_jp":"福井県","jp_add_1":"坂井市","jp_add_2":"春江町高江"},"9190477":{"post_code":"9190477","prefecture":"FUKUI KEN","city":"SAKAI SHI","town":"HARUECHO TABATA","perfecture_jp":"福井県","jp_add_1":"坂井市","jp_add_2":"春江町田端"},"9190431":{"post_code":"9190431","prefecture":"FUKUI KEN","city":"SAKAI SHI","town":"HARUECHO TAMEKUNI","perfecture_jp":"福井県","jp_add_1":"坂井市","jp_add_2":"春江町為国"},"9190432":{"post_code":"9190432","prefecture":"FUKUI KEN","city":"SAKAI SHI","town":"HARUECHO TAMEKUNIKAMEGAKUBO","perfecture_jp":"福井県","jp_add_1":"坂井市","jp_add_2":"春江町為国亀ケ久保"},"9190435":{"post_code":"9190435","prefecture":"FUKUI KEN","city":"SAKAI SHI","town":"HARUECHO TAMEKUNISAIWAI","perfecture_jp":"福井県","jp_add_1":"坂井市","jp_add_2":"春江町為国幸"},"9190436":{"post_code":"9190436","prefecture":"FUKUI KEN","city":"SAKAI SHI","town":"HARUECHO TAMEKUNINAKAKU","perfecture_jp":"福井県","jp_add_1":"坂井市","jp_add_2":"春江町為国中区"},"9190437":{"post_code":"9190437","prefecture":"FUKUI KEN","city":"SAKAI SHI","town":"HARUECHO TAMEKUNINISHINOMIYA","perfecture_jp":"福井県","jp_add_1":"坂井市","jp_add_2":"春江町為国西の宮"},"9190433":{"post_code":"9190433","prefecture":"FUKUI KEN","city":"SAKAI SHI","town":"HARUECHO TAMEKUNIHEISEI","perfecture_jp":"福井県","jp_add_1":"坂井市","jp_add_2":"春江町為国平成"},"9190407":{"post_code":"9190407","prefecture":"FUKUI KEN","city":"SAKAI SHI","town":"HARUECHO TSUJI","perfecture_jp":"福井県","jp_add_1":"坂井市","jp_add_2":"春江町辻"},"9190485":{"post_code":"9190485","prefecture":"FUKUI KEN","city":"SAKAI SHI","town":"HARUECHO TORITSUGI","perfecture_jp":"福井県","jp_add_1":"坂井市","jp_add_2":"春江町取次"},"9190449":{"post_code":"9190449","prefecture":"FUKUI KEN","city":"SAKAI SHI","town":"HARUECHO NAKASUJI","perfecture_jp":"福井県","jp_add_1":"坂井市","jp_add_2":"春江町中筋"},"9190447":{"post_code":"9190447","prefecture":"FUKUI KEN","city":"SAKAI SHI","town":"HARUECHO NAKASUJIOTE","perfecture_jp":"福井県","jp_add_1":"坂井市","jp_add_2":"春江町中筋大手"},"9190446":{"post_code":"9190446","prefecture":"FUKUI KEN","city":"SAKAI SHI","town":"HARUECHO NAKASUJIKASUGA","perfecture_jp":"福井県","jp_add_1":"坂井市","jp_add_2":"春江町中筋春日"},"9190448":{"post_code":"9190448","prefecture":"FUKUI KEN","city":"SAKAI SHI","town":"HARUECHO NAKASUJIKITAURA","perfecture_jp":"福井県","jp_add_1":"坂井市","jp_add_2":"春江町中筋北浦"},"9190445":{"post_code":"9190445","prefecture":"FUKUI KEN","city":"SAKAI SHI","town":"HARUECHO NAKASUJITAKADA","perfecture_jp":"福井県","jp_add_1":"坂井市","jp_add_2":"春江町中筋高田"},"9190444":{"post_code":"9190444","prefecture":"FUKUI KEN","city":"SAKAI SHI","town":"HARUECHO NAKASUJIMITSUYA","perfecture_jp":"福井県","jp_add_1":"坂井市","jp_add_2":"春江町中筋三ツ屋"},"9190482":{"post_code":"9190482","prefecture":"FUKUI KEN","city":"SAKAI SHI","town":"HARUECHO NAKANOSHO","perfecture_jp":"福井県","jp_add_1":"坂井市","jp_add_2":"春江町中庄"},"9190474":{"post_code":"9190474","prefecture":"FUKUI KEN","city":"SAKAI SHI","town":"HARUECHO NISHITAROMARU","perfecture_jp":"福井県","jp_add_1":"坂井市","jp_add_2":"春江町西太郎丸"},"9190404":{"post_code":"9190404","prefecture":"FUKUI KEN","city":"SAKAI SHI","town":"HARUECHO NISHINAGATA","perfecture_jp":"福井県","jp_add_1":"坂井市","jp_add_2":"春江町西長田"},"9190476":{"post_code":"9190476","prefecture":"FUKUI KEN","city":"SAKAI SHI","town":"HARUECHO HARIBARA","perfecture_jp":"福井県","jp_add_1":"坂井市","jp_add_2":"春江町針原"},"9190475":{"post_code":"9190475","prefecture":"FUKUI KEN","city":"SAKAI SHI","town":"HARUECHO HIGASHITAROMARU","perfecture_jp":"福井県","jp_add_1":"坂井市","jp_add_2":"春江町東太郎丸"},"9190488":{"post_code":"9190488","prefecture":"FUKUI KEN","city":"SAKAI SHI","town":"HARUECHO HIMEO","perfecture_jp":"福井県","jp_add_1":"坂井市","jp_add_2":"春江町姫王"},"9190411":{"post_code":"9190411","prefecture":"FUKUI KEN","city":"SAKAI SHI","town":"HARUECHO FUJIWASHIZUKA","perfecture_jp":"福井県","jp_add_1":"坂井市","jp_add_2":"春江町藤鷲塚"},"9190486":{"post_code":"9190486","prefecture":"FUKUI KEN","city":"SAKAI SHI","town":"HARUECHO FUSEDASHIN","perfecture_jp":"福井県","jp_add_1":"坂井市","jp_add_2":"春江町布施田新"},"9190401":{"post_code":"9190401","prefecture":"FUKUI KEN","city":"SAKAI SHI","town":"HARUECHO HORIKOSHI","perfecture_jp":"福井県","jp_add_1":"坂井市","jp_add_2":"春江町堀越"},"9190473":{"post_code":"9190473","prefecture":"FUKUI KEN","city":"SAKAI SHI","town":"HARUECHO HONDO","perfecture_jp":"福井県","jp_add_1":"坂井市","jp_add_2":"春江町本堂"},"9190472":{"post_code":"9190472","prefecture":"FUKUI KEN","city":"SAKAI SHI","town":"HARUECHO MATSUKI","perfecture_jp":"福井県","jp_add_1":"坂井市","jp_add_2":"春江町松木"},"9190484":{"post_code":"9190484","prefecture":"FUKUI KEN","city":"SAKAI SHI","town":"HARUECHO YASUZAWA","perfecture_jp":"福井県","jp_add_1":"坂井市","jp_add_2":"春江町安沢"},"9190442":{"post_code":"9190442","prefecture":"FUKUI KEN","city":"SAKAI SHI","town":"HARUECHO YORIYASU","perfecture_jp":"福井県","jp_add_1":"坂井市","jp_add_2":"春江町寄安"},"9190200":{"post_code":"9190200","prefecture":"FUKUI KEN","city":"NANJO GUN MINAMIECHIZEN CHO","town":"IKANIKEISAIGANAIBAAI","perfecture_jp":"福井県","jp_add_1":"南条郡南越前町","jp_add_2":""},"9190121":{"post_code":"9190121","prefecture":"FUKUI KEN","city":"NANJO GUN MINAMIECHIZEN CHO","town":"AIBA","perfecture_jp":"福井県","jp_add_1":"南条郡南越前町","jp_add_2":"合波"},"9190213":{"post_code":"9190213","prefecture":"FUKUI KEN","city":"NANJO GUN MINAMIECHIZEN CHO","town":"AKUWA","perfecture_jp":"福井県","jp_add_1":"南条郡南越前町","jp_add_2":"阿久和"},"9190123":{"post_code":"9190123","prefecture":"FUKUI KEN","city":"NANJO GUN MINAMIECHIZEN CHO","town":"ARAI","perfecture_jp":"福井県","jp_add_1":"南条郡南越前町","jp_add_2":"荒井"},"9190128":{"post_code":"9190128","prefecture":"FUKUI KEN","city":"NANJO GUN MINAMIECHIZEN CHO","town":"ITADORI","perfecture_jp":"福井県","jp_add_1":"南条郡南越前町","jp_add_2":"板取"},"9190131":{"post_code":"9190131","prefecture":"FUKUI KEN","city":"NANJO GUN MINAMIECHIZEN CHO","town":"IMAJO","perfecture_jp":"福井県","jp_add_1":"南条郡南越前町","jp_add_2":"今庄"},"9190202":{"post_code":"9190202","prefecture":"FUKUI KEN","city":"NANJO GUN MINAMIECHIZEN CHO","town":"IMONOSHI","perfecture_jp":"福井県","jp_add_1":"南条郡南越前町","jp_add_2":"鋳物師"},"9190204":{"post_code":"9190204","prefecture":"FUKUI KEN","city":"NANJO GUN MINAMIECHIZEN CHO","town":"UENO","perfecture_jp":"福井県","jp_add_1":"南条郡南越前町","jp_add_2":"上野"},"9190125":{"post_code":"9190125","prefecture":"FUKUI KEN","city":"NANJO GUN MINAMIECHIZEN CHO","town":"UTSUO","perfecture_jp":"福井県","jp_add_1":"南条郡南越前町","jp_add_2":"宇津尾"},"9190136":{"post_code":"9190136","prefecture":"FUKUI KEN","city":"NANJO GUN MINAMIECHIZEN CHO","town":"OGIRI","perfecture_jp":"福井県","jp_add_1":"南条郡南越前町","jp_add_2":"大桐"},"9190215":{"post_code":"9190215","prefecture":"FUKUI KEN","city":"NANJO GUN MINAMIECHIZEN CHO","town":"OKUNONO","perfecture_jp":"福井県","jp_add_1":"南条郡南越前町","jp_add_2":"奥野々"},"9190114":{"post_code":"9190114","prefecture":"FUKUI KEN","city":"NANJO GUN MINAMIECHIZEN CHO","town":"OGURATANI","perfecture_jp":"福井県","jp_add_1":"南条郡南越前町","jp_add_2":"小倉谷"},"9190206":{"post_code":"9190206","prefecture":"FUKUI KEN","city":"NANJO GUN MINAMIECHIZEN CHO","town":"KANEGASU","perfecture_jp":"福井県","jp_add_1":"南条郡南越前町","jp_add_2":"金粕"},"9190115":{"post_code":"9190115","prefecture":"FUKUI KEN","city":"NANJO GUN MINAMIECHIZEN CHO","town":"KAMINUKUDANI","perfecture_jp":"福井県","jp_add_1":"南条郡南越前町","jp_add_2":"上温谷"},"9190201":{"post_code":"9190201","prefecture":"FUKUI KEN","city":"NANJO GUN MINAMIECHIZEN CHO","town":"KAMIHIRABUKI","perfecture_jp":"福井県","jp_add_1":"南条郡南越前町","jp_add_2":"上平吹"},"9190216":{"post_code":"9190216","prefecture":"FUKUI KEN","city":"NANJO GUN MINAMIECHIZEN CHO","town":"KAMIBESSHO","perfecture_jp":"福井県","jp_add_1":"南条郡南越前町","jp_add_2":"上別所"},"9190119":{"post_code":"9190119","prefecture":"FUKUI KEN","city":"NANJO GUN MINAMIECHIZEN CHO","town":"KUKI","perfecture_jp":"福井県","jp_add_1":"南条郡南越前町","jp_add_2":"久喜"},"9190212":{"post_code":"9190212","prefecture":"FUKUI KEN","city":"NANJO GUN MINAMIECHIZEN CHO","town":"SABANAMI","perfecture_jp":"福井県","jp_add_1":"南条郡南越前町","jp_add_2":"鯖波"},"9190221":{"post_code":"9190221","prefecture":"FUKUI KEN","city":"NANJO GUN MINAMIECHIZEN CHO","town":"SHIMA","perfecture_jp":"福井県","jp_add_1":"南条郡南越前町","jp_add_2":"島"},"9190226":{"post_code":"9190226","prefecture":"FUKUI KEN","city":"NANJO GUN MINAMIECHIZEN CHO","town":"SHIMIZU","perfecture_jp":"福井県","jp_add_1":"南条郡南越前町","jp_add_2":"清水"},"9190133":{"post_code":"9190133","prefecture":"FUKUI KEN","city":"NANJO GUN MINAMIECHIZEN CHO","town":"SHINDO","perfecture_jp":"福井県","jp_add_1":"南条郡南越前町","jp_add_2":"新道"},"9190111":{"post_code":"9190111","prefecture":"FUKUI KEN","city":"NANJO GUN MINAMIECHIZEN CHO","town":"SUGITANI","perfecture_jp":"福井県","jp_add_1":"南条郡南越前町","jp_add_2":"杉谷"},"9190211":{"post_code":"9190211","prefecture":"FUKUI KEN","city":"NANJO GUN MINAMIECHIZEN CHO","town":"SEKIGAHANA","perfecture_jp":"福井県","jp_add_1":"南条郡南越前町","jp_add_2":"関ケ鼻"},"9190113":{"post_code":"9190113","prefecture":"FUKUI KEN","city":"NANJO GUN MINAMIECHIZEN CHO","town":"SETO","perfecture_jp":"福井県","jp_add_1":"南条郡南越前町","jp_add_2":"瀬戸"},"9190112":{"post_code":"9190112","prefecture":"FUKUI KEN","city":"NANJO GUN MINAMIECHIZEN CHO","town":"SOMAKIMATA","perfecture_jp":"福井県","jp_add_1":"南条郡南越前町","jp_add_2":"杣木俣"},"9190217":{"post_code":"9190217","prefecture":"FUKUI KEN","city":"NANJO GUN MINAMIECHIZEN CHO","town":"SOMAYAMA","perfecture_jp":"福井県","jp_add_1":"南条郡南越前町","jp_add_2":"杣山"},"9190122":{"post_code":"9190122","prefecture":"FUKUI KEN","city":"NANJO GUN MINAMIECHIZEN CHO","town":"DAIMON","perfecture_jp":"福井県","jp_add_1":"南条郡南越前町","jp_add_2":"大門"},"9190205":{"post_code":"9190205","prefecture":"FUKUI KEN","city":"NANJO GUN MINAMIECHIZEN CHO","town":"DOMIYA","perfecture_jp":"福井県","jp_add_1":"南条郡南越前町","jp_add_2":"堂宮"},"9190214":{"post_code":"9190214","prefecture":"FUKUI KEN","city":"NANJO GUN MINAMIECHIZEN CHO","town":"NAKAGOYA","perfecture_jp":"福井県","jp_add_1":"南条郡南越前町","jp_add_2":"中小屋"},"9190118":{"post_code":"9190118","prefecture":"FUKUI KEN","city":"NANJO GUN MINAMIECHIZEN CHO","town":"NAGASAWA","perfecture_jp":"福井県","jp_add_1":"南条郡南越前町","jp_add_2":"長沢"},"9190224":{"post_code":"9190224","prefecture":"FUKUI KEN","city":"NANJO GUN MINAMIECHIZEN CHO","town":"NISHIDAIDO","perfecture_jp":"福井県","jp_add_1":"南条郡南越前町","jp_add_2":"西大道"},"9190126":{"post_code":"9190126","prefecture":"FUKUI KEN","city":"NANJO GUN MINAMIECHIZEN CHO","town":"HASHITATE","perfecture_jp":"福井県","jp_add_1":"南条郡南越前町","jp_add_2":"橋立"},"9190117":{"post_code":"9190117","prefecture":"FUKUI KEN","city":"NANJO GUN MINAMIECHIZEN CHO","town":"BAJOMEN","perfecture_jp":"福井県","jp_add_1":"南条郡南越前町","jp_add_2":"馬上免"},"9190104":{"post_code":"9190104","prefecture":"FUKUI KEN","city":"NANJO GUN MINAMIECHIZEN CHO","town":"HIUCHI","perfecture_jp":"福井県","jp_add_1":"南条郡南越前町","jp_add_2":"燧"},"9190223":{"post_code":"9190223","prefecture":"FUKUI KEN","city":"NANJO GUN MINAMIECHIZEN CHO","town":"HIGASHIDAIDO","perfecture_jp":"福井県","jp_add_1":"南条郡南越前町","jp_add_2":"東大道"},"9190225":{"post_code":"9190225","prefecture":"FUKUI KEN","city":"NANJO GUN MINAMIECHIZEN CHO","town":"HIGASHIDANI","perfecture_jp":"福井県","jp_add_1":"南条郡南越前町","jp_add_2":"東谷"},"9190222":{"post_code":"9190222","prefecture":"FUKUI KEN","city":"NANJO GUN MINAMIECHIZEN CHO","town":"HINO","perfecture_jp":"福井県","jp_add_1":"南条郡南越前町","jp_add_2":"日野"},"9190127":{"post_code":"9190127","prefecture":"FUKUI KEN","city":"NANJO GUN MINAMIECHIZEN CHO","town":"HIRONO","perfecture_jp":"福井県","jp_add_1":"南条郡南越前町","jp_add_2":"広野"},"9190135":{"post_code":"9190135","prefecture":"FUKUI KEN","city":"NANJO GUN MINAMIECHIZEN CHO","town":"FUTATSUYA","perfecture_jp":"福井県","jp_add_1":"南条郡南越前町","jp_add_2":"二ツ屋"},"9190116":{"post_code":"9190116","prefecture":"FUKUI KEN","city":"NANJO GUN MINAMIECHIZEN CHO","town":"FURUKI","perfecture_jp":"福井県","jp_add_1":"南条郡南越前町","jp_add_2":"古木"},"9190203":{"post_code":"9190203","prefecture":"FUKUI KEN","city":"NANJO GUN MINAMIECHIZEN CHO","town":"MAKIDANI","perfecture_jp":"福井県","jp_add_1":"南条郡南越前町","jp_add_2":"牧谷"},"9190129":{"post_code":"9190129","prefecture":"FUKUI KEN","city":"NANJO GUN MINAMIECHIZEN CHO","town":"MAGOTANI","perfecture_jp":"福井県","jp_add_1":"南条郡南越前町","jp_add_2":"孫谷"},"9190132":{"post_code":"9190132","prefecture":"FUKUI KEN","city":"NANJO GUN MINAMIECHIZEN CHO","town":"MINAMIIMAJO","perfecture_jp":"福井県","jp_add_1":"南条郡南越前町","jp_add_2":"南今庄"},"9190124":{"post_code":"9190124","prefecture":"FUKUI KEN","city":"NANJO GUN MINAMIECHIZEN CHO","town":"YAI","perfecture_jp":"福井県","jp_add_1":"南条郡南越前町","jp_add_2":"八飯"},"9190102":{"post_code":"9190102","prefecture":"FUKUI KEN","city":"NANJO GUN MINAMIECHIZEN CHO","town":"YAOTOME","perfecture_jp":"福井県","jp_add_1":"南条郡南越前町","jp_add_2":"八乙女"},"9190103":{"post_code":"9190103","prefecture":"FUKUI KEN","city":"NANJO GUN MINAMIECHIZEN CHO","town":"YASHIRODANI","perfecture_jp":"福井県","jp_add_1":"南条郡南越前町","jp_add_2":"社谷"},"9190101":{"post_code":"9190101","prefecture":"FUKUI KEN","city":"NANJO GUN MINAMIECHIZEN CHO","town":"YUNO","perfecture_jp":"福井県","jp_add_1":"南条郡南越前町","jp_add_2":"湯尾"},"9190227":{"post_code":"9190227","prefecture":"FUKUI KEN","city":"NANJO GUN MINAMIECHIZEN CHO","town":"WAKIMOTO","perfecture_jp":"福井県","jp_add_1":"南条郡南越前町","jp_add_2":"脇本"},"9191100":{"post_code":"9191100","prefecture":"FUKUI KEN","city":"MIKATA GUN MIHAMA CHO","town":"IKANIKEISAIGANAIBAAI","perfecture_jp":"福井県","jp_add_1":"三方郡美浜町","jp_add_2":""},"9191133":{"post_code":"9191133","prefecture":"FUKUI KEN","city":"MIKATA GUN MIHAMA CHO","town":"ASO","perfecture_jp":"福井県","jp_add_1":"三方郡美浜町","jp_add_2":"麻生"},"9191135":{"post_code":"9191135","prefecture":"FUKUI KEN","city":"MIKATA GUN MIHAMA CHO","town":"YORITO","perfecture_jp":"福井県","jp_add_1":"三方郡美浜町","jp_add_2":"五十谷"},"9191206":{"post_code":"9191206","prefecture":"FUKUI KEN","city":"MIKATA GUN MIHAMA CHO","town":"OTA","perfecture_jp":"福井県","jp_add_1":"三方郡美浜町","jp_add_2":"太田"},"9191146":{"post_code":"9191146","prefecture":"FUKUI KEN","city":"MIKATA GUN MIHAMA CHO","town":"OYABU","perfecture_jp":"福井県","jp_add_1":"三方郡美浜町","jp_add_2":"大薮"},"9191145":{"post_code":"9191145","prefecture":"FUKUI KEN","city":"MIKATA GUN MIHAMA CHO","town":"KANAYAMA","perfecture_jp":"福井県","jp_add_1":"三方郡美浜町","jp_add_2":"金山"},"9191138":{"post_code":"9191138","prefecture":"FUKUI KEN","city":"MIKATA GUN MIHAMA CHO","town":"KAWARAICHI","perfecture_jp":"福井県","jp_add_1":"三方郡美浜町","jp_add_2":"河原市"},"9191204":{"post_code":"9191204","prefecture":"FUKUI KEN","city":"MIKATA GUN MIHAMA CHO","town":"KITADA","perfecture_jp":"福井県","jp_add_1":"三方郡美浜町","jp_add_2":"北田"},"9191131":{"post_code":"9191131","prefecture":"FUKUI KEN","city":"MIKATA GUN MIHAMA CHO","town":"KINO","perfecture_jp":"福井県","jp_add_1":"三方郡美浜町","jp_add_2":"木野"},"9191147":{"post_code":"9191147","prefecture":"FUKUI KEN","city":"MIKATA GUN MIHAMA CHO","town":"KIYAMA","perfecture_jp":"福井県","jp_add_1":"三方郡美浜町","jp_add_2":"気山"},"9191123":{"post_code":"9191123","prefecture":"FUKUI KEN","city":"MIKATA GUN MIHAMA CHO","town":"KUGUSHI","perfecture_jp":"福井県","jp_add_1":"三方郡美浜町","jp_add_2":"久々子"},"9191141":{"post_code":"9191141","prefecture":"FUKUI KEN","city":"MIKATA GUN MIHAMA CHO","town":"GOICHI","perfecture_jp":"福井県","jp_add_1":"三方郡美浜町","jp_add_2":"郷市"},"9191142":{"post_code":"9191142","prefecture":"FUKUI KEN","city":"MIKATA GUN MIHAMA CHO","town":"KODOJI","perfecture_jp":"福井県","jp_add_1":"三方郡美浜町","jp_add_2":"興道寺"},"9191208":{"post_code":"9191208","prefecture":"FUKUI KEN","city":"MIKATA GUN MIHAMA CHO","town":"SAKAJIRI","perfecture_jp":"福井県","jp_add_1":"三方郡美浜町","jp_add_2":"坂尻"},"9191132":{"post_code":"9191132","prefecture":"FUKUI KEN","city":"MIKATA GUN MIHAMA CHO","town":"SAGAKI","perfecture_jp":"福井県","jp_add_1":"三方郡美浜町","jp_add_2":"佐柿"},"9191125":{"post_code":"9191125","prefecture":"FUKUI KEN","city":"MIKATA GUN MIHAMA CHO","town":"SASADA","perfecture_jp":"福井県","jp_add_1":"三方郡美浜町","jp_add_2":"笹田"},"9191205":{"post_code":"9191205","prefecture":"FUKUI KEN","city":"MIKATA GUN MIHAMA CHO","town":"SATA","perfecture_jp":"福井県","jp_add_1":"三方郡美浜町","jp_add_2":"佐田"},"9191143":{"post_code":"9191143","prefecture":"FUKUI KEN","city":"MIKATA GUN MIHAMA CHO","town":"SANO","perfecture_jp":"福井県","jp_add_1":"三方郡美浜町","jp_add_2":"佐野"},"9191144":{"post_code":"9191144","prefecture":"FUKUI KEN","city":"MIKATA GUN MIHAMA CHO","town":"SHINJO","perfecture_jp":"福井県","jp_add_1":"三方郡美浜町","jp_add_2":"新庄"},"9191203":{"post_code":"9191203","prefecture":"FUKUI KEN","city":"MIKATA GUN MIHAMA CHO","town":"SUGAHAMA","perfecture_jp":"福井県","jp_add_1":"三方郡美浜町","jp_add_2":"菅浜"},"9191202":{"post_code":"9191202","prefecture":"FUKUI KEN","city":"MIKATA GUN MIHAMA CHO","town":"TAKENAMI","perfecture_jp":"福井県","jp_add_1":"三方郡美浜町","jp_add_2":"竹波"},"9191136":{"post_code":"9191136","prefecture":"FUKUI KEN","city":"MIKATA GUN MIHAMA CHO","town":"NAKADERA","perfecture_jp":"福井県","jp_add_1":"三方郡美浜町","jp_add_2":"中寺"},"9191201":{"post_code":"9191201","prefecture":"FUKUI KEN","city":"MIKATA GUN MIHAMA CHO","town":"NYU","perfecture_jp":"福井県","jp_add_1":"三方郡美浜町","jp_add_2":"丹生"},"9191124":{"post_code":"9191124","prefecture":"FUKUI KEN","city":"MIKATA GUN MIHAMA CHO","town":"HAYASE","perfecture_jp":"福井県","jp_add_1":"三方郡美浜町","jp_add_2":"早瀬"},"9191126":{"post_code":"9191126","prefecture":"FUKUI KEN","city":"MIKATA GUN MIHAMA CHO","town":"HIRUGA","perfecture_jp":"福井県","jp_add_1":"三方郡美浜町","jp_add_2":"日向"},"9191122":{"post_code":"9191122","prefecture":"FUKUI KEN","city":"MIKATA GUN MIHAMA CHO","town":"MATSUBARA","perfecture_jp":"福井県","jp_add_1":"三方郡美浜町","jp_add_2":"松原"},"9191137":{"post_code":"9191137","prefecture":"FUKUI KEN","city":"MIKATA GUN MIHAMA CHO","town":"MINAMIICHI","perfecture_jp":"福井県","jp_add_1":"三方郡美浜町","jp_add_2":"南市"},"9191134":{"post_code":"9191134","prefecture":"FUKUI KEN","city":"MIKATA GUN MIHAMA CHO","town":"MIYASHIRO","perfecture_jp":"福井県","jp_add_1":"三方郡美浜町","jp_add_2":"宮代"},"9191207":{"post_code":"9191207","prefecture":"FUKUI KEN","city":"MIKATA GUN MIHAMA CHO","town":"YAMAGAMI","perfecture_jp":"福井県","jp_add_1":"三方郡美浜町","jp_add_2":"山上"},"9191121":{"post_code":"9191121","prefecture":"FUKUI KEN","city":"MIKATA GUN MIHAMA CHO","town":"WADA","perfecture_jp":"福井県","jp_add_1":"三方郡美浜町","jp_add_2":"和田"},"9192200":{"post_code":"9192200","prefecture":"FUKUI KEN","city":"OI GUN TAKAHAMA CHO","town":"IKANIKEISAIGANAIBAAI","perfecture_jp":"福井県","jp_add_1":"大飯郡高浜町","jp_add_2":""},"9192384":{"post_code":"9192384","prefecture":"FUKUI KEN","city":"OI GUN TAKAHAMA CHO","town":"AO","perfecture_jp":"福井県","jp_add_1":"大飯郡高浜町","jp_add_2":"青"},"9192204":{"post_code":"9192204","prefecture":"FUKUI KEN","city":"OI GUN TAKAHAMA CHO","town":"AOTO","perfecture_jp":"福井県","jp_add_1":"大飯郡高浜町","jp_add_2":"青戸"},"9192375":{"post_code":"9192375","prefecture":"FUKUI KEN","city":"OI GUN TAKAHAMA CHO","town":"HIRUBATAKE","perfecture_jp":"福井県","jp_add_1":"大飯郡高浜町","jp_add_2":"旭ケ丘"},"9192202":{"post_code":"9192202","prefecture":"FUKUI KEN","city":"OI GUN TAKAHAMA CHO","town":"AZUCHI","perfecture_jp":"福井県","jp_add_1":"大飯郡高浜町","jp_add_2":"安土"},"9192376":{"post_code":"9192376","prefecture":"FUKUI KEN","city":"OI GUN TAKAHAMA CHO","town":"IMADERA","perfecture_jp":"福井県","jp_add_1":"大飯郡高浜町","jp_add_2":"今寺"},"9192222":{"post_code":"9192222","prefecture":"FUKUI KEN","city":"OI GUN TAKAHAMA CHO","town":"IWAGAMI","perfecture_jp":"福井県","jp_add_1":"大飯郡高浜町","jp_add_2":"岩神"},"9192356":{"post_code":"9192356","prefecture":"FUKUI KEN","city":"OI GUN TAKAHAMA CHO","town":"UWASE","perfecture_jp":"福井県","jp_add_1":"大飯郡高浜町","jp_add_2":"上瀬"},"9192363":{"post_code":"9192363","prefecture":"FUKUI KEN","city":"OI GUN TAKAHAMA CHO","town":"OGURUI","perfecture_jp":"福井県","jp_add_1":"大飯郡高浜町","jp_add_2":"小黒飯"},"9192361":{"post_code":"9192361","prefecture":"FUKUI KEN","city":"OI GUN TAKAHAMA CHO","town":"OTOMI","perfecture_jp":"福井県","jp_add_1":"大飯郡高浜町","jp_add_2":"音海"},"9192216":{"post_code":"9192216","prefecture":"FUKUI KEN","city":"OI GUN TAKAHAMA CHO","town":"SAKATA","perfecture_jp":"福井県","jp_add_1":"大飯郡高浜町","jp_add_2":"笠原"},"9192212":{"post_code":"9192212","prefecture":"FUKUI KEN","city":"OI GUN TAKAHAMA CHO","town":"KANEYORI","perfecture_jp":"福井県","jp_add_1":"大飯郡高浜町","jp_add_2":"鐘寄"},"9192352":{"post_code":"9192352","prefecture":"FUKUI KEN","city":"OI GUN TAKAHAMA CHO","town":"KAMAKURA","perfecture_jp":"福井県","jp_add_1":"大飯郡高浜町","jp_add_2":"鎌倉"},"9192206":{"post_code":"9192206","prefecture":"FUKUI KEN","city":"OI GUN TAKAHAMA CHO","town":"KAMIKURAMOCHI","perfecture_jp":"福井県","jp_add_1":"大飯郡高浜町","jp_add_2":"上車持"},"9192365":{"post_code":"9192365","prefecture":"FUKUI KEN","city":"OI GUN TAKAHAMA CHO","town":"KONO","perfecture_jp":"福井県","jp_add_1":"大飯郡高浜町","jp_add_2":"神野"},"9192366":{"post_code":"9192366","prefecture":"FUKUI KEN","city":"OI GUN TAKAHAMA CHO","town":"KONORA","perfecture_jp":"福井県","jp_add_1":"大飯郡高浜町","jp_add_2":"神野浦"},"9192221":{"post_code":"9192221","prefecture":"FUKUI KEN","city":"OI GUN TAKAHAMA CHO","town":"KOTOSHIRO","perfecture_jp":"福井県","jp_add_1":"大飯郡高浜町","jp_add_2":"事代"},"9192373":{"post_code":"9192373","prefecture":"FUKUI KEN","city":"OI GUN TAKAHAMA CHO","town":"KOWADA","perfecture_jp":"福井県","jp_add_1":"大飯郡高浜町","jp_add_2":"小和田"},"9192229":{"post_code":"9192229","prefecture":"FUKUI KEN","city":"OI GUN TAKAHAMA CHO","town":"SAMMEI","perfecture_jp":"福井県","jp_add_1":"大飯郡高浜町","jp_add_2":"三明"},"9192228":{"post_code":"9192228","prefecture":"FUKUI KEN","city":"OI GUN TAKAHAMA CHO","town":"SHIODO","perfecture_jp":"福井県","jp_add_1":"大飯郡高浜町","jp_add_2":"塩土"},"9192223":{"post_code":"9192223","prefecture":"FUKUI KEN","city":"OI GUN TAKAHAMA CHO","town":"SHISUIGAOKA","perfecture_jp":"福井県","jp_add_1":"大飯郡高浜町","jp_add_2":"紫水ケ丘"},"9192353":{"post_code":"9192353","prefecture":"FUKUI KEN","city":"OI GUN TAKAHAMA CHO","town":"SHIMO","perfecture_jp":"福井県","jp_add_1":"大飯郡高浜町","jp_add_2":"下"},"9192205":{"post_code":"9192205","prefecture":"FUKUI KEN","city":"OI GUN TAKAHAMA CHO","town":"SHIMOKURAMOCHI","perfecture_jp":"福井県","jp_add_1":"大飯郡高浜町","jp_add_2":"下車持"},"9192203":{"post_code":"9192203","prefecture":"FUKUI KEN","city":"OI GUN TAKAHAMA CHO","town":"SUIMEI","perfecture_jp":"福井県","jp_add_1":"大飯郡高浜町","jp_add_2":"水明"},"9192386":{"post_code":"9192386","prefecture":"FUKUI KEN","city":"OI GUN TAKAHAMA CHO","town":"SEKIYA","perfecture_jp":"福井県","jp_add_1":"大飯郡高浜町","jp_add_2":"関屋"},"9192224":{"post_code":"9192224","prefecture":"FUKUI KEN","city":"OI GUN TAKAHAMA CHO","town":"SONOBE","perfecture_jp":"福井県","jp_add_1":"大飯郡高浜町","jp_add_2":"薗部"},"9192374":{"post_code":"9192374","prefecture":"FUKUI KEN","city":"OI GUN TAKAHAMA CHO","town":"TAKANO","perfecture_jp":"福井県","jp_add_1":"大飯郡高浜町","jp_add_2":"高野"},"9192372":{"post_code":"9192372","prefecture":"FUKUI KEN","city":"OI GUN TAKAHAMA CHO","town":"MIDORIGAOKA","perfecture_jp":"福井県","jp_add_1":"大飯郡高浜町","jp_add_2":"高屋"},"9192226":{"post_code":"9192226","prefecture":"FUKUI KEN","city":"OI GUN TAKAHAMA CHO","town":"TATEISHI","perfecture_jp":"福井県","jp_add_1":"大飯郡高浜町","jp_add_2":"立石"},"9192362":{"post_code":"9192362","prefecture":"FUKUI KEN","city":"OI GUN TAKAHAMA CHO","town":"TANORA","perfecture_jp":"福井県","jp_add_1":"大飯郡高浜町","jp_add_2":"田ノ浦"},"9192211":{"post_code":"9192211","prefecture":"FUKUI KEN","city":"OI GUN TAKAHAMA CHO","town":"NAKATSUMI","perfecture_jp":"福井県","jp_add_1":"大飯郡高浜町","jp_add_2":"中津海"},"9192371":{"post_code":"9192371","prefecture":"FUKUI KEN","city":"OI GUN TAKAHAMA CHO","town":"NAKAYAMA","perfecture_jp":"福井県","jp_add_1":"大飯郡高浜町","jp_add_2":"中山"},"9192364":{"post_code":"9192364","prefecture":"FUKUI KEN","city":"OI GUN TAKAHAMA CHO","town":"NABAE","perfecture_jp":"福井県","jp_add_1":"大飯郡高浜町","jp_add_2":"難波江"},"9192381":{"post_code":"9192381","prefecture":"FUKUI KEN","city":"OI GUN TAKAHAMA CHO","town":"NISHIMITSUMATSU","perfecture_jp":"福井県","jp_add_1":"大飯郡高浜町","jp_add_2":"西三松"},"9192213":{"post_code":"9192213","prefecture":"FUKUI KEN","city":"OI GUN TAKAHAMA CHO","town":"HATA","perfecture_jp":"福井県","jp_add_1":"大飯郡高浜町","jp_add_2":"畑"},"9192382":{"post_code":"9192382","prefecture":"FUKUI KEN","city":"OI GUN TAKAHAMA CHO","town":"HIGASHIMITSUMATSU","perfecture_jp":"福井県","jp_add_1":"大飯郡高浜町","jp_add_2":"東三松"},"9192383":{"post_code":"9192383","prefecture":"FUKUI KEN","city":"OI GUN TAKAHAMA CHO","town":"HIKI","perfecture_jp":"福井県","jp_add_1":"大飯郡高浜町","jp_add_2":"日置"},"9192355":{"post_code":"9192355","prefecture":"FUKUI KEN","city":"OI GUN TAKAHAMA CHO","town":"HIBIKI","perfecture_jp":"福井県","jp_add_1":"大飯郡高浜町","jp_add_2":"日引"},"9192207":{"post_code":"9192207","prefecture":"FUKUI KEN","city":"OI GUN TAKAHAMA CHO","town":"MAGOJI","perfecture_jp":"福井県","jp_add_1":"大飯郡高浜町","jp_add_2":"馬居寺"},"9192215":{"post_code":"9192215","prefecture":"FUKUI KEN","city":"OI GUN TAKAHAMA CHO","town":"MINAMIDANCHI","perfecture_jp":"福井県","jp_add_1":"大飯郡高浜町","jp_add_2":"南団地"},"9192354":{"post_code":"9192354","prefecture":"FUKUI KEN","city":"OI GUN TAKAHAMA CHO","town":"MIYAO","perfecture_jp":"福井県","jp_add_1":"大飯郡高浜町","jp_add_2":"宮尾"},"9192225":{"post_code":"9192225","prefecture":"FUKUI KEN","city":"OI GUN TAKAHAMA CHO","town":"MIYAZAKI","perfecture_jp":"福井県","jp_add_1":"大飯郡高浜町","jp_add_2":"宮崎"},"9192351":{"post_code":"9192351","prefecture":"FUKUI KEN","city":"OI GUN TAKAHAMA CHO","town":"YAMANAKA","perfecture_jp":"福井県","jp_add_1":"大飯郡高浜町","jp_add_2":"山中"},"9192214":{"post_code":"9192214","prefecture":"FUKUI KEN","city":"OI GUN TAKAHAMA CHO","town":"YUTANI","perfecture_jp":"福井県","jp_add_1":"大飯郡高浜町","jp_add_2":"湯谷"},"9192385":{"post_code":"9192385","prefecture":"FUKUI KEN","city":"OI GUN TAKAHAMA CHO","town":"YOKOTSUMI","perfecture_jp":"福井県","jp_add_1":"大飯郡高浜町","jp_add_2":"横津海"},"9192387":{"post_code":"9192387","prefecture":"FUKUI KEN","city":"OI GUN TAKAHAMA CHO","town":"ROKURODANI","perfecture_jp":"福井県","jp_add_1":"大飯郡高浜町","jp_add_2":"六路谷"},"9192227":{"post_code":"9192227","prefecture":"FUKUI KEN","city":"OI GUN TAKAHAMA CHO","town":"WAKAMIYA","perfecture_jp":"福井県","jp_add_1":"大飯郡高浜町","jp_add_2":"若宮"},"9192201":{"post_code":"9192201","prefecture":"FUKUI KEN","city":"OI GUN TAKAHAMA CHO","town":"WADA","perfecture_jp":"福井県","jp_add_1":"大飯郡高浜町","jp_add_2":"和田"},"9192100":{"post_code":"9192100","prefecture":"FUKUI KEN","city":"OI GUN OI CHO","town":"IKANIKEISAIGANAIBAAI","perfecture_jp":"福井県","jp_add_1":"大飯郡おおい町","jp_add_2":""},"9192125":{"post_code":"9192125","prefecture":"FUKUI KEN","city":"OI GUN OI CHO","town":"ISHIYAMA","perfecture_jp":"福井県","jp_add_1":"大飯郡おおい町","jp_add_2":"石山"},"9192106":{"post_code":"9192106","prefecture":"FUKUI KEN","city":"OI GUN OI CHO","town":"INUMI","perfecture_jp":"福井県","jp_add_1":"大飯郡おおい町","jp_add_2":"犬見"},"9192101":{"post_code":"9192101","prefecture":"FUKUI KEN","city":"OI GUN OI CHO","town":"OSHIMA","perfecture_jp":"福井県","jp_add_1":"大飯郡おおい町","jp_add_2":"大島"},"9192116":{"post_code":"9192116","prefecture":"FUKUI KEN","city":"OI GUN OI CHO","town":"OKATA","perfecture_jp":"福井県","jp_add_1":"大飯郡おおい町","jp_add_2":"岡田"},"9192128":{"post_code":"9192128","prefecture":"FUKUI KEN","city":"OI GUN OI CHO","town":"OKAYASU","perfecture_jp":"福井県","jp_add_1":"大飯郡おおい町","jp_add_2":"岡安"},"9192103":{"post_code":"9192103","prefecture":"FUKUI KEN","city":"OI GUN OI CHO","town":"ONAI","perfecture_jp":"福井県","jp_add_1":"大飯郡おおい町","jp_add_2":"尾内"},"9192134":{"post_code":"9192134","prefecture":"FUKUI KEN","city":"OI GUN OI CHO","town":"KAWAKAMI","perfecture_jp":"福井県","jp_add_1":"大飯郡おおい町","jp_add_2":"川上"},"9192133":{"post_code":"9192133","prefecture":"FUKUI KEN","city":"OI GUN OI CHO","town":"KUBO","perfecture_jp":"福井県","jp_add_1":"大飯郡おおい町","jp_add_2":"久保"},"9192122":{"post_code":"9192122","prefecture":"FUKUI KEN","city":"OI GUN OI CHO","town":"KOZAKI","perfecture_jp":"福井県","jp_add_1":"大飯郡おおい町","jp_add_2":"神崎"},"9192124":{"post_code":"9192124","prefecture":"FUKUI KEN","city":"OI GUN OI CHO","town":"KOSHIYATA","perfecture_jp":"福井県","jp_add_1":"大飯郡おおい町","jp_add_2":"小車田"},"9192105":{"post_code":"9192105","prefecture":"FUKUI KEN","city":"OI GUN OI CHO","town":"KOHORI","perfecture_jp":"福井県","jp_add_1":"大飯郡おおい町","jp_add_2":"小堀"},"9192127":{"post_code":"9192127","prefecture":"FUKUI KEN","city":"OI GUN OI CHO","town":"SASADANI","perfecture_jp":"福井県","jp_add_1":"大飯郡おおい町","jp_add_2":"笹谷"},"9192126":{"post_code":"9192126","prefecture":"FUKUI KEN","city":"OI GUN OI CHO","town":"SABATA","perfecture_jp":"福井県","jp_add_1":"大飯郡おおい町","jp_add_2":"佐畑"},"9192123":{"post_code":"9192123","prefecture":"FUKUI KEN","city":"OI GUN OI CHO","town":"SHIKANO","perfecture_jp":"福井県","jp_add_1":"大飯郡おおい町","jp_add_2":"鹿野"},"9192113":{"post_code":"9192113","prefecture":"FUKUI KEN","city":"OI GUN OI CHO","town":"SHIBASAKI","perfecture_jp":"福井県","jp_add_1":"大飯郡おおい町","jp_add_2":"芝崎"},"9192104":{"post_code":"9192104","prefecture":"FUKUI KEN","city":"OI GUN OI CHO","town":"SEIWA","perfecture_jp":"福井県","jp_add_1":"大飯郡おおい町","jp_add_2":"成和"},"9192115":{"post_code":"9192115","prefecture":"FUKUI KEN","city":"OI GUN OI CHO","town":"CHICHISHI","perfecture_jp":"福井県","jp_add_1":"大飯郡おおい町","jp_add_2":"父子"},"9192102":{"post_code":"9192102","prefecture":"FUKUI KEN","city":"OI GUN OI CHO","town":"NAGAI","perfecture_jp":"福井県","jp_add_1":"大飯郡おおい町","jp_add_2":"長井"},"9192107":{"post_code":"9192107","prefecture":"FUKUI KEN","city":"OI GUN OI CHO","town":"NARUMI","perfecture_jp":"福井県","jp_add_1":"大飯郡おおい町","jp_add_2":"成海"},"9192114":{"post_code":"9192114","prefecture":"FUKUI KEN","city":"OI GUN OI CHO","town":"NOJIRI","perfecture_jp":"福井県","jp_add_1":"大飯郡おおい町","jp_add_2":"野尻"},"9192129":{"post_code":"9192129","prefecture":"FUKUI KEN","city":"OI GUN OI CHO","town":"HIROKA","perfecture_jp":"福井県","jp_add_1":"大飯郡おおい町","jp_add_2":"広岡"},"9192131":{"post_code":"9192131","prefecture":"FUKUI KEN","city":"OI GUN OI CHO","town":"FUKUTANI","perfecture_jp":"福井県","jp_add_1":"大飯郡おおい町","jp_add_2":"福谷"},"9192111":{"post_code":"9192111","prefecture":"FUKUI KEN","city":"OI GUN OI CHO","town":"HONGO","perfecture_jp":"福井県","jp_add_1":"大飯郡おおい町","jp_add_2":"本郷"},"9192121":{"post_code":"9192121","prefecture":"FUKUI KEN","city":"OI GUN OI CHO","town":"MANGANJI","perfecture_jp":"福井県","jp_add_1":"大飯郡おおい町","jp_add_2":"万願寺"},"9192135":{"post_code":"9192135","prefecture":"FUKUI KEN","city":"OI GUN OI CHO","town":"MITSUMORI","perfecture_jp":"福井県","jp_add_1":"大飯郡おおい町","jp_add_2":"三森"},"9192132":{"post_code":"9192132","prefecture":"FUKUI KEN","city":"OI GUN OI CHO","town":"YASUKAWA","perfecture_jp":"福井県","jp_add_1":"大飯郡おおい町","jp_add_2":"安川"},"9192112":{"post_code":"9192112","prefecture":"FUKUI KEN","city":"OI GUN OI CHO","town":"YAMADA","perfecture_jp":"福井県","jp_add_1":"大飯郡おおい町","jp_add_2":"山田"},"9191300":{"post_code":"9191300","prefecture":"FUKUI KEN","city":"MIKATAKAMINAKA GUN WAKASA CHO","town":"IKANIKEISAIGANAIBAAI","perfecture_jp":"福井県","jp_add_1":"三方上中郡若狭町","jp_add_2":""},"9191312":{"post_code":"9191312","prefecture":"FUKUI KEN","city":"MIKATAKAMINAKA GUN WAKASA CHO","town":"AIDA","perfecture_jp":"福井県","jp_add_1":"三方上中郡若狭町","jp_add_2":"相田"},"9191523":{"post_code":"9191523","prefecture":"FUKUI KEN","city":"MIKATAKAMINAKA GUN WAKASA CHO","town":"AGARI","perfecture_jp":"福井県","jp_add_1":"三方上中郡若狭町","jp_add_2":"安賀里"},"9191502":{"post_code":"9191502","prefecture":"FUKUI KEN","city":"MIKATAKAMINAKA GUN WAKASA CHO","town":"ASONO","perfecture_jp":"福井県","jp_add_1":"三方上中郡若狭町","jp_add_2":"麻生野"},"9191501":{"post_code":"9191501","prefecture":"FUKUI KEN","city":"MIKATAKAMINAKA GUN WAKASA CHO","town":"AMASAKA","perfecture_jp":"福井県","jp_add_1":"三方上中郡若狭町","jp_add_2":"海士坂"},"9191507":{"post_code":"9191507","prefecture":"FUKUI KEN","city":"MIKATAKAMINAKA GUN WAKASA CHO","town":"ARIDA","perfecture_jp":"福井県","jp_add_1":"三方上中郡若狭町","jp_add_2":"有田"},"9191304":{"post_code":"9191304","prefecture":"FUKUI KEN","city":"MIKATAKAMINAKA GUN WAKASA CHO","town":"IKURA","perfecture_jp":"福井県","jp_add_1":"三方上中郡若狭町","jp_add_2":"生倉"},"9191316":{"post_code":"9191316","prefecture":"FUKUI KEN","city":"MIKATAKAMINAKA GUN WAKASA CHO","town":"IZAKI","perfecture_jp":"福井県","jp_add_1":"三方上中郡若狭町","jp_add_2":"井崎"},"9191541":{"post_code":"9191541","prefecture":"FUKUI KEN","city":"MIKATAKAMINAKA GUN WAKASA CHO","town":"ICHIBA","perfecture_jp":"福井県","jp_add_1":"三方上中郡若狭町","jp_add_2":"市場"},"9191542":{"post_code":"9191542","prefecture":"FUKUI KEN","city":"MIKATAKAMINAKA GUN WAKASA CHO","town":"INOKUCHI","perfecture_jp":"福井県","jp_add_1":"三方上中郡若狭町","jp_add_2":"井ノ口"},"9191325":{"post_code":"9191325","prefecture":"FUKUI KEN","city":"MIKATAKAMINAKA GUN WAKASA CHO","town":"IWAYA","perfecture_jp":"福井県","jp_add_1":"三方上中郡若狭町","jp_add_2":"岩屋"},"9191321":{"post_code":"9191321","prefecture":"FUKUI KEN","city":"MIKATAKAMINAKA GUN WAKASA CHO","town":"UENO","perfecture_jp":"福井県","jp_add_1":"三方上中郡若狭町","jp_add_2":"上野"},"9191461":{"post_code":"9191461","prefecture":"FUKUI KEN","city":"MIKATAKAMINAKA GUN WAKASA CHO","town":"UMIYAMA","perfecture_jp":"福井県","jp_add_1":"三方上中郡若狭町","jp_add_2":"海山"},"9191525":{"post_code":"9191525","prefecture":"FUKUI KEN","city":"MIKATAKAMINAKA GUN WAKASA CHO","town":"URYU","perfecture_jp":"福井県","jp_add_1":"三方上中郡若狭町","jp_add_2":"瓜生"},"9191302":{"post_code":"9191302","prefecture":"FUKUI KEN","city":"MIKATAKAMINAKA GUN WAKASA CHO","town":"UWASE","perfecture_jp":"福井県","jp_add_1":"三方上中郡若狭町","jp_add_2":"上瀬"},"9191504":{"post_code":"9191504","prefecture":"FUKUI KEN","city":"MIKATAKAMINAKA GUN WAKASA CHO","town":"OTOBA","perfecture_jp":"福井県","jp_add_1":"三方上中郡若狭町","jp_add_2":"大鳥羽"},"9191453":{"post_code":"9191453","prefecture":"FUKUI KEN","city":"MIKATAKAMINAKA GUN WAKASA CHO","town":"OGAWA","perfecture_jp":"福井県","jp_add_1":"三方上中郡若狭町","jp_add_2":"小川"},"9191514":{"post_code":"9191514","prefecture":"FUKUI KEN","city":"MIKATAKAMINAKA GUN WAKASA CHO","town":"OHARA","perfecture_jp":"福井県","jp_add_1":"三方上中郡若狭町","jp_add_2":"小原"},"9191554":{"post_code":"9191554","prefecture":"FUKUI KEN","city":"MIKATAKAMINAKA GUN WAKASA CHO","town":"KANEDA","perfecture_jp":"福井県","jp_add_1":"三方上中郡若狭町","jp_add_2":"兼田"},"9191503":{"post_code":"9191503","prefecture":"FUKUI KEN","city":"MIKATAKAMINAKA GUN WAKASA CHO","town":"KAMIKURODA","perfecture_jp":"福井県","jp_add_1":"三方上中郡若狭町","jp_add_2":"上黒田"},"9191557":{"post_code":"9191557","prefecture":"FUKUI KEN","city":"MIKATAKAMINAKA GUN WAKASA CHO","town":"KAMINOGI","perfecture_jp":"福井県","jp_add_1":"三方上中郡若狭町","jp_add_2":"上野木"},"9191527":{"post_code":"9191527","prefecture":"FUKUI KEN","city":"MIKATAKAMINAKA GUN WAKASA CHO","town":"KAMIYOSHIDA","perfecture_jp":"福井県","jp_add_1":"三方上中郡若狭町","jp_add_2":"上吉田"},"9191534":{"post_code":"9191534","prefecture":"FUKUI KEN","city":"MIKATAKAMINAKA GUN WAKASA CHO","town":"KARIYA","perfecture_jp":"福井県","jp_add_1":"三方上中郡若狭町","jp_add_2":"仮屋"},"9191305":{"post_code":"9191305","prefecture":"FUKUI KEN","city":"MIKATAKAMINAKA GUN WAKASA CHO","town":"KITAMAEGAWA","perfecture_jp":"福井県","jp_add_1":"三方上中郡若狭町","jp_add_2":"北前川"},"9191301":{"post_code":"9191301","prefecture":"FUKUI KEN","city":"MIKATAKAMINAKA GUN WAKASA CHO","town":"KIYAMA","perfecture_jp":"福井県","jp_add_1":"三方上中郡若狭町","jp_add_2":"気山"},"9191532":{"post_code":"9191532","prefecture":"FUKUI KEN","city":"MIKATAKAMINAKA GUN WAKASA CHO","town":"KUMAGAWA","perfecture_jp":"福井県","jp_add_1":"三方上中郡若狭町","jp_add_2":"熊川"},"9191323":{"post_code":"9191323","prefecture":"FUKUI KEN","city":"MIKATAKAMINAKA GUN WAKASA CHO","town":"KURAMI","perfecture_jp":"福井県","jp_add_1":"三方上中郡若狭町","jp_add_2":"倉見"},"9191544":{"post_code":"9191544","prefecture":"FUKUI KEN","city":"MIKATAKAMINAKA GUN WAKASA CHO","town":"KODANI","perfecture_jp":"福井県","jp_add_1":"三方上中郡若狭町","jp_add_2":"神谷"},"9191533":{"post_code":"9191533","prefecture":"FUKUI KEN","city":"MIKATAKAMINAKA GUN WAKASA CHO","town":"KOCHI","perfecture_jp":"福井県","jp_add_1":"三方上中郡若狭町","jp_add_2":"河内"},"9191512":{"post_code":"9191512","prefecture":"FUKUI KEN","city":"MIKATAKAMINAKA GUN WAKASA CHO","town":"SAKANASHI","perfecture_jp":"福井県","jp_add_1":"三方上中郡若狭町","jp_add_2":"無悪"},"9191335":{"post_code":"9191335","prefecture":"FUKUI KEN","city":"MIKATAKAMINAKA GUN WAKASA CHO","town":"SAKO","perfecture_jp":"福井県","jp_add_1":"三方上中郡若狭町","jp_add_2":"佐古"},"9191521":{"post_code":"9191521","prefecture":"FUKUI KEN","city":"MIKATAKAMINAKA GUN WAKASA CHO","town":"SHITANAKA","perfecture_jp":"福井県","jp_add_1":"三方上中郡若狭町","jp_add_2":"下タ中"},"9191462":{"post_code":"9191462","prefecture":"FUKUI KEN","city":"MIKATAKAMINAKA GUN WAKASA CHO","town":"TAI","perfecture_jp":"福井県","jp_add_1":"三方上中郡若狭町","jp_add_2":"島の内"},"9191559":{"post_code":"9191559","prefecture":"FUKUI KEN","city":"MIKATAKAMINAKA GUN WAKASA CHO","town":"SHIMONOGI","perfecture_jp":"福井県","jp_add_1":"三方上中郡若狭町","jp_add_2":"下野木"},"9191528":{"post_code":"9191528","prefecture":"FUKUI KEN","city":"MIKATAKAMINAKA GUN WAKASA CHO","town":"SHIMOYOSHIDA","perfecture_jp":"福井県","jp_add_1":"三方上中郡若狭町","jp_add_2":"下吉田"},"9191455":{"post_code":"9191455","prefecture":"FUKUI KEN","city":"MIKATAKAMINAKA GUN WAKASA CHO","town":"SHAKUSHI","perfecture_jp":"福井県","jp_add_1":"三方上中郡若狭町","jp_add_2":"塩坂越"},"9191322":{"post_code":"9191322","prefecture":"FUKUI KEN","city":"MIKATAKAMINAKA GUN WAKASA CHO","town":"JOGANJI","perfecture_jp":"福井県","jp_add_1":"三方上中郡若狭町","jp_add_2":"成願寺"},"9191324":{"post_code":"9191324","prefecture":"FUKUI KEN","city":"MIKATAKAMINAKA GUN WAKASA CHO","town":"SHIROYA","perfecture_jp":"福井県","jp_add_1":"三方上中郡若狭町","jp_add_2":"白屋"},"9191531":{"post_code":"9191531","prefecture":"FUKUI KEN","city":"MIKATAKAMINAKA GUN WAKASA CHO","town":"SHINDO","perfecture_jp":"福井県","jp_add_1":"三方上中郡若狭町","jp_add_2":"新道"},"9191522":{"post_code":"9191522","prefecture":"FUKUI KEN","city":"MIKATAKAMINAKA GUN WAKASA CHO","town":"SUENO","perfecture_jp":"福井県","jp_add_1":"三方上中郡若狭町","jp_add_2":"末野"},"9191551":{"post_code":"9191551","prefecture":"FUKUI KEN","city":"MIKATAKAMINAKA GUN WAKASA CHO","town":"SUGIYAMA","perfecture_jp":"福井県","jp_add_1":"三方上中郡若狭町","jp_add_2":"杉山"},"9191526":{"post_code":"9191526","prefecture":"FUKUI KEN","city":"MIKATAKAMINAKA GUN WAKASA CHO","town":"SEKI","perfecture_jp":"福井県","jp_add_1":"三方上中郡若狭町","jp_add_2":"関"},"9191464":{"post_code":"9191464","prefecture":"FUKUI KEN","city":"MIKATAKAMINAKA GUN WAKASA CHO","town":"SEKUMI","perfecture_jp":"福井県","jp_add_1":"三方上中郡若狭町","jp_add_2":"世久見"},"9191315":{"post_code":"9191315","prefecture":"FUKUI KEN","city":"MIKATAKAMINAKA GUN WAKASA CHO","town":"TAKAGISHI","perfecture_jp":"福井県","jp_add_1":"三方上中郡若狭町","jp_add_2":"高岸"},"9191326":{"post_code":"9191326","prefecture":"FUKUI KEN","city":"MIKATAKAMINAKA GUN WAKASA CHO","town":"TAGAMI","perfecture_jp":"福井県","jp_add_1":"三方上中郡若狭町","jp_add_2":"田上"},"9191332":{"post_code":"9191332","prefecture":"FUKUI KEN","city":"MIKATAKAMINAKA GUN WAKASA CHO","town":"TACHIKAWA","perfecture_jp":"福井県","jp_add_1":"三方上中郡若狭町","jp_add_2":"館川"},"9191334":{"post_code":"9191334","prefecture":"FUKUI KEN","city":"MIKATAKAMINAKA GUN WAKASA CHO","town":"TANA","perfecture_jp":"福井県","jp_add_1":"三方上中郡若狭町","jp_add_2":"田名"},"9191556":{"post_code":"9191556","prefecture":"FUKUI KEN","city":"MIKATAKAMINAKA GUN WAKASA CHO","town":"TAMAKI","perfecture_jp":"福井県","jp_add_1":"三方上中郡若狭町","jp_add_2":"玉置"},"9191333":{"post_code":"9191333","prefecture":"FUKUI KEN","city":"MIKATAKAMINAKA GUN WAKASA CHO","town":"CHUO","perfecture_jp":"福井県","jp_add_1":"三方上中郡若狭町","jp_add_2":"中央"},"9191553":{"post_code":"9191553","prefecture":"FUKUI KEN","city":"MIKATAKAMINAKA GUN WAKASA CHO","town":"TSUTSUMI","perfecture_jp":"福井県","jp_add_1":"三方上中郡若狭町","jp_add_2":"堤"},"9191451":{"post_code":"9191451","prefecture":"FUKUI KEN","city":"MIKATAKAMINAKA GUN WAKASA CHO","town":"TSUNEKAMI","perfecture_jp":"福井県","jp_add_1":"三方上中郡若狭町","jp_add_2":"常神"},"9191543":{"post_code":"9191543","prefecture":"FUKUI KEN","city":"MIKATAKAMINAKA GUN WAKASA CHO","town":"TENTOKUJI","perfecture_jp":"福井県","jp_add_1":"三方上中郡若狭町","jp_add_2":"天徳寺"},"9191331":{"post_code":"9191331","prefecture":"FUKUI KEN","city":"MIKATAKAMINAKA GUN WAKASA CHO","town":"TORIHAMA","perfecture_jp":"福井県","jp_add_1":"三方上中郡若狭町","jp_add_2":"鳥浜"},"9191505":{"post_code":"9191505","prefecture":"FUKUI KEN","city":"MIKATAKAMINAKA GUN WAKASA CHO","town":"NAGAE","perfecture_jp":"福井県","jp_add_1":"三方上中郡若狭町","jp_add_2":"長江"},"9191558":{"post_code":"9191558","prefecture":"FUKUI KEN","city":"MIKATAKAMINAKA GUN WAKASA CHO","town":"NAKANOGI","perfecture_jp":"福井県","jp_add_1":"三方上中郡若狭町","jp_add_2":"中野木"},"9191463":{"post_code":"9191463","prefecture":"FUKUI KEN","city":"MIKATAKAMINAKA GUN WAKASA CHO","town":"NARUDE","perfecture_jp":"福井県","jp_add_1":"三方上中郡若狭町","jp_add_2":"成出"},"9191314":{"post_code":"9191314","prefecture":"FUKUI KEN","city":"MIKATAKAMINAKA GUN WAKASA CHO","town":"NOTONO","perfecture_jp":"福井県","jp_add_1":"三方上中郡若狭町","jp_add_2":"能登野"},"9191545":{"post_code":"9191545","prefecture":"FUKUI KEN","city":"MIKATAKAMINAKA GUN WAKASA CHO","town":"HIKASA","perfecture_jp":"福井県","jp_add_1":"三方上中郡若狭町","jp_add_2":"日笠"},"9191327":{"post_code":"9191327","prefecture":"FUKUI KEN","city":"MIKATAKAMINAKA GUN WAKASA CHO","town":"HIGASHIKUROTA","perfecture_jp":"福井県","jp_add_1":"三方上中郡若狭町","jp_add_2":"東黒田"},"9191311":{"post_code":"9191311","prefecture":"FUKUI KEN","city":"MIKATAKAMINAKA GUN WAKASA CHO","town":"FUJII","perfecture_jp":"福井県","jp_add_1":"三方上中郡若狭町","jp_add_2":"藤井"},"9191303":{"post_code":"9191303","prefecture":"FUKUI KEN","city":"MIKATAKAMINAKA GUN WAKASA CHO","town":"MIKATA","perfecture_jp":"福井県","jp_add_1":"三方上中郡若狭町","jp_add_2":"三方"},"9191452":{"post_code":"9191452","prefecture":"FUKUI KEN","city":"MIKATAKAMINAKA GUN WAKASA CHO","town":"MIKO","perfecture_jp":"福井県","jp_add_1":"三方上中郡若狭町","jp_add_2":"神子"},"9191511":{"post_code":"9191511","prefecture":"FUKUI KEN","city":"MIKATAKAMINAKA GUN WAKASA CHO","town":"MISHONO","perfecture_jp":"福井県","jp_add_1":"三方上中郡若狭町","jp_add_2":"三生野"},"9191328":{"post_code":"9191328","prefecture":"FUKUI KEN","city":"MIKATAKAMINAKA GUN WAKASA CHO","town":"MISOMIDANCHI","perfecture_jp":"福井県","jp_add_1":"三方上中郡若狭町","jp_add_2":"三十三団地"},"9191513":{"post_code":"9191513","prefecture":"FUKUI KEN","city":"MIKATAKAMINAKA GUN WAKASA CHO","town":"MITA","perfecture_jp":"福井県","jp_add_1":"三方上中郡若狭町","jp_add_2":"三田"},"9191515":{"post_code":"9191515","prefecture":"FUKUI KEN","city":"MIKATAKAMINAKA GUN WAKASA CHO","town":"MINAMI","perfecture_jp":"福井県","jp_add_1":"三方上中郡若狭町","jp_add_2":"南"},"9191306":{"post_code":"9191306","prefecture":"FUKUI KEN","city":"MIKATAKAMINAKA GUN WAKASA CHO","town":"MINAMIMAEGAWA","perfecture_jp":"福井県","jp_add_1":"三方上中郡若狭町","jp_add_2":"南前川"},"9191536":{"post_code":"9191536","prefecture":"FUKUI KEN","city":"MIKATAKAMINAKA GUN WAKASA CHO","town":"MIYAKE","perfecture_jp":"福井県","jp_add_1":"三方上中郡若狭町","jp_add_2":"三宅"},"9191336":{"post_code":"9191336","prefecture":"FUKUI KEN","city":"MIKATAKAMINAKA GUN WAKASA CHO","town":"MUKASA","perfecture_jp":"福井県","jp_add_1":"三方上中郡若狭町","jp_add_2":"向笠"},"9191555":{"post_code":"9191555","prefecture":"FUKUI KEN","city":"MIKATAKAMINAKA GUN WAKASA CHO","town":"MUSHU","perfecture_jp":"福井県","jp_add_1":"三方上中郡若狭町","jp_add_2":"武生"},"9191506":{"post_code":"9191506","prefecture":"FUKUI KEN","city":"MIKATAKAMINAKA GUN WAKASA CHO","town":"MOCHIDA","perfecture_jp":"福井県","jp_add_1":"三方上中郡若狭町","jp_add_2":"持田"},"9191516":{"post_code":"9191516","prefecture":"FUKUI KEN","city":"MIKATAKAMINAKA GUN WAKASA CHO","town":"YAMAUCHI","perfecture_jp":"福井県","jp_add_1":"三方上中郡若狭町","jp_add_2":"山内"},"9191454":{"post_code":"9191454","prefecture":"FUKUI KEN","city":"MIKATAKAMINAKA GUN WAKASA CHO","town":"YUSHI","perfecture_jp":"福井県","jp_add_1":"三方上中郡若狭町","jp_add_2":"遊子"},"9191313":{"post_code":"9191313","prefecture":"FUKUI KEN","city":"MIKATAKAMINAKA GUN WAKASA CHO","town":"YOKOWATARI","perfecture_jp":"福井県","jp_add_1":"三方上中郡若狭町","jp_add_2":"横渡"},"9191535":{"post_code":"9191535","prefecture":"FUKUI KEN","city":"MIKATAKAMINAKA GUN WAKASA CHO","town":"WAKAOJI","perfecture_jp":"福井県","jp_add_1":"三方上中郡若狭町","jp_add_2":"若王子"},"9191552":{"post_code":"9191552","prefecture":"FUKUI KEN","city":"MIKATAKAMINAKA GUN WAKASA CHO","town":"WAKASATEKUNOBARE","perfecture_jp":"福井県","jp_add_1":"三方上中郡若狭町","jp_add_2":"若狭テクノバレー"},"9191524":{"post_code":"9191524","prefecture":"FUKUI KEN","city":"MIKATAKAMINAKA GUN WAKASA CHO","town":"WAKIBUKURO","perfecture_jp":"福井県","jp_add_1":"三方上中郡若狭町","jp_add_2":"脇袋"}}