{"9200000":{"post_code":"9200000","prefecture":"ISHIKAWA KEN","city":"KANAZAWA SHI","town":"IKANIKEISAIGANAIBAAI","perfecture_jp":"石川県","jp_add_1":"金沢市","jp_add_2":""},"9200907":{"post_code":"9200907","prefecture":"ISHIKAWA KEN","city":"KANAZAWA SHI","town":"AOKUSAMACHI","perfecture_jp":"石川県","jp_add_1":"金沢市","jp_add_2":"青草町"},"9201322":{"post_code":"9201322","prefecture":"ISHIKAWA KEN","city":"KANAZAWA SHI","town":"AODANIMACHI","perfecture_jp":"石川県","jp_add_1":"金沢市","jp_add_2":"相合谷町"},"9200926":{"post_code":"9200926","prefecture":"ISHIKAWA KEN","city":"KANAZAWA SHI","town":"AKATSUKIMACHI","perfecture_jp":"石川県","jp_add_1":"金沢市","jp_add_2":"暁町"},"9200353":{"post_code":"9200353","prefecture":"ISHIKAWA KEN","city":"KANAZAWA SHI","town":"AKATSUCHIMACHI","perfecture_jp":"石川県","jp_add_1":"金沢市","jp_add_2":"赤土町"},"9200111":{"post_code":"9200111","prefecture":"ISHIKAWA KEN","city":"KANAZAWA SHI","town":"ASAOKAMACHI","perfecture_jp":"石川県","jp_add_1":"金沢市","jp_add_2":"浅丘町"},"9201132":{"post_code":"9201132","prefecture":"ISHIKAWA KEN","city":"KANAZAWA SHI","town":"ASAKAYAMACHI","perfecture_jp":"石川県","jp_add_1":"金沢市","jp_add_2":"朝加屋町"},"9201145":{"post_code":"9201145","prefecture":"ISHIKAWA KEN","city":"KANAZAWA SHI","town":"ASAKAWAMACHI","perfecture_jp":"石川県","jp_add_1":"金沢市","jp_add_2":"浅川町"},"9201158":{"post_code":"9201158","prefecture":"ISHIKAWA KEN","city":"KANAZAWA SHI","town":"ASAGIRIDAI","perfecture_jp":"石川県","jp_add_1":"金沢市","jp_add_2":"朝霧台"},"9200841":{"post_code":"9200841","prefecture":"ISHIKAWA KEN","city":"KANAZAWA SHI","town":"ASANOHOMMACHI","perfecture_jp":"石川県","jp_add_1":"金沢市","jp_add_2":"浅野本町"},"9200126":{"post_code":"9200126","prefecture":"ISHIKAWA KEN","city":"KANAZAWA SHI","town":"ASAHIMAKIMACHI","perfecture_jp":"石川県","jp_add_1":"金沢市","jp_add_2":"朝日牧町"},"9200941":{"post_code":"9200941","prefecture":"ISHIKAWA KEN","city":"KANAZAWA SHI","town":"ASAHIMACHI","perfecture_jp":"石川県","jp_add_1":"金沢市","jp_add_2":"旭町"},"9201107":{"post_code":"9201107","prefecture":"ISHIKAWA KEN","city":"KANAZAWA SHI","town":"AZUKIZAWAMACHI","perfecture_jp":"石川県","jp_add_1":"金沢市","jp_add_2":"小豆沢町"},"9200996":{"post_code":"9200996","prefecture":"ISHIKAWA KEN","city":"KANAZAWA SHI","town":"ABURAGURUMA","perfecture_jp":"石川県","jp_add_1":"金沢市","jp_add_2":"油車"},"9201331":{"post_code":"9201331","prefecture":"ISHIKAWA KEN","city":"KANAZAWA SHI","town":"AMAIKEMACHI","perfecture_jp":"石川県","jp_add_1":"金沢市","jp_add_2":"天池町"},"9203124":{"post_code":"9203124","prefecture":"ISHIKAWA KEN","city":"KANAZAWA SHI","town":"ARAYA","perfecture_jp":"石川県","jp_add_1":"金沢市","jp_add_2":"荒屋"},"9203125":{"post_code":"9203125","prefecture":"ISHIKAWA KEN","city":"KANAZAWA SHI","town":"ARAYAMACHI","perfecture_jp":"石川県","jp_add_1":"金沢市","jp_add_2":"荒屋町"},"9201101":{"post_code":"9201101","prefecture":"ISHIKAWA KEN","city":"KANAZAWA SHI","town":"SUNAGOZAKAMACHI","perfecture_jp":"石川県","jp_add_1":"金沢市","jp_add_2":"荒山町"},"9200226":{"post_code":"9200226","prefecture":"ISHIKAWA KEN","city":"KANAZAWA SHI","town":"AWAGASAKIMACHI","perfecture_jp":"石川県","jp_add_1":"金沢市","jp_add_2":"粟崎町"},"9200227":{"post_code":"9200227","prefecture":"ISHIKAWA KEN","city":"KANAZAWA SHI","town":"AWAGASAKIHAMAMACHI","perfecture_jp":"石川県","jp_add_1":"金沢市","jp_add_2":"粟崎浜町"},"9200983":{"post_code":"9200983","prefecture":"ISHIKAWA KEN","city":"KANAZAWA SHI","town":"IKEDAMACHI 1-BANCHO","perfecture_jp":"石川県","jp_add_1":"金沢市","jp_add_2":"池田町一番丁"},"9200984":{"post_code":"9200984","prefecture":"ISHIKAWA KEN","city":"KANAZAWA SHI","town":"IKEDAMACHI 2-BANCHO","perfecture_jp":"石川県","jp_add_1":"金沢市","jp_add_2":"池田町二番丁"},"9200985":{"post_code":"9200985","prefecture":"ISHIKAWA KEN","city":"KANAZAWA SHI","town":"IKEDAMACHI 3-BANCHO","perfecture_jp":"石川県","jp_add_1":"金沢市","jp_add_2":"池田町三番丁"},"9200986":{"post_code":"9200986","prefecture":"ISHIKAWA KEN","city":"KANAZAWA SHI","town":"IKEDAMACHI 4-BANCHO","perfecture_jp":"石川県","jp_add_1":"金沢市","jp_add_2":"池田町四番丁"},"9200987":{"post_code":"9200987","prefecture":"ISHIKAWA KEN","city":"KANAZAWA SHI","town":"IKEDAMACHI TATECHO","perfecture_jp":"石川県","jp_add_1":"金沢市","jp_add_2":"池田町立丁"},"9201115":{"post_code":"9201115","prefecture":"ISHIKAWA KEN","city":"KANAZAWA SHI","town":"ISHIGUROMACHI","perfecture_jp":"石川県","jp_add_1":"金沢市","jp_add_2":"石黒町"},"9200935":{"post_code":"9200935","prefecture":"ISHIKAWA KEN","city":"KANAZAWA SHI","town":"ISHIBIKI","perfecture_jp":"石川県","jp_add_1":"金沢市","jp_add_2":"石引"},"9200056":{"post_code":"9200056","prefecture":"ISHIKAWA KEN","city":"KANAZAWA SHI","town":"IZUMOMACHI","perfecture_jp":"石川県","jp_add_1":"金沢市","jp_add_2":"出雲町"},"9200012":{"post_code":"9200012","prefecture":"ISHIKAWA KEN","city":"KANAZAWA SHI","town":"ISOBEMACHI","perfecture_jp":"石川県","jp_add_1":"金沢市","jp_add_2":"磯部町"},"9201116":{"post_code":"9201116","prefecture":"ISHIKAWA KEN","city":"KANAZAWA SHI","town":"ITAGAYAMACHI","perfecture_jp":"石川県","jp_add_1":"金沢市","jp_add_2":"板ケ谷町"},"9200145":{"post_code":"9200145","prefecture":"ISHIKAWA KEN","city":"KANAZAWA SHI","town":"ICHINOSEMACHI","perfecture_jp":"石川県","jp_add_1":"金沢市","jp_add_2":"市瀬町"},"9200378":{"post_code":"9200378","prefecture":"ISHIKAWA KEN","city":"KANAZAWA SHI","town":"INAHO","perfecture_jp":"石川県","jp_add_1":"金沢市","jp_add_2":"いなほ"},"9200994":{"post_code":"9200994","prefecture":"ISHIKAWA KEN","city":"KANAZAWA SHI","town":"IBARAGICHO","perfecture_jp":"石川県","jp_add_1":"金沢市","jp_add_2":"茨木町"},"9200125":{"post_code":"9200125","prefecture":"ISHIKAWA KEN","city":"KANAZAWA SHI","town":"IMAIZUMIMACHI","perfecture_jp":"石川県","jp_add_1":"金沢市","jp_add_2":"今泉町"},"9200008":{"post_code":"9200008","prefecture":"ISHIKAWA KEN","city":"KANAZAWA SHI","town":"IMASHOMACHI","perfecture_jp":"石川県","jp_add_1":"金沢市","jp_add_2":"今昭町"},"9200106":{"post_code":"9200106","prefecture":"ISHIKAWA KEN","city":"KANAZAWA SHI","town":"IMAMACHI","perfecture_jp":"石川県","jp_add_1":"金沢市","jp_add_2":"今町"},"9200171":{"post_code":"9200171","prefecture":"ISHIKAWA KEN","city":"KANAZAWA SHI","town":"IWADEMACHI","perfecture_jp":"石川県","jp_add_1":"金沢市","jp_add_2":"岩出町"},"9200943":{"post_code":"9200943","prefecture":"ISHIKAWA KEN","city":"KANAZAWA SHI","town":"UENOHOMMACHI","perfecture_jp":"石川県","jp_add_1":"金沢市","jp_add_2":"上野本町"},"9201113":{"post_code":"9201113","prefecture":"ISHIKAWA KEN","city":"KANAZAWA SHI","town":"UEYAMAMACHI","perfecture_jp":"石川県","jp_add_1":"金沢市","jp_add_2":"上山町"},"9201111":{"post_code":"9201111","prefecture":"ISHIKAWA KEN","city":"KANAZAWA SHI","town":"HISHIIKEOHARAMACHI","perfecture_jp":"石川県","jp_add_1":"金沢市","jp_add_2":"魚帰町"},"9200837":{"post_code":"9200837","prefecture":"ISHIKAWA KEN","city":"KANAZAWA SHI","town":"UGUISUMACHI","perfecture_jp":"石川県","jp_add_1":"金沢市","jp_add_2":"鶯町"},"9200832":{"post_code":"9200832","prefecture":"ISHIKAWA KEN","city":"KANAZAWA SHI","town":"UTATSUMACHI","perfecture_jp":"石川県","jp_add_1":"金沢市","jp_add_2":"卯辰町"},"9201149":{"post_code":"9201149","prefecture":"ISHIKAWA KEN","city":"KANAZAWA SHI","town":"UCHIOMACHI","perfecture_jp":"石川県","jp_add_1":"金沢市","jp_add_2":"打尾町"},"9200377":{"post_code":"9200377","prefecture":"ISHIKAWA KEN","city":"KANAZAWA SHI","town":"UTSUGIMACHI","perfecture_jp":"石川県","jp_add_1":"金沢市","jp_add_2":"打木町"},"9200343":{"post_code":"9200343","prefecture":"ISHIKAWA KEN","city":"KANAZAWA SHI","town":"UNEDANAKA","perfecture_jp":"石川県","jp_add_1":"金沢市","jp_add_2":"畝田中"},"9200342":{"post_code":"9200342","prefecture":"ISHIKAWA KEN","city":"KANAZAWA SHI","town":"UNEDANISHI","perfecture_jp":"石川県","jp_add_1":"金沢市","jp_add_2":"畝田町"},"9200344":{"post_code":"9200344","prefecture":"ISHIKAWA KEN","city":"KANAZAWA SHI","town":"UNEDAHIGASHI","perfecture_jp":"石川県","jp_add_1":"金沢市","jp_add_2":"畝田東"},"9203111":{"post_code":"9203111","prefecture":"ISHIKAWA KEN","city":"KANAZAWA SHI","town":"UMEDAMACHI","perfecture_jp":"石川県","jp_add_1":"金沢市","jp_add_2":"梅田町"},"9200971":{"post_code":"9200971","prefecture":"ISHIKAWA KEN","city":"KANAZAWA SHI","town":"UROKOMACHI","perfecture_jp":"石川県","jp_add_1":"金沢市","jp_add_2":"鱗町"},"9200122":{"post_code":"9200122","prefecture":"ISHIKAWA KEN","city":"KANAZAWA SHI","town":"UWADAIRAMACHI","perfecture_jp":"石川県","jp_add_1":"金沢市","jp_add_2":"上平町"},"9201301":{"post_code":"9201301","prefecture":"ISHIKAWA KEN","city":"KANAZAWA SHI","town":"EIANCHO","perfecture_jp":"石川県","jp_add_1":"金沢市","jp_add_2":"永安町"},"9200027":{"post_code":"9200027","prefecture":"ISHIKAWA KEN","city":"KANAZAWA SHI","town":"EKINISHISHIMMACHI","perfecture_jp":"石川県","jp_add_1":"金沢市","jp_add_2":"駅西新町"},"9200025":{"post_code":"9200025","prefecture":"ISHIKAWA KEN","city":"KANAZAWA SHI","town":"EKINISHIHOMMACHI","perfecture_jp":"石川県","jp_add_1":"金沢市","jp_add_2":"駅西本町"},"9200973":{"post_code":"9200973","prefecture":"ISHIKAWA KEN","city":"KANAZAWA SHI","town":"EDAMACHI","perfecture_jp":"石川県","jp_add_1":"金沢市","jp_add_2":"枝町"},"9200112":{"post_code":"9200112","prefecture":"ISHIKAWA KEN","city":"KANAZAWA SHI","town":"ENOKIOMACHI","perfecture_jp":"石川県","jp_add_1":"金沢市","jp_add_2":"榎尾町"},"9200162":{"post_code":"9200162","prefecture":"ISHIKAWA KEN","city":"KANAZAWA SHI","town":"OIKEMACHI","perfecture_jp":"石川県","jp_add_1":"金沢市","jp_add_2":"小池町"},"9200927":{"post_code":"9200927","prefecture":"ISHIKAWA KEN","city":"KANAZAWA SHI","town":"OGIMACHI","perfecture_jp":"石川県","jp_add_1":"金沢市","jp_add_2":"扇町"},"9200205":{"post_code":"9200205","prefecture":"ISHIKAWA KEN","city":"KANAZAWA SHI","town":"OURAMACHI","perfecture_jp":"石川県","jp_add_1":"金沢市","jp_add_2":"大浦町"},"9200945":{"post_code":"9200945","prefecture":"ISHIKAWA KEN","city":"KANAZAWA SHI","town":"OKUWASHIMMACHI","perfecture_jp":"石川県","jp_add_1":"金沢市","jp_add_2":"大桑新町"},"9200946":{"post_code":"9200946","prefecture":"ISHIKAWA KEN","city":"KANAZAWA SHI","town":"RA.WA.ANAGAKE.ANABUCHIGAKE.NE.KO.YO","perfecture_jp":"石川県","jp_add_1":"金沢市","jp_add_2":"大桑町"},"9200912":{"post_code":"9200912","prefecture":"ISHIKAWA KEN","city":"KANAZAWA SHI","town":"OTEMACHI","perfecture_jp":"石川県","jp_add_1":"金沢市","jp_add_2":"大手町"},"9208205":{"post_code":"9208205","prefecture":"ISHIKAWA KEN","city":"KANAZAWA SHI","town":"OTOMO","perfecture_jp":"石川県","jp_add_1":"金沢市","jp_add_2":"大友"},"9208222":{"post_code":"9208222","prefecture":"ISHIKAWA KEN","city":"KANAZAWA SHI","town":"OTOMOMACHI","perfecture_jp":"石川県","jp_add_1":"金沢市","jp_add_2":"大友町"},"9200231":{"post_code":"9200231","prefecture":"ISHIKAWA KEN","city":"KANAZAWA SHI","town":"ONOMACHI(SO.TA.NU.YO.RE)","perfecture_jp":"石川県","jp_add_1":"金沢市","jp_add_2":"大野町"},"9200331":{"post_code":"9200331","prefecture":"ISHIKAWA KEN","city":"KANAZAWA SHI","town":"ONOMACHI(SONOTA)","perfecture_jp":"石川県","jp_add_1":"金沢市","jp_add_2":"大野町"},"9200225":{"post_code":"9200225","prefecture":"ISHIKAWA KEN","city":"KANAZAWA SHI","town":"ONOMACHISHIMMACHI","perfecture_jp":"石川県","jp_add_1":"金沢市","jp_add_2":"大野町新町"},"9203121":{"post_code":"9203121","prefecture":"ISHIKAWA KEN","city":"KANAZAWA SHI","town":"OBAMACHI","perfecture_jp":"石川県","jp_add_1":"金沢市","jp_add_2":"大場町"},"9200818":{"post_code":"9200818","prefecture":"ISHIKAWA KEN","city":"KANAZAWA SHI","town":"OHIMACHI","perfecture_jp":"石川県","jp_add_1":"金沢市","jp_add_2":"大樋町"},"9201335":{"post_code":"9201335","prefecture":"ISHIKAWA KEN","city":"KANAZAWA SHI","town":"OHIRASOMACHI","perfecture_jp":"石川県","jp_add_1":"金沢市","jp_add_2":"大平沢町"},"9200013":{"post_code":"9200013","prefecture":"ISHIKAWA KEN","city":"KANAZAWA SHI","town":"OKIMACHI","perfecture_jp":"石川県","jp_add_1":"金沢市","jp_add_2":"沖町"},"9200213":{"post_code":"9200213","prefecture":"ISHIKAWA KEN","city":"KANAZAWA SHI","town":"OKOBATAMACHI","perfecture_jp":"石川県","jp_add_1":"金沢市","jp_add_2":"大河端町"},"9201324":{"post_code":"9201324","prefecture":"ISHIKAWA KEN","city":"KANAZAWA SHI","town":"OSHIHARAMACHI","perfecture_jp":"石川県","jp_add_1":"金沢市","jp_add_2":"鴛原町"},"9200807":{"post_code":"9200807","prefecture":"ISHIKAWA KEN","city":"KANAZAWA SHI","town":"OTOMARUMACHI","perfecture_jp":"石川県","jp_add_1":"金沢市","jp_add_2":"乙丸町"},"9201343":{"post_code":"9201343","prefecture":"ISHIKAWA KEN","city":"KANAZAWA SHI","town":"OHARAMACHI","perfecture_jp":"石川県","jp_add_1":"金沢市","jp_add_2":"小原町"},"9200918":{"post_code":"9200918","prefecture":"ISHIKAWA KEN","city":"KANAZAWA SHI","town":"OYAMAMACHI","perfecture_jp":"石川県","jp_add_1":"金沢市","jp_add_2":"尾山町"},"9201112":{"post_code":"9201112","prefecture":"ISHIKAWA KEN","city":"KANAZAWA SHI","town":"ORITANIMACHI","perfecture_jp":"石川県","jp_add_1":"金沢市","jp_add_2":"折谷町"},"9200902":{"post_code":"9200902","prefecture":"ISHIKAWA KEN","city":"KANAZAWA SHI","town":"OWARICHO","perfecture_jp":"石川県","jp_add_1":"金沢市","jp_add_2":"尾張町"},"9200114":{"post_code":"9200114","prefecture":"ISHIKAWA KEN","city":"KANAZAWA SHI","town":"KAGAASAHIMACHI","perfecture_jp":"石川県","jp_add_1":"金沢市","jp_add_2":"加賀朝日町"},"9200208":{"post_code":"9200208","prefecture":"ISHIKAWA KEN","city":"KANAZAWA SHI","town":"KAGATSUMEMACHI","perfecture_jp":"石川県","jp_add_1":"金沢市","jp_add_2":"蚊爪町"},"9200999":{"post_code":"9200999","prefecture":"ISHIKAWA KEN","city":"KANAZAWA SHI","town":"KAKINOKIBATAKE","perfecture_jp":"石川県","jp_add_1":"金沢市","jp_add_2":"柿木畠"},"9201163":{"post_code":"9201163","prefecture":"ISHIKAWA KEN","city":"KANAZAWA SHI","town":"KAKUMASHIMMACHI","perfecture_jp":"石川県","jp_add_1":"金沢市","jp_add_2":"角間新町"},"9201164":{"post_code":"9201164","prefecture":"ISHIKAWA KEN","city":"KANAZAWA SHI","town":"KAKUMAMACHI","perfecture_jp":"石川県","jp_add_1":"金沢市","jp_add_2":"角間町"},"9200851":{"post_code":"9200851","prefecture":"ISHIKAWA KEN","city":"KANAZAWA SHI","town":"KASAICHIMACHI","perfecture_jp":"石川県","jp_add_1":"金沢市","jp_add_2":"笠市町"},"9200965":{"post_code":"9200965","prefecture":"ISHIKAWA KEN","city":"KANAZAWA SHI","town":"KASAMAI","perfecture_jp":"石川県","jp_add_1":"金沢市","jp_add_2":"笠舞"},"9200947":{"post_code":"9200947","prefecture":"ISHIKAWA KEN","city":"KANAZAWA SHI","town":"KASAMAIHOMMACHI","perfecture_jp":"石川県","jp_add_1":"金沢市","jp_add_2":"笠舞本町"},"9201332":{"post_code":"9201332","prefecture":"ISHIKAWA KEN","city":"KANAZAWA SHI","town":"KASHIMIMACHI","perfecture_jp":"石川県","jp_add_1":"金沢市","jp_add_2":"樫見町"},"9200908":{"post_code":"9200908","prefecture":"ISHIKAWA KEN","city":"KANAZAWA SHI","town":"KAZUEMACHI","perfecture_jp":"石川県","jp_add_1":"金沢市","jp_add_2":"主計町"},"9200817":{"post_code":"9200817","prefecture":"ISHIKAWA KEN","city":"KANAZAWA SHI","town":"KASUGAMACHI","perfecture_jp":"石川県","jp_add_1":"金沢市","jp_add_2":"春日町"},"9200164":{"post_code":"9200164","prefecture":"ISHIKAWA KEN","city":"KANAZAWA SHI","town":"KATATAMACHI","perfecture_jp":"石川県","jp_add_1":"金沢市","jp_add_2":"堅田町"},"9200219":{"post_code":"9200219","prefecture":"ISHIKAWA KEN","city":"KANAZAWA SHI","town":"KATATSU","perfecture_jp":"石川県","jp_add_1":"金沢市","jp_add_2":"かたつ"},"9200981":{"post_code":"9200981","prefecture":"ISHIKAWA KEN","city":"KANAZAWA SHI","town":"KATAMACHI","perfecture_jp":"石川県","jp_add_1":"金沢市","jp_add_2":"片町"},"9200334":{"post_code":"9200334","prefecture":"ISHIKAWA KEN","city":"KANAZAWA SHI","town":"KATSURAMACHI","perfecture_jp":"石川県","jp_add_1":"金沢市","jp_add_2":"桂町"},"9203134":{"post_code":"9203134","prefecture":"ISHIKAWA KEN","city":"KANAZAWA SHI","town":"KANAICHIMACHI","perfecture_jp":"石川県","jp_add_1":"金沢市","jp_add_2":"金市町"},"9200336":{"post_code":"9200336","prefecture":"ISHIKAWA KEN","city":"KANAZAWA SHI","town":"KANAIWA HOMMACHI","perfecture_jp":"石川県","jp_add_1":"金沢市","jp_add_2":"金石本町"},"9200335":{"post_code":"9200335","prefecture":"ISHIKAWA KEN","city":"KANAZAWA SHI","town":"KANAIWA HIGASHI","perfecture_jp":"石川県","jp_add_1":"金沢市","jp_add_2":"金石東"},"9200337":{"post_code":"9200337","prefecture":"ISHIKAWA KEN","city":"KANAZAWA SHI","town":"KANAIWA NISHI","perfecture_jp":"石川県","jp_add_1":"金沢市","jp_add_2":"金石西"},"9200338":{"post_code":"9200338","prefecture":"ISHIKAWA KEN","city":"KANAZAWA SHI","town":"KANAIWA KITA","perfecture_jp":"石川県","jp_add_1":"金沢市","jp_add_2":"金石北"},"9201148":{"post_code":"9201148","prefecture":"ISHIKAWA KEN","city":"KANAZAWA SHI","town":"KANAGAWAMACHI","perfecture_jp":"石川県","jp_add_1":"金沢市","jp_add_2":"金川町"},"9200905":{"post_code":"9200905","prefecture":"ISHIKAWA KEN","city":"KANAZAWA SHI","town":"KAMIOMICHO","perfecture_jp":"石川県","jp_add_1":"金沢市","jp_add_2":"上近江町"},"9200992":{"post_code":"9200992","prefecture":"ISHIKAWA KEN","city":"KANAZAWA SHI","town":"KAMIKAKINOKIBATAKE","perfecture_jp":"石川県","jp_add_1":"金沢市","jp_add_2":"上柿木畠"},"9201304":{"post_code":"9201304","prefecture":"ISHIKAWA KEN","city":"KANAZAWA SHI","town":"KAMITATSUMIMACHI","perfecture_jp":"石川県","jp_add_1":"金沢市","jp_add_2":"上辰巳町"},"9200869":{"post_code":"9200869","prefecture":"ISHIKAWA KEN","city":"KANAZAWA SHI","town":"KAMITSUTSUMICHO","perfecture_jp":"石川県","jp_add_1":"金沢市","jp_add_2":"上堤町"},"9201146":{"post_code":"9201146","prefecture":"ISHIKAWA KEN","city":"KANAZAWA SHI","town":"KAMINAKAMACHI","perfecture_jp":"石川県","jp_add_1":"金沢市","jp_add_2":"上中町"},"9200368":{"post_code":"9200368","prefecture":"ISHIKAWA KEN","city":"KANAZAWA SHI","town":"KAMINO","perfecture_jp":"石川県","jp_add_1":"金沢市","jp_add_2":"神野"},"9200365":{"post_code":"9200365","prefecture":"ISHIKAWA KEN","city":"KANAZAWA SHI","town":"KAMINOMACHI","perfecture_jp":"石川県","jp_add_1":"金沢市","jp_add_2":"神野町"},"9200370":{"post_code":"9200370","prefecture":"ISHIKAWA KEN","city":"KANAZAWA SHI","town":"KAMIYASUHARA","perfecture_jp":"石川県","jp_add_1":"金沢市","jp_add_2":"上安原"},"9200374":{"post_code":"9200374","prefecture":"ISHIKAWA KEN","city":"KANAZAWA SHI","town":"KAMIYASUHARAMINAMI","perfecture_jp":"石川県","jp_add_1":"金沢市","jp_add_2":"上安原町"},"9200801":{"post_code":"9200801","prefecture":"ISHIKAWA KEN","city":"KANAZAWA SHI","town":"KAMIYACHIMACHI","perfecture_jp":"石川県","jp_add_1":"金沢市","jp_add_2":"神谷内町"},"9201166":{"post_code":"9201166","prefecture":"ISHIKAWA KEN","city":"KANAZAWA SHI","town":"KAMIWAKAMATSUMACHI","perfecture_jp":"石川県","jp_add_1":"金沢市","jp_add_2":"上若松町"},"9200175":{"post_code":"9200175","prefecture":"ISHIKAWA KEN","city":"KANAZAWA SHI","town":"KAMIWAKUNAMIMACHI","perfecture_jp":"石川県","jp_add_1":"金沢市","jp_add_2":"上涌波町"},"9200974":{"post_code":"9200974","prefecture":"ISHIKAWA KEN","city":"KANAZAWA SHI","town":"KAWAGISHIMACHI","perfecture_jp":"石川県","jp_add_1":"金沢市","jp_add_2":"川岸町"},"9200172":{"post_code":"9200172","prefecture":"ISHIKAWA KEN","city":"KANAZAWA SHI","town":"KAWARAICHIMACHI","perfecture_jp":"石川県","jp_add_1":"金沢市","jp_add_2":"河原市町"},"9200352":{"post_code":"9200352","prefecture":"ISHIKAWA KEN","city":"KANAZAWA SHI","town":"KANNONDOMACHI","perfecture_jp":"石川県","jp_add_1":"金沢市","jp_add_2":"観音堂町"},"9200838":{"post_code":"9200838","prefecture":"ISHIKAWA KEN","city":"KANAZAWA SHI","town":"KANNOMMACHI","perfecture_jp":"石川県","jp_add_1":"金沢市","jp_add_2":"観音町"},"9201125":{"post_code":"9201125","prefecture":"ISHIKAWA KEN","city":"KANAZAWA SHI","town":"KAMBARAMACHI","perfecture_jp":"石川県","jp_add_1":"金沢市","jp_add_2":"上原町"},"9203112":{"post_code":"9203112","prefecture":"ISHIKAWA KEN","city":"KANAZAWA SHI","town":"KAMPOJIMACHI","perfecture_jp":"石川県","jp_add_1":"金沢市","jp_add_2":"観法寺町"},"9200967":{"post_code":"9200967","prefecture":"ISHIKAWA KEN","city":"KANAZAWA SHI","town":"KIKUGAWA","perfecture_jp":"石川県","jp_add_1":"金沢市","jp_add_2":"菊川"},"9200988":{"post_code":"9200988","prefecture":"ISHIKAWA KEN","city":"KANAZAWA SHI","town":"KIGURAMACHI","perfecture_jp":"石川県","jp_add_1":"金沢市","jp_add_2":"木倉町"},"9200202":{"post_code":"9200202","prefecture":"ISHIKAWA KEN","city":"KANAZAWA SHI","town":"KIGOSHI","perfecture_jp":"石川県","jp_add_1":"金沢市","jp_add_2":"木越"},"9200201":{"post_code":"9200201","prefecture":"ISHIKAWA KEN","city":"KANAZAWA SHI","town":"MIZUKI","perfecture_jp":"石川県","jp_add_1":"金沢市","jp_add_2":"木越町"},"9200203":{"post_code":"9200203","prefecture":"ISHIKAWA KEN","city":"KANAZAWA SHI","town":"KIGOSHIMACHI(SONOTA)","perfecture_jp":"石川県","jp_add_1":"金沢市","jp_add_2":"木越町"},"9200102":{"post_code":"9200102","prefecture":"ISHIKAWA KEN","city":"KANAZAWA SHI","town":"KISHIGAWAMACHI","perfecture_jp":"石川県","jp_add_1":"金沢市","jp_add_2":"岸川町"},"9200143":{"post_code":"9200143","prefecture":"ISHIKAWA KEN","city":"KANAZAWA SHI","town":"KITAGATAMACHI","perfecture_jp":"石川県","jp_add_1":"金沢市","jp_add_2":"北方町"},"9200128":{"post_code":"9200128","prefecture":"ISHIKAWA KEN","city":"KANAZAWA SHI","town":"KITASENGOKUMACHI","perfecture_jp":"石川県","jp_add_1":"金沢市","jp_add_2":"北千石町"},"9200367":{"post_code":"9200367","prefecture":"ISHIKAWA KEN","city":"KANAZAWA SHI","town":"KITAZUKAMACHI","perfecture_jp":"石川県","jp_add_1":"金沢市","jp_add_2":"北塚町"},"9200206":{"post_code":"9200206","prefecture":"ISHIKAWA KEN","city":"KANAZAWA SHI","town":"KITADERAMACHI","perfecture_jp":"石川県","jp_add_1":"金沢市","jp_add_2":"北寺町"},"9201135":{"post_code":"9201135","prefecture":"ISHIKAWA KEN","city":"KANAZAWA SHI","town":"KITABUKUROMACHI","perfecture_jp":"石川県","jp_add_1":"金沢市","jp_add_2":"北袋町"},"9200055":{"post_code":"9200055","prefecture":"ISHIKAWA KEN","city":"KANAZAWA SHI","town":"KITAMACHI","perfecture_jp":"石川県","jp_add_1":"金沢市","jp_add_2":"北町"},"9200212":{"post_code":"9200212","prefecture":"ISHIKAWA KEN","city":"KANAZAWA SHI","town":"KITAMAMACHI","perfecture_jp":"石川県","jp_add_1":"金沢市","jp_add_2":"北間町"},"9203117":{"post_code":"9203117","prefecture":"ISHIKAWA KEN","city":"KANAZAWA SHI","town":"KITAMORIMOTOMACHI","perfecture_jp":"石川県","jp_add_1":"金沢市","jp_add_2":"北森本町"},"9200022":{"post_code":"9200022","prefecture":"ISHIKAWA KEN","city":"KANAZAWA SHI","town":"KITAYASUE","perfecture_jp":"石川県","jp_add_1":"金沢市","jp_add_2":"北安江"},"9200023":{"post_code":"9200023","prefecture":"ISHIKAWA KEN","city":"KANAZAWA SHI","town":"KITAYASUECHO","perfecture_jp":"石川県","jp_add_1":"金沢市","jp_add_2":"北安江町"},"9200858":{"post_code":"9200858","prefecture":"ISHIKAWA KEN","city":"KANAZAWA SHI","town":"KINOSHIMBOMACHI","perfecture_jp":"石川県","jp_add_1":"金沢市","jp_add_2":"木ノ新保町"},"9200339":{"post_code":"9200339","prefecture":"ISHIKAWA KEN","city":"KANAZAWA SHI","town":"KIBIKINO","perfecture_jp":"石川県","jp_add_1":"金沢市","jp_add_2":"木曳野"},"9200848":{"post_code":"9200848","prefecture":"ISHIKAWA KEN","city":"KANAZAWA SHI","town":"KYOMACHI","perfecture_jp":"石川県","jp_add_1":"金沢市","jp_add_2":"京町"},"9200163":{"post_code":"9200163","prefecture":"ISHIKAWA KEN","city":"KANAZAWA SHI","town":"KIRIYAMAMACHI","perfecture_jp":"石川県","jp_add_1":"金沢市","jp_add_2":"桐山町"},"9201333":{"post_code":"9201333","prefecture":"ISHIKAWA KEN","city":"KANAZAWA SHI","town":"KUNIMICHO","perfecture_jp":"石川県","jp_add_1":"金沢市","jp_add_2":"国見町"},"9201326":{"post_code":"9201326","prefecture":"ISHIKAWA KEN","city":"KANAZAWA SHI","town":"KUMABASHIRIMACHI","perfecture_jp":"石川県","jp_add_1":"金沢市","jp_add_2":"熊走町"},"9208203":{"post_code":"9208203","prefecture":"ISHIKAWA KEN","city":"KANAZAWA SHI","town":"KURATSUKI","perfecture_jp":"石川県","jp_add_1":"金沢市","jp_add_2":"鞍月"},"9208201":{"post_code":"9208201","prefecture":"ISHIKAWA KEN","city":"KANAZAWA SHI","town":"KURATSUKIHIGASHI","perfecture_jp":"石川県","jp_add_1":"金沢市","jp_add_2":"鞍月東"},"9200157":{"post_code":"9200157","prefecture":"ISHIKAWA KEN","city":"KANAZAWA SHI","town":"KURUMAMACHI","perfecture_jp":"石川県","jp_add_1":"金沢市","jp_add_2":"車町"},"9200936":{"post_code":"9200936","prefecture":"ISHIKAWA KEN","city":"KANAZAWA SHI","town":"KENROKUMACHI","perfecture_jp":"石川県","jp_add_1":"金沢市","jp_add_2":"兼六町"},"9200931":{"post_code":"9200931","prefecture":"ISHIKAWA KEN","city":"KANAZAWA SHI","town":"KENROKUMOTOMACHI","perfecture_jp":"石川県","jp_add_1":"金沢市","jp_add_2":"兼六元町"},"9200961":{"post_code":"9200961","prefecture":"ISHIKAWA KEN","city":"KANAZAWA SHI","town":"KORIMBO","perfecture_jp":"石川県","jp_add_1":"金沢市","jp_add_2":"香林坊"},"9200805":{"post_code":"9200805","prefecture":"ISHIKAWA KEN","city":"KANAZAWA SHI","town":"KOGANEMACHI","perfecture_jp":"石川県","jp_add_1":"金沢市","jp_add_2":"小金町"},"9201114":{"post_code":"9201114","prefecture":"ISHIKAWA KEN","city":"KANAZAWA SHI","town":"KOKYOMACHI","perfecture_jp":"石川県","jp_add_1":"金沢市","jp_add_2":"古郷町"},"9208221":{"post_code":"9208221","prefecture":"ISHIKAWA KEN","city":"KANAZAWA SHI","town":"GOKUDEMMACHI","perfecture_jp":"石川県","jp_add_1":"金沢市","jp_add_2":"御供田町"},"9200811":{"post_code":"9200811","prefecture":"ISHIKAWA KEN","city":"KANAZAWA SHI","town":"KOSAKAMACHI","perfecture_jp":"石川県","jp_add_1":"金沢市","jp_add_2":"小坂町"},"9200932":{"post_code":"9200932","prefecture":"ISHIKAWA KEN","city":"KANAZAWA SHI","town":"KOSHOMACHI","perfecture_jp":"石川県","jp_add_1":"金沢市","jp_add_2":"小将町"},"9200813":{"post_code":"9200813","prefecture":"ISHIKAWA KEN","city":"KANAZAWA SHI","town":"GOSHOMACHI","perfecture_jp":"石川県","jp_add_1":"金沢市","jp_add_2":"御所町"},"9200942":{"post_code":"9200942","prefecture":"ISHIKAWA KEN","city":"KANAZAWA SHI","town":"KODATSUNO","perfecture_jp":"石川県","jp_add_1":"金沢市","jp_add_2":"小立野"},"9200129":{"post_code":"9200129","prefecture":"ISHIKAWA KEN","city":"KANAZAWA SHI","town":"KOTOSAKAMACHI","perfecture_jp":"石川県","jp_add_1":"金沢市","jp_add_2":"琴坂町"},"9200121":{"post_code":"9200121","prefecture":"ISHIKAWA KEN","city":"KANAZAWA SHI","town":"KOTOMACHI","perfecture_jp":"石川県","jp_add_1":"金沢市","jp_add_2":"琴町"},"9203107":{"post_code":"9203107","prefecture":"ISHIKAWA KEN","city":"KANAZAWA SHI","town":"KONAMMACHI","perfecture_jp":"石川県","jp_add_1":"金沢市","jp_add_2":"湖南町"},"9200852":{"post_code":"9200852","prefecture":"ISHIKAWA KEN","city":"KANAZAWA SHI","town":"KONOHANAMACHI","perfecture_jp":"石川県","jp_add_1":"金沢市","jp_add_2":"此花町"},"9200168":{"post_code":"9200168","prefecture":"ISHIKAWA KEN","city":"KANAZAWA SHI","town":"KONOMACHI","perfecture_jp":"石川県","jp_add_1":"金沢市","jp_add_2":"小野町"},"9200844":{"post_code":"9200844","prefecture":"ISHIKAWA KEN","city":"KANAZAWA SHI","town":"KOBASHIMACHI","perfecture_jp":"石川県","jp_add_1":"金沢市","jp_add_2":"小橋町"},"9200826":{"post_code":"9200826","prefecture":"ISHIKAWA KEN","city":"KANAZAWA SHI","town":"KOFUTAMATAMACHI","perfecture_jp":"石川県","jp_add_1":"金沢市","jp_add_2":"小二又町"},"9200362":{"post_code":"9200362","prefecture":"ISHIKAWA KEN","city":"KANAZAWA SHI","town":"KOBUMACHI(NISHI)","perfecture_jp":"石川県","jp_add_1":"金沢市","jp_add_2":"古府"},"9200363":{"post_code":"9200363","prefecture":"ISHIKAWA KEN","city":"KANAZAWA SHI","town":"KOBUMACHI(MINAMI)","perfecture_jp":"石川県","jp_add_1":"金沢市","jp_add_2":"古府町"},"9201313":{"post_code":"9201313","prefecture":"ISHIKAWA KEN","city":"KANAZAWA SHI","town":"KOMAGAERIMACHI","perfecture_jp":"石川県","jp_add_1":"金沢市","jp_add_2":"駒帰町"},"9200144":{"post_code":"9200144","prefecture":"ISHIKAWA KEN","city":"KANAZAWA SHI","town":"KOMINEMACHI","perfecture_jp":"石川県","jp_add_1":"金沢市","jp_add_2":"小嶺町"},"9203103":{"post_code":"9203103","prefecture":"ISHIKAWA KEN","city":"KANAZAWA SHI","town":"KOYO","perfecture_jp":"石川県","jp_add_1":"金沢市","jp_add_2":"湖陽"},"9200836":{"post_code":"9200836","prefecture":"ISHIKAWA KEN","city":"KANAZAWA SHI","town":"KORAIMACHI","perfecture_jp":"石川県","jp_add_1":"金沢市","jp_add_2":"子来町"},"9200224":{"post_code":"9200224","prefecture":"ISHIKAWA KEN","city":"KANAZAWA SHI","town":"GOROJIMAMACHI","perfecture_jp":"石川県","jp_add_1":"金沢市","jp_add_2":"五郎島町"},"9203101":{"post_code":"9203101","prefecture":"ISHIKAWA KEN","city":"KANAZAWA SHI","town":"SAIDAMACHI","perfecture_jp":"石川県","jp_add_1":"金沢市","jp_add_2":"才田町"},"9200024":{"post_code":"9200024","prefecture":"ISHIKAWA KEN","city":"KANAZAWA SHI","town":"SAINEN","perfecture_jp":"石川県","jp_add_1":"金沢市","jp_add_2":"西念"},"9200026":{"post_code":"9200026","prefecture":"ISHIKAWA KEN","city":"KANAZAWA SHI","town":"SAINEMMACHI","perfecture_jp":"石川県","jp_add_1":"金沢市","jp_add_2":"西念町"},"9200921":{"post_code":"9200921","prefecture":"ISHIKAWA KEN","city":"KANAZAWA SHI","town":"ZAIMOKUCHO","perfecture_jp":"石川県","jp_add_1":"金沢市","jp_add_2":"材木町"},"9200968":{"post_code":"9200968","prefecture":"ISHIKAWA KEN","city":"KANAZAWA SHI","town":"SAIWAIMACHI","perfecture_jp":"石川県","jp_add_1":"金沢市","jp_add_2":"幸町"},"9200357":{"post_code":"9200357","prefecture":"ISHIKAWA KEN","city":"KANAZAWA SHI","town":"SAKIMORIMACHI","perfecture_jp":"石川県","jp_add_1":"金沢市","jp_add_2":"佐奇森町"},"9200057":{"post_code":"9200057","prefecture":"ISHIKAWA KEN","city":"KANAZAWA SHI","town":"SAKURADAMACHI","perfecture_jp":"石川県","jp_add_1":"金沢市","jp_add_2":"桜田町"},"9200923":{"post_code":"9200923","prefecture":"ISHIKAWA KEN","city":"KANAZAWA SHI","town":"SAKURAMACHI","perfecture_jp":"石川県","jp_add_1":"金沢市","jp_add_2":"桜町"},"9200998":{"post_code":"9200998","prefecture":"ISHIKAWA KEN","city":"KANAZAWA SHI","town":"SATOMICHO","perfecture_jp":"石川県","jp_add_1":"金沢市","jp_add_2":"里見町"},"9200034":{"post_code":"9200034","prefecture":"ISHIKAWA KEN","city":"KANAZAWA SHI","town":"SAMEGAICHO","perfecture_jp":"石川県","jp_add_1":"金沢市","jp_add_2":"醒ケ井町"},"9200861":{"post_code":"9200861","prefecture":"ISHIKAWA KEN","city":"KANAZAWA SHI","town":"SANJAMACHI","perfecture_jp":"石川県","jp_add_1":"金沢市","jp_add_2":"三社町"},"9200821":{"post_code":"9200821","prefecture":"ISHIKAWA KEN","city":"KANAZAWA SHI","town":"SANNOMACHI","perfecture_jp":"石川県","jp_add_1":"金沢市","jp_add_2":"山王町"},"9200166":{"post_code":"9200166","prefecture":"ISHIKAWA KEN","city":"KANAZAWA SHI","town":"SHIOJIMACHI","perfecture_jp":"石川県","jp_add_1":"金沢市","jp_add_2":"四王寺町"},"9200116":{"post_code":"9200116","prefecture":"ISHIKAWA KEN","city":"KANAZAWA SHI","town":"JIDAIMACHI","perfecture_jp":"石川県","jp_add_1":"金沢市","jp_add_2":"地代町"},"9200341":{"post_code":"9200341","prefecture":"ISHIKAWA KEN","city":"KANAZAWA SHI","town":"JICHUMACHI","perfecture_jp":"石川県","jp_add_1":"金沢市","jp_add_2":"寺中町"},"9200906":{"post_code":"9200906","prefecture":"ISHIKAWA KEN","city":"KANAZAWA SHI","town":"JITSUKEMMACHI","perfecture_jp":"石川県","jp_add_1":"金沢市","jp_add_2":"十間町"},"9201129":{"post_code":"9201129","prefecture":"ISHIKAWA KEN","city":"KANAZAWA SHI","town":"SHIBAHARAMACHI","perfecture_jp":"石川県","jp_add_1":"金沢市","jp_add_2":"芝原町"},"9200104":{"post_code":"9200104","prefecture":"ISHIKAWA KEN","city":"KANAZAWA SHI","town":"SHIBOMACHI","perfecture_jp":"石川県","jp_add_1":"金沢市","jp_add_2":"四坊高坂町"},"9200132":{"post_code":"9200132","prefecture":"ISHIKAWA KEN","city":"KANAZAWA SHI","town":"SHIMIZUDANIMACHI","perfecture_jp":"石川県","jp_add_1":"金沢市","jp_add_2":"清水谷町"},"9201104":{"post_code":"9201104","prefecture":"ISHIKAWA KEN","city":"KANAZAWA SHI","town":"SHIMIZUMACHI","perfecture_jp":"石川県","jp_add_1":"金沢市","jp_add_2":"清水町"},"9200058":{"post_code":"9200058","prefecture":"ISHIKAWA KEN","city":"KANAZAWA SHI","town":"SHIMENONAKAMACHI","perfecture_jp":"石川県","jp_add_1":"金沢市","jp_add_2":"示野中町"},"9200059":{"post_code":"9200059","prefecture":"ISHIKAWA KEN","city":"KANAZAWA SHI","town":"SHIMENOMACHI","perfecture_jp":"石川県","jp_add_1":"金沢市","jp_add_2":"示野町"},"9200939":{"post_code":"9200939","prefecture":"ISHIKAWA KEN","city":"KANAZAWA SHI","town":"SHIMOISHIBIKIMACHI","perfecture_jp":"石川県","jp_add_1":"金沢市","jp_add_2":"下石引町"},"9200904":{"post_code":"9200904","prefecture":"ISHIKAWA KEN","city":"KANAZAWA SHI","town":"SHIMOUMICHO","perfecture_jp":"石川県","jp_add_1":"金沢市","jp_add_2":"下近江町"},"9201323":{"post_code":"9201323","prefecture":"ISHIKAWA KEN","city":"KANAZAWA SHI","town":"SHIMOSHIHARAMACHI","perfecture_jp":"石川県","jp_add_1":"金沢市","jp_add_2":"下鴛原町"},"9200991":{"post_code":"9200991","prefecture":"ISHIKAWA KEN","city":"KANAZAWA SHI","town":"SHIMOKAKINOKIBATAKE","perfecture_jp":"石川県","jp_add_1":"金沢市","jp_add_2":"下柿木畠"},"9200910":{"post_code":"9200910","prefecture":"ISHIKAWA KEN","city":"KANAZAWA SHI","town":"SHIMOSHINCHO","perfecture_jp":"石川県","jp_add_1":"金沢市","jp_add_2":"下新町"},"9201127":{"post_code":"9201127","prefecture":"ISHIKAWA KEN","city":"KANAZAWA SHI","town":"SHIMODANIMACHI","perfecture_jp":"石川県","jp_add_1":"金沢市","jp_add_2":"下谷町"},"9200917":{"post_code":"9200917","prefecture":"ISHIKAWA KEN","city":"KANAZAWA SHI","town":"SHIMOTSUTSUMICHO","perfecture_jp":"石川県","jp_add_1":"金沢市","jp_add_2":"下堤町"},"9200993":{"post_code":"9200993","prefecture":"ISHIKAWA KEN","city":"KANAZAWA SHI","town":"SHIMOHONDAMACHI","perfecture_jp":"石川県","jp_add_1":"金沢市","jp_add_2":"下本多町"},"9200916":{"post_code":"9200916","prefecture":"ISHIKAWA KEN","city":"KANAZAWA SHI","town":"SHIMOMATSUBARACHO","perfecture_jp":"石川県","jp_add_1":"金沢市","jp_add_2":"下松原町"},"9200371":{"post_code":"9200371","prefecture":"ISHIKAWA KEN","city":"KANAZAWA SHI","town":"SHIMOYASUHARAMACHI","perfecture_jp":"石川県","jp_add_1":"金沢市","jp_add_2":"下安原町"},"9200176":{"post_code":"9200176","prefecture":"ISHIKAWA KEN","city":"KANAZAWA SHI","town":"SHIMOWAKUNAMIMACHI","perfecture_jp":"石川県","jp_add_1":"金沢市","jp_add_2":"下涌波町"},"9200976":{"post_code":"9200976","prefecture":"ISHIKAWA KEN","city":"KANAZAWA SHI","town":"JUSANGEMMACHI","perfecture_jp":"石川県","jp_add_1":"金沢市","jp_add_2":"十三間町"},"9200977":{"post_code":"9200977","prefecture":"ISHIKAWA KEN","city":"KANAZAWA SHI","town":"JUSANGEMMACHINAKACHO","perfecture_jp":"石川県","jp_add_1":"金沢市","jp_add_2":"十三間町中丁"},"9200846":{"post_code":"9200846","prefecture":"ISHIKAWA KEN","city":"KANAZAWA SHI","town":"SHOEIMACHI","perfecture_jp":"石川県","jp_add_1":"金沢市","jp_add_2":"昌永町"},"9200966":{"post_code":"9200966","prefecture":"ISHIKAWA KEN","city":"KANAZAWA SHI","town":"JONAN","perfecture_jp":"石川県","jp_add_1":"金沢市","jp_add_2":"城南"},"9200154":{"post_code":"9200154","prefecture":"ISHIKAWA KEN","city":"KANAZAWA SHI","town":"SHOBUMACHI","perfecture_jp":"石川県","jp_add_1":"金沢市","jp_add_2":"正部町"},"9201325":{"post_code":"9201325","prefecture":"ISHIKAWA KEN","city":"KANAZAWA SHI","town":"JORIKIMACHI","perfecture_jp":"石川県","jp_add_1":"金沢市","jp_add_2":"城力町"},"9200856":{"post_code":"9200856","prefecture":"ISHIKAWA KEN","city":"KANAZAWA SHI","town":"SHOWAMACHI","perfecture_jp":"石川県","jp_add_1":"金沢市","jp_add_2":"昭和町"},"9201126":{"post_code":"9201126","prefecture":"ISHIKAWA KEN","city":"KANAZAWA SHI","town":"SHIROMIMACHI","perfecture_jp":"石川県","jp_add_1":"金沢市","jp_add_2":"白見町"},"9200806":{"post_code":"9200806","prefecture":"ISHIKAWA KEN","city":"KANAZAWA SHI","town":"JINGUJI","perfecture_jp":"石川県","jp_add_1":"金沢市","jp_add_2":"神宮寺"},"9200803":{"post_code":"9200803","prefecture":"ISHIKAWA KEN","city":"KANAZAWA SHI","town":"JINGUJIMACHI","perfecture_jp":"石川県","jp_add_1":"金沢市","jp_add_2":"神宮寺町"},"9200995":{"post_code":"9200995","prefecture":"ISHIKAWA KEN","city":"KANAZAWA SHI","town":"SHINTATEMACHI","perfecture_jp":"石川県","jp_add_1":"金沢市","jp_add_2":"新竪町"},"9201345":{"post_code":"9201345","prefecture":"ISHIKAWA KEN","city":"KANAZAWA SHI","town":"SHIMBOMACHI","perfecture_jp":"石川県","jp_add_1":"金沢市","jp_add_2":"新保町"},"9200833":{"post_code":"9200833","prefecture":"ISHIKAWA KEN","city":"KANAZAWA SHI","town":"SUEHIROMACHI","perfecture_jp":"石川県","jp_add_1":"金沢市","jp_add_2":"末広町"},"9201302":{"post_code":"9201302","prefecture":"ISHIKAWA KEN","city":"KANAZAWA SHI","town":"SUEMACHI","perfecture_jp":"石川県","jp_add_1":"金沢市","jp_add_2":"末町"},"9201311":{"post_code":"9201311","prefecture":"ISHIKAWA KEN","city":"KANAZAWA SHI","town":"SUGAIKEMACHI","perfecture_jp":"石川県","jp_add_1":"金沢市","jp_add_2":"菅池町"},"9200972":{"post_code":"9200972","prefecture":"ISHIKAWA KEN","city":"KANAZAWA SHI","town":"SUGIURAMACHI","perfecture_jp":"石川県","jp_add_1":"金沢市","jp_add_2":"杉浦町"},"9200207":{"post_code":"9200207","prefecture":"ISHIKAWA KEN","city":"KANAZAWA SHI","town":"SUZAKIMACHI","perfecture_jp":"石川県","jp_add_1":"金沢市","jp_add_2":"須崎町"},"9200857":{"post_code":"9200857","prefecture":"ISHIKAWA KEN","city":"KANAZAWA SHI","town":"SUJIKAIMACHI","perfecture_jp":"石川県","jp_add_1":"金沢市","jp_add_2":"折違町"},"9201161":{"post_code":"9201161","prefecture":"ISHIKAWA KEN","city":"KANAZAWA SHI","town":"SUZUMIDAI","perfecture_jp":"石川県","jp_add_1":"金沢市","jp_add_2":"鈴見台"},"9201162":{"post_code":"9201162","prefecture":"ISHIKAWA KEN","city":"KANAZAWA SHI","town":"SUZUMIMACHI","perfecture_jp":"石川県","jp_add_1":"金沢市","jp_add_2":"鈴見町"},"9201344":{"post_code":"9201344","prefecture":"ISHIKAWA KEN","city":"KANAZAWA SHI","town":"SUMIYOSHIMACHI","perfecture_jp":"石川県","jp_add_1":"金沢市","jp_add_2":"住吉町"},"9208202":{"post_code":"9208202","prefecture":"ISHIKAWA KEN","city":"KANAZAWA SHI","town":"SEITO","perfecture_jp":"石川県","jp_add_1":"金沢市","jp_add_2":"西都"},"9200002":{"post_code":"9200002","prefecture":"ISHIKAWA KEN","city":"KANAZAWA SHI","town":"SEGI","perfecture_jp":"石川県","jp_add_1":"金沢市","jp_add_2":"千木"},"9200001":{"post_code":"9200001","prefecture":"ISHIKAWA KEN","city":"KANAZAWA SHI","town":"SEGIMACHI","perfecture_jp":"石川県","jp_add_1":"金沢市","jp_add_2":"千木町"},"9201312":{"post_code":"9201312","prefecture":"ISHIKAWA KEN","city":"KANAZAWA SHI","town":"SERYOMACHI","perfecture_jp":"石川県","jp_add_1":"金沢市","jp_add_2":"瀬領町"},"9200356":{"post_code":"9200356","prefecture":"ISHIKAWA KEN","city":"KANAZAWA SHI","town":"SENKOJIMACHI","perfecture_jp":"石川県","jp_add_1":"金沢市","jp_add_2":"専光寺町"},"9200204":{"post_code":"9200204","prefecture":"ISHIKAWA KEN","city":"KANAZAWA SHI","town":"SENDAMACHI","perfecture_jp":"石川県","jp_add_1":"金沢市","jp_add_2":"千田町"},"9200115":{"post_code":"9200115","prefecture":"ISHIKAWA KEN","city":"KANAZAWA SHI","town":"SENNOSUGIMACHI","perfecture_jp":"石川県","jp_add_1":"金沢市","jp_add_2":"千杉町"},"9200982":{"post_code":"9200982","prefecture":"ISHIKAWA KEN","city":"KANAZAWA SHI","town":"DAIKUMACHI","perfecture_jp":"石川県","jp_add_1":"金沢市","jp_add_2":"大工町"},"9200924":{"post_code":"9200924","prefecture":"ISHIKAWA KEN","city":"KANAZAWA SHI","town":"TAIMACHI","perfecture_jp":"石川県","jp_add_1":"金沢市","jp_add_2":"田井町"},"9201154":{"post_code":"9201154","prefecture":"ISHIKAWA KEN","city":"KANAZAWA SHI","town":"TAIYOGAOKA","perfecture_jp":"石川県","jp_add_1":"金沢市","jp_add_2":"太陽が丘"},"9201141":{"post_code":"9201141","prefecture":"ISHIKAWA KEN","city":"KANAZAWA SHI","town":"DAIRAHOMMACHI","perfecture_jp":"石川県","jp_add_1":"金沢市","jp_add_2":"平等本町"},"9201334":{"post_code":"9201334","prefecture":"ISHIKAWA KEN","city":"KANAZAWA SHI","town":"TAIRAMACHI","perfecture_jp":"石川県","jp_add_1":"金沢市","jp_add_2":"平町"},"9200046":{"post_code":"9200046","prefecture":"ISHIKAWA KEN","city":"KANAZAWA SHI","town":"DAIWAMACHI","perfecture_jp":"石川県","jp_add_1":"金沢市","jp_add_2":"大和町"},"9201143":{"post_code":"9201143","prefecture":"ISHIKAWA KEN","city":"KANAZAWA SHI","town":"TAKAIKEMACHI","perfecture_jp":"石川県","jp_add_1":"金沢市","jp_add_2":"高池町"},"9200864":{"post_code":"9200864","prefecture":"ISHIKAWA KEN","city":"KANAZAWA SHI","town":"TAKAOKAMACHI","perfecture_jp":"石川県","jp_add_1":"金沢市","jp_add_2":"高岡町"},"9200155":{"post_code":"9200155","prefecture":"ISHIKAWA KEN","city":"KANAZAWA SHI","town":"TAKASAKAMACHI","perfecture_jp":"石川県","jp_add_1":"金沢市","jp_add_2":"高坂町"},"9200005":{"post_code":"9200005","prefecture":"ISHIKAWA KEN","city":"KANAZAWA SHI","town":"TAKAYANAGIMACHI","perfecture_jp":"石川県","jp_add_1":"金沢市","jp_add_2":"高柳町"},"9200934":{"post_code":"9200934","prefecture":"ISHIKAWA KEN","city":"KANAZAWA SHI","town":"TAKARAMACHI","perfecture_jp":"石川県","jp_add_1":"金沢市","jp_add_2":"宝町"},"9201152":{"post_code":"9201152","prefecture":"ISHIKAWA KEN","city":"KANAZAWA SHI","town":"TAGAMI","perfecture_jp":"石川県","jp_add_1":"金沢市","jp_add_2":"田上"},"9201157":{"post_code":"9201157","prefecture":"ISHIKAWA KEN","city":"KANAZAWA SHI","town":"TAGAMISAKURA","perfecture_jp":"石川県","jp_add_1":"金沢市","jp_add_2":"田上さくら"},"9201153":{"post_code":"9201153","prefecture":"ISHIKAWA KEN","city":"KANAZAWA SHI","town":"TAGAMISHIMMACHI","perfecture_jp":"石川県","jp_add_1":"金沢市","jp_add_2":"田上新町"},"9201156":{"post_code":"9201156","prefecture":"ISHIKAWA KEN","city":"KANAZAWA SHI","town":"TAGAMINOSATO","perfecture_jp":"石川県","jp_add_1":"金沢市","jp_add_2":"田上の里"},"9201155":{"post_code":"9201155","prefecture":"ISHIKAWA KEN","city":"KANAZAWA SHI","town":"TAGAMIHOMMACHI","perfecture_jp":"石川県","jp_add_1":"金沢市","jp_add_2":"田上本町"},"9201151":{"post_code":"9201151","prefecture":"ISHIKAWA KEN","city":"KANAZAWA SHI","town":"TAGAMIMACHI","perfecture_jp":"石川県","jp_add_1":"金沢市","jp_add_2":"田上町"},"9200123":{"post_code":"9200123","prefecture":"ISHIKAWA KEN","city":"KANAZAWA SHI","town":"TAKISHITAMACHI","perfecture_jp":"石川県","jp_add_1":"金沢市","jp_add_2":"滝下町"},"9200137":{"post_code":"9200137","prefecture":"ISHIKAWA KEN","city":"KANAZAWA SHI","town":"TAKEMATAMACHI","perfecture_jp":"石川県","jp_add_1":"金沢市","jp_add_2":"竹又町"},"9203102":{"post_code":"9203102","prefecture":"ISHIKAWA KEN","city":"KANAZAWA SHI","town":"TADANAWAMACHI","perfecture_jp":"石川県","jp_add_1":"金沢市","jp_add_2":"忠縄町"},"9200957":{"post_code":"9200957","prefecture":"ISHIKAWA KEN","city":"KANAZAWA SHI","town":"TACHIMACHI","perfecture_jp":"石川県","jp_add_1":"金沢市","jp_add_2":"舘町"},"9200956":{"post_code":"9200956","prefecture":"ISHIKAWA KEN","city":"KANAZAWA SHI","town":"TACHIYAMAMACHI","perfecture_jp":"石川県","jp_add_1":"金沢市","jp_add_2":"舘山町"},"9201303":{"post_code":"9201303","prefecture":"ISHIKAWA KEN","city":"KANAZAWA SHI","town":"TATSUMIMACHI","perfecture_jp":"石川県","jp_add_1":"金沢市","jp_add_2":"辰巳町"},"9200997":{"post_code":"9200997","prefecture":"ISHIKAWA KEN","city":"KANAZAWA SHI","town":"TATEMACHI","perfecture_jp":"石川県","jp_add_1":"金沢市","jp_add_2":"竪町"},"9200007":{"post_code":"9200007","prefecture":"ISHIKAWA KEN","city":"KANAZAWA SHI","town":"TANAKAMACHI","perfecture_jp":"石川県","jp_add_1":"金沢市","jp_add_2":"田中町"},"9201103":{"post_code":"9201103","prefecture":"ISHIKAWA KEN","city":"KANAZAWA SHI","town":"TANOSHIMAMACHI","perfecture_jp":"石川県","jp_add_1":"金沢市","jp_add_2":"田島町"},"9200863":{"post_code":"9200863","prefecture":"ISHIKAWA KEN","city":"KANAZAWA SHI","town":"TAMAGAWACHO","perfecture_jp":"石川県","jp_add_1":"金沢市","jp_add_2":"玉川町"},"9200113":{"post_code":"9200113","prefecture":"ISHIKAWA KEN","city":"KANAZAWA SHI","town":"TARAWARAMACHI","perfecture_jp":"石川県","jp_add_1":"金沢市","jp_add_2":"俵原町"},"9201108":{"post_code":"9201108","prefecture":"ISHIKAWA KEN","city":"KANAZAWA SHI","town":"TAWARAMACHI","perfecture_jp":"石川県","jp_add_1":"金沢市","jp_add_2":"俵町"},"9208217":{"post_code":"9208217","prefecture":"ISHIKAWA KEN","city":"KANAZAWA SHI","town":"CHIKAOKAMACHI","perfecture_jp":"石川県","jp_add_1":"金沢市","jp_add_2":"近岡町"},"9201138":{"post_code":"9201138","prefecture":"ISHIKAWA KEN","city":"KANAZAWA SHI","town":"CHIHARAMACHI","perfecture_jp":"石川県","jp_add_1":"金沢市","jp_add_2":"茅原町"},"9200866":{"post_code":"9200866","prefecture":"ISHIKAWA KEN","city":"KANAZAWA SHI","town":"CHUODORIMACHI","perfecture_jp":"石川県","jp_add_1":"金沢市","jp_add_2":"中央通町"},"9201147":{"post_code":"9201147","prefecture":"ISHIKAWA KEN","city":"KANAZAWA SHI","town":"CHOSHIMACHI","perfecture_jp":"石川県","jp_add_1":"金沢市","jp_add_2":"銚子町"},"9203113":{"post_code":"9203113","prefecture":"ISHIKAWA KEN","city":"KANAZAWA SHI","town":"TSUKAZAKIMACHI","perfecture_jp":"石川県","jp_add_1":"金沢市","jp_add_2":"塚崎町"},"9200178":{"post_code":"9200178","prefecture":"ISHIKAWA KEN","city":"KANAZAWA SHI","town":"TSUKIURAMACHI","perfecture_jp":"石川県","jp_add_1":"金沢市","jp_add_2":"月浦町"},"9200105":{"post_code":"9200105","prefecture":"ISHIKAWA KEN","city":"KANAZAWA SHI","town":"TSUKIKAGEMACHI","perfecture_jp":"石川県","jp_add_1":"金沢市","jp_add_2":"月影町"},"9200135":{"post_code":"9200135","prefecture":"ISHIKAWA KEN","city":"KANAZAWA SHI","town":"TSUCHIKOHARAMACHI","perfecture_jp":"石川県","jp_add_1":"金沢市","jp_add_2":"土子原町"},"9200955":{"post_code":"9200955","prefecture":"ISHIKAWA KEN","city":"KANAZAWA SHI","town":"TSUCHISHIMIZU","perfecture_jp":"石川県","jp_add_1":"金沢市","jp_add_2":"土清水"},"9200161":{"post_code":"9200161","prefecture":"ISHIKAWA KEN","city":"KANAZAWA SHI","town":"TSUZUMIDOMACHI","perfecture_jp":"石川県","jp_add_1":"金沢市","jp_add_2":"鞁筒町"},"9200825":{"post_code":"9200825","prefecture":"ISHIKAWA KEN","city":"KANAZAWA SHI","town":"TSURUBEMACHI","perfecture_jp":"石川県","jp_add_1":"金沢市","jp_add_2":"釣部町"},"9201315":{"post_code":"9201315","prefecture":"ISHIKAWA KEN","city":"KANAZAWA SHI","town":"TERAZUMACHI","perfecture_jp":"石川県","jp_add_1":"金沢市","jp_add_2":"寺津町"},"9200925":{"post_code":"9200925","prefecture":"ISHIKAWA KEN","city":"KANAZAWA SHI","town":"TENJIMMACHI","perfecture_jp":"石川県","jp_add_1":"金沢市","jp_add_2":"天神町"},"9200963":{"post_code":"9200963","prefecture":"ISHIKAWA KEN","city":"KANAZAWA SHI","town":"DEWAMACHI","perfecture_jp":"石川県","jp_add_1":"金沢市","jp_add_2":"出羽町"},"9200824":{"post_code":"9200824","prefecture":"ISHIKAWA KEN","city":"KANAZAWA SHI","town":"DENDOJIMACHI","perfecture_jp":"石川県","jp_add_1":"金沢市","jp_add_2":"伝燈寺町"},"9200068":{"post_code":"9200068","prefecture":"ISHIKAWA KEN","city":"KANAZAWA SHI","town":"TOITA","perfecture_jp":"石川県","jp_add_1":"金沢市","jp_add_2":"戸板"},"9200069":{"post_code":"9200069","prefecture":"ISHIKAWA KEN","city":"KANAZAWA SHI","town":"TOITANISHI","perfecture_jp":"石川県","jp_add_1":"金沢市","jp_add_2":"戸板西"},"9200061":{"post_code":"9200061","prefecture":"ISHIKAWA KEN","city":"KANAZAWA SHI","town":"TOIYAMACHI","perfecture_jp":"石川県","jp_add_1":"金沢市","jp_add_2":"問屋町"},"9201133":{"post_code":"9201133","prefecture":"ISHIKAWA KEN","city":"KANAZAWA SHI","town":"TOROKUMACHI","perfecture_jp":"石川県","jp_add_1":"金沢市","jp_add_2":"藤六町"},"9200834":{"post_code":"9200834","prefecture":"ISHIKAWA KEN","city":"KANAZAWA SHI","town":"TOKIWAMACHI","perfecture_jp":"石川県","jp_add_1":"金沢市","jp_add_2":"常盤町"},"9200101":{"post_code":"9200101","prefecture":"ISHIKAWA KEN","city":"KANAZAWA SHI","town":"TOGIYAMACHI","perfecture_jp":"石川県","jp_add_1":"金沢市","jp_add_2":"利屋町"},"9200938":{"post_code":"9200938","prefecture":"ISHIKAWA KEN","city":"KANAZAWA SHI","town":"TOBIUMECHO","perfecture_jp":"石川県","jp_add_1":"金沢市","jp_add_2":"飛梅町"},"9208204":{"post_code":"9208204","prefecture":"ISHIKAWA KEN","city":"KANAZAWA SHI","town":"TOMIZU","perfecture_jp":"石川県","jp_add_1":"金沢市","jp_add_2":"戸水"},"9200223":{"post_code":"9200223","prefecture":"ISHIKAWA KEN","city":"KANAZAWA SHI","town":"TOMIZUMACHI","perfecture_jp":"石川県","jp_add_1":"金沢市","jp_add_2":"戸水町"},"9201105":{"post_code":"9201105","prefecture":"ISHIKAWA KEN","city":"KANAZAWA SHI","town":"TOMURO SHIMBO","perfecture_jp":"石川県","jp_add_1":"金沢市","jp_add_2":"戸室新保"},"9201106":{"post_code":"9201106","prefecture":"ISHIKAWA KEN","city":"KANAZAWA SHI","town":"YUYAGAHARAMACHI","perfecture_jp":"石川県","jp_add_1":"金沢市","jp_add_2":"戸室別所"},"9200372":{"post_code":"9200372","prefecture":"ISHIKAWA KEN","city":"KANAZAWA SHI","town":"TOYOHOMACHI","perfecture_jp":"石川県","jp_add_1":"金沢市","jp_add_2":"豊穂町"},"9208218":{"post_code":"9208218","prefecture":"ISHIKAWA KEN","city":"KANAZAWA SHI","town":"NAOEKITA","perfecture_jp":"石川県","jp_add_1":"金沢市","jp_add_2":"直江北"},"9200141":{"post_code":"9200141","prefecture":"ISHIKAWA KEN","city":"KANAZAWA SHI","town":"NAOENOMACHI","perfecture_jp":"石川県","jp_add_1":"金沢市","jp_add_2":"直江野町"},"9208216":{"post_code":"9208216","prefecture":"ISHIKAWA KEN","city":"KANAZAWA SHI","town":"NAOEMACHI","perfecture_jp":"石川県","jp_add_1":"金沢市","jp_add_2":"直江町"},"9200124":{"post_code":"9200124","prefecture":"ISHIKAWA KEN","city":"KANAZAWA SHI","town":"NAKAOMACHI","perfecture_jp":"石川県","jp_add_1":"金沢市","jp_add_2":"中尾町"},"9200975":{"post_code":"9200975","prefecture":"ISHIKAWA KEN","city":"KANAZAWA SHI","town":"NAKAKAWAYOKEMACHI","perfecture_jp":"石川県","jp_add_1":"金沢市","jp_add_2":"中川除町"},"9201336":{"post_code":"9201336","prefecture":"ISHIKAWA KEN","city":"KANAZAWA SHI","town":"NAKATOMACHI","perfecture_jp":"石川県","jp_add_1":"金沢市","jp_add_2":"中戸町"},"9200035":{"post_code":"9200035","prefecture":"ISHIKAWA KEN","city":"KANAZAWA SHI","town":"NAKABASHIMACHI","perfecture_jp":"石川県","jp_add_1":"金沢市","jp_add_2":"中橋町"},"9200381":{"post_code":"9200381","prefecture":"ISHIKAWA KEN","city":"KANAZAWA SHI","town":"NAKAYA","perfecture_jp":"石川県","jp_add_1":"金沢市","jp_add_2":"中屋"},"9200375":{"post_code":"9200375","prefecture":"ISHIKAWA KEN","city":"KANAZAWA SHI","town":"NAKAYAMACHI","perfecture_jp":"石川県","jp_add_1":"金沢市","jp_add_2":"中屋町"},"9201109":{"post_code":"9201109","prefecture":"ISHIKAWA KEN","city":"KANAZAWA SHI","town":"NAKAYAMAMACHI","perfecture_jp":"石川県","jp_add_1":"金沢市","jp_add_2":"中山町"},"9200379":{"post_code":"9200379","prefecture":"ISHIKAWA KEN","city":"KANAZAWA SHI","town":"NAKAYAMINAMI","perfecture_jp":"石川県","jp_add_1":"金沢市","jp_add_2":"中屋南"},"9200043":{"post_code":"9200043","prefecture":"ISHIKAWA KEN","city":"KANAZAWA SHI","town":"NAGATA","perfecture_jp":"石川県","jp_add_1":"金沢市","jp_add_2":"長田"},"9200041":{"post_code":"9200041","prefecture":"ISHIKAWA KEN","city":"KANAZAWA SHI","town":"NAGATAHOMMACHI","perfecture_jp":"石川県","jp_add_1":"金沢市","jp_add_2":"長田本町"},"9200042":{"post_code":"9200042","prefecture":"ISHIKAWA KEN","city":"KANAZAWA SHI","town":"NAGATAMACHI","perfecture_jp":"石川県","jp_add_1":"金沢市","jp_add_2":"長田町"},"9200867":{"post_code":"9200867","prefecture":"ISHIKAWA KEN","city":"KANAZAWA SHI","town":"NAGADOHE","perfecture_jp":"石川県","jp_add_1":"金沢市","jp_add_2":"長土塀"},"9200865":{"post_code":"9200865","prefecture":"ISHIKAWA KEN","city":"KANAZAWA SHI","town":"NAGAMACHI","perfecture_jp":"石川県","jp_add_1":"金沢市","jp_add_2":"長町"},"9200151":{"post_code":"9200151","prefecture":"ISHIKAWA KEN","city":"KANAZAWA SHI","town":"NASHINOKIMACHI","perfecture_jp":"石川県","jp_add_1":"金沢市","jp_add_2":"梨木町"},"9200021":{"post_code":"9200021","prefecture":"ISHIKAWA KEN","city":"KANAZAWA SHI","town":"NANATSUYAMACHI","perfecture_jp":"石川県","jp_add_1":"金沢市","jp_add_2":"七ツ屋町"},"9201137":{"post_code":"9201137","prefecture":"ISHIKAWA KEN","city":"KANAZAWA SHI","town":"NANAMAGARIMACHI","perfecture_jp":"石川県","jp_add_1":"金沢市","jp_add_2":"七曲町"},"9200928":{"post_code":"9200928","prefecture":"ISHIKAWA KEN","city":"KANAZAWA SHI","town":"NAMIKIMACHI","perfecture_jp":"石川県","jp_add_1":"金沢市","jp_add_2":"並木町"},"9200152":{"post_code":"9200152","prefecture":"ISHIKAWA KEN","city":"KANAZAWA SHI","town":"NARASEMOTOMACHI","perfecture_jp":"石川県","jp_add_1":"金沢市","jp_add_2":"鳴瀬元町"},"9200804":{"post_code":"9200804","prefecture":"ISHIKAWA KEN","city":"KANAZAWA SHI","town":"NARUWA","perfecture_jp":"石川県","jp_add_1":"金沢市","jp_add_2":"鳴和"},"9200815":{"post_code":"9200815","prefecture":"ISHIKAWA KEN","city":"KANAZAWA SHI","town":"NARUWADAI","perfecture_jp":"石川県","jp_add_1":"金沢市","jp_add_2":"鳴和台"},"9200814":{"post_code":"9200814","prefecture":"ISHIKAWA KEN","city":"KANAZAWA SHI","town":"NARUWAMACHI","perfecture_jp":"石川県","jp_add_1":"金沢市","jp_add_2":"鳴和町"},"9201136":{"post_code":"9201136","prefecture":"ISHIKAWA KEN","city":"KANAZAWA SHI","town":"NISHIICHINOSEMACHI","perfecture_jp":"石川県","jp_add_1":"金沢市","jp_add_2":"西市瀬町"},"9200952":{"post_code":"9200952","prefecture":"ISHIKAWA KEN","city":"KANAZAWA SHI","town":"NISHIKIMACHI","perfecture_jp":"石川県","jp_add_1":"金沢市","jp_add_2":"錦町"},"9200913":{"post_code":"9200913","prefecture":"ISHIKAWA KEN","city":"KANAZAWA SHI","town":"NISHICHO 3-BANCHO","perfecture_jp":"石川県","jp_add_1":"金沢市","jp_add_2":"西町三番丁"},"9200914":{"post_code":"9200914","prefecture":"ISHIKAWA KEN","city":"KANAZAWA SHI","town":"NISHICHO 4-BANCHO","perfecture_jp":"石川県","jp_add_1":"金沢市","jp_add_2":"西町四番丁"},"9200915":{"post_code":"9200915","prefecture":"ISHIKAWA KEN","city":"KANAZAWA SHI","town":"NISHICHO YABUNOCHIDORI","perfecture_jp":"石川県","jp_add_1":"金沢市","jp_add_2":"西町藪ノ内通"},"9200067":{"post_code":"9200067","prefecture":"ISHIKAWA KEN","city":"KANAZAWA SHI","town":"NINOMIYAMACHI","perfecture_jp":"石川県","jp_add_1":"金沢市","jp_add_2":"二宮町"},"9200142":{"post_code":"9200142","prefecture":"ISHIKAWA KEN","city":"KANAZAWA SHI","town":"NONEMMACHI","perfecture_jp":"石川県","jp_add_1":"金沢市","jp_add_2":"納年町"},"9200903":{"post_code":"9200903","prefecture":"ISHIKAWA KEN","city":"KANAZAWA SHI","town":"BAKUROMACHI","perfecture_jp":"石川県","jp_add_1":"金沢市","jp_add_2":"博労町"},"9200911":{"post_code":"9200911","prefecture":"ISHIKAWA KEN","city":"KANAZAWA SHI","town":"HASHIBACHO","perfecture_jp":"石川県","jp_add_1":"金沢市","jp_add_2":"橋場町"},"9203106":{"post_code":"9203106","prefecture":"ISHIKAWA KEN","city":"KANAZAWA SHI","town":"HATTAMACHI","perfecture_jp":"石川県","jp_add_1":"金沢市","jp_add_2":"八田町"},"9203104":{"post_code":"9203104","prefecture":"ISHIKAWA KEN","city":"KANAZAWA SHI","town":"HATTAMACHI HIGASHI","perfecture_jp":"石川県","jp_add_1":"金沢市","jp_add_2":"八田町東"},"9203105":{"post_code":"9203105","prefecture":"ISHIKAWA KEN","city":"KANAZAWA SHI","town":"HATTAMACHI NISHI","perfecture_jp":"石川県","jp_add_1":"金沢市","jp_add_2":"八田町西"},"9200951":{"post_code":"9200951","prefecture":"ISHIKAWA KEN","city":"KANAZAWA SHI","town":"HANAZATOMACHI","perfecture_jp":"石川県","jp_add_1":"金沢市","jp_add_2":"花里町"},"9200103":{"post_code":"9200103","prefecture":"ISHIKAWA KEN","city":"KANAZAWA SHI","town":"HANAZONOYAWATAMACHI","perfecture_jp":"石川県","jp_add_1":"金沢市","jp_add_2":"花園八幡町"},"9201128":{"post_code":"9201128","prefecture":"ISHIKAWA KEN","city":"KANAZAWA SHI","town":"HABAMACHI","perfecture_jp":"石川県","jp_add_1":"金沢市","jp_add_2":"羽場町"},"9201131":{"post_code":"9201131","prefecture":"ISHIKAWA KEN","city":"KANAZAWA SHI","town":"HIGASHIARAYAMACHI","perfecture_jp":"石川県","jp_add_1":"金沢市","jp_add_2":"東荒屋町"},"9201134":{"post_code":"9201134","prefecture":"ISHIKAWA KEN","city":"KANAZAWA SHI","town":"HIGASHIICHINOSEMACHI","perfecture_jp":"石川県","jp_add_1":"金沢市","jp_add_2":"東市瀬町"},"9200209":{"post_code":"9200209","prefecture":"ISHIKAWA KEN","city":"KANAZAWA SHI","town":"HIGASHIKAGATSUMEMACHI","perfecture_jp":"石川県","jp_add_1":"金沢市","jp_add_2":"東蚊爪町"},"9200933":{"post_code":"9200933","prefecture":"ISHIKAWA KEN","city":"KANAZAWA SHI","town":"HIGASHIKENROKUMACHI","perfecture_jp":"石川県","jp_add_1":"金沢市","jp_add_2":"東兼六町"},"9200822":{"post_code":"9200822","prefecture":"ISHIKAWA KEN","city":"KANAZAWA SHI","town":"HIGASHINAGAEMACHI","perfecture_jp":"石川県","jp_add_1":"金沢市","jp_add_2":"東長江町"},"9200131":{"post_code":"9200131","prefecture":"ISHIKAWA KEN","city":"KANAZAWA SHI","town":"HIGASHIHARAMACHI","perfecture_jp":"石川県","jp_add_1":"金沢市","jp_add_2":"東原町"},"9201121":{"post_code":"9201121","prefecture":"ISHIKAWA KEN","city":"KANAZAWA SHI","town":"HIGASHIMACHI","perfecture_jp":"石川県","jp_add_1":"金沢市","jp_add_2":"東町"},"9200835":{"post_code":"9200835","prefecture":"ISHIKAWA KEN","city":"KANAZAWA SHI","town":"HIGASHIMIKAGEMACHI","perfecture_jp":"石川県","jp_add_1":"金沢市","jp_add_2":"東御影町"},"9200831":{"post_code":"9200831","prefecture":"ISHIKAWA KEN","city":"KANAZAWA SHI","town":"HIGASHIYAMA","perfecture_jp":"石川県","jp_add_1":"金沢市","jp_add_2":"東山"},"9200003":{"post_code":"9200003","prefecture":"ISHIKAWA KEN","city":"KANAZAWA SHI","town":"HIKIDA","perfecture_jp":"石川県","jp_add_1":"金沢市","jp_add_2":"疋田"},"9200004":{"post_code":"9200004","prefecture":"ISHIKAWA KEN","city":"KANAZAWA SHI","town":"HIKIDAMACHI","perfecture_jp":"石川県","jp_add_1":"金沢市","jp_add_2":"疋田町"},"9200901":{"post_code":"9200901","prefecture":"ISHIKAWA KEN","city":"KANAZAWA SHI","town":"HIKOSOMACHI","perfecture_jp":"石川県","jp_add_1":"金沢市","jp_add_2":"彦三町"},"9200845":{"post_code":"9200845","prefecture":"ISHIKAWA KEN","city":"KANAZAWA SHI","town":"HYOTAMMACHI","perfecture_jp":"石川県","jp_add_1":"金沢市","jp_add_2":"瓢箪町"},"9200033":{"post_code":"9200033","prefecture":"ISHIKAWA KEN","city":"KANAZAWA SHI","town":"HIYOSHIMACHI","perfecture_jp":"石川県","jp_add_1":"金沢市","jp_add_2":"日吉町"},"9200031":{"post_code":"9200031","prefecture":"ISHIKAWA KEN","city":"KANAZAWA SHI","town":"HIROKA","perfecture_jp":"石川県","jp_add_1":"金沢市","jp_add_2":"広岡"},"9200032":{"post_code":"9200032","prefecture":"ISHIKAWA KEN","city":"KANAZAWA SHI","town":"HIROKAMACHI","perfecture_jp":"石川県","jp_add_1":"金沢市","jp_add_2":"広岡町"},"9200962":{"post_code":"9200962","prefecture":"ISHIKAWA KEN","city":"KANAZAWA SHI","town":"HIROSAKA","perfecture_jp":"石川県","jp_add_1":"金沢市","jp_add_2":"広坂"},"9200165":{"post_code":"9200165","prefecture":"ISHIKAWA KEN","city":"KANAZAWA SHI","town":"FUKATANIMACHI","perfecture_jp":"石川県","jp_add_1":"金沢市","jp_add_2":"深谷町"},"9200167":{"post_code":"9200167","prefecture":"ISHIKAWA KEN","city":"KANAZAWA SHI","town":"FUKUBATAKEMACHI","perfecture_jp":"石川県","jp_add_1":"金沢市","jp_add_2":"福畠町"},"9203126":{"post_code":"9203126","prefecture":"ISHIKAWA KEN","city":"KANAZAWA SHI","town":"FUKUHISA","perfecture_jp":"石川県","jp_add_1":"金沢市","jp_add_2":"福久"},"9203122":{"post_code":"9203122","prefecture":"ISHIKAWA KEN","city":"KANAZAWA SHI","town":"FUKUHISAMACHI","perfecture_jp":"石川県","jp_add_1":"金沢市","jp_add_2":"福久町"},"9203123":{"post_code":"9203123","prefecture":"ISHIKAWA KEN","city":"KANAZAWA SHI","town":"FUKUHISAHIGASHI","perfecture_jp":"石川県","jp_add_1":"金沢市","jp_add_2":"福久東"},"9200376":{"post_code":"9200376","prefecture":"ISHIKAWA KEN","city":"KANAZAWA SHI","town":"FUKUMASUMACHI","perfecture_jp":"石川県","jp_add_1":"金沢市","jp_add_2":"福増町"},"9201144":{"post_code":"9201144","prefecture":"ISHIKAWA KEN","city":"KANAZAWA SHI","town":"FUKUROITAYAMACHI","perfecture_jp":"石川県","jp_add_1":"金沢市","jp_add_2":"袋板屋町"},"9200361":{"post_code":"9200361","prefecture":"ISHIKAWA KEN","city":"KANAZAWA SHI","town":"FUKUROBATAKEMACHI","perfecture_jp":"石川県","jp_add_1":"金沢市","jp_add_2":"袋畠町"},"9200909":{"post_code":"9200909","prefecture":"ISHIKAWA KEN","city":"KANAZAWA SHI","town":"FUKUROMACHI","perfecture_jp":"石川県","jp_add_1":"金沢市","jp_add_2":"袋町"},"9200351":{"post_code":"9200351","prefecture":"ISHIKAWA KEN","city":"KANAZAWA SHI","town":"FUSHOJIMACHI","perfecture_jp":"石川県","jp_add_1":"金沢市","jp_add_2":"普正寺町"},"9200346":{"post_code":"9200346","prefecture":"ISHIKAWA KEN","city":"KANAZAWA SHI","town":"FUJIE MINAMI","perfecture_jp":"石川県","jp_add_1":"金沢市","jp_add_2":"藤江南"},"9200345":{"post_code":"9200345","prefecture":"ISHIKAWA KEN","city":"KANAZAWA SHI","town":"FUJIE KITA","perfecture_jp":"石川県","jp_add_1":"金沢市","jp_add_2":"藤江北"},"9200051":{"post_code":"9200051","prefecture":"ISHIKAWA KEN","city":"KANAZAWA SHI","town":"FUTAKUCHIMACHI","perfecture_jp":"石川県","jp_add_1":"金沢市","jp_add_2":"二口町"},"9200354":{"post_code":"9200354","prefecture":"ISHIKAWA KEN","city":"KANAZAWA SHI","town":"FUTATSUDERAMACHI","perfecture_jp":"石川県","jp_add_1":"金沢市","jp_add_2":"二ツ寺町"},"9200065":{"post_code":"9200065","prefecture":"ISHIKAWA KEN","city":"KANAZAWA SHI","town":"FUTATSUYAMACHI","perfecture_jp":"石川県","jp_add_1":"金沢市","jp_add_2":"二ツ屋町"},"9201316":{"post_code":"9201316","prefecture":"ISHIKAWA KEN","city":"KANAZAWA SHI","town":"FUTAMATASHIMMACHI","perfecture_jp":"石川県","jp_add_1":"金沢市","jp_add_2":"二又新町"},"9201102":{"post_code":"9201102","prefecture":"ISHIKAWA KEN","city":"KANAZAWA SHI","town":"FUTAMATAMACHI","perfecture_jp":"石川県","jp_add_1":"金沢市","jp_add_2":"二俣町"},"9200107":{"post_code":"9200107","prefecture":"ISHIKAWA KEN","city":"KANAZAWA SHI","town":"FUTSUKAICHIMACHI","perfecture_jp":"石川県","jp_add_1":"金沢市","jp_add_2":"二日市町"},"9200173":{"post_code":"9200173","prefecture":"ISHIKAWA KEN","city":"KANAZAWA SHI","town":"FUDOJIMACHI","perfecture_jp":"石川県","jp_add_1":"金沢市","jp_add_2":"不動寺町"},"9200147":{"post_code":"9200147","prefecture":"ISHIKAWA KEN","city":"KANAZAWA SHI","town":"FUMUROMACHI","perfecture_jp":"石川県","jp_add_1":"金沢市","jp_add_2":"不室町"},"9200156":{"post_code":"9200156","prefecture":"ISHIKAWA KEN","city":"KANAZAWA SHI","town":"FURUYADANIMACHI","perfecture_jp":"石川県","jp_add_1":"金沢市","jp_add_2":"古屋谷町"},"9201341":{"post_code":"9201341","prefecture":"ISHIKAWA KEN","city":"KANAZAWA SHI","town":"BESSHOMACHI","perfecture_jp":"石川県","jp_add_1":"金沢市","jp_add_2":"別所町"},"9203132":{"post_code":"9203132","prefecture":"ISHIKAWA KEN","city":"KANAZAWA SHI","town":"HOKOJIMACHI","perfecture_jp":"石川県","jp_add_1":"金沢市","jp_add_2":"法光寺町"},"9200862":{"post_code":"9200862","prefecture":"ISHIKAWA KEN","city":"KANAZAWA SHI","town":"HOSAI","perfecture_jp":"石川県","jp_add_1":"金沢市","jp_add_2":"芳斉"},"9200177":{"post_code":"9200177","prefecture":"ISHIKAWA KEN","city":"KANAZAWA SHI","town":"HOKUYODAI","perfecture_jp":"石川県","jp_add_1":"金沢市","jp_add_2":"北陽台"},"9200849":{"post_code":"9200849","prefecture":"ISHIKAWA KEN","city":"KANAZAWA SHI","town":"HORIKAWASHIMMACHI","perfecture_jp":"石川県","jp_add_1":"金沢市","jp_add_2":"堀川新町"},"9200847":{"post_code":"9200847","prefecture":"ISHIKAWA KEN","city":"KANAZAWA SHI","town":"HORIKAWAMACHI","perfecture_jp":"石川県","jp_add_1":"金沢市","jp_add_2":"堀川町"},"9200133":{"post_code":"9200133","prefecture":"ISHIKAWA KEN","city":"KANAZAWA SHI","town":"HORIKIRIMACHI","perfecture_jp":"石川県","jp_add_1":"金沢市","jp_add_2":"堀切町"},"9200964":{"post_code":"9200964","prefecture":"ISHIKAWA KEN","city":"KANAZAWA SHI","town":"HONDAMACHI","perfecture_jp":"石川県","jp_add_1":"金沢市","jp_add_2":"本多町"},"9200853":{"post_code":"9200853","prefecture":"ISHIKAWA KEN","city":"KANAZAWA SHI","town":"HOMMACHI","perfecture_jp":"石川県","jp_add_1":"金沢市","jp_add_2":"本町"},"9200827":{"post_code":"9200827","prefecture":"ISHIKAWA KEN","city":"KANAZAWA SHI","town":"MAKIMACHI","perfecture_jp":"石川県","jp_add_1":"金沢市","jp_add_2":"牧町"},"9200148":{"post_code":"9200148","prefecture":"ISHIKAWA KEN","city":"KANAZAWA SHI","town":"MAKIYAMAMACHI","perfecture_jp":"石川県","jp_add_1":"金沢市","jp_add_2":"牧山町"},"9200134":{"post_code":"9200134","prefecture":"ISHIKAWA KEN","city":"KANAZAWA SHI","town":"MAGESHIHARAMACHI","perfecture_jp":"石川県","jp_add_1":"金沢市","jp_add_2":"曲子原町"},"9200364":{"post_code":"9200364","prefecture":"ISHIKAWA KEN","city":"KANAZAWA SHI","town":"MATSUSHIMAMACHI","perfecture_jp":"石川県","jp_add_1":"金沢市","jp_add_2":"松島"},"9200011":{"post_code":"9200011","prefecture":"ISHIKAWA KEN","city":"KANAZAWA SHI","town":"MATSUDERAMACHI","perfecture_jp":"石川県","jp_add_1":"金沢市","jp_add_2":"松寺町"},"9200136":{"post_code":"9200136","prefecture":"ISHIKAWA KEN","city":"KANAZAWA SHI","town":"MATSUNEMACHI","perfecture_jp":"石川県","jp_add_1":"金沢市","jp_add_2":"松根町"},"9200348":{"post_code":"9200348","prefecture":"ISHIKAWA KEN","city":"KANAZAWA SHI","town":"MATSUMURA","perfecture_jp":"石川県","jp_add_1":"金沢市","jp_add_2":"松村"},"9200347":{"post_code":"9200347","prefecture":"ISHIKAWA KEN","city":"KANAZAWA SHI","town":"MATSUMURAMACHI","perfecture_jp":"石川県","jp_add_1":"金沢市","jp_add_2":"松村町"},"9200047":{"post_code":"9200047","prefecture":"ISHIKAWA KEN","city":"KANAZAWA SHI","town":"MAMEDAHOMMACHI(SONOTA)","perfecture_jp":"石川県","jp_add_1":"金沢市","jp_add_2":"大豆田本町"},"9200937":{"post_code":"9200937","prefecture":"ISHIKAWA KEN","city":"KANAZAWA SHI","town":"MARUNOCHI","perfecture_jp":"石川県","jp_add_1":"金沢市","jp_add_2":"丸の内"},"9200809":{"post_code":"9200809","prefecture":"ISHIKAWA KEN","city":"KANAZAWA SHI","town":"MIIKESAKAEMACHI","perfecture_jp":"石川県","jp_add_1":"金沢市","jp_add_2":"三池栄町"},"9200808":{"post_code":"9200808","prefecture":"ISHIKAWA KEN","city":"KANAZAWA SHI","town":"MIIKESHIMMACHI","perfecture_jp":"石川県","jp_add_1":"金沢市","jp_add_2":"三池新町"},"9200802":{"post_code":"9200802","prefecture":"ISHIKAWA KEN","city":"KANAZAWA SHI","town":"MIIKEMACHI","perfecture_jp":"石川県","jp_add_1":"金沢市","jp_add_2":"三池町"},"9200063":{"post_code":"9200063","prefecture":"ISHIKAWA KEN","city":"KANAZAWA SHI","town":"MIURAMACHI","perfecture_jp":"石川県","jp_add_1":"金沢市","jp_add_2":"三浦町"},"9200978":{"post_code":"9200978","prefecture":"ISHIKAWA KEN","city":"KANAZAWA SHI","town":"MIZUTAMEMACHI","perfecture_jp":"石川県","jp_add_1":"金沢市","jp_add_2":"水溜町"},"9201321":{"post_code":"9201321","prefecture":"ISHIKAWA KEN","city":"KANAZAWA SHI","town":"MIZUBUCHIMACHI","perfecture_jp":"石川県","jp_add_1":"金沢市","jp_add_2":"水淵町"},"9200944":{"post_code":"9200944","prefecture":"ISHIKAWA KEN","city":"KANAZAWA SHI","town":"MITSUKUCHISHIMMACHI","perfecture_jp":"石川県","jp_add_1":"金沢市","jp_add_2":"三口新町"},"9200018":{"post_code":"9200018","prefecture":"ISHIKAWA KEN","city":"KANAZAWA SHI","town":"MITSUKUCHIMACHI","perfecture_jp":"石川県","jp_add_1":"金沢市","jp_add_2":"三口町"},"9201346":{"post_code":"9201346","prefecture":"ISHIKAWA KEN","city":"KANAZAWA SHI","town":"MITSUKOJIMACHI","perfecture_jp":"石川県","jp_add_1":"金沢市","jp_add_2":"三小牛町"},"9200214":{"post_code":"9200214","prefecture":"ISHIKAWA KEN","city":"KANAZAWA SHI","town":"MITSUYAMACHI","perfecture_jp":"石川県","jp_add_1":"金沢市","jp_add_2":"三ツ屋町"},"9200373":{"post_code":"9200373","prefecture":"ISHIKAWA KEN","city":"KANAZAWA SHI","town":"MIDORI","perfecture_jp":"石川県","jp_add_1":"金沢市","jp_add_2":"みどり"},"9200211":{"post_code":"9200211","prefecture":"ISHIKAWA KEN","city":"KANAZAWA SHI","town":"MINATO","perfecture_jp":"石川県","jp_add_1":"金沢市","jp_add_2":"湊"},"9200812":{"post_code":"9200812","prefecture":"ISHIKAWA KEN","city":"KANAZAWA SHI","town":"MINAMIGOSHOMACHI","perfecture_jp":"石川県","jp_add_1":"金沢市","jp_add_2":"南御所町"},"9200064":{"post_code":"9200064","prefecture":"ISHIKAWA KEN","city":"KANAZAWA SHI","town":"MINAMISHIMBOMACHI","perfecture_jp":"石川県","jp_add_1":"金沢市","jp_add_2":"南新保町"},"9200127":{"post_code":"9200127","prefecture":"ISHIKAWA KEN","city":"KANAZAWA SHI","town":"MINAMISENGOKUMACHI","perfecture_jp":"石川県","jp_add_1":"金沢市","jp_add_2":"南千谷町"},"9200919":{"post_code":"9200919","prefecture":"ISHIKAWA KEN","city":"KANAZAWA SHI","town":"MINAMICHO","perfecture_jp":"石川県","jp_add_1":"金沢市","jp_add_2":"南町"},"9200366":{"post_code":"9200366","prefecture":"ISHIKAWA KEN","city":"KANAZAWA SHI","town":"MINAMIZUKAMACHI","perfecture_jp":"石川県","jp_add_1":"金沢市","jp_add_2":"南塚町"},"9200044":{"post_code":"9200044","prefecture":"ISHIKAWA KEN","city":"KANAZAWA SHI","town":"MINAMIHIROKAMACHI","perfecture_jp":"石川県","jp_add_1":"金沢市","jp_add_2":"南広岡町"},"9203116":{"post_code":"9203116","prefecture":"ISHIKAWA KEN","city":"KANAZAWA SHI","town":"MINAMIMORIMOTOMACHI","perfecture_jp":"石川県","jp_add_1":"金沢市","jp_add_2":"南森本町"},"9200153":{"post_code":"9200153","prefecture":"ISHIKAWA KEN","city":"KANAZAWA SHI","town":"MIYANOMACHI","perfecture_jp":"石川県","jp_add_1":"金沢市","jp_add_2":"宮野町"},"9200006":{"post_code":"9200006","prefecture":"ISHIKAWA KEN","city":"KANAZAWA SHI","town":"MIYABOMACHI","perfecture_jp":"石川県","jp_add_1":"金沢市","jp_add_2":"宮保町"},"9203115":{"post_code":"9203115","prefecture":"ISHIKAWA KEN","city":"KANAZAWA SHI","town":"MIROKUMACHI","perfecture_jp":"石川県","jp_add_1":"金沢市","jp_add_2":"弥勒町"},"9200045":{"post_code":"9200045","prefecture":"ISHIKAWA KEN","city":"KANAZAWA SHI","town":"MUKONAKAMACHI","perfecture_jp":"石川県","jp_add_1":"金沢市","jp_add_2":"向中町"},"9200855":{"post_code":"9200855","prefecture":"ISHIKAWA KEN","city":"KANAZAWA SHI","town":"MUSASHIMACHI","perfecture_jp":"石川県","jp_add_1":"金沢市","jp_add_2":"武蔵町"},"9200333":{"post_code":"9200333","prefecture":"ISHIKAWA KEN","city":"KANAZAWA SHI","town":"MURYOJI","perfecture_jp":"石川県","jp_add_1":"金沢市","jp_add_2":"無量寺"},"9200332":{"post_code":"9200332","prefecture":"ISHIKAWA KEN","city":"KANAZAWA SHI","town":"MURYOJIMACHI","perfecture_jp":"石川県","jp_add_1":"金沢市","jp_add_2":"無量寺町"},"9201314":{"post_code":"9201314","prefecture":"ISHIKAWA KEN","city":"KANAZAWA SHI","town":"MEOTOSUGIMACHI","perfecture_jp":"石川県","jp_add_1":"金沢市","jp_add_2":"娚杉町"},"9200036":{"post_code":"9200036","prefecture":"ISHIKAWA KEN","city":"KANAZAWA SHI","town":"MOTOGIKUCHO","perfecture_jp":"石川県","jp_add_1":"金沢市","jp_add_2":"元菊町"},"9200842":{"post_code":"9200842","prefecture":"ISHIKAWA KEN","city":"KANAZAWA SHI","town":"MOTOMACHI","perfecture_jp":"石川県","jp_add_1":"金沢市","jp_add_2":"元町"},"9203131":{"post_code":"9203131","prefecture":"ISHIKAWA KEN","city":"KANAZAWA SHI","town":"MOMOSAKAMACHI","perfecture_jp":"石川県","jp_add_1":"金沢市","jp_add_2":"百坂町"},"9201167":{"post_code":"9201167","prefecture":"ISHIKAWA KEN","city":"KANAZAWA SHI","town":"MORINOSATO","perfecture_jp":"石川県","jp_add_1":"金沢市","jp_add_2":"もりの里"},"9200843":{"post_code":"9200843","prefecture":"ISHIKAWA KEN","city":"KANAZAWA SHI","town":"MORIYAMA","perfecture_jp":"石川県","jp_add_1":"金沢市","jp_add_2":"森山"},"9200014":{"post_code":"9200014","prefecture":"ISHIKAWA KEN","city":"KANAZAWA SHI","town":"MOROEMACHI","perfecture_jp":"石川県","jp_add_1":"金沢市","jp_add_2":"諸江町"},"9200015":{"post_code":"9200015","prefecture":"ISHIKAWA KEN","city":"KANAZAWA SHI","town":"MOROEMACHI(KAMICHO)","perfecture_jp":"石川県","jp_add_1":"金沢市","jp_add_2":"諸江町"},"9200016":{"post_code":"9200016","prefecture":"ISHIKAWA KEN","city":"KANAZAWA SHI","town":"MOROEMACHI(NAKACHO)","perfecture_jp":"石川県","jp_add_1":"金沢市","jp_add_2":"諸江町"},"9200017":{"post_code":"9200017","prefecture":"ISHIKAWA KEN","city":"KANAZAWA SHI","town":"MOROEMACHI(SHIMOCHO)","perfecture_jp":"石川県","jp_add_1":"金沢市","jp_add_2":"諸江町"},"9200052":{"post_code":"9200052","prefecture":"ISHIKAWA KEN","city":"KANAZAWA SHI","town":"YAKUSHIDOMACHI","perfecture_jp":"石川県","jp_add_1":"金沢市","jp_add_2":"薬師堂町"},"9200174":{"post_code":"9200174","prefecture":"ISHIKAWA KEN","city":"KANAZAWA SHI","town":"YAKUSHIMACHI","perfecture_jp":"石川県","jp_add_1":"金沢市","jp_add_2":"薬師町"},"9200854":{"post_code":"9200854","prefecture":"ISHIKAWA KEN","city":"KANAZAWA SHI","town":"YASUECHO","perfecture_jp":"石川県","jp_add_1":"金沢市","jp_add_2":"安江町"},"9203133":{"post_code":"9203133","prefecture":"ISHIKAWA KEN","city":"KANAZAWA SHI","town":"YANAGIBASHIMACHI","perfecture_jp":"石川県","jp_add_1":"金沢市","jp_add_2":"柳橋町"},"9201337":{"post_code":"9201337","prefecture":"ISHIKAWA KEN","city":"KANAZAWA SHI","town":"YAMAGOMACHI","perfecture_jp":"石川県","jp_add_1":"金沢市","jp_add_2":"山川町"},"9200816":{"post_code":"9200816","prefecture":"ISHIKAWA KEN","city":"KANAZAWA SHI","town":"YAMANOEMACHI","perfecture_jp":"石川県","jp_add_1":"金沢市","jp_add_2":"山の上町"},"9200823":{"post_code":"9200823","prefecture":"ISHIKAWA KEN","city":"KANAZAWA SHI","town":"YUHIDERAMACHI","perfecture_jp":"石川県","jp_add_1":"金沢市","jp_add_2":"夕日寺町"},"9200146":{"post_code":"9200146","prefecture":"ISHIKAWA KEN","city":"KANAZAWA SHI","town":"YUNOKIMACHI","perfecture_jp":"石川県","jp_add_1":"金沢市","jp_add_2":"柚木町"},"9200215":{"post_code":"9200215","prefecture":"ISHIKAWA KEN","city":"KANAZAWA SHI","town":"YUMITORIMACHI","perfecture_jp":"石川県","jp_add_1":"金沢市","jp_add_2":"弓取町"},"9201122":{"post_code":"9201122","prefecture":"ISHIKAWA KEN","city":"KANAZAWA SHI","town":"YUWAKU ARAYAMACHI","perfecture_jp":"石川県","jp_add_1":"金沢市","jp_add_2":"湯涌荒屋町"},"9201118":{"post_code":"9201118","prefecture":"ISHIKAWA KEN","city":"KANAZAWA SHI","town":"YUWAKU KAWACHIMACHI","perfecture_jp":"石川県","jp_add_1":"金沢市","jp_add_2":"湯涌河内町"},"9201124":{"post_code":"9201124","prefecture":"ISHIKAWA KEN","city":"KANAZAWA SHI","town":"YUWAKU TAGOJIMAMACHI","perfecture_jp":"石川県","jp_add_1":"金沢市","jp_add_2":"湯涌田子島町"},"9201119":{"post_code":"9201119","prefecture":"ISHIKAWA KEN","city":"KANAZAWA SHI","town":"YUWAKU MAGARIMACHI","perfecture_jp":"石川県","jp_add_1":"金沢市","jp_add_2":"湯涌曲町"},"9201123":{"post_code":"9201123","prefecture":"ISHIKAWA KEN","city":"KANAZAWA SHI","town":"YUWAKUMACHI","perfecture_jp":"石川県","jp_add_1":"金沢市","jp_add_2":"湯涌町"},"9201117":{"post_code":"9201117","prefecture":"ISHIKAWA KEN","city":"KANAZAWA SHI","town":"YOKOTANIMACHI","perfecture_jp":"石川県","jp_add_1":"金沢市","jp_add_2":"横谷町"},"9203135":{"post_code":"9203135","prefecture":"ISHIKAWA KEN","city":"KANAZAWA SHI","town":"YOKOMAKURAMACHI","perfecture_jp":"石川県","jp_add_1":"金沢市","jp_add_2":"横枕町"},"9200922":{"post_code":"9200922","prefecture":"ISHIKAWA KEN","city":"KANAZAWA SHI","town":"YOKOYAMAMACHI","perfecture_jp":"石川県","jp_add_1":"金沢市","jp_add_2":"横山町"},"9203114":{"post_code":"9203114","prefecture":"ISHIKAWA KEN","city":"KANAZAWA SHI","town":"YOSHIWARAMACHI","perfecture_jp":"石川県","jp_add_1":"金沢市","jp_add_2":"吉原町"},"9201342":{"post_code":"9201342","prefecture":"ISHIKAWA KEN","city":"KANAZAWA SHI","town":"RENGEMACHI","perfecture_jp":"石川県","jp_add_1":"金沢市","jp_add_2":"蓮花町"},"9201142":{"post_code":"9201142","prefecture":"ISHIKAWA KEN","city":"KANAZAWA SHI","town":"RENNYOMACHI","perfecture_jp":"石川県","jp_add_1":"金沢市","jp_add_2":"蓮如町"},"9200868":{"post_code":"9200868","prefecture":"ISHIKAWA KEN","city":"KANAZAWA SHI","town":"ROKUMAIMACHI","perfecture_jp":"石川県","jp_add_1":"金沢市","jp_add_2":"六枚町"},"9200355":{"post_code":"9200355","prefecture":"ISHIKAWA KEN","city":"KANAZAWA SHI","town":"WAKAHINOMACHI","perfecture_jp":"石川県","jp_add_1":"金沢市","jp_add_2":"稚日野町"},"9201165":{"post_code":"9201165","prefecture":"ISHIKAWA KEN","city":"KANAZAWA SHI","town":"WAKAMATSUMACHI","perfecture_jp":"石川県","jp_add_1":"金沢市","jp_add_2":"若松町"},"9200054":{"post_code":"9200054","prefecture":"ISHIKAWA KEN","city":"KANAZAWA SHI","town":"WAKAMIYA","perfecture_jp":"石川県","jp_add_1":"金沢市","jp_add_2":"若宮"},"9200053":{"post_code":"9200053","prefecture":"ISHIKAWA KEN","city":"KANAZAWA SHI","town":"WAKAMIYAMACHI","perfecture_jp":"石川県","jp_add_1":"金沢市","jp_add_2":"若宮町"},"9200953":{"post_code":"9200953","prefecture":"ISHIKAWA KEN","city":"KANAZAWA SHI","town":"WAKUNAMI","perfecture_jp":"石川県","jp_add_1":"金沢市","jp_add_2":"涌波"},"9200954":{"post_code":"9200954","prefecture":"ISHIKAWA KEN","city":"KANAZAWA SHI","town":"WAKUNAMIMACHI","perfecture_jp":"石川県","jp_add_1":"金沢市","jp_add_2":"涌波町"},"9200062":{"post_code":"9200062","prefecture":"ISHIKAWA KEN","city":"KANAZAWA SHI","town":"WARIDASHIMACHI","perfecture_jp":"石川県","jp_add_1":"金沢市","jp_add_2":"割出町"},"9202367":{"post_code":"9202367","prefecture":"ISHIKAWA KEN","city":"HAKUSAN SHI","town":"AITAKIMACHI","perfecture_jp":"石川県","jp_add_1":"白山市","jp_add_2":"相滝町"},"9202132":{"post_code":"9202132","prefecture":"ISHIKAWA KEN","city":"HAKUSAN SHI","town":"AKARAJIMAMACHI","perfecture_jp":"石川県","jp_add_1":"白山市","jp_add_2":"明島町"},"9202356":{"post_code":"9202356","prefecture":"ISHIKAWA KEN","city":"HAKUSAN SHI","town":"ATEMACHI","perfecture_jp":"石川県","jp_add_1":"白山市","jp_add_2":"阿手町"},"9202332":{"post_code":"9202332","prefecture":"ISHIKAWA KEN","city":"HAKUSAN SHI","town":"ARATANI","perfecture_jp":"石川県","jp_add_1":"白山市","jp_add_2":"荒谷"},"9202151":{"post_code":"9202151","prefecture":"ISHIKAWA KEN","city":"HAKUSAN SHI","town":"ARAYAMACHI","perfecture_jp":"石川県","jp_add_1":"白山市","jp_add_2":"荒屋町"},"9202148":{"post_code":"9202148","prefecture":"ISHIKAWA KEN","city":"HAKUSAN SHI","town":"ARUKIMACHI","perfecture_jp":"石川県","jp_add_1":"白山市","jp_add_2":"行町"},"9202141":{"post_code":"9202141","prefecture":"ISHIKAWA KEN","city":"HAKUSAN SHI","town":"ANYOJIMACHI","perfecture_jp":"石川県","jp_add_1":"白山市","jp_add_2":"安養寺町"},"9202327":{"post_code":"9202327","prefecture":"ISHIKAWA KEN","city":"HAKUSAN SHI","town":"ICHIHARA","perfecture_jp":"石川県","jp_add_1":"白山市","jp_add_2":"市原"},"9202154":{"post_code":"9202154","prefecture":"ISHIKAWA KEN","city":"HAKUSAN SHI","town":"INOKUCHIMACHI","perfecture_jp":"石川県","jp_add_1":"白山市","jp_add_2":"井口町"},"9202144":{"post_code":"9202144","prefecture":"ISHIKAWA KEN","city":"HAKUSAN SHI","town":"ODAKEMACHI","perfecture_jp":"石川県","jp_add_1":"白山市","jp_add_2":"大竹町"},"9202333":{"post_code":"9202333","prefecture":"ISHIKAWA KEN","city":"HAKUSAN SHI","town":"OZO","perfecture_jp":"石川県","jp_add_1":"白山市","jp_add_2":"尾添"},"9202335":{"post_code":"9202335","prefecture":"ISHIKAWA KEN","city":"HAKUSAN SHI","town":"ONABARA","perfecture_jp":"石川県","jp_add_1":"白山市","jp_add_2":"女原"},"9202103":{"post_code":"9202103","prefecture":"ISHIKAWA KEN","city":"HAKUSAN SHI","town":"OYANAGIMACHI","perfecture_jp":"石川県","jp_add_1":"白山市","jp_add_2":"小柳町"},"9202355":{"post_code":"9202355","prefecture":"ISHIKAWA KEN","city":"HAKUSAN SHI","town":"KAZUSEMACHI","perfecture_jp":"石川県","jp_add_1":"白山市","jp_add_2":"数瀬町"},"9202341":{"post_code":"9202341","prefecture":"ISHIKAWA KEN","city":"HAKUSAN SHI","town":"KAMASHIMIZUMACHI","perfecture_jp":"石川県","jp_add_1":"白山市","jp_add_2":"釜清水町"},"9202338":{"post_code":"9202338","prefecture":"ISHIKAWA KEN","city":"HAKUSAN SHI","town":"KAMADANI","perfecture_jp":"石川県","jp_add_1":"白山市","jp_add_2":"釜谷"},"9202375":{"post_code":"9202375","prefecture":"ISHIKAWA KEN","city":"HAKUSAN SHI","town":"KAMINOMACHI","perfecture_jp":"石川県","jp_add_1":"白山市","jp_add_2":"上野町"},"9202344":{"post_code":"9202344","prefecture":"ISHIKAWA KEN","city":"HAKUSAN SHI","town":"KAMIYOSHITANIMACHI","perfecture_jp":"石川県","jp_add_1":"白山市","jp_add_2":"上吉谷町"},"9202373":{"post_code":"9202373","prefecture":"ISHIKAWA KEN","city":"HAKUSAN SHI","town":"KAWAIMACHI","perfecture_jp":"石川県","jp_add_1":"白山市","jp_add_2":"河合町"},"9202315":{"post_code":"9202315","prefecture":"ISHIKAWA KEN","city":"HAKUSAN SHI","town":"KAWACHIMACHI ITAO","perfecture_jp":"石川県","jp_add_1":"白山市","jp_add_2":"河内町板尾"},"9202318":{"post_code":"9202318","prefecture":"ISHIKAWA KEN","city":"HAKUSAN SHI","town":"KAWACHIMACHI UTSUO","perfecture_jp":"石川県","jp_add_1":"白山市","jp_add_2":"河内町内尾"},"9202312":{"post_code":"9202312","prefecture":"ISHIKAWA KEN","city":"HAKUSAN SHI","town":"KAWACHIMACHI OKUIKE","perfecture_jp":"石川県","jp_add_1":"白山市","jp_add_2":"河内町奥池"},"9202304":{"post_code":"9202304","prefecture":"ISHIKAWA KEN","city":"HAKUSAN SHI","town":"KAWACHIMACHI KIRINOSATO","perfecture_jp":"石川県","jp_add_1":"白山市","jp_add_2":"河内町きりの里"},"9202316":{"post_code":"9202316","prefecture":"ISHIKAWA KEN","city":"HAKUSAN SHI","town":"KAWACHIMACHI KIMMA","perfecture_jp":"石川県","jp_add_1":"白山市","jp_add_2":"河内町金間"},"9202301":{"post_code":"9202301","prefecture":"ISHIKAWA KEN","city":"HAKUSAN SHI","town":"KAWACHIMACHI KUCHINOMI","perfecture_jp":"石川県","jp_add_1":"白山市","jp_add_2":"河内町口直海"},"9202313":{"post_code":"9202313","prefecture":"ISHIKAWA KEN","city":"HAKUSAN SHI","town":"KAWACHIMACHI KUBO","perfecture_jp":"石川県","jp_add_1":"白山市","jp_add_2":"河内町久保"},"9202305":{"post_code":"9202305","prefecture":"ISHIKAWA KEN","city":"HAKUSAN SHI","town":"KAWACHIMACHI GOZU","perfecture_jp":"石川県","jp_add_1":"白山市","jp_add_2":"河内町江津"},"9202317":{"post_code":"9202317","prefecture":"ISHIKAWA KEN","city":"HAKUSAN SHI","town":"KAWACHIMACHI SOSORI","perfecture_jp":"石川県","jp_add_1":"白山市","jp_add_2":"河内町下折"},"9202311":{"post_code":"9202311","prefecture":"ISHIKAWA KEN","city":"HAKUSAN SHI","town":"KAWACHIMACHI NAKANOMI","perfecture_jp":"石川県","jp_add_1":"白山市","jp_add_2":"河内町中直海"},"9202314":{"post_code":"9202314","prefecture":"ISHIKAWA KEN","city":"HAKUSAN SHI","town":"KAWACHIMACHI FUKIAGE","perfecture_jp":"石川県","jp_add_1":"白山市","jp_add_2":"河内町吹上"},"9202303":{"post_code":"9202303","prefecture":"ISHIKAWA KEN","city":"HAKUSAN SHI","town":"KAWACHIMACHI FUKUOKA","perfecture_jp":"石川県","jp_add_1":"白山市","jp_add_2":"河内町福岡"},"9202302":{"post_code":"9202302","prefecture":"ISHIKAWA KEN","city":"HAKUSAN SHI","town":"KAWACHIMACHI FUJIGAOKA","perfecture_jp":"石川県","jp_add_1":"白山市","jp_add_2":"河内町ふじが丘"},"9202306":{"post_code":"9202306","prefecture":"ISHIKAWA KEN","city":"HAKUSAN SHI","town":"KAWACHIMACHI YOSHIOKA","perfecture_jp":"石川県","jp_add_1":"白山市","jp_add_2":"河内町吉岡"},"9202346":{"post_code":"9202346","prefecture":"ISHIKAWA KEN","city":"HAKUSAN SHI","town":"KAWAHARAYAMAMACHI","perfecture_jp":"石川県","jp_add_1":"白山市","jp_add_2":"河原山町"},"9202326":{"post_code":"9202326","prefecture":"ISHIKAWA KEN","city":"HAKUSAN SHI","town":"KINAMERI","perfecture_jp":"石川県","jp_add_1":"白山市","jp_add_2":"木滑"},"9202325":{"post_code":"9202325","prefecture":"ISHIKAWA KEN","city":"HAKUSAN SHI","town":"KINAMERISHIN","perfecture_jp":"石川県","jp_add_1":"白山市","jp_add_2":"木滑新"},"9202502":{"post_code":"9202502","prefecture":"ISHIKAWA KEN","city":"HAKUSAN SHI","town":"KUWAJIMA","perfecture_jp":"石川県","jp_add_1":"白山市","jp_add_2":"桑島"},"9202357":{"post_code":"9202357","prefecture":"ISHIKAWA KEN","city":"HAKUSAN SHI","town":"GOJUDANIMACHI","perfecture_jp":"石川県","jp_add_1":"白山市","jp_add_2":"五十谷町"},"9202337":{"post_code":"9202337","prefecture":"ISHIKAWA KEN","city":"HAKUSAN SHI","town":"GOMIJIMA","perfecture_jp":"石川県","jp_add_1":"白山市","jp_add_2":"五味島"},"9202102":{"post_code":"9202102","prefecture":"ISHIKAWA KEN","city":"HAKUSAN SHI","town":"SAKAJIRIMACHI","perfecture_jp":"石川県","jp_add_1":"白山市","jp_add_2":"坂尻町"},"9202322":{"post_code":"9202322","prefecture":"ISHIKAWA KEN","city":"HAKUSAN SHI","town":"SARA","perfecture_jp":"石川県","jp_add_1":"白山市","jp_add_2":"佐良"},"9202114":{"post_code":"9202114","prefecture":"ISHIKAWA KEN","city":"HAKUSAN SHI","town":"SANNOMIYAMACHI","perfecture_jp":"石川県","jp_add_1":"白山市","jp_add_2":"三宮町"},"9202143":{"post_code":"9202143","prefecture":"ISHIKAWA KEN","city":"HAKUSAN SHI","town":"SHICHIHARAMACHI","perfecture_jp":"石川県","jp_add_1":"白山市","jp_add_2":"七原町"},"9202164":{"post_code":"9202164","prefecture":"ISHIKAWA KEN","city":"HAKUSAN SHI","town":"SHIBAKI(2-CHOME)","perfecture_jp":"石川県","jp_add_1":"白山市","jp_add_2":"柴木"},"9202163":{"post_code":"9202163","prefecture":"ISHIKAWA KEN","city":"HAKUSAN SHI","town":"SHIBAKIMACHI","perfecture_jp":"石川県","jp_add_1":"白山市","jp_add_2":"柴木町"},"9202503":{"post_code":"9202503","prefecture":"ISHIKAWA KEN","city":"HAKUSAN SHI","town":"SHIMOTAWARA","perfecture_jp":"石川県","jp_add_1":"白山市","jp_add_2":"下田原"},"9202374":{"post_code":"9202374","prefecture":"ISHIKAWA KEN","city":"HAKUSAN SHI","town":"SHIMONOMACHI","perfecture_jp":"石川県","jp_add_1":"白山市","jp_add_2":"下野町"},"9202342":{"post_code":"9202342","prefecture":"ISHIKAWA KEN","city":"HAKUSAN SHI","town":"SHIMOYOSHITANIMACHI","perfecture_jp":"石川県","jp_add_1":"白山市","jp_add_2":"下吉谷町"},"9202501":{"post_code":"9202501","prefecture":"ISHIKAWA KEN","city":"HAKUSAN SHI","town":"SHIRAMINE","perfecture_jp":"石川県","jp_add_1":"白山市","jp_add_2":"白峰"},"9202115":{"post_code":"9202115","prefecture":"ISHIKAWA KEN","city":"HAKUSAN SHI","town":"SHIRAYAMAMACHI","perfecture_jp":"石川県","jp_add_1":"白山市","jp_add_2":"白山町"},"9202364":{"post_code":"9202364","prefecture":"ISHIKAWA KEN","city":"HAKUSAN SHI","town":"SUGIMORIMACHI","perfecture_jp":"石川県","jp_add_1":"白山市","jp_add_2":"杉森町"},"9202372":{"post_code":"9202372","prefecture":"ISHIKAWA KEN","city":"HAKUSAN SHI","town":"SEGINOMACHI","perfecture_jp":"石川県","jp_add_1":"白山市","jp_add_2":"瀬木野町"},"9202331":{"post_code":"9202331","prefecture":"ISHIKAWA KEN","city":"HAKUSAN SHI","town":"SETO","perfecture_jp":"石川県","jp_add_1":"白山市","jp_add_2":"瀬戸"},"9202323":{"post_code":"9202323","prefecture":"ISHIKAWA KEN","city":"HAKUSAN SHI","town":"SENAMI","perfecture_jp":"石川県","jp_add_1":"白山市","jp_add_2":"瀬波"},"9202101":{"post_code":"9202101","prefecture":"ISHIKAWA KEN","city":"HAKUSAN SHI","town":"SODANIMACHI","perfecture_jp":"石川県","jp_add_1":"白山市","jp_add_2":"曽谷町"},"9202155":{"post_code":"9202155","prefecture":"ISHIKAWA KEN","city":"HAKUSAN SHI","town":"CHIKIJIMACHI","perfecture_jp":"石川県","jp_add_1":"白山市","jp_add_2":"知気寺町"},"9202324":{"post_code":"9202324","prefecture":"ISHIKAWA KEN","city":"HAKUSAN SHI","town":"CHUGU","perfecture_jp":"石川県","jp_add_1":"白山市","jp_add_2":"中宮"},"9202104":{"post_code":"9202104","prefecture":"ISHIKAWA KEN","city":"HAKUSAN SHI","town":"TSUKIHASHIMACHI","perfecture_jp":"石川県","jp_add_1":"白山市","jp_add_2":"月橋町"},"9202111":{"post_code":"9202111","prefecture":"ISHIKAWA KEN","city":"HAKUSAN SHI","town":"TSURUGI ASAHIMACHI","perfecture_jp":"石川県","jp_add_1":"白山市","jp_add_2":"鶴来朝日町"},"9202125":{"post_code":"9202125","prefecture":"ISHIKAWA KEN","city":"HAKUSAN SHI","town":"TSURUGI IMAMACHI","perfecture_jp":"石川県","jp_add_1":"白山市","jp_add_2":"鶴来今町"},"9202133":{"post_code":"9202133","prefecture":"ISHIKAWA KEN","city":"HAKUSAN SHI","town":"TSURUGI OKUNIMACHI","perfecture_jp":"石川県","jp_add_1":"白山市","jp_add_2":"鶴来大国町"},"9202127":{"post_code":"9202127","prefecture":"ISHIKAWA KEN","city":"HAKUSAN SHI","town":"TSURUGI KAMIHIGASHIMACHI","perfecture_jp":"石川県","jp_add_1":"白山市","jp_add_2":"鶴来上東町"},"9202166":{"post_code":"9202166","prefecture":"ISHIKAWA KEN","city":"HAKUSAN SHI","town":"TSURUGI KUWAJIMAMACHI","perfecture_jp":"石川県","jp_add_1":"白山市","jp_add_2":"鶴来桑島町"},"9202128":{"post_code":"9202128","prefecture":"ISHIKAWA KEN","city":"HAKUSAN SHI","town":"TSURUGI SHIMOHIGASHIMACHI","perfecture_jp":"石川県","jp_add_1":"白山市","jp_add_2":"鶴来下東町"},"9202126":{"post_code":"9202126","prefecture":"ISHIKAWA KEN","city":"HAKUSAN SHI","town":"TSURUGI SHIMMACHI","perfecture_jp":"石川県","jp_add_1":"白山市","jp_add_2":"鶴来新町"},"9202124":{"post_code":"9202124","prefecture":"ISHIKAWA KEN","city":"HAKUSAN SHI","town":"TSURUGI SEISAWAMACHI","perfecture_jp":"石川県","jp_add_1":"白山市","jp_add_2":"鶴来清沢町"},"9202122":{"post_code":"9202122","prefecture":"ISHIKAWA KEN","city":"HAKUSAN SHI","town":"TSURUGI CHIMORICHO","perfecture_jp":"石川県","jp_add_1":"白山市","jp_add_2":"鶴来知守町"},"9202123":{"post_code":"9202123","prefecture":"ISHIKAWA KEN","city":"HAKUSAN SHI","town":"TSURUGI HIZUMECHO","perfecture_jp":"石川県","jp_add_1":"白山市","jp_add_2":"鶴来日詰町"},"9202112":{"post_code":"9202112","prefecture":"ISHIKAWA KEN","city":"HAKUSAN SHI","town":"TSURUGI HIYOSHIMACHI","perfecture_jp":"石川県","jp_add_1":"白山市","jp_add_2":"鶴来日吉町"},"9202129":{"post_code":"9202129","prefecture":"ISHIKAWA KEN","city":"HAKUSAN SHI","town":"TSURUGI FURUMACHI","perfecture_jp":"石川県","jp_add_1":"白山市","jp_add_2":"鶴来古町"},"9202121":{"post_code":"9202121","prefecture":"ISHIKAWA KEN","city":"HAKUSAN SHI","town":"TSURUGI HOMMACHI(1-4-CHOME)","perfecture_jp":"石川県","jp_add_1":"白山市","jp_add_2":"鶴来本町"},"9202134":{"post_code":"9202134","prefecture":"ISHIKAWA KEN","city":"HAKUSAN SHI","town":"TSURUGI MITOMACHI(2-4-CHOME)","perfecture_jp":"石川県","jp_add_1":"白山市","jp_add_2":"鶴来水戸町"},"9202368":{"post_code":"9202368","prefecture":"ISHIKAWA KEN","city":"HAKUSAN SHI","town":"DEAIMACHI","perfecture_jp":"石川県","jp_add_1":"白山市","jp_add_2":"出合町"},"9202162":{"post_code":"9202162","prefecture":"ISHIKAWA KEN","city":"HAKUSAN SHI","town":"DOHOJIMACHI","perfecture_jp":"石川県","jp_add_1":"白山市","jp_add_2":"道法寺町"},"9202165":{"post_code":"9202165","prefecture":"ISHIKAWA KEN","city":"HAKUSAN SHI","town":"TOMIKOJIMACHI","perfecture_jp":"石川県","jp_add_1":"白山市","jp_add_2":"富光寺町"},"9202116":{"post_code":"9202116","prefecture":"ISHIKAWA KEN","city":"HAKUSAN SHI","town":"NAKAJIMAMACHI","perfecture_jp":"石川県","jp_add_1":"白山市","jp_add_2":"中島町"},"9202339":{"post_code":"9202339","prefecture":"ISHIKAWA KEN","city":"HAKUSAN SHI","town":"TOGATANI","perfecture_jp":"石川県","jp_add_1":"白山市","jp_add_2":"鴇ケ谷"},"9202147":{"post_code":"9202147","prefecture":"ISHIKAWA KEN","city":"HAKUSAN SHI","town":"NAKANOGOMACHI","perfecture_jp":"石川県","jp_add_1":"白山市","jp_add_2":"中ノ郷町"},"9202343":{"post_code":"9202343","prefecture":"ISHIKAWA KEN","city":"HAKUSAN SHI","town":"NISHISARAMACHI","perfecture_jp":"石川県","jp_add_1":"白山市","jp_add_2":"西佐良町"},"9202161":{"post_code":"9202161","prefecture":"ISHIKAWA KEN","city":"HAKUSAN SHI","town":"NETSUNOMACHI","perfecture_jp":"石川県","jp_add_1":"白山市","jp_add_2":"熱野町"},"9202352":{"post_code":"9202352","prefecture":"ISHIKAWA KEN","city":"HAKUSAN SHI","town":"NOJIMACHI","perfecture_jp":"石川県","jp_add_1":"白山市","jp_add_2":"野地町"},"9202336":{"post_code":"9202336","prefecture":"ISHIKAWA KEN","city":"HAKUSAN SHI","town":"HIGASHIFUTAKUCHI","perfecture_jp":"石川県","jp_add_1":"白山市","jp_add_2":"東二口"},"9202353":{"post_code":"9202353","prefecture":"ISHIKAWA KEN","city":"HAKUSAN SHI","town":"HIDARITSUBUTEMACHI","perfecture_jp":"石川県","jp_add_1":"白山市","jp_add_2":"左礫町"},"9202153":{"post_code":"9202153","prefecture":"ISHIKAWA KEN","city":"HAKUSAN SHI","town":"HINOMIKOMACHI","perfecture_jp":"石川県","jp_add_1":"白山市","jp_add_2":"日御子町"},"9202146":{"post_code":"9202146","prefecture":"ISHIKAWA KEN","city":"HAKUSAN SHI","town":"HYUGAMACHI","perfecture_jp":"石川県","jp_add_1":"白山市","jp_add_2":"日向町"},"9202371":{"post_code":"9202371","prefecture":"ISHIKAWA KEN","city":"HAKUSAN SHI","town":"HIROSEMACHI","perfecture_jp":"石川県","jp_add_1":"白山市","jp_add_2":"広瀬町"},"9202334":{"post_code":"9202334","prefecture":"ISHIKAWA KEN","city":"HAKUSAN SHI","town":"FUKAZE","perfecture_jp":"石川県","jp_add_1":"白山市","jp_add_2":"深瀬"},"9202142":{"post_code":"9202142","prefecture":"ISHIKAWA KEN","city":"HAKUSAN SHI","town":"FUKAZESHIMMACHI","perfecture_jp":"石川県","jp_add_1":"白山市","jp_add_2":"深瀬新町"},"9202347":{"post_code":"9202347","prefecture":"ISHIKAWA KEN","city":"HAKUSAN SHI","town":"BUSHIGANOMACHI","perfecture_jp":"石川県","jp_add_1":"白山市","jp_add_2":"仏師ケ野町"},"9202167":{"post_code":"9202167","prefecture":"ISHIKAWA KEN","city":"HAKUSAN SHI","town":"BUNYUDOMACHI","perfecture_jp":"石川県","jp_add_1":"白山市","jp_add_2":"部入道町"},"9202363":{"post_code":"9202363","prefecture":"ISHIKAWA KEN","city":"HAKUSAN SHI","town":"BETSUKUDEMACHI","perfecture_jp":"石川県","jp_add_1":"白山市","jp_add_2":"別宮出町"},"9202362":{"post_code":"9202362","prefecture":"ISHIKAWA KEN","city":"HAKUSAN SHI","town":"BETSUKUMACHI","perfecture_jp":"石川県","jp_add_1":"白山市","jp_add_2":"別宮町"},"9202365":{"post_code":"9202365","prefecture":"ISHIKAWA KEN","city":"HAKUSAN SHI","town":"MIKOSHIMIZUMACHI","perfecture_jp":"石川県","jp_add_1":"白山市","jp_add_2":"神子清水町"},"9202361":{"post_code":"9202361","prefecture":"ISHIKAWA KEN","city":"HAKUSAN SHI","town":"MISAKAMACHI","perfecture_jp":"石川県","jp_add_1":"白山市","jp_add_2":"三坂町"},"9202354":{"post_code":"9202354","prefecture":"ISHIKAWA KEN","city":"HAKUSAN SHI","town":"MITSUSEMACHI","perfecture_jp":"石川県","jp_add_1":"白山市","jp_add_2":"三ツ瀬町"},"9202345":{"post_code":"9202345","prefecture":"ISHIKAWA KEN","city":"HAKUSAN SHI","town":"MITSUYANOMACHI","perfecture_jp":"石川県","jp_add_1":"白山市","jp_add_2":"三ツ屋野町"},"9202145":{"post_code":"9202145","prefecture":"ISHIKAWA KEN","city":"HAKUSAN SHI","town":"MYOHOJIMAMACHI","perfecture_jp":"石川県","jp_add_1":"白山市","jp_add_2":"明法島町"},"9202152":{"post_code":"9202152","prefecture":"ISHIKAWA KEN","city":"HAKUSAN SHI","town":"MEIKO(1-4-CHOME)","perfecture_jp":"石川県","jp_add_1":"白山市","jp_add_2":"明光"},"9202131":{"post_code":"9202131","prefecture":"ISHIKAWA KEN","city":"HAKUSAN SHI","town":"MORIJIMAMACHI","perfecture_jp":"石川県","jp_add_1":"白山市","jp_add_2":"森島町"},"9202351":{"post_code":"9202351","prefecture":"ISHIKAWA KEN","city":"HAKUSAN SHI","town":"YANAGIHARAMACHI","perfecture_jp":"石川県","jp_add_1":"白山市","jp_add_2":"柳原町"},"9202113":{"post_code":"9202113","prefecture":"ISHIKAWA KEN","city":"HAKUSAN SHI","town":"YAWATAMACHI","perfecture_jp":"石川県","jp_add_1":"白山市","jp_add_2":"八幡町"},"9202321":{"post_code":"9202321","prefecture":"ISHIKAWA KEN","city":"HAKUSAN SHI","town":"YOSHINO","perfecture_jp":"石川県","jp_add_1":"白山市","jp_add_2":"吉野"},"9202376":{"post_code":"9202376","prefecture":"ISHIKAWA KEN","city":"HAKUSAN SHI","town":"WAKABARAMACHI","perfecture_jp":"石川県","jp_add_1":"白山市","jp_add_2":"若原町"},"9202366":{"post_code":"9202366","prefecture":"ISHIKAWA KEN","city":"HAKUSAN SHI","town":"WATAZUMACHI","perfecture_jp":"石川県","jp_add_1":"白山市","jp_add_2":"渡津町"},"9200200":{"post_code":"9200200","prefecture":"ISHIKAWA KEN","city":"KAHOKU GUN UCHINADA MACHI","town":"IKANIKEISAIGANAIBAAI","perfecture_jp":"石川県","jp_add_1":"河北郡内灘町","jp_add_2":""},"9200273":{"post_code":"9200273","prefecture":"ISHIKAWA KEN","city":"KAHOKU GUN UCHINADA MACHI","town":"AKASHIA","perfecture_jp":"石川県","jp_add_1":"河北郡内灘町","jp_add_2":"アカシア"},"9200275":{"post_code":"9200275","prefecture":"ISHIKAWA KEN","city":"KAHOKU GUN UCHINADA MACHI","town":"ASAHIGAOKA","perfecture_jp":"石川県","jp_add_1":"河北郡内灘町","jp_add_2":"旭ケ丘"},"9200266":{"post_code":"9200266","prefecture":"ISHIKAWA KEN","city":"KAHOKU GUN UCHINADA MACHI","town":"ONEBU","perfecture_jp":"石川県","jp_add_1":"河北郡内灘町","jp_add_2":"大根布"},"9200272":{"post_code":"9200272","prefecture":"ISHIKAWA KEN","city":"KAHOKU GUN UCHINADA MACHI","town":"KOYODAI","perfecture_jp":"石川県","jp_add_1":"河北郡内灘町","jp_add_2":"向陽台"},"9200263":{"post_code":"9200263","prefecture":"ISHIKAWA KEN","city":"KAHOKU GUN UCHINADA MACHI","town":"KOSEI","perfecture_jp":"石川県","jp_add_1":"河北郡内灘町","jp_add_2":"湖西"},"9200269":{"post_code":"9200269","prefecture":"ISHIKAWA KEN","city":"KAHOKU GUN UCHINADA MACHI","town":"SHIRAHODAI","perfecture_jp":"石川県","jp_add_1":"河北郡内灘町","jp_add_2":"白帆台"},"9200265":{"post_code":"9200265","prefecture":"ISHIKAWA KEN","city":"KAHOKU GUN UCHINADA MACHI","town":"DAIGAKU","perfecture_jp":"石川県","jp_add_1":"河北郡内灘町","jp_add_2":"大学"},"9200267":{"post_code":"9200267","prefecture":"ISHIKAWA KEN","city":"KAHOKU GUN UCHINADA MACHI","town":"TAISEIDAI","perfecture_jp":"石川県","jp_add_1":"河北郡内灘町","jp_add_2":"大清台"},"9200277":{"post_code":"9200277","prefecture":"ISHIKAWA KEN","city":"KAHOKU GUN UCHINADA MACHI","town":"CHIDORIDAI","perfecture_jp":"石川県","jp_add_1":"河北郡内灘町","jp_add_2":"千鳥台"},"9200271":{"post_code":"9200271","prefecture":"ISHIKAWA KEN","city":"KAHOKU GUN UCHINADA MACHI","town":"TSURUGAOKA","perfecture_jp":"石川県","jp_add_1":"河北郡内灘町","jp_add_2":"鶴ケ丘"},"9200262":{"post_code":"9200262","prefecture":"ISHIKAWA KEN","city":"KAHOKU GUN UCHINADA MACHI","town":"NISHIARAYA","perfecture_jp":"石川県","jp_add_1":"河北郡内灘町","jp_add_2":"西荒屋"},"9200268":{"post_code":"9200268","prefecture":"ISHIKAWA KEN","city":"KAHOKU GUN UCHINADA MACHI","town":"HAMANASU","perfecture_jp":"石川県","jp_add_1":"河北郡内灘町","jp_add_2":"ハマナス"},"9200276":{"post_code":"9200276","prefecture":"ISHIKAWA KEN","city":"KAHOKU GUN UCHINADA MACHI","town":"MIDORIDAI","perfecture_jp":"石川県","jp_add_1":"河北郡内灘町","jp_add_2":"緑台"},"9200264":{"post_code":"9200264","prefecture":"ISHIKAWA KEN","city":"KAHOKU GUN UCHINADA MACHI","town":"MIYASAKA","perfecture_jp":"石川県","jp_add_1":"河北郡内灘町","jp_add_2":"宮坂"},"9200274":{"post_code":"9200274","prefecture":"ISHIKAWA KEN","city":"KAHOKU GUN UCHINADA MACHI","town":"MUKAIAWAGASAKI","perfecture_jp":"石川県","jp_add_1":"河北郡内灘町","jp_add_2":"向粟崎"},"9200261":{"post_code":"9200261","prefecture":"ISHIKAWA KEN","city":"KAHOKU GUN UCHINADA MACHI","town":"MURO","perfecture_jp":"石川県","jp_add_1":"河北郡内灘町","jp_add_2":"室"}}