{"9218161":{"post_code":"9218161","prefecture":"ISHIKAWA KEN","city":"KANAZAWA SHI","town":"ARIMATSU","perfecture_jp":"石川県","jp_add_1":"金沢市","jp_add_2":"有松"},"9218041":{"post_code":"9218041","prefecture":"ISHIKAWA KEN","city":"KANAZAWA SHI","town":"IZUMI","perfecture_jp":"石川県","jp_add_1":"金沢市","jp_add_2":"泉"},"9218035":{"post_code":"9218035","prefecture":"ISHIKAWA KEN","city":"KANAZAWA SHI","town":"IZUMIGAOKA","perfecture_jp":"石川県","jp_add_1":"金沢市","jp_add_2":"泉が丘"},"9218116":{"post_code":"9218116","prefecture":"ISHIKAWA KEN","city":"KANAZAWA SHI","town":"IZUMINODEMACHI","perfecture_jp":"石川県","jp_add_1":"金沢市","jp_add_2":"泉野出町"},"9218034":{"post_code":"9218034","prefecture":"ISHIKAWA KEN","city":"KANAZAWA SHI","town":"IZUMINOMACHI","perfecture_jp":"石川県","jp_add_1":"金沢市","jp_add_2":"泉野町"},"9218042":{"post_code":"9218042","prefecture":"ISHIKAWA KEN","city":"KANAZAWA SHI","town":"IZUMIHOMMACHI","perfecture_jp":"石川県","jp_add_1":"金沢市","jp_add_2":"泉本町"},"9218014":{"post_code":"9218014","prefecture":"ISHIKAWA KEN","city":"KANAZAWA SHI","town":"ITODA","perfecture_jp":"石川県","jp_add_1":"金沢市","jp_add_2":"糸田"},"9218026":{"post_code":"9218026","prefecture":"ISHIKAWA KEN","city":"KANAZAWA SHI","town":"ITODASHIMMACHI","perfecture_jp":"石川県","jp_add_1":"金沢市","jp_add_2":"糸田新町"},"9218011":{"post_code":"9218011","prefecture":"ISHIKAWA KEN","city":"KANAZAWA SHI","town":"IRIE","perfecture_jp":"石川県","jp_add_1":"金沢市","jp_add_2":"入江"},"9218173":{"post_code":"9218173","prefecture":"ISHIKAWA KEN","city":"KANAZAWA SHI","town":"ENKOJI","perfecture_jp":"石川県","jp_add_1":"金沢市","jp_add_2":"円光寺"},"9218176":{"post_code":"9218176","prefecture":"ISHIKAWA KEN","city":"KANAZAWA SHI","town":"ENKOJIHOMMACHI","perfecture_jp":"石川県","jp_add_1":"金沢市","jp_add_2":"円光寺本町"},"9218045":{"post_code":"9218045","prefecture":"ISHIKAWA KEN","city":"KANAZAWA SHI","town":"OKUWA","perfecture_jp":"石川県","jp_add_1":"金沢市","jp_add_2":"大桑"},"9218046":{"post_code":"9218046","prefecture":"ISHIKAWA KEN","city":"KANAZAWA SHI","town":"MITSUKOJIMACHI(HE)","perfecture_jp":"石川県","jp_add_1":"金沢市","jp_add_2":"大桑町"},"9218147":{"post_code":"9218147","prefecture":"ISHIKAWA KEN","city":"KANAZAWA SHI","town":"ONUKA","perfecture_jp":"石川県","jp_add_1":"金沢市","jp_add_2":"大額"},"9218143":{"post_code":"9218143","prefecture":"ISHIKAWA KEN","city":"KANAZAWA SHI","town":"ONUKAMACHI","perfecture_jp":"石川県","jp_add_1":"金沢市","jp_add_2":"大額町"},"9218056":{"post_code":"9218056","prefecture":"ISHIKAWA KEN","city":"KANAZAWA SHI","town":"OSHINO","perfecture_jp":"石川県","jp_add_1":"金沢市","jp_add_2":"押野"},"9218065":{"post_code":"9218065","prefecture":"ISHIKAWA KEN","city":"KANAZAWA SHI","town":"KAMIARAYA","perfecture_jp":"石川県","jp_add_1":"金沢市","jp_add_2":"上荒屋"},"9218027":{"post_code":"9218027","prefecture":"ISHIKAWA KEN","city":"KANAZAWA SHI","town":"KANDA","perfecture_jp":"石川県","jp_add_1":"金沢市","jp_add_2":"神田"},"9218032":{"post_code":"9218032","prefecture":"ISHIKAWA KEN","city":"KANAZAWA SHI","town":"KIYOKAWAMACHI","perfecture_jp":"石川県","jp_add_1":"金沢市","jp_add_2":"清川町"},"9218122":{"post_code":"9218122","prefecture":"ISHIKAWA KEN","city":"KANAZAWA SHI","town":"KIYOSEMACHI","perfecture_jp":"石川県","jp_add_1":"金沢市","jp_add_2":"清瀬町"},"9218151":{"post_code":"9218151","prefecture":"ISHIKAWA KEN","city":"KANAZAWA SHI","town":"KUBO","perfecture_jp":"石川県","jp_add_1":"金沢市","jp_add_2":"窪"},"9218124":{"post_code":"9218124","prefecture":"ISHIKAWA KEN","city":"KANAZAWA SHI","town":"KURAGATAKE","perfecture_jp":"石川県","jp_add_1":"金沢市","jp_add_2":"倉ケ嶽"},"9218051":{"post_code":"9218051","prefecture":"ISHIKAWA KEN","city":"KANAZAWA SHI","town":"KURODA","perfecture_jp":"石川県","jp_add_1":"金沢市","jp_add_2":"黒田"},"9218131":{"post_code":"9218131","prefecture":"ISHIKAWA KEN","city":"KANAZAWA SHI","town":"SANJUGARIMACHI","perfecture_jp":"石川県","jp_add_1":"金沢市","jp_add_2":"三十苅町"},"9218135":{"post_code":"9218135","prefecture":"ISHIKAWA KEN","city":"KANAZAWA SHI","town":"SHIJIMA","perfecture_jp":"石川県","jp_add_1":"金沢市","jp_add_2":"四十万"},"9218132":{"post_code":"9218132","prefecture":"ISHIKAWA KEN","city":"KANAZAWA SHI","town":"SHIJIMADAI","perfecture_jp":"石川県","jp_add_1":"金沢市","jp_add_2":"しじま台"},"9218133":{"post_code":"9218133","prefecture":"ISHIKAWA KEN","city":"KANAZAWA SHI","town":"SHIJIMAMACHI","perfecture_jp":"石川県","jp_add_1":"金沢市","jp_add_2":"四十万町"},"9218106":{"post_code":"9218106","prefecture":"ISHIKAWA KEN","city":"KANAZAWA SHI","town":"JUICHIYAMACHI","perfecture_jp":"石川県","jp_add_1":"金沢市","jp_add_2":"十一屋町"},"9218024":{"post_code":"9218024","prefecture":"ISHIKAWA KEN","city":"KANAZAWA SHI","town":"SHIRAGIKUCHO","perfecture_jp":"石川県","jp_add_1":"金沢市","jp_add_2":"白菊町"},"9218013":{"post_code":"9218013","prefecture":"ISHIKAWA KEN","city":"KANAZAWA SHI","town":"SHINKANDA","perfecture_jp":"石川県","jp_add_1":"金沢市","jp_add_2":"新神田"},"9218062":{"post_code":"9218062","prefecture":"ISHIKAWA KEN","city":"KANAZAWA SHI","town":"SHIMBOHON","perfecture_jp":"石川県","jp_add_1":"金沢市","jp_add_2":"新保本"},"9218006":{"post_code":"9218006","prefecture":"ISHIKAWA KEN","city":"KANAZAWA SHI","town":"SHINWAMACHI","perfecture_jp":"石川県","jp_add_1":"金沢市","jp_add_2":"進和町"},"9218023":{"post_code":"9218023","prefecture":"ISHIKAWA KEN","city":"KANAZAWA SHI","town":"SENNICHIMACHI","perfecture_jp":"石川県","jp_add_1":"金沢市","jp_add_2":"千日町"},"9218152":{"post_code":"9218152","prefecture":"ISHIKAWA KEN","city":"KANAZAWA SHI","town":"TAKAO","perfecture_jp":"石川県","jp_add_1":"金沢市","jp_add_2":"高尾"},"9218155":{"post_code":"9218155","prefecture":"ISHIKAWA KEN","city":"KANAZAWA SHI","town":"TAKAODAI","perfecture_jp":"石川県","jp_add_1":"金沢市","jp_add_2":"高尾台"},"9218153":{"post_code":"9218153","prefecture":"ISHIKAWA KEN","city":"KANAZAWA SHI","town":"TAKAOMACHI","perfecture_jp":"石川県","jp_add_1":"金沢市","jp_add_2":"高尾町"},"9218154":{"post_code":"9218154","prefecture":"ISHIKAWA KEN","city":"KANAZAWA SHI","town":"TAKAOMINAMI","perfecture_jp":"石川県","jp_add_1":"金沢市","jp_add_2":"高尾南"},"9218001":{"post_code":"9218001","prefecture":"ISHIKAWA KEN","city":"KANAZAWA SHI","town":"TAKABATAKE","perfecture_jp":"石川県","jp_add_1":"金沢市","jp_add_2":"高畠"},"9218002":{"post_code":"9218002","prefecture":"ISHIKAWA KEN","city":"KANAZAWA SHI","town":"TAMABOKO","perfecture_jp":"石川県","jp_add_1":"金沢市","jp_add_2":"玉鉾"},"9218003":{"post_code":"9218003","prefecture":"ISHIKAWA KEN","city":"KANAZAWA SHI","town":"TAMABOKOMACHI","perfecture_jp":"石川県","jp_add_1":"金沢市","jp_add_2":"玉鉾町"},"9218103":{"post_code":"9218103","prefecture":"ISHIKAWA KEN","city":"KANAZAWA SHI","town":"TSUTSUJIGAOKA","perfecture_jp":"石川県","jp_add_1":"金沢市","jp_add_2":"つつじが丘"},"9218123":{"post_code":"9218123","prefecture":"ISHIKAWA KEN","city":"KANAZAWA SHI","town":"TSUBONOMACHI","perfecture_jp":"石川県","jp_add_1":"金沢市","jp_add_2":"坪野町"},"9218178":{"post_code":"9218178","prefecture":"ISHIKAWA KEN","city":"KANAZAWA SHI","town":"TERAJI","perfecture_jp":"石川県","jp_add_1":"金沢市","jp_add_2":"寺地"},"9218033":{"post_code":"9218033","prefecture":"ISHIKAWA KEN","city":"KANAZAWA SHI","town":"TERAMACHI","perfecture_jp":"石川県","jp_add_1":"金沢市","jp_add_2":"寺町"},"9218015":{"post_code":"9218015","prefecture":"ISHIKAWA KEN","city":"KANAZAWA SHI","town":"TORIKI","perfecture_jp":"石川県","jp_add_1":"金沢市","jp_add_2":"東力"},"9218016":{"post_code":"9218016","prefecture":"ISHIKAWA KEN","city":"KANAZAWA SHI","town":"TORIKIMACHI","perfecture_jp":"石川県","jp_add_1":"金沢市","jp_add_2":"東力町"},"9218171":{"post_code":"9218171","prefecture":"ISHIKAWA KEN","city":"KANAZAWA SHI","town":"TOGASHI","perfecture_jp":"石川県","jp_add_1":"金沢市","jp_add_2":"富樫"},"9218022":{"post_code":"9218022","prefecture":"ISHIKAWA KEN","city":"KANAZAWA SHI","town":"NAKAMURAMACHI","perfecture_jp":"石川県","jp_add_1":"金沢市","jp_add_2":"中村町"},"9218112":{"post_code":"9218112","prefecture":"ISHIKAWA KEN","city":"KANAZAWA SHI","town":"NAGASAKA","perfecture_jp":"石川県","jp_add_1":"金沢市","jp_add_2":"長坂"},"9218115":{"post_code":"9218115","prefecture":"ISHIKAWA KEN","city":"KANAZAWA SHI","town":"NAGASAKADAI","perfecture_jp":"石川県","jp_add_1":"金沢市","jp_add_2":"長坂台"},"9218114":{"post_code":"9218114","prefecture":"ISHIKAWA KEN","city":"KANAZAWA SHI","town":"NAGASAKAMACHI","perfecture_jp":"石川県","jp_add_1":"金沢市","jp_add_2":"長坂町"},"9218043":{"post_code":"9218043","prefecture":"ISHIKAWA KEN","city":"KANAZAWA SHI","town":"NISHIIZUMI","perfecture_jp":"石川県","jp_add_1":"金沢市","jp_add_2":"西泉"},"9218102":{"post_code":"9218102","prefecture":"ISHIKAWA KEN","city":"KANAZAWA SHI","town":"NISHIOKUWAMACHI","perfecture_jp":"石川県","jp_add_1":"金沢市","jp_add_2":"西大桑町"},"9218054":{"post_code":"9218054","prefecture":"ISHIKAWA KEN","city":"KANAZAWA SHI","town":"NISHIKANAZAWA","perfecture_jp":"石川県","jp_add_1":"金沢市","jp_add_2":"西金沢"},"9218055":{"post_code":"9218055","prefecture":"ISHIKAWA KEN","city":"KANAZAWA SHI","town":"NISHIKANAZAWASHIMMACHI","perfecture_jp":"石川県","jp_add_1":"金沢市","jp_add_2":"西金沢新町"},"9218146":{"post_code":"9218146","prefecture":"ISHIKAWA KEN","city":"KANAZAWA SHI","town":"NUKAOTOMARUMACHI","perfecture_jp":"石川県","jp_add_1":"金沢市","jp_add_2":"額乙丸町"},"9218148":{"post_code":"9218148","prefecture":"ISHIKAWA KEN","city":"KANAZAWA SHI","town":"NUKASHIMBO","perfecture_jp":"石川県","jp_add_1":"金沢市","jp_add_2":"額新保"},"9218149":{"post_code":"9218149","prefecture":"ISHIKAWA KEN","city":"KANAZAWA SHI","town":"NUKASHIMMACHI","perfecture_jp":"石川県","jp_add_1":"金沢市","jp_add_2":"額新町"},"9218145":{"post_code":"9218145","prefecture":"ISHIKAWA KEN","city":"KANAZAWA SHI","town":"NUKADANI","perfecture_jp":"石川県","jp_add_1":"金沢市","jp_add_2":"額谷"},"9218144":{"post_code":"9218144","prefecture":"ISHIKAWA KEN","city":"KANAZAWA SHI","town":"NUKADANIMACHI","perfecture_jp":"石川県","jp_add_1":"金沢市","jp_add_2":"額谷町"},"9218104":{"post_code":"9218104","prefecture":"ISHIKAWA KEN","city":"KANAZAWA SHI","town":"NODAMACHI","perfecture_jp":"石川県","jp_add_1":"金沢市","jp_add_2":"野田町"},"9218031":{"post_code":"9218031","prefecture":"ISHIKAWA KEN","city":"KANAZAWA SHI","town":"NOMACHI","perfecture_jp":"石川県","jp_add_1":"金沢市","jp_add_2":"野町"},"9218142":{"post_code":"9218142","prefecture":"ISHIKAWA KEN","city":"KANAZAWA SHI","town":"HIKARIGAOKA","perfecture_jp":"石川県","jp_add_1":"金沢市","jp_add_2":"光が丘"},"9218164":{"post_code":"9218164","prefecture":"ISHIKAWA KEN","city":"KANAZAWA SHI","town":"HISAYASU","perfecture_jp":"石川県","jp_add_1":"金沢市","jp_add_2":"久安"},"9218121":{"post_code":"9218121","prefecture":"ISHIKAWA KEN","city":"KANAZAWA SHI","town":"HIRAGURI","perfecture_jp":"石川県","jp_add_1":"金沢市","jp_add_2":"平栗"},"9218172":{"post_code":"9218172","prefecture":"ISHIKAWA KEN","city":"KANAZAWA SHI","town":"FUSHIMISHIMMACHI","perfecture_jp":"石川県","jp_add_1":"金沢市","jp_add_2":"伏見新町"},"9218177":{"post_code":"9218177","prefecture":"ISHIKAWA KEN","city":"KANAZAWA SHI","town":"FUSHIMIDAI","perfecture_jp":"石川県","jp_add_1":"金沢市","jp_add_2":"伏見台"},"9218105":{"post_code":"9218105","prefecture":"ISHIKAWA KEN","city":"KANAZAWA SHI","town":"HEIWAMACHI","perfecture_jp":"石川県","jp_add_1":"金沢市","jp_add_2":"平和町"},"9218101":{"post_code":"9218101","prefecture":"ISHIKAWA KEN","city":"KANAZAWA SHI","town":"HOSHIMAMACHI","perfecture_jp":"石川県","jp_add_1":"金沢市","jp_add_2":"法島町"},"9218052":{"post_code":"9218052","prefecture":"ISHIKAWA KEN","city":"KANAZAWA SHI","town":"HOGO","perfecture_jp":"石川県","jp_add_1":"金沢市","jp_add_2":"保古"},"9218053":{"post_code":"9218053","prefecture":"ISHIKAWA KEN","city":"KANAZAWA SHI","town":"HOGOMACHI","perfecture_jp":"石川県","jp_add_1":"金沢市","jp_add_2":"保古町"},"9218141":{"post_code":"9218141","prefecture":"ISHIKAWA KEN","city":"KANAZAWA SHI","town":"MAGAE","perfecture_jp":"石川県","jp_add_1":"金沢市","jp_add_2":"馬替"},"9218005":{"post_code":"9218005","prefecture":"ISHIKAWA KEN","city":"KANAZAWA SHI","town":"MAGIRAMACHI","perfecture_jp":"石川県","jp_add_1":"金沢市","jp_add_2":"間明町"},"9218025":{"post_code":"9218025","prefecture":"ISHIKAWA KEN","city":"KANAZAWA SHI","town":"MASUIZUMI","perfecture_jp":"石川県","jp_add_1":"金沢市","jp_add_2":"増泉"},"9218047":{"post_code":"9218047","prefecture":"ISHIKAWA KEN","city":"KANAZAWA SHI","town":"MAMEDAHOMMACHI(HA.RO)","perfecture_jp":"石川県","jp_add_1":"金沢市","jp_add_2":"大豆田本町"},"9218021":{"post_code":"9218021","prefecture":"ISHIKAWA KEN","city":"KANAZAWA SHI","town":"MIKAGEMACHI","perfecture_jp":"石川県","jp_add_1":"金沢市","jp_add_2":"御影町"},"9218117":{"post_code":"9218117","prefecture":"ISHIKAWA KEN","city":"KANAZAWA SHI","town":"MIDORIGAOKA","perfecture_jp":"石川県","jp_add_1":"金沢市","jp_add_2":"緑が丘"},"9218134":{"post_code":"9218134","prefecture":"ISHIKAWA KEN","city":"KANAZAWA SHI","town":"MINAMISHIJIMA","perfecture_jp":"石川県","jp_add_1":"金沢市","jp_add_2":"南四十万"},"9218162":{"post_code":"9218162","prefecture":"ISHIKAWA KEN","city":"KANAZAWA SHI","town":"MIMMA","perfecture_jp":"石川県","jp_add_1":"金沢市","jp_add_2":"三馬"},"9218012":{"post_code":"9218012","prefecture":"ISHIKAWA KEN","city":"KANAZAWA SHI","town":"MOTOECHO","perfecture_jp":"石川県","jp_add_1":"金沢市","jp_add_2":"本江町"},"9218061":{"post_code":"9218061","prefecture":"ISHIKAWA KEN","city":"KANAZAWA SHI","town":"MORITO","perfecture_jp":"石川県","jp_add_1":"金沢市","jp_add_2":"森戸"},"9218066":{"post_code":"9218066","prefecture":"ISHIKAWA KEN","city":"KANAZAWA SHI","town":"YAGI","perfecture_jp":"石川県","jp_add_1":"金沢市","jp_add_2":"矢木"},"9218175":{"post_code":"9218175","prefecture":"ISHIKAWA KEN","city":"KANAZAWA SHI","town":"YAMASHINA","perfecture_jp":"石川県","jp_add_1":"金沢市","jp_add_2":"山科"},"9218174":{"post_code":"9218174","prefecture":"ISHIKAWA KEN","city":"KANAZAWA SHI","town":"YAMASHINAMACHI","perfecture_jp":"石川県","jp_add_1":"金沢市","jp_add_2":"山科町"},"9218036":{"post_code":"9218036","prefecture":"ISHIKAWA KEN","city":"KANAZAWA SHI","town":"YAYOI","perfecture_jp":"石川県","jp_add_1":"金沢市","jp_add_2":"弥生"},"9218064":{"post_code":"9218064","prefecture":"ISHIKAWA KEN","city":"KANAZAWA SHI","town":"YOKAICHI","perfecture_jp":"石川県","jp_add_1":"金沢市","jp_add_2":"八日市"},"9218063":{"post_code":"9218063","prefecture":"ISHIKAWA KEN","city":"KANAZAWA SHI","town":"YOKAICHIDEMACHI","perfecture_jp":"石川県","jp_add_1":"金沢市","jp_add_2":"八日市出町"},"9218163":{"post_code":"9218163","prefecture":"ISHIKAWA KEN","city":"KANAZAWA SHI","town":"YOKOGAWA","perfecture_jp":"石川県","jp_add_1":"金沢市","jp_add_2":"横川"},"9218044":{"post_code":"9218044","prefecture":"ISHIKAWA KEN","city":"KANAZAWA SHI","town":"YONAIZUMIMACHI","perfecture_jp":"石川県","jp_add_1":"金沢市","jp_add_2":"米泉町"},"9218004":{"post_code":"9218004","prefecture":"ISHIKAWA KEN","city":"KANAZAWA SHI","town":"YONEMARUMACHI","perfecture_jp":"石川県","jp_add_1":"金沢市","jp_add_2":"米丸町"},"9218111":{"post_code":"9218111","prefecture":"ISHIKAWA KEN","city":"KANAZAWA SHI","town":"WAKAKUSAMACHI","perfecture_jp":"石川県","jp_add_1":"金沢市","jp_add_2":"若草町"},"9210000":{"post_code":"9210000","prefecture":"ISHIKAWA KEN","city":"NONOICHI SHI","town":"IKANIKEISAIGANAIBAAI","perfecture_jp":"石川県","jp_add_1":"野々市市","jp_add_2":""},"9218823":{"post_code":"9218823","prefecture":"ISHIKAWA KEN","city":"NONOICHI SHI","town":"AWADA","perfecture_jp":"石川県","jp_add_1":"野々市市","jp_add_2":"粟田"},"9218805":{"post_code":"9218805","prefecture":"ISHIKAWA KEN","city":"NONOICHI SHI","town":"INARI","perfecture_jp":"石川県","jp_add_1":"野々市市","jp_add_2":"稲荷"},"9218812":{"post_code":"9218812","prefecture":"ISHIKAWA KEN","city":"NONOICHI SHI","town":"OGIGAOKA","perfecture_jp":"石川県","jp_add_1":"野々市市","jp_add_2":"扇が丘"},"9218801":{"post_code":"9218801","prefecture":"ISHIKAWA KEN","city":"NONOICHI SHI","town":"OKYOZUKA","perfecture_jp":"石川県","jp_add_1":"野々市市","jp_add_2":"御経塚"},"9218803":{"post_code":"9218803","prefecture":"ISHIKAWA KEN","city":"NONOICHI SHI","town":"OSHIKOSHI","perfecture_jp":"石川県","jp_add_1":"野々市市","jp_add_2":"押越"},"9218802":{"post_code":"9218802","prefecture":"ISHIKAWA KEN","city":"NONOICHI SHI","town":"OSHINO","perfecture_jp":"石川県","jp_add_1":"野々市市","jp_add_2":"押野"},"9218835":{"post_code":"9218835","prefecture":"ISHIKAWA KEN","city":"NONOICHI SHI","town":"KAMBAYASHI","perfecture_jp":"石川県","jp_add_1":"野々市市","jp_add_2":"上林"},"9218837":{"post_code":"9218837","prefecture":"ISHIKAWA KEN","city":"NONOICHI SHI","town":"KIYOKANE","perfecture_jp":"石川県","jp_add_1":"野々市市","jp_add_2":"清金"},"9218846":{"post_code":"9218846","prefecture":"ISHIKAWA KEN","city":"NONOICHI SHI","town":"KURAIGAWA","perfecture_jp":"石川県","jp_add_1":"野々市市","jp_add_2":"位川"},"9218841":{"post_code":"9218841","prefecture":"ISHIKAWA KEN","city":"NONOICHI SHI","town":"GOMACHI","perfecture_jp":"石川県","jp_add_1":"野々市市","jp_add_2":"郷町"},"9218825":{"post_code":"9218825","prefecture":"ISHIKAWA KEN","city":"NONOICHI SHI","town":"SANNO","perfecture_jp":"石川県","jp_add_1":"野々市市","jp_add_2":"三納"},"9218831":{"post_code":"9218831","prefecture":"ISHIKAWA KEN","city":"NONOICHI SHI","town":"SHIMOBAYASHI","perfecture_jp":"石川県","jp_add_1":"野々市市","jp_add_2":"下林"},"9218824":{"post_code":"9218824","prefecture":"ISHIKAWA KEN","city":"NONOICHI SHI","town":"SHINJO","perfecture_jp":"石川県","jp_add_1":"野々市市","jp_add_2":"新庄"},"9218836":{"post_code":"9218836","prefecture":"ISHIKAWA KEN","city":"NONOICHI SHI","town":"SUEMATSU","perfecture_jp":"石川県","jp_add_1":"野々市市","jp_add_2":"末松"},"9218814":{"post_code":"9218814","prefecture":"ISHIKAWA KEN","city":"NONOICHI SHI","town":"SUGAHARAMACHI","perfecture_jp":"石川県","jp_add_1":"野々市市","jp_add_2":"菅原町"},"9218813":{"post_code":"9218813","prefecture":"ISHIKAWA KEN","city":"NONOICHI SHI","town":"SUMIYOSHIMACHI","perfecture_jp":"石川県","jp_add_1":"野々市市","jp_add_2":"住吉町"},"9218811":{"post_code":"9218811","prefecture":"ISHIKAWA KEN","city":"NONOICHI SHI","town":"TAKAHASHIMACHI","perfecture_jp":"石川県","jp_add_1":"野々市市","jp_add_2":"高橋町"},"9218843":{"post_code":"9218843","prefecture":"ISHIKAWA KEN","city":"NONOICHI SHI","town":"TANOSHIRIMACHI","perfecture_jp":"石川県","jp_add_1":"野々市市","jp_add_2":"田尻町"},"9218845":{"post_code":"9218845","prefecture":"ISHIKAWA KEN","city":"NONOICHI SHI","town":"TAHEIJI","perfecture_jp":"石川県","jp_add_1":"野々市市","jp_add_2":"太平寺"},"9218842":{"post_code":"9218842","prefecture":"ISHIKAWA KEN","city":"NONOICHI SHI","town":"TOKUMOTOMACHI","perfecture_jp":"石川県","jp_add_1":"野々市市","jp_add_2":"徳用町"},"9218832":{"post_code":"9218832","prefecture":"ISHIKAWA KEN","city":"NONOICHI SHI","town":"TOHEIDA","perfecture_jp":"石川県","jp_add_1":"野々市市","jp_add_2":"藤平田"},"9218834":{"post_code":"9218834","prefecture":"ISHIKAWA KEN","city":"NONOICHI SHI","town":"NAKABAYASHI","perfecture_jp":"石川県","jp_add_1":"野々市市","jp_add_2":"中林"},"9218808":{"post_code":"9218808","prefecture":"ISHIKAWA KEN","city":"NONOICHI SHI","town":"NAGAIKE","perfecture_jp":"石川県","jp_add_1":"野々市市","jp_add_2":"長池"},"9218804":{"post_code":"9218804","prefecture":"ISHIKAWA KEN","city":"NONOICHI SHI","town":"NOSHIRO","perfecture_jp":"石川県","jp_add_1":"野々市市","jp_add_2":"野代"},"9218821":{"post_code":"9218821","prefecture":"ISHIKAWA KEN","city":"NONOICHI SHI","town":"HAKUSAMMACHI","perfecture_jp":"石川県","jp_add_1":"野々市市","jp_add_2":"白山町"},"9218833":{"post_code":"9218833","prefecture":"ISHIKAWA KEN","city":"NONOICHI SHI","town":"FUJIHIRA","perfecture_jp":"石川県","jp_add_1":"野々市市","jp_add_2":"藤平"},"9218807":{"post_code":"9218807","prefecture":"ISHIKAWA KEN","city":"NONOICHI SHI","town":"FUTSUKAICHIMACHI","perfecture_jp":"石川県","jp_add_1":"野々市市","jp_add_2":"二日市町"},"9218844":{"post_code":"9218844","prefecture":"ISHIKAWA KEN","city":"NONOICHI SHI","town":"HORIUCHI","perfecture_jp":"石川県","jp_add_1":"野々市市","jp_add_2":"堀内"},"9218815":{"post_code":"9218815","prefecture":"ISHIKAWA KEN","city":"NONOICHI SHI","town":"HOMMACHI","perfecture_jp":"石川県","jp_add_1":"野々市市","jp_add_2":"本町"},"9218806":{"post_code":"9218806","prefecture":"ISHIKAWA KEN","city":"NONOICHI SHI","town":"MIKKAICHIMACHI","perfecture_jp":"石川県","jp_add_1":"野々市市","jp_add_2":"三日市町"},"9218848":{"post_code":"9218848","prefecture":"ISHIKAWA KEN","city":"NONOICHI SHI","town":"YANAGIMACHI","perfecture_jp":"石川県","jp_add_1":"野々市市","jp_add_2":"柳町"},"9218822":{"post_code":"9218822","prefecture":"ISHIKAWA KEN","city":"NONOICHI SHI","town":"YAHAGI","perfecture_jp":"石川県","jp_add_1":"野々市市","jp_add_2":"矢作"},"9218817":{"post_code":"9218817","prefecture":"ISHIKAWA KEN","city":"NONOICHI SHI","town":"YOKOMIYAMACHI","perfecture_jp":"石川県","jp_add_1":"野々市市","jp_add_2":"横宮町"},"9218847":{"post_code":"9218847","prefecture":"ISHIKAWA KEN","city":"NONOICHI SHI","town":"RENGEJIMACHI","perfecture_jp":"石川県","jp_add_1":"野々市市","jp_add_2":"蓮花寺町"},"9218816":{"post_code":"9218816","prefecture":"ISHIKAWA KEN","city":"NONOICHI SHI","town":"WAKAMATSUMACHI","perfecture_jp":"石川県","jp_add_1":"野々市市","jp_add_2":"若松町"}}