{"9220000":{"post_code":"9220000","prefecture":"ISHIKAWA KEN","city":"KAGA SHI","town":"IKANIKEISAIGANAIBAAI","perfecture_jp":"石川県","jp_add_1":"加賀市","jp_add_2":""},"9220337":{"post_code":"9220337","prefecture":"ISHIKAWA KEN","city":"KAGA SHI","town":"AIKAWAMACHI","perfecture_jp":"石川県","jp_add_1":"加賀市","jp_add_2":"合河町"},"9220278":{"post_code":"9220278","prefecture":"ISHIKAWA KEN","city":"KAGA SHI","town":"ARAKIMACHI","perfecture_jp":"石川県","jp_add_1":"加賀市","jp_add_2":"荒木町"},"9220406":{"post_code":"9220406","prefecture":"ISHIKAWA KEN","city":"KAGA SHI","town":"IKIRIMACHI","perfecture_jp":"石川県","jp_add_1":"加賀市","jp_add_2":"伊切町"},"9220403":{"post_code":"9220403","prefecture":"ISHIKAWA KEN","city":"KAGA SHI","town":"IPPAKUMACHI","perfecture_jp":"石川県","jp_add_1":"加賀市","jp_add_2":"一白町"},"9220331":{"post_code":"9220331","prefecture":"ISHIKAWA KEN","city":"KAGA SHI","town":"IBURIHASHIMACHI","perfecture_jp":"石川県","jp_add_1":"加賀市","jp_add_2":"動橋町"},"9220411":{"post_code":"9220411","prefecture":"ISHIKAWA KEN","city":"KAGA SHI","town":"USHIOZUMACHI","perfecture_jp":"石川県","jp_add_1":"加賀市","jp_add_2":"潮津町"},"9220312":{"post_code":"9220312","prefecture":"ISHIKAWA KEN","city":"KAGA SHI","town":"UDANIMACHI","perfecture_jp":"石川県","jp_add_1":"加賀市","jp_add_2":"宇谷町"},"9220302":{"post_code":"9220302","prefecture":"ISHIKAWA KEN","city":"KAGA SHI","town":"UCHIKOSHIMACHI","perfecture_jp":"石川県","jp_add_1":"加賀市","jp_add_2":"打越町"},"9220222":{"post_code":"9220222","prefecture":"ISHIKAWA KEN","city":"KAGA SHI","town":"UWANOMACHI(MARUYAMA)","perfecture_jp":"石川県","jp_add_1":"加賀市","jp_add_2":"上野町"},"9220322":{"post_code":"9220322","prefecture":"ISHIKAWA KEN","city":"KAGA SHI","town":"UWANOMACHI(SONOTA)","perfecture_jp":"石川県","jp_add_1":"加賀市","jp_add_2":"上野町"},"9220425":{"post_code":"9220425","prefecture":"ISHIKAWA KEN","city":"KAGA SHI","town":"OSUGANAMIMACHI","perfecture_jp":"石川県","jp_add_1":"加賀市","jp_add_2":"大菅波町"},"9220856":{"post_code":"9220856","prefecture":"ISHIKAWA KEN","city":"KAGA SHI","town":"OKUNOYAMACHI","perfecture_jp":"石川県","jp_add_1":"加賀市","jp_add_2":"奥谷町"},"9220445":{"post_code":"9220445","prefecture":"ISHIKAWA KEN","city":"KAGA SHI","town":"OSHIOTSUJIMACHI","perfecture_jp":"石川県","jp_add_1":"加賀市","jp_add_2":"小塩辻町"},"9220553":{"post_code":"9220553","prefecture":"ISHIKAWA KEN","city":"KAGA SHI","town":"OSHIOMACHI","perfecture_jp":"石川県","jp_add_1":"加賀市","jp_add_2":"小塩町"},"9220428":{"post_code":"9220428","prefecture":"ISHIKAWA KEN","city":"KAGA SHI","town":"OCHUMACHI","perfecture_jp":"石川県","jp_add_1":"加賀市","jp_add_2":"尾中町"},"9220271":{"post_code":"9220271","prefecture":"ISHIKAWA KEN","city":"KAGA SHI","town":"OMATAMACHI","perfecture_jp":"石川県","jp_add_1":"加賀市","jp_add_2":"尾俣町"},"9220272":{"post_code":"9220272","prefecture":"ISHIKAWA KEN","city":"KAGA SHI","town":"OMATAMACHI(OZAKURA)","perfecture_jp":"石川県","jp_add_1":"加賀市","jp_add_2":"尾俣町"},"9220262":{"post_code":"9220262","prefecture":"ISHIKAWA KEN","city":"KAGA SHI","town":"KASHIWANOMACHI","perfecture_jp":"石川県","jp_add_1":"加賀市","jp_add_2":"柏野町"},"9220305":{"post_code":"9220305","prefecture":"ISHIKAWA KEN","city":"KAGA SHI","town":"KAJIIMACHI","perfecture_jp":"石川県","jp_add_1":"加賀市","jp_add_2":"梶井町"},"9220564":{"post_code":"9220564","prefecture":"ISHIKAWA KEN","city":"KAGA SHI","town":"KATANOMACHI","perfecture_jp":"石川県","jp_add_1":"加賀市","jp_add_2":"片野町"},"9220412":{"post_code":"9220412","prefecture":"ISHIKAWA KEN","city":"KAGA SHI","town":"KATAYAMAZUONSEN","perfecture_jp":"石川県","jp_add_1":"加賀市","jp_add_2":"片山津温泉"},"9220414":{"post_code":"9220414","prefecture":"ISHIKAWA KEN","city":"KAGA SHI","town":"KATAYAMAZUMACHI","perfecture_jp":"石川県","jp_add_1":"加賀市","jp_add_2":"片山津町"},"9220273":{"post_code":"9220273","prefecture":"ISHIKAWA KEN","city":"KAGA SHI","town":"KATSURATANIMACHI","perfecture_jp":"石川県","jp_add_1":"加賀市","jp_add_2":"桂谷町"},"9220013":{"post_code":"9220013","prefecture":"ISHIKAWA KEN","city":"KAGA SHI","town":"KAMIKAWASAKIMACHI","perfecture_jp":"石川県","jp_add_1":"加賀市","jp_add_2":"上河崎町"},"9220241":{"post_code":"9220241","prefecture":"ISHIKAWA KEN","city":"KAGA SHI","town":"KAMOMACHI","perfecture_jp":"石川県","jp_add_1":"加賀市","jp_add_2":"加茂町"},"9220277":{"post_code":"9220277","prefecture":"ISHIKAWA KEN","city":"KAGA SHI","town":"KAWAMINAMIMACHI","perfecture_jp":"石川県","jp_add_1":"加賀市","jp_add_2":"河南町"},"9220276":{"post_code":"9220276","prefecture":"ISHIKAWA KEN","city":"KAGA SHI","town":"KAWAMINAMIMACHI(YODOMACHI)","perfecture_jp":"石川県","jp_add_1":"加賀市","jp_add_2":"河南町"},"9220314":{"post_code":"9220314","prefecture":"ISHIKAWA KEN","city":"KAGA SHI","town":"KAWARAMACHI","perfecture_jp":"石川県","jp_add_1":"加賀市","jp_add_2":"河原町"},"9220307":{"post_code":"9220307","prefecture":"ISHIKAWA KEN","city":"KAGA SHI","town":"KANTAKUCHO","perfecture_jp":"石川県","jp_add_1":"加賀市","jp_add_2":"干拓町"},"9220434":{"post_code":"9220434","prefecture":"ISHIKAWA KEN","city":"KAGA SHI","town":"KITAYAMADAMACHI","perfecture_jp":"石川県","jp_add_1":"加賀市","jp_add_2":"北山田町"},"9220435":{"post_code":"9220435","prefecture":"ISHIKAWA KEN","city":"KAGA SHI","town":"KIBOGAOKA","perfecture_jp":"石川県","jp_add_1":"加賀市","jp_add_2":"希望が丘"},"9220842":{"post_code":"9220842","prefecture":"ISHIKAWA KEN","city":"KAGA SHI","town":"KUMASAKAMACHI","perfecture_jp":"石川県","jp_add_1":"加賀市","jp_add_2":"熊坂町"},"9220565":{"post_code":"9220565","prefecture":"ISHIKAWA KEN","city":"KAGA SHI","town":"KUROSAKIMACHI","perfecture_jp":"石川県","jp_add_1":"加賀市","jp_add_2":"黒崎町"},"9220823":{"post_code":"9220823","prefecture":"ISHIKAWA KEN","city":"KAGA SHI","town":"KUROSEMACHI","perfecture_jp":"石川県","jp_add_1":"加賀市","jp_add_2":"黒瀬町"},"9220326":{"post_code":"9220326","prefecture":"ISHIKAWA KEN","city":"KAGA SHI","town":"KUWABARAMACHI","perfecture_jp":"石川県","jp_add_1":"加賀市","jp_add_2":"桑原町"},"9220404":{"post_code":"9220404","prefecture":"ISHIKAWA KEN","city":"KAGA SHI","town":"GEMPEIMACHI","perfecture_jp":"石川県","jp_add_1":"加賀市","jp_add_2":"源平町"},"9220266":{"post_code":"9220266","prefecture":"ISHIKAWA KEN","city":"KAGA SHI","town":"KOSAKAMACHI","perfecture_jp":"石川県","jp_add_1":"加賀市","jp_add_2":"小坂町"},"9220413":{"post_code":"9220413","prefecture":"ISHIKAWA KEN","city":"KAGA SHI","town":"KOJOMACHI","perfecture_jp":"石川県","jp_add_1":"加賀市","jp_add_2":"湖城町"},"9220424":{"post_code":"9220424","prefecture":"ISHIKAWA KEN","city":"KAGA SHI","town":"KOSUGANAMIMACHI","perfecture_jp":"石川県","jp_add_1":"加賀市","jp_add_2":"小菅波町"},"9220831":{"post_code":"9220831","prefecture":"ISHIKAWA KEN","city":"KAGA SHI","town":"SAIWAIMACHI","perfecture_jp":"石川県","jp_add_1":"加賀市","jp_add_2":"幸町"},"9220311":{"post_code":"9220311","prefecture":"ISHIKAWA KEN","city":"KAGA SHI","town":"SAKAEDANIMACHI","perfecture_jp":"石川県","jp_add_1":"加賀市","jp_add_2":"栄谷町"},"9220423":{"post_code":"9220423","prefecture":"ISHIKAWA KEN","city":"KAGA SHI","town":"SAKUMIMACHI","perfecture_jp":"石川県","jp_add_1":"加賀市","jp_add_2":"作見町"},"9220446":{"post_code":"9220446","prefecture":"ISHIKAWA KEN","city":"KAGA SHI","town":"SHIOHAMAMACHI","perfecture_jp":"石川県","jp_add_1":"加賀市","jp_add_2":"塩浜町"},"9220673":{"post_code":"9220673","prefecture":"ISHIKAWA KEN","city":"KAGA SHI","town":"SHIOYAMACHI","perfecture_jp":"石川県","jp_add_1":"加賀市","jp_add_2":"塩屋町"},"9220441":{"post_code":"9220441","prefecture":"ISHIKAWA KEN","city":"KAGA SHI","town":"SHINOHARASHIMMACHI","perfecture_jp":"石川県","jp_add_1":"加賀市","jp_add_2":"篠原新町"},"9220442":{"post_code":"9220442","prefecture":"ISHIKAWA KEN","city":"KAGA SHI","town":"SHINOHARAMACHI","perfecture_jp":"石川県","jp_add_1":"加賀市","jp_add_2":"篠原町"},"9220402":{"post_code":"9220402","prefecture":"ISHIKAWA KEN","city":"KAGA SHI","town":"SHIBAYAMAMACHI","perfecture_jp":"石川県","jp_add_1":"加賀市","jp_add_2":"柴山町"},"9220315":{"post_code":"9220315","prefecture":"ISHIKAWA KEN","city":"KAGA SHI","town":"SHIMIZUMACHI","perfecture_jp":"石川県","jp_add_1":"加賀市","jp_add_2":"清水町"},"9220012":{"post_code":"9220012","prefecture":"ISHIKAWA KEN","city":"KAGA SHI","town":"SHIMOKAWASAKIMACHI","perfecture_jp":"石川県","jp_add_1":"加賀市","jp_add_2":"下河崎町"},"9220332":{"post_code":"9220332","prefecture":"ISHIKAWA KEN","city":"KAGA SHI","town":"SHOMACHI","perfecture_jp":"石川県","jp_add_1":"加賀市","jp_add_2":"庄町"},"9220836":{"post_code":"9220836","prefecture":"ISHIKAWA KEN","city":"KAGA SHI","town":"SHIRATORIMACHI","perfecture_jp":"石川県","jp_add_1":"加賀市","jp_add_2":"白鳥町"},"9220401":{"post_code":"9220401","prefecture":"ISHIKAWA KEN","city":"KAGA SHI","town":"SHIMBOMACHI","perfecture_jp":"石川県","jp_add_1":"加賀市","jp_add_2":"新保町"},"9220822":{"post_code":"9220822","prefecture":"ISHIKAWA KEN","city":"KAGA SHI","town":"SUISAKAMACHI","perfecture_jp":"石川県","jp_add_1":"加賀市","jp_add_2":"吸坂町"},"9220264":{"post_code":"9220264","prefecture":"ISHIKAWA KEN","city":"KAGA SHI","town":"SUDANIMACHI","perfecture_jp":"石川県","jp_add_1":"加賀市","jp_add_2":"須谷町"},"9220833":{"post_code":"9220833","prefecture":"ISHIKAWA KEN","city":"KAGA SHI","town":"SOMACHI","perfecture_jp":"石川県","jp_add_1":"加賀市","jp_add_2":"曾宇町"},"9220825":{"post_code":"9220825","prefecture":"ISHIKAWA KEN","city":"KAGA SHI","town":"SOSORIMACHI","perfecture_jp":"石川県","jp_add_1":"加賀市","jp_add_2":"直下町"},"9220061":{"post_code":"9220061","prefecture":"ISHIKAWA KEN","city":"KAGA SHI","town":"DAISHOJI AIOICHO","perfecture_jp":"石川県","jp_add_1":"加賀市","jp_add_2":"大聖寺相生町"},"9220022":{"post_code":"9220022","prefecture":"ISHIKAWA KEN","city":"KAGA SHI","town":"DAISHOJI AKEBONOCHO","perfecture_jp":"石川県","jp_add_1":"加賀市","jp_add_2":"大聖寺曙町"},"9220028":{"post_code":"9220028","prefecture":"ISHIKAWA KEN","city":"KAGA SHI","town":"DAISHOJI ASABATAKEMACHI","perfecture_jp":"石川県","jp_add_1":"加賀市","jp_add_2":"大聖寺麻畠町"},"9220004":{"post_code":"9220004","prefecture":"ISHIKAWA KEN","city":"KAGA SHI","town":"YUTAKAMACHI(HA)","perfecture_jp":"石川県","jp_add_1":"加賀市","jp_add_2":"大聖寺朝日町"},"9220034":{"post_code":"9220034","prefecture":"ISHIKAWA KEN","city":"KAGA SHI","town":"DAISHOJI ARAMACHI","perfecture_jp":"石川県","jp_add_1":"加賀市","jp_add_2":"大聖寺荒町"},"9220036":{"post_code":"9220036","prefecture":"ISHIKAWA KEN","city":"KAGA SHI","town":"DAISHOJI IPPOMBASHIMACHI","perfecture_jp":"石川県","jp_add_1":"加賀市","jp_add_2":"大聖寺一本橋町"},"9220863":{"post_code":"9220863","prefecture":"ISHIKAWA KEN","city":"KAGA SHI","town":"DAISHOJI IMADEMACHI","perfecture_jp":"石川県","jp_add_1":"加賀市","jp_add_2":"大聖寺今出町"},"9220042":{"post_code":"9220042","prefecture":"ISHIKAWA KEN","city":"KAGA SHI","town":"DAISHOJI UOMACHI","perfecture_jp":"石川県","jp_add_1":"加賀市","jp_add_2":"大聖寺魚町"},"9220001":{"post_code":"9220001","prefecture":"ISHIKAWA KEN","city":"KAGA SHI","town":"DAISHOJI UWAGIMACHI","perfecture_jp":"石川県","jp_add_1":"加賀市","jp_add_2":"大聖寺上木町"},"9220802":{"post_code":"9220802","prefecture":"ISHIKAWA KEN","city":"KAGA SHI","town":"DAISHOJI ECHIZEMMACHI","perfecture_jp":"石川県","jp_add_1":"加賀市","jp_add_2":"大聖寺越前町"},"9220803":{"post_code":"9220803","prefecture":"ISHIKAWA KEN","city":"KAGA SHI","town":"DAISHOJI MITSUYAMACHI","perfecture_jp":"石川県","jp_add_1":"加賀市","jp_add_2":"大聖寺越前三ツ屋町"},"9220806":{"post_code":"9220806","prefecture":"ISHIKAWA KEN","city":"KAGA SHI","town":"DAISHOJI OSHIMMICHI","perfecture_jp":"石川県","jp_add_1":"加賀市","jp_add_2":"大聖寺大新道"},"9220005":{"post_code":"9220005","prefecture":"ISHIKAWA KEN","city":"KAGA SHI","town":"DAISHOJI OKAMACHI","perfecture_jp":"石川県","jp_add_1":"加賀市","jp_add_2":"大聖寺岡町"},"9220003":{"post_code":"9220003","prefecture":"ISHIKAWA KEN","city":"KAGA SHI","town":"DAISHOJI OGYUMACHI","perfecture_jp":"石川県","jp_add_1":"加賀市","jp_add_2":"大聖寺荻生町"},"9220037":{"post_code":"9220037","prefecture":"ISHIKAWA KEN","city":"KAGA SHI","town":"DAISHOJI KAJIMACHI","perfecture_jp":"石川県","jp_add_1":"加賀市","jp_add_2":"大聖寺鍛冶町"},"9220011":{"post_code":"9220011","prefecture":"ISHIKAWA KEN","city":"KAGA SHI","town":"DAISHOJI HIRATOKO","perfecture_jp":"石川県","jp_add_1":"加賀市","jp_add_2":"大聖寺春日町"},"9220056":{"post_code":"9220056","prefecture":"ISHIKAWA KEN","city":"KAGA SHI","town":"DAISHOJI KATAHARAMACHI","perfecture_jp":"石川県","jp_add_1":"加賀市","jp_add_2":"大聖寺片原町"},"9220032":{"post_code":"9220032","prefecture":"ISHIKAWA KEN","city":"KAGA SHI","town":"DAISHOJI KANEKOMACHI","perfecture_jp":"石川県","jp_add_1":"加賀市","jp_add_2":"大聖寺金子町"},"9220046":{"post_code":"9220046","prefecture":"ISHIKAWA KEN","city":"KAGA SHI","town":"DAISHOJI KANNOMMACHI","perfecture_jp":"石川県","jp_add_1":"加賀市","jp_add_2":"大聖寺観音町"},"9220026":{"post_code":"9220026","prefecture":"ISHIKAWA KEN","city":"KAGA SHI","town":"DAISHOJI GAMECHO","perfecture_jp":"石川県","jp_add_1":"加賀市","jp_add_2":"大聖寺亀町"},"9220064":{"post_code":"9220064","prefecture":"ISHIKAWA KEN","city":"KAGA SHI","town":"DAISHOJI KITAKATAHARAMACHI","perfecture_jp":"石川県","jp_add_1":"加賀市","jp_add_2":"大聖寺北片原町"},"9220055":{"post_code":"9220055","prefecture":"ISHIKAWA KEN","city":"KAGA SHI","town":"DAISHOJI KYOMACHI","perfecture_jp":"石川県","jp_add_1":"加賀市","jp_add_2":"大聖寺京町"},"9220851":{"post_code":"9220851","prefecture":"ISHIKAWA KEN","city":"KAGA SHI","town":"DAISHOJI KINJOGAOKA","perfecture_jp":"石川県","jp_add_1":"加賀市","jp_add_2":"大聖寺錦城ケ丘"},"9220031":{"post_code":"9220031","prefecture":"ISHIKAWA KEN","city":"KAGA SHI","town":"DAISHOJI KOROBAMACHI","perfecture_jp":"石川県","jp_add_1":"加賀市","jp_add_2":"大聖寺木呂場町"},"9220043":{"post_code":"9220043","prefecture":"ISHIKAWA KEN","city":"KAGA SHI","town":"DAISHOJI GOKENCHO","perfecture_jp":"石川県","jp_add_1":"加賀市","jp_add_2":"大聖寺五軒町"},"9220841":{"post_code":"9220841","prefecture":"ISHIKAWA KEN","city":"KAGA SHI","town":"DAISHOJI SHITAYASHIKIMACHI","perfecture_jp":"石川県","jp_add_1":"加賀市","jp_add_2":"大聖寺下屋敷町"},"9220002":{"post_code":"9220002","prefecture":"ISHIKAWA KEN","city":"KAGA SHI","town":"DAISHOJI SHIMOFUKUDAMACHI","perfecture_jp":"石川県","jp_add_1":"加賀市","jp_add_2":"大聖寺下福田町"},"9220065":{"post_code":"9220065","prefecture":"ISHIKAWA KEN","city":"KAGA SHI","town":"DAISHOJI SHINKIYOMACHI","perfecture_jp":"石川県","jp_add_1":"加賀市","jp_add_2":"大聖寺新旗陽町"},"9220068":{"post_code":"9220068","prefecture":"ISHIKAWA KEN","city":"KAGA SHI","town":"DAISHOJI SHINKUMICHO","perfecture_jp":"石川県","jp_add_1":"加賀市","jp_add_2":"大聖寺新組町"},"9220021":{"post_code":"9220021","prefecture":"ISHIKAWA KEN","city":"KAGA SHI","town":"DAISHOJI SHINSAKAEMACHI","perfecture_jp":"石川県","jp_add_1":"加賀市","jp_add_2":"大聖寺新栄町"},"9220063":{"post_code":"9220063","prefecture":"ISHIKAWA KEN","city":"KAGA SHI","town":"DAISHOJI SHINCHO","perfecture_jp":"石川県","jp_add_1":"加賀市","jp_add_2":"大聖寺新町"},"9220807":{"post_code":"9220807","prefecture":"ISHIKAWA KEN","city":"KAGA SHI","town":"DAISHOJI SHIMMEICHO","perfecture_jp":"石川県","jp_add_1":"加賀市","jp_add_2":"大聖寺神明町"},"9220805":{"post_code":"9220805","prefecture":"ISHIKAWA KEN","city":"KAGA SHI","town":"DAISHOJI SHINYASHIKIMACHI","perfecture_jp":"石川県","jp_add_1":"加賀市","jp_add_2":"大聖寺新屋敷町"},"9220861":{"post_code":"9220861","prefecture":"ISHIKAWA KEN","city":"KAGA SHI","town":"DAISHOJI JIKATAMACHI","perfecture_jp":"石川県","jp_add_1":"加賀市","jp_add_2":"大聖寺地方町"},"9220045":{"post_code":"9220045","prefecture":"ISHIKAWA KEN","city":"KAGA SHI","town":"DAISHOJI JUICHIMACHI","perfecture_jp":"石川県","jp_add_1":"加賀市","jp_add_2":"大聖寺十一町"},"9220815":{"post_code":"9220815","prefecture":"ISHIKAWA KEN","city":"KAGA SHI","town":"DAISHOJI SUGO","perfecture_jp":"石川県","jp_add_1":"加賀市","jp_add_2":"大聖寺菅生"},"9220814":{"post_code":"9220814","prefecture":"ISHIKAWA KEN","city":"KAGA SHI","town":"DAISHOJI SUGOMACHI","perfecture_jp":"石川県","jp_add_1":"加賀市","jp_add_2":"大聖寺菅生町"},"9220801":{"post_code":"9220801","prefecture":"ISHIKAWA KEN","city":"KAGA SHI","town":"DAISHOJI SEKIMACHI","perfecture_jp":"石川県","jp_add_1":"加賀市","jp_add_2":"大聖寺関町"},"9220671":{"post_code":"9220671","prefecture":"ISHIKAWA KEN","city":"KAGA SHI","town":"DAISHOJI SEGOEMACHI","perfecture_jp":"石川県","jp_add_1":"加賀市","jp_add_2":"大聖寺瀬越町"},"9220053":{"post_code":"9220053","prefecture":"ISHIKAWA KEN","city":"KAGA SHI","town":"DAISHOJI TAKAJOMACHI","perfecture_jp":"石川県","jp_add_1":"加賀市","jp_add_2":"大聖寺鷹匠町"},"9220812":{"post_code":"9220812","prefecture":"ISHIKAWA KEN","city":"KAGA SHI","town":"DAISHOJI TAWARAMACHI","perfecture_jp":"石川県","jp_add_1":"加賀市","jp_add_2":"大聖寺田原町"},"9220023":{"post_code":"9220023","prefecture":"ISHIKAWA KEN","city":"KAGA SHI","town":"DAISHOJI DAIMYODAKEMACHI","perfecture_jp":"石川県","jp_add_1":"加賀市","jp_add_2":"大聖寺大名竹町"},"9220035":{"post_code":"9220035","prefecture":"ISHIKAWA KEN","city":"KAGA SHI","town":"DAISHOJI TEPPOMACHI","perfecture_jp":"石川県","jp_add_1":"加賀市","jp_add_2":"大聖寺鉄砲町"},"9220054":{"post_code":"9220054","prefecture":"ISHIKAWA KEN","city":"KAGA SHI","town":"DAISHOJI TERAMACHI","perfecture_jp":"石川県","jp_add_1":"加賀市","jp_add_2":"大聖寺寺町"},"9220007":{"post_code":"9220007","prefecture":"ISHIKAWA KEN","city":"KAGA SHI","town":"DAISHOJI TENJINSHITAMACHI","perfecture_jp":"石川県","jp_add_1":"加賀市","jp_add_2":"大聖寺天神下町"},"9220066":{"post_code":"9220066","prefecture":"ISHIKAWA KEN","city":"KAGA SHI","town":"DAISHOJI TONOMACHI","perfecture_jp":"石川県","jp_add_1":"加賀市","jp_add_2":"大聖寺殿町"},"9220804":{"post_code":"9220804","prefecture":"ISHIKAWA KEN","city":"KAGA SHI","town":"DAISHOJI NAKASHIMMICHI","perfecture_jp":"石川県","jp_add_1":"加賀市","jp_add_2":"大聖寺中新道"},"9220051":{"post_code":"9220051","prefecture":"ISHIKAWA KEN","city":"KAGA SHI","town":"DAISHOJI NAKACHO","perfecture_jp":"石川県","jp_add_1":"加賀市","jp_add_2":"大聖寺仲町"},"9220047":{"post_code":"9220047","prefecture":"ISHIKAWA KEN","city":"KAGA SHI","town":"DAISHOJI NAKAMACHI","perfecture_jp":"石川県","jp_add_1":"加賀市","jp_add_2":"大聖寺中町"},"9220024":{"post_code":"9220024","prefecture":"ISHIKAWA KEN","city":"KAGA SHI","town":"DAISHOJI NAGAMACHI","perfecture_jp":"石川県","jp_add_1":"加賀市","jp_add_2":"大聖寺永町"},"9220862":{"post_code":"9220862","prefecture":"ISHIKAWA KEN","city":"KAGA SHI","town":"DAISHOJI NISHIKICHO","perfecture_jp":"石川県","jp_add_1":"加賀市","jp_add_2":"大聖寺錦町"},"9220864":{"post_code":"9220864","prefecture":"ISHIKAWA KEN","city":"KAGA SHI","town":"DAISHOJI NISHISAKAEMACHI","perfecture_jp":"石川県","jp_add_1":"加賀市","jp_add_2":"大聖寺西栄町"},"9220865":{"post_code":"9220865","prefecture":"ISHIKAWA KEN","city":"KAGA SHI","town":"DAISHOJI NISHICHO","perfecture_jp":"石川県","jp_add_1":"加賀市","jp_add_2":"大聖寺西町"},"9220057":{"post_code":"9220057","prefecture":"ISHIKAWA KEN","city":"KAGA SHI","town":"DAISHOJI HACHIKEMMICHI","perfecture_jp":"石川県","jp_add_1":"加賀市","jp_add_2":"大聖寺八間道"},"9220048":{"post_code":"9220048","prefecture":"ISHIKAWA KEN","city":"KAGA SHI","town":"DAISHOJI BABAMACHI","perfecture_jp":"石川県","jp_add_1":"加賀市","jp_add_2":"大聖寺馬場町"},"9220067":{"post_code":"9220067","prefecture":"ISHIKAWA KEN","city":"KAGA SHI","town":"DAISHOJI BAMBACHO","perfecture_jp":"石川県","jp_add_1":"加賀市","jp_add_2":"大聖寺番場町"},"9220816":{"post_code":"9220816","prefecture":"ISHIKAWA KEN","city":"KAGA SHI","town":"DAISHOJI HIGASHICHO","perfecture_jp":"石川県","jp_add_1":"加賀市","jp_add_2":"大聖寺東町"},"9220044":{"post_code":"9220044","prefecture":"ISHIKAWA KEN","city":"KAGA SHI","town":"DAISHOJI HIGASHIYOKOMACHI","perfecture_jp":"石川県","jp_add_1":"加賀市","jp_add_2":"大聖寺東横町"},"9220052":{"post_code":"9220052","prefecture":"ISHIKAWA KEN","city":"KAGA SHI","town":"DAISHOJI FUKUDAMACHI","perfecture_jp":"石川県","jp_add_1":"加賀市","jp_add_2":"大聖寺福田町"},"9220006":{"post_code":"9220006","prefecture":"ISHIKAWA KEN","city":"KAGA SHI","town":"DAISHOJI FUJINOKIMACHI","perfecture_jp":"石川県","jp_add_1":"加賀市","jp_add_2":"大聖寺藤ノ木町"},"9220033":{"post_code":"9220033","prefecture":"ISHIKAWA KEN","city":"KAGA SHI","town":"DAISHOJI HOKKEBOMACHI","perfecture_jp":"石川県","jp_add_1":"加賀市","jp_add_2":"大聖寺法華坊町"},"9220041":{"post_code":"9220041","prefecture":"ISHIKAWA KEN","city":"KAGA SHI","town":"DAISHOJI HOMMACHI","perfecture_jp":"石川県","jp_add_1":"加賀市","jp_add_2":"大聖寺本町"},"9220062":{"post_code":"9220062","prefecture":"ISHIKAWA KEN","city":"KAGA SHI","town":"DAISHOJI MATSUGANECHO","perfecture_jp":"石川県","jp_add_1":"加賀市","jp_add_2":"大聖寺松ケ根町"},"9220853":{"post_code":"9220853","prefecture":"ISHIKAWA KEN","city":"KAGA SHI","town":"DAISHOJI MITSUMACHI","perfecture_jp":"石川県","jp_add_1":"加賀市","jp_add_2":"大聖寺三ツ町"},"9220852":{"post_code":"9220852","prefecture":"ISHIKAWA KEN","city":"KAGA SHI","town":"DAISHOJI MIDORIGAOKA","perfecture_jp":"石川県","jp_add_1":"加賀市","jp_add_2":"大聖寺緑ケ丘"},"9220811":{"post_code":"9220811","prefecture":"ISHIKAWA KEN","city":"KAGA SHI","town":"DAISHOJI MINAMICHO","perfecture_jp":"石川県","jp_add_1":"加賀市","jp_add_2":"大聖寺南町"},"9220025":{"post_code":"9220025","prefecture":"ISHIKAWA KEN","city":"KAGA SHI","town":"DAISHOJI MIMIKIYAMANAKACHO","perfecture_jp":"石川県","jp_add_1":"加賀市","jp_add_2":"大聖寺耳聞山仲町"},"9220027":{"post_code":"9220027","prefecture":"ISHIKAWA KEN","city":"KAGA SHI","town":"DAISHOJI MIMIKIYAMAMACHI","perfecture_jp":"石川県","jp_add_1":"加賀市","jp_add_2":"大聖寺耳聞山町"},"9220038":{"post_code":"9220038","prefecture":"ISHIKAWA KEN","city":"KAGA SHI","town":"DAISHOJI YAMADAMACHI","perfecture_jp":"石川県","jp_add_1":"加賀市","jp_add_2":"大聖寺山田町"},"9220813":{"post_code":"9220813","prefecture":"ISHIKAWA KEN","city":"KAGA SHI","town":"DAISHOJI YUMICHO","perfecture_jp":"石川県","jp_add_1":"加賀市","jp_add_2":"大聖寺弓町"},"9220843":{"post_code":"9220843","prefecture":"ISHIKAWA KEN","city":"KAGA SHI","town":"DAIDOMACHI","perfecture_jp":"石川県","jp_add_1":"加賀市","jp_add_2":"大同町"},"9220562":{"post_code":"9220562","prefecture":"ISHIKAWA KEN","city":"KAGA SHI","town":"TAKAOMACHI","perfecture_jp":"石川県","jp_add_1":"加賀市","jp_add_2":"高尾町"},"9220301":{"post_code":"9220301","prefecture":"ISHIKAWA KEN","city":"KAGA SHI","town":"TAKATSUKAMACHI","perfecture_jp":"石川県","jp_add_1":"加賀市","jp_add_2":"高塚町"},"9220552":{"post_code":"9220552","prefecture":"ISHIKAWA KEN","city":"KAGA SHI","town":"TAJIRIMACHI","perfecture_jp":"石川県","jp_add_1":"加賀市","jp_add_2":"田尻町"},"9220855":{"post_code":"9220855","prefecture":"ISHIKAWA KEN","city":"KAGA SHI","town":"TACHIBANAMACHI","perfecture_jp":"石川県","jp_add_1":"加賀市","jp_add_2":"橘町"},"9220313":{"post_code":"9220313","prefecture":"ISHIKAWA KEN","city":"KAGA SHI","town":"CHOKUSHIMACHI","perfecture_jp":"石川県","jp_add_1":"加賀市","jp_add_2":"勅使町"},"9220333":{"post_code":"9220333","prefecture":"ISHIKAWA KEN","city":"KAGA SHI","town":"TSUBAKURAMACHI","perfecture_jp":"石川県","jp_add_1":"加賀市","jp_add_2":"津波倉町"},"9220405":{"post_code":"9220405","prefecture":"ISHIKAWA KEN","city":"KAGA SHI","town":"TEZUKAMACHI","perfecture_jp":"石川県","jp_add_1":"加賀市","jp_add_2":"手塚町"},"9220426":{"post_code":"9220426","prefecture":"ISHIKAWA KEN","city":"KAGA SHI","town":"TENNICHIMACHI","perfecture_jp":"石川県","jp_add_1":"加賀市","jp_add_2":"天日町"},"9220427":{"post_code":"9220427","prefecture":"ISHIKAWA KEN","city":"KAGA SHI","town":"TOKIWADAI","perfecture_jp":"石川県","jp_add_1":"加賀市","jp_add_2":"ときわ台"},"9220832":{"post_code":"9220832","prefecture":"ISHIKAWA KEN","city":"KAGA SHI","town":"DODOMACHI","perfecture_jp":"石川県","jp_add_1":"加賀市","jp_add_2":"百々町"},"9220263":{"post_code":"9220263","prefecture":"ISHIKAWA KEN","city":"KAGA SHI","town":"TONOMACHI","perfecture_jp":"石川県","jp_add_1":"加賀市","jp_add_2":"塔尾町"},"9220421":{"post_code":"9220421","prefecture":"ISHIKAWA KEN","city":"KAGA SHI","town":"TOMITSUKAMACHI","perfecture_jp":"石川県","jp_add_1":"加賀市","jp_add_2":"冨塚町"},"9220306":{"post_code":"9220306","prefecture":"ISHIKAWA KEN","city":"KAGA SHI","town":"NAKAJIMAMACHI","perfecture_jp":"石川県","jp_add_1":"加賀市","jp_add_2":"中島町"},"9220014":{"post_code":"9220014","prefecture":"ISHIKAWA KEN","city":"KAGA SHI","town":"NAKADAIMACHI","perfecture_jp":"石川県","jp_add_1":"加賀市","jp_add_2":"中代町"},"9220857":{"post_code":"9220857","prefecture":"ISHIKAWA KEN","city":"KAGA SHI","town":"NAGAIMACHI","perfecture_jp":"石川県","jp_add_1":"加賀市","jp_add_2":"永井町"},"9220324":{"post_code":"9220324","prefecture":"ISHIKAWA KEN","city":"KAGA SHI","town":"NANKAICHISHIMMACHI","perfecture_jp":"石川県","jp_add_1":"加賀市","jp_add_2":"七日市新町"},"9220335":{"post_code":"9220335","prefecture":"ISHIKAWA KEN","city":"KAGA SHI","town":"NANKAICHIMACHI","perfecture_jp":"石川県","jp_add_1":"加賀市","jp_add_2":"七日市町"},"9220821":{"post_code":"9220821","prefecture":"ISHIKAWA KEN","city":"KAGA SHI","town":"NANGOMACHI","perfecture_jp":"石川県","jp_add_1":"加賀市","jp_add_2":"南郷町"},"9220334":{"post_code":"9220334","prefecture":"ISHIKAWA KEN","city":"KAGA SHI","town":"NISHIJIMAMACHI","perfecture_jp":"石川県","jp_add_1":"加賀市","jp_add_2":"西島町"},"9220433":{"post_code":"9220433","prefecture":"ISHIKAWA KEN","city":"KAGA SHI","town":"NISHIYAMADAMACHI","perfecture_jp":"石川県","jp_add_1":"加賀市","jp_add_2":"西山田町"},"9220443":{"post_code":"9220443","prefecture":"ISHIKAWA KEN","city":"KAGA SHI","town":"NODAMACHI","perfecture_jp":"石川県","jp_add_1":"加賀市","jp_add_2":"野田町"},"9220437":{"post_code":"9220437","prefecture":"ISHIKAWA KEN","city":"KAGA SHI","town":"HAKUSANDAI","perfecture_jp":"石川県","jp_add_1":"加賀市","jp_add_2":"白山台"},"9220844":{"post_code":"9220844","prefecture":"ISHIKAWA KEN","city":"KAGA SHI","town":"HAKUBODAIMACHI","perfecture_jp":"石川県","jp_add_1":"加賀市","jp_add_2":"白望台町"},"9220303":{"post_code":"9220303","prefecture":"ISHIKAWA KEN","city":"KAGA SHI","town":"HAKOMIYAMACHI","perfecture_jp":"石川県","jp_add_1":"加賀市","jp_add_2":"箱宮町"},"9220554":{"post_code":"9220554","prefecture":"ISHIKAWA KEN","city":"KAGA SHI","town":"HASHITATEMACHI","perfecture_jp":"石川県","jp_add_1":"加賀市","jp_add_2":"橋立町"},"9220432":{"post_code":"9220432","prefecture":"ISHIKAWA KEN","city":"KAGA SHI","town":"HIGASHIYAMADAMACHI","perfecture_jp":"石川県","jp_add_1":"加賀市","jp_add_2":"東山田町"},"9220824":{"post_code":"9220824","prefecture":"ISHIKAWA KEN","city":"KAGA SHI","town":"HINOYAMACHI","perfecture_jp":"石川県","jp_add_1":"加賀市","jp_add_2":"日谷町"},"9220566":{"post_code":"9220566","prefecture":"ISHIKAWA KEN","city":"KAGA SHI","town":"FUKATAMACHI","perfecture_jp":"石川県","jp_add_1":"加賀市","jp_add_2":"深田町"},"9220325":{"post_code":"9220325","prefecture":"ISHIKAWA KEN","city":"KAGA SHI","town":"FUTAGOZUKAMACHI","perfecture_jp":"石川県","jp_add_1":"加賀市","jp_add_2":"二子塚町"},"9220267":{"post_code":"9220267","prefecture":"ISHIKAWA KEN","city":"KAGA SHI","town":"FUTATSUYAMACHI","perfecture_jp":"石川県","jp_add_1":"加賀市","jp_add_2":"二ツ屋町"},"9220304":{"post_code":"9220304","prefecture":"ISHIKAWA KEN","city":"KAGA SHI","town":"BUNGYOMACHI","perfecture_jp":"石川県","jp_add_1":"加賀市","jp_add_2":"分校町"},"9220274":{"post_code":"9220274","prefecture":"ISHIKAWA KEN","city":"KAGA SHI","town":"BESSHOMACHI","perfecture_jp":"石川県","jp_add_1":"加賀市","jp_add_2":"別所町"},"9220275":{"post_code":"9220275","prefecture":"ISHIKAWA KEN","city":"KAGA SHI","town":"BESSHOMACHI(FUJIMIGAOKA)","perfecture_jp":"石川県","jp_add_1":"加賀市","jp_add_2":"別所町"},"9220015":{"post_code":"9220015","prefecture":"ISHIKAWA KEN","city":"KAGA SHI","town":"HOGAMACHI","perfecture_jp":"石川県","jp_add_1":"加賀市","jp_add_2":"保賀町"},"9220835":{"post_code":"9220835","prefecture":"ISHIKAWA KEN","city":"KAGA SHI","town":"HOSOTSUBOMACHI","perfecture_jp":"石川県","jp_add_1":"加賀市","jp_add_2":"細坪町"},"9220436":{"post_code":"9220436","prefecture":"ISHIKAWA KEN","city":"KAGA SHI","town":"MATSUGAOKA","perfecture_jp":"石川県","jp_add_1":"加賀市","jp_add_2":"松が丘"},"9220316":{"post_code":"9220316","prefecture":"ISHIKAWA KEN","city":"KAGA SHI","town":"MATSUYAMAMACHI","perfecture_jp":"石川県","jp_add_1":"加賀市","jp_add_2":"松山町"},"9220854":{"post_code":"9220854","prefecture":"ISHIKAWA KEN","city":"KAGA SHI","town":"MIKIMACHI","perfecture_jp":"石川県","jp_add_1":"加賀市","jp_add_2":"三木町"},"9220551":{"post_code":"9220551","prefecture":"ISHIKAWA KEN","city":"KAGA SHI","town":"MISAKIMACHI","perfecture_jp":"石川県","jp_add_1":"加賀市","jp_add_2":"美岬町"},"9220265":{"post_code":"9220265","prefecture":"ISHIKAWA KEN","city":"KAGA SHI","town":"MIZUTAMARUMACHI","perfecture_jp":"石川県","jp_add_1":"加賀市","jp_add_2":"水田丸町"},"9220834":{"post_code":"9220834","prefecture":"ISHIKAWA KEN","city":"KAGA SHI","town":"MITANIGAOKA","perfecture_jp":"石川県","jp_add_1":"加賀市","jp_add_2":"美谷が丘"},"9220444":{"post_code":"9220444","prefecture":"ISHIKAWA KEN","city":"KAGA SHI","town":"MIYAJIMACHI","perfecture_jp":"石川県","jp_add_1":"加賀市","jp_add_2":"宮地町"},"9220561":{"post_code":"9220561","prefecture":"ISHIKAWA KEN","city":"KAGA SHI","town":"MIYAMACHI","perfecture_jp":"石川県","jp_add_1":"加賀市","jp_add_2":"宮町"},"9220321":{"post_code":"9220321","prefecture":"ISHIKAWA KEN","city":"KAGA SHI","town":"MORIMACHI","perfecture_jp":"石川県","jp_add_1":"加賀市","jp_add_2":"森町"},"9220242":{"post_code":"9220242","prefecture":"ISHIKAWA KEN","city":"KAGA SHI","town":"YAMASHIRONSEN","perfecture_jp":"石川県","jp_add_1":"加賀市","jp_add_2":"山代温泉"},"9220247":{"post_code":"9220247","prefecture":"ISHIKAWA KEN","city":"KAGA SHI","town":"YAMASHIRONSEN(UWAMIYA)","perfecture_jp":"石川県","jp_add_1":"加賀市","jp_add_2":"山代温泉"},"9220254":{"post_code":"9220254","prefecture":"ISHIKAWA KEN","city":"KAGA SHI","town":"YAMASHIRONSEN(ONSENDORI)","perfecture_jp":"石川県","jp_add_1":"加賀市","jp_add_2":"山代温泉"},"9220257":{"post_code":"9220257","prefecture":"ISHIKAWA KEN","city":"KAGA SHI","town":"YAMASHIRONSEN (KIKYOGAOKA)","perfecture_jp":"石川県","jp_add_1":"加賀市","jp_add_2":"山代温泉"},"9220252":{"post_code":"9220252","prefecture":"ISHIKAWA KEN","city":"KAGA SHI","town":"YAMASHIRONSEN(KUTANIMACHI)","perfecture_jp":"石川県","jp_add_1":"加賀市","jp_add_2":"山代温泉"},"9220255":{"post_code":"9220255","prefecture":"ISHIKAWA KEN","city":"KAGA SHI","town":"YAMASHIRONSEN(SAIWAICHO)","perfecture_jp":"石川県","jp_add_1":"加賀市","jp_add_2":"山代温泉"},"9220244":{"post_code":"9220244","prefecture":"ISHIKAWA KEN","city":"KAGA SHI","town":"YAMASHIRONSEN(SHIMMEICHO)","perfecture_jp":"石川県","jp_add_1":"加賀市","jp_add_2":"山代温泉"},"9220246":{"post_code":"9220246","prefecture":"ISHIKAWA KEN","city":"KAGA SHI","town":"YAMASHIRONSEN(HACHIMAN)","perfecture_jp":"石川県","jp_add_1":"加賀市","jp_add_2":"山代温泉"},"9220256":{"post_code":"9220256","prefecture":"ISHIKAWA KEN","city":"KAGA SHI","town":"YAMASHIRONSEN(BANSHOENDORI)","perfecture_jp":"石川県","jp_add_1":"加賀市","jp_add_2":"山代温泉"},"9220253":{"post_code":"9220253","prefecture":"ISHIKAWA KEN","city":"KAGA SHI","town":"YAMASHIRONSEN(HIGASHIYAMAMACHI)","perfecture_jp":"石川県","jp_add_1":"加賀市","jp_add_2":"山代温泉"},"9220243":{"post_code":"9220243","prefecture":"ISHIKAWA KEN","city":"KAGA SHI","town":"YAMASHIRONSEN (HOKUBU)","perfecture_jp":"石川県","jp_add_1":"加賀市","jp_add_2":"山代温泉"},"9220258":{"post_code":"9220258","prefecture":"ISHIKAWA KEN","city":"KAGA SHI","town":"YAMASHIRONSEN(MINAMICHO)","perfecture_jp":"石川県","jp_add_1":"加賀市","jp_add_2":"山代温泉"},"9220245":{"post_code":"9220245","prefecture":"ISHIKAWA KEN","city":"KAGA SHI","town":"YAMASHIRONSEN (YAMASEDAI)","perfecture_jp":"石川県","jp_add_1":"加賀市","jp_add_2":"山代温泉"},"9220251":{"post_code":"9220251","prefecture":"ISHIKAWA KEN","city":"KAGA SHI","town":"YAMASHIRONSEN(YAMATOMACHI)","perfecture_jp":"石川県","jp_add_1":"加賀市","jp_add_2":"山代温泉"},"9220250":{"post_code":"9220250","prefecture":"ISHIKAWA KEN","city":"KAGA SHI","town":"YAMASHIRONSENSAKURAMACHI","perfecture_jp":"石川県","jp_add_1":"加賀市","jp_add_2":"山代温泉桜町"},"9220431":{"post_code":"9220431","prefecture":"ISHIKAWA KEN","city":"KAGA SHI","town":"YAMADAMACHI","perfecture_jp":"石川県","jp_add_1":"加賀市","jp_add_2":"山田町"},"9220104":{"post_code":"9220104","prefecture":"ISHIKAWA KEN","city":"KAGA SHI","town":"YAMANAKAONSEN ASAHIMACHI","perfecture_jp":"石川県","jp_add_1":"加賀市","jp_add_2":"山中温泉旭町"},"9220134":{"post_code":"9220134","prefecture":"ISHIKAWA KEN","city":"KAGA SHI","town":"YAMANAKAONSEN SUGODANIMACHI","perfecture_jp":"石川県","jp_add_1":"加賀市","jp_add_2":"山中温泉荒谷町"},"9220105":{"post_code":"9220105","prefecture":"ISHIKAWA KEN","city":"KAGA SHI","town":"YAMANAKAONSEN IZUMIMACHI","perfecture_jp":"石川県","jp_add_1":"加賀市","jp_add_2":"山中温泉泉町"},"9220135":{"post_code":"9220135","prefecture":"ISHIKAWA KEN","city":"KAGA SHI","town":"YAMANAKAONSEN OZUCHIMACHI","perfecture_jp":"石川県","jp_add_1":"加賀市","jp_add_2":"山中温泉今立町"},"9220117":{"post_code":"9220117","prefecture":"ISHIKAWA KEN","city":"KAGA SHI","town":"YAMANAKAONSEN UENOMACHI(SONOTA)","perfecture_jp":"石川県","jp_add_1":"加賀市","jp_add_2":"山中温泉上野町"},"9220107":{"post_code":"9220107","prefecture":"ISHIKAWA KEN","city":"KAGA SHI","town":"YAMANAKAONSEN UWABARAMACHI(SHITSUKI","perfecture_jp":"石川県","jp_add_1":"加賀市","jp_add_2":"山中温泉上原町"},"9220108":{"post_code":"9220108","prefecture":"ISHIKAWA KEN","city":"KAGA SHI","town":"YAMANAKAONSEN UWABARAMACHI(SHIRASAG","perfecture_jp":"石川県","jp_add_1":"加賀市","jp_add_2":"山中温泉上原町"},"9220106":{"post_code":"9220106","prefecture":"ISHIKAWA KEN","city":"KAGA SHI","town":"YAMANAKAONSEN UWABARAMACHI(SONOTA)","perfecture_jp":"石川県","jp_add_1":"加賀市","jp_add_2":"山中温泉上原町"},"9220126":{"post_code":"9220126","prefecture":"ISHIKAWA KEN","city":"KAGA SHI","town":"YAMANAKAONSEN KAJIKAMACHI","perfecture_jp":"石川県","jp_add_1":"加賀市","jp_add_2":"山中温泉河鹿町"},"9220137":{"post_code":"9220137","prefecture":"ISHIKAWA KEN","city":"KAGA SHI","town":"YAMANAKAONSEN WAGATANIMACHI","perfecture_jp":"石川県","jp_add_1":"加賀市","jp_add_2":"山中温泉風谷町"},"9220118":{"post_code":"9220118","prefecture":"ISHIKAWA KEN","city":"KAGA SHI","town":"YAMANAKAONSEN KAMIYADAI","perfecture_jp":"石川県","jp_add_1":"加賀市","jp_add_2":"山中温泉加美谷台"},"9220138":{"post_code":"9220138","prefecture":"ISHIKAWA KEN","city":"KAGA SHI","town":"YAMANAKAONSEN KAYANOMACHI","perfecture_jp":"石川県","jp_add_1":"加賀市","jp_add_2":"山中温泉栢野町"},"9220136":{"post_code":"9220136","prefecture":"ISHIKAWA KEN","city":"KAGA SHI","town":"YAMANAKAONSEN MANAGOMACHI","perfecture_jp":"石川県","jp_add_1":"加賀市","jp_add_2":"山中温泉枯淵町"},"9220128":{"post_code":"9220128","prefecture":"ISHIKAWA KEN","city":"KAGA SHI","town":"YAMANAKAONSEN KOROGIMACHI","perfecture_jp":"石川県","jp_add_1":"加賀市","jp_add_2":"山中温泉こおろぎ町"},"9220125":{"post_code":"9220125","prefecture":"ISHIKAWA KEN","city":"KAGA SHI","town":"YAMANAKAONSEN SAKAEMACHI","perfecture_jp":"石川県","jp_add_1":"加賀市","jp_add_2":"山中温泉栄町"},"9220131":{"post_code":"9220131","prefecture":"ISHIKAWA KEN","city":"KAGA SHI","town":"YAMANAKAONSEN SHIJUKUIMMACHI","perfecture_jp":"石川県","jp_add_1":"加賀市","jp_add_2":"山中温泉四十九院町"},"9220127":{"post_code":"9220127","prefecture":"ISHIKAWA KEN","city":"KAGA SHI","town":"YAMANAKAONSEN SHIMOTANIMACHI","perfecture_jp":"石川県","jp_add_1":"加賀市","jp_add_2":"山中温泉下谷町"},"9220139":{"post_code":"9220139","prefecture":"ISHIKAWA KEN","city":"KAGA SHI","town":"YAMANAKAONSEN SUGATANIMACHI","perfecture_jp":"石川県","jp_add_1":"加賀市","jp_add_2":"山中温泉菅谷町"},"9220133":{"post_code":"9220133","prefecture":"ISHIKAWA KEN","city":"KAGA SHI","town":"YAMANAKAONSEN TAKIMACHI","perfecture_jp":"石川県","jp_add_1":"加賀市","jp_add_2":"山中温泉滝町"},"9220111":{"post_code":"9220111","prefecture":"ISHIKAWA KEN","city":"KAGA SHI","town":"YAMANAKAONSEN TSUKATANIMACHI","perfecture_jp":"石川県","jp_add_1":"加賀市","jp_add_2":"山中温泉塚谷町"},"9220101":{"post_code":"9220101","prefecture":"ISHIKAWA KEN","city":"KAGA SHI","town":"YAMANAKAONSEN NITEMMACHI","perfecture_jp":"石川県","jp_add_1":"加賀市","jp_add_2":"山中温泉中田町"},"9220132":{"post_code":"9220132","prefecture":"ISHIKAWA KEN","city":"KAGA SHI","town":"YAMANAKAONSEN NAKATSUHARAMACHI","perfecture_jp":"石川県","jp_add_1":"加賀市","jp_add_2":"山中温泉中津原町"},"9220112":{"post_code":"9220112","prefecture":"ISHIKAWA KEN","city":"KAGA SHI","town":"YAMANAKAONSEN NISHIKATSURAGIMACHI","perfecture_jp":"石川県","jp_add_1":"加賀市","jp_add_2":"山中温泉西桂木町"},"9220116":{"post_code":"9220116","prefecture":"ISHIKAWA KEN","city":"KAGA SHI","town":"YAMANAKAONSEN HAKUSAMMACHI","perfecture_jp":"石川県","jp_add_1":"加賀市","jp_add_2":"山中温泉白山町"},"9220102":{"post_code":"9220102","prefecture":"ISHIKAWA KEN","city":"KAGA SHI","town":"YAMANAKAONSEN HASEDAMACHI (HINODEDA","perfecture_jp":"石川県","jp_add_1":"加賀市","jp_add_2":"山中温泉長谷田町"},"9220103":{"post_code":"9220103","prefecture":"ISHIKAWA KEN","city":"KAGA SHI","town":"YAMANAKAONSEN HASEDAMACHI(SONOTA)","perfecture_jp":"石川県","jp_add_1":"加賀市","jp_add_2":"山中温泉長谷田町"},"9220113":{"post_code":"9220113","prefecture":"ISHIKAWA KEN","city":"KAGA SHI","town":"YAMANAKAONSEN HIGASHIKATSURAGIMACHI","perfecture_jp":"石川県","jp_add_1":"加賀市","jp_add_2":"山中温泉東桂木町"},"9220114":{"post_code":"9220114","prefecture":"ISHIKAWA KEN","city":"KAGA SHI","town":"YAMANAKAONSEN HIGASHIMACHI","perfecture_jp":"石川県","jp_add_1":"加賀市","jp_add_2":"山中温泉東町"},"9220121":{"post_code":"9220121","prefecture":"ISHIKAWA KEN","city":"KAGA SHI","town":"YAMANAKAONSEN FUJIMIMACHI","perfecture_jp":"石川県","jp_add_1":"加賀市","jp_add_2":"山中温泉富士見町"},"9220115":{"post_code":"9220115","prefecture":"ISHIKAWA KEN","city":"KAGA SHI","town":"YAMANAKAONSEN HOMMACHI","perfecture_jp":"石川県","jp_add_1":"加賀市","jp_add_2":"山中温泉本町"},"9220129":{"post_code":"9220129","prefecture":"ISHIKAWA KEN","city":"KAGA SHI","town":"YAMANAKAONSEN MINAMIMACHI","perfecture_jp":"石川県","jp_add_1":"加賀市","jp_add_2":"山中温泉南町"},"9220109":{"post_code":"9220109","prefecture":"ISHIKAWA KEN","city":"KAGA SHI","town":"YAMANAKAONSEN MIYANOMORI","perfecture_jp":"石川県","jp_add_1":"加賀市","jp_add_2":"山中温泉宮の杜"},"9220123":{"post_code":"9220123","prefecture":"ISHIKAWA KEN","city":"KAGA SHI","town":"YAMANAKAONSEN YAKUSHIMACHI","perfecture_jp":"石川県","jp_add_1":"加賀市","jp_add_2":"山中温泉薬師町"},"9220124":{"post_code":"9220124","prefecture":"ISHIKAWA KEN","city":"KAGA SHI","town":"YAMANAKAONSEN YUNODEMACHI","perfecture_jp":"石川県","jp_add_1":"加賀市","jp_add_2":"山中温泉湯の出町"},"9220122":{"post_code":"9220122","prefecture":"ISHIKAWA KEN","city":"KAGA SHI","town":"YAMANAKAONSEN YUNOHOMMACHI","perfecture_jp":"石川県","jp_add_1":"加賀市","jp_add_2":"山中温泉湯の本町"},"9220563":{"post_code":"9220563","prefecture":"ISHIKAWA KEN","city":"KAGA SHI","town":"YUTAKAMACHI","perfecture_jp":"石川県","jp_add_1":"加賀市","jp_add_2":"豊町"},"9220422":{"post_code":"9220422","prefecture":"ISHIKAWA KEN","city":"KAGA SHI","town":"YUMINAMIMACHI","perfecture_jp":"石川県","jp_add_1":"加賀市","jp_add_2":"弓波町"},"9220336":{"post_code":"9220336","prefecture":"ISHIKAWA KEN","city":"KAGA SHI","town":"YOKAICHIMACHI","perfecture_jp":"石川県","jp_add_1":"加賀市","jp_add_2":"八日市町"},"9220261":{"post_code":"9220261","prefecture":"ISHIKAWA KEN","city":"KAGA SHI","town":"YOKOGITAMACHI","perfecture_jp":"石川県","jp_add_1":"加賀市","jp_add_2":"横北町"},"9220672":{"post_code":"9220672","prefecture":"ISHIKAWA KEN","city":"KAGA SHI","town":"YOSHIZAKIMACHI","perfecture_jp":"石川県","jp_add_1":"加賀市","jp_add_2":"吉崎町"},"9220323":{"post_code":"9220323","prefecture":"ISHIKAWA KEN","city":"KAGA SHI","town":"WAKABADAI","perfecture_jp":"石川県","jp_add_1":"加賀市","jp_add_2":"若葉台"},"9220679":{"post_code":"9220679","prefecture":"FUKUI KEN","city":"AWARA SHI","town":"YOSHIZAKI","perfecture_jp":"福井県","jp_add_1":"あわら市","jp_add_2":"吉崎"}}