{"9230000":{"post_code":"9230000","prefecture":"ISHIKAWA KEN","city":"KOMATSU SHI","town":"IKANIKEISAIGANAIBAAI","perfecture_jp":"石川県","jp_add_1":"小松市","jp_add_2":""},"9230946":{"post_code":"9230946","prefecture":"ISHIKAWA KEN","city":"KOMATSU SHI","town":"AIOIMACHI","perfecture_jp":"石川県","jp_add_1":"小松市","jp_add_2":"相生町"},"9230967":{"post_code":"9230967","prefecture":"ISHIKAWA KEN","city":"KOMATSU SHI","town":"AOJICHO","perfecture_jp":"石川県","jp_add_1":"小松市","jp_add_2":"青路町"},"9230185":{"post_code":"9230185","prefecture":"ISHIKAWA KEN","city":"KOMATSU SHI","town":"AKAZEMACHI","perfecture_jp":"石川県","jp_add_1":"小松市","jp_add_2":"赤瀬町"},"9230187":{"post_code":"9230187","prefecture":"ISHIKAWA KEN","city":"KOMATSU SHI","town":"AGARIEMACHI","perfecture_jp":"石川県","jp_add_1":"小松市","jp_add_2":"上リ江町"},"9230035":{"post_code":"9230035","prefecture":"ISHIKAWA KEN","city":"KOMATSU SHI","town":"AKEBONOMACHI","perfecture_jp":"石川県","jp_add_1":"小松市","jp_add_2":"あけぼの町"},"9230953":{"post_code":"9230953","prefecture":"ISHIKAWA KEN","city":"KOMATSU SHI","town":"ASAHIMACHI","perfecture_jp":"石川県","jp_add_1":"小松市","jp_add_2":"旭町"},"9230938":{"post_code":"9230938","prefecture":"ISHIKAWA KEN","city":"KOMATSU SHI","town":"ASHIDAMACHI","perfecture_jp":"石川県","jp_add_1":"小松市","jp_add_2":"芦田町"},"9230995":{"post_code":"9230995","prefecture":"ISHIKAWA KEN","city":"KOMATSU SHI","town":"ATAKASHIMMACHI","perfecture_jp":"石川県","jp_add_1":"小松市","jp_add_2":"安宅新町"},"9230003":{"post_code":"9230003","prefecture":"ISHIKAWA KEN","city":"KOMATSU SHI","town":"ATAKAMACHI","perfecture_jp":"石川県","jp_add_1":"小松市","jp_add_2":"安宅町"},"9230922":{"post_code":"9230922","prefecture":"ISHIKAWA KEN","city":"KOMATSU SHI","town":"AMEYAMACHI","perfecture_jp":"石川県","jp_add_1":"小松市","jp_add_2":"飴屋町"},"9230823":{"post_code":"9230823","prefecture":"ISHIKAWA KEN","city":"KOMATSU SHI","town":"ARAKIDAMACHI","perfecture_jp":"石川県","jp_add_1":"小松市","jp_add_2":"荒木田町"},"9230078":{"post_code":"9230078","prefecture":"ISHIKAWA KEN","city":"KOMATSU SHI","town":"NAKANOTOGEMACHI","perfecture_jp":"石川県","jp_add_1":"小松市","jp_add_2":"嵐町"},"9230032":{"post_code":"9230032","prefecture":"ISHIKAWA KEN","city":"KOMATSU SHI","town":"ARAYAMACHI","perfecture_jp":"石川県","jp_add_1":"小松市","jp_add_2":"荒屋町"},"9230864":{"post_code":"9230864","prefecture":"ISHIKAWA KEN","city":"KOMATSU SHI","town":"ARIAKEMACHI","perfecture_jp":"石川県","jp_add_1":"小松市","jp_add_2":"有明町"},"9230326":{"post_code":"9230326","prefecture":"ISHIKAWA KEN","city":"KOMATSU SHI","town":"AWAZUMACHI","perfecture_jp":"石川県","jp_add_1":"小松市","jp_add_2":"粟津温泉"},"9230943":{"post_code":"9230943","prefecture":"ISHIKAWA KEN","city":"KOMATSU SHI","town":"IKUSEIMACHI","perfecture_jp":"石川県","jp_add_1":"小松市","jp_add_2":"育成町"},"9230161":{"post_code":"9230161","prefecture":"ISHIKAWA KEN","city":"KOMATSU SHI","town":"IKENOJOMACHI","perfecture_jp":"石川県","jp_add_1":"小松市","jp_add_2":"池城町"},"9230901":{"post_code":"9230901","prefecture":"ISHIKAWA KEN","city":"KOMATSU SHI","town":"IZUMIMACHI","perfecture_jp":"石川県","jp_add_1":"小松市","jp_add_2":"泉町"},"9230813":{"post_code":"9230813","prefecture":"ISHIKAWA KEN","city":"KOMATSU SHI","town":"ITOMACHI","perfecture_jp":"石川県","jp_add_1":"小松市","jp_add_2":"糸町"},"9230015":{"post_code":"9230015","prefecture":"ISHIKAWA KEN","city":"KOMATSU SHI","town":"INUMARUMACHI","perfecture_jp":"石川県","jp_add_1":"小松市","jp_add_2":"犬丸町"},"9230316":{"post_code":"9230316","prefecture":"ISHIKAWA KEN","city":"KOMATSU SHI","town":"INOKUCHIMACHI","perfecture_jp":"石川県","jp_add_1":"小松市","jp_add_2":"井口町"},"9230964":{"post_code":"9230964","prefecture":"ISHIKAWA KEN","city":"KOMATSU SHI","town":"IMAEMACHI","perfecture_jp":"石川県","jp_add_1":"小松市","jp_add_2":"今江町"},"9230177":{"post_code":"9230177","prefecture":"ISHIKAWA KEN","city":"KOMATSU SHI","town":"IWAGAMIMACHI","perfecture_jp":"石川県","jp_add_1":"小松市","jp_add_2":"岩上町"},"9230073":{"post_code":"9230073","prefecture":"ISHIKAWA KEN","city":"KOMATSU SHI","town":"IWABUCHIMACHI","perfecture_jp":"石川県","jp_add_1":"小松市","jp_add_2":"岩渕町"},"9230063":{"post_code":"9230063","prefecture":"ISHIKAWA KEN","city":"KOMATSU SHI","town":"UGAWAMACHI","perfecture_jp":"石川県","jp_add_1":"小松市","jp_add_2":"鵜川町"},"9230908":{"post_code":"9230908","prefecture":"ISHIKAWA KEN","city":"KOMATSU SHI","town":"UKISHIROMACHI","perfecture_jp":"石川県","jp_add_1":"小松市","jp_add_2":"浮城町"},"9230993":{"post_code":"9230993","prefecture":"ISHIKAWA KEN","city":"KOMATSU SHI","town":"UKIYANAGIMACHI","perfecture_jp":"石川県","jp_add_1":"小松市","jp_add_2":"浮柳町"},"9230831":{"post_code":"9230831","prefecture":"ISHIKAWA KEN","city":"KOMATSU SHI","town":"UCHIKOSHIMACHI","perfecture_jp":"石川県","jp_add_1":"小松市","jp_add_2":"打越町"},"9230184":{"post_code":"9230184","prefecture":"ISHIKAWA KEN","city":"KOMATSU SHI","town":"UTSUGIMACHI","perfecture_jp":"石川県","jp_add_1":"小松市","jp_add_2":"打木町"},"9230023":{"post_code":"9230023","prefecture":"ISHIKAWA KEN","city":"KOMATSU SHI","town":"UMEDAMACHI","perfecture_jp":"石川県","jp_add_1":"小松市","jp_add_2":"梅田町"},"9230812":{"post_code":"9230812","prefecture":"ISHIKAWA KEN","city":"KOMATSU SHI","town":"KANAYAMACHI","perfecture_jp":"石川県","jp_add_1":"小松市","jp_add_2":"漆町"},"9230155":{"post_code":"9230155","prefecture":"ISHIKAWA KEN","city":"KOMATSU SHI","town":"ESASHIMACHI","perfecture_jp":"石川県","jp_add_1":"小松市","jp_add_2":"江指町"},"9230853":{"post_code":"9230853","prefecture":"ISHIKAWA KEN","city":"KOMATSU SHI","town":"OGIMACHI","perfecture_jp":"石川県","jp_add_1":"小松市","jp_add_2":"扇町"},"9230973":{"post_code":"9230973","prefecture":"ISHIKAWA KEN","city":"KOMATSU SHI","town":"OGIHARAMACHI","perfecture_jp":"石川県","jp_add_1":"小松市","jp_add_2":"扇原町"},"9230911":{"post_code":"9230911","prefecture":"ISHIKAWA KEN","city":"KOMATSU SHI","town":"OKAWAMACHI","perfecture_jp":"石川県","jp_add_1":"小松市","jp_add_2":"大川町"},"9230001":{"post_code":"9230001","prefecture":"ISHIKAWA KEN","city":"KOMATSU SHI","town":"OSHIMAMACHI","perfecture_jp":"石川県","jp_add_1":"小松市","jp_add_2":"大島町"},"9230186":{"post_code":"9230186","prefecture":"ISHIKAWA KEN","city":"KOMATSU SHI","town":"OSUGIMACHI","perfecture_jp":"石川県","jp_add_1":"小松市","jp_add_2":"大杉町"},"9230156":{"post_code":"9230156","prefecture":"ISHIKAWA KEN","city":"KOMATSU SHI","town":"ONOMACHI","perfecture_jp":"石川県","jp_add_1":"小松市","jp_add_2":"大野町"},"9230861":{"post_code":"9230861","prefecture":"ISHIKAWA KEN","city":"KOMATSU SHI","town":"OKIMACHI","perfecture_jp":"石川県","jp_add_1":"小松市","jp_add_2":"沖町"},"9230172":{"post_code":"9230172","prefecture":"ISHIKAWA KEN","city":"KOMATSU SHI","town":"OGOYAMACHI","perfecture_jp":"石川県","jp_add_1":"小松市","jp_add_2":"尾小屋町"},"9230016":{"post_code":"9230016","prefecture":"ISHIKAWA KEN","city":"KOMATSU SHI","town":"OTACHIMACHI","perfecture_jp":"石川県","jp_add_1":"小松市","jp_add_2":"御館町"},"9230054":{"post_code":"9230054","prefecture":"ISHIKAWA KEN","city":"KOMATSU SHI","town":"ONOMACHI","perfecture_jp":"石川県","jp_add_1":"小松市","jp_add_2":"小野町"},"9230314":{"post_code":"9230314","prefecture":"ISHIKAWA KEN","city":"KOMATSU SHI","town":"OBISHIMACHI","perfecture_jp":"石川県","jp_add_1":"小松市","jp_add_2":"おびし町"},"9230805":{"post_code":"9230805","prefecture":"ISHIKAWA KEN","city":"KOMATSU SHI","town":"OMIYAMACHI","perfecture_jp":"石川県","jp_add_1":"小松市","jp_add_2":"御宮町"},"9230028":{"post_code":"9230028","prefecture":"ISHIKAWA KEN","city":"KOMATSU SHI","town":"KAKEHASHIMACHI","perfecture_jp":"石川県","jp_add_1":"小松市","jp_add_2":"梯町"},"9230341":{"post_code":"9230341","prefecture":"ISHIKAWA KEN","city":"KOMATSU SHI","town":"KASUGACHO","perfecture_jp":"石川県","jp_add_1":"小松市","jp_add_2":"春日町"},"9230074":{"post_code":"9230074","prefecture":"ISHIKAWA KEN","city":"KOMATSU SHI","town":"KATSURAMACHI","perfecture_jp":"石川県","jp_add_1":"小松市","jp_add_2":"桂町"},"9230171":{"post_code":"9230171","prefecture":"ISHIKAWA KEN","city":"KOMATSU SHI","town":"KANAGASOMACHI","perfecture_jp":"石川県","jp_add_1":"小松市","jp_add_2":"観音下町"},"9230154":{"post_code":"9230154","prefecture":"ISHIKAWA KEN","city":"KOMATSU SHI","town":"KANENOMACHI","perfecture_jp":"石川県","jp_add_1":"小松市","jp_add_2":"金野町"},"9230153":{"post_code":"9230153","prefecture":"ISHIKAWA KEN","city":"KOMATSU SHI","town":"KANAHIRAMACHI","perfecture_jp":"石川県","jp_add_1":"小松市","jp_add_2":"金平町"},"9230331":{"post_code":"9230331","prefecture":"ISHIKAWA KEN","city":"KOMATSU SHI","town":"KAMIARAYAMACHI","perfecture_jp":"石川県","jp_add_1":"小松市","jp_add_2":"上荒屋町"},"9230802":{"post_code":"9230802","prefecture":"ISHIKAWA KEN","city":"KOMATSU SHI","town":"KAMIKOMATSUMACHI","perfecture_jp":"石川県","jp_add_1":"小松市","jp_add_2":"上小松町"},"9230935":{"post_code":"9230935","prefecture":"ISHIKAWA KEN","city":"KOMATSU SHI","town":"KAMIDERAMACHI","perfecture_jp":"石川県","jp_add_1":"小松市","jp_add_2":"上寺町"},"9230027":{"post_code":"9230027","prefecture":"ISHIKAWA KEN","city":"KOMATSU SHI","town":"KAMIMAKIMACHI","perfecture_jp":"石川県","jp_add_1":"小松市","jp_add_2":"上牧町"},"9230077":{"post_code":"9230077","prefecture":"ISHIKAWA KEN","city":"KOMATSU SHI","town":"KAMIMUGIKUCHIMACHI","perfecture_jp":"石川県","jp_add_1":"小松市","jp_add_2":"上麦口町"},"9230955":{"post_code":"9230955","prefecture":"ISHIKAWA KEN","city":"KOMATSU SHI","town":"KAMIMOTORIMACHI","perfecture_jp":"石川県","jp_add_1":"小松市","jp_add_2":"上本折町"},"9230051":{"post_code":"9230051","prefecture":"ISHIKAWA KEN","city":"KOMATSU SHI","town":"KAMIYASATOMACHI","perfecture_jp":"石川県","jp_add_1":"小松市","jp_add_2":"上八里町"},"9230824":{"post_code":"9230824","prefecture":"ISHIKAWA KEN","city":"KOMATSU SHI","town":"KARUMIMACHI","perfecture_jp":"石川県","jp_add_1":"小松市","jp_add_2":"軽海町"},"9230044":{"post_code":"9230044","prefecture":"ISHIKAWA KEN","city":"KOMATSU SHI","town":"KAWABEMACHI","perfecture_jp":"石川県","jp_add_1":"小松市","jp_add_2":"川辺町"},"9230991":{"post_code":"9230991","prefecture":"ISHIKAWA KEN","city":"KOMATSU SHI","town":"KISOMACHI","perfecture_jp":"石川県","jp_add_1":"小松市","jp_add_2":"木曽町"},"9230851":{"post_code":"9230851","prefecture":"ISHIKAWA KEN","city":"KOMATSU SHI","town":"KITAASAIMACHI","perfecture_jp":"石川県","jp_add_1":"小松市","jp_add_2":"北浅井町"},"9230312":{"post_code":"9230312","prefecture":"ISHIKAWA KEN","city":"KOMATSU SHI","town":"KIBADAI","perfecture_jp":"石川県","jp_add_1":"小松市","jp_add_2":"木場台"},"9230311":{"post_code":"9230311","prefecture":"ISHIKAWA KEN","city":"KOMATSU SHI","town":"KIBAMACHI","perfecture_jp":"石川県","jp_add_1":"小松市","jp_add_2":"木場町"},"9230826":{"post_code":"9230826","prefecture":"ISHIKAWA KEN","city":"KOMATSU SHI","town":"KIBOGAOKA","perfecture_jp":"石川県","jp_add_1":"小松市","jp_add_2":"希望丘"},"9230918":{"post_code":"9230918","prefecture":"ISHIKAWA KEN","city":"KOMATSU SHI","town":"KYOMACHI","perfecture_jp":"石川県","jp_add_1":"小松市","jp_add_2":"京町"},"9230996":{"post_code":"9230996","prefecture":"ISHIKAWA KEN","city":"KOMATSU SHI","town":"KUSANOMACHI","perfecture_jp":"石川県","jp_add_1":"小松市","jp_add_2":"草野町"},"9230966":{"post_code":"9230966","prefecture":"ISHIKAWA KEN","city":"KOMATSU SHI","town":"KUSHICHAYAMACHI","perfecture_jp":"石川県","jp_add_1":"小松市","jp_add_2":"串茶屋町"},"9230965":{"post_code":"9230965","prefecture":"ISHIKAWA KEN","city":"KOMATSU SHI","town":"NODACHIMACHI","perfecture_jp":"石川県","jp_add_1":"小松市","jp_add_2":"串町"},"9230994":{"post_code":"9230994","prefecture":"ISHIKAWA KEN","city":"KOMATSU SHI","town":"KOGYODANCHI","perfecture_jp":"石川県","jp_add_1":"小松市","jp_add_2":"工業団地"},"9230053":{"post_code":"9230053","prefecture":"ISHIKAWA KEN","city":"KOMATSU SHI","town":"KODAMACHI","perfecture_jp":"石川県","jp_add_1":"小松市","jp_add_2":"河田町"},"9230822":{"post_code":"9230822","prefecture":"ISHIKAWA KEN","city":"KOMATSU SHI","town":"KOYOMACHI","perfecture_jp":"石川県","jp_add_1":"小松市","jp_add_2":"光陽町"},"9230061":{"post_code":"9230061","prefecture":"ISHIKAWA KEN","city":"KOMATSU SHI","town":"KOKUFUDAI","perfecture_jp":"石川県","jp_add_1":"小松市","jp_add_2":"国府台"},"9230152":{"post_code":"9230152","prefecture":"ISHIKAWA KEN","city":"KOMATSU SHI","town":"GOKOJIMACHI","perfecture_jp":"石川県","jp_add_1":"小松市","jp_add_2":"五国寺町"},"9230002":{"post_code":"9230002","prefecture":"ISHIKAWA KEN","city":"KOMATSU SHI","town":"KOJIMAMACHI","perfecture_jp":"石川県","jp_add_1":"小松市","jp_add_2":"小島町"},"9230902":{"post_code":"9230902","prefecture":"ISHIKAWA KEN","city":"KOMATSU SHI","town":"KOJOMACHI","perfecture_jp":"石川県","jp_add_1":"小松市","jp_add_2":"古城町"},"9230806":{"post_code":"9230806","prefecture":"ISHIKAWA KEN","city":"KOMATSU SHI","town":"KODERAMACHI","perfecture_jp":"石川県","jp_add_1":"小松市","jp_add_2":"小寺町"},"9230055":{"post_code":"9230055","prefecture":"ISHIKAWA KEN","city":"KOMATSU SHI","town":"KOFUMACHI","perfecture_jp":"石川県","jp_add_1":"小松市","jp_add_2":"古府町"},"9230869":{"post_code":"9230869","prefecture":"ISHIKAWA KEN","city":"KOMATSU SHI","town":"KOMATSUNOMORI","perfecture_jp":"石川県","jp_add_1":"小松市","jp_add_2":"こまつの杜"},"9230315":{"post_code":"9230315","prefecture":"ISHIKAWA KEN","city":"KOMATSU SHI","town":"KOYAMADAMACHI","perfecture_jp":"石川県","jp_add_1":"小松市","jp_add_2":"小山田町"},"9230904":{"post_code":"9230904","prefecture":"ISHIKAWA KEN","city":"KOMATSU SHI","town":"KOMMADEMACHI","perfecture_jp":"石川県","jp_add_1":"小松市","jp_add_2":"小馬出町"},"9230915":{"post_code":"9230915","prefecture":"ISHIKAWA KEN","city":"KOMATSU SHI","town":"SAIKUCHO","perfecture_jp":"石川県","jp_add_1":"小松市","jp_add_2":"細工町"},"9230916":{"post_code":"9230916","prefecture":"ISHIKAWA KEN","city":"KOMATSU SHI","town":"ZAIMOKUCHO","perfecture_jp":"石川県","jp_add_1":"小松市","jp_add_2":"材木町"},"9230867":{"post_code":"9230867","prefecture":"ISHIKAWA KEN","city":"KOMATSU SHI","town":"SAIWAICHO","perfecture_jp":"石川県","jp_add_1":"小松市","jp_add_2":"幸町"},"9230934":{"post_code":"9230934","prefecture":"ISHIKAWA KEN","city":"KOMATSU SHI","town":"SAKAEMACHI","perfecture_jp":"石川県","jp_add_1":"小松市","jp_add_2":"栄町"},"9230942":{"post_code":"9230942","prefecture":"ISHIKAWA KEN","city":"KOMATSU SHI","town":"SAKURAGICHO","perfecture_jp":"石川県","jp_add_1":"小松市","jp_add_2":"桜木町"},"9230821":{"post_code":"9230821","prefecture":"ISHIKAWA KEN","city":"KOMATSU SHI","town":"SASAKIMACHI","perfecture_jp":"石川県","jp_add_1":"小松市","jp_add_2":"佐々木町"},"9230062":{"post_code":"9230062","prefecture":"ISHIKAWA KEN","city":"KOMATSU SHI","town":"SATOKAWAMACHI","perfecture_jp":"石川県","jp_add_1":"小松市","jp_add_2":"里川町"},"9230984":{"post_code":"9230984","prefecture":"ISHIKAWA KEN","city":"KOMATSU SHI","town":"SAMIMACHI","perfecture_jp":"石川県","jp_add_1":"小松市","jp_add_2":"佐美町"},"9230165":{"post_code":"9230165","prefecture":"ISHIKAWA KEN","city":"KOMATSU SHI","town":"SAWAMACHI","perfecture_jp":"石川県","jp_add_1":"小松市","jp_add_2":"沢町"},"9230844":{"post_code":"9230844","prefecture":"ISHIKAWA KEN","city":"KOMATSU SHI","town":"SANDANIMACHI","perfecture_jp":"石川県","jp_add_1":"小松市","jp_add_2":"三谷町"},"9230163":{"post_code":"9230163","prefecture":"ISHIKAWA KEN","city":"KOMATSU SHI","town":"SHIOHARAMACHI","perfecture_jp":"石川県","jp_add_1":"小松市","jp_add_2":"塩原町"},"9230836":{"post_code":"9230836","prefecture":"ISHIKAWA KEN","city":"KOMATSU SHI","town":"SHIKAMACHI","perfecture_jp":"石川県","jp_add_1":"小松市","jp_add_2":"鹿町"},"9230905":{"post_code":"9230905","prefecture":"ISHIKAWA KEN","city":"KOMATSU SHI","town":"TAKAJOMACHI","perfecture_jp":"石川県","jp_add_1":"小松市","jp_add_2":"地子町"},"9230971":{"post_code":"9230971","prefecture":"ISHIKAWA KEN","city":"KOMATSU SHI","town":"SHICHOMACHI","perfecture_jp":"石川県","jp_add_1":"小松市","jp_add_2":"四丁町"},"9230021":{"post_code":"9230021","prefecture":"ISHIKAWA KEN","city":"KOMATSU SHI","town":"SHIMADAMACHI","perfecture_jp":"石川県","jp_add_1":"小松市","jp_add_2":"島田町"},"9230303":{"post_code":"9230303","prefecture":"ISHIKAWA KEN","city":"KOMATSU SHI","town":"SHIMAMACHI","perfecture_jp":"石川県","jp_add_1":"小松市","jp_add_2":"島町"},"9230958":{"post_code":"9230958","prefecture":"ISHIKAWA KEN","city":"KOMATSU SHI","town":"SHIMIZUMACHI","perfecture_jp":"石川県","jp_add_1":"小松市","jp_add_2":"清水町"},"9230304":{"post_code":"9230304","prefecture":"ISHIKAWA KEN","city":"KOMATSU SHI","town":"SHIMOAWAZUMACHI","perfecture_jp":"石川県","jp_add_1":"小松市","jp_add_2":"下粟津町"},"9230026":{"post_code":"9230026","prefecture":"ISHIKAWA KEN","city":"KOMATSU SHI","town":"SHIMOMAKIMACHI","perfecture_jp":"石川県","jp_add_1":"小松市","jp_add_2":"下牧町"},"9230052":{"post_code":"9230052","prefecture":"ISHIKAWA KEN","city":"KOMATSU SHI","town":"SHIMOYASATOMACHI","perfecture_jp":"石川県","jp_add_1":"小松市","jp_add_2":"下八里町"},"9230941":{"post_code":"9230941","prefecture":"ISHIKAWA KEN","city":"KOMATSU SHI","town":"JONAMMACHI","perfecture_jp":"石川県","jp_add_1":"小松市","jp_add_2":"城南町"},"9230013":{"post_code":"9230013","prefecture":"ISHIKAWA KEN","city":"KOMATSU SHI","town":"JOHOKUMACHI","perfecture_jp":"石川県","jp_add_1":"小松市","jp_add_2":"城北町"},"9230151":{"post_code":"9230151","prefecture":"ISHIKAWA KEN","city":"KOMATSU SHI","town":"SHORENJIMACHI","perfecture_jp":"石川県","jp_add_1":"小松市","jp_add_2":"正蓮寺町"},"9230811":{"post_code":"9230811","prefecture":"ISHIKAWA KEN","city":"KOMATSU SHI","town":"SHIRAEMACHI","perfecture_jp":"石川県","jp_add_1":"小松市","jp_add_2":"白江町"},"9230866":{"post_code":"9230866","prefecture":"ISHIKAWA KEN","city":"KOMATSU SHI","town":"SHIRANEMACHI","perfecture_jp":"石川県","jp_add_1":"小松市","jp_add_2":"白嶺町"},"9230814":{"post_code":"9230814","prefecture":"ISHIKAWA KEN","city":"KOMATSU SHI","town":"SHIRAMATSUMACHI","perfecture_jp":"石川県","jp_add_1":"小松市","jp_add_2":"白松町"},"9230321":{"post_code":"9230321","prefecture":"ISHIKAWA KEN","city":"KOMATSU SHI","town":"SHIRAYAMADAMACHI","perfecture_jp":"石川県","jp_add_1":"小松市","jp_add_2":"白山田町"},"9230914":{"post_code":"9230914","prefecture":"ISHIKAWA KEN","city":"KOMATSU SHI","town":"SHINKAJIMACHI","perfecture_jp":"石川県","jp_add_1":"小松市","jp_add_2":"新鍛冶町"},"9230906":{"post_code":"9230906","prefecture":"ISHIKAWA KEN","city":"KOMATSU SHI","town":"SHINDAIKUCHO","perfecture_jp":"石川県","jp_add_1":"小松市","jp_add_2":"新大工町"},"9230175":{"post_code":"9230175","prefecture":"ISHIKAWA KEN","city":"KOMATSU SHI","town":"SHIMBOMACHI","perfecture_jp":"石川県","jp_add_1":"小松市","jp_add_2":"新保町"},"9230912":{"post_code":"9230912","prefecture":"ISHIKAWA KEN","city":"KOMATSU SHI","town":"SHIMMACHI","perfecture_jp":"石川県","jp_add_1":"小松市","jp_add_2":"新町"},"9230963":{"post_code":"9230963","prefecture":"ISHIKAWA KEN","city":"KOMATSU SHI","town":"SUAMAMACHI","perfecture_jp":"石川県","jp_add_1":"小松市","jp_add_2":"須天町"},"9230945":{"post_code":"9230945","prefecture":"ISHIKAWA KEN","city":"KOMATSU SHI","town":"SUEHIROMACHI","perfecture_jp":"石川県","jp_add_1":"小松市","jp_add_2":"末広町"},"9230183":{"post_code":"9230183","prefecture":"ISHIKAWA KEN","city":"KOMATSU SHI","town":"SEIRYOMACHI","perfecture_jp":"石川県","jp_add_1":"小松市","jp_add_2":"瀬領町"},"9230862":{"post_code":"9230862","prefecture":"ISHIKAWA KEN","city":"KOMATSU SHI","town":"MITAMACHI","perfecture_jp":"石川県","jp_add_1":"小松市","jp_add_2":"清六町"},"9230834":{"post_code":"9230834","prefecture":"ISHIKAWA KEN","city":"KOMATSU SHI","town":"SEGINOMACHI","perfecture_jp":"石川県","jp_add_1":"小松市","jp_add_2":"千木野町"},"9230041":{"post_code":"9230041","prefecture":"ISHIKAWA KEN","city":"KOMATSU SHI","town":"SENDAIMACHI","perfecture_jp":"石川県","jp_add_1":"小松市","jp_add_2":"千代町"},"9230801":{"post_code":"9230801","prefecture":"ISHIKAWA KEN","city":"KOMATSU SHI","town":"SONOMACHI","perfecture_jp":"石川県","jp_add_1":"小松市","jp_add_2":"園町"},"9230931":{"post_code":"9230931","prefecture":"ISHIKAWA KEN","city":"KOMATSU SHI","town":"DAIMONJICHO","perfecture_jp":"石川県","jp_add_1":"小松市","jp_add_2":"大文字町"},"9230962":{"post_code":"9230962","prefecture":"ISHIKAWA KEN","city":"KOMATSU SHI","town":"DAIRYONAKAMACHI","perfecture_jp":"石川県","jp_add_1":"小松市","jp_add_2":"大領中町"},"9230854":{"post_code":"9230854","prefecture":"ISHIKAWA KEN","city":"KOMATSU SHI","town":"DAIRYOMACHI","perfecture_jp":"石川県","jp_add_1":"小松市","jp_add_2":"大領町"},"9230803":{"post_code":"9230803","prefecture":"ISHIKAWA KEN","city":"KOMATSU SHI","town":"TAKARAMACHI","perfecture_jp":"石川県","jp_add_1":"小松市","jp_add_2":"宝町"},"9230031":{"post_code":"9230031","prefecture":"ISHIKAWA KEN","city":"KOMATSU SHI","town":"TAKANDOMACHI","perfecture_jp":"石川県","jp_add_1":"小松市","jp_add_2":"高堂町"},"9230335":{"post_code":"9230335","prefecture":"ISHIKAWA KEN","city":"KOMATSU SHI","town":"TAKIGAHARAMACHI","perfecture_jp":"石川県","jp_add_1":"小松市","jp_add_2":"滝ケ原町"},"9230981":{"post_code":"9230981","prefecture":"ISHIKAWA KEN","city":"KOMATSU SHI","town":"TAKUEIMACHI","perfecture_jp":"石川県","jp_add_1":"小松市","jp_add_2":"拓栄町"},"9230024":{"post_code":"9230024","prefecture":"ISHIKAWA KEN","city":"KOMATSU SHI","town":"CHAYAMACHI","perfecture_jp":"石川県","jp_add_1":"小松市","jp_add_2":"茶屋町"},"9230972":{"post_code":"9230972","prefecture":"ISHIKAWA KEN","city":"KOMATSU SHI","town":"TSUKIZUMACHI","perfecture_jp":"石川県","jp_add_1":"小松市","jp_add_2":"月津町"},"9230974":{"post_code":"9230974","prefecture":"ISHIKAWA KEN","city":"KOMATSU SHI","town":"TSUKIMIGAOKA","perfecture_jp":"石川県","jp_add_1":"小松市","jp_add_2":"月美丘"},"9230313":{"post_code":"9230313","prefecture":"ISHIKAWA KEN","city":"KOMATSU SHI","town":"TSUBAKURAMACHI","perfecture_jp":"石川県","jp_add_1":"小松市","jp_add_2":"津波倉町"},"9230992":{"post_code":"9230992","prefecture":"ISHIKAWA KEN","city":"KOMATSU SHI","town":"TSURUGASHIMAMACHI","perfecture_jp":"石川県","jp_add_1":"小松市","jp_add_2":"鶴ケ島町"},"9230932":{"post_code":"9230932","prefecture":"ISHIKAWA KEN","city":"KOMATSU SHI","town":"TERAMACHI","perfecture_jp":"石川県","jp_add_1":"小松市","jp_add_2":"寺町"},"9230025":{"post_code":"9230025","prefecture":"ISHIKAWA KEN","city":"KOMATSU SHI","town":"TENJIMMACHI","perfecture_jp":"石川県","jp_add_1":"小松市","jp_add_2":"天神町"},"9230921":{"post_code":"9230921","prefecture":"ISHIKAWA KEN","city":"KOMATSU SHI","town":"DOIHARAMACHI","perfecture_jp":"石川県","jp_add_1":"小松市","jp_add_2":"土居原町"},"9230327":{"post_code":"9230327","prefecture":"ISHIKAWA KEN","city":"KOMATSU SHI","town":"TOZUMACHI","perfecture_jp":"石川県","jp_add_1":"小松市","jp_add_2":"戸津町"},"9230919":{"post_code":"9230919","prefecture":"ISHIKAWA KEN","city":"KOMATSU SHI","town":"TONOMACHI","perfecture_jp":"石川県","jp_add_1":"小松市","jp_add_2":"殿町"},"9230037":{"post_code":"9230037","prefecture":"ISHIKAWA KEN","city":"KOMATSU SHI","town":"TONYAMACHI","perfecture_jp":"石川県","jp_add_1":"小松市","jp_add_2":"問屋町"},"9230071":{"post_code":"9230071","prefecture":"ISHIKAWA KEN","city":"KOMATSU SHI","town":"NAKAUMIMACHI","perfecture_jp":"石川県","jp_add_1":"小松市","jp_add_2":"中海町"},"9230917":{"post_code":"9230917","prefecture":"ISHIKAWA KEN","city":"KOMATSU SHI","town":"NAKAMACHI","perfecture_jp":"石川県","jp_add_1":"小松市","jp_add_2":"中町"},"9230004":{"post_code":"9230004","prefecture":"ISHIKAWA KEN","city":"KOMATSU SHI","town":"NAGASAKIMACHI","perfecture_jp":"石川県","jp_add_1":"小松市","jp_add_2":"長崎町"},"9230181":{"post_code":"9230181","prefecture":"ISHIKAWA KEN","city":"KOMATSU SHI","town":"NAGATANIMACHI","perfecture_jp":"石川県","jp_add_1":"小松市","jp_add_2":"長谷町"},"9230034":{"post_code":"9230034","prefecture":"ISHIKAWA KEN","city":"KOMATSU SHI","town":"NAGADAMACHI","perfecture_jp":"石川県","jp_add_1":"小松市","jp_add_2":"長田町"},"9230336":{"post_code":"9230336","prefecture":"ISHIKAWA KEN","city":"KOMATSU SHI","town":"NATAMACHI","perfecture_jp":"石川県","jp_add_1":"小松市","jp_add_2":"那谷町"},"9230328":{"post_code":"9230328","prefecture":"ISHIKAWA KEN","city":"KOMATSU SHI","town":"NANYOMACHI","perfecture_jp":"石川県","jp_add_1":"小松市","jp_add_2":"南陽町"},"9230323":{"post_code":"9230323","prefecture":"ISHIKAWA KEN","city":"KOMATSU SHI","town":"NISHIARATANIMACHI","perfecture_jp":"石川県","jp_add_1":"小松市","jp_add_2":"西荒谷町"},"9230825":{"post_code":"9230825","prefecture":"ISHIKAWA KEN","city":"KOMATSU SHI","town":"NISHIKARUMIMACHI","perfecture_jp":"石川県","jp_add_1":"小松市","jp_add_2":"西軽海町"},"9230948":{"post_code":"9230948","prefecture":"ISHIKAWA KEN","city":"KOMATSU SHI","town":"NISHIKIMACHI","perfecture_jp":"石川県","jp_add_1":"小松市","jp_add_2":"錦町"},"9230927":{"post_code":"9230927","prefecture":"ISHIKAWA KEN","city":"KOMATSU SHI","town":"NISHICHO","perfecture_jp":"石川県","jp_add_1":"小松市","jp_add_2":"西町"},"9230325":{"post_code":"9230325","prefecture":"ISHIKAWA KEN","city":"KOMATSU SHI","town":"NISHIHARAMACHI","perfecture_jp":"石川県","jp_add_1":"小松市","jp_add_2":"西原町"},"9230176":{"post_code":"9230176","prefecture":"ISHIKAWA KEN","city":"KOMATSU SHI","town":"NISHIMATAMACHI","perfecture_jp":"石川県","jp_add_1":"小松市","jp_add_2":"西俣町"},"9230956":{"post_code":"9230956","prefecture":"ISHIKAWA KEN","city":"KOMATSU SHI","town":"NISHIMOTORIMACHI","perfecture_jp":"石川県","jp_add_1":"小松市","jp_add_2":"西本折町"},"9230977":{"post_code":"9230977","prefecture":"ISHIKAWA KEN","city":"KOMATSU SHI","town":"NUKAMIMACHI","perfecture_jp":"石川県","jp_add_1":"小松市","jp_add_2":"額見町"},"9230164":{"post_code":"9230164","prefecture":"ISHIKAWA KEN","city":"KOMATSU SHI","town":"NUNOHASHIMACHI","perfecture_jp":"石川県","jp_add_1":"小松市","jp_add_2":"布橋町"},"9230033":{"post_code":"9230033","prefecture":"ISHIKAWA KEN","city":"KOMATSU SHI","town":"NODAMACHI","perfecture_jp":"石川県","jp_add_1":"小松市","jp_add_2":"野田町"},"9230042":{"post_code":"9230042","prefecture":"ISHIKAWA KEN","city":"KOMATSU SHI","town":"NOMIMACHI","perfecture_jp":"石川県","jp_add_1":"小松市","jp_add_2":"能美町"},"9230951":{"post_code":"9230951","prefecture":"ISHIKAWA KEN","city":"KOMATSU SHI","town":"HAKUSAMMACHI","perfecture_jp":"石川県","jp_add_1":"小松市","jp_add_2":"白山町"},"9230182":{"post_code":"9230182","prefecture":"ISHIKAWA KEN","city":"KOMATSU SHI","town":"HASADANIMACHI","perfecture_jp":"石川県","jp_add_1":"小松市","jp_add_2":"波佐谷町"},"9230162":{"post_code":"9230162","prefecture":"ISHIKAWA KEN","city":"KOMATSU SHI","town":"HASARAMACHI","perfecture_jp":"石川県","jp_add_1":"小松市","jp_add_2":"波佐羅町"},"9230157":{"post_code":"9230157","prefecture":"ISHIKAWA KEN","city":"KOMATSU SHI","town":"HANASAKAMACHI","perfecture_jp":"石川県","jp_add_1":"小松市","jp_add_2":"花坂町"},"9230174":{"post_code":"9230174","prefecture":"ISHIKAWA KEN","city":"KOMATSU SHI","town":"HANATATEMACHI","perfecture_jp":"石川県","jp_add_1":"小松市","jp_add_2":"花立町"},"9230066":{"post_code":"9230066","prefecture":"ISHIKAWA KEN","city":"KOMATSU SHI","town":"HANEDAMACHI","perfecture_jp":"石川県","jp_add_1":"小松市","jp_add_2":"埴田町"},"9230997":{"post_code":"9230997","prefecture":"ISHIKAWA KEN","city":"KOMATSU SHI","town":"HAMASAMIHOMMACHI","perfecture_jp":"石川県","jp_add_1":"小松市","jp_add_2":"浜佐美本町"},"9230985":{"post_code":"9230985","prefecture":"ISHIKAWA KEN","city":"KOMATSU SHI","town":"HAMASAMIMACHI","perfecture_jp":"石川県","jp_add_1":"小松市","jp_add_2":"浜佐美町"},"9230907":{"post_code":"9230907","prefecture":"ISHIKAWA KEN","city":"KOMATSU SHI","town":"HAMADAMACHI","perfecture_jp":"石川県","jp_add_1":"小松市","jp_add_2":"浜田町"},"9230344":{"post_code":"9230344","prefecture":"ISHIKAWA KEN","city":"KOMATSU SHI","town":"HAYASHIMACHI","perfecture_jp":"石川県","jp_add_1":"小松市","jp_add_2":"林町"},"9230075":{"post_code":"9230075","prefecture":"ISHIKAWA KEN","city":"KOMATSU SHI","town":"HARAMACHI","perfecture_jp":"石川県","jp_add_1":"小松市","jp_add_2":"原町"},"9230333":{"post_code":"9230333","prefecture":"ISHIKAWA KEN","city":"KOMATSU SHI","town":"BAMBAMACHI","perfecture_jp":"石川県","jp_add_1":"小松市","jp_add_2":"馬場町"},"9230804":{"post_code":"9230804","prefecture":"ISHIKAWA KEN","city":"KOMATSU SHI","town":"HIKARIMACHI","perfecture_jp":"石川県","jp_add_1":"小松市","jp_add_2":"光町"},"9230012":{"post_code":"9230012","prefecture":"ISHIKAWA KEN","city":"KOMATSU SHI","town":"HIGASHIHIRUGAWAMACHI","perfecture_jp":"石川県","jp_add_1":"小松市","jp_add_2":"東蛭川町"},"9230923":{"post_code":"9230923","prefecture":"ISHIKAWA KEN","city":"KOMATSU SHI","town":"HIGASHICHO","perfecture_jp":"石川県","jp_add_1":"小松市","jp_add_2":"東町"},"9230842":{"post_code":"9230842","prefecture":"ISHIKAWA KEN","city":"KOMATSU SHI","town":"HIGASHIYAMAMACHI","perfecture_jp":"石川県","jp_add_1":"小松市","jp_add_2":"東山町"},"9230983":{"post_code":"9230983","prefecture":"ISHIKAWA KEN","city":"KOMATSU SHI","town":"HIZUEMACHI","perfecture_jp":"石川県","jp_add_1":"小松市","jp_add_2":"日末町"},"9230043":{"post_code":"9230043","prefecture":"ISHIKAWA KEN","city":"KOMATSU SHI","town":"HITOTSUHARIMACHI","perfecture_jp":"石川県","jp_add_1":"小松市","jp_add_2":"一針町"},"9230868":{"post_code":"9230868","prefecture":"ISHIKAWA KEN","city":"KOMATSU SHI","town":"YOKAICHIMACHIJIGATA","perfecture_jp":"石川県","jp_add_1":"小松市","jp_add_2":"日の出町"},"9230324":{"post_code":"9230324","prefecture":"ISHIKAWA KEN","city":"KOMATSU SHI","town":"HIYOMACHI","perfecture_jp":"石川県","jp_add_1":"小松市","jp_add_2":"日用町"},"9230947":{"post_code":"9230947","prefecture":"ISHIKAWA KEN","city":"KOMATSU SHI","town":"HIYOSHIMACHI","perfecture_jp":"石川県","jp_add_1":"小松市","jp_add_2":"日吉町"},"9230036":{"post_code":"9230036","prefecture":"ISHIKAWA KEN","city":"KOMATSU SHI","town":"HIRAOMOTEMACHI","perfecture_jp":"石川県","jp_add_1":"小松市","jp_add_2":"平面町"},"9230011":{"post_code":"9230011","prefecture":"ISHIKAWA KEN","city":"KOMATSU SHI","town":"BIRUGAWAMACHI","perfecture_jp":"石川県","jp_add_1":"小松市","jp_add_2":"蛭川町"},"9230865":{"post_code":"9230865","prefecture":"ISHIKAWA KEN","city":"KOMATSU SHI","town":"FUKUNOMIYAMACHI","perfecture_jp":"石川県","jp_add_1":"小松市","jp_add_2":"福乃宮町"},"9230345":{"post_code":"9230345","prefecture":"ISHIKAWA KEN","city":"KOMATSU SHI","town":"FUTATSUNASHIMACHI","perfecture_jp":"石川県","jp_add_1":"小松市","jp_add_2":"二ツ梨町"},"9230302":{"post_code":"9230302","prefecture":"ISHIKAWA KEN","city":"KOMATSU SHI","town":"FUTSUMACHI","perfecture_jp":"石川県","jp_add_1":"小松市","jp_add_2":"符津町"},"9230863":{"post_code":"9230863","prefecture":"ISHIKAWA KEN","city":"KOMATSU SHI","town":"FUDOJIMAMACHI","perfecture_jp":"石川県","jp_add_1":"小松市","jp_add_2":"不動島町"},"9230944":{"post_code":"9230944","prefecture":"ISHIKAWA KEN","city":"KOMATSU SHI","town":"FURUKAWAMACHI","perfecture_jp":"石川県","jp_add_1":"小松市","jp_add_2":"古河町"},"9230005":{"post_code":"9230005","prefecture":"ISHIKAWA KEN","city":"KOMATSU SHI","town":"BOMARUMACHI","perfecture_jp":"石川県","jp_add_1":"小松市","jp_add_2":"坊丸町"},"9230334":{"post_code":"9230334","prefecture":"ISHIKAWA KEN","city":"KOMATSU SHI","town":"BODAIMACHI","perfecture_jp":"石川県","jp_add_1":"小松市","jp_add_2":"菩提町"},"9230933":{"post_code":"9230933","prefecture":"ISHIKAWA KEN","city":"KOMATSU SHI","town":"HONKAJIMACHI","perfecture_jp":"石川県","jp_add_1":"小松市","jp_add_2":"本鍛冶町"},"9230841":{"post_code":"9230841","prefecture":"ISHIKAWA KEN","city":"KOMATSU SHI","town":"HONGOMACHI","perfecture_jp":"石川県","jp_add_1":"小松市","jp_add_2":"本江町"},"9230936":{"post_code":"9230936","prefecture":"ISHIKAWA KEN","city":"KOMATSU SHI","town":"HONDAIKUCHO","perfecture_jp":"石川県","jp_add_1":"小松市","jp_add_2":"本大工町"},"9230937":{"post_code":"9230937","prefecture":"ISHIKAWA KEN","city":"KOMATSU SHI","town":"HOMMACHI","perfecture_jp":"石川県","jp_add_1":"小松市","jp_add_2":"本町"},"9230322":{"post_code":"9230322","prefecture":"ISHIKAWA KEN","city":"KOMATSU SHI","town":"MAKIGUCHIMACHI","perfecture_jp":"石川県","jp_add_1":"小松市","jp_add_2":"牧口町"},"9230306":{"post_code":"9230306","prefecture":"ISHIKAWA KEN","city":"KOMATSU SHI","town":"MATSUOICHO","perfecture_jp":"石川県","jp_add_1":"小松市","jp_add_2":"松生町"},"9230166":{"post_code":"9230166","prefecture":"ISHIKAWA KEN","city":"KOMATSU SHI","town":"MATSUOKAMACHI","perfecture_jp":"石川県","jp_add_1":"小松市","jp_add_2":"松岡町"},"9230982":{"post_code":"9230982","prefecture":"ISHIKAWA KEN","city":"KOMATSU SHI","town":"MATSUZAKIMACHI","perfecture_jp":"石川県","jp_add_1":"小松市","jp_add_2":"松崎町"},"9230913":{"post_code":"9230913","prefecture":"ISHIKAWA KEN","city":"KOMATSU SHI","town":"MATTOMACHI","perfecture_jp":"石川県","jp_add_1":"小松市","jp_add_2":"松任町"},"9230014":{"post_code":"9230014","prefecture":"ISHIKAWA KEN","city":"KOMATSU SHI","town":"MATSUNASHIMACHI","perfecture_jp":"石川県","jp_add_1":"小松市","jp_add_2":"松梨町"},"9230903":{"post_code":"9230903","prefecture":"ISHIKAWA KEN","city":"KOMATSU SHI","town":"MARUNOCHIMACHI","perfecture_jp":"石川県","jp_add_1":"小松市","jp_add_2":"丸の内公園町"},"9230173":{"post_code":"9230173","prefecture":"ISHIKAWA KEN","city":"KOMATSU SHI","town":"MARUYAMAMACHI","perfecture_jp":"石川県","jp_add_1":"小松市","jp_add_2":"丸山町"},"9230924":{"post_code":"9230924","prefecture":"ISHIKAWA KEN","city":"KOMATSU SHI","town":"MIKKAICHIMACHI","perfecture_jp":"石川県","jp_add_1":"小松市","jp_add_2":"三日市町"},"9230072":{"post_code":"9230072","prefecture":"ISHIKAWA KEN","city":"KOMATSU SHI","town":"MIDORIMACHI","perfecture_jp":"石川県","jp_add_1":"小松市","jp_add_2":"みどり町"},"9230852":{"post_code":"9230852","prefecture":"ISHIKAWA KEN","city":"KOMATSU SHI","town":"MINAMIASAIMACHI","perfecture_jp":"石川県","jp_add_1":"小松市","jp_add_2":"南浅井町"},"9230305":{"post_code":"9230305","prefecture":"ISHIKAWA KEN","city":"KOMATSU SHI","town":"MINOWAMACHI","perfecture_jp":"石川県","jp_add_1":"小松市","jp_add_2":"蓑輪町"},"9230022":{"post_code":"9230022","prefecture":"ISHIKAWA KEN","city":"KOMATSU SHI","town":"MIHARAMACHI","perfecture_jp":"石川県","jp_add_1":"小松市","jp_add_2":"美原町"},"9230961":{"post_code":"9230961","prefecture":"ISHIKAWA KEN","city":"KOMATSU SHI","town":"MUKAIMOTORIMACHI","perfecture_jp":"石川県","jp_add_1":"小松市","jp_add_2":"向本折町"},"9230076":{"post_code":"9230076","prefecture":"ISHIKAWA KEN","city":"KOMATSU SHI","town":"MUGIKUCHIMACHI","perfecture_jp":"石川県","jp_add_1":"小松市","jp_add_2":"麦口町"},"9230968":{"post_code":"9230968","prefecture":"ISHIKAWA KEN","city":"KOMATSU SHI","town":"MURAMATSUMACHI","perfecture_jp":"石川県","jp_add_1":"小松市","jp_add_2":"村松町"},"9230957":{"post_code":"9230957","prefecture":"ISHIKAWA KEN","city":"KOMATSU SHI","town":"MOTORIMACHI","perfecture_jp":"石川県","jp_add_1":"小松市","jp_add_2":"本折町"},"9230301":{"post_code":"9230301","prefecture":"ISHIKAWA KEN","city":"KOMATSU SHI","town":"YAZAKIMACHI","perfecture_jp":"石川県","jp_add_1":"小松市","jp_add_2":"矢崎町"},"9230056":{"post_code":"9230056","prefecture":"ISHIKAWA KEN","city":"KOMATSU SHI","town":"YASATODAI","perfecture_jp":"石川県","jp_add_1":"小松市","jp_add_2":"八里台"},"9230343":{"post_code":"9230343","prefecture":"ISHIKAWA KEN","city":"KOMATSU SHI","town":"YAZAWAMACHI","perfecture_jp":"石川県","jp_add_1":"小松市","jp_add_2":"矢沢町"},"9230976":{"post_code":"9230976","prefecture":"ISHIKAWA KEN","city":"KOMATSU SHI","town":"YATASHIMMACHI","perfecture_jp":"石川県","jp_add_1":"小松市","jp_add_2":"矢田新町"},"9230342":{"post_code":"9230342","prefecture":"ISHIKAWA KEN","city":"KOMATSU SHI","town":"YATANOMACHI","perfecture_jp":"石川県","jp_add_1":"小松市","jp_add_2":"矢田野町"},"9230975":{"post_code":"9230975","prefecture":"ISHIKAWA KEN","city":"KOMATSU SHI","town":"YATAMACHI","perfecture_jp":"石川県","jp_add_1":"小松市","jp_add_2":"矢田町"},"9230952":{"post_code":"9230952","prefecture":"ISHIKAWA KEN","city":"KOMATSU SHI","town":"YAMATOMACHI","perfecture_jp":"石川県","jp_add_1":"小松市","jp_add_2":"大和町"},"9230833":{"post_code":"9230833","prefecture":"ISHIKAWA KEN","city":"KOMATSU SHI","town":"YAWATA(KAGAYAWATA)","perfecture_jp":"石川県","jp_add_1":"小松市","jp_add_2":"八幡"},"9230954":{"post_code":"9230954","prefecture":"ISHIKAWA KEN","city":"KOMATSU SHI","town":"YAWATAMACHI","perfecture_jp":"石川県","jp_add_1":"小松市","jp_add_2":"八幡町"},"9230064":{"post_code":"9230064","prefecture":"ISHIKAWA KEN","city":"KOMATSU SHI","town":"YUSENJIMACHI","perfecture_jp":"石川県","jp_add_1":"小松市","jp_add_2":"遊泉寺町"},"9230332":{"post_code":"9230332","prefecture":"ISHIKAWA KEN","city":"KOMATSU SHI","town":"YUNOKAMIMACHI","perfecture_jp":"石川県","jp_add_1":"小松市","jp_add_2":"湯上町"},"9230925":{"post_code":"9230925","prefecture":"ISHIKAWA KEN","city":"KOMATSU SHI","town":"YOKAICHIMACHI","perfecture_jp":"石川県","jp_add_1":"小松市","jp_add_2":"八日市町"},"9230835":{"post_code":"9230835","prefecture":"ISHIKAWA KEN","city":"KOMATSU SHI","town":"YOSHITAKEMACHI","perfecture_jp":"石川県","jp_add_1":"小松市","jp_add_2":"吉竹町"},"9230998":{"post_code":"9230998","prefecture":"ISHIKAWA KEN","city":"KOMATSU SHI","town":"YOSHINAKACHO","perfecture_jp":"石川県","jp_add_1":"小松市","jp_add_2":"義仲町"},"9230926":{"post_code":"9230926","prefecture":"ISHIKAWA KEN","city":"KOMATSU SHI","town":"RYUSUKECHO","perfecture_jp":"石川県","jp_add_1":"小松市","jp_add_2":"龍助町"},"9230065":{"post_code":"9230065","prefecture":"ISHIKAWA KEN","city":"KOMATSU SHI","town":"RYUMYOJIMACHI","perfecture_jp":"石川県","jp_add_1":"小松市","jp_add_2":"立明寺町"},"9230843":{"post_code":"9230843","prefecture":"ISHIKAWA KEN","city":"KOMATSU SHI","town":"RENDAIJIMACHI","perfecture_jp":"石川県","jp_add_1":"小松市","jp_add_2":"蓮代寺町"},"9230832":{"post_code":"9230832","prefecture":"ISHIKAWA KEN","city":"KOMATSU SHI","town":"WAKASUGIMACHI","perfecture_jp":"石川県","jp_add_1":"小松市","jp_add_2":"若杉町"},"9231100":{"post_code":"9231100","prefecture":"ISHIKAWA KEN","city":"NOMI SHI","town":"IKANIKEISAIGANAIBAAI","perfecture_jp":"石川県","jp_add_1":"能美市","jp_add_2":""},"9231101":{"post_code":"9231101","prefecture":"ISHIKAWA KEN","city":"NOMI SHI","town":"AOMACHI","perfecture_jp":"石川県","jp_add_1":"能美市","jp_add_2":"粟生町"},"9231103":{"post_code":"9231103","prefecture":"ISHIKAWA KEN","city":"NOMI SHI","town":"AKITSUNEMACHI","perfecture_jp":"石川県","jp_add_1":"能美市","jp_add_2":"秋常町"},"9231211":{"post_code":"9231211","prefecture":"ISHIKAWA KEN","city":"NOMI SHI","town":"ASAHIDAI","perfecture_jp":"石川県","jp_add_1":"能美市","jp_add_2":"旭台"},"9231202":{"post_code":"9231202","prefecture":"ISHIKAWA KEN","city":"NOMI SHI","town":"AZOMACHI","perfecture_jp":"石川県","jp_add_1":"能美市","jp_add_2":"莇生町"},"9231233":{"post_code":"9231233","prefecture":"ISHIKAWA KEN","city":"NOMI SHI","town":"ARAYAMACHI","perfecture_jp":"石川県","jp_add_1":"能美市","jp_add_2":"荒屋町"},"9231105":{"post_code":"9231105","prefecture":"ISHIKAWA KEN","city":"NOMI SHI","town":"ISHIKOMACHI","perfecture_jp":"石川県","jp_add_1":"能美市","jp_add_2":"石子町"},"9231111":{"post_code":"9231111","prefecture":"ISHIKAWA KEN","city":"NOMI SHI","town":"IZUMIDAIMACHI","perfecture_jp":"石川県","jp_add_1":"能美市","jp_add_2":"泉台町"},"9231201":{"post_code":"9231201","prefecture":"ISHIKAWA KEN","city":"NOMI SHI","town":"IWAUCHIMACHI","perfecture_jp":"石川県","jp_add_1":"能美市","jp_add_2":"岩内町"},"9231207":{"post_code":"9231207","prefecture":"ISHIKAWA KEN","city":"NOMI SHI","town":"IWAMOTOMACHI","perfecture_jp":"石川県","jp_add_1":"能美市","jp_add_2":"岩本町"},"9231113":{"post_code":"9231113","prefecture":"ISHIKAWA KEN","city":"NOMI SHI","town":"USHIJIMAMACHI","perfecture_jp":"石川県","jp_add_1":"能美市","jp_add_2":"牛島町"},"9231212":{"post_code":"9231212","prefecture":"ISHIKAWA KEN","city":"NOMI SHI","town":"OKUCHIMACHI","perfecture_jp":"石川県","jp_add_1":"能美市","jp_add_2":"大口町"},"9231115":{"post_code":"9231115","prefecture":"ISHIKAWA KEN","city":"NOMI SHI","town":"ONAGANOMACHI","perfecture_jp":"石川県","jp_add_1":"能美市","jp_add_2":"大長野町"},"9231231":{"post_code":"9231231","prefecture":"ISHIKAWA KEN","city":"NOMI SHI","town":"KAMIKAIHATSUMACHI","perfecture_jp":"石川県","jp_add_1":"能美市","jp_add_2":"上開発町"},"9231237":{"post_code":"9231237","prefecture":"ISHIKAWA KEN","city":"NOMI SHI","town":"KAMISHIMIZUMACHI","perfecture_jp":"石川県","jp_add_1":"能美市","jp_add_2":"上清水町"},"9231236":{"post_code":"9231236","prefecture":"ISHIKAWA KEN","city":"NOMI SHI","town":"KITAICHIMACHI","perfecture_jp":"石川県","jp_add_1":"能美市","jp_add_2":"北市町"},"9231246":{"post_code":"9231246","prefecture":"ISHIKAWA KEN","city":"NOMI SHI","town":"KURASHIGEMACHI","perfecture_jp":"石川県","jp_add_1":"能美市","jp_add_2":"倉重町"},"9231234":{"post_code":"9231234","prefecture":"ISHIKAWA KEN","city":"NOMI SHI","town":"KOZAMACHI","perfecture_jp":"石川県","jp_add_1":"能美市","jp_add_2":"高座町"},"9231114":{"post_code":"9231114","prefecture":"ISHIKAWA KEN","city":"NOMI SHI","town":"KOSUGIMACHI","perfecture_jp":"石川県","jp_add_1":"能美市","jp_add_2":"小杉町"},"9231116":{"post_code":"9231116","prefecture":"ISHIKAWA KEN","city":"NOMI SHI","town":"KONAGANOMACHI","perfecture_jp":"石川県","jp_add_1":"能美市","jp_add_2":"小長野町"},"9231214":{"post_code":"9231214","prefecture":"ISHIKAWA KEN","city":"NOMI SHI","town":"KONGOJIMACHI","perfecture_jp":"石川県","jp_add_1":"能美市","jp_add_2":"金剛寺町"},"9231112":{"post_code":"9231112","prefecture":"ISHIKAWA KEN","city":"NOMI SHI","town":"SANOMACHI","perfecture_jp":"石川県","jp_add_1":"能美市","jp_add_2":"佐野町"},"9231124":{"post_code":"9231124","prefecture":"ISHIKAWA KEN","city":"NOMI SHI","town":"SANDOYAMAMACHI","perfecture_jp":"石川県","jp_add_1":"能美市","jp_add_2":"三道山町"},"9231232":{"post_code":"9231232","prefecture":"ISHIKAWA KEN","city":"NOMI SHI","town":"SHIMOKAIHATSUMACHI","perfecture_jp":"石川県","jp_add_1":"能美市","jp_add_2":"下開発町"},"9231238":{"post_code":"9231238","prefecture":"ISHIKAWA KEN","city":"NOMI SHI","town":"SHIMOSHIMIZUMACHI","perfecture_jp":"石川県","jp_add_1":"能美市","jp_add_2":"下清水町"},"9231102":{"post_code":"9231102","prefecture":"ISHIKAWA KEN","city":"NOMI SHI","town":"SHIMBOMACHI","perfecture_jp":"石川県","jp_add_1":"能美市","jp_add_2":"新保町"},"9231117":{"post_code":"9231117","prefecture":"ISHIKAWA KEN","city":"NOMI SHI","town":"SUENOBUMACHI","perfecture_jp":"石川県","jp_add_1":"能美市","jp_add_2":"末信町"},"9231215":{"post_code":"9231215","prefecture":"ISHIKAWA KEN","city":"NOMI SHI","town":"TACHIMACHI","perfecture_jp":"石川県","jp_add_1":"能美市","jp_add_2":"舘町"},"9231245":{"post_code":"9231245","prefecture":"ISHIKAWA KEN","city":"NOMI SHI","town":"TATSUNOKUCHIMACHI","perfecture_jp":"石川県","jp_add_1":"能美市","jp_add_2":"辰口町"},"9231213":{"post_code":"9231213","prefecture":"ISHIKAWA KEN","city":"NOMI SHI","town":"TSUBONOMACHI","perfecture_jp":"石川県","jp_add_1":"能美市","jp_add_2":"坪野町"},"9231247":{"post_code":"9231247","prefecture":"ISHIKAWA KEN","city":"NOMI SHI","town":"DEGUCHIMACHI","perfecture_jp":"石川県","jp_add_1":"能美市","jp_add_2":"出口町"},"9231121":{"post_code":"9231121","prefecture":"ISHIKAWA KEN","city":"NOMI SHI","town":"TERAIMACHI","perfecture_jp":"石川県","jp_add_1":"能美市","jp_add_2":"寺井町"},"9231223":{"post_code":"9231223","prefecture":"ISHIKAWA KEN","city":"NOMI SHI","town":"TERABATAKEMACHI","perfecture_jp":"石川県","jp_add_1":"能美市","jp_add_2":"寺畠町"},"9231222":{"post_code":"9231222","prefecture":"ISHIKAWA KEN","city":"NOMI SHI","town":"TOKUSAMMACHI","perfecture_jp":"石川県","jp_add_1":"能美市","jp_add_2":"徳山町"},"9231235":{"post_code":"9231235","prefecture":"ISHIKAWA KEN","city":"NOMI SHI","town":"TOKUHISAMACHI","perfecture_jp":"石川県","jp_add_1":"能美市","jp_add_2":"徳久町"},"9231206":{"post_code":"9231206","prefecture":"ISHIKAWA KEN","city":"NOMI SHI","town":"TODASHINOMACHI","perfecture_jp":"石川県","jp_add_1":"能美市","jp_add_2":"灯台笹町"},"9231204":{"post_code":"9231204","prefecture":"ISHIKAWA KEN","city":"NOMI SHI","town":"NAGATAKIMACHI","perfecture_jp":"石川県","jp_add_1":"能美市","jp_add_2":"長滝町"},"9231216":{"post_code":"9231216","prefecture":"ISHIKAWA KEN","city":"NOMI SHI","town":"NABETANIMACHI","perfecture_jp":"石川県","jp_add_1":"能美市","jp_add_2":"鍋谷町"},"9231122":{"post_code":"9231122","prefecture":"ISHIKAWA KEN","city":"NOMI SHI","town":"HIGASHITODAMACHI","perfecture_jp":"石川県","jp_add_1":"能美市","jp_add_2":"東任田町"},"9231242":{"post_code":"9231242","prefecture":"ISHIKAWA KEN","city":"NOMI SHI","town":"HIGAMAMACHI","perfecture_jp":"石川県","jp_add_1":"能美市","jp_add_2":"火釜町"},"9231217":{"post_code":"9231217","prefecture":"ISHIKAWA KEN","city":"NOMI SHI","town":"BUTSUTAIJIMACHI","perfecture_jp":"石川県","jp_add_1":"能美市","jp_add_2":"仏大寺町"},"9231225":{"post_code":"9231225","prefecture":"ISHIKAWA KEN","city":"NOMI SHI","town":"MATSUGAOKA","perfecture_jp":"石川県","jp_add_1":"能美市","jp_add_2":"松が岡"},"9231107":{"post_code":"9231107","prefecture":"ISHIKAWA KEN","city":"NOMI SHI","town":"MATSUJIMACHI","perfecture_jp":"石川県","jp_add_1":"能美市","jp_add_2":"末寺町"},"9231203":{"post_code":"9231203","prefecture":"ISHIKAWA KEN","city":"NOMI SHI","town":"MITSUKUCHIMACHI","perfecture_jp":"石川県","jp_add_1":"能美市","jp_add_2":"三ツ口町"},"9231243":{"post_code":"9231243","prefecture":"ISHIKAWA KEN","city":"NOMI SHI","town":"MITSUYAMACHI","perfecture_jp":"石川県","jp_add_1":"能美市","jp_add_2":"三ツ屋町"},"9231226":{"post_code":"9231226","prefecture":"ISHIKAWA KEN","city":"NOMI SHI","town":"MIDORIGAOKA","perfecture_jp":"石川県","jp_add_1":"能美市","jp_add_2":"緑が丘"},"9231205":{"post_code":"9231205","prefecture":"ISHIKAWA KEN","city":"NOMI SHI","town":"MIYATAKEMACHI","perfecture_jp":"石川県","jp_add_1":"能美市","jp_add_2":"宮竹町"},"9231241":{"post_code":"9231241","prefecture":"ISHIKAWA KEN","city":"NOMI SHI","town":"YAMADAMACHI","perfecture_jp":"石川県","jp_add_1":"能美市","jp_add_2":"山田町"},"9231104":{"post_code":"9231104","prefecture":"ISHIKAWA KEN","city":"NOMI SHI","town":"YUNOTANIMACHI","perfecture_jp":"石川県","jp_add_1":"能美市","jp_add_2":"湯谷町"},"9231221":{"post_code":"9231221","prefecture":"ISHIKAWA KEN","city":"NOMI SHI","town":"YUNOYAMACHI","perfecture_jp":"石川県","jp_add_1":"能美市","jp_add_2":"湯屋町"},"9231123":{"post_code":"9231123","prefecture":"ISHIKAWA KEN","city":"NOMI SHI","town":"YOSHIMITSUMACHI","perfecture_jp":"石川県","jp_add_1":"能美市","jp_add_2":"吉光町"},"9231244":{"post_code":"9231244","prefecture":"ISHIKAWA KEN","city":"NOMI SHI","town":"RAIMARUMACHI","perfecture_jp":"石川県","jp_add_1":"能美市","jp_add_2":"来丸町"},"9231224":{"post_code":"9231224","prefecture":"ISHIKAWA KEN","city":"NOMI SHI","town":"WAKEMACHI","perfecture_jp":"石川県","jp_add_1":"能美市","jp_add_2":"和気町"},"9231227":{"post_code":"9231227","prefecture":"ISHIKAWA KEN","city":"NOMI SHI","town":"WAKODAI","perfecture_jp":"石川県","jp_add_1":"能美市","jp_add_2":"和光台"},"9231208":{"post_code":"9231208","prefecture":"ISHIKAWA KEN","city":"NOMI SHI","town":"WASADANIMACHI","perfecture_jp":"石川県","jp_add_1":"能美市","jp_add_2":"和佐谷町"},"9231106":{"post_code":"9231106","prefecture":"ISHIKAWA KEN","city":"NOMI SHI","town":"WADAMACHI","perfecture_jp":"石川県","jp_add_1":"能美市","jp_add_2":"和田町"},"9231200":{"post_code":"9231200","prefecture":"ISHIKAWA KEN","city":"NOMI GUN KAWAKITA MACHI","town":"IKANIKEISAIGANAIBAAI","perfecture_jp":"石川県","jp_add_1":"能美郡川北町","jp_add_2":""},"9231278":{"post_code":"9231278","prefecture":"ISHIKAWA KEN","city":"NOMI GUN KAWAKITA MACHI","town":"ASAHI","perfecture_jp":"石川県","jp_add_1":"能美郡川北町","jp_add_2":"朝日"},"9231265":{"post_code":"9231265","prefecture":"ISHIKAWA KEN","city":"NOMI GUN KAWAKITA MACHI","town":"KAMISENDEN","perfecture_jp":"石川県","jp_add_1":"能美郡川北町","jp_add_2":"上先出"},"9231269":{"post_code":"9231269","prefecture":"ISHIKAWA KEN","city":"NOMI GUN KAWAKITA MACHI","town":"KAMIDAGOJIMA","perfecture_jp":"石川県","jp_add_1":"能美郡川北町","jp_add_2":"上田子島"},"9231262":{"post_code":"9231262","prefecture":"ISHIKAWA KEN","city":"NOMI GUN KAWAKITA MACHI","town":"KUSABUKA","perfecture_jp":"石川県","jp_add_1":"能美郡川北町","jp_add_2":"草深"},"9231274":{"post_code":"9231274","prefecture":"ISHIKAWA KEN","city":"NOMI GUN KAWAKITA MACHI","town":"KOROBA","perfecture_jp":"石川県","jp_add_1":"能美郡川北町","jp_add_2":"木呂場"},"9231275":{"post_code":"9231275","prefecture":"ISHIKAWA KEN","city":"NOMI GUN KAWAKITA MACHI","town":"KOROBASHIN","perfecture_jp":"石川県","jp_add_1":"能美郡川北町","jp_add_2":"木呂場新"},"9231254":{"post_code":"9231254","prefecture":"ISHIKAWA KEN","city":"NOMI GUN KAWAKITA MACHI","town":"SANKOPORASU","perfecture_jp":"石川県","jp_add_1":"能美郡川北町","jp_add_2":"サンコーポラス"},"9231253":{"post_code":"9231253","prefecture":"ISHIKAWA KEN","city":"NOMI GUN KAWAKITA MACHI","town":"SANTANDA","perfecture_jp":"石川県","jp_add_1":"能美郡川北町","jp_add_2":"三反田"},"9231272":{"post_code":"9231272","prefecture":"ISHIKAWA KEN","city":"NOMI GUN KAWAKITA MACHI","town":"SHIMOTAGOJIMA","perfecture_jp":"石川県","jp_add_1":"能美郡川北町","jp_add_2":"下田子島"},"9231263":{"post_code":"9231263","prefecture":"ISHIKAWA KEN","city":"NOMI GUN KAWAKITA MACHI","town":"SHIMOTSUCHIMURO","perfecture_jp":"石川県","jp_add_1":"能美郡川北町","jp_add_2":"下土室"},"9231266":{"post_code":"9231266","prefecture":"ISHIKAWA KEN","city":"NOMI GUN KAWAKITA MACHI","town":"SHIMOSENDEN","perfecture_jp":"石川県","jp_add_1":"能美郡川北町","jp_add_2":"下先出"},"9231271":{"post_code":"9231271","prefecture":"ISHIKAWA KEN","city":"NOMI GUN KAWAKITA MACHI","town":"DAGOJIMA","perfecture_jp":"石川県","jp_add_1":"能美郡川北町","jp_add_2":"田子島"},"9231276":{"post_code":"9231276","prefecture":"ISHIKAWA KEN","city":"NOMI GUN KAWAKITA MACHI","town":"TACHIBANA","perfecture_jp":"石川県","jp_add_1":"能美郡川北町","jp_add_2":"橘"},"9231277":{"post_code":"9231277","prefecture":"ISHIKAWA KEN","city":"NOMI GUN KAWAKITA MACHI","town":"TACHIBANASHIN","perfecture_jp":"石川県","jp_add_1":"能美郡川北町","jp_add_2":"橘新"},"9231261":{"post_code":"9231261","prefecture":"ISHIKAWA KEN","city":"NOMI GUN KAWAKITA MACHI","town":"TSUCHIMURO","perfecture_jp":"石川県","jp_add_1":"能美郡川北町","jp_add_2":"土室"},"9231251":{"post_code":"9231251","prefecture":"ISHIKAWA KEN","city":"NOMI GUN KAWAKITA MACHI","town":"TOZO","perfecture_jp":"石川県","jp_add_1":"能美郡川北町","jp_add_2":"藤蔵"},"9231252":{"post_code":"9231252","prefecture":"ISHIKAWA KEN","city":"NOMI GUN KAWAKITA MACHI","town":"NAKAJIMA","perfecture_jp":"石川県","jp_add_1":"能美郡川北町","jp_add_2":"中島"},"9231267":{"post_code":"9231267","prefecture":"ISHIKAWA KEN","city":"NOMI GUN KAWAKITA MACHI","town":"HITOTSUYA","perfecture_jp":"石川県","jp_add_1":"能美郡川北町","jp_add_2":"壱ツ屋"},"9231273":{"post_code":"9231273","prefecture":"ISHIKAWA KEN","city":"NOMI GUN KAWAKITA MACHI","town":"FUNABAJIMA","perfecture_jp":"石川県","jp_add_1":"能美郡川北町","jp_add_2":"舟場島"},"9231264":{"post_code":"9231264","prefecture":"ISHIKAWA KEN","city":"NOMI GUN KAWAKITA MACHI","town":"YAMADASENDEN","perfecture_jp":"石川県","jp_add_1":"能美郡川北町","jp_add_2":"山田先出"},"9231268":{"post_code":"9231268","prefecture":"ISHIKAWA KEN","city":"NOMI GUN KAWAKITA MACHI","town":"YOKUROJIMA","perfecture_jp":"石川県","jp_add_1":"能美郡川北町","jp_add_2":"与九郎島"}}