{"9250000":{"post_code":"9250000","prefecture":"ISHIKAWA KEN","city":"HAKUI SHI","town":"IKANIKEISAIGANAIBAAI","perfecture_jp":"石川県","jp_add_1":"羽咋市","jp_add_2":""},"9250045":{"post_code":"9250045","prefecture":"ISHIKAWA KEN","city":"HAKUI SHI","town":"AOMACHI","perfecture_jp":"石川県","jp_add_1":"羽咋市","jp_add_2":"粟生町"},"9250034":{"post_code":"9250034","prefecture":"ISHIKAWA KEN","city":"HAKUI SHI","town":"ASAHIMACHI","perfecture_jp":"石川県","jp_add_1":"羽咋市","jp_add_2":"旭町"},"9250043":{"post_code":"9250043","prefecture":"ISHIKAWA KEN","city":"HAKUI SHI","town":"AWARAMACHI","perfecture_jp":"石川県","jp_add_1":"羽咋市","jp_add_2":"粟原町"},"9250026":{"post_code":"9250026","prefecture":"ISHIKAWA KEN","city":"HAKUI SHI","town":"ISHINOMACHI","perfecture_jp":"石川県","jp_add_1":"羽咋市","jp_add_2":"石野町"},"9250004":{"post_code":"9250004","prefecture":"ISHIKAWA KEN","city":"HAKUI SHI","town":"ICHINOMIYAMACHI","perfecture_jp":"石川県","jp_add_1":"羽咋市","jp_add_2":"一ノ宮町"},"9250613":{"post_code":"9250613","prefecture":"ISHIKAWA KEN","city":"HAKUI SHI","town":"INOYAMAMACHI","perfecture_jp":"石川県","jp_add_1":"羽咋市","jp_add_2":"飯山町"},"9250605":{"post_code":"9250605","prefecture":"ISHIKAWA KEN","city":"HAKUI SHI","town":"UDONOMACHI","perfecture_jp":"石川県","jp_add_1":"羽咋市","jp_add_2":"宇土野町"},"9250611":{"post_code":"9250611","prefecture":"ISHIKAWA KEN","city":"HAKUI SHI","town":"UWAEMACHI","perfecture_jp":"石川県","jp_add_1":"羽咋市","jp_add_2":"上江町"},"9250015":{"post_code":"9250015","prefecture":"ISHIKAWA KEN","city":"HAKUI SHI","town":"OKAWAMACHI","perfecture_jp":"石川県","jp_add_1":"羽咋市","jp_add_2":"大川町"},"9250025":{"post_code":"9250025","prefecture":"ISHIKAWA KEN","city":"HAKUI SHI","town":"OTAMACHI","perfecture_jp":"石川県","jp_add_1":"羽咋市","jp_add_2":"太田町"},"9250625":{"post_code":"9250625","prefecture":"ISHIKAWA KEN","city":"HAKUI SHI","town":"ONAGAMACHI","perfecture_jp":"石川県","jp_add_1":"羽咋市","jp_add_2":"尾長町"},"9250612":{"post_code":"9250612","prefecture":"ISHIKAWA KEN","city":"HAKUI SHI","town":"KAKUTTAMACHI","perfecture_jp":"石川県","jp_add_1":"羽咋市","jp_add_2":"垣内田町"},"9250014":{"post_code":"9250014","prefecture":"ISHIKAWA KEN","city":"HAKUI SHI","town":"KAMAYAMACHI","perfecture_jp":"石川県","jp_add_1":"羽咋市","jp_add_2":"釜屋町"},"9250607":{"post_code":"9250607","prefecture":"ISHIKAWA KEN","city":"HAKUI SHI","town":"KAMISHIROSEMACHI","perfecture_jp":"石川県","jp_add_1":"羽咋市","jp_add_2":"上白瀬町"},"9250011":{"post_code":"9250011","prefecture":"ISHIKAWA KEN","city":"HAKUI SHI","town":"KAMINAKAYAMAMACHI","perfecture_jp":"石川県","jp_add_1":"羽咋市","jp_add_2":"上中山町"},"9250033":{"post_code":"9250033","prefecture":"ISHIKAWA KEN","city":"HAKUI SHI","town":"KAWARAMACHI","perfecture_jp":"石川県","jp_add_1":"羽咋市","jp_add_2":"川原町"},"9250047":{"post_code":"9250047","prefecture":"ISHIKAWA KEN","city":"HAKUI SHI","town":"GOBOYAMAMACHI","perfecture_jp":"石川県","jp_add_1":"羽咋市","jp_add_2":"御坊山町"},"9250003":{"post_code":"9250003","prefecture":"ISHIKAWA KEN","city":"HAKUI SHI","town":"JIKEMACHI","perfecture_jp":"石川県","jp_add_1":"羽咋市","jp_add_2":"寺家町"},"9250624":{"post_code":"9250624","prefecture":"ISHIKAWA KEN","city":"HAKUI SHI","town":"SHIJIMIMACHI","perfecture_jp":"石川県","jp_add_1":"羽咋市","jp_add_2":"志々見町"},"9250616":{"post_code":"9250616","prefecture":"ISHIKAWA KEN","city":"HAKUI SHI","town":"SHICHO","perfecture_jp":"石川県","jp_add_1":"羽咋市","jp_add_2":"四町"},"9250001":{"post_code":"9250001","prefecture":"ISHIKAWA KEN","city":"HAKUI SHI","town":"SHIBAGAKIMACHI","perfecture_jp":"石川県","jp_add_1":"羽咋市","jp_add_2":"柴垣町"},"9250051":{"post_code":"9250051","prefecture":"ISHIKAWA KEN","city":"HAKUI SHI","town":"SHIMADEMACHI","perfecture_jp":"石川県","jp_add_1":"羽咋市","jp_add_2":"島出町"},"9250604":{"post_code":"9250604","prefecture":"ISHIKAWA KEN","city":"HAKUI SHI","town":"SHIROISHIMACHI","perfecture_jp":"石川県","jp_add_1":"羽咋市","jp_add_2":"白石町"},"9250606":{"post_code":"9250606","prefecture":"ISHIKAWA KEN","city":"HAKUI SHI","town":"SHIROSEMACHI","perfecture_jp":"石川県","jp_add_1":"羽咋市","jp_add_2":"白瀬町"},"9250044":{"post_code":"9250044","prefecture":"ISHIKAWA KEN","city":"HAKUI SHI","town":"SHIMBOMACHI","perfecture_jp":"石川県","jp_add_1":"羽咋市","jp_add_2":"新保町"},"9250601":{"post_code":"9250601","prefecture":"ISHIKAWA KEN","city":"HAKUI SHI","town":"SUGAIKEMACHI","perfecture_jp":"石川県","jp_add_1":"羽咋市","jp_add_2":"菅池町"},"9250028":{"post_code":"9250028","prefecture":"ISHIKAWA KEN","city":"HAKUI SHI","town":"SUBAMACHI","perfecture_jp":"石川県","jp_add_1":"羽咋市","jp_add_2":"次場町"},"9250602":{"post_code":"9250602","prefecture":"ISHIKAWA KEN","city":"HAKUI SHI","town":"SENGOKUMACHI","perfecture_jp":"石川県","jp_add_1":"羽咋市","jp_add_2":"千石町"},"9250626":{"post_code":"9250626","prefecture":"ISHIKAWA KEN","city":"HAKUI SHI","town":"SENDAMACHI","perfecture_jp":"石川県","jp_add_1":"羽咋市","jp_add_2":"千田町"},"9250002":{"post_code":"9250002","prefecture":"ISHIKAWA KEN","city":"HAKUI SHI","town":"TAKIDANIMACHI","perfecture_jp":"石川県","jp_add_1":"羽咋市","jp_add_2":"滝谷町"},"9250005":{"post_code":"9250005","prefecture":"ISHIKAWA KEN","city":"HAKUI SHI","town":"TAKIMACHI","perfecture_jp":"石川県","jp_add_1":"羽咋市","jp_add_2":"滝町"},"9250012":{"post_code":"9250012","prefecture":"ISHIKAWA KEN","city":"HAKUI SHI","town":"CHIJIMACHI","perfecture_jp":"石川県","jp_add_1":"羽咋市","jp_add_2":"千路町"},"9250052":{"post_code":"9250052","prefecture":"ISHIKAWA KEN","city":"HAKUI SHI","town":"CHUOMACHI","perfecture_jp":"石川県","jp_add_1":"羽咋市","jp_add_2":"中央町"},"9250615":{"post_code":"9250615","prefecture":"ISHIKAWA KEN","city":"HAKUI SHI","town":"CHIYOMACHI","perfecture_jp":"石川県","jp_add_1":"羽咋市","jp_add_2":"千代町"},"9250054":{"post_code":"9250054","prefecture":"ISHIKAWA KEN","city":"HAKUI SHI","town":"CHIRIHAMAMACHI","perfecture_jp":"石川県","jp_add_1":"羽咋市","jp_add_2":"千里浜町"},"9250042":{"post_code":"9250042","prefecture":"ISHIKAWA KEN","city":"HAKUI SHI","town":"TSUCHIHASHIMACHI","perfecture_jp":"石川県","jp_add_1":"羽咋市","jp_add_2":"土橋町"},"9250617":{"post_code":"9250617","prefecture":"ISHIKAWA KEN","city":"HAKUI SHI","town":"TSUMURAIMACHI","perfecture_jp":"石川県","jp_add_1":"羽咋市","jp_add_2":"円井町"},"9250027":{"post_code":"9250027","prefecture":"ISHIKAWA KEN","city":"HAKUI SHI","town":"TSURUTAMACHI","perfecture_jp":"石川県","jp_add_1":"羽咋市","jp_add_2":"鶴多町"},"9250614":{"post_code":"9250614","prefecture":"ISHIKAWA KEN","city":"HAKUI SHI","town":"NAKAGAWAMACHI","perfecture_jp":"石川県","jp_add_1":"羽咋市","jp_add_2":"中川町"},"9250017":{"post_code":"9250017","prefecture":"ISHIKAWA KEN","city":"HAKUI SHI","town":"NISHIKAMAYAMACHI","perfecture_jp":"石川県","jp_add_1":"羽咋市","jp_add_2":"西釜屋町"},"9250016":{"post_code":"9250016","prefecture":"ISHIKAWA KEN","city":"HAKUI SHI","town":"HAKUIMACHI","perfecture_jp":"石川県","jp_add_1":"羽咋市","jp_add_2":"羽咋町"},"9250013":{"post_code":"9250013","prefecture":"ISHIKAWA KEN","city":"HAKUI SHI","town":"HIGASHIKAMAYAMACHI","perfecture_jp":"石川県","jp_add_1":"羽咋市","jp_add_2":"東釜屋町"},"9250032":{"post_code":"9250032","prefecture":"ISHIKAWA KEN","city":"HAKUI SHI","town":"HIGASHIKAWARAMACHI","perfecture_jp":"石川県","jp_add_1":"羽咋市","jp_add_2":"東川原町"},"9250031":{"post_code":"9250031","prefecture":"ISHIKAWA KEN","city":"HAKUI SHI","town":"HIGASHIMATOBAMACHI","perfecture_jp":"石川県","jp_add_1":"羽咋市","jp_add_2":"東的場町"},"9250621":{"post_code":"9250621","prefecture":"ISHIKAWA KEN","city":"HAKUI SHI","town":"HISHIWAKEMACHI","perfecture_jp":"石川県","jp_add_1":"羽咋市","jp_add_2":"菱分町"},"9250046":{"post_code":"9250046","prefecture":"ISHIKAWA KEN","city":"HAKUI SHI","town":"HYOGOMACHI","perfecture_jp":"石川県","jp_add_1":"羽咋市","jp_add_2":"兵庫町"},"9250022":{"post_code":"9250022","prefecture":"ISHIKAWA KEN","city":"HAKUI SHI","town":"FUKAEMACHI","perfecture_jp":"石川県","jp_add_1":"羽咋市","jp_add_2":"深江町"},"9250603":{"post_code":"9250603","prefecture":"ISHIKAWA KEN","city":"HAKUI SHI","town":"FUKUMIZUMACHI","perfecture_jp":"石川県","jp_add_1":"羽咋市","jp_add_2":"福水町"},"9250622":{"post_code":"9250622","prefecture":"ISHIKAWA KEN","city":"HAKUI SHI","town":"HORIKAESHIMMACHI","perfecture_jp":"石川県","jp_add_1":"羽咋市","jp_add_2":"堀替新町"},"9250623":{"post_code":"9250623","prefecture":"ISHIKAWA KEN","city":"HAKUI SHI","town":"HONGOMACHI","perfecture_jp":"石川県","jp_add_1":"羽咋市","jp_add_2":"本江町"},"9250035":{"post_code":"9250035","prefecture":"ISHIKAWA KEN","city":"HAKUI SHI","town":"HOMMACHI","perfecture_jp":"石川県","jp_add_1":"羽咋市","jp_add_2":"本町"},"9250048":{"post_code":"9250048","prefecture":"ISHIKAWA KEN","city":"HAKUI SHI","town":"MATSUGASHITAMACHI","perfecture_jp":"石川県","jp_add_1":"羽咋市","jp_add_2":"松ケ下町"},"9250036":{"post_code":"9250036","prefecture":"ISHIKAWA KEN","city":"HAKUI SHI","town":"MATOBAMACHI","perfecture_jp":"石川県","jp_add_1":"羽咋市","jp_add_2":"的場町"},"9250608":{"post_code":"9250608","prefecture":"ISHIKAWA KEN","city":"HAKUI SHI","town":"MIKOHARAMACHI","perfecture_jp":"石川県","jp_add_1":"羽咋市","jp_add_2":"神子原町"},"9250024":{"post_code":"9250024","prefecture":"ISHIKAWA KEN","city":"HAKUI SHI","town":"MITSUYAMACHI","perfecture_jp":"石川県","jp_add_1":"羽咋市","jp_add_2":"三ツ屋町"},"9250053":{"post_code":"9250053","prefecture":"ISHIKAWA KEN","city":"HAKUI SHI","town":"MINAMICHUOMACHI","perfecture_jp":"石川県","jp_add_1":"羽咋市","jp_add_2":"南中央町"},"9250018":{"post_code":"9250018","prefecture":"ISHIKAWA KEN","city":"HAKUI SHI","town":"YANAIDAMACHI","perfecture_jp":"石川県","jp_add_1":"羽咋市","jp_add_2":"柳田町"},"9250049":{"post_code":"9250049","prefecture":"ISHIKAWA KEN","city":"HAKUI SHI","town":"YANAGIBASHIMACHI","perfecture_jp":"石川県","jp_add_1":"羽咋市","jp_add_2":"柳橋町"},"9250021":{"post_code":"9250021","prefecture":"ISHIKAWA KEN","city":"HAKUI SHI","town":"YOSHISAKIMACHI","perfecture_jp":"石川県","jp_add_1":"羽咋市","jp_add_2":"吉崎町"},"9250041":{"post_code":"9250041","prefecture":"ISHIKAWA KEN","city":"HAKUI SHI","town":"RYUGAIMACHI","perfecture_jp":"石川県","jp_add_1":"羽咋市","jp_add_2":"立開町"},"9250023":{"post_code":"9250023","prefecture":"ISHIKAWA KEN","city":"HAKUI SHI","town":"WAKAKUSAMACHI","perfecture_jp":"石川県","jp_add_1":"羽咋市","jp_add_2":"若草町"},"9250100":{"post_code":"9250100","prefecture":"ISHIKAWA KEN","city":"HAKUI GUN SHIKA MACHI","town":"IKANIKEISAIGANAIBAAI","perfecture_jp":"石川県","jp_add_1":"羽咋郡志賀町","jp_add_2":""},"9250454":{"post_code":"9250454","prefecture":"ISHIKAWA KEN","city":"HAKUI GUN SHIKA MACHI","town":"AIKAMI","perfecture_jp":"石川県","jp_add_1":"羽咋郡志賀町","jp_add_2":"相神"},"9250574":{"post_code":"9250574","prefecture":"ISHIKAWA KEN","city":"HAKUI GUN SHIKA MACHI","town":"AKASAKI","perfecture_jp":"石川県","jp_add_1":"羽咋郡志賀町","jp_add_2":"赤崎"},"9250161":{"post_code":"9250161","prefecture":"ISHIKAWA KEN","city":"HAKUI GUN SHIKA MACHI","town":"AKASUMI","perfecture_jp":"石川県","jp_add_1":"羽咋郡志賀町","jp_add_2":"赤住"},"9250426":{"post_code":"9250426","prefecture":"ISHIKAWA KEN","city":"HAKUI GUN SHIKA MACHI","town":"AKO","perfecture_jp":"石川県","jp_add_1":"羽咋郡志賀町","jp_add_2":"阿川"},"9250121":{"post_code":"9250121","prefecture":"ISHIKAWA KEN","city":"HAKUI GUN SHIKA MACHI","town":"AZUMI","perfecture_jp":"石川県","jp_add_1":"羽咋郡志賀町","jp_add_2":"安津見"},"9250132":{"post_code":"9250132","prefecture":"ISHIKAWA KEN","city":"HAKUI GUN SHIKA MACHI","town":"ANAGUCHI","perfecture_jp":"石川県","jp_add_1":"羽咋郡志賀町","jp_add_2":"穴口"},"9250166":{"post_code":"9250166","prefecture":"ISHIKAWA KEN","city":"HAKUI GUN SHIKA MACHI","town":"ABUYA","perfecture_jp":"石川県","jp_add_1":"羽咋郡志賀町","jp_add_2":"安部屋"},"9250146":{"post_code":"9250146","prefecture":"ISHIKAWA KEN","city":"HAKUI GUN SHIKA MACHI","town":"AMADA","perfecture_jp":"石川県","jp_add_1":"羽咋郡志賀町","jp_add_2":"甘田"},"9250307":{"post_code":"9250307","prefecture":"ISHIKAWA KEN","city":"HAKUI GUN SHIKA MACHI","town":"ARAYA","perfecture_jp":"石川県","jp_add_1":"羽咋郡志賀町","jp_add_2":"荒屋"},"9250215":{"post_code":"9250215","prefecture":"ISHIKAWA KEN","city":"HAKUI GUN SHIKA MACHI","town":"IZUMO","perfecture_jp":"石川県","jp_add_1":"羽咋郡志賀町","jp_add_2":"出雲"},"9250563":{"post_code":"9250563","prefecture":"ISHIKAWA KEN","city":"HAKUI GUN SHIKA MACHI","town":"INASHIKI","perfecture_jp":"石川県","jp_add_1":"羽咋郡志賀町","jp_add_2":"稲敷"},"9250432":{"post_code":"9250432","prefecture":"ISHIKAWA KEN","city":"HAKUI GUN SHIKA MACHI","town":"IMADA","perfecture_jp":"石川県","jp_add_1":"羽咋郡志賀町","jp_add_2":"今田"},"9250424":{"post_code":"9250424","prefecture":"ISHIKAWA KEN","city":"HAKUI GUN SHIKA MACHI","town":"IRIGAMA","perfecture_jp":"石川県","jp_add_1":"羽咋郡志賀町","jp_add_2":"入釜"},"9250145":{"post_code":"9250145","prefecture":"ISHIKAWA KEN","city":"HAKUI GUN SHIKA MACHI","town":"IWATA","perfecture_jp":"石川県","jp_add_1":"羽咋郡志賀町","jp_add_2":"岩田"},"9250201":{"post_code":"9250201","prefecture":"ISHIKAWA KEN","city":"HAKUI GUN SHIKA MACHI","town":"INNAI","perfecture_jp":"石川県","jp_add_1":"羽咋郡志賀町","jp_add_2":"印内"},"9250385":{"post_code":"9250385","prefecture":"ISHIKAWA KEN","city":"HAKUI GUN SHIKA MACHI","town":"USHIGAKUBI","perfecture_jp":"石川県","jp_add_1":"羽咋郡志賀町","jp_add_2":"牛ケ首"},"9250423":{"post_code":"9250423","prefecture":"ISHIKAWA KEN","city":"HAKUI GUN SHIKA MACHI","town":"UNOYA","perfecture_jp":"石川県","jp_add_1":"羽咋郡志賀町","jp_add_2":"鵜野屋"},"9250134":{"post_code":"9250134","prefecture":"ISHIKAWA KEN","city":"HAKUI GUN SHIKA MACHI","town":"UWADANA","perfecture_jp":"石川県","jp_add_1":"羽咋郡志賀町","jp_add_2":"上棚"},"9250165":{"post_code":"9250165","prefecture":"ISHIKAWA KEN","city":"HAKUI GUN SHIKA MACHI","town":"UWANO","perfecture_jp":"石川県","jp_add_1":"羽咋郡志賀町","jp_add_2":"上野"},"9250435":{"post_code":"9250435","prefecture":"ISHIKAWA KEN","city":"HAKUI GUN SHIKA MACHI","town":"EZOE","perfecture_jp":"石川県","jp_add_1":"羽咋郡志賀町","jp_add_2":"江添"},"9250163":{"post_code":"9250163","prefecture":"ISHIKAWA KEN","city":"HAKUI GUN SHIKA MACHI","town":"ORA","perfecture_jp":"石川県","jp_add_1":"羽咋郡志賀町","jp_add_2":"小浦"},"9250133":{"post_code":"9250133","prefecture":"ISHIKAWA KEN","city":"HAKUI GUN SHIKA MACHI","town":"OSAKA","perfecture_jp":"石川県","jp_add_1":"羽咋郡志賀町","jp_add_2":"大坂"},"9250383":{"post_code":"9250383","prefecture":"ISHIKAWA KEN","city":"HAKUI GUN SHIKA MACHI","town":"OZASA","perfecture_jp":"石川県","jp_add_1":"羽咋郡志賀町","jp_add_2":"大笹"},"9250164":{"post_code":"9250164","prefecture":"ISHIKAWA KEN","city":"HAKUI GUN SHIKA MACHI","town":"OZU","perfecture_jp":"石川県","jp_add_1":"羽咋郡志賀町","jp_add_2":"大津"},"9250434":{"post_code":"9250434","prefecture":"ISHIKAWA KEN","city":"HAKUI GUN SHIKA MACHI","town":"ONISHI","perfecture_jp":"石川県","jp_add_1":"羽咋郡志賀町","jp_add_2":"大西"},"9250575":{"post_code":"9250575","prefecture":"ISHIKAWA KEN","city":"HAKUI GUN SHIKA MACHI","town":"OKUBO","perfecture_jp":"石川県","jp_add_1":"羽咋郡志賀町","jp_add_2":"小窪"},"9250147":{"post_code":"9250147","prefecture":"ISHIKAWA KEN","city":"HAKUI GUN SHIKA MACHI","town":"OSHIMA","perfecture_jp":"石川県","jp_add_1":"羽咋郡志賀町","jp_add_2":"大島"},"9250436":{"post_code":"9250436","prefecture":"ISHIKAWA KEN","city":"HAKUI GUN SHIKA MACHI","town":"KAIDA","perfecture_jp":"石川県","jp_add_1":"羽咋郡志賀町","jp_add_2":"貝田"},"9250562":{"post_code":"9250562","prefecture":"ISHIKAWA KEN","city":"HAKUI GUN SHIKA MACHI","town":"KAINOKI","perfecture_jp":"石川県","jp_add_1":"羽咋郡志賀町","jp_add_2":"栢木"},"9250155":{"post_code":"9250155","prefecture":"ISHIKAWA KEN","city":"HAKUI GUN SHIKA MACHI","town":"KAKUMI","perfecture_jp":"石川県","jp_add_1":"羽咋郡志賀町","jp_add_2":"神代"},"9250565":{"post_code":"9250565","prefecture":"ISHIKAWA KEN","city":"HAKUI GUN SHIKA MACHI","town":"KANO","perfecture_jp":"石川県","jp_add_1":"羽咋郡志賀町","jp_add_2":"香能"},"9250168":{"post_code":"9250168","prefecture":"ISHIKAWA KEN","city":"HAKUI GUN SHIKA MACHI","town":"KAWASHIRI","perfecture_jp":"石川県","jp_add_1":"羽咋郡志賀町","jp_add_2":"川尻"},"9250152":{"post_code":"9250152","prefecture":"ISHIKAWA KEN","city":"HAKUI GUN SHIKA MACHI","town":"KITAYOSHIDA","perfecture_jp":"石川県","jp_add_1":"羽咋郡志賀町","jp_add_2":"北吉田"},"9250457":{"post_code":"9250457","prefecture":"ISHIKAWA KEN","city":"HAKUI GUN SHIKA MACHI","town":"KYUBUN","perfecture_jp":"石川県","jp_add_1":"羽咋郡志賀町","jp_add_2":"給分"},"9250421":{"post_code":"9250421","prefecture":"ISHIKAWA KEN","city":"HAKUI GUN SHIKA MACHI","town":"KIRIDOME","perfecture_jp":"石川県","jp_add_1":"羽咋郡志賀町","jp_add_2":"切留"},"9250306":{"post_code":"9250306","prefecture":"ISHIKAWA KEN","city":"HAKUI GUN SHIKA MACHI","town":"KUSAGI","perfecture_jp":"石川県","jp_add_1":"羽咋郡志賀町","jp_add_2":"草木"},"9250122":{"post_code":"9250122","prefecture":"ISHIKAWA KEN","city":"HAKUI GUN SHIKA MACHI","town":"KURAKAKI","perfecture_jp":"石川県","jp_add_1":"羽咋郡志賀町","jp_add_2":"倉垣"},"9250207":{"post_code":"9250207","prefecture":"ISHIKAWA KEN","city":"HAKUI GUN SHIKA MACHI","town":"KURIYAMA","perfecture_jp":"石川県","jp_add_1":"羽咋郡志賀町","jp_add_2":"栗山"},"9250373":{"post_code":"9250373","prefecture":"ISHIKAWA KEN","city":"HAKUI GUN SHIKA MACHI","town":"KOMORO","perfecture_jp":"石川県","jp_add_1":"羽咋郡志賀町","jp_add_2":"小室"},"9250384":{"post_code":"9250384","prefecture":"ISHIKAWA KEN","city":"HAKUI GUN SHIKA MACHI","town":"GORITOGE","perfecture_jp":"石川県","jp_add_1":"羽咋郡志賀町","jp_add_2":"五里峠"},"9250382":{"post_code":"9250382","prefecture":"ISHIKAWA KEN","city":"HAKUI GUN SHIKA MACHI","town":"KOMMACHI","perfecture_jp":"石川県","jp_add_1":"羽咋郡志賀町","jp_add_2":"米町"},"9250571":{"post_code":"9250571","prefecture":"ISHIKAWA KEN","city":"HAKUI GUN SHIKA MACHI","town":"SAIKAI KAZANASHI","perfecture_jp":"石川県","jp_add_1":"羽咋郡志賀町","jp_add_2":"西海風無"},"9250572":{"post_code":"9250572","prefecture":"ISHIKAWA KEN","city":"HAKUI GUN SHIKA MACHI","town":"SAIKAI CHINORA","perfecture_jp":"石川県","jp_add_1":"羽咋郡志賀町","jp_add_2":"西海千ノ浦"},"9250573":{"post_code":"9250573","prefecture":"ISHIKAWA KEN","city":"HAKUI GUN SHIKA MACHI","town":"SAIKAI HISAKI","perfecture_jp":"石川県","jp_add_1":"羽咋郡志賀町","jp_add_2":"西海久喜"},"9250566":{"post_code":"9250566","prefecture":"ISHIKAWA KEN","city":"HAKUI GUN SHIKA MACHI","town":"SAIKAI FUTO","perfecture_jp":"石川県","jp_add_1":"羽咋郡志賀町","jp_add_2":"西海風戸"},"9250564":{"post_code":"9250564","prefecture":"ISHIKAWA KEN","city":"HAKUI GUN SHIKA MACHI","town":"SAKAMI","perfecture_jp":"石川県","jp_add_1":"羽咋郡志賀町","jp_add_2":"酒見"},"9250577":{"post_code":"9250577","prefecture":"ISHIKAWA KEN","city":"HAKUI GUN SHIKA MACHI","town":"SASANAMI","perfecture_jp":"石川県","jp_add_1":"羽咋郡志賀町","jp_add_2":"笹波"},"9250453":{"post_code":"9250453","prefecture":"ISHIKAWA KEN","city":"HAKUI GUN SHIKA MACHI","town":"SATOHONGO","perfecture_jp":"石川県","jp_add_1":"羽咋郡志賀町","jp_add_2":"里本江"},"9250313":{"post_code":"9250313","prefecture":"ISHIKAWA KEN","city":"HAKUI GUN SHIKA MACHI","town":"SAMMYO","perfecture_jp":"石川県","jp_add_1":"羽咋郡志賀町","jp_add_2":"三明"},"9250576":{"post_code":"9250576","prefecture":"ISHIKAWA KEN","city":"HAKUI GUN SHIKA MACHI","town":"SHISHIZU","perfecture_jp":"石川県","jp_add_1":"羽咋郡志賀町","jp_add_2":"鹿頭"},"9250202":{"post_code":"9250202","prefecture":"ISHIKAWA KEN","city":"HAKUI GUN SHIKA MACHI","town":"SHINANTA","perfecture_jp":"石川県","jp_add_1":"羽咋郡志賀町","jp_add_2":"代田"},"9250422":{"post_code":"9250422","prefecture":"ISHIKAWA KEN","city":"HAKUI GUN SHIKA MACHI","town":"JIHO","perfecture_jp":"石川県","jp_add_1":"羽咋郡志賀町","jp_add_2":"地保"},"9250153":{"post_code":"9250153","prefecture":"ISHIKAWA KEN","city":"HAKUI GUN SHIKA MACHI","town":"SHIMIZUIMAE","perfecture_jp":"石川県","jp_add_1":"羽咋郡志賀町","jp_add_2":"清水今江"},"9250371":{"post_code":"9250371","prefecture":"ISHIKAWA KEN","city":"HAKUI GUN SHIKA MACHI","town":"SHAKADO","perfecture_jp":"石川県","jp_add_1":"羽咋郡志賀町","jp_add_2":"釈迦堂"},"9250203":{"post_code":"9250203","prefecture":"ISHIKAWA KEN","city":"HAKUI GUN SHIKA MACHI","town":"SHIMBAYASHI","perfecture_jp":"石川県","jp_add_1":"羽咋郡志賀町","jp_add_2":"新林"},"9250154":{"post_code":"9250154","prefecture":"ISHIKAWA KEN","city":"HAKUI GUN SHIKA MACHI","town":"SUEYOSHI","perfecture_jp":"石川県","jp_add_1":"羽咋郡志賀町","jp_add_2":"末吉"},"9250456":{"post_code":"9250456","prefecture":"ISHIKAWA KEN","city":"HAKUI GUN SHIKA MACHI","town":"SOGO","perfecture_jp":"石川県","jp_add_1":"羽咋郡志賀町","jp_add_2":"草江"},"9250427":{"post_code":"9250427","prefecture":"ISHIKAWA KEN","city":"HAKUI GUN SHIKA MACHI","town":"SOWA","perfecture_jp":"石川県","jp_add_1":"羽咋郡志賀町","jp_add_2":"楚和"},"9250431":{"post_code":"9250431","prefecture":"ISHIKAWA KEN","city":"HAKUI GUN SHIKA MACHI","town":"SOMBO","perfecture_jp":"石川県","jp_add_1":"羽咋郡志賀町","jp_add_2":"尊保"},"9250561":{"post_code":"9250561","prefecture":"ISHIKAWA KEN","city":"HAKUI GUN SHIKA MACHI","town":"DAIFUKUJI","perfecture_jp":"石川県","jp_add_1":"羽咋郡志賀町","jp_add_2":"大福寺"},"9250141":{"post_code":"9250141","prefecture":"ISHIKAWA KEN","city":"HAKUI GUN SHIKA MACHI","town":"TAKAHAMACHO","perfecture_jp":"石川県","jp_add_1":"羽咋郡志賀町","jp_add_2":"高浜町"},"9250136":{"post_code":"9250136","prefecture":"ISHIKAWA KEN","city":"HAKUI GUN SHIKA MACHI","town":"TACHI","perfecture_jp":"石川県","jp_add_1":"羽咋郡志賀町","jp_add_2":"舘"},"9250213":{"post_code":"9250213","prefecture":"ISHIKAWA KEN","city":"HAKUI GUN SHIKA MACHI","town":"TACHIHIRAKI","perfecture_jp":"石川県","jp_add_1":"羽咋郡志賀町","jp_add_2":"舘開"},"9250437":{"post_code":"9250437","prefecture":"ISHIKAWA KEN","city":"HAKUI GUN SHIKA MACHI","town":"TANAKA","perfecture_jp":"石川県","jp_add_1":"羽咋郡志賀町","jp_add_2":"田中"},"9250206":{"post_code":"9250206","prefecture":"ISHIKAWA KEN","city":"HAKUI GUN SHIKA MACHI","town":"TANIYA","perfecture_jp":"石川県","jp_add_1":"羽咋郡志賀町","jp_add_2":"谷屋"},"9250381":{"post_code":"9250381","prefecture":"ISHIKAWA KEN","city":"HAKUI GUN SHIKA MACHI","town":"TAWARA","perfecture_jp":"石川県","jp_add_1":"羽咋郡志賀町","jp_add_2":"田原"},"9250144":{"post_code":"9250144","prefecture":"ISHIKAWA KEN","city":"HAKUI GUN SHIKA MACHI","town":"TSUBONO","perfecture_jp":"石川県","jp_add_1":"羽咋郡志賀町","jp_add_2":"坪野"},"9250345":{"post_code":"9250345","prefecture":"ISHIKAWA KEN","city":"HAKUI GUN SHIKA MACHI","town":"TOGI USHIOROSHI(GAMMON)","perfecture_jp":"石川県","jp_add_1":"羽咋郡志賀町","jp_add_2":"富来牛下"},"9250445":{"post_code":"9250445","prefecture":"ISHIKAWA KEN","city":"HAKUI GUN SHIKA MACHI","town":"TOGI USHIOROSHI(SONOTA)","perfecture_jp":"石川県","jp_add_1":"羽咋郡志賀町","jp_add_2":"富来牛下"},"9250444":{"post_code":"9250444","prefecture":"ISHIKAWA KEN","city":"HAKUI GUN SHIKA MACHI","town":"TOGI URUKAMI","perfecture_jp":"石川県","jp_add_1":"羽咋郡志賀町","jp_add_2":"富来生神"},"9250443":{"post_code":"9250443","prefecture":"ISHIKAWA KEN","city":"HAKUI GUN SHIKA MACHI","town":"TOGI SHITSUMI","perfecture_jp":"石川県","jp_add_1":"羽咋郡志賀町","jp_add_2":"富来七海"},"9250446":{"post_code":"9250446","prefecture":"ISHIKAWA KEN","city":"HAKUI GUN SHIKA MACHI","town":"TOGI JITOMACHI","perfecture_jp":"石川県","jp_add_1":"羽咋郡志賀町","jp_add_2":"富来地頭町"},"9250448":{"post_code":"9250448","prefecture":"ISHIKAWA KEN","city":"HAKUI GUN SHIKA MACHI","town":"TOGI TAKATA","perfecture_jp":"石川県","jp_add_1":"羽咋郡志賀町","jp_add_2":"富来高田"},"9250447":{"post_code":"9250447","prefecture":"ISHIKAWA KEN","city":"HAKUI GUN SHIKA MACHI","town":"TOGI RYOKEMACHI","perfecture_jp":"石川県","jp_add_1":"羽咋郡志賀町","jp_add_2":"富来領家町"},"9250212":{"post_code":"9250212","prefecture":"ISHIKAWA KEN","city":"HAKUI GUN SHIKA MACHI","town":"TOKUDA","perfecture_jp":"石川県","jp_add_1":"羽咋郡志賀町","jp_add_2":"徳田"},"9250425":{"post_code":"9250425","prefecture":"ISHIKAWA KEN","city":"HAKUI GUN SHIKA MACHI","town":"TOBOSHI","perfecture_jp":"石川県","jp_add_1":"羽咋郡志賀町","jp_add_2":"灯"},"9250452":{"post_code":"9250452","prefecture":"ISHIKAWA KEN","city":"HAKUI GUN SHIKA MACHI","town":"YAWATAZASU","perfecture_jp":"石川県","jp_add_1":"羽咋郡志賀町","jp_add_2":"中泉"},"9250148":{"post_code":"9250148","prefecture":"ISHIKAWA KEN","city":"HAKUI GUN SHIKA MACHI","town":"NAGASAWA","perfecture_jp":"石川県","jp_add_1":"羽咋郡志賀町","jp_add_2":"長沢"},"9250376":{"post_code":"9250376","prefecture":"ISHIKAWA KEN","city":"HAKUI GUN SHIKA MACHI","town":"NAGATA","perfecture_jp":"石川県","jp_add_1":"羽咋郡志賀町","jp_add_2":"長田"},"9250314":{"post_code":"9250314","prefecture":"ISHIKAWA KEN","city":"HAKUI GUN SHIKA MACHI","town":"NAKABATA","perfecture_jp":"石川県","jp_add_1":"羽咋郡志賀町","jp_add_2":"中畠"},"9250455":{"post_code":"9250455","prefecture":"ISHIKAWA KEN","city":"HAKUI GUN SHIKA MACHI","town":"NAKAHAMA","perfecture_jp":"石川県","jp_add_1":"羽咋郡志賀町","jp_add_2":"中浜"},"9250304":{"post_code":"9250304","prefecture":"ISHIKAWA KEN","city":"HAKUI GUN SHIKA MACHI","town":"NAKAYAMA","perfecture_jp":"石川県","jp_add_1":"羽咋郡志賀町","jp_add_2":"中山"},"9250151":{"post_code":"9250151","prefecture":"ISHIKAWA KEN","city":"HAKUI GUN SHIKA MACHI","town":"NASHITANIKOYAMA","perfecture_jp":"石川県","jp_add_1":"羽咋郡志賀町","jp_add_2":"梨谷小山"},"9250124":{"post_code":"9250124","prefecture":"ISHIKAWA KEN","city":"HAKUI GUN SHIKA MACHI","town":"NISHIYAMA","perfecture_jp":"石川県","jp_add_1":"羽咋郡志賀町","jp_add_2":"西山"},"9250125":{"post_code":"9250125","prefecture":"ISHIKAWA KEN","city":"HAKUI GUN SHIKA MACHI","town":"NISHIYAMADAI","perfecture_jp":"石川県","jp_add_1":"羽咋郡志賀町","jp_add_2":"西山台"},"9250135":{"post_code":"9250135","prefecture":"ISHIKAWA KEN","city":"HAKUI GUN SHIKA MACHI","town":"NISHONOMIYA","perfecture_jp":"石川県","jp_add_1":"羽咋郡志賀町","jp_add_2":"二所宮"},"9250372":{"post_code":"9250372","prefecture":"ISHIKAWA KEN","city":"HAKUI GUN SHIKA MACHI","town":"NOMI","perfecture_jp":"石川県","jp_add_1":"羽咋郡志賀町","jp_add_2":"直海"},"9250214":{"post_code":"9250214","prefecture":"ISHIKAWA KEN","city":"HAKUI GUN SHIKA MACHI","town":"HIUCHIDANI","perfecture_jp":"石川県","jp_add_1":"羽咋郡志賀町","jp_add_2":"火打谷"},"9250442":{"post_code":"9250442","prefecture":"ISHIKAWA KEN","city":"HAKUI GUN SHIKA MACHI","town":"HIGASHIOMORO","perfecture_jp":"石川県","jp_add_1":"羽咋郡志賀町","jp_add_2":"東小室"},"9250303":{"post_code":"9250303","prefecture":"ISHIKAWA KEN","city":"HAKUI GUN SHIKA MACHI","town":"HIGETA","perfecture_jp":"石川県","jp_add_1":"羽咋郡志賀町","jp_add_2":"日下田"},"9250301":{"post_code":"9250301","prefecture":"ISHIKAWA KEN","city":"HAKUI GUN SHIKA MACHI","town":"HIYO","perfecture_jp":"石川県","jp_add_1":"羽咋郡志賀町","jp_add_2":"日用"},"9250441":{"post_code":"9250441","prefecture":"ISHIKAWA KEN","city":"HAKUI GUN SHIKA MACHI","town":"HIROJI","perfecture_jp":"石川県","jp_add_1":"羽咋郡志賀町","jp_add_2":"広地"},"9250137":{"post_code":"9250137","prefecture":"ISHIKAWA KEN","city":"HAKUI GUN SHIKA MACHI","town":"FUKUI","perfecture_jp":"石川県","jp_add_1":"羽咋郡志賀町","jp_add_2":"福井"},"9250142":{"post_code":"9250142","prefecture":"ISHIKAWA KEN","city":"HAKUI GUN SHIKA MACHI","town":"FUKUNO","perfecture_jp":"石川県","jp_add_1":"羽咋郡志賀町","jp_add_2":"福野"},"9250315":{"post_code":"9250315","prefecture":"ISHIKAWA KEN","city":"HAKUI GUN SHIKA MACHI","town":"FUKURAKO","perfecture_jp":"石川県","jp_add_1":"羽咋郡志賀町","jp_add_2":"福浦港"},"9250305":{"post_code":"9250305","prefecture":"ISHIKAWA KEN","city":"HAKUI GUN SHIKA MACHI","town":"BUNGOME","perfecture_jp":"石川県","jp_add_1":"羽咋郡志賀町","jp_add_2":"豊後名"},"9250205":{"post_code":"9250205","prefecture":"ISHIKAWA KEN","city":"HAKUI GUN SHIKA MACHI","town":"HOTOGIRI","perfecture_jp":"石川県","jp_add_1":"羽咋郡志賀町","jp_add_2":"仏木"},"9250157":{"post_code":"9250157","prefecture":"ISHIKAWA KEN","city":"HAKUI GUN SHIKA MACHI","town":"HORIMATSU","perfecture_jp":"石川県","jp_add_1":"羽咋郡志賀町","jp_add_2":"堀松"},"9250578":{"post_code":"9250578","prefecture":"ISHIKAWA KEN","city":"HAKUI GUN SHIKA MACHI","town":"MAEHAMA","perfecture_jp":"石川県","jp_add_1":"羽咋郡志賀町","jp_add_2":"前浜"},"9250204":{"post_code":"9250204","prefecture":"ISHIKAWA KEN","city":"HAKUI GUN SHIKA MACHI","town":"MAKIYAMA","perfecture_jp":"石川県","jp_add_1":"羽咋郡志賀町","jp_add_2":"牧山"},"9250167":{"post_code":"9250167","prefecture":"ISHIKAWA KEN","city":"HAKUI GUN SHIKA MACHI","town":"MACHI","perfecture_jp":"石川県","jp_add_1":"羽咋郡志賀町","jp_add_2":"町"},"9250302":{"post_code":"9250302","prefecture":"ISHIKAWA KEN","city":"HAKUI GUN SHIKA MACHI","town":"MACHII","perfecture_jp":"石川県","jp_add_1":"羽咋郡志賀町","jp_add_2":"町居"},"9250374":{"post_code":"9250374","prefecture":"ISHIKAWA KEN","city":"HAKUI GUN SHIKA MACHI","town":"MATSUNOKI","perfecture_jp":"石川県","jp_add_1":"羽咋郡志賀町","jp_add_2":"松木"},"9250312":{"post_code":"9250312","prefecture":"ISHIKAWA KEN","city":"HAKUI GUN SHIKA MACHI","town":"MUTSUMI","perfecture_jp":"石川県","jp_add_1":"羽咋郡志賀町","jp_add_2":"六実"},"9250162":{"post_code":"9250162","prefecture":"ISHIKAWA KEN","city":"HAKUI GUN SHIKA MACHI","town":"MOMORA","perfecture_jp":"石川県","jp_add_1":"羽咋郡志賀町","jp_add_2":"百浦"},"9250156":{"post_code":"9250156","prefecture":"ISHIKAWA KEN","city":"HAKUI GUN SHIKA MACHI","town":"YAGURADANI","perfecture_jp":"石川県","jp_add_1":"羽咋郡志賀町","jp_add_2":"矢蔵谷"},"9250211":{"post_code":"9250211","prefecture":"ISHIKAWA KEN","city":"HAKUI GUN SHIKA MACHI","town":"YATA","perfecture_jp":"石川県","jp_add_1":"羽咋郡志賀町","jp_add_2":"矢田"},"9250123":{"post_code":"9250123","prefecture":"ISHIKAWA KEN","city":"HAKUI GUN SHIKA MACHI","town":"YADA","perfecture_jp":"石川県","jp_add_1":"羽咋郡志賀町","jp_add_2":"矢駄"},"9250311":{"post_code":"9250311","prefecture":"ISHIKAWA KEN","city":"HAKUI GUN SHIKA MACHI","town":"YACHIKAMI","perfecture_jp":"石川県","jp_add_1":"羽咋郡志賀町","jp_add_2":"谷神"},"9250438":{"post_code":"9250438","prefecture":"ISHIKAWA KEN","city":"HAKUI GUN SHIKA MACHI","town":"YACHIYO","perfecture_jp":"石川県","jp_add_1":"羽咋郡志賀町","jp_add_2":"八千代"},"9250143":{"post_code":"9250143","prefecture":"ISHIKAWA KEN","city":"HAKUI GUN SHIKA MACHI","town":"YADOME","perfecture_jp":"石川県","jp_add_1":"羽咋郡志賀町","jp_add_2":"宿女"},"9250451":{"post_code":"9250451","prefecture":"ISHIKAWA KEN","city":"HAKUI GUN SHIKA MACHI","town":"YAWATA","perfecture_jp":"石川県","jp_add_1":"羽咋郡志賀町","jp_add_2":"八幡"},"9250131":{"post_code":"9250131","prefecture":"ISHIKAWA KEN","city":"HAKUI GUN SHIKA MACHI","town":"YONEHAMA","perfecture_jp":"石川県","jp_add_1":"羽咋郡志賀町","jp_add_2":"米浜"},"9250375":{"post_code":"9250375","prefecture":"ISHIKAWA KEN","city":"HAKUI GUN SHIKA MACHI","town":"WAKABADAI","perfecture_jp":"石川県","jp_add_1":"羽咋郡志賀町","jp_add_2":"若葉台"},"9250433":{"post_code":"9250433","prefecture":"ISHIKAWA KEN","city":"HAKUI GUN SHIKA MACHI","town":"WADA","perfecture_jp":"石川県","jp_add_1":"羽咋郡志賀町","jp_add_2":"和田"}}