{"9260000":{"post_code":"9260000","prefecture":"ISHIKAWA KEN","city":"NANAO SHI","town":"IKANIKEISAIGANAIBAAI","perfecture_jp":"石川県","jp_add_1":"七尾市","jp_add_2":""},"9260044":{"post_code":"9260044","prefecture":"ISHIKAWA KEN","city":"NANAO SHI","town":"AIOICHO","perfecture_jp":"石川県","jp_add_1":"七尾市","jp_add_2":"相生町"},"9260823":{"post_code":"9260823","prefecture":"ISHIKAWA KEN","city":"NANAO SHI","town":"AOBADAIMACHI","perfecture_jp":"石川県","jp_add_1":"七尾市","jp_add_2":"青葉台町"},"9260831":{"post_code":"9260831","prefecture":"ISHIKAWA KEN","city":"NANAO SHI","town":"IKEZAKIMACHI","perfecture_jp":"石川県","jp_add_1":"七尾市","jp_add_2":"青山町"},"9260843":{"post_code":"9260843","prefecture":"ISHIKAWA KEN","city":"NANAO SHI","town":"AKAURAMACHI","perfecture_jp":"石川県","jp_add_1":"七尾市","jp_add_2":"赤浦町"},"9260833":{"post_code":"9260833","prefecture":"ISHIKAWA KEN","city":"NANAO SHI","town":"ASAHIMACHI","perfecture_jp":"石川県","jp_add_1":"七尾市","jp_add_2":"旭町"},"9260372":{"post_code":"9260372","prefecture":"ISHIKAWA KEN","city":"NANAO SHI","town":"ASOMACHI","perfecture_jp":"石川県","jp_add_1":"七尾市","jp_add_2":"麻生町"},"9260807":{"post_code":"9260807","prefecture":"ISHIKAWA KEN","city":"NANAO SHI","town":"ARAMACHI","perfecture_jp":"石川県","jp_add_1":"七尾市","jp_add_2":"阿良町"},"9260366":{"post_code":"9260366","prefecture":"ISHIKAWA KEN","city":"NANAO SHI","town":"IORIMACHI","perfecture_jp":"石川県","jp_add_1":"七尾市","jp_add_2":"庵町"},"9260364":{"post_code":"9260364","prefecture":"ISHIKAWA KEN","city":"NANAO SHI","town":"ENOTOMARIMACHI(SHIRATOMARIMACHI)","perfecture_jp":"石川県","jp_add_1":"七尾市","jp_add_2":"庵町"},"9260365":{"post_code":"9260365","prefecture":"ISHIKAWA KEN","city":"NANAO SHI","town":"IORIMACHI(DOMIMACHI)","perfecture_jp":"石川県","jp_add_1":"七尾市","jp_add_2":"庵町"},"9260367":{"post_code":"9260367","prefecture":"ISHIKAWA KEN","city":"NANAO SHI","town":"IORIMACHI(MUSHISAKIMACHI)","perfecture_jp":"石川県","jp_add_1":"七尾市","jp_add_2":"庵町"},"9260826":{"post_code":"9260826","prefecture":"ISHIKAWA KEN","city":"NANAO SHI","town":"IGAWAMACHI","perfecture_jp":"石川県","jp_add_1":"七尾市","jp_add_2":"飯川町"},"9260804":{"post_code":"9260804","prefecture":"ISHIKAWA KEN","city":"NANAO SHI","town":"IKOMACHO","perfecture_jp":"石川県","jp_add_1":"七尾市","jp_add_2":"生駒町"},"9260171":{"post_code":"9260171","prefecture":"ISHIKAWA KEN","city":"NANAO SHI","town":"ISHIZAKIMACHI","perfecture_jp":"石川県","jp_add_1":"七尾市","jp_add_2":"石崎町"},"9260178":{"post_code":"9260178","prefecture":"ISHIKAWA KEN","city":"NANAO SHI","town":"ISHIZAKIMACHI(KASHIMA)","perfecture_jp":"石川県","jp_add_1":"七尾市","jp_add_2":"石崎町"},"9260173":{"post_code":"9260173","prefecture":"ISHIKAWA KEN","city":"NANAO SHI","town":"ISHIZAKIMACHI(NISHI)","perfecture_jp":"石川県","jp_add_1":"七尾市","jp_add_2":"石崎町"},"9260172":{"post_code":"9260172","prefecture":"ISHIKAWA KEN","city":"NANAO SHI","town":"ISHIZAKIMACHI(HIGASHI)","perfecture_jp":"石川県","jp_add_1":"七尾市","jp_add_2":"石崎町"},"9260806":{"post_code":"9260806","prefecture":"ISHIKAWA KEN","city":"NANAO SHI","town":"IPPONSUGIMACHI","perfecture_jp":"石川県","jp_add_1":"七尾市","jp_add_2":"一本杉町"},"9260055":{"post_code":"9260055","prefecture":"ISHIKAWA KEN","city":"NANAO SHI","town":"IMAMACHI","perfecture_jp":"石川県","jp_add_1":"七尾市","jp_add_2":"今町"},"9260816":{"post_code":"9260816","prefecture":"ISHIKAWA KEN","city":"NANAO SHI","town":"FUJIHASHIMACHI","perfecture_jp":"石川県","jp_add_1":"七尾市","jp_add_2":"岩屋町"},"9260864":{"post_code":"9260864","prefecture":"ISHIKAWA KEN","city":"NANAO SHI","town":"UOMACHI","perfecture_jp":"石川県","jp_add_1":"七尾市","jp_add_2":"魚町"},"9260027":{"post_code":"9260027","prefecture":"ISHIKAWA KEN","city":"NANAO SHI","town":"USHIROBATAKEMACHI","perfecture_jp":"石川県","jp_add_1":"七尾市","jp_add_2":"後畠町"},"9260001":{"post_code":"9260001","prefecture":"ISHIKAWA KEN","city":"NANAO SHI","town":"UNORAMACHI","perfecture_jp":"石川県","jp_add_1":"七尾市","jp_add_2":"鵜浦町"},"9260825":{"post_code":"9260825","prefecture":"ISHIKAWA KEN","city":"NANAO SHI","town":"ESOMACHI","perfecture_jp":"石川県","jp_add_1":"七尾市","jp_add_2":"江曽町"},"9260363":{"post_code":"9260363","prefecture":"ISHIKAWA KEN","city":"NANAO SHI","town":"ENOTOMARIMACHI","perfecture_jp":"石川県","jp_add_1":"七尾市","jp_add_2":"江泊町"},"9260361":{"post_code":"9260361","prefecture":"ISHIKAWA KEN","city":"NANAO SHI","town":"ENOTOMARIMACHI(HIMUROMACHI)","perfecture_jp":"石川県","jp_add_1":"七尾市","jp_add_2":"江泊町"},"9260006":{"post_code":"9260006","prefecture":"ISHIKAWA KEN","city":"NANAO SHI","town":"OTAMACHI","perfecture_jp":"石川県","jp_add_1":"七尾市","jp_add_2":"大田新町"},"9260047":{"post_code":"9260047","prefecture":"ISHIKAWA KEN","city":"NANAO SHI","town":"OTEMACHI","perfecture_jp":"石川県","jp_add_1":"七尾市","jp_add_2":"大手町"},"9260384":{"post_code":"9260384","prefecture":"ISHIKAWA KEN","city":"NANAO SHI","town":"OTOMARIMACHI","perfecture_jp":"石川県","jp_add_1":"七尾市","jp_add_2":"大泊町"},"9260362":{"post_code":"9260362","prefecture":"ISHIKAWA KEN","city":"NANAO SHI","town":"ONOGIMACHI","perfecture_jp":"石川県","jp_add_1":"七尾市","jp_add_2":"大野木町"},"9260005":{"post_code":"9260005","prefecture":"ISHIKAWA KEN","city":"NANAO SHI","town":"OKAMACHI","perfecture_jp":"石川県","jp_add_1":"七尾市","jp_add_2":"岡町"},"9260174":{"post_code":"9260174","prefecture":"ISHIKAWA KEN","city":"NANAO SHI","town":"OKUHARAMACHI","perfecture_jp":"石川県","jp_add_1":"七尾市","jp_add_2":"奥原町"},"9260373":{"post_code":"9260373","prefecture":"ISHIKAWA KEN","city":"NANAO SHI","town":"OGURIMACHI","perfecture_jp":"石川県","jp_add_1":"七尾市","jp_add_2":"小栗町"},"9260057":{"post_code":"9260057","prefecture":"ISHIKAWA KEN","city":"NANAO SHI","town":"KAJIMACHI","perfecture_jp":"石川県","jp_add_1":"七尾市","jp_add_2":"鍛冶町"},"9260053":{"post_code":"9260053","prefecture":"ISHIKAWA KEN","city":"NANAO SHI","town":"KAMIFUCHUMACHI","perfecture_jp":"石川県","jp_add_1":"七尾市","jp_add_2":"上府中町"},"9260805":{"post_code":"9260805","prefecture":"ISHIKAWA KEN","city":"NANAO SHI","town":"KAMEYAMACHO","perfecture_jp":"石川県","jp_add_1":"七尾市","jp_add_2":"亀山町"},"9260054":{"post_code":"9260054","prefecture":"ISHIKAWA KEN","city":"NANAO SHI","town":"KAWARAMACHI","perfecture_jp":"石川県","jp_add_1":"七尾市","jp_add_2":"川原町"},"9260812":{"post_code":"9260812","prefecture":"ISHIKAWA KEN","city":"NANAO SHI","town":"KITAFUJIHASHIMACHI","perfecture_jp":"石川県","jp_add_1":"七尾市","jp_add_2":"北藤橋町"},"9260808":{"post_code":"9260808","prefecture":"ISHIKAWA KEN","city":"NANAO SHI","town":"KIMACHI","perfecture_jp":"石川県","jp_add_1":"七尾市","jp_add_2":"木町"},"9260387":{"post_code":"9260387","prefecture":"ISHIKAWA KEN","city":"NANAO SHI","town":"KUMABUCHIMACHI","perfecture_jp":"石川県","jp_add_1":"七尾市","jp_add_2":"熊淵町"},"9260389":{"post_code":"9260389","prefecture":"ISHIKAWA KEN","city":"NANAO SHI","town":"KUMABUCHIMACHI(TAKINOSHIRIMACHI)","perfecture_jp":"石川県","jp_add_1":"七尾市","jp_add_2":"熊淵町"},"9260388":{"post_code":"9260388","prefecture":"ISHIKAWA KEN","city":"NANAO SHI","town":"KUMABUCHIMACHI(MIZUKAMIMACHI)","perfecture_jp":"石川県","jp_add_1":"七尾市","jp_add_2":"熊淵町"},"9260381":{"post_code":"9260381","prefecture":"ISHIKAWA KEN","city":"NANAO SHI","town":"KUROSAKIMACHI","perfecture_jp":"石川県","jp_add_1":"七尾市","jp_add_2":"黒崎町"},"9260026":{"post_code":"9260026","prefecture":"ISHIKAWA KEN","city":"NANAO SHI","town":"KOIKEGAWARAMACHI","perfecture_jp":"石川県","jp_add_1":"七尾市","jp_add_2":"小池川原町"},"9260375":{"post_code":"9260375","prefecture":"ISHIKAWA KEN","city":"NANAO SHI","town":"KOJIMACHI","perfecture_jp":"石川県","jp_add_1":"七尾市","jp_add_2":"柑子町"},"9260177":{"post_code":"9260177","prefecture":"ISHIKAWA KEN","city":"NANAO SHI","town":"KOYODAI","perfecture_jp":"石川県","jp_add_1":"七尾市","jp_add_2":"光陽台"},"9260051":{"post_code":"9260051","prefecture":"ISHIKAWA KEN","city":"NANAO SHI","town":"KORIMACHI","perfecture_jp":"石川県","jp_add_1":"七尾市","jp_add_2":"郡町"},"9260037":{"post_code":"9260037","prefecture":"ISHIKAWA KEN","city":"NANAO SHI","town":"KOKUGAMACHI","perfecture_jp":"石川県","jp_add_1":"七尾市","jp_add_2":"国下町"},"9260821":{"post_code":"9260821","prefecture":"ISHIKAWA KEN","city":"NANAO SHI","town":"KOKUBUMACHI","perfecture_jp":"石川県","jp_add_1":"七尾市","jp_add_2":"国分町"},"9260852":{"post_code":"9260852","prefecture":"ISHIKAWA KEN","city":"NANAO SHI","town":"KOJIMAMACHI","perfecture_jp":"石川県","jp_add_1":"七尾市","jp_add_2":"小島町"},"9260861":{"post_code":"9260861","prefecture":"ISHIKAWA KEN","city":"NANAO SHI","town":"KOTOBUKICHO","perfecture_jp":"石川県","jp_add_1":"七尾市","jp_add_2":"寿町"},"9260855":{"post_code":"9260855","prefecture":"ISHIKAWA KEN","city":"NANAO SHI","town":"KOMARUYAMADAI","perfecture_jp":"石川県","jp_add_1":"七尾市","jp_add_2":"小丸山台"},"9260803":{"post_code":"9260803","prefecture":"ISHIKAWA KEN","city":"NANAO SHI","town":"KOMEMACHI","perfecture_jp":"石川県","jp_add_1":"七尾市","jp_add_2":"米町"},"9260815":{"post_code":"9260815","prefecture":"ISHIKAWA KEN","city":"NANAO SHI","town":"SAKAEMACHI","perfecture_jp":"石川県","jp_add_1":"七尾市","jp_add_2":"栄町"},"9260042":{"post_code":"9260042","prefecture":"ISHIKAWA KEN","city":"NANAO SHI","town":"SAKUJIMACHI","perfecture_jp":"石川県","jp_add_1":"七尾市","jp_add_2":"作事町"},"9260867":{"post_code":"9260867","prefecture":"ISHIKAWA KEN","city":"NANAO SHI","town":"SAKURAMACHI","perfecture_jp":"石川県","jp_add_1":"七尾市","jp_add_2":"桜町"},"9260371":{"post_code":"9260371","prefecture":"ISHIKAWA KEN","city":"NANAO SHI","town":"SAZANAMIMACHI","perfecture_jp":"石川県","jp_add_1":"七尾市","jp_add_2":"佐々波町"},"9260013":{"post_code":"9260013","prefecture":"ISHIKAWA KEN","city":"NANAO SHI","town":"SANOMACHI","perfecture_jp":"石川県","jp_add_1":"七尾市","jp_add_2":"佐野町"},"9260011":{"post_code":"9260011","prefecture":"ISHIKAWA KEN","city":"NANAO SHI","town":"SAMIMACHI","perfecture_jp":"石川県","jp_add_1":"七尾市","jp_add_2":"佐味町"},"9260003":{"post_code":"9260003","prefecture":"ISHIKAWA KEN","city":"NANAO SHI","town":"SAWANOMACHI","perfecture_jp":"石川県","jp_add_1":"七尾市","jp_add_2":"沢野町"},"9260052":{"post_code":"9260052","prefecture":"ISHIKAWA KEN","city":"NANAO SHI","town":"SANNOMACHI","perfecture_jp":"石川県","jp_add_1":"七尾市","jp_add_2":"山王町"},"9260374":{"post_code":"9260374","prefecture":"ISHIKAWA KEN","city":"NANAO SHI","town":"SHIMIZUDAIRAMACHI","perfecture_jp":"石川県","jp_add_1":"七尾市","jp_add_2":"清水平町"},"9260824":{"post_code":"9260824","prefecture":"ISHIKAWA KEN","city":"NANAO SHI","town":"TOKUDAMACHI","perfecture_jp":"石川県","jp_add_1":"七尾市","jp_add_2":"下町"},"9260801":{"post_code":"9260801","prefecture":"ISHIKAWA KEN","city":"NANAO SHI","town":"SHOWAMACHI","perfecture_jp":"石川県","jp_add_1":"七尾市","jp_add_2":"昭和町"},"9260828":{"post_code":"9260828","prefecture":"ISHIKAWA KEN","city":"NANAO SHI","town":"SHIROMAMACHI","perfecture_jp":"石川県","jp_add_1":"七尾市","jp_add_2":"白馬町"},"9260863":{"post_code":"9260863","prefecture":"ISHIKAWA KEN","city":"NANAO SHI","town":"SHIROGANECHO","perfecture_jp":"石川県","jp_add_1":"七尾市","jp_add_2":"白銀町"},"9260845":{"post_code":"9260845","prefecture":"ISHIKAWA KEN","city":"NANAO SHI","town":"SHIMBOMACHI","perfecture_jp":"石川県","jp_add_1":"七尾市","jp_add_2":"新保町"},"9260046":{"post_code":"9260046","prefecture":"ISHIKAWA KEN","city":"NANAO SHI","town":"SHIMMEICHO","perfecture_jp":"石川県","jp_add_1":"七尾市","jp_add_2":"神明町"},"9260179":{"post_code":"9260179","prefecture":"ISHIKAWA KEN","city":"NANAO SHI","town":"SENNANDAI","perfecture_jp":"石川県","jp_add_1":"七尾市","jp_add_2":"泉南台"},"9260045":{"post_code":"9260045","prefecture":"ISHIKAWA KEN","city":"NANAO SHI","town":"SODEGAECHO","perfecture_jp":"石川県","jp_add_1":"七尾市","jp_add_2":"袖ケ江町"},"9260376":{"post_code":"9260376","prefecture":"ISHIKAWA KEN","city":"NANAO SHI","town":"SOTOBAYASHIMACHI","perfecture_jp":"石川県","jp_add_1":"七尾市","jp_add_2":"外林町"},"9260846":{"post_code":"9260846","prefecture":"ISHIKAWA KEN","city":"NANAO SHI","town":"SOHAMAMACHI","perfecture_jp":"石川県","jp_add_1":"七尾市","jp_add_2":"祖浜町"},"9260023":{"post_code":"9260023","prefecture":"ISHIKAWA KEN","city":"NANAO SHI","town":"TAKEMACHI","perfecture_jp":"石川県","jp_add_1":"七尾市","jp_add_2":"竹町"},"9260844":{"post_code":"9260844","prefecture":"ISHIKAWA KEN","city":"NANAO SHI","town":"TADATSUMACHI","perfecture_jp":"石川県","jp_add_1":"七尾市","jp_add_2":"直津町"},"9260043":{"post_code":"9260043","prefecture":"ISHIKAWA KEN","city":"NANAO SHI","town":"TACHIBANACHO","perfecture_jp":"石川県","jp_add_1":"七尾市","jp_add_2":"橘町"},"9260034":{"post_code":"9260034","prefecture":"ISHIKAWA KEN","city":"NANAO SHI","town":"TANEMACHI","perfecture_jp":"石川県","jp_add_1":"七尾市","jp_add_2":"多根町"},"9260033":{"post_code":"9260033","prefecture":"ISHIKAWA KEN","city":"NANAO SHI","town":"CHINOMACHI","perfecture_jp":"石川県","jp_add_1":"七尾市","jp_add_2":"千野町"},"9260851":{"post_code":"9260851","prefecture":"ISHIKAWA KEN","city":"NANAO SHI","town":"TSUTSUJIGAHAMA","perfecture_jp":"石川県","jp_add_1":"七尾市","jp_add_2":"つつじが浜"},"9260853":{"post_code":"9260853","prefecture":"ISHIKAWA KEN","city":"NANAO SHI","town":"TSUMUGIMACHI","perfecture_jp":"石川県","jp_add_1":"七尾市","jp_add_2":"津向町"},"9260022":{"post_code":"9260022","prefecture":"ISHIKAWA KEN","city":"NANAO SHI","town":"TENJINKAWARAMACHI","perfecture_jp":"石川県","jp_add_1":"七尾市","jp_add_2":"天神川原町"},"9260383":{"post_code":"9260383","prefecture":"ISHIKAWA KEN","city":"NANAO SHI","town":"TONOHAMAMACHI","perfecture_jp":"石川県","jp_add_1":"七尾市","jp_add_2":"東浜町"},"9260862":{"post_code":"9260862","prefecture":"ISHIKAWA KEN","city":"NANAO SHI","town":"TOKIWAMACHI","perfecture_jp":"石川県","jp_add_1":"七尾市","jp_add_2":"常盤町"},"9260829":{"post_code":"9260829","prefecture":"ISHIKAWA KEN","city":"NANAO SHI","town":"TOKUDASHIMMACHI","perfecture_jp":"石川県","jp_add_1":"七尾市","jp_add_2":"徳田新町"},"9260814":{"post_code":"9260814","prefecture":"ISHIKAWA KEN","city":"NANAO SHI","town":"TOKOROGUCHIMACHI","perfecture_jp":"石川県","jp_add_1":"七尾市","jp_add_2":"所口町"},"9260004":{"post_code":"9260004","prefecture":"ISHIKAWA KEN","city":"NANAO SHI","town":"TONOMACHI","perfecture_jp":"石川県","jp_add_1":"七尾市","jp_add_2":"殿町"},"9260866":{"post_code":"9260866","prefecture":"ISHIKAWA KEN","city":"NANAO SHI","town":"TOMIOKACHO","perfecture_jp":"石川県","jp_add_1":"七尾市","jp_add_2":"富岡町"},"9260021":{"post_code":"9260021","prefecture":"ISHIKAWA KEN","city":"NANAO SHI","town":"MOTOFUCHUMACHI","perfecture_jp":"石川県","jp_add_1":"七尾市","jp_add_2":"巴町"},"9260036":{"post_code":"9260036","prefecture":"ISHIKAWA KEN","city":"NANAO SHI","town":"NAKABASAMIMACHI","perfecture_jp":"石川県","jp_add_1":"七尾市","jp_add_2":"中挾町"},"9260854":{"post_code":"9260854","prefecture":"ISHIKAWA KEN","city":"NANAO SHI","town":"NAGINORA","perfecture_jp":"石川県","jp_add_1":"七尾市","jp_add_2":"なぎの浦"},"9260817":{"post_code":"9260817","prefecture":"ISHIKAWA KEN","city":"NANAO SHI","town":"NISHIFUJIHASHIMACHI","perfecture_jp":"石川県","jp_add_1":"七尾市","jp_add_2":"西藤橋町"},"9260835":{"post_code":"9260835","prefecture":"ISHIKAWA KEN","city":"NANAO SHI","town":"NISHIMIKAIMACHI","perfecture_jp":"石川県","jp_add_1":"七尾市","jp_add_2":"西三階町"},"9260837":{"post_code":"9260837","prefecture":"ISHIKAWA KEN","city":"NANAO SHI","town":"NUKUIMACHI","perfecture_jp":"石川県","jp_add_1":"七尾市","jp_add_2":"温井町"},"9260056":{"post_code":"9260056","prefecture":"ISHIKAWA KEN","city":"NANAO SHI","town":"NUSHIMACHI","perfecture_jp":"石川県","jp_add_1":"七尾市","jp_add_2":"塗師町"},"9260203":{"post_code":"9260203","prefecture":"ISHIKAWA KEN","city":"NANAO SHI","town":"NOTOJIMA ENOMEMACHI","perfecture_jp":"石川県","jp_add_1":"七尾市","jp_add_2":"能登島えの目町"},"9260227":{"post_code":"9260227","prefecture":"ISHIKAWA KEN","city":"NANAO SHI","town":"NOTOJIMA KUKIMACHI","perfecture_jp":"石川県","jp_add_1":"七尾市","jp_add_2":"能登島久木町"},"9260211":{"post_code":"9260211","prefecture":"ISHIKAWA KEN","city":"NANAO SHI","town":"NOTOJIMA KODAMACHI","perfecture_jp":"石川県","jp_add_1":"七尾市","jp_add_2":"能登島向田町"},"9260212":{"post_code":"9260212","prefecture":"ISHIKAWA KEN","city":"NANAO SHI","town":"NOTOJIMA SANAMIMACHI","perfecture_jp":"石川県","jp_add_1":"七尾市","jp_add_2":"能登島佐波町"},"9260213":{"post_code":"9260213","prefecture":"ISHIKAWA KEN","city":"NANAO SHI","town":"NOTOJIMA SUSOMACHI","perfecture_jp":"石川県","jp_add_1":"七尾市","jp_add_2":"能登島須曽町"},"9260226":{"post_code":"9260226","prefecture":"ISHIKAWA KEN","city":"NANAO SHI","town":"NOTOJIMA TAJIRIMACHI","perfecture_jp":"石川県","jp_add_1":"七尾市","jp_add_2":"能登島田尻町"},"9260225":{"post_code":"9260225","prefecture":"ISHIKAWA KEN","city":"NANAO SHI","town":"NOTOJIMA TORIMACHI","perfecture_jp":"石川県","jp_add_1":"七尾市","jp_add_2":"能登島通町"},"9260204":{"post_code":"9260204","prefecture":"ISHIKAWA KEN","city":"NANAO SHI","town":"NOTOJIMA NAGASAKIMACHI","perfecture_jp":"石川県","jp_add_1":"七尾市","jp_add_2":"能登島長崎町"},"9260222":{"post_code":"9260222","prefecture":"ISHIKAWA KEN","city":"NANAO SHI","town":"NOTOJIMA NEYAMACHI","perfecture_jp":"石川県","jp_add_1":"七尾市","jp_add_2":"能登島閨町"},"9260205":{"post_code":"9260205","prefecture":"ISHIKAWA KEN","city":"NANAO SHI","town":"NOTOJIMA NOZAKIMACHI","perfecture_jp":"石川県","jp_add_1":"七尾市","jp_add_2":"能登島野崎町"},"9260201":{"post_code":"9260201","prefecture":"ISHIKAWA KEN","city":"NANAO SHI","town":"NOTOJIMA BAGAURAMACHI","perfecture_jp":"石川県","jp_add_1":"七尾市","jp_add_2":"能登島祖母ケ浦町"},"9260202":{"post_code":"9260202","prefecture":"ISHIKAWA KEN","city":"NANAO SHI","town":"NOTOJIMA HACHIGASAKIMACHI","perfecture_jp":"石川県","jp_add_1":"七尾市","jp_add_2":"能登島八ケ崎町"},"9260223":{"post_code":"9260223","prefecture":"ISHIKAWA KEN","city":"NANAO SHI","town":"NOTOJIMA HANNORAMACHI","perfecture_jp":"石川県","jp_add_1":"七尾市","jp_add_2":"能登島半浦町"},"9260206":{"post_code":"9260206","prefecture":"ISHIKAWA KEN","city":"NANAO SHI","town":"NOTOJIMA HIDEGASHIMAMACHI","perfecture_jp":"石川県","jp_add_1":"七尾市","jp_add_2":"能登島日出ケ島町"},"9260224":{"post_code":"9260224","prefecture":"ISHIKAWA KEN","city":"NANAO SHI","town":"NOTOJIMA HYAKUMANGOKUMACHI","perfecture_jp":"石川県","jp_add_1":"七尾市","jp_add_2":"能登島百万石町"},"9260207":{"post_code":"9260207","prefecture":"ISHIKAWA KEN","city":"NANAO SHI","town":"NOTOJIMA FUTAANAMACHI","perfecture_jp":"石川県","jp_add_1":"七尾市","jp_add_2":"能登島二穴町"},"9260214":{"post_code":"9260214","prefecture":"ISHIKAWA KEN","city":"NANAO SHI","town":"NOTOJIMA BESSHOMACHI","perfecture_jp":"石川県","jp_add_1":"七尾市","jp_add_2":"能登島別所町"},"9260216":{"post_code":"9260216","prefecture":"ISHIKAWA KEN","city":"NANAO SHI","town":"NOTOJIMA MAGARIMACHI","perfecture_jp":"石川県","jp_add_1":"七尾市","jp_add_2":"能登島曲町"},"9260215":{"post_code":"9260215","prefecture":"ISHIKAWA KEN","city":"NANAO SHI","town":"NOTOJIMA MINAMIMACHI","perfecture_jp":"石川県","jp_add_1":"七尾市","jp_add_2":"能登島南町"},"9260221":{"post_code":"9260221","prefecture":"ISHIKAWA KEN","city":"NANAO SHI","town":"NOTOJIMA MUSEKIMACHI","perfecture_jp":"石川県","jp_add_1":"七尾市","jp_add_2":"能登島無関町"},"9260035":{"post_code":"9260035","prefecture":"ISHIKAWA KEN","city":"NANAO SHI","town":"HATTAMACHI","perfecture_jp":"石川県","jp_add_1":"七尾市","jp_add_2":"八田町"},"9260382":{"post_code":"9260382","prefecture":"ISHIKAWA KEN","city":"NANAO SHI","town":"HANAZONOMACHI","perfecture_jp":"石川県","jp_add_1":"七尾市","jp_add_2":"花園町"},"9260832":{"post_code":"9260832","prefecture":"ISHIKAWA KEN","city":"NANAO SHI","town":"HANNYANOMACHI","perfecture_jp":"石川県","jp_add_1":"七尾市","jp_add_2":"盤若野町"},"9260834":{"post_code":"9260834","prefecture":"ISHIKAWA KEN","city":"NANAO SHI","town":"HIGASHIMIKAIMACHI","perfecture_jp":"石川県","jp_add_1":"七尾市","jp_add_2":"東三階町"},"9260048":{"post_code":"9260048","prefecture":"ISHIKAWA KEN","city":"NANAO SHI","town":"HIMONOMACHI","perfecture_jp":"石川県","jp_add_1":"七尾市","jp_add_2":"桧物町"},"9260028":{"post_code":"9260028","prefecture":"ISHIKAWA KEN","city":"NANAO SHI","town":"FUJINOMACHI","perfecture_jp":"石川県","jp_add_1":"七尾市","jp_add_2":"藤野町"},"9260041":{"post_code":"9260041","prefecture":"ISHIKAWA KEN","city":"NANAO SHI","town":"FUCHUMACHI","perfecture_jp":"石川県","jp_add_1":"七尾市","jp_add_2":"府中町"},"9260031":{"post_code":"9260031","prefecture":"ISHIKAWA KEN","city":"NANAO SHI","town":"FURUKOMACHI","perfecture_jp":"石川県","jp_add_1":"七尾市","jp_add_2":"古府町"},"9260025":{"post_code":"9260025","prefecture":"ISHIKAWA KEN","city":"NANAO SHI","town":"FURUSHIROMACHI","perfecture_jp":"石川県","jp_add_1":"七尾市","jp_add_2":"古城町"},"9260024":{"post_code":"9260024","prefecture":"ISHIKAWA KEN","city":"NANAO SHI","town":"FURUYASHIKIMACHI","perfecture_jp":"石川県","jp_add_1":"七尾市","jp_add_2":"古屋敷町"},"9260012":{"post_code":"9260012","prefecture":"ISHIKAWA KEN","city":"NANAO SHI","town":"MANGYOMACHI","perfecture_jp":"石川県","jp_add_1":"七尾市","jp_add_2":"報国町"},"9260822":{"post_code":"9260822","prefecture":"ISHIKAWA KEN","city":"NANAO SHI","town":"HOSOGUCHIMACHI","perfecture_jp":"石川県","jp_add_1":"七尾市","jp_add_2":"細口町"},"9260818":{"post_code":"9260818","prefecture":"ISHIKAWA KEN","city":"NANAO SHI","town":"MADASHIMACHI","perfecture_jp":"石川県","jp_add_1":"七尾市","jp_add_2":"馬出町"},"9260836":{"post_code":"9260836","prefecture":"ISHIKAWA KEN","city":"NANAO SHI","town":"MACHIYAMACHI","perfecture_jp":"石川県","jp_add_1":"七尾市","jp_add_2":"町屋町"},"9260842":{"post_code":"9260842","prefecture":"ISHIKAWA KEN","city":"NANAO SHI","town":"MATTOSHIMMACHI","perfecture_jp":"石川県","jp_add_1":"七尾市","jp_add_2":"松百新町"},"9260841":{"post_code":"9260841","prefecture":"ISHIKAWA KEN","city":"NANAO SHI","town":"MATTOMACHI","perfecture_jp":"石川県","jp_add_1":"七尾市","jp_add_2":"松百町"},"9260865":{"post_code":"9260865","prefecture":"ISHIKAWA KEN","city":"NANAO SHI","town":"MATSUMOTOCHO","perfecture_jp":"石川県","jp_add_1":"七尾市","jp_add_2":"松本町"},"9260838":{"post_code":"9260838","prefecture":"ISHIKAWA KEN","city":"NANAO SHI","town":"MANIMACHI","perfecture_jp":"石川県","jp_add_1":"七尾市","jp_add_2":"満仁町"},"9260802":{"post_code":"9260802","prefecture":"ISHIKAWA KEN","city":"NANAO SHI","town":"MISHIMACHO","perfecture_jp":"石川県","jp_add_1":"七尾市","jp_add_2":"三島町"},"9260811":{"post_code":"9260811","prefecture":"ISHIKAWA KEN","city":"NANAO SHI","town":"MISOGICHO","perfecture_jp":"石川県","jp_add_1":"七尾市","jp_add_2":"御祓町"},"9260014":{"post_code":"9260014","prefecture":"ISHIKAWA KEN","city":"NANAO SHI","town":"YATAMACHI","perfecture_jp":"石川県","jp_add_1":"七尾市","jp_add_2":"緑ケ丘町"},"9260058":{"post_code":"9260058","prefecture":"ISHIKAWA KEN","city":"NANAO SHI","town":"MINATOCHO","perfecture_jp":"石川県","jp_add_1":"七尾市","jp_add_2":"湊町"},"9260032":{"post_code":"9260032","prefecture":"ISHIKAWA KEN","city":"NANAO SHI","town":"MINAMIGAOKAMACHI","perfecture_jp":"石川県","jp_add_1":"七尾市","jp_add_2":"南ケ丘町"},"9260813":{"post_code":"9260813","prefecture":"ISHIKAWA KEN","city":"NANAO SHI","town":"MINAMIFUJIHASHIMACHI","perfecture_jp":"石川県","jp_add_1":"七尾市","jp_add_2":"南藤橋町"},"9260007":{"post_code":"9260007","prefecture":"ISHIKAWA KEN","city":"NANAO SHI","town":"MIMUROMACHI","perfecture_jp":"石川県","jp_add_1":"七尾市","jp_add_2":"三室町"},"9260015":{"post_code":"9260015","prefecture":"ISHIKAWA KEN","city":"NANAO SHI","town":"YATASHIMMACHI","perfecture_jp":"石川県","jp_add_1":"七尾市","jp_add_2":"矢田新町"},"9260385":{"post_code":"9260385","prefecture":"ISHIKAWA KEN","city":"NANAO SHI","town":"YAMAZAKIMACHI","perfecture_jp":"石川県","jp_add_1":"七尾市","jp_add_2":"山崎町"},"9260386":{"post_code":"9260386","prefecture":"ISHIKAWA KEN","city":"NANAO SHI","town":"YAMAZAKIMACHI(KOCHIMACHI)","perfecture_jp":"石川県","jp_add_1":"七尾市","jp_add_2":"山崎町"},"9260016":{"post_code":"9260016","prefecture":"ISHIKAWA KEN","city":"NANAO SHI","town":"YAMATOMACHI","perfecture_jp":"石川県","jp_add_1":"七尾市","jp_add_2":"大和町"},"9260038":{"post_code":"9260038","prefecture":"ISHIKAWA KEN","city":"NANAO SHI","town":"YAWATAMACHI","perfecture_jp":"石川県","jp_add_1":"七尾市","jp_add_2":"八幡町"},"9260002":{"post_code":"9260002","prefecture":"ISHIKAWA KEN","city":"NANAO SHI","town":"YUGAWAMACHI","perfecture_jp":"石川県","jp_add_1":"七尾市","jp_add_2":"湯川町"},"9260827":{"post_code":"9260827","prefecture":"ISHIKAWA KEN","city":"NANAO SHI","town":"WAKABAYASHIMACHI","perfecture_jp":"石川県","jp_add_1":"七尾市","jp_add_2":"若林町"},"9260175":{"post_code":"9260175","prefecture":"ISHIKAWA KEN","city":"NANAO SHI","town":"WAKURAMACHI","perfecture_jp":"石川県","jp_add_1":"七尾市","jp_add_2":"和倉町"},"9260176":{"post_code":"9260176","prefecture":"ISHIKAWA KEN","city":"NANAO SHI","town":"WAKURAMACHIHIBARI","perfecture_jp":"石川県","jp_add_1":"七尾市","jp_add_2":"和倉町ひばり"}}