{"9292105":{"post_code":"9292105","prefecture":"ISHIKAWA KEN","city":"NANAO SHI","town":"ARAYAMACHI","perfecture_jp":"石川県","jp_add_1":"七尾市","jp_add_2":"新屋町"},"9292114":{"post_code":"9292114","prefecture":"ISHIKAWA KEN","city":"NANAO SHI","town":"IKUROMACHI","perfecture_jp":"石川県","jp_add_1":"七尾市","jp_add_2":"伊久留町"},"9292122":{"post_code":"9292122","prefecture":"ISHIKAWA KEN","city":"NANAO SHI","town":"UWANOGAOKAMACHI","perfecture_jp":"石川県","jp_add_1":"七尾市","jp_add_2":"上野ケ丘町"},"9292126":{"post_code":"9292126","prefecture":"ISHIKAWA KEN","city":"NANAO SHI","town":"OTSUMACHI","perfecture_jp":"石川県","jp_add_1":"七尾市","jp_add_2":"大津町"},"9292104":{"post_code":"9292104","prefecture":"ISHIKAWA KEN","city":"NANAO SHI","town":"KAKIYOSHIMACHI","perfecture_jp":"石川県","jp_add_1":"七尾市","jp_add_2":"垣吉町"},"9292101":{"post_code":"9292101","prefecture":"ISHIKAWA KEN","city":"NANAO SHI","town":"KAWASHIRIMACHI","perfecture_jp":"石川県","jp_add_1":"七尾市","jp_add_2":"川尻町"},"9292115":{"post_code":"9292115","prefecture":"ISHIKAWA KEN","city":"NANAO SHI","town":"SHITSUHARAMACHI","perfecture_jp":"石川県","jp_add_1":"七尾市","jp_add_2":"七原町"},"9292124":{"post_code":"9292124","prefecture":"ISHIKAWA KEN","city":"NANAO SHI","town":"SHIRAHAMAMACHI","perfecture_jp":"石川県","jp_add_1":"七尾市","jp_add_2":"白浜町"},"9292112":{"post_code":"9292112","prefecture":"ISHIKAWA KEN","city":"NANAO SHI","town":"SUGIMORIMACHI","perfecture_jp":"石川県","jp_add_1":"七尾市","jp_add_2":"杉森町"},"9292111":{"post_code":"9292111","prefecture":"ISHIKAWA KEN","city":"NANAO SHI","town":"TAKATAMACHI","perfecture_jp":"石川県","jp_add_1":"七尾市","jp_add_2":"高田町"},"9292121":{"post_code":"9292121","prefecture":"ISHIKAWA KEN","city":"NANAO SHI","town":"TATSURUHAMAMACHI","perfecture_jp":"石川県","jp_add_1":"七尾市","jp_add_2":"田鶴浜町"},"9292204":{"post_code":"9292204","prefecture":"ISHIKAWA KEN","city":"NANAO SHI","town":"NAKAJIMAMACHI UWABATAKE","perfecture_jp":"石川県","jp_add_1":"七尾市","jp_add_2":"中島町上畠"},"9292207":{"post_code":"9292207","prefecture":"ISHIKAWA KEN","city":"NANAO SHI","town":"NAKAJIMAMACHI ODAIRA","perfecture_jp":"石川県","jp_add_1":"七尾市","jp_add_2":"中島町大平"},"9292231":{"post_code":"9292231","prefecture":"ISHIKAWA KEN","city":"NANAO SHI","town":"NAKAJIMAMACHI OKUYOSHITA","perfecture_jp":"石川県","jp_add_1":"七尾市","jp_add_2":"中島町奥吉田"},"9292214":{"post_code":"9292214","prefecture":"ISHIKAWA KEN","city":"NANAO SHI","town":"NAKAJIMAMACHI OMAKI","perfecture_jp":"石川県","jp_add_1":"七尾市","jp_add_2":"中島町小牧"},"9292233":{"post_code":"9292233","prefecture":"ISHIKAWA KEN","city":"NANAO SHI","town":"NAKAJIMAMACHI KASASHI","perfecture_jp":"石川県","jp_add_1":"七尾市","jp_add_2":"中島町笠師"},"9292217":{"post_code":"9292217","prefecture":"ISHIKAWA KEN","city":"NANAO SHI","town":"NAKAJIMAMACHI KASHIMADAI","perfecture_jp":"石川県","jp_add_1":"七尾市","jp_add_2":"中島町鹿島台"},"9292243":{"post_code":"9292243","prefecture":"ISHIKAWA KEN","city":"NANAO SHI","town":"NAKAJIMAMACHI KAWAZAKI","perfecture_jp":"石川県","jp_add_1":"七尾市","jp_add_2":"中島町河崎"},"9292201":{"post_code":"9292201","prefecture":"ISHIKAWA KEN","city":"NANAO SHI","town":"NAKAJIMAMACHI KAWACHI","perfecture_jp":"石川県","jp_add_1":"七尾市","jp_add_2":"中島町河内"},"9292223":{"post_code":"9292223","prefecture":"ISHIKAWA KEN","city":"NANAO SHI","town":"NAKAJIMAMACHI KAMMACHI","perfecture_jp":"石川県","jp_add_1":"七尾市","jp_add_2":"中島町上町"},"9292203":{"post_code":"9292203","prefecture":"ISHIKAWA KEN","city":"NANAO SHI","town":"NAKAJIMAMACHI KITAMENDEN","perfecture_jp":"石川県","jp_add_1":"七尾市","jp_add_2":"中島町北免田"},"9292242":{"post_code":"9292242","prefecture":"ISHIKAWA KEN","city":"NANAO SHI","town":"NAKAJIMAMACHI SAKIYAMA","perfecture_jp":"石川県","jp_add_1":"七尾市","jp_add_2":"中島町崎山"},"9292234":{"post_code":"9292234","prefecture":"ISHIKAWA KEN","city":"NANAO SHI","town":"NAKAJIMAMACHI SHIOTSU","perfecture_jp":"石川県","jp_add_1":"七尾市","jp_add_2":"中島町塩津"},"9292218":{"post_code":"9292218","prefecture":"ISHIKAWA KEN","city":"NANAO SHI","town":"NAKAJIMAMACHI SEARASHI","perfecture_jp":"石川県","jp_add_1":"七尾市","jp_add_2":"中島町瀬嵐"},"9292213":{"post_code":"9292213","prefecture":"ISHIKAWA KEN","city":"NANAO SHI","town":"NAKAJIMAMACHI SODE","perfecture_jp":"石川県","jp_add_1":"七尾市","jp_add_2":"中島町外"},"9292247":{"post_code":"9292247","prefecture":"ISHIKAWA KEN","city":"NANAO SHI","town":"NAKAJIMAMACHI SODOHARA","perfecture_jp":"石川県","jp_add_1":"七尾市","jp_add_2":"中島町外原"},"9292212":{"post_code":"9292212","prefecture":"ISHIKAWA KEN","city":"NANAO SHI","town":"NAKAJIMAMACHI TAGISHI","perfecture_jp":"石川県","jp_add_1":"七尾市","jp_add_2":"中島町田岸"},"9292246":{"post_code":"9292246","prefecture":"ISHIKAWA KEN","city":"NANAO SHI","town":"NAKAJIMAMACHI TSUCHIKAWA","perfecture_jp":"石川県","jp_add_1":"七尾市","jp_add_2":"中島町土川"},"9292245":{"post_code":"9292245","prefecture":"ISHIKAWA KEN","city":"NANAO SHI","town":"NAKAJIMAMACHI TOYOTA","perfecture_jp":"石川県","jp_add_1":"七尾市","jp_add_2":"中島町豊田"},"9292244":{"post_code":"9292244","prefecture":"ISHIKAWA KEN","city":"NANAO SHI","town":"NAKAJIMAMACHI TOYOTAMACHI","perfecture_jp":"石川県","jp_add_1":"七尾市","jp_add_2":"中島町豊田町"},"9292206":{"post_code":"9292206","prefecture":"ISHIKAWA KEN","city":"NANAO SHI","town":"NAKAJIMAMACHI TORIGOE","perfecture_jp":"石川県","jp_add_1":"七尾市","jp_add_2":"中島町鳥越"},"9292216":{"post_code":"9292216","prefecture":"ISHIKAWA KEN","city":"NANAO SHI","town":"NAKAJIMAMACHI NAGAURA","perfecture_jp":"石川県","jp_add_1":"七尾市","jp_add_2":"中島町長浦"},"9292222":{"post_code":"9292222","prefecture":"ISHIKAWA KEN","city":"NANAO SHI","town":"NAKAJIMAMACHI NAKAJIMA","perfecture_jp":"石川県","jp_add_1":"七尾市","jp_add_2":"中島町中島"},"9292209":{"post_code":"9292209","prefecture":"ISHIKAWA KEN","city":"NANAO SHI","town":"NAKAJIMAMACHI NISHIYACHI","perfecture_jp":"石川県","jp_add_1":"七尾市","jp_add_2":"中島町西谷内"},"9292241":{"post_code":"9292241","prefecture":"ISHIKAWA KEN","city":"NANAO SHI","town":"NAKAJIMAMACHI HAMADA","perfecture_jp":"石川県","jp_add_1":"七尾市","jp_add_2":"中島町浜田"},"9292215":{"post_code":"9292215","prefecture":"ISHIKAWA KEN","city":"NANAO SHI","town":"NAKAJIMAMACHI FUKAURA","perfecture_jp":"石川県","jp_add_1":"七尾市","jp_add_2":"中島町深浦"},"9292227":{"post_code":"9292227","prefecture":"ISHIKAWA KEN","city":"NANAO SHI","town":"NAKAJIMAMACHI FUJINOSE","perfecture_jp":"石川県","jp_add_1":"七尾市","jp_add_2":"中島町藤瀬"},"9292232":{"post_code":"9292232","prefecture":"ISHIKAWA KEN","city":"NANAO SHI","town":"NAKAJIMAMACHI FUDESOME","perfecture_jp":"石川県","jp_add_1":"七尾市","jp_add_2":"中島町筆染"},"9292208":{"post_code":"9292208","prefecture":"ISHIKAWA KEN","city":"NANAO SHI","town":"NAKAJIMAMACHI FURUE","perfecture_jp":"石川県","jp_add_1":"七尾市","jp_add_2":"中島町古江"},"9292202":{"post_code":"9292202","prefecture":"ISHIKAWA KEN","city":"NANAO SHI","town":"NAKAJIMAMACHI BESSHO","perfecture_jp":"石川県","jp_add_1":"七尾市","jp_add_2":"中島町別所"},"9292205":{"post_code":"9292205","prefecture":"ISHIKAWA KEN","city":"NANAO SHI","town":"NAKAJIMAMACHI MACHIYA","perfecture_jp":"石川県","jp_add_1":"七尾市","jp_add_2":"中島町町屋"},"9292225":{"post_code":"9292225","prefecture":"ISHIKAWA KEN","city":"NANAO SHI","town":"NAKAJIMAMACHI MIYANOMAE","perfecture_jp":"石川県","jp_add_1":"七尾市","jp_add_2":"中島町宮前"},"9292221":{"post_code":"9292221","prefecture":"ISHIKAWA KEN","city":"NANAO SHI","town":"NAKAJIMAMACHI YACHI","perfecture_jp":"石川県","jp_add_1":"七尾市","jp_add_2":"中島町谷内"},"9292224":{"post_code":"9292224","prefecture":"ISHIKAWA KEN","city":"NANAO SHI","town":"NAKAJIMAMACHI YAMATODA","perfecture_jp":"石川県","jp_add_1":"七尾市","jp_add_2":"中島町山戸田"},"9292226":{"post_code":"9292226","prefecture":"ISHIKAWA KEN","city":"NANAO SHI","town":"NAKAJIMAMACHI YOKOTA","perfecture_jp":"石川県","jp_add_1":"七尾市","jp_add_2":"中島町横田"},"9292211":{"post_code":"9292211","prefecture":"ISHIKAWA KEN","city":"NANAO SHI","town":"NAKAJIMAMACHI YOKOMI","perfecture_jp":"石川県","jp_add_1":"七尾市","jp_add_2":"中島町横見"},"9292113":{"post_code":"9292113","prefecture":"ISHIKAWA KEN","city":"NANAO SHI","town":"NISHISHIMOMACHI","perfecture_jp":"石川県","jp_add_1":"七尾市","jp_add_2":"西下町"},"9292103":{"post_code":"9292103","prefecture":"ISHIKAWA KEN","city":"NANAO SHI","town":"HIGASHIYAMAMACHI","perfecture_jp":"石川県","jp_add_1":"七尾市","jp_add_2":"東山町"},"9292125":{"post_code":"9292125","prefecture":"ISHIKAWA KEN","city":"NANAO SHI","town":"FUKAMIMACHI","perfecture_jp":"石川県","jp_add_1":"七尾市","jp_add_2":"深見町"},"9292102":{"post_code":"9292102","prefecture":"ISHIKAWA KEN","city":"NANAO SHI","town":"FUNOMACHI","perfecture_jp":"石川県","jp_add_1":"七尾市","jp_add_2":"舟尾町"},"9292123":{"post_code":"9292123","prefecture":"ISHIKAWA KEN","city":"NANAO SHI","town":"MIBIKIMACHI","perfecture_jp":"石川県","jp_add_1":"七尾市","jp_add_2":"三引町"},"9292116":{"post_code":"9292116","prefecture":"ISHIKAWA KEN","city":"NANAO SHI","town":"YOSHITAMACHI","perfecture_jp":"石川県","jp_add_1":"七尾市","jp_add_2":"吉田町"},"9292373":{"post_code":"9292373","prefecture":"ISHIKAWA KEN","city":"WAJIMA SHI","town":"MIIMACHI ICHINOSAKA","perfecture_jp":"石川県","jp_add_1":"輪島市","jp_add_2":"三井町市ノ坂"},"9292374":{"post_code":"9292374","prefecture":"ISHIKAWA KEN","city":"WAJIMA SHI","town":"MIIMACHI UCHIYA","perfecture_jp":"石川県","jp_add_1":"輪島市","jp_add_2":"三井町内屋"},"9292377":{"post_code":"9292377","prefecture":"ISHIKAWA KEN","city":"WAJIMA SHI","town":"MIIMACHI URUSHIHARA","perfecture_jp":"石川県","jp_add_1":"輪島市","jp_add_2":"三井町漆原"},"9292378":{"post_code":"9292378","prefecture":"ISHIKAWA KEN","city":"WAJIMA SHI","town":"MIIMACHI KOIZUMI","perfecture_jp":"石川県","jp_add_1":"輪島市","jp_add_2":"三井町小泉"},"9292363":{"post_code":"9292363","prefecture":"ISHIKAWA KEN","city":"WAJIMA SHI","town":"MIIMACHI KOTOKUJI","perfecture_jp":"石川県","jp_add_1":"輪島市","jp_add_2":"三井町興徳寺"},"9292376":{"post_code":"9292376","prefecture":"ISHIKAWA KEN","city":"WAJIMA SHI","town":"MIIMACHI SHIMBO","perfecture_jp":"石川県","jp_add_1":"輪島市","jp_add_2":"三井町新保"},"9292372":{"post_code":"9292372","prefecture":"ISHIKAWA KEN","city":"WAJIMA SHI","town":"MIIMACHI SUE","perfecture_jp":"石川県","jp_add_1":"輪島市","jp_add_2":"三井町洲衛"},"9292365":{"post_code":"9292365","prefecture":"ISHIKAWA KEN","city":"WAJIMA SHI","town":"MIIMACHI DOAI","perfecture_jp":"石川県","jp_add_1":"輪島市","jp_add_2":"三井町渡合"},"9292362":{"post_code":"9292362","prefecture":"ISHIKAWA KEN","city":"WAJIMA SHI","town":"MIIMACHI NAKA","perfecture_jp":"石川県","jp_add_1":"輪島市","jp_add_2":"三井町中"},"9292379":{"post_code":"9292379","prefecture":"ISHIKAWA KEN","city":"WAJIMA SHI","town":"MIIMACHI NAGASAWA","perfecture_jp":"石川県","jp_add_1":"輪島市","jp_add_2":"三井町長沢"},"9292367":{"post_code":"9292367","prefecture":"ISHIKAWA KEN","city":"WAJIMA SHI","town":"MIIMACHI NIGYO","perfecture_jp":"石川県","jp_add_1":"輪島市","jp_add_2":"三井町仁行"},"9292375":{"post_code":"9292375","prefecture":"ISHIKAWA KEN","city":"WAJIMA SHI","town":"MIIMACHI HOSOYA","perfecture_jp":"石川県","jp_add_1":"輪島市","jp_add_2":"三井町細屋"},"9292366":{"post_code":"9292366","prefecture":"ISHIKAWA KEN","city":"WAJIMA SHI","town":"MIIMACHI HONKO","perfecture_jp":"石川県","jp_add_1":"輪島市","jp_add_2":"三井町本江"},"9292371":{"post_code":"9292371","prefecture":"ISHIKAWA KEN","city":"WAJIMA SHI","town":"MIIMACHI MIZUHO","perfecture_jp":"石川県","jp_add_1":"輪島市","jp_add_2":"三井町三洲穂"},"9292361":{"post_code":"9292361","prefecture":"ISHIKAWA KEN","city":"WAJIMA SHI","town":"MIIMACHI YOROMI","perfecture_jp":"石川県","jp_add_1":"輪島市","jp_add_2":"三井町与呂見"},"9292364":{"post_code":"9292364","prefecture":"ISHIKAWA KEN","city":"WAJIMA SHI","town":"YAMATOMACHI","perfecture_jp":"石川県","jp_add_1":"輪島市","jp_add_2":"大和町"},"9291572":{"post_code":"9291572","prefecture":"ISHIKAWA KEN","city":"HAKUI SHI","town":"OMACHI","perfecture_jp":"石川県","jp_add_1":"羽咋市","jp_add_2":"大町"},"9291576":{"post_code":"9291576","prefecture":"ISHIKAWA KEN","city":"HAKUI SHI","town":"KASHIMAJIMACHI","perfecture_jp":"石川県","jp_add_1":"羽咋市","jp_add_2":"鹿島路町"},"9291575":{"post_code":"9291575","prefecture":"ISHIKAWA KEN","city":"HAKUI SHI","town":"KANEMARUDEMACHI","perfecture_jp":"石川県","jp_add_1":"羽咋市","jp_add_2":"金丸出町"},"9291574":{"post_code":"9291574","prefecture":"ISHIKAWA KEN","city":"HAKUI SHI","town":"SAKAIMACHI","perfecture_jp":"石川県","jp_add_1":"羽咋市","jp_add_2":"酒井町"},"9291571":{"post_code":"9291571","prefecture":"ISHIKAWA KEN","city":"HAKUI SHI","town":"SHIMOSONEMACHI","perfecture_jp":"石川県","jp_add_1":"羽咋市","jp_add_2":"下曽祢町"},"9291577":{"post_code":"9291577","prefecture":"ISHIKAWA KEN","city":"HAKUI SHI","town":"HIGASHIKATAMACHI","perfecture_jp":"石川県","jp_add_1":"羽咋市","jp_add_2":"東潟町"},"9291573":{"post_code":"9291573","prefecture":"ISHIKAWA KEN","city":"HAKUI SHI","town":"YOTSUYANAGIMACHI","perfecture_jp":"石川県","jp_add_1":"羽咋市","jp_add_2":"四柳町"},"9291100":{"post_code":"9291100","prefecture":"ISHIKAWA KEN","city":"KAHOKU SHI","town":"IKANIKEISAIGANAIBAAI","perfecture_jp":"石川県","jp_add_1":"かほく市","jp_add_2":""},"9291175":{"post_code":"9291175","prefecture":"ISHIKAWA KEN","city":"KAHOKU SHI","town":"AKIHAMA","perfecture_jp":"石川県","jp_add_1":"かほく市","jp_add_2":"秋浜"},"9291121":{"post_code":"9291121","prefecture":"ISHIKAWA KEN","city":"KAHOKU SHI","town":"UKE","perfecture_jp":"石川県","jp_add_1":"かほく市","jp_add_2":"宇気"},"9291214":{"post_code":"9291214","prefecture":"ISHIKAWA KEN","city":"KAHOKU SHI","town":"UCHITAKAMATSU","perfecture_jp":"石川県","jp_add_1":"かほく市","jp_add_2":"内高松"},"9291126":{"post_code":"9291126","prefecture":"ISHIKAWA KEN","city":"KAHOKU SHI","town":"UCHIHISUMI","perfecture_jp":"石川県","jp_add_1":"かほく市","jp_add_2":"内日角"},"9291125":{"post_code":"9291125","prefecture":"ISHIKAWA KEN","city":"KAHOKU SHI","town":"UNOKE","perfecture_jp":"石川県","jp_add_1":"かほく市","jp_add_2":"宇野気"},"9291102":{"post_code":"9291102","prefecture":"ISHIKAWA KEN","city":"KAHOKU SHI","town":"UWADANA","perfecture_jp":"石川県","jp_add_1":"かほく市","jp_add_2":"上田名"},"9291127":{"post_code":"9291127","prefecture":"ISHIKAWA KEN","city":"KAHOKU SHI","town":"OSAKI","perfecture_jp":"石川県","jp_add_1":"かほく市","jp_add_2":"大崎"},"9291210":{"post_code":"9291210","prefecture":"ISHIKAWA KEN","city":"KAHOKU SHI","town":"GAKUENDAI","perfecture_jp":"石川県","jp_add_1":"かほく市","jp_add_2":"学園台"},"9291104":{"post_code":"9291104","prefecture":"ISHIKAWA KEN","city":"KAHOKU SHI","town":"KASASHIMA","perfecture_jp":"石川県","jp_add_1":"かほく市","jp_add_2":"笠島"},"9291115":{"post_code":"9291115","prefecture":"ISHIKAWA KEN","city":"KAHOKU SHI","town":"KAMIYAMADA","perfecture_jp":"石川県","jp_add_1":"かほく市","jp_add_2":"上山田"},"9291114":{"post_code":"9291114","prefecture":"ISHIKAWA KEN","city":"KAHOKU SHI","town":"KARUGANO","perfecture_jp":"石川県","jp_add_1":"かほく市","jp_add_2":"狩鹿野"},"9291206":{"post_code":"9291206","prefecture":"ISHIKAWA KEN","city":"KAHOKU SHI","town":"GANNYO","perfecture_jp":"石川県","jp_add_1":"かほく市","jp_add_2":"元女"},"9291171":{"post_code":"9291171","prefecture":"ISHIKAWA KEN","city":"KAHOKU SHI","town":"KIZU","perfecture_jp":"石川県","jp_add_1":"かほく市","jp_add_2":"木津"},"9291111":{"post_code":"9291111","prefecture":"ISHIKAWA KEN","city":"KAHOKU SHI","town":"KIYA","perfecture_jp":"石川県","jp_add_1":"かほく市","jp_add_2":"気屋"},"9291203":{"post_code":"9291203","prefecture":"ISHIKAWA KEN","city":"KAHOKU SHI","town":"KUROGAWA","perfecture_jp":"石川県","jp_add_1":"かほく市","jp_add_2":"黒川"},"9291113":{"post_code":"9291113","prefecture":"ISHIKAWA KEN","city":"KAHOKU SHI","town":"SASHIE","perfecture_jp":"石川県","jp_add_1":"かほく市","jp_add_2":"指江"},"9291116":{"post_code":"9291116","prefecture":"ISHIKAWA KEN","city":"KAHOKU SHI","town":"SHIMOYAMADA","perfecture_jp":"石川県","jp_add_1":"かほく市","jp_add_2":"下山田"},"9291177":{"post_code":"9291177","prefecture":"ISHIKAWA KEN","city":"KAHOKU SHI","town":"SHIRO","perfecture_jp":"石川県","jp_add_1":"かほく市","jp_add_2":"白尾"},"9291208":{"post_code":"9291208","prefecture":"ISHIKAWA KEN","city":"KAHOKU SHI","town":"SETOMACHI","perfecture_jp":"石川県","jp_add_1":"かほく市","jp_add_2":"瀬戸町"},"9291176":{"post_code":"9291176","prefecture":"ISHIKAWA KEN","city":"KAHOKU SHI","town":"SOTOHISUMI","perfecture_jp":"石川県","jp_add_1":"かほく市","jp_add_2":"外日角"},"9291215":{"post_code":"9291215","prefecture":"ISHIKAWA KEN","city":"KAHOKU SHI","town":"TAKAMATSU","perfecture_jp":"石川県","jp_add_1":"かほく市","jp_add_2":"高松"},"9291112":{"post_code":"9291112","prefecture":"ISHIKAWA KEN","city":"KAHOKU SHI","town":"TADA","perfecture_jp":"石川県","jp_add_1":"かほく市","jp_add_2":"多田"},"9291103":{"post_code":"9291103","prefecture":"ISHIKAWA KEN","city":"KAHOKU SHI","town":"TANI","perfecture_jp":"石川県","jp_add_1":"かほく市","jp_add_2":"谷"},"9291173":{"post_code":"9291173","prefecture":"ISHIKAWA KEN","city":"KAHOKU SHI","town":"TOZUKA","perfecture_jp":"石川県","jp_add_1":"かほく市","jp_add_2":"遠塚"},"9291212":{"post_code":"9291212","prefecture":"ISHIKAWA KEN","city":"KAHOKU SHI","town":"NAKANUMA","perfecture_jp":"石川県","jp_add_1":"かほく市","jp_add_2":"中沼"},"9291213":{"post_code":"9291213","prefecture":"ISHIKAWA KEN","city":"KAHOKU SHI","town":"NAGARAMACHI","perfecture_jp":"石川県","jp_add_1":"かほく市","jp_add_2":"長柄町"},"9291207":{"post_code":"9291207","prefecture":"ISHIKAWA KEN","city":"KAHOKU SHI","town":"NATSUGURI","perfecture_jp":"石川県","jp_add_1":"かほく市","jp_add_2":"夏栗"},"9291122":{"post_code":"9291122","prefecture":"ISHIKAWA KEN","city":"KAHOKU SHI","town":"NANAKUBO","perfecture_jp":"石川県","jp_add_1":"かほく市","jp_add_2":"七窪"},"9291201":{"post_code":"9291201","prefecture":"ISHIKAWA KEN","city":"KAHOKU SHI","town":"NODERA","perfecture_jp":"石川県","jp_add_1":"かほく市","jp_add_2":"野寺"},"9291202":{"post_code":"9291202","prefecture":"ISHIKAWA KEN","city":"KAHOKU SHI","town":"HACHINO","perfecture_jp":"石川県","jp_add_1":"かほく市","jp_add_2":"八野"},"9291117":{"post_code":"9291117","prefecture":"ISHIKAWA KEN","city":"KAHOKU SHI","town":"HACHIBUSE","perfecture_jp":"石川県","jp_add_1":"かほく市","jp_add_2":"鉢伏"},"9291174":{"post_code":"9291174","prefecture":"ISHIKAWA KEN","city":"KAHOKU SHI","town":"HAMAKITA","perfecture_jp":"石川県","jp_add_1":"かほく市","jp_add_2":"浜北"},"9291211":{"post_code":"9291211","prefecture":"ISHIKAWA KEN","city":"KAHOKU SHI","town":"FUTATSUYA","perfecture_jp":"石川県","jp_add_1":"かほく市","jp_add_2":"二ツ屋"},"9291172":{"post_code":"9291172","prefecture":"ISHIKAWA KEN","city":"KAHOKU SHI","town":"MATSUHAMA","perfecture_jp":"石川県","jp_add_1":"かほく市","jp_add_2":"松浜"},"9291204":{"post_code":"9291204","prefecture":"ISHIKAWA KEN","city":"KAHOKU SHI","town":"MIUCHI","perfecture_jp":"石川県","jp_add_1":"かほく市","jp_add_2":"箕打"},"9291123":{"post_code":"9291123","prefecture":"ISHIKAWA KEN","city":"KAHOKU SHI","town":"MORI","perfecture_jp":"石川県","jp_add_1":"かほく市","jp_add_2":"森"},"9291105":{"post_code":"9291105","prefecture":"ISHIKAWA KEN","city":"KAHOKU SHI","town":"YOKOYAMA","perfecture_jp":"石川県","jp_add_1":"かほく市","jp_add_2":"横山"},"9291101":{"post_code":"9291101","prefecture":"ISHIKAWA KEN","city":"KAHOKU SHI","town":"YOCHI","perfecture_jp":"石川県","jp_add_1":"かほく市","jp_add_2":"余地"},"9291205":{"post_code":"9291205","prefecture":"ISHIKAWA KEN","city":"KAHOKU SHI","town":"WAKAMIDORI","perfecture_jp":"石川県","jp_add_1":"かほく市","jp_add_2":"若緑"},"9290211":{"post_code":"9290211","prefecture":"ISHIKAWA KEN","city":"HAKUSAN SHI","town":"ISEKIMACHI","perfecture_jp":"石川県","jp_add_1":"白山市","jp_add_2":"井関町"},"9290206":{"post_code":"9290206","prefecture":"ISHIKAWA KEN","city":"HAKUSAN SHI","town":"KASHIMADAIRA","perfecture_jp":"石川県","jp_add_1":"白山市","jp_add_2":"鹿島平"},"9290201":{"post_code":"9290201","prefecture":"ISHIKAWA KEN","city":"HAKUSAN SHI","town":"KASHIMAMACHI","perfecture_jp":"石川県","jp_add_1":"白山市","jp_add_2":"鹿島町"},"9290213":{"post_code":"9290213","prefecture":"ISHIKAWA KEN","city":"HAKUSAN SHI","town":"SUEMASAMACHI","perfecture_jp":"石川県","jp_add_1":"白山市","jp_add_2":"末正町"},"9290214":{"post_code":"9290214","prefecture":"ISHIKAWA KEN","city":"HAKUSAN SHI","town":"CHOYAMACHI","perfecture_jp":"石川県","jp_add_1":"白山市","jp_add_2":"長屋町"},"9290212":{"post_code":"9290212","prefecture":"ISHIKAWA KEN","city":"HAKUSAN SHI","town":"TEDORIMACHI","perfecture_jp":"石川県","jp_add_1":"白山市","jp_add_2":"手取町"},"9290202":{"post_code":"9290202","prefecture":"ISHIKAWA KEN","city":"HAKUSAN SHI","town":"NISHIYONEMITSUMACHI","perfecture_jp":"石川県","jp_add_1":"白山市","jp_add_2":"西米光町"},"9290205":{"post_code":"9290205","prefecture":"ISHIKAWA KEN","city":"HAKUSAN SHI","town":"HASUIKEMACHI","perfecture_jp":"石川県","jp_add_1":"白山市","jp_add_2":"蓮池町"},"9290204":{"post_code":"9290204","prefecture":"ISHIKAWA KEN","city":"HAKUSAN SHI","town":"HIRAKAMACHI","perfecture_jp":"石川県","jp_add_1":"白山市","jp_add_2":"平加町"},"9290221":{"post_code":"9290221","prefecture":"ISHIKAWA KEN","city":"HAKUSAN SHI","town":"MIKAWA IMAMACHI","perfecture_jp":"石川県","jp_add_1":"白山市","jp_add_2":"美川今町"},"9290235":{"post_code":"9290235","prefecture":"ISHIKAWA KEN","city":"HAKUSAN SHI","town":"MIKAWA EITAIMACHI","perfecture_jp":"石川県","jp_add_1":"白山市","jp_add_2":"美川永代町"},"9290223":{"post_code":"9290223","prefecture":"ISHIKAWA KEN","city":"HAKUSAN SHI","town":"MIKAWA KITAMACHI","perfecture_jp":"石川県","jp_add_1":"白山市","jp_add_2":"美川北町"},"9290234":{"post_code":"9290234","prefecture":"ISHIKAWA KEN","city":"HAKUSAN SHI","town":"MIKAWA JINKOMACHI","perfecture_jp":"石川県","jp_add_1":"白山市","jp_add_2":"美川神幸町"},"9290222":{"post_code":"9290222","prefecture":"ISHIKAWA KEN","city":"HAKUSAN SHI","town":"MIKAWA SHIMMACHI","perfecture_jp":"石川県","jp_add_1":"白山市","jp_add_2":"美川新町"},"9290232":{"post_code":"9290232","prefecture":"ISHIKAWA KEN","city":"HAKUSAN SHI","town":"MIKAWA SUEHIROMACHI","perfecture_jp":"石川県","jp_add_1":"白山市","jp_add_2":"美川末広町"},"9290224":{"post_code":"9290224","prefecture":"ISHIKAWA KEN","city":"HAKUSAN SHI","town":"MIKAWA NAKAMACHI","perfecture_jp":"石川県","jp_add_1":"白山市","jp_add_2":"美川中町"},"9290233":{"post_code":"9290233","prefecture":"ISHIKAWA KEN","city":"HAKUSAN SHI","town":"MIKAWA HAMAMACHI","perfecture_jp":"石川県","jp_add_1":"白山市","jp_add_2":"美川浜町"},"9290215":{"post_code":"9290215","prefecture":"ISHIKAWA KEN","city":"HAKUSAN SHI","town":"MIKAWA MINAMIMACHI","perfecture_jp":"石川県","jp_add_1":"白山市","jp_add_2":"美川南町"},"9290216":{"post_code":"9290216","prefecture":"ISHIKAWA KEN","city":"HAKUSAN SHI","town":"MIKAWA MOTOYOSHIMACHI","perfecture_jp":"石川県","jp_add_1":"白山市","jp_add_2":"美川本吉町"},"9290231":{"post_code":"9290231","prefecture":"ISHIKAWA KEN","city":"HAKUSAN SHI","town":"MIKAWA WANAMIMACHI","perfecture_jp":"石川県","jp_add_1":"白山市","jp_add_2":"美川和波町"},"9290217":{"post_code":"9290217","prefecture":"ISHIKAWA KEN","city":"HAKUSAN SHI","town":"MINATOMACHI","perfecture_jp":"石川県","jp_add_1":"白山市","jp_add_2":"湊町"},"9290203":{"post_code":"9290203","prefecture":"ISHIKAWA KEN","city":"HAKUSAN SHI","town":"WAKAKUSAMACHI","perfecture_jp":"石川県","jp_add_1":"白山市","jp_add_2":"若草町"},"9290101":{"post_code":"9290101","prefecture":"ISHIKAWA KEN","city":"NOMI SHI","town":"AKAIMACHI","perfecture_jp":"石川県","jp_add_1":"能美市","jp_add_2":"赤井町"},"9290122":{"post_code":"9290122","prefecture":"ISHIKAWA KEN","city":"NOMI SHI","town":"OHAMAMACHI","perfecture_jp":"石川県","jp_add_1":"能美市","jp_add_2":"大浜町"},"9290103":{"post_code":"9290103","prefecture":"ISHIKAWA KEN","city":"NOMI SHI","town":"GOKENDOMACHI","perfecture_jp":"石川県","jp_add_1":"能美市","jp_add_2":"五間堂町"},"9290115":{"post_code":"9290115","prefecture":"ISHIKAWA KEN","city":"NOMI SHI","town":"SHIMONOGOMACHI","perfecture_jp":"石川県","jp_add_1":"能美市","jp_add_2":"下ノ江町"},"9290113":{"post_code":"9290113","prefecture":"ISHIKAWA KEN","city":"NOMI SHI","town":"TAISEIMACHI","perfecture_jp":"石川県","jp_add_1":"能美市","jp_add_2":"大成町"},"9290116":{"post_code":"9290116","prefecture":"ISHIKAWA KEN","city":"NOMI SHI","town":"NEAGARIMACHI","perfecture_jp":"石川県","jp_add_1":"能美市","jp_add_2":"高坂町"},"9290125":{"post_code":"9290125","prefecture":"ISHIKAWA KEN","city":"NOMI SHI","town":"DORIMMACHI","perfecture_jp":"石川県","jp_add_1":"能美市","jp_add_2":"道林町"},"9290105":{"post_code":"9290105","prefecture":"ISHIKAWA KEN","city":"NOMI SHI","town":"NAKANOGOMACHI","perfecture_jp":"石川県","jp_add_1":"能美市","jp_add_2":"中ノ江町"},"9290104":{"post_code":"9290104","prefecture":"ISHIKAWA KEN","city":"NOMI SHI","town":"NAKANOSHOMACHI","perfecture_jp":"石川県","jp_add_1":"能美市","jp_add_2":"中庄町"},"9290123":{"post_code":"9290123","prefecture":"ISHIKAWA KEN","city":"NOMI SHI","town":"NAKAMACHI","perfecture_jp":"石川県","jp_add_1":"能美市","jp_add_2":"中町"},"9290102":{"post_code":"9290102","prefecture":"ISHIKAWA KEN","city":"NOMI SHI","town":"NISHITODAMACHI","perfecture_jp":"石川県","jp_add_1":"能美市","jp_add_2":"西任田町"},"9290106":{"post_code":"9290106","prefecture":"ISHIKAWA KEN","city":"NOMI SHI","town":"NISHIFUTAKUCHIMACHI","perfecture_jp":"石川県","jp_add_1":"能美市","jp_add_2":"西二口町"},"9290108":{"post_code":"9290108","prefecture":"ISHIKAWA KEN","city":"NOMI SHI","town":"NOMI","perfecture_jp":"石川県","jp_add_1":"能美市","jp_add_2":"能美"},"9290114":{"post_code":"9290114","prefecture":"ISHIKAWA KEN","city":"NOMI SHI","town":"HAMAKAIHATSUMACHI","perfecture_jp":"石川県","jp_add_1":"能美市","jp_add_2":"浜開発町"},"9290124":{"post_code":"9290124","prefecture":"ISHIKAWA KEN","city":"NOMI SHI","town":"HAMAMACHI","perfecture_jp":"石川県","jp_add_1":"能美市","jp_add_2":"浜町"},"9290107":{"post_code":"9290107","prefecture":"ISHIKAWA KEN","city":"NOMI SHI","town":"FUKUOKAMACHI","perfecture_jp":"石川県","jp_add_1":"能美市","jp_add_2":"福岡町"},"9290112":{"post_code":"9290112","prefecture":"ISHIKAWA KEN","city":"NOMI SHI","town":"FUKUSHIMAMACHI","perfecture_jp":"石川県","jp_add_1":"能美市","jp_add_2":"福島町"},"9290126":{"post_code":"9290126","prefecture":"ISHIKAWA KEN","city":"NOMI SHI","town":"YAMAGUCHIMACHI","perfecture_jp":"石川県","jp_add_1":"能美市","jp_add_2":"山口町"},"9290121":{"post_code":"9290121","prefecture":"ISHIKAWA KEN","city":"NOMI SHI","town":"YOSHIHARAGAMAYAMACHI","perfecture_jp":"石川県","jp_add_1":"能美市","jp_add_2":"吉原釜屋町"},"9290111":{"post_code":"9290111","prefecture":"ISHIKAWA KEN","city":"NOMI SHI","town":"YOSHIHARAMACHI","perfecture_jp":"石川県","jp_add_1":"能美市","jp_add_2":"吉原町"},"9290300":{"post_code":"9290300","prefecture":"ISHIKAWA KEN","city":"KAHOKU GUN TSUBATA MACHI","town":"IKANIKEISAIGANAIBAAI","perfecture_jp":"石川県","jp_add_1":"河北郡津幡町","jp_add_2":""},"9290437":{"post_code":"9290437","prefecture":"ISHIKAWA KEN","city":"KAHOKU GUN TSUBATA MACHI","town":"AIKUBO","perfecture_jp":"石川県","jp_add_1":"河北郡津幡町","jp_add_2":"相窪"},"9290324":{"post_code":"9290324","prefecture":"ISHIKAWA KEN","city":"KAHOKU GUN TSUBATA MACHI","town":"ASADA","perfecture_jp":"石川県","jp_add_1":"河北郡津幡町","jp_add_2":"浅田"},"9290436":{"post_code":"9290436","prefecture":"ISHIKAWA KEN","city":"KAHOKU GUN TSUBATA MACHI","town":"ASAHIBATA","perfecture_jp":"石川県","jp_add_1":"河北郡津幡町","jp_add_2":"朝日畑"},"9290447":{"post_code":"9290447","prefecture":"ISHIKAWA KEN","city":"KAHOKU GUN TSUBATA MACHI","town":"ASAHIYAMA","perfecture_jp":"石川県","jp_add_1":"河北郡津幡町","jp_add_2":"旭山"},"9290344":{"post_code":"9290344","prefecture":"ISHIKAWA KEN","city":"KAHOKU GUN TSUBATA MACHI","town":"ASANTANI","perfecture_jp":"石川県","jp_add_1":"河北郡津幡町","jp_add_2":"浅谷"},"9290403":{"post_code":"9290403","prefecture":"ISHIKAWA KEN","city":"KAHOKU GUN TSUBATA MACHI","town":"AZAMIDANI","perfecture_jp":"石川県","jp_add_1":"河北郡津幡町","jp_add_2":"莇谷"},"9290311":{"post_code":"9290311","prefecture":"ISHIKAWA KEN","city":"KAHOKU GUN TSUBATA MACHI","town":"IKEGAHARA","perfecture_jp":"石川県","jp_add_1":"河北郡津幡町","jp_add_2":"池ケ原"},"9290462":{"post_code":"9290462","prefecture":"ISHIKAWA KEN","city":"KAHOKU GUN TSUBATA MACHI","town":"ICHINOTANI","perfecture_jp":"石川県","jp_add_1":"河北郡津幡町","jp_add_2":"市谷"},"9290335":{"post_code":"9290335","prefecture":"ISHIKAWA KEN","city":"KAHOKU GUN TSUBATA MACHI","town":"INOENOSHO","perfecture_jp":"石川県","jp_add_1":"河北郡津幡町","jp_add_2":"井上の荘"},"9290445":{"post_code":"9290445","prefecture":"ISHIKAWA KEN","city":"KAHOKU GUN TSUBATA MACHI","town":"INOKAWACHI","perfecture_jp":"石川県","jp_add_1":"河北郡津幡町","jp_add_2":"井野河内"},"9290453":{"post_code":"9290453","prefecture":"ISHIKAWA KEN","city":"KAHOKU GUN TSUBATA MACHI","town":"IWASAKI","perfecture_jp":"石川県","jp_add_1":"河北郡津幡町","jp_add_2":"岩崎"},"9290303":{"post_code":"9290303","prefecture":"ISHIKAWA KEN","city":"KAHOKU GUN TSUBATA MACHI","town":"USHIKUBI","perfecture_jp":"石川県","jp_add_1":"河北郡津幡町","jp_add_2":"牛首"},"9290301":{"post_code":"9290301","prefecture":"ISHIKAWA KEN","city":"KAHOKU GUN TSUBATA MACHI","town":"URYU","perfecture_jp":"石川県","jp_add_1":"河北郡津幡町","jp_add_2":"瓜生"},"9290405":{"post_code":"9290405","prefecture":"ISHIKAWA KEN","city":"KAHOKU GUN TSUBATA MACHI","town":"UWANO","perfecture_jp":"石川県","jp_add_1":"河北郡津幡町","jp_add_2":"上野"},"9290415":{"post_code":"9290415","prefecture":"ISHIKAWA KEN","city":"KAHOKU GUN TSUBATA MACHI","town":"ETCHUZAKA","perfecture_jp":"石川県","jp_add_1":"河北郡津幡町","jp_add_2":"越中坂"},"9290431":{"post_code":"9290431","prefecture":"ISHIKAWA KEN","city":"KAHOKU GUN TSUBATA MACHI","town":"OKUBO","perfecture_jp":"石川県","jp_add_1":"河北郡津幡町","jp_add_2":"大窪"},"9290345":{"post_code":"9290345","prefecture":"ISHIKAWA KEN","city":"KAHOKU GUN TSUBATA MACHI","town":"OTA","perfecture_jp":"石川県","jp_add_1":"河北郡津幡町","jp_add_2":"太田"},"9290442":{"post_code":"9290442","prefecture":"ISHIKAWA KEN","city":"KAHOKU GUN TSUBATA MACHI","town":"OTSUBO","perfecture_jp":"石川県","jp_add_1":"河北郡津幡町","jp_add_2":"大坪"},"9290404":{"post_code":"9290404","prefecture":"ISHIKAWA KEN","city":"KAHOKU GUN TSUBATA MACHI","town":"OBATAKE","perfecture_jp":"石川県","jp_add_1":"河北郡津幡町","jp_add_2":"大畠"},"9290467":{"post_code":"9290467","prefecture":"ISHIKAWA KEN","city":"KAHOKU GUN TSUBATA MACHI","town":"OMMA","perfecture_jp":"石川県","jp_add_1":"河北郡津幡町","jp_add_2":"大熊"},"9290325":{"post_code":"9290325","prefecture":"ISHIKAWA KEN","city":"KAHOKU GUN TSUBATA MACHI","town":"KAGATSUME","perfecture_jp":"石川県","jp_add_1":"河北郡津幡町","jp_add_2":"加賀爪"},"9290402":{"post_code":"9290402","prefecture":"ISHIKAWA KEN","city":"KAHOKU GUN TSUBATA MACHI","town":"KASAIKEGAHARA","perfecture_jp":"石川県","jp_add_1":"河北郡津幡町","jp_add_2":"笠池ケ原"},"9290346":{"post_code":"9290346","prefecture":"ISHIKAWA KEN","city":"KAHOKU GUN TSUBATA MACHI","town":"KATABATA","perfecture_jp":"石川県","jp_add_1":"河北郡津幡町","jp_add_2":"潟端"},"9290309":{"post_code":"9290309","prefecture":"ISHIKAWA KEN","city":"KAHOKU GUN TSUBATA MACHI","town":"KAMIOTA","perfecture_jp":"石川県","jp_add_1":"河北郡津幡町","jp_add_2":"上大田"},"9290304":{"post_code":"9290304","prefecture":"ISHIKAWA KEN","city":"KAHOKU GUN TSUBATA MACHI","town":"KAMIKAWAI","perfecture_jp":"石川県","jp_add_1":"河北郡津幡町","jp_add_2":"上河合"},"9290422":{"post_code":"9290422","prefecture":"ISHIKAWA KEN","city":"KAHOKU GUN TSUBATA MACHI","town":"KAMIFUJIMATA","perfecture_jp":"石川県","jp_add_1":"河北郡津幡町","jp_add_2":"上藤又"},"9290314":{"post_code":"9290314","prefecture":"ISHIKAWA KEN","city":"KAHOKU GUN TSUBATA MACHI","town":"KAMIYATA","perfecture_jp":"石川県","jp_add_1":"河北郡津幡町","jp_add_2":"上矢田"},"9290321":{"post_code":"9290321","prefecture":"ISHIKAWA KEN","city":"KAHOKU GUN TSUBATA MACHI","town":"KAMO","perfecture_jp":"石川県","jp_add_1":"河北郡津幡町","jp_add_2":"加茂"},"9290416":{"post_code":"9290416","prefecture":"ISHIKAWA KEN","city":"KAHOKU GUN TSUBATA MACHI","town":"KARIYASU","perfecture_jp":"石川県","jp_add_1":"河北郡津幡町","jp_add_2":"刈安"},"9290334":{"post_code":"9290334","prefecture":"ISHIKAWA KEN","city":"KAHOKU GUN TSUBATA MACHI","town":"KAWASHIRI","perfecture_jp":"石川県","jp_add_1":"河北郡津幡町","jp_add_2":"川尻"},"9290411":{"post_code":"9290411","prefecture":"ISHIKAWA KEN","city":"KAHOKU GUN TSUBATA MACHI","town":"KAWACHI","perfecture_jp":"石川県","jp_add_1":"河北郡津幡町","jp_add_2":"河内"},"9290342":{"post_code":"9290342","prefecture":"ISHIKAWA KEN","city":"KAHOKU GUN TSUBATA MACHI","town":"KITACHUJO","perfecture_jp":"石川県","jp_add_1":"河北郡津幡町","jp_add_2":"北中条"},"9290432":{"post_code":"9290432","prefecture":"ISHIKAWA KEN","city":"KAHOKU GUN TSUBATA MACHI","town":"KITAYOKONE","perfecture_jp":"石川県","jp_add_1":"河北郡津幡町","jp_add_2":"北横根"},"9290302":{"post_code":"9290302","prefecture":"ISHIKAWA KEN","city":"KAHOKU GUN TSUBATA MACHI","town":"KINOKUBO","perfecture_jp":"石川県","jp_add_1":"河北郡津幡町","jp_add_2":"木ノ窪"},"9290306":{"post_code":"9290306","prefecture":"ISHIKAWA KEN","city":"KAHOKU GUN TSUBATA MACHI","town":"KYOZU","perfecture_jp":"石川県","jp_add_1":"河北郡津幡町","jp_add_2":"興津"},"9290455":{"post_code":"9290455","prefecture":"ISHIKAWA KEN","city":"KAHOKU GUN TSUBATA MACHI","town":"KURAMI","perfecture_jp":"石川県","jp_add_1":"河北郡津幡町","jp_add_2":"倉見"},"9290413":{"post_code":"9290413","prefecture":"ISHIKAWA KEN","city":"KAHOKU GUN TSUBATA MACHI","town":"KURIKARA","perfecture_jp":"石川県","jp_add_1":"河北郡津幡町","jp_add_2":"倶利伽羅"},"9290444":{"post_code":"9290444","prefecture":"ISHIKAWA KEN","city":"KAHOKU GUN TSUBATA MACHI","town":"KESHO","perfecture_jp":"石川県","jp_add_1":"河北郡津幡町","jp_add_2":"仮生"},"9290333":{"post_code":"9290333","prefecture":"ISHIKAWA KEN","city":"KAHOKU GUN TSUBATA MACHI","town":"GOTANDA","perfecture_jp":"石川県","jp_add_1":"河北郡津幡町","jp_add_2":"五反田"},"9290328":{"post_code":"9290328","prefecture":"ISHIKAWA KEN","city":"KAHOKU GUN TSUBATA MACHI","town":"FUNABASHI","perfecture_jp":"石川県","jp_add_1":"河北郡津幡町","jp_add_2":"湖東"},"9290406":{"post_code":"9290406","prefecture":"ISHIKAWA KEN","city":"KAHOKU GUN TSUBATA MACHI","town":"KOMOTSUKI","perfecture_jp":"石川県","jp_add_1":"河北郡津幡町","jp_add_2":"籠月"},"9290312":{"post_code":"9290312","prefecture":"ISHIKAWA KEN","city":"KAHOKU GUN TSUBATA MACHI","town":"KOMMA","perfecture_jp":"石川県","jp_add_1":"河北郡津幡町","jp_add_2":"小熊"},"9290435":{"post_code":"9290435","prefecture":"ISHIKAWA KEN","city":"KAHOKU GUN TSUBATA MACHI","town":"ZAIMOKU","perfecture_jp":"石川県","jp_add_1":"河北郡津幡町","jp_add_2":"材木"},"9290417":{"post_code":"9290417","prefecture":"ISHIKAWA KEN","city":"KAHOKU GUN TSUBATA MACHI","town":"SAKADO","perfecture_jp":"石川県","jp_add_1":"河北郡津幡町","jp_add_2":"坂戸"},"9290456":{"post_code":"9290456","prefecture":"ISHIKAWA KEN","city":"KAHOKU GUN TSUBATA MACHI","town":"SHICHIKURO","perfecture_jp":"石川県","jp_add_1":"河北郡津幡町","jp_add_2":"七黒"},"9290425":{"post_code":"9290425","prefecture":"ISHIKAWA KEN","city":"KAHOKU GUN TSUBATA MACHI","town":"SHICHINO","perfecture_jp":"石川県","jp_add_1":"河北郡津幡町","jp_add_2":"七野"},"9290326":{"post_code":"9290326","prefecture":"ISHIKAWA KEN","city":"KAHOKU GUN TSUBATA MACHI","town":"SHIMIZU","perfecture_jp":"石川県","jp_add_1":"河北郡津幡町","jp_add_2":"清水"},"9290305":{"post_code":"9290305","prefecture":"ISHIKAWA KEN","city":"KAHOKU GUN TSUBATA MACHI","town":"SHIMOKAWAI","perfecture_jp":"石川県","jp_add_1":"河北郡津幡町","jp_add_2":"下河合"},"9290423":{"post_code":"9290423","prefecture":"ISHIKAWA KEN","city":"KAHOKU GUN TSUBATA MACHI","town":"SHIMONAKA","perfecture_jp":"石川県","jp_add_1":"河北郡津幡町","jp_add_2":"下中"},"9290424":{"post_code":"9290424","prefecture":"ISHIKAWA KEN","city":"KAHOKU GUN TSUBATA MACHI","town":"SHIMOFUJIMATA","perfecture_jp":"石川県","jp_add_1":"河北郡津幡町","jp_add_2":"下藤又"},"9290315":{"post_code":"9290315","prefecture":"ISHIKAWA KEN","city":"KAHOKU GUN TSUBATA MACHI","town":"SHIMOYATA","perfecture_jp":"石川県","jp_add_1":"河北郡津幡町","jp_add_2":"下矢田"},"9290327":{"post_code":"9290327","prefecture":"ISHIKAWA KEN","city":"KAHOKU GUN TSUBATA MACHI","town":"SHO","perfecture_jp":"石川県","jp_add_1":"河北郡津幡町","jp_add_2":"庄"},"9290434":{"post_code":"9290434","prefecture":"ISHIKAWA KEN","city":"KAHOKU GUN TSUBATA MACHI","town":"FUNAO","perfecture_jp":"石川県","jp_add_1":"河北郡津幡町","jp_add_2":"常徳"},"9290454":{"post_code":"9290454","prefecture":"ISHIKAWA KEN","city":"KAHOKU GUN TSUBATA MACHI","town":"SUGINOSE","perfecture_jp":"石川県","jp_add_1":"河北郡津幡町","jp_add_2":"杉瀬"},"9290426":{"post_code":"9290426","prefecture":"ISHIKAWA KEN","city":"KAHOKU GUN TSUBATA MACHI","town":"TAKENOHASHI","perfecture_jp":"石川県","jp_add_1":"河北郡津幡町","jp_add_2":"竹橋"},"9290307":{"post_code":"9290307","prefecture":"ISHIKAWA KEN","city":"KAHOKU GUN TSUBATA MACHI","town":"HIRANO","perfecture_jp":"石川県","jp_add_1":"河北郡津幡町","jp_add_2":"種"},"9290452":{"post_code":"9290452","prefecture":"ISHIKAWA KEN","city":"KAHOKU GUN TSUBATA MACHI","town":"TAYA","perfecture_jp":"石川県","jp_add_1":"河北郡津幡町","jp_add_2":"田屋"},"9290412":{"post_code":"9290412","prefecture":"ISHIKAWA KEN","city":"KAHOKU GUN TSUBATA MACHI","town":"TSUZURAORI","perfecture_jp":"石川県","jp_add_1":"河北郡津幡町","jp_add_2":"九折"},"9290323":{"post_code":"9290323","prefecture":"ISHIKAWA KEN","city":"KAHOKU GUN TSUBATA MACHI","town":"TSUBATA","perfecture_jp":"石川県","jp_add_1":"河北郡津幡町","jp_add_2":"津幡"},"9290427":{"post_code":"9290427","prefecture":"ISHIKAWA KEN","city":"KAHOKU GUN TSUBATA MACHI","town":"TOMITA","perfecture_jp":"石川県","jp_add_1":"河北郡津幡町","jp_add_2":"富田"},"9290465":{"post_code":"9290465","prefecture":"ISHIKAWA KEN","city":"KAHOKU GUN TSUBATA MACHI","town":"TORIGOE","perfecture_jp":"石川県","jp_add_1":"河北郡津幡町","jp_add_2":"鳥越"},"9290407":{"post_code":"9290407","prefecture":"ISHIKAWA KEN","city":"KAHOKU GUN TSUBATA MACHI","town":"TORIYAO","perfecture_jp":"石川県","jp_add_1":"河北郡津幡町","jp_add_2":"鳥屋尾"},"9290332":{"post_code":"9290332","prefecture":"ISHIKAWA KEN","city":"KAHOKU GUN TSUBATA MACHI","town":"NAKASUKA","perfecture_jp":"石川県","jp_add_1":"河北郡津幡町","jp_add_2":"中須加"},"9290331":{"post_code":"9290331","prefecture":"ISHIKAWA KEN","city":"KAHOKU GUN TSUBATA MACHI","town":"NAKABASHI","perfecture_jp":"石川県","jp_add_1":"河北郡津幡町","jp_add_2":"中橋"},"9290313":{"post_code":"9290313","prefecture":"ISHIKAWA KEN","city":"KAHOKU GUN TSUBATA MACHI","town":"NAKAYAMA","perfecture_jp":"石川県","jp_add_1":"河北郡津幡町","jp_add_2":"中山"},"9290319":{"post_code":"9290319","prefecture":"ISHIKAWA KEN","city":"KAHOKU GUN TSUBATA MACHI","town":"NOSE","perfecture_jp":"石川県","jp_add_1":"河北郡津幡町","jp_add_2":"能瀬"},"9290461":{"post_code":"9290461","prefecture":"ISHIKAWA KEN","city":"KAHOKU GUN TSUBATA MACHI","town":"HACHINOTANI","perfecture_jp":"石川県","jp_add_1":"河北郡津幡町","jp_add_2":"八ノ谷"},"9290421":{"post_code":"9290421","prefecture":"ISHIKAWA KEN","city":"KAHOKU GUN TSUBATA MACHI","town":"HARA","perfecture_jp":"石川県","jp_add_1":"河北郡津幡町","jp_add_2":"原"},"9290441":{"post_code":"9290441","prefecture":"ISHIKAWA KEN","city":"KAHOKU GUN TSUBATA MACHI","town":"HIGASHIARAYA","perfecture_jp":"石川県","jp_add_1":"河北郡津幡町","jp_add_2":"東荒屋"},"9290401":{"post_code":"9290401","prefecture":"ISHIKAWA KEN","city":"KAHOKU GUN TSUBATA MACHI","town":"HIKOTAROBATAKE","perfecture_jp":"石川県","jp_add_1":"河北郡津幡町","jp_add_2":"彦太郎畠"},"9290443":{"post_code":"9290443","prefecture":"ISHIKAWA KEN","city":"KAHOKU GUN TSUBATA MACHI","town":"BESSHO","perfecture_jp":"石川県","jp_add_1":"河北郡津幡町","jp_add_2":"別所"},"9290308":{"post_code":"9290308","prefecture":"ISHIKAWA KEN","city":"KAHOKU GUN TSUBATA MACHI","town":"BODAIJI","perfecture_jp":"石川県","jp_add_1":"河北郡津幡町","jp_add_2":"菩提寺"},"9290316":{"post_code":"9290316","prefecture":"ISHIKAWA KEN","city":"KAHOKU GUN TSUBATA MACHI","town":"MIKADO","perfecture_jp":"石川県","jp_add_1":"河北郡津幡町","jp_add_2":"御門"},"9290322":{"post_code":"9290322","prefecture":"ISHIKAWA KEN","city":"KAHOKU GUN TSUBATA MACHI","town":"MIDORIGAOKA","perfecture_jp":"石川県","jp_add_1":"河北郡津幡町","jp_add_2":"緑が丘"},"9290343":{"post_code":"9290343","prefecture":"ISHIKAWA KEN","city":"KAHOKU GUN TSUBATA MACHI","town":"MINAMICHUJO","perfecture_jp":"石川県","jp_add_1":"河北郡津幡町","jp_add_2":"南中条"},"9290433":{"post_code":"9290433","prefecture":"ISHIKAWA KEN","city":"KAHOKU GUN TSUBATA MACHI","town":"MINAMIYOKONE","perfecture_jp":"石川県","jp_add_1":"河北郡津幡町","jp_add_2":"南横根"},"9290451":{"post_code":"9290451","prefecture":"ISHIKAWA KEN","city":"KAHOKU GUN TSUBATA MACHI","town":"MIYADA","perfecture_jp":"石川県","jp_add_1":"河北郡津幡町","jp_add_2":"宮田"},"9290446":{"post_code":"9290446","prefecture":"ISHIKAWA KEN","city":"KAHOKU GUN TSUBATA MACHI","town":"MYOJIN","perfecture_jp":"石川県","jp_add_1":"河北郡津幡町","jp_add_2":"明神"},"9290317":{"post_code":"9290317","prefecture":"ISHIKAWA KEN","city":"KAHOKU GUN TSUBATA MACHI","town":"YACHI","perfecture_jp":"石川県","jp_add_1":"河北郡津幡町","jp_add_2":"谷内"},"9290414":{"post_code":"9290414","prefecture":"ISHIKAWA KEN","city":"KAHOKU GUN TSUBATA MACHI","town":"YAMAMORI","perfecture_jp":"石川県","jp_add_1":"河北郡津幡町","jp_add_2":"山森"},"9290464":{"post_code":"9290464","prefecture":"ISHIKAWA KEN","city":"KAHOKU GUN TSUBATA MACHI","town":"YAMAKITA","perfecture_jp":"石川県","jp_add_1":"河北郡津幡町","jp_add_2":"山北"},"9290341":{"post_code":"9290341","prefecture":"ISHIKAWA KEN","city":"KAHOKU GUN TSUBATA MACHI","town":"YOKOHAMA","perfecture_jp":"石川県","jp_add_1":"河北郡津幡町","jp_add_2":"横浜"},"9290466":{"post_code":"9290466","prefecture":"ISHIKAWA KEN","city":"KAHOKU GUN TSUBATA MACHI","town":"YOSHIKURA","perfecture_jp":"石川県","jp_add_1":"河北郡津幡町","jp_add_2":"吉倉"},"9290318":{"post_code":"9290318","prefecture":"ISHIKAWA KEN","city":"KAHOKU GUN TSUBATA MACHI","town":"RYOKE","perfecture_jp":"石川県","jp_add_1":"河北郡津幡町","jp_add_2":"領家"},"9290463":{"post_code":"9290463","prefecture":"ISHIKAWA KEN","city":"KAHOKU GUN TSUBATA MACHI","town":"RENGEJI","perfecture_jp":"石川県","jp_add_1":"河北郡津幡町","jp_add_2":"蓮花寺"},"9291300":{"post_code":"9291300","prefecture":"ISHIKAWA KEN","city":"HAKUI GUN HODATSUSHIMIZU CHO","town":"IKANIKEISAIGANAIBAAI","perfecture_jp":"石川県","jp_add_1":"羽咋郡宝達志水町","jp_add_2":""},"9291313":{"post_code":"9291313","prefecture":"ISHIKAWA KEN","city":"HAKUI GUN HODATSUSHIMIZU CHO","town":"AZUMA","perfecture_jp":"石川県","jp_add_1":"羽咋郡宝達志水町","jp_add_2":"東間"},"9291406":{"post_code":"9291406","prefecture":"ISHIKAWA KEN","city":"HAKUI GUN HODATSUSHIMIZU CHO","town":"SANDEN","perfecture_jp":"石川県","jp_add_1":"羽咋郡宝達志水町","jp_add_2":"石坂"},"9291344":{"post_code":"9291344","prefecture":"ISHIKAWA KEN","city":"HAKUI GUN HODATSUSHIMIZU CHO","town":"IMAHAMA","perfecture_jp":"石川県","jp_add_1":"羽咋郡宝達志水町","jp_add_2":"今浜"},"9291345":{"post_code":"9291345","prefecture":"ISHIKAWA KEN","city":"HAKUI GUN HODATSUSHIMIZU CHO","town":"IMAHAMASHIN","perfecture_jp":"石川県","jp_add_1":"羽咋郡宝達志水町","jp_add_2":"今浜新"},"9291312":{"post_code":"9291312","prefecture":"ISHIKAWA KEN","city":"HAKUI GUN HODATSUSHIMIZU CHO","town":"UWADA","perfecture_jp":"石川県","jp_add_1":"羽咋郡宝達志水町","jp_add_2":"上田"},"9291321":{"post_code":"9291321","prefecture":"ISHIKAWA KEN","city":"HAKUI GUN HODATSUSHIMIZU CHO","town":"UWADADE","perfecture_jp":"石川県","jp_add_1":"羽咋郡宝達志水町","jp_add_2":"上田出"},"9291405":{"post_code":"9291405","prefecture":"ISHIKAWA KEN","city":"HAKUI GUN HODATSUSHIMIZU CHO","town":"HIRATOKO","perfecture_jp":"石川県","jp_add_1":"羽咋郡宝達志水町","jp_add_2":"海老坂"},"9291343":{"post_code":"9291343","prefecture":"ISHIKAWA KEN","city":"HAKUI GUN HODATSUSHIMIZU CHO","town":"OGAWA","perfecture_jp":"石川県","jp_add_1":"羽咋郡宝達志水町","jp_add_2":"小川"},"9291426":{"post_code":"9291426","prefecture":"ISHIKAWA KEN","city":"HAKUI GUN HODATSUSHIMIZU CHO","town":"OGICHI","perfecture_jp":"石川県","jp_add_1":"羽咋郡宝達志水町","jp_add_2":"荻市"},"9291412":{"post_code":"9291412","prefecture":"ISHIKAWA KEN","city":"HAKUI GUN HODATSUSHIMIZU CHO","town":"OGINOSHIMA","perfecture_jp":"石川県","jp_add_1":"羽咋郡宝達志水町","jp_add_2":"荻島"},"9291413":{"post_code":"9291413","prefecture":"ISHIKAWA KEN","city":"HAKUI GUN HODATSUSHIMIZU CHO","town":"OGINOYACHI","perfecture_jp":"石川県","jp_add_1":"羽咋郡宝達志水町","jp_add_2":"荻谷"},"9291323":{"post_code":"9291323","prefecture":"ISHIKAWA KEN","city":"HAKUI GUN HODATSUSHIMIZU CHO","town":"OTACHI","perfecture_jp":"石川県","jp_add_1":"羽咋郡宝達志水町","jp_add_2":"御舘"},"9291303":{"post_code":"9291303","prefecture":"ISHIKAWA KEN","city":"HAKUI GUN HODATSUSHIMIZU CHO","town":"KAWARA","perfecture_jp":"石川県","jp_add_1":"羽咋郡宝達志水町","jp_add_2":"河原"},"9291332":{"post_code":"9291332","prefecture":"ISHIKAWA KEN","city":"HAKUI GUN HODATSUSHIMIZU CHO","town":"KITAKAWASHIRI","perfecture_jp":"石川県","jp_add_1":"羽咋郡宝達志水町","jp_add_2":"北川尻"},"9291331":{"post_code":"9291331","prefecture":"ISHIKAWA KEN","city":"HAKUI GUN HODATSUSHIMIZU CHO","town":"KOMEDASHI","perfecture_jp":"石川県","jp_add_1":"羽咋郡宝達志水町","jp_add_2":"米出"},"9291314":{"post_code":"9291314","prefecture":"ISHIKAWA KEN","city":"HAKUI GUN HODATSUSHIMIZU CHO","town":"KONYAMACHI","perfecture_jp":"石川県","jp_add_1":"羽咋郡宝達志水町","jp_add_2":"紺屋町"},"9291425":{"post_code":"9291425","prefecture":"ISHIKAWA KEN","city":"HAKUI GUN HODATSUSHIMIZU CHO","town":"SHIO","perfecture_jp":"石川県","jp_add_1":"羽咋郡宝達志水町","jp_add_2":"子浦"},"9291414":{"post_code":"9291414","prefecture":"ISHIKAWA KEN","city":"HAKUI GUN HODATSUSHIMIZU CHO","town":"SHIKINAMI","perfecture_jp":"石川県","jp_add_1":"羽咋郡宝達志水町","jp_add_2":"敷波"},"9291415":{"post_code":"9291415","prefecture":"ISHIKAWA KEN","city":"HAKUI GUN HODATSUSHIMIZU CHO","town":"SHIKINAMI","perfecture_jp":"石川県","jp_add_1":"羽咋郡宝達志水町","jp_add_2":"敷浪"},"9291402":{"post_code":"9291402","prefecture":"ISHIKAWA KEN","city":"HAKUI GUN HODATSUSHIMIZU CHO","town":"MISAGO","perfecture_jp":"石川県","jp_add_1":"羽咋郡宝達志水町","jp_add_2":"清水原"},"9291341":{"post_code":"9291341","prefecture":"ISHIKAWA KEN","city":"HAKUI GUN HODATSUSHIMIZU CHO","town":"SHUKU","perfecture_jp":"石川県","jp_add_1":"羽咋郡宝達志水町","jp_add_2":"宿"},"9291403":{"post_code":"9291403","prefecture":"ISHIKAWA KEN","city":"HAKUI GUN HODATSUSHIMIZU CHO","town":"SHOSHIHARA","perfecture_jp":"石川県","jp_add_1":"羽咋郡宝達志水町","jp_add_2":"所司原"},"9291404":{"post_code":"9291404","prefecture":"ISHIKAWA KEN","city":"HAKUI GUN HODATSUSHIMIZU CHO","town":"HARA","perfecture_jp":"石川県","jp_add_1":"羽咋郡宝達志水町","jp_add_2":"新宮"},"9291423":{"post_code":"9291423","prefecture":"ISHIKAWA KEN","city":"HAKUI GUN HODATSUSHIMIZU CHO","town":"SUGAHARA","perfecture_jp":"石川県","jp_add_1":"羽咋郡宝達志水町","jp_add_2":"菅原"},"9291422":{"post_code":"9291422","prefecture":"ISHIKAWA KEN","city":"HAKUI GUN HODATSUSHIMIZU CHO","town":"SUGINOYA","perfecture_jp":"石川県","jp_add_1":"羽咋郡宝達志水町","jp_add_2":"杉野屋"},"9291305":{"post_code":"9291305","prefecture":"ISHIKAWA KEN","city":"HAKUI GUN HODATSUSHIMIZU CHO","town":"TAKONO","perfecture_jp":"石川県","jp_add_1":"羽咋郡宝達志水町","jp_add_2":"竹生野"},"9291325":{"post_code":"9291325","prefecture":"ISHIKAWA KEN","city":"HAKUI GUN HODATSUSHIMIZU CHO","town":"TSUBOYAMA","perfecture_jp":"石川県","jp_add_1":"羽咋郡宝達志水町","jp_add_2":"坪山"},"9291416":{"post_code":"9291416","prefecture":"ISHIKAWA KEN","city":"HAKUI GUN HODATSUSHIMIZU CHO","town":"DEHAMA","perfecture_jp":"石川県","jp_add_1":"羽咋郡宝達志水町","jp_add_2":"出浜"},"9291316":{"post_code":"9291316","prefecture":"ISHIKAWA KEN","city":"HAKUI GUN HODATSUSHIMIZU CHO","town":"NAKANO","perfecture_jp":"石川県","jp_add_1":"羽咋郡宝達志水町","jp_add_2":"中野"},"9291315":{"post_code":"9291315","prefecture":"ISHIKAWA KEN","city":"HAKUI GUN HODATSUSHIMIZU CHO","town":"HIGASHINO","perfecture_jp":"石川県","jp_add_1":"羽咋郡宝達志水町","jp_add_2":"東野"},"9291421":{"post_code":"9291421","prefecture":"ISHIKAWA KEN","city":"HAKUI GUN HODATSUSHIMIZU CHO","town":"FUTAKUCHI","perfecture_jp":"石川県","jp_add_1":"羽咋郡宝達志水町","jp_add_2":"二口"},"9291326":{"post_code":"9291326","prefecture":"ISHIKAWA KEN","city":"HAKUI GUN HODATSUSHIMIZU CHO","town":"FUYUNO","perfecture_jp":"石川県","jp_add_1":"羽咋郡宝達志水町","jp_add_2":"冬野"},"9291301":{"post_code":"9291301","prefecture":"ISHIKAWA KEN","city":"HAKUI GUN HODATSUSHIMIZU CHO","town":"HODATSU","perfecture_jp":"石川県","jp_add_1":"羽咋郡宝達志水町","jp_add_2":"宝達"},"9291324":{"post_code":"9291324","prefecture":"ISHIKAWA KEN","city":"HAKUI GUN HODATSUSHIMIZU CHO","town":"MASATOMO","perfecture_jp":"石川県","jp_add_1":"羽咋郡宝達志水町","jp_add_2":"正友"},"9291322":{"post_code":"9291322","prefecture":"ISHIKAWA KEN","city":"HAKUI GUN HODATSUSHIMIZU CHO","town":"MIKKAMACHI","perfecture_jp":"石川県","jp_add_1":"羽咋郡宝達志水町","jp_add_2":"三日町"},"9291304":{"post_code":"9291304","prefecture":"ISHIKAWA KEN","city":"HAKUI GUN HODATSUSHIMIZU CHO","town":"MINAMIYOSHITA","perfecture_jp":"石川県","jp_add_1":"羽咋郡宝達志水町","jp_add_2":"南吉田"},"9291342":{"post_code":"9291342","prefecture":"ISHIKAWA KEN","city":"HAKUI GUN HODATSUSHIMIZU CHO","town":"MUGIU","perfecture_jp":"石川県","jp_add_1":"羽咋郡宝達志水町","jp_add_2":"麦生"},"9291401":{"post_code":"9291401","prefecture":"ISHIKAWA KEN","city":"HAKUI GUN HODATSUSHIMIZU CHO","town":"MUKOSE","perfecture_jp":"石川県","jp_add_1":"羽咋郡宝達志水町","jp_add_2":"向瀬"},"9291333":{"post_code":"9291333","prefecture":"ISHIKAWA KEN","city":"HAKUI GUN HODATSUSHIMIZU CHO","town":"MENDEN","perfecture_jp":"石川県","jp_add_1":"羽咋郡宝達志水町","jp_add_2":"免田"},"9291327":{"post_code":"9291327","prefecture":"ISHIKAWA KEN","city":"HAKUI GUN HODATSUSHIMIZU CHO","town":"MORIMOTO","perfecture_jp":"石川県","jp_add_1":"羽咋郡宝達志水町","jp_add_2":"森本"},"9291311":{"post_code":"9291311","prefecture":"ISHIKAWA KEN","city":"HAKUI GUN HODATSUSHIMIZU CHO","town":"MONZEN","perfecture_jp":"石川県","jp_add_1":"羽咋郡宝達志水町","jp_add_2":"門前"},"9291411":{"post_code":"9291411","prefecture":"ISHIKAWA KEN","city":"HAKUI GUN HODATSUSHIMIZU CHO","town":"YANASE","perfecture_jp":"石川県","jp_add_1":"羽咋郡宝達志水町","jp_add_2":"柳瀬"},"9291302":{"post_code":"9291302","prefecture":"ISHIKAWA KEN","city":"HAKUI GUN HODATSUSHIMIZU CHO","town":"YAMAZAKI","perfecture_jp":"石川県","jp_add_1":"羽咋郡宝達志水町","jp_add_2":"山崎"},"9291424":{"post_code":"9291424","prefecture":"ISHIKAWA KEN","city":"HAKUI GUN HODATSUSHIMIZU CHO","town":"YOSHINOYA","perfecture_jp":"石川県","jp_add_1":"羽咋郡宝達志水町","jp_add_2":"吉野屋"},"9291700":{"post_code":"9291700","prefecture":"ISHIKAWA KEN","city":"KASHIMA GUN NAKANOTO MACHI","town":"IKANIKEISAIGANAIBAAI","perfecture_jp":"石川県","jp_add_1":"鹿島郡中能登町","jp_add_2":""},"9291816":{"post_code":"9291816","prefecture":"ISHIKAWA KEN","city":"KASHIMA GUN NAKANOTO MACHI","town":"ASAI","perfecture_jp":"石川県","jp_add_1":"鹿島郡中能登町","jp_add_2":"浅井"},"9291813":{"post_code":"9291813","prefecture":"ISHIKAWA KEN","city":"KASHIMA GUN NAKANOTO MACHI","town":"ARIGAHARA","perfecture_jp":"石川県","jp_add_1":"鹿島郡中能登町","jp_add_2":"蟻ケ原"},"9291804":{"post_code":"9291804","prefecture":"ISHIKAWA KEN","city":"KASHIMA GUN NAKANOTO MACHI","town":"ARUE","perfecture_jp":"石川県","jp_add_1":"鹿島郡中能登町","jp_add_2":"在江"},"9291721":{"post_code":"9291721","prefecture":"ISHIKAWA KEN","city":"KASHIMA GUN NAKANOTO MACHI","town":"IDA","perfecture_jp":"石川県","jp_add_1":"鹿島郡中能登町","jp_add_2":"井田"},"9291713":{"post_code":"9291713","prefecture":"ISHIKAWA KEN","city":"KASHIMA GUN NAKANOTO MACHI","town":"IMAHAZAKA","perfecture_jp":"石川県","jp_add_1":"鹿島郡中能登町","jp_add_2":"今羽坂"},"9291702":{"post_code":"9291702","prefecture":"ISHIKAWA KEN","city":"KASHIMA GUN NAKANOTO MACHI","town":"OZUKI","perfecture_jp":"石川県","jp_add_1":"鹿島郡中能登町","jp_add_2":"大槻"},"9291724":{"post_code":"9291724","prefecture":"ISHIKAWA KEN","city":"KASHIMA GUN NAKANOTO MACHI","town":"OSAKI","perfecture_jp":"石川県","jp_add_1":"鹿島郡中能登町","jp_add_2":"尾崎"},"9291722":{"post_code":"9291722","prefecture":"ISHIKAWA KEN","city":"KASHIMA GUN NAKANOTO MACHI","town":"ODAKE","perfecture_jp":"石川県","jp_add_1":"鹿島郡中能登町","jp_add_2":"小竹"},"9291521":{"post_code":"9291521","prefecture":"ISHIKAWA KEN","city":"KASHIMA GUN NAKANOTO MACHI","town":"KANEMARU","perfecture_jp":"石川県","jp_add_1":"鹿島郡中能登町","jp_add_2":"金丸"},"9291606":{"post_code":"9291606","prefecture":"ISHIKAWA KEN","city":"KASHIMA GUN NAKANOTO MACHI","town":"KAMIUSHIROYAMA","perfecture_jp":"石川県","jp_add_1":"鹿島郡中能登町","jp_add_2":"上後山"},"9291701":{"post_code":"9291701","prefecture":"ISHIKAWA KEN","city":"KASHIMA GUN NAKANOTO MACHI","town":"KAWADA","perfecture_jp":"石川県","jp_add_1":"鹿島郡中能登町","jp_add_2":"川田"},"9291631":{"post_code":"9291631","prefecture":"ISHIKAWA KEN","city":"KASHIMA GUN NAKANOTO MACHI","town":"KUE","perfecture_jp":"石川県","jp_add_1":"鹿島郡中能登町","jp_add_2":"久江"},"9291801":{"post_code":"9291801","prefecture":"ISHIKAWA KEN","city":"KASHIMA GUN NAKANOTO MACHI","town":"KUNOGI","perfecture_jp":"石川県","jp_add_1":"鹿島郡中能登町","jp_add_2":"久乃木"},"9291716":{"post_code":"9291716","prefecture":"ISHIKAWA KEN","city":"KASHIMA GUN NAKANOTO MACHI","town":"KUROJI","perfecture_jp":"石川県","jp_add_1":"鹿島郡中能登町","jp_add_2":"黒氏"},"9291636":{"post_code":"9291636","prefecture":"ISHIKAWA KEN","city":"KASHIMA GUN NAKANOTO MACHI","town":"KOGANEMORI","perfecture_jp":"石川県","jp_add_1":"鹿島郡中能登町","jp_add_2":"小金森"},"9291632":{"post_code":"9291632","prefecture":"ISHIKAWA KEN","city":"KASHIMA GUN NAKANOTO MACHI","town":"KODANAKA","perfecture_jp":"石川県","jp_add_1":"鹿島郡中能登町","jp_add_2":"小田中"},"9291726":{"post_code":"9291726","prefecture":"ISHIKAWA KEN","city":"KASHIMA GUN NAKANOTO MACHI","town":"SAISUKO","perfecture_jp":"石川県","jp_add_1":"鹿島郡中能登町","jp_add_2":"最勝講"},"9291605":{"post_code":"9291605","prefecture":"ISHIKAWA KEN","city":"KASHIMA GUN NAKANOTO MACHI","town":"SHIMOSHIROYAMA","perfecture_jp":"石川県","jp_add_1":"鹿島郡中能登町","jp_add_2":"下後山"},"9291712":{"post_code":"9291712","prefecture":"ISHIKAWA KEN","city":"KASHIMA GUN NAKANOTO MACHI","town":"SHINJO","perfecture_jp":"石川県","jp_add_1":"鹿島郡中能登町","jp_add_2":"新庄"},"9291704":{"post_code":"9291704","prefecture":"ISHIKAWA KEN","city":"KASHIMA GUN NAKANOTO MACHI","town":"SUEZAKA","perfecture_jp":"石川県","jp_add_1":"鹿島郡中能登町","jp_add_2":"末坂"},"9291812":{"post_code":"9291812","prefecture":"ISHIKAWA KEN","city":"KASHIMA GUN NAKANOTO MACHI","town":"SEKIDOSAN","perfecture_jp":"石川県","jp_add_1":"鹿島郡中能登町","jp_add_2":"石動山"},"9291706":{"post_code":"9291706","prefecture":"ISHIKAWA KEN","city":"KASHIMA GUN NAKANOTO MACHI","town":"SETO","perfecture_jp":"石川県","jp_add_1":"鹿島郡中能登町","jp_add_2":"瀬戸"},"9291815":{"post_code":"9291815","prefecture":"ISHIKAWA KEN","city":"KASHIMA GUN NAKANOTO MACHI","town":"SERIKAWA","perfecture_jp":"石川県","jp_add_1":"鹿島郡中能登町","jp_add_2":"芹川"},"9291637":{"post_code":"9291637","prefecture":"ISHIKAWA KEN","city":"KASHIMA GUN NAKANOTO MACHI","town":"SONE","perfecture_jp":"石川県","jp_add_1":"鹿島郡中能登町","jp_add_2":"曽祢"},"9291635":{"post_code":"9291635","prefecture":"ISHIKAWA KEN","city":"KASHIMA GUN NAKANOTO MACHI","town":"TAKABATAKE","perfecture_jp":"石川県","jp_add_1":"鹿島郡中能登町","jp_add_2":"高畠"},"9291802":{"post_code":"9291802","prefecture":"ISHIKAWA KEN","city":"KASHIMA GUN NAKANOTO MACHI","town":"TAKEBE","perfecture_jp":"石川県","jp_add_1":"鹿島郡中能登町","jp_add_2":"武部"},"9291805":{"post_code":"9291805","prefecture":"ISHIKAWA KEN","city":"KASHIMA GUN NAKANOTO MACHI","town":"TSUBOKAWA","perfecture_jp":"石川県","jp_add_1":"鹿島郡中能登町","jp_add_2":"坪川"},"9291817":{"post_code":"9291817","prefecture":"ISHIKAWA KEN","city":"KASHIMA GUN NAKANOTO MACHI","town":"TOKUZEN","perfecture_jp":"石川県","jp_add_1":"鹿島郡中能登町","jp_add_2":"徳前"},"9291603":{"post_code":"9291603","prefecture":"ISHIKAWA KEN","city":"KASHIMA GUN NAKANOTO MACHI","town":"TOKUMARU","perfecture_jp":"石川県","jp_add_1":"鹿島郡中能登町","jp_add_2":"徳丸"},"9291803":{"post_code":"9291803","prefecture":"ISHIKAWA KEN","city":"KASHIMA GUN NAKANOTO MACHI","town":"NISHI","perfecture_jp":"石川県","jp_add_1":"鹿島郡中能登町","jp_add_2":"西"},"9291601":{"post_code":"9291601","prefecture":"ISHIKAWA KEN","city":"KASHIMA GUN NAKANOTO MACHI","town":"NISHIBABA","perfecture_jp":"石川県","jp_add_1":"鹿島郡中能登町","jp_add_2":"西馬場"},"9291811":{"post_code":"9291811","prefecture":"ISHIKAWA KEN","city":"KASHIMA GUN NAKANOTO MACHI","town":"NINOMIYA","perfecture_jp":"石川県","jp_add_1":"鹿島郡中能登町","jp_add_2":"二宮"},"9291818":{"post_code":"9291818","prefecture":"ISHIKAWA KEN","city":"KASHIMA GUN NAKANOTO MACHI","town":"NINOMIYAAOBADAI","perfecture_jp":"石川県","jp_add_1":"鹿島郡中能登町","jp_add_2":"二宮あおば台"},"9291602":{"post_code":"9291602","prefecture":"ISHIKAWA KEN","city":"KASHIMA GUN NAKANOTO MACHI","town":"NOTOBEKAMI","perfecture_jp":"石川県","jp_add_1":"鹿島郡中能登町","jp_add_2":"能登部上"},"9291604":{"post_code":"9291604","prefecture":"ISHIKAWA KEN","city":"KASHIMA GUN NAKANOTO MACHI","town":"NOTOBESHIMO","perfecture_jp":"石川県","jp_add_1":"鹿島郡中能登町","jp_add_2":"能登部下"},"9291714":{"post_code":"9291714","prefecture":"ISHIKAWA KEN","city":"KASHIMA GUN NAKANOTO MACHI","town":"HAZAKA","perfecture_jp":"石川県","jp_add_1":"鹿島郡中能登町","jp_add_2":"羽坂"},"9291705":{"post_code":"9291705","prefecture":"ISHIKAWA KEN","city":"KASHIMA GUN NAKANOTO MACHI","town":"HANAMITSUKI","perfecture_jp":"石川県","jp_add_1":"鹿島郡中能登町","jp_add_2":"花見月"},"9291814":{"post_code":"9291814","prefecture":"ISHIKAWA KEN","city":"KASHIMA GUN NAKANOTO MACHI","town":"HARAYAMA","perfecture_jp":"石川県","jp_add_1":"鹿島郡中能登町","jp_add_2":"原山"},"9291703":{"post_code":"9291703","prefecture":"ISHIKAWA KEN","city":"KASHIMA GUN NAKANOTO MACHI","town":"HARUKI","perfecture_jp":"石川県","jp_add_1":"鹿島郡中能登町","jp_add_2":"春木"},"9291725":{"post_code":"9291725","prefecture":"ISHIKAWA KEN","city":"KASHIMA GUN NAKANOTO MACHI","town":"HIGASHIBABA","perfecture_jp":"石川県","jp_add_1":"鹿島郡中能登町","jp_add_2":"東馬場"},"9291711":{"post_code":"9291711","prefecture":"ISHIKAWA KEN","city":"KASHIMA GUN NAKANOTO MACHI","town":"HIZUME","perfecture_jp":"石川県","jp_add_1":"鹿島郡中能登町","jp_add_2":"廿九日"},"9291715":{"post_code":"9291715","prefecture":"ISHIKAWA KEN","city":"KASHIMA GUN NAKANOTO MACHI","town":"HITOTO","perfecture_jp":"石川県","jp_add_1":"鹿島郡中能登町","jp_add_2":"一青"},"9291634":{"post_code":"9291634","prefecture":"ISHIKAWA KEN","city":"KASHIMA GUN NAKANOTO MACHI","town":"FUKUDA","perfecture_jp":"石川県","jp_add_1":"鹿島郡中能登町","jp_add_2":"福田"},"9291633":{"post_code":"9291633","prefecture":"ISHIKAWA KEN","city":"KASHIMA GUN NAKANOTO MACHI","town":"FUJII","perfecture_jp":"石川県","jp_add_1":"鹿島郡中能登町","jp_add_2":"藤井"},"9291723":{"post_code":"9291723","prefecture":"ISHIKAWA KEN","city":"KASHIMA GUN NAKANOTO MACHI","town":"MIJIRO","perfecture_jp":"石川県","jp_add_1":"鹿島郡中能登町","jp_add_2":"水白"},"9291717":{"post_code":"9291717","prefecture":"ISHIKAWA KEN","city":"KASHIMA GUN NAKANOTO MACHI","town":"YOSHIKAWA","perfecture_jp":"石川県","jp_add_1":"鹿島郡中能登町","jp_add_2":"良川"}}