{"9300075":{"post_code":"9300075","prefecture":"TOYAMA KEN","city":"TOYAMA SHI","town":"AIOICHO","perfecture_jp":"富山県","jp_add_1":"富山市","jp_add_2":"相生町"},"9300845":{"post_code":"9300845","prefecture":"TOYAMA KEN","city":"TOYAMA SHI","town":"AIDEMMACHI","perfecture_jp":"富山県","jp_add_1":"富山市","jp_add_2":"綾田町"},"9300855":{"post_code":"9300855","prefecture":"TOYAMA KEN","city":"TOYAMA SHI","town":"AKAEMACHI","perfecture_jp":"富山県","jp_add_1":"富山市","jp_add_2":"赤江町"},"9300953":{"post_code":"9300953","prefecture":"TOYAMA KEN","city":"TOYAMA SHI","town":"AKIYOSHI","perfecture_jp":"富山県","jp_add_1":"富山市","jp_add_2":"秋吉"},"9300954":{"post_code":"9300954","prefecture":"TOYAMA KEN","city":"TOYAMA SHI","town":"AKIYOSHISHIMMACHI","perfecture_jp":"富山県","jp_add_1":"富山市","jp_add_2":"秋吉新町"},"9300847":{"post_code":"9300847","prefecture":"TOYAMA KEN","city":"TOYAMA SHI","town":"AKEBONOCHO","perfecture_jp":"富山県","jp_add_1":"富山市","jp_add_2":"曙町"},"9300931":{"post_code":"9300931","prefecture":"TOYAMA KEN","city":"TOYAMA SHI","town":"ASAHI","perfecture_jp":"富山県","jp_add_1":"富山市","jp_add_2":"朝日"},"9300094":{"post_code":"9300094","prefecture":"TOYAMA KEN","city":"TOYAMA SHI","town":"AZUMICHO","perfecture_jp":"富山県","jp_add_1":"富山市","jp_add_2":"安住町"},"9300091":{"post_code":"9300091","prefecture":"TOYAMA KEN","city":"TOYAMA SHI","town":"ATAGOMACHI","perfecture_jp":"富山県","jp_add_1":"富山市","jp_add_2":"愛宕町"},"9300982":{"post_code":"9300982","prefecture":"TOYAMA KEN","city":"TOYAMA SHI","town":"ARAKAWA","perfecture_jp":"富山県","jp_add_1":"富山市","jp_add_2":"荒川"},"9300984":{"post_code":"9300984","prefecture":"TOYAMA KEN","city":"TOYAMA SHI","town":"ARAKAWASHIMMACHI","perfecture_jp":"富山県","jp_add_1":"富山市","jp_add_2":"荒川新町"},"9300983":{"post_code":"9300983","prefecture":"TOYAMA KEN","city":"TOYAMA SHI","town":"TOKIWADAI","perfecture_jp":"富山県","jp_add_1":"富山市","jp_add_2":"荒川常盤台"},"9300028":{"post_code":"9300028","prefecture":"TOYAMA KEN","city":"TOYAMA SHI","town":"ARAMACHI","perfecture_jp":"富山県","jp_add_1":"富山市","jp_add_2":"荒町"},"9301321":{"post_code":"9301321","prefecture":"TOYAMA KEN","city":"TOYAMA SHI","town":"OYAMAUWANO","perfecture_jp":"富山県","jp_add_1":"富山市","jp_add_2":"新町"},"9300822":{"post_code":"9300822","prefecture":"TOYAMA KEN","city":"TOYAMA SHI","town":"ARAYA","perfecture_jp":"富山県","jp_add_1":"富山市","jp_add_2":"新屋"},"9300823":{"post_code":"9300823","prefecture":"TOYAMA KEN","city":"TOYAMA SHI","town":"ARAYASHIMMACHI","perfecture_jp":"富山県","jp_add_1":"富山市","jp_add_2":"新屋新町"},"9300863":{"post_code":"9300863","prefecture":"TOYAMA KEN","city":"TOYAMA SHI","town":"ARIAKECHO","perfecture_jp":"富山県","jp_add_1":"富山市","jp_add_2":"有明町"},"9300862":{"post_code":"9300862","prefecture":"TOYAMA KEN","city":"TOYAMA SHI","town":"ARISAWA","perfecture_jp":"富山県","jp_add_1":"富山市","jp_add_2":"有沢"},"9300861":{"post_code":"9300861","prefecture":"TOYAMA KEN","city":"TOYAMA SHI","town":"ARISAWASHIMMACHI","perfecture_jp":"富山県","jp_add_1":"富山市","jp_add_2":"有沢新町"},"9301458":{"post_code":"9301458","prefecture":"TOYAMA KEN","city":"TOYAMA SHI","town":"ARIMINE","perfecture_jp":"富山県","jp_add_1":"富山市","jp_add_2":"有峰"},"9301457":{"post_code":"9301457","prefecture":"TOYAMA KEN","city":"TOYAMA SHI","town":"ARIMINE(TARODAIRA)","perfecture_jp":"富山県","jp_add_1":"富山市","jp_add_2":"有峰"},"9300881":{"post_code":"9300881","prefecture":"TOYAMA KEN","city":"TOYAMA SHI","town":"ANYOBO","perfecture_jp":"富山県","jp_add_1":"富山市","jp_add_2":"安養坊"},"9300821":{"post_code":"9300821","prefecture":"TOYAMA KEN","city":"TOYAMA SHI","town":"IINO","perfecture_jp":"富山県","jp_add_1":"富山市","jp_add_2":"飯野"},"9300158":{"post_code":"9300158","prefecture":"TOYAMA KEN","city":"TOYAMA SHI","town":"IKEDA","perfecture_jp":"富山県","jp_add_1":"富山市","jp_add_2":"池多"},"9300966":{"post_code":"9300966","prefecture":"TOYAMA KEN","city":"TOYAMA SHI","town":"ISHIGANE","perfecture_jp":"富山県","jp_add_1":"富山市","jp_add_2":"石金"},"9300043":{"post_code":"9300043","prefecture":"TOYAMA KEN","city":"TOYAMA SHI","town":"ISHIKURAMACHI","perfecture_jp":"富山県","jp_add_1":"富山市","jp_add_2":"石倉町"},"9300892":{"post_code":"9300892","prefecture":"TOYAMA KEN","city":"TOYAMA SHI","town":"ISHISAKA","perfecture_jp":"富山県","jp_add_1":"富山市","jp_add_2":"石坂"},"9300891":{"post_code":"9300891","prefecture":"TOYAMA KEN","city":"TOYAMA SHI","town":"ISHISAKASHIN","perfecture_jp":"富山県","jp_add_1":"富山市","jp_add_2":"石坂新"},"9300893":{"post_code":"9300893","prefecture":"TOYAMA KEN","city":"TOYAMA SHI","town":"ISHISAKAHIGASHIMACHI","perfecture_jp":"富山県","jp_add_1":"富山市","jp_add_2":"石坂東町"},"9301271":{"post_code":"9301271","prefecture":"TOYAMA KEN","city":"TOYAMA SHI","town":"ISHIBUCHI","perfecture_jp":"富山県","jp_add_1":"富山市","jp_add_2":"石渕"},"9300042":{"post_code":"9300042","prefecture":"TOYAMA KEN","city":"TOYAMA SHI","town":"IZUMICHO","perfecture_jp":"富山県","jp_add_1":"富山市","jp_add_2":"泉町"},"9300077":{"post_code":"9300077","prefecture":"TOYAMA KEN","city":"TOYAMA SHI","town":"ISOBEMACHI","perfecture_jp":"富山県","jp_add_1":"富山市","jp_add_2":"磯部町"},"9300061":{"post_code":"9300061","prefecture":"TOYAMA KEN","city":"TOYAMA SHI","town":"ICHIBAMMACHI","perfecture_jp":"富山県","jp_add_1":"富山市","jp_add_2":"一番町"},"9300904":{"post_code":"9300904","prefecture":"TOYAMA KEN","city":"TOYAMA SHI","town":"IPPONGI","perfecture_jp":"富山県","jp_add_1":"富山市","jp_add_2":"一本木"},"9300849":{"post_code":"9300849","prefecture":"TOYAMA KEN","city":"TOYAMA SHI","town":"INARISONOMACHI","perfecture_jp":"富山県","jp_add_1":"富山市","jp_add_2":"稲荷園町"},"9300012":{"post_code":"9300012","prefecture":"TOYAMA KEN","city":"TOYAMA SHI","town":"INARIMACHI","perfecture_jp":"富山県","jp_add_1":"富山市","jp_add_2":"稲荷町"},"9300010":{"post_code":"9300010","prefecture":"TOYAMA KEN","city":"TOYAMA SHI","town":"INARIMOTOMACHI","perfecture_jp":"富山県","jp_add_1":"富山市","jp_add_2":"稲荷元町"},"9302221":{"post_code":"9302221","prefecture":"TOYAMA KEN","city":"TOYAMA SHI","town":"IMAICHI","perfecture_jp":"富山県","jp_add_1":"富山市","jp_add_2":"今市"},"9300021":{"post_code":"9300021","prefecture":"TOYAMA KEN","city":"TOYAMA SHI","town":"IMAGIMACHI","perfecture_jp":"富山県","jp_add_1":"富山市","jp_add_2":"今木町"},"9300856":{"post_code":"9300856","prefecture":"TOYAMA KEN","city":"TOYAMA SHI","town":"USHIJIMASHIMMACHI","perfecture_jp":"富山県","jp_add_1":"富山市","jp_add_2":"牛島新町"},"9300858":{"post_code":"9300858","prefecture":"TOYAMA KEN","city":"TOYAMA SHI","town":"USHIJIMACHO","perfecture_jp":"富山県","jp_add_1":"富山市","jp_add_2":"牛島町"},"9300859":{"post_code":"9300859","prefecture":"TOYAMA KEN","city":"TOYAMA SHI","town":"USHIJIMAHOMMACHI","perfecture_jp":"富山県","jp_add_1":"富山市","jp_add_2":"牛島本町"},"9302237":{"post_code":"9302237","prefecture":"TOYAMA KEN","city":"TOYAMA SHI","town":"UCHIIDE","perfecture_jp":"富山県","jp_add_1":"富山市","jp_add_2":"打出"},"9302238":{"post_code":"9302238","prefecture":"TOYAMA KEN","city":"TOYAMA SHI","town":"UCHIIDESHIN","perfecture_jp":"富山県","jp_add_1":"富山市","jp_add_2":"打出新"},"9300093":{"post_code":"9300093","prefecture":"TOYAMA KEN","city":"TOYAMA SHI","town":"UCHISAIWAICHO","perfecture_jp":"富山県","jp_add_1":"富山市","jp_add_2":"内幸町"},"9301284":{"post_code":"9301284","prefecture":"TOYAMA KEN","city":"TOYAMA SHI","town":"UMANOSE","perfecture_jp":"富山県","jp_add_1":"富山市","jp_add_2":"馬瀬"},"9300055":{"post_code":"9300055","prefecture":"TOYAMA KEN","city":"TOYAMA SHI","town":"UMEZAWACHO","perfecture_jp":"富山県","jp_add_1":"富山市","jp_add_2":"梅沢町"},"9300853":{"post_code":"9300853","prefecture":"TOYAMA KEN","city":"TOYAMA SHI","town":"EIRAKUCHO","perfecture_jp":"富山県","jp_add_1":"富山市","jp_add_2":"永楽町"},"9300067":{"post_code":"9300067","prefecture":"TOYAMA KEN","city":"TOYAMA SHI","town":"ECHIZEMMACHI","perfecture_jp":"富山県","jp_add_1":"富山市","jp_add_2":"越前町"},"9300914":{"post_code":"9300914","prefecture":"TOYAMA KEN","city":"TOYAMA SHI","town":"EBARA","perfecture_jp":"富山県","jp_add_1":"富山市","jp_add_2":"荏原"},"9300915":{"post_code":"9300915","prefecture":"TOYAMA KEN","city":"TOYAMA SHI","town":"EBARAEKIMAEDORI","perfecture_jp":"富山県","jp_add_1":"富山市","jp_add_2":"荏原駅前通り"},"9300913":{"post_code":"9300913","prefecture":"TOYAMA KEN","city":"TOYAMA SHI","town":"EBARASHIMMACHI","perfecture_jp":"富山県","jp_add_1":"富山市","jp_add_2":"荏原新町"},"9300027":{"post_code":"9300027","prefecture":"TOYAMA KEN","city":"TOYAMA SHI","town":"EBICHO","perfecture_jp":"富山県","jp_add_1":"富山市","jp_add_2":"蛯町"},"9300116":{"post_code":"9300116","prefecture":"TOYAMA KEN","city":"TOYAMA SHI","town":"OIWAKECHAYA","perfecture_jp":"富山県","jp_add_1":"富山市","jp_add_2":"追分茶屋"},"9300922":{"post_code":"9300922","prefecture":"TOYAMA KEN","city":"TOYAMA SHI","town":"OEBOSHI","perfecture_jp":"富山県","jp_add_1":"富山市","jp_add_2":"大江干"},"9300927":{"post_code":"9300927","prefecture":"TOYAMA KEN","city":"TOYAMA SHI","town":"OEBOSHI SHIMMACHI","perfecture_jp":"富山県","jp_add_1":"富山市","jp_add_2":"大江干新町"},"9301327":{"post_code":"9301327","prefecture":"TOYAMA KEN","city":"TOYAMA SHI","town":"OGURI","perfecture_jp":"富山県","jp_add_1":"富山市","jp_add_2":"大栗"},"9301275":{"post_code":"9301275","prefecture":"TOYAMA KEN","city":"TOYAMA SHI","town":"OSHIMIZU","perfecture_jp":"富山県","jp_add_1":"富山市","jp_add_2":"大清水"},"9301274":{"post_code":"9301274","prefecture":"TOYAMA KEN","city":"TOYAMA SHI","town":"OZOREI","perfecture_jp":"富山県","jp_add_1":"富山市","jp_add_2":"大双嶺"},"9300063":{"post_code":"9300063","prefecture":"TOYAMA KEN","city":"TOYAMA SHI","town":"OTAGUCHIDORI","perfecture_jp":"富山県","jp_add_1":"富山市","jp_add_2":"太田口通り"},"9300015":{"post_code":"9300015","prefecture":"TOYAMA KEN","city":"TOYAMA SHI","town":"OTAMACHI","perfecture_jp":"富山県","jp_add_1":"富山市","jp_add_2":"於保多町"},"9300107":{"post_code":"9300107","prefecture":"TOYAMA KEN","city":"TOYAMA SHI","town":"OTSUKAKITA","perfecture_jp":"富山県","jp_add_1":"富山市","jp_add_2":"大塚"},"9300084":{"post_code":"9300084","prefecture":"TOYAMA KEN","city":"TOYAMA SHI","town":"OTEMACHI","perfecture_jp":"富山県","jp_add_1":"富山市","jp_add_2":"大手町"},"9301311":{"post_code":"9301311","prefecture":"TOYAMA KEN","city":"TOYAMA SHI","town":"OYAMAKITASHIMMACHI","perfecture_jp":"富山県","jp_add_1":"富山市","jp_add_2":"大山北新町"},"9301264":{"post_code":"9301264","prefecture":"TOYAMA KEN","city":"TOYAMA SHI","town":"OYAMANUNOME","perfecture_jp":"富山県","jp_add_1":"富山市","jp_add_2":"大山布目"},"9301466":{"post_code":"9301466","prefecture":"TOYAMA KEN","city":"TOYAMA SHI","town":"OYAMAMATSUNOKI","perfecture_jp":"富山県","jp_add_1":"富山市","jp_add_2":"大山松木"},"9301322":{"post_code":"9301322","prefecture":"TOYAMA KEN","city":"TOYAMA SHI","town":"OKADA","perfecture_jp":"富山県","jp_add_1":"富山市","jp_add_2":"岡田"},"9300846":{"post_code":"9300846","prefecture":"TOYAMA KEN","city":"TOYAMA SHI","town":"OKUIMACHI","perfecture_jp":"富山県","jp_add_1":"富山市","jp_add_2":"奥井町"},"9300852":{"post_code":"9300852","prefecture":"TOYAMA KEN","city":"TOYAMA SHI","town":"OKUDAKOTOBUKICHO","perfecture_jp":"富山県","jp_add_1":"富山市","jp_add_2":"奥田寿町"},"9300857":{"post_code":"9300857","prefecture":"TOYAMA KEN","city":"TOYAMA SHI","town":"OKUDASHIMMACHI","perfecture_jp":"富山県","jp_add_1":"富山市","jp_add_2":"奥田新町"},"9300851":{"post_code":"9300851","prefecture":"TOYAMA KEN","city":"TOYAMA SHI","town":"OKUDAFUTABACHO","perfecture_jp":"富山県","jp_add_1":"富山市","jp_add_2":"奥田双葉町"},"9300819":{"post_code":"9300819","prefecture":"TOYAMA KEN","city":"TOYAMA SHI","town":"OKUDAHOMMACHI","perfecture_jp":"富山県","jp_add_1":"富山市","jp_add_2":"奥田本町"},"9300818":{"post_code":"9300818","prefecture":"TOYAMA KEN","city":"TOYAMA SHI","town":"OKUDAMACHI","perfecture_jp":"富山県","jp_add_1":"富山市","jp_add_2":"奥田町"},"9301286":{"post_code":"9301286","prefecture":"TOYAMA KEN","city":"TOYAMA SHI","town":"OZANAMI","perfecture_jp":"富山県","jp_add_1":"富山市","jp_add_2":"小佐波"},"9301265":{"post_code":"9301265","prefecture":"TOYAMA KEN","city":"TOYAMA SHI","town":"OTANI","perfecture_jp":"富山県","jp_add_1":"富山市","jp_add_2":"小谷"},"9300037":{"post_code":"9300037","prefecture":"TOYAMA KEN","city":"TOYAMA SHI","town":"OTOWACHO","perfecture_jp":"富山県","jp_add_1":"富山市","jp_add_2":"音羽町"},"9301328":{"post_code":"9301328","prefecture":"TOYAMA KEN","city":"TOYAMA SHI","town":"OHARAYA","perfecture_jp":"富山県","jp_add_1":"富山市","jp_add_2":"小原屋"},"9301456":{"post_code":"9301456","prefecture":"TOYAMA KEN","city":"TOYAMA SHI","town":"OMI","perfecture_jp":"富山県","jp_add_1":"富山市","jp_add_2":"小見"},"9301276":{"post_code":"9301276","prefecture":"TOYAMA KEN","city":"TOYAMA SHI","town":"ORITANI","perfecture_jp":"富山県","jp_add_1":"富山市","jp_add_2":"折谷"},"9300086":{"post_code":"9300086","prefecture":"TOYAMA KEN","city":"TOYAMA SHI","town":"KASHIMACHO","perfecture_jp":"富山県","jp_add_1":"富山市","jp_add_2":"鹿島町"},"9300926":{"post_code":"9300926","prefecture":"TOYAMA KEN","city":"TOYAMA SHI","town":"KANADAI","perfecture_jp":"富山県","jp_add_1":"富山市","jp_add_2":"金代"},"9300873":{"post_code":"9300873","prefecture":"TOYAMA KEN","city":"TOYAMA SHI","town":"KANAYA","perfecture_jp":"富山県","jp_add_1":"富山市","jp_add_2":"金屋"},"9302206":{"post_code":"9302206","prefecture":"TOYAMA KEN","city":"TOYAMA SHI","town":"KANAYAMASHIN KITA","perfecture_jp":"富山県","jp_add_1":"富山市","jp_add_2":"金山新"},"9302204":{"post_code":"9302204","prefecture":"TOYAMA KEN","city":"TOYAMA SHI","town":"KANAYAMASHINSAKURAGAOKA","perfecture_jp":"富山県","jp_add_1":"富山市","jp_add_2":"金山新桜ケ丘"},"9302205":{"post_code":"9302205","prefecture":"TOYAMA KEN","city":"TOYAMA SHI","town":"KANAYAMASHIN HIGASHI","perfecture_jp":"富山県","jp_add_1":"富山市","jp_add_2":"金山新東"},"9300837":{"post_code":"9300837","prefecture":"TOYAMA KEN","city":"TOYAMA SHI","town":"KAMIAKAE","perfecture_jp":"富山県","jp_add_1":"富山市","jp_add_2":"上赤江"},"9300816":{"post_code":"9300816","prefecture":"TOYAMA KEN","city":"TOYAMA SHI","town":"KAMIAKAEMACHI","perfecture_jp":"富山県","jp_add_1":"富山市","jp_add_2":"上赤江町"},"9300827":{"post_code":"9300827","prefecture":"TOYAMA KEN","city":"TOYAMA SHI","town":"KAMIIINO","perfecture_jp":"富山県","jp_add_1":"富山市","jp_add_2":"上飯野"},"9300825":{"post_code":"9300825","prefecture":"TOYAMA KEN","city":"TOYAMA SHI","town":"KAMIIINOSHIMMACHI","perfecture_jp":"富山県","jp_add_1":"富山市","jp_add_2":"上飯野新町"},"9301333":{"post_code":"9301333","prefecture":"TOYAMA KEN","city":"TOYAMA SHI","town":"KAMIOURA","perfecture_jp":"富山県","jp_add_1":"富山市","jp_add_2":"上大浦"},"9300826":{"post_code":"9300826","prefecture":"TOYAMA KEN","city":"TOYAMA SHI","town":"KAMISHOMACHI","perfecture_jp":"富山県","jp_add_1":"富山市","jp_add_2":"上庄町"},"9301312":{"post_code":"9301312","prefecture":"TOYAMA KEN","city":"TOYAMA SHI","town":"KAMIDAKI","perfecture_jp":"富山県","jp_add_1":"富山市","jp_add_2":"上滝"},"9300835":{"post_code":"9300835","prefecture":"TOYAMA KEN","city":"TOYAMA SHI","town":"KAMIFUGO","perfecture_jp":"富山県","jp_add_1":"富山市","jp_add_2":"上冨居"},"9300836":{"post_code":"9300836","prefecture":"TOYAMA KEN","city":"TOYAMA SHI","town":"KAMIFUGOSHIMMACHI","perfecture_jp":"富山県","jp_add_1":"富山市","jp_add_2":"上冨居新町"},"9300057":{"post_code":"9300057","prefecture":"TOYAMA KEN","city":"TOYAMA SHI","town":"KAMIHOMMACHI","perfecture_jp":"富山県","jp_add_1":"富山市","jp_add_2":"上本町"},"9301459":{"post_code":"9301459","prefecture":"TOYAMA KEN","city":"TOYAMA SHI","town":"KAMEGAI","perfecture_jp":"富山県","jp_add_1":"富山市","jp_add_2":"亀谷"},"9300175":{"post_code":"9300175","prefecture":"TOYAMA KEN","city":"TOYAMA SHI","town":"GANKAIJI","perfecture_jp":"富山県","jp_add_1":"富山市","jp_add_2":"願海寺"},"9300176":{"post_code":"9300176","prefecture":"TOYAMA KEN","city":"TOYAMA SHI","town":"GANKAIJISHIMMACHI","perfecture_jp":"富山県","jp_add_1":"富山市","jp_add_2":"願海寺新町"},"9300164":{"post_code":"9300164","prefecture":"TOYAMA KEN","city":"TOYAMA SHI","town":"KITAOSHIKAWA","perfecture_jp":"富山県","jp_add_1":"富山市","jp_add_2":"北押川"},"9300023":{"post_code":"9300023","prefecture":"TOYAMA KEN","city":"TOYAMA SHI","town":"KITASHIMMACHI","perfecture_jp":"富山県","jp_add_1":"富山市","jp_add_2":"北新町"},"9300103":{"post_code":"9300103","prefecture":"TOYAMA KEN","city":"TOYAMA SHI","town":"KITADAIHOKUBU","perfecture_jp":"富山県","jp_add_1":"富山市","jp_add_2":"北代"},"9300104":{"post_code":"9300104","prefecture":"TOYAMA KEN","city":"TOYAMA SHI","town":"KITADAISHIN","perfecture_jp":"富山県","jp_add_1":"富山市","jp_add_2":"北代新"},"9300105":{"post_code":"9300105","prefecture":"TOYAMA KEN","city":"TOYAMA SHI","town":"KITADAIFUJIGAOKA","perfecture_jp":"富山県","jp_add_1":"富山市","jp_add_2":"北代藤ケ丘"},"9300172":{"post_code":"9300172","prefecture":"TOYAMA KEN","city":"TOYAMA SHI","town":"KITAFUTATSUYA","perfecture_jp":"富山県","jp_add_1":"富山市","jp_add_2":"北二ツ屋"},"9300806":{"post_code":"9300806","prefecture":"TOYAMA KEN","city":"TOYAMA SHI","town":"KIBAMACHI","perfecture_jp":"富山県","jp_add_1":"富山市","jp_add_2":"木場町"},"9300951":{"post_code":"9300951","prefecture":"TOYAMA KEN","city":"TOYAMA SHI","town":"KYODO","perfecture_jp":"富山県","jp_add_1":"富山市","jp_add_2":"経堂"},"9300956":{"post_code":"9300956","prefecture":"TOYAMA KEN","city":"TOYAMA SHI","town":"KYODOSHIMMACHI","perfecture_jp":"富山県","jp_add_1":"富山市","jp_add_2":"経堂新町"},"9300906":{"post_code":"9300906","prefecture":"TOYAMA KEN","city":"TOYAMA SHI","town":"KINSENJI","perfecture_jp":"富山県","jp_add_1":"富山市","jp_add_2":"金泉寺"},"9300865":{"post_code":"9300865","prefecture":"TOYAMA KEN","city":"TOYAMA SHI","town":"KUGO","perfecture_jp":"富山県","jp_add_1":"富山市","jp_add_2":"久郷"},"9302201":{"post_code":"9302201","prefecture":"TOYAMA KEN","city":"TOYAMA SHI","town":"KUSAJIMA","perfecture_jp":"富山県","jp_add_1":"富山市","jp_add_2":"草島"},"9302207":{"post_code":"9302207","prefecture":"TOYAMA KEN","city":"TOYAMA SHI","town":"KUSAJIMASHIMMACHI","perfecture_jp":"富山県","jp_add_1":"富山市","jp_add_2":"草島新町"},"9300842":{"post_code":"9300842","prefecture":"TOYAMA KEN","city":"TOYAMA SHI","town":"KUBOSHIMMACHI","perfecture_jp":"富山県","jp_add_1":"富山市","jp_add_2":"窪新町"},"9300843":{"post_code":"9300843","prefecture":"TOYAMA KEN","city":"TOYAMA SHI","town":"KUBOMOTOMACHI","perfecture_jp":"富山県","jp_add_1":"富山市","jp_add_2":"窪本町"},"9301268":{"post_code":"9301268","prefecture":"TOYAMA KEN","city":"TOYAMA SHI","town":"KURUMIGAHARA","perfecture_jp":"富山県","jp_add_1":"富山市","jp_add_2":"楜ケ原"},"9300121":{"post_code":"9300121","prefecture":"TOYAMA KEN","city":"TOYAMA SHI","town":"KUREHAEN","perfecture_jp":"富山県","jp_add_1":"富山市","jp_add_2":"呉羽苑"},"9300133":{"post_code":"9300133","prefecture":"TOYAMA KEN","city":"TOYAMA SHI","town":"KUREHAKAWANISHI","perfecture_jp":"富山県","jp_add_1":"富山市","jp_add_2":"呉羽川西"},"9300134":{"post_code":"9300134","prefecture":"TOYAMA KEN","city":"TOYAMA SHI","town":"KUREHAKIFUNEMAKI","perfecture_jp":"富山県","jp_add_1":"富山市","jp_add_2":"呉羽貴船巻"},"9300131":{"post_code":"9300131","prefecture":"TOYAMA KEN","city":"TOYAMA SHI","town":"KUREHASHOWAMACHI","perfecture_jp":"富山県","jp_add_1":"富山市","jp_add_2":"呉羽昭和町"},"9300122":{"post_code":"9300122","prefecture":"TOYAMA KEN","city":"TOYAMA SHI","town":"KUREHASHINTOMITAMACHI","perfecture_jp":"富山県","jp_add_1":"富山市","jp_add_2":"呉羽新富田町"},"9300125":{"post_code":"9300125","prefecture":"TOYAMA KEN","city":"TOYAMA SHI","town":"KUREHATSUTSUJIGAOKA","perfecture_jp":"富山県","jp_add_1":"富山市","jp_add_2":"呉羽つつじが丘"},"9300123":{"post_code":"9300123","prefecture":"TOYAMA KEN","city":"TOYAMA SHI","town":"KUREHATOMITAMACHI","perfecture_jp":"富山県","jp_add_1":"富山市","jp_add_2":"呉羽富田町"},"9300135":{"post_code":"9300135","prefecture":"TOYAMA KEN","city":"TOYAMA SHI","town":"KUREHANAKANOCHO","perfecture_jp":"富山県","jp_add_1":"富山市","jp_add_2":"呉羽中の町"},"9300102":{"post_code":"9300102","prefecture":"TOYAMA KEN","city":"TOYAMA SHI","town":"KUREHANODA","perfecture_jp":"富山県","jp_add_1":"富山市","jp_add_2":"呉羽野田"},"9300126":{"post_code":"9300126","prefecture":"TOYAMA KEN","city":"TOYAMA SHI","town":"KUREHAHIGASHIMACHI","perfecture_jp":"富山県","jp_add_1":"富山市","jp_add_2":"呉羽東町"},"9300132":{"post_code":"9300132","prefecture":"TOYAMA KEN","city":"TOYAMA SHI","town":"KUREHAHIMEMOTO","perfecture_jp":"富山県","jp_add_1":"富山市","jp_add_2":"呉羽姫本"},"9300137":{"post_code":"9300137","prefecture":"TOYAMA KEN","city":"TOYAMA SHI","town":"KUREHAHOMMACHI","perfecture_jp":"富山県","jp_add_1":"富山市","jp_add_2":"呉羽本町"},"9300138":{"post_code":"9300138","prefecture":"TOYAMA KEN","city":"TOYAMA SHI","town":"KUREHAMACHIKITA","perfecture_jp":"富山県","jp_add_1":"富山市","jp_add_2":"呉羽町"},"9300127":{"post_code":"9300127","prefecture":"TOYAMA KEN","city":"TOYAMA SHI","town":"KUREHAMARUTOMICHO","perfecture_jp":"富山県","jp_add_1":"富山市","jp_add_2":"呉羽丸富町"},"9300124":{"post_code":"9300124","prefecture":"TOYAMA KEN","city":"TOYAMA SHI","town":"KUREHAMIZUKAMICHO","perfecture_jp":"富山県","jp_add_1":"富山市","jp_add_2":"呉羽水上町"},"9300136":{"post_code":"9300136","prefecture":"TOYAMA KEN","city":"TOYAMA SHI","town":"KUREHAMITSUZUKA","perfecture_jp":"富山県","jp_add_1":"富山市","jp_add_2":"呉羽三ツ塚"},"9301336":{"post_code":"9301336","prefecture":"TOYAMA KEN","city":"TOYAMA SHI","town":"KUWAHARA","perfecture_jp":"富山県","jp_add_1":"富山市","jp_add_2":"桑原"},"9300809":{"post_code":"9300809","prefecture":"TOYAMA KEN","city":"TOYAMA SHI","town":"KOJIMMACHI","perfecture_jp":"富山県","jp_add_1":"富山市","jp_add_2":"興人町"},"9301273":{"post_code":"9301273","prefecture":"TOYAMA KEN","city":"TOYAMA SHI","town":"KOSAKA","perfecture_jp":"富山県","jp_add_1":"富山市","jp_add_2":"小坂"},"9300022":{"post_code":"9300022","prefecture":"TOYAMA KEN","city":"TOYAMA SHI","town":"KOJIMACHO","perfecture_jp":"富山県","jp_add_1":"富山市","jp_add_2":"小島町"},"9300882":{"post_code":"9300882","prefecture":"TOYAMA KEN","city":"TOYAMA SHI","town":"GOSO","perfecture_jp":"富山県","jp_add_1":"富山市","jp_add_2":"五艘"},"9300895":{"post_code":"9300895","prefecture":"TOYAMA KEN","city":"TOYAMA SHI","town":"KOMAMI","perfecture_jp":"富山県","jp_add_1":"富山市","jp_add_2":"駒見"},"9300052":{"post_code":"9300052","prefecture":"TOYAMA KEN","city":"TOYAMA SHI","town":"GOBAMMACHI","perfecture_jp":"富山県","jp_add_1":"富山市","jp_add_2":"五番町"},"9300887":{"post_code":"9300887","prefecture":"TOYAMA KEN","city":"TOYAMA SHI","town":"GOFUKU","perfecture_jp":"富山県","jp_add_1":"富山市","jp_add_2":"五福"},"9300883":{"post_code":"9300883","prefecture":"TOYAMA KEN","city":"TOYAMA SHI","town":"GOFUKUSHIMMACHI","perfecture_jp":"富山県","jp_add_1":"富山市","jp_add_2":"五福新町"},"9300884":{"post_code":"9300884","prefecture":"TOYAMA KEN","city":"TOYAMA SHI","town":"GOFUKUSUEHIROCHO","perfecture_jp":"富山県","jp_add_1":"富山市","jp_add_2":"五福末広町"},"9300905":{"post_code":"9300905","prefecture":"TOYAMA KEN","city":"TOYAMA SHI","town":"GOHONENOKI","perfecture_jp":"富山県","jp_add_1":"富山市","jp_add_2":"五本榎"},"9301464":{"post_code":"9301464","prefecture":"TOYAMA KEN","city":"TOYAMA SHI","town":"SAIKAKUCHI","perfecture_jp":"富山県","jp_add_1":"富山市","jp_add_2":"才覚地"},"9300153":{"post_code":"9300153","prefecture":"TOYAMA KEN","city":"TOYAMA SHI","town":"SAKAINOSHIN","perfecture_jp":"富山県","jp_add_1":"富山市","jp_add_2":"境野新"},"9300925":{"post_code":"9300925","prefecture":"TOYAMA KEN","city":"TOYAMA SHI","town":"SAKAESHIMMACHI","perfecture_jp":"富山県","jp_add_1":"富山市","jp_add_2":"栄新町"},"9300032":{"post_code":"9300032","prefecture":"TOYAMA KEN","city":"TOYAMA SHI","town":"SAKAEMACHI","perfecture_jp":"富山県","jp_add_1":"富山市","jp_add_2":"栄町"},"9300156":{"post_code":"9300156","prefecture":"TOYAMA KEN","city":"TOYAMA SHI","town":"YAMAMOTO","perfecture_jp":"富山県","jp_add_1":"富山市","jp_add_2":"坂下新"},"9300082":{"post_code":"9300082","prefecture":"TOYAMA KEN","city":"TOYAMA SHI","town":"SAKURAGICHO","perfecture_jp":"富山県","jp_add_1":"富山市","jp_add_2":"桜木町"},"9300898":{"post_code":"9300898","prefecture":"TOYAMA KEN","city":"TOYAMA SHI","town":"SAKURADANIMIDORICHO","perfecture_jp":"富山県","jp_add_1":"富山市","jp_add_2":"桜谷みどり町"},"9300004":{"post_code":"9300004","prefecture":"TOYAMA KEN","city":"TOYAMA SHI","town":"SAKURABASHIDORI","perfecture_jp":"富山県","jp_add_1":"富山市","jp_add_2":"桜橋通り"},"9300003":{"post_code":"9300003","prefecture":"TOYAMA KEN","city":"TOYAMA SHI","town":"SAKURAMACHI","perfecture_jp":"富山県","jp_add_1":"富山市","jp_add_2":"桜町"},"9300064":{"post_code":"9300064","prefecture":"TOYAMA KEN","city":"TOYAMA SHI","town":"SANNOMACHI","perfecture_jp":"富山県","jp_add_1":"富山市","jp_add_2":"山王町"},"9300155":{"post_code":"9300155","prefecture":"TOYAMA KEN","city":"TOYAMA SHI","town":"SANNOKUMA","perfecture_jp":"富山県","jp_add_1":"富山市","jp_add_2":"三熊"},"9300059":{"post_code":"9300059","prefecture":"TOYAMA KEN","city":"TOYAMA SHI","town":"SAMBAMMACHI","perfecture_jp":"富山県","jp_add_1":"富山市","jp_add_2":"三番町"},"9300089":{"post_code":"9300089","prefecture":"TOYAMA KEN","city":"TOYAMA SHI","town":"SHICHIKEMMACHI","perfecture_jp":"富山県","jp_add_1":"富山市","jp_add_2":"七軒町"},"9300097":{"post_code":"9300097","prefecture":"TOYAMA KEN","city":"TOYAMA SHI","town":"SHIBAZONOCHO","perfecture_jp":"富山県","jp_add_1":"富山市","jp_add_2":"芝園町"},"9300035":{"post_code":"9300035","prefecture":"TOYAMA KEN","city":"TOYAMA SHI","town":"SHIMIZUNAKAMACHI","perfecture_jp":"富山県","jp_add_1":"富山市","jp_add_2":"清水中町"},"9300036":{"post_code":"9300036","prefecture":"TOYAMA KEN","city":"TOYAMA SHI","town":"SHIMIZUMACHI","perfecture_jp":"富山県","jp_add_1":"富山市","jp_add_2":"清水町"},"9300034":{"post_code":"9300034","prefecture":"TOYAMA KEN","city":"TOYAMA SHI","town":"SHIMIZUMOTOMACHI","perfecture_jp":"富山県","jp_add_1":"富山市","jp_add_2":"清水元町"},"9300838":{"post_code":"9300838","prefecture":"TOYAMA KEN","city":"TOYAMA SHI","town":"SHIMOAKAE","perfecture_jp":"富山県","jp_add_1":"富山市","jp_add_2":"下赤江"},"9300813":{"post_code":"9300813","prefecture":"TOYAMA KEN","city":"TOYAMA SHI","town":"SHIMOAKAEMACHI","perfecture_jp":"富山県","jp_add_1":"富山市","jp_add_2":"下赤江町"},"9301335":{"post_code":"9301335","prefecture":"TOYAMA KEN","city":"TOYAMA SHI","town":"SHIMOORA","perfecture_jp":"富山県","jp_add_1":"富山市","jp_add_2":"下大浦"},"9300817":{"post_code":"9300817","prefecture":"TOYAMA KEN","city":"TOYAMA SHI","town":"SHIMOKUI","perfecture_jp":"富山県","jp_add_1":"富山市","jp_add_2":"下奥井"},"9300807":{"post_code":"9300807","prefecture":"TOYAMA KEN","city":"TOYAMA SHI","town":"SHIMOSHINNISHICHO","perfecture_jp":"富山県","jp_add_1":"富山市","jp_add_2":"下新西町"},"9300802":{"post_code":"9300802","prefecture":"TOYAMA KEN","city":"TOYAMA SHI","town":"SHIMOSHINKITAMACHI","perfecture_jp":"富山県","jp_add_1":"富山市","jp_add_2":"下新北町"},"9300808":{"post_code":"9300808","prefecture":"TOYAMA KEN","city":"TOYAMA SHI","town":"SHIMOSHINNISSOMACHI","perfecture_jp":"富山県","jp_add_1":"富山市","jp_add_2":"下新日曹町"},"9300803":{"post_code":"9300803","prefecture":"TOYAMA KEN","city":"TOYAMA SHI","town":"SHIMOSHINHOMMACHI","perfecture_jp":"富山県","jp_add_1":"富山市","jp_add_2":"下新本町"},"9300804":{"post_code":"9300804","prefecture":"TOYAMA KEN","city":"TOYAMA SHI","town":"SHIMOSHIMMACHI","perfecture_jp":"富山県","jp_add_1":"富山市","jp_add_2":"下新町"},"9301272":{"post_code":"9301272","prefecture":"TOYAMA KEN","city":"TOYAMA SHI","town":"SHIMOZOREI","perfecture_jp":"富山県","jp_add_1":"富山市","jp_add_2":"下双嶺"},"9300871":{"post_code":"9300871","prefecture":"TOYAMA KEN","city":"TOYAMA SHI","town":"SHIMONO","perfecture_jp":"富山県","jp_add_1":"富山市","jp_add_2":"下野"},"9300872":{"post_code":"9300872","prefecture":"TOYAMA KEN","city":"TOYAMA SHI","town":"SHIMONOSHIN","perfecture_jp":"富山県","jp_add_1":"富山市","jp_add_2":"下野新"},"9301305":{"post_code":"9301305","prefecture":"TOYAMA KEN","city":"TOYAMA SHI","town":"SHIMONOBAN","perfecture_jp":"富山県","jp_add_1":"富山市","jp_add_2":"下番"},"9300814":{"post_code":"9300814","prefecture":"TOYAMA KEN","city":"TOYAMA SHI","town":"SHIMOFUGO","perfecture_jp":"富山県","jp_add_1":"富山市","jp_add_2":"下冨居"},"9300867":{"post_code":"9300867","prefecture":"TOYAMA KEN","city":"TOYAMA SHI","town":"SHOTAKATA","perfecture_jp":"富山県","jp_add_1":"富山市","jp_add_2":"庄高田"},"9300854":{"post_code":"9300854","prefecture":"TOYAMA KEN","city":"TOYAMA SHI","town":"JOHOKUMACHI","perfecture_jp":"富山県","jp_add_1":"富山市","jp_add_2":"城北町"},"9300048":{"post_code":"9300048","prefecture":"TOYAMA KEN","city":"TOYAMA SHI","town":"SHIROGANECHO","perfecture_jp":"富山県","jp_add_1":"富山市","jp_add_2":"白銀町"},"9300924":{"post_code":"9300924","prefecture":"TOYAMA KEN","city":"TOYAMA SHI","town":"SHINKANADAI","perfecture_jp":"富山県","jp_add_1":"富山市","jp_add_2":"新金代"},"9300024":{"post_code":"9300024","prefecture":"TOYAMA KEN","city":"TOYAMA SHI","town":"SHINKAWARAMACHI","perfecture_jp":"富山県","jp_add_1":"富山市","jp_add_2":"新川原町"},"9300005":{"post_code":"9300005","prefecture":"TOYAMA KEN","city":"TOYAMA SHI","town":"SHINSAKURAMACHI","perfecture_jp":"富山県","jp_add_1":"富山市","jp_add_2":"新桜町"},"9300997":{"post_code":"9300997","prefecture":"TOYAMA KEN","city":"TOYAMA SHI","town":"SHINJOKITAMACHI","perfecture_jp":"富山県","jp_add_1":"富山市","jp_add_2":"新庄北町"},"9300991":{"post_code":"9300991","prefecture":"TOYAMA KEN","city":"TOYAMA SHI","town":"SHINJOGINZA","perfecture_jp":"富山県","jp_add_1":"富山市","jp_add_2":"新庄銀座"},"9300994":{"post_code":"9300994","prefecture":"TOYAMA KEN","city":"TOYAMA SHI","town":"SHINJOSHIMMACHI","perfecture_jp":"富山県","jp_add_1":"富山市","jp_add_2":"新庄新町"},"9300995":{"post_code":"9300995","prefecture":"TOYAMA KEN","city":"TOYAMA SHI","town":"SHINJOCHUOMACHI","perfecture_jp":"富山県","jp_add_1":"富山市","jp_add_2":"新庄中央町"},"9300996":{"post_code":"9300996","prefecture":"TOYAMA KEN","city":"TOYAMA SHI","town":"SHINJOHOMMACHI","perfecture_jp":"富山県","jp_add_1":"富山市","jp_add_2":"新庄本町"},"9300992":{"post_code":"9300992","prefecture":"TOYAMA KEN","city":"TOYAMA SHI","town":"SHINJOMACHI","perfecture_jp":"富山県","jp_add_1":"富山市","jp_add_2":"新庄町"},"9300006":{"post_code":"9300006","prefecture":"TOYAMA KEN","city":"TOYAMA SHI","town":"SHINSOGAWA","perfecture_jp":"富山県","jp_add_1":"富山市","jp_add_2":"新総曲輪"},"9300993":{"post_code":"9300993","prefecture":"TOYAMA KEN","city":"TOYAMA SHI","town":"SHINSONOMACHI","perfecture_jp":"富山県","jp_add_1":"富山市","jp_add_2":"新園町"},"9302203":{"post_code":"9302203","prefecture":"TOYAMA KEN","city":"TOYAMA SHI","town":"SHINCHIHARAZAKI","perfecture_jp":"富山県","jp_add_1":"富山市","jp_add_2":"新千原崎"},"9300008":{"post_code":"9300008","prefecture":"TOYAMA KEN","city":"TOYAMA SHI","town":"JINZUHOMMACHI","perfecture_jp":"富山県","jp_add_1":"富山市","jp_add_2":"神通本町"},"9300009":{"post_code":"9300009","prefecture":"TOYAMA KEN","city":"TOYAMA SHI","town":"JINZUMACHI","perfecture_jp":"富山県","jp_add_1":"富山市","jp_add_2":"神通町"},"9300002":{"post_code":"9300002","prefecture":"TOYAMA KEN","city":"TOYAMA SHI","town":"SHINTOMICHO","perfecture_jp":"富山県","jp_add_1":"富山市","jp_add_2":"新富町"},"9300839":{"post_code":"9300839","prefecture":"TOYAMA KEN","city":"TOYAMA SHI","town":"SHINFUGO","perfecture_jp":"富山県","jp_add_1":"富山市","jp_add_2":"新冨居"},"9300152":{"post_code":"9300152","prefecture":"TOYAMA KEN","city":"TOYAMA SHI","town":"SUGITANI","perfecture_jp":"富山県","jp_add_1":"富山市","jp_add_2":"杉谷"},"9300045":{"post_code":"9300045","prefecture":"TOYAMA KEN","city":"TOYAMA SHI","town":"SUNAMACHI","perfecture_jp":"富山県","jp_add_1":"富山市","jp_add_2":"砂町"},"9301266":{"post_code":"9301266","prefecture":"TOYAMA KEN","city":"TOYAMA SHI","town":"SUNAMI","perfecture_jp":"富山県","jp_add_1":"富山市","jp_add_2":"砂見"},"9301267":{"post_code":"9301267","prefecture":"TOYAMA KEN","city":"TOYAMA SHI","town":"SUNAMI(IMOHIRA)","perfecture_jp":"富山県","jp_add_1":"富山市","jp_add_2":"砂見"},"9300144":{"post_code":"9300144","prefecture":"TOYAMA KEN","city":"TOYAMA SHI","town":"SUMIYOSHI","perfecture_jp":"富山県","jp_add_1":"富山市","jp_add_2":"住吉"},"9300031":{"post_code":"9300031","prefecture":"TOYAMA KEN","city":"TOYAMA SHI","town":"SUMIYOSHICHO","perfecture_jp":"富山県","jp_add_1":"富山市","jp_add_2":"住吉町"},"9300088":{"post_code":"9300088","prefecture":"TOYAMA KEN","city":"TOYAMA SHI","town":"SUWANOKAWARA","perfecture_jp":"富山県","jp_add_1":"富山市","jp_add_2":"諏訪川原"},"9301285":{"post_code":"9301285","prefecture":"TOYAMA KEN","city":"TOYAMA SHI","town":"SETO","perfecture_jp":"富山県","jp_add_1":"富山市","jp_add_2":"瀬戸"},"9300066":{"post_code":"9300066","prefecture":"TOYAMA KEN","city":"TOYAMA SHI","town":"SENGOKUMACHI","perfecture_jp":"富山県","jp_add_1":"富山市","jp_add_2":"千石町"},"9301303":{"post_code":"9301303","prefecture":"TOYAMA KEN","city":"TOYAMA SHI","town":"ZENNA","perfecture_jp":"富山県","jp_add_1":"富山市","jp_add_2":"善名"},"9300815":{"post_code":"9300815","prefecture":"TOYAMA KEN","city":"TOYAMA SHI","town":"SENNARIMACHI","perfecture_jp":"富山県","jp_add_1":"富山市","jp_add_2":"千成町"},"9300083":{"post_code":"9300083","prefecture":"TOYAMA KEN","city":"TOYAMA SHI","town":"SOGAWA","perfecture_jp":"富山県","jp_add_1":"富山市","jp_add_2":"総曲輪"},"9300971":{"post_code":"9300971","prefecture":"TOYAMA KEN","city":"TOYAMA SHI","town":"SOTAIMACHI","perfecture_jp":"富山県","jp_add_1":"富山市","jp_add_2":"双代町"},"9300106":{"post_code":"9300106","prefecture":"TOYAMA KEN","city":"TOYAMA SHI","town":"TAKAGIMINAMI","perfecture_jp":"富山県","jp_add_1":"富山市","jp_add_2":"高木"},"9300866":{"post_code":"9300866","prefecture":"TOYAMA KEN","city":"TOYAMA SHI","town":"TAKATA","perfecture_jp":"富山県","jp_add_1":"富山市","jp_add_2":"高田"},"9300007":{"post_code":"9300007","prefecture":"TOYAMA KEN","city":"TOYAMA SHI","town":"TAKARAMACHI","perfecture_jp":"富山県","jp_add_1":"富山市","jp_add_2":"宝町"},"9300897":{"post_code":"9300897","prefecture":"TOYAMA KEN","city":"TOYAMA SHI","town":"TAKARIYA","perfecture_jp":"富山県","jp_add_1":"富山市","jp_add_2":"田刈屋"},"9300894":{"post_code":"9300894","prefecture":"TOYAMA KEN","city":"TOYAMA SHI","town":"TAKARIYASHIMMACHI","perfecture_jp":"富山県","jp_add_1":"富山市","jp_add_2":"田刈屋新町"},"9300014":{"post_code":"9300014","prefecture":"TOYAMA KEN","city":"TOYAMA SHI","town":"TACHIIDEMACHI","perfecture_jp":"富山県","jp_add_1":"富山市","jp_add_2":"館出町"},"9300053":{"post_code":"9300053","prefecture":"TOYAMA KEN","city":"TOYAMA SHI","town":"TATSUMICHO","perfecture_jp":"富山県","jp_add_1":"富山市","jp_add_2":"辰巳町"},"9300985":{"post_code":"9300985","prefecture":"TOYAMA KEN","city":"TOYAMA SHI","town":"TANAKAMACHI","perfecture_jp":"富山県","jp_add_1":"富山市","jp_add_2":"田中町"},"9302224":{"post_code":"9302224","prefecture":"TOYAMA KEN","city":"TOYAMA SHI","town":"TANOSHIRIMINAMI","perfecture_jp":"富山県","jp_add_1":"富山市","jp_add_2":"田尻"},"9301331":{"post_code":"9301331","prefecture":"TOYAMA KEN","city":"TOYAMA SHI","town":"TABATAKE","perfecture_jp":"富山県","jp_add_1":"富山市","jp_add_2":"田畠"},"9301338":{"post_code":"9301338","prefecture":"TOYAMA KEN","city":"TOYAMA SHI","town":"TABATAKE(ASUMINO)","perfecture_jp":"富山県","jp_add_1":"富山市","jp_add_2":"田畠"},"9301337":{"post_code":"9301337","prefecture":"TOYAMA KEN","city":"TOYAMA SHI","town":"TABATAKE(KAZAMIDAI)","perfecture_jp":"富山県","jp_add_1":"富山市","jp_add_2":"田畠"},"9300901":{"post_code":"9300901","prefecture":"TOYAMA KEN","city":"TOYAMA SHI","town":"TAYA","perfecture_jp":"富山県","jp_add_1":"富山市","jp_add_2":"手屋"},"9300018":{"post_code":"9300018","prefecture":"TOYAMA KEN","city":"TOYAMA SHI","town":"CHITOSEMACHI","perfecture_jp":"富山県","jp_add_1":"富山市","jp_add_2":"千歳町"},"9300114":{"post_code":"9300114","prefecture":"TOYAMA KEN","city":"TOYAMA SHI","town":"CHAYASHIMMACHI","perfecture_jp":"富山県","jp_add_1":"富山市","jp_add_2":"茶屋新町"},"9300115":{"post_code":"9300115","prefecture":"TOYAMA KEN","city":"TOYAMA SHI","town":"CHAYAMACHI","perfecture_jp":"富山県","jp_add_1":"富山市","jp_add_2":"茶屋町"},"9300044":{"post_code":"9300044","prefecture":"TOYAMA KEN","city":"TOYAMA SHI","town":"CHUODORI","perfecture_jp":"富山県","jp_add_1":"富山市","jp_add_2":"中央通り"},"9300921":{"post_code":"9300921","prefecture":"TOYAMA KEN","city":"TOYAMA SHI","town":"CHUGENJIMA","perfecture_jp":"富山県","jp_add_1":"富山市","jp_add_2":"中間島"},"9300811":{"post_code":"9300811","prefecture":"TOYAMA KEN","city":"TOYAMA SHI","town":"CHIYODAMACHI","perfecture_jp":"富山県","jp_add_1":"富山市","jp_add_2":"千代田町"},"9300046":{"post_code":"9300046","prefecture":"TOYAMA KEN","city":"TOYAMA SHI","town":"TSUTSUMICHODORI","perfecture_jp":"富山県","jp_add_1":"富山市","jp_add_2":"堤町通り"},"9302239":{"post_code":"9302239","prefecture":"TOYAMA KEN","city":"TOYAMA SHI","town":"TSUBAMENO","perfecture_jp":"富山県","jp_add_1":"富山市","jp_add_2":"つばめ野"},"9300824":{"post_code":"9300824","prefecture":"TOYAMA KEN","city":"TOYAMA SHI","town":"TSURUGAOKAMACHI","perfecture_jp":"富山県","jp_add_1":"富山市","jp_add_2":"鶴ケ丘町"},"9301332":{"post_code":"9301332","prefecture":"TOYAMA KEN","city":"TOYAMA SHI","town":"TSUWAMI","perfecture_jp":"富山県","jp_add_1":"富山市","jp_add_2":"津羽見"},"9302225":{"post_code":"9302225","prefecture":"TOYAMA KEN","city":"TOYAMA SHI","town":"TERASHIMA","perfecture_jp":"富山県","jp_add_1":"富山市","jp_add_2":"寺島"},"9300874":{"post_code":"9300874","prefecture":"TOYAMA KEN","city":"TOYAMA SHI","town":"TERAMACHI","perfecture_jp":"富山県","jp_add_1":"富山市","jp_add_2":"寺町"},"9300875":{"post_code":"9300875","prefecture":"TOYAMA KEN","city":"TOYAMA SHI","town":"TERAMACHIKEYAKIDAI","perfecture_jp":"富山県","jp_add_1":"富山市","jp_add_2":"寺町けや木台"},"9300955":{"post_code":"9300955","prefecture":"TOYAMA KEN","city":"TOYAMA SHI","town":"TENSHOJI","perfecture_jp":"富山県","jp_add_1":"富山市","jp_add_2":"天正寺"},"9300078":{"post_code":"9300078","prefecture":"TOYAMA KEN","city":"TOYAMA SHI","town":"DOIHARAMACHI","perfecture_jp":"富山県","jp_add_1":"富山市","jp_add_2":"土居原町"},"9300834":{"post_code":"9300834","prefecture":"TOYAMA KEN","city":"TOYAMA SHI","town":"TOIYAMACHI","perfecture_jp":"富山県","jp_add_1":"富山市","jp_add_2":"問屋町"},"9300047":{"post_code":"9300047","prefecture":"TOYAMA KEN","city":"TOYAMA SHI","town":"TOKIWACHO","perfecture_jp":"富山県","jp_add_1":"富山市","jp_add_2":"常盤町"},"9300163":{"post_code":"9300163","prefecture":"TOYAMA KEN","city":"TOYAMA SHI","town":"TOCHIDANI","perfecture_jp":"富山県","jp_add_1":"富山市","jp_add_2":"栃谷"},"9302227":{"post_code":"9302227","prefecture":"TOYAMA KEN","city":"TOYAMA SHI","town":"TONAMI","perfecture_jp":"富山県","jp_add_1":"富山市","jp_add_2":"利波"},"9302202":{"post_code":"9302202","prefecture":"TOYAMA KEN","city":"TOYAMA SHI","town":"TOMIURAMACHI","perfecture_jp":"富山県","jp_add_1":"富山市","jp_add_2":"富浦町"},"9300928":{"post_code":"9300928","prefecture":"TOYAMA KEN","city":"TOYAMA SHI","town":"TOMIOKACHO","perfecture_jp":"富山県","jp_add_1":"富山市","jp_add_2":"富岡町"},"9300049":{"post_code":"9300049","prefecture":"TOYAMA KEN","city":"TOYAMA SHI","town":"TOYOKAWACHO","perfecture_jp":"富山県","jp_add_1":"富山市","jp_add_2":"豊川町"},"9300974":{"post_code":"9300974","prefecture":"TOYAMA KEN","city":"TOYAMA SHI","town":"NAGAE","perfecture_jp":"富山県","jp_add_1":"富山市","jp_add_2":"長江"},"9300972":{"post_code":"9300972","prefecture":"TOYAMA KEN","city":"TOYAMA SHI","town":"NAGAESHIMMACHI","perfecture_jp":"富山県","jp_add_1":"富山市","jp_add_2":"長江新町"},"9300973":{"post_code":"9300973","prefecture":"TOYAMA KEN","city":"TOYAMA SHI","town":"NAGAEHIGASHIMACHI","perfecture_jp":"富山県","jp_add_1":"富山市","jp_add_2":"長江東町"},"9300962":{"post_code":"9300962","prefecture":"TOYAMA KEN","city":"TOYAMA SHI","town":"NAGAEHOMMACHI","perfecture_jp":"富山県","jp_add_1":"富山市","jp_add_2":"長江本町"},"9300076":{"post_code":"9300076","prefecture":"TOYAMA KEN","city":"TOYAMA SHI","town":"NAGAEMACHI","perfecture_jp":"富山県","jp_add_1":"富山市","jp_add_2":"長柄町"},"9300166":{"post_code":"9300166","prefecture":"TOYAMA KEN","city":"TOYAMA SHI","town":"NAKAOIDA","perfecture_jp":"富山県","jp_add_1":"富山市","jp_add_2":"中老田"},"9301334":{"post_code":"9301334","prefecture":"TOYAMA KEN","city":"TOYAMA SHI","town":"NAKAOURA","perfecture_jp":"富山県","jp_add_1":"富山市","jp_add_2":"中大浦"},"9300111":{"post_code":"9300111","prefecture":"TOYAMA KEN","city":"TOYAMA SHI","town":"NAGAOKA","perfecture_jp":"富山県","jp_add_1":"富山市","jp_add_2":"長岡"},"9300113":{"post_code":"9300113","prefecture":"TOYAMA KEN","city":"TOYAMA SHI","town":"NAGAOKASHIN","perfecture_jp":"富山県","jp_add_1":"富山市","jp_add_2":"長岡新"},"9300101":{"post_code":"9300101","prefecture":"TOYAMA KEN","city":"TOYAMA SHI","town":"NAKAOKI","perfecture_jp":"富山県","jp_add_1":"富山市","jp_add_2":"中沖"},"9300801":{"post_code":"9300801","prefecture":"TOYAMA KEN","city":"TOYAMA SHI","town":"NAKAJIMA","perfecture_jp":"富山県","jp_add_1":"富山市","jp_add_2":"中島"},"9301313":{"post_code":"9301313","prefecture":"TOYAMA KEN","city":"TOYAMA SHI","town":"NAKADAKI","perfecture_jp":"富山県","jp_add_1":"富山市","jp_add_2":"中滝"},"9301462":{"post_code":"9301462","prefecture":"TOYAMA KEN","city":"TOYAMA SHI","town":"NAKACHIYAMA","perfecture_jp":"富山県","jp_add_1":"富山市","jp_add_2":"中地山"},"9300903":{"post_code":"9300903","prefecture":"TOYAMA KEN","city":"TOYAMA SHI","town":"NAKANOSHIN","perfecture_jp":"富山県","jp_add_1":"富山市","jp_add_2":"中野新"},"9301315":{"post_code":"9301315","prefecture":"TOYAMA KEN","city":"TOYAMA SHI","town":"NAKANOBAN","perfecture_jp":"富山県","jp_add_1":"富山市","jp_add_2":"中番"},"9301316":{"post_code":"9301316","prefecture":"TOYAMA KEN","city":"TOYAMA SHI","town":"MIMUROARAYA(SHINSAKAEMACHI)","perfecture_jp":"富山県","jp_add_1":"富山市","jp_add_2":"中番"},"9300832":{"post_code":"9300832","prefecture":"TOYAMA KEN","city":"TOYAMA SHI","town":"NAKAFUGO","perfecture_jp":"富山県","jp_add_1":"富山市","jp_add_2":"中冨居"},"9300830":{"post_code":"9300830","prefecture":"TOYAMA KEN","city":"TOYAMA SHI","town":"NAKAFUGOSHIMMACHI","perfecture_jp":"富山県","jp_add_1":"富山市","jp_add_2":"中冨居新町"},"9300831":{"post_code":"9300831","prefecture":"TOYAMA KEN","city":"TOYAMA SHI","town":"NABETA","perfecture_jp":"富山県","jp_add_1":"富山市","jp_add_2":"鍋田"},"9300068":{"post_code":"9300068","prefecture":"TOYAMA KEN","city":"TOYAMA SHI","town":"NISHIAIMONCHO","perfecture_jp":"富山県","jp_add_1":"富山市","jp_add_2":"西四十物町"},"9300165":{"post_code":"9300165","prefecture":"TOYAMA KEN","city":"TOYAMA SHI","town":"NISHIOSHIKAWA","perfecture_jp":"富山県","jp_add_1":"富山市","jp_add_2":"西押川"},"9301324":{"post_code":"9301324","prefecture":"TOYAMA KEN","city":"TOYAMA SHI","town":"NISHIOMATA","perfecture_jp":"富山県","jp_add_1":"富山市","jp_add_2":"西小俣"},"9300143":{"post_code":"9300143","prefecture":"TOYAMA KEN","city":"TOYAMA SHI","town":"NISHIKANAYA","perfecture_jp":"富山県","jp_add_1":"富山市","jp_add_2":"西金屋"},"9300073":{"post_code":"9300073","prefecture":"TOYAMA KEN","city":"TOYAMA SHI","town":"NISHISANNOMACHI","perfecture_jp":"富山県","jp_add_1":"富山市","jp_add_2":"西山王町"},"9300981":{"post_code":"9300981","prefecture":"TOYAMA KEN","city":"TOYAMA SHI","town":"NISHISHINJO","perfecture_jp":"富山県","jp_add_1":"富山市","jp_add_2":"西新庄"},"9300062":{"post_code":"9300062","prefecture":"TOYAMA KEN","city":"TOYAMA SHI","town":"NISHICHO","perfecture_jp":"富山県","jp_add_1":"富山市","jp_add_2":"西町"},"9300975":{"post_code":"9300975","prefecture":"TOYAMA KEN","city":"TOYAMA SHI","town":"NISHINAGAE","perfecture_jp":"富山県","jp_add_1":"富山市","jp_add_2":"西長江"},"9300961":{"post_code":"9300961","prefecture":"TOYAMA KEN","city":"TOYAMA SHI","town":"NISHINAGAEHOMMACHI","perfecture_jp":"富山県","jp_add_1":"富山市","jp_add_2":"西長江本町"},"9300177":{"post_code":"9300177","prefecture":"TOYAMA KEN","city":"TOYAMA SHI","town":"NISHIFUTAMATA","perfecture_jp":"富山県","jp_add_1":"富山市","jp_add_2":"西二俣"},"9302233":{"post_code":"9302233","prefecture":"TOYAMA KEN","city":"TOYAMA SHI","town":"NUNOMEKITA","perfecture_jp":"富山県","jp_add_1":"富山市","jp_add_2":"布目"},"9302236":{"post_code":"9302236","prefecture":"TOYAMA KEN","city":"TOYAMA SHI","town":"NUNOMEASAHI","perfecture_jp":"富山県","jp_add_1":"富山市","jp_add_2":"布目旭"},"9302235":{"post_code":"9302235","prefecture":"TOYAMA KEN","city":"TOYAMA SHI","town":"NUNOMESHIMMACHI","perfecture_jp":"富山県","jp_add_1":"富山市","jp_add_2":"布目新町"},"9302231":{"post_code":"9302231","prefecture":"TOYAMA KEN","city":"TOYAMA SHI","town":"NUNOMEHIGASHIMACHI","perfecture_jp":"富山県","jp_add_1":"富山市","jp_add_2":"布目東町"},"9302234":{"post_code":"9302234","prefecture":"TOYAMA KEN","city":"TOYAMA SHI","town":"NUNOMEMIDORIMACHI","perfecture_jp":"富山県","jp_add_1":"富山市","jp_add_2":"布目緑町"},"9302232":{"post_code":"9302232","prefecture":"TOYAMA KEN","city":"TOYAMA SHI","town":"NUNOMEMINAMIMACHI","perfecture_jp":"富山県","jp_add_1":"富山市","jp_add_2":"布目南町"},"9300173":{"post_code":"9300173","prefecture":"TOYAMA KEN","city":"TOYAMA SHI","town":"NOGUCHIHOKUBU","perfecture_jp":"富山県","jp_add_1":"富山市","jp_add_2":"野口"},"9300171":{"post_code":"9300171","prefecture":"TOYAMA KEN","city":"TOYAMA SHI","town":"NONOE","perfecture_jp":"富山県","jp_add_1":"富山市","jp_add_2":"野々上"},"9300174":{"post_code":"9300174","prefecture":"TOYAMA KEN","city":"TOYAMA SHI","town":"NOMACHI","perfecture_jp":"富山県","jp_add_1":"富山市","jp_add_2":"野町"},"9300069":{"post_code":"9300069","prefecture":"TOYAMA KEN","city":"TOYAMA SHI","town":"HATAGOMACHI","perfecture_jp":"富山県","jp_add_1":"富山市","jp_add_2":"旅籠町"},"9300896":{"post_code":"9300896","prefecture":"TOYAMA KEN","city":"TOYAMA SHI","town":"HATANAKA","perfecture_jp":"富山県","jp_add_1":"富山市","jp_add_2":"畑中"},"9300026":{"post_code":"9300026","prefecture":"TOYAMA KEN","city":"TOYAMA SHI","town":"HACHINIMMACHI","perfecture_jp":"富山県","jp_add_1":"富山市","jp_add_2":"八人町"},"9300112":{"post_code":"9300112","prefecture":"TOYAMA KEN","city":"TOYAMA SHI","town":"HAKKAYAMA","perfecture_jp":"富山県","jp_add_1":"富山市","jp_add_2":"八ケ山"},"9302226":{"post_code":"9302226","prefecture":"TOYAMA KEN","city":"TOYAMA SHI","town":"HATCHOKITA","perfecture_jp":"富山県","jp_add_1":"富山市","jp_add_2":"八町"},"9301326":{"post_code":"9301326","prefecture":"TOYAMA KEN","city":"TOYAMA SHI","town":"HANASAKI","perfecture_jp":"富山県","jp_add_1":"富山市","jp_add_2":"花崎"},"9300162":{"post_code":"9300162","prefecture":"TOYAMA KEN","city":"TOYAMA SHI","town":"HANANOKI","perfecture_jp":"富山県","jp_add_1":"富山市","jp_add_2":"花木"},"9300864":{"post_code":"9300864","prefecture":"TOYAMA KEN","city":"TOYAMA SHI","town":"HANE","perfecture_jp":"富山県","jp_add_1":"富山市","jp_add_2":"羽根"},"9301454":{"post_code":"9301454","prefecture":"TOYAMA KEN","city":"TOYAMA SHI","town":"HARA","perfecture_jp":"富山県","jp_add_1":"富山市","jp_add_2":"原"},"9301453":{"post_code":"9301453","prefecture":"TOYAMA KEN","city":"TOYAMA SHI","town":"HARA(GOKURAKUZAKA)","perfecture_jp":"富山県","jp_add_1":"富山市","jp_add_2":"原"},"9301283":{"post_code":"9301283","prefecture":"TOYAMA KEN","city":"TOYAMA SHI","town":"HIO","perfecture_jp":"富山県","jp_add_1":"富山市","jp_add_2":"日尾"},"9300964":{"post_code":"9300964","prefecture":"TOYAMA KEN","city":"TOYAMA SHI","town":"HIGASHIISHIGANEMACHI","perfecture_jp":"富山県","jp_add_1":"富山市","jp_add_2":"東石金町"},"9300161":{"post_code":"9300161","prefecture":"TOYAMA KEN","city":"TOYAMA SHI","town":"HIGASHIOIDA","perfecture_jp":"富山県","jp_add_1":"富山市","jp_add_2":"東老田"},"9301323":{"post_code":"9301323","prefecture":"TOYAMA KEN","city":"TOYAMA SHI","town":"HIGASHIOMATA","perfecture_jp":"富山県","jp_add_1":"富山市","jp_add_2":"東小俣"},"9301262":{"post_code":"9301262","prefecture":"TOYAMA KEN","city":"TOYAMA SHI","town":"HIGASHIKUROMAKI","perfecture_jp":"富山県","jp_add_1":"富山市","jp_add_2":"東黒牧"},"9301263":{"post_code":"9301263","prefecture":"TOYAMA KEN","city":"TOYAMA SHI","town":"HIGASHIKUROMAKI(UWANO)","perfecture_jp":"富山県","jp_add_1":"富山市","jp_add_2":"東黒牧"},"9300017":{"post_code":"9300017","prefecture":"TOYAMA KEN","city":"TOYAMA SHI","town":"HIGASHIDENJIGATAMACHI","perfecture_jp":"富山県","jp_add_1":"富山市","jp_add_2":"東田地方町"},"9301281":{"post_code":"9301281","prefecture":"TOYAMA KEN","city":"TOYAMA SHI","town":"HIGASHIFUKUSAWA","perfecture_jp":"富山県","jp_add_1":"富山市","jp_add_2":"東福沢"},"9301261":{"post_code":"9301261","prefecture":"TOYAMA KEN","city":"TOYAMA SHI","town":"HIGASHIFUKUSAWA(TSUGE)","perfecture_jp":"富山県","jp_add_1":"富山市","jp_add_2":"東福沢"},"9301287":{"post_code":"9301287","prefecture":"TOYAMA KEN","city":"TOYAMA SHI","town":"HIGASHIFUKUSAWA(HIDORO)","perfecture_jp":"富山県","jp_add_1":"富山市","jp_add_2":"東福沢"},"9300039":{"post_code":"9300039","prefecture":"TOYAMA KEN","city":"TOYAMA SHI","town":"HIGASHIMACHI","perfecture_jp":"富山県","jp_add_1":"富山市","jp_add_2":"東町"},"9300848":{"post_code":"9300848","prefecture":"TOYAMA KEN","city":"TOYAMA SHI","town":"HISAKATACHO","perfecture_jp":"富山県","jp_add_1":"富山市","jp_add_2":"久方町"},"9300025":{"post_code":"9300025","prefecture":"TOYAMA KEN","city":"TOYAMA SHI","town":"HINODEMACHI","perfecture_jp":"富山県","jp_add_1":"富山市","jp_add_2":"日之出町"},"9300912":{"post_code":"9300912","prefecture":"TOYAMA KEN","city":"TOYAMA SHI","town":"HIMATA","perfecture_jp":"富山県","jp_add_1":"富山市","jp_add_2":"日俣"},"9302214":{"post_code":"9302214","prefecture":"TOYAMA KEN","city":"TOYAMA SHI","town":"HYAKUZUKA","perfecture_jp":"富山県","jp_add_1":"富山市","jp_add_2":"百塚"},"9300885":{"post_code":"9300885","prefecture":"TOYAMA KEN","city":"TOYAMA SHI","town":"HIYODORIJIMA","perfecture_jp":"富山県","jp_add_1":"富山市","jp_add_2":"鵯島"},"9300886":{"post_code":"9300886","prefecture":"TOYAMA KEN","city":"TOYAMA SHI","town":"HIYODORIMINAMIDAI","perfecture_jp":"富山県","jp_add_1":"富山市","jp_add_2":"ひよどり南台"},"9300154":{"post_code":"9300154","prefecture":"TOYAMA KEN","city":"TOYAMA SHI","town":"HIRAOKA","perfecture_jp":"富山県","jp_add_1":"富山市","jp_add_2":"平岡"},"9300944":{"post_code":"9300944","prefecture":"TOYAMA KEN","city":"TOYAMA SHI","town":"HIRAKI","perfecture_jp":"富山県","jp_add_1":"富山市","jp_add_2":"開"},"9300157":{"post_code":"9300157","prefecture":"TOYAMA KEN","city":"TOYAMA SHI","town":"HIRAKIGAOKA","perfecture_jp":"富山県","jp_add_1":"富山市","jp_add_2":"開ケ丘"},"9300071":{"post_code":"9300071","prefecture":"TOYAMA KEN","city":"TOYAMA SHI","town":"HIRAKIMACHI","perfecture_jp":"富山県","jp_add_1":"富山市","jp_add_2":"平吹町"},"9300833":{"post_code":"9300833","prefecture":"TOYAMA KEN","city":"TOYAMA SHI","town":"FUGOSAKAEMACHI","perfecture_jp":"富山県","jp_add_1":"富山市","jp_add_2":"冨居栄町"},"9300965":{"post_code":"9300965","prefecture":"TOYAMA KEN","city":"TOYAMA SHI","town":"FUJIKOSHIHOMMACHI","perfecture_jp":"富山県","jp_add_1":"富山市","jp_add_2":"不二越本町"},"9300963":{"post_code":"9300963","prefecture":"TOYAMA KEN","city":"TOYAMA SHI","town":"FUJIKOSHIMACHI","perfecture_jp":"富山県","jp_add_1":"富山市","jp_add_2":"不二越町"},"9300943":{"post_code":"9300943","prefecture":"TOYAMA KEN","city":"TOYAMA SHI","town":"FUJISHIROCHO","perfecture_jp":"富山県","jp_add_1":"富山市","jp_add_2":"藤代町"},"9300936":{"post_code":"9300936","prefecture":"TOYAMA KEN","city":"TOYAMA SHI","town":"FUJINOKI","perfecture_jp":"富山県","jp_add_1":"富山市","jp_add_2":"藤木"},"9300933":{"post_code":"9300933","prefecture":"TOYAMA KEN","city":"TOYAMA SHI","town":"FUJINOKISHIN","perfecture_jp":"富山県","jp_add_1":"富山市","jp_add_2":"藤木新"},"9300932":{"post_code":"9300932","prefecture":"TOYAMA KEN","city":"TOYAMA SHI","town":"FUJINOKISHIMMACHI","perfecture_jp":"富山県","jp_add_1":"富山市","jp_add_2":"藤木新町"},"9300942":{"post_code":"9300942","prefecture":"TOYAMA KEN","city":"TOYAMA SHI","town":"FUJINOKISONOMACHI","perfecture_jp":"富山県","jp_add_1":"富山市","jp_add_2":"藤の木園町"},"9300934":{"post_code":"9300934","prefecture":"TOYAMA KEN","city":"TOYAMA SHI","town":"FUJINOKIDAI","perfecture_jp":"富山県","jp_add_1":"富山市","jp_add_2":"藤の木台"},"9300941":{"post_code":"9300941","prefecture":"TOYAMA KEN","city":"TOYAMA SHI","town":"FUJINOKINAKAMACHI","perfecture_jp":"富山県","jp_add_1":"富山市","jp_add_2":"藤木中町"},"9300935":{"post_code":"9300935","prefecture":"TOYAMA KEN","city":"TOYAMA SHI","town":"FUJIMICHO","perfecture_jp":"富山県","jp_add_1":"富山市","jp_add_2":"藤見町"},"9300098":{"post_code":"9300098","prefecture":"TOYAMA KEN","city":"TOYAMA SHI","town":"FUNAHASHIIMAMACHI","perfecture_jp":"富山県","jp_add_1":"富山市","jp_add_2":"舟橋今町"},"9300096":{"post_code":"9300096","prefecture":"TOYAMA KEN","city":"TOYAMA SHI","town":"FUNAHASHIKITAMACHI","perfecture_jp":"富山県","jp_add_1":"富山市","jp_add_2":"舟橋北町"},"9300095":{"post_code":"9300095","prefecture":"TOYAMA KEN","city":"TOYAMA SHI","town":"FUNAHASHIMINAMICHO","perfecture_jp":"富山県","jp_add_1":"富山市","jp_add_2":"舟橋南町"},"9300058":{"post_code":"9300058","prefecture":"TOYAMA KEN","city":"TOYAMA SHI","town":"FURUKAJIMACHI","perfecture_jp":"富山県","jp_add_1":"富山市","jp_add_2":"古鍛冶町"},"9302208":{"post_code":"9302208","prefecture":"TOYAMA KEN","city":"TOYAMA SHI","town":"FURUKAWA","perfecture_jp":"富山県","jp_add_1":"富山市","jp_add_2":"古川"},"9300151":{"post_code":"9300151","prefecture":"TOYAMA KEN","city":"TOYAMA SHI","town":"FURUSAWA","perfecture_jp":"富山県","jp_add_1":"富山市","jp_add_2":"古沢"},"9300876":{"post_code":"9300876","prefecture":"TOYAMA KEN","city":"TOYAMA SHI","town":"BUNKYOMACHI","perfecture_jp":"富山県","jp_add_1":"富山市","jp_add_2":"文京町"},"9300065":{"post_code":"9300065","prefecture":"TOYAMA KEN","city":"TOYAMA SHI","town":"HOSHIICHO","perfecture_jp":"富山県","jp_add_1":"富山市","jp_add_2":"星井町"},"9300074":{"post_code":"9300074","prefecture":"TOYAMA KEN","city":"TOYAMA SHI","town":"HORIHATAMACHI","perfecture_jp":"富山県","jp_add_1":"富山市","jp_add_2":"堀端町"},"9301455":{"post_code":"9301455","prefecture":"TOYAMA KEN","city":"TOYAMA SHI","town":"HONGU","perfecture_jp":"富山県","jp_add_1":"富山市","jp_add_2":"本宮"},"9301451":{"post_code":"9301451","prefecture":"TOYAMA KEN","city":"TOYAMA SHI","town":"HONGU(AWASUNO)","perfecture_jp":"富山県","jp_add_1":"富山市","jp_add_2":"本宮"},"9301452":{"post_code":"9301452","prefecture":"TOYAMA KEN","city":"TOYAMA SHI","town":"HONGU(HANAKIRIWARI)","perfecture_jp":"富山県","jp_add_1":"富山市","jp_add_2":"本宮"},"9300108":{"post_code":"9300108","prefecture":"TOYAMA KEN","city":"TOYAMA SHI","town":"HONGOHOKUBU","perfecture_jp":"富山県","jp_add_1":"富山市","jp_add_2":"本郷"},"9300911":{"post_code":"9300911","prefecture":"TOYAMA KEN","city":"TOYAMA SHI","town":"HONGOJIMA","perfecture_jp":"富山県","jp_add_1":"富山市","jp_add_2":"本郷島"},"9300029":{"post_code":"9300029","prefecture":"TOYAMA KEN","city":"TOYAMA SHI","town":"HOMMACHI","perfecture_jp":"富山県","jp_add_1":"富山市","jp_add_2":"本町"},"9300081":{"post_code":"9300081","prefecture":"TOYAMA KEN","city":"TOYAMA SHI","town":"HOMMARU","perfecture_jp":"富山県","jp_add_1":"富山市","jp_add_2":"本丸"},"9301465":{"post_code":"9301465","prefecture":"TOYAMA KEN","city":"TOYAMA SHI","town":"MAKI","perfecture_jp":"富山県","jp_add_1":"富山市","jp_add_2":"牧"},"9301282":{"post_code":"9301282","prefecture":"TOYAMA KEN","city":"TOYAMA SHI","town":"MAKINO","perfecture_jp":"富山県","jp_add_1":"富山市","jp_add_2":"牧野"},"9301301":{"post_code":"9301301","prefecture":"TOYAMA KEN","city":"TOYAMA SHI","town":"MASEGUCHI","perfecture_jp":"富山県","jp_add_1":"富山市","jp_add_2":"馬瀬口"},"9301302":{"post_code":"9301302","prefecture":"TOYAMA KEN","city":"TOYAMA SHI","town":"MASEGUCHI(TONOSAMABAYASHI)","perfecture_jp":"富山県","jp_add_1":"富山市","jp_add_2":"馬瀬口"},"9300923":{"post_code":"9300923","prefecture":"TOYAMA KEN","city":"TOYAMA SHI","town":"MACHISHIN","perfecture_jp":"富山県","jp_add_1":"富山市","jp_add_2":"町新"},"9300952":{"post_code":"9300952","prefecture":"TOYAMA KEN","city":"TOYAMA SHI","town":"MACHIMURA","perfecture_jp":"富山県","jp_add_1":"富山市","jp_add_2":"町村"},"9302213":{"post_code":"9302213","prefecture":"TOYAMA KEN","city":"TOYAMA SHI","town":"MATSUNOKI","perfecture_jp":"富山県","jp_add_1":"富山市","jp_add_2":"松木"},"9302212":{"post_code":"9302212","prefecture":"TOYAMA KEN","city":"TOYAMA SHI","town":"MATSUNOKISHIN","perfecture_jp":"富山県","jp_add_1":"富山市","jp_add_2":"松木新"},"9300812":{"post_code":"9300812","prefecture":"TOYAMA KEN","city":"TOYAMA SHI","town":"MATSUWAKACHO","perfecture_jp":"富山県","jp_add_1":"富山市","jp_add_2":"松若町"},"9300085":{"post_code":"9300085","prefecture":"TOYAMA KEN","city":"TOYAMA SHI","town":"MARUNOCHI","perfecture_jp":"富山県","jp_add_1":"富山市","jp_add_2":"丸の内"},"9301463":{"post_code":"9301463","prefecture":"TOYAMA KEN","city":"TOYAMA SHI","town":"MIZUSU","perfecture_jp":"富山県","jp_add_1":"富山市","jp_add_2":"水須"},"9300038":{"post_code":"9300038","prefecture":"TOYAMA KEN","city":"TOYAMA SHI","town":"MIDORICHO","perfecture_jp":"富山県","jp_add_1":"富山市","jp_add_2":"緑町"},"9300805":{"post_code":"9300805","prefecture":"TOYAMA KEN","city":"TOYAMA SHI","town":"MINATOIRIFUNECHO","perfecture_jp":"富山県","jp_add_1":"富山市","jp_add_2":"湊入船町"},"9301304":{"post_code":"9301304","prefecture":"TOYAMA KEN","city":"TOYAMA SHI","town":"MINAMIOBA","perfecture_jp":"富山県","jp_add_1":"富山市","jp_add_2":"南大場"},"9300054":{"post_code":"9300054","prefecture":"TOYAMA KEN","city":"TOYAMA SHI","town":"MINAMISHIMMACHI","perfecture_jp":"富山県","jp_add_1":"富山市","jp_add_2":"南新町"},"9300056":{"post_code":"9300056","prefecture":"TOYAMA KEN","city":"TOYAMA SHI","town":"MINAMIDAMACHI","perfecture_jp":"富山県","jp_add_1":"富山市","jp_add_2":"南田町"},"9301314":{"post_code":"9301314","prefecture":"TOYAMA KEN","city":"TOYAMA SHI","town":"MIMUROARAYA","perfecture_jp":"富山県","jp_add_1":"富山市","jp_add_2":"三室荒屋"},"9302211":{"post_code":"9302211","prefecture":"TOYAMA KEN","city":"TOYAMA SHI","town":"MIYAO","perfecture_jp":"富山県","jp_add_1":"富山市","jp_add_2":"宮尾"},"9300902":{"post_code":"9300902","prefecture":"TOYAMA KEN","city":"TOYAMA SHI","town":"MIYANARISHIN","perfecture_jp":"富山県","jp_add_1":"富山市","jp_add_2":"宮成新"},"9300916":{"post_code":"9300916","prefecture":"TOYAMA KEN","city":"TOYAMA SHI","town":"MUKAISHINJOMACHI","perfecture_jp":"富山県","jp_add_1":"富山市","jp_add_2":"向新庄"},"9300041":{"post_code":"9300041","prefecture":"TOYAMA KEN","city":"TOYAMA SHI","town":"MUKOGAWARAMACHI","perfecture_jp":"富山県","jp_add_1":"富山市","jp_add_2":"向川原町"},"9300051":{"post_code":"9300051","prefecture":"TOYAMA KEN","city":"TOYAMA SHI","town":"MUROMACHIDORI","perfecture_jp":"富山県","jp_add_1":"富山市","jp_add_2":"室町通り"},"9300001":{"post_code":"9300001","prefecture":"TOYAMA KEN","city":"TOYAMA SHI","town":"MEIRINCHO","perfecture_jp":"富山県","jp_add_1":"富山市","jp_add_2":"明輪町"},"9300033":{"post_code":"9300033","prefecture":"TOYAMA KEN","city":"TOYAMA SHI","town":"MOTOMACHI","perfecture_jp":"富山県","jp_add_1":"富山市","jp_add_2":"元町"},"9300072":{"post_code":"9300072","prefecture":"TOYAMA KEN","city":"TOYAMA SHI","town":"MOMONOICHO","perfecture_jp":"富山県","jp_add_1":"富山市","jp_add_2":"桃井町"},"9301325":{"post_code":"9301325","prefecture":"TOYAMA KEN","city":"TOYAMA SHI","town":"MONJUJI","perfecture_jp":"富山県","jp_add_1":"富山市","jp_add_2":"文珠寺"},"9300092":{"post_code":"9300092","prefecture":"TOYAMA KEN","city":"TOYAMA SHI","town":"YASUDAMACHI","perfecture_jp":"富山県","jp_add_1":"富山市","jp_add_2":"安田町"},"9300087":{"post_code":"9300087","prefecture":"TOYAMA KEN","city":"TOYAMA SHI","town":"YASUNOYACHO","perfecture_jp":"富山県","jp_add_1":"富山市","jp_add_2":"安野屋町"},"9300016":{"post_code":"9300016","prefecture":"TOYAMA KEN","city":"TOYAMA SHI","town":"YANAGIMACHI","perfecture_jp":"富山県","jp_add_1":"富山市","jp_add_2":"柳町"},"9302222":{"post_code":"9302222","prefecture":"TOYAMA KEN","city":"TOYAMA SHI","town":"YAHATA","perfecture_jp":"富山県","jp_add_1":"富山市","jp_add_2":"八幡"},"9302223":{"post_code":"9302223","prefecture":"TOYAMA KEN","city":"TOYAMA SHI","town":"YAHATASHIMMACHI","perfecture_jp":"富山県","jp_add_1":"富山市","jp_add_2":"八幡新町"},"9302215":{"post_code":"9302215","prefecture":"TOYAMA KEN","city":"TOYAMA SHI","town":"YAMAGISHI","perfecture_jp":"富山県","jp_add_1":"富山市","jp_add_2":"山岸"},"9302117":{"post_code":"9302117","prefecture":"TOYAMA KEN","city":"TOYAMA SHI","town":"YAMADA AKAMEDANI","perfecture_jp":"富山県","jp_add_1":"富山市","jp_add_2":"山田赤目谷"},"9302114":{"post_code":"9302114","prefecture":"TOYAMA KEN","city":"TOYAMA SHI","town":"YAMADA NABETANI","perfecture_jp":"富山県","jp_add_1":"富山市","jp_add_2":"山田居舟"},"9302125":{"post_code":"9302125","prefecture":"TOYAMA KEN","city":"TOYAMA SHI","town":"YAMADA IMAYAMADA","perfecture_jp":"富山県","jp_add_1":"富山市","jp_add_2":"山田今山田"},"9302111":{"post_code":"9302111","prefecture":"TOYAMA KEN","city":"TOYAMA SHI","town":"YAMADA KAMAKURA","perfecture_jp":"富山県","jp_add_1":"富山市","jp_add_2":"山田鎌倉"},"9302106":{"post_code":"9302106","prefecture":"TOYAMA KEN","city":"TOYAMA SHI","town":"YAMADA KITAYAMA","perfecture_jp":"富山県","jp_add_1":"富山市","jp_add_2":"山田北山"},"9302123":{"post_code":"9302123","prefecture":"TOYAMA KEN","city":"TOYAMA SHI","town":"YAMADA KOJIMA","perfecture_jp":"富山県","jp_add_1":"富山市","jp_add_2":"山田小島"},"9302122":{"post_code":"9302122","prefecture":"TOYAMA KEN","city":"TOYAMA SHI","town":"YAMADA KOJIMA(JOYAMA)","perfecture_jp":"富山県","jp_add_1":"富山市","jp_add_2":"山田小島"},"9302115":{"post_code":"9302115","prefecture":"TOYAMA KEN","city":"TOYAMA SHI","town":"YAMADA KODANI","perfecture_jp":"富山県","jp_add_1":"富山市","jp_add_2":"山田小谷"},"9302116":{"post_code":"9302116","prefecture":"TOYAMA KEN","city":"TOYAMA SHI","town":"YAMADA KODANI(NAKANE)","perfecture_jp":"富山県","jp_add_1":"富山市","jp_add_2":"山田小谷"},"9302126":{"post_code":"9302126","prefecture":"TOYAMA KEN","city":"TOYAMA SHI","town":"YAMADA SHOZU","perfecture_jp":"富山県","jp_add_1":"富山市","jp_add_2":"山田清水"},"9302121":{"post_code":"9302121","prefecture":"TOYAMA KEN","city":"TOYAMA SHI","town":"YAMADA SHIROIDANI","perfecture_jp":"富山県","jp_add_1":"富山市","jp_add_2":"山田白井谷"},"9302102":{"post_code":"9302102","prefecture":"TOYAMA KEN","city":"TOYAMA SHI","town":"YAMADA SUKUBO","perfecture_jp":"富山県","jp_add_1":"富山市","jp_add_2":"山田宿坊"},"9302104":{"post_code":"9302104","prefecture":"TOYAMA KEN","city":"TOYAMA SHI","town":"YAMADA SUKUBO(SORE)","perfecture_jp":"富山県","jp_add_1":"富山市","jp_add_2":"山田宿坊"},"9302103":{"post_code":"9302103","prefecture":"TOYAMA KEN","city":"TOYAMA SHI","town":"YAMADA SUKUBO(YANAIGO)","perfecture_jp":"富山県","jp_add_1":"富山市","jp_add_2":"山田宿坊"},"9302113":{"post_code":"9302113","prefecture":"TOYAMA KEN","city":"TOYAMA SHI","town":"YAMADA TANI","perfecture_jp":"富山県","jp_add_1":"富山市","jp_add_2":"山田谷"},"9302101":{"post_code":"9302101","prefecture":"TOYAMA KEN","city":"TOYAMA SHI","town":"YAMADA NAKANOSE","perfecture_jp":"富山県","jp_add_1":"富山市","jp_add_2":"山田中瀬"},"9302108":{"post_code":"9302108","prefecture":"TOYAMA KEN","city":"TOYAMA SHI","town":"YAMADA NAKANOSE(KAMINAKANOSE)","perfecture_jp":"富山県","jp_add_1":"富山市","jp_add_2":"山田中瀬"},"9302107":{"post_code":"9302107","prefecture":"TOYAMA KEN","city":"TOYAMA SHI","town":"YAMADA NAKANOSE(TAKENOCHI)","perfecture_jp":"富山県","jp_add_1":"富山市","jp_add_2":"山田中瀬"},"9302124":{"post_code":"9302124","prefecture":"TOYAMA KEN","city":"TOYAMA SHI","town":"YAMADA NAKAMURA","perfecture_jp":"富山県","jp_add_1":"富山市","jp_add_2":"山田中村"},"9302128":{"post_code":"9302128","prefecture":"TOYAMA KEN","city":"TOYAMA SHI","town":"YAMADA NUMANOMATA","perfecture_jp":"富山県","jp_add_1":"富山市","jp_add_2":"山田沼又"},"9302127":{"post_code":"9302127","prefecture":"TOYAMA KEN","city":"TOYAMA SHI","town":"YAMADA MAKI","perfecture_jp":"富山県","jp_add_1":"富山市","jp_add_2":"山田牧"},"9302105":{"post_code":"9302105","prefecture":"TOYAMA KEN","city":"TOYAMA SHI","town":"YAMADA YU","perfecture_jp":"富山県","jp_add_1":"富山市","jp_add_2":"山田湯"},"9302112":{"post_code":"9302112","prefecture":"TOYAMA KEN","city":"TOYAMA SHI","town":"YAMADA WAKAZUCHI","perfecture_jp":"富山県","jp_add_1":"富山市","jp_add_2":"山田若土"},"9300019":{"post_code":"9300019","prefecture":"TOYAMA KEN","city":"TOYAMA SHI","town":"YAYOICHO","perfecture_jp":"富山県","jp_add_1":"富山市","jp_add_2":"弥生町"},"9302243":{"post_code":"9302243","prefecture":"TOYAMA KEN","city":"TOYAMA SHI","town":"YOKATAARAYA","perfecture_jp":"富山県","jp_add_1":"富山市","jp_add_2":"四方"},"9302255":{"post_code":"9302255","prefecture":"TOYAMA KEN","city":"TOYAMA SHI","town":"YOKATAICHIBAMMACHI","perfecture_jp":"富山県","jp_add_1":"富山市","jp_add_2":"四方一番町"},"9302245":{"post_code":"9302245","prefecture":"TOYAMA KEN","city":"TOYAMA SHI","town":"YOKATAEDAIMACHI","perfecture_jp":"富山県","jp_add_1":"富山市","jp_add_2":"四方江代町"},"9302258":{"post_code":"9302258","prefecture":"TOYAMA KEN","city":"TOYAMA SHI","town":"YOKATAEBISUMACHI","perfecture_jp":"富山県","jp_add_1":"富山市","jp_add_2":"四方恵比須町"},"9302242":{"post_code":"9302242","prefecture":"TOYAMA KEN","city":"TOYAMA SHI","town":"YOKATAKITAKUBO","perfecture_jp":"富山県","jp_add_1":"富山市","jp_add_2":"四方北窪"},"9302246":{"post_code":"9302246","prefecture":"TOYAMA KEN","city":"TOYAMA SHI","town":"YOKATASHIN","perfecture_jp":"富山県","jp_add_1":"富山市","jp_add_2":"四方新"},"9302247":{"post_code":"9302247","prefecture":"TOYAMA KEN","city":"TOYAMA SHI","town":"YOKATASHINDEMACHI","perfecture_jp":"富山県","jp_add_1":"富山市","jp_add_2":"四方新出町"},"9302254":{"post_code":"9302254","prefecture":"TOYAMA KEN","city":"TOYAMA SHI","town":"YOKATASHIMMEIMACHI","perfecture_jp":"富山県","jp_add_1":"富山市","jp_add_2":"四方神明町"},"9302253":{"post_code":"9302253","prefecture":"TOYAMA KEN","city":"TOYAMA SHI","town":"YOKATATAMACHI","perfecture_jp":"富山県","jp_add_1":"富山市","jp_add_2":"四方田町"},"9302244":{"post_code":"9302244","prefecture":"TOYAMA KEN","city":"TOYAMA SHI","town":"YOKATACHAEMMACHI","perfecture_jp":"富山県","jp_add_1":"富山市","jp_add_2":"四方茶園町"},"9302241":{"post_code":"9302241","prefecture":"TOYAMA KEN","city":"TOYAMA SHI","town":"YOKATANISHIIWASE","perfecture_jp":"富山県","jp_add_1":"富山市","jp_add_2":"四方西岩瀬"},"9302252":{"post_code":"9302252","prefecture":"TOYAMA KEN","city":"TOYAMA SHI","town":"YOKATANOWARIMACHI","perfecture_jp":"富山県","jp_add_1":"富山市","jp_add_2":"四方西野割町"},"9302257":{"post_code":"9302257","prefecture":"TOYAMA KEN","city":"TOYAMA SHI","town":"YOKATANIBAMMACHI","perfecture_jp":"富山県","jp_add_1":"富山市","jp_add_2":"四方二番町"},"9302251":{"post_code":"9302251","prefecture":"TOYAMA KEN","city":"TOYAMA SHI","town":"YOKATAHIGASHINOWARIMACHI","perfecture_jp":"富山県","jp_add_1":"富山市","jp_add_2":"四方東野割町"},"9302256":{"post_code":"9302256","prefecture":"TOYAMA KEN","city":"TOYAMA SHI","town":"YOKATAMINATOMACHI","perfecture_jp":"富山県","jp_add_1":"富山市","jp_add_2":"四方港町"},"9302248":{"post_code":"9302248","prefecture":"TOYAMA KEN","city":"TOYAMA SHI","town":"YOKATAMINAMIMACHI","perfecture_jp":"富山県","jp_add_1":"富山市","jp_add_2":"四方南町"},"9300142":{"post_code":"9300142","prefecture":"TOYAMA KEN","city":"TOYAMA SHI","town":"YOSHIZUKURI","perfecture_jp":"富山県","jp_add_1":"富山市","jp_add_2":"吉作"},"9300141":{"post_code":"9300141","prefecture":"TOYAMA KEN","city":"TOYAMA SHI","town":"YOSHIZUKURISHIMMACHI","perfecture_jp":"富山県","jp_add_1":"富山市","jp_add_2":"吉作新町"},"9300841":{"post_code":"9300841","prefecture":"TOYAMA KEN","city":"TOYAMA SHI","town":"YOTSUBACHO","perfecture_jp":"富山県","jp_add_1":"富山市","jp_add_2":"四ツ葉町"},"9301461":{"post_code":"9301461","prefecture":"TOYAMA KEN","city":"TOYAMA SHI","town":"WADA","perfecture_jp":"富山県","jp_add_1":"富山市","jp_add_2":"和田"},"9300200":{"post_code":"9300200","prefecture":"TOYAMA KEN","city":"NAKANIIKAWA GUN TATEYAMA MACHI","town":"IKANIKEISAIGANAIBAAI","perfecture_jp":"富山県","jp_add_1":"中新川郡舟橋村","jp_add_2":""},"9300287":{"post_code":"9300287","prefecture":"TOYAMA KEN","city":"NAKANIIKAWA GUN FUNAHASHI MURA","town":"INARI","perfecture_jp":"富山県","jp_add_1":"中新川郡舟橋村","jp_add_2":"稲荷"},"9300283":{"post_code":"9300283","prefecture":"TOYAMA KEN","city":"NAKANIIKAWA GUN FUNAHASHI MURA","town":"EBIE","perfecture_jp":"富山県","jp_add_1":"中新川郡舟橋村","jp_add_2":"海老江"},"9300288":{"post_code":"9300288","prefecture":"TOYAMA KEN","city":"NAKANIIKAWA GUN FUNAHASHI MURA","town":"KUNISHIGE","perfecture_jp":"富山県","jp_add_1":"中新川郡舟橋村","jp_add_2":"国重"},"9300289":{"post_code":"9300289","prefecture":"TOYAMA KEN","city":"NAKANIIKAWA GUN FUNAHASHI MURA","town":"TAKENOCHI","perfecture_jp":"富山県","jp_add_1":"中新川郡舟橋村","jp_add_2":"竹内"},"9300284":{"post_code":"9300284","prefecture":"TOYAMA KEN","city":"NAKANIIKAWA GUN FUNAHASHI MURA","town":"TAKEHANA","perfecture_jp":"富山県","jp_add_1":"中新川郡舟橋村","jp_add_2":"竹鼻"},"9300286":{"post_code":"9300286","prefecture":"TOYAMA KEN","city":"NAKANIIKAWA GUN FUNAHASHI MURA","town":"HIGASHIASHIHARA","perfecture_jp":"富山県","jp_add_1":"中新川郡舟橋村","jp_add_2":"東芦原"},"9300282":{"post_code":"9300282","prefecture":"TOYAMA KEN","city":"NAKANIIKAWA GUN FUNAHASHI MURA","town":"BUSSHOJI","perfecture_jp":"富山県","jp_add_1":"中新川郡舟橋村","jp_add_2":"仏生寺"},"9300281":{"post_code":"9300281","prefecture":"TOYAMA KEN","city":"NAKANIIKAWA GUN FUNAHASHI MURA","town":"FUNAHASHI","perfecture_jp":"富山県","jp_add_1":"中新川郡舟橋村","jp_add_2":"舟橋"},"9300285":{"post_code":"9300285","prefecture":"TOYAMA KEN","city":"NAKANIIKAWA GUN FUNAHASHI MURA","town":"FURUEBIE","perfecture_jp":"富山県","jp_add_1":"中新川郡舟橋村","jp_add_2":"古海老江"},"9300300":{"post_code":"9300300","prefecture":"TOYAMA KEN","city":"NAKANIIKAWA GUN KAMIICHI MACHI","town":"IKANIKEISAIGANAIBAAI","perfecture_jp":"富山県","jp_add_1":"中新川郡上市町","jp_add_2":""},"9300374":{"post_code":"9300374","prefecture":"TOYAMA KEN","city":"NAKANIIKAWA GUN KAMIICHI MACHI","town":"AINOKISHIMMACHI","perfecture_jp":"富山県","jp_add_1":"中新川郡上市町","jp_add_2":"相ノ木新町"},"9300384":{"post_code":"9300384","prefecture":"TOYAMA KEN","city":"NAKANIIKAWA GUN KAMIICHI MACHI","town":"AOIDESHIN","perfecture_jp":"富山県","jp_add_1":"中新川郡上市町","jp_add_2":"青出新"},"9300331":{"post_code":"9300331","prefecture":"TOYAMA KEN","city":"NAKANIIKAWA GUN KAMIICHI MACHI","town":"ASAHIMACHI","perfecture_jp":"富山県","jp_add_1":"中新川郡上市町","jp_add_2":"旭町"},"9300464":{"post_code":"9300464","prefecture":"TOYAMA KEN","city":"NAKANIIKAWA GUN KAMIICHI MACHI","town":"ASO","perfecture_jp":"富山県","jp_add_1":"中新川郡上市町","jp_add_2":"浅生"},"9300377":{"post_code":"9300377","prefecture":"TOYAMA KEN","city":"NAKANIIKAWA GUN KAMIICHI MACHI","town":"ARASHIMIZU","perfecture_jp":"富山県","jp_add_1":"中新川郡上市町","jp_add_2":"新清水"},"9300471":{"post_code":"9300471","prefecture":"TOYAMA KEN","city":"NAKANIIKAWA GUN KAMIICHI MACHI","town":"ARAYA","perfecture_jp":"富山県","jp_add_1":"中新川郡上市町","jp_add_2":"新屋"},"9300305":{"post_code":"9300305","prefecture":"TOYAMA KEN","city":"NAKANIIKAWA GUN KAMIICHI MACHI","town":"ARETA","perfecture_jp":"富山県","jp_add_1":"中新川郡上市町","jp_add_2":"荒田"},"9300385":{"post_code":"9300385","prefecture":"TOYAMA KEN","city":"NAKANIIKAWA GUN KAMIICHI MACHI","town":"IIZAKA","perfecture_jp":"富山県","jp_add_1":"中新川郡上市町","jp_add_2":"飯坂"},"9300387":{"post_code":"9300387","prefecture":"TOYAMA KEN","city":"NAKANIIKAWA GUN KAMIICHI MACHI","town":"IIZAKASHIN","perfecture_jp":"富山県","jp_add_1":"中新川郡上市町","jp_add_2":"飯坂新"},"9300437":{"post_code":"9300437","prefecture":"TOYAMA KEN","city":"NAKANIIKAWA GUN KAMIICHI MACHI","town":"IORI","perfecture_jp":"富山県","jp_add_1":"中新川郡上市町","jp_add_2":"伊折"},"9300332":{"post_code":"9300332","prefecture":"TOYAMA KEN","city":"NAKANIIKAWA GUN KAMIICHI MACHI","town":"ISHIURACHO","perfecture_jp":"富山県","jp_add_1":"中新川郡上市町","jp_add_2":"石浦町"},"9300302":{"post_code":"9300302","prefecture":"TOYAMA KEN","city":"NAKANIIKAWA GUN KAMIICHI MACHI","town":"ISHIBOTOKE","perfecture_jp":"富山県","jp_add_1":"中新川郡上市町","jp_add_2":"石仏"},"9300413":{"post_code":"9300413","prefecture":"TOYAMA KEN","city":"NAKANIIKAWA GUN KAMIICHI MACHI","town":"ICHINOKOSHI","perfecture_jp":"富山県","jp_add_1":"中新川郡上市町","jp_add_2":"一の越"},"9300432":{"post_code":"9300432","prefecture":"TOYAMA KEN","city":"NAKANIIKAWA GUN KAMIICHI MACHI","town":"INAMURA","perfecture_jp":"富山県","jp_add_1":"中新川郡上市町","jp_add_2":"稲村"},"9300414":{"post_code":"9300414","prefecture":"TOYAMA KEN","city":"NAKANIIKAWA GUN KAMIICHI MACHI","town":"EITAI","perfecture_jp":"富山県","jp_add_1":"中新川郡上市町","jp_add_2":"永代"},"9300318":{"post_code":"9300318","prefecture":"TOYAMA KEN","city":"NAKANIIKAWA GUN KAMIICHI MACHI","town":"EGAMI","perfecture_jp":"富山県","jp_add_1":"中新川郡上市町","jp_add_2":"江上"},"9300317":{"post_code":"9300317","prefecture":"TOYAMA KEN","city":"NAKANIIKAWA GUN KAMIICHI MACHI","town":"EMATA","perfecture_jp":"富山県","jp_add_1":"中新川郡上市町","jp_add_2":"江又"},"9300463":{"post_code":"9300463","prefecture":"TOYAMA KEN","city":"NAKANIIKAWA GUN KAMIICHI MACHI","town":"OIWA","perfecture_jp":"富山県","jp_add_1":"中新川郡上市町","jp_add_2":"大岩"},"9300465":{"post_code":"9300465","prefecture":"TOYAMA KEN","city":"NAKANIIKAWA GUN KAMIICHI MACHI","town":"OSAWA","perfecture_jp":"富山県","jp_add_1":"中新川郡上市町","jp_add_2":"大沢"},"9300354":{"post_code":"9300354","prefecture":"TOYAMA KEN","city":"NAKANIIKAWA GUN KAMIICHI MACHI","town":"OTSUBO","perfecture_jp":"富山県","jp_add_1":"中新川郡上市町","jp_add_2":"大坪"},"9300462":{"post_code":"9300462","prefecture":"TOYAMA KEN","city":"NAKANIIKAWA GUN KAMIICHI MACHI","town":"OMATSU","perfecture_jp":"富山県","jp_add_1":"中新川郡上市町","jp_add_2":"大松"},"9300461":{"post_code":"9300461","prefecture":"TOYAMA KEN","city":"NAKANIIKAWA GUN KAMIICHI MACHI","town":"OMATSUSHIN","perfecture_jp":"富山県","jp_add_1":"中新川郡上市町","jp_add_2":"大松新"},"9300303":{"post_code":"9300303","prefecture":"TOYAMA KEN","city":"NAKANIIKAWA GUN KAMIICHI MACHI","town":"ONAGATA","perfecture_jp":"富山県","jp_add_1":"中新川郡上市町","jp_add_2":"大永田"},"9300472":{"post_code":"9300472","prefecture":"TOYAMA KEN","city":"NAKANIIKAWA GUN KAMIICHI MACHI","town":"ONAGAWA","perfecture_jp":"富山県","jp_add_1":"中新川郡上市町","jp_add_2":"女川"},"9300435":{"post_code":"9300435","prefecture":"TOYAMA KEN","city":"NAKANIIKAWA GUN KAMIICHI MACHI","town":"ORITO","perfecture_jp":"富山県","jp_add_1":"中新川郡上市町","jp_add_2":"折戸"},"9300473":{"post_code":"9300473","prefecture":"TOYAMA KEN","city":"NAKANIIKAWA GUN KAMIICHI MACHI","town":"KAKIZAWA","perfecture_jp":"富山県","jp_add_1":"中新川郡上市町","jp_add_2":"柿沢"},"9300406":{"post_code":"9300406","prefecture":"TOYAMA KEN","city":"NAKANIIKAWA GUN KAMIICHI MACHI","town":"KAKIZAWASHIN","perfecture_jp":"富山県","jp_add_1":"中新川郡上市町","jp_add_2":"柿沢新"},"9300346":{"post_code":"9300346","prefecture":"TOYAMA KEN","city":"NAKANIIKAWA GUN KAMIICHI MACHI","town":"KAGICHO","perfecture_jp":"富山県","jp_add_1":"中新川郡上市町","jp_add_2":"鍵町"},"9300421":{"post_code":"9300421","prefecture":"TOYAMA KEN","city":"NAKANIIKAWA GUN KAMIICHI MACHI","town":"KATAJI","perfecture_jp":"富山県","jp_add_1":"中新川郡上市町","jp_add_2":"片地"},"9300375":{"post_code":"9300375","prefecture":"TOYAMA KEN","city":"NAKANIIKAWA GUN KAMIICHI MACHI","town":"KAMIARAMATA","perfecture_jp":"富山県","jp_add_1":"中新川郡上市町","jp_add_2":"上荒又"},"9300372":{"post_code":"9300372","prefecture":"TOYAMA KEN","city":"NAKANIIKAWA GUN KAMIICHI MACHI","town":"KAMIKYODEN","perfecture_jp":"富山県","jp_add_1":"中新川郡上市町","jp_add_2":"上経田"},"9300356":{"post_code":"9300356","prefecture":"TOYAMA KEN","city":"NAKANIIKAWA GUN KAMIICHI MACHI","town":"KAMISHO","perfecture_jp":"富山県","jp_add_1":"中新川郡上市町","jp_add_2":"上正"},"9300333":{"post_code":"9300333","prefecture":"TOYAMA KEN","city":"NAKANIIKAWA GUN KAMIICHI MACHI","town":"KAMINAKAMACHI","perfecture_jp":"富山県","jp_add_1":"中新川郡上市町","jp_add_2":"上中町"},"9300352":{"post_code":"9300352","prefecture":"TOYAMA KEN","city":"NAKANIIKAWA GUN KAMIICHI MACHI","town":"KAMIHOONJI","perfecture_jp":"富山県","jp_add_1":"中新川郡上市町","jp_add_2":"上法音寺"},"9300368":{"post_code":"9300368","prefecture":"TOYAMA KEN","city":"NAKANIIKAWA GUN KAMIICHI MACHI","town":"KAWAHARADA","perfecture_jp":"富山県","jp_add_1":"中新川郡上市町","jp_add_2":"川原田"},"9300351":{"post_code":"9300351","prefecture":"TOYAMA KEN","city":"NAKANIIKAWA GUN KAMIICHI MACHI","town":"KITAJIMA","perfecture_jp":"富山県","jp_add_1":"中新川郡上市町","jp_add_2":"北島"},"9300347":{"post_code":"9300347","prefecture":"TOYAMA KEN","city":"NAKANIIKAWA GUN KAMIICHI MACHI","town":"KUMANOMACHI","perfecture_jp":"富山県","jp_add_1":"中新川郡上市町","jp_add_2":"熊野町"},"9300416":{"post_code":"9300416","prefecture":"TOYAMA KEN","city":"NAKANIIKAWA GUN KAMIICHI MACHI","town":"KUROKAWA","perfecture_jp":"富山県","jp_add_1":"中新川郡上市町","jp_add_2":"黒川"},"9300434":{"post_code":"9300434","prefecture":"TOYAMA KEN","city":"NAKANIIKAWA GUN KAMIICHI MACHI","town":"GEDA","perfecture_jp":"富山県","jp_add_1":"中新川郡上市町","jp_add_2":"下田"},"9300417":{"post_code":"9300417","prefecture":"TOYAMA KEN","city":"NAKANIIKAWA GUN KAMIICHI MACHI","town":"GOIO","perfecture_jp":"富山県","jp_add_1":"中新川郡上市町","jp_add_2":"五位尾"},"9300405":{"post_code":"9300405","prefecture":"TOYAMA KEN","city":"NAKANIIKAWA GUN KAMIICHI MACHI","town":"GOKAKIZAWA","perfecture_jp":"富山県","jp_add_1":"中新川郡上市町","jp_add_2":"郷柿沢"},"9300451":{"post_code":"9300451","prefecture":"TOYAMA KEN","city":"NAKANIIKAWA GUN KAMIICHI MACHI","town":"GOKURAKUJI","perfecture_jp":"富山県","jp_add_1":"中新川郡上市町","jp_add_2":"極楽寺"},"9300443":{"post_code":"9300443","prefecture":"TOYAMA KEN","city":"NAKANIIKAWA GUN KAMIICHI MACHI","town":"KOTSUHARA","perfecture_jp":"富山県","jp_add_1":"中新川郡上市町","jp_add_2":"骨原"},"9300424":{"post_code":"9300424","prefecture":"TOYAMA KEN","city":"NAKANIIKAWA GUN KAMIICHI MACHI","town":"SAINOKAMISHIN","perfecture_jp":"富山県","jp_add_1":"中新川郡上市町","jp_add_2":"斉ノ神新"},"9300335":{"post_code":"9300335","prefecture":"TOYAMA KEN","city":"NAKANIIKAWA GUN KAMIICHI MACHI","town":"SAIWAICHO","perfecture_jp":"富山県","jp_add_1":"中新川郡上市町","jp_add_2":"幸町"},"9300322":{"post_code":"9300322","prefecture":"TOYAMA KEN","city":"NAKANIIKAWA GUN KAMIICHI MACHI","town":"SAKAECHO","perfecture_jp":"富山県","jp_add_1":"中新川郡上市町","jp_add_2":"栄町"},"9300422":{"post_code":"9300422","prefecture":"TOYAMA KEN","city":"NAKANIIKAWA GUN KAMIICHI MACHI","town":"SAKKA","perfecture_jp":"富山県","jp_add_1":"中新川郡上市町","jp_add_2":"眼目"},"9300458":{"post_code":"9300458","prefecture":"TOYAMA KEN","city":"NAKANIIKAWA GUN KAMIICHI MACHI","town":"SAKKASHIN","perfecture_jp":"富山県","jp_add_1":"中新川郡上市町","jp_add_2":"眼目新"},"9300467":{"post_code":"9300467","prefecture":"TOYAMA KEN","city":"NAKANIIKAWA GUN KAMIICHI MACHI","town":"SHIONOTANI","perfecture_jp":"富山県","jp_add_1":"中新川郡上市町","jp_add_2":"塩谷"},"9300382":{"post_code":"9300382","prefecture":"TOYAMA KEN","city":"NAKANIIKAWA GUN KAMIICHI MACHI","town":"SHIMOAOIDE","perfecture_jp":"富山県","jp_add_1":"中新川郡上市町","jp_add_2":"下青出"},"9300376":{"post_code":"9300376","prefecture":"TOYAMA KEN","city":"NAKANIIKAWA GUN KAMIICHI MACHI","town":"SHIMOARAMATA","perfecture_jp":"富山県","jp_add_1":"中新川郡上市町","jp_add_2":"下荒又"},"9300373":{"post_code":"9300373","prefecture":"TOYAMA KEN","city":"NAKANIIKAWA GUN KAMIICHI MACHI","town":"SHIMOKYODEN","perfecture_jp":"富山県","jp_add_1":"中新川郡上市町","jp_add_2":"下経田"},"9300431":{"post_code":"9300431","prefecture":"TOYAMA KEN","city":"NAKANIIKAWA GUN KAMIICHI MACHI","town":"SHAKUSENJI","perfecture_jp":"富山県","jp_add_1":"中新川郡上市町","jp_add_2":"釈泉寺"},"9300357":{"post_code":"9300357","prefecture":"TOYAMA KEN","city":"NAKANIIKAWA GUN KAMIICHI MACHI","town":"SHOIN","perfecture_jp":"富山県","jp_add_1":"中新川郡上市町","jp_add_2":"正印"},"9300358":{"post_code":"9300358","prefecture":"TOYAMA KEN","city":"NAKANIIKAWA GUN KAMIICHI MACHI","town":"SHOINSHIN","perfecture_jp":"富山県","jp_add_1":"中新川郡上市町","jp_add_2":"正印新"},"9300383":{"post_code":"9300383","prefecture":"TOYAMA KEN","city":"NAKANIIKAWA GUN KAMIICHI MACHI","town":"JOJOOKI","perfecture_jp":"富山県","jp_add_1":"中新川郡上市町","jp_add_2":"上条沖"},"9300365":{"post_code":"9300365","prefecture":"TOYAMA KEN","city":"NAKANIIKAWA GUN KAMIICHI MACHI","town":"JINDEN","perfecture_jp":"富山県","jp_add_1":"中新川郡上市町","jp_add_2":"神田"},"9300324":{"post_code":"9300324","prefecture":"TOYAMA KEN","city":"NAKANIIKAWA GUN KAMIICHI MACHI","town":"SHIMMACHI","perfecture_jp":"富山県","jp_add_1":"中新川郡上市町","jp_add_2":"新町"},"9300366":{"post_code":"9300366","prefecture":"TOYAMA KEN","city":"NAKANIIKAWA GUN KAMIICHI MACHI","town":"SHIMMURA","perfecture_jp":"富山県","jp_add_1":"中新川郡上市町","jp_add_2":"新村"},"9300342":{"post_code":"9300342","prefecture":"TOYAMA KEN","city":"NAKANIIKAWA GUN KAMIICHI MACHI","town":"SHIMMEIMACHI","perfecture_jp":"富山県","jp_add_1":"中新川郡上市町","jp_add_2":"神明町"},"9300411":{"post_code":"9300411","prefecture":"TOYAMA KEN","city":"NAKANIIKAWA GUN KAMIICHI MACHI","town":"SUNABAYASHIBIRAKI","perfecture_jp":"富山県","jp_add_1":"中新川郡上市町","jp_add_2":"砂林開"},"9300452":{"post_code":"9300452","prefecture":"TOYAMA KEN","city":"NAKANIIKAWA GUN KAMIICHI MACHI","town":"SUYAMA","perfecture_jp":"富山県","jp_add_1":"中新川郡上市町","jp_add_2":"須山"},"9300442":{"post_code":"9300442","prefecture":"TOYAMA KEN","city":"NAKANIIKAWA GUN KAMIICHI MACHI","town":"SENGOKU","perfecture_jp":"富山県","jp_add_1":"中新川郡上市町","jp_add_2":"千石"},"9300301":{"post_code":"9300301","prefecture":"TOYAMA KEN","city":"NAKANIIKAWA GUN KAMIICHI MACHI","town":"TAKEHANA","perfecture_jp":"富山県","jp_add_1":"中新川郡上市町","jp_add_2":"竹鼻"},"9300425":{"post_code":"9300425","prefecture":"TOYAMA KEN","city":"NAKANIIKAWA GUN KAMIICHI MACHI","town":"TAJIMANO","perfecture_jp":"富山県","jp_add_1":"中新川郡上市町","jp_add_2":"田島野"},"9300474":{"post_code":"9300474","prefecture":"TOYAMA KEN","city":"NAKANIIKAWA GUN KAMIICHI MACHI","town":"TACHI","perfecture_jp":"富山県","jp_add_1":"中新川郡上市町","jp_add_2":"舘"},"9300453":{"post_code":"9300453","prefecture":"TOYAMA KEN","city":"NAKANIIKAWA GUN KAMIICHI MACHI","town":"TSUTSUMIDANI","perfecture_jp":"富山県","jp_add_1":"中新川郡上市町","jp_add_2":"堤谷"},"9300321":{"post_code":"9300321","prefecture":"TOYAMA KEN","city":"NAKANIIKAWA GUN KAMIICHI MACHI","town":"TENJIMMACHI","perfecture_jp":"富山県","jp_add_1":"中新川郡上市町","jp_add_2":"天神町"},"9300386":{"post_code":"9300386","prefecture":"TOYAMA KEN","city":"NAKANIIKAWA GUN KAMIICHI MACHI","town":"NAKAAOIDE","perfecture_jp":"富山県","jp_add_1":"中新川郡上市町","jp_add_2":"中青出"},"9300313":{"post_code":"9300313","prefecture":"TOYAMA KEN","city":"NAKANIIKAWA GUN KAMIICHI MACHI","town":"NAKAEGAMI","perfecture_jp":"富山県","jp_add_1":"中新川郡上市町","jp_add_2":"中江上"},"9300371":{"post_code":"9300371","prefecture":"TOYAMA KEN","city":"NAKANIIKAWA GUN KAMIICHI MACHI","town":"NAKAKAIHOTSU","perfecture_jp":"富山県","jp_add_1":"中新川郡上市町","jp_add_2":"中開発"},"9300316":{"post_code":"9300316","prefecture":"TOYAMA KEN","city":"NAKANIIKAWA GUN KAMIICHI MACHI","town":"NAKAKOIZUMI","perfecture_jp":"富山県","jp_add_1":"中新川郡上市町","jp_add_2":"中小泉"},"9300433":{"post_code":"9300433","prefecture":"TOYAMA KEN","city":"NAKANIIKAWA GUN KAMIICHI MACHI","town":"NAKAMURA","perfecture_jp":"富山県","jp_add_1":"中新川郡上市町","jp_add_2":"中村"},"9300341":{"post_code":"9300341","prefecture":"TOYAMA KEN","city":"NAKANIIKAWA GUN KAMIICHI MACHI","town":"NISHIKICHO","perfecture_jp":"富山県","jp_add_1":"中新川郡上市町","jp_add_2":"錦町"},"9300444":{"post_code":"9300444","prefecture":"TOYAMA KEN","city":"NAKANIIKAWA GUN KAMIICHI MACHI","town":"NISHITANE","perfecture_jp":"富山県","jp_add_1":"中新川郡上市町","jp_add_2":"西種"},"9300323":{"post_code":"9300323","prefecture":"TOYAMA KEN","city":"NAKANIIKAWA GUN KAMIICHI MACHI","town":"NISHICHO","perfecture_jp":"富山県","jp_add_1":"中新川郡上市町","jp_add_2":"西町"},"9300334":{"post_code":"9300334","prefecture":"TOYAMA KEN","city":"NAKANIIKAWA GUN KAMIICHI MACHI","town":"NISHINAKAMACHI","perfecture_jp":"富山県","jp_add_1":"中新川郡上市町","jp_add_2":"西中町"},"9300403":{"post_code":"9300403","prefecture":"TOYAMA KEN","city":"NAKANIIKAWA GUN KAMIICHI MACHI","town":"NOKAIHOTSU","perfecture_jp":"富山県","jp_add_1":"中新川郡上市町","jp_add_2":"野開発"},"9300423":{"post_code":"9300423","prefecture":"TOYAMA KEN","city":"NAKANIIKAWA GUN KAMIICHI MACHI","town":"NOJIMA","perfecture_jp":"富山県","jp_add_1":"中新川郡上市町","jp_add_2":"野島"},"9300367":{"post_code":"9300367","prefecture":"TOYAMA KEN","city":"NAKANIIKAWA GUN KAMIICHI MACHI","town":"NOFUKU","perfecture_jp":"富山県","jp_add_1":"中新川郡上市町","jp_add_2":"野福"},"9300438":{"post_code":"9300438","prefecture":"TOYAMA KEN","city":"NAKANIIKAWA GUN KAMIICHI MACHI","town":"BAMBAJIMA","perfecture_jp":"富山県","jp_add_1":"中新川郡上市町","jp_add_2":"馬場島"},"9300362":{"post_code":"9300362","prefecture":"TOYAMA KEN","city":"NAKANIIKAWA GUN KAMIICHI MACHI","town":"HIEDA","perfecture_jp":"富山県","jp_add_1":"中新川郡上市町","jp_add_2":"稗田"},"9300312":{"post_code":"9300312","prefecture":"TOYAMA KEN","city":"NAKANIIKAWA GUN KAMIICHI MACHI","town":"HIGASHIEGAMI","perfecture_jp":"富山県","jp_add_1":"中新川郡上市町","jp_add_2":"東江上"},"9300441":{"post_code":"9300441","prefecture":"TOYAMA KEN","city":"NAKANIIKAWA GUN KAMIICHI MACHI","town":"HIGASHITANE","perfecture_jp":"富山県","jp_add_1":"中新川郡上市町","jp_add_2":"東種"},"9300343":{"post_code":"9300343","prefecture":"TOYAMA KEN","city":"NAKANIIKAWA GUN KAMIICHI MACHI","town":"HIGASHIMACHI","perfecture_jp":"富山県","jp_add_1":"中新川郡上市町","jp_add_2":"東町"},"9300381":{"post_code":"9300381","prefecture":"TOYAMA KEN","city":"NAKANIIKAWA GUN KAMIICHI MACHI","town":"HISAGANE","perfecture_jp":"富山県","jp_add_1":"中新川郡上市町","jp_add_2":"久金"},"9300388":{"post_code":"9300388","prefecture":"TOYAMA KEN","city":"NAKANIIKAWA GUN KAMIICHI MACHI","town":"HISAGANESHIN","perfecture_jp":"富山県","jp_add_1":"中新川郡上市町","jp_add_2":"久金新"},"9300466":{"post_code":"9300466","prefecture":"TOYAMA KEN","city":"NAKANIIKAWA GUN KAMIICHI MACHI","town":"HINOTANI","perfecture_jp":"富山県","jp_add_1":"中新川郡上市町","jp_add_2":"桧谷"},"9300402":{"post_code":"9300402","prefecture":"TOYAMA KEN","city":"NAKANIIKAWA GUN KAMIICHI MACHI","town":"HIROICHISHIN","perfecture_jp":"富山県","jp_add_1":"中新川郡上市町","jp_add_2":"広市新"},"9300412":{"post_code":"9300412","prefecture":"TOYAMA KEN","city":"NAKANIIKAWA GUN KAMIICHI MACHI","town":"HIRONO","perfecture_jp":"富山県","jp_add_1":"中新川郡上市町","jp_add_2":"広野"},"9300401":{"post_code":"9300401","prefecture":"TOYAMA KEN","city":"NAKANIIKAWA GUN KAMIICHI MACHI","town":"HIRONOSHIN","perfecture_jp":"富山県","jp_add_1":"中新川郡上市町","jp_add_2":"広野新"},"9300353":{"post_code":"9300353","prefecture":"TOYAMA KEN","city":"NAKANIIKAWA GUN KAMIICHI MACHI","town":"HOONJI","perfecture_jp":"富山県","jp_add_1":"中新川郡上市町","jp_add_2":"法音寺"},"9300378":{"post_code":"9300378","prefecture":"TOYAMA KEN","city":"NAKANIIKAWA GUN KAMIICHI MACHI","town":"HOJIGASE","perfecture_jp":"富山県","jp_add_1":"中新川郡上市町","jp_add_2":"放士ケ瀬"},"9300379":{"post_code":"9300379","prefecture":"TOYAMA KEN","city":"NAKANIIKAWA GUN KAMIICHI MACHI","town":"HOJIGASESHIN","perfecture_jp":"富山県","jp_add_1":"中新川郡上市町","jp_add_2":"放士ケ瀬新"},"9300415":{"post_code":"9300415","prefecture":"TOYAMA KEN","city":"NAKANIIKAWA GUN KAMIICHI MACHI","town":"MATSUBARANO","perfecture_jp":"富山県","jp_add_1":"中新川郡上市町","jp_add_2":"松原野"},"9300336":{"post_code":"9300336","prefecture":"TOYAMA KEN","city":"NAKANIIKAWA GUN KAMIICHI MACHI","town":"MATSUWACHO","perfecture_jp":"富山県","jp_add_1":"中新川郡上市町","jp_add_2":"松和町"},"9300456":{"post_code":"9300456","prefecture":"TOYAMA KEN","city":"NAKANIIKAWA GUN KAMIICHI MACHI","town":"MARUYAMA","perfecture_jp":"富山県","jp_add_1":"中新川郡上市町","jp_add_2":"丸山"},"9300445":{"post_code":"9300445","prefecture":"TOYAMA KEN","city":"NAKANIIKAWA GUN KAMIICHI MACHI","town":"MIZUKAMI","perfecture_jp":"富山県","jp_add_1":"中新川郡上市町","jp_add_2":"水上"},"9300404":{"post_code":"9300404","prefecture":"TOYAMA KEN","city":"NAKANIIKAWA GUN KAMIICHI MACHI","town":"MISUGIMACHI","perfecture_jp":"富山県","jp_add_1":"中新川郡上市町","jp_add_2":"三杉町"},"9300325":{"post_code":"9300325","prefecture":"TOYAMA KEN","city":"NAKANIIKAWA GUN KAMIICHI MACHI","town":"MIKKAICHI","perfecture_jp":"富山県","jp_add_1":"中新川郡上市町","jp_add_2":"三日市"},"9300345":{"post_code":"9300345","prefecture":"TOYAMA KEN","city":"NAKANIIKAWA GUN KAMIICHI MACHI","town":"MINAMICHO","perfecture_jp":"富山県","jp_add_1":"中新川郡上市町","jp_add_2":"南町"},"9300304":{"post_code":"9300304","prefecture":"TOYAMA KEN","city":"NAKANIIKAWA GUN KAMIICHI MACHI","town":"MORIJIRI","perfecture_jp":"富山県","jp_add_1":"中新川郡上市町","jp_add_2":"森尻"},"9300344":{"post_code":"9300344","prefecture":"TOYAMA KEN","city":"NAKANIIKAWA GUN KAMIICHI MACHI","town":"MORIMOTOCHO","perfecture_jp":"富山県","jp_add_1":"中新川郡上市町","jp_add_2":"森元町"},"9300311":{"post_code":"9300311","prefecture":"TOYAMA KEN","city":"NAKANIIKAWA GUN KAMIICHI MACHI","town":"YAICHI","perfecture_jp":"富山県","jp_add_1":"中新川郡上市町","jp_add_2":"弥市"},"9300326":{"post_code":"9300326","prefecture":"TOYAMA KEN","city":"NAKANIIKAWA GUN KAMIICHI MACHI","town":"YANAGIMACHI","perfecture_jp":"富山県","jp_add_1":"中新川郡上市町","jp_add_2":"柳町"},"9300361":{"post_code":"9300361","prefecture":"TOYAMA KEN","city":"NAKANIIKAWA GUN KAMIICHI MACHI","town":"YUWANO","perfecture_jp":"富山県","jp_add_1":"中新川郡上市町","jp_add_2":"湯上野"},"9300455":{"post_code":"9300455","prefecture":"TOYAMA KEN","city":"NAKANIIKAWA GUN KAMIICHI MACHI","town":"YUSAKINO","perfecture_jp":"富山県","jp_add_1":"中新川郡上市町","jp_add_2":"湯崎野"},"9300454":{"post_code":"9300454","prefecture":"TOYAMA KEN","city":"NAKANIIKAWA GUN KAMIICHI MACHI","town":"YUNOMIKO","perfecture_jp":"富山県","jp_add_1":"中新川郡上市町","jp_add_2":"湯神子"},"9300457":{"post_code":"9300457","prefecture":"TOYAMA KEN","city":"NAKANIIKAWA GUN KAMIICHI MACHI","town":"YUNOMIKONO","perfecture_jp":"富山県","jp_add_1":"中新川郡上市町","jp_add_2":"湯神子野"},"9300364":{"post_code":"9300364","prefecture":"TOYAMA KEN","city":"NAKANIIKAWA GUN KAMIICHI MACHI","town":"YOKOGOSHI","perfecture_jp":"富山県","jp_add_1":"中新川郡上市町","jp_add_2":"横越"},"9300355":{"post_code":"9300355","prefecture":"TOYAMA KEN","city":"NAKANIIKAWA GUN KAMIICHI MACHI","town":"YOKOHOONJI","perfecture_jp":"富山県","jp_add_1":"中新川郡上市町","jp_add_2":"横法音寺"},"9300359":{"post_code":"9300359","prefecture":"TOYAMA KEN","city":"NAKANIIKAWA GUN KAMIICHI MACHI","town":"YOTSUBADAI","perfecture_jp":"富山県","jp_add_1":"中新川郡上市町","jp_add_2":"四葉台"},"9300436":{"post_code":"9300436","prefecture":"TOYAMA KEN","city":"NAKANIIKAWA GUN KAMIICHI MACHI","town":"YOMOGIZAWA","perfecture_jp":"富山県","jp_add_1":"中新川郡上市町","jp_add_2":"蓬沢"},"9300314":{"post_code":"9300314","prefecture":"TOYAMA KEN","city":"NAKANIIKAWA GUN KAMIICHI MACHI","town":"WAKASUGI","perfecture_jp":"富山県","jp_add_1":"中新川郡上市町","jp_add_2":"若杉"},"9300315":{"post_code":"9300315","prefecture":"TOYAMA KEN","city":"NAKANIIKAWA GUN KAMIICHI MACHI","town":"WAKASUGISHIN","perfecture_jp":"富山県","jp_add_1":"中新川郡上市町","jp_add_2":"若杉新"},"9300363":{"post_code":"9300363","prefecture":"TOYAMA KEN","city":"NAKANIIKAWA GUN KAMIICHI MACHI","town":"WAGO","perfecture_jp":"富山県","jp_add_1":"中新川郡上市町","jp_add_2":"和合"},"9301406":{"post_code":"9301406","prefecture":"TOYAMA KEN","city":"NAKANIIKAWA GUN TATEYAMA MACHI","town":"ASHIKURAJI","perfecture_jp":"富山県","jp_add_1":"中新川郡立山町","jp_add_2":"芦峅寺"},"9303242":{"post_code":"9303242","prefecture":"TOYAMA KEN","city":"NAKANIIKAWA GUN TATEYAMA MACHI","town":"ASHIMI","perfecture_jp":"富山県","jp_add_1":"中新川郡立山町","jp_add_2":"芦見"},"9300271":{"post_code":"9300271","prefecture":"TOYAMA KEN","city":"NAKANIIKAWA GUN TATEYAMA MACHI","town":"ASO","perfecture_jp":"富山県","jp_add_1":"中新川郡立山町","jp_add_2":"浅生"},"9303239":{"post_code":"9303239","prefecture":"TOYAMA KEN","city":"NAKANIIKAWA GUN TATEYAMA MACHI","town":"IKEDA","perfecture_jp":"富山県","jp_add_1":"中新川郡立山町","jp_add_2":"池田"},"9303215":{"post_code":"9303215","prefecture":"TOYAMA KEN","city":"NAKANIIKAWA GUN TATEYAMA MACHI","town":"ISHIZAKA","perfecture_jp":"富山県","jp_add_1":"中新川郡立山町","jp_add_2":"石坂"},"9301361":{"post_code":"9301361","prefecture":"TOYAMA KEN","city":"NAKANIIKAWA GUN TATEYAMA MACHI","town":"MISADA","perfecture_jp":"富山県","jp_add_1":"中新川郡立山町","jp_add_2":"伊豆林"},"9300201":{"post_code":"9300201","prefecture":"TOYAMA KEN","city":"NAKANIIKAWA GUN TATEYAMA MACHI","town":"IZUMI","perfecture_jp":"富山県","jp_add_1":"中新川郡立山町","jp_add_2":"泉"},"9303234":{"post_code":"9303234","prefecture":"TOYAMA KEN","city":"NAKANIIKAWA GUN TATEYAMA MACHI","town":"ISEYA","perfecture_jp":"富山県","jp_add_1":"中新川郡立山町","jp_add_2":"伊勢屋"},"9300256":{"post_code":"9300256","prefecture":"TOYAMA KEN","city":"NAKANIIKAWA GUN TATEYAMA MACHI","town":"IPPONGI","perfecture_jp":"富山県","jp_add_1":"中新川郡立山町","jp_add_2":"一本木"},"9300246":{"post_code":"9300246","prefecture":"TOYAMA KEN","city":"NAKANIIKAWA GUN TATEYAMA MACHI","town":"IMONOSHIZAWA","perfecture_jp":"富山県","jp_add_1":"中新川郡立山町","jp_add_2":"鋳物師沢"},"9301368":{"post_code":"9301368","prefecture":"TOYAMA KEN","city":"NAKANIIKAWA GUN TATEYAMA MACHI","town":"IWAKURAJI","perfecture_jp":"富山県","jp_add_1":"中新川郡立山町","jp_add_2":"岩峅寺"},"9301369":{"post_code":"9301369","prefecture":"TOYAMA KEN","city":"NAKANIIKAWA GUN TATEYAMA MACHI","town":"IWAKURANO","perfecture_jp":"富山県","jp_add_1":"中新川郡立山町","jp_add_2":"岩峅野"},"9300208":{"post_code":"9300208","prefecture":"TOYAMA KEN","city":"NAKANIIKAWA GUN TATEYAMA MACHI","town":"URADA","perfecture_jp":"富山県","jp_add_1":"中新川郡立山町","jp_add_2":"浦田"},"9300207":{"post_code":"9300207","prefecture":"TOYAMA KEN","city":"NAKANIIKAWA GUN TATEYAMA MACHI","town":"URADASHIN","perfecture_jp":"富山県","jp_add_1":"中新川郡立山町","jp_add_2":"浦田新"},"9303245":{"post_code":"9303245","prefecture":"TOYAMA KEN","city":"NAKANIIKAWA GUN TATEYAMA MACHI","town":"UWAZUE","perfecture_jp":"富山県","jp_add_1":"中新川郡立山町","jp_add_2":"上末"},"9303267":{"post_code":"9303267","prefecture":"TOYAMA KEN","city":"NAKANIIKAWA GUN TATEYAMA MACHI","town":"ESAKI","perfecture_jp":"富山県","jp_add_1":"中新川郡立山町","jp_add_2":"江崎"},"9300235":{"post_code":"9300235","prefecture":"TOYAMA KEN","city":"NAKANIIKAWA GUN TATEYAMA MACHI","town":"ENOKI","perfecture_jp":"富山県","jp_add_1":"中新川郡立山町","jp_add_2":"榎"},"9300261":{"post_code":"9300261","prefecture":"TOYAMA KEN","city":"NAKANIIKAWA GUN TATEYAMA MACHI","town":"OISHIHARA","perfecture_jp":"富山県","jp_add_1":"中新川郡立山町","jp_add_2":"大石原"},"9300216":{"post_code":"9300216","prefecture":"TOYAMA KEN","city":"NAKANIIKAWA GUN TATEYAMA MACHI","town":"OKUBO","perfecture_jp":"富山県","jp_add_1":"中新川郡立山町","jp_add_2":"大窪"},"9300253":{"post_code":"9300253","prefecture":"TOYAMA KEN","city":"NAKANIIKAWA GUN TATEYAMA MACHI","town":"OKUBOBIRAKI","perfecture_jp":"富山県","jp_add_1":"中新川郡立山町","jp_add_2":"大窪開"},"9300251":{"post_code":"9300251","prefecture":"TOYAMA KEN","city":"NAKANIIKAWA GUN TATEYAMA MACHI","town":"OSHIMA","perfecture_jp":"富山県","jp_add_1":"中新川郡立山町","jp_add_2":"大島"},"9300263":{"post_code":"9300263","prefecture":"TOYAMA KEN","city":"NAKANIIKAWA GUN TATEYAMA MACHI","town":"OSHOZU","perfecture_jp":"富山県","jp_add_1":"中新川郡立山町","jp_add_2":"大清水"},"9303202":{"post_code":"9303202","prefecture":"TOYAMA KEN","city":"NAKANIIKAWA GUN TATEYAMA MACHI","town":"ONAGAWASHIN","perfecture_jp":"富山県","jp_add_1":"中新川郡立山町","jp_add_2":"女川新"},"9303236":{"post_code":"9303236","prefecture":"TOYAMA KEN","city":"NAKANIIKAWA GUN TATEYAMA MACHI","town":"OMATA","perfecture_jp":"富山県","jp_add_1":"中新川郡立山町","jp_add_2":"小又"},"9300237":{"post_code":"9300237","prefecture":"TOYAMA KEN","city":"NAKANIIKAWA GUN TATEYAMA MACHI","town":"KAKINOKIZAWA","perfecture_jp":"富山県","jp_add_1":"中新川郡立山町","jp_add_2":"柿の木沢"},"9301402":{"post_code":"9301402","prefecture":"TOYAMA KEN","city":"NAKANIIKAWA GUN TATEYAMA MACHI","town":"KATSURADAI","perfecture_jp":"富山県","jp_add_1":"中新川郡立山町","jp_add_2":"桂台"},"9300233":{"post_code":"9300233","prefecture":"TOYAMA KEN","city":"NAKANIIKAWA GUN TATEYAMA MACHI","town":"KAMIKONGOJI","perfecture_jp":"富山県","jp_add_1":"中新川郡立山町","jp_add_2":"上金剛寺"},"9303244":{"post_code":"9303244","prefecture":"TOYAMA KEN","city":"NAKANIIKAWA GUN TATEYAMA MACHI","town":"KAMISETO","perfecture_jp":"富山県","jp_add_1":"中新川郡立山町","jp_add_2":"上瀬戸"},"9303251":{"post_code":"9303251","prefecture":"TOYAMA KEN","city":"NAKANIIKAWA GUN TATEYAMA MACHI","town":"KAMINAKA","perfecture_jp":"富山県","jp_add_1":"中新川郡立山町","jp_add_2":"上中"},"9303203":{"post_code":"9303203","prefecture":"TOYAMA KEN","city":"NAKANIIKAWA GUN TATEYAMA MACHI","town":"KAMIFUKURAI","perfecture_jp":"富山県","jp_add_1":"中新川郡立山町","jp_add_2":"上福来"},"9300223":{"post_code":"9300223","prefecture":"TOYAMA KEN","city":"NAKANIIKAWA GUN TATEYAMA MACHI","town":"KAMIHOKONOKI","perfecture_jp":"富山県","jp_add_1":"中新川郡立山町","jp_add_2":"上鉾木"},"9303254":{"post_code":"9303254","prefecture":"TOYAMA KEN","city":"NAKANIIKAWA GUN TATEYAMA MACHI","town":"KAMIMIYA","perfecture_jp":"富山県","jp_add_1":"中新川郡立山町","jp_add_2":"上宮"},"9300257":{"post_code":"9300257","prefecture":"TOYAMA KEN","city":"NAKANIIKAWA GUN TATEYAMA MACHI","town":"KAWARAGI","perfecture_jp":"富山県","jp_add_1":"中新川郡立山町","jp_add_2":"川原木"},"9300227":{"post_code":"9300227","prefecture":"TOYAMA KEN","city":"NAKANIIKAWA GUN TATEYAMA MACHI","town":"KUSANO","perfecture_jp":"富山県","jp_add_1":"中新川郡立山町","jp_add_2":"草野"},"9300262":{"post_code":"9300262","prefecture":"TOYAMA KEN","city":"NAKANIIKAWA GUN TATEYAMA MACHI","town":"KURAMOTOSHIN","perfecture_jp":"富山県","jp_add_1":"中新川郡立山町","jp_add_2":"蔵本新"},"9303255":{"post_code":"9303255","prefecture":"TOYAMA KEN","city":"NAKANIIKAWA GUN TATEYAMA MACHI","town":"KOBAYASHI","perfecture_jp":"富山県","jp_add_1":"中新川郡立山町","jp_add_2":"小林"},"9300214":{"post_code":"9300214","prefecture":"TOYAMA KEN","city":"NAKANIIKAWA GUN TATEYAMA MACHI","town":"GOHYAKUKOKU","perfecture_jp":"富山県","jp_add_1":"中新川郡立山町","jp_add_2":"五百石"},"9300274":{"post_code":"9300274","prefecture":"TOYAMA KEN","city":"NAKANIIKAWA GUN TATEYAMA MACHI","town":"GOROMARU","perfecture_jp":"富山県","jp_add_1":"中新川郡立山町","jp_add_2":"五郎丸"},"9300232":{"post_code":"9300232","prefecture":"TOYAMA KEN","city":"NAKANIIKAWA GUN TATEYAMA MACHI","town":"KONGOJI","perfecture_jp":"富山県","jp_add_1":"中新川郡立山町","jp_add_2":"金剛寺"},"9303262":{"post_code":"9303262","prefecture":"TOYAMA KEN","city":"NAKANIIKAWA GUN TATEYAMA MACHI","town":"KONGOSHIN","perfecture_jp":"富山県","jp_add_1":"中新川郡立山町","jp_add_2":"金剛新"},"9300231":{"post_code":"9300231","prefecture":"TOYAMA KEN","city":"NAKANIIKAWA GUN TATEYAMA MACHI","town":"SAKAIZAWA","perfecture_jp":"富山県","jp_add_1":"中新川郡立山町","jp_add_2":"坂井沢"},"9303238":{"post_code":"9303238","prefecture":"TOYAMA KEN","city":"NAKANIIKAWA GUN TATEYAMA MACHI","town":"ZASHUBO","perfecture_jp":"富山県","jp_add_1":"中新川郡立山町","jp_add_2":"座主坊"},"9303264":{"post_code":"9303264","prefecture":"TOYAMA KEN","city":"NAKANIIKAWA GUN TATEYAMA MACHI","town":"SAWASHIN","perfecture_jp":"富山県","jp_add_1":"中新川郡立山町","jp_add_2":"沢新"},"9300245":{"post_code":"9300245","prefecture":"TOYAMA KEN","city":"NAKANIIKAWA GUN TATEYAMA MACHI","town":"NAKAYAMA","perfecture_jp":"富山県","jp_add_1":"中新川郡立山町","jp_add_2":"沢中山"},"9300212":{"post_code":"9300212","prefecture":"TOYAMA KEN","city":"NAKANIIKAWA GUN TATEYAMA MACHI","town":"SAWAHATA","perfecture_jp":"富山県","jp_add_1":"中新川郡立山町","jp_add_2":"沢端"},"9300234":{"post_code":"9300234","prefecture":"TOYAMA KEN","city":"NAKANIIKAWA GUN TATEYAMA MACHI","town":"SHITADAN","perfecture_jp":"富山県","jp_add_1":"中新川郡立山町","jp_add_2":"下段"},"9303221":{"post_code":"9303221","prefecture":"TOYAMA KEN","city":"NAKANIIKAWA GUN TATEYAMA MACHI","town":"SHIDANIO","perfecture_jp":"富山県","jp_add_1":"中新川郡立山町","jp_add_2":"四谷尾"},"9303212":{"post_code":"9303212","prefecture":"TOYAMA KEN","city":"NAKANIIKAWA GUN TATEYAMA MACHI","town":"SHIBAYAMA","perfecture_jp":"富山県","jp_add_1":"中新川郡立山町","jp_add_2":"柴山"},"9303241":{"post_code":"9303241","prefecture":"TOYAMA KEN","city":"NAKANIIKAWA GUN TATEYAMA MACHI","town":"SHIMOZAWA","perfecture_jp":"富山県","jp_add_1":"中新川郡立山町","jp_add_2":"下沢"},"9303214":{"post_code":"9303214","prefecture":"TOYAMA KEN","city":"NAKANIIKAWA GUN TATEYAMA MACHI","town":"SHIMOSHIRAIWA","perfecture_jp":"富山県","jp_add_1":"中新川郡立山町","jp_add_2":"下白岩"},"9303208":{"post_code":"9303208","prefecture":"TOYAMA KEN","city":"NAKANIIKAWA GUN TATEYAMA MACHI","town":"SHIMOSHIN","perfecture_jp":"富山県","jp_add_1":"中新川郡立山町","jp_add_2":"下新"},"9303243":{"post_code":"9303243","prefecture":"TOYAMA KEN","city":"NAKANIIKAWA GUN TATEYAMA MACHI","town":"SHIMOSETO","perfecture_jp":"富山県","jp_add_1":"中新川郡立山町","jp_add_2":"下瀬戸"},"9301401":{"post_code":"9301401","prefecture":"TOYAMA KEN","city":"NAKANIIKAWA GUN TATEYAMA MACHI","town":"SHOMYO","perfecture_jp":"富山県","jp_add_1":"中新川郡立山町","jp_add_2":"称名"},"9303224":{"post_code":"9303224","prefecture":"TOYAMA KEN","city":"NAKANIIKAWA GUN TATEYAMA MACHI","town":"SHIRAIWA","perfecture_jp":"富山県","jp_add_1":"中新川郡立山町","jp_add_2":"白岩"},"9303248":{"post_code":"9303248","prefecture":"TOYAMA KEN","city":"NAKANIIKAWA GUN TATEYAMA MACHI","town":"SHINSETO","perfecture_jp":"富山県","jp_add_1":"中新川郡立山町","jp_add_2":"新瀬戸"},"9300236":{"post_code":"9300236","prefecture":"TOYAMA KEN","city":"NAKANIIKAWA GUN TATEYAMA MACHI","town":"SHIMBORI","perfecture_jp":"富山県","jp_add_1":"中新川郡立山町","jp_add_2":"新堀"},"9303252":{"post_code":"9303252","prefecture":"TOYAMA KEN","city":"NAKANIIKAWA GUN TATEYAMA MACHI","town":"SUEUWANO","perfecture_jp":"富山県","jp_add_1":"中新川郡立山町","jp_add_2":"末上野"},"9300247":{"post_code":"9300247","prefecture":"TOYAMA KEN","city":"NAKANIIKAWA GUN TATEYAMA MACHI","town":"SUESANGA","perfecture_jp":"富山県","jp_add_1":"中新川郡立山町","jp_add_2":"末三賀"},"9300244":{"post_code":"9300244","prefecture":"TOYAMA KEN","city":"NAKANIIKAWA GUN TATEYAMA MACHI","town":"SUETANIGUCHI","perfecture_jp":"富山県","jp_add_1":"中新川郡立山町","jp_add_2":"末谷口"},"9303247":{"post_code":"9303247","prefecture":"TOYAMA KEN","city":"NAKANIIKAWA GUN TATEYAMA MACHI","town":"SETOSHIN","perfecture_jp":"富山県","jp_add_1":"中新川郡立山町","jp_add_2":"瀬戸新"},"9301405":{"post_code":"9301405","prefecture":"TOYAMA KEN","city":"NAKANIIKAWA GUN TATEYAMA MACHI","town":"SENJUGAHARA","perfecture_jp":"富山県","jp_add_1":"中新川郡立山町","jp_add_2":"千寿ケ原"},"9303201":{"post_code":"9303201","prefecture":"TOYAMA KEN","city":"NAKANIIKAWA GUN TATEYAMA MACHI","town":"TAKAHARA","perfecture_jp":"富山県","jp_add_1":"中新川郡立山町","jp_add_2":"高原"},"9300268":{"post_code":"9300268","prefecture":"TOYAMA KEN","city":"NAKANIIKAWA GUN TATEYAMA MACHI","town":"TAKAHARAYATSUYA","perfecture_jp":"富山県","jp_add_1":"中新川郡立山町","jp_add_2":"高原八ツ屋"},"9300206":{"post_code":"9300206","prefecture":"TOYAMA KEN","city":"NAKANIIKAWA GUN TATEYAMA MACHI","town":"TAKEHANASHIN","perfecture_jp":"富山県","jp_add_1":"中新川郡立山町","jp_add_2":"竹鼻新"},"9303206":{"post_code":"9303206","prefecture":"TOYAMA KEN","city":"NAKANIIKAWA GUN TATEYAMA MACHI","town":"TAKEBAYASHI","perfecture_jp":"富山県","jp_add_1":"中新川郡立山町","jp_add_2":"竹林"},"9300219":{"post_code":"9300219","prefecture":"TOYAMA KEN","city":"NAKANIIKAWA GUN TATEYAMA MACHI","town":"TAZOE","perfecture_jp":"富山県","jp_add_1":"中新川郡立山町","jp_add_2":"田添"},"9301418":{"post_code":"9301418","prefecture":"TOYAMA KEN","city":"NAKANIIKAWA GUN TATEYAMA MACHI","town":"TATEYAMACHOJO","perfecture_jp":"富山県","jp_add_1":"中新川郡立山町","jp_add_2":"立山頂上"},"9303233":{"post_code":"9303233","prefecture":"TOYAMA KEN","city":"NAKANIIKAWA GUN TATEYAMA MACHI","town":"TANI","perfecture_jp":"富山県","jp_add_1":"中新川郡立山町","jp_add_2":"谷"},"9303222":{"post_code":"9303222","prefecture":"TOYAMA KEN","city":"NAKANIIKAWA GUN TATEYAMA MACHI","town":"TANIGUCHI","perfecture_jp":"富山県","jp_add_1":"中新川郡立山町","jp_add_2":"谷口"},"9300228":{"post_code":"9300228","prefecture":"TOYAMA KEN","city":"NAKANIIKAWA GUN TATEYAMA MACHI","town":"TAYA","perfecture_jp":"富山県","jp_add_1":"中新川郡立山町","jp_add_2":"手屋"},"9301408":{"post_code":"9301408","prefecture":"TOYAMA KEN","city":"NAKANIIKAWA GUN TATEYAMA MACHI","town":"CHIGAKI","perfecture_jp":"富山県","jp_add_1":"中新川郡立山町","jp_add_2":"千垣"},"9300272":{"post_code":"9300272","prefecture":"TOYAMA KEN","city":"NAKANIIKAWA GUN TATEYAMA MACHI","town":"TSUKAGOSHI","perfecture_jp":"富山県","jp_add_1":"中新川郡立山町","jp_add_2":"塚越"},"9300211":{"post_code":"9300211","prefecture":"TOYAMA KEN","city":"NAKANIIKAWA GUN TATEYAMA MACHI","town":"TSUJI","perfecture_jp":"富山県","jp_add_1":"中新川郡立山町","jp_add_2":"辻"},"9301416":{"post_code":"9301416","prefecture":"TOYAMA KEN","city":"NAKANIIKAWA GUN TATEYAMA MACHI","town":"TSURUGIGOZEN","perfecture_jp":"富山県","jp_add_1":"中新川郡立山町","jp_add_2":"剣御前"},"9301417":{"post_code":"9301417","prefecture":"TOYAMA KEN","city":"NAKANIIKAWA GUN TATEYAMA MACHI","town":"TSURUGISAWA","perfecture_jp":"富山県","jp_add_1":"中新川郡立山町","jp_add_2":"剣沢"},"9300204":{"post_code":"9300204","prefecture":"TOYAMA KEN","city":"NAKANIIKAWA GUN TATEYAMA MACHI","town":"TERADA","perfecture_jp":"富山県","jp_add_1":"中新川郡立山町","jp_add_2":"寺田"},"9300209":{"post_code":"9300209","prefecture":"TOYAMA KEN","city":"NAKANIIKAWA GUN TATEYAMA MACHI","town":"TERADAKOTOBUKICHO","perfecture_jp":"富山県","jp_add_1":"中新川郡立山町","jp_add_2":"寺田ことぶき町"},"9300205":{"post_code":"9300205","prefecture":"TOYAMA KEN","city":"NAKANIIKAWA GUN TATEYAMA MACHI","town":"TERADASHIN","perfecture_jp":"富山県","jp_add_1":"中新川郡立山町","jp_add_2":"寺田新"},"9300242":{"post_code":"9300242","prefecture":"TOYAMA KEN","city":"NAKANIIKAWA GUN TATEYAMA MACHI","town":"TERATSUBO","perfecture_jp":"富山県","jp_add_1":"中新川郡立山町","jp_add_2":"寺坪"},"9301413":{"post_code":"9301413","prefecture":"TOYAMA KEN","city":"NAKANIIKAWA GUN TATEYAMA MACHI","town":"TENGUDAIRA","perfecture_jp":"富山県","jp_add_1":"中新川郡立山町","jp_add_2":"天狗平"},"9301364":{"post_code":"9301364","prefecture":"TOYAMA KEN","city":"NAKANIIKAWA GUN TATEYAMA MACHI","town":"TEMBAYASHI","perfecture_jp":"富山県","jp_add_1":"中新川郡立山町","jp_add_2":"天林"},"9300241":{"post_code":"9300241","prefecture":"TOYAMA KEN","city":"NAKANIIKAWA GUN TATEYAMA MACHI","town":"DOGENJI","perfecture_jp":"富山県","jp_add_1":"中新川郡立山町","jp_add_2":"道源寺"},"9300226":{"post_code":"9300226","prefecture":"TOYAMA KEN","city":"NAKANIIKAWA GUN TATEYAMA MACHI","town":"DOSHIN","perfecture_jp":"富山県","jp_add_1":"中新川郡立山町","jp_add_2":"道新"},"9301363":{"post_code":"9301363","prefecture":"TOYAMA KEN","city":"NAKANIIKAWA GUN TATEYAMA MACHI","town":"TOCHIZU","perfecture_jp":"富山県","jp_add_1":"中新川郡立山町","jp_add_2":"栃津"},"9300265":{"post_code":"9300265","prefecture":"TOYAMA KEN","city":"NAKANIIKAWA GUN TATEYAMA MACHI","town":"TOMARISHIN","perfecture_jp":"富山県","jp_add_1":"中新川郡立山町","jp_add_2":"泊新"},"9303235":{"post_code":"9303235","prefecture":"TOYAMA KEN","city":"NAKANIIKAWA GUN TATEYAMA MACHI","town":"NAGAKURA","perfecture_jp":"富山県","jp_add_1":"中新川郡立山町","jp_add_2":"長倉"},"9303246":{"post_code":"9303246","prefecture":"TOYAMA KEN","city":"NAKANIIKAWA GUN TATEYAMA MACHI","town":"NAKABAYASHI","perfecture_jp":"富山県","jp_add_1":"中新川郡立山町","jp_add_2":"中林"},"9303253":{"post_code":"9303253","prefecture":"TOYAMA KEN","city":"NAKANIIKAWA GUN TATEYAMA MACHI","town":"NAGAYA","perfecture_jp":"富山県","jp_add_1":"中新川郡立山町","jp_add_2":"長屋"},"9300269":{"post_code":"9300269","prefecture":"TOYAMA KEN","city":"NAKANIIKAWA GUN TATEYAMA MACHI","town":"NAKARIYA","perfecture_jp":"富山県","jp_add_1":"中新川郡立山町","jp_add_2":"半屋"},"9300224":{"post_code":"9300224","prefecture":"TOYAMA KEN","city":"NAKANIIKAWA GUN TATEYAMA MACHI","town":"NISHIASHIHARA","perfecture_jp":"富山県","jp_add_1":"中新川郡立山町","jp_add_2":"西芦原"},"9300267":{"post_code":"9300267","prefecture":"TOYAMA KEN","city":"NAKANIIKAWA GUN TATEYAMA MACHI","town":"NISHIOMORI","perfecture_jp":"富山県","jp_add_1":"中新川郡立山町","jp_add_2":"西大森"},"9303211":{"post_code":"9303211","prefecture":"TOYAMA KEN","city":"NAKANIIKAWA GUN TATEYAMA MACHI","town":"NITCHU","perfecture_jp":"富山県","jp_add_1":"中新川郡立山町","jp_add_2":"日中"},"9303213":{"post_code":"9303213","prefecture":"TOYAMA KEN","city":"NAKANIIKAWA GUN TATEYAMA MACHI","town":"NITCHUUWANO","perfecture_jp":"富山県","jp_add_1":"中新川郡立山町","jp_add_2":"日中上野"},"9300222":{"post_code":"9300222","prefecture":"TOYAMA KEN","city":"NAKANIIKAWA GUN TATEYAMA MACHI","town":"NUKITA","perfecture_jp":"富山県","jp_add_1":"中新川郡立山町","jp_add_2":"貫田"},"9300217":{"post_code":"9300217","prefecture":"TOYAMA KEN","city":"NAKANIIKAWA GUN TATEYAMA MACHI","town":"NOGUCHI","perfecture_jp":"富山県","jp_add_1":"中新川郡立山町","jp_add_2":"野口"},"9300213":{"post_code":"9300213","prefecture":"TOYAMA KEN","city":"NAKANIIKAWA GUN TATEYAMA MACHI","town":"NOGUCHISHIN","perfecture_jp":"富山県","jp_add_1":"中新川郡立山町","jp_add_2":"野口新"},"9303217":{"post_code":"9303217","prefecture":"TOYAMA KEN","city":"NAKANIIKAWA GUN TATEYAMA MACHI","town":"NOZAWA","perfecture_jp":"富山県","jp_add_1":"中新川郡立山町","jp_add_2":"野沢"},"9303261":{"post_code":"9303261","prefecture":"TOYAMA KEN","city":"NAKANIIKAWA GUN TATEYAMA MACHI","town":"NOMACHI","perfecture_jp":"富山県","jp_add_1":"中新川郡立山町","jp_add_2":"野町"},"9300248":{"post_code":"9300248","prefecture":"TOYAMA KEN","city":"NAKANIIKAWA GUN TATEYAMA MACHI","town":"NOMURA","perfecture_jp":"富山県","jp_add_1":"中新川郡立山町","jp_add_2":"野村"},"9300264":{"post_code":"9300264","prefecture":"TOYAMA KEN","city":"NAKANIIKAWA GUN TATEYAMA MACHI","town":"HIGASHIOMORI","perfecture_jp":"富山県","jp_add_1":"中新川郡立山町","jp_add_2":"東大森"},"9301365":{"post_code":"9301365","prefecture":"TOYAMA KEN","city":"NAKANIIKAWA GUN TATEYAMA MACHI","town":"HIGASHINAKANOSHIN","perfecture_jp":"富山県","jp_add_1":"中新川郡立山町","jp_add_2":"東中野新"},"9303204":{"post_code":"9303204","prefecture":"TOYAMA KEN","city":"NAKANIIKAWA GUN TATEYAMA MACHI","town":"HIGASHINO","perfecture_jp":"富山県","jp_add_1":"中新川郡立山町","jp_add_2":"東野"},"9301411":{"post_code":"9301411","prefecture":"TOYAMA KEN","city":"NAKANIIKAWA GUN TATEYAMA MACHI","town":"BIJODAIRA","perfecture_jp":"富山県","jp_add_1":"中新川郡立山町","jp_add_2":"美女平"},"9300252":{"post_code":"9300252","prefecture":"TOYAMA KEN","city":"NAKANIIKAWA GUN TATEYAMA MACHI","town":"HIMATA","perfecture_jp":"富山県","jp_add_1":"中新川郡立山町","jp_add_2":"日俣"},"9303216":{"post_code":"9303216","prefecture":"TOYAMA KEN","city":"NAKANIIKAWA GUN TATEYAMA MACHI","town":"FUKUTA","perfecture_jp":"富山県","jp_add_1":"中新川郡立山町","jp_add_2":"福田"},"9303205":{"post_code":"9303205","prefecture":"TOYAMA KEN","city":"NAKANIIKAWA GUN TATEYAMA MACHI","town":"FUKURAI","perfecture_jp":"富山県","jp_add_1":"中新川郡立山町","jp_add_2":"福来"},"9301404":{"post_code":"9301404","prefecture":"TOYAMA KEN","city":"NAKANIIKAWA GUN TATEYAMA MACHI","town":"FUJIBASHI","perfecture_jp":"富山県","jp_add_1":"中新川郡立山町","jp_add_2":"藤橋"},"9300218":{"post_code":"9300218","prefecture":"TOYAMA KEN","city":"NAKANIIKAWA GUN TATEYAMA MACHI","town":"FUTATSUZUKA","perfecture_jp":"富山県","jp_add_1":"中新川郡立山町","jp_add_2":"二ツ塚"},"9303263":{"post_code":"9303263","prefecture":"TOYAMA KEN","city":"NAKANIIKAWA GUN TATEYAMA MACHI","town":"FUCHIGAMI","perfecture_jp":"富山県","jp_add_1":"中新川郡立山町","jp_add_2":"淵上"},"9301403":{"post_code":"9301403","prefecture":"TOYAMA KEN","city":"NAKANIIKAWA GUN TATEYAMA MACHI","town":"BUNAZAKA","perfecture_jp":"富山県","jp_add_1":"中新川郡立山町","jp_add_2":"ブナ坂"},"9300254":{"post_code":"9300254","prefecture":"TOYAMA KEN","city":"NAKANIIKAWA GUN TATEYAMA MACHI","town":"FURUKAWA","perfecture_jp":"富山県","jp_add_1":"中新川郡立山町","jp_add_2":"古川"},"9300276":{"post_code":"9300276","prefecture":"TOYAMA KEN","city":"NAKANIIKAWA GUN TATEYAMA MACHI","town":"HOKONOKI","perfecture_jp":"富山県","jp_add_1":"中新川郡立山町","jp_add_2":"鉾ノ木"},"9300225":{"post_code":"9300225","prefecture":"TOYAMA KEN","city":"NAKANIIKAWA GUN TATEYAMA MACHI","town":"HONGOJIMA","perfecture_jp":"富山県","jp_add_1":"中新川郡立山町","jp_add_2":"本郷島"},"9300221":{"post_code":"9300221","prefecture":"TOYAMA KEN","city":"NAKANIIKAWA GUN TATEYAMA MACHI","town":"MAEZAWA","perfecture_jp":"富山県","jp_add_1":"中新川郡立山町","jp_add_2":"前沢"},"9303266":{"post_code":"9303266","prefecture":"TOYAMA KEN","city":"NAKANIIKAWA GUN TATEYAMA MACHI","town":"MAEZAWASHIN","perfecture_jp":"富山県","jp_add_1":"中新川郡立山町","jp_add_2":"前沢新"},"9300229":{"post_code":"9300229","prefecture":"TOYAMA KEN","city":"NAKANIIKAWA GUN TATEYAMA MACHI","town":"MAEZAWASHIMMACHI","perfecture_jp":"富山県","jp_add_1":"中新川郡立山町","jp_add_2":"前沢新町"},"9300220":{"post_code":"9300220","prefecture":"TOYAMA KEN","city":"NAKANIIKAWA GUN TATEYAMA MACHI","town":"MAEZAWACHUOMACHI","perfecture_jp":"富山県","jp_add_1":"中新川郡立山町","jp_add_2":"前沢中央町"},"9301407":{"post_code":"9301407","prefecture":"TOYAMA KEN","city":"NAKANIIKAWA GUN TATEYAMA MACHI","town":"MAETANI","perfecture_jp":"富山県","jp_add_1":"中新川郡立山町","jp_add_2":"前谷"},"9303237":{"post_code":"9303237","prefecture":"TOYAMA KEN","city":"NAKANIIKAWA GUN TATEYAMA MACHI","town":"MATSUKURA","perfecture_jp":"富山県","jp_add_1":"中新川郡立山町","jp_add_2":"松倉"},"9301412":{"post_code":"9301412","prefecture":"TOYAMA KEN","city":"NAKANIIKAWA GUN TATEYAMA MACHI","town":"MIDAGAHARA","perfecture_jp":"富山県","jp_add_1":"中新川郡立山町","jp_add_2":"弥陀ケ原"},"9300266":{"post_code":"9300266","prefecture":"TOYAMA KEN","city":"NAKANIIKAWA GUN TATEYAMA MACHI","town":"MITSUZUKASHIN","perfecture_jp":"富山県","jp_add_1":"中新川郡立山町","jp_add_2":"三ツ塚"},"9301367":{"post_code":"9301367","prefecture":"TOYAMA KEN","city":"NAKANIIKAWA GUN TATEYAMA MACHI","town":"MIYAJI","perfecture_jp":"富山県","jp_add_1":"中新川郡立山町","jp_add_2":"宮路"},"9300215":{"post_code":"9300215","prefecture":"TOYAMA KEN","city":"NAKANIIKAWA GUN TATEYAMA MACHI","town":"MIYANARI","perfecture_jp":"富山県","jp_add_1":"中新川郡立山町","jp_add_2":"宮成"},"9300255":{"post_code":"9300255","prefecture":"TOYAMA KEN","city":"NAKANIIKAWA GUN TATEYAMA MACHI","town":"MUKAISHINJO","perfecture_jp":"富山県","jp_add_1":"中新川郡立山町","jp_add_2":"向新庄"},"9303223":{"post_code":"9303223","prefecture":"TOYAMA KEN","city":"NAKANIIKAWA GUN TATEYAMA MACHI","town":"MUSHITANI","perfecture_jp":"富山県","jp_add_1":"中新川郡立山町","jp_add_2":"虫谷"},"9301414":{"post_code":"9301414","prefecture":"TOYAMA KEN","city":"NAKANIIKAWA GUN TATEYAMA MACHI","town":"MURODO","perfecture_jp":"富山県","jp_add_1":"中新川郡立山町","jp_add_2":"室堂"},"9303232":{"post_code":"9303232","prefecture":"TOYAMA KEN","city":"NAKANIIKAWA GUN TATEYAMA MACHI","town":"MEKKA","perfecture_jp":"富山県","jp_add_1":"中新川郡立山町","jp_add_2":"目桑"},"9303277":{"post_code":"9303277","prefecture":"TOYAMA KEN","city":"NAKANIIKAWA GUN TATEYAMA MACHI","town":"YOKOE(TAKANOCHIKU)","perfecture_jp":"富山県","jp_add_1":"中新川郡立山町","jp_add_2":"横江"},"9301377":{"post_code":"9301377","prefecture":"TOYAMA KEN","city":"NAKANIIKAWA GUN TATEYAMA MACHI","town":"YOKOE(TATEYAMACHIKU)","perfecture_jp":"富山県","jp_add_1":"中新川郡立山町","jp_add_2":"横江"},"9301366":{"post_code":"9301366","prefecture":"TOYAMA KEN","city":"NAKANIIKAWA GUN TATEYAMA MACHI","town":"YOKOENOBIRAKI","perfecture_jp":"富山県","jp_add_1":"中新川郡立山町","jp_add_2":"横江野開"},"9300273":{"post_code":"9300273","prefecture":"TOYAMA KEN","city":"NAKANIIKAWA GUN TATEYAMA MACHI","town":"YOKOZAWA","perfecture_jp":"富山県","jp_add_1":"中新川郡立山町","jp_add_2":"横沢"},"9301362":{"post_code":"9301362","prefecture":"TOYAMA KEN","city":"NAKANIIKAWA GUN TATEYAMA MACHI","town":"YONEMICHI (TANIUCHI.HIGASHIDANI)","perfecture_jp":"富山県","jp_add_1":"中新川郡立山町","jp_add_2":"吉峰野開"},"9303265":{"post_code":"9303265","prefecture":"TOYAMA KEN","city":"NAKANIIKAWA GUN TATEYAMA MACHI","town":"YONEZAWA","perfecture_jp":"富山県","jp_add_1":"中新川郡立山町","jp_add_2":"米沢"},"9300243":{"post_code":"9300243","prefecture":"TOYAMA KEN","city":"NAKANIIKAWA GUN TATEYAMA MACHI","town":"YONEMICHI(SONOTA)","perfecture_jp":"富山県","jp_add_1":"中新川郡立山町","jp_add_2":"米道"},"9301415":{"post_code":"9301415","prefecture":"TOYAMA KEN","city":"NAKANIIKAWA GUN TATEYAMA MACHI","town":"RAICHOZAWA","perfecture_jp":"富山県","jp_add_1":"中新川郡立山町","jp_add_2":"雷鳥沢"},"9300275":{"post_code":"9300275","prefecture":"TOYAMA KEN","city":"NAKANIIKAWA GUN TATEYAMA MACHI","town":"RITA","perfecture_jp":"富山県","jp_add_1":"中新川郡立山町","jp_add_2":"利田"},"9303231":{"post_code":"9303231","prefecture":"TOYAMA KEN","city":"NAKANIIKAWA GUN TATEYAMA MACHI","town":"ROKURODANI","perfecture_jp":"富山県","jp_add_1":"中新川郡立山町","jp_add_2":"六郎谷"},"9300203":{"post_code":"9300203","prefecture":"TOYAMA KEN","city":"NAKANIIKAWA GUN TATEYAMA MACHI","town":"WAKABAYASHI","perfecture_jp":"富山県","jp_add_1":"中新川郡立山町","jp_add_2":"若林"},"9300202":{"post_code":"9300202","prefecture":"TOYAMA KEN","city":"NAKANIIKAWA GUN TATEYAMA MACHI","town":"WAKAMIYA","perfecture_jp":"富山県","jp_add_1":"中新川郡立山町","jp_add_2":"若宮"}}