{"9318314":{"post_code":"9318314","prefecture":"TOYAMA KEN","city":"TOYAMA SHI","town":"AWAJIMAMACHI","perfecture_jp":"富山県","jp_add_1":"富山市","jp_add_2":"粟島町"},"9318321":{"post_code":"9318321","prefecture":"TOYAMA KEN","city":"TOYAMA SHI","town":"INUJIMA","perfecture_jp":"富山県","jp_add_1":"富山市","jp_add_2":"犬島"},"9318328":{"post_code":"9318328","prefecture":"TOYAMA KEN","city":"TOYAMA SHI","town":"INUJIMASHIMMACHI","perfecture_jp":"富山県","jp_add_1":"富山市","jp_add_2":"犬島新町"},"9318374":{"post_code":"9318374","prefecture":"TOYAMA KEN","city":"TOYAMA SHI","town":"IWASEAKADAMACHI","perfecture_jp":"富山県","jp_add_1":"富山市","jp_add_2":"岩瀬赤田町"},"9318372":{"post_code":"9318372","prefecture":"TOYAMA KEN","city":"TOYAMA SHI","town":"IWASEAMAIKECHO","perfecture_jp":"富山県","jp_add_1":"富山市","jp_add_2":"岩瀬天池町"},"9318346":{"post_code":"9318346","prefecture":"TOYAMA KEN","city":"TOYAMA SHI","town":"IWASEARAKIMACHI","perfecture_jp":"富山県","jp_add_1":"富山市","jp_add_2":"岩瀬荒木町"},"9318376":{"post_code":"9318376","prefecture":"TOYAMA KEN","city":"TOYAMA SHI","town":"IWASEIKEDAMACHI","perfecture_jp":"富山県","jp_add_1":"富山市","jp_add_2":"岩瀬池田町"},"9318365":{"post_code":"9318365","prefecture":"TOYAMA KEN","city":"TOYAMA SHI","town":"IWASEIRIFUNECHO","perfecture_jp":"富山県","jp_add_1":"富山市","jp_add_2":"岩瀬入船町"},"9318362":{"post_code":"9318362","prefecture":"TOYAMA KEN","city":"TOYAMA SHI","town":"IWASEUMEMOTOCHO","perfecture_jp":"富山県","jp_add_1":"富山市","jp_add_2":"岩瀬梅本町"},"9318356":{"post_code":"9318356","prefecture":"TOYAMA KEN","city":"TOYAMA SHI","town":"IWASEOMACHI","perfecture_jp":"富山県","jp_add_1":"富山市","jp_add_2":"岩瀬大町"},"9318341":{"post_code":"9318341","prefecture":"TOYAMA KEN","city":"TOYAMA SHI","town":"IWASEOKURAMACHI","perfecture_jp":"富山県","jp_add_1":"富山市","jp_add_2":"岩瀬御蔵町"},"9318352":{"post_code":"9318352","prefecture":"TOYAMA KEN","city":"TOYAMA SHI","town":"IWASEOMOTEMACHI","perfecture_jp":"富山県","jp_add_1":"富山市","jp_add_2":"岩瀬表町"},"9318354":{"post_code":"9318354","prefecture":"TOYAMA KEN","city":"TOYAMA SHI","town":"IWASEGIOMMACHI","perfecture_jp":"富山県","jp_add_1":"富山市","jp_add_2":"岩瀬祇園町"},"9318371":{"post_code":"9318371","prefecture":"TOYAMA KEN","city":"TOYAMA SHI","town":"IWASEKOSHIMACHI","perfecture_jp":"富山県","jp_add_1":"富山市","jp_add_2":"岩瀬古志町"},"9318343":{"post_code":"9318343","prefecture":"TOYAMA KEN","city":"TOYAMA SHI","town":"IWASESAIWAICHO","perfecture_jp":"富山県","jp_add_1":"富山市","jp_add_2":"岩瀬幸町"},"9318351":{"post_code":"9318351","prefecture":"TOYAMA KEN","city":"TOYAMA SHI","town":"IWASESAKAIMACHI","perfecture_jp":"富山県","jp_add_1":"富山市","jp_add_2":"岩瀬堺町"},"9318344":{"post_code":"9318344","prefecture":"TOYAMA KEN","city":"TOYAMA SHI","town":"IWASESHIMMACHI","perfecture_jp":"富山県","jp_add_1":"富山市","jp_add_2":"岩瀬新町"},"9318342":{"post_code":"9318342","prefecture":"TOYAMA KEN","city":"TOYAMA SHI","town":"IWASESHIMMEICHO","perfecture_jp":"富山県","jp_add_1":"富山市","jp_add_2":"岩瀬神明町"},"9318377":{"post_code":"9318377","prefecture":"TOYAMA KEN","city":"TOYAMA SHI","town":"IWASESUWAMACHI","perfecture_jp":"富山県","jp_add_1":"富山市","jp_add_2":"岩瀬諏訪町"},"9318375":{"post_code":"9318375","prefecture":"TOYAMA KEN","city":"TOYAMA SHI","town":"IWASETAKABATAKEMACHI","perfecture_jp":"富山県","jp_add_1":"富山市","jp_add_2":"岩瀬高畠町"},"9318378":{"post_code":"9318378","prefecture":"TOYAMA KEN","city":"TOYAMA SHI","town":"IWASETENJIMMACHI","perfecture_jp":"富山県","jp_add_1":"富山市","jp_add_2":"岩瀬天神町"},"9318347":{"post_code":"9318347","prefecture":"TOYAMA KEN","city":"TOYAMA SHI","town":"IWASEDOBAMACHI","perfecture_jp":"富山県","jp_add_1":"富山市","jp_add_2":"岩瀬土場町"},"9318363":{"post_code":"9318363","prefecture":"TOYAMA KEN","city":"TOYAMA SHI","town":"IWASENAKACHO","perfecture_jp":"富山県","jp_add_1":"富山市","jp_add_2":"岩瀬仲町"},"9318355":{"post_code":"9318355","prefecture":"TOYAMA KEN","city":"TOYAMA SHI","town":"IWASENIIKAWACHO","perfecture_jp":"富山県","jp_add_1":"富山市","jp_add_2":"岩瀬新川町"},"9318366":{"post_code":"9318366","prefecture":"TOYAMA KEN","city":"TOYAMA SHI","town":"IWASEHAGIURAMACHI","perfecture_jp":"富山県","jp_add_1":"富山市","jp_add_2":"岩瀬萩浦町"},"9318361":{"post_code":"9318361","prefecture":"TOYAMA KEN","city":"TOYAMA SHI","town":"IWASEHAKUSAMMACHI","perfecture_jp":"富山県","jp_add_1":"富山市","jp_add_2":"岩瀬白山町"},"9318357":{"post_code":"9318357","prefecture":"TOYAMA KEN","city":"TOYAMA SHI","town":"IWASEFUKURAIMACHI","perfecture_jp":"富山県","jp_add_1":"富山市","jp_add_2":"岩瀬福来町"},"9318353":{"post_code":"9318353","prefecture":"TOYAMA KEN","city":"TOYAMA SHI","town":"IWASEBUNKAMACHI","perfecture_jp":"富山県","jp_add_1":"富山市","jp_add_2":"岩瀬文化町"},"9318373":{"post_code":"9318373","prefecture":"TOYAMA KEN","city":"TOYAMA SHI","town":"IWASEMAEDAMACHI","perfecture_jp":"富山県","jp_add_1":"富山市","jp_add_2":"岩瀬前田町"},"9318367":{"post_code":"9318367","prefecture":"TOYAMA KEN","city":"TOYAMA SHI","town":"IWASEMATSUBARACHO","perfecture_jp":"富山県","jp_add_1":"富山市","jp_add_2":"岩瀬松原町"},"9318364":{"post_code":"9318364","prefecture":"TOYAMA KEN","city":"TOYAMA SHI","town":"IWASEMINATOMACHI","perfecture_jp":"富山県","jp_add_1":"富山市","jp_add_2":"岩瀬港町"},"9318327":{"post_code":"9318327","prefecture":"TOYAMA KEN","city":"TOYAMA SHI","town":"UWANOSHIN","perfecture_jp":"富山県","jp_add_1":"富山市","jp_add_2":"上野新"},"9318326":{"post_code":"9318326","prefecture":"TOYAMA KEN","city":"TOYAMA SHI","town":"UWANOSHIMMACHI","perfecture_jp":"富山県","jp_add_1":"富山市","jp_add_2":"上野新町"},"9318405":{"post_code":"9318405","prefecture":"TOYAMA KEN","city":"TOYAMA SHI","town":"KAIGANDORI","perfecture_jp":"富山県","jp_add_1":"富山市","jp_add_2":"海岸通"},"9318407":{"post_code":"9318407","prefecture":"TOYAMA KEN","city":"TOYAMA SHI","town":"KAIGANDORISHIMMACHI","perfecture_jp":"富山県","jp_add_1":"富山市","jp_add_2":"海岸通新町"},"9318404":{"post_code":"9318404","prefecture":"TOYAMA KEN","city":"TOYAMA SHI","town":"KAKOMACHI","perfecture_jp":"富山県","jp_add_1":"富山市","jp_add_2":"加古町"},"9318451":{"post_code":"9318451","prefecture":"TOYAMA KEN","city":"TOYAMA SHI","town":"GINREICHO","perfecture_jp":"富山県","jp_add_1":"富山市","jp_add_2":"銀嶺町"},"9318442":{"post_code":"9318442","prefecture":"TOYAMA KEN","city":"TOYAMA SHI","town":"KUSUNOKI","perfecture_jp":"富山県","jp_add_1":"富山市","jp_add_2":"楠木"},"9318411":{"post_code":"9318411","prefecture":"TOYAMA KEN","city":"TOYAMA SHI","town":"KORAI","perfecture_jp":"富山県","jp_add_1":"富山市","jp_add_2":"高来"},"9318417":{"post_code":"9318417","prefecture":"TOYAMA KEN","city":"TOYAMA SHI","town":"KOSHIMACHI","perfecture_jp":"富山県","jp_add_1":"富山市","jp_add_2":"古志町"},"9318435":{"post_code":"9318435","prefecture":"TOYAMA KEN","city":"TOYAMA SHI","town":"KONISHI","perfecture_jp":"富山県","jp_add_1":"富山市","jp_add_2":"小西"},"9318443":{"post_code":"9318443","prefecture":"TOYAMA KEN","city":"TOYAMA SHI","town":"SHIMOIINO","perfecture_jp":"富山県","jp_add_1":"富山市","jp_add_2":"下飯野"},"9318325":{"post_code":"9318325","prefecture":"TOYAMA KEN","city":"TOYAMA SHI","town":"JOGAWARA","perfecture_jp":"富山県","jp_add_1":"富山市","jp_add_2":"城川原"},"9318454":{"post_code":"9318454","prefecture":"TOYAMA KEN","city":"TOYAMA SHI","town":"SUMITOMOCHO","perfecture_jp":"富山県","jp_add_1":"富山市","jp_add_2":"住友町"},"9318409":{"post_code":"9318409","prefecture":"TOYAMA KEN","city":"TOYAMA SHI","town":"SEIFUCHO","perfecture_jp":"富山県","jp_add_1":"富山市","jp_add_2":"清風町"},"9318441":{"post_code":"9318441","prefecture":"TOYAMA KEN","city":"TOYAMA SHI","town":"TAKASHIMA","perfecture_jp":"富山県","jp_add_1":"富山市","jp_add_2":"高島"},"9318315":{"post_code":"9318315","prefecture":"TOYAMA KEN","city":"TOYAMA SHI","town":"TAKAZONOCHO","perfecture_jp":"富山県","jp_add_1":"富山市","jp_add_2":"高園町"},"9318336":{"post_code":"9318336","prefecture":"TOYAMA KEN","city":"TOYAMA SHI","town":"TAKABATAKEMACHI","perfecture_jp":"富山県","jp_add_1":"富山市","jp_add_2":"高畠町"},"9318403":{"post_code":"9318403","prefecture":"TOYAMA KEN","city":"TOYAMA SHI","town":"TABATA","perfecture_jp":"富山県","jp_add_1":"富山市","jp_add_2":"田畑"},"9318401":{"post_code":"9318401","prefecture":"TOYAMA KEN","city":"TOYAMA SHI","town":"TABATASHIMMACHI","perfecture_jp":"富山県","jp_add_1":"富山市","jp_add_2":"田畑新町"},"9318402":{"post_code":"9318402","prefecture":"TOYAMA KEN","city":"TOYAMA SHI","town":"TABATAHOKUBU","perfecture_jp":"富山県","jp_add_1":"富山市","jp_add_2":"田畑北部"},"9318334":{"post_code":"9318334","prefecture":"TOYAMA KEN","city":"TOYAMA SHI","town":"CHIHARAZAKI","perfecture_jp":"富山県","jp_add_1":"富山市","jp_add_2":"千原崎"},"9318445":{"post_code":"9318445","prefecture":"TOYAMA KEN","city":"TOYAMA SHI","town":"DOSHO","perfecture_jp":"富山県","jp_add_1":"富山市","jp_add_2":"道正"},"9318316":{"post_code":"9318316","prefecture":"TOYAMA KEN","city":"TOYAMA SHI","town":"TOYOKACHO","perfecture_jp":"富山県","jp_add_1":"富山市","jp_add_2":"豊丘町"},"9318322":{"post_code":"9318322","prefecture":"TOYAMA KEN","city":"TOYAMA SHI","town":"TOYOSHIMACHO","perfecture_jp":"富山県","jp_add_1":"富山市","jp_add_2":"豊島町"},"9318323":{"post_code":"9318323","prefecture":"TOYAMA KEN","city":"TOYAMA SHI","town":"TOYOSHIROSHIMMACHI","perfecture_jp":"富山県","jp_add_1":"富山市","jp_add_2":"豊城新町"},"9318324":{"post_code":"9318324","prefecture":"TOYAMA KEN","city":"TOYAMA SHI","town":"TOYOSHIROCHO","perfecture_jp":"富山県","jp_add_1":"富山市","jp_add_2":"豊城町"},"9318311":{"post_code":"9318311","prefecture":"TOYAMA KEN","city":"TOYAMA SHI","town":"TOYOTA","perfecture_jp":"富山県","jp_add_1":"富山市","jp_add_2":"豊田"},"9318312":{"post_code":"9318312","prefecture":"TOYAMA KEN","city":"TOYAMA SHI","town":"TOYOTAHOMMACHI","perfecture_jp":"富山県","jp_add_1":"富山市","jp_add_2":"豊田本町"},"9318313":{"post_code":"9318313","prefecture":"TOYAMA KEN","city":"TOYAMA SHI","town":"TOYOTAMACHI","perfecture_jp":"富山県","jp_add_1":"富山市","jp_add_2":"豊田町"},"9318305":{"post_code":"9318305","prefecture":"TOYAMA KEN","city":"TOYAMA SHI","town":"TOYOWAKACHO","perfecture_jp":"富山県","jp_add_1":"富山市","jp_add_2":"豊若町"},"9318456":{"post_code":"9318456","prefecture":"TOYAMA KEN","city":"TOYAMA SHI","town":"TOWAMACHI","perfecture_jp":"富山県","jp_add_1":"富山市","jp_add_2":"永久町"},"9318453":{"post_code":"9318453","prefecture":"TOYAMA KEN","city":"TOYAMA SHI","town":"NAKADA","perfecture_jp":"富山県","jp_add_1":"富山市","jp_add_2":"中田"},"9318408":{"post_code":"9318408","prefecture":"TOYAMA KEN","city":"TOYAMA SHI","town":"NACHIMACHI","perfecture_jp":"富山県","jp_add_1":"富山市","jp_add_2":"那智町"},"9318335":{"post_code":"9318335","prefecture":"TOYAMA KEN","city":"TOYAMA SHI","town":"NISHINOMIYAMACHI","perfecture_jp":"富山県","jp_add_1":"富山市","jp_add_2":"西宮町"},"9318345":{"post_code":"9318345","prefecture":"TOYAMA KEN","city":"TOYAMA SHI","town":"NISHIMIYA","perfecture_jp":"富山県","jp_add_1":"富山市","jp_add_2":"西宮"},"9318413":{"post_code":"9318413","prefecture":"TOYAMA KEN","city":"TOYAMA SHI","town":"NODA","perfecture_jp":"富山県","jp_add_1":"富山市","jp_add_2":"野田"},"9318422":{"post_code":"9318422","prefecture":"TOYAMA KEN","city":"TOYAMA SHI","town":"NONAKA","perfecture_jp":"富山県","jp_add_1":"富山市","jp_add_2":"野中"},"9318428":{"post_code":"9318428","prefecture":"TOYAMA KEN","city":"TOYAMA SHI","town":"NONAKASHIN","perfecture_jp":"富山県","jp_add_1":"富山市","jp_add_2":"野中新"},"9318333":{"post_code":"9318333","prefecture":"TOYAMA KEN","city":"TOYAMA SHI","town":"HASUMACHI","perfecture_jp":"富山県","jp_add_1":"富山市","jp_add_2":"蓮町"},"9318414":{"post_code":"9318414","prefecture":"TOYAMA KEN","city":"TOYAMA SHI","town":"HAMAKUROSAKI","perfecture_jp":"富山県","jp_add_1":"富山市","jp_add_2":"浜黒崎"},"9318433":{"post_code":"9318433","prefecture":"TOYAMA KEN","city":"TOYAMA SHI","town":"HARIWARASHIMMACHI","perfecture_jp":"富山県","jp_add_1":"富山市","jp_add_2":"針原新町"},"9318432":{"post_code":"9318432","prefecture":"TOYAMA KEN","city":"TOYAMA SHI","town":"HARIWARANAKA","perfecture_jp":"富山県","jp_add_1":"富山市","jp_add_2":"針原中"},"9318415":{"post_code":"9318415","prefecture":"TOYAMA KEN","city":"TOYAMA SHI","town":"HARIHI","perfecture_jp":"富山県","jp_add_1":"富山市","jp_add_2":"針日"},"9318431":{"post_code":"9318431","prefecture":"TOYAMA KEN","city":"TOYAMA SHI","town":"HARIWARANAKAMACHI","perfecture_jp":"富山県","jp_add_1":"富山市","jp_add_2":"針原中町"},"9318455":{"post_code":"9318455","prefecture":"TOYAMA KEN","city":"TOYAMA SHI","town":"HARUMIDAI","perfecture_jp":"富山県","jp_add_1":"富山市","jp_add_2":"晴海台"},"9318358":{"post_code":"9318358","prefecture":"TOYAMA KEN","city":"TOYAMA SHI","town":"HIGASHIIWASEMACHI","perfecture_jp":"富山県","jp_add_1":"富山市","jp_add_2":"東岩瀬町"},"9318359":{"post_code":"9318359","prefecture":"TOYAMA KEN","city":"TOYAMA SHI","town":"HIGASHIIWASEMURA","perfecture_jp":"富山県","jp_add_1":"富山市","jp_add_2":"東岩瀬村"},"9318444":{"post_code":"9318444","prefecture":"TOYAMA KEN","city":"TOYAMA SHI","town":"HIGASHIGAOKA","perfecture_jp":"富山県","jp_add_1":"富山市","jp_add_2":"東ケ丘"},"9318452":{"post_code":"9318452","prefecture":"TOYAMA KEN","city":"TOYAMA SHI","town":"HIGASHITOYAMAKOTOBUKICHO","perfecture_jp":"富山県","jp_add_1":"富山市","jp_add_2":"東富山寿町"},"9318416":{"post_code":"9318416","prefecture":"TOYAMA KEN","city":"TOYAMA SHI","town":"HIKATAE","perfecture_jp":"富山県","jp_add_1":"富山市","jp_add_2":"日方江"},"9318421":{"post_code":"9318421","prefecture":"TOYAMA KEN","city":"TOYAMA SHI","town":"HIRAENOKI","perfecture_jp":"富山県","jp_add_1":"富山市","jp_add_2":"平榎"},"9318423":{"post_code":"9318423","prefecture":"TOYAMA KEN","city":"TOYAMA SHI","town":"MACHIBUKURO","perfecture_jp":"富山県","jp_add_1":"富山市","jp_add_2":"町袋"},"9318406":{"post_code":"9318406","prefecture":"TOYAMA KEN","city":"TOYAMA SHI","town":"MATSURACHO","perfecture_jp":"富山県","jp_add_1":"富山市","jp_add_2":"松浦町"},"9318434":{"post_code":"9318434","prefecture":"TOYAMA KEN","city":"TOYAMA SHI","town":"MIKAMI","perfecture_jp":"富山県","jp_add_1":"富山市","jp_add_2":"三上"},"9318301":{"post_code":"9318301","prefecture":"TOYAMA KEN","city":"TOYAMA SHI","town":"MIZUOCHI","perfecture_jp":"富山県","jp_add_1":"富山市","jp_add_2":"水落"},"9318427":{"post_code":"9318427","prefecture":"TOYAMA KEN","city":"TOYAMA SHI","town":"MIYAJO","perfecture_jp":"富山県","jp_add_1":"富山市","jp_add_2":"宮条"},"9318436":{"post_code":"9318436","prefecture":"TOYAMA KEN","city":"TOYAMA SHI","town":"MIYAZONOCHO","perfecture_jp":"富山県","jp_add_1":"富山市","jp_add_2":"宮園町"},"9318425":{"post_code":"9318425","prefecture":"TOYAMA KEN","city":"TOYAMA SHI","town":"MIYANARI","perfecture_jp":"富山県","jp_add_1":"富山市","jp_add_2":"宮成"},"9318426":{"post_code":"9318426","prefecture":"TOYAMA KEN","city":"TOYAMA SHI","town":"MIYANARICHUBU","perfecture_jp":"富山県","jp_add_1":"富山市","jp_add_2":"宮成中部"},"9318437":{"post_code":"9318437","prefecture":"TOYAMA KEN","city":"TOYAMA SHI","town":"MIYAMACHI","perfecture_jp":"富山県","jp_add_1":"富山市","jp_add_2":"宮町"},"9318332":{"post_code":"9318332","prefecture":"TOYAMA KEN","city":"TOYAMA SHI","town":"MORI","perfecture_jp":"富山県","jp_add_1":"富山市","jp_add_2":"森"},"9318331":{"post_code":"9318331","prefecture":"TOYAMA KEN","city":"TOYAMA SHI","town":"MORIZUMICHO","perfecture_jp":"富山県","jp_add_1":"富山市","jp_add_2":"森住町"},"9318337":{"post_code":"9318337","prefecture":"TOYAMA KEN","city":"TOYAMA SHI","town":"MORIWAKACHO","perfecture_jp":"富山県","jp_add_1":"富山市","jp_add_2":"森若町"},"9318412":{"post_code":"9318412","prefecture":"TOYAMA KEN","city":"TOYAMA SHI","town":"YOKOGOSHI","perfecture_jp":"富山県","jp_add_1":"富山市","jp_add_2":"横越"},"9318303":{"post_code":"9318303","prefecture":"TOYAMA KEN","city":"TOYAMA SHI","town":"YONEDA","perfecture_jp":"富山県","jp_add_1":"富山市","jp_add_2":"米田"},"9318306":{"post_code":"9318306","prefecture":"TOYAMA KEN","city":"TOYAMA SHI","town":"YONEDASUZUKAKEDAI","perfecture_jp":"富山県","jp_add_1":"富山市","jp_add_2":"米田すずかけ台"},"9318304":{"post_code":"9318304","prefecture":"TOYAMA KEN","city":"TOYAMA SHI","town":"YONEDAMACHI","perfecture_jp":"富山県","jp_add_1":"富山市","jp_add_2":"米田町"},"9318302":{"post_code":"9318302","prefecture":"TOYAMA KEN","city":"TOYAMA SHI","town":"RYOKUYOMACHI","perfecture_jp":"富山県","jp_add_1":"富山市","jp_add_2":"緑陽町"}}