{"9360000":{"post_code":"9360000","prefecture":"TOYAMA KEN","city":"NAMERIKAWA SHI","town":"IKANIKEISAIGANAIBAAI","perfecture_jp":"富山県","jp_add_1":"滑川市","jp_add_2":""},"9360843":{"post_code":"9360843","prefecture":"TOYAMA KEN","city":"NAMERIKAWA SHI","town":"AKAHAMA","perfecture_jp":"富山県","jp_add_1":"滑川市","jp_add_2":"赤浜"},"9360842":{"post_code":"9360842","prefecture":"TOYAMA KEN","city":"NAMERIKAWA SHI","town":"AKAHAMASAKAEMACHI","perfecture_jp":"富山県","jp_add_1":"滑川市","jp_add_2":"赤浜栄町"},"9360033":{"post_code":"9360033","prefecture":"TOYAMA KEN","city":"NAMERIKAWA SHI","town":"AZUMACHO","perfecture_jp":"富山県","jp_add_1":"滑川市","jp_add_2":"吾妻町"},"9360034":{"post_code":"9360034","prefecture":"TOYAMA KEN","city":"NAMERIKAWA SHI","town":"AZUMACHO(KOYOSOKUSHINJUTAKU)","perfecture_jp":"富山県","jp_add_1":"滑川市","jp_add_2":"吾妻町"},"9360006":{"post_code":"9360006","prefecture":"TOYAMA KEN","city":"NAMERIKAWA SHI","town":"ARAMATA","perfecture_jp":"富山県","jp_add_1":"滑川市","jp_add_2":"荒俣"},"9360007":{"post_code":"9360007","prefecture":"TOYAMA KEN","city":"NAMERIKAWA SHI","town":"ARAMATASHIMMACHI","perfecture_jp":"富山県","jp_add_1":"滑川市","jp_add_2":"荒俣新町"},"9360042":{"post_code":"9360042","prefecture":"TOYAMA KEN","city":"NAMERIKAWA SHI","town":"ARAMACHI","perfecture_jp":"富山県","jp_add_1":"滑川市","jp_add_2":"荒町"},"9360855":{"post_code":"9360855","prefecture":"TOYAMA KEN","city":"NAMERIKAWA SHI","town":"ARIKANE","perfecture_jp":"富山県","jp_add_1":"滑川市","jp_add_2":"有金"},"9360055":{"post_code":"9360055","prefecture":"TOYAMA KEN","city":"NAMERIKAWA SHI","town":"IZUMIGAOKA","perfecture_jp":"富山県","jp_add_1":"滑川市","jp_add_2":"泉ケ丘"},"9360877":{"post_code":"9360877","prefecture":"TOYAMA KEN","city":"NAMERIKAWA SHI","town":"INAIZUMI","perfecture_jp":"富山県","jp_add_1":"滑川市","jp_add_2":"稲泉"},"9360876":{"post_code":"9360876","prefecture":"TOYAMA KEN","city":"NAMERIKAWA SHI","town":"INAIZUMISHIN","perfecture_jp":"富山県","jp_add_1":"滑川市","jp_add_2":"稲泉新"},"9360031":{"post_code":"9360031","prefecture":"TOYAMA KEN","city":"NAMERIKAWA SHI","town":"IMAMACHI","perfecture_jp":"富山県","jp_add_1":"滑川市","jp_add_2":"今町"},"9360077":{"post_code":"9360077","prefecture":"TOYAMA KEN","city":"NAMERIKAWA SHI","town":"UONOMI","perfecture_jp":"富山県","jp_add_1":"滑川市","jp_add_2":"魚躬"},"9360044":{"post_code":"9360044","prefecture":"TOYAMA KEN","city":"NAMERIKAWA SHI","town":"UMAMACHI","perfecture_jp":"富山県","jp_add_1":"滑川市","jp_add_2":"馬町"},"9360075":{"post_code":"9360075","prefecture":"TOYAMA KEN","city":"NAMERIKAWA SHI","town":"EJIRI","perfecture_jp":"富山県","jp_add_1":"滑川市","jp_add_2":"江尻"},"9360039":{"post_code":"9360039","prefecture":"TOYAMA KEN","city":"NAMERIKAWA SHI","town":"EBISUMACHI","perfecture_jp":"富山県","jp_add_1":"滑川市","jp_add_2":"夷子町"},"9360808":{"post_code":"9360808","prefecture":"TOYAMA KEN","city":"NAMERIKAWA SHI","town":"OIWAKE","perfecture_jp":"富山県","jp_add_1":"滑川市","jp_add_2":"追分"},"9360811":{"post_code":"9360811","prefecture":"TOYAMA KEN","city":"NAMERIKAWA SHI","town":"SHIMOORA","perfecture_jp":"富山県","jp_add_1":"滑川市","jp_add_2":"大浦"},"9360874":{"post_code":"9360874","prefecture":"TOYAMA KEN","city":"NAMERIKAWA SHI","town":"OENOKI","perfecture_jp":"富山県","jp_add_1":"滑川市","jp_add_2":"大榎"},"9360802":{"post_code":"9360802","prefecture":"TOYAMA KEN","city":"NAMERIKAWA SHI","town":"OGAKE","perfecture_jp":"富山県","jp_add_1":"滑川市","jp_add_2":"大掛"},"9360805":{"post_code":"9360805","prefecture":"TOYAMA KEN","city":"NAMERIKAWA SHI","town":"OKUBO","perfecture_jp":"富山県","jp_add_1":"滑川市","jp_add_2":"大窪"},"9360833":{"post_code":"9360833","prefecture":"TOYAMA KEN","city":"NAMERIKAWA SHI","town":"OSAKINO","perfecture_jp":"富山県","jp_add_1":"滑川市","jp_add_2":"大崎野"},"9360801":{"post_code":"9360801","prefecture":"TOYAMA KEN","city":"NAMERIKAWA SHI","town":"OJIMA","perfecture_jp":"富山県","jp_add_1":"滑川市","jp_add_2":"大島"},"9360871":{"post_code":"9360871","prefecture":"TOYAMA KEN","city":"NAMERIKAWA SHI","town":"OJIMASHIN","perfecture_jp":"富山県","jp_add_1":"滑川市","jp_add_2":"大島新"},"9360818":{"post_code":"9360818","prefecture":"TOYAMA KEN","city":"NAMERIKAWA SHI","town":"OBAYASHI","perfecture_jp":"富山県","jp_add_1":"滑川市","jp_add_2":"大林"},"9360047":{"post_code":"9360047","prefecture":"TOYAMA KEN","city":"NAMERIKAWA SHI","town":"OMACHI","perfecture_jp":"富山県","jp_add_1":"滑川市","jp_add_2":"大町"},"9360851":{"post_code":"9360851","prefecture":"TOYAMA KEN","city":"NAMERIKAWA SHI","town":"OKIDASHIN","perfecture_jp":"富山県","jp_add_1":"滑川市","jp_add_2":"沖田新"},"9360836":{"post_code":"9360836","prefecture":"TOYAMA KEN","city":"NAMERIKAWA SHI","town":"KAIYOJI","perfecture_jp":"富山県","jp_add_1":"滑川市","jp_add_2":"改養寺"},"9360004":{"post_code":"9360004","prefecture":"TOYAMA KEN","city":"NAMERIKAWA SHI","town":"KASAGI","perfecture_jp":"富山県","jp_add_1":"滑川市","jp_add_2":"笠木"},"9360068":{"post_code":"9360068","prefecture":"TOYAMA KEN","city":"NAMERIKAWA SHI","town":"KASHIMACHO","perfecture_jp":"富山県","jp_add_1":"滑川市","jp_add_2":"加島町"},"9360864":{"post_code":"9360864","prefecture":"TOYAMA KEN","city":"NAMERIKAWA SHI","town":"KANAYA","perfecture_jp":"富山県","jp_add_1":"滑川市","jp_add_2":"金屋"},"9360853":{"post_code":"9360853","prefecture":"TOYAMA KEN","city":"NAMERIKAWA SHI","town":"KAMIUMEZAWA","perfecture_jp":"富山県","jp_add_1":"滑川市","jp_add_2":"上梅沢"},"9360053":{"post_code":"9360053","prefecture":"TOYAMA KEN","city":"NAMERIKAWA SHI","town":"KAMIKOIZUMI","perfecture_jp":"富山県","jp_add_1":"滑川市","jp_add_2":"上小泉"},"9360054":{"post_code":"9360054","prefecture":"TOYAMA KEN","city":"NAMERIKAWA SHI","town":"KAMIKOIZUMI(KOYOSOKUSHINJUTAKU)","perfecture_jp":"富山県","jp_add_1":"滑川市","jp_add_2":"上小泉"},"9360852":{"post_code":"9360852","prefecture":"TOYAMA KEN","city":"NAMERIKAWA SHI","town":"KAMIJIMA","perfecture_jp":"富山県","jp_add_1":"滑川市","jp_add_2":"上島"},"9360046":{"post_code":"9360046","prefecture":"TOYAMA KEN","city":"NAMERIKAWA SHI","town":"KAWAURACHO","perfecture_jp":"富山県","jp_add_1":"滑川市","jp_add_2":"河浦町"},"9360064":{"post_code":"9360064","prefecture":"TOYAMA KEN","city":"NAMERIKAWA SHI","town":"KAWABATAMACHI","perfecture_jp":"富山県","jp_add_1":"滑川市","jp_add_2":"河端町"},"9360806":{"post_code":"9360806","prefecture":"TOYAMA KEN","city":"NAMERIKAWA SHI","town":"KITANO","perfecture_jp":"富山県","jp_add_1":"滑川市","jp_add_2":"北野"},"9360038":{"post_code":"9360038","prefecture":"TOYAMA KEN","city":"NAMERIKAWA SHI","town":"KITAMACHI","perfecture_jp":"富山県","jp_add_1":"滑川市","jp_add_2":"北町"},"9360803":{"post_code":"9360803","prefecture":"TOYAMA KEN","city":"NAMERIKAWA SHI","town":"KURIYAMA","perfecture_jp":"富山県","jp_add_1":"滑川市","jp_add_2":"栗山"},"9360026":{"post_code":"9360026","prefecture":"TOYAMA KEN","city":"NAMERIKAWA SHI","town":"KOENDORI","perfecture_jp":"富山県","jp_add_1":"滑川市","jp_add_2":"公園通り"},"9360854":{"post_code":"9360854","prefecture":"TOYAMA KEN","city":"NAMERIKAWA SHI","town":"KOBAYASHI","perfecture_jp":"富山県","jp_add_1":"滑川市","jp_add_2":"小林"},"9360066":{"post_code":"9360066","prefecture":"TOYAMA KEN","city":"NAMERIKAWA SHI","town":"KOMOHARA","perfecture_jp":"富山県","jp_add_1":"滑川市","jp_add_2":"菰原"},"9360067":{"post_code":"9360067","prefecture":"TOYAMA KEN","city":"NAMERIKAWA SHI","town":"KOMOHARADAI","perfecture_jp":"富山県","jp_add_1":"滑川市","jp_add_2":"菰原台"},"9360822":{"post_code":"9360822","prefecture":"TOYAMA KEN","city":"NAMERIKAWA SHI","town":"KOMORI","perfecture_jp":"富山県","jp_add_1":"滑川市","jp_add_2":"小森"},"9360073":{"post_code":"9360073","prefecture":"TOYAMA KEN","city":"NAMERIKAWA SHI","town":"SAIWAICHO","perfecture_jp":"富山県","jp_add_1":"滑川市","jp_add_2":"幸町"},"9360059":{"post_code":"9360059","prefecture":"TOYAMA KEN","city":"NAMERIKAWA SHI","town":"SARASHIYA","perfecture_jp":"富山県","jp_add_1":"滑川市","jp_add_2":"晒屋"},"9360001":{"post_code":"9360001","prefecture":"TOYAMA KEN","city":"NAMERIKAWA SHI","town":"SANGA","perfecture_jp":"富山県","jp_add_1":"滑川市","jp_add_2":"三ケ"},"9360069":{"post_code":"9360069","prefecture":"TOYAMA KEN","city":"NAMERIKAWA SHI","town":"SANNOMACHI","perfecture_jp":"富山県","jp_add_1":"滑川市","jp_add_2":"山王町"},"9360051":{"post_code":"9360051","prefecture":"TOYAMA KEN","city":"NAMERIKAWA SHI","town":"JIKEIMACHI","perfecture_jp":"富山県","jp_add_1":"滑川市","jp_add_2":"寺家町"},"9360035":{"post_code":"9360035","prefecture":"TOYAMA KEN","city":"NAMERIKAWA SHI","town":"SHIKENCHO","perfecture_jp":"富山県","jp_add_1":"滑川市","jp_add_2":"四間町"},"9360045":{"post_code":"9360045","prefecture":"TOYAMA KEN","city":"NAMERIKAWA SHI","town":"SHICHIKENCHO","perfecture_jp":"富山県","jp_add_1":"滑川市","jp_add_2":"七間町"},"9360841":{"post_code":"9360841","prefecture":"TOYAMA KEN","city":"NAMERIKAWA SHI","town":"SHIBA","perfecture_jp":"富山県","jp_add_1":"滑川市","jp_add_2":"柴"},"9360052":{"post_code":"9360052","prefecture":"TOYAMA KEN","city":"NAMERIKAWA SHI","town":"SHIMIZUCHO","perfecture_jp":"富山県","jp_add_1":"滑川市","jp_add_2":"清水町"},"9360857":{"post_code":"9360857","prefecture":"TOYAMA KEN","city":"NAMERIKAWA SHI","town":"SHIMOMEZAWA","perfecture_jp":"富山県","jp_add_1":"滑川市","jp_add_2":"下梅沢"},"9360058":{"post_code":"9360058","prefecture":"TOYAMA KEN","city":"NAMERIKAWA SHI","town":"SHIMOKOIZUMIMACHI","perfecture_jp":"富山県","jp_add_1":"滑川市","jp_add_2":"下小泉町"},"9360065":{"post_code":"9360065","prefecture":"TOYAMA KEN","city":"NAMERIKAWA SHI","town":"SHIMOJIMA","perfecture_jp":"富山県","jp_add_1":"滑川市","jp_add_2":"下島"},"9360817":{"post_code":"9360817","prefecture":"TOYAMA KEN","city":"NAMERIKAWA SHI","town":"SHIMONO","perfecture_jp":"富山県","jp_add_1":"滑川市","jp_add_2":"下野"},"9360848":{"post_code":"9360848","prefecture":"TOYAMA KEN","city":"NAMERIKAWA SHI","town":"JOKOJI","perfecture_jp":"富山県","jp_add_1":"滑川市","jp_add_2":"常光寺"},"9360060":{"post_code":"9360060","prefecture":"TOYAMA KEN","city":"NAMERIKAWA SHI","town":"JINKAMACHI","perfecture_jp":"富山県","jp_add_1":"滑川市","jp_add_2":"神家町"},"9360074":{"post_code":"9360074","prefecture":"TOYAMA KEN","city":"NAMERIKAWA SHI","town":"SHINTOMICHO","perfecture_jp":"富山県","jp_add_1":"滑川市","jp_add_2":"新富町"},"9360032":{"post_code":"9360032","prefecture":"TOYAMA KEN","city":"NAMERIKAWA SHI","town":"SHIMMEICHO","perfecture_jp":"富山県","jp_add_1":"滑川市","jp_add_2":"神明町"},"9360804":{"post_code":"9360804","prefecture":"TOYAMA KEN","city":"NAMERIKAWA SHI","town":"SUGIMOTO","perfecture_jp":"富山県","jp_add_1":"滑川市","jp_add_2":"杉本"},"9360063":{"post_code":"9360063","prefecture":"TOYAMA KEN","city":"NAMERIKAWA SHI","town":"SEWAMACHI","perfecture_jp":"富山県","jp_add_1":"滑川市","jp_add_2":"瀬羽町"},"9360813":{"post_code":"9360813","prefecture":"TOYAMA KEN","city":"NAMERIKAWA SHI","town":"DAINICHI","perfecture_jp":"富山県","jp_add_1":"滑川市","jp_add_2":"大日"},"9360856":{"post_code":"9360856","prefecture":"TOYAMA KEN","city":"NAMERIKAWA SHI","town":"DAIMON","perfecture_jp":"富山県","jp_add_1":"滑川市","jp_add_2":"大門"},"9360011":{"post_code":"9360011","prefecture":"TOYAMA KEN","city":"NAMERIKAWA SHI","town":"TAKATSUKA","perfecture_jp":"富山県","jp_add_1":"滑川市","jp_add_2":"高塚"},"9360012":{"post_code":"9360012","prefecture":"TOYAMA KEN","city":"NAMERIKAWA SHI","town":"TAKATSUKAAKEBONOCHO","perfecture_jp":"富山県","jp_add_1":"滑川市","jp_add_2":"高塚曙町"},"9360015":{"post_code":"9360015","prefecture":"TOYAMA KEN","city":"NAMERIKAWA SHI","town":"TAKATSUKAKOTOBUKIMACHI","perfecture_jp":"富山県","jp_add_1":"滑川市","jp_add_2":"高塚寿町"},"9360013":{"post_code":"9360013","prefecture":"TOYAMA KEN","city":"NAMERIKAWA SHI","town":"TAKATSUKASHINSHIEIJUTAKU","perfecture_jp":"富山県","jp_add_1":"滑川市","jp_add_2":"高塚新市営住宅"},"9360014":{"post_code":"9360014","prefecture":"TOYAMA KEN","city":"NAMERIKAWA SHI","town":"TAKATSUKASHIMMACHI","perfecture_jp":"富山県","jp_add_1":"滑川市","jp_add_2":"高塚新町"},"9360078":{"post_code":"9360078","prefecture":"TOYAMA KEN","city":"NAMERIKAWA SHI","town":"TAKATSUKIMACHI","perfecture_jp":"富山県","jp_add_1":"滑川市","jp_add_2":"高月町"},"9360076":{"post_code":"9360076","prefecture":"TOYAMA KEN","city":"NAMERIKAWA SHI","town":"TAKATSUKIMINAMIDAI","perfecture_jp":"富山県","jp_add_1":"滑川市","jp_add_2":"高月南台"},"9360849":{"post_code":"9360849","prefecture":"TOYAMA KEN","city":"NAMERIKAWA SHI","town":"TAKAYANAGI","perfecture_jp":"富山県","jp_add_1":"滑川市","jp_add_2":"高柳"},"9360024":{"post_code":"9360024","prefecture":"TOYAMA KEN","city":"NAMERIKAWA SHI","town":"TATSUNO","perfecture_jp":"富山県","jp_add_1":"滑川市","jp_add_2":"辰野"},"9360022":{"post_code":"9360022","prefecture":"TOYAMA KEN","city":"NAMERIKAWA SHI","town":"TATSUNOSHIMMACHI","perfecture_jp":"富山県","jp_add_1":"滑川市","jp_add_2":"辰野新町"},"9360056":{"post_code":"9360056","prefecture":"TOYAMA KEN","city":"NAMERIKAWA SHI","town":"TANAKASHIMMACHI","perfecture_jp":"富山県","jp_add_1":"滑川市","jp_add_2":"田中新町"},"9360057":{"post_code":"9360057","prefecture":"TOYAMA KEN","city":"NAMERIKAWA SHI","town":"TANAKAMACHI","perfecture_jp":"富山県","jp_add_1":"滑川市","jp_add_2":"田中町"},"9360826":{"post_code":"9360826","prefecture":"TOYAMA KEN","city":"NAMERIKAWA SHI","town":"TABAYASHI","perfecture_jp":"富山県","jp_add_1":"滑川市","jp_add_2":"田林"},"9360814":{"post_code":"9360814","prefecture":"TOYAMA KEN","city":"NAMERIKAWA SHI","town":"CHIDORI","perfecture_jp":"富山県","jp_add_1":"滑川市","jp_add_2":"千鳥"},"9360018":{"post_code":"9360018","prefecture":"TOYAMA KEN","city":"NAMERIKAWA SHI","town":"TSUBOKAWA","perfecture_jp":"富山県","jp_add_1":"滑川市","jp_add_2":"坪川"},"9360019":{"post_code":"9360019","prefecture":"TOYAMA KEN","city":"NAMERIKAWA SHI","town":"TSUBOKAWASHIN","perfecture_jp":"富山県","jp_add_1":"滑川市","jp_add_2":"坪川新"},"9360844":{"post_code":"9360844","prefecture":"TOYAMA KEN","city":"NAMERIKAWA SHI","town":"TERAMACHI","perfecture_jp":"富山県","jp_add_1":"滑川市","jp_add_2":"寺町"},"9360847":{"post_code":"9360847","prefecture":"TOYAMA KEN","city":"NAMERIKAWA SHI","town":"TEMBOCHO","perfecture_jp":"富山県","jp_add_1":"滑川市","jp_add_2":"天望町"},"9360838":{"post_code":"9360838","prefecture":"TOYAMA KEN","city":"NAMERIKAWA SHI","town":"DOJI","perfecture_jp":"富山県","jp_add_1":"滑川市","jp_add_2":"道寺"},"9360827":{"post_code":"9360827","prefecture":"TOYAMA KEN","city":"NAMERIKAWA SHI","town":"TOFUKUJI","perfecture_jp":"富山県","jp_add_1":"滑川市","jp_add_2":"東福寺"},"9360823":{"post_code":"9360823","prefecture":"TOYAMA KEN","city":"NAMERIKAWA SHI","town":"TOFUKUJI NO","perfecture_jp":"富山県","jp_add_1":"滑川市","jp_add_2":"東福寺野"},"9360834":{"post_code":"9360834","prefecture":"TOYAMA KEN","city":"NAMERIKAWA SHI","town":"TOFUKUJI BIRAKI","perfecture_jp":"富山県","jp_add_1":"滑川市","jp_add_2":"東福寺開"},"9360027":{"post_code":"9360027","prefecture":"TOYAMA KEN","city":"NAMERIKAWA SHI","town":"TOKIWACHO","perfecture_jp":"富山県","jp_add_1":"滑川市","jp_add_2":"常盤町"},"9360863":{"post_code":"9360863","prefecture":"TOYAMA KEN","city":"NAMERIKAWA SHI","town":"TOCHIYAMA","perfecture_jp":"富山県","jp_add_1":"滑川市","jp_add_2":"栃山"},"9360021":{"post_code":"9360021","prefecture":"TOYAMA KEN","city":"NAMERIKAWA SHI","town":"NAKAGAWARA","perfecture_jp":"富山県","jp_add_1":"滑川市","jp_add_2":"中川原"},"9360861":{"post_code":"9360861","prefecture":"TOYAMA KEN","city":"NAMERIKAWA SHI","town":"NAKASHIN","perfecture_jp":"富山県","jp_add_1":"滑川市","jp_add_2":"中新"},"9360875":{"post_code":"9360875","prefecture":"TOYAMA KEN","city":"NAMERIKAWA SHI","town":"NAKATSUKA","perfecture_jp":"富山県","jp_add_1":"滑川市","jp_add_2":"中塚"},"9360816":{"post_code":"9360816","prefecture":"TOYAMA KEN","city":"NAMERIKAWA SHI","town":"NAKANO","perfecture_jp":"富山県","jp_add_1":"滑川市","jp_add_2":"中野"},"9360882":{"post_code":"9360882","prefecture":"TOYAMA KEN","city":"NAMERIKAWA SHI","town":"NAKANOSHIMA","perfecture_jp":"富山県","jp_add_1":"滑川市","jp_add_2":"中野島"},"9360036":{"post_code":"9360036","prefecture":"TOYAMA KEN","city":"NAMERIKAWA SHI","town":"NAKAMACHI","perfecture_jp":"富山県","jp_add_1":"滑川市","jp_add_2":"中町"},"9360002":{"post_code":"9360002","prefecture":"TOYAMA KEN","city":"NAMERIKAWA SHI","town":"NAKAMURA","perfecture_jp":"富山県","jp_add_1":"滑川市","jp_add_2":"中村"},"9360865":{"post_code":"9360865","prefecture":"TOYAMA KEN","city":"NAMERIKAWA SHI","town":"NANAKUCHI","perfecture_jp":"富山県","jp_add_1":"滑川市","jp_add_2":"七口"},"9360831":{"post_code":"9360831","prefecture":"TOYAMA KEN","city":"NAMERIKAWA SHI","town":"NOJIRI","perfecture_jp":"富山県","jp_add_1":"滑川市","jp_add_2":"野尻"},"9360883":{"post_code":"9360883","prefecture":"TOYAMA KEN","city":"NAMERIKAWA SHI","town":"NOMACHI","perfecture_jp":"富山県","jp_add_1":"滑川市","jp_add_2":"野町"},"9360062":{"post_code":"9360062","prefecture":"TOYAMA KEN","city":"NAMERIKAWA SHI","town":"HASHIBAMACHI","perfecture_jp":"富山県","jp_add_1":"滑川市","jp_add_2":"橋場町"},"9360061":{"post_code":"9360061","prefecture":"TOYAMA KEN","city":"NAMERIKAWA SHI","town":"HAMAMACHI","perfecture_jp":"富山県","jp_add_1":"滑川市","jp_add_2":"浜町"},"9360005":{"post_code":"9360005","prefecture":"TOYAMA KEN","city":"NAMERIKAWA SHI","town":"HAMAYOTSUYA","perfecture_jp":"富山県","jp_add_1":"滑川市","jp_add_2":"浜四ツ屋"},"9360837":{"post_code":"9360837","prefecture":"TOYAMA KEN","city":"NAMERIKAWA SHI","town":"HIGASHIKANAYA","perfecture_jp":"富山県","jp_add_1":"滑川市","jp_add_2":"東金屋"},"9360835":{"post_code":"9360835","prefecture":"TOYAMA KEN","city":"NAMERIKAWA SHI","town":"HIRAKI","perfecture_jp":"富山県","jp_add_1":"滑川市","jp_add_2":"開"},"9360043":{"post_code":"9360043","prefecture":"TOYAMA KEN","city":"NAMERIKAWA SHI","town":"FUKUBECHO","perfecture_jp":"富山県","jp_add_1":"滑川市","jp_add_2":"瓢町"},"9360881":{"post_code":"9360881","prefecture":"TOYAMA KEN","city":"NAMERIKAWA SHI","town":"FUJIEI","perfecture_jp":"富山県","jp_add_1":"滑川市","jp_add_2":"藤栄"},"9360872":{"post_code":"9360872","prefecture":"TOYAMA KEN","city":"NAMERIKAWA SHI","town":"FUTATSUKA","perfecture_jp":"富山県","jp_add_1":"滑川市","jp_add_2":"二塚"},"9360017":{"post_code":"9360017","prefecture":"TOYAMA KEN","city":"NAMERIKAWA SHI","town":"FUTATSUYABURI","perfecture_jp":"富山県","jp_add_1":"滑川市","jp_add_2":"二ツ破"},"9360037":{"post_code":"9360037","prefecture":"TOYAMA KEN","city":"NAMERIKAWA SHI","town":"BUHEDAMACHI","perfecture_jp":"富山県","jp_add_1":"滑川市","jp_add_2":"武平太町"},"9360885":{"post_code":"9360885","prefecture":"TOYAMA KEN","city":"NAMERIKAWA SHI","town":"HOKKEJI","perfecture_jp":"富山県","jp_add_1":"滑川市","jp_add_2":"法花寺"},"9360812":{"post_code":"9360812","prefecture":"TOYAMA KEN","city":"NAMERIKAWA SHI","town":"HORIUCHI","perfecture_jp":"富山県","jp_add_1":"滑川市","jp_add_2":"堀内"},"9360846":{"post_code":"9360846","prefecture":"TOYAMA KEN","city":"NAMERIKAWA SHI","town":"HORIE","perfecture_jp":"富山県","jp_add_1":"滑川市","jp_add_2":"堀江"},"9360824":{"post_code":"9360824","prefecture":"TOYAMA KEN","city":"NAMERIKAWA SHI","town":"HONGO","perfecture_jp":"富山県","jp_add_1":"滑川市","jp_add_2":"本江"},"9360016":{"post_code":"9360016","prefecture":"TOYAMA KEN","city":"NAMERIKAWA SHI","town":"MAGARIBUCHI","perfecture_jp":"富山県","jp_add_1":"滑川市","jp_add_2":"曲渕"},"9360041":{"post_code":"9360041","prefecture":"TOYAMA KEN","city":"NAMERIKAWA SHI","town":"MATSUBARACHO","perfecture_jp":"富山県","jp_add_1":"滑川市","jp_add_2":"松原町"},"9360072":{"post_code":"9360072","prefecture":"TOYAMA KEN","city":"NAMERIKAWA SHI","town":"MIDORIMACHI","perfecture_jp":"富山県","jp_add_1":"滑川市","jp_add_2":"緑町"},"9360821":{"post_code":"9360821","prefecture":"TOYAMA KEN","city":"NAMERIKAWA SHI","town":"MINOWA","perfecture_jp":"富山県","jp_add_1":"滑川市","jp_add_2":"蓑輪"},"9360048":{"post_code":"9360048","prefecture":"TOYAMA KEN","city":"NAMERIKAWA SHI","town":"MIHOMACHI","perfecture_jp":"富山県","jp_add_1":"滑川市","jp_add_2":"三穂町"},"9360868":{"post_code":"9360868","prefecture":"TOYAMA KEN","city":"NAMERIKAWA SHI","town":"MIYANOKUBO","perfecture_jp":"富山県","jp_add_1":"滑川市","jp_add_2":"宮窪"},"9360866":{"post_code":"9360866","prefecture":"TOYAMA KEN","city":"NAMERIKAWA SHI","town":"MIYANOKUBOSHIN","perfecture_jp":"富山県","jp_add_1":"滑川市","jp_add_2":"宮窪新"},"9360867":{"post_code":"9360867","prefecture":"TOYAMA KEN","city":"NAMERIKAWA SHI","town":"MIYANOKUBODAI","perfecture_jp":"富山県","jp_add_1":"滑川市","jp_add_2":"宮窪台"},"9360815":{"post_code":"9360815","prefecture":"TOYAMA KEN","city":"NAMERIKAWA SHI","town":"MUROYAMA","perfecture_jp":"富山県","jp_add_1":"滑川市","jp_add_2":"室山"},"9360845":{"post_code":"9360845","prefecture":"TOYAMA KEN","city":"NAMERIKAWA SHI","town":"MORIJIRISHIN","perfecture_jp":"富山県","jp_add_1":"滑川市","jp_add_2":"森尻新"},"9360832":{"post_code":"9360832","prefecture":"TOYAMA KEN","city":"NAMERIKAWA SHI","town":"MORINOSHIN","perfecture_jp":"富山県","jp_add_1":"滑川市","jp_add_2":"森野新"},"9360825":{"post_code":"9360825","prefecture":"TOYAMA KEN","city":"NAMERIKAWA SHI","town":"YASUDA","perfecture_jp":"富山県","jp_add_1":"滑川市","jp_add_2":"安田"},"9360023":{"post_code":"9360023","prefecture":"TOYAMA KEN","city":"NAMERIKAWA SHI","town":"YANAGIHARA","perfecture_jp":"富山県","jp_add_1":"滑川市","jp_add_2":"柳原"},"9360025":{"post_code":"9360025","prefecture":"TOYAMA KEN","city":"NAMERIKAWA SHI","town":"YANAGIHARASHIMMACHI","perfecture_jp":"富山県","jp_add_1":"滑川市","jp_add_2":"柳原新町"},"9360070":{"post_code":"9360070","prefecture":"TOYAMA KEN","city":"NAMERIKAWA SHI","town":"YOKOCHO","perfecture_jp":"富山県","jp_add_1":"滑川市","jp_add_2":"横町"},"9360873":{"post_code":"9360873","prefecture":"TOYAMA KEN","city":"NAMERIKAWA SHI","town":"YOKOMICHI","perfecture_jp":"富山県","jp_add_1":"滑川市","jp_add_2":"横道"},"9360003":{"post_code":"9360003","prefecture":"TOYAMA KEN","city":"NAMERIKAWA SHI","town":"YOSHIURA","perfecture_jp":"富山県","jp_add_1":"滑川市","jp_add_2":"吉浦"},"9360807":{"post_code":"9360807","prefecture":"TOYAMA KEN","city":"NAMERIKAWA SHI","town":"YOTSUYA","perfecture_jp":"富山県","jp_add_1":"滑川市","jp_add_2":"四ツ屋"},"9360862":{"post_code":"9360862","prefecture":"TOYAMA KEN","city":"NAMERIKAWA SHI","town":"YOTSUYASHIN","perfecture_jp":"富山県","jp_add_1":"滑川市","jp_add_2":"四屋新"},"9360884":{"post_code":"9360884","prefecture":"TOYAMA KEN","city":"NAMERIKAWA SHI","town":"YONEJIMA","perfecture_jp":"富山県","jp_add_1":"滑川市","jp_add_2":"米島"},"9360071":{"post_code":"9360071","prefecture":"TOYAMA KEN","city":"NAMERIKAWA SHI","town":"RYOKEMACHI","perfecture_jp":"富山県","jp_add_1":"滑川市","jp_add_2":"領家町"},"9360891":{"post_code":"9360891","prefecture":"TOYAMA KEN","city":"NAKANIIKAWA GUN KAMIICHI MACHI","town":"GOMADO","perfecture_jp":"富山県","jp_add_1":"中新川郡上市町","jp_add_2":"護摩堂"}}