{"9380000":{"post_code":"9380000","prefecture":"TOYAMA KEN","city":"KUROBE SHI","town":"IKANIKEISAIGANAIBAAI","perfecture_jp":"富山県","jp_add_1":"黒部市","jp_add_2":""},"9380048":{"post_code":"9380048","prefecture":"TOYAMA KEN","city":"KUROBE SHI","town":"AKOYANO","perfecture_jp":"富山県","jp_add_1":"黒部市","jp_add_2":"阿古屋野"},"9380032":{"post_code":"9380032","prefecture":"TOYAMA KEN","city":"KUROBE SHI","town":"AMAIKE","perfecture_jp":"富山県","jp_add_1":"黒部市","jp_add_2":"天池"},"9380824":{"post_code":"9380824","prefecture":"TOYAMA KEN","city":"KUROBE SHI","town":"AMIDADO","perfecture_jp":"富山県","jp_add_1":"黒部市","jp_add_2":"阿弥陀堂"},"9380001":{"post_code":"9380001","prefecture":"TOYAMA KEN","city":"KUROBE SHI","town":"ARAMATA","perfecture_jp":"富山県","jp_add_1":"黒部市","jp_add_2":"荒俣"},"9380044":{"post_code":"9380044","prefecture":"TOYAMA KEN","city":"KUROBE SHI","town":"ARAMACHI","perfecture_jp":"富山県","jp_add_1":"黒部市","jp_add_2":"荒町"},"9380004":{"post_code":"9380004","prefecture":"TOYAMA KEN","city":"KUROBE SHI","town":"IIZAWA","perfecture_jp":"富山県","jp_add_1":"黒部市","jp_add_2":"飯沢"},"9380066":{"post_code":"9380066","prefecture":"TOYAMA KEN","city":"KUROBE SHI","town":"IKUJI","perfecture_jp":"富山県","jp_add_1":"黒部市","jp_add_2":"生地"},"9380074":{"post_code":"9380074","prefecture":"TOYAMA KEN","city":"KUROBE SHI","town":"IKUJI (AIMONOCHO)","perfecture_jp":"富山県","jp_add_1":"黒部市","jp_add_2":"生地"},"9380083":{"post_code":"9380083","prefecture":"TOYAMA KEN","city":"KUROBE SHI","town":"IKUJI (AMIDADO)","perfecture_jp":"富山県","jp_add_1":"黒部市","jp_add_2":"生地"},"9380075":{"post_code":"9380075","prefecture":"TOYAMA KEN","city":"KUROBE SHI","town":"IKUJI (OMACHI)","perfecture_jp":"富山県","jp_add_1":"黒部市","jp_add_2":"生地"},"9380073":{"post_code":"9380073","prefecture":"TOYAMA KEN","city":"KUROBE SHI","town":"IKUJI (KAMIMACHI)","perfecture_jp":"富山県","jp_add_1":"黒部市","jp_add_2":"生地"},"9380065":{"post_code":"9380065","prefecture":"TOYAMA KEN","city":"KUROBE SHI","town":"IKUJI (SHIMMEIMACHI)","perfecture_jp":"富山県","jp_add_1":"黒部市","jp_add_2":"生地"},"9380062":{"post_code":"9380062","prefecture":"TOYAMA KEN","city":"KUROBE SHI","town":"IKUJI (TODOROKISHITA)","perfecture_jp":"富山県","jp_add_1":"黒部市","jp_add_2":"生地"},"9380064":{"post_code":"9380064","prefecture":"TOYAMA KEN","city":"KUROBE SHI","town":"IKUJI (MIDORIMACHI)","perfecture_jp":"富山県","jp_add_1":"黒部市","jp_add_2":"生地"},"9380076":{"post_code":"9380076","prefecture":"TOYAMA KEN","city":"KUROBE SHI","town":"IKUJI (MIYAGAWACHO)","perfecture_jp":"富山県","jp_add_1":"黒部市","jp_add_2":"生地"},"9380082":{"post_code":"9380082","prefecture":"TOYAMA KEN","city":"KUROBE SHI","town":"IKUJI ASHIKU","perfecture_jp":"富山県","jp_add_1":"黒部市","jp_add_2":"生地芦区"},"9380084":{"post_code":"9380084","prefecture":"TOYAMA KEN","city":"KUROBE SHI","town":"IKUJI ASHIZAKI","perfecture_jp":"富山県","jp_add_1":"黒部市","jp_add_2":"生地芦崎"},"9380081":{"post_code":"9380081","prefecture":"TOYAMA KEN","city":"KUROBE SHI","town":"IKUJI KYOSHIN","perfecture_jp":"富山県","jp_add_1":"黒部市","jp_add_2":"生地経新"},"9380061":{"post_code":"9380061","prefecture":"TOYAMA KEN","city":"KUROBE SHI","town":"IKUJI SHINKU","perfecture_jp":"富山県","jp_add_1":"黒部市","jp_add_2":"生地神区"},"9380072":{"post_code":"9380072","prefecture":"TOYAMA KEN","city":"KUROBE SHI","town":"IKUJI NAKAKU","perfecture_jp":"富山県","jp_add_1":"黒部市","jp_add_2":"生地中区"},"9380071":{"post_code":"9380071","prefecture":"TOYAMA KEN","city":"KUROBE SHI","town":"IKUJI YAMASHIN","perfecture_jp":"富山県","jp_add_1":"黒部市","jp_add_2":"生地山新"},"9380085":{"post_code":"9380085","prefecture":"TOYAMA KEN","city":"KUROBE SHI","town":"IKUJI YOSHIDA","perfecture_jp":"富山県","jp_add_1":"黒部市","jp_add_2":"生地吉田"},"9380086":{"post_code":"9380086","prefecture":"TOYAMA KEN","city":"KUROBE SHI","town":"IKUJI YOSHIDASHIN","perfecture_jp":"富山県","jp_add_1":"黒部市","jp_add_2":"生地吉田新"},"9380063":{"post_code":"9380063","prefecture":"TOYAMA KEN","city":"KUROBE SHI","town":"IKUJI YOTSUYASHIN","perfecture_jp":"富山県","jp_add_1":"黒部市","jp_add_2":"生地四ツ屋新"},"9380816":{"post_code":"9380816","prefecture":"TOYAMA KEN","city":"KUROBE SHI","town":"IKEJIRI","perfecture_jp":"富山県","jp_add_1":"黒部市","jp_add_2":"池尻"},"9380059":{"post_code":"9380059","prefecture":"TOYAMA KEN","city":"KUROBE SHI","town":"ISHIDA","perfecture_jp":"富山県","jp_add_1":"黒部市","jp_add_2":"石田"},"9380057":{"post_code":"9380057","prefecture":"TOYAMA KEN","city":"KUROBE SHI","town":"ISHIDASHIN","perfecture_jp":"富山県","jp_add_1":"黒部市","jp_add_2":"石田新"},"9380835":{"post_code":"9380835","prefecture":"TOYAMA KEN","city":"KUROBE SHI","town":"ISHIDANO","perfecture_jp":"富山県","jp_add_1":"黒部市","jp_add_2":"石田野"},"9380043":{"post_code":"9380043","prefecture":"TOYAMA KEN","city":"KUROBE SHI","town":"INUYAMA","perfecture_jp":"富山県","jp_add_1":"黒部市","jp_add_2":"犬山"},"9380014":{"post_code":"9380014","prefecture":"TOYAMA KEN","city":"KUROBE SHI","town":"UEKI","perfecture_jp":"富山県","jp_add_1":"黒部市","jp_add_2":"植木"},"9380811":{"post_code":"9380811","prefecture":"TOYAMA KEN","city":"KUROBE SHI","town":"UCHUDANI","perfecture_jp":"富山県","jp_add_1":"黒部市","jp_add_2":"内生谷"},"9380282":{"post_code":"9380282","prefecture":"TOYAMA KEN","city":"KUROBE SHI","town":"UNAZUKIONSEN","perfecture_jp":"富山県","jp_add_1":"黒部市","jp_add_2":"宇奈月温泉"},"9380177":{"post_code":"9380177","prefecture":"TOYAMA KEN","city":"KUROBE SHI","town":"UNAZUKIMACHI AIMOTOSHIN","perfecture_jp":"富山県","jp_add_1":"黒部市","jp_add_2":"宇奈月町愛本新"},"9380175":{"post_code":"9380175","prefecture":"TOYAMA KEN","city":"KUROBE SHI","town":"UNAZUKIMACHI AIMOTOHASHIZUMEHIGASHI","perfecture_jp":"富山県","jp_add_1":"黒部市","jp_add_2":"宇奈月町愛本橋爪東官林地内"},"9380171":{"post_code":"9380171","prefecture":"TOYAMA KEN","city":"KUROBE SHI","town":"UNAZUKIMACHI AKEBI","perfecture_jp":"富山県","jp_add_1":"黒部市","jp_add_2":"宇奈月町明日"},"9380281":{"post_code":"9380281","prefecture":"TOYAMA KEN","city":"KUROBE SHI","town":"UNAZUKIMACHI UCHIYAMA","perfecture_jp":"富山県","jp_add_1":"黒部市","jp_add_2":"宇奈月町内山"},"9380862":{"post_code":"9380862","prefecture":"TOYAMA KEN","city":"KUROBE SHI","town":"UNAZUKIMACHI URAYAMA","perfecture_jp":"富山県","jp_add_1":"黒部市","jp_add_2":"宇奈月町浦山"},"9380274":{"post_code":"9380274","prefecture":"TOYAMA KEN","city":"KUROBE SHI","town":"UNAZUKIMACHI OTOZAWA(1000-)","perfecture_jp":"富山県","jp_add_1":"黒部市","jp_add_2":"宇奈月町音澤"},"9380174":{"post_code":"9380174","prefecture":"TOYAMA KEN","city":"KUROBE SHI","town":"UNAZUKIMACHI OTOZAWA(1-999)","perfecture_jp":"富山県","jp_add_1":"黒部市","jp_add_2":"宇奈月町音澤"},"9380861":{"post_code":"9380861","prefecture":"TOYAMA KEN","city":"KUROBE SHI","town":"UNAZUKIMACHI ORITATE","perfecture_jp":"富山県","jp_add_1":"黒部市","jp_add_2":"宇奈月町下立"},"9380863":{"post_code":"9380863","prefecture":"TOYAMA KEN","city":"KUROBE SHI","town":"UNAZUKIMACHI KUMANO","perfecture_jp":"富山県","jp_add_1":"黒部市","jp_add_2":"宇奈月町熊野"},"9380178":{"post_code":"9380178","prefecture":"TOYAMA KEN","city":"KUROBE SHI","town":"UNAZUKIMACHI KURIMUSHI","perfecture_jp":"富山県","jp_add_1":"黒部市","jp_add_2":"宇奈月町栗虫"},"9380864":{"post_code":"9380864","prefecture":"TOYAMA KEN","city":"KUROBE SHI","town":"UNAZUKIMACHI TOCHIYA","perfecture_jp":"富山県","jp_add_1":"黒部市","jp_add_2":"宇奈月町栃屋"},"9380172":{"post_code":"9380172","prefecture":"TOYAMA KEN","city":"KUROBE SHI","town":"UNAZUKIMACHI DOYAMA","perfecture_jp":"富山県","jp_add_1":"黒部市","jp_add_2":"宇奈月町土山"},"9380173":{"post_code":"9380173","prefecture":"TOYAMA KEN","city":"KUROBE SHI","town":"UNAZUKIMACHI NAKADAN","perfecture_jp":"富山県","jp_add_1":"黒部市","jp_add_2":"宇奈月町中谷"},"9380176":{"post_code":"9380176","prefecture":"TOYAMA KEN","city":"KUROBE SHI","town":"UNAZUKIMACHI NAKANOKUCHI","perfecture_jp":"富山県","jp_add_1":"黒部市","jp_add_2":"宇奈月町中ノ口"},"9380179":{"post_code":"9380179","prefecture":"TOYAMA KEN","city":"KUROBE SHI","town":"UNAZUKIMACHI FUNAMI","perfecture_jp":"富山県","jp_add_1":"黒部市","jp_add_2":"宇奈月町舟見"},"9380006":{"post_code":"9380006","prefecture":"TOYAMA KEN","city":"KUROBE SHI","town":"OBIRAKI","perfecture_jp":"富山県","jp_add_1":"黒部市","jp_add_2":"大開"},"9380054":{"post_code":"9380054","prefecture":"TOYAMA KEN","city":"KUROBE SHI","town":"OKA","perfecture_jp":"富山県","jp_add_1":"黒部市","jp_add_2":"岡"},"9380801":{"post_code":"9380801","prefecture":"TOYAMA KEN","city":"KUROBE SHI","town":"OGYU","perfecture_jp":"富山県","jp_add_1":"黒部市","jp_add_2":"荻生"},"9380825":{"post_code":"9380825","prefecture":"TOYAMA KEN","city":"KUROBE SHI","town":"OYAMA","perfecture_jp":"富山県","jp_add_1":"黒部市","jp_add_2":"尾山"},"9380836":{"post_code":"9380836","prefecture":"TOYAMA KEN","city":"KUROBE SHI","town":"KAGAMINO","perfecture_jp":"富山県","jp_add_1":"黒部市","jp_add_2":"鏡野"},"9380812":{"post_code":"9380812","prefecture":"TOYAMA KEN","city":"KUROBE SHI","town":"KASAYABURI","perfecture_jp":"富山県","jp_add_1":"黒部市","jp_add_2":"笠破"},"9380022":{"post_code":"9380022","prefecture":"TOYAMA KEN","city":"KUROBE SHI","town":"KANAYA","perfecture_jp":"富山県","jp_add_1":"黒部市","jp_add_2":"金屋"},"9380814":{"post_code":"9380814","prefecture":"TOYAMA KEN","city":"KUROBE SHI","town":"KAREISAWA","perfecture_jp":"富山県","jp_add_1":"黒部市","jp_add_2":"嘉例沢"},"9380036":{"post_code":"9380036","prefecture":"TOYAMA KEN","city":"KUROBE SHI","town":"KITASHIN","perfecture_jp":"富山県","jp_add_1":"黒部市","jp_add_2":"北新"},"9380015":{"post_code":"9380015","prefecture":"TOYAMA KEN","city":"KUROBE SHI","town":"KITANO","perfecture_jp":"富山県","jp_add_1":"黒部市","jp_add_2":"北野"},"9380805":{"post_code":"9380805","prefecture":"TOYAMA KEN","city":"KUROBE SHI","town":"KICHIJOJI","perfecture_jp":"富山県","jp_add_1":"黒部市","jp_add_2":"吉城寺"},"9380052":{"post_code":"9380052","prefecture":"TOYAMA KEN","city":"KUROBE SHI","town":"KYOTATENO","perfecture_jp":"富山県","jp_add_1":"黒部市","jp_add_2":"経立野"},"9380013":{"post_code":"9380013","prefecture":"TOYAMA KEN","city":"KUROBE SHI","town":"KUTSUKAKE","perfecture_jp":"富山県","jp_add_1":"黒部市","jp_add_2":"沓掛"},"9380047":{"post_code":"9380047","prefecture":"TOYAMA KEN","city":"KUROBE SHI","town":"KUBONO","perfecture_jp":"富山県","jp_add_1":"黒部市","jp_add_2":"窪野"},"9380803":{"post_code":"9380803","prefecture":"TOYAMA KEN","city":"KUROBE SHI","town":"KURIDERA","perfecture_jp":"富山県","jp_add_1":"黒部市","jp_add_2":"栗寺"},"9380283":{"post_code":"9380283","prefecture":"TOYAMA KEN","city":"KUROBE SHI","town":"KUROBEKYOKOKUGUCHI","perfecture_jp":"富山県","jp_add_1":"黒部市","jp_add_2":"黒部峡谷口"},"9380011":{"post_code":"9380011","prefecture":"TOYAMA KEN","city":"KUROBE SHI","town":"KUROBESHIN","perfecture_jp":"富山県","jp_add_1":"黒部市","jp_add_2":"黒部新"},"9380046":{"post_code":"9380046","prefecture":"TOYAMA KEN","city":"KUROBE SHI","town":"KONTANI","perfecture_jp":"富山県","jp_add_1":"黒部市","jp_add_2":"神谷"},"9380823":{"post_code":"9380823","prefecture":"TOYAMA KEN","city":"KUROBE SHI","town":"SHAKADO","perfecture_jp":"富山県","jp_add_1":"黒部市","jp_add_2":"釈迦堂"},"9380058":{"post_code":"9380058","prefecture":"TOYAMA KEN","city":"KUROBE SHI","town":"SHOKOJISHIN","perfecture_jp":"富山県","jp_add_1":"黒部市","jp_add_2":"正光寺新"},"9380038":{"post_code":"9380038","prefecture":"TOYAMA KEN","city":"KUROBE SHI","town":"SHINTEN","perfecture_jp":"富山県","jp_add_1":"黒部市","jp_add_2":"新天"},"9380037":{"post_code":"9380037","prefecture":"TOYAMA KEN","city":"KUROBE SHI","town":"SHIMMAKINO","perfecture_jp":"富山県","jp_add_1":"黒部市","jp_add_2":"新牧野"},"9380056":{"post_code":"9380056","prefecture":"TOYAMA KEN","city":"KUROBE SHI","town":"SHIMMACHI","perfecture_jp":"富山県","jp_add_1":"黒部市","jp_add_2":"新町"},"9380045":{"post_code":"9380045","prefecture":"TOYAMA KEN","city":"KUROBE SHI","town":"TAIESHIN","perfecture_jp":"富山県","jp_add_1":"黒部市","jp_add_2":"田家新"},"9380837":{"post_code":"9380837","prefecture":"TOYAMA KEN","city":"KUROBE SHI","town":"TAIENO","perfecture_jp":"富山県","jp_add_1":"黒部市","jp_add_2":"田家野"},"9380026":{"post_code":"9380026","prefecture":"TOYAMA KEN","city":"KUROBE SHI","town":"TAIGAGUCHI","perfecture_jp":"富山県","jp_add_1":"黒部市","jp_add_2":"田家角内"},"9380024":{"post_code":"9380024","prefecture":"TOYAMA KEN","city":"KUROBE SHI","town":"TAKAHASHI","perfecture_jp":"富山県","jp_add_1":"黒部市","jp_add_2":"高橋"},"9380051":{"post_code":"9380051","prefecture":"TOYAMA KEN","city":"KUROBE SHI","town":"TATENO","perfecture_jp":"富山県","jp_add_1":"黒部市","jp_add_2":"立野"},"9380813":{"post_code":"9380813","prefecture":"TOYAMA KEN","city":"KUROBE SHI","town":"TAMOMI","perfecture_jp":"富山県","jp_add_1":"黒部市","jp_add_2":"田籾"},"9380012":{"post_code":"9380012","prefecture":"TOYAMA KEN","city":"KUROBE SHI","town":"DEJIMA","perfecture_jp":"富山県","jp_add_1":"黒部市","jp_add_2":"出島"},"9380042":{"post_code":"9380042","prefecture":"TOYAMA KEN","city":"KUROBE SHI","town":"TENJINSHIN","perfecture_jp":"富山県","jp_add_1":"黒部市","jp_add_2":"天神新"},"9380039":{"post_code":"9380039","prefecture":"TOYAMA KEN","city":"KUROBE SHI","town":"DODA","perfecture_jp":"富山県","jp_add_1":"黒部市","jp_add_2":"堂田"},"9380028":{"post_code":"9380028","prefecture":"TOYAMA KEN","city":"KUROBE SHI","town":"TOCHIZAWA","perfecture_jp":"富山県","jp_add_1":"黒部市","jp_add_2":"栃沢"},"9380027":{"post_code":"9380027","prefecture":"TOYAMA KEN","city":"KUROBE SHI","town":"NAKASHIN","perfecture_jp":"富山県","jp_add_1":"黒部市","jp_add_2":"中新"},"9380827":{"post_code":"9380827","prefecture":"TOYAMA KEN","city":"KUROBE SHI","town":"NAKAJIN","perfecture_jp":"富山県","jp_add_1":"黒部市","jp_add_2":"中陣"},"9380034":{"post_code":"9380034","prefecture":"TOYAMA KEN","city":"KUROBE SHI","town":"NAKANO","perfecture_jp":"富山県","jp_add_1":"黒部市","jp_add_2":"中野"},"9380033":{"post_code":"9380033","prefecture":"TOYAMA KEN","city":"KUROBE SHI","town":"NAKANOMICHI","perfecture_jp":"富山県","jp_add_1":"黒部市","jp_add_2":"中野道"},"9380834":{"post_code":"9380834","prefecture":"TOYAMA KEN","city":"KUROBE SHI","town":"NAKAYAMA","perfecture_jp":"富山県","jp_add_1":"黒部市","jp_add_2":"中山"},"9380055":{"post_code":"9380055","prefecture":"TOYAMA KEN","city":"KUROBE SHI","town":"HAMAISHIDA","perfecture_jp":"富山県","jp_add_1":"黒部市","jp_add_2":"浜石田"},"9380002":{"post_code":"9380002","prefecture":"TOYAMA KEN","city":"KUROBE SHI","town":"HIDA","perfecture_jp":"富山県","jp_add_1":"黒部市","jp_add_2":"飛騨"},"9380815":{"post_code":"9380815","prefecture":"TOYAMA KEN","city":"KUROBE SHI","town":"FUKUHIRA","perfecture_jp":"富山県","jp_add_1":"黒部市","jp_add_2":"福平"},"9380021":{"post_code":"9380021","prefecture":"TOYAMA KEN","city":"KUROBE SHI","town":"FURUMIDO","perfecture_jp":"富山県","jp_add_1":"黒部市","jp_add_2":"古御堂"},"9380822":{"post_code":"9380822","prefecture":"TOYAMA KEN","city":"KUROBE SHI","town":"BESSHO","perfecture_jp":"富山県","jp_add_1":"黒部市","jp_add_2":"別所"},"9380826":{"post_code":"9380826","prefecture":"TOYAMA KEN","city":"KUROBE SHI","town":"HONOKIDANI","perfecture_jp":"富山県","jp_add_1":"黒部市","jp_add_2":"朴谷"},"9380041":{"post_code":"9380041","prefecture":"TOYAMA KEN","city":"KUROBE SHI","town":"HORIKIRI","perfecture_jp":"富山県","jp_add_1":"黒部市","jp_add_2":"堀切"},"9380025":{"post_code":"9380025","prefecture":"TOYAMA KEN","city":"KUROBE SHI","town":"HORIKIRISHIN","perfecture_jp":"富山県","jp_add_1":"黒部市","jp_add_2":"堀切新"},"9380023":{"post_code":"9380023","prefecture":"TOYAMA KEN","city":"KUROBE SHI","town":"HORITAKA","perfecture_jp":"富山県","jp_add_1":"黒部市","jp_add_2":"堀高"},"9380806":{"post_code":"9380806","prefecture":"TOYAMA KEN","city":"KUROBE SHI","town":"MAEZAWA","perfecture_jp":"富山県","jp_add_1":"黒部市","jp_add_2":"前沢"},"9380035":{"post_code":"9380035","prefecture":"TOYAMA KEN","city":"KUROBE SHI","town":"MAKINO","perfecture_jp":"富山県","jp_add_1":"黒部市","jp_add_2":"牧野"},"9380832":{"post_code":"9380832","prefecture":"TOYAMA KEN","city":"KUROBE SHI","town":"MAKURANO","perfecture_jp":"富山県","jp_add_1":"黒部市","jp_add_2":"枕野"},"9380031":{"post_code":"9380031","prefecture":"TOYAMA KEN","city":"KUROBE SHI","town":"MIKKAICHI","perfecture_jp":"富山県","jp_add_1":"黒部市","jp_add_2":"三日市"},"9380831":{"post_code":"9380831","prefecture":"TOYAMA KEN","city":"KUROBE SHI","town":"MIYAZAWA","perfecture_jp":"富山県","jp_add_1":"黒部市","jp_add_2":"宮沢"},"9380804":{"post_code":"9380804","prefecture":"TOYAMA KEN","city":"KUROBE SHI","town":"MIYANO","perfecture_jp":"富山県","jp_add_1":"黒部市","jp_add_2":"宮野"},"9380833":{"post_code":"9380833","prefecture":"TOYAMA KEN","city":"KUROBE SHI","town":"MOTONO","perfecture_jp":"富山県","jp_add_1":"黒部市","jp_add_2":"本野"},"9380821":{"post_code":"9380821","prefecture":"TOYAMA KEN","city":"KUROBE SHI","town":"YANAGISAWA","perfecture_jp":"富山県","jp_add_1":"黒部市","jp_add_2":"柳沢"},"9380049":{"post_code":"9380049","prefecture":"TOYAMA KEN","city":"KUROBE SHI","town":"YAMADA","perfecture_jp":"富山県","jp_add_1":"黒部市","jp_add_2":"山田"},"9380807":{"post_code":"9380807","prefecture":"TOYAMA KEN","city":"KUROBE SHI","town":"YAMADASHIN","perfecture_jp":"富山県","jp_add_1":"黒部市","jp_add_2":"山田新"},"9380053":{"post_code":"9380053","prefecture":"TOYAMA KEN","city":"KUROBE SHI","town":"YAMATATENO","perfecture_jp":"富山県","jp_add_1":"黒部市","jp_add_2":"山立野"},"9380005":{"post_code":"9380005","prefecture":"TOYAMA KEN","city":"KUROBE SHI","town":"YOSHIDA","perfecture_jp":"富山県","jp_add_1":"黒部市","jp_add_2":"吉田"},"9380003":{"post_code":"9380003","prefecture":"TOYAMA KEN","city":"KUROBE SHI","town":"ROKUTEN","perfecture_jp":"富山県","jp_add_1":"黒部市","jp_add_2":"六天"},"9380802":{"post_code":"9380802","prefecture":"TOYAMA KEN","city":"KUROBE SHI","town":"WAKAGURI","perfecture_jp":"富山県","jp_add_1":"黒部市","jp_add_2":"若栗"},"9380101":{"post_code":"9380101","prefecture":"TOYAMA KEN","city":"SHIMONIIKAWA GUN NYUZEN MACHI","town":"IMAE","perfecture_jp":"富山県","jp_add_1":"下新川郡入善町","jp_add_2":"今江"},"9380105":{"post_code":"9380105","prefecture":"TOYAMA KEN","city":"SHIMONIIKAWA GUN NYUZEN MACHI","town":"NAKAZAWA","perfecture_jp":"富山県","jp_add_1":"下新川郡入善町","jp_add_2":"中沢"},"9380104":{"post_code":"9380104","prefecture":"TOYAMA KEN","city":"SHIMONIIKAWA GUN NYUZEN MACHI","town":"NISHINAKA","perfecture_jp":"富山県","jp_add_1":"下新川郡入善町","jp_add_2":"西中"},"9380106":{"post_code":"9380106","prefecture":"TOYAMA KEN","city":"SHIMONIIKAWA GUN NYUZEN MACHI","town":"NONAKA","perfecture_jp":"富山県","jp_add_1":"下新川郡入善町","jp_add_2":"野中"},"9380103":{"post_code":"9380103","prefecture":"TOYAMA KEN","city":"SHIMONIIKAWA GUN NYUZEN MACHI","town":"FUNAMI","perfecture_jp":"富山県","jp_add_1":"下新川郡入善町","jp_add_2":"舟見"},"9380102":{"post_code":"9380102","prefecture":"TOYAMA KEN","city":"SHIMONIIKAWA GUN NYUZEN MACHI","town":"FURUBAYASHI","perfecture_jp":"富山県","jp_add_1":"下新川郡入善町","jp_add_2":"古林"},"9380167":{"post_code":"9380167","prefecture":"TOYAMA KEN","city":"SHIMONIIKAWA GUN ASAHI MACHI","town":"SANNO","perfecture_jp":"富山県","jp_add_1":"下新川郡朝日町","jp_add_2":"山王"},"9380169":{"post_code":"9380169","prefecture":"TOYAMA KEN","city":"SHIMONIIKAWA GUN ASAHI MACHI","town":"SHIMONO","perfecture_jp":"富山県","jp_add_1":"下新川郡朝日町","jp_add_2":"下野"},"9380164":{"post_code":"9380164","prefecture":"TOYAMA KEN","city":"SHIMONIIKAWA GUN ASAHI MACHI","town":"TANAYAMA","perfecture_jp":"富山県","jp_add_1":"下新川郡朝日町","jp_add_2":"棚山"},"9380161":{"post_code":"9380161","prefecture":"TOYAMA KEN","city":"SHIMONIIKAWA GUN ASAHI MACHI","town":"TONOMACHI","perfecture_jp":"富山県","jp_add_1":"下新川郡朝日町","jp_add_2":"殿町"},"9380168":{"post_code":"9380168","prefecture":"TOYAMA KEN","city":"SHIMONIIKAWA GUN ASAHI MACHI","town":"FUJITSUKA(YOKOMICHI)","perfecture_jp":"富山県","jp_add_1":"下新川郡朝日町","jp_add_2":"藤塚"},"9380166":{"post_code":"9380166","prefecture":"TOYAMA KEN","city":"SHIMONIIKAWA GUN ASAHI MACHI","town":"HOSONO","perfecture_jp":"富山県","jp_add_1":"下新川郡朝日町","jp_add_2":"細野"},"9380162":{"post_code":"9380162","prefecture":"TOYAMA KEN","city":"SHIMONIIKAWA GUN ASAHI MACHI","town":"YAMAZAKI(BO)","perfecture_jp":"富山県","jp_add_1":"下新川郡朝日町","jp_add_2":"山崎"},"9380165":{"post_code":"9380165","prefecture":"TOYAMA KEN","city":"SHIMONIIKAWA GUN ASAHI MACHI","town":"YAMAZAKISHIN","perfecture_jp":"富山県","jp_add_1":"下新川郡朝日町","jp_add_2":"山崎新"},"9380163":{"post_code":"9380163","prefecture":"TOYAMA KEN","city":"SHIMONIIKAWA GUN ASAHI MACHI","town":"YUNOSE","perfecture_jp":"富山県","jp_add_1":"下新川郡朝日町","jp_add_2":"湯ノ瀬"}}