{"9390000":{"post_code":"9390000","prefecture":"TOYAMA KEN","city":"TOYAMA SHI","town":"IKANIKEISAIGANAIBAAI","perfecture_jp":"富山県","jp_add_1":"富山市","jp_add_2":""},"9398162":{"post_code":"9398162","prefecture":"TOYAMA KEN","city":"TOYAMA SHI","town":"AOYANAGI","perfecture_jp":"富山県","jp_add_1":"富山市","jp_add_2":"青柳"},"9398163":{"post_code":"9398163","prefecture":"TOYAMA KEN","city":"TOYAMA SHI","town":"AOYANAGISHIN","perfecture_jp":"富山県","jp_add_1":"富山市","jp_add_2":"青柳新"},"9398064":{"post_code":"9398064","prefecture":"TOYAMA KEN","city":"TOYAMA SHI","town":"AKADA","perfecture_jp":"富山県","jp_add_1":"富山市","jp_add_2":"赤田"},"9398065":{"post_code":"9398065","prefecture":"TOYAMA KEN","city":"TOYAMA SHI","town":"AKADASHIMMACHI","perfecture_jp":"富山県","jp_add_1":"富山市","jp_add_2":"赤田新町"},"9398252":{"post_code":"9398252","prefecture":"TOYAMA KEN","city":"TOYAMA SHI","town":"AKIGASHIMA","perfecture_jp":"富山県","jp_add_1":"富山市","jp_add_2":"秋ケ島"},"9398182":{"post_code":"9398182","prefecture":"TOYAMA KEN","city":"TOYAMA SHI","town":"AKUOJI","perfecture_jp":"富山県","jp_add_1":"富山市","jp_add_2":"悪王寺"},"9398066":{"post_code":"9398066","prefecture":"TOYAMA KEN","city":"TOYAMA SHI","town":"ASANACHO","perfecture_jp":"富山県","jp_add_1":"富山市","jp_add_2":"朝菜町"},"9398091":{"post_code":"9398091","prefecture":"TOYAMA KEN","city":"TOYAMA SHI","town":"ASAHIMACHI","perfecture_jp":"富山県","jp_add_1":"富山市","jp_add_2":"旭町"},"9392161":{"post_code":"9392161","prefecture":"TOYAMA KEN","city":"TOYAMA SHI","town":"ASHU","perfecture_jp":"富山県","jp_add_1":"富山市","jp_add_2":"芦生"},"9398177":{"post_code":"9398177","prefecture":"TOYAMA KEN","city":"TOYAMA SHI","town":"ANYOJI","perfecture_jp":"富山県","jp_add_1":"富山市","jp_add_2":"安養寺"},"9392185":{"post_code":"9392185","prefecture":"TOYAMA KEN","city":"TOYAMA SHI","town":"IORIDANI","perfecture_jp":"富山県","jp_add_1":"富山市","jp_add_2":"庵谷"},"9398193":{"post_code":"9398193","prefecture":"TOYAMA KEN","city":"TOYAMA SHI","town":"ISHIDA","perfecture_jp":"富山県","jp_add_1":"富山市","jp_add_2":"石田"},"9398121":{"post_code":"9398121","prefecture":"TOYAMA KEN","city":"TOYAMA SHI","town":"ISHIYA","perfecture_jp":"富山県","jp_add_1":"富山市","jp_add_2":"石屋"},"9392211":{"post_code":"9392211","prefecture":"TOYAMA KEN","city":"TOYAMA SHI","town":"ICHIBA","perfecture_jp":"富山県","jp_add_1":"富山市","jp_add_2":"市場"},"9392231":{"post_code":"9392231","prefecture":"TOYAMA KEN","city":"TOYAMA SHI","town":"INASHIRO(SAIWAICHO)","perfecture_jp":"富山県","jp_add_1":"富山市","jp_add_2":"稲代"},"9392187":{"post_code":"9392187","prefecture":"TOYAMA KEN","city":"TOYAMA SHI","town":"INOTANI","perfecture_jp":"富山県","jp_add_1":"富山市","jp_add_2":"猪谷"},"9398075":{"post_code":"9398075","prefecture":"TOYAMA KEN","city":"TOYAMA SHI","town":"IMAIZUMI","perfecture_jp":"富山県","jp_add_1":"富山市","jp_add_2":"今泉"},"9398281":{"post_code":"9398281","prefecture":"TOYAMA KEN","city":"TOYAMA SHI","town":"IMAIZUMISEIBUMACHI","perfecture_jp":"富山県","jp_add_1":"富山市","jp_add_2":"今泉西部町"},"9398282":{"post_code":"9398282","prefecture":"TOYAMA KEN","city":"TOYAMA SHI","town":"IMAIZUMIHOKUBUMACHI","perfecture_jp":"富山県","jp_add_1":"富山市","jp_add_2":"今泉北部町"},"9392162":{"post_code":"9392162","prefecture":"TOYAMA KEN","city":"TOYAMA SHI","town":"IMOZU","perfecture_jp":"富山県","jp_add_1":"富山市","jp_add_2":"今生津"},"9392182":{"post_code":"9392182","prefecture":"TOYAMA KEN","city":"TOYAMA SHI","town":"IWAINE","perfecture_jp":"富山県","jp_add_1":"富山市","jp_add_2":"岩稲"},"9392246":{"post_code":"9392246","prefecture":"TOYAMA KEN","city":"TOYAMA SHI","town":"IWAKI","perfecture_jp":"富山県","jp_add_1":"富山市","jp_add_2":"岩木"},"9392247":{"post_code":"9392247","prefecture":"TOYAMA KEN","city":"TOYAMA SHI","town":"IWAKISHIN","perfecture_jp":"富山県","jp_add_1":"富山市","jp_add_2":"岩木新"},"9392213":{"post_code":"9392213","prefecture":"TOYAMA KEN","city":"TOYAMA SHI","town":"USHIGAMASE","perfecture_jp":"富山県","jp_add_1":"富山市","jp_add_2":"牛ケ増"},"9392171":{"post_code":"9392171","prefecture":"TOYAMA KEN","city":"TOYAMA SHI","town":"OTAUSUNAMI","perfecture_jp":"富山県","jp_add_1":"富山市","jp_add_2":"薄波"},"9398195":{"post_code":"9398195","prefecture":"TOYAMA KEN","city":"TOYAMA SHI","town":"UWANO","perfecture_jp":"富山県","jp_add_1":"富山市","jp_add_2":"上野"},"9398197":{"post_code":"9398197","prefecture":"TOYAMA KEN","city":"TOYAMA SHI","town":"UWANOKOTOBUKICHO","perfecture_jp":"富山県","jp_add_1":"富山市","jp_add_2":"上野寿町"},"9398196":{"post_code":"9398196","prefecture":"TOYAMA KEN","city":"TOYAMA SHI","town":"UWANOMINAMIMACHI","perfecture_jp":"富山県","jp_add_1":"富山市","jp_add_2":"上野南町"},"9398155":{"post_code":"9398155","prefecture":"TOYAMA KEN","city":"TOYAMA SHI","town":"ENOMOTO","perfecture_jp":"富山県","jp_add_1":"富山市","jp_add_2":"江本"},"9398145":{"post_code":"9398145","prefecture":"TOYAMA KEN","city":"TOYAMA SHI","town":"OI","perfecture_jp":"富山県","jp_add_1":"富山市","jp_add_2":"大井"},"9398058":{"post_code":"9398058","prefecture":"TOYAMA KEN","city":"TOYAMA SHI","town":"OIZUMI","perfecture_jp":"富山県","jp_add_1":"富山市","jp_add_2":"大泉"},"9398052":{"post_code":"9398052","prefecture":"TOYAMA KEN","city":"TOYAMA SHI","town":"OIZUMI1-KUNAMBU","perfecture_jp":"富山県","jp_add_1":"富山市","jp_add_2":"大泉１区南部"},"9398097":{"post_code":"9398097","prefecture":"TOYAMA KEN","city":"TOYAMA SHI","town":"OIZUMIKITAMACHI","perfecture_jp":"富山県","jp_add_1":"富山市","jp_add_2":"大泉北町"},"9398001":{"post_code":"9398001","prefecture":"TOYAMA KEN","city":"TOYAMA SHI","town":"OIZUMITOBU","perfecture_jp":"富山県","jp_add_1":"富山市","jp_add_2":"大泉東部"},"9398051":{"post_code":"9398051","prefecture":"TOYAMA KEN","city":"TOYAMA SHI","town":"OIZUMICHUBU","perfecture_jp":"富山県","jp_add_1":"富山市","jp_add_2":"大泉中部"},"9398095":{"post_code":"9398095","prefecture":"TOYAMA KEN","city":"TOYAMA SHI","town":"OIZUMINAKAMACHI","perfecture_jp":"富山県","jp_add_1":"富山市","jp_add_2":"大泉中町"},"9398093":{"post_code":"9398093","prefecture":"TOYAMA KEN","city":"TOYAMA SHI","town":"OIZUMIHIGASHIMACHI","perfecture_jp":"富山県","jp_add_1":"富山市","jp_add_2":"大泉東町"},"9398094":{"post_code":"9398094","prefecture":"TOYAMA KEN","city":"TOYAMA SHI","town":"OIZUMIHOMMACHI","perfecture_jp":"富山県","jp_add_1":"富山市","jp_add_2":"大泉本町"},"9398087":{"post_code":"9398087","prefecture":"TOYAMA KEN","city":"TOYAMA SHI","town":"OIZUMIMACHI","perfecture_jp":"富山県","jp_add_1":"富山市","jp_add_2":"大泉町"},"9392251":{"post_code":"9392251","prefecture":"TOYAMA KEN","city":"TOYAMA SHI","town":"SHIMOOKUBOMIDORICHO","perfecture_jp":"富山県","jp_add_1":"富山市","jp_add_2":"大久保新町"},"9398025":{"post_code":"9398025","prefecture":"TOYAMA KEN","city":"TOYAMA SHI","town":"OSHIMA","perfecture_jp":"富山県","jp_add_1":"富山市","jp_add_2":"大島"},"9398048":{"post_code":"9398048","prefecture":"TOYAMA KEN","city":"TOYAMA SHI","town":"OTA","perfecture_jp":"富山県","jp_add_1":"富山市","jp_add_2":"太田"},"9398042":{"post_code":"9398042","prefecture":"TOYAMA KEN","city":"TOYAMA SHI","town":"OTAKITAKU","perfecture_jp":"富山県","jp_add_1":"富山市","jp_add_2":"太田北区"},"9398043":{"post_code":"9398043","prefecture":"TOYAMA KEN","city":"TOYAMA SHI","town":"OTAKOYODAI","perfecture_jp":"富山県","jp_add_1":"富山市","jp_add_2":"太田向陽台"},"9398041":{"post_code":"9398041","prefecture":"TOYAMA KEN","city":"TOYAMA SHI","town":"OTANAKAKU","perfecture_jp":"富山県","jp_add_1":"富山市","jp_add_2":"太田中区"},"9398044":{"post_code":"9398044","prefecture":"TOYAMA KEN","city":"TOYAMA SHI","town":"OTAMINAMICHO","perfecture_jp":"富山県","jp_add_1":"富山市","jp_add_2":"太田南町"},"9392207":{"post_code":"9392207","prefecture":"TOYAMA KEN","city":"TOYAMA SHI","town":"ONO","perfecture_jp":"富山県","jp_add_1":"富山市","jp_add_2":"大野"},"9398103":{"post_code":"9398103","prefecture":"TOYAMA KEN","city":"TOYAMA SHI","town":"OBA","perfecture_jp":"富山県","jp_add_1":"富山市","jp_add_2":"大場"},"9398073":{"post_code":"9398073","prefecture":"TOYAMA KEN","city":"TOYAMA SHI","town":"OMACHI","perfecture_jp":"富山県","jp_add_1":"富山市","jp_add_2":"大町"},"9398074":{"post_code":"9398074","prefecture":"TOYAMA KEN","city":"TOYAMA SHI","town":"OMACHIMINAMIDAI","perfecture_jp":"富山県","jp_add_1":"富山市","jp_add_2":"大町南台"},"9398035":{"post_code":"9398035","prefecture":"TOYAMA KEN","city":"TOYAMA SHI","town":"OMIYACHO","perfecture_jp":"富山県","jp_add_1":"富山市","jp_add_2":"大宮町"},"9392202":{"post_code":"9392202","prefecture":"TOYAMA KEN","city":"TOYAMA SHI","town":"OGURO","perfecture_jp":"富山県","jp_add_1":"富山市","jp_add_2":"小黒"},"9398243":{"post_code":"9398243","prefecture":"TOYAMA KEN","city":"TOYAMA SHI","town":"OSHIAGE","perfecture_jp":"富山県","jp_add_1":"富山市","jp_add_2":"押上"},"9398092":{"post_code":"9398092","prefecture":"TOYAMA KEN","city":"TOYAMA SHI","town":"OYAMACHO","perfecture_jp":"富山県","jp_add_1":"富山市","jp_add_2":"雄山町"},"9398137":{"post_code":"9398137","prefecture":"TOYAMA KEN","city":"TOYAMA SHI","town":"KAIHOTSU","perfecture_jp":"富山県","jp_add_1":"富山市","jp_add_2":"開発"},"9392189":{"post_code":"9392189","prefecture":"TOYAMA KEN","city":"TOYAMA SHI","town":"KAGASAWA","perfecture_jp":"富山県","jp_add_1":"富山市","jp_add_2":"加賀沢"},"9398215":{"post_code":"9398215","prefecture":"TOYAMA KEN","city":"TOYAMA SHI","town":"KAKEOSAKAEMACHI","perfecture_jp":"富山県","jp_add_1":"富山市","jp_add_2":"掛尾栄町"},"9398212":{"post_code":"9398212","prefecture":"TOYAMA KEN","city":"TOYAMA SHI","town":"KAKEOMACHI","perfecture_jp":"富山県","jp_add_1":"富山市","jp_add_2":"掛尾町"},"9392224":{"post_code":"9392224","prefecture":"TOYAMA KEN","city":"TOYAMA SHI","town":"KASUGA","perfecture_jp":"富山県","jp_add_1":"富山市","jp_add_2":"春日"},"9398077":{"post_code":"9398077","prefecture":"TOYAMA KEN","city":"TOYAMA SHI","town":"KASUGACHO","perfecture_jp":"富山県","jp_add_1":"富山市","jp_add_2":"春日町"},"9392186":{"post_code":"9392186","prefecture":"TOYAMA KEN","city":"TOYAMA SHI","town":"KATAKAKE","perfecture_jp":"富山県","jp_add_1":"富山市","jp_add_2":"片掛"},"9392188":{"post_code":"9392188","prefecture":"TOYAMA KEN","city":"TOYAMA SHI","town":"KANIDERA","perfecture_jp":"富山県","jp_add_1":"富山市","jp_add_2":"蟹寺"},"9392245":{"post_code":"9392245","prefecture":"TOYAMA KEN","city":"TOYAMA SHI","town":"KANO","perfecture_jp":"富山県","jp_add_1":"富山市","jp_add_2":"加納"},"9398144":{"post_code":"9398144","prefecture":"TOYAMA KEN","city":"TOYAMA SHI","town":"KAMIIMAMACHI","perfecture_jp":"富山県","jp_add_1":"富山市","jp_add_2":"上今町"},"9392252":{"post_code":"9392252","prefecture":"TOYAMA KEN","city":"TOYAMA SHI","town":"KAMIOKUBOHIGASHISHIMMACHI","perfecture_jp":"富山県","jp_add_1":"富山市","jp_add_2":"上大久保"},"9398166":{"post_code":"9398166","prefecture":"TOYAMA KEN","city":"TOYAMA SHI","town":"KAMIKUMANO","perfecture_jp":"富山県","jp_add_1":"富山市","jp_add_2":"上熊野"},"9398175":{"post_code":"9398175","prefecture":"TOYAMA KEN","city":"TOYAMA SHI","town":"KAMIKURIYAMA","perfecture_jp":"富山県","jp_add_1":"富山市","jp_add_2":"上栗山"},"9398151":{"post_code":"9398151","prefecture":"TOYAMA KEN","city":"TOYAMA SHI","town":"KAMISAKAE","perfecture_jp":"富山県","jp_add_1":"富山市","jp_add_2":"上栄"},"9398061":{"post_code":"9398061","prefecture":"TOYAMA KEN","city":"TOYAMA SHI","town":"KAMISHIMBO","perfecture_jp":"富山県","jp_add_1":"富山市","jp_add_2":"上新保"},"9398138":{"post_code":"9398138","prefecture":"TOYAMA KEN","city":"TOYAMA SHI","town":"KAMISEMBYO","perfecture_jp":"富山県","jp_add_1":"富山市","jp_add_2":"上千俵"},"9398134":{"post_code":"9398134","prefecture":"TOYAMA KEN","city":"TOYAMA SHI","town":"KAMISEMBYOMACHI","perfecture_jp":"富山県","jp_add_1":"富山市","jp_add_2":"上千俵町"},"9398143":{"post_code":"9398143","prefecture":"TOYAMA KEN","city":"TOYAMA SHI","town":"KAMINUNOME","perfecture_jp":"富山県","jp_add_1":"富山市","jp_add_2":"上布目"},"9398071":{"post_code":"9398071","prefecture":"TOYAMA KEN","city":"TOYAMA SHI","town":"KAMIFUKURO","perfecture_jp":"富山県","jp_add_1":"富山市","jp_add_2":"上袋"},"9392256":{"post_code":"9392256","prefecture":"TOYAMA KEN","city":"TOYAMA SHI","town":"KAMIFUTASUGI","perfecture_jp":"富山県","jp_add_1":"富山市","jp_add_2":"上二杉"},"9398056":{"post_code":"9398056","prefecture":"TOYAMA KEN","city":"TOYAMA SHI","town":"KAMIHORIMACHI","perfecture_jp":"富山県","jp_add_1":"富山市","jp_add_2":"上堀町"},"9398062":{"post_code":"9398062","prefecture":"TOYAMA KEN","city":"TOYAMA SHI","town":"KAMIHORIMINAMICHO","perfecture_jp":"富山県","jp_add_1":"富山市","jp_add_2":"上堀南町"},"9398225":{"post_code":"9398225","prefecture":"TOYAMA KEN","city":"TOYAMA SHI","town":"KAMIYOKAMACHI","perfecture_jp":"富山県","jp_add_1":"富山市","jp_add_2":"上八日町"},"9398264":{"post_code":"9398264","prefecture":"TOYAMA KEN","city":"TOYAMA SHI","town":"KYODEN","perfecture_jp":"富山県","jp_add_1":"富山市","jp_add_2":"経田"},"9398152":{"post_code":"9398152","prefecture":"TOYAMA KEN","city":"TOYAMA SHI","town":"KYORIKI","perfecture_jp":"富山県","jp_add_1":"富山市","jp_add_2":"経力"},"9398047":{"post_code":"9398047","prefecture":"TOYAMA KEN","city":"TOYAMA SHI","town":"KIYOZUMICHO","perfecture_jp":"富山県","jp_add_1":"富山市","jp_add_2":"清住町"},"9398002":{"post_code":"9398002","prefecture":"TOYAMA KEN","city":"TOYAMA SHI","town":"KUMOMMYO","perfecture_jp":"富山県","jp_add_1":"富山市","jp_add_2":"公文名"},"9398178":{"post_code":"9398178","prefecture":"TOYAMA KEN","city":"TOYAMA SHI","town":"KURIYAMA","perfecture_jp":"富山県","jp_add_1":"富山市","jp_add_2":"栗山"},"9398214":{"post_code":"9398214","prefecture":"TOYAMA KEN","city":"TOYAMA SHI","town":"KUROSAKI","perfecture_jp":"富山県","jp_add_1":"富山市","jp_add_2":"黒崎"},"9398213":{"post_code":"9398213","prefecture":"TOYAMA KEN","city":"TOYAMA SHI","town":"KUROSE","perfecture_jp":"富山県","jp_add_1":"富山市","jp_add_2":"黒瀬"},"9398216":{"post_code":"9398216","prefecture":"TOYAMA KEN","city":"TOYAMA SHI","town":"KUROSEKITAMACHI","perfecture_jp":"富山県","jp_add_1":"富山市","jp_add_2":"黒瀬北町"},"9392235":{"post_code":"9392235","prefecture":"TOYAMA KEN","city":"TOYAMA SHI","town":"GEBUSE","perfecture_jp":"富山県","jp_add_1":"富山市","jp_add_2":"下伏"},"9398082":{"post_code":"9398082","prefecture":"TOYAMA KEN","city":"TOYAMA SHI","town":"KOIZUMICHO","perfecture_jp":"富山県","jp_add_1":"富山市","jp_add_2":"小泉町"},"9392174":{"post_code":"9392174","prefecture":"TOYAMA KEN","city":"TOYAMA SHI","town":"KOITO","perfecture_jp":"富山県","jp_add_1":"富山市","jp_add_2":"小糸"},"9392201":{"post_code":"9392201","prefecture":"TOYAMA KEN","city":"TOYAMA SHI","town":"SHIMMURA","perfecture_jp":"富山県","jp_add_1":"富山市","jp_add_2":"合田"},"9398063":{"post_code":"9398063","prefecture":"TOYAMA KEN","city":"TOYAMA SHI","town":"KOSUGI","perfecture_jp":"富山県","jp_add_1":"富山市","jp_add_2":"小杉"},"9398183":{"post_code":"9398183","prefecture":"TOYAMA KEN","city":"TOYAMA SHI","town":"KONAKA","perfecture_jp":"富山県","jp_add_1":"富山市","jp_add_2":"小中"},"9392232":{"post_code":"9392232","prefecture":"TOYAMA KEN","city":"TOYAMA SHI","town":"KOBA","perfecture_jp":"富山県","jp_add_1":"富山市","jp_add_2":"小羽"},"9398263":{"post_code":"9398263","prefecture":"TOYAMA KEN","city":"TOYAMA SHI","town":"SAIKAKUJI","perfecture_jp":"富山県","jp_add_1":"富山市","jp_add_2":"才覚寺"},"9392206":{"post_code":"9392206","prefecture":"TOYAMA KEN","city":"TOYAMA SHI","town":"SAKAMOTO","perfecture_jp":"富山県","jp_add_1":"富山市","jp_add_2":"坂本"},"9392223":{"post_code":"9392223","prefecture":"TOYAMA KEN","city":"TOYAMA SHI","town":"SASAZU","perfecture_jp":"富山県","jp_add_1":"富山市","jp_add_2":"笹津"},"9392222":{"post_code":"9392222","prefecture":"TOYAMA KEN","city":"TOYAMA SHI","town":"SASAZU(OSHIAGE)","perfecture_jp":"富山県","jp_add_1":"富山市","jp_add_2":"笹津"},"9393548":{"post_code":"9393548","prefecture":"TOYAMA KEN","city":"TOYAMA SHI","town":"SANGO","perfecture_jp":"富山県","jp_add_1":"富山市","jp_add_2":"三郷"},"9392242":{"post_code":"9392242","prefecture":"TOYAMA KEN","city":"TOYAMA SHI","town":"SHIO","perfecture_jp":"富山県","jp_add_1":"富山市","jp_add_2":"塩"},"9392214":{"post_code":"9392214","prefecture":"TOYAMA KEN","city":"TOYAMA SHI","town":"JIKE","perfecture_jp":"富山県","jp_add_1":"富山市","jp_add_2":"寺家"},"9392226":{"post_code":"9392226","prefecture":"TOYAMA KEN","city":"TOYAMA SHI","town":"SHITABAYASHI","perfecture_jp":"富山県","jp_add_1":"富山市","jp_add_2":"下タ林"},"9398223":{"post_code":"9398223","prefecture":"TOYAMA KEN","city":"TOYAMA SHI","town":"SHIMADA","perfecture_jp":"富山県","jp_add_1":"富山市","jp_add_2":"島田"},"9398231":{"post_code":"9398231","prefecture":"TOYAMA KEN","city":"TOYAMA SHI","town":"SHIMOKUMANO","perfecture_jp":"富山県","jp_add_1":"富山市","jp_add_2":"下熊野"},"9398174":{"post_code":"9398174","prefecture":"TOYAMA KEN","city":"TOYAMA SHI","town":"SHIMOKURIYAMA","perfecture_jp":"富山県","jp_add_1":"富山市","jp_add_2":"下栗山"},"9398055":{"post_code":"9398055","prefecture":"TOYAMA KEN","city":"TOYAMA SHI","town":"SHIMOHORI","perfecture_jp":"富山県","jp_add_1":"富山市","jp_add_2":"下堀"},"9398112":{"post_code":"9398112","prefecture":"TOYAMA KEN","city":"TOYAMA SHI","town":"JOGAOKA","perfecture_jp":"富山県","jp_add_1":"富山市","jp_add_2":"城ケ丘"},"9398111":{"post_code":"9398111","prefecture":"TOYAMA KEN","city":"TOYAMA SHI","town":"JOSHIMMACHI","perfecture_jp":"富山県","jp_add_1":"富山市","jp_add_2":"城新町"},"9398114":{"post_code":"9398114","prefecture":"TOYAMA KEN","city":"TOYAMA SHI","town":"JOMURA","perfecture_jp":"富山県","jp_add_1":"富山市","jp_add_2":"城村"},"9398115":{"post_code":"9398115","prefecture":"TOYAMA KEN","city":"TOYAMA SHI","town":"JOMURASHIMMACHI","perfecture_jp":"富山県","jp_add_1":"富山市","jp_add_2":"城村新町"},"9398113":{"post_code":"9398113","prefecture":"TOYAMA KEN","city":"TOYAMA SHI","town":"JOWAKAMACHI","perfecture_jp":"富山県","jp_add_1":"富山市","jp_add_2":"城若町"},"9398102":{"post_code":"9398102","prefecture":"TOYAMA KEN","city":"TOYAMA SHI","town":"SHOWASHIMMACHI","perfecture_jp":"富山県","jp_add_1":"富山市","jp_add_2":"昭和新町"},"9392241":{"post_code":"9392241","prefecture":"TOYAMA KEN","city":"TOYAMA SHI","town":"JINZU","perfecture_jp":"富山県","jp_add_1":"富山市","jp_add_2":"神通"},"9398205":{"post_code":"9398205","prefecture":"TOYAMA KEN","city":"TOYAMA SHI","town":"SHINNEZUKAMACHI","perfecture_jp":"富山県","jp_add_1":"富山市","jp_add_2":"新根塚町"},"9398253":{"post_code":"9398253","prefecture":"TOYAMA KEN","city":"TOYAMA SHI","town":"SHIMBO","perfecture_jp":"富山県","jp_add_1":"富山市","jp_add_2":"新保"},"9398054":{"post_code":"9398054","prefecture":"TOYAMA KEN","city":"TOYAMA SHI","town":"SHIMBORICHO","perfecture_jp":"富山県","jp_add_1":"富山市","jp_add_2":"新堀町"},"9398122":{"post_code":"9398122","prefecture":"TOYAMA KEN","city":"TOYAMA SHI","town":"SHIMMYO","perfecture_jp":"富山県","jp_add_1":"富山市","jp_add_2":"新名"},"9398034":{"post_code":"9398034","prefecture":"TOYAMA KEN","city":"TOYAMA SHI","town":"SHINYOKOCHIMACHI","perfecture_jp":"富山県","jp_add_1":"富山市","jp_add_2":"新横内町"},"9398165":{"post_code":"9398165","prefecture":"TOYAMA KEN","city":"TOYAMA SHI","town":"SUGISE","perfecture_jp":"富山県","jp_add_1":"富山市","jp_add_2":"杉瀬"},"9392215":{"post_code":"9392215","prefecture":"TOYAMA KEN","city":"TOYAMA SHI","town":"SUGUZAKA","perfecture_jp":"富山県","jp_add_1":"富山市","jp_add_2":"直坂"},"9392234":{"post_code":"9392234","prefecture":"TOYAMA KEN","city":"TOYAMA SHI","town":"SUWARA","perfecture_jp":"富山県","jp_add_1":"富山市","jp_add_2":"須原"},"9398123":{"post_code":"9398123","prefecture":"TOYAMA KEN","city":"TOYAMA SHI","town":"SEKI","perfecture_jp":"富山県","jp_add_1":"富山市","jp_add_2":"関"},"9398135":{"post_code":"9398135","prefecture":"TOYAMA KEN","city":"TOYAMA SHI","town":"SEMBYOMACHI","perfecture_jp":"富山県","jp_add_1":"富山市","jp_add_2":"千俵町"},"9398241":{"post_code":"9398241","prefecture":"TOYAMA KEN","city":"TOYAMA SHI","town":"SOZAIJI","perfecture_jp":"富山県","jp_add_1":"富山市","jp_add_2":"惣在寺"},"9392254":{"post_code":"9392254","prefecture":"TOYAMA KEN","city":"TOYAMA SHI","town":"TAKAUCHI","perfecture_jp":"富山県","jp_add_1":"富山市","jp_add_2":"高内"},"9398012":{"post_code":"9398012","prefecture":"TOYAMA KEN","city":"TOYAMA SHI","town":"TAKAHARAHOMMACHI","perfecture_jp":"富山県","jp_add_1":"富山市","jp_add_2":"高原本町"},"9398013":{"post_code":"9398013","prefecture":"TOYAMA KEN","city":"TOYAMA SHI","town":"TAKAHARAMACHI","perfecture_jp":"富山県","jp_add_1":"富山市","jp_add_2":"高原町"},"9398036":{"post_code":"9398036","prefecture":"TOYAMA KEN","city":"TOYAMA SHI","town":"TAKAYASHIKI","perfecture_jp":"富山県","jp_add_1":"富山市","jp_add_2":"高屋敷"},"9398172":{"post_code":"9398172","prefecture":"TOYAMA KEN","city":"TOYAMA SHI","town":"TATSUO","perfecture_jp":"富山県","jp_add_1":"富山市","jp_add_2":"辰尾"},"9398173":{"post_code":"9398173","prefecture":"TOYAMA KEN","city":"TOYAMA SHI","town":"TATSUOSHIMMACHI","perfecture_jp":"富山県","jp_add_1":"富山市","jp_add_2":"辰尾新町"},"9398157":{"post_code":"9398157","prefecture":"TOYAMA KEN","city":"TOYAMA SHI","town":"TAMAIZUMINISHIMACHI","perfecture_jp":"富山県","jp_add_1":"富山市","jp_add_2":"珠泉西町"},"9398156":{"post_code":"9398156","prefecture":"TOYAMA KEN","city":"TOYAMA SHI","town":"TAMAIZUMIHIGASHIMACHI","perfecture_jp":"富山県","jp_add_1":"富山市","jp_add_2":"珠泉東町"},"9398076":{"post_code":"9398076","prefecture":"TOYAMA KEN","city":"TOYAMA SHI","town":"TAROMARU","perfecture_jp":"富山県","jp_add_1":"富山市","jp_add_2":"太郎丸"},"9398271":{"post_code":"9398271","prefecture":"TOYAMA KEN","city":"TOYAMA SHI","town":"TAROMARUNISHIMACHI","perfecture_jp":"富山県","jp_add_1":"富山市","jp_add_2":"太郎丸西町"},"9398272":{"post_code":"9398272","prefecture":"TOYAMA KEN","city":"TOYAMA SHI","town":"TAROMARUHOMMACHI","perfecture_jp":"富山県","jp_add_1":"富山市","jp_add_2":"太郎丸本町"},"9398262":{"post_code":"9398262","prefecture":"TOYAMA KEN","city":"TOYAMA SHI","town":"TSUKAHARA","perfecture_jp":"富山県","jp_add_1":"富山市","jp_add_2":"塚原"},"9398139":{"post_code":"9398139","prefecture":"TOYAMA KEN","city":"TOYAMA SHI","town":"TSUKIOKASHIN","perfecture_jp":"富山県","jp_add_1":"富山市","jp_add_2":"月岡新"},"9398141":{"post_code":"9398141","prefecture":"TOYAMA KEN","city":"TOYAMA SHI","town":"TSUKIOKAHIGASHIMIDORICHO","perfecture_jp":"富山県","jp_add_1":"富山市","jp_add_2":"月岡東緑町"},"9398142":{"post_code":"9398142","prefecture":"TOYAMA KEN","city":"TOYAMA SHI","town":"TSUKIOKANISHIMIDORICHO","perfecture_jp":"富山県","jp_add_1":"富山市","jp_add_2":"月岡西緑町"},"9398132":{"post_code":"9398132","prefecture":"TOYAMA KEN","city":"TOYAMA SHI","town":"TSUKIOKAMACHI","perfecture_jp":"富山県","jp_add_1":"富山市","jp_add_2":"月岡町"},"9398133":{"post_code":"9398133","prefecture":"TOYAMA KEN","city":"TOYAMA SHI","town":"TSUKIMIGAOKA","perfecture_jp":"富山県","jp_add_1":"富山市","jp_add_2":"月見が丘"},"9398136":{"post_code":"9398136","prefecture":"TOYAMA KEN","city":"TOYAMA SHI","town":"TSUKIMICHO","perfecture_jp":"富山県","jp_add_1":"富山市","jp_add_2":"月見町"},"9392238":{"post_code":"9392238","prefecture":"TOYAMA KEN","city":"TOYAMA SHI","town":"TSUZUHARA","perfecture_jp":"富山県","jp_add_1":"富山市","jp_add_2":"葛原"},"9392165":{"post_code":"9392165","prefecture":"TOYAMA KEN","city":"TOYAMA SHI","town":"TERAZU","perfecture_jp":"富山県","jp_add_1":"富山市","jp_add_2":"寺津"},"9392236":{"post_code":"9392236","prefecture":"TOYAMA KEN","city":"TOYAMA SHI","town":"DO","perfecture_jp":"富山県","jp_add_1":"富山市","jp_add_2":"土"},"9398233":{"post_code":"9398233","prefecture":"TOYAMA KEN","city":"TOYAMA SHI","town":"TOMI","perfecture_jp":"富山県","jp_add_1":"富山市","jp_add_2":"任海"},"9398224":{"post_code":"9398224","prefecture":"TOYAMA KEN","city":"TOYAMA SHI","town":"TOMOSUGI","perfecture_jp":"富山県","jp_add_1":"富山市","jp_add_2":"友杉"},"9398005":{"post_code":"9398005","prefecture":"TOYAMA KEN","city":"TOYAMA SHI","town":"NAKAICHI","perfecture_jp":"富山県","jp_add_1":"富山市","jp_add_2":"中市"},"9392243":{"post_code":"9392243","prefecture":"TOYAMA KEN","city":"TOYAMA SHI","town":"NAKAOKUBO","perfecture_jp":"富山県","jp_add_1":"富山市","jp_add_2":"中大久保"},"9398015":{"post_code":"9398015","prefecture":"TOYAMA KEN","city":"TOYAMA SHI","town":"NAKAGAWARA","perfecture_jp":"富山県","jp_add_1":"富山市","jp_add_2":"中川原"},"9398014":{"post_code":"9398014","prefecture":"TOYAMA KEN","city":"TOYAMA SHI","town":"NAKAGAWARASHIMMACHI","perfecture_jp":"富山県","jp_add_1":"富山市","jp_add_2":"中川原新町"},"9398016":{"post_code":"9398016","prefecture":"TOYAMA KEN","city":"TOYAMA SHI","town":"NAKAGAWARADAI","perfecture_jp":"富山県","jp_add_1":"富山市","jp_add_2":"中川原台"},"9392225":{"post_code":"9392225","prefecture":"TOYAMA KEN","city":"TOYAMA SHI","town":"NAGASHIRI","perfecture_jp":"富山県","jp_add_1":"富山市","jp_add_2":"長走"},"9392255":{"post_code":"9392255","prefecture":"TOYAMA KEN","city":"TOYAMA SHI","town":"NAGATSUKI","perfecture_jp":"富山県","jp_add_1":"富山市","jp_add_2":"長附"},"9398146":{"post_code":"9398146","prefecture":"TOYAMA KEN","city":"TOYAMA SHI","town":"NAKANUNOME","perfecture_jp":"富山県","jp_add_1":"富山市","jp_add_2":"中布目"},"9398085":{"post_code":"9398085","prefecture":"TOYAMA KEN","city":"TOYAMA SHI","town":"NAKANOSHIMMACHI","perfecture_jp":"富山県","jp_add_1":"富山市","jp_add_2":"中野新町"},"9398131":{"post_code":"9398131","prefecture":"TOYAMA KEN","city":"TOYAMA SHI","town":"NAKAYA","perfecture_jp":"富山県","jp_add_1":"富山市","jp_add_2":"中屋"},"9398032":{"post_code":"9398032","prefecture":"TOYAMA KEN","city":"TOYAMA SHI","town":"NAGARESUGI","perfecture_jp":"富山県","jp_add_1":"富山市","jp_add_2":"流杉"},"9398232":{"post_code":"9398232","prefecture":"TOYAMA KEN","city":"TOYAMA SHI","town":"NANOCHO","perfecture_jp":"富山県","jp_add_1":"富山市","jp_add_2":"南央町"},"9392233":{"post_code":"9392233","prefecture":"TOYAMA KEN","city":"TOYAMA SHI","town":"NANKAWARA","perfecture_jp":"富山県","jp_add_1":"富山市","jp_add_2":"長川原"},"9398251":{"post_code":"9398251","prefecture":"TOYAMA KEN","city":"TOYAMA SHI","town":"NISHIARAYA","perfecture_jp":"富山県","jp_add_1":"富山市","jp_add_2":"西荒屋"},"9398096":{"post_code":"9398096","prefecture":"TOYAMA KEN","city":"TOYAMA SHI","town":"NISHIOIZUMI","perfecture_jp":"富山県","jp_add_1":"富山市","jp_add_2":"西大泉"},"9392221":{"post_code":"9392221","prefecture":"TOYAMA KEN","city":"TOYAMA SHI","town":"NISHIOSAWA","perfecture_jp":"富山県","jp_add_1":"富山市","jp_add_2":"西大沢"},"9398004":{"post_code":"9398004","prefecture":"TOYAMA KEN","city":"TOYAMA SHI","town":"NISHIKUMOMMYO","perfecture_jp":"富山県","jp_add_1":"富山市","jp_add_2":"西公文名"},"9398003":{"post_code":"9398003","prefecture":"TOYAMA KEN","city":"TOYAMA SHI","town":"NISHIKUMOMMYOMACHI","perfecture_jp":"富山県","jp_add_1":"富山市","jp_add_2":"西公文名町"},"9392181":{"post_code":"9392181","prefecture":"TOYAMA KEN","city":"TOYAMA SHI","town":"NISHISASAZU","perfecture_jp":"富山県","jp_add_1":"富山市","jp_add_2":"西笹津"},"9392244":{"post_code":"9392244","prefecture":"TOYAMA KEN","city":"TOYAMA SHI","town":"NISHISHIONO","perfecture_jp":"富山県","jp_add_1":"富山市","jp_add_2":"西塩野"},"9398203":{"post_code":"9398203","prefecture":"TOYAMA KEN","city":"TOYAMA SHI","town":"NISHIDENJIGATA","perfecture_jp":"富山県","jp_add_1":"富山市","jp_add_2":"西田地方"},"9398202":{"post_code":"9398202","prefecture":"TOYAMA KEN","city":"TOYAMA SHI","town":"NISHIDENJIGATAMACHI","perfecture_jp":"富山県","jp_add_1":"富山市","jp_add_2":"西田地方町"},"9398083":{"post_code":"9398083","prefecture":"TOYAMA KEN","city":"TOYAMA SHI","town":"NISHINAKANOHOMMACHI","perfecture_jp":"富山県","jp_add_1":"富山市","jp_add_2":"西中野本町"},"9398084":{"post_code":"9398084","prefecture":"TOYAMA KEN","city":"TOYAMA SHI","town":"NISHINAKANOMACHI","perfecture_jp":"富山県","jp_add_1":"富山市","jp_add_2":"西中野町"},"9398101":{"post_code":"9398101","prefecture":"TOYAMA KEN","city":"TOYAMA SHI","town":"NISHINOSHIN","perfecture_jp":"富山県","jp_add_1":"富山市","jp_add_2":"西野新"},"9398104":{"post_code":"9398104","prefecture":"TOYAMA KEN","city":"TOYAMA SHI","town":"NISHINOBAN","perfecture_jp":"富山県","jp_add_1":"富山市","jp_add_2":"西番"},"9398222":{"post_code":"9398222","prefecture":"TOYAMA KEN","city":"TOYAMA SHI","town":"NINAGAWA","perfecture_jp":"富山県","jp_add_1":"富山市","jp_add_2":"蜷川"},"9392184":{"post_code":"9392184","prefecture":"TOYAMA KEN","city":"TOYAMA SHI","town":"NIREHARA","perfecture_jp":"富山県","jp_add_1":"富山市","jp_add_2":"楡原"},"9398191":{"post_code":"9398191","prefecture":"TOYAMA KEN","city":"TOYAMA SHI","town":"NUNOICHI","perfecture_jp":"富山県","jp_add_1":"富山市","jp_add_2":"布市"},"9398192":{"post_code":"9398192","prefecture":"TOYAMA KEN","city":"TOYAMA SHI","town":"NUNOICHISHIMMACHI","perfecture_jp":"富山県","jp_add_1":"富山市","jp_add_2":"布市新町"},"9392163":{"post_code":"9392163","prefecture":"TOYAMA KEN","city":"TOYAMA SHI","town":"NUNOSHIRI","perfecture_jp":"富山県","jp_add_1":"富山市","jp_add_2":"布尻"},"9398207":{"post_code":"9398207","prefecture":"TOYAMA KEN","city":"TOYAMA SHI","town":"NUNOSEHOMMACHI","perfecture_jp":"富山県","jp_add_1":"富山市","jp_add_2":"布瀬本町"},"9398206":{"post_code":"9398206","prefecture":"TOYAMA KEN","city":"TOYAMA SHI","town":"NUNOSEMACHI","perfecture_jp":"富山県","jp_add_1":"富山市","jp_add_2":"布瀬町"},"9398208":{"post_code":"9398208","prefecture":"TOYAMA KEN","city":"TOYAMA SHI","town":"NUNOSEMACHIMINAMI","perfecture_jp":"富山県","jp_add_1":"富山市","jp_add_2":"布瀬町南"},"9398204":{"post_code":"9398204","prefecture":"TOYAMA KEN","city":"TOYAMA SHI","town":"NEZUKAMACHI","perfecture_jp":"富山県","jp_add_1":"富山市","jp_add_2":"根塚町"},"9392237":{"post_code":"9392237","prefecture":"TOYAMA KEN","city":"TOYAMA SHI","town":"NENOE","perfecture_jp":"富山県","jp_add_1":"富山市","jp_add_2":"根上"},"9398261":{"post_code":"9398261","prefecture":"TOYAMA KEN","city":"TOYAMA SHI","town":"HAGIHARA","perfecture_jp":"富山県","jp_add_1":"富山市","jp_add_2":"萩原"},"9398124":{"post_code":"9398124","prefecture":"TOYAMA KEN","city":"TOYAMA SHI","town":"HACHIKAWA","perfecture_jp":"富山県","jp_add_1":"富山市","jp_add_2":"八川"},"9398201":{"post_code":"9398201","prefecture":"TOYAMA KEN","city":"TOYAMA SHI","town":"HANAZONOCHO","perfecture_jp":"富山県","jp_add_1":"富山市","jp_add_2":"花園町"},"9398164":{"post_code":"9398164","prefecture":"TOYAMA KEN","city":"TOYAMA SHI","town":"HAYASHIZAKI","perfecture_jp":"富山県","jp_add_1":"富山市","jp_add_2":"林崎"},"9392175":{"post_code":"9392175","prefecture":"TOYAMA KEN","city":"TOYAMA SHI","town":"HIGASHIINOTANI","perfecture_jp":"富山県","jp_add_1":"富山市","jp_add_2":"東猪谷"},"9392209":{"post_code":"9392209","prefecture":"TOYAMA KEN","city":"TOYAMA SHI","town":"HIGASHIOKUBO","perfecture_jp":"富山県","jp_add_1":"富山市","jp_add_2":"東大久保"},"9398086":{"post_code":"9398086","prefecture":"TOYAMA KEN","city":"TOYAMA SHI","town":"HIGASHINAKANOMACHI","perfecture_jp":"富山県","jp_add_1":"富山市","jp_add_2":"東中野町"},"9398031":{"post_code":"9398031","prefecture":"TOYAMA KEN","city":"TOYAMA SHI","town":"HIGASHINAGARESUGI","perfecture_jp":"富山県","jp_add_1":"富山市","jp_add_2":"東流杉"},"9398242":{"post_code":"9398242","prefecture":"TOYAMA KEN","city":"TOYAMA SHI","town":"FUKUI","perfecture_jp":"富山県","jp_add_1":"富山市","jp_add_2":"福居"},"9392173":{"post_code":"9392173","prefecture":"TOYAMA KEN","city":"TOYAMA SHI","town":"FUSHIKI","perfecture_jp":"富山県","jp_add_1":"富山市","jp_add_2":"伏木"},"9398011":{"post_code":"9398011","prefecture":"TOYAMA KEN","city":"TOYAMA SHI","town":"FUJISAKAEMACHI","perfecture_jp":"富山県","jp_add_1":"富山市","jp_add_2":"不二栄町"},"9398211":{"post_code":"9398211","prefecture":"TOYAMA KEN","city":"TOYAMA SHI","town":"FUTAKUCHIMACHI","perfecture_jp":"富山県","jp_add_1":"富山市","jp_add_2":"二口町"},"9398185":{"post_code":"9398185","prefecture":"TOYAMA KEN","city":"TOYAMA SHI","town":"FUTAMATA","perfecture_jp":"富山県","jp_add_1":"富山市","jp_add_2":"二俣"},"9398184":{"post_code":"9398184","prefecture":"TOYAMA KEN","city":"TOYAMA SHI","town":"FUTAMATASHIMMACHI","perfecture_jp":"富山県","jp_add_1":"富山市","jp_add_2":"二俣新町"},"9392205":{"post_code":"9392205","prefecture":"TOYAMA KEN","city":"TOYAMA SHI","town":"FUTAMATSU","perfecture_jp":"富山県","jp_add_1":"富山市","jp_add_2":"二松"},"9392731":{"post_code":"9392731","prefecture":"TOYAMA KEN","city":"TOYAMA SHI","town":"FUCHUMACHI AOJIMA","perfecture_jp":"富山県","jp_add_1":"富山市","jp_add_2":"婦中町青島"},"9392607":{"post_code":"9392607","prefecture":"TOYAMA KEN","city":"TOYAMA SHI","town":"FUCHUMACHI ARAMACHI","perfecture_jp":"富山県","jp_add_1":"富山市","jp_add_2":"婦中町新町"},"9392734":{"post_code":"9392734","prefecture":"TOYAMA KEN","city":"TOYAMA SHI","town":"FUCHUMACHI ARAYA","perfecture_jp":"富山県","jp_add_1":"富山市","jp_add_2":"婦中町新屋"},"9392721":{"post_code":"9392721","prefecture":"TOYAMA KEN","city":"TOYAMA SHI","town":"FUCHUMACHI ITAKURASHIN","perfecture_jp":"富山県","jp_add_1":"富山市","jp_add_2":"婦中町板倉"},"9392711":{"post_code":"9392711","prefecture":"TOYAMA KEN","city":"TOYAMA SHI","town":"FUCHUMACHI USAKA","perfecture_jp":"富山県","jp_add_1":"富山市","jp_add_2":"婦中町鵜坂"},"9392634":{"post_code":"9392634","prefecture":"TOYAMA KEN","city":"TOYAMA SHI","town":"FUCHUMACHI USHINAMERI","perfecture_jp":"富山県","jp_add_1":"富山市","jp_add_2":"婦中町牛滑"},"9392627":{"post_code":"9392627","prefecture":"TOYAMA KEN","city":"TOYAMA SHI","town":"FUCHUMACHI KAIJAKU","perfecture_jp":"富山県","jp_add_1":"富山市","jp_add_2":"婦中町上野"},"9392635":{"post_code":"9392635","prefecture":"TOYAMA KEN","city":"TOYAMA SHI","town":"FUCHUMACHI OSEDANI","perfecture_jp":"富山県","jp_add_1":"富山市","jp_add_2":"婦中町大瀬谷"},"9392616":{"post_code":"9392616","prefecture":"TOYAMA KEN","city":"TOYAMA SHI","town":"FUCHUMACHI OGURA","perfecture_jp":"富山県","jp_add_1":"富山市","jp_add_2":"婦中町小倉"},"9392611":{"post_code":"9392611","prefecture":"TOYAMA KEN","city":"TOYAMA SHI","town":"FUCHUMACHI TAKATA","perfecture_jp":"富山県","jp_add_1":"富山市","jp_add_2":"婦中町かたかご台"},"9392736":{"post_code":"9392736","prefecture":"TOYAMA KEN","city":"TOYAMA SHI","town":"FUCHUMACHI KAMIARAYA","perfecture_jp":"富山県","jp_add_1":"富山市","jp_add_2":"婦中町上新屋"},"9392614":{"post_code":"9392614","prefecture":"TOYAMA KEN","city":"TOYAMA SHI","town":"FUCHUMACHI KAMIISAWA","perfecture_jp":"富山県","jp_add_1":"富山市","jp_add_2":"婦中町上井沢"},"9392713":{"post_code":"9392713","prefecture":"TOYAMA KEN","city":"TOYAMA SHI","town":"FUCHUMACHI KAMIKUTSUWADA","perfecture_jp":"富山県","jp_add_1":"富山市","jp_add_2":"婦中町上轡田"},"9392625":{"post_code":"9392625","prefecture":"TOYAMA KEN","city":"TOYAMA SHI","town":"FUCHUMACHI TAKAYAMA","perfecture_jp":"富山県","jp_add_1":"富山市","jp_add_2":"婦中町上瀬"},"9392717":{"post_code":"9392717","prefecture":"TOYAMA KEN","city":"TOYAMA SHI","town":"FUCHUMACHI KAMITAJIMA","perfecture_jp":"富山県","jp_add_1":"富山市","jp_add_2":"婦中町上田島"},"9392612":{"post_code":"9392612","prefecture":"TOYAMA KEN","city":"TOYAMA SHI","town":"FUCHUMACHI KAMIYOSHIKAWANYUTAUN","perfecture_jp":"富山県","jp_add_1":"富山市","jp_add_2":"婦中町上吉川"},"9392605":{"post_code":"9392605","prefecture":"TOYAMA KEN","city":"TOYAMA SHI","town":"FUCHUMACHI KAWARAMACHI","perfecture_jp":"富山県","jp_add_1":"富山市","jp_add_2":"婦中町河原町"},"9392703":{"post_code":"9392703","prefecture":"TOYAMA KEN","city":"TOYAMA SHI","town":"FUCHUMACHI KIBOGAOKA","perfecture_jp":"富山県","jp_add_1":"富山市","jp_add_2":"婦中町希望ケ丘"},"9392758":{"post_code":"9392758","prefecture":"TOYAMA KEN","city":"TOYAMA SHI","town":"FUCHUMACHI GEJO","perfecture_jp":"富山県","jp_add_1":"富山市","jp_add_2":"婦中町下条"},"9392752":{"post_code":"9392752","prefecture":"TOYAMA KEN","city":"TOYAMA SHI","town":"FUCHUMACHI KOIZUMI","perfecture_jp":"富山県","jp_add_1":"富山市","jp_add_2":"婦中町小泉"},"9392601":{"post_code":"9392601","prefecture":"TOYAMA KEN","city":"TOYAMA SHI","town":"FUCHUMACHI KONAGASAWA","perfecture_jp":"富山県","jp_add_1":"富山市","jp_add_2":"婦中町小長沢"},"9392604":{"post_code":"9392604","prefecture":"TOYAMA KEN","city":"TOYAMA SHI","town":"FUCHUMACHI TOMIKAWA","perfecture_jp":"富山県","jp_add_1":"富山市","jp_add_2":"婦中町小野島"},"9392753":{"post_code":"9392753","prefecture":"TOYAMA KEN","city":"TOYAMA SHI","town":"FUCHUMACHI SASAKURA","perfecture_jp":"富山県","jp_add_1":"富山市","jp_add_2":"婦中町笹倉"},"9392622":{"post_code":"9392622","prefecture":"TOYAMA KEN","city":"TOYAMA SHI","town":"FUCHUMACHI HOKONOKI","perfecture_jp":"富山県","jp_add_1":"富山市","jp_add_2":"婦中町沢田"},"9392744":{"post_code":"9392744","prefecture":"TOYAMA KEN","city":"TOYAMA SHI","town":"FUCHUMACHI JIKAKU","perfecture_jp":"富山県","jp_add_1":"富山市","jp_add_2":"婦中町地角"},"9392617":{"post_code":"9392617","prefecture":"TOYAMA KEN","city":"TOYAMA SHI","town":"FUCHUMACHI SHIMADA","perfecture_jp":"富山県","jp_add_1":"富山市","jp_add_2":"婦中町島田"},"9392708":{"post_code":"9392708","prefecture":"TOYAMA KEN","city":"TOYAMA SHI","town":"FUCHUMACHI SHIMAHONGO","perfecture_jp":"富山県","jp_add_1":"富山市","jp_add_2":"婦中町島本郷"},"9392743":{"post_code":"9392743","prefecture":"TOYAMA KEN","city":"TOYAMA SHI","town":"FUCHUMACHI SHIMIZUSHIMA","perfecture_jp":"富山県","jp_add_1":"富山市","jp_add_2":"婦中町清水島"},"9392756":{"post_code":"9392756","prefecture":"TOYAMA KEN","city":"TOYAMA SHI","town":"FUCHUMACHI SHIMOISAWA","perfecture_jp":"富山県","jp_add_1":"富山市","jp_add_2":"婦中町下井沢"},"9392716":{"post_code":"9392716","prefecture":"TOYAMA KEN","city":"TOYAMA SHI","town":"FUCHUMACHI SHIMOKUTSUWADA","perfecture_jp":"富山県","jp_add_1":"富山市","jp_add_2":"婦中町下轡田"},"9392715":{"post_code":"9392715","prefecture":"TOYAMA KEN","city":"TOYAMA SHI","town":"FUCHUMACHI SHIMOSAKAKURA","perfecture_jp":"富山県","jp_add_1":"富山市","jp_add_2":"婦中町下坂倉"},"9392624":{"post_code":"9392624","prefecture":"TOYAMA KEN","city":"TOYAMA SHI","town":"FUCHUMACHI SHIMOZE","perfecture_jp":"富山県","jp_add_1":"富山市","jp_add_2":"婦中町下瀬"},"9392602":{"post_code":"9392602","prefecture":"TOYAMA KEN","city":"TOYAMA SHI","town":"FUCHUMACHI SHIMOMURA","perfecture_jp":"富山県","jp_add_1":"富山市","jp_add_2":"婦中町下邑"},"9392737":{"post_code":"9392737","prefecture":"TOYAMA KEN","city":"TOYAMA SHI","town":"FUCHUMACHI JUGOCHO","perfecture_jp":"富山県","jp_add_1":"富山市","jp_add_2":"婦中町十五丁"},"9392727":{"post_code":"9392727","prefecture":"TOYAMA KEN","city":"TOYAMA SHI","town":"FUCHUMACHI SUNAGODA","perfecture_jp":"富山県","jp_add_1":"富山市","jp_add_2":"婦中町砂子田"},"9392726":{"post_code":"9392726","prefecture":"TOYAMA KEN","city":"TOYAMA SHI","town":"FUCHUMACHI ZOJIMA","perfecture_jp":"富山県","jp_add_1":"富山市","jp_add_2":"婦中町蔵島"},"9392722":{"post_code":"9392722","prefecture":"TOYAMA KEN","city":"TOYAMA SHI","town":"FUCHUMACHI SOEJIMA","perfecture_jp":"富山県","jp_add_1":"富山市","jp_add_2":"婦中町添島"},"9392632":{"post_code":"9392632","prefecture":"TOYAMA KEN","city":"TOYAMA SHI","town":"FUCHUMACHI YOSHIZUMI","perfecture_jp":"富山県","jp_add_1":"富山市","jp_add_2":"婦中町外輪野"},"9392639":{"post_code":"9392639","prefecture":"TOYAMA KEN","city":"TOYAMA SHI","town":"FUCHUMACHI DAIRA","perfecture_jp":"富山県","jp_add_1":"富山市","jp_add_2":"婦中町平等"},"9392631":{"post_code":"9392631","prefecture":"TOYAMA KEN","city":"TOYAMA SHI","town":"FUCHUMACHI MIYAGATANI","perfecture_jp":"富山県","jp_add_1":"富山市","jp_add_2":"婦中町高塚"},"9392613":{"post_code":"9392613","prefecture":"TOYAMA KEN","city":"TOYAMA SHI","town":"FUCHUMACHI TAKAHIZUKI","perfecture_jp":"富山県","jp_add_1":"富山市","jp_add_2":"婦中町高日附"},"9392702":{"post_code":"9392702","prefecture":"TOYAMA KEN","city":"TOYAMA SHI","town":"FUCHUMACHI TAJIMA","perfecture_jp":"富山県","jp_add_1":"富山市","jp_add_2":"婦中町田島"},"9392735":{"post_code":"9392735","prefecture":"TOYAMA KEN","city":"TOYAMA SHI","town":"FUCHUMACHI TAMENARISHIN","perfecture_jp":"富山県","jp_add_1":"富山市","jp_add_2":"婦中町為成新"},"9392748":{"post_code":"9392748","prefecture":"TOYAMA KEN","city":"TOYAMA SHI","town":"FUCHUMACHI TAYASHIN","perfecture_jp":"富山県","jp_add_1":"富山市","jp_add_2":"婦中町田屋"},"9392712":{"post_code":"9392712","prefecture":"TOYAMA KEN","city":"TOYAMA SHI","town":"FUCHUMACHI TSUKAHARA","perfecture_jp":"富山県","jp_add_1":"富山市","jp_add_2":"婦中町塚原"},"9392738":{"post_code":"9392738","prefecture":"TOYAMA KEN","city":"TOYAMA SHI","town":"FUCHUMACHI DOKIJIMA","perfecture_jp":"富山県","jp_add_1":"富山市","jp_add_2":"婦中町道喜島"},"9392626":{"post_code":"9392626","prefecture":"TOYAMA KEN","city":"TOYAMA SHI","town":"FUCHUMACHI DOJIMA","perfecture_jp":"富山県","jp_add_1":"富山市","jp_add_2":"婦中町道島"},"9392757":{"post_code":"9392757","prefecture":"TOYAMA KEN","city":"TOYAMA SHI","town":"FUCHUMACHI DOJO","perfecture_jp":"富山県","jp_add_1":"富山市","jp_add_2":"婦中町道場"},"9392621":{"post_code":"9392621","prefecture":"TOYAMA KEN","city":"TOYAMA SHI","town":"FUCHUMACHI TOMISAKI","perfecture_jp":"富山県","jp_add_1":"富山市","jp_add_2":"婦中町富崎"},"9392759":{"post_code":"9392759","prefecture":"TOYAMA KEN","city":"TOYAMA SHI","town":"FUCHUMACHI TOMOSAKA","perfecture_jp":"富山県","jp_add_1":"富山市","jp_add_2":"婦中町友坂"},"9392606":{"post_code":"9392606","prefecture":"TOYAMA KEN","city":"TOYAMA SHI","town":"FUCHUMACHI HIMAWARIDAI","perfecture_jp":"富山県","jp_add_1":"富山市","jp_add_2":"婦中町長沢"},"9392747":{"post_code":"9392747","prefecture":"TOYAMA KEN","city":"TOYAMA SHI","town":"FUCHUMACHI NAKAJIMA","perfecture_jp":"富山県","jp_add_1":"富山市","jp_add_2":"婦中町中島"},"9392741":{"post_code":"9392741","prefecture":"TOYAMA KEN","city":"TOYAMA SHI","town":"FUCHUMACHI NAKANOMYO","perfecture_jp":"富山県","jp_add_1":"富山市","jp_add_2":"婦中町中名"},"9392733":{"post_code":"9392733","prefecture":"TOYAMA KEN","city":"TOYAMA SHI","town":"FUCHUMACHI NARUKO","perfecture_jp":"富山県","jp_add_1":"富山市","jp_add_2":"婦中町成子"},"9392719":{"post_code":"9392719","prefecture":"TOYAMA KEN","city":"TOYAMA SHI","town":"FUCHUMACHI NISHIGAOKA","perfecture_jp":"富山県","jp_add_1":"富山市","jp_add_2":"婦中町西ヶ丘"},"9392701":{"post_code":"9392701","prefecture":"TOYAMA KEN","city":"TOYAMA SHI","town":"FUCHUMACHI NISHIHONGO","perfecture_jp":"富山県","jp_add_1":"富山市","jp_add_2":"婦中町西本郷"},"9392724":{"post_code":"9392724","prefecture":"TOYAMA KEN","city":"TOYAMA SHI","town":"FUCHUMACHI NEMUNOKI","perfecture_jp":"富山県","jp_add_1":"富山市","jp_add_2":"婦中町ねむの木"},"9392723":{"post_code":"9392723","prefecture":"TOYAMA KEN","city":"TOYAMA SHI","town":"FUCHUMACHI HAGINOSHIMA","perfecture_jp":"富山県","jp_add_1":"富山市","jp_add_2":"婦中町萩島"},"9392603":{"post_code":"9392603","prefecture":"TOYAMA KEN","city":"TOYAMA SHI","town":"FUCHUMACHI HANE","perfecture_jp":"富山県","jp_add_1":"富山市","jp_add_2":"婦中町羽根"},"9392704":{"post_code":"9392704","prefecture":"TOYAMA KEN","city":"TOYAMA SHI","town":"FUCHUMACHI HANESHIN","perfecture_jp":"富山県","jp_add_1":"富山市","jp_add_2":"婦中町羽根新"},"9392746":{"post_code":"9392746","prefecture":"TOYAMA KEN","city":"TOYAMA SHI","town":"FUCHUMACHI HAMANOKO","perfecture_jp":"富山県","jp_add_1":"富山市","jp_add_2":"婦中町浜子"},"9392706":{"post_code":"9392706","prefecture":"TOYAMA KEN","city":"TOYAMA SHI","town":"FUCHUMACHI HAYAHOSHI","perfecture_jp":"富山県","jp_add_1":"富山市","jp_add_2":"婦中町速星"},"9392633":{"post_code":"9392633","prefecture":"TOYAMA KEN","city":"TOYAMA SHI","town":"FUCHUMACHI HIGASHITANI","perfecture_jp":"富山県","jp_add_1":"富山市","jp_add_2":"婦中町東谷"},"9392707":{"post_code":"9392707","prefecture":"TOYAMA KEN","city":"TOYAMA SHI","town":"FUCHUMACHI HIGASHIHONGO","perfecture_jp":"富山県","jp_add_1":"富山市","jp_add_2":"婦中町東本郷"},"9392636":{"post_code":"9392636","prefecture":"TOYAMA KEN","city":"TOYAMA SHI","town":"FUCHUMACHI MUKUGAHARA","perfecture_jp":"富山県","jp_add_1":"富山市","jp_add_2":"婦中町東山"},"9392729":{"post_code":"9392729","prefecture":"TOYAMA KEN","city":"TOYAMA SHI","town":"FUCHUMACHI HIBIKINOMORI","perfecture_jp":"富山県","jp_add_1":"富山市","jp_add_2":"婦中町響の杜"},"9392745":{"post_code":"9392745","prefecture":"TOYAMA KEN","city":"TOYAMA SHI","town":"FUCHUMACHI HIROTA","perfecture_jp":"富山県","jp_add_1":"富山市","jp_add_2":"婦中町広田"},"9392755":{"post_code":"9392755","prefecture":"TOYAMA KEN","city":"TOYAMA SHI","town":"FUCHUMACHI FUKURO","perfecture_jp":"富山県","jp_add_1":"富山市","jp_add_2":"婦中町袋"},"9392718":{"post_code":"9392718","prefecture":"TOYAMA KEN","city":"TOYAMA SHI","town":"FUCHUMACHI BUNDEN","perfecture_jp":"富山県","jp_add_1":"富山市","jp_add_2":"婦中町分田"},"9392638":{"post_code":"9392638","prefecture":"TOYAMA KEN","city":"TOYAMA SHI","town":"FUCHUMACHI YOSHITANI","perfecture_jp":"富山県","jp_add_1":"富山市","jp_add_2":"婦中町細谷"},"9392728":{"post_code":"9392728","prefecture":"TOYAMA KEN","city":"TOYAMA SHI","town":"FUCHUMACHI HOTARUGAWA","perfecture_jp":"富山県","jp_add_1":"富山市","jp_add_2":"婦中町蛍川"},"9392742":{"post_code":"9392742","prefecture":"TOYAMA KEN","city":"TOYAMA SHI","town":"FUCHUMACHI HORI","perfecture_jp":"富山県","jp_add_1":"富山市","jp_add_2":"婦中町堀"},"9392714":{"post_code":"9392714","prefecture":"TOYAMA KEN","city":"TOYAMA SHI","town":"FUCHUMACHI MASUDA","perfecture_jp":"富山県","jp_add_1":"富山市","jp_add_2":"婦中町増田"},"9392637":{"post_code":"9392637","prefecture":"TOYAMA KEN","city":"TOYAMA SHI","town":"FUCHUMACHI MISAGODANI","perfecture_jp":"富山県","jp_add_1":"富山市","jp_add_2":"婦中町鶚谷"},"9392705":{"post_code":"9392705","prefecture":"TOYAMA KEN","city":"TOYAMA SHI","town":"FUCHUMACHI MIYAGASHIMA","perfecture_jp":"富山県","jp_add_1":"富山市","jp_add_2":"婦中町宮ケ島"},"9392754":{"post_code":"9392754","prefecture":"TOYAMA KEN","city":"TOYAMA SHI","town":"FUCHUMACHI MUGIJIMA","perfecture_jp":"富山県","jp_add_1":"富山市","jp_add_2":"婦中町麦島"},"9392725":{"post_code":"9392725","prefecture":"TOYAMA KEN","city":"TOYAMA SHI","town":"FUCHUMACHI MOCHIDEN","perfecture_jp":"富山県","jp_add_1":"富山市","jp_add_2":"婦中町持田"},"9392751":{"post_code":"9392751","prefecture":"TOYAMA KEN","city":"TOYAMA SHI","town":"FUCHUMACHI YASUDA","perfecture_jp":"富山県","jp_add_1":"富山市","jp_add_2":"婦中町安田"},"9392615":{"post_code":"9392615","prefecture":"TOYAMA KEN","city":"TOYAMA SHI","town":"FUCHUMACHI YANDO","perfecture_jp":"富山県","jp_add_1":"富山市","jp_add_2":"婦中町熊野道"},"9392709":{"post_code":"9392709","prefecture":"TOYAMA KEN","city":"TOYAMA SHI","town":"FUCHUMACHI YUMEGAOKA","perfecture_jp":"富山県","jp_add_1":"富山市","jp_add_2":"婦中町夢ケ丘"},"9392649":{"post_code":"9392649","prefecture":"TOYAMA KEN","city":"TOYAMA SHI","town":"FUCHUMACHI YOKAWA(NISHIYOKAWA)","perfecture_jp":"富山県","jp_add_1":"富山市","jp_add_2":"婦中町余川"},"9392749":{"post_code":"9392749","prefecture":"TOYAMA KEN","city":"TOYAMA SHI","town":"FUCHUMACHI YOKAWA(HIGASHIYOKAWA)","perfecture_jp":"富山県","jp_add_1":"富山市","jp_add_2":"婦中町余川"},"9392732":{"post_code":"9392732","prefecture":"TOYAMA KEN","city":"TOYAMA SHI","town":"FUCHUMACHI YOKONO","perfecture_jp":"富山県","jp_add_1":"富山市","jp_add_2":"婦中町横野"},"9392623":{"post_code":"9392623","prefecture":"TOYAMA KEN","city":"TOYAMA SHI","town":"FUCHUMACHI RENGEJI","perfecture_jp":"富山県","jp_add_1":"富山市","jp_add_2":"婦中町蓮花寺"},"9392212":{"post_code":"9392212","prefecture":"TOYAMA KEN","city":"TOYAMA SHI","town":"FUNAKURA","perfecture_jp":"富山県","jp_add_1":"富山市","jp_add_2":"舟倉"},"9392176":{"post_code":"9392176","prefecture":"TOYAMA KEN","city":"TOYAMA SHI","town":"FUNATO","perfecture_jp":"富山県","jp_add_1":"富山市","jp_add_2":"舟渡"},"9398023":{"post_code":"9398023","prefecture":"TOYAMA KEN","city":"TOYAMA SHI","town":"FURUDERA","perfecture_jp":"富山県","jp_add_1":"富山市","jp_add_2":"古寺"},"9398024":{"post_code":"9398024","prefecture":"TOYAMA KEN","city":"TOYAMA SHI","town":"FURUDERASHIMMACHI","perfecture_jp":"富山県","jp_add_1":"富山市","jp_add_2":"古寺新町"},"9398254":{"post_code":"9398254","prefecture":"TOYAMA KEN","city":"TOYAMA SHI","town":"BETSUMYO","perfecture_jp":"富山県","jp_add_1":"富山市","jp_add_2":"別名"},"9398057":{"post_code":"9398057","prefecture":"TOYAMA KEN","city":"TOYAMA SHI","town":"HORI","perfecture_jp":"富山県","jp_add_1":"富山市","jp_add_2":"堀"},"9398081":{"post_code":"9398081","prefecture":"TOYAMA KEN","city":"TOYAMA SHI","town":"HORIKAWAKOIZUMICHO","perfecture_jp":"富山県","jp_add_1":"富山市","jp_add_2":"堀川小泉町"},"9398053":{"post_code":"9398053","prefecture":"TOYAMA KEN","city":"TOYAMA SHI","town":"HORIKAWATENZAMMACHI","perfecture_jp":"富山県","jp_add_1":"富山市","jp_add_2":"堀川天山町"},"9398049":{"post_code":"9398049","prefecture":"TOYAMA KEN","city":"TOYAMA SHI","town":"HORIKAWAHONGO","perfecture_jp":"富山県","jp_add_1":"富山市","jp_add_2":"堀川本郷"},"9398072":{"post_code":"9398072","prefecture":"TOYAMA KEN","city":"TOYAMA SHI","town":"HORIKAWAMACHI","perfecture_jp":"富山県","jp_add_1":"富山市","jp_add_2":"堀川町"},"9398046":{"post_code":"9398046","prefecture":"TOYAMA KEN","city":"TOYAMA SHI","town":"HONGOSHIN","perfecture_jp":"富山県","jp_add_1":"富山市","jp_add_2":"本郷新"},"9398045":{"post_code":"9398045","prefecture":"TOYAMA KEN","city":"TOYAMA SHI","town":"HONGOMACHI","perfecture_jp":"富山県","jp_add_1":"富山市","jp_add_2":"本郷町"},"9398161":{"post_code":"9398161","prefecture":"TOYAMA KEN","city":"TOYAMA SHI","town":"MAKIDA","perfecture_jp":"富山県","jp_add_1":"富山市","jp_add_2":"牧田"},"9392164":{"post_code":"9392164","prefecture":"TOYAMA KEN","city":"TOYAMA SHI","town":"MACHINAGA","perfecture_jp":"富山県","jp_add_1":"富山市","jp_add_2":"町長"},"9398017":{"post_code":"9398017","prefecture":"TOYAMA KEN","city":"TOYAMA SHI","town":"MATSUGAOKA","perfecture_jp":"富山県","jp_add_1":"富山市","jp_add_2":"松ケ丘"},"9392203":{"post_code":"9392203","prefecture":"TOYAMA KEN","city":"TOYAMA SHI","town":"MATSUNO","perfecture_jp":"富山県","jp_add_1":"富山市","jp_add_2":"松野"},"9392204":{"post_code":"9392204","prefecture":"TOYAMA KEN","city":"TOYAMA SHI","town":"MANGANJI","perfecture_jp":"富山県","jp_add_1":"富山市","jp_add_2":"万願寺"},"9390511":{"post_code":"9390511","prefecture":"TOYAMA KEN","city":"TOYAMA SHI","town":"MIZUHASHI TAKATSUKI","perfecture_jp":"富山県","jp_add_1":"富山市","jp_add_2":"水橋朝日町"},"9393516":{"post_code":"9393516","prefecture":"TOYAMA KEN","city":"TOYAMA SHI","town":"MIZUHASHIARAMACHI","perfecture_jp":"富山県","jp_add_1":"富山市","jp_add_2":"水橋荒町"},"9393523":{"post_code":"9393523","prefecture":"TOYAMA KEN","city":"TOYAMA SHI","town":"MIZUHASHI IKEDATACHI","perfecture_jp":"富山県","jp_add_1":"富山市","jp_add_2":"水橋池田舘"},"9393531":{"post_code":"9393531","prefecture":"TOYAMA KEN","city":"TOYAMA SHI","town":"MIZUHASHI IKEDAMACHI","perfecture_jp":"富山県","jp_add_1":"富山市","jp_add_2":"水橋池田町"},"9390551":{"post_code":"9390551","prefecture":"TOYAMA KEN","city":"TOYAMA SHI","town":"MIZUHASHI ISHIMASA","perfecture_jp":"富山県","jp_add_1":"富山市","jp_add_2":"水橋石政"},"9390561":{"post_code":"9390561","prefecture":"TOYAMA KEN","city":"TOYAMA SHI","town":"MIZUHASHI ISHIWARI","perfecture_jp":"富山県","jp_add_1":"富山市","jp_add_2":"水橋石割"},"9393524":{"post_code":"9393524","prefecture":"TOYAMA KEN","city":"TOYAMA SHI","town":"MIZUHASHI ISEYA","perfecture_jp":"富山県","jp_add_1":"富山市","jp_add_2":"水橋伊勢屋"},"9390545":{"post_code":"9390545","prefecture":"TOYAMA KEN","city":"TOYAMA SHI","town":"MIZUHASHI ISERYO","perfecture_jp":"富山県","jp_add_1":"富山市","jp_add_2":"水橋伊勢領"},"9390531":{"post_code":"9390531","prefecture":"TOYAMA KEN","city":"TOYAMA SHI","town":"MIZUHASHI ICHIE","perfecture_jp":"富山県","jp_add_1":"富山市","jp_add_2":"水橋市江"},"9390532":{"post_code":"9390532","prefecture":"TOYAMA KEN","city":"TOYAMA SHI","town":"MIZUHASHIICHIESHIMMACHI","perfecture_jp":"富山県","jp_add_1":"富山市","jp_add_2":"水橋市江新町"},"9393555":{"post_code":"9393555","prefecture":"TOYAMA KEN","city":"TOYAMA SHI","town":"MIZUHASHI ICHIDABUKURO","perfecture_jp":"富山県","jp_add_1":"富山市","jp_add_2":"水橋市田袋"},"9390514":{"post_code":"9390514","prefecture":"TOYAMA KEN","city":"TOYAMA SHI","town":"MIZUHASHIINARIMACHI","perfecture_jp":"富山県","jp_add_1":"富山市","jp_add_2":"水橋稲荷町"},"9393504":{"post_code":"9393504","prefecture":"TOYAMA KEN","city":"TOYAMA SHI","town":"MIZUHASHIIMAMACHI","perfecture_jp":"富山県","jp_add_1":"富山市","jp_add_2":"水橋今町"},"9393544":{"post_code":"9393544","prefecture":"TOYAMA KEN","city":"TOYAMA SHI","town":"MIZUHASHI IRIE","perfecture_jp":"富山県","jp_add_1":"富山市","jp_add_2":"水橋入江"},"9393501":{"post_code":"9393501","prefecture":"TOYAMA KEN","city":"TOYAMA SHI","town":"MIZUHASHIINDEMMACHI","perfecture_jp":"富山県","jp_add_1":"富山市","jp_add_2":"水橋印田町"},"9393525":{"post_code":"9393525","prefecture":"TOYAMA KEN","city":"TOYAMA SHI","town":"MIZUHASHIEKIMAE","perfecture_jp":"富山県","jp_add_1":"富山市","jp_add_2":"水橋駅前"},"9390506":{"post_code":"9390506","prefecture":"TOYAMA KEN","city":"TOYAMA SHI","town":"MIZUHASHINAKAOMACHI","perfecture_jp":"富山県","jp_add_1":"富山市","jp_add_2":"水橋大町"},"9393512":{"post_code":"9393512","prefecture":"TOYAMA KEN","city":"TOYAMA SHI","town":"MIZUHASHINISHIOMACHI","perfecture_jp":"富山県","jp_add_1":"富山市","jp_add_2":"水橋大町"},"9393541":{"post_code":"9393541","prefecture":"TOYAMA KEN","city":"TOYAMA SHI","town":"MIZUHASHI OKI","perfecture_jp":"富山県","jp_add_1":"富山市","jp_add_2":"水橋沖"},"9393552":{"post_code":"9393552","prefecture":"TOYAMA KEN","city":"TOYAMA SHI","town":"MIZUHASHI KAINAZAKI","perfecture_jp":"富山県","jp_add_1":"富山市","jp_add_2":"水橋肘崎"},"9393542":{"post_code":"9393542","prefecture":"TOYAMA KEN","city":"TOYAMA SHI","town":"MIZUHASHI KAIHOTSU","perfecture_jp":"富山県","jp_add_1":"富山市","jp_add_2":"水橋開発"},"9390535":{"post_code":"9390535","prefecture":"TOYAMA KEN","city":"TOYAMA SHI","town":"MIZUHASHI KAIHOTSUMACHI","perfecture_jp":"富山県","jp_add_1":"富山市","jp_add_2":"水橋開発町"},"9390541":{"post_code":"9390541","prefecture":"TOYAMA KEN","city":"TOYAMA SHI","town":"MIZUHASHI KAGAMIDA","perfecture_jp":"富山県","jp_add_1":"富山市","jp_add_2":"水橋鏡田"},"9390542":{"post_code":"9390542","prefecture":"TOYAMA KEN","city":"TOYAMA SHI","town":"MIZUHASHI KATADA","perfecture_jp":"富山県","jp_add_1":"富山市","jp_add_2":"水橋堅田"},"9393534":{"post_code":"9393534","prefecture":"TOYAMA KEN","city":"TOYAMA SHI","town":"MIZUHASHI BANDOMYO","perfecture_jp":"富山県","jp_add_1":"富山市","jp_add_2":"水橋金尾"},"9393536":{"post_code":"9393536","prefecture":"TOYAMA KEN","city":"TOYAMA SHI","town":"MIZUHASHI KANAOSHIN","perfecture_jp":"富山県","jp_add_1":"富山市","jp_add_2":"水橋金尾新"},"9390565":{"post_code":"9390565","prefecture":"TOYAMA KEN","city":"TOYAMA SHI","town":"MIZUHASHIKANEHIRO","perfecture_jp":"富山県","jp_add_1":"富山市","jp_add_2":"水橋金広"},"9390546":{"post_code":"9390546","prefecture":"TOYAMA KEN","city":"TOYAMA SHI","town":"MIZUHASHI SAKURAGI","perfecture_jp":"富山県","jp_add_1":"富山市","jp_add_2":"水橋上桜木"},"9390544":{"post_code":"9390544","prefecture":"TOYAMA KEN","city":"TOYAMA SHI","town":"MIZUHASHISHIMOSUNAGOZAKASHIN","perfecture_jp":"富山県","jp_add_1":"富山市","jp_add_2":"水橋上砂子坂"},"9393553":{"post_code":"9393553","prefecture":"TOYAMA KEN","city":"TOYAMA SHI","town":"MIZUHASHI MATOBA","perfecture_jp":"富山県","jp_add_1":"富山市","jp_add_2":"水橋上的場"},"9393502":{"post_code":"9393502","prefecture":"TOYAMA KEN","city":"TOYAMA SHI","town":"MIZUHASHI KAWARAMACHI","perfecture_jp":"富山県","jp_add_1":"富山市","jp_add_2":"水橋川原町"},"9390567":{"post_code":"9390567","prefecture":"TOYAMA KEN","city":"TOYAMA SHI","town":"MIZUHASHI KITABAMBA","perfecture_jp":"富山県","jp_add_1":"富山市","jp_add_2":"水橋北馬場"},"9390534":{"post_code":"9390534","prefecture":"TOYAMA KEN","city":"TOYAMA SHI","town":"MIZUHASHI KITSUNEZUKA","perfecture_jp":"富山県","jp_add_1":"富山市","jp_add_2":"水橋狐塚"},"9390547":{"post_code":"9390547","prefecture":"TOYAMA KEN","city":"TOYAMA SHI","town":"MIZUHASHI KOIKE","perfecture_jp":"富山県","jp_add_1":"富山市","jp_add_2":"水橋小池"},"9390552":{"post_code":"9390552","prefecture":"TOYAMA KEN","city":"TOYAMA SHI","town":"MIZUHASHI KOIZUKA","perfecture_jp":"富山県","jp_add_1":"富山市","jp_add_2":"水橋恋塚"},"9390553":{"post_code":"9390553","prefecture":"TOYAMA KEN","city":"TOYAMA SHI","town":"MIZUHASHI KOIDE","perfecture_jp":"富山県","jp_add_1":"富山市","jp_add_2":"水橋小出"},"9390533":{"post_code":"9390533","prefecture":"TOYAMA KEN","city":"TOYAMA SHI","town":"MIZUHASHI KOSHIZONOCHO","perfecture_jp":"富山県","jp_add_1":"富山市","jp_add_2":"水橋高志園町"},"9390543":{"post_code":"9390543","prefecture":"TOYAMA KEN","city":"TOYAMA SHI","town":"MIZUHASHI GOROMARU","perfecture_jp":"富山県","jp_add_1":"富山市","jp_add_2":"水橋五郎丸"},"9390563":{"post_code":"9390563","prefecture":"TOYAMA KEN","city":"TOYAMA SHI","town":"MIZUHASHI SANOTAKE","perfecture_jp":"富山県","jp_add_1":"富山市","jp_add_2":"水橋佐野竹"},"9393506":{"post_code":"9393506","prefecture":"TOYAMA KEN","city":"TOYAMA SHI","town":"MIZUHASHI SANNOMACHI","perfecture_jp":"富山県","jp_add_1":"富山市","jp_add_2":"水橋山王町"},"9390521":{"post_code":"9390521","prefecture":"TOYAMA KEN","city":"TOYAMA SHI","town":"MIZUHASHI NAKAMURAMACHI","perfecture_jp":"富山県","jp_add_1":"富山市","jp_add_2":"水橋下段"},"9393547":{"post_code":"9393547","prefecture":"TOYAMA KEN","city":"TOYAMA SHI","town":"MIZUHASHI SHIBAKUSA","perfecture_jp":"富山県","jp_add_1":"富山市","jp_add_2":"水橋柴草"},"9390564":{"post_code":"9390564","prefecture":"TOYAMA KEN","city":"TOYAMA SHI","town":"MIZUHASHISHIMIZUDO","perfecture_jp":"富山県","jp_add_1":"富山市","jp_add_2":"水橋清水堂"},"9393543":{"post_code":"9393543","prefecture":"TOYAMA KEN","city":"TOYAMA SHI","town":"MIZUHASHI JOGANJI","perfecture_jp":"富山県","jp_add_1":"富山市","jp_add_2":"水橋常願寺"},"9393554":{"post_code":"9393554","prefecture":"TOYAMA KEN","city":"TOYAMA SHI","town":"MIZUHASHI SHOJI","perfecture_jp":"富山県","jp_add_1":"富山市","jp_add_2":"水橋小路"},"9390558":{"post_code":"9390558","prefecture":"TOYAMA KEN","city":"TOYAMA SHI","town":"MIZUHASHIJOJOSHIMMACHI","perfecture_jp":"富山県","jp_add_1":"富山市","jp_add_2":"水橋上条新町"},"9393526":{"post_code":"9393526","prefecture":"TOYAMA KEN","city":"TOYAMA SHI","town":"MIZUHASHISHOWAMACHI","perfecture_jp":"富山県","jp_add_1":"富山市","jp_add_2":"水橋昭和町"},"9390527":{"post_code":"9390527","prefecture":"TOYAMA KEN","city":"TOYAMA SHI","town":"MIZUHASHISHINOMACHI","perfecture_jp":"富山県","jp_add_1":"富山市","jp_add_2":"水橋新大町"},"9390525":{"post_code":"9390525","prefecture":"TOYAMA KEN","city":"TOYAMA SHI","town":"MIZUHASHISHINTACHIMACHI","perfecture_jp":"富山県","jp_add_1":"富山市","jp_add_2":"水橋新舘町"},"9393514":{"post_code":"9393514","prefecture":"TOYAMA KEN","city":"TOYAMA SHI","town":"MIZUHASHISHINDOMACHI","perfecture_jp":"富山県","jp_add_1":"富山市","jp_add_2":"水橋新堂町"},"9393557":{"post_code":"9393557","prefecture":"TOYAMA KEN","city":"TOYAMA SHI","town":"MIZUHASHIMACHIBUKURO","perfecture_jp":"富山県","jp_add_1":"富山市","jp_add_2":"水橋新保"},"9393535":{"post_code":"9393535","prefecture":"TOYAMA KEN","city":"TOYAMA SHI","town":"MIZUHASHI SHIMBORI","perfecture_jp":"富山県","jp_add_1":"富山市","jp_add_2":"水橋新堀"},"9390515":{"post_code":"9390515","prefecture":"TOYAMA KEN","city":"TOYAMA SHI","town":"MIZUHASHISHIMMACHI","perfecture_jp":"富山県","jp_add_1":"富山市","jp_add_2":"水橋新町"},"9390554":{"post_code":"9390554","prefecture":"TOYAMA KEN","city":"TOYAMA SHI","town":"MIZUHASHI SENKOJI","perfecture_jp":"富山県","jp_add_1":"富山市","jp_add_2":"水橋専光寺"},"9390557":{"post_code":"9390557","prefecture":"TOYAMA KEN","city":"TOYAMA SHI","town":"MIZUHASHITAISHOHOKUBU","perfecture_jp":"富山県","jp_add_1":"富山市","jp_add_2":"水橋大正"},"9393513":{"post_code":"9393513","prefecture":"TOYAMA KEN","city":"TOYAMA SHI","town":"MIZUHASHITAISHOMACHI","perfecture_jp":"富山県","jp_add_1":"富山市","jp_add_2":"水橋大正町"},"9390555":{"post_code":"9390555","prefecture":"TOYAMA KEN","city":"TOYAMA SHI","town":"MIZUHASHI TAKADERA","perfecture_jp":"富山県","jp_add_1":"富山市","jp_add_2":"水橋高寺"},"9393533":{"post_code":"9393533","prefecture":"TOYAMA KEN","city":"TOYAMA SHI","town":"MIZUHASHI TAKADO","perfecture_jp":"富山県","jp_add_1":"富山市","jp_add_2":"水橋高堂"},"9390526":{"post_code":"9390526","prefecture":"TOYAMA KEN","city":"TOYAMA SHI","town":"MIZUHASHI TACHIMACHI","perfecture_jp":"富山県","jp_add_1":"富山市","jp_add_2":"水橋舘町"},"9393503":{"post_code":"9393503","prefecture":"TOYAMA KEN","city":"TOYAMA SHI","town":"MIZUHASHITATEYAMACHO","perfecture_jp":"富山県","jp_add_1":"富山市","jp_add_2":"水橋立山町"},"9390562":{"post_code":"9390562","prefecture":"TOYAMA KEN","city":"TOYAMA SHI","town":"MIZUHASHI TABUSE","perfecture_jp":"富山県","jp_add_1":"富山市","jp_add_2":"水橋田伏"},"9390504":{"post_code":"9390504","prefecture":"TOYAMA KEN","city":"TOYAMA SHI","town":"MIZUHASHITAMACHI","perfecture_jp":"富山県","jp_add_1":"富山市","jp_add_2":"水橋田町"},"9390502":{"post_code":"9390502","prefecture":"TOYAMA KEN","city":"TOYAMA SHI","town":"MIZUHASHIJIZOMACHI","perfecture_jp":"富山県","jp_add_1":"富山市","jp_add_2":"水橋地蔵町"},"9393515":{"post_code":"9393515","prefecture":"TOYAMA KEN","city":"TOYAMA SHI","town":"MIZUHASHI TSUJIGADO","perfecture_jp":"富山県","jp_add_1":"富山市","jp_add_2":"水橋辻ケ堂"},"9393556":{"post_code":"9393556","prefecture":"TOYAMA KEN","city":"TOYAMA SHI","town":"MIZUHASHINAKASHIMMACHI","perfecture_jp":"富山県","jp_add_1":"富山市","jp_add_2":"水橋中新町"},"9390513":{"post_code":"9390513","prefecture":"TOYAMA KEN","city":"TOYAMA SHI","town":"MIZUHASHINAKADEMACHI","perfecture_jp":"富山県","jp_add_1":"富山市","jp_add_2":"水橋中出町"},"9390566":{"post_code":"9390566","prefecture":"TOYAMA KEN","city":"TOYAMA SHI","town":"MIZUHASHI NAKABAMBA","perfecture_jp":"富山県","jp_add_1":"富山市","jp_add_2":"水橋中馬場"},"9393511":{"post_code":"9393511","prefecture":"TOYAMA KEN","city":"TOYAMA SHI","town":"MIZUHASHI NAKAMACHI","perfecture_jp":"富山県","jp_add_1":"富山市","jp_add_2":"水橋中町"},"9393551":{"post_code":"9393551","prefecture":"TOYAMA KEN","city":"TOYAMA SHI","town":"MIZUHASHI NAKAMURA","perfecture_jp":"富山県","jp_add_1":"富山市","jp_add_2":"水橋中村"},"9390522":{"post_code":"9390522","prefecture":"TOYAMA KEN","city":"TOYAMA SHI","town":"MIZUHASHINAKAMURASAKAEMACHI","perfecture_jp":"富山県","jp_add_1":"富山市","jp_add_2":"水橋中村栄町"},"9390523":{"post_code":"9390523","prefecture":"TOYAMA KEN","city":"TOYAMA SHI","town":"MIZUHASHINAKAMURASHIMMACHI","perfecture_jp":"富山県","jp_add_1":"富山市","jp_add_2":"水橋中村新町"},"9390503":{"post_code":"9390503","prefecture":"TOYAMA KEN","city":"TOYAMA SHI","town":"MIZUHASHINISHIDEMACHI","perfecture_jp":"富山県","jp_add_1":"富山市","jp_add_2":"水橋西出町"},"9390507":{"post_code":"9390507","prefecture":"TOYAMA KEN","city":"TOYAMA SHI","town":"MIZUHASHINISHITENJIMMACHI","perfecture_jp":"富山県","jp_add_1":"富山市","jp_add_2":"水橋西天神町"},"9390508":{"post_code":"9390508","prefecture":"TOYAMA KEN","city":"TOYAMA SHI","town":"MIZUHASHINISHIHAMAMACHI","perfecture_jp":"富山県","jp_add_1":"富山市","jp_add_2":"水橋西浜町"},"9393545":{"post_code":"9393545","prefecture":"TOYAMA KEN","city":"TOYAMA SHI","town":"MIZUHASHI NYUBUMACHI","perfecture_jp":"富山県","jp_add_1":"富山市","jp_add_2":"水橋入部町"},"9393521":{"post_code":"9393521","prefecture":"TOYAMA KEN","city":"TOYAMA SHI","town":"MIZUHASHI HATAKERA","perfecture_jp":"富山県","jp_add_1":"富山市","jp_add_2":"水橋畠等"},"9393522":{"post_code":"9393522","prefecture":"TOYAMA KEN","city":"TOYAMA SHI","town":"MIZUHASHIHANANOICHO","perfecture_jp":"富山県","jp_add_1":"富山市","jp_add_2":"水橋花の井町"},"9393505":{"post_code":"9393505","prefecture":"TOYAMA KEN","city":"TOYAMA SHI","town":"MIZUHASHIHAMAMACHI","perfecture_jp":"富山県","jp_add_1":"富山市","jp_add_2":"水橋浜町"},"9390524":{"post_code":"9390524","prefecture":"TOYAMA KEN","city":"TOYAMA SHI","town":"MIZUHASHIHIGASHITACHIMACHI","perfecture_jp":"富山県","jp_add_1":"富山市","jp_add_2":"水橋東舘町"},"9390512":{"post_code":"9390512","prefecture":"TOYAMA KEN","city":"TOYAMA SHI","town":"MIZUHASHIHIGASHIDEMACHI","perfecture_jp":"富山県","jp_add_1":"富山市","jp_add_2":"水橋東出町"},"9390505":{"post_code":"9390505","prefecture":"TOYAMA KEN","city":"TOYAMA SHI","town":"MIZUHASHIHIGASHITENJIMMACHI","perfecture_jp":"富山県","jp_add_1":"富山市","jp_add_2":"水橋東天神町"},"9390501":{"post_code":"9390501","prefecture":"TOYAMA KEN","city":"TOYAMA SHI","town":"MIZUHASHIHIGASHIHAMAMACHI","perfecture_jp":"富山県","jp_add_1":"富山市","jp_add_2":"水橋東浜町"},"9390568":{"post_code":"9390568","prefecture":"TOYAMA KEN","city":"TOYAMA SHI","town":"MIZUHASHI HIRATSUKA","perfecture_jp":"富山県","jp_add_1":"富山市","jp_add_2":"水橋平塚"},"9393546":{"post_code":"9393546","prefecture":"TOYAMA KEN","city":"TOYAMA SHI","town":"MIZUHASHI FUTASUGI","perfecture_jp":"富山県","jp_add_1":"富山市","jp_add_2":"水橋二杉"},"9393532":{"post_code":"9393532","prefecture":"TOYAMA KEN","city":"TOYAMA SHI","town":"MIZUHASHI FUTATSUYA","perfecture_jp":"富山県","jp_add_1":"富山市","jp_add_2":"水橋二ツ屋"},"9390556":{"post_code":"9390556","prefecture":"TOYAMA KEN","city":"TOYAMA SHI","town":"MIZUHASHIMAGARIBUCHI","perfecture_jp":"富山県","jp_add_1":"富山市","jp_add_2":"水橋曲淵"},"9390509":{"post_code":"9390509","prefecture":"TOYAMA KEN","city":"TOYAMA SHI","town":"MIZUHASHIMACHI","perfecture_jp":"富山県","jp_add_1":"富山市","jp_add_2":"水橋町"},"9390528":{"post_code":"9390528","prefecture":"TOYAMA KEN","city":"TOYAMA SHI","town":"MIZUHASHIMEIJIMACHI","perfecture_jp":"富山県","jp_add_1":"富山市","jp_add_2":"水橋明治町"},"9390536":{"post_code":"9390536","prefecture":"TOYAMA KEN","city":"TOYAMA SHI","town":"MIZUHASHI YANAGIDERA","perfecture_jp":"富山県","jp_add_1":"富山市","jp_add_2":"水橋柳寺"},"9398194":{"post_code":"9398194","prefecture":"TOYAMA KEN","city":"TOYAMA SHI","town":"MINAMIKANAYA","perfecture_jp":"富山県","jp_add_1":"富山市","jp_add_2":"南金屋"},"9398176":{"post_code":"9398176","prefecture":"TOYAMA KEN","city":"TOYAMA SHI","town":"MINAMIKURIYAMA","perfecture_jp":"富山県","jp_add_1":"富山市","jp_add_2":"南栗山"},"9398234":{"post_code":"9398234","prefecture":"TOYAMA KEN","city":"TOYAMA SHI","town":"MINAMINAKADA","perfecture_jp":"富山県","jp_add_1":"富山市","jp_add_2":"南中田"},"9392208":{"post_code":"9392208","prefecture":"TOYAMA KEN","city":"TOYAMA SHI","town":"MINAMINODA","perfecture_jp":"富山県","jp_add_1":"富山市","jp_add_2":"南野田"},"9392257":{"post_code":"9392257","prefecture":"TOYAMA KEN","city":"TOYAMA SHI","town":"MINAMIHANAZONOCHO","perfecture_jp":"富山県","jp_add_1":"富山市","jp_add_2":"南花園町"},"9398171":{"post_code":"9398171","prefecture":"TOYAMA KEN","city":"TOYAMA SHI","town":"MIYANOHO","perfecture_jp":"富山県","jp_add_1":"富山市","jp_add_2":"宮保"},"9398154":{"post_code":"9398154","prefecture":"TOYAMA KEN","city":"TOYAMA SHI","town":"MORITA","perfecture_jp":"富山県","jp_add_1":"富山市","jp_add_2":"森田"},"9392253":{"post_code":"9392253","prefecture":"TOYAMA KEN","city":"TOYAMA SHI","town":"YAKIYAMA","perfecture_jp":"富山県","jp_add_1":"富山市","jp_add_2":"八木山"},"9392405":{"post_code":"9392405","prefecture":"TOYAMA KEN","city":"TOYAMA SHI","town":"YATSUOMACHI IWASHIMA","perfecture_jp":"富山県","jp_add_1":"富山市","jp_add_2":"八尾町青根"},"9392413":{"post_code":"9392413","prefecture":"TOYAMA KEN","city":"TOYAMA SHI","town":"YATSUOMACHI AKAISHI","perfecture_jp":"富山県","jp_add_1":"富山市","jp_add_2":"八尾町赤石"},"9392475":{"post_code":"9392475","prefecture":"TOYAMA KEN","city":"TOYAMA SHI","town":"YATSUOMACHI YUNOKI","perfecture_jp":"富山県","jp_add_1":"富山市","jp_add_2":"八尾町足谷"},"9392401":{"post_code":"9392401","prefecture":"TOYAMA KEN","city":"TOYAMA SHI","town":"YATSUOMACHI HIGASHIKUZUSAKA","perfecture_jp":"富山県","jp_add_1":"富山市","jp_add_2":"八尾町油"},"9392466":{"post_code":"9392466","prefecture":"TOYAMA KEN","city":"TOYAMA SHI","town":"YATSUOMACHI AMAIKE","perfecture_jp":"富山県","jp_add_1":"富山市","jp_add_2":"八尾町天池"},"9392423":{"post_code":"9392423","prefecture":"TOYAMA KEN","city":"TOYAMA SHI","town":"YATSUOMACHI ARAYA","perfecture_jp":"富山県","jp_add_1":"富山市","jp_add_2":"八尾町新屋"},"9392425":{"post_code":"9392425","prefecture":"TOYAMA KEN","city":"TOYAMA SHI","town":"YATSUOMACHI IORIDANI","perfecture_jp":"富山県","jp_add_1":"富山市","jp_add_2":"八尾町庵谷"},"9392315":{"post_code":"9392315","prefecture":"TOYAMA KEN","city":"TOYAMA SHI","town":"YATSUOMACHI IKURITANI","perfecture_jp":"富山県","jp_add_1":"富山市","jp_add_2":"八尾町井栗谷"},"9392306":{"post_code":"9392306","prefecture":"TOYAMA KEN","city":"TOYAMA SHI","town":"YATSUOMACHI IDA","perfecture_jp":"富山県","jp_add_1":"富山市","jp_add_2":"八尾町井田"},"9392305":{"post_code":"9392305","prefecture":"TOYAMA KEN","city":"TOYAMA SHI","town":"YATSUOMACHI IDASHIN","perfecture_jp":"富山県","jp_add_1":"富山市","jp_add_2":"八尾町井田新"},"9392353":{"post_code":"9392353","prefecture":"TOYAMA KEN","city":"TOYAMA SHI","town":"YATSUOMACHI IMAMACHI","perfecture_jp":"富山県","jp_add_1":"富山市","jp_add_2":"八尾町今町"},"9392445":{"post_code":"9392445","prefecture":"TOYAMA KEN","city":"TOYAMA SHI","town":"YATSUOMACHI IRITANI","perfecture_jp":"富山県","jp_add_1":"富山市","jp_add_2":"八尾町入谷"},"9392326":{"post_code":"9392326","prefecture":"TOYAMA KEN","city":"TOYAMA SHI","town":"YATSUOMACHI IWAYA","perfecture_jp":"富山県","jp_add_1":"富山市","jp_add_2":"八尾町岩屋"},"9392404":{"post_code":"9392404","prefecture":"TOYAMA KEN","city":"TOYAMA SHI","town":"YATSUOMACHI MINAKUCHI","perfecture_jp":"富山県","jp_add_1":"富山市","jp_add_2":"八尾町上ケ島"},"9392473":{"post_code":"9392473","prefecture":"TOYAMA KEN","city":"TOYAMA SHI","town":"YATSUOMACHI MINE","perfecture_jp":"富山県","jp_add_1":"富山市","jp_add_2":"八尾町上ノ名"},"9392312":{"post_code":"9392312","prefecture":"TOYAMA KEN","city":"TOYAMA SHI","town":"YATSUOMACHI USUJIMA","perfecture_jp":"富山県","jp_add_1":"富山市","jp_add_2":"八尾町薄島"},"9392436":{"post_code":"9392436","prefecture":"TOYAMA KEN","city":"TOYAMA SHI","town":"YATSUOMACHI NAKAJIMA","perfecture_jp":"富山県","jp_add_1":"富山市","jp_add_2":"八尾町内名"},"9392337":{"post_code":"9392337","prefecture":"TOYAMA KEN","city":"TOYAMA SHI","town":"YATSUOMACHI UMEZONOCHO","perfecture_jp":"富山県","jp_add_1":"富山市","jp_add_2":"八尾町梅苑町"},"9392477":{"post_code":"9392477","prefecture":"TOYAMA KEN","city":"TOYAMA SHI","town":"YATSUOMACHI UWANO","perfecture_jp":"富山県","jp_add_1":"富山市","jp_add_2":"八尾町上野"},"9392467":{"post_code":"9392467","prefecture":"TOYAMA KEN","city":"TOYAMA SHI","town":"YATSUOMACHI TAKASE","perfecture_jp":"富山県","jp_add_1":"富山市","jp_add_2":"八尾町追分"},"9392441":{"post_code":"9392441","prefecture":"TOYAMA KEN","city":"TOYAMA SHI","town":"YATSUOMACHI OSHIMO","perfecture_jp":"富山県","jp_add_1":"富山市","jp_add_2":"八尾町大下"},"9392303":{"post_code":"9392303","prefecture":"TOYAMA KEN","city":"TOYAMA SHI","town":"YATSUOMACHI OSUGI","perfecture_jp":"富山県","jp_add_1":"富山市","jp_add_2":"八尾町大杉"},"9392455":{"post_code":"9392455","prefecture":"TOYAMA KEN","city":"TOYAMA SHI","town":"YATSUOMACHI ODAMO","perfecture_jp":"富山県","jp_add_1":"富山市","jp_add_2":"八尾町大玉生"},"9392465":{"post_code":"9392465","prefecture":"TOYAMA KEN","city":"TOYAMA SHI","town":"YATSUOMACHI KUBO","perfecture_jp":"富山県","jp_add_1":"富山市","jp_add_2":"八尾町尾久"},"9392362":{"post_code":"9392362","prefecture":"TOYAMA KEN","city":"TOYAMA SHI","town":"YATSUOMACHI OKUDA","perfecture_jp":"富山県","jp_add_1":"富山市","jp_add_2":"八尾町奥田"},"9392454":{"post_code":"9392454","prefecture":"TOYAMA KEN","city":"TOYAMA SHI","town":"YATSUOMACHI BUDOHARA","perfecture_jp":"富山県","jp_add_1":"富山市","jp_add_2":"八尾町尾畑"},"9392341":{"post_code":"9392341","prefecture":"TOYAMA KEN","city":"TOYAMA SHI","town":"YATSUOMACHI KAGAMIMACHI","perfecture_jp":"富山県","jp_add_1":"富山市","jp_add_2":"八尾町鏡町"},"9392336":{"post_code":"9392336","prefecture":"TOYAMA KEN","city":"TOYAMA SHI","town":"YATSUOMACHI KAKUMA","perfecture_jp":"富山県","jp_add_1":"富山市","jp_add_2":"八尾町角間"},"9392332":{"post_code":"9392332","prefecture":"TOYAMA KEN","city":"TOYAMA SHI","town":"YATSUOMACHI KAMIKUROZE","perfecture_jp":"富山県","jp_add_1":"富山市","jp_add_2":"八尾町掛畑"},"9392327":{"post_code":"9392327","prefecture":"TOYAMA KEN","city":"TOYAMA SHI","town":"YATSUOMACHI KASHIO","perfecture_jp":"富山県","jp_add_1":"富山市","jp_add_2":"八尾町樫尾"},"9392415":{"post_code":"9392415","prefecture":"TOYAMA KEN","city":"TOYAMA SHI","town":"YATSUOMACHI NISHIMATSUZE","perfecture_jp":"富山県","jp_add_1":"富山市","jp_add_2":"八尾町桂原"},"9392374":{"post_code":"9392374","prefecture":"TOYAMA KEN","city":"TOYAMA SHI","town":"YATSUOMACHI KAMIKOZENJI","perfecture_jp":"富山県","jp_add_1":"富山市","jp_add_2":"八尾町上高善寺"},"9392334":{"post_code":"9392334","prefecture":"TOYAMA KEN","city":"TOYAMA SHI","town":"YATSUOMACHI KAMISASAHARA","perfecture_jp":"富山県","jp_add_1":"富山市","jp_add_2":"八尾町上笹原"},"9392342":{"post_code":"9392342","prefecture":"TOYAMA KEN","city":"TOYAMA SHI","town":"YATSUOMACHI KAMISHIMMACHI","perfecture_jp":"富山県","jp_add_1":"富山市","jp_add_2":"八尾町上新町"},"9392402":{"post_code":"9392402","prefecture":"TOYAMA KEN","city":"TOYAMA SHI","town":"YATSUOMACHI YATOJIMA","perfecture_jp":"富山県","jp_add_1":"富山市","jp_add_2":"八尾町上田池"},"9392444":{"post_code":"9392444","prefecture":"TOYAMA KEN","city":"TOYAMA SHI","town":"YATSUOMACHI KAMINIMBU","perfecture_jp":"富山県","jp_add_1":"富山市","jp_add_2":"八尾町上仁歩"},"9392435":{"post_code":"9392435","prefecture":"TOYAMA KEN","city":"TOYAMA SHI","town":"YATSUOMACHI SHIMOJIMA","perfecture_jp":"富山県","jp_add_1":"富山市","jp_add_2":"八尾町上牧"},"9392417":{"post_code":"9392417","prefecture":"TOYAMA KEN","city":"TOYAMA SHI","town":"YATSUOMACHI NISHIKAWAKURA","perfecture_jp":"富山県","jp_add_1":"富山市","jp_add_2":"八尾町川住"},"9392324":{"post_code":"9392324","prefecture":"TOYAMA KEN","city":"TOYAMA SHI","town":"YATSUOMACHI SAKOGI","perfecture_jp":"富山県","jp_add_1":"富山市","jp_add_2":"八尾町北谷"},"9392333":{"post_code":"9392333","prefecture":"TOYAMA KEN","city":"TOYAMA SHI","town":"YATSUOMACHI TAKINOWAKI","perfecture_jp":"富山県","jp_add_1":"富山市","jp_add_2":"八尾町桐谷"},"9392426":{"post_code":"9392426","prefecture":"TOYAMA KEN","city":"TOYAMA SHI","town":"YATSUOMACHI KIRIZUME","perfecture_jp":"富山県","jp_add_1":"富山市","jp_add_2":"八尾町切詰"},"9392453":{"post_code":"9392453","prefecture":"TOYAMA KEN","city":"TOYAMA SHI","town":"YATSUOMACHI KURAGATANI","perfecture_jp":"富山県","jp_add_1":"富山市","jp_add_2":"八尾町倉ケ谷"},"9392431":{"post_code":"9392431","prefecture":"TOYAMA KEN","city":"TOYAMA SHI","town":"YATSUOMACHI TOCHIORI","perfecture_jp":"富山県","jp_add_1":"富山市","jp_add_2":"八尾町栗須"},"9392304":{"post_code":"9392304","prefecture":"TOYAMA KEN","city":"TOYAMA SHI","town":"YATSUOMACHI KURODA","perfecture_jp":"富山県","jp_add_1":"富山市","jp_add_2":"八尾町黒田"},"9392373":{"post_code":"9392373","prefecture":"TOYAMA KEN","city":"TOYAMA SHI","town":"YATSUOMACHI KOZENJI","perfecture_jp":"富山県","jp_add_1":"富山市","jp_add_2":"八尾町高善寺"},"9392321":{"post_code":"9392321","prefecture":"TOYAMA KEN","city":"TOYAMA SHI","town":"YATSUOMACHI KONAGATANI","perfecture_jp":"富山県","jp_add_1":"富山市","jp_add_2":"八尾町小長谷"},"9392322":{"post_code":"9392322","prefecture":"TOYAMA KEN","city":"TOYAMA SHI","town":"YATSUOMACHI KONAGATANISHIN","perfecture_jp":"富山県","jp_add_1":"富山市","jp_add_2":"八尾町小長谷新"},"9392471":{"post_code":"9392471","prefecture":"TOYAMA KEN","city":"TOYAMA SHI","town":"YATSUOMACHI TAKAO","perfecture_jp":"富山県","jp_add_1":"富山市","jp_add_2":"八尾町坂ノ下"},"9392301":{"post_code":"9392301","prefecture":"TOYAMA KEN","city":"TOYAMA SHI","town":"YATSUOMACHI JIKE","perfecture_jp":"富山県","jp_add_1":"富山市","jp_add_2":"八尾町寺家"},"9392352":{"post_code":"9392352","prefecture":"TOYAMA KEN","city":"TOYAMA SHI","town":"YATSUOMACHI SHITASHIMMACHI","perfecture_jp":"富山県","jp_add_1":"富山市","jp_add_2":"八尾町下新町"},"9392474":{"post_code":"9392474","prefecture":"TOYAMA KEN","city":"TOYAMA SHI","town":"YATSUOMACHI SUGO","perfecture_jp":"富山県","jp_add_1":"富山市","jp_add_2":"八尾町下ノ名"},"9392462":{"post_code":"9392462","prefecture":"TOYAMA KEN","city":"TOYAMA SHI","town":"YATSUOMACHI TAKAHASHI","perfecture_jp":"富山県","jp_add_1":"富山市","jp_add_2":"八尾町柴橋"},"9392434":{"post_code":"9392434","prefecture":"TOYAMA KEN","city":"TOYAMA SHI","town":"YATSUOMACHI SHIMAJI","perfecture_jp":"富山県","jp_add_1":"富山市","jp_add_2":"八尾町島地"},"9392331":{"post_code":"9392331","prefecture":"TOYAMA KEN","city":"TOYAMA SHI","town":"YATSUOMACHI SHIMOSASAHARA","perfecture_jp":"富山県","jp_add_1":"富山市","jp_add_2":"八尾町下笹原"},"9392442":{"post_code":"9392442","prefecture":"TOYAMA KEN","city":"TOYAMA SHI","town":"YATSUOMACHI SHIMONIMBU","perfecture_jp":"富山県","jp_add_1":"富山市","jp_add_2":"八尾町下仁歩"},"9392407":{"post_code":"9392407","prefecture":"TOYAMA KEN","city":"TOYAMA SHI","town":"YATSUOMACHI SHIMMYO","perfecture_jp":"富山県","jp_add_1":"富山市","jp_add_2":"八尾町下乗嶺"},"9392433":{"post_code":"9392433","prefecture":"TOYAMA KEN","city":"TOYAMA SHI","town":"YATSUOMACHI HANABUSA","perfecture_jp":"富山県","jp_add_1":"富山市","jp_add_2":"八尾町清水"},"9392314":{"post_code":"9392314","prefecture":"TOYAMA KEN","city":"TOYAMA SHI","town":"YATSUOMACHI NOGAI","perfecture_jp":"富山県","jp_add_1":"富山市","jp_add_2":"八尾町城生"},"9392363":{"post_code":"9392363","prefecture":"TOYAMA KEN","city":"TOYAMA SHI","town":"YATSUOMACHI SHINDEN","perfecture_jp":"富山県","jp_add_1":"富山市","jp_add_2":"八尾町新田"},"9392302":{"post_code":"9392302","prefecture":"TOYAMA KEN","city":"TOYAMA SHI","town":"YATSUOMACHI SUGITA","perfecture_jp":"富山県","jp_add_1":"富山市","jp_add_2":"八尾町杉田"},"9392432":{"post_code":"9392432","prefecture":"TOYAMA KEN","city":"TOYAMA SHI","town":"YATSUOMACHI NAKAYAMA","perfecture_jp":"富山県","jp_add_1":"富山市","jp_add_2":"八尾町薄尾"},"9392343":{"post_code":"9392343","prefecture":"TOYAMA KEN","city":"TOYAMA SHI","town":"YATSUOMACHI SUWAMACHI","perfecture_jp":"富山県","jp_add_1":"富山市","jp_add_2":"八尾町諏訪町"},"9392375":{"post_code":"9392375","prefecture":"TOYAMA KEN","city":"TOYAMA SHI","town":"YATSUOMACHI SEKIDO","perfecture_jp":"富山県","jp_add_1":"富山市","jp_add_2":"八尾町石戸"},"9392446":{"post_code":"9392446","prefecture":"TOYAMA KEN","city":"TOYAMA SHI","town":"YATSUOMACHI SORENZAKA","perfecture_jp":"富山県","jp_add_1":"富山市","jp_add_2":"八尾町草連坂"},"9392325":{"post_code":"9392325","prefecture":"TOYAMA KEN","city":"TOYAMA SHI","town":"YATSUOMACHI MIYANOKOSHI","perfecture_jp":"富山県","jp_add_1":"富山市","jp_add_2":"八尾町外堀"},"9392461":{"post_code":"9392461","prefecture":"TOYAMA KEN","city":"TOYAMA SHI","town":"YATSUOMACHI TAKAKUMA","perfecture_jp":"富山県","jp_add_1":"富山市","jp_add_2":"八尾町高熊"},"9392437":{"post_code":"9392437","prefecture":"TOYAMA KEN","city":"TOYAMA SHI","town":"YATSUOMACHI MIZUNASHI","perfecture_jp":"富山県","jp_add_1":"富山市","jp_add_2":"八尾町高野"},"9392406":{"post_code":"9392406","prefecture":"TOYAMA KEN","city":"TOYAMA SHI","town":"YATSUOMACHI NORIMINE","perfecture_jp":"富山県","jp_add_1":"富山市","jp_add_2":"八尾町高峯"},"9392464":{"post_code":"9392464","prefecture":"TOYAMA KEN","city":"TOYAMA SHI","town":"YATSUOMACHI MIYAGASHIMA","perfecture_jp":"富山県","jp_add_1":"富山市","jp_add_2":"八尾町竹ノ内"},"9392372":{"post_code":"9392372","prefecture":"TOYAMA KEN","city":"TOYAMA SHI","town":"YATSUOMACHI TACHIHONGO","perfecture_jp":"富山県","jp_add_1":"富山市","jp_add_2":"八尾町舘本郷"},"9392371":{"post_code":"9392371","prefecture":"TOYAMA KEN","city":"TOYAMA SHI","town":"YATSUOMACHI MISUO","perfecture_jp":"富山県","jp_add_1":"富山市","jp_add_2":"八尾町田中"},"9392416":{"post_code":"9392416","prefecture":"TOYAMA KEN","city":"TOYAMA SHI","town":"YATSUOMACHI NUNOTANI","perfecture_jp":"富山県","jp_add_1":"富山市","jp_add_2":"八尾町谷折"},"9392421":{"post_code":"9392421","prefecture":"TOYAMA KEN","city":"TOYAMA SHI","town":"YATSUOMACHI TANOKASHIRA","perfecture_jp":"富山県","jp_add_1":"富山市","jp_add_2":"八尾町田頭"},"9392351":{"post_code":"9392351","prefecture":"TOYAMA KEN","city":"TOYAMA SHI","town":"YATSUOMACHI TEMMANCHO","perfecture_jp":"富山県","jp_add_1":"富山市","jp_add_2":"八尾町天満町"},"9392403":{"post_code":"9392403","prefecture":"TOYAMA KEN","city":"TOYAMA SHI","town":"YATSUOMACHI MIYANOSHITA","perfecture_jp":"富山県","jp_add_1":"富山市","jp_add_2":"八尾町道畑下中山"},"9392463":{"post_code":"9392463","prefecture":"TOYAMA KEN","city":"TOYAMA SHI","town":"YATSUOMACHI YACHI","perfecture_jp":"富山県","jp_add_1":"富山市","jp_add_2":"八尾町中"},"9392311":{"post_code":"9392311","prefecture":"TOYAMA KEN","city":"TOYAMA SHI","town":"YATSUOMACHI NISHIJINZU","perfecture_jp":"富山県","jp_add_1":"富山市","jp_add_2":"八尾町中神通"},"9392443":{"post_code":"9392443","prefecture":"TOYAMA KEN","city":"TOYAMA SHI","town":"YATSUOMACHI NAKANIMBU","perfecture_jp":"富山県","jp_add_1":"富山市","jp_add_2":"八尾町中仁歩"},"9392422":{"post_code":"9392422","prefecture":"TOYAMA KEN","city":"TOYAMA SHI","town":"YATSUOMACHI NISHIGAHARA","perfecture_jp":"富山県","jp_add_1":"富山市","jp_add_2":"八尾町西原"},"9392345":{"post_code":"9392345","prefecture":"TOYAMA KEN","city":"TOYAMA SHI","town":"YATSUOMACHI NISHISHIMMACHI","perfecture_jp":"富山県","jp_add_1":"富山市","jp_add_2":"八尾町西新町"},"9392355":{"post_code":"9392355","prefecture":"TOYAMA KEN","city":"TOYAMA SHI","town":"YATSUOMACHI NISHIMACHI","perfecture_jp":"富山県","jp_add_1":"富山市","jp_add_2":"八尾町西町"},"9392472":{"post_code":"9392472","prefecture":"TOYAMA KEN","city":"TOYAMA SHI","town":"YATSUOMACHI WAYAMA","perfecture_jp":"富山県","jp_add_1":"富山市","jp_add_2":"八尾町野須郷"},"9392411":{"post_code":"9392411","prefecture":"TOYAMA KEN","city":"TOYAMA SHI","town":"YATSUOMACHI HIGASHIKAWAKURA","perfecture_jp":"富山県","jp_add_1":"富山市","jp_add_2":"八尾町東川倉"},"9392344":{"post_code":"9392344","prefecture":"TOYAMA KEN","city":"TOYAMA SHI","town":"YATSUOMACHI HIGASHISHIMMACHI","perfecture_jp":"富山県","jp_add_1":"富山市","jp_add_2":"八尾町東新町"},"9392412":{"post_code":"9392412","prefecture":"TOYAMA KEN","city":"TOYAMA SHI","town":"YATSUOMACHI HIGASHINUNOTANI","perfecture_jp":"富山県","jp_add_1":"富山市","jp_add_2":"八尾町東布谷"},"9392424":{"post_code":"9392424","prefecture":"TOYAMA KEN","city":"TOYAMA SHI","town":"YATSUOMACHI HIGASHIHARA","perfecture_jp":"富山県","jp_add_1":"富山市","jp_add_2":"八尾町東原"},"9392354":{"post_code":"9392354","prefecture":"TOYAMA KEN","city":"TOYAMA SHI","town":"YATSUOMACHI HIGASHIMACHI","perfecture_jp":"富山県","jp_add_1":"富山市","jp_add_2":"八尾町東町"},"9392414":{"post_code":"9392414","prefecture":"TOYAMA KEN","city":"TOYAMA SHI","town":"YATSUOMACHI RYOSHIGAHARA","perfecture_jp":"富山県","jp_add_1":"富山市","jp_add_2":"八尾町東松瀬"},"9392451":{"post_code":"9392451","prefecture":"TOYAMA KEN","city":"TOYAMA SHI","town":"YATSUOMACHI HIRASAWA","perfecture_jp":"富山県","jp_add_1":"富山市","jp_add_2":"八尾町平沢"},"9392367":{"post_code":"9392367","prefecture":"TOYAMA KEN","city":"TOYAMA SHI","town":"YATSUOMACHI MATSUBARA","perfecture_jp":"富山県","jp_add_1":"富山市","jp_add_2":"八尾町平林"},"9392316":{"post_code":"9392316","prefecture":"TOYAMA KEN","city":"TOYAMA SHI","town":"YATSUOMACHI FUKADANI","perfecture_jp":"富山県","jp_add_1":"富山市","jp_add_2":"八尾町深谷"},"9392376":{"post_code":"9392376","prefecture":"TOYAMA KEN","city":"TOYAMA SHI","town":"YATSUOMACHI FUKUJIMA","perfecture_jp":"富山県","jp_add_1":"富山市","jp_add_2":"八尾町福島"},"9392476":{"post_code":"9392476","prefecture":"TOYAMA KEN","city":"TOYAMA SHI","town":"YATSUOMACHI HOSODAKI","perfecture_jp":"富山県","jp_add_1":"富山市","jp_add_2":"八尾町細滝"},"9392456":{"post_code":"9392456","prefecture":"TOYAMA KEN","city":"TOYAMA SHI","town":"YATSUOMACHI MYOGAJIMA","perfecture_jp":"富山県","jp_add_1":"富山市","jp_add_2":"八尾町正間"},"9392317":{"post_code":"9392317","prefecture":"TOYAMA KEN","city":"TOYAMA SHI","town":"YATSUOMACHI MARUYAMA","perfecture_jp":"富山県","jp_add_1":"富山市","jp_add_2":"八尾町丸山"},"9392364":{"post_code":"9392364","prefecture":"TOYAMA KEN","city":"TOYAMA SHI","town":"YATSUOMACHI MIZUTANI","perfecture_jp":"富山県","jp_add_1":"富山市","jp_add_2":"八尾町水谷"},"9392361":{"post_code":"9392361","prefecture":"TOYAMA KEN","city":"TOYAMA SHI","town":"YATSUOMACHI MITA","perfecture_jp":"富山県","jp_add_1":"富山市","jp_add_2":"八尾町三田"},"9392452":{"post_code":"9392452","prefecture":"TOYAMA KEN","city":"TOYAMA SHI","town":"YATSUOMACHI MITSUMATSU","perfecture_jp":"富山県","jp_add_1":"富山市","jp_add_2":"八尾町三ツ松"},"9392335":{"post_code":"9392335","prefecture":"TOYAMA KEN","city":"TOYAMA SHI","town":"YATSUOMACHI MYOGAHARA","perfecture_jp":"富山県","jp_add_1":"富山市","jp_add_2":"八尾町茗ケ原"},"9392365":{"post_code":"9392365","prefecture":"TOYAMA KEN","city":"TOYAMA SHI","town":"YATSUOMACHI MYOSENJI","perfecture_jp":"富山県","jp_add_1":"富山市","jp_add_2":"八尾町妙川寺"},"9392323":{"post_code":"9392323","prefecture":"TOYAMA KEN","city":"TOYAMA SHI","town":"YATSUOMACHI MURASUGI","perfecture_jp":"富山県","jp_add_1":"富山市","jp_add_2":"八尾町村杉"},"9392313":{"post_code":"9392313","prefecture":"TOYAMA KEN","city":"TOYAMA SHI","town":"YATSUOMACHI MEKKI","perfecture_jp":"富山県","jp_add_1":"富山市","jp_add_2":"八尾町滅鬼"},"9392366":{"post_code":"9392366","prefecture":"TOYAMA KEN","city":"TOYAMA SHI","town":"YATSUOMACHI YASUCHI","perfecture_jp":"富山県","jp_add_1":"富山市","jp_add_2":"八尾町保内"},"9392447":{"post_code":"9392447","prefecture":"TOYAMA KEN","city":"TOYAMA SHI","town":"YATSUOMACHI YOMEDANI","perfecture_jp":"富山県","jp_add_1":"富山市","jp_add_2":"八尾町鼠谷"},"9398006":{"post_code":"9398006","prefecture":"TOYAMA KEN","city":"TOYAMA SHI","town":"YAMAMURO","perfecture_jp":"富山県","jp_add_1":"富山市","jp_add_2":"山室"},"9398022":{"post_code":"9398022","prefecture":"TOYAMA KEN","city":"TOYAMA SHI","town":"YAMAMUROARAYA","perfecture_jp":"富山県","jp_add_1":"富山市","jp_add_2":"山室荒屋"},"9398026":{"post_code":"9398026","prefecture":"TOYAMA KEN","city":"TOYAMA SHI","town":"YAMAMUROARAYASHIMMACHI","perfecture_jp":"富山県","jp_add_1":"富山市","jp_add_2":"山室荒屋新町"},"9398007":{"post_code":"9398007","prefecture":"TOYAMA KEN","city":"TOYAMA SHI","town":"YAMAMUROKOYODAI","perfecture_jp":"富山県","jp_add_1":"富山市","jp_add_2":"山室向陽台"},"9398008":{"post_code":"9398008","prefecture":"TOYAMA KEN","city":"TOYAMA SHI","town":"YAMAMUROSHIMMACHI","perfecture_jp":"富山県","jp_add_1":"富山市","jp_add_2":"山室新町"},"9398221":{"post_code":"9398221","prefecture":"TOYAMA KEN","city":"TOYAMA SHI","town":"YOKAMACHI","perfecture_jp":"富山県","jp_add_1":"富山市","jp_add_2":"八日町"},"9398033":{"post_code":"9398033","prefecture":"TOYAMA KEN","city":"TOYAMA SHI","town":"YOKOCHI","perfecture_jp":"富山県","jp_add_1":"富山市","jp_add_2":"横内"},"9392216":{"post_code":"9392216","prefecture":"TOYAMA KEN","city":"TOYAMA SHI","town":"YOKODOI","perfecture_jp":"富山県","jp_add_1":"富山市","jp_add_2":"横樋"},"9398153":{"post_code":"9398153","prefecture":"TOYAMA KEN","city":"TOYAMA SHI","town":"YOSHIOKA","perfecture_jp":"富山県","jp_add_1":"富山市","jp_add_2":"吉岡"},"9398244":{"post_code":"9398244","prefecture":"TOYAMA KEN","city":"TOYAMA SHI","town":"YOSHIKURA","perfecture_jp":"富山県","jp_add_1":"富山市","jp_add_2":"吉倉"},"9392172":{"post_code":"9392172","prefecture":"TOYAMA KEN","city":"TOYAMA SHI","town":"YOSHINO","perfecture_jp":"富山県","jp_add_1":"富山市","jp_add_2":"吉野"},"9398181":{"post_code":"9398181","prefecture":"TOYAMA KEN","city":"TOYAMA SHI","town":"WAKATAKECHO","perfecture_jp":"富山県","jp_add_1":"富山市","jp_add_2":"若竹町"},"9398021":{"post_code":"9398021","prefecture":"TOYAMA KEN","city":"TOYAMA SHI","town":"WAKABADAI","perfecture_jp":"富山県","jp_add_1":"富山市","jp_add_2":"若葉台"},"9392183":{"post_code":"9392183","prefecture":"TOYAMA KEN","city":"TOYAMA SHI","town":"WARIYAMA","perfecture_jp":"富山県","jp_add_1":"富山市","jp_add_2":"割山"},"9391273":{"post_code":"9391273","prefecture":"TOYAMA KEN","city":"TAKAOKA SHI","town":"ASHITSUKI","perfecture_jp":"富山県","jp_add_1":"高岡市","jp_add_2":"葦附"},"9391267":{"post_code":"9391267","prefecture":"TOYAMA KEN","city":"TAKAOKA SHI","town":"IMAIZUMI","perfecture_jp":"富山県","jp_add_1":"高岡市","jp_add_2":"今泉"},"9391266":{"post_code":"9391266","prefecture":"TOYAMA KEN","city":"TAKAOKA SHI","town":"IMAIZUMISHIN","perfecture_jp":"富山県","jp_add_1":"高岡市","jp_add_2":"今泉新"},"9391119":{"post_code":"9391119","prefecture":"TOYAMA KEN","city":"TAKAOKA SHI","town":"OFUISUPAKU","perfecture_jp":"富山県","jp_add_1":"高岡市","jp_add_2":"オフィスパーク"},"9391274":{"post_code":"9391274","prefecture":"TOYAMA KEN","city":"TAKAOKA SHI","town":"KAMIASO","perfecture_jp":"富山県","jp_add_1":"高岡市","jp_add_2":"上麻生"},"9391120":{"post_code":"9391120","prefecture":"TOYAMA KEN","city":"TAKAOKA SHI","town":"GURIMPAKU","perfecture_jp":"富山県","jp_add_1":"高岡市","jp_add_2":"グリーンパーク"},"9391261":{"post_code":"9391261","prefecture":"TOYAMA KEN","city":"TAKAOKA SHI","town":"KOIZUMISHIN","perfecture_jp":"富山県","jp_add_1":"高岡市","jp_add_2":"小泉新"},"9391263":{"post_code":"9391263","prefecture":"TOYAMA KEN","city":"TAKAOKA SHI","town":"SHIMASHIN","perfecture_jp":"富山県","jp_add_1":"高岡市","jp_add_2":"御坊山"},"9391262":{"post_code":"9391262","prefecture":"TOYAMA KEN","city":"TAKAOKA SHI","town":"SANKA","perfecture_jp":"富山県","jp_add_1":"高岡市","jp_add_2":"山下"},"9391272":{"post_code":"9391272","prefecture":"TOYAMA KEN","city":"TAKAOKA SHI","town":"SHIMOASO","perfecture_jp":"富山県","jp_add_1":"高岡市","jp_add_2":"下麻生"},"9391271":{"post_code":"9391271","prefecture":"TOYAMA KEN","city":"TAKAOKA SHI","town":"SHIMOASOSHIMMACHI","perfecture_jp":"富山県","jp_add_1":"高岡市","jp_add_2":"下麻生伸町"},"9391264":{"post_code":"9391264","prefecture":"TOYAMA KEN","city":"TAKAOKA SHI","town":"SHIMOYAMADA","perfecture_jp":"富山県","jp_add_1":"高岡市","jp_add_2":"下山田"},"9391131":{"post_code":"9391131","prefecture":"TOYAMA KEN","city":"TAKAOKA SHI","town":"DAIGO","perfecture_jp":"富山県","jp_add_1":"高岡市","jp_add_2":"醍醐"},"9391255":{"post_code":"9391255","prefecture":"TOYAMA KEN","city":"TAKAOKA SHI","town":"TAKI","perfecture_jp":"富山県","jp_add_1":"高岡市","jp_add_2":"滝"},"9391254":{"post_code":"9391254","prefecture":"TOYAMA KEN","city":"TAKAOKA SHI","town":"TAKISHIN","perfecture_jp":"富山県","jp_add_1":"高岡市","jp_add_2":"滝新"},"9391251":{"post_code":"9391251","prefecture":"TOYAMA KEN","city":"TAKAOKA SHI","town":"TSUNEKUNI","perfecture_jp":"富山県","jp_add_1":"高岡市","jp_add_2":"常国"},"9391252":{"post_code":"9391252","prefecture":"TOYAMA KEN","city":"TAKAOKA SHI","town":"TSUNEKUNIMIDORIDAI","perfecture_jp":"富山県","jp_add_1":"高岡市","jp_add_2":"常国みどり台"},"9391121":{"post_code":"9391121","prefecture":"TOYAMA KEN","city":"TAKAOKA SHI","town":"TOIDE KOMYOJI","perfecture_jp":"富山県","jp_add_1":"高岡市","jp_add_2":"戸出葵町"},"9391102":{"post_code":"9391102","prefecture":"TOYAMA KEN","city":"TAKAOKA SHI","town":"TOIDE OKAMI","perfecture_jp":"富山県","jp_add_1":"高岡市","jp_add_2":"戸出曙町"},"9391103":{"post_code":"9391103","prefecture":"TOYAMA KEN","city":"TAKAOKA SHI","town":"TOIDE IKEDAMACHI","perfecture_jp":"富山県","jp_add_1":"高岡市","jp_add_2":"戸出池田町"},"9391105":{"post_code":"9391105","prefecture":"TOYAMA KEN","city":"TAKAOKA SHI","town":"TOIDE ISERYO","perfecture_jp":"富山県","jp_add_1":"高岡市","jp_add_2":"戸出伊勢領"},"9391101":{"post_code":"9391101","prefecture":"TOYAMA KEN","city":"TAKAOKA SHI","town":"TOIDE ICHINOSE","perfecture_jp":"富山県","jp_add_1":"高岡市","jp_add_2":"戸出市野瀬"},"9391117":{"post_code":"9391117","prefecture":"TOYAMA KEN","city":"TAKAOKA SHI","town":"TOIDE OSHIMIZU","perfecture_jp":"富山県","jp_add_1":"高岡市","jp_add_2":"戸出大清水"},"9391125":{"post_code":"9391125","prefecture":"TOYAMA KEN","city":"TAKAOKA SHI","town":"TOIDE OKAGOSHO","perfecture_jp":"富山県","jp_add_1":"高岡市","jp_add_2":"戸出岡御所"},"9391112":{"post_code":"9391112","prefecture":"TOYAMA KEN","city":"TAKAOKA SHI","town":"TOIDE KASUGA","perfecture_jp":"富山県","jp_add_1":"高岡市","jp_add_2":"戸出春日"},"9391113":{"post_code":"9391113","prefecture":"TOYAMA KEN","city":"TAKAOKA SHI","town":"TOIDE KOKUDAI","perfecture_jp":"富山県","jp_add_1":"高岡市","jp_add_2":"戸出石代"},"9391118":{"post_code":"9391118","prefecture":"TOYAMA KEN","city":"TAKAOKA SHI","town":"TOIDE SAKAEMACHI","perfecture_jp":"富山県","jp_add_1":"高岡市","jp_add_2":"戸出栄町"},"9391132":{"post_code":"9391132","prefecture":"TOYAMA KEN","city":"TAKAOKA SHI","town":"TOIDE TAKE","perfecture_jp":"富山県","jp_add_1":"高岡市","jp_add_2":"戸出竹"},"9391135":{"post_code":"9391135","prefecture":"TOYAMA KEN","city":"TAKAOKA SHI","town":"TOIDE TAKEKITA","perfecture_jp":"富山県","jp_add_1":"高岡市","jp_add_2":"戸出竹北"},"9391111":{"post_code":"9391111","prefecture":"TOYAMA KEN","city":"TAKAOKA SHI","town":"TOIDE TOKUICHI","perfecture_jp":"富山県","jp_add_1":"高岡市","jp_add_2":"戸出徳市"},"9391114":{"post_code":"9391114","prefecture":"TOYAMA KEN","city":"TAKAOKA SHI","town":"TOIDE NISHIBUKANAYA","perfecture_jp":"富山県","jp_add_1":"高岡市","jp_add_2":"戸出西部金屋"},"9391136":{"post_code":"9391136","prefecture":"TOYAMA KEN","city":"TAKAOKA SHI","town":"TOIDE NOBEJIMA","perfecture_jp":"富山県","jp_add_1":"高岡市","jp_add_2":"戸出延島"},"9391122":{"post_code":"9391122","prefecture":"TOYAMA KEN","city":"TAKAOKA SHI","town":"TOIDE FURUTOIDE","perfecture_jp":"富山県","jp_add_1":"高岡市","jp_add_2":"戸出古戸出"},"9391133":{"post_code":"9391133","prefecture":"TOYAMA KEN","city":"TAKAOKA SHI","town":"TOIDE HOJI","perfecture_jp":"富山県","jp_add_1":"高岡市","jp_add_2":"戸出放寺"},"9391134":{"post_code":"9391134","prefecture":"TOYAMA KEN","city":"TAKAOKA SHI","town":"TOIDE HOJISHIN","perfecture_jp":"富山県","jp_add_1":"高岡市","jp_add_2":"戸出放寺新"},"9391123":{"post_code":"9391123","prefecture":"TOYAMA KEN","city":"TAKAOKA SHI","town":"TOIDE YUKIKANE","perfecture_jp":"富山県","jp_add_1":"高岡市","jp_add_2":"戸出行兼"},"9391116":{"post_code":"9391116","prefecture":"TOYAMA KEN","city":"TAKAOKA SHI","town":"TOIDE YOSHIZUMI","perfecture_jp":"富山県","jp_add_1":"高岡市","jp_add_2":"戸出吉住"},"9391115":{"post_code":"9391115","prefecture":"TOYAMA KEN","city":"TAKAOKA SHI","town":"TOIDE YOSHIZUMISHIN","perfecture_jp":"富山県","jp_add_1":"高岡市","jp_add_2":"戸出吉住新"},"9391124":{"post_code":"9391124","prefecture":"TOYAMA KEN","city":"TAKAOKA SHI","town":"TOIDE ROKUJUBU","perfecture_jp":"富山県","jp_add_1":"高岡市","jp_add_2":"戸出六十歩"},"9391104":{"post_code":"9391104","prefecture":"TOYAMA KEN","city":"TAKAOKA SHI","town":"TOIDEMACHI","perfecture_jp":"富山県","jp_add_1":"高岡市","jp_add_2":"戸出町"},"9391275":{"post_code":"9391275","prefecture":"TOYAMA KEN","city":"TAKAOKA SHI","town":"NAKADA","perfecture_jp":"富山県","jp_add_1":"高岡市","jp_add_2":"中田"},"9391265":{"post_code":"9391265","prefecture":"TOYAMA KEN","city":"TAKAOKA SHI","town":"HIGASHIBOSHIN","perfecture_jp":"富山県","jp_add_1":"高岡市","jp_add_2":"東保新"},"9390101":{"post_code":"9390101","prefecture":"TOYAMA KEN","city":"TAKAOKA SHI","town":"FUKUOKAMACHI AKAMARU","perfecture_jp":"富山県","jp_add_1":"高岡市","jp_add_2":"福岡町赤丸"},"9390131":{"post_code":"9390131","prefecture":"TOYAMA KEN","city":"TAKAOKA SHI","town":"FUKUOKAMACHI ARAYASHIKI","perfecture_jp":"富山県","jp_add_1":"高岡市","jp_add_2":"福岡町荒屋敷"},"9390112":{"post_code":"9390112","prefecture":"TOYAMA KEN","city":"TAKAOKA SHI","town":"FUKUOKAMACHI FUKUOKASHIN(CHUODORI)","perfecture_jp":"富山県","jp_add_1":"高岡市","jp_add_2":"福岡町荒屋敷"},"9390122":{"post_code":"9390122","prefecture":"TOYAMA KEN","city":"TAKAOKA SHI","town":"FUKUOKAMACHI ICHIBUNIBU","perfecture_jp":"富山県","jp_add_1":"高岡市","jp_add_2":"福岡町一歩二歩"},"9390145":{"post_code":"9390145","prefecture":"TOYAMA KEN","city":"TAKAOKA SHI","town":"FUKUOKAMACHI UWANO","perfecture_jp":"富山県","jp_add_1":"高岡市","jp_add_2":"福岡町上野"},"9390128":{"post_code":"9390128","prefecture":"TOYAMA KEN","city":"TAKAOKA SHI","town":"FUKUOKAMACHI EJIRI","perfecture_jp":"富山県","jp_add_1":"高岡市","jp_add_2":"福岡町江尻"},"9390132":{"post_code":"9390132","prefecture":"TOYAMA KEN","city":"TAKAOKA SHI","town":"FUKUOKAMACHI OTAKI(KIBUNESHIN)","perfecture_jp":"富山県","jp_add_1":"高岡市","jp_add_2":"福岡町大滝"},"9390119":{"post_code":"9390119","prefecture":"TOYAMA KEN","city":"TAKAOKA SHI","town":"FUKUOKAMACHI FUKUOKASHIN(HORIKAWACH","perfecture_jp":"富山県","jp_add_1":"高岡市","jp_add_2":"福岡町大滝"},"9390118":{"post_code":"9390118","prefecture":"TOYAMA KEN","city":"TAKAOKA SHI","town":"FUKUOKAMACHI ONO","perfecture_jp":"富山県","jp_add_1":"高岡市","jp_add_2":"福岡町大野"},"9390117":{"post_code":"9390117","prefecture":"TOYAMA KEN","city":"TAKAOKA SHI","town":"FUKUOKAMACHI FUKUOKASHIN(WASEDAMACH","perfecture_jp":"富山県","jp_add_1":"高岡市","jp_add_2":"福岡町大野"},"9390133":{"post_code":"9390133","prefecture":"TOYAMA KEN","city":"TAKAOKA SHI","town":"FUKUOKAMACHI KAIHOTSU","perfecture_jp":"富山県","jp_add_1":"高岡市","jp_add_2":"福岡町開ほつ"},"9390127":{"post_code":"9390127","prefecture":"TOYAMA KEN","city":"TAKAOKA SHI","town":"FUKUOKAMACHI KAMIMINO","perfecture_jp":"富山県","jp_add_1":"高岡市","jp_add_2":"福岡町上蓑"},"9390113":{"post_code":"9390113","prefecture":"TOYAMA KEN","city":"TAKAOKA SHI","town":"FUKUOKAMACHI FUKUOKA(NAKAJIMAMACHI)","perfecture_jp":"富山県","jp_add_1":"高岡市","jp_add_2":"福岡町上蓑"},"9390144":{"post_code":"9390144","prefecture":"TOYAMA KEN","city":"TAKAOKA SHI","town":"FUKUOKAMACHI KAMIMUKUTA","perfecture_jp":"富山県","jp_add_1":"高岡市","jp_add_2":"福岡町上向田"},"9390104":{"post_code":"9390104","prefecture":"TOYAMA KEN","city":"TAKAOKA SHI","town":"FUKUOKAMACHI KAMO","perfecture_jp":"富山県","jp_add_1":"高岡市","jp_add_2":"福岡町加茂"},"9390134":{"post_code":"9390134","prefecture":"TOYAMA KEN","city":"TAKAOKA SHI","town":"FUKUOKAMACHI KIBUNE","perfecture_jp":"富山県","jp_add_1":"高岡市","jp_add_2":"福岡町木舟"},"9390152":{"post_code":"9390152","prefecture":"TOYAMA KEN","city":"TAKAOKA SHI","town":"FUKUOKAMACHI GOI","perfecture_jp":"富山県","jp_add_1":"高岡市","jp_add_2":"福岡町五位"},"9390124":{"post_code":"9390124","prefecture":"TOYAMA KEN","city":"TAKAOKA SHI","town":"FUKUOKAMACHI KOISERYO","perfecture_jp":"富山県","jp_add_1":"高岡市","jp_add_2":"福岡町小伊勢領"},"9390156":{"post_code":"9390156","prefecture":"TOYAMA KEN","city":"TAKAOKA SHI","town":"FUKUOKAMACHI KONO","perfecture_jp":"富山県","jp_add_1":"高岡市","jp_add_2":"福岡町小野"},"9390155":{"post_code":"9390155","prefecture":"TOYAMA KEN","city":"TAKAOKA SHI","town":"FUKUOKAMACHI SAIMYOJI","perfecture_jp":"富山県","jp_add_1":"高岡市","jp_add_2":"福岡町西明寺"},"9390121":{"post_code":"9390121","prefecture":"TOYAMA KEN","city":"TAKAOKA SHI","town":"FUKUOKAMACHI SHIMOIGO","perfecture_jp":"富山県","jp_add_1":"高岡市","jp_add_2":"福岡町下老子"},"9390116":{"post_code":"9390116","prefecture":"TOYAMA KEN","city":"TAKAOKA SHI","town":"FUKUOKAMACHI SHIMOMINO","perfecture_jp":"富山県","jp_add_1":"高岡市","jp_add_2":"福岡町下蓑"},"9390115":{"post_code":"9390115","prefecture":"TOYAMA KEN","city":"TAKAOKA SHI","town":"FUKUOKAMACHI FUKUOKASHIN(SHINSAKAEM","perfecture_jp":"富山県","jp_add_1":"高岡市","jp_add_2":"福岡町下蓑"},"9390143":{"post_code":"9390143","prefecture":"TOYAMA KEN","city":"TAKAOKA SHI","town":"FUKUOKAMACHI SHIMOMUKUTA","perfecture_jp":"富山県","jp_add_1":"高岡市","jp_add_2":"福岡町下向田"},"9390151":{"post_code":"9390151","prefecture":"TOYAMA KEN","city":"TAKAOKA SHI","town":"FUKUOKAMACHI SOGO","perfecture_jp":"富山県","jp_add_1":"高岡市","jp_add_2":"福岡町沢川"},"9390142":{"post_code":"9390142","prefecture":"TOYAMA KEN","city":"TAKAOKA SHI","town":"FUKUOKAMACHI TSUCHIYA","perfecture_jp":"富山県","jp_add_1":"高岡市","jp_add_2":"福岡町土屋"},"9390154":{"post_code":"9390154","prefecture":"TOYAMA KEN","city":"TAKAOKA SHI","town":"FUKUOKAMACHI TOCHIOKA","perfecture_jp":"富山県","jp_add_1":"高岡市","jp_add_2":"福岡町栃丘"},"9390141":{"post_code":"9390141","prefecture":"TOYAMA KEN","city":"TAKAOKA SHI","town":"FUKUOKAMACHI TORIKURA","perfecture_jp":"富山県","jp_add_1":"高岡市","jp_add_2":"福岡町鳥倉"},"9390103":{"post_code":"9390103","prefecture":"TOYAMA KEN","city":"TAKAOKA SHI","town":"FUKUOKAMACHI NISHI","perfecture_jp":"富山県","jp_add_1":"高岡市","jp_add_2":"福岡町西"},"9390123":{"post_code":"9390123","prefecture":"TOYAMA KEN","city":"TAKAOKA SHI","town":"FUKUOKAMACHI NISHIKAWARAJIMA","perfecture_jp":"富山県","jp_add_1":"高岡市","jp_add_2":"福岡町西川原島"},"9390153":{"post_code":"9390153","prefecture":"TOYAMA KEN","city":"TAKAOKA SHI","town":"FUKUOKAMACHI HANAO","perfecture_jp":"富山県","jp_add_1":"高岡市","jp_add_2":"福岡町花尾"},"9390105":{"post_code":"9390105","prefecture":"TOYAMA KEN","city":"TAKAOKA SHI","town":"FUKUOKAMACHI BAMBA","perfecture_jp":"富山県","jp_add_1":"高岡市","jp_add_2":"福岡町馬場"},"9390111":{"post_code":"9390111","prefecture":"TOYAMA KEN","city":"TAKAOKA SHI","town":"FUKUOKAMACHI FUKUOKASHIN(SHIMIZUCHO","perfecture_jp":"富山県","jp_add_1":"高岡市","jp_add_2":"福岡町福岡"},"9390135":{"post_code":"9390135","prefecture":"TOYAMA KEN","city":"TAKAOKA SHI","town":"FUKUOKAMACHI HONRYO","perfecture_jp":"富山県","jp_add_1":"高岡市","jp_add_2":"福岡町本領"},"9390106":{"post_code":"9390106","prefecture":"TOYAMA KEN","city":"TAKAOKA SHI","town":"FUKUOKAMACHI MAINOYA","perfecture_jp":"富山県","jp_add_1":"高岡市","jp_add_2":"福岡町舞谷"},"9390102":{"post_code":"9390102","prefecture":"TOYAMA KEN","city":"TAKAOKA SHI","town":"FUKUOKAMACHI MIKKAICHI","perfecture_jp":"富山県","jp_add_1":"高岡市","jp_add_2":"福岡町三日市"},"9390126":{"post_code":"9390126","prefecture":"TOYAMA KEN","city":"TAKAOKA SHI","town":"FUKUOKAMACHI MINOJIMA","perfecture_jp":"富山県","jp_add_1":"高岡市","jp_add_2":"福岡町蓑島"},"9390125":{"post_code":"9390125","prefecture":"TOYAMA KEN","city":"TAKAOKA SHI","town":"FUKUOKAMACHI YABE","perfecture_jp":"富山県","jp_add_1":"高岡市","jp_add_2":"福岡町矢部"},"9391253":{"post_code":"9391253","prefecture":"TOYAMA KEN","city":"TAKAOKA SHI","town":"WAKASUGI","perfecture_jp":"富山県","jp_add_1":"高岡市","jp_add_2":"若杉"},"9391300":{"post_code":"9391300","prefecture":"TOYAMA KEN","city":"TONAMI SHI","town":"IKANIKEISAIGANAIBAAI","perfecture_jp":"富山県","jp_add_1":"砺波市","jp_add_2":""},"9391304":{"post_code":"9391304","prefecture":"TOYAMA KEN","city":"TONAMI SHI","town":"AKIMOTO","perfecture_jp":"富山県","jp_add_1":"砺波市","jp_add_2":"秋元"},"9391422":{"post_code":"9391422","prefecture":"TOYAMA KEN","city":"TONAMI SHI","town":"ASANTANI","perfecture_jp":"富山県","jp_add_1":"砺波市","jp_add_2":"浅谷"},"9391324":{"post_code":"9391324","prefecture":"TOYAMA KEN","city":"TONAMI SHI","town":"ARADAKAYA","perfecture_jp":"富山県","jp_add_1":"砺波市","jp_add_2":"荒高屋"},"9391372":{"post_code":"9391372","prefecture":"TOYAMA KEN","city":"TONAMI SHI","town":"ARAMATA","perfecture_jp":"富山県","jp_add_1":"砺波市","jp_add_2":"新又"},"9391425":{"post_code":"9391425","prefecture":"TOYAMA KEN","city":"TONAMI SHI","town":"IGURIDANI","perfecture_jp":"富山県","jp_add_1":"砺波市","jp_add_2":"井栗谷"},"9391415":{"post_code":"9391415","prefecture":"TOYAMA KEN","city":"TONAMI SHI","town":"IKENOHARA","perfecture_jp":"富山県","jp_add_1":"砺波市","jp_add_2":"池原"},"9391301":{"post_code":"9391301","prefecture":"TOYAMA KEN","city":"TONAMI SHI","town":"ISHIMARU","perfecture_jp":"富山県","jp_add_1":"砺波市","jp_add_2":"石丸"},"9391413":{"post_code":"9391413","prefecture":"TOYAMA KEN","city":"TONAMI SHI","town":"ICHINOTANI","perfecture_jp":"富山県","jp_add_1":"砺波市","jp_add_2":"市谷"},"9391373":{"post_code":"9391373","prefecture":"TOYAMA KEN","city":"TONAMI SHI","town":"ICHIBAMMACHI","perfecture_jp":"富山県","jp_add_1":"砺波市","jp_add_2":"一番町"},"9391332":{"post_code":"9391332","prefecture":"TOYAMA KEN","city":"TONAMI SHI","town":"EIFUKUCHO","perfecture_jp":"富山県","jp_add_1":"砺波市","jp_add_2":"永福町"},"9391316":{"post_code":"9391316","prefecture":"TOYAMA KEN","city":"TONAMI SHI","town":"OKADO","perfecture_jp":"富山県","jp_add_1":"砺波市","jp_add_2":"大門"},"9391303":{"post_code":"9391303","prefecture":"TOYAMA KEN","city":"TONAMI SHI","town":"OKUBO","perfecture_jp":"富山県","jp_add_1":"砺波市","jp_add_2":"大窪"},"9391315":{"post_code":"9391315","prefecture":"TOYAMA KEN","city":"TONAMI SHI","town":"OTA","perfecture_jp":"富山県","jp_add_1":"砺波市","jp_add_2":"太田"},"9391328":{"post_code":"9391328","prefecture":"TOYAMA KEN","city":"TONAMI SHI","town":"OTSUJI","perfecture_jp":"富山県","jp_add_1":"砺波市","jp_add_2":"大辻"},"9391342":{"post_code":"9391342","prefecture":"TOYAMA KEN","city":"TONAMI SHI","town":"OJIMA","perfecture_jp":"富山県","jp_add_1":"砺波市","jp_add_2":"小島"},"9391366":{"post_code":"9391366","prefecture":"TOYAMA KEN","city":"TONAMI SHI","town":"OMOTEMACHI","perfecture_jp":"富山県","jp_add_1":"砺波市","jp_add_2":"表町"},"9391326":{"post_code":"9391326","prefecture":"TOYAMA KEN","city":"TONAMI SHI","town":"KANOSHIMA","perfecture_jp":"富山県","jp_add_1":"砺波市","jp_add_2":"鹿島"},"9391337":{"post_code":"9391337","prefecture":"TOYAMA KEN","city":"TONAMI SHI","town":"KAMIJIMA","perfecture_jp":"富山県","jp_add_1":"砺波市","jp_add_2":"神島"},"9391323":{"post_code":"9391323","prefecture":"TOYAMA KEN","city":"TONAMI SHI","town":"KAMINAKANO","perfecture_jp":"富山県","jp_add_1":"砺波市","jp_add_2":"上中野"},"9391411":{"post_code":"9391411","prefecture":"TOYAMA KEN","city":"TONAMI SHI","town":"KAMIWADA","perfecture_jp":"富山県","jp_add_1":"砺波市","jp_add_2":"上和田"},"9391346":{"post_code":"9391346","prefecture":"TOYAMA KEN","city":"TONAMI SHI","town":"KITSUNEJIMA","perfecture_jp":"富山県","jp_add_1":"砺波市","jp_add_2":"狐島"},"9391358":{"post_code":"9391358","prefecture":"TOYAMA KEN","city":"TONAMI SHI","town":"KINOSHITA","perfecture_jp":"富山県","jp_add_1":"砺波市","jp_add_2":"木下"},"9391426":{"post_code":"9391426","prefecture":"TOYAMA KEN","city":"TONAMI SHI","town":"KOCHI","perfecture_jp":"富山県","jp_add_1":"砺波市","jp_add_2":"川内"},"9391357":{"post_code":"9391357","prefecture":"TOYAMA KEN","city":"TONAMI SHI","town":"KOSUGI","perfecture_jp":"富山県","jp_add_1":"砺波市","jp_add_2":"小杉"},"9391428":{"post_code":"9391428","prefecture":"TOYAMA KEN","city":"TONAMI SHI","town":"GOTANI","perfecture_jp":"富山県","jp_add_1":"砺波市","jp_add_2":"五谷"},"9391377":{"post_code":"9391377","prefecture":"TOYAMA KEN","city":"TONAMI SHI","town":"KOTOBUKICHO","perfecture_jp":"富山県","jp_add_1":"砺波市","jp_add_2":"寿町"},"9391327":{"post_code":"9391327","prefecture":"TOYAMA KEN","city":"TONAMI SHI","town":"GOROMARU","perfecture_jp":"富山県","jp_add_1":"砺波市","jp_add_2":"五郎丸"},"9391407":{"post_code":"9391407","prefecture":"TOYAMA KEN","city":"TONAMI SHI","town":"GONSHOJI","perfecture_jp":"富山県","jp_add_1":"砺波市","jp_add_2":"権正寺"},"9391386":{"post_code":"9391386","prefecture":"TOYAMA KEN","city":"TONAMI SHI","town":"SAIWAICHO","perfecture_jp":"富山県","jp_add_1":"砺波市","jp_add_2":"幸町"},"9391371":{"post_code":"9391371","prefecture":"TOYAMA KEN","city":"TONAMI SHI","town":"SAKAEMACHI","perfecture_jp":"富山県","jp_add_1":"砺波市","jp_add_2":"栄町"},"9391308":{"post_code":"9391308","prefecture":"TOYAMA KEN","city":"TONAMI SHI","town":"SABUROMARU","perfecture_jp":"富山県","jp_add_1":"砺波市","jp_add_2":"三郎丸"},"9391374":{"post_code":"9391374","prefecture":"TOYAMA KEN","city":"TONAMI SHI","town":"SANNOMACHI","perfecture_jp":"富山県","jp_add_1":"砺波市","jp_add_2":"山王町"},"9391347":{"post_code":"9391347","prefecture":"TOYAMA KEN","city":"TONAMI SHI","town":"SHIMONAKA","perfecture_jp":"富山県","jp_add_1":"砺波市","jp_add_2":"下中"},"9391311":{"post_code":"9391311","prefecture":"TOYAMA KEN","city":"TONAMI SHI","town":"SHIMONAKAJO","perfecture_jp":"富山県","jp_add_1":"砺波市","jp_add_2":"下中条"},"9391353":{"post_code":"9391353","prefecture":"TOYAMA KEN","city":"TONAMI SHI","town":"JUNEMMYO","perfecture_jp":"富山県","jp_add_1":"砺波市","jp_add_2":"十年明"},"9391412":{"post_code":"9391412","prefecture":"TOYAMA KEN","city":"TONAMI SHI","town":"SHOGONJI","perfecture_jp":"富山県","jp_add_1":"砺波市","jp_add_2":"正権寺"},"9391354":{"post_code":"9391354","prefecture":"TOYAMA KEN","city":"TONAMI SHI","town":"SHINSAKAEMACHI","perfecture_jp":"富山県","jp_add_1":"砺波市","jp_add_2":"新栄町"},"9391343":{"post_code":"9391343","prefecture":"TOYAMA KEN","city":"TONAMI SHI","town":"SHINTOMICHO","perfecture_jp":"富山県","jp_add_1":"砺波市","jp_add_2":"新富町"},"9391321":{"post_code":"9391321","prefecture":"TOYAMA KEN","city":"TONAMI SHI","town":"SHIMMYO","perfecture_jp":"富山県","jp_add_1":"砺波市","jp_add_2":"新明"},"9391355":{"post_code":"9391355","prefecture":"TOYAMA KEN","city":"TONAMI SHI","town":"SUGINOKI","perfecture_jp":"富山県","jp_add_1":"砺波市","jp_add_2":"杉木"},"9391416":{"post_code":"9391416","prefecture":"TOYAMA KEN","city":"TONAMI SHI","town":"SERIDANI","perfecture_jp":"富山県","jp_add_1":"砺波市","jp_add_2":"芹谷"},"9391351":{"post_code":"9391351","prefecture":"TOYAMA KEN","city":"TONAMI SHI","town":"SENDAI","perfecture_jp":"富山県","jp_add_1":"砺波市","jp_add_2":"千代"},"9391305":{"post_code":"9391305","prefecture":"TOYAMA KEN","city":"TONAMI SHI","town":"SEMBO","perfecture_jp":"富山県","jp_add_1":"砺波市","jp_add_2":"千保"},"9391318":{"post_code":"9391318","prefecture":"TOYAMA KEN","city":"TONAMI SHI","town":"SOIZUMI","perfecture_jp":"富山県","jp_add_1":"砺波市","jp_add_2":"祖泉"},"9391341":{"post_code":"9391341","prefecture":"TOYAMA KEN","city":"TONAMI SHI","town":"TAKANAMI","perfecture_jp":"富山県","jp_add_1":"砺波市","jp_add_2":"高波"},"9391335":{"post_code":"9391335","prefecture":"TOYAMA KEN","city":"TONAMI SHI","town":"TAKANOSU","perfecture_jp":"富山県","jp_add_1":"砺波市","jp_add_2":"鷹栖"},"9391338":{"post_code":"9391338","prefecture":"TOYAMA KEN","city":"TONAMI SHI","town":"TAKANOSUDE","perfecture_jp":"富山県","jp_add_1":"砺波市","jp_add_2":"鷹栖出"},"9391383":{"post_code":"9391383","prefecture":"TOYAMA KEN","city":"TONAMI SHI","town":"TAKANDO","perfecture_jp":"富山県","jp_add_1":"砺波市","jp_add_2":"高道"},"9391363":{"post_code":"9391363","prefecture":"TOYAMA KEN","city":"TONAMI SHI","town":"TAROMARU","perfecture_jp":"富山県","jp_add_1":"砺波市","jp_add_2":"太郎丸"},"9391437":{"post_code":"9391437","prefecture":"TOYAMA KEN","city":"TONAMI SHI","town":"CHANOKI","perfecture_jp":"富山県","jp_add_1":"砺波市","jp_add_2":"茶ノ木"},"9391375":{"post_code":"9391375","prefecture":"TOYAMA KEN","city":"TONAMI SHI","town":"CHUOMACHI","perfecture_jp":"富山県","jp_add_1":"砺波市","jp_add_2":"中央町"},"9391414":{"post_code":"9391414","prefecture":"TOYAMA KEN","city":"TONAMI SHI","town":"TSUBONO","perfecture_jp":"富山県","jp_add_1":"砺波市","jp_add_2":"坪野"},"9391384":{"post_code":"9391384","prefecture":"TOYAMA KEN","city":"TONAMI SHI","town":"TSUBONOCHI","perfecture_jp":"富山県","jp_add_1":"砺波市","jp_add_2":"坪内"},"9391379":{"post_code":"9391379","prefecture":"TOYAMA KEN","city":"TONAMI SHI","town":"DEMACHICHUO","perfecture_jp":"富山県","jp_add_1":"砺波市","jp_add_2":"出町中央"},"9391429":{"post_code":"9391429","prefecture":"TOYAMA KEN","city":"TONAMI SHI","town":"TERAO","perfecture_jp":"富山県","jp_add_1":"砺波市","jp_add_2":"寺尾"},"9391432":{"post_code":"9391432","prefecture":"TOYAMA KEN","city":"TONAMI SHI","town":"TOKUMAN","perfecture_jp":"富山県","jp_add_1":"砺波市","jp_add_2":"徳万"},"9391433":{"post_code":"9391433","prefecture":"TOYAMA KEN","city":"TONAMI SHI","town":"TOKUMANSHIN","perfecture_jp":"富山県","jp_add_1":"砺波市","jp_add_2":"徳万新"},"9391424":{"post_code":"9391424","prefecture":"TOYAMA KEN","city":"TONAMI SHI","town":"TOCHIAGE","perfecture_jp":"富山県","jp_add_1":"砺波市","jp_add_2":"栃上"},"9391387":{"post_code":"9391387","prefecture":"TOYAMA KEN","city":"TONAMI SHI","town":"TONAMIMACHI","perfecture_jp":"富山県","jp_add_1":"砺波市","jp_add_2":"となみ町"},"9391344":{"post_code":"9391344","prefecture":"TOYAMA KEN","city":"TONAMI SHI","town":"NAKAGAMI","perfecture_jp":"富山県","jp_add_1":"砺波市","jp_add_2":"中神"},"9391322":{"post_code":"9391322","prefecture":"TOYAMA KEN","city":"TONAMI SHI","town":"NAKANO","perfecture_jp":"富山県","jp_add_1":"砺波市","jp_add_2":"中野"},"9391381":{"post_code":"9391381","prefecture":"TOYAMA KEN","city":"TONAMI SHI","town":"NAKAMURA","perfecture_jp":"富山県","jp_add_1":"砺波市","jp_add_2":"中村"},"9391362":{"post_code":"9391362","prefecture":"TOYAMA KEN","city":"TONAMI SHI","town":"NABESHIMA","perfecture_jp":"富山県","jp_add_1":"砺波市","jp_add_2":"鍋島"},"9391336":{"post_code":"9391336","prefecture":"TOYAMA KEN","city":"TONAMI SHI","town":"NISHINAKA","perfecture_jp":"富山県","jp_add_1":"砺波市","jp_add_2":"西中"},"9391333":{"post_code":"9391333","prefecture":"TOYAMA KEN","city":"TONAMI SHI","town":"NOKA","perfecture_jp":"富山県","jp_add_1":"砺波市","jp_add_2":"苗加"},"9391334":{"post_code":"9391334","prefecture":"TOYAMA KEN","city":"TONAMI SHI","town":"NOMURAJIMA","perfecture_jp":"富山県","jp_add_1":"砺波市","jp_add_2":"野村島"},"9391408":{"post_code":"9391408","prefecture":"TOYAMA KEN","city":"TONAMI SHI","town":"HACHIJUBU","perfecture_jp":"富山県","jp_add_1":"砺波市","jp_add_2":"八十歩"},"9391325":{"post_code":"9391325","prefecture":"TOYAMA KEN","city":"TONAMI SHI","town":"HANAJIMA","perfecture_jp":"富山県","jp_add_1":"砺波市","jp_add_2":"花島"},"9391382":{"post_code":"9391382","prefecture":"TOYAMA KEN","city":"TONAMI SHI","town":"HANAZONOMACHI","perfecture_jp":"富山県","jp_add_1":"砺波市","jp_add_2":"花園町"},"9391345":{"post_code":"9391345","prefecture":"TOYAMA KEN","city":"TONAMI SHI","town":"HAYASHI","perfecture_jp":"富山県","jp_add_1":"砺波市","jp_add_2":"林"},"9391378":{"post_code":"9391378","prefecture":"TOYAMA KEN","city":"TONAMI SHI","town":"HARUHIMACHI","perfecture_jp":"富山県","jp_add_1":"砺波市","jp_add_2":"春日町"},"9391302":{"post_code":"9391302","prefecture":"TOYAMA KEN","city":"TONAMI SHI","town":"HIGASHIISHIMARU","perfecture_jp":"富山県","jp_add_1":"砺波市","jp_add_2":"東石丸"},"9391312":{"post_code":"9391312","prefecture":"TOYAMA KEN","city":"TONAMI SHI","town":"HIGASHIKAIHOTSU","perfecture_jp":"富山県","jp_add_1":"砺波市","jp_add_2":"東開発"},"9391385":{"post_code":"9391385","prefecture":"TOYAMA KEN","city":"TONAMI SHI","town":"HIGASHISAIWAICHO","perfecture_jp":"富山県","jp_add_1":"砺波市","jp_add_2":"東幸町"},"9391348":{"post_code":"9391348","prefecture":"TOYAMA KEN","city":"TONAMI SHI","town":"HIGASHINAKA","perfecture_jp":"富山県","jp_add_1":"砺波市","jp_add_2":"東中"},"9391423":{"post_code":"9391423","prefecture":"TOYAMA KEN","city":"TONAMI SHI","town":"HIGASHIBESSHO","perfecture_jp":"富山県","jp_add_1":"砺波市","jp_add_2":"東別所"},"9391421":{"post_code":"9391421","prefecture":"TOYAMA KEN","city":"TONAMI SHI","town":"HIGASHIBESSHOSHIN","perfecture_jp":"富山県","jp_add_1":"砺波市","jp_add_2":"東別所新"},"9391401":{"post_code":"9391401","prefecture":"TOYAMA KEN","city":"TONAMI SHI","town":"MOTOKOBAYASHI","perfecture_jp":"富山県","jp_add_1":"砺波市","jp_add_2":"東保"},"9391314":{"post_code":"9391314","prefecture":"TOYAMA KEN","city":"TONAMI SHI","town":"HISAIZUMI","perfecture_jp":"富山県","jp_add_1":"砺波市","jp_add_2":"久泉"},"9391367":{"post_code":"9391367","prefecture":"TOYAMA KEN","city":"TONAMI SHI","town":"HIROKAMICHO","perfecture_jp":"富山県","jp_add_1":"砺波市","jp_add_2":"広上町"},"9391331":{"post_code":"9391331","prefecture":"TOYAMA KEN","city":"TONAMI SHI","town":"FUKAE","perfecture_jp":"富山県","jp_add_1":"砺波市","jp_add_2":"深江"},"9391405":{"post_code":"9391405","prefecture":"TOYAMA KEN","city":"TONAMI SHI","town":"FUKUOKA","perfecture_jp":"富山県","jp_add_1":"砺波市","jp_add_2":"福岡"},"9391436":{"post_code":"9391436","prefecture":"TOYAMA KEN","city":"TONAMI SHI","town":"FUKUYAMA","perfecture_jp":"富山県","jp_add_1":"砺波市","jp_add_2":"福山"},"9391427":{"post_code":"9391427","prefecture":"TOYAMA KEN","city":"TONAMI SHI","town":"FUSHIKIDANI","perfecture_jp":"富山県","jp_add_1":"砺波市","jp_add_2":"伏木谷"},"9391361":{"post_code":"9391361","prefecture":"TOYAMA KEN","city":"TONAMI SHI","town":"HEISEICHO","perfecture_jp":"富山県","jp_add_1":"砺波市","jp_add_2":"平成町"},"9391376":{"post_code":"9391376","prefecture":"TOYAMA KEN","city":"TONAMI SHI","town":"HEIWAMACHI","perfecture_jp":"富山県","jp_add_1":"砺波市","jp_add_2":"平和町"},"9391307":{"post_code":"9391307","prefecture":"TOYAMA KEN","city":"TONAMI SHI","town":"HORINOCHI","perfecture_jp":"富山県","jp_add_1":"砺波市","jp_add_2":"堀内"},"9391368":{"post_code":"9391368","prefecture":"TOYAMA KEN","city":"TONAMI SHI","town":"HOMMACHI","perfecture_jp":"富山県","jp_add_1":"砺波市","jp_add_2":"本町"},"9391402":{"post_code":"9391402","prefecture":"TOYAMA KEN","city":"TONAMI SHI","town":"MASUYAMA","perfecture_jp":"富山県","jp_add_1":"砺波市","jp_add_2":"増山"},"9391434":{"post_code":"9391434","prefecture":"TOYAMA KEN","city":"TONAMI SHI","town":"MIAI","perfecture_jp":"富山県","jp_add_1":"砺波市","jp_add_2":"三合"},"9391435":{"post_code":"9391435","prefecture":"TOYAMA KEN","city":"TONAMI SHI","town":"MIAISHIN","perfecture_jp":"富山県","jp_add_1":"砺波市","jp_add_2":"三合新"},"9391365":{"post_code":"9391365","prefecture":"TOYAMA KEN","city":"TONAMI SHI","town":"MISHIMAMACHI","perfecture_jp":"富山県","jp_add_1":"砺波市","jp_add_2":"三島町"},"9391388":{"post_code":"9391388","prefecture":"TOYAMA KEN","city":"TONAMI SHI","town":"MIYAZAWACHO","perfecture_jp":"富山県","jp_add_1":"砺波市","jp_add_2":"宮沢町"},"9391403":{"post_code":"9391403","prefecture":"TOYAMA KEN","city":"TONAMI SHI","town":"MIYASHIN","perfecture_jp":"富山県","jp_add_1":"砺波市","jp_add_2":"宮新"},"9391352":{"post_code":"9391352","prefecture":"TOYAMA KEN","city":"TONAMI SHI","town":"MIYAMARU","perfecture_jp":"富山県","jp_add_1":"砺波市","jp_add_2":"宮丸"},"9391306":{"post_code":"9391306","prefecture":"TOYAMA KEN","city":"TONAMI SHI","town":"MIYAMURA","perfecture_jp":"富山県","jp_add_1":"砺波市","jp_add_2":"宮村"},"9391406":{"post_code":"9391406","prefecture":"TOYAMA KEN","city":"TONAMI SHI","town":"MIYAMORI","perfecture_jp":"富山県","jp_add_1":"砺波市","jp_add_2":"宮森"},"9391404":{"post_code":"9391404","prefecture":"TOYAMA KEN","city":"TONAMI SHI","town":"MIYAMORISHIN","perfecture_jp":"富山県","jp_add_1":"砺波市","jp_add_2":"宮森新"},"9391317":{"post_code":"9391317","prefecture":"TOYAMA KEN","city":"TONAMI SHI","town":"YAGI","perfecture_jp":"富山県","jp_add_1":"砺波市","jp_add_2":"矢木"},"9391438":{"post_code":"9391438","prefecture":"TOYAMA KEN","city":"TONAMI SHI","town":"YASUKAWA","perfecture_jp":"富山県","jp_add_1":"砺波市","jp_add_2":"安川"},"9391313":{"post_code":"9391313","prefecture":"TOYAMA KEN","city":"TONAMI SHI","town":"YANAZE","perfecture_jp":"富山県","jp_add_1":"砺波市","jp_add_2":"柳瀬"},"9391364":{"post_code":"9391364","prefecture":"TOYAMA KEN","city":"TONAMI SHI","town":"YUTAKAMACHI","perfecture_jp":"富山県","jp_add_1":"砺波市","jp_add_2":"豊町"},"9391431":{"post_code":"9391431","prefecture":"TOYAMA KEN","city":"TONAMI SHI","town":"RANJO","perfecture_jp":"富山県","jp_add_1":"砺波市","jp_add_2":"頼成"},"9391417":{"post_code":"9391417","prefecture":"TOYAMA KEN","city":"TONAMI SHI","town":"RANJOSHIN","perfecture_jp":"富山県","jp_add_1":"砺波市","jp_add_2":"頼成新"},"9391356":{"post_code":"9391356","prefecture":"TOYAMA KEN","city":"TONAMI SHI","town":"WAKAKUSAMACHI","perfecture_jp":"富山県","jp_add_1":"砺波市","jp_add_2":"若草町"},"9391600":{"post_code":"9391600","prefecture":"TOYAMA KEN","city":"NANTO SHI","town":"IKANIKEISAIGANAIBAAI","perfecture_jp":"富山県","jp_add_1":"南砺市","jp_add_2":""},"9391915":{"post_code":"9391915","prefecture":"TOYAMA KEN","city":"NANTO SHI","town":"AINOKURA","perfecture_jp":"富山県","jp_add_1":"南砺市","jp_add_2":"相倉"},"9391751":{"post_code":"9391751","prefecture":"TOYAMA KEN","city":"NANTO SHI","town":"AKASAKA","perfecture_jp":"富山県","jp_add_1":"南砺市","jp_add_2":"赤坂"},"9391701":{"post_code":"9391701","prefecture":"TOYAMA KEN","city":"NANTO SHI","town":"ASOBU","perfecture_jp":"富山県","jp_add_1":"南砺市","jp_add_2":"遊部"},"9391622":{"post_code":"9391622","prefecture":"TOYAMA KEN","city":"NANTO SHI","town":"ASOBUKAWARA","perfecture_jp":"富山県","jp_add_1":"南砺市","jp_add_2":"遊部川原"},"9391976":{"post_code":"9391976","prefecture":"TOYAMA KEN","city":"NANTO SHI","town":"ATARASHIYA","perfecture_jp":"富山県","jp_add_1":"南砺市","jp_add_2":"新屋"},"9391744":{"post_code":"9391744","prefecture":"TOYAMA KEN","city":"NANTO SHI","town":"AMAIKE","perfecture_jp":"富山県","jp_add_1":"南砺市","jp_add_2":"天池"},"9391524":{"post_code":"9391524","prefecture":"TOYAMA KEN","city":"NANTO SHI","town":"AMEKUGURI","perfecture_jp":"富山県","jp_add_1":"南砺市","jp_add_2":"雨潜"},"9391732":{"post_code":"9391732","prefecture":"TOYAMA KEN","city":"NANTO SHI","town":"ARAKI","perfecture_jp":"富山県","jp_add_1":"南砺市","jp_add_2":"荒木"},"9391716":{"post_code":"9391716","prefecture":"TOYAMA KEN","city":"NANTO SHI","town":"UMEHARA","perfecture_jp":"富山県","jp_add_1":"南砺市","jp_add_2":"荒見崎"},"9391711":{"post_code":"9391711","prefecture":"TOYAMA KEN","city":"NANTO SHI","town":"ARIFUSA","perfecture_jp":"富山県","jp_add_1":"南砺市","jp_add_2":"在房"},"9391873":{"post_code":"9391873","prefecture":"TOYAMA KEN","city":"NANTO SHI","town":"IKEDA","perfecture_jp":"富山県","jp_add_1":"南砺市","jp_add_2":"池田"},"9391871":{"post_code":"9391871","prefecture":"TOYAMA KEN","city":"NANTO SHI","town":"IKENOSHIRI","perfecture_jp":"富山県","jp_add_1":"南砺市","jp_add_2":"池尻"},"9391535":{"post_code":"9391535","prefecture":"TOYAMA KEN","city":"NANTO SHI","town":"ISHIDA","perfecture_jp":"富山県","jp_add_1":"南砺市","jp_add_2":"石田"},"9391621":{"post_code":"9391621","prefecture":"TOYAMA KEN","city":"NANTO SHI","town":"IZUMI","perfecture_jp":"富山県","jp_add_1":"南砺市","jp_add_2":"和泉"},"9391821":{"post_code":"9391821","prefecture":"TOYAMA KEN","city":"NANTO SHI","town":"IZUMIZAWA","perfecture_jp":"富山県","jp_add_1":"南砺市","jp_add_2":"泉沢"},"9391673":{"post_code":"9391673","prefecture":"TOYAMA KEN","city":"NANTO SHI","town":"ITODANISHIN","perfecture_jp":"富山県","jp_add_1":"南砺市","jp_add_2":"糸谷新"},"9391877":{"post_code":"9391877","prefecture":"TOYAMA KEN","city":"NANTO SHI","town":"INOKUCHI","perfecture_jp":"富山県","jp_add_1":"南砺市","jp_add_2":"井口"},"9391962":{"post_code":"9391962","prefecture":"TOYAMA KEN","city":"NANTO SHI","town":"INOTANI","perfecture_jp":"富山県","jp_add_1":"南砺市","jp_add_2":"猪谷"},"9391904":{"post_code":"9391904","prefecture":"TOYAMA KEN","city":"NANTO SHI","town":"IRITANI","perfecture_jp":"富山県","jp_add_1":"南砺市","jp_add_2":"入谷"},"9391612":{"post_code":"9391612","prefecture":"TOYAMA KEN","city":"NANTO SHI","town":"IWAKI","perfecture_jp":"富山県","jp_add_1":"南砺市","jp_add_2":"岩木"},"9391503":{"post_code":"9391503","prefecture":"TOYAMA KEN","city":"NANTO SHI","town":"IWATAKESHIN","perfecture_jp":"富山県","jp_add_1":"南砺市","jp_add_2":"岩武新"},"9391611":{"post_code":"9391611","prefecture":"TOYAMA KEN","city":"NANTO SHI","town":"IWAYASU","perfecture_jp":"富山県","jp_add_1":"南砺市","jp_add_2":"岩安"},"9391531":{"post_code":"9391531","prefecture":"TOYAMA KEN","city":"NANTO SHI","town":"IMBAYASHI","perfecture_jp":"富山県","jp_add_1":"南砺市","jp_add_2":"院林"},"9391824":{"post_code":"9391824","prefecture":"TOYAMA KEN","city":"NANTO SHI","town":"OGAYA","perfecture_jp":"富山県","jp_add_1":"南砺市","jp_add_2":"上田"},"9391512":{"post_code":"9391512","prefecture":"TOYAMA KEN","city":"NANTO SHI","town":"UENO","perfecture_jp":"富山県","jp_add_1":"南砺市","jp_add_2":"上野"},"9391823":{"post_code":"9391823","prefecture":"TOYAMA KEN","city":"NANTO SHI","town":"UCHIO","perfecture_jp":"富山県","jp_add_1":"南砺市","jp_add_2":"打尾"},"9391542":{"post_code":"9391542","prefecture":"TOYAMA KEN","city":"NANTO SHI","town":"UMEGASHIMA","perfecture_jp":"富山県","jp_add_1":"南砺市","jp_add_2":"梅ケ島"},"9391724":{"post_code":"9391724","prefecture":"TOYAMA KEN","city":"NANTO SHI","town":"UMENO","perfecture_jp":"富山県","jp_add_1":"南砺市","jp_add_2":"梅野"},"9391979":{"post_code":"9391979","prefecture":"TOYAMA KEN","city":"NANTO SHI","town":"URUSHITANI","perfecture_jp":"富山県","jp_add_1":"南砺市","jp_add_2":"漆谷"},"9391833":{"post_code":"9391833","prefecture":"TOYAMA KEN","city":"NANTO SHI","town":"UWAMI","perfecture_jp":"富山県","jp_add_1":"南砺市","jp_add_2":"上見"},"9391526":{"post_code":"9391526","prefecture":"TOYAMA KEN","city":"NANTO SHI","town":"EDA","perfecture_jp":"富山県","jp_add_1":"南砺市","jp_add_2":"江田"},"9391902":{"post_code":"9391902","prefecture":"TOYAMA KEN","city":"NANTO SHI","town":"OKUZUSHIMA","perfecture_jp":"富山県","jp_add_1":"南砺市","jp_add_2":"大崩島"},"9391855":{"post_code":"9391855","prefecture":"TOYAMA KEN","city":"NANTO SHI","town":"OKUBO","perfecture_jp":"富山県","jp_add_1":"南砺市","jp_add_2":"大窪"},"9391912":{"post_code":"9391912","prefecture":"TOYAMA KEN","city":"NANTO SHI","town":"OSHIMA","perfecture_jp":"富山県","jp_add_1":"南砺市","jp_add_2":"大島"},"9391825":{"post_code":"9391825","prefecture":"TOYAMA KEN","city":"NANTO SHI","town":"OGAYA(OTANIJIMA)","perfecture_jp":"富山県","jp_add_1":"南砺市","jp_add_2":"大鋸屋"},"9391743":{"post_code":"9391743","prefecture":"TOYAMA KEN","city":"NANTO SHI","town":"OTSUKA","perfecture_jp":"富山県","jp_add_1":"南砺市","jp_add_2":"大塚"},"9391752":{"post_code":"9391752","prefecture":"TOYAMA KEN","city":"NANTO SHI","town":"ONISHI","perfecture_jp":"富山県","jp_add_1":"南砺市","jp_add_2":"大西"},"9391875":{"post_code":"9391875","prefecture":"TOYAMA KEN","city":"NANTO SHI","town":"ONO","perfecture_jp":"富山県","jp_add_1":"南砺市","jp_add_2":"大野"},"9391814":{"post_code":"9391814","prefecture":"TOYAMA KEN","city":"NANTO SHI","town":"OMIYANO","perfecture_jp":"富山県","jp_add_1":"南砺市","jp_add_2":"大宮野"},"9391837":{"post_code":"9391837","prefecture":"TOYAMA KEN","city":"NANTO SHI","town":"NISHIHARA","perfecture_jp":"富山県","jp_add_1":"南砺市","jp_add_2":"大宮野新"},"9391971":{"post_code":"9391971","prefecture":"TOYAMA KEN","city":"NANTO SHI","town":"OZE","perfecture_jp":"富山県","jp_add_1":"南砺市","jp_add_2":"小瀬"},"9391967":{"post_code":"9391967","prefecture":"TOYAMA KEN","city":"NANTO SHI","town":"OHARA","perfecture_jp":"富山県","jp_add_1":"南砺市","jp_add_2":"小原"},"9391605":{"post_code":"9391605","prefecture":"TOYAMA KEN","city":"NANTO SHI","town":"OMATA","perfecture_jp":"富山県","jp_add_1":"南砺市","jp_add_2":"小又"},"9391667":{"post_code":"9391667","prefecture":"TOYAMA KEN","city":"NANTO SHI","town":"KAIHOTSU","perfecture_jp":"富山県","jp_add_1":"南砺市","jp_add_2":"開発"},"9391961":{"post_code":"9391961","prefecture":"TOYAMA KEN","city":"NANTO SHI","town":"KAIMUKURA","perfecture_jp":"富山県","jp_add_1":"南砺市","jp_add_2":"皆葎"},"9391911":{"post_code":"9391911","prefecture":"TOYAMA KEN","city":"NANTO SHI","town":"KAGODO","perfecture_jp":"富山県","jp_add_1":"南砺市","jp_add_2":"篭渡"},"9391725":{"post_code":"9391725","prefecture":"TOYAMA KEN","city":"NANTO SHI","town":"KAJI","perfecture_jp":"富山県","jp_add_1":"南砺市","jp_add_2":"鍛治"},"9391969":{"post_code":"9391969","prefecture":"TOYAMA KEN","city":"NANTO SHI","town":"KATSURA","perfecture_jp":"富山県","jp_add_1":"南砺市","jp_add_2":"桂"},"9391843":{"post_code":"9391843","prefecture":"TOYAMA KEN","city":"NANTO SHI","town":"KANETO","perfecture_jp":"富山県","jp_add_1":"南砺市","jp_add_2":"金戸"},"9391553":{"post_code":"9391553","prefecture":"TOYAMA KEN","city":"NANTO SHI","town":"KAMIKAWASAKI","perfecture_jp":"富山県","jp_add_1":"南砺市","jp_add_2":"上川崎"},"9391968":{"post_code":"9391968","prefecture":"TOYAMA KEN","city":"NANTO SHI","town":"KAMITAIRAHOSOJIMA","perfecture_jp":"富山県","jp_add_1":"南砺市","jp_add_2":"上平細島"},"9391975":{"post_code":"9391975","prefecture":"TOYAMA KEN","city":"NANTO SHI","town":"KAMINAKADA","perfecture_jp":"富山県","jp_add_1":"南砺市","jp_add_2":"上中田"},"9391914":{"post_code":"9391914","prefecture":"TOYAMA KEN","city":"NANTO SHI","town":"KAMINASHI","perfecture_jp":"富山県","jp_add_1":"南砺市","jp_add_2":"上梨"},"9391713":{"post_code":"9391713","prefecture":"TOYAMA KEN","city":"NANTO SHI","town":"KAMINARI","perfecture_jp":"富山県","jp_add_1":"南砺市","jp_add_2":"神成"},"9391834":{"post_code":"9391834","prefecture":"TOYAMA KEN","city":"NANTO SHI","town":"KAMIHARA","perfecture_jp":"富山県","jp_add_1":"南砺市","jp_add_2":"上原"},"9391878":{"post_code":"9391878","prefecture":"TOYAMA KEN","city":"NANTO SHI","town":"KAMIHIROYASU","perfecture_jp":"富山県","jp_add_1":"南砺市","jp_add_2":"上広安"},"9391928":{"post_code":"9391928","prefecture":"TOYAMA KEN","city":"NANTO SHI","town":"KAMIMATSUO","perfecture_jp":"富山県","jp_add_1":"南砺市","jp_add_2":"上松尾"},"9391575":{"post_code":"9391575","prefecture":"TOYAMA KEN","city":"NANTO SHI","town":"KAMIMIKKAICHI","perfecture_jp":"富山県","jp_add_1":"南砺市","jp_add_2":"上三日市"},"9391876":{"post_code":"9391876","prefecture":"TOYAMA KEN","city":"NANTO SHI","town":"KAWAKAMINAKA","perfecture_jp":"富山県","jp_add_1":"南砺市","jp_add_2":"川上中"},"9391613":{"post_code":"9391613","prefecture":"TOYAMA KEN","city":"NANTO SHI","town":"KAWANISHI","perfecture_jp":"富山県","jp_add_1":"南砺市","jp_add_2":"川西"},"9391504":{"post_code":"9391504","prefecture":"TOYAMA KEN","city":"NANTO SHI","town":"KAWAYOKESHIN","perfecture_jp":"富山県","jp_add_1":"南砺市","jp_add_2":"川除新"},"9391836":{"post_code":"9391836","prefecture":"TOYAMA KEN","city":"NANTO SHI","town":"GAMMAKIJIMA","perfecture_jp":"富山県","jp_add_1":"南砺市","jp_add_2":"雁巻島"},"9391807":{"post_code":"9391807","prefecture":"TOYAMA KEN","city":"NANTO SHI","town":"KITANO","perfecture_jp":"富山県","jp_add_1":"南砺市","jp_add_2":"北野"},"9391802":{"post_code":"9391802","prefecture":"TOYAMA KEN","city":"NANTO SHI","town":"KITANO(JIROMARU)","perfecture_jp":"富山県","jp_add_1":"南砺市","jp_add_2":"北野"},"9391801":{"post_code":"9391801","prefecture":"TOYAMA KEN","city":"NANTO SHI","town":"KITANO(CHORAKUJI)","perfecture_jp":"富山県","jp_add_1":"南砺市","jp_add_2":"北野"},"9391806":{"post_code":"9391806","prefecture":"TOYAMA KEN","city":"NANTO SHI","town":"KITANO(YOSHIMATSU)","perfecture_jp":"富山県","jp_add_1":"南砺市","jp_add_2":"北野"},"9391835":{"post_code":"9391835","prefecture":"TOYAMA KEN","city":"NANTO SHI","town":"MINAMIHARA","perfecture_jp":"富山県","jp_add_1":"南砺市","jp_add_2":"京塚"},"9391846":{"post_code":"9391846","prefecture":"TOYAMA KEN","city":"NANTO SHI","town":"KUNIHIRO","perfecture_jp":"富山県","jp_add_1":"南砺市","jp_add_2":"経塚野"},"9391548":{"post_code":"9391548","prefecture":"TOYAMA KEN","city":"NANTO SHI","town":"KIRINOKI","perfecture_jp":"富山県","jp_add_1":"南砺市","jp_add_2":"桐木"},"9391872":{"post_code":"9391872","prefecture":"TOYAMA KEN","city":"NANTO SHI","town":"KUBO","perfecture_jp":"富山県","jp_add_1":"南砺市","jp_add_2":"久保"},"9391614":{"post_code":"9391614","prefecture":"TOYAMA KEN","city":"NANTO SHI","town":"KURAHARA","perfecture_jp":"富山県","jp_add_1":"南砺市","jp_add_2":"蔵原"},"9391925":{"post_code":"9391925","prefecture":"TOYAMA KEN","city":"NANTO SHI","town":"KURUSU","perfecture_jp":"富山県","jp_add_1":"南砺市","jp_add_2":"来栖"},"9391684":{"post_code":"9391684","prefecture":"TOYAMA KEN","city":"NANTO SHI","town":"KOINZEMI","perfecture_jp":"富山県","jp_add_1":"南砺市","jp_add_2":"小院瀬見"},"9391674":{"post_code":"9391674","prefecture":"TOYAMA KEN","city":"NANTO SHI","town":"KOJOJI","perfecture_jp":"富山県","jp_add_1":"南砺市","jp_add_2":"香城寺"},"9391964":{"post_code":"9391964","prefecture":"TOYAMA KEN","city":"NANTO SHI","town":"KOZU","perfecture_jp":"富山県","jp_add_1":"南砺市","jp_add_2":"楮"},"9391926":{"post_code":"9391926","prefecture":"TOYAMA KEN","city":"NANTO SHI","town":"KOGURUSU","perfecture_jp":"富山県","jp_add_1":"南砺市","jp_add_2":"小来栖"},"9391671":{"post_code":"9391671","prefecture":"TOYAMA KEN","city":"NANTO SHI","town":"KOZAKA","perfecture_jp":"富山県","jp_add_1":"南砺市","jp_add_2":"小坂"},"9391735":{"post_code":"9391735","prefecture":"TOYAMA KEN","city":"NANTO SHI","town":"JINGUJI","perfecture_jp":"富山県","jp_add_1":"南砺市","jp_add_2":"小林"},"9391682":{"post_code":"9391682","prefecture":"TOYAMA KEN","city":"NANTO SHI","town":"KOBUTAMATA","perfecture_jp":"富山県","jp_add_1":"南砺市","jp_add_2":"小二又"},"9391665":{"post_code":"9391665","prefecture":"TOYAMA KEN","city":"NANTO SHI","town":"KOYAMA","perfecture_jp":"富山県","jp_add_1":"南砺市","jp_add_2":"小山"},"9391852":{"post_code":"9391852","prefecture":"TOYAMA KEN","city":"NANTO SHI","town":"KOREYASU","perfecture_jp":"富山県","jp_add_1":"南砺市","jp_add_2":"是安"},"9391856":{"post_code":"9391856","prefecture":"TOYAMA KEN","city":"NANTO SHI","town":"KOREYASU(SUEHIROCHO)","perfecture_jp":"富山県","jp_add_1":"南砺市","jp_add_2":"是安"},"9391681":{"post_code":"9391681","prefecture":"TOYAMA KEN","city":"NANTO SHI","town":"SAIKAWASHICHI","perfecture_jp":"富山県","jp_add_1":"南砺市","jp_add_2":"才川七"},"9391804":{"post_code":"9391804","prefecture":"TOYAMA KEN","city":"NANTO SHI","town":"SAIMYO","perfecture_jp":"富山県","jp_add_1":"南砺市","jp_add_2":"西明"},"9391655":{"post_code":"9391655","prefecture":"TOYAMA KEN","city":"NANTO SHI","town":"SAKAMOTO","perfecture_jp":"富山県","jp_add_1":"南砺市","jp_add_2":"坂本"},"9391525":{"post_code":"9391525","prefecture":"TOYAMA KEN","city":"NANTO SHI","town":"SANKIYONISHI","perfecture_jp":"富山県","jp_add_1":"南砺市","jp_add_2":"三清西"},"9391532":{"post_code":"9391532","prefecture":"TOYAMA KEN","city":"NANTO SHI","town":"JIKE","perfecture_jp":"富山県","jp_add_1":"南砺市","jp_add_2":"寺家"},"9391577":{"post_code":"9391577","prefecture":"TOYAMA KEN","city":"NANTO SHI","town":"JIKEARAYASHIKI","perfecture_jp":"富山県","jp_add_1":"南砺市","jp_add_2":"寺家新屋敷"},"9391978":{"post_code":"9391978","prefecture":"TOYAMA KEN","city":"NANTO SHI","town":"SHITAJIMA","perfecture_jp":"富山県","jp_add_1":"南砺市","jp_add_2":"下島"},"9391733":{"post_code":"9391733","prefecture":"TOYAMA KEN","city":"NANTO SHI","town":"SHITANO","perfecture_jp":"富山県","jp_add_1":"南砺市","jp_add_2":"下野"},"9391703":{"post_code":"9391703","prefecture":"TOYAMA KEN","city":"NANTO SHI","town":"SHITEICHI","perfecture_jp":"富山県","jp_add_1":"南砺市","jp_add_2":"一日市"},"9391552":{"post_code":"9391552","prefecture":"TOYAMA KEN","city":"NANTO SHI","town":"SHIBATAYA","perfecture_jp":"富山県","jp_add_1":"南砺市","jp_add_2":"柴田屋"},"9391845":{"post_code":"9391845","prefecture":"TOYAMA KEN","city":"NANTO SHI","town":"SHIMENO","perfecture_jp":"富山県","jp_add_1":"南砺市","jp_add_2":"示野"},"9391908":{"post_code":"9391908","prefecture":"TOYAMA KEN","city":"NANTO SHI","town":"SHIMODE","perfecture_jp":"富山県","jp_add_1":"南砺市","jp_add_2":"下出"},"9391923":{"post_code":"9391923","prefecture":"TOYAMA KEN","city":"NANTO SHI","town":"SHIMONASHI","perfecture_jp":"富山県","jp_add_1":"南砺市","jp_add_2":"下梨"},"9391543":{"post_code":"9391543","prefecture":"TOYAMA KEN","city":"NANTO SHI","town":"SHIMOYOSHIE","perfecture_jp":"富山県","jp_add_1":"南砺市","jp_add_2":"下吉江"},"9391874":{"post_code":"9391874","prefecture":"TOYAMA KEN","city":"NANTO SHI","town":"JABAMI","perfecture_jp":"富山県","jp_add_1":"南砺市","jp_add_2":"蛇喰"},"9391551":{"post_code":"9391551","prefecture":"TOYAMA KEN","city":"NANTO SHI","town":"JOZU","perfecture_jp":"富山県","jp_add_1":"南砺市","jp_add_2":"上津"},"9391861":{"post_code":"9391861","prefecture":"TOYAMA KEN","city":"NANTO SHI","town":"JOHANA","perfecture_jp":"富山県","jp_add_1":"南砺市","jp_add_2":"城端"},"9391818":{"post_code":"9391818","prefecture":"TOYAMA KEN","city":"NANTO SHI","town":"JOHANA(KAWASHIMA)","perfecture_jp":"富山県","jp_add_1":"南砺市","jp_add_2":"城端"},"9391854":{"post_code":"9391854","prefecture":"TOYAMA KEN","city":"NANTO SHI","town":"JOHANA(SAKAEMACHI)","perfecture_jp":"富山県","jp_add_1":"南砺市","jp_add_2":"城端"},"9391865":{"post_code":"9391865","prefecture":"TOYAMA KEN","city":"NANTO SHI","town":"JOHANA(SHIMMACHI)","perfecture_jp":"富山県","jp_add_1":"南砺市","jp_add_2":"城端"},"9391864":{"post_code":"9391864","prefecture":"TOYAMA KEN","city":"NANTO SHI","town":"JOHANA(DAIKUMACHI)","perfecture_jp":"富山県","jp_add_1":"南砺市","jp_add_2":"城端"},"9391853":{"post_code":"9391853","prefecture":"TOYAMA KEN","city":"NANTO SHI","town":"JOHANA(DEMARU)","perfecture_jp":"富山県","jp_add_1":"南砺市","jp_add_2":"城端"},"9391863":{"post_code":"9391863","prefecture":"TOYAMA KEN","city":"NANTO SHI","town":"JOHANA(NISHIKAMI)","perfecture_jp":"富山県","jp_add_1":"南砺市","jp_add_2":"城端"},"9391862":{"post_code":"9391862","prefecture":"TOYAMA KEN","city":"NANTO SHI","town":"JOHANA(NISHISHIMO)","perfecture_jp":"富山県","jp_add_1":"南砺市","jp_add_2":"城端"},"9391868":{"post_code":"9391868","prefecture":"TOYAMA KEN","city":"NANTO SHI","town":"JOHANA(NISHISHINDEN)","perfecture_jp":"富山県","jp_add_1":"南砺市","jp_add_2":"城端"},"9391867":{"post_code":"9391867","prefecture":"TOYAMA KEN","city":"NANTO SHI","town":"JOHANA(NOGE)","perfecture_jp":"富山県","jp_add_1":"南砺市","jp_add_2":"城端"},"9391816":{"post_code":"9391816","prefecture":"TOYAMA KEN","city":"NANTO SHI","town":"JOHANA(HIGASHIKAMI)","perfecture_jp":"富山県","jp_add_1":"南砺市","jp_add_2":"城端"},"9391817":{"post_code":"9391817","prefecture":"TOYAMA KEN","city":"NANTO SHI","town":"JOHANA(HIGASHISHIMO)","perfecture_jp":"富山県","jp_add_1":"南砺市","jp_add_2":"城端"},"9391815":{"post_code":"9391815","prefecture":"TOYAMA KEN","city":"NANTO SHI","town":"JOHANA(HIGASHISHINDEN)","perfecture_jp":"富山県","jp_add_1":"南砺市","jp_add_2":"城端"},"9391866":{"post_code":"9391866","prefecture":"TOYAMA KEN","city":"NANTO SHI","town":"JOHANA(MINAMIMACHI)","perfecture_jp":"富山県","jp_add_1":"南砺市","jp_add_2":"城端"},"9391544":{"post_code":"9391544","prefecture":"TOYAMA KEN","city":"NANTO SHI","town":"SHINTEI","perfecture_jp":"富山県","jp_add_1":"南砺市","jp_add_2":"新邸"},"9391973":{"post_code":"9391973","prefecture":"TOYAMA KEN","city":"NANTO SHI","town":"SUGANUMA","perfecture_jp":"富山県","jp_add_1":"南砺市","jp_add_2":"菅沼"},"9391903":{"post_code":"9391903","prefecture":"TOYAMA KEN","city":"NANTO SHI","town":"SUGAWA","perfecture_jp":"富山県","jp_add_1":"南砺市","jp_add_2":"寿川"},"9391921":{"post_code":"9391921","prefecture":"TOYAMA KEN","city":"NANTO SHI","town":"SUGIO","perfecture_jp":"富山県","jp_add_1":"南砺市","jp_add_2":"杉尾"},"9391603":{"post_code":"9391603","prefecture":"TOYAMA KEN","city":"NANTO SHI","town":"SUNAGODANI","perfecture_jp":"富山県","jp_add_1":"南砺市","jp_add_2":"砂子谷"},"9391826":{"post_code":"9391826","prefecture":"TOYAMA KEN","city":"NANTO SHI","town":"SETO","perfecture_jp":"富山県","jp_add_1":"南砺市","jp_add_2":"瀬戸"},"9391831":{"post_code":"9391831","prefecture":"TOYAMA KEN","city":"NANTO SHI","town":"SEMPUKUSHIN","perfecture_jp":"富山県","jp_add_1":"南砺市","jp_add_2":"千福"},"9391675":{"post_code":"9391675","prefecture":"TOYAMA KEN","city":"NANTO SHI","town":"SODANI","perfecture_jp":"富山県","jp_add_1":"南砺市","jp_add_2":"祖谷"},"9391901":{"post_code":"9391901","prefecture":"TOYAMA KEN","city":"NANTO SHI","town":"SOYAMA","perfecture_jp":"富山県","jp_add_1":"南砺市","jp_add_2":"祖山"},"9391506":{"post_code":"9391506","prefecture":"TOYAMA KEN","city":"NANTO SHI","town":"TAKAGI","perfecture_jp":"富山県","jp_add_1":"南砺市","jp_add_2":"高儀"},"9391602":{"post_code":"9391602","prefecture":"TOYAMA KEN","city":"NANTO SHI","town":"TAKAKUBO","perfecture_jp":"富山県","jp_add_1":"南砺市","jp_add_2":"高窪"},"9391906":{"post_code":"9391906","prefecture":"TOYAMA KEN","city":"NANTO SHI","town":"TAKASOREI","perfecture_jp":"富山県","jp_add_1":"南砺市","jp_add_2":"高草嶺"},"9391714":{"post_code":"9391714","prefecture":"TOYAMA KEN","city":"NANTO SHI","town":"TAKABATAKE","perfecture_jp":"富山県","jp_add_1":"南砺市","jp_add_2":"高畠"},"9391511":{"post_code":"9391511","prefecture":"TOYAMA KEN","city":"NANTO SHI","town":"TAKAHORI","perfecture_jp":"富山県","jp_add_1":"南砺市","jp_add_2":"高堀"},"9391741":{"post_code":"9391741","prefecture":"TOYAMA KEN","city":"NANTO SHI","town":"TAKAMIYA","perfecture_jp":"富山県","jp_add_1":"南砺市","jp_add_2":"高宮"},"9391664":{"post_code":"9391664","prefecture":"TOYAMA KEN","city":"NANTO SHI","town":"TAKEUCHI","perfecture_jp":"富山県","jp_add_1":"南砺市","jp_add_2":"竹内"},"9391734":{"post_code":"9391734","prefecture":"TOYAMA KEN","city":"NANTO SHI","town":"TAKEBAYASHI","perfecture_jp":"富山県","jp_add_1":"南砺市","jp_add_2":"竹林"},"9391538":{"post_code":"9391538","prefecture":"TOYAMA KEN","city":"NANTO SHI","town":"TAJIRI","perfecture_jp":"富山県","jp_add_1":"南砺市","jp_add_2":"田尻"},"9391676":{"post_code":"9391676","prefecture":"TOYAMA KEN","city":"NANTO SHI","town":"TACHI","perfecture_jp":"富山県","jp_add_1":"南砺市","jp_add_2":"舘"},"9391755":{"post_code":"9391755","prefecture":"TOYAMA KEN","city":"NANTO SHI","town":"TATENOGAHARANISHI","perfecture_jp":"富山県","jp_add_1":"南砺市","jp_add_2":"立野原西"},"9391766":{"post_code":"9391766","prefecture":"TOYAMA KEN","city":"NANTO SHI","town":"TORI","perfecture_jp":"富山県","jp_add_1":"南砺市","jp_add_2":"立野脇"},"9391704":{"post_code":"9391704","prefecture":"TOYAMA KEN","city":"NANTO SHI","town":"TANAKA","perfecture_jp":"富山県","jp_add_1":"南砺市","jp_add_2":"田中"},"9391974":{"post_code":"9391974","prefecture":"TOYAMA KEN","city":"NANTO SHI","town":"TANOSHITA","perfecture_jp":"富山県","jp_add_1":"南砺市","jp_add_2":"田下"},"9391913":{"post_code":"9391913","prefecture":"TOYAMA KEN","city":"NANTO SHI","town":"TAMUKAI","perfecture_jp":"富山県","jp_add_1":"南砺市","jp_add_2":"田向"},"9391537":{"post_code":"9391537","prefecture":"TOYAMA KEN","city":"NANTO SHI","town":"TAYA","perfecture_jp":"富山県","jp_add_1":"南砺市","jp_add_2":"田屋"},"9391505":{"post_code":"9391505","prefecture":"TOYAMA KEN","city":"NANTO SHI","town":"CHOGENJI","perfecture_jp":"富山県","jp_add_1":"南砺市","jp_add_2":"長源寺"},"9391765":{"post_code":"9391765","prefecture":"TOYAMA KEN","city":"NANTO SHI","town":"TSUNAKAKE","perfecture_jp":"富山県","jp_add_1":"南砺市","jp_add_2":"綱掛"},"9391746":{"post_code":"9391746","prefecture":"TOYAMA KEN","city":"NANTO SHI","town":"DEMURA","perfecture_jp":"富山県","jp_add_1":"南砺市","jp_add_2":"出村"},"9391661":{"post_code":"9391661","prefecture":"TOYAMA KEN","city":"NANTO SHI","town":"TENJIN","perfecture_jp":"富山県","jp_add_1":"南砺市","jp_add_2":"天神"},"9391832":{"post_code":"9391832","prefecture":"TOYAMA KEN","city":"NANTO SHI","town":"TONO","perfecture_jp":"富山県","jp_add_1":"南砺市","jp_add_2":"塔尾"},"9392507":{"post_code":"9392507","prefecture":"TOYAMA KEN","city":"NANTO SHI","town":"TOGAMURA","perfecture_jp":"富山県","jp_add_1":"南砺市","jp_add_2":"利賀村"},"9392517":{"post_code":"9392517","prefecture":"TOYAMA KEN","city":"NANTO SHI","town":"TOGAMURA ABETTO","perfecture_jp":"富山県","jp_add_1":"南砺市","jp_add_2":"利賀村阿別当"},"9392508":{"post_code":"9392508","prefecture":"TOYAMA KEN","city":"NANTO SHI","town":"TOGAMURA IWABUCHI","perfecture_jp":"富山県","jp_add_1":"南砺市","jp_add_2":"利賀村岩渕"},"9392514":{"post_code":"9392514","prefecture":"TOYAMA KEN","city":"NANTO SHI","town":"TOGAMURA UEBATAKE","perfecture_jp":"富山県","jp_add_1":"南砺市","jp_add_2":"利賀村上畠"},"9392506":{"post_code":"9392506","prefecture":"TOYAMA KEN","city":"NANTO SHI","town":"TOGAMURA OMAMEDANI","perfecture_jp":"富山県","jp_add_1":"南砺市","jp_add_2":"利賀村大豆谷"},"9392504":{"post_code":"9392504","prefecture":"TOYAMA KEN","city":"NANTO SHI","town":"TOGAMURA OSHIBA","perfecture_jp":"富山県","jp_add_1":"南砺市","jp_add_2":"利賀村押場"},"9392513":{"post_code":"9392513","prefecture":"TOYAMA KEN","city":"NANTO SHI","town":"TOGAMURA KAMIMOMOSE","perfecture_jp":"富山県","jp_add_1":"南砺市","jp_add_2":"利賀村上百瀬"},"9392509":{"post_code":"9392509","prefecture":"TOYAMA KEN","city":"NANTO SHI","town":"TOGAMURA KITAJIMA","perfecture_jp":"富山県","jp_add_1":"南砺市","jp_add_2":"利賀村北島"},"9392505":{"post_code":"9392505","prefecture":"TOYAMA KEN","city":"NANTO SHI","town":"TOGAMURA KITAMAMEDANI","perfecture_jp":"富山県","jp_add_1":"南砺市","jp_add_2":"利賀村北豆谷"},"9392501":{"post_code":"9392501","prefecture":"TOYAMA KEN","city":"NANTO SHI","town":"TOGAMURA KURITO","perfecture_jp":"富山県","jp_add_1":"南砺市","jp_add_2":"利賀村栗当"},"9392516":{"post_code":"9392516","prefecture":"TOYAMA KEN","city":"NANTO SHI","town":"TOGAMURA SAKAUE","perfecture_jp":"富山県","jp_add_1":"南砺市","jp_add_2":"利賀村坂上"},"9392503":{"post_code":"9392503","prefecture":"TOYAMA KEN","city":"NANTO SHI","town":"TOGAMURA SOREI","perfecture_jp":"富山県","jp_add_1":"南砺市","jp_add_2":"利賀村草嶺"},"9392518":{"post_code":"9392518","prefecture":"TOYAMA KEN","city":"NANTO SHI","town":"TOGAMURA TAIKAMBA","perfecture_jp":"富山県","jp_add_1":"南砺市","jp_add_2":"利賀村大勘場"},"9392502":{"post_code":"9392502","prefecture":"TOYAMA KEN","city":"NANTO SHI","town":"TOGAMURA TAKANUMA","perfecture_jp":"富山県","jp_add_1":"南砺市","jp_add_2":"利賀村高沼"},"9392512":{"post_code":"9392512","prefecture":"TOYAMA KEN","city":"NANTO SHI","town":"TOGAMURA NAKAMURA","perfecture_jp":"富山県","jp_add_1":"南砺市","jp_add_2":"利賀村中村"},"9392515":{"post_code":"9392515","prefecture":"TOYAMA KEN","city":"NANTO SHI","town":"TOGAMURA HOSOJIMA","perfecture_jp":"富山県","jp_add_1":"南砺市","jp_add_2":"利賀村細島"},"9392519":{"post_code":"9392519","prefecture":"TOYAMA KEN","city":"NANTO SHI","town":"TOGAMURA MIZUNASHI","perfecture_jp":"富山県","jp_add_1":"南砺市","jp_add_2":"利賀村水無"},"9392511":{"post_code":"9392511","prefecture":"TOYAMA KEN","city":"NANTO SHI","town":"TOGAMURA MOMOSEGAWA","perfecture_jp":"富山県","jp_add_1":"南砺市","jp_add_2":"利賀村百瀬川"},"9391722":{"post_code":"9391722","prefecture":"TOYAMA KEN","city":"NANTO SHI","town":"TOKUNARI","perfecture_jp":"富山県","jp_add_1":"南砺市","jp_add_2":"徳成"},"9391758":{"post_code":"9391758","prefecture":"TOYAMA KEN","city":"NANTO SHI","town":"TONO","perfecture_jp":"富山県","jp_add_1":"南砺市","jp_add_2":"殿"},"9391723":{"post_code":"9391723","prefecture":"TOYAMA KEN","city":"NANTO SHI","town":"TONOGO","perfecture_jp":"富山県","jp_add_1":"南砺市","jp_add_2":"利波河"},"9391922":{"post_code":"9391922","prefecture":"TOYAMA KEN","city":"NANTO SHI","town":"DONOHARA","perfecture_jp":"富山県","jp_add_1":"南砺市","jp_add_2":"渡原"},"9391604":{"post_code":"9391604","prefecture":"TOYAMA KEN","city":"NANTO SHI","town":"DOYAMA","perfecture_jp":"富山県","jp_add_1":"南砺市","jp_add_2":"土山"},"9391828":{"post_code":"9391828","prefecture":"TOYAMA KEN","city":"NANTO SHI","town":"NAKAO","perfecture_jp":"富山県","jp_add_1":"南砺市","jp_add_2":"中尾"},"9391625":{"post_code":"9391625","prefecture":"TOYAMA KEN","city":"NANTO SHI","town":"NAKANOGO","perfecture_jp":"富山県","jp_add_1":"南砺市","jp_add_2":"中ノ江"},"9391924":{"post_code":"9391924","prefecture":"TOYAMA KEN","city":"NANTO SHI","town":"NAKABATAKE","perfecture_jp":"富山県","jp_add_1":"南砺市","jp_add_2":"中畑"},"9391927":{"post_code":"9391927","prefecture":"TOYAMA KEN","city":"NANTO SHI","town":"NASHITANI","perfecture_jp":"富山県","jp_add_1":"南砺市","jp_add_2":"梨谷"},"9391907":{"post_code":"9391907","prefecture":"TOYAMA KEN","city":"NANTO SHI","town":"NATSUYAKE","perfecture_jp":"富山県","jp_add_1":"南砺市","jp_add_2":"夏焼"},"9391762":{"post_code":"9391762","prefecture":"TOYAMA KEN","city":"NANTO SHI","town":"NANAMAGARI","perfecture_jp":"富山県","jp_add_1":"南砺市","jp_add_2":"七曲"},"9391555":{"post_code":"9391555","prefecture":"TOYAMA KEN","city":"NANTO SHI","town":"NANAMURATAKIDERA","perfecture_jp":"富山県","jp_add_1":"南砺市","jp_add_2":"七村滝寺"},"9391963":{"post_code":"9391963","prefecture":"TOYAMA KEN","city":"NANTO SHI","town":"NARUDE","perfecture_jp":"富山県","jp_add_1":"南砺市","jp_add_2":"成出"},"9391745":{"post_code":"9391745","prefecture":"TOYAMA KEN","city":"NANTO SHI","town":"NAWAGURA","perfecture_jp":"富山県","jp_add_1":"南砺市","jp_add_2":"縄蔵"},"9391977":{"post_code":"9391977","prefecture":"TOYAMA KEN","city":"NANTO SHI","town":"NISHIAKAOMACHI","perfecture_jp":"富山県","jp_add_1":"南砺市","jp_add_2":"西赤尾町"},"9391514":{"post_code":"9391514","prefecture":"TOYAMA KEN","city":"NANTO SHI","town":"NENDAI","perfecture_jp":"富山県","jp_add_1":"南砺市","jp_add_2":"年代"},"9391844":{"post_code":"9391844","prefecture":"TOYAMA KEN","city":"NANTO SHI","town":"NOGUCHI","perfecture_jp":"富山県","jp_add_1":"南砺市","jp_add_2":"野口"},"9391521":{"post_code":"9391521","prefecture":"TOYAMA KEN","city":"NANTO SHI","town":"NOJIMA","perfecture_jp":"富山県","jp_add_1":"南砺市","jp_add_2":"苗島"},"9391502":{"post_code":"9391502","prefecture":"TOYAMA KEN","city":"NANTO SHI","town":"NOJIRI","perfecture_jp":"富山県","jp_add_1":"南砺市","jp_add_2":"野尻"},"9391513":{"post_code":"9391513","prefecture":"TOYAMA KEN","city":"NANTO SHI","town":"NOJIRINO","perfecture_jp":"富山県","jp_add_1":"南砺市","jp_add_2":"野尻野"},"9391522":{"post_code":"9391522","prefecture":"TOYAMA KEN","city":"NANTO SHI","town":"NOSHIN","perfecture_jp":"富山県","jp_add_1":"南砺市","jp_add_2":"野新"},"9391842":{"post_code":"9391842","prefecture":"TOYAMA KEN","city":"NANTO SHI","town":"NODA","perfecture_jp":"富山県","jp_add_1":"南砺市","jp_add_2":"野田"},"9391523":{"post_code":"9391523","prefecture":"TOYAMA KEN","city":"NANTO SHI","town":"NOHARA","perfecture_jp":"富山県","jp_add_1":"南砺市","jp_add_2":"野原"},"9391851":{"post_code":"9391851","prefecture":"TOYAMA KEN","city":"NANTO SHI","town":"NOBUSUE","perfecture_jp":"富山県","jp_add_1":"南砺市","jp_add_2":"信末"},"9391606":{"post_code":"9391606","prefecture":"TOYAMA KEN","city":"NANTO SHI","town":"NOMI","perfecture_jp":"富山県","jp_add_1":"南砺市","jp_add_2":"能美"},"9391624":{"post_code":"9391624","prefecture":"TOYAMA KEN","city":"NANTO SHI","town":"HACHIMAN","perfecture_jp":"富山県","jp_add_1":"南砺市","jp_add_2":"八幡"},"9391757":{"post_code":"9391757","prefecture":"TOYAMA KEN","city":"NANTO SHI","town":"HABU","perfecture_jp":"富山県","jp_add_1":"南砺市","jp_add_2":"土生"},"9391756":{"post_code":"9391756","prefecture":"TOYAMA KEN","city":"NANTO SHI","town":"HABUSHIN","perfecture_jp":"富山県","jp_add_1":"南砺市","jp_add_2":"土生新"},"9391541":{"post_code":"9391541","prefecture":"TOYAMA KEN","city":"NANTO SHI","town":"BANDE","perfecture_jp":"富山県","jp_add_1":"南砺市","jp_add_2":"晩田"},"9391966":{"post_code":"9391966","prefecture":"TOYAMA KEN","city":"NANTO SHI","town":"HIGASHIAKAO","perfecture_jp":"富山県","jp_add_1":"南砺市","jp_add_2":"東赤尾"},"9391536":{"post_code":"9391536","prefecture":"TOYAMA KEN","city":"NANTO SHI","town":"HIGASHIISHIDA","perfecture_jp":"富山県","jp_add_1":"南砺市","jp_add_2":"東石田"},"9391721":{"post_code":"9391721","prefecture":"TOYAMA KEN","city":"NANTO SHI","town":"HIGASHITONO","perfecture_jp":"富山県","jp_add_1":"南砺市","jp_add_2":"東殿"},"9391905":{"post_code":"9391905","prefecture":"TOYAMA KEN","city":"NANTO SHI","town":"HIGASHINAKAE","perfecture_jp":"富山県","jp_add_1":"南砺市","jp_add_2":"東中江"},"9391803":{"post_code":"9391803","prefecture":"TOYAMA KEN","city":"NANTO SHI","town":"HIGASHINISHIHARA","perfecture_jp":"富山県","jp_add_1":"南砺市","jp_add_2":"東西原"},"9391712":{"post_code":"9391712","prefecture":"TOYAMA KEN","city":"NANTO SHI","town":"HISATO","perfecture_jp":"富山県","jp_add_1":"南砺市","jp_add_2":"久戸"},"9391601":{"post_code":"9391601","prefecture":"TOYAMA KEN","city":"NANTO SHI","town":"HITOBU","perfecture_jp":"富山県","jp_add_1":"南砺市","jp_add_2":"人母"},"9391763":{"post_code":"9391763","prefecture":"TOYAMA KEN","city":"NANTO SHI","town":"HINOSETO","perfecture_jp":"富山県","jp_add_1":"南砺市","jp_add_2":"樋瀬戸"},"9391517":{"post_code":"9391517","prefecture":"TOYAMA KEN","city":"NANTO SHI","town":"HYAKUCHO","perfecture_jp":"富山県","jp_add_1":"南砺市","jp_add_2":"百町"},"9391672":{"post_code":"9391672","prefecture":"TOYAMA KEN","city":"NANTO SHI","town":"HIROTANI","perfecture_jp":"富山県","jp_add_1":"南砺市","jp_add_2":"広谷"},"9391534":{"post_code":"9391534","prefecture":"TOYAMA KEN","city":"NANTO SHI","town":"HIROYASU","perfecture_jp":"富山県","jp_add_1":"南砺市","jp_add_2":"広安"},"9391561":{"post_code":"9391561","prefecture":"TOYAMA KEN","city":"NANTO SHI","town":"FUKUNO","perfecture_jp":"富山県","jp_add_1":"南砺市","jp_add_2":"福野"},"9391562":{"post_code":"9391562","prefecture":"TOYAMA KEN","city":"NANTO SHI","town":"FUKUNO(URAMACHI)","perfecture_jp":"富山県","jp_add_1":"南砺市","jp_add_2":"福野"},"9391572":{"post_code":"9391572","prefecture":"TOYAMA KEN","city":"NANTO SHI","town":"FUKUNO(EKIMAEDORI)","perfecture_jp":"富山県","jp_add_1":"南砺市","jp_add_2":"福野"},"9391564":{"post_code":"9391564","prefecture":"TOYAMA KEN","city":"NANTO SHI","town":"FUKUNO(OKURAMACHI)","perfecture_jp":"富山県","jp_add_1":"南砺市","jp_add_2":"福野"},"9391567":{"post_code":"9391567","prefecture":"TOYAMA KEN","city":"NANTO SHI","town":"FUKUNO(KAMMACHI)","perfecture_jp":"富山県","jp_add_1":"南砺市","jp_add_2":"福野"},"9391565":{"post_code":"9391565","prefecture":"TOYAMA KEN","city":"NANTO SHI","town":"FUKUNO(SHIMMACHI)","perfecture_jp":"富山県","jp_add_1":"南砺市","jp_add_2":"福野"},"9391563":{"post_code":"9391563","prefecture":"TOYAMA KEN","city":"NANTO SHI","town":"FUKUNO(TATSUMIMACHI)","perfecture_jp":"富山県","jp_add_1":"南砺市","jp_add_2":"福野"},"9391566":{"post_code":"9391566","prefecture":"TOYAMA KEN","city":"NANTO SHI","town":"FUKUNO(TANAKAMACHI)","perfecture_jp":"富山県","jp_add_1":"南砺市","jp_add_2":"福野"},"9391574":{"post_code":"9391574","prefecture":"TOYAMA KEN","city":"NANTO SHI","town":"FUKUNO(NANATSUYA)","perfecture_jp":"富山県","jp_add_1":"南砺市","jp_add_2":"福野"},"9391573":{"post_code":"9391573","prefecture":"TOYAMA KEN","city":"NANTO SHI","town":"FUKUNO(MINAMIMACHI)","perfecture_jp":"富山県","jp_add_1":"南砺市","jp_add_2":"福野"},"9391568":{"post_code":"9391568","prefecture":"TOYAMA KEN","city":"NANTO SHI","town":"FUKUNO(YOKOMACHI)","perfecture_jp":"富山県","jp_add_1":"南砺市","jp_add_2":"福野"},"9391515":{"post_code":"9391515","prefecture":"TOYAMA KEN","city":"NANTO SHI","town":"FUKUNOJIKUYA","perfecture_jp":"富山県","jp_add_1":"南砺市","jp_add_2":"福野軸屋"},"9391610":{"post_code":"9391610","prefecture":"TOYAMA KEN","city":"NANTO SHI","town":"FUKUMITSU","perfecture_jp":"富山県","jp_add_1":"南砺市","jp_add_2":"福光"},"9391631":{"post_code":"9391631","prefecture":"TOYAMA KEN","city":"NANTO SHI","town":"FUKUMITSU(ASAHIMACHI)","perfecture_jp":"富山県","jp_add_1":"南砺市","jp_add_2":"福光"},"9391646":{"post_code":"9391646","prefecture":"TOYAMA KEN","city":"NANTO SHI","town":"FUKUMITSU(ARAMACHI)","perfecture_jp":"富山県","jp_add_1":"南砺市","jp_add_2":"福光"},"9391641":{"post_code":"9391641","prefecture":"TOYAMA KEN","city":"NANTO SHI","town":"FUKUMITSU(KAWAHARAMACHI)","perfecture_jp":"富山県","jp_add_1":"南砺市","jp_add_2":"福光"},"9391636":{"post_code":"9391636","prefecture":"TOYAMA KEN","city":"NANTO SHI","town":"FUKUMITSU(KANDAMACHI)","perfecture_jp":"富山県","jp_add_1":"南砺市","jp_add_2":"福光"},"9391632":{"post_code":"9391632","prefecture":"TOYAMA KEN","city":"NANTO SHI","town":"FUKUMITSU(KANNOMMACHI)","perfecture_jp":"富山県","jp_add_1":"南砺市","jp_add_2":"福光"},"9391644":{"post_code":"9391644","prefecture":"TOYAMA KEN","city":"NANTO SHI","town":"FUKUMITSU(GOHOMACHI)","perfecture_jp":"富山県","jp_add_1":"南砺市","jp_add_2":"福光"},"9391654":{"post_code":"9391654","prefecture":"TOYAMA KEN","city":"NANTO SHI","town":"FUKUMITSU(SAKAEMACHI)","perfecture_jp":"富山県","jp_add_1":"南砺市","jp_add_2":"福光"},"9391635":{"post_code":"9391635","prefecture":"TOYAMA KEN","city":"NANTO SHI","town":"FUKUMITSU(CHUODORI)","perfecture_jp":"富山県","jp_add_1":"南砺市","jp_add_2":"福光"},"9391634":{"post_code":"9391634","prefecture":"TOYAMA KEN","city":"NANTO SHI","town":"FUKUMITSU(TERAMACHI)","perfecture_jp":"富山県","jp_add_1":"南砺市","jp_add_2":"福光"},"9391662":{"post_code":"9391662","prefecture":"TOYAMA KEN","city":"NANTO SHI","town":"FUKUMITSU(TENJIMMACHI)","perfecture_jp":"富山県","jp_add_1":"南砺市","jp_add_2":"福光"},"9391645":{"post_code":"9391645","prefecture":"TOYAMA KEN","city":"NANTO SHI","town":"FUKUMITSU(NAKAARAMACHI)","perfecture_jp":"富山県","jp_add_1":"南砺市","jp_add_2":"福光"},"9391637":{"post_code":"9391637","prefecture":"TOYAMA KEN","city":"NANTO SHI","town":"FUKUMITSU(NISHIMACHI)","perfecture_jp":"富山県","jp_add_1":"南砺市","jp_add_2":"福光"},"9391651":{"post_code":"9391651","prefecture":"TOYAMA KEN","city":"NANTO SHI","town":"FUKUMITSU(HIGASHISHIMMACHI)","perfecture_jp":"富山県","jp_add_1":"南砺市","jp_add_2":"福光"},"9391633":{"post_code":"9391633","prefecture":"TOYAMA KEN","city":"NANTO SHI","town":"FUKUMITSU(HIGASHIMACHI)","perfecture_jp":"富山県","jp_add_1":"南砺市","jp_add_2":"福光"},"9391643":{"post_code":"9391643","prefecture":"TOYAMA KEN","city":"NANTO SHI","town":"FUKUMITSU(HOMMACHI)","perfecture_jp":"富山県","jp_add_1":"南砺市","jp_add_2":"福光"},"9391642":{"post_code":"9391642","prefecture":"TOYAMA KEN","city":"NANTO SHI","town":"FUKUMITSU(MISOYACHO)","perfecture_jp":"富山県","jp_add_1":"南砺市","jp_add_2":"福光"},"9391653":{"post_code":"9391653","prefecture":"TOYAMA KEN","city":"NANTO SHI","town":"FUKUMITSU(MIYAWAKICHO)","perfecture_jp":"富山県","jp_add_1":"南砺市","jp_add_2":"福光"},"9391652":{"post_code":"9391652","prefecture":"TOYAMA KEN","city":"NANTO SHI","town":"FUKUMITSUSHIMMACHI","perfecture_jp":"富山県","jp_add_1":"南砺市","jp_add_2":"福光新町"},"9391507":{"post_code":"9391507","prefecture":"TOYAMA KEN","city":"NANTO SHI","town":"FUTSUKAMACHI","perfecture_jp":"富山県","jp_add_1":"南砺市","jp_add_2":"二日町"},"9391761":{"post_code":"9391761","prefecture":"TOYAMA KEN","city":"NANTO SHI","town":"FUTOMI","perfecture_jp":"富山県","jp_add_1":"南砺市","jp_add_2":"太美"},"9391626":{"post_code":"9391626","prefecture":"TOYAMA KEN","city":"NANTO SHI","town":"HORINJI","perfecture_jp":"富山県","jp_add_1":"南砺市","jp_add_2":"法林寺"},"9391841":{"post_code":"9391841","prefecture":"TOYAMA KEN","city":"NANTO SHI","town":"HOSOKI","perfecture_jp":"富山県","jp_add_1":"南砺市","jp_add_2":"細木"},"9391805":{"post_code":"9391805","prefecture":"TOYAMA KEN","city":"NANTO SHI","town":"HOSONO","perfecture_jp":"富山県","jp_add_1":"南砺市","jp_add_2":"細野"},"9391545":{"post_code":"9391545","prefecture":"TOYAMA KEN","city":"NANTO SHI","town":"HOTEI","perfecture_jp":"富山県","jp_add_1":"南砺市","jp_add_2":"布袋"},"9391501":{"post_code":"9391501","prefecture":"TOYAMA KEN","city":"NANTO SHI","town":"HONGO","perfecture_jp":"富山県","jp_add_1":"南砺市","jp_add_2":"本江"},"9391549":{"post_code":"9391549","prefecture":"TOYAMA KEN","city":"NANTO SHI","town":"MAEDA","perfecture_jp":"富山県","jp_add_1":"南砺市","jp_add_2":"前田"},"9391965":{"post_code":"9391965","prefecture":"TOYAMA KEN","city":"NANTO SHI","town":"MAKI","perfecture_jp":"富山県","jp_add_1":"南砺市","jp_add_2":"真木"},"9391813":{"post_code":"9391813","prefecture":"TOYAMA KEN","city":"NANTO SHI","town":"MASATANI","perfecture_jp":"富山県","jp_add_1":"南砺市","jp_add_2":"正谷"},"9391623":{"post_code":"9391623","prefecture":"TOYAMA KEN","city":"NANTO SHI","town":"MATSUNOKI","perfecture_jp":"富山県","jp_add_1":"南砺市","jp_add_2":"松木"},"9391518":{"post_code":"9391518","prefecture":"TOYAMA KEN","city":"NANTO SHI","town":"MATSUBARA","perfecture_jp":"富山県","jp_add_1":"南砺市","jp_add_2":"松原"},"9391571":{"post_code":"9391571","prefecture":"TOYAMA KEN","city":"NANTO SHI","town":"MATSUBARASHIN","perfecture_jp":"富山県","jp_add_1":"南砺市","jp_add_2":"松原新"},"9391916":{"post_code":"9391916","prefecture":"TOYAMA KEN","city":"NANTO SHI","town":"MIZA","perfecture_jp":"富山県","jp_add_1":"南砺市","jp_add_2":"見座"},"9391547":{"post_code":"9391547","prefecture":"TOYAMA KEN","city":"NANTO SHI","town":"MITSUYA","perfecture_jp":"富山県","jp_add_1":"南砺市","jp_add_2":"三ツ屋"},"9391812":{"post_code":"9391812","prefecture":"TOYAMA KEN","city":"NANTO SHI","town":"MINODANI","perfecture_jp":"富山県","jp_add_1":"南砺市","jp_add_2":"蓑谷"},"9391879":{"post_code":"9391879","prefecture":"TOYAMA KEN","city":"NANTO SHI","town":"MIYANOSHIRO","perfecture_jp":"富山県","jp_add_1":"南砺市","jp_add_2":"宮後"},"9391972":{"post_code":"9391972","prefecture":"TOYAMA KEN","city":"NANTO SHI","town":"MUKURAJIMA","perfecture_jp":"富山県","jp_add_1":"南砺市","jp_add_2":"葎島"},"9391715":{"post_code":"9391715","prefecture":"TOYAMA KEN","city":"NANTO SHI","town":"MUNEMORI","perfecture_jp":"富山県","jp_add_1":"南砺市","jp_add_2":"宗守"},"9391546":{"post_code":"9391546","prefecture":"TOYAMA KEN","city":"NANTO SHI","town":"MORI","perfecture_jp":"富山県","jp_add_1":"南砺市","jp_add_2":"森"},"9391527":{"post_code":"9391527","prefecture":"TOYAMA KEN","city":"NANTO SHI","town":"MORIKIYO","perfecture_jp":"富山県","jp_add_1":"南砺市","jp_add_2":"森清"},"9391827":{"post_code":"9391827","prefecture":"TOYAMA KEN","city":"NANTO SHI","town":"MORISHIN","perfecture_jp":"富山県","jp_add_1":"南砺市","jp_add_2":"盛新"},"9391576":{"post_code":"9391576","prefecture":"TOYAMA KEN","city":"NANTO SHI","town":"YAKATA","perfecture_jp":"富山県","jp_add_1":"南砺市","jp_add_2":"やかた"},"9391516":{"post_code":"9391516","prefecture":"TOYAMA KEN","city":"NANTO SHI","town":"YAKENO","perfecture_jp":"富山県","jp_add_1":"南砺市","jp_add_2":"焼野"},"9391554":{"post_code":"9391554","prefecture":"TOYAMA KEN","city":"NANTO SHI","town":"YASUI","perfecture_jp":"富山県","jp_add_1":"南砺市","jp_add_2":"安居"},"9391528":{"post_code":"9391528","prefecture":"TOYAMA KEN","city":"NANTO SHI","town":"YASUKIYO","perfecture_jp":"富山県","jp_add_1":"南砺市","jp_add_2":"安清"},"9391533":{"post_code":"9391533","prefecture":"TOYAMA KEN","city":"NANTO SHI","town":"YATSUZUKA","perfecture_jp":"富山県","jp_add_1":"南砺市","jp_add_2":"八塚"},"9391747":{"post_code":"9391747","prefecture":"TOYAMA KEN","city":"NANTO SHI","town":"YAMADA","perfecture_jp":"富山県","jp_add_1":"南砺市","jp_add_2":"山田"},"9391666":{"post_code":"9391666","prefecture":"TOYAMA KEN","city":"NANTO SHI","town":"YAMAMOTO","perfecture_jp":"富山県","jp_add_1":"南砺市","jp_add_2":"山本"},"9391615":{"post_code":"9391615","prefecture":"TOYAMA KEN","city":"NANTO SHI","town":"YUDANI","perfecture_jp":"富山県","jp_add_1":"南砺市","jp_add_2":"湯谷"},"9391702":{"post_code":"9391702","prefecture":"TOYAMA KEN","city":"NANTO SHI","town":"YOSHIENAKA","perfecture_jp":"富山県","jp_add_1":"南砺市","jp_add_2":"吉江中"},"9391742":{"post_code":"9391742","prefecture":"TOYAMA KEN","city":"NANTO SHI","town":"YOSHIENO","perfecture_jp":"富山県","jp_add_1":"南砺市","jp_add_2":"吉江野"},"9391764":{"post_code":"9391764","prefecture":"TOYAMA KEN","city":"NANTO SHI","town":"YOSHIMI","perfecture_jp":"富山県","jp_add_1":"南砺市","jp_add_2":"吉見"},"9391754":{"post_code":"9391754","prefecture":"TOYAMA KEN","city":"NANTO SHI","town":"YOMEGANE","perfecture_jp":"富山県","jp_add_1":"南砺市","jp_add_2":"嫁兼"},"9391811":{"post_code":"9391811","prefecture":"TOYAMA KEN","city":"NANTO SHI","town":"RIKYU","perfecture_jp":"富山県","jp_add_1":"南砺市","jp_add_2":"理休"},"9391822":{"post_code":"9391822","prefecture":"TOYAMA KEN","city":"NANTO SHI","town":"RINDO","perfecture_jp":"富山県","jp_add_1":"南砺市","jp_add_2":"林道"},"9390300":{"post_code":"9390300","prefecture":"TOYAMA KEN","city":"IMIZU SHI","town":"IKANIKEISAIGANAIBAAI","perfecture_jp":"富山県","jp_add_1":"射水市","jp_add_2":""},"9390321":{"post_code":"9390321","prefecture":"TOYAMA KEN","city":"IMIZU SHI","town":"RYUTSUSENTA(AOIDANI1.2-CHOME)","perfecture_jp":"富山県","jp_add_1":"射水市","jp_add_2":"青井谷"},"9390247":{"post_code":"9390247","prefecture":"TOYAMA KEN","city":"IMIZU SHI","town":"AOBADAI","perfecture_jp":"富山県","jp_add_1":"射水市","jp_add_2":"あおば台"},"9390287":{"post_code":"9390287","prefecture":"TOYAMA KEN","city":"IMIZU SHI","town":"AKAI","perfecture_jp":"富山県","jp_add_1":"射水市","jp_add_2":"赤井"},"9390412":{"post_code":"9390412","prefecture":"TOYAMA KEN","city":"IMIZU SHI","town":"ARAMACHI","perfecture_jp":"富山県","jp_add_1":"射水市","jp_add_2":"荒町"},"9390318":{"post_code":"9390318","prefecture":"TOYAMA KEN","city":"IMIZU SHI","town":"IKEDA","perfecture_jp":"富山県","jp_add_1":"射水市","jp_add_2":"池多"},"9390332":{"post_code":"9390332","prefecture":"TOYAMA KEN","city":"IMIZU SHI","town":"HINOMIYA","perfecture_jp":"富山県","jp_add_1":"射水市","jp_add_2":"一条"},"9390404":{"post_code":"9390404","prefecture":"TOYAMA KEN","city":"IMIZU SHI","town":"ICHINOI","perfecture_jp":"富山県","jp_add_1":"射水市","jp_add_2":"市井"},"9390301":{"post_code":"9390301","prefecture":"TOYAMA KEN","city":"IMIZU SHI","town":"INAZUMI","perfecture_jp":"富山県","jp_add_1":"射水市","jp_add_2":"稲積"},"9390286":{"post_code":"9390286","prefecture":"TOYAMA KEN","city":"IMIZU SHI","town":"IMAKAIHOTSU","perfecture_jp":"富山県","jp_add_1":"射水市","jp_add_2":"今開発"},"9390231":{"post_code":"9390231","prefecture":"TOYAMA KEN","city":"IMIZU SHI","town":"INNAI","perfecture_jp":"富山県","jp_add_1":"射水市","jp_add_2":"犬内"},"9390415":{"post_code":"9390415","prefecture":"TOYAMA KEN","city":"IMIZU SHI","town":"UMENOKI","perfecture_jp":"富山県","jp_add_1":"射水市","jp_add_2":"梅木"},"9390322":{"post_code":"9390322","prefecture":"TOYAMA KEN","city":"IMIZU SHI","town":"UWANO","perfecture_jp":"富山県","jp_add_1":"射水市","jp_add_2":"上野"},"9390302":{"post_code":"9390302","prefecture":"TOYAMA KEN","city":"IMIZU SHI","town":"OGO","perfecture_jp":"富山県","jp_add_1":"射水市","jp_add_2":"大江"},"9390271":{"post_code":"9390271","prefecture":"TOYAMA KEN","city":"IMIZU SHI","town":"OSHIMAKITANO","perfecture_jp":"富山県","jp_add_1":"射水市","jp_add_2":"大島北野"},"9390406":{"post_code":"9390406","prefecture":"TOYAMA KEN","city":"IMIZU SHI","town":"KAIGUCHI","perfecture_jp":"富山県","jp_add_1":"射水市","jp_add_2":"開口"},"9390281":{"post_code":"9390281","prefecture":"TOYAMA KEN","city":"IMIZU SHI","town":"KITATAKAKI","perfecture_jp":"富山県","jp_add_1":"射水市","jp_add_2":"北高木"},"9390276":{"post_code":"9390276","prefecture":"TOYAMA KEN","city":"IMIZU SHI","town":"KITANO","perfecture_jp":"富山県","jp_add_1":"射水市","jp_add_2":"北野"},"9390413":{"post_code":"9390413","prefecture":"TOYAMA KEN","city":"IMIZU SHI","town":"KUSHITA","perfecture_jp":"富山県","jp_add_1":"射水市","jp_add_2":"串田"},"9390416":{"post_code":"9390416","prefecture":"TOYAMA KEN","city":"IMIZU SHI","town":"KUSHITASHIN","perfecture_jp":"富山県","jp_add_1":"射水市","jp_add_2":"串田新"},"9390311":{"post_code":"9390311","prefecture":"TOYAMA KEN","city":"IMIZU SHI","town":"KUROKAWASHIN","perfecture_jp":"富山県","jp_add_1":"射水市","jp_add_2":"黒河"},"9390252":{"post_code":"9390252","prefecture":"TOYAMA KEN","city":"IMIZU SHI","town":"GEJO","perfecture_jp":"富山県","jp_add_1":"射水市","jp_add_2":"下条"},"9390331":{"post_code":"9390331","prefecture":"TOYAMA KEN","city":"IMIZU SHI","town":"GEJOSHIN","perfecture_jp":"富山県","jp_add_1":"射水市","jp_add_2":"下条新"},"9390417":{"post_code":"9390417","prefecture":"TOYAMA KEN","city":"IMIZU SHI","town":"KOIZUMI","perfecture_jp":"富山県","jp_add_1":"射水市","jp_add_2":"小泉"},"9390274":{"post_code":"9390274","prefecture":"TOYAMA KEN","city":"IMIZU SHI","town":"KOJIMA","perfecture_jp":"富山県","jp_add_1":"射水市","jp_add_2":"小島"},"9390316":{"post_code":"9390316","prefecture":"TOYAMA KEN","city":"IMIZU SHI","town":"KOSUGI KITANO","perfecture_jp":"富山県","jp_add_1":"射水市","jp_add_2":"小杉北野"},"9390304":{"post_code":"9390304","prefecture":"TOYAMA KEN","city":"IMIZU SHI","town":"KOSUGISHIRAISHI(KOSHIRAISHI)","perfecture_jp":"富山県","jp_add_1":"射水市","jp_add_2":"小杉白石"},"9390288":{"post_code":"9390288","prefecture":"TOYAMA KEN","city":"IMIZU SHI","town":"KOBAYASHI","perfecture_jp":"富山県","jp_add_1":"射水市","jp_add_2":"小林"},"9390341":{"post_code":"9390341","prefecture":"TOYAMA KEN","city":"IMIZU SHI","town":"SANGA(MOTOMACHI)","perfecture_jp":"富山県","jp_add_1":"射水市","jp_add_2":"三ケ"},"9390315":{"post_code":"9390315","prefecture":"TOYAMA KEN","city":"IMIZU SHI","town":"SHIIDO","perfecture_jp":"富山県","jp_add_1":"射水市","jp_add_2":"椎土"},"9390254":{"post_code":"9390254","prefecture":"TOYAMA KEN","city":"IMIZU SHI","town":"SHIMA","perfecture_jp":"富山県","jp_add_1":"射水市","jp_add_2":"島"},"9390243":{"post_code":"9390243","prefecture":"TOYAMA KEN","city":"IMIZU SHI","town":"SHIMOWAKA","perfecture_jp":"富山県","jp_add_1":"射水市","jp_add_2":"下若"},"9390403":{"post_code":"9390403","prefecture":"TOYAMA KEN","city":"IMIZU SHI","town":"SHOGENJI","perfecture_jp":"富山県","jp_add_1":"射水市","jp_add_2":"生源寺"},"9390414":{"post_code":"9390414","prefecture":"TOYAMA KEN","city":"IMIZU SHI","town":"SHOGENJISHIN","perfecture_jp":"富山県","jp_add_1":"射水市","jp_add_2":"生源寺新"},"9390255":{"post_code":"9390255","prefecture":"TOYAMA KEN","city":"IMIZU SHI","town":"JOJO","perfecture_jp":"富山県","jp_add_1":"射水市","jp_add_2":"上条"},"9390284":{"post_code":"9390284","prefecture":"TOYAMA KEN","city":"IMIZU SHI","town":"SHINKAIHOTSU","perfecture_jp":"富山県","jp_add_1":"射水市","jp_add_2":"新開発"},"9390361":{"post_code":"9390361","prefecture":"TOYAMA KEN","city":"IMIZU SHI","town":"TAIKOMACHI","perfecture_jp":"富山県","jp_add_1":"射水市","jp_add_2":"太閤町"},"9390362":{"post_code":"9390362","prefecture":"TOYAMA KEN","city":"IMIZU SHI","town":"TAIKOYAMA","perfecture_jp":"富山県","jp_add_1":"射水市","jp_add_2":"太閤山"},"9390232":{"post_code":"9390232","prefecture":"TOYAMA KEN","city":"IMIZU SHI","town":"DAIMON","perfecture_jp":"富山県","jp_add_1":"射水市","jp_add_2":"大門"},"9390233":{"post_code":"9390233","prefecture":"TOYAMA KEN","city":"IMIZU SHI","town":"DAIMONSHIN","perfecture_jp":"富山県","jp_add_1":"射水市","jp_add_2":"大門新"},"9390246":{"post_code":"9390246","prefecture":"TOYAMA KEN","city":"IMIZU SHI","town":"DAIMONHONGO","perfecture_jp":"富山県","jp_add_1":"射水市","jp_add_2":"大門本江"},"9390407":{"post_code":"9390407","prefecture":"TOYAMA KEN","city":"IMIZU SHI","town":"TAKEHANA","perfecture_jp":"富山県","jp_add_1":"射水市","jp_add_2":"竹鼻"},"9390245":{"post_code":"9390245","prefecture":"TOYAMA KEN","city":"IMIZU SHI","town":"TANADA","perfecture_jp":"富山県","jp_add_1":"射水市","jp_add_2":"棚田"},"9390313":{"post_code":"9390313","prefecture":"TOYAMA KEN","city":"IMIZU SHI","town":"TSUKAGOSHI","perfecture_jp":"富山県","jp_add_1":"射水市","jp_add_2":"塚越"},"9390411":{"post_code":"9390411","prefecture":"TOYAMA KEN","city":"IMIZU SHI","town":"TSUBURAIKE","perfecture_jp":"富山県","jp_add_1":"射水市","jp_add_2":"円池"},"9390306":{"post_code":"9390306","prefecture":"TOYAMA KEN","city":"IMIZU SHI","town":"TESAKI","perfecture_jp":"富山県","jp_add_1":"射水市","jp_add_2":"手崎"},"9390251":{"post_code":"9390251","prefecture":"TOYAMA KEN","city":"IMIZU SHI","town":"DOAI","perfecture_jp":"富山県","jp_add_1":"射水市","jp_add_2":"土合"},"9390314":{"post_code":"9390314","prefecture":"TOYAMA KEN","city":"IMIZU SHI","town":"DODAI","perfecture_jp":"富山県","jp_add_1":"射水市","jp_add_2":"土代"},"9390283":{"post_code":"9390283","prefecture":"TOYAMA KEN","city":"IMIZU SHI","town":"TOTTORI","perfecture_jp":"富山県","jp_add_1":"射水市","jp_add_2":"鳥取"},"9390312":{"post_code":"9390312","prefecture":"TOYAMA KEN","city":"IMIZU SHI","town":"NAKAOITASHIN","perfecture_jp":"富山県","jp_add_1":"射水市","jp_add_2":"中老田新"},"9390363":{"post_code":"9390363","prefecture":"TOYAMA KEN","city":"IMIZU SHI","town":"NAKATAIKOYAMA","perfecture_jp":"富山県","jp_add_1":"射水市","jp_add_2":"中太閤山"},"9390273":{"post_code":"9390273","prefecture":"TOYAMA KEN","city":"IMIZU SHI","town":"NAKANO","perfecture_jp":"富山県","jp_add_1":"射水市","jp_add_2":"中野"},"9390241":{"post_code":"9390241","prefecture":"TOYAMA KEN","city":"IMIZU SHI","town":"NAKAMURA","perfecture_jp":"富山県","jp_add_1":"射水市","jp_add_2":"中村"},"9390303":{"post_code":"9390303","prefecture":"TOYAMA KEN","city":"IMIZU SHI","town":"NISHITAKAGI","perfecture_jp":"富山県","jp_add_1":"射水市","jp_add_2":"西高木"},"9390257":{"post_code":"9390257","prefecture":"TOYAMA KEN","city":"IMIZU SHI","town":"NISHIHIROKAMI","perfecture_jp":"富山県","jp_add_1":"射水市","jp_add_2":"西広上"},"9390418":{"post_code":"9390418","prefecture":"TOYAMA KEN","city":"IMIZU SHI","town":"NUNOMEZAWA","perfecture_jp":"富山県","jp_add_1":"射水市","jp_add_2":"布目沢"},"9390319":{"post_code":"9390319","prefecture":"TOYAMA KEN","city":"IMIZU SHI","town":"HIGASHITAIKOYAMA","perfecture_jp":"富山県","jp_add_1":"射水市","jp_add_2":"東太閤山"},"9390351":{"post_code":"9390351","prefecture":"TOYAMA KEN","city":"IMIZU SHI","town":"HIBARI(WAKAMIYACHO)","perfecture_jp":"富山県","jp_add_1":"射水市","jp_add_2":"戸破"},"9390307":{"post_code":"9390307","prefecture":"TOYAMA KEN","city":"IMIZU SHI","town":"HIBARI(HARIHARA)","perfecture_jp":"富山県","jp_add_1":"射水市","jp_add_2":"戸破"},"9390323":{"post_code":"9390323","prefecture":"TOYAMA KEN","city":"IMIZU SHI","town":"HIRANO","perfecture_jp":"富山県","jp_add_1":"射水市","jp_add_2":"平野"},"9390256":{"post_code":"9390256","prefecture":"TOYAMA KEN","city":"IMIZU SHI","town":"HIROKAMI","perfecture_jp":"富山県","jp_add_1":"射水市","jp_add_2":"広上"},"9390235":{"post_code":"9390235","prefecture":"TOYAMA KEN","city":"IMIZU SHI","town":"BIWAKUBI","perfecture_jp":"富山県","jp_add_1":"射水市","jp_add_2":"枇杷首"},"9390405":{"post_code":"9390405","prefecture":"TOYAMA KEN","city":"IMIZU SHI","town":"FUJIMAKI","perfecture_jp":"富山県","jp_add_1":"射水市","jp_add_2":"藤巻"},"9390234":{"post_code":"9390234","prefecture":"TOYAMA KEN","city":"IMIZU SHI","town":"FUTAKUCHI","perfecture_jp":"富山県","jp_add_1":"射水市","jp_add_2":"二口"},"9390253":{"post_code":"9390253","prefecture":"TOYAMA KEN","city":"IMIZU SHI","town":"HORIUCHI","perfecture_jp":"富山県","jp_add_1":"射水市","jp_add_2":"堀内"},"9390285":{"post_code":"9390285","prefecture":"TOYAMA KEN","city":"IMIZU SHI","town":"HONKAIHOTSU","perfecture_jp":"富山県","jp_add_1":"射水市","jp_add_2":"本開発"},"9390244":{"post_code":"9390244","prefecture":"TOYAMA KEN","city":"IMIZU SHI","town":"HONDEN","perfecture_jp":"富山県","jp_add_1":"射水市","jp_add_2":"本田"},"9390401":{"post_code":"9390401","prefecture":"TOYAMA KEN","city":"IMIZU SHI","town":"MITODA","perfecture_jp":"富山県","jp_add_1":"射水市","jp_add_2":"水戸田"},"9390364":{"post_code":"9390364","prefecture":"TOYAMA KEN","city":"IMIZU SHI","town":"MINAMITAIKOYAMA","perfecture_jp":"富山県","jp_add_1":"射水市","jp_add_2":"南太閤山"},"9390282":{"post_code":"9390282","prefecture":"TOYAMA KEN","city":"IMIZU SHI","town":"MINAMITAKAKI","perfecture_jp":"富山県","jp_add_1":"射水市","jp_add_2":"南高木"},"9390242":{"post_code":"9390242","prefecture":"TOYAMA KEN","city":"IMIZU SHI","town":"YASUYOSHI","perfecture_jp":"富山県","jp_add_1":"射水市","jp_add_2":"安吉"},"9390275":{"post_code":"9390275","prefecture":"TOYAMA KEN","city":"IMIZU SHI","town":"YATSUZUKA","perfecture_jp":"富山県","jp_add_1":"射水市","jp_add_2":"八塚"},"9390317":{"post_code":"9390317","prefecture":"TOYAMA KEN","city":"IMIZU SHI","town":"YAMAMOTOSHIN","perfecture_jp":"富山県","jp_add_1":"射水市","jp_add_2":"山本新"},"9390402":{"post_code":"9390402","prefecture":"TOYAMA KEN","city":"IMIZU SHI","town":"RYUTSUSENTA MITODA","perfecture_jp":"富山県","jp_add_1":"射水市","jp_add_2":"流通センター水戸田"},"9390272":{"post_code":"9390272","prefecture":"TOYAMA KEN","city":"IMIZU SHI","town":"WAKASUGI","perfecture_jp":"富山県","jp_add_1":"射水市","jp_add_2":"若杉"},"9390408":{"post_code":"9390408","prefecture":"TOYAMA KEN","city":"IMIZU SHI","town":"WAKABAYASHI","perfecture_jp":"富山県","jp_add_1":"射水市","jp_add_2":"若林"},"9390305":{"post_code":"9390305","prefecture":"TOYAMA KEN","city":"IMIZU SHI","town":"WASHIZUKA","perfecture_jp":"富山県","jp_add_1":"射水市","jp_add_2":"鷲塚"},"9390600":{"post_code":"9390600","prefecture":"TOYAMA KEN","city":"SHIMONIIKAWA GUN NYUZEN MACHI","town":"IKANIKEISAIGANAIBAAI","perfecture_jp":"富山県","jp_add_1":"下新川郡入善町","jp_add_2":""},"9390643":{"post_code":"9390643","prefecture":"TOYAMA KEN","city":"SHIMONIIKAWA GUN NYUZEN MACHI","town":"AOKI","perfecture_jp":"富山県","jp_add_1":"下新川郡入善町","jp_add_2":"青木"},"9390646":{"post_code":"9390646","prefecture":"TOYAMA KEN","city":"SHIMONIIKAWA GUN NYUZEN MACHI","town":"AOKISHIN","perfecture_jp":"富山県","jp_add_1":"下新川郡入善町","jp_add_2":"青木新"},"9390624":{"post_code":"9390624","prefecture":"TOYAMA KEN","city":"SHIMONIIKAWA GUN NYUZEN MACHI","town":"AOSHIMA","perfecture_jp":"富山県","jp_add_1":"下新川郡入善町","jp_add_2":"青島"},"9390667":{"post_code":"9390667","prefecture":"TOYAMA KEN","city":"SHIMONIIKAWA GUN NYUZEN MACHI","town":"ASHIZAKI","perfecture_jp":"富山県","jp_add_1":"下新川郡入善町","jp_add_2":"芦崎"},"9390621":{"post_code":"9390621","prefecture":"TOYAMA KEN","city":"SHIMONIIKAWA GUN NYUZEN MACHI","town":"ARAMATA","perfecture_jp":"富山県","jp_add_1":"下新川郡入善町","jp_add_2":"荒又"},"9390637":{"post_code":"9390637","prefecture":"TOYAMA KEN","city":"SHIMONIIKAWA GUN NYUZEN MACHI","town":"ARAYA","perfecture_jp":"富山県","jp_add_1":"下新川郡入善町","jp_add_2":"新屋"},"9390679":{"post_code":"9390679","prefecture":"TOYAMA KEN","city":"SHIMONIIKAWA GUN NYUZEN MACHI","town":"IKARI","perfecture_jp":"富山県","jp_add_1":"下新川郡入善町","jp_add_2":"五十里"},"9390654":{"post_code":"9390654","prefecture":"TOYAMA KEN","city":"SHIMONIIKAWA GUN NYUZEN MACHI","town":"ITAYA","perfecture_jp":"富山県","jp_add_1":"下新川郡入善町","jp_add_2":"板屋"},"9390636":{"post_code":"9390636","prefecture":"TOYAMA KEN","city":"SHIMONIIKAWA GUN NYUZEN MACHI","town":"ICHIYADORI","perfecture_jp":"富山県","jp_add_1":"下新川郡入善町","jp_add_2":"一宿"},"9390633":{"post_code":"9390633","prefecture":"TOYAMA KEN","city":"SHIMONIIKAWA GUN NYUZEN MACHI","town":"URAYAMASHIN","perfecture_jp":"富山県","jp_add_1":"下新川郡入善町","jp_add_2":"浦山新"},"9390642":{"post_code":"9390642","prefecture":"TOYAMA KEN","city":"SHIMONIIKAWA GUN NYUZEN MACHI","town":"UWANO","perfecture_jp":"富山県","jp_add_1":"下新川郡入善町","jp_add_2":"上野"},"9390617":{"post_code":"9390617","prefecture":"TOYAMA KEN","city":"SHIMONIIKAWA GUN NYUZEN MACHI","town":"KASUGA","perfecture_jp":"富山県","jp_add_1":"下新川郡入善町","jp_add_2":"春日"},"9390653":{"post_code":"9390653","prefecture":"TOYAMA KEN","city":"SHIMONIIKAWA GUN NYUZEN MACHI","town":"KAMIIINO","perfecture_jp":"富山県","jp_add_1":"下新川郡入善町","jp_add_2":"上飯野"},"9390651":{"post_code":"9390651","prefecture":"TOYAMA KEN","city":"SHIMONIIKAWA GUN NYUZEN MACHI","town":"KAMIIINOSHIN","perfecture_jp":"富山県","jp_add_1":"下新川郡入善町","jp_add_2":"上飯野新"},"9390625":{"post_code":"9390625","prefecture":"TOYAMA KEN","city":"SHIMONIIKAWA GUN NYUZEN MACHI","town":"KAMBAYASHI","perfecture_jp":"富山県","jp_add_1":"下新川郡入善町","jp_add_2":"神林"},"9390677":{"post_code":"9390677","prefecture":"TOYAMA KEN","city":"SHIMONIIKAWA GUN NYUZEN MACHI","town":"KINONE","perfecture_jp":"富山県","jp_add_1":"下新川郡入善町","jp_add_2":"木根"},"9390614":{"post_code":"9390614","prefecture":"TOYAMA KEN","city":"SHIMONIIKAWA GUN NYUZEN MACHI","town":"KIMIJIMA","perfecture_jp":"富山県","jp_add_1":"下新川郡入善町","jp_add_2":"君島"},"9390627":{"post_code":"9390627","prefecture":"TOYAMA KEN","city":"SHIMONIIKAWA GUN NYUZEN MACHI","town":"KUNUGIYAMA","perfecture_jp":"富山県","jp_add_1":"下新川郡入善町","jp_add_2":"椚山"},"9390628":{"post_code":"9390628","prefecture":"TOYAMA KEN","city":"SHIMONIIKAWA GUN NYUZEN MACHI","town":"KUNUGIYAMASHIN","perfecture_jp":"富山県","jp_add_1":"下新川郡入善町","jp_add_2":"椚山新"},"9390623":{"post_code":"9390623","prefecture":"TOYAMA KEN","city":"SHIMONIIKAWA GUN NYUZEN MACHI","town":"KOSUGI","perfecture_jp":"富山県","jp_add_1":"下新川郡入善町","jp_add_2":"小杉"},"9390634":{"post_code":"9390634","prefecture":"TOYAMA KEN","city":"SHIMONIIKAWA GUN NYUZEN MACHI","town":"KOSURIDO","perfecture_jp":"富山県","jp_add_1":"下新川郡入善町","jp_add_2":"小摺戸"},"9390655":{"post_code":"9390655","prefecture":"TOYAMA KEN","city":"SHIMONIIKAWA GUN NYUZEN MACHI","town":"GOROHACHI","perfecture_jp":"富山県","jp_add_1":"下新川郡入善町","jp_add_2":"五郎八"},"9390656":{"post_code":"9390656","prefecture":"TOYAMA KEN","city":"SHIMONIIKAWA GUN NYUZEN MACHI","town":"SASAWARA","perfecture_jp":"富山県","jp_add_1":"下新川郡入善町","jp_add_2":"笹原"},"9390663":{"post_code":"9390663","prefecture":"TOYAMA KEN","city":"SHIMONIIKAWA GUN NYUZEN MACHI","town":"SHIMOIINO","perfecture_jp":"富山県","jp_add_1":"下新川郡入善町","jp_add_2":"下飯野"},"9390662":{"post_code":"9390662","prefecture":"TOYAMA KEN","city":"SHIMONIIKAWA GUN NYUZEN MACHI","town":"SHIMOIINOSHIN","perfecture_jp":"富山県","jp_add_1":"下新川郡入善町","jp_add_2":"下飯野新"},"9390641":{"post_code":"9390641","prefecture":"TOYAMA KEN","city":"SHIMONIIKAWA GUN NYUZEN MACHI","town":"SHIMOWANO","perfecture_jp":"富山県","jp_add_1":"下新川郡入善町","jp_add_2":"下上野"},"9390652":{"post_code":"9390652","prefecture":"TOYAMA KEN","city":"SHIMONIIKAWA GUN NYUZEN MACHI","town":"SODEZAWA","perfecture_jp":"富山県","jp_add_1":"下新川郡入善町","jp_add_2":"袖沢"},"9390661":{"post_code":"9390661","prefecture":"TOYAMA KEN","city":"SHIMONIIKAWA GUN NYUZEN MACHI","town":"TAKASE","perfecture_jp":"富山県","jp_add_1":"下新川郡入善町","jp_add_2":"高瀬"},"9390666":{"post_code":"9390666","prefecture":"TOYAMA KEN","city":"SHIMONIIKAWA GUN NYUZEN MACHI","town":"TAKABATAKE","perfecture_jp":"富山県","jp_add_1":"下新川郡入善町","jp_add_2":"高畠"},"9390672":{"post_code":"9390672","prefecture":"TOYAMA KEN","city":"SHIMONIIKAWA GUN NYUZEN MACHI","town":"TANAKA","perfecture_jp":"富山県","jp_add_1":"下新川郡入善町","jp_add_2":"田中"},"9390613":{"post_code":"9390613","prefecture":"TOYAMA KEN","city":"SHIMONIIKAWA GUN NYUZEN MACHI","town":"TANOMATA","perfecture_jp":"富山県","jp_add_1":"下新川郡入善町","jp_add_2":"田の又"},"9390675":{"post_code":"9390675","prefecture":"TOYAMA KEN","city":"SHIMONIIKAWA GUN NYUZEN MACHI","town":"DOICHI","perfecture_jp":"富山県","jp_add_1":"下新川郡入善町","jp_add_2":"道市"},"9390647":{"post_code":"9390647","prefecture":"TOYAMA KEN","city":"SHIMONIIKAWA GUN NYUZEN MACHI","town":"DOKO","perfecture_jp":"富山県","jp_add_1":"下新川郡入善町","jp_add_2":"道古"},"9390657":{"post_code":"9390657","prefecture":"TOYAMA KEN","city":"SHIMONIIKAWA GUN NYUZEN MACHI","town":"TOKKO","perfecture_jp":"富山県","jp_add_1":"下新川郡入善町","jp_add_2":"東狐"},"9390631":{"post_code":"9390631","prefecture":"TOYAMA KEN","city":"SHIMONIIKAWA GUN NYUZEN MACHI","town":"NIZAYAMA","perfecture_jp":"富山県","jp_add_1":"下新川郡入善町","jp_add_2":"下山"},"9390626":{"post_code":"9390626","prefecture":"TOYAMA KEN","city":"SHIMONIIKAWA GUN NYUZEN MACHI","town":"NYUZEN","perfecture_jp":"富山県","jp_add_1":"下新川郡入善町","jp_add_2":"入膳"},"9390632":{"post_code":"9390632","prefecture":"TOYAMA KEN","city":"SHIMONIIKAWA GUN NYUZEN MACHI","town":"HAKANOKI","perfecture_jp":"富山県","jp_add_1":"下新川郡入善町","jp_add_2":"墓ノ木"},"9390671":{"post_code":"9390671","prefecture":"TOYAMA KEN","city":"SHIMONIIKAWA GUN NYUZEN MACHI","town":"HIGASHIIKARI","perfecture_jp":"富山県","jp_add_1":"下新川郡入善町","jp_add_2":"東五十里"},"9390622":{"post_code":"9390622","prefecture":"TOYAMA KEN","city":"SHIMONIIKAWA GUN NYUZEN MACHI","town":"HIYOSHI","perfecture_jp":"富山県","jp_add_1":"下新川郡入善町","jp_add_2":"日吉"},"9390645":{"post_code":"9390645","prefecture":"TOYAMA KEN","city":"SHIMONIIKAWA GUN NYUZEN MACHI","town":"FUKUJIMA","perfecture_jp":"富山県","jp_add_1":"下新川郡入善町","jp_add_2":"福島"},"9390644":{"post_code":"9390644","prefecture":"TOYAMA KEN","city":"SHIMONIIKAWA GUN NYUZEN MACHI","town":"FUKUJIMASHIN","perfecture_jp":"富山県","jp_add_1":"下新川郡入善町","jp_add_2":"福島新"},"9390612":{"post_code":"9390612","prefecture":"TOYAMA KEN","city":"SHIMONIIKAWA GUN NYUZEN MACHI","town":"FUJIWARA","perfecture_jp":"富山県","jp_add_1":"下新川郡入善町","jp_add_2":"藤原"},"9390611":{"post_code":"9390611","prefecture":"TOYAMA KEN","city":"SHIMONIIKAWA GUN NYUZEN MACHI","town":"FURUKUROBE","perfecture_jp":"富山県","jp_add_1":"下新川郡入善町","jp_add_2":"古黒部"},"9390664":{"post_code":"9390664","prefecture":"TOYAMA KEN","city":"SHIMONIIKAWA GUN NYUZEN MACHI","town":"HEBISAWA","perfecture_jp":"富山県","jp_add_1":"下新川郡入善町","jp_add_2":"蛇沢"},"9390665":{"post_code":"9390665","prefecture":"TOYAMA KEN","city":"SHIMONIIKAWA GUN NYUZEN MACHI","town":"HOMMURA","perfecture_jp":"富山県","jp_add_1":"下新川郡入善町","jp_add_2":"本村"},"9390678":{"post_code":"9390678","prefecture":"TOYAMA KEN","city":"SHIMONIIKAWA GUN NYUZEN MACHI","town":"MIKOZAWA","perfecture_jp":"富山県","jp_add_1":"下新川郡入善町","jp_add_2":"神子沢"},"9390676":{"post_code":"9390676","prefecture":"TOYAMA KEN","city":"SHIMONIIKAWA GUN NYUZEN MACHI","town":"MEGAWA","perfecture_jp":"富山県","jp_add_1":"下新川郡入善町","jp_add_2":"目川"},"9390615":{"post_code":"9390615","prefecture":"TOYAMA KEN","city":"SHIMONIIKAWA GUN NYUZEN MACHI","town":"YAHATA","perfecture_jp":"富山県","jp_add_1":"下新川郡入善町","jp_add_2":"八幡"},"9390616":{"post_code":"9390616","prefecture":"TOYAMA KEN","city":"SHIMONIIKAWA GUN NYUZEN MACHI","town":"YOKOYAMA","perfecture_jp":"富山県","jp_add_1":"下新川郡入善町","jp_add_2":"横山"},"9390674":{"post_code":"9390674","prefecture":"TOYAMA KEN","city":"SHIMONIIKAWA GUN NYUZEN MACHI","town":"YOSHIWARA","perfecture_jp":"富山県","jp_add_1":"下新川郡入善町","jp_add_2":"吉原"},"9390673":{"post_code":"9390673","prefecture":"TOYAMA KEN","city":"SHIMONIIKAWA GUN NYUZEN MACHI","town":"YOSHIWARAHIGASHI","perfecture_jp":"富山県","jp_add_1":"下新川郡入善町","jp_add_2":"吉原東"},"9390635":{"post_code":"9390635","prefecture":"TOYAMA KEN","city":"SHIMONIIKAWA GUN NYUZEN MACHI","town":"WAKAGURISHIN","perfecture_jp":"富山県","jp_add_1":"下新川郡入善町","jp_add_2":"若栗新"},"9390700":{"post_code":"9390700","prefecture":"TOYAMA KEN","city":"SHIMONIIKAWA GUN ASAHI MACHI","town":"IKANIKEISAIGANAIBAAI","perfecture_jp":"富山県","jp_add_1":"下新川郡朝日町","jp_add_2":""},"9390735":{"post_code":"9390735","prefecture":"TOYAMA KEN","city":"SHIMONIIKAWA GUN ASAHI MACHI","town":"AKAGAWA","perfecture_jp":"富山県","jp_add_1":"下新川郡朝日町","jp_add_2":"赤川"},"9390746":{"post_code":"9390746","prefecture":"TOYAMA KEN","city":"SHIMONIIKAWA GUN ASAHI MACHI","town":"ARAKAWA","perfecture_jp":"富山県","jp_add_1":"下新川郡朝日町","jp_add_2":"荒川"},"9390717":{"post_code":"9390717","prefecture":"TOYAMA KEN","city":"SHIMONIIKAWA GUN ASAHI MACHI","town":"ISHITANI","perfecture_jp":"富山県","jp_add_1":"下新川郡朝日町","jp_add_2":"石谷"},"9390722":{"post_code":"9390722","prefecture":"TOYAMA KEN","city":"SHIMONIIKAWA GUN ASAHI MACHI","town":"OIENOSHO","perfecture_jp":"富山県","jp_add_1":"下新川郡朝日町","jp_add_2":"大家庄"},"9390727":{"post_code":"9390727","prefecture":"TOYAMA KEN","city":"SHIMONIIKAWA GUN ASAHI MACHI","town":"KANAYAMA","perfecture_jp":"富山県","jp_add_1":"下新川郡朝日町","jp_add_2":"金山"},"9390734":{"post_code":"9390734","prefecture":"TOYAMA KEN","city":"SHIMONIIKAWA GUN ASAHI MACHI","town":"KUSANO","perfecture_jp":"富山県","jp_add_1":"下新川郡朝日町","jp_add_2":"草野"},"9390728":{"post_code":"9390728","prefecture":"TOYAMA KEN","city":"SHIMONIIKAWA GUN ASAHI MACHI","town":"KUBOTA","perfecture_jp":"富山県","jp_add_1":"下新川郡朝日町","jp_add_2":"窪田"},"9390704":{"post_code":"9390704","prefecture":"TOYAMA KEN","city":"SHIMONIIKAWA GUN ASAHI MACHI","town":"SAKAI","perfecture_jp":"富山県","jp_add_1":"下新川郡朝日町","jp_add_2":"境"},"9390714":{"post_code":"9390714","prefecture":"TOYAMA KEN","city":"SHIMONIIKAWA GUN ASAHI MACHI","town":"SAKURAMACHI","perfecture_jp":"富山県","jp_add_1":"下新川郡朝日町","jp_add_2":"桜町"},"9390711":{"post_code":"9390711","prefecture":"TOYAMA KEN","city":"SHIMONIIKAWA GUN ASAHI MACHI","town":"SASAGAWA","perfecture_jp":"富山県","jp_add_1":"下新川郡朝日町","jp_add_2":"笹川"},"9390721":{"post_code":"9390721","prefecture":"TOYAMA KEN","city":"SHIMONIIKAWA GUN ASAHI MACHI","town":"SAMMAIBASHI","perfecture_jp":"富山県","jp_add_1":"下新川郡朝日町","jp_add_2":"三枚橋"},"9390747":{"post_code":"9390747","prefecture":"TOYAMA KEN","city":"SHIMONIIKAWA GUN ASAHI MACHI","town":"DAIYA","perfecture_jp":"富山県","jp_add_1":"下新川郡朝日町","jp_add_2":"大屋"},"9390748":{"post_code":"9390748","prefecture":"TOYAMA KEN","city":"SHIMONIIKAWA GUN ASAHI MACHI","town":"DAIYASHIN","perfecture_jp":"富山県","jp_add_1":"下新川郡朝日町","jp_add_2":"大屋新"},"9390705":{"post_code":"9390705","prefecture":"TOYAMA KEN","city":"SHIMONIIKAWA GUN ASAHI MACHI","town":"DAIRA","perfecture_jp":"富山県","jp_add_1":"下新川郡朝日町","jp_add_2":"大平"},"9390725":{"post_code":"9390725","prefecture":"TOYAMA KEN","city":"SHIMONIIKAWA GUN ASAHI MACHI","town":"TAKAHASHI","perfecture_jp":"富山県","jp_add_1":"下新川郡朝日町","jp_add_2":"高橋"},"9390733":{"post_code":"9390733","prefecture":"TOYAMA KEN","city":"SHIMONIIKAWA GUN ASAHI MACHI","town":"TSUKIYAMA","perfecture_jp":"富山県","jp_add_1":"下新川郡朝日町","jp_add_2":"月山"},"9390737":{"post_code":"9390737","prefecture":"TOYAMA KEN","city":"SHIMONIIKAWA GUN ASAHI MACHI","town":"TSUKIYAMASHIN","perfecture_jp":"富山県","jp_add_1":"下新川郡朝日町","jp_add_2":"月山新"},"9390743":{"post_code":"9390743","prefecture":"TOYAMA KEN","city":"SHIMONIIKAWA GUN ASAHI MACHI","town":"DOGE","perfecture_jp":"富山県","jp_add_1":"下新川郡朝日町","jp_add_2":"道下"},"9390741":{"post_code":"9390741","prefecture":"TOYAMA KEN","city":"SHIMONIIKAWA GUN ASAHI MACHI","town":"TOMARI","perfecture_jp":"富山県","jp_add_1":"下新川郡朝日町","jp_add_2":"泊"},"9390749":{"post_code":"9390749","prefecture":"TOYAMA KEN","city":"SHIMONIIKAWA GUN ASAHI MACHI","town":"TOMARISHIN","perfecture_jp":"富山県","jp_add_1":"下新川郡朝日町","jp_add_2":"泊新"},"9390732":{"post_code":"9390732","prefecture":"TOYAMA KEN","city":"SHIMONIIKAWA GUN ASAHI MACHI","town":"NAKAKUSANO","perfecture_jp":"富山県","jp_add_1":"下新川郡朝日町","jp_add_2":"中草野"},"9390713":{"post_code":"9390713","prefecture":"TOYAMA KEN","city":"SHIMONIIKAWA GUN ASAHI MACHI","town":"NAGANO","perfecture_jp":"富山県","jp_add_1":"下新川郡朝日町","jp_add_2":"長野"},"9390715":{"post_code":"9390715","prefecture":"TOYAMA KEN","city":"SHIMONIIKAWA GUN ASAHI MACHI","town":"NAMBO","perfecture_jp":"富山県","jp_add_1":"下新川郡朝日町","jp_add_2":"南保"},"9390716":{"post_code":"9390716","prefecture":"TOYAMA KEN","city":"SHIMONIIKAWA GUN ASAHI MACHI","town":"NAMBOMACHI","perfecture_jp":"富山県","jp_add_1":"下新川郡朝日町","jp_add_2":"南保町"},"9390726":{"post_code":"9390726","prefecture":"TOYAMA KEN","city":"SHIMONIIKAWA GUN ASAHI MACHI","town":"NIZAYAMASHIN","perfecture_jp":"富山県","jp_add_1":"下新川郡朝日町","jp_add_2":"下山新"},"9390745":{"post_code":"9390745","prefecture":"TOYAMA KEN","city":"SHIMONIIKAWA GUN ASAHI MACHI","town":"NISHIMACHI","perfecture_jp":"富山県","jp_add_1":"下新川郡朝日町","jp_add_2":"西町"},"9390742":{"post_code":"9390742","prefecture":"TOYAMA KEN","city":"SHIMONIIKAWA GUN ASAHI MACHI","town":"NUMAHO","perfecture_jp":"富山県","jp_add_1":"下新川郡朝日町","jp_add_2":"沼保"},"9390751":{"post_code":"9390751","prefecture":"TOYAMA KEN","city":"SHIMONIIKAWA GUN ASAHI MACHI","town":"NOSHIN","perfecture_jp":"富山県","jp_add_1":"下新川郡朝日町","jp_add_2":"野新"},"9390736":{"post_code":"9390736","prefecture":"TOYAMA KEN","city":"SHIMONIIKAWA GUN ASAHI MACHI","town":"HAMAKUSANO","perfecture_jp":"富山県","jp_add_1":"下新川郡朝日町","jp_add_2":"浜草野"},"9390731":{"post_code":"9390731","prefecture":"TOYAMA KEN","city":"SHIMONIIKAWA GUN ASAHI MACHI","town":"HIGASHIKUSANO","perfecture_jp":"富山県","jp_add_1":"下新川郡朝日町","jp_add_2":"東草野"},"9390744":{"post_code":"9390744","prefecture":"TOYAMA KEN","city":"SHIMONIIKAWA GUN ASAHI MACHI","town":"HIRAYANAGI","perfecture_jp":"富山県","jp_add_1":"下新川郡朝日町","jp_add_2":"平柳"},"9390712":{"post_code":"9390712","prefecture":"TOYAMA KEN","city":"SHIMONIIKAWA GUN ASAHI MACHI","town":"BIRUTANI","perfecture_jp":"富山県","jp_add_1":"下新川郡朝日町","jp_add_2":"蛭谷"},"9390723":{"post_code":"9390723","prefecture":"TOYAMA KEN","city":"SHIMONIIKAWA GUN ASAHI MACHI","town":"FUDODO","perfecture_jp":"富山県","jp_add_1":"下新川郡朝日町","jp_add_2":"不動堂"},"9390729":{"post_code":"9390729","prefecture":"TOYAMA KEN","city":"SHIMONIIKAWA GUN ASAHI MACHI","town":"FUNAGAWASHIN","perfecture_jp":"富山県","jp_add_1":"下新川郡朝日町","jp_add_2":"舟川新"},"9390703":{"post_code":"9390703","prefecture":"TOYAMA KEN","city":"SHIMONIIKAWA GUN ASAHI MACHI","town":"MIYAZAKI","perfecture_jp":"富山県","jp_add_1":"下新川郡朝日町","jp_add_2":"宮崎"},"9390702":{"post_code":"9390702","prefecture":"TOYAMA KEN","city":"SHIMONIIKAWA GUN ASAHI MACHI","town":"MOTOYASHIKI","perfecture_jp":"富山県","jp_add_1":"下新川郡朝日町","jp_add_2":"元屋敷"},"9390701":{"post_code":"9390701","prefecture":"TOYAMA KEN","city":"SHIMONIIKAWA GUN ASAHI MACHI","town":"YOKO","perfecture_jp":"富山県","jp_add_1":"下新川郡朝日町","jp_add_2":"横尾"},"9390724":{"post_code":"9390724","prefecture":"TOYAMA KEN","city":"SHIMONIIKAWA GUN ASAHI MACHI","town":"YOKOMIZU","perfecture_jp":"富山県","jp_add_1":"下新川郡朝日町","jp_add_2":"横水"},"9390171":{"post_code":"9390171","prefecture":"ISHIKAWA KEN","city":"HAKUI GUN HODATSUSHIMIZU CHO","town":"SOGO","perfecture_jp":"石川県","jp_add_1":"羽咋郡宝達志水町","jp_add_2":"沢川"}}