{"9410000":{"post_code":"9410000","prefecture":"NIIGATA KEN","city":"ITOIGAWA SHI","town":"IKANIKEISAIGANAIBAAI","perfecture_jp":"新潟県","jp_add_1":"糸魚川市","jp_add_2":""},"9410005":{"post_code":"9410005","prefecture":"NIIGATA KEN","city":"ITOIGAWA SHI","town":"ATSUDA","perfecture_jp":"新潟県","jp_add_1":"糸魚川市","jp_add_2":"厚田"},"9410022":{"post_code":"9410022","prefecture":"NIIGATA KEN","city":"ITOIGAWA SHI","town":"ARAMACHI","perfecture_jp":"新潟県","jp_add_1":"糸魚川市","jp_add_2":"新町"},"9410031":{"post_code":"9410031","prefecture":"NIIGATA KEN","city":"ITOIGAWA SHI","town":"AWAKURA","perfecture_jp":"新潟県","jp_add_1":"糸魚川市","jp_add_2":"粟倉"},"9410034":{"post_code":"9410034","prefecture":"NIIGATA KEN","city":"ITOIGAWA SHI","town":"ICHINONO","perfecture_jp":"新潟県","jp_add_1":"糸魚川市","jp_add_2":"市野々"},"9410056":{"post_code":"9410056","prefecture":"NIIGATA KEN","city":"ITOIGAWA SHI","town":"ICHINOMIYA","perfecture_jp":"新潟県","jp_add_1":"糸魚川市","jp_add_2":"一の宮"},"9410078":{"post_code":"9410078","prefecture":"NIIGATA KEN","city":"ITOIGAWA SHI","town":"IWAKI","perfecture_jp":"新潟県","jp_add_1":"糸魚川市","jp_add_2":"岩木"},"9410064":{"post_code":"9410064","prefecture":"NIIGATA KEN","city":"ITOIGAWA SHI","town":"UEKARI","perfecture_jp":"新潟県","jp_add_1":"糸魚川市","jp_add_2":"上刈"},"9410071":{"post_code":"9410071","prefecture":"NIIGATA KEN","city":"ITOIGAWA SHI","town":"ONO","perfecture_jp":"新潟県","jp_add_1":"糸魚川市","jp_add_2":"大野"},"9410061":{"post_code":"9410061","prefecture":"NIIGATA KEN","city":"ITOIGAWA SHI","town":"OMACHI","perfecture_jp":"新潟県","jp_add_1":"糸魚川市","jp_add_2":"大町"},"9410074":{"post_code":"9410074","prefecture":"NIIGATA KEN","city":"ITOIGAWA SHI","town":"OYACHI","perfecture_jp":"新潟県","jp_add_1":"糸魚川市","jp_add_2":"大谷内"},"9410051":{"post_code":"9410051","prefecture":"NIIGATA KEN","city":"ITOIGAWA SHI","town":"OSHIAGE","perfecture_jp":"新潟県","jp_add_1":"糸魚川市","jp_add_2":"押上"},"9410004":{"post_code":"9410004","prefecture":"NIIGATA KEN","city":"ITOIGAWA SHI","town":"KAJIYASHIKI","perfecture_jp":"新潟県","jp_add_1":"糸魚川市","jp_add_2":"梶屋敷"},"9410036":{"post_code":"9410036","prefecture":"NIIGATA KEN","city":"ITOIGAWA SHI","town":"KAMAZAWA","perfecture_jp":"新潟県","jp_add_1":"糸魚川市","jp_add_2":"釜沢"},"9410012":{"post_code":"9410012","prefecture":"NIIGATA KEN","city":"ITOIGAWA SHI","town":"KAMIIDE","perfecture_jp":"新潟県","jp_add_1":"糸魚川市","jp_add_2":"上出"},"9410042":{"post_code":"9410042","prefecture":"NIIGATA KEN","city":"ITOIGAWA SHI","town":"KAWASHIMA","perfecture_jp":"新潟県","jp_add_1":"糸魚川市","jp_add_2":"川島"},"9410054":{"post_code":"9410054","prefecture":"NIIGATA KEN","city":"ITOIGAWA SHI","town":"KYOGAMINE","perfecture_jp":"新潟県","jp_add_1":"糸魚川市","jp_add_2":"京ケ峰"},"9410063":{"post_code":"9410063","prefecture":"NIIGATA KEN","city":"ITOIGAWA SHI","town":"KIYOSAKI","perfecture_jp":"新潟県","jp_add_1":"糸魚川市","jp_add_2":"清崎"},"9410032":{"post_code":"9410032","prefecture":"NIIGATA KEN","city":"ITOIGAWA SHI","town":"KURUMIZAWA","perfecture_jp":"新潟県","jp_add_1":"糸魚川市","jp_add_2":"来海沢"},"9410033":{"post_code":"9410033","prefecture":"NIIGATA KEN","city":"ITOIGAWA SHI","town":"GOZENYAMA","perfecture_jp":"新潟県","jp_add_1":"糸魚川市","jp_add_2":"御前山"},"9410015":{"post_code":"9410015","prefecture":"NIIGATA KEN","city":"ITOIGAWA SHI","town":"SHIMIZUYAMA","perfecture_jp":"新潟県","jp_add_1":"糸魚川市","jp_add_2":"清水山"},"9410013":{"post_code":"9410013","prefecture":"NIIGATA KEN","city":"ITOIGAWA SHI","town":"SHIMOIDE","perfecture_jp":"新潟県","jp_add_1":"糸魚川市","jp_add_2":"下出"},"9410023":{"post_code":"9410023","prefecture":"NIIGATA KEN","city":"ITOIGAWA SHI","town":"JOKAKU","perfecture_jp":"新潟県","jp_add_1":"糸魚川市","jp_add_2":"上覚"},"9410041":{"post_code":"9410041","prefecture":"NIIGATA KEN","city":"ITOIGAWA SHI","town":"SHINKOJI","perfecture_jp":"新潟県","jp_add_1":"糸魚川市","jp_add_2":"真光寺"},"9410065":{"post_code":"9410065","prefecture":"NIIGATA KEN","city":"ITOIGAWA SHI","town":"SHINTETSU","perfecture_jp":"新潟県","jp_add_1":"糸魚川市","jp_add_2":"新鉄"},"9410011":{"post_code":"9410011","prefecture":"NIIGATA KEN","city":"ITOIGAWA SHI","town":"TAKIKAWARA","perfecture_jp":"新潟県","jp_add_1":"糸魚川市","jp_add_2":"滝川原"},"9410006":{"post_code":"9410006","prefecture":"NIIGATA KEN","city":"ITOIGAWA SHI","town":"TAKEGAHANA","perfecture_jp":"新潟県","jp_add_1":"糸魚川市","jp_add_2":"竹ケ花"},"9410043":{"post_code":"9410043","prefecture":"NIIGATA KEN","city":"ITOIGAWA SHI","town":"TANAKA","perfecture_jp":"新潟県","jp_add_1":"糸魚川市","jp_add_2":"田中"},"9410008":{"post_code":"9410008","prefecture":"NIIGATA KEN","city":"ITOIGAWA SHI","town":"TABUSE","perfecture_jp":"新潟県","jp_add_1":"糸魚川市","jp_add_2":"田伏"},"9410026":{"post_code":"9410026","prefecture":"NIIGATA KEN","city":"ITOIGAWA SHI","town":"TAYA","perfecture_jp":"新潟県","jp_add_1":"糸魚川市","jp_add_2":"田屋"},"9410062":{"post_code":"9410062","prefecture":"NIIGATA KEN","city":"ITOIGAWA SHI","town":"CHUO","perfecture_jp":"新潟県","jp_add_1":"糸魚川市","jp_add_2":"中央"},"9410077":{"post_code":"9410077","prefecture":"NIIGATA KEN","city":"ITOIGAWA SHI","town":"TSUMURIYAMA","perfecture_jp":"新潟県","jp_add_1":"糸魚川市","jp_add_2":"頭山"},"9410066":{"post_code":"9410066","prefecture":"NIIGATA KEN","city":"ITOIGAWA SHI","town":"TERAJIMA","perfecture_jp":"新潟県","jp_add_1":"糸魚川市","jp_add_2":"寺島"},"9410058":{"post_code":"9410058","prefecture":"NIIGATA KEN","city":"ITOIGAWA SHI","town":"TERAMACHI","perfecture_jp":"新潟県","jp_add_1":"糸魚川市","jp_add_2":"寺町"},"9410037":{"post_code":"9410037","prefecture":"NIIGATA KEN","city":"ITOIGAWA SHI","town":"DOTAIRA","perfecture_jp":"新潟県","jp_add_1":"糸魚川市","jp_add_2":"道平"},"9410019":{"post_code":"9410019","prefecture":"NIIGATA KEN","city":"ITOIGAWA SHI","town":"DOMYO","perfecture_jp":"新潟県","jp_add_1":"糸魚川市","jp_add_2":"道明"},"9410003":{"post_code":"9410003","prefecture":"NIIGATA KEN","city":"ITOIGAWA SHI","town":"NAKASHUKU","perfecture_jp":"新潟県","jp_add_1":"糸魚川市","jp_add_2":"中宿"},"9410002":{"post_code":"9410002","prefecture":"NIIGATA KEN","city":"ITOIGAWA SHI","town":"NAKAHAMA","perfecture_jp":"新潟県","jp_add_1":"糸魚川市","jp_add_2":"中浜"},"9410075":{"post_code":"9410075","prefecture":"NIIGATA KEN","city":"ITOIGAWA SHI","town":"NAKAYACHI","perfecture_jp":"新潟県","jp_add_1":"糸魚川市","jp_add_2":"中谷内"},"9410045":{"post_code":"9410045","prefecture":"NIIGATA KEN","city":"ITOIGAWA SHI","town":"NARISAWA","perfecture_jp":"新潟県","jp_add_1":"糸魚川市","jp_add_2":"成沢"},"9410073":{"post_code":"9410073","prefecture":"NIIGATA KEN","city":"ITOIGAWA SHI","town":"NISHIGAWARA","perfecture_jp":"新潟県","jp_add_1":"糸魚川市","jp_add_2":"西川原"},"9410076":{"post_code":"9410076","prefecture":"NIIGATA KEN","city":"ITOIGAWA SHI","town":"NISHINAKA","perfecture_jp":"新潟県","jp_add_1":"糸魚川市","jp_add_2":"西中"},"9410024":{"post_code":"9410024","prefecture":"NIIGATA KEN","city":"ITOIGAWA SHI","town":"NISHIYACHI","perfecture_jp":"新潟県","jp_add_1":"糸魚川市","jp_add_2":"西谷内"},"9410014":{"post_code":"9410014","prefecture":"NIIGATA KEN","city":"ITOIGAWA SHI","town":"NIKKOJI","perfecture_jp":"新潟県","jp_add_1":"糸魚川市","jp_add_2":"日光寺"},"9410046":{"post_code":"9410046","prefecture":"NIIGATA KEN","city":"ITOIGAWA SHI","town":"HANYU","perfecture_jp":"新潟県","jp_add_1":"糸魚川市","jp_add_2":"羽生"},"9410021":{"post_code":"9410021","prefecture":"NIIGATA KEN","city":"ITOIGAWA SHI","town":"HIGASHIUMI","perfecture_jp":"新潟県","jp_add_1":"糸魚川市","jp_add_2":"東海"},"9410027":{"post_code":"9410027","prefecture":"NIIGATA KEN","city":"ITOIGAWA SHI","town":"HIGASHIKAWARA","perfecture_jp":"新潟県","jp_add_1":"糸魚川市","jp_add_2":"東川原"},"9410053":{"post_code":"9410053","prefecture":"NIIGATA KEN","city":"ITOIGAWA SHI","town":"HIGASHITERAMACHI","perfecture_jp":"新潟県","jp_add_1":"糸魚川市","jp_add_2":"東寺町"},"9410047":{"post_code":"9410047","prefecture":"NIIGATA KEN","city":"ITOIGAWA SHI","town":"HIRAUSHI","perfecture_jp":"新潟県","jp_add_1":"糸魚川市","jp_add_2":"平牛"},"9410025":{"post_code":"9410025","prefecture":"NIIGATA KEN","city":"ITOIGAWA SHI","town":"HORIKIRI","perfecture_jp":"新潟県","jp_add_1":"糸魚川市","jp_add_2":"堀切"},"9410068":{"post_code":"9410068","prefecture":"NIIGATA KEN","city":"ITOIGAWA SHI","town":"HONCHO","perfecture_jp":"新潟県","jp_add_1":"糸魚川市","jp_add_2":"本町"},"9410035":{"post_code":"9410035","prefecture":"NIIGATA KEN","city":"ITOIGAWA SHI","town":"MAKI","perfecture_jp":"新潟県","jp_add_1":"糸魚川市","jp_add_2":"真木"},"9410001":{"post_code":"9410001","prefecture":"NIIGATA KEN","city":"ITOIGAWA SHI","town":"MAWAKI","perfecture_jp":"新潟県","jp_add_1":"糸魚川市","jp_add_2":"間脇"},"9410044":{"post_code":"9410044","prefecture":"NIIGATA KEN","city":"ITOIGAWA SHI","town":"MIZUHO","perfecture_jp":"新潟県","jp_add_1":"糸魚川市","jp_add_2":"水保"},"9410052":{"post_code":"9410052","prefecture":"NIIGATA KEN","city":"ITOIGAWA SHI","town":"MINAMIOSHIAGE","perfecture_jp":"新潟県","jp_add_1":"糸魚川市","jp_add_2":"南押上"},"9410069":{"post_code":"9410069","prefecture":"NIIGATA KEN","city":"ITOIGAWA SHI","town":"MINAMITERAJIMA","perfecture_jp":"新潟県","jp_add_1":"糸魚川市","jp_add_2":"南寺島"},"9410057":{"post_code":"9410057","prefecture":"NIIGATA KEN","city":"ITOIGAWA SHI","town":"MINAMITERAMACHI","perfecture_jp":"新潟県","jp_add_1":"糸魚川市","jp_add_2":"南寺町"},"9410007":{"post_code":"9410007","prefecture":"NIIGATA KEN","city":"ITOIGAWA SHI","town":"YAMATOGAWA","perfecture_jp":"新潟県","jp_add_1":"糸魚川市","jp_add_2":"大和川"},"9410072":{"post_code":"9410072","prefecture":"NIIGATA KEN","city":"ITOIGAWA SHI","town":"YAMAMOTO","perfecture_jp":"新潟県","jp_add_1":"糸魚川市","jp_add_2":"山本"},"9410067":{"post_code":"9410067","prefecture":"NIIGATA KEN","city":"ITOIGAWA SHI","town":"YOKOMACHI","perfecture_jp":"新潟県","jp_add_1":"糸魚川市","jp_add_2":"横町"},"9410016":{"post_code":"9410016","prefecture":"NIIGATA KEN","city":"ITOIGAWA SHI","town":"YOTSUYA","perfecture_jp":"新潟県","jp_add_1":"糸魚川市","jp_add_2":"四ツ屋"},"9410055":{"post_code":"9410055","prefecture":"NIIGATA KEN","city":"ITOIGAWA SHI","town":"RENDAIJI","perfecture_jp":"新潟県","jp_add_1":"糸魚川市","jp_add_2":"蓮台寺"}}