{"9460000":{"post_code":"9460000","prefecture":"NIIGATA KEN","city":"UONUMA SHI","town":"IKANIKEISAIGANAIBAAI","perfecture_jp":"新潟県","jp_add_1":"魚沼市","jp_add_2":""},"9460043":{"post_code":"9460043","prefecture":"NIIGATA KEN","city":"UONUMA SHI","town":"AOSHIMA","perfecture_jp":"新潟県","jp_add_1":"魚沼市","jp_add_2":"青島"},"9460224":{"post_code":"9460224","prefecture":"NIIGATA KEN","city":"UONUMA SHI","town":"AKATSUCHI","perfecture_jp":"新潟県","jp_add_1":"魚沼市","jp_add_2":"赤土"},"9460304":{"post_code":"9460304","prefecture":"NIIGATA KEN","city":"UONUMA SHI","town":"ANAZAWA","perfecture_jp":"新潟県","jp_add_1":"魚沼市","jp_add_2":"穴沢"},"9460064":{"post_code":"9460064","prefecture":"NIIGATA KEN","city":"UONUMA SHI","town":"IKEDAIRASHINDEN","perfecture_jp":"新潟県","jp_add_1":"魚沼市","jp_add_2":"池平"},"9460114":{"post_code":"9460114","prefecture":"NIIGATA KEN","city":"UONUMA SHI","town":"IZUMISAWA","perfecture_jp":"新潟県","jp_add_1":"魚沼市","jp_add_2":"泉沢"},"9460038":{"post_code":"9460038","prefecture":"NIIGATA KEN","city":"UONUMA SHI","town":"ISEJIMA","perfecture_jp":"新潟県","jp_add_1":"魚沼市","jp_add_2":"伊勢島"},"9460032":{"post_code":"9460032","prefecture":"NIIGATA KEN","city":"UONUMA SHI","town":"ITAGI","perfecture_jp":"新潟県","jp_add_1":"魚沼市","jp_add_2":"板木"},"9460002":{"post_code":"9460002","prefecture":"NIIGATA KEN","city":"UONUMA SHI","town":"INARICHO","perfecture_jp":"新潟県","jp_add_1":"魚沼市","jp_add_2":"稲荷町"},"9460076":{"post_code":"9460076","prefecture":"NIIGATA KEN","city":"UONUMA SHI","town":"INOKUCHISHINDEN","perfecture_jp":"新潟県","jp_add_1":"魚沼市","jp_add_2":"井口新田"},"9460051":{"post_code":"9460051","prefecture":"NIIGATA KEN","city":"UONUMA SHI","town":"IMAIZUMI","perfecture_jp":"新潟県","jp_add_1":"魚沼市","jp_add_2":"今泉"},"9460302":{"post_code":"9460302","prefecture":"NIIGATA KEN","city":"UONUMA SHI","town":"IMOZAYA","perfecture_jp":"新潟県","jp_add_1":"魚沼市","jp_add_2":"芋鞘"},"9460084":{"post_code":"9460084","prefecture":"NIIGATA KEN","city":"UONUMA SHI","town":"UTSUNO","perfecture_jp":"新潟県","jp_add_1":"魚沼市","jp_add_2":"宇津野"},"9460012":{"post_code":"9460012","prefecture":"NIIGATA KEN","city":"UONUMA SHI","town":"URAMACHI","perfecture_jp":"新潟県","jp_add_1":"魚沼市","jp_add_2":"浦町"},"9460052":{"post_code":"9460052","prefecture":"NIIGATA KEN","city":"UONUMA SHI","town":"EGUCHISHINDEN","perfecture_jp":"新潟県","jp_add_1":"魚沼市","jp_add_2":"江口"},"9460124":{"post_code":"9460124","prefecture":"NIIGATA KEN","city":"UONUMA SHI","town":"OIMOGAWA","perfecture_jp":"新潟県","jp_add_1":"魚沼市","jp_add_2":"大芋川"},"9460033":{"post_code":"9460033","prefecture":"NIIGATA KEN","city":"UONUMA SHI","town":"OURA","perfecture_jp":"新潟県","jp_add_1":"魚沼市","jp_add_2":"大浦"},"9460034":{"post_code":"9460034","prefecture":"NIIGATA KEN","city":"UONUMA SHI","town":"OURASHINDEN","perfecture_jp":"新潟県","jp_add_1":"魚沼市","jp_add_2":"大浦新田"},"9460226":{"post_code":"9460226","prefecture":"NIIGATA KEN","city":"UONUMA SHI","town":"OKURA","perfecture_jp":"新潟県","jp_add_1":"魚沼市","jp_add_2":"大倉"},"9460223":{"post_code":"9460223","prefecture":"NIIGATA KEN","city":"UONUMA SHI","town":"OKURASAWA","perfecture_jp":"新潟県","jp_add_1":"魚沼市","jp_add_2":"大倉沢"},"9460073":{"post_code":"9460073","prefecture":"NIIGATA KEN","city":"UONUMA SHI","town":"OSAWA","perfecture_jp":"新潟県","jp_add_1":"魚沼市","jp_add_2":"大沢"},"9460303":{"post_code":"9460303","prefecture":"NIIGATA KEN","city":"UONUMA SHI","town":"OSHIRAKAWA","perfecture_jp":"新潟県","jp_add_1":"魚沼市","jp_add_2":"大白川"},"9460004":{"post_code":"9460004","prefecture":"NIIGATA KEN","city":"UONUMA SHI","town":"OZUKASHINDEN","perfecture_jp":"新潟県","jp_add_1":"魚沼市","jp_add_2":"大塚新田"},"9460305":{"post_code":"9460305","prefecture":"NIIGATA KEN","city":"UONUMA SHI","town":"OTOCHIYAMA","perfecture_jp":"新潟県","jp_add_1":"魚沼市","jp_add_2":"大栃山"},"9460215":{"post_code":"9460215","prefecture":"NIIGATA KEN","city":"UONUMA SHI","town":"OHARASHINDEN","perfecture_jp":"新潟県","jp_add_1":"魚沼市","jp_add_2":"大原新田"},"9460088":{"post_code":"9460088","prefecture":"NIIGATA KEN","city":"UONUMA SHI","town":"OYUONSEN","perfecture_jp":"新潟県","jp_add_1":"魚沼市","jp_add_2":"大湯温泉"},"9460036":{"post_code":"9460036","prefecture":"NIIGATA KEN","city":"UONUMA SHI","town":"OKASHINDEN","perfecture_jp":"新潟県","jp_add_1":"魚沼市","jp_add_2":"岡新田"},"9460101":{"post_code":"9460101","prefecture":"NIIGATA KEN","city":"UONUMA SHI","town":"OBIRO","perfecture_jp":"新潟県","jp_add_1":"魚沼市","jp_add_2":"小平尾"},"9460108":{"post_code":"9460108","prefecture":"NIIGATA KEN","city":"UONUMA SHI","town":"OYAGARA","perfecture_jp":"新潟県","jp_add_1":"魚沼市","jp_add_2":"親柄"},"9460086":{"post_code":"9460086","prefecture":"NIIGATA KEN","city":"UONUMA SHI","town":"ORITATEMATASHINDEN","perfecture_jp":"新潟県","jp_add_1":"魚沼市","jp_add_2":"折立又新田"},"9460105":{"post_code":"9460105","prefecture":"NIIGATA KEN","city":"UONUMA SHI","town":"MIYAZAWASHINDEN","perfecture_jp":"新潟県","jp_add_1":"魚沼市","jp_add_2":"金ケ沢"},"9460087":{"post_code":"9460087","prefecture":"NIIGATA KEN","city":"UONUMA SHI","town":"KAMIORITATE","perfecture_jp":"新潟県","jp_add_1":"魚沼市","jp_add_2":"上折立"},"9460211":{"post_code":"9460211","prefecture":"NIIGATA KEN","city":"UONUMA SHI","town":"KAMINAGATORISHINDEN","perfecture_jp":"新潟県","jp_add_1":"魚沼市","jp_add_2":"上長鳥新田"},"9460022":{"post_code":"9460022","prefecture":"NIIGATA KEN","city":"UONUMA SHI","town":"KAMIHARA","perfecture_jp":"新潟県","jp_add_1":"魚沼市","jp_add_2":"上原"},"9460107":{"post_code":"9460107","prefecture":"NIIGATA KEN","city":"UONUMA SHI","town":"YOKOZE","perfecture_jp":"新潟県","jp_add_1":"魚沼市","jp_add_2":"雁坂下"},"9460104":{"post_code":"9460104","prefecture":"NIIGATA KEN","city":"UONUMA SHI","town":"KURIYAMA","perfecture_jp":"新潟県","jp_add_1":"魚沼市","jp_add_2":"栗山"},"9460011":{"post_code":"9460011","prefecture":"NIIGATA KEN","city":"UONUMA SHI","town":"KOIDEJIMA","perfecture_jp":"新潟県","jp_add_1":"魚沼市","jp_add_2":"小出島"},"9460125":{"post_code":"9460125","prefecture":"NIIGATA KEN","city":"UONUMA SHI","town":"KOSHIMATA","perfecture_jp":"新潟県","jp_add_1":"魚沼市","jp_add_2":"越又"},"9460025":{"post_code":"9460025","prefecture":"NIIGATA KEN","city":"UONUMA SHI","town":"KOSHINDEN","perfecture_jp":"新潟県","jp_add_1":"魚沼市","jp_add_2":"古新田"},"9460121":{"post_code":"9460121","prefecture":"NIIGATA KEN","city":"UONUMA SHI","town":"RENNICHI","perfecture_jp":"新潟県","jp_add_1":"魚沼市","jp_add_2":"小庭名"},"9460021":{"post_code":"9460021","prefecture":"NIIGATA KEN","city":"UONUMA SHI","town":"SANASHI","perfecture_jp":"新潟県","jp_add_1":"魚沼市","jp_add_2":"佐梨"},"9460203":{"post_code":"9460203","prefecture":"NIIGATA KEN","city":"UONUMA SHI","town":"SHIBUKAWA","perfecture_jp":"新潟県","jp_add_1":"魚沼市","jp_add_2":"渋川"},"9460085":{"post_code":"9460085","prefecture":"NIIGATA KEN","city":"UONUMA SHI","town":"SHIMORITATE","perfecture_jp":"新潟県","jp_add_1":"魚沼市","jp_add_2":"下折立"},"9460061":{"post_code":"9460061","prefecture":"NIIGATA KEN","city":"UONUMA SHI","town":"SHIMBOSHINDEN","perfecture_jp":"新潟県","jp_add_1":"魚沼市","jp_add_2":"新保"},"9460221":{"post_code":"9460221","prefecture":"NIIGATA KEN","city":"UONUMA SHI","town":"SUGAWA","perfecture_jp":"新潟県","jp_add_1":"魚沼市","jp_add_2":"須川"},"9460216":{"post_code":"9460216","prefecture":"NIIGATA KEN","city":"UONUMA SHI","town":"SUHARA","perfecture_jp":"新潟県","jp_add_1":"魚沼市","jp_add_2":"須原"},"9460003":{"post_code":"9460003","prefecture":"NIIGATA KEN","city":"UONUMA SHI","town":"SUWACHO","perfecture_jp":"新潟県","jp_add_1":"魚沼市","jp_add_2":"諏訪町"},"9460102":{"post_code":"9460102","prefecture":"NIIGATA KEN","city":"UONUMA SHI","town":"SODEYAMA","perfecture_jp":"新潟県","jp_add_1":"魚沼市","jp_add_2":"外山"},"9460201":{"post_code":"9460201","prefecture":"NIIGATA KEN","city":"UONUMA SHI","town":"TAKAKURA","perfecture_jp":"新潟県","jp_add_1":"魚沼市","jp_add_2":"高倉"},"9460103":{"post_code":"9460103","prefecture":"NIIGATA KEN","city":"UONUMA SHI","town":"TAKINOMATA","perfecture_jp":"新潟県","jp_add_1":"魚沼市","jp_add_2":"滝之又"},"9460301":{"post_code":"9460301","prefecture":"NIIGATA KEN","city":"UONUMA SHI","town":"TAGOYA","perfecture_jp":"新潟県","jp_add_1":"魚沼市","jp_add_2":"田小屋"},"9460112":{"post_code":"9460112","prefecture":"NIIGATA KEN","city":"UONUMA SHI","town":"TAJIRI","perfecture_jp":"新潟県","jp_add_1":"魚沼市","jp_add_2":"田尻"},"9460106":{"post_code":"9460106","prefecture":"NIIGATA KEN","city":"UONUMA SHI","town":"TANAKA","perfecture_jp":"新潟県","jp_add_1":"魚沼市","jp_add_2":"田中"},"9460063":{"post_code":"9460063","prefecture":"NIIGATA KEN","city":"UONUMA SHI","town":"CHUKASHINDEN","perfecture_jp":"新潟県","jp_add_1":"魚沼市","jp_add_2":"中家"},"9460065":{"post_code":"9460065","prefecture":"NIIGATA KEN","city":"UONUMA SHI","town":"CHUSHIZAWA","perfecture_jp":"新潟県","jp_add_1":"魚沼市","jp_add_2":"中子沢"},"9460035":{"post_code":"9460035","prefecture":"NIIGATA KEN","city":"UONUMA SHI","town":"TOKAMACHI","perfecture_jp":"新潟県","jp_add_1":"魚沼市","jp_add_2":"十日町"},"9460057":{"post_code":"9460057","prefecture":"NIIGATA KEN","city":"UONUMA SHI","town":"NAKAJIMA","perfecture_jp":"新潟県","jp_add_1":"魚沼市","jp_add_2":"中島"},"9460058":{"post_code":"9460058","prefecture":"NIIGATA KEN","city":"UONUMA SHI","town":"NAKAJIMASHINDEN","perfecture_jp":"新潟県","jp_add_1":"魚沼市","jp_add_2":"中島新田"},"9460212":{"post_code":"9460212","prefecture":"NIIGATA KEN","city":"UONUMA SHI","town":"NAGATORI","perfecture_jp":"新潟県","jp_add_1":"魚沼市","jp_add_2":"長鳥"},"9460006":{"post_code":"9460006","prefecture":"NIIGATA KEN","city":"UONUMA SHI","town":"NAKANOSHIMA","perfecture_jp":"新潟県","jp_add_1":"魚沼市","jp_add_2":"中之島"},"9460024":{"post_code":"9460024","prefecture":"NIIGATA KEN","city":"UONUMA SHI","town":"NAKAHARA","perfecture_jp":"新潟県","jp_add_1":"魚沼市","jp_add_2":"中原"},"9460053":{"post_code":"9460053","prefecture":"NIIGATA KEN","city":"UONUMA SHI","town":"NAGAMATSU","perfecture_jp":"新潟県","jp_add_1":"魚沼市","jp_add_2":"長松"},"9460071":{"post_code":"9460071","prefecture":"NIIGATA KEN","city":"UONUMA SHI","town":"NANOKAICHI","perfecture_jp":"新潟県","jp_add_1":"魚沼市","jp_add_2":"七日市"},"9460072":{"post_code":"9460072","prefecture":"NIIGATA KEN","city":"UONUMA SHI","town":"NANOKAICHISHINDEN","perfecture_jp":"新潟県","jp_add_1":"魚沼市","jp_add_2":"七日市新田"},"9460111":{"post_code":"9460111","prefecture":"NIIGATA KEN","city":"UONUMA SHI","town":"NAMIYANAGI","perfecture_jp":"新潟県","jp_add_1":"魚沼市","jp_add_2":"並柳"},"9460204":{"post_code":"9460204","prefecture":"NIIGATA KEN","city":"UONUMA SHI","town":"NISHIMYO","perfecture_jp":"新潟県","jp_add_1":"魚沼市","jp_add_2":"西名"},"9460206":{"post_code":"9460206","prefecture":"NIIGATA KEN","city":"UONUMA SHI","town":"NISHIMYOSHINDEN","perfecture_jp":"新潟県","jp_add_1":"魚沼市","jp_add_2":"西名新田"},"9460031":{"post_code":"9460031","prefecture":"NIIGATA KEN","city":"UONUMA SHI","town":"HARAMUSHINO","perfecture_jp":"新潟県","jp_add_1":"魚沼市","jp_add_2":"原虫野"},"9460113":{"post_code":"9460113","prefecture":"NIIGATA KEN","city":"UONUMA SHI","town":"HIGASHINAKA","perfecture_jp":"新潟県","jp_add_1":"魚沼市","jp_add_2":"東中"},"9460202":{"post_code":"9460202","prefecture":"NIIGATA KEN","city":"UONUMA SHI","town":"HIGASHINOMYO","perfecture_jp":"新潟県","jp_add_1":"魚沼市","jp_add_2":"東野名"},"9460062":{"post_code":"9460062","prefecture":"NIIGATA KEN","city":"UONUMA SHI","town":"HITOICHI","perfecture_jp":"新潟県","jp_add_1":"魚沼市","jp_add_2":"一日市"},"9460023":{"post_code":"9460023","prefecture":"NIIGATA KEN","city":"UONUMA SHI","town":"HIMIZO","perfecture_jp":"新潟県","jp_add_1":"魚沼市","jp_add_2":"干溝"},"9460306":{"post_code":"9460306","prefecture":"NIIGATA KEN","city":"UONUMA SHI","town":"HIRANOMATA","perfecture_jp":"新潟県","jp_add_1":"魚沼市","jp_add_2":"平野又"},"9460001":{"post_code":"9460001","prefecture":"NIIGATA KEN","city":"UONUMA SHI","town":"HIWATASHISHINDEN","perfecture_jp":"新潟県","jp_add_1":"魚沼市","jp_add_2":"日渡新田"},"9460222":{"post_code":"9460222","prefecture":"NIIGATA KEN","city":"UONUMA SHI","town":"FUKUDASHINDEN","perfecture_jp":"新潟県","jp_add_1":"魚沼市","jp_add_2":"福田新田"},"9460207":{"post_code":"9460207","prefecture":"NIIGATA KEN","city":"UONUMA SHI","town":"FUKUYAMASHINDEN","perfecture_jp":"新潟県","jp_add_1":"魚沼市","jp_add_2":"福山新田"},"9460213":{"post_code":"9460213","prefecture":"NIIGATA KEN","city":"UONUMA SHI","town":"HOSONO","perfecture_jp":"新潟県","jp_add_1":"魚沼市","jp_add_2":"細野"},"9460041":{"post_code":"9460041","prefecture":"NIIGATA KEN","city":"UONUMA SHI","town":"HONCHO","perfecture_jp":"新潟県","jp_add_1":"魚沼市","jp_add_2":"本町"},"9460214":{"post_code":"9460214","prefecture":"NIIGATA KEN","city":"UONUMA SHI","town":"MATSUKAWA","perfecture_jp":"新潟県","jp_add_1":"魚沼市","jp_add_2":"松川"},"9460123":{"post_code":"9460123","prefecture":"NIIGATA KEN","city":"UONUMA SHI","town":"MOSAWA","perfecture_jp":"新潟県","jp_add_1":"魚沼市","jp_add_2":"水沢"},"9460066":{"post_code":"9460066","prefecture":"NIIGATA KEN","city":"UONUMA SHI","town":"MITSUMATA","perfecture_jp":"新潟県","jp_add_1":"魚沼市","jp_add_2":"三ツ又"},"9460083":{"post_code":"9460083","prefecture":"NIIGATA KEN","city":"UONUMA SHI","town":"MINOWADA","perfecture_jp":"新潟県","jp_add_1":"魚沼市","jp_add_2":"蓑和田"},"9460225":{"post_code":"9460225","prefecture":"NIIGATA KEN","city":"UONUMA SHI","town":"MIFUCHISAWA","perfecture_jp":"新潟県","jp_add_1":"魚沼市","jp_add_2":"三渕沢"},"9460205":{"post_code":"9460205","prefecture":"NIIGATA KEN","city":"UONUMA SHI","town":"MIYATSUBAKISHINDEN","perfecture_jp":"新潟県","jp_add_1":"魚沼市","jp_add_2":"宮椿新田"},"9460081":{"post_code":"9460081","prefecture":"NIIGATA KEN","city":"UONUMA SHI","town":"MUGURAZAWA","perfecture_jp":"新潟県","jp_add_1":"魚沼市","jp_add_2":"葎沢"},"9460037":{"post_code":"9460037","prefecture":"NIIGATA KEN","city":"UONUMA SHI","town":"MUSHINO","perfecture_jp":"新潟県","jp_add_1":"魚沼市","jp_add_2":"虫野"},"9460042":{"post_code":"9460042","prefecture":"NIIGATA KEN","city":"UONUMA SHI","town":"YANAGIHARA","perfecture_jp":"新潟県","jp_add_1":"魚沼市","jp_add_2":"柳原"},"9460115":{"post_code":"9460115","prefecture":"NIIGATA KEN","city":"UONUMA SHI","town":"YAMAGUCHI","perfecture_jp":"新潟県","jp_add_1":"魚沼市","jp_add_2":"山口"},"9460055":{"post_code":"9460055","prefecture":"NIIGATA KEN","city":"UONUMA SHI","town":"YAMADA","perfecture_jp":"新潟県","jp_add_1":"魚沼市","jp_add_2":"山田"},"9460056":{"post_code":"9460056","prefecture":"NIIGATA KEN","city":"UONUMA SHI","town":"YAMADASHITA","perfecture_jp":"新潟県","jp_add_1":"魚沼市","jp_add_2":"山田下"},"9460082":{"post_code":"9460082","prefecture":"NIIGATA KEN","city":"UONUMA SHI","town":"YUNOTANIIMOGAWA","perfecture_jp":"新潟県","jp_add_1":"魚沼市","jp_add_2":"湯之谷芋川"},"9460005":{"post_code":"9460005","prefecture":"NIIGATA KEN","city":"UONUMA SHI","town":"YOKOCHO","perfecture_jp":"新潟県","jp_add_1":"魚沼市","jp_add_2":"横町"},"9460307":{"post_code":"9460307","prefecture":"NIIGATA KEN","city":"UONUMA SHI","town":"YOKONE","perfecture_jp":"新潟県","jp_add_1":"魚沼市","jp_add_2":"横根"},"9460075":{"post_code":"9460075","prefecture":"NIIGATA KEN","city":"UONUMA SHI","town":"YOSHIDA","perfecture_jp":"新潟県","jp_add_1":"魚沼市","jp_add_2":"吉田"},"9460122":{"post_code":"9460122","prefecture":"NIIGATA KEN","city":"UONUMA SHI","town":"YOSHIWARA","perfecture_jp":"新潟県","jp_add_1":"魚沼市","jp_add_2":"吉原"},"9460007":{"post_code":"9460007","prefecture":"NIIGATA KEN","city":"UONUMA SHI","town":"YOKKAMACHI","perfecture_jp":"新潟県","jp_add_1":"魚沼市","jp_add_2":"四日町"},"9460054":{"post_code":"9460054","prefecture":"NIIGATA KEN","city":"UONUMA SHI","town":"YONEZAWA","perfecture_jp":"新潟県","jp_add_1":"魚沼市","jp_add_2":"米沢"},"9460109":{"post_code":"9460109","prefecture":"NIIGATA KEN","city":"UONUMA SHI","town":"WADA","perfecture_jp":"新潟県","jp_add_1":"魚沼市","jp_add_2":"和田"}}