{"9500000":{"post_code":"9500000","prefecture":"NIIGATA KEN","city":"NIIGATA SHI NISHIKAN KU","town":"IKANIKEISAIGANAIBAAI","perfecture_jp":"新潟県","jp_add_1":"新潟市北区","jp_add_2":""},"9503315":{"post_code":"9503315","prefecture":"NIIGATA KEN","city":"NIIGATA SHI KITA KU","town":"ASAHIMACHI","perfecture_jp":"新潟県","jp_add_1":"新潟市北区","jp_add_2":"朝日町"},"9503377":{"post_code":"9503377","prefecture":"NIIGATA KEN","city":"NIIGATA SHI KITA KU","town":"AYANO","perfecture_jp":"新潟県","jp_add_1":"新潟市北区","jp_add_2":"彩野"},"9503327":{"post_code":"9503327","prefecture":"NIIGATA KEN","city":"NIIGATA SHI KITA KU","town":"ISURUGI","perfecture_jp":"新潟県","jp_add_1":"新潟市北区","jp_add_2":"石動"},"9503306":{"post_code":"9503306","prefecture":"NIIGATA KEN","city":"NIIGATA SHI KITA KU","town":"UCHISHIMAMI","perfecture_jp":"新潟県","jp_add_1":"新潟市北区","jp_add_2":"内島見"},"9503333":{"post_code":"9503333","prefecture":"NIIGATA KEN","city":"NIIGATA SHI KITA KU","town":"UCHINUMA","perfecture_jp":"新潟県","jp_add_1":"新潟市北区","jp_add_2":"内沼"},"9503381":{"post_code":"9503381","prefecture":"NIIGATA KEN","city":"NIIGATA SHI KITA KU","town":"UCHINUMAOKI","perfecture_jp":"新潟県","jp_add_1":"新潟市北区","jp_add_2":"内沼沖"},"9503344":{"post_code":"9503344","prefecture":"NIIGATA KEN","city":"NIIGATA SHI KITA KU","town":"URAGI","perfecture_jp":"新潟県","jp_add_1":"新潟市北区","jp_add_2":"浦木"},"9503305":{"post_code":"9503305","prefecture":"NIIGATA KEN","city":"NIIGATA SHI KITA KU","town":"URANOIRI","perfecture_jp":"新潟県","jp_add_1":"新潟市北区","jp_add_2":"浦ノ入"},"9503363":{"post_code":"9503363","prefecture":"NIIGATA KEN","city":"NIIGATA SHI KITA KU","town":"OKUBO","perfecture_jp":"新潟県","jp_add_1":"新潟市北区","jp_add_2":"大久保"},"9503351":{"post_code":"9503351","prefecture":"NIIGATA KEN","city":"NIIGATA SHI KITA KU","town":"OSEYANAGI","perfecture_jp":"新潟県","jp_add_1":"新潟市北区","jp_add_2":"大瀬柳"},"9503313":{"post_code":"9503313","prefecture":"NIIGATA KEN","city":"NIIGATA SHI KITA KU","town":"OTA","perfecture_jp":"新潟県","jp_add_1":"新潟市北区","jp_add_2":"太田"},"9503334":{"post_code":"9503334","prefecture":"NIIGATA KEN","city":"NIIGATA SHI KITA KU","town":"OZUKI","perfecture_jp":"新潟県","jp_add_1":"新潟市北区","jp_add_2":"大月"},"9503364":{"post_code":"9503364","prefecture":"NIIGATA KEN","city":"NIIGATA SHI KITA KU","town":"OMUKAE","perfecture_jp":"新潟県","jp_add_1":"新潟市北区","jp_add_2":"大迎"},"9503336":{"post_code":"9503336","prefecture":"NIIGATA KEN","city":"NIIGATA SHI KITA KU","town":"OKASHINDEN","perfecture_jp":"新潟県","jp_add_1":"新潟市北区","jp_add_2":"岡新田"},"9503312":{"post_code":"9503312","prefecture":"NIIGATA KEN","city":"NIIGATA SHI KITA KU","town":"KASAYANAGI","perfecture_jp":"新潟県","jp_add_1":"新潟市北区","jp_add_2":"笠柳"},"9503317":{"post_code":"9503317","prefecture":"NIIGATA KEN","city":"NIIGATA SHI KITA KU","town":"KABUTOYAMA","perfecture_jp":"新潟県","jp_add_1":"新潟市北区","jp_add_2":"かぶとやま"},"9503335":{"post_code":"9503335","prefecture":"NIIGATA KEN","city":"NIIGATA SHI KITA KU","town":"KAMIOZUKI","perfecture_jp":"新潟県","jp_add_1":"新潟市北区","jp_add_2":"上大月"},"9503343":{"post_code":"9503343","prefecture":"NIIGATA KEN","city":"NIIGATA SHI KITA KU","town":"KAMIDOCHIGAME","perfecture_jp":"新潟県","jp_add_1":"新潟市北区","jp_add_2":"上土地亀"},"9503355":{"post_code":"9503355","prefecture":"NIIGATA KEN","city":"NIIGATA SHI KITA KU","town":"KAMIHORIDA","perfecture_jp":"新潟県","jp_add_1":"新潟市北区","jp_add_2":"上堀田"},"9503116":{"post_code":"9503116","prefecture":"NIIGATA KEN","city":"NIIGATA SHI KITA KU","town":"KAMIYACHI","perfecture_jp":"新潟県","jp_add_1":"新潟市北区","jp_add_2":"神谷内"},"9503322":{"post_code":"9503322","prefecture":"NIIGATA KEN","city":"NIIGATA SHI KITA KU","town":"KAYAMA","perfecture_jp":"新潟県","jp_add_1":"新潟市北区","jp_add_2":"嘉山"},"9503341":{"post_code":"9503341","prefecture":"NIIGATA KEN","city":"NIIGATA SHI KITA KU","town":"KAWANISHI","perfecture_jp":"新潟県","jp_add_1":"新潟市北区","jp_add_2":"川西"},"9503304":{"post_code":"9503304","prefecture":"NIIGATA KEN","city":"NIIGATA SHI KITA KU","town":"KIZAKI","perfecture_jp":"新潟県","jp_add_1":"新潟市北区","jp_add_2":"木崎"},"9503321":{"post_code":"9503321","prefecture":"NIIGATA KEN","city":"NIIGATA SHI KITA KU","town":"KUZUTSUKA","perfecture_jp":"新潟県","jp_add_1":"新潟市北区","jp_add_2":"葛塚"},"9503360":{"post_code":"9503360","prefecture":"NIIGATA KEN","city":"NIIGATA SHI KITA KU","town":"KOSUGI","perfecture_jp":"新潟県","jp_add_1":"新潟市北区","jp_add_2":"小杉"},"9503301":{"post_code":"9503301","prefecture":"NIIGATA KEN","city":"NIIGATA SHI KITA KU","town":"SASAYAMA","perfecture_jp":"新潟県","jp_add_1":"新潟市北区","jp_add_2":"笹山"},"9503337":{"post_code":"9503337","prefecture":"NIIGATA KEN","city":"NIIGATA SHI KITA KU","town":"SATOIINO","perfecture_jp":"新潟県","jp_add_1":"新潟市北区","jp_add_2":"里飯野"},"9503124":{"post_code":"9503124","prefecture":"NIIGATA KEN","city":"NIIGATA SHI KITA KU","town":"SANGENYACHO","perfecture_jp":"新潟県","jp_add_1":"新潟市北区","jp_add_2":"三軒屋町"},"9503102":{"post_code":"9503102","prefecture":"NIIGATA KEN","city":"NIIGATA SHI KITA KU","town":"SHIMAMICHO","perfecture_jp":"新潟県","jp_add_1":"新潟市北区","jp_add_2":"島見町"},"9503308":{"post_code":"9503308","prefecture":"NIIGATA KEN","city":"NIIGATA SHI KITA KU","town":"SHIMOOYACHI","perfecture_jp":"新潟県","jp_add_1":"新潟市北区","jp_add_2":"下大谷内"},"9503346":{"post_code":"9503346","prefecture":"NIIGATA KEN","city":"NIIGATA SHI KITA KU","town":"SHIMODOCHIGAME","perfecture_jp":"新潟県","jp_add_1":"新潟市北区","jp_add_2":"下土地亀"},"9503371":{"post_code":"9503371","prefecture":"NIIGATA KEN","city":"NIIGATA SHI KITA KU","town":"SHIMOHAYADORI","perfecture_jp":"新潟県","jp_add_1":"新潟市北区","jp_add_2":"下早通"},"9503354":{"post_code":"9503354","prefecture":"NIIGATA KEN","city":"NIIGATA SHI KITA KU","town":"JUNI","perfecture_jp":"新潟県","jp_add_1":"新潟市北区","jp_add_2":"十二"},"9503359":{"post_code":"9503359","prefecture":"NIIGATA KEN","city":"NIIGATA SHI KITA KU","town":"JUNIMAE","perfecture_jp":"新潟県","jp_add_1":"新潟市北区","jp_add_2":"十二前"},"9503103":{"post_code":"9503103","prefecture":"NIIGATA KEN","city":"NIIGATA SHI KITA KU","town":"SHIROSECHO","perfecture_jp":"新潟県","jp_add_1":"新潟市北区","jp_add_2":"白勢町"},"9503105":{"post_code":"9503105","prefecture":"NIIGATA KEN","city":"NIIGATA SHI KITA KU","town":"SHINTOMICHO","perfecture_jp":"新潟県","jp_add_1":"新潟市北区","jp_add_2":"新富町"},"9503331":{"post_code":"9503331","prefecture":"NIIGATA KEN","city":"NIIGATA SHI KITA KU","town":"SHIMBANA","perfecture_jp":"新潟県","jp_add_1":"新潟市北区","jp_add_2":"新鼻"},"9503339":{"post_code":"9503339","prefecture":"NIIGATA KEN","city":"NIIGATA SHI KITA KU","town":"SHIMBANAOTSU","perfecture_jp":"新潟県","jp_add_1":"新潟市北区","jp_add_2":"新鼻乙"},"9503332":{"post_code":"9503332","prefecture":"NIIGATA KEN","city":"NIIGATA SHI KITA KU","town":"SHIMBANAKO","perfecture_jp":"新潟県","jp_add_1":"新潟市北区","jp_add_2":"新鼻甲"},"9503123":{"post_code":"9503123","prefecture":"NIIGATA KEN","city":"NIIGATA SHI KITA KU","town":"SHIMMOTOJIMACHO","perfecture_jp":"新潟県","jp_add_1":"新潟市北区","jp_add_2":"新元島町"},"9503373":{"post_code":"9503373","prefecture":"NIIGATA KEN","city":"NIIGATA SHI KITA KU","town":"SUDO","perfecture_jp":"新潟県","jp_add_1":"新潟市北区","jp_add_2":"須戸"},"9503133":{"post_code":"9503133","prefecture":"NIIGATA KEN","city":"NIIGATA SHI KITA KU","town":"SUMIRENO","perfecture_jp":"新潟県","jp_add_1":"新潟市北区","jp_add_2":"すみれ野"},"9503365":{"post_code":"9503365","prefecture":"NIIGATA KEN","city":"NIIGATA SHI KITA KU","town":"TAISHIDO","perfecture_jp":"新潟県","jp_add_1":"新潟市北区","jp_add_2":"太子堂"},"9503367":{"post_code":"9503367","prefecture":"NIIGATA KEN","city":"NIIGATA SHI KITA KU","town":"TAKAMORI","perfecture_jp":"新潟県","jp_add_1":"新潟市北区","jp_add_2":"高森"},"9503362":{"post_code":"9503362","prefecture":"NIIGATA KEN","city":"NIIGATA SHI KITA KU","town":"TAKAMORISHINDEN","perfecture_jp":"新潟県","jp_add_1":"新潟市北区","jp_add_2":"高森新田"},"9503112":{"post_code":"9503112","prefecture":"NIIGATA KEN","city":"NIIGATA SHI KITA KU","town":"TAYUHAMA","perfecture_jp":"新潟県","jp_add_1":"新潟市北区","jp_add_2":"太夫浜"},"9503111":{"post_code":"9503111","prefecture":"NIIGATA KEN","city":"NIIGATA SHI KITA KU","town":"TAYUHAMASHIMMACHI","perfecture_jp":"新潟県","jp_add_1":"新潟市北区","jp_add_2":"太夫浜新町"},"9503101":{"post_code":"9503101","prefecture":"NIIGATA KEN","city":"NIIGATA SHI KITA KU","town":"TARODAI","perfecture_jp":"新潟県","jp_add_1":"新潟市北区","jp_add_2":"太郎代"},"9503135":{"post_code":"9503135","prefecture":"NIIGATA KEN","city":"NIIGATA SHI KITA KU","town":"TSUKUSHINO","perfecture_jp":"新潟県","jp_add_1":"新潟市北区","jp_add_2":"つくし野"},"9503323":{"post_code":"9503323","prefecture":"NIIGATA KEN","city":"NIIGATA SHI KITA KU","town":"TOEICHO","perfecture_jp":"新潟県","jp_add_1":"新潟市北区","jp_add_2":"東栄町"},"9503307":{"post_code":"9503307","prefecture":"NIIGATA KEN","city":"NIIGATA SHI KITA KU","town":"DONOIRI","perfecture_jp":"新潟県","jp_add_1":"新潟市北区","jp_add_2":"樋ノ入"},"9503316":{"post_code":"9503316","prefecture":"NIIGATA KEN","city":"NIIGATA SHI KITA KU","town":"TOYA","perfecture_jp":"新潟県","jp_add_1":"新潟市北区","jp_add_2":"鳥屋"},"9503345":{"post_code":"9503345","prefecture":"NIIGATA KEN","city":"NIIGATA SHI KITA KU","town":"NAGATO","perfecture_jp":"新潟県","jp_add_1":"新潟市北区","jp_add_2":"長戸"},"9503353":{"post_code":"9503353","prefecture":"NIIGATA KEN","city":"NIIGATA SHI KITA KU","town":"NAGATORO","perfecture_jp":"新潟県","jp_add_1":"新潟市北区","jp_add_2":"長戸呂"},"9503352":{"post_code":"9503352","prefecture":"NIIGATA KEN","city":"NIIGATA SHI KITA KU","town":"NAGATOROSHINDEN","perfecture_jp":"新潟県","jp_add_1":"新潟市北区","jp_add_2":"長戸呂新田"},"9503338":{"post_code":"9503338","prefecture":"NIIGATA KEN","city":"NIIGATA SHI KITA KU","town":"NAGABA","perfecture_jp":"新潟県","jp_add_1":"新潟市北区","jp_add_2":"長場"},"9503114":{"post_code":"9503114","prefecture":"NIIGATA KEN","city":"NIIGATA SHI KITA KU","town":"NAMETOKORO","perfecture_jp":"新潟県","jp_add_1":"新潟市北区","jp_add_2":"名目所"},"9503361":{"post_code":"9503361","prefecture":"NIIGATA KEN","city":"NIIGATA SHI KITA KU","town":"NIIGO","perfecture_jp":"新潟県","jp_add_1":"新潟市北区","jp_add_2":"新井郷"},"9503134":{"post_code":"9503134","prefecture":"NIIGATA KEN","city":"NIIGATA SHI KITA KU","town":"NIIZAKI","perfecture_jp":"新潟県","jp_add_1":"新潟市北区","jp_add_2":"新崎"},"9503131":{"post_code":"9503131","prefecture":"NIIGATA KEN","city":"NIIGATA SHI KITA KU","town":"NIGORIKAWA","perfecture_jp":"新潟県","jp_add_1":"新潟市北区","jp_add_2":"濁川"},"9503122":{"post_code":"9503122","prefecture":"NIIGATA KEN","city":"NIIGATA SHI KITA KU","town":"NISHINAMETOKORO","perfecture_jp":"新潟県","jp_add_1":"新潟市北区","jp_add_2":"西名目所"},"9503358":{"post_code":"9503358","prefecture":"NIIGATA KEN","city":"NIIGATA SHI KITA KU","town":"HAIZUKA","perfecture_jp":"新潟県","jp_add_1":"新潟市北区","jp_add_2":"灰塚"},"9503325":{"post_code":"9503325","prefecture":"NIIGATA KEN","city":"NIIGATA SHI KITA KU","town":"HAKUSHINCHO","perfecture_jp":"新潟県","jp_add_1":"新潟市北区","jp_add_2":"白新町"},"9503302":{"post_code":"9503302","prefecture":"NIIGATA KEN","city":"NIIGATA SHI KITA KU","town":"HAMAURA","perfecture_jp":"新潟県","jp_add_1":"新潟市北区","jp_add_2":"浜浦"},"9503372":{"post_code":"9503372","prefecture":"NIIGATA KEN","city":"NIIGATA SHI KITA KU","town":"HAYADORI","perfecture_jp":"新潟県","jp_add_1":"新潟市北区","jp_add_2":"早通"},"9503376":{"post_code":"9503376","prefecture":"NIIGATA KEN","city":"NIIGATA SHI KITA KU","town":"HAYADORIKITA","perfecture_jp":"新潟県","jp_add_1":"新潟市北区","jp_add_2":"早通北"},"9503375":{"post_code":"9503375","prefecture":"NIIGATA KEN","city":"NIIGATA SHI KITA KU","town":"HAYADORIMINAMI","perfecture_jp":"新潟県","jp_add_1":"新潟市北区","jp_add_2":"早通南"},"9503104":{"post_code":"9503104","prefecture":"NIIGATA KEN","city":"NIIGATA SHI KITA KU","town":"HIGASHISAKAEMACHI","perfecture_jp":"新潟県","jp_add_1":"新潟市北区","jp_add_2":"東栄町"},"9503357":{"post_code":"9503357","prefecture":"NIIGATA KEN","city":"NIIGATA SHI KITA KU","town":"HIRABAYASHI","perfecture_jp":"新潟県","jp_add_1":"新潟市北区","jp_add_2":"平林"},"9503374":{"post_code":"9503374","prefecture":"NIIGATA KEN","city":"NIIGATA SHI KITA KU","town":"BUTSUDEN","perfecture_jp":"新潟県","jp_add_1":"新潟市北区","jp_add_2":"仏伝"},"9503309":{"post_code":"9503309","prefecture":"NIIGATA KEN","city":"NIIGATA SHI KITA KU","town":"HOKUYO","perfecture_jp":"新潟県","jp_add_1":"新潟市北区","jp_add_2":"北陽"},"9500102":{"post_code":"9500102","prefecture":"NIIGATA KEN","city":"NIIGATA SHI KONAN KU","town":"HOSOYAMA","perfecture_jp":"新潟県","jp_add_1":"新潟市北区","jp_add_2":"細山"},"9503324":{"post_code":"9503324","prefecture":"NIIGATA KEN","city":"NIIGATA SHI KITA KU","town":"MAESHINDEN","perfecture_jp":"新潟県","jp_add_1":"新潟市北区","jp_add_2":"前新田"},"9503328":{"post_code":"9503328","prefecture":"NIIGATA KEN","city":"NIIGATA SHI KITA KU","town":"MAESHINDENOKI","perfecture_jp":"新潟県","jp_add_1":"新潟市北区","jp_add_2":"前新田沖"},"9503113":{"post_code":"9503113","prefecture":"NIIGATA KEN","city":"NIIGATA SHI KITA KU","town":"MATSUEICHO","perfecture_jp":"新潟県","jp_add_1":"新潟市北区","jp_add_2":"松栄町"},"9503132":{"post_code":"9503132","prefecture":"NIIGATA KEN","city":"NIIGATA SHI KITA KU","town":"MATSUKATA","perfecture_jp":"新潟県","jp_add_1":"新潟市北区","jp_add_2":"松潟"},"9503126":{"post_code":"9503126","prefecture":"NIIGATA KEN","city":"NIIGATA SHI KITA KU","town":"MATSUHAMA","perfecture_jp":"新潟県","jp_add_1":"新潟市北区","jp_add_2":"松浜"},"9503115":{"post_code":"9503115","prefecture":"NIIGATA KEN","city":"NIIGATA SHI KITA KU","town":"MATSUHAMASHIMMACHI","perfecture_jp":"新潟県","jp_add_1":"新潟市北区","jp_add_2":"松浜新町"},"9503121":{"post_code":"9503121","prefecture":"NIIGATA KEN","city":"NIIGATA SHI KITA KU","town":"MATSUHAMACHO","perfecture_jp":"新潟県","jp_add_1":"新潟市北区","jp_add_2":"松浜町"},"9503128":{"post_code":"9503128","prefecture":"NIIGATA KEN","city":"NIIGATA SHI KITA KU","town":"MATSUHAMAHIGASHIMACHI","perfecture_jp":"新潟県","jp_add_1":"新潟市北区","jp_add_2":"松浜東町"},"9503125":{"post_code":"9503125","prefecture":"NIIGATA KEN","city":"NIIGATA SHI KITA KU","town":"MATSUHAMAHONCHO","perfecture_jp":"新潟県","jp_add_1":"新潟市北区","jp_add_2":"松浜本町"},"9503127":{"post_code":"9503127","prefecture":"NIIGATA KEN","city":"NIIGATA SHI KITA KU","town":"MATSUHAMAMINATO","perfecture_jp":"新潟県","jp_add_1":"新潟市北区","jp_add_2":"松浜みなと"},"9503342":{"post_code":"9503342","prefecture":"NIIGATA KEN","city":"NIIGATA SHI KITA KU","town":"MISATO","perfecture_jp":"新潟県","jp_add_1":"新潟市北区","jp_add_2":"美里"},"9503369":{"post_code":"9503369","prefecture":"NIIGATA KEN","city":"NIIGATA SHI KITA KU","town":"MITSUMORIKAWARA","perfecture_jp":"新潟県","jp_add_1":"新潟市北区","jp_add_2":"三ツ森川原"},"9503366":{"post_code":"9503366","prefecture":"NIIGATA KEN","city":"NIIGATA SHI KITA KU","town":"MITSUYA","perfecture_jp":"新潟県","jp_add_1":"新潟市北区","jp_add_2":"三ツ屋"},"9503314":{"post_code":"9503314","prefecture":"NIIGATA KEN","city":"NIIGATA SHI KITA KU","town":"MURASHINDEN","perfecture_jp":"新潟県","jp_add_1":"新潟市北区","jp_add_2":"村新田"},"9503368":{"post_code":"9503368","prefecture":"NIIGATA KEN","city":"NIIGATA SHI KITA KU","town":"MORISHITA","perfecture_jp":"新潟県","jp_add_1":"新潟市北区","jp_add_2":"森下"},"9503326":{"post_code":"9503326","prefecture":"NIIGATA KEN","city":"NIIGATA SHI KITA KU","town":"YANAGIHARA","perfecture_jp":"新潟県","jp_add_1":"新潟市北区","jp_add_2":"柳原"},"9503356":{"post_code":"9503356","prefecture":"NIIGATA KEN","city":"NIIGATA SHI KITA KU","town":"YAMAIINO","perfecture_jp":"新潟県","jp_add_1":"新潟市北区","jp_add_2":"山飯野"},"9503311":{"post_code":"9503311","prefecture":"NIIGATA KEN","city":"NIIGATA SHI KITA KU","town":"YOKOI","perfecture_jp":"新潟県","jp_add_1":"新潟市北区","jp_add_2":"横井"},"9503350":{"post_code":"9503350","prefecture":"NIIGATA KEN","city":"NIIGATA SHI KITA KU","town":"YOKOGOSHI","perfecture_jp":"新潟県","jp_add_1":"新潟市北区","jp_add_2":"横越"},"9503303":{"post_code":"9503303","prefecture":"NIIGATA KEN","city":"NIIGATA SHI KITA KU","town":"YOKODOI","perfecture_jp":"新潟県","jp_add_1":"新潟市北区","jp_add_2":"横土居"},"9500054":{"post_code":"9500054","prefecture":"NIIGATA KEN","city":"NIIGATA SHI HIGASHI KU","town":"AKIBA","perfecture_jp":"新潟県","jp_add_1":"新潟市東区","jp_add_2":"秋葉"},"9500052":{"post_code":"9500052","prefecture":"NIIGATA KEN","city":"NIIGATA SHI HIGASHI KU","town":"AKIBADORI","perfecture_jp":"新潟県","jp_add_1":"新潟市東区","jp_add_2":"秋葉通"},"9500843":{"post_code":"9500843","prefecture":"NIIGATA KEN","city":"NIIGATA SHI KONAN KU","town":"AWAYAMA","perfecture_jp":"新潟県","jp_add_1":"新潟市東区","jp_add_2":"粟山"},"9500852":{"post_code":"9500852","prefecture":"NIIGATA KEN","city":"NIIGATA SHI HIGASHI KU","town":"ISHIYAMA","perfecture_jp":"新潟県","jp_add_1":"新潟市東区","jp_add_2":"石山"},"9500834":{"post_code":"9500834","prefecture":"NIIGATA KEN","city":"NIIGATA SHI HIGASHI KU","town":"ISHIYAMADANCHI","perfecture_jp":"新潟県","jp_add_1":"新潟市東区","jp_add_2":"石山団地"},"9500805":{"post_code":"9500805","prefecture":"NIIGATA KEN","city":"NIIGATA SHI HIGASHI KU","town":"ISURUGI","perfecture_jp":"新潟県","jp_add_1":"新潟市東区","jp_add_2":"石動"},"9500101":{"post_code":"9500101","prefecture":"NIIGATA KEN","city":"NIIGATA SHI KONAN KU","town":"EGUCHI","perfecture_jp":"新潟県","jp_add_1":"新潟市東区","jp_add_2":"江口"},"9500884":{"post_code":"9500884","prefecture":"NIIGATA KEN","city":"NIIGATA SHI HIGASHI KU","town":"ENOKI","perfecture_jp":"新潟県","jp_add_1":"新潟市東区","jp_add_2":"榎"},"9500881":{"post_code":"9500881","prefecture":"NIIGATA KEN","city":"NIIGATA SHI HIGASHI KU","town":"ENOKICHO","perfecture_jp":"新潟県","jp_add_1":"新潟市東区","jp_add_2":"榎町"},"9500806":{"post_code":"9500806","prefecture":"NIIGATA KEN","city":"NIIGATA SHI HIGASHI KU","town":"EBIGASE","perfecture_jp":"新潟県","jp_add_1":"新潟市東区","jp_add_2":"海老ケ瀬"},"9500808":{"post_code":"9500808","prefecture":"NIIGATA KEN","city":"NIIGATA SHI HIGASHI KU","town":"EBIGASESHIMMACHI","perfecture_jp":"新潟県","jp_add_1":"新潟市東区","jp_add_2":"海老ケ瀬新町"},"9500882":{"post_code":"9500882","prefecture":"NIIGATA KEN","city":"NIIGATA SHI HIGASHI KU","town":"OSESHIMMACHI","perfecture_jp":"新潟県","jp_add_1":"新潟市東区","jp_add_2":"王瀬新町"},"9500814":{"post_code":"9500814","prefecture":"NIIGATA KEN","city":"NIIGATA SHI HIGASHI KU","town":"OYACHI","perfecture_jp":"新潟県","jp_add_1":"新潟市東区","jp_add_2":"逢谷内"},"9500813":{"post_code":"9500813","prefecture":"NIIGATA KEN","city":"NIIGATA SHI HIGASHI KU","town":"OGATAHONCHO","perfecture_jp":"新潟県","jp_add_1":"新潟市東区","jp_add_2":"大形本町"},"9500067":{"post_code":"9500067","prefecture":"NIIGATA KEN","city":"NIIGATA SHI HIGASHI KU","town":"OYAMA","perfecture_jp":"新潟県","jp_add_1":"新潟市東区","jp_add_2":"大山"},"9500821":{"post_code":"9500821","prefecture":"NIIGATA KEN","city":"NIIGATA SHI HIGASHI KU","town":"OKAYAMA","perfecture_jp":"新潟県","jp_add_1":"新潟市東区","jp_add_2":"岡山"},"9500863":{"post_code":"9500863","prefecture":"NIIGATA KEN","city":"NIIGATA SHI HIGASHI KU","town":"OROSHISHIMMACHI","perfecture_jp":"新潟県","jp_add_1":"新潟市東区","jp_add_2":"卸新町"},"9500063":{"post_code":"9500063","prefecture":"NIIGATA KEN","city":"NIIGATA SHI HIGASHI KU","town":"KAMIOSEMACHI","perfecture_jp":"新潟県","jp_add_1":"新潟市東区","jp_add_2":"上王瀬町"},"9500891":{"post_code":"9500891","prefecture":"NIIGATA KEN","city":"NIIGATA SHI HIGASHI KU","town":"KAMIKIDO","perfecture_jp":"新潟県","jp_add_1":"新潟市東区","jp_add_2":"上木戸"},"9500161":{"post_code":"9500161","prefecture":"NIIGATA KEN","city":"NIIGATA SHI KONAN KU","town":"KAMEDA NAKAJIMA","perfecture_jp":"新潟県","jp_add_1":"新潟市東区","jp_add_2":"亀田中島"},"9500883":{"post_code":"9500883","prefecture":"NIIGATA KEN","city":"NIIGATA SHI HIGASHI KU","town":"KAMOMEJIMACHO","perfecture_jp":"新潟県","jp_add_1":"新潟市東区","jp_add_2":"鴎島町"},"9500055":{"post_code":"9500055","prefecture":"NIIGATA KEN","city":"NIIGATA SHI HIGASHI KU","town":"KITABACHO","perfecture_jp":"新潟県","jp_add_1":"新潟市東区","jp_add_2":"北葉町"},"9500116":{"post_code":"9500116","prefecture":"NIIGATA KEN","city":"NIIGATA SHI KONAN KU","town":"KITAYAMA","perfecture_jp":"新潟県","jp_add_1":"新潟市東区","jp_add_2":"北山"},"9500036":{"post_code":"9500036","prefecture":"NIIGATA KEN","city":"NIIGATA SHI HIGASHI KU","town":"KUKONISHI","perfecture_jp":"新潟県","jp_add_1":"新潟市東区","jp_add_2":"空港西"},"9500831":{"post_code":"9500831","prefecture":"NIIGATA KEN","city":"NIIGATA SHI HIGASHI KU","town":"GEBA","perfecture_jp":"新潟県","jp_add_1":"新潟市東区","jp_add_2":"下場"},"9500832":{"post_code":"9500832","prefecture":"NIIGATA KEN","city":"NIIGATA SHI HIGASHI KU","town":"GEBASHIMMACHI","perfecture_jp":"新潟県","jp_add_1":"新潟市東区","jp_add_2":"下場新町"},"9500833":{"post_code":"9500833","prefecture":"NIIGATA KEN","city":"NIIGATA SHI HIGASHI KU","town":"GEBAHONCHO","perfecture_jp":"新潟県","jp_add_1":"新潟市東区","jp_add_2":"下場本町"},"9500022":{"post_code":"9500022","prefecture":"NIIGATA KEN","city":"NIIGATA SHI HIGASHI KU","town":"KOEI","perfecture_jp":"新潟県","jp_add_1":"新潟市東区","jp_add_2":"幸栄"},"9500024":{"post_code":"9500024","prefecture":"NIIGATA KEN","city":"NIIGATA SHI HIGASHI KU","town":"KODO","perfecture_jp":"新潟県","jp_add_1":"新潟市東区","jp_add_2":"河渡"},"9500015":{"post_code":"9500015","prefecture":"NIIGATA KEN","city":"NIIGATA SHI HIGASHI KU","town":"KODOKANOE","perfecture_jp":"新潟県","jp_add_1":"新潟市東区","jp_add_2":"河渡庚"},"9500032":{"post_code":"9500032","prefecture":"NIIGATA KEN","city":"NIIGATA SHI HIGASHI KU","town":"KODOKO","perfecture_jp":"新潟県","jp_add_1":"新潟市東区","jp_add_2":"河渡甲"},"9500033":{"post_code":"9500033","prefecture":"NIIGATA KEN","city":"NIIGATA SHI HIGASHI KU","town":"KODOSHIMMACHI","perfecture_jp":"新潟県","jp_add_1":"新潟市東区","jp_add_2":"河渡新町"},"9500016":{"post_code":"9500016","prefecture":"NIIGATA KEN","city":"NIIGATA SHI HIGASHI KU","town":"KODOHONCHO","perfecture_jp":"新潟県","jp_add_1":"新潟市東区","jp_add_2":"河渡本町"},"9500855":{"post_code":"9500855","prefecture":"NIIGATA KEN","city":"NIIGATA SHI HIGASHI KU","town":"KONAN","perfecture_jp":"新潟県","jp_add_1":"新潟市東区","jp_add_2":"江南"},"9500011":{"post_code":"9500011","prefecture":"NIIGATA KEN","city":"NIIGATA SHI HIGASHI KU","town":"KOYO","perfecture_jp":"新潟県","jp_add_1":"新潟市東区","jp_add_2":"向陽"},"9500028":{"post_code":"9500028","prefecture":"NIIGATA KEN","city":"NIIGATA SHI HIGASHI KU","town":"KOGANEDAI","perfecture_jp":"新潟県","jp_add_1":"新潟市東区","jp_add_2":"小金台"},"9500026":{"post_code":"9500026","prefecture":"NIIGATA KEN","city":"NIIGATA SHI HIGASHI KU","town":"KOGANECHO","perfecture_jp":"新潟県","jp_add_1":"新潟市東区","jp_add_2":"小金町"},"9500811":{"post_code":"9500811","prefecture":"NIIGATA KEN","city":"NIIGATA SHI HIGASHI KU","town":"ZAIMOKUCHO","perfecture_jp":"新潟県","jp_add_1":"新潟市東区","jp_add_2":"材木町"},"9500835":{"post_code":"9500835","prefecture":"NIIGATA KEN","city":"NIIGATA SHI HIGASHI KU","town":"SARUGABABA","perfecture_jp":"新潟県","jp_add_1":"新潟市東区","jp_add_2":"猿ケ馬場"},"9500003":{"post_code":"9500003","prefecture":"NIIGATA KEN","city":"NIIGATA SHI HIGASHI KU","town":"SHITAYAMA","perfecture_jp":"新潟県","jp_add_1":"新潟市東区","jp_add_2":"下山"},"9500864":{"post_code":"9500864","prefecture":"NIIGATA KEN","city":"NIIGATA SHI CHUO KU","town":"SHICHIKU","perfecture_jp":"新潟県","jp_add_1":"新潟市東区","jp_add_2":"紫竹"},"9500868":{"post_code":"9500868","prefecture":"NIIGATA KEN","city":"NIIGATA SHI HIGASHI KU","town":"SHICHIKUOROSHISHIMMACHI","perfecture_jp":"新潟県","jp_add_1":"新潟市東区","jp_add_2":"紫竹卸新町"},"9500914":{"post_code":"9500914","prefecture":"NIIGATA KEN","city":"NIIGATA SHI CHUO KU","town":"SHICHIKUYAMA","perfecture_jp":"新潟県","jp_add_1":"新潟市東区","jp_add_2":"紫竹山"},"9500885":{"post_code":"9500885","prefecture":"NIIGATA KEN","city":"NIIGATA SHI HIGASHI KU","town":"SHIMOKIDO","perfecture_jp":"新潟県","jp_add_1":"新潟市東区","jp_add_2":"下木戸"},"9500013":{"post_code":"9500013","prefecture":"NIIGATA KEN","city":"NIIGATA SHI HIGASHI KU","town":"SHIROGANE","perfecture_jp":"新潟県","jp_add_1":"新潟市東区","jp_add_2":"白銀"},"9500851":{"post_code":"9500851","prefecture":"NIIGATA KEN","city":"NIIGATA SHI HIGASHI KU","town":"SHINISHIYAMA","perfecture_jp":"新潟県","jp_add_1":"新潟市東区","jp_add_2":"新石山"},"9500822":{"post_code":"9500822","prefecture":"NIIGATA KEN","city":"NIIGATA SHI HIGASHI KU","town":"SHINOKAYAMA","perfecture_jp":"新潟県","jp_add_1":"新潟市東区","jp_add_2":"新岡山"},"9500004":{"post_code":"9500004","prefecture":"NIIGATA KEN","city":"NIIGATA SHI HIGASHI KU","town":"SHINKAWACHO","perfecture_jp":"新潟県","jp_add_1":"新潟市東区","jp_add_2":"新川町"},"9500017":{"post_code":"9500017","prefecture":"NIIGATA KEN","city":"NIIGATA SHI HIGASHI KU","town":"SHIMMATSUSAKI","perfecture_jp":"新潟県","jp_add_1":"新潟市東区","jp_add_2":"新松崎"},"9500045":{"post_code":"9500045","prefecture":"NIIGATA KEN","city":"NIIGATA SHI HIGASHI KU","town":"SHIMMEICHO","perfecture_jp":"新潟県","jp_add_1":"新潟市東区","jp_add_2":"神明町"},"9500071":{"post_code":"9500071","prefecture":"NIIGATA KEN","city":"NIIGATA SHI HIGASHI KU","town":"SUEHIROCHO","perfecture_jp":"新潟県","jp_add_1":"新潟市東区","jp_add_2":"末広町"},"9500005":{"post_code":"9500005","prefecture":"NIIGATA KEN","city":"NIIGATA SHI HIGASHI KU","town":"TAIHEI","perfecture_jp":"新潟県","jp_add_1":"新潟市東区","jp_add_2":"太平"},"9500053":{"post_code":"9500053","prefecture":"NIIGATA KEN","city":"NIIGATA SHI HIGASHI KU","town":"TAKARAMACHI","perfecture_jp":"新潟県","jp_add_1":"新潟市東区","jp_add_2":"宝町"},"9500862":{"post_code":"9500862","prefecture":"NIIGATA KEN","city":"NIIGATA SHI HIGASHI KU","town":"TAKEO","perfecture_jp":"新潟県","jp_add_1":"新潟市東区","jp_add_2":"竹尾"},"9500867":{"post_code":"9500867","prefecture":"NIIGATA KEN","city":"NIIGATA SHI HIGASHI KU","town":"TAKEOROSHISHIMMACHI","perfecture_jp":"新潟県","jp_add_1":"新潟市東区","jp_add_2":"竹尾卸新町"},"9500825":{"post_code":"9500825","prefecture":"NIIGATA KEN","city":"NIIGATA SHI HIGASHI KU","town":"CHIGOIKE","perfecture_jp":"新潟県","jp_add_1":"新潟市東区","jp_add_2":"児池"},"9500066":{"post_code":"9500066","prefecture":"NIIGATA KEN","city":"NIIGATA SHI HIGASHI KU","town":"CHOJAMACHI","perfecture_jp":"新潟県","jp_add_1":"新潟市東区","jp_add_2":"長者町"},"9500061":{"post_code":"9500061","prefecture":"NIIGATA KEN","city":"NIIGATA SHI HIGASHI KU","town":"TSUKIMICHO","perfecture_jp":"新潟県","jp_add_1":"新潟市東区","jp_add_2":"月見町"},"9500801":{"post_code":"9500801","prefecture":"NIIGATA KEN","city":"NIIGATA SHI HIGASHI KU","town":"TSUSHIMAYA","perfecture_jp":"新潟県","jp_add_1":"新潟市東区","jp_add_2":"津島屋"},"9500892":{"post_code":"9500892","prefecture":"NIIGATA KEN","city":"NIIGATA SHI HIGASHI KU","town":"TERAYAMA","perfecture_jp":"新潟県","jp_add_1":"新潟市東区","jp_add_2":"寺山"},"9500065":{"post_code":"9500065","prefecture":"NIIGATA KEN","city":"NIIGATA SHI HIGASHI KU","town":"TOSHINCHO","perfecture_jp":"新潟県","jp_add_1":"新潟市東区","jp_add_2":"東新町"},"9500853":{"post_code":"9500853","prefecture":"NIIGATA KEN","city":"NIIGATA SHI HIGASHI KU","town":"TOMEI","perfecture_jp":"新潟県","jp_add_1":"新潟市東区","jp_add_2":"東明"},"9500886":{"post_code":"9500886","prefecture":"NIIGATA KEN","city":"NIIGATA SHI HIGASHI KU","town":"NAKAKIDO","perfecture_jp":"新潟県","jp_add_1":"新潟市東区","jp_add_2":"中木戸"},"9500803":{"post_code":"9500803","prefecture":"NIIGATA KEN","city":"NIIGATA SHI HIGASHI KU","town":"NAKAGOYA","perfecture_jp":"新潟県","jp_add_1":"新潟市東区","jp_add_2":"中興野"},"9500824":{"post_code":"9500824","prefecture":"NIIGATA KEN","city":"NIIGATA SHI HIGASHI KU","town":"NAKAJIMA","perfecture_jp":"新潟県","jp_add_1":"新潟市東区","jp_add_2":"中島"},"9500841":{"post_code":"9500841","prefecture":"NIIGATA KEN","city":"NIIGATA SHI KONAN KU","town":"NAKANOYAMA","perfecture_jp":"新潟県","jp_add_1":"新潟市東区","jp_add_2":"中野山"},"9500861":{"post_code":"9500861","prefecture":"NIIGATA KEN","city":"NIIGATA SHI HIGASHI KU","town":"NAKAYAMA","perfecture_jp":"新潟県","jp_add_1":"新潟市東区","jp_add_2":"中山"},"9500062":{"post_code":"9500062","prefecture":"NIIGATA KEN","city":"NIIGATA SHI HIGASHI KU","town":"NISHIKIMACHI","perfecture_jp":"新潟県","jp_add_1":"新潟市東区","jp_add_2":"錦町"},"9500106":{"post_code":"9500106","prefecture":"NIIGATA KEN","city":"NIIGATA SHI KONAN KU","town":"NISHINO","perfecture_jp":"新潟県","jp_add_1":"新潟市東区","jp_add_2":"西野"},"9500002":{"post_code":"9500002","prefecture":"NIIGATA KEN","city":"NIIGATA SHI HIGASHI KU","town":"NEMUROSHIMMACHI","perfecture_jp":"新潟県","jp_add_1":"新潟市東区","jp_add_2":"根室新町"},"9500893":{"post_code":"9500893","prefecture":"NIIGATA KEN","city":"NIIGATA SHI HIGASHI KU","town":"HANAMIZUKI","perfecture_jp":"新潟県","jp_add_1":"新潟市東区","jp_add_2":"はなみずき"},"9500046":{"post_code":"9500046","prefecture":"NIIGATA KEN","city":"NIIGATA SHI HIGASHI KU","town":"HAMACHO","perfecture_jp":"新潟県","jp_add_1":"新潟市東区","jp_add_2":"浜町"},"9500034":{"post_code":"9500034","prefecture":"NIIGATA KEN","city":"NIIGATA SHI HIGASHI KU","town":"HAMAYACHO","perfecture_jp":"新潟県","jp_add_1":"新潟市東区","jp_add_2":"浜谷町"},"9500823":{"post_code":"9500823","prefecture":"NIIGATA KEN","city":"NIIGATA SHI HIGASHI KU","town":"HIGASHINAKAJIMA","perfecture_jp":"新潟県","jp_add_1":"新潟市東区","jp_add_2":"東中島"},"9500836":{"post_code":"9500836","prefecture":"NIIGATA KEN","city":"NIIGATA SHI HIGASHI KU","town":"HIGASHINAKANOYAMA","perfecture_jp":"新潟県","jp_add_1":"新潟市東区","jp_add_2":"東中野山"},"9500042":{"post_code":"9500042","prefecture":"NIIGATA KEN","city":"NIIGATA SHI HIGASHI KU","town":"HIGASHIRINKOCHO","perfecture_jp":"新潟県","jp_add_1":"新潟市東区","jp_add_2":"東臨港町"},"9500802":{"post_code":"9500802","prefecture":"NIIGATA KEN","city":"NIIGATA SHI HIGASHI KU","town":"HITOICHI","perfecture_jp":"新潟県","jp_add_1":"新潟市東区","jp_add_2":"一日市"},"9500025":{"post_code":"9500025","prefecture":"NIIGATA KEN","city":"NIIGATA SHI HIGASHI KU","town":"FUJIMICHO","perfecture_jp":"新潟県","jp_add_1":"新潟市東区","jp_add_2":"藤見町"},"9500031":{"post_code":"9500031","prefecture":"NIIGATA KEN","city":"NIIGATA SHI HIGASHI KU","town":"FUNAECHO","perfecture_jp":"新潟県","jp_add_1":"新潟市東区","jp_add_2":"船江町"},"9500056":{"post_code":"9500056","prefecture":"NIIGATA KEN","city":"NIIGATA SHI HIGASHI KU","town":"FURUKAWACHO","perfecture_jp":"新潟県","jp_add_1":"新潟市東区","jp_add_2":"古川町"},"9500044":{"post_code":"9500044","prefecture":"NIIGATA KEN","city":"NIIGATA SHI HIGASHI KU","town":"FURUMINATOMACHI","perfecture_jp":"新潟県","jp_add_1":"新潟市東区","jp_add_2":"古湊町"},"9500035":{"post_code":"9500035","prefecture":"NIIGATA KEN","city":"NIIGATA SHI HIGASHI KU","town":"HEIWACHO","perfecture_jp":"新潟県","jp_add_1":"新潟市東区","jp_add_2":"平和町"},"9500872":{"post_code":"9500872","prefecture":"NIIGATA KEN","city":"NIIGATA SHI HIGASHI KU","town":"BOTANYAMA","perfecture_jp":"新潟県","jp_add_1":"新潟市東区","jp_add_2":"牡丹山"},"9500804":{"post_code":"9500804","prefecture":"NIIGATA KEN","city":"NIIGATA SHI HIGASHI KU","town":"HONJO","perfecture_jp":"新潟県","jp_add_1":"新潟市東区","jp_add_2":"本所"},"9500014":{"post_code":"9500014","prefecture":"NIIGATA KEN","city":"NIIGATA SHI HIGASHI KU","town":"MATSUSAKI","perfecture_jp":"新潟県","jp_add_1":"新潟市東区","jp_add_2":"松崎"},"9500064":{"post_code":"9500064","prefecture":"NIIGATA KEN","city":"NIIGATA SHI HIGASHI KU","town":"MATSUSHIMA","perfecture_jp":"新潟県","jp_add_1":"新潟市東区","jp_add_2":"松島"},"9500023":{"post_code":"9500023","prefecture":"NIIGATA KEN","city":"NIIGATA SHI HIGASHI KU","town":"MATSUZONO","perfecture_jp":"新潟県","jp_add_1":"新潟市東区","jp_add_2":"松園"},"9500001":{"post_code":"9500001","prefecture":"NIIGATA KEN","city":"NIIGATA SHI HIGASHI KU","town":"MATSUHAMACHO","perfecture_jp":"新潟県","jp_add_1":"新潟市東区","jp_add_2":"松浜町"},"9500027":{"post_code":"9500027","prefecture":"NIIGATA KEN","city":"NIIGATA SHI HIGASHI KU","town":"MATSUWACHO","perfecture_jp":"新潟県","jp_add_1":"新潟市東区","jp_add_2":"松和町"},"9500854":{"post_code":"9500854","prefecture":"NIIGATA KEN","city":"NIIGATA SHI HIGASHI KU","town":"MINAMISHICHIKU","perfecture_jp":"新潟県","jp_add_1":"新潟市東区","jp_add_2":"南紫竹"},"9500842":{"post_code":"9500842","prefecture":"NIIGATA KEN","city":"NIIGATA SHI HIGASHI KU","town":"MOEGINO","perfecture_jp":"新潟県","jp_add_1":"新潟市東区","jp_add_2":"もえぎ野"},"9500807":{"post_code":"9500807","prefecture":"NIIGATA KEN","city":"NIIGATA SHI HIGASHI KU","town":"MOKKOSHIMMACHI","perfecture_jp":"新潟県","jp_add_1":"新潟市東区","jp_add_2":"木工新町"},"9500021":{"post_code":"9500021","prefecture":"NIIGATA KEN","city":"NIIGATA SHI HIGASHI KU","town":"MONOMIYAMA","perfecture_jp":"新潟県","jp_add_1":"新潟市東区","jp_add_2":"物見山"},"9500051":{"post_code":"9500051","prefecture":"NIIGATA KEN","city":"NIIGATA SHI HIGASHI KU","town":"MOMOYAMACHO","perfecture_jp":"新潟県","jp_add_1":"新潟市東区","jp_add_2":"桃山町"},"9500809":{"post_code":"9500809","prefecture":"NIIGATA KEN","city":"NIIGATA SHI HIGASHI KU","town":"YANAGIGAOKA","perfecture_jp":"新潟県","jp_add_1":"新潟市東区","jp_add_2":"柳ケ丘"},"9500871":{"post_code":"9500871","prefecture":"NIIGATA KEN","city":"NIIGATA SHI CHUO KU","town":"YAMAKIDO","perfecture_jp":"新潟県","jp_add_1":"新潟市東区","jp_add_2":"山木戸"},"9500057":{"post_code":"9500057","prefecture":"NIIGATA KEN","city":"NIIGATA SHI HIGASHI KU","town":"YAMANOSHITAMACHI","perfecture_jp":"新潟県","jp_add_1":"新潟市東区","jp_add_2":"山の下町"},"9500012":{"post_code":"9500012","prefecture":"NIIGATA KEN","city":"NIIGATA SHI HIGASHI KU","town":"YURAKU","perfecture_jp":"新潟県","jp_add_1":"新潟市東区","jp_add_2":"有楽"},"9500812":{"post_code":"9500812","prefecture":"NIIGATA KEN","city":"NIIGATA SHI HIGASHI KU","town":"YUTAKA","perfecture_jp":"新潟県","jp_add_1":"新潟市東区","jp_add_2":"豊"},"9500047":{"post_code":"9500047","prefecture":"NIIGATA KEN","city":"NIIGATA SHI HIGASHI KU","town":"RINKAICHO","perfecture_jp":"新潟県","jp_add_1":"新潟市東区","jp_add_2":"臨海町"},"9500043":{"post_code":"9500043","prefecture":"NIIGATA KEN","city":"NIIGATA SHI HIGASHI KU","town":"RINKO","perfecture_jp":"新潟県","jp_add_1":"新潟市東区","jp_add_2":"臨港"},"9500041":{"post_code":"9500041","prefecture":"NIIGATA KEN","city":"NIIGATA SHI HIGASHI KU","town":"RINKOCHO","perfecture_jp":"新潟県","jp_add_1":"新潟市東区","jp_add_2":"臨港町"},"9500837":{"post_code":"9500837","prefecture":"NIIGATA KEN","city":"NIIGATA SHI HIGASHI KU","town":"WAKABACHO","perfecture_jp":"新潟県","jp_add_1":"新潟市東区","jp_add_2":"若葉町"},"9500084":{"post_code":"9500084","prefecture":"NIIGATA KEN","city":"NIIGATA SHI CHUO KU","town":"AKASHI","perfecture_jp":"新潟県","jp_add_1":"新潟市中央区","jp_add_2":"明石"},"9500944":{"post_code":"9500944","prefecture":"NIIGATA KEN","city":"NIIGATA SHI CHUO KU","town":"ATAGO","perfecture_jp":"新潟県","jp_add_1":"新潟市中央区","jp_add_2":"愛宕"},"9500913":{"post_code":"9500913","prefecture":"NIIGATA KEN","city":"NIIGATA SHI CHUO KU","town":"ABUMI","perfecture_jp":"新潟県","jp_add_1":"新潟市中央区","jp_add_2":"鐙"},"9500915":{"post_code":"9500915","prefecture":"NIIGATA KEN","city":"NIIGATA SHI CHUO KU","town":"ABUMINISHI","perfecture_jp":"新潟県","jp_add_1":"新潟市中央区","jp_add_2":"鐙西"},"9500964":{"post_code":"9500964","prefecture":"NIIGATA KEN","city":"NIIGATA SHI CHUO KU","town":"AMIGAWARA","perfecture_jp":"新潟県","jp_add_1":"新潟市中央区","jp_add_2":"網川原"},"9500157":{"post_code":"9500157","prefecture":"NIIGATA KEN","city":"NIIGATA SHI KONAN KU","town":"UNOKO","perfecture_jp":"新潟県","jp_add_1":"新潟市中央区","jp_add_2":"鵜ノ子"},"9500923":{"post_code":"9500923","prefecture":"NIIGATA KEN","city":"NIIGATA SHI KONAN KU","town":"UBAGAYAMA","perfecture_jp":"新潟県","jp_add_1":"新潟市中央区","jp_add_2":"姥ケ山"},"9501148":{"post_code":"9501148","prefecture":"NIIGATA KEN","city":"NIIGATA SHI CHUO KU","town":"UWANUMA","perfecture_jp":"新潟県","jp_add_1":"新潟市中央区","jp_add_2":"上沼"},"9500971":{"post_code":"9500971","prefecture":"NIIGATA KEN","city":"NIIGATA SHI CHUO KU","town":"OMI","perfecture_jp":"新潟県","jp_add_1":"新潟市中央区","jp_add_2":"近江"},"9500953":{"post_code":"9500953","prefecture":"NIIGATA KEN","city":"NIIGATA SHI CHUO KU","town":"OJIMA","perfecture_jp":"新潟県","jp_add_1":"新潟市中央区","jp_add_2":"大島"},"9501144":{"post_code":"9501144","prefecture":"NIIGATA KEN","city":"NIIGATA SHI KONAN KU","town":"OJIGOYA","perfecture_jp":"新潟県","jp_add_1":"新潟市中央区","jp_add_2":"祖父興野"},"9500952":{"post_code":"9500952","prefecture":"NIIGATA KEN","city":"NIIGATA SHI CHUO KU","town":"OYAMATSU","perfecture_jp":"新潟県","jp_add_1":"新潟市中央区","jp_add_2":"親松"},"9500074":{"post_code":"9500074","prefecture":"NIIGATA KEN","city":"NIIGATA SHI CHUO KU","town":"KAGAMIGAOKA","perfecture_jp":"新潟県","jp_add_1":"新潟市中央区","jp_add_2":"鏡が岡"},"9501133":{"post_code":"9501133","prefecture":"NIIGATA KEN","city":"NIIGATA SHI KONAN KU","town":"KAGI","perfecture_jp":"新潟県","jp_add_1":"新潟市中央区","jp_add_2":"嘉木"},"9500903":{"post_code":"9500903","prefecture":"NIIGATA KEN","city":"NIIGATA SHI CHUO KU","town":"KASUGACHO","perfecture_jp":"新潟県","jp_add_1":"新潟市中央区","jp_add_2":"春日町"},"9500973":{"post_code":"9500973","prefecture":"NIIGATA KEN","city":"NIIGATA SHI CHUO KU","town":"KAMIOMI","perfecture_jp":"新潟県","jp_add_1":"新潟市中央区","jp_add_2":"上近江"},"9500994":{"post_code":"9500994","prefecture":"NIIGATA KEN","city":"NIIGATA SHI CHUO KU","town":"KAMITOKORO","perfecture_jp":"新潟県","jp_add_1":"新潟市中央区","jp_add_2":"上所"},"9500992":{"post_code":"9500992","prefecture":"NIIGATA KEN","city":"NIIGATA SHI CHUO KU","town":"KAMITOKOROKAMI","perfecture_jp":"新潟県","jp_add_1":"新潟市中央区","jp_add_2":"上所上"},"9500993":{"post_code":"9500993","prefecture":"NIIGATA KEN","city":"NIIGATA SHI CHUO KU","town":"KAMITOKORONAKA","perfecture_jp":"新潟県","jp_add_1":"新潟市中央区","jp_add_2":"上所中"},"9500145":{"post_code":"9500145","prefecture":"NIIGATA KEN","city":"NIIGATA SHI KONAN KU","town":"KAMEDA HAYADORI","perfecture_jp":"新潟県","jp_add_1":"新潟市中央区","jp_add_2":"亀田早通"},"9500983":{"post_code":"9500983","prefecture":"NIIGATA KEN","city":"NIIGATA SHI CHUO KU","town":"KANDOJI","perfecture_jp":"新潟県","jp_add_1":"新潟市中央区","jp_add_2":"神道寺"},"9500986":{"post_code":"9500986","prefecture":"NIIGATA KEN","city":"NIIGATA SHI CHUO KU","town":"KANDOJIMINAMI","perfecture_jp":"新潟県","jp_add_1":"新潟市中央区","jp_add_2":"神道寺南"},"9500083":{"post_code":"9500083","prefecture":"NIIGATA KEN","city":"NIIGATA SHI CHUO KU","town":"KAMBARAMACHI","perfecture_jp":"新潟県","jp_add_1":"新潟市中央区","jp_add_2":"蒲原町"},"9501145":{"post_code":"9501145","prefecture":"NIIGATA KEN","city":"NIIGATA SHI KONAN KU","town":"KYUZOGOYA","perfecture_jp":"新潟県","jp_add_1":"新潟市中央区","jp_add_2":"久蔵興野"},"9500921":{"post_code":"9500921","prefecture":"NIIGATA KEN","city":"NIIGATA SHI CHUO KU","town":"KEIO","perfecture_jp":"新潟県","jp_add_1":"新潟市中央区","jp_add_2":"京王"},"9500926":{"post_code":"9500926","prefecture":"NIIGATA KEN","city":"NIIGATA SHI CHUO KU","town":"KOSHI","perfecture_jp":"新潟県","jp_add_1":"新潟市中央区","jp_add_2":"高志"},"9501151":{"post_code":"9501151","prefecture":"NIIGATA KEN","city":"NIIGATA SHI CHUO KU","town":"KONAN","perfecture_jp":"新潟県","jp_add_1":"新潟市中央区","jp_add_2":"湖南"},"9500942":{"post_code":"9500942","prefecture":"NIIGATA KEN","city":"NIIGATA SHI CHUO KU","town":"KOBARINOKI","perfecture_jp":"新潟県","jp_add_1":"新潟市中央区","jp_add_2":"小張木"},"9500907":{"post_code":"9500907","prefecture":"NIIGATA KEN","city":"NIIGATA SHI CHUO KU","town":"SAIWAICHO","perfecture_jp":"新潟県","jp_add_1":"新潟市中央区","jp_add_2":"幸町"},"9500908":{"post_code":"9500908","prefecture":"NIIGATA KEN","city":"NIIGATA SHI CHUO KU","town":"SAIWAINISHI","perfecture_jp":"新潟県","jp_add_1":"新潟市中央区","jp_add_2":"幸西"},"9500949":{"post_code":"9500949","prefecture":"NIIGATA KEN","city":"NIIGATA SHI CHUO KU","town":"SAKURAGICHO","perfecture_jp":"新潟県","jp_add_1":"新潟市中央区","jp_add_2":"桜木町"},"9500911":{"post_code":"9500911","prefecture":"NIIGATA KEN","city":"NIIGATA SHI CHUO KU","town":"SASAGUCHI","perfecture_jp":"新潟県","jp_add_1":"新潟市中央区","jp_add_2":"笹口"},"9500081":{"post_code":"9500081","prefecture":"NIIGATA KEN","city":"NIIGATA SHI CHUO KU","town":"SANWACHO","perfecture_jp":"新潟県","jp_add_1":"新潟市中央区","jp_add_2":"三和町"},"9500991":{"post_code":"9500991","prefecture":"NIIGATA KEN","city":"NIIGATA SHI CHUO KU","town":"SHIMOTOKOROJIMA","perfecture_jp":"新潟県","jp_add_1":"新潟市中央区","jp_add_2":"下所島"},"9501141":{"post_code":"9501141","prefecture":"NIIGATA KEN","city":"NIIGATA SHI KONAN KU","town":"SHUMOKU","perfecture_jp":"新潟県","jp_add_1":"新潟市中央区","jp_add_2":"鐘木"},"9500965":{"post_code":"9500965","prefecture":"NIIGATA KEN","city":"NIIGATA SHI CHUO KU","town":"SHINKOCHO","perfecture_jp":"新潟県","jp_add_1":"新潟市中央区","jp_add_2":"新光町"},"9500972":{"post_code":"9500972","prefecture":"NIIGATA KEN","city":"NIIGATA SHI CHUO KU","town":"SHINWA","perfecture_jp":"新潟県","jp_add_1":"新潟市中央区","jp_add_2":"新和"},"9500933":{"post_code":"9500933","prefecture":"NIIGATA KEN","city":"NIIGATA SHI KONAN KU","town":"SEIGORO","perfecture_jp":"新潟県","jp_add_1":"新潟市中央区","jp_add_2":"清五郎"},"9501136":{"post_code":"9501136","prefecture":"NIIGATA KEN","city":"NIIGATA SHI KONAN KU","town":"SOGAWA","perfecture_jp":"新潟県","jp_add_1":"新潟市中央区","jp_add_2":"曽川"},"9501146":{"post_code":"9501146","prefecture":"NIIGATA KEN","city":"NIIGATA SHI KONAN KU","town":"TAUEMONSHINDEN","perfecture_jp":"新潟県","jp_add_1":"新潟市中央区","jp_add_2":"太右エ門新田"},"9501147":{"post_code":"9501147","prefecture":"NIIGATA KEN","city":"NIIGATA SHI CHUO KU","town":"TAKAMICHO","perfecture_jp":"新潟県","jp_add_1":"新潟市中央区","jp_add_2":"高美町"},"9501143":{"post_code":"9501143","prefecture":"NIIGATA KEN","city":"NIIGATA SHI KONAN KU","town":"TAWARAYANAGI","perfecture_jp":"新潟県","jp_add_1":"新潟市中央区","jp_add_2":"俵柳"},"9500962":{"post_code":"9500962","prefecture":"NIIGATA KEN","city":"NIIGATA SHI CHUO KU","town":"DEKIJIMA","perfecture_jp":"新潟県","jp_add_1":"新潟市中央区","jp_add_2":"出来島"},"9500917":{"post_code":"9500917","prefecture":"NIIGATA KEN","city":"NIIGATA SHI CHUO KU","town":"TENJIN","perfecture_jp":"新潟県","jp_add_1":"新潟市中央区","jp_add_2":"天神"},"9500905":{"post_code":"9500905","prefecture":"NIIGATA KEN","city":"NIIGATA SHI CHUO KU","town":"TENJINO","perfecture_jp":"新潟県","jp_add_1":"新潟市中央区","jp_add_2":"天神尾"},"9500077":{"post_code":"9500077","prefecture":"NIIGATA KEN","city":"NIIGATA SHI CHUO KU","town":"TEMMEICHO","perfecture_jp":"新潟県","jp_add_1":"新潟市中央区","jp_add_2":"天明町"},"9500951":{"post_code":"9500951","prefecture":"NIIGATA KEN","city":"NIIGATA SHI CHUO KU","town":"TOYANO","perfecture_jp":"新潟県","jp_add_1":"新潟市中央区","jp_add_2":"鳥屋野"},"9500950":{"post_code":"9500950","prefecture":"NIIGATA KEN","city":"NIIGATA SHI CHUO KU","town":"TOYANOMINAMI","perfecture_jp":"新潟県","jp_add_1":"新潟市中央区","jp_add_2":"鳥屋野南"},"9500932":{"post_code":"9500932","prefecture":"NIIGATA KEN","city":"NIIGATA SHI KONAN KU","town":"NAGATA(BANCHI)","perfecture_jp":"新潟県","jp_add_1":"新潟市中央区","jp_add_2":"長潟"},"9500085":{"post_code":"9500085","prefecture":"NIIGATA KEN","city":"NIIGATA SHI CHUO KU","town":"NAGAMINEMACHI","perfecture_jp":"新潟県","jp_add_1":"新潟市中央区","jp_add_2":"長嶺町"},"9501131":{"post_code":"9501131","prefecture":"NIIGATA KEN","city":"NIIGATA SHI KONAN KU","town":"NABEGATASHINDEN","perfecture_jp":"新潟県","jp_add_1":"新潟市中央区","jp_add_2":"鍋潟新田"},"9500866":{"post_code":"9500866","prefecture":"NIIGATA KEN","city":"NIIGATA SHI CHUO KU","town":"NISHIUMAKOSHI","perfecture_jp":"新潟県","jp_add_1":"新潟市中央区","jp_add_2":"西馬越"},"9500076":{"post_code":"9500076","prefecture":"NIIGATA KEN","city":"NIIGATA SHI CHUO KU","town":"NUTTARINISHI","perfecture_jp":"新潟県","jp_add_1":"新潟市中央区","jp_add_2":"沼垂西"},"9500075":{"post_code":"9500075","prefecture":"NIIGATA KEN","city":"NIIGATA SHI CHUO KU","town":"NUTTARIHIGASHI","perfecture_jp":"新潟県","jp_add_1":"新潟市中央区","jp_add_2":"沼垂東"},"9500086":{"post_code":"9500086","prefecture":"NIIGATA KEN","city":"NIIGATA SHI CHUO KU","town":"HANAZONO","perfecture_jp":"新潟県","jp_add_1":"新潟市中央区","jp_add_2":"花園"},"9500088":{"post_code":"9500088","prefecture":"NIIGATA KEN","city":"NIIGATA SHI CHUO KU","town":"BANDAI","perfecture_jp":"新潟県","jp_add_1":"新潟市中央区","jp_add_2":"万代"},"9500078":{"post_code":"9500078","prefecture":"NIIGATA KEN","city":"NIIGATA SHI CHUO KU","town":"BANDAIJIMA","perfecture_jp":"新潟県","jp_add_1":"新潟市中央区","jp_add_2":"万代島"},"9500087":{"post_code":"9500087","prefecture":"NIIGATA KEN","city":"NIIGATA SHI CHUO KU","town":"HIGASHIODORI","perfecture_jp":"新潟県","jp_add_1":"新潟市中央区","jp_add_2":"東大通"},"9500906":{"post_code":"9500906","prefecture":"NIIGATA KEN","city":"NIIGATA SHI CHUO KU","town":"HIGASHISAIWAICHO","perfecture_jp":"新潟県","jp_add_1":"新潟市中央区","jp_add_2":"東幸町"},"9500961":{"post_code":"9500961","prefecture":"NIIGATA KEN","city":"NIIGATA SHI CHUO KU","town":"HIGASHIDEKIJIMA","perfecture_jp":"新潟県","jp_add_1":"新潟市中央区","jp_add_2":"東出来島"},"9500082":{"post_code":"9500082","prefecture":"NIIGATA KEN","city":"NIIGATA SHI CHUO KU","town":"HIGASHIBANDAICHO","perfecture_jp":"新潟県","jp_add_1":"新潟市中央区","jp_add_2":"東万代町"},"9500073":{"post_code":"9500073","prefecture":"NIIGATA KEN","city":"NIIGATA SHI CHUO KU","town":"HINODE","perfecture_jp":"新潟県","jp_add_1":"新潟市中央区","jp_add_2":"日の出"},"9500901":{"post_code":"9500901","prefecture":"NIIGATA KEN","city":"NIIGATA SHI CHUO KU","town":"BENTEN","perfecture_jp":"新潟県","jp_add_1":"新潟市中央区","jp_add_2":"弁天"},"9500925":{"post_code":"9500925","prefecture":"NIIGATA KEN","city":"NIIGATA SHI CHUO KU","town":"BENTEMBASHIDORI","perfecture_jp":"新潟県","jp_add_1":"新潟市中央区","jp_add_2":"弁天橋通"},"9500981":{"post_code":"9500981","prefecture":"NIIGATA KEN","city":"NIIGATA SHI CHUO KU","town":"HORINOCHI","perfecture_jp":"新潟県","jp_add_1":"新潟市中央区","jp_add_2":"堀之内"},"9500982":{"post_code":"9500982","prefecture":"NIIGATA KEN","city":"NIIGATA SHI CHUO KU","town":"HORINOCHIMINAMI","perfecture_jp":"新潟県","jp_add_1":"新潟市中央区","jp_add_2":"堀之内南"},"9501132":{"post_code":"9501132","prefecture":"NIIGATA KEN","city":"NIIGATA SHI KONAN KU","town":"MARUGATASHINDEN","perfecture_jp":"新潟県","jp_add_1":"新潟市中央区","jp_add_2":"丸潟新田"},"9500954":{"post_code":"9500954","prefecture":"NIIGATA KEN","city":"NIIGATA SHI CHUO KU","town":"MISAKICHO","perfecture_jp":"新潟県","jp_add_1":"新潟市中央区","jp_add_2":"美咲町"},"9500904":{"post_code":"9500904","prefecture":"NIIGATA KEN","city":"NIIGATA SHI CHUO KU","town":"MIZUSHIMACHO","perfecture_jp":"新潟県","jp_add_1":"新潟市中央区","jp_add_2":"水島町"},"9500912":{"post_code":"9500912","prefecture":"NIIGATA KEN","city":"NIIGATA SHI CHUO KU","town":"MINAMISASAGUCHI","perfecture_jp":"新潟県","jp_add_1":"新潟市中央区","jp_add_2":"南笹口"},"9500963":{"post_code":"9500963","prefecture":"NIIGATA KEN","city":"NIIGATA SHI CHUO KU","town":"MINAMIDEKIJIMA","perfecture_jp":"新潟県","jp_add_1":"新潟市中央区","jp_add_2":"南出来島"},"9500931":{"post_code":"9500931","prefecture":"NIIGATA KEN","city":"NIIGATA SHI CHUO KU","town":"MINAMINAGATA","perfecture_jp":"新潟県","jp_add_1":"新潟市中央区","jp_add_2":"南長潟"},"9500902":{"post_code":"9500902","prefecture":"NIIGATA KEN","city":"NIIGATA SHI CHUO KU","town":"MINAMIBANDAICHO","perfecture_jp":"新潟県","jp_add_1":"新潟市中央区","jp_add_2":"南万代町"},"9500924":{"post_code":"9500924","prefecture":"NIIGATA KEN","city":"NIIGATA SHI CHUO KU","town":"MINORI","perfecture_jp":"新潟県","jp_add_1":"新潟市中央区","jp_add_2":"美の里"},"9500941":{"post_code":"9500941","prefecture":"NIIGATA KEN","city":"NIIGATA SHI CHUO KU","town":"MEIKE","perfecture_jp":"新潟県","jp_add_1":"新潟市中央区","jp_add_2":"女池"},"9500945":{"post_code":"9500945","prefecture":"NIIGATA KEN","city":"NIIGATA SHI CHUO KU","town":"MEIKEKAMIYAMA","perfecture_jp":"新潟県","jp_add_1":"新潟市中央区","jp_add_2":"女池上山"},"9500947":{"post_code":"9500947","prefecture":"NIIGATA KEN","city":"NIIGATA SHI CHUO KU","town":"MEIKEKITA","perfecture_jp":"新潟県","jp_add_1":"新潟市中央区","jp_add_2":"女池北"},"9500943":{"post_code":"9500943","prefecture":"NIIGATA KEN","city":"NIIGATA SHI CHUO KU","town":"MEIKESHIMMEI","perfecture_jp":"新潟県","jp_add_1":"新潟市中央区","jp_add_2":"女池神明"},"9500946":{"post_code":"9500946","prefecture":"NIIGATA KEN","city":"NIIGATA SHI CHUO KU","town":"MEIKENISHI","perfecture_jp":"新潟県","jp_add_1":"新潟市中央区","jp_add_2":"女池西"},"9500984":{"post_code":"9500984","prefecture":"NIIGATA KEN","city":"NIIGATA SHI CHUO KU","town":"MEIKEHIGASHI","perfecture_jp":"新潟県","jp_add_1":"新潟市中央区","jp_add_2":"女池東"},"9500948":{"post_code":"9500948","prefecture":"NIIGATA KEN","city":"NIIGATA SHI CHUO KU","town":"MEIKEMINAMI","perfecture_jp":"新潟県","jp_add_1":"新潟市中央区","jp_add_2":"女池南"},"9500865":{"post_code":"9500865","prefecture":"NIIGATA KEN","city":"NIIGATA SHI CHUO KU","town":"MOTOMAKOSHI","perfecture_jp":"新潟県","jp_add_1":"新潟市中央区","jp_add_2":"本馬越"},"9500909":{"post_code":"9500909","prefecture":"NIIGATA KEN","city":"NIIGATA SHI CHUO KU","town":"YACHIYO","perfecture_jp":"新潟県","jp_add_1":"新潟市中央区","jp_add_2":"八千代"},"9500922":{"post_code":"9500922","prefecture":"NIIGATA KEN","city":"NIIGATA SHI KONAN KU","town":"YAMAFUTATSU","perfecture_jp":"新潟県","jp_add_1":"新潟市中央区","jp_add_2":"山二ツ"},"9500916":{"post_code":"9500916","prefecture":"NIIGATA KEN","city":"NIIGATA SHI CHUO KU","town":"YONEYAMA","perfecture_jp":"新潟県","jp_add_1":"新潟市中央区","jp_add_2":"米山"},"9500072":{"post_code":"9500072","prefecture":"NIIGATA KEN","city":"NIIGATA SHI CHUO KU","town":"RYUGASHIMA","perfecture_jp":"新潟県","jp_add_1":"新潟市中央区","jp_add_2":"竜が島"},"9500985":{"post_code":"9500985","prefecture":"NIIGATA KEN","city":"NIIGATA SHI CHUO KU","town":"WAGOCHO","perfecture_jp":"新潟県","jp_add_1":"新潟市中央区","jp_add_2":"和合町"},"9500212":{"post_code":"9500212","prefecture":"NIIGATA KEN","city":"NIIGATA SHI KONAN KU","town":"AKANEGAOKA","perfecture_jp":"新潟県","jp_add_1":"新潟市江南区","jp_add_2":"茜ケ丘"},"9500217":{"post_code":"9500217","prefecture":"NIIGATA KEN","city":"NIIGATA SHI KONAN KU","town":"AGANO","perfecture_jp":"新潟県","jp_add_1":"新潟市江南区","jp_add_2":"阿賀野"},"9500134":{"post_code":"9500134","prefecture":"NIIGATA KEN","city":"NIIGATA SHI KONAN KU","town":"AKEBONOCHO","perfecture_jp":"新潟県","jp_add_1":"新潟市江南区","jp_add_2":"曙町"},"9500166":{"post_code":"9500166","prefecture":"NIIGATA KEN","city":"NIIGATA SHI KONAN KU","town":"ASAHI","perfecture_jp":"新潟県","jp_add_1":"新潟市江南区","jp_add_2":"旭"},"9501134":{"post_code":"9501134","prefecture":"NIIGATA KEN","city":"NIIGATA SHI MINAMI KU","town":"AMANO","perfecture_jp":"新潟県","jp_add_1":"新潟市江南区","jp_add_2":"天野"},"9500155":{"post_code":"9500155","prefecture":"NIIGATA KEN","city":"NIIGATA SHI KONAN KU","town":"IZUMICHO","perfecture_jp":"新潟県","jp_add_1":"新潟市江南区","jp_add_2":"泉町"},"9500122":{"post_code":"9500122","prefecture":"NIIGATA KEN","city":"NIIGATA SHI KONAN KU","town":"INABA","perfecture_jp":"新潟県","jp_add_1":"新潟市江南区","jp_add_2":"稲葉"},"9500218":{"post_code":"9500218","prefecture":"NIIGATA KEN","city":"NIIGATA SHI KONAN KU","town":"IBUKINO","perfecture_jp":"新潟県","jp_add_1":"新潟市江南区","jp_add_2":"いぶき野"},"9500214":{"post_code":"9500214","prefecture":"NIIGATA KEN","city":"NIIGATA SHI KONAN KU","town":"UGUISU","perfecture_jp":"新潟県","jp_add_1":"新潟市江南区","jp_add_2":"うぐいす"},"9500140":{"post_code":"9500140","prefecture":"NIIGATA KEN","city":"NIIGATA SHI KONAN KU","town":"UMEMIDAI","perfecture_jp":"新潟県","jp_add_1":"新潟市江南区","jp_add_2":"梅見台"},"9500105":{"post_code":"9500105","prefecture":"NIIGATA KEN","city":"NIIGATA SHI KONAN KU","town":"OBUCHI","perfecture_jp":"新潟県","jp_add_1":"新潟市江南区","jp_add_2":"大渕"},"9500154":{"post_code":"9500154","prefecture":"NIIGATA KEN","city":"NIIGATA SHI KONAN KU","town":"OGIZONE","perfecture_jp":"新潟県","jp_add_1":"新潟市江南区","jp_add_2":"荻曽根"},"9500323":{"post_code":"9500323","prefecture":"NIIGATA KEN","city":"NIIGATA SHI KONAN KU","town":"KASE","perfecture_jp":"新潟県","jp_add_1":"新潟市江南区","jp_add_2":"嘉瀬"},"9500326":{"post_code":"9500326","prefecture":"NIIGATA KEN","city":"NIIGATA SHI KONAN KU","town":"KAMIWADA","perfecture_jp":"新潟県","jp_add_1":"新潟市江南区","jp_add_2":"上和田"},"9500124":{"post_code":"9500124","prefecture":"NIIGATA KEN","city":"NIIGATA SHI KONAN KU","town":"KAMEDA AZUMACHO","perfecture_jp":"新潟県","jp_add_1":"新潟市江南区","jp_add_2":"亀田東町"},"9500162":{"post_code":"9500162","prefecture":"NIIGATA KEN","city":"NIIGATA SHI KONAN KU","town":"KAMEDA OTSUKI","perfecture_jp":"新潟県","jp_add_1":"新潟市江南区","jp_add_2":"亀田大月"},"9500141":{"post_code":"9500141","prefecture":"NIIGATA KEN","city":"NIIGATA SHI KONAN KU","town":"KAMEDAKOGYODANCHI","perfecture_jp":"新潟県","jp_add_1":"新潟市江南区","jp_add_2":"亀田工業団地"},"9500121":{"post_code":"9500121","prefecture":"NIIGATA KEN","city":"NIIGATA SHI KONAN KU","town":"KAMEDA KOYO","perfecture_jp":"新潟県","jp_add_1":"新潟市江南区","jp_add_2":"亀田向陽"},"9500125":{"post_code":"9500125","prefecture":"NIIGATA KEN","city":"NIIGATA SHI KONAN KU","town":"KAMEDA SHIMMEICHO","perfecture_jp":"新潟県","jp_add_1":"新潟市江南区","jp_add_2":"亀田新明町"},"9500123":{"post_code":"9500123","prefecture":"NIIGATA KEN","city":"NIIGATA SHI KONAN KU","town":"KAMEDA SUIDOCHO","perfecture_jp":"新潟県","jp_add_1":"新潟市江南区","jp_add_2":"亀田水道町"},"9500169":{"post_code":"9500169","prefecture":"NIIGATA KEN","city":"NIIGATA SHI KONAN KU","town":"KAMEDA NAGATA","perfecture_jp":"新潟県","jp_add_1":"新潟市江南区","jp_add_2":"亀田長潟"},"9500164":{"post_code":"9500164","prefecture":"NIIGATA KEN","city":"NIIGATA SHI KONAN KU","town":"KAMEDA HONCHO","perfecture_jp":"新潟県","jp_add_1":"新潟市江南区","jp_add_2":"亀田本町"},"9500152":{"post_code":"9500152","prefecture":"NIIGATA KEN","city":"NIIGATA SHI KONAN KU","town":"KAMEDA MIDORICHO","perfecture_jp":"新潟県","jp_add_1":"新潟市江南区","jp_add_2":"亀田緑町"},"9500151":{"post_code":"9500151","prefecture":"NIIGATA KEN","city":"NIIGATA SHI KONAN KU","town":"KAMEDA YOTSUGOYA","perfecture_jp":"新潟県","jp_add_1":"新潟市江南区","jp_add_2":"亀田四ツ興野"},"9500206":{"post_code":"9500206","prefecture":"NIIGATA KEN","city":"NIIGATA SHI KONAN KU","town":"KITSU","perfecture_jp":"新潟県","jp_add_1":"新潟市江南区","jp_add_2":"木津"},"9500213":{"post_code":"9500213","prefecture":"NIIGATA KEN","city":"NIIGATA SHI KONAN KU","town":"KITSUKOGYODANCHI","perfecture_jp":"新潟県","jp_add_1":"新潟市江南区","jp_add_2":"木津工業団地"},"9500103":{"post_code":"9500103","prefecture":"NIIGATA KEN","city":"NIIGATA SHI KONAN KU","town":"KURAOKA","perfecture_jp":"新潟県","jp_add_1":"新潟市江南区","jp_add_2":"蔵岡"},"9500203":{"post_code":"9500203","prefecture":"NIIGATA KEN","city":"NIIGATA SHI KONAN KU","town":"KOSUGI","perfecture_jp":"新潟県","jp_add_1":"新潟市江南区","jp_add_2":"小杉"},"9500201":{"post_code":"9500201","prefecture":"NIIGATA KEN","city":"NIIGATA SHI KONAN KU","town":"KOMAGOMI","perfecture_jp":"新潟県","jp_add_1":"新潟市江南区","jp_add_2":"駒込"},"9500324":{"post_code":"9500324","prefecture":"NIIGATA KEN","city":"NIIGATA SHI KONAN KU","town":"SAKAYACHO","perfecture_jp":"新潟県","jp_add_1":"新潟市江南区","jp_add_2":"酒屋町"},"9500104":{"post_code":"9500104","prefecture":"NIIGATA KEN","city":"NIIGATA SHI KONAN KU","town":"SASAYAMA","perfecture_jp":"新潟県","jp_add_1":"新潟市江南区","jp_add_2":"笹山"},"9500167":{"post_code":"9500167","prefecture":"NIIGATA KEN","city":"NIIGATA SHI KONAN KU","town":"SATSUKICHO","perfecture_jp":"新潟県","jp_add_1":"新潟市江南区","jp_add_2":"五月町"},"9500156":{"post_code":"9500156","prefecture":"NIIGATA KEN","city":"NIIGATA SHI KONAN KU","town":"SANAE","perfecture_jp":"新潟県","jp_add_1":"新潟市江南区","jp_add_2":"早苗"},"9500129":{"post_code":"9500129","prefecture":"NIIGATA KEN","city":"NIIGATA SHI KONAN KU","town":"SANJOOKA","perfecture_jp":"新潟県","jp_add_1":"新潟市江南区","jp_add_2":"三條岡"},"9500107":{"post_code":"9500107","prefecture":"NIIGATA KEN","city":"NIIGATA SHI KONAN KU","town":"SAMBYAKUJI","perfecture_jp":"新潟県","jp_add_1":"新潟市江南区","jp_add_2":"三百地"},"9500149":{"post_code":"9500149","prefecture":"NIIGATA KEN","city":"NIIGATA SHI KONAN KU","town":"SHIMOHAYADORI","perfecture_jp":"新潟県","jp_add_1":"新潟市江南区","jp_add_2":"下早通"},"9500150":{"post_code":"9500150","prefecture":"NIIGATA KEN","city":"NIIGATA SHI KONAN KU","town":"SHIMOHAYADORIYANAGIDA","perfecture_jp":"新潟県","jp_add_1":"新潟市江南区","jp_add_2":"下早通柳田"},"9500136":{"post_code":"9500136","prefecture":"NIIGATA KEN","city":"NIIGATA SHI KONAN KU","town":"JOSHO","perfecture_jp":"新潟県","jp_add_1":"新潟市江南区","jp_add_2":"城所"},"9500137":{"post_code":"9500137","prefecture":"NIIGATA KEN","city":"NIIGATA SHI KONAN KU","town":"JOYAMA","perfecture_jp":"新潟県","jp_add_1":"新潟市江南区","jp_add_2":"城山"},"9500132":{"post_code":"9500132","prefecture":"NIIGATA KEN","city":"NIIGATA SHI KONAN KU","town":"SUNAOKA","perfecture_jp":"新潟県","jp_add_1":"新潟市江南区","jp_add_2":"砂岡"},"9500133":{"post_code":"9500133","prefecture":"NIIGATA KEN","city":"NIIGATA SHI KONAN KU","town":"SUNAKUZURE","perfecture_jp":"新潟県","jp_add_1":"新潟市江南区","jp_add_2":"砂崩"},"9500130":{"post_code":"9500130","prefecture":"NIIGATA KEN","city":"NIIGATA SHI KONAN KU","town":"SUNAYAMA","perfecture_jp":"新潟県","jp_add_1":"新潟市江南区","jp_add_2":"砂山"},"9500127":{"post_code":"9500127","prefecture":"NIIGATA KEN","city":"NIIGATA SHI KONAN KU","town":"SUWA","perfecture_jp":"新潟県","jp_add_1":"新潟市江南区","jp_add_2":"諏訪"},"9500205":{"post_code":"9500205","prefecture":"NIIGATA KEN","city":"NIIGATA SHI KONAN KU","town":"SOMI","perfecture_jp":"新潟県","jp_add_1":"新潟市江南区","jp_add_2":"沢海"},"9501142":{"post_code":"9501142","prefecture":"NIIGATA KEN","city":"NIIGATA SHI KONAN KU","town":"SOGAWA","perfecture_jp":"新潟県","jp_add_1":"新潟市江南区","jp_add_2":"楚川"},"9501135":{"post_code":"9501135","prefecture":"NIIGATA KEN","city":"NIIGATA SHI KONAN KU","town":"SONOKI","perfecture_jp":"新潟県","jp_add_1":"新潟市江南区","jp_add_2":"曽野木"},"9500144":{"post_code":"9500144","prefecture":"NIIGATA KEN","city":"NIIGATA SHI KONAN KU","town":"CHINOYAMA","perfecture_jp":"新潟県","jp_add_1":"新潟市江南区","jp_add_2":"茅野山"},"9500139":{"post_code":"9500139","prefecture":"NIIGATA KEN","city":"NIIGATA SHI KONAN KU","town":"TESHIROYAMA","perfecture_jp":"新潟県","jp_add_1":"新潟市江南区","jp_add_2":"手代山"},"9500135":{"post_code":"9500135","prefecture":"NIIGATA KEN","city":"NIIGATA SHI KONAN KU","town":"TOKOROJIMA","perfecture_jp":"新潟県","jp_add_1":"新潟市江南区","jp_add_2":"所島"},"9500142":{"post_code":"9500142","prefecture":"NIIGATA KEN","city":"NIIGATA SHI KONAN KU","town":"DOROGATA","perfecture_jp":"新潟県","jp_add_1":"新潟市江南区","jp_add_2":"泥潟"},"9500111":{"post_code":"9500111","prefecture":"NIIGATA KEN","city":"NIIGATA SHI KONAN KU","town":"NAORIYAMA","perfecture_jp":"新潟県","jp_add_1":"新潟市江南区","jp_add_2":"直り山"},"9500147":{"post_code":"9500147","prefecture":"NIIGATA KEN","city":"NIIGATA SHI KONAN KU","town":"NAGATA(CHOME)","perfecture_jp":"新潟県","jp_add_1":"新潟市江南区","jp_add_2":"長潟"},"9500165":{"post_code":"9500165","prefecture":"NIIGATA KEN","city":"NIIGATA SHI KONAN KU","town":"NISHIMACHI","perfecture_jp":"新潟県","jp_add_1":"新潟市江南区","jp_add_2":"西町"},"9500113":{"post_code":"9500113","prefecture":"NIIGATA KEN","city":"NIIGATA SHI KONAN KU","town":"NISHIYAMA","perfecture_jp":"新潟県","jp_add_1":"新潟市江南区","jp_add_2":"西山"},"9500207":{"post_code":"9500207","prefecture":"NIIGATA KEN","city":"NIIGATA SHI KONAN KU","town":"NIHONGI","perfecture_jp":"新潟県","jp_add_1":"新潟市江南区","jp_add_2":"二本木"},"9500325":{"post_code":"9500325","prefecture":"NIIGATA KEN","city":"NIIGATA SHI KONAN KU","town":"HANANOMAKI","perfecture_jp":"新潟県","jp_add_1":"新潟市江南区","jp_add_2":"花ノ牧"},"9500168":{"post_code":"9500168","prefecture":"NIIGATA KEN","city":"NIIGATA SHI KONAN KU","town":"HAYADORI","perfecture_jp":"新潟県","jp_add_1":"新潟市江南区","jp_add_2":"早通"},"9500148":{"post_code":"9500148","prefecture":"NIIGATA KEN","city":"NIIGATA SHI KONAN KU","town":"HIGASHIHAYADORI","perfecture_jp":"新潟県","jp_add_1":"新潟市江南区","jp_add_2":"東早通"},"9500163":{"post_code":"9500163","prefecture":"NIIGATA KEN","city":"NIIGATA SHI KONAN KU","town":"HIGASHIFUNABA","perfecture_jp":"新潟県","jp_add_1":"新潟市江南区","jp_add_2":"東船場"},"9500126":{"post_code":"9500126","prefecture":"NIIGATA KEN","city":"NIIGATA SHI KONAN KU","town":"HIGASHIHONCHO","perfecture_jp":"新潟県","jp_add_1":"新潟市江南区","jp_add_2":"東本町"},"9500138":{"post_code":"9500138","prefecture":"NIIGATA KEN","city":"NIIGATA SHI KONAN KU","town":"HIMIZU","perfecture_jp":"新潟県","jp_add_1":"新潟市江南区","jp_add_2":"日水"},"9500329":{"post_code":"9500329","prefecture":"NIIGATA KEN","city":"NIIGATA SHI KONAN KU","town":"HIRAGA","perfecture_jp":"新潟県","jp_add_1":"新潟市江南区","jp_add_2":"平賀"},"9500215":{"post_code":"9500215","prefecture":"NIIGATA KEN","city":"NIIGATA SHI KONAN KU","town":"HIRAYAMA","perfecture_jp":"新潟県","jp_add_1":"新潟市江南区","jp_add_2":"平山"},"9500131":{"post_code":"9500131","prefecture":"NIIGATA KEN","city":"NIIGATA SHI KONAN KU","town":"FUKUROZU","perfecture_jp":"新潟県","jp_add_1":"新潟市江南区","jp_add_2":"袋津"},"9500202":{"post_code":"9500202","prefecture":"NIIGATA KEN","city":"NIIGATA SHI KONAN KU","town":"FUJIYAMA","perfecture_jp":"新潟県","jp_add_1":"新潟市江南区","jp_add_2":"藤山"},"9500153":{"post_code":"9500153","prefecture":"NIIGATA KEN","city":"NIIGATA SHI KONAN KU","town":"FUNATOYAMA","perfecture_jp":"新潟県","jp_add_1":"新潟市江南区","jp_add_2":"船戸山"},"9500328":{"post_code":"9500328","prefecture":"NIIGATA KEN","city":"NIIGATA SHI KONAN KU","town":"MAIGATA","perfecture_jp":"新潟県","jp_add_1":"新潟市江南区","jp_add_2":"舞潟"},"9500112":{"post_code":"9500112","prefecture":"NIIGATA KEN","city":"NIIGATA SHI KONAN KU","town":"MATSUYAMA","perfecture_jp":"新潟県","jp_add_1":"新潟市江南区","jp_add_2":"松山"},"9500146":{"post_code":"9500146","prefecture":"NIIGATA KEN","city":"NIIGATA SHI KONAN KU","town":"MARUGATA","perfecture_jp":"新潟県","jp_add_1":"新潟市江南区","jp_add_2":"丸潟"},"9500115":{"post_code":"9500115","prefecture":"NIIGATA KEN","city":"NIIGATA SHI KONAN KU","town":"MARUYAMA","perfecture_jp":"新潟県","jp_add_1":"新潟市江南区","jp_add_2":"丸山"},"9500114":{"post_code":"9500114","prefecture":"NIIGATA KEN","city":"NIIGATA SHI KONAN KU","town":"MYOGADANI","perfecture_jp":"新潟県","jp_add_1":"新潟市江南区","jp_add_2":"茗荷谷"},"9500143":{"post_code":"9500143","prefecture":"NIIGATA KEN","city":"NIIGATA SHI KONAN KU","town":"MOTOMACHI","perfecture_jp":"新潟県","jp_add_1":"新潟市江南区","jp_add_2":"元町"},"9500204":{"post_code":"9500204","prefecture":"NIIGATA KEN","city":"NIIGATA SHI KONAN KU","town":"YOKOGOSHI","perfecture_jp":"新潟県","jp_add_1":"新潟市江南区","jp_add_2":"横越"},"9500210":{"post_code":"9500210","prefecture":"NIIGATA KEN","city":"NIIGATA SHI KONAN KU","town":"YOKOGOSHI KAMICHO","perfecture_jp":"新潟県","jp_add_1":"新潟市江南区","jp_add_2":"横越上町"},"9500211":{"post_code":"9500211","prefecture":"NIIGATA KEN","city":"NIIGATA SHI KONAN KU","town":"YOKOGOSHI KAWANECHO","perfecture_jp":"新潟県","jp_add_1":"新潟市江南区","jp_add_2":"横越川根町"},"9500208":{"post_code":"9500208","prefecture":"NIIGATA KEN","city":"NIIGATA SHI KONAN KU","town":"YOKOGOSHI CHUO","perfecture_jp":"新潟県","jp_add_1":"新潟市江南区","jp_add_2":"横越中央"},"9500209":{"post_code":"9500209","prefecture":"NIIGATA KEN","city":"NIIGATA SHI KONAN KU","town":"YOKOGOSHI HIGASHICHO","perfecture_jp":"新潟県","jp_add_1":"新潟市江南区","jp_add_2":"横越東町"},"9500322":{"post_code":"9500322","prefecture":"NIIGATA KEN","city":"NIIGATA SHI KONAN KU","town":"RYOKAWA","perfecture_jp":"新潟県","jp_add_1":"新潟市江南区","jp_add_2":"両川"},"9500327":{"post_code":"9500327","prefecture":"NIIGATA KEN","city":"NIIGATA SHI KONAN KU","town":"WADA","perfecture_jp":"新潟県","jp_add_1":"新潟市江南区","jp_add_2":"和田"},"9500321":{"post_code":"9500321","prefecture":"NIIGATA KEN","city":"NIIGATA SHI KONAN KU","town":"WARINO","perfecture_jp":"新潟県","jp_add_1":"新潟市江南区","jp_add_2":"割野"},"9501200":{"post_code":"9501200","prefecture":"NIIGATA KEN","city":"NIIGATA SHI MINAMI KU","town":"IKANIKEISAIGANAIBAAI","perfecture_jp":"新潟県","jp_add_1":"新潟市南区","jp_add_2":""},"9501411":{"post_code":"9501411","prefecture":"NIIGATA KEN","city":"NIIGATA SHI MINAMI KU","town":"AKASHIBU","perfecture_jp":"新潟県","jp_add_1":"新潟市南区","jp_add_2":"赤渋"},"9501413":{"post_code":"9501413","prefecture":"NIIGATA KEN","city":"NIIGATA SHI MINAMI KU","town":"ASAMAKURI","perfecture_jp":"新潟県","jp_add_1":"新潟市南区","jp_add_2":"朝捲"},"9501261":{"post_code":"9501261","prefecture":"NIIGATA KEN","city":"NIIGATA SHI NISHIKAN KU","town":"AJIKATA","perfecture_jp":"新潟県","jp_add_1":"新潟市南区","jp_add_2":"味方"},"9501227":{"post_code":"9501227","prefecture":"NIIGATA KEN","city":"NIIGATA SHI MINAMI KU","town":"AJIGATA","perfecture_jp":"新潟県","jp_add_1":"新潟市南区","jp_add_2":"鰺潟"},"9501447":{"post_code":"9501447","prefecture":"NIIGATA KEN","city":"NIIGATA SHI MINAMI KU","town":"IIJIMA","perfecture_jp":"新潟県","jp_add_1":"新潟市南区","jp_add_2":"飯島"},"9501251":{"post_code":"9501251","prefecture":"NIIGATA KEN","city":"NIIGATA SHI MINAMI KU","town":"ISHUKU","perfecture_jp":"新潟県","jp_add_1":"新潟市南区","jp_add_2":"居宿"},"9501471":{"post_code":"9501471","prefecture":"NIIGATA KEN","city":"NIIGATA SHI MINAMI KU","town":"IZUMI","perfecture_jp":"新潟県","jp_add_1":"新潟市南区","jp_add_2":"和泉"},"9501403":{"post_code":"9501403","prefecture":"NIIGATA KEN","city":"NIIGATA SHI MINAMI KU","town":"INUKAERISHINDEN","perfecture_jp":"新潟県","jp_add_1":"新潟市南区","jp_add_2":"犬帰新田"},"9501456":{"post_code":"9501456","prefecture":"NIIGATA KEN","city":"NIIGATA SHI MINAMI KU","town":"IBARASONE","perfecture_jp":"新潟県","jp_add_1":"新潟市南区","jp_add_2":"茨曽根"},"9501442":{"post_code":"9501442","prefecture":"NIIGATA KEN","city":"NIIGATA SHI MINAMI KU","town":"IMONOSHIGOYA","perfecture_jp":"新潟県","jp_add_1":"新潟市南区","jp_add_2":"鋳物師興野"},"9501453":{"post_code":"9501453","prefecture":"NIIGATA KEN","city":"NIIGATA SHI MINAMI KU","town":"USAGISHINDEN","perfecture_jp":"新潟県","jp_add_1":"新潟市南区","jp_add_2":"兎新田"},"9501444":{"post_code":"9501444","prefecture":"NIIGATA KEN","city":"NIIGATA SHI MINAMI KU","town":"USHIZAKI","perfecture_jp":"新潟県","jp_add_1":"新潟市南区","jp_add_2":"牛崎"},"9501412":{"post_code":"9501412","prefecture":"NIIGATA KEN","city":"NIIGATA SHI MINAMI KU","town":"USUI","perfecture_jp":"新潟県","jp_add_1":"新潟市南区","jp_add_2":"臼井"},"9501401":{"post_code":"9501401","prefecture":"NIIGATA KEN","city":"NIIGATA SHI MINAMI KU","town":"USUGADORI","perfecture_jp":"新潟県","jp_add_1":"新潟市南区","jp_add_2":"獺ヶ通"},"9501472":{"post_code":"9501472","prefecture":"NIIGATA KEN","city":"NIIGATA SHI MINAMI KU","town":"URANASHI","perfecture_jp":"新潟県","jp_add_1":"新潟市南区","jp_add_2":"浦梨"},"9501252":{"post_code":"9501252","prefecture":"NIIGATA KEN","city":"NIIGATA SHI MINAMI KU","town":"OKURA","perfecture_jp":"新潟県","jp_add_1":"新潟市南区","jp_add_2":"大倉"},"9501253":{"post_code":"9501253","prefecture":"NIIGATA KEN","city":"NIIGATA SHI MINAMI KU","town":"OKURASHINDEN","perfecture_jp":"新潟県","jp_add_1":"新潟市南区","jp_add_2":"大倉新田"},"9501201":{"post_code":"9501201","prefecture":"NIIGATA KEN","city":"NIIGATA SHI MINAMI KU","town":"ODORI","perfecture_jp":"新潟県","jp_add_1":"新潟市南区","jp_add_2":"大通"},"9501203":{"post_code":"9501203","prefecture":"NIIGATA KEN","city":"NIIGATA SHI MINAMI KU","town":"ODORIKOGANE","perfecture_jp":"新潟県","jp_add_1":"新潟市南区","jp_add_2":"大通黄金"},"9501204":{"post_code":"9501204","prefecture":"NIIGATA KEN","city":"NIIGATA SHI MINAMI KU","town":"ODORINISHI","perfecture_jp":"新潟県","jp_add_1":"新潟市南区","jp_add_2":"大通西"},"9501202":{"post_code":"9501202","prefecture":"NIIGATA KEN","city":"NIIGATA SHI MINAMI KU","town":"ODORIMINAMI","perfecture_jp":"新潟県","jp_add_1":"新潟市南区","jp_add_2":"大通南"},"9501305":{"post_code":"9501305","prefecture":"NIIGATA KEN","city":"NIIGATA SHI MINAMI KU","town":"OBETSUTO","perfecture_jp":"新潟県","jp_add_1":"新潟市南区","jp_add_2":"大別當"},"9501466":{"post_code":"9501466","prefecture":"NIIGATA KEN","city":"NIIGATA SHI MINAMI KU","town":"OKISHIMBO","perfecture_jp":"新潟県","jp_add_1":"新潟市南区","jp_add_2":"沖新保"},"9501428":{"post_code":"9501428","prefecture":"NIIGATA KEN","city":"NIIGATA SHI MINAMI KU","town":"KAMIURA","perfecture_jp":"新潟県","jp_add_1":"新潟市南区","jp_add_2":"上浦"},"9501474":{"post_code":"9501474","prefecture":"NIIGATA KEN","city":"NIIGATA SHI MINAMI KU","town":"KAMIKIYAMA","perfecture_jp":"新潟県","jp_add_1":"新潟市南区","jp_add_2":"上木山"},"9501244":{"post_code":"9501244","prefecture":"NIIGATA KEN","city":"NIIGATA SHI MINAMI KU","town":"KAMISHIODAWARA","perfecture_jp":"新潟県","jp_add_1":"新潟市南区","jp_add_2":"上塩俵"},"9501454":{"post_code":"9501454","prefecture":"NIIGATA KEN","city":"NIIGATA SHI MINAMI KU","town":"KAMISHINDEN","perfecture_jp":"新潟県","jp_add_1":"新潟市南区","jp_add_2":"上新田"},"9501465":{"post_code":"9501465","prefecture":"NIIGATA KEN","city":"NIIGATA SHI MINAMI KU","town":"KAMIDOGATA","perfecture_jp":"新潟県","jp_add_1":"新潟市南区","jp_add_2":"上道潟"},"9501431":{"post_code":"9501431","prefecture":"NIIGATA KEN","city":"NIIGATA SHI MINAMI KU","town":"KAMIHACHIMAI","perfecture_jp":"新潟県","jp_add_1":"新潟市南区","jp_add_2":"上八枚"},"9501302":{"post_code":"9501302","prefecture":"NIIGATA KEN","city":"NIIGATA SHI MINAMI KU","town":"KAMIMAGARIDORI","perfecture_jp":"新潟県","jp_add_1":"新潟市南区","jp_add_2":"上曲通"},"9501221":{"post_code":"9501221","prefecture":"NIIGATA KEN","city":"NIIGATA SHI MINAMI KU","town":"KAMIYA","perfecture_jp":"新潟県","jp_add_1":"新潟市南区","jp_add_2":"神屋"},"9501237":{"post_code":"9501237","prefecture":"NIIGATA KEN","city":"NIIGATA SHI MINAMI KU","town":"KITATANAKA","perfecture_jp":"新潟県","jp_add_1":"新潟市南区","jp_add_2":"北田中"},"9501311":{"post_code":"9501311","prefecture":"NIIGATA KEN","city":"NIIGATA SHI MINAMI KU","town":"KINAMERI","perfecture_jp":"新潟県","jp_add_1":"新潟市南区","jp_add_2":"木滑"},"9501434":{"post_code":"9501434","prefecture":"NIIGATA KEN","city":"NIIGATA SHI MINAMI KU","town":"KUSHIGE","perfecture_jp":"新潟県","jp_add_1":"新潟市南区","jp_add_2":"櫛笥"},"9501441":{"post_code":"9501441","prefecture":"NIIGATA KEN","city":"NIIGATA SHI MINAMI KU","town":"KUMODEKOYA","perfecture_jp":"新潟県","jp_add_1":"新潟市南区","jp_add_2":"蜘手興野"},"9501231":{"post_code":"9501231","prefecture":"NIIGATA KEN","city":"NIIGATA SHI MINAMI KU","town":"KOSAKA","perfecture_jp":"新潟県","jp_add_1":"新潟市南区","jp_add_2":"小坂"},"9501414":{"post_code":"9501414","prefecture":"NIIGATA KEN","city":"NIIGATA SHI MINAMI KU","town":"KOZOSU","perfecture_jp":"新潟県","jp_add_1":"新潟市南区","jp_add_2":"小蔵子"},"9501255":{"post_code":"9501255","prefecture":"NIIGATA KEN","city":"NIIGATA SHI MINAMI KU","town":"SANNO","perfecture_jp":"新潟県","jp_add_1":"新潟市南区","jp_add_2":"山王"},"9501256":{"post_code":"9501256","prefecture":"NIIGATA KEN","city":"NIIGATA SHI MINAMI KU","town":"SANNOSHINDEN","perfecture_jp":"新潟県","jp_add_1":"新潟市南区","jp_add_2":"山王新田"},"9501212":{"post_code":"9501212","prefecture":"NIIGATA KEN","city":"NIIGATA SHI MINAMI KU","town":"SHICHIKEN","perfecture_jp":"新潟県","jp_add_1":"新潟市南区","jp_add_2":"七軒"},"9501225":{"post_code":"9501225","prefecture":"NIIGATA KEN","city":"NIIGATA SHI MINAMI KU","town":"SHICHIKENCHO","perfecture_jp":"新潟県","jp_add_1":"新潟市南区","jp_add_2":"七軒町"},"9501457":{"post_code":"9501457","prefecture":"NIIGATA KEN","city":"NIIGATA SHI MINAMI KU","town":"SHIMIZU","perfecture_jp":"新潟県","jp_add_1":"新潟市南区","jp_add_2":"清水"},"9501473":{"post_code":"9501473","prefecture":"NIIGATA KEN","city":"NIIGATA SHI MINAMI KU","town":"SHIMOKIYAMA","perfecture_jp":"新潟県","jp_add_1":"新潟市南区","jp_add_2":"下木山"},"9501241":{"post_code":"9501241","prefecture":"NIIGATA KEN","city":"NIIGATA SHI MINAMI KU","town":"SHIMOSHIODAWARA","perfecture_jp":"新潟県","jp_add_1":"新潟市南区","jp_add_2":"下塩俵"},"9501464":{"post_code":"9501464","prefecture":"NIIGATA KEN","city":"NIIGATA SHI MINAMI KU","town":"SHIMODOGATA","perfecture_jp":"新潟県","jp_add_1":"新潟市南区","jp_add_2":"下道潟"},"9501424":{"post_code":"9501424","prefecture":"NIIGATA KEN","city":"NIIGATA SHI MINAMI KU","town":"SHIMOHACHIMAI","perfecture_jp":"新潟県","jp_add_1":"新潟市南区","jp_add_2":"下八枚"},"9501301":{"post_code":"9501301","prefecture":"NIIGATA KEN","city":"NIIGATA SHI MINAMI KU","town":"SHIMOMAGARIDORI","perfecture_jp":"新潟県","jp_add_1":"新潟市南区","jp_add_2":"下曲通"},"9501246":{"post_code":"9501246","prefecture":"NIIGATA KEN","city":"NIIGATA SHI MINAMI KU","town":"SHIMOYAMAZAKI","perfecture_jp":"新潟県","jp_add_1":"新潟市南区","jp_add_2":"下山崎"},"9501232":{"post_code":"9501232","prefecture":"NIIGATA KEN","city":"NIIGATA SHI MINAMI KU","town":"JUGOKEN","perfecture_jp":"新潟県","jp_add_1":"新潟市南区","jp_add_2":"十五間"},"9501432":{"post_code":"9501432","prefecture":"NIIGATA KEN","city":"NIIGATA SHI MINAMI KU","town":"JUNIDOSHIMA","perfecture_jp":"新潟県","jp_add_1":"新潟市南区","jp_add_2":"十二道島"},"9501214":{"post_code":"9501214","prefecture":"NIIGATA KEN","city":"NIIGATA SHI MINAMI KU","town":"JOGESUWANOKI","perfecture_jp":"新潟県","jp_add_1":"新潟市南区","jp_add_2":"上下諏訪木"},"9501446":{"post_code":"9501446","prefecture":"NIIGATA KEN","city":"NIIGATA SHI MINAMI KU","town":"SHOZE","perfecture_jp":"新潟県","jp_add_1":"新潟市南区","jp_add_2":"庄瀬"},"9501433":{"post_code":"9501433","prefecture":"NIIGATA KEN","city":"NIIGATA SHI MINAMI KU","town":"JIROUEMONKOYA","perfecture_jp":"新潟県","jp_add_1":"新潟市南区","jp_add_2":"次郎右エ門興野"},"9501217":{"post_code":"9501217","prefecture":"NIIGATA KEN","city":"NIIGATA SHI MINAMI KU","town":"SHIRONE","perfecture_jp":"新潟県","jp_add_1":"新潟市南区","jp_add_2":"白根"},"9501222":{"post_code":"9501222","prefecture":"NIIGATA KEN","city":"NIIGATA SHI MINAMI KU","town":"SHIRONE AZUMACHO","perfecture_jp":"新潟県","jp_add_1":"新潟市南区","jp_add_2":"白根東町"},"9501218":{"post_code":"9501218","prefecture":"NIIGATA KEN","city":"NIIGATA SHI MINAMI KU","town":"SHIRONE SAKANAMACHI","perfecture_jp":"新潟県","jp_add_1":"新潟市南区","jp_add_2":"白根魚町"},"9501224":{"post_code":"9501224","prefecture":"NIIGATA KEN","city":"NIIGATA SHI MINAMI KU","town":"SHIRONE SUIDOCHO","perfecture_jp":"新潟県","jp_add_1":"新潟市南区","jp_add_2":"白根水道町"},"9501216":{"post_code":"9501216","prefecture":"NIIGATA KEN","city":"NIIGATA SHI MINAMI KU","town":"SHIRONENOCHISHICHIKEN","perfecture_jp":"新潟県","jp_add_1":"新潟市南区","jp_add_2":"白根ノ内七軒"},"9501223":{"post_code":"9501223","prefecture":"NIIGATA KEN","city":"NIIGATA SHI MINAMI KU","town":"SHIRONE HINODECHO","perfecture_jp":"新潟県","jp_add_1":"新潟市南区","jp_add_2":"白根日の出町"},"9501211":{"post_code":"9501211","prefecture":"NIIGATA KEN","city":"NIIGATA SHI MINAMI KU","town":"SHIRONE FURUKAWA","perfecture_jp":"新潟県","jp_add_1":"新潟市南区","jp_add_2":"白根古川"},"9501226":{"post_code":"9501226","prefecture":"NIIGATA KEN","city":"NIIGATA SHI MINAMI KU","town":"SHIRONE YOTSUGOYA","perfecture_jp":"新潟県","jp_add_1":"新潟市南区","jp_add_2":"白根四ツ興野"},"9501426":{"post_code":"9501426","prefecture":"NIIGATA KEN","city":"NIIGATA SHI MINAMI KU","town":"SHINSEICHO","perfecture_jp":"新潟県","jp_add_1":"新潟市南区","jp_add_2":"新生町"},"9501245":{"post_code":"9501245","prefecture":"NIIGATA KEN","city":"NIIGATA SHI MINAMI KU","town":"SHINYAMAZAKICHO","perfecture_jp":"新潟県","jp_add_1":"新潟市南区","jp_add_2":"新山崎町"},"9501209":{"post_code":"9501209","prefecture":"NIIGATA KEN","city":"NIIGATA SHI MINAMI KU","town":"SHINWACHO","perfecture_jp":"新潟県","jp_add_1":"新潟市南区","jp_add_2":"親和町"},"9501208":{"post_code":"9501208","prefecture":"NIIGATA KEN","city":"NIIGATA SHI MINAMI KU","town":"SUGINA","perfecture_jp":"新潟県","jp_add_1":"新潟市南区","jp_add_2":"杉菜"},"9501215":{"post_code":"9501215","prefecture":"NIIGATA KEN","city":"NIIGATA SHI MINAMI KU","town":"SUKEJIUEMONGUMI","perfecture_jp":"新潟県","jp_add_1":"新潟市南区","jp_add_2":"助次右エ門組"},"9501462":{"post_code":"9501462","prefecture":"NIIGATA KEN","city":"NIIGATA SHI MINAMI KU","town":"ZOSU","perfecture_jp":"新潟県","jp_add_1":"新潟市南区","jp_add_2":"蔵主"},"9501404":{"post_code":"9501404","prefecture":"NIIGATA KEN","city":"NIIGATA SHI MINAMI KU","town":"DAIGO","perfecture_jp":"新潟県","jp_add_1":"新潟市南区","jp_add_2":"大郷"},"9501436":{"post_code":"9501436","prefecture":"NIIGATA KEN","city":"NIIGATA SHI MINAMI KU","town":"DAO","perfecture_jp":"新潟県","jp_add_1":"新潟市南区","jp_add_2":"田尾"},"9501235":{"post_code":"9501235","prefecture":"NIIGATA KEN","city":"NIIGATA SHI MINAMI KU","town":"TAKAIKOYA","perfecture_jp":"新潟県","jp_add_1":"新潟市南区","jp_add_2":"高井興野"},"9501236":{"post_code":"9501236","prefecture":"NIIGATA KEN","city":"NIIGATA SHI MINAMI KU","town":"TAKAIHIGASHI","perfecture_jp":"新潟県","jp_add_1":"新潟市南区","jp_add_2":"高井東"},"9501477":{"post_code":"9501477","prefecture":"NIIGATA KEN","city":"NIIGATA SHI MINAMI KU","town":"TANAKA","perfecture_jp":"新潟県","jp_add_1":"新潟市南区","jp_add_2":"田中"},"9501304":{"post_code":"9501304","prefecture":"NIIGATA KEN","city":"NIIGATA SHI MINAMI KU","town":"TSUKIGATA","perfecture_jp":"新潟県","jp_add_1":"新潟市南区","jp_add_2":"月潟"},"9501313":{"post_code":"9501313","prefecture":"NIIGATA KEN","city":"NIIGATA SHI NISHIKAN KU","town":"TSURIYOSE","perfecture_jp":"新潟県","jp_add_1":"新潟市南区","jp_add_2":"釣寄"},"9501312":{"post_code":"9501312","prefecture":"NIIGATA KEN","city":"NIIGATA SHI NISHIKAN KU","town":"TSURIYOSESHIN","perfecture_jp":"新潟県","jp_add_1":"新潟市南区","jp_add_2":"釣寄新"},"9501425":{"post_code":"9501425","prefecture":"NIIGATA KEN","city":"NIIGATA SHI MINAMI KU","town":"TOISHI","perfecture_jp":"新潟県","jp_add_1":"新潟市南区","jp_add_2":"戸石"},"9501475":{"post_code":"9501475","prefecture":"NIIGATA KEN","city":"NIIGATA SHI MINAMI KU","town":"TOGASHIRA","perfecture_jp":"新潟県","jp_add_1":"新潟市南区","jp_add_2":"戸頭"},"9501423":{"post_code":"9501423","prefecture":"NIIGATA KEN","city":"NIIGATA SHI MINAMI KU","town":"NAKAOMI","perfecture_jp":"新潟県","jp_add_1":"新潟市南区","jp_add_2":"中小見"},"9501242":{"post_code":"9501242","prefecture":"NIIGATA KEN","city":"NIIGATA SHI MINAMI KU","town":"NAKASHIODAWARA","perfecture_jp":"新潟県","jp_add_1":"新潟市南区","jp_add_2":"中塩俵"},"9501421":{"post_code":"9501421","prefecture":"NIIGATA KEN","city":"NIIGATA SHI MINAMI KU","town":"NAKAYAMA","perfecture_jp":"新潟県","jp_add_1":"新潟市南区","jp_add_2":"中山"},"9501254":{"post_code":"9501254","prefecture":"NIIGATA KEN","city":"NIIGATA SHI MINAMI KU","town":"NANAHO","perfecture_jp":"新潟県","jp_add_1":"新潟市南区","jp_add_2":"七穂"},"9501437":{"post_code":"9501437","prefecture":"NIIGATA KEN","city":"NIIGATA SHI MINAMI KU","town":"NABEGATA","perfecture_jp":"新潟県","jp_add_1":"新潟市南区","jp_add_2":"鍋潟"},"9501455":{"post_code":"9501455","prefecture":"NIIGATA KEN","city":"NIIGATA SHI MINAMI KU","town":"NIIDA","perfecture_jp":"新潟県","jp_add_1":"新潟市南区","jp_add_2":"新飯田"},"9501416":{"post_code":"9501416","prefecture":"NIIGATA KEN","city":"NIIGATA SHI MINAMI KU","town":"NISHIKASAMAKI","perfecture_jp":"新潟県","jp_add_1":"新潟市南区","jp_add_2":"西笠巻"},"9501417":{"post_code":"9501417","prefecture":"NIIGATA KEN","city":"NIIGATA SHI MINAMI KU","town":"NISHIKASAMAKISHINDEN","perfecture_jp":"新潟県","jp_add_1":"新潟市南区","jp_add_2":"西笠巻新田"},"9501303":{"post_code":"9501303","prefecture":"NIIGATA KEN","city":"NIIGATA SHI MINAMI KU","town":"NISHIKAYABA","perfecture_jp":"新潟県","jp_add_1":"新潟市南区","jp_add_2":"西萱場"},"9501402":{"post_code":"9501402","prefecture":"NIIGATA KEN","city":"NIIGATA SHI MINAMI KU","town":"NISHISAKAYA","perfecture_jp":"新潟県","jp_add_1":"新潟市南区","jp_add_2":"西酒屋"},"9501262":{"post_code":"9501262","prefecture":"NIIGATA KEN","city":"NIIGATA SHI MINAMI KU","town":"NISHISHIRONE","perfecture_jp":"新潟県","jp_add_1":"新潟市南区","jp_add_2":"西白根"},"9501234":{"post_code":"9501234","prefecture":"NIIGATA KEN","city":"NIIGATA SHI MINAMI KU","town":"NEGISHI","perfecture_jp":"新潟県","jp_add_1":"新潟市南区","jp_add_2":"根岸"},"9501213":{"post_code":"9501213","prefecture":"NIIGATA KEN","city":"NIIGATA SHI MINAMI KU","town":"NOTO","perfecture_jp":"新潟県","jp_add_1":"新潟市南区","jp_add_2":"能登"},"9501405":{"post_code":"9501405","prefecture":"NIIGATA KEN","city":"NIIGATA SHI MINAMI KU","town":"HIGASHIKASAMAKI","perfecture_jp":"新潟県","jp_add_1":"新潟市南区","jp_add_2":"東笠巻"},"9501406":{"post_code":"9501406","prefecture":"NIIGATA KEN","city":"NIIGATA SHI MINAMI KU","town":"HIGASHIKASAMAKISHINDEN","perfecture_jp":"新潟県","jp_add_1":"新潟市南区","jp_add_2":"東笠巻新田"},"9501467":{"post_code":"9501467","prefecture":"NIIGATA KEN","city":"NIIGATA SHI MINAMI KU","town":"HIGASHIKAYABA","perfecture_jp":"新潟県","jp_add_1":"新潟市南区","jp_add_2":"東萱場"},"9501314":{"post_code":"9501314","prefecture":"NIIGATA KEN","city":"NIIGATA SHI MINAMI KU","town":"HIGASHINAGASHIMA","perfecture_jp":"新潟県","jp_add_1":"新潟市南区","jp_add_2":"東長嶋"},"9501443":{"post_code":"9501443","prefecture":"NIIGATA KEN","city":"NIIGATA SHI MINAMI KU","town":"HISHIGATA","perfecture_jp":"新潟県","jp_add_1":"新潟市南区","jp_add_2":"菱潟"},"9501445":{"post_code":"9501445","prefecture":"NIIGATA KEN","city":"NIIGATA SHI MINAMI KU","town":"HISHIGATASHINDEN","perfecture_jp":"新潟県","jp_add_1":"新潟市南区","jp_add_2":"菱潟新田"},"9501415":{"post_code":"9501415","prefecture":"NIIGATA KEN","city":"NIIGATA SHI MINAMI KU","town":"HIKKOSHI","perfecture_jp":"新潟県","jp_add_1":"新潟市南区","jp_add_2":"引越"},"9501461":{"post_code":"9501461","prefecture":"NIIGATA KEN","city":"NIIGATA SHI MINAMI KU","town":"HIRAKATA","perfecture_jp":"新潟県","jp_add_1":"新潟市南区","jp_add_2":"平潟"},"9501463":{"post_code":"9501463","prefecture":"NIIGATA KEN","city":"NIIGATA SHI MINAMI KU","town":"HIRAKATASHINDEN","perfecture_jp":"新潟県","jp_add_1":"新潟市南区","jp_add_2":"平潟新田"},"9501344":{"post_code":"9501344","prefecture":"NIIGATA KEN","city":"NIIGATA SHI NISHIKAN KU","town":"FUKUJIMA","perfecture_jp":"新潟県","jp_add_1":"新潟市南区","jp_add_2":"福島"},"9501452":{"post_code":"9501452","prefecture":"NIIGATA KEN","city":"NIIGATA SHI MINAMI KU","town":"FURUKAWASHINDEN","perfecture_jp":"新潟県","jp_add_1":"新潟市南区","jp_add_2":"古川新田"},"9501476":{"post_code":"9501476","prefecture":"NIIGATA KEN","city":"NIIGATA SHI MINAMI KU","town":"HEISEICHO","perfecture_jp":"新潟県","jp_add_1":"新潟市南区","jp_add_2":"平成町"},"9501233":{"post_code":"9501233","prefecture":"NIIGATA KEN","city":"NIIGATA SHI MINAMI KU","town":"HOSAKA","perfecture_jp":"新潟県","jp_add_1":"新潟市南区","jp_add_2":"保坂"},"9501422":{"post_code":"9501422","prefecture":"NIIGATA KEN","city":"NIIGATA SHI MINAMI KU","town":"HOKKAKE","perfecture_jp":"新潟県","jp_add_1":"新潟市南区","jp_add_2":"堀掛"},"9501451":{"post_code":"9501451","prefecture":"NIIGATA KEN","city":"NIIGATA SHI MINAMI KU","town":"MAKI","perfecture_jp":"新潟県","jp_add_1":"新潟市南区","jp_add_2":"真木"},"9501243":{"post_code":"9501243","prefecture":"NIIGATA KEN","city":"NIIGATA SHI MINAMI KU","town":"MATSUHASHI","perfecture_jp":"新潟県","jp_add_1":"新潟市南区","jp_add_2":"松橋"},"9501435":{"post_code":"9501435","prefecture":"NIIGATA KEN","city":"NIIGATA SHI MINAMI KU","town":"MANNEN","perfecture_jp":"新潟県","jp_add_1":"新潟市南区","jp_add_2":"万年"},"9501247":{"post_code":"9501247","prefecture":"NIIGATA KEN","city":"NIIGATA SHI MINAMI KU","town":"YAMAZAKIKOYA","perfecture_jp":"新潟県","jp_add_1":"新潟市南区","jp_add_2":"山崎興野"},"9501258":{"post_code":"9501258","prefecture":"NIIGATA KEN","city":"NIIGATA SHI MINAMI KU","town":"YOSHIE","perfecture_jp":"新潟県","jp_add_1":"新潟市南区","jp_add_2":"吉江"},"9501257":{"post_code":"9501257","prefecture":"NIIGATA KEN","city":"NIIGATA SHI MINAMI KU","town":"YOSHIDASHINDEN","perfecture_jp":"新潟県","jp_add_1":"新潟市南区","jp_add_2":"吉田新田"},"9501407":{"post_code":"9501407","prefecture":"NIIGATA KEN","city":"NIIGATA SHI MINAMI KU","town":"WASHINOKISHINDEN","perfecture_jp":"新潟県","jp_add_1":"新潟市南区","jp_add_2":"鷲ノ木新田"},"9502002":{"post_code":"9502002","prefecture":"NIIGATA KEN","city":"NIIGATA SHI NISHI KU","town":"AOYAMA","perfecture_jp":"新潟県","jp_add_1":"新潟市西区","jp_add_2":"青山"},"9502006":{"post_code":"9502006","prefecture":"NIIGATA KEN","city":"NIIGATA SHI NISHI KU","town":"AOYAMASHIMMACHI","perfecture_jp":"新潟県","jp_add_1":"新潟市西区","jp_add_2":"青山新町"},"9502005":{"post_code":"9502005","prefecture":"NIIGATA KEN","city":"NIIGATA SHI NISHI KU","town":"AOYAMASUIDO","perfecture_jp":"新潟県","jp_add_1":"新潟市西区","jp_add_2":"青山水道"},"9502261":{"post_code":"9502261","prefecture":"NIIGATA KEN","city":"NIIGATA SHI NISHI KU","town":"AKATSUKA","perfecture_jp":"新潟県","jp_add_1":"新潟市西区","jp_add_2":"赤塚"},"9502073":{"post_code":"9502073","prefecture":"NIIGATA KEN","city":"NIIGATA SHI NISHI KU","town":"ARIAKECHO","perfecture_jp":"新潟県","jp_add_1":"新潟市西区","jp_add_2":"有明町"},"9502101":{"post_code":"9502101","prefecture":"NIIGATA KEN","city":"NIIGATA SHI NISHI KU","town":"IKARASHI1-NOCHO","perfecture_jp":"新潟県","jp_add_1":"新潟市西区","jp_add_2":"五十嵐一の町"},"9502102":{"post_code":"9502102","prefecture":"NIIGATA KEN","city":"NIIGATA SHI NISHI KU","town":"IKARASHI2-NOCHO","perfecture_jp":"新潟県","jp_add_1":"新潟市西区","jp_add_2":"五十嵐二の町"},"9502171":{"post_code":"9502171","prefecture":"NIIGATA KEN","city":"NIIGATA SHI NISHI KU","town":"IKARASHI3-NOCHO","perfecture_jp":"新潟県","jp_add_1":"新潟市西区","jp_add_2":"五十嵐三の町"},"9502176":{"post_code":"9502176","prefecture":"NIIGATA KEN","city":"NIIGATA SHI NISHI KU","town":"IKARASHI3-NOCHOKITA","perfecture_jp":"新潟県","jp_add_1":"新潟市西区","jp_add_2":"五十嵐三の町北"},"9502177":{"post_code":"9502177","prefecture":"NIIGATA KEN","city":"NIIGATA SHI NISHI KU","town":"IKARASHI3-NOCHONAKA","perfecture_jp":"新潟県","jp_add_1":"新潟市西区","jp_add_2":"五十嵐三の町中"},"9502174":{"post_code":"9502174","prefecture":"NIIGATA KEN","city":"NIIGATA SHI NISHI KU","town":"IKARASHI3-NOCHONISHI","perfecture_jp":"新潟県","jp_add_1":"新潟市西区","jp_add_2":"五十嵐三の町西"},"9502173":{"post_code":"9502173","prefecture":"NIIGATA KEN","city":"NIIGATA SHI NISHI KU","town":"IKARASHI3-NOCHOHIGASHI","perfecture_jp":"新潟県","jp_add_1":"新潟市西区","jp_add_2":"五十嵐三の町東"},"9502175":{"post_code":"9502175","prefecture":"NIIGATA KEN","city":"NIIGATA SHI NISHI KU","town":"IKARASHI3-NOCHOMINAMI","perfecture_jp":"新潟県","jp_add_1":"新潟市西区","jp_add_2":"五十嵐三の町南"},"9502155":{"post_code":"9502155","prefecture":"NIIGATA KEN","city":"NIIGATA SHI NISHI KU","town":"IKARASHIKAMISAKIYAMA","perfecture_jp":"新潟県","jp_add_1":"新潟市西区","jp_add_2":"五十嵐上崎山"},"9502152":{"post_code":"9502152","prefecture":"NIIGATA KEN","city":"NIIGATA SHI NISHI KU","town":"IKARASHISHIMOSAKIYAMA","perfecture_jp":"新潟県","jp_add_1":"新潟市西区","jp_add_2":"五十嵐下崎山"},"9502162":{"post_code":"9502162","prefecture":"NIIGATA KEN","city":"NIIGATA SHI NISHI KU","town":"IKARASHINAKAJIMA","perfecture_jp":"新潟県","jp_add_1":"新潟市西区","jp_add_2":"五十嵐中島"},"9502161":{"post_code":"9502161","prefecture":"NIIGATA KEN","city":"NIIGATA SHI NISHI KU","town":"IKARASHINISHI","perfecture_jp":"新潟県","jp_add_1":"新潟市西区","jp_add_2":"五十嵐西"},"9502045":{"post_code":"9502045","prefecture":"NIIGATA KEN","city":"NIIGATA SHI NISHI KU","town":"IKARASHIHIGASHI","perfecture_jp":"新潟県","jp_add_1":"新潟市西区","jp_add_2":"五十嵐東"},"9501121":{"post_code":"9501121","prefecture":"NIIGATA KEN","city":"NIIGATA SHI NISHI KU","town":"ITAI","perfecture_jp":"新潟県","jp_add_1":"新潟市西区","jp_add_2":"板井"},"9502141":{"post_code":"9502141","prefecture":"NIIGATA KEN","city":"NIIGATA SHI NISHI KU","town":"UCHINOKATABATA","perfecture_jp":"新潟県","jp_add_1":"新潟市西区","jp_add_2":"内野潟端"},"9502154":{"post_code":"9502154","prefecture":"NIIGATA KEN","city":"NIIGATA SHI NISHI KU","town":"UCHINOKATAMUKAI","perfecture_jp":"新潟県","jp_add_1":"新潟市西区","jp_add_2":"内野潟向"},"9502172":{"post_code":"9502172","prefecture":"NIIGATA KEN","city":"NIIGATA SHI NISHI KU","town":"UCHINOKAMISHIMMACHI","perfecture_jp":"新潟県","jp_add_1":"新潟市西区","jp_add_2":"内野上新町"},"9502153":{"post_code":"9502153","prefecture":"NIIGATA KEN","city":"NIIGATA SHI NISHI KU","town":"UCHINOSAKIYAMA","perfecture_jp":"新潟県","jp_add_1":"新潟市西区","jp_add_2":"内野崎山"},"9502156":{"post_code":"9502156","prefecture":"NIIGATA KEN","city":"NIIGATA SHI NISHI KU","town":"UCHINOSEKIBA","perfecture_jp":"新潟県","jp_add_1":"新潟市西区","jp_add_2":"内野関場"},"9502142":{"post_code":"9502142","prefecture":"NIIGATA KEN","city":"NIIGATA SHI NISHI KU","town":"UCHINODONAKASAI","perfecture_jp":"新潟県","jp_add_1":"新潟市西区","jp_add_2":"内野戸中才"},"9502164":{"post_code":"9502164","prefecture":"NIIGATA KEN","city":"NIIGATA SHI NISHI KU","town":"UCHINONAKAHAMA","perfecture_jp":"新潟県","jp_add_1":"新潟市西区","jp_add_2":"内野中浜"},"9502151":{"post_code":"9502151","prefecture":"NIIGATA KEN","city":"NIIGATA SHI NISHI KU","town":"UCHINONISHI","perfecture_jp":"新潟県","jp_add_1":"新潟市西区","jp_add_2":"内野西"},"9502143":{"post_code":"9502143","prefecture":"NIIGATA KEN","city":"NIIGATA SHI NISHI KU","town":"UCHINOHAYATSUNO","perfecture_jp":"新潟県","jp_add_1":"新潟市西区","jp_add_2":"内野早角"},"9502112":{"post_code":"9502112","prefecture":"NIIGATA KEN","city":"NIIGATA SHI NISHI KU","town":"UCHINOMACHI","perfecture_jp":"新潟県","jp_add_1":"新潟市西区","jp_add_2":"内野町"},"9502113":{"post_code":"9502113","prefecture":"NIIGATA KEN","city":"NIIGATA SHI NISHI KU","town":"UCHINOYAMATE","perfecture_jp":"新潟県","jp_add_1":"新潟市西区","jp_add_2":"内野山手"},"9502001":{"post_code":"9502001","prefecture":"NIIGATA KEN","city":"NIIGATA SHI NISHI KU","town":"URAYAMA","perfecture_jp":"新潟県","jp_add_1":"新潟市西区","jp_add_2":"浦山"},"9501127":{"post_code":"9501127","prefecture":"NIIGATA KEN","city":"NIIGATA SHI NISHI KU","town":"OGATA","perfecture_jp":"新潟県","jp_add_1":"新潟市西区","jp_add_2":"大潟"},"9502126":{"post_code":"9502126","prefecture":"NIIGATA KEN","city":"NIIGATA SHI NISHI KU","town":"OTOMO","perfecture_jp":"新潟県","jp_add_1":"新潟市西区","jp_add_2":"大友"},"9502037":{"post_code":"9502037","prefecture":"NIIGATA KEN","city":"NIIGATA SHI NISHI KU","town":"ONO","perfecture_jp":"新潟県","jp_add_1":"新潟市西区","jp_add_2":"大野"},"9501111":{"post_code":"9501111","prefecture":"NIIGATA KEN","city":"NIIGATA SHI NISHI KU","town":"ONOMACHI","perfecture_jp":"新潟県","jp_add_1":"新潟市西区","jp_add_2":"大野町"},"9501124":{"post_code":"9501124","prefecture":"NIIGATA KEN","city":"NIIGATA SHI NISHI KU","town":"OTATERYUTSU","perfecture_jp":"新潟県","jp_add_1":"新潟市西区","jp_add_2":"緒立流通"},"9502137":{"post_code":"9502137","prefecture":"NIIGATA KEN","city":"NIIGATA SHI NISHI KU","town":"OMIGOYA","perfecture_jp":"新潟県","jp_add_1":"新潟市西区","jp_add_2":"小見郷屋"},"9502123":{"post_code":"9502123","prefecture":"NIIGATA KEN","city":"NIIGATA SHI NISHI KU","town":"KASAGI","perfecture_jp":"新潟県","jp_add_1":"新潟市西区","jp_add_2":"笠木"},"9501112":{"post_code":"9501112","prefecture":"NIIGATA KEN","city":"NIIGATA SHI NISHI KU","town":"KANEMAKI","perfecture_jp":"新潟県","jp_add_1":"新潟市西区","jp_add_2":"金巻"},"9502146":{"post_code":"9502146","prefecture":"NIIGATA KEN","city":"NIIGATA SHI NISHI KU","town":"KANEMAKISHINDEN","perfecture_jp":"新潟県","jp_add_1":"新潟市西区","jp_add_2":"金巻新田"},"9502076":{"post_code":"9502076","prefecture":"NIIGATA KEN","city":"NIIGATA SHI NISHI KU","town":"KAMISHINEICHO","perfecture_jp":"新潟県","jp_add_1":"新潟市西区","jp_add_2":"上新栄町"},"9502255":{"post_code":"9502255","prefecture":"NIIGATA KEN","city":"NIIGATA SHI NISHI KU","town":"KAMIYAMA","perfecture_jp":"新潟県","jp_add_1":"新潟市西区","jp_add_2":"神山"},"9502033":{"post_code":"9502033","prefecture":"NIIGATA KEN","city":"NIIGATA SHI NISHI KU","town":"KAMEGAI","perfecture_jp":"新潟県","jp_add_1":"新潟市西区","jp_add_2":"亀貝"},"9502136":{"post_code":"9502136","prefecture":"NIIGATA KEN","city":"NIIGATA SHI NISHI KU","town":"KANSUKEGOYA","perfecture_jp":"新潟県","jp_add_1":"新潟市西区","jp_add_2":"勘助郷屋"},"9501126":{"post_code":"9501126","prefecture":"NIIGATA KEN","city":"NIIGATA SHI NISHI KU","town":"KITABA","perfecture_jp":"新潟県","jp_add_1":"新潟市西区","jp_add_2":"北場"},"9501122":{"post_code":"9501122","prefecture":"NIIGATA KEN","city":"NIIGATA SHI NISHI KU","town":"KIBA","perfecture_jp":"新潟県","jp_add_1":"新潟市西区","jp_add_2":"木場"},"9502253":{"post_code":"9502253","prefecture":"NIIGATA KEN","city":"NIIGATA SHI NISHI KU","town":"KIYAMA","perfecture_jp":"新潟県","jp_add_1":"新潟市西区","jp_add_2":"木山"},"9501123":{"post_code":"9501123","prefecture":"NIIGATA KEN","city":"NIIGATA SHI NISHI KU","town":"KUROTORI","perfecture_jp":"新潟県","jp_add_1":"新潟市西区","jp_add_2":"黒鳥"},"9502023":{"post_code":"9502023","prefecture":"NIIGATA KEN","city":"NIIGATA SHI NISHI KU","town":"KOSHIN","perfecture_jp":"新潟県","jp_add_1":"新潟市西区","jp_add_2":"小新"},"9502027":{"post_code":"9502027","prefecture":"NIIGATA KEN","city":"NIIGATA SHI NISHI KU","town":"KOSHINODORI","perfecture_jp":"新潟県","jp_add_1":"新潟市西区","jp_add_2":"小新大通"},"9502024":{"post_code":"9502024","prefecture":"NIIGATA KEN","city":"NIIGATA SHI NISHI KU","town":"KOSHINNISHI","perfecture_jp":"新潟県","jp_add_1":"新潟市西区","jp_add_2":"小新西"},"9502028":{"post_code":"9502028","prefecture":"NIIGATA KEN","city":"NIIGATA SHI NISHI KU","town":"KOSHIMMINAMI","perfecture_jp":"新潟県","jp_add_1":"新潟市西区","jp_add_2":"小新南"},"9502132":{"post_code":"9502132","prefecture":"NIIGATA KEN","city":"NIIGATA SHI NISHI KU","town":"KOZE","perfecture_jp":"新潟県","jp_add_1":"新潟市西区","jp_add_2":"小瀬"},"9502022":{"post_code":"9502022","prefecture":"NIIGATA KEN","city":"NIIGATA SHI NISHI KU","town":"KOBARI","perfecture_jp":"新潟県","jp_add_1":"新潟市西区","jp_add_2":"小針"},"9502013":{"post_code":"9502013","prefecture":"NIIGATA KEN","city":"NIIGATA SHI NISHI KU","town":"KOBARIGAOKA","perfecture_jp":"新潟県","jp_add_1":"新潟市西区","jp_add_2":"小針が丘"},"9502011":{"post_code":"9502011","prefecture":"NIIGATA KEN","city":"NIIGATA SHI NISHI KU","town":"KOBARIKAMIYAMA","perfecture_jp":"新潟県","jp_add_1":"新潟市西区","jp_add_2":"小針上山"},"9502012":{"post_code":"9502012","prefecture":"NIIGATA KEN","city":"NIIGATA SHI NISHI KU","town":"KOBARIDAI","perfecture_jp":"新潟県","jp_add_1":"新潟市西区","jp_add_2":"小針台"},"9502014":{"post_code":"9502014","prefecture":"NIIGATA KEN","city":"NIIGATA SHI NISHI KU","town":"KOBARINISHI","perfecture_jp":"新潟県","jp_add_1":"新潟市西区","jp_add_2":"小針西"},"9502021":{"post_code":"9502021","prefecture":"NIIGATA KEN","city":"NIIGATA SHI NISHI KU","town":"KOBARIFUJIYAMA","perfecture_jp":"新潟県","jp_add_1":"新潟市西区","jp_add_2":"小針藤山"},"9502025":{"post_code":"9502025","prefecture":"NIIGATA KEN","city":"NIIGATA SHI NISHI KU","town":"KOBARIMINAMI","perfecture_jp":"新潟県","jp_add_1":"新潟市西区","jp_add_2":"小針南"},"9502026":{"post_code":"9502026","prefecture":"NIIGATA KEN","city":"NIIGATA SHI NISHI KU","town":"KOBARIMINAMIDAI","perfecture_jp":"新潟県","jp_add_1":"新潟市西区","jp_add_2":"小針南台"},"9501114":{"post_code":"9501114","prefecture":"NIIGATA KEN","city":"NIIGATA SHI NISHI KU","town":"KOHIRAKATA","perfecture_jp":"新潟県","jp_add_1":"新潟市西区","jp_add_2":"小平方"},"9502042":{"post_code":"9502042","prefecture":"NIIGATA KEN","city":"NIIGATA SHI NISHI KU","town":"SAKAI","perfecture_jp":"新潟県","jp_add_1":"新潟市西区","jp_add_2":"坂井"},"9502044":{"post_code":"9502044","prefecture":"NIIGATA KEN","city":"NIIGATA SHI NISHI KU","town":"SAKAISUNAYAMA","perfecture_jp":"新潟県","jp_add_1":"新潟市西区","jp_add_2":"坂井砂山"},"9502041":{"post_code":"9502041","prefecture":"NIIGATA KEN","city":"NIIGATA SHI NISHI KU","town":"SAKAIHIGASHI","perfecture_jp":"新潟県","jp_add_1":"新潟市西区","jp_add_2":"坂井東"},"9502263":{"post_code":"9502263","prefecture":"NIIGATA KEN","city":"NIIGATA SHI NISHI KU","town":"SAKATA","perfecture_jp":"新潟県","jp_add_1":"新潟市西区","jp_add_2":"坂田"},"9502034":{"post_code":"9502034","prefecture":"NIIGATA KEN","city":"NIIGATA SHI NISHI KU","town":"SHINDEN","perfecture_jp":"新潟県","jp_add_1":"新潟市西区","jp_add_2":"新田"},"9502035":{"post_code":"9502035","prefecture":"NIIGATA KEN","city":"NIIGATA SHI NISHI KU","town":"SHINDORI","perfecture_jp":"新潟県","jp_add_1":"新潟市西区","jp_add_2":"新通"},"9502036":{"post_code":"9502036","prefecture":"NIIGATA KEN","city":"NIIGATA SHI NISHI KU","town":"SHINDORINISHI","perfecture_jp":"新潟県","jp_add_1":"新潟市西区","jp_add_2":"新通西"},"9502038":{"post_code":"9502038","prefecture":"NIIGATA KEN","city":"NIIGATA SHI NISHI KU","town":"SHINDORIMINAMI","perfecture_jp":"新潟県","jp_add_1":"新潟市西区","jp_add_2":"新通南"},"9502163":{"post_code":"9502163","prefecture":"NIIGATA KEN","city":"NIIGATA SHI NISHI KU","town":"SHINNAKAHAMA","perfecture_jp":"新潟県","jp_add_1":"新潟市西区","jp_add_2":"新中浜"},"9502043":{"post_code":"9502043","prefecture":"NIIGATA KEN","city":"NIIGATA SHI NISHI KU","town":"SUGA","perfecture_jp":"新潟県","jp_add_1":"新潟市西区","jp_add_2":"須賀"},"9501102":{"post_code":"9501102","prefecture":"NIIGATA KEN","city":"NIIGATA SHI NISHI KU","town":"ZENKU","perfecture_jp":"新潟県","jp_add_1":"新潟市西区","jp_add_2":"善久"},"9502144":{"post_code":"9502144","prefecture":"NIIGATA KEN","city":"NIIGATA SHI NISHI KU","town":"SOWA","perfecture_jp":"新潟県","jp_add_1":"新潟市西区","jp_add_2":"曽和"},"9502111":{"post_code":"9502111","prefecture":"NIIGATA KEN","city":"NIIGATA SHI NISHI KU","town":"DAIGAKUMINAMI","perfecture_jp":"新潟県","jp_add_1":"新潟市西区","jp_add_2":"大学南"},"9502124":{"post_code":"9502124","prefecture":"NIIGATA KEN","city":"NIIGATA SHI NISHI KU","town":"TAGATA","perfecture_jp":"新潟県","jp_add_1":"新潟市西区","jp_add_2":"田潟"},"9502122":{"post_code":"9502122","prefecture":"NIIGATA KEN","city":"NIIGATA SHI NISHI KU","town":"TAKAYAMA","perfecture_jp":"新潟県","jp_add_1":"新潟市西区","jp_add_2":"高山"},"9502145":{"post_code":"9502145","prefecture":"NIIGATA KEN","city":"NIIGATA SHI NISHI KU","town":"TAJIMA","perfecture_jp":"新潟県","jp_add_1":"新潟市西区","jp_add_2":"田島"},"9501103":{"post_code":"9501103","prefecture":"NIIGATA KEN","city":"NIIGATA SHI NISHI KU","town":"TACHIBOTOKE","perfecture_jp":"新潟県","jp_add_1":"新潟市西区","jp_add_2":"立仏"},"9502251":{"post_code":"9502251","prefecture":"NIIGATA KEN","city":"NIIGATA SHI NISHI KU","town":"CHUGONJI","perfecture_jp":"新潟県","jp_add_1":"新潟市西区","jp_add_2":"中権寺"},"9502052":{"post_code":"9502052","prefecture":"NIIGATA KEN","city":"NIIGATA SHI NISHI KU","town":"TERAO","perfecture_jp":"新潟県","jp_add_1":"新潟市西区","jp_add_2":"寺尾"},"9502051":{"post_code":"9502051","prefecture":"NIIGATA KEN","city":"NIIGATA SHI NISHI KU","town":"TERAOASAHIDORI","perfecture_jp":"新潟県","jp_add_1":"新潟市西区","jp_add_2":"寺尾朝日通"},"9502055":{"post_code":"9502055","prefecture":"NIIGATA KEN","city":"NIIGATA SHI NISHI KU","town":"TERAOKAMI","perfecture_jp":"新潟県","jp_add_1":"新潟市西区","jp_add_2":"寺尾上"},"9502061":{"post_code":"9502061","prefecture":"NIIGATA KEN","city":"NIIGATA SHI NISHI KU","town":"TERAOKITA","perfecture_jp":"新潟県","jp_add_1":"新潟市西区","jp_add_2":"寺尾北"},"9502063":{"post_code":"9502063","prefecture":"NIIGATA KEN","city":"NIIGATA SHI NISHI KU","town":"TERAODAI","perfecture_jp":"新潟県","jp_add_1":"新潟市西区","jp_add_2":"寺尾台"},"9502062":{"post_code":"9502062","prefecture":"NIIGATA KEN","city":"NIIGATA SHI NISHI KU","town":"TERAOCHUOKOEN","perfecture_jp":"新潟県","jp_add_1":"新潟市西区","jp_add_2":"寺尾中央公園"},"9502064":{"post_code":"9502064","prefecture":"NIIGATA KEN","city":"NIIGATA SHI NISHI KU","town":"TERAONISHI","perfecture_jp":"新潟県","jp_add_1":"新潟市西区","jp_add_2":"寺尾西"},"9502054":{"post_code":"9502054","prefecture":"NIIGATA KEN","city":"NIIGATA SHI NISHI KU","town":"TERAOHIGASHI","perfecture_jp":"新潟県","jp_add_1":"新潟市西区","jp_add_2":"寺尾東"},"9502053":{"post_code":"9502053","prefecture":"NIIGATA KEN","city":"NIIGATA SHI NISHI KU","town":"TERAOMAEDORI","perfecture_jp":"新潟県","jp_add_1":"新潟市西区","jp_add_2":"寺尾前通"},"9501104":{"post_code":"9501104","prefecture":"NIIGATA KEN","city":"NIIGATA SHI NISHI KU","town":"TERAJI","perfecture_jp":"新潟県","jp_add_1":"新潟市西区","jp_add_2":"寺地"},"9502147":{"post_code":"9502147","prefecture":"NIIGATA KEN","city":"NIIGATA SHI NISHI KU","town":"DOGAWARA","perfecture_jp":"新潟県","jp_add_1":"新潟市西区","jp_add_2":"道河原"},"9502262":{"post_code":"9502262","prefecture":"NIIGATA KEN","city":"NIIGATA SHI NISHI KU","town":"TOZOSHINDEN","perfecture_jp":"新潟県","jp_add_1":"新潟市西区","jp_add_2":"藤蔵新田"},"9501106":{"post_code":"9501106","prefecture":"NIIGATA KEN","city":"NIIGATA SHI NISHI KU","town":"TOKIMEKINISHI","perfecture_jp":"新潟県","jp_add_1":"新潟市西区","jp_add_2":"ときめき西"},"9501105":{"post_code":"9501105","prefecture":"NIIGATA KEN","city":"NIIGATA SHI NISHI KU","town":"TOKIMEKIHIGASHI","perfecture_jp":"新潟県","jp_add_1":"新潟市西区","jp_add_2":"ときめき東"},"9501115":{"post_code":"9501115","prefecture":"NIIGATA KEN","city":"NIIGATA SHI NISHI KU","town":"TOPPARA","perfecture_jp":"新潟県","jp_add_1":"新潟市西区","jp_add_2":"鳥原"},"9501113":{"post_code":"9501113","prefecture":"NIIGATA KEN","city":"NIIGATA SHI NISHI KU","town":"TOPPARASHINDEN","perfecture_jp":"新潟県","jp_add_1":"新潟市西区","jp_add_2":"鳥原新田"},"9502125":{"post_code":"9502125","prefecture":"NIIGATA KEN","city":"NIIGATA SHI NISHI KU","town":"NAKANOKOYA","perfecture_jp":"新潟県","jp_add_1":"新潟市西区","jp_add_2":"中野小屋"},"9502071":{"post_code":"9502071","prefecture":"NIIGATA KEN","city":"NIIGATA SHI NISHI KU","town":"NISHIARIAKECHO","perfecture_jp":"新潟県","jp_add_1":"新潟市西区","jp_add_2":"西有明町"},"9502015":{"post_code":"9502015","prefecture":"NIIGATA KEN","city":"NIIGATA SHI NISHI KU","town":"NISHIKOBARIDAI","perfecture_jp":"新潟県","jp_add_1":"新潟市西区","jp_add_2":"西小針台"},"9502131":{"post_code":"9502131","prefecture":"NIIGATA KEN","city":"NIIGATA SHI NISHI KU","town":"HAYAGATA","perfecture_jp":"新潟県","jp_add_1":"新潟市西区","jp_add_2":"早潟"},"9502003":{"post_code":"9502003","prefecture":"NIIGATA KEN","city":"NIIGATA SHI NISHI KU","town":"HIGASHIAOYAMA","perfecture_jp":"新潟県","jp_add_1":"新潟市西区","jp_add_2":"東青山"},"9502254":{"post_code":"9502254","prefecture":"NIIGATA KEN","city":"NIIGATA SHI NISHI KU","town":"HIGASHIYAMA","perfecture_jp":"新潟県","jp_add_1":"新潟市西区","jp_add_2":"東山"},"9502138":{"post_code":"9502138","prefecture":"NIIGATA KEN","city":"NIIGATA SHI NISHI KU","town":"FUJINOKI","perfecture_jp":"新潟県","jp_add_1":"新潟市西区","jp_add_2":"藤野木"},"9502004":{"post_code":"9502004","prefecture":"NIIGATA KEN","city":"NIIGATA SHI NISHI KU","town":"HEIJIMA","perfecture_jp":"新潟県","jp_add_1":"新潟市西区","jp_add_2":"平島"},"9502134":{"post_code":"9502134","prefecture":"NIIGATA KEN","city":"NIIGATA SHI NISHI KU","town":"HOKONOKI","perfecture_jp":"新潟県","jp_add_1":"新潟市西区","jp_add_2":"保古野木"},"9502133":{"post_code":"9502133","prefecture":"NIIGATA KEN","city":"NIIGATA SHI NISHI KU","town":"MAENOSOTOSHINDEN","perfecture_jp":"新潟県","jp_add_1":"新潟市西区","jp_add_2":"前野外新田"},"9502121":{"post_code":"9502121","prefecture":"NIIGATA KEN","city":"NIIGATA SHI NISHI KU","town":"MAKIO","perfecture_jp":"新潟県","jp_add_1":"新潟市西区","jp_add_2":"槇尾"},"9502074":{"post_code":"9502074","prefecture":"NIIGATA KEN","city":"NIIGATA SHI NISHI KU","town":"MASAGO","perfecture_jp":"新潟県","jp_add_1":"新潟市西区","jp_add_2":"真砂"},"9502075":{"post_code":"9502075","prefecture":"NIIGATA KEN","city":"NIIGATA SHI NISHI KU","town":"MATSUMIGAOKA","perfecture_jp":"新潟県","jp_add_1":"新潟市西区","jp_add_2":"松海が丘"},"9502072":{"post_code":"9502072","prefecture":"NIIGATA KEN","city":"NIIGATA SHI NISHI KU","town":"MATSUMIDAI","perfecture_jp":"新潟県","jp_add_1":"新潟市西区","jp_add_2":"松美台"},"9502032":{"post_code":"9502032","prefecture":"NIIGATA KEN","city":"NIIGATA SHI NISHI KU","town":"MATOBARYUTSU","perfecture_jp":"新潟県","jp_add_1":"新潟市西区","jp_add_2":"的場流通"},"9502264":{"post_code":"9502264","prefecture":"NIIGATA KEN","city":"NIIGATA SHI NISHI KU","town":"MIZUKINO","perfecture_jp":"新潟県","jp_add_1":"新潟市西区","jp_add_2":"みずき野"},"9502135":{"post_code":"9502135","prefecture":"NIIGATA KEN","city":"NIIGATA SHI NISHI KU","town":"MYODEN","perfecture_jp":"新潟県","jp_add_1":"新潟市西区","jp_add_2":"明田"},"9502252":{"post_code":"9502252","prefecture":"NIIGATA KEN","city":"NIIGATA SHI NISHI KU","town":"YACHI","perfecture_jp":"新潟県","jp_add_1":"新潟市西区","jp_add_2":"谷内"},"9502256":{"post_code":"9502256","prefecture":"NIIGATA KEN","city":"NIIGATA SHI NISHI KU","town":"YAMAZAKI","perfecture_jp":"新潟県","jp_add_1":"新潟市西区","jp_add_2":"山崎"},"9501101":{"post_code":"9501101","prefecture":"NIIGATA KEN","city":"NIIGATA SHI NISHI KU","town":"YAMADA","perfecture_jp":"新潟県","jp_add_1":"新潟市西区","jp_add_2":"山田"},"9502201":{"post_code":"9502201","prefecture":"NIIGATA KEN","city":"NIIGATA SHI NISHI KU","town":"YOTSUGOYA","perfecture_jp":"新潟県","jp_add_1":"新潟市西区","jp_add_2":"四ツ郷屋"},"9501125":{"post_code":"9501125","prefecture":"NIIGATA KEN","city":"NIIGATA SHI NISHI KU","town":"RYUTSU","perfecture_jp":"新潟県","jp_add_1":"新潟市西区","jp_add_2":"流通"},"9502031":{"post_code":"9502031","prefecture":"NIIGATA KEN","city":"NIIGATA SHI NISHI KU","town":"RYUTSUSENTA","perfecture_jp":"新潟県","jp_add_1":"新潟市西区","jp_add_2":"流通センター"},"9501348":{"post_code":"9501348","prefecture":"NIIGATA KEN","city":"NIIGATA SHI NISHIKAN KU","town":"UCHIKOSHI","perfecture_jp":"新潟県","jp_add_1":"新潟市西蒲区","jp_add_2":"打越"},"9501347":{"post_code":"9501347","prefecture":"NIIGATA KEN","city":"NIIGATA SHI NISHIKAN KU","town":"UBAJIMA","perfecture_jp":"新潟県","jp_add_1":"新潟市西蒲区","jp_add_2":"姥島"},"9501333":{"post_code":"9501333","prefecture":"NIIGATA KEN","city":"NIIGATA SHI NISHIKAN KU","town":"KATAURASHIN","perfecture_jp":"新潟県","jp_add_1":"新潟市西蒲区","jp_add_2":"潟浦新"},"9501334":{"post_code":"9501334","prefecture":"NIIGATA KEN","city":"NIIGATA SHI NISHIKAN KU","town":"KAMIKOYOSHI","perfecture_jp":"新潟県","jp_add_1":"新潟市西蒲区","jp_add_2":"上小吉"},"9501324":{"post_code":"9501324","prefecture":"NIIGATA KEN","city":"NIIGATA SHI NISHIKAN KU","town":"KONOMIYA","perfecture_jp":"新潟県","jp_add_1":"新潟市西蒲区","jp_add_2":"高野宮"},"9501342":{"post_code":"9501342","prefecture":"NIIGATA KEN","city":"NIIGATA SHI NISHIKAN KU","town":"KOMA","perfecture_jp":"新潟県","jp_add_1":"新潟市西蒲区","jp_add_2":"河間"},"9501325":{"post_code":"9501325","prefecture":"NIIGATA KEN","city":"NIIGATA SHI NISHIKAN KU","town":"KOYOSHI","perfecture_jp":"新潟県","jp_add_1":"新潟市西蒲区","jp_add_2":"小吉"},"9501341":{"post_code":"9501341","prefecture":"NIIGATA KEN","city":"NIIGATA SHI NISHIKAN KU","town":"DOJO","perfecture_jp":"新潟県","jp_add_1":"新潟市西蒲区","jp_add_2":"道上"},"9501327":{"post_code":"9501327","prefecture":"NIIGATA KEN","city":"NIIGATA SHI NISHIKAN KU","town":"NAKANOKUCHI","perfecture_jp":"新潟県","jp_add_1":"新潟市西蒲区","jp_add_2":"中之口"},"9501332":{"post_code":"9501332","prefecture":"NIIGATA KEN","city":"NIIGATA SHI NISHIKAN KU","town":"NAGABA","perfecture_jp":"新潟県","jp_add_1":"新潟市西蒲区","jp_add_2":"長場"},"9501345":{"post_code":"9501345","prefecture":"NIIGATA KEN","city":"NIIGATA SHI NISHIKAN KU","town":"HAGURO","perfecture_jp":"新潟県","jp_add_1":"新潟市西蒲区","jp_add_2":"羽黒"},"9501321":{"post_code":"9501321","prefecture":"NIIGATA KEN","city":"NIIGATA SHI NISHIKAN KU","town":"HARIGASONE","perfecture_jp":"新潟県","jp_add_1":"新潟市西蒲区","jp_add_2":"針ケ曽根"},"9501323":{"post_code":"9501323","prefecture":"NIIGATA KEN","city":"NIIGATA SHI NISHIKAN KU","town":"HIGASHIKOYOSHI","perfecture_jp":"新潟県","jp_add_1":"新潟市西蒲区","jp_add_2":"東小吉"},"9501331":{"post_code":"9501331","prefecture":"NIIGATA KEN","city":"NIIGATA SHI NISHIKAN KU","town":"HIGASHINAKA","perfecture_jp":"新潟県","jp_add_1":"新潟市西蒲区","jp_add_2":"東中"},"9501326":{"post_code":"9501326","prefecture":"NIIGATA KEN","city":"NIIGATA SHI NISHIKAN KU","town":"HIGASHIFUNAKOSHI","perfecture_jp":"新潟県","jp_add_1":"新潟市西蒲区","jp_add_2":"東船越"},"9501346":{"post_code":"9501346","prefecture":"NIIGATA KEN","city":"NIIGATA SHI NISHIKAN KU","town":"MAKI","perfecture_jp":"新潟県","jp_add_1":"新潟市西蒲区","jp_add_2":"真木"},"9501349":{"post_code":"9501349","prefecture":"NIIGATA KEN","city":"NIIGATA SHI NISHIKAN KU","town":"MAKIGASHIMA","perfecture_jp":"新潟県","jp_add_1":"新潟市西蒲区","jp_add_2":"牧ケ島"},"9501343":{"post_code":"9501343","prefecture":"NIIGATA KEN","city":"NIIGATA SHI NISHIKAN KU","town":"MITSUKADO","perfecture_jp":"新潟県","jp_add_1":"新潟市西蒲区","jp_add_2":"三ツ門"},"9501328":{"post_code":"9501328","prefecture":"NIIGATA KEN","city":"NIIGATA SHI NISHIKAN KU","town":"MONTA","perfecture_jp":"新潟県","jp_add_1":"新潟市西蒲区","jp_add_2":"門田"},"9501322":{"post_code":"9501322","prefecture":"NIIGATA KEN","city":"NIIGATA SHI NISHIKAN KU","town":"ROKUBU","perfecture_jp":"新潟県","jp_add_1":"新潟市西蒲区","jp_add_2":"六分"}}