{"9518037":{"post_code":"9518037","prefecture":"NIIGATA KEN","city":"NIIGATA SHI CHUO KU","town":"AIOICHO","perfecture_jp":"新潟県","jp_add_1":"新潟市中央区","jp_add_2":"相生町"},"9518025":{"post_code":"9518025","prefecture":"NIIGATA KEN","city":"NIIGATA SHI CHUO KU","town":"AKASAKACHO","perfecture_jp":"新潟県","jp_add_1":"新潟市中央区","jp_add_2":"赤坂町"},"9518021":{"post_code":"9518021","prefecture":"NIIGATA KEN","city":"NIIGATA SHI CHUO KU","town":"AKEBONOCHO","perfecture_jp":"新潟県","jp_add_1":"新潟市中央区","jp_add_2":"曙町"},"9518122":{"post_code":"9518122","prefecture":"NIIGATA KEN","city":"NIIGATA SHI CHUO KU","town":"ASAHIMACHIDORI","perfecture_jp":"新潟県","jp_add_1":"新潟市中央区","jp_add_2":"旭町通"},"9518146":{"post_code":"9518146","prefecture":"NIIGATA KEN","city":"NIIGATA SHI CHUO KU","town":"ARIAKEOHASHICHO","perfecture_jp":"新潟県","jp_add_1":"新潟市中央区","jp_add_2":"有明大橋町"},"9518145":{"post_code":"9518145","prefecture":"NIIGATA KEN","city":"NIIGATA SHI CHUO KU","town":"ARIAKEDAI","perfecture_jp":"新潟県","jp_add_1":"新潟市中央区","jp_add_2":"有明台"},"9518124":{"post_code":"9518124","prefecture":"NIIGATA KEN","city":"NIIGATA SHI CHUO KU","town":"IGAKUCHODORI","perfecture_jp":"新潟県","jp_add_1":"新潟市中央区","jp_add_2":"医学町通"},"9518055":{"post_code":"9518055","prefecture":"NIIGATA KEN","city":"NIIGATA SHI CHUO KU","town":"ISHIZUECHODORI","perfecture_jp":"新潟県","jp_add_1":"新潟市中央区","jp_add_2":"礎町通"},"9518054":{"post_code":"9518054","prefecture":"NIIGATA KEN","city":"NIIGATA SHI CHUO KU","town":"ISHIZUECHODORI KAMIICHINOCHO","perfecture_jp":"新潟県","jp_add_1":"新潟市中央区","jp_add_2":"礎町通上一ノ町"},"9518132":{"post_code":"9518132","prefecture":"NIIGATA KEN","city":"NIIGATA SHI CHUO KU","town":"ICHIBAMBORIDORICHO","perfecture_jp":"新潟県","jp_add_1":"新潟市中央区","jp_add_2":"一番堀通町"},"9518018":{"post_code":"9518018","prefecture":"NIIGATA KEN","city":"NIIGATA SHI CHUO KU","town":"INARIMACHI","perfecture_jp":"新潟県","jp_add_1":"新潟市中央区","jp_add_2":"稲荷町"},"9518011":{"post_code":"9518011","prefecture":"NIIGATA KEN","city":"NIIGATA SHI CHUO KU","town":"IRIFUNECHO","perfecture_jp":"新潟県","jp_add_1":"新潟市中央区","jp_add_2":"入船町"},"9518074":{"post_code":"9518074","prefecture":"NIIGATA KEN","city":"NIIGATA SHI CHUO KU","town":"IWAIMACHI","perfecture_jp":"新潟県","jp_add_1":"新潟市中央区","jp_add_2":"祝町"},"9518072":{"post_code":"9518072","prefecture":"NIIGATA KEN","city":"NIIGATA SHI CHUO KU","town":"UKISUCHO","perfecture_jp":"新潟県","jp_add_1":"新潟市中央区","jp_add_2":"浮洲町"},"9518001":{"post_code":"9518001","prefecture":"NIIGATA KEN","city":"NIIGATA SHI CHUO KU","town":"UMIBECHO","perfecture_jp":"新潟県","jp_add_1":"新潟市中央区","jp_add_2":"海辺町"},"9518114":{"post_code":"9518114","prefecture":"NIIGATA KEN","city":"NIIGATA SHI CHUO KU","town":"EISHODORI","perfecture_jp":"新潟県","jp_add_1":"新潟市中央区","jp_add_2":"営所通"},"9518077":{"post_code":"9518077","prefecture":"NIIGATA KEN","city":"NIIGATA SHI CHUO KU","town":"EBOSHICHO","perfecture_jp":"新潟県","jp_add_1":"新潟市中央区","jp_add_2":"烏帽子町"},"9518076":{"post_code":"9518076","prefecture":"NIIGATA KEN","city":"NIIGATA SHI CHUO KU","town":"OKINAMACHI","perfecture_jp":"新潟県","jp_add_1":"新潟市中央区","jp_add_2":"翁町"},"9518125":{"post_code":"9518125","prefecture":"NIIGATA KEN","city":"NIIGATA SHI CHUO KU","town":"GAKKOURAMACHI","perfecture_jp":"新潟県","jp_add_1":"新潟市中央区","jp_add_2":"学校裏町"},"9518126":{"post_code":"9518126","prefecture":"NIIGATA KEN","city":"NIIGATA SHI CHUO KU","town":"GAKKOCHODORI","perfecture_jp":"新潟県","jp_add_1":"新潟市中央区","jp_add_2":"学校町通"},"9518068":{"post_code":"9518068","prefecture":"NIIGATA KEN","city":"NIIGATA SHI CHUO KU","town":"KAMIOKAWAMAEDORI","perfecture_jp":"新潟県","jp_add_1":"新潟市中央区","jp_add_2":"上大川前通"},"9518133":{"post_code":"9518133","prefecture":"NIIGATA KEN","city":"NIIGATA SHI CHUO KU","town":"KAWAGISHICHO","perfecture_jp":"新潟県","jp_add_1":"新潟市中央区","jp_add_2":"川岸町"},"9518053":{"post_code":"9518053","prefecture":"NIIGATA KEN","city":"NIIGATA SHI CHUO KU","town":"KAWABATACHO","perfecture_jp":"新潟県","jp_add_1":"新潟市中央区","jp_add_2":"川端町"},"9518105":{"post_code":"9518105","prefecture":"NIIGATA KEN","city":"NIIGATA SHI CHUO KU","town":"KITAOHATACHO","perfecture_jp":"新潟県","jp_add_1":"新潟市中央区","jp_add_2":"北大畑町"},"9518048":{"post_code":"9518048","prefecture":"NIIGATA KEN","city":"NIIGATA SHI CHUO KU","town":"KITATAMONCHO","perfecture_jp":"新潟県","jp_add_1":"新潟市中央区","jp_add_2":"北多門町"},"9518111":{"post_code":"9518111","prefecture":"NIIGATA KEN","city":"NIIGATA SHI CHUO KU","town":"KITAHAMADORI","perfecture_jp":"新潟県","jp_add_1":"新潟市中央区","jp_add_2":"北浜通"},"9518031":{"post_code":"9518031","prefecture":"NIIGATA KEN","city":"NIIGATA SHI CHUO KU","town":"KITABISHAMONCHO","perfecture_jp":"新潟県","jp_add_1":"新潟市中央区","jp_add_2":"北毘沙門町"},"9518081":{"post_code":"9518081","prefecture":"NIIGATA KEN","city":"NIIGATA SHI CHUO KU","town":"KIFUCHO","perfecture_jp":"新潟県","jp_add_1":"新潟市中央区","jp_add_2":"寄附町"},"9518008":{"post_code":"9518008","prefecture":"NIIGATA KEN","city":"NIIGATA SHI CHUO KU","town":"KUBOTAMACHI","perfecture_jp":"新潟県","jp_add_1":"新潟市中央区","jp_add_2":"窪田町"},"9518073":{"post_code":"9518073","prefecture":"NIIGATA KEN","city":"NIIGATA SHI CHUO KU","town":"KOTOBUKICHO","perfecture_jp":"新潟県","jp_add_1":"新潟市中央区","jp_add_2":"寿町"},"9518071":{"post_code":"9518071","prefecture":"NIIGATA KEN","city":"NIIGATA SHI CHUO KU","town":"SAKAEMACHI","perfecture_jp":"新潟県","jp_add_1":"新潟市中央区","jp_add_2":"栄町"},"9518034":{"post_code":"9518034","prefecture":"NIIGATA KEN","city":"NIIGATA SHI CHUO KU","town":"SAKIGAKECHO","perfecture_jp":"新潟県","jp_add_1":"新潟市中央区","jp_add_2":"魁町"},"9518156":{"post_code":"9518156","prefecture":"NIIGATA KEN","city":"NIIGATA SHI CHUO KU","town":"SHIOMIDAI","perfecture_jp":"新潟県","jp_add_1":"新潟市中央区","jp_add_2":"汐見台"},"9518152":{"post_code":"9518152","prefecture":"NIIGATA KEN","city":"NIIGATA SHI CHUO KU","town":"SHINANOMACHI","perfecture_jp":"新潟県","jp_add_1":"新潟市中央区","jp_add_2":"信濃町"},"9518123":{"post_code":"9518123","prefecture":"NIIGATA KEN","city":"NIIGATA SHI CHUO KU","town":"SHIMOASAHIMACHI","perfecture_jp":"新潟県","jp_add_1":"新潟市中央区","jp_add_2":"下旭町"},"9518052":{"post_code":"9518052","prefecture":"NIIGATA KEN","city":"NIIGATA SHI CHUO KU","town":"SHIMOOKAWAMAEDORI","perfecture_jp":"新潟県","jp_add_1":"新潟市中央区","jp_add_2":"下大川前通"},"9518051":{"post_code":"9518051","prefecture":"NIIGATA KEN","city":"NIIGATA SHI CHUO KU","town":"SHINSHIMACHODORI","perfecture_jp":"新潟県","jp_add_1":"新潟市中央区","jp_add_2":"新島町通"},"9518121":{"post_code":"9518121","prefecture":"NIIGATA KEN","city":"NIIGATA SHI CHUO KU","town":"SUIDOCHO","perfecture_jp":"新潟県","jp_add_1":"新潟市中央区","jp_add_2":"水道町"},"9518088":{"post_code":"9518088","prefecture":"NIIGATA KEN","city":"NIIGATA SHI CHUO KU","town":"SUGANECHO","perfecture_jp":"新潟県","jp_add_1":"新潟市中央区","jp_add_2":"菅根町"},"9518042":{"post_code":"9518042","prefecture":"NIIGATA KEN","city":"NIIGATA SHI CHUO KU","town":"SUMIYOSHICHO","perfecture_jp":"新潟県","jp_add_1":"新潟市中央区","jp_add_2":"住吉町"},"9518141":{"post_code":"9518141","prefecture":"NIIGATA KEN","city":"NIIGATA SHI CHUO KU","town":"SEKISHIN","perfecture_jp":"新潟県","jp_add_1":"新潟市中央区","jp_add_2":"関新"},"9518144":{"post_code":"9518144","prefecture":"NIIGATA KEN","city":"NIIGATA SHI CHUO KU","town":"SEKINAMICHO","perfecture_jp":"新潟県","jp_add_1":"新潟市中央区","jp_add_2":"関南町"},"9518134":{"post_code":"9518134","prefecture":"NIIGATA KEN","city":"NIIGATA SHI NISHI KU","town":"SEKIYA","perfecture_jp":"新潟県","jp_add_1":"新潟市中央区","jp_add_2":"関屋"},"9518142":{"post_code":"9518142","prefecture":"NIIGATA KEN","city":"NIIGATA SHI CHUO KU","town":"SEKIYAOKAWAMAE","perfecture_jp":"新潟県","jp_add_1":"新潟市中央区","jp_add_2":"関屋大川前"},"9518163":{"post_code":"9518163","prefecture":"NIIGATA KEN","city":"NIIGATA SHI CHUO KU","town":"SEKIYAOFUNAGURACHO","perfecture_jp":"新潟県","jp_add_1":"新潟市中央区","jp_add_2":"関屋御船蔵町"},"9518165":{"post_code":"9518165","prefecture":"NIIGATA KEN","city":"NIIGATA SHI CHUO KU","town":"SEKIYAKANABACHIYAMACHO","perfecture_jp":"新潟県","jp_add_1":"新潟市中央区","jp_add_2":"関屋金鉢山町"},"9518167":{"post_code":"9518167","prefecture":"NIIGATA KEN","city":"NIIGATA SHI CHUO KU","town":"SEKIYAKINEICHO","perfecture_jp":"新潟県","jp_add_1":"新潟市中央区","jp_add_2":"関屋金衛町"},"9518127":{"post_code":"9518127","prefecture":"NIIGATA KEN","city":"NIIGATA SHI CHUO KU","town":"SEKIYASHIMOKAWARACHO","perfecture_jp":"新潟県","jp_add_1":"新潟市中央区","jp_add_2":"関屋下川原町"},"9518164":{"post_code":"9518164","prefecture":"NIIGATA KEN","city":"NIIGATA SHI CHUO KU","town":"SEKIYASHOWACHO","perfecture_jp":"新潟県","jp_add_1":"新潟市中央区","jp_add_2":"関屋昭和町"},"9518135":{"post_code":"9518135","prefecture":"NIIGATA KEN","city":"NIIGATA SHI CHUO KU","town":"SEKIYASHIMMACHIDORI","perfecture_jp":"新潟県","jp_add_1":"新潟市中央区","jp_add_2":"関屋新町通"},"9518136":{"post_code":"9518136","prefecture":"NIIGATA KEN","city":"NIIGATA SHI CHUO KU","town":"SEKIYATAMACHI","perfecture_jp":"新潟県","jp_add_1":"新潟市中央区","jp_add_2":"関屋田町"},"9518166":{"post_code":"9518166","prefecture":"NIIGATA KEN","city":"NIIGATA SHI CHUO KU","town":"SEKIYAHAMAMATSUCHO","perfecture_jp":"新潟県","jp_add_1":"新潟市中央区","jp_add_2":"関屋浜松町"},"9518162":{"post_code":"9518162","prefecture":"NIIGATA KEN","city":"NIIGATA SHI CHUO KU","town":"SEKIYAHONSONCHO","perfecture_jp":"新潟県","jp_add_1":"新潟市中央区","jp_add_2":"関屋本村町"},"9518161":{"post_code":"9518161","prefecture":"NIIGATA KEN","city":"NIIGATA SHI CHUO KU","town":"SEKIYAMATSUNAMICHO","perfecture_jp":"新潟県","jp_add_1":"新潟市中央区","jp_add_2":"関屋松波町"},"9518143":{"post_code":"9518143","prefecture":"NIIGATA KEN","city":"NIIGATA SHI CHUO KU","town":"SEKIYAMEGUMICHO","perfecture_jp":"新潟県","jp_add_1":"新潟市中央区","jp_add_2":"関屋恵町"},"9518103":{"post_code":"9518103","prefecture":"NIIGATA KEN","city":"NIIGATA SHI CHUO KU","town":"TANAKAMACHI","perfecture_jp":"新潟県","jp_add_1":"新潟市中央区","jp_add_2":"田中町"},"9518016":{"post_code":"9518016","prefecture":"NIIGATA KEN","city":"NIIGATA SHI CHUO KU","town":"TAMACHI","perfecture_jp":"新潟県","jp_add_1":"新潟市中央区","jp_add_2":"田町"},"9518007":{"post_code":"9518007","prefecture":"NIIGATA KEN","city":"NIIGATA SHI CHUO KU","town":"CHUZOMACHI","perfecture_jp":"新潟県","jp_add_1":"新潟市中央区","jp_add_2":"忠蔵町"},"9518057":{"post_code":"9518057","prefecture":"NIIGATA KEN","city":"NIIGATA SHI CHUO KU","town":"TSUKICHO","perfecture_jp":"新潟県","jp_add_1":"新潟市中央区","jp_add_2":"月町"},"9518006":{"post_code":"9518006","prefecture":"NIIGATA KEN","city":"NIIGATA SHI CHUO KU","town":"TSUKEFUNECHO","perfecture_jp":"新潟県","jp_add_1":"新潟市中央区","jp_add_2":"附船町"},"9518115":{"post_code":"9518115","prefecture":"NIIGATA KEN","city":"NIIGATA SHI CHUO KU","town":"TERAURADORI","perfecture_jp":"新潟県","jp_add_1":"新潟市中央区","jp_add_2":"寺裏通"},"9518085":{"post_code":"9518085","prefecture":"NIIGATA KEN","city":"NIIGATA SHI CHUO KU","town":"TERAYAMACHO","perfecture_jp":"新潟県","jp_add_1":"新潟市中央区","jp_add_2":"寺山町"},"9518033":{"post_code":"9518033","prefecture":"NIIGATA KEN","city":"NIIGATA SHI CHUO KU","town":"TOYOTERUCHO","perfecture_jp":"新潟県","jp_add_1":"新潟市中央区","jp_add_2":"豊照町"},"9518108":{"post_code":"9518108","prefecture":"NIIGATA KEN","city":"NIIGATA SHI CHUO KU","town":"NAKAOHATACHO","perfecture_jp":"新潟県","jp_add_1":"新潟市中央区","jp_add_2":"中大畑町"},"9518045":{"post_code":"9518045","prefecture":"NIIGATA KEN","city":"NIIGATA SHI CHUO KU","town":"NAMIKICHO","perfecture_jp":"新潟県","jp_add_1":"新潟市中央区","jp_add_2":"並木町"},"9518082":{"post_code":"9518082","prefecture":"NIIGATA KEN","city":"NIIGATA SHI CHUO KU","town":"NISHIUKECHIMACHI","perfecture_jp":"新潟県","jp_add_1":"新潟市中央区","jp_add_2":"西受地町"},"9518043":{"post_code":"9518043","prefecture":"NIIGATA KEN","city":"NIIGATA SHI CHUO KU","town":"NISHIUMAYAJIMACHO","perfecture_jp":"新潟県","jp_add_1":"新潟市中央区","jp_add_2":"西厩島町"},"9518104":{"post_code":"9518104","prefecture":"NIIGATA KEN","city":"NIIGATA SHI CHUO KU","town":"NISHIOHATACHO","perfecture_jp":"新潟県","jp_add_1":"新潟市中央区","jp_add_2":"西大畑町"},"9518118":{"post_code":"9518118","prefecture":"NIIGATA KEN","city":"NIIGATA SHI CHUO KU","town":"NISHINAKAMACHI","perfecture_jp":"新潟県","jp_add_1":"新潟市中央区","jp_add_2":"西中町"},"9518101":{"post_code":"9518101","prefecture":"NIIGATA KEN","city":"NIIGATA SHI CHUO KU","town":"NISHIFUNAMICHO","perfecture_jp":"新潟県","jp_add_1":"新潟市中央区","jp_add_2":"西船見町"},"9518061":{"post_code":"9518061","prefecture":"NIIGATA KEN","city":"NIIGATA SHI CHUO KU","town":"NISHIBORIDORI","perfecture_jp":"新潟県","jp_add_1":"新潟市中央区","jp_add_2":"西堀通"},"9518062":{"post_code":"9518062","prefecture":"NIIGATA KEN","city":"NIIGATA SHI CHUO KU","town":"NISHIBORIMAEDORI","perfecture_jp":"新潟県","jp_add_1":"新潟市中央区","jp_add_2":"西堀前通"},"9518026":{"post_code":"9518026","prefecture":"NIIGATA KEN","city":"NIIGATA SHI CHUO KU","town":"NISHIMINATOMACHIDORI","perfecture_jp":"新潟県","jp_add_1":"新潟市中央区","jp_add_2":"西湊町通"},"9518131":{"post_code":"9518131","prefecture":"NIIGATA KEN","city":"NIIGATA SHI CHUO KU","town":"HAKUSANURA","perfecture_jp":"新潟県","jp_add_1":"新潟市中央区","jp_add_2":"白山浦"},"9518137":{"post_code":"9518137","prefecture":"NIIGATA KEN","city":"NIIGATA SHI CHUO KU","town":"HAKUSANURASHIMMACHIDORI","perfecture_jp":"新潟県","jp_add_1":"新潟市中央区","jp_add_2":"白山浦新町通"},"9518017":{"post_code":"9518017","prefecture":"NIIGATA KEN","city":"NIIGATA SHI CHUO KU","town":"HASHIKEKAWAGISHICHO","perfecture_jp":"新潟県","jp_add_1":"新潟市中央区","jp_add_2":"艀川岸町"},"9518056":{"post_code":"9518056","prefecture":"NIIGATA KEN","city":"NIIGATA SHI CHUO KU","town":"HANACHO","perfecture_jp":"新潟県","jp_add_1":"新潟市中央区","jp_add_2":"花町"},"9518151":{"post_code":"9518151","prefecture":"NIIGATA KEN","city":"NIIGATA SHI CHUO KU","town":"HAMAURACHO","perfecture_jp":"新潟県","jp_add_1":"新潟市中央区","jp_add_2":"浜浦町"},"9518024":{"post_code":"9518024","prefecture":"NIIGATA KEN","city":"NIIGATA SHI CHUO KU","town":"HAYAKAWACHO","perfecture_jp":"新潟県","jp_add_1":"新潟市中央区","jp_add_2":"早川町"},"9518012":{"post_code":"9518012","prefecture":"NIIGATA KEN","city":"NIIGATA SHI CHUO KU","town":"HIGASHIIRIFUNECHO","perfecture_jp":"新潟県","jp_add_1":"新潟市中央区","jp_add_2":"東入船町"},"9518087":{"post_code":"9518087","prefecture":"NIIGATA KEN","city":"NIIGATA SHI CHUO KU","town":"HIGASHIUKECHIMACHI","perfecture_jp":"新潟県","jp_add_1":"新潟市中央区","jp_add_2":"東受地町"},"9518044":{"post_code":"9518044","prefecture":"NIIGATA KEN","city":"NIIGATA SHI CHUO KU","town":"HIGASHIUMAYAJIMACHO","perfecture_jp":"新潟県","jp_add_1":"新潟市中央区","jp_add_2":"東厩島町"},"9518106":{"post_code":"9518106","prefecture":"NIIGATA KEN","city":"NIIGATA SHI CHUO KU","town":"HIGASHIOHATADORI","perfecture_jp":"新潟県","jp_add_1":"新潟市中央区","jp_add_2":"東大畑通"},"9518116":{"post_code":"9518116","prefecture":"NIIGATA KEN","city":"NIIGATA SHI CHUO KU","town":"HIGASHINAKADORI","perfecture_jp":"新潟県","jp_add_1":"新潟市中央区","jp_add_2":"東中通"},"9518065":{"post_code":"9518065","prefecture":"NIIGATA KEN","city":"NIIGATA SHI CHUO KU","town":"HIGASHIBORIDORI","perfecture_jp":"新潟県","jp_add_1":"新潟市中央区","jp_add_2":"東堀通"},"9518066":{"post_code":"9518066","prefecture":"NIIGATA KEN","city":"NIIGATA SHI CHUO KU","town":"HIGASHIBORIMAEDORI","perfecture_jp":"新潟県","jp_add_1":"新潟市中央区","jp_add_2":"東堀前通"},"9518028":{"post_code":"9518028","prefecture":"NIIGATA KEN","city":"NIIGATA SHI CHUO KU","town":"HIGASHIMINATOMACHIDORI","perfecture_jp":"新潟県","jp_add_1":"新潟市中央区","jp_add_2":"東湊町通"},"9518003":{"post_code":"9518003","prefecture":"NIIGATA KEN","city":"NIIGATA SHI CHUO KU","town":"HIBARICHO","perfecture_jp":"新潟県","jp_add_1":"新潟市中央区","jp_add_2":"雲雀町"},"9518102":{"post_code":"9518102","prefecture":"NIIGATA KEN","city":"NIIGATA SHI CHUO KU","town":"FUTABACHO","perfecture_jp":"新潟県","jp_add_1":"新潟市中央区","jp_add_2":"二葉町"},"9518035":{"post_code":"9518035","prefecture":"NIIGATA KEN","city":"NIIGATA SHI CHUO KU","town":"FUNABACHO","perfecture_jp":"新潟県","jp_add_1":"新潟市中央区","jp_add_2":"船場町"},"9518002":{"post_code":"9518002","prefecture":"NIIGATA KEN","city":"NIIGATA SHI CHUO KU","town":"FUNAMICHO","perfecture_jp":"新潟県","jp_add_1":"新潟市中央区","jp_add_2":"船見町"},"9518063":{"post_code":"9518063","prefecture":"NIIGATA KEN","city":"NIIGATA SHI CHUO KU","town":"FURUMACHIDORI","perfecture_jp":"新潟県","jp_add_1":"新潟市中央区","jp_add_2":"古町通"},"9518153":{"post_code":"9518153","prefecture":"NIIGATA KEN","city":"NIIGATA SHI CHUO KU","town":"BUNKYOCHO","perfecture_jp":"新潟県","jp_add_1":"新潟市中央区","jp_add_2":"文京町"},"9518154":{"post_code":"9518154","prefecture":"NIIGATA KEN","city":"NIIGATA SHI CHUO KU","town":"HORIWARICHO","perfecture_jp":"新潟県","jp_add_1":"新潟市中央区","jp_add_2":"堀割町"},"9518067":{"post_code":"9518067","prefecture":"NIIGATA KEN","city":"NIIGATA SHI CHUO KU","town":"HONCHODORI","perfecture_jp":"新潟県","jp_add_1":"新潟市中央区","jp_add_2":"本町通"},"9518041":{"post_code":"9518041","prefecture":"NIIGATA KEN","city":"NIIGATA SHI CHUO KU","town":"HOMMACHO","perfecture_jp":"新潟県","jp_add_1":"新潟市中央区","jp_add_2":"本間町"},"9518046":{"post_code":"9518046","prefecture":"NIIGATA KEN","city":"NIIGATA SHI CHUO KU","town":"MAGUSAKAWAGISHIDORI","perfecture_jp":"新潟県","jp_add_1":"新潟市中央区","jp_add_2":"秣川岸通"},"9518015":{"post_code":"9518015","prefecture":"NIIGATA KEN","city":"NIIGATA SHI CHUO KU","town":"MATSUOKACHO","perfecture_jp":"新潟県","jp_add_1":"新潟市中央区","jp_add_2":"松岡町"},"9518032":{"post_code":"9518032","prefecture":"NIIGATA KEN","city":"NIIGATA SHI CHUO KU","town":"MIKATACHO","perfecture_jp":"新潟県","jp_add_1":"新潟市中央区","jp_add_2":"見方町"},"9518014":{"post_code":"9518014","prefecture":"NIIGATA KEN","city":"NIIGATA SHI CHUO KU","town":"MIDORIMACHI","perfecture_jp":"新潟県","jp_add_1":"新潟市中央区","jp_add_2":"緑町"},"9518027":{"post_code":"9518027","prefecture":"NIIGATA KEN","city":"NIIGATA SHI CHUO KU","town":"MINATOMACHIDORI","perfecture_jp":"新潟県","jp_add_1":"新潟市中央区","jp_add_2":"湊町通"},"9518107":{"post_code":"9518107","prefecture":"NIIGATA KEN","city":"NIIGATA SHI CHUO KU","town":"MINAMIOHATACHO","perfecture_jp":"新潟県","jp_add_1":"新潟市中央区","jp_add_2":"南大畑町"},"9518047":{"post_code":"9518047","prefecture":"NIIGATA KEN","city":"NIIGATA SHI CHUO KU","town":"MINAMITAMONCHO","perfecture_jp":"新潟県","jp_add_1":"新潟市中央区","jp_add_2":"南多門町"},"9518112":{"post_code":"9518112","prefecture":"NIIGATA KEN","city":"NIIGATA SHI CHUO KU","town":"MINAMIHAMADORI","perfecture_jp":"新潟県","jp_add_1":"新潟市中央区","jp_add_2":"南浜通"},"9518038":{"post_code":"9518038","prefecture":"NIIGATA KEN","city":"NIIGATA SHI CHUO KU","town":"MINAMIBISHAMONCHO","perfecture_jp":"新潟県","jp_add_1":"新潟市中央区","jp_add_2":"南毘沙門町"},"9518117":{"post_code":"9518117","prefecture":"NIIGATA KEN","city":"NIIGATA SHI CHUO KU","town":"MINAMIYOKOBORICHO","perfecture_jp":"新潟県","jp_add_1":"新潟市中央区","jp_add_2":"南横堀町"},"9518005":{"post_code":"9518005","prefecture":"NIIGATA KEN","city":"NIIGATA SHI CHUO KU","town":"MUROMACHI","perfecture_jp":"新潟県","jp_add_1":"新潟市中央区","jp_add_2":"室町"},"9518075":{"post_code":"9518075","prefecture":"NIIGATA KEN","city":"NIIGATA SHI CHUO KU","town":"MOTOIWAIMACHI","perfecture_jp":"新潟県","jp_add_1":"新潟市中央区","jp_add_2":"元祝町"},"9518084":{"post_code":"9518084","prefecture":"NIIGATA KEN","city":"NIIGATA SHI CHUO KU","town":"MOTOSHIMOSHIMACHO","perfecture_jp":"新潟県","jp_add_1":"新潟市中央区","jp_add_2":"元下島町"},"9518013":{"post_code":"9518013","prefecture":"NIIGATA KEN","city":"NIIGATA SHI CHUO KU","town":"YANAGISHIMACHO","perfecture_jp":"新潟県","jp_add_1":"新潟市中央区","jp_add_2":"柳島町"},"9518004":{"post_code":"9518004","prefecture":"NIIGATA KEN","city":"NIIGATA SHI CHUO KU","town":"YAMADAMACHI","perfecture_jp":"新潟県","jp_add_1":"新潟市中央区","jp_add_2":"山田町"},"9518147":{"post_code":"9518147","prefecture":"NIIGATA KEN","city":"NIIGATA SHI CHUO KU","town":"YAYOICHO","perfecture_jp":"新潟県","jp_add_1":"新潟市中央区","jp_add_2":"弥生町"},"9518023":{"post_code":"9518023","prefecture":"NIIGATA KEN","city":"NIIGATA SHI CHUO KU","town":"YUEICHO","perfecture_jp":"新潟県","jp_add_1":"新潟市中央区","jp_add_2":"夕栄町"},"9518058":{"post_code":"9518058","prefecture":"NIIGATA KEN","city":"NIIGATA SHI CHUO KU","town":"YUKICHO","perfecture_jp":"新潟県","jp_add_1":"新潟市中央区","jp_add_2":"雪町"},"9518064":{"post_code":"9518064","prefecture":"NIIGATA KEN","city":"NIIGATA SHI CHUO KU","town":"YOKOICHIBANCHO","perfecture_jp":"新潟県","jp_add_1":"新潟市中央区","jp_add_2":"横一番町"},"9518083":{"post_code":"9518083","prefecture":"NIIGATA KEN","city":"NIIGATA SHI CHUO KU","town":"YOKOSHICHIBANCHODORI","perfecture_jp":"新潟県","jp_add_1":"新潟市中央区","jp_add_2":"横七番町通"},"9518022":{"post_code":"9518022","prefecture":"NIIGATA KEN","city":"NIIGATA SHI CHUO KU","town":"YOKOROKUBANCHO","perfecture_jp":"新潟県","jp_add_1":"新潟市中央区","jp_add_2":"横六番町"},"9518036":{"post_code":"9518036","prefecture":"NIIGATA KEN","city":"NIIGATA SHI CHUO KU","town":"YOSHICHO","perfecture_jp":"新潟県","jp_add_1":"新潟市中央区","jp_add_2":"芳町"},"9518078":{"post_code":"9518078","prefecture":"NIIGATA KEN","city":"NIIGATA SHI CHUO KU","town":"YOTSUYACHO","perfecture_jp":"新潟県","jp_add_1":"新潟市中央区","jp_add_2":"四ツ屋町"},"9518086":{"post_code":"9518086","prefecture":"NIIGATA KEN","city":"NIIGATA SHI CHUO KU","town":"YORIAICHO","perfecture_jp":"新潟県","jp_add_1":"新潟市中央区","jp_add_2":"寄合町"},"9518113":{"post_code":"9518113","prefecture":"NIIGATA KEN","city":"NIIGATA SHI CHUO KU","town":"YORIICHO","perfecture_jp":"新潟県","jp_add_1":"新潟市中央区","jp_add_2":"寄居町"},"9518155":{"post_code":"9518155","prefecture":"NIIGATA KEN","city":"NIIGATA SHI NISHI KU","town":"SEKIYAHORIWARICHO","perfecture_jp":"新潟県","jp_add_1":"新潟市西区","jp_add_2":"関屋堀割町"}}