{"9530042":{"post_code":"9530042","prefecture":"NIIGATA KEN","city":"NIIGATA SHI NISHIKAN KU","town":"AKASABI","perfecture_jp":"新潟県","jp_add_1":"新潟市西蒲区","jp_add_2":"赤鏥"},"9530066":{"post_code":"9530066","prefecture":"NIIGATA KEN","city":"NIIGATA SHI NISHIKAN KU","town":"AJIRI","perfecture_jp":"新潟県","jp_add_1":"新潟市西蒲区","jp_add_2":"安尻"},"9530111":{"post_code":"9530111","prefecture":"NIIGATA KEN","city":"NIIGATA SHI NISHIKAN KU","town":"ABURAJIMA","perfecture_jp":"新潟県","jp_add_1":"新潟市西蒲区","jp_add_2":"油島"},"9530116":{"post_code":"9530116","prefecture":"NIIGATA KEN","city":"NIIGATA SHI NISHIKAN KU","town":"ARAYA","perfecture_jp":"新潟県","jp_add_1":"新潟市西蒲区","jp_add_2":"新谷"},"9530141":{"post_code":"9530141","prefecture":"NIIGATA KEN","city":"NIIGATA SHI NISHIKAN KU","town":"ISHIZE","perfecture_jp":"新潟県","jp_add_1":"新潟市西蒲区","jp_add_2":"石瀬"},"9530104":{"post_code":"9530104","prefecture":"NIIGATA KEN","city":"NIIGATA SHI NISHIKAN KU","town":"IWAMURONSEN","perfecture_jp":"新潟県","jp_add_1":"新潟市西蒲区","jp_add_2":"岩室温泉"},"9530117":{"post_code":"9530117","prefecture":"NIIGATA KEN","city":"NIIGATA SHI NISHIKAN KU","town":"UENOSHINDEN","perfecture_jp":"新潟県","jp_add_1":"新潟市西蒲区","jp_add_2":"植野新田"},"9530054":{"post_code":"9530054","prefecture":"NIIGATA KEN","city":"NIIGATA SHI NISHIKAN KU","town":"URUSHIYAMA","perfecture_jp":"新潟県","jp_add_1":"新潟市西蒲区","jp_add_2":"漆山"},"9530012":{"post_code":"9530012","prefecture":"NIIGATA KEN","city":"NIIGATA SHI NISHIKAN KU","town":"ECHIZENHAMA","perfecture_jp":"新潟県","jp_add_1":"新潟市西蒲区","jp_add_2":"越前浜"},"9530055":{"post_code":"9530055","prefecture":"NIIGATA KEN","city":"NIIGATA SHI NISHIKAN KU","town":"KAKIJIMA","perfecture_jp":"新潟県","jp_add_1":"新潟市西蒲区","jp_add_2":"柿島"},"9530011":{"post_code":"9530011","prefecture":"NIIGATA KEN","city":"NIIGATA SHI NISHIKAN KU","town":"KAKUDAHAMA","perfecture_jp":"新潟県","jp_add_1":"新潟市西蒲区","jp_add_2":"角田浜"},"9530077":{"post_code":"9530077","prefecture":"NIIGATA KEN","city":"NIIGATA SHI NISHIKAN KU","town":"KAKUMIHAMA","perfecture_jp":"新潟県","jp_add_1":"新潟市西蒲区","jp_add_2":"角海浜"},"9530067":{"post_code":"9530067","prefecture":"NIIGATA KEN","city":"NIIGATA SHI NISHIKAN KU","town":"GATAGASHIRA","perfecture_jp":"新潟県","jp_add_1":"新潟市西蒲区","jp_add_2":"潟頭"},"9530114":{"post_code":"9530114","prefecture":"NIIGATA KEN","city":"NIIGATA SHI NISHIKAN KU","town":"KATAGAMI","perfecture_jp":"新潟県","jp_add_1":"新潟市西蒲区","jp_add_2":"潟上"},"9530144":{"post_code":"9530144","prefecture":"NIIGATA KEN","city":"NIIGATA SHI NISHIKAN KU","town":"KANAIKE","perfecture_jp":"新潟県","jp_add_1":"新潟市西蒲区","jp_add_2":"金池"},"9530073":{"post_code":"9530073","prefecture":"NIIGATA KEN","city":"NIIGATA SHI NISHIKAN KU","town":"KAMIKIJIMA","perfecture_jp":"新潟県","jp_add_1":"新潟市西蒲区","jp_add_2":"上木島"},"9530051":{"post_code":"9530051","prefecture":"NIIGATA KEN","city":"NIIGATA SHI NISHIKAN KU","town":"KAWAI","perfecture_jp":"新潟県","jp_add_1":"新潟市西蒲区","jp_add_2":"河井"},"9530045":{"post_code":"9530045","prefecture":"NIIGATA KEN","city":"NIIGATA SHI NISHIKAN KU","town":"KIKYOGAOKA","perfecture_jp":"新潟県","jp_add_1":"新潟市西蒲区","jp_add_2":"桔梗ケ丘"},"9530134":{"post_code":"9530134","prefecture":"NIIGATA KEN","city":"NIIGATA SHI NISHIKAN KU","town":"KITANO","perfecture_jp":"新潟県","jp_add_1":"新潟市西蒲区","jp_add_2":"北野"},"9530142":{"post_code":"9530142","prefecture":"NIIGATA KEN","city":"NIIGATA SHI NISHIKAN KU","town":"KUBOTA","perfecture_jp":"新潟県","jp_add_1":"新潟市西蒲区","jp_add_2":"久保田"},"9530078":{"post_code":"9530078","prefecture":"NIIGATA KEN","city":"NIIGATA SHI NISHIKAN KU","town":"GOKAHAMA","perfecture_jp":"新潟県","jp_add_1":"新潟市西蒲区","jp_add_2":"五ケ浜"},"9530102":{"post_code":"9530102","prefecture":"NIIGATA KEN","city":"NIIGATA SHI NISHIKAN KU","town":"SAKAE","perfecture_jp":"新潟県","jp_add_1":"新潟市西蒲区","jp_add_2":"栄"},"9530063":{"post_code":"9530063","prefecture":"NIIGATA KEN","city":"NIIGATA SHI NISHIKAN KU","town":"SAKAECHO","perfecture_jp":"新潟県","jp_add_1":"新潟市西蒲区","jp_add_2":"栄町"},"9530064":{"post_code":"9530064","prefecture":"NIIGATA KEN","city":"NIIGATA SHI NISHIKAN KU","town":"SAKURABAYASHI","perfecture_jp":"新潟県","jp_add_1":"新潟市西蒲区","jp_add_2":"桜林"},"9530143":{"post_code":"9530143","prefecture":"NIIGATA KEN","city":"NIIGATA SHI NISHIKAN KU","town":"SARUGASE","perfecture_jp":"新潟県","jp_add_1":"新潟市西蒲区","jp_add_2":"猿ケ瀬"},"9530071":{"post_code":"9530071","prefecture":"NIIGATA KEN","city":"NIIGATA SHI NISHIKAN KU","town":"SHIMOKIJIMA","perfecture_jp":"新潟県","jp_add_1":"新潟市西蒲区","jp_add_2":"下木島"},"9530065":{"post_code":"9530065","prefecture":"NIIGATA KEN","city":"NIIGATA SHI NISHIKAN KU","town":"SHIMOWANO","perfecture_jp":"新潟県","jp_add_1":"新潟市西蒲区","jp_add_2":"下和納"},"9530136":{"post_code":"9530136","prefecture":"NIIGATA KEN","city":"NIIGATA SHI NISHIKAN KU","town":"SHIROTORI","perfecture_jp":"新潟県","jp_add_1":"新潟市西蒲区","jp_add_2":"白鳥"},"9530014":{"post_code":"9530014","prefecture":"NIIGATA KEN","city":"NIIGATA SHI NISHIKAN KU","town":"SHIMBO","perfecture_jp":"新潟県","jp_add_1":"新潟市西蒲区","jp_add_2":"新保"},"9530121":{"post_code":"9530121","prefecture":"NIIGATA KEN","city":"NIIGATA SHI NISHIKAN KU","town":"TAKAHASHI","perfecture_jp":"新潟県","jp_add_1":"新潟市西蒲区","jp_add_2":"高橋"},"9530112":{"post_code":"9530112","prefecture":"NIIGATA KEN","city":"NIIGATA SHI NISHIKAN KU","town":"TAKABATAKE","perfecture_jp":"新潟県","jp_add_1":"新潟市西蒲区","jp_add_2":"高畑"},"9530023":{"post_code":"9530023","prefecture":"NIIGATA KEN","city":"NIIGATA SHI NISHIKAN KU","town":"TAKENOMACHI","perfecture_jp":"新潟県","jp_add_1":"新潟市西蒲区","jp_add_2":"竹野町"},"9530123":{"post_code":"9530123","prefecture":"NIIGATA KEN","city":"NIIGATA SHI NISHIKAN KU","town":"TSUKUMODA","perfecture_jp":"新潟県","jp_add_1":"新潟市西蒲区","jp_add_2":"津雲田"},"9530027":{"post_code":"9530027","prefecture":"NIIGATA KEN","city":"NIIGATA SHI NISHIKAN KU","town":"TOJIMA","perfecture_jp":"新潟県","jp_add_1":"新潟市西蒲区","jp_add_2":"稲島"},"9530122":{"post_code":"9530122","prefecture":"NIIGATA KEN","city":"NIIGATA SHI NISHIKAN KU","town":"TOMIOKA","perfecture_jp":"新潟県","jp_add_1":"新潟市西蒲区","jp_add_2":"富岡"},"9530033":{"post_code":"9530033","prefecture":"NIIGATA KEN","city":"NIIGATA SHI NISHIKAN KU","town":"NAKAGOYA","perfecture_jp":"新潟県","jp_add_1":"新潟市西蒲区","jp_add_2":"中郷屋"},"9530133":{"post_code":"9530133","prefecture":"NIIGATA KEN","city":"NIIGATA SHI NISHIKAN KU","town":"NATSUI","perfecture_jp":"新潟県","jp_add_1":"新潟市西蒲区","jp_add_2":"夏井"},"9530062":{"post_code":"9530062","prefecture":"NIIGATA KEN","city":"NIIGATA SHI NISHIKAN KU","town":"NAMIOKA","perfecture_jp":"新潟県","jp_add_1":"新潟市西蒲区","jp_add_2":"並岡"},"9530022":{"post_code":"9530022","prefecture":"NIIGATA KEN","city":"NIIGATA SHI NISHIKAN KU","town":"NIKA","perfecture_jp":"新潟県","jp_add_1":"新潟市西蒲区","jp_add_2":"仁箇"},"9530132":{"post_code":"9530132","prefecture":"NIIGATA KEN","city":"NIIGATA SHI NISHIKAN KU","town":"NISHINAKA","perfecture_jp":"新潟県","jp_add_1":"新潟市西蒲区","jp_add_2":"西中"},"9530131":{"post_code":"9530131","prefecture":"NIIGATA KEN","city":"NIIGATA SHI NISHIKAN KU","town":"NISHINAGASHIMA","perfecture_jp":"新潟県","jp_add_1":"新潟市西蒲区","jp_add_2":"西長島"},"9530113":{"post_code":"9530113","prefecture":"NIIGATA KEN","city":"NIIGATA SHI NISHIKAN KU","town":"NISHIFUNAKOSHI","perfecture_jp":"新潟県","jp_add_1":"新潟市西蒲区","jp_add_2":"西船越"},"9530021":{"post_code":"9530021","prefecture":"NIIGATA KEN","city":"NIIGATA SHI NISHIKAN KU","town":"NUNOME","perfecture_jp":"新潟県","jp_add_1":"新潟市西蒲区","jp_add_2":"布目"},"9530034":{"post_code":"9530034","prefecture":"NIIGATA KEN","city":"NIIGATA SHI NISHIKAN KU","town":"HAGAYABA","perfecture_jp":"新潟県","jp_add_1":"新潟市西蒲区","jp_add_2":"葉萱場"},"9530103":{"post_code":"9530103","prefecture":"NIIGATA KEN","city":"NIIGATA SHI NISHIKAN KU","town":"HASHIMOTO","perfecture_jp":"新潟県","jp_add_1":"新潟市西蒲区","jp_add_2":"橋本"},"9530031":{"post_code":"9530031","prefecture":"NIIGATA KEN","city":"NIIGATA SHI NISHIKAN KU","town":"HANEDA","perfecture_jp":"新潟県","jp_add_1":"新潟市西蒲区","jp_add_2":"羽田"},"9530124":{"post_code":"9530124","prefecture":"NIIGATA KEN","city":"NIIGATA SHI NISHIKAN KU","town":"HARA","perfecture_jp":"新潟県","jp_add_1":"新潟市西蒲区","jp_add_2":"原"},"9530032":{"post_code":"9530032","prefecture":"NIIGATA KEN","city":"NIIGATA SHI NISHIKAN KU","town":"HIGASHIYORIAGE","perfecture_jp":"新潟県","jp_add_1":"新潟市西蒲区","jp_add_2":"東汰上"},"9530101":{"post_code":"9530101","prefecture":"NIIGATA KEN","city":"NIIGATA SHI NISHIKAN KU","town":"HISO","perfecture_jp":"新潟県","jp_add_1":"新潟市西蒲区","jp_add_2":"樋曽"},"9530024":{"post_code":"9530024","prefecture":"NIIGATA KEN","city":"NIIGATA SHI NISHIKAN KU","town":"HIRASAWA","perfecture_jp":"新潟県","jp_add_1":"新潟市西蒲区","jp_add_2":"平沢"},"9530076":{"post_code":"9530076","prefecture":"NIIGATA KEN","city":"NIIGATA SHI NISHIKAN KU","town":"FUKUI","perfecture_jp":"新潟県","jp_add_1":"新潟市西蒲区","jp_add_2":"福井"},"9530026":{"post_code":"9530026","prefecture":"NIIGATA KEN","city":"NIIGATA SHI NISHIKAN KU","town":"FUSUBE","perfecture_jp":"新潟県","jp_add_1":"新潟市西蒲区","jp_add_2":"伏部"},"9530074":{"post_code":"9530074","prefecture":"NIIGATA KEN","city":"NIIGATA SHI NISHIKAN KU","town":"FUNATO","perfecture_jp":"新潟県","jp_add_1":"新潟市西蒲区","jp_add_2":"舟戸"},"9530043":{"post_code":"9530043","prefecture":"NIIGATA KEN","city":"NIIGATA SHI NISHIKAN KU","town":"HORIYAMASHINDEN","perfecture_jp":"新潟県","jp_add_1":"新潟市西蒲区","jp_add_2":"堀山新田"},"9530036":{"post_code":"9530036","prefecture":"NIIGATA KEN","city":"NIIGATA SHI NISHIKAN KU","town":"MAETA","perfecture_jp":"新潟県","jp_add_1":"新潟市西蒲区","jp_add_2":"前田"},"9530053":{"post_code":"9530053","prefecture":"NIIGATA KEN","city":"NIIGATA SHI NISHIKAN KU","town":"MAKIAZUMACHO","perfecture_jp":"新潟県","jp_add_1":"新潟市西蒲区","jp_add_2":"巻東町"},"9530013":{"post_code":"9530013","prefecture":"NIIGATA KEN","city":"NIIGATA SHI NISHIKAN KU","town":"MAKIOHARA","perfecture_jp":"新潟県","jp_add_1":"新潟市西蒲区","jp_add_2":"巻大原"},"9530044":{"post_code":"9530044","prefecture":"NIIGATA KEN","city":"NIIGATA SHI NISHIKAN KU","town":"MAKIOTSU","perfecture_jp":"新潟県","jp_add_1":"新潟市西蒲区","jp_add_2":"巻乙"},"9530041":{"post_code":"9530041","prefecture":"NIIGATA KEN","city":"NIIGATA SHI NISHIKAN KU","town":"MAKIKO","perfecture_jp":"新潟県","jp_add_1":"新潟市西蒲区","jp_add_2":"巻甲"},"9530105":{"post_code":"9530105","prefecture":"NIIGATA KEN","city":"NIIGATA SHI NISHIKAN KU","town":"MAZE","perfecture_jp":"新潟県","jp_add_1":"新潟市西蒲区","jp_add_2":"間瀬"},"9530025":{"post_code":"9530025","prefecture":"NIIGATA KEN","city":"NIIGATA SHI NISHIKAN KU","town":"MATSUGOYA","perfecture_jp":"新潟県","jp_add_1":"新潟市西蒲区","jp_add_2":"松郷屋"},"9530015":{"post_code":"9530015","prefecture":"NIIGATA KEN","city":"NIIGATA SHI NISHIKAN KU","town":"MATSUNO","perfecture_jp":"新潟県","jp_add_1":"新潟市西蒲区","jp_add_2":"松野尾"},"9530016":{"post_code":"9530016","prefecture":"NIIGATA KEN","city":"NIIGATA SHI NISHIKAN KU","town":"MATSUYAMA","perfecture_jp":"新潟県","jp_add_1":"新潟市西蒲区","jp_add_2":"松山"},"9530061":{"post_code":"9530061","prefecture":"NIIGATA KEN","city":"NIIGATA SHI NISHIKAN KU","town":"MABORI","perfecture_jp":"新潟県","jp_add_1":"新潟市西蒲区","jp_add_2":"馬堀"},"9530135":{"post_code":"9530135","prefecture":"NIIGATA KEN","city":"NIIGATA SHI NISHIKAN KU","town":"MINAMIYACHI","perfecture_jp":"新潟県","jp_add_1":"新潟市西蒲区","jp_add_2":"南谷内"},"9530075":{"post_code":"9530075","prefecture":"NIIGATA KEN","city":"NIIGATA SHI NISHIKAN KU","town":"MINEOKA","perfecture_jp":"新潟県","jp_add_1":"新潟市西蒲区","jp_add_2":"峰岡"},"9530052":{"post_code":"9530052","prefecture":"NIIGATA KEN","city":"NIIGATA SHI NISHIKAN KU","town":"YAMAJIMA","perfecture_jp":"新潟県","jp_add_1":"新潟市西蒲区","jp_add_2":"山島"},"9530115":{"post_code":"9530115","prefecture":"NIIGATA KEN","city":"NIIGATA SHI NISHIKAN KU","town":"YOKOZONE","perfecture_jp":"新潟県","jp_add_1":"新潟市西蒲区","jp_add_2":"横曽根"},"9530072":{"post_code":"9530072","prefecture":"NIIGATA KEN","city":"NIIGATA SHI NISHIKAN KU","town":"WASHINOKI","perfecture_jp":"新潟県","jp_add_1":"新潟市西蒲区","jp_add_2":"鷲ノ木"},"9530125":{"post_code":"9530125","prefecture":"NIIGATA KEN","city":"NIIGATA SHI NISHIKAN KU","town":"WANO","perfecture_jp":"新潟県","jp_add_1":"新潟市西蒲区","jp_add_2":"和納"},"9530035":{"post_code":"9530035","prefecture":"NIIGATA KEN","city":"NIIGATA SHI NISHIKAN KU","town":"WARIMAE","perfecture_jp":"新潟県","jp_add_1":"新潟市西蒲区","jp_add_2":"割前"}}