{"9560000":{"post_code":"9560000","prefecture":"NIIGATA KEN","city":"NIIGATA SHI AKIHA KU","town":"IKANIKEISAIGANAIBAAI","perfecture_jp":"新潟県","jp_add_1":"新潟市秋葉区","jp_add_2":""},"9560017":{"post_code":"9560017","prefecture":"NIIGATA KEN","city":"NIIGATA SHI AKIHA KU","town":"AOBADORI","perfecture_jp":"新潟県","jp_add_1":"新潟市秋葉区","jp_add_2":"あおば通"},"9560832":{"post_code":"9560832","prefecture":"NIIGATA KEN","city":"NIIGATA SHI AKIHA KU","town":"AKIHA","perfecture_jp":"新潟県","jp_add_1":"新潟市秋葉区","jp_add_2":"秋葉"},"9560835":{"post_code":"9560835","prefecture":"NIIGATA KEN","city":"NIIGATA SHI AKIHA KU","town":"ASAHI","perfecture_jp":"新潟県","jp_add_1":"新潟市秋葉区","jp_add_2":"朝日"},"9560114":{"post_code":"9560114","prefecture":"NIIGATA KEN","city":"NIIGATA SHI AKIHA KU","town":"AMAGASAWA","perfecture_jp":"新潟県","jp_add_1":"新潟市秋葉区","jp_add_2":"天ヶ沢"},"9560824":{"post_code":"9560824","prefecture":"NIIGATA KEN","city":"NIIGATA SHI AKIHA KU","town":"ICHISHIN","perfecture_jp":"新潟県","jp_add_1":"新潟市秋葉区","jp_add_2":"市新"},"9560002":{"post_code":"9560002","prefecture":"NIIGATA KEN","city":"NIIGATA SHI AKIHA KU","town":"ICHINOSE","perfecture_jp":"新潟県","jp_add_1":"新潟市秋葉区","jp_add_2":"市之瀬"},"9560853":{"post_code":"9560853","prefecture":"NIIGATA KEN","city":"NIIGATA SHI AKIHA KU","town":"IYANAGI","perfecture_jp":"新潟県","jp_add_1":"新潟市秋葉区","jp_add_2":"飯柳"},"9560043":{"post_code":"9560043","prefecture":"NIIGATA KEN","city":"NIIGATA SHI AKIHA KU","town":"UMENOKI","perfecture_jp":"新潟県","jp_add_1":"新潟市秋葉区","jp_add_2":"梅ノ木"},"9560044":{"post_code":"9560044","prefecture":"NIIGATA KEN","city":"NIIGATA SHI AKIHA KU","town":"URAGOYA","perfecture_jp":"新潟県","jp_add_1":"新潟市秋葉区","jp_add_2":"浦興野"},"9560054":{"post_code":"9560054","prefecture":"NIIGATA KEN","city":"NIIGATA SHI AKIHA KU","town":"OAKI","perfecture_jp":"新潟県","jp_add_1":"新潟市秋葉区","jp_add_2":"大秋"},"9560004":{"post_code":"9560004","prefecture":"NIIGATA KEN","city":"NIIGATA SHI AKIHA KU","town":"OJIKA","perfecture_jp":"新潟県","jp_add_1":"新潟市秋葉区","jp_add_2":"大鹿"},"9560827":{"post_code":"9560827","prefecture":"NIIGATA KEN","city":"NIIGATA SHI AKIHA KU","town":"OSEKI","perfecture_jp":"新潟県","jp_add_1":"新潟市秋葉区","jp_add_2":"大関"},"9560826":{"post_code":"9560826","prefecture":"NIIGATA KEN","city":"NIIGATA SHI AKIHA KU","town":"OKADA","perfecture_jp":"新潟県","jp_add_1":"新潟市秋葉区","jp_add_2":"岡田"},"9560804":{"post_code":"9560804","prefecture":"NIIGATA KEN","city":"NIIGATA SHI AKIHA KU","town":"OGIJIMA","perfecture_jp":"新潟県","jp_add_1":"新潟市秋葉区","jp_add_2":"荻島"},"9560012":{"post_code":"9560012","prefecture":"NIIGATA KEN","city":"NIIGATA SHI AKIHA KU","town":"OGINOCHO","perfecture_jp":"新潟県","jp_add_1":"新潟市秋葉区","jp_add_2":"荻野町"},"9560003":{"post_code":"9560003","prefecture":"NIIGATA KEN","city":"NIIGATA SHI AKIHA KU","town":"OSAWARI","perfecture_jp":"新潟県","jp_add_1":"新潟市秋葉区","jp_add_2":"長割"},"9560001":{"post_code":"9560001","prefecture":"NIIGATA KEN","city":"NIIGATA SHI AKIHA KU","town":"KAKUROZU","perfecture_jp":"新潟県","jp_add_1":"新潟市秋葉区","jp_add_2":"覚路津"},"9560851":{"post_code":"9560851","prefecture":"NIIGATA KEN","city":"NIIGATA SHI AKIHA KU","town":"KANAZAWACHO","perfecture_jp":"新潟県","jp_add_1":"新潟市秋葉区","jp_add_2":"金沢町"},"9560845":{"post_code":"9560845","prefecture":"NIIGATA KEN","city":"NIIGATA SHI AKIHA KU","town":"KANAZU","perfecture_jp":"新潟県","jp_add_1":"新潟市秋葉区","jp_add_2":"金津"},"9560823":{"post_code":"9560823","prefecture":"NIIGATA KEN","city":"NIIGATA SHI AKIHA KU","town":"KANAYA","perfecture_jp":"新潟県","jp_add_1":"新潟市秋葉区","jp_add_2":"金屋"},"9560115":{"post_code":"9560115","prefecture":"NIIGATA KEN","city":"NIIGATA SHI AKIHA KU","town":"KAMAKURA","perfecture_jp":"新潟県","jp_add_1":"新潟市秋葉区","jp_add_2":"鎌倉"},"9560852":{"post_code":"9560852","prefecture":"NIIGATA KEN","city":"NIIGATA SHI AKIHA KU","town":"GARAMEKI","perfecture_jp":"新潟県","jp_add_1":"新潟市秋葉区","jp_add_2":"柄目木"},"9560846":{"post_code":"9560846","prefecture":"NIIGATA KEN","city":"NIIGATA SHI AKIHA KU","town":"GAWAGASAWA","perfecture_jp":"新潟県","jp_add_1":"新潟市秋葉区","jp_add_2":"蒲ヶ沢"},"9560015":{"post_code":"9560015","prefecture":"NIIGATA KEN","city":"NIIGATA SHI AKIHA KU","town":"KAWAGUCHI","perfecture_jp":"新潟県","jp_add_1":"新潟市秋葉区","jp_add_2":"川口"},"9560055":{"post_code":"9560055","prefecture":"NIIGATA KEN","city":"NIIGATA SHI AKIHA KU","town":"KAWANE","perfecture_jp":"新潟県","jp_add_1":"新潟市秋葉区","jp_add_2":"川根"},"9560828":{"post_code":"9560828","prefecture":"NIIGATA KEN","city":"NIIGATA SHI AKIHA KU","town":"KITA","perfecture_jp":"新潟県","jp_add_1":"新潟市秋葉区","jp_add_2":"北"},"9560026":{"post_code":"9560026","prefecture":"NIIGATA KEN","city":"NIIGATA SHI AKIHA KU","town":"KITAGATA","perfecture_jp":"新潟県","jp_add_1":"新潟市秋葉区","jp_add_2":"北潟"},"9560861":{"post_code":"9560861","prefecture":"NIIGATA KEN","city":"NIIGATA SHI AKIHA KU","town":"KITAKAMI","perfecture_jp":"新潟県","jp_add_1":"新潟市秋葉区","jp_add_2":"北上"},"9560021":{"post_code":"9560021","prefecture":"NIIGATA KEN","city":"NIIGATA SHI AKIHA KU","town":"KITAKAMISHINDEN","perfecture_jp":"新潟県","jp_add_1":"新潟市秋葉区","jp_add_2":"北上新田"},"9560833":{"post_code":"9560833","prefecture":"NIIGATA KEN","city":"NIIGATA SHI AKIHA KU","town":"KUSOZUCHO","perfecture_jp":"新潟県","jp_add_1":"新潟市秋葉区","jp_add_2":"草水町"},"9560005":{"post_code":"9560005","prefecture":"NIIGATA KEN","city":"NIIGATA SHI AKIHA KU","town":"KURIMIYA","perfecture_jp":"新潟県","jp_add_1":"新潟市秋葉区","jp_add_2":"栗宮"},"9560011":{"post_code":"9560011","prefecture":"NIIGATA KEN","city":"NIIGATA SHI AKIHA KU","town":"KURUMABA","perfecture_jp":"新潟県","jp_add_1":"新潟市秋葉区","jp_add_2":"車場"},"9560016":{"post_code":"9560016","prefecture":"NIIGATA KEN","city":"NIIGATA SHI AKIHA KU","town":"KOGANECHO","perfecture_jp":"新潟県","jp_add_1":"新潟市秋葉区","jp_add_2":"こがね町"},"9560834":{"post_code":"9560834","prefecture":"NIIGATA KEN","city":"NIIGATA SHI AKIHA KU","town":"KOGUCHI","perfecture_jp":"新潟県","jp_add_1":"新潟市秋葉区","jp_add_2":"小口"},"9560101":{"post_code":"9560101","prefecture":"NIIGATA KEN","city":"NIIGATA SHI AKIHA KU","town":"KOSUDO","perfecture_jp":"新潟県","jp_add_1":"新潟市秋葉区","jp_add_2":"小須戸"},"9560025":{"post_code":"9560025","prefecture":"NIIGATA KEN","city":"NIIGATA SHI AKIHA KU","town":"KODA","perfecture_jp":"新潟県","jp_add_1":"新潟市秋葉区","jp_add_2":"古田"},"9560817":{"post_code":"9560817","prefecture":"NIIGATA KEN","city":"NIIGATA SHI AKIHA KU","town":"KODANOCHIONOBIRAKI","perfecture_jp":"新潟県","jp_add_1":"新潟市秋葉区","jp_add_2":"古田ノ内大野開"},"9560006":{"post_code":"9560006","prefecture":"NIIGATA KEN","city":"NIIGATA SHI AKIHA KU","town":"KODOKAMIGUMI","perfecture_jp":"新潟県","jp_add_1":"新潟市秋葉区","jp_add_2":"小戸上組"},"9560007":{"post_code":"9560007","prefecture":"NIIGATA KEN","city":"NIIGATA SHI AKIHA KU","town":"KODOSHIMOGUMI","perfecture_jp":"新潟県","jp_add_1":"新潟市秋葉区","jp_add_2":"小戸下組"},"9560045":{"post_code":"9560045","prefecture":"NIIGATA KEN","city":"NIIGATA SHI AKIHA KU","town":"KONASHIBA","perfecture_jp":"新潟県","jp_add_1":"新潟市秋葉区","jp_add_2":"子成場"},"9560122":{"post_code":"9560122","prefecture":"NIIGATA KEN","city":"NIIGATA SHI AKIHA KU","town":"KOMUKAI","perfecture_jp":"新潟県","jp_add_1":"新潟市秋葉区","jp_add_2":"小向"},"9560041":{"post_code":"9560041","prefecture":"NIIGATA KEN","city":"NIIGATA SHI AKIHA KU","town":"KOYABA","perfecture_jp":"新潟県","jp_add_1":"新潟市秋葉区","jp_add_2":"小屋場"},"9560022":{"post_code":"9560022","prefecture":"NIIGATA KEN","city":"NIIGATA SHI AKIHA KU","town":"SATSUKINO","perfecture_jp":"新潟県","jp_add_1":"新潟市秋葉区","jp_add_2":"さつき野"},"9560051":{"post_code":"9560051","prefecture":"NIIGATA KEN","city":"NIIGATA SHI AKIHA KU","town":"SAMMAIGATA","perfecture_jp":"新潟県","jp_add_1":"新潟市秋葉区","jp_add_2":"三枚潟"},"9560844":{"post_code":"9560844","prefecture":"NIIGATA KEN","city":"NIIGATA SHI AKIHA KU","town":"SHIODANI","perfecture_jp":"新潟県","jp_add_1":"新潟市秋葉区","jp_add_2":"塩谷"},"9560867":{"post_code":"9560867","prefecture":"NIIGATA KEN","city":"NIIGATA SHI AKIHA KU","town":"SHIMOGOYA","perfecture_jp":"新潟県","jp_add_1":"新潟市秋葉区","jp_add_2":"下興野"},"9560866":{"post_code":"9560866","prefecture":"NIIGATA KEN","city":"NIIGATA SHI AKIHA KU","town":"SHIMOGOYACHO","perfecture_jp":"新潟県","jp_add_1":"新潟市秋葉区","jp_add_2":"下興野町"},"9560825":{"post_code":"9560825","prefecture":"NIIGATA KEN","city":"NIIGATA SHI AKIHA KU","town":"SHIMOSHIN","perfecture_jp":"新潟県","jp_add_1":"新潟市秋葉区","jp_add_2":"下新"},"9560033":{"post_code":"9560033","prefecture":"NIIGATA KEN","city":"NIIGATA SHI AKIHA KU","town":"SHINEICHO","perfecture_jp":"新潟県","jp_add_1":"新潟市秋葉区","jp_add_2":"新栄町"},"9560815":{"post_code":"9560815","prefecture":"NIIGATA KEN","city":"NIIGATA SHI AKIHA KU","town":"SHINKANAZAWACHO","perfecture_jp":"新潟県","jp_add_1":"新潟市秋葉区","jp_add_2":"新金沢町"},"9560822":{"post_code":"9560822","prefecture":"NIIGATA KEN","city":"NIIGATA SHI AKIHA KU","town":"SHINGOYA","perfecture_jp":"新潟県","jp_add_1":"新潟市秋葉区","jp_add_2":"新郷屋"},"9560112":{"post_code":"9560112","prefecture":"NIIGATA KEN","city":"NIIGATA SHI AKIHA KU","town":"SHIMBO","perfecture_jp":"新潟県","jp_add_1":"新潟市秋葉区","jp_add_2":"新保"},"9560862":{"post_code":"9560862","prefecture":"NIIGATA KEN","city":"NIIGATA SHI AKIHA KU","town":"SHIMMACHI","perfecture_jp":"新潟県","jp_add_1":"新潟市秋葉区","jp_add_2":"新町"},"9560123":{"post_code":"9560123","prefecture":"NIIGATA KEN","city":"NIIGATA SHI AKIHA KU","town":"SUITA","perfecture_jp":"新潟県","jp_add_1":"新潟市秋葉区","jp_add_2":"水田"},"9560865":{"post_code":"9560865","prefecture":"NIIGATA KEN","city":"NIIGATA SHI AKIHA KU","town":"ZENDOCHO","perfecture_jp":"新潟県","jp_add_1":"新潟市秋葉区","jp_add_2":"善道町"},"9560836":{"post_code":"9560836","prefecture":"NIIGATA KEN","city":"NIIGATA SHI AKIHA KU","town":"TAI","perfecture_jp":"新潟県","jp_add_1":"新潟市秋葉区","jp_add_2":"田家"},"9560813":{"post_code":"9560813","prefecture":"NIIGATA KEN","city":"NIIGATA SHI AKIHA KU","town":"DAIANJI","perfecture_jp":"新潟県","jp_add_1":"新潟市秋葉区","jp_add_2":"大安寺"},"9560801":{"post_code":"9560801","prefecture":"NIIGATA KEN","city":"NIIGATA SHI AKIHA KU","town":"DAIZO","perfecture_jp":"新潟県","jp_add_1":"新潟市秋葉区","jp_add_2":"大蔵"},"9560854":{"post_code":"9560854","prefecture":"NIIGATA KEN","city":"NIIGATA SHI AKIHA KU","town":"TAKIYACHO","perfecture_jp":"新潟県","jp_add_1":"新潟市秋葉区","jp_add_2":"滝谷町"},"9560855":{"post_code":"9560855","prefecture":"NIIGATA KEN","city":"NIIGATA SHI AKIHA KU","town":"TAKIYAHONCHO","perfecture_jp":"新潟県","jp_add_1":"新潟市秋葉区","jp_add_2":"滝谷本町"},"9560013":{"post_code":"9560013","prefecture":"NIIGATA KEN","city":"NIIGATA SHI AKIHA KU","town":"TAJIMA","perfecture_jp":"新潟県","jp_add_1":"新潟市秋葉区","jp_add_2":"田島"},"9560046":{"post_code":"9560046","prefecture":"NIIGATA KEN","city":"NIIGATA SHI AKIHA KU","town":"DETO","perfecture_jp":"新潟県","jp_add_1":"新潟市秋葉区","jp_add_2":"出戸"},"9560831":{"post_code":"9560831","prefecture":"NIIGATA KEN","city":"NIIGATA SHI AKIHA KU","town":"NAKAZAWACHO","perfecture_jp":"新潟県","jp_add_1":"新潟市秋葉区","jp_add_2":"中沢町"},"9560812":{"post_code":"9560812","prefecture":"NIIGATA KEN","city":"NIIGATA SHI AKIHA KU","town":"NAKASHINDEN","perfecture_jp":"新潟県","jp_add_1":"新潟市秋葉区","jp_add_2":"中新田"},"9560805":{"post_code":"9560805","prefecture":"NIIGATA KEN","city":"NIIGATA SHI AKIHA KU","town":"NAKANO","perfecture_jp":"新潟県","jp_add_1":"新潟市秋葉区","jp_add_2":"中野"},"9560036":{"post_code":"9560036","prefecture":"NIIGATA KEN","city":"NIIGATA SHI AKIHA KU","town":"NAKAMURA","perfecture_jp":"新潟県","jp_add_1":"新潟市秋葉区","jp_add_2":"中村"},"9560802":{"post_code":"9560802","prefecture":"NIIGATA KEN","city":"NIIGATA SHI AKIHA KU","town":"NANOKAMACHI","perfecture_jp":"新潟県","jp_add_1":"新潟市秋葉区","jp_add_2":"七日町"},"9560031":{"post_code":"9560031","prefecture":"NIIGATA KEN","city":"NIIGATA SHI AKIHA KU","town":"NIITSU","perfecture_jp":"新潟県","jp_add_1":"新潟市秋葉区","jp_add_2":"新津"},"9560816":{"post_code":"9560816","prefecture":"NIIGATA KEN","city":"NIIGATA SHI AKIHA KU","town":"NIITSU HIGASHICHO","perfecture_jp":"新潟県","jp_add_1":"新潟市秋葉区","jp_add_2":"新津東町"},"9560864":{"post_code":"9560864","prefecture":"NIIGATA KEN","city":"NIIGATA SHI AKIHA KU","town":"NIITSU HONCHO","perfecture_jp":"新潟県","jp_add_1":"新潟市秋葉区","jp_add_2":"新津本町"},"9560034":{"post_code":"9560034","prefecture":"NIIGATA KEN","city":"NIIGATA SHI AKIHA KU","town":"NIITSU MIDORICHO","perfecture_jp":"新潟県","jp_add_1":"新潟市秋葉区","jp_add_2":"新津緑町"},"9560057":{"post_code":"9560057","prefecture":"NIIGATA KEN","city":"NIIGATA SHI AKIHA KU","town":"NIITSU YOTSUGOYA","perfecture_jp":"新潟県","jp_add_1":"新潟市秋葉区","jp_add_2":"新津四ツ興野"},"9560818":{"post_code":"9560818","prefecture":"NIIGATA KEN","city":"NIIGATA SHI AKIHA KU","town":"NISHIKANAZAWA","perfecture_jp":"新潟県","jp_add_1":"新潟市秋葉区","jp_add_2":"西金沢"},"9560842":{"post_code":"9560842","prefecture":"NIIGATA KEN","city":"NIIGATA SHI AKIHA KU","town":"NISHIJIMA","perfecture_jp":"新潟県","jp_add_1":"新潟市秋葉区","jp_add_2":"西島"},"9560037":{"post_code":"9560037","prefecture":"NIIGATA KEN","city":"NIIGATA SHI AKIHA KU","town":"NISHIFURUTSU","perfecture_jp":"新潟県","jp_add_1":"新潟市秋葉区","jp_add_2":"西古津"},"9560863":{"post_code":"9560863","prefecture":"NIIGATA KEN","city":"NIIGATA SHI AKIHA KU","town":"NIPPOCHO","perfecture_jp":"新潟県","jp_add_1":"新潟市秋葉区","jp_add_2":"日宝町"},"9560053":{"post_code":"9560053","prefecture":"NIIGATA KEN","city":"NIIGATA SHI AKIHA KU","town":"NOGATA","perfecture_jp":"新潟県","jp_add_1":"新潟市秋葉区","jp_add_2":"野方"},"9560814":{"post_code":"9560814","prefecture":"NIIGATA KEN","city":"NIIGATA SHI AKIHA KU","town":"HIGASHIKANAZAWA","perfecture_jp":"新潟県","jp_add_1":"新潟市秋葉区","jp_add_2":"東金沢"},"9560841":{"post_code":"9560841","prefecture":"NIIGATA KEN","city":"NIIGATA SHI AKIHA KU","town":"HIGASHIJIMA","perfecture_jp":"新潟県","jp_add_1":"新潟市秋葉区","jp_add_2":"東島"},"9560014":{"post_code":"9560014","prefecture":"NIIGATA KEN","city":"NIIGATA SHI AKIHA KU","town":"FUKUJIMA","perfecture_jp":"新潟県","jp_add_1":"新潟市秋葉区","jp_add_2":"福島"},"9560116":{"post_code":"9560116","prefecture":"NIIGATA KEN","city":"NIIGATA SHI AKIHA KU","town":"FUNATO","perfecture_jp":"新潟県","jp_add_1":"新潟市秋葉区","jp_add_2":"舟戸"},"9560847":{"post_code":"9560847","prefecture":"NIIGATA KEN","city":"NIIGATA SHI AKIHA KU","town":"FURUTSU","perfecture_jp":"新潟県","jp_add_1":"新潟市秋葉区","jp_add_2":"古津"},"9560035":{"post_code":"9560035","prefecture":"NIIGATA KEN","city":"NIIGATA SHI AKIHA KU","town":"HODOJIMA","perfecture_jp":"新潟県","jp_add_1":"新潟市秋葉区","jp_add_2":"程島"},"9560117":{"post_code":"9560117","prefecture":"NIIGATA KEN","city":"NIIGATA SHI AKIHA KU","town":"MATSUGAOKA","perfecture_jp":"新潟県","jp_add_1":"新潟市秋葉区","jp_add_2":"松ヶ丘"},"9560811":{"post_code":"9560811","prefecture":"NIIGATA KEN","city":"NIIGATA SHI AKIHA KU","town":"MANGANJI","perfecture_jp":"新潟県","jp_add_1":"新潟市秋葉区","jp_add_2":"満願寺"},"9560806":{"post_code":"9560806","prefecture":"NIIGATA KEN","city":"NIIGATA SHI AKIHA KU","town":"MISORANO","perfecture_jp":"新潟県","jp_add_1":"新潟市秋葉区","jp_add_2":"みそら野"},"9560052":{"post_code":"9560052","prefecture":"NIIGATA KEN","city":"NIIGATA SHI AKIHA KU","town":"MITSUYA","perfecture_jp":"新潟県","jp_add_1":"新潟市秋葉区","jp_add_2":"三津屋"},"9560032":{"post_code":"9560032","prefecture":"NIIGATA KEN","city":"NIIGATA SHI AKIHA KU","town":"MINAMICHO","perfecture_jp":"新潟県","jp_add_1":"新潟市秋葉区","jp_add_2":"南町"},"9560023":{"post_code":"9560023","prefecture":"NIIGATA KEN","city":"NIIGATA SHI AKIHA KU","town":"MIYUKICHO","perfecture_jp":"新潟県","jp_add_1":"新潟市秋葉区","jp_add_2":"美幸町"},"9560027":{"post_code":"9560027","prefecture":"NIIGATA KEN","city":"NIIGATA SHI AKIHA KU","town":"MIYOSHI","perfecture_jp":"新潟県","jp_add_1":"新潟市秋葉区","jp_add_2":"美善"},"9560803":{"post_code":"9560803","prefecture":"NIIGATA KEN","city":"NIIGATA SHI AKIHA KU","town":"MUSUBU","perfecture_jp":"新潟県","jp_add_1":"新潟市秋葉区","jp_add_2":"結"},"9560113":{"post_code":"9560113","prefecture":"NIIGATA KEN","city":"NIIGATA SHI AKIHA KU","town":"YASHIRODA","perfecture_jp":"新潟県","jp_add_1":"新潟市秋葉区","jp_add_2":"矢代田"},"9560024":{"post_code":"9560024","prefecture":"NIIGATA KEN","city":"NIIGATA SHI AKIHA KU","town":"YAMAYACHO","perfecture_jp":"新潟県","jp_add_1":"新潟市秋葉区","jp_add_2":"山谷町"},"9560121":{"post_code":"9560121","prefecture":"NIIGATA KEN","city":"NIIGATA SHI AKIHA KU","town":"YOKOGAWAHAMA","perfecture_jp":"新潟県","jp_add_1":"新潟市秋葉区","jp_add_2":"横川浜"},"9560837":{"post_code":"9560837","prefecture":"NIIGATA KEN","city":"NIIGATA SHI AKIHA KU","town":"YOSHIOKACHO","perfecture_jp":"新潟県","jp_add_1":"新潟市秋葉区","jp_add_2":"吉岡町"},"9560111":{"post_code":"9560111","prefecture":"NIIGATA KEN","city":"NIIGATA SHI AKIHA KU","town":"RYUGEN","perfecture_jp":"新潟県","jp_add_1":"新潟市秋葉区","jp_add_2":"竜玄"},"9560821":{"post_code":"9560821","prefecture":"NIIGATA KEN","city":"NIIGATA SHI AKIHA KU","town":"ROKUGO","perfecture_jp":"新潟県","jp_add_1":"新潟市秋葉区","jp_add_2":"六郷"},"9560056":{"post_code":"9560056","prefecture":"NIIGATA KEN","city":"NIIGATA SHI AKIHA KU","town":"WARABISONE","perfecture_jp":"新潟県","jp_add_1":"新潟市秋葉区","jp_add_2":"蕨曽根"},"9560843":{"post_code":"9560843","prefecture":"NIIGATA KEN","city":"NIIGATA SHI AKIHA KU","town":"WARIMACHI","perfecture_jp":"新潟県","jp_add_1":"新潟市秋葉区","jp_add_2":"割町"}}