{"9570000":{"post_code":"9570000","prefecture":"NIIGATA KEN","city":"SHIBATA SHI","town":"IKANIKEISAIGANAIBAAI","perfecture_jp":"新潟県","jp_add_1":"新発田市","jp_add_2":""},"9570045":{"post_code":"9570045","prefecture":"NIIGATA KEN","city":"SHIBATA SHI","town":"ARAKAWA","perfecture_jp":"新潟県","jp_add_1":"新発田市","jp_add_2":"荒川"},"9570084":{"post_code":"9570084","prefecture":"NIIGATA KEN","city":"SHIBATA SHI","town":"IIJIMAKO","perfecture_jp":"新潟県","jp_add_1":"新発田市","jp_add_2":"飯島甲"},"9570085":{"post_code":"9570085","prefecture":"NIIGATA KEN","city":"SHIBATA SHI","town":"IIJIMAOTSU","perfecture_jp":"新潟県","jp_add_1":"新発田市","jp_add_2":"飯島乙"},"9570086":{"post_code":"9570086","prefecture":"NIIGATA KEN","city":"SHIBATA SHI","town":"IIJIMASHINDEN","perfecture_jp":"新潟県","jp_add_1":"新発田市","jp_add_2":"飯島新田"},"9570353":{"post_code":"9570353","prefecture":"NIIGATA KEN","city":"SHIBATA SHI","town":"ISHIKI","perfecture_jp":"新潟県","jp_add_1":"新発田市","jp_add_2":"石喜"},"9570021":{"post_code":"9570021","prefecture":"NIIGATA KEN","city":"SHIBATA SHI","town":"IJIMINO","perfecture_jp":"新潟県","jp_add_1":"新発田市","jp_add_2":"五十公野"},"9570013":{"post_code":"9570013","prefecture":"NIIGATA KEN","city":"SHIBATA SHI","town":"ITAJIKI","perfecture_jp":"新潟県","jp_add_1":"新発田市","jp_add_2":"板敷"},"9570344":{"post_code":"9570344","prefecture":"NIIGATA KEN","city":"SHIBATA SHI","town":"ITAYAMA","perfecture_jp":"新潟県","jp_add_1":"新発田市","jp_add_2":"板山"},"9570204":{"post_code":"9570204","prefecture":"NIIGATA KEN","city":"SHIBATA SHI","town":"INARIOKA","perfecture_jp":"新潟県","jp_add_1":"新発田市","jp_add_2":"稲荷岡"},"9570035":{"post_code":"9570035","prefecture":"NIIGATA KEN","city":"SHIBATA SHI","town":"USHIKUBI","perfecture_jp":"新潟県","jp_add_1":"新発田市","jp_add_2":"丑首"},"9570042":{"post_code":"9570042","prefecture":"NIIGATA KEN","city":"SHIBATA SHI","town":"URA","perfecture_jp":"新潟県","jp_add_1":"新発田市","jp_add_2":"浦"},"9570041":{"post_code":"9570041","prefecture":"NIIGATA KEN","city":"SHIBATA SHI","town":"URASHINDEN","perfecture_jp":"新潟県","jp_add_1":"新発田市","jp_add_2":"浦新田"},"9570037":{"post_code":"9570037","prefecture":"NIIGATA KEN","city":"SHIBATA SHI","town":"EGUCHI","perfecture_jp":"新潟県","jp_add_1":"新発田市","jp_add_2":"江口"},"9570043":{"post_code":"9570043","prefecture":"NIIGATA KEN","city":"SHIBATA SHI","town":"OSAKI","perfecture_jp":"新潟県","jp_add_1":"新発田市","jp_add_2":"大崎"},"9570091":{"post_code":"9570091","prefecture":"NIIGATA KEN","city":"SHIBATA SHI","town":"OTASHINDEN","perfecture_jp":"新潟県","jp_add_1":"新発田市","jp_add_2":"太田新田"},"9570465":{"post_code":"9570465","prefecture":"NIIGATA KEN","city":"SHIBATA SHI","town":"OTSUKI","perfecture_jp":"新潟県","jp_add_1":"新発田市","jp_add_2":"大槻"},"9570052":{"post_code":"9570052","prefecture":"NIIGATA KEN","city":"SHIBATA SHI","town":"OTEMACHI","perfecture_jp":"新潟県","jp_add_1":"新発田市","jp_add_2":"大手町"},"9570347":{"post_code":"9570347","prefecture":"NIIGATA KEN","city":"SHIBATA SHI","town":"ODOMO","perfecture_jp":"新潟県","jp_add_1":"新発田市","jp_add_2":"大友"},"9570217":{"post_code":"9570217","prefecture":"NIIGATA KEN","city":"SHIBATA SHI","town":"ONAKAJIMA","perfecture_jp":"新潟県","jp_add_1":"新発田市","jp_add_2":"大中島"},"9570356":{"post_code":"9570356","prefecture":"NIIGATA KEN","city":"SHIBATA SHI","town":"OKADA","perfecture_jp":"新潟県","jp_add_1":"新発田市","jp_add_2":"岡田"},"9570224":{"post_code":"9570224","prefecture":"NIIGATA KEN","city":"SHIBATA SHI","town":"OGAWA","perfecture_jp":"新潟県","jp_add_1":"新発田市","jp_add_2":"小川"},"9570064":{"post_code":"9570064","prefecture":"NIIGATA KEN","city":"SHIBATA SHI","town":"OKUYAMASHIMBO","perfecture_jp":"新潟県","jp_add_1":"新発田市","jp_add_2":"奥山新保"},"9570345":{"post_code":"9570345","prefecture":"NIIGATA KEN","city":"SHIBATA SHI","town":"ODO","perfecture_jp":"新潟県","jp_add_1":"新発田市","jp_add_2":"小戸"},"9570031":{"post_code":"9570031","prefecture":"NIIGATA KEN","city":"SHIBATA SHI","town":"ODOMO","perfecture_jp":"新潟県","jp_add_1":"新発田市","jp_add_2":"小友"},"9570034":{"post_code":"9570034","prefecture":"NIIGATA KEN","city":"SHIBATA SHI","town":"OMI","perfecture_jp":"新潟県","jp_add_1":"新発田市","jp_add_2":"小見"},"9570212":{"post_code":"9570212","prefecture":"NIIGATA KEN","city":"SHIBATA SHI","town":"KATAGIRI","perfecture_jp":"新潟県","jp_add_1":"新発田市","jp_add_2":"片桐"},"9570014":{"post_code":"9570014","prefecture":"NIIGATA KEN","city":"SHIBATA SHI","town":"KANAYA","perfecture_jp":"新潟県","jp_add_1":"新発田市","jp_add_2":"金谷"},"9570464":{"post_code":"9570464","prefecture":"NIIGATA KEN","city":"SHIBATA SHI","town":"KAMIAKATANI","perfecture_jp":"新潟県","jp_add_1":"新発田市","jp_add_2":"上赤谷"},"9570334":{"post_code":"9570334","prefecture":"NIIGATA KEN","city":"SHIBATA SHI","town":"KAMIKUSUGAWA","perfecture_jp":"新潟県","jp_add_1":"新発田市","jp_add_2":"上楠川"},"9570331":{"post_code":"9570331","prefecture":"NIIGATA KEN","city":"SHIBATA SHI","town":"KAMISANKO","perfecture_jp":"新潟県","jp_add_1":"新発田市","jp_add_2":"上三光"},"9570024":{"post_code":"9570024","prefecture":"NIIGATA KEN","city":"SHIBATA SHI","town":"KAMISHIMBO","perfecture_jp":"新潟県","jp_add_1":"新発田市","jp_add_2":"上新保"},"9570025":{"post_code":"9570025","prefecture":"NIIGATA KEN","city":"SHIBATA SHI","town":"KAMINAIDAKE","perfecture_jp":"新潟県","jp_add_1":"新発田市","jp_add_2":"上内竹"},"9570081":{"post_code":"9570081","prefecture":"NIIGATA KEN","city":"SHIBATA SHI","town":"KAMINAKAZAWA","perfecture_jp":"新潟県","jp_add_1":"新発田市","jp_add_2":"上中沢"},"9570046":{"post_code":"9570046","prefecture":"NIIGATA KEN","city":"SHIBATA SHI","town":"KAMINAKAYAMA","perfecture_jp":"新潟県","jp_add_1":"新発田市","jp_add_2":"上中山"},"9570343":{"post_code":"9570343","prefecture":"NIIGATA KEN","city":"SHIBATA SHI","town":"KAMIHANEZU","perfecture_jp":"新潟県","jp_add_1":"新発田市","jp_add_2":"上羽津"},"9570074":{"post_code":"9570074","prefecture":"NIIGATA KEN","city":"SHIBATA SHI","town":"KITAMINOGUCHI","perfecture_jp":"新潟県","jp_add_1":"新発田市","jp_add_2":"北蓑口"},"9570003":{"post_code":"9570003","prefecture":"NIIGATA KEN","city":"SHIBATA SHI","town":"KUWANOGUCHI","perfecture_jp":"新潟県","jp_add_1":"新発田市","jp_add_2":"桑ノ口"},"9570202":{"post_code":"9570202","prefecture":"NIIGATA KEN","city":"SHIBATA SHI","town":"KODA","perfecture_jp":"新潟県","jp_add_1":"新発田市","jp_add_2":"古田"},"9570007":{"post_code":"9570007","prefecture":"NIIGATA KEN","city":"SHIBATA SHI","town":"KOFUNECHO","perfecture_jp":"新潟県","jp_add_1":"新発田市","jp_add_2":"小舟町"},"9570082":{"post_code":"9570082","prefecture":"NIIGATA KEN","city":"SHIBATA SHI","town":"SASAKI","perfecture_jp":"新潟県","jp_add_1":"新発田市","jp_add_2":"佐々木"},"9570011":{"post_code":"9570011","prefecture":"NIIGATA KEN","city":"SHIBATA SHI","town":"SHIMAGATA","perfecture_jp":"新潟県","jp_add_1":"新発田市","jp_add_2":"島潟"},"9570335":{"post_code":"9570335","prefecture":"NIIGATA KEN","city":"SHIBATA SHI","town":"SHIMOKUSUGAWA","perfecture_jp":"新潟県","jp_add_1":"新発田市","jp_add_2":"下楠川"},"9570083":{"post_code":"9570083","prefecture":"NIIGATA KEN","city":"SHIBATA SHI","town":"SHIMOKOYA","perfecture_jp":"新潟県","jp_add_1":"新発田市","jp_add_2":"下興野"},"9570336":{"post_code":"9570336","prefecture":"NIIGATA KEN","city":"SHIBATA SHI","town":"SHIMOSANKO","perfecture_jp":"新潟県","jp_add_1":"新発田市","jp_add_2":"下三光"},"9570023":{"post_code":"9570023","prefecture":"NIIGATA KEN","city":"SHIBATA SHI","town":"SHIMOSHIMBO","perfecture_jp":"新潟県","jp_add_1":"新発田市","jp_add_2":"下新保"},"9570354":{"post_code":"9570354","prefecture":"NIIGATA KEN","city":"SHIBATA SHI","town":"SHIMOTAKASEKI","perfecture_jp":"新潟県","jp_add_1":"新発田市","jp_add_2":"下高関"},"9570026":{"post_code":"9570026","prefecture":"NIIGATA KEN","city":"SHIBATA SHI","town":"SHIMONAIDAKE","perfecture_jp":"新潟県","jp_add_1":"新発田市","jp_add_2":"下内竹"},"9570203":{"post_code":"9570203","prefecture":"NIIGATA KEN","city":"SHIBATA SHI","town":"SHIMONAKAZAWA","perfecture_jp":"新潟県","jp_add_1":"新発田市","jp_add_2":"下中沢"},"9570341":{"post_code":"9570341","prefecture":"NIIGATA KEN","city":"SHIBATA SHI","town":"SHIMOHANEZU","perfecture_jp":"新潟県","jp_add_1":"新発田市","jp_add_2":"下羽津"},"9570051":{"post_code":"9570051","prefecture":"NIIGATA KEN","city":"SHIBATA SHI","town":"JOHOKUCHO","perfecture_jp":"新潟県","jp_add_1":"新発田市","jp_add_2":"城北町"},"9570063":{"post_code":"9570063","prefecture":"NIIGATA KEN","city":"SHIBATA SHI","town":"SHINEICHO","perfecture_jp":"新潟県","jp_add_1":"新発田市","jp_add_2":"新栄町"},"9570017":{"post_code":"9570017","prefecture":"NIIGATA KEN","city":"SHIBATA SHI","town":"SHINTOMICHO","perfecture_jp":"新潟県","jp_add_1":"新発田市","jp_add_2":"新富町"},"9570087":{"post_code":"9570087","prefecture":"NIIGATA KEN","city":"SHIBATA SHI","town":"SUNAYAMA","perfecture_jp":"新潟県","jp_add_1":"新発田市","jp_add_2":"砂山"},"9570215":{"post_code":"9570215","prefecture":"NIIGATA KEN","city":"SHIBATA SHI","town":"SUMIYOSHI","perfecture_jp":"新潟県","jp_add_1":"新発田市","jp_add_2":"住吉"},"9570061":{"post_code":"9570061","prefecture":"NIIGATA KEN","city":"SHIBATA SHI","town":"SUMIYOSHICHO","perfecture_jp":"新潟県","jp_add_1":"新発田市","jp_add_2":"住吉町"},"9570055":{"post_code":"9570055","prefecture":"NIIGATA KEN","city":"SHIBATA SHI","town":"SUWACHO","perfecture_jp":"新潟県","jp_add_1":"新発田市","jp_add_2":"諏訪町"},"9570205":{"post_code":"9570205","prefecture":"NIIGATA KEN","city":"SHIBATA SHI","town":"SEKII","perfecture_jp":"新潟県","jp_add_1":"新発田市","jp_add_2":"関井"},"9570071":{"post_code":"9570071","prefecture":"NIIGATA KEN","city":"SHIBATA SHI","town":"SONE","perfecture_jp":"新潟県","jp_add_1":"新発田市","jp_add_2":"曽根"},"9570056":{"post_code":"9570056","prefecture":"NIIGATA KEN","city":"SHIBATA SHI","town":"DAIEICHO","perfecture_jp":"新潟県","jp_add_1":"新発田市","jp_add_2":"大栄町"},"9570333":{"post_code":"9570333","prefecture":"NIIGATA KEN","city":"SHIBATA SHI","town":"TAGAI","perfecture_jp":"新潟県","jp_add_1":"新発田市","jp_add_2":"田貝"},"9570213":{"post_code":"9570213","prefecture":"NIIGATA KEN","city":"SHIBATA SHI","town":"TAKASHIMA","perfecture_jp":"新潟県","jp_add_1":"新発田市","jp_add_2":"高島"},"9570462":{"post_code":"9570462","prefecture":"NIIGATA KEN","city":"SHIBATA SHI","town":"TAKIDANI","perfecture_jp":"新潟県","jp_add_1":"新発田市","jp_add_2":"滝谷"},"9570053":{"post_code":"9570053","prefecture":"NIIGATA KEN","city":"SHIBATA SHI","town":"CHUOCHO","perfecture_jp":"新潟県","jp_add_1":"新発田市","jp_add_2":"中央町"},"9570221":{"post_code":"9570221","prefecture":"NIIGATA KEN","city":"SHIBATA SHI","town":"CHOJADATE","perfecture_jp":"新潟県","jp_add_1":"新発田市","jp_add_2":"長者館"},"9570355":{"post_code":"9570355","prefecture":"NIIGATA KEN","city":"SHIBATA SHI","town":"TSURUGA","perfecture_jp":"新潟県","jp_add_1":"新発田市","jp_add_2":"敦賀"},"9570001":{"post_code":"9570001","prefecture":"NIIGATA KEN","city":"SHIBATA SHI","town":"DOGA","perfecture_jp":"新潟県","jp_add_1":"新発田市","jp_add_2":"道賀"},"9570015":{"post_code":"9570015","prefecture":"NIIGATA KEN","city":"SHIBATA SHI","town":"TOSHINCHO","perfecture_jp":"新潟県","jp_add_1":"新発田市","jp_add_2":"東新町"},"9570207":{"post_code":"9570207","prefecture":"NIIGATA KEN","city":"SHIBATA SHI","town":"TOMIJIMA","perfecture_jp":"新潟県","jp_add_1":"新発田市","jp_add_2":"富島"},"9570062":{"post_code":"9570062","prefecture":"NIIGATA KEN","city":"SHIBATA SHI","town":"TOMITSUKACHO","perfecture_jp":"新潟県","jp_add_1":"新発田市","jp_add_2":"富塚町"},"9570332":{"post_code":"9570332","prefecture":"NIIGATA KEN","city":"SHIBATA SHI","town":"TORAMARU","perfecture_jp":"新潟県","jp_add_1":"新発田市","jp_add_2":"虎丸"},"9570092":{"post_code":"9570092","prefecture":"NIIGATA KEN","city":"SHIBATA SHI","town":"TORIANA","perfecture_jp":"新潟県","jp_add_1":"新発田市","jp_add_2":"鳥穴"},"9570214":{"post_code":"9570214","prefecture":"NIIGATA KEN","city":"SHIBATA SHI","town":"NAKAJIMA","perfecture_jp":"新潟県","jp_add_1":"新発田市","jp_add_2":"中島"},"9570223":{"post_code":"9570223","prefecture":"NIIGATA KEN","city":"SHIBATA SHI","town":"NAGASHIMA","perfecture_jp":"新潟県","jp_add_1":"新発田市","jp_add_2":"長島"},"9570067":{"post_code":"9570067","prefecture":"NIIGATA KEN","city":"SHIBATA SHI","town":"NAKASONECHO","perfecture_jp":"新潟県","jp_add_1":"新発田市","jp_add_2":"中曽根町"},"9570006":{"post_code":"9570006","prefecture":"NIIGATA KEN","city":"SHIBATA SHI","town":"NAKATACHO","perfecture_jp":"新潟県","jp_add_1":"新発田市","jp_add_2":"中田町"},"9570461":{"post_code":"9570461","prefecture":"NIIGATA KEN","city":"SHIBATA SHI","town":"NAKANAKAYAMA","perfecture_jp":"新潟県","jp_add_1":"新発田市","jp_add_2":"中々山"},"9570222":{"post_code":"9570222","prefecture":"NIIGATA KEN","city":"SHIBATA SHI","town":"NAKANO","perfecture_jp":"新潟県","jp_add_1":"新発田市","jp_add_2":"中野"},"9570005":{"post_code":"9570005","prefecture":"NIIGATA KEN","city":"SHIBATA SHI","town":"NAGABATAKE","perfecture_jp":"新潟県","jp_add_1":"新発田市","jp_add_2":"長畑"},"9570002":{"post_code":"9570002","prefecture":"NIIGATA KEN","city":"SHIBATA SHI","town":"NAKAYACHI","perfecture_jp":"新潟県","jp_add_1":"新発田市","jp_add_2":"中谷内"},"9570058":{"post_code":"9570058","prefecture":"NIIGATA KEN","city":"SHIBATA SHI","town":"NISHIZONOCHO","perfecture_jp":"新潟県","jp_add_1":"新発田市","jp_add_2":"西園町"},"9570004":{"post_code":"9570004","prefecture":"NIIGATA KEN","city":"SHIBATA SHI","town":"NISHINAGARA","perfecture_jp":"新潟県","jp_add_1":"新発田市","jp_add_2":"西名柄"},"9570357":{"post_code":"9570357","prefecture":"NIIGATA KEN","city":"SHIBATA SHI","town":"NISHIHIMEDA","perfecture_jp":"新潟県","jp_add_1":"新発田市","jp_add_2":"西姫田"},"9570075":{"post_code":"9570075","prefecture":"NIIGATA KEN","city":"SHIBATA SHI","town":"NISHIMINOGUCHI","perfecture_jp":"新潟県","jp_add_1":"新発田市","jp_add_2":"西蓑口"},"9570076":{"post_code":"9570076","prefecture":"NIIGATA KEN","city":"SHIBATA SHI","town":"NISHIMIYAUCHI","perfecture_jp":"新潟県","jp_add_1":"新発田市","jp_add_2":"西宮内"},"9570077":{"post_code":"9570077","prefecture":"NIIGATA KEN","city":"SHIBATA SHI","town":"NORIKIYO","perfecture_jp":"新潟県","jp_add_1":"新発田市","jp_add_2":"則清"},"9570078":{"post_code":"9570078","prefecture":"NIIGATA KEN","city":"SHIBATA SHI","town":"NORIKIYOSHINDEN","perfecture_jp":"新潟県","jp_add_1":"新発田市","jp_add_2":"則清新田"},"9570463":{"post_code":"9570463","prefecture":"NIIGATA KEN","city":"SHIBATA SHI","town":"HIGASHIAKATANI","perfecture_jp":"新潟県","jp_add_1":"新発田市","jp_add_2":"東赤谷"},"9570012":{"post_code":"9570012","prefecture":"NIIGATA KEN","city":"SHIBATA SHI","town":"HIGASHITSUKANOME","perfecture_jp":"新潟県","jp_add_1":"新発田市","jp_add_2":"東塚ノ目"},"9570351":{"post_code":"9570351","prefecture":"NIIGATA KEN","city":"SHIBATA SHI","town":"HIGASHIHIMEDA","perfecture_jp":"新潟県","jp_add_1":"新発田市","jp_add_2":"東姫田"},"9570235":{"post_code":"9570235","prefecture":"NIIGATA KEN","city":"SHIBATA SHI","town":"HITOBASHI","perfecture_jp":"新潟県","jp_add_1":"新発田市","jp_add_2":"人橋"},"9570072":{"post_code":"9570072","prefecture":"NIIGATA KEN","city":"SHIBATA SHI","town":"HIWATASHI","perfecture_jp":"新潟県","jp_add_1":"新発田市","jp_add_2":"日渡"},"9570206":{"post_code":"9570206","prefecture":"NIIGATA KEN","city":"SHIBATA SHI","town":"FUKUOKA","perfecture_jp":"新潟県","jp_add_1":"新発田市","jp_add_2":"福岡"},"9570231":{"post_code":"9570231","prefecture":"NIIGATA KEN","city":"SHIBATA SHI","town":"FUJITSUKAHAMA","perfecture_jp":"新潟県","jp_add_1":"新発田市","jp_add_2":"藤塚浜"},"9570234":{"post_code":"9570234","prefecture":"NIIGATA KEN","city":"SHIBATA SHI","town":"FUTATSUYAMA","perfecture_jp":"新潟県","jp_add_1":"新発田市","jp_add_2":"二ツ山"},"9570066":{"post_code":"9570066","prefecture":"NIIGATA KEN","city":"SHIBATA SHI","town":"FUNAIRI","perfecture_jp":"新潟県","jp_add_1":"新発田市","jp_add_2":"舟入"},"9570065":{"post_code":"9570065","prefecture":"NIIGATA KEN","city":"SHIBATA SHI","town":"FUNEIRICHO","perfecture_jp":"新潟県","jp_add_1":"新発田市","jp_add_2":"舟入町"},"9570022":{"post_code":"9570022","prefecture":"NIIGATA KEN","city":"SHIBATA SHI","town":"FURUTERA","perfecture_jp":"新潟県","jp_add_1":"新発田市","jp_add_2":"古寺"},"9570047":{"post_code":"9570047","prefecture":"NIIGATA KEN","city":"SHIBATA SHI","town":"HOJOBASHI","perfecture_jp":"新潟県","jp_add_1":"新発田市","jp_add_2":"法正橋"},"9570054":{"post_code":"9570054","prefecture":"NIIGATA KEN","city":"SHIBATA SHI","town":"HONCHO","perfecture_jp":"新潟県","jp_add_1":"新発田市","jp_add_2":"本町"},"9570342":{"post_code":"9570342","prefecture":"NIIGATA KEN","city":"SHIBATA SHI","town":"HOMMASHINDEN","perfecture_jp":"新潟県","jp_add_1":"新発田市","jp_add_2":"本間新田"},"9570044":{"post_code":"9570044","prefecture":"NIIGATA KEN","city":"SHIBATA SHI","town":"MATSUOKA","perfecture_jp":"新潟県","jp_add_1":"新発田市","jp_add_2":"松岡"},"9570201":{"post_code":"9570201","prefecture":"NIIGATA KEN","city":"SHIBATA SHI","town":"MANAKA","perfecture_jp":"新潟県","jp_add_1":"新発田市","jp_add_2":"真中"},"9570233":{"post_code":"9570233","prefecture":"NIIGATA KEN","city":"SHIBATA SHI","town":"MANOHARA","perfecture_jp":"新潟県","jp_add_1":"新発田市","jp_add_2":"真野原"},"9570232":{"post_code":"9570232","prefecture":"NIIGATA KEN","city":"SHIBATA SHI","town":"MANOHARASOTO","perfecture_jp":"新潟県","jp_add_1":"新発田市","jp_add_2":"真野原外"},"9570073":{"post_code":"9570073","prefecture":"NIIGATA KEN","city":"SHIBATA SHI","town":"MIKOSHI","perfecture_jp":"新潟県","jp_add_1":"新発田市","jp_add_2":"弓越"},"9570048":{"post_code":"9570048","prefecture":"NIIGATA KEN","city":"SHIBATA SHI","town":"MIZUNAMI","perfecture_jp":"新潟県","jp_add_1":"新発田市","jp_add_2":"瑞波"},"9570018":{"post_code":"9570018","prefecture":"NIIGATA KEN","city":"SHIBATA SHI","town":"MIDORICHO","perfecture_jp":"新潟県","jp_add_1":"新発田市","jp_add_2":"緑町"},"9570352":{"post_code":"9570352","prefecture":"NIIGATA KEN","city":"SHIBATA SHI","town":"MINAMITATE","perfecture_jp":"新潟県","jp_add_1":"新発田市","jp_add_2":"南楯"},"9570216":{"post_code":"9570216","prefecture":"NIIGATA KEN","city":"SHIBATA SHI","town":"MINAMINARITA","perfecture_jp":"新潟県","jp_add_1":"新発田市","jp_add_2":"南成田"},"9570346":{"post_code":"9570346","prefecture":"NIIGATA KEN","city":"SHIBATA SHI","town":"MIYAKOGI","perfecture_jp":"新潟県","jp_add_1":"新発田市","jp_add_2":"宮古木"},"9570226":{"post_code":"9570226","prefecture":"NIIGATA KEN","city":"SHIBATA SHI","town":"MIYAYOSHI","perfecture_jp":"新潟県","jp_add_1":"新発田市","jp_add_2":"宮吉"},"9570057":{"post_code":"9570057","prefecture":"NIIGATA KEN","city":"SHIBATA SHI","town":"MIYUKICHO","perfecture_jp":"新潟県","jp_add_1":"新発田市","jp_add_2":"御幸町"},"9570027":{"post_code":"9570027","prefecture":"NIIGATA KEN","city":"SHIBATA SHI","town":"MUIKAMACHI","perfecture_jp":"新潟県","jp_add_1":"新発田市","jp_add_2":"六日町"},"9570236":{"post_code":"9570236","prefecture":"NIIGATA KEN","city":"SHIBATA SHI","town":"MOTOGO","perfecture_jp":"新潟県","jp_add_1":"新発田市","jp_add_2":"元郷"},"9570466":{"post_code":"9570466","prefecture":"NIIGATA KEN","city":"SHIBATA SHI","town":"YAMAUCHI","perfecture_jp":"新潟県","jp_add_1":"新発田市","jp_add_2":"山内"},"9570028":{"post_code":"9570028","prefecture":"NIIGATA KEN","city":"SHIBATA SHI","town":"YAMAZAKI","perfecture_jp":"新潟県","jp_add_1":"新発田市","jp_add_2":"山崎"},"9570033":{"post_code":"9570033","prefecture":"NIIGATA KEN","city":"SHIBATA SHI","town":"YAWATA","perfecture_jp":"新潟県","jp_add_1":"新発田市","jp_add_2":"八幡"},"9570032":{"post_code":"9570032","prefecture":"NIIGATA KEN","city":"SHIBATA SHI","town":"YAWATASHINDEN","perfecture_jp":"新潟県","jp_add_1":"新発田市","jp_add_2":"八幡新田"},"9570016":{"post_code":"9570016","prefecture":"NIIGATA KEN","city":"SHIBATA SHI","town":"YUTAKACHO","perfecture_jp":"新潟県","jp_add_1":"新発田市","jp_add_2":"豊町"},"9570036":{"post_code":"9570036","prefecture":"NIIGATA KEN","city":"SHIBATA SHI","town":"YONEKURA","perfecture_jp":"新潟県","jp_add_1":"新発田市","jp_add_2":"米倉"},"9570225":{"post_code":"9570225","prefecture":"NIIGATA KEN","city":"SHIBATA SHI","town":"YONEKO","perfecture_jp":"新潟県","jp_add_1":"新発田市","jp_add_2":"米子"},"9570100":{"post_code":"9570100","prefecture":"NIIGATA KEN","city":"KITAKAMBARA GUN SEIRO MACHI","town":"IKANIKEISAIGANAIBAAI","perfecture_jp":"新潟県","jp_add_1":"北蒲原郡聖籠町","jp_add_2":""},"9570103":{"post_code":"9570103","prefecture":"NIIGATA KEN","city":"KITAKAMBARA GUN SEIRO MACHI","town":"AJIROHAMA","perfecture_jp":"新潟県","jp_add_1":"北蒲原郡聖籠町","jp_add_2":"網代浜"},"9570102":{"post_code":"9570102","prefecture":"NIIGATA KEN","city":"KITAKAMBARA GUN SEIRO MACHI","town":"IMORICHO","perfecture_jp":"新潟県","jp_add_1":"北蒲原郡聖籠町","jp_add_2":"位守町"},"9570113":{"post_code":"9570113","prefecture":"NIIGATA KEN","city":"KITAKAMBARA GUN SEIRO MACHI","town":"KAMIOYACHI","perfecture_jp":"新潟県","jp_add_1":"北蒲原郡聖籠町","jp_add_2":"上大谷内"},"9570104":{"post_code":"9570104","prefecture":"NIIGATA KEN","city":"KITAKAMBARA GUN SEIRO MACHI","town":"KAMEZUKA","perfecture_jp":"新潟県","jp_add_1":"北蒲原郡聖籠町","jp_add_2":"亀塚"},"9570122":{"post_code":"9570122","prefecture":"NIIGATA KEN","city":"KITAKAMBARA GUN SEIRO MACHI","town":"SANGA","perfecture_jp":"新潟県","jp_add_1":"北蒲原郡聖籠町","jp_add_2":"三賀"},"9570105":{"post_code":"9570105","prefecture":"NIIGATA KEN","city":"KITAKAMBARA GUN SEIRO MACHI","town":"SHIDAIHAMA","perfecture_jp":"新潟県","jp_add_1":"北蒲原郡聖籠町","jp_add_2":"次第浜"},"9570117":{"post_code":"9570117","prefecture":"NIIGATA KEN","city":"KITAKAMBARA GUN SEIRO MACHI","town":"SUWAYAMA","perfecture_jp":"新潟県","jp_add_1":"北蒲原郡聖籠町","jp_add_2":"諏訪山"},"9570121":{"post_code":"9570121","prefecture":"NIIGATA KEN","city":"KITAKAMBARA GUN SEIRO MACHI","town":"DAIBU","perfecture_jp":"新潟県","jp_add_1":"北蒲原郡聖籠町","jp_add_2":"大夫"},"9570126":{"post_code":"9570126","prefecture":"NIIGATA KEN","city":"KITAKAMBARA GUN SEIRO MACHI","town":"DAIBUKOYA","perfecture_jp":"新潟県","jp_add_1":"北蒲原郡聖籠町","jp_add_2":"大夫興野"},"9570112":{"post_code":"9570112","prefecture":"NIIGATA KEN","city":"KITAKAMBARA GUN SEIRO MACHI","town":"DOGASHINDEN","perfecture_jp":"新潟県","jp_add_1":"北蒲原郡聖籠町","jp_add_2":"道賀新田"},"9570123":{"post_code":"9570123","prefecture":"NIIGATA KEN","city":"KITAKAMBARA GUN SEIRO MACHI","town":"NIHOMMATSU","perfecture_jp":"新潟県","jp_add_1":"北蒲原郡聖籠町","jp_add_2":"二本松"},"9570106":{"post_code":"9570106","prefecture":"NIIGATA KEN","city":"KITAKAMBARA GUN SEIRO MACHI","town":"HASUGATA","perfecture_jp":"新潟県","jp_add_1":"北蒲原郡聖籠町","jp_add_2":"蓮潟"},"9570124":{"post_code":"9570124","prefecture":"NIIGATA KEN","city":"KITAKAMBARA GUN SEIRO MACHI","town":"HASUNO","perfecture_jp":"新潟県","jp_add_1":"北蒲原郡聖籠町","jp_add_2":"蓮野"},"9570101":{"post_code":"9570101","prefecture":"NIIGATA KEN","city":"KITAKAMBARA GUN SEIRO MACHI","town":"HIGASHIKO","perfecture_jp":"新潟県","jp_add_1":"北蒲原郡聖籠町","jp_add_2":"東港"},"9570127":{"post_code":"9570127","prefecture":"NIIGATA KEN","city":"KITAKAMBARA GUN SEIRO MACHI","town":"FUJIYOSE","perfecture_jp":"新潟県","jp_add_1":"北蒲原郡聖籠町","jp_add_2":"藤寄"},"9570125":{"post_code":"9570125","prefecture":"NIIGATA KEN","city":"KITAKAMBARA GUN SEIRO MACHI","town":"BEJJO","perfecture_jp":"新潟県","jp_add_1":"北蒲原郡聖籠町","jp_add_2":"別條"},"9570111":{"post_code":"9570111","prefecture":"NIIGATA KEN","city":"KITAKAMBARA GUN SEIRO MACHI","town":"MANO","perfecture_jp":"新潟県","jp_add_1":"北蒲原郡聖籠町","jp_add_2":"真野"},"9570114":{"post_code":"9570114","prefecture":"NIIGATA KEN","city":"KITAKAMBARA GUN SEIRO MACHI","town":"MARUGATA","perfecture_jp":"新潟県","jp_add_1":"北蒲原郡聖籠町","jp_add_2":"丸潟"},"9570115":{"post_code":"9570115","prefecture":"NIIGATA KEN","city":"KITAKAMBARA GUN SEIRO MACHI","town":"MOMOYAMA","perfecture_jp":"新潟県","jp_add_1":"北蒲原郡聖籠町","jp_add_2":"桃山"},"9570116":{"post_code":"9570116","prefecture":"NIIGATA KEN","city":"KITAKAMBARA GUN SEIRO MACHI","town":"YAMAGURA","perfecture_jp":"新潟県","jp_add_1":"北蒲原郡聖籠町","jp_add_2":"山倉"}}