{"9590401":{"post_code":"9590401","prefecture":"NIIGATA KEN","city":"NIIGATA SHI NISHIKAN KU","town":"YOHEENOSHINDEN","perfecture_jp":"新潟県","jp_add_1":"新潟市西区","jp_add_2":"與兵衛野新田"},"9590501":{"post_code":"9590501","prefecture":"NIIGATA KEN","city":"NIIGATA SHI NISHIKAN KU","town":"IZUI","perfecture_jp":"新潟県","jp_add_1":"新潟市西蒲区","jp_add_2":"井随"},"9590513":{"post_code":"9590513","prefecture":"NIIGATA KEN","city":"NIIGATA SHI NISHIKAN KU","town":"IBARASHIMA","perfecture_jp":"新潟県","jp_add_1":"新潟市西蒲区","jp_add_2":"茨島"},"9590515":{"post_code":"9590515","prefecture":"NIIGATA KEN","city":"NIIGATA SHI NISHIKAN KU","town":"IMAI","perfecture_jp":"新潟県","jp_add_1":"新潟市西蒲区","jp_add_2":"今井"},"9590507":{"post_code":"9590507","prefecture":"NIIGATA KEN","city":"NIIGATA SHI NISHIKAN KU","town":"UHACHIROUKE","perfecture_jp":"新潟県","jp_add_1":"新潟市西蒲区","jp_add_2":"卯八郎受"},"9590416":{"post_code":"9590416","prefecture":"NIIGATA KEN","city":"NIIGATA SHI NISHIKAN KU","town":"URAMURA","perfecture_jp":"新潟県","jp_add_1":"新潟市西蒲区","jp_add_2":"浦村"},"9590506":{"post_code":"9590506","prefecture":"NIIGATA KEN","city":"NIIGATA SHI NISHIKAN KU","town":"ENDO","perfecture_jp":"新潟県","jp_add_1":"新潟市西蒲区","jp_add_2":"遠藤"},"9590415":{"post_code":"9590415","prefecture":"NIIGATA KEN","city":"NIIGATA SHI NISHIKAN KU","town":"OKATA","perfecture_jp":"新潟県","jp_add_1":"新潟市西蒲区","jp_add_2":"大潟"},"9590417":{"post_code":"9590417","prefecture":"NIIGATA KEN","city":"NIIGATA SHI NISHIKAN KU","town":"OSEKI","perfecture_jp":"新潟県","jp_add_1":"新潟市西蒲区","jp_add_2":"大関"},"9590517":{"post_code":"9590517","prefecture":"NIIGATA KEN","city":"NIIGATA SHI NISHIKAN KU","town":"OZONE","perfecture_jp":"新潟県","jp_add_1":"新潟市西蒲区","jp_add_2":"大曽根"},"9590511":{"post_code":"9590511","prefecture":"NIIGATA KEN","city":"NIIGATA SHI NISHIKAN KU","town":"OHARA","perfecture_jp":"新潟県","jp_add_1":"新潟市西蒲区","jp_add_2":"大原"},"9590425":{"post_code":"9590425","prefecture":"NIIGATA KEN","city":"NIIGATA SHI NISHIKAN KU","town":"OSHITSUKE","perfecture_jp":"新潟県","jp_add_1":"新潟市西蒲区","jp_add_2":"押付"},"9590403":{"post_code":"9590403","prefecture":"NIIGATA KEN","city":"NIIGATA SHI NISHIKAN KU","town":"KAIGARA","perfecture_jp":"新潟県","jp_add_1":"新潟市西蒲区","jp_add_2":"貝柄"},"9590404":{"post_code":"9590404","prefecture":"NIIGATA KEN","city":"NIIGATA SHI NISHIKAN KU","town":"KAIGARASHINDEN","perfecture_jp":"新潟県","jp_add_1":"新潟市西蒲区","jp_add_2":"貝柄新田"},"9590432":{"post_code":"9590432","prefecture":"NIIGATA KEN","city":"NIIGATA SHI NISHIKAN KU","town":"KAWASAKI","perfecture_jp":"新潟県","jp_add_1":"新潟市西蒲区","jp_add_2":"川崎"},"9590516":{"post_code":"9590516","prefecture":"NIIGATA KEN","city":"NIIGATA SHI NISHIKAN KU","town":"KUNIMI","perfecture_jp":"新潟県","jp_add_1":"新潟市西蒲区","jp_add_2":"国見"},"9590502":{"post_code":"9590502","prefecture":"NIIGATA KEN","city":"NIIGATA SHI NISHIKAN KU","town":"KUMAGAI","perfecture_jp":"新潟県","jp_add_1":"新潟市西蒲区","jp_add_2":"熊谷"},"9590412":{"post_code":"9590412","prefecture":"NIIGATA KEN","city":"NIIGATA SHI NISHIKAN KU","town":"KUWAYAMA","perfecture_jp":"新潟県","jp_add_1":"新潟市西蒲区","jp_add_2":"桑山"},"9590508":{"post_code":"9590508","prefecture":"NIIGATA KEN","city":"NIIGATA SHI NISHIKAN KU","town":"GONOKAMI","perfecture_jp":"新潟県","jp_add_1":"新潟市西蒲区","jp_add_2":"五之上"},"9590435":{"post_code":"9590435","prefecture":"NIIGATA KEN","city":"NIIGATA SHI NISHIKAN KU","town":"SANADA","perfecture_jp":"新潟県","jp_add_1":"新潟市西蒲区","jp_add_2":"真田"},"9590402":{"post_code":"9590402","prefecture":"NIIGATA KEN","city":"NIIGATA SHI NISHIKAN KU","town":"SANKAKUNOSHINDEN","perfecture_jp":"新潟県","jp_add_1":"新潟市西蒲区","jp_add_2":"三角野新田"},"9590505":{"post_code":"9590505","prefecture":"NIIGATA KEN","city":"NIIGATA SHI NISHIKAN KU","town":"SAMBO","perfecture_jp":"新潟県","jp_add_1":"新潟市西蒲区","jp_add_2":"三方"},"9590438":{"post_code":"9590438","prefecture":"NIIGATA KEN","city":"NIIGATA SHI NISHIKAN KU","town":"SHIMOYAMA","perfecture_jp":"新潟県","jp_add_1":"新潟市西蒲区","jp_add_2":"下山"},"9590514":{"post_code":"9590514","prefecture":"NIIGATA KEN","city":"NIIGATA SHI NISHIKAN KU","town":"SHOMYO","perfecture_jp":"新潟県","jp_add_1":"新潟市西蒲区","jp_add_2":"称名"},"9590421":{"post_code":"9590421","prefecture":"NIIGATA KEN","city":"NIIGATA SHI NISHIKAN KU","town":"SUZUKI","perfecture_jp":"新潟県","jp_add_1":"新潟市西蒲区","jp_add_2":"鱸"},"9590411":{"post_code":"9590411","prefecture":"NIIGATA KEN","city":"NIIGATA SHI NISHIKAN KU","town":"ZENKOJI","perfecture_jp":"新潟県","jp_add_1":"新潟市西蒲区","jp_add_2":"善光寺"},"9590406":{"post_code":"9590406","prefecture":"NIIGATA KEN","city":"NIIGATA SHI NISHIKAN KU","town":"ZENKOJIMURAUKE","perfecture_jp":"新潟県","jp_add_1":"新潟市西蒲区","jp_add_2":"善光寺村受"},"9590422":{"post_code":"9590422","prefecture":"NIIGATA KEN","city":"NIIGATA SHI NISHIKAN KU","town":"SONE","perfecture_jp":"新潟県","jp_add_1":"新潟市西蒲区","jp_add_2":"曽根"},"9590434":{"post_code":"9590434","prefecture":"NIIGATA KEN","city":"NIIGATA SHI NISHIKAN KU","town":"TENJIKUDO","perfecture_jp":"新潟県","jp_add_1":"新潟市西蒲区","jp_add_2":"天竺堂"},"9590437":{"post_code":"9590437","prefecture":"NIIGATA KEN","city":"NIIGATA SHI NISHIKAN KU","town":"NAKAJIMA","perfecture_jp":"新潟県","jp_add_1":"新潟市西蒲区","jp_add_2":"中島"},"9590436":{"post_code":"9590436","prefecture":"NIIGATA KEN","city":"NIIGATA SHI NISHIKAN KU","town":"NISHIYORIAGE","perfecture_jp":"新潟県","jp_add_1":"新潟市西蒲区","jp_add_2":"西汰上"},"9590423":{"post_code":"9590423","prefecture":"NIIGATA KEN","city":"NIIGATA SHI NISHIKAN KU","town":"HATAYA","perfecture_jp":"新潟県","jp_add_1":"新潟市西蒲区","jp_add_2":"旗屋"},"9590407":{"post_code":"9590407","prefecture":"NIIGATA KEN","city":"NIIGATA SHI NISHIKAN KU","town":"HATAYAMURAUKE","perfecture_jp":"新潟県","jp_add_1":"新潟市西蒲区","jp_add_2":"旗屋村受"},"9590512":{"post_code":"9590512","prefecture":"NIIGATA KEN","city":"NIIGATA SHI NISHIKAN KU","town":"BANYA","perfecture_jp":"新潟県","jp_add_1":"新潟市西蒲区","jp_add_2":"番屋"},"9590414":{"post_code":"9590414","prefecture":"NIIGATA KEN","city":"NIIGATA SHI NISHIKAN KU","town":"HYOUEMONSHINDEN","perfecture_jp":"新潟県","jp_add_1":"新潟市西蒲区","jp_add_2":"兵右衛門新田"},"9590431":{"post_code":"9590431","prefecture":"NIIGATA KEN","city":"NIIGATA SHI NISHIKAN KU","town":"HIRANO","perfecture_jp":"新潟県","jp_add_1":"新潟市西蒲区","jp_add_2":"平野"},"9590405":{"post_code":"9590405","prefecture":"NIIGATA KEN","city":"NIIGATA SHI NISHIKAN KU","town":"HORIAGESHINDEN","perfecture_jp":"新潟県","jp_add_1":"新潟市西蒲区","jp_add_2":"堀上新田"},"9590433":{"post_code":"9590433","prefecture":"NIIGATA KEN","city":"NIIGATA SHI NISHIKAN KU","town":"MAKIJIMA","perfecture_jp":"新潟県","jp_add_1":"新潟市西蒲区","jp_add_2":"槇島"},"9590418":{"post_code":"9590418","prefecture":"NIIGATA KEN","city":"NIIGATA SHI NISHIKAN KU","town":"MASUOKA","perfecture_jp":"新潟県","jp_add_1":"新潟市西蒲区","jp_add_2":"升岡"},"9590413":{"post_code":"9590413","prefecture":"NIIGATA KEN","city":"NIIGATA SHI NISHIKAN KU","town":"MASUGATA","perfecture_jp":"新潟県","jp_add_1":"新潟市西蒲区","jp_add_2":"升潟"},"9590424":{"post_code":"9590424","prefecture":"NIIGATA KEN","city":"NIIGATA SHI NISHIKAN KU","town":"MATSUSAKI","perfecture_jp":"新潟県","jp_add_1":"新潟市西蒲区","jp_add_2":"松崎"},"9590519":{"post_code":"9590519","prefecture":"NIIGATA KEN","city":"NIIGATA SHI NISHIKAN KU","town":"MISATO","perfecture_jp":"新潟県","jp_add_1":"新潟市西蒲区","jp_add_2":"美里"},"9590518":{"post_code":"9590518","prefecture":"NIIGATA KEN","city":"NIIGATA SHI NISHIKAN KU","town":"MINAMI","perfecture_jp":"新潟県","jp_add_1":"新潟市西蒲区","jp_add_2":"南"},"9590426":{"post_code":"9590426","prefecture":"NIIGATA KEN","city":"NIIGATA SHI NISHIKAN KU","town":"YAJIMA","perfecture_jp":"新潟県","jp_add_1":"新潟市西蒲区","jp_add_2":"矢島"},"9590503":{"post_code":"9590503","prefecture":"NIIGATA KEN","city":"NIIGATA SHI NISHIKAN KU","town":"YAMAKUCHISHINDEN","perfecture_jp":"新潟県","jp_add_1":"新潟市西蒲区","jp_add_2":"山口新田"},"9590504":{"post_code":"9590504","prefecture":"NIIGATA KEN","city":"NIIGATA SHI NISHIKAN KU","town":"YOKODO","perfecture_jp":"新潟県","jp_add_1":"新潟市西蒲区","jp_add_2":"横戸"},"9590521":{"post_code":"9590521","prefecture":"NIIGATA KEN","city":"NIIGATA SHI NISHIKAN KU","town":"YOROIGATA","perfecture_jp":"新潟県","jp_add_1":"新潟市西蒲区","jp_add_2":"鎧潟"},"9590162":{"post_code":"9590162","prefecture":"NIIGATA KEN","city":"NAGAOKA SHI","town":"TERADOMARI AZUKISONE","perfecture_jp":"新潟県","jp_add_1":"長岡市","jp_add_2":"寺泊小豆曽根"},"9590155":{"post_code":"9590155","prefecture":"NIIGATA KEN","city":"NAGAOKA SHI","town":"TERADOMARI ARINOBU","perfecture_jp":"新潟県","jp_add_1":"長岡市","jp_add_2":"寺泊有信"},"9590149":{"post_code":"9590149","prefecture":"NIIGATA KEN","city":"NAGAOKA SHI","town":"TERADOMARI IRIKARUI","perfecture_jp":"新潟県","jp_add_1":"長岡市","jp_add_2":"寺泊入軽井"},"9590147":{"post_code":"9590147","prefecture":"NIIGATA KEN","city":"NAGAOKA SHI","town":"TERADOMARI IWAKATA","perfecture_jp":"新潟県","jp_add_1":"長岡市","jp_add_2":"寺泊岩方"},"9590156":{"post_code":"9590156","prefecture":"NIIGATA KEN","city":"NAGAOKA SHI","town":"TERADOMARI KIJIMA","perfecture_jp":"新潟県","jp_add_1":"長岡市","jp_add_2":"寺泊木島"},"9590165":{"post_code":"9590165","prefecture":"NIIGATA KEN","city":"NAGAOKA SHI","town":"TERADOMARI KITAZONE","perfecture_jp":"新潟県","jp_add_1":"長岡市","jp_add_2":"寺泊北曽根"},"9590154":{"post_code":"9590154","prefecture":"NIIGATA KEN","city":"NAGAOKA SHI","town":"TERADOMARI GOBUICHI","perfecture_jp":"新潟県","jp_add_1":"長岡市","jp_add_2":"寺泊五分一"},"9590152":{"post_code":"9590152","prefecture":"NIIGATA KEN","city":"NAGAOKA SHI","town":"TERADOMARI SHIMOGIRI","perfecture_jp":"新潟県","jp_add_1":"長岡市","jp_add_2":"寺泊下桐"},"9590164":{"post_code":"9590164","prefecture":"NIIGATA KEN","city":"NAGAOKA SHI","town":"TERADOMARI SHIMONAKAJO","perfecture_jp":"新潟県","jp_add_1":"長岡市","jp_add_2":"寺泊下中条"},"9590163":{"post_code":"9590163","prefecture":"NIIGATA KEN","city":"NAGAOKA SHI","town":"TERADOMARI SHINCHO","perfecture_jp":"新潟県","jp_add_1":"長岡市","jp_add_2":"寺泊新長"},"9590143":{"post_code":"9590143","prefecture":"NIIGATA KEN","city":"NAGAOKA SHI","town":"TERADOMARI TAKAUCHI","perfecture_jp":"新潟県","jp_add_1":"長岡市","jp_add_2":"寺泊高内"},"9590161":{"post_code":"9590161","prefecture":"NIIGATA KEN","city":"NAGAOKA SHI","town":"TERADOMARI TAKEMORI","perfecture_jp":"新潟県","jp_add_1":"長岡市","jp_add_2":"寺泊竹森"},"9590146":{"post_code":"9590146","prefecture":"NIIGATA KEN","city":"NAGAOKA SHI","town":"TERADOMARI TAJIRI","perfecture_jp":"新潟県","jp_add_1":"長岡市","jp_add_2":"寺泊田尻"},"9590141":{"post_code":"9590141","prefecture":"NIIGATA KEN","city":"NAGAOKA SHI","town":"TERADOMARI TSURUGASONE","perfecture_jp":"新潟県","jp_add_1":"長岡市","jp_add_2":"寺泊敦ケ曽根"},"9590153":{"post_code":"9590153","prefecture":"NIIGATA KEN","city":"NAGAOKA SHI","town":"TERADOMARI HAZAMADA","perfecture_jp":"新潟県","jp_add_1":"長岡市","jp_add_2":"寺泊硲田"},"9590142":{"post_code":"9590142","prefecture":"NIIGATA KEN","city":"NAGAOKA SHI","town":"TERADOMARI BANZENJI","perfecture_jp":"新潟県","jp_add_1":"長岡市","jp_add_2":"寺泊万善寺"},"9590145":{"post_code":"9590145","prefecture":"NIIGATA KEN","city":"NAGAOKA SHI","town":"TERADOMARI HIRANOSHIMMURASHINDEN","perfecture_jp":"新潟県","jp_add_1":"長岡市","jp_add_2":"寺泊平野新村新田"},"9590144":{"post_code":"9590144","prefecture":"NIIGATA KEN","city":"NAGAOKA SHI","town":"TERADOMARI MACHIKARUI","perfecture_jp":"新潟県","jp_add_1":"長岡市","jp_add_2":"寺泊町軽井"},"9590151":{"post_code":"9590151","prefecture":"NIIGATA KEN","city":"NAGAOKA SHI","town":"TERADOMARI MOTOMEGUSA","perfecture_jp":"新潟県","jp_add_1":"長岡市","jp_add_2":"寺泊求草"},"9590148":{"post_code":"9590148","prefecture":"NIIGATA KEN","city":"NAGAOKA SHI","town":"TERADOMARI YADA","perfecture_jp":"新潟県","jp_add_1":"長岡市","jp_add_2":"寺泊矢田"},"9590157":{"post_code":"9590157","prefecture":"NIIGATA KEN","city":"NAGAOKA SHI","town":"TERADOMARI WANIKUCHI","perfecture_jp":"新潟県","jp_add_1":"長岡市","jp_add_2":"寺泊鰐口"},"9591143":{"post_code":"9591143","prefecture":"NIIGATA KEN","city":"SANJO SHI","town":"IZUMISHINDEN","perfecture_jp":"新潟県","jp_add_1":"三条市","jp_add_2":"泉新田"},"9591151":{"post_code":"9591151","prefecture":"NIIGATA KEN","city":"SANJO SHI","town":"INOKOBASHINDEN","perfecture_jp":"新潟県","jp_add_1":"三条市","jp_add_2":"猪子場新田"},"9591141":{"post_code":"9591141","prefecture":"NIIGATA KEN","city":"SANJO SHI","town":"IMAI","perfecture_jp":"新潟県","jp_add_1":"三条市","jp_add_2":"今井"},"9591142":{"post_code":"9591142","prefecture":"NIIGATA KEN","city":"SANJO SHI","town":"IMAINOSHINDEN","perfecture_jp":"新潟県","jp_add_1":"三条市","jp_add_2":"今井野新田"},"9591154":{"post_code":"9591154","prefecture":"NIIGATA KEN","city":"SANJO SHI","town":"IWAFUCHI","perfecture_jp":"新潟県","jp_add_1":"三条市","jp_add_2":"岩淵"},"9591113":{"post_code":"9591113","prefecture":"NIIGATA KEN","city":"SANJO SHI","town":"OMO","perfecture_jp":"新潟県","jp_add_1":"三条市","jp_add_2":"大面"},"9591147":{"post_code":"9591147","prefecture":"NIIGATA KEN","city":"SANJO SHI","town":"OKANOSHINDEN","perfecture_jp":"新潟県","jp_add_1":"三条市","jp_add_2":"岡野新田"},"9591126":{"post_code":"9591126","prefecture":"NIIGATA KEN","city":"SANJO SHI","town":"OGOSE","perfecture_jp":"新潟県","jp_add_1":"三条市","jp_add_2":"小古瀬"},"9591148":{"post_code":"9591148","prefecture":"NIIGATA KEN","city":"SANJO SHI","town":"OSAKI","perfecture_jp":"新潟県","jp_add_1":"三条市","jp_add_2":"尾崎"},"9591135":{"post_code":"9591135","prefecture":"NIIGATA KEN","city":"SANJO SHI","town":"ONIGI","perfecture_jp":"新潟県","jp_add_1":"三条市","jp_add_2":"鬼木"},"9591134":{"post_code":"9591134","prefecture":"NIIGATA KEN","city":"SANJO SHI","town":"ONIGISHINDEN","perfecture_jp":"新潟県","jp_add_1":"三条市","jp_add_2":"鬼木新田"},"9591117":{"post_code":"9591117","prefecture":"NIIGATA KEN","city":"SANJO SHI","town":"OBIORI","perfecture_jp":"新潟県","jp_add_1":"三条市","jp_add_2":"帯織"},"9591144":{"post_code":"9591144","prefecture":"NIIGATA KEN","city":"SANJO SHI","town":"KAIBAMISHINDEN","perfecture_jp":"新潟県","jp_add_1":"三条市","jp_add_2":"貝喰新田"},"9591136":{"post_code":"9591136","prefecture":"NIIGATA KEN","city":"SANJO SHI","town":"KAWADORINAKAMACHI","perfecture_jp":"新潟県","jp_add_1":"三条市","jp_add_2":"川通中町"},"9591108":{"post_code":"9591108","prefecture":"NIIGATA KEN","city":"SANJO SHI","town":"KITAGATA","perfecture_jp":"新潟県","jp_add_1":"三条市","jp_add_2":"北潟"},"9591123":{"post_code":"9591123","prefecture":"NIIGATA KEN","city":"SANJO SHI","town":"KUNOSONE","perfecture_jp":"新潟県","jp_add_1":"三条市","jp_add_2":"九之曽根"},"9591109":{"post_code":"9591109","prefecture":"NIIGATA KEN","city":"SANJO SHI","town":"KURAUCHI","perfecture_jp":"新潟県","jp_add_1":"三条市","jp_add_2":"蔵内"},"9591114":{"post_code":"9591114","prefecture":"NIIGATA KEN","city":"SANJO SHI","town":"KOANJI","perfecture_jp":"新潟県","jp_add_1":"三条市","jp_add_2":"高安寺"},"9591115":{"post_code":"9591115","prefecture":"NIIGATA KEN","city":"SANJO SHI","town":"KODAKI","perfecture_jp":"新潟県","jp_add_1":"三条市","jp_add_2":"小滝"},"9591122":{"post_code":"9591122","prefecture":"NIIGATA KEN","city":"SANJO SHI","town":"SAKAEOGIJIMA","perfecture_jp":"新潟県","jp_add_1":"三条市","jp_add_2":"栄荻島"},"9591118":{"post_code":"9591118","prefecture":"NIIGATA KEN","city":"SANJO SHI","town":"SANNO","perfecture_jp":"新潟県","jp_add_1":"三条市","jp_add_2":"山王"},"9591131":{"post_code":"9591131","prefecture":"NIIGATA KEN","city":"SANJO SHI","town":"SERIYAMA","perfecture_jp":"新潟県","jp_add_1":"三条市","jp_add_2":"芹山"},"9591121":{"post_code":"9591121","prefecture":"NIIGATA KEN","city":"SANJO SHI","town":"ZENKYUJI","perfecture_jp":"新潟県","jp_add_1":"三条市","jp_add_2":"善久寺"},"9591124":{"post_code":"9591124","prefecture":"NIIGATA KEN","city":"SANJO SHI","town":"SEMBANOSHINDEN","perfecture_jp":"新潟県","jp_add_1":"三条市","jp_add_2":"千把野新田"},"9591111":{"post_code":"9591111","prefecture":"NIIGATA KEN","city":"SANJO SHI","town":"CHIHARA","perfecture_jp":"新潟県","jp_add_1":"三条市","jp_add_2":"茅原"},"9591104":{"post_code":"9591104","prefecture":"NIIGATA KEN","city":"SANJO SHI","town":"TOKOJI","perfecture_jp":"新潟県","jp_add_1":"三条市","jp_add_2":"東光寺"},"9591119":{"post_code":"9591119","prefecture":"NIIGATA KEN","city":"SANJO SHI","town":"TOGUCHI","perfecture_jp":"新潟県","jp_add_1":"三条市","jp_add_2":"戸口"},"9591125":{"post_code":"9591125","prefecture":"NIIGATA KEN","city":"SANJO SHI","town":"NAKAJIMA","perfecture_jp":"新潟県","jp_add_1":"三条市","jp_add_2":"中島"},"9591133":{"post_code":"9591133","prefecture":"NIIGATA KEN","city":"SANJO SHI","town":"NAKAZONESHINDEN","perfecture_jp":"新潟県","jp_add_1":"三条市","jp_add_2":"中曽根新田"},"9591153":{"post_code":"9591153","prefecture":"NIIGATA KEN","city":"SANJO SHI","town":"NIIBORI","perfecture_jp":"新潟県","jp_add_1":"三条市","jp_add_2":"新堀"},"9591146":{"post_code":"9591146","prefecture":"NIIGATA KEN","city":"SANJO SHI","town":"HANNOKI","perfecture_jp":"新潟県","jp_add_1":"三条市","jp_add_2":"半ノ木"},"9591152":{"post_code":"9591152","prefecture":"NIIGATA KEN","city":"SANJO SHI","town":"HITOTSUYASHIKISHINDEN","perfecture_jp":"新潟県","jp_add_1":"三条市","jp_add_2":"一ツ屋敷新田"},"9591156":{"post_code":"9591156","prefecture":"NIIGATA KEN","city":"SANJO SHI","town":"FUKUJIMASHINDEN","perfecture_jp":"新潟県","jp_add_1":"三条市","jp_add_2":"福島新田"},"9591102":{"post_code":"9591102","prefecture":"NIIGATA KEN","city":"SANJO SHI","town":"FUKUJIMASHINDENOTSU","perfecture_jp":"新潟県","jp_add_1":"三条市","jp_add_2":"福島新田乙"},"9591101":{"post_code":"9591101","prefecture":"NIIGATA KEN","city":"SANJO SHI","town":"FUKUJIMASHINDENKO","perfecture_jp":"新潟県","jp_add_1":"三条市","jp_add_2":"福島新田甲"},"9591155":{"post_code":"9591155","prefecture":"NIIGATA KEN","city":"SANJO SHI","town":"FUKUJIMASHINDENTEI","perfecture_jp":"新潟県","jp_add_1":"三条市","jp_add_2":"福島新田丁"},"9591145":{"post_code":"9591145","prefecture":"NIIGATA KEN","city":"SANJO SHI","town":"FUKUJIMASHINDENHEI","perfecture_jp":"新潟県","jp_add_1":"三条市","jp_add_2":"福島新田丙"},"9591103":{"post_code":"9591103","prefecture":"NIIGATA KEN","city":"SANJO SHI","town":"FUKUJIMASHINDEMBO","perfecture_jp":"新潟県","jp_add_1":"三条市","jp_add_2":"福島新田戊"},"9591116":{"post_code":"9591116","prefecture":"NIIGATA KEN","city":"SANJO SHI","town":"MAEYACHI","perfecture_jp":"新潟県","jp_add_1":"三条市","jp_add_2":"前谷内"},"9591112":{"post_code":"9591112","prefecture":"NIIGATA KEN","city":"SANJO SHI","town":"YASUSHIRO","perfecture_jp":"新潟県","jp_add_1":"三条市","jp_add_2":"安代"},"9591107":{"post_code":"9591107","prefecture":"NIIGATA KEN","city":"SANJO SHI","town":"YADA","perfecture_jp":"新潟県","jp_add_1":"三条市","jp_add_2":"矢田"},"9591106":{"post_code":"9591106","prefecture":"NIIGATA KEN","city":"SANJO SHI","town":"YOSHINOYA","perfecture_jp":"新潟県","jp_add_1":"三条市","jp_add_2":"吉野屋"},"9591105":{"post_code":"9591105","prefecture":"NIIGATA KEN","city":"SANJO SHI","town":"WAKAMIYASHINDEN","perfecture_jp":"新潟県","jp_add_1":"三条市","jp_add_2":"若宮新田"},"9591132":{"post_code":"9591132","prefecture":"NIIGATA KEN","city":"SANJO SHI","town":"WATARIMAE","perfecture_jp":"新潟県","jp_add_1":"三条市","jp_add_2":"渡前"},"9592314":{"post_code":"9592314","prefecture":"NIIGATA KEN","city":"SHIBATA SHI","town":"AKAIBASHI","perfecture_jp":"新潟県","jp_add_1":"新発田市","jp_add_2":"赤橋"},"9592311":{"post_code":"9592311","prefecture":"NIIGATA KEN","city":"SHIBATA SHI","town":"ARAMACHI","perfecture_jp":"新潟県","jp_add_1":"新発田市","jp_add_2":"荒町"},"9592443":{"post_code":"9592443","prefecture":"NIIGATA KEN","city":"SHIBATA SHI","town":"ARAYASHIKI","perfecture_jp":"新潟県","jp_add_1":"新発田市","jp_add_2":"新屋敷"},"9592321":{"post_code":"9592321","prefecture":"NIIGATA KEN","city":"SHIBATA SHI","town":"IKENOHATA","perfecture_jp":"新潟県","jp_add_1":"新発田市","jp_add_2":"池ノ端"},"9592406":{"post_code":"9592406","prefecture":"NIIGATA KEN","city":"SHIBATA SHI","town":"INARI","perfecture_jp":"新潟県","jp_add_1":"新発田市","jp_add_2":"稲荷"},"9592461":{"post_code":"9592461","prefecture":"NIIGATA KEN","city":"SHIBATA SHI","town":"ONO","perfecture_jp":"新潟県","jp_add_1":"新発田市","jp_add_2":"大野"},"9592463":{"post_code":"9592463","prefecture":"NIIGATA KEN","city":"SHIBATA SHI","town":"OKAJIMA","perfecture_jp":"新潟県","jp_add_1":"新発田市","jp_add_2":"岡島"},"9592333":{"post_code":"9592333","prefecture":"NIIGATA KEN","city":"SHIBATA SHI","town":"OKAYASHIKI","perfecture_jp":"新潟県","jp_add_1":"新発田市","jp_add_2":"岡屋敷"},"9592471":{"post_code":"9592471","prefecture":"NIIGATA KEN","city":"SHIBATA SHI","town":"OGUNIDANI","perfecture_jp":"新潟県","jp_add_1":"新発田市","jp_add_2":"小国谷"},"9592402":{"post_code":"9592402","prefecture":"NIIGATA KEN","city":"SHIBATA SHI","town":"OJIMA","perfecture_jp":"新潟県","jp_add_1":"新発田市","jp_add_2":"小島"},"9592434":{"post_code":"9592434","prefecture":"NIIGATA KEN","city":"SHIBATA SHI","town":"OSHIMAWASHI","perfecture_jp":"新潟県","jp_add_1":"新発田市","jp_add_2":"押廻"},"9592323":{"post_code":"9592323","prefecture":"NIIGATA KEN","city":"SHIBATA SHI","town":"OTOJI","perfecture_jp":"新潟県","jp_add_1":"新発田市","jp_add_2":"乙次"},"9592476":{"post_code":"9592476","prefecture":"NIIGATA KEN","city":"SHIBATA SHI","town":"KAIZUKA","perfecture_jp":"新潟県","jp_add_1":"新発田市","jp_add_2":"貝塚"},"9592472":{"post_code":"9592472","prefecture":"NIIGATA KEN","city":"SHIBATA SHI","town":"KAIYA","perfecture_jp":"新潟県","jp_add_1":"新発田市","jp_add_2":"貝屋"},"9592336":{"post_code":"9592336","prefecture":"NIIGATA KEN","city":"SHIBATA SHI","town":"KAJIBANDAI","perfecture_jp":"新潟県","jp_add_1":"新発田市","jp_add_2":"加治万代"},"9592479":{"post_code":"9592479","prefecture":"NIIGATA KEN","city":"SHIBATA SHI","town":"KANAZAWA","perfecture_jp":"新潟県","jp_add_1":"新発田市","jp_add_2":"金沢"},"9592441":{"post_code":"9592441","prefecture":"NIIGATA KEN","city":"SHIBATA SHI","town":"KANAZU","perfecture_jp":"新潟県","jp_add_1":"新発田市","jp_add_2":"金津"},"9592464":{"post_code":"9592464","prefecture":"NIIGATA KEN","city":"SHIBATA SHI","town":"KANAZUKA","perfecture_jp":"新潟県","jp_add_1":"新発田市","jp_add_2":"金塚"},"9592473":{"post_code":"9592473","prefecture":"NIIGATA KEN","city":"SHIBATA SHI","town":"KANAYAMA","perfecture_jp":"新潟県","jp_add_1":"新発田市","jp_add_2":"金山"},"9592431":{"post_code":"9592431","prefecture":"NIIGATA KEN","city":"SHIBATA SHI","town":"KAMAGUI","perfecture_jp":"新潟県","jp_add_1":"新発田市","jp_add_2":"釜杭"},"9592501":{"post_code":"9592501","prefecture":"NIIGATA KEN","city":"SHIBATA SHI","town":"KAMIARASAWA","perfecture_jp":"新潟県","jp_add_1":"新発田市","jp_add_2":"上荒沢"},"9592514":{"post_code":"9592514","prefecture":"NIIGATA KEN","city":"SHIBATA SHI","town":"KAMIISHIKAWA","perfecture_jp":"新潟県","jp_add_1":"新発田市","jp_add_2":"上石川"},"9592421":{"post_code":"9592421","prefecture":"NIIGATA KEN","city":"SHIBATA SHI","town":"KAMIIMAIZUMI","perfecture_jp":"新潟県","jp_add_1":"新発田市","jp_add_2":"上今泉"},"9592455":{"post_code":"9592455","prefecture":"NIIGATA KEN","city":"SHIBATA SHI","town":"KAMIKOMATSU","perfecture_jp":"新潟県","jp_add_1":"新発田市","jp_add_2":"上小松"},"9592504":{"post_code":"9592504","prefecture":"NIIGATA KEN","city":"SHIBATA SHI","town":"KAMIJINAI","perfecture_jp":"新潟県","jp_add_1":"新発田市","jp_add_2":"上寺内"},"9592452":{"post_code":"9592452","prefecture":"NIIGATA KEN","city":"SHIBATA SHI","town":"KAMITATE","perfecture_jp":"新潟県","jp_add_1":"新発田市","jp_add_2":"上館"},"9592523":{"post_code":"9592523","prefecture":"NIIGATA KEN","city":"SHIBATA SHI","town":"KAMINAKAE","perfecture_jp":"新潟県","jp_add_1":"新発田市","jp_add_2":"上中江"},"9592407":{"post_code":"9592407","prefecture":"NIIGATA KEN","city":"SHIBATA SHI","town":"KAWAGUCHI","perfecture_jp":"新潟県","jp_add_1":"新発田市","jp_add_2":"川口"},"9592435":{"post_code":"9592435","prefecture":"NIIGATA KEN","city":"SHIBATA SHI","town":"KAWASHIRI","perfecture_jp":"新潟県","jp_add_1":"新発田市","jp_add_2":"川尻"},"9592522":{"post_code":"9592522","prefecture":"NIIGATA KEN","city":"SHIBATA SHI","town":"KITANAKAE","perfecture_jp":"新潟県","jp_add_1":"新発田市","jp_add_2":"北中江"},"9592303":{"post_code":"9592303","prefecture":"NIIGATA KEN","city":"SHIBATA SHI","town":"KIRIUME","perfecture_jp":"新潟県","jp_add_1":"新発田市","jp_add_2":"切梅"},"9592502":{"post_code":"9592502","prefecture":"NIIGATA KEN","city":"SHIBATA SHI","town":"KUMAIDE","perfecture_jp":"新潟県","jp_add_1":"新発田市","jp_add_2":"熊出"},"9592521":{"post_code":"9592521","prefecture":"NIIGATA KEN","city":"SHIBATA SHI","town":"KURAMITSU","perfecture_jp":"新潟県","jp_add_1":"新発田市","jp_add_2":"蔵光"},"9592527":{"post_code":"9592527","prefecture":"NIIGATA KEN","city":"SHIBATA SHI","town":"KUROIWA","perfecture_jp":"新潟県","jp_add_1":"新発田市","jp_add_2":"黒岩"},"9592512":{"post_code":"9592512","prefecture":"NIIGATA KEN","city":"SHIBATA SHI","town":"KOIDE","perfecture_jp":"新潟県","jp_add_1":"新発田市","jp_add_2":"小出"},"9592437":{"post_code":"9592437","prefecture":"NIIGATA KEN","city":"SHIBATA SHI","town":"KOSANJI","perfecture_jp":"新潟県","jp_add_1":"新発田市","jp_add_2":"高山寺"},"9592315":{"post_code":"9592315","prefecture":"NIIGATA KEN","city":"SHIBATA SHI","town":"KOSAKA","perfecture_jp":"新潟県","jp_add_1":"新発田市","jp_add_2":"小坂"},"9592401":{"post_code":"9592401","prefecture":"NIIGATA KEN","city":"SHIBATA SHI","town":"KONAN","perfecture_jp":"新潟県","jp_add_1":"新発田市","jp_add_2":"湖南"},"9592474":{"post_code":"9592474","prefecture":"NIIGATA KEN","city":"SHIBATA SHI","town":"SAKAI","perfecture_jp":"新潟県","jp_add_1":"新発田市","jp_add_2":"境"},"9592513":{"post_code":"9592513","prefecture":"NIIGATA KEN","city":"SHIBATA SHI","town":"SHIGEYAMA","perfecture_jp":"新潟県","jp_add_1":"新発田市","jp_add_2":"繁山"},"9592331":{"post_code":"9592331","prefecture":"NIIGATA KEN","city":"SHIBATA SHI","town":"SHIMOIIZUKA","perfecture_jp":"新潟県","jp_add_1":"新発田市","jp_add_2":"下飯塚"},"9592516":{"post_code":"9592516","prefecture":"NIIGATA KEN","city":"SHIBATA SHI","town":"SHIMOISHIKAWA","perfecture_jp":"新潟県","jp_add_1":"新発田市","jp_add_2":"下石川"},"9592457":{"post_code":"9592457","prefecture":"NIIGATA KEN","city":"SHIBATA SHI","town":"SHIMOIMAIZUMI","perfecture_jp":"新潟県","jp_add_1":"新発田市","jp_add_2":"下今泉"},"9592477":{"post_code":"9592477","prefecture":"NIIGATA KEN","city":"SHIBATA SHI","town":"SHIMOKONAKAYAMA","perfecture_jp":"新潟県","jp_add_1":"新発田市","jp_add_2":"下小中山"},"9592456":{"post_code":"9592456","prefecture":"NIIGATA KEN","city":"SHIBATA SHI","town":"SHIMOKOMATSU","perfecture_jp":"新潟県","jp_add_1":"新発田市","jp_add_2":"下小松"},"9592478":{"post_code":"9592478","prefecture":"NIIGATA KEN","city":"SHIBATA SHI","town":"SHIMOSAKAMACHI","perfecture_jp":"新潟県","jp_add_1":"新発田市","jp_add_2":"下坂町"},"9592505":{"post_code":"9592505","prefecture":"NIIGATA KEN","city":"SHIBATA SHI","town":"SHIMOJINAI","perfecture_jp":"新潟県","jp_add_1":"新発田市","jp_add_2":"下寺内"},"9592404":{"post_code":"9592404","prefecture":"NIIGATA KEN","city":"SHIBATA SHI","town":"SHIMOJO","perfecture_jp":"新潟県","jp_add_1":"新発田市","jp_add_2":"下城"},"9592451":{"post_code":"9592451","prefecture":"NIIGATA KEN","city":"SHIBATA SHI","town":"SHIMONAKA","perfecture_jp":"新潟県","jp_add_1":"新発田市","jp_add_2":"下中"},"9592524":{"post_code":"9592524","prefecture":"NIIGATA KEN","city":"SHIBATA SHI","town":"SHIMONAKAE","perfecture_jp":"新潟県","jp_add_1":"新発田市","jp_add_2":"下中江"},"9592322":{"post_code":"9592322","prefecture":"NIIGATA KEN","city":"SHIBATA SHI","town":"SHIMONAKANOME","perfecture_jp":"新潟県","jp_add_1":"新発田市","jp_add_2":"下中ノ目"},"9592503":{"post_code":"9592503","prefecture":"NIIGATA KEN","city":"SHIBATA SHI","town":"SHIMONAKAYAMA","perfecture_jp":"新潟県","jp_add_1":"新発田市","jp_add_2":"下中山"},"9592417":{"post_code":"9592417","prefecture":"NIIGATA KEN","city":"SHIBATA SHI","town":"SHIMONISHIYAMA","perfecture_jp":"新潟県","jp_add_1":"新発田市","jp_add_2":"下西山"},"9592414":{"post_code":"9592414","prefecture":"NIIGATA KEN","city":"SHIBATA SHI","town":"SHIMOYAMADA","perfecture_jp":"新潟県","jp_add_1":"新発田市","jp_add_2":"下山田"},"9592444":{"post_code":"9592444","prefecture":"NIIGATA KEN","city":"SHIBATA SHI","town":"SHINHOKOJI","perfecture_jp":"新潟県","jp_add_1":"新発田市","jp_add_2":"新保小路"},"9592511":{"post_code":"9592511","prefecture":"NIIGATA KEN","city":"SHIBATA SHI","town":"SUGATANI","perfecture_jp":"新潟県","jp_add_1":"新発田市","jp_add_2":"菅谷"},"9592415":{"post_code":"9592415","prefecture":"NIIGATA KEN","city":"SHIBATA SHI","town":"SUMIDA","perfecture_jp":"新潟県","jp_add_1":"新発田市","jp_add_2":"住田"},"9592422":{"post_code":"9592422","prefecture":"NIIGATA KEN","city":"SHIBATA SHI","town":"SEKIZUMA","perfecture_jp":"新潟県","jp_add_1":"新発田市","jp_add_2":"関妻"},"9592436":{"post_code":"9592436","prefecture":"NIIGATA KEN","city":"SHIBATA SHI","town":"SOKA","perfecture_jp":"新潟県","jp_add_1":"新発田市","jp_add_2":"草荷"},"9592465":{"post_code":"9592465","prefecture":"NIIGATA KEN","city":"SHIBATA SHI","town":"SOMA","perfecture_jp":"新潟県","jp_add_1":"新発田市","jp_add_2":"相馬"},"9592304":{"post_code":"9592304","prefecture":"NIIGATA KEN","city":"SHIBATA SHI","town":"DAIDEN","perfecture_jp":"新潟県","jp_add_1":"新発田市","jp_add_2":"大伝"},"9592425":{"post_code":"9592425","prefecture":"NIIGATA KEN","city":"SHIBATA SHI","town":"TAKADA","perfecture_jp":"新潟県","jp_add_1":"新発田市","jp_add_2":"高田"},"9592518":{"post_code":"9592518","prefecture":"NIIGATA KEN","city":"SHIBATA SHI","town":"TAKI","perfecture_jp":"新潟県","jp_add_1":"新発田市","jp_add_2":"滝"},"9592381":{"post_code":"9592381","prefecture":"NIIGATA KEN","city":"SHIBATA SHI","town":"TAKIZAWA","perfecture_jp":"新潟県","jp_add_1":"新発田市","jp_add_2":"滝沢"},"9592301":{"post_code":"9592301","prefecture":"NIIGATA KEN","city":"SHIBATA SHI","town":"TAKEGAHANA","perfecture_jp":"新潟県","jp_add_1":"新発田市","jp_add_2":"竹ケ花"},"9592337":{"post_code":"9592337","prefecture":"NIIGATA KEN","city":"SHIBATA SHI","town":"TAKEMATABANDAI","perfecture_jp":"新潟県","jp_add_1":"新発田市","jp_add_2":"竹俣万代"},"9592312":{"post_code":"9592312","prefecture":"NIIGATA KEN","city":"SHIBATA SHI","town":"DASAI","perfecture_jp":"新潟県","jp_add_1":"新発田市","jp_add_2":"太斎"},"9592445":{"post_code":"9592445","prefecture":"NIIGATA KEN","city":"SHIBATA SHI","town":"TATENOKOJI","perfecture_jp":"新潟県","jp_add_1":"新発田市","jp_add_2":"館野小路"},"9592403":{"post_code":"9592403","prefecture":"NIIGATA KEN","city":"SHIBATA SHI","town":"TSUKADA","perfecture_jp":"新潟県","jp_add_1":"新発田市","jp_add_2":"塚田"},"9592334":{"post_code":"9592334","prefecture":"NIIGATA KEN","city":"SHIBATA SHI","town":"TSUKIOKA","perfecture_jp":"新潟県","jp_add_1":"新発田市","jp_add_2":"月岡"},"9592338":{"post_code":"9592338","prefecture":"NIIGATA KEN","city":"SHIBATA SHI","town":"TSUKIOKAONSEN","perfecture_jp":"新潟県","jp_add_1":"新発田市","jp_add_2":"月岡温泉"},"9592475":{"post_code":"9592475","prefecture":"NIIGATA KEN","city":"SHIBATA SHI","town":"TERAO","perfecture_jp":"新潟県","jp_add_1":"新発田市","jp_add_2":"寺尾"},"9592325":{"post_code":"9592325","prefecture":"NIIGATA KEN","city":"SHIBATA SHI","town":"TENNO","perfecture_jp":"新潟県","jp_add_1":"新発田市","jp_add_2":"天王"},"9592305":{"post_code":"9592305","prefecture":"NIIGATA KEN","city":"SHIBATA SHI","town":"TOITAZAWA","perfecture_jp":"新潟県","jp_add_1":"新発田市","jp_add_2":"戸板沢"},"9592462":{"post_code":"9592462","prefecture":"NIIGATA KEN","city":"SHIBATA SHI","town":"TONOMINATO","perfecture_jp":"新潟県","jp_add_1":"新発田市","jp_add_2":"戸野港"},"9592515":{"post_code":"9592515","prefecture":"NIIGATA KEN","city":"SHIBATA SHI","town":"NAKAGAWA","perfecture_jp":"新潟県","jp_add_1":"新発田市","jp_add_2":"中川"},"9592525":{"post_code":"9592525","prefecture":"NIIGATA KEN","city":"SHIBATA SHI","town":"NAKAKURA","perfecture_jp":"新潟県","jp_add_1":"新発田市","jp_add_2":"中倉"},"9592468":{"post_code":"9592468","prefecture":"NIIGATA KEN","city":"SHIBATA SHI","town":"NAKATAWARA","perfecture_jp":"新潟県","jp_add_1":"新発田市","jp_add_2":"中俵"},"9592526":{"post_code":"9592526","prefecture":"NIIGATA KEN","city":"SHIBATA SHI","town":"NAKAZUMA","perfecture_jp":"新潟県","jp_add_1":"新発田市","jp_add_2":"中妻"},"9592329":{"post_code":"9592329","prefecture":"NIIGATA KEN","city":"SHIBATA SHI","town":"NAKANOMESHINDEN","perfecture_jp":"新潟県","jp_add_1":"新発田市","jp_add_2":"中ノ目新田"},"9592416":{"post_code":"9592416","prefecture":"NIIGATA KEN","city":"SHIBATA SHI","town":"NISHIURA","perfecture_jp":"新潟県","jp_add_1":"新発田市","jp_add_2":"西浦"},"9592432":{"post_code":"9592432","prefecture":"NIIGATA KEN","city":"SHIBATA SHI","town":"NIHONGI","perfecture_jp":"新潟県","jp_add_1":"新発田市","jp_add_2":"二本木"},"9592405":{"post_code":"9592405","prefecture":"NIIGATA KEN","city":"SHIBATA SHI","town":"NONAKA","perfecture_jp":"新潟県","jp_add_1":"新発田市","jp_add_2":"野中"},"9592328":{"post_code":"9592328","prefecture":"NIIGATA KEN","city":"SHIBATA SHI","town":"NORIMAWASHI","perfecture_jp":"新潟県","jp_add_1":"新発田市","jp_add_2":"乗廻"},"9592413":{"post_code":"9592413","prefecture":"NIIGATA KEN","city":"SHIBATA SHI","town":"HAKOIWA","perfecture_jp":"新潟県","jp_add_1":"新発田市","jp_add_2":"箱岩"},"9592454":{"post_code":"9592454","prefecture":"NIIGATA KEN","city":"SHIBATA SHI","town":"HAYAMICHIBA","perfecture_jp":"新潟県","jp_add_1":"新発田市","jp_add_2":"早道場"},"9592332":{"post_code":"9592332","prefecture":"NIIGATA KEN","city":"SHIBATA SHI","town":"BANDAI","perfecture_jp":"新潟県","jp_add_1":"新発田市","jp_add_2":"万代"},"9592528":{"post_code":"9592528","prefecture":"NIIGATA KEN","city":"SHIBATA SHI","town":"HIGASHIMIYAUCHI","perfecture_jp":"新潟県","jp_add_1":"新発田市","jp_add_2":"東宮内"},"9592412":{"post_code":"9592412","prefecture":"NIIGATA KEN","city":"SHIBATA SHI","town":"HIRAYAMA","perfecture_jp":"新潟県","jp_add_1":"新発田市","jp_add_2":"平山"},"9592327":{"post_code":"9592327","prefecture":"NIIGATA KEN","city":"SHIBATA SHI","town":"FUKUJIMA","perfecture_jp":"新潟県","jp_add_1":"新発田市","jp_add_2":"福島"},"9592313":{"post_code":"9592313","prefecture":"NIIGATA KEN","city":"SHIBATA SHI","town":"FUJIKAKE","perfecture_jp":"新潟県","jp_add_1":"新発田市","jp_add_2":"藤掛"},"9592302":{"post_code":"9592302","prefecture":"NIIGATA KEN","city":"SHIBATA SHI","town":"FUTATSUDO","perfecture_jp":"新潟県","jp_add_1":"新発田市","jp_add_2":"二ツ堂"},"9592517":{"post_code":"9592517","prefecture":"NIIGATA KEN","city":"SHIBATA SHI","town":"FUMOTO","perfecture_jp":"新潟県","jp_add_1":"新発田市","jp_add_2":"麓"},"9592433":{"post_code":"9592433","prefecture":"NIIGATA KEN","city":"SHIBATA SHI","town":"FURUKAWA","perfecture_jp":"新潟県","jp_add_1":"新発田市","jp_add_2":"古川"},"9592409":{"post_code":"9592409","prefecture":"NIIGATA KEN","city":"SHIBATA SHI","town":"FURUTATE","perfecture_jp":"新潟県","jp_add_1":"新発田市","jp_add_2":"古楯"},"9592335":{"post_code":"9592335","prefecture":"NIIGATA KEN","city":"SHIBATA SHI","town":"HONDA","perfecture_jp":"新潟県","jp_add_1":"新発田市","jp_add_2":"本田"},"9592507":{"post_code":"9592507","prefecture":"NIIGATA KEN","city":"SHIBATA SHI","town":"MIZUOSHI","perfecture_jp":"新潟県","jp_add_1":"新発田市","jp_add_2":"溝足"},"9592453":{"post_code":"9592453","prefecture":"NIIGATA KEN","city":"SHIBATA SHI","town":"MIKKAICHI","perfecture_jp":"新潟県","jp_add_1":"新発田市","jp_add_2":"三日市"},"9592326":{"post_code":"9592326","prefecture":"NIIGATA KEN","city":"SHIBATA SHI","town":"MITSUKUNUGI","perfecture_jp":"新潟県","jp_add_1":"新発田市","jp_add_2":"三ツ椡"},"9592442":{"post_code":"9592442","prefecture":"NIIGATA KEN","city":"SHIBATA SHI","town":"MYOGATANI","perfecture_jp":"新潟県","jp_add_1":"新発田市","jp_add_2":"茗荷谷"},"9592426":{"post_code":"9592426","prefecture":"NIIGATA KEN","city":"SHIBATA SHI","town":"MUKAINAKAJO","perfecture_jp":"新潟県","jp_add_1":"新発田市","jp_add_2":"向中条"},"9592411":{"post_code":"9592411","prefecture":"NIIGATA KEN","city":"SHIBATA SHI","town":"YOKOKA","perfecture_jp":"新潟県","jp_add_1":"新発田市","jp_add_2":"横岡"},"9592506":{"post_code":"9592506","prefecture":"NIIGATA KEN","city":"SHIBATA SHI","town":"YOKOYAMA","perfecture_jp":"新潟県","jp_add_1":"新発田市","jp_add_2":"横山"},"9592324":{"post_code":"9592324","prefecture":"NIIGATA KEN","city":"SHIBATA SHI","town":"YOSHIURA","perfecture_jp":"新潟県","jp_add_1":"新発田市","jp_add_2":"吉浦"},"9592408":{"post_code":"9592408","prefecture":"NIIGATA KEN","city":"SHIBATA SHI","town":"YOSHIDA","perfecture_jp":"新潟県","jp_add_1":"新発田市","jp_add_2":"吉田"},"9591300":{"post_code":"9591300","prefecture":"NIIGATA KEN","city":"KAMO SHI","town":"IKANIKEISAIGANAIBAAI","perfecture_jp":"新潟県","jp_add_1":"加茂市","jp_add_2":""},"9591326":{"post_code":"9591326","prefecture":"NIIGATA KEN","city":"KAMO SHI","town":"AOMICHO","perfecture_jp":"新潟県","jp_add_1":"加茂市","jp_add_2":"青海町"},"9591324":{"post_code":"9591324","prefecture":"NIIGATA KEN","city":"KAMO SHI","town":"AKATANI","perfecture_jp":"新潟県","jp_add_1":"加茂市","jp_add_2":"赤谷"},"9591356":{"post_code":"9591356","prefecture":"NIIGATA KEN","city":"KAMO SHI","town":"AKIFUSA","perfecture_jp":"新潟県","jp_add_1":"加茂市","jp_add_2":"秋房"},"9591383":{"post_code":"9591383","prefecture":"NIIGATA KEN","city":"KAMO SHI","town":"ASAHICHO","perfecture_jp":"新潟県","jp_add_1":"加茂市","jp_add_2":"旭町"},"9591312":{"post_code":"9591312","prefecture":"NIIGATA KEN","city":"KAMO SHI","town":"ISHIKAWA","perfecture_jp":"新潟県","jp_add_1":"加茂市","jp_add_2":"石川"},"9591306":{"post_code":"9591306","prefecture":"NIIGATA KEN","city":"KAMO SHI","town":"UNOMORI","perfecture_jp":"新潟県","jp_add_1":"加茂市","jp_add_2":"鵜森"},"9591303":{"post_code":"9591303","prefecture":"NIIGATA KEN","city":"KAMO SHI","town":"URASUDA","perfecture_jp":"新潟県","jp_add_1":"加茂市","jp_add_2":"後須田"},"9591378":{"post_code":"9591378","prefecture":"NIIGATA KEN","city":"KAMO SHI","town":"EKIMAE","perfecture_jp":"新潟県","jp_add_1":"加茂市","jp_add_2":"駅前"},"9591377":{"post_code":"9591377","prefecture":"NIIGATA KEN","city":"KAMO SHI","town":"OKANOMACHI","perfecture_jp":"新潟県","jp_add_1":"加茂市","jp_add_2":"岡ノ町"},"9591322":{"post_code":"9591322","prefecture":"NIIGATA KEN","city":"KAMO SHI","town":"GAKKOCHO","perfecture_jp":"新潟県","jp_add_1":"加茂市","jp_add_2":"学校町"},"9591343":{"post_code":"9591343","prefecture":"NIIGATA KEN","city":"KAMO SHI","town":"KAMIOTANI","perfecture_jp":"新潟県","jp_add_1":"加茂市","jp_add_2":"上大谷"},"9591347":{"post_code":"9591347","prefecture":"NIIGATA KEN","city":"KAMO SHI","town":"KAMITAKAYANAGI","perfecture_jp":"新潟県","jp_add_1":"加茂市","jp_add_2":"上高柳"},"9591342":{"post_code":"9591342","prefecture":"NIIGATA KEN","city":"KAMO SHI","town":"KAMITSUCHIKURA","perfecture_jp":"新潟県","jp_add_1":"加茂市","jp_add_2":"上土倉"},"9591352":{"post_code":"9591352","prefecture":"NIIGATA KEN","city":"KAMO SHI","town":"KAMIMACHI","perfecture_jp":"新潟県","jp_add_1":"加茂市","jp_add_2":"上町"},"9591311":{"post_code":"9591311","prefecture":"NIIGATA KEN","city":"KAMO SHI","town":"KAMOSHINDEN","perfecture_jp":"新潟県","jp_add_1":"加茂市","jp_add_2":"加茂新田"},"9591301":{"post_code":"9591301","prefecture":"NIIGATA KEN","city":"KAMO SHI","town":"KITAGATA","perfecture_jp":"新潟県","jp_add_1":"加茂市","jp_add_2":"北潟"},"9591321":{"post_code":"9591321","prefecture":"NIIGATA KEN","city":"KAMO SHI","town":"KIBOGAOKA","perfecture_jp":"新潟県","jp_add_1":"加茂市","jp_add_2":"希望ケ丘"},"9591336":{"post_code":"9591336","prefecture":"NIIGATA KEN","city":"KAMO SHI","town":"KUROMIZU","perfecture_jp":"新潟県","jp_add_1":"加茂市","jp_add_2":"黒水"},"9591361":{"post_code":"9591361","prefecture":"NIIGATA KEN","city":"KAMO SHI","town":"GEJO","perfecture_jp":"新潟県","jp_add_1":"加茂市","jp_add_2":"下条"},"9591371":{"post_code":"9591371","prefecture":"NIIGATA KEN","city":"KAMO SHI","town":"KOKUCHO","perfecture_jp":"新潟県","jp_add_1":"加茂市","jp_add_2":"穀町"},"9591302":{"post_code":"9591302","prefecture":"NIIGATA KEN","city":"KAMO SHI","town":"GOTANDA","perfecture_jp":"新潟県","jp_add_1":"加茂市","jp_add_2":"五反田"},"9591384":{"post_code":"9591384","prefecture":"NIIGATA KEN","city":"KAMO SHI","town":"KOTOBUKICHO","perfecture_jp":"新潟県","jp_add_1":"加茂市","jp_add_2":"寿町"},"9591375":{"post_code":"9591375","prefecture":"NIIGATA KEN","city":"KAMO SHI","town":"KOBASHI","perfecture_jp":"新潟県","jp_add_1":"加茂市","jp_add_2":"小橋"},"9591353":{"post_code":"9591353","prefecture":"NIIGATA KEN","city":"KAMO SHI","town":"GOBANCHO","perfecture_jp":"新潟県","jp_add_1":"加茂市","jp_add_2":"五番町"},"9591313":{"post_code":"9591313","prefecture":"NIIGATA KEN","city":"KAMO SHI","town":"SAIWAICHO","perfecture_jp":"新潟県","jp_add_1":"加茂市","jp_add_2":"幸町"},"9591382":{"post_code":"9591382","prefecture":"NIIGATA KEN","city":"KAMO SHI","town":"SAKAECHO","perfecture_jp":"新潟県","jp_add_1":"加茂市","jp_add_2":"栄町"},"9591357":{"post_code":"9591357","prefecture":"NIIGATA KEN","city":"KAMO SHI","town":"SAKURAZAWA","perfecture_jp":"新潟県","jp_add_1":"加茂市","jp_add_2":"桜沢"},"9591363":{"post_code":"9591363","prefecture":"NIIGATA KEN","city":"KAMO SHI","town":"SHIBANO","perfecture_jp":"新潟県","jp_add_1":"加茂市","jp_add_2":"芝野"},"9591344":{"post_code":"9591344","prefecture":"NIIGATA KEN","city":"KAMO SHI","town":"SHIMOOTANI","perfecture_jp":"新潟県","jp_add_1":"加茂市","jp_add_2":"下大谷"},"9591346":{"post_code":"9591346","prefecture":"NIIGATA KEN","city":"KAMO SHI","town":"SHIMOTAKAYANAGI","perfecture_jp":"新潟県","jp_add_1":"加茂市","jp_add_2":"下高柳"},"9591341":{"post_code":"9591341","prefecture":"NIIGATA KEN","city":"KAMO SHI","town":"SHIMOTSUCHIKURA","perfecture_jp":"新潟県","jp_add_1":"加茂市","jp_add_2":"下土倉"},"9591332":{"post_code":"9591332","prefecture":"NIIGATA KEN","city":"KAMO SHI","town":"JOJO","perfecture_jp":"新潟県","jp_add_1":"加茂市","jp_add_2":"上条"},"9591381":{"post_code":"9591381","prefecture":"NIIGATA KEN","city":"KAMO SHI","town":"SHINEICHO","perfecture_jp":"新潟県","jp_add_1":"加茂市","jp_add_2":"新栄町"},"9591328":{"post_code":"9591328","prefecture":"NIIGATA KEN","city":"KAMO SHI","town":"JINGAMINE","perfecture_jp":"新潟県","jp_add_1":"加茂市","jp_add_2":"陣ケ峰"},"9591354":{"post_code":"9591354","prefecture":"NIIGATA KEN","city":"KAMO SHI","town":"SHIMMACHI","perfecture_jp":"新潟県","jp_add_1":"加茂市","jp_add_2":"新町"},"9591325":{"post_code":"9591325","prefecture":"NIIGATA KEN","city":"KAMO SHI","town":"SHIMMEICHO","perfecture_jp":"新潟県","jp_add_1":"加茂市","jp_add_2":"神明町"},"9591305":{"post_code":"9591305","prefecture":"NIIGATA KEN","city":"KAMO SHI","town":"SUNAOSHISHINDEN","perfecture_jp":"新潟県","jp_add_1":"加茂市","jp_add_2":"砂押新田"},"9591334":{"post_code":"9591334","prefecture":"NIIGATA KEN","city":"KAMO SHI","town":"SEBAGUCHI","perfecture_jp":"新潟県","jp_add_1":"加茂市","jp_add_2":"狭口"},"9591327":{"post_code":"9591327","prefecture":"NIIGATA KEN","city":"KAMO SHI","town":"SENGARI","perfecture_jp":"新潟県","jp_add_1":"加茂市","jp_add_2":"千刈"},"9591385":{"post_code":"9591385","prefecture":"NIIGATA KEN","city":"KAMO SHI","town":"DAIGOCHO","perfecture_jp":"新潟県","jp_add_1":"加茂市","jp_add_2":"大郷町"},"9591387":{"post_code":"9591387","prefecture":"NIIGATA KEN","city":"KAMO SHI","town":"TAKASUCHO","perfecture_jp":"新潟県","jp_add_1":"加茂市","jp_add_2":"高須町"},"9591307":{"post_code":"9591307","prefecture":"NIIGATA KEN","city":"KAMO SHI","town":"TANAKASHINDEN","perfecture_jp":"新潟県","jp_add_1":"加茂市","jp_add_2":"田中新田"},"9591315":{"post_code":"9591315","prefecture":"NIIGATA KEN","city":"KAMO SHI","town":"TENJIMBAYASHI","perfecture_jp":"新潟県","jp_add_1":"加茂市","jp_add_2":"天神林"},"9591345":{"post_code":"9591345","prefecture":"NIIGATA KEN","city":"KAMO SHI","town":"NAKAOTANI","perfecture_jp":"新潟県","jp_add_1":"加茂市","jp_add_2":"中大谷"},"9591335":{"post_code":"9591335","prefecture":"NIIGATA KEN","city":"KAMO SHI","town":"NAGATANI","perfecture_jp":"新潟県","jp_add_1":"加茂市","jp_add_2":"長谷"},"9591351":{"post_code":"9591351","prefecture":"NIIGATA KEN","city":"KAMO SHI","town":"NAKAMACHI","perfecture_jp":"新潟県","jp_add_1":"加茂市","jp_add_2":"仲町"},"9591376":{"post_code":"9591376","prefecture":"NIIGATA KEN","city":"KAMO SHI","town":"NAKAMURA","perfecture_jp":"新潟県","jp_add_1":"加茂市","jp_add_2":"中村"},"9591337":{"post_code":"9591337","prefecture":"NIIGATA KEN","city":"KAMO SHI","town":"NISHIYAMA","perfecture_jp":"新潟県","jp_add_1":"加茂市","jp_add_2":"西山"},"9591314":{"post_code":"9591314","prefecture":"NIIGATA KEN","city":"KAMO SHI","town":"BANDEN","perfecture_jp":"新潟県","jp_add_1":"加茂市","jp_add_2":"番田"},"9591372":{"post_code":"9591372","prefecture":"NIIGATA KEN","city":"KAMO SHI","town":"HONCHO","perfecture_jp":"新潟県","jp_add_1":"加茂市","jp_add_2":"本町"},"9591304":{"post_code":"9591304","prefecture":"NIIGATA KEN","city":"KAMO SHI","town":"MAESUDA","perfecture_jp":"新潟県","jp_add_1":"加茂市","jp_add_2":"前須田"},"9591373":{"post_code":"9591373","prefecture":"NIIGATA KEN","city":"KAMO SHI","town":"MATSUSAKACHO","perfecture_jp":"新潟県","jp_add_1":"加茂市","jp_add_2":"松坂町"},"9591331":{"post_code":"9591331","prefecture":"NIIGATA KEN","city":"KAMO SHI","town":"MINAGAWA","perfecture_jp":"新潟県","jp_add_1":"加茂市","jp_add_2":"皆川"},"9591323":{"post_code":"9591323","prefecture":"NIIGATA KEN","city":"KAMO SHI","town":"MIYAKOGAOKA","perfecture_jp":"新潟県","jp_add_1":"加茂市","jp_add_2":"都ケ丘"},"9591348":{"post_code":"9591348","prefecture":"NIIGATA KEN","city":"KAMO SHI","town":"MIYAYORIKAMI","perfecture_jp":"新潟県","jp_add_1":"加茂市","jp_add_2":"宮寄上"},"9591374":{"post_code":"9591374","prefecture":"NIIGATA KEN","city":"KAMO SHI","town":"YATATE","perfecture_jp":"新潟県","jp_add_1":"加茂市","jp_add_2":"矢立"},"9591386":{"post_code":"9591386","prefecture":"NIIGATA KEN","city":"KAMO SHI","town":"YANAGICHO","perfecture_jp":"新潟県","jp_add_1":"加茂市","jp_add_2":"柳町"},"9591316":{"post_code":"9591316","prefecture":"NIIGATA KEN","city":"KAMO SHI","town":"YAMAJIMASHINDEN","perfecture_jp":"新潟県","jp_add_1":"加茂市","jp_add_2":"山島新田"},"9591333":{"post_code":"9591333","prefecture":"NIIGATA KEN","city":"KAMO SHI","town":"YAWATA","perfecture_jp":"新潟県","jp_add_1":"加茂市","jp_add_2":"八幡"},"9591362":{"post_code":"9591362","prefecture":"NIIGATA KEN","city":"KAMO SHI","town":"YOKOE","perfecture_jp":"新潟県","jp_add_1":"加茂市","jp_add_2":"横江"},"9591355":{"post_code":"9591355","prefecture":"NIIGATA KEN","city":"KAMO SHI","town":"WAKAMIYACHO","perfecture_jp":"新潟県","jp_add_1":"加茂市","jp_add_2":"若宮町"},"9593651":{"post_code":"9593651","prefecture":"NIIGATA KEN","city":"MURAKAMI SHI","town":"ASHIDANI","perfecture_jp":"新潟県","jp_add_1":"村上市","jp_add_2":"芦谷"},"9593923":{"post_code":"9593923","prefecture":"NIIGATA KEN","city":"MURAKAMI SHI","town":"ARAKAWA","perfecture_jp":"新潟県","jp_add_1":"村上市","jp_add_2":"荒川"},"9593921":{"post_code":"9593921","prefecture":"NIIGATA KEN","city":"MURAKAMI SHI","town":"ARAKAWAGUCHI","perfecture_jp":"新潟県","jp_add_1":"村上市","jp_add_2":"荒川口"},"9593125":{"post_code":"9593125","prefecture":"NIIGATA KEN","city":"MURAKAMI SHI","town":"ARAKAWABERISHINDEN","perfecture_jp":"新潟県","jp_add_1":"村上市","jp_add_2":"荒川縁新田"},"9593103":{"post_code":"9593103","prefecture":"NIIGATA KEN","city":"MURAKAMI SHI","town":"ARASHIMA","perfecture_jp":"新潟県","jp_add_1":"村上市","jp_add_2":"荒島"},"9593116":{"post_code":"9593116","prefecture":"NIIGATA KEN","city":"MURAKAMI SHI","town":"ARAYA","perfecture_jp":"新潟県","jp_add_1":"村上市","jp_add_2":"荒屋"},"9593414":{"post_code":"9593414","prefecture":"NIIGATA KEN","city":"MURAKAMI SHI","town":"ARIAKE","perfecture_jp":"新潟県","jp_add_1":"村上市","jp_add_2":"有明"},"9593422":{"post_code":"9593422","prefecture":"NIIGATA KEN","city":"MURAKAMI SHI","town":"IIOKA","perfecture_jp":"新潟県","jp_add_1":"村上市","jp_add_2":"飯岡"},"9593916":{"post_code":"9593916","prefecture":"NIIGATA KEN","city":"MURAKAMI SHI","town":"IKAZUCHI","perfecture_jp":"新潟県","jp_add_1":"村上市","jp_add_2":"雷"},"9593901":{"post_code":"9593901","prefecture":"NIIGATA KEN","city":"MURAKAMI SHI","town":"IGURENO","perfecture_jp":"新潟県","jp_add_1":"村上市","jp_add_2":"伊呉野"},"9593663":{"post_code":"9593663","prefecture":"NIIGATA KEN","city":"MURAKAMI SHI","town":"ITAGAI","perfecture_jp":"新潟県","jp_add_1":"村上市","jp_add_2":"板貝"},"9593937":{"post_code":"9593937","prefecture":"NIIGATA KEN","city":"MURAKAMI SHI","town":"ITAYASAWA","perfecture_jp":"新潟県","jp_add_1":"村上市","jp_add_2":"板屋沢"},"9593662":{"post_code":"9593662","prefecture":"NIIGATA KEN","city":"MURAKAMI SHI","town":"IMAGAWA","perfecture_jp":"新潟県","jp_add_1":"村上市","jp_add_2":"今川"},"9593416":{"post_code":"9593416","prefecture":"NIIGATA KEN","city":"MURAKAMI SHI","town":"IMAJUKU","perfecture_jp":"新潟県","jp_add_1":"村上市","jp_add_2":"今宿"},"9593903":{"post_code":"9593903","prefecture":"NIIGATA KEN","city":"MURAKAMI SHI","town":"IWASAKI","perfecture_jp":"新潟県","jp_add_1":"村上市","jp_add_2":"岩崎"},"9593426":{"post_code":"9593426","prefecture":"NIIGATA KEN","city":"MURAKAMI SHI","town":"IWANOSAWA","perfecture_jp":"新潟県","jp_add_1":"村上市","jp_add_2":"岩野沢"},"9593449":{"post_code":"9593449","prefecture":"NIIGATA KEN","city":"MURAKAMI SHI","town":"IWAFUNEEKIMAE","perfecture_jp":"新潟県","jp_add_1":"村上市","jp_add_2":"岩船駅前"},"9593436":{"post_code":"9593436","prefecture":"NIIGATA KEN","city":"MURAKAMI SHI","town":"USHIYA","perfecture_jp":"新潟県","jp_add_1":"村上市","jp_add_2":"牛屋"},"9593947":{"post_code":"9593947","prefecture":"NIIGATA KEN","city":"MURAKAMI SHI","town":"UDOMARI","perfecture_jp":"新潟県","jp_add_1":"村上市","jp_add_2":"鵜泊"},"9593117":{"post_code":"9593117","prefecture":"NIIGATA KEN","city":"MURAKAMI SHI","town":"EBIE","perfecture_jp":"新潟県","jp_add_1":"村上市","jp_add_2":"海老江"},"9593926":{"post_code":"9593926","prefecture":"NIIGATA KEN","city":"MURAKAMI SHI","town":"OGOTO","perfecture_jp":"新潟県","jp_add_1":"村上市","jp_add_2":"大毎"},"9593925":{"post_code":"9593925","prefecture":"NIIGATA KEN","city":"MURAKAMI SHI","town":"OSAWA","perfecture_jp":"新潟県","jp_add_1":"村上市","jp_add_2":"大沢"},"9593915":{"post_code":"9593915","prefecture":"NIIGATA KEN","city":"MURAKAMI SHI","town":"ODAI","perfecture_jp":"新潟県","jp_add_1":"村上市","jp_add_2":"大代"},"9593906":{"post_code":"9593906","prefecture":"NIIGATA KEN","city":"MURAKAMI SHI","town":"OTANIZAWA","perfecture_jp":"新潟県","jp_add_1":"村上市","jp_add_2":"大谷沢"},"9593122":{"post_code":"9593122","prefecture":"NIIGATA KEN","city":"MURAKAMI SHI","town":"OTSU","perfecture_jp":"新潟県","jp_add_1":"村上市","jp_add_2":"大津"},"9593415":{"post_code":"9593415","prefecture":"NIIGATA KEN","city":"MURAKAMI SHI","town":"OTSUKA","perfecture_jp":"新潟県","jp_add_1":"村上市","jp_add_2":"大塚"},"9593912":{"post_code":"9593912","prefecture":"NIIGATA KEN","city":"MURAKAMI SHI","town":"OSONOGO","perfecture_jp":"新潟県","jp_add_1":"村上市","jp_add_2":"遅郷"},"9593914":{"post_code":"9593914","prefecture":"NIIGATA KEN","city":"MURAKAMI SHI","town":"OMATA","perfecture_jp":"新潟県","jp_add_1":"村上市","jp_add_2":"小俣"},"9593102":{"post_code":"9593102","prefecture":"NIIGATA KEN","city":"MURAKAMI SHI","town":"KAITSUKE","perfecture_jp":"新潟県","jp_add_1":"村上市","jp_add_2":"貝附"},"9593932":{"post_code":"9593932","prefecture":"NIIGATA KEN","city":"MURAKAMI SHI","town":"KAKINOCHI","perfecture_jp":"新潟県","jp_add_1":"村上市","jp_add_2":"垣之内"},"9593448":{"post_code":"9593448","prefecture":"NIIGATA KEN","city":"MURAKAMI SHI","town":"KATABATA","perfecture_jp":"新潟県","jp_add_1":"村上市","jp_add_2":"潟端"},"9593942":{"post_code":"9593942","prefecture":"NIIGATA KEN","city":"MURAKAMI SHI","town":"GATSUGI","perfecture_jp":"新潟県","jp_add_1":"村上市","jp_add_2":"勝木"},"9593124":{"post_code":"9593124","prefecture":"NIIGATA KEN","city":"MURAKAMI SHI","town":"KANAYA","perfecture_jp":"新潟県","jp_add_1":"村上市","jp_add_2":"金屋"},"9593948":{"post_code":"9593948","prefecture":"NIIGATA KEN","city":"MURAKAMI SHI","town":"KAMIOKURA","perfecture_jp":"新潟県","jp_add_1":"村上市","jp_add_2":"上大蔵"},"9593934":{"post_code":"9593934","prefecture":"NIIGATA KEN","city":"MURAKAMI SHI","town":"KAMIOTORI","perfecture_jp":"新潟県","jp_add_1":"村上市","jp_add_2":"上大鳥"},"9593108":{"post_code":"9593108","prefecture":"NIIGATA KEN","city":"MURAKAMI SHI","town":"KAMIKAJIYA","perfecture_jp":"新潟県","jp_add_1":"村上市","jp_add_2":"上鍜冶屋"},"9593403":{"post_code":"9593403","prefecture":"NIIGATA KEN","city":"MURAKAMI SHI","town":"KAMISUKEBUCHI","perfecture_jp":"新潟県","jp_add_1":"村上市","jp_add_2":"上助渕"},"9593417":{"post_code":"9593417","prefecture":"NIIGATA KEN","city":"MURAKAMI SHI","town":"KAWAUCHI","perfecture_jp":"新潟県","jp_add_1":"村上市","jp_add_2":"河内"},"9593433":{"post_code":"9593433","prefecture":"NIIGATA KEN","city":"MURAKAMI SHI","town":"KAWABE","perfecture_jp":"新潟県","jp_add_1":"村上市","jp_add_2":"川部"},"9593653":{"post_code":"9593653","prefecture":"NIIGATA KEN","city":"MURAKAMI SHI","town":"KANGAWA","perfecture_jp":"新潟県","jp_add_1":"村上市","jp_add_2":"寒川"},"9593913":{"post_code":"9593913","prefecture":"NIIGATA KEN","city":"MURAKAMI SHI","town":"GANJIKI","perfecture_jp":"新潟県","jp_add_1":"村上市","jp_add_2":"岩石"},"9593936":{"post_code":"9593936","prefecture":"NIIGATA KEN","city":"MURAKAMI SHI","town":"KITAAKATANI","perfecture_jp":"新潟県","jp_add_1":"村上市","jp_add_2":"北赤谷"},"9593924":{"post_code":"9593924","prefecture":"NIIGATA KEN","city":"MURAKAMI SHI","town":"KITAKUROKAWA","perfecture_jp":"新潟県","jp_add_1":"村上市","jp_add_2":"北黒川"},"9593443":{"post_code":"9593443","prefecture":"NIIGATA KEN","city":"MURAKAMI SHI","town":"KITASHIMBO","perfecture_jp":"新潟県","jp_add_1":"村上市","jp_add_2":"北新保"},"9593935":{"post_code":"9593935","prefecture":"NIIGATA KEN","city":"MURAKAMI SHI","town":"KITATANAKA","perfecture_jp":"新潟県","jp_add_1":"村上市","jp_add_2":"北田中"},"9593927":{"post_code":"9593927","prefecture":"NIIGATA KEN","city":"MURAKAMI SHI","town":"KITANAKA","perfecture_jp":"新潟県","jp_add_1":"村上市","jp_add_2":"北中"},"9593106":{"post_code":"9593106","prefecture":"NIIGATA KEN","city":"MURAKAMI SHI","town":"KITTA","perfecture_jp":"新潟県","jp_add_1":"村上市","jp_add_2":"切田"},"9593665":{"post_code":"9593665","prefecture":"NIIGATA KEN","city":"MURAKAMI SHI","town":"KUWAGAWA","perfecture_jp":"新潟県","jp_add_1":"村上市","jp_add_2":"桑川"},"9593941":{"post_code":"9593941","prefecture":"NIIGATA KEN","city":"MURAKAMI SHI","town":"GOISHI","perfecture_jp":"新潟県","jp_add_1":"村上市","jp_add_2":"碁石"},"9593413":{"post_code":"9593413","prefecture":"NIIGATA KEN","city":"MURAKAMI SHI","town":"KOIDE","perfecture_jp":"新潟県","jp_add_1":"村上市","jp_add_2":"小出"},"9593434":{"post_code":"9593434","prefecture":"NIIGATA KEN","city":"MURAKAMI SHI","town":"KOIWAUCHI","perfecture_jp":"新潟県","jp_add_1":"村上市","jp_add_2":"小岩内"},"9593652":{"post_code":"9593652","prefecture":"NIIGATA KEN","city":"MURAKAMI SHI","town":"KOESAWA","perfecture_jp":"新潟県","jp_add_1":"村上市","jp_add_2":"越沢"},"9593446":{"post_code":"9593446","prefecture":"NIIGATA KEN","city":"MURAKAMI SHI","town":"KOKUCHIGAWA","perfecture_jp":"新潟県","jp_add_1":"村上市","jp_add_2":"小口川"},"9593423":{"post_code":"9593423","prefecture":"NIIGATA KEN","city":"MURAKAMI SHI","town":"KOKONOKAICHI","perfecture_jp":"新潟県","jp_add_1":"村上市","jp_add_2":"九日市"},"9593132":{"post_code":"9593132","prefecture":"NIIGATA KEN","city":"MURAKAMI SHI","town":"SAKAMACHI","perfecture_jp":"新潟県","jp_add_1":"村上市","jp_add_2":"坂町"},"9593664":{"post_code":"9593664","prefecture":"NIIGATA KEN","city":"MURAKAMI SHI","town":"SASAGAWA","perfecture_jp":"新潟県","jp_add_1":"村上市","jp_add_2":"笹川"},"9593121":{"post_code":"9593121","prefecture":"NIIGATA KEN","city":"MURAKAMI SHI","town":"SASAKI","perfecture_jp":"新潟県","jp_add_1":"村上市","jp_add_2":"佐々木"},"9593412":{"post_code":"9593412","prefecture":"NIIGATA KEN","city":"MURAKAMI SHI","town":"SASHIAWASE","perfecture_jp":"新潟県","jp_add_1":"村上市","jp_add_2":"指合"},"9593405":{"post_code":"9593405","prefecture":"NIIGATA KEN","city":"MURAKAMI SHI","town":"SATOHONJO","perfecture_jp":"新潟県","jp_add_1":"村上市","jp_add_2":"里本庄"},"9593441":{"post_code":"9593441","prefecture":"NIIGATA KEN","city":"MURAKAMI SHI","town":"SHIOYA","perfecture_jp":"新潟県","jp_add_1":"村上市","jp_add_2":"塩谷"},"9593402":{"post_code":"9593402","prefecture":"NIIGATA KEN","city":"MURAKAMI SHI","town":"SHIDANOHIRA","perfecture_jp":"新潟県","jp_add_1":"村上市","jp_add_2":"志田平"},"9593943":{"post_code":"9593943","prefecture":"NIIGATA KEN","city":"MURAKAMI SHI","town":"SHIMOOKURA","perfecture_jp":"新潟県","jp_add_1":"村上市","jp_add_2":"下大蔵"},"9593933":{"post_code":"9593933","prefecture":"NIIGATA KEN","city":"MURAKAMI SHI","town":"SHIMOOTORI","perfecture_jp":"新潟県","jp_add_1":"村上市","jp_add_2":"下大鳥"},"9593107":{"post_code":"9593107","prefecture":"NIIGATA KEN","city":"MURAKAMI SHI","town":"SHIMOKAJIYA","perfecture_jp":"新潟県","jp_add_1":"村上市","jp_add_2":"下鍜冶屋"},"9593406":{"post_code":"9593406","prefecture":"NIIGATA KEN","city":"MURAKAMI SHI","town":"SHIMOSUKEBUCHI","perfecture_jp":"新潟県","jp_add_1":"村上市","jp_add_2":"下助渕"},"9593115":{"post_code":"9593115","prefecture":"NIIGATA KEN","city":"MURAKAMI SHI","town":"SHINKOJI","perfecture_jp":"新潟県","jp_add_1":"村上市","jp_add_2":"新光寺"},"9593911":{"post_code":"9593911","prefecture":"NIIGATA KEN","city":"MURAKAMI SHI","town":"SUGITAIRA","perfecture_jp":"新潟県","jp_add_1":"村上市","jp_add_2":"杉平"},"9593447":{"post_code":"9593447","prefecture":"NIIGATA KEN","city":"MURAKAMI SHI","town":"TAKAMIDO","perfecture_jp":"新潟県","jp_add_1":"村上市","jp_add_2":"高御堂"},"9593944":{"post_code":"9593944","prefecture":"NIIGATA KEN","city":"MURAKAMI SHI","town":"TATESHIMA","perfecture_jp":"新潟県","jp_add_1":"村上市","jp_add_2":"立島"},"9593432":{"post_code":"9593432","prefecture":"NIIGATA KEN","city":"MURAKAMI SHI","town":"TSUZURAYAMA","perfecture_jp":"新潟県","jp_add_1":"村上市","jp_add_2":"葛籠山"},"9593919":{"post_code":"9593919","prefecture":"NIIGATA KEN","city":"MURAKAMI SHI","town":"TONOSHITA","perfecture_jp":"新潟県","jp_add_1":"村上市","jp_add_2":"塔下"},"9593938":{"post_code":"9593938","prefecture":"NIIGATA KEN","city":"MURAKAMI SHI","town":"TOYASAKI","perfecture_jp":"新潟県","jp_add_1":"村上市","jp_add_2":"遠矢崎"},"9593407":{"post_code":"9593407","prefecture":"NIIGATA KEN","city":"MURAKAMI SHI","town":"TONOKA","perfecture_jp":"新潟県","jp_add_1":"村上市","jp_add_2":"殿岡"},"9593126":{"post_code":"9593126","prefecture":"NIIGATA KEN","city":"MURAKAMI SHI","town":"TORIYA","perfecture_jp":"新潟県","jp_add_1":"村上市","jp_add_2":"鳥屋"},"9593123":{"post_code":"9593123","prefecture":"NIIGATA KEN","city":"MURAKAMI SHI","town":"NAKAKURA","perfecture_jp":"新潟県","jp_add_1":"村上市","jp_add_2":"中倉"},"9593931":{"post_code":"9593931","prefecture":"NIIGATA KEN","city":"MURAKAMI SHI","town":"NAGASAKA","perfecture_jp":"新潟県","jp_add_1":"村上市","jp_add_2":"長坂"},"9593918":{"post_code":"9593918","prefecture":"NIIGATA KEN","city":"MURAKAMI SHI","town":"NAKATSUGI","perfecture_jp":"新潟県","jp_add_1":"村上市","jp_add_2":"中継"},"9593928":{"post_code":"9593928","prefecture":"NIIGATA KEN","city":"MURAKAMI SHI","town":"NAKATSUHARA","perfecture_jp":"新潟県","jp_add_1":"村上市","jp_add_2":"中津原"},"9593112":{"post_code":"9593112","prefecture":"NIIGATA KEN","city":"MURAKAMI SHI","town":"NAKANO","perfecture_jp":"新潟県","jp_add_1":"村上市","jp_add_2":"中野"},"9593902":{"post_code":"9593902","prefecture":"NIIGATA KEN","city":"MURAKAMI SHI","town":"NAKAHAMA","perfecture_jp":"新潟県","jp_add_1":"村上市","jp_add_2":"中浜"},"9593111":{"post_code":"9593111","prefecture":"NIIGATA KEN","city":"MURAKAMI SHI","town":"NAGAMASA","perfecture_jp":"新潟県","jp_add_1":"村上市","jp_add_2":"長政"},"9593442":{"post_code":"9593442","prefecture":"NIIGATA KEN","city":"MURAKAMI SHI","town":"NAGAMATSU","perfecture_jp":"新潟県","jp_add_1":"村上市","jp_add_2":"長松"},"9593105":{"post_code":"9593105","prefecture":"NIIGATA KEN","city":"MURAKAMI SHI","town":"NASHINOKI","perfecture_jp":"新潟県","jp_add_1":"村上市","jp_add_2":"梨木"},"9593401":{"post_code":"9593401","prefecture":"NIIGATA KEN","city":"MURAKAMI SHI","town":"NANAMINATO","perfecture_jp":"新潟県","jp_add_1":"村上市","jp_add_2":"七湊"},"9593113":{"post_code":"9593113","prefecture":"NIIGATA KEN","city":"MURAKAMI SHI","town":"NAWARI","perfecture_jp":"新潟県","jp_add_1":"村上市","jp_add_2":"名割"},"9593445":{"post_code":"9593445","prefecture":"NIIGATA KEN","city":"MURAKAMI SHI","town":"NIIDA","perfecture_jp":"新潟県","jp_add_1":"村上市","jp_add_2":"新飯田"},"9593904":{"post_code":"9593904","prefecture":"NIIGATA KEN","city":"MURAKAMI SHI","town":"NUKUIDE","perfecture_jp":"新潟県","jp_add_1":"村上市","jp_add_2":"温出"},"9593946":{"post_code":"9593946","prefecture":"NIIGATA KEN","city":"MURAKAMI SHI","town":"NEYA","perfecture_jp":"新潟県","jp_add_1":"村上市","jp_add_2":"寝屋"},"9593134":{"post_code":"9593134","prefecture":"NIIGATA KEN","city":"MURAKAMI SHI","town":"HAGAE","perfecture_jp":"新潟県","jp_add_1":"村上市","jp_add_2":"羽ヶ榎"},"9593101":{"post_code":"9593101","prefecture":"NIIGATA KEN","city":"MURAKAMI SHI","town":"HANADATE","perfecture_jp":"新潟県","jp_add_1":"村上市","jp_add_2":"花立"},"9593666":{"post_code":"9593666","prefecture":"NIIGATA KEN","city":"MURAKAMI SHI","town":"HAMASHIMBO","perfecture_jp":"新潟県","jp_add_1":"村上市","jp_add_2":"浜新保"},"9593104":{"post_code":"9593104","prefecture":"NIIGATA KEN","city":"MURAKAMI SHI","town":"HARUKIYAMA","perfecture_jp":"新潟県","jp_add_1":"村上市","jp_add_2":"春木山"},"9593431":{"post_code":"9593431","prefecture":"NIIGATA KEN","city":"MURAKAMI SHI","town":"HIRABAYASHI","perfecture_jp":"新潟県","jp_add_1":"村上市","jp_add_2":"平林"},"9593437":{"post_code":"9593437","prefecture":"NIIGATA KEN","city":"MURAKAMI SHI","town":"FUKUDA","perfecture_jp":"新潟県","jp_add_1":"村上市","jp_add_2":"福田"},"9593131":{"post_code":"9593131","prefecture":"NIIGATA KEN","city":"MURAKAMI SHI","town":"FUJISAWA","perfecture_jp":"新潟県","jp_add_1":"村上市","jp_add_2":"藤沢"},"9593907":{"post_code":"9593907","prefecture":"NIIGATA KEN","city":"MURAKAMI SHI","town":"FUYA","perfecture_jp":"新潟県","jp_add_1":"村上市","jp_add_2":"府屋"},"9593922":{"post_code":"9593922","prefecture":"NIIGATA KEN","city":"MURAKAMI SHI","town":"HODAIRA","perfecture_jp":"新潟県","jp_add_1":"村上市","jp_add_2":"朴平"},"9593905":{"post_code":"9593905","prefecture":"NIIGATA KEN","city":"MURAKAMI SHI","town":"HORINOCHI","perfecture_jp":"新潟県","jp_add_1":"村上市","jp_add_2":"堀ノ内"},"9593424":{"post_code":"9593424","prefecture":"NIIGATA KEN","city":"MURAKAMI SHI","town":"MAKINOME","perfecture_jp":"新潟県","jp_add_1":"村上市","jp_add_2":"牧目"},"9593945":{"post_code":"9593945","prefecture":"NIIGATA KEN","city":"MURAKAMI SHI","town":"MAZE","perfecture_jp":"新潟県","jp_add_1":"村上市","jp_add_2":"間瀬"},"9593428":{"post_code":"9593428","prefecture":"NIIGATA KEN","city":"MURAKAMI SHI","town":"MATSUKIWA","perfecture_jp":"新潟県","jp_add_1":"村上市","jp_add_2":"松喜和"},"9593427":{"post_code":"9593427","prefecture":"NIIGATA KEN","city":"MURAKAMI SHI","town":"MATSUZAWA","perfecture_jp":"新潟県","jp_add_1":"村上市","jp_add_2":"松沢"},"9593411":{"post_code":"9593411","prefecture":"NIIGATA KEN","city":"MURAKAMI SHI","town":"MINAMIODAIRA","perfecture_jp":"新潟県","jp_add_1":"村上市","jp_add_2":"南大平"},"9593114":{"post_code":"9593114","prefecture":"NIIGATA KEN","city":"MURAKAMI SHI","town":"MINAMISHIMBO","perfecture_jp":"新潟県","jp_add_1":"村上市","jp_add_2":"南新保"},"9593444":{"post_code":"9593444","prefecture":"NIIGATA KEN","city":"MURAKAMI SHI","town":"MINAMITANAKA","perfecture_jp":"新潟県","jp_add_1":"村上市","jp_add_2":"南田中"},"9593421":{"post_code":"9593421","prefecture":"NIIGATA KEN","city":"MURAKAMI SHI","town":"MOMOKAWA","perfecture_jp":"新潟県","jp_add_1":"村上市","jp_add_2":"桃川"},"9593435":{"post_code":"9593435","prefecture":"NIIGATA KEN","city":"MURAKAMI SHI","town":"YAZUTA","perfecture_jp":"新潟県","jp_add_1":"村上市","jp_add_2":"宿田"},"9593133":{"post_code":"9593133","prefecture":"NIIGATA KEN","city":"MURAKAMI SHI","town":"YAMAGUCHI","perfecture_jp":"新潟県","jp_add_1":"村上市","jp_add_2":"山口"},"9593917":{"post_code":"9593917","prefecture":"NIIGATA KEN","city":"MURAKAMI SHI","town":"YAMAKUMATA","perfecture_jp":"新潟県","jp_add_1":"村上市","jp_add_2":"山熊田"},"9593425":{"post_code":"9593425","prefecture":"NIIGATA KEN","city":"MURAKAMI SHI","town":"YAMADA","perfecture_jp":"新潟県","jp_add_1":"村上市","jp_add_2":"山田"},"9593404":{"post_code":"9593404","prefecture":"NIIGATA KEN","city":"MURAKAMI SHI","town":"YAMAYA","perfecture_jp":"新潟県","jp_add_1":"村上市","jp_add_2":"山屋"},"9593661":{"post_code":"9593661","prefecture":"NIIGATA KEN","city":"MURAKAMI SHI","town":"WAKIGAWA","perfecture_jp":"新潟県","jp_add_1":"村上市","jp_add_2":"脇川"},"9591200":{"post_code":"9591200","prefecture":"NIIGATA KEN","city":"TSUBAME SHI","town":"IKANIKEISAIGANAIBAAI","perfecture_jp":"新潟県","jp_add_1":"燕市","jp_add_2":""},"9590227":{"post_code":"9590227","prefecture":"NIIGATA KEN","city":"TSUBAME SHI","town":"AOZU","perfecture_jp":"新潟県","jp_add_1":"燕市","jp_add_2":"粟生津"},"9591261":{"post_code":"9591261","prefecture":"NIIGATA KEN","city":"TSUBAME SHI","town":"AKIBACHO","perfecture_jp":"新潟県","jp_add_1":"燕市","jp_add_2":"秋葉町"},"9590131":{"post_code":"9590131","prefecture":"NIIGATA KEN","city":"TSUBAME SHI","town":"IZUMISHIN","perfecture_jp":"新潟県","jp_add_1":"燕市","jp_add_2":"泉新"},"9590114":{"post_code":"9590114","prefecture":"NIIGATA KEN","city":"TSUBAME SHI","town":"ICHINOYAMA","perfecture_jp":"新潟県","jp_add_1":"燕市","jp_add_2":"一ノ山"},"9591232":{"post_code":"9591232","prefecture":"NIIGATA KEN","city":"TSUBAME SHI","town":"IDOMAKI","perfecture_jp":"新潟県","jp_add_1":"燕市","jp_add_2":"井土巻"},"9590113":{"post_code":"9590113","prefecture":"NIIGATA KEN","city":"TSUBAME SHI","town":"OIGASHIMA","perfecture_jp":"新潟県","jp_add_1":"燕市","jp_add_2":"笈ケ島"},"9590123":{"post_code":"9590123","prefecture":"NIIGATA KEN","city":"TSUBAME SHI","town":"OKAWAZU","perfecture_jp":"新潟県","jp_add_1":"燕市","jp_add_2":"大川津"},"9591287":{"post_code":"9591287","prefecture":"NIIGATA KEN","city":"TSUBAME SHI","town":"OSEKI","perfecture_jp":"新潟県","jp_add_1":"燕市","jp_add_2":"大関"},"9590108":{"post_code":"9590108","prefecture":"NIIGATA KEN","city":"TSUBAME SHI","town":"OTA","perfecture_jp":"新潟県","jp_add_1":"燕市","jp_add_2":"太田"},"9590122":{"post_code":"9590122","prefecture":"NIIGATA KEN","city":"TSUBAME SHI","town":"OTAKESHINDEN","perfecture_jp":"新潟県","jp_add_1":"燕市","jp_add_2":"大武新田"},"9591212":{"post_code":"9591212","prefecture":"NIIGATA KEN","city":"TSUBAME SHI","town":"OFUNATO","perfecture_jp":"新潟県","jp_add_1":"燕市","jp_add_2":"大船渡"},"9591263":{"post_code":"9591263","prefecture":"NIIGATA KEN","city":"TSUBAME SHI","town":"OMAGARI","perfecture_jp":"新潟県","jp_add_1":"燕市","jp_add_2":"大曲"},"9590207":{"post_code":"9590207","prefecture":"NIIGATA KEN","city":"TSUBAME SHI","town":"KANEZUKA","perfecture_jp":"新潟県","jp_add_1":"燕市","jp_add_2":"庚塚"},"9590225":{"post_code":"9590225","prefecture":"NIIGATA KEN","city":"TSUBAME SHI","town":"KAMIGAWARA","perfecture_jp":"新潟県","jp_add_1":"燕市","jp_add_2":"上河原"},"9590181":{"post_code":"9590181","prefecture":"NIIGATA KEN","city":"TSUBAME SHI","town":"KAMISUWA","perfecture_jp":"新潟県","jp_add_1":"燕市","jp_add_2":"上諏訪"},"9591223":{"post_code":"9591223","prefecture":"NIIGATA KEN","city":"TSUBAME SHI","town":"SHIMOCHIGONOKI","perfecture_jp":"新潟県","jp_add_1":"燕市","jp_add_2":"上児木"},"9591217":{"post_code":"9591217","prefecture":"NIIGATA KEN","city":"TSUBAME SHI","town":"KANSHIN","perfecture_jp":"新潟県","jp_add_1":"燕市","jp_add_2":"勘新"},"9590136":{"post_code":"9590136","prefecture":"NIIGATA KEN","city":"TSUBAME SHI","town":"KUGAMI","perfecture_jp":"新潟県","jp_add_1":"燕市","jp_add_2":"国上"},"9590112":{"post_code":"9590112","prefecture":"NIIGATA KEN","city":"TSUBAME SHI","town":"KUMANOMORI","perfecture_jp":"新潟県","jp_add_1":"燕市","jp_add_2":"熊森"},"9591271":{"post_code":"9591271","prefecture":"NIIGATA KEN","city":"TSUBAME SHI","town":"KURASEKI","perfecture_jp":"新潟県","jp_add_1":"燕市","jp_add_2":"蔵関"},"9590137":{"post_code":"9590137","prefecture":"NIIGATA KEN","city":"TSUBAME SHI","town":"GEMPACHISHINDEN","perfecture_jp":"新潟県","jp_add_1":"燕市","jp_add_2":"源八新田"},"9591276":{"post_code":"9591276","prefecture":"NIIGATA KEN","city":"TSUBAME SHI","town":"KOIKE","perfecture_jp":"新潟県","jp_add_1":"燕市","jp_add_2":"小池"},"9591275":{"post_code":"9591275","prefecture":"NIIGATA KEN","city":"TSUBAME SHI","town":"KOIKESHIMMACHI","perfecture_jp":"新潟県","jp_add_1":"燕市","jp_add_2":"小池新町"},"9591256":{"post_code":"9591256","prefecture":"NIIGATA KEN","city":"TSUBAME SHI","town":"KOKUCHO","perfecture_jp":"新潟県","jp_add_1":"燕市","jp_add_2":"穀町"},"9590203":{"post_code":"9590203","prefecture":"NIIGATA KEN","city":"TSUBAME SHI","town":"KOJIMA","perfecture_jp":"新潟県","jp_add_1":"燕市","jp_add_2":"小島"},"9591286":{"post_code":"9591286","prefecture":"NIIGATA KEN","city":"TSUBAME SHI","town":"KOSEKI","perfecture_jp":"新潟県","jp_add_1":"燕市","jp_add_2":"小関"},"9590124":{"post_code":"9590124","prefecture":"NIIGATA KEN","city":"TSUBAME SHI","town":"GOSENGOKUARAKAWA","perfecture_jp":"新潟県","jp_add_1":"燕市","jp_add_2":"五千石"},"9591241":{"post_code":"9591241","prefecture":"NIIGATA KEN","city":"TSUBAME SHI","town":"KOTAKA","perfecture_jp":"新潟県","jp_add_1":"燕市","jp_add_2":"小高"},"9591252":{"post_code":"9591252","prefecture":"NIIGATA KEN","city":"TSUBAME SHI","town":"KOTOBUKICHO","perfecture_jp":"新潟県","jp_add_1":"燕市","jp_add_2":"寿町"},"9591211":{"post_code":"9591211","prefecture":"NIIGATA KEN","city":"TSUBAME SHI","town":"KONAKAGAWA","perfecture_jp":"新潟県","jp_add_1":"燕市","jp_add_2":"小中川"},"9591213":{"post_code":"9591213","prefecture":"NIIGATA KEN","city":"TSUBAME SHI","town":"KOFURUTSUSHIN","perfecture_jp":"新潟県","jp_add_1":"燕市","jp_add_2":"小古津新"},"9591226":{"post_code":"9591226","prefecture":"NIIGATA KEN","city":"TSUBAME SHI","town":"KOMAKI","perfecture_jp":"新潟県","jp_add_1":"燕市","jp_add_2":"小牧"},"9591254":{"post_code":"9591254","prefecture":"NIIGATA KEN","city":"TSUBAME SHI","town":"SAIWAICHO","perfecture_jp":"新潟県","jp_add_1":"燕市","jp_add_2":"幸町"},"9591281":{"post_code":"9591281","prefecture":"NIIGATA KEN","city":"TSUBAME SHI","town":"SAKURAMACHI","perfecture_jp":"新潟県","jp_add_1":"燕市","jp_add_2":"桜町"},"9590117":{"post_code":"9590117","prefecture":"NIIGATA KEN","city":"TSUBAME SHI","town":"SASAMAGARI","perfecture_jp":"新潟県","jp_add_1":"燕市","jp_add_2":"笹曲"},"9590101":{"post_code":"9590101","prefecture":"NIIGATA KEN","city":"TSUBAME SHI","town":"SAZEN","perfecture_jp":"新潟県","jp_add_1":"燕市","jp_add_2":"佐善"},"9590202":{"post_code":"9590202","prefecture":"NIIGATA KEN","city":"TSUBAME SHI","town":"SADOYAMA","perfecture_jp":"新潟県","jp_add_1":"燕市","jp_add_2":"佐渡山"},"9591228":{"post_code":"9591228","prefecture":"NIIGATA KEN","city":"TSUBAME SHI","town":"SAWATARI","perfecture_jp":"新潟県","jp_add_1":"燕市","jp_add_2":"佐渡"},"9591207":{"post_code":"9591207","prefecture":"NIIGATA KEN","city":"TSUBAME SHI","town":"SANNOFUCHI","perfecture_jp":"新潟県","jp_add_1":"燕市","jp_add_2":"三王渕"},"9590121":{"post_code":"9590121","prefecture":"NIIGATA KEN","city":"TSUBAME SHI","town":"JIZODO","perfecture_jp":"新潟県","jp_add_1":"燕市","jp_add_2":"地蔵堂"},"9590129":{"post_code":"9590129","prefecture":"NIIGATA KEN","city":"TSUBAME SHI","town":"JIZODOHONCHO","perfecture_jp":"新潟県","jp_add_1":"燕市","jp_add_2":"地蔵堂本町"},"9590222":{"post_code":"9590222","prefecture":"NIIGATA KEN","city":"TSUBAME SHI","town":"SHIMOAOZU","perfecture_jp":"新潟県","jp_add_1":"燕市","jp_add_2":"下粟生津"},"9590183":{"post_code":"9590183","prefecture":"NIIGATA KEN","city":"TSUBAME SHI","town":"SHIMOSUWA","perfecture_jp":"新潟県","jp_add_1":"燕市","jp_add_2":"下諏訪"},"9591246":{"post_code":"9591246","prefecture":"NIIGATA KEN","city":"TSUBAME SHI","town":"SHINEICHO","perfecture_jp":"新潟県","jp_add_1":"燕市","jp_add_2":"新栄町"},"9590116":{"post_code":"9590116","prefecture":"NIIGATA KEN","city":"TSUBAME SHI","town":"SHINKOYA","perfecture_jp":"新潟県","jp_add_1":"燕市","jp_add_2":"新興野"},"9591214":{"post_code":"9591214","prefecture":"NIIGATA KEN","city":"TSUBAME SHI","town":"SHINSEICHO","perfecture_jp":"新潟県","jp_add_1":"燕市","jp_add_2":"新生町"},"9590125":{"post_code":"9590125","prefecture":"NIIGATA KEN","city":"TSUBAME SHI","town":"SHINCHO","perfecture_jp":"新潟県","jp_add_1":"燕市","jp_add_2":"新長"},"9591255":{"post_code":"9591255","prefecture":"NIIGATA KEN","city":"TSUBAME SHI","town":"SHIMMACHI","perfecture_jp":"新潟県","jp_add_1":"燕市","jp_add_2":"新町"},"9591262":{"post_code":"9591262","prefecture":"NIIGATA KEN","city":"TSUBAME SHI","town":"SUIDOCHO","perfecture_jp":"新潟県","jp_add_1":"燕市","jp_add_2":"水道町"},"9591273":{"post_code":"9591273","prefecture":"NIIGATA KEN","city":"TSUBAME SHI","town":"SUGINA","perfecture_jp":"新潟県","jp_add_1":"燕市","jp_add_2":"杉名"},"9591272":{"post_code":"9591272","prefecture":"NIIGATA KEN","city":"TSUBAME SHI","town":"SUGIYANAGI","perfecture_jp":"新潟県","jp_add_1":"燕市","jp_add_2":"杉柳"},"9590205":{"post_code":"9590205","prefecture":"NIIGATA KEN","city":"TSUBAME SHI","town":"SUZUMEMORI","perfecture_jp":"新潟県","jp_add_1":"燕市","jp_add_2":"雀森"},"9590103":{"post_code":"9590103","prefecture":"NIIGATA KEN","city":"TSUBAME SHI","town":"SUNAKOTSUKA","perfecture_jp":"新潟県","jp_add_1":"燕市","jp_add_2":"砂子塚"},"9591206":{"post_code":"9591206","prefecture":"NIIGATA KEN","city":"TSUBAME SHI","town":"SEKISAKI","perfecture_jp":"新潟県","jp_add_1":"燕市","jp_add_2":"関崎"},"9591284":{"post_code":"9591284","prefecture":"NIIGATA KEN","city":"TSUBAME SHI","town":"SOMAGI","perfecture_jp":"新潟県","jp_add_1":"燕市","jp_add_2":"杣木"},"9590208":{"post_code":"9590208","prefecture":"NIIGATA KEN","city":"TSUBAME SHI","town":"DAIBO","perfecture_jp":"新潟県","jp_add_1":"燕市","jp_add_2":"大保"},"9590228":{"post_code":"9590228","prefecture":"NIIGATA KEN","city":"TSUBAME SHI","town":"TAKAKI","perfecture_jp":"新潟県","jp_add_1":"燕市","jp_add_2":"高木"},"9591203":{"post_code":"9591203","prefecture":"NIIGATA KEN","city":"TSUBAME SHI","town":"TATENO","perfecture_jp":"新潟県","jp_add_1":"燕市","jp_add_2":"舘野"},"9590223":{"post_code":"9590223","prefecture":"NIIGATA KEN","city":"TSUBAME SHI","town":"TANAKASHIN","perfecture_jp":"新潟県","jp_add_1":"燕市","jp_add_2":"田中新"},"9591244":{"post_code":"9591244","prefecture":"NIIGATA KEN","city":"TSUBAME SHI","town":"CHUODORI","perfecture_jp":"新潟県","jp_add_1":"燕市","jp_add_2":"中央通"},"9591204":{"post_code":"9591204","prefecture":"NIIGATA KEN","city":"TSUBAME SHI","town":"CHOSHO","perfecture_jp":"新潟県","jp_add_1":"燕市","jp_add_2":"長所"},"9590139":{"post_code":"9590139","prefecture":"NIIGATA KEN","city":"TSUBAME SHI","town":"CHOSHIN","perfecture_jp":"新潟県","jp_add_1":"燕市","jp_add_2":"長辰"},"9591222":{"post_code":"9591222","prefecture":"NIIGATA KEN","city":"TSUBAME SHI","town":"TSUGISHIN","perfecture_jp":"新潟県","jp_add_1":"燕市","jp_add_2":"次新"},"9591288":{"post_code":"9591288","prefecture":"NIIGATA KEN","city":"TSUBAME SHI","town":"TSUBAME","perfecture_jp":"新潟県","jp_add_1":"燕市","jp_add_2":"燕"},"9591265":{"post_code":"9591265","prefecture":"NIIGATA KEN","city":"TSUBAME SHI","town":"DOKIN","perfecture_jp":"新潟県","jp_add_1":"燕市","jp_add_2":"道金"},"9591233":{"post_code":"9591233","prefecture":"NIIGATA KEN","city":"TSUBAME SHI","town":"TONOSHIMA","perfecture_jp":"新潟県","jp_add_1":"燕市","jp_add_2":"殿島"},"9590211":{"post_code":"9590211","prefecture":"NIIGATA KEN","city":"TSUBAME SHI","town":"TOMINAGA","perfecture_jp":"新潟県","jp_add_1":"燕市","jp_add_2":"富永"},"9590212":{"post_code":"9590212","prefecture":"NIIGATA KEN","city":"TSUBAME SHI","town":"TOMINAGAJUBEESHINDEN","perfecture_jp":"新潟県","jp_add_1":"燕市","jp_add_2":"富永十兵衛新田"},"9591225":{"post_code":"9591225","prefecture":"NIIGATA KEN","city":"TSUBAME SHI","town":"NAKAGAWA","perfecture_jp":"新潟県","jp_add_1":"燕市","jp_add_2":"中川"},"9590105":{"post_code":"9590105","prefecture":"NIIGATA KEN","city":"TSUBAME SHI","town":"NAKAJIMA","perfecture_jp":"新潟県","jp_add_1":"燕市","jp_add_2":"中島"},"9590182":{"post_code":"9590182","prefecture":"NIIGATA KEN","city":"TSUBAME SHI","town":"NAKASUWA","perfecture_jp":"新潟県","jp_add_1":"燕市","jp_add_2":"中諏訪"},"9591258":{"post_code":"9591258","prefecture":"NIIGATA KEN","city":"TSUBAME SHI","town":"NAKAMACHI","perfecture_jp":"新潟県","jp_add_1":"燕市","jp_add_2":"仲町"},"9591205":{"post_code":"9591205","prefecture":"NIIGATA KEN","city":"TSUBAME SHI","town":"NAGAWATARI","perfecture_jp":"新潟県","jp_add_1":"燕市","jp_add_2":"長渡"},"9590133":{"post_code":"9590133","prefecture":"NIIGATA KEN","city":"TSUBAME SHI","town":"NIIBORI","perfecture_jp":"新潟県","jp_add_1":"燕市","jp_add_2":"新堀"},"9591216":{"post_code":"9591216","prefecture":"NIIGATA KEN","city":"TSUBAME SHI","town":"NIKAIDO","perfecture_jp":"新潟県","jp_add_1":"燕市","jp_add_2":"二階堂"},"9590201":{"post_code":"9590201","prefecture":"NIIGATA KEN","city":"TSUBAME SHI","town":"NISHIMAGI","perfecture_jp":"新潟県","jp_add_1":"燕市","jp_add_2":"西槇"},"9590126":{"post_code":"9590126","prefecture":"NIIGATA KEN","city":"TSUBAME SHI","town":"NONAKASAI","perfecture_jp":"新潟県","jp_add_1":"燕市","jp_add_2":"野中才"},"9590224":{"post_code":"9590224","prefecture":"NIIGATA KEN","city":"TSUBAME SHI","town":"NOMOTO","perfecture_jp":"新潟県","jp_add_1":"燕市","jp_add_2":"野本"},"9591201":{"post_code":"9591201","prefecture":"NIIGATA KEN","city":"TSUBAME SHI","town":"HAIGATA","perfecture_jp":"新潟県","jp_add_1":"燕市","jp_add_2":"灰方"},"9591251":{"post_code":"9591251","prefecture":"NIIGATA KEN","city":"TSUBAME SHI","town":"HAKUSANCHO","perfecture_jp":"新潟県","jp_add_1":"燕市","jp_add_2":"白山町"},"9591264":{"post_code":"9591264","prefecture":"NIIGATA KEN","city":"TSUBAME SHI","town":"HACHIOJI","perfecture_jp":"新潟県","jp_add_1":"燕市","jp_add_2":"八王寺"},"9591221":{"post_code":"9591221","prefecture":"NIIGATA KEN","city":"TSUBAME SHI","town":"HANAZONOCHO","perfecture_jp":"新潟県","jp_add_1":"燕市","jp_add_2":"花園町"},"9591280":{"post_code":"9591280","prefecture":"NIIGATA KEN","city":"TSUBAME SHI","town":"HANAMI","perfecture_jp":"新潟県","jp_add_1":"燕市","jp_add_2":"花見"},"9591289":{"post_code":"9591289","prefecture":"NIIGATA KEN","city":"TSUBAME SHI","town":"HIGASHIOTA","perfecture_jp":"新潟県","jp_add_1":"燕市","jp_add_2":"東太田"},"9591242":{"post_code":"9591242","prefecture":"NIIGATA KEN","city":"TSUBAME SHI","town":"HINODECHO","perfecture_jp":"新潟県","jp_add_1":"燕市","jp_add_2":"日之出町"},"9591277":{"post_code":"9591277","prefecture":"NIIGATA KEN","city":"TSUBAME SHI","town":"BUTSURYUSENTA","perfecture_jp":"新潟県","jp_add_1":"燕市","jp_add_2":"物流センター"},"9590132":{"post_code":"9590132","prefecture":"NIIGATA KEN","city":"TSUBAME SHI","town":"BUNSUIAKEBONO","perfecture_jp":"新潟県","jp_add_1":"燕市","jp_add_2":"分水あけぼの"},"9590107":{"post_code":"9590107","prefecture":"NIIGATA KEN","city":"TSUBAME SHI","town":"BUNSUIASAHIMACHI","perfecture_jp":"新潟県","jp_add_1":"燕市","jp_add_2":"分水旭町"},"9590119":{"post_code":"9590119","prefecture":"NIIGATA KEN","city":"TSUBAME SHI","town":"BUNSUIOTAKE","perfecture_jp":"新潟県","jp_add_1":"燕市","jp_add_2":"分水大武"},"9590115":{"post_code":"9590115","prefecture":"NIIGATA KEN","city":"TSUBAME SHI","town":"BUNSUIGAKKOCHO","perfecture_jp":"新潟県","jp_add_1":"燕市","jp_add_2":"分水学校町"},"9590109":{"post_code":"9590109","prefecture":"NIIGATA KEN","city":"TSUBAME SHI","town":"BUNSUIKOYO","perfecture_jp":"新潟県","jp_add_1":"燕市","jp_add_2":"分水向陽"},"9590120":{"post_code":"9590120","prefecture":"NIIGATA KEN","city":"TSUBAME SHI","town":"BUNSUISAKAECHO","perfecture_jp":"新潟県","jp_add_1":"燕市","jp_add_2":"分水栄町"},"9590130":{"post_code":"9590130","prefecture":"NIIGATA KEN","city":"TSUBAME SHI","town":"BUNSUISAKURAMACHI","perfecture_jp":"新潟県","jp_add_1":"燕市","jp_add_2":"分水桜町"},"9590128":{"post_code":"9590128","prefecture":"NIIGATA KEN","city":"TSUBAME SHI","town":"BUNSUISHIMMACHI","perfecture_jp":"新潟県","jp_add_1":"燕市","jp_add_2":"分水新町"},"9590106":{"post_code":"9590106","prefecture":"NIIGATA KEN","city":"TSUBAME SHI","town":"BUNSUIHIGASHIGAKKOCHO","perfecture_jp":"新潟県","jp_add_1":"燕市","jp_add_2":"分水東学校町"},"9590127":{"post_code":"9590127","prefecture":"NIIGATA KEN","city":"TSUBAME SHI","town":"BUNSUIBUNKYOCHO","perfecture_jp":"新潟県","jp_add_1":"燕市","jp_add_2":"分水文京町"},"9590118":{"post_code":"9590118","prefecture":"NIIGATA KEN","city":"TSUBAME SHI","town":"BUNSUIMUKOYAMA","perfecture_jp":"新潟県","jp_add_1":"燕市","jp_add_2":"分水向山"},"9590104":{"post_code":"9590104","prefecture":"NIIGATA KEN","city":"TSUBAME SHI","town":"BUNSUIYAYOICHO","perfecture_jp":"新潟県","jp_add_1":"燕市","jp_add_2":"分水弥生町"},"9591253":{"post_code":"9591253","prefecture":"NIIGATA KEN","city":"TSUBAME SHI","town":"HONCHO","perfecture_jp":"新潟県","jp_add_1":"燕市","jp_add_2":"本町"},"9590102":{"post_code":"9590102","prefecture":"NIIGATA KEN","city":"TSUBAME SHI","town":"MAKIGAHANA","perfecture_jp":"新潟県","jp_add_1":"燕市","jp_add_2":"牧ケ花"},"9590134":{"post_code":"9590134","prefecture":"NIIGATA KEN","city":"TSUBAME SHI","town":"MAGIYAMA","perfecture_jp":"新潟県","jp_add_1":"燕市","jp_add_2":"真木山"},"9590138":{"post_code":"9590138","prefecture":"NIIGATA KEN","city":"TSUBAME SHI","town":"MAKUJIMA","perfecture_jp":"新潟県","jp_add_1":"燕市","jp_add_2":"幕島"},"9591215":{"post_code":"9591215","prefecture":"NIIGATA KEN","city":"TSUBAME SHI","town":"MATASHIN","perfecture_jp":"新潟県","jp_add_1":"燕市","jp_add_2":"又新"},"9591202":{"post_code":"9591202","prefecture":"NIIGATA KEN","city":"TSUBAME SHI","town":"MATSUHASHI","perfecture_jp":"新潟県","jp_add_1":"燕市","jp_add_2":"松橋"},"9590172":{"post_code":"9590172","prefecture":"NIIGATA KEN","city":"TSUBAME SHI","town":"MIZO","perfecture_jp":"新潟県","jp_add_1":"燕市","jp_add_2":"溝"},"9590171":{"post_code":"9590171","prefecture":"NIIGATA KEN","city":"TSUBAME SHI","town":"MIZOKOSHIN","perfecture_jp":"新潟県","jp_add_1":"燕市","jp_add_2":"溝古新"},"9591234":{"post_code":"9591234","prefecture":"NIIGATA KEN","city":"TSUBAME SHI","town":"MINAMI","perfecture_jp":"新潟県","jp_add_1":"燕市","jp_add_2":"南"},"9591257":{"post_code":"9591257","prefecture":"NIIGATA KEN","city":"TSUBAME SHI","town":"MIYACHO","perfecture_jp":"新潟県","jp_add_1":"燕市","jp_add_2":"宮町"},"9591274":{"post_code":"9591274","prefecture":"NIIGATA KEN","city":"TSUBAME SHI","town":"YANAGIYAMA","perfecture_jp":"新潟県","jp_add_1":"燕市","jp_add_2":"柳山"},"9590111":{"post_code":"9590111","prefecture":"NIIGATA KEN","city":"TSUBAME SHI","town":"YOKOTA","perfecture_jp":"新潟県","jp_add_1":"燕市","jp_add_2":"横田"},"9590263":{"post_code":"9590263","prefecture":"NIIGATA KEN","city":"TSUBAME SHI","town":"YOSHIDA (YOSHIDAMOMOYAMACHO)","perfecture_jp":"新潟県","jp_add_1":"燕市","jp_add_2":"吉田"},"9590264":{"post_code":"9590264","prefecture":"NIIGATA KEN","city":"TSUBAME SHI","town":"YOSHIDA(SONOTA)","perfecture_jp":"新潟県","jp_add_1":"燕市","jp_add_2":"吉田"},"9590217":{"post_code":"9590217","prefecture":"NIIGATA KEN","city":"TSUBAME SHI","town":"YOSHIDAAKEBONOCHO","perfecture_jp":"新潟県","jp_add_1":"燕市","jp_add_2":"吉田曙町"},"9590235":{"post_code":"9590235","prefecture":"NIIGATA KEN","city":"TSUBAME SHI","town":"YOSHIDAASAHICHO","perfecture_jp":"新潟県","jp_add_1":"燕市","jp_add_2":"吉田旭町"},"9590265":{"post_code":"9590265","prefecture":"NIIGATA KEN","city":"TSUBAME SHI","town":"YOSHIDAAZUMACHO","perfecture_jp":"新潟県","jp_add_1":"燕市","jp_add_2":"吉田東町"},"9590216":{"post_code":"9590216","prefecture":"NIIGATA KEN","city":"TSUBAME SHI","town":"YOSHIDAKASUGACHO","perfecture_jp":"新潟県","jp_add_1":"燕市","jp_add_2":"吉田春日町"},"9590252":{"post_code":"9590252","prefecture":"NIIGATA KEN","city":"TSUBAME SHI","town":"YOSHIDAGAKKOCHO","perfecture_jp":"新潟県","jp_add_1":"燕市","jp_add_2":"吉田学校町"},"9590241":{"post_code":"9590241","prefecture":"NIIGATA KEN","city":"TSUBAME SHI","town":"YOSHIDAKANDACHO","perfecture_jp":"新潟県","jp_add_1":"燕市","jp_add_2":"吉田神田町"},"9590245":{"post_code":"9590245","prefecture":"NIIGATA KEN","city":"TSUBAME SHI","town":"YOSHIDAKAMMACHI","perfecture_jp":"新潟県","jp_add_1":"燕市","jp_add_2":"吉田上町"},"9590261":{"post_code":"9590261","prefecture":"NIIGATA KEN","city":"TSUBAME SHI","town":"YOSHIDAKONOSU","perfecture_jp":"新潟県","jp_add_1":"燕市","jp_add_2":"吉田鴻巣"},"9590256":{"post_code":"9590256","prefecture":"NIIGATA KEN","city":"TSUBAME SHI","town":"YOSHIDAKOTOBUKICHO","perfecture_jp":"新潟県","jp_add_1":"燕市","jp_add_2":"吉田寿町"},"9590257":{"post_code":"9590257","prefecture":"NIIGATA KEN","city":"TSUBAME SHI","town":"YOSHIDASAIWAICHO","perfecture_jp":"新潟県","jp_add_1":"燕市","jp_add_2":"吉田幸町"},"9590233":{"post_code":"9590233","prefecture":"NIIGATA KEN","city":"TSUBAME SHI","town":"YOSHIDASAKAECHO","perfecture_jp":"新潟県","jp_add_1":"燕市","jp_add_2":"吉田栄町"},"9590215":{"post_code":"9590215","prefecture":"NIIGATA KEN","city":"TSUBAME SHI","town":"YOSHIDASHIMONAKANO","perfecture_jp":"新潟県","jp_add_1":"燕市","jp_add_2":"吉田下中野"},"9590253":{"post_code":"9590253","prefecture":"NIIGATA KEN","city":"TSUBAME SHI","town":"YOSHIDASHIMOMACHI","perfecture_jp":"新潟県","jp_add_1":"燕市","jp_add_2":"吉田下町"},"9590247":{"post_code":"9590247","prefecture":"NIIGATA KEN","city":"TSUBAME SHI","town":"YOSHIDASHINDEMMACHI","perfecture_jp":"新潟県","jp_add_1":"燕市","jp_add_2":"吉田新田町"},"9590246":{"post_code":"9590246","prefecture":"NIIGATA KEN","city":"TSUBAME SHI","town":"YOSHIDASHIMMACHI","perfecture_jp":"新潟県","jp_add_1":"燕市","jp_add_2":"吉田新町"},"9590254":{"post_code":"9590254","prefecture":"NIIGATA KEN","city":"TSUBAME SHI","town":"YOSHIDASHIMMEICHO","perfecture_jp":"新潟県","jp_add_1":"燕市","jp_add_2":"吉田神明町"},"9590234":{"post_code":"9590234","prefecture":"NIIGATA KEN","city":"TSUBAME SHI","town":"YOSHIDASUIDOCHO","perfecture_jp":"新潟県","jp_add_1":"燕市","jp_add_2":"吉田水道町"},"9590242":{"post_code":"9590242","prefecture":"NIIGATA KEN","city":"TSUBAME SHI","town":"YOSHIDADAIBOCHO","perfecture_jp":"新潟県","jp_add_1":"燕市","jp_add_2":"吉田大保町"},"9590237":{"post_code":"9590237","prefecture":"NIIGATA KEN","city":"TSUBAME SHI","town":"YOSHIDATSUTSUMICHO","perfecture_jp":"新潟県","jp_add_1":"燕市","jp_add_2":"吉田堤町"},"9590244":{"post_code":"9590244","prefecture":"NIIGATA KEN","city":"TSUBAME SHI","town":"YOSHIDANAKAMACHI","perfecture_jp":"新潟県","jp_add_1":"燕市","jp_add_2":"吉田中町"},"9590221":{"post_code":"9590221","prefecture":"NIIGATA KEN","city":"TSUBAME SHI","town":"YOSHIDANISHIOTA","perfecture_jp":"新潟県","jp_add_1":"燕市","jp_add_2":"吉田西太田"},"9590248":{"post_code":"9590248","prefecture":"NIIGATA KEN","city":"TSUBAME SHI","town":"YOSHIDAHAMAKUBICHO","perfecture_jp":"新潟県","jp_add_1":"燕市","jp_add_2":"吉田浜首"},"9590232":{"post_code":"9590232","prefecture":"NIIGATA KEN","city":"TSUBAME SHI","town":"YOSHIDAHIGASHISAKAECHO","perfecture_jp":"新潟県","jp_add_1":"燕市","jp_add_2":"吉田東栄町"},"9590231":{"post_code":"9590231","prefecture":"NIIGATA KEN","city":"TSUBAME SHI","town":"YOSHIDAHINODECHO","perfecture_jp":"新潟県","jp_add_1":"燕市","jp_add_2":"吉田日之出町"},"9590266":{"post_code":"9590266","prefecture":"NIIGATA KEN","city":"TSUBAME SHI","town":"YOSHIDABUNKYOCHO","perfecture_jp":"新潟県","jp_add_1":"燕市","jp_add_2":"吉田文京町"},"9590214":{"post_code":"9590214","prefecture":"NIIGATA KEN","city":"TSUBAME SHI","town":"YOSHIDAHOKKEDO","perfecture_jp":"新潟県","jp_add_1":"燕市","jp_add_2":"吉田法花堂"},"9590251":{"post_code":"9590251","prefecture":"NIIGATA KEN","city":"TSUBAME SHI","town":"YOSHIDAHONJO","perfecture_jp":"新潟県","jp_add_1":"燕市","jp_add_2":"吉田本所"},"9590243":{"post_code":"9590243","prefecture":"NIIGATA KEN","city":"TSUBAME SHI","town":"YOSHIDAMATSUOKASHINDEN","perfecture_jp":"新潟県","jp_add_1":"燕市","jp_add_2":"吉田松岡新田"},"9590236":{"post_code":"9590236","prefecture":"NIIGATA KEN","city":"TSUBAME SHI","town":"YOSHIDAMATSUOKACHO","perfecture_jp":"新潟県","jp_add_1":"燕市","jp_add_2":"吉田松岡町"},"9590267":{"post_code":"9590267","prefecture":"NIIGATA KEN","city":"TSUBAME SHI","town":"YOSHIDAMIYAKOJI","perfecture_jp":"新潟県","jp_add_1":"燕市","jp_add_2":"吉田宮小路"},"9590268":{"post_code":"9590268","prefecture":"NIIGATA KEN","city":"TSUBAME SHI","town":"YOSHIDAMOTOMACHI","perfecture_jp":"新潟県","jp_add_1":"燕市","jp_add_2":"吉田本町"},"9590250":{"post_code":"9590250","prefecture":"NIIGATA KEN","city":"TSUBAME SHI","town":"YOSHIDAYAHAGI","perfecture_jp":"新潟県","jp_add_1":"燕市","jp_add_2":"吉田矢作"},"9590255":{"post_code":"9590255","prefecture":"NIIGATA KEN","city":"TSUBAME SHI","town":"YOSHIDAYAYOICHO","perfecture_jp":"新潟県","jp_add_1":"燕市","jp_add_2":"吉田弥生町"},"9590213":{"post_code":"9590213","prefecture":"NIIGATA KEN","city":"TSUBAME SHI","town":"YOSHIDAYOSHIEI","perfecture_jp":"新潟県","jp_add_1":"燕市","jp_add_2":"吉田吉栄"},"9590262":{"post_code":"9590262","prefecture":"NIIGATA KEN","city":"TSUBAME SHI","town":"YOSHIDAWAKOCHO","perfecture_jp":"新潟県","jp_add_1":"燕市","jp_add_2":"吉田若生町"},"9591224":{"post_code":"9591224","prefecture":"NIIGATA KEN","city":"TSUBAME SHI","town":"YOTSUYA","perfecture_jp":"新潟県","jp_add_1":"燕市","jp_add_2":"四ツ屋"},"9590206":{"post_code":"9590206","prefecture":"NIIGATA KEN","city":"TSUBAME SHI","town":"YONOZU","perfecture_jp":"新潟県","jp_add_1":"燕市","jp_add_2":"米納津"},"9590135":{"post_code":"9590135","prefecture":"NIIGATA KEN","city":"TSUBAME SHI","town":"WATABE","perfecture_jp":"新潟県","jp_add_1":"燕市","jp_add_2":"渡部"},"9591600":{"post_code":"9591600","prefecture":"NIIGATA KEN","city":"GOSEN SHI","town":"IKANIKEISAIGANAIBAAI","perfecture_jp":"新潟県","jp_add_1":"五泉市","jp_add_2":""},"9591755":{"post_code":"9591755","prefecture":"NIIGATA KEN","city":"GOSEN SHI","town":"AOHASHI","perfecture_jp":"新潟県","jp_add_1":"五泉市","jp_add_2":"青橋"},"9591641":{"post_code":"9591641","prefecture":"NIIGATA KEN","city":"GOSEN SHI","town":"AKAHANE","perfecture_jp":"新潟県","jp_add_1":"五泉市","jp_add_2":"赤羽"},"9591831":{"post_code":"9591831","prefecture":"NIIGATA KEN","city":"GOSEN SHI","town":"AKEBONOCHO","perfecture_jp":"新潟県","jp_add_1":"五泉市","jp_add_2":"曙町"},"9591821":{"post_code":"9591821","prefecture":"NIIGATA KEN","city":"GOSEN SHI","town":"AKOMI","perfecture_jp":"新潟県","jp_add_1":"五泉市","jp_add_2":"赤海"},"9591862":{"post_code":"9591862","prefecture":"NIIGATA KEN","city":"GOSEN SHI","town":"ASAHICHO","perfecture_jp":"新潟県","jp_add_1":"五泉市","jp_add_2":"旭町"},"9591765":{"post_code":"9591765","prefecture":"NIIGATA KEN","city":"GOSEN SHI","town":"ATAGO","perfecture_jp":"新潟県","jp_add_1":"五泉市","jp_add_2":"愛宕"},"9591717":{"post_code":"9591717","prefecture":"NIIGATA KEN","city":"GOSEN SHI","town":"AMIDASE","perfecture_jp":"新潟県","jp_add_1":"五泉市","jp_add_2":"阿弥陀瀬"},"9591737":{"post_code":"9591737","prefecture":"NIIGATA KEN","city":"GOSEN SHI","town":"ARAYA","perfecture_jp":"新潟県","jp_add_1":"五泉市","jp_add_2":"新屋"},"9591861":{"post_code":"9591861","prefecture":"NIIGATA KEN","city":"GOSEN SHI","town":"AWASHIMA","perfecture_jp":"新潟県","jp_add_1":"五泉市","jp_add_2":"粟島"},"9591833":{"post_code":"9591833","prefecture":"NIIGATA KEN","city":"GOSEN SHI","town":"IGARASHISHINDEN","perfecture_jp":"新潟県","jp_add_1":"五泉市","jp_add_2":"五十嵐新田"},"9591857":{"post_code":"9591857","prefecture":"NIIGATA KEN","city":"GOSEN SHI","town":"ISHIKURA","perfecture_jp":"新潟県","jp_add_1":"五泉市","jp_add_2":"石倉"},"9591701":{"post_code":"9591701","prefecture":"NIIGATA KEN","city":"GOSEN SHI","town":"ISHIZONE","perfecture_jp":"新潟県","jp_add_1":"五泉市","jp_add_2":"石曽根"},"9591876":{"post_code":"9591876","prefecture":"NIIGATA KEN","city":"GOSEN SHI","town":"IZUMICHO","perfecture_jp":"新潟県","jp_add_1":"五泉市","jp_add_2":"泉町"},"9591813":{"post_code":"9591813","prefecture":"NIIGATA KEN","city":"GOSEN SHI","town":"ISENOKAWA","perfecture_jp":"新潟県","jp_add_1":"五泉市","jp_add_2":"伊勢の川"},"9591601":{"post_code":"9591601","prefecture":"NIIGATA KEN","city":"GOSEN SHI","town":"IPPONSUGI","perfecture_jp":"新潟県","jp_add_1":"五泉市","jp_add_2":"一本杉"},"9591835":{"post_code":"9591835","prefecture":"NIIGATA KEN","city":"GOSEN SHI","town":"IMAIZUMI","perfecture_jp":"新潟県","jp_add_1":"五泉市","jp_add_2":"今泉"},"9591749":{"post_code":"9591749","prefecture":"NIIGATA KEN","city":"GOSEN SHI","town":"UENO","perfecture_jp":"新潟県","jp_add_1":"五泉市","jp_add_2":"上野"},"9591823":{"post_code":"9591823","prefecture":"NIIGATA KEN","city":"GOSEN SHI","town":"EKIMAE","perfecture_jp":"新潟県","jp_add_1":"五泉市","jp_add_2":"駅前"},"9591867":{"post_code":"9591867","prefecture":"NIIGATA KEN","city":"GOSEN SHI","town":"OKAWAMAE","perfecture_jp":"新潟県","jp_add_1":"五泉市","jp_add_2":"大川前"},"9591731":{"post_code":"9591731","prefecture":"NIIGATA KEN","city":"GOSEN SHI","town":"OKUCHI","perfecture_jp":"新潟県","jp_add_1":"五泉市","jp_add_2":"大口"},"9591636":{"post_code":"9591636","prefecture":"NIIGATA KEN","city":"GOSEN SHI","town":"OKURA","perfecture_jp":"新潟県","jp_add_1":"五泉市","jp_add_2":"大蔵"},"9591845":{"post_code":"9591845","prefecture":"NIIGATA KEN","city":"GOSEN SHI","town":"OSAWA","perfecture_jp":"新潟県","jp_add_1":"五泉市","jp_add_2":"大沢"},"9591633":{"post_code":"9591633","prefecture":"NIIGATA KEN","city":"GOSEN SHI","town":"OSUGO","perfecture_jp":"新潟県","jp_add_1":"五泉市","jp_add_2":"大須郷"},"9591825":{"post_code":"9591825","prefecture":"NIIGATA KEN","city":"GOSEN SHI","town":"OTA","perfecture_jp":"新潟県","jp_add_1":"五泉市","jp_add_2":"太田"},"9591623":{"post_code":"9591623","prefecture":"NIIGATA KEN","city":"GOSEN SHI","town":"OTANI","perfecture_jp":"新潟県","jp_add_1":"五泉市","jp_add_2":"大谷"},"9591734":{"post_code":"9591734","prefecture":"NIIGATA KEN","city":"GOSEN SHI","town":"OHARA","perfecture_jp":"新潟県","jp_add_1":"五泉市","jp_add_2":"大原"},"9591852":{"post_code":"9591852","prefecture":"NIIGATA KEN","city":"GOSEN SHI","town":"OGISONE","perfecture_jp":"新潟県","jp_add_1":"五泉市","jp_add_2":"荻曽根"},"9591603":{"post_code":"9591603","prefecture":"NIIGATA KEN","city":"GOSEN SHI","town":"OGINOSHIMA","perfecture_jp":"新潟県","jp_add_1":"五泉市","jp_add_2":"荻野島"},"9591855":{"post_code":"9591855","prefecture":"NIIGATA KEN","city":"GOSEN SHI","town":"OGUMA","perfecture_jp":"新潟県","jp_add_1":"五泉市","jp_add_2":"小熊"},"9591621":{"post_code":"9591621","prefecture":"NIIGATA KEN","city":"GOSEN SHI","town":"OJIRO","perfecture_jp":"新潟県","jp_add_1":"五泉市","jp_add_2":"尾白"},"9591624":{"post_code":"9591624","prefecture":"NIIGATA KEN","city":"GOSEN SHI","town":"OYAMADA","perfecture_jp":"新潟県","jp_add_1":"五泉市","jp_add_2":"小山田"},"9591866":{"post_code":"9591866","prefecture":"NIIGATA KEN","city":"GOSEN SHI","town":"GAKKOCHO","perfecture_jp":"新潟県","jp_add_1":"五泉市","jp_add_2":"学校町"},"9591744":{"post_code":"9591744","prefecture":"NIIGATA KEN","city":"GOSEN SHI","town":"KAMIOKAMBARA","perfecture_jp":"新潟県","jp_add_1":"五泉市","jp_add_2":"上大蒲原"},"9591708":{"post_code":"9591708","prefecture":"NIIGATA KEN","city":"GOSEN SHI","town":"KAMIKIGOSHI","perfecture_jp":"新潟県","jp_add_1":"五泉市","jp_add_2":"上木越"},"9591726":{"post_code":"9591726","prefecture":"NIIGATA KEN","city":"GOSEN SHI","town":"KAMISUGIKAWA","perfecture_jp":"新潟県","jp_add_1":"五泉市","jp_add_2":"上杉川"},"9591746":{"post_code":"9591746","prefecture":"NIIGATA KEN","city":"GOSEN SHI","town":"KAMITOGURA","perfecture_jp":"新潟県","jp_add_1":"五泉市","jp_add_2":"上戸倉"},"9591635":{"post_code":"9591635","prefecture":"NIIGATA KEN","city":"GOSEN SHI","town":"KARASAWA","perfecture_jp":"新潟県","jp_add_1":"五泉市","jp_add_2":"柄沢"},"9591756":{"post_code":"9591756","prefecture":"NIIGATA KEN","city":"GOSEN SHI","town":"KARIWA","perfecture_jp":"新潟県","jp_add_1":"五泉市","jp_add_2":"刈羽"},"9591832":{"post_code":"9591832","prefecture":"NIIGATA KEN","city":"GOSEN SHI","town":"KAWAZE","perfecture_jp":"新潟県","jp_add_1":"五泉市","jp_add_2":"川瀬"},"9591711":{"post_code":"9591711","prefecture":"NIIGATA KEN","city":"GOSEN SHI","town":"KAWACHI","perfecture_jp":"新潟県","jp_add_1":"五泉市","jp_add_2":"川内"},"9591834":{"post_code":"9591834","prefecture":"NIIGATA KEN","city":"GOSEN SHI","town":"KIGOSHI","perfecture_jp":"新潟県","jp_add_1":"五泉市","jp_add_2":"木越"},"9591709":{"post_code":"9591709","prefecture":"NIIGATA KEN","city":"GOSEN SHI","town":"KIGOSHIARAYA","perfecture_jp":"新潟県","jp_add_1":"五泉市","jp_add_2":"木越荒屋"},"9591814":{"post_code":"9591814","prefecture":"NIIGATA KEN","city":"GOSEN SHI","town":"KITAGOSENEKIMAE","perfecture_jp":"新潟県","jp_add_1":"五泉市","jp_add_2":"北五泉駅前"},"9591625":{"post_code":"9591625","prefecture":"NIIGATA KEN","city":"GOSEN SHI","town":"KIRIHATA","perfecture_jp":"新潟県","jp_add_1":"五泉市","jp_add_2":"切畑"},"9591716":{"post_code":"9591716","prefecture":"NIIGATA KEN","city":"GOSEN SHI","town":"KUMASAWA","perfecture_jp":"新潟県","jp_add_1":"五泉市","jp_add_2":"熊沢"},"9591763":{"post_code":"9591763","prefecture":"NIIGATA KEN","city":"GOSEN SHI","town":"KUMANODO","perfecture_jp":"新潟県","jp_add_1":"五泉市","jp_add_2":"熊野堂"},"9591721":{"post_code":"9591721","prefecture":"NIIGATA KEN","city":"GOSEN SHI","town":"KURETSUBO","perfecture_jp":"新潟県","jp_add_1":"五泉市","jp_add_2":"暮坪"},"9591864":{"post_code":"9591864","prefecture":"NIIGATA KEN","city":"GOSEN SHI","town":"KOYAGAWA","perfecture_jp":"新潟県","jp_add_1":"五泉市","jp_add_2":"郷屋川"},"9591612":{"post_code":"9591612","prefecture":"NIIGATA KEN","city":"GOSEN SHI","town":"KOGARAMI","perfecture_jp":"新潟県","jp_add_1":"五泉市","jp_add_2":"小搦"},"9591622":{"post_code":"9591622","prefecture":"NIIGATA KEN","city":"GOSEN SHI","town":"KOGURIYAMA","perfecture_jp":"新潟県","jp_add_1":"五泉市","jp_add_2":"小栗山"},"9591851":{"post_code":"9591851","prefecture":"NIIGATA KEN","city":"GOSEN SHI","town":"GOSEN","perfecture_jp":"新潟県","jp_add_1":"五泉市","jp_add_2":"五泉"},"9591725":{"post_code":"9591725","prefecture":"NIIGATA KEN","city":"GOSEN SHI","town":"KOTSURADANI","perfecture_jp":"新潟県","jp_add_1":"五泉市","jp_add_2":"小面谷"},"9591613":{"post_code":"9591613","prefecture":"NIIGATA KEN","city":"GOSEN SHI","town":"KONAGASHI","perfecture_jp":"新潟県","jp_add_1":"五泉市","jp_add_2":"小流"},"9591753":{"post_code":"9591753","prefecture":"NIIGATA KEN","city":"GOSEN SHI","town":"SASANOMACHI","perfecture_jp":"新潟県","jp_add_1":"五泉市","jp_add_2":"笹野町"},"9591611":{"post_code":"9591611","prefecture":"NIIGATA KEN","city":"GOSEN SHI","town":"SASABORI","perfecture_jp":"新潟県","jp_add_1":"五泉市","jp_add_2":"笹堀"},"9591724":{"post_code":"9591724","prefecture":"NIIGATA KEN","city":"GOSEN SHI","town":"SASAME","perfecture_jp":"新潟県","jp_add_1":"五泉市","jp_add_2":"笹目"},"9591615":{"post_code":"9591615","prefecture":"NIIGATA KEN","city":"GOSEN SHI","town":"SADORI","perfecture_jp":"新潟県","jp_add_1":"五泉市","jp_add_2":"佐取"},"9591806":{"post_code":"9591806","prefecture":"NIIGATA KEN","city":"GOSEN SHI","town":"SARUHASHI","perfecture_jp":"新潟県","jp_add_1":"五泉市","jp_add_2":"猿橋"},"9591631":{"post_code":"9591631","prefecture":"NIIGATA KEN","city":"GOSEN SHI","town":"SARUWADA","perfecture_jp":"新潟県","jp_add_1":"五泉市","jp_add_2":"猿和田"},"9591811":{"post_code":"9591811","prefecture":"NIIGATA KEN","city":"GOSEN SHI","town":"SAMBONGI","perfecture_jp":"新潟県","jp_add_1":"五泉市","jp_add_2":"三本木"},"9591718":{"post_code":"9591718","prefecture":"NIIGATA KEN","city":"GOSEN SHI","town":"SHIMOAMIDASE","perfecture_jp":"新潟県","jp_add_1":"五泉市","jp_add_2":"下阿弥陀瀬"},"9591743":{"post_code":"9591743","prefecture":"NIIGATA KEN","city":"GOSEN SHI","town":"SHIMOOKAMBARA","perfecture_jp":"新潟県","jp_add_1":"五泉市","jp_add_2":"下大蒲原"},"9591803":{"post_code":"9591803","prefecture":"NIIGATA KEN","city":"GOSEN SHI","town":"SHIMOJO","perfecture_jp":"新潟県","jp_add_1":"五泉市","jp_add_2":"下条"},"9591802":{"post_code":"9591802","prefecture":"NIIGATA KEN","city":"GOSEN SHI","town":"SHIMOSHIN","perfecture_jp":"新潟県","jp_add_1":"五泉市","jp_add_2":"下新"},"9591727":{"post_code":"9591727","prefecture":"NIIGATA KEN","city":"GOSEN SHI","town":"SHIMOSUGIKAWA","perfecture_jp":"新潟県","jp_add_1":"五泉市","jp_add_2":"下杉川"},"9591745":{"post_code":"9591745","prefecture":"NIIGATA KEN","city":"GOSEN SHI","town":"SHIMOTOGURA","perfecture_jp":"新潟県","jp_add_1":"五泉市","jp_add_2":"下戸倉"},"9591846":{"post_code":"9591846","prefecture":"NIIGATA KEN","city":"GOSEN SHI","town":"SHIRIAGARI","perfecture_jp":"新潟県","jp_add_1":"五泉市","jp_add_2":"尻上"},"9591758":{"post_code":"9591758","prefecture":"NIIGATA KEN","city":"GOSEN SHI","town":"SHIROSHITA","perfecture_jp":"新潟県","jp_add_1":"五泉市","jp_add_2":"城下"},"9591767":{"post_code":"9591767","prefecture":"NIIGATA KEN","city":"GOSEN SHI","town":"SHINDEMMACHI","perfecture_jp":"新潟県","jp_add_1":"五泉市","jp_add_2":"新田町"},"9591637":{"post_code":"9591637","prefecture":"NIIGATA KEN","city":"GOSEN SHI","town":"SUGAIDE","perfecture_jp":"新潟県","jp_add_1":"五泉市","jp_add_2":"菅出"},"9591847":{"post_code":"9591847","prefecture":"NIIGATA KEN","city":"GOSEN SHI","town":"SUGESAWA","perfecture_jp":"新潟県","jp_add_1":"五泉市","jp_add_2":"菅沢"},"9591714":{"post_code":"9591714","prefecture":"NIIGATA KEN","city":"GOSEN SHI","town":"SEMMIDANI","perfecture_jp":"新潟県","jp_add_1":"五泉市","jp_add_2":"仙見谷"},"9591747":{"post_code":"9591747","prefecture":"NIIGATA KEN","city":"GOSEN SHI","town":"TAKAMATSU","perfecture_jp":"新潟県","jp_add_1":"五泉市","jp_add_2":"高松"},"9591602":{"post_code":"9591602","prefecture":"NIIGATA KEN","city":"GOSEN SHI","town":"TAKAYAMA","perfecture_jp":"新潟県","jp_add_1":"五泉市","jp_add_2":"高山"},"9591804":{"post_code":"9591804","prefecture":"NIIGATA KEN","city":"GOSEN SHI","town":"TAYA","perfecture_jp":"新潟県","jp_add_1":"五泉市","jp_add_2":"田屋"},"9591751":{"post_code":"9591751","prefecture":"NIIGATA KEN","city":"GOSEN SHI","town":"CHUNAZAWA","perfecture_jp":"新潟県","jp_add_1":"五泉市","jp_add_2":"中名沢"},"9591752":{"post_code":"9591752","prefecture":"NIIGATA KEN","city":"GOSEN SHI","town":"CHIWARA","perfecture_jp":"新潟県","jp_add_1":"五泉市","jp_add_2":"千原"},"9591807":{"post_code":"9591807","prefecture":"NIIGATA KEN","city":"GOSEN SHI","town":"TSUGIYA","perfecture_jp":"新潟県","jp_add_1":"五泉市","jp_add_2":"次屋"},"9591643":{"post_code":"9591643","prefecture":"NIIGATA KEN","city":"GOSEN SHI","town":"TSUCHIBORI","perfecture_jp":"新潟県","jp_add_1":"五泉市","jp_add_2":"土堀"},"9591837":{"post_code":"9591837","prefecture":"NIIGATA KEN","city":"GOSEN SHI","town":"TERAZAWA","perfecture_jp":"新潟県","jp_add_1":"五泉市","jp_add_2":"寺沢"},"9591742":{"post_code":"9591742","prefecture":"NIIGATA KEN","city":"GOSEN SHI","town":"TERADA","perfecture_jp":"新潟県","jp_add_1":"五泉市","jp_add_2":"寺田"},"9591853":{"post_code":"9591853","prefecture":"NIIGATA KEN","city":"GOSEN SHI","town":"DOBUKE","perfecture_jp":"新潟県","jp_add_1":"五泉市","jp_add_2":"土深"},"9591712":{"post_code":"9591712","prefecture":"NIIGATA KEN","city":"GOSEN SHI","town":"DOFUCHI","perfecture_jp":"新潟県","jp_add_1":"五泉市","jp_add_2":"土淵"},"9591632":{"post_code":"9591632","prefecture":"NIIGATA KEN","city":"GOSEN SHI","town":"NAKAGAWASHIN","perfecture_jp":"新潟県","jp_add_1":"五泉市","jp_add_2":"中川新"},"9591732":{"post_code":"9591732","prefecture":"NIIGATA KEN","city":"GOSEN SHI","town":"NAKAJIMA","perfecture_jp":"新潟県","jp_add_1":"五泉市","jp_add_2":"中島"},"9591754":{"post_code":"9591754","prefecture":"NIIGATA KEN","city":"GOSEN SHI","town":"NAKANOHASHI","perfecture_jp":"新潟県","jp_add_1":"五泉市","jp_add_2":"中野橋"},"9591757":{"post_code":"9591757","prefecture":"NIIGATA KEN","city":"GOSEN SHI","town":"NAGAHASHI","perfecture_jp":"新潟県","jp_add_1":"五泉市","jp_add_2":"長橋"},"9591715":{"post_code":"9591715","prefecture":"NIIGATA KEN","city":"GOSEN SHI","town":"NATSUHARI","perfecture_jp":"新潟県","jp_add_1":"五泉市","jp_add_2":"夏針"},"9591873":{"post_code":"9591873","prefecture":"NIIGATA KEN","city":"GOSEN SHI","town":"NISHIKICHO","perfecture_jp":"新潟県","jp_add_1":"五泉市","jp_add_2":"錦町"},"9591844":{"post_code":"9591844","prefecture":"NIIGATA KEN","city":"GOSEN SHI","town":"NISHIYOTSUYA","perfecture_jp":"新潟県","jp_add_1":"五泉市","jp_add_2":"西四ツ屋"},"9591842":{"post_code":"9591842","prefecture":"NIIGATA KEN","city":"GOSEN SHI","town":"NODAI","perfecture_jp":"新潟県","jp_add_1":"五泉市","jp_add_2":"能代"},"9591801":{"post_code":"9591801","prefecture":"NIIGATA KEN","city":"GOSEN SHI","town":"HAGA","perfecture_jp":"新潟県","jp_add_1":"五泉市","jp_add_2":"羽下"},"9591871":{"post_code":"9591871","prefecture":"NIIGATA KEN","city":"GOSEN SHI","town":"HAKUSAN","perfecture_jp":"新潟県","jp_add_1":"五泉市","jp_add_2":"白山"},"9591848":{"post_code":"9591848","prefecture":"NIIGATA KEN","city":"GOSEN SHI","town":"HASHITA","perfecture_jp":"新潟県","jp_add_1":"五泉市","jp_add_2":"橋田"},"9591875":{"post_code":"9591875","prefecture":"NIIGATA KEN","city":"GOSEN SHI","town":"BABACHO","perfecture_jp":"新潟県","jp_add_1":"五泉市","jp_add_2":"馬場町"},"9591766":{"post_code":"9591766","prefecture":"NIIGATA KEN","city":"GOSEN SHI","town":"BANZAKA","perfecture_jp":"新潟県","jp_add_1":"五泉市","jp_add_2":"番坂"},"9591762":{"post_code":"9591762","prefecture":"NIIGATA KEN","city":"GOSEN SHI","town":"HIGASHIISHIZONE","perfecture_jp":"新潟県","jp_add_1":"五泉市","jp_add_2":"東石曽根"},"9591863":{"post_code":"9591863","prefecture":"NIIGATA KEN","city":"GOSEN SHI","town":"HIGASHIHONCHO","perfecture_jp":"新潟県","jp_add_1":"五泉市","jp_add_2":"東本町"},"9591644":{"post_code":"9591644","prefecture":"NIIGATA KEN","city":"GOSEN SHI","town":"HIGASHIYOTSUYA","perfecture_jp":"新潟県","jp_add_1":"五泉市","jp_add_2":"東四ツ屋"},"9591735":{"post_code":"9591735","prefecture":"NIIGATA KEN","city":"GOSEN SHI","town":"HIRUNO","perfecture_jp":"新潟県","jp_add_1":"五泉市","jp_add_2":"蛭野"},"9591841":{"post_code":"9591841","prefecture":"NIIGATA KEN","city":"GOSEN SHI","town":"FUTATSUYANAGI","perfecture_jp":"新潟県","jp_add_1":"五泉市","jp_add_2":"二ツ柳"},"9591634":{"post_code":"9591634","prefecture":"NIIGATA KEN","city":"GOSEN SHI","town":"FUDODO","perfecture_jp":"新潟県","jp_add_1":"五泉市","jp_add_2":"不動堂"},"9591805":{"post_code":"9591805","prefecture":"NIIGATA KEN","city":"GOSEN SHI","town":"FUNAKOSHI","perfecture_jp":"新潟県","jp_add_1":"五泉市","jp_add_2":"船越"},"9591738":{"post_code":"9591738","prefecture":"NIIGATA KEN","city":"GOSEN SHI","town":"BESSHO","perfecture_jp":"新潟県","jp_add_1":"五泉市","jp_add_2":"別所"},"9591865":{"post_code":"9591865","prefecture":"NIIGATA KEN","city":"GOSEN SHI","town":"HONCHO","perfecture_jp":"新潟県","jp_add_1":"五泉市","jp_add_2":"本町"},"9591614":{"post_code":"9591614","prefecture":"NIIGATA KEN","city":"GOSEN SHI","town":"MAOROSHI","perfecture_jp":"新潟県","jp_add_1":"五泉市","jp_add_2":"馬下"},"9591748":{"post_code":"9591748","prefecture":"NIIGATA KEN","city":"GOSEN SHI","town":"MAKI","perfecture_jp":"新潟県","jp_add_1":"五泉市","jp_add_2":"牧"},"9591843":{"post_code":"9591843","prefecture":"NIIGATA KEN","city":"GOSEN SHI","town":"MACHIYA","perfecture_jp":"新潟県","jp_add_1":"五泉市","jp_add_2":"町屋"},"9591722":{"post_code":"9591722","prefecture":"NIIGATA KEN","city":"GOSEN SHI","town":"MATSUNO","perfecture_jp":"新潟県","jp_add_1":"五泉市","jp_add_2":"松野"},"9591854":{"post_code":"9591854","prefecture":"NIIGATA KEN","city":"GOSEN SHI","town":"MARUTA","perfecture_jp":"新潟県","jp_add_1":"五泉市","jp_add_2":"丸田"},"9591759":{"post_code":"9591759","prefecture":"NIIGATA KEN","city":"GOSEN SHI","town":"MISATO","perfecture_jp":"新潟県","jp_add_1":"五泉市","jp_add_2":"美郷"},"9591812":{"post_code":"9591812","prefecture":"NIIGATA KEN","city":"GOSEN SHI","town":"MIZUSHIMACHO","perfecture_jp":"新潟県","jp_add_1":"五泉市","jp_add_2":"水島町"},"9591713":{"post_code":"9591713","prefecture":"NIIGATA KEN","city":"GOSEN SHI","town":"MITONO","perfecture_jp":"新潟県","jp_add_1":"五泉市","jp_add_2":"水戸野"},"9591822":{"post_code":"9591822","prefecture":"NIIGATA KEN","city":"GOSEN SHI","town":"MIDORICHO","perfecture_jp":"新潟県","jp_add_1":"五泉市","jp_add_2":"緑町"},"9591741":{"post_code":"9591741","prefecture":"NIIGATA KEN","city":"GOSEN SHI","town":"MINAMITANAKA","perfecture_jp":"新潟県","jp_add_1":"五泉市","jp_add_2":"南田中"},"9591836":{"post_code":"9591836","prefecture":"NIIGATA KEN","city":"GOSEN SHI","town":"MINAMIHONCHO","perfecture_jp":"新潟県","jp_add_1":"五泉市","jp_add_2":"南本町"},"9591872":{"post_code":"9591872","prefecture":"NIIGATA KEN","city":"GOSEN SHI","town":"MIYACHO","perfecture_jp":"新潟県","jp_add_1":"五泉市","jp_add_2":"宮町"},"9591764":{"post_code":"9591764","prefecture":"NIIGATA KEN","city":"GOSEN SHI","town":"MIYANOSHITA","perfecture_jp":"新潟県","jp_add_1":"五泉市","jp_add_2":"宮野下"},"9591707":{"post_code":"9591707","prefecture":"NIIGATA KEN","city":"GOSEN SHI","town":"MURAMATSU","perfecture_jp":"新潟県","jp_add_1":"五泉市","jp_add_2":"村松"},"9591705":{"post_code":"9591705","prefecture":"NIIGATA KEN","city":"GOSEN SHI","town":"MURAMATSU OTSU","perfecture_jp":"新潟県","jp_add_1":"五泉市","jp_add_2":"村松乙"},"9591704":{"post_code":"9591704","prefecture":"NIIGATA KEN","city":"GOSEN SHI","town":"MURAMATSU KO","perfecture_jp":"新潟県","jp_add_1":"五泉市","jp_add_2":"村松甲"},"9591706":{"post_code":"9591706","prefecture":"NIIGATA KEN","city":"GOSEN SHI","town":"MURAMATSU HEI","perfecture_jp":"新潟県","jp_add_1":"五泉市","jp_add_2":"村松丙"},"9591739":{"post_code":"9591739","prefecture":"NIIGATA KEN","city":"GOSEN SHI","town":"MURAMATSUKOGYODANCHI","perfecture_jp":"新潟県","jp_add_1":"五泉市","jp_add_2":"村松工業団地"},"9591761":{"post_code":"9591761","prefecture":"NIIGATA KEN","city":"GOSEN SHI","town":"MOTODAI","perfecture_jp":"新潟県","jp_add_1":"五泉市","jp_add_2":"本田屋"},"9591733":{"post_code":"9591733","prefecture":"NIIGATA KEN","city":"GOSEN SHI","town":"YASUIDE","perfecture_jp":"新潟県","jp_add_1":"五泉市","jp_add_2":"安出"},"9591703":{"post_code":"9591703","prefecture":"NIIGATA KEN","city":"GOSEN SHI","town":"YAZU","perfecture_jp":"新潟県","jp_add_1":"五泉市","jp_add_2":"矢津"},"9591856":{"post_code":"9591856","prefecture":"NIIGATA KEN","city":"GOSEN SHI","town":"YAMAZAKI","perfecture_jp":"新潟県","jp_add_1":"五泉市","jp_add_2":"山崎"},"9591736":{"post_code":"9591736","prefecture":"NIIGATA KEN","city":"GOSEN SHI","town":"YAMAYA","perfecture_jp":"新潟県","jp_add_1":"五泉市","jp_add_2":"山谷"},"9591874":{"post_code":"9591874","prefecture":"NIIGATA KEN","city":"GOSEN SHI","town":"YOKOMACHI","perfecture_jp":"新潟県","jp_add_1":"五泉市","jp_add_2":"横町"},"9591723":{"post_code":"9591723","prefecture":"NIIGATA KEN","city":"GOSEN SHI","town":"YOKOWATASHI","perfecture_jp":"新潟県","jp_add_1":"五泉市","jp_add_2":"横渡"},"9591824":{"post_code":"9591824","prefecture":"NIIGATA KEN","city":"GOSEN SHI","town":"YOSHIZAWA","perfecture_jp":"新潟県","jp_add_1":"五泉市","jp_add_2":"吉沢"},"9591642":{"post_code":"9591642","prefecture":"NIIGATA KEN","city":"GOSEN SHI","town":"YOTSUYASHIN","perfecture_jp":"新潟県","jp_add_1":"五泉市","jp_add_2":"四ツ屋新"},"9591604":{"post_code":"9591604","prefecture":"NIIGATA KEN","city":"GOSEN SHI","town":"RONZE","perfecture_jp":"新潟県","jp_add_1":"五泉市","jp_add_2":"論瀬"},"9592000":{"post_code":"9592000","prefecture":"NIIGATA KEN","city":"AGANO SHI","town":"IKANIKEISAIGANAIBAAI","perfecture_jp":"新潟県","jp_add_1":"阿賀野市","jp_add_2":""},"9591955":{"post_code":"9591955","prefecture":"NIIGATA KEN","city":"AGANO SHI","town":"AKAMIZU","perfecture_jp":"新潟県","jp_add_1":"阿賀野市","jp_add_2":"赤水"},"9592061":{"post_code":"9592061","prefecture":"NIIGATA KEN","city":"AGANO SHI","town":"ARAYA","perfecture_jp":"新潟県","jp_add_1":"阿賀野市","jp_add_2":"荒屋"},"9592003":{"post_code":"9592003","prefecture":"NIIGATA KEN","city":"AGANO SHI","town":"ANNOCHO","perfecture_jp":"新潟県","jp_add_1":"阿賀野市","jp_add_2":"安野町"},"9592122":{"post_code":"9592122","prefecture":"NIIGATA KEN","city":"AGANO SHI","town":"IIMORISUGI","perfecture_jp":"新潟県","jp_add_1":"阿賀野市","jp_add_2":"飯森杉"},"9591902":{"post_code":"9591902","prefecture":"NIIGATA KEN","city":"AGANO SHI","town":"IIYAMASHIN","perfecture_jp":"新潟県","jp_add_1":"阿賀野市","jp_add_2":"飯山新"},"9591959":{"post_code":"9591959","prefecture":"NIIGATA KEN","city":"AGANO SHI","town":"IZUMI","perfecture_jp":"新潟県","jp_add_1":"阿賀野市","jp_add_2":"泉"},"9592062":{"post_code":"9592062","prefecture":"NIIGATA KEN","city":"AGANO SHI","town":"ICHINOYAMA","perfecture_jp":"新潟県","jp_add_1":"阿賀野市","jp_add_2":"市野山"},"9592035":{"post_code":"9592035","prefecture":"NIIGATA KEN","city":"AGANO SHI","town":"INARICHO","perfecture_jp":"新潟県","jp_add_1":"阿賀野市","jp_add_2":"稲荷町"},"9591927":{"post_code":"9591927","prefecture":"NIIGATA KEN","city":"AGANO SHI","town":"IMAITA","perfecture_jp":"新潟県","jp_add_1":"阿賀野市","jp_add_2":"今板"},"9592123":{"post_code":"9592123","prefecture":"NIIGATA KEN","city":"AGANO SHI","town":"UBAGAHASHI","perfecture_jp":"新潟県","jp_add_1":"阿賀野市","jp_add_2":"姥ケ橋"},"9591974":{"post_code":"9591974","prefecture":"NIIGATA KEN","city":"AGANO SHI","town":"ENOKI","perfecture_jp":"新潟県","jp_add_1":"阿賀野市","jp_add_2":"榎"},"9591968":{"post_code":"9591968","prefecture":"NIIGATA KEN","city":"AGANO SHI","town":"ENOKIFUNATO","perfecture_jp":"新潟県","jp_add_1":"阿賀野市","jp_add_2":"榎船渡"},"9591930":{"post_code":"9591930","prefecture":"NIIGATA KEN","city":"AGANO SHI","town":"OMIYA","perfecture_jp":"新潟県","jp_add_1":"阿賀野市","jp_add_2":"大宮"},"9591935":{"post_code":"9591935","prefecture":"NIIGATA KEN","city":"AGANO SHI","town":"OMURO","perfecture_jp":"新潟県","jp_add_1":"阿賀野市","jp_add_2":"大室"},"9592043":{"post_code":"9592043","prefecture":"NIIGATA KEN","city":"AGANO SHI","town":"OYACHI","perfecture_jp":"新潟県","jp_add_1":"阿賀野市","jp_add_2":"大野地"},"9592025":{"post_code":"9592025","prefecture":"NIIGATA KEN","city":"AGANO SHI","town":"OKAYAMACHO","perfecture_jp":"新潟県","jp_add_1":"阿賀野市","jp_add_2":"岡山町"},"9591964":{"post_code":"9591964","prefecture":"NIIGATA KEN","city":"AGANO SHI","town":"OKI","perfecture_jp":"新潟県","jp_add_1":"阿賀野市","jp_add_2":"沖"},"9591975":{"post_code":"9591975","prefecture":"NIIGATA KEN","city":"AGANO SHI","town":"KAMIIIZUKA","perfecture_jp":"新潟県","jp_add_1":"阿賀野市","jp_add_2":"荻島"},"9592001":{"post_code":"9592001","prefecture":"NIIGATA KEN","city":"AGANO SHI","town":"OKIDORI","perfecture_jp":"新潟県","jp_add_1":"阿賀野市","jp_add_2":"沖通"},"9591977":{"post_code":"9591977","prefecture":"NIIGATA KEN","city":"AGANO SHI","town":"OKINOTATE","perfecture_jp":"新潟県","jp_add_1":"阿賀野市","jp_add_2":"沖ノ館"},"9592121":{"post_code":"9592121","prefecture":"NIIGATA KEN","city":"AGANO SHI","town":"OSATO","perfecture_jp":"新潟県","jp_add_1":"阿賀野市","jp_add_2":"小里"},"9591946":{"post_code":"9591946","prefecture":"NIIGATA KEN","city":"AGANO SHI","town":"OSHIKIRI","perfecture_jp":"新潟県","jp_add_1":"阿賀野市","jp_add_2":"押切"},"9591921":{"post_code":"9591921","prefecture":"NIIGATA KEN","city":"AGANO SHI","town":"KAMINISHIYAMA","perfecture_jp":"新潟県","jp_add_1":"阿賀野市","jp_add_2":"折居"},"9591914":{"post_code":"9591914","prefecture":"NIIGATA KEN","city":"AGANO SHI","town":"ONNADO","perfecture_jp":"新潟県","jp_add_1":"阿賀野市","jp_add_2":"女堂"},"9591938":{"post_code":"9591938","prefecture":"NIIGATA KEN","city":"AGANO SHI","town":"KAIBAMI","perfecture_jp":"新潟県","jp_add_1":"阿賀野市","jp_add_2":"貝喰"},"9592206":{"post_code":"9592206","prefecture":"NIIGATA KEN","city":"AGANO SHI","town":"KAGAYAKI","perfecture_jp":"新潟県","jp_add_1":"阿賀野市","jp_add_2":"かがやき"},"9592202":{"post_code":"9592202","prefecture":"NIIGATA KEN","city":"AGANO SHI","town":"KAGOTA","perfecture_jp":"新潟県","jp_add_1":"阿賀野市","jp_add_2":"籠田"},"9592147":{"post_code":"9592147","prefecture":"NIIGATA KEN","city":"AGANO SHI","town":"KASUJIMA","perfecture_jp":"新潟県","jp_add_1":"阿賀野市","jp_add_2":"粕島"},"9592148":{"post_code":"9592148","prefecture":"NIIGATA KEN","city":"AGANO SHI","town":"KASEJIMA","perfecture_jp":"新潟県","jp_add_1":"阿賀野市","jp_add_2":"嘉瀬島"},"9592032":{"post_code":"9592032","prefecture":"NIIGATA KEN","city":"AGANO SHI","town":"GAKKOCHO","perfecture_jp":"新潟県","jp_add_1":"阿賀野市","jp_add_2":"学校町"},"9591923":{"post_code":"9591923","prefecture":"NIIGATA KEN","city":"AGANO SHI","town":"KATSUYA","perfecture_jp":"新潟県","jp_add_1":"阿賀野市","jp_add_2":"勝屋"},"9592044":{"post_code":"9592044","prefecture":"NIIGATA KEN","city":"AGANO SHI","town":"KANAZAWA","perfecture_jp":"新潟県","jp_add_1":"阿賀野市","jp_add_2":"金沢"},"9591944":{"post_code":"9591944","prefecture":"NIIGATA KEN","city":"AGANO SHI","town":"KANAYA","perfecture_jp":"新潟県","jp_add_1":"阿賀野市","jp_add_2":"金屋"},"9592031":{"post_code":"9592031","prefecture":"NIIGATA KEN","city":"AGANO SHI","town":"KANEDACHO","perfecture_jp":"新潟県","jp_add_1":"阿賀野市","jp_add_2":"金田町"},"9592105":{"post_code":"9592105","prefecture":"NIIGATA KEN","city":"AGANO SHI","town":"KANEBUCHIOTSU","perfecture_jp":"新潟県","jp_add_1":"阿賀野市","jp_add_2":"金渕乙"},"9592103":{"post_code":"9592103","prefecture":"NIIGATA KEN","city":"AGANO SHI","town":"KANEBUCHIKO","perfecture_jp":"新潟県","jp_add_1":"阿賀野市","jp_add_2":"金渕甲"},"9591915":{"post_code":"9591915","prefecture":"NIIGATA KEN","city":"AGANO SHI","town":"KAMIICHIBU","perfecture_jp":"新潟県","jp_add_1":"阿賀野市","jp_add_2":"上一分"},"9592081":{"post_code":"9592081","prefecture":"NIIGATA KEN","city":"AGANO SHI","town":"KAMIEBATA","perfecture_jp":"新潟県","jp_add_1":"阿賀野市","jp_add_2":"上江端"},"9591908":{"post_code":"9591908","prefecture":"NIIGATA KEN","city":"AGANO SHI","town":"KAMIKURANO","perfecture_jp":"新潟県","jp_add_1":"阿賀野市","jp_add_2":"上蔵野"},"9592116":{"post_code":"9592116","prefecture":"NIIGATA KEN","city":"AGANO SHI","town":"KAMIKUROSE","perfecture_jp":"新潟県","jp_add_1":"阿賀野市","jp_add_2":"上黒瀬"},"9591933":{"post_code":"9591933","prefecture":"NIIGATA KEN","city":"AGANO SHI","town":"KAMIKONAKAYAMA","perfecture_jp":"新潟県","jp_add_1":"阿賀野市","jp_add_2":"上小中山"},"9591942":{"post_code":"9591942","prefecture":"NIIGATA KEN","city":"AGANO SHI","town":"KAMISAKAMACHI","perfecture_jp":"新潟県","jp_add_1":"阿賀野市","jp_add_2":"上坂町"},"9591962":{"post_code":"9591962","prefecture":"NIIGATA KEN","city":"AGANO SHI","town":"KAMISEKIGUCHI","perfecture_jp":"新潟県","jp_add_1":"阿賀野市","jp_add_2":"上関口"},"9591909":{"post_code":"9591909","prefecture":"NIIGATA KEN","city":"AGANO SHI","town":"KAMITAKASEKI","perfecture_jp":"新潟県","jp_add_1":"阿賀野市","jp_add_2":"上高関"},"9591973":{"post_code":"9591973","prefecture":"NIIGATA KEN","city":"AGANO SHI","town":"KAMITAKADA","perfecture_jp":"新潟県","jp_add_1":"阿賀野市","jp_add_2":"上高田"},"9592047":{"post_code":"9592047","prefecture":"NIIGATA KEN","city":"AGANO SHI","town":"KAMINAKA","perfecture_jp":"新潟県","jp_add_1":"阿賀野市","jp_add_2":"上中"},"9592048":{"post_code":"9592048","prefecture":"NIIGATA KEN","city":"AGANO SHI","town":"KAMINAKANOME","perfecture_jp":"新潟県","jp_add_1":"阿賀野市","jp_add_2":"上中野目"},"9591904":{"post_code":"9591904","prefecture":"NIIGATA KEN","city":"AGANO SHI","town":"KAMINISHINO","perfecture_jp":"新潟県","jp_add_1":"阿賀野市","jp_add_2":"上西野"},"9592073":{"post_code":"9592073","prefecture":"NIIGATA KEN","city":"AGANO SHI","town":"KAMIFUKUOKA","perfecture_jp":"新潟県","jp_add_1":"阿賀野市","jp_add_2":"上福岡"},"9591932":{"post_code":"9591932","prefecture":"NIIGATA KEN","city":"AGANO SHI","town":"KAMIYAMADA","perfecture_jp":"新潟県","jp_add_1":"阿賀野市","jp_add_2":"上山田"},"9591945":{"post_code":"9591945","prefecture":"NIIGATA KEN","city":"AGANO SHI","town":"KAMIYAMAYA","perfecture_jp":"新潟県","jp_add_1":"阿賀野市","jp_add_2":"上山屋"},"9591978":{"post_code":"9591978","prefecture":"NIIGATA KEN","city":"AGANO SHI","town":"KAWAOKA","perfecture_jp":"新潟県","jp_add_1":"阿賀野市","jp_add_2":"川岡"},"9591949":{"post_code":"9591949","prefecture":"NIIGATA KEN","city":"AGANO SHI","town":"KAWASAKI","perfecture_jp":"新潟県","jp_add_1":"阿賀野市","jp_add_2":"川崎"},"9592143":{"post_code":"9592143","prefecture":"NIIGATA KEN","city":"AGANO SHI","town":"KAWAMAE","perfecture_jp":"新潟県","jp_add_1":"阿賀野市","jp_add_2":"川前"},"9592014":{"post_code":"9592014","prefecture":"NIIGATA KEN","city":"AGANO SHI","town":"KITAZONOCHO","perfecture_jp":"新潟県","jp_add_1":"阿賀野市","jp_add_2":"北園町"},"9592015":{"post_code":"9592015","prefecture":"NIIGATA KEN","city":"AGANO SHI","town":"KITAHONCHO","perfecture_jp":"新潟県","jp_add_1":"阿賀野市","jp_add_2":"北本町"},"9592125":{"post_code":"9592125","prefecture":"NIIGATA KEN","city":"AGANO SHI","town":"KYOGASHIMA","perfecture_jp":"新潟県","jp_add_1":"阿賀野市","jp_add_2":"京ケ島"},"9592136":{"post_code":"9592136","prefecture":"NIIGATA KEN","city":"AGANO SHI","town":"KYOGASEKOGYODANCHI","perfecture_jp":"新潟県","jp_add_1":"阿賀野市","jp_add_2":"京ケ瀬工業団地"},"9592082":{"post_code":"9592082","prefecture":"NIIGATA KEN","city":"AGANO SHI","town":"KIRIUMESHINDEN","perfecture_jp":"新潟県","jp_add_1":"阿賀野市","jp_add_2":"切梅新田"},"9592214":{"post_code":"9592214","prefecture":"NIIGATA KEN","city":"AGANO SHI","town":"KUSOZU","perfecture_jp":"新潟県","jp_add_1":"阿賀野市","jp_add_2":"草水"},"9592212":{"post_code":"9592212","prefecture":"NIIGATA KEN","city":"AGANO SHI","town":"KUBO","perfecture_jp":"新潟県","jp_add_1":"阿賀野市","jp_add_2":"久保"},"9592126":{"post_code":"9592126","prefecture":"NIIGATA KEN","city":"AGANO SHI","town":"KUBOGAWARA","perfecture_jp":"新潟県","jp_add_1":"阿賀野市","jp_add_2":"窪川原"},"9592083":{"post_code":"9592083","prefecture":"NIIGATA KEN","city":"AGANO SHI","town":"KUMAISHINDEN","perfecture_jp":"新潟県","jp_add_1":"阿賀野市","jp_add_2":"熊居新田"},"9591907":{"post_code":"9591907","prefecture":"NIIGATA KEN","city":"AGANO SHI","town":"KUMADO","perfecture_jp":"新潟県","jp_add_1":"阿賀野市","jp_add_2":"熊堂"},"9592002":{"post_code":"9592002","prefecture":"NIIGATA KEN","city":"AGANO SHI","town":"GEJO","perfecture_jp":"新潟県","jp_add_1":"阿賀野市","jp_add_2":"下条"},"9592026":{"post_code":"9592026","prefecture":"NIIGATA KEN","city":"AGANO SHI","town":"GEJOCHO","perfecture_jp":"新潟県","jp_add_1":"阿賀野市","jp_add_2":"下条町"},"9592222":{"post_code":"9592222","prefecture":"NIIGATA KEN","city":"AGANO SHI","town":"KOKE","perfecture_jp":"新潟県","jp_add_1":"阿賀野市","jp_add_2":"小浮"},"9592134":{"post_code":"9592134","prefecture":"NIIGATA KEN","city":"AGANO SHI","town":"KOGAWARA","perfecture_jp":"新潟県","jp_add_1":"阿賀野市","jp_add_2":"小河原"},"9591916":{"post_code":"9591916","prefecture":"NIIGATA KEN","city":"AGANO SHI","town":"KOGURIYAMA","perfecture_jp":"新潟県","jp_add_1":"阿賀野市","jp_add_2":"小栗山"},"9592065":{"post_code":"9592065","prefecture":"NIIGATA KEN","city":"AGANO SHI","town":"KOZAKAI","perfecture_jp":"新潟県","jp_add_1":"阿賀野市","jp_add_2":"小境"},"9592146":{"post_code":"9592146","prefecture":"NIIGATA KEN","city":"AGANO SHI","town":"KOJIMA","perfecture_jp":"新潟県","jp_add_1":"阿賀野市","jp_add_2":"小島"},"9592054":{"post_code":"9592054","prefecture":"NIIGATA KEN","city":"AGANO SHI","town":"KOSHIMIDO","perfecture_jp":"新潟県","jp_add_1":"阿賀野市","jp_add_2":"越御堂"},"9592213":{"post_code":"9592213","prefecture":"NIIGATA KEN","city":"AGANO SHI","town":"KOMATSU","perfecture_jp":"新潟県","jp_add_1":"阿賀野市","jp_add_2":"小松"},"9592101":{"post_code":"9592101","prefecture":"NIIGATA KEN","city":"AGANO SHI","town":"KOMABAYASHI","perfecture_jp":"新潟県","jp_add_1":"阿賀野市","jp_add_2":"駒林"},"9592102":{"post_code":"9592102","prefecture":"NIIGATA KEN","city":"AGANO SHI","town":"GOROMAKI","perfecture_jp":"新潟県","jp_add_1":"阿賀野市","jp_add_2":"五郎巻"},"9592053":{"post_code":"9592053","prefecture":"NIIGATA KEN","city":"AGANO SHI","town":"SAKAISHIN","perfecture_jp":"新潟県","jp_add_1":"阿賀野市","jp_add_2":"境新"},"9592042":{"post_code":"9592042","prefecture":"NIIGATA KEN","city":"AGANO SHI","town":"SAKAISHINDEN","perfecture_jp":"新潟県","jp_add_1":"阿賀野市","jp_add_2":"境新田"},"9592135":{"post_code":"9592135","prefecture":"NIIGATA KEN","city":"AGANO SHI","town":"SAGARI","perfecture_jp":"新潟県","jp_add_1":"阿賀野市","jp_add_2":"下里"},"9591918":{"post_code":"9591918","prefecture":"NIIGATA KEN","city":"AGANO SHI","town":"SASAOKA","perfecture_jp":"新潟県","jp_add_1":"阿賀野市","jp_add_2":"笹岡"},"9592045":{"post_code":"9592045","prefecture":"NIIGATA KEN","city":"AGANO SHI","town":"SATO","perfecture_jp":"新潟県","jp_add_1":"阿賀野市","jp_add_2":"里"},"9591913":{"post_code":"9591913","prefecture":"NIIGATA KEN","city":"AGANO SHI","town":"SAWAGUCHI","perfecture_jp":"新潟県","jp_add_1":"阿賀野市","jp_add_2":"沢口"},"9592211":{"post_code":"9592211","prefecture":"NIIGATA KEN","city":"AGANO SHI","town":"SAWADA","perfecture_jp":"新潟県","jp_add_1":"阿賀野市","jp_add_2":"沢田"},"9592205":{"post_code":"9592205","prefecture":"NIIGATA KEN","city":"AGANO SHI","town":"JISHA","perfecture_jp":"新潟県","jp_add_1":"阿賀野市","jp_add_2":"寺社"},"9592145":{"post_code":"9592145","prefecture":"NIIGATA KEN","city":"AGANO SHI","town":"JISHASHIN","perfecture_jp":"新潟県","jp_add_1":"阿賀野市","jp_add_2":"寺社新"},"9592051":{"post_code":"9592051","prefecture":"NIIGATA KEN","city":"AGANO SHI","town":"SHICHIKOKU","perfecture_jp":"新潟県","jp_add_1":"阿賀野市","jp_add_2":"七石"},"9592225":{"post_code":"9592225","prefecture":"NIIGATA KEN","city":"AGANO SHI","town":"SHIMAZE","perfecture_jp":"新潟県","jp_add_1":"阿賀野市","jp_add_2":"嶋瀬"},"9591965":{"post_code":"9591965","prefecture":"NIIGATA KEN","city":"AGANO SHI","town":"SHIMADA","perfecture_jp":"新潟県","jp_add_1":"阿賀野市","jp_add_2":"島田"},"9591912":{"post_code":"9591912","prefecture":"NIIGATA KEN","city":"AGANO SHI","town":"SHIMOICHIBU","perfecture_jp":"新潟県","jp_add_1":"阿賀野市","jp_add_2":"下一分"},"9592117":{"post_code":"9592117","prefecture":"NIIGATA KEN","city":"AGANO SHI","town":"SHIMOKUROSE","perfecture_jp":"新潟県","jp_add_1":"阿賀野市","jp_add_2":"下黒瀬"},"9592124":{"post_code":"9592124","prefecture":"NIIGATA KEN","city":"AGANO SHI","town":"SHIMONOHASHI","perfecture_jp":"新潟県","jp_add_1":"阿賀野市","jp_add_2":"下ノ橋"},"9591951":{"post_code":"9591951","prefecture":"NIIGATA KEN","city":"AGANO SHI","town":"SHIMOFUKUOKA","perfecture_jp":"新潟県","jp_add_1":"阿賀野市","jp_add_2":"下福岡"},"9591952":{"post_code":"9591952","prefecture":"NIIGATA KEN","city":"AGANO SHI","town":"SHIMOYAMAYA","perfecture_jp":"新潟県","jp_add_1":"阿賀野市","jp_add_2":"下山屋"},"9591936":{"post_code":"9591936","prefecture":"NIIGATA KEN","city":"AGANO SHI","town":"JUNISHIN","perfecture_jp":"新潟県","jp_add_1":"阿賀野市","jp_add_2":"十二神"},"9592114":{"post_code":"9592114","prefecture":"NIIGATA KEN","city":"AGANO SHI","town":"JO","perfecture_jp":"新潟県","jp_add_1":"阿賀野市","jp_add_2":"城"},"9592046":{"post_code":"9592046","prefecture":"NIIGATA KEN","city":"AGANO SHI","town":"SHOGAMIYA","perfecture_jp":"新潟県","jp_add_1":"阿賀野市","jp_add_2":"庄ケ宮"},"9591943":{"post_code":"9591943","prefecture":"NIIGATA KEN","city":"AGANO SHI","town":"JIROMARU","perfecture_jp":"新潟県","jp_add_1":"阿賀野市","jp_add_2":"次郎丸"},"9591925":{"post_code":"9591925","prefecture":"NIIGATA KEN","city":"AGANO SHI","town":"SHINKOJIBUIREJJI","perfecture_jp":"新潟県","jp_add_1":"阿賀野市","jp_add_2":"真光寺ヴィレッジ"},"9592086":{"post_code":"9592086","prefecture":"NIIGATA KEN","city":"AGANO SHI","town":"SHINZA","perfecture_jp":"新潟県","jp_add_1":"阿賀野市","jp_add_2":"新座"},"9592217":{"post_code":"9592217","prefecture":"NIIGATA KEN","city":"AGANO SHI","town":"SHIMBO","perfecture_jp":"新潟県","jp_add_1":"阿賀野市","jp_add_2":"新保"},"9592013":{"post_code":"9592013","prefecture":"NIIGATA KEN","city":"AGANO SHI","town":"SUIBARA","perfecture_jp":"新潟県","jp_add_1":"阿賀野市","jp_add_2":"水原"},"9591956":{"post_code":"9591956","prefecture":"NIIGATA KEN","city":"AGANO SHI","town":"SUBASHIRI","perfecture_jp":"新潟県","jp_add_1":"阿賀野市","jp_add_2":"須走"},"9592144":{"post_code":"9592144","prefecture":"NIIGATA KEN","city":"AGANO SHI","town":"SEINO","perfecture_jp":"新潟県","jp_add_1":"阿賀野市","jp_add_2":"清野"},"9592133":{"post_code":"9592133","prefecture":"NIIGATA KEN","city":"AGANO SHI","town":"SEKIYA","perfecture_jp":"新潟県","jp_add_1":"阿賀野市","jp_add_2":"関屋"},"9592224":{"post_code":"9592224","prefecture":"NIIGATA KEN","city":"AGANO SHI","town":"SENTOJI","perfecture_jp":"新潟県","jp_add_1":"阿賀野市","jp_add_2":"千唐仁"},"9592112":{"post_code":"9592112","prefecture":"NIIGATA KEN","city":"AGANO SHI","town":"SOGO","perfecture_jp":"新潟県","jp_add_1":"阿賀野市","jp_add_2":"曽郷"},"9591929":{"post_code":"9591929","prefecture":"NIIGATA KEN","city":"AGANO SHI","town":"DAINICHI","perfecture_jp":"新潟県","jp_add_1":"阿賀野市","jp_add_2":"大日"},"9591971":{"post_code":"9591971","prefecture":"NIIGATA KEN","city":"AGANO SHI","town":"TAKADA","perfecture_jp":"新潟県","jp_add_1":"阿賀野市","jp_add_2":"高田"},"9591905":{"post_code":"9591905","prefecture":"NIIGATA KEN","city":"AGANO SHI","town":"TAKISAWA","perfecture_jp":"新潟県","jp_add_1":"阿賀野市","jp_add_2":"滝沢"},"9592052":{"post_code":"9592052","prefecture":"NIIGATA KEN","city":"AGANO SHI","town":"TANAKA","perfecture_jp":"新潟県","jp_add_1":"阿賀野市","jp_add_2":"田中"},"9592115":{"post_code":"9592115","prefecture":"NIIGATA KEN","city":"AGANO SHI","town":"TAYAMA","perfecture_jp":"新潟県","jp_add_1":"阿賀野市","jp_add_2":"田山"},"9592021":{"post_code":"9592021","prefecture":"NIIGATA KEN","city":"AGANO SHI","town":"CHUOCHO","perfecture_jp":"新潟県","jp_add_1":"阿賀野市","jp_add_2":"中央町"},"9592011":{"post_code":"9592011","prefecture":"NIIGATA KEN","city":"AGANO SHI","town":"CHIWARA","perfecture_jp":"新潟県","jp_add_1":"阿賀野市","jp_add_2":"千原"},"9591966":{"post_code":"9591966","prefecture":"NIIGATA KEN","city":"AGANO SHI","town":"TSUKADA","perfecture_jp":"新潟県","jp_add_1":"阿賀野市","jp_add_2":"塚田"},"9592131":{"post_code":"9592131","prefecture":"NIIGATA KEN","city":"AGANO SHI","town":"TSUKIZAKI","perfecture_jp":"新潟県","jp_add_1":"阿賀野市","jp_add_2":"月崎"},"9591917":{"post_code":"9591917","prefecture":"NIIGATA KEN","city":"AGANO SHI","town":"TSUTSUMI","perfecture_jp":"新潟県","jp_add_1":"阿賀野市","jp_add_2":"堤"},"9591926":{"post_code":"9591926","prefecture":"NIIGATA KEN","city":"AGANO SHI","town":"DEYU","perfecture_jp":"新潟県","jp_add_1":"阿賀野市","jp_add_2":"出湯"},"9592012":{"post_code":"9592012","prefecture":"NIIGATA KEN","city":"AGANO SHI","town":"TENJINDO","perfecture_jp":"新潟県","jp_add_1":"阿賀野市","jp_add_2":"天神堂"},"9592022":{"post_code":"9592022","prefecture":"NIIGATA KEN","city":"AGANO SHI","town":"TOJOCHO","perfecture_jp":"新潟県","jp_add_1":"阿賀野市","jp_add_2":"外城町"},"9592063":{"post_code":"9592063","prefecture":"NIIGATA KEN","city":"AGANO SHI","town":"DOBASHI","perfecture_jp":"新潟県","jp_add_1":"阿賀野市","jp_add_2":"土橋"},"9591911":{"post_code":"9591911","prefecture":"NIIGATA KEN","city":"AGANO SHI","town":"NAGAOKI","perfecture_jp":"新潟県","jp_add_1":"阿賀野市","jp_add_2":"長起"},"9592066":{"post_code":"9592066","prefecture":"NIIGATA KEN","city":"AGANO SHI","town":"NAKAGATA","perfecture_jp":"新潟県","jp_add_1":"阿賀野市","jp_add_2":"中潟"},"9592024":{"post_code":"9592024","prefecture":"NIIGATA KEN","city":"AGANO SHI","town":"NAKAJIMACHO","perfecture_jp":"新潟県","jp_add_1":"阿賀野市","jp_add_2":"中島"},"9591901":{"post_code":"9591901","prefecture":"NIIGATA KEN","city":"AGANO SHI","town":"NAKANOTORI","perfecture_jp":"新潟県","jp_add_1":"阿賀野市","jp_add_2":"中ノ通"},"9591934":{"post_code":"9591934","prefecture":"NIIGATA KEN","city":"AGANO SHI","town":"NANAURA","perfecture_jp":"新潟県","jp_add_1":"阿賀野市","jp_add_2":"七浦"},"9592141":{"post_code":"9592141","prefecture":"NIIGATA KEN","city":"AGANO SHI","town":"NANASHIMA","perfecture_jp":"新潟県","jp_add_1":"阿賀野市","jp_add_2":"七島"},"9592072":{"post_code":"9592072","prefecture":"NIIGATA KEN","city":"AGANO SHI","town":"NISHIOKA","perfecture_jp":"新潟県","jp_add_1":"阿賀野市","jp_add_2":"西岡"},"9592223":{"post_code":"9592223","prefecture":"NIIGATA KEN","city":"AGANO SHI","town":"NUNOME","perfecture_jp":"新潟県","jp_add_1":"阿賀野市","jp_add_2":"布目"},"9592111":{"post_code":"9592111","prefecture":"NIIGATA KEN","city":"AGANO SHI","town":"NEKOYAMA","perfecture_jp":"新潟県","jp_add_1":"阿賀野市","jp_add_2":"猫山"},"9592226":{"post_code":"9592226","prefecture":"NIIGATA KEN","city":"AGANO SHI","town":"NODA","perfecture_jp":"新潟県","jp_add_1":"阿賀野市","jp_add_2":"野田"},"9591958":{"post_code":"9591958","prefecture":"NIIGATA KEN","city":"AGANO SHI","town":"NOMURA","perfecture_jp":"新潟県","jp_add_1":"阿賀野市","jp_add_2":"野村"},"9591941":{"post_code":"9591941","prefecture":"NIIGATA KEN","city":"AGANO SHI","town":"HAGURO","perfecture_jp":"新潟県","jp_add_1":"阿賀野市","jp_add_2":"羽黒"},"9592142":{"post_code":"9592142","prefecture":"NIIGATA KEN","city":"AGANO SHI","town":"HASHIKIMEN","perfecture_jp":"新潟県","jp_add_1":"阿賀野市","jp_add_2":"箸木免"},"9591924":{"post_code":"9591924","prefecture":"NIIGATA KEN","city":"AGANO SHI","town":"HATAE","perfecture_jp":"新潟県","jp_add_1":"阿賀野市","jp_add_2":"畑江"},"9592201":{"post_code":"9592201","prefecture":"NIIGATA KEN","city":"AGANO SHI","town":"HATAYA","perfecture_jp":"新潟県","jp_add_1":"阿賀野市","jp_add_2":"羽多屋"},"9592041":{"post_code":"9592041","prefecture":"NIIGATA KEN","city":"AGANO SHI","town":"HARA","perfecture_jp":"新潟県","jp_add_1":"阿賀野市","jp_add_2":"原"},"9592075":{"post_code":"9592075","prefecture":"NIIGATA KEN","city":"AGANO SHI","town":"HIGASHIMACHI","perfecture_jp":"新潟県","jp_add_1":"阿賀野市","jp_add_2":"東町"},"9592023":{"post_code":"9592023","prefecture":"NIIGATA KEN","city":"AGANO SHI","town":"HINODECHO","perfecture_jp":"新潟県","jp_add_1":"阿賀野市","jp_add_2":"日の出町"},"9592107":{"post_code":"9592107","prefecture":"NIIGATA KEN","city":"AGANO SHI","town":"FUKAHORI","perfecture_jp":"新潟県","jp_add_1":"阿賀野市","jp_add_2":"深堀"},"9592049":{"post_code":"9592049","prefecture":"NIIGATA KEN","city":"AGANO SHI","town":"FUKAMACHI","perfecture_jp":"新潟県","jp_add_1":"阿賀野市","jp_add_2":"深町"},"9591937":{"post_code":"9591937","prefecture":"NIIGATA KEN","city":"AGANO SHI","town":"FUKUI","perfecture_jp":"新潟県","jp_add_1":"阿賀野市","jp_add_2":"福井"},"9592064":{"post_code":"9592064","prefecture":"NIIGATA KEN","city":"AGANO SHI","town":"FUKUDA","perfecture_jp":"新潟県","jp_add_1":"阿賀野市","jp_add_2":"福田"},"9592204":{"post_code":"9592204","prefecture":"NIIGATA KEN","city":"AGANO SHI","town":"FUKUNAGA","perfecture_jp":"新潟県","jp_add_1":"阿賀野市","jp_add_2":"福永"},"9591903":{"post_code":"9591903","prefecture":"NIIGATA KEN","city":"AGANO SHI","town":"FUJIYA","perfecture_jp":"新潟県","jp_add_1":"阿賀野市","jp_add_2":"藤屋"},"9591976":{"post_code":"9591976","prefecture":"NIIGATA KEN","city":"AGANO SHI","town":"FUNAI","perfecture_jp":"新潟県","jp_add_1":"阿賀野市","jp_add_2":"船居"},"9592074":{"post_code":"9592074","prefecture":"NIIGATA KEN","city":"AGANO SHI","town":"BUNDA","perfecture_jp":"新潟県","jp_add_1":"阿賀野市","jp_add_2":"分田"},"9592106":{"post_code":"9592106","prefecture":"NIIGATA KEN","city":"AGANO SHI","town":"HOYAGI","perfecture_jp":"新潟県","jp_add_1":"阿賀野市","jp_add_2":"法柳"},"9592104":{"post_code":"9592104","prefecture":"NIIGATA KEN","city":"AGANO SHI","town":"HOYAGISHINDEN","perfecture_jp":"新潟県","jp_add_1":"阿賀野市","jp_add_2":"法柳新田"},"9591953":{"post_code":"9591953","prefecture":"NIIGATA KEN","city":"AGANO SHI","town":"HOKKYU","perfecture_jp":"新潟県","jp_add_1":"阿賀野市","jp_add_2":"発久"},"9592055":{"post_code":"9592055","prefecture":"NIIGATA KEN","city":"AGANO SHI","town":"HORIKOSHI","perfecture_jp":"新潟県","jp_add_1":"阿賀野市","jp_add_2":"堀越"},"9591967":{"post_code":"9591967","prefecture":"NIIGATA KEN","city":"AGANO SHI","town":"HOMMYO","perfecture_jp":"新潟県","jp_add_1":"阿賀野市","jp_add_2":"本明"},"9591954":{"post_code":"9591954","prefecture":"NIIGATA KEN","city":"AGANO SHI","town":"MAITA","perfecture_jp":"新潟県","jp_add_1":"阿賀野市","jp_add_2":"蒔田"},"9592132":{"post_code":"9592132","prefecture":"NIIGATA KEN","city":"AGANO SHI","town":"MAEYAMA","perfecture_jp":"新潟県","jp_add_1":"阿賀野市","jp_add_2":"前山"},"9592056":{"post_code":"9592056","prefecture":"NIIGATA KEN","city":"AGANO SHI","town":"MAKISHIMA","perfecture_jp":"新潟県","jp_add_1":"阿賀野市","jp_add_2":"牧島"},"9592203":{"post_code":"9592203","prefecture":"NIIGATA KEN","city":"AGANO SHI","town":"MARUYAMA","perfecture_jp":"新潟県","jp_add_1":"阿賀野市","jp_add_2":"丸山"},"9592071":{"post_code":"9592071","prefecture":"NIIGATA KEN","city":"AGANO SHI","town":"MIZUGASONE","perfecture_jp":"新潟県","jp_add_1":"阿賀野市","jp_add_2":"水ケ曽根"},"9592006":{"post_code":"9592006","prefecture":"NIIGATA KEN","city":"AGANO SHI","town":"MISORANOCHO","perfecture_jp":"新潟県","jp_add_1":"阿賀野市","jp_add_2":"みそら野町"},"9592113":{"post_code":"9592113","prefecture":"NIIGATA KEN","city":"AGANO SHI","town":"MIDORIOKA","perfecture_jp":"新潟県","jp_add_1":"阿賀野市","jp_add_2":"緑岡"},"9592034":{"post_code":"9592034","prefecture":"NIIGATA KEN","city":"AGANO SHI","town":"MIDORICHO","perfecture_jp":"新潟県","jp_add_1":"阿賀野市","jp_add_2":"緑町"},"9592004":{"post_code":"9592004","prefecture":"NIIGATA KEN","city":"AGANO SHI","town":"MINAMIANNOCHO","perfecture_jp":"新潟県","jp_add_1":"阿賀野市","jp_add_2":"南安野町"},"9591963":{"post_code":"9591963","prefecture":"NIIGATA KEN","city":"AGANO SHI","town":"MINAMIOKIYAMA","perfecture_jp":"新潟県","jp_add_1":"阿賀野市","jp_add_2":"南沖山"},"9591948":{"post_code":"9591948","prefecture":"NIIGATA KEN","city":"AGANO SHI","town":"MIYAJIMA","perfecture_jp":"新潟県","jp_add_1":"阿賀野市","jp_add_2":"宮島"},"9591947":{"post_code":"9591947","prefecture":"NIIGATA KEN","city":"AGANO SHI","town":"MIYANOSHITA","perfecture_jp":"新潟県","jp_add_1":"阿賀野市","jp_add_2":"宮下"},"9592130":{"post_code":"9592130","prefecture":"NIIGATA KEN","city":"AGANO SHI","town":"MUIKANO","perfecture_jp":"新潟県","jp_add_1":"阿賀野市","jp_add_2":"六日野"},"9591910":{"post_code":"9591910","prefecture":"NIIGATA KEN","city":"AGANO SHI","town":"MUKAINAKANOTORI","perfecture_jp":"新潟県","jp_add_1":"阿賀野市","jp_add_2":"向中ノ通"},"9591906":{"post_code":"9591906","prefecture":"NIIGATA KEN","city":"AGANO SHI","town":"MURAOKA","perfecture_jp":"新潟県","jp_add_1":"阿賀野市","jp_add_2":"村岡"},"9591928":{"post_code":"9591928","prefecture":"NIIGATA KEN","city":"AGANO SHI","town":"MURASUGI","perfecture_jp":"新潟県","jp_add_1":"阿賀野市","jp_add_2":"村杉"},"9592037":{"post_code":"9592037","prefecture":"NIIGATA KEN","city":"AGANO SHI","town":"MOMOZU","perfecture_jp":"新潟県","jp_add_1":"阿賀野市","jp_add_2":"百津"},"9592033":{"post_code":"9592033","prefecture":"NIIGATA KEN","city":"AGANO SHI","town":"MOMOZUCHO","perfecture_jp":"新潟県","jp_add_1":"阿賀野市","jp_add_2":"百津町"},"9592221":{"post_code":"9592221","prefecture":"NIIGATA KEN","city":"AGANO SHI","town":"YASUDA","perfecture_jp":"新潟県","jp_add_1":"阿賀野市","jp_add_2":"保田"},"9592057":{"post_code":"9592057","prefecture":"NIIGATA KEN","city":"AGANO SHI","town":"YACHIJO","perfecture_jp":"新潟県","jp_add_1":"阿賀野市","jp_add_2":"野地城"},"9592007":{"post_code":"9592007","prefecture":"NIIGATA KEN","city":"AGANO SHI","town":"YAMAGUCHI","perfecture_jp":"新潟県","jp_add_1":"阿賀野市","jp_add_2":"山口"},"9592005":{"post_code":"9592005","prefecture":"NIIGATA KEN","city":"AGANO SHI","town":"YAMAGUCHICHO","perfecture_jp":"新潟県","jp_add_1":"阿賀野市","jp_add_2":"山口町"},"9591961":{"post_code":"9591961","prefecture":"NIIGATA KEN","city":"AGANO SHI","town":"YAMAKURA","perfecture_jp":"新潟県","jp_add_1":"阿賀野市","jp_add_2":"山倉"},"9591972":{"post_code":"9591972","prefecture":"NIIGATA KEN","city":"AGANO SHI","town":"YAMAKURASHINDEN","perfecture_jp":"新潟県","jp_add_1":"阿賀野市","jp_add_2":"山倉新田"},"9591919":{"post_code":"9591919","prefecture":"NIIGATA KEN","city":"AGANO SHI","town":"YAMAZAKI","perfecture_jp":"新潟県","jp_add_1":"阿賀野市","jp_add_2":"山崎"},"9591931":{"post_code":"9591931","prefecture":"NIIGATA KEN","city":"AGANO SHI","town":"YAMADERA","perfecture_jp":"新潟県","jp_add_1":"阿賀野市","jp_add_2":"山寺"},"9592227":{"post_code":"9592227","prefecture":"NIIGATA KEN","city":"AGANO SHI","town":"YAMATO","perfecture_jp":"新潟県","jp_add_1":"阿賀野市","jp_add_2":"大和"},"9592085":{"post_code":"9592085","prefecture":"NIIGATA KEN","city":"AGANO SHI","town":"YAMAMOTOSHIN","perfecture_jp":"新潟県","jp_add_1":"阿賀野市","jp_add_2":"山本新"},"9591922":{"post_code":"9591922","prefecture":"NIIGATA KEN","city":"AGANO SHI","town":"YUSAWA","perfecture_jp":"新潟県","jp_add_1":"阿賀野市","jp_add_2":"湯沢"},"9591957":{"post_code":"9591957","prefecture":"NIIGATA KEN","city":"AGANO SHI","town":"YOKOYAMA","perfecture_jp":"新潟県","jp_add_1":"阿賀野市","jp_add_2":"横山"},"9592215":{"post_code":"9592215","prefecture":"NIIGATA KEN","city":"AGANO SHI","town":"ROKUNOSE","perfecture_jp":"新潟県","jp_add_1":"阿賀野市","jp_add_2":"六野瀬"},"9592036":{"post_code":"9592036","prefecture":"NIIGATA KEN","city":"AGANO SHI","town":"WAKABACHO","perfecture_jp":"新潟県","jp_add_1":"阿賀野市","jp_add_2":"若葉町"},"9592216":{"post_code":"9592216","prefecture":"NIIGATA KEN","city":"AGANO SHI","town":"WATARIBA","perfecture_jp":"新潟県","jp_add_1":"阿賀野市","jp_add_2":"渡場"},"9592600":{"post_code":"9592600","prefecture":"NIIGATA KEN","city":"TAINAI SHI","town":"IKANIKEISAIGANAIBAAI","perfecture_jp":"新潟県","jp_add_1":"胎内市","jp_add_2":""},"9592661":{"post_code":"9592661","prefecture":"NIIGATA KEN","city":"TAINAI SHI","town":"AKAGAWA","perfecture_jp":"新潟県","jp_add_1":"胎内市","jp_add_2":"赤川"},"9592659":{"post_code":"9592659","prefecture":"NIIGATA KEN","city":"TAINAI SHI","town":"AKANECHO","perfecture_jp":"新潟県","jp_add_1":"胎内市","jp_add_2":"あかね町"},"9592823":{"post_code":"9592823","prefecture":"NIIGATA KEN","city":"TAINAI SHI","town":"ATSUTAZAKA","perfecture_jp":"新潟県","jp_add_1":"胎内市","jp_add_2":"熱田坂"},"9592609":{"post_code":"9592609","prefecture":"NIIGATA KEN","city":"TAINAI SHI","town":"ARAIHAMA","perfecture_jp":"新潟県","jp_add_1":"胎内市","jp_add_2":"荒井浜"},"9592626":{"post_code":"9592626","prefecture":"NIIGATA KEN","city":"TAINAI SHI","town":"IIZUMI","perfecture_jp":"新潟県","jp_add_1":"胎内市","jp_add_2":"飯角"},"9592657":{"post_code":"9592657","prefecture":"NIIGATA KEN","city":"TAINAI SHI","town":"EGAMI","perfecture_jp":"新潟県","jp_add_1":"胎内市","jp_add_2":"江上"},"9592605":{"post_code":"9592605","prefecture":"NIIGATA KEN","city":"TAINAI SHI","town":"EJIRI","perfecture_jp":"新潟県","jp_add_1":"胎内市","jp_add_2":"江尻"},"9592622":{"post_code":"9592622","prefecture":"NIIGATA KEN","city":"TAINAI SHI","town":"OIWAKE","perfecture_jp":"新潟県","jp_add_1":"胎内市","jp_add_2":"追分"},"9592801":{"post_code":"9592801","prefecture":"NIIGATA KEN","city":"TAINAI SHI","town":"OMISHIN","perfecture_jp":"新潟県","jp_add_1":"胎内市","jp_add_2":"近江新"},"9592604":{"post_code":"9592604","prefecture":"NIIGATA KEN","city":"TAINAI SHI","town":"OIDE","perfecture_jp":"新潟県","jp_add_1":"胎内市","jp_add_2":"大出"},"9592644":{"post_code":"9592644","prefecture":"NIIGATA KEN","city":"TAINAI SHI","town":"OKAWACHO","perfecture_jp":"新潟県","jp_add_1":"胎内市","jp_add_2":"大川町"},"9592665":{"post_code":"9592665","prefecture":"NIIGATA KEN","city":"TAINAI SHI","town":"OTSUKA","perfecture_jp":"新潟県","jp_add_1":"胎内市","jp_add_2":"大塚"},"9592813":{"post_code":"9592813","prefecture":"NIIGATA KEN","city":"TAINAI SHI","town":"ONAGATANI","perfecture_jp":"新潟県","jp_add_1":"胎内市","jp_add_2":"大長谷"},"9592612":{"post_code":"9592612","prefecture":"NIIGATA KEN","city":"TAINAI SHI","town":"OJIYA","perfecture_jp":"新潟県","jp_add_1":"胎内市","jp_add_2":"小地谷"},"9592631":{"post_code":"9592631","prefecture":"NIIGATA KEN","city":"TAINAI SHI","town":"OMOTECHO","perfecture_jp":"新潟県","jp_add_1":"胎内市","jp_add_2":"表町"},"9592676":{"post_code":"9592676","prefecture":"NIIGATA KEN","city":"TAINAI SHI","town":"KAMIJOZUKA","perfecture_jp":"新潟県","jp_add_1":"胎内市","jp_add_2":"上城塚"},"9592724":{"post_code":"9592724","prefecture":"NIIGATA KEN","city":"TAINAI SHI","town":"KITANARITA","perfecture_jp":"新潟県","jp_add_1":"胎内市","jp_add_2":"北成田"},"9592647":{"post_code":"9592647","prefecture":"NIIGATA KEN","city":"TAINAI SHI","town":"KITAHONCHO","perfecture_jp":"新潟県","jp_add_1":"胎内市","jp_add_2":"北本町"},"9592802":{"post_code":"9592802","prefecture":"NIIGATA KEN","city":"TAINAI SHI","town":"KITTA","perfecture_jp":"新潟県","jp_add_1":"胎内市","jp_add_2":"切田"},"9592602":{"post_code":"9592602","prefecture":"NIIGATA KEN","city":"TAINAI SHI","town":"KINOTO","perfecture_jp":"新潟県","jp_add_1":"胎内市","jp_add_2":"乙"},"9592652":{"post_code":"9592652","prefecture":"NIIGATA KEN","city":"TAINAI SHI","town":"KYOWACHO","perfecture_jp":"新潟県","jp_add_1":"胎内市","jp_add_2":"協和町"},"9592663":{"post_code":"9592663","prefecture":"NIIGATA KEN","city":"TAINAI SHI","town":"KUSANO","perfecture_jp":"新潟県","jp_add_1":"胎内市","jp_add_2":"草野"},"9592653":{"post_code":"9592653","prefecture":"NIIGATA KEN","city":"TAINAI SHI","town":"KURASHIKICHO","perfecture_jp":"新潟県","jp_add_1":"胎内市","jp_add_2":"倉敷町"},"9592827":{"post_code":"9592827","prefecture":"NIIGATA KEN","city":"TAINAI SHI","town":"KURIKINOSHINDEN","perfecture_jp":"新潟県","jp_add_1":"胎内市","jp_add_2":"栗木野新田"},"9592807":{"post_code":"9592807","prefecture":"NIIGATA KEN","city":"TAINAI SHI","town":"KUROKAWA","perfecture_jp":"新潟県","jp_add_1":"胎内市","jp_add_2":"黒川"},"9592814":{"post_code":"9592814","prefecture":"NIIGATA KEN","city":"TAINAI SHI","town":"KUROMATA","perfecture_jp":"新潟県","jp_add_1":"胎内市","jp_add_2":"黒俣"},"9592811":{"post_code":"9592811","prefecture":"NIIGATA KEN","city":"TAINAI SHI","town":"KUWAE","perfecture_jp":"新潟県","jp_add_1":"胎内市","jp_add_2":"鍬江"},"9592705":{"post_code":"9592705","prefecture":"NIIGATA KEN","city":"TAINAI SHI","town":"KONOSU","perfecture_jp":"新潟県","jp_add_1":"胎内市","jp_add_2":"鴻ノ巣"},"9592721":{"post_code":"9592721","prefecture":"NIIGATA KEN","city":"TAINAI SHI","town":"KOKENOMI","perfecture_jp":"新潟県","jp_add_1":"胎内市","jp_add_2":"苔実"},"9592812":{"post_code":"9592812","prefecture":"NIIGATA KEN","city":"TAINAI SHI","town":"KONAGATANI","perfecture_jp":"新潟県","jp_add_1":"胎内市","jp_add_2":"小長谷"},"9592674":{"post_code":"9592674","prefecture":"NIIGATA KEN","city":"TAINAI SHI","town":"KOBUNATO","perfecture_jp":"新潟県","jp_add_1":"胎内市","jp_add_2":"小舟戸"},"9592634":{"post_code":"9592634","prefecture":"NIIGATA KEN","city":"TAINAI SHI","town":"KOMAKIDAI","perfecture_jp":"新潟県","jp_add_1":"胎内市","jp_add_2":"小牧台"},"9592803":{"post_code":"9592803","prefecture":"NIIGATA KEN","city":"TAINAI SHI","town":"ZAO","perfecture_jp":"新潟県","jp_add_1":"胎内市","jp_add_2":"蔵王"},"9592825":{"post_code":"9592825","prefecture":"NIIGATA KEN","city":"TAINAI SHI","town":"SAKAI","perfecture_jp":"新潟県","jp_add_1":"胎内市","jp_add_2":"坂井"},"9592701":{"post_code":"9592701","prefecture":"NIIGATA KEN","city":"TAINAI SHI","town":"SASAGUCHIHAMA","perfecture_jp":"新潟県","jp_add_1":"胎内市","jp_add_2":"笹口浜"},"9592706":{"post_code":"9592706","prefecture":"NIIGATA KEN","city":"TAINAI SHI","town":"SANNO","perfecture_jp":"新潟県","jp_add_1":"胎内市","jp_add_2":"山王"},"9592804":{"post_code":"9592804","prefecture":"NIIGATA KEN","city":"TAINAI SHI","town":"SHIOZAWA","perfecture_jp":"新潟県","jp_add_1":"胎内市","jp_add_2":"塩沢"},"9592669":{"post_code":"9592669","prefecture":"NIIGATA KEN","city":"TAINAI SHI","town":"SHIOZU","perfecture_jp":"新潟県","jp_add_1":"胎内市","jp_add_2":"塩津"},"9592664":{"post_code":"9592664","prefecture":"NIIGATA KEN","city":"TAINAI SHI","town":"SHIBAHASHI","perfecture_jp":"新潟県","jp_add_1":"胎内市","jp_add_2":"柴橋"},"9592806":{"post_code":"9592806","prefecture":"NIIGATA KEN","city":"TAINAI SHI","town":"SHIMOAKADANI","perfecture_jp":"新潟県","jp_add_1":"胎内市","jp_add_2":"下赤谷"},"9592816":{"post_code":"9592816","prefecture":"NIIGATA KEN","city":"TAINAI SHI","town":"SHIMOARASAWA","perfecture_jp":"新潟県","jp_add_1":"胎内市","jp_add_2":"下荒沢"},"9592809":{"post_code":"9592809","prefecture":"NIIGATA KEN","city":"TAINAI SHI","town":"SHIMOEBATA","perfecture_jp":"新潟県","jp_add_1":"胎内市","jp_add_2":"下江端"},"9592677":{"post_code":"9592677","prefecture":"NIIGATA KEN","city":"TAINAI SHI","town":"SHIMOJOZUKA","perfecture_jp":"新潟県","jp_add_1":"胎内市","jp_add_2":"下城塚"},"9592707":{"post_code":"9592707","prefecture":"NIIGATA KEN","city":"TAINAI SHI","town":"SHIMOTAKADA","perfecture_jp":"新潟県","jp_add_1":"胎内市","jp_add_2":"下高田"},"9592805":{"post_code":"9592805","prefecture":"NIIGATA KEN","city":"TAINAI SHI","town":"SHIMOTATE","perfecture_jp":"新潟県","jp_add_1":"胎内市","jp_add_2":"下館"},"9592607":{"post_code":"9592607","prefecture":"NIIGATA KEN","city":"TAINAI SHI","town":"JIMOTO","perfecture_jp":"新潟県","jp_add_1":"胎内市","jp_add_2":"地本"},"9592619":{"post_code":"9592619","prefecture":"NIIGATA KEN","city":"TAINAI SHI","town":"JUNITEN","perfecture_jp":"新潟県","jp_add_1":"胎内市","jp_add_2":"十二天"},"9592632":{"post_code":"9592632","prefecture":"NIIGATA KEN","city":"TAINAI SHI","town":"SHINEICHO","perfecture_jp":"新潟県","jp_add_1":"胎内市","jp_add_2":"新栄町"},"9592666":{"post_code":"9592666","prefecture":"NIIGATA KEN","city":"TAINAI SHI","town":"SHINDATE","perfecture_jp":"新潟県","jp_add_1":"胎内市","jp_add_2":"新舘"},"9592642":{"post_code":"9592642","prefecture":"NIIGATA KEN","city":"TAINAI SHI","town":"SHINWACHO","perfecture_jp":"新潟県","jp_add_1":"胎内市","jp_add_2":"新和町"},"9592603":{"post_code":"9592603","prefecture":"NIIGATA KEN","city":"TAINAI SHI","town":"SUGETA","perfecture_jp":"新潟県","jp_add_1":"胎内市","jp_add_2":"菅田"},"9592817":{"post_code":"9592817","prefecture":"NIIGATA KEN","city":"TAINAI SHI","town":"SUMAKI","perfecture_jp":"新潟県","jp_add_1":"胎内市","jp_add_2":"須巻"},"9592648":{"post_code":"9592648","prefecture":"NIIGATA KEN","city":"TAINAI SHI","town":"SUMIYOSHICHO","perfecture_jp":"新潟県","jp_add_1":"胎内市","jp_add_2":"住吉町"},"9592633":{"post_code":"9592633","prefecture":"NIIGATA KEN","city":"TAINAI SHI","town":"SEKIZAWA","perfecture_jp":"新潟県","jp_add_1":"胎内市","jp_add_2":"関沢"},"9592618":{"post_code":"9592618","prefecture":"NIIGATA KEN","city":"TAINAI SHI","town":"TAKANO","perfecture_jp":"新潟県","jp_add_1":"胎内市","jp_add_2":"高野"},"9592662":{"post_code":"9592662","prefecture":"NIIGATA KEN","city":"TAINAI SHI","town":"TAKANOSU","perfecture_jp":"新潟県","jp_add_1":"胎内市","jp_add_2":"鷹ノ巣"},"9592617":{"post_code":"9592617","prefecture":"NIIGATA KEN","city":"TAINAI SHI","town":"TAKANOMURASHINDEN","perfecture_jp":"新潟県","jp_add_1":"胎内市","jp_add_2":"高野村新田"},"9592715":{"post_code":"9592715","prefecture":"NIIGATA KEN","city":"TAINAI SHI","town":"TAKAHASHI","perfecture_jp":"新潟県","jp_add_1":"胎内市","jp_add_2":"高橋"},"9592703":{"post_code":"9592703","prefecture":"NIIGATA KEN","city":"TAINAI SHI","town":"TAKABATAKE","perfecture_jp":"新潟県","jp_add_1":"胎内市","jp_add_2":"高畑"},"9592722":{"post_code":"9592722","prefecture":"NIIGATA KEN","city":"TAINAI SHI","town":"TAKESHIMA","perfecture_jp":"新潟県","jp_add_1":"胎内市","jp_add_2":"竹島"},"9592712":{"post_code":"9592712","prefecture":"NIIGATA KEN","city":"TAINAI SHI","town":"TSUIJI","perfecture_jp":"新潟県","jp_add_1":"胎内市","jp_add_2":"築地"},"9592713":{"post_code":"9592713","prefecture":"NIIGATA KEN","city":"TAINAI SHI","town":"TSUIJISHIN","perfecture_jp":"新潟県","jp_add_1":"胎内市","jp_add_2":"築地新"},"9592616":{"post_code":"9592616","prefecture":"NIIGATA KEN","city":"TAINAI SHI","town":"TSUCHIZUKURI","perfecture_jp":"新潟県","jp_add_1":"胎内市","jp_add_2":"土作"},"9592635":{"post_code":"9592635","prefecture":"NIIGATA KEN","city":"TAINAI SHI","town":"TSUTSUJIGAOKA","perfecture_jp":"新潟県","jp_add_1":"胎内市","jp_add_2":"つつじが丘"},"9592826":{"post_code":"9592826","prefecture":"NIIGATA KEN","city":"TAINAI SHI","town":"TSUZUMIOKA","perfecture_jp":"新潟県","jp_add_1":"胎内市","jp_add_2":"鼓岡"},"9592821":{"post_code":"9592821","prefecture":"NIIGATA KEN","city":"TAINAI SHI","town":"TSUBOANA","perfecture_jp":"新潟県","jp_add_1":"胎内市","jp_add_2":"坪穴"},"9592808":{"post_code":"9592808","prefecture":"NIIGATA KEN","city":"TAINAI SHI","town":"TOBOKU","perfecture_jp":"新潟県","jp_add_1":"胎内市","jp_add_2":"東牧"},"9592608":{"post_code":"9592608","prefecture":"NIIGATA KEN","city":"TAINAI SHI","town":"TOMIOKA","perfecture_jp":"新潟県","jp_add_1":"胎内市","jp_add_2":"富岡"},"9592673":{"post_code":"9592673","prefecture":"NIIGATA KEN","city":"TAINAI SHI","town":"TORADA","perfecture_jp":"新潟県","jp_add_1":"胎内市","jp_add_2":"寅田"},"9592716":{"post_code":"9592716","prefecture":"NIIGATA KEN","city":"TAINAI SHI","town":"NAKAKURA","perfecture_jp":"新潟県","jp_add_1":"胎内市","jp_add_2":"中倉"},"9592629":{"post_code":"9592629","prefecture":"NIIGATA KEN","city":"TAINAI SHI","town":"NAKAJO","perfecture_jp":"新潟県","jp_add_1":"胎内市","jp_add_2":"中条"},"9592637":{"post_code":"9592637","prefecture":"NIIGATA KEN","city":"TAINAI SHI","town":"NAGAHASHI","perfecture_jp":"新潟県","jp_add_1":"胎内市","jp_add_2":"長橋"},"9592708":{"post_code":"9592708","prefecture":"NIIGATA KEN","city":"TAINAI SHI","town":"NAKAMURAHAMA","perfecture_jp":"新潟県","jp_add_1":"胎内市","jp_add_2":"中村浜"},"9592822":{"post_code":"9592822","prefecture":"NIIGATA KEN","city":"TAINAI SHI","town":"NATSUI","perfecture_jp":"新潟県","jp_add_1":"胎内市","jp_add_2":"夏井"},"9592621":{"post_code":"9592621","prefecture":"NIIGATA KEN","city":"TAINAI SHI","town":"NAMITSUKI","perfecture_jp":"新潟県","jp_add_1":"胎内市","jp_add_2":"並槻"},"9592623":{"post_code":"9592623","prefecture":"NIIGATA KEN","city":"TAINAI SHI","town":"NIIDANO","perfecture_jp":"新潟県","jp_add_1":"胎内市","jp_add_2":"仁谷野"},"9592667":{"post_code":"9592667","prefecture":"NIIGATA KEN","city":"TAINAI SHI","town":"NISHIKAWAUCHI","perfecture_jp":"新潟県","jp_add_1":"胎内市","jp_add_2":"西川内"},"9592646":{"post_code":"9592646","prefecture":"NIIGATA KEN","city":"TAINAI SHI","town":"NISHISAKAECHO","perfecture_jp":"新潟県","jp_add_1":"胎内市","jp_add_2":"西栄町"},"9592658":{"post_code":"9592658","prefecture":"NIIGATA KEN","city":"TAINAI SHI","town":"NISHIJO","perfecture_jp":"新潟県","jp_add_1":"胎内市","jp_add_2":"西条"},"9592651":{"post_code":"9592651","prefecture":"NIIGATA KEN","city":"TAINAI SHI","town":"NISHIJOCHO","perfecture_jp":"新潟県","jp_add_1":"胎内市","jp_add_2":"西条町"},"9592656":{"post_code":"9592656","prefecture":"NIIGATA KEN","city":"TAINAI SHI","town":"NISHIHONCHO","perfecture_jp":"新潟県","jp_add_1":"胎内市","jp_add_2":"西本町"},"9592627":{"post_code":"9592627","prefecture":"NIIGATA KEN","city":"TAINAI SHI","town":"NONAKA","perfecture_jp":"新潟県","jp_add_1":"胎内市","jp_add_2":"野中"},"9592624":{"post_code":"9592624","prefecture":"NIIGATA KEN","city":"TAINAI SHI","town":"HAGURO","perfecture_jp":"新潟県","jp_add_1":"胎内市","jp_add_2":"羽黒"},"9592606":{"post_code":"9592606","prefecture":"NIIGATA KEN","city":"TAINAI SHI","town":"HACHIMAN","perfecture_jp":"新潟県","jp_add_1":"胎内市","jp_add_2":"八幡"},"9592672":{"post_code":"9592672","prefecture":"NIIGATA KEN","city":"TAINAI SHI","town":"HATTA","perfecture_jp":"新潟県","jp_add_1":"胎内市","jp_add_2":"八田"},"9592625":{"post_code":"9592625","prefecture":"NIIGATA KEN","city":"TAINAI SHI","town":"HANYAMA","perfecture_jp":"新潟県","jp_add_1":"胎内市","jp_add_2":"半山"},"9592671":{"post_code":"9592671","prefecture":"NIIGATA KEN","city":"TAINAI SHI","town":"HIGASHIKAWAUCHI","perfecture_jp":"新潟県","jp_add_1":"胎内市","jp_add_2":"東川内"},"9592643":{"post_code":"9592643","prefecture":"NIIGATA KEN","city":"TAINAI SHI","town":"HIGASHIHONCHO","perfecture_jp":"新潟県","jp_add_1":"胎内市","jp_add_2":"東本町"},"9592614":{"post_code":"9592614","prefecture":"NIIGATA KEN","city":"TAINAI SHI","town":"HIRAKIDA","perfecture_jp":"新潟県","jp_add_1":"胎内市","jp_add_2":"平木田"},"9592613":{"post_code":"9592613","prefecture":"NIIGATA KEN","city":"TAINAI SHI","town":"HIRAKIDAEKIMAE","perfecture_jp":"新潟県","jp_add_1":"胎内市","jp_add_2":"平木田駅前"},"9592702":{"post_code":"9592702","prefecture":"NIIGATA KEN","city":"TAINAI SHI","town":"HIRANEDAI","perfecture_jp":"新潟県","jp_add_1":"胎内市","jp_add_2":"平根台"},"9592628":{"post_code":"9592628","prefecture":"NIIGATA KEN","city":"TAINAI SHI","town":"FUTABACHO","perfecture_jp":"新潟県","jp_add_1":"胎内市","jp_add_2":"二葉町"},"9592675":{"post_code":"9592675","prefecture":"NIIGATA KEN","city":"TAINAI SHI","town":"FUNATO","perfecture_jp":"新潟県","jp_add_1":"胎内市","jp_add_2":"船戸"},"9592636":{"post_code":"9592636","prefecture":"NIIGATA KEN","city":"TAINAI SHI","town":"HOSHINOMIYACHO","perfecture_jp":"新潟県","jp_add_1":"胎内市","jp_add_2":"星の宮町"},"9592714":{"post_code":"9592714","prefecture":"NIIGATA KEN","city":"TAINAI SHI","town":"HORIGUCHI","perfecture_jp":"新潟県","jp_add_1":"胎内市","jp_add_2":"堀口"},"9592655":{"post_code":"9592655","prefecture":"NIIGATA KEN","city":"TAINAI SHI","town":"HONGO","perfecture_jp":"新潟県","jp_add_1":"胎内市","jp_add_2":"本郷"},"9592654":{"post_code":"9592654","prefecture":"NIIGATA KEN","city":"TAINAI SHI","town":"HONGOCHO","perfecture_jp":"新潟県","jp_add_1":"胎内市","jp_add_2":"本郷町"},"9592645":{"post_code":"9592645","prefecture":"NIIGATA KEN","city":"TAINAI SHI","town":"HONCHO","perfecture_jp":"新潟県","jp_add_1":"胎内市","jp_add_2":"本町"},"9592638":{"post_code":"9592638","prefecture":"NIIGATA KEN","city":"TAINAI SHI","town":"MIZUSAWACHO","perfecture_jp":"新潟県","jp_add_1":"胎内市","jp_add_2":"水沢町"},"9592723":{"post_code":"9592723","prefecture":"NIIGATA KEN","city":"TAINAI SHI","town":"MIYAGAWA","perfecture_jp":"新潟県","jp_add_1":"胎内市","jp_add_2":"宮川"},"9592704":{"post_code":"9592704","prefecture":"NIIGATA KEN","city":"TAINAI SHI","town":"MIYAZE","perfecture_jp":"新潟県","jp_add_1":"胎内市","jp_add_2":"宮瀬"},"9592824":{"post_code":"9592824","prefecture":"NIIGATA KEN","city":"TAINAI SHI","town":"MIYAHISA","perfecture_jp":"新潟県","jp_add_1":"胎内市","jp_add_2":"宮久"},"9592709":{"post_code":"9592709","prefecture":"NIIGATA KEN","city":"TAINAI SHI","town":"MURAMATSUHAMA","perfecture_jp":"新潟県","jp_add_1":"胎内市","jp_add_2":"村松浜"},"9592815":{"post_code":"9592815","prefecture":"NIIGATA KEN","city":"TAINAI SHI","town":"MOCHIKURA","perfecture_jp":"新潟県","jp_add_1":"胎内市","jp_add_2":"持倉"},"9592601":{"post_code":"9592601","prefecture":"NIIGATA KEN","city":"TAINAI SHI","town":"MOMOZAKIHAMA","perfecture_jp":"新潟県","jp_add_1":"胎内市","jp_add_2":"桃崎浜"},"9592668":{"post_code":"9592668","prefecture":"NIIGATA KEN","city":"TAINAI SHI","town":"YAHIKOKA","perfecture_jp":"新潟県","jp_add_1":"胎内市","jp_add_2":"弥彦岡"},"9592611":{"post_code":"9592611","prefecture":"NIIGATA KEN","city":"TAINAI SHI","town":"YAMAYA","perfecture_jp":"新潟県","jp_add_1":"胎内市","jp_add_2":"山屋"},"9592615":{"post_code":"9592615","prefecture":"NIIGATA KEN","city":"TAINAI SHI","town":"YOKOMICHI","perfecture_jp":"新潟県","jp_add_1":"胎内市","jp_add_2":"横道"},"9592641":{"post_code":"9592641","prefecture":"NIIGATA KEN","city":"TAINAI SHI","town":"WAKAMATSUCHO","perfecture_jp":"新潟県","jp_add_1":"胎内市","jp_add_2":"若松町"},"9590300":{"post_code":"9590300","prefecture":"NIIGATA KEN","city":"NISHIKAMBARA GUN YAHIKO MURA","town":"IKANIKEISAIGANAIBAAI","perfecture_jp":"新潟県","jp_add_1":"西蒲原郡弥彦村","jp_add_2":""},"9590311":{"post_code":"9590311","prefecture":"NIIGATA KEN","city":"NISHIKAMBARA GUN YAHIKO MURA","town":"IDA","perfecture_jp":"新潟県","jp_add_1":"西蒲原郡弥彦村","jp_add_2":"井田"},"9590301":{"post_code":"9590301","prefecture":"NIIGATA KEN","city":"NISHIKAMBARA GUN YAHIKO MURA","town":"EBIANA","perfecture_jp":"新潟県","jp_add_1":"西蒲原郡弥彦村","jp_add_2":"えび穴"},"9590308":{"post_code":"9590308","prefecture":"NIIGATA KEN","city":"NISHIKAMBARA GUN YAHIKO MURA","town":"ODO","perfecture_jp":"新潟県","jp_add_1":"西蒲原郡弥彦村","jp_add_2":"大戸"},"9590304":{"post_code":"9590304","prefecture":"NIIGATA KEN","city":"NISHIKAMBARA GUN YAHIKO MURA","town":"OGINO","perfecture_jp":"新潟県","jp_add_1":"西蒲原郡弥彦村","jp_add_2":"荻野"},"9590321":{"post_code":"9590321","prefecture":"NIIGATA KEN","city":"NISHIKAMBARA GUN YAHIKO MURA","town":"KAMIIZUMI","perfecture_jp":"新潟県","jp_add_1":"西蒲原郡弥彦村","jp_add_2":"上泉"},"9590307":{"post_code":"9590307","prefecture":"NIIGATA KEN","city":"NISHIKAMBARA GUN YAHIKO MURA","town":"KAWASAKI","perfecture_jp":"新潟県","jp_add_1":"西蒲原郡弥彦村","jp_add_2":"川崎"},"9590319":{"post_code":"9590319","prefecture":"NIIGATA KEN","city":"NISHIKAMBARA GUN YAHIKO MURA","town":"KANONJI","perfecture_jp":"新潟県","jp_add_1":"西蒲原郡弥彦村","jp_add_2":"観音寺"},"9590317":{"post_code":"9590317","prefecture":"NIIGATA KEN","city":"NISHIKAMBARA GUN YAHIKO MURA","town":"SAKAE","perfecture_jp":"新潟県","jp_add_1":"西蒲原郡弥彦村","jp_add_2":"境江"},"9590302":{"post_code":"9590302","prefecture":"NIIGATA KEN","city":"NISHIKAMBARA GUN YAHIKO MURA","town":"TANAKASHINDEN","perfecture_jp":"新潟県","jp_add_1":"西蒲原郡弥彦村","jp_add_2":"田中新田"},"9590312":{"post_code":"9590312","prefecture":"NIIGATA KEN","city":"NISHIKAMBARA GUN YAHIKO MURA","town":"NAKAYAMA","perfecture_jp":"新潟県","jp_add_1":"西蒲原郡弥彦村","jp_add_2":"中山"},"9590322":{"post_code":"9590322","prefecture":"NIIGATA KEN","city":"NISHIKAMBARA GUN YAHIKO MURA","town":"HASHIRIDE","perfecture_jp":"新潟県","jp_add_1":"西蒲原郡弥彦村","jp_add_2":"走出"},"9590306":{"post_code":"9590306","prefecture":"NIIGATA KEN","city":"NISHIKAMBARA GUN YAHIKO MURA","town":"HAMAKUBI","perfecture_jp":"新潟県","jp_add_1":"西蒲原郡弥彦村","jp_add_2":"浜首"},"9590303":{"post_code":"9590303","prefecture":"NIIGATA KEN","city":"NISHIKAMBARA GUN YAHIKO MURA","town":"HIRANO","perfecture_jp":"新潟県","jp_add_1":"西蒲原郡弥彦村","jp_add_2":"平野"},"9590318":{"post_code":"9590318","prefecture":"NIIGATA KEN","city":"NISHIKAMBARA GUN YAHIKO MURA","town":"FUMOTO","perfecture_jp":"新潟県","jp_add_1":"西蒲原郡弥彦村","jp_add_2":"麓"},"9590315":{"post_code":"9590315","prefecture":"NIIGATA KEN","city":"NISHIKAMBARA GUN YAHIKO MURA","town":"FUMOTOMURASHINDEN","perfecture_jp":"新潟県","jp_add_1":"西蒲原郡弥彦村","jp_add_2":"麓村新田"},"9590309":{"post_code":"9590309","prefecture":"NIIGATA KEN","city":"NISHIKAMBARA GUN YAHIKO MURA","town":"MINEMI","perfecture_jp":"新潟県","jp_add_1":"西蒲原郡弥彦村","jp_add_2":"峰見"},"9590310":{"post_code":"9590310","prefecture":"NIIGATA KEN","city":"NISHIKAMBARA GUN YAHIKO MURA","town":"MIYAMA","perfecture_jp":"新潟県","jp_add_1":"西蒲原郡弥彦村","jp_add_2":"美山"},"9590316":{"post_code":"9590316","prefecture":"NIIGATA KEN","city":"NISHIKAMBARA GUN YAHIKO MURA","town":"MURAYAMA","perfecture_jp":"新潟県","jp_add_1":"西蒲原郡弥彦村","jp_add_2":"村山"},"9590305":{"post_code":"9590305","prefecture":"NIIGATA KEN","city":"NISHIKAMBARA GUN YAHIKO MURA","town":"YAHAGI","perfecture_jp":"新潟県","jp_add_1":"西蒲原郡弥彦村","jp_add_2":"矢作"},"9590323":{"post_code":"9590323","prefecture":"NIIGATA KEN","city":"NISHIKAMBARA GUN YAHIKO MURA","town":"YAHIKO","perfecture_jp":"新潟県","jp_add_1":"西蒲原郡弥彦村","jp_add_2":"弥彦"},"9590314":{"post_code":"9590314","prefecture":"NIIGATA KEN","city":"NISHIKAMBARA GUN YAHIKO MURA","town":"YAMAGISHI","perfecture_jp":"新潟県","jp_add_1":"西蒲原郡弥彦村","jp_add_2":"山岸"},"9590313":{"post_code":"9590313","prefecture":"NIIGATA KEN","city":"NISHIKAMBARA GUN YAHIKO MURA","town":"YAMAZAKI","perfecture_jp":"新潟県","jp_add_1":"西蒲原郡弥彦村","jp_add_2":"山崎"},"9591500":{"post_code":"9591500","prefecture":"NIIGATA KEN","city":"MINAMIKAMBARA GUN TAGAMI MACHI","town":"IKANIKEISAIGANAIBAAI","perfecture_jp":"新潟県","jp_add_1":"南蒲原郡田上町","jp_add_2":""},"9591521":{"post_code":"9591521","prefecture":"NIIGATA KEN","city":"MINAMIKAMBARA GUN TAGAMI MACHI","town":"ISHIDASHINDEN","perfecture_jp":"新潟県","jp_add_1":"南蒲原郡田上町","jp_add_2":"石田新田"},"9591513":{"post_code":"9591513","prefecture":"NIIGATA KEN","city":"MINAMIKAMBARA GUN TAGAMI MACHI","town":"KAWAFUNEGAWA","perfecture_jp":"新潟県","jp_add_1":"南蒲原郡田上町","jp_add_2":"川船河"},"9591514":{"post_code":"9591514","prefecture":"NIIGATA KEN","city":"MINAMIKAMBARA GUN TAGAMI MACHI","town":"SAKATA","perfecture_jp":"新潟県","jp_add_1":"南蒲原郡田上町","jp_add_2":"坂田"},"9591522":{"post_code":"9591522","prefecture":"NIIGATA KEN","city":"MINAMIKAMBARA GUN TAGAMI MACHI","town":"SENGARISHINDEN","perfecture_jp":"新潟県","jp_add_1":"南蒲原郡田上町","jp_add_2":"千苅新田"},"9591525":{"post_code":"9591525","prefecture":"NIIGATA KEN","city":"MINAMIKAMBARA GUN TAGAMI MACHI","town":"SONESHINDEN","perfecture_jp":"新潟県","jp_add_1":"南蒲原郡田上町","jp_add_2":"曽根新田"},"9591502":{"post_code":"9591502","prefecture":"NIIGATA KEN","city":"MINAMIKAMBARA GUN TAGAMI MACHI","town":"TAGAMI","perfecture_jp":"新潟県","jp_add_1":"南蒲原郡田上町","jp_add_2":"田上"},"9591512":{"post_code":"9591512","prefecture":"NIIGATA KEN","city":"MINAMIKAMBARA GUN TAGAMI MACHI","town":"HANYUDA","perfecture_jp":"新潟県","jp_add_1":"南蒲原郡田上町","jp_add_2":"羽生田"},"9591503":{"post_code":"9591503","prefecture":"NIIGATA KEN","city":"MINAMIKAMBARA GUN TAGAMI MACHI","town":"HARAGASAKISHINDEN","perfecture_jp":"新潟県","jp_add_1":"南蒲原郡田上町","jp_add_2":"原ケ崎新田"},"9591523":{"post_code":"9591523","prefecture":"NIIGATA KEN","city":"MINAMIKAMBARA GUN TAGAMI MACHI","town":"HOMYOSHINDEN","perfecture_jp":"新潟県","jp_add_1":"南蒲原郡田上町","jp_add_2":"保明新田"},"9591501":{"post_code":"9591501","prefecture":"NIIGATA KEN","city":"MINAMIKAMBARA GUN TAGAMI MACHI","town":"YUGAWA","perfecture_jp":"新潟県","jp_add_1":"南蒲原郡田上町","jp_add_2":"湯川"},"9591524":{"post_code":"9591524","prefecture":"NIIGATA KEN","city":"MINAMIKAMBARA GUN TAGAMI MACHI","town":"YOKOBASHINDEN","perfecture_jp":"新潟県","jp_add_1":"南蒲原郡田上町","jp_add_2":"横場新田"},"9591511":{"post_code":"9591511","prefecture":"NIIGATA KEN","city":"MINAMIKAMBARA GUN TAGAMI MACHI","town":"YOSHIDASHINDEN","perfecture_jp":"新潟県","jp_add_1":"南蒲原郡田上町","jp_add_2":"吉田新田"},"9594400":{"post_code":"9594400","prefecture":"NIIGATA KEN","city":"HIGASHIKAMBARA GUN AGA MACHI","town":"IKANIKEISAIGANAIBAAI","perfecture_jp":"新潟県","jp_add_1":"東蒲原郡阿賀町","jp_add_2":""},"9594408":{"post_code":"9594408","prefecture":"NIIGATA KEN","city":"HIGASHIKAMBARA GUN AGA MACHI","town":"AKAIWA","perfecture_jp":"新潟県","jp_add_1":"東蒲原郡阿賀町","jp_add_2":"赤岩"},"9594621":{"post_code":"9594621","prefecture":"NIIGATA KEN","city":"HIGASHIKAMBARA GUN AGA MACHI","town":"AGANOKITA","perfecture_jp":"新潟県","jp_add_1":"東蒲原郡阿賀町","jp_add_2":"あが野北"},"9594626":{"post_code":"9594626","prefecture":"NIIGATA KEN","city":"HIGASHIKAMBARA GUN AGA MACHI","town":"AGANOMINAMI","perfecture_jp":"新潟県","jp_add_1":"東蒲原郡阿賀町","jp_add_2":"あが野南"},"9594603":{"post_code":"9594603","prefecture":"NIIGATA KEN","city":"HIGASHIKAMBARA GUN AGA MACHI","town":"ARAYA","perfecture_jp":"新潟県","jp_add_1":"東蒲原郡阿賀町","jp_add_2":"新谷"},"9594606":{"post_code":"9594606","prefecture":"NIIGATA KEN","city":"HIGASHIKAMBARA GUN AGA MACHI","town":"IKAZAWA","perfecture_jp":"新潟県","jp_add_1":"東蒲原郡阿賀町","jp_add_2":"五十沢"},"9594614":{"post_code":"9594614","prefecture":"NIIGATA KEN","city":"HIGASHIKAMBARA GUN AGA MACHI","town":"IGASHIMA","perfecture_jp":"新潟県","jp_add_1":"東蒲原郡阿賀町","jp_add_2":"五十島"},"9594632":{"post_code":"9594632","prefecture":"NIIGATA KEN","city":"HIGASHIKAMBARA GUN AGA MACHI","town":"ISHITO","perfecture_jp":"新潟県","jp_add_1":"東蒲原郡阿賀町","jp_add_2":"石戸"},"9594636":{"post_code":"9594636","prefecture":"NIIGATA KEN","city":"HIGASHIKAMBARA GUN AGA MACHI","town":"ISHIMA","perfecture_jp":"新潟県","jp_add_1":"東蒲原郡阿賀町","jp_add_2":"石間"},"9594627":{"post_code":"9594627","prefecture":"NIIGATA KEN","city":"HIGASHIKAMBARA GUN AGA MACHI","town":"IWAYA","perfecture_jp":"新潟県","jp_add_1":"東蒲原郡阿賀町","jp_add_2":"岩谷"},"9594405":{"post_code":"9594405","prefecture":"NIIGATA KEN","city":"HIGASHIKAMBARA GUN AGA MACHI","town":"UENOYAMA","perfecture_jp":"新潟県","jp_add_1":"東蒲原郡阿賀町","jp_add_2":"上ノ山"},"9594410":{"post_code":"9594410","prefecture":"NIIGATA KEN","city":"HIGASHIKAMBARA GUN AGA MACHI","town":"OMAKI","perfecture_jp":"新潟県","jp_add_1":"東蒲原郡阿賀町","jp_add_2":"大牧"},"9594612":{"post_code":"9594612","prefecture":"NIIGATA KEN","city":"HIGASHIKAMBARA GUN AGA MACHI","town":"OKAZAWA","perfecture_jp":"新潟県","jp_add_1":"東蒲原郡阿賀町","jp_add_2":"岡沢"},"9594525":{"post_code":"9594525","prefecture":"NIIGATA KEN","city":"HIGASHIKAMBARA GUN AGA MACHI","town":"OTEMO","perfecture_jp":"新潟県","jp_add_1":"東蒲原郡阿賀町","jp_add_2":"小手茂"},"9594302":{"post_code":"9594302","prefecture":"NIIGATA KEN","city":"HIGASHIKAMBARA GUN AGA MACHI","town":"KANOSE","perfecture_jp":"新潟県","jp_add_1":"東蒲原郡阿賀町","jp_add_2":"鹿瀬"},"9594617":{"post_code":"9594617","prefecture":"NIIGATA KEN","city":"HIGASHIKAMBARA GUN AGA MACHI","town":"KAMISHIMA","perfecture_jp":"新潟県","jp_add_1":"東蒲原郡阿賀町","jp_add_2":"上島"},"9594534":{"post_code":"9594534","prefecture":"NIIGATA KEN","city":"HIGASHIKAMBARA GUN AGA MACHI","town":"KAMITANIOTSU","perfecture_jp":"新潟県","jp_add_1":"東蒲原郡阿賀町","jp_add_2":"神谷乙"},"9594535":{"post_code":"9594535","prefecture":"NIIGATA KEN","city":"HIGASHIKAMBARA GUN AGA MACHI","town":"KAMITANIKO","perfecture_jp":"新潟県","jp_add_1":"東蒲原郡阿賀町","jp_add_2":"神谷甲"},"9594533":{"post_code":"9594533","prefecture":"NIIGATA KEN","city":"HIGASHIKAMBARA GUN AGA MACHI","town":"KAMITANIHEI","perfecture_jp":"新潟県","jp_add_1":"東蒲原郡阿賀町","jp_add_2":"神谷丙"},"9594618":{"post_code":"9594618","prefecture":"NIIGATA KEN","city":"HIGASHIKAMBARA GUN AGA MACHI","town":"KAWAGUCHI","perfecture_jp":"新潟県","jp_add_1":"東蒲原郡阿賀町","jp_add_2":"川口"},"9594409":{"post_code":"9594409","prefecture":"NIIGATA KEN","city":"HIGASHIKAMBARA GUN AGA MACHI","town":"KYONOSE","perfecture_jp":"新潟県","jp_add_1":"東蒲原郡阿賀町","jp_add_2":"京ノ瀬"},"9594501":{"post_code":"9594501","prefecture":"NIIGATA KEN","city":"HIGASHIKAMBARA GUN AGA MACHI","town":"KUSHIMA","perfecture_jp":"新潟県","jp_add_1":"東蒲原郡阿賀町","jp_add_2":"九島"},"9594634":{"post_code":"9594634","prefecture":"NIIGATA KEN","city":"HIGASHIKAMBARA GUN AGA MACHI","town":"KUMAWATARI","perfecture_jp":"新潟県","jp_add_1":"東蒲原郡阿賀町","jp_add_2":"熊渡"},"9594406":{"post_code":"9594406","prefecture":"NIIGATA KEN","city":"HIGASHIKAMBARA GUN AGA MACHI","town":"KUMOWADA","perfecture_jp":"新潟県","jp_add_1":"東蒲原郡阿賀町","jp_add_2":"雲和田"},"9594413":{"post_code":"9594413","prefecture":"NIIGATA KEN","city":"HIGASHIKAMBARA GUN AGA MACHI","town":"KURANOTAIRA","perfecture_jp":"新潟県","jp_add_1":"東蒲原郡阿賀町","jp_add_2":"倉ノ平"},"9594623":{"post_code":"9594623","prefecture":"NIIGATA KEN","city":"HIGASHIKAMBARA GUN AGA MACHI","town":"KUROIWA","perfecture_jp":"新潟県","jp_add_1":"東蒲原郡阿賀町","jp_add_2":"黒岩"},"9594502":{"post_code":"9594502","prefecture":"NIIGATA KEN","city":"HIGASHIKAMBARA GUN AGA MACHI","town":"KOIDE","perfecture_jp":"新潟県","jp_add_1":"東蒲原郡阿賀町","jp_add_2":"小出"},"9594608":{"post_code":"9594608","prefecture":"NIIGATA KEN","city":"HIGASHIKAMBARA GUN AGA MACHI","town":"KOBANACHI","perfecture_jp":"新潟県","jp_add_1":"東蒲原郡阿賀町","jp_add_2":"小花地"},"9594522":{"post_code":"9594522","prefecture":"NIIGATA KEN","city":"HIGASHIKAMBARA GUN AGA MACHI","town":"SAMPOBUNOTSU","perfecture_jp":"新潟県","jp_add_1":"東蒲原郡阿賀町","jp_add_2":"三宝分乙"},"9594521":{"post_code":"9594521","prefecture":"NIIGATA KEN","city":"HIGASHIKAMBARA GUN AGA MACHI","town":"SAMPOBUNKO","perfecture_jp":"新潟県","jp_add_1":"東蒲原郡阿賀町","jp_add_2":"三宝分甲"},"9594523":{"post_code":"9594523","prefecture":"NIIGATA KEN","city":"HIGASHIKAMBARA GUN AGA MACHI","town":"SAMPOBUNHEI","perfecture_jp":"新潟県","jp_add_1":"東蒲原郡阿賀町","jp_add_2":"三宝分丙"},"9594622":{"post_code":"9594622","prefecture":"NIIGATA KEN","city":"HIGASHIKAMBARA GUN AGA MACHI","town":"SHIROSAKI","perfecture_jp":"新潟県","jp_add_1":"東蒲原郡阿賀町","jp_add_2":"白崎"},"9594512":{"post_code":"9594512","prefecture":"NIIGATA KEN","city":"HIGASHIKAMBARA GUN AGA MACHI","town":"DAIKURAOTSU","perfecture_jp":"新潟県","jp_add_1":"東蒲原郡阿賀町","jp_add_2":"大倉乙"},"9594513":{"post_code":"9594513","prefecture":"NIIGATA KEN","city":"HIGASHIKAMBARA GUN AGA MACHI","town":"DAIKURAKO","perfecture_jp":"新潟県","jp_add_1":"東蒲原郡阿賀町","jp_add_2":"大倉甲"},"9594416":{"post_code":"9594416","prefecture":"NIIGATA KEN","city":"HIGASHIKAMBARA GUN AGA MACHI","town":"TAZAWA","perfecture_jp":"新潟県","jp_add_1":"東蒲原郡阿賀町","jp_add_2":"田沢"},"9594402":{"post_code":"9594402","prefecture":"NIIGATA KEN","city":"HIGASHIKAMBARA GUN AGA MACHI","town":"TSUGAWA","perfecture_jp":"新潟県","jp_add_1":"東蒲原郡阿賀町","jp_add_2":"津川"},"9594601":{"post_code":"9594601","prefecture":"NIIGATA KEN","city":"HIGASHIKAMBARA GUN AGA MACHI","town":"TSUNAGI","perfecture_jp":"新潟県","jp_add_1":"東蒲原郡阿賀町","jp_add_2":"綱木"},"9594401":{"post_code":"9594401","prefecture":"NIIGATA KEN","city":"HIGASHIKAMBARA GUN AGA MACHI","town":"TSUNOSHIMA","perfecture_jp":"新潟県","jp_add_1":"東蒲原郡阿賀町","jp_add_2":"角島"},"9594635":{"post_code":"9594635","prefecture":"NIIGATA KEN","city":"HIGASHIKAMBARA GUN AGA MACHI","town":"TSURIHAMA","perfecture_jp":"新潟県","jp_add_1":"東蒲原郡阿賀町","jp_add_2":"釣浜"},"9594411":{"post_code":"9594411","prefecture":"NIIGATA KEN","city":"HIGASHIKAMBARA GUN AGA MACHI","town":"TEMMAN","perfecture_jp":"新潟県","jp_add_1":"東蒲原郡阿賀町","jp_add_2":"天満"},"9594503":{"post_code":"9594503","prefecture":"NIIGATA KEN","city":"HIGASHIKAMBARA GUN AGA MACHI","town":"TOYOKAWAOTSU","perfecture_jp":"新潟県","jp_add_1":"東蒲原郡阿賀町","jp_add_2":"豊川乙"},"9594505":{"post_code":"9594505","prefecture":"NIIGATA KEN","city":"HIGASHIKAMBARA GUN AGA MACHI","town":"TOYOKAWAKO","perfecture_jp":"新潟県","jp_add_1":"東蒲原郡阿賀町","jp_add_2":"豊川甲"},"9594504":{"post_code":"9594504","prefecture":"NIIGATA KEN","city":"HIGASHIKAMBARA GUN AGA MACHI","town":"TOYOKAWAHEI","perfecture_jp":"新潟県","jp_add_1":"東蒲原郡阿賀町","jp_add_2":"豊川丙"},"9594304":{"post_code":"9594304","prefecture":"NIIGATA KEN","city":"HIGASHIKAMBARA GUN AGA MACHI","town":"TOYOMI","perfecture_jp":"新潟県","jp_add_1":"東蒲原郡阿賀町","jp_add_2":"豊実"},"9594631":{"post_code":"9594631","prefecture":"NIIGATA KEN","city":"HIGASHIKAMBARA GUN AGA MACHI","town":"TORIAGE","perfecture_jp":"新潟県","jp_add_1":"東蒲原郡阿賀町","jp_add_2":"取上"},"9594633":{"post_code":"9594633","prefecture":"NIIGATA KEN","city":"HIGASHIKAMBARA GUN AGA MACHI","town":"NAGATANI","perfecture_jp":"新潟県","jp_add_1":"東蒲原郡阿賀町","jp_add_2":"長谷"},"9594611":{"post_code":"9594611","prefecture":"NIIGATA KEN","city":"HIGASHIKAMBARA GUN AGA MACHI","town":"NAKANOSAWA","perfecture_jp":"新潟県","jp_add_1":"東蒲原郡阿賀町","jp_add_2":"中ノ沢"},"9594514":{"post_code":"9594514","prefecture":"NIIGATA KEN","city":"HIGASHIKAMBARA GUN AGA MACHI","town":"NANAMEOTSU","perfecture_jp":"新潟県","jp_add_1":"東蒲原郡阿賀町","jp_add_2":"七名乙"},"9594515":{"post_code":"9594515","prefecture":"NIIGATA KEN","city":"HIGASHIKAMBARA GUN AGA MACHI","town":"NANAMEKO","perfecture_jp":"新潟県","jp_add_1":"東蒲原郡阿賀町","jp_add_2":"七名甲"},"9594407":{"post_code":"9594407","prefecture":"NIIGATA KEN","city":"HIGASHIKAMBARA GUN AGA MACHI","town":"NISHI","perfecture_jp":"新潟県","jp_add_1":"東蒲原郡阿賀町","jp_add_2":"西"},"9594418":{"post_code":"9594418","prefecture":"NIIGATA KEN","city":"HIGASHIKAMBARA GUN AGA MACHI","town":"NOMURA","perfecture_jp":"新潟県","jp_add_1":"東蒲原郡阿賀町","jp_add_2":"野村"},"9594412":{"post_code":"9594412","prefecture":"NIIGATA KEN","city":"HIGASHIKAMBARA GUN AGA MACHI","town":"HANADATE","perfecture_jp":"新潟県","jp_add_1":"東蒲原郡阿賀町","jp_add_2":"花立"},"9594441":{"post_code":"9594441","prefecture":"NIIGATA KEN","city":"HIGASHIKAMBARA GUN AGA MACHI","town":"HARAIGAWA","perfecture_jp":"新潟県","jp_add_1":"東蒲原郡阿賀町","jp_add_2":"払川"},"9594511":{"post_code":"9594511","prefecture":"NIIGATA KEN","city":"HIGASHIKAMBARA GUN AGA MACHI","town":"HIGASHIYAMA","perfecture_jp":"新潟県","jp_add_1":"東蒲原郡阿賀町","jp_add_2":"東山"},"9594303":{"post_code":"9594303","prefecture":"NIIGATA KEN","city":"HIGASHIKAMBARA GUN AGA MACHI","town":"HIDEYA","perfecture_jp":"新潟県","jp_add_1":"東蒲原郡阿賀町","jp_add_2":"日出谷"},"9594539":{"post_code":"9594539","prefecture":"NIIGATA KEN","city":"HIGASHIKAMBARA GUN AGA MACHI","town":"HINOKAWAOTSU","perfecture_jp":"新潟県","jp_add_1":"東蒲原郡阿賀町","jp_add_2":"日野川乙"},"9594531":{"post_code":"9594531","prefecture":"NIIGATA KEN","city":"HIGASHIKAMBARA GUN AGA MACHI","town":"HINOKAWAKO","perfecture_jp":"新潟県","jp_add_1":"東蒲原郡阿賀町","jp_add_2":"日野川甲"},"9594538":{"post_code":"9594538","prefecture":"NIIGATA KEN","city":"HIGASHIKAMBARA GUN AGA MACHI","town":"HINOKAWAHEI","perfecture_jp":"新潟県","jp_add_1":"東蒲原郡阿賀町","jp_add_2":"日野川丙"},"9594403":{"post_code":"9594403","prefecture":"NIIGATA KEN","city":"HIGASHIKAMBARA GUN AGA MACHI","town":"HIRABORI","perfecture_jp":"新潟県","jp_add_1":"東蒲原郡阿賀町","jp_add_2":"平堀"},"9594404":{"post_code":"9594404","prefecture":"NIIGATA KEN","city":"HIGASHIKAMBARA GUN AGA MACHI","town":"HIROSAWA","perfecture_jp":"新潟県","jp_add_1":"東蒲原郡阿賀町","jp_add_2":"広沢"},"9594537":{"post_code":"9594537","prefecture":"NIIGATA KEN","city":"HIGASHIKAMBARA GUN AGA MACHI","town":"HIROTANIOTSU","perfecture_jp":"新潟県","jp_add_1":"東蒲原郡阿賀町","jp_add_2":"広谷乙"},"9594536":{"post_code":"9594536","prefecture":"NIIGATA KEN","city":"HIGASHIKAMBARA GUN AGA MACHI","town":"HIROTANIKO","perfecture_jp":"新潟県","jp_add_1":"東蒲原郡阿賀町","jp_add_2":"広谷甲"},"9594532":{"post_code":"9594532","prefecture":"NIIGATA KEN","city":"HIGASHIKAMBARA GUN AGA MACHI","town":"HIROTANIHEI","perfecture_jp":"新潟県","jp_add_1":"東蒲原郡阿賀町","jp_add_2":"広谷丙"},"9594414":{"post_code":"9594414","prefecture":"NIIGATA KEN","city":"HIGASHIKAMBARA GUN AGA MACHI","town":"FUKUTORI","perfecture_jp":"新潟県","jp_add_1":"東蒲原郡阿賀町","jp_add_2":"福取"},"9594602":{"post_code":"9594602","prefecture":"NIIGATA KEN","city":"HIGASHIKAMBARA GUN AGA MACHI","town":"FURUMATA","perfecture_jp":"新潟県","jp_add_1":"東蒲原郡阿賀町","jp_add_2":"古岐"},"9594605":{"post_code":"9594605","prefecture":"NIIGATA KEN","city":"HIGASHIKAMBARA GUN AGA MACHI","town":"HOSOGOE","perfecture_jp":"新潟県","jp_add_1":"東蒲原郡阿賀町","jp_add_2":"細越"},"9594524":{"post_code":"9594524","prefecture":"NIIGATA KEN","city":"HIGASHIKAMBARA GUN AGA MACHI","town":"MIKATAOTSU","perfecture_jp":"新潟県","jp_add_1":"東蒲原郡阿賀町","jp_add_2":"三方乙"},"9594526":{"post_code":"9594526","prefecture":"NIIGATA KEN","city":"HIGASHIKAMBARA GUN AGA MACHI","town":"MIKATAKO","perfecture_jp":"新潟県","jp_add_1":"東蒲原郡阿賀町","jp_add_2":"三方甲"},"9594301":{"post_code":"9594301","prefecture":"NIIGATA KEN","city":"HIGASHIKAMBARA GUN AGA MACHI","town":"MUKAIKANOSE","perfecture_jp":"新潟県","jp_add_1":"東蒲原郡阿賀町","jp_add_2":"向鹿瀬"},"9594417":{"post_code":"9594417","prefecture":"NIIGATA KEN","city":"HIGASHIKAMBARA GUN AGA MACHI","town":"YAKIYAMA","perfecture_jp":"新潟県","jp_add_1":"東蒲原郡阿賀町","jp_add_2":"八木山"},"9594624":{"post_code":"9594624","prefecture":"NIIGATA KEN","city":"HIGASHIKAMBARA GUN AGA MACHI","town":"YAZAWA","perfecture_jp":"新潟県","jp_add_1":"東蒲原郡阿賀町","jp_add_2":"谷沢"},"9594415":{"post_code":"9594415","prefecture":"NIIGATA KEN","city":"HIGASHIKAMBARA GUN AGA MACHI","town":"YATSUDA","perfecture_jp":"新潟県","jp_add_1":"東蒲原郡阿賀町","jp_add_2":"八ツ田"},"9594604":{"post_code":"9594604","prefecture":"NIIGATA KEN","city":"HIGASHIKAMBARA GUN AGA MACHI","town":"YUKUJI","perfecture_jp":"新潟県","jp_add_1":"東蒲原郡阿賀町","jp_add_2":"行地"},"9594625":{"post_code":"9594625","prefecture":"NIIGATA KEN","city":"HIGASHIKAMBARA GUN AGA MACHI","town":"YOSHIZU","perfecture_jp":"新潟県","jp_add_1":"東蒲原郡阿賀町","jp_add_2":"吉津"},"9594506":{"post_code":"9594506","prefecture":"NIIGATA KEN","city":"HIGASHIKAMBARA GUN AGA MACHI","town":"RYOGOOTSU","perfecture_jp":"新潟県","jp_add_1":"東蒲原郡阿賀町","jp_add_2":"両郷乙"},"9594507":{"post_code":"9594507","prefecture":"NIIGATA KEN","city":"HIGASHIKAMBARA GUN AGA MACHI","town":"RYOGOKO","perfecture_jp":"新潟県","jp_add_1":"東蒲原郡阿賀町","jp_add_2":"両郷甲"},"9593200":{"post_code":"9593200","prefecture":"NIIGATA KEN","city":"IWAFUNE GUN SEKIKAWA MURA","town":"IKANIKEISAIGANAIBAAI","perfecture_jp":"新潟県","jp_add_1":"岩船郡関川村","jp_add_2":""},"9593235":{"post_code":"9593235","prefecture":"NIIGATA KEN","city":"IWAFUNE GUN SEKIKAWA MURA","town":"AZUMI","perfecture_jp":"新潟県","jp_add_1":"岩船郡関川村","jp_add_2":"安角"},"9593222":{"post_code":"9593222","prefecture":"NIIGATA KEN","city":"IWAFUNE GUN SEKIKAWA MURA","town":"ARAKAWADAI","perfecture_jp":"新潟県","jp_add_1":"岩船郡関川村","jp_add_2":"荒川台"},"9593245":{"post_code":"9593245","prefecture":"NIIGATA KEN","city":"IWAFUNE GUN SEKIKAWA MURA","town":"IKUJI","perfecture_jp":"新潟県","jp_add_1":"岩船郡関川村","jp_add_2":"幾地"},"9593213":{"post_code":"9593213","prefecture":"NIIGATA KEN","city":"IWAFUNE GUN SEKIKAWA MURA","town":"UENO","perfecture_jp":"新潟県","jp_add_1":"岩船郡関川村","jp_add_2":"上野"},"9593214":{"post_code":"9593214","prefecture":"NIIGATA KEN","city":"IWAFUNE GUN SEKIKAWA MURA","town":"UENOSHIN","perfecture_jp":"新潟県","jp_add_1":"岩船郡関川村","jp_add_2":"上野新"},"9593216":{"post_code":"9593216","prefecture":"NIIGATA KEN","city":"IWAFUNE GUN SEKIKAWA MURA","town":"UENOHARA","perfecture_jp":"新潟県","jp_add_1":"岩船郡関川村","jp_add_2":"上野原"},"9593257":{"post_code":"9593257","prefecture":"NIIGATA KEN","city":"IWAFUNE GUN SEKIKAWA MURA","town":"UENOYAMA","perfecture_jp":"新潟県","jp_add_1":"岩船郡関川村","jp_add_2":"上野山"},"9593272":{"post_code":"9593272","prefecture":"NIIGATA KEN","city":"IWAFUNE GUN SEKIKAWA MURA","town":"UCHIAGE","perfecture_jp":"新潟県","jp_add_1":"岩船郡関川村","jp_add_2":"打上"},"9593275":{"post_code":"9593275","prefecture":"NIIGATA KEN","city":"IWAFUNE GUN SEKIKAWA MURA","town":"UCHISUGAWA","perfecture_jp":"新潟県","jp_add_1":"岩船郡関川村","jp_add_2":"内須川"},"9593223":{"post_code":"9593223","prefecture":"NIIGATA KEN","city":"IWAFUNE GUN SEKIKAWA MURA","town":"OCHIBUCHI","perfecture_jp":"新潟県","jp_add_1":"岩船郡関川村","jp_add_2":"大内淵"},"9593256":{"post_code":"9593256","prefecture":"NIIGATA KEN","city":"IWAFUNE GUN SEKIKAWA MURA","town":"OMI","perfecture_jp":"新潟県","jp_add_1":"岩船郡関川村","jp_add_2":"小見"},"9593254":{"post_code":"9593254","prefecture":"NIIGATA KEN","city":"IWAFUNE GUN SEKIKAWA MURA","town":"OMIMAESHINDEN","perfecture_jp":"新潟県","jp_add_1":"岩船郡関川村","jp_add_2":"小見前新田"},"9593236":{"post_code":"9593236","prefecture":"NIIGATA KEN","city":"IWAFUNE GUN SEKIKAWA MURA","town":"OISHI","perfecture_jp":"新潟県","jp_add_1":"岩船郡関川村","jp_add_2":"大石"},"9593241":{"post_code":"9593241","prefecture":"NIIGATA KEN","city":"IWAFUNE GUN SEKIKAWA MURA","town":"OSHIMA","perfecture_jp":"新潟県","jp_add_1":"岩船郡関川村","jp_add_2":"大島"},"9593234":{"post_code":"9593234","prefecture":"NIIGATA KEN","city":"IWAFUNE GUN SEKIKAWA MURA","town":"KAJIKADANI","perfecture_jp":"新潟県","jp_add_1":"岩船郡関川村","jp_add_2":"鮖谷"},"9593226":{"post_code":"9593226","prefecture":"NIIGATA KEN","city":"IWAFUNE GUN SEKIKAWA MURA","town":"KATAKAI","perfecture_jp":"新潟県","jp_add_1":"岩船郡関川村","jp_add_2":"片貝"},"9593251":{"post_code":"9593251","prefecture":"NIIGATA KEN","city":"IWAFUNE GUN SEKIKAWA MURA","town":"KATSURA","perfecture_jp":"新潟県","jp_add_1":"岩船郡関川村","jp_add_2":"桂"},"9593228":{"post_code":"9593228","prefecture":"NIIGATA KEN","city":"IWAFUNE GUN SEKIKAWA MURA","town":"KANAMARU","perfecture_jp":"新潟県","jp_add_1":"岩船郡関川村","jp_add_2":"金丸"},"9593237":{"post_code":"9593237","prefecture":"NIIGATA KEN","city":"IWAFUNE GUN SEKIKAWA MURA","town":"KANEMATA","perfecture_jp":"新潟県","jp_add_1":"岩船郡関川村","jp_add_2":"金俣"},"9593231":{"post_code":"9593231","prefecture":"NIIGATA KEN","city":"IWAFUNE GUN SEKIKAWA MURA","town":"KAMIKAWAKUCHI","perfecture_jp":"新潟県","jp_add_1":"岩船郡関川村","jp_add_2":"上川口"},"9593205":{"post_code":"9593205","prefecture":"NIIGATA KEN","city":"IWAFUNE GUN SEKIKAWA MURA","town":"KAMISHIMBO","perfecture_jp":"新潟県","jp_add_1":"岩船郡関川村","jp_add_2":"上新保"},"9593264":{"post_code":"9593264","prefecture":"NIIGATA KEN","city":"IWAFUNE GUN SEKIKAWA MURA","town":"KAMISEKI","perfecture_jp":"新潟県","jp_add_1":"岩船郡関川村","jp_add_2":"上関"},"9593246":{"post_code":"9593246","prefecture":"NIIGATA KEN","city":"IWAFUNE GUN SEKIKAWA MURA","town":"KAMITSUCHIZAWA","perfecture_jp":"新潟県","jp_add_1":"岩船郡関川村","jp_add_2":"上土沢"},"9593224":{"post_code":"9593224","prefecture":"NIIGATA KEN","city":"IWAFUNE GUN SEKIKAWA MURA","town":"KIKEIDE","perfecture_jp":"新潟県","jp_add_1":"岩船郡関川村","jp_add_2":"聞出"},"9593233":{"post_code":"9593233","prefecture":"NIIGATA KEN","city":"IWAFUNE GUN SEKIKAWA MURA","town":"KUBO","perfecture_jp":"新潟県","jp_add_1":"岩船郡関川村","jp_add_2":"久保"},"9593243":{"post_code":"9593243","prefecture":"NIIGATA KEN","city":"IWAFUNE GUN SEKIKAWA MURA","town":"KUWAEZAWA","perfecture_jp":"新潟県","jp_add_1":"岩船郡関川村","jp_add_2":"鍬江沢"},"9593211":{"post_code":"9593211","prefecture":"NIIGATA KEN","city":"IWAFUNE GUN SEKIKAWA MURA","town":"KOWADA","perfecture_jp":"新潟県","jp_add_1":"岩船郡関川村","jp_add_2":"小和田"},"9593262":{"post_code":"9593262","prefecture":"NIIGATA KEN","city":"IWAFUNE GUN SEKIKAWA MURA","town":"SAWA","perfecture_jp":"新潟県","jp_add_1":"岩船郡関川村","jp_add_2":"沢"},"9593221":{"post_code":"9593221","prefecture":"NIIGATA KEN","city":"IWAFUNE GUN SEKIKAWA MURA","town":"SHIMOKAWAGUCHI","perfecture_jp":"新潟県","jp_add_1":"岩船郡関川村","jp_add_2":"下川口"},"9593265":{"post_code":"9593265","prefecture":"NIIGATA KEN","city":"IWAFUNE GUN SEKIKAWA MURA","town":"SHIMOSEKI","perfecture_jp":"新潟県","jp_add_1":"岩船郡関川村","jp_add_2":"下関"},"9593242":{"post_code":"9593242","prefecture":"NIIGATA KEN","city":"IWAFUNE GUN SEKIKAWA MURA","town":"SHIMOTSUCHIZAWA","perfecture_jp":"新潟県","jp_add_1":"岩船郡関川村","jp_add_2":"下土沢"},"9593204":{"post_code":"9593204","prefecture":"NIIGATA KEN","city":"IWAFUNE GUN SEKIKAWA MURA","town":"JABAMI","perfecture_jp":"新潟県","jp_add_1":"岩船郡関川村","jp_add_2":"蛇喰"},"9593273":{"post_code":"9593273","prefecture":"NIIGATA KEN","city":"IWAFUNE GUN SEKIKAWA MURA","town":"SHOZO","perfecture_jp":"新潟県","jp_add_1":"岩船郡関川村","jp_add_2":"勝蔵"},"9593232":{"post_code":"9593232","prefecture":"NIIGATA KEN","city":"IWAFUNE GUN SEKIKAWA MURA","town":"SODASHIMA","perfecture_jp":"新潟県","jp_add_1":"岩船郡関川村","jp_add_2":"蔵田島"},"9593263":{"post_code":"9593263","prefecture":"NIIGATA KEN","city":"IWAFUNE GUN SEKIKAWA MURA","town":"TAKASE","perfecture_jp":"新潟県","jp_add_1":"岩船郡関川村","jp_add_2":"高瀬"},"9593252":{"post_code":"9593252","prefecture":"NIIGATA KEN","city":"IWAFUNE GUN SEKIKAWA MURA","town":"TAKADA","perfecture_jp":"新潟県","jp_add_1":"岩船郡関川村","jp_add_2":"高田"},"9593258":{"post_code":"9593258","prefecture":"NIIGATA KEN","city":"IWAFUNE GUN SEKIKAWA MURA","town":"TAKIHARA","perfecture_jp":"新潟県","jp_add_1":"岩船郡関川村","jp_add_2":"滝原"},"9593271":{"post_code":"9593271","prefecture":"NIIGATA KEN","city":"IWAFUNE GUN SEKIKAWA MURA","town":"TATSUTASHIN","perfecture_jp":"新潟県","jp_add_1":"岩船郡関川村","jp_add_2":"辰田新"},"9593208":{"post_code":"9593208","prefecture":"NIIGATA KEN","city":"IWAFUNE GUN SEKIKAWA MURA","town":"TAMUGICHIGARI","perfecture_jp":"新潟県","jp_add_1":"岩船郡関川村","jp_add_2":"田麦千刈"},"9593206":{"post_code":"9593206","prefecture":"NIIGATA KEN","city":"IWAFUNE GUN SEKIKAWA MURA","town":"NAKAMARUKE","perfecture_jp":"新潟県","jp_add_1":"岩船郡関川村","jp_add_2":"中束"},"9593225":{"post_code":"9593225","prefecture":"NIIGATA KEN","city":"IWAFUNE GUN SEKIKAWA MURA","town":"NUMA","perfecture_jp":"新潟県","jp_add_1":"岩船郡関川村","jp_add_2":"沼"},"9593215":{"post_code":"9593215","prefecture":"NIIGATA KEN","city":"IWAFUNE GUN SEKIKAWA MURA","town":"FUKAZAWA","perfecture_jp":"新潟県","jp_add_1":"岩船郡関川村","jp_add_2":"深沢"},"9593253":{"post_code":"9593253","prefecture":"NIIGATA KEN","city":"IWAFUNE GUN SEKIKAWA MURA","town":"HEINAISHIN","perfecture_jp":"新潟県","jp_add_1":"岩船郡関川村","jp_add_2":"平内新"},"9593201":{"post_code":"9593201","prefecture":"NIIGATA KEN","city":"IWAFUNE GUN SEKIKAWA MURA","town":"HOSAKA","perfecture_jp":"新潟県","jp_add_1":"岩船郡関川村","jp_add_2":"朴坂"},"9593255":{"post_code":"9593255","prefecture":"NIIGATA KEN","city":"IWAFUNE GUN SEKIKAWA MURA","town":"MATSUGAOKA","perfecture_jp":"新潟県","jp_add_1":"岩船郡関川村","jp_add_2":"松ケ丘"},"9593259":{"post_code":"9593259","prefecture":"NIIGATA KEN","city":"IWAFUNE GUN SEKIKAWA MURA","town":"MATSUDAIRA","perfecture_jp":"新潟県","jp_add_1":"岩船郡関川村","jp_add_2":"松平"},"9593274":{"post_code":"9593274","prefecture":"NIIGATA KEN","city":"IWAFUNE GUN SEKIKAWA MURA","town":"MINAMIAKADANI","perfecture_jp":"新潟県","jp_add_1":"岩船郡関川村","jp_add_2":"南赤谷"},"9593203":{"post_code":"9593203","prefecture":"NIIGATA KEN","city":"IWAFUNE GUN SEKIKAWA MURA","town":"MINAMINAKA","perfecture_jp":"新潟県","jp_add_1":"岩船郡関川村","jp_add_2":"南中"},"9593202":{"post_code":"9593202","prefecture":"NIIGATA KEN","city":"IWAFUNE GUN SEKIKAWA MURA","town":"MIYANOMAE","perfecture_jp":"新潟県","jp_add_1":"岩船郡関川村","jp_add_2":"宮前"},"9593227":{"post_code":"9593227","prefecture":"NIIGATA KEN","city":"IWAFUNE GUN SEKIKAWA MURA","town":"YATSUKUCHI","perfecture_jp":"新潟県","jp_add_1":"岩船郡関川村","jp_add_2":"八ツ口"},"9593244":{"post_code":"9593244","prefecture":"NIIGATA KEN","city":"IWAFUNE GUN SEKIKAWA MURA","town":"YAMAMOTO","perfecture_jp":"新潟県","jp_add_1":"岩船郡関川村","jp_add_2":"山本"},"9593261":{"post_code":"9593261","prefecture":"NIIGATA KEN","city":"IWAFUNE GUN SEKIKAWA MURA","town":"YUSAWA","perfecture_jp":"新潟県","jp_add_1":"岩船郡関川村","jp_add_2":"湯沢"},"9593212":{"post_code":"9593212","prefecture":"NIIGATA KEN","city":"IWAFUNE GUN SEKIKAWA MURA","town":"WAKAYAMA","perfecture_jp":"新潟県","jp_add_1":"岩船郡関川村","jp_add_2":"若山"},"9593207":{"post_code":"9593207","prefecture":"NIIGATA KEN","city":"IWAFUNE GUN SEKIKAWA MURA","town":"WARABINO","perfecture_jp":"新潟県","jp_add_1":"岩船郡関川村","jp_add_2":"蕨野"}}