{"9610000":{"post_code":"9610000","prefecture":"FUKUSHIMA KEN","city":"NISHISHIRAKAWA GUN NISHIGO MURA","town":"IKANIKEISAIGANAIBAAI","perfecture_jp":"福島県","jp_add_1":"白河市","jp_add_2":""},"9610075":{"post_code":"9610075","prefecture":"FUKUSHIMA KEN","city":"SHIRAKAWA SHI","town":"AIZUMACHI","perfecture_jp":"福島県","jp_add_1":"白河市","jp_add_2":"会津町"},"9610901":{"post_code":"9610901","prefecture":"FUKUSHIMA KEN","city":"SHIRAKAWA SHI","town":"AKEDO","perfecture_jp":"福島県","jp_add_1":"白河市","jp_add_2":"明戸"},"9610912":{"post_code":"9610912","prefecture":"FUKUSHIMA KEN","city":"SHIRAKAWA SHI","town":"ASAHICHO","perfecture_jp":"福島県","jp_add_1":"白河市","jp_add_2":"旭町"},"9610942":{"post_code":"9610942","prefecture":"FUKUSHIMA KEN","city":"SHIRAKAWA SHI","town":"ATAGOMACHI","perfecture_jp":"福島県","jp_add_1":"白河市","jp_add_2":"愛宕町"},"9610082":{"post_code":"9610082","prefecture":"FUKUSHIMA KEN","city":"SHIRAKAWA SHI","town":"IIZAWA","perfecture_jp":"福島県","jp_add_1":"白河市","jp_add_2":"飯沢"},"9610081":{"post_code":"9610081","prefecture":"FUKUSHIMA KEN","city":"SHIRAKAWA SHI","town":"IIZAWAYAMA","perfecture_jp":"福島県","jp_add_1":"白河市","jp_add_2":"飯沢山"},"9610032":{"post_code":"9610032","prefecture":"FUKUSHIMA KEN","city":"SHIRAKAWA SHI","town":"IENOMAE","perfecture_jp":"福島県","jp_add_1":"白河市","jp_add_2":"家ノ前"},"9610827":{"post_code":"9610827","prefecture":"FUKUSHIMA KEN","city":"SHIRAKAWA SHI","town":"IKESHITA","perfecture_jp":"福島県","jp_add_1":"白河市","jp_add_2":"池下"},"9610826":{"post_code":"9610826","prefecture":"FUKUSHIMA KEN","city":"SHIRAKAWA SHI","town":"IKESHITAURA","perfecture_jp":"福島県","jp_add_1":"白河市","jp_add_2":"池下裏"},"9610825":{"post_code":"9610825","prefecture":"FUKUSHIMA KEN","city":"SHIRAKAWA SHI","town":"IKESHITAMUKAIYAMA","perfecture_jp":"福島県","jp_add_1":"白河市","jp_add_2":"池下向山"},"9610867":{"post_code":"9610867","prefecture":"FUKUSHIMA KEN","city":"SHIRAKAWA SHI","town":"ISHIKIRIBA","perfecture_jp":"福島県","jp_add_1":"白河市","jp_add_2":"石切場"},"9610003":{"post_code":"9610003","prefecture":"FUKUSHIMA KEN","city":"SHIRAKAWA SHI","town":"IZUMIDA","perfecture_jp":"福島県","jp_add_1":"白河市","jp_add_2":"泉田"},"9610016":{"post_code":"9610016","prefecture":"FUKUSHIMA KEN","city":"SHIRAKAWA SHI","town":"ITABASHI","perfecture_jp":"福島県","jp_add_1":"白河市","jp_add_2":"板橋"},"9610947":{"post_code":"9610947","prefecture":"FUKUSHIMA KEN","city":"SHIRAKAWA SHI","town":"ICHIBANCHO","perfecture_jp":"福島県","jp_add_1":"白河市","jp_add_2":"一番町"},"9610937":{"post_code":"9610937","prefecture":"FUKUSHIMA KEN","city":"SHIRAKAWA SHI","town":"UENODAI","perfecture_jp":"福島県","jp_add_1":"白河市","jp_add_2":"上ノ台"},"9610026":{"post_code":"9610026","prefecture":"FUKUSHIMA KEN","city":"SHIRAKAWA SHI","town":"UENOHARA","perfecture_jp":"福島県","jp_add_1":"白河市","jp_add_2":"上ノ原"},"9610039":{"post_code":"9610039","prefecture":"FUKUSHIMA KEN","city":"SHIRAKAWA SHI","town":"UENOHARA","perfecture_jp":"福島県","jp_add_1":"白河市","jp_add_2":"上野原"},"9610063":{"post_code":"9610063","prefecture":"FUKUSHIMA KEN","city":"SHIRAKAWA SHI","town":"USUBA","perfecture_jp":"福島県","jp_add_1":"白河市","jp_add_2":"薄葉"},"9610931":{"post_code":"9610931","prefecture":"FUKUSHIMA KEN","city":"SHIRAKAWA SHI","town":"UMAMACHI","perfecture_jp":"福島県","jp_add_1":"白河市","jp_add_2":"馬町"},"9610904":{"post_code":"9610904","prefecture":"FUKUSHIMA KEN","city":"SHIRAKAWA SHI","town":"UMAMACHI URA","perfecture_jp":"福島県","jp_add_1":"白河市","jp_add_2":"馬町裏"},"9610915":{"post_code":"9610915","prefecture":"FUKUSHIMA KEN","city":"SHIRAKAWA SHI","town":"UMAMACHI SHITA","perfecture_jp":"福島県","jp_add_1":"白河市","jp_add_2":"馬町下"},"9610036":{"post_code":"9610036","prefecture":"FUKUSHIMA KEN","city":"SHIRAKAWA SHI","town":"URAYAMA","perfecture_jp":"福島県","jp_add_1":"白河市","jp_add_2":"裏山"},"9610921":{"post_code":"9610921","prefecture":"FUKUSHIMA KEN","city":"SHIRAKAWA SHI","town":"EMMYOJI","perfecture_jp":"福島県","jp_add_1":"白河市","jp_add_2":"円明寺"},"9610831":{"post_code":"9610831","prefecture":"FUKUSHIMA KEN","city":"SHIRAKAWA SHI","town":"OIKUBO","perfecture_jp":"福島県","jp_add_1":"白河市","jp_add_2":"老久保"},"9610838":{"post_code":"9610838","prefecture":"FUKUSHIMA KEN","city":"SHIRAKAWA SHI","town":"OIKUBOYAMA","perfecture_jp":"福島県","jp_add_1":"白河市","jp_add_2":"老久保山"},"9610094":{"post_code":"9610094","prefecture":"FUKUSHIMA KEN","city":"SHIRAKAWA SHI","town":"OIMAWASHI","perfecture_jp":"福島県","jp_add_1":"白河市","jp_add_2":"追廻"},"9610846":{"post_code":"9610846","prefecture":"FUKUSHIMA KEN","city":"SHIRAKAWA SHI","town":"OKUREYAMIYAMA","perfecture_jp":"福島県","jp_add_1":"白河市","jp_add_2":"大暮矢見山"},"9610845":{"post_code":"9610845","prefecture":"FUKUSHIMA KEN","city":"SHIRAKAWA SHI","town":"OSAKAYAMA","perfecture_jp":"福島県","jp_add_1":"白河市","jp_add_2":"大坂山"},"9610908":{"post_code":"9610908","prefecture":"FUKUSHIMA KEN","city":"SHIRAKAWA SHI","town":"OTEMACHI","perfecture_jp":"福島県","jp_add_1":"白河市","jp_add_2":"大手町"},"9610002":{"post_code":"9610002","prefecture":"FUKUSHIMA KEN","city":"SHIRAKAWA SHI","town":"OWADA","perfecture_jp":"福島県","jp_add_1":"白河市","jp_add_2":"大和田"},"9610985":{"post_code":"9610985","prefecture":"FUKUSHIMA KEN","city":"SHIRAKAWA SHI","town":"OSHODAN","perfecture_jp":"福島県","jp_add_1":"白河市","jp_add_2":"和尚壇"},"9610984":{"post_code":"9610984","prefecture":"FUKUSHIMA KEN","city":"SHIRAKAWA SHI","town":"OSHODANYAMA","perfecture_jp":"福島県","jp_add_1":"白河市","jp_add_2":"和尚壇山"},"9610885":{"post_code":"9610885","prefecture":"FUKUSHIMA KEN","city":"SHIRAKAWA SHI","town":"ONIGOE","perfecture_jp":"福島県","jp_add_1":"白河市","jp_add_2":"鬼越"},"9610884":{"post_code":"9610884","prefecture":"FUKUSHIMA KEN","city":"SHIRAKAWA SHI","town":"ONIGOEMICHISHITA","perfecture_jp":"福島県","jp_add_1":"白河市","jp_add_2":"鬼越道下"},"9610887":{"post_code":"9610887","prefecture":"FUKUSHIMA KEN","city":"SHIRAKAWA SHI","town":"ONIGOEYAMA","perfecture_jp":"福島県","jp_add_1":"白河市","jp_add_2":"鬼越山"},"9610409":{"post_code":"9610409","prefecture":"FUKUSHIMA KEN","city":"SHIRAKAWA SHI","town":"OMOTEGO KATODA","perfecture_jp":"福島県","jp_add_1":"白河市","jp_add_2":"表郷河東田"},"9610416":{"post_code":"9610416","prefecture":"FUKUSHIMA KEN","city":"SHIRAKAWA SHI","town":"OMOTEGO KANEYAMA","perfecture_jp":"福島県","jp_add_1":"白河市","jp_add_2":"表郷金山"},"9610405":{"post_code":"9610405","prefecture":"FUKUSHIMA KEN","city":"SHIRAKAWA SHI","town":"OMOTEGO KOMATSU","perfecture_jp":"福島県","jp_add_1":"白河市","jp_add_2":"表郷小松"},"9610412":{"post_code":"9610412","prefecture":"FUKUSHIMA KEN","city":"SHIRAKAWA SHI","town":"OMOTEGO SHIMOHABARA","perfecture_jp":"福島県","jp_add_1":"白河市","jp_add_2":"表郷下羽原"},"9610414":{"post_code":"9610414","prefecture":"FUKUSHIMA KEN","city":"SHIRAKAWA SHI","town":"OMOTEGO TAKAGI","perfecture_jp":"福島県","jp_add_1":"白河市","jp_add_2":"表郷高木"},"9610402":{"post_code":"9610402","prefecture":"FUKUSHIMA KEN","city":"SHIRAKAWA SHI","town":"OMOTEGO NAIMATSU","perfecture_jp":"福島県","jp_add_1":"白河市","jp_add_2":"表郷内松"},"9610407":{"post_code":"9610407","prefecture":"FUKUSHIMA KEN","city":"SHIRAKAWA SHI","town":"OMOTEGO NAKADERA","perfecture_jp":"福島県","jp_add_1":"白河市","jp_add_2":"表郷中寺"},"9610401":{"post_code":"9610401","prefecture":"FUKUSHIMA KEN","city":"SHIRAKAWA SHI","town":"OMOTEGO NAKANO","perfecture_jp":"福島県","jp_add_1":"白河市","jp_add_2":"表郷中野"},"9610403":{"post_code":"9610403","prefecture":"FUKUSHIMA KEN","city":"SHIRAKAWA SHI","town":"OMOTEGO BANZAWA","perfecture_jp":"福島県","jp_add_1":"白河市","jp_add_2":"表郷番沢"},"9610411":{"post_code":"9610411","prefecture":"FUKUSHIMA KEN","city":"SHIRAKAWA SHI","town":"OMOTEGO FUKAADO","perfecture_jp":"福島県","jp_add_1":"白河市","jp_add_2":"表郷深渡戸"},"9610408":{"post_code":"9610408","prefecture":"FUKUSHIMA KEN","city":"SHIRAKAWA SHI","town":"OMOTEGO HORINOCHI","perfecture_jp":"福島県","jp_add_1":"白河市","jp_add_2":"表郷堀之内"},"9610413":{"post_code":"9610413","prefecture":"FUKUSHIMA KEN","city":"SHIRAKAWA SHI","town":"OMOTEGO MIMORI","perfecture_jp":"福島県","jp_add_1":"白河市","jp_add_2":"表郷三森"},"9610404":{"post_code":"9610404","prefecture":"FUKUSHIMA KEN","city":"SHIRAKAWA SHI","town":"OMOTEGO YASHIRODA","perfecture_jp":"福島県","jp_add_1":"白河市","jp_add_2":"表郷社田"},"9610415":{"post_code":"9610415","prefecture":"FUKUSHIMA KEN","city":"SHIRAKAWA SHI","town":"OMOTEGO YANAMORI","perfecture_jp":"福島県","jp_add_1":"白河市","jp_add_2":"表郷梁森"},"9610406":{"post_code":"9610406","prefecture":"FUKUSHIMA KEN","city":"SHIRAKAWA SHI","town":"OMOTEGO YAWATA","perfecture_jp":"福島県","jp_add_1":"白河市","jp_add_2":"表郷八幡"},"9610064":{"post_code":"9610064","prefecture":"FUKUSHIMA KEN","city":"SHIRAKAWA SHI","town":"ONNAISHI","perfecture_jp":"福島県","jp_add_1":"白河市","jp_add_2":"女石"},"9610074":{"post_code":"9610074","prefecture":"FUKUSHIMA KEN","city":"SHIRAKAWA SHI","town":"KAKUNAI","perfecture_jp":"福島県","jp_add_1":"白河市","jp_add_2":"郭内"},"9610886":{"post_code":"9610886","prefecture":"FUKUSHIMA KEN","city":"SHIRAKAWA SHI","town":"KAGEONIGOE","perfecture_jp":"福島県","jp_add_1":"白河市","jp_add_2":"影鬼越"},"9610913":{"post_code":"9610913","prefecture":"FUKUSHIMA KEN","city":"SHIRAKAWA SHI","town":"KAJIMACHI","perfecture_jp":"福島県","jp_add_1":"白河市","jp_add_2":"鍛冶町"},"9610943":{"post_code":"9610943","prefecture":"FUKUSHIMA KEN","city":"SHIRAKAWA SHI","town":"KANAYAMACHI","perfecture_jp":"福島県","jp_add_1":"白河市","jp_add_2":"金屋町"},"9610023":{"post_code":"9610023","prefecture":"FUKUSHIMA KEN","city":"SHIRAKAWA SHI","town":"KAMEISHI","perfecture_jp":"福島県","jp_add_1":"白河市","jp_add_2":"亀石"},"9610004":{"post_code":"9610004","prefecture":"FUKUSHIMA KEN","city":"SHIRAKAWA SHI","town":"KAYANE","perfecture_jp":"福島県","jp_add_1":"白河市","jp_add_2":"萱根"},"9610014":{"post_code":"9610014","prefecture":"FUKUSHIMA KEN","city":"SHIRAKAWA SHI","town":"KARIYADO","perfecture_jp":"福島県","jp_add_1":"白河市","jp_add_2":"借宿"},"9610956":{"post_code":"9610956","prefecture":"FUKUSHIMA KEN","city":"SHIRAKAWA SHI","town":"KANJOMACHI","perfecture_jp":"福島県","jp_add_1":"白河市","jp_add_2":"勘定町"},"9610802":{"post_code":"9610802","prefecture":"FUKUSHIMA KEN","city":"SHIRAKAWA SHI","town":"KANSENKUBO","perfecture_jp":"福島県","jp_add_1":"白河市","jp_add_2":"関川窪"},"9610821":{"post_code":"9610821","prefecture":"FUKUSHIMA KEN","city":"SHIRAKAWA SHI","town":"KITAURA","perfecture_jp":"福島県","jp_add_1":"白河市","jp_add_2":"北裏"},"9610054":{"post_code":"9610054","prefecture":"FUKUSHIMA KEN","city":"SHIRAKAWA SHI","town":"KITANAKAGAWARA","perfecture_jp":"福島県","jp_add_1":"白河市","jp_add_2":"北中川原"},"9610973":{"post_code":"9610973","prefecture":"FUKUSHIMA KEN","city":"SHIRAKAWA SHI","town":"KITANOBORIMACHI","perfecture_jp":"福島県","jp_add_1":"白河市","jp_add_2":"北登リ町"},"9610996":{"post_code":"9610996","prefecture":"FUKUSHIMA KEN","city":"SHIRAKAWA SHI","town":"KITAHORIKAWABATA","perfecture_jp":"福島県","jp_add_1":"白河市","jp_add_2":"北堀川端"},"9610974":{"post_code":"9610974","prefecture":"FUKUSHIMA KEN","city":"SHIRAKAWA SHI","town":"KITAHORIKIRI","perfecture_jp":"福島県","jp_add_1":"白河市","jp_add_2":"北堀切"},"9610981":{"post_code":"9610981","prefecture":"FUKUSHIMA KEN","city":"SHIRAKAWA SHI","town":"KITAMABUNE","perfecture_jp":"福島県","jp_add_1":"白河市","jp_add_2":"北真舟"},"9610083":{"post_code":"9610083","prefecture":"FUKUSHIMA KEN","city":"SHIRAKAWA SHI","town":"KINSHOJI","perfecture_jp":"福島県","jp_add_1":"白河市","jp_add_2":"金勝寺"},"9610084":{"post_code":"9610084","prefecture":"FUKUSHIMA KEN","city":"SHIRAKAWA SHI","town":"KINSHOJIHIGASHI","perfecture_jp":"福島県","jp_add_1":"白河市","jp_add_2":"金勝寺東"},"9610042":{"post_code":"9610042","prefecture":"FUKUSHIMA KEN","city":"SHIRAKAWA SHI","town":"KINREI","perfecture_jp":"福島県","jp_add_1":"白河市","jp_add_2":"金鈴"},"9610011":{"post_code":"9610011","prefecture":"FUKUSHIMA KEN","city":"SHIRAKAWA SHI","town":"KUTANO","perfecture_jp":"福島県","jp_add_1":"白河市","jp_add_2":"久田野"},"9610875":{"post_code":"9610875","prefecture":"FUKUSHIMA KEN","city":"SHIRAKAWA SHI","town":"KUBANCHO","perfecture_jp":"福島県","jp_add_1":"白河市","jp_add_2":"九番町"},"9610874":{"post_code":"9610874","prefecture":"FUKUSHIMA KEN","city":"SHIRAKAWA SHI","town":"KUBANCHONISHIURA","perfecture_jp":"福島県","jp_add_1":"白河市","jp_add_2":"九番町西裏"},"9610017":{"post_code":"9610017","prefecture":"FUKUSHIMA KEN","city":"SHIRAKAWA SHI","town":"KURABEISHI","perfecture_jp":"福島県","jp_add_1":"白河市","jp_add_2":"双石"},"9610045":{"post_code":"9610045","prefecture":"FUKUSHIMA KEN","city":"SHIRAKAWA SHI","town":"KOSENZAKA","perfecture_jp":"福島県","jp_add_1":"白河市","jp_add_2":"合戦坂"},"9610001":{"post_code":"9610001","prefecture":"FUKUSHIMA KEN","city":"SHIRAKAWA SHI","town":"KOTAGAWA","perfecture_jp":"福島県","jp_add_1":"白河市","jp_add_2":"小田川"},"9610852":{"post_code":"9610852","prefecture":"FUKUSHIMA KEN","city":"SHIRAKAWA SHI","town":"KOROBIZAKA","perfecture_jp":"福島県","jp_add_1":"白河市","jp_add_2":"転坂"},"9610076":{"post_code":"9610076","prefecture":"FUKUSHIMA KEN","city":"SHIRAKAWA SHI","town":"GOBANCHOGAWARA","perfecture_jp":"福島県","jp_add_1":"白河市","jp_add_2":"五番町川原"},"9610815":{"post_code":"9610815","prefecture":"FUKUSHIMA KEN","city":"SHIRAKAWA SHI","town":"GOROKUBO","perfecture_jp":"福島県","jp_add_1":"白河市","jp_add_2":"五郎窪"},"9610965":{"post_code":"9610965","prefecture":"FUKUSHIMA KEN","city":"SHIRAKAWA SHI","town":"SAIKUMACHI","perfecture_jp":"福島県","jp_add_1":"白河市","jp_add_2":"細工町"},"9610944":{"post_code":"9610944","prefecture":"FUKUSHIMA KEN","city":"SHIRAKAWA SHI","town":"SAIRYOMACHI","perfecture_jp":"福島県","jp_add_1":"白河市","jp_add_2":"宰領町"},"9610803":{"post_code":"9610803","prefecture":"FUKUSHIMA KEN","city":"SHIRAKAWA SHI","town":"SAKAEMACHI","perfecture_jp":"福島県","jp_add_1":"白河市","jp_add_2":"栄町"},"9610911":{"post_code":"9610911","prefecture":"FUKUSHIMA KEN","city":"SHIRAKAWA SHI","town":"SAKURAMACHI","perfecture_jp":"福島県","jp_add_1":"白河市","jp_add_2":"桜町"},"9610862":{"post_code":"9610862","prefecture":"FUKUSHIMA KEN","city":"SHIRAKAWA SHI","town":"SAMBANCHO","perfecture_jp":"福島県","jp_add_1":"白河市","jp_add_2":"三番町"},"9610872":{"post_code":"9610872","prefecture":"FUKUSHIMA KEN","city":"SHIRAKAWA SHI","town":"SAMBOMMATSU","perfecture_jp":"福島県","jp_add_1":"白河市","jp_add_2":"三本松"},"9610814":{"post_code":"9610814","prefecture":"FUKUSHIMA KEN","city":"SHIRAKAWA SHI","town":"SAMBOMMATSUYAMA","perfecture_jp":"福島県","jp_add_1":"白河市","jp_add_2":"三本松山"},"9610986":{"post_code":"9610986","prefecture":"FUKUSHIMA KEN","city":"SHIRAKAWA SHI","town":"SHIOJIYAMA","perfecture_jp":"福島県","jp_add_1":"白河市","jp_add_2":"塩路山"},"9610072":{"post_code":"9610072","prefecture":"FUKUSHIMA KEN","city":"SHIRAKAWA SHI","town":"SHITAMACHI","perfecture_jp":"福島県","jp_add_1":"白河市","jp_add_2":"士多町"},"9610071":{"post_code":"9610071","prefecture":"FUKUSHIMA KEN","city":"SHIRAKAWA SHI","town":"SHITAMACHIHIGASHI","perfecture_jp":"福島県","jp_add_1":"白河市","jp_add_2":"士多町東"},"9610863":{"post_code":"9610863","prefecture":"FUKUSHIMA KEN","city":"SHIRAKAWA SHI","town":"SHICHIBANCHO","perfecture_jp":"福島県","jp_add_1":"白河市","jp_add_2":"七番町"},"9610888":{"post_code":"9610888","prefecture":"FUKUSHIMA KEN","city":"SHIRAKAWA SHI","town":"JUSAMPARA","perfecture_jp":"福島県","jp_add_1":"白河市","jp_add_2":"十三原"},"9610829":{"post_code":"9610829","prefecture":"FUKUSHIMA KEN","city":"SHIRAKAWA SHI","town":"JUSAMPARAMICHIUE","perfecture_jp":"福島県","jp_add_1":"白河市","jp_add_2":"十三原道上"},"9610828":{"post_code":"9610828","prefecture":"FUKUSHIMA KEN","city":"SHIRAKAWA SHI","town":"JUSAMPARAMICHISHITA","perfecture_jp":"福島県","jp_add_1":"白河市","jp_add_2":"十三原道下"},"9610027":{"post_code":"9610027","prefecture":"FUKUSHIMA KEN","city":"SHIRAKAWA SHI","town":"JUMONJI","perfecture_jp":"福島県","jp_add_1":"白河市","jp_add_2":"十文字"},"9610922":{"post_code":"9610922","prefecture":"FUKUSHIMA KEN","city":"SHIRAKAWA SHI","town":"SHOBUZAWA","perfecture_jp":"福島県","jp_add_1":"白河市","jp_add_2":"菖蒲沢"},"9610971":{"post_code":"9610971","prefecture":"FUKUSHIMA KEN","city":"SHIRAKAWA SHI","town":"SHOWAMACHI","perfecture_jp":"福島県","jp_add_1":"白河市","jp_add_2":"昭和町"},"9610924":{"post_code":"9610924","prefecture":"FUKUSHIMA KEN","city":"SHIRAKAWA SHI","town":"SHIRAIGAKE","perfecture_jp":"福島県","jp_add_1":"白河市","jp_add_2":"白井掛"},"9610923":{"post_code":"9610923","prefecture":"FUKUSHIMA KEN","city":"SHIRAKAWA SHI","town":"SHIRAIGAKESHITA","perfecture_jp":"福島県","jp_add_1":"白河市","jp_add_2":"白井掛下"},"9610835":{"post_code":"9610835","prefecture":"FUKUSHIMA KEN","city":"SHIRAKAWA SHI","town":"SHIRASAKA","perfecture_jp":"福島県","jp_add_1":"白河市","jp_add_2":"白坂"},"9610842":{"post_code":"9610842","prefecture":"FUKUSHIMA KEN","city":"SHIRAKAWA SHI","town":"SHINIKE","perfecture_jp":"福島県","jp_add_1":"白河市","jp_add_2":"新池"},"9610933":{"post_code":"9610933","prefecture":"FUKUSHIMA KEN","city":"SHIRAKAWA SHI","town":"SHINKURAMACHI","perfecture_jp":"福島県","jp_add_1":"白河市","jp_add_2":"新蔵町"},"9610856":{"post_code":"9610856","prefecture":"FUKUSHIMA KEN","city":"SHIRAKAWA SHI","town":"SHINSHIRAKAWA","perfecture_jp":"福島県","jp_add_1":"白河市","jp_add_2":"新白河"},"9610853":{"post_code":"9610853","prefecture":"FUKUSHIMA KEN","city":"SHIRAKAWA SHI","town":"SHINTAKAYAMA","perfecture_jp":"福島県","jp_add_1":"白河市","jp_add_2":"新高山"},"9610024":{"post_code":"9610024","prefecture":"FUKUSHIMA KEN","city":"SHIRAKAWA SHI","town":"SHINNATSUNASHI","perfecture_jp":"福島県","jp_add_1":"白河市","jp_add_2":"新夏梨"},"9610037":{"post_code":"9610037","prefecture":"FUKUSHIMA KEN","city":"SHIRAKAWA SHI","town":"SHIMMICHI","perfecture_jp":"福島県","jp_add_1":"白河市","jp_add_2":"新道"},"9610811":{"post_code":"9610811","prefecture":"FUKUSHIMA KEN","city":"SHIRAKAWA SHI","town":"SUGODATE","perfecture_jp":"福島県","jp_add_1":"白河市","jp_add_2":"菅生舘"},"9610021":{"post_code":"9610021","prefecture":"FUKUSHIMA KEN","city":"SHIRAKAWA SHI","town":"SEKIBE","perfecture_jp":"福島県","jp_add_1":"白河市","jp_add_2":"関辺"},"9610822":{"post_code":"9610822","prefecture":"FUKUSHIMA KEN","city":"SHIRAKAWA SHI","town":"SETOHARA","perfecture_jp":"福島県","jp_add_1":"白河市","jp_add_2":"瀬戸原"},"9610916":{"post_code":"9610916","prefecture":"FUKUSHIMA KEN","city":"SHIRAKAWA SHI","town":"SOKUZEMMACHI","perfecture_jp":"福島県","jp_add_1":"白河市","jp_add_2":"束前町"},"9610062":{"post_code":"9610062","prefecture":"FUKUSHIMA KEN","city":"SHIRAKAWA SHI","town":"SOTOSUBA","perfecture_jp":"福島県","jp_add_1":"白河市","jp_add_2":"外薄葉"},"9610051":{"post_code":"9610051","prefecture":"FUKUSHIMA KEN","city":"SHIRAKAWA SHI","town":"DAI","perfecture_jp":"福島県","jp_add_1":"白河市","jp_add_2":"大"},"9610936":{"post_code":"9610936","prefecture":"FUKUSHIMA KEN","city":"SHIRAKAWA SHI","town":"DAIKUMACHI","perfecture_jp":"福島県","jp_add_1":"白河市","jp_add_2":"大工町"},"9618002":{"post_code":"9618002","prefecture":"FUKUSHIMA KEN","city":"SHIRAKAWA SHI","town":"TAISHIN KUMADO (KITAKOGAYA)","perfecture_jp":"福島県","jp_add_1":"白河市","jp_add_2":"大信隈戸"},"9610953":{"post_code":"9610953","prefecture":"FUKUSHIMA KEN","city":"SHIRAKAWA SHI","town":"TAKAJOMACHI","perfecture_jp":"福島県","jp_add_1":"白河市","jp_add_2":"鷹匠町"},"9610854":{"post_code":"9610854","prefecture":"FUKUSHIMA KEN","city":"SHIRAKAWA SHI","town":"TAKAYAMA","perfecture_jp":"福島県","jp_add_1":"白河市","jp_add_2":"高山"},"9610855":{"post_code":"9610855","prefecture":"FUKUSHIMA KEN","city":"SHIRAKAWA SHI","town":"TAKAYAMANISHI","perfecture_jp":"福島県","jp_add_1":"白河市","jp_add_2":"高山西"},"9610015":{"post_code":"9610015","prefecture":"FUKUSHIMA KEN","city":"SHIRAKAWA SHI","town":"TAJIMA","perfecture_jp":"福島県","jp_add_1":"白河市","jp_add_2":"田島"},"9610972":{"post_code":"9610972","prefecture":"FUKUSHIMA KEN","city":"SHIRAKAWA SHI","town":"TATEISHI","perfecture_jp":"福島県","jp_add_1":"白河市","jp_add_2":"立石"},"9610975":{"post_code":"9610975","prefecture":"FUKUSHIMA KEN","city":"SHIRAKAWA SHI","town":"TATEISHIYAMA","perfecture_jp":"福島県","jp_add_1":"白河市","jp_add_2":"立石山"},"9610061":{"post_code":"9610061","prefecture":"FUKUSHIMA KEN","city":"SHIRAKAWA SHI","town":"TANAKAYAMA","perfecture_jp":"福島県","jp_add_1":"白河市","jp_add_2":"田中山"},"9610073":{"post_code":"9610073","prefecture":"FUKUSHIMA KEN","city":"SHIRAKAWA SHI","town":"TAMACHI","perfecture_jp":"福島県","jp_add_1":"白河市","jp_add_2":"田町"},"9610866":{"post_code":"9610866","prefecture":"FUKUSHIMA KEN","city":"SHIRAKAWA SHI","town":"TSURUSHIBA","perfecture_jp":"福島県","jp_add_1":"白河市","jp_add_2":"鶴芝"},"9610087":{"post_code":"9610087","prefecture":"FUKUSHIMA KEN","city":"SHIRAKAWA SHI","town":"TSURUMAKI","perfecture_jp":"福島県","jp_add_1":"白河市","jp_add_2":"鶴巻"},"9610086":{"post_code":"9610086","prefecture":"FUKUSHIMA KEN","city":"SHIRAKAWA SHI","town":"TSURUMAKIYAMA","perfecture_jp":"福島県","jp_add_1":"白河市","jp_add_2":"鶴巻山"},"9610935":{"post_code":"9610935","prefecture":"FUKUSHIMA KEN","city":"SHIRAKAWA SHI","town":"TEDAIMACHI","perfecture_jp":"福島県","jp_add_1":"白河市","jp_add_2":"手代町"},"9610914":{"post_code":"9610914","prefecture":"FUKUSHIMA KEN","city":"SHIRAKAWA SHI","town":"TERAKOJI","perfecture_jp":"福島県","jp_add_1":"白河市","jp_add_2":"寺小路"},"9610954":{"post_code":"9610954","prefecture":"FUKUSHIMA KEN","city":"SHIRAKAWA SHI","town":"TENJIMMACHI","perfecture_jp":"福島県","jp_add_1":"白河市","jp_add_2":"天神町"},"9610957":{"post_code":"9610957","prefecture":"FUKUSHIMA KEN","city":"SHIRAKAWA SHI","town":"DOJOKOJI","perfecture_jp":"福島県","jp_add_1":"白河市","jp_add_2":"道場小路"},"9610955":{"post_code":"9610955","prefecture":"FUKUSHIMA KEN","city":"SHIRAKAWA SHI","town":"DOJOMACHI","perfecture_jp":"福島県","jp_add_1":"白河市","jp_add_2":"道場町"},"9610817":{"post_code":"9610817","prefecture":"FUKUSHIMA KEN","city":"SHIRAKAWA SHI","town":"TOBUZUKA","perfecture_jp":"福島県","jp_add_1":"白河市","jp_add_2":"東武塚"},"9610046":{"post_code":"9610046","prefecture":"FUKUSHIMA KEN","city":"SHIRAKAWA SHI","town":"DOBUZUKA","perfecture_jp":"福島県","jp_add_1":"白河市","jp_add_2":"土武塚"},"9610005":{"post_code":"9610005","prefecture":"FUKUSHIMA KEN","city":"SHIRAKAWA SHI","town":"TOYOCHI","perfecture_jp":"福島県","jp_add_1":"白河市","jp_add_2":"豊地"},"9610823":{"post_code":"9610823","prefecture":"FUKUSHIMA KEN","city":"SHIRAKAWA SHI","town":"NAKAJIMA","perfecture_jp":"福島県","jp_add_1":"白河市","jp_add_2":"中島"},"9610053":{"post_code":"9610053","prefecture":"FUKUSHIMA KEN","city":"SHIRAKAWA SHI","town":"NAKADA","perfecture_jp":"福島県","jp_add_1":"白河市","jp_add_2":"中田"},"9610844":{"post_code":"9610844","prefecture":"FUKUSHIMA KEN","city":"SHIRAKAWA SHI","town":"NAKANOYAMA","perfecture_jp":"福島県","jp_add_1":"白河市","jp_add_2":"中野山"},"9610951":{"post_code":"9610951","prefecture":"FUKUSHIMA KEN","city":"SHIRAKAWA SHI","town":"NAKAMACHI","perfecture_jp":"福島県","jp_add_1":"白河市","jp_add_2":"中町"},"9610952":{"post_code":"9610952","prefecture":"FUKUSHIMA KEN","city":"SHIRAKAWA SHI","town":"NAKAMACHIKITAURA","perfecture_jp":"福島県","jp_add_1":"白河市","jp_add_2":"中町北裏"},"9610995":{"post_code":"9610995","prefecture":"FUKUSHIMA KEN","city":"SHIRAKAWA SHI","town":"NAKAYAMA","perfecture_jp":"福島県","jp_add_1":"白河市","jp_add_2":"中山"},"9610994":{"post_code":"9610994","prefecture":"FUKUSHIMA KEN","city":"SHIRAKAWA SHI","town":"NAKAYAMA SHITA","perfecture_jp":"福島県","jp_add_1":"白河市","jp_add_2":"中山下"},"9610991":{"post_code":"9610991","prefecture":"FUKUSHIMA KEN","city":"SHIRAKAWA SHI","town":"NAKAYAMA HIGASHI","perfecture_jp":"福島県","jp_add_1":"白河市","jp_add_2":"中山東"},"9610993":{"post_code":"9610993","prefecture":"FUKUSHIMA KEN","city":"SHIRAKAWA SHI","town":"NAKAYAMA MINAMI","perfecture_jp":"福島県","jp_add_1":"白河市","jp_add_2":"中山南"},"9610025":{"post_code":"9610025","prefecture":"FUKUSHIMA KEN","city":"SHIRAKAWA SHI","town":"NATSUNASHI","perfecture_jp":"福島県","jp_add_1":"白河市","jp_add_2":"夏梨"},"9610812":{"post_code":"9610812","prefecture":"FUKUSHIMA KEN","city":"SHIRAKAWA SHI","town":"NANKO","perfecture_jp":"福島県","jp_add_1":"白河市","jp_add_2":"南湖"},"9610077":{"post_code":"9610077","prefecture":"FUKUSHIMA KEN","city":"SHIRAKAWA SHI","town":"NIIMACHI","perfecture_jp":"福島県","jp_add_1":"白河市","jp_add_2":"仁井町"},"9610816":{"post_code":"9610816","prefecture":"FUKUSHIMA KEN","city":"SHIRAKAWA SHI","town":"NISHIONUMA","perfecture_jp":"福島県","jp_add_1":"白河市","jp_add_2":"西大沼"},"9610832":{"post_code":"9610832","prefecture":"FUKUSHIMA KEN","city":"SHIRAKAWA SHI","town":"NISHIKOMARUYAMA","perfecture_jp":"福島県","jp_add_1":"白河市","jp_add_2":"西小丸山"},"9610834":{"post_code":"9610834","prefecture":"FUKUSHIMA KEN","city":"SHIRAKAWA SHI","town":"NISHIMISAKA","perfecture_jp":"福島県","jp_add_1":"白河市","jp_add_2":"西三坂"},"9610837":{"post_code":"9610837","prefecture":"FUKUSHIMA KEN","city":"SHIRAKAWA SHI","town":"NISHIMISAKAYAMA","perfecture_jp":"福島県","jp_add_1":"白河市","jp_add_2":"西三坂山"},"9610946":{"post_code":"9610946","prefecture":"FUKUSHIMA KEN","city":"SHIRAKAWA SHI","town":"NIBANCHO","perfecture_jp":"福島県","jp_add_1":"白河市","jp_add_2":"二番町"},"9610903":{"post_code":"9610903","prefecture":"FUKUSHIMA KEN","city":"SHIRAKAWA SHI","town":"NENGUMACHI","perfecture_jp":"福島県","jp_add_1":"白河市","jp_add_2":"年貢町"},"9610962":{"post_code":"9610962","prefecture":"FUKUSHIMA KEN","city":"SHIRAKAWA SHI","town":"NOBORIMACHI","perfecture_jp":"福島県","jp_add_1":"白河市","jp_add_2":"登リ町"},"9610038":{"post_code":"9610038","prefecture":"FUKUSHIMA KEN","city":"SHIRAKAWA SHI","town":"HATAJUKU","perfecture_jp":"福島県","jp_add_1":"白河市","jp_add_2":"旗宿"},"9610941":{"post_code":"9610941","prefecture":"FUKUSHIMA KEN","city":"SHIRAKAWA SHI","town":"HACHIMANKOJI","perfecture_jp":"福島県","jp_add_1":"白河市","jp_add_2":"八幡小路"},"9610033":{"post_code":"9610033","prefecture":"FUKUSHIMA KEN","city":"SHIRAKAWA SHI","town":"HACHIMANYAMA","perfecture_jp":"福島県","jp_add_1":"白河市","jp_add_2":"八幡山"},"9610047":{"post_code":"9610047","prefecture":"FUKUSHIMA KEN","city":"SHIRAKAWA SHI","town":"HACHIRYUJIN","perfecture_jp":"福島県","jp_add_1":"白河市","jp_add_2":"八竜神"},"9610865":{"post_code":"9610865","prefecture":"FUKUSHIMA KEN","city":"SHIRAKAWA SHI","town":"HANAMIZAKA","perfecture_jp":"福島県","jp_add_1":"白河市","jp_add_2":"花見坂"},"9610093":{"post_code":"9610093","prefecture":"FUKUSHIMA KEN","city":"SHIRAKAWA SHI","town":"HANOKIDAIRA","perfecture_jp":"福島県","jp_add_1":"白河市","jp_add_2":"葉ノ木平"},"9610902":{"post_code":"9610902","prefecture":"FUKUSHIMA KEN","city":"SHIRAKAWA SHI","town":"BANSHIKOJI","perfecture_jp":"福島県","jp_add_1":"白河市","jp_add_2":"番士小路"},"9610963":{"post_code":"9610963","prefecture":"FUKUSHIMA KEN","city":"SHIRAKAWA SHI","town":"HIKAGE","perfecture_jp":"福島県","jp_add_1":"白河市","jp_add_2":"日影"},"9610306":{"post_code":"9610306","prefecture":"FUKUSHIMA KEN","city":"SHIRAKAWA SHI","town":"HIGASHI KATAMI","perfecture_jp":"福島県","jp_add_1":"白河市","jp_add_2":"東形見"},"9610308":{"post_code":"9610308","prefecture":"FUKUSHIMA KEN","city":"SHIRAKAWA SHI","town":"HIGASHI KABUCHI","perfecture_jp":"福島県","jp_add_1":"白河市","jp_add_2":"東蕪内"},"9610303":{"post_code":"9610303","prefecture":"FUKUSHIMA KEN","city":"SHIRAKAWA SHI","town":"HIGASHI KAMAKO","perfecture_jp":"福島県","jp_add_1":"白河市","jp_add_2":"東釜子"},"9610302":{"post_code":"9610302","prefecture":"FUKUSHIMA KEN","city":"SHIRAKAWA SHI","town":"HIGASHI KAMINODEJIMA","perfecture_jp":"福島県","jp_add_1":"白河市","jp_add_2":"東上野出島"},"9610304":{"post_code":"9610304","prefecture":"FUKUSHIMA KEN","city":"SHIRAKAWA SHI","town":"HIGASHI KOGYODANCHI","perfecture_jp":"福島県","jp_add_1":"白河市","jp_add_2":"東工業団地"},"9610301":{"post_code":"9610301","prefecture":"FUKUSHIMA KEN","city":"SHIRAKAWA SHI","town":"HIGASHI SHIMONODEJIMA","perfecture_jp":"福島県","jp_add_1":"白河市","jp_add_2":"東下野出島"},"9610305":{"post_code":"9610305","prefecture":"FUKUSHIMA KEN","city":"SHIRAKAWA SHI","town":"HIGASHI SENDA","perfecture_jp":"福島県","jp_add_1":"白河市","jp_add_2":"東千田"},"9610307":{"post_code":"9610307","prefecture":"FUKUSHIMA KEN","city":"SHIRAKAWA SHI","town":"HIGASHI TOCHIMOTO","perfecture_jp":"福島県","jp_add_1":"白河市","jp_add_2":"東栃本"},"9610309":{"post_code":"9610309","prefecture":"FUKUSHIMA KEN","city":"SHIRAKAWA SHI","town":"HIGASHI FUKANIIDA","perfecture_jp":"福島県","jp_add_1":"白河市","jp_add_2":"東深仁井田"},"9610813":{"post_code":"9610813","prefecture":"FUKUSHIMA KEN","city":"SHIRAKAWA SHI","town":"HIGASHIONUMA","perfecture_jp":"福島県","jp_add_1":"白河市","jp_add_2":"東大沼"},"9610883":{"post_code":"9610883","prefecture":"FUKUSHIMA KEN","city":"SHIRAKAWA SHI","town":"HIGASHIKOMARUYAMA","perfecture_jp":"福島県","jp_add_1":"白河市","jp_add_2":"東小丸山"},"9610833":{"post_code":"9610833","prefecture":"FUKUSHIMA KEN","city":"SHIRAKAWA SHI","town":"HIGASHIMISAKAYAMA","perfecture_jp":"福島県","jp_add_1":"白河市","jp_add_2":"東三坂山"},"9610964":{"post_code":"9610964","prefecture":"FUKUSHIMA KEN","city":"SHIRAKAWA SHI","town":"HINATA","perfecture_jp":"福島県","jp_add_1":"白河市","jp_add_2":"日向"},"9610861":{"post_code":"9610861","prefecture":"FUKUSHIMA KEN","city":"SHIRAKAWA SHI","town":"FUJINSHITA","perfecture_jp":"福島県","jp_add_1":"白河市","jp_add_2":"風神下"},"9610864":{"post_code":"9610864","prefecture":"FUKUSHIMA KEN","city":"SHIRAKAWA SHI","town":"FUJINYAMAHIGASHI","perfecture_jp":"福島県","jp_add_1":"白河市","jp_add_2":"風神山東"},"9610934":{"post_code":"9610934","prefecture":"FUKUSHIMA KEN","city":"SHIRAKAWA SHI","town":"FUKUROMACHI","perfecture_jp":"福島県","jp_add_1":"白河市","jp_add_2":"袋町"},"9610043":{"post_code":"9610043","prefecture":"FUKUSHIMA KEN","city":"SHIRAKAWA SHI","town":"FUJISAWA","perfecture_jp":"福島県","jp_add_1":"白河市","jp_add_2":"藤沢"},"9610044":{"post_code":"9610044","prefecture":"FUKUSHIMA KEN","city":"SHIRAKAWA SHI","town":"FUJISAWAYAMA","perfecture_jp":"福島県","jp_add_1":"白河市","jp_add_2":"藤沢山"},"9610013":{"post_code":"9610013","prefecture":"FUKUSHIMA KEN","city":"SHIRAKAWA SHI","town":"FUNADA","perfecture_jp":"福島県","jp_add_1":"白河市","jp_add_2":"舟田"},"9610843":{"post_code":"9610843","prefecture":"FUKUSHIMA KEN","city":"SHIRAKAWA SHI","town":"FURUIKE","perfecture_jp":"福島県","jp_add_1":"白河市","jp_add_2":"古池"},"9610841":{"post_code":"9610841","prefecture":"FUKUSHIMA KEN","city":"SHIRAKAWA SHI","town":"FURUTAKAYAMA","perfecture_jp":"福島県","jp_add_1":"白河市","jp_add_2":"古高山"},"9610804":{"post_code":"9610804","prefecture":"FUKUSHIMA KEN","city":"SHIRAKAWA SHI","town":"HEBIISHI","perfecture_jp":"福島県","jp_add_1":"白河市","jp_add_2":"蛇石"},"9610801":{"post_code":"9610801","prefecture":"FUKUSHIMA KEN","city":"SHIRAKAWA SHI","town":"HONEN","perfecture_jp":"福島県","jp_add_1":"白河市","jp_add_2":"豊年"},"9610085":{"post_code":"9610085","prefecture":"FUKUSHIMA KEN","city":"SHIRAKAWA SHI","town":"MACHIDA","perfecture_jp":"福島県","jp_add_1":"白河市","jp_add_2":"町田"},"9610873":{"post_code":"9610873","prefecture":"FUKUSHIMA KEN","city":"SHIRAKAWA SHI","town":"MATSUNAMI","perfecture_jp":"福島県","jp_add_1":"白河市","jp_add_2":"松並"},"9610983":{"post_code":"9610983","prefecture":"FUKUSHIMA KEN","city":"SHIRAKAWA SHI","town":"MABUNE","perfecture_jp":"福島県","jp_add_1":"白河市","jp_add_2":"真舟"},"9610824":{"post_code":"9610824","prefecture":"FUKUSHIMA KEN","city":"SHIRAKAWA SHI","town":"MARUKOYAMA","perfecture_jp":"福島県","jp_add_1":"白河市","jp_add_2":"丸小山"},"9610836":{"post_code":"9610836","prefecture":"FUKUSHIMA KEN","city":"SHIRAKAWA SHI","town":"MISAKA","perfecture_jp":"福島県","jp_add_1":"白河市","jp_add_2":"みさか"},"9610031":{"post_code":"9610031","prefecture":"FUKUSHIMA KEN","city":"SHIRAKAWA SHI","town":"MICHIHIGASHI","perfecture_jp":"福島県","jp_add_1":"白河市","jp_add_2":"道東"},"9610035":{"post_code":"9610035","prefecture":"FUKUSHIMA KEN","city":"SHIRAKAWA SHI","town":"MINAMIIENOMAE","perfecture_jp":"福島県","jp_add_1":"白河市","jp_add_2":"南家ノ前"},"9610022":{"post_code":"9610022","prefecture":"FUKUSHIMA KEN","city":"SHIRAKAWA SHI","town":"MINAMIIKESHITA","perfecture_jp":"福島県","jp_add_1":"白河市","jp_add_2":"南池下"},"9610052":{"post_code":"9610052","prefecture":"FUKUSHIMA KEN","city":"SHIRAKAWA SHI","town":"MINAMINAKAGAWARA","perfecture_jp":"福島県","jp_add_1":"白河市","jp_add_2":"南中川原"},"9610851":{"post_code":"9610851","prefecture":"FUKUSHIMA KEN","city":"SHIRAKAWA SHI","town":"MINAMINOBORIMACHI","perfecture_jp":"福島県","jp_add_1":"白河市","jp_add_2":"南登リ町"},"9610992":{"post_code":"9610992","prefecture":"FUKUSHIMA KEN","city":"SHIRAKAWA SHI","town":"MINAMIHORIKAWABATA","perfecture_jp":"福島県","jp_add_1":"白河市","jp_add_2":"南堀川端"},"9610857":{"post_code":"9610857","prefecture":"FUKUSHIMA KEN","city":"SHIRAKAWA SHI","town":"MINAMIHORIKIRI","perfecture_jp":"福島県","jp_add_1":"白河市","jp_add_2":"南堀切"},"9610932":{"post_code":"9610932","prefecture":"FUKUSHIMA KEN","city":"SHIRAKAWA SHI","town":"MINAMIMACHI","perfecture_jp":"福島県","jp_add_1":"白河市","jp_add_2":"南町"},"9610982":{"post_code":"9610982","prefecture":"FUKUSHIMA KEN","city":"SHIRAKAWA SHI","town":"MINAMIMABUNE","perfecture_jp":"福島県","jp_add_1":"白河市","jp_add_2":"南真舟"},"9610925":{"post_code":"9610925","prefecture":"FUKUSHIMA KEN","city":"SHIRAKAWA SHI","town":"MUKAISHINKURA","perfecture_jp":"福島県","jp_add_1":"白河市","jp_add_2":"向新蔵"},"9610065":{"post_code":"9610065","prefecture":"FUKUSHIMA KEN","city":"SHIRAKAWA SHI","town":"MUKAIDERA","perfecture_jp":"福島県","jp_add_1":"白河市","jp_add_2":"向寺"},"9610945":{"post_code":"9610945","prefecture":"FUKUSHIMA KEN","city":"SHIRAKAWA SHI","town":"MEGURIYA","perfecture_jp":"福島県","jp_add_1":"白河市","jp_add_2":"巡り矢"},"9610012":{"post_code":"9610012","prefecture":"FUKUSHIMA KEN","city":"SHIRAKAWA SHI","town":"MOTONUMA","perfecture_jp":"福島県","jp_add_1":"白河市","jp_add_2":"本沼"},"9610905":{"post_code":"9610905","prefecture":"FUKUSHIMA KEN","city":"SHIRAKAWA SHI","town":"MOTOMACHI","perfecture_jp":"福島県","jp_add_1":"白河市","jp_add_2":"本町"},"9610906":{"post_code":"9610906","prefecture":"FUKUSHIMA KEN","city":"SHIRAKAWA SHI","town":"MOTOMACHIKITAURA","perfecture_jp":"福島県","jp_add_1":"白河市","jp_add_2":"本町北裏"},"9610805":{"post_code":"9610805","prefecture":"FUKUSHIMA KEN","city":"SHIRAKAWA SHI","town":"MONJUYAMA","perfecture_jp":"福島県","jp_add_1":"白河市","jp_add_2":"文珠山"},"9610917":{"post_code":"9610917","prefecture":"FUKUSHIMA KEN","city":"SHIRAKAWA SHI","town":"YAOYACHO","perfecture_jp":"福島県","jp_add_1":"白河市","jp_add_2":"八百屋町"},"9610034":{"post_code":"9610034","prefecture":"FUKUSHIMA KEN","city":"SHIRAKAWA SHI","town":"YASHIKIZOE","perfecture_jp":"福島県","jp_add_1":"白河市","jp_add_2":"屋敷添"},"9610091":{"post_code":"9610091","prefecture":"FUKUSHIMA KEN","city":"SHIRAKAWA SHI","town":"YAJIROKUBO","perfecture_jp":"福島県","jp_add_1":"白河市","jp_add_2":"弥次郎窪"},"9610041":{"post_code":"9610041","prefecture":"FUKUSHIMA KEN","city":"SHIRAKAWA SHI","town":"YUKI","perfecture_jp":"福島県","jp_add_1":"白河市","jp_add_2":"結城"},"9610926":{"post_code":"9610926","prefecture":"FUKUSHIMA KEN","city":"SHIRAKAWA SHI","town":"YUGETSUZAN","perfecture_jp":"福島県","jp_add_1":"白河市","jp_add_2":"友月山"},"9610907":{"post_code":"9610907","prefecture":"FUKUSHIMA KEN","city":"SHIRAKAWA SHI","town":"YOKOMACHI","perfecture_jp":"福島県","jp_add_1":"白河市","jp_add_2":"横町"},"9610881":{"post_code":"9610881","prefecture":"FUKUSHIMA KEN","city":"SHIRAKAWA SHI","town":"YOSOGOYA","perfecture_jp":"福島県","jp_add_1":"白河市","jp_add_2":"与惣小屋"},"9610882":{"post_code":"9610882","prefecture":"FUKUSHIMA KEN","city":"SHIRAKAWA SHI","town":"YOSOGOYAYAMA","perfecture_jp":"福島県","jp_add_1":"白河市","jp_add_2":"与惣小屋山"},"9610961":{"post_code":"9610961","prefecture":"FUKUSHIMA KEN","city":"SHIRAKAWA SHI","town":"YOTSUYA","perfecture_jp":"福島県","jp_add_1":"白河市","jp_add_2":"四ツ谷"},"9610078":{"post_code":"9610078","prefecture":"FUKUSHIMA KEN","city":"SHIRAKAWA SHI","town":"YONEMURAMICHIKITA","perfecture_jp":"福島県","jp_add_1":"白河市","jp_add_2":"米村道北"},"9610871":{"post_code":"9610871","prefecture":"FUKUSHIMA KEN","city":"SHIRAKAWA SHI","town":"YONEYAMAGOE","perfecture_jp":"福島県","jp_add_1":"白河市","jp_add_2":"米山越"},"9610066":{"post_code":"9610066","prefecture":"FUKUSHIMA KEN","city":"SHIRAKAWA SHI","town":"RAKAMMAE","perfecture_jp":"福島県","jp_add_1":"白河市","jp_add_2":"羅漢前"},"9610092":{"post_code":"9610092","prefecture":"FUKUSHIMA KEN","city":"SHIRAKAWA SHI","town":"ROKUTANYAMA","perfecture_jp":"福島県","jp_add_1":"白河市","jp_add_2":"六反山"},"9618043":{"post_code":"9618043","prefecture":"FUKUSHIMA KEN","city":"NISHISHIRAKAWA GUN NISHIGO MURA","town":"ISHIZUKA MINAMI","perfecture_jp":"福島県","jp_add_1":"西白河郡西郷村","jp_add_2":"石塚南"},"9618044":{"post_code":"9618044","prefecture":"FUKUSHIMA KEN","city":"NISHISHIRAKAWA GUN NISHIGO MURA","town":"ISHIZUKA KITA","perfecture_jp":"福島県","jp_add_1":"西白河郡西郷村","jp_add_2":"石塚北"},"9618047":{"post_code":"9618047","prefecture":"FUKUSHIMA KEN","city":"NISHISHIRAKAWA GUN NISHIGO MURA","town":"URAYAMA MINAMI","perfecture_jp":"福島県","jp_add_1":"西白河郡西郷村","jp_add_2":"裏山南"},"9618061":{"post_code":"9618061","prefecture":"FUKUSHIMA KEN","city":"NISHISHIRAKAWA GUN NISHIGO MURA","town":"ODAKURA","perfecture_jp":"福島県","jp_add_1":"西白河郡西郷村","jp_add_2":"小田倉"},"9618011":{"post_code":"9618011","prefecture":"FUKUSHIMA KEN","city":"NISHISHIRAKAWA GUN NISHIGO MURA","town":"KASHIWANO","perfecture_jp":"福島県","jp_add_1":"西白河郡西郷村","jp_add_2":"柏野"},"9618091":{"post_code":"9618091","prefecture":"FUKUSHIMA KEN","city":"NISHISHIRAKAWA GUN NISHIGO MURA","town":"KUMAKURA","perfecture_jp":"福島県","jp_add_1":"西白河郡西郷村","jp_add_2":"熊倉"},"9618051":{"post_code":"9618051","prefecture":"FUKUSHIMA KEN","city":"NISHISHIRAKAWA GUN NISHIGO MURA","town":"SHIMOMAEDA HIGASHI","perfecture_jp":"福島県","jp_add_1":"西白河郡西郷村","jp_add_2":"下前田東"},"9618056":{"post_code":"9618056","prefecture":"FUKUSHIMA KEN","city":"NISHISHIRAKAWA GUN NISHIGO MURA","town":"SHIMOMAEDA NISHI","perfecture_jp":"福島県","jp_add_1":"西白河郡西郷村","jp_add_2":"下前田西"},"9618081":{"post_code":"9618081","prefecture":"FUKUSHIMA KEN","city":"NISHISHIRAKAWA GUN NISHIGO MURA","town":"TSURYU","perfecture_jp":"福島県","jp_add_1":"西白河郡西郷村","jp_add_2":"鶴生"},"9618052":{"post_code":"9618052","prefecture":"FUKUSHIMA KEN","city":"NISHISHIRAKAWA GUN NISHIGO MURA","town":"DONAN HIGASHI","perfecture_jp":"福島県","jp_add_1":"西白河郡西郷村","jp_add_2":"道南東"},"9618055":{"post_code":"9618055","prefecture":"FUKUSHIMA KEN","city":"NISHISHIRAKAWA GUN NISHIGO MURA","town":"DONAN NISHI","perfecture_jp":"福島県","jp_add_1":"西白河郡西郷村","jp_add_2":"道南西"},"9618041":{"post_code":"9618041","prefecture":"FUKUSHIMA KEN","city":"NISHISHIRAKAWA GUN NISHIGO MURA","town":"TOYOSAKU HIGASHI","perfecture_jp":"福島県","jp_add_1":"西白河郡西郷村","jp_add_2":"豊作東"},"9618042":{"post_code":"9618042","prefecture":"FUKUSHIMA KEN","city":"NISHISHIRAKAWA GUN NISHIGO MURA","town":"TOYOSAKU NISHI","perfecture_jp":"福島県","jp_add_1":"西白河郡西郷村","jp_add_2":"豊作西"},"9618021":{"post_code":"9618021","prefecture":"FUKUSHIMA KEN","city":"NISHISHIRAKAWA GUN NISHIGO MURA","town":"NAGASAKA","perfecture_jp":"福島県","jp_add_1":"西白河郡西郷村","jp_add_2":"長坂"},"9618001":{"post_code":"9618001","prefecture":"FUKUSHIMA KEN","city":"NISHISHIRAKAWA GUN NISHIGO MURA","town":"HABUTO","perfecture_jp":"福島県","jp_add_1":"西白河郡西郷村","jp_add_2":"羽太"},"9618053":{"post_code":"9618053","prefecture":"FUKUSHIMA KEN","city":"NISHISHIRAKAWA GUN NISHIGO MURA","town":"MAEYAMA HIGASHI","perfecture_jp":"福島県","jp_add_1":"西白河郡西郷村","jp_add_2":"前山東"},"9618054":{"post_code":"9618054","prefecture":"FUKUSHIMA KEN","city":"NISHISHIRAKAWA GUN NISHIGO MURA","town":"MAEYAMA NISHI","perfecture_jp":"福島県","jp_add_1":"西白河郡西郷村","jp_add_2":"前山西"},"9618071":{"post_code":"9618071","prefecture":"FUKUSHIMA KEN","city":"NISHISHIRAKAWA GUN NISHIGO MURA","town":"MABUNE","perfecture_jp":"福島県","jp_add_1":"西白河郡西郷村","jp_add_2":"真船"},"9618046":{"post_code":"9618046","prefecture":"FUKUSHIMA KEN","city":"NISHISHIRAKAWA GUN NISHIGO MURA","town":"YASHIKIURA HIGASHI","perfecture_jp":"福島県","jp_add_1":"西白河郡西郷村","jp_add_2":"屋敷裏東"},"9618045":{"post_code":"9618045","prefecture":"FUKUSHIMA KEN","city":"NISHISHIRAKAWA GUN NISHIGO MURA","town":"YASHIKIURA NISHI","perfecture_jp":"福島県","jp_add_1":"西白河郡西郷村","jp_add_2":"屋敷裏西"},"9618031":{"post_code":"9618031","prefecture":"FUKUSHIMA KEN","city":"NISHISHIRAKAWA GUN NISHIGO MURA","town":"YONE","perfecture_jp":"福島県","jp_add_1":"西白河郡西郷村","jp_add_2":"米"},"9610100":{"post_code":"9610100","prefecture":"FUKUSHIMA KEN","city":"NISHISHIRAKAWA GUN NAKAJIMA MURA","town":"IKANIKEISAIGANAIBAAI","perfecture_jp":"福島県","jp_add_1":"西白河郡中島村","jp_add_2":""},"9610105":{"post_code":"9610105","prefecture":"FUKUSHIMA KEN","city":"NISHISHIRAKAWA GUN NAKAJIMA MURA","town":"KAWAHARADA","perfecture_jp":"福島県","jp_add_1":"西白河郡中島村","jp_add_2":"川原田"},"9610103":{"post_code":"9610103","prefecture":"FUKUSHIMA KEN","city":"NISHISHIRAKAWA GUN NAKAJIMA MURA","town":"NAKAJIMA","perfecture_jp":"福島県","jp_add_1":"西白河郡中島村","jp_add_2":"中島"},"9610102":{"post_code":"9610102","prefecture":"FUKUSHIMA KEN","city":"NISHISHIRAKAWA GUN NAKAJIMA MURA","town":"NAMETSU","perfecture_jp":"福島県","jp_add_1":"西白河郡中島村","jp_add_2":"滑津"},"9610106":{"post_code":"9610106","prefecture":"FUKUSHIMA KEN","city":"NISHISHIRAKAWA GUN NAKAJIMA MURA","town":"FUTAGOTSUKA","perfecture_jp":"福島県","jp_add_1":"西白河郡中島村","jp_add_2":"二子塚"},"9610101":{"post_code":"9610101","prefecture":"FUKUSHIMA KEN","city":"NISHISHIRAKAWA GUN NAKAJIMA MURA","town":"MATSUZAKI","perfecture_jp":"福島県","jp_add_1":"西白河郡中島村","jp_add_2":"松崎"},"9610104":{"post_code":"9610104","prefecture":"FUKUSHIMA KEN","city":"NISHISHIRAKAWA GUN NAKAJIMA MURA","town":"YOSHIOKA","perfecture_jp":"福島県","jp_add_1":"西白河郡中島村","jp_add_2":"吉岡"}}