{"9680400":{"post_code":"9680400","prefecture":"FUKUSHIMA KEN","city":"MINAMIAIZU GUN TADAMI MACHI","town":"IKANIKEISAIGANAIBAAI","perfecture_jp":"福島県","jp_add_1":"南会津郡只見町","jp_add_2":""},"9680443":{"post_code":"9680443","prefecture":"FUKUSHIMA KEN","city":"MINAMIAIZU GUN TADAMI MACHI","town":"ARASHIMA","perfecture_jp":"福島県","jp_add_1":"南会津郡只見町","jp_add_2":"荒島"},"9680422":{"post_code":"9680422","prefecture":"FUKUSHIMA KEN","city":"MINAMIAIZU GUN TADAMI MACHI","town":"ISHIBUSHI","perfecture_jp":"福島県","jp_add_1":"南会津郡只見町","jp_add_2":"石伏"},"9680602":{"post_code":"9680602","prefecture":"FUKUSHIMA KEN","city":"MINAMIAIZU GUN TADAMI MACHI","town":"OKURA","perfecture_jp":"福島県","jp_add_1":"南会津郡只見町","jp_add_2":"大倉"},"9680434":{"post_code":"9680434","prefecture":"FUKUSHIMA KEN","city":"MINAMIAIZU GUN TADAMI MACHI","town":"OGAWA","perfecture_jp":"福島県","jp_add_1":"南会津郡只見町","jp_add_2":"小川"},"9680415":{"post_code":"9680415","prefecture":"FUKUSHIMA KEN","city":"MINAMIAIZU GUN TADAMI MACHI","town":"KANOZU","perfecture_jp":"福島県","jp_add_1":"南会津郡只見町","jp_add_2":"叶津"},"9680445":{"post_code":"9680445","prefecture":"FUKUSHIMA KEN","city":"MINAMIAIZU GUN TADAMI MACHI","town":"KAMEOKA","perfecture_jp":"福島県","jp_add_1":"南会津郡只見町","jp_add_2":"亀岡"},"9680414":{"post_code":"9680414","prefecture":"FUKUSHIMA KEN","city":"MINAMIAIZU GUN TADAMI MACHI","town":"GAMO","perfecture_jp":"福島県","jp_add_1":"南会津郡只見町","jp_add_2":"蒲生"},"9680444":{"post_code":"9680444","prefecture":"FUKUSHIMA KEN","city":"MINAMIAIZU GUN TADAMI MACHI","town":"KUMAGURA","perfecture_jp":"福島県","jp_add_1":"南会津郡只見町","jp_add_2":"熊倉"},"9680432":{"post_code":"9680432","prefecture":"FUKUSHIMA KEN","city":"MINAMIAIZU GUN TADAMI MACHI","town":"KUROSAWA","perfecture_jp":"福島県","jp_add_1":"南会津郡只見町","jp_add_2":"黒沢"},"9680441":{"post_code":"9680441","prefecture":"FUKUSHIMA KEN","city":"MINAMIAIZU GUN TADAMI MACHI","town":"KUROTANI","perfecture_jp":"福島県","jp_add_1":"南会津郡只見町","jp_add_2":"黒谷"},"9680601":{"post_code":"9680601","prefecture":"FUKUSHIMA KEN","city":"MINAMIAIZU GUN TADAMI MACHI","town":"KOBAYASHI","perfecture_jp":"福島県","jp_add_1":"南会津郡只見町","jp_add_2":"小林"},"9680606":{"post_code":"9680606","prefecture":"FUKUSHIMA KEN","city":"MINAMIAIZU GUN TADAMI MACHI","town":"SAKATA","perfecture_jp":"福島県","jp_add_1":"南会津郡只見町","jp_add_2":"坂田"},"9680411":{"post_code":"9680411","prefecture":"FUKUSHIMA KEN","city":"MINAMIAIZU GUN TADAMI MACHI","town":"SHIOZAWA","perfecture_jp":"福島県","jp_add_1":"南会津郡只見町","jp_add_2":"塩沢"},"9680604":{"post_code":"9680604","prefecture":"FUKUSHIMA KEN","city":"MINAMIAIZU GUN TADAMI MACHI","town":"SHIONOMATA","perfecture_jp":"福島県","jp_add_1":"南会津郡只見町","jp_add_2":"塩ノ岐"},"9680412":{"post_code":"9680412","prefecture":"FUKUSHIMA KEN","city":"MINAMIAIZU GUN TADAMI MACHI","town":"JUJIMA","perfecture_jp":"福島県","jp_add_1":"南会津郡只見町","jp_add_2":"十島"},"9680423":{"post_code":"9680423","prefecture":"FUKUSHIMA KEN","city":"MINAMIAIZU GUN TADAMI MACHI","town":"TAGOKURA","perfecture_jp":"福島県","jp_add_1":"南会津郡只見町","jp_add_2":"田子倉"},"9680421":{"post_code":"9680421","prefecture":"FUKUSHIMA KEN","city":"MINAMIAIZU GUN TADAMI MACHI","town":"TADAMI","perfecture_jp":"福島県","jp_add_1":"南会津郡只見町","jp_add_2":"只見"},"9680442":{"post_code":"9680442","prefecture":"FUKUSHIMA KEN","city":"MINAMIAIZU GUN TADAMI MACHI","town":"NAGAHAMA","perfecture_jp":"福島県","jp_add_1":"南会津郡只見町","jp_add_2":"長浜"},"9680431":{"post_code":"9680431","prefecture":"FUKUSHIMA KEN","city":"MINAMIAIZU GUN TADAMI MACHI","town":"NARATO","perfecture_jp":"福島県","jp_add_1":"南会津郡只見町","jp_add_2":"楢戸"},"9680605":{"post_code":"9680605","prefecture":"FUKUSHIMA KEN","city":"MINAMIAIZU GUN TADAMI MACHI","town":"NIKENZAIKE","perfecture_jp":"福島県","jp_add_1":"南会津郡只見町","jp_add_2":"二軒在家"},"9680433":{"post_code":"9680433","prefecture":"FUKUSHIMA KEN","city":"MINAMIAIZU GUN TADAMI MACHI","town":"FUKUI","perfecture_jp":"福島県","jp_add_1":"南会津郡只見町","jp_add_2":"福井"},"9680607":{"post_code":"9680607","prefecture":"FUKUSHIMA KEN","city":"MINAMIAIZU GUN TADAMI MACHI","town":"FUZAWA","perfecture_jp":"福島県","jp_add_1":"南会津郡只見町","jp_add_2":"布沢"},"9680603":{"post_code":"9680603","prefecture":"FUKUSHIMA KEN","city":"MINAMIAIZU GUN TADAMI MACHI","town":"YANATORI","perfecture_jp":"福島県","jp_add_1":"南会津郡只見町","jp_add_2":"梁取"},"9680413":{"post_code":"9680413","prefecture":"FUKUSHIMA KEN","city":"MINAMIAIZU GUN TADAMI MACHI","town":"YORIIWA","perfecture_jp":"福島県","jp_add_1":"南会津郡只見町","jp_add_2":"寄岩"},"9680000":{"post_code":"9680000","prefecture":"FUKUSHIMA KEN","city":"ONUMA GUN KANEYAMA MACHI","town":"IKANIKEISAIGANAIBAAI","perfecture_jp":"福島県","jp_add_1":"大沼郡金山町","jp_add_2":""},"9680002":{"post_code":"9680002","prefecture":"FUKUSHIMA KEN","city":"ONUMA GUN KANEYAMA MACHI","town":"OKURIYAMA","perfecture_jp":"福島県","jp_add_1":"大沼郡金山町","jp_add_2":"大栗山"},"9680005":{"post_code":"9680005","prefecture":"FUKUSHIMA KEN","city":"ONUMA GUN KANEYAMA MACHI","town":"OSHI","perfecture_jp":"福島県","jp_add_1":"大沼郡金山町","jp_add_2":"大志"},"9680326":{"post_code":"9680326","prefecture":"FUKUSHIMA KEN","city":"ONUMA GUN KANEYAMA MACHI","town":"OSHIO","perfecture_jp":"福島県","jp_add_1":"大沼郡金山町","jp_add_2":"大塩"},"9680011":{"post_code":"9680011","prefecture":"FUKUSHIMA KEN","city":"ONUMA GUN KANEYAMA MACHI","town":"KAWAGUCHI","perfecture_jp":"福島県","jp_add_1":"大沼郡金山町","jp_add_2":"川口"},"9680012":{"post_code":"9680012","prefecture":"FUKUSHIMA KEN","city":"ONUMA GUN KANEYAMA MACHI","town":"KOGURIYAMA","perfecture_jp":"福島県","jp_add_1":"大沼郡金山町","jp_add_2":"小栗山"},"9680321":{"post_code":"9680321","prefecture":"FUKUSHIMA KEN","city":"ONUMA GUN KANEYAMA MACHI","town":"KOSUGAWA","perfecture_jp":"福島県","jp_add_1":"大沼郡金山町","jp_add_2":"越川"},"9680325":{"post_code":"9680325","prefecture":"FUKUSHIMA KEN","city":"ONUMA GUN KANEYAMA MACHI","town":"TAKIZAWA","perfecture_jp":"福島県","jp_add_1":"大沼郡金山町","jp_add_2":"滝沢"},"9680324":{"post_code":"9680324","prefecture":"FUKUSHIMA KEN","city":"ONUMA GUN KANEYAMA MACHI","town":"TAZAWA","perfecture_jp":"福島県","jp_add_1":"大沼郡金山町","jp_add_2":"田沢"},"9680014":{"post_code":"9680014","prefecture":"FUKUSHIMA KEN","city":"ONUMA GUN KANEYAMA MACHI","town":"TAMANASHI","perfecture_jp":"福島県","jp_add_1":"大沼郡金山町","jp_add_2":"玉梨"},"9680004":{"post_code":"9680004","prefecture":"FUKUSHIMA KEN","city":"ONUMA GUN KANEYAMA MACHI","town":"TARABU","perfecture_jp":"福島県","jp_add_1":"大沼郡金山町","jp_add_2":"太郎布"},"9680006":{"post_code":"9680006","prefecture":"FUKUSHIMA KEN","city":"ONUMA GUN KANEYAMA MACHI","town":"NAKAGAWA","perfecture_jp":"福島県","jp_add_1":"大沼郡金山町","jp_add_2":"中川"},"9680015":{"post_code":"9680015","prefecture":"FUKUSHIMA KEN","city":"ONUMA GUN KANEYAMA MACHI","town":"NISHITANI","perfecture_jp":"福島県","jp_add_1":"大沼郡金山町","jp_add_2":"西谷"},"9680003":{"post_code":"9680003","prefecture":"FUKUSHIMA KEN","city":"ONUMA GUN KANEYAMA MACHI","town":"NUMAZAWA","perfecture_jp":"福島県","jp_add_1":"大沼郡金山町","jp_add_2":"沼沢"},"9680013":{"post_code":"9680013","prefecture":"FUKUSHIMA KEN","city":"ONUMA GUN KANEYAMA MACHI","town":"HACHIMACHI","perfecture_jp":"福島県","jp_add_1":"大沼郡金山町","jp_add_2":"八町"},"9680016":{"post_code":"9680016","prefecture":"FUKUSHIMA KEN","city":"ONUMA GUN KANEYAMA MACHI","town":"HONNA","perfecture_jp":"福島県","jp_add_1":"大沼郡金山町","jp_add_2":"本名"},"9680001":{"post_code":"9680001","prefecture":"FUKUSHIMA KEN","city":"ONUMA GUN KANEYAMA MACHI","town":"MIZUNUMA","perfecture_jp":"福島県","jp_add_1":"大沼郡金山町","jp_add_2":"水沼"},"9680323":{"post_code":"9680323","prefecture":"FUKUSHIMA KEN","city":"ONUMA GUN KANEYAMA MACHI","town":"YAMAIRI","perfecture_jp":"福島県","jp_add_1":"大沼郡金山町","jp_add_2":"山入"},"9680322":{"post_code":"9680322","prefecture":"FUKUSHIMA KEN","city":"ONUMA GUN KANEYAMA MACHI","town":"YOKOTA","perfecture_jp":"福島県","jp_add_1":"大沼郡金山町","jp_add_2":"横田"},"9680100":{"post_code":"9680100","prefecture":"FUKUSHIMA KEN","city":"ONUMA GUN SHOWA MURA","town":"IKANIKEISAIGANAIBAAI","perfecture_jp":"福島県","jp_add_1":"大沼郡昭和村","jp_add_2":""},"9680214":{"post_code":"9680214","prefecture":"FUKUSHIMA KEN","city":"ONUMA GUN SHOWA MURA","town":"OASHI","perfecture_jp":"福島県","jp_add_1":"大沼郡昭和村","jp_add_2":"大芦"},"9680211":{"post_code":"9680211","prefecture":"FUKUSHIMA KEN","city":"ONUMA GUN SHOWA MURA","town":"ONOGAWA","perfecture_jp":"福島県","jp_add_1":"大沼郡昭和村","jp_add_2":"小野川"},"9680212":{"post_code":"9680212","prefecture":"FUKUSHIMA KEN","city":"ONUMA GUN SHOWA MURA","town":"KUIMARU","perfecture_jp":"福島県","jp_add_1":"大沼郡昭和村","jp_add_2":"喰丸"},"9680104":{"post_code":"9680104","prefecture":"FUKUSHIMA KEN","city":"ONUMA GUN SHOWA MURA","town":"KONAKATSUKAWA","perfecture_jp":"福島県","jp_add_1":"大沼郡昭和村","jp_add_2":"小中津川"},"9680215":{"post_code":"9680215","prefecture":"FUKUSHIMA KEN","city":"ONUMA GUN SHOWA MURA","town":"SAGURA","perfecture_jp":"福島県","jp_add_1":"大沼郡昭和村","jp_add_2":"佐倉"},"9680103":{"post_code":"9680103","prefecture":"FUKUSHIMA KEN","city":"ONUMA GUN SHOWA MURA","town":"SHIMONAKATSUKAWA","perfecture_jp":"福島県","jp_add_1":"大沼郡昭和村","jp_add_2":"下中津川"},"9680102":{"post_code":"9680102","prefecture":"FUKUSHIMA KEN","city":"ONUMA GUN SHOWA MURA","town":"NOJIRI","perfecture_jp":"福島県","jp_add_1":"大沼郡昭和村","jp_add_2":"野尻"},"9680101":{"post_code":"9680101","prefecture":"FUKUSHIMA KEN","city":"ONUMA GUN SHOWA MURA","town":"MATSUYAMA","perfecture_jp":"福島県","jp_add_1":"大沼郡昭和村","jp_add_2":"松山"},"9680213":{"post_code":"9680213","prefecture":"FUKUSHIMA KEN","city":"ONUMA GUN SHOWA MURA","town":"RYOHARA","perfecture_jp":"福島県","jp_add_1":"大沼郡昭和村","jp_add_2":"両原"}}