{"9695147":{"post_code":"9695147","prefecture":"FUKUSHIMA KEN","city":"AIZUWAKAMATSU SHI","town":"OTOMACHI ASHINOMAKI","perfecture_jp":"福島県","jp_add_1":"会津若松市","jp_add_2":"大戸町芦牧"},"9695111":{"post_code":"9695111","prefecture":"FUKUSHIMA KEN","city":"AIZUWAKAMATSU SHI","town":"OTOMACHI ISHIMURA","perfecture_jp":"福島県","jp_add_1":"会津若松市","jp_add_2":"大戸町石村"},"9695133":{"post_code":"9695133","prefecture":"FUKUSHIMA KEN","city":"AIZUWAKAMATSU SHI","town":"OTOMACHI OKAWA","perfecture_jp":"福島県","jp_add_1":"会津若松市","jp_add_2":"大戸町大川"},"9695141":{"post_code":"9695141","prefecture":"FUKUSHIMA KEN","city":"AIZUWAKAMATSU SHI","town":"OTOMACHI OYAKAWABATA","perfecture_jp":"福島県","jp_add_1":"会津若松市","jp_add_2":"大戸町小谷川端"},"9695142":{"post_code":"9695142","prefecture":"FUKUSHIMA KEN","city":"AIZUWAKAMATSU SHI","town":"OTOMACHI OYASAKANOSHITA","perfecture_jp":"福島県","jp_add_1":"会津若松市","jp_add_2":"大戸町小谷坂下"},"9695144":{"post_code":"9695144","prefecture":"FUKUSHIMA KEN","city":"AIZUWAKAMATSU SHI","town":"OTOMACHI OYANISHIMURA","perfecture_jp":"福島県","jp_add_1":"会津若松市","jp_add_2":"大戸町小谷西村"},"9695143":{"post_code":"9695143","prefecture":"FUKUSHIMA KEN","city":"AIZUWAKAMATSU SHI","town":"OTOMACHI OYAHARA","perfecture_jp":"福島県","jp_add_1":"会津若松市","jp_add_2":"大戸町小谷原"},"9695145":{"post_code":"9695145","prefecture":"FUKUSHIMA KEN","city":"AIZUWAKAMATSU SHI","town":"OTOMACHI OYAHIRASAWA","perfecture_jp":"福島県","jp_add_1":"会津若松市","jp_add_2":"大戸町小谷平沢"},"9695146":{"post_code":"9695146","prefecture":"FUKUSHIMA KEN","city":"AIZUWAKAMATSU SHI","town":"OTOMACHI OYAYUNODAIRA","perfecture_jp":"福島県","jp_add_1":"会津若松市","jp_add_2":"大戸町小谷湯ノ平"},"9695114":{"post_code":"9695114","prefecture":"FUKUSHIMA KEN","city":"AIZUWAKAMATSU SHI","town":"OTOMACHI KAMIAMAYA","perfecture_jp":"福島県","jp_add_1":"会津若松市","jp_add_2":"大戸町上雨屋"},"9695132":{"post_code":"9695132","prefecture":"FUKUSHIMA KEN","city":"AIZUWAKAMATSU SHI","town":"OTOMACHI KAMIOSHU","perfecture_jp":"福島県","jp_add_1":"会津若松市","jp_add_2":"大戸町上小塩"},"9695123":{"post_code":"9695123","prefecture":"FUKUSHIMA KEN","city":"AIZUWAKAMATSU SHI","town":"OTOMACHI KAMIMIYORIHEI","perfecture_jp":"福島県","jp_add_1":"会津若松市","jp_add_2":"大戸町上三寄大豆田"},"9695122":{"post_code":"9695122","prefecture":"FUKUSHIMA KEN","city":"AIZUWAKAMATSU SHI","town":"OTOMACHI KAMIMIYORIKASHU","perfecture_jp":"福島県","jp_add_1":"会津若松市","jp_add_2":"大戸町上三寄乙"},"9695121":{"post_code":"9695121","prefecture":"FUKUSHIMA KEN","city":"AIZUWAKAMATSU SHI","town":"OTOMACHI KAMIMIYORIMINAMIHARA","perfecture_jp":"福島県","jp_add_1":"会津若松市","jp_add_2":"大戸町上三寄南原"},"9695112":{"post_code":"9695112","prefecture":"FUKUSHIMA KEN","city":"AIZUWAKAMATSU SHI","town":"OTOMACHI SHIMOAMAYA","perfecture_jp":"福島県","jp_add_1":"会津若松市","jp_add_2":"大戸町下雨屋"},"9695131":{"post_code":"9695131","prefecture":"FUKUSHIMA KEN","city":"AIZUWAKAMATSU SHI","town":"OTOMACHI TAKAGAWA","perfecture_jp":"福島県","jp_add_1":"会津若松市","jp_add_2":"大戸町高川"},"9695113":{"post_code":"9695113","prefecture":"FUKUSHIMA KEN","city":"AIZUWAKAMATSU SHI","town":"OTOMACHI MIYAUCHI","perfecture_jp":"福島県","jp_add_1":"会津若松市","jp_add_2":"大戸町宮内"},"9693461":{"post_code":"9693461","prefecture":"FUKUSHIMA KEN","city":"AIZUWAKAMATSU SHI","town":"KAWAHIGASHIMACHI ASAYAMA","perfecture_jp":"福島県","jp_add_1":"会津若松市","jp_add_2":"河東町浅山"},"9693411":{"post_code":"9693411","prefecture":"FUKUSHIMA KEN","city":"AIZUWAKAMATSU SHI","town":"KAWAHIGASHIMACHI OTAWARA","perfecture_jp":"福島県","jp_add_1":"会津若松市","jp_add_2":"河東町大田原"},"9693401":{"post_code":"9693401","prefecture":"FUKUSHIMA KEN","city":"AIZUWAKAMATSU SHI","town":"KAWAHIGASHIMACHI OKADA","perfecture_jp":"福島県","jp_add_1":"会津若松市","jp_add_2":"河東町岡田"},"9693462":{"post_code":"9693462","prefecture":"FUKUSHIMA KEN","city":"AIZUWAKAMATSU SHI","town":"KAWAHIGASHIMACHI KANEDA","perfecture_jp":"福島県","jp_add_1":"会津若松市","jp_add_2":"河東町金田"},"9693421":{"post_code":"9693421","prefecture":"FUKUSHIMA KEN","city":"AIZUWAKAMATSU SHI","town":"KAWAHIGASHIMACHI KUMANODO","perfecture_jp":"福島県","jp_add_1":"会津若松市","jp_add_2":"河東町熊野堂"},"9693463":{"post_code":"9693463","prefecture":"FUKUSHIMA KEN","city":"AIZUWAKAMATSU SHI","town":"KAWAHIGASHIMACHI KURAHASHI","perfecture_jp":"福島県","jp_add_1":"会津若松市","jp_add_2":"河東町倉橋"},"9693464":{"post_code":"9693464","prefecture":"FUKUSHIMA KEN","city":"AIZUWAKAMATSU SHI","town":"KAWAHIGASHIMACHI KOGYODANCHI","perfecture_jp":"福島県","jp_add_1":"会津若松市","jp_add_2":"河東町工業団地"},"9693422":{"post_code":"9693422","prefecture":"FUKUSHIMA KEN","city":"AIZUWAKAMATSU SHI","town":"KAWAHIGASHIMACHI KOYA","perfecture_jp":"福島県","jp_add_1":"会津若松市","jp_add_2":"河東町広野"},"9693481":{"post_code":"9693481","prefecture":"FUKUSHIMA KEN","city":"AIZUWAKAMATSU SHI","town":"KAWAHIGASHIMACHI KORIYAMA","perfecture_jp":"福島県","jp_add_1":"会津若松市","jp_add_2":"河東町郡山"},"9693482":{"post_code":"9693482","prefecture":"FUKUSHIMA KEN","city":"AIZUWAKAMATSU SHI","town":"KAWAHIGASHIMACHI TANISAWA","perfecture_jp":"福島県","jp_add_1":"会津若松市","jp_add_2":"河東町谷沢"},"9693451":{"post_code":"9693451","prefecture":"FUKUSHIMA KEN","city":"AIZUWAKAMATSU SHI","town":"KAWAHIGASHIMACHI HATTA","perfecture_jp":"福島県","jp_add_1":"会津若松市","jp_add_2":"河東町八田"},"9693431":{"post_code":"9693431","prefecture":"FUKUSHIMA KEN","city":"AIZUWAKAMATSU SHI","town":"KAWAHIGASHIMACHI HIGASHINAGAHARA","perfecture_jp":"福島県","jp_add_1":"会津若松市","jp_add_2":"河東町東長原"},"9693471":{"post_code":"9693471","prefecture":"FUKUSHIMA KEN","city":"AIZUWAKAMATSU SHI","town":"KAWAHIGASHIMACHI HIROTA","perfecture_jp":"福島県","jp_add_1":"会津若松市","jp_add_2":"河東町広田"},"9693402":{"post_code":"9693402","prefecture":"FUKUSHIMA KEN","city":"AIZUWAKAMATSU SHI","town":"KAWAHIGASHIMACHI FUKUSHIMA","perfecture_jp":"福島県","jp_add_1":"会津若松市","jp_add_2":"河東町福島"},"9693441":{"post_code":"9693441","prefecture":"FUKUSHIMA KEN","city":"AIZUWAKAMATSU SHI","town":"KAWAHIGASHIMACHI MINAMIKOYA","perfecture_jp":"福島県","jp_add_1":"会津若松市","jp_add_2":"河東町南高野"},"9693412":{"post_code":"9693412","prefecture":"FUKUSHIMA KEN","city":"AIZUWAKAMATSU SHI","town":"KAWAHIGASHIMACHI YODA","perfecture_jp":"福島県","jp_add_1":"会津若松市","jp_add_2":"河東町代田"},"9696002":{"post_code":"9696002","prefecture":"FUKUSHIMA KEN","city":"AIZUWAKAMATSU SHI","town":"KITAAIZUMACHI ASOSHINDEN","perfecture_jp":"福島県","jp_add_1":"会津若松市","jp_add_2":"北会津町麻生新田"},"9696008":{"post_code":"9696008","prefecture":"FUKUSHIMA KEN","city":"AIZUWAKAMATSU SHI","town":"KITAAIZUMACHI OSHIMA","perfecture_jp":"福島県","jp_add_1":"会津若松市","jp_add_2":"北会津町大島"},"9696182":{"post_code":"9696182","prefecture":"FUKUSHIMA KEN","city":"AIZUWAKAMATSU SHI","town":"KITAAIZUMACHI KASHIWABARA","perfecture_jp":"福島県","jp_add_1":"会津若松市","jp_add_2":"北会津町柏原"},"9696012":{"post_code":"9696012","prefecture":"FUKUSHIMA KEN","city":"AIZUWAKAMATSU SHI","town":"KITAAIZUMACHI KANAYA","perfecture_jp":"福島県","jp_add_1":"会津若松市","jp_add_2":"北会津町金屋"},"9696183":{"post_code":"9696183","prefecture":"FUKUSHIMA KEN","city":"AIZUWAKAMATSU SHI","town":"KITAAIZUMACHI KAMIYONEZUKA","perfecture_jp":"福島県","jp_add_1":"会津若松市","jp_add_2":"北会津町上米塚"},"9696007":{"post_code":"9696007","prefecture":"FUKUSHIMA KEN","city":"AIZUWAKAMATSU SHI","town":"KITAAIZUMACHI KITAGOAN","perfecture_jp":"福島県","jp_add_1":"会津若松市","jp_add_2":"北会津町北後庵"},"9696189":{"post_code":"9696189","prefecture":"FUKUSHIMA KEN","city":"AIZUWAKAMATSU SHI","town":"KITAAIZUMACHI KOMATSU","perfecture_jp":"福島県","jp_add_1":"会津若松市","jp_add_2":"北会津町小松"},"9696184":{"post_code":"9696184","prefecture":"FUKUSHIMA KEN","city":"AIZUWAKAMATSU SHI","town":"KITAAIZUMACHI SAMBOMMATSU","perfecture_jp":"福島県","jp_add_1":"会津若松市","jp_add_2":"北会津町三本松"},"9696013":{"post_code":"9696013","prefecture":"FUKUSHIMA KEN","city":"AIZUWAKAMATSU SHI","town":"KITAAIZUMACHI SHIMONO","perfecture_jp":"福島県","jp_add_1":"会津若松市","jp_add_2":"北会津町下野"},"9696185":{"post_code":"9696185","prefecture":"FUKUSHIMA KEN","city":"AIZUWAKAMATSU SHI","town":"KITAAIZUMACHI SHIMOYONEZUKA","perfecture_jp":"福島県","jp_add_1":"会津若松市","jp_add_2":"北会津町下米塚"},"9696006":{"post_code":"9696006","prefecture":"FUKUSHIMA KEN","city":"AIZUWAKAMATSU SHI","town":"KITAAIZUMACHI SHINZAIKE","perfecture_jp":"福島県","jp_add_1":"会津若松市","jp_add_2":"北会津町新在家"},"9696001":{"post_code":"9696001","prefecture":"FUKUSHIMA KEN","city":"AIZUWAKAMATSU SHI","town":"KITAAIZUMACHI TEMMAN","perfecture_jp":"福島県","jp_add_1":"会津若松市","jp_add_2":"北会津町天満"},"9696003":{"post_code":"9696003","prefecture":"FUKUSHIMA KEN","city":"AIZUWAKAMATSU SHI","town":"KITAAIZUMACHI NISHIASO","perfecture_jp":"福島県","jp_add_1":"会津若松市","jp_add_2":"北会津町西麻生"},"9696011":{"post_code":"9696011","prefecture":"FUKUSHIMA KEN","city":"AIZUWAKAMATSU SHI","town":"KITAAIZUMACHI NISHIGOAN","perfecture_jp":"福島県","jp_add_1":"会津若松市","jp_add_2":"北会津町西後庵"},"9696188":{"post_code":"9696188","prefecture":"FUKUSHIMA KEN","city":"AIZUWAKAMATSU SHI","town":"KITAAIZUMACHI HIGASHIKOMATSU","perfecture_jp":"福島県","jp_add_1":"会津若松市","jp_add_2":"北会津町東小松"},"9696004":{"post_code":"9696004","prefecture":"FUKUSHIMA KEN","city":"AIZUWAKAMATSU SHI","town":"KITAAIZUMACHI FURUASO","perfecture_jp":"福島県","jp_add_1":"会津若松市","jp_add_2":"北会津町古麻生"},"9696186":{"post_code":"9696186","prefecture":"FUKUSHIMA KEN","city":"AIZUWAKAMATSU SHI","town":"KITAAIZUMACHI FURUDATE","perfecture_jp":"福島県","jp_add_1":"会津若松市","jp_add_2":"北会津町古館"},"9696005":{"post_code":"9696005","prefecture":"FUKUSHIMA KEN","city":"AIZUWAKAMATSU SHI","town":"KITAAIZUMACHI MATSUNO","perfecture_jp":"福島県","jp_add_1":"会津若松市","jp_add_2":"北会津町松野"},"9696015":{"post_code":"9696015","prefecture":"FUKUSHIMA KEN","city":"AIZUWAKAMATSU SHI","town":"KITAAIZUMACHI MIZUKINOSATO","perfecture_jp":"福島県","jp_add_1":"会津若松市","jp_add_2":"北会津町水季の里"},"9696180":{"post_code":"9696180","prefecture":"FUKUSHIMA KEN","city":"AIZUWAKAMATSU SHI","town":"KITAAIZUMACHI RYODO","perfecture_jp":"福島県","jp_add_1":"会津若松市","jp_add_2":"北会津町両堂"},"9690301":{"post_code":"9690301","prefecture":"FUKUSHIMA KEN","city":"SHIRAKAWA SHI","town":"TAISHIN KAMISHINJO","perfecture_jp":"福島県","jp_add_1":"白河市","jp_add_2":"大信上新城"},"9690302":{"post_code":"9690302","prefecture":"FUKUSHIMA KEN","city":"SHIRAKAWA SHI","town":"TAISHIN KUMADO (SONOTA)","perfecture_jp":"福島県","jp_add_1":"白河市","jp_add_2":"大信隈戸"},"9690303":{"post_code":"9690303","prefecture":"FUKUSHIMA KEN","city":"SHIRAKAWA SHI","town":"TAISHIN SHIMOKOYA","perfecture_jp":"福島県","jp_add_1":"白河市","jp_add_2":"大信下小屋"},"9690304":{"post_code":"9690304","prefecture":"FUKUSHIMA KEN","city":"SHIRAKAWA SHI","town":"TAISHIN SHIMOSHINJO","perfecture_jp":"福島県","jp_add_1":"白河市","jp_add_2":"大信下新城"},"9690305":{"post_code":"9690305","prefecture":"FUKUSHIMA KEN","city":"SHIRAKAWA SHI","town":"TAISHIN DENENCHOFU","perfecture_jp":"福島県","jp_add_1":"白河市","jp_add_2":"大信田園町府"},"9690306":{"post_code":"9690306","prefecture":"FUKUSHIMA KEN","city":"SHIRAKAWA SHI","town":"TAISHIN TOYOCHI","perfecture_jp":"福島県","jp_add_1":"白河市","jp_add_2":"大信豊地"},"9690307":{"post_code":"9690307","prefecture":"FUKUSHIMA KEN","city":"SHIRAKAWA SHI","town":"TAISHIN NAKASHINJO","perfecture_jp":"福島県","jp_add_1":"白河市","jp_add_2":"大信中新城"},"9690308":{"post_code":"9690308","prefecture":"FUKUSHIMA KEN","city":"SHIRAKAWA SHI","town":"TAISHIN MASUMI","perfecture_jp":"福島県","jp_add_1":"白河市","jp_add_2":"大信増見"},"9690309":{"post_code":"9690309","prefecture":"FUKUSHIMA KEN","city":"SHIRAKAWA SHI","town":"TAISHIN MACHIYA","perfecture_jp":"福島県","jp_add_1":"白河市","jp_add_2":"大信町屋"},"9693538":{"post_code":"9693538","prefecture":"FUKUSHIMA KEN","city":"KITAKATA SHI","town":"SHIOKAWAMACHI AMANUMA","perfecture_jp":"福島県","jp_add_1":"喜多方市","jp_add_2":"塩川町天沼"},"9693514":{"post_code":"9693514","prefecture":"FUKUSHIMA KEN","city":"KITAKATA SHI","town":"SHIOKAWAMACHI ARAMACHI","perfecture_jp":"福島県","jp_add_1":"喜多方市","jp_add_2":"塩川町新町"},"9693523":{"post_code":"9693523","prefecture":"FUKUSHIMA KEN","city":"KITAKATA SHI","town":"SHIOKAWAMACHI SORICHO","perfecture_jp":"福島県","jp_add_1":"喜多方市","jp_add_2":"塩川町石橋"},"9693532":{"post_code":"9693532","prefecture":"FUKUSHIMA KEN","city":"KITAKATA SHI","town":"SHIOKAWAMACHI FUJINOKI","perfecture_jp":"福島県","jp_add_1":"喜多方市","jp_add_2":"塩川町大在家"},"9693536":{"post_code":"9693536","prefecture":"FUKUSHIMA KEN","city":"KITAKATA SHI","town":"SHIOKAWAMACHI OTAKI","perfecture_jp":"福島県","jp_add_1":"喜多方市","jp_add_2":"塩川町大田木"},"9693521":{"post_code":"9693521","prefecture":"FUKUSHIMA KEN","city":"KITAKATA SHI","town":"SHIOKAWAMACHI MIKAMI","perfecture_jp":"福島県","jp_add_1":"喜多方市","jp_add_2":"塩川町岡ノ前"},"9693535":{"post_code":"9693535","prefecture":"FUKUSHIMA KEN","city":"KITAKATA SHI","town":"SHIOKAWAMACHI KAICHI","perfecture_jp":"福島県","jp_add_1":"喜多方市","jp_add_2":"塩川町会知"},"9693505":{"post_code":"9693505","prefecture":"FUKUSHIMA KEN","city":"KITAKATA SHI","town":"SHIOKAWAMACHI KANAHASHI","perfecture_jp":"福島県","jp_add_1":"喜多方市","jp_add_2":"塩川町金橋"},"9693506":{"post_code":"9693506","prefecture":"FUKUSHIMA KEN","city":"KITAKATA SHI","town":"SHIOKAWAMACHI KUBO","perfecture_jp":"福島県","jp_add_1":"喜多方市","jp_add_2":"塩川町窪"},"9693539":{"post_code":"9693539","prefecture":"FUKUSHIMA KEN","city":"KITAKATA SHI","town":"SHIOKAWAMACHI YOSHIOKI","perfecture_jp":"福島県","jp_add_1":"喜多方市","jp_add_2":"塩川町源太屋敷"},"9693525":{"post_code":"9693525","prefecture":"FUKUSHIMA KEN","city":"KITAKATA SHI","town":"SHIOKAWAMACHI SUWAMAE","perfecture_jp":"福島県","jp_add_1":"喜多方市","jp_add_2":"塩川町黄金田"},"9693503":{"post_code":"9693503","prefecture":"FUKUSHIMA KEN","city":"KITAKATA SHI","town":"SHIOKAWAMACHI GOGO","perfecture_jp":"福島県","jp_add_1":"喜多方市","jp_add_2":"塩川町五合"},"9693527":{"post_code":"9693527","prefecture":"FUKUSHIMA KEN","city":"KITAKATA SHI","town":"SHIOKAWAMACHI GOTEMBA","perfecture_jp":"福島県","jp_add_1":"喜多方市","jp_add_2":"塩川町御殿場"},"9693537":{"post_code":"9693537","prefecture":"FUKUSHIMA KEN","city":"KITAKATA SHI","town":"SHIOKAWAMACHI SHINAGAWA","perfecture_jp":"福島県","jp_add_1":"喜多方市","jp_add_2":"塩川町四奈川"},"9693524":{"post_code":"9693524","prefecture":"FUKUSHIMA KEN","city":"KITAKATA SHI","town":"SHIOKAWAMACHI TATENOCHI","perfecture_jp":"福島県","jp_add_1":"喜多方市","jp_add_2":"塩川町清水岸"},"9693522":{"post_code":"9693522","prefecture":"FUKUSHIMA KEN","city":"KITAKATA SHI","town":"SHIOKAWAMACHI SHINCHO","perfecture_jp":"福島県","jp_add_1":"喜多方市","jp_add_2":"塩川町新丁"},"9693526":{"post_code":"9693526","prefecture":"FUKUSHIMA KEN","city":"KITAKATA SHI","town":"SHIOKAWAMACHI SUWACHO","perfecture_jp":"福島県","jp_add_1":"喜多方市","jp_add_2":"塩川町諏訪町"},"9693534":{"post_code":"9693534","prefecture":"FUKUSHIMA KEN","city":"KITAKATA SHI","town":"SHIOKAWAMACHI NISHINOSHINDEN","perfecture_jp":"福島県","jp_add_1":"喜多方市","jp_add_2":"塩川町遠田"},"9693502":{"post_code":"9693502","prefecture":"FUKUSHIMA KEN","city":"KITAKATA SHI","town":"SHIOKAWAMACHI TOKOYO","perfecture_jp":"福島県","jp_add_1":"喜多方市","jp_add_2":"塩川町常世"},"9693513":{"post_code":"9693513","prefecture":"FUKUSHIMA KEN","city":"KITAKATA SHI","town":"SHIOKAWAMACHI NAKAMACHI","perfecture_jp":"福島県","jp_add_1":"喜多方市","jp_add_2":"塩川町中町"},"9693504":{"post_code":"9693504","prefecture":"FUKUSHIMA KEN","city":"KITAKATA SHI","town":"SHIOKAWAMACHI NAKAYAZAWA","perfecture_jp":"福島県","jp_add_1":"喜多方市","jp_add_2":"塩川町中屋沢"},"9693531":{"post_code":"9693531","prefecture":"FUKUSHIMA KEN","city":"KITAKATA SHI","town":"SHIOKAWAMACHI NIIDAYAJI","perfecture_jp":"福島県","jp_add_1":"喜多方市","jp_add_2":"塩川町新井田谷地"},"9693533":{"post_code":"9693533","prefecture":"FUKUSHIMA KEN","city":"KITAKATA SHI","town":"SHIOKAWAMACHI NIEKI","perfecture_jp":"福島県","jp_add_1":"喜多方市","jp_add_2":"塩川町新江木"},"9693512":{"post_code":"9693512","prefecture":"FUKUSHIMA KEN","city":"KITAKATA SHI","town":"SHIOKAWAMACHI HIGASHISAKAEMACHI","perfecture_jp":"福島県","jp_add_1":"喜多方市","jp_add_2":"塩川町東栄町"},"9693511":{"post_code":"9693511","prefecture":"FUKUSHIMA KEN","city":"KITAKATA SHI","town":"SHIOKAWAMACHI MACHIKITA","perfecture_jp":"福島県","jp_add_1":"喜多方市","jp_add_2":"塩川町町北"},"9693501":{"post_code":"9693501","prefecture":"FUKUSHIMA KEN","city":"KITAKATA SHI","town":"SHIOKAWAMACHI MIYOSHI","perfecture_jp":"福島県","jp_add_1":"喜多方市","jp_add_2":"塩川町三吉"},"9693515":{"post_code":"9693515","prefecture":"FUKUSHIMA KEN","city":"KITAKATA SHI","town":"SHIOKAWAMACHI YONEZAWACHO","perfecture_jp":"福島県","jp_add_1":"喜多方市","jp_add_2":"塩川町米沢町"},"9694303":{"post_code":"9694303","prefecture":"FUKUSHIMA KEN","city":"KITAKATA SHI","town":"TAKASATOMACHI AGATSU","perfecture_jp":"福島県","jp_add_1":"喜多方市","jp_add_2":"高郷町揚津"},"9694312":{"post_code":"9694312","prefecture":"FUKUSHIMA KEN","city":"KITAKATA SHI","town":"TAKASATOMACHI IKENOHARA","perfecture_jp":"福島県","jp_add_1":"喜多方市","jp_add_2":"高郷町池ノ原"},"9694304":{"post_code":"9694304","prefecture":"FUKUSHIMA KEN","city":"KITAKATA SHI","town":"TAKASATOMACHI IWAMI","perfecture_jp":"福島県","jp_add_1":"喜多方市","jp_add_2":"高郷町磐見"},"9694316":{"post_code":"9694316","prefecture":"FUKUSHIMA KEN","city":"KITAKATA SHI","town":"TAKASATOMACHI OTAGA","perfecture_jp":"福島県","jp_add_1":"喜多方市","jp_add_2":"高郷町大田賀"},"9694301":{"post_code":"9694301","prefecture":"FUKUSHIMA KEN","city":"KITAKATA SHI","town":"TAKASATOMACHI KAMIGO","perfecture_jp":"福島県","jp_add_1":"喜多方市","jp_add_2":"高郷町上郷"},"9694314":{"post_code":"9694314","prefecture":"FUKUSHIMA KEN","city":"KITAKATA SHI","town":"TAKASATOMACHI KAWAI","perfecture_jp":"福島県","jp_add_1":"喜多方市","jp_add_2":"高郷町川井"},"9694313":{"post_code":"9694313","prefecture":"FUKUSHIMA KEN","city":"KITAKATA SHI","town":"TAKASATOMACHI SHIOTSUBO","perfecture_jp":"福島県","jp_add_1":"喜多方市","jp_add_2":"高郷町塩坪"},"9694315":{"post_code":"9694315","prefecture":"FUKUSHIMA KEN","city":"KITAKATA SHI","town":"TAKASATOMACHI NATSUI","perfecture_jp":"福島県","jp_add_1":"喜多方市","jp_add_2":"高郷町夏井"},"9694311":{"post_code":"9694311","prefecture":"FUKUSHIMA KEN","city":"KITAKATA SHI","town":"TAKASATOMACHI NISHIHAGA","perfecture_jp":"福島県","jp_add_1":"喜多方市","jp_add_2":"高郷町西羽賀"},"9694302":{"post_code":"9694302","prefecture":"FUKUSHIMA KEN","city":"KITAKATA SHI","town":"TAKASATOMACHI MINE","perfecture_jp":"福島県","jp_add_1":"喜多方市","jp_add_2":"高郷町峯"},"9694107":{"post_code":"9694107","prefecture":"FUKUSHIMA KEN","city":"KITAKATA SHI","town":"YAMATOMACHI AIKAWA","perfecture_jp":"福島県","jp_add_1":"喜多方市","jp_add_2":"山都町相川"},"9694106":{"post_code":"9694106","prefecture":"FUKUSHIMA KEN","city":"KITAKATA SHI","town":"YAMATOMACHI ASAKURA","perfecture_jp":"福島県","jp_add_1":"喜多方市","jp_add_2":"山都町朝倉"},"9694140":{"post_code":"9694140","prefecture":"FUKUSHIMA KEN","city":"KITAKATA SHI","town":"YAMATOMACHI ISHIUCHIBASHITA","perfecture_jp":"福島県","jp_add_1":"喜多方市","jp_add_2":"山都町石打場下"},"9694147":{"post_code":"9694147","prefecture":"FUKUSHIMA KEN","city":"KITAKATA SHI","town":"YAMATOMACHI ISHIBOTSUKO","perfecture_jp":"福島県","jp_add_1":"喜多方市","jp_add_2":"山都町石堀古"},"9694102":{"post_code":"9694102","prefecture":"FUKUSHIMA KEN","city":"KITAKATA SHI","town":"YAMATOMACHI ICHIKAWA","perfecture_jp":"福島県","jp_add_1":"喜多方市","jp_add_2":"山都町一川"},"9694108":{"post_code":"9694108","prefecture":"FUKUSHIMA KEN","city":"KITAKATA SHI","town":"YAMATOMACHI ICHINOKI","perfecture_jp":"福島県","jp_add_1":"喜多方市","jp_add_2":"山都町一ノ木"},"9694155":{"post_code":"9694155","prefecture":"FUKUSHIMA KEN","city":"KITAKATA SHI","town":"YAMATOMACHI IRIUMI","perfecture_jp":"福島県","jp_add_1":"喜多方市","jp_add_2":"山都町入海"},"9694148":{"post_code":"9694148","prefecture":"FUKUSHIMA KEN","city":"KITAKATA SHI","town":"YAMATOMACHI IWABUCHI","perfecture_jp":"福島県","jp_add_1":"喜多方市","jp_add_2":"山都町岩渕"},"9694113":{"post_code":"9694113","prefecture":"FUKUSHIMA KEN","city":"KITAKATA SHI","town":"YAMATOMACHI UENOHARAMICHINISHI","perfecture_jp":"福島県","jp_add_1":"喜多方市","jp_add_2":"山都町上ノ原道西"},"9694112":{"post_code":"9694112","prefecture":"FUKUSHIMA KEN","city":"KITAKATA SHI","town":"YAMATOMACHI UENOHARAMICHIHIGASHI","perfecture_jp":"福島県","jp_add_1":"喜多方市","jp_add_2":"山都町上ノ原道東"},"9694152":{"post_code":"9694152","prefecture":"FUKUSHIMA KEN","city":"KITAKATA SHI","town":"YAMATOMACHI UENOYAMATAIRA","perfecture_jp":"福島県","jp_add_1":"喜多方市","jp_add_2":"山都町上ノ山平"},"9694126":{"post_code":"9694126","prefecture":"FUKUSHIMA KEN","city":"KITAKATA SHI","town":"YAMATOMACHI UMAHANASHIBA","perfecture_jp":"福島県","jp_add_1":"喜多方市","jp_add_2":"山都町馬放場"},"9694119":{"post_code":"9694119","prefecture":"FUKUSHIMA KEN","city":"KITAKATA SHI","town":"YAMATOMACHI EDOTSUKA","perfecture_jp":"福島県","jp_add_1":"喜多方市","jp_add_2":"山都町江戸塚"},"9694121":{"post_code":"9694121","prefecture":"FUKUSHIMA KEN","city":"KITAKATA SHI","town":"YAMATOMACHI OTA","perfecture_jp":"福島県","jp_add_1":"喜多方市","jp_add_2":"山都町太田"},"9694167":{"post_code":"9694167","prefecture":"FUKUSHIMA KEN","city":"KITAKATA SHI","town":"YAMATOMACHI OBAYASHI","perfecture_jp":"福島県","jp_add_1":"喜多方市","jp_add_2":"山都町大林"},"9694151":{"post_code":"9694151","prefecture":"FUKUSHIMA KEN","city":"KITAKATA SHI","town":"YAMATOMACHI OYAMANAKA","perfecture_jp":"福島県","jp_add_1":"喜多方市","jp_add_2":"山都町大山中"},"9694164":{"post_code":"9694164","prefecture":"FUKUSHIMA KEN","city":"KITAKATA SHI","town":"YAMATOMACHI KAMIISHIUCHIBA","perfecture_jp":"福島県","jp_add_1":"喜多方市","jp_add_2":"山都町上石打場"},"9694162":{"post_code":"9694162","prefecture":"FUKUSHIMA KEN","city":"KITAKATA SHI","town":"YAMATOMACHI KAMISHINDEN","perfecture_jp":"福島県","jp_add_1":"喜多方市","jp_add_2":"山都町上新田"},"9694122":{"post_code":"9694122","prefecture":"FUKUSHIMA KEN","city":"KITAKATA SHI","town":"YAMATOMACHI KISO","perfecture_jp":"福島県","jp_add_1":"喜多方市","jp_add_2":"山都町木曽"},"9694139":{"post_code":"9694139","prefecture":"FUKUSHIMA KEN","city":"KITAKATA SHI","town":"YAMATOMACHI KITAMATSUNOMAE","perfecture_jp":"福島県","jp_add_1":"喜多方市","jp_add_2":"山都町北松ノ前"},"9694127":{"post_code":"9694127","prefecture":"FUKUSHIMA KEN","city":"KITAKATA SHI","town":"YAMATOMACHI KUYABANA","perfecture_jp":"福島県","jp_add_1":"喜多方市","jp_add_2":"山都町久祢花"},"9694111":{"post_code":"9694111","prefecture":"FUKUSHIMA KEN","city":"KITAKATA SHI","town":"YAMATOMACHI KURANOSHIRO","perfecture_jp":"福島県","jp_add_1":"喜多方市","jp_add_2":"山都町蔵ノ後"},"9694115":{"post_code":"9694115","prefecture":"FUKUSHIMA KEN","city":"KITAKATA SHI","town":"YAMATOMACHI GOJUKARI","perfecture_jp":"福島県","jp_add_1":"喜多方市","jp_add_2":"山都町五十苅"},"9694103":{"post_code":"9694103","prefecture":"FUKUSHIMA KEN","city":"KITAKATA SHI","town":"YAMATOMACHI KOHATA","perfecture_jp":"福島県","jp_add_1":"喜多方市","jp_add_2":"山都町木幡"},"9694101":{"post_code":"9694101","prefecture":"FUKUSHIMA KEN","city":"KITAKATA SHI","town":"YAMATOMACHI KOFUNAJI","perfecture_jp":"福島県","jp_add_1":"喜多方市","jp_add_2":"山都町小舟寺"},"9694157":{"post_code":"9694157","prefecture":"FUKUSHIMA KEN","city":"KITAKATA SHI","town":"YAMATOMACHI KOMATSU","perfecture_jp":"福島県","jp_add_1":"喜多方市","jp_add_2":"山都町小松"},"9694114":{"post_code":"9694114","prefecture":"FUKUSHIMA KEN","city":"KITAKATA SHI","town":"YAMATOMACHI KOYAMA","perfecture_jp":"福島県","jp_add_1":"喜多方市","jp_add_2":"山都町小山"},"9694166":{"post_code":"9694166","prefecture":"FUKUSHIMA KEN","city":"KITAKATA SHI","town":"YAMATOMACHI SAWAJIRI","perfecture_jp":"福島県","jp_add_1":"喜多方市","jp_add_2":"山都町沢尻"},"9694143":{"post_code":"9694143","prefecture":"FUKUSHIMA KEN","city":"KITAKATA SHI","town":"YAMATOMACHI SAWATA","perfecture_jp":"福島県","jp_add_1":"喜多方市","jp_add_2":"山都町沢田"},"9694132":{"post_code":"9694132","prefecture":"FUKUSHIMA KEN","city":"KITAKATA SHI","town":"YAMATOMACHI SANNOMIYA","perfecture_jp":"福島県","jp_add_1":"喜多方市","jp_add_2":"山都町三ノ宮"},"9694116":{"post_code":"9694116","prefecture":"FUKUSHIMA KEN","city":"KITAKATA SHI","town":"YAMATOMACHI SHIMIZUE","perfecture_jp":"福島県","jp_add_1":"喜多方市","jp_add_2":"山都町清水上"},"9694117":{"post_code":"9694117","prefecture":"FUKUSHIMA KEN","city":"KITAKATA SHI","town":"YAMATOMACHI SHIMIZUJIRI","perfecture_jp":"福島県","jp_add_1":"喜多方市","jp_add_2":"山都町清水尻"},"9694163":{"post_code":"9694163","prefecture":"FUKUSHIMA KEN","city":"KITAKATA SHI","town":"YAMATOMACHI SHIMOISHIUCHIBA","perfecture_jp":"福島県","jp_add_1":"喜多方市","jp_add_2":"山都町下石打場"},"9694153":{"post_code":"9694153","prefecture":"FUKUSHIMA KEN","city":"KITAKATA SHI","town":"YAMATOMACHI SHIMOTONOTO","perfecture_jp":"福島県","jp_add_1":"喜多方市","jp_add_2":"山都町下殿戸"},"9694138":{"post_code":"9694138","prefecture":"FUKUSHIMA KEN","city":"KITAKATA SHI","town":"YAMATOMACHI JAKUZURE","perfecture_jp":"福島県","jp_add_1":"喜多方市","jp_add_2":"山都町蛇崩"},"9694154":{"post_code":"9694154","prefecture":"FUKUSHIMA KEN","city":"KITAKATA SHI","town":"YAMATOMACHI TATENOHARA","perfecture_jp":"福島県","jp_add_1":"喜多方市","jp_add_2":"山都町舘原"},"9694141":{"post_code":"9694141","prefecture":"FUKUSHIMA KEN","city":"KITAKATA SHI","town":"YAMATOMACHI TAMUKAI","perfecture_jp":"福島県","jp_add_1":"喜多方市","jp_add_2":"山都町田向"},"9694144":{"post_code":"9694144","prefecture":"FUKUSHIMA KEN","city":"KITAKATA SHI","town":"YAMATOMACHI TONOTO","perfecture_jp":"福島県","jp_add_1":"喜多方市","jp_add_2":"山都町殿戸"},"9694161":{"post_code":"9694161","prefecture":"FUKUSHIMA KEN","city":"KITAKATA SHI","town":"YAMATOMACHI NAKAISHIUCHIBA","perfecture_jp":"福島県","jp_add_1":"喜多方市","jp_add_2":"山都町中石打場"},"9694123":{"post_code":"9694123","prefecture":"FUKUSHIMA KEN","city":"KITAKATA SHI","town":"YAMATOMACHI NAKASHINDEN","perfecture_jp":"福島県","jp_add_1":"喜多方市","jp_add_2":"山都町中新田"},"9694137":{"post_code":"9694137","prefecture":"FUKUSHIMA KEN","city":"KITAKATA SHI","town":"YAMATOMACHI NAKANO","perfecture_jp":"福島県","jp_add_1":"喜多方市","jp_add_2":"山都町中野"},"9694142":{"post_code":"9694142","prefecture":"FUKUSHIMA KEN","city":"KITAKATA SHI","town":"YAMATOMACHI NANAJUGARI","perfecture_jp":"福島県","jp_add_1":"喜多方市","jp_add_2":"山都町七十苅"},"9694156":{"post_code":"9694156","prefecture":"FUKUSHIMA KEN","city":"KITAKATA SHI","town":"YAMATOMACHI NISHIKAWA","perfecture_jp":"福島県","jp_add_1":"喜多方市","jp_add_2":"山都町西川"},"9694145":{"post_code":"9694145","prefecture":"FUKUSHIMA KEN","city":"KITAKATA SHI","town":"YAMATOMACHI NISHIHARA","perfecture_jp":"福島県","jp_add_1":"喜多方市","jp_add_2":"山都町西原"},"9694124":{"post_code":"9694124","prefecture":"FUKUSHIMA KEN","city":"KITAKATA SHI","town":"YAMATOMACHI HAKANOATO","perfecture_jp":"福島県","jp_add_1":"喜多方市","jp_add_2":"山都町墓ノ後"},"9694146":{"post_code":"9694146","prefecture":"FUKUSHIMA KEN","city":"KITAKATA SHI","town":"YAMATOMACHI HIROKOYASHIKI","perfecture_jp":"福島県","jp_add_1":"喜多方市","jp_add_2":"山都町広古屋敷"},"9694135":{"post_code":"9694135","prefecture":"FUKUSHIMA KEN","city":"KITAKATA SHI","town":"YAMATOMACHI HIRONAKASHINDEN","perfecture_jp":"福島県","jp_add_1":"喜多方市","jp_add_2":"山都町広中新田"},"9694131":{"post_code":"9694131","prefecture":"FUKUSHIMA KEN","city":"KITAKATA SHI","town":"YAMATOMACHI HIRONO","perfecture_jp":"福島県","jp_add_1":"喜多方市","jp_add_2":"山都町広野"},"9694133":{"post_code":"9694133","prefecture":"FUKUSHIMA KEN","city":"KITAKATA SHI","town":"YAMATOMACHI HIROMUKURODA","perfecture_jp":"福島県","jp_add_1":"喜多方市","jp_add_2":"山都町広葎田"},"9694118":{"post_code":"9694118","prefecture":"FUKUSHIMA KEN","city":"KITAKATA SHI","town":"YAMATOMACHI FURUYASHIKI","perfecture_jp":"福島県","jp_add_1":"喜多方市","jp_add_2":"山都町古屋敷"},"9694104":{"post_code":"9694104","prefecture":"FUKUSHIMA KEN","city":"KITAKATA SHI","town":"YAMATOMACHI HORAI","perfecture_jp":"福島県","jp_add_1":"喜多方市","jp_add_2":"山都町蓬莱"},"9694136":{"post_code":"9694136","prefecture":"FUKUSHIMA KEN","city":"KITAKATA SHI","town":"YAMATOMACHI MACHIJIRI","perfecture_jp":"福島県","jp_add_1":"喜多方市","jp_add_2":"山都町町尻"},"9694105":{"post_code":"9694105","prefecture":"FUKUSHIMA KEN","city":"KITAKATA SHI","town":"YAMATOMACHI MITSUAI","perfecture_jp":"福島県","jp_add_1":"喜多方市","jp_add_2":"山都町三津合"},"9694165":{"post_code":"9694165","prefecture":"FUKUSHIMA KEN","city":"KITAKATA SHI","town":"YAMATOMACHI MITSUYAMA","perfecture_jp":"福島県","jp_add_1":"喜多方市","jp_add_2":"山都町三ツ山"},"9694134":{"post_code":"9694134","prefecture":"FUKUSHIMA KEN","city":"KITAKATA SHI","town":"YAMATOMACHI MUKURODA","perfecture_jp":"福島県","jp_add_1":"喜多方市","jp_add_2":"山都町葎田"},"9694125":{"post_code":"9694125","prefecture":"FUKUSHIMA KEN","city":"KITAKATA SHI","town":"YAMATOMACHI YAZAEMONDEN","perfecture_jp":"福島県","jp_add_1":"喜多方市","jp_add_2":"山都町弥左エ門田"},"9694149":{"post_code":"9694149","prefecture":"FUKUSHIMA KEN","city":"KITAKATA SHI","town":"YAMATOMACHI YACHI","perfecture_jp":"福島県","jp_add_1":"喜多方市","jp_add_2":"山都町谷地"},"9694109":{"post_code":"9694109","prefecture":"FUKUSHIMA KEN","city":"KITAKATA SHI","town":"YAMATOMACHI WASETANI","perfecture_jp":"福島県","jp_add_1":"喜多方市","jp_add_2":"山都町早稲谷"},"9691513":{"post_code":"9691513","prefecture":"FUKUSHIMA KEN","city":"NIHOMMATSU SHI","town":"OZAWA","perfecture_jp":"福島県","jp_add_1":"二本松市","jp_add_2":"小沢"},"9691512":{"post_code":"9691512","prefecture":"FUKUSHIMA KEN","city":"NIHOMMATSU SHI","town":"KAMIKAWASAKI","perfecture_jp":"福島県","jp_add_1":"二本松市","jp_add_2":"上川崎"},"9691403":{"post_code":"9691403","prefecture":"FUKUSHIMA KEN","city":"NIHOMMATSU SHI","town":"SHIBUKAWA","perfecture_jp":"福島県","jp_add_1":"二本松市","jp_add_2":"渋川"},"9691511":{"post_code":"9691511","prefecture":"FUKUSHIMA KEN","city":"NIHOMMATSU SHI","town":"SHIMOKAWASAKI","perfecture_jp":"福島県","jp_add_1":"二本松市","jp_add_2":"下川崎"},"9691405":{"post_code":"9691405","prefecture":"FUKUSHIMA KEN","city":"NIHOMMATSU SHI","town":"CHIEKONOMORI","perfecture_jp":"福島県","jp_add_1":"二本松市","jp_add_2":"智恵子の森"},"9691404":{"post_code":"9691404","prefecture":"FUKUSHIMA KEN","city":"NIHOMMATSU SHI","town":"YUI","perfecture_jp":"福島県","jp_add_1":"二本松市","jp_add_2":"油井"},"9691401":{"post_code":"9691401","prefecture":"FUKUSHIMA KEN","city":"NIHOMMATSU SHI","town":"YOSHIKURA","perfecture_jp":"福島県","jp_add_1":"二本松市","jp_add_2":"吉倉"},"9691402":{"post_code":"9691402","prefecture":"FUKUSHIMA KEN","city":"NIHOMMATSU SHI","town":"YONAZAWA","perfecture_jp":"福島県","jp_add_1":"二本松市","jp_add_2":"米沢"},"9691100":{"post_code":"9691100","prefecture":"FUKUSHIMA KEN","city":"MOTOMIYA SHI","town":"IKANIKEISAIGANAIBAAI","perfecture_jp":"福島県","jp_add_1":"本宮市","jp_add_2":""},"9691107":{"post_code":"9691107","prefecture":"FUKUSHIMA KEN","city":"MOTOMIYA SHI","town":"AOTA","perfecture_jp":"福島県","jp_add_1":"本宮市","jp_add_2":"青田"},"9691104":{"post_code":"9691104","prefecture":"FUKUSHIMA KEN","city":"MOTOMIYA SHI","town":"ARAI","perfecture_jp":"福島県","jp_add_1":"本宮市","jp_add_2":"荒井"},"9691201":{"post_code":"9691201","prefecture":"FUKUSHIMA KEN","city":"MOTOMIYA SHI","town":"INAZAWA","perfecture_jp":"福島県","jp_add_1":"本宮市","jp_add_2":"稲沢"},"9691106":{"post_code":"9691106","prefecture":"FUKUSHIMA KEN","city":"MOTOMIYA SHI","town":"IWANE","perfecture_jp":"福島県","jp_add_1":"本宮市","jp_add_2":"岩根"},"9691203":{"post_code":"9691203","prefecture":"FUKUSHIMA KEN","city":"MOTOMIYA SHI","town":"SHIRAIWA","perfecture_jp":"福島県","jp_add_1":"本宮市","jp_add_2":"白岩"},"9691105":{"post_code":"9691105","prefecture":"FUKUSHIMA KEN","city":"MOTOMIYA SHI","town":"SEKISHITA","perfecture_jp":"福島県","jp_add_1":"本宮市","jp_add_2":"関下"},"9691101":{"post_code":"9691101","prefecture":"FUKUSHIMA KEN","city":"MOTOMIYA SHI","town":"TAKAGI","perfecture_jp":"福島県","jp_add_1":"本宮市","jp_add_2":"高木"},"9691206":{"post_code":"9691206","prefecture":"FUKUSHIMA KEN","city":"MOTOMIYA SHI","town":"NAGAYA","perfecture_jp":"福島県","jp_add_1":"本宮市","jp_add_2":"長屋"},"9691103":{"post_code":"9691103","prefecture":"FUKUSHIMA KEN","city":"MOTOMIYA SHI","town":"NIITA","perfecture_jp":"福島県","jp_add_1":"本宮市","jp_add_2":"仁井田"},"9691204":{"post_code":"9691204","prefecture":"FUKUSHIMA KEN","city":"MOTOMIYA SHI","town":"NUKAZAWA","perfecture_jp":"福島県","jp_add_1":"本宮市","jp_add_2":"糠沢"},"9691202":{"post_code":"9691202","prefecture":"FUKUSHIMA KEN","city":"MOTOMIYA SHI","town":"MATSUZAWA","perfecture_jp":"福島県","jp_add_1":"本宮市","jp_add_2":"松沢"},"9691176":{"post_code":"9691176","prefecture":"FUKUSHIMA KEN","city":"MOTOMIYA SHI","town":"MOTOMIYA JIZODO","perfecture_jp":"福島県","jp_add_1":"本宮市","jp_add_2":"本宮赤坂"},"9691158":{"post_code":"9691158","prefecture":"FUKUSHIMA KEN","city":"MOTOMIYA SHI","town":"MOTOMIYA HIRAI","perfecture_jp":"福島県","jp_add_1":"本宮市","jp_add_2":"本宮天ヶ"},"9691125":{"post_code":"9691125","prefecture":"FUKUSHIMA KEN","city":"MOTOMIYA SHI","town":"MOTOMIYA ARAMACHI","perfecture_jp":"福島県","jp_add_1":"本宮市","jp_add_2":"本宮荒町"},"9691139":{"post_code":"9691139","prefecture":"FUKUSHIMA KEN","city":"MOTOMIYA SHI","town":"MOTOMIYA ISHIZUKA","perfecture_jp":"福島県","jp_add_1":"本宮市","jp_add_2":"本宮石塚"},"9691112":{"post_code":"9691112","prefecture":"FUKUSHIMA KEN","city":"MOTOMIYA SHI","town":"MOTOMIYA OENOKI","perfecture_jp":"福島県","jp_add_1":"本宮市","jp_add_2":"本宮大榎"},"9691166":{"post_code":"9691166","prefecture":"FUKUSHIMA KEN","city":"MOTOMIYA SHI","town":"MOTOMIYA OMIUCHI","perfecture_jp":"福島県","jp_add_1":"本宮市","jp_add_2":"本宮近江内"},"9691144":{"post_code":"9691144","prefecture":"FUKUSHIMA KEN","city":"MOTOMIYA SHI","town":"MOTOMIYA OMORI","perfecture_jp":"福島県","jp_add_1":"本宮市","jp_add_2":"本宮大森"},"9691159":{"post_code":"9691159","prefecture":"FUKUSHIMA KEN","city":"MOTOMIYA SHI","town":"MOTOMIYA HIROMACHI","perfecture_jp":"福島県","jp_add_1":"本宮市","jp_add_2":"本宮小幡"},"9691161":{"post_code":"9691161","prefecture":"FUKUSHIMA KEN","city":"MOTOMIYA SHI","town":"MOTOMIYA GAKESHITA","perfecture_jp":"福島県","jp_add_1":"本宮市","jp_add_2":"本宮欠下"},"9691129":{"post_code":"9691129","prefecture":"FUKUSHIMA KEN","city":"MOTOMIYA SHI","town":"MOTOMIYA YARAI","perfecture_jp":"福島県","jp_add_1":"本宮市","jp_add_2":"本宮鍛冶免"},"9691141":{"post_code":"9691141","prefecture":"FUKUSHIMA KEN","city":"MOTOMIYA SHI","town":"MOTOMIYA KANAYA","perfecture_jp":"福島県","jp_add_1":"本宮市","jp_add_2":"本宮兼谷"},"9691142":{"post_code":"9691142","prefecture":"FUKUSHIMA KEN","city":"MOTOMIYA SHI","town":"MOTOMIYA KANAYADAIRA","perfecture_jp":"福島県","jp_add_1":"本宮市","jp_add_2":"本宮兼谷平"},"9691117":{"post_code":"9691117","prefecture":"FUKUSHIMA KEN","city":"MOTOMIYA SHI","town":"MOTOMIYA KANOKODA","perfecture_jp":"福島県","jp_add_1":"本宮市","jp_add_2":"本宮鹿ノ子田"},"9691152":{"post_code":"9691152","prefecture":"FUKUSHIMA KEN","city":"MOTOMIYA SHI","town":"MOTOMIYA SENZOKU","perfecture_jp":"福島県","jp_add_1":"本宮市","jp_add_2":"本宮上千束"},"9691134":{"post_code":"9691134","prefecture":"FUKUSHIMA KEN","city":"MOTOMIYA SHI","town":"MOTOMIYA KAMIMACHI","perfecture_jp":"福島県","jp_add_1":"本宮市","jp_add_2":"本宮上町"},"9691155":{"post_code":"9691155","prefecture":"FUKUSHIMA KEN","city":"MOTOMIYA SHI","town":"MOTOMIYA BUTAI","perfecture_jp":"福島県","jp_add_1":"本宮市","jp_add_2":"本宮懸鉄"},"9691162":{"post_code":"9691162","prefecture":"FUKUSHIMA KEN","city":"MOTOMIYA SHI","town":"MOTOMIYA MINAMIKAWAHARADA","perfecture_jp":"福島県","jp_add_1":"本宮市","jp_add_2":"本宮北川原田"},"9691172":{"post_code":"9691172","prefecture":"FUKUSHIMA KEN","city":"MOTOMIYA SHI","town":"MOTOMIYA KITANOCHI","perfecture_jp":"福島県","jp_add_1":"本宮市","jp_add_2":"本宮北ノ内"},"9691167":{"post_code":"9691167","prefecture":"FUKUSHIMA KEN","city":"MOTOMIYA SHI","town":"MOTOMIYA DOYASHIKI","perfecture_jp":"福島県","jp_add_1":"本宮市","jp_add_2":"本宮北山神"},"9691136":{"post_code":"9691136","prefecture":"FUKUSHIMA KEN","city":"MOTOMIYA SHI","town":"MOTOMIYA KUNAWA","perfecture_jp":"福島県","jp_add_1":"本宮市","jp_add_2":"本宮九縄"},"9691169":{"post_code":"9691169","prefecture":"FUKUSHIMA KEN","city":"MOTOMIYA SHI","town":"MOTOMIYA KOHARADA","perfecture_jp":"福島県","jp_add_1":"本宮市","jp_add_2":"本宮小原田"},"9691148":{"post_code":"9691148","prefecture":"FUKUSHIMA KEN","city":"MOTOMIYA SHI","town":"MOTOMIYA SAKAEDA","perfecture_jp":"福島県","jp_add_1":"本宮市","jp_add_2":"本宮栄田"},"9691111":{"post_code":"9691111","prefecture":"FUKUSHIMA KEN","city":"MOTOMIYA SHI","town":"MOTOMIYA SAKUTADAI","perfecture_jp":"福島県","jp_add_1":"本宮市","jp_add_2":"本宮作田"},"9691154":{"post_code":"9691154","prefecture":"FUKUSHIMA KEN","city":"MOTOMIYA SHI","town":"MOTOMIYA SHIODA","perfecture_jp":"福島県","jp_add_1":"本宮市","jp_add_2":"本宮塩田"},"9691153":{"post_code":"9691153","prefecture":"FUKUSHIMA KEN","city":"MOTOMIYA SHI","town":"MOTOMIYA SHIODAIRI","perfecture_jp":"福島県","jp_add_1":"本宮市","jp_add_2":"本宮塩田入"},"9691118":{"post_code":"9691118","prefecture":"FUKUSHIMA KEN","city":"MOTOMIYA SHI","town":"MOTOMIYA SHIMODAI","perfecture_jp":"福島県","jp_add_1":"本宮市","jp_add_2":"本宮下台"},"9691132":{"post_code":"9691132","prefecture":"FUKUSHIMA KEN","city":"MOTOMIYA SHI","town":"MOTOMIYA SHIMOMACHI","perfecture_jp":"福島県","jp_add_1":"本宮市","jp_add_2":"本宮下町"},"9691163":{"post_code":"9691163","prefecture":"FUKUSHIMA KEN","city":"MOTOMIYA SHI","town":"MOTOMIYA SHIRAKAWA","perfecture_jp":"福島県","jp_add_1":"本宮市","jp_add_2":"本宮白川"},"9691156":{"post_code":"9691156","prefecture":"FUKUSHIMA KEN","city":"MOTOMIYA SHI","town":"MOTOMIYA NABETA","perfecture_jp":"福島県","jp_add_1":"本宮市","jp_add_2":"本宮諏訪"},"9691114":{"post_code":"9691114","prefecture":"FUKUSHIMA KEN","city":"MOTOMIYA SHI","town":"MOTOMIYA SEKINE","perfecture_jp":"福島県","jp_add_1":"本宮市","jp_add_2":"本宮関根"},"9691157":{"post_code":"9691157","prefecture":"FUKUSHIMA KEN","city":"MOTOMIYA SHI","town":"MOTOMIYA TANAKA","perfecture_jp":"福島県","jp_add_1":"本宮市","jp_add_2":"本宮瀬樋内"},"9691122":{"post_code":"9691122","prefecture":"FUKUSHIMA KEN","city":"MOTOMIYA SHI","town":"MOTOMIYA DAIMACHI","perfecture_jp":"福島県","jp_add_1":"本宮市","jp_add_2":"本宮大町"},"9691175":{"post_code":"9691175","prefecture":"FUKUSHIMA KEN","city":"MOTOMIYA SHI","town":"MOTOMIYA NAGOWAKI","perfecture_jp":"福島県","jp_add_1":"本宮市","jp_add_2":"本宮竹花"},"9691115":{"post_code":"9691115","prefecture":"FUKUSHIMA KEN","city":"MOTOMIYA SHI","town":"MOTOMIYA TATEISHI","perfecture_jp":"福島県","jp_add_1":"本宮市","jp_add_2":"本宮立石"},"9691121":{"post_code":"9691121","prefecture":"FUKUSHIMA KEN","city":"MOTOMIYA SHI","town":"MOTOMIYA TATENOKOSHI","perfecture_jp":"福島県","jp_add_1":"本宮市","jp_add_2":"本宮舘ノ越"},"9691128":{"post_code":"9691128","prefecture":"FUKUSHIMA KEN","city":"MOTOMIYA SHI","town":"MOTOMIYA TATEMACHI","perfecture_jp":"福島県","jp_add_1":"本宮市","jp_add_2":"本宮舘町"},"9691137":{"post_code":"9691137","prefecture":"FUKUSHIMA KEN","city":"MOTOMIYA SHI","town":"MOTOMIYA TAROMARU","perfecture_jp":"福島県","jp_add_1":"本宮市","jp_add_2":"本宮太郎丸"},"9691151":{"post_code":"9691151","prefecture":"FUKUSHIMA KEN","city":"MOTOMIYA SHI","town":"MOTOMIYA CHIYODA","perfecture_jp":"福島県","jp_add_1":"本宮市","jp_add_2":"本宮千代田"},"9691135":{"post_code":"9691135","prefecture":"FUKUSHIMA KEN","city":"MOTOMIYA SHI","town":"MOTOMIYA HIRUTA","perfecture_jp":"福島県","jp_add_1":"本宮市","jp_add_2":"本宮土樋"},"9691127":{"post_code":"9691127","prefecture":"FUKUSHIMA KEN","city":"MOTOMIYA SHI","town":"MOTOMIYA TEPPOMACHI","perfecture_jp":"福島県","jp_add_1":"本宮市","jp_add_2":"本宮鉄砲町"},"9691171":{"post_code":"9691171","prefecture":"FUKUSHIMA KEN","city":"MOTOMIYA SHI","town":"MOTOMIYA TOINOKUCHI","perfecture_jp":"福島県","jp_add_1":"本宮市","jp_add_2":"本宮樋ノ口"},"9691164":{"post_code":"9691164","prefecture":"FUKUSHIMA KEN","city":"MOTOMIYA SHI","town":"MOTOMIYA TOSAKI","perfecture_jp":"福島県","jp_add_1":"本宮市","jp_add_2":"本宮戸崎"},"9691109":{"post_code":"9691109","prefecture":"FUKUSHIMA KEN","city":"MOTOMIYA SHI","town":"MOTOMIYA TOMIGAMINE","perfecture_jp":"福島県","jp_add_1":"本宮市","jp_add_2":"本宮富ヶ峰"},"9691133":{"post_code":"9691133","prefecture":"FUKUSHIMA KEN","city":"MOTOMIYA SHI","town":"MOTOMIYA NAKAJO","perfecture_jp":"福島県","jp_add_1":"本宮市","jp_add_2":"本宮中條"},"9691165":{"post_code":"9691165","prefecture":"FUKUSHIMA KEN","city":"MOTOMIYA SHI","town":"MOTOMIYA NAKADAI","perfecture_jp":"福島県","jp_add_1":"本宮市","jp_add_2":"本宮中台"},"9691173":{"post_code":"9691173","prefecture":"FUKUSHIMA KEN","city":"MOTOMIYA SHI","town":"MOTOMIYA NAKANOSHIRO","perfecture_jp":"福島県","jp_add_1":"本宮市","jp_add_2":"本宮中野"},"9691124":{"post_code":"9691124","prefecture":"FUKUSHIMA KEN","city":"MOTOMIYA SHI","town":"MOTOMIYA NAKAMACHI","perfecture_jp":"福島県","jp_add_1":"本宮市","jp_add_2":"本宮仲町"},"9691138":{"post_code":"9691138","prefecture":"FUKUSHIMA KEN","city":"MOTOMIYA SHI","town":"MOTOMIYA NARUSE","perfecture_jp":"福島県","jp_add_1":"本宮市","jp_add_2":"本宮鳴瀬"},"9691147":{"post_code":"9691147","prefecture":"FUKUSHIMA KEN","city":"MOTOMIYA SHI","town":"MOTOMIYA HANAMACHI","perfecture_jp":"福島県","jp_add_1":"本宮市","jp_add_2":"本宮花町"},"9691126":{"post_code":"9691126","prefecture":"FUKUSHIMA KEN","city":"MOTOMIYA SHI","town":"MOTOMIYA BABA","perfecture_jp":"福島県","jp_add_1":"本宮市","jp_add_2":"本宮馬場"},"9691149":{"post_code":"9691149","prefecture":"FUKUSHIMA KEN","city":"MOTOMIYA SHI","town":"MOTOMIYA BANSEI","perfecture_jp":"福島県","jp_add_1":"本宮市","jp_add_2":"本宮万世"},"9691123":{"post_code":"9691123","prefecture":"FUKUSHIMA KEN","city":"MOTOMIYA SHI","town":"MOTOMIYA HIGASHIMACHIURA","perfecture_jp":"福島県","jp_add_1":"本宮市","jp_add_2":"本宮東町"},"9691168":{"post_code":"9691168","prefecture":"FUKUSHIMA KEN","city":"MOTOMIYA SHI","town":"MOTOMIYA HITOTSUYA","perfecture_jp":"福島県","jp_add_1":"本宮市","jp_add_2":"本宮一ッ屋"},"9691116":{"post_code":"9691116","prefecture":"FUKUSHIMA KEN","city":"MOTOMIYA SHI","town":"MOTOMIYA BENTEN","perfecture_jp":"福島県","jp_add_1":"本宮市","jp_add_2":"本宮弁天"},"9691113":{"post_code":"9691113","prefecture":"FUKUSHIMA KEN","city":"MOTOMIYA SHI","town":"MOTOMIYA BOYASHIKI","perfecture_jp":"福島県","jp_add_1":"本宮市","jp_add_2":"本宮坊屋敷"},"9691108":{"post_code":"9691108","prefecture":"FUKUSHIMA KEN","city":"MOTOMIYA SHI","town":"MOTOMIYA HOKKIRI","perfecture_jp":"福島県","jp_add_1":"本宮市","jp_add_2":"本宮堀切"},"9691174":{"post_code":"9691174","prefecture":"FUKUSHIMA KEN","city":"MOTOMIYA SHI","town":"MOTOMIYA MINAMINOCHI","perfecture_jp":"福島県","jp_add_1":"本宮市","jp_add_2":"本宮南ノ内"},"9691131":{"post_code":"9691131","prefecture":"FUKUSHIMA KEN","city":"MOTOMIYA SHI","town":"MOTOMIYA MINAMIMACHIURA","perfecture_jp":"福島県","jp_add_1":"本宮市","jp_add_2":"本宮南町裡"},"9691146":{"post_code":"9691146","prefecture":"FUKUSHIMA KEN","city":"MOTOMIYA SHI","town":"MOTOMIYA MINAMIYAMAKAMI","perfecture_jp":"福島県","jp_add_1":"本宮市","jp_add_2":"本宮南山神"},"9691119":{"post_code":"9691119","prefecture":"FUKUSHIMA KEN","city":"MOTOMIYA SHI","town":"MOTOMIYA YANAGINOCHI","perfecture_jp":"福島県","jp_add_1":"本宮市","jp_add_2":"本宮柳ノ内"},"9691143":{"post_code":"9691143","prefecture":"FUKUSHIMA KEN","city":"MOTOMIYA SHI","town":"MOTOMIYA YAMADA","perfecture_jp":"福島県","jp_add_1":"本宮市","jp_add_2":"本宮山田"},"9691145":{"post_code":"9691145","prefecture":"FUKUSHIMA KEN","city":"MOTOMIYA SHI","town":"MOTOMIYA YOSHIGAIRI","perfecture_jp":"福島県","jp_add_1":"本宮市","jp_add_2":"本宮葭ヶ入"},"9691205":{"post_code":"9691205","prefecture":"FUKUSHIMA KEN","city":"MOTOMIYA SHI","town":"WADA","perfecture_jp":"福島県","jp_add_1":"本宮市","jp_add_2":"和田"},"9691600":{"post_code":"9691600","prefecture":"FUKUSHIMA KEN","city":"DATE GUN KORI MACHI","town":"IKANIKEISAIGANAIBAAI","perfecture_jp":"福島県","jp_add_1":"伊達郡桑折町","jp_add_2":""},"9691633":{"post_code":"9691633","prefecture":"FUKUSHIMA KEN","city":"DATE GUN KORI MACHI","town":"SAKAI","perfecture_jp":"福島県","jp_add_1":"伊達郡桑折町","jp_add_2":"赤坂"},"9691603":{"post_code":"9691603","prefecture":"FUKUSHIMA KEN","city":"DATE GUN KORI MACHI","town":"UWAMACHI","perfecture_jp":"福島県","jp_add_1":"伊達郡桑折町","jp_add_2":"上町"},"9691623":{"post_code":"9691623","prefecture":"FUKUSHIMA KEN","city":"DATE GUN KORI MACHI","town":"OSHODO","perfecture_jp":"福島県","jp_add_1":"伊達郡桑折町","jp_add_2":"和尚堂"},"9691634":{"post_code":"9691634","prefecture":"FUKUSHIMA KEN","city":"DATE GUN KORI MACHI","town":"SUNAGOZAWA","perfecture_jp":"福島県","jp_add_1":"伊達郡桑折町","jp_add_2":"落合"},"9691661":{"post_code":"9691661","prefecture":"FUKUSHIMA KEN","city":"DATE GUN KORI MACHI","town":"KAMIGORI","perfecture_jp":"福島県","jp_add_1":"伊達郡桑折町","jp_add_2":"上郡"},"9691619":{"post_code":"9691619","prefecture":"FUKUSHIMA KEN","city":"DATE GUN KORI MACHI","town":"KARIYA","perfecture_jp":"福島県","jp_add_1":"伊達郡桑折町","jp_add_2":"仮屋"},"9691642":{"post_code":"9691642","prefecture":"FUKUSHIMA KEN","city":"DATE GUN KORI MACHI","town":"KITAHANDA","perfecture_jp":"福島県","jp_add_1":"伊達郡桑折町","jp_add_2":"北半田"},"9691601":{"post_code":"9691601","prefecture":"FUKUSHIMA KEN","city":"DATE GUN KORI MACHI","town":"KITAMACHI","perfecture_jp":"福島県","jp_add_1":"伊達郡桑折町","jp_add_2":"北町"},"9691635":{"post_code":"9691635","prefecture":"FUKUSHIMA KEN","city":"DATE GUN KORI MACHI","town":"HIGASHIYAKUSHI","perfecture_jp":"福島県","jp_add_1":"伊達郡桑折町","jp_add_2":"狐崎"},"9691618":{"post_code":"9691618","prefecture":"FUKUSHIMA KEN","city":"DATE GUN KORI MACHI","town":"KURABA","perfecture_jp":"福島県","jp_add_1":"伊達郡桑折町","jp_add_2":"庫場"},"9691613":{"post_code":"9691613","prefecture":"FUKUSHIMA KEN","city":"DATE GUN KORI MACHI","town":"KUWAJIMA","perfecture_jp":"福島県","jp_add_1":"伊達郡桑折町","jp_add_2":"桑島"},"9691615":{"post_code":"9691615","prefecture":"FUKUSHIMA KEN","city":"DATE GUN KORI MACHI","town":"SAWA","perfecture_jp":"福島県","jp_add_1":"伊達郡桑折町","jp_add_2":"沢"},"9691608":{"post_code":"9691608","prefecture":"FUKUSHIMA KEN","city":"DATE GUN KORI MACHI","town":"SHIBATSUTSUMI","perfecture_jp":"福島県","jp_add_1":"伊達郡桑折町","jp_add_2":"芝堤"},"9691662":{"post_code":"9691662","prefecture":"FUKUSHIMA KEN","city":"DATE GUN KORI MACHI","town":"SHIMOGORI","perfecture_jp":"福島県","jp_add_1":"伊達郡桑折町","jp_add_2":"下郡"},"9691631":{"post_code":"9691631","prefecture":"FUKUSHIMA KEN","city":"DATE GUN KORI MACHI","town":"YABUCHI","perfecture_jp":"福島県","jp_add_1":"伊達郡桑折町","jp_add_2":"白銀"},"9691628":{"post_code":"9691628","prefecture":"FUKUSHIMA KEN","city":"DATE GUN KORI MACHI","town":"SHIMMACHI","perfecture_jp":"福島県","jp_add_1":"伊達郡桑折町","jp_add_2":"新町"},"9691617":{"post_code":"9691617","prefecture":"FUKUSHIMA KEN","city":"DATE GUN KORI MACHI","town":"JINYA","perfecture_jp":"福島県","jp_add_1":"伊達郡桑折町","jp_add_2":"陣屋"},"9691625":{"post_code":"9691625","prefecture":"FUKUSHIMA KEN","city":"DATE GUN KORI MACHI","town":"SHINYOSHICHO","perfecture_jp":"福島県","jp_add_1":"伊達郡桑折町","jp_add_2":"新吉町"},"9691624":{"post_code":"9691624","prefecture":"FUKUSHIMA KEN","city":"DATE GUN KORI MACHI","town":"SHINWACHO","perfecture_jp":"福島県","jp_add_1":"伊達郡桑折町","jp_add_2":"新和町"},"9691627":{"post_code":"9691627","prefecture":"FUKUSHIMA KEN","city":"DATE GUN KORI MACHI","town":"SUWA","perfecture_jp":"福島県","jp_add_1":"伊達郡桑折町","jp_add_2":"諏訪"},"9691605":{"post_code":"9691605","prefecture":"FUKUSHIMA KEN","city":"DATE GUN KORI MACHI","town":"SEKIAI","perfecture_jp":"福島県","jp_add_1":"伊達郡桑折町","jp_add_2":"堰合"},"9691604":{"post_code":"9691604","prefecture":"FUKUSHIMA KEN","city":"DATE GUN KORI MACHI","town":"SEKISHITA","perfecture_jp":"福島県","jp_add_1":"伊達郡桑折町","jp_add_2":"堰下"},"9691632":{"post_code":"9691632","prefecture":"FUKUSHIMA KEN","city":"DATE GUN KORI MACHI","town":"TAUE","perfecture_jp":"福島県","jp_add_1":"伊達郡桑折町","jp_add_2":"田植"},"9691616":{"post_code":"9691616","prefecture":"FUKUSHIMA KEN","city":"DATE GUN KORI MACHI","town":"TATE","perfecture_jp":"福島県","jp_add_1":"伊達郡桑折町","jp_add_2":"舘"},"9691663":{"post_code":"9691663","prefecture":"FUKUSHIMA KEN","city":"DATE GUN KORI MACHI","town":"DANZAKI","perfecture_jp":"福島県","jp_add_1":"伊達郡桑折町","jp_add_2":"伊達崎"},"9691626":{"post_code":"9691626","prefecture":"FUKUSHIMA KEN","city":"DATE GUN KORI MACHI","town":"TERASAKA","perfecture_jp":"福島県","jp_add_1":"伊達郡桑折町","jp_add_2":"寺坂"},"9691621":{"post_code":"9691621","prefecture":"FUKUSHIMA KEN","city":"DATE GUN KORI MACHI","town":"DOJOMAE","perfecture_jp":"福島県","jp_add_1":"伊達郡桑折町","jp_add_2":"道場前"},"9691652":{"post_code":"9691652","prefecture":"FUKUSHIMA KEN","city":"DATE GUN KORI MACHI","town":"NARITA","perfecture_jp":"福島県","jp_add_1":"伊達郡桑折町","jp_add_2":"成田"},"9691612":{"post_code":"9691612","prefecture":"FUKUSHIMA KEN","city":"DATE GUN KORI MACHI","town":"NISHIOSUMI","perfecture_jp":"福島県","jp_add_1":"伊達郡桑折町","jp_add_2":"西大隅"},"9691607":{"post_code":"9691607","prefecture":"FUKUSHIMA KEN","city":"DATE GUN KORI MACHI","town":"NISHIDAN","perfecture_jp":"福島県","jp_add_1":"伊達郡桑折町","jp_add_2":"西段"},"9691629":{"post_code":"9691629","prefecture":"FUKUSHIMA KEN","city":"DATE GUN KORI MACHI","town":"NISHIMACHI","perfecture_jp":"福島県","jp_add_1":"伊達郡桑折町","jp_add_2":"西町"},"9691611":{"post_code":"9691611","prefecture":"FUKUSHIMA KEN","city":"DATE GUN KORI MACHI","town":"HIGASHIOSUMI","perfecture_jp":"福島県","jp_add_1":"伊達郡桑折町","jp_add_2":"東大隅"},"9691606":{"post_code":"9691606","prefecture":"FUKUSHIMA KEN","city":"DATE GUN KORI MACHI","town":"HIGASHIDAN","perfecture_jp":"福島県","jp_add_1":"伊達郡桑折町","jp_add_2":"東段"},"9691654":{"post_code":"9691654","prefecture":"FUKUSHIMA KEN","city":"DATE GUN KORI MACHI","town":"HIRASAWA","perfecture_jp":"福島県","jp_add_1":"伊達郡桑折町","jp_add_2":"平沢"},"9691602":{"post_code":"9691602","prefecture":"FUKUSHIMA KEN","city":"DATE GUN KORI MACHI","town":"MACHIURA","perfecture_jp":"福島県","jp_add_1":"伊達郡桑折町","jp_add_2":"町裏"},"9691653":{"post_code":"9691653","prefecture":"FUKUSHIMA KEN","city":"DATE GUN KORI MACHI","town":"MATSUBARA","perfecture_jp":"福島県","jp_add_1":"伊達郡桑折町","jp_add_2":"松原"},"9691651":{"post_code":"9691651","prefecture":"FUKUSHIMA KEN","city":"DATE GUN KORI MACHI","town":"MANSHOJI","perfecture_jp":"福島県","jp_add_1":"伊達郡桑折町","jp_add_2":"万正寺"},"9691641":{"post_code":"9691641","prefecture":"FUKUSHIMA KEN","city":"DATE GUN KORI MACHI","town":"MINAMIHANDA","perfecture_jp":"福島県","jp_add_1":"伊達郡桑折町","jp_add_2":"南半田"},"9691622":{"post_code":"9691622","prefecture":"FUKUSHIMA KEN","city":"DATE GUN KORI MACHI","town":"MINAMIMACHI","perfecture_jp":"福島県","jp_add_1":"伊達郡桑折町","jp_add_2":"南町"},"9691614":{"post_code":"9691614","prefecture":"FUKUSHIMA KEN","city":"DATE GUN KORI MACHI","town":"MOTOMACHI","perfecture_jp":"福島県","jp_add_1":"伊達郡桑折町","jp_add_2":"本町"},"9691643":{"post_code":"9691643","prefecture":"FUKUSHIMA KEN","city":"DATE GUN KORI MACHI","town":"YAJI","perfecture_jp":"福島県","jp_add_1":"伊達郡桑折町","jp_add_2":"谷地"},"9691700":{"post_code":"9691700","prefecture":"FUKUSHIMA KEN","city":"DATE GUN KUNIMI MACHI","town":"IKANIKEISAIGANAIBAAI","perfecture_jp":"福島県","jp_add_1":"伊達郡国見町","jp_add_2":""},"9691701":{"post_code":"9691701","prefecture":"FUKUSHIMA KEN","city":"DATE GUN KUNIMI MACHI","town":"ISHIMODA","perfecture_jp":"福島県","jp_add_1":"伊達郡国見町","jp_add_2":"石母田"},"9691782":{"post_code":"9691782","prefecture":"FUKUSHIMA KEN","city":"DATE GUN KUNIMI MACHI","town":"IZUMIDA","perfecture_jp":"福島県","jp_add_1":"伊達郡国見町","jp_add_2":"泉田"},"9691785":{"post_code":"9691785","prefecture":"FUKUSHIMA KEN","city":"DATE GUN KUNIMI MACHI","town":"ITABASHIMINAMI","perfecture_jp":"福島県","jp_add_1":"伊達郡国見町","jp_add_2":"板橋南"},"9691781":{"post_code":"9691781","prefecture":"FUKUSHIMA KEN","city":"DATE GUN KUNIMI MACHI","town":"UCHIYA","perfecture_jp":"福島県","jp_add_1":"伊達郡国見町","jp_add_2":"内谷"},"9691713":{"post_code":"9691713","prefecture":"FUKUSHIMA KEN","city":"DATE GUN KUNIMI MACHI","town":"OKIDO","perfecture_jp":"福島県","jp_add_1":"伊達郡国見町","jp_add_2":"大木戸"},"9691711":{"post_code":"9691711","prefecture":"FUKUSHIMA KEN","city":"DATE GUN KUNIMI MACHI","town":"KAIDA","perfecture_jp":"福島県","jp_add_1":"伊達郡国見町","jp_add_2":"貝田"},"9691721":{"post_code":"9691721","prefecture":"FUKUSHIMA KEN","city":"DATE GUN KUNIMI MACHI","town":"KAWAUCHI","perfecture_jp":"福島県","jp_add_1":"伊達郡国見町","jp_add_2":"川内"},"9691712":{"post_code":"9691712","prefecture":"FUKUSHIMA KEN","city":"DATE GUN KUNIMI MACHI","town":"KOMYOJI","perfecture_jp":"福島県","jp_add_1":"伊達郡国見町","jp_add_2":"光明寺"},"9691784":{"post_code":"9691784","prefecture":"FUKUSHIMA KEN","city":"DATE GUN KUNIMI MACHI","town":"KOSAKA","perfecture_jp":"福島県","jp_add_1":"伊達郡国見町","jp_add_2":"小坂"},"9691788":{"post_code":"9691788","prefecture":"FUKUSHIMA KEN","city":"DATE GUN KUNIMI MACHI","town":"KOSAKAMINAMI","perfecture_jp":"福島県","jp_add_1":"伊達郡国見町","jp_add_2":"小坂南"},"9691786":{"post_code":"9691786","prefecture":"FUKUSHIMA KEN","city":"DATE GUN KUNIMI MACHI","town":"SHINIZUMIDA","perfecture_jp":"福島県","jp_add_1":"伊達郡国見町","jp_add_2":"新泉田"},"9691780":{"post_code":"9691780","prefecture":"FUKUSHIMA KEN","city":"DATE GUN KUNIMI MACHI","town":"SHINUCHIYA","perfecture_jp":"福島県","jp_add_1":"伊達郡国見町","jp_add_2":"新内谷"},"9691787":{"post_code":"9691787","prefecture":"FUKUSHIMA KEN","city":"DATE GUN KUNIMI MACHI","town":"SHINKOSAKA","perfecture_jp":"福島県","jp_add_1":"伊達郡国見町","jp_add_2":"新小坂"},"9691789":{"post_code":"9691789","prefecture":"FUKUSHIMA KEN","city":"DATE GUN KUNIMI MACHI","town":"SHINTOTTORI","perfecture_jp":"福島県","jp_add_1":"伊達郡国見町","jp_add_2":"新鳥取"},"9691714":{"post_code":"9691714","prefecture":"FUKUSHIMA KEN","city":"DATE GUN KUNIMI MACHI","town":"TAKAGI","perfecture_jp":"福島県","jp_add_1":"伊達郡国見町","jp_add_2":"高城"},"9691751":{"post_code":"9691751","prefecture":"FUKUSHIMA KEN","city":"DATE GUN KUNIMI MACHI","town":"TSUKANOME","perfecture_jp":"福島県","jp_add_1":"伊達郡国見町","jp_add_2":"塚野目"},"9691741":{"post_code":"9691741","prefecture":"FUKUSHIMA KEN","city":"DATE GUN KUNIMI MACHI","town":"TOKUE","perfecture_jp":"福島県","jp_add_1":"伊達郡国見町","jp_add_2":"徳江"},"9691783":{"post_code":"9691783","prefecture":"FUKUSHIMA KEN","city":"DATE GUN KUNIMI MACHI","town":"TOTTORI","perfecture_jp":"福島県","jp_add_1":"伊達郡国見町","jp_add_2":"鳥取"},"9691722":{"post_code":"9691722","prefecture":"FUKUSHIMA KEN","city":"DATE GUN KUNIMI MACHI","town":"NISHIOEDA","perfecture_jp":"福島県","jp_add_1":"伊達郡国見町","jp_add_2":"西大枝"},"9691761":{"post_code":"9691761","prefecture":"FUKUSHIMA KEN","city":"DATE GUN KUNIMI MACHI","town":"FUJITA","perfecture_jp":"福島県","jp_add_1":"伊達郡国見町","jp_add_2":"藤田"},"9691731":{"post_code":"9691731","prefecture":"FUKUSHIMA KEN","city":"DATE GUN KUNIMI MACHI","town":"MORIYAMA","perfecture_jp":"福島県","jp_add_1":"伊達郡国見町","jp_add_2":"森山"},"9691771":{"post_code":"9691771","prefecture":"FUKUSHIMA KEN","city":"DATE GUN KUNIMI MACHI","town":"YAMAZAKI","perfecture_jp":"福島県","jp_add_1":"伊達郡国見町","jp_add_2":"山崎"},"9691300":{"post_code":"9691300","prefecture":"FUKUSHIMA KEN","city":"ADACHI GUN OTAMA MURA","town":"IKANIKEISAIGANAIBAAI","perfecture_jp":"福島県","jp_add_1":"安達郡大玉村","jp_add_2":""},"9691301":{"post_code":"9691301","prefecture":"FUKUSHIMA KEN","city":"ADACHI GUN OTAMA MURA","town":"OYAMA","perfecture_jp":"福島県","jp_add_1":"安達郡大玉村","jp_add_2":"大山"},"9691302":{"post_code":"9691302","prefecture":"FUKUSHIMA KEN","city":"ADACHI GUN OTAMA MURA","town":"TAMANOI(SONOTA)","perfecture_jp":"福島県","jp_add_1":"安達郡大玉村","jp_add_2":"玉井"},"9690400":{"post_code":"9690400","prefecture":"FUKUSHIMA KEN","city":"IWASE GUN KAGAMIISHI MACHI","town":"IKANIKEISAIGANAIBAAI","perfecture_jp":"福島県","jp_add_1":"岩瀬郡鏡石町","jp_add_2":""},"9690404":{"post_code":"9690404","prefecture":"FUKUSHIMA KEN","city":"IWASE GUN KAGAMIISHI MACHI","town":"MINAMIMACHI","perfecture_jp":"福島県","jp_add_1":"岩瀬郡鏡石町","jp_add_2":"旭町"},"9690402":{"post_code":"9690402","prefecture":"FUKUSHIMA KEN","city":"IWASE GUN KAGAMIISHI MACHI","town":"HIGASHIKAWARA","perfecture_jp":"福島県","jp_add_1":"岩瀬郡鏡石町","jp_add_2":"池の台"},"9690401":{"post_code":"9690401","prefecture":"FUKUSHIMA KEN","city":"IWASE GUN KAGAMIISHI MACHI","town":"MOTOMACHI","perfecture_jp":"福島県","jp_add_1":"岩瀬郡鏡石町","jp_add_2":"池ノ原"},"9690403":{"post_code":"9690403","prefecture":"FUKUSHIMA KEN","city":"IWASE GUN KAGAMIISHI MACHI","town":"DOMAE","perfecture_jp":"福島県","jp_add_1":"岩瀬郡鏡石町","jp_add_2":"借宿"},"9695300":{"post_code":"9695300","prefecture":"FUKUSHIMA KEN","city":"MINAMIAIZU GUN SHIMOGO MACHI","town":"IKANIKEISAIGANAIBAAI","perfecture_jp":"福島県","jp_add_1":"南会津郡下郷町","jp_add_2":""},"9695333":{"post_code":"9695333","prefecture":"FUKUSHIMA KEN","city":"MINAMIAIZU GUN SHIMOGO MACHI","town":"AIKAWA","perfecture_jp":"福島県","jp_add_1":"南会津郡下郷町","jp_add_2":"合川"},"9695315":{"post_code":"9695315","prefecture":"FUKUSHIMA KEN","city":"MINAMIAIZU GUN SHIMOGO MACHI","town":"ARAISHI","perfecture_jp":"福島県","jp_add_1":"南会津郡下郷町","jp_add_2":"荒石"},"9695331":{"post_code":"9695331","prefecture":"FUKUSHIMA KEN","city":"MINAMIAIZU GUN SHIMOGO MACHI","town":"IKUTA","perfecture_jp":"福島県","jp_add_1":"南会津郡下郷町","jp_add_2":"澳田"},"9695316":{"post_code":"9695316","prefecture":"FUKUSHIMA KEN","city":"MINAMIAIZU GUN SHIMOGO MACHI","town":"ISHII","perfecture_jp":"福島県","jp_add_1":"南会津郡下郷町","jp_add_2":"石井"},"9695318":{"post_code":"9695318","prefecture":"FUKUSHIMA KEN","city":"MINAMIAIZU GUN SHIMOGO MACHI","town":"ISOGAMI","perfecture_jp":"福島県","jp_add_1":"南会津郡下郷町","jp_add_2":"磯上"},"9695326":{"post_code":"9695326","prefecture":"FUKUSHIMA KEN","city":"MINAMIAIZU GUN SHIMOGO MACHI","town":"EITOMI","perfecture_jp":"福島県","jp_add_1":"南会津郡下郷町","jp_add_2":"栄富"},"9695202":{"post_code":"9695202","prefecture":"FUKUSHIMA KEN","city":"MINAMIAIZU GUN SHIMOGO MACHI","town":"EDAMATSU","perfecture_jp":"福島県","jp_add_1":"南会津郡下郷町","jp_add_2":"枝松"},"9695207":{"post_code":"9695207","prefecture":"FUKUSHIMA KEN","city":"MINAMIAIZU GUN SHIMOGO MACHI","town":"OUCHI","perfecture_jp":"福島県","jp_add_1":"南会津郡下郷町","jp_add_2":"大内"},"9695205":{"post_code":"9695205","prefecture":"FUKUSHIMA KEN","city":"MINAMIAIZU GUN SHIMOGO MACHI","town":"OSAWA","perfecture_jp":"福島県","jp_add_1":"南会津郡下郷町","jp_add_2":"大沢"},"9695334":{"post_code":"9695334","prefecture":"FUKUSHIMA KEN","city":"MINAMIAIZU GUN SHIMOGO MACHI","town":"OMATSUKAWA","perfecture_jp":"福島県","jp_add_1":"南会津郡下郷町","jp_add_2":"大松川"},"9695343":{"post_code":"9695343","prefecture":"FUKUSHIMA KEN","city":"MINAMIAIZU GUN SHIMOGO MACHI","town":"OCHIAI","perfecture_jp":"福島県","jp_add_1":"南会津郡下郷町","jp_add_2":"落合"},"9695342":{"post_code":"9695342","prefecture":"FUKUSHIMA KEN","city":"MINAMIAIZU GUN SHIMOGO MACHI","town":"OTOKANE","perfecture_jp":"福島県","jp_add_1":"南会津郡下郷町","jp_add_2":"音金"},"9695208":{"post_code":"9695208","prefecture":"FUKUSHIMA KEN","city":"MINAMIAIZU GUN SHIMOGO MACHI","town":"ONUMAZAKI","perfecture_jp":"福島県","jp_add_1":"南会津郡下郷町","jp_add_2":"小沼崎"},"9695323":{"post_code":"9695323","prefecture":"FUKUSHIMA KEN","city":"MINAMIAIZU GUN SHIMOGO MACHI","town":"KUWATOBI","perfecture_jp":"福島県","jp_add_1":"南会津郡下郷町","jp_add_2":"桑取火"},"9695321":{"post_code":"9695321","prefecture":"FUKUSHIMA KEN","city":"MINAMIAIZU GUN SHIMOGO MACHI","town":"SAWAGUCHI","perfecture_jp":"福島県","jp_add_1":"南会津郡下郷町","jp_add_2":"沢口"},"9695344":{"post_code":"9695344","prefecture":"FUKUSHIMA KEN","city":"MINAMIAIZU GUN SHIMOGO MACHI","town":"SAWADA","perfecture_jp":"福島県","jp_add_1":"南会津郡下郷町","jp_add_2":"沢田"},"9695345":{"post_code":"9695345","prefecture":"FUKUSHIMA KEN","city":"MINAMIAIZU GUN SHIMOGO MACHI","town":"SHIONO","perfecture_jp":"福島県","jp_add_1":"南会津郡下郷町","jp_add_2":"塩生"},"9695317":{"post_code":"9695317","prefecture":"FUKUSHIMA KEN","city":"MINAMIAIZU GUN SHIMOGO MACHI","town":"SHIGENGYO","perfecture_jp":"福島県","jp_add_1":"南会津郡下郷町","jp_add_2":"志源行"},"9695203":{"post_code":"9695203","prefecture":"FUKUSHIMA KEN","city":"MINAMIAIZU GUN SHIMOGO MACHI","town":"SHIRAIWA","perfecture_jp":"福島県","jp_add_1":"南会津郡下郷町","jp_add_2":"白岩"},"9695201":{"post_code":"9695201","prefecture":"FUKUSHIMA KEN","city":"MINAMIAIZU GUN SHIMOGO MACHI","town":"TAKASHIMA","perfecture_jp":"福島県","jp_add_1":"南会津郡下郷町","jp_add_2":"高陦"},"9695312":{"post_code":"9695312","prefecture":"FUKUSHIMA KEN","city":"MINAMIAIZU GUN SHIMOGO MACHI","town":"TOAKA","perfecture_jp":"福島県","jp_add_1":"南会津郡下郷町","jp_add_2":"戸赤"},"9695311":{"post_code":"9695311","prefecture":"FUKUSHIMA KEN","city":"MINAMIAIZU GUN SHIMOGO MACHI","town":"TOYONARI","perfecture_jp":"福島県","jp_add_1":"南会津郡下郷町","jp_add_2":"豊成"},"9695332":{"post_code":"9695332","prefecture":"FUKUSHIMA KEN","city":"MINAMIAIZU GUN SHIMOGO MACHI","town":"NAKAZUMA","perfecture_jp":"福島県","jp_add_1":"南会津郡下郷町","jp_add_2":"中妻"},"9695325":{"post_code":"9695325","prefecture":"FUKUSHIMA KEN","city":"MINAMIAIZU GUN SHIMOGO MACHI","town":"NAKAYAMA","perfecture_jp":"福島県","jp_add_1":"南会津郡下郷町","jp_add_2":"中山"},"9695335":{"post_code":"9695335","prefecture":"FUKUSHIMA KEN","city":"MINAMIAIZU GUN SHIMOGO MACHI","town":"NAGURASAWA","perfecture_jp":"福島県","jp_add_1":"南会津郡下郷町","jp_add_2":"南倉沢"},"9695341":{"post_code":"9695341","prefecture":"FUKUSHIMA KEN","city":"MINAMIAIZU GUN SHIMOGO MACHI","town":"NOGIWASHINDEN","perfecture_jp":"福島県","jp_add_1":"南会津郡下郷町","jp_add_2":"野際新田"},"9695313":{"post_code":"9695313","prefecture":"FUKUSHIMA KEN","city":"MINAMIAIZU GUN SHIMOGO MACHI","town":"HARA","perfecture_jp":"福島県","jp_add_1":"南会津郡下郷町","jp_add_2":"原"},"9695314":{"post_code":"9695314","prefecture":"FUKUSHIMA KEN","city":"MINAMIAIZU GUN SHIMOGO MACHI","town":"HIKAGE","perfecture_jp":"福島県","jp_add_1":"南会津郡下郷町","jp_add_2":"日影"},"9695204":{"post_code":"9695204","prefecture":"FUKUSHIMA KEN","city":"MINAMIAIZU GUN SHIMOGO MACHI","town":"YAGOSHIMA","perfecture_jp":"福島県","jp_add_1":"南会津郡下郷町","jp_add_2":"弥五島"},"9695324":{"post_code":"9695324","prefecture":"FUKUSHIMA KEN","city":"MINAMIAIZU GUN SHIMOGO MACHI","town":"YASUHARI","perfecture_jp":"福島県","jp_add_1":"南会津郡下郷町","jp_add_2":"安張"},"9695206":{"post_code":"9695206","prefecture":"FUKUSHIMA KEN","city":"MINAMIAIZU GUN SHIMOGO MACHI","town":"YUNOKAMI","perfecture_jp":"福島県","jp_add_1":"南会津郡下郷町","jp_add_2":"湯野上"},"9695322":{"post_code":"9695322","prefecture":"FUKUSHIMA KEN","city":"MINAMIAIZU GUN SHIMOGO MACHI","town":"RYOGE","perfecture_jp":"福島県","jp_add_1":"南会津郡下郷町","jp_add_2":"領毛"},"9692701":{"post_code":"9692701","prefecture":"FUKUSHIMA KEN","city":"YAMA GUN KITASHIOBARA MURA","town":"GOSHIKINUMA.JINKUROYAMA.SOHARAYAMA.","perfecture_jp":"福島県","jp_add_1":"耶麻郡北塩原村","jp_add_2":"檜原"},"9694400":{"post_code":"9694400","prefecture":"FUKUSHIMA KEN","city":"YAMA GUN NISHIAIZU MACHI","town":"IKANIKEISAIGANAIBAAI","perfecture_jp":"福島県","jp_add_1":"耶麻郡西会津町","jp_add_2":""},"9694734":{"post_code":"9694734","prefecture":"FUKUSHIMA KEN","city":"YAMA GUN NISHIAIZU MACHI","town":"OKUGAWA IISATO","perfecture_jp":"福島県","jp_add_1":"耶麻郡西会津町","jp_add_2":"奥川飯里"},"9694732":{"post_code":"9694732","prefecture":"FUKUSHIMA KEN","city":"YAMA GUN NISHIAIZU MACHI","town":"OKUGAWA IIZAWA","perfecture_jp":"福島県","jp_add_1":"耶麻郡西会津町","jp_add_2":"奥川飯沢"},"9694731":{"post_code":"9694731","prefecture":"FUKUSHIMA KEN","city":"YAMA GUN NISHIAIZU MACHI","town":"OKUGAWA IINE","perfecture_jp":"福島県","jp_add_1":"耶麻郡西会津町","jp_add_2":"奥川飯根"},"9694733":{"post_code":"9694733","prefecture":"FUKUSHIMA KEN","city":"YAMA GUN NISHIAIZU MACHI","town":"OKUGAWA OTSUNAGI","perfecture_jp":"福島県","jp_add_1":"耶麻郡西会津町","jp_add_2":"奥川大綱木"},"9694737":{"post_code":"9694737","prefecture":"FUKUSHIMA KEN","city":"YAMA GUN NISHIAIZU MACHI","town":"OKUGAWA KAYANE","perfecture_jp":"福島県","jp_add_1":"耶麻郡西会津町","jp_add_2":"奥川高陽根"},"9694735":{"post_code":"9694735","prefecture":"FUKUSHIMA KEN","city":"YAMA GUN NISHIAIZU MACHI","town":"OKUGAWA TOYOSHIMA","perfecture_jp":"福島県","jp_add_1":"耶麻郡西会津町","jp_add_2":"奥川豊島"},"9694736":{"post_code":"9694736","prefecture":"FUKUSHIMA KEN","city":"YAMA GUN NISHIAIZU MACHI","town":"OKUGAWA MOTOSHIMA","perfecture_jp":"福島県","jp_add_1":"耶麻郡西会津町","jp_add_2":"奥川元島"},"9694402":{"post_code":"9694402","prefecture":"FUKUSHIMA KEN","city":"YAMA GUN NISHIAIZU MACHI","town":"ONOMOTO","perfecture_jp":"福島県","jp_add_1":"耶麻郡西会津町","jp_add_2":"尾野本"},"9694512":{"post_code":"9694512","prefecture":"FUKUSHIMA KEN","city":"YAMA GUN NISHIAIZU MACHI","town":"KAMINOJIRI","perfecture_jp":"福島県","jp_add_1":"耶麻郡西会津町","jp_add_2":"上野尻"},"9694405":{"post_code":"9694405","prefecture":"FUKUSHIMA KEN","city":"YAMA GUN NISHIAIZU MACHI","town":"SHITATANI","perfecture_jp":"福島県","jp_add_1":"耶麻郡西会津町","jp_add_2":"下谷"},"9694515":{"post_code":"9694515","prefecture":"FUKUSHIMA KEN","city":"YAMA GUN NISHIAIZU MACHI","town":"SHIMONOJIRI","perfecture_jp":"福島県","jp_add_1":"耶麻郡西会津町","jp_add_2":"下野尻"},"9694622":{"post_code":"9694622","prefecture":"FUKUSHIMA KEN","city":"YAMA GUN NISHIAIZU MACHI","town":"SHINGO SASAGAWA","perfecture_jp":"福島県","jp_add_1":"耶麻郡西会津町","jp_add_2":"新郷笹川"},"9694623":{"post_code":"9694623","prefecture":"FUKUSHIMA KEN","city":"YAMA GUN NISHIAIZU MACHI","town":"SHINGO TOYOSU","perfecture_jp":"福島県","jp_add_1":"耶麻郡西会津町","jp_add_2":"新郷豊洲"},"9694621":{"post_code":"9694621","prefecture":"FUKUSHIMA KEN","city":"YAMA GUN NISHIAIZU MACHI","town":"SHINGO FUJI","perfecture_jp":"福島県","jp_add_1":"耶麻郡西会津町","jp_add_2":"新郷冨士"},"9694624":{"post_code":"9694624","prefecture":"FUKUSHIMA KEN","city":"YAMA GUN NISHIAIZU MACHI","town":"SHINGO MIKAWA","perfecture_jp":"福島県","jp_add_1":"耶麻郡西会津町","jp_add_2":"新郷三河"},"9694403":{"post_code":"9694403","prefecture":"FUKUSHIMA KEN","city":"YAMA GUN NISHIAIZU MACHI","town":"TABANEMATSU","perfecture_jp":"福島県","jp_add_1":"耶麻郡西会津町","jp_add_2":"束松"},"9694401":{"post_code":"9694401","prefecture":"FUKUSHIMA KEN","city":"YAMA GUN NISHIAIZU MACHI","town":"TOSEJIMA","perfecture_jp":"福島県","jp_add_1":"耶麻郡西会津町","jp_add_2":"登世島"},"9694406":{"post_code":"9694406","prefecture":"FUKUSHIMA KEN","city":"YAMA GUN NISHIAIZU MACHI","town":"NOZAWA","perfecture_jp":"福島県","jp_add_1":"耶麻郡西会津町","jp_add_2":"野沢"},"9694514":{"post_code":"9694514","prefecture":"FUKUSHIMA KEN","city":"YAMA GUN NISHIAIZU MACHI","town":"HOSAKA HOSAKA","perfecture_jp":"福島県","jp_add_1":"耶麻郡西会津町","jp_add_2":"宝坂宝坂"},"9694513":{"post_code":"9694513","prefecture":"FUKUSHIMA KEN","city":"YAMA GUN NISHIAIZU MACHI","town":"HOSAKA YASHIKI","perfecture_jp":"福島県","jp_add_1":"耶麻郡西会津町","jp_add_2":"宝坂屋敷"},"9694404":{"post_code":"9694404","prefecture":"FUKUSHIMA KEN","city":"YAMA GUN NISHIAIZU MACHI","town":"MUTSUAI","perfecture_jp":"福島県","jp_add_1":"耶麻郡西会津町","jp_add_2":"睦合"},"9694511":{"post_code":"9694511","prefecture":"FUKUSHIMA KEN","city":"YAMA GUN NISHIAIZU MACHI","town":"MURAOKA","perfecture_jp":"福島県","jp_add_1":"耶麻郡西会津町","jp_add_2":"群岡"},"9693300":{"post_code":"9693300","prefecture":"FUKUSHIMA KEN","city":"YAMA GUN BANDAI MACHI","town":"IKANIKEISAIGANAIBAAI","perfecture_jp":"福島県","jp_add_1":"耶麻郡磐梯町","jp_add_2":""},"9693303":{"post_code":"9693303","prefecture":"FUKUSHIMA KEN","city":"YAMA GUN BANDAI MACHI","town":"AKAEDA","perfecture_jp":"福島県","jp_add_1":"耶麻郡磐梯町","jp_add_2":"赤枝"},"9693304":{"post_code":"9693304","prefecture":"FUKUSHIMA KEN","city":"YAMA GUN BANDAI MACHI","town":"OTANI","perfecture_jp":"福島県","jp_add_1":"耶麻郡磐梯町","jp_add_2":"大谷"},"9693302":{"post_code":"9693302","prefecture":"FUKUSHIMA KEN","city":"YAMA GUN BANDAI MACHI","town":"SARASHINA","perfecture_jp":"福島県","jp_add_1":"耶麻郡磐梯町","jp_add_2":"更科"},"9693301":{"post_code":"9693301","prefecture":"FUKUSHIMA KEN","city":"YAMA GUN BANDAI MACHI","town":"BANDAI","perfecture_jp":"福島県","jp_add_1":"耶麻郡磐梯町","jp_add_2":"磐梯"},"9693100":{"post_code":"9693100","prefecture":"FUKUSHIMA KEN","city":"YAMA GUN INAWASHIRO MACHI","town":"IKANIKEISAIGANAIBAAI","perfecture_jp":"福島県","jp_add_1":"耶麻郡猪苗代町","jp_add_2":""},"9693121":{"post_code":"9693121","prefecture":"FUKUSHIMA KEN","city":"YAMA GUN INAWASHIRO MACHI","town":"YOKOMAKURI","perfecture_jp":"福島県","jp_add_1":"耶麻郡猪苗代町","jp_add_2":"芦原"},"9693122":{"post_code":"9693122","prefecture":"FUKUSHIMA KEN","city":"YAMA GUN INAWASHIRO MACHI","town":"MOTOMACHI","perfecture_jp":"福島県","jp_add_1":"耶麻郡猪苗代町","jp_add_2":"新町"},"9693101":{"post_code":"9693101","prefecture":"FUKUSHIMA KEN","city":"YAMA GUN INAWASHIRO MACHI","town":"YAMAKAMIHARA","perfecture_jp":"福島県","jp_add_1":"耶麻郡猪苗代町","jp_add_2":"家ノ前"},"9693111":{"post_code":"9693111","prefecture":"FUKUSHIMA KEN","city":"YAMA GUN INAWASHIRO MACHI","town":"MURAHIGASHI","perfecture_jp":"福島県","jp_add_1":"耶麻郡猪苗代町","jp_add_2":"雷"},"9693131":{"post_code":"9693131","prefecture":"FUKUSHIMA KEN","city":"YAMA GUN INAWASHIRO MACHI","town":"MURAMINAMI","perfecture_jp":"福島県","jp_add_1":"耶麻郡猪苗代町","jp_add_2":"今泉"},"9693141":{"post_code":"9693141","prefecture":"FUKUSHIMA KEN","city":"YAMA GUN INAWASHIRO MACHI","town":"ROKKAKU","perfecture_jp":"福島県","jp_add_1":"耶麻郡猪苗代町","jp_add_2":"磐里"},"9693286":{"post_code":"9693286","prefecture":"FUKUSHIMA KEN","city":"YAMA GUN INAWASHIRO MACHI","town":"IWANE","perfecture_jp":"福島県","jp_add_1":"耶麻郡猪苗代町","jp_add_2":"磐根"},"9693102":{"post_code":"9693102","prefecture":"FUKUSHIMA KEN","city":"YAMA GUN INAWASHIRO MACHI","town":"MINEYAMA","perfecture_jp":"福島県","jp_add_1":"耶麻郡猪苗代町","jp_add_2":"右近山"},"9693113":{"post_code":"9693113","prefecture":"FUKUSHIMA KEN","city":"YAMA GUN INAWASHIRO MACHI","town":"MINAMIHANZAKA","perfecture_jp":"福島県","jp_add_1":"耶麻郡猪苗代町","jp_add_2":"大道西"},"9693285":{"post_code":"9693285","prefecture":"FUKUSHIMA KEN","city":"YAMA GUN INAWASHIRO MACHI","town":"OKINAZAWA","perfecture_jp":"福島県","jp_add_1":"耶麻郡猪苗代町","jp_add_2":"翁沢"},"9693283":{"post_code":"9693283","prefecture":"FUKUSHIMA KEN","city":"YAMA GUN INAWASHIRO MACHI","town":"OSADA","perfecture_jp":"福島県","jp_add_1":"耶麻郡猪苗代町","jp_add_2":"長田"},"9693132":{"post_code":"9693132","prefecture":"FUKUSHIMA KEN","city":"YAMA GUN INAWASHIRO MACHI","town":"KATADA","perfecture_jp":"福島県","jp_add_1":"耶麻郡猪苗代町","jp_add_2":"堅田"},"9692272":{"post_code":"9692272","prefecture":"FUKUSHIMA KEN","city":"YAMA GUN INAWASHIRO MACHI","town":"KANEDA","perfecture_jp":"福島県","jp_add_1":"耶麻郡猪苗代町","jp_add_2":"金田"},"9693103":{"post_code":"9693103","prefecture":"FUKUSHIMA KEN","city":"YAMA GUN INAWASHIRO MACHI","town":"MACHISHIMADA","perfecture_jp":"福島県","jp_add_1":"耶麻郡猪苗代町","jp_add_2":"鹿野境"},"9692663":{"post_code":"9692663","prefecture":"FUKUSHIMA KEN","city":"YAMA GUN INAWASHIRO MACHI","town":"KAWAGETA","perfecture_jp":"福島県","jp_add_1":"耶麻郡猪苗代町","jp_add_2":"川桁"},"9692752":{"post_code":"9692752","prefecture":"FUKUSHIMA KEN","city":"YAMA GUN INAWASHIRO MACHI","town":"KOGAI","perfecture_jp":"福島県","jp_add_1":"耶麻郡猪苗代町","jp_add_2":"蚕養"},"9693123":{"post_code":"9693123","prefecture":"FUKUSHIMA KEN","city":"YAMA GUN INAWASHIRO MACHI","town":"TSURUTA","perfecture_jp":"福島県","jp_add_1":"耶麻郡猪苗代町","jp_add_2":"古城跡"},"9693282":{"post_code":"9693282","prefecture":"FUKUSHIMA KEN","city":"YAMA GUN INAWASHIRO MACHI","town":"SANSHOZAWA","perfecture_jp":"福島県","jp_add_1":"耶麻郡猪苗代町","jp_add_2":"酸奨沢"},"9692273":{"post_code":"9692273","prefecture":"FUKUSHIMA KEN","city":"YAMA GUN INAWASHIRO MACHI","town":"SEKITO","perfecture_jp":"福島県","jp_add_1":"耶麻郡猪苗代町","jp_add_2":"関都"},"9693133":{"post_code":"9693133","prefecture":"FUKUSHIMA KEN","city":"YAMA GUN INAWASHIRO MACHI","town":"CHIYODA","perfecture_jp":"福島県","jp_add_1":"耶麻郡猪苗代町","jp_add_2":"千代田"},"9693112":{"post_code":"9693112","prefecture":"FUKUSHIMA KEN","city":"YAMA GUN INAWASHIRO MACHI","town":"BENZAITENNISHI","perfecture_jp":"福島県","jp_add_1":"耶麻郡猪苗代町","jp_add_2":"堤"},"9692274":{"post_code":"9692274","prefecture":"FUKUSHIMA KEN","city":"YAMA GUN INAWASHIRO MACHI","town":"TSUBOYO","perfecture_jp":"福島県","jp_add_1":"耶麻郡猪苗代町","jp_add_2":"壺楊"},"9692271":{"post_code":"9692271","prefecture":"FUKUSHIMA KEN","city":"YAMA GUN INAWASHIRO MACHI","town":"NAKAKOMATSU","perfecture_jp":"福島県","jp_add_1":"耶麻郡猪苗代町","jp_add_2":"中小松"},"9693281":{"post_code":"9693281","prefecture":"FUKUSHIMA KEN","city":"YAMA GUN INAWASHIRO MACHI","town":"NISHIHAYAMA","perfecture_jp":"福島県","jp_add_1":"耶麻郡猪苗代町","jp_add_2":"西葉山"},"9693287":{"post_code":"9693287","prefecture":"FUKUSHIMA KEN","city":"YAMA GUN INAWASHIRO MACHI","town":"FUDO","perfecture_jp":"福島県","jp_add_1":"耶麻郡猪苗代町","jp_add_2":"不動"},"9692661":{"post_code":"9692661","prefecture":"FUKUSHIMA KEN","city":"YAMA GUN INAWASHIRO MACHI","town":"MISATO","perfecture_jp":"福島県","jp_add_1":"耶麻郡猪苗代町","jp_add_2":"三郷"},"9693284":{"post_code":"9693284","prefecture":"FUKUSHIMA KEN","city":"YAMA GUN INAWASHIRO MACHI","town":"MITSUWA","perfecture_jp":"福島県","jp_add_1":"耶麻郡猪苗代町","jp_add_2":"三ツ和"},"9692662":{"post_code":"9692662","prefecture":"FUKUSHIMA KEN","city":"YAMA GUN INAWASHIRO MACHI","town":"YAHATA","perfecture_jp":"福島県","jp_add_1":"耶麻郡猪苗代町","jp_add_2":"八幡"},"9692275":{"post_code":"9692275","prefecture":"FUKUSHIMA KEN","city":"YAMA GUN INAWASHIRO MACHI","town":"YAMAGATA","perfecture_jp":"福島県","jp_add_1":"耶麻郡猪苗代町","jp_add_2":"山潟"},"9692751":{"post_code":"9692751","prefecture":"FUKUSHIMA KEN","city":"YAMA GUN INAWASHIRO MACHI","town":"WAKAMIYA","perfecture_jp":"福島県","jp_add_1":"耶麻郡猪苗代町","jp_add_2":"若宮"},"9693288":{"post_code":"9693288","prefecture":"FUKUSHIMA KEN","city":"YAMA GUN INAWASHIRO MACHI","town":"WATABA","perfecture_jp":"福島県","jp_add_1":"耶麻郡猪苗代町","jp_add_2":"綿場"},"9696500":{"post_code":"9696500","prefecture":"FUKUSHIMA KEN","city":"KAWANUMA GUN AIZUBANGE MACHI","town":"IKANIKEISAIGANAIBAAI","perfecture_jp":"福島県","jp_add_1":"河沼郡会津坂下町","jp_add_2":""},"9696517":{"post_code":"9696517","prefecture":"FUKUSHIMA KEN","city":"KAWANUMA GUN AIZUBANGE MACHI","town":"AIKAWA","perfecture_jp":"福島県","jp_add_1":"河沼郡会津坂下町","jp_add_2":"合川"},"9696511":{"post_code":"9696511","prefecture":"FUKUSHIMA KEN","city":"KAWANUMA GUN AIZUBANGE MACHI","town":"AOKI","perfecture_jp":"福島県","jp_add_1":"河沼郡会津坂下町","jp_add_2":"青木"},"9696518":{"post_code":"9696518","prefecture":"FUKUSHIMA KEN","city":"KAWANUMA GUN AIZUBANGE MACHI","town":"AOZU","perfecture_jp":"福島県","jp_add_1":"河沼郡会津坂下町","jp_add_2":"青津"},"9696535":{"post_code":"9696535","prefecture":"FUKUSHIMA KEN","city":"KAWANUMA GUN AIZUBANGE MACHI","town":"HIGASHIYASHIKIZOEOTSU","perfecture_jp":"福島県","jp_add_1":"河沼郡会津坂下町","jp_add_2":"家ノ前乙"},"9696553":{"post_code":"9696553","prefecture":"FUKUSHIMA KEN","city":"KAWANUMA GUN AIZUBANGE MACHI","town":"SEINAMMACHIURAKO","perfecture_jp":"福島県","jp_add_1":"河沼郡会津坂下町","jp_add_2":"石田"},"9696563":{"post_code":"9696563","prefecture":"FUKUSHIMA KEN","city":"KAWANUMA GUN AIZUBANGE MACHI","town":"ICHINAKASHINCHOKO","perfecture_jp":"福島県","jp_add_1":"河沼郡会津坂下町","jp_add_2":"市中新町甲"},"9696536":{"post_code":"9696536","prefecture":"FUKUSHIMA KEN","city":"KAWANUMA GUN AIZUBANGE MACHI","town":"ICHINAKA1-BANKO","perfecture_jp":"福島県","jp_add_1":"河沼郡会津坂下町","jp_add_2":"市中一番甲"},"9696543":{"post_code":"9696543","prefecture":"FUKUSHIMA KEN","city":"KAWANUMA GUN AIZUBANGE MACHI","town":"ICHINAKA2-BANKO","perfecture_jp":"福島県","jp_add_1":"河沼郡会津坂下町","jp_add_2":"市中二番甲"},"9696547":{"post_code":"9696547","prefecture":"FUKUSHIMA KEN","city":"KAWANUMA GUN AIZUBANGE MACHI","town":"ICHINAKA3-BANKO","perfecture_jp":"福島県","jp_add_1":"河沼郡会津坂下町","jp_add_2":"市中三番甲"},"9696557":{"post_code":"9696557","prefecture":"FUKUSHIMA KEN","city":"KAWANUMA GUN AIZUBANGE MACHI","town":"ICHINAKA4-BANKO","perfecture_jp":"福島県","jp_add_1":"河沼郡会津坂下町","jp_add_2":"市中四番甲"},"9696562":{"post_code":"9696562","prefecture":"FUKUSHIMA KEN","city":"KAWANUMA GUN AIZUBANGE MACHI","town":"NAKAOKAKO","perfecture_jp":"福島県","jp_add_1":"河沼郡会津坂下町","jp_add_2":"一丁田甲"},"9696566":{"post_code":"9696566","prefecture":"FUKUSHIMA KEN","city":"KAWANUMA GUN AIZUBANGE MACHI","town":"INARIZUKA","perfecture_jp":"福島県","jp_add_1":"河沼郡会津坂下町","jp_add_2":"稲荷塚"},"9696537":{"post_code":"9696537","prefecture":"FUKUSHIMA KEN","city":"KAWANUMA GUN AIZUBANGE MACHI","town":"NISHINOMIYAOTSU","perfecture_jp":"福島県","jp_add_1":"河沼郡会津坂下町","jp_add_2":"戌亥乙"},"9696576":{"post_code":"9696576","prefecture":"FUKUSHIMA KEN","city":"KAWANUMA GUN AIZUBANGE MACHI","town":"USHIKAWA","perfecture_jp":"福島県","jp_add_1":"河沼郡会津坂下町","jp_add_2":"牛川"},"9696503":{"post_code":"9696503","prefecture":"FUKUSHIMA KEN","city":"KAWANUMA GUN AIZUBANGE MACHI","town":"UNAI","perfecture_jp":"福島県","jp_add_1":"河沼郡会津坂下町","jp_add_2":"宇内"},"9696538":{"post_code":"9696538","prefecture":"FUKUSHIMA KEN","city":"KAWANUMA GUN AIZUBANGE MACHI","town":"KAMINUMANOEHEI","perfecture_jp":"福島県","jp_add_1":"河沼郡会津坂下町","jp_add_2":"姥ケ下乙"},"9696523":{"post_code":"9696523","prefecture":"FUKUSHIMA KEN","city":"KAWANUMA GUN AIZUBANGE MACHI","town":"EBISAI","perfecture_jp":"福島県","jp_add_1":"河沼郡会津坂下町","jp_add_2":"海老細"},"9696519":{"post_code":"9696519","prefecture":"FUKUSHIMA KEN","city":"KAWANUMA GUN AIZUBANGE MACHI","town":"MITANI","perfecture_jp":"福島県","jp_add_1":"河沼郡会津坂下町","jp_add_2":"御池田"},"9696573":{"post_code":"9696573","prefecture":"FUKUSHIMA KEN","city":"KAWANUMA GUN AIZUBANGE MACHI","town":"OOKI","perfecture_jp":"福島県","jp_add_1":"河沼郡会津坂下町","jp_add_2":"大沖"},"9696507":{"post_code":"9696507","prefecture":"FUKUSHIMA KEN","city":"KAWANUMA GUN AIZUBANGE MACHI","town":"OKAMI","perfecture_jp":"福島県","jp_add_1":"河沼郡会津坂下町","jp_add_2":"大上"},"9696544":{"post_code":"9696544","prefecture":"FUKUSHIMA KEN","city":"KAWANUMA GUN AIZUBANGE MACHI","town":"TONAMMACHIURAKO","perfecture_jp":"福島県","jp_add_1":"河沼郡会津坂下町","jp_add_2":"大堀川西甲"},"9696534":{"post_code":"9696534","prefecture":"FUKUSHIMA KEN","city":"KAWANUMA GUN AIZUBANGE MACHI","town":"HARAMICHIHIGASHIKO","perfecture_jp":"福島県","jp_add_1":"河沼郡会津坂下町","jp_add_2":"小川原"},"9696525":{"post_code":"9696525","prefecture":"FUKUSHIMA KEN","city":"KAWANUMA GUN AIZUBANGE MACHI","town":"KAIZU","perfecture_jp":"福島県","jp_add_1":"河沼郡会津坂下町","jp_add_2":"開津"},"9696581":{"post_code":"9696581","prefecture":"FUKUSHIMA KEN","city":"KAWANUMA GUN AIZUBANGE MACHI","town":"KATAKADO","perfecture_jp":"福島県","jp_add_1":"河沼郡会津坂下町","jp_add_2":"片門"},"9696575":{"post_code":"9696575","prefecture":"FUKUSHIMA KEN","city":"KAWANUMA GUN AIZUBANGE MACHI","town":"KATSUO","perfecture_jp":"福島県","jp_add_1":"河沼郡会津坂下町","jp_add_2":"勝大"},"9696521":{"post_code":"9696521","prefecture":"FUKUSHIMA KEN","city":"KAWANUMA GUN AIZUBANGE MACHI","town":"KANAGAMI","perfecture_jp":"福島県","jp_add_1":"河沼郡会津坂下町","jp_add_2":"金上"},"9696541":{"post_code":"9696541","prefecture":"FUKUSHIMA KEN","city":"KAWANUMA GUN AIZUBANGE MACHI","town":"SHIJUTSUKOKU","perfecture_jp":"福島県","jp_add_1":"河沼郡会津坂下町","jp_add_2":"上四十石甲"},"9696533":{"post_code":"9696533","prefecture":"FUKUSHIMA KEN","city":"KAWANUMA GUN AIZUBANGE MACHI","town":"DAINOSHITA","perfecture_jp":"福島県","jp_add_1":"河沼郡会津坂下町","jp_add_2":"上ノ台乙"},"9696556":{"post_code":"9696556","prefecture":"FUKUSHIMA KEN","city":"KAWANUMA GUN AIZUBANGE MACHI","town":"SAKAMIZU","perfecture_jp":"福島県","jp_add_1":"河沼郡会津坂下町","jp_add_2":"北逆水甲"},"9696583":{"post_code":"9696583","prefecture":"FUKUSHIMA KEN","city":"KAWANUMA GUN AIZUBANGE MACHI","town":"KETANOMIYA","perfecture_jp":"福島県","jp_add_1":"河沼郡会津坂下町","jp_add_2":"気多宮"},"9696542":{"post_code":"9696542","prefecture":"FUKUSHIMA KEN","city":"KAWANUMA GUN AIZUBANGE MACHI","town":"FURUYASHIKIKO","perfecture_jp":"福島県","jp_add_1":"河沼郡会津坂下町","jp_add_2":"光明寺東甲"},"9696514":{"post_code":"9696514","prefecture":"FUKUSHIMA KEN","city":"KAWANUMA GUN AIZUBANGE MACHI","town":"GOKA","perfecture_jp":"福島県","jp_add_1":"河沼郡会津坂下町","jp_add_2":"五香"},"9696545":{"post_code":"9696545","prefecture":"FUKUSHIMA KEN","city":"KAWANUMA GUN AIZUBANGE MACHI","town":"GOTANDA","perfecture_jp":"福島県","jp_add_1":"河沼郡会津坂下町","jp_add_2":"五反田"},"9696526":{"post_code":"9696526","prefecture":"FUKUSHIMA KEN","city":"KAWANUMA GUN AIZUBANGE MACHI","town":"GONOHEI","perfecture_jp":"福島県","jp_add_1":"河沼郡会津坂下町","jp_add_2":"五ノ併"},"9696586":{"post_code":"9696586","prefecture":"FUKUSHIMA KEN","city":"KAWANUMA GUN AIZUBANGE MACHI","town":"SAKAMOTO","perfecture_jp":"福島県","jp_add_1":"河沼郡会津坂下町","jp_add_2":"坂本"},"9696555":{"post_code":"9696555","prefecture":"FUKUSHIMA KEN","city":"KAWANUMA GUN AIZUBANGE MACHI","town":"SAWANOME","perfecture_jp":"福島県","jp_add_1":"河沼郡会津坂下町","jp_add_2":"沢ノ目"},"9696531":{"post_code":"9696531","prefecture":"FUKUSHIMA KEN","city":"KAWANUMA GUN AIZUBANGE MACHI","town":"HIGASHIJOGUCHIKO","perfecture_jp":"福島県","jp_add_1":"河沼郡会津坂下町","jp_add_2":"上口"},"9696528":{"post_code":"9696528","prefecture":"FUKUSHIMA KEN","city":"KAWANUMA GUN AIZUBANGE MACHI","town":"SHINKAIZU","perfecture_jp":"福島県","jp_add_1":"河沼郡会津坂下町","jp_add_2":"新開津"},"9696565":{"post_code":"9696565","prefecture":"FUKUSHIMA KEN","city":"KAWANUMA GUN AIZUBANGE MACHI","town":"SOROKU","perfecture_jp":"福島県","jp_add_1":"河沼郡会津坂下町","jp_add_2":"惣六"},"9696561":{"post_code":"9696561","prefecture":"FUKUSHIMA KEN","city":"KAWANUMA GUN AIZUBANGE MACHI","town":"DAIDO","perfecture_jp":"福島県","jp_add_1":"河沼郡会津坂下町","jp_add_2":"大道"},"9696582":{"post_code":"9696582","prefecture":"FUKUSHIMA KEN","city":"KAWANUMA GUN AIZUBANGE MACHI","town":"TAKATERA","perfecture_jp":"福島県","jp_add_1":"河沼郡会津坂下町","jp_add_2":"高寺"},"9696513":{"post_code":"9696513","prefecture":"FUKUSHIMA KEN","city":"KAWANUMA GUN AIZUBANGE MACHI","town":"TACHIKAWA","perfecture_jp":"福島県","jp_add_1":"河沼郡会津坂下町","jp_add_2":"立川"},"9696552":{"post_code":"9696552","prefecture":"FUKUSHIMA KEN","city":"KAWANUMA GUN AIZUBANGE MACHI","town":"TATENOCHIKO","perfecture_jp":"福島県","jp_add_1":"河沼郡会津坂下町","jp_add_2":"舘ノ内甲"},"9696551":{"post_code":"9696551","prefecture":"FUKUSHIMA KEN","city":"KAWANUMA GUN AIZUBANGE MACHI","town":"TATENOSHITA","perfecture_jp":"福島県","jp_add_1":"河沼郡会津坂下町","jp_add_2":"舘ノ下"},"9696587":{"post_code":"9696587","prefecture":"FUKUSHIMA KEN","city":"KAWANUMA GUN AIZUBANGE MACHI","town":"TABANEMATSU","perfecture_jp":"福島県","jp_add_1":"河沼郡会津坂下町","jp_add_2":"束松"},"9696548":{"post_code":"9696548","prefecture":"FUKUSHIMA KEN","city":"KAWANUMA GUN AIZUBANGE MACHI","town":"CHAYAMACHIKO","perfecture_jp":"福島県","jp_add_1":"河沼郡会津坂下町","jp_add_2":"茶屋町甲"},"9696524":{"post_code":"9696524","prefecture":"FUKUSHIMA KEN","city":"KAWANUMA GUN AIZUBANGE MACHI","town":"TSUKAHARA","perfecture_jp":"福島県","jp_add_1":"河沼郡会津坂下町","jp_add_2":"束原"},"9696502":{"post_code":"9696502","prefecture":"FUKUSHIMA KEN","city":"KAWANUMA GUN AIZUBANGE MACHI","town":"TSUJIRI","perfecture_jp":"福島県","jp_add_1":"河沼郡会津坂下町","jp_add_2":"津尻"},"9696574":{"post_code":"9696574","prefecture":"FUKUSHIMA KEN","city":"KAWANUMA GUN AIZUBANGE MACHI","town":"TOISHIMA","perfecture_jp":"福島県","jp_add_1":"河沼郡会津坂下町","jp_add_2":"樋島"},"9696584":{"post_code":"9696584","prefecture":"FUKUSHIMA KEN","city":"KAWANUMA GUN AIZUBANGE MACHI","town":"TODERA","perfecture_jp":"福島県","jp_add_1":"河沼郡会津坂下町","jp_add_2":"塔寺"},"9696516":{"post_code":"9696516","prefecture":"FUKUSHIMA KEN","city":"KAWANUMA GUN AIZUBANGE MACHI","town":"NAKAIZUMI","perfecture_jp":"福島県","jp_add_1":"河沼郡会津坂下町","jp_add_2":"中泉"},"9696564":{"post_code":"9696564","prefecture":"FUKUSHIMA KEN","city":"KAWANUMA GUN AIZUBANGE MACHI","town":"NAKAIWATA","perfecture_jp":"福島県","jp_add_1":"河沼郡会津坂下町","jp_add_2":"中岩田"},"9696501":{"post_code":"9696501","prefecture":"FUKUSHIMA KEN","city":"KAWANUMA GUN AIZUBANGE MACHI","town":"NAGAI","perfecture_jp":"福島県","jp_add_1":"河沼郡会津坂下町","jp_add_2":"長井"},"9696505":{"post_code":"9696505","prefecture":"FUKUSHIMA KEN","city":"KAWANUMA GUN AIZUBANGE MACHI","town":"NIIDATE","perfecture_jp":"福島県","jp_add_1":"河沼郡会津坂下町","jp_add_2":"新舘"},"9696512":{"post_code":"9696512","prefecture":"FUKUSHIMA KEN","city":"KAWANUMA GUN AIZUBANGE MACHI","town":"NUMAKOSHI","perfecture_jp":"福島県","jp_add_1":"河沼郡会津坂下町","jp_add_2":"沼越"},"9696567":{"post_code":"9696567","prefecture":"FUKUSHIMA KEN","city":"KAWANUMA GUN AIZUBANGE MACHI","town":"NUMATAKO","perfecture_jp":"福島県","jp_add_1":"河沼郡会津坂下町","jp_add_2":"沼田甲"},"9696572":{"post_code":"9696572","prefecture":"FUKUSHIMA KEN","city":"KAWANUMA GUN AIZUBANGE MACHI","town":"HABAYASHI","perfecture_jp":"福島県","jp_add_1":"河沼郡会津坂下町","jp_add_2":"羽林"},"9696532":{"post_code":"9696532","prefecture":"FUKUSHIMA KEN","city":"KAWANUMA GUN AIZUBANGE MACHI","town":"MICHISHITAHEI","perfecture_jp":"福島県","jp_add_1":"河沼郡会津坂下町","jp_add_2":"東川前丙"},"9696571":{"post_code":"9696571","prefecture":"FUKUSHIMA KEN","city":"KAWANUMA GUN AIZUBANGE MACHI","town":"BYAKKO","perfecture_jp":"福島県","jp_add_1":"河沼郡会津坂下町","jp_add_2":"白狐"},"9696527":{"post_code":"9696527","prefecture":"FUKUSHIMA KEN","city":"KAWANUMA GUN AIZUBANGE MACHI","town":"FUKUHARA","perfecture_jp":"福島県","jp_add_1":"河沼郡会津坂下町","jp_add_2":"福原"},"9696515":{"post_code":"9696515","prefecture":"FUKUSHIMA KEN","city":"KAWANUMA GUN AIZUBANGE MACHI","town":"FUKUHARAMAE","perfecture_jp":"福島県","jp_add_1":"河沼郡会津坂下町","jp_add_2":"福原前"},"9696585":{"post_code":"9696585","prefecture":"FUKUSHIMA KEN","city":"KAWANUMA GUN AIZUBANGE MACHI","town":"FUNASUGI","perfecture_jp":"福島県","jp_add_1":"河沼郡会津坂下町","jp_add_2":"船杉"},"9696539":{"post_code":"9696539","prefecture":"FUKUSHIMA KEN","city":"KAWANUMA GUN AIZUBANGE MACHI","town":"FURUICHIOTSU","perfecture_jp":"福島県","jp_add_1":"河沼郡会津坂下町","jp_add_2":"古市乙"},"9696549":{"post_code":"9696549","prefecture":"FUKUSHIMA KEN","city":"KAWANUMA GUN AIZUBANGE MACHI","town":"FURUMACHIKAWAJIRI","perfecture_jp":"福島県","jp_add_1":"河沼郡会津坂下町","jp_add_2":"古町川尻"},"9696546":{"post_code":"9696546","prefecture":"FUKUSHIMA KEN","city":"KAWANUMA GUN AIZUBANGE MACHI","town":"MAGARIDA","perfecture_jp":"福島県","jp_add_1":"河沼郡会津坂下町","jp_add_2":"曲田"},"9696554":{"post_code":"9696554","prefecture":"FUKUSHIMA KEN","city":"KAWANUMA GUN AIZUBANGE MACHI","town":"MATSUNOME","perfecture_jp":"福島県","jp_add_1":"河沼郡会津坂下町","jp_add_2":"松ノ目"},"9696506":{"post_code":"9696506","prefecture":"FUKUSHIMA KEN","city":"KAWANUMA GUN AIZUBANGE MACHI","town":"MIMYO","perfecture_jp":"福島県","jp_add_1":"河沼郡会津坂下町","jp_add_2":"見明"},"9696522":{"post_code":"9696522","prefecture":"FUKUSHIMA KEN","city":"KAWANUMA GUN AIZUBANGE MACHI","town":"MIYAKO","perfecture_jp":"福島県","jp_add_1":"河沼郡会津坂下町","jp_add_2":"宮古"},"9696504":{"post_code":"9696504","prefecture":"FUKUSHIMA KEN","city":"KAWANUMA GUN AIZUBANGE MACHI","town":"YOKAZAWA","perfecture_jp":"福島県","jp_add_1":"河沼郡会津坂下町","jp_add_2":"八日沢"},"9693500":{"post_code":"9693500","prefecture":"FUKUSHIMA KEN","city":"KAWANUMA GUN YUGAWA MURA","town":"IKANIKEISAIGANAIBAAI","perfecture_jp":"福島県","jp_add_1":"河沼郡湯川村","jp_add_2":""},"9693543":{"post_code":"9693543","prefecture":"FUKUSHIMA KEN","city":"KAWANUMA GUN YUGAWA MURA","town":"OIKAWA","perfecture_jp":"福島県","jp_add_1":"河沼郡湯川村","jp_add_2":"笈川"},"9693554":{"post_code":"9693554","prefecture":"FUKUSHIMA KEN","city":"KAWANUMA GUN YUGAWA MURA","town":"KUMANOME","perfecture_jp":"福島県","jp_add_1":"河沼郡湯川村","jp_add_2":"熊ノ目"},"9693545":{"post_code":"9693545","prefecture":"FUKUSHIMA KEN","city":"KAWANUMA GUN YUGAWA MURA","town":"SAKURAMACHI","perfecture_jp":"福島県","jp_add_1":"河沼郡湯川村","jp_add_2":"桜町"},"9693555":{"post_code":"9693555","prefecture":"FUKUSHIMA KEN","city":"KAWANUMA GUN YUGAWA MURA","town":"SANOME","perfecture_jp":"福島県","jp_add_1":"河沼郡湯川村","jp_add_2":"佐野目"},"9693544":{"post_code":"9693544","prefecture":"FUKUSHIMA KEN","city":"KAWANUMA GUN YUGAWA MURA","town":"SHIMIZUDA","perfecture_jp":"福島県","jp_add_1":"河沼郡湯川村","jp_add_2":"清水田"},"9693556":{"post_code":"9693556","prefecture":"FUKUSHIMA KEN","city":"KAWANUMA GUN YUGAWA MURA","town":"SHOJO","perfecture_jp":"福島県","jp_add_1":"河沼郡湯川村","jp_add_2":"勝常"},"9693553":{"post_code":"9693553","prefecture":"FUKUSHIMA KEN","city":"KAWANUMA GUN YUGAWA MURA","town":"TAGAWA","perfecture_jp":"福島県","jp_add_1":"河沼郡湯川村","jp_add_2":"田川"},"9693551":{"post_code":"9693551","prefecture":"FUKUSHIMA KEN","city":"KAWANUMA GUN YUGAWA MURA","town":"DOBATAKE","perfecture_jp":"福島県","jp_add_1":"河沼郡湯川村","jp_add_2":"堂畑"},"9693541":{"post_code":"9693541","prefecture":"FUKUSHIMA KEN","city":"KAWANUMA GUN YUGAWA MURA","town":"HAMASAKI","perfecture_jp":"福島県","jp_add_1":"河沼郡湯川村","jp_add_2":"浜崎"},"9693552":{"post_code":"9693552","prefecture":"FUKUSHIMA KEN","city":"KAWANUMA GUN YUGAWA MURA","town":"MIKAWA","perfecture_jp":"福島県","jp_add_1":"河沼郡湯川村","jp_add_2":"三川"},"9693546":{"post_code":"9693546","prefecture":"FUKUSHIMA KEN","city":"KAWANUMA GUN YUGAWA MURA","town":"MITAZONO","perfecture_jp":"福島県","jp_add_1":"河沼郡湯川村","jp_add_2":"美田園"},"9693542":{"post_code":"9693542","prefecture":"FUKUSHIMA KEN","city":"KAWANUMA GUN YUGAWA MURA","town":"MINATO","perfecture_jp":"福島県","jp_add_1":"河沼郡湯川村","jp_add_2":"湊"},"9697200":{"post_code":"9697200","prefecture":"FUKUSHIMA KEN","city":"KAWANUMA GUN YANAIZU MACHI","town":"IKANIKEISAIGANAIBAAI","perfecture_jp":"福島県","jp_add_1":"河沼郡柳津町","jp_add_2":""},"9697206":{"post_code":"9697206","prefecture":"FUKUSHIMA KEN","city":"KAWANUMA GUN YANAIZU MACHI","town":"IITANI","perfecture_jp":"福島県","jp_add_1":"河沼郡柳津町","jp_add_2":"飯谷"},"9697204":{"post_code":"9697204","prefecture":"FUKUSHIMA KEN","city":"KAWANUMA GUN YANAIZU MACHI","town":"IKURANO","perfecture_jp":"福島県","jp_add_1":"河沼郡柳津町","jp_add_2":"猪倉野"},"9697323":{"post_code":"9697323","prefecture":"FUKUSHIMA KEN","city":"KAWANUMA GUN YANAIZU MACHI","town":"IMOGOYA","perfecture_jp":"福島県","jp_add_1":"河沼郡柳津町","jp_add_2":"芋小屋"},"9697325":{"post_code":"9697325","prefecture":"FUKUSHIMA KEN","city":"KAWANUMA GUN YANAIZU MACHI","town":"ONARISAWA","perfecture_jp":"福島県","jp_add_1":"河沼郡柳津町","jp_add_2":"大成沢"},"9697202":{"post_code":"9697202","prefecture":"FUKUSHIMA KEN","city":"KAWANUMA GUN YANAIZU MACHI","town":"ORYU","perfecture_jp":"福島県","jp_add_1":"河沼郡柳津町","jp_add_2":"大柳"},"9697324":{"post_code":"9697324","prefecture":"FUKUSHIMA KEN","city":"KAWANUMA GUN YANAIZU MACHI","town":"KABUCHU","perfecture_jp":"福島県","jp_add_1":"河沼郡柳津町","jp_add_2":"胄中"},"9697203":{"post_code":"9697203","prefecture":"FUKUSHIMA KEN","city":"KAWANUMA GUN YANAIZU MACHI","town":"KARUIZAWA","perfecture_jp":"福島県","jp_add_1":"河沼郡柳津町","jp_add_2":"軽井沢"},"9697312":{"post_code":"9697312","prefecture":"FUKUSHIMA KEN","city":"KAWANUMA GUN YANAIZU MACHI","town":"KUBOTA","perfecture_jp":"福島県","jp_add_1":"河沼郡柳津町","jp_add_2":"久保田"},"9697322":{"post_code":"9697322","prefecture":"FUKUSHIMA KEN","city":"KAWANUMA GUN YANAIZU MACHI","town":"KUROSAWA","perfecture_jp":"福島県","jp_add_1":"河沼郡柳津町","jp_add_2":"黒沢"},"9697205":{"post_code":"9697205","prefecture":"FUKUSHIMA KEN","city":"KAWANUMA GUN YANAIZU MACHI","town":"GODO","perfecture_jp":"福島県","jp_add_1":"河沼郡柳津町","jp_add_2":"郷戸"},"9697313":{"post_code":"9697313","prefecture":"FUKUSHIMA KEN","city":"KAWANUMA GUN YANAIZU MACHI","town":"GOJOJIKI","perfecture_jp":"福島県","jp_add_1":"河沼郡柳津町","jp_add_2":"五畳敷"},"9697207":{"post_code":"9697207","prefecture":"FUKUSHIMA KEN","city":"KAWANUMA GUN YANAIZU MACHI","town":"KOTSUBAKI","perfecture_jp":"福島県","jp_add_1":"河沼郡柳津町","jp_add_2":"小椿"},"9697321":{"post_code":"9697321","prefecture":"FUKUSHIMA KEN","city":"KAWANUMA GUN YANAIZU MACHI","town":"SUNAKOHARA","perfecture_jp":"福島県","jp_add_1":"河沼郡柳津町","jp_add_2":"砂子原"},"9697326":{"post_code":"9697326","prefecture":"FUKUSHIMA KEN","city":"KAWANUMA GUN YANAIZU MACHI","town":"BIWAKUBI","perfecture_jp":"福島県","jp_add_1":"河沼郡柳津町","jp_add_2":"琵琶首"},"9697208":{"post_code":"9697208","prefecture":"FUKUSHIMA KEN","city":"KAWANUMA GUN YANAIZU MACHI","town":"FUJI","perfecture_jp":"福島県","jp_add_1":"河沼郡柳津町","jp_add_2":"藤"},"9697209":{"post_code":"9697209","prefecture":"FUKUSHIMA KEN","city":"KAWANUMA GUN YANAIZU MACHI","town":"HOSOHACHI","perfecture_jp":"福島県","jp_add_1":"河沼郡柳津町","jp_add_2":"細八"},"9697314":{"post_code":"9697314","prefecture":"FUKUSHIMA KEN","city":"KAWANUMA GUN YANAIZU MACHI","town":"MAKIZAWA","perfecture_jp":"福島県","jp_add_1":"河沼郡柳津町","jp_add_2":"牧沢"},"9697201":{"post_code":"9697201","prefecture":"FUKUSHIMA KEN","city":"KAWANUMA GUN YANAIZU MACHI","town":"YANAIZU","perfecture_jp":"福島県","jp_add_1":"河沼郡柳津町","jp_add_2":"柳津"},"9697311":{"post_code":"9697311","prefecture":"FUKUSHIMA KEN","city":"KAWANUMA GUN YANAIZU MACHI","town":"YUYAGISAWA","perfecture_jp":"福島県","jp_add_1":"河沼郡柳津町","jp_add_2":"湯八木沢"},"9697315":{"post_code":"9697315","prefecture":"FUKUSHIMA KEN","city":"KAWANUMA GUN YANAIZU MACHI","town":"YOTSUYA","perfecture_jp":"福島県","jp_add_1":"河沼郡柳津町","jp_add_2":"四つ谷"},"9697500":{"post_code":"9697500","prefecture":"FUKUSHIMA KEN","city":"ONUMA GUN MISHIMA MACHI","town":"IKANIKEISAIGANAIBAAI","perfecture_jp":"福島県","jp_add_1":"大沼郡三島町","jp_add_2":""},"9697518":{"post_code":"9697518","prefecture":"FUKUSHIMA KEN","city":"ONUMA GUN MISHIMA MACHI","town":"ASAMATA","perfecture_jp":"福島県","jp_add_1":"大沼郡三島町","jp_add_2":"浅岐"},"9697407":{"post_code":"9697407","prefecture":"FUKUSHIMA KEN","city":"ONUMA GUN MISHIMA MACHI","town":"OISHIDA","perfecture_jp":"福島県","jp_add_1":"大沼郡三島町","jp_add_2":"大石田"},"9697517":{"post_code":"9697517","prefecture":"FUKUSHIMA KEN","city":"ONUMA GUN MISHIMA MACHI","town":"OTANI","perfecture_jp":"福島県","jp_add_1":"大沼郡三島町","jp_add_2":"大谷"},"9697516":{"post_code":"9697516","prefecture":"FUKUSHIMA KEN","city":"ONUMA GUN MISHIMA MACHI","town":"ONOBORI","perfecture_jp":"福島県","jp_add_1":"大沼郡三島町","jp_add_2":"大登"},"9697515":{"post_code":"9697515","prefecture":"FUKUSHIMA KEN","city":"ONUMA GUN MISHIMA MACHI","town":"KAWAI","perfecture_jp":"福島県","jp_add_1":"大沼郡三島町","jp_add_2":"川井"},"9697512":{"post_code":"9697512","prefecture":"FUKUSHIMA KEN","city":"ONUMA GUN MISHIMA MACHI","town":"KUWANOHARA","perfecture_jp":"福島県","jp_add_1":"大沼郡三島町","jp_add_2":"桑原"},"9697403":{"post_code":"9697403","prefecture":"FUKUSHIMA KEN","city":"ONUMA GUN MISHIMA MACHI","town":"KOYAMA","perfecture_jp":"福島県","jp_add_1":"大沼郡三島町","jp_add_2":"小山"},"9697404":{"post_code":"9697404","prefecture":"FUKUSHIMA KEN","city":"ONUMA GUN MISHIMA MACHI","town":"TAKASHIMIZU","perfecture_jp":"福島県","jp_add_1":"大沼郡三島町","jp_add_2":"高清水"},"9697405":{"post_code":"9697405","prefecture":"FUKUSHIMA KEN","city":"ONUMA GUN MISHIMA MACHI","town":"TAKIBARA","perfecture_jp":"福島県","jp_add_1":"大沼郡三島町","jp_add_2":"滝原"},"9697514":{"post_code":"9697514","prefecture":"FUKUSHIMA KEN","city":"ONUMA GUN MISHIMA MACHI","town":"TAKIYA","perfecture_jp":"福島県","jp_add_1":"大沼郡三島町","jp_add_2":"滝谷"},"9697402":{"post_code":"9697402","prefecture":"FUKUSHIMA KEN","city":"ONUMA GUN MISHIMA MACHI","town":"NAIRI","perfecture_jp":"福島県","jp_add_1":"大沼郡三島町","jp_add_2":"名入"},"9697401":{"post_code":"9697401","prefecture":"FUKUSHIMA KEN","city":"ONUMA GUN MISHIMA MACHI","town":"NISHIKATA","perfecture_jp":"福島県","jp_add_1":"大沼郡三島町","jp_add_2":"西方"},"9697406":{"post_code":"9697406","prefecture":"FUKUSHIMA KEN","city":"ONUMA GUN MISHIMA MACHI","town":"HAYATO","perfecture_jp":"福島県","jp_add_1":"大沼郡三島町","jp_add_2":"早戸"},"9697413":{"post_code":"9697413","prefecture":"FUKUSHIMA KEN","city":"ONUMA GUN MISHIMA MACHI","town":"HINOHARA(KOWAZE)","perfecture_jp":"福島県","jp_add_1":"大沼郡三島町","jp_add_2":"桧原"},"9697513":{"post_code":"9697513","prefecture":"FUKUSHIMA KEN","city":"ONUMA GUN MISHIMA MACHI","town":"HINOHARA(SONOTA)","perfecture_jp":"福島県","jp_add_1":"大沼郡三島町","jp_add_2":"桧原"},"9697519":{"post_code":"9697519","prefecture":"FUKUSHIMA KEN","city":"ONUMA GUN MISHIMA MACHI","town":"MAGATA","perfecture_jp":"福島県","jp_add_1":"大沼郡三島町","jp_add_2":"間方"},"9697511":{"post_code":"9697511","prefecture":"FUKUSHIMA KEN","city":"ONUMA GUN MISHIMA MACHI","town":"MIYASHITA","perfecture_jp":"福島県","jp_add_1":"大沼郡三島町","jp_add_2":"宮下"},"9696200":{"post_code":"9696200","prefecture":"FUKUSHIMA KEN","city":"ONUMA GUN AIZUMISATO MACHI","town":"IKANIKEISAIGANAIBAAI","perfecture_jp":"福島県","jp_add_1":"大沼郡会津美里町","jp_add_2":""},"9696272":{"post_code":"9696272","prefecture":"FUKUSHIMA KEN","city":"ONUMA GUN AIZUMISATO MACHI","town":"AKARU","perfecture_jp":"福島県","jp_add_1":"大沼郡会津美里町","jp_add_2":"赤留"},"9696222":{"post_code":"9696222","prefecture":"FUKUSHIMA KEN","city":"ONUMA GUN AIZUMISATO MACHI","town":"ASAHIICHIKAWA","perfecture_jp":"福島県","jp_add_1":"大沼郡会津美里町","jp_add_2":"旭市川"},"9696226":{"post_code":"9696226","prefecture":"FUKUSHIMA KEN","city":"ONUMA GUN AIZUMISATO MACHI","town":"ASAHISUGIHARA","perfecture_jp":"福島県","jp_add_1":"大沼郡会津美里町","jp_add_2":"旭杉原"},"9696221":{"post_code":"9696221","prefecture":"FUKUSHIMA KEN","city":"ONUMA GUN AIZUMISATO MACHI","town":"ASAHITATEHATA","perfecture_jp":"福島県","jp_add_1":"大沼郡会津美里町","jp_add_2":"旭館端"},"9696223":{"post_code":"9696223","prefecture":"FUKUSHIMA KEN","city":"ONUMA GUN AIZUMISATO MACHI","town":"ASAHITERAIRI","perfecture_jp":"福島県","jp_add_1":"大沼郡会津美里町","jp_add_2":"旭寺入"},"9696225":{"post_code":"9696225","prefecture":"FUKUSHIMA KEN","city":"ONUMA GUN AIZUMISATO MACHI","town":"ASAHIMIYOSE","perfecture_jp":"福島県","jp_add_1":"大沼郡会津美里町","jp_add_2":"旭三寄"},"9696224":{"post_code":"9696224","prefecture":"FUKUSHIMA KEN","city":"ONUMA GUN AIZUMISATO MACHI","town":"ASAHIMURYO","perfecture_jp":"福島県","jp_add_1":"大沼郡会津美里町","jp_add_2":"旭無量"},"9696351":{"post_code":"9696351","prefecture":"FUKUSHIMA KEN","city":"ONUMA GUN AIZUMISATO MACHI","town":"ANADA","perfecture_jp":"福島県","jp_add_1":"大沼郡会津美里町","jp_add_2":"穴田"},"9696352":{"post_code":"9696352","prefecture":"FUKUSHIMA KEN","city":"ONUMA GUN AIZUMISATO MACHI","town":"ANADAOTSU","perfecture_jp":"福島県","jp_add_1":"大沼郡会津美里町","jp_add_2":"穴田乙"},"9696266":{"post_code":"9696266","prefecture":"FUKUSHIMA KEN","city":"ONUMA GUN AIZUMISATO MACHI","town":"RYUKOJIKITA","perfecture_jp":"福島県","jp_add_1":"大沼郡会津美里町","jp_add_2":"油田"},"9696171":{"post_code":"9696171","prefecture":"FUKUSHIMA KEN","city":"ONUMA GUN AIZUMISATO MACHI","town":"ARAI","perfecture_jp":"福島県","jp_add_1":"大沼郡会津美里町","jp_add_2":"荒井"},"9696027":{"post_code":"9696027","prefecture":"FUKUSHIMA KEN","city":"ONUMA GUN AIZUMISATO MACHI","town":"ARAIKO","perfecture_jp":"福島県","jp_add_1":"大沼郡会津美里町","jp_add_2":"荒井甲"},"9696161":{"post_code":"9696161","prefecture":"FUKUSHIMA KEN","city":"ONUMA GUN AIZUMISATO MACHI","town":"ARAIMAE","perfecture_jp":"福島県","jp_add_1":"大沼郡会津美里町","jp_add_2":"荒井前"},"9696111":{"post_code":"9696111","prefecture":"FUKUSHIMA KEN","city":"ONUMA GUN AIZUMISATO MACHI","town":"IENISHI","perfecture_jp":"福島県","jp_add_1":"大沼郡会津美里町","jp_add_2":"家西"},"9696037":{"post_code":"9696037","prefecture":"FUKUSHIMA KEN","city":"ONUMA GUN AIZUMISATO MACHI","town":"IENISHIKO","perfecture_jp":"福島県","jp_add_1":"大沼郡会津美里町","jp_add_2":"家西甲"},"9696206":{"post_code":"9696206","prefecture":"FUKUSHIMA KEN","city":"ONUMA GUN AIZUMISATO MACHI","town":"YOSHIZOE","perfecture_jp":"福島県","jp_add_1":"大沼郡会津美里町","jp_add_2":"家ノ下"},"9696112":{"post_code":"9696112","prefecture":"FUKUSHIMA KEN","city":"ONUMA GUN AIZUMISATO MACHI","town":"IEHIGASHIKO","perfecture_jp":"福島県","jp_add_1":"大沼郡会津美里町","jp_add_2":"家東甲"},"9696151":{"post_code":"9696151","prefecture":"FUKUSHIMA KEN","city":"ONUMA GUN AIZUMISATO MACHI","town":"ISHIKIRIBATAKE","perfecture_jp":"福島県","jp_add_1":"大沼郡会津美里町","jp_add_2":"石切畑"},"9696046":{"post_code":"9696046","prefecture":"FUKUSHIMA KEN","city":"ONUMA GUN AIZUMISATO MACHI","town":"ISHIKIRIBATAKO","perfecture_jp":"福島県","jp_add_1":"大沼郡会津美里町","jp_add_2":"石切畑甲"},"9696307":{"post_code":"9696307","prefecture":"FUKUSHIMA KEN","city":"ONUMA GUN AIZUMISATO MACHI","town":"ISHIDAKO","perfecture_jp":"福島県","jp_add_1":"大沼郡会津美里町","jp_add_2":"石田甲"},"9696036":{"post_code":"9696036","prefecture":"FUKUSHIMA KEN","city":"ONUMA GUN AIZUMISATO MACHI","town":"UENOKAWARA","perfecture_jp":"福島県","jp_add_1":"大沼郡会津美里町","jp_add_2":"上野川原"},"9696261":{"post_code":"9696261","prefecture":"FUKUSHIMA KEN","city":"ONUMA GUN AIZUMISATO MACHI","town":"HIGASHIKAWARA","perfecture_jp":"福島県","jp_add_1":"大沼郡会津美里町","jp_add_2":"内川原"},"9696265":{"post_code":"9696265","prefecture":"FUKUSHIMA KEN","city":"ONUMA GUN AIZUMISATO MACHI","town":"ROKUJIZO","perfecture_jp":"福島県","jp_add_1":"大沼郡会津美里町","jp_add_2":"漆原北"},"9696407":{"post_code":"9696407","prefecture":"FUKUSHIMA KEN","city":"ONUMA GUN AIZUMISATO MACHI","town":"UWADAIRA","perfecture_jp":"福島県","jp_add_1":"大沼郡会津美里町","jp_add_2":"上平"},"9696061":{"post_code":"9696061","prefecture":"FUKUSHIMA KEN","city":"ONUMA GUN AIZUMISATO MACHI","town":"UWAMACHIKO","perfecture_jp":"福島県","jp_add_1":"大沼郡会津美里町","jp_add_2":"上町甲"},"9696101":{"post_code":"9696101","prefecture":"FUKUSHIMA KEN","city":"ONUMA GUN AIZUMISATO MACHI","town":"EKIMAE","perfecture_jp":"福島県","jp_add_1":"大沼郡会津美里町","jp_add_2":"駅前"},"9696121":{"post_code":"9696121","prefecture":"FUKUSHIMA KEN","city":"ONUMA GUN AIZUMISATO MACHI","town":"EMMEIJIMAE","perfecture_jp":"福島県","jp_add_1":"大沼郡会津美里町","jp_add_2":"延命寺前"},"9696306":{"post_code":"9696306","prefecture":"FUKUSHIMA KEN","city":"ONUMA GUN AIZUMISATO MACHI","town":"EMMEIJIMAEOTSU","perfecture_jp":"福島県","jp_add_1":"大沼郡会津美里町","jp_add_2":"延命寺前乙"},"9696305":{"post_code":"9696305","prefecture":"FUKUSHIMA KEN","city":"ONUMA GUN AIZUMISATO MACHI","town":"EMMEIJIMAEKO","perfecture_jp":"福島県","jp_add_1":"大沼郡会津美里町","jp_add_2":"延命寺前甲"},"9696131":{"post_code":"9696131","prefecture":"FUKUSHIMA KEN","city":"ONUMA GUN AIZUMISATO MACHI","town":"OISHI","perfecture_jp":"福島県","jp_add_1":"大沼郡会津美里町","jp_add_2":"大石"},"9696057":{"post_code":"9696057","prefecture":"FUKUSHIMA KEN","city":"ONUMA GUN AIZUMISATO MACHI","town":"OKAWABATAKO","perfecture_jp":"福島県","jp_add_1":"大沼郡会津美里町","jp_add_2":"大川端甲"},"9696141":{"post_code":"9696141","prefecture":"FUKUSHIMA KEN","city":"ONUMA GUN AIZUMISATO MACHI","town":"OHACHIGO","perfecture_jp":"福島県","jp_add_1":"大沼郡会津美里町","jp_add_2":"大八郷"},"9696333":{"post_code":"9696333","prefecture":"FUKUSHIMA KEN","city":"ONUMA GUN AIZUMISATO MACHI","town":"OHACHIGOOTSU","perfecture_jp":"福島県","jp_add_1":"大沼郡会津美里町","jp_add_2":"大八郷乙"},"9696173":{"post_code":"9696173","prefecture":"FUKUSHIMA KEN","city":"ONUMA GUN AIZUMISATO MACHI","town":"OMICHIKAMI","perfecture_jp":"福島県","jp_add_1":"大沼郡会津美里町","jp_add_2":"大道上"},"9696022":{"post_code":"9696022","prefecture":"FUKUSHIMA KEN","city":"ONUMA GUN AIZUMISATO MACHI","town":"OMICHIKAMIKO","perfecture_jp":"福島県","jp_add_1":"大沼郡会津美里町","jp_add_2":"大道上甲"},"9696242":{"post_code":"9696242","prefecture":"FUKUSHIMA KEN","city":"ONUMA GUN AIZUMISATO MACHI","town":"OMURO","perfecture_jp":"福島県","jp_add_1":"大沼郡会津美里町","jp_add_2":"大室"},"9696254":{"post_code":"9696254","prefecture":"FUKUSHIMA KEN","city":"ONUMA GUN AIZUMISATO MACHI","town":"OGIKUBO","perfecture_jp":"福島県","jp_add_1":"大沼郡会津美里町","jp_add_2":"荻窪"},"9696343":{"post_code":"9696343","prefecture":"FUKUSHIMA KEN","city":"ONUMA GUN AIZUMISATO MACHI","town":"OKITA","perfecture_jp":"福島県","jp_add_1":"大沼郡会津美里町","jp_add_2":"沖田"},"9696409":{"post_code":"9696409","prefecture":"FUKUSHIMA KEN","city":"ONUMA GUN AIZUMISATO MACHI","town":"OZAWA","perfecture_jp":"福島県","jp_add_1":"大沼郡会津美里町","jp_add_2":"小沢"},"9696231":{"post_code":"9696231","prefecture":"FUKUSHIMA KEN","city":"ONUMA GUN AIZUMISATO MACHI","town":"OMATAKUBO","perfecture_jp":"福島県","jp_add_1":"大沼郡会津美里町","jp_add_2":"尾岐窪"},"9696051":{"post_code":"9696051","prefecture":"FUKUSHIMA KEN","city":"ONUMA GUN AIZUMISATO MACHI","town":"OMOIBORI","perfecture_jp":"福島県","jp_add_1":"大沼郡会津美里町","jp_add_2":"思堀"},"9696102":{"post_code":"9696102","prefecture":"FUKUSHIMA KEN","city":"ONUMA GUN AIZUMISATO MACHI","town":"OMOIBORIMUKAI","perfecture_jp":"福島県","jp_add_1":"大沼郡会津美里町","jp_add_2":"思堀向"},"9696205":{"post_code":"9696205","prefecture":"FUKUSHIMA KEN","city":"ONUMA GUN AIZUMISATO MACHI","town":"ONTA","perfecture_jp":"福島県","jp_add_1":"大沼郡会津美里町","jp_add_2":"御田"},"9696262":{"post_code":"9696262","prefecture":"FUKUSHIMA KEN","city":"ONUMA GUN AIZUMISATO MACHI","town":"HODOJIMINAMIKO","perfecture_jp":"福島県","jp_add_1":"大沼郡会津美里町","jp_add_2":"鹿島"},"9696213":{"post_code":"9696213","prefecture":"FUKUSHIMA KEN","city":"ONUMA GUN AIZUMISATO MACHI","town":"KATSUHARA","perfecture_jp":"福島県","jp_add_1":"大沼郡会津美里町","jp_add_2":"勝原"},"9696103":{"post_code":"9696103","prefecture":"FUKUSHIMA KEN","city":"ONUMA GUN AIZUMISATO MACHI","town":"KAMIMURAKITA","perfecture_jp":"福島県","jp_add_1":"大沼郡会津美里町","jp_add_2":"上村北"},"9696104":{"post_code":"9696104","prefecture":"FUKUSHIMA KEN","city":"ONUMA GUN AIZUMISATO MACHI","town":"KAMIMURANISHIMICHISHITA","perfecture_jp":"福島県","jp_add_1":"大沼郡会津美里町","jp_add_2":"上村西道上"},"9696105":{"post_code":"9696105","prefecture":"FUKUSHIMA KEN","city":"ONUMA GUN AIZUMISATO MACHI","town":"KAMIMURAMINAMI","perfecture_jp":"福島県","jp_add_1":"大沼郡会津美里町","jp_add_2":"上村東"},"9696159":{"post_code":"9696159","prefecture":"FUKUSHIMA KEN","city":"ONUMA GUN AIZUMISATO MACHI","town":"KAWAHARACHOKITA","perfecture_jp":"福島県","jp_add_1":"大沼郡会津美里町","jp_add_2":"川原町北"},"9696041":{"post_code":"9696041","prefecture":"FUKUSHIMA KEN","city":"ONUMA GUN AIZUMISATO MACHI","town":"KAWARACHO","perfecture_jp":"福島県","jp_add_1":"大沼郡会津美里町","jp_add_2":"川原町"},"9696024":{"post_code":"9696024","prefecture":"FUKUSHIMA KEN","city":"ONUMA GUN AIZUMISATO MACHI","town":"KAWARACHOKITAKO","perfecture_jp":"福島県","jp_add_1":"大沼郡会津美里町","jp_add_2":"川原町北甲"},"9696152":{"post_code":"9696152","prefecture":"FUKUSHIMA KEN","city":"ONUMA GUN AIZUMISATO MACHI","town":"KAWARACHOKO","perfecture_jp":"福島県","jp_add_1":"大沼郡会津美里町","jp_add_2":"川原町甲"},"9696154":{"post_code":"9696154","prefecture":"FUKUSHIMA KEN","city":"ONUMA GUN AIZUMISATO MACHI","town":"KITAURA","perfecture_jp":"福島県","jp_add_1":"大沼郡会津美里町","jp_add_2":"北浦"},"9696045":{"post_code":"9696045","prefecture":"FUKUSHIMA KEN","city":"ONUMA GUN AIZUMISATO MACHI","town":"KITAURAKO","perfecture_jp":"福島県","jp_add_1":"大沼郡会津美里町","jp_add_2":"北浦甲"},"9696155":{"post_code":"9696155","prefecture":"FUKUSHIMA KEN","city":"ONUMA GUN AIZUMISATO MACHI","town":"KITAGAWARA","perfecture_jp":"福島県","jp_add_1":"大沼郡会津美里町","jp_add_2":"北川原"},"9696047":{"post_code":"9696047","prefecture":"FUKUSHIMA KEN","city":"ONUMA GUN AIZUMISATO MACHI","town":"KITAGAWARAKO","perfecture_jp":"福島県","jp_add_1":"大沼郡会津美里町","jp_add_2":"北川原甲"},"9696316":{"post_code":"9696316","prefecture":"FUKUSHIMA KEN","city":"ONUMA GUN AIZUMISATO MACHI","town":"KITAHARA","perfecture_jp":"福島県","jp_add_1":"大沼郡会津美里町","jp_add_2":"北原"},"9696318":{"post_code":"9696318","prefecture":"FUKUSHIMA KEN","city":"ONUMA GUN AIZUMISATO MACHI","town":"KITAHARAOTSU","perfecture_jp":"福島県","jp_add_1":"大沼郡会津美里町","jp_add_2":"北原乙"},"9696317":{"post_code":"9696317","prefecture":"FUKUSHIMA KEN","city":"ONUMA GUN AIZUMISATO MACHI","town":"KITAHARAKO","perfecture_jp":"福島県","jp_add_1":"大沼郡会津美里町","jp_add_2":"北原甲"},"9696342":{"post_code":"9696342","prefecture":"FUKUSHIMA KEN","city":"ONUMA GUN AIZUMISATO MACHI","town":"KURATA","perfecture_jp":"福島県","jp_add_1":"大沼郡会津美里町","jp_add_2":"倉田"},"9696113":{"post_code":"9696113","prefecture":"FUKUSHIMA KEN","city":"ONUMA GUN AIZUMISATO MACHI","town":"KURUMAGAWARA","perfecture_jp":"福島県","jp_add_1":"大沼郡会津美里町","jp_add_2":"車川原"},"9696068":{"post_code":"9696068","prefecture":"FUKUSHIMA KEN","city":"ONUMA GUN AIZUMISATO MACHI","town":"KURUMAGAWARAKO","perfecture_jp":"福島県","jp_add_1":"大沼郡会津美里町","jp_add_2":"車川原甲"},"9696052":{"post_code":"9696052","prefecture":"FUKUSHIMA KEN","city":"ONUMA GUN AIZUMISATO MACHI","town":"KUROKAWA","perfecture_jp":"福島県","jp_add_1":"大沼郡会津美里町","jp_add_2":"黒川"},"9696106":{"post_code":"9696106","prefecture":"FUKUSHIMA KEN","city":"ONUMA GUN AIZUMISATO MACHI","town":"KUROKAWAUCHI","perfecture_jp":"福島県","jp_add_1":"大沼郡会津美里町","jp_add_2":"黒川内"},"9696163":{"post_code":"9696163","prefecture":"FUKUSHIMA KEN","city":"ONUMA GUN AIZUMISATO MACHI","town":"KUROSAWA","perfecture_jp":"福島県","jp_add_1":"大沼郡会津美里町","jp_add_2":"黒沢"},"9696304":{"post_code":"9696304","prefecture":"FUKUSHIMA KEN","city":"ONUMA GUN AIZUMISATO MACHI","town":"KUROSAWAKO","perfecture_jp":"福島県","jp_add_1":"大沼郡会津美里町","jp_add_2":"黒沢甲"},"9696062":{"post_code":"9696062","prefecture":"FUKUSHIMA KEN","city":"ONUMA GUN AIZUMISATO MACHI","town":"GOYOCHI","perfecture_jp":"福島県","jp_add_1":"大沼郡会津美里町","jp_add_2":"御用地"},"9696114":{"post_code":"9696114","prefecture":"FUKUSHIMA KEN","city":"ONUMA GUN AIZUMISATO MACHI","town":"GOYOCHIATO","perfecture_jp":"福島県","jp_add_1":"大沼郡会津美里町","jp_add_2":"御用地跡"},"9696063":{"post_code":"9696063","prefecture":"FUKUSHIMA KEN","city":"ONUMA GUN AIZUMISATO MACHI","town":"GOYOCHIATOKO","perfecture_jp":"福島県","jp_add_1":"大沼郡会津美里町","jp_add_2":"御用地跡甲"},"9696038":{"post_code":"9696038","prefecture":"FUKUSHIMA KEN","city":"ONUMA GUN AIZUMISATO MACHI","town":"GOYOCHIKO","perfecture_jp":"福島県","jp_add_1":"大沼郡会津美里町","jp_add_2":"御用地甲"},"9696023":{"post_code":"9696023","prefecture":"FUKUSHIMA KEN","city":"ONUMA GUN AIZUMISATO MACHI","town":"KONUEMONDEN","perfecture_jp":"福島県","jp_add_1":"大沼郡会津美里町","jp_add_2":"近右エ門田"},"9696174":{"post_code":"9696174","prefecture":"FUKUSHIMA KEN","city":"ONUMA GUN AIZUMISATO MACHI","town":"GONGENDO","perfecture_jp":"福島県","jp_add_1":"大沼郡会津美里町","jp_add_2":"権現堂"},"9696025":{"post_code":"9696025","prefecture":"FUKUSHIMA KEN","city":"ONUMA GUN AIZUMISATO MACHI","town":"GONGENDOKO","perfecture_jp":"福島県","jp_add_1":"大沼郡会津美里町","jp_add_2":"権現堂甲"},"9696404":{"post_code":"9696404","prefecture":"FUKUSHIMA KEN","city":"ONUMA GUN AIZUMISATO MACHI","town":"SAKAINO","perfecture_jp":"福島県","jp_add_1":"大沼郡会津美里町","jp_add_2":"境野"},"9696406":{"post_code":"9696406","prefecture":"FUKUSHIMA KEN","city":"ONUMA GUN AIZUMISATO MACHI","town":"SAKASEGAWA","perfecture_jp":"福島県","jp_add_1":"大沼郡会津美里町","jp_add_2":"佐賀瀬川"},"9696029":{"post_code":"9696029","prefecture":"FUKUSHIMA KEN","city":"ONUMA GUN AIZUMISATO MACHI","town":"SAMBOMMATSUKO","perfecture_jp":"福島県","jp_add_1":"大沼郡会津美里町","jp_add_2":"三本松甲"},"9696314":{"post_code":"9696314","prefecture":"FUKUSHIMA KEN","city":"ONUMA GUN AIZUMISATO MACHI","town":"SHIMIZUKAWAKO","perfecture_jp":"福島県","jp_add_1":"大沼郡会津美里町","jp_add_2":"清水川甲"},"9696311":{"post_code":"9696311","prefecture":"FUKUSHIMA KEN","city":"ONUMA GUN AIZUMISATO MACHI","town":"SHIMIZUDAI","perfecture_jp":"福島県","jp_add_1":"大沼郡会津美里町","jp_add_2":"清水台"},"9696312":{"post_code":"9696312","prefecture":"FUKUSHIMA KEN","city":"ONUMA GUN AIZUMISATO MACHI","town":"SHIMIZUDAIKO","perfecture_jp":"福島県","jp_add_1":"大沼郡会津美里町","jp_add_2":"清水台甲"},"9696166":{"post_code":"9696166","prefecture":"FUKUSHIMA KEN","city":"ONUMA GUN AIZUMISATO MACHI","town":"SHIMOGAWARA","perfecture_jp":"福島県","jp_add_1":"大沼郡会津美里町","jp_add_2":"下川原"},"9696313":{"post_code":"9696313","prefecture":"FUKUSHIMA KEN","city":"ONUMA GUN AIZUMISATO MACHI","town":"SHIMOKAWARAKO","perfecture_jp":"福島県","jp_add_1":"大沼郡会津美里町","jp_add_2":"下川原甲"},"9696215":{"post_code":"9696215","prefecture":"FUKUSHIMA KEN","city":"ONUMA GUN AIZUMISATO MACHI","town":"SHIMOHORI","perfecture_jp":"福島県","jp_add_1":"大沼郡会津美里町","jp_add_2":"下堀"},"9696256":{"post_code":"9696256","prefecture":"FUKUSHIMA KEN","city":"ONUMA GUN AIZUMISATO MACHI","town":"JODOHARA","perfecture_jp":"福島県","jp_add_1":"大沼郡会津美里町","jp_add_2":"上戸原"},"9696115":{"post_code":"9696115","prefecture":"FUKUSHIMA KEN","city":"ONUMA GUN AIZUMISATO MACHI","town":"SHINCHO","perfecture_jp":"福島県","jp_add_1":"大沼郡会津美里町","jp_add_2":"新町"},"9696267":{"post_code":"9696267","prefecture":"FUKUSHIMA KEN","city":"ONUMA GUN AIZUMISATO MACHI","town":"NISHIURA","perfecture_jp":"福島県","jp_add_1":"大沼郡会津美里町","jp_add_2":"新丁西"},"9696402":{"post_code":"9696402","prefecture":"FUKUSHIMA KEN","city":"ONUMA GUN AIZUMISATO MACHI","town":"SHINYASHIKI","perfecture_jp":"福島県","jp_add_1":"大沼郡会津美里町","jp_add_2":"新屋敷"},"9696107":{"post_code":"9696107","prefecture":"FUKUSHIMA KEN","city":"ONUMA GUN AIZUMISATO MACHI","town":"SHINYOCHI","perfecture_jp":"福島県","jp_add_1":"大沼郡会津美里町","jp_add_2":"新用地"},"9696162":{"post_code":"9696162","prefecture":"FUKUSHIMA KEN","city":"ONUMA GUN AIZUMISATO MACHI","town":"SUGI","perfecture_jp":"福島県","jp_add_1":"大沼郡会津美里町","jp_add_2":"杉"},"9696301":{"post_code":"9696301","prefecture":"FUKUSHIMA KEN","city":"ONUMA GUN AIZUMISATO MACHI","town":"SUGIKO","perfecture_jp":"福島県","jp_add_1":"大沼郡会津美里町","jp_add_2":"杉甲"},"9696253":{"post_code":"9696253","prefecture":"FUKUSHIMA KEN","city":"ONUMA GUN AIZUMISATO MACHI","town":"SUGIYA","perfecture_jp":"福島県","jp_add_1":"大沼郡会津美里町","jp_add_2":"杉屋"},"9696274":{"post_code":"9696274","prefecture":"FUKUSHIMA KEN","city":"ONUMA GUN AIZUMISATO MACHI","town":"SUZUMEBAYASHI","perfecture_jp":"福島県","jp_add_1":"大沼郡会津美里町","jp_add_2":"雀林"},"9696263":{"post_code":"9696263","prefecture":"FUKUSHIMA KEN","city":"ONUMA GUN AIZUMISATO MACHI","town":"MONJUHIGASHI","perfecture_jp":"福島県","jp_add_1":"大沼郡会津美里町","jp_add_2":"清竜寺北"},"9696108":{"post_code":"9696108","prefecture":"FUKUSHIMA KEN","city":"ONUMA GUN AIZUMISATO MACHI","town":"SEKISHITA","perfecture_jp":"福島県","jp_add_1":"大沼郡会津美里町","jp_add_2":"堰下"},"9696033":{"post_code":"9696033","prefecture":"FUKUSHIMA KEN","city":"ONUMA GUN AIZUMISATO MACHI","town":"SEKIMUKAI","perfecture_jp":"福島県","jp_add_1":"大沼郡会津美里町","jp_add_2":"堰向"},"9696034":{"post_code":"9696034","prefecture":"FUKUSHIMA KEN","city":"ONUMA GUN AIZUMISATO MACHI","town":"SEKIMUKAIKO","perfecture_jp":"福島県","jp_add_1":"大沼郡会津美里町","jp_add_2":"堰向甲"},"9696116":{"post_code":"9696116","prefecture":"FUKUSHIMA KEN","city":"ONUMA GUN AIZUMISATO MACHI","town":"SETOMACHI","perfecture_jp":"福島県","jp_add_1":"大沼郡会津美里町","jp_add_2":"瀬戸町"},"9696042":{"post_code":"9696042","prefecture":"FUKUSHIMA KEN","city":"ONUMA GUN AIZUMISATO MACHI","town":"SETOMACHIKO","perfecture_jp":"福島県","jp_add_1":"大沼郡会津美里町","jp_add_2":"瀬戸町甲"},"9696044":{"post_code":"9696044","prefecture":"FUKUSHIMA KEN","city":"ONUMA GUN AIZUMISATO MACHI","town":"SETOYAMAE","perfecture_jp":"福島県","jp_add_1":"大沼郡会津美里町","jp_add_2":"瀬戸屋前"},"9696156":{"post_code":"9696156","prefecture":"FUKUSHIMA KEN","city":"ONUMA GUN AIZUMISATO MACHI","town":"SETOYAMAEKO","perfecture_jp":"福島県","jp_add_1":"大沼郡会津美里町","jp_add_2":"瀬戸屋前甲"},"9696055":{"post_code":"9696055","prefecture":"FUKUSHIMA KEN","city":"ONUMA GUN AIZUMISATO MACHI","town":"SOINKO","perfecture_jp":"福島県","jp_add_1":"大沼郡会津美里町","jp_add_2":"惣印甲"},"9696056":{"post_code":"9696056","prefecture":"FUKUSHIMA KEN","city":"ONUMA GUN AIZUMISATO MACHI","town":"SOINHIGASHI","perfecture_jp":"福島県","jp_add_1":"大沼郡会津美里町","jp_add_2":"惣印東"},"9696054":{"post_code":"9696054","prefecture":"FUKUSHIMA KEN","city":"ONUMA GUN AIZUMISATO MACHI","town":"SOIMMINAMI","perfecture_jp":"福島県","jp_add_1":"大沼郡会津美里町","jp_add_2":"惣印南"},"9696109":{"post_code":"9696109","prefecture":"FUKUSHIMA KEN","city":"ONUMA GUN AIZUMISATO MACHI","town":"SOEMMACHI","perfecture_jp":"福島県","jp_add_1":"大沼郡会津美里町","jp_add_2":"宗頤町"},"9696204":{"post_code":"9696204","prefecture":"FUKUSHIMA KEN","city":"ONUMA GUN AIZUMISATO MACHI","town":"MIYANOKOSHI","perfecture_jp":"福島県","jp_add_1":"大沼郡会津美里町","jp_add_2":"台ノ下"},"9696264":{"post_code":"9696264","prefecture":"FUKUSHIMA KEN","city":"ONUMA GUN AIZUMISATO MACHI","town":"TAKADAKO","perfecture_jp":"福島県","jp_add_1":"大沼郡会津美里町","jp_add_2":"高田"},"9696203":{"post_code":"9696203","prefecture":"FUKUSHIMA KEN","city":"ONUMA GUN AIZUMISATO MACHI","town":"MITO","perfecture_jp":"福島県","jp_add_1":"大沼郡会津美里町","jp_add_2":"高田前川原"},"9696202":{"post_code":"9696202","prefecture":"FUKUSHIMA KEN","city":"ONUMA GUN AIZUMISATO MACHI","town":"MURAMAE","perfecture_jp":"福島県","jp_add_1":"大沼郡会津美里町","jp_add_2":"高田村東"},"9696032":{"post_code":"9696032","prefecture":"FUKUSHIMA KEN","city":"ONUMA GUN AIZUMISATO MACHI","town":"TAKEHARA","perfecture_jp":"福島県","jp_add_1":"大沼郡会津美里町","jp_add_2":"竹原"},"9696411":{"post_code":"9696411","prefecture":"FUKUSHIMA KEN","city":"ONUMA GUN AIZUMISATO MACHI","town":"TACHIISHIDA","perfecture_jp":"福島県","jp_add_1":"大沼郡会津美里町","jp_add_2":"立石田"},"9696175":{"post_code":"9696175","prefecture":"FUKUSHIMA KEN","city":"ONUMA GUN AIZUMISATO MACHI","town":"TATENOMAWARI","perfecture_jp":"福島県","jp_add_1":"大沼郡会津美里町","jp_add_2":"舘ノ廻"},"9696021":{"post_code":"9696021","prefecture":"FUKUSHIMA KEN","city":"ONUMA GUN AIZUMISATO MACHI","town":"TATENOMAWARIKO","perfecture_jp":"福島県","jp_add_1":"大沼郡会津美里町","jp_add_2":"舘ノ廻甲"},"9696403":{"post_code":"9696403","prefecture":"FUKUSHIMA KEN","city":"ONUMA GUN AIZUMISATO MACHI","town":"TSURUNOBE","perfecture_jp":"福島県","jp_add_1":"大沼郡会津美里町","jp_add_2":"鶴野辺"},"9696271":{"post_code":"9696271","prefecture":"FUKUSHIMA KEN","city":"ONUMA GUN AIZUMISATO MACHI","town":"NUMANOE","perfecture_jp":"福島県","jp_add_1":"大沼郡会津美里町","jp_add_2":"寺崎"},"9696122":{"post_code":"9696122","prefecture":"FUKUSHIMA KEN","city":"ONUMA GUN AIZUMISATO MACHI","town":"TERANOMAE","perfecture_jp":"福島県","jp_add_1":"大沼郡会津美里町","jp_add_2":"寺ノ前"},"9696073":{"post_code":"9696073","prefecture":"FUKUSHIMA KEN","city":"ONUMA GUN AIZUMISATO MACHI","town":"TERANOMAEKO","perfecture_jp":"福島県","jp_add_1":"大沼郡会津美里町","jp_add_2":"寺ノ前甲"},"9696353":{"post_code":"9696353","prefecture":"FUKUSHIMA KEN","city":"ONUMA GUN AIZUMISATO MACHI","town":"DONOMAE","perfecture_jp":"福島県","jp_add_1":"大沼郡会津美里町","jp_add_2":"堂ノ前"},"9696354":{"post_code":"9696354","prefecture":"FUKUSHIMA KEN","city":"ONUMA GUN AIZUMISATO MACHI","town":"DONOMAEKO","perfecture_jp":"福島県","jp_add_1":"大沼郡会津美里町","jp_add_2":"堂ノ前甲"},"9696214":{"post_code":"9696214","prefecture":"FUKUSHIMA KEN","city":"ONUMA GUN AIZUMISATO MACHI","town":"TOMIKAWA","perfecture_jp":"福島県","jp_add_1":"大沼郡会津美里町","jp_add_2":"冨川"},"9696251":{"post_code":"9696251","prefecture":"FUKUSHIMA KEN","city":"ONUMA GUN AIZUMISATO MACHI","town":"NAGAINO","perfecture_jp":"福島県","jp_add_1":"大沼郡会津美里町","jp_add_2":"永井野"},"9696118":{"post_code":"9696118","prefecture":"FUKUSHIMA KEN","city":"ONUMA GUN AIZUMISATO MACHI","town":"MUKAIKAWAHARAKO","perfecture_jp":"福島県","jp_add_1":"大沼郡会津美里町","jp_add_2":"仲塚"},"9696053":{"post_code":"9696053","prefecture":"FUKUSHIMA KEN","city":"ONUMA GUN AIZUMISATO MACHI","town":"NAKAZUKAKO","perfecture_jp":"福島県","jp_add_1":"大沼郡会津美里町","jp_add_2":"仲塚甲"},"9696035":{"post_code":"9696035","prefecture":"FUKUSHIMA KEN","city":"ONUMA GUN AIZUMISATO MACHI","town":"NAKATOI","perfecture_jp":"福島県","jp_add_1":"大沼郡会津美里町","jp_add_2":"中樋"},"9696123":{"post_code":"9696123","prefecture":"FUKUSHIMA KEN","city":"ONUMA GUN AIZUMISATO MACHI","town":"NAKAMICHISHITA","perfecture_jp":"福島県","jp_add_1":"大沼郡会津美里町","jp_add_2":"中道下"},"9696074":{"post_code":"9696074","prefecture":"FUKUSHIMA KEN","city":"ONUMA GUN AIZUMISATO MACHI","town":"NAKAMICHISHITAKO","perfecture_jp":"福島県","jp_add_1":"大沼郡会津美里町","jp_add_2":"中道下甲"},"9696244":{"post_code":"9696244","prefecture":"FUKUSHIMA KEN","city":"ONUMA GUN AIZUMISATO MACHI","town":"NISHIO","perfecture_jp":"福島県","jp_add_1":"大沼郡会津美里町","jp_add_2":"西尾"},"9696355":{"post_code":"9696355","prefecture":"FUKUSHIMA KEN","city":"ONUMA GUN AIZUMISATO MACHI","town":"NISHIOKI","perfecture_jp":"福島県","jp_add_1":"大沼郡会津美里町","jp_add_2":"西沖"},"9696245":{"post_code":"9696245","prefecture":"FUKUSHIMA KEN","city":"ONUMA GUN AIZUMISATO MACHI","town":"NISHIMOTO","perfecture_jp":"福島県","jp_add_1":"大沼郡会津美里町","jp_add_2":"西本"},"9696085":{"post_code":"9696085","prefecture":"FUKUSHIMA KEN","city":"ONUMA GUN AIZUMISATO MACHI","town":"NISHIYACHI","perfecture_jp":"福島県","jp_add_1":"大沼郡会津美里町","jp_add_2":"西谷地"},"9696086":{"post_code":"9696086","prefecture":"FUKUSHIMA KEN","city":"ONUMA GUN AIZUMISATO MACHI","town":"NISHIYACHIKO","perfecture_jp":"福島県","jp_add_1":"大沼郡会津美里町","jp_add_2":"西谷地甲"},"9696408":{"post_code":"9696408","prefecture":"FUKUSHIMA KEN","city":"ONUMA GUN AIZUMISATO MACHI","town":"NUMATA","perfecture_jp":"福島県","jp_add_1":"大沼郡会津美里町","jp_add_2":"沼田"},"9696211":{"post_code":"9696211","prefecture":"FUKUSHIMA KEN","city":"ONUMA GUN AIZUMISATO MACHI","town":"HASHIMARU","perfecture_jp":"福島県","jp_add_1":"大沼郡会津美里町","jp_add_2":"橋丸"},"9696338":{"post_code":"9696338","prefecture":"FUKUSHIMA KEN","city":"ONUMA GUN AIZUMISATO MACHI","town":"HASHIMOTOTSU","perfecture_jp":"福島県","jp_add_1":"大沼郡会津美里町","jp_add_2":"橋本乙"},"9696356":{"post_code":"9696356","prefecture":"FUKUSHIMA KEN","city":"ONUMA GUN AIZUMISATO MACHI","town":"HIEDAOTSU","perfecture_jp":"福島県","jp_add_1":"大沼郡会津美里町","jp_add_2":"稗田乙"},"9696232":{"post_code":"9696232","prefecture":"FUKUSHIMA KEN","city":"ONUMA GUN AIZUMISATO MACHI","town":"HIGASHIOMATA","perfecture_jp":"福島県","jp_add_1":"大沼郡会津美里町","jp_add_2":"東尾岐"},"9696124":{"post_code":"9696124","prefecture":"FUKUSHIMA KEN","city":"ONUMA GUN AIZUMISATO MACHI","town":"HIGASHIYACHI","perfecture_jp":"福島県","jp_add_1":"大沼郡会津美里町","jp_add_2":"東谷地"},"9696077":{"post_code":"9696077","prefecture":"FUKUSHIMA KEN","city":"ONUMA GUN AIZUMISATO MACHI","town":"HIGASHIYACHIKO","perfecture_jp":"福島県","jp_add_1":"大沼郡会津美里町","jp_add_2":"東谷地甲"},"9696143":{"post_code":"9696143","prefecture":"FUKUSHIMA KEN","city":"ONUMA GUN AIZUMISATO MACHI","town":"HIDAMA","perfecture_jp":"福島県","jp_add_1":"大沼郡会津美里町","jp_add_2":"氷玉"},"9696176":{"post_code":"9696176","prefecture":"FUKUSHIMA KEN","city":"ONUMA GUN AIZUMISATO MACHI","town":"HIDORO","perfecture_jp":"福島県","jp_add_1":"大沼郡会津美里町","jp_add_2":"旱泥"},"9696028":{"post_code":"9696028","prefecture":"FUKUSHIMA KEN","city":"ONUMA GUN AIZUMISATO MACHI","town":"HIDOROKO","perfecture_jp":"福島県","jp_add_1":"大沼郡会津美里町","jp_add_2":"旱泥甲"},"9696078":{"post_code":"9696078","prefecture":"FUKUSHIMA KEN","city":"ONUMA GUN AIZUMISATO MACHI","town":"HIRUGAKUBO","perfecture_jp":"福島県","jp_add_1":"大沼郡会津美里町","jp_add_2":"蛭ケ窪"},"9696031":{"post_code":"9696031","prefecture":"FUKUSHIMA KEN","city":"ONUMA GUN AIZUMISATO MACHI","town":"HIROZURA","perfecture_jp":"福島県","jp_add_1":"大沼郡会津美里町","jp_add_2":"広面"},"9696144":{"post_code":"9696144","prefecture":"FUKUSHIMA KEN","city":"ONUMA GUN AIZUMISATO MACHI","town":"FUKUEOKA","perfecture_jp":"福島県","jp_add_1":"大沼郡会津美里町","jp_add_2":"福重岡"},"9696212":{"post_code":"9696212","prefecture":"FUKUSHIMA KEN","city":"ONUMA GUN AIZUMISATO MACHI","town":"FUJIIETATE","perfecture_jp":"福島県","jp_add_1":"大沼郡会津美里町","jp_add_2":"藤家館"},"9696133":{"post_code":"9696133","prefecture":"FUKUSHIMA KEN","city":"ONUMA GUN AIZUMISATO MACHI","town":"FUNABA","perfecture_jp":"福島県","jp_add_1":"大沼郡会津美里町","jp_add_2":"船場"},"9696069":{"post_code":"9696069","prefecture":"FUKUSHIMA KEN","city":"ONUMA GUN AIZUMISATO MACHI","town":"FUNABAKO","perfecture_jp":"福島県","jp_add_1":"大沼郡会津美里町","jp_add_2":"船場甲"},"9696315":{"post_code":"9696315","prefecture":"FUKUSHIMA KEN","city":"ONUMA GUN AIZUMISATO MACHI","town":"HEBINOMIYAKO","perfecture_jp":"福島県","jp_add_1":"大沼郡会津美里町","jp_add_2":"蛇ノ宮甲"},"9696332":{"post_code":"9696332","prefecture":"FUKUSHIMA KEN","city":"ONUMA GUN AIZUMISATO MACHI","town":"HONGOMURANISHIOTSU","perfecture_jp":"福島県","jp_add_1":"大沼郡会津美里町","jp_add_2":"本郷村西乙"},"9696135":{"post_code":"9696135","prefecture":"FUKUSHIMA KEN","city":"ONUMA GUN AIZUMISATO MACHI","town":"HOMA","perfecture_jp":"福島県","jp_add_1":"大沼郡会津美里町","jp_add_2":"穂馬"},"9696125":{"post_code":"9696125","prefecture":"FUKUSHIMA KEN","city":"ONUMA GUN AIZUMISATO MACHI","town":"HONGO","perfecture_jp":"福島県","jp_add_1":"大沼郡会津美里町","jp_add_2":"本郷"},"9696066":{"post_code":"9696066","prefecture":"FUKUSHIMA KEN","city":"ONUMA GUN AIZUMISATO MACHI","town":"HONGOIRIGUCHINAKAMICHIUEKO","perfecture_jp":"福島県","jp_add_1":"大沼郡会津美里町","jp_add_2":"本郷入口中道上甲"},"9696065":{"post_code":"9696065","prefecture":"FUKUSHIMA KEN","city":"ONUMA GUN AIZUMISATO MACHI","town":"HONGOIRIGUCHIMICHIUEKO","perfecture_jp":"福島県","jp_add_1":"大沼郡会津美里町","jp_add_2":"本郷入口道上甲"},"9696117":{"post_code":"9696117","prefecture":"FUKUSHIMA KEN","city":"ONUMA GUN AIZUMISATO MACHI","town":"HONGOIRIKUCHIMICHIKAMI","perfecture_jp":"福島県","jp_add_1":"大沼郡会津美里町","jp_add_2":"本郷入口道上"},"9696071":{"post_code":"9696071","prefecture":"FUKUSHIMA KEN","city":"ONUMA GUN AIZUMISATO MACHI","town":"HONGOKAMI","perfecture_jp":"福島県","jp_add_1":"大沼郡会津美里町","jp_add_2":"本郷上"},"9696127":{"post_code":"9696127","prefecture":"FUKUSHIMA KEN","city":"ONUMA GUN AIZUMISATO MACHI","town":"HONGOKAMIKO","perfecture_jp":"福島県","jp_add_1":"大沼郡会津美里町","jp_add_2":"本郷上甲"},"9696126":{"post_code":"9696126","prefecture":"FUKUSHIMA KEN","city":"ONUMA GUN AIZUMISATO MACHI","town":"HONGOKO","perfecture_jp":"福島県","jp_add_1":"大沼郡会津美里町","jp_add_2":"本郷甲"},"9696336":{"post_code":"9696336","prefecture":"FUKUSHIMA KEN","city":"ONUMA GUN AIZUMISATO MACHI","town":"HONGOSENGARI","perfecture_jp":"福島県","jp_add_1":"大沼郡会津美里町","jp_add_2":"本郷千苅"},"9696337":{"post_code":"9696337","prefecture":"FUKUSHIMA KEN","city":"ONUMA GUN AIZUMISATO MACHI","town":"HONGOSENGARIOTSU","perfecture_jp":"福島県","jp_add_1":"大沼郡会津美里町","jp_add_2":"本郷千苅乙"},"9696132":{"post_code":"9696132","prefecture":"FUKUSHIMA KEN","city":"ONUMA GUN AIZUMISATO MACHI","town":"HONGOTAKADAMACHI","perfecture_jp":"福島県","jp_add_1":"大沼郡会津美里町","jp_add_2":"本郷高田町"},"9696084":{"post_code":"9696084","prefecture":"FUKUSHIMA KEN","city":"ONUMA GUN AIZUMISATO MACHI","town":"HONGOTAKADAMACHIKO","perfecture_jp":"福島県","jp_add_1":"大沼郡会津美里町","jp_add_2":"本郷高田町甲"},"9696177":{"post_code":"9696177","prefecture":"FUKUSHIMA KEN","city":"ONUMA GUN AIZUMISATO MACHI","town":"HONGOMAEKAWAHARA","perfecture_jp":"福島県","jp_add_1":"大沼郡会津美里町","jp_add_2":"本郷前川原"},"9696026":{"post_code":"9696026","prefecture":"FUKUSHIMA KEN","city":"ONUMA GUN AIZUMISATO MACHI","town":"HONGOMAEKAWAHARAKO","perfecture_jp":"福島県","jp_add_1":"大沼郡会津美里町","jp_add_2":"本郷前川原甲"},"9696164":{"post_code":"9696164","prefecture":"FUKUSHIMA KEN","city":"ONUMA GUN AIZUMISATO MACHI","town":"HONGOMICHIKAMI","perfecture_jp":"福島県","jp_add_1":"大沼郡会津美里町","jp_add_2":"本郷道上"},"9696087":{"post_code":"9696087","prefecture":"FUKUSHIMA KEN","city":"ONUMA GUN AIZUMISATO MACHI","town":"HONGOMICHINISHI","perfecture_jp":"福島県","jp_add_1":"大沼郡会津美里町","jp_add_2":"本郷道西"},"9696129":{"post_code":"9696129","prefecture":"FUKUSHIMA KEN","city":"ONUMA GUN AIZUMISATO MACHI","town":"HONGOMICHINISHIKO","perfecture_jp":"福島県","jp_add_1":"大沼郡会津美里町","jp_add_2":"本郷道西甲"},"9696075":{"post_code":"9696075","prefecture":"FUKUSHIMA KEN","city":"ONUMA GUN AIZUMISATO MACHI","town":"HONGOMICHIHIGASHI","perfecture_jp":"福島県","jp_add_1":"大沼郡会津美里町","jp_add_2":"本郷道東"},"9696076":{"post_code":"9696076","prefecture":"FUKUSHIMA KEN","city":"ONUMA GUN AIZUMISATO MACHI","town":"HONGOMICHIHIGASHIKO","perfecture_jp":"福島県","jp_add_1":"大沼郡会津美里町","jp_add_2":"本郷道東甲"},"9696172":{"post_code":"9696172","prefecture":"FUKUSHIMA KEN","city":"ONUMA GUN AIZUMISATO MACHI","town":"HONGOMURANISHI","perfecture_jp":"福島県","jp_add_1":"大沼郡会津美里町","jp_add_2":"本郷村西"},"9696331":{"post_code":"9696331","prefecture":"FUKUSHIMA KEN","city":"ONUMA GUN AIZUMISATO MACHI","town":"HONGOMURANISHIKO","perfecture_jp":"福島県","jp_add_1":"大沼郡会津美里町","jp_add_2":"本郷村西甲"},"9696334":{"post_code":"9696334","prefecture":"FUKUSHIMA KEN","city":"ONUMA GUN AIZUMISATO MACHI","town":"HONGOMURAHIGASHIOTSU","perfecture_jp":"福島県","jp_add_1":"大沼郡会津美里町","jp_add_2":"本郷村東乙"},"9696252":{"post_code":"9696252","prefecture":"FUKUSHIMA KEN","city":"ONUMA GUN AIZUMISATO MACHI","town":"MATSUKISHI","perfecture_jp":"福島県","jp_add_1":"大沼郡会津美里町","jp_add_2":"松岸"},"9696255":{"post_code":"9696255","prefecture":"FUKUSHIMA KEN","city":"ONUMA GUN AIZUMISATO MACHI","town":"MATSUZAWA","perfecture_jp":"福島県","jp_add_1":"大沼郡会津美里町","jp_add_2":"松沢"},"9696158":{"post_code":"9696158","prefecture":"FUKUSHIMA KEN","city":"ONUMA GUN AIZUMISATO MACHI","town":"MATSUBARAKIWA","perfecture_jp":"福島県","jp_add_1":"大沼郡会津美里町","jp_add_2":"松原際"},"9696043":{"post_code":"9696043","prefecture":"FUKUSHIMA KEN","city":"ONUMA GUN AIZUMISATO MACHI","town":"MATSUBARAGIWAKO","perfecture_jp":"福島県","jp_add_1":"大沼郡会津美里町","jp_add_2":"松原際甲"},"9696058":{"post_code":"9696058","prefecture":"FUKUSHIMA KEN","city":"ONUMA GUN AIZUMISATO MACHI","town":"MATOBAKO","perfecture_jp":"福島県","jp_add_1":"大沼郡会津美里町","jp_add_2":"的場甲"},"9696128":{"post_code":"9696128","prefecture":"FUKUSHIMA KEN","city":"ONUMA GUN AIZUMISATO MACHI","town":"MAMAKAWA","perfecture_jp":"福島県","jp_add_1":"大沼郡会津美里町","jp_add_2":"真々川"},"9696072":{"post_code":"9696072","prefecture":"FUKUSHIMA KEN","city":"ONUMA GUN AIZUMISATO MACHI","town":"MAMAKAWAKO","perfecture_jp":"福島県","jp_add_1":"大沼郡会津美里町","jp_add_2":"真々川甲"},"9696323":{"post_code":"9696323","prefecture":"FUKUSHIMA KEN","city":"ONUMA GUN AIZUMISATO MACHI","town":"MARUYAMA","perfecture_jp":"福島県","jp_add_1":"大沼郡会津美里町","jp_add_2":"丸山"},"9696324":{"post_code":"9696324","prefecture":"FUKUSHIMA KEN","city":"ONUMA GUN AIZUMISATO MACHI","town":"MARUYAMAOTSU","perfecture_jp":"福島県","jp_add_1":"大沼郡会津美里町","jp_add_2":"丸山乙"},"9696321":{"post_code":"9696321","prefecture":"FUKUSHIMA KEN","city":"ONUMA GUN AIZUMISATO MACHI","town":"MARUYAMAKITA","perfecture_jp":"福島県","jp_add_1":"大沼郡会津美里町","jp_add_2":"丸山北"},"9696322":{"post_code":"9696322","prefecture":"FUKUSHIMA KEN","city":"ONUMA GUN AIZUMISATO MACHI","town":"MARUYAMAKITAKO","perfecture_jp":"福島県","jp_add_1":"大沼郡会津美里町","jp_add_2":"丸山北甲"},"9696134":{"post_code":"9696134","prefecture":"FUKUSHIMA KEN","city":"ONUMA GUN AIZUMISATO MACHI","town":"MIKKAMACHI","perfecture_jp":"福島県","jp_add_1":"大沼郡会津美里町","jp_add_2":"三日町"},"9696081":{"post_code":"9696081","prefecture":"FUKUSHIMA KEN","city":"ONUMA GUN AIZUMISATO MACHI","town":"MIKKAMACHIUE","perfecture_jp":"福島県","jp_add_1":"大沼郡会津美里町","jp_add_2":"三日町上"},"9696082":{"post_code":"9696082","prefecture":"FUKUSHIMA KEN","city":"ONUMA GUN AIZUMISATO MACHI","town":"MIKKAMACHIUEKO","perfecture_jp":"福島県","jp_add_1":"大沼郡会津美里町","jp_add_2":"三日町上甲"},"9696079":{"post_code":"9696079","prefecture":"FUKUSHIMA KEN","city":"ONUMA GUN AIZUMISATO MACHI","town":"MIKKAMACHIKO","perfecture_jp":"福島県","jp_add_1":"大沼郡会津美里町","jp_add_2":"三日町甲"},"9696083":{"post_code":"9696083","prefecture":"FUKUSHIMA KEN","city":"ONUMA GUN AIZUMISATO MACHI","town":"MIKKAMACHIMICHIUEKO","perfecture_jp":"福島県","jp_add_1":"大沼郡会津美里町","jp_add_2":"三日町道上甲"},"9696243":{"post_code":"9696243","prefecture":"FUKUSHIMA KEN","city":"ONUMA GUN AIZUMISATO MACHI","town":"MIYAKAWA","perfecture_jp":"福島県","jp_add_1":"大沼郡会津美里町","jp_add_2":"宮川"},"9696325":{"post_code":"9696325","prefecture":"FUKUSHIMA KEN","city":"ONUMA GUN AIZUMISATO MACHI","town":"MIYAGO","perfecture_jp":"福島県","jp_add_1":"大沼郡会津美里町","jp_add_2":"宮後"},"9696327":{"post_code":"9696327","prefecture":"FUKUSHIMA KEN","city":"ONUMA GUN AIZUMISATO MACHI","town":"MIYAGOTSU","perfecture_jp":"福島県","jp_add_1":"大沼郡会津美里町","jp_add_2":"宮後乙"},"9696326":{"post_code":"9696326","prefecture":"FUKUSHIMA KEN","city":"ONUMA GUN AIZUMISATO MACHI","town":"MIYAGOKO","perfecture_jp":"福島県","jp_add_1":"大沼郡会津美里町","jp_add_2":"宮後甲"},"9696207":{"post_code":"9696207","prefecture":"FUKUSHIMA KEN","city":"ONUMA GUN AIZUMISATO MACHI","town":"MIYAZATO","perfecture_jp":"福島県","jp_add_1":"大沼郡会津美里町","jp_add_2":"宮里"},"9696059":{"post_code":"9696059","prefecture":"FUKUSHIMA KEN","city":"ONUMA GUN AIZUMISATO MACHI","town":"MUIKAMACHIKO","perfecture_jp":"福島県","jp_add_1":"大沼郡会津美里町","jp_add_2":"六日町甲"},"9696064":{"post_code":"9696064","prefecture":"FUKUSHIMA KEN","city":"ONUMA GUN AIZUMISATO MACHI","town":"MUKAIGAWARA","perfecture_jp":"福島県","jp_add_1":"大沼郡会津美里町","jp_add_2":"向川原"},"9696142":{"post_code":"9696142","prefecture":"FUKUSHIMA KEN","city":"ONUMA GUN AIZUMISATO MACHI","town":"MURAKAMI","perfecture_jp":"福島県","jp_add_1":"大沼郡会津美里町","jp_add_2":"村上"},"9696335":{"post_code":"9696335","prefecture":"FUKUSHIMA KEN","city":"ONUMA GUN AIZUMISATO MACHI","town":"MURAKAMIOTSU","perfecture_jp":"福島県","jp_add_1":"大沼郡会津美里町","jp_add_2":"村上乙"},"9696157":{"post_code":"9696157","prefecture":"FUKUSHIMA KEN","city":"ONUMA GUN AIZUMISATO MACHI","town":"MOTOYASHIKI","perfecture_jp":"福島県","jp_add_1":"大沼郡会津美里町","jp_add_2":"本屋敷"},"9696273":{"post_code":"9696273","prefecture":"FUKUSHIMA KEN","city":"ONUMA GUN AIZUMISATO MACHI","town":"YAGISAWA","perfecture_jp":"福島県","jp_add_1":"大沼郡会津美里町","jp_add_2":"八木沢"},"9696201":{"post_code":"9696201","prefecture":"FUKUSHIMA KEN","city":"ONUMA GUN AIZUMISATO MACHI","town":"YASUDAOTSU","perfecture_jp":"福島県","jp_add_1":"大沼郡会津美里町","jp_add_2":"安田"},"9696268":{"post_code":"9696268","prefecture":"FUKUSHIMA KEN","city":"ONUMA GUN AIZUMISATO MACHI","town":"YANAGIDAIKO","perfecture_jp":"福島県","jp_add_1":"大沼郡会津美里町","jp_add_2":"谷地"},"9696119":{"post_code":"9696119","prefecture":"FUKUSHIMA KEN","city":"ONUMA GUN AIZUMISATO MACHI","town":"YANABAKAMI","perfecture_jp":"福島県","jp_add_1":"大沼郡会津美里町","jp_add_2":"梁場上"},"9696067":{"post_code":"9696067","prefecture":"FUKUSHIMA KEN","city":"ONUMA GUN AIZUMISATO MACHI","town":"YANABAKAMIKO","perfecture_jp":"福島県","jp_add_1":"大沼郡会津美里町","jp_add_2":"梁場上甲"},"9696303":{"post_code":"9696303","prefecture":"FUKUSHIMA KEN","city":"ONUMA GUN AIZUMISATO MACHI","town":"YAMAMICHIKAMI","perfecture_jp":"福島県","jp_add_1":"大沼郡会津美里町","jp_add_2":"山道上"},"9696165":{"post_code":"9696165","prefecture":"FUKUSHIMA KEN","city":"ONUMA GUN AIZUMISATO MACHI","town":"YAMAMICHISHITA","perfecture_jp":"福島県","jp_add_1":"大沼郡会津美里町","jp_add_2":"山道下"},"9696302":{"post_code":"9696302","prefecture":"FUKUSHIMA KEN","city":"ONUMA GUN AIZUMISATO MACHI","town":"YAMAMICHISHITAKO","perfecture_jp":"福島県","jp_add_1":"大沼郡会津美里町","jp_add_2":"山道下甲"},"9696145":{"post_code":"9696145","prefecture":"FUKUSHIMA KEN","city":"ONUMA GUN AIZUMISATO MACHI","town":"YAMAMINAMI","perfecture_jp":"福島県","jp_add_1":"大沼郡会津美里町","jp_add_2":"山南"},"9696328":{"post_code":"9696328","prefecture":"FUKUSHIMA KEN","city":"ONUMA GUN AIZUMISATO MACHI","town":"YAMAMINAMIOTSU","perfecture_jp":"福島県","jp_add_1":"大沼郡会津美里町","jp_add_2":"山南乙"},"9696146":{"post_code":"9696146","prefecture":"FUKUSHIMA KEN","city":"ONUMA GUN AIZUMISATO MACHI","town":"YOKOBORISHITA","perfecture_jp":"福島県","jp_add_1":"大沼郡会津美里町","jp_add_2":"横堀下"},"9696341":{"post_code":"9696341","prefecture":"FUKUSHIMA KEN","city":"ONUMA GUN AIZUMISATO MACHI","town":"YOKOBORISHITAOTSU","perfecture_jp":"福島県","jp_add_1":"大沼郡会津美里町","jp_add_2":"横堀下乙"},"9696241":{"post_code":"9696241","prefecture":"FUKUSHIMA KEN","city":"ONUMA GUN AIZUMISATO MACHI","town":"YOSHIDA","perfecture_jp":"福島県","jp_add_1":"大沼郡会津美里町","jp_add_2":"吉田"},"9696405":{"post_code":"9696405","prefecture":"FUKUSHIMA KEN","city":"ONUMA GUN AIZUMISATO MACHI","town":"YONETA","perfecture_jp":"福島県","jp_add_1":"大沼郡会津美里町","jp_add_2":"米田"},"9696401":{"post_code":"9696401","prefecture":"FUKUSHIMA KEN","city":"ONUMA GUN AIZUMISATO MACHI","town":"WADAME","perfecture_jp":"福島県","jp_add_1":"大沼郡会津美里町","jp_add_2":"和田目"},"9690100":{"post_code":"9690100","prefecture":"FUKUSHIMA KEN","city":"NISHISHIRAKAWA GUN IZUMIZAKI MURA","town":"IKANIKEISAIGANAIBAAI","perfecture_jp":"福島県","jp_add_1":"西白河郡泉崎村","jp_add_2":""},"9690101":{"post_code":"9690101","prefecture":"FUKUSHIMA KEN","city":"NISHISHIRAKAWA GUN IZUMIZAKI MURA","town":"IZUMIZAKI","perfecture_jp":"福島県","jp_add_1":"西白河郡泉崎村","jp_add_2":"泉崎"},"9690104":{"post_code":"9690104","prefecture":"FUKUSHIMA KEN","city":"NISHISHIRAKAWA GUN IZUMIZAKI MURA","town":"OTAGAWA","perfecture_jp":"福島県","jp_add_1":"西白河郡泉崎村","jp_add_2":"太田川"},"9690103":{"post_code":"9690103","prefecture":"FUKUSHIMA KEN","city":"NISHISHIRAKAWA GUN IZUMIZAKI MURA","town":"KITAHIRAYAMA","perfecture_jp":"福島県","jp_add_1":"西白河郡泉崎村","jp_add_2":"北平山"},"9690106":{"post_code":"9690106","prefecture":"FUKUSHIMA KEN","city":"NISHISHIRAKAWA GUN IZUMIZAKI MURA","town":"SEKIWAGU (YAGUMOJINJA)","perfecture_jp":"福島県","jp_add_1":"西白河郡泉崎村","jp_add_2":"関和久"},"9690102":{"post_code":"9690102","prefecture":"FUKUSHIMA KEN","city":"NISHISHIRAKAWA GUN IZUMIZAKI MURA","town":"SEKIWAGU(SONOTA)","perfecture_jp":"福島県","jp_add_1":"西白河郡泉崎村","jp_add_2":"関和久"},"9690105":{"post_code":"9690105","prefecture":"FUKUSHIMA KEN","city":"NISHISHIRAKAWA GUN IZUMIZAKI MURA","town":"FUMASE","perfecture_jp":"福島県","jp_add_1":"西白河郡泉崎村","jp_add_2":"踏瀬"},"9690200":{"post_code":"9690200","prefecture":"FUKUSHIMA KEN","city":"NISHISHIRAKAWA GUN YABUKI MACHI","town":"IKANIKEISAIGANAIBAAI","perfecture_jp":"福島県","jp_add_1":"西白河郡矢吹町","jp_add_2":""},"9690206":{"post_code":"9690206","prefecture":"FUKUSHIMA KEN","city":"NISHISHIRAKAWA GUN YABUKI MACHI","town":"AKASAWA","perfecture_jp":"福島県","jp_add_1":"西白河郡矢吹町","jp_add_2":"赤沢"},"9690272":{"post_code":"9690272","prefecture":"FUKUSHIMA KEN","city":"NISHISHIRAKAWA GUN YABUKI MACHI","town":"AKEBONOCHO","perfecture_jp":"福島県","jp_add_1":"西白河郡矢吹町","jp_add_2":"曙町"},"9690236":{"post_code":"9690236","prefecture":"FUKUSHIMA KEN","city":"NISHISHIRAKAWA GUN YABUKI MACHI","town":"YABUKI","perfecture_jp":"福島県","jp_add_1":"西白河郡矢吹町","jp_add_2":"一本木"},"9690287":{"post_code":"9690287","prefecture":"FUKUSHIMA KEN","city":"NISHISHIRAKAWA GUN YABUKI MACHI","town":"SEKINOE","perfecture_jp":"福島県","jp_add_1":"西白河郡矢吹町","jp_add_2":"井戸尻"},"9690238":{"post_code":"9690238","prefecture":"FUKUSHIMA KEN","city":"NISHISHIRAKAWA GUN YABUKI MACHI","town":"OIKE","perfecture_jp":"福島県","jp_add_1":"西白河郡矢吹町","jp_add_2":"大池"},"9690224":{"post_code":"9690224","prefecture":"FUKUSHIMA KEN","city":"NISHISHIRAKAWA GUN YABUKI MACHI","town":"OKUBO","perfecture_jp":"福島県","jp_add_1":"西白河郡矢吹町","jp_add_2":"大久保"},"9690201":{"post_code":"9690201","prefecture":"FUKUSHIMA KEN","city":"NISHISHIRAKAWA GUN YABUKI MACHI","town":"OMACHI","perfecture_jp":"福島県","jp_add_1":"西白河郡矢吹町","jp_add_2":"大町"},"9690252":{"post_code":"9690252","prefecture":"FUKUSHIMA KEN","city":"NISHISHIRAKAWA GUN YABUKI MACHI","town":"HIGASHITSUTSUMI","perfecture_jp":"福島県","jp_add_1":"西白河郡矢吹町","jp_add_2":"神の内"},"9690257":{"post_code":"9690257","prefecture":"FUKUSHIMA KEN","city":"NISHISHIRAKAWA GUN YABUKI MACHI","town":"MAEKUBO","perfecture_jp":"福島県","jp_add_1":"西白河郡矢吹町","jp_add_2":"上の前"},"9690246":{"post_code":"9690246","prefecture":"FUKUSHIMA KEN","city":"NISHISHIRAKAWA GUN YABUKI MACHI","town":"SHIMOMIYAZAKI","perfecture_jp":"福島県","jp_add_1":"西白河郡矢吹町","jp_add_2":"上宮崎"},"9690251":{"post_code":"9690251","prefecture":"FUKUSHIMA KEN","city":"NISHISHIRAKAWA GUN YABUKI MACHI","town":"KANTAMINAMI","perfecture_jp":"福島県","jp_add_1":"西白河郡矢吹町","jp_add_2":"神田東"},"9690203":{"post_code":"9690203","prefecture":"FUKUSHIMA KEN","city":"NISHISHIRAKAWA GUN YABUKI MACHI","town":"KITAURA","perfecture_jp":"福島県","jp_add_1":"西白河郡矢吹町","jp_add_2":"北浦"},"9690211":{"post_code":"9690211","prefecture":"FUKUSHIMA KEN","city":"NISHISHIRAKAWA GUN YABUKI MACHI","town":"KITAMACHI","perfecture_jp":"福島県","jp_add_1":"西白河郡矢吹町","jp_add_2":"北町"},"9690288":{"post_code":"9690288","prefecture":"FUKUSHIMA KEN","city":"NISHISHIRAKAWA GUN YABUKI MACHI","town":"HIGASHINOCHI","perfecture_jp":"福島県","jp_add_1":"西白河郡矢吹町","jp_add_2":"子ハ清水"},"9690205":{"post_code":"9690205","prefecture":"FUKUSHIMA KEN","city":"NISHISHIRAKAWA GUN YABUKI MACHI","town":"GOHOMMATSU","perfecture_jp":"福島県","jp_add_1":"西白河郡矢吹町","jp_add_2":"五本松"},"9690271":{"post_code":"9690271","prefecture":"FUKUSHIMA KEN","city":"NISHISHIRAKAWA GUN YABUKI MACHI","town":"KOMATSU","perfecture_jp":"福島県","jp_add_1":"西白河郡矢吹町","jp_add_2":"小松"},"9690281":{"post_code":"9690281","prefecture":"FUKUSHIMA KEN","city":"NISHISHIRAKAWA GUN YABUKI MACHI","town":"BABA","perfecture_jp":"福島県","jp_add_1":"西白河郡矢吹町","jp_add_2":"境町"},"9690258":{"post_code":"9690258","prefecture":"FUKUSHIMA KEN","city":"NISHISHIRAKAWA GUN YABUKI MACHI","town":"SAWAJIRI","perfecture_jp":"福島県","jp_add_1":"西白河郡矢吹町","jp_add_2":"沢尻"},"9690242":{"post_code":"9690242","prefecture":"FUKUSHIMA KEN","city":"NISHISHIRAKAWA GUN YABUKI MACHI","town":"SANJOME","perfecture_jp":"福島県","jp_add_1":"西白河郡矢吹町","jp_add_2":"三城目"},"9690266":{"post_code":"9690266","prefecture":"FUKUSHIMA KEN","city":"NISHISHIRAKAWA GUN YABUKI MACHI","town":"JOSHIKIMEN","perfecture_jp":"福島県","jp_add_1":"西白河郡矢吹町","jp_add_2":"上敷面"},"9690241":{"post_code":"9690241","prefecture":"FUKUSHIMA KEN","city":"NISHISHIRAKAWA GUN YABUKI MACHI","town":"TENKAI","perfecture_jp":"福島県","jp_add_1":"西白河郡矢吹町","jp_add_2":"陣ケ岡"},"9690202":{"post_code":"9690202","prefecture":"FUKUSHIMA KEN","city":"NISHISHIRAKAWA GUN YABUKI MACHI","town":"SHIMMACHI","perfecture_jp":"福島県","jp_add_1":"西白河郡矢吹町","jp_add_2":"新町"},"9690267":{"post_code":"9690267","prefecture":"FUKUSHIMA KEN","city":"NISHISHIRAKAWA GUN YABUKI MACHI","town":"SUWASHIMIZU","perfecture_jp":"福島県","jp_add_1":"西白河郡矢吹町","jp_add_2":"諏訪清水"},"9690247":{"post_code":"9690247","prefecture":"FUKUSHIMA KEN","city":"NISHISHIRAKAWA GUN YABUKI MACHI","town":"TERANOMAE","perfecture_jp":"福島県","jp_add_1":"西白河郡矢吹町","jp_add_2":"諏訪の前"},"9690204":{"post_code":"9690204","prefecture":"FUKUSHIMA KEN","city":"NISHISHIRAKAWA GUN YABUKI MACHI","town":"SEKIYAMA","perfecture_jp":"福島県","jp_add_1":"西白河郡矢吹町","jp_add_2":"関山"},"9690212":{"post_code":"9690212","prefecture":"FUKUSHIMA KEN","city":"NISHISHIRAKAWA GUN YABUKI MACHI","town":"ZENGOUCHI","perfecture_jp":"福島県","jp_add_1":"西白河郡矢吹町","jp_add_2":"善郷内"},"9690284":{"post_code":"9690284","prefecture":"FUKUSHIMA KEN","city":"NISHISHIRAKAWA GUN YABUKI MACHI","town":"TATESAWA","perfecture_jp":"福島県","jp_add_1":"西白河郡矢吹町","jp_add_2":"滝八幡"},"9690227":{"post_code":"9690227","prefecture":"FUKUSHIMA KEN","city":"NISHISHIRAKAWA GUN YABUKI MACHI","town":"TAMACHI","perfecture_jp":"福島県","jp_add_1":"西白河郡矢吹町","jp_add_2":"田町"},"9690255":{"post_code":"9690255","prefecture":"FUKUSHIMA KEN","city":"NISHISHIRAKAWA GUN YABUKI MACHI","town":"TERAUCHIMINAMI","perfecture_jp":"福島県","jp_add_1":"西白河郡矢吹町","jp_add_2":"寺内"},"9690248":{"post_code":"9690248","prefecture":"FUKUSHIMA KEN","city":"NISHISHIRAKAWA GUN YABUKI MACHI","town":"TOGO","perfecture_jp":"福島県","jp_add_1":"西白河郡矢吹町","jp_add_2":"東郷"},"9690243":{"post_code":"9690243","prefecture":"FUKUSHIMA KEN","city":"NISHISHIRAKAWA GUN YABUKI MACHI","town":"HIGASHIKAWAHARA","perfecture_jp":"福島県","jp_add_1":"西白河郡矢吹町","jp_add_2":"中沖"},"9690264":{"post_code":"9690264","prefecture":"FUKUSHIMA KEN","city":"NISHISHIRAKAWA GUN YABUKI MACHI","town":"NAKAHATA","perfecture_jp":"福島県","jp_add_1":"西白河郡矢吹町","jp_add_2":"中畑"},"9690265":{"post_code":"9690265","prefecture":"FUKUSHIMA KEN","city":"NISHISHIRAKAWA GUN YABUKI MACHI","town":"NAKAHATAMINAMI","perfecture_jp":"福島県","jp_add_1":"西白河郡矢吹町","jp_add_2":"中畑南"},"9690221":{"post_code":"9690221","prefecture":"FUKUSHIMA KEN","city":"NISHISHIRAKAWA GUN YABUKI MACHI","town":"NAKAMACHI","perfecture_jp":"福島県","jp_add_1":"西白河郡矢吹町","jp_add_2":"中町"},"9690231":{"post_code":"9690231","prefecture":"FUKUSHIMA KEN","city":"NISHISHIRAKAWA GUN YABUKI MACHI","town":"NAKAMARU","perfecture_jp":"福島県","jp_add_1":"西白河郡矢吹町","jp_add_2":"中丸"},"9690256":{"post_code":"9690256","prefecture":"FUKUSHIMA KEN","city":"NISHISHIRAKAWA GUN YABUKI MACHI","town":"NABEUCHI","perfecture_jp":"福島県","jp_add_1":"西白河郡矢吹町","jp_add_2":"鍋内"},"9690226":{"post_code":"9690226","prefecture":"FUKUSHIMA KEN","city":"NISHISHIRAKAWA GUN YABUKI MACHI","town":"NISHINAGAMINE","perfecture_jp":"福島県","jp_add_1":"西白河郡矢吹町","jp_add_2":"西長峰"},"9690263":{"post_code":"9690263","prefecture":"FUKUSHIMA KEN","city":"NISHISHIRAKAWA GUN YABUKI MACHI","town":"NEJUKU","perfecture_jp":"福島県","jp_add_1":"西白河郡矢吹町","jp_add_2":"根宿"},"9690245":{"post_code":"9690245","prefecture":"FUKUSHIMA KEN","city":"NISHISHIRAKAWA GUN YABUKI MACHI","town":"HAKUSAN","perfecture_jp":"福島県","jp_add_1":"西白河郡矢吹町","jp_add_2":"白山"},"9690222":{"post_code":"9690222","prefecture":"FUKUSHIMA KEN","city":"NISHISHIRAKAWA GUN YABUKI MACHI","town":"HACHIMANCHO","perfecture_jp":"福島県","jp_add_1":"西白河郡矢吹町","jp_add_2":"八幡町"},"9690285":{"post_code":"9690285","prefecture":"FUKUSHIMA KEN","city":"NISHISHIRAKAWA GUN YABUKI MACHI","town":"HANASAKI","perfecture_jp":"福島県","jp_add_1":"西白河郡矢吹町","jp_add_2":"花咲"},"9690233":{"post_code":"9690233","prefecture":"FUKUSHIMA KEN","city":"NISHISHIRAKAWA GUN YABUKI MACHI","town":"HANANOSATO","perfecture_jp":"福島県","jp_add_1":"西白河郡矢吹町","jp_add_2":"花の里"},"9690225":{"post_code":"9690225","prefecture":"FUKUSHIMA KEN","city":"NISHISHIRAKAWA GUN YABUKI MACHI","town":"HIGASHINAGAMINE","perfecture_jp":"福島県","jp_add_1":"西白河郡矢吹町","jp_add_2":"東長峰"},"9690244":{"post_code":"9690244","prefecture":"FUKUSHIMA KEN","city":"NISHISHIRAKAWA GUN YABUKI MACHI","town":"YANAKA","perfecture_jp":"福島県","jp_add_1":"西白河郡矢吹町","jp_add_2":"奉行塚"},"9690223":{"post_code":"9690223","prefecture":"FUKUSHIMA KEN","city":"NISHISHIRAKAWA GUN YABUKI MACHI","town":"BUNKYOCHO","perfecture_jp":"福島県","jp_add_1":"西白河郡矢吹町","jp_add_2":"文京町"},"9690254":{"post_code":"9690254","prefecture":"FUKUSHIMA KEN","city":"NISHISHIRAKAWA GUN YABUKI MACHI","town":"HEIBACHI","perfecture_jp":"福島県","jp_add_1":"西白河郡矢吹町","jp_add_2":"平鉢"},"9690237":{"post_code":"9690237","prefecture":"FUKUSHIMA KEN","city":"NISHISHIRAKAWA GUN YABUKI MACHI","town":"BOTANDAIRA","perfecture_jp":"福島県","jp_add_1":"西白河郡矢吹町","jp_add_2":"牡丹平"},"9690282":{"post_code":"9690282","prefecture":"FUKUSHIMA KEN","city":"NISHISHIRAKAWA GUN YABUKI MACHI","town":"HONGOCHO","perfecture_jp":"福島県","jp_add_1":"西白河郡矢吹町","jp_add_2":"本郷町"},"9690232":{"post_code":"9690232","prefecture":"FUKUSHIMA KEN","city":"NISHISHIRAKAWA GUN YABUKI MACHI","town":"HONJODATE","perfecture_jp":"福島県","jp_add_1":"西白河郡矢吹町","jp_add_2":"本城舘"},"9690234":{"post_code":"9690234","prefecture":"FUKUSHIMA KEN","city":"NISHISHIRAKAWA GUN YABUKI MACHI","town":"MAEDA","perfecture_jp":"福島県","jp_add_1":"西白河郡矢吹町","jp_add_2":"前田"},"9690268":{"post_code":"9690268","prefecture":"FUKUSHIMA KEN","city":"NISHISHIRAKAWA GUN YABUKI MACHI","town":"MATSUKURA","perfecture_jp":"福島県","jp_add_1":"西白河郡矢吹町","jp_add_2":"松倉"},"9690262":{"post_code":"9690262","prefecture":"FUKUSHIMA KEN","city":"NISHISHIRAKAWA GUN YABUKI MACHI","town":"MATSUBO","perfecture_jp":"福島県","jp_add_1":"西白河郡矢吹町","jp_add_2":"松房"},"9690235":{"post_code":"9690235","prefecture":"FUKUSHIMA KEN","city":"NISHISHIRAKAWA GUN YABUKI MACHI","town":"MARUNOCHI","perfecture_jp":"福島県","jp_add_1":"西白河郡矢吹町","jp_add_2":"丸の内"},"9690283":{"post_code":"9690283","prefecture":"FUKUSHIMA KEN","city":"NISHISHIRAKAWA GUN YABUKI MACHI","town":"MINAMIMACHI","perfecture_jp":"福島県","jp_add_1":"西白河郡矢吹町","jp_add_2":"南町"},"9690253":{"post_code":"9690253","prefecture":"FUKUSHIMA KEN","city":"NISHISHIRAKAWA GUN YABUKI MACHI","town":"MYOSHINNISHI","perfecture_jp":"福島県","jp_add_1":"西白河郡矢吹町","jp_add_2":"明新上"},"9690213":{"post_code":"9690213","prefecture":"FUKUSHIMA KEN","city":"NISHISHIRAKAWA GUN YABUKI MACHI","town":"MOTOMACHI","perfecture_jp":"福島県","jp_add_1":"西白河郡矢吹町","jp_add_2":"本町"},"9690261":{"post_code":"9690261","prefecture":"FUKUSHIMA KEN","city":"NISHISHIRAKAWA GUN YABUKI MACHI","town":"YASAKAE","perfecture_jp":"福島県","jp_add_1":"西白河郡矢吹町","jp_add_2":"弥栄"},"9690286":{"post_code":"9690286","prefecture":"FUKUSHIMA KEN","city":"NISHISHIRAKAWA GUN YABUKI MACHI","town":"YAMATOCHI","perfecture_jp":"福島県","jp_add_1":"西白河郡矢吹町","jp_add_2":"大和内"}}