{"9718172":{"post_code":"9718172","prefecture":"FUKUSHIMA KEN","city":"IWAKI SHI","town":"IZUMI TAMATSUYU","perfecture_jp":"福島県","jp_add_1":"いわき市","jp_add_2":"泉玉露"},"9718188":{"post_code":"9718188","prefecture":"FUKUSHIMA KEN","city":"IWAKI SHI","town":"IZUMI MOEGIDAI","perfecture_jp":"福島県","jp_add_1":"いわき市","jp_add_2":"泉もえぎ台"},"9718171":{"post_code":"9718171","prefecture":"FUKUSHIMA KEN","city":"IWAKI SHI","town":"IZUMIGAOKA","perfecture_jp":"福島県","jp_add_1":"いわき市","jp_add_2":"泉ケ丘"},"9718185":{"post_code":"9718185","prefecture":"FUKUSHIMA KEN","city":"IWAKI SHI","town":"IZUMIMACHI","perfecture_jp":"福島県","jp_add_1":"いわき市","jp_add_2":"泉町"},"9718184":{"post_code":"9718184","prefecture":"FUKUSHIMA KEN","city":"IWAKI SHI","town":"IZUMIMACHI KUROSUNO","perfecture_jp":"福島県","jp_add_1":"いわき市","jp_add_2":"泉町黒須野"},"9718183":{"post_code":"9718183","prefecture":"FUKUSHIMA KEN","city":"IWAKI SHI","town":"IZUMIMACHI SHIMOGAWA","perfecture_jp":"福島県","jp_add_1":"いわき市","jp_add_2":"泉町下川"},"9718182":{"post_code":"9718182","prefecture":"FUKUSHIMA KEN","city":"IWAKI SHI","town":"IZUMIMACHI TAKIJIRI","perfecture_jp":"福島県","jp_add_1":"いわき市","jp_add_2":"泉町滝尻"},"9718186":{"post_code":"9718186","prefecture":"FUKUSHIMA KEN","city":"IWAKI SHI","town":"IZUMIMACHI TAMATSUYU","perfecture_jp":"福島県","jp_add_1":"いわき市","jp_add_2":"泉町玉露"},"9718181":{"post_code":"9718181","prefecture":"FUKUSHIMA KEN","city":"IWAKI SHI","town":"IZUMIMACHI HONYA","perfecture_jp":"福島県","jp_add_1":"いわき市","jp_add_2":"泉町本谷"},"9718101":{"post_code":"9718101","prefecture":"FUKUSHIMA KEN","city":"IWAKI SHI","town":"ONAHAMA","perfecture_jp":"福島県","jp_add_1":"いわき市","jp_add_2":"小名浜"},"9718123":{"post_code":"9718123","prefecture":"FUKUSHIMA KEN","city":"IWAKI SHI","town":"ONAHAMA AIKOSHIMA","perfecture_jp":"福島県","jp_add_1":"いわき市","jp_add_2":"小名浜相子島"},"9718166":{"post_code":"9718166","prefecture":"FUKUSHIMA KEN","city":"IWAKI SHI","town":"ONAHAMA ATAGOE","perfecture_jp":"福島県","jp_add_1":"いわき市","jp_add_2":"小名浜愛宕上"},"9718165":{"post_code":"9718165","prefecture":"FUKUSHIMA KEN","city":"IWAKI SHI","town":"ONAHAMA ATAGOCHO","perfecture_jp":"福島県","jp_add_1":"いわき市","jp_add_2":"小名浜愛宕町"},"9718121":{"post_code":"9718121","prefecture":"FUKUSHIMA KEN","city":"IWAKI SHI","town":"ONAHAMA IWADE","perfecture_jp":"福島県","jp_add_1":"いわき市","jp_add_2":"小名浜岩出"},"9718111":{"post_code":"9718111","prefecture":"FUKUSHIMA KEN","city":"IWAKI SHI","town":"ONAHAMA OHARA","perfecture_jp":"福島県","jp_add_1":"いわき市","jp_add_2":"小名浜大原"},"9718151":{"post_code":"9718151","prefecture":"FUKUSHIMA KEN","city":"IWAKI SHI","town":"ONAHAMA OKAONA","perfecture_jp":"福島県","jp_add_1":"いわき市","jp_add_2":"小名浜岡小名"},"9718135":{"post_code":"9718135","prefecture":"FUKUSHIMA KEN","city":"IWAKI SHI","town":"ONAHAMA KANARI","perfecture_jp":"福島県","jp_add_1":"いわき市","jp_add_2":"小名浜金成"},"9718168":{"post_code":"9718168","prefecture":"FUKUSHIMA KEN","city":"IWAKI SHI","town":"ONAHAMA KIMIGATSUKACHO","perfecture_jp":"福島県","jp_add_1":"いわき市","jp_add_2":"小名浜君ケ塚町"},"9718125":{"post_code":"9718125","prefecture":"FUKUSHIMA KEN","city":"IWAKI SHI","town":"ONAHAMA SHIMA","perfecture_jp":"福島県","jp_add_1":"いわき市","jp_add_2":"小名浜島"},"9718124":{"post_code":"9718124","prefecture":"FUKUSHIMA KEN","city":"IWAKI SHI","town":"ONAHAMA SUMIYOSHI","perfecture_jp":"福島県","jp_add_1":"いわき市","jp_add_2":"小名浜住吉"},"9718161":{"post_code":"9718161","prefecture":"FUKUSHIMA KEN","city":"IWAKI SHI","town":"ONAHAMA SUWACHO","perfecture_jp":"福島県","jp_add_1":"いわき市","jp_add_2":"小名浜諏訪町"},"9718127":{"post_code":"9718127","prefecture":"FUKUSHIMA KEN","city":"IWAKI SHI","town":"ONAHAMA TAMAGAWAMACHI","perfecture_jp":"福島県","jp_add_1":"いわき市","jp_add_2":"小名浜玉川町"},"9718164":{"post_code":"9718164","prefecture":"FUKUSHIMA KEN","city":"IWAKI SHI","town":"ONAHAMA NISHICHO","perfecture_jp":"福島県","jp_add_1":"いわき市","jp_add_2":"小名浜寺廻町"},"9718163":{"post_code":"9718163","prefecture":"FUKUSHIMA KEN","city":"IWAKI SHI","town":"ONAHAMA NAKACHOZAKAI","perfecture_jp":"福島県","jp_add_1":"いわき市","jp_add_2":"小名浜中町境"},"9718167":{"post_code":"9718167","prefecture":"FUKUSHIMA KEN","city":"IWAKI SHI","town":"ONAHAMA NISHIKIMIGATSUKACHO","perfecture_jp":"福島県","jp_add_1":"いわき市","jp_add_2":"小名浜西君ケ塚町"},"9718126":{"post_code":"9718126","prefecture":"FUKUSHIMA KEN","city":"IWAKI SHI","town":"ONAHAMA NODA","perfecture_jp":"福島県","jp_add_1":"いわき市","jp_add_2":"小名浜野田"},"9718162":{"post_code":"9718162","prefecture":"FUKUSHIMA KEN","city":"IWAKI SHI","town":"ONAHAMA HANABATAKECHO","perfecture_jp":"福島県","jp_add_1":"いわき市","jp_add_2":"小名浜花畑町"},"9718102":{"post_code":"9718102","prefecture":"FUKUSHIMA KEN","city":"IWAKI SHI","town":"ONAHAMA MINATOGAOKA","perfecture_jp":"福島県","jp_add_1":"いわき市","jp_add_2":"小名浜港ケ丘"},"9718169":{"post_code":"9718169","prefecture":"FUKUSHIMA KEN","city":"IWAKI SHI","town":"ONAHAMA MINAMIKIMIGATSUKACHO","perfecture_jp":"福島県","jp_add_1":"いわき市","jp_add_2":"小名浜南君ケ塚町"},"9718112":{"post_code":"9718112","prefecture":"FUKUSHIMA KEN","city":"IWAKI SHI","town":"ONAHAMA MINAMITOMIOKA","perfecture_jp":"福島県","jp_add_1":"いわき市","jp_add_2":"小名浜南富岡"},"9718122":{"post_code":"9718122","prefecture":"FUKUSHIMA KEN","city":"IWAKI SHI","town":"ONAHAMA RINJO","perfecture_jp":"福島県","jp_add_1":"いわき市","jp_add_2":"小名浜林城"},"9718134":{"post_code":"9718134","prefecture":"FUKUSHIMA KEN","city":"IWAKI SHI","town":"KASHIMAMACHI IIDA","perfecture_jp":"福島県","jp_add_1":"いわき市","jp_add_2":"鹿島町飯田"},"9718139":{"post_code":"9718139","prefecture":"FUKUSHIMA KEN","city":"IWAKI SHI","town":"KASHIMAMACHI KASHIMA","perfecture_jp":"福島県","jp_add_1":"いわき市","jp_add_2":"鹿島町鹿島"},"9718142":{"post_code":"9718142","prefecture":"FUKUSHIMA KEN","city":"IWAKI SHI","town":"KASHIMAMACHI KAMIKURAMOCHI","perfecture_jp":"福島県","jp_add_1":"いわき市","jp_add_2":"鹿島町上蔵持"},"9718143":{"post_code":"9718143","prefecture":"FUKUSHIMA KEN","city":"IWAKI SHI","town":"KASHIMAMACHI SHIMOKURAMOCHI","perfecture_jp":"福島県","jp_add_1":"いわき市","jp_add_2":"鹿島町下蔵持"},"9718144":{"post_code":"9718144","prefecture":"FUKUSHIMA KEN","city":"IWAKI SHI","town":"KASHIMAMACHI KUBO","perfecture_jp":"福島県","jp_add_1":"いわき市","jp_add_2":"鹿島町久保"},"9718133":{"post_code":"9718133","prefecture":"FUKUSHIMA KEN","city":"IWAKI SHI","town":"KASHIMAMACHI KOMODA","perfecture_jp":"福島県","jp_add_1":"いわき市","jp_add_2":"鹿島町米田"},"9718132":{"post_code":"9718132","prefecture":"FUKUSHIMA KEN","city":"IWAKI SHI","town":"KASHIMAMACHI SHIMOYADA","perfecture_jp":"福島県","jp_add_1":"いわき市","jp_add_2":"鹿島町下矢田"},"9718141":{"post_code":"9718141","prefecture":"FUKUSHIMA KEN","city":"IWAKI SHI","town":"KASHIMAMACHI HASHIRIKUMA","perfecture_jp":"福島県","jp_add_1":"いわき市","jp_add_2":"鹿島町走熊"},"9718145":{"post_code":"9718145","prefecture":"FUKUSHIMA KEN","city":"IWAKI SHI","town":"KASHIMAMACHI FUNADO","perfecture_jp":"福島県","jp_add_1":"いわき市","jp_add_2":"鹿島町船戸"},"9718146":{"post_code":"9718146","prefecture":"FUKUSHIMA KEN","city":"IWAKI SHI","town":"KASHIMAMACHI MIYO","perfecture_jp":"福島県","jp_add_1":"いわき市","jp_add_2":"鹿島町御代"},"9718152":{"post_code":"9718152","prefecture":"FUKUSHIMA KEN","city":"IWAKI SHI","town":"SHONANDAI","perfecture_jp":"福島県","jp_add_1":"いわき市","jp_add_2":"湘南台"},"9718131":{"post_code":"9718131","prefecture":"FUKUSHIMA KEN","city":"IWAKI SHI","town":"JOBAN KAMIYADAMACHI","perfecture_jp":"福島県","jp_add_1":"いわき市","jp_add_2":"常磐上矢田町"},"9718137":{"post_code":"9718137","prefecture":"FUKUSHIMA KEN","city":"IWAKI SHI","town":"JOBAN MATSUKUSUNEMACHI","perfecture_jp":"福島県","jp_add_1":"いわき市","jp_add_2":"常磐松久須根町"},"9718136":{"post_code":"9718136","prefecture":"FUKUSHIMA KEN","city":"IWAKI SHI","town":"JOBAN MISAWAMACHI","perfecture_jp":"福島県","jp_add_1":"いわき市","jp_add_2":"常磐三沢町"},"9718187":{"post_code":"9718187","prefecture":"FUKUSHIMA KEN","city":"IWAKI SHI","town":"HAYAMA","perfecture_jp":"福島県","jp_add_1":"いわき市","jp_add_2":"葉山"},"9718138":{"post_code":"9718138","prefecture":"FUKUSHIMA KEN","city":"IWAKI SHI","town":"WAKABADAI","perfecture_jp":"福島県","jp_add_1":"いわき市","jp_add_2":"若葉台"}}