{"9728301":{"post_code":"9728301","prefecture":"FUKUSHIMA KEN","city":"IWAKI SHI","town":"KUSAKIDAI","perfecture_jp":"福島県","jp_add_1":"いわき市","jp_add_2":"草木台"},"9728324":{"post_code":"9728324","prefecture":"FUKUSHIMA KEN","city":"IWAKI SHI","town":"SAKURAGAOKA","perfecture_jp":"福島県","jp_add_1":"いわき市","jp_add_2":"桜ケ丘"},"9728313":{"post_code":"9728313","prefecture":"FUKUSHIMA KEN","city":"IWAKI SHI","town":"JOBAN IWAGAOKAMACHI","perfecture_jp":"福島県","jp_add_1":"いわき市","jp_add_2":"常磐岩ケ岡町"},"9728315":{"post_code":"9728315","prefecture":"FUKUSHIMA KEN","city":"IWAKI SHI","town":"JOBAN OSAMAGOMACHI","perfecture_jp":"福島県","jp_add_1":"いわき市","jp_add_2":"常磐長孫町"},"9728322":{"post_code":"9728322","prefecture":"FUKUSHIMA KEN","city":"IWAKI SHI","town":"JOBAN KAMIYUNAGAYAMACHI","perfecture_jp":"福島県","jp_add_1":"いわき市","jp_add_2":"常磐上湯長谷町"},"9728317":{"post_code":"9728317","prefecture":"FUKUSHIMA KEN","city":"IWAKI SHI","town":"JOBAN SHIMOYUNAGAYAMACHI","perfecture_jp":"福島県","jp_add_1":"いわき市","jp_add_2":"常磐下湯長谷町"},"9728312":{"post_code":"9728312","prefecture":"FUKUSHIMA KEN","city":"IWAKI SHI","town":"JOBAN SHIMOFUNAOMACHI","perfecture_jp":"福島県","jp_add_1":"いわき市","jp_add_2":"常磐下船尾町"},"9728325":{"post_code":"9728325","prefecture":"FUKUSHIMA KEN","city":"IWAKI SHI","town":"JOBAN SHIRATORIMACHI","perfecture_jp":"福島県","jp_add_1":"いわき市","jp_add_2":"常磐白鳥町"},"9728318":{"post_code":"9728318","prefecture":"FUKUSHIMA KEN","city":"IWAKI SHI","town":"JOBAN SEKIFUNEMACHI","perfecture_jp":"福島県","jp_add_1":"いわき市","jp_add_2":"常磐関船町"},"9728316":{"post_code":"9728316","prefecture":"FUKUSHIMA KEN","city":"IWAKI SHI","town":"JOBAN NISHIGOMACHI","perfecture_jp":"福島県","jp_add_1":"いわき市","jp_add_2":"常磐西郷町"},"9728326":{"post_code":"9728326","prefecture":"FUKUSHIMA KEN","city":"IWAKI SHI","town":"JOBAN FUJIWARAMACHI","perfecture_jp":"福島県","jp_add_1":"いわき市","jp_add_2":"常磐藤原町"},"9728314":{"post_code":"9728314","prefecture":"FUKUSHIMA KEN","city":"IWAKI SHI","town":"JOBAN MADAMAMACHI","perfecture_jp":"福島県","jp_add_1":"いわき市","jp_add_2":"常磐馬玉町"},"9728323":{"post_code":"9728323","prefecture":"FUKUSHIMA KEN","city":"IWAKI SHI","town":"JOBAN MATSUGADAI","perfecture_jp":"福島県","jp_add_1":"いわき市","jp_add_2":"常磐松が台"},"9728311":{"post_code":"9728311","prefecture":"FUKUSHIMA KEN","city":"IWAKI SHI","town":"JOBAN MIZUNOYAMACHI","perfecture_jp":"福島県","jp_add_1":"いわき市","jp_add_2":"常磐水野谷町"},"9728321":{"post_code":"9728321","prefecture":"FUKUSHIMA KEN","city":"IWAKI SHI","town":"JOBAN YUMOTOMACHI","perfecture_jp":"福島県","jp_add_1":"いわき市","jp_add_2":"常磐湯本町"},"9728338":{"post_code":"9728338","prefecture":"FUKUSHIMA KEN","city":"IWAKI SHI","town":"CHUBUKOGYODANCHI","perfecture_jp":"福島県","jp_add_1":"いわき市","jp_add_2":"中部工業団地"},"9720251":{"post_code":"9720251","prefecture":"FUKUSHIMA KEN","city":"IWAKI SHI","town":"TONOMACHI IRITONO","perfecture_jp":"福島県","jp_add_1":"いわき市","jp_add_2":"遠野町入遠野"},"9720253":{"post_code":"9720253","prefecture":"FUKUSHIMA KEN","city":"IWAKI SHI","town":"TONOMACHI ODAIRA","perfecture_jp":"福島県","jp_add_1":"いわき市","jp_add_2":"遠野町大平"},"9720161":{"post_code":"9720161","prefecture":"FUKUSHIMA KEN","city":"IWAKI SHI","town":"TONOMACHI KATONO","perfecture_jp":"福島県","jp_add_1":"いわき市","jp_add_2":"遠野町上遠野"},"9720252":{"post_code":"9720252","prefecture":"FUKUSHIMA KEN","city":"IWAKI SHI","town":"TONOMACHI KAMINEMOTO","perfecture_jp":"福島県","jp_add_1":"いわき市","jp_add_2":"遠野町上根本"},"9720162":{"post_code":"9720162","prefecture":"FUKUSHIMA KEN","city":"IWAKI SHI","town":"TONOMACHI TAKI","perfecture_jp":"福島県","jp_add_1":"いわき市","jp_add_2":"遠野町滝"},"9720163":{"post_code":"9720163","prefecture":"FUKUSHIMA KEN","city":"IWAKI SHI","town":"TONOMACHI NEGISHI","perfecture_jp":"福島県","jp_add_1":"いわき市","jp_add_2":"遠野町根岸"},"9720164":{"post_code":"9720164","prefecture":"FUKUSHIMA KEN","city":"IWAKI SHI","town":"TONOMACHI MIYAMADA","perfecture_jp":"福島県","jp_add_1":"いわき市","jp_add_2":"遠野町深山田"},"9728331":{"post_code":"9728331","prefecture":"FUKUSHIMA KEN","city":"IWAKI SHI","town":"WATANABEMACHI IZUMIDA","perfecture_jp":"福島県","jp_add_1":"いわき市","jp_add_2":"渡辺町泉田"},"9728336":{"post_code":"9728336","prefecture":"FUKUSHIMA KEN","city":"IWAKI SHI","town":"WATANABEMACHI KAMIKAMADO","perfecture_jp":"福島県","jp_add_1":"いわき市","jp_add_2":"渡辺町上釜戸"},"9728334":{"post_code":"9728334","prefecture":"FUKUSHIMA KEN","city":"IWAKI SHI","town":"WATANABEMACHI TANABE","perfecture_jp":"福島県","jp_add_1":"いわき市","jp_add_2":"渡辺町田部"},"9728337":{"post_code":"9728337","prefecture":"FUKUSHIMA KEN","city":"IWAKI SHI","town":"WATANABEMACHI NAKAKAMADO","perfecture_jp":"福島県","jp_add_1":"いわき市","jp_add_2":"渡辺町中釜戸"},"9728332":{"post_code":"9728332","prefecture":"FUKUSHIMA KEN","city":"IWAKI SHI","town":"WATANABEMACHI HIRUNO","perfecture_jp":"福島県","jp_add_1":"いわき市","jp_add_2":"渡辺町昼野"},"9728333":{"post_code":"9728333","prefecture":"FUKUSHIMA KEN","city":"IWAKI SHI","town":"WATANABEMACHI BORA","perfecture_jp":"福島県","jp_add_1":"いわき市","jp_add_2":"渡辺町洞"},"9728335":{"post_code":"9728335","prefecture":"FUKUSHIMA KEN","city":"IWAKI SHI","town":"WATANABEMACHI MATSUGOYA","perfecture_jp":"福島県","jp_add_1":"いわき市","jp_add_2":"渡辺町松小屋"}}