{"9748212":{"post_code":"9748212","prefecture":"FUKUSHIMA KEN","city":"IWAKI SHI","town":"AZUMADAMACHI","perfecture_jp":"福島県","jp_add_1":"いわき市","jp_add_2":"東田町"},"9748213":{"post_code":"9748213","prefecture":"FUKUSHIMA KEN","city":"IWAKI SHI","town":"ISHIZUKAMACHI","perfecture_jp":"福島県","jp_add_1":"いわき市","jp_add_2":"石塚町"},"9748222":{"post_code":"9748222","prefecture":"FUKUSHIMA KEN","city":"IWAKI SHI","town":"IWAMAMACHI","perfecture_jp":"福島県","jp_add_1":"いわき市","jp_add_2":"岩間町"},"9748261":{"post_code":"9748261","prefecture":"FUKUSHIMA KEN","city":"IWAKI SHI","town":"UEDAMACHI","perfecture_jp":"福島県","jp_add_1":"いわき市","jp_add_2":"植田町"},"9748203":{"post_code":"9748203","prefecture":"FUKUSHIMA KEN","city":"IWAKI SHI","town":"USHIRODAMACHI","perfecture_jp":"福島県","jp_add_1":"いわき市","jp_add_2":"後田町"},"9748201":{"post_code":"9748201","prefecture":"FUKUSHIMA KEN","city":"IWAKI SHI","town":"EBATAMACHI","perfecture_jp":"福島県","jp_add_1":"いわき市","jp_add_2":"江畑町"},"9748221":{"post_code":"9748221","prefecture":"FUKUSHIMA KEN","city":"IWAKI SHI","town":"OBAMAMACHI","perfecture_jp":"福島県","jp_add_1":"いわき市","jp_add_2":"小浜町"},"9748211":{"post_code":"9748211","prefecture":"FUKUSHIMA KEN","city":"IWAKI SHI","town":"KANEYAMAMACHI","perfecture_jp":"福島県","jp_add_1":"いわき市","jp_add_2":"金山町"},"9748223":{"post_code":"9748223","prefecture":"FUKUSHIMA KEN","city":"IWAKI SHI","town":"SANUKAMACHI","perfecture_jp":"福島県","jp_add_1":"いわき市","jp_add_2":"佐糠町"},"9748202":{"post_code":"9748202","prefecture":"FUKUSHIMA KEN","city":"IWAKI SHI","town":"SOENOMACHI","perfecture_jp":"福島県","jp_add_1":"いわき市","jp_add_2":"添野町"},"9748204":{"post_code":"9748204","prefecture":"FUKUSHIMA KEN","city":"IWAKI SHI","town":"TAKAKURAMACHI","perfecture_jp":"福島県","jp_add_1":"いわき市","jp_add_2":"高倉町"},"9740243":{"post_code":"9740243","prefecture":"FUKUSHIMA KEN","city":"IWAKI SHI","town":"TABITOMACHI ISHIZUMI","perfecture_jp":"福島県","jp_add_1":"いわき市","jp_add_2":"田人町石住"},"9740242":{"post_code":"9740242","prefecture":"FUKUSHIMA KEN","city":"IWAKI SHI","town":"TABITOMACHI KAIDOMARI","perfecture_jp":"福島県","jp_add_1":"いわき市","jp_add_2":"田人町貝泊"},"9740151":{"post_code":"9740151","prefecture":"FUKUSHIMA KEN","city":"IWAKI SHI","town":"TABITOMACHI KURODA","perfecture_jp":"福島県","jp_add_1":"いわき市","jp_add_2":"田人町黒田"},"9740241":{"post_code":"9740241","prefecture":"FUKUSHIMA KEN","city":"IWAKI SHI","town":"TABITOMACHI NICHIBU","perfecture_jp":"福島県","jp_add_1":"いわき市","jp_add_2":"田人町荷路夫"},"9740153":{"post_code":"9740153","prefecture":"FUKUSHIMA KEN","city":"IWAKI SHI","town":"TABITOMACHIMINAMIODAIRA","perfecture_jp":"福島県","jp_add_1":"いわき市","jp_add_2":"田人町南大平"},"9740252":{"post_code":"9740252","prefecture":"FUKUSHIMA KEN","city":"IWAKI SHI","town":"TABITOMACHITABIUTO(MIZUNOMIBA)","perfecture_jp":"福島県","jp_add_1":"いわき市","jp_add_2":"田人町旅人"},"9740152":{"post_code":"9740152","prefecture":"FUKUSHIMA KEN","city":"IWAKI SHI","town":"TABITOMACHITABIUTO(SONOTA)","perfecture_jp":"福島県","jp_add_1":"いわき市","jp_add_2":"田人町旅人"},"9748231":{"post_code":"9748231","prefecture":"FUKUSHIMA KEN","city":"IWAKI SHI","town":"TOMITSUMACHI","perfecture_jp":"福島県","jp_add_1":"いわき市","jp_add_2":"富津町"},"9748251":{"post_code":"9748251","prefecture":"FUKUSHIMA KEN","city":"IWAKI SHI","town":"NAKAOKAMACHI","perfecture_jp":"福島県","jp_add_1":"いわき市","jp_add_2":"中岡町"},"9748252":{"post_code":"9748252","prefecture":"FUKUSHIMA KEN","city":"IWAKI SHI","town":"NIIDAMACHI","perfecture_jp":"福島県","jp_add_1":"いわき市","jp_add_2":"仁井田町"},"9748232":{"post_code":"9748232","prefecture":"FUKUSHIMA KEN","city":"IWAKI SHI","town":"NISHIKIMACHI","perfecture_jp":"福島県","jp_add_1":"いわき市","jp_add_2":"錦町"},"9748233":{"post_code":"9748233","prefecture":"FUKUSHIMA KEN","city":"IWAKI SHI","town":"NISHIKIMACHI CHUO","perfecture_jp":"福島県","jp_add_1":"いわき市","jp_add_2":"錦町中央"},"9748242":{"post_code":"9748242","prefecture":"FUKUSHIMA KEN","city":"IWAKI SHI","town":"MINAMIDAI","perfecture_jp":"福島県","jp_add_1":"いわき市","jp_add_2":"南台"},"9748241":{"post_code":"9748241","prefecture":"FUKUSHIMA KEN","city":"IWAKI SHI","town":"YAMADAMACHI","perfecture_jp":"福島県","jp_add_1":"いわき市","jp_add_2":"山田町"}}