{"9800000":{"post_code":"9800000","prefecture":"MIYAGI KEN","city":"SENDAI SHI AOBA KU","town":"IKANIKEISAIGANAIBAAI","perfecture_jp":"宮城県","jp_add_1":"仙台市青葉区","jp_add_2":""},"9800856":{"post_code":"9800856","prefecture":"MIYAGI KEN","city":"SENDAI SHI AOBA KU","town":"AOBAYAMA","perfecture_jp":"宮城県","jp_add_1":"仙台市青葉区","jp_add_2":"青葉山"},"9800845":{"post_code":"9800845","prefecture":"MIYAGI KEN","city":"SENDAI SHI AOBA KU","town":"ARAMAKI(SONOTA)","perfecture_jp":"宮城県","jp_add_1":"仙台市青葉区","jp_add_2":"荒巻"},"9800811":{"post_code":"9800811","prefecture":"MIYAGI KEN","city":"SENDAI SHI AOBA KU","town":"ICHIBANCHO","perfecture_jp":"宮城県","jp_add_1":"仙台市青葉区","jp_add_2":"一番町"},"9800022":{"post_code":"9800022","prefecture":"MIYAGI KEN","city":"SENDAI SHI AOBA KU","town":"ITSUTSUBASHI(1.2-CHOME)","perfecture_jp":"宮城県","jp_add_1":"仙台市青葉区","jp_add_2":"五橋"},"9800005":{"post_code":"9800005","prefecture":"MIYAGI KEN","city":"SENDAI SHI AOBA KU","town":"UMEDAMACHI","perfecture_jp":"宮城県","jp_add_1":"仙台市青葉区","jp_add_2":"梅田町"},"9800805":{"post_code":"9800805","prefecture":"MIYAGI KEN","city":"SENDAI SHI AOBA KU","town":"OTEMACHI","perfecture_jp":"宮城県","jp_add_1":"仙台市青葉区","jp_add_2":"大手町"},"9800804":{"post_code":"9800804","prefecture":"MIYAGI KEN","city":"SENDAI SHI AOBA KU","town":"OMACHI","perfecture_jp":"宮城県","jp_add_1":"仙台市青葉区","jp_add_2":"大町"},"9800814":{"post_code":"9800814","prefecture":"MIYAGI KEN","city":"SENDAI SHI AOBA KU","town":"OTAMAYASHITA","perfecture_jp":"宮城県","jp_add_1":"仙台市青葉区","jp_add_2":"霊屋下"},"9800003":{"post_code":"9800003","prefecture":"MIYAGI KEN","city":"SENDAI SHI AOBA KU","town":"ODAWARA(4-CHOME-8-CHOME)","perfecture_jp":"宮城県","jp_add_1":"仙台市青葉区","jp_add_2":"小田原"},"9800013":{"post_code":"9800013","prefecture":"MIYAGI KEN","city":"SENDAI SHI AOBA KU","town":"KAKYOIN","perfecture_jp":"宮城県","jp_add_1":"仙台市青葉区","jp_add_2":"花京院"},"9800821":{"post_code":"9800821","prefecture":"MIYAGI KEN","city":"SENDAI SHI AOBA KU","town":"KASUGAMACHI","perfecture_jp":"宮城県","jp_add_1":"仙台市青葉区","jp_add_2":"春日町"},"9800812":{"post_code":"9800812","prefecture":"MIYAGI KEN","city":"SENDAI SHI AOBA KU","town":"KATAHIRA","perfecture_jp":"宮城県","jp_add_1":"仙台市青葉区","jp_add_2":"片平"},"9800815":{"post_code":"9800815","prefecture":"MIYAGI KEN","city":"SENDAI SHI AOBA KU","town":"KADAN","perfecture_jp":"宮城県","jp_add_1":"仙台市青葉区","jp_add_2":"花壇"},"9800011":{"post_code":"9800011","prefecture":"MIYAGI KEN","city":"SENDAI SHI AOBA KU","town":"KAMISUGI","perfecture_jp":"宮城県","jp_add_1":"仙台市青葉区","jp_add_2":"上杉"},"9800862":{"post_code":"9800862","prefecture":"MIYAGI KEN","city":"SENDAI SHI AOBA KU","town":"KAWAUCHI","perfecture_jp":"宮城県","jp_add_1":"仙台市青葉区","jp_add_2":"川内"},"9800863":{"post_code":"9800863","prefecture":"MIYAGI KEN","city":"SENDAI SHI AOBA KU","town":"KAWAUCHI OIMAWASHI","perfecture_jp":"宮城県","jp_add_1":"仙台市青葉区","jp_add_2":"川内追廻"},"9800867":{"post_code":"9800867","prefecture":"MIYAGI KEN","city":"SENDAI SHI AOBA KU","town":"KAWAUCHI KAMEOKAKITAURACHO","perfecture_jp":"宮城県","jp_add_1":"仙台市青葉区","jp_add_2":"川内亀岡北裏丁"},"9800865":{"post_code":"9800865","prefecture":"MIYAGI KEN","city":"SENDAI SHI AOBA KU","town":"KAWAUCHI KAMEOKACHO","perfecture_jp":"宮城県","jp_add_1":"仙台市青葉区","jp_add_2":"川内亀岡町"},"9800852":{"post_code":"9800852","prefecture":"MIYAGI KEN","city":"SENDAI SHI AOBA KU","town":"KAWAUCHI KAWAMAECHO","perfecture_jp":"宮城県","jp_add_1":"仙台市青葉区","jp_add_2":"川内川前丁"},"9800866":{"post_code":"9800866","prefecture":"MIYAGI KEN","city":"SENDAI SHI AOBA KU","town":"KAWAUCHI SANJUNIMMACHI","perfecture_jp":"宮城県","jp_add_1":"仙台市青葉区","jp_add_2":"川内三十人町"},"9800853":{"post_code":"9800853","prefecture":"MIYAGI KEN","city":"SENDAI SHI AOBA KU","town":"KAWAUCHI DAIKUMACHI","perfecture_jp":"宮城県","jp_add_1":"仙台市青葉区","jp_add_2":"川内大工町"},"9800854":{"post_code":"9800854","prefecture":"MIYAGI KEN","city":"SENDAI SHI AOBA KU","town":"KAWAUCHI NAKANOSEMACHI","perfecture_jp":"宮城県","jp_add_1":"仙台市青葉区","jp_add_2":"川内中ノ瀬町"},"9800851":{"post_code":"9800851","prefecture":"MIYAGI KEN","city":"SENDAI SHI AOBA KU","town":"KAWAUCHI MYOJINYOKOCHO","perfecture_jp":"宮城県","jp_add_1":"仙台市青葉区","jp_add_2":"川内明神横丁"},"9800861":{"post_code":"9800861","prefecture":"MIYAGI KEN","city":"SENDAI SHI AOBA KU","town":"KAWAUCHI MOTOHASEKURA","perfecture_jp":"宮城県","jp_add_1":"仙台市青葉区","jp_add_2":"川内元支倉"},"9800864":{"post_code":"9800864","prefecture":"MIYAGI KEN","city":"SENDAI SHI AOBA KU","town":"KAWAUCHI YAMAYASHIKI","perfecture_jp":"宮城県","jp_add_1":"仙台市青葉区","jp_add_2":"川内山屋敷"},"9800855":{"post_code":"9800855","prefecture":"MIYAGI KEN","city":"SENDAI SHI AOBA KU","town":"KAWAUCHI YODOMIBASHIDORI","perfecture_jp":"宮城県","jp_add_1":"仙台市青葉区","jp_add_2":"川内澱橋通"},"9800023":{"post_code":"9800023","prefecture":"MIYAGI KEN","city":"SENDAI SHI AOBA KU","town":"KITAMEMACHI","perfecture_jp":"宮城県","jp_add_1":"仙台市青葉区","jp_add_2":"北目町"},"9800801":{"post_code":"9800801","prefecture":"MIYAGI KEN","city":"SENDAI SHI AOBA KU","town":"KIMACHIDORI","perfecture_jp":"宮城県","jp_add_1":"仙台市青葉区","jp_add_2":"木町通"},"9800803":{"post_code":"9800803","prefecture":"MIYAGI KEN","city":"SENDAI SHI AOBA KU","town":"KOKUBUNCHO","perfecture_jp":"宮城県","jp_add_1":"仙台市青葉区","jp_add_2":"国分町"},"9800813":{"post_code":"9800813","prefecture":"MIYAGI KEN","city":"SENDAI SHI AOBA KU","town":"KOMEGAFUKURO","perfecture_jp":"宮城県","jp_add_1":"仙台市青葉区","jp_add_2":"米ケ袋"},"9800823":{"post_code":"9800823","prefecture":"MIYAGI KEN","city":"SENDAI SHI AOBA KU","town":"SAKURAGAOKAKOEN","perfecture_jp":"宮城県","jp_add_1":"仙台市青葉区","jp_add_2":"桜ケ岡公園"},"9800872":{"post_code":"9800872","prefecture":"MIYAGI KEN","city":"SENDAI SHI AOBA KU","town":"SEIRYOMACHI","perfecture_jp":"宮城県","jp_add_1":"仙台市青葉区","jp_add_2":"星陵町"},"9800822":{"post_code":"9800822","prefecture":"MIYAGI KEN","city":"SENDAI SHI AOBA KU","town":"TACHIMACHI","perfecture_jp":"宮城県","jp_add_1":"仙台市青葉区","jp_add_2":"立町"},"9800021":{"post_code":"9800021","prefecture":"MIYAGI KEN","city":"SENDAI SHI AOBA KU","town":"CHUO (TSUGINOBIRUONOZOKU)","perfecture_jp":"宮城県","jp_add_1":"仙台市青葉区","jp_add_2":"中央"},"9806190":{"post_code":"9806190","prefecture":"MIYAGI KEN","city":"SENDAI SHI AOBA KU","town":"CHUO AERU(CHIKAI.KAISOFUMEI)","perfecture_jp":"宮城県","jp_add_1":"仙台市青葉区","jp_add_2":"中央アエル"},"9806101":{"post_code":"9806101","prefecture":"MIYAGI KEN","city":"SENDAI SHI AOBA KU","town":"CHUO AERU(1-KAI)","perfecture_jp":"宮城県","jp_add_1":"仙台市青葉区","jp_add_2":"中央アエル１階"},"9806102":{"post_code":"9806102","prefecture":"MIYAGI KEN","city":"SENDAI SHI AOBA KU","town":"CHUO AERU(2-KAI)","perfecture_jp":"宮城県","jp_add_1":"仙台市青葉区","jp_add_2":"中央アエル２階"},"9806103":{"post_code":"9806103","prefecture":"MIYAGI KEN","city":"SENDAI SHI AOBA KU","town":"CHUO AERU(3-KAI)","perfecture_jp":"宮城県","jp_add_1":"仙台市青葉区","jp_add_2":"中央アエル３階"},"9806104":{"post_code":"9806104","prefecture":"MIYAGI KEN","city":"SENDAI SHI AOBA KU","town":"CHUO AERU(4-KAI)","perfecture_jp":"宮城県","jp_add_1":"仙台市青葉区","jp_add_2":"中央アエル４階"},"9806105":{"post_code":"9806105","prefecture":"MIYAGI KEN","city":"SENDAI SHI AOBA KU","town":"CHUO AERU(5-KAI)","perfecture_jp":"宮城県","jp_add_1":"仙台市青葉区","jp_add_2":"中央アエル５階"},"9806106":{"post_code":"9806106","prefecture":"MIYAGI KEN","city":"SENDAI SHI AOBA KU","town":"CHUO AERU(6-KAI)","perfecture_jp":"宮城県","jp_add_1":"仙台市青葉区","jp_add_2":"中央アエル６階"},"9806107":{"post_code":"9806107","prefecture":"MIYAGI KEN","city":"SENDAI SHI AOBA KU","town":"CHUO AERU(7-KAI)","perfecture_jp":"宮城県","jp_add_1":"仙台市青葉区","jp_add_2":"中央アエル７階"},"9806108":{"post_code":"9806108","prefecture":"MIYAGI KEN","city":"SENDAI SHI AOBA KU","town":"CHUO AERU(8-KAI)","perfecture_jp":"宮城県","jp_add_1":"仙台市青葉区","jp_add_2":"中央アエル８階"},"9806109":{"post_code":"9806109","prefecture":"MIYAGI KEN","city":"SENDAI SHI AOBA KU","town":"CHUO AERU(9-KAI)","perfecture_jp":"宮城県","jp_add_1":"仙台市青葉区","jp_add_2":"中央アエル９階"},"9806110":{"post_code":"9806110","prefecture":"MIYAGI KEN","city":"SENDAI SHI AOBA KU","town":"CHUO AERU(10-KAI)","perfecture_jp":"宮城県","jp_add_1":"仙台市青葉区","jp_add_2":"中央アエル１０階"},"9806111":{"post_code":"9806111","prefecture":"MIYAGI KEN","city":"SENDAI SHI AOBA KU","town":"CHUO AERU(11-KAI)","perfecture_jp":"宮城県","jp_add_1":"仙台市青葉区","jp_add_2":"中央アエル１１階"},"9806112":{"post_code":"9806112","prefecture":"MIYAGI KEN","city":"SENDAI SHI AOBA KU","town":"CHUO AERU(12-KAI)","perfecture_jp":"宮城県","jp_add_1":"仙台市青葉区","jp_add_2":"中央アエル１２階"},"9806113":{"post_code":"9806113","prefecture":"MIYAGI KEN","city":"SENDAI SHI AOBA KU","town":"CHUO AERU(13-KAI)","perfecture_jp":"宮城県","jp_add_1":"仙台市青葉区","jp_add_2":"中央アエル１３階"},"9806114":{"post_code":"9806114","prefecture":"MIYAGI KEN","city":"SENDAI SHI AOBA KU","town":"CHUO AERU(14-KAI)","perfecture_jp":"宮城県","jp_add_1":"仙台市青葉区","jp_add_2":"中央アエル１４階"},"9806115":{"post_code":"9806115","prefecture":"MIYAGI KEN","city":"SENDAI SHI AOBA KU","town":"CHUO AERU(15-KAI)","perfecture_jp":"宮城県","jp_add_1":"仙台市青葉区","jp_add_2":"中央アエル１５階"},"9806116":{"post_code":"9806116","prefecture":"MIYAGI KEN","city":"SENDAI SHI AOBA KU","town":"CHUO AERU(16-KAI)","perfecture_jp":"宮城県","jp_add_1":"仙台市青葉区","jp_add_2":"中央アエル１６階"},"9806117":{"post_code":"9806117","prefecture":"MIYAGI KEN","city":"SENDAI SHI AOBA KU","town":"CHUO AERU(17-KAI)","perfecture_jp":"宮城県","jp_add_1":"仙台市青葉区","jp_add_2":"中央アエル１７階"},"9806118":{"post_code":"9806118","prefecture":"MIYAGI KEN","city":"SENDAI SHI AOBA KU","town":"CHUO AERU(18-KAI)","perfecture_jp":"宮城県","jp_add_1":"仙台市青葉区","jp_add_2":"中央アエル１８階"},"9806119":{"post_code":"9806119","prefecture":"MIYAGI KEN","city":"SENDAI SHI AOBA KU","town":"CHUO AERU(19-KAI)","perfecture_jp":"宮城県","jp_add_1":"仙台市青葉区","jp_add_2":"中央アエル１９階"},"9806120":{"post_code":"9806120","prefecture":"MIYAGI KEN","city":"SENDAI SHI AOBA KU","town":"CHUO AERU(20-KAI)","perfecture_jp":"宮城県","jp_add_1":"仙台市青葉区","jp_add_2":"中央アエル２０階"},"9806121":{"post_code":"9806121","prefecture":"MIYAGI KEN","city":"SENDAI SHI AOBA KU","town":"CHUO AERU(21-KAI)","perfecture_jp":"宮城県","jp_add_1":"仙台市青葉区","jp_add_2":"中央アエル２１階"},"9806122":{"post_code":"9806122","prefecture":"MIYAGI KEN","city":"SENDAI SHI AOBA KU","town":"CHUO AERU(22-KAI)","perfecture_jp":"宮城県","jp_add_1":"仙台市青葉区","jp_add_2":"中央アエル２２階"},"9806123":{"post_code":"9806123","prefecture":"MIYAGI KEN","city":"SENDAI SHI AOBA KU","town":"CHUO AERU(23-KAI)","perfecture_jp":"宮城県","jp_add_1":"仙台市青葉区","jp_add_2":"中央アエル２３階"},"9806124":{"post_code":"9806124","prefecture":"MIYAGI KEN","city":"SENDAI SHI AOBA KU","town":"CHUO AERU(24-KAI)","perfecture_jp":"宮城県","jp_add_1":"仙台市青葉区","jp_add_2":"中央アエル２４階"},"9806125":{"post_code":"9806125","prefecture":"MIYAGI KEN","city":"SENDAI SHI AOBA KU","town":"CHUO AERU(25-KAI)","perfecture_jp":"宮城県","jp_add_1":"仙台市青葉区","jp_add_2":"中央アエル２５階"},"9806126":{"post_code":"9806126","prefecture":"MIYAGI KEN","city":"SENDAI SHI AOBA KU","town":"CHUO AERU(26-KAI)","perfecture_jp":"宮城県","jp_add_1":"仙台市青葉区","jp_add_2":"中央アエル２６階"},"9806127":{"post_code":"9806127","prefecture":"MIYAGI KEN","city":"SENDAI SHI AOBA KU","town":"CHUO AERU(27-KAI)","perfecture_jp":"宮城県","jp_add_1":"仙台市青葉区","jp_add_2":"中央アエル２７階"},"9806128":{"post_code":"9806128","prefecture":"MIYAGI KEN","city":"SENDAI SHI AOBA KU","town":"CHUO AERU(28-KAI)","perfecture_jp":"宮城県","jp_add_1":"仙台市青葉区","jp_add_2":"中央アエル２８階"},"9806129":{"post_code":"9806129","prefecture":"MIYAGI KEN","city":"SENDAI SHI AOBA KU","town":"CHUO AERU(29-KAI)","perfecture_jp":"宮城県","jp_add_1":"仙台市青葉区","jp_add_2":"中央アエル２９階"},"9806130":{"post_code":"9806130","prefecture":"MIYAGI KEN","city":"SENDAI SHI AOBA KU","town":"CHUO AERU(30-KAI)","perfecture_jp":"宮城県","jp_add_1":"仙台市青葉区","jp_add_2":"中央アエル３０階"},"9806131":{"post_code":"9806131","prefecture":"MIYAGI KEN","city":"SENDAI SHI AOBA KU","town":"CHUO AERU(31-KAI)","perfecture_jp":"宮城県","jp_add_1":"仙台市青葉区","jp_add_2":"中央アエル３１階"},"9806090":{"post_code":"9806090","prefecture":"MIYAGI KEN","city":"SENDAI SHI AOBA KU","town":"CHUO SS30-SUMITOMOSEIMEISENDAICHUOB","perfecture_jp":"宮城県","jp_add_1":"仙台市青葉区","jp_add_2":"中央ＳＳ３０住友生命仙台中央ビル"},"9806001":{"post_code":"9806001","prefecture":"MIYAGI KEN","city":"SENDAI SHI AOBA KU","town":"CHUO SS30-SUMITOMOSEIMEISENDAICHUOB","perfecture_jp":"宮城県","jp_add_1":"仙台市青葉区","jp_add_2":"中央ＳＳ３０住友生命仙台中央ビル１階"},"9806002":{"post_code":"9806002","prefecture":"MIYAGI KEN","city":"SENDAI SHI AOBA KU","town":"CHUO SS30-SUMITOMOSEIMEISENDAICHUOB","perfecture_jp":"宮城県","jp_add_1":"仙台市青葉区","jp_add_2":"中央ＳＳ３０住友生命仙台中央ビル２階"},"9806003":{"post_code":"9806003","prefecture":"MIYAGI KEN","city":"SENDAI SHI AOBA KU","town":"CHUO SS30-SUMITOMOSEIMEISENDAICHUOB","perfecture_jp":"宮城県","jp_add_1":"仙台市青葉区","jp_add_2":"中央ＳＳ３０住友生命仙台中央ビル３階"},"9806004":{"post_code":"9806004","prefecture":"MIYAGI KEN","city":"SENDAI SHI AOBA KU","town":"CHUO SS30-SUMITOMOSEIMEISENDAICHUOB","perfecture_jp":"宮城県","jp_add_1":"仙台市青葉区","jp_add_2":"中央ＳＳ３０住友生命仙台中央ビル４階"},"9806005":{"post_code":"9806005","prefecture":"MIYAGI KEN","city":"SENDAI SHI AOBA KU","town":"CHUO SS30-SUMITOMOSEIMEISENDAICHUOB","perfecture_jp":"宮城県","jp_add_1":"仙台市青葉区","jp_add_2":"中央ＳＳ３０住友生命仙台中央ビル５階"},"9806006":{"post_code":"9806006","prefecture":"MIYAGI KEN","city":"SENDAI SHI AOBA KU","town":"CHUO SS30-SUMITOMOSEIMEISENDAICHUOB","perfecture_jp":"宮城県","jp_add_1":"仙台市青葉区","jp_add_2":"中央ＳＳ３０住友生命仙台中央ビル６階"},"9806007":{"post_code":"9806007","prefecture":"MIYAGI KEN","city":"SENDAI SHI AOBA KU","town":"CHUO SS30-SUMITOMOSEIMEISENDAICHUOB","perfecture_jp":"宮城県","jp_add_1":"仙台市青葉区","jp_add_2":"中央ＳＳ３０住友生命仙台中央ビル７階"},"9806008":{"post_code":"9806008","prefecture":"MIYAGI KEN","city":"SENDAI SHI AOBA KU","town":"CHUO SS30-SUMITOMOSEIMEISENDAICHUOB","perfecture_jp":"宮城県","jp_add_1":"仙台市青葉区","jp_add_2":"中央ＳＳ３０住友生命仙台中央ビル８階"},"9806009":{"post_code":"9806009","prefecture":"MIYAGI KEN","city":"SENDAI SHI AOBA KU","town":"CHUO SS30-SUMITOMOSEIMEISENDAICHUOB","perfecture_jp":"宮城県","jp_add_1":"仙台市青葉区","jp_add_2":"中央ＳＳ３０住友生命仙台中央ビル９階"},"9806010":{"post_code":"9806010","prefecture":"MIYAGI KEN","city":"SENDAI SHI AOBA KU","town":"CHUO SS30-SUMITOMOSEIMEISENDAICHUOB","perfecture_jp":"宮城県","jp_add_1":"仙台市青葉区","jp_add_2":"中央ＳＳ３０住友生命仙台中央ビル１０階"},"9806011":{"post_code":"9806011","prefecture":"MIYAGI KEN","city":"SENDAI SHI AOBA KU","town":"CHUO SS30-SUMITOMOSEIMEISENDAICHUOB","perfecture_jp":"宮城県","jp_add_1":"仙台市青葉区","jp_add_2":"中央ＳＳ３０住友生命仙台中央ビル１１階"},"9806012":{"post_code":"9806012","prefecture":"MIYAGI KEN","city":"SENDAI SHI AOBA KU","town":"CHUO SS30-SUMITOMOSEIMEISENDAICHUOB","perfecture_jp":"宮城県","jp_add_1":"仙台市青葉区","jp_add_2":"中央ＳＳ３０住友生命仙台中央ビル１２階"},"9806013":{"post_code":"9806013","prefecture":"MIYAGI KEN","city":"SENDAI SHI AOBA KU","town":"CHUO SS30-SUMITOMOSEIMEISENDAICHUOB","perfecture_jp":"宮城県","jp_add_1":"仙台市青葉区","jp_add_2":"中央ＳＳ３０住友生命仙台中央ビル１３階"},"9806014":{"post_code":"9806014","prefecture":"MIYAGI KEN","city":"SENDAI SHI AOBA KU","town":"CHUO SS30-SUMITOMOSEIMEISENDAICHUOB","perfecture_jp":"宮城県","jp_add_1":"仙台市青葉区","jp_add_2":"中央ＳＳ３０住友生命仙台中央ビル１４階"},"9806015":{"post_code":"9806015","prefecture":"MIYAGI KEN","city":"SENDAI SHI AOBA KU","town":"CHUO SS30-SUMITOMOSEIMEISENDAICHUOB","perfecture_jp":"宮城県","jp_add_1":"仙台市青葉区","jp_add_2":"中央ＳＳ３０住友生命仙台中央ビル１５階"},"9806016":{"post_code":"9806016","prefecture":"MIYAGI KEN","city":"SENDAI SHI AOBA KU","town":"CHUO SS30-SUMITOMOSEIMEISENDAICHUOB","perfecture_jp":"宮城県","jp_add_1":"仙台市青葉区","jp_add_2":"中央ＳＳ３０住友生命仙台中央ビル１６階"},"9806017":{"post_code":"9806017","prefecture":"MIYAGI KEN","city":"SENDAI SHI AOBA KU","town":"CHUO SS30-SUMITOMOSEIMEISENDAICHUOB","perfecture_jp":"宮城県","jp_add_1":"仙台市青葉区","jp_add_2":"中央ＳＳ３０住友生命仙台中央ビル１７階"},"9806018":{"post_code":"9806018","prefecture":"MIYAGI KEN","city":"SENDAI SHI AOBA KU","town":"CHUO SS30-SUMITOMOSEIMEISENDAICHUOB","perfecture_jp":"宮城県","jp_add_1":"仙台市青葉区","jp_add_2":"中央ＳＳ３０住友生命仙台中央ビル１８階"},"9806019":{"post_code":"9806019","prefecture":"MIYAGI KEN","city":"SENDAI SHI AOBA KU","town":"CHUO SS30-SUMITOMOSEIMEISENDAICHUOB","perfecture_jp":"宮城県","jp_add_1":"仙台市青葉区","jp_add_2":"中央ＳＳ３０住友生命仙台中央ビル１９階"},"9806020":{"post_code":"9806020","prefecture":"MIYAGI KEN","city":"SENDAI SHI AOBA KU","town":"CHUO SS30-SUMITOMOSEIMEISENDAICHUOB","perfecture_jp":"宮城県","jp_add_1":"仙台市青葉区","jp_add_2":"中央ＳＳ３０住友生命仙台中央ビル２０階"},"9806021":{"post_code":"9806021","prefecture":"MIYAGI KEN","city":"SENDAI SHI AOBA KU","town":"CHUO SS30-SUMITOMOSEIMEISENDAICHUOB","perfecture_jp":"宮城県","jp_add_1":"仙台市青葉区","jp_add_2":"中央ＳＳ３０住友生命仙台中央ビル２１階"},"9806022":{"post_code":"9806022","prefecture":"MIYAGI KEN","city":"SENDAI SHI AOBA KU","town":"CHUO SS30-SUMITOMOSEIMEISENDAICHUOB","perfecture_jp":"宮城県","jp_add_1":"仙台市青葉区","jp_add_2":"中央ＳＳ３０住友生命仙台中央ビル２２階"},"9806023":{"post_code":"9806023","prefecture":"MIYAGI KEN","city":"SENDAI SHI AOBA KU","town":"CHUO SS30-SUMITOMOSEIMEISENDAICHUOB","perfecture_jp":"宮城県","jp_add_1":"仙台市青葉区","jp_add_2":"中央ＳＳ３０住友生命仙台中央ビル２３階"},"9806024":{"post_code":"9806024","prefecture":"MIYAGI KEN","city":"SENDAI SHI AOBA KU","town":"CHUO SS30-SUMITOMOSEIMEISENDAICHUOB","perfecture_jp":"宮城県","jp_add_1":"仙台市青葉区","jp_add_2":"中央ＳＳ３０住友生命仙台中央ビル２４階"},"9806025":{"post_code":"9806025","prefecture":"MIYAGI KEN","city":"SENDAI SHI AOBA KU","town":"CHUO SS30-SUMITOMOSEIMEISENDAICHUOB","perfecture_jp":"宮城県","jp_add_1":"仙台市青葉区","jp_add_2":"中央ＳＳ３０住友生命仙台中央ビル２５階"},"9806026":{"post_code":"9806026","prefecture":"MIYAGI KEN","city":"SENDAI SHI AOBA KU","town":"CHUO SS30-SUMITOMOSEIMEISENDAICHUOB","perfecture_jp":"宮城県","jp_add_1":"仙台市青葉区","jp_add_2":"中央ＳＳ３０住友生命仙台中央ビル２６階"},"9806027":{"post_code":"9806027","prefecture":"MIYAGI KEN","city":"SENDAI SHI AOBA KU","town":"CHUO SS30-SUMITOMOSEIMEISENDAICHUOB","perfecture_jp":"宮城県","jp_add_1":"仙台市青葉区","jp_add_2":"中央ＳＳ３０住友生命仙台中央ビル２７階"},"9806028":{"post_code":"9806028","prefecture":"MIYAGI KEN","city":"SENDAI SHI AOBA KU","town":"CHUO SS30-SUMITOMOSEIMEISENDAICHUOB","perfecture_jp":"宮城県","jp_add_1":"仙台市青葉区","jp_add_2":"中央ＳＳ３０住友生命仙台中央ビル２８階"},"9806029":{"post_code":"9806029","prefecture":"MIYAGI KEN","city":"SENDAI SHI AOBA KU","town":"CHUO SS30-SUMITOMOSEIMEISENDAICHUOB","perfecture_jp":"宮城県","jp_add_1":"仙台市青葉区","jp_add_2":"中央ＳＳ３０住友生命仙台中央ビル２９階"},"9806030":{"post_code":"9806030","prefecture":"MIYAGI KEN","city":"SENDAI SHI AOBA KU","town":"CHUO SS30-SUMITOMOSEIMEISENDAICHUOB","perfecture_jp":"宮城県","jp_add_1":"仙台市青葉区","jp_add_2":"中央ＳＳ３０住友生命仙台中央ビル３０階"},"9800065":{"post_code":"9800065","prefecture":"MIYAGI KEN","city":"SENDAI SHI AOBA KU","town":"TSUCHITOI(1-CHOME<11-ONOZOKU>)","perfecture_jp":"宮城県","jp_add_1":"仙台市青葉区","jp_add_2":"土樋"},"9800874":{"post_code":"9800874","prefecture":"MIYAGI KEN","city":"SENDAI SHI AOBA KU","town":"TSUNOGORO","perfecture_jp":"宮城県","jp_add_1":"仙台市青葉区","jp_add_2":"角五郎"},"9800001":{"post_code":"9800001","prefecture":"MIYAGI KEN","city":"SENDAI SHI AOBA KU","town":"NAKAE","perfecture_jp":"宮城県","jp_add_1":"仙台市青葉区","jp_add_2":"中江"},"9800012":{"post_code":"9800012","prefecture":"MIYAGI KEN","city":"SENDAI SHI AOBA KU","town":"NISHIKICHO","perfecture_jp":"宮城県","jp_add_1":"仙台市青葉区","jp_add_2":"錦町"},"9800824":{"post_code":"9800824","prefecture":"MIYAGI KEN","city":"SENDAI SHI AOBA KU","town":"HASEKURAMACHI","perfecture_jp":"宮城県","jp_add_1":"仙台市青葉区","jp_add_2":"支倉町"},"9800871":{"post_code":"9800871","prefecture":"MIYAGI KEN","city":"SENDAI SHI AOBA KU","town":"HACHIMAN","perfecture_jp":"宮城県","jp_add_1":"仙台市青葉区","jp_add_2":"八幡"},"9800873":{"post_code":"9800873","prefecture":"MIYAGI KEN","city":"SENDAI SHI AOBA KU","town":"HIROSEMACHI","perfecture_jp":"宮城県","jp_add_1":"仙台市青葉区","jp_add_2":"広瀬町"},"9800002":{"post_code":"9800002","prefecture":"MIYAGI KEN","city":"SENDAI SHI AOBA KU","town":"FUKUZAWAMACHI","perfecture_jp":"宮城県","jp_add_1":"仙台市青葉区","jp_add_2":"福沢町"},"9800802":{"post_code":"9800802","prefecture":"MIYAGI KEN","city":"SENDAI SHI AOBA KU","town":"FUTSUKAMACHI","perfecture_jp":"宮城県","jp_add_1":"仙台市青葉区","jp_add_2":"二日町"},"9800014":{"post_code":"9800014","prefecture":"MIYAGI KEN","city":"SENDAI SHI AOBA KU","town":"HONCHO","perfecture_jp":"宮城県","jp_add_1":"仙台市青葉区","jp_add_2":"本町"},"9800004":{"post_code":"9800004","prefecture":"MIYAGI KEN","city":"SENDAI SHI AOBA KU","town":"MIYAMACHI","perfecture_jp":"宮城県","jp_add_1":"仙台市青葉区","jp_add_2":"宮町"}}