{"9830000":{"post_code":"9830000","prefecture":"MIYAGI KEN","city":"SENDAI SHI MIYAGINO KU","town":"IKANIKEISAIGANAIBAAI","perfecture_jp":"宮城県","jp_add_1":"仙台市宮城野区","jp_add_2":""},"9830832":{"post_code":"9830832","prefecture":"MIYAGI KEN","city":"SENDAI SHI MIYAGINO KU","town":"ANYOJI","perfecture_jp":"宮城県","jp_add_1":"仙台市宮城野区","jp_add_2":"安養寺"},"9830047":{"post_code":"9830047","prefecture":"MIYAGI KEN","city":"SENDAI SHI MIYAGINO KU","town":"ICHOMACHI","perfecture_jp":"宮城県","jp_add_1":"仙台市宮城野区","jp_add_2":"銀杏町"},"9830012":{"post_code":"9830012","prefecture":"MIYAGI KEN","city":"SENDAI SHI MIYAGINO KU","town":"IDEKA","perfecture_jp":"宮城県","jp_add_1":"仙台市宮城野区","jp_add_2":"出花"},"9830821":{"post_code":"9830821","prefecture":"MIYAGI KEN","city":"SENDAI SHI MIYAGINO KU","town":"IWAKIRI","perfecture_jp":"宮城県","jp_add_1":"仙台市宮城野区","jp_add_2":"岩切"},"9830828":{"post_code":"9830828","prefecture":"MIYAGI KEN","city":"SENDAI SHI MIYAGINO KU","town":"IWAKIRIBUNDAI","perfecture_jp":"宮城県","jp_add_1":"仙台市宮城野区","jp_add_2":"岩切分台"},"9830034":{"post_code":"9830034","prefecture":"MIYAGI KEN","city":"SENDAI SHI MIYAGINO KU","town":"OGIMACHI","perfecture_jp":"宮城県","jp_add_1":"仙台市宮城野区","jp_add_2":"扇町"},"9830835":{"post_code":"9830835","prefecture":"MIYAGI KEN","city":"SENDAI SHI MIYAGINO KU","town":"OKAJI","perfecture_jp":"宮城県","jp_add_1":"仙台市宮城野区","jp_add_2":"大梶"},"9830003":{"post_code":"9830003","prefecture":"MIYAGI KEN","city":"SENDAI SHI MIYAGINO KU","town":"OKADA","perfecture_jp":"宮城県","jp_add_1":"仙台市宮城野区","jp_add_2":"岡田"},"9830004":{"post_code":"9830004","prefecture":"MIYAGI KEN","city":"SENDAI SHI MIYAGINO KU","town":"OKADANISHIMACHI","perfecture_jp":"宮城県","jp_add_1":"仙台市宮城野区","jp_add_2":"岡田西町"},"9830803":{"post_code":"9830803","prefecture":"MIYAGI KEN","city":"SENDAI SHI MIYAGINO KU","town":"ODAWARA(1-CHOME-3-CHOME)","perfecture_jp":"宮城県","jp_add_1":"仙台市宮城野区","jp_add_2":"小田原"},"9830813":{"post_code":"9830813","prefecture":"MIYAGI KEN","city":"SENDAI SHI MIYAGINO KU","town":"ODAWARA USHIGOYACHO","perfecture_jp":"宮城県","jp_add_1":"仙台市宮城野区","jp_add_2":"小田原牛小屋丁"},"9830816":{"post_code":"9830816","prefecture":"MIYAGI KEN","city":"SENDAI SHI MIYAGINO KU","town":"ODAWARA KONGOINCHO","perfecture_jp":"宮城県","jp_add_1":"仙台市宮城野区","jp_add_2":"小田原金剛院丁"},"9830811":{"post_code":"9830811","prefecture":"MIYAGI KEN","city":"SENDAI SHI MIYAGINO KU","town":"ODAWARA SHIMIZUNUMADORI","perfecture_jp":"宮城県","jp_add_1":"仙台市宮城野区","jp_add_2":"小田原清水沼通"},"9830814":{"post_code":"9830814","prefecture":"MIYAGI KEN","city":"SENDAI SHI MIYAGINO KU","town":"ODAWARA DAIGYOINCHO","perfecture_jp":"宮城県","jp_add_1":"仙台市宮城野区","jp_add_2":"小田原大行院丁"},"9830815":{"post_code":"9830815","prefecture":"MIYAGI KEN","city":"SENDAI SHI MIYAGINO KU","town":"ODAWARA HIROCHO","perfecture_jp":"宮城県","jp_add_1":"仙台市宮城野区","jp_add_2":"小田原広丁"},"9830817":{"post_code":"9830817","prefecture":"MIYAGI KEN","city":"SENDAI SHI MIYAGINO KU","town":"ODAWARA YAMAMOTOCHO","perfecture_jp":"宮城県","jp_add_1":"仙台市宮城野区","jp_add_2":"小田原山本丁"},"9830812":{"post_code":"9830812","prefecture":"MIYAGI KEN","city":"SENDAI SHI MIYAGINO KU","town":"ODAWARA YUMINOMACHI","perfecture_jp":"宮城県","jp_add_1":"仙台市宮城野区","jp_add_2":"小田原弓ノ町"},"9830866":{"post_code":"9830866","prefecture":"MIYAGI KEN","city":"SENDAI SHI MIYAGINO KU","town":"KAKYOINDORI","perfecture_jp":"宮城県","jp_add_1":"仙台市宮城野区","jp_add_2":"花京院通"},"9830839":{"post_code":"9830839","prefecture":"MIYAGI KEN","city":"SENDAI SHI MIYAGINO KU","town":"KANISAWA","perfecture_jp":"宮城県","jp_add_1":"仙台市宮城野区","jp_add_2":"蟹沢"},"9830002":{"post_code":"9830002","prefecture":"MIYAGI KEN","city":"SENDAI SHI MIYAGINO KU","town":"GAMO","perfecture_jp":"宮城県","jp_add_1":"仙台市宮城野区","jp_add_2":"蒲生"},"9830863":{"post_code":"9830863","prefecture":"MIYAGI KEN","city":"SENDAI SHI MIYAGINO KU","town":"KURUMAMACHI","perfecture_jp":"宮城県","jp_add_1":"仙台市宮城野区","jp_add_2":"車町"},"9830031":{"post_code":"9830031","prefecture":"MIYAGI KEN","city":"SENDAI SHI MIYAGINO KU","town":"KOZURU","perfecture_jp":"宮城県","jp_add_1":"仙台市宮城野区","jp_add_2":"小鶴"},"9830842":{"post_code":"9830842","prefecture":"MIYAGI KEN","city":"SENDAI SHI MIYAGINO KU","town":"GORIN","perfecture_jp":"宮城県","jp_add_1":"仙台市宮城野区","jp_add_2":"五輪"},"9830836":{"post_code":"9830836","prefecture":"MIYAGI KEN","city":"SENDAI SHI MIYAGINO KU","town":"SAIWAICHO","perfecture_jp":"宮城県","jp_add_1":"仙台市宮城野区","jp_add_2":"幸町"},"9830011":{"post_code":"9830011","prefecture":"MIYAGI KEN","city":"SENDAI SHI MIYAGINO KU","town":"SAKAE","perfecture_jp":"宮城県","jp_add_1":"仙台市宮城野区","jp_add_2":"栄"},"9830845":{"post_code":"9830845","prefecture":"MIYAGI KEN","city":"SENDAI SHI MIYAGINO KU","town":"SHIMIZUNUMA","perfecture_jp":"宮城県","jp_add_1":"仙台市宮城野区","jp_add_2":"清水沼"},"9830831":{"post_code":"9830831","prefecture":"MIYAGI KEN","city":"SENDAI SHI MIYAGINO KU","town":"JIYUGAOKA","perfecture_jp":"宮城県","jp_add_1":"仙台市宮城野区","jp_add_2":"自由ケ丘"},"9830006":{"post_code":"9830006","prefecture":"MIYAGI KEN","city":"SENDAI SHI MIYAGINO KU","town":"SHIRATORI","perfecture_jp":"宮城県","jp_add_1":"仙台市宮城野区","jp_add_2":"白鳥"},"9830038":{"post_code":"9830038","prefecture":"MIYAGI KEN","city":"SENDAI SHI MIYAGINO KU","town":"SHINDEN","perfecture_jp":"宮城県","jp_add_1":"仙台市宮城野区","jp_add_2":"新田"},"9830039":{"post_code":"9830039","prefecture":"MIYAGI KEN","city":"SENDAI SHI MIYAGINO KU","town":"SHINDENHIGASHI","perfecture_jp":"宮城県","jp_add_1":"仙台市宮城野区","jp_add_2":"新田東"},"9830032":{"post_code":"9830032","prefecture":"MIYAGI KEN","city":"SENDAI SHI MIYAGINO KU","town":"SENGOKU","perfecture_jp":"宮城県","jp_add_1":"仙台市宮城野区","jp_add_2":"仙石"},"9830007":{"post_code":"9830007","prefecture":"MIYAGI KEN","city":"SENDAI SHI MIYAGINO KU","town":"SENDAIKOKITA","perfecture_jp":"宮城県","jp_add_1":"仙台市宮城野区","jp_add_2":"仙台港北"},"9830014":{"post_code":"9830014","prefecture":"MIYAGI KEN","city":"SENDAI SHI MIYAGINO KU","town":"TAKASAGO","perfecture_jp":"宮城県","jp_add_1":"仙台市宮城野区","jp_add_2":"高砂"},"9830021":{"post_code":"9830021","prefecture":"MIYAGI KEN","city":"SENDAI SHI MIYAGINO KU","town":"TAGO","perfecture_jp":"宮城県","jp_add_1":"仙台市宮城野区","jp_add_2":"田子"},"9830026":{"post_code":"9830026","prefecture":"MIYAGI KEN","city":"SENDAI SHI MIYAGINO KU","town":"TAGONISHI","perfecture_jp":"宮城県","jp_add_1":"仙台市宮城野区","jp_add_2":"田子西"},"9830851":{"post_code":"9830851","prefecture":"MIYAGI KEN","city":"SENDAI SHI MIYAGINO KU","town":"TSUTSUJIGAOKA","perfecture_jp":"宮城県","jp_add_1":"仙台市宮城野区","jp_add_2":"榴ケ岡"},"9830852":{"post_code":"9830852","prefecture":"MIYAGI KEN","city":"SENDAI SHI MIYAGINO KU","town":"TSUTSUJIGAOKA","perfecture_jp":"宮城県","jp_add_1":"仙台市宮城野区","jp_add_2":"榴岡"},"9830823":{"post_code":"9830823","prefecture":"MIYAGI KEN","city":"SENDAI SHI MIYAGINO KU","town":"TSUBAMESAWA","perfecture_jp":"宮城県","jp_add_1":"仙台市宮城野区","jp_add_2":"燕沢"},"9830822":{"post_code":"9830822","prefecture":"MIYAGI KEN","city":"SENDAI SHI MIYAGINO KU","town":"TSUBAMESAWAHIGASHI","perfecture_jp":"宮城県","jp_add_1":"仙台市宮城野区","jp_add_2":"燕沢東"},"9830824":{"post_code":"9830824","prefecture":"MIYAGI KEN","city":"SENDAI SHI MIYAGINO KU","town":"TSURUGAYA","perfecture_jp":"宮城県","jp_add_1":"仙台市宮城野区","jp_add_2":"鶴ケ谷"},"9830826":{"post_code":"9830826","prefecture":"MIYAGI KEN","city":"SENDAI SHI MIYAGINO KU","town":"TSURUGAYAHIGASHI","perfecture_jp":"宮城県","jp_add_1":"仙台市宮城野区","jp_add_2":"鶴ケ谷東"},"9830825":{"post_code":"9830825","prefecture":"MIYAGI KEN","city":"SENDAI SHI MIYAGINO KU","town":"TSURUGAYAKITA","perfecture_jp":"宮城県","jp_add_1":"仙台市宮城野区","jp_add_2":"鶴ケ谷北"},"9830024":{"post_code":"9830024","prefecture":"MIYAGI KEN","city":"SENDAI SHI MIYAGINO KU","town":"TSURUMAKI","perfecture_jp":"宮城県","jp_add_1":"仙台市宮城野区","jp_add_2":"鶴巻"},"9830861":{"post_code":"9830861","prefecture":"MIYAGI KEN","city":"SENDAI SHI MIYAGINO KU","town":"TEPPOMACHI","perfecture_jp":"宮城県","jp_add_1":"仙台市宮城野区","jp_add_2":"鉄砲町"},"9830868":{"post_code":"9830868","prefecture":"MIYAGI KEN","city":"SENDAI SHI MIYAGINO KU","town":"TEPPOMACHINAKA","perfecture_jp":"宮城県","jp_add_1":"仙台市宮城野区","jp_add_2":"鉄砲町中"},"9830869":{"post_code":"9830869","prefecture":"MIYAGI KEN","city":"SENDAI SHI MIYAGINO KU","town":"TEPPOMACHINISHI","perfecture_jp":"宮城県","jp_add_1":"仙台市宮城野区","jp_add_2":"鉄砲町西"},"9830867":{"post_code":"9830867","prefecture":"MIYAGI KEN","city":"SENDAI SHI MIYAGINO KU","town":"TEPPOMACHIHIGASHI","perfecture_jp":"宮城県","jp_add_1":"仙台市宮城野区","jp_add_2":"鉄砲町東"},"9830864":{"post_code":"9830864","prefecture":"MIYAGI KEN","city":"SENDAI SHI MIYAGINO KU","town":"NAKAKECHO","perfecture_jp":"宮城県","jp_add_1":"仙台市宮城野区","jp_add_2":"名掛丁"},"9830013":{"post_code":"9830013","prefecture":"MIYAGI KEN","city":"SENDAI SHI MIYAGINO KU","town":"NAKANO","perfecture_jp":"宮城県","jp_add_1":"仙台市宮城野区","jp_add_2":"中野"},"9830036":{"post_code":"9830036","prefecture":"MIYAGI KEN","city":"SENDAI SHI MIYAGINO KU","town":"HARANOMACHINIGATAKE","perfecture_jp":"宮城県","jp_add_1":"仙台市宮城野区","jp_add_2":"苦竹"},"9830046":{"post_code":"9830046","prefecture":"MIYAGI KEN","city":"SENDAI SHI MIYAGINO KU","town":"NISHIMIYAGINO","perfecture_jp":"宮城県","jp_add_1":"仙台市宮城野区","jp_add_2":"西宮城野"},"9830862":{"post_code":"9830862","prefecture":"MIYAGI KEN","city":"SENDAI SHI MIYAGINO KU","town":"NIJUNIMMACHI","perfecture_jp":"宮城県","jp_add_1":"仙台市宮城野区","jp_add_2":"二十人町"},"9830843":{"post_code":"9830843","prefecture":"MIYAGI KEN","city":"SENDAI SHI MIYAGINO KU","town":"NIJUNIMMACHIDORI","perfecture_jp":"宮城県","jp_add_1":"仙台市宮城野区","jp_add_2":"二十人町通"},"9830838":{"post_code":"9830838","prefecture":"MIYAGI KEN","city":"SENDAI SHI MIYAGINO KU","town":"NINOMORI","perfecture_jp":"宮城県","jp_add_1":"仙台市宮城野区","jp_add_2":"二の森"},"9830043":{"post_code":"9830043","prefecture":"MIYAGI KEN","city":"SENDAI SHI MIYAGINO KU","town":"HAGINOMACHI","perfecture_jp":"宮城県","jp_add_1":"仙台市宮城野区","jp_add_2":"萩野町"},"9830841":{"post_code":"9830841","prefecture":"MIYAGI KEN","city":"SENDAI SHI MIYAGINO KU","town":"HARANOMACHI","perfecture_jp":"宮城県","jp_add_1":"仙台市宮城野区","jp_add_2":"原町"},"9830844":{"post_code":"9830844","prefecture":"MIYAGI KEN","city":"SENDAI SHI MIYAGINO KU","town":"HARANOMACHIMINAMINOME","perfecture_jp":"宮城県","jp_add_1":"仙台市宮城野区","jp_add_2":"原町南目"},"9830833":{"post_code":"9830833","prefecture":"MIYAGI KEN","city":"SENDAI SHI MIYAGINO KU","town":"HIGASHISENDAI","perfecture_jp":"宮城県","jp_add_1":"仙台市宮城野区","jp_add_2":"東仙台"},"9830042":{"post_code":"9830042","prefecture":"MIYAGI KEN","city":"SENDAI SHI MIYAGINO KU","town":"HIGASHIMIYAGINO","perfecture_jp":"宮城県","jp_add_1":"仙台市宮城野区","jp_add_2":"東宮城野"},"9830853":{"post_code":"9830853","prefecture":"MIYAGI KEN","city":"SENDAI SHI MIYAGINO KU","town":"HIGASHI6-BANCHO","perfecture_jp":"宮城県","jp_add_1":"仙台市宮城野区","jp_add_2":"東六番丁"},"9830035":{"post_code":"9830035","prefecture":"MIYAGI KEN","city":"SENDAI SHI MIYAGINO KU","town":"HINODEMACHI","perfecture_jp":"宮城県","jp_add_1":"仙台市宮城野区","jp_add_2":"日の出町"},"9830033":{"post_code":"9830033","prefecture":"MIYAGI KEN","city":"SENDAI SHI MIYAGINO KU","town":"FUKUZUMIMACHI","perfecture_jp":"宮城県","jp_add_1":"仙台市宮城野区","jp_add_2":"福住町"},"9830023":{"post_code":"9830023","prefecture":"MIYAGI KEN","city":"SENDAI SHI MIYAGINO KU","town":"FUKUDAMACHI","perfecture_jp":"宮城県","jp_add_1":"仙台市宮城野区","jp_add_2":"福田町"},"9830025":{"post_code":"9830025","prefecture":"MIYAGI KEN","city":"SENDAI SHI MIYAGINO KU","town":"FUKUDAMACHIMINAMI","perfecture_jp":"宮城県","jp_add_1":"仙台市宮城野区","jp_add_2":"福田町南"},"9830005":{"post_code":"9830005","prefecture":"MIYAGI KEN","city":"SENDAI SHI MIYAGINO KU","town":"FUKUMURO","perfecture_jp":"宮城県","jp_add_1":"仙台市宮城野区","jp_add_2":"福室"},"9830037":{"post_code":"9830037","prefecture":"MIYAGI KEN","city":"SENDAI SHI MIYAGINO KU","town":"HEISEI","perfecture_jp":"宮城県","jp_add_1":"仙台市宮城野区","jp_add_2":"平成"},"9830837":{"post_code":"9830837","prefecture":"MIYAGI KEN","city":"SENDAI SHI MIYAGINO KU","town":"MASUE","perfecture_jp":"宮城県","jp_add_1":"仙台市宮城野区","jp_add_2":"枡江"},"9830834":{"post_code":"9830834","prefecture":"MIYAGI KEN","city":"SENDAI SHI MIYAGINO KU","town":"MATSUOKACHO","perfecture_jp":"宮城県","jp_add_1":"仙台市宮城野区","jp_add_2":"松岡町"},"9830001":{"post_code":"9830001","prefecture":"MIYAGI KEN","city":"SENDAI SHI MIYAGINO KU","town":"MINATO(1-4-CHOME)","perfecture_jp":"宮城県","jp_add_1":"仙台市宮城野区","jp_add_2":"港"},"9830041":{"post_code":"9830041","prefecture":"MIYAGI KEN","city":"SENDAI SHI MIYAGINO KU","town":"MINAMINOMETATE","perfecture_jp":"宮城県","jp_add_1":"仙台市宮城野区","jp_add_2":"南目館"},"9830045":{"post_code":"9830045","prefecture":"MIYAGI KEN","city":"SENDAI SHI MIYAGINO KU","town":"MIYAGINO","perfecture_jp":"宮城県","jp_add_1":"仙台市宮城野区","jp_add_2":"宮城野"},"9830044":{"post_code":"9830044","prefecture":"MIYAGI KEN","city":"SENDAI SHI MIYAGINO KU","town":"MIYACHIYO","perfecture_jp":"宮城県","jp_add_1":"仙台市宮城野区","jp_add_2":"宮千代"},"9830865":{"post_code":"9830865","prefecture":"MIYAGI KEN","city":"SENDAI SHI MIYAGINO KU","town":"MOTOTERAKOJI","perfecture_jp":"宮城県","jp_add_1":"仙台市宮城野区","jp_add_2":"元寺小路"}}