{"9840000":{"post_code":"9840000","prefecture":"MIYAGI KEN","city":"SENDAI SHI WAKABAYASHI KU","town":"IKANIKEISAIGANAIBAAI","perfecture_jp":"宮城県","jp_add_1":"仙台市若林区","jp_add_2":""},"9840032":{"post_code":"9840032","prefecture":"MIYAGI KEN","city":"SENDAI SHI WAKABAYASHI KU","town":"ARAI","perfecture_jp":"宮城県","jp_add_1":"仙台市若林区","jp_add_2":"荒井"},"9840033":{"post_code":"9840033","prefecture":"MIYAGI KEN","city":"SENDAI SHI WAKABAYASHI KU","town":"ARAHAMA","perfecture_jp":"宮城県","jp_add_1":"仙台市若林区","jp_add_2":"荒浜"},"9840034":{"post_code":"9840034","prefecture":"MIYAGI KEN","city":"SENDAI SHI WAKABAYASHI KU","town":"ARAHAMASHIN","perfecture_jp":"宮城県","jp_add_1":"仙台市若林区","jp_add_2":"荒浜新"},"9840073":{"post_code":"9840073","prefecture":"MIYAGI KEN","city":"SENDAI SHI WAKABAYASHI KU","town":"ARAMACHI","perfecture_jp":"宮城県","jp_add_1":"仙台市若林区","jp_add_2":"荒町"},"9840833":{"post_code":"9840833","prefecture":"MIYAGI KEN","city":"SENDAI SHI WAKABAYASHI KU","town":"IIDA","perfecture_jp":"宮城県","jp_add_1":"仙台市若林区","jp_add_2":"飯田"},"9840038":{"post_code":"9840038","prefecture":"MIYAGI KEN","city":"SENDAI SHI WAKABAYASHI KU","town":"IZAI","perfecture_jp":"宮城県","jp_add_1":"仙台市若林区","jp_add_2":"伊在"},"9840064":{"post_code":"9840064","prefecture":"MIYAGI KEN","city":"SENDAI SHI WAKABAYASHI KU","town":"ISHIGAKIMACHI","perfecture_jp":"宮城県","jp_add_1":"仙台市若林区","jp_add_2":"石垣町"},"9840063":{"post_code":"9840063","prefecture":"MIYAGI KEN","city":"SENDAI SHI WAKABAYASHI KU","town":"ISHINAZAKA","perfecture_jp":"宮城県","jp_add_1":"仙台市若林区","jp_add_2":"石名坂"},"9840022":{"post_code":"9840022","prefecture":"MIYAGI KEN","city":"SENDAI SHI WAKABAYASHI KU","town":"ITSUTSUBASHI(3-CHOME)","perfecture_jp":"宮城県","jp_add_1":"仙台市若林区","jp_add_2":"五橋"},"9840828":{"post_code":"9840828","prefecture":"MIYAGI KEN","city":"SENDAI SHI WAKABAYASHI KU","town":"IPPONSUGIMACHI","perfecture_jp":"宮城県","jp_add_1":"仙台市若林区","jp_add_2":"一本杉町"},"9840842":{"post_code":"9840842","prefecture":"MIYAGI KEN","city":"SENDAI SHI WAKABAYASHI KU","town":"IDO","perfecture_jp":"宮城県","jp_add_1":"仙台市若林区","jp_add_2":"井土"},"9840835":{"post_code":"9840835","prefecture":"MIYAGI KEN","city":"SENDAI SHI WAKABAYASHI KU","town":"IMAIZUMI","perfecture_jp":"宮城県","jp_add_1":"仙台市若林区","jp_add_2":"今泉"},"9840054":{"post_code":"9840054","prefecture":"MIYAGI KEN","city":"SENDAI SHI WAKABAYASHI KU","town":"URASHIBATAMACHI","perfecture_jp":"宮城県","jp_add_1":"仙台市若林区","jp_add_2":"裏柴田町"},"9840831":{"post_code":"9840831","prefecture":"MIYAGI KEN","city":"SENDAI SHI WAKABAYASHI KU","town":"OKINO","perfecture_jp":"宮城県","jp_add_1":"仙台市若林区","jp_add_2":"沖野"},"9840055":{"post_code":"9840055","prefecture":"MIYAGI KEN","city":"SENDAI SHI WAKABAYASHI KU","town":"OMOTESHIBATAMACHI","perfecture_jp":"宮城県","jp_add_1":"仙台市若林区","jp_add_2":"表柴田町"},"9840015":{"post_code":"9840015","prefecture":"MIYAGI KEN","city":"SENDAI SHI WAKABAYASHI KU","town":"OROSHIMACHI","perfecture_jp":"宮城県","jp_add_1":"仙台市若林区","jp_add_2":"卸町"},"9840002":{"post_code":"9840002","prefecture":"MIYAGI KEN","city":"SENDAI SHI WAKABAYASHI KU","town":"OROSHIMACHIHIGASHI","perfecture_jp":"宮城県","jp_add_1":"仙台市若林区","jp_add_2":"卸町東"},"9840822":{"post_code":"9840822","prefecture":"MIYAGI KEN","city":"SENDAI SHI WAKABAYASHI KU","town":"KASUMICHO","perfecture_jp":"宮城県","jp_add_1":"仙台市若林区","jp_add_2":"かすみ町"},"9840035":{"post_code":"9840035","prefecture":"MIYAGI KEN","city":"SENDAI SHI WAKABAYASHI KU","town":"KASUMINOME","perfecture_jp":"宮城県","jp_add_1":"仙台市若林区","jp_add_2":"霞目"},"9840037":{"post_code":"9840037","prefecture":"MIYAGI KEN","city":"SENDAI SHI WAKABAYASHI KU","town":"KABANOMACHI","perfecture_jp":"宮城県","jp_add_1":"仙台市若林区","jp_add_2":"蒲町"},"9840838":{"post_code":"9840838","prefecture":"MIYAGI KEN","city":"SENDAI SHI WAKABAYASHI KU","town":"KAMIIIDA","perfecture_jp":"宮城県","jp_add_1":"仙台市若林区","jp_add_2":"上飯田"},"9840816":{"post_code":"9840816","prefecture":"MIYAGI KEN","city":"SENDAI SHI WAKABAYASHI KU","town":"KAWARAMACHI","perfecture_jp":"宮城県","jp_add_1":"仙台市若林区","jp_add_2":"河原町"},"9840047":{"post_code":"9840047","prefecture":"MIYAGI KEN","city":"SENDAI SHI WAKABAYASHI KU","town":"KINOSHITA","perfecture_jp":"宮城県","jp_add_1":"仙台市若林区","jp_add_2":"木ノ下"},"9840044":{"post_code":"9840044","prefecture":"MIYAGI KEN","city":"SENDAI SHI WAKABAYASHI KU","town":"GORAKIDORI","perfecture_jp":"宮城県","jp_add_1":"仙台市若林区","jp_add_2":"椌木通"},"9840807":{"post_code":"9840807","prefecture":"MIYAGI KEN","city":"SENDAI SHI WAKABAYASHI KU","town":"KOKUCHO","perfecture_jp":"宮城県","jp_add_1":"仙台市若林区","jp_add_2":"穀町"},"9840812":{"post_code":"9840812","prefecture":"MIYAGI KEN","city":"SENDAI SHI WAKABAYASHI KU","town":"GOJUNIMMACHI","perfecture_jp":"宮城県","jp_add_1":"仙台市若林区","jp_add_2":"五十人町"},"9840057":{"post_code":"9840057","prefecture":"MIYAGI KEN","city":"SENDAI SHI WAKABAYASHI KU","town":"SAMBYAKUNIMMACHI","perfecture_jp":"宮城県","jp_add_1":"仙台市若林区","jp_add_2":"三百人町"},"9840841":{"post_code":"9840841","prefecture":"MIYAGI KEN","city":"SENDAI SHI WAKABAYASHI KU","town":"SAMBONTSUKA","perfecture_jp":"宮城県","jp_add_1":"仙台市若林区","jp_add_2":"三本塚"},"9840075":{"post_code":"9840075","prefecture":"MIYAGI KEN","city":"SENDAI SHI WAKABAYASHI KU","town":"SHIMIZUKOJI","perfecture_jp":"宮城県","jp_add_1":"仙台市若林区","jp_add_2":"清水小路"},"9840832":{"post_code":"9840832","prefecture":"MIYAGI KEN","city":"SENDAI SHI WAKABAYASHI KU","town":"SHIMOIIDA","perfecture_jp":"宮城県","jp_add_1":"仙台市若林区","jp_add_2":"下飯田"},"9840048":{"post_code":"9840048","prefecture":"MIYAGI KEN","city":"SENDAI SHI WAKABAYASHI KU","town":"SHIRAHAGIMACHI","perfecture_jp":"宮城県","jp_add_1":"仙台市若林区","jp_add_2":"白萩町"},"9840836":{"post_code":"9840836","prefecture":"MIYAGI KEN","city":"SENDAI SHI WAKABAYASHI KU","town":"SHIROMARU","perfecture_jp":"宮城県","jp_add_1":"仙台市若林区","jp_add_2":"四郎丸"},"9840041":{"post_code":"9840041","prefecture":"MIYAGI KEN","city":"SENDAI SHI WAKABAYASHI KU","town":"SHIWAMACHI","perfecture_jp":"宮城県","jp_add_1":"仙台市若林区","jp_add_2":"志波町"},"9840051":{"post_code":"9840051","prefecture":"MIYAGI KEN","city":"SENDAI SHI WAKABAYASHI KU","town":"SHINTERA","perfecture_jp":"宮城県","jp_add_1":"仙台市若林区","jp_add_2":"新寺"},"9840803":{"post_code":"9840803","prefecture":"MIYAGI KEN","city":"SENDAI SHI WAKABAYASHI KU","town":"SHINYUMINOMACHI","perfecture_jp":"宮城県","jp_add_1":"仙台市若林区","jp_add_2":"新弓ノ町"},"9840801":{"post_code":"9840801","prefecture":"MIYAGI KEN","city":"SENDAI SHI WAKABAYASHI KU","town":"TATAMIYACHO","perfecture_jp":"宮城県","jp_add_1":"仙台市若林区","jp_add_2":"畳屋丁"},"9840844":{"post_code":"9840844","prefecture":"MIYAGI KEN","city":"SENDAI SHI WAKABAYASHI KU","town":"TANATSUGI","perfecture_jp":"宮城県","jp_add_1":"仙台市若林区","jp_add_2":"種次"},"9840036":{"post_code":"9840036","prefecture":"MIYAGI KEN","city":"SENDAI SHI WAKABAYASHI KU","town":"CHOKIJO","perfecture_jp":"宮城県","jp_add_1":"仙台市若林区","jp_add_2":"長喜城"},"9840065":{"post_code":"9840065","prefecture":"MIYAGI KEN","city":"SENDAI SHI WAKABAYASHI KU","town":"TSUCHITOI","perfecture_jp":"宮城県","jp_add_1":"仙台市若林区","jp_add_2":"土樋"},"9840001":{"post_code":"9840001","prefecture":"MIYAGI KEN","city":"SENDAI SHI WAKABAYASHI KU","town":"TSURUSHIROMACHI","perfecture_jp":"宮城県","jp_add_1":"仙台市若林区","jp_add_2":"鶴代町"},"9840817":{"post_code":"9840817","prefecture":"MIYAGI KEN","city":"SENDAI SHI WAKABAYASHI KU","town":"DOBA","perfecture_jp":"宮城県","jp_add_1":"仙台市若林区","jp_add_2":"堰場"},"9840823":{"post_code":"9840823","prefecture":"MIYAGI KEN","city":"SENDAI SHI WAKABAYASHI KU","town":"TOMIZUKA","perfecture_jp":"宮城県","jp_add_1":"仙台市若林区","jp_add_2":"遠見塚"},"9840824":{"post_code":"9840824","prefecture":"MIYAGI KEN","city":"SENDAI SHI WAKABAYASHI KU","town":"TOMIZUKAHIGASHI","perfecture_jp":"宮城県","jp_add_1":"仙台市若林区","jp_add_2":"遠見塚東"},"9840821":{"post_code":"9840821","prefecture":"MIYAGI KEN","city":"SENDAI SHI WAKABAYASHI KU","town":"NAKAKURA","perfecture_jp":"宮城県","jp_add_1":"仙台市若林区","jp_add_2":"中倉"},"9840056":{"post_code":"9840056","prefecture":"MIYAGI KEN","city":"SENDAI SHI WAKABAYASHI KU","town":"NARITAMACHI","perfecture_jp":"宮城県","jp_add_1":"仙台市若林区","jp_add_2":"成田町"},"9840046":{"post_code":"9840046","prefecture":"MIYAGI KEN","city":"SENDAI SHI WAKABAYASHI KU","town":"NIKENCHAYA","perfecture_jp":"宮城県","jp_add_1":"仙台市若林区","jp_add_2":"二軒茶屋"},"9840045":{"post_code":"9840045","prefecture":"MIYAGI KEN","city":"SENDAI SHI WAKABAYASHI KU","town":"NISHISHINCHO","perfecture_jp":"宮城県","jp_add_1":"仙台市若林区","jp_add_2":"西新丁"},"9840837":{"post_code":"9840837","prefecture":"MIYAGI KEN","city":"SENDAI SHI WAKABAYASHI KU","town":"NIPPE","perfecture_jp":"宮城県","jp_add_1":"仙台市若林区","jp_add_2":"日辺"},"9840802":{"post_code":"9840802","prefecture":"MIYAGI KEN","city":"SENDAI SHI WAKABAYASHI KU","town":"HACHIKENKOJI","perfecture_jp":"宮城県","jp_add_1":"仙台市若林区","jp_add_2":"八軒小路"},"9840043":{"post_code":"9840043","prefecture":"MIYAGI KEN","city":"SENDAI SHI WAKABAYASHI KU","town":"HIGASHISHINCHO","perfecture_jp":"宮城県","jp_add_1":"仙台市若林区","jp_add_2":"東新丁"},"9840074":{"post_code":"9840074","prefecture":"MIYAGI KEN","city":"SENDAI SHI WAKABAYASHI KU","town":"HIGASHI7-BANCHO","perfecture_jp":"宮城県","jp_add_1":"仙台市若林区","jp_add_2":"東七番丁"},"9840072":{"post_code":"9840072","prefecture":"MIYAGI KEN","city":"SENDAI SHI WAKABAYASHI KU","town":"HIGASHI8-BANCHO","perfecture_jp":"宮城県","jp_add_1":"仙台市若林区","jp_add_2":"東八番丁"},"9840071":{"post_code":"9840071","prefecture":"MIYAGI KEN","city":"SENDAI SHI WAKABAYASHI KU","town":"HIGASHI9-BANCHO","perfecture_jp":"宮城県","jp_add_1":"仙台市若林区","jp_add_2":"東九番丁"},"9840843":{"post_code":"9840843","prefecture":"MIYAGI KEN","city":"SENDAI SHI WAKABAYASHI KU","town":"FUJITSUKA","perfecture_jp":"宮城県","jp_add_1":"仙台市若林区","jp_add_2":"藤塚"},"9840845":{"post_code":"9840845","prefecture":"MIYAGI KEN","city":"SENDAI SHI WAKABAYASHI KU","town":"FUTAKI","perfecture_jp":"宮城県","jp_add_1":"仙台市若林区","jp_add_2":"二木"},"9840806":{"post_code":"9840806","prefecture":"MIYAGI KEN","city":"SENDAI SHI WAKABAYASHI KU","town":"FUNACHO","perfecture_jp":"宮城県","jp_add_1":"仙台市若林区","jp_add_2":"舟丁"},"9840825":{"post_code":"9840825","prefecture":"MIYAGI KEN","city":"SENDAI SHI WAKABAYASHI KU","town":"FURUJIRO","perfecture_jp":"宮城県","jp_add_1":"仙台市若林区","jp_add_2":"古城"},"9840815":{"post_code":"9840815","prefecture":"MIYAGI KEN","city":"SENDAI SHI WAKABAYASHI KU","town":"BUNKAMACHI","perfecture_jp":"宮城県","jp_add_1":"仙台市若林区","jp_add_2":"文化町"},"9840811":{"post_code":"9840811","prefecture":"MIYAGI KEN","city":"SENDAI SHI WAKABAYASHI KU","town":"HOSHUNIMMAECHO","perfecture_jp":"宮城県","jp_add_1":"仙台市若林区","jp_add_2":"保春院前丁"},"9840804":{"post_code":"9840804","prefecture":"MIYAGI KEN","city":"SENDAI SHI WAKABAYASHI KU","town":"MINAMIISHIKIRIMACHI","perfecture_jp":"宮城県","jp_add_1":"仙台市若林区","jp_add_2":"南石切町"},"9840061":{"post_code":"9840061","prefecture":"MIYAGI KEN","city":"SENDAI SHI WAKABAYASHI KU","town":"MINAMIKAJIMACHI","perfecture_jp":"宮城県","jp_add_1":"仙台市若林区","jp_add_2":"南鍛冶町"},"9840827":{"post_code":"9840827","prefecture":"MIYAGI KEN","city":"SENDAI SHI WAKABAYASHI KU","town":"MINAMIKOIZUMI","perfecture_jp":"宮城県","jp_add_1":"仙台市若林区","jp_add_2":"南小泉"},"9840805":{"post_code":"9840805","prefecture":"MIYAGI KEN","city":"SENDAI SHI WAKABAYASHI KU","town":"MINAMIZAIMOKUCHO","perfecture_jp":"宮城県","jp_add_1":"仙台市若林区","jp_add_2":"南材木町"},"9840814":{"post_code":"9840814","prefecture":"MIYAGI KEN","city":"SENDAI SHI WAKABAYASHI KU","town":"MINAMISOMESHIMACHI","perfecture_jp":"宮城県","jp_add_1":"仙台市若林区","jp_add_2":"南染師町"},"9840058":{"post_code":"9840058","prefecture":"MIYAGI KEN","city":"SENDAI SHI WAKABAYASHI KU","town":"MOTOCHABATAKE","perfecture_jp":"宮城県","jp_add_1":"仙台市若林区","jp_add_2":"元茶畑"},"9840042":{"post_code":"9840042","prefecture":"MIYAGI KEN","city":"SENDAI SHI WAKABAYASHI KU","town":"YAMATOMACHI","perfecture_jp":"宮城県","jp_add_1":"仙台市若林区","jp_add_2":"大和町"},"9840062":{"post_code":"9840062","prefecture":"MIYAGI KEN","city":"SENDAI SHI WAKABAYASHI KU","town":"YUMINOMACHI","perfecture_jp":"宮城県","jp_add_1":"仙台市若林区","jp_add_2":"弓ノ町"},"9840052":{"post_code":"9840052","prefecture":"MIYAGI KEN","city":"SENDAI SHI WAKABAYASHI KU","town":"REMBO","perfecture_jp":"宮城県","jp_add_1":"仙台市若林区","jp_add_2":"連坊"},"9840053":{"post_code":"9840053","prefecture":"MIYAGI KEN","city":"SENDAI SHI WAKABAYASHI KU","town":"REMBOKOJI","perfecture_jp":"宮城県","jp_add_1":"仙台市若林区","jp_add_2":"連坊小路"},"9840834":{"post_code":"9840834","prefecture":"MIYAGI KEN","city":"SENDAI SHI WAKABAYASHI KU","town":"ROKUGO","perfecture_jp":"宮城県","jp_add_1":"仙台市若林区","jp_add_2":"六郷"},"9840813":{"post_code":"9840813","prefecture":"MIYAGI KEN","city":"SENDAI SHI WAKABAYASHI KU","town":"ROKUJUNIMMACHI","perfecture_jp":"宮城県","jp_add_1":"仙台市若林区","jp_add_2":"六十人町"},"9840031":{"post_code":"9840031","prefecture":"MIYAGI KEN","city":"SENDAI SHI WAKABAYASHI KU","town":"ROKUCHONOME","perfecture_jp":"宮城県","jp_add_1":"仙台市若林区","jp_add_2":"六丁目"},"9840004":{"post_code":"9840004","prefecture":"MIYAGI KEN","city":"SENDAI SHI WAKABAYASHI KU","town":"ROKUCHONOMEHIGASHIMACHI","perfecture_jp":"宮城県","jp_add_1":"仙台市若林区","jp_add_2":"六丁の目東町"},"9840011":{"post_code":"9840011","prefecture":"MIYAGI KEN","city":"SENDAI SHI WAKABAYASHI KU","town":"ROKUCHONOMENISHIMACHI","perfecture_jp":"宮城県","jp_add_1":"仙台市若林区","jp_add_2":"六丁の目西町"},"9840013":{"post_code":"9840013","prefecture":"MIYAGI KEN","city":"SENDAI SHI WAKABAYASHI KU","town":"ROKUCHONOMEMINAMIMACHI","perfecture_jp":"宮城県","jp_add_1":"仙台市若林区","jp_add_2":"六丁の目南町"},"9840003":{"post_code":"9840003","prefecture":"MIYAGI KEN","city":"SENDAI SHI WAKABAYASHI KU","town":"ROKUCHONOMEKITAMACHI","perfecture_jp":"宮城県","jp_add_1":"仙台市若林区","jp_add_2":"六丁の目北町"},"9840012":{"post_code":"9840012","prefecture":"MIYAGI KEN","city":"SENDAI SHI WAKABAYASHI KU","town":"ROKUCHONOMENAKAMACHI","perfecture_jp":"宮城県","jp_add_1":"仙台市若林区","jp_add_2":"六丁の目中町"},"9840014":{"post_code":"9840014","prefecture":"MIYAGI KEN","city":"SENDAI SHI WAKABAYASHI KU","town":"ROKUCHONOMEMOTOMACHI","perfecture_jp":"宮城県","jp_add_1":"仙台市若林区","jp_add_2":"六丁の目元町"},"9840826":{"post_code":"9840826","prefecture":"MIYAGI KEN","city":"SENDAI SHI WAKABAYASHI KU","town":"WAKABAYASHI","perfecture_jp":"宮城県","jp_add_1":"仙台市若林区","jp_add_2":"若林"}}