{"9860000":{"post_code":"9860000","prefecture":"MIYAGI KEN","city":"ISHINOMAKI SHI","town":"IKANIKEISAIGANAIBAAI","perfecture_jp":"宮城県","jp_add_1":"石巻市","jp_add_2":""},"9860101":{"post_code":"9860101","prefecture":"MIYAGI KEN","city":"ISHINOMAKI SHI","town":"AINOYA","perfecture_jp":"宮城県","jp_add_1":"石巻市","jp_add_2":"相野谷"},"9860866":{"post_code":"9860866","prefecture":"MIYAGI KEN","city":"ISHINOMAKI SHI","town":"AKANEDAIRA","perfecture_jp":"宮城県","jp_add_1":"石巻市","jp_add_2":"茜平"},"9860862":{"post_code":"9860862","prefecture":"MIYAGI KEN","city":"ISHINOMAKI SHI","town":"AKEBONO","perfecture_jp":"宮城県","jp_add_1":"石巻市","jp_add_2":"あけぼの"},"9860869":{"post_code":"9860869","prefecture":"MIYAGI KEN","city":"ISHINOMAKI SHI","town":"AKEBONOKITA","perfecture_jp":"宮城県","jp_add_1":"石巻市","jp_add_2":"あけぼの北"},"9860828":{"post_code":"9860828","prefecture":"MIYAGI KEN","city":"ISHINOMAKI SHI","town":"ASAHICHO","perfecture_jp":"宮城県","jp_add_1":"石巻市","jp_add_2":"旭町"},"9862526":{"post_code":"9862526","prefecture":"MIYAGI KEN","city":"ISHINOMAKI SHI","town":"AJIHAMA","perfecture_jp":"宮城県","jp_add_1":"石巻市","jp_add_2":"網地浜"},"9862522":{"post_code":"9862522","prefecture":"MIYAGI KEN","city":"ISHINOMAKI SHI","town":"AYUKAWAOMACHI","perfecture_jp":"宮城県","jp_add_1":"石巻市","jp_add_2":"鮎川大町"},"9862523":{"post_code":"9862523","prefecture":"MIYAGI KEN","city":"ISHINOMAKI SHI","town":"AYUKAWAHAMA","perfecture_jp":"宮城県","jp_add_1":"石巻市","jp_add_2":"鮎川浜"},"9862524":{"post_code":"9862524","prefecture":"MIYAGI KEN","city":"ISHINOMAKI SHI","town":"AYUKAWAHAMACHO","perfecture_jp":"宮城県","jp_add_1":"石巻市","jp_add_2":"鮎川浜丁"},"9860131":{"post_code":"9860131","prefecture":"MIYAGI KEN","city":"ISHINOMAKI SHI","town":"IINO","perfecture_jp":"宮城県","jp_add_1":"石巻市","jp_add_2":"飯野"},"9860832":{"post_code":"9860832","prefecture":"MIYAGI KEN","city":"ISHINOMAKI SHI","town":"IZUMICHO","perfecture_jp":"宮城県","jp_add_1":"石巻市","jp_add_2":"泉町"},"9862123":{"post_code":"9862123","prefecture":"MIYAGI KEN","city":"ISHINOMAKI SHI","town":"ISECHO","perfecture_jp":"宮城県","jp_add_1":"石巻市","jp_add_2":"伊勢町"},"9860826":{"post_code":"9860826","prefecture":"MIYAGI KEN","city":"ISHINOMAKI SHI","town":"ISEMBA","perfecture_jp":"宮城県","jp_add_1":"石巻市","jp_add_2":"鋳銭場"},"9860003":{"post_code":"9860003","prefecture":"MIYAGI KEN","city":"ISHINOMAKI SHI","town":"INAI","perfecture_jp":"宮城県","jp_add_1":"石巻市","jp_add_2":"井内"},"9860041":{"post_code":"9860041","prefecture":"MIYAGI KEN","city":"ISHINOMAKI SHI","town":"IBARATSU","perfecture_jp":"宮城県","jp_add_1":"石巻市","jp_add_2":"伊原津"},"9862113":{"post_code":"9862113","prefecture":"MIYAGI KEN","city":"ISHINOMAKI SHI","town":"UDAGAWACHO","perfecture_jp":"宮城県","jp_add_1":"石巻市","jp_add_2":"宇田川町"},"9860813":{"post_code":"9860813","prefecture":"MIYAGI KEN","city":"ISHINOMAKI SHI","town":"EKIMAEKITADORI","perfecture_jp":"宮城県","jp_add_1":"石巻市","jp_add_2":"駅前北通り"},"9860005":{"post_code":"9860005","prefecture":"MIYAGI KEN","city":"ISHINOMAKI SHI","town":"ORI","perfecture_jp":"宮城県","jp_add_1":"石巻市","jp_add_2":"大瓜"},"9860854":{"post_code":"9860854","prefecture":"MIYAGI KEN","city":"ISHINOMAKI SHI","town":"OKAIDOKITA","perfecture_jp":"宮城県","jp_add_1":"石巻市","jp_add_2":"大街道北"},"9860859":{"post_code":"9860859","prefecture":"MIYAGI KEN","city":"ISHINOMAKI SHI","town":"OKAIDONISHI","perfecture_jp":"宮城県","jp_add_1":"石巻市","jp_add_2":"大街道西"},"9860855":{"post_code":"9860855","prefecture":"MIYAGI KEN","city":"ISHINOMAKI SHI","town":"OKAIDOHIGASHI","perfecture_jp":"宮城県","jp_add_1":"石巻市","jp_add_2":"大街道東"},"9860856":{"post_code":"9860856","prefecture":"MIYAGI KEN","city":"ISHINOMAKI SHI","town":"OKAIDOMINAMI","perfecture_jp":"宮城県","jp_add_1":"石巻市","jp_add_2":"大街道南"},"9860838":{"post_code":"9860838","prefecture":"MIYAGI KEN","city":"ISHINOMAKI SHI","town":"OTEMACHI","perfecture_jp":"宮城県","jp_add_1":"石巻市","jp_add_2":"大手町"},"9860805":{"post_code":"9860805","prefecture":"MIYAGI KEN","city":"ISHINOMAKI SHI","town":"OHASHI","perfecture_jp":"宮城県","jp_add_1":"石巻市","jp_add_2":"大橋"},"9862412":{"post_code":"9862412","prefecture":"MIYAGI KEN","city":"ISHINOMAKI SHI","town":"OHARAHAMA","perfecture_jp":"宮城県","jp_add_1":"石巻市","jp_add_2":"大原浜"},"9862132":{"post_code":"9862132","prefecture":"MIYAGI KEN","city":"ISHINOMAKI SHI","town":"OMIYACHO","perfecture_jp":"宮城県","jp_add_1":"石巻市","jp_add_2":"大宮町"},"9860121":{"post_code":"9860121","prefecture":"MIYAGI KEN","city":"ISHINOMAKI SHI","town":"OMORI","perfecture_jp":"宮城県","jp_add_1":"石巻市","jp_add_2":"大森"},"9862405":{"post_code":"9862405","prefecture":"MIYAGI KEN","city":"ISHINOMAKI SHI","town":"OYAGAWAHAMA","perfecture_jp":"宮城県","jp_add_1":"石巻市","jp_add_2":"大谷川浜"},"9861334":{"post_code":"9861334","prefecture":"MIYAGI KEN","city":"ISHINOMAKI SHI","town":"OGATSUCHO ISEHATA","perfecture_jp":"宮城県","jp_add_1":"石巻市","jp_add_2":"雄勝町伊勢畑"},"9861311":{"post_code":"9861311","prefecture":"MIYAGI KEN","city":"ISHINOMAKI SHI","town":"OGATSUCHO OSU","perfecture_jp":"宮城県","jp_add_1":"石巻市","jp_add_2":"雄勝町大須"},"9861302":{"post_code":"9861302","prefecture":"MIYAGI KEN","city":"ISHINOMAKI SHI","town":"OGATSUCHO OHAMA","perfecture_jp":"宮城県","jp_add_1":"石巻市","jp_add_2":"雄勝町大浜"},"9861333":{"post_code":"9861333","prefecture":"MIYAGI KEN","city":"ISHINOMAKI SHI","town":"OGATSUCHO OGATSU","perfecture_jp":"宮城県","jp_add_1":"石巻市","jp_add_2":"雄勝町雄勝"},"9861332":{"post_code":"9861332","prefecture":"MIYAGI KEN","city":"ISHINOMAKI SHI","town":"OGATSUCHO OJIMA","perfecture_jp":"宮城県","jp_add_1":"石巻市","jp_add_2":"雄勝町小島"},"9861336":{"post_code":"9861336","prefecture":"MIYAGI KEN","city":"ISHINOMAKI SHI","town":"OGATSUCHO KAMIOGATSU","perfecture_jp":"宮城県","jp_add_1":"石巻市","jp_add_2":"雄勝町上雄勝"},"9861312":{"post_code":"9861312","prefecture":"MIYAGI KEN","city":"ISHINOMAKI SHI","town":"OGATSUCHO KUMAZAWA","perfecture_jp":"宮城県","jp_add_1":"石巻市","jp_add_2":"雄勝町熊沢"},"9861313":{"post_code":"9861313","prefecture":"MIYAGI KEN","city":"ISHINOMAKI SHI","town":"OGATSUCHO KUWAHAMA","perfecture_jp":"宮城県","jp_add_1":"石巻市","jp_add_2":"雄勝町桑浜"},"9861335":{"post_code":"9861335","prefecture":"MIYAGI KEN","city":"ISHINOMAKI SHI","town":"OGATSUCHO SHIMOGATSU","perfecture_jp":"宮城県","jp_add_1":"石巻市","jp_add_2":"雄勝町下雄勝"},"9861303":{"post_code":"9861303","prefecture":"MIYAGI KEN","city":"ISHINOMAKI SHI","town":"OGATSUCHO TACHIHAMA","perfecture_jp":"宮城県","jp_add_1":"石巻市","jp_add_2":"雄勝町立浜"},"9861304":{"post_code":"9861304","prefecture":"MIYAGI KEN","city":"ISHINOMAKI SHI","town":"OGATSUCHO NABURI","perfecture_jp":"宮城県","jp_add_1":"石巻市","jp_add_2":"雄勝町名振"},"9861301":{"post_code":"9861301","prefecture":"MIYAGI KEN","city":"ISHINOMAKI SHI","town":"OGATSUCHO FUNAKOSHI","perfecture_jp":"宮城県","jp_add_1":"石巻市","jp_add_2":"雄勝町船越"},"9861321":{"post_code":"9861321","prefecture":"MIYAGI KEN","city":"ISHINOMAKI SHI","town":"OGATSUCHO MIZUHAMA","perfecture_jp":"宮城県","jp_add_1":"石巻市","jp_add_2":"雄勝町水浜"},"9861331":{"post_code":"9861331","prefecture":"MIYAGI KEN","city":"ISHINOMAKI SHI","town":"OGATSUCHO MYOJIN","perfecture_jp":"宮城県","jp_add_1":"石巻市","jp_add_2":"雄勝町明神"},"9861322":{"post_code":"9861322","prefecture":"MIYAGI KEN","city":"ISHINOMAKI SHI","town":"OGATSUCHO WAKEHAMA","perfecture_jp":"宮城県","jp_add_1":"石巻市","jp_add_2":"雄勝町分浜"},"9862341":{"post_code":"9862341","prefecture":"MIYAGI KEN","city":"ISHINOMAKI SHI","town":"OGINOHAMA","perfecture_jp":"宮城県","jp_add_1":"石巻市","jp_add_2":"荻浜"},"9860113":{"post_code":"9860113","prefecture":"MIYAGI KEN","city":"ISHINOMAKI SHI","town":"ONOSAKI","perfecture_jp":"宮城県","jp_add_1":"石巻市","jp_add_2":"尾ノ崎"},"9862355":{"post_code":"9862355","prefecture":"MIYAGI KEN","city":"ISHINOMAKI SHI","town":"ORINOHAMA","perfecture_jp":"宮城県","jp_add_1":"石巻市","jp_add_2":"折浜"},"9860032":{"post_code":"9860032","prefecture":"MIYAGI KEN","city":"ISHINOMAKI SHI","town":"KAISEI","perfecture_jp":"宮城県","jp_add_1":"石巻市","jp_add_2":"開成"},"9860806":{"post_code":"9860806","prefecture":"MIYAGI KEN","city":"ISHINOMAKI SHI","town":"KAIHOKU","perfecture_jp":"宮城県","jp_add_1":"石巻市","jp_add_2":"開北"},"9860043":{"post_code":"9860043","prefecture":"MIYAGI KEN","city":"ISHINOMAKI SHI","town":"KAZUMAKITA","perfecture_jp":"宮城県","jp_add_1":"石巻市","jp_add_2":"鹿妻北"},"9860013":{"post_code":"9860013","prefecture":"MIYAGI KEN","city":"ISHINOMAKI SHI","town":"KAZUMAHONCHO","perfecture_jp":"宮城県","jp_add_1":"石巻市","jp_add_2":"鹿妻本町"},"9860042":{"post_code":"9860042","prefecture":"MIYAGI KEN","city":"ISHINOMAKI SHI","town":"KAZUMAMINAMI","perfecture_jp":"宮城県","jp_add_1":"石巻市","jp_add_2":"鹿妻南"},"9860853":{"post_code":"9860853","prefecture":"MIYAGI KEN","city":"ISHINOMAKI SHI","town":"KADONOWAKI","perfecture_jp":"宮城県","jp_add_1":"石巻市","jp_add_2":"門脇"},"9860834":{"post_code":"9860834","prefecture":"MIYAGI KEN","city":"ISHINOMAKI SHI","town":"KADONOWAKICHO","perfecture_jp":"宮城県","jp_add_1":"石巻市","jp_add_2":"門脇町"},"9861111":{"post_code":"9861111","prefecture":"MIYAGI KEN","city":"ISHINOMAKI SHI","town":"KANOMATA","perfecture_jp":"宮城県","jp_add_1":"石巻市","jp_add_2":"鹿又"},"9860111":{"post_code":"9860111","prefecture":"MIYAGI KEN","city":"ISHINOMAKI SHI","town":"KAMAYA","perfecture_jp":"宮城県","jp_add_1":"石巻市","jp_add_2":"釜谷"},"9860024":{"post_code":"9860024","prefecture":"MIYAGI KEN","city":"ISHINOMAKI SHI","town":"KAWAGUCHICHO","perfecture_jp":"宮城県","jp_add_1":"石巻市","jp_add_2":"川口町"},"9860204":{"post_code":"9860204","prefecture":"MIYAGI KEN","city":"ISHINOMAKI SHI","town":"KITAKAMICHO ONAGAWA","perfecture_jp":"宮城県","jp_add_1":"石巻市","jp_add_2":"北上町女川"},"9860201":{"post_code":"9860201","prefecture":"MIYAGI KEN","city":"ISHINOMAKI SHI","town":"KITAKAMICHO JUSANHAMA","perfecture_jp":"宮城県","jp_add_1":"石巻市","jp_add_2":"北上町十三浜"},"9860203":{"post_code":"9860203","prefecture":"MIYAGI KEN","city":"ISHINOMAKI SHI","town":"KITAKAMICHO NAGAO","perfecture_jp":"宮城県","jp_add_1":"石巻市","jp_add_2":"北上町長尾"},"9860202":{"post_code":"9860202","prefecture":"MIYAGI KEN","city":"ISHINOMAKI SHI","town":"KITAKAMICHO HASHIURA","perfecture_jp":"宮城県","jp_add_1":"石巻市","jp_add_2":"北上町橋浦"},"9860123":{"post_code":"9860123","prefecture":"MIYAGI KEN","city":"ISHINOMAKI SHI","town":"KITAZAKAI","perfecture_jp":"宮城県","jp_add_1":"石巻市","jp_add_2":"北境"},"9862345":{"post_code":"9862345","prefecture":"MIYAGI KEN","city":"ISHINOMAKI SHI","town":"KITSUNEZAKIHAMA","perfecture_jp":"宮城県","jp_add_1":"石巻市","jp_add_2":"狐崎浜"},"9862411":{"post_code":"9862411","prefecture":"MIYAGI KEN","city":"ISHINOMAKI SHI","town":"KYUBUNHAMA","perfecture_jp":"宮城県","jp_add_1":"石巻市","jp_add_2":"給分浜"},"9862527":{"post_code":"9862527","prefecture":"MIYAGI KEN","city":"ISHINOMAKI SHI","town":"KUGUNARIHAMA","perfecture_jp":"宮城県","jp_add_1":"石巻市","jp_add_2":"十八成浜"},"9862414":{"post_code":"9862414","prefecture":"MIYAGI KEN","city":"ISHINOMAKI SHI","town":"KOAMIKURAHAMA","perfecture_jp":"宮城県","jp_add_1":"石巻市","jp_add_2":"小網倉浜"},"9860863":{"post_code":"9860863","prefecture":"MIYAGI KEN","city":"ISHINOMAKI SHI","town":"KOYOCHO","perfecture_jp":"宮城県","jp_add_1":"石巻市","jp_add_2":"向陽町"},"9860825":{"post_code":"9860825","prefecture":"MIYAGI KEN","city":"ISHINOMAKI SHI","town":"KOKUCHO","perfecture_jp":"宮城県","jp_add_1":"石巻市","jp_add_2":"穀町"},"9862112":{"post_code":"9862112","prefecture":"MIYAGI KEN","city":"ISHINOMAKI SHI","town":"GOSHOBASHI","perfecture_jp":"宮城県","jp_add_1":"石巻市","jp_add_2":"後生橋"},"9862116":{"post_code":"9862116","prefecture":"MIYAGI KEN","city":"ISHINOMAKI SHI","town":"KODAKEHAMA","perfecture_jp":"宮城県","jp_add_1":"石巻市","jp_add_2":"小竹浜"},"9862342":{"post_code":"9862342","prefecture":"MIYAGI KEN","city":"ISHINOMAKI SHI","town":"KOZUMIHAMA","perfecture_jp":"宮城県","jp_add_1":"石巻市","jp_add_2":"小積浜"},"9862415":{"post_code":"9862415","prefecture":"MIYAGI KEN","city":"ISHINOMAKI SHI","town":"KOBUCHIHAMA","perfecture_jp":"宮城県","jp_add_1":"石巻市","jp_add_2":"小渕浜"},"9860132":{"post_code":"9860132","prefecture":"MIYAGI KEN","city":"ISHINOMAKI SHI","town":"KOFUNAKOSHI","perfecture_jp":"宮城県","jp_add_1":"石巻市","jp_add_2":"小船越"},"9862122":{"post_code":"9862122","prefecture":"MIYAGI KEN","city":"ISHINOMAKI SHI","town":"SAIWAICHO","perfecture_jp":"宮城県","jp_add_1":"石巻市","jp_add_2":"幸町"},"9860022":{"post_code":"9860022","prefecture":"MIYAGI KEN","city":"ISHINOMAKI SHI","town":"SAKANAMACHI","perfecture_jp":"宮城県","jp_add_1":"石巻市","jp_add_2":"魚町"},"9862351":{"post_code":"9862351","prefecture":"MIYAGI KEN","city":"ISHINOMAKI SHI","town":"SAMURAIHAMA","perfecture_jp":"宮城県","jp_add_1":"石巻市","jp_add_2":"侍浜"},"9862403":{"post_code":"9862403","prefecture":"MIYAGI KEN","city":"ISHINOMAKI SHI","town":"SAMENORA","perfecture_jp":"宮城県","jp_add_1":"石巻市","jp_add_2":"鮫浦"},"9860104":{"post_code":"9860104","prefecture":"MIYAGI KEN","city":"ISHINOMAKI SHI","town":"SARAGAI","perfecture_jp":"宮城県","jp_add_1":"石巻市","jp_add_2":"皿貝"},"9862102":{"post_code":"9862102","prefecture":"MIYAGI KEN","city":"ISHINOMAKI SHI","town":"SAWADA","perfecture_jp":"宮城県","jp_add_1":"石巻市","jp_add_2":"沢田"},"9862114":{"post_code":"9862114","prefecture":"MIYAGI KEN","city":"ISHINOMAKI SHI","town":"SHIOTOMICHO","perfecture_jp":"宮城県","jp_add_1":"石巻市","jp_add_2":"塩富町"},"9860842":{"post_code":"9860842","prefecture":"MIYAGI KEN","city":"ISHINOMAKI SHI","town":"SHIOMICHO","perfecture_jp":"宮城県","jp_add_1":"石巻市","jp_add_2":"潮見町"},"9860844":{"post_code":"9860844","prefecture":"MIYAGI KEN","city":"ISHINOMAKI SHI","town":"SHIGEYOSHICHO","perfecture_jp":"宮城県","jp_add_1":"石巻市","jp_add_2":"重吉町"},"9862413":{"post_code":"9862413","prefecture":"MIYAGI KEN","city":"ISHINOMAKI SHI","town":"SHIMIZUDAHAMA","perfecture_jp":"宮城県","jp_add_1":"石巻市","jp_add_2":"清水田浜"},"9860871":{"post_code":"9860871","prefecture":"MIYAGI KEN","city":"ISHINOMAKI SHI","town":"SHIMIZUCHO","perfecture_jp":"宮城県","jp_add_1":"石巻市","jp_add_2":"清水町"},"9860004":{"post_code":"9860004","prefecture":"MIYAGI KEN","city":"ISHINOMAKI SHI","town":"SHINEI","perfecture_jp":"宮城県","jp_add_1":"石巻市","jp_add_2":"新栄"},"9860864":{"post_code":"9860864","prefecture":"MIYAGI KEN","city":"ISHINOMAKI SHI","town":"SHINSAKAICHO","perfecture_jp":"宮城県","jp_add_1":"石巻市","jp_add_2":"新境町"},"9862105":{"post_code":"9862105","prefecture":"MIYAGI KEN","city":"ISHINOMAKI SHI","town":"SHINSEI","perfecture_jp":"宮城県","jp_add_1":"石巻市","jp_add_2":"新成"},"9860848":{"post_code":"9860848","prefecture":"MIYAGI KEN","city":"ISHINOMAKI SHI","town":"SHINTATE","perfecture_jp":"宮城県","jp_add_1":"石巻市","jp_add_2":"新館"},"9860878":{"post_code":"9860878","prefecture":"MIYAGI KEN","city":"ISHINOMAKI SHI","town":"SHIMBASHI","perfecture_jp":"宮城県","jp_add_1":"石巻市","jp_add_2":"新橋"},"9860801":{"post_code":"9860801","prefecture":"MIYAGI KEN","city":"ISHINOMAKI SHI","town":"SUIMEI KITA","perfecture_jp":"宮城県","jp_add_1":"石巻市","jp_add_2":"水明北"},"9860802":{"post_code":"9860802","prefecture":"MIYAGI KEN","city":"ISHINOMAKI SHI","town":"SUIMEI MINAMI","perfecture_jp":"宮城県","jp_add_1":"石巻市","jp_add_2":"水明南"},"9860875":{"post_code":"9860875","prefecture":"MIYAGI KEN","city":"ISHINOMAKI SHI","town":"SUEHIROCHO","perfecture_jp":"宮城県","jp_add_1":"石巻市","jp_add_2":"末広町"},"9862344":{"post_code":"9862344","prefecture":"MIYAGI KEN","city":"ISHINOMAKI SHI","town":"SUDACHI","perfecture_jp":"宮城県","jp_add_1":"石巻市","jp_add_2":"鹿立"},"9860821":{"post_code":"9860821","prefecture":"MIYAGI KEN","city":"ISHINOMAKI SHI","town":"SUMIYOSHICHO","perfecture_jp":"宮城県","jp_add_1":"石巻市","jp_add_2":"住吉町"},"9860827":{"post_code":"9860827","prefecture":"MIYAGI KEN","city":"ISHINOMAKI SHI","town":"SENGOKUCHO","perfecture_jp":"宮城県","jp_add_1":"石巻市","jp_add_2":"千石町"},"9860026":{"post_code":"9860026","prefecture":"MIYAGI KEN","city":"ISHINOMAKI SHI","town":"DAIMONCHO","perfecture_jp":"宮城県","jp_add_1":"石巻市","jp_add_2":"大門町"},"9860006":{"post_code":"9860006","prefecture":"MIYAGI KEN","city":"ISHINOMAKI SHI","town":"TAKAKI","perfecture_jp":"宮城県","jp_add_1":"石巻市","jp_add_2":"高木"},"9862346":{"post_code":"9862346","prefecture":"MIYAGI KEN","city":"ISHINOMAKI SHI","town":"TAKENOHAMA","perfecture_jp":"宮城県","jp_add_1":"石巻市","jp_add_2":"竹浜"},"9860023":{"post_code":"9860023","prefecture":"MIYAGI KEN","city":"ISHINOMAKI SHI","town":"TASHIROHAMA","perfecture_jp":"宮城県","jp_add_1":"石巻市","jp_add_2":"田代浜"},"9860824":{"post_code":"9860824","prefecture":"MIYAGI KEN","city":"ISHINOMAKI SHI","town":"TACHIMACHI","perfecture_jp":"宮城県","jp_add_1":"石巻市","jp_add_2":"立町"},"9860872":{"post_code":"9860872","prefecture":"MIYAGI KEN","city":"ISHINOMAKI SHI","town":"TAMICHICHO","perfecture_jp":"宮城県","jp_add_1":"石巻市","jp_add_2":"田道町"},"9862104":{"post_code":"9862104","prefecture":"MIYAGI KEN","city":"ISHINOMAKI SHI","town":"TAREMIZUCHO","perfecture_jp":"宮城県","jp_add_1":"石巻市","jp_add_2":"垂水町"},"9860822":{"post_code":"9860822","prefecture":"MIYAGI KEN","city":"ISHINOMAKI SHI","town":"CHUO","perfecture_jp":"宮城県","jp_add_1":"石巻市","jp_add_2":"中央"},"9862352":{"post_code":"9862352","prefecture":"MIYAGI KEN","city":"ISHINOMAKI SHI","town":"TSUKINORA","perfecture_jp":"宮城県","jp_add_1":"石巻市","jp_add_2":"月浦"},"9860857":{"post_code":"9860857","prefecture":"MIYAGI KEN","city":"ISHINOMAKI SHI","town":"TSUKIYAMA","perfecture_jp":"宮城県","jp_add_1":"石巻市","jp_add_2":"築山"},"9860851":{"post_code":"9860851","prefecture":"MIYAGI KEN","city":"ISHINOMAKI SHI","town":"TEIZAN","perfecture_jp":"宮城県","jp_add_1":"石巻市","jp_add_2":"貞山"},"9862401":{"post_code":"9862401","prefecture":"MIYAGI KEN","city":"ISHINOMAKI SHI","town":"TOMARIHAMA","perfecture_jp":"宮城県","jp_add_1":"石巻市","jp_add_2":"泊浜"},"9860847":{"post_code":"9860847","prefecture":"MIYAGI KEN","city":"ISHINOMAKI SHI","town":"NAKAURA","perfecture_jp":"宮城県","jp_add_1":"石巻市","jp_add_2":"中浦"},"9860815":{"post_code":"9860815","prefecture":"MIYAGI KEN","city":"ISHINOMAKI SHI","town":"NAKASATO","perfecture_jp":"宮城県","jp_add_1":"石巻市","jp_add_2":"中里"},"9860103":{"post_code":"9860103","prefecture":"MIYAGI KEN","city":"ISHINOMAKI SHI","town":"NAKAJIMA","perfecture_jp":"宮城県","jp_add_1":"石巻市","jp_add_2":"中島"},"9860845":{"post_code":"9860845","prefecture":"MIYAGI KEN","city":"ISHINOMAKI SHI","town":"NAKAJIMACHO","perfecture_jp":"宮城県","jp_add_1":"石巻市","jp_add_2":"中島町"},"9860823":{"post_code":"9860823","prefecture":"MIYAGI KEN","city":"ISHINOMAKI SHI","town":"NAKAZE","perfecture_jp":"宮城県","jp_add_1":"石巻市","jp_add_2":"中瀬"},"9860112":{"post_code":"9860112","prefecture":"MIYAGI KEN","city":"ISHINOMAKI SHI","town":"NAGATSURA","perfecture_jp":"宮城県","jp_add_1":"石巻市","jp_add_2":"長面"},"9860105":{"post_code":"9860105","prefecture":"MIYAGI KEN","city":"ISHINOMAKI SHI","town":"NAKANO","perfecture_jp":"宮城県","jp_add_1":"石巻市","jp_add_2":"中野"},"9862133":{"post_code":"9862133","prefecture":"MIYAGI KEN","city":"ISHINOMAKI SHI","town":"NAGAHAMACHO","perfecture_jp":"宮城県","jp_add_1":"石巻市","jp_add_2":"長浜町"},"9860849":{"post_code":"9860849","prefecture":"MIYAGI KEN","city":"ISHINOMAKI SHI","town":"NAKAYASHIKI","perfecture_jp":"宮城県","jp_add_1":"石巻市","jp_add_2":"中屋敷"},"9862103":{"post_code":"9862103","prefecture":"MIYAGI KEN","city":"ISHINOMAKI SHI","town":"NAGARU","perfecture_jp":"宮城県","jp_add_1":"石巻市","jp_add_2":"流留"},"9860102":{"post_code":"9860102","prefecture":"MIYAGI KEN","city":"ISHINOMAKI SHI","town":"NARITA","perfecture_jp":"宮城県","jp_add_1":"石巻市","jp_add_2":"成田"},"9860836":{"post_code":"9860836","prefecture":"MIYAGI KEN","city":"ISHINOMAKI SHI","town":"NANKOCHO","perfecture_jp":"宮城県","jp_add_1":"石巻市","jp_add_2":"南光町"},"9862521":{"post_code":"9862521","prefecture":"MIYAGI KEN","city":"ISHINOMAKI SHI","town":"NIIYAMAHAMA","perfecture_jp":"宮城県","jp_add_1":"石巻市","jp_add_2":"新山浜"},"9860877":{"post_code":"9860877","prefecture":"MIYAGI KEN","city":"ISHINOMAKI SHI","town":"NISHIKICHO","perfecture_jp":"宮城県","jp_add_1":"石巻市","jp_add_2":"錦町"},"9860843":{"post_code":"9860843","prefecture":"MIYAGI KEN","city":"ISHINOMAKI SHI","town":"NISHIHAMACHO","perfecture_jp":"宮城県","jp_add_1":"石巻市","jp_add_2":"西浜町"},"9860876":{"post_code":"9860876","prefecture":"MIYAGI KEN","city":"ISHINOMAKI SHI","town":"NISHIYAMACHO","perfecture_jp":"宮城県","jp_add_1":"石巻市","jp_add_2":"西山町"},"9862101":{"post_code":"9862101","prefecture":"MIYAGI KEN","city":"ISHINOMAKI SHI","town":"NUMAZU","perfecture_jp":"宮城県","jp_add_1":"石巻市","jp_add_2":"沼津"},"9862136":{"post_code":"9862136","prefecture":"MIYAGI KEN","city":"ISHINOMAKI SHI","town":"NEGISHI","perfecture_jp":"宮城県","jp_add_1":"石巻市","jp_add_2":"根岸"},"9860831":{"post_code":"9860831","prefecture":"MIYAGI KEN","city":"ISHINOMAKI SHI","town":"HAGUROCHO","perfecture_jp":"宮城県","jp_add_1":"石巻市","jp_add_2":"羽黒町"},"9860016":{"post_code":"9860016","prefecture":"MIYAGI KEN","city":"ISHINOMAKI SHI","town":"HACHIMANCHO","perfecture_jp":"宮城県","jp_add_1":"石巻市","jp_add_2":"八幡町"},"9862354":{"post_code":"9862354","prefecture":"MIYAGI KEN","city":"ISHINOMAKI SHI","town":"HAMAGURIHAMA","perfecture_jp":"宮城県","jp_add_1":"石巻市","jp_add_2":"蛤浜"},"9862131":{"post_code":"9862131","prefecture":"MIYAGI KEN","city":"ISHINOMAKI SHI","town":"HAMAMATSUCHO","perfecture_jp":"宮城県","jp_add_1":"石巻市","jp_add_2":"浜松町"},"9860114":{"post_code":"9860114","prefecture":"MIYAGI KEN","city":"ISHINOMAKI SHI","town":"HARIOKA","perfecture_jp":"宮城県","jp_add_1":"石巻市","jp_add_2":"針岡"},"9860812":{"post_code":"9860812","prefecture":"MIYAGI KEN","city":"ISHINOMAKI SHI","town":"HIGASHINAKASATO","perfecture_jp":"宮城県","jp_add_1":"石巻市","jp_add_2":"東中里"},"9860122":{"post_code":"9860122","prefecture":"MIYAGI KEN","city":"ISHINOMAKI SHI","town":"HIGASHIFUKUDA","perfecture_jp":"宮城県","jp_add_1":"石巻市","jp_add_2":"東福田"},"9860841":{"post_code":"9860841","prefecture":"MIYAGI KEN","city":"ISHINOMAKI SHI","town":"HIBARINOCHO","perfecture_jp":"宮城県","jp_add_1":"石巻市","jp_add_2":"雲雀野町"},"9860833":{"post_code":"9860833","prefecture":"MIYAGI KEN","city":"ISHINOMAKI SHI","town":"HIYORIGAOKA","perfecture_jp":"宮城県","jp_add_1":"石巻市","jp_add_2":"日和が丘"},"9860115":{"post_code":"9860115","prefecture":"MIYAGI KEN","city":"ISHINOMAKI SHI","town":"FUKUJI","perfecture_jp":"宮城県","jp_add_1":"石巻市","jp_add_2":"福地"},"9860874":{"post_code":"9860874","prefecture":"MIYAGI KEN","city":"ISHINOMAKI SHI","town":"FUTABACHO","perfecture_jp":"宮城県","jp_add_1":"石巻市","jp_add_2":"双葉町"},"9862525":{"post_code":"9862525","prefecture":"MIYAGI KEN","city":"ISHINOMAKI SHI","town":"FUTAWATASHIHAMA","perfecture_jp":"宮城県","jp_add_1":"石巻市","jp_add_2":"長渡浜"},"9862343":{"post_code":"9862343","prefecture":"MIYAGI KEN","city":"ISHINOMAKI SHI","town":"FUKKIURA","perfecture_jp":"宮城県","jp_add_1":"石巻市","jp_add_2":"福貴浦"},"9860017":{"post_code":"9860017","prefecture":"MIYAGI KEN","city":"ISHINOMAKI SHI","town":"FUDOCHO","perfecture_jp":"宮城県","jp_add_1":"石巻市","jp_add_2":"不動町"},"9860861":{"post_code":"9860861","prefecture":"MIYAGI KEN","city":"ISHINOMAKI SHI","town":"HEBITA","perfecture_jp":"宮城県","jp_add_1":"石巻市","jp_add_2":"蛇田"},"9862406":{"post_code":"9862406","prefecture":"MIYAGI KEN","city":"ISHINOMAKI SHI","town":"MAEAMIHAMA","perfecture_jp":"宮城県","jp_add_1":"石巻市","jp_add_2":"前網浜"},"9862347":{"post_code":"9862347","prefecture":"MIYAGI KEN","city":"ISHINOMAKI SHI","town":"MAKINOHAMA","perfecture_jp":"宮城県","jp_add_1":"石巻市","jp_add_2":"牧浜"},"9860106":{"post_code":"9860106","prefecture":"MIYAGI KEN","city":"ISHINOMAKI SHI","town":"MAGURA","perfecture_jp":"宮城県","jp_add_1":"石巻市","jp_add_2":"馬鞍"},"9860028":{"post_code":"9860028","prefecture":"MIYAGI KEN","city":"ISHINOMAKI SHI","town":"MATSUNAMI","perfecture_jp":"宮城県","jp_add_1":"石巻市","jp_add_2":"松並"},"9862134":{"post_code":"9862134","prefecture":"MIYAGI KEN","city":"ISHINOMAKI SHI","town":"MATSUBARACHO","perfecture_jp":"宮城県","jp_add_1":"石巻市","jp_add_2":"松原町"},"9860002":{"post_code":"9860002","prefecture":"MIYAGI KEN","city":"ISHINOMAKI SHI","town":"MANO","perfecture_jp":"宮城県","jp_add_1":"石巻市","jp_add_2":"真野"},"9860865":{"post_code":"9860865","prefecture":"MIYAGI KEN","city":"ISHINOMAKI SHI","town":"MARUIDO","perfecture_jp":"宮城県","jp_add_1":"石巻市","jp_add_2":"丸井戸"},"9862115":{"post_code":"9862115","prefecture":"MIYAGI KEN","city":"ISHINOMAKI SHI","town":"MANGOKUCHO","perfecture_jp":"宮城県","jp_add_1":"石巻市","jp_add_2":"万石町"},"9860846":{"post_code":"9860846","prefecture":"MIYAGI KEN","city":"ISHINOMAKI SHI","town":"MIKAWACHO","perfecture_jp":"宮城県","jp_add_1":"石巻市","jp_add_2":"三河町"},"9860803":{"post_code":"9860803","prefecture":"MIYAGI KEN","city":"ISHINOMAKI SHI","town":"MIZUOSHI","perfecture_jp":"宮城県","jp_add_1":"石巻市","jp_add_2":"水押"},"9860001":{"post_code":"9860001","prefecture":"MIYAGI KEN","city":"ISHINOMAKI SHI","town":"MIZUNUMA","perfecture_jp":"宮城県","jp_add_1":"石巻市","jp_add_2":"水沼"},"9860033":{"post_code":"9860033","prefecture":"MIYAGI KEN","city":"ISHINOMAKI SHI","town":"MISONO","perfecture_jp":"宮城県","jp_add_1":"石巻市","jp_add_2":"美園"},"9860858":{"post_code":"9860858","prefecture":"MIYAGI KEN","city":"ISHINOMAKI SHI","town":"MITSUMATA","perfecture_jp":"宮城県","jp_add_1":"石巻市","jp_add_2":"三ツ股"},"9862111":{"post_code":"9862111","prefecture":"MIYAGI KEN","city":"ISHINOMAKI SHI","town":"MITSUWACHO","perfecture_jp":"宮城県","jp_add_1":"石巻市","jp_add_2":"三和町"},"9860021":{"post_code":"9860021","prefecture":"MIYAGI KEN","city":"ISHINOMAKI SHI","town":"MIDORICHO","perfecture_jp":"宮城県","jp_add_1":"石巻市","jp_add_2":"緑町"},"9860011":{"post_code":"9860011","prefecture":"MIYAGI KEN","city":"ISHINOMAKI SHI","town":"MINATO","perfecture_jp":"宮城県","jp_add_1":"石巻市","jp_add_2":"湊"},"9860025":{"post_code":"9860025","prefecture":"MIYAGI KEN","city":"ISHINOMAKI SHI","town":"MINATOCHO","perfecture_jp":"宮城県","jp_add_1":"石巻市","jp_add_2":"湊町"},"9860031":{"post_code":"9860031","prefecture":"MIYAGI KEN","city":"ISHINOMAKI SHI","town":"MINAMIZAKAI","perfecture_jp":"宮城県","jp_add_1":"石巻市","jp_add_2":"南境"},"9860814":{"post_code":"9860814","prefecture":"MIYAGI KEN","city":"ISHINOMAKI SHI","town":"MINAMINAKASATO","perfecture_jp":"宮城県","jp_add_1":"石巻市","jp_add_2":"南中里"},"9860835":{"post_code":"9860835","prefecture":"MIYAGI KEN","city":"ISHINOMAKI SHI","town":"MINAMIHAMACHO","perfecture_jp":"宮城県","jp_add_1":"石巻市","jp_add_2":"南浜町"},"9860852":{"post_code":"9860852","prefecture":"MIYAGI KEN","city":"ISHINOMAKI SHI","town":"MINAMIYACHI","perfecture_jp":"宮城県","jp_add_1":"石巻市","jp_add_2":"南谷地"},"9860124":{"post_code":"9860124","prefecture":"MIYAGI KEN","city":"ISHINOMAKI SHI","town":"MINOWADA","perfecture_jp":"宮城県","jp_add_1":"石巻市","jp_add_2":"三輪田"},"9860027":{"post_code":"9860027","prefecture":"MIYAGI KEN","city":"ISHINOMAKI SHI","town":"MYOJINCHO","perfecture_jp":"宮城県","jp_add_1":"石巻市","jp_add_2":"明神町"},"9860868":{"post_code":"9860868","prefecture":"MIYAGI KEN","city":"ISHINOMAKI SHI","town":"MEGUMINO","perfecture_jp":"宮城県","jp_add_1":"石巻市","jp_add_2":"恵み野"},"9860811":{"post_code":"9860811","prefecture":"MIYAGI KEN","city":"ISHINOMAKI SHI","town":"MOTOKURA","perfecture_jp":"宮城県","jp_add_1":"石巻市","jp_add_2":"元倉"},"9860305":{"post_code":"9860305","prefecture":"MIYAGI KEN","city":"ISHINOMAKI SHI","town":"MONOCHO USHITA","perfecture_jp":"宮城県","jp_add_1":"石巻市","jp_add_2":"桃生町牛田"},"9860311":{"post_code":"9860311","prefecture":"MIYAGI KEN","city":"ISHINOMAKI SHI","town":"MONOCHO OTA","perfecture_jp":"宮城県","jp_add_1":"石巻市","jp_add_2":"桃生町太田"},"9860304":{"post_code":"9860304","prefecture":"MIYAGI KEN","city":"ISHINOMAKI SHI","town":"MONOCHO KASHIZAKI","perfecture_jp":"宮城県","jp_add_1":"石巻市","jp_add_2":"桃生町樫崎"},"9860323":{"post_code":"9860323","prefecture":"MIYAGI KEN","city":"ISHINOMAKI SHI","town":"MONOCHO KANDORI","perfecture_jp":"宮城県","jp_add_1":"石巻市","jp_add_2":"桃生町神取"},"9860322":{"post_code":"9860322","prefecture":"MIYAGI KEN","city":"ISHINOMAKI SHI","town":"MONOCHO KYUNIMMACHI","perfecture_jp":"宮城県","jp_add_1":"石巻市","jp_add_2":"桃生町給人町"},"9860302":{"post_code":"9860302","prefecture":"MIYAGI KEN","city":"ISHINOMAKI SHI","town":"MONOCHO KURAZONE","perfecture_jp":"宮城県","jp_add_1":"石巻市","jp_add_2":"桃生町倉埣"},"9860312":{"post_code":"9860312","prefecture":"MIYAGI KEN","city":"ISHINOMAKI SHI","town":"MONOCHO JONAI","perfecture_jp":"宮城県","jp_add_1":"石巻市","jp_add_2":"桃生町城内"},"9860321":{"post_code":"9860321","prefecture":"MIYAGI KEN","city":"ISHINOMAKI SHI","town":"MONOCHO SHINDEN","perfecture_jp":"宮城県","jp_add_1":"石巻市","jp_add_2":"桃生町新田"},"9860324":{"post_code":"9860324","prefecture":"MIYAGI KEN","city":"ISHINOMAKI SHI","town":"MONOCHO TAKASUKA","perfecture_jp":"宮城県","jp_add_1":"石巻市","jp_add_2":"桃生町高須賀"},"9860314":{"post_code":"9860314","prefecture":"MIYAGI KEN","city":"ISHINOMAKI SHI","town":"MONOCHO TERASAKI","perfecture_jp":"宮城県","jp_add_1":"石巻市","jp_add_2":"桃生町寺崎"},"9860303":{"post_code":"9860303","prefecture":"MIYAGI KEN","city":"ISHINOMAKI SHI","town":"MONOCHO NAGAI","perfecture_jp":"宮城県","jp_add_1":"石巻市","jp_add_2":"桃生町永井"},"9860313":{"post_code":"9860313","prefecture":"MIYAGI KEN","city":"ISHINOMAKI SHI","town":"MONOCHO NAKATSUYAMA","perfecture_jp":"宮城県","jp_add_1":"石巻市","jp_add_2":"桃生町中津山"},"9860301":{"post_code":"9860301","prefecture":"MIYAGI KEN","city":"ISHINOMAKI SHI","town":"MONOCHO WAKIYA","perfecture_jp":"宮城県","jp_add_1":"石巻市","jp_add_2":"桃生町脇谷"},"9862353":{"post_code":"9862353","prefecture":"MIYAGI KEN","city":"ISHINOMAKI SHI","town":"MOMONORA","perfecture_jp":"宮城県","jp_add_1":"石巻市","jp_add_2":"桃浦"},"9862402":{"post_code":"9862402","prefecture":"MIYAGI KEN","city":"ISHINOMAKI SHI","town":"YAGAWAHAMA","perfecture_jp":"宮城県","jp_add_1":"石巻市","jp_add_2":"谷川浜"},"9860873":{"post_code":"9860873","prefecture":"MIYAGI KEN","city":"ISHINOMAKI SHI","town":"YAMASHITACHO","perfecture_jp":"宮城県","jp_add_1":"石巻市","jp_add_2":"山下町"},"9860015":{"post_code":"9860015","prefecture":"MIYAGI KEN","city":"ISHINOMAKI SHI","town":"YOSHINOCHO","perfecture_jp":"宮城県","jp_add_1":"石巻市","jp_add_2":"吉野町"},"9860837":{"post_code":"9860837","prefecture":"MIYAGI KEN","city":"ISHINOMAKI SHI","town":"YOSHIYAMACHO","perfecture_jp":"宮城県","jp_add_1":"石巻市","jp_add_2":"宜山町"},"9862404":{"post_code":"9862404","prefecture":"MIYAGI KEN","city":"ISHINOMAKI SHI","town":"YORIISOHAMA","perfecture_jp":"宮城県","jp_add_1":"石巻市","jp_add_2":"寄磯浜"},"9860867":{"post_code":"9860867","prefecture":"MIYAGI KEN","city":"ISHINOMAKI SHI","town":"WAKABA","perfecture_jp":"宮城県","jp_add_1":"石巻市","jp_add_2":"わかば"},"9862135":{"post_code":"9862135","prefecture":"MIYAGI KEN","city":"ISHINOMAKI SHI","town":"WATANOHA","perfecture_jp":"宮城県","jp_add_1":"石巻市","jp_add_2":"渡波"},"9862121":{"post_code":"9862121","prefecture":"MIYAGI KEN","city":"ISHINOMAKI SHI","town":"WATANOHACHO","perfecture_jp":"宮城県","jp_add_1":"石巻市","jp_add_2":"渡波町"},"9860401":{"post_code":"9860401","prefecture":"MIYAGI KEN","city":"TOME SHI","town":"TSUYAMACHO YANAIZU","perfecture_jp":"宮城県","jp_add_1":"登米市","jp_add_2":"津山町柳津"},"9860402":{"post_code":"9860402","prefecture":"MIYAGI KEN","city":"TOME SHI","town":"TSUYAMACHO YOKOYAMA","perfecture_jp":"宮城県","jp_add_1":"登米市","jp_add_2":"津山町横山"},"9862200":{"post_code":"9862200","prefecture":"MIYAGI KEN","city":"OSHIKA GUN ONAGAWA CHO","town":"IKANIKEISAIGANAIBAAI","perfecture_jp":"宮城県","jp_add_1":"牡鹿郡女川町","jp_add_2":""},"9862251":{"post_code":"9862251","prefecture":"MIYAGI KEN","city":"OSHIKA GUN ONAGAWA CHO","town":"ASAHIGAOKA","perfecture_jp":"宮城県","jp_add_1":"牡鹿郡女川町","jp_add_2":"旭が丘"},"9862222":{"post_code":"9862222","prefecture":"MIYAGI KEN","city":"OSHIKA GUN ONAGAWA CHO","town":"IIGOHAMA","perfecture_jp":"宮城県","jp_add_1":"牡鹿郡女川町","jp_add_2":"飯子浜"},"9862281":{"post_code":"9862281","prefecture":"MIYAGI KEN","city":"OSHIKA GUN ONAGAWA CHO","town":"ISHIHAMA","perfecture_jp":"宮城県","jp_add_1":"牡鹿郡女川町","jp_add_2":"石浜"},"9862211":{"post_code":"9862211","prefecture":"MIYAGI KEN","city":"OSHIKA GUN ONAGAWA CHO","town":"IZUSHIMA","perfecture_jp":"宮城県","jp_add_1":"牡鹿郡女川町","jp_add_2":"出島"},"9862231":{"post_code":"9862231","prefecture":"MIYAGI KEN","city":"OSHIKA GUN ONAGAWA CHO","town":"URASHUKUHAMA","perfecture_jp":"宮城県","jp_add_1":"牡鹿郡女川町","jp_add_2":"浦宿浜"},"9862212":{"post_code":"9862212","prefecture":"MIYAGI KEN","city":"OSHIKA GUN ONAGAWA CHO","town":"ENOSHIMA","perfecture_jp":"宮城県","jp_add_1":"牡鹿郡女川町","jp_add_2":"江島"},"9862202":{"post_code":"9862202","prefecture":"MIYAGI KEN","city":"OSHIKA GUN ONAGAWA CHO","town":"ORA","perfecture_jp":"宮城県","jp_add_1":"牡鹿郡女川町","jp_add_2":"尾浦"},"9862224":{"post_code":"9862224","prefecture":"MIYAGI KEN","city":"OSHIKA GUN ONAGAWA CHO","town":"OISHIHARAHAMA","perfecture_jp":"宮城県","jp_add_1":"牡鹿郡女川町","jp_add_2":"大石原浜"},"9862261":{"post_code":"9862261","prefecture":"MIYAGI KEN","city":"OSHIKA GUN ONAGAWA CHO","town":"ONAGAWAHAMA","perfecture_jp":"宮城県","jp_add_1":"牡鹿郡女川町","jp_add_2":"女川浜"},"9862205":{"post_code":"9862205","prefecture":"MIYAGI KEN","city":"OSHIKA GUN ONAGAWA CHO","town":"OMMAEHAMA","perfecture_jp":"宮城県","jp_add_1":"牡鹿郡女川町","jp_add_2":"御前浜"},"9862204":{"post_code":"9862204","prefecture":"MIYAGI KEN","city":"OSHIKA GUN ONAGAWA CHO","town":"KIRIGASAKI","perfecture_jp":"宮城県","jp_add_1":"牡鹿郡女川町","jp_add_2":"桐ケ崎"},"9862241":{"post_code":"9862241","prefecture":"MIYAGI KEN","city":"OSHIKA GUN ONAGAWA CHO","town":"KOGANECHO","perfecture_jp":"宮城県","jp_add_1":"牡鹿郡女川町","jp_add_2":"黄金町"},"9862245":{"post_code":"9862245","prefecture":"MIYAGI KEN","city":"OSHIKA GUN ONAGAWA CHO","town":"KOTOBUKICHO","perfecture_jp":"宮城県","jp_add_1":"牡鹿郡女川町","jp_add_2":"寿町"},"9862242":{"post_code":"9862242","prefecture":"MIYAGI KEN","city":"OSHIKA GUN ONAGAWA CHO","town":"KONORIHAMA","perfecture_jp":"宮城県","jp_add_1":"牡鹿郡女川町","jp_add_2":"小乗浜"},"9862244":{"post_code":"9862244","prefecture":"MIYAGI KEN","city":"OSHIKA GUN ONAGAWA CHO","town":"SAKURAGAOKA","perfecture_jp":"宮城県","jp_add_1":"牡鹿郡女川町","jp_add_2":"桜ケ丘"},"9862201":{"post_code":"9862201","prefecture":"MIYAGI KEN","city":"OSHIKA GUN ONAGAWA CHO","town":"SASHINOHAMA","perfecture_jp":"宮城県","jp_add_1":"牡鹿郡女川町","jp_add_2":"指ケ浜"},"9862271":{"post_code":"9862271","prefecture":"MIYAGI KEN","city":"OSHIKA GUN ONAGAWA CHO","town":"SHIMIZUCHO","perfecture_jp":"宮城県","jp_add_1":"牡鹿郡女川町","jp_add_2":"清水町"},"9862226":{"post_code":"9862226","prefecture":"MIYAGI KEN","city":"OSHIKA GUN ONAGAWA CHO","town":"TAKASHIROHAMA","perfecture_jp":"宮城県","jp_add_1":"牡鹿郡女川町","jp_add_2":"高白浜"},"9862203":{"post_code":"9862203","prefecture":"MIYAGI KEN","city":"OSHIKA GUN ONAGAWA CHO","town":"TAKENORA","perfecture_jp":"宮城県","jp_add_1":"牡鹿郡女川町","jp_add_2":"竹浦"},"9862221":{"post_code":"9862221","prefecture":"MIYAGI KEN","city":"OSHIKA GUN ONAGAWA CHO","town":"TSUKAHAMA","perfecture_jp":"宮城県","jp_add_1":"牡鹿郡女川町","jp_add_2":"塚浜"},"9862223":{"post_code":"9862223","prefecture":"MIYAGI KEN","city":"OSHIKA GUN ONAGAWA CHO","town":"NONOHAMA","perfecture_jp":"宮城県","jp_add_1":"牡鹿郡女川町","jp_add_2":"野々浜"},"9862232":{"post_code":"9862232","prefecture":"MIYAGI KEN","city":"OSHIKA GUN ONAGAWA CHO","town":"HARINOHAMA","perfecture_jp":"宮城県","jp_add_1":"牡鹿郡女川町","jp_add_2":"針浜"},"9862282":{"post_code":"9862282","prefecture":"MIYAGI KEN","city":"OSHIKA GUN ONAGAWA CHO","town":"MIYAGASAKI","perfecture_jp":"宮城県","jp_add_1":"牡鹿郡女川町","jp_add_2":"宮ケ崎"},"9862225":{"post_code":"9862225","prefecture":"MIYAGI KEN","city":"OSHIKA GUN ONAGAWA CHO","town":"YOKORA","perfecture_jp":"宮城県","jp_add_1":"牡鹿郡女川町","jp_add_2":"横浦"},"9862243":{"post_code":"9862243","prefecture":"MIYAGI KEN","city":"OSHIKA GUN ONAGAWA CHO","town":"WASHINOKAMIHAMA","perfecture_jp":"宮城県","jp_add_1":"牡鹿郡女川町","jp_add_2":"鷲神浜"},"9860700":{"post_code":"9860700","prefecture":"MIYAGI KEN","city":"MOTOYOSHI GUN MINAMISANRIKU CHO","town":"IKANIKEISAIGANAIBAAI","perfecture_jp":"宮城県","jp_add_1":"本吉郡南三陸町","jp_add_2":""},"9860782":{"post_code":"9860782","prefecture":"MIYAGI KEN","city":"MOTOYOSHI GUN MINAMISANRIKU CHO","town":"IRIYA","perfecture_jp":"宮城県","jp_add_1":"本吉郡南三陸町","jp_add_2":"入谷"},"9860772":{"post_code":"9860772","prefecture":"MIYAGI KEN","city":"MOTOYOSHI GUN MINAMISANRIKU CHO","town":"SHIZUGAWA AKIMEGAWA","perfecture_jp":"宮城県","jp_add_1":"本吉郡南三陸町","jp_add_2":"志津川秋目川"},"9860733":{"post_code":"9860733","prefecture":"MIYAGI KEN","city":"MOTOYOSHI GUN MINAMISANRIKU CHO","town":"SHIZUGAWA ASAHIGAURA","perfecture_jp":"宮城県","jp_add_1":"本吉郡南三陸町","jp_add_2":"志津川旭ケ浦"},"9860705":{"post_code":"9860705","prefecture":"MIYAGI KEN","city":"MOTOYOSHI GUN MINAMISANRIKU CHO","town":"SHIZUGAWA ASO","perfecture_jp":"宮城県","jp_add_1":"本吉郡南三陸町","jp_add_2":"志津川阿曽"},"9860707":{"post_code":"9860707","prefecture":"MIYAGI KEN","city":"MOTOYOSHI GUN MINAMISANRIKU CHO","town":"SHIZUGAWA ARASAKA","perfecture_jp":"宮城県","jp_add_1":"本吉郡南三陸町","jp_add_2":"志津川荒坂"},"9860726":{"post_code":"9860726","prefecture":"MIYAGI KEN","city":"MOTOYOSHI GUN MINAMISANRIKU CHO","town":"SHIZUGAWA ISONOSAWA","perfecture_jp":"宮城県","jp_add_1":"本吉郡南三陸町","jp_add_2":"志津川磯の沢"},"9860752":{"post_code":"9860752","prefecture":"MIYAGI KEN","city":"MOTOYOSHI GUN MINAMISANRIKU CHO","town":"SHIZUGAWA ITSUKAMACHI","perfecture_jp":"宮城県","jp_add_1":"本吉郡南三陸町","jp_add_2":"志津川五日町"},"9860709":{"post_code":"9860709","prefecture":"MIYAGI KEN","city":"MOTOYOSHI GUN MINAMISANRIKU CHO","town":"SHIZUGAWA UCHIIDA","perfecture_jp":"宮城県","jp_add_1":"本吉郡南三陸町","jp_add_2":"志津川内井田"},"9860764":{"post_code":"9860764","prefecture":"MIYAGI KEN","city":"MOTOYOSHI GUN MINAMISANRIKU CHO","town":"SHIZUGAWA OKUBO","perfecture_jp":"宮城県","jp_add_1":"本吉郡南三陸町","jp_add_2":"志津川大久保"},"9860771":{"post_code":"9860771","prefecture":"MIYAGI KEN","city":"MOTOYOSHI GUN MINAMISANRIKU CHO","town":"SHIZUGAWA OSAWA","perfecture_jp":"宮城県","jp_add_1":"本吉郡南三陸町","jp_add_2":"志津川大沢"},"9860718":{"post_code":"9860718","prefecture":"MIYAGI KEN","city":"MOTOYOSHI GUN MINAMISANRIKU CHO","town":"SHIZUGAWA OBATAKE","perfecture_jp":"宮城県","jp_add_1":"本吉郡南三陸町","jp_add_2":"志津川大畑"},"9860731":{"post_code":"9860731","prefecture":"MIYAGI KEN","city":"MOTOYOSHI GUN MINAMISANRIKU CHO","town":"SHIZUGAWA OMORI","perfecture_jp":"宮城県","jp_add_1":"本吉郡南三陸町","jp_add_2":"志津川大森"},"9860732":{"post_code":"9860732","prefecture":"MIYAGI KEN","city":"MOTOYOSHI GUN MINAMISANRIKU CHO","town":"SHIZUGAWA OMORICHO","perfecture_jp":"宮城県","jp_add_1":"本吉郡南三陸町","jp_add_2":"志津川大森町"},"9860714":{"post_code":"9860714","prefecture":"MIYAGI KEN","city":"MOTOYOSHI GUN MINAMISANRIKU CHO","town":"SHIZUGAWA KABANOSAWA","perfecture_jp":"宮城県","jp_add_1":"本吉郡南三陸町","jp_add_2":"志津川蒲の沢"},"9860751":{"post_code":"9860751","prefecture":"MIYAGI KEN","city":"MOTOYOSHI GUN MINAMISANRIKU CHO","town":"SHIZUGAWA KAMINOYAMA","perfecture_jp":"宮城県","jp_add_1":"本吉郡南三陸町","jp_add_2":"志津川上の山"},"9860777":{"post_code":"9860777","prefecture":"MIYAGI KEN","city":"MOTOYOSHI GUN MINAMISANRIKU CHO","town":"SHIZUGAWA KAMIHOROKE","perfecture_jp":"宮城県","jp_add_1":"本吉郡南三陸町","jp_add_2":"志津川上保呂毛"},"9860712":{"post_code":"9860712","prefecture":"MIYAGI KEN","city":"MOTOYOSHI GUN MINAMISANRIKU CHO","town":"SHIZUGAWA KITANOMATA","perfecture_jp":"宮城県","jp_add_1":"本吉郡南三陸町","jp_add_2":"志津川北の又"},"9860773":{"post_code":"9860773","prefecture":"MIYAGI KEN","city":"MOTOYOSHI GUN MINAMISANRIKU CHO","town":"SHIZUGAWA KUMADA","perfecture_jp":"宮城県","jp_add_1":"本吉郡南三陸町","jp_add_2":"志津川熊田"},"9860766":{"post_code":"9860766","prefecture":"MIYAGI KEN","city":"MOTOYOSHI GUN MINAMISANRIKU CHO","town":"SHIZUGAWA KUROSAKI","perfecture_jp":"宮城県","jp_add_1":"本吉郡南三陸町","jp_add_2":"志津川黒崎"},"9860768":{"post_code":"9860768","prefecture":"MIYAGI KEN","city":"MOTOYOSHI GUN MINAMISANRIKU CHO","town":"SHIZUGAWA GOZENSHITA","perfecture_jp":"宮城県","jp_add_1":"本吉郡南三陸町","jp_add_2":"志津川御前下"},"9860721":{"post_code":"9860721","prefecture":"MIYAGI KEN","city":"MOTOYOSHI GUN MINAMISANRIKU CHO","town":"SHIZUGAWA KOMEHIRO","perfecture_jp":"宮城県","jp_add_1":"本吉郡南三陸町","jp_add_2":"志津川米広"},"9860774":{"post_code":"9860774","prefecture":"MIYAGI KEN","city":"MOTOYOSHI GUN MINAMISANRIKU CHO","town":"SHIZUGAWA KOMORI","perfecture_jp":"宮城県","jp_add_1":"本吉郡南三陸町","jp_add_2":"志津川小森"},"9860711":{"post_code":"9860711","prefecture":"MIYAGI KEN","city":"MOTOYOSHI GUN MINAMISANRIKU CHO","town":"SHIZUGAWA GONGEN","perfecture_jp":"宮城県","jp_add_1":"本吉郡南三陸町","jp_add_2":"志津川権現"},"9860762":{"post_code":"9860762","prefecture":"MIYAGI KEN","city":"MOTOYOSHI GUN MINAMISANRIKU CHO","town":"SHIZUGAWA SHIOIRI","perfecture_jp":"宮城県","jp_add_1":"本吉郡南三陸町","jp_add_2":"志津川塩入"},"9860763":{"post_code":"9860763","prefecture":"MIYAGI KEN","city":"MOTOYOSHI GUN MINAMISANRIKU CHO","town":"SHIZUGAWA SHIOMICHO","perfecture_jp":"宮城県","jp_add_1":"本吉郡南三陸町","jp_add_2":"志津川汐見町"},"9860706":{"post_code":"9860706","prefecture":"MIYAGI KEN","city":"MOTOYOSHI GUN MINAMISANRIKU CHO","town":"SHIZUGAWA SHIZUHAMA","perfecture_jp":"宮城県","jp_add_1":"本吉郡南三陸町","jp_add_2":"志津川清水浜"},"9860778":{"post_code":"9860778","prefecture":"MIYAGI KEN","city":"MOTOYOSHI GUN MINAMISANRIKU CHO","town":"SHIZUGAWA SHIMOHOROKE","perfecture_jp":"宮城県","jp_add_1":"本吉郡南三陸町","jp_add_2":"志津川下保呂毛"},"9860703":{"post_code":"9860703","prefecture":"MIYAGI KEN","city":"MOTOYOSHI GUN MINAMISANRIKU CHO","town":"SHIZUGAWA JAO","perfecture_jp":"宮城県","jp_add_1":"本吉郡南三陸町","jp_add_2":"志津川蛇王"},"9860753":{"post_code":"9860753","prefecture":"MIYAGI KEN","city":"MOTOYOSHI GUN MINAMISANRIKU CHO","town":"SHIZUGAWA JOBA","perfecture_jp":"宮城県","jp_add_1":"本吉郡南三陸町","jp_add_2":"志津川城場"},"9860754":{"post_code":"9860754","prefecture":"MIYAGI KEN","city":"MOTOYOSHI GUN MINAMISANRIKU CHO","town":"SHIZUGAWA SUKEZUKURI","perfecture_jp":"宮城県","jp_add_1":"本吉郡南三陸町","jp_add_2":"志津川助作"},"9860717":{"post_code":"9860717","prefecture":"MIYAGI KEN","city":"MOTOYOSHI GUN MINAMISANRIKU CHO","town":"SHIZUGAWA SODEHAMA","perfecture_jp":"宮城県","jp_add_1":"本吉郡南三陸町","jp_add_2":"志津川袖浜"},"9860722":{"post_code":"9860722","prefecture":"MIYAGI KEN","city":"MOTOYOSHI GUN MINAMISANRIKU CHO","town":"SHIZUGAWA DAIJOBO","perfecture_jp":"宮城県","jp_add_1":"本吉郡南三陸町","jp_add_2":"志津川大上坊"},"9860776":{"post_code":"9860776","prefecture":"MIYAGI KEN","city":"MOTOYOSHI GUN MINAMISANRIKU CHO","town":"SHIZUGAWA TAKEGAWARA","perfecture_jp":"宮城県","jp_add_1":"本吉郡南三陸町","jp_add_2":"志津川竹川原"},"9860779":{"post_code":"9860779","prefecture":"MIYAGI KEN","city":"MOTOYOSHI GUN MINAMISANRIKU CHO","town":"SHIZUGAWA TAJIRIBATAKE","perfecture_jp":"宮城県","jp_add_1":"本吉郡南三陸町","jp_add_2":"志津川田尻畑"},"9860723":{"post_code":"9860723","prefecture":"MIYAGI KEN","city":"MOTOYOSHI GUN MINAMISANRIKU CHO","town":"SHIZUGAWA TATSUSAWA","perfecture_jp":"宮城県","jp_add_1":"本吉郡南三陸町","jp_add_2":"志津川立沢"},"9860728":{"post_code":"9860728","prefecture":"MIYAGI KEN","city":"MOTOYOSHI GUN MINAMISANRIKU CHO","town":"SHIZUGAWA TENNOSAN","perfecture_jp":"宮城県","jp_add_1":"本吉郡南三陸町","jp_add_2":"志津川天王山"},"9860729":{"post_code":"9860729","prefecture":"MIYAGI KEN","city":"MOTOYOSHI GUN MINAMISANRIKU CHO","town":"SHIZUGAWA TENNOMAE","perfecture_jp":"宮城県","jp_add_1":"本吉郡南三陸町","jp_add_2":"志津川天王前"},"9860741":{"post_code":"9860741","prefecture":"MIYAGI KEN","city":"MOTOYOSHI GUN MINAMISANRIKU CHO","town":"SHIZUGAWA TOKAMACHI","perfecture_jp":"宮城県","jp_add_1":"本吉郡南三陸町","jp_add_2":"志津川十日町"},"9860767":{"post_code":"9860767","prefecture":"MIYAGI KEN","city":"MOTOYOSHI GUN MINAMISANRIKU CHO","town":"SHIZUGAWA NAKASEMACHI","perfecture_jp":"宮城県","jp_add_1":"本吉郡南三陸町","jp_add_2":"志津川中瀬町"},"9860727":{"post_code":"9860727","prefecture":"MIYAGI KEN","city":"MOTOYOSHI GUN MINAMISANRIKU CHO","town":"SHIZUGAWA NIIDA","perfecture_jp":"宮城県","jp_add_1":"本吉郡南三陸町","jp_add_2":"志津川新井田"},"9860701":{"post_code":"9860701","prefecture":"MIYAGI KEN","city":"MOTOYOSHI GUN MINAMISANRIKU CHO","town":"SHIZUGAWA NISHIDA","perfecture_jp":"宮城県","jp_add_1":"本吉郡南三陸町","jp_add_2":"志津川西田"},"9860725":{"post_code":"9860725","prefecture":"MIYAGI KEN","city":"MOTOYOSHI GUN MINAMISANRIKU CHO","town":"SHIZUGAWA NUMADA","perfecture_jp":"宮城県","jp_add_1":"本吉郡南三陸町","jp_add_2":"志津川沼田"},"9860765":{"post_code":"9860765","prefecture":"MIYAGI KEN","city":"MOTOYOSHI GUN MINAMISANRIKU CHO","town":"SHIZUGAWA HAYASHI","perfecture_jp":"宮城県","jp_add_1":"本吉郡南三陸町","jp_add_2":"志津川林"},"9860716":{"post_code":"9860716","prefecture":"MIYAGI KEN","city":"MOTOYOSHI GUN MINAMISANRIKU CHO","town":"SHIZUGAWA HIRAISO","perfecture_jp":"宮城県","jp_add_1":"本吉郡南三陸町","jp_add_2":"志津川平磯"},"9860724":{"post_code":"9860724","prefecture":"MIYAGI KEN","city":"MOTOYOSHI GUN MINAMISANRIKU CHO","town":"SHIZUGAWA HIRAIDA","perfecture_jp":"宮城県","jp_add_1":"本吉郡南三陸町","jp_add_2":"志津川平井田"},"9860713":{"post_code":"9860713","prefecture":"MIYAGI KEN","city":"MOTOYOSHI GUN MINAMISANRIKU CHO","town":"SHIZUGAWA HIRAGAI","perfecture_jp":"宮城県","jp_add_1":"本吉郡南三陸町","jp_add_2":"志津川平貝"},"9860715":{"post_code":"9860715","prefecture":"MIYAGI KEN","city":"MOTOYOSHI GUN MINAMISANRIKU CHO","town":"SHIZUGAWA FUKADA","perfecture_jp":"宮城県","jp_add_1":"本吉郡南三陸町","jp_add_2":"志津川深田"},"9860702":{"post_code":"9860702","prefecture":"MIYAGI KEN","city":"MOTOYOSHI GUN MINAMISANRIKU CHO","town":"SHIZUGAWA HOSORA","perfecture_jp":"宮城県","jp_add_1":"本吉郡南三陸町","jp_add_2":"志津川細浦"},"9860708":{"post_code":"9860708","prefecture":"MIYAGI KEN","city":"MOTOYOSHI GUN MINAMISANRIKU CHO","town":"SHIZUGAWA MATSUIDA","perfecture_jp":"宮城県","jp_add_1":"本吉郡南三陸町","jp_add_2":"志津川松井田"},"9860775":{"post_code":"9860775","prefecture":"MIYAGI KEN","city":"MOTOYOSHI GUN MINAMISANRIKU CHO","town":"SHIZUGAWA MAWARITATE","perfecture_jp":"宮城県","jp_add_1":"本吉郡南三陸町","jp_add_2":"志津川廻館"},"9860761":{"post_code":"9860761","prefecture":"MIYAGI KEN","city":"MOTOYOSHI GUN MINAMISANRIKU CHO","town":"SHIZUGAWA MAWARITATEMAE","perfecture_jp":"宮城県","jp_add_1":"本吉郡南三陸町","jp_add_2":"志津川廻館前"},"9860743":{"post_code":"9860743","prefecture":"MIYAGI KEN","city":"MOTOYOSHI GUN MINAMISANRIKU CHO","town":"SHIZUGAWA MINAMIMACHI","perfecture_jp":"宮城県","jp_add_1":"本吉郡南三陸町","jp_add_2":"志津川南町"},"9860742":{"post_code":"9860742","prefecture":"MIYAGI KEN","city":"MOTOYOSHI GUN MINAMISANRIKU CHO","town":"SHIZUGAWA MOTOHAMACHO","perfecture_jp":"宮城県","jp_add_1":"本吉郡南三陸町","jp_add_2":"志津川本浜町"},"9860704":{"post_code":"9860704","prefecture":"MIYAGI KEN","city":"MOTOYOSHI GUN MINAMISANRIKU CHO","town":"SHIZUGAWA MORIYAMA","perfecture_jp":"宮城県","jp_add_1":"本吉郡南三陸町","jp_add_2":"志津川森山"},"9860781":{"post_code":"9860781","prefecture":"MIYAGI KEN","city":"MOTOYOSHI GUN MINAMISANRIKU CHO","town":"TOKURA","perfecture_jp":"宮城県","jp_add_1":"本吉郡南三陸町","jp_add_2":"戸倉"}}