{"9871103":{"post_code":"9871103","prefecture":"MIYAGI KEN","city":"ISHINOMAKI SHI","town":"KITAMURA","perfecture_jp":"宮城県","jp_add_1":"石巻市","jp_add_2":"北村"},"9871221":{"post_code":"9871221","prefecture":"MIYAGI KEN","city":"ISHINOMAKI SHI","town":"SUE","perfecture_jp":"宮城県","jp_add_1":"石巻市","jp_add_2":"須江"},"9871222":{"post_code":"9871222","prefecture":"MIYAGI KEN","city":"ISHINOMAKI SHI","town":"HIROBUCHI","perfecture_jp":"宮城県","jp_add_1":"石巻市","jp_add_2":"広渕"},"9871101":{"post_code":"9871101","prefecture":"MIYAGI KEN","city":"ISHINOMAKI SHI","town":"MAEYACHI","perfecture_jp":"宮城県","jp_add_1":"石巻市","jp_add_2":"前谷地"},"9871102":{"post_code":"9871102","prefecture":"MIYAGI KEN","city":"ISHINOMAKI SHI","town":"WABUCHI","perfecture_jp":"宮城県","jp_add_1":"石巻市","jp_add_2":"和渕"},"9870500":{"post_code":"9870500","prefecture":"MIYAGI KEN","city":"TOME SHI","town":"IKANIKEISAIGANAIBAAI","perfecture_jp":"宮城県","jp_add_1":"登米市","jp_add_2":""},"9870903":{"post_code":"9870903","prefecture":"MIYAGI KEN","city":"TOME SHI","town":"TOWACHO NISHIKIORI","perfecture_jp":"宮城県","jp_add_1":"登米市","jp_add_2":"東和町錦織"},"9870902":{"post_code":"9870902","prefecture":"MIYAGI KEN","city":"TOME SHI","town":"TOWACHO MAIYA","perfecture_jp":"宮城県","jp_add_1":"登米市","jp_add_2":"東和町米谷"},"9870901":{"post_code":"9870901","prefecture":"MIYAGI KEN","city":"TOME SHI","town":"TOWACHO YONEKAWA","perfecture_jp":"宮城県","jp_add_1":"登米市","jp_add_2":"東和町米川"},"9870355":{"post_code":"9870355","prefecture":"MIYAGI KEN","city":"TOME SHI","town":"TOYOSATOCHO HODE","perfecture_jp":"宮城県","jp_add_1":"登米市","jp_add_2":"豊里町後沢田"},"9870377":{"post_code":"9870377","prefecture":"MIYAGI KEN","city":"TOME SHI","town":"TOYOSATOCHO SOTOICHIBANE","perfecture_jp":"宮城県","jp_add_1":"登米市","jp_add_2":"豊里町内一番江"},"9870385":{"post_code":"9870385","prefecture":"MIYAGI KEN","city":"TOME SHI","town":"TOYOSATOCHO SHIMOGYU","perfecture_jp":"宮城県","jp_add_1":"登米市","jp_add_2":"豊里町内田"},"9870373":{"post_code":"9870373","prefecture":"MIYAGI KEN","city":"TOME SHI","town":"TOYOSATOCHO MINAMIKITSUTSU","perfecture_jp":"宮城県","jp_add_1":"登米市","jp_add_2":"豊里町内町浦"},"9870366":{"post_code":"9870366","prefecture":"MIYAGI KEN","city":"TOME SHI","town":"TOYOSATOCHO SHIMOYAURA","perfecture_jp":"宮城県","jp_add_1":"登米市","jp_add_2":"豊里町浦軒"},"9870354":{"post_code":"9870354","prefecture":"MIYAGI KEN","city":"TOME SHI","town":"TOYOSATOCHO NUMATA","perfecture_jp":"宮城県","jp_add_1":"登米市","jp_add_2":"豊里町上沼田"},"9870353":{"post_code":"9870353","prefecture":"MIYAGI KEN","city":"TOME SHI","town":"TOYOSATOCHO HIRABAYASHI","perfecture_jp":"宮城県","jp_add_1":"登米市","jp_add_2":"豊里町笑沢"},"9870341":{"post_code":"9870341","prefecture":"MIYAGI KEN","city":"TOME SHI","town":"TOYOSATOCHO TAKENOSAWA","perfecture_jp":"宮城県","jp_add_1":"登米市","jp_add_2":"豊里町大沢"},"9870371":{"post_code":"9870371","prefecture":"MIYAGI KEN","city":"TOME SHI","town":"TOYOSATOCHO JITCHODA","perfecture_jp":"宮城県","jp_add_1":"登米市","jp_add_2":"豊里町大曲"},"9870358":{"post_code":"9870358","prefecture":"MIYAGI KEN","city":"TOME SHI","town":"TOYOSATOCHO NAGANEURA","perfecture_jp":"宮城県","jp_add_1":"登米市","jp_add_2":"豊里町加々巻"},"9870378":{"post_code":"9870378","prefecture":"MIYAGI KEN","city":"TOME SHI","town":"TOYOSATOCHO SHINDENKAGAMIGATA","perfecture_jp":"宮城県","jp_add_1":"登米市","jp_add_2":"豊里町鏡形"},"9870357":{"post_code":"9870357","prefecture":"MIYAGI KEN","city":"TOME SHI","town":"TOYOSATOCHO TORIGOE","perfecture_jp":"宮城県","jp_add_1":"登米市","jp_add_2":"豊里町蕪木"},"9870362":{"post_code":"9870362","prefecture":"MIYAGI KEN","city":"TOME SHI","town":"TOYOSATOCHO HIGASHIMACHIISHITA","perfecture_jp":"宮城県","jp_add_1":"登米市","jp_add_2":"豊里町上町裏"},"9870382":{"post_code":"9870382","prefecture":"MIYAGI KEN","city":"TOME SHI","town":"TOYOSATOCHO KAMIYACHI","perfecture_jp":"宮城県","jp_add_1":"登米市","jp_add_2":"豊里町上谷地"},"9870367":{"post_code":"9870367","prefecture":"MIYAGI KEN","city":"TOME SHI","town":"TOYOSATOCHO KAWAMAE","perfecture_jp":"宮城県","jp_add_1":"登米市","jp_add_2":"豊里町川前"},"9870351":{"post_code":"9870351","prefecture":"MIYAGI KEN","city":"TOME SHI","town":"TOYOSATOCHO KUSUDAMAE","perfecture_jp":"宮城県","jp_add_1":"登米市","jp_add_2":"豊里町久寿田"},"9870379":{"post_code":"9870379","prefecture":"MIYAGI KEN","city":"TOME SHI","town":"TOYOSATOCHO KENZAKI","perfecture_jp":"宮城県","jp_add_1":"登米市","jp_add_2":"豊里町剣先"},"9870363":{"post_code":"9870363","prefecture":"MIYAGI KEN","city":"TOME SHI","town":"TOYOSATOCHO YOKOCHO","perfecture_jp":"宮城県","jp_add_1":"登米市","jp_add_2":"豊里町五反田"},"9870343":{"post_code":"9870343","prefecture":"MIYAGI KEN","city":"TOME SHI","town":"TOYOSATOCHO SAWAJIRI","perfecture_jp":"宮城県","jp_add_1":"登米市","jp_add_2":"豊里町小谷地"},"9870344":{"post_code":"9870344","prefecture":"MIYAGI KEN","city":"TOME SHI","town":"TOYOSATOCHO HASAMA","perfecture_jp":"宮城県","jp_add_1":"登米市","jp_add_2":"豊里町境沢"},"9870356":{"post_code":"9870356","prefecture":"MIYAGI KEN","city":"TOME SHI","town":"TOYOSATOCHO MOKUSAWA","perfecture_jp":"宮城県","jp_add_1":"登米市","jp_add_2":"豊里町芝下"},"9870364":{"post_code":"9870364","prefecture":"MIYAGI KEN","city":"TOME SHI","town":"TOYOSATOCHO HONCHIDOTESHITA","perfecture_jp":"宮城県","jp_add_1":"登米市","jp_add_2":"豊里町下古屋"},"9870384":{"post_code":"9870384","prefecture":"MIYAGI KEN","city":"TOME SHI","town":"TOYOSATOCHO JUGOKANYACHI","perfecture_jp":"宮城県","jp_add_1":"登米市","jp_add_2":"豊里町十五貫"},"9870346":{"post_code":"9870346","prefecture":"MIYAGI KEN","city":"TOME SHI","town":"TOYOSATOCHO SHIROTORIMAE","perfecture_jp":"宮城県","jp_add_1":"登米市","jp_add_2":"豊里町白鳥山"},"9870361":{"post_code":"9870361","prefecture":"MIYAGI KEN","city":"TOME SHI","town":"TOYOSATOCHO SHINDEMMACHI","perfecture_jp":"宮城県","jp_add_1":"登米市","jp_add_2":"豊里町新田町"},"9870381":{"post_code":"9870381","prefecture":"MIYAGI KEN","city":"TOME SHI","town":"TOYOSATOCHO NAGAMAE","perfecture_jp":"宮城県","jp_add_1":"登米市","jp_add_2":"豊里町新長前"},"9870376":{"post_code":"9870376","prefecture":"MIYAGI KEN","city":"TOME SHI","town":"TOYOSATOCHO HOSONUMATA","perfecture_jp":"宮城県","jp_add_1":"登米市","jp_add_2":"豊里町新細沼"},"9870365":{"post_code":"9870365","prefecture":"MIYAGI KEN","city":"TOME SHI","town":"TOYOSATOCHO SHIMMACHI","perfecture_jp":"宮城県","jp_add_1":"登米市","jp_add_2":"豊里町新町"},"9870352":{"post_code":"9870352","prefecture":"MIYAGI KEN","city":"TOME SHI","town":"TOYOSATOCHO SUSAKI","perfecture_jp":"宮城県","jp_add_1":"登米市","jp_add_2":"豊里町寿崎"},"9870383":{"post_code":"9870383","prefecture":"MIYAGI KEN","city":"TOME SHI","town":"TOYOSATOCHO SOTOROKUBANE","perfecture_jp":"宮城県","jp_add_1":"登米市","jp_add_2":"豊里町外五番江"},"9870345":{"post_code":"9870345","prefecture":"MIYAGI KEN","city":"TOME SHI","town":"TOYOSATOCHO FUKUSAWA","perfecture_jp":"宮城県","jp_add_1":"登米市","jp_add_2":"豊里町中谷岐"},"9870368":{"post_code":"9870368","prefecture":"MIYAGI KEN","city":"TOME SHI","town":"TOYOSATOCHO MINAMIMACHIURA","perfecture_jp":"宮城県","jp_add_1":"登米市","jp_add_2":"豊里町七ツ塚"},"9870372":{"post_code":"9870372","prefecture":"MIYAGI KEN","city":"TOME SHI","town":"TOYOSATOCHO MAEDA","perfecture_jp":"宮城県","jp_add_1":"登米市","jp_add_2":"豊里町西前田"},"9870359":{"post_code":"9870359","prefecture":"MIYAGI KEN","city":"TOME SHI","town":"TOYOSATOCHO HONCHIHATSUTAN","perfecture_jp":"宮城県","jp_add_1":"登米市","jp_add_2":"豊里町八反"},"9870374":{"post_code":"9870374","prefecture":"MIYAGI KEN","city":"TOME SHI","town":"TOYOSATOCHO HIGASHIFUTATSUYA","perfecture_jp":"宮城県","jp_add_1":"登米市","jp_add_2":"豊里町東二ツ屋"},"9870375":{"post_code":"9870375","prefecture":"MIYAGI KEN","city":"TOME SHI","town":"TOYOSATOCHO FUTATSUYA","perfecture_jp":"宮城県","jp_add_1":"登米市","jp_add_2":"豊里町二ツ屋"},"9870342":{"post_code":"9870342","prefecture":"MIYAGI KEN","city":"TOME SHI","town":"TOYOSATOCHO YAMANEMAE","perfecture_jp":"宮城県","jp_add_1":"登米市","jp_add_2":"豊里町山根"},"9870701":{"post_code":"9870701","prefecture":"MIYAGI KEN","city":"TOME SHI","town":"TOYOMAMACHI KOJIMA","perfecture_jp":"宮城県","jp_add_1":"登米市","jp_add_2":"登米町小島"},"9870702":{"post_code":"9870702","prefecture":"MIYAGI KEN","city":"TOME SHI","town":"TOYOMAMACHI TERAIKE","perfecture_jp":"宮城県","jp_add_1":"登米市","jp_add_2":"登米町寺池"},"9870703":{"post_code":"9870703","prefecture":"MIYAGI KEN","city":"TOME SHI","town":"TOYOMAMACHI HINEUSHI","perfecture_jp":"宮城県","jp_add_1":"登米市","jp_add_2":"登米町日根牛"},"9870704":{"post_code":"9870704","prefecture":"MIYAGI KEN","city":"TOME SHI","town":"TOYOMAMACHI HINOTO","perfecture_jp":"宮城県","jp_add_1":"登米市","jp_add_2":"登米町日野渡"},"9870611":{"post_code":"9870611","prefecture":"MIYAGI KEN","city":"TOME SHI","town":"NAKADACHO ASAMIZU","perfecture_jp":"宮城県","jp_add_1":"登米市","jp_add_2":"中田町浅水"},"9870601":{"post_code":"9870601","prefecture":"MIYAGI KEN","city":"TOME SHI","town":"NAKADACHO ISHINOMORI","perfecture_jp":"宮城県","jp_add_1":"登米市","jp_add_2":"中田町石森"},"9870602":{"post_code":"9870602","prefecture":"MIYAGI KEN","city":"TOME SHI","town":"NAKADACHO UWANUMA","perfecture_jp":"宮城県","jp_add_1":"登米市","jp_add_2":"中田町上沼"},"9870621":{"post_code":"9870621","prefecture":"MIYAGI KEN","city":"TOME SHI","town":"NAKADACHO TAKARAEKURONUMA","perfecture_jp":"宮城県","jp_add_1":"登米市","jp_add_2":"中田町宝江黒沼"},"9870622":{"post_code":"9870622","prefecture":"MIYAGI KEN","city":"TOME SHI","town":"NAKADACHO TAKARAENIIDA","perfecture_jp":"宮城県","jp_add_1":"登米市","jp_add_2":"中田町宝江新井田"},"9870623":{"post_code":"9870623","prefecture":"MIYAGI KEN","city":"TOME SHI","town":"NAKADACHO TAKARAEMORI","perfecture_jp":"宮城県","jp_add_1":"登米市","jp_add_2":"中田町宝江森"},"9870513":{"post_code":"9870513","prefecture":"MIYAGI KEN","city":"TOME SHI","town":"HASAMACHO KITAKATA","perfecture_jp":"宮城県","jp_add_1":"登米市","jp_add_2":"迫町北方"},"9870511":{"post_code":"9870511","prefecture":"MIYAGI KEN","city":"TOME SHI","town":"HASAMACHO SANUMA","perfecture_jp":"宮城県","jp_add_1":"登米市","jp_add_2":"迫町佐沼"},"9870512":{"post_code":"9870512","prefecture":"MIYAGI KEN","city":"TOME SHI","town":"HASAMACHO MORI","perfecture_jp":"宮城県","jp_add_1":"登米市","jp_add_2":"迫町森"},"9870432":{"post_code":"9870432","prefecture":"MIYAGI KEN","city":"TOME SHI","town":"MINAMIKATAMACHI HATAOKASHITA","perfecture_jp":"宮城県","jp_add_1":"登米市","jp_add_2":"南方町青笹"},"9870441":{"post_code":"9870441","prefecture":"MIYAGI KEN","city":"TOME SHI","town":"MINAMIKATAMACHI AOSHIMAYASHIKI","perfecture_jp":"宮城県","jp_add_1":"登米市","jp_add_2":"南方町青島前"},"9870412":{"post_code":"9870412","prefecture":"MIYAGI KEN","city":"TOME SHI","town":"MINAMIKATAMACHI MINEMAE","perfecture_jp":"宮城県","jp_add_1":"登米市","jp_add_2":"南方町上ケ戸"},"9870444":{"post_code":"9870444","prefecture":"MIYAGI KEN","city":"TOME SHI","town":"MINAMIKATAMACHI YOKODAI","perfecture_jp":"宮城県","jp_add_1":"登米市","jp_add_2":"南方町尼池"},"9870411":{"post_code":"9870411","prefecture":"MIYAGI KEN","city":"TOME SHI","town":"MINAMIKATAMACHI TERABUKURO","perfecture_jp":"宮城県","jp_add_1":"登米市","jp_add_2":"南方町天沼"},"9870443":{"post_code":"9870443","prefecture":"MIYAGI KEN","city":"TOME SHI","town":"MINAMIKATAMACHI NOYACHI","perfecture_jp":"宮城県","jp_add_1":"登米市","jp_add_2":"南方町板ケ沢"},"9870402":{"post_code":"9870402","prefecture":"MIYAGI KEN","city":"TOME SHI","town":"MINAMIKATAMACHI MATSUSHIMAYASHIKI","perfecture_jp":"宮城県","jp_add_1":"登米市","jp_add_2":"南方町板倉"},"9870431":{"post_code":"9870431","prefecture":"MIYAGI KEN","city":"TOME SHI","town":"MINAMIKATAMACHI YOKOMAE","perfecture_jp":"宮城県","jp_add_1":"登米市","jp_add_2":"南方町一ノ曲"},"9870442":{"post_code":"9870442","prefecture":"MIYAGI KEN","city":"TOME SHI","town":"MINAMIKATAMACHI NAKATAKAISHI","perfecture_jp":"宮城県","jp_add_1":"登米市","jp_add_2":"南方町後高石"},"9870403":{"post_code":"9870403","prefecture":"MIYAGI KEN","city":"TOME SHI","town":"MINAMIKATAMACHI YAKUSHIJIMAYASHIKI","perfecture_jp":"宮城県","jp_add_1":"登米市","jp_add_2":"南方町内ノ目"},"9870414":{"post_code":"9870414","prefecture":"MIYAGI KEN","city":"TOME SHI","town":"MINAMIKATAMACHI WANIMARU","perfecture_jp":"宮城県","jp_add_1":"登米市","jp_add_2":"南方町内鰐丸"},"9870433":{"post_code":"9870433","prefecture":"MIYAGI KEN","city":"TOME SHI","town":"MINAMIKATAMACHI NUMASAKIMAE","perfecture_jp":"宮城県","jp_add_1":"登米市","jp_add_2":"南方町大平"},"9870423":{"post_code":"9870423","prefecture":"MIYAGI KEN","city":"TOME SHI","town":"MINAMIKATAMACHI HONGOODAKE","perfecture_jp":"宮城県","jp_add_1":"登米市","jp_add_2":"南方町大嶽"},"9870421":{"post_code":"9870421","prefecture":"MIYAGI KEN","city":"TOME SHI","town":"MINAMIKATAMACHI MINAMIOBATAMAE","perfecture_jp":"宮城県","jp_add_1":"登米市","jp_add_2":"南方町大畑"},"9870422":{"post_code":"9870422","prefecture":"MIYAGI KEN","city":"TOME SHI","town":"MINAMIKATAMACHI YAMAZAKI","perfecture_jp":"宮城県","jp_add_1":"登米市","jp_add_2":"南方町大畠前"},"9870426":{"post_code":"9870426","prefecture":"MIYAGI KEN","city":"TOME SHI","town":"MINAMIKATAMACHI WAKASAMAE","perfecture_jp":"宮城県","jp_add_1":"登米市","jp_add_2":"南方町大袋"},"9870424":{"post_code":"9870424","prefecture":"MIYAGI KEN","city":"TOME SHI","town":"MINAMIKATAMACHI MINAMIHOSOKAWA","perfecture_jp":"宮城県","jp_add_1":"登米市","jp_add_2":"南方町風張"},"9870425":{"post_code":"9870425","prefecture":"MIYAGI KEN","city":"TOME SHI","town":"MINAMIKATAMACHI YONEBUKUROMAE","perfecture_jp":"宮城県","jp_add_1":"登米市","jp_add_2":"南方町梶沼"},"9870413":{"post_code":"9870413","prefecture":"MIYAGI KEN","city":"TOME SHI","town":"MINAMIKATAMACHI HARAYASHIKI","perfecture_jp":"宮城県","jp_add_1":"登米市","jp_add_2":"南方町上原"},"9870445":{"post_code":"9870445","prefecture":"MIYAGI KEN","city":"TOME SHI","town":"MINAMIKATAMACHI YOKUSAWA","perfecture_jp":"宮城県","jp_add_1":"登米市","jp_add_2":"南方町上平貝"},"9870404":{"post_code":"9870404","prefecture":"MIYAGI KEN","city":"TOME SHI","town":"MINAMIKATAMACHI SHINSHIMAMAE","perfecture_jp":"宮城県","jp_add_1":"登米市","jp_add_2":"南方町新島前"},"9870446":{"post_code":"9870446","prefecture":"MIYAGI KEN","city":"TOME SHI","town":"MINAMIKATAMACHI SHINTAKAISHIURA","perfecture_jp":"宮城県","jp_add_1":"登米市","jp_add_2":"南方町新高石浦"},"9870447":{"post_code":"9870447","prefecture":"MIYAGI KEN","city":"TOME SHI","town":"MINAMIKATAMACHI SHINNAGANESHITA","perfecture_jp":"宮城県","jp_add_1":"登米市","jp_add_2":"南方町新長根下"},"9870405":{"post_code":"9870405","prefecture":"MIYAGI KEN","city":"TOME SHI","town":"MINAMIKATAMACHI SHINNAKAYAMA","perfecture_jp":"宮城県","jp_add_1":"登米市","jp_add_2":"南方町新中山"},"9870401":{"post_code":"9870401","prefecture":"MIYAGI KEN","city":"TOME SHI","town":"MINAMIKATAMACHI YAMANARIMAE","perfecture_jp":"宮城県","jp_add_1":"登米市","jp_add_2":"南方町高石"},"9870415":{"post_code":"9870415","prefecture":"MIYAGI KEN","city":"TOME SHI","town":"MINAMIKATAMACHI MAGANUMA","perfecture_jp":"宮城県","jp_add_1":"登米市","jp_add_2":"南方町真ケ沼"},"9870307":{"post_code":"9870307","prefecture":"MIYAGI KEN","city":"TOME SHI","town":"YONEYAMACHO SARUGASAKI","perfecture_jp":"宮城県","jp_add_1":"登米市","jp_add_2":"米山町愛宕下"},"9870304":{"post_code":"9870304","prefecture":"MIYAGI KEN","city":"TOME SHI","town":"YONEYAMACHO NAKAMICHIMAE","perfecture_jp":"宮城県","jp_add_1":"登米市","jp_add_2":"米山町内"},"9870305":{"post_code":"9870305","prefecture":"MIYAGI KEN","city":"TOME SHI","town":"YONEYAMACHO HATTAN","perfecture_jp":"宮城県","jp_add_1":"登米市","jp_add_2":"米山町川前"},"9870308":{"post_code":"9870308","prefecture":"MIYAGI KEN","city":"TOME SHI","town":"YONEYAMACHO MACHIISHITA","perfecture_jp":"宮城県","jp_add_1":"登米市","jp_add_2":"米山町小待井"},"9870311":{"post_code":"9870311","prefecture":"MIYAGI KEN","city":"TOME SHI","town":"YONEYAMACHO SAKURAOKA","perfecture_jp":"宮城県","jp_add_1":"登米市","jp_add_2":"米山町桜岡"},"9870306":{"post_code":"9870306","prefecture":"MIYAGI KEN","city":"TOME SHI","town":"YONEYAMACHO TOSAGAFUCHI","perfecture_jp":"宮城県","jp_add_1":"登米市","jp_add_2":"米山町地蔵川"},"9870301":{"post_code":"9870301","prefecture":"MIYAGI KEN","city":"TOME SHI","town":"YONEYAMACHO ZENNOJI","perfecture_jp":"宮城県","jp_add_1":"登米市","jp_add_2":"米山町善王寺"},"9870309":{"post_code":"9870309","prefecture":"MIYAGI KEN","city":"TOME SHI","town":"YONEYAMACHO DATEMAE","perfecture_jp":"宮城県","jp_add_1":"登米市","jp_add_2":"米山町舘下"},"9870303":{"post_code":"9870303","prefecture":"MIYAGI KEN","city":"TOME SHI","town":"YONEYAMACHO TABATAMAE","perfecture_jp":"宮城県","jp_add_1":"登米市","jp_add_2":"米山町田畑西"},"9870331":{"post_code":"9870331","prefecture":"MIYAGI KEN","city":"TOME SHI","town":"YONEYAMACHO NAKATSUYAMA","perfecture_jp":"宮城県","jp_add_1":"登米市","jp_add_2":"米山町中津山"},"9870321":{"post_code":"9870321","prefecture":"MIYAGI KEN","city":"TOME SHI","town":"YONEYAMACHO NISHINO","perfecture_jp":"宮城県","jp_add_1":"登米市","jp_add_2":"米山町西野"},"9870302":{"post_code":"9870302","prefecture":"MIYAGI KEN","city":"TOME SHI","town":"YONEYAMACHO YAGURABASHITA","perfecture_jp":"宮城県","jp_add_1":"登米市","jp_add_2":"米山町沼田"},"9872200":{"post_code":"9872200","prefecture":"MIYAGI KEN","city":"KURIHARA SHI","town":"IKANIKEISAIGANAIBAAI","perfecture_jp":"宮城県","jp_add_1":"栗原市","jp_add_2":""},"9872372":{"post_code":"9872372","prefecture":"MIYAGI KEN","city":"KURIHARA SHI","town":"ICHIHASAMA AOKI","perfecture_jp":"宮城県","jp_add_1":"栗原市","jp_add_2":"一迫青木"},"9872369":{"post_code":"9872369","prefecture":"MIYAGI KEN","city":"KURIHARA SHI","town":"ICHIHASAMA ARAMACHI","perfecture_jp":"宮城県","jp_add_1":"栗原市","jp_add_2":"一迫荒町"},"9872336":{"post_code":"9872336","prefecture":"MIYAGI KEN","city":"KURIHARA SHI","town":"ICHIHASAMA ARAYASHIKI","perfecture_jp":"宮城県","jp_add_1":"栗原市","jp_add_2":"一迫荒屋敷"},"9872343":{"post_code":"9872343","prefecture":"MIYAGI KEN","city":"KURIHARA SHI","town":"ICHIHASAMA IPPONSUGI","perfecture_jp":"宮城県","jp_add_1":"栗原市","jp_add_2":"一迫一本杉"},"9872364":{"post_code":"9872364","prefecture":"MIYAGI KEN","city":"KURIHARA SHI","town":"ICHIHASAMA IWAGASAWA","perfecture_jp":"宮城県","jp_add_1":"栗原市","jp_add_2":"一迫岩ケ沢"},"9872351":{"post_code":"9872351","prefecture":"MIYAGI KEN","city":"KURIHARA SHI","town":"ICHIHASAMA UNANDA","perfecture_jp":"宮城県","jp_add_1":"栗原市","jp_add_2":"一迫宇南田"},"9872301":{"post_code":"9872301","prefecture":"MIYAGI KEN","city":"KURIHARA SHI","town":"ICHIHASAMA OKAWAGUCHI","perfecture_jp":"宮城県","jp_add_1":"栗原市","jp_add_2":"一迫大川口"},"9872362":{"post_code":"9872362","prefecture":"MIYAGI KEN","city":"KURIHARA SHI","town":"ICHIHASAMA OGURI","perfecture_jp":"宮城県","jp_add_1":"栗原市","jp_add_2":"一迫大栗"},"9872346":{"post_code":"9872346","prefecture":"MIYAGI KEN","city":"KURIHARA SHI","town":"ICHIHASAMA OSUZU","perfecture_jp":"宮城県","jp_add_1":"栗原市","jp_add_2":"一迫大清水"},"9872348":{"post_code":"9872348","prefecture":"MIYAGI KEN","city":"KURIHARA SHI","town":"ICHIHASAMA OHIRASAWA","perfecture_jp":"宮城県","jp_add_1":"栗原市","jp_add_2":"一迫大平沢"},"9872314":{"post_code":"9872314","prefecture":"MIYAGI KEN","city":"KURIHARA SHI","town":"ICHIHASAMA OKADA","perfecture_jp":"宮城県","jp_add_1":"栗原市","jp_add_2":"一迫岡田"},"9872313":{"post_code":"9872313","prefecture":"MIYAGI KEN","city":"KURIHARA SHI","town":"ICHIHASAMA OKI","perfecture_jp":"宮城県","jp_add_1":"栗原市","jp_add_2":"一迫沖"},"9872312":{"post_code":"9872312","prefecture":"MIYAGI KEN","city":"KURIHARA SHI","town":"ICHIHASAMA OKIURA","perfecture_jp":"宮城県","jp_add_1":"栗原市","jp_add_2":"一迫沖浦"},"9872355":{"post_code":"9872355","prefecture":"MIYAGI KEN","city":"KURIHARA SHI","town":"ICHIHASAMA KAJIYASHIKI","perfecture_jp":"宮城県","jp_add_1":"栗原市","jp_add_2":"一迫鍛冶屋敷"},"9872302":{"post_code":"9872302","prefecture":"MIYAGI KEN","city":"KURIHARA SHI","town":"ICHIHASAMA KATAGOZAWA","perfecture_jp":"宮城県","jp_add_1":"栗原市","jp_add_2":"一迫片子沢"},"9872367":{"post_code":"9872367","prefecture":"MIYAGI KEN","city":"KURIHARA SHI","town":"ICHIHASAMA KAMIODO","perfecture_jp":"宮城県","jp_add_1":"栗原市","jp_add_2":"一迫上大土"},"9872353":{"post_code":"9872353","prefecture":"MIYAGI KEN","city":"KURIHARA SHI","town":"ICHIHASAMA KAMIKUBO","perfecture_jp":"宮城県","jp_add_1":"栗原市","jp_add_2":"一迫上久保"},"9872339":{"post_code":"9872339","prefecture":"MIYAGI KEN","city":"KURIHARA SHI","town":"ICHIHASAMA KAMINAKAJIMA","perfecture_jp":"宮城県","jp_add_1":"栗原市","jp_add_2":"一迫上中島"},"9872303":{"post_code":"9872303","prefecture":"MIYAGI KEN","city":"KURIHARA SHI","town":"ICHIHASAMA KAWAGUCHI","perfecture_jp":"宮城県","jp_add_1":"栗原市","jp_add_2":"一迫川口"},"9872371":{"post_code":"9872371","prefecture":"MIYAGI KEN","city":"KURIHARA SHI","town":"ICHIHASAMA KAWADAI","perfecture_jp":"宮城県","jp_add_1":"栗原市","jp_add_2":"一迫川台"},"9872304":{"post_code":"9872304","prefecture":"MIYAGI KEN","city":"KURIHARA SHI","town":"ICHIHASAMA KITAZAWA","perfecture_jp":"宮城県","jp_add_1":"栗原市","jp_add_2":"一迫北沢"},"9872305":{"post_code":"9872305","prefecture":"MIYAGI KEN","city":"KURIHARA SHI","town":"ICHIHASAMA KITSUNEZAKI","perfecture_jp":"宮城県","jp_add_1":"栗原市","jp_add_2":"一迫狐崎"},"9872317":{"post_code":"9872317","prefecture":"MIYAGI KEN","city":"KURIHARA SHI","town":"ICHIHASAMA KUBOTA","perfecture_jp":"宮城県","jp_add_1":"栗原市","jp_add_2":"一迫久保田"},"9872315":{"post_code":"9872315","prefecture":"MIYAGI KEN","city":"KURIHARA SHI","town":"ICHIHASAMA KENGUIMOTO","perfecture_jp":"宮城県","jp_add_1":"栗原市","jp_add_2":"一迫間杭元"},"9872316":{"post_code":"9872316","prefecture":"MIYAGI KEN","city":"KURIHARA SHI","town":"ICHIHASAMA KOSAKAMOTO","perfecture_jp":"宮城県","jp_add_1":"栗原市","jp_add_2":"一迫小坂本"},"9872325":{"post_code":"9872325","prefecture":"MIYAGI KEN","city":"KURIHARA SHI","town":"ICHIHASAMA SAKASHITANISHI","perfecture_jp":"宮城県","jp_add_1":"栗原市","jp_add_2":"一迫坂下西"},"9872363":{"post_code":"9872363","prefecture":"MIYAGI KEN","city":"KURIHARA SHI","town":"ICHIHASAMA SANO","perfecture_jp":"宮城県","jp_add_1":"栗原市","jp_add_2":"一迫佐野"},"9872359":{"post_code":"9872359","prefecture":"MIYAGI KEN","city":"KURIHARA SHI","town":"ICHIHASAMA SANOBARA","perfecture_jp":"宮城県","jp_add_1":"栗原市","jp_add_2":"一迫佐野原"},"9872342":{"post_code":"9872342","prefecture":"MIYAGI KEN","city":"KURIHARA SHI","town":"ICHIHASAMA SAWADA","perfecture_jp":"宮城県","jp_add_1":"栗原市","jp_add_2":"一迫沢田"},"9872352":{"post_code":"9872352","prefecture":"MIYAGI KEN","city":"KURIHARA SHI","town":"ICHIHASAMA SHISHIGOME","perfecture_jp":"宮城県","jp_add_1":"栗原市","jp_add_2":"一迫鹿込"},"9872306":{"post_code":"9872306","prefecture":"MIYAGI KEN","city":"KURIHARA SHI","town":"ICHIHASAMA SHIMATAI","perfecture_jp":"宮城県","jp_add_1":"栗原市","jp_add_2":"一迫嶋躰"},"9872374":{"post_code":"9872374","prefecture":"MIYAGI KEN","city":"KURIHARA SHI","town":"ICHIHASAMA SHIMIZUBARA","perfecture_jp":"宮城県","jp_add_1":"栗原市","jp_add_2":"一迫清水原"},"9872368":{"post_code":"9872368","prefecture":"MIYAGI KEN","city":"KURIHARA SHI","town":"ICHIHASAMA SHIMOODO","perfecture_jp":"宮城県","jp_add_1":"栗原市","jp_add_2":"一迫下大土"},"9872358":{"post_code":"9872358","prefecture":"MIYAGI KEN","city":"KURIHARA SHI","town":"ICHIHASAMA SHIMOKOZO","perfecture_jp":"宮城県","jp_add_1":"栗原市","jp_add_2":"一迫下小僧"},"9872334":{"post_code":"9872334","prefecture":"MIYAGI KEN","city":"KURIHARA SHI","town":"ICHIHASAMA SHINZAN","perfecture_jp":"宮城県","jp_add_1":"栗原市","jp_add_2":"一迫神山"},"9872365":{"post_code":"9872365","prefecture":"MIYAGI KEN","city":"KURIHARA SHI","town":"ICHIHASAMA SHIMMAI","perfecture_jp":"宮城県","jp_add_1":"栗原市","jp_add_2":"一迫新米"},"9872307":{"post_code":"9872307","prefecture":"MIYAGI KEN","city":"KURIHARA SHI","town":"ICHIHASAMA SUZUNOME","perfecture_jp":"宮城県","jp_add_1":"栗原市","jp_add_2":"一迫清水目"},"9872349":{"post_code":"9872349","prefecture":"MIYAGI KEN","city":"KURIHARA SHI","town":"ICHIHASAMA DAIGIWA","perfecture_jp":"宮城県","jp_add_1":"栗原市","jp_add_2":"一迫大際"},"9872335":{"post_code":"9872335","prefecture":"MIYAGI KEN","city":"KURIHARA SHI","town":"ICHIHASAMA TAKADA","perfecture_jp":"宮城県","jp_add_1":"栗原市","jp_add_2":"一迫高田"},"9872332":{"post_code":"9872332","prefecture":"MIYAGI KEN","city":"KURIHARA SHI","town":"ICHIHASAMA TAKAHASHI","perfecture_jp":"宮城県","jp_add_1":"栗原市","jp_add_2":"一迫高橋"},"9872328":{"post_code":"9872328","prefecture":"MIYAGI KEN","city":"KURIHARA SHI","town":"ICHIHASAMA TSUCHIKAWA","perfecture_jp":"宮城県","jp_add_1":"栗原市","jp_add_2":"一迫土川"},"9872327":{"post_code":"9872327","prefecture":"MIYAGI KEN","city":"KURIHARA SHI","town":"ICHIHASAMA TENJIN","perfecture_jp":"宮城県","jp_add_1":"栗原市","jp_add_2":"一迫天神"},"9872361":{"post_code":"9872361","prefecture":"MIYAGI KEN","city":"KURIHARA SHI","town":"ICHIHASAMA NAKAKOZO","perfecture_jp":"宮城県","jp_add_1":"栗原市","jp_add_2":"一迫中小僧"},"9872341":{"post_code":"9872341","prefecture":"MIYAGI KEN","city":"KURIHARA SHI","town":"ICHIHASAMA NAKAYASHIKIURA","perfecture_jp":"宮城県","jp_add_1":"栗原市","jp_add_2":"一迫中屋敷浦"},"9872354":{"post_code":"9872354","prefecture":"MIYAGI KEN","city":"KURIHARA SHI","town":"ICHIHASAMA NARAI","perfecture_jp":"宮城県","jp_add_1":"栗原市","jp_add_2":"一迫西風"},"9872357":{"post_code":"9872357","prefecture":"MIYAGI KEN","city":"KURIHARA SHI","town":"ICHIHASAMA NUMATA","perfecture_jp":"宮城県","jp_add_1":"栗原市","jp_add_2":"一迫沼田"},"9872331":{"post_code":"9872331","prefecture":"MIYAGI KEN","city":"KURIHARA SHI","town":"ICHIHASAMA HAGIU","perfecture_jp":"宮城県","jp_add_1":"栗原市","jp_add_2":"一迫萩生"},"9872338":{"post_code":"9872338","prefecture":"MIYAGI KEN","city":"KURIHARA SHI","town":"ICHIHASAMA HINATA","perfecture_jp":"宮城県","jp_add_1":"栗原市","jp_add_2":"一迫日向"},"9872347":{"post_code":"9872347","prefecture":"MIYAGI KEN","city":"KURIHARA SHI","town":"ICHIHASAMA HIRADATE","perfecture_jp":"宮城県","jp_add_1":"栗原市","jp_add_2":"一迫平館"},"9872373":{"post_code":"9872373","prefecture":"MIYAGI KEN","city":"KURIHARA SHI","town":"ICHIHASAMA FUDONISHI","perfecture_jp":"宮城県","jp_add_1":"栗原市","jp_add_2":"一迫不動西"},"9872329":{"post_code":"9872329","prefecture":"MIYAGI KEN","city":"KURIHARA SHI","town":"ICHIHASAMA HOSOGOE","perfecture_jp":"宮城県","jp_add_1":"栗原市","jp_add_2":"一迫細越"},"9872308":{"post_code":"9872308","prefecture":"MIYAGI KEN","city":"KURIHARA SHI","town":"ICHIHASAMA MASAKA","perfecture_jp":"宮城県","jp_add_1":"栗原市","jp_add_2":"一迫真坂"},"9872318":{"post_code":"9872318","prefecture":"MIYAGI KEN","city":"KURIHARA SHI","town":"ICHIHASAMA MATSUNOKI","perfecture_jp":"宮城県","jp_add_1":"栗原市","jp_add_2":"一迫松の木"},"9872337":{"post_code":"9872337","prefecture":"MIYAGI KEN","city":"KURIHARA SHI","town":"ICHIHASAMA MATSUBARAZAWA","perfecture_jp":"宮城県","jp_add_1":"栗原市","jp_add_2":"一迫松原沢"},"9872311":{"post_code":"9872311","prefecture":"MIYAGI KEN","city":"KURIHARA SHI","town":"ICHIHASAMA MISAKI","perfecture_jp":"宮城県","jp_add_1":"栗原市","jp_add_2":"一迫御崎"},"9872324":{"post_code":"9872324","prefecture":"MIYAGI KEN","city":"KURIHARA SHI","town":"ICHIHASAMA MISHIMA","perfecture_jp":"宮城県","jp_add_1":"栗原市","jp_add_2":"一迫三嶋"},"9872344":{"post_code":"9872344","prefecture":"MIYAGI KEN","city":"KURIHARA SHI","town":"ICHIHASAMA MIYAJITA","perfecture_jp":"宮城県","jp_add_1":"栗原市","jp_add_2":"一迫宮下"},"9872319":{"post_code":"9872319","prefecture":"MIYAGI KEN","city":"KURIHARA SHI","town":"ICHIHASAMA MIYAMAE","perfecture_jp":"宮城県","jp_add_1":"栗原市","jp_add_2":"一迫宮前"},"9872323":{"post_code":"9872323","prefecture":"MIYAGI KEN","city":"KURIHARA SHI","town":"ICHIHASAMA MEGOMACHI","perfecture_jp":"宮城県","jp_add_1":"栗原市","jp_add_2":"一迫女子町"},"9872345":{"post_code":"9872345","prefecture":"MIYAGI KEN","city":"KURIHARA SHI","town":"ICHIHASAMA YASHIKIDA","perfecture_jp":"宮城県","jp_add_1":"栗原市","jp_add_2":"一迫屋敷田"},"9872309":{"post_code":"9872309","prefecture":"MIYAGI KEN","city":"KURIHARA SHI","town":"ICHIHASAMA YANAGINOME","perfecture_jp":"宮城県","jp_add_1":"栗原市","jp_add_2":"一迫柳目"},"9872326":{"post_code":"9872326","prefecture":"MIYAGI KEN","city":"KURIHARA SHI","town":"ICHIHASAMA YAMAZAKI","perfecture_jp":"宮城県","jp_add_1":"栗原市","jp_add_2":"一迫山崎"},"9872356":{"post_code":"9872356","prefecture":"MIYAGI KEN","city":"KURIHARA SHI","town":"ICHIHASAMA YAMASAWA","perfecture_jp":"宮城県","jp_add_1":"栗原市","jp_add_2":"一迫山沢"},"9872333":{"post_code":"9872333","prefecture":"MIYAGI KEN","city":"KURIHARA SHI","town":"ICHIHASAMA YOGAI","perfecture_jp":"宮城県","jp_add_1":"栗原市","jp_add_2":"一迫要害"},"9872321":{"post_code":"9872321","prefecture":"MIYAGI KEN","city":"KURIHARA SHI","town":"ICHIHASAMA YOKOMACHI","perfecture_jp":"宮城県","jp_add_1":"栗原市","jp_add_2":"一迫横町"},"9872322":{"post_code":"9872322","prefecture":"MIYAGI KEN","city":"KURIHARA SHI","town":"ICHIHASAMA YOKOMACHIURA","perfecture_jp":"宮城県","jp_add_1":"栗原市","jp_add_2":"一迫横町浦"},"9872366":{"post_code":"9872366","prefecture":"MIYAGI KEN","city":"KURIHARA SHI","town":"ICHIHASAMA RONDEN","perfecture_jp":"宮城県","jp_add_1":"栗原市","jp_add_2":"一迫論田"},"9872033":{"post_code":"9872033","prefecture":"MIYAGI KEN","city":"KURIHARA SHI","town":"TAKASHIMIZU AZANO","perfecture_jp":"宮城県","jp_add_1":"栗原市","jp_add_2":"高清水浅野"},"9872035":{"post_code":"9872035","prefecture":"MIYAGI KEN","city":"KURIHARA SHI","town":"TAKASHIMIZU AZANOMAE","perfecture_jp":"宮城県","jp_add_1":"栗原市","jp_add_2":"高清水浅野前"},"9872185":{"post_code":"9872185","prefecture":"MIYAGI KEN","city":"KURIHARA SHI","town":"TAKASHIMIZU ARAMACHI","perfecture_jp":"宮城県","jp_add_1":"栗原市","jp_add_2":"高清水新町"},"9872017":{"post_code":"9872017","prefecture":"MIYAGI KEN","city":"KURIHARA SHI","town":"TAKASHIMIZU ISHIZAWA","perfecture_jp":"宮城県","jp_add_1":"栗原市","jp_add_2":"高清水石沢"},"9872018":{"post_code":"9872018","prefecture":"MIYAGI KEN","city":"KURIHARA SHI","town":"TAKASHIMIZU ISHIZAWAURA","perfecture_jp":"宮城県","jp_add_1":"栗原市","jp_add_2":"高清水石沢浦"},"9872115":{"post_code":"9872115","prefecture":"MIYAGI KEN","city":"KURIHARA SHI","town":"TAKASHIMIZU IPPOMMATSU","perfecture_jp":"宮城県","jp_add_1":"栗原市","jp_add_2":"高清水一本松"},"9872004":{"post_code":"9872004","prefecture":"MIYAGI KEN","city":"KURIHARA SHI","town":"TAKASHIMIZU URAMINAMISAWA","perfecture_jp":"宮城県","jp_add_1":"栗原市","jp_add_2":"高清水浦南沢"},"9872014":{"post_code":"9872014","prefecture":"MIYAGI KEN","city":"KURIHARA SHI","town":"TAKASHIMIZU OSAWA","perfecture_jp":"宮城県","jp_add_1":"栗原市","jp_add_2":"高清水大沢"},"9872025":{"post_code":"9872025","prefecture":"MIYAGI KEN","city":"KURIHARA SHI","town":"TAKASHIMIZU ONISHI","perfecture_jp":"宮城県","jp_add_1":"栗原市","jp_add_2":"高清水大西"},"9872054":{"post_code":"9872054","prefecture":"MIYAGI KEN","city":"KURIHARA SHI","town":"TAKASHIMIZU OKI","perfecture_jp":"宮城県","jp_add_1":"栗原市","jp_add_2":"高清水沖"},"9872146":{"post_code":"9872146","prefecture":"MIYAGI KEN","city":"KURIHARA SHI","town":"TAKASHIMIZU HEIMAKIBORI","perfecture_jp":"宮城県","jp_add_1":"栗原市","jp_add_2":"高清水乙牧堀"},"9872188":{"post_code":"9872188","prefecture":"MIYAGI KEN","city":"KURIHARA SHI","town":"TAKASHIMIZU OYAMASHITA","perfecture_jp":"宮城県","jp_add_1":"栗原市","jp_add_2":"高清水小山下"},"9872024":{"post_code":"9872024","prefecture":"MIYAGI KEN","city":"KURIHARA SHI","town":"TAKASHIMIZU OYAMADA","perfecture_jp":"宮城県","jp_add_1":"栗原市","jp_add_2":"高清水小山田"},"9872113":{"post_code":"9872113","prefecture":"MIYAGI KEN","city":"KURIHARA SHI","town":"TAKASHIMIZU ORIKI","perfecture_jp":"宮城県","jp_add_1":"栗原市","jp_add_2":"高清水折木"},"9872143":{"post_code":"9872143","prefecture":"MIYAGI KEN","city":"KURIHARA SHI","town":"TAKASHIMIZU KAKUMANJI","perfecture_jp":"宮城県","jp_add_1":"栗原市","jp_add_2":"高清水覚満寺"},"9872111":{"post_code":"9872111","prefecture":"MIYAGI KEN","city":"KURIHARA SHI","town":"TAKASHIMIZU KAGENOSAWA","perfecture_jp":"宮城県","jp_add_1":"栗原市","jp_add_2":"高清水影の沢"},"9872013":{"post_code":"9872013","prefecture":"MIYAGI KEN","city":"KURIHARA SHI","town":"TAKASHIMIZU KAKEYASHIKI","perfecture_jp":"宮城県","jp_add_1":"栗原市","jp_add_2":"高清水欠屋敷"},"9872173":{"post_code":"9872173","prefecture":"MIYAGI KEN","city":"KURIHARA SHI","town":"TAKASHIMIZU KATSURAHA","perfecture_jp":"宮城県","jp_add_1":"栗原市","jp_add_2":"高清水桂葉"},"9872001":{"post_code":"9872001","prefecture":"MIYAGI KEN","city":"KURIHARA SHI","town":"TAKASHIMIZU KANISAWASHIRI","perfecture_jp":"宮城県","jp_add_1":"栗原市","jp_add_2":"高清水蟹沢尻"},"9872112":{"post_code":"9872112","prefecture":"MIYAGI KEN","city":"KURIHARA SHI","town":"TAKASHIMIZU KAMIORIKI","perfecture_jp":"宮城県","jp_add_1":"栗原市","jp_add_2":"高清水上折木"},"9872174":{"post_code":"9872174","prefecture":"MIYAGI KEN","city":"KURIHARA SHI","town":"TAKASHIMIZU KAMIKATSURAHA","perfecture_jp":"宮城県","jp_add_1":"栗原市","jp_add_2":"高清水上桂葉"},"9872121":{"post_code":"9872121","prefecture":"MIYAGI KEN","city":"KURIHARA SHI","town":"TAKASHIMIZU KAMISANO","perfecture_jp":"宮城県","jp_add_1":"栗原市","jp_add_2":"高清水上佐野"},"9872141":{"post_code":"9872141","prefecture":"MIYAGI KEN","city":"KURIHARA SHI","town":"TAKASHIMIZU KITAJINROKUHARA","perfecture_jp":"宮城県","jp_add_1":"栗原市","jp_add_2":"高清水上外沢田"},"9872158":{"post_code":"9872158","prefecture":"MIYAGI KEN","city":"KURIHARA SHI","town":"TAKASHIMIZU MOTOMICHI","perfecture_jp":"宮城県","jp_add_1":"栗原市","jp_add_2":"高清水上萩田"},"9872155":{"post_code":"9872155","prefecture":"MIYAGI KEN","city":"KURIHARA SHI","town":"TAKASHIMIZU KAYAKARI","perfecture_jp":"宮城県","jp_add_1":"栗原市","jp_add_2":"高清水萱刈"},"9872147":{"post_code":"9872147","prefecture":"MIYAGI KEN","city":"KURIHARA SHI","town":"TAKASHIMIZU KANNONDO","perfecture_jp":"宮城県","jp_add_1":"栗原市","jp_add_2":"高清水観音沢"},"9872021":{"post_code":"9872021","prefecture":"MIYAGI KEN","city":"KURIHARA SHI","town":"TAKASHIMIZU KAMPARA","perfecture_jp":"宮城県","jp_add_1":"栗原市","jp_add_2":"高清水神原"},"9872153":{"post_code":"9872153","prefecture":"MIYAGI KEN","city":"KURIHARA SHI","town":"TAKASHIMIZU KITAHARA","perfecture_jp":"宮城県","jp_add_1":"栗原市","jp_add_2":"高清水北原"},"9872011":{"post_code":"9872011","prefecture":"MIYAGI KEN","city":"KURIHARA SHI","town":"TAKASHIMIZU KYONOSAWA","perfecture_jp":"宮城県","jp_add_1":"栗原市","jp_add_2":"高清水京の沢"},"9872026":{"post_code":"9872026","prefecture":"MIYAGI KEN","city":"KURIHARA SHI","town":"TAKASHIMIZU KUMANO","perfecture_jp":"宮城県","jp_add_1":"栗原市","jp_add_2":"高清水熊野"},"9872023":{"post_code":"9872023","prefecture":"MIYAGI KEN","city":"KURIHARA SHI","town":"TAKASHIMIZU KUMANODO","perfecture_jp":"宮城県","jp_add_1":"栗原市","jp_add_2":"高清水熊野堂"},"9872175":{"post_code":"9872175","prefecture":"MIYAGI KEN","city":"KURIHARA SHI","town":"TAKASHIMIZU GORIN","perfecture_jp":"宮城県","jp_add_1":"栗原市","jp_add_2":"高清水五輪"},"9872133":{"post_code":"9872133","prefecture":"MIYAGI KEN","city":"KURIHARA SHI","town":"TAKASHIMIZU SAKURACHO","perfecture_jp":"宮城県","jp_add_1":"栗原市","jp_add_2":"高清水桜丁"},"9872055":{"post_code":"9872055","prefecture":"MIYAGI KEN","city":"KURIHARA SHI","town":"TAKASHIMIZU SATSUKIDA","perfecture_jp":"宮城県","jp_add_1":"栗原市","jp_add_2":"高清水五月田"},"9872127":{"post_code":"9872127","prefecture":"MIYAGI KEN","city":"KURIHARA SHI","town":"TAKASHIMIZU TAISHIDO","perfecture_jp":"宮城県","jp_add_1":"栗原市","jp_add_2":"高清水佐野沢田"},"9872128":{"post_code":"9872128","prefecture":"MIYAGI KEN","city":"KURIHARA SHI","town":"TAKASHIMIZU SANOCHO","perfecture_jp":"宮城県","jp_add_1":"栗原市","jp_add_2":"高清水佐野丁"},"9872189":{"post_code":"9872189","prefecture":"MIYAGI KEN","city":"KURIHARA SHI","town":"TAKASHIMIZU SHITAMACHI","perfecture_jp":"宮城県","jp_add_1":"栗原市","jp_add_2":"高清水下町"},"9872114":{"post_code":"9872114","prefecture":"MIYAGI KEN","city":"KURIHARA SHI","town":"TAKASHIMIZU SHIMORIKI","perfecture_jp":"宮城県","jp_add_1":"栗原市","jp_add_2":"高清水下折木"},"9872124":{"post_code":"9872124","prefecture":"MIYAGI KEN","city":"KURIHARA SHI","town":"TAKASHIMIZU SHIMOSANO","perfecture_jp":"宮城県","jp_add_1":"栗原市","jp_add_2":"高清水下佐野"},"9872125":{"post_code":"9872125","prefecture":"MIYAGI KEN","city":"KURIHARA SHI","town":"TAKASHIMIZU JUNINOKAMI","perfecture_jp":"宮城県","jp_add_1":"栗原市","jp_add_2":"高清水十二の神"},"9872042":{"post_code":"9872042","prefecture":"MIYAGI KEN","city":"KURIHARA SHI","town":"TAKASHIMIZU SHUKUNOSAWA","perfecture_jp":"宮城県","jp_add_1":"栗原市","jp_add_2":"高清水宿の沢"},"9872163":{"post_code":"9872163","prefecture":"MIYAGI KEN","city":"KURIHARA SHI","town":"TAKASHIMIZU SHOBUGAMACHI","perfecture_jp":"宮城県","jp_add_1":"栗原市","jp_add_2":"高清水勝負ケ町"},"9872177":{"post_code":"9872177","prefecture":"MIYAGI KEN","city":"KURIHARA SHI","town":"TAKASHIMIZU SHINKATSURAHA","perfecture_jp":"宮城県","jp_add_1":"栗原市","jp_add_2":"高清水新桂葉"},"9872123":{"post_code":"9872123","prefecture":"MIYAGI KEN","city":"KURIHARA SHI","town":"TAKASHIMIZU SHINSANO","perfecture_jp":"宮城県","jp_add_1":"栗原市","jp_add_2":"高清水新佐野"},"9872164":{"post_code":"9872164","prefecture":"MIYAGI KEN","city":"KURIHARA SHI","town":"TAKASHIMIZU SHINSHIMMEI","perfecture_jp":"宮城県","jp_add_1":"栗原市","jp_add_2":"高清水新神明"},"9872031":{"post_code":"9872031","prefecture":"MIYAGI KEN","city":"KURIHARA SHI","town":"TAKASHIMIZU SHINDEN","perfecture_jp":"宮城県","jp_add_1":"栗原市","jp_add_2":"高清水新田"},"9872161":{"post_code":"9872161","prefecture":"MIYAGI KEN","city":"KURIHARA SHI","town":"TAKASHIMIZU SHIMMEI","perfecture_jp":"宮城県","jp_add_1":"栗原市","jp_add_2":"高清水神明"},"9872156":{"post_code":"9872156","prefecture":"MIYAGI KEN","city":"KURIHARA SHI","town":"TAKASHIMIZU SENGAMI","perfecture_jp":"宮城県","jp_add_1":"栗原市","jp_add_2":"高清水千神"},"9872184":{"post_code":"9872184","prefecture":"MIYAGI KEN","city":"KURIHARA SHI","town":"TAKASHIMIZU ZENKOJI","perfecture_jp":"宮城県","jp_add_1":"栗原市","jp_add_2":"高清水善光寺"},"9872183":{"post_code":"9872183","prefecture":"MIYAGI KEN","city":"KURIHARA SHI","town":"TAKASHIMIZU SODEYAMA","perfecture_jp":"宮城県","jp_add_1":"栗原市","jp_add_2":"高清水袖山"},"9872142":{"post_code":"9872142","prefecture":"MIYAGI KEN","city":"KURIHARA SHI","town":"TAKASHIMIZU SOTOSAWADA","perfecture_jp":"宮城県","jp_add_1":"栗原市","jp_add_2":"高清水外沢田"},"9872126":{"post_code":"9872126","prefecture":"MIYAGI KEN","city":"KURIHARA SHI","town":"TAKASHIMIZU DAITERA","perfecture_jp":"宮城県","jp_add_1":"栗原市","jp_add_2":"高清水大寺"},"9872144":{"post_code":"9872144","prefecture":"MIYAGI KEN","city":"KURIHARA SHI","town":"TAKASHIMIZU DAIMACHI","perfecture_jp":"宮城県","jp_add_1":"栗原市","jp_add_2":"高清水台町"},"9872171":{"post_code":"9872171","prefecture":"MIYAGI KEN","city":"KURIHARA SHI","town":"TAKASHIMIZU CHOFUKUJI","perfecture_jp":"宮城県","jp_add_1":"栗原市","jp_add_2":"高清水長福寺"},"9872044":{"post_code":"9872044","prefecture":"MIYAGI KEN","city":"KURIHARA SHI","town":"TAKASHIMIZU TSUTSUMISHITA","perfecture_jp":"宮城県","jp_add_1":"栗原市","jp_add_2":"高清水堤下"},"9872162":{"post_code":"9872162","prefecture":"MIYAGI KEN","city":"KURIHARA SHI","town":"TAKASHIMIZU TEISHIMMEI","perfecture_jp":"宮城県","jp_add_1":"栗原市","jp_add_2":"高清水丁神明"},"9872043":{"post_code":"9872043","prefecture":"MIYAGI KEN","city":"KURIHARA SHI","town":"TAKASHIMIZU TEDORI","perfecture_jp":"宮城県","jp_add_1":"栗原市","jp_add_2":"高清水手取"},"9872152":{"post_code":"9872152","prefecture":"MIYAGI KEN","city":"KURIHARA SHI","town":"TAKASHIMIZU TENNOSAWA","perfecture_jp":"宮城県","jp_add_1":"栗原市","jp_add_2":"高清水天王沢"},"9872182":{"post_code":"9872182","prefecture":"MIYAGI KEN","city":"KURIHARA SHI","town":"TAKASHIMIZU NAKAZATO","perfecture_jp":"宮城県","jp_add_1":"栗原市","jp_add_2":"高清水中里"},"9872122":{"post_code":"9872122","prefecture":"MIYAGI KEN","city":"KURIHARA SHI","town":"TAKASHIMIZU NAKASANO","perfecture_jp":"宮城県","jp_add_1":"栗原市","jp_add_2":"高清水中佐野"},"9872157":{"post_code":"9872157","prefecture":"MIYAGI KEN","city":"KURIHARA SHI","town":"TAKASHIMIZU NAKANOKUKI","perfecture_jp":"宮城県","jp_add_1":"栗原市","jp_add_2":"高清水中の茎"},"9872012":{"post_code":"9872012","prefecture":"MIYAGI KEN","city":"KURIHARA SHI","town":"TAKASHIMIZU NAKANOSAWA","perfecture_jp":"宮城県","jp_add_1":"栗原市","jp_add_2":"高清水中の沢"},"9872186":{"post_code":"9872186","prefecture":"MIYAGI KEN","city":"KURIHARA SHI","town":"TAKASHIMIZU NAKAMACHI","perfecture_jp":"宮城県","jp_add_1":"栗原市","jp_add_2":"高清水中町"},"9872176":{"post_code":"9872176","prefecture":"MIYAGI KEN","city":"KURIHARA SHI","town":"TAKASHIMIZU NISHIZENKOJI","perfecture_jp":"宮城県","jp_add_1":"栗原市","jp_add_2":"高清水西善光寺"},"9872045":{"post_code":"9872045","prefecture":"MIYAGI KEN","city":"KURIHARA SHI","town":"TAKASHIMIZU NISHITETORI","perfecture_jp":"宮城県","jp_add_1":"栗原市","jp_add_2":"高清水西手取"},"9872015":{"post_code":"9872015","prefecture":"MIYAGI KEN","city":"KURIHARA SHI","town":"TAKASHIMIZU NISHINAKAZATO","perfecture_jp":"宮城県","jp_add_1":"栗原市","jp_add_2":"高清水西中里"},"9872005":{"post_code":"9872005","prefecture":"MIYAGI KEN","city":"KURIHARA SHI","town":"TAKASHIMIZU NUKARISAWA","perfecture_jp":"宮城県","jp_add_1":"栗原市","jp_add_2":"高清水忽滑沢"},"9872022":{"post_code":"9872022","prefecture":"MIYAGI KEN","city":"KURIHARA SHI","town":"TAKASHIMIZU HARA","perfecture_jp":"宮城県","jp_add_1":"栗原市","jp_add_2":"高清水原"},"9872151":{"post_code":"9872151","prefecture":"MIYAGI KEN","city":"KURIHARA SHI","town":"TAKASHIMIZU MUKEGAERI","perfecture_jp":"宮城県","jp_add_1":"栗原市","jp_add_2":"高清水東浦"},"9872181":{"post_code":"9872181","prefecture":"MIYAGI KEN","city":"KURIHARA SHI","town":"TAKASHIMIZU HIGASHIZENKOJI","perfecture_jp":"宮城県","jp_add_1":"栗原市","jp_add_2":"高清水東善光寺"},"9872132":{"post_code":"9872132","prefecture":"MIYAGI KEN","city":"KURIHARA SHI","town":"TAKASHIMIZU HIGASHITATE","perfecture_jp":"宮城県","jp_add_1":"栗原市","jp_add_2":"高清水東館"},"9872028":{"post_code":"9872028","prefecture":"MIYAGI KEN","city":"KURIHARA SHI","town":"TAKASHIMIZU HINATA","perfecture_jp":"宮城県","jp_add_1":"栗原市","jp_add_2":"高清水日向"},"9872003":{"post_code":"9872003","prefecture":"MIYAGI KEN","city":"KURIHARA SHI","town":"TAKASHIMIZU FUKUTSUKA","perfecture_jp":"宮城県","jp_add_1":"栗原市","jp_add_2":"高清水福塚"},"9872053":{"post_code":"9872053","prefecture":"MIYAGI KEN","city":"KURIHARA SHI","town":"TAKASHIMIZU FUCHIGIWA","perfecture_jp":"宮城県","jp_add_1":"栗原市","jp_add_2":"高清水渕際"},"9872159":{"post_code":"9872159","prefecture":"MIYAGI KEN","city":"KURIHARA SHI","town":"TAKASHIMIZU MATSUNOKISAWADA","perfecture_jp":"宮城県","jp_add_1":"栗原市","jp_add_2":"高清水松の木沢田"},"9872172":{"post_code":"9872172","prefecture":"MIYAGI KEN","city":"KURIHARA SHI","town":"TAKASHIMIZU MATSUBARA","perfecture_jp":"宮城県","jp_add_1":"栗原市","jp_add_2":"高清水松原"},"9872131":{"post_code":"9872131","prefecture":"MIYAGI KEN","city":"KURIHARA SHI","town":"TAKASHIMIZU MIZUNOTE","perfecture_jp":"宮城県","jp_add_1":"栗原市","jp_add_2":"高清水水の手"},"9872036":{"post_code":"9872036","prefecture":"MIYAGI KEN","city":"KURIHARA SHI","town":"TAKASHIMIZU MINAMISAWA","perfecture_jp":"宮城県","jp_add_1":"栗原市","jp_add_2":"高清水南沢"},"9872154":{"post_code":"9872154","prefecture":"MIYAGI KEN","city":"KURIHARA SHI","town":"TAKASHIMIZU MINAMIHARA","perfecture_jp":"宮城県","jp_add_1":"栗原市","jp_add_2":"高清水南原"},"9872051":{"post_code":"9872051","prefecture":"MIYAGI KEN","city":"KURIHARA SHI","town":"TAKASHIMIZU MIMORI","perfecture_jp":"宮城県","jp_add_1":"栗原市","jp_add_2":"高清水三森"},"9872052":{"post_code":"9872052","prefecture":"MIYAGI KEN","city":"KURIHARA SHI","town":"TAKASHIMIZU MIYANOWAKI","perfecture_jp":"宮城県","jp_add_1":"栗原市","jp_add_2":"高清水宮脇"},"9872034":{"post_code":"9872034","prefecture":"MIYAGI KEN","city":"KURIHARA SHI","town":"TAKASHIMIZU MYOKAN","perfecture_jp":"宮城県","jp_add_1":"栗原市","jp_add_2":"高清水明官"},"9872145":{"post_code":"9872145","prefecture":"MIYAGI KEN","city":"KURIHARA SHI","town":"TAKASHIMIZU MUKAINO","perfecture_jp":"宮城県","jp_add_1":"栗原市","jp_add_2":"高清水向野"},"9872187":{"post_code":"9872187","prefecture":"MIYAGI KEN","city":"KURIHARA SHI","town":"TAKASHIMIZU MOTOMACHI","perfecture_jp":"宮城県","jp_add_1":"栗原市","jp_add_2":"高清水本町"},"9872016":{"post_code":"9872016","prefecture":"MIYAGI KEN","city":"KURIHARA SHI","town":"TAKASHIMIZU MOROGUTA","perfecture_jp":"宮城県","jp_add_1":"栗原市","jp_add_2":"高清水茂路具多"},"9872002":{"post_code":"9872002","prefecture":"MIYAGI KEN","city":"KURIHARA SHI","town":"TAKASHIMIZU YAEKABE","perfecture_jp":"宮城県","jp_add_1":"栗原市","jp_add_2":"高清水八重壁"},"9872041":{"post_code":"9872041","prefecture":"MIYAGI KEN","city":"KURIHARA SHI","town":"TAKASHIMIZU YONOMORI","perfecture_jp":"宮城県","jp_add_1":"栗原市","jp_add_2":"高清水要の森"},"9872032":{"post_code":"9872032","prefecture":"MIYAGI KEN","city":"KURIHARA SHI","town":"TAKASHIMIZU YOKOTE","perfecture_jp":"宮城県","jp_add_1":"栗原市","jp_add_2":"高清水横手"},"9872116":{"post_code":"9872116","prefecture":"MIYAGI KEN","city":"KURIHARA SHI","town":"TAKASHIMIZU RAIKOZAWA","perfecture_jp":"宮城県","jp_add_1":"栗原市","jp_add_2":"高清水来光沢"},"9872027":{"post_code":"9872027","prefecture":"MIYAGI KEN","city":"KURIHARA SHI","town":"TAKASHIMIZU WAKAMIYA","perfecture_jp":"宮城県","jp_add_1":"栗原市","jp_add_2":"高清水若宮"},"9872253":{"post_code":"9872253","prefecture":"MIYAGI KEN","city":"KURIHARA SHI","town":"TSUKIDATE AONO","perfecture_jp":"宮城県","jp_add_1":"栗原市","jp_add_2":"築館青野"},"9872231":{"post_code":"9872231","prefecture":"MIYAGI KEN","city":"KURIHARA SHI","town":"TSUKIDATE AKASAKA","perfecture_jp":"宮城県","jp_add_1":"栗原市","jp_add_2":"築館赤坂"},"9872245":{"post_code":"9872245","prefecture":"MIYAGI KEN","city":"KURIHARA SHI","town":"TSUKIDATE ARATAZAWA","perfecture_jp":"宮城県","jp_add_1":"栗原市","jp_add_2":"築館荒田沢"},"9872216":{"post_code":"9872216","prefecture":"MIYAGI KEN","city":"KURIHARA SHI","town":"TSUKIDATE IZU","perfecture_jp":"宮城県","jp_add_1":"栗原市","jp_add_2":"築館伊豆"},"9872271":{"post_code":"9872271","prefecture":"MIYAGI KEN","city":"KURIHARA SHI","town":"TSUKIDATE IMOZONE","perfecture_jp":"宮城県","jp_add_1":"栗原市","jp_add_2":"築館芋埣"},"9872214":{"post_code":"9872214","prefecture":"MIYAGI KEN","city":"KURIHARA SHI","town":"TSUKIDATE UCHISAWA","perfecture_jp":"宮城県","jp_add_1":"栗原市","jp_add_2":"築館内沢"},"9872213":{"post_code":"9872213","prefecture":"MIYAGI KEN","city":"KURIHARA SHI","town":"TSUKIDATE UCHIMINAMIZAWA","perfecture_jp":"宮城県","jp_add_1":"栗原市","jp_add_2":"築館内南沢"},"9872225":{"post_code":"9872225","prefecture":"MIYAGI KEN","city":"KURIHARA SHI","town":"TSUKIDATE OTA","perfecture_jp":"宮城県","jp_add_1":"栗原市","jp_add_2":"築館太田"},"9872236":{"post_code":"9872236","prefecture":"MIYAGI KEN","city":"KURIHARA SHI","town":"TSUKIDATE KANISAWA","perfecture_jp":"宮城県","jp_add_1":"栗原市","jp_add_2":"築館蟹沢"},"9872246":{"post_code":"9872246","prefecture":"MIYAGI KEN","city":"KURIHARA SHI","town":"TSUKIDATE KAMITAKAMORI","perfecture_jp":"宮城県","jp_add_1":"栗原市","jp_add_2":"築館上高森"},"9872275":{"post_code":"9872275","prefecture":"MIYAGI KEN","city":"KURIHARA SHI","town":"TSUKIDATE KAMIMIYANO","perfecture_jp":"宮城県","jp_add_1":"栗原市","jp_add_2":"築館上宮野"},"9872262":{"post_code":"9872262","prefecture":"MIYAGI KEN","city":"KURIHARA SHI","town":"TSUKIDATE KARATAKEBAYASHI","perfecture_jp":"宮城県","jp_add_1":"栗原市","jp_add_2":"築館唐竹林"},"9872228":{"post_code":"9872228","prefecture":"MIYAGI KEN","city":"KURIHARA SHI","town":"TSUKIDATE KAWAZOE","perfecture_jp":"宮城県","jp_add_1":"栗原市","jp_add_2":"築館川添"},"9872212":{"post_code":"9872212","prefecture":"MIYAGI KEN","city":"KURIHARA SHI","town":"TSUKIDATE KIDO","perfecture_jp":"宮城県","jp_add_1":"栗原市","jp_add_2":"築館木戸"},"9872261":{"post_code":"9872261","prefecture":"MIYAGI KEN","city":"KURIHARA SHI","town":"TSUKIDATE KYUDEN","perfecture_jp":"宮城県","jp_add_1":"栗原市","jp_add_2":"築館久伝"},"9872204":{"post_code":"9872204","prefecture":"MIYAGI KEN","city":"KURIHARA SHI","town":"TSUKIDATE KUROSE","perfecture_jp":"宮城県","jp_add_1":"栗原市","jp_add_2":"築館黒瀬"},"9872211":{"post_code":"9872211","prefecture":"MIYAGI KEN","city":"KURIHARA SHI","town":"TSUKIDATE GENKO","perfecture_jp":"宮城県","jp_add_1":"栗原市","jp_add_2":"築館源光"},"9872273":{"post_code":"9872273","prefecture":"MIYAGI KEN","city":"KURIHARA SHI","town":"TSUKIDATE KOEDATE","perfecture_jp":"宮城県","jp_add_1":"栗原市","jp_add_2":"築館左足"},"9872265":{"post_code":"9872265","prefecture":"MIYAGI KEN","city":"KURIHARA SHI","town":"TSUKIDATE SANOHARA","perfecture_jp":"宮城県","jp_add_1":"栗原市","jp_add_2":"築館小淵西"},"9872232":{"post_code":"9872232","prefecture":"MIYAGI KEN","city":"KURIHARA SHI","town":"TSUKIDATE SAWAIRI","perfecture_jp":"宮城県","jp_add_1":"栗原市","jp_add_2":"築館沢入"},"9872247":{"post_code":"9872247","prefecture":"MIYAGI KEN","city":"KURIHARA SHI","town":"TSUKIDATE SHIMOTAKAMORI","perfecture_jp":"宮城県","jp_add_1":"栗原市","jp_add_2":"築館下高森"},"9872221":{"post_code":"9872221","prefecture":"MIYAGI KEN","city":"KURIHARA SHI","town":"TSUKIDATE SHIMOMACHII","perfecture_jp":"宮城県","jp_add_1":"栗原市","jp_add_2":"築館下待井"},"9872203":{"post_code":"9872203","prefecture":"MIYAGI KEN","city":"KURIHARA SHI","town":"TSUKIDATE SHIMOMIYANO","perfecture_jp":"宮城県","jp_add_1":"栗原市","jp_add_2":"築館下宮野"},"9872202":{"post_code":"9872202","prefecture":"MIYAGI KEN","city":"KURIHARA SHI","town":"TSUKIDATE JONO","perfecture_jp":"宮城県","jp_add_1":"栗原市","jp_add_2":"築館城生野"},"9872263":{"post_code":"9872263","prefecture":"MIYAGI KEN","city":"KURIHARA SHI","town":"TSUKIDATE YAKUSHIGAOKA","perfecture_jp":"宮城県","jp_add_1":"栗原市","jp_add_2":"築館新田"},"9872274":{"post_code":"9872274","prefecture":"MIYAGI KEN","city":"KURIHARA SHI","town":"TSUKIDATE NARITA","perfecture_jp":"宮城県","jp_add_1":"栗原市","jp_add_2":"築館新成田西"},"9872234":{"post_code":"9872234","prefecture":"MIYAGI KEN","city":"KURIHARA SHI","town":"TSUKIDATE SHINYATSUZAWA","perfecture_jp":"宮城県","jp_add_1":"栗原市","jp_add_2":"築館新八ツ沢"},"9872222":{"post_code":"9872222","prefecture":"MIYAGI KEN","city":"KURIHARA SHI","town":"TSUKIDATE SOTOMINAMIZAWA","perfecture_jp":"宮城県","jp_add_1":"栗原市","jp_add_2":"築館外南沢"},"9872215":{"post_code":"9872215","prefecture":"MIYAGI KEN","city":"KURIHARA SHI","town":"TSUKIDATE TAKADA","perfecture_jp":"宮城県","jp_add_1":"栗原市","jp_add_2":"築館高田"},"9872242":{"post_code":"9872242","prefecture":"MIYAGI KEN","city":"KURIHARA SHI","town":"TSUKIDATE TATESAWA","perfecture_jp":"宮城県","jp_add_1":"栗原市","jp_add_2":"築館館沢"},"9872241":{"post_code":"9872241","prefecture":"MIYAGI KEN","city":"KURIHARA SHI","town":"TSUKIDATE TATESHITA","perfecture_jp":"宮城県","jp_add_1":"栗原市","jp_add_2":"築館館下"},"9872235":{"post_code":"9872235","prefecture":"MIYAGI KEN","city":"KURIHARA SHI","town":"TSUKIDATE TSUKIDATE","perfecture_jp":"宮城県","jp_add_1":"栗原市","jp_add_2":"築館築館"},"9872233":{"post_code":"9872233","prefecture":"MIYAGI KEN","city":"KURIHARA SHI","town":"TSUKIDATE TERUKOSHI","perfecture_jp":"宮城県","jp_add_1":"栗原市","jp_add_2":"築館照越"},"9872201":{"post_code":"9872201","prefecture":"MIYAGI KEN","city":"KURIHARA SHI","town":"TSUKIDATE TOMI","perfecture_jp":"宮城県","jp_add_1":"栗原市","jp_add_2":"築館富"},"9872272":{"post_code":"9872272","prefecture":"MIYAGI KEN","city":"KURIHARA SHI","town":"TSUKIDATE TOMEBA","perfecture_jp":"宮城県","jp_add_1":"栗原市","jp_add_2":"築館留場"},"9872244":{"post_code":"9872244","prefecture":"MIYAGI KEN","city":"KURIHARA SHI","town":"TSUKIDATE NISHIKOYAMA","perfecture_jp":"宮城県","jp_add_1":"栗原市","jp_add_2":"築館西小山"},"9872223":{"post_code":"9872223","prefecture":"MIYAGI KEN","city":"KURIHARA SHI","town":"TSUKIDATE HAGISAWA","perfecture_jp":"宮城県","jp_add_1":"栗原市","jp_add_2":"築館萩沢"},"9872243":{"post_code":"9872243","prefecture":"MIYAGI KEN","city":"KURIHARA SHI","town":"TSUKIDATE HAGISAWAMINAMI","perfecture_jp":"宮城県","jp_add_1":"栗原市","jp_add_2":"築館萩沢東"},"9872227":{"post_code":"9872227","prefecture":"MIYAGI KEN","city":"KURIHARA SHI","town":"TSUKIDATE HIKARIYASHIKI","perfecture_jp":"宮城県","jp_add_1":"栗原市","jp_add_2":"築館光屋敷"},"9872251":{"post_code":"9872251","prefecture":"MIYAGI KEN","city":"KURIHARA SHI","town":"TSUKIDATE FUJIKI","perfecture_jp":"宮城県","jp_add_1":"栗原市","jp_add_2":"築館藤木"},"9872205":{"post_code":"9872205","prefecture":"MIYAGI KEN","city":"KURIHARA SHI","town":"TSUKIDATE MIYANOCHUO","perfecture_jp":"宮城県","jp_add_1":"栗原市","jp_add_2":"築館宮野中央"},"9872252":{"post_code":"9872252","prefecture":"MIYAGI KEN","city":"KURIHARA SHI","town":"TSUKIDATE YAKUSHI","perfecture_jp":"宮城県","jp_add_1":"栗原市","jp_add_2":"築館薬師"},"9872264":{"post_code":"9872264","prefecture":"MIYAGI KEN","city":"KURIHARA SHI","town":"TSUKIDATE YAKUSHIDAI","perfecture_jp":"宮城県","jp_add_1":"栗原市","jp_add_2":"築館薬師台"},"9872226":{"post_code":"9872226","prefecture":"MIYAGI KEN","city":"KURIHARA SHI","town":"TSUKIDATE YASAWA","perfecture_jp":"宮城県","jp_add_1":"栗原市","jp_add_2":"築館八沢"},"9872224":{"post_code":"9872224","prefecture":"MIYAGI KEN","city":"KURIHARA SHI","town":"TSUKIDATE YOKOSUKA","perfecture_jp":"宮城県","jp_add_1":"栗原市","jp_add_2":"築館横須賀"},"9872512":{"post_code":"9872512","prefecture":"MIYAGI KEN","city":"KURIHARA SHI","town":"HANAYAMA KUSAKISAWA","perfecture_jp":"宮城県","jp_add_1":"栗原市","jp_add_2":"花山草木沢"},"9872511":{"post_code":"9872511","prefecture":"MIYAGI KEN","city":"KURIHARA SHI","town":"HANAYAMA HONSAWA","perfecture_jp":"宮城県","jp_add_1":"栗原市","jp_add_2":"花山本沢"},"9871303":{"post_code":"9871303","prefecture":"MIYAGI KEN","city":"OSAKI SHI","town":"MATSUYAMA KANAYA","perfecture_jp":"宮城県","jp_add_1":"大崎市","jp_add_2":"松山金谷"},"9871306":{"post_code":"9871306","prefecture":"MIYAGI KEN","city":"OSAKI SHI","town":"MATSUYAMA SHIMOIBANO","perfecture_jp":"宮城県","jp_add_1":"大崎市","jp_add_2":"松山下伊場野"},"9871301":{"post_code":"9871301","prefecture":"MIYAGI KEN","city":"OSAKI SHI","town":"MATSUYAMA SUMAYA","perfecture_jp":"宮城県","jp_add_1":"大崎市","jp_add_2":"松山須摩屋"},"9871304":{"post_code":"9871304","prefecture":"MIYAGI KEN","city":"OSAKI SHI","town":"MATSUYAMA SENGOKU","perfecture_jp":"宮城県","jp_add_1":"大崎市","jp_add_2":"松山千石"},"9871305":{"post_code":"9871305","prefecture":"MIYAGI KEN","city":"OSAKI SHI","town":"MATSUYAMA TSUGIHASHI","perfecture_jp":"宮城県","jp_add_1":"大崎市","jp_add_2":"松山次橋"},"9871302":{"post_code":"9871302","prefecture":"MIYAGI KEN","city":"OSAKI SHI","town":"MATSUYAMA NAGAO","perfecture_jp":"宮城県","jp_add_1":"大崎市","jp_add_2":"松山長尾"},"9870100":{"post_code":"9870100","prefecture":"MIYAGI KEN","city":"TODA GUN WAKUYA CHO","town":"IKANIKEISAIGANAIBAAI","perfecture_jp":"宮城県","jp_add_1":"遠田郡涌谷町","jp_add_2":""},"9870133":{"post_code":"9870133","prefecture":"MIYAGI KEN","city":"TODA GUN WAKUYA CHO","town":"TAKANOBASHISHIMONAKAZE","perfecture_jp":"宮城県","jp_add_1":"遠田郡涌谷町","jp_add_2":"赤間屋敷"},"9870145":{"post_code":"9870145","prefecture":"MIYAGI KEN","city":"TODA GUN WAKUYA CHO","town":"NABIRE","perfecture_jp":"宮城県","jp_add_1":"遠田郡涌谷町","jp_add_2":"市道"},"9870136":{"post_code":"9870136","prefecture":"MIYAGI KEN","city":"TODA GUN WAKUYA CHO","town":"IPPONYANAGI","perfecture_jp":"宮城県","jp_add_1":"遠田郡涌谷町","jp_add_2":"一本柳"},"9870284":{"post_code":"9870284","prefecture":"MIYAGI KEN","city":"TODA GUN WAKUYA CHO","town":"INOKATANDAI","perfecture_jp":"宮城県","jp_add_1":"遠田郡涌谷町","jp_add_2":"猪岡短台"},"9870103":{"post_code":"9870103","prefecture":"MIYAGI KEN","city":"TODA GUN WAKUYA CHO","town":"URASAKURACHO","perfecture_jp":"宮城県","jp_add_1":"遠田郡涌谷町","jp_add_2":"裏桜町"},"9870142":{"post_code":"9870142","prefecture":"MIYAGI KEN","city":"TODA GUN WAKUYA CHO","town":"URAMACHI","perfecture_jp":"宮城県","jp_add_1":"遠田郡涌谷町","jp_add_2":"浦町"},"9870165":{"post_code":"9870165","prefecture":"MIYAGI KEN","city":"TODA GUN WAKUYA CHO","town":"OIMAWASHICHO","perfecture_jp":"宮城県","jp_add_1":"遠田郡涌谷町","jp_add_2":"追廻町"},"9870282":{"post_code":"9870282","prefecture":"MIYAGI KEN","city":"TODA GUN WAKUYA CHO","town":"OTA","perfecture_jp":"宮城県","jp_add_1":"遠田郡涌谷町","jp_add_2":"太田"},"9870144":{"post_code":"9870144","prefecture":"MIYAGI KEN","city":"TODA GUN WAKUYA CHO","town":"BARAJIMA","perfecture_jp":"宮城県","jp_add_1":"遠田郡涌谷町","jp_add_2":"沖新田"},"9870281":{"post_code":"9870281","prefecture":"MIYAGI KEN","city":"TODA GUN WAKUYA CHO","town":"OSATO","perfecture_jp":"宮城県","jp_add_1":"遠田郡涌谷町","jp_add_2":"小里"},"9870102":{"post_code":"9870102","prefecture":"MIYAGI KEN","city":"TODA GUN WAKUYA CHO","town":"OMOTESAKURACHO","perfecture_jp":"宮城県","jp_add_1":"遠田郡涌谷町","jp_add_2":"表桜町"},"9870171":{"post_code":"9870171","prefecture":"MIYAGI KEN","city":"TODA GUN WAKUYA CHO","town":"KAMIGORI","perfecture_jp":"宮城県","jp_add_1":"遠田郡涌谷町","jp_add_2":"上郡"},"9870164":{"post_code":"9870164","prefecture":"MIYAGI KEN","city":"TODA GUN WAKUYA CHO","town":"KARUKAYACHO","perfecture_jp":"宮城県","jp_add_1":"遠田郡涌谷町","jp_add_2":"刈萱町"},"9870161":{"post_code":"9870161","prefecture":"MIYAGI KEN","city":"TODA GUN WAKUYA CHO","town":"KAWARAMACHI","perfecture_jp":"宮城県","jp_add_1":"遠田郡涌谷町","jp_add_2":"川原町"},"9870134":{"post_code":"9870134","prefecture":"MIYAGI KEN","city":"TODA GUN WAKUYA CHO","town":"RAMBAYACHI","perfecture_jp":"宮城県","jp_add_1":"遠田郡涌谷町","jp_add_2":"北五反田"},"9870131":{"post_code":"9870131","prefecture":"MIYAGI KEN","city":"TODA GUN WAKUYA CHO","town":"KITADA","perfecture_jp":"宮城県","jp_add_1":"遠田郡涌谷町","jp_add_2":"北田"},"9870132":{"post_code":"9870132","prefecture":"MIYAGI KEN","city":"TODA GUN WAKUYA CHO","town":"KOYACHI","perfecture_jp":"宮城県","jp_add_1":"遠田郡涌谷町","jp_add_2":"蔵人沖名"},"9870112":{"post_code":"9870112","prefecture":"MIYAGI KEN","city":"TODA GUN WAKUYA CHO","town":"KUWANOKIARA","perfecture_jp":"宮城県","jp_add_1":"遠田郡涌谷町","jp_add_2":"桑木荒"},"9870147":{"post_code":"9870147","prefecture":"MIYAGI KEN","city":"TODA GUN WAKUYA CHO","town":"GEDO","perfecture_jp":"宮城県","jp_add_1":"遠田郡涌谷町","jp_add_2":"下道"},"9870151":{"post_code":"9870151","prefecture":"MIYAGI KEN","city":"TODA GUN WAKUYA CHO","town":"KOZUKA","perfecture_jp":"宮城県","jp_add_1":"遠田郡涌谷町","jp_add_2":"小塚"},"9870135":{"post_code":"9870135","prefecture":"MIYAGI KEN","city":"TODA GUN WAKUYA CHO","town":"SANJUKKEN","perfecture_jp":"宮城県","jp_add_1":"遠田郡涌谷町","jp_add_2":"小蓋谷地"},"9870101":{"post_code":"9870101","prefecture":"MIYAGI KEN","city":"TODA GUN WAKUYA CHO","town":"SAKURACHOURA","perfecture_jp":"宮城県","jp_add_1":"遠田郡涌谷町","jp_add_2":"桜町裏"},"9870148":{"post_code":"9870148","prefecture":"MIYAGI KEN","city":"TODA GUN WAKUYA CHO","town":"SANGENYASHIKI","perfecture_jp":"宮城県","jp_add_1":"遠田郡涌谷町","jp_add_2":"三軒屋敷"},"9870113":{"post_code":"9870113","prefecture":"MIYAGI KEN","city":"TODA GUN WAKUYA CHO","town":"FURUMICHISHITANIHONSUGI","perfecture_jp":"宮城県","jp_add_1":"遠田郡涌谷町","jp_add_2":"渋江"},"9870172":{"post_code":"9870172","prefecture":"MIYAGI KEN","city":"TODA GUN WAKUYA CHO","town":"SHIMOGORI","perfecture_jp":"宮城県","jp_add_1":"遠田郡涌谷町","jp_add_2":"下郡"},"9870140":{"post_code":"9870140","prefecture":"MIYAGI KEN","city":"TODA GUN WAKUYA CHO","town":"SHINOKISHINDEN","perfecture_jp":"宮城県","jp_add_1":"遠田郡涌谷町","jp_add_2":"新沖新田"},"9870130":{"post_code":"9870130","prefecture":"MIYAGI KEN","city":"TODA GUN WAKUYA CHO","town":"SHINKUKEMMAE","perfecture_jp":"宮城県","jp_add_1":"遠田郡涌谷町","jp_add_2":"新九軒前"},"9870149":{"post_code":"9870149","prefecture":"MIYAGI KEN","city":"TODA GUN WAKUYA CHO","town":"SHINGOTOE","perfecture_jp":"宮城県","jp_add_1":"遠田郡涌谷町","jp_add_2":"新後藤江"},"9870138":{"post_code":"9870138","prefecture":"MIYAGI KEN","city":"TODA GUN WAKUYA CHO","town":"SHINSAKAIBORISHITA","perfecture_jp":"宮城県","jp_add_1":"遠田郡涌谷町","jp_add_2":"新境堀下"},"9870139":{"post_code":"9870139","prefecture":"MIYAGI KEN","city":"TODA GUN WAKUYA CHO","town":"SHINDAIDOKOROBASHI","perfecture_jp":"宮城県","jp_add_1":"遠田郡涌谷町","jp_add_2":"新台所橋"},"9870137":{"post_code":"9870137","prefecture":"MIYAGI KEN","city":"TODA GUN WAKUYA CHO","town":"NAKAJIMAKO","perfecture_jp":"宮城県","jp_add_1":"遠田郡涌谷町","jp_add_2":"新中島乙"},"9870115":{"post_code":"9870115","prefecture":"MIYAGI KEN","city":"TODA GUN WAKUYA CHO","town":"SHIMMACHI","perfecture_jp":"宮城県","jp_add_1":"遠田郡涌谷町","jp_add_2":"新町"},"9870114":{"post_code":"9870114","prefecture":"MIYAGI KEN","city":"TODA GUN WAKUYA CHO","town":"SHIMMACHIURA","perfecture_jp":"宮城県","jp_add_1":"遠田郡涌谷町","jp_add_2":"新町裏"},"9870163":{"post_code":"9870163","prefecture":"MIYAGI KEN","city":"TODA GUN WAKUYA CHO","town":"TATSUCHO","perfecture_jp":"宮城県","jp_add_1":"遠田郡涌谷町","jp_add_2":"立町"},"9870104":{"post_code":"9870104","prefecture":"MIYAGI KEN","city":"TODA GUN WAKUYA CHO","town":"TANUMACHO","perfecture_jp":"宮城県","jp_add_1":"遠田郡涌谷町","jp_add_2":"田沼町"},"9870141":{"post_code":"9870141","prefecture":"MIYAGI KEN","city":"TODA GUN WAKUYA CHO","town":"TAMACHIURA","perfecture_jp":"宮城県","jp_add_1":"遠田郡涌谷町","jp_add_2":"田町裏"},"9870146":{"post_code":"9870146","prefecture":"MIYAGI KEN","city":"TODA GUN WAKUYA CHO","town":"NAKAGEDO","perfecture_jp":"宮城県","jp_add_1":"遠田郡涌谷町","jp_add_2":"中下道"},"9870143":{"post_code":"9870143","prefecture":"MIYAGI KEN","city":"TODA GUN WAKUYA CHO","town":"NAGAECHO","perfecture_jp":"宮城県","jp_add_1":"遠田郡涌谷町","jp_add_2":"長柄町"},"9870286":{"post_code":"9870286","prefecture":"MIYAGI KEN","city":"TODA GUN WAKUYA CHO","town":"NARISAWA","perfecture_jp":"宮城県","jp_add_1":"遠田郡涌谷町","jp_add_2":"成沢"},"9870105":{"post_code":"9870105","prefecture":"MIYAGI KEN","city":"TODA GUN WAKUYA CHO","town":"NERIUSHICHO","perfecture_jp":"宮城県","jp_add_1":"遠田郡涌谷町","jp_add_2":"練丑町"},"9870285":{"post_code":"9870285","prefecture":"MIYAGI KEN","city":"TODA GUN WAKUYA CHO","town":"NONODAKE","perfecture_jp":"宮城県","jp_add_1":"遠田郡涌谷町","jp_add_2":"箟岳"},"9870162":{"post_code":"9870162","prefecture":"MIYAGI KEN","city":"TODA GUN WAKUYA CHO","town":"MOTOMACHI","perfecture_jp":"宮城県","jp_add_1":"遠田郡涌谷町","jp_add_2":"本町"},"9870111":{"post_code":"9870111","prefecture":"MIYAGI KEN","city":"TODA GUN WAKUYA CHO","town":"YANAGICHO","perfecture_jp":"宮城県","jp_add_1":"遠田郡涌谷町","jp_add_2":"柳町"},"9870283":{"post_code":"9870283","prefecture":"MIYAGI KEN","city":"TODA GUN WAKUYA CHO","town":"YOSHIZUMI","perfecture_jp":"宮城県","jp_add_1":"遠田郡涌谷町","jp_add_2":"吉住"},"9870106":{"post_code":"9870106","prefecture":"MIYAGI KEN","city":"TODA GUN WAKUYA CHO","town":"ROKKENCHO","perfecture_jp":"宮城県","jp_add_1":"遠田郡涌谷町","jp_add_2":"六軒町"},"9870107":{"post_code":"9870107","prefecture":"MIYAGI KEN","city":"TODA GUN WAKUYA CHO","town":"ROKKENCHOURA","perfecture_jp":"宮城県","jp_add_1":"遠田郡涌谷町","jp_add_2":"六軒町裏"},"9870121":{"post_code":"9870121","prefecture":"MIYAGI KEN","city":"TODA GUN WAKUYA CHO","town":"WAKUYA","perfecture_jp":"宮城県","jp_add_1":"遠田郡涌谷町","jp_add_2":"涌谷"},"9870000":{"post_code":"9870000","prefecture":"MIYAGI KEN","city":"TODA GUN MISATO MACHI","town":"IKANIKEISAIGANAIBAAI","perfecture_jp":"宮城県","jp_add_1":"遠田郡美里町","jp_add_2":""},"9870015":{"post_code":"9870015","prefecture":"MIYAGI KEN","city":"TODA GUN MISATO MACHI","town":"AO","perfecture_jp":"宮城県","jp_add_1":"遠田郡美里町","jp_add_2":"青生"},"9870056":{"post_code":"9870056","prefecture":"MIYAGI KEN","city":"TODA GUN MISATO MACHI","town":"IPPONYANAGI","perfecture_jp":"宮城県","jp_add_1":"遠田郡美里町","jp_add_2":"一本柳"},"9870004":{"post_code":"9870004","prefecture":"MIYAGI KEN","city":"TODA GUN MISATO MACHI","town":"USHIKAI","perfecture_jp":"宮城県","jp_add_1":"遠田郡美里町","jp_add_2":"牛飼"},"9870045":{"post_code":"9870045","prefecture":"MIYAGI KEN","city":"TODA GUN MISATO MACHI","town":"UCHIYAKUDEN","perfecture_jp":"宮城県","jp_add_1":"遠田郡美里町","jp_add_2":"内役田"},"9870038":{"post_code":"9870038","prefecture":"MIYAGI KEN","city":"TODA GUN MISATO MACHI","town":"EKIHIGASHI","perfecture_jp":"宮城県","jp_add_1":"遠田郡美里町","jp_add_2":"駅東"},"9870022":{"post_code":"9870022","prefecture":"MIYAGI KEN","city":"TODA GUN MISATO MACHI","town":"OGIZONE","perfecture_jp":"宮城県","jp_add_1":"遠田郡美里町","jp_add_2":"荻埣"},"9870032":{"post_code":"9870032","prefecture":"MIYAGI KEN","city":"TODA GUN MISATO MACHI","town":"GAKUDEN","perfecture_jp":"宮城県","jp_add_1":"遠田郡美里町","jp_add_2":"学田"},"9870065":{"post_code":"9870065","prefecture":"MIYAGI KEN","city":"TODA GUN MISATO MACHI","town":"KANDO","perfecture_jp":"宮城県","jp_add_1":"遠田郡美里町","jp_add_2":"勘堂"},"9870005":{"post_code":"9870005","prefecture":"MIYAGI KEN","city":"TODA GUN MISATO MACHI","town":"KITAURA","perfecture_jp":"宮城県","jp_add_1":"遠田郡美里町","jp_add_2":"北浦"},"9870069":{"post_code":"9870069","prefecture":"MIYAGI KEN","city":"TODA GUN MISATO MACHI","town":"KITAHARA","perfecture_jp":"宮城県","jp_add_1":"遠田郡美里町","jp_add_2":"北原"},"9870057":{"post_code":"9870057","prefecture":"MIYAGI KEN","city":"TODA GUN MISATO MACHI","town":"KITSUNEYAMA","perfecture_jp":"宮城県","jp_add_1":"遠田郡美里町","jp_add_2":"狐山"},"9870034":{"post_code":"9870034","prefecture":"MIYAGI KEN","city":"TODA GUN MISATO MACHI","town":"KESHOZAKA","perfecture_jp":"宮城県","jp_add_1":"遠田郡美里町","jp_add_2":"化粧坂"},"9870063":{"post_code":"9870063","prefecture":"MIYAGI KEN","city":"TODA GUN MISATO MACHI","town":"KONUMA","perfecture_jp":"宮城県","jp_add_1":"遠田郡美里町","jp_add_2":"小沼"},"9870064":{"post_code":"9870064","prefecture":"MIYAGI KEN","city":"TODA GUN MISATO MACHI","town":"KONUMAZOI","perfecture_jp":"宮城県","jp_add_1":"遠田郡美里町","jp_add_2":"小沼添"},"9870033":{"post_code":"9870033","prefecture":"MIYAGI KEN","city":"TODA GUN MISATO MACHI","town":"KOMACHII","perfecture_jp":"宮城県","jp_add_1":"遠田郡美里町","jp_add_2":"小町井"},"9870036":{"post_code":"9870036","prefecture":"MIYAGI KEN","city":"TODA GUN MISATO MACHI","town":"SAINOKAMI","perfecture_jp":"宮城県","jp_add_1":"遠田郡美里町","jp_add_2":"妻の神"},"9870011":{"post_code":"9870011","prefecture":"MIYAGI KEN","city":"TODA GUN MISATO MACHI","town":"SAKURAGICHO","perfecture_jp":"宮城県","jp_add_1":"遠田郡美里町","jp_add_2":"桜木町"},"9870058":{"post_code":"9870058","prefecture":"MIYAGI KEN","city":"TODA GUN MISATO MACHI","town":"SHIOGAMA","perfecture_jp":"宮城県","jp_add_1":"遠田郡美里町","jp_add_2":"塩釜"},"9870059":{"post_code":"9870059","prefecture":"MIYAGI KEN","city":"TODA GUN MISATO MACHI","town":"SHIOGAMAZOE","perfecture_jp":"宮城県","jp_add_1":"遠田郡美里町","jp_add_2":"塩釜添"},"9870014":{"post_code":"9870014","prefecture":"MIYAGI KEN","city":"TODA GUN MISATO MACHI","town":"SHIGACHO","perfecture_jp":"宮城県","jp_add_1":"遠田郡美里町","jp_add_2":"志賀町"},"9870035":{"post_code":"9870035","prefecture":"MIYAGI KEN","city":"TODA GUN MISATO MACHI","town":"SHIGADEN","perfecture_jp":"宮城県","jp_add_1":"遠田郡美里町","jp_add_2":"志賀殿"},"9870061":{"post_code":"9870061","prefecture":"MIYAGI KEN","city":"TODA GUN MISATO MACHI","town":"SHIMOSAKAI","perfecture_jp":"宮城県","jp_add_1":"遠田郡美里町","jp_add_2":"下境"},"9870053":{"post_code":"9870053","prefecture":"MIYAGI KEN","city":"TODA GUN MISATO MACHI","town":"SHUKUNOMAE","perfecture_jp":"宮城県","jp_add_1":"遠田郡美里町","jp_add_2":"叔廼前"},"9870051":{"post_code":"9870051","prefecture":"MIYAGI KEN","city":"TODA GUN MISATO MACHI","town":"JOIE","perfecture_jp":"宮城県","jp_add_1":"遠田郡美里町","jp_add_2":"上意江"},"9870055":{"post_code":"9870055","prefecture":"MIYAGI KEN","city":"TODA GUN MISATO MACHI","town":"SHINIPPONYANAGI","perfecture_jp":"宮城県","jp_add_1":"遠田郡美里町","jp_add_2":"新一本柳"},"9870043":{"post_code":"9870043","prefecture":"MIYAGI KEN","city":"TODA GUN MISATO MACHI","town":"SHINSAINOKAMI","perfecture_jp":"宮城県","jp_add_1":"遠田郡美里町","jp_add_2":"新妻の神"},"9870068":{"post_code":"9870068","prefecture":"MIYAGI KEN","city":"TODA GUN MISATO MACHI","town":"SHINDAIDOKORO","perfecture_jp":"宮城県","jp_add_1":"遠田郡美里町","jp_add_2":"新大所"},"9870037":{"post_code":"9870037","prefecture":"MIYAGI KEN","city":"TODA GUN MISATO MACHI","town":"SHINFUJIGASAKI","perfecture_jp":"宮城県","jp_add_1":"遠田郡美里町","jp_add_2":"新藤ケ崎"},"9870052":{"post_code":"9870052","prefecture":"MIYAGI KEN","city":"TODA GUN MISATO MACHI","town":"SUNAGODA","perfecture_jp":"宮城県","jp_add_1":"遠田郡美里町","jp_add_2":"砂子田"},"9870006":{"post_code":"9870006","prefecture":"MIYAGI KEN","city":"TODA GUN MISATO MACHI","town":"SEKINE","perfecture_jp":"宮城県","jp_add_1":"遠田郡美里町","jp_add_2":"関根"},"9870013":{"post_code":"9870013","prefecture":"MIYAGI KEN","city":"TODA GUN MISATO MACHI","town":"SOYAMA","perfecture_jp":"宮城県","jp_add_1":"遠田郡美里町","jp_add_2":"素山"},"9870012":{"post_code":"9870012","prefecture":"MIYAGI KEN","city":"TODA GUN MISATO MACHI","town":"SOYAMACHO","perfecture_jp":"宮城県","jp_add_1":"遠田郡美里町","jp_add_2":"素山町"},"9870067":{"post_code":"9870067","prefecture":"MIYAGI KEN","city":"TODA GUN MISATO MACHI","town":"DAIDOKORO","perfecture_jp":"宮城県","jp_add_1":"遠田郡美里町","jp_add_2":"大所"},"9870031":{"post_code":"9870031","prefecture":"MIYAGI KEN","city":"TODA GUN MISATO MACHI","town":"TAKADA","perfecture_jp":"宮城県","jp_add_1":"遠田郡美里町","jp_add_2":"高田"},"9870054":{"post_code":"9870054","prefecture":"MIYAGI KEN","city":"TODA GUN MISATO MACHI","town":"TONOKOSHI","perfecture_jp":"宮城県","jp_add_1":"遠田郡美里町","jp_add_2":"塔の越"},"9870024":{"post_code":"9870024","prefecture":"MIYAGI KEN","city":"TODA GUN MISATO MACHI","town":"NARITA","perfecture_jp":"宮城県","jp_add_1":"遠田郡美里町","jp_add_2":"中埣"},"9870025":{"post_code":"9870025","prefecture":"MIYAGI KEN","city":"TODA GUN MISATO MACHI","town":"NAKATAKAGI","perfecture_jp":"宮城県","jp_add_1":"遠田郡美里町","jp_add_2":"中高城"},"9870044":{"post_code":"9870044","prefecture":"MIYAGI KEN","city":"TODA GUN MISATO MACHI","town":"NISHIDATE","perfecture_jp":"宮城県","jp_add_1":"遠田郡美里町","jp_add_2":"西舘"},"9870021":{"post_code":"9870021","prefecture":"MIYAGI KEN","city":"TODA GUN MISATO MACHI","town":"HIRABARI","perfecture_jp":"宮城県","jp_add_1":"遠田郡美里町","jp_add_2":"平針"},"9870001":{"post_code":"9870001","prefecture":"MIYAGI KEN","city":"TODA GUN MISATO MACHI","town":"FUJIGASAKI","perfecture_jp":"宮城県","jp_add_1":"遠田郡美里町","jp_add_2":"藤ケ崎"},"9870002":{"post_code":"9870002","prefecture":"MIYAGI KEN","city":"TODA GUN MISATO MACHI","town":"FUJIGASAKICHO","perfecture_jp":"宮城県","jp_add_1":"遠田郡美里町","jp_add_2":"藤ケ崎町"},"9870066":{"post_code":"9870066","prefecture":"MIYAGI KEN","city":"TODA GUN MISATO MACHI","town":"FUTATSUDAN","perfecture_jp":"宮城県","jp_add_1":"遠田郡美里町","jp_add_2":"二ツ壇"},"9870062":{"post_code":"9870062","prefecture":"MIYAGI KEN","city":"TODA GUN MISATO MACHI","town":"MACHII","perfecture_jp":"宮城県","jp_add_1":"遠田郡美里町","jp_add_2":"待井"},"9870003":{"post_code":"9870003","prefecture":"MIYAGI KEN","city":"TODA GUN MISATO MACHI","town":"MINAMIKOGOTA","perfecture_jp":"宮城県","jp_add_1":"遠田郡美里町","jp_add_2":"南小牛田"},"9870026":{"post_code":"9870026","prefecture":"MIYAGI KEN","city":"TODA GUN MISATO MACHI","town":"MINAMITAKAGI","perfecture_jp":"宮城県","jp_add_1":"遠田郡美里町","jp_add_2":"南高城"},"9870041":{"post_code":"9870041","prefecture":"MIYAGI KEN","city":"TODA GUN MISATO MACHI","town":"MINEYAMA","perfecture_jp":"宮城県","jp_add_1":"遠田郡美里町","jp_add_2":"峯山"},"9870042":{"post_code":"9870042","prefecture":"MIYAGI KEN","city":"TODA GUN MISATO MACHI","town":"MINEYAMAURA","perfecture_jp":"宮城県","jp_add_1":"遠田郡美里町","jp_add_2":"峯山浦"},"9870046":{"post_code":"9870046","prefecture":"MIYAGI KEN","city":"TODA GUN MISATO MACHI","town":"YAKUDEN","perfecture_jp":"宮城県","jp_add_1":"遠田郡美里町","jp_add_2":"役田"}}