{"9880000":{"post_code":"9880000","prefecture":"MIYAGI KEN","city":"KESENNUMA SHI","town":"IKANIKEISAIGANAIBAAI","perfecture_jp":"宮城県","jp_add_1":"気仙沼市","jp_add_2":""},"9880182":{"post_code":"9880182","prefecture":"MIYAGI KEN","city":"KESENNUMA SHI","town":"AKAIWA ISHIKABUTO","perfecture_jp":"宮城県","jp_add_1":"気仙沼市","jp_add_2":"赤岩石兜"},"9880105":{"post_code":"9880105","prefecture":"MIYAGI KEN","city":"KESENNUMA SHI","town":"AKAIWA OINOMATSU","perfecture_jp":"宮城県","jp_add_1":"気仙沼市","jp_add_2":"赤岩老松"},"9880172":{"post_code":"9880172","prefecture":"MIYAGI KEN","city":"KESENNUMA SHI","town":"AKAIWA OISHIKURA","perfecture_jp":"宮城県","jp_add_1":"気仙沼市","jp_add_2":"赤岩大石倉"},"9880174":{"post_code":"9880174","prefecture":"MIYAGI KEN","city":"KESENNUMA SHI","town":"AKAIWA OTAKI","perfecture_jp":"宮城県","jp_add_1":"気仙沼市","jp_add_2":"赤岩大滝"},"9880185":{"post_code":"9880185","prefecture":"MIYAGI KEN","city":"KESENNUMA SHI","town":"AKAIWA ODA","perfecture_jp":"宮城県","jp_add_1":"気仙沼市","jp_add_2":"赤岩小田"},"9880166":{"post_code":"9880166","prefecture":"MIYAGI KEN","city":"KESENNUMA SHI","town":"AKAIWA KAMIHADA","perfecture_jp":"宮城県","jp_add_1":"気仙沼市","jp_add_2":"赤岩上羽田"},"9880104":{"post_code":"9880104","prefecture":"MIYAGI KEN","city":"KESENNUMA SHI","town":"AKAIWA GODANTARA","perfecture_jp":"宮城県","jp_add_1":"気仙沼市","jp_add_2":"赤岩五駄鱈"},"9880164":{"post_code":"9880164","prefecture":"MIYAGI KEN","city":"KESENNUMA SHI","town":"AKAIWA SHIJUNI","perfecture_jp":"宮城県","jp_add_1":"気仙沼市","jp_add_2":"赤岩四十二"},"9880181":{"post_code":"9880181","prefecture":"MIYAGI KEN","city":"KESENNUMA SHI","town":"AKAIWA SUGINOSAWA","perfecture_jp":"宮城県","jp_add_1":"気仙沼市","jp_add_2":"赤岩杉ノ沢"},"9880161":{"post_code":"9880161","prefecture":"MIYAGI KEN","city":"KESENNUMA SHI","town":"AKAIWA TAKAMAEDA","perfecture_jp":"宮城県","jp_add_1":"気仙沼市","jp_add_2":"赤岩高前田"},"9880101":{"post_code":"9880101","prefecture":"MIYAGI KEN","city":"KESENNUMA SHI","town":"AKAIWA TATESHITA","perfecture_jp":"宮城県","jp_add_1":"気仙沼市","jp_add_2":"赤岩舘下"},"9880102":{"post_code":"9880102","prefecture":"MIYAGI KEN","city":"KESENNUMA SHI","town":"AKAIWA TATEMORI","perfecture_jp":"宮城県","jp_add_1":"気仙沼市","jp_add_2":"赤岩舘森"},"9880183":{"post_code":"9880183","prefecture":"MIYAGI KEN","city":"KESENNUMA SHI","town":"AKAIWA DORONOKI","perfecture_jp":"宮城県","jp_add_1":"気仙沼市","jp_add_2":"赤岩泥ノ木"},"9880173":{"post_code":"9880173","prefecture":"MIYAGI KEN","city":"KESENNUMA SHI","town":"AKAIWA NAGASHIBA","perfecture_jp":"宮城県","jp_add_1":"気仙沼市","jp_add_2":"赤岩長柴"},"9880167":{"post_code":"9880167","prefecture":"MIYAGI KEN","city":"KESENNUMA SHI","town":"AKAIWA HADA","perfecture_jp":"宮城県","jp_add_1":"気仙沼市","jp_add_2":"赤岩羽田"},"9880184":{"post_code":"9880184","prefecture":"MIYAGI KEN","city":"KESENNUMA SHI","town":"AKAIWA HIRAGAI","perfecture_jp":"宮城県","jp_add_1":"気仙沼市","jp_add_2":"赤岩平貝"},"9880162":{"post_code":"9880162","prefecture":"MIYAGI KEN","city":"KESENNUMA SHI","town":"AKAIWA MAEDA","perfecture_jp":"宮城県","jp_add_1":"気仙沼市","jp_add_2":"赤岩前田"},"9880171":{"post_code":"9880171","prefecture":"MIYAGI KEN","city":"KESENNUMA SHI","town":"AKAIWA MAKISAWA","perfecture_jp":"宮城県","jp_add_1":"気仙沼市","jp_add_2":"赤岩牧沢"},"9880168":{"post_code":"9880168","prefecture":"MIYAGI KEN","city":"KESENNUMA SHI","town":"AKAIWA MIZUNASHI","perfecture_jp":"宮城県","jp_add_1":"気仙沼市","jp_add_2":"赤岩水梨子"},"9880103":{"post_code":"9880103","prefecture":"MIYAGI KEN","city":"KESENNUMA SHI","town":"AKAIWA MINATO","perfecture_jp":"宮城県","jp_add_1":"気仙沼市","jp_add_2":"赤岩港"},"9880163":{"post_code":"9880163","prefecture":"MIYAGI KEN","city":"KESENNUMA SHI","town":"AKAIWA MUKAEMAEDA","perfecture_jp":"宮城県","jp_add_1":"気仙沼市","jp_add_2":"赤岩迎前田"},"9880165":{"post_code":"9880165","prefecture":"MIYAGI KEN","city":"KESENNUMA SHI","town":"AKAIWA MONOMI","perfecture_jp":"宮城県","jp_add_1":"気仙沼市","jp_add_2":"赤岩物見"},"9880075":{"post_code":"9880075","prefecture":"MIYAGI KEN","city":"KESENNUMA SHI","town":"AKASAKA","perfecture_jp":"宮城県","jp_add_1":"気仙沼市","jp_add_2":"赤坂"},"9880062":{"post_code":"9880062","prefecture":"MIYAGI KEN","city":"KESENNUMA SHI","town":"AKEDO","perfecture_jp":"宮城県","jp_add_1":"気仙沼市","jp_add_2":"明戸"},"9880623":{"post_code":"9880623","prefecture":"MIYAGI KEN","city":"KESENNUMA SHI","town":"ASANE","perfecture_jp":"宮城県","jp_add_1":"気仙沼市","jp_add_2":"浅根"},"9880034":{"post_code":"9880034","prefecture":"MIYAGI KEN","city":"KESENNUMA SHI","town":"ASAHICHO","perfecture_jp":"宮城県","jp_add_1":"気仙沼市","jp_add_2":"朝日町"},"9880847":{"post_code":"9880847","prefecture":"MIYAGI KEN","city":"KESENNUMA SHI","town":"AYOIZUKI","perfecture_jp":"宮城県","jp_add_1":"気仙沼市","jp_add_2":"阿霄月"},"9880071":{"post_code":"9880071","prefecture":"MIYAGI KEN","city":"KESENNUMA SHI","town":"ARAMACHI","perfecture_jp":"宮城県","jp_add_1":"気仙沼市","jp_add_2":"新町"},"9880606":{"post_code":"9880606","prefecture":"MIYAGI KEN","city":"KESENNUMA SHI","town":"ISOKUSA","perfecture_jp":"宮城県","jp_add_1":"気仙沼市","jp_add_2":"磯草"},"9880854":{"post_code":"9880854","prefecture":"MIYAGI KEN","city":"KESENNUMA SHI","town":"ISOZAWA","perfecture_jp":"宮城県","jp_add_1":"気仙沼市","jp_add_2":"磯沢"},"9880032":{"post_code":"9880032","prefecture":"MIYAGI KEN","city":"KESENNUMA SHI","town":"IKKEIJIMA","perfecture_jp":"宮城県","jp_add_1":"気仙沼市","jp_add_2":"一景島"},"9880083":{"post_code":"9880083","prefecture":"MIYAGI KEN","city":"KESENNUMA SHI","town":"IRISAWA","perfecture_jp":"宮城県","jp_add_1":"気仙沼市","jp_add_2":"入沢"},"9880061":{"post_code":"9880061","prefecture":"MIYAGI KEN","city":"KESENNUMA SHI","town":"IWAGASAKI","perfecture_jp":"宮城県","jp_add_1":"気仙沼市","jp_add_2":"岩ケ崎"},"9880201":{"post_code":"9880201","prefecture":"MIYAGI KEN","city":"KESENNUMA SHI","town":"IWATSUKI SENGANDA","perfecture_jp":"宮城県","jp_add_1":"気仙沼市","jp_add_2":"岩月千岩田"},"9880207":{"post_code":"9880207","prefecture":"MIYAGI KEN","city":"KESENNUMA SHI","town":"IWATSUKI TAKARAGASAWA","perfecture_jp":"宮城県","jp_add_1":"気仙沼市","jp_add_2":"岩月宝ケ沢"},"9880202":{"post_code":"9880202","prefecture":"MIYAGI KEN","city":"KESENNUMA SHI","town":"IWATSUKI DAINOSAWA","perfecture_jp":"宮城県","jp_add_1":"気仙沼市","jp_add_2":"岩月台ノ沢"},"9880206":{"post_code":"9880206","prefecture":"MIYAGI KEN","city":"KESENNUMA SHI","town":"IWATSUKI TERASAWA","perfecture_jp":"宮城県","jp_add_1":"気仙沼市","jp_add_2":"岩月寺沢"},"9880204":{"post_code":"9880204","prefecture":"MIYAGI KEN","city":"KESENNUMA SHI","town":"IWATSUKI NAGADAIRA","perfecture_jp":"宮城県","jp_add_1":"気仙沼市","jp_add_2":"岩月長平"},"9880205":{"post_code":"9880205","prefecture":"MIYAGI KEN","city":"KESENNUMA SHI","town":"IWATSUKI HOKISAWA","perfecture_jp":"宮城県","jp_add_1":"気仙沼市","jp_add_2":"岩月箒沢"},"9880203":{"post_code":"9880203","prefecture":"MIYAGI KEN","city":"KESENNUMA SHI","town":"IWATSUKI HOSHIYA","perfecture_jp":"宮城県","jp_add_1":"気仙沼市","jp_add_2":"岩月星谷"},"9880037":{"post_code":"9880037","prefecture":"MIYAGI KEN","city":"KESENNUMA SHI","town":"UOICHIBAMAE","perfecture_jp":"宮城県","jp_add_1":"気仙沼市","jp_add_2":"魚市場前"},"9880008":{"post_code":"9880008","prefecture":"MIYAGI KEN","city":"KESENNUMA SHI","town":"UOHAMACHO","perfecture_jp":"宮城県","jp_add_1":"気仙沼市","jp_add_2":"魚浜町"},"9880065":{"post_code":"9880065","prefecture":"MIYAGI KEN","city":"KESENNUMA SHI","town":"USHIROKUJO","perfecture_jp":"宮城県","jp_add_1":"気仙沼市","jp_add_2":"後九条"},"9880866":{"post_code":"9880866","prefecture":"MIYAGI KEN","city":"KESENNUMA SHI","town":"UCHIMATSUKAWA","perfecture_jp":"宮城県","jp_add_1":"気仙沼市","jp_add_2":"内松川"},"9880605":{"post_code":"9880605","prefecture":"MIYAGI KEN","city":"KESENNUMA SHI","town":"URANOHAMA","perfecture_jp":"宮城県","jp_add_1":"気仙沼市","jp_add_2":"浦の浜"},"9880812":{"post_code":"9880812","prefecture":"MIYAGI KEN","city":"KESENNUMA SHI","town":"OTOGEYAMA","perfecture_jp":"宮城県","jp_add_1":"気仙沼市","jp_add_2":"大岩井山"},"9880814":{"post_code":"9880814","prefecture":"MIYAGI KEN","city":"KESENNUMA SHI","town":"OURA","perfecture_jp":"宮城県","jp_add_1":"気仙沼市","jp_add_2":"大浦"},"9880082":{"post_code":"9880082","prefecture":"MIYAGI KEN","city":"KESENNUMA SHI","town":"OTA","perfecture_jp":"宮城県","jp_add_1":"気仙沼市","jp_add_2":"太田"},"9880602":{"post_code":"9880602","prefecture":"MIYAGI KEN","city":"KESENNUMA SHI","town":"OHATSUDAIRA","perfecture_jp":"宮城県","jp_add_1":"気仙沼市","jp_add_2":"大初平"},"9880821":{"post_code":"9880821","prefecture":"MIYAGI KEN","city":"KESENNUMA SHI","town":"OBAYASHI","perfecture_jp":"宮城県","jp_add_1":"気仙沼市","jp_add_2":"大林"},"9880612":{"post_code":"9880612","prefecture":"MIYAGI KEN","city":"KESENNUMA SHI","town":"OMUKAI","perfecture_jp":"宮城県","jp_add_1":"気仙沼市","jp_add_2":"大向"},"9880843":{"post_code":"9880843","prefecture":"MIYAGI KEN","city":"KESENNUMA SHI","town":"OCHIAI","perfecture_jp":"宮城県","jp_add_1":"気仙沼市","jp_add_2":"落合"},"9880862":{"post_code":"9880862","prefecture":"MIYAGI KEN","city":"KESENNUMA SHI","town":"KAKUJI","perfecture_jp":"宮城県","jp_add_1":"気仙沼市","jp_add_2":"角地"},"9880014":{"post_code":"9880014","prefecture":"MIYAGI KEN","city":"KESENNUMA SHI","town":"KASHIZAKI","perfecture_jp":"宮城県","jp_add_1":"気仙沼市","jp_add_2":"柏崎"},"9880837":{"post_code":"9880837","prefecture":"MIYAGI KEN","city":"KESENNUMA SHI","town":"KANOKURA","perfecture_jp":"宮城県","jp_add_1":"気仙沼市","jp_add_2":"鹿ノ倉"},"9880056":{"post_code":"9880056","prefecture":"MIYAGI KEN","city":"KESENNUMA SHI","town":"KAMITANAKA","perfecture_jp":"宮城県","jp_add_1":"気仙沼市","jp_add_2":"上田中"},"9880803":{"post_code":"9880803","prefecture":"MIYAGI KEN","city":"KESENNUMA SHI","town":"KAMIHIGASHIGAWA","perfecture_jp":"宮城県","jp_add_1":"気仙沼市","jp_add_2":"上東側"},"9880806":{"post_code":"9880806","prefecture":"MIYAGI KEN","city":"KESENNUMA SHI","town":"KAMINISHIGAWA","perfecture_jp":"宮城県","jp_add_1":"気仙沼市","jp_add_2":"上西側"},"9880801":{"post_code":"9880801","prefecture":"MIYAGI KEN","city":"KESENNUMA SHI","town":"KAMIHIGASHIGAWANE","perfecture_jp":"宮城県","jp_add_1":"気仙沼市","jp_add_2":"上東側根"},"9880044":{"post_code":"9880044","prefecture":"MIYAGI KEN","city":"KESENNUMA SHI","town":"KAMIYAMA","perfecture_jp":"宮城県","jp_add_1":"気仙沼市","jp_add_2":"神山"},"9880607":{"post_code":"9880607","prefecture":"MIYAGI KEN","city":"KESENNUMA SHI","town":"KAMEYAMA","perfecture_jp":"宮城県","jp_add_1":"気仙沼市","jp_add_2":"亀山"},"9880533":{"post_code":"9880533","prefecture":"MIYAGI KEN","city":"KESENNUMA SHI","town":"KARAKUWACHO AKEDO","perfecture_jp":"宮城県","jp_add_1":"気仙沼市","jp_add_2":"唐桑町明戸"},"9880503":{"post_code":"9880503","prefecture":"MIYAGI KEN","city":"KESENNUMA SHI","town":"KARAKUWACHO ARAYAMAE","perfecture_jp":"宮城県","jp_add_1":"気仙沼市","jp_add_2":"唐桑町荒谷前"},"9880532":{"post_code":"9880532","prefecture":"MIYAGI KEN","city":"KESENNUMA SHI","town":"KARAKUWACHO ISHIHAMA","perfecture_jp":"宮城県","jp_add_1":"気仙沼市","jp_add_2":"唐桑町石浜"},"9880512":{"post_code":"9880512","prefecture":"MIYAGI KEN","city":"KESENNUMA SHI","town":"KARAKUWACHO IWAISAWA","perfecture_jp":"宮城県","jp_add_1":"気仙沼市","jp_add_2":"唐桑町岩井沢"},"9880581":{"post_code":"9880581","prefecture":"MIYAGI KEN","city":"KESENNUMA SHI","town":"KARAKUWACHO URA","perfecture_jp":"宮城県","jp_add_1":"気仙沼市","jp_add_2":"唐桑町浦"},"9880521":{"post_code":"9880521","prefecture":"MIYAGI KEN","city":"KESENNUMA SHI","town":"KARAKUWACHO OHATA","perfecture_jp":"宮城県","jp_add_1":"気仙沼市","jp_add_2":"唐桑町大畑"},"9880544":{"post_code":"9880544","prefecture":"MIYAGI KEN","city":"KESENNUMA SHI","town":"KARAKUWACHO KAKEHAMA","perfecture_jp":"宮城県","jp_add_1":"気仙沼市","jp_add_2":"唐桑町欠浜"},"9880501":{"post_code":"9880501","prefecture":"MIYAGI KEN","city":"KESENNUMA SHI","town":"KARAKUWACHO KAMAISHISHITA","perfecture_jp":"宮城県","jp_add_1":"気仙沼市","jp_add_2":"唐桑町釜石下"},"9880522":{"post_code":"9880522","prefecture":"MIYAGI KEN","city":"KESENNUMA SHI","town":"KARAKUWACHO KAMIKAWARA","perfecture_jp":"宮城県","jp_add_1":"気仙沼市","jp_add_2":"唐桑町上川原"},"9880562":{"post_code":"9880562","prefecture":"MIYAGI KEN","city":"KESENNUMA SHI","town":"KARAKUWACHO KAMIKOSABA","perfecture_jp":"宮城県","jp_add_1":"気仙沼市","jp_add_2":"唐桑町上小鯖"},"9880572":{"post_code":"9880572","prefecture":"MIYAGI KEN","city":"KESENNUMA SHI","town":"KARAKUWACHO KAMISHIBITACHI","perfecture_jp":"宮城県","jp_add_1":"気仙沼市","jp_add_2":"唐桑町上鮪立"},"9880553":{"post_code":"9880553","prefecture":"MIYAGI KEN","city":"KESENNUMA SHI","town":"KARAKUWACHO KANNOKURA","perfecture_jp":"宮城県","jp_add_1":"気仙沼市","jp_add_2":"唐桑町神の倉"},"9880541":{"post_code":"9880541","prefecture":"MIYAGI KEN","city":"KESENNUMA SHI","town":"KARAKUWACHO KITANAKA","perfecture_jp":"宮城県","jp_add_1":"気仙沼市","jp_add_2":"唐桑町北中"},"9880561":{"post_code":"9880561","prefecture":"MIYAGI KEN","city":"KESENNUMA SHI","town":"KARAKUWACHO KOSABA","perfecture_jp":"宮城県","jp_add_1":"気仙沼市","jp_add_2":"唐桑町小鯖"},"9880514":{"post_code":"9880514","prefecture":"MIYAGI KEN","city":"KESENNUMA SHI","town":"KARAKUWACHO KODA","perfecture_jp":"宮城県","jp_add_1":"気仙沼市","jp_add_2":"唐桑町小田"},"9880543":{"post_code":"9880543","prefecture":"MIYAGI KEN","city":"KESENNUMA SHI","town":"KARAKUWACHO KONAGANE","perfecture_jp":"宮城県","jp_add_1":"気仙沼市","jp_add_2":"唐桑町小長根"},"9880523":{"post_code":"9880523","prefecture":"MIYAGI KEN","city":"KESENNUMA SHI","town":"KARAKUWACHO SAKAI","perfecture_jp":"宮城県","jp_add_1":"気仙沼市","jp_add_2":"唐桑町境"},"9880554":{"post_code":"9880554","prefecture":"MIYAGI KEN","city":"KESENNUMA SHI","town":"KARAKUWACHO SAKIHAMA","perfecture_jp":"宮城県","jp_add_1":"気仙沼市","jp_add_2":"唐桑町崎浜"},"9880571":{"post_code":"9880571","prefecture":"MIYAGI KEN","city":"KESENNUMA SHI","town":"KARAKUWACHO SHIBITACHI","perfecture_jp":"宮城県","jp_add_1":"気仙沼市","jp_add_2":"唐桑町鮪立"},"9880534":{"post_code":"9880534","prefecture":"MIYAGI KEN","city":"KESENNUMA SHI","town":"KARAKUWACHO SHUKURA","perfecture_jp":"宮城県","jp_add_1":"気仙沼市","jp_add_2":"唐桑町宿浦"},"9880502":{"post_code":"9880502","prefecture":"MIYAGI KEN","city":"KESENNUMA SHI","town":"KARAKUWACHO DAINOSHITA","perfecture_jp":"宮城県","jp_add_1":"気仙沼市","jp_add_2":"唐桑町台の下"},"9880531":{"post_code":"9880531","prefecture":"MIYAGI KEN","city":"KESENNUMA SHI","town":"KARAKUWACHO TAKAISHIHAMA","perfecture_jp":"宮城県","jp_add_1":"気仙沼市","jp_add_2":"唐桑町高石浜"},"9880504":{"post_code":"9880504","prefecture":"MIYAGI KEN","city":"KESENNUMA SHI","town":"KARAKUWACHO TAKENOSODE","perfecture_jp":"宮城県","jp_add_1":"気仙沼市","jp_add_2":"唐桑町竹の袖"},"9880524":{"post_code":"9880524","prefecture":"MIYAGI KEN","city":"KESENNUMA SHI","town":"KARAKUWACHO TADAKOSHI","perfecture_jp":"宮城県","jp_add_1":"気仙沼市","jp_add_2":"唐桑町只越"},"9880526":{"post_code":"9880526","prefecture":"MIYAGI KEN","city":"KESENNUMA SHI","town":"KARAKUWACHO TADAKOSHI","perfecture_jp":"宮城県","jp_add_1":"気仙沼市","jp_add_2":"唐桑町唯越"},"9880511":{"post_code":"9880511","prefecture":"MIYAGI KEN","city":"KESENNUMA SHI","town":"KARAKUWACHO TATE","perfecture_jp":"宮城県","jp_add_1":"気仙沼市","jp_add_2":"唐桑町舘"},"9880552":{"post_code":"9880552","prefecture":"MIYAGI KEN","city":"KESENNUMA SHI","town":"KARAKUWACHO TSUMOTO","perfecture_jp":"宮城県","jp_add_1":"気仙沼市","jp_add_2":"唐桑町津本"},"9880506":{"post_code":"9880506","prefecture":"MIYAGI KEN","city":"KESENNUMA SHI","town":"KARAKUWACHO DEYAMA","perfecture_jp":"宮城県","jp_add_1":"気仙沼市","jp_add_2":"唐桑町出山"},"9880525":{"post_code":"9880525","prefecture":"MIYAGI KEN","city":"KESENNUMA SHI","town":"KARAKUWACHO DOKAKU","perfecture_jp":"宮城県","jp_add_1":"気仙沼市","jp_add_2":"唐桑町堂角"},"9880542":{"post_code":"9880542","prefecture":"MIYAGI KEN","city":"KESENNUMA SHI","town":"KARAKUWACHO NAKA","perfecture_jp":"宮城県","jp_add_1":"気仙沼市","jp_add_2":"唐桑町中"},"9880563":{"post_code":"9880563","prefecture":"MIYAGI KEN","city":"KESENNUMA SHI","town":"KARAKUWACHO NAKAI","perfecture_jp":"宮城県","jp_add_1":"気仙沼市","jp_add_2":"唐桑町中井"},"9880927":{"post_code":"9880927","prefecture":"MIYAGI KEN","city":"KESENNUMA SHI","town":"KARAKUWACHO NISHIMONE(200-BANIJO)","perfecture_jp":"宮城県","jp_add_1":"気仙沼市","jp_add_2":"唐桑町西舞根"},"9880527":{"post_code":"9880527","prefecture":"MIYAGI KEN","city":"KESENNUMA SHI","town":"KARAKUWACHO NISHIMONE(SONOTA)","perfecture_jp":"宮城県","jp_add_1":"気仙沼市","jp_add_2":"唐桑町西舞根"},"9880513":{"post_code":"9880513","prefecture":"MIYAGI KEN","city":"KESENNUMA SHI","town":"KARAKUWACHO NOSEKAGI","perfecture_jp":"宮城県","jp_add_1":"気仙沼市","jp_add_2":"唐桑町載鈎"},"9880535":{"post_code":"9880535","prefecture":"MIYAGI KEN","city":"KESENNUMA SHI","town":"KARAKUWACHO BABA","perfecture_jp":"宮城県","jp_add_1":"気仙沼市","jp_add_2":"唐桑町馬場"},"9880582":{"post_code":"9880582","prefecture":"MIYAGI KEN","city":"KESENNUMA SHI","town":"KARAKUWACHO HIGASHIMONE","perfecture_jp":"宮城県","jp_add_1":"気仙沼市","jp_add_2":"唐桑町東舞根"},"9880551":{"post_code":"9880551","prefecture":"MIYAGI KEN","city":"KESENNUMA SHI","town":"KARAKUWACHO MATSUBATAKE","perfecture_jp":"宮城県","jp_add_1":"気仙沼市","jp_add_2":"唐桑町松圃"},"9880505":{"post_code":"9880505","prefecture":"MIYAGI KEN","city":"KESENNUMA SHI","town":"KARAKUWACHO MINATO","perfecture_jp":"宮城県","jp_add_1":"気仙沼市","jp_add_2":"唐桑町港"},"9880834":{"post_code":"9880834","prefecture":"MIYAGI KEN","city":"KESENNUMA SHI","town":"KAWAKAMI","perfecture_jp":"宮城県","jp_add_1":"気仙沼市","jp_add_2":"川上"},"9880033":{"post_code":"9880033","prefecture":"MIYAGI KEN","city":"KESENNUMA SHI","town":"KAWAGUCHICHO","perfecture_jp":"宮城県","jp_add_1":"気仙沼市","jp_add_2":"川口町"},"9880846":{"post_code":"9880846","prefecture":"MIYAGI KEN","city":"KESENNUMA SHI","town":"KAWASAKIJIRI","perfecture_jp":"宮城県","jp_add_1":"気仙沼市","jp_add_2":"川崎尻"},"9880041":{"post_code":"9880041","prefecture":"MIYAGI KEN","city":"KESENNUMA SHI","town":"KAWABATA","perfecture_jp":"宮城県","jp_add_1":"気仙沼市","jp_add_2":"川畑"},"9880824":{"post_code":"9880824","prefecture":"MIYAGI KEN","city":"KESENNUMA SHI","town":"KAWARAZAKI","perfecture_jp":"宮城県","jp_add_1":"気仙沼市","jp_add_2":"川原崎"},"9880022":{"post_code":"9880022","prefecture":"MIYAGI KEN","city":"KESENNUMA SHI","town":"KAWARADA","perfecture_jp":"宮城県","jp_add_1":"気仙沼市","jp_add_2":"河原田"},"9880831":{"post_code":"9880831","prefecture":"MIYAGI KEN","city":"KESENNUMA SHI","town":"KANNARISAWA","perfecture_jp":"宮城県","jp_add_1":"気仙沼市","jp_add_2":"金成沢"},"9880822":{"post_code":"9880822","prefecture":"MIYAGI KEN","city":"KESENNUMA SHI","town":"KIRIDOSHI","perfecture_jp":"宮城県","jp_add_1":"気仙沼市","jp_add_2":"切通"},"9880064":{"post_code":"9880064","prefecture":"MIYAGI KEN","city":"KESENNUMA SHI","town":"KUJO","perfecture_jp":"宮城県","jp_add_1":"気仙沼市","jp_add_2":"九条"},"9880842":{"post_code":"9880842","prefecture":"MIYAGI KEN","city":"KESENNUMA SHI","town":"KUBO","perfecture_jp":"宮城県","jp_add_1":"気仙沼市","jp_add_2":"久保"},"9880081":{"post_code":"9880081","prefecture":"MIYAGI KEN","city":"KESENNUMA SHI","town":"KURASOKO","perfecture_jp":"宮城県","jp_add_1":"気仙沼市","jp_add_2":"蔵底"},"9880868":{"post_code":"9880868","prefecture":"MIYAGI KEN","city":"KESENNUMA SHI","town":"SEKINE","perfecture_jp":"宮城県","jp_add_1":"気仙沼市","jp_add_2":"黒石山"},"9880863":{"post_code":"9880863","prefecture":"MIYAGI KEN","city":"KESENNUMA SHI","town":"YOSHINOKUCHI","perfecture_jp":"宮城県","jp_add_1":"気仙沼市","jp_add_2":"黒沢"},"9880072":{"post_code":"9880072","prefecture":"MIYAGI KEN","city":"KESENNUMA SHI","town":"KESHOZAKA","perfecture_jp":"宮城県","jp_add_1":"気仙沼市","jp_add_2":"化粧坂"},"9880836":{"post_code":"9880836","prefecture":"MIYAGI KEN","city":"KESENNUMA SHI","town":"KOASHI","perfecture_jp":"宮城県","jp_add_1":"気仙沼市","jp_add_2":"小芦"},"9880815":{"post_code":"9880815","prefecture":"MIYAGI KEN","city":"KESENNUMA SHI","town":"KOGOSHIO","perfecture_jp":"宮城県","jp_add_1":"気仙沼市","jp_add_2":"小々汐"},"9880832":{"post_code":"9880832","prefecture":"MIYAGI KEN","city":"KESENNUMA SHI","town":"KOBUTSUKI","perfecture_jp":"宮城県","jp_add_1":"気仙沼市","jp_add_2":"瘻槻"},"9880633":{"post_code":"9880633","prefecture":"MIYAGI KEN","city":"KESENNUMA SHI","town":"KOMAGATA","perfecture_jp":"宮城県","jp_add_1":"気仙沼市","jp_add_2":"駒形"},"9880054":{"post_code":"9880054","prefecture":"MIYAGI KEN","city":"KESENNUMA SHI","town":"KOMABA","perfecture_jp":"宮城県","jp_add_1":"気仙沼市","jp_add_2":"駒場"},"9880214":{"post_code":"9880214","prefecture":"MIYAGI KEN","city":"KESENNUMA SHI","town":"SAICHI ARASAWA","perfecture_jp":"宮城県","jp_add_1":"気仙沼市","jp_add_2":"最知荒沢"},"9880211":{"post_code":"9880211","prefecture":"MIYAGI KEN","city":"KESENNUMA SHI","town":"SAICHI KAWARA","perfecture_jp":"宮城県","jp_add_1":"気仙沼市","jp_add_2":"最知川原"},"9880215":{"post_code":"9880215","prefecture":"MIYAGI KEN","city":"KESENNUMA SHI","town":"SAICHI KITASAICHI","perfecture_jp":"宮城県","jp_add_1":"気仙沼市","jp_add_2":"最知北最知"},"9880213":{"post_code":"9880213","prefecture":"MIYAGI KEN","city":"KESENNUMA SHI","town":"SAICHI MINAMISAICHI","perfecture_jp":"宮城県","jp_add_1":"気仙沼市","jp_add_2":"最知南最知"},"9880212":{"post_code":"9880212","prefecture":"MIYAGI KEN","city":"KESENNUMA SHI","town":"SAICHI MORIAI","perfecture_jp":"宮城県","jp_add_1":"気仙沼市","jp_add_2":"最知森合"},"9880026":{"post_code":"9880026","prefecture":"MIYAGI KEN","city":"KESENNUMA SHI","town":"SAIWAICHO","perfecture_jp":"宮城県","jp_add_1":"気仙沼市","jp_add_2":"幸町"},"9880012":{"post_code":"9880012","prefecture":"MIYAGI KEN","city":"KESENNUMA SHI","town":"SAKAECHO","perfecture_jp":"宮城県","jp_add_1":"気仙沼市","jp_add_2":"栄町"},"9880013":{"post_code":"9880013","prefecture":"MIYAGI KEN","city":"KESENNUMA SHI","town":"SAKANAMACHI","perfecture_jp":"宮城県","jp_add_1":"気仙沼市","jp_add_2":"魚町"},"9880073":{"post_code":"9880073","prefecture":"MIYAGI KEN","city":"KESENNUMA SHI","town":"SASAGAJIN","perfecture_jp":"宮城県","jp_add_1":"気仙沼市","jp_add_2":"笹が陣"},"9880016":{"post_code":"9880016","prefecture":"MIYAGI KEN","city":"KESENNUMA SHI","town":"SAWADA","perfecture_jp":"宮城県","jp_add_1":"気仙沼市","jp_add_2":"沢田"},"9880818":{"post_code":"9880818","prefecture":"MIYAGI KEN","city":"KESENNUMA SHI","town":"SANNOHAMA","perfecture_jp":"宮城県","jp_add_1":"気仙沼市","jp_add_2":"三ノ浜"},"9880031":{"post_code":"9880031","prefecture":"MIYAGI KEN","city":"KESENNUMA SHI","town":"SHIOMICHO","perfecture_jp":"宮城県","jp_add_1":"気仙沼市","jp_add_2":"潮見町"},"9880063":{"post_code":"9880063","prefecture":"MIYAGI KEN","city":"KESENNUMA SHI","town":"SHITANDA","perfecture_jp":"宮城県","jp_add_1":"気仙沼市","jp_add_2":"四反田"},"9880828":{"post_code":"9880828","prefecture":"MIYAGI KEN","city":"KESENNUMA SHI","town":"SHIMOSHINDEN","perfecture_jp":"宮城県","jp_add_1":"気仙沼市","jp_add_2":"下新田"},"9880851":{"post_code":"9880851","prefecture":"MIYAGI KEN","city":"KESENNUMA SHI","town":"SHIMOYATSUSE","perfecture_jp":"宮城県","jp_add_1":"気仙沼市","jp_add_2":"下八瀬"},"9880051":{"post_code":"9880051","prefecture":"MIYAGI KEN","city":"KESENNUMA SHI","town":"JORAKU","perfecture_jp":"宮城県","jp_add_1":"気仙沼市","jp_add_2":"常楽"},"9880807":{"post_code":"9880807","prefecture":"MIYAGI KEN","city":"KESENNUMA SHI","town":"SHIRAISHI","perfecture_jp":"宮城県","jp_add_1":"気仙沼市","jp_add_2":"白石"},"9880867":{"post_code":"9880867","prefecture":"MIYAGI KEN","city":"KESENNUMA SHI","town":"DAI","perfecture_jp":"宮城県","jp_add_1":"気仙沼市","jp_add_2":"新台"},"9880829":{"post_code":"9880829","prefecture":"MIYAGI KEN","city":"KESENNUMA SHI","town":"SHINDEN","perfecture_jp":"宮城県","jp_add_1":"気仙沼市","jp_add_2":"新田"},"9880005":{"post_code":"9880005","prefecture":"MIYAGI KEN","city":"KESENNUMA SHI","town":"SHINHAMACHO","perfecture_jp":"宮城県","jp_add_1":"気仙沼市","jp_add_2":"新浜町"},"9880011":{"post_code":"9880011","prefecture":"MIYAGI KEN","city":"KESENNUMA SHI","town":"JINYAMA","perfecture_jp":"宮城県","jp_add_1":"気仙沼市","jp_add_2":"陣山"},"9880865":{"post_code":"9880865","prefecture":"MIYAGI KEN","city":"KESENNUMA SHI","town":"WASEYA","perfecture_jp":"宮城県","jp_add_1":"気仙沼市","jp_add_2":"新早稲谷"},"9880844":{"post_code":"9880844","prefecture":"MIYAGI KEN","city":"KESENNUMA SHI","town":"ZOGAHANA","perfecture_jp":"宮城県","jp_add_1":"気仙沼市","jp_add_2":"象ケ鼻"},"9880603":{"post_code":"9880603","prefecture":"MIYAGI KEN","city":"KESENNUMA SHI","town":"SOTOBATAKE","perfecture_jp":"宮城県","jp_add_1":"気仙沼市","jp_add_2":"外畑"},"9880601":{"post_code":"9880601","prefecture":"MIYAGI KEN","city":"KESENNUMA SHI","town":"SOTOHAMA","perfecture_jp":"宮城県","jp_add_1":"気仙沼市","jp_add_2":"外浜"},"9880055":{"post_code":"9880055","prefecture":"MIYAGI KEN","city":"KESENNUMA SHI","town":"SORIMATSU","perfecture_jp":"宮城県","jp_add_1":"気仙沼市","jp_add_2":"反松"},"9880613":{"post_code":"9880613","prefecture":"MIYAGI KEN","city":"KESENNUMA SHI","town":"TAKAI","perfecture_jp":"宮城県","jp_add_1":"気仙沼市","jp_add_2":"高井"},"9880802":{"post_code":"9880802","prefecture":"MIYAGI KEN","city":"KESENNUMA SHI","town":"HINOKUCHI","perfecture_jp":"宮城県","jp_add_1":"気仙沼市","jp_add_2":"高判形山"},"9880087":{"post_code":"9880087","prefecture":"MIYAGI KEN","city":"KESENNUMA SHI","town":"TAKINOIRI","perfecture_jp":"宮城県","jp_add_1":"気仙沼市","jp_add_2":"滝の入"},"9880611":{"post_code":"9880611","prefecture":"MIYAGI KEN","city":"KESENNUMA SHI","town":"TAJIRI","perfecture_jp":"宮城県","jp_add_1":"気仙沼市","jp_add_2":"田尻"},"9880825":{"post_code":"9880825","prefecture":"MIYAGI KEN","city":"KESENNUMA SHI","town":"TAJIRIZAWA","perfecture_jp":"宮城県","jp_add_1":"気仙沼市","jp_add_2":"田尻沢"},"9880076":{"post_code":"9880076","prefecture":"MIYAGI KEN","city":"KESENNUMA SHI","town":"TATEYAMA","perfecture_jp":"宮城県","jp_add_1":"気仙沼市","jp_add_2":"舘山"},"9880052":{"post_code":"9880052","prefecture":"MIYAGI KEN","city":"KESENNUMA SHI","town":"TANAKA","perfecture_jp":"宮城県","jp_add_1":"気仙沼市","jp_add_2":"田中"},"9880058":{"post_code":"9880058","prefecture":"MIYAGI KEN","city":"KESENNUMA SHI","town":"TANAKAOKI","perfecture_jp":"宮城県","jp_add_1":"気仙沼市","jp_add_2":"田中沖"},"9880053":{"post_code":"9880053","prefecture":"MIYAGI KEN","city":"KESENNUMA SHI","town":"TANAKAMAE","perfecture_jp":"宮城県","jp_add_1":"気仙沼市","jp_add_2":"田中前"},"9880045":{"post_code":"9880045","prefecture":"MIYAGI KEN","city":"KESENNUMA SHI","town":"TAYA","perfecture_jp":"宮城県","jp_add_1":"気仙沼市","jp_add_2":"田谷"},"9880046":{"post_code":"9880046","prefecture":"MIYAGI KEN","city":"KESENNUMA SHI","town":"TAYAMAE","perfecture_jp":"宮城県","jp_add_1":"気仙沼市","jp_add_2":"田谷前"},"9880864":{"post_code":"9880864","prefecture":"MIYAGI KEN","city":"KESENNUMA SHI","town":"TSUKAZAWA","perfecture_jp":"宮城県","jp_add_1":"気仙沼市","jp_add_2":"塚沢"},"9880826":{"post_code":"9880826","prefecture":"MIYAGI KEN","city":"KESENNUMA SHI","town":"DOMEKI","perfecture_jp":"宮城県","jp_add_1":"気仙沼市","jp_add_2":"百目木"},"9880057":{"post_code":"9880057","prefecture":"MIYAGI KEN","city":"KESENNUMA SHI","town":"TOKOROZAWA","perfecture_jp":"宮城県","jp_add_1":"気仙沼市","jp_add_2":"所沢"},"9880025":{"post_code":"9880025","prefecture":"MIYAGI KEN","city":"KESENNUMA SHI","town":"NAINOWAKI","perfecture_jp":"宮城県","jp_add_1":"気仙沼市","jp_add_2":"内ノ脇"},"9880237":{"post_code":"9880237","prefecture":"MIYAGI KEN","city":"KESENNUMA SHI","town":"NAGAISO AKAGAI","perfecture_jp":"宮城県","jp_add_1":"気仙沼市","jp_add_2":"長磯赤貝"},"9880226":{"post_code":"9880226","prefecture":"MIYAGI KEN","city":"KESENNUMA SHI","town":"NAGAISO USHIROZAWA","perfecture_jp":"宮城県","jp_add_1":"気仙沼市","jp_add_2":"長磯後沢"},"9880225":{"post_code":"9880225","prefecture":"MIYAGI KEN","city":"KESENNUMA SHI","town":"NAGAISO OKUBO","perfecture_jp":"宮城県","jp_add_1":"気仙沼市","jp_add_2":"長磯大窪"},"9880221":{"post_code":"9880221","prefecture":"MIYAGI KEN","city":"KESENNUMA SHI","town":"NAGAISO SHICHIHANZAWA","perfecture_jp":"宮城県","jp_add_1":"気仙沼市","jp_add_2":"長磯七半沢"},"9880232":{"post_code":"9880232","prefecture":"MIYAGI KEN","city":"KESENNUMA SHI","town":"NAGAISO SHIMOBARA","perfecture_jp":"宮城県","jp_add_1":"気仙沼市","jp_add_2":"長磯下原"},"9880223":{"post_code":"9880223","prefecture":"MIYAGI KEN","city":"KESENNUMA SHI","town":"NAGAISO TORIKOZAWA","perfecture_jp":"宮城県","jp_add_1":"気仙沼市","jp_add_2":"長磯鳥子沢"},"9880238":{"post_code":"9880238","prefecture":"MIYAGI KEN","city":"KESENNUMA SHI","town":"NAGAISO NAKAHARA","perfecture_jp":"宮城県","jp_add_1":"気仙沼市","jp_add_2":"長磯中原"},"9880236":{"post_code":"9880236","prefecture":"MIYAGI KEN","city":"KESENNUMA SHI","town":"NAGAISO NIHOMMATSU","perfecture_jp":"宮城県","jp_add_1":"気仙沼市","jp_add_2":"長磯二本松"},"9880231":{"post_code":"9880231","prefecture":"MIYAGI KEN","city":"KESENNUMA SHI","town":"NAGAISO HAMA","perfecture_jp":"宮城県","jp_add_1":"気仙沼市","jp_add_2":"長磯浜"},"9880233":{"post_code":"9880233","prefecture":"MIYAGI KEN","city":"KESENNUMA SHI","town":"NAGAISO HARA","perfecture_jp":"宮城県","jp_add_1":"気仙沼市","jp_add_2":"長磯原"},"9880234":{"post_code":"9880234","prefecture":"MIYAGI KEN","city":"KESENNUMA SHI","town":"NAGAISO HARANOSAWA","perfecture_jp":"宮城県","jp_add_1":"気仙沼市","jp_add_2":"長磯原ノ沢"},"9880222":{"post_code":"9880222","prefecture":"MIYAGI KEN","city":"KESENNUMA SHI","town":"NAGAISO FUNAHARA","perfecture_jp":"宮城県","jp_add_1":"気仙沼市","jp_add_2":"長磯船原"},"9880224":{"post_code":"9880224","prefecture":"MIYAGI KEN","city":"KESENNUMA SHI","town":"NAGAISO MAEBAYASHI","perfecture_jp":"宮城県","jp_add_1":"気仙沼市","jp_add_2":"長磯前林"},"9880235":{"post_code":"9880235","prefecture":"MIYAGI KEN","city":"KESENNUMA SHI","town":"NAGAISO MAGIDORI","perfecture_jp":"宮城県","jp_add_1":"気仙沼市","jp_add_2":"長磯牧通"},"9880227":{"post_code":"9880227","prefecture":"MIYAGI KEN","city":"KESENNUMA SHI","town":"NAGAISO MORI","perfecture_jp":"宮城県","jp_add_1":"気仙沼市","jp_add_2":"長磯森"},"9880835":{"post_code":"9880835","prefecture":"MIYAGI KEN","city":"KESENNUMA SHI","town":"NAGAIWAMA","perfecture_jp":"宮城県","jp_add_1":"気仙沼市","jp_add_2":"長岩間"},"9880621":{"post_code":"9880621","prefecture":"MIYAGI KEN","city":"KESENNUMA SHI","town":"NAGASAKI","perfecture_jp":"宮城県","jp_add_1":"気仙沼市","jp_add_2":"長崎"},"9880024":{"post_code":"9880024","prefecture":"MIYAGI KEN","city":"KESENNUMA SHI","town":"NAKAMACHI","perfecture_jp":"宮城県","jp_add_1":"気仙沼市","jp_add_2":"仲町"},"9880007":{"post_code":"9880007","prefecture":"MIYAGI KEN","city":"KESENNUMA SHI","town":"NAKAMINATOCHO","perfecture_jp":"宮城県","jp_add_1":"気仙沼市","jp_add_2":"中みなと町"},"9880622":{"post_code":"9880622","prefecture":"MIYAGI KEN","city":"KESENNUMA SHI","town":"NAKAYAMA","perfecture_jp":"宮城県","jp_add_1":"気仙沼市","jp_add_2":"中山"},"9880855":{"post_code":"9880855","prefecture":"MIYAGI KEN","city":"KESENNUMA SHI","town":"NAGISAWA","perfecture_jp":"宮城県","jp_add_1":"気仙沼市","jp_add_2":"名木沢"},"9880813":{"post_code":"9880813","prefecture":"MIYAGI KEN","city":"KESENNUMA SHI","town":"NAMIITA","perfecture_jp":"宮城県","jp_add_1":"気仙沼市","jp_add_2":"浪板"},"9880043":{"post_code":"9880043","prefecture":"MIYAGI KEN","city":"KESENNUMA SHI","town":"NANGO","perfecture_jp":"宮城県","jp_add_1":"気仙沼市","jp_add_2":"南郷"},"9880002":{"post_code":"9880002","prefecture":"MIYAGI KEN","city":"KESENNUMA SHI","town":"NISHIKICHO","perfecture_jp":"宮城県","jp_add_1":"気仙沼市","jp_add_2":"錦町"},"9880805":{"post_code":"9880805","prefecture":"MIYAGI KEN","city":"KESENNUMA SHI","town":"NISHINAKASAI","perfecture_jp":"宮城県","jp_add_1":"気仙沼市","jp_add_2":"西中才"},"9880817":{"post_code":"9880817","prefecture":"MIYAGI KEN","city":"KESENNUMA SHI","town":"NISHIHACHIMAMMAE","perfecture_jp":"宮城県","jp_add_1":"気仙沼市","jp_add_2":"西八幡町"},"9880006":{"post_code":"9880006","prefecture":"MIYAGI KEN","city":"KESENNUMA SHI","town":"NISHIMINATOCHO","perfecture_jp":"宮城県","jp_add_1":"気仙沼市","jp_add_2":"西みなと町"},"9880816":{"post_code":"9880816","prefecture":"MIYAGI KEN","city":"KESENNUMA SHI","town":"NINOHAMA","perfecture_jp":"宮城県","jp_add_1":"気仙沼市","jp_add_2":"二ノ浜"},"9880241":{"post_code":"9880241","prefecture":"MIYAGI KEN","city":"KESENNUMA SHI","town":"HAJIKAMI IWAISAKI","perfecture_jp":"宮城県","jp_add_1":"気仙沼市","jp_add_2":"波路上岩井崎"},"9880252":{"post_code":"9880252","prefecture":"MIYAGI KEN","city":"KESENNUMA SHI","town":"HAJIKAMI USHIROBARA","perfecture_jp":"宮城県","jp_add_1":"気仙沼市","jp_add_2":"波路上後原"},"9880251":{"post_code":"9880251","prefecture":"MIYAGI KEN","city":"KESENNUMA SHI","town":"HAJIKAMI UCHIDA","perfecture_jp":"宮城県","jp_add_1":"気仙沼市","jp_add_2":"波路上内田"},"9880247":{"post_code":"9880247","prefecture":"MIYAGI KEN","city":"KESENNUMA SHI","town":"HAJIKAMI UCHINUMA","perfecture_jp":"宮城県","jp_add_1":"気仙沼市","jp_add_2":"波路上内沼"},"9880242":{"post_code":"9880242","prefecture":"MIYAGI KEN","city":"KESENNUMA SHI","town":"HAJIKAMI SAKINO","perfecture_jp":"宮城県","jp_add_1":"気仙沼市","jp_add_2":"波路上崎野"},"9880245":{"post_code":"9880245","prefecture":"MIYAGI KEN","city":"KESENNUMA SHI","town":"HAJIKAMI SUGINOSHITA","perfecture_jp":"宮城県","jp_add_1":"気仙沼市","jp_add_2":"波路上杉ノ下"},"9880246":{"post_code":"9880246","prefecture":"MIYAGI KEN","city":"KESENNUMA SHI","town":"HAJIKAMI SEMUKAI","perfecture_jp":"宮城県","jp_add_1":"気仙沼市","jp_add_2":"波路上瀬向"},"9880254":{"post_code":"9880254","prefecture":"MIYAGI KEN","city":"KESENNUMA SHI","town":"HAJIKAMI NODA","perfecture_jp":"宮城県","jp_add_1":"気仙沼市","jp_add_2":"波路上野田"},"9880253":{"post_code":"9880253","prefecture":"MIYAGI KEN","city":"KESENNUMA SHI","town":"HAJIKAMI HARA","perfecture_jp":"宮城県","jp_add_1":"気仙沼市","jp_add_2":"波路上原"},"9880243":{"post_code":"9880243","prefecture":"MIYAGI KEN","city":"KESENNUMA SHI","town":"HAJIKAMI MAGI","perfecture_jp":"宮城県","jp_add_1":"気仙沼市","jp_add_2":"波路上牧"},"9880255":{"post_code":"9880255","prefecture":"MIYAGI KEN","city":"KESENNUMA SHI","town":"HAJIKAMI MUKAIDA","perfecture_jp":"宮城県","jp_add_1":"気仙沼市","jp_add_2":"波路上向田"},"9880256":{"post_code":"9880256","prefecture":"MIYAGI KEN","city":"KESENNUMA SHI","town":"HAJIKAMI MUKAIBARA","perfecture_jp":"宮城県","jp_add_1":"気仙沼市","jp_add_2":"波路上向原"},"9880244":{"post_code":"9880244","prefecture":"MIYAGI KEN","city":"KESENNUMA SHI","town":"HAJIKAMIAKEDO","perfecture_jp":"宮城県","jp_add_1":"気仙沼市","jp_add_2":"波路上明戸"},"9880004":{"post_code":"9880004","prefecture":"MIYAGI KEN","city":"KESENNUMA SHI","town":"HAMACHO","perfecture_jp":"宮城県","jp_add_1":"気仙沼市","jp_add_2":"浜町"},"9880015":{"post_code":"9880015","prefecture":"MIYAGI KEN","city":"KESENNUMA SHI","town":"HAMAMIYAMA","perfecture_jp":"宮城県","jp_add_1":"気仙沼市","jp_add_2":"浜見山"},"9880066":{"post_code":"9880066","prefecture":"MIYAGI KEN","city":"KESENNUMA SHI","town":"HIGASHISHINJO","perfecture_jp":"宮城県","jp_add_1":"気仙沼市","jp_add_2":"東新城"},"9880804":{"post_code":"9880804","prefecture":"MIYAGI KEN","city":"KESENNUMA SHI","town":"HIGASHINAKASAI","perfecture_jp":"宮城県","jp_add_1":"気仙沼市","jp_add_2":"東中才"},"9880811":{"post_code":"9880811","prefecture":"MIYAGI KEN","city":"KESENNUMA SHI","town":"HIGASHIHACHIMAMMAE","perfecture_jp":"宮城県","jp_add_1":"気仙沼市","jp_add_2":"東八幡前"},"9880001":{"post_code":"9880001","prefecture":"MIYAGI KEN","city":"KESENNUMA SHI","town":"HIGASHIMINATOCHO","perfecture_jp":"宮城県","jp_add_1":"気仙沼市","jp_add_2":"東みなと町"},"9880086":{"post_code":"9880086","prefecture":"MIYAGI KEN","city":"KESENNUMA SHI","town":"FUKUMICHO","perfecture_jp":"宮城県","jp_add_1":"気仙沼市","jp_add_2":"福美町"},"9880077":{"post_code":"9880077","prefecture":"MIYAGI KEN","city":"KESENNUMA SHI","town":"FURUMACHI","perfecture_jp":"宮城県","jp_add_1":"気仙沼市","jp_add_2":"古町"},"9880036":{"post_code":"9880036","prefecture":"MIYAGI KEN","city":"KESENNUMA SHI","town":"BENTENCHO","perfecture_jp":"宮城県","jp_add_1":"気仙沼市","jp_add_2":"弁天町"},"9880861":{"post_code":"9880861","prefecture":"MIYAGI KEN","city":"KESENNUMA SHI","town":"HOSO","perfecture_jp":"宮城県","jp_add_1":"気仙沼市","jp_add_2":"細尾"},"9880042":{"post_code":"9880042","prefecture":"MIYAGI KEN","city":"KESENNUMA SHI","town":"HONGO","perfecture_jp":"宮城県","jp_add_1":"気仙沼市","jp_add_2":"本郷"},"9880845":{"post_code":"9880845","prefecture":"MIYAGI KEN","city":"KESENNUMA SHI","town":"MAEGI","perfecture_jp":"宮城県","jp_add_1":"気仙沼市","jp_add_2":"前木"},"9880852":{"post_code":"9880852","prefecture":"MIYAGI KEN","city":"KESENNUMA SHI","town":"MATSUKAWA","perfecture_jp":"宮城県","jp_add_1":"気仙沼市","jp_add_2":"松川"},"9880853":{"post_code":"9880853","prefecture":"MIYAGI KEN","city":"KESENNUMA SHI","town":"MATSUKAWAMAE","perfecture_jp":"宮城県","jp_add_1":"気仙沼市","jp_add_2":"松川前"},"9880114":{"post_code":"9880114","prefecture":"MIYAGI KEN","city":"KESENNUMA SHI","town":"MATSUZAKI URADA","perfecture_jp":"宮城県","jp_add_1":"気仙沼市","jp_add_2":"松崎浦田"},"9880155":{"post_code":"9880155","prefecture":"MIYAGI KEN","city":"KESENNUMA SHI","town":"MATSUZAKI OKAYA","perfecture_jp":"宮城県","jp_add_1":"気仙沼市","jp_add_2":"松崎大萱"},"9880131":{"post_code":"9880131","prefecture":"MIYAGI KEN","city":"KESENNUMA SHI","town":"MATSUZAKI OSAKI","perfecture_jp":"宮城県","jp_add_1":"気仙沼市","jp_add_2":"松崎尾崎"},"9880153":{"post_code":"9880153","prefecture":"MIYAGI KEN","city":"KESENNUMA SHI","town":"MATSUZAKI OMOSE","perfecture_jp":"宮城県","jp_add_1":"気仙沼市","jp_add_2":"松崎面瀬"},"9880113":{"post_code":"9880113","prefecture":"MIYAGI KEN","city":"KESENNUMA SHI","town":"MATSUZAKI KATAHAMA","perfecture_jp":"宮城県","jp_add_1":"気仙沼市","jp_add_2":"松崎片浜"},"9880134":{"post_code":"9880134","prefecture":"MIYAGI KEN","city":"KESENNUMA SHI","town":"MATSUZAKI KAMIAKADA","perfecture_jp":"宮城県","jp_add_1":"気仙沼市","jp_add_2":"松崎上赤田"},"9880157":{"post_code":"9880157","prefecture":"MIYAGI KEN","city":"KESENNUMA SHI","town":"MATSUZAKI KAMIKANETORI","perfecture_jp":"宮城県","jp_add_1":"気仙沼市","jp_add_2":"松崎上金取"},"9880121":{"post_code":"9880121","prefecture":"MIYAGI KEN","city":"KESENNUMA SHI","town":"MATSUZAKI KAYA","perfecture_jp":"宮城県","jp_add_1":"気仙沼市","jp_add_2":"松崎萱"},"9880111":{"post_code":"9880111","prefecture":"MIYAGI KEN","city":"KESENNUMA SHI","town":"MATSUZAKI KITASAWA","perfecture_jp":"宮城県","jp_add_1":"気仙沼市","jp_add_2":"松崎北沢"},"9880122":{"post_code":"9880122","prefecture":"MIYAGI KEN","city":"KESENNUMA SHI","town":"MATSUZAKI GODANTARA","perfecture_jp":"宮城県","jp_add_1":"気仙沼市","jp_add_2":"松崎五駄鱈"},"9880143":{"post_code":"9880143","prefecture":"MIYAGI KEN","city":"KESENNUMA SHI","town":"MATSUZAKI JISHO","perfecture_jp":"宮城県","jp_add_1":"気仙沼市","jp_add_2":"松崎地生"},"9880133":{"post_code":"9880133","prefecture":"MIYAGI KEN","city":"KESENNUMA SHI","town":"MATSUZAKI SHIMOAKADA","perfecture_jp":"宮城県","jp_add_1":"気仙沼市","jp_add_2":"松崎下赤田"},"9880156":{"post_code":"9880156","prefecture":"MIYAGI KEN","city":"KESENNUMA SHI","town":"MATSUZAKI SHIMOKANETORI","perfecture_jp":"宮城県","jp_add_1":"気仙沼市","jp_add_2":"松崎下金取"},"9880152":{"post_code":"9880152","prefecture":"MIYAGI KEN","city":"KESENNUMA SHI","town":"MATSUZAKI SOTOGASAWA","perfecture_jp":"宮城県","jp_add_1":"気仙沼市","jp_add_2":"松崎外ケ沢"},"9880124":{"post_code":"9880124","prefecture":"MIYAGI KEN","city":"KESENNUMA SHI","town":"MATSUZAKI TAKAYA","perfecture_jp":"宮城県","jp_add_1":"気仙沼市","jp_add_2":"松崎高谷"},"9880151":{"post_code":"9880151","prefecture":"MIYAGI KEN","city":"KESENNUMA SHI","town":"MATSUZAKI TATEISHI","perfecture_jp":"宮城県","jp_add_1":"気仙沼市","jp_add_2":"松崎立石"},"9880144":{"post_code":"9880144","prefecture":"MIYAGI KEN","city":"KESENNUMA SHI","town":"MATSUZAKI TSURUMAKI","perfecture_jp":"宮城県","jp_add_1":"気仙沼市","jp_add_2":"松崎鶴巻"},"9880123":{"post_code":"9880123","prefecture":"MIYAGI KEN","city":"KESENNUMA SHI","town":"MATSUZAKI NAKAZE","perfecture_jp":"宮城県","jp_add_1":"気仙沼市","jp_add_2":"松崎中瀬"},"9880154":{"post_code":"9880154","prefecture":"MIYAGI KEN","city":"KESENNUMA SHI","town":"MATSUZAKI NEKOBUCHI","perfecture_jp":"宮城県","jp_add_1":"気仙沼市","jp_add_2":"松崎猫渕"},"9880132":{"post_code":"9880132","prefecture":"MIYAGI KEN","city":"KESENNUMA SHI","town":"MATSUZAKI BABA","perfecture_jp":"宮城県","jp_add_1":"気仙沼市","jp_add_2":"松崎馬場"},"9880112":{"post_code":"9880112","prefecture":"MIYAGI KEN","city":"KESENNUMA SHI","town":"MATSUZAKI MAEHAMA","perfecture_jp":"宮城県","jp_add_1":"気仙沼市","jp_add_2":"松崎前浜"},"9880142":{"post_code":"9880142","prefecture":"MIYAGI KEN","city":"KESENNUMA SHI","town":"MATSUZAKI MARUMORI","perfecture_jp":"宮城県","jp_add_1":"気仙沼市","jp_add_2":"松崎丸森"},"9880141":{"post_code":"9880141","prefecture":"MIYAGI KEN","city":"KESENNUMA SHI","town":"MATSUZAKI YANAGISAWA","perfecture_jp":"宮城県","jp_add_1":"気仙沼市","jp_add_2":"松崎柳沢"},"9880604":{"post_code":"9880604","prefecture":"MIYAGI KEN","city":"KESENNUMA SHI","town":"MAWARIDATE","perfecture_jp":"宮城県","jp_add_1":"気仙沼市","jp_add_2":"廻舘"},"9880631":{"post_code":"9880631","prefecture":"MIYAGI KEN","city":"KESENNUMA SHI","town":"MISAKUHAMA","perfecture_jp":"宮城県","jp_add_1":"気仙沼市","jp_add_2":"三作浜"},"9880085":{"post_code":"9880085","prefecture":"MIYAGI KEN","city":"KESENNUMA SHI","town":"MIKKAMACHI","perfecture_jp":"宮城県","jp_add_1":"気仙沼市","jp_add_2":"三日町"},"9880021":{"post_code":"9880021","prefecture":"MIYAGI KEN","city":"KESENNUMA SHI","town":"MINATOMACHI","perfecture_jp":"宮城県","jp_add_1":"気仙沼市","jp_add_2":"港町"},"9880023":{"post_code":"9880023","prefecture":"MIYAGI KEN","city":"KESENNUMA SHI","town":"MINAMIGAOKA","perfecture_jp":"宮城県","jp_add_1":"気仙沼市","jp_add_2":"南が丘"},"9880017":{"post_code":"9880017","prefecture":"MIYAGI KEN","city":"KESENNUMA SHI","town":"MINAMIMACHI","perfecture_jp":"宮城県","jp_add_1":"気仙沼市","jp_add_2":"南町"},"9880018":{"post_code":"9880018","prefecture":"MIYAGI KEN","city":"KESENNUMA SHI","town":"MINAMIMACHIKAIGAN","perfecture_jp":"宮城県","jp_add_1":"気仙沼市","jp_add_2":"南町海岸"},"9880823":{"post_code":"9880823","prefecture":"MIYAGI KEN","city":"KESENNUMA SHI","town":"MYOGASAWA","perfecture_jp":"宮城県","jp_add_1":"気仙沼市","jp_add_2":"茗荷沢"},"9880003":{"post_code":"9880003","prefecture":"MIYAGI KEN","city":"KESENNUMA SHI","town":"MOTOHAMACHO","perfecture_jp":"宮城県","jp_add_1":"気仙沼市","jp_add_2":"本浜町"},"9880074":{"post_code":"9880074","prefecture":"MIYAGI KEN","city":"KESENNUMA SHI","town":"MOTOMACHI","perfecture_jp":"宮城県","jp_add_1":"気仙沼市","jp_add_2":"本町"},"9880284":{"post_code":"9880284","prefecture":"MIYAGI KEN","city":"KESENNUMA SHI","town":"MOTOYOSHICHO AKAUSHI","perfecture_jp":"宮城県","jp_add_1":"気仙沼市","jp_add_2":"本吉町赤牛"},"9880277":{"post_code":"9880277","prefecture":"MIYAGI KEN","city":"KESENNUMA SHI","town":"MOTOYOSHICHO TANOSAWA","perfecture_jp":"宮城県","jp_add_1":"気仙沼市","jp_add_2":"本吉町天ヶ沢"},"9880268":{"post_code":"9880268","prefecture":"MIYAGI KEN","city":"KESENNUMA SHI","town":"MOTOYOSHICHO ISHIKAWARA","perfecture_jp":"宮城県","jp_add_1":"気仙沼市","jp_add_2":"本吉町石川原"},"9880339":{"post_code":"9880339","prefecture":"MIYAGI KEN","city":"KESENNUMA SHI","town":"MOTOYOSHICHO IZUMI","perfecture_jp":"宮城県","jp_add_1":"気仙沼市","jp_add_2":"本吉町泉"},"9880336":{"post_code":"9880336","prefecture":"MIYAGI KEN","city":"KESENNUMA SHI","town":"MOTOYOSHICHO IZUMISAWA","perfecture_jp":"宮城県","jp_add_1":"気仙沼市","jp_add_2":"本吉町泉沢"},"9880347":{"post_code":"9880347","prefecture":"MIYAGI KEN","city":"KESENNUMA SHI","town":"MOTOYOSHICHO INOHANA","perfecture_jp":"宮城県","jp_add_1":"気仙沼市","jp_add_2":"本吉町猪の鼻"},"9880261":{"post_code":"9880261","prefecture":"MIYAGI KEN","city":"KESENNUMA SHI","town":"MOTOYOSHICHO TSUCHIDOISHITA","perfecture_jp":"宮城県","jp_add_1":"気仙沼市","jp_add_2":"本吉町後田"},"9880324":{"post_code":"9880324","prefecture":"MIYAGI KEN","city":"KESENNUMA SHI","town":"MOTOYOSHICHO UTO","perfecture_jp":"宮城県","jp_add_1":"気仙沼市","jp_add_2":"本吉町歌生"},"9880313":{"post_code":"9880313","prefecture":"MIYAGI KEN","city":"KESENNUMA SHI","town":"MOTOYOSHICHO UNAZAWA","perfecture_jp":"宮城県","jp_add_1":"気仙沼市","jp_add_2":"本吉町卯名沢"},"9880371":{"post_code":"9880371","prefecture":"MIYAGI KEN","city":"KESENNUMA SHI","town":"MOTOYOSHICHO URUSHIBARA","perfecture_jp":"宮城県","jp_add_1":"気仙沼市","jp_add_2":"本吉町漆原"},"9880301":{"post_code":"9880301","prefecture":"MIYAGI KEN","city":"KESENNUMA SHI","town":"MOTOYOSHICHO OINOSU","perfecture_jp":"宮城県","jp_add_1":"気仙沼市","jp_add_2":"本吉町狼の巣"},"9880306":{"post_code":"9880306","prefecture":"MIYAGI KEN","city":"KESENNUMA SHI","town":"MOTOYOSHICHO OKUNUGI","perfecture_jp":"宮城県","jp_add_1":"気仙沼市","jp_add_2":"本吉町大椚"},"9880304":{"post_code":"9880304","prefecture":"MIYAGI KEN","city":"KESENNUMA SHI","town":"MOTOYOSHICHO OSAWA","perfecture_jp":"宮城県","jp_add_1":"気仙沼市","jp_add_2":"本吉町大沢"},"9880356":{"post_code":"9880356","prefecture":"MIYAGI KEN","city":"KESENNUMA SHI","town":"MOTOYOSHICHO OSHIBA","perfecture_jp":"宮城県","jp_add_1":"気仙沼市","jp_add_2":"本吉町大柴"},"9880358":{"post_code":"9880358","prefecture":"MIYAGI KEN","city":"KESENNUMA SHI","town":"MOTOYOSHICHO OHIGASHI","perfecture_jp":"宮城県","jp_add_1":"気仙沼市","jp_add_2":"本吉町大東"},"9880287":{"post_code":"9880287","prefecture":"MIYAGI KEN","city":"KESENNUMA SHI","town":"MOTOYOSHICHO OBOKI","perfecture_jp":"宮城県","jp_add_1":"気仙沼市","jp_add_2":"本吉町大朴木"},"9880283":{"post_code":"9880283","prefecture":"MIYAGI KEN","city":"KESENNUMA SHI","town":"MOTOYOSHICHO YACHI","perfecture_jp":"宮城県","jp_add_1":"気仙沼市","jp_add_2":"本吉町大森"},"9880272":{"post_code":"9880272","prefecture":"MIYAGI KEN","city":"KESENNUMA SHI","town":"MOTOYOSHICHO OYA","perfecture_jp":"宮城県","jp_add_1":"気仙沼市","jp_add_2":"本吉町大谷"},"9880262":{"post_code":"9880262","prefecture":"MIYAGI KEN","city":"KESENNUMA SHI","town":"MOTOYOSHICHO OKINODA","perfecture_jp":"宮城県","jp_add_1":"気仙沼市","jp_add_2":"本吉町沖の田"},"9880372":{"post_code":"9880372","prefecture":"MIYAGI KEN","city":"KESENNUMA SHI","town":"MOTOYOSHICHO ODEN","perfecture_jp":"宮城県","jp_add_1":"気仙沼市","jp_add_2":"本吉町尾田"},"9880311":{"post_code":"9880311","prefecture":"MIYAGI KEN","city":"KESENNUMA SHI","town":"MOTOYOSHICHO KAZAKOSHI","perfecture_jp":"宮城県","jp_add_1":"気仙沼市","jp_add_2":"本吉町風越"},"9880354":{"post_code":"9880354","prefecture":"MIYAGI KEN","city":"KESENNUMA SHI","town":"MOTOYOSHICHO KANOKO","perfecture_jp":"宮城県","jp_add_1":"気仙沼市","jp_add_2":"本吉町鹿の子"},"9880388":{"post_code":"9880388","prefecture":"MIYAGI KEN","city":"KESENNUMA SHI","town":"MOTOYOSHICHO KAMIKAWAUCHI","perfecture_jp":"宮城県","jp_add_1":"気仙沼市","jp_add_2":"本吉町上川内"},"9880373":{"post_code":"9880373","prefecture":"MIYAGI KEN","city":"KESENNUMA SHI","town":"MOTOYOSHICHO KARYO","perfecture_jp":"宮城県","jp_add_1":"気仙沼市","jp_add_2":"本吉町狩猟"},"9880317":{"post_code":"9880317","prefecture":"MIYAGI KEN","city":"KESENNUMA SHI","town":"MOTOYOSHICHO KITAAKEDO","perfecture_jp":"宮城県","jp_add_1":"気仙沼市","jp_add_2":"本吉町北明戸"},"9880275":{"post_code":"9880275","prefecture":"MIYAGI KEN","city":"KESENNUMA SHI","town":"MOTOYOSHICHO KUDAMARU","perfecture_jp":"宮城県","jp_add_1":"気仙沼市","jp_add_2":"本吉町九多丸"},"9880265":{"post_code":"9880265","prefecture":"MIYAGI KEN","city":"KESENNUMA SHI","town":"MOTOYOSHICHO KUBO","perfecture_jp":"宮城県","jp_add_1":"気仙沼市","jp_add_2":"本吉町窪"},"9880325":{"post_code":"9880325","prefecture":"MIYAGI KEN","city":"KESENNUMA SHI","town":"MOTOYOSHICHO KURAUCHI","perfecture_jp":"宮城県","jp_add_1":"気仙沼市","jp_add_2":"本吉町蔵内"},"9880323":{"post_code":"9880323","prefecture":"MIYAGI KEN","city":"KESENNUMA SHI","town":"MOTOYOSHICHO KESAISO","perfecture_jp":"宮城県","jp_add_1":"気仙沼市","jp_add_2":"本吉町今朝磯"},"9880303":{"post_code":"9880303","prefecture":"MIYAGI KEN","city":"KESENNUMA SHI","town":"MOTOYOSHICHO KODO","perfecture_jp":"宮城県","jp_add_1":"気仙沼市","jp_add_2":"本吉町幸土"},"9880351":{"post_code":"9880351","prefecture":"MIYAGI KEN","city":"KESENNUMA SHI","town":"MOTOYOSHICHO GOUNOSAWA","perfecture_jp":"宮城県","jp_add_1":"気仙沼市","jp_add_2":"本吉町午王野沢"},"9880285":{"post_code":"9880285","prefecture":"MIYAGI KEN","city":"KESENNUMA SHI","town":"MOTOYOSHICHO KOGANESAWA","perfecture_jp":"宮城県","jp_add_1":"気仙沼市","jp_add_2":"本吉町小金沢"},"9880364":{"post_code":"9880364","prefecture":"MIYAGI KEN","city":"KESENNUMA SHI","town":"MOTOYOSHICHO KOGANEYAMA","perfecture_jp":"宮城県","jp_add_1":"気仙沼市","jp_add_2":"本吉町小金山"},"9880321":{"post_code":"9880321","prefecture":"MIYAGI KEN","city":"KESENNUMA SHI","town":"MOTOYOSHICHO KOBAMA","perfecture_jp":"宮城県","jp_add_1":"気仙沼市","jp_add_2":"本吉町小浜"},"9880348":{"post_code":"9880348","prefecture":"MIYAGI KEN","city":"KESENNUMA SHI","town":"MOTOYOSHICHO KOMINEZAKI","perfecture_jp":"宮城県","jp_add_1":"気仙沼市","jp_add_2":"本吉町小峰崎"},"9880279":{"post_code":"9880279","prefecture":"MIYAGI KEN","city":"KESENNUMA SHI","town":"MOTOYOSHICHO SARUCHI","perfecture_jp":"宮城県","jp_add_1":"気仙沼市","jp_add_2":"本吉町猿内"},"9880353":{"post_code":"9880353","prefecture":"MIYAGI KEN","city":"KESENNUMA SHI","town":"MOTOYOSHICHO SHINOBU","perfecture_jp":"宮城県","jp_add_1":"気仙沼市","jp_add_2":"本吉町信夫"},"9880385":{"post_code":"9880385","prefecture":"MIYAGI KEN","city":"KESENNUMA SHI","town":"MOTOYOSHICHO SHIMOKAWAUCHI","perfecture_jp":"宮城県","jp_add_1":"気仙沼市","jp_add_2":"本吉町下川内"},"9880332":{"post_code":"9880332","prefecture":"MIYAGI KEN","city":"KESENNUMA SHI","town":"MOTOYOSHICHO SHIMOJUKU","perfecture_jp":"宮城県","jp_add_1":"気仙沼市","jp_add_2":"本吉町下宿"},"9880361":{"post_code":"9880361","prefecture":"MIYAGI KEN","city":"KESENNUMA SHI","town":"MOTOYOSHICHO SHIMOYOGAI","perfecture_jp":"宮城県","jp_add_1":"気仙沼市","jp_add_2":"本吉町下要害"},"9880269":{"post_code":"9880269","prefecture":"MIYAGI KEN","city":"KESENNUMA SHI","town":"MOTOYOSHICHO DOMEKI","perfecture_jp":"宮城県","jp_add_1":"気仙沼市","jp_add_2":"本吉町菖蒲沢"},"9880316":{"post_code":"9880316","prefecture":"MIYAGI KEN","city":"KESENNUMA SHI","town":"MOTOYOSHICHO SHINKITAAKEDO","perfecture_jp":"宮城県","jp_add_1":"気仙沼市","jp_add_2":"本吉町新北明戸"},"9880315":{"post_code":"9880315","prefecture":"MIYAGI KEN","city":"KESENNUMA SHI","town":"MOTOYOSHICHO SHINHATANOSAWA","perfecture_jp":"宮城県","jp_add_1":"気仙沼市","jp_add_2":"本吉町新圃の沢"},"9880337":{"post_code":"9880337","prefecture":"MIYAGI KEN","city":"KESENNUMA SHI","town":"MOTOYOSHICHO SHIMMINAMIAKEDO","perfecture_jp":"宮城県","jp_add_1":"気仙沼市","jp_add_2":"本吉町新南明戸"},"9880328":{"post_code":"9880328","prefecture":"MIYAGI KEN","city":"KESENNUMA SHI","town":"MOTOYOSHICHO SUGENOSAWA","perfecture_jp":"宮城県","jp_add_1":"気仙沼市","jp_add_2":"本吉町菅の沢"},"9880334":{"post_code":"9880334","prefecture":"MIYAGI KEN","city":"KESENNUMA SHI","town":"MOTOYOSHICHO SODEO","perfecture_jp":"宮城県","jp_add_1":"気仙沼市","jp_add_2":"本吉町外尾"},"9880352":{"post_code":"9880352","prefecture":"MIYAGI KEN","city":"KESENNUMA SHI","town":"MOTOYOSHICHO TAIRAKUNUGI","perfecture_jp":"宮城県","jp_add_1":"気仙沼市","jp_add_2":"本吉町平椚"},"9880286":{"post_code":"9880286","prefecture":"MIYAGI KEN","city":"KESENNUMA SHI","town":"MOTOYOSHICHO TAKA","perfecture_jp":"宮城県","jp_add_1":"気仙沼市","jp_add_2":"本吉町高"},"9880384":{"post_code":"9880384","prefecture":"MIYAGI KEN","city":"KESENNUMA SHI","town":"MOTOYOSHICHO TAKAOKA","perfecture_jp":"宮城県","jp_add_1":"気仙沼市","jp_add_2":"本吉町高岡"},"9880278":{"post_code":"9880278","prefecture":"MIYAGI KEN","city":"KESENNUMA SHI","town":"MOTOYOSHICHO YAMAYA","perfecture_jp":"宮城県","jp_add_1":"気仙沼市","jp_add_2":"本吉町高瀬ヶ森"},"9880355":{"post_code":"9880355","prefecture":"MIYAGI KEN","city":"KESENNUMA SHI","town":"MOTOYOSHICHO TAKISAWA","perfecture_jp":"宮城県","jp_add_1":"気仙沼市","jp_add_2":"本吉町滝沢"},"9880274":{"post_code":"9880274","prefecture":"MIYAGI KEN","city":"KESENNUMA SHI","town":"MOTOYOSHICHO TAKINE","perfecture_jp":"宮城県","jp_add_1":"気仙沼市","jp_add_2":"本吉町滝根"},"9880346":{"post_code":"9880346","prefecture":"MIYAGI KEN","city":"KESENNUMA SHI","town":"MOTOYOSHICHO TAKENOSHITA","perfecture_jp":"宮城県","jp_add_1":"気仙沼市","jp_add_2":"本吉町岳の下"},"9880345":{"post_code":"9880345","prefecture":"MIYAGI KEN","city":"KESENNUMA SHI","town":"MOTOYOSHICHO TATESHITA","perfecture_jp":"宮城県","jp_add_1":"気仙沼市","jp_add_2":"本吉町舘下"},"9880374":{"post_code":"9880374","prefecture":"MIYAGI KEN","city":"KESENNUMA SHI","town":"MOTOYOSHICHO TSUNOGARA","perfecture_jp":"宮城県","jp_add_1":"気仙沼市","jp_add_2":"本吉町角柄"},"9880382":{"post_code":"9880382","prefecture":"MIYAGI KEN","city":"KESENNUMA SHI","town":"MOTOYOSHICHO TSUYAAKEDO","perfecture_jp":"宮城県","jp_add_1":"気仙沼市","jp_add_2":"本吉町津谷明戸"},"9880341":{"post_code":"9880341","prefecture":"MIYAGI KEN","city":"KESENNUMA SHI","town":"MOTOYOSHICHO TSUYASAKURAGO","perfecture_jp":"宮城県","jp_add_1":"気仙沼市","jp_add_2":"本吉町津谷桜子"},"9880381":{"post_code":"9880381","prefecture":"MIYAGI KEN","city":"KESENNUMA SHI","town":"MOTOYOSHICHO TSUYASHINAKEDO","perfecture_jp":"宮城県","jp_add_1":"気仙沼市","jp_add_2":"本吉町津谷新明戸"},"9880307":{"post_code":"9880307","prefecture":"MIYAGI KEN","city":"KESENNUMA SHI","town":"MOTOYOSHICHO TSUYATATEOKA","perfecture_jp":"宮城県","jp_add_1":"気仙沼市","jp_add_2":"本吉町津谷舘岡"},"9880305":{"post_code":"9880305","prefecture":"MIYAGI KEN","city":"KESENNUMA SHI","town":"MOTOYOSHICHO TSUYANAGANE","perfecture_jp":"宮城県","jp_add_1":"気仙沼市","jp_add_2":"本吉町津谷長根"},"9880309":{"post_code":"9880309","prefecture":"MIYAGI KEN","city":"KESENNUMA SHI","town":"MOTOYOSHICHO TSUYAMATSUO","perfecture_jp":"宮城県","jp_add_1":"気仙沼市","jp_add_2":"本吉町津谷松尾"},"9880308":{"post_code":"9880308","prefecture":"MIYAGI KEN","city":"KESENNUMA SHI","town":"MOTOYOSHICHO TSUYAMATSUOKA","perfecture_jp":"宮城県","jp_add_1":"気仙沼市","jp_add_2":"本吉町津谷松岡"},"9880266":{"post_code":"9880266","prefecture":"MIYAGI KEN","city":"KESENNUMA SHI","town":"MOTOYOSHICHO TERAGAI","perfecture_jp":"宮城県","jp_add_1":"気仙沼市","jp_add_2":"本吉町寺谷"},"9880267":{"post_code":"9880267","prefecture":"MIYAGI KEN","city":"KESENNUMA SHI","town":"MOTOYOSHICHO NAGAHATAKE","perfecture_jp":"宮城県","jp_add_1":"気仙沼市","jp_add_2":"本吉町寺沢"},"9880362":{"post_code":"9880362","prefecture":"MIYAGI KEN","city":"KESENNUMA SHI","town":"MOTOYOSHICHO TERAYOGAI","perfecture_jp":"宮城県","jp_add_1":"気仙沼市","jp_add_2":"本吉町寺要害"},"9880318":{"post_code":"9880318","prefecture":"MIYAGI KEN","city":"KESENNUMA SHI","town":"MOTOYOSHICHO TOYOMAZAWA","perfecture_jp":"宮城県","jp_add_1":"気仙沼市","jp_add_2":"本吉町登米沢"},"9880387":{"post_code":"9880387","prefecture":"MIYAGI KEN","city":"KESENNUMA SHI","town":"MOTOYOSHICHO NAKAKAWAUCHI","perfecture_jp":"宮城県","jp_add_1":"気仙沼市","jp_add_2":"本吉町中川内"},"9880327":{"post_code":"9880327","prefecture":"MIYAGI KEN","city":"KESENNUMA SHI","town":"MOTOYOSHICHO NAGAKUBO","perfecture_jp":"宮城県","jp_add_1":"気仙沼市","jp_add_2":"本吉町長窪"},"9880375":{"post_code":"9880375","prefecture":"MIYAGI KEN","city":"KESENNUMA SHI","town":"MOTOYOSHICHO NAKAZAWA","perfecture_jp":"宮城県","jp_add_1":"気仙沼市","jp_add_2":"本吉町中沢"},"9880331":{"post_code":"9880331","prefecture":"MIYAGI KEN","city":"KESENNUMA SHI","town":"MOTOYOSHICHO NAKAJIMA","perfecture_jp":"宮城県","jp_add_1":"気仙沼市","jp_add_2":"本吉町中島"},"9880357":{"post_code":"9880357","prefecture":"MIYAGI KEN","city":"KESENNUMA SHI","town":"MOTOYOSHICHO NAKADAIRA","perfecture_jp":"宮城県","jp_add_1":"気仙沼市","jp_add_2":"本吉町中平"},"9880264":{"post_code":"9880264","prefecture":"MIYAGI KEN","city":"KESENNUMA SHI","town":"MOTOYOSHICHO NAGANE","perfecture_jp":"宮城県","jp_add_1":"気仙沼市","jp_add_2":"本吉町長根"},"9880386":{"post_code":"9880386","prefecture":"MIYAGI KEN","city":"KESENNUMA SHI","town":"MOTOYOSHICHO NISHIKAWAUCHI","perfecture_jp":"宮城県","jp_add_1":"気仙沼市","jp_add_2":"本吉町西川内"},"9880322":{"post_code":"9880322","prefecture":"MIYAGI KEN","city":"KESENNUMA SHI","town":"MOTOYOSHICHO NIJUICHIHAMA","perfecture_jp":"宮城県","jp_add_1":"気仙沼市","jp_add_2":"本吉町二十一浜"},"9880342":{"post_code":"9880342","prefecture":"MIYAGI KEN","city":"KESENNUMA SHI","town":"MOTOYOSHICHO NUSAKAKE","perfecture_jp":"宮城県","jp_add_1":"気仙沼市","jp_add_2":"本吉町幣掛"},"9880271":{"post_code":"9880271","prefecture":"MIYAGI KEN","city":"KESENNUMA SHI","town":"MOTOYOSHICHO NONOSHITA","perfecture_jp":"宮城県","jp_add_1":"気仙沼市","jp_add_2":"本吉町野々下"},"9880314":{"post_code":"9880314","prefecture":"MIYAGI KEN","city":"KESENNUMA SHI","town":"MOTOYOSHICHO HATANOSAWA","perfecture_jp":"宮城県","jp_add_1":"気仙沼市","jp_add_2":"本吉町圃の沢"},"9880302":{"post_code":"9880302","prefecture":"MIYAGI KEN","city":"KESENNUMA SHI","town":"MOTOYOSHICHO HAYASHINOSAWA","perfecture_jp":"宮城県","jp_add_1":"気仙沼市","jp_add_2":"本吉町林の沢"},"9880389":{"post_code":"9880389","prefecture":"MIYAGI KEN","city":"KESENNUMA SHI","town":"MOTOYOSHICHO HIGASHIKAWAUCHI","perfecture_jp":"宮城県","jp_add_1":"気仙沼市","jp_add_2":"本吉町東川内"},"9880276":{"post_code":"9880276","prefecture":"MIYAGI KEN","city":"KESENNUMA SHI","town":"MOTOYOSHICHO HIKADO","perfecture_jp":"宮城県","jp_add_1":"気仙沼市","jp_add_2":"本吉町日門"},"9880333":{"post_code":"9880333","prefecture":"MIYAGI KEN","city":"KESENNUMA SHI","town":"MOTOYOSHICHO HIRAGAI","perfecture_jp":"宮城県","jp_add_1":"気仙沼市","jp_add_2":"本吉町平貝"},"9880363":{"post_code":"9880363","prefecture":"MIYAGI KEN","city":"KESENNUMA SHI","town":"MOTOYOSHICHO FUKAHAGI","perfecture_jp":"宮城県","jp_add_1":"気仙沼市","jp_add_2":"本吉町深萩"},"9880281":{"post_code":"9880281","prefecture":"MIYAGI KEN","city":"KESENNUMA SHI","town":"MOTOYOSHICHO FUCHU","perfecture_jp":"宮城県","jp_add_1":"気仙沼市","jp_add_2":"本吉町府中"},"9880383":{"post_code":"9880383","prefecture":"MIYAGI KEN","city":"KESENNUMA SHI","town":"MOTOYOSHICHO BONOKURA","perfecture_jp":"宮城県","jp_add_1":"気仙沼市","jp_add_2":"本吉町坊の倉"},"9880263":{"post_code":"9880263","prefecture":"MIYAGI KEN","city":"KESENNUMA SHI","town":"MOTOYOSHICHO HORASAWA","perfecture_jp":"宮城県","jp_add_1":"気仙沼市","jp_add_2":"本吉町洞沢"},"9880282":{"post_code":"9880282","prefecture":"MIYAGI KEN","city":"KESENNUMA SHI","town":"MOTOYOSHICHO MAEHAMA","perfecture_jp":"宮城県","jp_add_1":"気仙沼市","jp_add_2":"本吉町前浜"},"9880365":{"post_code":"9880365","prefecture":"MIYAGI KEN","city":"KESENNUMA SHI","town":"MOTOYOSHICHO MAGOMEMACHI","perfecture_jp":"宮城県","jp_add_1":"気仙沼市","jp_add_2":"本吉町馬籠町"},"9880366":{"post_code":"9880366","prefecture":"MIYAGI KEN","city":"KESENNUMA SHI","town":"MOTOYOSHICHO MAGOMEMACHIGASHIRA","perfecture_jp":"宮城県","jp_add_1":"気仙沼市","jp_add_2":"本吉町馬籠町頭"},"9880343":{"post_code":"9880343","prefecture":"MIYAGI KEN","city":"KESENNUMA SHI","town":"MOTOYOSHICHO MATSUGASAWA","perfecture_jp":"宮城県","jp_add_1":"気仙沼市","jp_add_2":"本吉町松ヶ沢"},"9880273":{"post_code":"9880273","prefecture":"MIYAGI KEN","city":"KESENNUMA SHI","town":"MOTOYOSHICHO MISHIMA","perfecture_jp":"宮城県","jp_add_1":"気仙沼市","jp_add_2":"本吉町三島"},"9880312":{"post_code":"9880312","prefecture":"MIYAGI KEN","city":"KESENNUMA SHI","town":"MOTOYOSHICHO MICHISOTO","perfecture_jp":"宮城県","jp_add_1":"気仙沼市","jp_add_2":"本吉町道外"},"9880338":{"post_code":"9880338","prefecture":"MIYAGI KEN","city":"KESENNUMA SHI","town":"MOTOYOSHICHO MINAMIAKEDO","perfecture_jp":"宮城県","jp_add_1":"気仙沼市","jp_add_2":"本吉町南明戸"},"9880344":{"post_code":"9880344","prefecture":"MIYAGI KEN","city":"KESENNUMA SHI","town":"MOTOYOSHICHO MIYAUCHI","perfecture_jp":"宮城県","jp_add_1":"気仙沼市","jp_add_2":"本吉町宮内"},"9880367":{"post_code":"9880367","prefecture":"MIYAGI KEN","city":"KESENNUMA SHI","town":"MOTOYOSHICHO MUKAIBATA","perfecture_jp":"宮城県","jp_add_1":"気仙沼市","jp_add_2":"本吉町向畑"},"9880326":{"post_code":"9880326","prefecture":"MIYAGI KEN","city":"KESENNUMA SHI","town":"MOTOYOSHICHO YANAGISAWA","perfecture_jp":"宮城県","jp_add_1":"気仙沼市","jp_add_2":"本吉町柳沢"},"9880359":{"post_code":"9880359","prefecture":"MIYAGI KEN","city":"KESENNUMA SHI","town":"MOTOYOSHICHO WANO","perfecture_jp":"宮城県","jp_add_1":"気仙沼市","jp_add_2":"本吉町上野"},"9880335":{"post_code":"9880335","prefecture":"MIYAGI KEN","city":"KESENNUMA SHI","town":"MOTOYOSHICHO WARABINO","perfecture_jp":"宮城県","jp_add_1":"気仙沼市","jp_add_2":"本吉町蕨野"},"9880169":{"post_code":"9880169","prefecture":"MIYAGI KEN","city":"KESENNUMA SHI","town":"MONOKURAYAMA","perfecture_jp":"宮城県","jp_add_1":"気仙沼市","jp_add_2":"物倉山"},"9880841":{"post_code":"9880841","prefecture":"MIYAGI KEN","city":"KESENNUMA SHI","town":"YANAGIZAWA","perfecture_jp":"宮城県","jp_add_1":"気仙沼市","jp_add_2":"柳沢"},"9880634":{"post_code":"9880634","prefecture":"MIYAGI KEN","city":"KESENNUMA SHI","town":"YOGAI","perfecture_jp":"宮城県","jp_add_1":"気仙沼市","jp_add_2":"要害"},"9880084":{"post_code":"9880084","prefecture":"MIYAGI KEN","city":"KESENNUMA SHI","town":"YOKAMACHI","perfecture_jp":"宮城県","jp_add_1":"気仙沼市","jp_add_2":"八日町"},"9880632":{"post_code":"9880632","prefecture":"MIYAGI KEN","city":"KESENNUMA SHI","town":"YOKONUMA","perfecture_jp":"宮城県","jp_add_1":"気仙沼市","jp_add_2":"横沼"},"9880833":{"post_code":"9880833","prefecture":"MIYAGI KEN","city":"KESENNUMA SHI","town":"WATADO","perfecture_jp":"宮城県","jp_add_1":"気仙沼市","jp_add_2":"渡戸"},"9880827":{"post_code":"9880827","prefecture":"MIYAGI KEN","city":"KESENNUMA SHI","town":"WANO","perfecture_jp":"宮城県","jp_add_1":"気仙沼市","jp_add_2":"和野"},"9880453":{"post_code":"9880453","prefecture":"MIYAGI KEN","city":"MOTOYOSHI GUN MINAMISANRIKU CHO","town":"UTATSU ISATOMAE","perfecture_jp":"宮城県","jp_add_1":"本吉郡南三陸町","jp_add_2":"歌津伊里前"},"9880471":{"post_code":"9880471","prefecture":"MIYAGI KEN","city":"MOTOYOSHI GUN MINAMISANRIKU CHO","town":"UTATSU ISHIZUMI","perfecture_jp":"宮城県","jp_add_1":"本吉郡南三陸町","jp_add_2":"歌津石泉"},"9880426":{"post_code":"9880426","prefecture":"MIYAGI KEN","city":"MOTOYOSHI GUN MINAMISANRIKU CHO","town":"UTATSU ISHIHAMA","perfecture_jp":"宮城県","jp_add_1":"本吉郡南三陸町","jp_add_2":"歌津石浜"},"9880446":{"post_code":"9880446","prefecture":"MIYAGI KEN","city":"MOTOYOSHI GUN MINAMISANRIKU CHO","town":"UTATSU ITABASHI","perfecture_jp":"宮城県","jp_add_1":"本吉郡南三陸町","jp_add_2":"歌津板橋"},"9880434":{"post_code":"9880434","prefecture":"MIYAGI KEN","city":"MOTOYOSHI GUN MINAMISANRIKU CHO","town":"UTATSU OISO","perfecture_jp":"宮城県","jp_add_1":"本吉郡南三陸町","jp_add_2":"歌津大磯"},"9880448":{"post_code":"9880448","prefecture":"MIYAGI KEN","city":"MOTOYOSHI GUN MINAMISANRIKU CHO","town":"UTATSU ONUMA","perfecture_jp":"宮城県","jp_add_1":"本吉郡南三陸町","jp_add_2":"歌津大沼"},"9880463":{"post_code":"9880463","prefecture":"MIYAGI KEN","city":"MOTOYOSHI GUN MINAMISANRIKU CHO","town":"UTATSU OMORI","perfecture_jp":"宮城県","jp_add_1":"本吉郡南三陸町","jp_add_2":"歌津大森"},"9880443":{"post_code":"9880443","prefecture":"MIYAGI KEN","city":"MOTOYOSHI GUN MINAMISANRIKU CHO","town":"UTATSU OSAKI","perfecture_jp":"宮城県","jp_add_1":"本吉郡南三陸町","jp_add_2":"歌津尾崎"},"9880476":{"post_code":"9880476","prefecture":"MIYAGI KEN","city":"MOTOYOSHI GUN MINAMISANRIKU CHO","town":"UTATSU KAMISAWA","perfecture_jp":"宮城県","jp_add_1":"本吉郡南三陸町","jp_add_2":"歌津上沢"},"9880413":{"post_code":"9880413","prefecture":"MIYAGI KEN","city":"MOTOYOSHI GUN MINAMISANRIKU CHO","town":"UTATSU KAMINOYAMA","perfecture_jp":"宮城県","jp_add_1":"本吉郡南三陸町","jp_add_2":"歌津上の山"},"9880425":{"post_code":"9880425","prefecture":"MIYAGI KEN","city":"MOTOYOSHI GUN MINAMISANRIKU CHO","town":"UTATSU KAMIYAMA","perfecture_jp":"宮城県","jp_add_1":"本吉郡南三陸町","jp_add_2":"歌津神山"},"9880456":{"post_code":"9880456","prefecture":"MIYAGI KEN","city":"MOTOYOSHI GUN MINAMISANRIKU CHO","town":"UTATSU KAWAUCHI","perfecture_jp":"宮城県","jp_add_1":"本吉郡南三陸町","jp_add_2":"歌津川内"},"9880424":{"post_code":"9880424","prefecture":"MIYAGI KEN","city":"MOTOYOSHI GUN MINAMISANRIKU CHO","town":"UTATSU KITANOSAWA","perfecture_jp":"宮城県","jp_add_1":"本吉郡南三陸町","jp_add_2":"歌津北の沢"},"9880405":{"post_code":"9880405","prefecture":"MIYAGI KEN","city":"MOTOYOSHI GUN MINAMISANRIKU CHO","town":"UTATSU KUSAKIZAWA","perfecture_jp":"宮城県","jp_add_1":"本吉郡南三陸町","jp_add_2":"歌津草木沢"},"9880451":{"post_code":"9880451","prefecture":"MIYAGI KEN","city":"MOTOYOSHI GUN MINAMISANRIKU CHO","town":"UTATSU KUDANOHAMA","perfecture_jp":"宮城県","jp_add_1":"本吉郡南三陸町","jp_add_2":"歌津管の浜"},"9880436":{"post_code":"9880436","prefecture":"MIYAGI KEN","city":"MOTOYOSHI GUN MINAMISANRIKU CHO","town":"UTATSU KONAGASHIBA","perfecture_jp":"宮城県","jp_add_1":"本吉郡南三陸町","jp_add_2":"歌津小長柴"},"9880435":{"post_code":"9880435","prefecture":"MIYAGI KEN","city":"MOTOYOSHI GUN MINAMISANRIKU CHO","town":"UTATSU KONUMA","perfecture_jp":"宮城県","jp_add_1":"本吉郡南三陸町","jp_add_2":"歌津小沼"},"9880467":{"post_code":"9880467","prefecture":"MIYAGI KEN","city":"MOTOYOSHI GUN MINAMISANRIKU CHO","town":"UTATSU SARAGAI","perfecture_jp":"宮城県","jp_add_1":"本吉郡南三陸町","jp_add_2":"歌津皿貝"},"9880475":{"post_code":"9880475","prefecture":"MIYAGI KEN","city":"MOTOYOSHI GUN MINAMISANRIKU CHO","town":"UTATSU SHIRAYAMA","perfecture_jp":"宮城県","jp_add_1":"本吉郡南三陸町","jp_add_2":"歌津白山"},"9880462":{"post_code":"9880462","prefecture":"MIYAGI KEN","city":"MOTOYOSHI GUN MINAMISANRIKU CHO","town":"UTATSU SUNAHAMA","perfecture_jp":"宮城県","jp_add_1":"本吉郡南三陸町","jp_add_2":"歌津砂浜"},"9880474":{"post_code":"9880474","prefecture":"MIYAGI KEN","city":"MOTOYOSHI GUN MINAMISANRIKU CHO","town":"UTATSU TAOMOTE","perfecture_jp":"宮城県","jp_add_1":"本吉郡南三陸町","jp_add_2":"歌津田表"},"9880445":{"post_code":"9880445","prefecture":"MIYAGI KEN","city":"MOTOYOSHI GUN MINAMISANRIKU CHO","town":"UTATSU TATEHAMA","perfecture_jp":"宮城県","jp_add_1":"本吉郡南三陸町","jp_add_2":"歌津館浜"},"9880415":{"post_code":"9880415","prefecture":"MIYAGI KEN","city":"MOTOYOSHI GUN MINAMISANRIKU CHO","town":"UTATSU TANORA","perfecture_jp":"宮城県","jp_add_1":"本吉郡南三陸町","jp_add_2":"歌津田の浦"},"9880441":{"post_code":"9880441","prefecture":"MIYAGI KEN","city":"MOTOYOSHI GUN MINAMISANRIKU CHO","town":"UTATSU TANOGASHIRA","perfecture_jp":"宮城県","jp_add_1":"本吉郡南三陸町","jp_add_2":"歌津田の頭"},"9880411":{"post_code":"9880411","prefecture":"MIYAGI KEN","city":"MOTOYOSHI GUN MINAMISANRIKU CHO","town":"UTATSU TAMOGAWA","perfecture_jp":"宮城県","jp_add_1":"本吉郡南三陸町","jp_add_2":"歌津田茂川"},"9880444":{"post_code":"9880444","prefecture":"MIYAGI KEN","city":"MOTOYOSHI GUN MINAMISANRIKU CHO","town":"UTATSU TOMARIHAMA","perfecture_jp":"宮城県","jp_add_1":"本吉郡南三陸町","jp_add_2":"歌津泊浜"},"9880473":{"post_code":"9880473","prefecture":"MIYAGI KEN","city":"MOTOYOSHI GUN MINAMISANRIKU CHO","town":"UTATSU NAKAZAI","perfecture_jp":"宮城県","jp_add_1":"本吉郡南三陸町","jp_add_2":"歌津中在"},"9880414":{"post_code":"9880414","prefecture":"MIYAGI KEN","city":"MOTOYOSHI GUN MINAMISANRIKU CHO","town":"UTATSU NAGASAWA","perfecture_jp":"宮城県","jp_add_1":"本吉郡南三陸町","jp_add_2":"歌津長沢"},"9880447":{"post_code":"9880447","prefecture":"MIYAGI KEN","city":"MOTOYOSHI GUN MINAMISANRIKU CHO","town":"UTATSU NAGASHIBA","perfecture_jp":"宮城県","jp_add_1":"本吉郡南三陸町","jp_add_2":"歌津長柴"},"9880406":{"post_code":"9880406","prefecture":"MIYAGI KEN","city":"MOTOYOSHI GUN MINAMISANRIKU CHO","town":"UTATSU NAKANO","perfecture_jp":"宮城県","jp_add_1":"本吉郡南三陸町","jp_add_2":"歌津中野"},"9880403":{"post_code":"9880403","prefecture":"MIYAGI KEN","city":"MOTOYOSHI GUN MINAMISANRIKU CHO","town":"UTATSU NAGAHA","perfecture_jp":"宮城県","jp_add_1":"本吉郡南三陸町","jp_add_2":"歌津長羽"},"9880432":{"post_code":"9880432","prefecture":"MIYAGI KEN","city":"MOTOYOSHI GUN MINAMISANRIKU CHO","town":"UTATSU NAKAYAMA","perfecture_jp":"宮城県","jp_add_1":"本吉郡南三陸町","jp_add_2":"歌津中山"},"9880431":{"post_code":"9880431","prefecture":"MIYAGI KEN","city":"MOTOYOSHI GUN MINAMISANRIKU CHO","town":"UTATSU NATARI","perfecture_jp":"宮城県","jp_add_1":"本吉郡南三陸町","jp_add_2":"歌津名足"},"9880401":{"post_code":"9880401","prefecture":"MIYAGI KEN","city":"MOTOYOSHI GUN MINAMISANRIKU CHO","town":"UTATSU NAMIITA","perfecture_jp":"宮城県","jp_add_1":"本吉郡南三陸町","jp_add_2":"歌津浪板"},"9880465":{"post_code":"9880465","prefecture":"MIYAGI KEN","city":"MOTOYOSHI GUN MINAMISANRIKU CHO","town":"UTATSU NIRANOHAMA","perfecture_jp":"宮城県","jp_add_1":"本吉郡南三陸町","jp_add_2":"歌津韮の浜"},"9880433":{"post_code":"9880433","prefecture":"MIYAGI KEN","city":"MOTOYOSHI GUN MINAMISANRIKU CHO","town":"UTATSU BABA","perfecture_jp":"宮城県","jp_add_1":"本吉郡南三陸町","jp_add_2":"歌津馬場"},"9880477":{"post_code":"9880477","prefecture":"MIYAGI KEN","city":"MOTOYOSHI GUN MINAMISANRIKU CHO","town":"UTATSU HARAIKAWA","perfecture_jp":"宮城県","jp_add_1":"本吉郡南三陸町","jp_add_2":"歌津払川"},"9880442":{"post_code":"9880442","prefecture":"MIYAGI KEN","city":"MOTOYOSHI GUN MINAMISANRIKU CHO","town":"UTATSU BANDOKORO","perfecture_jp":"宮城県","jp_add_1":"本吉郡南三陸町","jp_add_2":"歌津番所"},"9880478":{"post_code":"9880478","prefecture":"MIYAGI KEN","city":"MOTOYOSHI GUN MINAMISANRIKU CHO","town":"UTATSU HINOKUCHI","perfecture_jp":"宮城県","jp_add_1":"本吉郡南三陸町","jp_add_2":"歌津樋の口"},"9880421":{"post_code":"9880421","prefecture":"MIYAGI KEN","city":"MOTOYOSHI GUN MINAMISANRIKU CHO","town":"UTATSU HIRADANA","perfecture_jp":"宮城県","jp_add_1":"本吉郡南三陸町","jp_add_2":"歌津平棚"},"9880466":{"post_code":"9880466","prefecture":"MIYAGI KEN","city":"MOTOYOSHI GUN MINAMISANRIKU CHO","town":"UTATSU HIRAMATSU","perfecture_jp":"宮城県","jp_add_1":"本吉郡南三陸町","jp_add_2":"歌津平松"},"9880404":{"post_code":"9880404","prefecture":"MIYAGI KEN","city":"MOTOYOSHI GUN MINAMISANRIKU CHO","town":"UTATSU MAKITA","perfecture_jp":"宮城県","jp_add_1":"本吉郡南三陸町","jp_add_2":"歌津牧田"},"9880423":{"post_code":"9880423","prefecture":"MIYAGI KEN","city":"MOTOYOSHI GUN MINAMISANRIKU CHO","town":"UTATSU MASUZAWA","perfecture_jp":"宮城県","jp_add_1":"本吉郡南三陸町","jp_add_2":"歌津枡沢"},"9880452":{"post_code":"9880452","prefecture":"MIYAGI KEN","city":"MOTOYOSHI GUN MINAMISANRIKU CHO","town":"UTATSU MACHIMUKAI","perfecture_jp":"宮城県","jp_add_1":"本吉郡南三陸町","jp_add_2":"歌津町向"},"9880422":{"post_code":"9880422","prefecture":"MIYAGI KEN","city":"MOTOYOSHI GUN MINAMISANRIKU CHO","town":"UTATSU MATSUNOSAKI","perfecture_jp":"宮城県","jp_add_1":"本吉郡南三陸町","jp_add_2":"歌津松の崎"},"9880402":{"post_code":"9880402","prefecture":"MIYAGI KEN","city":"MOTOYOSHI GUN MINAMISANRIKU CHO","town":"UTATSU MINATO","perfecture_jp":"宮城県","jp_add_1":"本吉郡南三陸町","jp_add_2":"歌津港"},"9880412":{"post_code":"9880412","prefecture":"MIYAGI KEN","city":"MOTOYOSHI GUN MINAMISANRIKU CHO","town":"UTATSU MINAMINOSAWA","perfecture_jp":"宮城県","jp_add_1":"本吉郡南三陸町","jp_add_2":"歌津南の沢"},"9880454":{"post_code":"9880454","prefecture":"MIYAGI KEN","city":"MOTOYOSHI GUN MINAMISANRIKU CHO","town":"UTATSU MINEHATA","perfecture_jp":"宮城県","jp_add_1":"本吉郡南三陸町","jp_add_2":"歌津峰畑"},"9880472":{"post_code":"9880472","prefecture":"MIYAGI KEN","city":"MOTOYOSHI GUN MINAMISANRIKU CHO","town":"UTATSU MIYAKATA","perfecture_jp":"宮城県","jp_add_1":"本吉郡南三陸町","jp_add_2":"歌津宮方"},"9880464":{"post_code":"9880464","prefecture":"MIYAGI KEN","city":"MOTOYOSHI GUN MINAMISANRIKU CHO","town":"UTATSU MORIHATA","perfecture_jp":"宮城県","jp_add_1":"本吉郡南三陸町","jp_add_2":"歌津森畑"},"9880455":{"post_code":"9880455","prefecture":"MIYAGI KEN","city":"MOTOYOSHI GUN MINAMISANRIKU CHO","town":"UTATSU YOSHINOSAWA","perfecture_jp":"宮城県","jp_add_1":"本吉郡南三陸町","jp_add_2":"歌津吉野沢"},"9880461":{"post_code":"9880461","prefecture":"MIYAGI KEN","city":"MOTOYOSHI GUN MINAMISANRIKU CHO","town":"UTATSU YORIKI","perfecture_jp":"宮城県","jp_add_1":"本吉郡南三陸町","jp_add_2":"歌津寄木"}}