{"9893211":{"post_code":"9893211","prefecture":"MIYAGI KEN","city":"SENDAI SHI AOBA KU","town":"AKASAKA","perfecture_jp":"宮城県","jp_add_1":"仙台市青葉区","jp_add_2":"赤坂"},"9893128":{"post_code":"9893128","prefecture":"MIYAGI KEN","city":"SENDAI SHI AOBA KU","town":"AYASHICHUO","perfecture_jp":"宮城県","jp_add_1":"仙台市青葉区","jp_add_2":"愛子中央"},"9893127":{"post_code":"9893127","prefecture":"MIYAGI KEN","city":"SENDAI SHI AOBA KU","town":"AYASHIHIGASHI","perfecture_jp":"宮城県","jp_add_1":"仙台市青葉区","jp_add_2":"愛子東"},"9893212":{"post_code":"9893212","prefecture":"MIYAGI KEN","city":"SENDAI SHI AOBA KU","town":"IMOZAWA","perfecture_jp":"宮城県","jp_add_1":"仙台市青葉区","jp_add_2":"芋沢"},"9893213":{"post_code":"9893213","prefecture":"MIYAGI KEN","city":"SENDAI SHI AOBA KU","town":"OKURA","perfecture_jp":"宮城県","jp_add_1":"仙台市青葉区","jp_add_2":"大倉"},"9893126":{"post_code":"9893126","prefecture":"MIYAGI KEN","city":"SENDAI SHI AOBA KU","town":"OCHIAI","perfecture_jp":"宮城県","jp_add_1":"仙台市青葉区","jp_add_2":"落合"},"9893124":{"post_code":"9893124","prefecture":"MIYAGI KEN","city":"SENDAI SHI AOBA KU","town":"KAMIAYASHI","perfecture_jp":"宮城県","jp_add_1":"仙台市青葉区","jp_add_2":"上愛子"},"9893201":{"post_code":"9893201","prefecture":"MIYAGI KEN","city":"SENDAI SHI AOBA KU","town":"KUNIMIGAOKA","perfecture_jp":"宮城県","jp_add_1":"仙台市青葉区","jp_add_2":"国見ケ丘"},"9893432":{"post_code":"9893432","prefecture":"MIYAGI KEN","city":"SENDAI SHI AOBA KU","town":"KUMAGANE","perfecture_jp":"宮城県","jp_add_1":"仙台市青葉区","jp_add_2":"熊ケ根"},"9893122":{"post_code":"9893122","prefecture":"MIYAGI KEN","city":"SENDAI SHI AOBA KU","town":"KURYU","perfecture_jp":"宮城県","jp_add_1":"仙台市青葉区","jp_add_2":"栗生"},"9893121":{"post_code":"9893121","prefecture":"MIYAGI KEN","city":"SENDAI SHI AOBA KU","town":"GOROKU","perfecture_jp":"宮城県","jp_add_1":"仙台市青葉区","jp_add_2":"郷六"},"9893431":{"post_code":"9893431","prefecture":"MIYAGI KEN","city":"SENDAI SHI AOBA KU","town":"SAKUNAMI","perfecture_jp":"宮城県","jp_add_1":"仙台市青葉区","jp_add_2":"作並"},"9893125":{"post_code":"9893125","prefecture":"MIYAGI KEN","city":"SENDAI SHI AOBA KU","town":"SHIMOAYASHI","perfecture_jp":"宮城県","jp_add_1":"仙台市青葉区","jp_add_2":"下愛子"},"9893216":{"post_code":"9893216","prefecture":"MIYAGI KEN","city":"SENDAI SHI AOBA KU","town":"TAKANOHARA","perfecture_jp":"宮城県","jp_add_1":"仙台市青葉区","jp_add_2":"高野原"},"9893202":{"post_code":"9893202","prefecture":"MIYAGI KEN","city":"SENDAI SHI AOBA KU","town":"NAKAYAMADAI","perfecture_jp":"宮城県","jp_add_1":"仙台市青葉区","jp_add_2":"中山台"},"9893207":{"post_code":"9893207","prefecture":"MIYAGI KEN","city":"SENDAI SHI AOBA KU","town":"NAKAYAMADAINISHI","perfecture_jp":"宮城県","jp_add_1":"仙台市青葉区","jp_add_2":"中山台西"},"9893203":{"post_code":"9893203","prefecture":"MIYAGI KEN","city":"SENDAI SHI AOBA KU","town":"NAKAYAMAYOSHINARI","perfecture_jp":"宮城県","jp_add_1":"仙台市青葉区","jp_add_2":"中山吉成"},"9893123":{"post_code":"9893123","prefecture":"MIYAGI KEN","city":"SENDAI SHI AOBA KU","town":"NISHIKIGAOKA","perfecture_jp":"宮城県","jp_add_1":"仙台市青葉区","jp_add_2":"錦ケ丘"},"9893433":{"post_code":"9893433","prefecture":"MIYAGI KEN","city":"SENDAI SHI AOBA KU","town":"NIKKA","perfecture_jp":"宮城県","jp_add_1":"仙台市青葉区","jp_add_2":"ニツカ"},"9893434":{"post_code":"9893434","prefecture":"MIYAGI KEN","city":"SENDAI SHI AOBA KU","town":"NIKKAWA","perfecture_jp":"宮城県","jp_add_1":"仙台市青葉区","jp_add_2":"新川"},"9893204":{"post_code":"9893204","prefecture":"MIYAGI KEN","city":"SENDAI SHI AOBA KU","town":"MINAMIYOSHINARI","perfecture_jp":"宮城県","jp_add_1":"仙台市青葉区","jp_add_2":"南吉成"},"9893214":{"post_code":"9893214","prefecture":"MIYAGI KEN","city":"SENDAI SHI AOBA KU","town":"MIYAGIDAI","perfecture_jp":"宮城県","jp_add_1":"仙台市青葉区","jp_add_2":"みやぎ台"},"9893215":{"post_code":"9893215","prefecture":"MIYAGI KEN","city":"SENDAI SHI AOBA KU","town":"MUKAIDA","perfecture_jp":"宮城県","jp_add_1":"仙台市青葉区","jp_add_2":"向田"},"9893205":{"post_code":"9893205","prefecture":"MIYAGI KEN","city":"SENDAI SHI AOBA KU","town":"YOSHINARI","perfecture_jp":"宮城県","jp_add_1":"仙台市青葉区","jp_add_2":"吉成"},"9893206":{"post_code":"9893206","prefecture":"MIYAGI KEN","city":"SENDAI SHI AOBA KU","town":"YOSHINARIDAI","perfecture_jp":"宮城県","jp_add_1":"仙台市青葉区","jp_add_2":"吉成台"},"9890200":{"post_code":"9890200","prefecture":"MIYAGI KEN","city":"SHIROISHI SHI","town":"IKANIKEISAIGANAIBAAI","perfecture_jp":"宮城県","jp_add_1":"白石市","jp_add_2":""},"9890223":{"post_code":"9890223","prefecture":"MIYAGI KEN","city":"SHIROISHI SHI","town":"ASAHICHO","perfecture_jp":"宮城県","jp_add_1":"白石市","jp_add_2":"旭町"},"9890228":{"post_code":"9890228","prefecture":"MIYAGI KEN","city":"SHIROISHI SHI","town":"USAGISAKU","perfecture_jp":"宮城県","jp_add_1":"白石市","jp_add_2":"兎作"},"9890267":{"post_code":"9890267","prefecture":"MIYAGI KEN","city":"SHIROISHI SHI","town":"EMMEIJIKITA","perfecture_jp":"宮城県","jp_add_1":"白石市","jp_add_2":"延命寺北"},"9890254":{"post_code":"9890254","prefecture":"MIYAGI KEN","city":"SHIROISHI SHI","town":"OKAWACHO","perfecture_jp":"宮城県","jp_add_1":"白石市","jp_add_2":"大川町"},"9890212":{"post_code":"9890212","prefecture":"MIYAGI KEN","city":"SHIROISHI SHI","town":"OTAKASAWA OMACHI","perfecture_jp":"宮城県","jp_add_1":"白石市","jp_add_2":"大鷹沢大町"},"9890211":{"post_code":"9890211","prefecture":"MIYAGI KEN","city":"SHIROISHI SHI","town":"OTAKASAWA TAKANOSU","perfecture_jp":"宮城県","jp_add_1":"白石市","jp_add_2":"大鷹沢鷹巣"},"9890213":{"post_code":"9890213","prefecture":"MIYAGI KEN","city":"SHIROISHI SHI","town":"OTAKASAWA MISAWA","perfecture_jp":"宮城県","jp_add_1":"白石市","jp_add_2":"大鷹沢三沢"},"9890214":{"post_code":"9890214","prefecture":"MIYAGI KEN","city":"SHIROISHI SHI","town":"ODAIRA SAKAYA","perfecture_jp":"宮城県","jp_add_1":"白石市","jp_add_2":"大平坂谷"},"9890216":{"post_code":"9890216","prefecture":"MIYAGI KEN","city":"SHIROISHI SHI","town":"ODAIRA NAKANOME","perfecture_jp":"宮城県","jp_add_1":"白石市","jp_add_2":"大平中目"},"9890217":{"post_code":"9890217","prefecture":"MIYAGI KEN","city":"SHIROISHI SHI","town":"ODAIRA MORIAI","perfecture_jp":"宮城県","jp_add_1":"白石市","jp_add_2":"大平森合"},"9890276":{"post_code":"9890276","prefecture":"MIYAGI KEN","city":"SHIROISHI SHI","town":"OTEMACHI","perfecture_jp":"宮城県","jp_add_1":"白石市","jp_add_2":"大手町"},"9890208":{"post_code":"9890208","prefecture":"MIYAGI KEN","city":"SHIROISHI SHI","town":"OHATA","perfecture_jp":"宮城県","jp_add_1":"白石市","jp_add_2":"大畑"},"9890233":{"post_code":"9890233","prefecture":"MIYAGI KEN","city":"SHIROISHI SHI","town":"OBARA","perfecture_jp":"宮城県","jp_add_1":"白石市","jp_add_2":"小原"},"9890244":{"post_code":"9890244","prefecture":"MIYAGI KEN","city":"SHIROISHI SHI","town":"KAMIKUBO","perfecture_jp":"宮城県","jp_add_1":"白石市","jp_add_2":"上久保"},"9890202":{"post_code":"9890202","prefecture":"MIYAGI KEN","city":"SHIROISHI SHI","town":"KAMIZEKI","perfecture_jp":"宮城県","jp_add_1":"白石市","jp_add_2":"上堰"},"9890262":{"post_code":"9890262","prefecture":"MIYAGI KEN","city":"SHIROISHI SHI","town":"KITAGAWARA","perfecture_jp":"宮城県","jp_add_1":"白石市","jp_add_2":"北川原"},"9890224":{"post_code":"9890224","prefecture":"MIYAGI KEN","city":"SHIROISHI SHI","town":"KITAMUSOSAKU","perfecture_jp":"宮城県","jp_add_1":"白石市","jp_add_2":"北無双作"},"9890203":{"post_code":"9890203","prefecture":"MIYAGI KEN","city":"SHIROISHI SHI","town":"KORIYAMA","perfecture_jp":"宮城県","jp_add_1":"白石市","jp_add_2":"郡山"},"9890201":{"post_code":"9890201","prefecture":"MIYAGI KEN","city":"SHIROISHI SHI","town":"KOSHITAGURA","perfecture_jp":"宮城県","jp_add_1":"白石市","jp_add_2":"小下倉"},"9890113":{"post_code":"9890113","prefecture":"MIYAGI KEN","city":"SHIROISHI SHI","town":"KOSUGO","perfecture_jp":"宮城県","jp_add_1":"白石市","jp_add_2":"越河"},"9890111":{"post_code":"9890111","prefecture":"MIYAGI KEN","city":"SHIROISHI SHI","town":"KOSUGO GOKA","perfecture_jp":"宮城県","jp_add_1":"白石市","jp_add_2":"越河五賀"},"9890112":{"post_code":"9890112","prefecture":"MIYAGI KEN","city":"SHIROISHI SHI","town":"KOSUGO TAIRA","perfecture_jp":"宮城県","jp_add_1":"白石市","jp_add_2":"越河平"},"9890241":{"post_code":"9890241","prefecture":"MIYAGI KEN","city":"SHIROISHI SHI","town":"KOTOBUKIYAMA","perfecture_jp":"宮城県","jp_add_1":"白石市","jp_add_2":"寿山"},"9890215":{"post_code":"9890215","prefecture":"MIYAGI KEN","city":"SHIROISHI SHI","town":"SAIKAWA","perfecture_jp":"宮城県","jp_add_1":"白石市","jp_add_2":"斎川"},"9890264":{"post_code":"9890264","prefecture":"MIYAGI KEN","city":"SHIROISHI SHI","town":"SAIWAI","perfecture_jp":"宮城県","jp_add_1":"白石市","jp_add_2":"幸"},"9890278":{"post_code":"9890278","prefecture":"MIYAGI KEN","city":"SHIROISHI SHI","town":"SAWABATA","perfecture_jp":"宮城県","jp_add_1":"白石市","jp_add_2":"沢端"},"9890277":{"post_code":"9890277","prefecture":"MIYAGI KEN","city":"SHIROISHI SHI","town":"SAWABATACHO","perfecture_jp":"宮城県","jp_add_1":"白石市","jp_add_2":"沢端町"},"9890243":{"post_code":"9890243","prefecture":"MIYAGI KEN","city":"SHIROISHI SHI","town":"SAWAME","perfecture_jp":"宮城県","jp_add_1":"白石市","jp_add_2":"沢目"},"9890272":{"post_code":"9890272","prefecture":"MIYAGI KEN","city":"SHIROISHI SHI","town":"SHIMIZUKOJI","perfecture_jp":"宮城県","jp_add_1":"白石市","jp_add_2":"清水小路"},"9890266":{"post_code":"9890266","prefecture":"MIYAGI KEN","city":"SHIROISHI SHI","town":"JUODOMAE","perfecture_jp":"宮城県","jp_add_1":"白石市","jp_add_2":"十王堂前"},"9890265":{"post_code":"9890265","prefecture":"MIYAGI KEN","city":"SHIROISHI SHI","town":"JUODOKITA","perfecture_jp":"宮城県","jp_add_1":"白石市","jp_add_2":"十王堂北"},"9890245":{"post_code":"9890245","prefecture":"MIYAGI KEN","city":"SHIROISHI SHI","town":"JONAN","perfecture_jp":"宮城県","jp_add_1":"白石市","jp_add_2":"城南"},"9890255":{"post_code":"9890255","prefecture":"MIYAGI KEN","city":"SHIROISHI SHI","town":"JOHOKUCHO","perfecture_jp":"宮城県","jp_add_1":"白石市","jp_add_2":"城北町"},"9891103":{"post_code":"9891103","prefecture":"MIYAGI KEN","city":"SHIROISHI SHI","town":"SHIRAKAWA INUSOTOBA","perfecture_jp":"宮城県","jp_add_1":"白石市","jp_add_2":"白川犬卒都婆"},"9891104":{"post_code":"9891104","prefecture":"MIYAGI KEN","city":"SHIROISHI SHI","town":"SHIRAKAWA UCHIOYA","perfecture_jp":"宮城県","jp_add_1":"白石市","jp_add_2":"白川内親"},"9891101":{"post_code":"9891101","prefecture":"MIYAGI KEN","city":"SHIROISHI SHI","town":"SHIRAKAWA KOKU","perfecture_jp":"宮城県","jp_add_1":"白石市","jp_add_2":"白川小奥"},"9891102":{"post_code":"9891102","prefecture":"MIYAGI KEN","city":"SHIROISHI SHI","town":"SHIRAKAWA TSUDA","perfecture_jp":"宮城県","jp_add_1":"白石市","jp_add_2":"白川津田"},"9890734":{"post_code":"9890734","prefecture":"MIYAGI KEN","city":"SHIROISHI SHI","town":"SHIRATORI","perfecture_jp":"宮城県","jp_add_1":"白石市","jp_add_2":"白鳥"},"9890226":{"post_code":"9890226","prefecture":"MIYAGI KEN","city":"SHIROISHI SHI","town":"SHIROISHIOKI","perfecture_jp":"宮城県","jp_add_1":"白石市","jp_add_2":"白石沖"},"9890246":{"post_code":"9890246","prefecture":"MIYAGI KEN","city":"SHIROISHI SHI","town":"SHINDATECHO","perfecture_jp":"宮城県","jp_add_1":"白石市","jp_add_2":"新館町"},"9890271":{"post_code":"9890271","prefecture":"MIYAGI KEN","city":"SHIROISHI SHI","town":"SUMAZUGAIKE","perfecture_jp":"宮城県","jp_add_1":"白石市","jp_add_2":"不澄ケ池"},"9890261":{"post_code":"9890261","prefecture":"MIYAGI KEN","city":"SHIROISHI SHI","town":"SOTOGAWARA","perfecture_jp":"宮城県","jp_add_1":"白石市","jp_add_2":"外川原"},"9890222":{"post_code":"9890222","prefecture":"MIYAGI KEN","city":"SHIROISHI SHI","town":"TAKANOSU","perfecture_jp":"宮城県","jp_add_1":"白石市","jp_add_2":"鷹巣"},"9890218":{"post_code":"9890218","prefecture":"MIYAGI KEN","city":"SHIROISHI SHI","town":"TAKANOSUHIGASHI","perfecture_jp":"宮城県","jp_add_1":"白石市","jp_add_2":"鷹巣東"},"9890220":{"post_code":"9890220","prefecture":"MIYAGI KEN","city":"SHIROISHI SHI","town":"TAKANOSUNISHI","perfecture_jp":"宮城県","jp_add_1":"白石市","jp_add_2":"鷹巣西"},"9890227":{"post_code":"9890227","prefecture":"MIYAGI KEN","city":"SHIROISHI SHI","town":"TAMACHI","perfecture_jp":"宮城県","jp_add_1":"白石市","jp_add_2":"田町"},"9890229":{"post_code":"9890229","prefecture":"MIYAGI KEN","city":"SHIROISHI SHI","town":"CHOSHIGAMORI","perfecture_jp":"宮城県","jp_add_1":"白石市","jp_add_2":"銚子ケ森"},"9890206":{"post_code":"9890206","prefecture":"MIYAGI KEN","city":"SHIROISHI SHI","town":"TERAYASHIKIMAE","perfecture_jp":"宮城県","jp_add_1":"白石市","jp_add_2":"寺屋敷前"},"9890207":{"post_code":"9890207","prefecture":"MIYAGI KEN","city":"SHIROISHI SHI","town":"DOBAMAE","perfecture_jp":"宮城県","jp_add_1":"白石市","jp_add_2":"堂場前"},"9890273":{"post_code":"9890273","prefecture":"MIYAGI KEN","city":"SHIROISHI SHI","town":"NAKAMACHI","perfecture_jp":"宮城県","jp_add_1":"白石市","jp_add_2":"中町"},"9890274":{"post_code":"9890274","prefecture":"MIYAGI KEN","city":"SHIROISHI SHI","town":"NAGAMACHI","perfecture_jp":"宮城県","jp_add_1":"白石市","jp_add_2":"長町"},"9890252":{"post_code":"9890252","prefecture":"MIYAGI KEN","city":"SHIROISHI SHI","town":"NISHIMASUOKACHO","perfecture_jp":"宮城県","jp_add_1":"白石市","jp_add_2":"西益岡町"},"9890268":{"post_code":"9890268","prefecture":"MIYAGI KEN","city":"SHIROISHI SHI","town":"NEGIUCHI","perfecture_jp":"宮城県","jp_add_1":"白石市","jp_add_2":"祢宜内"},"9890247":{"post_code":"9890247","prefecture":"MIYAGI KEN","city":"SHIROISHI SHI","town":"HACHIMANCHO","perfecture_jp":"宮城県","jp_add_1":"白石市","jp_add_2":"八幡町"},"9890259":{"post_code":"9890259","prefecture":"MIYAGI KEN","city":"SHIROISHI SHI","town":"HANZAWAYASHIKIMAE","perfecture_jp":"宮城県","jp_add_1":"白石市","jp_add_2":"半沢屋敷前"},"9890258":{"post_code":"9890258","prefecture":"MIYAGI KEN","city":"SHIROISHI SHI","town":"HANZAWAYASHIKINISHI","perfecture_jp":"宮城県","jp_add_1":"白石市","jp_add_2":"半沢屋敷西"},"9890205":{"post_code":"9890205","prefecture":"MIYAGI KEN","city":"SHIROISHI SHI","town":"HIGASHIOHATA","perfecture_jp":"宮城県","jp_add_1":"白石市","jp_add_2":"東大畑"},"9890253":{"post_code":"9890253","prefecture":"MIYAGI KEN","city":"SHIROISHI SHI","town":"HIGASHIKOJI","perfecture_jp":"宮城県","jp_add_1":"白石市","jp_add_2":"東小路"},"9890225":{"post_code":"9890225","prefecture":"MIYAGI KEN","city":"SHIROISHI SHI","town":"HIGASHICHO","perfecture_jp":"宮城県","jp_add_1":"白石市","jp_add_2":"東町"},"9890231":{"post_code":"9890231","prefecture":"MIYAGI KEN","city":"SHIROISHI SHI","town":"FUKUOKA KURAMOTO","perfecture_jp":"宮城県","jp_add_1":"白石市","jp_add_2":"福岡蔵本"},"9890731":{"post_code":"9890731","prefecture":"MIYAGI KEN","city":"SHIROISHI SHI","town":"FUKUOKA FUKAYA","perfecture_jp":"宮城県","jp_add_1":"白石市","jp_add_2":"福岡深谷"},"9890733":{"post_code":"9890733","prefecture":"MIYAGI KEN","city":"SHIROISHI SHI","town":"FUKUOKA YATSUMIYA","perfecture_jp":"宮城県","jp_add_1":"白石市","jp_add_2":"福岡八宮"},"9890732":{"post_code":"9890732","prefecture":"MIYAGI KEN","city":"SHIROISHI SHI","town":"FUKUOKANAGAFUKURO(KAWATERAYAMA.SERI","perfecture_jp":"宮城県","jp_add_1":"白石市","jp_add_2":"福岡長袋"},"9890232":{"post_code":"9890232","prefecture":"MIYAGI KEN","city":"SHIROISHI SHI","town":"FUKUOKANAGAFUKURO(SONOTA)","perfecture_jp":"宮城県","jp_add_1":"白石市","jp_add_2":"福岡長袋"},"9890251":{"post_code":"9890251","prefecture":"MIYAGI KEN","city":"SHIROISHI SHI","town":"MASUOKACHO","perfecture_jp":"宮城県","jp_add_1":"白石市","jp_add_2":"益岡町"},"9890204":{"post_code":"9890204","prefecture":"MIYAGI KEN","city":"SHIROISHI SHI","town":"MATSUGAOKA","perfecture_jp":"宮城県","jp_add_1":"白石市","jp_add_2":"松ケ丘"},"9890221":{"post_code":"9890221","prefecture":"MIYAGI KEN","city":"SHIROISHI SHI","town":"MIDORIGAOKA","perfecture_jp":"宮城県","jp_add_1":"白石市","jp_add_2":"緑が丘"},"9890248":{"post_code":"9890248","prefecture":"MIYAGI KEN","city":"SHIROISHI SHI","town":"MINAMIMACHI","perfecture_jp":"宮城県","jp_add_1":"白石市","jp_add_2":"南町"},"9890256":{"post_code":"9890256","prefecture":"MIYAGI KEN","city":"SHIROISHI SHI","town":"MOTOKAJIKOJI","perfecture_jp":"宮城県","jp_add_1":"白石市","jp_add_2":"本鍛冶小路"},"9890275":{"post_code":"9890275","prefecture":"MIYAGI KEN","city":"SHIROISHI SHI","town":"MOTOMACHI","perfecture_jp":"宮城県","jp_add_1":"白石市","jp_add_2":"本町"},"9890263":{"post_code":"9890263","prefecture":"MIYAGI KEN","city":"SHIROISHI SHI","town":"YANAGIGAWARA","perfecture_jp":"宮城県","jp_add_1":"白石市","jp_add_2":"柳川原"},"9890242":{"post_code":"9890242","prefecture":"MIYAGI KEN","city":"SHIROISHI SHI","town":"YANAGIMACHI","perfecture_jp":"宮城県","jp_add_1":"白石市","jp_add_2":"柳町"},"9890257":{"post_code":"9890257","prefecture":"MIYAGI KEN","city":"SHIROISHI SHI","town":"WATARIMACHI","perfecture_jp":"宮城県","jp_add_1":"白石市","jp_add_2":"亘理町"},"9892401":{"post_code":"9892401","prefecture":"MIYAGI KEN","city":"NATORI SHI","town":"SHIMOMASUDA(MINAMIHARAMUBANCHI.SEND","perfecture_jp":"宮城県","jp_add_1":"名取市","jp_add_2":"下増田"},"9892412":{"post_code":"9892412","prefecture":"MIYAGI KEN","city":"NATORI SHI","town":"HORIUCHI","perfecture_jp":"宮城県","jp_add_1":"名取市","jp_add_2":"堀内"},"9892411":{"post_code":"9892411","prefecture":"MIYAGI KEN","city":"NATORI SHI","town":"HONGO","perfecture_jp":"宮城県","jp_add_1":"名取市","jp_add_2":"本郷"},"9892400":{"post_code":"9892400","prefecture":"MIYAGI KEN","city":"IWANUMA SHI","town":"IKANIKEISAIGANAIBAAI","perfecture_jp":"宮城県","jp_add_1":"岩沼市","jp_add_2":""},"9892431":{"post_code":"9892431","prefecture":"MIYAGI KEN","city":"IWANUMA SHI","town":"AINOHARA","perfecture_jp":"宮城県","jp_add_1":"岩沼市","jp_add_2":"相の原"},"9892474":{"post_code":"9892474","prefecture":"MIYAGI KEN","city":"IWANUMA SHI","town":"ASAHI","perfecture_jp":"宮城県","jp_add_1":"岩沼市","jp_add_2":"朝日"},"9892435":{"post_code":"9892435","prefecture":"MIYAGI KEN","city":"IWANUMA SHI","town":"ABUKUMA","perfecture_jp":"宮城県","jp_add_1":"岩沼市","jp_add_2":"阿武隈"},"9892463":{"post_code":"9892463","prefecture":"MIYAGI KEN","city":"IWANUMA SHI","town":"ARAI","perfecture_jp":"宮城県","jp_add_1":"岩沼市","jp_add_2":"荒井"},"9892443":{"post_code":"9892443","prefecture":"MIYAGI KEN","city":"IWANUMA SHI","town":"INARICHO","perfecture_jp":"宮城県","jp_add_1":"岩沼市","jp_add_2":"稲荷町"},"9892442":{"post_code":"9892442","prefecture":"MIYAGI KEN","city":"IWANUMA SHI","town":"OTECHO","perfecture_jp":"宮城県","jp_add_1":"岩沼市","jp_add_2":"大手町"},"9892471":{"post_code":"9892471","prefecture":"MIYAGI KEN","city":"IWANUMA SHI","town":"OGAWA","perfecture_jp":"宮城県","jp_add_1":"岩沼市","jp_add_2":"小川"},"9892423":{"post_code":"9892423","prefecture":"MIYAGI KEN","city":"IWANUMA SHI","town":"OSHIWAKE","perfecture_jp":"宮城県","jp_add_1":"岩沼市","jp_add_2":"押分"},"9892472":{"post_code":"9892472","prefecture":"MIYAGI KEN","city":"IWANUMA SHI","town":"KAJIBASHI","perfecture_jp":"宮城県","jp_add_1":"岩沼市","jp_add_2":"梶橋"},"9892455":{"post_code":"9892455","prefecture":"MIYAGI KEN","city":"IWANUMA SHI","town":"KITAHASE","perfecture_jp":"宮城県","jp_add_1":"岩沼市","jp_add_2":"北長谷"},"9892422":{"post_code":"9892422","prefecture":"MIYAGI KEN","city":"IWANUMA SHI","town":"KUKOMINAMI","perfecture_jp":"宮城県","jp_add_1":"岩沼市","jp_add_2":"空港南"},"9892445":{"post_code":"9892445","prefecture":"MIYAGI KEN","city":"IWANUMA SHI","town":"KUWABARA","perfecture_jp":"宮城県","jp_add_1":"岩沼市","jp_add_2":"桑原"},"9892447":{"post_code":"9892447","prefecture":"MIYAGI KEN","city":"IWANUMA SHI","town":"KUWABARANISHI","perfecture_jp":"宮城県","jp_add_1":"岩沼市","jp_add_2":"桑原西"},"9892473":{"post_code":"9892473","prefecture":"MIYAGI KEN","city":"IWANUMA SHI","town":"SAKAECHO","perfecture_jp":"宮城県","jp_add_1":"岩沼市","jp_add_2":"栄町"},"9892433":{"post_code":"9892433","prefecture":"MIYAGI KEN","city":"IWANUMA SHI","town":"SAKURA","perfecture_jp":"宮城県","jp_add_1":"岩沼市","jp_add_2":"桜"},"9892427":{"post_code":"9892427","prefecture":"MIYAGI KEN","city":"IWANUMA SHI","town":"SATONOMORI","perfecture_jp":"宮城県","jp_add_1":"岩沼市","jp_add_2":"里の杜"},"9892465":{"post_code":"9892465","prefecture":"MIYAGI KEN","city":"IWANUMA SHI","town":"SHIGA","perfecture_jp":"宮城県","jp_add_1":"岩沼市","jp_add_2":"志賀"},"9892476":{"post_code":"9892476","prefecture":"MIYAGI KEN","city":"IWANUMA SHI","town":"SHIKISHIMA","perfecture_jp":"宮城県","jp_add_1":"岩沼市","jp_add_2":"敷島"},"9892421":{"post_code":"9892421","prefecture":"MIYAGI KEN","city":"IWANUMA SHI","town":"SHIMONOGO","perfecture_jp":"宮城県","jp_add_1":"岩沼市","jp_add_2":"下野郷"},"9892426":{"post_code":"9892426","prefecture":"MIYAGI KEN","city":"IWANUMA SHI","town":"SUEHIRO","perfecture_jp":"宮城県","jp_add_1":"岩沼市","jp_add_2":"末広"},"9892453":{"post_code":"9892453","prefecture":"MIYAGI KEN","city":"IWANUMA SHI","town":"DAISHOWA","perfecture_jp":"宮城県","jp_add_1":"岩沼市","jp_add_2":"大昭和"},"9892452":{"post_code":"9892452","prefecture":"MIYAGI KEN","city":"IWANUMA SHI","town":"TAKEKUMA","perfecture_jp":"宮城県","jp_add_1":"岩沼市","jp_add_2":"武隈"},"9892459":{"post_code":"9892459","prefecture":"MIYAGI KEN","city":"IWANUMA SHI","town":"TAKEKUMA","perfecture_jp":"宮城県","jp_add_1":"岩沼市","jp_add_2":"たけくま"},"9892458":{"post_code":"9892458","prefecture":"MIYAGI KEN","city":"IWANUMA SHI","town":"TAKENOSATO","perfecture_jp":"宮城県","jp_add_1":"岩沼市","jp_add_2":"竹の里"},"9892441":{"post_code":"9892441","prefecture":"MIYAGI KEN","city":"IWANUMA SHI","town":"TATESHITA","perfecture_jp":"宮城県","jp_add_1":"岩沼市","jp_add_2":"館下"},"9892428":{"post_code":"9892428","prefecture":"MIYAGI KEN","city":"IWANUMA SHI","town":"TAMAURANISHI","perfecture_jp":"宮城県","jp_add_1":"岩沼市","jp_add_2":"玉浦西"},"9892432":{"post_code":"9892432","prefecture":"MIYAGI KEN","city":"IWANUMA SHI","town":"CHUO","perfecture_jp":"宮城県","jp_add_1":"岩沼市","jp_add_2":"中央"},"9892425":{"post_code":"9892425","prefecture":"MIYAGI KEN","city":"IWANUMA SHI","town":"TERASHIMA","perfecture_jp":"宮城県","jp_add_1":"岩沼市","jp_add_2":"寺島"},"9892451":{"post_code":"9892451","prefecture":"MIYAGI KEN","city":"IWANUMA SHI","town":"DOGASAKI","perfecture_jp":"宮城県","jp_add_1":"岩沼市","jp_add_2":"土ケ崎"},"9892461":{"post_code":"9892461","prefecture":"MIYAGI KEN","city":"IWANUMA SHI","town":"NAGAOKA","perfecture_jp":"宮城県","jp_add_1":"岩沼市","jp_add_2":"長岡"},"9892446":{"post_code":"9892446","prefecture":"MIYAGI KEN","city":"IWANUMA SHI","town":"NISHIROKKAKU","perfecture_jp":"宮城県","jp_add_1":"岩沼市","jp_add_2":"西六角"},"9892424":{"post_code":"9892424","prefecture":"MIYAGI KEN","city":"IWANUMA SHI","town":"HAYAMATA","perfecture_jp":"宮城県","jp_add_1":"岩沼市","jp_add_2":"早股"},"9892477":{"post_code":"9892477","prefecture":"MIYAGI KEN","city":"IWANUMA SHI","town":"HIGASHIYACHI","perfecture_jp":"宮城県","jp_add_1":"岩沼市","jp_add_2":"東谷地"},"9892457":{"post_code":"9892457","prefecture":"MIYAGI KEN","city":"IWANUMA SHI","town":"BYODO","perfecture_jp":"宮城県","jp_add_1":"岩沼市","jp_add_2":"平等"},"9892436":{"post_code":"9892436","prefecture":"MIYAGI KEN","city":"IWANUMA SHI","town":"FUKIAGE","perfecture_jp":"宮城県","jp_add_1":"岩沼市","jp_add_2":"吹上"},"9892437":{"post_code":"9892437","prefecture":"MIYAGI KEN","city":"IWANUMA SHI","town":"FUKIAGENISHI","perfecture_jp":"宮城県","jp_add_1":"岩沼市","jp_add_2":"吹上西"},"9892434":{"post_code":"9892434","prefecture":"MIYAGI KEN","city":"IWANUMA SHI","town":"FUJINAMI","perfecture_jp":"宮城県","jp_add_1":"岩沼市","jp_add_2":"藤浪"},"9892448":{"post_code":"9892448","prefecture":"MIYAGI KEN","city":"IWANUMA SHI","town":"FUTAKI","perfecture_jp":"宮城県","jp_add_1":"岩沼市","jp_add_2":"二木"},"9892444":{"post_code":"9892444","prefecture":"MIYAGI KEN","city":"IWANUMA SHI","town":"HONCHO","perfecture_jp":"宮城県","jp_add_1":"岩沼市","jp_add_2":"本町"},"9892456":{"post_code":"9892456","prefecture":"MIYAGI KEN","city":"IWANUMA SHI","town":"MATSUGAOKA","perfecture_jp":"宮城県","jp_add_1":"岩沼市","jp_add_2":"松ケ丘"},"9892464":{"post_code":"9892464","prefecture":"MIYAGI KEN","city":"IWANUMA SHI","town":"MIIROYOSHI","perfecture_jp":"宮城県","jp_add_1":"岩沼市","jp_add_2":"三色吉"},"9892454":{"post_code":"9892454","prefecture":"MIYAGI KEN","city":"IWANUMA SHI","town":"MINAMIHASE","perfecture_jp":"宮城県","jp_add_1":"岩沼市","jp_add_2":"南長谷"},"9892429":{"post_code":"9892429","prefecture":"MIYAGI KEN","city":"IWANUMA SHI","town":"MEGUMINO","perfecture_jp":"宮城県","jp_add_1":"岩沼市","jp_add_2":"恵み野"},"9892462":{"post_code":"9892462","prefecture":"MIYAGI KEN","city":"IWANUMA SHI","town":"YAMAZAKURA","perfecture_jp":"宮城県","jp_add_1":"岩沼市","jp_add_2":"山桜"},"9892475":{"post_code":"9892475","prefecture":"MIYAGI KEN","city":"IWANUMA SHI","town":"YAMATO","perfecture_jp":"宮城県","jp_add_1":"岩沼市","jp_add_2":"大和"},"9894701":{"post_code":"9894701","prefecture":"MIYAGI KEN","city":"TOME SHI","town":"ISHIKOSHIMACHI KITAGO","perfecture_jp":"宮城県","jp_add_1":"登米市","jp_add_2":"石越町北郷"},"9894702":{"post_code":"9894702","prefecture":"MIYAGI KEN","city":"TOME SHI","town":"ISHIKOSHIMACHI HIGASHIGO","perfecture_jp":"宮城県","jp_add_1":"登米市","jp_add_2":"石越町東郷"},"9894703":{"post_code":"9894703","prefecture":"MIYAGI KEN","city":"TOME SHI","town":"ISHIKOSHIMACHI MINAMIGO","perfecture_jp":"宮城県","jp_add_1":"登米市","jp_add_2":"石越町南郷"},"9894601":{"post_code":"9894601","prefecture":"MIYAGI KEN","city":"TOME SHI","town":"HASAMACHO NITTA","perfecture_jp":"宮城県","jp_add_1":"登米市","jp_add_2":"迫町新田"},"9895403":{"post_code":"9895403","prefecture":"MIYAGI KEN","city":"KURIHARA SHI","town":"UGUISUZAWA KITAGO","perfecture_jp":"宮城県","jp_add_1":"栗原市","jp_add_2":"鶯沢北郷"},"9895402":{"post_code":"9895402","prefecture":"MIYAGI KEN","city":"KURIHARA SHI","town":"UGUISUZAWA NANGO","perfecture_jp":"宮城県","jp_add_1":"栗原市","jp_add_2":"鶯沢南郷"},"9895401":{"post_code":"9895401","prefecture":"MIYAGI KEN","city":"KURIHARA SHI","town":"UGUISUZAWA FUKURO","perfecture_jp":"宮城県","jp_add_1":"栗原市","jp_add_2":"鶯沢袋"},"9894807":{"post_code":"9894807","prefecture":"MIYAGI KEN","city":"KURIHARA SHI","town":"KANNARI AKACHIGO","perfecture_jp":"宮城県","jp_add_1":"栗原市","jp_add_2":"金成赤児"},"9895172":{"post_code":"9895172","prefecture":"MIYAGI KEN","city":"KURIHARA SHI","town":"KANNARI ANEHA","perfecture_jp":"宮城県","jp_add_1":"栗原市","jp_add_2":"金成姉歯"},"9894806":{"post_code":"9894806","prefecture":"MIYAGI KEN","city":"KURIHARA SHI","town":"KANNARI ARIKABE","perfecture_jp":"宮城県","jp_add_1":"栗原市","jp_add_2":"金成有壁"},"9895127":{"post_code":"9895127","prefecture":"MIYAGI KEN","city":"KURIHARA SHI","town":"KANNARI INARIMAE","perfecture_jp":"宮城県","jp_add_1":"栗原市","jp_add_2":"金成稲荷前"},"9895142":{"post_code":"9895142","prefecture":"MIYAGI KEN","city":"KURIHARA SHI","town":"KANNARI IRIUDA","perfecture_jp":"宮城県","jp_add_1":"栗原市","jp_add_2":"金成入生田"},"9895118":{"post_code":"9895118","prefecture":"MIYAGI KEN","city":"KURIHARA SHI","town":"KANNARI IRINOSAWA","perfecture_jp":"宮城県","jp_add_1":"栗原市","jp_add_2":"金成入ノ沢"},"9895146":{"post_code":"9895146","prefecture":"MIYAGI KEN","city":"KURIHARA SHI","town":"KANNARI IWAI","perfecture_jp":"宮城県","jp_add_1":"栗原市","jp_add_2":"金成祝"},"9895112":{"post_code":"9895112","prefecture":"MIYAGI KEN","city":"KURIHARA SHI","town":"KANNARI UNANZAKI","perfecture_jp":"宮城県","jp_add_1":"栗原市","jp_add_2":"金成宇南崎"},"9895119":{"post_code":"9895119","prefecture":"MIYAGI KEN","city":"KURIHARA SHI","town":"KANNARI OINOZAWA","perfecture_jp":"宮城県","jp_add_1":"栗原市","jp_add_2":"金成狼ノ沢"},"9895163":{"post_code":"9895163","prefecture":"MIYAGI KEN","city":"KURIHARA SHI","town":"KANNARI OKUBOSAWA","perfecture_jp":"宮城県","jp_add_1":"栗原市","jp_add_2":"金成大久保沢"},"9895116":{"post_code":"9895116","prefecture":"MIYAGI KEN","city":"KURIHARA SHI","town":"KANNARI ONASHI","perfecture_jp":"宮城県","jp_add_1":"栗原市","jp_add_2":"金成大梨"},"9895185":{"post_code":"9895185","prefecture":"MIYAGI KEN","city":"KURIHARA SHI","town":"KANNARI OHARAGI","perfecture_jp":"宮城県","jp_add_1":"栗原市","jp_add_2":"金成大原木"},"9895121":{"post_code":"9895121","prefecture":"MIYAGI KEN","city":"KURIHARA SHI","town":"KANNARI OHIRA","perfecture_jp":"宮城県","jp_add_1":"栗原市","jp_add_2":"金成大平"},"9895138":{"post_code":"9895138","prefecture":"MIYAGI KEN","city":"KURIHARA SHI","town":"KANNARI OKINAZAWA","perfecture_jp":"宮城県","jp_add_1":"栗原市","jp_add_2":"金成翁沢"},"9895141":{"post_code":"9895141","prefecture":"MIYAGI KEN","city":"KURIHARA SHI","town":"KANNARI OKINADOME","perfecture_jp":"宮城県","jp_add_1":"栗原市","jp_add_2":"金成翁留"},"9895183":{"post_code":"9895183","prefecture":"MIYAGI KEN","city":"KURIHARA SHI","town":"KANNARI OTSUTSUMI","perfecture_jp":"宮城県","jp_add_1":"栗原市","jp_add_2":"金成小堤"},"9895184":{"post_code":"9895184","prefecture":"MIYAGI KEN","city":"KURIHARA SHI","town":"KANNARI OBASAMA","perfecture_jp":"宮城県","jp_add_1":"栗原市","jp_add_2":"金成小迫"},"9894805":{"post_code":"9894805","prefecture":"MIYAGI KEN","city":"KURIHARA SHI","town":"KANNARI KATAMASE","perfecture_jp":"宮城県","jp_add_1":"栗原市","jp_add_2":"金成片馬合"},"9895128":{"post_code":"9895128","prefecture":"MIYAGI KEN","city":"KURIHARA SHI","town":"KANNARI KANAYAMAZAWA","perfecture_jp":"宮城県","jp_add_1":"栗原市","jp_add_2":"金成金山沢"},"9895115":{"post_code":"9895115","prefecture":"MIYAGI KEN","city":"KURIHARA SHI","town":"KANNARI KAMITOMIDA","perfecture_jp":"宮城県","jp_add_1":"栗原市","jp_add_2":"金成上富田"},"9895137":{"post_code":"9895137","prefecture":"MIYAGI KEN","city":"KURIHARA SHI","town":"KANNARI KAMINAGA","perfecture_jp":"宮城県","jp_add_1":"栗原市","jp_add_2":"金成髪長"},"9895154":{"post_code":"9895154","prefecture":"MIYAGI KEN","city":"KURIHARA SHI","town":"KANNARI KAMIMACHI","perfecture_jp":"宮城県","jp_add_1":"栗原市","jp_add_2":"金成上町"},"9895155":{"post_code":"9895155","prefecture":"MIYAGI KEN","city":"KURIHARA SHI","town":"KANNARI KAMIMACHINISHIURA","perfecture_jp":"宮城県","jp_add_1":"栗原市","jp_add_2":"金成上町西裏"},"9895153":{"post_code":"9895153","prefecture":"MIYAGI KEN","city":"KURIHARA SHI","town":"KANNARI KAMIMACHIHIGASHIURA","perfecture_jp":"宮城県","jp_add_1":"栗原市","jp_add_2":"金成上町東裏"},"9895164":{"post_code":"9895164","prefecture":"MIYAGI KEN","city":"KURIHARA SHI","town":"KANNARI KINSEI","perfecture_jp":"宮城県","jp_add_1":"栗原市","jp_add_2":"金成金生"},"9895136":{"post_code":"9895136","prefecture":"MIYAGI KEN","city":"KURIHARA SHI","town":"KANNARI KUMANOSHITA","perfecture_jp":"宮城県","jp_add_1":"栗原市","jp_add_2":"金成熊ノ下"},"9895139":{"post_code":"9895139","prefecture":"MIYAGI KEN","city":"KURIHARA SHI","town":"KANNARI KOGANEDA","perfecture_jp":"宮城県","jp_add_1":"栗原市","jp_add_2":"金成黄金田"},"9895151":{"post_code":"9895151","prefecture":"MIYAGI KEN","city":"KURIHARA SHI","town":"KANNARI SAKURAMACHI","perfecture_jp":"宮城県","jp_add_1":"栗原市","jp_add_2":"金成桜町"},"9895171":{"post_code":"9895171","prefecture":"MIYAGI KEN","city":"KURIHARA SHI","town":"KANNARI SAWABE","perfecture_jp":"宮城県","jp_add_1":"栗原市","jp_add_2":"金成沢辺"},"9895130":{"post_code":"9895130","prefecture":"MIYAGI KEN","city":"KURIHARA SHI","town":"KANNARI SHIMIZUTA","perfecture_jp":"宮城県","jp_add_1":"栗原市","jp_add_2":"金成清水田"},"9895114":{"post_code":"9895114","prefecture":"MIYAGI KEN","city":"KURIHARA SHI","town":"KANNARI SHIMOTOMIDA","perfecture_jp":"宮城県","jp_add_1":"栗原市","jp_add_2":"金成下富田"},"9895133":{"post_code":"9895133","prefecture":"MIYAGI KEN","city":"KURIHARA SHI","town":"KANNARI SHIMMACHI","perfecture_jp":"宮城県","jp_add_1":"栗原市","jp_add_2":"金成新町"},"9895134":{"post_code":"9895134","prefecture":"MIYAGI KEN","city":"KURIHARA SHI","town":"KANNARI SHIMMACHIURA","perfecture_jp":"宮城県","jp_add_1":"栗原市","jp_add_2":"金成新町裏"},"9894802":{"post_code":"9894802","prefecture":"MIYAGI KEN","city":"KURIHARA SHI","town":"KANNARI SUENO","perfecture_jp":"宮城県","jp_add_1":"栗原市","jp_add_2":"金成末野"},"9895135":{"post_code":"9895135","prefecture":"MIYAGI KEN","city":"KURIHARA SHI","town":"KANNARI DAIHATA","perfecture_jp":"宮城県","jp_add_1":"栗原市","jp_add_2":"金成台畑"},"9895125":{"post_code":"9895125","prefecture":"MIYAGI KEN","city":"KURIHARA SHI","town":"KANNARI DAIRINJIZAWA","perfecture_jp":"宮城県","jp_add_1":"栗原市","jp_add_2":"金成大林寺沢"},"9895161":{"post_code":"9895161","prefecture":"MIYAGI KEN","city":"KURIHARA SHI","town":"KANNARI TATESHITA","perfecture_jp":"宮城県","jp_add_1":"栗原市","jp_add_2":"金成館下"},"9895181":{"post_code":"9895181","prefecture":"MIYAGI KEN","city":"KURIHARA SHI","town":"KANNARI TSUKUMO","perfecture_jp":"宮城県","jp_add_1":"栗原市","jp_add_2":"金成津久毛"},"9895126":{"post_code":"9895126","prefecture":"MIYAGI KEN","city":"KURIHARA SHI","town":"KANNARI TSUBANOKAWARA","perfecture_jp":"宮城県","jp_add_1":"栗原市","jp_add_2":"金成鍔ノ瓦"},"9895165":{"post_code":"9895165","prefecture":"MIYAGI KEN","city":"KURIHARA SHI","town":"KANNARI NAGATATE","perfecture_jp":"宮城県","jp_add_1":"栗原市","jp_add_2":"金成長館"},"9895162":{"post_code":"9895162","prefecture":"MIYAGI KEN","city":"KURIHARA SHI","town":"KANNARI NAGANEZAWA","perfecture_jp":"宮城県","jp_add_1":"栗原市","jp_add_2":"金成長根沢"},"9895166":{"post_code":"9895166","prefecture":"MIYAGI KEN","city":"KURIHARA SHI","town":"KANNARI NAGANEMAE","perfecture_jp":"宮城県","jp_add_1":"栗原市","jp_add_2":"金成長根前"},"9895144":{"post_code":"9895144","prefecture":"MIYAGI KEN","city":"KURIHARA SHI","town":"KANNARI NAKAMACHI","perfecture_jp":"宮城県","jp_add_1":"栗原市","jp_add_2":"金成中町"},"9895145":{"post_code":"9895145","prefecture":"MIYAGI KEN","city":"KURIHARA SHI","town":"KANNARI NAKAMACHINISHIURA","perfecture_jp":"宮城県","jp_add_1":"栗原市","jp_add_2":"金成中町西裏"},"9895173":{"post_code":"9895173","prefecture":"MIYAGI KEN","city":"KURIHARA SHI","town":"KANNARI NASHIZAKI","perfecture_jp":"宮城県","jp_add_1":"栗原市","jp_add_2":"金成梨崎"},"9895117":{"post_code":"9895117","prefecture":"MIYAGI KEN","city":"KURIHARA SHI","town":"KANNARI HANUKIZAWA","perfecture_jp":"宮城県","jp_add_1":"栗原市","jp_add_2":"金成柧木沢"},"9895111":{"post_code":"9895111","prefecture":"MIYAGI KEN","city":"KURIHARA SHI","town":"KANNARI HIMUKAI","perfecture_jp":"宮城県","jp_add_1":"栗原市","jp_add_2":"金成日向"},"9895131":{"post_code":"9895131","prefecture":"MIYAGI KEN","city":"KURIHARA SHI","town":"KANNARI HIMUKAIDA","perfecture_jp":"宮城県","jp_add_1":"栗原市","jp_add_2":"金成日向田"},"9894808":{"post_code":"9894808","prefecture":"MIYAGI KEN","city":"KURIHARA SHI","town":"KANNARI FUGENDO","perfecture_jp":"宮城県","jp_add_1":"栗原市","jp_add_2":"金成普賢堂"},"9894803":{"post_code":"9894803","prefecture":"MIYAGI KEN","city":"KURIHARA SHI","town":"KANNARI FUJIWATATO","perfecture_jp":"宮城県","jp_add_1":"栗原市","jp_add_2":"金成藤渡戸"},"9895123":{"post_code":"9895123","prefecture":"MIYAGI KEN","city":"KURIHARA SHI","town":"KANNARI HEIJIYASHIKI","perfecture_jp":"宮城県","jp_add_1":"栗原市","jp_add_2":"金成平治屋敷"},"9895143":{"post_code":"9895143","prefecture":"MIYAGI KEN","city":"KURIHARA SHI","town":"KANNARI HOKODA","perfecture_jp":"宮城県","jp_add_1":"栗原市","jp_add_2":"金成奉公田"},"9895132":{"post_code":"9895132","prefecture":"MIYAGI KEN","city":"KURIHARA SHI","town":"KANNARI HOSHIYAZAWA","perfecture_jp":"宮城県","jp_add_1":"栗原市","jp_add_2":"金成干谷沢"},"9895122":{"post_code":"9895122","prefecture":"MIYAGI KEN","city":"KURIHARA SHI","town":"KANNARI MISAWA","perfecture_jp":"宮城県","jp_add_1":"栗原市","jp_add_2":"金成三沢"},"9895113":{"post_code":"9895113","prefecture":"MIYAGI KEN","city":"KURIHARA SHI","town":"KANNARI MIYAMAE","perfecture_jp":"宮城県","jp_add_1":"栗原市","jp_add_2":"金成宮前"},"9895124":{"post_code":"9895124","prefecture":"MIYAGI KEN","city":"KURIHARA SHI","town":"KANNARI YAMANAKATSUTSUMISHITA","perfecture_jp":"宮城県","jp_add_1":"栗原市","jp_add_2":"金成山中堤下"},"9895152":{"post_code":"9895152","prefecture":"MIYAGI KEN","city":"KURIHARA SHI","town":"KANNARI YOTSUYASHIKI","perfecture_jp":"宮城県","jp_add_1":"栗原市","jp_add_2":"金成四ツ屋敷"},"9895331":{"post_code":"9895331","prefecture":"MIYAGI KEN","city":"KURIHARA SHI","town":"KURIKOMA IZUMIZAWA","perfecture_jp":"宮城県","jp_add_1":"栗原市","jp_add_2":"栗駒泉沢"},"9895341":{"post_code":"9895341","prefecture":"MIYAGI KEN","city":"KURIHARA SHI","town":"KURIKOMA INAYASHIKI","perfecture_jp":"宮城県","jp_add_1":"栗原市","jp_add_2":"栗駒稲屋敷"},"9895332":{"post_code":"9895332","prefecture":"MIYAGI KEN","city":"KURIHARA SHI","town":"KURIKOMA IMOZONE","perfecture_jp":"宮城県","jp_add_1":"栗原市","jp_add_2":"栗駒芋埣"},"9895301":{"post_code":"9895301","prefecture":"MIYAGI KEN","city":"KURIHARA SHI","town":"KURIKOMA IWAGASAKI","perfecture_jp":"宮城県","jp_add_1":"栗原市","jp_add_2":"栗駒岩ケ崎"},"9895333":{"post_code":"9895333","prefecture":"MIYAGI KEN","city":"KURIHARA SHI","town":"KURIKOMA KATAGOZAWA","perfecture_jp":"宮城県","jp_add_1":"栗原市","jp_add_2":"栗駒片子沢"},"9895321":{"post_code":"9895321","prefecture":"MIYAGI KEN","city":"KURIHARA SHI","town":"KURIKOMA KURIBARA","perfecture_jp":"宮城県","jp_add_1":"栗原市","jp_add_2":"栗駒栗原"},"9895322":{"post_code":"9895322","prefecture":"MIYAGI KEN","city":"KURIHARA SHI","town":"KURIKOMA SAKURADA","perfecture_jp":"宮城県","jp_add_1":"栗原市","jp_add_2":"栗駒桜田"},"9895312":{"post_code":"9895312","prefecture":"MIYAGI KEN","city":"KURIHARA SHI","town":"KURIKOMA SAPPIRAI","perfecture_jp":"宮城県","jp_add_1":"栗原市","jp_add_2":"栗駒猿飛来"},"9895311":{"post_code":"9895311","prefecture":"MIYAGI KEN","city":"KURIHARA SHI","town":"KURIKOMA SATOYA","perfecture_jp":"宮城県","jp_add_1":"栗原市","jp_add_2":"栗駒里谷"},"9895381":{"post_code":"9895381","prefecture":"MIYAGI KEN","city":"KURIHARA SHI","town":"KURIKOMA TORISAWA","perfecture_jp":"宮城県","jp_add_1":"栗原市","jp_add_2":"栗駒鳥沢"},"9895351":{"post_code":"9895351","prefecture":"MIYAGI KEN","city":"KURIHARA SHI","town":"KURIKOMA NAKANO","perfecture_jp":"宮城県","jp_add_1":"栗原市","jp_add_2":"栗駒中野"},"9895371":{"post_code":"9895371","prefecture":"MIYAGI KEN","city":"KURIHARA SHI","town":"KURIKOMA NUMAKURA","perfecture_jp":"宮城県","jp_add_1":"栗原市","jp_add_2":"栗駒沼倉"},"9895323":{"post_code":"9895323","prefecture":"MIYAGI KEN","city":"KURIHARA SHI","town":"KURIKOMA HISHINUMA","perfecture_jp":"宮城県","jp_add_1":"栗原市","jp_add_2":"栗駒菱沼"},"9895382":{"post_code":"9895382","prefecture":"MIYAGI KEN","city":"KURIHARA SHI","town":"KURIKOMA FUKAYA","perfecture_jp":"宮城県","jp_add_1":"栗原市","jp_add_2":"栗駒深谷"},"9895372":{"post_code":"9895372","prefecture":"MIYAGI KEN","city":"KURIHARA SHI","town":"KURIKOMA MATSUKURA","perfecture_jp":"宮城県","jp_add_1":"栗原市","jp_add_2":"栗駒松倉"},"9895334":{"post_code":"9895334","prefecture":"MIYAGI KEN","city":"KURIHARA SHI","town":"KURIKOMA MINEZAKI","perfecture_jp":"宮城県","jp_add_1":"栗原市","jp_add_2":"栗駒嶺崎"},"9895361":{"post_code":"9895361","prefecture":"MIYAGI KEN","city":"KURIHARA SHI","town":"KURIKOMA MONJI","perfecture_jp":"宮城県","jp_add_1":"栗原市","jp_add_2":"栗駒文字"},"9895324":{"post_code":"9895324","prefecture":"MIYAGI KEN","city":"KURIHARA SHI","town":"KURIKOMA YAHATA","perfecture_jp":"宮城県","jp_add_1":"栗原市","jp_add_2":"栗駒八幡"},"9895335":{"post_code":"9895335","prefecture":"MIYAGI KEN","city":"KURIHARA SHI","town":"KURIKOMA WATAMARU","perfecture_jp":"宮城県","jp_add_1":"栗原市","jp_add_2":"栗駒渡丸"},"9895608":{"post_code":"9895608","prefecture":"MIYAGI KEN","city":"KURIHARA SHI","town":"SHIWAHIME ARAMACHIKITA","perfecture_jp":"宮城県","jp_add_1":"栗原市","jp_add_2":"志波姫荒町北"},"9895606":{"post_code":"9895606","prefecture":"MIYAGI KEN","city":"KURIHARA SHI","town":"SHIWAHIME ARAMACHIMINAMI","perfecture_jp":"宮城県","jp_add_1":"栗原市","jp_add_2":"志波姫荒町南"},"9895603":{"post_code":"9895603","prefecture":"MIYAGI KEN","city":"KURIHARA SHI","town":"SHIWAHIME IZUNO","perfecture_jp":"宮城県","jp_add_1":"栗原市","jp_add_2":"志波姫伊豆野"},"9895601":{"post_code":"9895601","prefecture":"MIYAGI KEN","city":"KURIHARA SHI","town":"SHIWAHIME KARISHIKI","perfecture_jp":"宮城県","jp_add_1":"栗原市","jp_add_2":"志波姫刈敷"},"9895605":{"post_code":"9895605","prefecture":"MIYAGI KEN","city":"KURIHARA SHI","town":"SHIWAHIME KITAGO","perfecture_jp":"宮城県","jp_add_1":"栗原市","jp_add_2":"志波姫北郷"},"9895627":{"post_code":"9895627","prefecture":"MIYAGI KEN","city":"KURIHARA SHI","town":"SHIWAHIME KITAHORIGUCHI","perfecture_jp":"宮城県","jp_add_1":"栗原市","jp_add_2":"志波姫北堀口"},"9895607":{"post_code":"9895607","prefecture":"MIYAGI KEN","city":"KURIHARA SHI","town":"SHIWAHIME KURABAMINAMI","perfecture_jp":"宮城県","jp_add_1":"栗原市","jp_add_2":"志波姫蔵場南"},"9895621":{"post_code":"9895621","prefecture":"MIYAGI KEN","city":"KURIHARA SHI","town":"SHIWAHIME SHIMOSATO","perfecture_jp":"宮城県","jp_add_1":"栗原市","jp_add_2":"志波姫下里"},"9895602":{"post_code":"9895602","prefecture":"MIYAGI KEN","city":"KURIHARA SHI","town":"SHIWAHIME JONAIMINAMI","perfecture_jp":"宮城県","jp_add_1":"栗原市","jp_add_2":"志波姫城内南"},"9895616":{"post_code":"9895616","prefecture":"MIYAGI KEN","city":"KURIHARA SHI","town":"SHIWAHIME SHINAGATO","perfecture_jp":"宮城県","jp_add_1":"栗原市","jp_add_2":"志波姫新上戸"},"9895612":{"post_code":"9895612","prefecture":"MIYAGI KEN","city":"KURIHARA SHI","town":"SHIWAHIME SHINKUMAYA","perfecture_jp":"宮城県","jp_add_1":"栗原市","jp_add_2":"志波姫新熊谷"},"9895613":{"post_code":"9895613","prefecture":"MIYAGI KEN","city":"KURIHARA SHI","town":"SHIWAHIME SHINNUMAZAKI","perfecture_jp":"宮城県","jp_add_1":"栗原市","jp_add_2":"志波姫新沼崎"},"9895617":{"post_code":"9895617","prefecture":"MIYAGI KEN","city":"KURIHARA SHI","town":"SHIWAHIME SHINHASHIMOTO","perfecture_jp":"宮城県","jp_add_1":"栗原市","jp_add_2":"志波姫新橋本"},"9895614":{"post_code":"9895614","prefecture":"MIYAGI KEN","city":"KURIHARA SHI","town":"SHIWAHIME SHINHARA","perfecture_jp":"宮城県","jp_add_1":"栗原市","jp_add_2":"志波姫新原"},"9895618":{"post_code":"9895618","prefecture":"MIYAGI KEN","city":"KURIHARA SHI","town":"SHIWAHIME SHINYATSUKUNUGI","perfecture_jp":"宮城県","jp_add_1":"栗原市","jp_add_2":"志波姫新八樟"},"9895604":{"post_code":"9895604","prefecture":"MIYAGI KEN","city":"KURIHARA SHI","town":"SHIWAHIME DAIMOMMINAMI","perfecture_jp":"宮城県","jp_add_1":"栗原市","jp_add_2":"志波姫大門南"},"9895626":{"post_code":"9895626","prefecture":"MIYAGI KEN","city":"KURIHARA SHI","town":"SHIWAHIME NAKAOKI","perfecture_jp":"宮城県","jp_add_1":"栗原市","jp_add_2":"志波姫中沖"},"9895615":{"post_code":"9895615","prefecture":"MIYAGI KEN","city":"KURIHARA SHI","town":"SHIWAHIME NUMAZAKI","perfecture_jp":"宮城県","jp_add_1":"栗原市","jp_add_2":"志波姫沼崎"},"9895609":{"post_code":"9895609","prefecture":"MIYAGI KEN","city":"KURIHARA SHI","town":"SHIWAHIME HANASAKINISHI","perfecture_jp":"宮城県","jp_add_1":"栗原市","jp_add_2":"志波姫花崎西"},"9895625":{"post_code":"9895625","prefecture":"MIYAGI KEN","city":"KURIHARA SHI","town":"SHIWAHIME HORIGUCHI","perfecture_jp":"宮城県","jp_add_1":"栗原市","jp_add_2":"志波姫堀口"},"9895611":{"post_code":"9895611","prefecture":"MIYAGI KEN","city":"KURIHARA SHI","town":"SHIWAHIME MINAMIGO","perfecture_jp":"宮城県","jp_add_1":"栗原市","jp_add_2":"志波姫南郷"},"9895624":{"post_code":"9895624","prefecture":"MIYAGI KEN","city":"KURIHARA SHI","town":"SHIWAHIME MINAMIHORIGUCHI","perfecture_jp":"宮城県","jp_add_1":"栗原市","jp_add_2":"志波姫南堀口"},"9895623":{"post_code":"9895623","prefecture":"MIYAGI KEN","city":"KURIHARA SHI","town":"SHIWAHIME MINAMIYATSUKUNUGI","perfecture_jp":"宮城県","jp_add_1":"栗原市","jp_add_2":"志波姫南八樟"},"9895622":{"post_code":"9895622","prefecture":"MIYAGI KEN","city":"KURIHARA SHI","town":"SHIWAHIME YATSUKUNUGI","perfecture_jp":"宮城県","jp_add_1":"栗原市","jp_add_2":"志波姫八樟"},"9895610":{"post_code":"9895610","prefecture":"MIYAGI KEN","city":"KURIHARA SHI","town":"SHIWAHIME YOGAIHIGASHI","perfecture_jp":"宮城県","jp_add_1":"栗原市","jp_add_2":"志波姫要害東"},"9895619":{"post_code":"9895619","prefecture":"MIYAGI KEN","city":"KURIHARA SHI","town":"SHIWAHIME YOKOMINEURA","perfecture_jp":"宮城県","jp_add_1":"栗原市","jp_add_2":"志波姫横峰浦"},"9894533":{"post_code":"9894533","prefecture":"MIYAGI KEN","city":"KURIHARA SHI","town":"SEMINE ATAGO","perfecture_jp":"宮城県","jp_add_1":"栗原市","jp_add_2":"瀬峰愛宕"},"9894549":{"post_code":"9894549","prefecture":"MIYAGI KEN","city":"KURIHARA SHI","town":"SEMINE ARAMACHI","perfecture_jp":"宮城県","jp_add_1":"栗原市","jp_add_2":"瀬峰荒町"},"9894534":{"post_code":"9894534","prefecture":"MIYAGI KEN","city":"KURIHARA SHI","town":"SEMINE IZUMIYA","perfecture_jp":"宮城県","jp_add_1":"栗原市","jp_add_2":"瀬峰泉谷"},"9894535":{"post_code":"9894535","prefecture":"MIYAGI KEN","city":"KURIHARA SHI","town":"SEMINE IZUMIYAMINAMI","perfecture_jp":"宮城県","jp_add_1":"栗原市","jp_add_2":"瀬峰泉谷南"},"9894545":{"post_code":"9894545","prefecture":"MIYAGI KEN","city":"KURIHARA SHI","town":"SEMINE ISEDO","perfecture_jp":"宮城県","jp_add_1":"栗原市","jp_add_2":"瀬峰伊勢堂"},"9894541":{"post_code":"9894541","prefecture":"MIYAGI KEN","city":"KURIHARA SHI","town":"SEMINE USHIBUCHI","perfecture_jp":"宮城県","jp_add_1":"栗原市","jp_add_2":"瀬峰牛渕"},"9894540":{"post_code":"9894540","prefecture":"MIYAGI KEN","city":"KURIHARA SHI","town":"SEMINE USHIBUCHIMAE","perfecture_jp":"宮城県","jp_add_1":"栗原市","jp_add_2":"瀬峰牛渕前"},"9894580":{"post_code":"9894580","prefecture":"MIYAGI KEN","city":"KURIHARA SHI","town":"SEMINE OSAKAIMAE","perfecture_jp":"宮城県","jp_add_1":"栗原市","jp_add_2":"瀬峰大境前"},"9894583":{"post_code":"9894583","prefecture":"MIYAGI KEN","city":"KURIHARA SHI","town":"SEMINE OZAKAIYAMA","perfecture_jp":"宮城県","jp_add_1":"栗原市","jp_add_2":"瀬峰大境山"},"9894568":{"post_code":"9894568","prefecture":"MIYAGI KEN","city":"KURIHARA SHI","town":"SEMINE OYASHIKI","perfecture_jp":"宮城県","jp_add_1":"栗原市","jp_add_2":"瀬峰大屋敷"},"9894509":{"post_code":"9894509","prefecture":"MIYAGI KEN","city":"KURIHARA SHI","town":"SEMINE OWANIYA","perfecture_jp":"宮城県","jp_add_1":"栗原市","jp_add_2":"瀬峰大鰐谷"},"9894588":{"post_code":"9894588","prefecture":"MIYAGI KEN","city":"KURIHARA SHI","town":"SEMINE KABAMORI","perfecture_jp":"宮城県","jp_add_1":"栗原市","jp_add_2":"瀬峰蒲盛"},"9894557":{"post_code":"9894557","prefecture":"MIYAGI KEN","city":"KURIHARA SHI","town":"SEMINE KAMISAWADA","perfecture_jp":"宮城県","jp_add_1":"栗原市","jp_add_2":"瀬峰上沢田"},"9894547":{"post_code":"9894547","prefecture":"MIYAGI KEN","city":"KURIHARA SHI","town":"SEMINE KAMITA","perfecture_jp":"宮城県","jp_add_1":"栗原市","jp_add_2":"瀬峰神田"},"9894563":{"post_code":"9894563","prefecture":"MIYAGI KEN","city":"KURIHARA SHI","town":"SEMINE KAMITOMIMAE","perfecture_jp":"宮城県","jp_add_1":"栗原市","jp_add_2":"瀬峰上富前"},"9894566":{"post_code":"9894566","prefecture":"MIYAGI KEN","city":"KURIHARA SHI","town":"SEMINE KAMIYASHIKI","perfecture_jp":"宮城県","jp_add_1":"栗原市","jp_add_2":"瀬峰上屋敷"},"9894505":{"post_code":"9894505","prefecture":"MIYAGI KEN","city":"KURIHARA SHI","town":"SEMINE KARIYASUZAWA","perfecture_jp":"宮城県","jp_add_1":"栗原市","jp_add_2":"瀬峰刈安沢"},"9894562":{"post_code":"9894562","prefecture":"MIYAGI KEN","city":"KURIHARA SHI","town":"SEMINE KAWANOHATA","perfecture_jp":"宮城県","jp_add_1":"栗原市","jp_add_2":"瀬峰川ノ畑"},"9894574":{"post_code":"9894574","prefecture":"MIYAGI KEN","city":"KURIHARA SHI","town":"SEMINE KITANOSAWA","perfecture_jp":"宮城県","jp_add_1":"栗原市","jp_add_2":"瀬峰北ノ沢"},"9894523":{"post_code":"9894523","prefecture":"MIYAGI KEN","city":"KURIHARA SHI","town":"SEMINE KITAYACHI","perfecture_jp":"宮城県","jp_add_1":"栗原市","jp_add_2":"瀬峰北谷地"},"9894577":{"post_code":"9894577","prefecture":"MIYAGI KEN","city":"KURIHARA SHI","town":"SEMINE KUSURIZAWANISHI","perfecture_jp":"宮城県","jp_add_1":"栗原市","jp_add_2":"瀬峰薬沢西"},"9894578":{"post_code":"9894578","prefecture":"MIYAGI KEN","city":"KURIHARA SHI","town":"SEMINE KUSURIZAWAHIGASHI","perfecture_jp":"宮城県","jp_add_1":"栗原市","jp_add_2":"瀬峰薬沢東"},"9894518":{"post_code":"9894518","prefecture":"MIYAGI KEN","city":"KURIHARA SHI","town":"SEMINE KOJINDO","perfecture_jp":"宮城県","jp_add_1":"栗原市","jp_add_2":"瀬峰荒神堂"},"9894576":{"post_code":"9894576","prefecture":"MIYAGI KEN","city":"KURIHARA SHI","town":"SEMINE KODOSAN","perfecture_jp":"宮城県","jp_add_1":"栗原市","jp_add_2":"瀬峰高土山"},"9894504":{"post_code":"9894504","prefecture":"MIYAGI KEN","city":"KURIHARA SHI","town":"SEMINE KOBUKASAWA","perfecture_jp":"宮城県","jp_add_1":"栗原市","jp_add_2":"瀬峰小深沢"},"9894582":{"post_code":"9894582","prefecture":"MIYAGI KEN","city":"KURIHARA SHI","town":"SEMINE SAKANOSHITAURA","perfecture_jp":"宮城県","jp_add_1":"栗原市","jp_add_2":"瀬峰坂ノ下浦"},"9894585":{"post_code":"9894585","prefecture":"MIYAGI KEN","city":"KURIHARA SHI","town":"SEMINE SAKANOSHITAMAEKITA","perfecture_jp":"宮城県","jp_add_1":"栗原市","jp_add_2":"瀬峰坂ノ下前北"},"9894551":{"post_code":"9894551","prefecture":"MIYAGI KEN","city":"KURIHARA SHI","town":"SEMINE SANDAI","perfecture_jp":"宮城県","jp_add_1":"栗原市","jp_add_2":"瀬峰三代"},"9894508":{"post_code":"9894508","prefecture":"MIYAGI KEN","city":"KURIHARA SHI","town":"SEMINE SHIBANOWAKI","perfecture_jp":"宮城県","jp_add_1":"栗原市","jp_add_2":"瀬峰柴ノ脇"},"9894506":{"post_code":"9894506","prefecture":"MIYAGI KEN","city":"KURIHARA SHI","town":"SEMINE SHIMIZUSAWA","perfecture_jp":"宮城県","jp_add_1":"栗原市","jp_add_2":"瀬峰清水沢"},"9894584":{"post_code":"9894584","prefecture":"MIYAGI KEN","city":"KURIHARA SHI","town":"SEMINE SHIMIZUYAMA","perfecture_jp":"宮城県","jp_add_1":"栗原市","jp_add_2":"瀬峰清水山"},"9894521":{"post_code":"9894521","prefecture":"MIYAGI KEN","city":"KURIHARA SHI","town":"SEMINE SHIMODA","perfecture_jp":"宮城県","jp_add_1":"栗原市","jp_add_2":"瀬峰下田"},"9894522":{"post_code":"9894522","prefecture":"MIYAGI KEN","city":"KURIHARA SHI","town":"SEMINE SHIMONOMAE","perfecture_jp":"宮城県","jp_add_1":"栗原市","jp_add_2":"瀬峰下の前"},"9894512":{"post_code":"9894512","prefecture":"MIYAGI KEN","city":"KURIHARA SHI","town":"SEMINE SHIMOFUJISAWA","perfecture_jp":"宮城県","jp_add_1":"栗原市","jp_add_2":"瀬峰下藤沢"},"9894525":{"post_code":"9894525","prefecture":"MIYAGI KEN","city":"KURIHARA SHI","town":"SEMINE SHIMOYACHI","perfecture_jp":"宮城県","jp_add_1":"栗原市","jp_add_2":"瀬峰下谷地"},"9894573":{"post_code":"9894573","prefecture":"MIYAGI KEN","city":"KURIHARA SHI","town":"SEMINE JUODOMAE","perfecture_jp":"宮城県","jp_add_1":"栗原市","jp_add_2":"瀬峰十王堂前"},"9894510":{"post_code":"9894510","prefecture":"MIYAGI KEN","city":"KURIHARA SHI","town":"SEMINE SHINSHITAFUJISAWA","perfecture_jp":"宮城県","jp_add_1":"栗原市","jp_add_2":"瀬峰新下藤沢"},"9894529":{"post_code":"9894529","prefecture":"MIYAGI KEN","city":"KURIHARA SHI","town":"SEMINE SHINSHIMODA","perfecture_jp":"宮城県","jp_add_1":"栗原市","jp_add_2":"瀬峰新下田"},"9894560":{"post_code":"9894560","prefecture":"MIYAGI KEN","city":"KURIHARA SHI","town":"SEMINE SHINDOHIGASHI","perfecture_jp":"宮城県","jp_add_1":"栗原市","jp_add_2":"瀬峰新道東"},"9894538":{"post_code":"9894538","prefecture":"MIYAGI KEN","city":"KURIHARA SHI","town":"SEMINE SUWAHARA","perfecture_jp":"宮城県","jp_add_1":"栗原市","jp_add_2":"瀬峰諏訪原"},"9894586":{"post_code":"9894586","prefecture":"MIYAGI KEN","city":"KURIHARA SHI","town":"SEMINE ZOO","perfecture_jp":"宮城県","jp_add_1":"栗原市","jp_add_2":"瀬峰蔵王"},"9894536":{"post_code":"9894536","prefecture":"MIYAGI KEN","city":"KURIHARA SHI","town":"SEMINE DANNOKOSHI","perfecture_jp":"宮城県","jp_add_1":"栗原市","jp_add_2":"瀬峰壇ノ越"},"9894503":{"post_code":"9894503","prefecture":"MIYAGI KEN","city":"KURIHARA SHI","town":"SEMINE CHIKARAISHI","perfecture_jp":"宮城県","jp_add_1":"栗原市","jp_add_2":"瀬峰力石"},"9894516":{"post_code":"9894516","prefecture":"MIYAGI KEN","city":"KURIHARA SHI","town":"SEMINE CHOJAHARA","perfecture_jp":"宮城県","jp_add_1":"栗原市","jp_add_2":"瀬峰長者原"},"9894572":{"post_code":"9894572","prefecture":"MIYAGI KEN","city":"KURIHARA SHI","town":"SEMINE TERAURA","perfecture_jp":"宮城県","jp_add_1":"栗原市","jp_add_2":"瀬峰寺浦"},"9894571":{"post_code":"9894571","prefecture":"MIYAGI KEN","city":"KURIHARA SHI","town":"SEMINE TERASAWA","perfecture_jp":"宮城県","jp_add_1":"栗原市","jp_add_2":"瀬峰寺沢"},"9894565":{"post_code":"9894565","prefecture":"MIYAGI KEN","city":"KURIHARA SHI","town":"SEMINE TENJINSHITA","perfecture_jp":"宮城県","jp_add_1":"栗原市","jp_add_2":"瀬峰天神下"},"9894531":{"post_code":"9894531","prefecture":"MIYAGI KEN","city":"KURIHARA SHI","town":"SEMINE DOGASAKI","perfecture_jp":"宮城県","jp_add_1":"栗原市","jp_add_2":"瀬峰筒ケ崎"},"9894569":{"post_code":"9894569","prefecture":"MIYAGI KEN","city":"KURIHARA SHI","town":"SEMINE DOBA","perfecture_jp":"宮城県","jp_add_1":"栗原市","jp_add_2":"瀬峰筒場"},"9894589":{"post_code":"9894589","prefecture":"MIYAGI KEN","city":"KURIHARA SHI","town":"SEMINE TOMIYOGAI","perfecture_jp":"宮城県","jp_add_1":"栗原市","jp_add_2":"瀬峰富要害"},"9894548":{"post_code":"9894548","prefecture":"MIYAGI KEN","city":"KURIHARA SHI","town":"SEMINE NAGANE","perfecture_jp":"宮城県","jp_add_1":"栗原市","jp_add_2":"瀬峰長根"},"9894542":{"post_code":"9894542","prefecture":"MIYAGI KEN","city":"KURIHARA SHI","town":"SEMINE NIIBORI","perfecture_jp":"宮城県","jp_add_1":"栗原市","jp_add_2":"瀬峰新井堀"},"9894543":{"post_code":"9894543","prefecture":"MIYAGI KEN","city":"KURIHARA SHI","town":"SEMINE NIIYASHIKI","perfecture_jp":"宮城県","jp_add_1":"栗原市","jp_add_2":"瀬峰新井屋敷"},"9894507":{"post_code":"9894507","prefecture":"MIYAGI KEN","city":"KURIHARA SHI","town":"SEMINE NISHIHARA","perfecture_jp":"宮城県","jp_add_1":"栗原市","jp_add_2":"瀬峰西原"},"9894567":{"post_code":"9894567","prefecture":"MIYAGI KEN","city":"KURIHARA SHI","town":"SEMINE NISHIHARAMAE","perfecture_jp":"宮城県","jp_add_1":"栗原市","jp_add_2":"瀬峰西原前"},"9894511":{"post_code":"9894511","prefecture":"MIYAGI KEN","city":"KURIHARA SHI","town":"SEMINE NITTAZAWA","perfecture_jp":"宮城県","jp_add_1":"栗原市","jp_add_2":"瀬峰新田沢"},"9894513":{"post_code":"9894513","prefecture":"MIYAGI KEN","city":"KURIHARA SHI","town":"SEMINE NEGISHI","perfecture_jp":"宮城県","jp_add_1":"栗原市","jp_add_2":"瀬峰根岸"},"9894555":{"post_code":"9894555","prefecture":"MIYAGI KEN","city":"KURIHARA SHI","town":"SEMINE NOZAWA","perfecture_jp":"宮城県","jp_add_1":"栗原市","jp_add_2":"瀬峰野沢"},"9894544":{"post_code":"9894544","prefecture":"MIYAGI KEN","city":"KURIHARA SHI","town":"SEMINE NOZOKI","perfecture_jp":"宮城県","jp_add_1":"栗原市","jp_add_2":"瀬峰除"},"9894579":{"post_code":"9894579","prefecture":"MIYAGI KEN","city":"KURIHARA SHI","town":"SEMINE HASHIMOTORA","perfecture_jp":"宮城県","jp_add_1":"栗原市","jp_add_2":"瀬峰橋本浦"},"9894554":{"post_code":"9894554","prefecture":"MIYAGI KEN","city":"KURIHARA SHI","town":"SEMINE HARATA","perfecture_jp":"宮城県","jp_add_1":"栗原市","jp_add_2":"瀬峰原田"},"9894532":{"post_code":"9894532","prefecture":"MIYAGI KEN","city":"KURIHARA SHI","town":"SEMINE HIGUCHIYAMA","perfecture_jp":"宮城県","jp_add_1":"栗原市","jp_add_2":"瀬峰樋口山"},"9894561":{"post_code":"9894561","prefecture":"MIYAGI KEN","city":"KURIHARA SHI","town":"SEMINE HIWATASHI","perfecture_jp":"宮城県","jp_add_1":"栗原市","jp_add_2":"瀬峰樋渡"},"9894556":{"post_code":"9894556","prefecture":"MIYAGI KEN","city":"KURIHARA SHI","town":"SEMINE FUKUROSAWA","perfecture_jp":"宮城県","jp_add_1":"栗原市","jp_add_2":"瀬峰袋沢"},"9894517":{"post_code":"9894517","prefecture":"MIYAGI KEN","city":"KURIHARA SHI","town":"SEMINE FUJISAWASEMINE","perfecture_jp":"宮城県","jp_add_1":"栗原市","jp_add_2":"瀬峰藤沢瀬嶺"},"9894581":{"post_code":"9894581","prefecture":"MIYAGI KEN","city":"KURIHARA SHI","town":"SEMINE FUJISAWAYOGAI","perfecture_jp":"宮城県","jp_add_1":"栗原市","jp_add_2":"瀬峰藤沢要害"},"9894524":{"post_code":"9894524","prefecture":"MIYAGI KEN","city":"KURIHARA SHI","town":"SEMINE FUJITA","perfecture_jp":"宮城県","jp_add_1":"栗原市","jp_add_2":"瀬峰藤田"},"9894539":{"post_code":"9894539","prefecture":"MIYAGI KEN","city":"KURIHARA SHI","town":"SEMINE FUTATSUYA","perfecture_jp":"宮城県","jp_add_1":"栗原市","jp_add_2":"瀬峰二ツ谷"},"9894553":{"post_code":"9894553","prefecture":"MIYAGI KEN","city":"KURIHARA SHI","town":"SEMINE FUTAMATA","perfecture_jp":"宮城県","jp_add_1":"栗原市","jp_add_2":"瀬峰二又"},"9894537":{"post_code":"9894537","prefecture":"MIYAGI KEN","city":"KURIHARA SHI","town":"SEMINE FUNABASHI","perfecture_jp":"宮城県","jp_add_1":"栗原市","jp_add_2":"瀬峰船橋"},"9894575":{"post_code":"9894575","prefecture":"MIYAGI KEN","city":"KURIHARA SHI","town":"SEMINE MACHIDA","perfecture_jp":"宮城県","jp_add_1":"栗原市","jp_add_2":"瀬峰町田"},"9894570":{"post_code":"9894570","prefecture":"MIYAGI KEN","city":"KURIHARA SHI","town":"SEMINE MACHIDAMAE","perfecture_jp":"宮城県","jp_add_1":"栗原市","jp_add_2":"瀬峰町田前"},"9894526":{"post_code":"9894526","prefecture":"MIYAGI KEN","city":"KURIHARA SHI","town":"SEMINE MIYAKOJIHARANISHI","perfecture_jp":"宮城県","jp_add_1":"栗原市","jp_add_2":"瀬峰宮小路原西"},"9894527":{"post_code":"9894527","prefecture":"MIYAGI KEN","city":"KURIHARA SHI","town":"SEMINE MIYAKOJIHARAHIGASHI","perfecture_jp":"宮城県","jp_add_1":"栗原市","jp_add_2":"瀬峰宮小路原東"},"9894552":{"post_code":"9894552","prefecture":"MIYAGI KEN","city":"KURIHARA SHI","town":"SEMINE MIYATA","perfecture_jp":"宮城県","jp_add_1":"栗原市","jp_add_2":"瀬峰宮田"},"9894515":{"post_code":"9894515","prefecture":"MIYAGI KEN","city":"KURIHARA SHI","town":"SEMINE MONOTA","perfecture_jp":"宮城県","jp_add_1":"栗原市","jp_add_2":"瀬峰桃生田"},"9894514":{"post_code":"9894514","prefecture":"MIYAGI KEN","city":"KURIHARA SHI","town":"SEMINE MONOTAMAE","perfecture_jp":"宮城県","jp_add_1":"栗原市","jp_add_2":"瀬峰桃生田前"},"9894587":{"post_code":"9894587","prefecture":"MIYAGI KEN","city":"KURIHARA SHI","town":"SEMINE YAKUSHIDOMAE","perfecture_jp":"宮城県","jp_add_1":"栗原市","jp_add_2":"瀬峰薬師堂前"},"9894564":{"post_code":"9894564","prefecture":"MIYAGI KEN","city":"KURIHARA SHI","town":"SEMINE YACHITA","perfecture_jp":"宮城県","jp_add_1":"栗原市","jp_add_2":"瀬峰谷地田"},"9894528":{"post_code":"9894528","prefecture":"MIYAGI KEN","city":"KURIHARA SHI","town":"SEMINE YAMAZAKIMAE","perfecture_jp":"宮城県","jp_add_1":"栗原市","jp_add_2":"瀬峰山崎前"},"9894519":{"post_code":"9894519","prefecture":"MIYAGI KEN","city":"KURIHARA SHI","town":"SEMINE YOKOMORIMAE","perfecture_jp":"宮城県","jp_add_1":"栗原市","jp_add_2":"瀬峰横森前"},"9894546":{"post_code":"9894546","prefecture":"MIYAGI KEN","city":"KURIHARA SHI","town":"SEMINE YOTSUDAN","perfecture_jp":"宮城県","jp_add_1":"栗原市","jp_add_2":"瀬峰四ツ壇"},"9896701":{"post_code":"9896701","prefecture":"MIYAGI KEN","city":"KURIHARA SHI","town":"HANAYAMA KUSAKISAWA UWAHARA","perfecture_jp":"宮城県","jp_add_1":"栗原市","jp_add_2":"花山草木沢上原"},"9895507":{"post_code":"9895507","prefecture":"MIYAGI KEN","city":"KURIHARA SHI","town":"WAKAYANAGI ARIGA","perfecture_jp":"宮城県","jp_add_1":"栗原市","jp_add_2":"若柳有賀"},"9895506":{"post_code":"9895506","prefecture":"MIYAGI KEN","city":"KURIHARA SHI","town":"WAKAYANAGI OHAYASHI","perfecture_jp":"宮城県","jp_add_1":"栗原市","jp_add_2":"若柳大林"},"9895504":{"post_code":"9895504","prefecture":"MIYAGI KEN","city":"KURIHARA SHI","town":"WAKAYANAGI KAMIHATAOKA","perfecture_jp":"宮城県","jp_add_1":"栗原市","jp_add_2":"若柳上畑岡"},"9895501":{"post_code":"9895501","prefecture":"MIYAGI KEN","city":"KURIHARA SHI","town":"WAKAYANAGI KAWAKITA","perfecture_jp":"宮城県","jp_add_1":"栗原市","jp_add_2":"若柳川北"},"9895502":{"post_code":"9895502","prefecture":"MIYAGI KEN","city":"KURIHARA SHI","town":"WAKAYANAGI KAWAMINAMI","perfecture_jp":"宮城県","jp_add_1":"栗原市","jp_add_2":"若柳川南"},"9895503":{"post_code":"9895503","prefecture":"MIYAGI KEN","city":"KURIHARA SHI","town":"WAKAYANAGI SHIMOHATAOKA","perfecture_jp":"宮城県","jp_add_1":"栗原市","jp_add_2":"若柳下畑岡"},"9895505":{"post_code":"9895505","prefecture":"MIYAGI KEN","city":"KURIHARA SHI","town":"WAKAYANAGI FUKUOKA","perfecture_jp":"宮城県","jp_add_1":"栗原市","jp_add_2":"若柳福岡"},"9895508":{"post_code":"9895508","prefecture":"MIYAGI KEN","city":"KURIHARA SHI","town":"WAKAYANAGI MUYARI","perfecture_jp":"宮城県","jp_add_1":"栗原市","jp_add_2":"若柳武鎗"},"9896100":{"post_code":"9896100","prefecture":"MIYAGI KEN","city":"OSAKI SHI","town":"IKANIKEISAIGANAIBAAI","perfecture_jp":"宮城県","jp_add_1":"大崎市","jp_add_2":""},"9896463":{"post_code":"9896463","prefecture":"MIYAGI KEN","city":"OSAKI SHI","town":"IWADEYAMA AKEBIZAWA","perfecture_jp":"宮城県","jp_add_1":"大崎市","jp_add_2":"岩出山木通沢"},"9896405":{"post_code":"9896405","prefecture":"MIYAGI KEN","city":"OSAKI SHI","town":"IWADEYAMA IKETSUKI","perfecture_jp":"宮城県","jp_add_1":"大崎市","jp_add_2":"岩出山池月"},"9896435":{"post_code":"9896435","prefecture":"MIYAGI KEN","city":"OSAKI SHI","town":"IWADEYAMA URAKOJI","perfecture_jp":"宮城県","jp_add_1":"大崎市","jp_add_2":"岩出山浦小路"},"9896447":{"post_code":"9896447","prefecture":"MIYAGI KEN","city":"OSAKI SHI","town":"IWADEYAMA KAMIKANEZAWA","perfecture_jp":"宮城県","jp_add_1":"大崎市","jp_add_2":"岩出山上金沢"},"9896432":{"post_code":"9896432","prefecture":"MIYAGI KEN","city":"OSAKI SHI","town":"IWADEYAMA KAMIKAWARAKITA","perfecture_jp":"宮城県","jp_add_1":"大崎市","jp_add_2":"岩出山上川原北"},"9896433":{"post_code":"9896433","prefecture":"MIYAGI KEN","city":"OSAKI SHI","town":"IWADEYAMA KAMIKAWARAMACHI","perfecture_jp":"宮城県","jp_add_1":"大崎市","jp_add_2":"岩出山上川原町"},"9896431":{"post_code":"9896431","prefecture":"MIYAGI KEN","city":"OSAKI SHI","town":"IWADEYAMA KAMIKAWARAMINAMI","perfecture_jp":"宮城県","jp_add_1":"大崎市","jp_add_2":"岩出山上川原南"},"9896465":{"post_code":"9896465","prefecture":"MIYAGI KEN","city":"OSAKI SHI","town":"IWADEYAMA KAMITOSHOJIZAWA","perfecture_jp":"宮城県","jp_add_1":"大崎市","jp_add_2":"岩出山上東昌寺沢"},"9896421":{"post_code":"9896421","prefecture":"MIYAGI KEN","city":"OSAKI SHI","town":"IWADEYAMA KAMINAKAE","perfecture_jp":"宮城県","jp_add_1":"大崎市","jp_add_2":"岩出山上中江"},"9896403":{"post_code":"9896403","prefecture":"MIYAGI KEN","city":"OSAKI SHI","town":"IWADEYAMA KAMINOME","perfecture_jp":"宮城県","jp_add_1":"大崎市","jp_add_2":"岩出山上野目"},"9896404":{"post_code":"9896404","prefecture":"MIYAGI KEN","city":"OSAKI SHI","town":"IWADEYAMA SHIMOICHIKURI","perfecture_jp":"宮城県","jp_add_1":"大崎市","jp_add_2":"岩出山下一栗"},"9896442":{"post_code":"9896442","prefecture":"MIYAGI KEN","city":"OSAKI SHI","town":"IWADEYAMA SHIMOKANEZAWA","perfecture_jp":"宮城県","jp_add_1":"大崎市","jp_add_2":"岩出山下金沢"},"9896414":{"post_code":"9896414","prefecture":"MIYAGI KEN","city":"OSAKI SHI","town":"IWADEYAMA SHIMOKAWARA","perfecture_jp":"宮城県","jp_add_1":"大崎市","jp_add_2":"岩出山下川原"},"9896434":{"post_code":"9896434","prefecture":"MIYAGI KEN","city":"OSAKI SHI","town":"IWADEYAMA SHIMOKAWARAMACHI","perfecture_jp":"宮城県","jp_add_1":"大崎市","jp_add_2":"岩出山下川原町"},"9896464":{"post_code":"9896464","prefecture":"MIYAGI KEN","city":"OSAKI SHI","town":"IWADEYAMA SHIMOTOSHOJISAWA","perfecture_jp":"宮城県","jp_add_1":"大崎市","jp_add_2":"岩出山下東昌寺沢"},"9896412":{"post_code":"9896412","prefecture":"MIYAGI KEN","city":"OSAKI SHI","town":"IWADEYAMA SHIMONOME","perfecture_jp":"宮城県","jp_add_1":"大崎市","jp_add_2":"岩出山下野目"},"9896422":{"post_code":"9896422","prefecture":"MIYAGI KEN","city":"OSAKI SHI","town":"IWADEYAMA JUZO","perfecture_jp":"宮城県","jp_add_1":"大崎市","jp_add_2":"岩出山重蔵"},"9896437":{"post_code":"9896437","prefecture":"MIYAGI KEN","city":"OSAKI SHI","town":"IWADEYAMA SHIROYAMA","perfecture_jp":"宮城県","jp_add_1":"大崎市","jp_add_2":"岩出山城山"},"9896446":{"post_code":"9896446","prefecture":"MIYAGI KEN","city":"OSAKI SHI","town":"IWADEYAMA DAIGAKUMACHI","perfecture_jp":"宮城県","jp_add_1":"大崎市","jp_add_2":"岩出山大学町"},"9896441":{"post_code":"9896441","prefecture":"MIYAGI KEN","city":"OSAKI SHI","town":"IWADEYAMA TORICHO","perfecture_jp":"宮城県","jp_add_1":"大崎市","jp_add_2":"岩出山通丁"},"9896443":{"post_code":"9896443","prefecture":"MIYAGI KEN","city":"OSAKI SHI","town":"IWADEYAMA TODOROKI","perfecture_jp":"宮城県","jp_add_1":"大崎市","jp_add_2":"岩出山轟"},"9896425":{"post_code":"9896425","prefecture":"MIYAGI KEN","city":"OSAKI SHI","town":"IWADEYAMA NISHIONAKAKE","perfecture_jp":"宮城県","jp_add_1":"大崎市","jp_add_2":"岩出山西御名掛"},"9896436":{"post_code":"9896436","prefecture":"MIYAGI KEN","city":"OSAKI SHI","town":"IWADEYAMA NINOKAMAE","perfecture_jp":"宮城県","jp_add_1":"大崎市","jp_add_2":"岩出山二ノ構"},"9896426":{"post_code":"9896426","prefecture":"MIYAGI KEN","city":"OSAKI SHI","town":"IWADEYAMA HIGASHIONAKAKE","perfecture_jp":"宮城県","jp_add_1":"大崎市","jp_add_2":"岩出山東御名掛"},"9896415":{"post_code":"9896415","prefecture":"MIYAGI KEN","city":"OSAKI SHI","town":"IWADEYAMA HIGASHIKAWARA","perfecture_jp":"宮城県","jp_add_1":"大崎市","jp_add_2":"岩出山東川原"},"9896413":{"post_code":"9896413","prefecture":"MIYAGI KEN","city":"OSAKI SHI","town":"IWADEYAMA HIGASHIKAWARAMACHI","perfecture_jp":"宮城県","jp_add_1":"大崎市","jp_add_2":"岩出山東川原町"},"9896462":{"post_code":"9896462","prefecture":"MIYAGI KEN","city":"OSAKI SHI","town":"IWADEYAMA HIRUSAWA","perfecture_jp":"宮城県","jp_add_1":"大崎市","jp_add_2":"岩出山蛭沢"},"9896411":{"post_code":"9896411","prefecture":"MIYAGI KEN","city":"OSAKI SHI","town":"IWADEYAMA FUNABA","perfecture_jp":"宮城県","jp_add_1":"大崎市","jp_add_2":"岩出山船場"},"9896444":{"post_code":"9896444","prefecture":"MIYAGI KEN","city":"OSAKI SHI","town":"IWADEYAMA HOSOMINE","perfecture_jp":"宮城県","jp_add_1":"大崎市","jp_add_2":"岩出山細峯"},"9896466":{"post_code":"9896466","prefecture":"MIYAGI KEN","city":"OSAKI SHI","town":"IWADEYAMA HODOSAWA","perfecture_jp":"宮城県","jp_add_1":"大崎市","jp_add_2":"岩出山保土沢"},"9896423":{"post_code":"9896423","prefecture":"MIYAGI KEN","city":"OSAKI SHI","town":"IWADEYAMA MAEBISHAMON","perfecture_jp":"宮城県","jp_add_1":"大崎市","jp_add_2":"岩出山前毘沙門"},"9896461":{"post_code":"9896461","prefecture":"MIYAGI KEN","city":"OSAKI SHI","town":"IWADEYAMA MATSUSAWA","perfecture_jp":"宮城県","jp_add_1":"大崎市","jp_add_2":"岩出山松沢"},"9896424":{"post_code":"9896424","prefecture":"MIYAGI KEN","city":"OSAKI SHI","town":"IWADEYAMA MARUYAMA","perfecture_jp":"宮城県","jp_add_1":"大崎市","jp_add_2":"岩出山丸山"},"9896445":{"post_code":"9896445","prefecture":"MIYAGI KEN","city":"OSAKI SHI","town":"IWADEYAMA MINAMIZAWA","perfecture_jp":"宮城県","jp_add_1":"大崎市","jp_add_2":"岩出山南沢"},"9896402":{"post_code":"9896402","prefecture":"MIYAGI KEN","city":"OSAKI SHI","town":"IWADEYAMA(ISODA.SHIMOMAYAMA)","perfecture_jp":"宮城県","jp_add_1":"大崎市","jp_add_2":"岩出山"},"9896401":{"post_code":"9896401","prefecture":"MIYAGI KEN","city":"OSAKI SHI","town":"IWADEYAMA(KAMIMAYAMA.KUZUOKA)","perfecture_jp":"宮城県","jp_add_1":"大崎市","jp_add_2":"岩出山"},"9896471":{"post_code":"9896471","prefecture":"MIYAGI KEN","city":"OSAKI SHI","town":"IWADEYAMA(SONOTA)","perfecture_jp":"宮城県","jp_add_1":"大崎市","jp_add_2":"岩出山"},"9894106":{"post_code":"9894106","prefecture":"MIYAGI KEN","city":"OSAKI SHI","town":"KASHIMADAI OBASAMA","perfecture_jp":"宮城県","jp_add_1":"大崎市","jp_add_2":"鹿島台大迫"},"9894102":{"post_code":"9894102","prefecture":"MIYAGI KEN","city":"OSAKI SHI","town":"KASHIMADAI KIMAZUKA","perfecture_jp":"宮城県","jp_add_1":"大崎市","jp_add_2":"鹿島台木間塚"},"9894103":{"post_code":"9894103","prefecture":"MIYAGI KEN","city":"OSAKI SHI","town":"KASHIMADAI HIRAWATA","perfecture_jp":"宮城県","jp_add_1":"大崎市","jp_add_2":"鹿島台平渡"},"9894104":{"post_code":"9894104","prefecture":"MIYAGI KEN","city":"OSAKI SHI","town":"KASHIMADAI HIRONAGA","perfecture_jp":"宮城県","jp_add_1":"大崎市","jp_add_2":"鹿島台広長"},"9894105":{"post_code":"9894105","prefecture":"MIYAGI KEN","city":"OSAKI SHI","town":"KASHIMADAI FUKAYA","perfecture_jp":"宮城県","jp_add_1":"大崎市","jp_add_2":"鹿島台深谷"},"9894101":{"post_code":"9894101","prefecture":"MIYAGI KEN","city":"OSAKI SHI","town":"KASHIMADAI FUNAKOSHI","perfecture_jp":"宮城県","jp_add_1":"大崎市","jp_add_2":"鹿島台船越"},"9896321":{"post_code":"9896321","prefecture":"MIYAGI KEN","city":"OSAKI SHI","town":"SAMBONGI","perfecture_jp":"宮城県","jp_add_1":"大崎市","jp_add_2":"三本木"},"9896304":{"post_code":"9896304","prefecture":"MIYAGI KEN","city":"OSAKI SHI","town":"SAMBONGI AKITA","perfecture_jp":"宮城県","jp_add_1":"大崎市","jp_add_2":"三本木秋田"},"9896312":{"post_code":"9896312","prefecture":"MIYAGI KEN","city":"OSAKI SHI","town":"SAMBONGI ARIGAFUKURO","perfecture_jp":"宮城県","jp_add_1":"大崎市","jp_add_2":"三本木蟻ケ袋"},"9896305":{"post_code":"9896305","prefecture":"MIYAGI KEN","city":"OSAKI SHI","town":"SAMBONGI IGA","perfecture_jp":"宮城県","jp_add_1":"大崎市","jp_add_2":"三本木伊賀"},"9896303":{"post_code":"9896303","prefecture":"MIYAGI KEN","city":"OSAKI SHI","town":"SAMBONGI IBANO","perfecture_jp":"宮城県","jp_add_1":"大崎市","jp_add_2":"三本木伊場野"},"9896313":{"post_code":"9896313","prefecture":"MIYAGI KEN","city":"OSAKI SHI","town":"SAMBONGI OTONASHI","perfecture_jp":"宮城県","jp_add_1":"大崎市","jp_add_2":"三本木音無"},"9896302":{"post_code":"9896302","prefecture":"MIYAGI KEN","city":"OSAKI SHI","town":"SAMBONGI KAMIIBANO","perfecture_jp":"宮城県","jp_add_1":"大崎市","jp_add_2":"三本木上伊場野"},"9896301":{"post_code":"9896301","prefecture":"MIYAGI KEN","city":"OSAKI SHI","town":"SAMBONGI KORI","perfecture_jp":"宮城県","jp_add_1":"大崎市","jp_add_2":"三本木桑折"},"9896314":{"post_code":"9896314","prefecture":"MIYAGI KEN","city":"OSAKI SHI","town":"SAMBONGI SAIDA","perfecture_jp":"宮城県","jp_add_1":"大崎市","jp_add_2":"三本木斉田"},"9896311":{"post_code":"9896311","prefecture":"MIYAGI KEN","city":"OSAKI SHI","town":"SAMBONGI SAKAMOTO","perfecture_jp":"宮城県","jp_add_1":"大崎市","jp_add_2":"三本木坂本"},"9896306":{"post_code":"9896306","prefecture":"MIYAGI KEN","city":"OSAKI SHI","town":"SAMBONGI SHIMMACHI","perfecture_jp":"宮城県","jp_add_1":"大崎市","jp_add_2":"三本木新町"},"9896316":{"post_code":"9896316","prefecture":"MIYAGI KEN","city":"OSAKI SHI","town":"SAMBONGI TAKAYANAGI","perfecture_jp":"宮城県","jp_add_1":"大崎市","jp_add_2":"三本木高柳"},"9896315":{"post_code":"9896315","prefecture":"MIYAGI KEN","city":"OSAKI SHI","town":"SAMBONGI NIINUMA","perfecture_jp":"宮城県","jp_add_1":"大崎市","jp_add_2":"三本木新沼"},"9896317":{"post_code":"9896317","prefecture":"MIYAGI KEN","city":"OSAKI SHI","town":"SAMBONGI HIRUBUKURO","perfecture_jp":"宮城県","jp_add_1":"大崎市","jp_add_2":"三本木蒜袋"},"9896322":{"post_code":"9896322","prefecture":"MIYAGI KEN","city":"OSAKI SHI","town":"SAMBONGI MINAMIYACHI","perfecture_jp":"宮城県","jp_add_1":"大崎市","jp_add_2":"三本木南谷地"},"9894415":{"post_code":"9894415","prefecture":"MIYAGI KEN","city":"OSAKI SHI","town":"TAJIRI","perfecture_jp":"宮城県","jp_add_1":"大崎市","jp_add_2":"田尻"},"9894303":{"post_code":"9894303","prefecture":"MIYAGI KEN","city":"OSAKI SHI","town":"TAJIRI OSAWA","perfecture_jp":"宮城県","jp_add_1":"大崎市","jp_add_2":"田尻大沢"},"9894302":{"post_code":"9894302","prefecture":"MIYAGI KEN","city":"OSAKI SHI","town":"TAJIRI ONUKI","perfecture_jp":"宮城県","jp_add_1":"大崎市","jp_add_2":"田尻大貫"},"9894412":{"post_code":"9894412","prefecture":"MIYAGI KEN","city":"OSAKI SHI","town":"TAJIRI OMINE","perfecture_jp":"宮城県","jp_add_1":"大崎市","jp_add_2":"田尻大嶺"},"9894305":{"post_code":"9894305","prefecture":"MIYAGI KEN","city":"OSAKI SHI","town":"TAJIRI OSHIO","perfecture_jp":"宮城県","jp_add_1":"大崎市","jp_add_2":"田尻小塩"},"9894301":{"post_code":"9894301","prefecture":"MIYAGI KEN","city":"OSAKI SHI","town":"TAJIRI KABUKURI","perfecture_jp":"宮城県","jp_add_1":"大崎市","jp_add_2":"田尻蕪栗"},"9894304":{"post_code":"9894304","prefecture":"MIYAGI KEN","city":"OSAKI SHI","town":"TAJIRI KITAKOGOTA","perfecture_jp":"宮城県","jp_add_1":"大崎市","jp_add_2":"田尻北小牛田"},"9894307":{"post_code":"9894307","prefecture":"MIYAGI KEN","city":"OSAKI SHI","town":"TAJIRI KITATAKAGI","perfecture_jp":"宮城県","jp_add_1":"大崎市","jp_add_2":"田尻北高城"},"9894414":{"post_code":"9894414","prefecture":"MIYAGI KEN","city":"OSAKI SHI","town":"TAJIRI KITAMAGINOME","perfecture_jp":"宮城県","jp_add_1":"大崎市","jp_add_2":"田尻北牧目"},"9894419":{"post_code":"9894419","prefecture":"MIYAGI KEN","city":"OSAKI SHI","town":"TAJIRI KOMATSU","perfecture_jp":"宮城県","jp_add_1":"大崎市","jp_add_2":"田尻小松"},"9894306":{"post_code":"9894306","prefecture":"MIYAGI KEN","city":"OSAKI SHI","town":"TAJIRI SAKURADAKOYA","perfecture_jp":"宮城県","jp_add_1":"大崎市","jp_add_2":"田尻桜田高野"},"9894418":{"post_code":"9894418","prefecture":"MIYAGI KEN","city":"OSAKI SHI","town":"TAJIRI SUWATOGE","perfecture_jp":"宮城県","jp_add_1":"大崎市","jp_add_2":"田尻諏訪峠"},"9894413":{"post_code":"9894413","prefecture":"MIYAGI KEN","city":"OSAKI SHI","town":"TAJIRI TORIKI","perfecture_jp":"宮城県","jp_add_1":"大崎市","jp_add_2":"田尻通木"},"9894416":{"post_code":"9894416","prefecture":"MIYAGI KEN","city":"OSAKI SHI","town":"TAJIRI NAKANOME","perfecture_jp":"宮城県","jp_add_1":"大崎市","jp_add_2":"田尻中目"},"9894417":{"post_code":"9894417","prefecture":"MIYAGI KEN","city":"OSAKI SHI","town":"TAJIRI NUMAGI","perfecture_jp":"宮城県","jp_add_1":"大崎市","jp_add_2":"田尻沼木"},"9894308":{"post_code":"9894308","prefecture":"MIYAGI KEN","city":"OSAKI SHI","town":"TAJIRI NUMABE","perfecture_jp":"宮城県","jp_add_1":"大崎市","jp_add_2":"田尻沼部"},"9894411":{"post_code":"9894411","prefecture":"MIYAGI KEN","city":"OSAKI SHI","town":"TAJIRI YAWATA","perfecture_jp":"宮城県","jp_add_1":"大崎市","jp_add_2":"田尻八幡"},"9896711":{"post_code":"9896711","prefecture":"MIYAGI KEN","city":"OSAKI SHI","town":"NARUKONSEN YOMOGIDA","perfecture_jp":"宮城県","jp_add_1":"大崎市","jp_add_2":"鳴子温泉赤這"},"9896811":{"post_code":"9896811","prefecture":"MIYAGI KEN","city":"OSAKI SHI","town":"NARUKONSEN WASHINOSU","perfecture_jp":"宮城県","jp_add_1":"大崎市","jp_add_2":"鳴子温泉赤湯"},"9896806":{"post_code":"9896806","prefecture":"MIYAGI KEN","city":"OSAKI SHI","town":"NARUKONSEN IWABUCHI","perfecture_jp":"宮城県","jp_add_1":"大崎市","jp_add_2":"鳴子温泉岩渕"},"9896805":{"post_code":"9896805","prefecture":"MIYAGI KEN","city":"OSAKI SHI","town":"NARUKONSEN IWABUCHIMAE","perfecture_jp":"宮城県","jp_add_1":"大崎市","jp_add_2":"鳴子温泉岩渕前"},"9896838":{"post_code":"9896838","prefecture":"MIYAGI KEN","city":"OSAKI SHI","town":"NARUKONSEN OUDAKE","perfecture_jp":"宮城県","jp_add_1":"大崎市","jp_add_2":"鳴子温泉奥羽岳"},"9896803":{"post_code":"9896803","prefecture":"MIYAGI KEN","city":"OSAKI SHI","town":"NARUKONSEN OBATAKE","perfecture_jp":"宮城県","jp_add_1":"大崎市","jp_add_2":"鳴子温泉大畑"},"9896941":{"post_code":"9896941","prefecture":"MIYAGI KEN","city":"OSAKI SHI","town":"NARUKONSEN ONIKOBE","perfecture_jp":"宮城県","jp_add_1":"大崎市","jp_add_2":"鳴子温泉鬼首"},"9896712":{"post_code":"9896712","prefecture":"MIYAGI KEN","city":"OSAKI SHI","town":"NARUKONSEN WADA","perfecture_jp":"宮城県","jp_add_1":"大崎市","jp_add_2":"鳴子温泉小身川原"},"9896825":{"post_code":"9896825","prefecture":"MIYAGI KEN","city":"OSAKI SHI","town":"NARUKONSEN KAMINARUKO","perfecture_jp":"宮城県","jp_add_1":"大崎市","jp_add_2":"鳴子温泉上鳴子"},"9896833":{"post_code":"9896833","prefecture":"MIYAGI KEN","city":"OSAKI SHI","town":"NARUKONSEN KAWAHATA","perfecture_jp":"宮城県","jp_add_1":"大崎市","jp_add_2":"鳴子温泉川端"},"9896824":{"post_code":"9896824","prefecture":"MIYAGI KEN","city":"OSAKI SHI","town":"NARUKONSEN KAWARAYU","perfecture_jp":"宮城県","jp_add_1":"大崎市","jp_add_2":"鳴子温泉河原湯"},"9896821":{"post_code":"9896821","prefecture":"MIYAGI KEN","city":"OSAKI SHI","town":"NARUKONSEN KURUMAYU","perfecture_jp":"宮城県","jp_add_1":"大崎市","jp_add_2":"鳴子温泉車湯"},"9896827":{"post_code":"9896827","prefecture":"MIYAGI KEN","city":"OSAKI SHI","town":"NARUKONSEN SHITOMAE","perfecture_jp":"宮城県","jp_add_1":"大崎市","jp_add_2":"鳴子温泉尿前"},"9896822":{"post_code":"9896822","prefecture":"MIYAGI KEN","city":"OSAKI SHI","town":"NARUKONSEN SHINYASHIKI","perfecture_jp":"宮城県","jp_add_1":"大崎市","jp_add_2":"鳴子温泉新屋敷"},"9896801":{"post_code":"9896801","prefecture":"MIYAGI KEN","city":"OSAKI SHI","town":"NARUKONSEN SUEZAWA","perfecture_jp":"宮城県","jp_add_1":"大崎市","jp_add_2":"鳴子温泉末沢"},"9896802":{"post_code":"9896802","prefecture":"MIYAGI KEN","city":"OSAKI SHI","town":"NARUKONSEN SUEZAWANISHI","perfecture_jp":"宮城県","jp_add_1":"大崎市","jp_add_2":"鳴子温泉末沢西"},"9896804":{"post_code":"9896804","prefecture":"MIYAGI KEN","city":"OSAKI SHI","town":"NARUKONSEN NAKAYASHIKI","perfecture_jp":"宮城県","jp_add_1":"大崎市","jp_add_2":"鳴子温泉中屋敷"},"9896834":{"post_code":"9896834","prefecture":"MIYAGI KEN","city":"OSAKI SHI","town":"NARUKONSEN NISHIHARA","perfecture_jp":"宮城県","jp_add_1":"大崎市","jp_add_2":"鳴子温泉西原"},"9896826":{"post_code":"9896826","prefecture":"MIYAGI KEN","city":"OSAKI SHI","town":"NARUKONSEN FURUTOMAE","perfecture_jp":"宮城県","jp_add_1":"大崎市","jp_add_2":"鳴子温泉古戸前"},"9896832":{"post_code":"9896832","prefecture":"MIYAGI KEN","city":"OSAKI SHI","town":"NARUKONSEN HOSHINUMA","perfecture_jp":"宮城県","jp_add_1":"大崎市","jp_add_2":"鳴子温泉星沼"},"9896807":{"post_code":"9896807","prefecture":"MIYAGI KEN","city":"OSAKI SHI","town":"NARUKONSEN MITENOHARA","perfecture_jp":"宮城県","jp_add_1":"大崎市","jp_add_2":"鳴子温泉見手野原"},"9896835":{"post_code":"9896835","prefecture":"MIYAGI KEN","city":"OSAKI SHI","town":"NARUKONSEN MINAMIHARA","perfecture_jp":"宮城県","jp_add_1":"大崎市","jp_add_2":"鳴子温泉南原"},"9896837":{"post_code":"9896837","prefecture":"MIYAGI KEN","city":"OSAKI SHI","town":"NARUKONSEN MINAMIHOSHINUMA","perfecture_jp":"宮城県","jp_add_1":"大崎市","jp_add_2":"鳴子温泉南星沼"},"9896831":{"post_code":"9896831","prefecture":"MIYAGI KEN","city":"OSAKI SHI","town":"NARUKONSEN YAGI","perfecture_jp":"宮城県","jp_add_1":"大崎市","jp_add_2":"鳴子温泉柳木"},"9896836":{"post_code":"9896836","prefecture":"MIYAGI KEN","city":"OSAKI SHI","town":"NARUKONSEN YAKIISHIMATA","perfecture_jp":"宮城県","jp_add_1":"大崎市","jp_add_2":"鳴子温泉焼石亦"},"9896823":{"post_code":"9896823","prefecture":"MIYAGI KEN","city":"OSAKI SHI","town":"NARUKONSEN YUMOTO","perfecture_jp":"宮城県","jp_add_1":"大崎市","jp_add_2":"鳴子温泉湯元"},"9896223":{"post_code":"9896223","prefecture":"MIYAGI KEN","city":"OSAKI SHI","town":"FURUKAWA","perfecture_jp":"宮城県","jp_add_1":"大崎市","jp_add_2":"古川"},"9896117":{"post_code":"9896117","prefecture":"MIYAGI KEN","city":"OSAKI SHI","town":"FURUKAWA ASAHI","perfecture_jp":"宮城県","jp_add_1":"大崎市","jp_add_2":"古川旭"},"9896243":{"post_code":"9896243","prefecture":"MIYAGI KEN","city":"OSAKI SHI","town":"FURUKAWA AMEOZAWA","perfecture_jp":"宮城県","jp_add_1":"大崎市","jp_add_2":"古川雨生沢"},"9896164":{"post_code":"9896164","prefecture":"MIYAGI KEN","city":"OSAKI SHI","town":"FURUKAWA ARAKAWAKOGANECHO","perfecture_jp":"宮城県","jp_add_1":"大崎市","jp_add_2":"古川荒川小金町"},"9896212":{"post_code":"9896212","prefecture":"MIYAGI KEN","city":"OSAKI SHI","town":"FURUKAWA ARATANOME","perfecture_jp":"宮城県","jp_add_1":"大崎市","jp_add_2":"古川荒田目"},"9896252":{"post_code":"9896252","prefecture":"MIYAGI KEN","city":"OSAKI SHI","town":"FURUKAWA ARAYA","perfecture_jp":"宮城県","jp_add_1":"大崎市","jp_add_2":"古川荒谷"},"9896203":{"post_code":"9896203","prefecture":"MIYAGI KEN","city":"OSAKI SHI","town":"FURUKAWA IIGAWA","perfecture_jp":"宮城県","jp_add_1":"大崎市","jp_add_2":"古川飯川"},"9896124":{"post_code":"9896124","prefecture":"MIYAGI KEN","city":"OSAKI SHI","town":"FURUKAWA ISHIMORI","perfecture_jp":"宮城県","jp_add_1":"大崎市","jp_add_2":"古川石森"},"9896135":{"post_code":"9896135","prefecture":"MIYAGI KEN","city":"OSAKI SHI","town":"FURUKAWA INABA","perfecture_jp":"宮城県","jp_add_1":"大崎市","jp_add_2":"古川稲葉"},"9896173":{"post_code":"9896173","prefecture":"MIYAGI KEN","city":"OSAKI SHI","town":"FURUKAWA URAMACHI","perfecture_jp":"宮城県","jp_add_1":"大崎市","jp_add_2":"古川浦町"},"9896103":{"post_code":"9896103","prefecture":"MIYAGI KEN","city":"OSAKI SHI","town":"FURUKAWA EAI KOTOBUKICHO","perfecture_jp":"宮城県","jp_add_1":"大崎市","jp_add_2":"古川江合寿町"},"9896104":{"post_code":"9896104","prefecture":"MIYAGI KEN","city":"OSAKI SHI","town":"FURUKAWA EAI NISHIKICHO","perfecture_jp":"宮城県","jp_add_1":"大崎市","jp_add_2":"古川江合錦町"},"9896102":{"post_code":"9896102","prefecture":"MIYAGI KEN","city":"OSAKI SHI","town":"FURUKAWA EAI HONCHO","perfecture_jp":"宮城県","jp_add_1":"大崎市","jp_add_2":"古川江合本町"},"9896115":{"post_code":"9896115","prefecture":"MIYAGI KEN","city":"OSAKI SHI","town":"FURUKAWA EKIHIGASHI","perfecture_jp":"宮城県","jp_add_1":"大崎市","jp_add_2":"古川駅東"},"9896162":{"post_code":"9896162","prefecture":"MIYAGI KEN","city":"OSAKI SHI","town":"FURUKAWA EKIMAEODORI","perfecture_jp":"宮城県","jp_add_1":"大崎市","jp_add_2":"古川駅前大通"},"9896161":{"post_code":"9896161","prefecture":"MIYAGI KEN","city":"OSAKI SHI","town":"FURUKAWA EKIMINAMI","perfecture_jp":"宮城県","jp_add_1":"大崎市","jp_add_2":"古川駅南"},"9896227":{"post_code":"9896227","prefecture":"MIYAGI KEN","city":"OSAKI SHI","town":"FURUKAWA OSAKI","perfecture_jp":"宮城県","jp_add_1":"大崎市","jp_add_2":"古川大崎"},"9896114":{"post_code":"9896114","prefecture":"MIYAGI KEN","city":"OSAKI SHI","town":"FURUKAWA OHATA","perfecture_jp":"宮城県","jp_add_1":"大崎市","jp_add_2":"古川大幡"},"9896221":{"post_code":"9896221","prefecture":"MIYAGI KEN","city":"OSAKI SHI","town":"FURUKAWA OMIYA","perfecture_jp":"宮城県","jp_add_1":"大崎市","jp_add_2":"古川大宮"},"9896234":{"post_code":"9896234","prefecture":"MIYAGI KEN","city":"OSAKI SHI","town":"FURUKAWA OBAYASHI","perfecture_jp":"宮城県","jp_add_1":"大崎市","jp_add_2":"古川小林"},"9896216":{"post_code":"9896216","prefecture":"MIYAGI KEN","city":"OSAKI SHI","town":"FURUKAWA KASHIWAZAKI","perfecture_jp":"宮城県","jp_add_1":"大崎市","jp_add_2":"古川柏崎"},"9896131":{"post_code":"9896131","prefecture":"MIYAGI KEN","city":"OSAKI SHI","town":"FURUKAWA KANAGORIN","perfecture_jp":"宮城県","jp_add_1":"大崎市","jp_add_2":"古川金五輪"},"9896264":{"post_code":"9896264","prefecture":"MIYAGI KEN","city":"OSAKI SHI","town":"FURUKAWA KAMIZONE","perfecture_jp":"宮城県","jp_add_1":"大崎市","jp_add_2":"古川上埣"},"9896202":{"post_code":"9896202","prefecture":"MIYAGI KEN","city":"OSAKI SHI","town":"FURUKAWA KAMINAKANOME","perfecture_jp":"宮城県","jp_add_1":"大崎市","jp_add_2":"古川上中目"},"9896236":{"post_code":"9896236","prefecture":"MIYAGI KEN","city":"OSAKI SHI","town":"FURUKAWA KAWAKUMA","perfecture_jp":"宮城県","jp_add_1":"大崎市","jp_add_2":"古川川熊"},"9896167":{"post_code":"9896167","prefecture":"MIYAGI KEN","city":"OSAKI SHI","town":"FURUKAWA KAWAHATA","perfecture_jp":"宮城県","jp_add_1":"大崎市","jp_add_2":"古川川端"},"9896145":{"post_code":"9896145","prefecture":"MIYAGI KEN","city":"OSAKI SHI","town":"FURUKAWA KITAINABA","perfecture_jp":"宮城県","jp_add_1":"大崎市","jp_add_2":"古川北稲葉"},"9896171":{"post_code":"9896171","prefecture":"MIYAGI KEN","city":"OSAKI SHI","town":"FURUKAWA KITAMACHI","perfecture_jp":"宮城県","jp_add_1":"大崎市","jp_add_2":"古川北町"},"9896242":{"post_code":"9896242","prefecture":"MIYAGI KEN","city":"OSAKI SHI","town":"FURUKAWA KITAMIYAZAWA","perfecture_jp":"宮城県","jp_add_1":"大崎市","jp_add_2":"古川北宮沢"},"9896254":{"post_code":"9896254","prefecture":"MIYAGI KEN","city":"OSAKI SHI","town":"FURUKAWA KITSUNEZUKA","perfecture_jp":"宮城県","jp_add_1":"大崎市","jp_add_2":"古川狐塚"},"9896244":{"post_code":"9896244","prefecture":"MIYAGI KEN","city":"OSAKI SHI","town":"FURUKAWA KIYOTAKI","perfecture_jp":"宮城県","jp_add_1":"大崎市","jp_add_2":"古川清滝"},"9896122":{"post_code":"9896122","prefecture":"MIYAGI KEN","city":"OSAKI SHI","town":"FURUKAWA KUWABARI","perfecture_jp":"宮城県","jp_add_1":"大崎市","jp_add_2":"古川桑針"},"9896224":{"post_code":"9896224","prefecture":"MIYAGI KEN","city":"OSAKI SHI","town":"FURUKAWA KOIZUMI","perfecture_jp":"宮城県","jp_add_1":"大崎市","jp_add_2":"古川小泉"},"9896144":{"post_code":"9896144","prefecture":"MIYAGI KEN","city":"OSAKI SHI","town":"FURUKAWA KOINABACHO","perfecture_jp":"宮城県","jp_add_1":"大崎市","jp_add_2":"古川小稲葉町"},"9896251":{"post_code":"9896251","prefecture":"MIYAGI KEN","city":"OSAKI SHI","town":"FURUKAWA KONO","perfecture_jp":"宮城県","jp_add_1":"大崎市","jp_add_2":"古川小野"},"9896211":{"post_code":"9896211","prefecture":"MIYAGI KEN","city":"OSAKI SHI","town":"FURUKAWA SAIGE","perfecture_jp":"宮城県","jp_add_1":"大崎市","jp_add_2":"古川斎下"},"9896106":{"post_code":"9896106","prefecture":"MIYAGI KEN","city":"OSAKI SHI","town":"FURUKAWA SAIWAICHO","perfecture_jp":"宮城県","jp_add_1":"大崎市","jp_add_2":"古川幸町"},"9896128":{"post_code":"9896128","prefecture":"MIYAGI KEN","city":"OSAKI SHI","town":"FURUKAWA SAKAINOMIYA","perfecture_jp":"宮城県","jp_add_1":"大崎市","jp_add_2":"古川境野宮"},"9896157":{"post_code":"9896157","prefecture":"MIYAGI KEN","city":"OSAKI SHI","town":"FURUKAWA SAKAECHO","perfecture_jp":"宮城県","jp_add_1":"大崎市","jp_add_2":"古川栄町"},"9896233":{"post_code":"9896233","prefecture":"MIYAGI KEN","city":"OSAKI SHI","town":"FURUKAWA SAKURANOME","perfecture_jp":"宮城県","jp_add_1":"大崎市","jp_add_2":"古川桜ノ目"},"9896232":{"post_code":"9896232","prefecture":"MIYAGI KEN","city":"OSAKI SHI","town":"FURUKAWA SAWADA","perfecture_jp":"宮城県","jp_add_1":"大崎市","jp_add_2":"古川沢田"},"9896201":{"post_code":"9896201","prefecture":"MIYAGI KEN","city":"OSAKI SHI","town":"FURUKAWA SHIBUI","perfecture_jp":"宮城県","jp_add_1":"大崎市","jp_add_2":"古川渋井"},"9896228":{"post_code":"9896228","prefecture":"MIYAGI KEN","city":"OSAKI SHI","town":"FURUKAWA SHIMIZU","perfecture_jp":"宮城県","jp_add_1":"大崎市","jp_add_2":"古川清水"},"9896241":{"post_code":"9896241","prefecture":"MIYAGI KEN","city":"OSAKI SHI","town":"FURUKAWA SHIMIZUSAWA","perfecture_jp":"宮城県","jp_add_1":"大崎市","jp_add_2":"古川清水沢"},"9896123":{"post_code":"9896123","prefecture":"MIYAGI KEN","city":"OSAKI SHI","town":"FURUKAWA SHIMONAKANOME","perfecture_jp":"宮城県","jp_add_1":"大崎市","jp_add_2":"古川下中目"},"9896263":{"post_code":"9896263","prefecture":"MIYAGI KEN","city":"OSAKI SHI","town":"FURUKAWA SHIMOYACHI","perfecture_jp":"宮城県","jp_add_1":"大崎市","jp_add_2":"古川下谷地"},"9896151":{"post_code":"9896151","prefecture":"MIYAGI KEN","city":"OSAKI SHI","town":"FURUKAWA SHIRONISHI","perfecture_jp":"宮城県","jp_add_1":"大崎市","jp_add_2":"古川城西"},"9896116":{"post_code":"9896116","prefecture":"MIYAGI KEN","city":"OSAKI SHI","town":"FURUKAWA SUMOZONE","perfecture_jp":"宮城県","jp_add_1":"大崎市","jp_add_2":"古川李埣"},"9896175":{"post_code":"9896175","prefecture":"MIYAGI KEN","city":"OSAKI SHI","town":"FURUKAWA SUWA","perfecture_jp":"宮城県","jp_add_1":"大崎市","jp_add_2":"古川諏訪"},"9896174":{"post_code":"9896174","prefecture":"MIYAGI KEN","city":"OSAKI SHI","town":"FURUKAWA SENJUJICHO","perfecture_jp":"宮城県","jp_add_1":"大崎市","jp_add_2":"古川千手寺町"},"9896163":{"post_code":"9896163","prefecture":"MIYAGI KEN","city":"OSAKI SHI","town":"FURUKAWA DAIMACHI","perfecture_jp":"宮城県","jp_add_1":"大崎市","jp_add_2":"古川台町"},"9896126":{"post_code":"9896126","prefecture":"MIYAGI KEN","city":"OSAKI SHI","town":"FURUKAWA TAMANOKI","perfecture_jp":"宮城県","jp_add_1":"大崎市","jp_add_2":"古川楡木"},"9896225":{"post_code":"9896225","prefecture":"MIYAGI KEN","city":"OSAKI SHI","town":"FURUKAWA TSUKANOME","perfecture_jp":"宮城県","jp_add_1":"大崎市","jp_add_2":"古川塚目"},"9896207":{"post_code":"9896207","prefecture":"MIYAGI KEN","city":"OSAKI SHI","town":"FURUKAWA TSUTSUMINE","perfecture_jp":"宮城県","jp_add_1":"大崎市","jp_add_2":"古川堤根"},"9896111":{"post_code":"9896111","prefecture":"MIYAGI KEN","city":"OSAKI SHI","town":"FURUKAWA TSURUGASONE","perfecture_jp":"宮城県","jp_add_1":"大崎市","jp_add_2":"古川鶴ケ埣"},"9896165":{"post_code":"9896165","prefecture":"MIYAGI KEN","city":"OSAKI SHI","town":"FURUKAWA TOKAMACHI","perfecture_jp":"宮城県","jp_add_1":"大崎市","jp_add_2":"古川十日町"},"9896266":{"post_code":"9896266","prefecture":"MIYAGI KEN","city":"OSAKI SHI","town":"FURUKAWA TOMINAGA","perfecture_jp":"宮城県","jp_add_1":"大崎市","jp_add_2":"古川富長"},"9896231":{"post_code":"9896231","prefecture":"MIYAGI KEN","city":"OSAKI SHI","town":"FURUKAWA NAGAOKA","perfecture_jp":"宮城県","jp_add_1":"大崎市","jp_add_2":"古川長岡"},"9896261":{"post_code":"9896261","prefecture":"MIYAGI KEN","city":"OSAKI SHI","town":"FURUKAWA NAGAOKAHARI","perfecture_jp":"宮城県","jp_add_1":"大崎市","jp_add_2":"古川長岡針"},"9896143":{"post_code":"9896143","prefecture":"MIYAGI KEN","city":"OSAKI SHI","town":"FURUKAWA NAKAZATO","perfecture_jp":"宮城県","jp_add_1":"大崎市","jp_add_2":"古川中里"},"9896206":{"post_code":"9896206","prefecture":"MIYAGI KEN","city":"OSAKI SHI","town":"FURUKAWA NAKAZAWA","perfecture_jp":"宮城県","jp_add_1":"大崎市","jp_add_2":"古川中沢"},"9896142":{"post_code":"9896142","prefecture":"MIYAGI KEN","city":"OSAKI SHI","town":"FURUKAWA NAKAJIMACHO","perfecture_jp":"宮城県","jp_add_1":"大崎市","jp_add_2":"古川中島町"},"9896153":{"post_code":"9896153","prefecture":"MIYAGI KEN","city":"OSAKI SHI","town":"FURUKAWA NANOKAMACHI","perfecture_jp":"宮城県","jp_add_1":"大崎市","jp_add_2":"古川七日町"},"9896226":{"post_code":"9896226","prefecture":"MIYAGI KEN","city":"OSAKI SHI","town":"FURUKAWA NIIDA","perfecture_jp":"宮城県","jp_add_1":"大崎市","jp_add_2":"古川新田"},"9896205":{"post_code":"9896205","prefecture":"MIYAGI KEN","city":"OSAKI SHI","town":"FURUKAWA NIINUMA","perfecture_jp":"宮城県","jp_add_1":"大崎市","jp_add_2":"古川新沼"},"9896214":{"post_code":"9896214","prefecture":"MIYAGI KEN","city":"OSAKI SHI","town":"FURUKAWA NIIBORI","perfecture_jp":"宮城県","jp_add_1":"大崎市","jp_add_2":"古川新堀"},"9896133":{"post_code":"9896133","prefecture":"MIYAGI KEN","city":"OSAKI SHI","town":"FURUKAWA NISHIARAI","perfecture_jp":"宮城県","jp_add_1":"大崎市","jp_add_2":"古川西荒井"},"9896156":{"post_code":"9896156","prefecture":"MIYAGI KEN","city":"OSAKI SHI","town":"FURUKAWA NISHIDATE","perfecture_jp":"宮城県","jp_add_1":"大崎市","jp_add_2":"古川西館"},"9896152":{"post_code":"9896152","prefecture":"MIYAGI KEN","city":"OSAKI SHI","town":"FURUKAWA NINOKAMAE","perfecture_jp":"宮城県","jp_add_1":"大崎市","jp_add_2":"古川二ノ構"},"9896166":{"post_code":"9896166","prefecture":"MIYAGI KEN","city":"OSAKI SHI","town":"FURUKAWA HIGASHIMACHI","perfecture_jp":"宮城県","jp_add_1":"大崎市","jp_add_2":"古川東町"},"9896208":{"post_code":"9896208","prefecture":"MIYAGI KEN","city":"OSAKI SHI","town":"FURUKAWA HIKITA","perfecture_jp":"宮城県","jp_add_1":"大崎市","jp_add_2":"古川引田"},"9896121":{"post_code":"9896121","prefecture":"MIYAGI KEN","city":"OSAKI SHI","town":"FURUKAWA FUKANUMA","perfecture_jp":"宮城県","jp_add_1":"大崎市","jp_add_2":"古川深沼"},"9896101":{"post_code":"9896101","prefecture":"MIYAGI KEN","city":"OSAKI SHI","town":"FURUKAWA FUKURA","perfecture_jp":"宮城県","jp_add_1":"大崎市","jp_add_2":"古川福浦"},"9896105":{"post_code":"9896105","prefecture":"MIYAGI KEN","city":"OSAKI SHI","town":"FURUKAWA FUKUNUMA","perfecture_jp":"宮城県","jp_add_1":"大崎市","jp_add_2":"古川福沼"},"9896265":{"post_code":"9896265","prefecture":"MIYAGI KEN","city":"OSAKI SHI","town":"FURUKAWA FUCHIJIRI","perfecture_jp":"宮城県","jp_add_1":"大崎市","jp_add_2":"古川渕尻"},"9896136":{"post_code":"9896136","prefecture":"MIYAGI KEN","city":"OSAKI SHI","town":"FURUKAWA HONAMI","perfecture_jp":"宮城県","jp_add_1":"大崎市","jp_add_2":"古川穂波"},"9896213":{"post_code":"9896213","prefecture":"MIYAGI KEN","city":"OSAKI SHI","town":"FURUKAWA HOYANAGI","perfecture_jp":"宮城県","jp_add_1":"大崎市","jp_add_2":"古川保柳"},"9896172":{"post_code":"9896172","prefecture":"MIYAGI KEN","city":"OSAKI SHI","town":"FURUKAWA MAEDACHO","perfecture_jp":"宮城県","jp_add_1":"大崎市","jp_add_2":"古川前田町"},"9896262":{"post_code":"9896262","prefecture":"MIYAGI KEN","city":"OSAKI SHI","town":"FURUKAWA MAGUSHI","perfecture_jp":"宮城県","jp_add_1":"大崎市","jp_add_2":"古川馬櫛"},"9896253":{"post_code":"9896253","prefecture":"MIYAGI KEN","city":"OSAKI SHI","town":"FURUKAWA MAHANASHI","perfecture_jp":"宮城県","jp_add_1":"大崎市","jp_add_2":"古川馬放"},"9896112":{"post_code":"9896112","prefecture":"MIYAGI KEN","city":"OSAKI SHI","town":"FURUKAWA MAYOSE","perfecture_jp":"宮城県","jp_add_1":"大崎市","jp_add_2":"古川馬寄"},"9896154":{"post_code":"9896154","prefecture":"MIYAGI KEN","city":"OSAKI SHI","town":"FURUKAWA MIKKAMACHI","perfecture_jp":"宮城県","jp_add_1":"大崎市","jp_add_2":"古川三日町"},"9896217":{"post_code":"9896217","prefecture":"MIYAGI KEN","city":"OSAKI SHI","town":"FURUKAWA MINAMIZAWA","perfecture_jp":"宮城県","jp_add_1":"大崎市","jp_add_2":"古川南沢"},"9896141":{"post_code":"9896141","prefecture":"MIYAGI KEN","city":"OSAKI SHI","town":"FURUKAWA MINAMISHIMMACHI","perfecture_jp":"宮城県","jp_add_1":"大崎市","jp_add_2":"古川南新町"},"9896155":{"post_code":"9896155","prefecture":"MIYAGI KEN","city":"OSAKI SHI","town":"FURUKAWA MINAMIMACHI","perfecture_jp":"宮城県","jp_add_1":"大崎市","jp_add_2":"古川南町"},"9896113":{"post_code":"9896113","prefecture":"MIYAGI KEN","city":"OSAKI SHI","town":"FURUKAWA MINOKUCHINUMA","perfecture_jp":"宮城県","jp_add_1":"大崎市","jp_add_2":"古川蓑口沼"},"9896215":{"post_code":"9896215","prefecture":"MIYAGI KEN","city":"OSAKI SHI","town":"FURUKAWA MIMITORI","perfecture_jp":"宮城県","jp_add_1":"大崎市","jp_add_2":"古川耳取"},"9896127":{"post_code":"9896127","prefecture":"MIYAGI KEN","city":"OSAKI SHI","town":"FURUKAWA MIYAUCHI","perfecture_jp":"宮城県","jp_add_1":"大崎市","jp_add_2":"古川宮内"},"9896235":{"post_code":"9896235","prefecture":"MIYAGI KEN","city":"OSAKI SHI","town":"FURUKAWA MIYAZAWA","perfecture_jp":"宮城県","jp_add_1":"大崎市","jp_add_2":"古川宮沢"},"9896125":{"post_code":"9896125","prefecture":"MIYAGI KEN","city":"OSAKI SHI","town":"FURUKAWA MOROYAMA","perfecture_jp":"宮城県","jp_add_1":"大崎市","jp_add_2":"古川師山"},"9896255":{"post_code":"9896255","prefecture":"MIYAGI KEN","city":"OSAKI SHI","town":"FURUKAWA YASUMIZUKA","perfecture_jp":"宮城県","jp_add_1":"大崎市","jp_add_2":"古川休塚"},"9896204":{"post_code":"9896204","prefecture":"MIYAGI KEN","city":"OSAKI SHI","town":"FURUKAWA YANOME","perfecture_jp":"宮城県","jp_add_1":"大崎市","jp_add_2":"古川矢目"},"9896134":{"post_code":"9896134","prefecture":"MIYAGI KEN","city":"OSAKI SHI","town":"FURUKAWA YONEKURA","perfecture_jp":"宮城県","jp_add_1":"大崎市","jp_add_2":"古川米倉"},"9896132":{"post_code":"9896132","prefecture":"MIYAGI KEN","city":"OSAKI SHI","town":"FURUKAWA YONEBUKURO","perfecture_jp":"宮城県","jp_add_1":"大崎市","jp_add_2":"古川米袋"},"9896222":{"post_code":"9896222","prefecture":"MIYAGI KEN","city":"OSAKI SHI","town":"FURUKAWA WAKABACHO","perfecture_jp":"宮城県","jp_add_1":"大崎市","jp_add_2":"古川若葉町"},"9890800":{"post_code":"9890800","prefecture":"MIYAGI KEN","city":"KATTA GUN ZAO MACHI","town":"IKANIKEISAIGANAIBAAI","perfecture_jp":"宮城県","jp_add_1":"刈田郡蔵王町","jp_add_2":""},"9890921":{"post_code":"9890921","prefecture":"MIYAGI KEN","city":"KATTA GUN ZAO MACHI","town":"ENDA(KAMAZAWA.ZEMBUMORI.DOBUYACHI.D","perfecture_jp":"宮城県","jp_add_1":"刈田郡蔵王町","jp_add_2":"円田"},"9890821":{"post_code":"9890821","prefecture":"MIYAGI KEN","city":"KATTA GUN ZAO MACHI","town":"ENDA(SONOTA)","perfecture_jp":"宮城県","jp_add_1":"刈田郡蔵王町","jp_add_2":"円田"},"9890841":{"post_code":"9890841","prefecture":"MIYAGI KEN","city":"KATTA GUN ZAO MACHI","town":"KOMURASAKI","perfecture_jp":"宮城県","jp_add_1":"刈田郡蔵王町","jp_add_2":"小村崎"},"9890842":{"post_code":"9890842","prefecture":"MIYAGI KEN","city":"KATTA GUN ZAO MACHI","town":"SHIOZAWA","perfecture_jp":"宮城県","jp_add_1":"刈田郡蔵王町","jp_add_2":"塩沢"},"9890916":{"post_code":"9890916","prefecture":"MIYAGI KEN","city":"KATTA GUN ZAO MACHI","town":"TOGATTAONSEN","perfecture_jp":"宮城県","jp_add_1":"刈田郡蔵王町","jp_add_2":"遠刈田温泉"},"9890914":{"post_code":"9890914","prefecture":"MIYAGI KEN","city":"KATTA GUN ZAO MACHI","town":"TOGATTAONSEN ASAHICHO","perfecture_jp":"宮城県","jp_add_1":"刈田郡蔵王町","jp_add_2":"遠刈田温泉旭町"},"9890915":{"post_code":"9890915","prefecture":"MIYAGI KEN","city":"KATTA GUN ZAO MACHI","town":"TOGATTAONSEN KOTOBUKICHO","perfecture_jp":"宮城県","jp_add_1":"刈田郡蔵王町","jp_add_2":"遠刈田温泉寿町"},"9890911":{"post_code":"9890911","prefecture":"MIYAGI KEN","city":"KATTA GUN ZAO MACHI","town":"TOGATTAONSEN SAKAECHO","perfecture_jp":"宮城県","jp_add_1":"刈田郡蔵王町","jp_add_2":"遠刈田温泉栄町"},"9890912":{"post_code":"9890912","prefecture":"MIYAGI KEN","city":"KATTA GUN ZAO MACHI","town":"TOGATTAONSEN NAKAMACHI","perfecture_jp":"宮城県","jp_add_1":"刈田郡蔵王町","jp_add_2":"遠刈田温泉仲町"},"9890913":{"post_code":"9890913","prefecture":"MIYAGI KEN","city":"KATTA GUN ZAO MACHI","town":"TOGATTAONSEN MOTOMACHI","perfecture_jp":"宮城県","jp_add_1":"刈田郡蔵王町","jp_add_2":"遠刈田温泉本町"},"9890831":{"post_code":"9890831","prefecture":"MIYAGI KEN","city":"KATTA GUN ZAO MACHI","town":"HIRASAWA","perfecture_jp":"宮城県","jp_add_1":"刈田郡蔵王町","jp_add_2":"平沢"},"9890851":{"post_code":"9890851","prefecture":"MIYAGI KEN","city":"KATTA GUN ZAO MACHI","town":"MAGATAKE","perfecture_jp":"宮城県","jp_add_1":"刈田郡蔵王町","jp_add_2":"曲竹"},"9890701":{"post_code":"9890701","prefecture":"MIYAGI KEN","city":"KATTA GUN ZAO MACHI","town":"MIYA","perfecture_jp":"宮城県","jp_add_1":"刈田郡蔵王町","jp_add_2":"宮"},"9890843":{"post_code":"9890843","prefecture":"MIYAGI KEN","city":"KATTA GUN ZAO MACHI","town":"YAZUKI","perfecture_jp":"宮城県","jp_add_1":"刈田郡蔵王町","jp_add_2":"矢附"},"9890500":{"post_code":"9890500","prefecture":"MIYAGI KEN","city":"KATTA GUN SHICHIKASHUKU MACHI","town":"IKANIKEISAIGANAIBAAI","perfecture_jp":"宮城県","jp_add_1":"刈田郡七ヶ宿町","jp_add_2":""},"9890662":{"post_code":"9890662","prefecture":"MIYAGI KEN","city":"KATTA GUN SHICHIKASHUKU MACHI","town":"AKACHI","perfecture_jp":"宮城県","jp_add_1":"刈田郡七ヶ宿町","jp_add_2":"赤地"},"9890556":{"post_code":"9890556","prefecture":"MIYAGI KEN","city":"KATTA GUN SHICHIKASHUKU MACHI","town":"ATAGOSHITA","perfecture_jp":"宮城県","jp_add_1":"刈田郡七ヶ宿町","jp_add_2":"愛宕下"},"9890506":{"post_code":"9890506","prefecture":"MIYAGI KEN","city":"KATTA GUN SHICHIKASHUKU MACHI","town":"ABURAHATA","perfecture_jp":"宮城県","jp_add_1":"刈田郡七ヶ宿町","jp_add_2":"油畑"},"9890635":{"post_code":"9890635","prefecture":"MIYAGI KEN","city":"KATTA GUN SHICHIKASHUKU MACHI","town":"ITAGI","perfecture_jp":"宮城県","jp_add_1":"刈田郡七ヶ宿町","jp_add_2":"板木"},"9890522":{"post_code":"9890522","prefecture":"MIYAGI KEN","city":"KATTA GUN SHICHIKASHUKU MACHI","town":"ICHIMAIDA","perfecture_jp":"宮城県","jp_add_1":"刈田郡七ヶ宿町","jp_add_2":"一枚田"},"9890643":{"post_code":"9890643","prefecture":"MIYAGI KEN","city":"KATTA GUN SHICHIKASHUKU MACHI","town":"INAGO","perfecture_jp":"宮城県","jp_add_1":"刈田郡七ヶ宿町","jp_add_2":"稲子"},"9890644":{"post_code":"9890644","prefecture":"MIYAGI KEN","city":"KATTA GUN SHICHIKASHUKU MACHI","town":"INAGOYAMA","perfecture_jp":"宮城県","jp_add_1":"刈田郡七ヶ宿町","jp_add_2":"稲子山"},"9890537":{"post_code":"9890537","prefecture":"MIYAGI KEN","city":"KATTA GUN SHICHIKASHUKU MACHI","town":"HAGIZAKI","perfecture_jp":"宮城県","jp_add_1":"刈田郡七ヶ宿町","jp_add_2":"上野"},"9890631":{"post_code":"9890631","prefecture":"MIYAGI KEN","city":"KATTA GUN SHICHIKASHUKU MACHI","town":"OISHIKAWARA","perfecture_jp":"宮城県","jp_add_1":"刈田郡七ヶ宿町","jp_add_2":"大石川原"},"9890507":{"post_code":"9890507","prefecture":"MIYAGI KEN","city":"KATTA GUN SHICHIKASHUKU MACHI","town":"MACHISHITA","perfecture_jp":"宮城県","jp_add_1":"刈田郡七ヶ宿町","jp_add_2":"大萱"},"9890529":{"post_code":"9890529","prefecture":"MIYAGI KEN","city":"KATTA GUN SHICHIKASHUKU MACHI","town":"SEMIHARA","perfecture_jp":"宮城県","jp_add_1":"刈田郡七ヶ宿町","jp_add_2":"大杉"},"9890516":{"post_code":"9890516","prefecture":"MIYAGI KEN","city":"KATTA GUN SHICHIKASHUKU MACHI","town":"HIGASHISHIMADAHARA","perfecture_jp":"宮城県","jp_add_1":"刈田郡七ヶ宿町","jp_add_2":"大貫平"},"9890553":{"post_code":"9890553","prefecture":"MIYAGI KEN","city":"KATTA GUN SHICHIKASHUKU MACHI","town":"OMUKAE","perfecture_jp":"宮城県","jp_add_1":"刈田郡七ヶ宿町","jp_add_2":"大迎"},"9890501":{"post_code":"9890501","prefecture":"MIYAGI KEN","city":"KATTA GUN SHICHIKASHUKU MACHI","town":"KASHIWAGIYAMA","perfecture_jp":"宮城県","jp_add_1":"刈田郡七ヶ宿町","jp_add_2":"柏木山"},"9890543":{"post_code":"9890543","prefecture":"MIYAGI KEN","city":"KATTA GUN SHICHIKASHUKU MACHI","town":"KABANOKI","perfecture_jp":"宮城県","jp_add_1":"刈田郡七ヶ宿町","jp_add_2":"蒲木"},"9890524":{"post_code":"9890524","prefecture":"MIYAGI KEN","city":"KATTA GUN SHICHIKASHUKU MACHI","town":"MAWARITATE","perfecture_jp":"宮城県","jp_add_1":"刈田郡七ヶ宿町","jp_add_2":"上烏川"},"9890613":{"post_code":"9890613","prefecture":"MIYAGI KEN","city":"KATTA GUN SHICHIKASHUKU MACHI","town":"KAMIKAWARA","perfecture_jp":"宮城県","jp_add_1":"刈田郡七ヶ宿町","jp_add_2":"上川原"},"9890504":{"post_code":"9890504","prefecture":"MIYAGI KEN","city":"KATTA GUN SHICHIKASHUKU MACHI","town":"KAMINOTAIRA","perfecture_jp":"宮城県","jp_add_1":"刈田郡七ヶ宿町","jp_add_2":"上ノ平"},"9890505":{"post_code":"9890505","prefecture":"MIYAGI KEN","city":"KATTA GUN SHICHIKASHUKU MACHI","town":"KAMINOTAIRAYAMA","perfecture_jp":"宮城県","jp_add_1":"刈田郡七ヶ宿町","jp_add_2":"上ノ平山"},"9890623":{"post_code":"9890623","prefecture":"MIYAGI KEN","city":"KATTA GUN SHICHIKASHUKU MACHI","town":"KAMINODAI","perfecture_jp":"宮城県","jp_add_1":"刈田郡七ヶ宿町","jp_add_2":"上ノ台"},"9890517":{"post_code":"9890517","prefecture":"MIYAGI KEN","city":"KATTA GUN SHICHIKASHUKU MACHI","town":"KAMIHACHIGO","perfecture_jp":"宮城県","jp_add_1":"刈田郡七ヶ宿町","jp_add_2":"上八合"},"9890519":{"post_code":"9890519","prefecture":"MIYAGI KEN","city":"KATTA GUN SHICHIKASHUKU MACHI","town":"SUWABARA","perfecture_jp":"宮城県","jp_add_1":"刈田郡七ヶ宿町","jp_add_2":"神林山"},"9890513":{"post_code":"9890513","prefecture":"MIYAGI KEN","city":"KATTA GUN SHICHIKASHUKU MACHI","town":"KAMIMACHIJIRI","perfecture_jp":"宮城県","jp_add_1":"刈田郡七ヶ宿町","jp_add_2":"上町尻"},"9890527":{"post_code":"9890527","prefecture":"MIYAGI KEN","city":"KATTA GUN SHICHIKASHUKU MACHI","town":"KARASUGAWADAKE","perfecture_jp":"宮城県","jp_add_1":"刈田郡七ヶ宿町","jp_add_2":"烏川岳"},"9890664":{"post_code":"9890664","prefecture":"MIYAGI KEN","city":"KATTA GUN SHICHIKASHUKU MACHI","town":"GYONINHARAMICHIUE","perfecture_jp":"宮城県","jp_add_1":"刈田郡七ヶ宿町","jp_add_2":"行人原道上"},"9890536":{"post_code":"9890536","prefecture":"MIYAGI KEN","city":"KATTA GUN SHICHIKASHUKU MACHI","town":"KIRITOSHI","perfecture_jp":"宮城県","jp_add_1":"刈田郡七ヶ宿町","jp_add_2":"切通"},"9890561":{"post_code":"9890561","prefecture":"MIYAGI KEN","city":"KATTA GUN SHICHIKASHUKU MACHI","town":"KURIHARA","perfecture_jp":"宮城県","jp_add_1":"刈田郡七ヶ宿町","jp_add_2":"栗原"},"9890634":{"post_code":"9890634","prefecture":"MIYAGI KEN","city":"KATTA GUN SHICHIKASHUKU MACHI","town":"KOKAGOSAWA","perfecture_jp":"宮城県","jp_add_1":"刈田郡七ヶ宿町","jp_add_2":"小駕籠沢"},"9890628":{"post_code":"9890628","prefecture":"MIYAGI KEN","city":"KATTA GUN SHICHIKASHUKU MACHI","town":"SAKAINOSAWA","perfecture_jp":"宮城県","jp_add_1":"刈田郡七ヶ宿町","jp_add_2":"境ノ沢"},"9890661":{"post_code":"9890661","prefecture":"MIYAGI KEN","city":"KATTA GUN SHICHIKASHUKU MACHI","town":"SAKANOE","perfecture_jp":"宮城県","jp_add_1":"刈田郡七ヶ宿町","jp_add_2":"坂ノ上"},"9890627":{"post_code":"9890627","prefecture":"MIYAGI KEN","city":"KATTA GUN SHICHIKASHUKU MACHI","town":"SAKANOSHITA","perfecture_jp":"宮城県","jp_add_1":"刈田郡七ヶ宿町","jp_add_2":"坂ノ下"},"9890528":{"post_code":"9890528","prefecture":"MIYAGI KEN","city":"KATTA GUN SHICHIKASHUKU MACHI","town":"SAWAGAMIYAMA","perfecture_jp":"宮城県","jp_add_1":"刈田郡七ヶ宿町","jp_add_2":"沢上山"},"9890541":{"post_code":"9890541","prefecture":"MIYAGI KEN","city":"KATTA GUN SHICHIKASHUKU MACHI","town":"SHIKIRIME","perfecture_jp":"宮城県","jp_add_1":"刈田郡七ヶ宿町","jp_add_2":"仕切目"},"9890542":{"post_code":"9890542","prefecture":"MIYAGI KEN","city":"KATTA GUN SHICHIKASHUKU MACHI","town":"SHIMAGINO","perfecture_jp":"宮城県","jp_add_1":"刈田郡七ヶ宿町","jp_add_2":"島木野"},"9890518":{"post_code":"9890518","prefecture":"MIYAGI KEN","city":"KATTA GUN SHICHIKASHUKU MACHI","town":"SHIMOHACHIGO","perfecture_jp":"宮城県","jp_add_1":"刈田郡七ヶ宿町","jp_add_2":"下八合"},"9890514":{"post_code":"9890514","prefecture":"MIYAGI KEN","city":"KATTA GUN SHICHIKASHUKU MACHI","town":"SHIMOMACHIJIRI","perfecture_jp":"宮城県","jp_add_1":"刈田郡七ヶ宿町","jp_add_2":"下町尻"},"9890554":{"post_code":"9890554","prefecture":"MIYAGI KEN","city":"KATTA GUN SHICHIKASHUKU MACHI","town":"JINNOKUBO","perfecture_jp":"宮城県","jp_add_1":"刈田郡七ヶ宿町","jp_add_2":"陳ノ窪"},"9890521":{"post_code":"9890521","prefecture":"MIYAGI KEN","city":"KATTA GUN SHICHIKASHUKU MACHI","town":"SHINRAIJIN","perfecture_jp":"宮城県","jp_add_1":"刈田郡七ヶ宿町","jp_add_2":"新雷神"},"9890616":{"post_code":"9890616","prefecture":"MIYAGI KEN","city":"KATTA GUN SHICHIKASHUKU MACHI","town":"SUSUKIZAWAGUCHI","perfecture_jp":"宮城県","jp_add_1":"刈田郡七ヶ宿町","jp_add_2":"薄沢口"},"9890512":{"post_code":"9890512","prefecture":"MIYAGI KEN","city":"KATTA GUN SHICHIKASHUKU MACHI","town":"SEKI","perfecture_jp":"宮城県","jp_add_1":"刈田郡七ヶ宿町","jp_add_2":"関"},"9890617":{"post_code":"9890617","prefecture":"MIYAGI KEN","city":"KATTA GUN SHICHIKASHUKU MACHI","town":"TAKISHITA","perfecture_jp":"宮城県","jp_add_1":"刈田郡七ヶ宿町","jp_add_2":"滝下"},"9890555":{"post_code":"9890555","prefecture":"MIYAGI KEN","city":"KATTA GUN SHICHIKASHUKU MACHI","town":"MIZUKAMIGUCHI","perfecture_jp":"宮城県","jp_add_1":"刈田郡七ヶ宿町","jp_add_2":"滝ノ上"},"9890523":{"post_code":"9890523","prefecture":"MIYAGI KEN","city":"KATTA GUN SHICHIKASHUKU MACHI","town":"TATESHITA","perfecture_jp":"宮城県","jp_add_1":"刈田郡七ヶ宿町","jp_add_2":"館下"},"9890633":{"post_code":"9890633","prefecture":"MIYAGI KEN","city":"KATTA GUN SHICHIKASHUKU MACHI","town":"TANAKAMICHIUE","perfecture_jp":"宮城県","jp_add_1":"刈田郡七ヶ宿町","jp_add_2":"田中道上"},"9890632":{"post_code":"9890632","prefecture":"MIYAGI KEN","city":"KATTA GUN SHICHIKASHUKU MACHI","town":"TANAKAMICHISHITA","perfecture_jp":"宮城県","jp_add_1":"刈田郡七ヶ宿町","jp_add_2":"田中道下"},"9890655":{"post_code":"9890655","prefecture":"MIYAGI KEN","city":"KATTA GUN SHICHIKASHUKU MACHI","town":"DANNOMAE","perfecture_jp":"宮城県","jp_add_1":"刈田郡七ヶ宿町","jp_add_2":"壇前"},"9890508":{"post_code":"9890508","prefecture":"MIYAGI KEN","city":"KATTA GUN SHICHIKASHUKU MACHI","town":"CHORO","perfecture_jp":"宮城県","jp_add_1":"刈田郡七ヶ宿町","jp_add_2":"長老"},"9890602":{"post_code":"9890602","prefecture":"MIYAGI KEN","city":"KATTA GUN SHICHIKASHUKU MACHI","town":"TERAATO","perfecture_jp":"宮城県","jp_add_1":"刈田郡七ヶ宿町","jp_add_2":"寺跡"},"9890654":{"post_code":"9890654","prefecture":"MIYAGI KEN","city":"KATTA GUN SHICHIKASHUKU MACHI","town":"TERAMAE","perfecture_jp":"宮城県","jp_add_1":"刈田郡七ヶ宿町","jp_add_2":"寺前"},"9890621":{"post_code":"9890621","prefecture":"MIYAGI KEN","city":"KATTA GUN SHICHIKASHUKU MACHI","town":"TOGETA","perfecture_jp":"宮城県","jp_add_1":"刈田郡七ヶ宿町","jp_add_2":"峠田"},"9890625":{"post_code":"9890625","prefecture":"MIYAGI KEN","city":"KATTA GUN SHICHIKASHUKU MACHI","town":"TOGETAATAGOSHITA","perfecture_jp":"宮城県","jp_add_1":"刈田郡七ヶ宿町","jp_add_2":"峠田愛宕下"},"9890622":{"post_code":"9890622","prefecture":"MIYAGI KEN","city":"KATTA GUN SHICHIKASHUKU MACHI","town":"TOGETAMACHIKASHIRA","perfecture_jp":"宮城県","jp_add_1":"刈田郡七ヶ宿町","jp_add_2":"峠田町頭"},"9890614":{"post_code":"9890614","prefecture":"MIYAGI KEN","city":"KATTA GUN SHICHIKASHUKU MACHI","town":"NAKAGAWAHARA","perfecture_jp":"宮城県","jp_add_1":"刈田郡七ヶ宿町","jp_add_2":"中川原"},"9890547":{"post_code":"9890547","prefecture":"MIYAGI KEN","city":"KATTA GUN SHICHIKASHUKU MACHI","town":"NAKANOSAWA","perfecture_jp":"宮城県","jp_add_1":"刈田郡七ヶ宿町","jp_add_2":"中之沢"},"9890544":{"post_code":"9890544","prefecture":"MIYAGI KEN","city":"KATTA GUN SHICHIKASHUKU MACHI","town":"HARAYACHIGIWA","perfecture_jp":"宮城県","jp_add_1":"刈田郡七ヶ宿町","jp_add_2":"中ノ沢原道下"},"9890535":{"post_code":"9890535","prefecture":"MIYAGI KEN","city":"KATTA GUN SHICHIKASHUKU MACHI","town":"NOZAWAKURAYAMA","perfecture_jp":"宮城県","jp_add_1":"刈田郡七ヶ宿町","jp_add_2":"夏梨平"},"9890549":{"post_code":"9890549","prefecture":"MIYAGI KEN","city":"KATTA GUN SHICHIKASHUKU MACHI","town":"NAMETSU","perfecture_jp":"宮城県","jp_add_1":"刈田郡七ヶ宿町","jp_add_2":"滑津"},"9890552":{"post_code":"9890552","prefecture":"MIYAGI KEN","city":"KATTA GUN SHICHIKASHUKU MACHI","town":"NAWASHIROBATA","perfecture_jp":"宮城県","jp_add_1":"刈田郡七ヶ宿町","jp_add_2":"苗代端"},"9890502":{"post_code":"9890502","prefecture":"MIYAGI KEN","city":"KATTA GUN SHICHIKASHUKU MACHI","town":"YOKOKAWAHARA","perfecture_jp":"宮城県","jp_add_1":"刈田郡七ヶ宿町","jp_add_2":"西町裏"},"9890557":{"post_code":"9890557","prefecture":"MIYAGI KEN","city":"KATTA GUN SHICHIKASHUKU MACHI","town":"NISHIMORISHITA","perfecture_jp":"宮城県","jp_add_1":"刈田郡七ヶ宿町","jp_add_2":"西森下"},"9890615":{"post_code":"9890615","prefecture":"MIYAGI KEN","city":"KATTA GUN SHICHIKASHUKU MACHI","town":"NUMATA","perfecture_jp":"宮城県","jp_add_1":"刈田郡七ヶ宿町","jp_add_2":"沼田"},"9890532":{"post_code":"9890532","prefecture":"MIYAGI KEN","city":"KATTA GUN SHICHIKASHUKU MACHI","town":"NEZOE","perfecture_jp":"宮城県","jp_add_1":"刈田郡七ヶ宿町","jp_add_2":"根添"},"9890545":{"post_code":"9890545","prefecture":"MIYAGI KEN","city":"KATTA GUN SHICHIKASHUKU MACHI","town":"HARAMICHIUE","perfecture_jp":"宮城県","jp_add_1":"刈田郡七ヶ宿町","jp_add_2":"原道上"},"9890546":{"post_code":"9890546","prefecture":"MIYAGI KEN","city":"KATTA GUN SHICHIKASHUKU MACHI","town":"HARAMICHISHITA","perfecture_jp":"宮城県","jp_add_1":"刈田郡七ヶ宿町","jp_add_2":"原道下"},"9890666":{"post_code":"9890666","prefecture":"MIYAGI KEN","city":"KATTA GUN SHICHIKASHUKU MACHI","town":"HIKABA","perfecture_jp":"宮城県","jp_add_1":"刈田郡七ヶ宿町","jp_add_2":"干蒲"},"9890651":{"post_code":"9890651","prefecture":"MIYAGI KEN","city":"KATTA GUN SHICHIKASHUKU MACHI","town":"HIGASHIGUCHIMICHIUE","perfecture_jp":"宮城県","jp_add_1":"刈田郡七ヶ宿町","jp_add_2":"東口道上"},"9890652":{"post_code":"9890652","prefecture":"MIYAGI KEN","city":"KATTA GUN SHICHIKASHUKU MACHI","town":"HIGASHIGUCHIMICHISHITA","perfecture_jp":"宮城県","jp_add_1":"刈田郡七ヶ宿町","jp_add_2":"東口道下"},"9890663":{"post_code":"9890663","prefecture":"MIYAGI KEN","city":"KATTA GUN SHICHIKASHUKU MACHI","town":"HIGASHISAWA","perfecture_jp":"宮城県","jp_add_1":"刈田郡七ヶ宿町","jp_add_2":"東沢"},"9890641":{"post_code":"9890641","prefecture":"MIYAGI KEN","city":"KATTA GUN SHICHIKASHUKU MACHI","town":"HODOGASAWA","perfecture_jp":"宮城県","jp_add_1":"刈田郡七ヶ宿町","jp_add_2":"程ヶ沢"},"9890657":{"post_code":"9890657","prefecture":"MIYAGI KEN","city":"KATTA GUN SHICHIKASHUKU MACHI","town":"MACHIURA","perfecture_jp":"宮城県","jp_add_1":"刈田郡七ヶ宿町","jp_add_2":"町裏"},"9890515":{"post_code":"9890515","prefecture":"MIYAGI KEN","city":"KATTA GUN SHICHIKASHUKU MACHI","town":"MIYAMAE","perfecture_jp":"宮城県","jp_add_1":"刈田郡七ヶ宿町","jp_add_2":"町尻"},"9890511":{"post_code":"9890511","prefecture":"MIYAGI KEN","city":"KATTA GUN SHICHIKASHUKU MACHI","town":"MATSUBARA","perfecture_jp":"宮城県","jp_add_1":"刈田郡七ヶ宿町","jp_add_2":"松原"},"9890612":{"post_code":"9890612","prefecture":"MIYAGI KEN","city":"KATTA GUN SHICHIKASHUKU MACHI","town":"MAMANOE","perfecture_jp":"宮城県","jp_add_1":"刈田郡七ヶ宿町","jp_add_2":"侭ノ上"},"9890665":{"post_code":"9890665","prefecture":"MIYAGI KEN","city":"KATTA GUN SHICHIKASHUKU MACHI","town":"MAMANOEJIZOMAE","perfecture_jp":"宮城県","jp_add_1":"刈田郡七ヶ宿町","jp_add_2":"侭ノ上地蔵前"},"9890667":{"post_code":"9890667","prefecture":"MIYAGI KEN","city":"KATTA GUN SHICHIKASHUKU MACHI","town":"MIZUSHITAMICHIUE","perfecture_jp":"宮城県","jp_add_1":"刈田郡七ヶ宿町","jp_add_2":"水下道上"},"9890658":{"post_code":"9890658","prefecture":"MIYAGI KEN","city":"KATTA GUN SHICHIKASHUKU MACHI","town":"MINAMIURAHATA","perfecture_jp":"宮城県","jp_add_1":"刈田郡七ヶ宿町","jp_add_2":"南浦畑"},"9890624":{"post_code":"9890624","prefecture":"MIYAGI KEN","city":"KATTA GUN SHICHIKASHUKU MACHI","town":"MYOJINSHITA","perfecture_jp":"宮城県","jp_add_1":"刈田郡七ヶ宿町","jp_add_2":"明神下"},"9890526":{"post_code":"9890526","prefecture":"MIYAGI KEN","city":"KATTA GUN SHICHIKASHUKU MACHI","town":"MYOJIMMAE","perfecture_jp":"宮城県","jp_add_1":"刈田郡七ヶ宿町","jp_add_2":"明神前"},"9890601":{"post_code":"9890601","prefecture":"MIYAGI KEN","city":"KATTA GUN SHICHIKASHUKU MACHI","town":"MOGAZAWA","perfecture_jp":"宮城県","jp_add_1":"刈田郡七ヶ宿町","jp_add_2":"茂ヶ沢"},"9890626":{"post_code":"9890626","prefecture":"MIYAGI KEN","city":"KATTA GUN SHICHIKASHUKU MACHI","town":"MONIWAMICHI","perfecture_jp":"宮城県","jp_add_1":"刈田郡七ヶ宿町","jp_add_2":"茂庭道"},"9890531":{"post_code":"9890531","prefecture":"MIYAGI KEN","city":"KATTA GUN SHICHIKASHUKU MACHI","town":"YATATE","perfecture_jp":"宮城県","jp_add_1":"刈田郡七ヶ宿町","jp_add_2":"矢立"},"9890533":{"post_code":"9890533","prefecture":"MIYAGI KEN","city":"KATTA GUN SHICHIKASHUKU MACHI","town":"YATATEDAIRA","perfecture_jp":"宮城県","jp_add_1":"刈田郡七ヶ宿町","jp_add_2":"矢立平"},"9890551":{"post_code":"9890551","prefecture":"MIYAGI KEN","city":"KATTA GUN SHICHIKASHUKU MACHI","town":"YATSUMORI","perfecture_jp":"宮城県","jp_add_1":"刈田郡七ヶ宿町","jp_add_2":"八ツ森"},"9890548":{"post_code":"9890548","prefecture":"MIYAGI KEN","city":"KATTA GUN SHICHIKASHUKU MACHI","town":"YATSUWAKE","perfecture_jp":"宮城県","jp_add_1":"刈田郡七ヶ宿町","jp_add_2":"八ツ分"},"9890656":{"post_code":"9890656","prefecture":"MIYAGI KEN","city":"KATTA GUN SHICHIKASHUKU MACHI","town":"YANAGISAWAYAMAKOKUYURIN","perfecture_jp":"宮城県","jp_add_1":"刈田郡七ヶ宿町","jp_add_2":"柳沢山国有林"},"9890611":{"post_code":"9890611","prefecture":"MIYAGI KEN","city":"KATTA GUN SHICHIKASHUKU MACHI","town":"YAMABUSHISAKA","perfecture_jp":"宮城県","jp_add_1":"刈田郡七ヶ宿町","jp_add_2":"山伏坂"},"9890653":{"post_code":"9890653","prefecture":"MIYAGI KEN","city":"KATTA GUN SHICHIKASHUKU MACHI","town":"YUNOHARA","perfecture_jp":"宮城県","jp_add_1":"刈田郡七ヶ宿町","jp_add_2":"湯原"},"9890503":{"post_code":"9890503","prefecture":"MIYAGI KEN","city":"KATTA GUN SHICHIKASHUKU MACHI","town":"YOKOKAWA","perfecture_jp":"宮城県","jp_add_1":"刈田郡七ヶ宿町","jp_add_2":"横川"},"9890525":{"post_code":"9890525","prefecture":"MIYAGI KEN","city":"KATTA GUN SHICHIKASHUKU MACHI","town":"RITSUHO","perfecture_jp":"宮城県","jp_add_1":"刈田郡七ヶ宿町","jp_add_2":"利津保"},"9890636":{"post_code":"9890636","prefecture":"MIYAGI KEN","city":"KATTA GUN SHICHIKASHUKU MACHI","town":"ROPPONSUGI","perfecture_jp":"宮城県","jp_add_1":"刈田郡七ヶ宿町","jp_add_2":"六本杉"},"9890534":{"post_code":"9890534","prefecture":"MIYAGI KEN","city":"KATTA GUN SHICHIKASHUKU MACHI","town":"WAKABAYASHIYAMA","perfecture_jp":"宮城県","jp_add_1":"刈田郡七ヶ宿町","jp_add_2":"若林山"},"9890642":{"post_code":"9890642","prefecture":"MIYAGI KEN","city":"KATTA GUN SHICHIKASHUKU MACHI","town":"WARITSUKE","perfecture_jp":"宮城県","jp_add_1":"刈田郡七ヶ宿町","jp_add_2":"割付"},"9891200":{"post_code":"9891200","prefecture":"MIYAGI KEN","city":"SHIBATA GUN OGAWARA MACHI","town":"IKANIKEISAIGANAIBAAI","perfecture_jp":"宮城県","jp_add_1":"柴田郡大河原町","jp_add_2":""},"9891203":{"post_code":"9891203","prefecture":"MIYAGI KEN","city":"SHIBATA GUN OGAWARA MACHI","town":"ASAHICHO","perfecture_jp":"宮城県","jp_add_1":"柴田郡大河原町","jp_add_2":"旭町"},"9891237":{"post_code":"9891237","prefecture":"MIYAGI KEN","city":"SHIBATA GUN OGAWARA MACHI","town":"ARAMACHI","perfecture_jp":"宮城県","jp_add_1":"柴田郡大河原町","jp_add_2":"荒町"},"9891205":{"post_code":"9891205","prefecture":"MIYAGI KEN","city":"SHIBATA GUN OGAWARA MACHI","town":"OSHIBA","perfecture_jp":"宮城県","jp_add_1":"柴田郡大河原町","jp_add_2":"大芝"},"9891204":{"post_code":"9891204","prefecture":"MIYAGI KEN","city":"SHIBATA GUN OGAWARA MACHI","town":"OTATSU","perfecture_jp":"宮城県","jp_add_1":"柴田郡大河原町","jp_add_2":"大竜"},"9891261":{"post_code":"9891261","prefecture":"MIYAGI KEN","city":"SHIBATA GUN OGAWARA MACHI","town":"OMAKI","perfecture_jp":"宮城県","jp_add_1":"柴田郡大河原町","jp_add_2":"大巻"},"9891201":{"post_code":"9891201","prefecture":"MIYAGI KEN","city":"SHIBATA GUN OGAWARA MACHI","town":"OYA","perfecture_jp":"宮城県","jp_add_1":"柴田郡大河原町","jp_add_2":"大谷"},"9891263":{"post_code":"9891263","prefecture":"MIYAGI KEN","city":"SHIBATA GUN OGAWARA MACHI","town":"OYACHI","perfecture_jp":"宮城県","jp_add_1":"柴田郡大河原町","jp_add_2":"大谷地"},"9891267":{"post_code":"9891267","prefecture":"MIYAGI KEN","city":"SHIBATA GUN OGAWARA MACHI","town":"OSHIMA","perfecture_jp":"宮城県","jp_add_1":"柴田郡大河原町","jp_add_2":"小島"},"9891258":{"post_code":"9891258","prefecture":"MIYAGI KEN","city":"SHIBATA GUN OGAWARA MACHI","town":"OYAMADA","perfecture_jp":"宮城県","jp_add_1":"柴田郡大河原町","jp_add_2":"小山田"},"9891249":{"post_code":"9891249","prefecture":"MIYAGI KEN","city":"SHIBATA GUN OGAWARA MACHI","town":"KAIDOHIGASHI","perfecture_jp":"宮城県","jp_add_1":"柴田郡大河原町","jp_add_2":"海道東"},"9891224":{"post_code":"9891224","prefecture":"MIYAGI KEN","city":"SHIBATA GUN OGAWARA MACHI","town":"KANAGASE","perfecture_jp":"宮城県","jp_add_1":"柴田郡大河原町","jp_add_2":"金ケ瀬"},"9891233":{"post_code":"9891233","prefecture":"MIYAGI KEN","city":"SHIBATA GUN OGAWARA MACHI","town":"KAMIKAWARA","perfecture_jp":"宮城県","jp_add_1":"柴田郡大河原町","jp_add_2":"上川原"},"9891207":{"post_code":"9891207","prefecture":"MIYAGI KEN","city":"SHIBATA GUN OGAWARA MACHI","town":"KAWASECHO","perfecture_jp":"宮城県","jp_add_1":"柴田郡大河原町","jp_add_2":"川瀬町"},"9891214":{"post_code":"9891214","prefecture":"MIYAGI KEN","city":"SHIBATA GUN OGAWARA MACHI","town":"KINOINECHO","perfecture_jp":"宮城県","jp_add_1":"柴田郡大河原町","jp_add_2":"甲子町"},"9891216":{"post_code":"9891216","prefecture":"MIYAGI KEN","city":"SHIBATA GUN OGAWARA MACHI","town":"SAIWAICHO","perfecture_jp":"宮城県","jp_add_1":"柴田郡大河原町","jp_add_2":"幸町"},"9891264":{"post_code":"9891264","prefecture":"MIYAGI KEN","city":"SHIBATA GUN OGAWARA MACHI","town":"SHINAOKAWA","perfecture_jp":"宮城県","jp_add_1":"柴田郡大河原町","jp_add_2":"新青川"},"9891274":{"post_code":"9891274","prefecture":"MIYAGI KEN","city":"SHIBATA GUN OGAWARA MACHI","town":"SHINSAKURACHO","perfecture_jp":"宮城県","jp_add_1":"柴田郡大河原町","jp_add_2":"新桜町"},"9891234":{"post_code":"9891234","prefecture":"MIYAGI KEN","city":"SHIBATA GUN OGAWARA MACHI","town":"SHINFURUKAWA","perfecture_jp":"宮城県","jp_add_1":"柴田郡大河原町","jp_add_2":"新古川"},"9891246":{"post_code":"9891246","prefecture":"MIYAGI KEN","city":"SHIBATA GUN OGAWARA MACHI","town":"SHINHIGASHI","perfecture_jp":"宮城県","jp_add_1":"柴田郡大河原町","jp_add_2":"新東"},"9891245":{"post_code":"9891245","prefecture":"MIYAGI KEN","city":"SHIBATA GUN OGAWARA MACHI","town":"SHIMMINAMI","perfecture_jp":"宮城県","jp_add_1":"柴田郡大河原町","jp_add_2":"新南"},"9891213":{"post_code":"9891213","prefecture":"MIYAGI KEN","city":"SHIBATA GUN OGAWARA MACHI","town":"SUMIYOSHICHO","perfecture_jp":"宮城県","jp_add_1":"柴田郡大河原町","jp_add_2":"住吉町"},"9891266":{"post_code":"9891266","prefecture":"MIYAGI KEN","city":"SHIBATA GUN OGAWARA MACHI","town":"SENTSUKAMAE","perfecture_jp":"宮城県","jp_add_1":"柴田郡大河原町","jp_add_2":"千塚前"},"9891255":{"post_code":"9891255","prefecture":"MIYAGI KEN","city":"SHIBATA GUN OGAWARA MACHI","town":"SODEYACHI","perfecture_jp":"宮城県","jp_add_1":"柴田郡大河原町","jp_add_2":"袖谷地"},"9891202":{"post_code":"9891202","prefecture":"MIYAGI KEN","city":"SHIBATA GUN OGAWARA MACHI","town":"TAKASAGOCHO","perfecture_jp":"宮城県","jp_add_1":"柴田郡大河原町","jp_add_2":"高砂町"},"9891256":{"post_code":"9891256","prefecture":"MIYAGI KEN","city":"SHIBATA GUN OGAWARA MACHI","town":"TSUTSUMI","perfecture_jp":"宮城県","jp_add_1":"柴田郡大河原町","jp_add_2":"堤"},"9891248":{"post_code":"9891248","prefecture":"MIYAGI KEN","city":"SHIBATA GUN OGAWARA MACHI","town":"DOTEZAKI","perfecture_jp":"宮城県","jp_add_1":"柴田郡大河原町","jp_add_2":"土手崎"},"9891231":{"post_code":"9891231","prefecture":"MIYAGI KEN","city":"SHIBATA GUN OGAWARA MACHI","town":"NAKAGAWARA","perfecture_jp":"宮城県","jp_add_1":"柴田郡大河原町","jp_add_2":"中川原"},"9891215":{"post_code":"9891215","prefecture":"MIYAGI KEN","city":"SHIBATA GUN OGAWARA MACHI","town":"NAKAJIMACHO","perfecture_jp":"宮城県","jp_add_1":"柴田郡大河原町","jp_add_2":"中島町"},"9891206":{"post_code":"9891206","prefecture":"MIYAGI KEN","city":"SHIBATA GUN OGAWARA MACHI","town":"NAKANOKURA","perfecture_jp":"宮城県","jp_add_1":"柴田郡大河原町","jp_add_2":"中の倉"},"9891222":{"post_code":"9891222","prefecture":"MIYAGI KEN","city":"SHIBATA GUN OGAWARA MACHI","town":"NAMPEI","perfecture_jp":"宮城県","jp_add_1":"柴田郡大河原町","jp_add_2":"南平"},"9891253":{"post_code":"9891253","prefecture":"MIYAGI KEN","city":"SHIBATA GUN OGAWARA MACHI","town":"NISHI","perfecture_jp":"宮城県","jp_add_1":"柴田郡大河原町","jp_add_2":"西"},"9891242":{"post_code":"9891242","prefecture":"MIYAGI KEN","city":"SHIBATA GUN OGAWARA MACHI","town":"NISHIURA","perfecture_jp":"宮城県","jp_add_1":"柴田郡大河原町","jp_add_2":"西浦"},"9891217":{"post_code":"9891217","prefecture":"MIYAGI KEN","city":"SHIBATA GUN OGAWARA MACHI","town":"NISHIKICHO","perfecture_jp":"宮城県","jp_add_1":"柴田郡大河原町","jp_add_2":"錦町"},"9891273":{"post_code":"9891273","prefecture":"MIYAGI KEN","city":"SHIBATA GUN OGAWARA MACHI","town":"NISHISAKURACHO","perfecture_jp":"宮城県","jp_add_1":"柴田郡大河原町","jp_add_2":"西桜町"},"9891244":{"post_code":"9891244","prefecture":"MIYAGI KEN","city":"SHIBATA GUN OGAWARA MACHI","town":"NISHIMACHI","perfecture_jp":"宮城県","jp_add_1":"柴田郡大河原町","jp_add_2":"西町"},"9891257":{"post_code":"9891257","prefecture":"MIYAGI KEN","city":"SHIBATA GUN OGAWARA MACHI","town":"NITTERA","perfecture_jp":"宮城県","jp_add_1":"柴田郡大河原町","jp_add_2":"新寺"},"9891254":{"post_code":"9891254","prefecture":"MIYAGI KEN","city":"SHIBATA GUN OGAWARA MACHI","town":"NUMA","perfecture_jp":"宮城県","jp_add_1":"柴田郡大河原町","jp_add_2":"沼"},"9891251":{"post_code":"9891251","prefecture":"MIYAGI KEN","city":"SHIBATA GUN OGAWARA MACHI","town":"HASHIMOTO","perfecture_jp":"宮城県","jp_add_1":"柴田郡大河原町","jp_add_2":"橋本"},"9891247":{"post_code":"9891247","prefecture":"MIYAGI KEN","city":"SHIBATA GUN OGAWARA MACHI","town":"HIGASHI","perfecture_jp":"宮城県","jp_add_1":"柴田郡大河原町","jp_add_2":"東"},"9891271":{"post_code":"9891271","prefecture":"MIYAGI KEN","city":"SHIBATA GUN OGAWARA MACHI","town":"HIGASHISAKURACHO","perfecture_jp":"宮城県","jp_add_1":"柴田郡大河原町","jp_add_2":"東桜町"},"9891223":{"post_code":"9891223","prefecture":"MIYAGI KEN","city":"SHIBATA GUN OGAWARA MACHI","town":"HIGASHISHINCHO","perfecture_jp":"宮城県","jp_add_1":"柴田郡大河原町","jp_add_2":"東新町"},"9891236":{"post_code":"9891236","prefecture":"MIYAGI KEN","city":"SHIBATA GUN OGAWARA MACHI","town":"HIGASHIHARAMACHI","perfecture_jp":"宮城県","jp_add_1":"柴田郡大河原町","jp_add_2":"東原町"},"9891225":{"post_code":"9891225","prefecture":"MIYAGI KEN","city":"SHIBATA GUN OGAWARA MACHI","town":"HIROMOTE","perfecture_jp":"宮城県","jp_add_1":"柴田郡大河原町","jp_add_2":"広表"},"9891211":{"post_code":"9891211","prefecture":"MIYAGI KEN","city":"SHIBATA GUN OGAWARA MACHI","town":"HIROSECHO","perfecture_jp":"宮城県","jp_add_1":"柴田郡大河原町","jp_add_2":"広瀬町"},"9891259":{"post_code":"9891259","prefecture":"MIYAGI KEN","city":"SHIBATA GUN OGAWARA MACHI","town":"FUKUDA","perfecture_jp":"宮城県","jp_add_1":"柴田郡大河原町","jp_add_2":"福田"},"9891241":{"post_code":"9891241","prefecture":"MIYAGI KEN","city":"SHIBATA GUN OGAWARA MACHI","town":"MACHI","perfecture_jp":"宮城県","jp_add_1":"柴田郡大河原町","jp_add_2":"町"},"9891221":{"post_code":"9891221","prefecture":"MIYAGI KEN","city":"SHIBATA GUN OGAWARA MACHI","town":"MIDORICHO","perfecture_jp":"宮城県","jp_add_1":"柴田郡大河原町","jp_add_2":"緑町"},"9891243":{"post_code":"9891243","prefecture":"MIYAGI KEN","city":"SHIBATA GUN OGAWARA MACHI","town":"MINAMI","perfecture_jp":"宮城県","jp_add_1":"柴田郡大河原町","jp_add_2":"南"},"9891232":{"post_code":"9891232","prefecture":"MIYAGI KEN","city":"SHIBATA GUN OGAWARA MACHI","town":"MINAMIKAIDOSHITA","perfecture_jp":"宮城県","jp_add_1":"柴田郡大河原町","jp_add_2":"南海道下"},"9891272":{"post_code":"9891272","prefecture":"MIYAGI KEN","city":"SHIBATA GUN OGAWARA MACHI","town":"MINAMISAKURACHO","perfecture_jp":"宮城県","jp_add_1":"柴田郡大河原町","jp_add_2":"南桜町"},"9891235":{"post_code":"9891235","prefecture":"MIYAGI KEN","city":"SHIBATA GUN OGAWARA MACHI","town":"MINAMIHARAMACHI","perfecture_jp":"宮城県","jp_add_1":"柴田郡大河原町","jp_add_2":"南原町"},"9891252":{"post_code":"9891252","prefecture":"MIYAGI KEN","city":"SHIBATA GUN OGAWARA MACHI","town":"YAOTOME","perfecture_jp":"宮城県","jp_add_1":"柴田郡大河原町","jp_add_2":"八乙女"},"9891212":{"post_code":"9891212","prefecture":"MIYAGI KEN","city":"SHIBATA GUN OGAWARA MACHI","town":"YAMAZAKICHO","perfecture_jp":"宮城県","jp_add_1":"柴田郡大河原町","jp_add_2":"山崎町"},"9891300":{"post_code":"9891300","prefecture":"MIYAGI KEN","city":"SHIBATA GUN MURATA MACHI","town":"IKANIKEISAIGANAIBAAI","perfecture_jp":"宮城県","jp_add_1":"柴田郡村田町","jp_add_2":""},"9891511":{"post_code":"9891511","prefecture":"MIYAGI KEN","city":"SHIBATA GUN MURATA MACHI","town":"ASHITATE(KITAMUKI)","perfecture_jp":"宮城県","jp_add_1":"柴田郡村田町","jp_add_2":"足立"},"9891311":{"post_code":"9891311","prefecture":"MIYAGI KEN","city":"SHIBATA GUN MURATA MACHI","town":"ASHITATE(SONOTA)","perfecture_jp":"宮城県","jp_add_1":"柴田郡村田町","jp_add_2":"足立"},"9891303":{"post_code":"9891303","prefecture":"MIYAGI KEN","city":"SHIBATA GUN MURATA MACHI","town":"USUGI","perfecture_jp":"宮城県","jp_add_1":"柴田郡村田町","jp_add_2":"薄木"},"9891302":{"post_code":"9891302","prefecture":"MIYAGI KEN","city":"SHIBATA GUN MURATA MACHI","town":"KOIZUMI","perfecture_jp":"宮城県","jp_add_1":"柴田郡村田町","jp_add_2":"小泉"},"9891301":{"post_code":"9891301","prefecture":"MIYAGI KEN","city":"SHIBATA GUN MURATA MACHI","town":"SUGO","perfecture_jp":"宮城県","jp_add_1":"柴田郡村田町","jp_add_2":"菅生"},"9891322":{"post_code":"9891322","prefecture":"MIYAGI KEN","city":"SHIBATA GUN MURATA MACHI","town":"SEKIBA","perfecture_jp":"宮城県","jp_add_1":"柴田郡村田町","jp_add_2":"関場"},"9891304":{"post_code":"9891304","prefecture":"MIYAGI KEN","city":"SHIBATA GUN MURATA MACHI","town":"NISHIGAOKA","perfecture_jp":"宮城県","jp_add_1":"柴田郡村田町","jp_add_2":"西ケ丘"},"9891323":{"post_code":"9891323","prefecture":"MIYAGI KEN","city":"SHIBATA GUN MURATA MACHI","town":"NUMATA","perfecture_jp":"宮城県","jp_add_1":"柴田郡村田町","jp_add_2":"沼田"},"9891321":{"post_code":"9891321","prefecture":"MIYAGI KEN","city":"SHIBATA GUN MURATA MACHI","town":"NUMABE","perfecture_jp":"宮城県","jp_add_1":"柴田郡村田町","jp_add_2":"沼辺"},"9891305":{"post_code":"9891305","prefecture":"MIYAGI KEN","city":"SHIBATA GUN MURATA MACHI","town":"MURATA","perfecture_jp":"宮城県","jp_add_1":"柴田郡村田町","jp_add_2":"村田"},"9891600":{"post_code":"9891600","prefecture":"MIYAGI KEN","city":"SHIBATA GUN SHIBATA MACHI","town":"IKANIKEISAIGANAIBAAI","perfecture_jp":"宮城県","jp_add_1":"柴田郡柴田町","jp_add_2":""},"9891745":{"post_code":"9891745","prefecture":"MIYAGI KEN","city":"SHIBATA GUN SHIBATA MACHI","town":"IRIMADA","perfecture_jp":"宮城県","jp_add_1":"柴田郡柴田町","jp_add_2":"入間田"},"9891762":{"post_code":"9891762","prefecture":"MIYAGI KEN","city":"SHIBATA GUN SHIBATA MACHI","town":"EBIANA","perfecture_jp":"宮城県","jp_add_1":"柴田郡柴田町","jp_add_2":"海老穴"},"9891742":{"post_code":"9891742","prefecture":"MIYAGI KEN","city":"SHIBATA GUN SHIBATA MACHI","town":"KAMIKAWANA","perfecture_jp":"宮城県","jp_add_1":"柴田郡柴田町","jp_add_2":"上川名"},"9891611":{"post_code":"9891611","prefecture":"MIYAGI KEN","city":"SHIBATA GUN SHIBATA MACHI","town":"KAMINOMYO","perfecture_jp":"宮城県","jp_add_1":"柴田郡柴田町","jp_add_2":"上名生"},"9891623":{"post_code":"9891623","prefecture":"MIYAGI KEN","city":"SHIBATA GUN SHIBATA MACHI","town":"KITAFUNAOKA","perfecture_jp":"宮城県","jp_add_1":"柴田郡柴田町","jp_add_2":"北船岡"},"9891608":{"post_code":"9891608","prefecture":"MIYAGI KEN","city":"SHIBATA GUN SHIBATA MACHI","town":"KENZAKI","perfecture_jp":"宮城県","jp_add_1":"柴田郡柴田町","jp_add_2":"剣崎"},"9891764":{"post_code":"9891764","prefecture":"MIYAGI KEN","city":"SHIBATA GUN SHIBATA MACHI","town":"KONARITA","perfecture_jp":"宮城県","jp_add_1":"柴田郡柴田町","jp_add_2":"小成田"},"9891613":{"post_code":"9891613","prefecture":"MIYAGI KEN","city":"SHIBATA GUN SHIBATA MACHI","town":"SHIMONOMYO","perfecture_jp":"宮城県","jp_add_1":"柴田郡柴田町","jp_add_2":"下名生"},"9891756":{"post_code":"9891756","prefecture":"MIYAGI KEN","city":"SHIBATA GUN SHIBATA MACHI","town":"TSUKINOKI","perfecture_jp":"宮城県","jp_add_1":"柴田郡柴田町","jp_add_2":"槻木"},"9891758":{"post_code":"9891758","prefecture":"MIYAGI KEN","city":"SHIBATA GUN SHIBATA MACHI","town":"TSUKINOKIEKINISHI","perfecture_jp":"宮城県","jp_add_1":"柴田郡柴田町","jp_add_2":"槻木駅西"},"9891753":{"post_code":"9891753","prefecture":"MIYAGI KEN","city":"SHIBATA GUN SHIBATA MACHI","town":"TSUKINOKI KAMIMACHI","perfecture_jp":"宮城県","jp_add_1":"柴田郡柴田町","jp_add_2":"槻木上町"},"9891752":{"post_code":"9891752","prefecture":"MIYAGI KEN","city":"SHIBATA GUN SHIBATA MACHI","town":"TSUKINOKI SHIMOMACHI","perfecture_jp":"宮城県","jp_add_1":"柴田郡柴田町","jp_add_2":"槻木下町"},"9891754":{"post_code":"9891754","prefecture":"MIYAGI KEN","city":"SHIBATA GUN SHIBATA MACHI","town":"TSUKINOKI SHIRAHATA","perfecture_jp":"宮城県","jp_add_1":"柴田郡柴田町","jp_add_2":"槻木白幡"},"9891751":{"post_code":"9891751","prefecture":"MIYAGI KEN","city":"SHIBATA GUN SHIBATA MACHI","town":"TSUKINOKI SHIMMACHI","perfecture_jp":"宮城県","jp_add_1":"柴田郡柴田町","jp_add_2":"槻木新町"},"9891755":{"post_code":"9891755","prefecture":"MIYAGI KEN","city":"SHIBATA GUN SHIBATA MACHI","town":"TSUKINOKI NISHI","perfecture_jp":"宮城県","jp_add_1":"柴田郡柴田町","jp_add_2":"槻木西"},"9891757":{"post_code":"9891757","prefecture":"MIYAGI KEN","city":"SHIBATA GUN SHIBATA MACHI","town":"TSUKINOKI HIGASHI","perfecture_jp":"宮城県","jp_add_1":"柴田郡柴田町","jp_add_2":"槻木東"},"9891741":{"post_code":"9891741","prefecture":"MIYAGI KEN","city":"SHIBATA GUN SHIBATA MACHI","town":"TOMIZAWA","perfecture_jp":"宮城県","jp_add_1":"柴田郡柴田町","jp_add_2":"富沢"},"9891612":{"post_code":"9891612","prefecture":"MIYAGI KEN","city":"SHIBATA GUN SHIBATA MACHI","town":"NAKANOMYO","perfecture_jp":"宮城県","jp_add_1":"柴田郡柴田町","jp_add_2":"中名生"},"9891765":{"post_code":"9891765","prefecture":"MIYAGI KEN","city":"SHIBATA GUN SHIBATA MACHI","town":"NARITA","perfecture_jp":"宮城県","jp_add_1":"柴田郡柴田町","jp_add_2":"成田"},"9891622":{"post_code":"9891622","prefecture":"MIYAGI KEN","city":"SHIBATA GUN SHIBATA MACHI","town":"NISHIFUNABASAMA","perfecture_jp":"宮城県","jp_add_1":"柴田郡柴田町","jp_add_2":"西船迫"},"9891761":{"post_code":"9891761","prefecture":"MIYAGI KEN","city":"SHIBATA GUN SHIBATA MACHI","town":"HAZAKA","perfecture_jp":"宮城県","jp_add_1":"柴田郡柴田町","jp_add_2":"葉坂"},"9891731":{"post_code":"9891731","prefecture":"MIYAGI KEN","city":"SHIBATA GUN SHIBATA MACHI","town":"HIGASHIFUNABASAMA(1-CHOME)","perfecture_jp":"宮城県","jp_add_1":"柴田郡柴田町","jp_add_2":"東船迫"},"9891631":{"post_code":"9891631","prefecture":"MIYAGI KEN","city":"SHIBATA GUN SHIBATA MACHI","town":"HIGASHIFUNABASAMA(2-CHOME)","perfecture_jp":"宮城県","jp_add_1":"柴田郡柴田町","jp_add_2":"東船迫"},"9891606":{"post_code":"9891606","prefecture":"MIYAGI KEN","city":"SHIBATA GUN SHIBATA MACHI","town":"FUNAOKA","perfecture_jp":"宮城県","jp_add_1":"柴田郡柴田町","jp_add_2":"船岡"},"9891607":{"post_code":"9891607","prefecture":"MIYAGI KEN","city":"SHIBATA GUN SHIBATA MACHI","town":"FUNAOKASHINEI","perfecture_jp":"宮城県","jp_add_1":"柴田郡柴田町","jp_add_2":"船岡新栄"},"9891601":{"post_code":"9891601","prefecture":"MIYAGI KEN","city":"SHIBATA GUN SHIBATA MACHI","town":"FUNAOKA CHUO","perfecture_jp":"宮城県","jp_add_1":"柴田郡柴田町","jp_add_2":"船岡中央"},"9891602":{"post_code":"9891602","prefecture":"MIYAGI KEN","city":"SHIBATA GUN SHIBATA MACHI","town":"FUNAOKA DOTEUCHI","perfecture_jp":"宮城県","jp_add_1":"柴田郡柴田町","jp_add_2":"船岡土手内"},"9891604":{"post_code":"9891604","prefecture":"MIYAGI KEN","city":"SHIBATA GUN SHIBATA MACHI","town":"FUNAOKA HIGASHI","perfecture_jp":"宮城県","jp_add_1":"柴田郡柴田町","jp_add_2":"船岡東"},"9891603":{"post_code":"9891603","prefecture":"MIYAGI KEN","city":"SHIBATA GUN SHIBATA MACHI","town":"FUNAOKA NISHI","perfecture_jp":"宮城県","jp_add_1":"柴田郡柴田町","jp_add_2":"船岡西"},"9891605":{"post_code":"9891605","prefecture":"MIYAGI KEN","city":"SHIBATA GUN SHIBATA MACHI","town":"FUNAOKA MINAMI","perfecture_jp":"宮城県","jp_add_1":"柴田郡柴田町","jp_add_2":"船岡南"},"9891763":{"post_code":"9891763","prefecture":"MIYAGI KEN","city":"SHIBATA GUN SHIBATA MACHI","town":"FUNABASAMA","perfecture_jp":"宮城県","jp_add_1":"柴田郡柴田町","jp_add_2":"船迫"},"9891621":{"post_code":"9891621","prefecture":"MIYAGI KEN","city":"SHIBATA GUN SHIBATA MACHI","town":"HONFUNABASAMA","perfecture_jp":"宮城県","jp_add_1":"柴田郡柴田町","jp_add_2":"本船迫"},"9891744":{"post_code":"9891744","prefecture":"MIYAGI KEN","city":"SHIBATA GUN SHIBATA MACHI","town":"MATSUGAGOSHI","perfecture_jp":"宮城県","jp_add_1":"柴田郡柴田町","jp_add_2":"松ケ越"},"9891746":{"post_code":"9891746","prefecture":"MIYAGI KEN","city":"SHIBATA GUN SHIBATA MACHI","town":"YUZUGAOKA","perfecture_jp":"宮城県","jp_add_1":"柴田郡柴田町","jp_add_2":"ゆずが丘"},"9891743":{"post_code":"9891743","prefecture":"MIYAGI KEN","city":"SHIBATA GUN SHIBATA MACHI","town":"YOKKAICHIBA","perfecture_jp":"宮城県","jp_add_1":"柴田郡柴田町","jp_add_2":"四日市場"},"9891500":{"post_code":"9891500","prefecture":"MIYAGI KEN","city":"SHIBATA GUN KAWASAKI MACHI","town":"IKANIKEISAIGANAIBAAI","perfecture_jp":"宮城県","jp_add_1":"柴田郡川崎町","jp_add_2":""},"9890908":{"post_code":"9890908","prefecture":"MIYAGI KEN","city":"SHIBATA GUN KAWASAKI MACHI","town":"AONEONSEN","perfecture_jp":"宮城県","jp_add_1":"柴田郡川崎町","jp_add_2":"青根温泉"},"9891502":{"post_code":"9891502","prefecture":"MIYAGI KEN","city":"SHIBATA GUN KAWASAKI MACHI","town":"IMASHUKU","perfecture_jp":"宮城県","jp_add_1":"柴田郡川崎町","jp_add_2":"今宿"},"9891505":{"post_code":"9891505","prefecture":"MIYAGI KEN","city":"SHIBATA GUN KAWASAKI MACHI","town":"ONO","perfecture_jp":"宮城県","jp_add_1":"柴田郡川崎町","jp_add_2":"小野"},"9891503":{"post_code":"9891503","prefecture":"MIYAGI KEN","city":"SHIBATA GUN KAWASAKI MACHI","town":"KAWAUCHI","perfecture_jp":"宮城県","jp_add_1":"柴田郡川崎町","jp_add_2":"川内"},"9891507":{"post_code":"9891507","prefecture":"MIYAGI KEN","city":"SHIBATA GUN KAWASAKI MACHI","town":"HASEKURA","perfecture_jp":"宮城県","jp_add_1":"柴田郡川崎町","jp_add_2":"支倉"},"9891506":{"post_code":"9891506","prefecture":"MIYAGI KEN","city":"SHIBATA GUN KAWASAKI MACHI","town":"HASEKURADAI","perfecture_jp":"宮城県","jp_add_1":"柴田郡川崎町","jp_add_2":"支倉台"},"9890901":{"post_code":"9890901","prefecture":"MIYAGI KEN","city":"SHIBATA GUN KAWASAKI MACHI","town":"MAEKAWA(AONE.TESHIROTSUKAYAMA.NUMAN","perfecture_jp":"宮城県","jp_add_1":"柴田郡川崎町","jp_add_2":"前川"},"9891501":{"post_code":"9891501","prefecture":"MIYAGI KEN","city":"SHIBATA GUN KAWASAKI MACHI","town":"MAEKAWA(SONOTA)","perfecture_jp":"宮城県","jp_add_1":"柴田郡川崎町","jp_add_2":"前川"},"9891504":{"post_code":"9891504","prefecture":"MIYAGI KEN","city":"SHIBATA GUN KAWASAKI MACHI","town":"MOTOISAGO","perfecture_jp":"宮城県","jp_add_1":"柴田郡川崎町","jp_add_2":"本砂金"},"9892300":{"post_code":"9892300","prefecture":"MIYAGI KEN","city":"WATARI GUN WATARI CHO","town":"IKANIKEISAIGANAIBAAI","perfecture_jp":"宮城県","jp_add_1":"亘理郡亘理町","jp_add_2":""},"9892351":{"post_code":"9892351","prefecture":"MIYAGI KEN","city":"WATARI GUN WATARI CHO","town":"MINAMIMACHIHIGASHI","perfecture_jp":"宮城県","jp_add_1":"亘理郡亘理町","jp_add_2":"旭"},"9892361":{"post_code":"9892361","prefecture":"MIYAGI KEN","city":"WATARI GUN WATARI CHO","town":"RYUENJIMAE","perfecture_jp":"宮城県","jp_add_1":"亘理郡亘理町","jp_add_2":"愛宕前"},"9892311":{"post_code":"9892311","prefecture":"MIYAGI KEN","city":"WATARI GUN WATARI CHO","town":"ARAHAMA","perfecture_jp":"宮城県","jp_add_1":"亘理郡亘理町","jp_add_2":"荒浜"},"9892385":{"post_code":"9892385","prefecture":"MIYAGI KEN","city":"WATARI GUN WATARI CHO","town":"OKUMA(KORI)","perfecture_jp":"宮城県","jp_add_1":"亘理郡亘理町","jp_add_2":"逢隈"},"9892302":{"post_code":"9892302","prefecture":"MIYAGI KEN","city":"WATARI GUN WATARI CHO","town":"OKUMAUSHIBUKURO","perfecture_jp":"宮城県","jp_add_1":"亘理郡亘理町","jp_add_2":"逢隈牛袋"},"9892321":{"post_code":"9892321","prefecture":"MIYAGI KEN","city":"WATARI GUN WATARI CHO","town":"OKUMAENOKIBUKURO","perfecture_jp":"宮城県","jp_add_1":"亘理郡亘理町","jp_add_2":"逢隈榎袋"},"9892371":{"post_code":"9892371","prefecture":"MIYAGI KEN","city":"WATARI GUN WATARI CHO","town":"OKUMAKASHIMA","perfecture_jp":"宮城県","jp_add_1":"亘理郡亘理町","jp_add_2":"逢隈鹿島"},"9892381":{"post_code":"9892381","prefecture":"MIYAGI KEN","city":"WATARI GUN WATARI CHO","town":"OKUMAKAMIGORI","perfecture_jp":"宮城県","jp_add_1":"亘理郡亘理町","jp_add_2":"逢隈上郡"},"9892324":{"post_code":"9892324","prefecture":"MIYAGI KEN","city":"WATARI GUN WATARI CHO","town":"OKUMAKOYA","perfecture_jp":"宮城県","jp_add_1":"亘理郡亘理町","jp_add_2":"逢隈高屋"},"9892384":{"post_code":"9892384","prefecture":"MIYAGI KEN","city":"WATARI GUN WATARI CHO","town":"OKUMAKOYAMA","perfecture_jp":"宮城県","jp_add_1":"亘理郡亘理町","jp_add_2":"逢隈小山"},"9892323":{"post_code":"9892323","prefecture":"MIYAGI KEN","city":"WATARI GUN WATARI CHO","town":"OKUMASAGIYA","perfecture_jp":"宮城県","jp_add_1":"亘理郡亘理町","jp_add_2":"逢隈鷺屋"},"9892382":{"post_code":"9892382","prefecture":"MIYAGI KEN","city":"WATARI GUN WATARI CHO","town":"OKUMASHIMOGORI","perfecture_jp":"宮城県","jp_add_1":"亘理郡亘理町","jp_add_2":"逢隈下郡"},"9892303":{"post_code":"9892303","prefecture":"MIYAGI KEN","city":"WATARI GUN WATARI CHO","town":"OKUMAJUMONJI","perfecture_jp":"宮城県","jp_add_1":"亘理郡亘理町","jp_add_2":"逢隈十文字"},"9892372":{"post_code":"9892372","prefecture":"MIYAGI KEN","city":"WATARI GUN WATARI CHO","town":"OKUMAJINGUJI","perfecture_jp":"宮城県","jp_add_1":"亘理郡亘理町","jp_add_2":"逢隈神宮寺"},"9892383":{"post_code":"9892383","prefecture":"MIYAGI KEN","city":"WATARI GUN WATARI CHO","town":"OKUMATAZAWA","perfecture_jp":"宮城県","jp_add_1":"亘理郡亘理町","jp_add_2":"逢隈田沢"},"9892301":{"post_code":"9892301","prefecture":"MIYAGI KEN","city":"WATARI GUN WATARI CHO","town":"OKUMANAKAIZUMI","perfecture_jp":"宮城県","jp_add_1":"亘理郡亘理町","jp_add_2":"逢隈中泉"},"9892322":{"post_code":"9892322","prefecture":"MIYAGI KEN","city":"WATARI GUN WATARI CHO","town":"OKUMAWARABI","perfecture_jp":"宮城県","jp_add_1":"亘理郡亘理町","jp_add_2":"逢隈蕨"},"9892341":{"post_code":"9892341","prefecture":"MIYAGI KEN","city":"WATARI GUN WATARI CHO","town":"NAGATORO","perfecture_jp":"宮城県","jp_add_1":"亘理郡亘理町","jp_add_2":"長瀞"},"9892352":{"post_code":"9892352","prefecture":"MIYAGI KEN","city":"WATARI GUN WATARI CHO","town":"YURI","perfecture_jp":"宮城県","jp_add_1":"亘理郡亘理町","jp_add_2":"悠里"},"9892331":{"post_code":"9892331","prefecture":"MIYAGI KEN","city":"WATARI GUN WATARI CHO","town":"YOSHIDA","perfecture_jp":"宮城県","jp_add_1":"亘理郡亘理町","jp_add_2":"吉田"},"9892200":{"post_code":"9892200","prefecture":"MIYAGI KEN","city":"WATARI GUN YAMAMOTO CHO","town":"IKANIKEISAIGANAIBAAI","perfecture_jp":"宮城県","jp_add_1":"亘理郡山元町","jp_add_2":""},"9892203":{"post_code":"9892203","prefecture":"MIYAGI KEN","city":"WATARI GUN YAMAMOTO CHO","town":"ASOHARA","perfecture_jp":"宮城県","jp_add_1":"亘理郡山元町","jp_add_2":"浅生原"},"9892206":{"post_code":"9892206","prefecture":"MIYAGI KEN","city":"WATARI GUN YAMAMOTO CHO","town":"ODAIRA","perfecture_jp":"宮城県","jp_add_1":"亘理郡山元町","jp_add_2":"大平"},"9892205":{"post_code":"9892205","prefecture":"MIYAGI KEN","city":"WATARI GUN YAMAMOTO CHO","town":"KODAIRA","perfecture_jp":"宮城県","jp_add_1":"亘理郡山元町","jp_add_2":"小平"},"9892111":{"post_code":"9892111","prefecture":"MIYAGI KEN","city":"WATARI GUN YAMAMOTO CHO","town":"SAKAMOTO","perfecture_jp":"宮城県","jp_add_1":"亘理郡山元町","jp_add_2":"坂元"},"9892202":{"post_code":"9892202","prefecture":"MIYAGI KEN","city":"WATARI GUN YAMAMOTO CHO","town":"TAKASE","perfecture_jp":"宮城県","jp_add_1":"亘理郡山元町","jp_add_2":"高瀬"},"9892207":{"post_code":"9892207","prefecture":"MIYAGI KEN","city":"WATARI GUN YAMAMOTO CHO","town":"HADENIWA","perfecture_jp":"宮城県","jp_add_1":"亘理郡山元町","jp_add_2":"八手庭"},"9892112":{"post_code":"9892112","prefecture":"MIYAGI KEN","city":"WATARI GUN YAMAMOTO CHO","town":"MANIWA","perfecture_jp":"宮城県","jp_add_1":"亘理郡山元町","jp_add_2":"真庭"},"9892201":{"post_code":"9892201","prefecture":"MIYAGI KEN","city":"WATARI GUN YAMAMOTO CHO","town":"YAMADERA","perfecture_jp":"宮城県","jp_add_1":"亘理郡山元町","jp_add_2":"山寺"},"9892204":{"post_code":"9892204","prefecture":"MIYAGI KEN","city":"WATARI GUN YAMAMOTO CHO","town":"WASHIASHI","perfecture_jp":"宮城県","jp_add_1":"亘理郡山元町","jp_add_2":"鷲足"},"9894204":{"post_code":"9894204","prefecture":"MIYAGI KEN","city":"TODA GUN MISATO MACHI","town":"OYANAGI","perfecture_jp":"宮城県","jp_add_1":"遠田郡美里町","jp_add_2":"大柳"},"9894205":{"post_code":"9894205","prefecture":"MIYAGI KEN","city":"TODA GUN MISATO MACHI","town":"KIMATSUKA","perfecture_jp":"宮城県","jp_add_1":"遠田郡美里町","jp_add_2":"木間塚"},"9894209":{"post_code":"9894209","prefecture":"MIYAGI KEN","city":"TODA GUN MISATO MACHI","town":"SHINTOYAZAKA","perfecture_jp":"宮城県","jp_add_1":"遠田郡美里町","jp_add_2":"新鳥谷坂"},"9894207":{"post_code":"9894207","prefecture":"MIYAGI KEN","city":"TODA GUN MISATO MACHI","town":"TOYAZAKAICHI","perfecture_jp":"宮城県","jp_add_1":"遠田郡美里町","jp_add_2":"鳥谷坂一"},"9894208":{"post_code":"9894208","prefecture":"MIYAGI KEN","city":"TODA GUN MISATO MACHI","town":"TOYAZAKANI","perfecture_jp":"宮城県","jp_add_1":"遠田郡美里町","jp_add_2":"鳥谷坂二"},"9894206":{"post_code":"9894206","prefecture":"MIYAGI KEN","city":"TODA GUN MISATO MACHI","town":"NIGO","perfecture_jp":"宮城県","jp_add_1":"遠田郡美里町","jp_add_2":"二郷"},"9894203":{"post_code":"9894203","prefecture":"MIYAGI KEN","city":"TODA GUN MISATO MACHI","town":"NERIUSHI","perfecture_jp":"宮城県","jp_add_1":"遠田郡美里町","jp_add_2":"練牛"},"9894202":{"post_code":"9894202","prefecture":"MIYAGI KEN","city":"TODA GUN MISATO MACHI","town":"FUKUGAFUKURO","perfecture_jp":"宮城県","jp_add_1":"遠田郡美里町","jp_add_2":"福ケ袋"},"9894201":{"post_code":"9894201","prefecture":"MIYAGI KEN","city":"TODA GUN MISATO MACHI","town":"WADATANUMA","perfecture_jp":"宮城県","jp_add_1":"遠田郡美里町","jp_add_2":"和多田沼"}}