{"9900000":{"post_code":"9900000","prefecture":"YAMAGATA KEN","city":"YAMAGATA SHI","town":"IKANIKEISAIGANAIBAAI","perfecture_jp":"山形県","jp_add_1":"山形市","jp_add_2":""},"9900055":{"post_code":"9900055","prefecture":"YAMAGATA KEN","city":"YAMAGATA SHI","town":"AIOICHO","perfecture_jp":"山形県","jp_add_1":"山形市","jp_add_2":"相生町"},"9902435":{"post_code":"9902435","prefecture":"YAMAGATA KEN","city":"YAMAGATA SHI","town":"AOTA","perfecture_jp":"山形県","jp_add_1":"山形市","jp_add_2":"青田"},"9902324":{"post_code":"9902324","prefecture":"YAMAGATA KEN","city":"YAMAGATA SHI","town":"AOTAMINAMI","perfecture_jp":"山形県","jp_add_1":"山形市","jp_add_2":"青田南"},"9902222":{"post_code":"9902222","prefecture":"YAMAGATA KEN","city":"YAMAGATA SHI","town":"AONO","perfecture_jp":"山形県","jp_add_1":"山形市","jp_add_2":"青野"},"9902214":{"post_code":"9902214","prefecture":"YAMAGATA KEN","city":"YAMAGATA SHI","town":"AOYAGI","perfecture_jp":"山形県","jp_add_1":"山形市","jp_add_2":"青柳"},"9902353":{"post_code":"9902353","prefecture":"YAMAGATA KEN","city":"YAMAGATA SHI","town":"AKASHIDO","perfecture_jp":"山形県","jp_add_1":"山形市","jp_add_2":"明石堂"},"9902481":{"post_code":"9902481","prefecture":"YAMAGATA KEN","city":"YAMAGATA SHI","town":"AKANEGAOKA","perfecture_jp":"山形県","jp_add_1":"山形市","jp_add_2":"あかねケ丘"},"9902162":{"post_code":"9902162","prefecture":"YAMAGATA KEN","city":"YAMAGATA SHI","town":"AKEBONO","perfecture_jp":"山形県","jp_add_1":"山形市","jp_add_2":"あけぼの"},"9900025":{"post_code":"9900025","prefecture":"YAMAGATA KEN","city":"YAMAGATA SHI","town":"AKOYACHO","perfecture_jp":"山形県","jp_add_1":"山形市","jp_add_2":"あこや町"},"9902434":{"post_code":"9902434","prefecture":"YAMAGATA KEN","city":"YAMAGATA SHI","town":"ASAHIGAOKA","perfecture_jp":"山形県","jp_add_1":"山形市","jp_add_2":"旭が丘"},"9900024":{"post_code":"9900024","prefecture":"YAMAGATA KEN","city":"YAMAGATA SHI","town":"ASAHIMACHI","perfecture_jp":"山形県","jp_add_1":"山形市","jp_add_2":"あさひ町"},"9902491":{"post_code":"9902491","prefecture":"YAMAGATA KEN","city":"YAMAGATA SHI","town":"AZUMACHO","perfecture_jp":"山形県","jp_add_1":"山形市","jp_add_2":"あずま町"},"9902432":{"post_code":"9902432","prefecture":"YAMAGATA KEN","city":"YAMAGATA SHI","town":"ARATATECHO","perfecture_jp":"山形県","jp_add_1":"山形市","jp_add_2":"荒楯町"},"9902476":{"post_code":"9902476","prefecture":"YAMAGATA KEN","city":"YAMAGATA SHI","town":"IIZAWA","perfecture_jp":"山形県","jp_add_1":"山形市","jp_add_2":"飯沢"},"9902332":{"post_code":"9902332","prefecture":"YAMAGATA KEN","city":"YAMAGATA SHI","town":"IIDA","perfecture_jp":"山形県","jp_add_1":"山形市","jp_add_2":"飯田"},"9902331":{"post_code":"9902331","prefecture":"YAMAGATA KEN","city":"YAMAGATA SHI","town":"IIDANISHI","perfecture_jp":"山形県","jp_add_1":"山形市","jp_add_2":"飯田西"},"9900841":{"post_code":"9900841","prefecture":"YAMAGATA KEN","city":"YAMAGATA SHI","town":"IIZUKAGUCHI","perfecture_jp":"山形県","jp_add_1":"山形市","jp_add_2":"飯塚口"},"9900845":{"post_code":"9900845","prefecture":"YAMAGATA KEN","city":"YAMAGATA SHI","town":"IIZUKAMACHI","perfecture_jp":"山形県","jp_add_1":"山形市","jp_add_2":"飯塚町"},"9900842":{"post_code":"9900842","prefecture":"YAMAGATA KEN","city":"YAMAGATA SHI","town":"ISHIZEKI","perfecture_jp":"山形県","jp_add_1":"山形市","jp_add_2":"石関"},"9900061":{"post_code":"9900061","prefecture":"YAMAGATA KEN","city":"YAMAGATA SHI","town":"ISUZU","perfecture_jp":"山形県","jp_add_1":"山形市","jp_add_2":"五十鈴"},"9900068":{"post_code":"9900068","prefecture":"YAMAGATA KEN","city":"YAMAGATA SHI","town":"IZUMICHO","perfecture_jp":"山形県","jp_add_1":"山形市","jp_add_2":"泉町"},"9900829":{"post_code":"9900829","prefecture":"YAMAGATA KEN","city":"YAMAGATA SHI","town":"ITSUKAMACHI","perfecture_jp":"山形県","jp_add_1":"山形市","jp_add_2":"五日町"},"9900817":{"post_code":"9900817","prefecture":"YAMAGATA KEN","city":"YAMAGATA SHI","town":"IMAZUKA","perfecture_jp":"山形県","jp_add_1":"山形市","jp_add_2":"今塚"},"9902351":{"post_code":"9902351","prefecture":"YAMAGATA KEN","city":"YAMAGATA SHI","town":"IMONOMACHI","perfecture_jp":"山形県","jp_add_1":"山形市","jp_add_2":"鋳物町"},"9902403":{"post_code":"9902403","prefecture":"YAMAGATA KEN","city":"YAMAGATA SHI","town":"IWANAMI","perfecture_jp":"山形県","jp_add_1":"山形市","jp_add_2":"岩波"},"9900066":{"post_code":"9900066","prefecture":"YAMAGATA KEN","city":"YAMAGATA SHI","town":"INYAKUMACHI","perfecture_jp":"山形県","jp_add_1":"山形市","jp_add_2":"印役町"},"9900877":{"post_code":"9900877","prefecture":"YAMAGATA KEN","city":"YAMAGATA SHI","town":"UCHIOMOTE","perfecture_jp":"山形県","jp_add_1":"山形市","jp_add_2":"内表"},"9900878":{"post_code":"9900878","prefecture":"YAMAGATA KEN","city":"YAMAGATA SHI","town":"UCHIOMOTEHIGASHI","perfecture_jp":"山形県","jp_add_1":"山形市","jp_add_2":"内表東"},"9900874":{"post_code":"9900874","prefecture":"YAMAGATA KEN","city":"YAMAGATA SHI","town":"UMENOKIMAE","perfecture_jp":"山形県","jp_add_1":"山形市","jp_add_2":"梅野木前"},"9902161":{"post_code":"9902161","prefecture":"YAMAGATA KEN","city":"YAMAGATA SHI","town":"URUSHIYAMA","perfecture_jp":"山形県","jp_add_1":"山形市","jp_add_2":"漆山"},"9902483":{"post_code":"9902483","prefecture":"YAMAGATA KEN","city":"YAMAGATA SHI","town":"UWAMACHI","perfecture_jp":"山形県","jp_add_1":"山形市","jp_add_2":"上町"},"9900861":{"post_code":"9900861","prefecture":"YAMAGATA KEN","city":"YAMAGATA SHI","town":"EMATA","perfecture_jp":"山形県","jp_add_1":"山形市","jp_add_2":"江俣"},"9900052":{"post_code":"9900052","prefecture":"YAMAGATA KEN","city":"YAMAGATA SHI","town":"ENNOJIMACHI","perfecture_jp":"山形県","jp_add_1":"山形市","jp_add_2":"円応寺町"},"9900046":{"post_code":"9900046","prefecture":"YAMAGATA KEN","city":"YAMAGATA SHI","town":"OTEMACHI","perfecture_jp":"山形県","jp_add_1":"山形市","jp_add_2":"大手町"},"9902344":{"post_code":"9902344","prefecture":"YAMAGATA KEN","city":"YAMAGATA SHI","town":"OMICHIBATA","perfecture_jp":"山形県","jp_add_1":"山形市","jp_add_2":"大道端"},"9902231":{"post_code":"9902231","prefecture":"YAMAGATA KEN","city":"YAMAGATA SHI","town":"OMORI","perfecture_jp":"山形県","jp_add_1":"山形市","jp_add_2":"大森"},"9900818":{"post_code":"9900818","prefecture":"YAMAGATA KEN","city":"YAMAGATA SHI","town":"OKIMACHI","perfecture_jp":"山形県","jp_add_1":"山形市","jp_add_2":"沖町"},"9902402":{"post_code":"9902402","prefecture":"YAMAGATA KEN","city":"YAMAGATA SHI","town":"ODACHI","perfecture_jp":"山形県","jp_add_1":"山形市","jp_add_2":"小立"},"9900075":{"post_code":"9900075","prefecture":"YAMAGATA KEN","city":"YAMAGATA SHI","town":"OCHIAIMACHI","perfecture_jp":"山形県","jp_add_1":"山形市","jp_add_2":"落合町"},"9902365":{"post_code":"9902365","prefecture":"YAMAGATA KEN","city":"YAMAGATA SHI","town":"OTESAKU","perfecture_jp":"山形県","jp_add_1":"山形市","jp_add_2":"御手作"},"9902307":{"post_code":"9902307","prefecture":"YAMAGATA KEN","city":"YAMAGATA SHI","town":"OMOTEZAO","perfecture_jp":"山形県","jp_add_1":"山形市","jp_add_2":"表蔵王"},"9902484":{"post_code":"9902484","prefecture":"YAMAGATA KEN","city":"YAMAGATA SHI","town":"KAGOTA","perfecture_jp":"山形県","jp_add_1":"山形市","jp_add_2":"篭田"},"9902221":{"post_code":"9902221","prefecture":"YAMAGATA KEN","city":"YAMAGATA SHI","town":"KAZAMA","perfecture_jp":"山形県","jp_add_1":"山形市","jp_add_2":"風間"},"9902341":{"post_code":"9902341","prefecture":"YAMAGATA KEN","city":"YAMAGATA SHI","town":"KASHIWAGURA","perfecture_jp":"山形県","jp_add_1":"山形市","jp_add_2":"柏倉"},"9900826":{"post_code":"9900826","prefecture":"YAMAGATA KEN","city":"YAMAGATA SHI","town":"KAJOMACHI","perfecture_jp":"山形県","jp_add_1":"山形市","jp_add_2":"霞城町"},"9900833":{"post_code":"9900833","prefecture":"YAMAGATA KEN","city":"YAMAGATA SHI","town":"KASUGACHO","perfecture_jp":"山形県","jp_add_1":"山形市","jp_add_2":"春日町"},"9900039":{"post_code":"9900039","prefecture":"YAMAGATA KEN","city":"YAMAGATA SHI","town":"KASUMICHO","perfecture_jp":"山形県","jp_add_1":"山形市","jp_add_2":"香澄町"},"9902316":{"post_code":"9902316","prefecture":"YAMAGATA KEN","city":"YAMAGATA SHI","town":"KATAYACHI","perfecture_jp":"山形県","jp_add_1":"山形市","jp_add_2":"片谷地"},"9900856":{"post_code":"9900856","prefecture":"YAMAGATA KEN","city":"YAMAGATA SHI","town":"KANAISHIDA","perfecture_jp":"山形県","jp_add_1":"山形市","jp_add_2":"金石田"},"9900851":{"post_code":"9900851","prefecture":"YAMAGATA KEN","city":"YAMAGATA SHI","town":"KAMIKUNUGIZAWA","perfecture_jp":"山形県","jp_add_1":"山形市","jp_add_2":"上椹沢"},"9902421":{"post_code":"9902421","prefecture":"YAMAGATA KEN","city":"YAMAGATA SHI","town":"KAMISAKURADA","perfecture_jp":"山形県","jp_add_1":"山形市","jp_add_2":"上桜田"},"9902384":{"post_code":"9902384","prefecture":"YAMAGATA KEN","city":"YAMAGATA SHI","town":"KAMISORIDA","perfecture_jp":"山形県","jp_add_1":"山形市","jp_add_2":"上反田"},"9902241":{"post_code":"9902241","prefecture":"YAMAGATA KEN","city":"YAMAGATA SHI","town":"KAMIHIGASHIYAMA","perfecture_jp":"山形県","jp_add_1":"山形市","jp_add_2":"上東山"},"9900017":{"post_code":"9900017","prefecture":"YAMAGATA KEN","city":"YAMAGATA SHI","town":"KAMIHOZAWA","perfecture_jp":"山形県","jp_add_1":"山形市","jp_add_2":"上宝沢"},"9902212":{"post_code":"9902212","prefecture":"YAMAGATA KEN","city":"YAMAGATA SHI","town":"KAMIYANAGI","perfecture_jp":"山形県","jp_add_1":"山形市","jp_add_2":"上柳"},"9900004":{"post_code":"9900004","prefecture":"YAMAGATA KEN","city":"YAMAGATA SHI","town":"KAMIYAMBEMACHI","perfecture_jp":"山形県","jp_add_1":"山形市","jp_add_2":"上山家町"},"9902406":{"post_code":"9902406","prefecture":"YAMAGATA KEN","city":"YAMAGATA SHI","town":"KANNO","perfecture_jp":"山形県","jp_add_1":"山形市","jp_add_2":"神尾"},"9900875":{"post_code":"9900875","prefecture":"YAMAGATA KEN","city":"YAMAGATA SHI","town":"KITAEMATA","perfecture_jp":"山形県","jp_add_1":"山形市","jp_add_2":"北江俣"},"9900896":{"post_code":"9900896","prefecture":"YAMAGATA KEN","city":"YAMAGATA SHI","town":"KITADA","perfecture_jp":"山形県","jp_add_1":"山形市","jp_add_2":"北田"},"9900821":{"post_code":"9900821","prefecture":"YAMAGATA KEN","city":"YAMAGATA SHI","town":"KITAMACHI","perfecture_jp":"山形県","jp_add_1":"山形市","jp_add_2":"北町"},"9900822":{"post_code":"9900822","prefecture":"YAMAGATA KEN","city":"YAMAGATA SHI","town":"KITAYAMAGATA","perfecture_jp":"山形県","jp_add_1":"山形市","jp_add_2":"北山形"},"9900044":{"post_code":"9900044","prefecture":"YAMAGATA KEN","city":"YAMAGATA SHI","town":"KINOMICHO","perfecture_jp":"山形県","jp_add_1":"山形市","jp_add_2":"木の実町"},"9902475":{"post_code":"9902475","prefecture":"YAMAGATA KEN","city":"YAMAGATA SHI","town":"KINOMEDA","perfecture_jp":"山形県","jp_add_1":"山形市","jp_add_2":"木ノ目田"},"9900876":{"post_code":"9900876","prefecture":"YAMAGATA KEN","city":"YAMAGATA SHI","town":"GYOSAI","perfecture_jp":"山形県","jp_add_1":"山形市","jp_add_2":"行才"},"9900834":{"post_code":"9900834","prefecture":"YAMAGATA KEN","city":"YAMAGATA SHI","town":"KIYOZUMIMACHI","perfecture_jp":"山形県","jp_add_1":"山形市","jp_add_2":"清住町"},"9902233":{"post_code":"9902233","prefecture":"YAMAGATA KEN","city":"YAMAGATA SHI","town":"KIRIHATA","perfecture_jp":"山形県","jp_add_1":"山形市","jp_add_2":"切畑"},"9900850":{"post_code":"9900850","prefecture":"YAMAGATA KEN","city":"YAMAGATA SHI","town":"KUNUGIZAWANISHI","perfecture_jp":"山形県","jp_add_1":"山形市","jp_add_2":"くぬぎざわ西"},"9902482":{"post_code":"9902482","prefecture":"YAMAGATA KEN","city":"YAMAGATA SHI","town":"KUBOTA","perfecture_jp":"山形県","jp_add_1":"山形市","jp_add_2":"久保田"},"9902311":{"post_code":"9902311","prefecture":"YAMAGATA KEN","city":"YAMAGATA SHI","town":"KUROSAWA","perfecture_jp":"山形県","jp_add_1":"山形市","jp_add_2":"黒沢"},"9900863":{"post_code":"9900863","prefecture":"YAMAGATA KEN","city":"YAMAGATA SHI","town":"KONAN","perfecture_jp":"山形県","jp_add_1":"山形市","jp_add_2":"江南"},"9900852":{"post_code":"9900852","prefecture":"YAMAGATA KEN","city":"YAMAGATA SHI","town":"KOGANE","perfecture_jp":"山形県","jp_add_1":"山形市","jp_add_2":"黄金"},"9900032":{"post_code":"9900032","prefecture":"YAMAGATA KEN","city":"YAMAGATA SHI","town":"KOSHOMACHI","perfecture_jp":"山形県","jp_add_1":"山形市","jp_add_2":"小姓町"},"9900021":{"post_code":"9900021","prefecture":"YAMAGATA KEN","city":"YAMAGATA SHI","town":"KOJIRAKAWAMACHI","perfecture_jp":"山形県","jp_add_1":"山形市","jp_add_2":"小白川町"},"9902414":{"post_code":"9902414","prefecture":"YAMAGATA KEN","city":"YAMAGATA SHI","town":"KOTOBUKICHO","perfecture_jp":"山形県","jp_add_1":"山形市","jp_add_2":"寿町"},"9900035":{"post_code":"9900035","prefecture":"YAMAGATA KEN","city":"YAMAGATA SHI","town":"KONIDAMACHI","perfecture_jp":"山形県","jp_add_1":"山形市","jp_add_2":"小荷駄町"},"9902234":{"post_code":"9902234","prefecture":"YAMAGATA KEN","city":"YAMAGATA SHI","town":"KOMOISHI","perfecture_jp":"山形県","jp_add_1":"山形市","jp_add_2":"こも石"},"9900038":{"post_code":"9900038","prefecture":"YAMAGATA KEN","city":"YAMAGATA SHI","town":"SAIWAICHO","perfecture_jp":"山形県","jp_add_1":"山形市","jp_add_2":"幸町"},"9902333":{"post_code":"9902333","prefecture":"YAMAGATA KEN","city":"YAMAGATA SHI","town":"ZAO IIDA","perfecture_jp":"山形県","jp_add_1":"山形市","jp_add_2":"蔵王飯田"},"9902303":{"post_code":"9902303","prefecture":"YAMAGATA KEN","city":"YAMAGATA SHI","town":"ZAO UWANO","perfecture_jp":"山形県","jp_add_1":"山形市","jp_add_2":"蔵王上野"},"9902301":{"post_code":"9902301","prefecture":"YAMAGATA KEN","city":"YAMAGATA SHI","town":"ZAO ONSEN","perfecture_jp":"山形県","jp_add_1":"山形市","jp_add_2":"蔵王温泉"},"9902334":{"post_code":"9902334","prefecture":"YAMAGATA KEN","city":"YAMAGATA SHI","town":"ZAO NARISAWA","perfecture_jp":"山形県","jp_add_1":"山形市","jp_add_2":"蔵王成沢"},"9902305":{"post_code":"9902305","prefecture":"YAMAGATA KEN","city":"YAMAGATA SHI","town":"ZAO HANGO","perfecture_jp":"山形県","jp_add_1":"山形市","jp_add_2":"蔵王半郷"},"9902302":{"post_code":"9902302","prefecture":"YAMAGATA KEN","city":"YAMAGATA SHI","town":"ZAO HOTTA","perfecture_jp":"山形県","jp_add_1":"山形市","jp_add_2":"蔵王堀田"},"9902338":{"post_code":"9902338","prefecture":"YAMAGATA KEN","city":"YAMAGATA SHI","town":"ZAOMATSUGAOKA","perfecture_jp":"山形県","jp_add_1":"山形市","jp_add_2":"蔵王松ケ丘"},"9902337":{"post_code":"9902337","prefecture":"YAMAGATA KEN","city":"YAMAGATA SHI","town":"ZAO NISHINARISAWA","perfecture_jp":"山形県","jp_add_1":"山形市","jp_add_2":"蔵王西成沢"},"9902335":{"post_code":"9902335","prefecture":"YAMAGATA KEN","city":"YAMAGATA SHI","town":"ZAO MINAMINARISAWA","perfecture_jp":"山形県","jp_add_1":"山形市","jp_add_2":"蔵王南成沢"},"9902304":{"post_code":"9902304","prefecture":"YAMAGATA KEN","city":"YAMAGATA SHI","town":"ZAO YAMADA","perfecture_jp":"山形県","jp_add_1":"山形市","jp_add_2":"蔵王山田"},"9900003":{"post_code":"9900003","prefecture":"YAMAGATA KEN","city":"YAMAGATA SHI","town":"SAOTOME","perfecture_jp":"山形県","jp_add_1":"山形市","jp_add_2":"早乙女"},"9900819":{"post_code":"9900819","prefecture":"YAMAGATA KEN","city":"YAMAGATA SHI","town":"SAKAIDAMACHI","perfecture_jp":"山形県","jp_add_1":"山形市","jp_add_2":"境田町"},"9900077":{"post_code":"9900077","prefecture":"YAMAGATA KEN","city":"YAMAGATA SHI","town":"SAKAEBARA","perfecture_jp":"山形県","jp_add_1":"山形市","jp_add_2":"栄原"},"9900824":{"post_code":"9900824","prefecture":"YAMAGATA KEN","city":"YAMAGATA SHI","town":"SAKANAMACHI","perfecture_jp":"山形県","jp_add_1":"山形市","jp_add_2":"肴町"},"9902376":{"post_code":"9902376","prefecture":"YAMAGATA KEN","city":"YAMAGATA SHI","town":"SAKURAGAOKA","perfecture_jp":"山形県","jp_add_1":"山形市","jp_add_2":"桜ケ丘"},"9902323":{"post_code":"9902323","prefecture":"YAMAGATA KEN","city":"YAMAGATA SHI","town":"SAKURADAHIGASHI","perfecture_jp":"山形県","jp_add_1":"山形市","jp_add_2":"桜田東"},"9902321":{"post_code":"9902321","prefecture":"YAMAGATA KEN","city":"YAMAGATA SHI","town":"SAKURADANISHI","perfecture_jp":"山形県","jp_add_1":"山形市","jp_add_2":"桜田西"},"9902322":{"post_code":"9902322","prefecture":"YAMAGATA KEN","city":"YAMAGATA SHI","town":"SAKURADAMINAMI","perfecture_jp":"山形県","jp_add_1":"山形市","jp_add_2":"桜田南"},"9900045":{"post_code":"9900045","prefecture":"YAMAGATA KEN","city":"YAMAGATA SHI","town":"SAKURACHO","perfecture_jp":"山形県","jp_add_1":"山形市","jp_add_2":"桜町"},"9900898":{"post_code":"9900898","prefecture":"YAMAGATA KEN","city":"YAMAGATA SHI","town":"SANSHA","perfecture_jp":"山形県","jp_add_1":"山形市","jp_add_2":"三社"},"9900846":{"post_code":"9900846","prefecture":"YAMAGATA KEN","city":"YAMAGATA SHI","town":"SHIKAMA","perfecture_jp":"山形県","jp_add_1":"山形市","jp_add_2":"志鎌"},"9900868":{"post_code":"9900868","prefecture":"YAMAGATA KEN","city":"YAMAGATA SHI","town":"SHITODA","perfecture_jp":"山形県","jp_add_1":"山形市","jp_add_2":"志戸田"},"9902173":{"post_code":"9902173","prefecture":"YAMAGATA KEN","city":"YAMAGATA SHI","town":"SHIBUE","perfecture_jp":"山形県","jp_add_1":"山形市","jp_add_2":"渋江"},"9900870":{"post_code":"9900870","prefecture":"YAMAGATA KEN","city":"YAMAGATA SHI","town":"SHIMA","perfecture_jp":"山形県","jp_add_1":"山形市","jp_add_2":"島"},"9900885":{"post_code":"9900885","prefecture":"YAMAGATA KEN","city":"YAMAGATA SHI","town":"SHIMAKITA","perfecture_jp":"山形県","jp_add_1":"山形市","jp_add_2":"嶋北"},"9900886":{"post_code":"9900886","prefecture":"YAMAGATA KEN","city":"YAMAGATA SHI","town":"SHIMAMINAMI","perfecture_jp":"山形県","jp_add_1":"山形市","jp_add_2":"嶋南"},"9900858":{"post_code":"9900858","prefecture":"YAMAGATA KEN","city":"YAMAGATA SHI","town":"SHIMOKUNUGIZAWA","perfecture_jp":"山形県","jp_add_1":"山形市","jp_add_2":"下椹沢"},"9900823":{"post_code":"9900823","prefecture":"YAMAGATA KEN","city":"YAMAGATA SHI","town":"SHIMOJOMACHI","perfecture_jp":"山形県","jp_add_1":"山形市","jp_add_2":"下条町"},"9902385":{"post_code":"9902385","prefecture":"YAMAGATA KEN","city":"YAMAGATA SHI","town":"SHIMOSORIDA","perfecture_jp":"山形県","jp_add_1":"山形市","jp_add_2":"下反田"},"9900809":{"post_code":"9900809","prefecture":"YAMAGATA KEN","city":"YAMAGATA SHI","town":"SHIMODA","perfecture_jp":"山形県","jp_add_1":"山形市","jp_add_2":"下田"},"9902232":{"post_code":"9902232","prefecture":"YAMAGATA KEN","city":"YAMAGATA SHI","town":"SHIMOHIGASHIYAMA","perfecture_jp":"山形県","jp_add_1":"山形市","jp_add_2":"下東山"},"9900018":{"post_code":"9900018","prefecture":"YAMAGATA KEN","city":"YAMAGATA SHI","town":"SHIMOHOZAWA","perfecture_jp":"山形県","jp_add_1":"山形市","jp_add_2":"下宝沢"},"9902215":{"post_code":"9902215","prefecture":"YAMAGATA KEN","city":"YAMAGATA SHI","town":"SHIMOYANAGI","perfecture_jp":"山形県","jp_add_1":"山形市","jp_add_2":"下柳"},"9900005":{"post_code":"9900005","prefecture":"YAMAGATA KEN","city":"YAMAGATA SHI","town":"SHIMOYAMBEMACHI","perfecture_jp":"山形県","jp_add_1":"山形市","jp_add_2":"下山家町"},"9900012":{"post_code":"9900012","prefecture":"YAMAGATA KEN","city":"YAMAGATA SHI","town":"SHAKADO","perfecture_jp":"山形県","jp_add_1":"山形市","jp_add_2":"釈迦堂"},"9902211":{"post_code":"9902211","prefecture":"YAMAGATA KEN","city":"YAMAGATA SHI","town":"JUMONJI","perfecture_jp":"山形県","jp_add_1":"山形市","jp_add_2":"十文字"},"9900827":{"post_code":"9900827","prefecture":"YAMAGATA KEN","city":"YAMAGATA SHI","town":"JONAMMACHI","perfecture_jp":"山形県","jp_add_1":"山形市","jp_add_2":"城南町"},"9900825":{"post_code":"9900825","prefecture":"YAMAGATA KEN","city":"YAMAGATA SHI","town":"JOHOKUMACHI","perfecture_jp":"山形県","jp_add_1":"山形市","jp_add_2":"城北町"},"9902381":{"post_code":"9902381","prefecture":"YAMAGATA KEN","city":"YAMAGATA SHI","town":"JOMYOJI","perfecture_jp":"山形県","jp_add_1":"山形市","jp_add_2":"常明寺"},"9900807":{"post_code":"9900807","prefecture":"YAMAGATA KEN","city":"YAMAGATA SHI","town":"SHIRAKAWA","perfecture_jp":"山形県","jp_add_1":"山形市","jp_add_2":"白川"},"9900832":{"post_code":"9900832","prefecture":"YAMAGATA KEN","city":"YAMAGATA SHI","town":"SHIRONISHIMACHI","perfecture_jp":"山形県","jp_add_1":"山形市","jp_add_2":"城西町"},"9902343":{"post_code":"9902343","prefecture":"YAMAGATA KEN","city":"YAMAGATA SHI","town":"SHIROMORI","perfecture_jp":"山形県","jp_add_1":"山形市","jp_add_2":"城森"},"9902164":{"post_code":"9902164","prefecture":"YAMAGATA KEN","city":"YAMAGATA SHI","town":"SHINKAI","perfecture_jp":"山形県","jp_add_1":"山形市","jp_add_2":"新開"},"9900864":{"post_code":"9900864","prefecture":"YAMAGATA KEN","city":"YAMAGATA SHI","town":"JIMBA","perfecture_jp":"山形県","jp_add_1":"山形市","jp_add_2":"陣場"},"9900882":{"post_code":"9900882","prefecture":"YAMAGATA KEN","city":"YAMAGATA SHI","town":"JIMBASHINDEN","perfecture_jp":"山形県","jp_add_1":"山形市","jp_add_2":"陣場新田"},"9900860":{"post_code":"9900860","prefecture":"YAMAGATA KEN","city":"YAMAGATA SHI","town":"JIMBAMINAMI","perfecture_jp":"山形県","jp_add_1":"山形市","jp_add_2":"陣場南"},"9902494":{"post_code":"9902494","prefecture":"YAMAGATA KEN","city":"YAMAGATA SHI","town":"SUEHIROCHO","perfecture_jp":"山形県","jp_add_1":"山形市","jp_add_2":"末広町"},"9902362":{"post_code":"9902362","prefecture":"YAMAGATA KEN","city":"YAMAGATA SHI","town":"SUGESAWA","perfecture_jp":"山形県","jp_add_1":"山形市","jp_add_2":"菅沢"},"9902367":{"post_code":"9902367","prefecture":"YAMAGATA KEN","city":"YAMAGATA SHI","town":"SUGESAWANOKA","perfecture_jp":"山形県","jp_add_1":"山形市","jp_add_2":"すげさわの丘"},"9900884":{"post_code":"9900884","prefecture":"YAMAGATA KEN","city":"YAMAGATA SHI","town":"SUSHIARAI","perfecture_jp":"山形県","jp_add_1":"山形市","jp_add_2":"鮨洗"},"9900062":{"post_code":"9900062","prefecture":"YAMAGATA KEN","city":"YAMAGATA SHI","town":"SUZUKAWAMACHI","perfecture_jp":"山形県","jp_add_1":"山形市","jp_add_2":"鈴川町"},"9900847":{"post_code":"9900847","prefecture":"YAMAGATA KEN","city":"YAMAGATA SHI","town":"SUNADA","perfecture_jp":"山形県","jp_add_1":"山形市","jp_add_2":"砂田"},"9900854":{"post_code":"9900854","prefecture":"YAMAGATA KEN","city":"YAMAGATA SHI","town":"SUNAZUKA","perfecture_jp":"山形県","jp_add_1":"山形市","jp_add_2":"砂塚"},"9900033":{"post_code":"9900033","prefecture":"YAMAGATA KEN","city":"YAMAGATA SHI","town":"SUWAMACHI","perfecture_jp":"山形県","jp_add_1":"山形市","jp_add_2":"諏訪町"},"9900016":{"post_code":"9900016","prefecture":"YAMAGATA KEN","city":"YAMAGATA SHI","town":"SEKIZAWA","perfecture_jp":"山形県","jp_add_1":"山形市","jp_add_2":"関沢"},"9900881":{"post_code":"9900881","prefecture":"YAMAGATA KEN","city":"YAMAGATA SHI","town":"SENAMI","perfecture_jp":"山形県","jp_add_1":"山形市","jp_add_2":"瀬波"},"9902216":{"post_code":"9902216","prefecture":"YAMAGATA KEN","city":"YAMAGATA SHI","town":"SENGARI","perfecture_jp":"山形県","jp_add_1":"山形市","jp_add_2":"千刈"},"9902227":{"post_code":"9902227","prefecture":"YAMAGATA KEN","city":"YAMAGATA SHI","town":"SENGOKU","perfecture_jp":"山形県","jp_add_1":"山形市","jp_add_2":"千石"},"9902172":{"post_code":"9902172","prefecture":"YAMAGATA KEN","city":"YAMAGATA SHI","town":"SENJUDO","perfecture_jp":"山形県","jp_add_1":"山形市","jp_add_2":"千手堂"},"9900008":{"post_code":"9900008","prefecture":"YAMAGATA KEN","city":"YAMAGATA SHI","town":"SOTSUKISHINCHO","perfecture_jp":"山形県","jp_add_1":"山形市","jp_add_2":"双月新町"},"9900065":{"post_code":"9900065","prefecture":"YAMAGATA KEN","city":"YAMAGATA SHI","town":"SOTSUKIMACHI","perfecture_jp":"山形県","jp_add_1":"山形市","jp_add_2":"双月町"},"9902378":{"post_code":"9902378","prefecture":"YAMAGATA KEN","city":"YAMAGATA SHI","town":"SORIMACHI","perfecture_jp":"山形県","jp_add_1":"山形市","jp_add_2":"反町"},"9902364":{"post_code":"9902364","prefecture":"YAMAGATA KEN","city":"YAMAGATA SHI","town":"DAISHIDO","perfecture_jp":"山形県","jp_add_1":"山形市","jp_add_2":"大師堂"},"9900073":{"post_code":"9900073","prefecture":"YAMAGATA KEN","city":"YAMAGATA SHI","town":"DAINOME","perfecture_jp":"山形県","jp_add_1":"山形市","jp_add_2":"大野目"},"9902346":{"post_code":"9902346","prefecture":"YAMAGATA KEN","city":"YAMAGATA SHI","town":"TAKAGI","perfecture_jp":"山形県","jp_add_1":"山形市","jp_add_2":"高木"},"9902242":{"post_code":"9902242","prefecture":"YAMAGATA KEN","city":"YAMAGATA SHI","town":"TAKASAWA","perfecture_jp":"山形県","jp_add_1":"山形市","jp_add_2":"高沢"},"9900808":{"post_code":"9900808","prefecture":"YAMAGATA KEN","city":"YAMAGATA SHI","town":"TAKADA","perfecture_jp":"山形県","jp_add_1":"山形市","jp_add_2":"高田"},"9902464":{"post_code":"9902464","prefecture":"YAMAGATA KEN","city":"YAMAGATA SHI","town":"TAKADO","perfecture_jp":"山形県","jp_add_1":"山形市","jp_add_2":"高堂"},"9900002":{"post_code":"9900002","prefecture":"YAMAGATA KEN","city":"YAMAGATA SHI","town":"TAKAHARAMACHI","perfecture_jp":"山形県","jp_add_1":"山形市","jp_add_2":"高原町"},"9902382":{"post_code":"9902382","prefecture":"YAMAGATA KEN","city":"YAMAGATA SHI","town":"TAKINOHIRA","perfecture_jp":"山形県","jp_add_1":"山形市","jp_add_2":"滝平"},"9902251":{"post_code":"9902251","prefecture":"YAMAGATA KEN","city":"YAMAGATA SHI","town":"TACHIYAGAWA","perfecture_jp":"山形県","jp_add_1":"山形市","jp_add_2":"立谷川"},"9902163":{"post_code":"9902163","prefecture":"YAMAGATA KEN","city":"YAMAGATA SHI","town":"DATEJO","perfecture_jp":"山形県","jp_add_1":"山形市","jp_add_2":"伊達城"},"9900805":{"post_code":"9900805","prefecture":"YAMAGATA KEN","city":"YAMAGATA SHI","town":"DANNOMAE","perfecture_jp":"山形県","jp_add_1":"山形市","jp_add_2":"壇野前"},"9902224":{"post_code":"9902224","prefecture":"YAMAGATA KEN","city":"YAMAGATA SHI","town":"CHIKADA","perfecture_jp":"山形県","jp_add_1":"山形市","jp_add_2":"近田"},"9900812":{"post_code":"9900812","prefecture":"YAMAGATA KEN","city":"YAMAGATA SHI","town":"CHITOSE","perfecture_jp":"山形県","jp_add_1":"山形市","jp_add_2":"千歳"},"9900855":{"post_code":"9900855","prefecture":"YAMAGATA KEN","city":"YAMAGATA SHI","town":"CHIYODA","perfecture_jp":"山形県","jp_add_1":"山形市","jp_add_2":"千代田"},"9902315":{"post_code":"9902315","prefecture":"YAMAGATA KEN","city":"YAMAGATA SHI","town":"TSUGANEZAWA","perfecture_jp":"山形県","jp_add_1":"山形市","jp_add_2":"津金沢"},"9902405":{"post_code":"9902405","prefecture":"YAMAGATA KEN","city":"YAMAGATA SHI","town":"TSUCHIZAKA","perfecture_jp":"山形県","jp_add_1":"山形市","jp_add_2":"土坂"},"9900814":{"post_code":"9900814","prefecture":"YAMAGATA KEN","city":"YAMAGATA SHI","town":"TSUCHIDOI","perfecture_jp":"山形県","jp_add_1":"山形市","jp_add_2":"土樋"},"9902492":{"post_code":"9902492","prefecture":"YAMAGATA KEN","city":"YAMAGATA SHI","town":"TEPPOMACHI","perfecture_jp":"山形県","jp_add_1":"山形市","jp_add_2":"鉄砲町"},"9902213":{"post_code":"9902213","prefecture":"YAMAGATA KEN","city":"YAMAGATA SHI","town":"TERANISHI","perfecture_jp":"山形県","jp_add_1":"山形市","jp_add_2":"寺西"},"9900867":{"post_code":"9900867","prefecture":"YAMAGATA KEN","city":"YAMAGATA SHI","town":"TENJINDAI","perfecture_jp":"山形県","jp_add_1":"山形市","jp_add_2":"天神台"},"9900801":{"post_code":"9900801","prefecture":"YAMAGATA KEN","city":"YAMAGATA SHI","town":"TENJINCHO","perfecture_jp":"山形県","jp_add_1":"山形市","jp_add_2":"天神町"},"9900031":{"post_code":"9900031","prefecture":"YAMAGATA KEN","city":"YAMAGATA SHI","town":"TOKAMACHI","perfecture_jp":"山形県","jp_add_1":"山形市","jp_add_2":"十日町"},"9900806":{"post_code":"9900806","prefecture":"YAMAGATA KEN","city":"YAMAGATA SHI","town":"TOJIYASHIKI","perfecture_jp":"山形県","jp_add_1":"山形市","jp_add_2":"藤治屋敷"},"9902223":{"post_code":"9902223","prefecture":"YAMAGATA KEN","city":"YAMAGATA SHI","town":"TONOMAE","perfecture_jp":"山形県","jp_add_1":"山形市","jp_add_2":"塔の前"},"9900051":{"post_code":"9900051","prefecture":"YAMAGATA KEN","city":"YAMAGATA SHI","town":"DOMACHI","perfecture_jp":"山形県","jp_add_1":"山形市","jp_add_2":"銅町"},"9900871":{"post_code":"9900871","prefecture":"YAMAGATA KEN","city":"YAMAGATA SHI","town":"DOYAGUCHI","perfecture_jp":"山形県","jp_add_1":"山形市","jp_add_2":"銅谷口"},"9902345":{"post_code":"9902345","prefecture":"YAMAGATA KEN","city":"YAMAGATA SHI","town":"TOGAMIDAI","perfecture_jp":"山形県","jp_add_1":"山形市","jp_add_2":"富神台"},"9902342":{"post_code":"9902342","prefecture":"YAMAGATA KEN","city":"YAMAGATA SHI","town":"MONDEN","perfecture_jp":"山形県","jp_add_1":"山形市","jp_add_2":"富神前"},"9902361":{"post_code":"9902361","prefecture":"YAMAGATA KEN","city":"YAMAGATA SHI","town":"DOMEKI","perfecture_jp":"山形県","jp_add_1":"山形市","jp_add_2":"百目鬼"},"9902463":{"post_code":"9902463","prefecture":"YAMAGATA KEN","city":"YAMAGATA SHI","town":"TOMINOJU","perfecture_jp":"山形県","jp_add_1":"山形市","jp_add_2":"富の中"},"9900815":{"post_code":"9900815","prefecture":"YAMAGATA KEN","city":"YAMAGATA SHI","town":"TOYOGOSHI","perfecture_jp":"山形県","jp_add_1":"山形市","jp_add_2":"樋越"},"9902433":{"post_code":"9902433","prefecture":"YAMAGATA KEN","city":"YAMAGATA SHI","town":"TORIIGAOKA","perfecture_jp":"山形県","jp_add_1":"山形市","jp_add_2":"鳥居ケ丘"},"9902422":{"post_code":"9902422","prefecture":"YAMAGATA KEN","city":"YAMAGATA SHI","town":"NAKASAKURADA","perfecture_jp":"山形県","jp_add_1":"山形市","jp_add_2":"中桜田"},"9902235":{"post_code":"9902235","prefecture":"YAMAGATA KEN","city":"YAMAGATA SHI","town":"NAKAZATO","perfecture_jp":"山形県","jp_add_1":"山形市","jp_add_2":"中里"},"9900849":{"post_code":"9900849","prefecture":"YAMAGATA KEN","city":"YAMAGATA SHI","town":"NAKANUMA","perfecture_jp":"山形県","jp_add_1":"山形市","jp_add_2":"中沼"},"9900892":{"post_code":"9900892","prefecture":"YAMAGATA KEN","city":"YAMAGATA SHI","town":"NAKANO","perfecture_jp":"山形県","jp_add_1":"山形市","jp_add_2":"中野"},"9902175":{"post_code":"9902175","prefecture":"YAMAGATA KEN","city":"YAMAGATA SHI","town":"NAKANOME","perfecture_jp":"山形県","jp_add_1":"山形市","jp_add_2":"中野目"},"9902477":{"post_code":"9902477","prefecture":"YAMAGATA KEN","city":"YAMAGATA SHI","town":"NAGANAWASHIRO","perfecture_jp":"山形県","jp_add_1":"山形市","jp_add_2":"長苗代"},"9900811":{"post_code":"9900811","prefecture":"YAMAGATA KEN","city":"YAMAGATA SHI","town":"NAGAMACHI","perfecture_jp":"山形県","jp_add_1":"山形市","jp_add_2":"長町"},"9902171":{"post_code":"9902171","prefecture":"YAMAGATA KEN","city":"YAMAGATA SHI","town":"NANAURA","perfecture_jp":"山形県","jp_add_1":"山形市","jp_add_2":"七浦"},"9900804":{"post_code":"9900804","prefecture":"YAMAGATA KEN","city":"YAMAGATA SHI","town":"NANAJUGARI","perfecture_jp":"山形県","jp_add_1":"山形市","jp_add_2":"七十刈"},"9900042":{"post_code":"9900042","prefecture":"YAMAGATA KEN","city":"YAMAGATA SHI","town":"NANUKAMACHI","perfecture_jp":"山形県","jp_add_1":"山形市","jp_add_2":"七日町"},"9902386":{"post_code":"9902386","prefecture":"YAMAGATA KEN","city":"YAMAGATA SHI","town":"NAMIYANAGI","perfecture_jp":"山形県","jp_add_1":"山形市","jp_add_2":"並柳"},"9900014":{"post_code":"9900014","prefecture":"YAMAGATA KEN","city":"YAMAGATA SHI","town":"NAMEKAWA","perfecture_jp":"山形県","jp_add_1":"山形市","jp_add_2":"滑川"},"9902339":{"post_code":"9902339","prefecture":"YAMAGATA KEN","city":"YAMAGATA SHI","town":"NARISAWANISHI","perfecture_jp":"山形県","jp_add_1":"山形市","jp_add_2":"成沢西"},"9900891":{"post_code":"9900891","prefecture":"YAMAGATA KEN","city":"YAMAGATA SHI","town":"NARIYASU","perfecture_jp":"山形県","jp_add_1":"山形市","jp_add_2":"成安"},"9902445":{"post_code":"9902445","prefecture":"YAMAGATA KEN","city":"YAMAGATA SHI","town":"NANEICHO","perfecture_jp":"山形県","jp_add_1":"山形市","jp_add_2":"南栄町"},"9902355":{"post_code":"9902355","prefecture":"YAMAGATA KEN","city":"YAMAGATA SHI","town":"NIIDA","perfecture_jp":"山形県","jp_add_1":"山形市","jp_add_2":"二位田"},"9900015":{"post_code":"9900015","prefecture":"YAMAGATA KEN","city":"YAMAGATA SHI","town":"NIIYAMA","perfecture_jp":"山形県","jp_add_1":"山形市","jp_add_2":"新山"},"9900862":{"post_code":"9900862","prefecture":"YAMAGATA KEN","city":"YAMAGATA SHI","town":"NISHIEMATA","perfecture_jp":"山形県","jp_add_1":"山形市","jp_add_2":"西江俣"},"9900056":{"post_code":"9900056","prefecture":"YAMAGATA KEN","city":"YAMAGATA SHI","town":"NISHIKICHO","perfecture_jp":"山形県","jp_add_1":"山形市","jp_add_2":"錦町"},"9902226":{"post_code":"9902226","prefecture":"YAMAGATA KEN","city":"YAMAGATA SHI","town":"NISHIGOSHI","perfecture_jp":"山形県","jp_add_1":"山形市","jp_add_2":"西越"},"9900853":{"post_code":"9900853","prefecture":"YAMAGATA KEN","city":"YAMAGATA SHI","town":"NISHIZAKI","perfecture_jp":"山形県","jp_add_1":"山形市","jp_add_2":"西崎"},"9900831":{"post_code":"9900831","prefecture":"YAMAGATA KEN","city":"YAMAGATA SHI","town":"NISHITA","perfecture_jp":"山形県","jp_add_1":"山形市","jp_add_2":"西田"},"9900893":{"post_code":"9900893","prefecture":"YAMAGATA KEN","city":"YAMAGATA SHI","town":"NISHINAKANO","perfecture_jp":"山形県","jp_add_1":"山形市","jp_add_2":"西中野"},"9900859":{"post_code":"9900859","prefecture":"YAMAGATA KEN","city":"YAMAGATA SHI","town":"NISHIHARA","perfecture_jp":"山形県","jp_add_1":"山形市","jp_add_2":"西原"},"9900844":{"post_code":"9900844","prefecture":"YAMAGATA KEN","city":"YAMAGATA SHI","town":"NISHIMIDA","perfecture_jp":"山形県","jp_add_1":"山形市","jp_add_2":"西見田"},"9902474":{"post_code":"9902474","prefecture":"YAMAGATA KEN","city":"YAMAGATA SHI","town":"NUMAGI","perfecture_jp":"山形県","jp_add_1":"山形市","jp_add_2":"沼木"},"9900007":{"post_code":"9900007","prefecture":"YAMAGATA KEN","city":"YAMAGATA SHI","town":"NUMANOBEMACHI","perfecture_jp":"山形県","jp_add_1":"山形市","jp_add_2":"沼の辺町"},"9902174":{"post_code":"9902174","prefecture":"YAMAGATA KEN","city":"YAMAGATA SHI","town":"HAIZUKA","perfecture_jp":"山形県","jp_add_1":"山形市","jp_add_2":"灰塚"},"9902446":{"post_code":"9902446","prefecture":"YAMAGATA KEN","city":"YAMAGATA SHI","town":"HAKUSAN","perfecture_jp":"山形県","jp_add_1":"山形市","jp_add_2":"白山"},"9902471":{"post_code":"9902471","prefecture":"YAMAGATA KEN","city":"YAMAGATA SHI","town":"HAGURODO","perfecture_jp":"山形県","jp_add_1":"山形市","jp_add_2":"羽黒堂"},"9900865":{"post_code":"9900865","prefecture":"YAMAGATA KEN","city":"YAMAGATA SHI","town":"BAJODAI","perfecture_jp":"山形県","jp_add_1":"山形市","jp_add_2":"馬上台"},"9902363":{"post_code":"9902363","prefecture":"YAMAGATA KEN","city":"YAMAGATA SHI","town":"HASEDO","perfecture_jp":"山形県","jp_add_1":"山形市","jp_add_2":"長谷堂"},"9900047":{"post_code":"9900047","prefecture":"YAMAGATA KEN","city":"YAMAGATA SHI","town":"HATAGOMACHI","perfecture_jp":"山形県","jp_add_1":"山形市","jp_add_2":"旅篭町"},"9900872":{"post_code":"9900872","prefecture":"YAMAGATA KEN","city":"YAMAGATA SHI","town":"HACHIMAMMAE","perfecture_jp":"山形県","jp_add_1":"山形市","jp_add_2":"八幡前"},"9902404":{"post_code":"9902404","prefecture":"YAMAGATA KEN","city":"YAMAGATA SHI","town":"HACHIMORI","perfecture_jp":"山形県","jp_add_1":"山形市","jp_add_2":"八森"},"9902225":{"post_code":"9902225","prefecture":"YAMAGATA KEN","city":"YAMAGATA SHI","town":"HANAOKA","perfecture_jp":"山形県","jp_add_1":"山形市","jp_add_2":"花岡"},"9900067":{"post_code":"9900067","prefecture":"YAMAGATA KEN","city":"YAMAGATA SHI","town":"HANATATE","perfecture_jp":"山形県","jp_add_1":"山形市","jp_add_2":"花楯"},"9900072":{"post_code":"9900072","prefecture":"YAMAGATA KEN","city":"YAMAGATA SHI","town":"HAMAZAKI","perfecture_jp":"山形県","jp_add_1":"山形市","jp_add_2":"浜崎"},"9902423":{"post_code":"9902423","prefecture":"YAMAGATA KEN","city":"YAMAGATA SHI","town":"HIGASHIAOTA","perfecture_jp":"山形県","jp_add_1":"山形市","jp_add_2":"東青田"},"9900899":{"post_code":"9900899","prefecture":"YAMAGATA KEN","city":"YAMAGATA SHI","town":"HIGASHIKAGONOMACHI","perfecture_jp":"山形県","jp_add_1":"山形市","jp_add_2":"東篭野町"},"9900869":{"post_code":"9900869","prefecture":"YAMAGATA KEN","city":"YAMAGATA SHI","town":"HIGASHISHITODA","perfecture_jp":"山形県","jp_add_1":"山形市","jp_add_2":"東志戸田"},"9900897":{"post_code":"9900897","prefecture":"YAMAGATA KEN","city":"YAMAGATA SHI","town":"HIGASHIDA","perfecture_jp":"山形県","jp_add_1":"山形市","jp_add_2":"東田"},"9902354":{"post_code":"9902354","prefecture":"YAMAGATA KEN","city":"YAMAGATA SHI","town":"HIGASHINIIDA","perfecture_jp":"山形県","jp_add_1":"山形市","jp_add_2":"東二位田"},"9900034":{"post_code":"9900034","prefecture":"YAMAGATA KEN","city":"YAMAGATA SHI","town":"HIGASHIHARAMACHI","perfecture_jp":"山形県","jp_add_1":"山形市","jp_add_2":"東原町"},"9902308":{"post_code":"9902308","prefecture":"YAMAGATA KEN","city":"YAMAGATA SHI","town":"HIGASHIHANGO","perfecture_jp":"山形県","jp_add_1":"山形市","jp_add_2":"東半郷"},"9902375":{"post_code":"9902375","prefecture":"YAMAGATA KEN","city":"YAMAGATA SHI","town":"HIGASHIFURUDATE","perfecture_jp":"山形県","jp_add_1":"山形市","jp_add_2":"東古館"},"9900022":{"post_code":"9900022","prefecture":"YAMAGATA KEN","city":"YAMAGATA SHI","town":"HIGASHIYAMAGATA","perfecture_jp":"山形県","jp_add_1":"山形市","jp_add_2":"東山形"},"9900813":{"post_code":"9900813","prefecture":"YAMAGATA KEN","city":"YAMAGATA SHI","town":"HINOKICHO","perfecture_jp":"山形県","jp_add_1":"山形市","jp_add_2":"桧町"},"9900076":{"post_code":"9900076","prefecture":"YAMAGATA KEN","city":"YAMAGATA SHI","town":"HIRAKUBO","perfecture_jp":"山形県","jp_add_1":"山形市","jp_add_2":"平久保"},"9902401":{"post_code":"9902401","prefecture":"YAMAGATA KEN","city":"YAMAGATA SHI","town":"HIRASHIMIZU","perfecture_jp":"山形県","jp_add_1":"山形市","jp_add_2":"平清水"},"9902462":{"post_code":"9902462","prefecture":"YAMAGATA KEN","city":"YAMAGATA SHI","town":"FUKAMACHI","perfecture_jp":"山形県","jp_add_1":"山形市","jp_add_2":"深町"},"9902377":{"post_code":"9902377","prefecture":"YAMAGATA KEN","city":"YAMAGATA SHI","town":"FUJISAWAGAWA","perfecture_jp":"山形県","jp_add_1":"山形市","jp_add_2":"藤沢川"},"9900828":{"post_code":"9900828","prefecture":"YAMAGATA KEN","city":"YAMAGATA SHI","town":"FUTABACHO","perfecture_jp":"山形県","jp_add_1":"山形市","jp_add_2":"双葉町"},"9900894":{"post_code":"9900894","prefecture":"YAMAGATA KEN","city":"YAMAGATA SHI","town":"FUNAMACHI","perfecture_jp":"山形県","jp_add_1":"山形市","jp_add_2":"船町"},"9902374":{"post_code":"9902374","prefecture":"YAMAGATA KEN","city":"YAMAGATA SHI","town":"FURUDATE","perfecture_jp":"山形県","jp_add_1":"山形市","jp_add_2":"古館"},"9900857":{"post_code":"9900857","prefecture":"YAMAGATA KEN","city":"YAMAGATA SHI","town":"HEIDA","perfecture_jp":"山形県","jp_add_1":"山形市","jp_add_2":"平田"},"9900013":{"post_code":"9900013","prefecture":"YAMAGATA KEN","city":"YAMAGATA SHI","town":"BOBARAMACHI","perfecture_jp":"山形県","jp_add_1":"山形市","jp_add_2":"防原町"},"9900001":{"post_code":"9900001","prefecture":"YAMAGATA KEN","city":"YAMAGATA SHI","town":"HOZUMI","perfecture_jp":"山形県","jp_add_1":"山形市","jp_add_2":"穂積"},"9900043":{"post_code":"9900043","prefecture":"YAMAGATA KEN","city":"YAMAGATA SHI","town":"HONCHO","perfecture_jp":"山形県","jp_add_1":"山形市","jp_add_2":"本町"},"9902352":{"post_code":"9902352","prefecture":"YAMAGATA KEN","city":"YAMAGATA SHI","town":"MAEAKASHI","perfecture_jp":"山形県","jp_add_1":"山形市","jp_add_2":"前明石"},"9902411":{"post_code":"9902411","prefecture":"YAMAGATA KEN","city":"YAMAGATA SHI","town":"MAETAMACHI","perfecture_jp":"山形県","jp_add_1":"山形市","jp_add_2":"前田町"},"9902473":{"post_code":"9902473","prefecture":"YAMAGATA KEN","city":"YAMAGATA SHI","town":"MATSUEI","perfecture_jp":"山形県","jp_add_1":"山形市","jp_add_2":"松栄"},"9900023":{"post_code":"9900023","prefecture":"YAMAGATA KEN","city":"YAMAGATA SHI","town":"MATSUNAMI","perfecture_jp":"山形県","jp_add_1":"山形市","jp_add_2":"松波"},"9902313":{"post_code":"9902313","prefecture":"YAMAGATA KEN","city":"YAMAGATA SHI","town":"MATSUBARA","perfecture_jp":"山形県","jp_add_1":"山形市","jp_add_2":"松原"},"9902431":{"post_code":"9902431","prefecture":"YAMAGATA KEN","city":"YAMAGATA SHI","town":"MATSUMICHO","perfecture_jp":"山形県","jp_add_1":"山形市","jp_add_2":"松見町"},"9902412":{"post_code":"9902412","prefecture":"YAMAGATA KEN","city":"YAMAGATA SHI","town":"MATSUYAMA","perfecture_jp":"山形県","jp_add_1":"山形市","jp_add_2":"松山"},"9900810":{"post_code":"9900810","prefecture":"YAMAGATA KEN","city":"YAMAGATA SHI","town":"MAMIGASAKI","perfecture_jp":"山形県","jp_add_1":"山形市","jp_add_2":"馬見ケ崎"},"9900803":{"post_code":"9900803","prefecture":"YAMAGATA KEN","city":"YAMAGATA SHI","town":"MISAKI","perfecture_jp":"山形県","jp_add_1":"山形市","jp_add_2":"見崎"},"9900802":{"post_code":"9900802","prefecture":"YAMAGATA KEN","city":"YAMAGATA SHI","town":"MISAKIKAWARA","perfecture_jp":"山形県","jp_add_1":"山形市","jp_add_2":"見崎川原"},"9900036":{"post_code":"9900036","prefecture":"YAMAGATA KEN","city":"YAMAGATA SHI","town":"MIKKAMACHI","perfecture_jp":"山形県","jp_add_1":"山形市","jp_add_2":"三日町"},"9900041":{"post_code":"9900041","prefecture":"YAMAGATA KEN","city":"YAMAGATA SHI","town":"MIDORICHO","perfecture_jp":"山形県","jp_add_1":"山形市","jp_add_2":"緑町"},"9902441":{"post_code":"9902441","prefecture":"YAMAGATA KEN","city":"YAMAGATA SHI","town":"MINAMI 1-BANCHO","perfecture_jp":"山形県","jp_add_1":"山形市","jp_add_2":"南一番町"},"9902442":{"post_code":"9902442","prefecture":"YAMAGATA KEN","city":"YAMAGATA SHI","town":"MINAMI 2-BANCHO","perfecture_jp":"山形県","jp_add_1":"山形市","jp_add_2":"南二番町"},"9902443":{"post_code":"9902443","prefecture":"YAMAGATA KEN","city":"YAMAGATA SHI","town":"MINAMI 3-BANCHO","perfecture_jp":"山形県","jp_add_1":"山形市","jp_add_2":"南三番町"},"9902444":{"post_code":"9902444","prefecture":"YAMAGATA KEN","city":"YAMAGATA SHI","town":"MINAMI 4-BANCHO","perfecture_jp":"山形県","jp_add_1":"山形市","jp_add_2":"南四番町"},"9900836":{"post_code":"9900836","prefecture":"YAMAGATA KEN","city":"YAMAGATA SHI","town":"MINAMIISHIZEKI","perfecture_jp":"山形県","jp_add_1":"山形市","jp_add_2":"南石関"},"9900879":{"post_code":"9900879","prefecture":"YAMAGATA KEN","city":"YAMAGATA SHI","town":"MINAMISHITODA","perfecture_jp":"山形県","jp_add_1":"山形市","jp_add_2":"南志戸田"},"9902461":{"post_code":"9902461","prefecture":"YAMAGATA KEN","city":"YAMAGATA SHI","town":"MINAMIDATE","perfecture_jp":"山形県","jp_add_1":"山形市","jp_add_2":"南館"},"9902465":{"post_code":"9902465","prefecture":"YAMAGATA KEN","city":"YAMAGATA SHI","town":"MINAMIDATENISHI","perfecture_jp":"山形県","jp_add_1":"山形市","jp_add_2":"南館西"},"9902413":{"post_code":"9902413","prefecture":"YAMAGATA KEN","city":"YAMAGATA SHI","town":"MINAMIHARAMACHI","perfecture_jp":"山形県","jp_add_1":"山形市","jp_add_2":"南原町"},"9902306":{"post_code":"9902306","prefecture":"YAMAGATA KEN","city":"YAMAGATA SHI","town":"MINAMIHANGO","perfecture_jp":"山形県","jp_add_1":"山形市","jp_add_2":"南半郷"},"9902312":{"post_code":"9902312","prefecture":"YAMAGATA KEN","city":"YAMAGATA SHI","town":"MINAMIMATSUBARA","perfecture_jp":"山形県","jp_add_1":"山形市","jp_add_2":"南松原"},"9902372":{"post_code":"9902372","prefecture":"YAMAGATA KEN","city":"YAMAGATA SHI","town":"MINORIGAOKA","perfecture_jp":"山形県","jp_add_1":"山形市","jp_add_2":"みのりが丘"},"9902493":{"post_code":"9902493","prefecture":"YAMAGATA KEN","city":"YAMAGATA SHI","town":"MIHATACHO","perfecture_jp":"山形県","jp_add_1":"山形市","jp_add_2":"美畑町"},"9902317":{"post_code":"9902317","prefecture":"YAMAGATA KEN","city":"YAMAGATA SHI","town":"MIHARASHINOKA","perfecture_jp":"山形県","jp_add_1":"山形市","jp_add_2":"みはらしの丘"},"9900848":{"post_code":"9900848","prefecture":"YAMAGATA KEN","city":"YAMAGATA SHI","town":"MIYAURA","perfecture_jp":"山形県","jp_add_1":"山形市","jp_add_2":"宮浦"},"9900057":{"post_code":"9900057","prefecture":"YAMAGATA KEN","city":"YAMAGATA SHI","town":"MIYAMACHI","perfecture_jp":"山形県","jp_add_1":"山形市","jp_add_2":"宮町"},"9900011":{"post_code":"9900011","prefecture":"YAMAGATA KEN","city":"YAMAGATA SHI","town":"MYOKENJI","perfecture_jp":"山形県","jp_add_1":"山形市","jp_add_2":"妙見寺"},"9902472":{"post_code":"9902472","prefecture":"YAMAGATA KEN","city":"YAMAGATA SHI","town":"MYOJIMMAE","perfecture_jp":"山形県","jp_add_1":"山形市","jp_add_2":"明神前"},"9900054":{"post_code":"9900054","prefecture":"YAMAGATA KEN","city":"YAMAGATA SHI","town":"MUIKAMACHI","perfecture_jp":"山形県","jp_add_1":"山形市","jp_add_2":"六日町"},"9900895":{"post_code":"9900895","prefecture":"YAMAGATA KEN","city":"YAMAGATA SHI","town":"MUKAISHINDEN","perfecture_jp":"山形県","jp_add_1":"山形市","jp_add_2":"向新田"},"9902371":{"post_code":"9902371","prefecture":"YAMAGATA KEN","city":"YAMAGATA SHI","town":"MURAKIZAWA","perfecture_jp":"山形県","jp_add_1":"山形市","jp_add_2":"村木沢"},"9902447":{"post_code":"9902447","prefecture":"YAMAGATA KEN","city":"YAMAGATA SHI","town":"MOTOKI","perfecture_jp":"山形県","jp_add_1":"山形市","jp_add_2":"元木"},"9902314":{"post_code":"9902314","prefecture":"YAMAGATA KEN","city":"YAMAGATA SHI","town":"YAGASHIWA","perfecture_jp":"山形県","jp_add_1":"山形市","jp_add_2":"谷柏"},"9900053":{"post_code":"9900053","prefecture":"YAMAGATA KEN","city":"YAMAGATA SHI","town":"YAKUSHIMACHI","perfecture_jp":"山形県","jp_add_1":"山形市","jp_add_2":"薬師町"},"9902366":{"post_code":"9902366","prefecture":"YAMAGATA KEN","city":"YAMAGATA SHI","town":"YACHIMAE","perfecture_jp":"山形県","jp_add_1":"山形市","jp_add_2":"谷地前"},"9900835":{"post_code":"9900835","prefecture":"YAMAGATA KEN","city":"YAMAGATA SHI","town":"YAYOI","perfecture_jp":"山形県","jp_add_1":"山形市","jp_add_2":"やよい"},"9900006":{"post_code":"9900006","prefecture":"YAMAGATA KEN","city":"YAMAGATA SHI","town":"YAMBEHONCHO","perfecture_jp":"山形県","jp_add_1":"山形市","jp_add_2":"山家本町"},"9900063":{"post_code":"9900063","prefecture":"YAMAGATA KEN","city":"YAMAGATA SHI","town":"YAMBEMACHI","perfecture_jp":"山形県","jp_add_1":"山形市","jp_add_2":"山家町"},"9900037":{"post_code":"9900037","prefecture":"YAMAGATA KEN","city":"YAMAGATA SHI","town":"YOKAMACHI","perfecture_jp":"山形県","jp_add_1":"山形市","jp_add_2":"八日町"},"9900866":{"post_code":"9900866","prefecture":"YAMAGATA KEN","city":"YAMAGATA SHI","town":"YOKOI","perfecture_jp":"山形県","jp_add_1":"山形市","jp_add_2":"横井"},"9900843":{"post_code":"9900843","prefecture":"YAMAGATA KEN","city":"YAMAGATA SHI","town":"YOKOMICHI","perfecture_jp":"山形県","jp_add_1":"山形市","jp_add_2":"横道"},"9902383":{"post_code":"9902383","prefecture":"YAMAGATA KEN","city":"YAMAGATA SHI","town":"YOSHIZAWA","perfecture_jp":"山形県","jp_add_1":"山形市","jp_add_2":"芳沢"},"9900074":{"post_code":"9900074","prefecture":"YAMAGATA KEN","city":"YAMAGATA SHI","town":"YOSHINO","perfecture_jp":"山形県","jp_add_1":"山形市","jp_add_2":"芳野"},"9900883":{"post_code":"9900883","prefecture":"YAMAGATA KEN","city":"YAMAGATA SHI","town":"YOSHINOJUKU","perfecture_jp":"山形県","jp_add_1":"山形市","jp_add_2":"吉野宿"},"9902451":{"post_code":"9902451","prefecture":"YAMAGATA KEN","city":"YAMAGATA SHI","town":"YOSHIHARA","perfecture_jp":"山形県","jp_add_1":"山形市","jp_add_2":"吉原"},"9902455":{"post_code":"9902455","prefecture":"YAMAGATA KEN","city":"YAMAGATA SHI","town":"YOSHIHARAMINAMI","perfecture_jp":"山形県","jp_add_1":"山形市","jp_add_2":"吉原南"},"9900071":{"post_code":"9900071","prefecture":"YAMAGATA KEN","city":"YAMAGATA SHI","town":"RYUTSUSENTA","perfecture_jp":"山形県","jp_add_1":"山形市","jp_add_2":"流通センター"},"9902373":{"post_code":"9902373","prefecture":"YAMAGATA KEN","city":"YAMAGATA SHI","town":"WAKAGI","perfecture_jp":"山形県","jp_add_1":"山形市","jp_add_2":"若木"},"9902495":{"post_code":"9902495","prefecture":"YAMAGATA KEN","city":"YAMAGATA SHI","town":"WAKABACHO","perfecture_jp":"山形県","jp_add_1":"山形市","jp_add_2":"若葉町"},"9902453":{"post_code":"9902453","prefecture":"YAMAGATA KEN","city":"YAMAGATA SHI","town":"WAKAMIYA","perfecture_jp":"山形県","jp_add_1":"山形市","jp_add_2":"若宮"},"9900064":{"post_code":"9900064","prefecture":"YAMAGATA KEN","city":"YAMAGATA SHI","town":"WAGOMACHI","perfecture_jp":"山形県","jp_add_1":"山形市","jp_add_2":"和合町"},"9900502":{"post_code":"9900502","prefecture":"YAMAGATA KEN","city":"SAGAE SHI","town":"SACHIU","perfecture_jp":"山形県","jp_add_1":"寒河江市","jp_add_2":"幸生"},"9900511":{"post_code":"9900511","prefecture":"YAMAGATA KEN","city":"SAGAE SHI","town":"JIONJI","perfecture_jp":"山形県","jp_add_1":"寒河江市","jp_add_2":"慈恩寺"},"9900505":{"post_code":"9900505","prefecture":"YAMAGATA KEN","city":"SAGAE SHI","town":"SHIRAIWA","perfecture_jp":"山形県","jp_add_1":"寒河江市","jp_add_2":"白岩"},"9900522":{"post_code":"9900522","prefecture":"YAMAGATA KEN","city":"SAGAE SHI","town":"SEISUKESHINDEN","perfecture_jp":"山形県","jp_add_1":"寒河江市","jp_add_2":"清助新田"},"9900524":{"post_code":"9900524","prefecture":"YAMAGATA KEN","city":"SAGAE SHI","town":"TAKAMATSU","perfecture_jp":"山形県","jp_add_1":"寒河江市","jp_add_2":"高松"},"9900503":{"post_code":"9900503","prefecture":"YAMAGATA KEN","city":"SAGAE SHI","town":"TASHIRO","perfecture_jp":"山形県","jp_add_1":"寒河江市","jp_add_2":"田代"},"9900561":{"post_code":"9900561","prefecture":"YAMAGATA KEN","city":"SAGAE SHI","town":"CHUOKOGYODANCHI(1-BANCHI)","perfecture_jp":"山形県","jp_add_1":"寒河江市","jp_add_2":"中央工業団地"},"9900504":{"post_code":"9900504","prefecture":"YAMAGATA KEN","city":"SAGAE SHI","town":"TOMEBA","perfecture_jp":"山形県","jp_add_1":"寒河江市","jp_add_2":"留場"},"9900513":{"post_code":"9900513","prefecture":"YAMAGATA KEN","city":"SAGAE SHI","town":"HIWADA","perfecture_jp":"山形県","jp_add_1":"寒河江市","jp_add_2":"日和田"},"9900512":{"post_code":"9900512","prefecture":"YAMAGATA KEN","city":"SAGAE SHI","town":"MINOWA","perfecture_jp":"山形県","jp_add_1":"寒河江市","jp_add_2":"箕輪"},"9900501":{"post_code":"9900501","prefecture":"YAMAGATA KEN","city":"SAGAE SHI","town":"MIYAUCHI","perfecture_jp":"山形県","jp_add_1":"寒河江市","jp_add_2":"宮内"},"9900523":{"post_code":"9900523","prefecture":"YAMAGATA KEN","city":"SAGAE SHI","town":"YAKUWA","perfecture_jp":"山形県","jp_add_1":"寒河江市","jp_add_2":"八鍬"},"9900521":{"post_code":"9900521","prefecture":"YAMAGATA KEN","city":"SAGAE SHI","town":"YASAWA","perfecture_jp":"山形県","jp_add_1":"寒河江市","jp_add_2":"谷沢"},"9900525":{"post_code":"9900525","prefecture":"YAMAGATA KEN","city":"SAGAE SHI","town":"YONAZA","perfecture_jp":"山形県","jp_add_1":"寒河江市","jp_add_2":"米沢"},"9900300":{"post_code":"9900300","prefecture":"YAMAGATA KEN","city":"HIGASHIMURAYAMA GUN YAMANOBE MACHI","town":"IKANIKEISAIGANAIBAAI","perfecture_jp":"山形県","jp_add_1":"東村山郡山辺町","jp_add_2":""},"9900311":{"post_code":"9900311","prefecture":"YAMAGATA KEN","city":"HIGASHIMURAYAMA GUN YAMANOBE MACHI","town":"OMI","perfecture_jp":"山形県","jp_add_1":"東村山郡山辺町","jp_add_2":"近江"},"9900323":{"post_code":"9900323","prefecture":"YAMAGATA KEN","city":"HIGASHIMURAYAMA GUN YAMANOBE MACHI","town":"OTSUKA","perfecture_jp":"山形県","jp_add_1":"東村山郡山辺町","jp_add_2":"大塚"},"9900331":{"post_code":"9900331","prefecture":"YAMAGATA KEN","city":"HIGASHIMURAYAMA GUN YAMANOBE MACHI","town":"OTERA","perfecture_jp":"山形県","jp_add_1":"東村山郡山辺町","jp_add_2":"大寺"},"9900341":{"post_code":"9900341","prefecture":"YAMAGATA KEN","city":"HIGASHIMURAYAMA GUN YAMANOBE MACHI","town":"OWARABI","perfecture_jp":"山形県","jp_add_1":"東村山郡山辺町","jp_add_2":"大蕨"},"9900332":{"post_code":"9900332","prefecture":"YAMAGATA KEN","city":"HIGASHIMURAYAMA GUN YAMANOBE MACHI","town":"KITAGAKI","perfecture_jp":"山形県","jp_add_1":"東村山郡山辺町","jp_add_2":"北垣"},"9900352":{"post_code":"9900352","prefecture":"YAMAGATA KEN","city":"HIGASHIMURAYAMA GUN YAMANOBE MACHI","town":"KITASAKU","perfecture_jp":"山形県","jp_add_1":"東村山郡山辺町","jp_add_2":"北作"},"9900342":{"post_code":"9900342","prefecture":"YAMAGATA KEN","city":"HIGASHIMURAYAMA GUN YAMANOBE MACHI","town":"KITAYAMA","perfecture_jp":"山形県","jp_add_1":"東村山郡山辺町","jp_add_2":"北山"},"9900303":{"post_code":"9900303","prefecture":"YAMAGATA KEN","city":"HIGASHIMURAYAMA GUN YAMANOBE MACHI","town":"SHIMIZU","perfecture_jp":"山形県","jp_add_1":"東村山郡山辺町","jp_add_2":"清水"},"9900333":{"post_code":"9900333","prefecture":"YAMAGATA KEN","city":"HIGASHIMURAYAMA GUN YAMANOBE MACHI","town":"SUGISHITA","perfecture_jp":"山形県","jp_add_1":"東村山郡山辺町","jp_add_2":"杉下"},"9900321":{"post_code":"9900321","prefecture":"YAMAGATA KEN","city":"HIGASHIMURAYAMA GUN YAMANOBE MACHI","town":"NEGIWA","perfecture_jp":"山形県","jp_add_1":"東村山郡山辺町","jp_add_2":"根際"},"9900361":{"post_code":"9900361","prefecture":"YAMAGATA KEN","city":"HIGASHIMURAYAMA GUN YAMANOBE MACHI","town":"HATAYA","perfecture_jp":"山形県","jp_add_1":"東村山郡山辺町","jp_add_2":"畑谷"},"9900312":{"post_code":"9900312","prefecture":"YAMAGATA KEN","city":"HIGASHIMURAYAMA GUN YAMANOBE MACHI","town":"MIKAWAJIRI","perfecture_jp":"山形県","jp_add_1":"東村山郡山辺町","jp_add_2":"三河尻"},"9900302":{"post_code":"9900302","prefecture":"YAMAGATA KEN","city":"HIGASHIMURAYAMA GUN YAMANOBE MACHI","town":"MIDORIGAOKA","perfecture_jp":"山形県","jp_add_1":"東村山郡山辺町","jp_add_2":"緑ケ丘"},"9900351":{"post_code":"9900351","prefecture":"YAMAGATA KEN","city":"HIGASHIMURAYAMA GUN YAMANOBE MACHI","town":"YANAZAWA","perfecture_jp":"山形県","jp_add_1":"東村山郡山辺町","jp_add_2":"簗沢"},"9900301":{"post_code":"9900301","prefecture":"YAMAGATA KEN","city":"HIGASHIMURAYAMA GUN YAMANOBE MACHI","town":"YAMANOBE","perfecture_jp":"山形県","jp_add_1":"東村山郡山辺町","jp_add_2":"山辺"},"9900322":{"post_code":"9900322","prefecture":"YAMAGATA KEN","city":"HIGASHIMURAYAMA GUN YAMANOBE MACHI","town":"YOGAI","perfecture_jp":"山形県","jp_add_1":"東村山郡山辺町","jp_add_2":"要害"},"9900400":{"post_code":"9900400","prefecture":"YAMAGATA KEN","city":"HIGASHIMURAYAMA GUN NAKAYAMA MACHI","town":"IKANIKEISAIGANAIBAAI","perfecture_jp":"山形県","jp_add_1":"東村山郡中山町","jp_add_2":""},"9900411":{"post_code":"9900411","prefecture":"YAMAGATA KEN","city":"HIGASHIMURAYAMA GUN NAKAYAMA MACHI","town":"AOBA","perfecture_jp":"山形県","jp_add_1":"東村山郡中山町","jp_add_2":"あおば"},"9900402":{"post_code":"9900402","prefecture":"YAMAGATA KEN","city":"HIGASHIMURAYAMA GUN NAKAYAMA MACHI","town":"IZUMI","perfecture_jp":"山形県","jp_add_1":"東村山郡中山町","jp_add_2":"いずみ"},"9900408":{"post_code":"9900408","prefecture":"YAMAGATA KEN","city":"HIGASHIMURAYAMA GUN NAKAYAMA MACHI","town":"OKA","perfecture_jp":"山形県","jp_add_1":"東村山郡中山町","jp_add_2":"岡"},"9900405":{"post_code":"9900405","prefecture":"YAMAGATA KEN","city":"HIGASHIMURAYAMA GUN NAKAYAMA MACHI","town":"KANEZAWA","perfecture_jp":"山形県","jp_add_1":"東村山郡中山町","jp_add_2":"金沢"},"9900409":{"post_code":"9900409","prefecture":"YAMAGATA KEN","city":"HIGASHIMURAYAMA GUN NAKAYAMA MACHI","town":"KOSHIO","perfecture_jp":"山形県","jp_add_1":"東村山郡中山町","jp_add_2":"小塩"},"9900403":{"post_code":"9900403","prefecture":"YAMAGATA KEN","city":"HIGASHIMURAYAMA GUN NAKAYAMA MACHI","town":"DARUMAJI","perfecture_jp":"山形県","jp_add_1":"東村山郡中山町","jp_add_2":"達磨寺"},"9900407":{"post_code":"9900407","prefecture":"YAMAGATA KEN","city":"HIGASHIMURAYAMA GUN NAKAYAMA MACHI","town":"TSUCHIHASHI","perfecture_jp":"山形県","jp_add_1":"東村山郡中山町","jp_add_2":"土橋"},"9900401":{"post_code":"9900401","prefecture":"YAMAGATA KEN","city":"HIGASHIMURAYAMA GUN NAKAYAMA MACHI","town":"NAGASAKI","perfecture_jp":"山形県","jp_add_1":"東村山郡中山町","jp_add_2":"長崎"},"9900404":{"post_code":"9900404","prefecture":"YAMAGATA KEN","city":"HIGASHIMURAYAMA GUN NAKAYAMA MACHI","town":"MUKOSHINDEN","perfecture_jp":"山形県","jp_add_1":"東村山郡中山町","jp_add_2":"向新田"},"9900406":{"post_code":"9900406","prefecture":"YAMAGATA KEN","city":"HIGASHIMURAYAMA GUN NAKAYAMA MACHI","town":"YANAGISAWA","perfecture_jp":"山形県","jp_add_1":"東村山郡中山町","jp_add_2":"柳沢"},"9900700":{"post_code":"9900700","prefecture":"YAMAGATA KEN","city":"NISHIMURAYAMA GUN NISHIKAWA MACHI","town":"IKANIKEISAIGANAIBAAI","perfecture_jp":"山形県","jp_add_1":"西村山郡西川町","jp_add_2":""},"9900714":{"post_code":"9900714","prefecture":"YAMAGATA KEN","city":"NISHIMURAYAMA GUN NISHIKAWA MACHI","town":"IRIMA","perfecture_jp":"山形県","jp_add_1":"西村山郡西川町","jp_add_2":"入間"},"9900743":{"post_code":"9900743","prefecture":"YAMAGATA KEN","city":"NISHIMURAYAMA GUN NISHIKAWA MACHI","town":"IWANEZAWA","perfecture_jp":"山形県","jp_add_1":"西村山郡西川町","jp_add_2":"岩根沢"},"9900721":{"post_code":"9900721","prefecture":"YAMAGATA KEN","city":"NISHIMURAYAMA GUN NISHIKAWA MACHI","town":"OISAWA","perfecture_jp":"山形県","jp_add_1":"西村山郡西川町","jp_add_2":"大井沢"},"9900702":{"post_code":"9900702","prefecture":"YAMAGATA KEN","city":"NISHIMURAYAMA GUN NISHIKAWA MACHI","town":"KAISHU","perfecture_jp":"山形県","jp_add_1":"西村山郡西川町","jp_add_2":"海味"},"9900734":{"post_code":"9900734","prefecture":"YAMAGATA KEN","city":"NISHIMURAYAMA GUN NISHIKAWA MACHI","town":"SHIZU","perfecture_jp":"山形県","jp_add_1":"西村山郡西川町","jp_add_2":"志津"},"9900732":{"post_code":"9900732","prefecture":"YAMAGATA KEN","city":"NISHIMURAYAMA GUN NISHIKAWA MACHI","town":"SUNAGOSEKI","perfecture_jp":"山形県","jp_add_1":"西村山郡西川町","jp_add_2":"砂子関"},"9900731":{"post_code":"9900731","prefecture":"YAMAGATA KEN","city":"NISHIMURAYAMA GUN NISHIKAWA MACHI","town":"TSUKIOKA","perfecture_jp":"山形県","jp_add_1":"西村山郡西川町","jp_add_2":"月岡"},"9900733":{"post_code":"9900733","prefecture":"YAMAGATA KEN","city":"NISHIMURAYAMA GUN NISHIKAWA MACHI","town":"TSUKIYAMAZAWA","perfecture_jp":"山形県","jp_add_1":"西村山郡西川町","jp_add_2":"月山沢"},"9900741":{"post_code":"9900741","prefecture":"YAMAGATA KEN","city":"NISHIMURAYAMA GUN NISHIKAWA MACHI","town":"TSUNATORI","perfecture_jp":"山形県","jp_add_1":"西村山郡西川町","jp_add_2":"綱取"},"9900713":{"post_code":"9900713","prefecture":"YAMAGATA KEN","city":"NISHIMURAYAMA GUN NISHIKAWA MACHI","town":"NUMAYAMA","perfecture_jp":"山形県","jp_add_1":"西村山郡西川町","jp_add_2":"沼山"},"9900712":{"post_code":"9900712","prefecture":"YAMAGATA KEN","city":"NISHIMURAYAMA GUN NISHIKAWA MACHI","town":"HARA","perfecture_jp":"山形県","jp_add_1":"西村山郡西川町","jp_add_2":"原"},"9900735":{"post_code":"9900735","prefecture":"YAMAGATA KEN","city":"NISHIMURAYAMA GUN NISHIKAWA MACHI","town":"HONDOJI","perfecture_jp":"山形県","jp_add_1":"西村山郡西川町","jp_add_2":"本道寺"},"9900703":{"post_code":"9900703","prefecture":"YAMAGATA KEN","city":"NISHIMURAYAMA GUN NISHIKAWA MACHI","town":"MAZAWA","perfecture_jp":"山形県","jp_add_1":"西村山郡西川町","jp_add_2":"間沢"},"9900742":{"post_code":"9900742","prefecture":"YAMAGATA KEN","city":"NISHIMURAYAMA GUN NISHIKAWA MACHI","town":"MIZUSAWA","perfecture_jp":"山形県","jp_add_1":"西村山郡西川町","jp_add_2":"水沢"},"9900701":{"post_code":"9900701","prefecture":"YAMAGATA KEN","city":"NISHIMURAYAMA GUN NISHIKAWA MACHI","town":"MUTSUAI","perfecture_jp":"山形県","jp_add_1":"西村山郡西川町","jp_add_2":"睦合"},"9900711":{"post_code":"9900711","prefecture":"YAMAGATA KEN","city":"NISHIMURAYAMA GUN NISHIKAWA MACHI","town":"YOSHIKAWA","perfecture_jp":"山形県","jp_add_1":"西村山郡西川町","jp_add_2":"吉川"},"9901400":{"post_code":"9901400","prefecture":"YAMAGATA KEN","city":"NISHIMURAYAMA GUN ASAHI MACHI","town":"IKANIKEISAIGANAIBAAI","perfecture_jp":"山形県","jp_add_1":"西村山郡朝日町","jp_add_2":""},"9901441":{"post_code":"9901441","prefecture":"YAMAGATA KEN","city":"NISHIMURAYAMA GUN ASAHI MACHI","town":"ARAJUKU","perfecture_jp":"山形県","jp_add_1":"西村山郡朝日町","jp_add_2":"新宿"},"9901303":{"post_code":"9901303","prefecture":"YAMAGATA KEN","city":"NISHIMURAYAMA GUN ASAHI MACHI","town":"UMAGAMI","perfecture_jp":"山形県","jp_add_1":"西村山郡朝日町","jp_add_2":"馬神"},"9901306":{"post_code":"9901306","prefecture":"YAMAGATA KEN","city":"NISHIMURAYAMA GUN ASAHI MACHI","town":"OGUREYAMA","perfecture_jp":"山形県","jp_add_1":"西村山郡朝日町","jp_add_2":"大暮山"},"9901431":{"post_code":"9901431","prefecture":"YAMAGATA KEN","city":"NISHIMURAYAMA GUN ASAHI MACHI","town":"OTAKI","perfecture_jp":"山形県","jp_add_1":"西村山郡朝日町","jp_add_2":"大滝"},"9901305":{"post_code":"9901305","prefecture":"YAMAGATA KEN","city":"NISHIMURAYAMA GUN ASAHI MACHI","town":"ONUMA","perfecture_jp":"山形県","jp_add_1":"西村山郡朝日町","jp_add_2":"大沼"},"9901562":{"post_code":"9901562","prefecture":"YAMAGATA KEN","city":"NISHIMURAYAMA GUN ASAHI MACHI","town":"OFUNAGI","perfecture_jp":"山形県","jp_add_1":"西村山郡朝日町","jp_add_2":"大船木"},"9901304":{"post_code":"9901304","prefecture":"YAMAGATA KEN","city":"NISHIMURAYAMA GUN ASAHI MACHI","town":"OYA","perfecture_jp":"山形県","jp_add_1":"西村山郡朝日町","jp_add_2":"大谷"},"9901422":{"post_code":"9901422","prefecture":"YAMAGATA KEN","city":"NISHIMURAYAMA GUN ASAHI MACHI","town":"OKURIHASHI","perfecture_jp":"山形県","jp_add_1":"西村山郡朝日町","jp_add_2":"送橋"},"9901432":{"post_code":"9901432","prefecture":"YAMAGATA KEN","city":"NISHIMURAYAMA GUN ASAHI MACHI","town":"KAMIGO","perfecture_jp":"山形県","jp_add_1":"西村山郡朝日町","jp_add_2":"上郷"},"9901571":{"post_code":"9901571","prefecture":"YAMAGATA KEN","city":"NISHIMURAYAMA GUN ASAHI MACHI","town":"KOKUSUBE","perfecture_jp":"山形県","jp_add_1":"西村山郡朝日町","jp_add_2":"石須部"},"9901563":{"post_code":"9901563","prefecture":"YAMAGATA KEN","city":"NISHIMURAYAMA GUN ASAHI MACHI","town":"KOMPEI","perfecture_jp":"山形県","jp_add_1":"西村山郡朝日町","jp_add_2":"今平"},"9901444":{"post_code":"9901444","prefecture":"YAMAGATA KEN","city":"NISHIMURAYAMA GUN ASAHI MACHI","town":"SHINOSAWA","perfecture_jp":"山形県","jp_add_1":"西村山郡朝日町","jp_add_2":"四ノ沢"},"9901423":{"post_code":"9901423","prefecture":"YAMAGATA KEN","city":"NISHIMURAYAMA GUN ASAHI MACHI","town":"SHIMOASHIZAWA","perfecture_jp":"山形県","jp_add_1":"西村山郡朝日町","jp_add_2":"下芦沢"},"9901574":{"post_code":"9901574","prefecture":"YAMAGATA KEN","city":"NISHIMURAYAMA GUN ASAHI MACHI","town":"SHIRAKURA","perfecture_jp":"山形県","jp_add_1":"西村山郡朝日町","jp_add_2":"白倉"},"9901433":{"post_code":"9901433","prefecture":"YAMAGATA KEN","city":"NISHIMURAYAMA GUN ASAHI MACHI","town":"SUGIYAMA","perfecture_jp":"山形県","jp_add_1":"西村山郡朝日町","jp_add_2":"杉山"},"9901573":{"post_code":"9901573","prefecture":"YAMAGATA KEN","city":"NISHIMURAYAMA GUN ASAHI MACHI","town":"TATEKI","perfecture_jp":"山形県","jp_add_1":"西村山郡朝日町","jp_add_2":"立木"},"9901302":{"post_code":"9901302","prefecture":"YAMAGATA KEN","city":"NISHIMURAYAMA GUN ASAHI MACHI","town":"TAMANOI","perfecture_jp":"山形県","jp_add_1":"西村山郡朝日町","jp_add_2":"玉ノ井"},"9901572":{"post_code":"9901572","prefecture":"YAMAGATA KEN","city":"NISHIMURAYAMA GUN ASAHI MACHI","town":"TARO","perfecture_jp":"山形県","jp_add_1":"西村山郡朝日町","jp_add_2":"太郎"},"9901552":{"post_code":"9901552","prefecture":"YAMAGATA KEN","city":"NISHIMURAYAMA GUN ASAHI MACHI","town":"TOKIWA","perfecture_jp":"山形県","jp_add_1":"西村山郡朝日町","jp_add_2":"常盤"},"9901301":{"post_code":"9901301","prefecture":"YAMAGATA KEN","city":"NISHIMURAYAMA GUN ASAHI MACHI","town":"NAKAZAWA","perfecture_jp":"山形県","jp_add_1":"西村山郡朝日町","jp_add_2":"中沢"},"9901553":{"post_code":"9901553","prefecture":"YAMAGATA KEN","city":"NISHIMURAYAMA GUN ASAHI MACHI","town":"NAGANUMA","perfecture_jp":"山形県","jp_add_1":"西村山郡朝日町","jp_add_2":"長沼"},"9901421":{"post_code":"9901421","prefecture":"YAMAGATA KEN","city":"NISHIMURAYAMA GUN ASAHI MACHI","town":"FURUMAGI","perfecture_jp":"山形県","jp_add_1":"西村山郡朝日町","jp_add_2":"古槇"},"9901561":{"post_code":"9901561","prefecture":"YAMAGATA KEN","city":"NISHIMURAYAMA GUN ASAHI MACHI","town":"MATSUHODO","perfecture_jp":"山形県","jp_add_1":"西村山郡朝日町","jp_add_2":"松程"},"9901424":{"post_code":"9901424","prefecture":"YAMAGATA KEN","city":"NISHIMURAYAMA GUN ASAHI MACHI","town":"MIZUMOTO","perfecture_jp":"山形県","jp_add_1":"西村山郡朝日町","jp_add_2":"水本"},"9901551":{"post_code":"9901551","prefecture":"YAMAGATA KEN","city":"NISHIMURAYAMA GUN ASAHI MACHI","town":"MINAKA","perfecture_jp":"山形県","jp_add_1":"西村山郡朝日町","jp_add_2":"三中"},"9901442":{"post_code":"9901442","prefecture":"YAMAGATA KEN","city":"NISHIMURAYAMA GUN ASAHI MACHI","town":"MIYAJUKU","perfecture_jp":"山形県","jp_add_1":"西村山郡朝日町","jp_add_2":"宮宿"},"9901443":{"post_code":"9901443","prefecture":"YAMAGATA KEN","city":"NISHIMURAYAMA GUN ASAHI MACHI","town":"YUKITANI","perfecture_jp":"山形県","jp_add_1":"西村山郡朝日町","jp_add_2":"雪谷"},"9901411":{"post_code":"9901411","prefecture":"YAMAGATA KEN","city":"NISHIMURAYAMA GUN ASAHI MACHI","town":"WAGO","perfecture_jp":"山形県","jp_add_1":"西村山郡朝日町","jp_add_2":"和合"},"9901412":{"post_code":"9901412","prefecture":"YAMAGATA KEN","city":"NISHIMURAYAMA GUN ASAHI MACHI","town":"WAGOTAIRA","perfecture_jp":"山形県","jp_add_1":"西村山郡朝日町","jp_add_2":"和合平"},"9901100":{"post_code":"9901100","prefecture":"YAMAGATA KEN","city":"NISHIMURAYAMA GUN OE MACHI","town":"IKANIKEISAIGANAIBAAI","perfecture_jp":"山形県","jp_add_1":"西村山郡大江町","jp_add_2":""},"9901101":{"post_code":"9901101","prefecture":"YAMAGATA KEN","city":"NISHIMURAYAMA GUN OE MACHI","town":"ATERAZAWA(SONOTA)","perfecture_jp":"山形県","jp_add_1":"西村山郡大江町","jp_add_2":"左沢"},"9901122":{"post_code":"9901122","prefecture":"YAMAGATA KEN","city":"NISHIMURAYAMA GUN OE MACHI","town":"OMI","perfecture_jp":"山形県","jp_add_1":"西村山郡大江町","jp_add_2":"小見"},"9901131":{"post_code":"9901131","prefecture":"YAMAGATA KEN","city":"NISHIMURAYAMA GUN OE MACHI","town":"OGINO","perfecture_jp":"山形県","jp_add_1":"西村山郡大江町","jp_add_2":"荻野"},"9901152":{"post_code":"9901152","prefecture":"YAMAGATA KEN","city":"NISHIMURAYAMA GUN OE MACHI","town":"KAOYOSHI KO","perfecture_jp":"山形県","jp_add_1":"西村山郡大江町","jp_add_2":"顔好甲"},"9901153":{"post_code":"9901153","prefecture":"YAMAGATA KEN","city":"NISHIMURAYAMA GUN OE MACHI","town":"KAOYOSHI OTSU","perfecture_jp":"山形県","jp_add_1":"西村山郡大江町","jp_add_2":"顔好乙"},"9901276":{"post_code":"9901276","prefecture":"YAMAGATA KEN","city":"NISHIMURAYAMA GUN OE MACHI","town":"KUROMORI","perfecture_jp":"山形県","jp_add_1":"西村山郡大江町","jp_add_2":"黒森"},"9901141":{"post_code":"9901141","prefecture":"YAMAGATA KEN","city":"NISHIMURAYAMA GUN OE MACHI","town":"KOJUNA","perfecture_jp":"山形県","jp_add_1":"西村山郡大江町","jp_add_2":"小釿"},"9901273":{"post_code":"9901273","prefecture":"YAMAGATA KEN","city":"NISHIMURAYAMA GUN OE MACHI","town":"KOSEI","perfecture_jp":"山形県","jp_add_1":"西村山郡大江町","jp_add_2":"小清"},"9901142":{"post_code":"9901142","prefecture":"YAMAGATA KEN","city":"NISHIMURAYAMA GUN OE MACHI","town":"ZAIMOKU","perfecture_jp":"山形県","jp_add_1":"西村山郡大江町","jp_add_2":"材木"},"9901275":{"post_code":"9901275","prefecture":"YAMAGATA KEN","city":"NISHIMURAYAMA GUN OE MACHI","town":"SAWAGUCHI","perfecture_jp":"山形県","jp_add_1":"西村山郡大江町","jp_add_2":"沢口"},"9901113":{"post_code":"9901113","prefecture":"YAMAGATA KEN","city":"NISHIMURAYAMA GUN OE MACHI","town":"SANGO KO","perfecture_jp":"山形県","jp_add_1":"西村山郡大江町","jp_add_2":"三郷甲"},"9901112":{"post_code":"9901112","prefecture":"YAMAGATA KEN","city":"NISHIMURAYAMA GUN OE MACHI","town":"SANGO OTSU","perfecture_jp":"山形県","jp_add_1":"西村山郡大江町","jp_add_2":"三郷乙"},"9901111":{"post_code":"9901111","prefecture":"YAMAGATA KEN","city":"NISHIMURAYAMA GUN OE MACHI","town":"SANGO HEI","perfecture_jp":"山形県","jp_add_1":"西村山郡大江町","jp_add_2":"三郷丙"},"9901133":{"post_code":"9901133","prefecture":"YAMAGATA KEN","city":"NISHIMURAYAMA GUN OE MACHI","town":"SHIONOTAIRA","perfecture_jp":"山形県","jp_add_1":"西村山郡大江町","jp_add_2":"塩ノ平"},"9901144":{"post_code":"9901144","prefecture":"YAMAGATA KEN","city":"NISHIMURAYAMA GUN OE MACHI","town":"JUHATSUSAI KO","perfecture_jp":"山形県","jp_add_1":"西村山郡大江町","jp_add_2":"十八才甲"},"9901145":{"post_code":"9901145","prefecture":"YAMAGATA KEN","city":"NISHIMURAYAMA GUN OE MACHI","town":"JUHATSUSAI OTSU","perfecture_jp":"山形県","jp_add_1":"西村山郡大江町","jp_add_2":"十八才乙"},"9901271":{"post_code":"9901271","prefecture":"YAMAGATA KEN","city":"NISHIMURAYAMA GUN OE MACHI","town":"TSUKINUNO","perfecture_jp":"山形県","jp_add_1":"西村山郡大江町","jp_add_2":"月布"},"9901132":{"post_code":"9901132","prefecture":"YAMAGATA KEN","city":"NISHIMURAYAMA GUN OE MACHI","town":"DOYASHIKI","perfecture_jp":"山形県","jp_add_1":"西村山郡大江町","jp_add_2":"堂屋敷"},"9901134":{"post_code":"9901134","prefecture":"YAMAGATA KEN","city":"NISHIMURAYAMA GUN OE MACHI","town":"TOKOROBU","perfecture_jp":"山形県","jp_add_1":"西村山郡大江町","jp_add_2":"所部"},"9901114":{"post_code":"9901114","prefecture":"YAMAGATA KEN","city":"NISHIMURAYAMA GUN OE MACHI","town":"TOMIZAWA","perfecture_jp":"山形県","jp_add_1":"西村山郡大江町","jp_add_2":"富沢"},"9901146":{"post_code":"9901146","prefecture":"YAMAGATA KEN","city":"NISHIMURAYAMA GUN OE MACHI","town":"NARAYAMA","perfecture_jp":"山形県","jp_add_1":"西村山郡大江町","jp_add_2":"楢山"},"9901272":{"post_code":"9901272","prefecture":"YAMAGATA KEN","city":"NISHIMURAYAMA GUN OE MACHI","town":"NUKUMI","perfecture_jp":"山形県","jp_add_1":"西村山郡大江町","jp_add_2":"貫見"},"9901143":{"post_code":"9901143","prefecture":"YAMAGATA KEN","city":"NISHIMURAYAMA GUN OE MACHI","town":"HASHIKAMI","perfecture_jp":"山形県","jp_add_1":"西村山郡大江町","jp_add_2":"橋上"},"9901161":{"post_code":"9901161","prefecture":"YAMAGATA KEN","city":"NISHIMURAYAMA GUN OE MACHI","town":"HARADA","perfecture_jp":"山形県","jp_add_1":"西村山郡大江町","jp_add_2":"原田"},"9901121":{"post_code":"9901121","prefecture":"YAMAGATA KEN","city":"NISHIMURAYAMA GUN OE MACHI","town":"FUJITA","perfecture_jp":"山形県","jp_add_1":"西村山郡大江町","jp_add_2":"藤田"},"9901154":{"post_code":"9901154","prefecture":"YAMAGATA KEN","city":"NISHIMURAYAMA GUN OE MACHI","town":"HONGO KO","perfecture_jp":"山形県","jp_add_1":"西村山郡大江町","jp_add_2":"本郷甲"},"9901151":{"post_code":"9901151","prefecture":"YAMAGATA KEN","city":"NISHIMURAYAMA GUN OE MACHI","town":"HONGO OTSU","perfecture_jp":"山形県","jp_add_1":"西村山郡大江町","jp_add_2":"本郷乙"},"9901164":{"post_code":"9901164","prefecture":"YAMAGATA KEN","city":"NISHIMURAYAMA GUN OE MACHI","town":"HONGO HEI","perfecture_jp":"山形県","jp_add_1":"西村山郡大江町","jp_add_2":"本郷丙"},"9901163":{"post_code":"9901163","prefecture":"YAMAGATA KEN","city":"NISHIMURAYAMA GUN OE MACHI","town":"HONGO TEI","perfecture_jp":"山形県","jp_add_1":"西村山郡大江町","jp_add_2":"本郷丁"},"9901165":{"post_code":"9901165","prefecture":"YAMAGATA KEN","city":"NISHIMURAYAMA GUN OE MACHI","town":"HONGO BO","perfecture_jp":"山形県","jp_add_1":"西村山郡大江町","jp_add_2":"本郷戊"},"9901162":{"post_code":"9901162","prefecture":"YAMAGATA KEN","city":"NISHIMURAYAMA GUN OE MACHI","town":"HONGO KI","perfecture_jp":"山形県","jp_add_1":"西村山郡大江町","jp_add_2":"本郷己"},"9901274":{"post_code":"9901274","prefecture":"YAMAGATA KEN","city":"NISHIMURAYAMA GUN OE MACHI","town":"YANAGAWA","perfecture_jp":"山形県","jp_add_1":"西村山郡大江町","jp_add_2":"柳川"}}