{"9910000":{"post_code":"9910000","prefecture":"YAMAGATA KEN","city":"SAGAE SHI","town":"IKANIKEISAIGANAIBAAI","perfecture_jp":"山形県","jp_add_1":"寒河江市","jp_add_2":""},"9910027":{"post_code":"9910027","prefecture":"YAMAGATA KEN","city":"SAGAE SHI","town":"ISHIMOCHIMACHI","perfecture_jp":"山形県","jp_add_1":"寒河江市","jp_add_2":"石持町"},"9910057":{"post_code":"9910057","prefecture":"YAMAGATA KEN","city":"SAGAE SHI","town":"UCHINOFUKURO","perfecture_jp":"山形県","jp_add_1":"寒河江市","jp_add_2":"内ノ袋"},"9910056":{"post_code":"9910056","prefecture":"YAMAGATA KEN","city":"SAGAE SHI","town":"OTOMOMAE","perfecture_jp":"山形県","jp_add_1":"寒河江市","jp_add_2":"落衣前"},"9910006":{"post_code":"9910006","prefecture":"YAMAGATA KEN","city":"SAGAE SHI","town":"YUGAE","perfecture_jp":"山形県","jp_add_1":"寒河江市","jp_add_2":"上河原"},"9910008":{"post_code":"9910008","prefecture":"YAMAGATA KEN","city":"SAGAE SHI","town":"KUMOGAWARA","perfecture_jp":"山形県","jp_add_1":"寒河江市","jp_add_2":"菊地堂"},"9910044":{"post_code":"9910044","prefecture":"YAMAGATA KEN","city":"SAGAE SHI","town":"KOSHIIZAKACHO","perfecture_jp":"山形県","jp_add_1":"寒河江市","jp_add_2":"越井坂町"},"9910045":{"post_code":"9910045","prefecture":"YAMAGATA KEN","city":"SAGAE SHI","town":"KONUMACHO","perfecture_jp":"山形県","jp_add_1":"寒河江市","jp_add_2":"小沼町"},"9910035":{"post_code":"9910035","prefecture":"YAMAGATA KEN","city":"SAGAE SHI","town":"SAIWAICHO","perfecture_jp":"山形県","jp_add_1":"寒河江市","jp_add_2":"幸町"},"9910034":{"post_code":"9910034","prefecture":"YAMAGATA KEN","city":"SAGAE SHI","town":"SAKAECHO","perfecture_jp":"山形県","jp_add_1":"寒河江市","jp_add_2":"栄町"},"9910041":{"post_code":"9910041","prefecture":"YAMAGATA KEN","city":"SAGAE SHI","town":"SAGAE","perfecture_jp":"山形県","jp_add_1":"寒河江市","jp_add_2":"寒河江"},"9910052":{"post_code":"9910052","prefecture":"YAMAGATA KEN","city":"SAGAE SHI","town":"SACHITAMACHI","perfecture_jp":"山形県","jp_add_1":"寒河江市","jp_add_2":"幸田町"},"9910063":{"post_code":"9910063","prefecture":"YAMAGATA KEN","city":"SAGAE SHI","town":"SHIBAHASHI","perfecture_jp":"山形県","jp_add_1":"寒河江市","jp_add_2":"柴橋"},"9910043":{"post_code":"9910043","prefecture":"YAMAGATA KEN","city":"SAGAE SHI","town":"SHIMA","perfecture_jp":"山形県","jp_add_1":"寒河江市","jp_add_2":"島"},"9910002":{"post_code":"9910002","prefecture":"YAMAGATA KEN","city":"SAGAE SHI","town":"SHIMOGAWARA","perfecture_jp":"山形県","jp_add_1":"寒河江市","jp_add_2":"下河原"},"9910047":{"post_code":"9910047","prefecture":"YAMAGATA KEN","city":"SAGAE SHI","town":"SHINZAN","perfecture_jp":"山形県","jp_add_1":"寒河江市","jp_add_2":"新山"},"9910012":{"post_code":"9910012","prefecture":"YAMAGATA KEN","city":"SAGAE SHI","town":"SHINZAMMACHI","perfecture_jp":"山形県","jp_add_1":"寒河江市","jp_add_2":"新山町"},"9910033":{"post_code":"9910033","prefecture":"YAMAGATA KEN","city":"SAGAE SHI","town":"SUEHIROCHO","perfecture_jp":"山形県","jp_add_1":"寒河江市","jp_add_2":"末広町"},"9910013":{"post_code":"9910013","prefecture":"YAMAGATA KEN","city":"SAGAE SHI","town":"TAKADA","perfecture_jp":"山形県","jp_add_1":"寒河江市","jp_add_2":"高田"},"9910042":{"post_code":"9910042","prefecture":"YAMAGATA KEN","city":"SAGAE SHI","town":"TAKAYA","perfecture_jp":"山形県","jp_add_1":"寒河江市","jp_add_2":"高屋"},"9910021":{"post_code":"9910021","prefecture":"YAMAGATA KEN","city":"SAGAE SHI","town":"CHUO","perfecture_jp":"山形県","jp_add_1":"寒河江市","jp_add_2":"中央"},"9910061":{"post_code":"9910061","prefecture":"YAMAGATA KEN","city":"SAGAE SHI","town":"CHUOKOGYODANCHI(SONOTA)","perfecture_jp":"山形県","jp_add_1":"寒河江市","jp_add_2":"中央工業団地"},"9910007":{"post_code":"9910007","prefecture":"YAMAGATA KEN","city":"SAGAE SHI","town":"DOSHO","perfecture_jp":"山形県","jp_add_1":"寒河江市","jp_add_2":"道生"},"9910005":{"post_code":"9910005","prefecture":"YAMAGATA KEN","city":"SAGAE SHI","town":"NAKAGAWARA","perfecture_jp":"山形県","jp_add_1":"寒河江市","jp_add_2":"中河原"},"9910065":{"post_code":"9910065","prefecture":"YAMAGATA KEN","city":"SAGAE SHI","town":"NAKAGO","perfecture_jp":"山形県","jp_add_1":"寒河江市","jp_add_2":"中郷"},"9910054":{"post_code":"9910054","prefecture":"YAMAGATA KEN","city":"SAGAE SHI","town":"NAKAYACHI","perfecture_jp":"山形県","jp_add_1":"寒河江市","jp_add_2":"仲谷地"},"9910022":{"post_code":"9910022","prefecture":"YAMAGATA KEN","city":"SAGAE SHI","town":"NANOKAMACHI","perfecture_jp":"山形県","jp_add_1":"寒河江市","jp_add_2":"七日町"},"9910003":{"post_code":"9910003","prefecture":"YAMAGATA KEN","city":"SAGAE SHI","town":"NISHINE","perfecture_jp":"山形県","jp_add_1":"寒河江市","jp_add_2":"西根"},"9910004":{"post_code":"9910004","prefecture":"YAMAGATA KEN","city":"SAGAE SHI","town":"NISHINEKITAMACHI","perfecture_jp":"山形県","jp_add_1":"寒河江市","jp_add_2":"西根北町"},"9910011":{"post_code":"9910011","prefecture":"YAMAGATA KEN","city":"SAGAE SHI","town":"NITTA","perfecture_jp":"山形県","jp_add_1":"寒河江市","jp_add_2":"日田"},"9910001":{"post_code":"9910001","prefecture":"YAMAGATA KEN","city":"SAGAE SHI","town":"NYUGURA","perfecture_jp":"山形県","jp_add_1":"寒河江市","jp_add_2":"入倉"},"9910046":{"post_code":"9910046","prefecture":"YAMAGATA KEN","city":"SAGAE SHI","town":"HIGASHISHINZAMMACHI","perfecture_jp":"山形県","jp_add_1":"寒河江市","jp_add_2":"東新山町"},"9910064":{"post_code":"9910064","prefecture":"YAMAGATA KEN","city":"SAGAE SHI","town":"HIRASHIO","perfecture_jp":"山形県","jp_add_1":"寒河江市","jp_add_2":"平塩"},"9910055":{"post_code":"9910055","prefecture":"YAMAGATA KEN","city":"SAGAE SHI","town":"FUNABASHIMACHI","perfecture_jp":"山形県","jp_add_1":"寒河江市","jp_add_2":"船橋町"},"9910028":{"post_code":"9910028","prefecture":"YAMAGATA KEN","city":"SAGAE SHI","town":"HONAMI","perfecture_jp":"山形県","jp_add_1":"寒河江市","jp_add_2":"ほなみ"},"9910031":{"post_code":"9910031","prefecture":"YAMAGATA KEN","city":"SAGAE SHI","town":"HONCHO","perfecture_jp":"山形県","jp_add_1":"寒河江市","jp_add_2":"本町"},"9910066":{"post_code":"9910066","prefecture":"YAMAGATA KEN","city":"SAGAE SHI","town":"MATSUKAWA","perfecture_jp":"山形県","jp_add_1":"寒河江市","jp_add_2":"松川"},"9910023":{"post_code":"9910023","prefecture":"YAMAGATA KEN","city":"SAGAE SHI","town":"MARUNOCHI","perfecture_jp":"山形県","jp_add_1":"寒河江市","jp_add_2":"丸内"},"9910048":{"post_code":"9910048","prefecture":"YAMAGATA KEN","city":"SAGAE SHI","town":"MIZUKI","perfecture_jp":"山形県","jp_add_1":"寒河江市","jp_add_2":"みずき"},"9910062":{"post_code":"9910062","prefecture":"YAMAGATA KEN","city":"SAGAE SHI","town":"MIDORICHO","perfecture_jp":"山形県","jp_add_1":"寒河江市","jp_add_2":"緑町"},"9910032":{"post_code":"9910032","prefecture":"YAMAGATA KEN","city":"SAGAE SHI","town":"MINAMIMACHI","perfecture_jp":"山形県","jp_add_1":"寒河江市","jp_add_2":"南町"},"9910049":{"post_code":"9910049","prefecture":"YAMAGATA KEN","city":"SAGAE SHI","town":"MOTODATE","perfecture_jp":"山形県","jp_add_1":"寒河江市","jp_add_2":"本楯"},"9910053":{"post_code":"9910053","prefecture":"YAMAGATA KEN","city":"SAGAE SHI","town":"MOTOMACHI","perfecture_jp":"山形県","jp_add_1":"寒河江市","jp_add_2":"元町"},"9910026":{"post_code":"9910026","prefecture":"YAMAGATA KEN","city":"SAGAE SHI","town":"YAMAGISHICHO","perfecture_jp":"山形県","jp_add_1":"寒河江市","jp_add_2":"山岸町"},"9910025":{"post_code":"9910025","prefecture":"YAMAGATA KEN","city":"SAGAE SHI","town":"YAWATAMACHI","perfecture_jp":"山形県","jp_add_1":"寒河江市","jp_add_2":"八幡町"},"9910024":{"post_code":"9910024","prefecture":"YAMAGATA KEN","city":"SAGAE SHI","town":"ROKKUMACHI","perfecture_jp":"山形県","jp_add_1":"寒河江市","jp_add_2":"六供町"},"9910051":{"post_code":"9910051","prefecture":"YAMAGATA KEN","city":"SAGAE SHI","town":"WAKABACHO","perfecture_jp":"山形県","jp_add_1":"寒河江市","jp_add_2":"若葉町"},"9910801":{"post_code":"9910801","prefecture":"YAMAGATA KEN","city":"NISHIMURAYAMA GUN OE MACHI","town":"2257-28.2316-2318.2430-1-2431-75)","perfecture_jp":"山形県","jp_add_1":"西村山郡大江町","jp_add_2":"左沢"}}