{"9940000":{"post_code":"9940000","prefecture":"YAMAGATA KEN","city":"TENDO SHI","town":"IKANIKEISAIGANAIBAAI","perfecture_jp":"山形県","jp_add_1":"天童市","jp_add_2":""},"9940054":{"post_code":"9940054","prefecture":"YAMAGATA KEN","city":"TENDO SHI","town":"ARAYA","perfecture_jp":"山形県","jp_add_1":"天童市","jp_add_2":"荒谷"},"9940057":{"post_code":"9940057","prefecture":"YAMAGATA KEN","city":"TENDO SHI","town":"ISHIDORII","perfecture_jp":"山形県","jp_add_1":"天童市","jp_add_2":"石鳥居"},"9940015":{"post_code":"9940015","prefecture":"YAMAGATA KEN","city":"TENDO SHI","town":"IZUMICHO","perfecture_jp":"山形県","jp_add_1":"天童市","jp_add_2":"泉町"},"9940041":{"post_code":"9940041","prefecture":"YAMAGATA KEN","city":"TENDO SHI","town":"ITSUKAMACHI","perfecture_jp":"山形県","jp_add_1":"天童市","jp_add_2":"五日町"},"9940078":{"post_code":"9940078","prefecture":"YAMAGATA KEN","city":"TENDO SHI","town":"IMAMACHI","perfecture_jp":"山形県","jp_add_1":"天童市","jp_add_2":"今町"},"9940047":{"post_code":"9940047","prefecture":"YAMAGATA KEN","city":"TENDO SHI","town":"EKINISHI","perfecture_jp":"山形県","jp_add_1":"天童市","jp_add_2":"駅西"},"9940013":{"post_code":"9940013","prefecture":"YAMAGATA KEN","city":"TENDO SHI","town":"OINOMORI","perfecture_jp":"山形県","jp_add_1":"天童市","jp_add_2":"老野森"},"9940007":{"post_code":"9940007","prefecture":"YAMAGATA KEN","city":"TENDO SHI","town":"OSHIMIZU","perfecture_jp":"山形県","jp_add_1":"天童市","jp_add_2":"大清水"},"9940079":{"post_code":"9940079","prefecture":"YAMAGATA KEN","city":"TENDO SHI","town":"OMACHI","perfecture_jp":"山形県","jp_add_1":"天童市","jp_add_2":"大町"},"9940003":{"post_code":"9940003","prefecture":"YAMAGATA KEN","city":"TENDO SHI","town":"KASHIWAGICHO","perfecture_jp":"山形県","jp_add_1":"天童市","jp_add_2":"柏木町"},"9940024":{"post_code":"9940024","prefecture":"YAMAGATA KEN","city":"TENDO SHI","town":"KAMATA","perfecture_jp":"山形県","jp_add_1":"天童市","jp_add_2":"鎌田"},"9940025":{"post_code":"9940025","prefecture":"YAMAGATA KEN","city":"TENDO SHI","town":"KAMATAHONCHO","perfecture_jp":"山形県","jp_add_1":"天童市","jp_add_2":"鎌田本町"},"9940053":{"post_code":"9940053","prefecture":"YAMAGATA KEN","city":"TENDO SHI","town":"KAMIOGINOTO","perfecture_jp":"山形県","jp_add_1":"天童市","jp_add_2":"上荻野戸"},"9940103":{"post_code":"9940103","prefecture":"YAMAGATA KEN","city":"TENDO SHI","town":"KAWARAGO","perfecture_jp":"山形県","jp_add_1":"天童市","jp_add_2":"川原子"},"9940011":{"post_code":"9940011","prefecture":"YAMAGATA KEN","city":"TENDO SHI","town":"KITAKUNOMOTO","perfecture_jp":"山形県","jp_add_1":"天童市","jp_add_2":"北久野本"},"9940042":{"post_code":"9940042","prefecture":"YAMAGATA KEN","city":"TENDO SHI","town":"KITAME","perfecture_jp":"山形県","jp_add_1":"天童市","jp_add_2":"北目"},"9940012":{"post_code":"9940012","prefecture":"YAMAGATA KEN","city":"TENDO SHI","town":"KUNOMOTO","perfecture_jp":"山形県","jp_add_1":"天童市","jp_add_2":"久野本"},"9940077":{"post_code":"9940077","prefecture":"YAMAGATA KEN","city":"TENDO SHI","town":"KUBONOME","perfecture_jp":"山形県","jp_add_1":"天童市","jp_add_2":"窪野目"},"9940075":{"post_code":"9940075","prefecture":"YAMAGATA KEN","city":"TENDO SHI","town":"KURAZO","perfecture_jp":"山形県","jp_add_1":"天童市","jp_add_2":"蔵増"},"9940028":{"post_code":"9940028","prefecture":"YAMAGATA KEN","city":"TENDO SHI","town":"KUWANOMACHI","perfecture_jp":"山形県","jp_add_1":"天童市","jp_add_2":"鍬ノ町"},"9940032":{"post_code":"9940032","prefecture":"YAMAGATA KEN","city":"TENDO SHI","town":"KOJI","perfecture_jp":"山形県","jp_add_1":"天童市","jp_add_2":"小路"},"9940004":{"post_code":"9940004","prefecture":"YAMAGATA KEN","city":"TENDO SHI","town":"KOSEKI","perfecture_jp":"山形県","jp_add_1":"天童市","jp_add_2":"小関"},"9940027":{"post_code":"9940027","prefecture":"YAMAGATA KEN","city":"TENDO SHI","town":"SAKURAMACHI","perfecture_jp":"山形県","jp_add_1":"天童市","jp_add_2":"桜町"},"9940052":{"post_code":"9940052","prefecture":"YAMAGATA KEN","city":"TENDO SHI","town":"SHIMOGINOTO","perfecture_jp":"山形県","jp_add_1":"天童市","jp_add_2":"下荻野戸"},"9940065":{"post_code":"9940065","prefecture":"YAMAGATA KEN","city":"TENDO SHI","town":"SHOGE","perfecture_jp":"山形県","jp_add_1":"天童市","jp_add_2":"清池"},"9940069":{"post_code":"9940069","prefecture":"YAMAGATA KEN","city":"TENDO SHI","town":"SHOGE HIGASHI","perfecture_jp":"山形県","jp_add_1":"天童市","jp_add_2":"清池東"},"9940005":{"post_code":"9940005","prefecture":"YAMAGATA KEN","city":"TENDO SHI","town":"TAKAGI","perfecture_jp":"山形県","jp_add_1":"天童市","jp_add_2":"高木"},"9940068":{"post_code":"9940068","prefecture":"YAMAGATA KEN","city":"TENDO SHI","town":"TAKADAMA","perfecture_jp":"山形県","jp_add_1":"天童市","jp_add_2":"高擶"},"9940076":{"post_code":"9940076","prefecture":"YAMAGATA KEN","city":"TENDO SHI","town":"TAKANOBE","perfecture_jp":"山形県","jp_add_1":"天童市","jp_add_2":"高野辺"},"9940046":{"post_code":"9940046","prefecture":"YAMAGATA KEN","city":"TENDO SHI","town":"TAZURUCHO","perfecture_jp":"山形県","jp_add_1":"天童市","jp_add_2":"田鶴町"},"9940104":{"post_code":"9940104","prefecture":"YAMAGATA KEN","city":"TENDO SHI","town":"TAMUGINO","perfecture_jp":"山形県","jp_add_1":"天童市","jp_add_2":"田麦野"},"9940072":{"post_code":"9940072","prefecture":"YAMAGATA KEN","city":"TENDO SHI","town":"TSUKANOME","perfecture_jp":"山形県","jp_add_1":"天童市","jp_add_2":"塚野目"},"9940073":{"post_code":"9940073","prefecture":"YAMAGATA KEN","city":"TENDO SHI","town":"TERAZU","perfecture_jp":"山形県","jp_add_1":"天童市","jp_add_2":"寺津"},"9940031":{"post_code":"9940031","prefecture":"YAMAGATA KEN","city":"TENDO SHI","town":"TENDO NAKA","perfecture_jp":"山形県","jp_add_1":"天童市","jp_add_2":"天童中"},"9940023":{"post_code":"9940023","prefecture":"YAMAGATA KEN","city":"TENDO SHI","town":"TOZENJI","perfecture_jp":"山形県","jp_add_1":"天童市","jp_add_2":"東善寺"},"9940074":{"post_code":"9940074","prefecture":"YAMAGATA KEN","city":"TENDO SHI","town":"TONAISHINDEN","perfecture_jp":"山形県","jp_add_1":"天童市","jp_add_2":"藤内新田"},"9940102":{"post_code":"9940102","prefecture":"YAMAGATA KEN","city":"TENDO SHI","town":"DOMAN","perfecture_jp":"山形県","jp_add_1":"天童市","jp_add_2":"道満"},"9940064":{"post_code":"9940064","prefecture":"YAMAGATA KEN","city":"TENDO SHI","town":"NAKAZATO","perfecture_jp":"山形県","jp_add_1":"天童市","jp_add_2":"中里"},"9940045":{"post_code":"9940045","prefecture":"YAMAGATA KEN","city":"TENDO SHI","town":"NAKAMACHI","perfecture_jp":"山形県","jp_add_1":"天童市","jp_add_2":"仲町"},"9940066":{"post_code":"9940066","prefecture":"YAMAGATA KEN","city":"TENDO SHI","town":"NAGAOKA","perfecture_jp":"山形県","jp_add_1":"天童市","jp_add_2":"長岡"},"9940062":{"post_code":"9940062","prefecture":"YAMAGATA KEN","city":"TENDO SHI","town":"NAGAOKA KITA","perfecture_jp":"山形県","jp_add_1":"天童市","jp_add_2":"長岡北"},"9940051":{"post_code":"9940051","prefecture":"YAMAGATA KEN","city":"TENDO SHI","town":"NARAZAWA","perfecture_jp":"山形県","jp_add_1":"天童市","jp_add_2":"奈良沢"},"9940006":{"post_code":"9940006","prefecture":"YAMAGATA KEN","city":"TENDO SHI","town":"NARIU","perfecture_jp":"山形県","jp_add_1":"天童市","jp_add_2":"成生"},"9940014":{"post_code":"9940014","prefecture":"YAMAGATA KEN","city":"TENDO SHI","town":"NUKAZUKA","perfecture_jp":"山形県","jp_add_1":"天童市","jp_add_2":"糠塚"},"9940022":{"post_code":"9940022","prefecture":"YAMAGATA KEN","city":"TENDO SHI","town":"NUKUZU","perfecture_jp":"山形県","jp_add_1":"天童市","jp_add_2":"貫津"},"9940067":{"post_code":"9940067","prefecture":"YAMAGATA KEN","city":"TENDO SHI","town":"HAGA","perfecture_jp":"山形県","jp_add_1":"天童市","jp_add_2":"芳賀"},"9940055":{"post_code":"9940055","prefecture":"YAMAGATA KEN","city":"TENDO SHI","town":"HARAMACHI","perfecture_jp":"山形県","jp_add_1":"天童市","jp_add_2":"原町"},"9940001":{"post_code":"9940001","prefecture":"YAMAGATA KEN","city":"TENDO SHI","town":"BANDAI","perfecture_jp":"山形県","jp_add_1":"天童市","jp_add_2":"万代"},"9940016":{"post_code":"9940016","prefecture":"YAMAGATA KEN","city":"TENDO SHI","town":"HIGASHIKUNOMOTO","perfecture_jp":"山形県","jp_add_1":"天童市","jp_add_2":"東久野本"},"9940063":{"post_code":"9940063","prefecture":"YAMAGATA KEN","city":"TENDO SHI","town":"HIGASHINAGAOKA","perfecture_jp":"山形県","jp_add_1":"天童市","jp_add_2":"東長岡"},"9940061":{"post_code":"9940061","prefecture":"YAMAGATA KEN","city":"TENDO SHI","town":"HIGASHIHAGA","perfecture_jp":"山形県","jp_add_1":"天童市","jp_add_2":"東芳賀"},"9940026":{"post_code":"9940026","prefecture":"YAMAGATA KEN","city":"TENDO SHI","town":"HIGASHIHONCHO","perfecture_jp":"山形県","jp_add_1":"天童市","jp_add_2":"東本町"},"9940044":{"post_code":"9940044","prefecture":"YAMAGATA KEN","city":"TENDO SHI","town":"HITOICHIMACHI","perfecture_jp":"山形県","jp_add_1":"天童市","jp_add_2":"一日町"},"9940056":{"post_code":"9940056","prefecture":"YAMAGATA KEN","city":"TENDO SHI","town":"HOSHINUNO","perfecture_jp":"山形県","jp_add_1":"天童市","jp_add_2":"干布"},"9940034":{"post_code":"9940034","prefecture":"YAMAGATA KEN","city":"TENDO SHI","town":"HONCHO","perfecture_jp":"山形県","jp_add_1":"天童市","jp_add_2":"本町"},"9940048":{"post_code":"9940048","prefecture":"YAMAGATA KEN","city":"TENDO SHI","town":"MAJIRIE","perfecture_jp":"山形県","jp_add_1":"天童市","jp_add_2":"交り江"},"9940043":{"post_code":"9940043","prefecture":"YAMAGATA KEN","city":"TENDO SHI","town":"MATSUSHIROCHO","perfecture_jp":"山形県","jp_add_1":"天童市","jp_add_2":"松城町"},"9940002":{"post_code":"9940002","prefecture":"YAMAGATA KEN","city":"TENDO SHI","town":"MIDAREGAWA","perfecture_jp":"山形県","jp_add_1":"天童市","jp_add_2":"乱川"},"9940033":{"post_code":"9940033","prefecture":"YAMAGATA KEN","city":"TENDO SHI","town":"MIKKAMACHI","perfecture_jp":"山形県","jp_add_1":"天童市","jp_add_2":"三日町"},"9940081":{"post_code":"9940081","prefecture":"YAMAGATA KEN","city":"TENDO SHI","town":"MINAMIOBATA","perfecture_jp":"山形県","jp_add_1":"天童市","jp_add_2":"南小畑"},"9940049":{"post_code":"9940049","prefecture":"YAMAGATA KEN","city":"TENDO SHI","town":"MINAMIMACHI","perfecture_jp":"山形県","jp_add_1":"天童市","jp_add_2":"南町"},"9940071":{"post_code":"9940071","prefecture":"YAMAGATA KEN","city":"TENDO SHI","town":"YANOME","perfecture_jp":"山形県","jp_add_1":"天童市","jp_add_2":"矢野目"},"9940101":{"post_code":"9940101","prefecture":"YAMAGATA KEN","city":"TENDO SHI","town":"YAMAGUCHI","perfecture_jp":"山形県","jp_add_1":"天童市","jp_add_2":"山口"},"9940021":{"post_code":"9940021","prefecture":"YAMAGATA KEN","city":"TENDO SHI","town":"YAMAMOTO","perfecture_jp":"山形県","jp_add_1":"天童市","jp_add_2":"山元"}}