{"9960000":{"post_code":"9960000","prefecture":"YAMAGATA KEN","city":"SHINJO SHI","town":"IKANIKEISAIGANAIBAAI","perfecture_jp":"山形県","jp_add_1":"新庄市","jp_add_2":""},"9960078":{"post_code":"9960078","prefecture":"YAMAGATA KEN","city":"SHINJO SHI","town":"ARAMACHI","perfecture_jp":"山形県","jp_add_1":"新庄市","jp_add_2":"新町"},"9960086":{"post_code":"9960086","prefecture":"YAMAGATA KEN","city":"SHINJO SHI","town":"ISHIKAWAMACHI","perfecture_jp":"山形県","jp_add_1":"新庄市","jp_add_2":"石川町"},"9960001":{"post_code":"9960001","prefecture":"YAMAGATA KEN","city":"SHINJO SHI","town":"ITSUKAMACHI","perfecture_jp":"山形県","jp_add_1":"新庄市","jp_add_2":"五日町"},"9960084":{"post_code":"9960084","prefecture":"YAMAGATA KEN","city":"SHINJO SHI","town":"OTEMACHI","perfecture_jp":"山形県","jp_add_1":"新庄市","jp_add_2":"大手町"},"9960026":{"post_code":"9960026","prefecture":"YAMAGATA KEN","city":"SHINJO SHI","town":"OMACHI","perfecture_jp":"山形県","jp_add_1":"新庄市","jp_add_2":"大町"},"9960023":{"post_code":"9960023","prefecture":"YAMAGATA KEN","city":"SHINJO SHI","town":"OKINOMACHI","perfecture_jp":"山形県","jp_add_1":"新庄市","jp_add_2":"沖の町"},"9960074":{"post_code":"9960074","prefecture":"YAMAGATA KEN","city":"SHINJO SHI","town":"ODASHIMA","perfecture_jp":"山形県","jp_add_1":"新庄市","jp_add_2":"小田島"},"9960071":{"post_code":"9960071","prefecture":"YAMAGATA KEN","city":"SHINJO SHI","town":"ODASHIMAMACHI","perfecture_jp":"山形県","jp_add_1":"新庄市","jp_add_2":"小田島町"},"9960002":{"post_code":"9960002","prefecture":"YAMAGATA KEN","city":"SHINJO SHI","town":"KANAZAWA","perfecture_jp":"山形県","jp_add_1":"新庄市","jp_add_2":"金沢"},"9960032":{"post_code":"9960032","prefecture":"YAMAGATA KEN","city":"SHINJO SHI","town":"KAMIKANEZAWAMACHI","perfecture_jp":"山形県","jp_add_1":"新庄市","jp_add_2":"上金沢町"},"9960082":{"post_code":"9960082","prefecture":"YAMAGATA KEN","city":"SHINJO SHI","town":"KITAMACHI","perfecture_jp":"山形県","jp_add_1":"新庄市","jp_add_2":"北町"},"9960073":{"post_code":"9960073","prefecture":"YAMAGATA KEN","city":"SHINJO SHI","town":"SAKAEMACHI","perfecture_jp":"山形県","jp_add_1":"新庄市","jp_add_2":"栄町"},"9960033":{"post_code":"9960033","prefecture":"YAMAGATA KEN","city":"SHINJO SHI","town":"SHIMOKANEZAWAMACHI","perfecture_jp":"山形県","jp_add_1":"新庄市","jp_add_2":"下金沢町"},"9960034":{"post_code":"9960034","prefecture":"YAMAGATA KEN","city":"SHINJO SHI","town":"SHIMODAMACHI","perfecture_jp":"山形県","jp_add_1":"新庄市","jp_add_2":"下田町"},"9960077":{"post_code":"9960077","prefecture":"YAMAGATA KEN","city":"SHINJO SHI","town":"JONAMMACHI","perfecture_jp":"山形県","jp_add_1":"新庄市","jp_add_2":"城南町"},"9960076":{"post_code":"9960076","prefecture":"YAMAGATA KEN","city":"SHINJO SHI","town":"SHIRONISHIMACHI","perfecture_jp":"山形県","jp_add_1":"新庄市","jp_add_2":"城西町"},"9960031":{"post_code":"9960031","prefecture":"YAMAGATA KEN","city":"SHINJO SHI","town":"SUEHIROMACHI","perfecture_jp":"山形県","jp_add_1":"新庄市","jp_add_2":"末広町"},"9960022":{"post_code":"9960022","prefecture":"YAMAGATA KEN","city":"SHINJO SHI","town":"SUMIYOSHIMACHI","perfecture_jp":"山形県","jp_add_1":"新庄市","jp_add_2":"住吉町"},"9960079":{"post_code":"9960079","prefecture":"YAMAGATA KEN","city":"SHINJO SHI","town":"SEMMONCHO","perfecture_jp":"山形県","jp_add_1":"新庄市","jp_add_2":"千門町"},"9960024":{"post_code":"9960024","prefecture":"YAMAGATA KEN","city":"SHINJO SHI","town":"TAMOMMACHI","perfecture_jp":"山形県","jp_add_1":"新庄市","jp_add_2":"多門町"},"9960052":{"post_code":"9960052","prefecture":"YAMAGATA KEN","city":"SHINJO SHI","town":"TSUNOZAWA","perfecture_jp":"山形県","jp_add_1":"新庄市","jp_add_2":"角沢"},"9960035":{"post_code":"9960035","prefecture":"YAMAGATA KEN","city":"SHINJO SHI","town":"TEPPOMACHI","perfecture_jp":"山形県","jp_add_1":"新庄市","jp_add_2":"鉄砲町"},"9960091":{"post_code":"9960091","prefecture":"YAMAGATA KEN","city":"SHINJO SHI","town":"TOKAMACHI(SONOTA)","perfecture_jp":"山形県","jp_add_1":"新庄市","jp_add_2":"十日町"},"9960021":{"post_code":"9960021","prefecture":"YAMAGATA KEN","city":"SHINJO SHI","town":"TOKIHAMACHI","perfecture_jp":"山形県","jp_add_1":"新庄市","jp_add_2":"常葉町"},"9960061":{"post_code":"9960061","prefecture":"YAMAGATA KEN","city":"SHINJO SHI","town":"TOBITA","perfecture_jp":"山形県","jp_add_1":"新庄市","jp_add_2":"飛田"},"9960041":{"post_code":"9960041","prefecture":"YAMAGATA KEN","city":"SHINJO SHI","town":"TORIGOE","perfecture_jp":"山形県","jp_add_1":"新庄市","jp_add_2":"鳥越"},"9960081":{"post_code":"9960081","prefecture":"YAMAGATA KEN","city":"SHINJO SHI","town":"NAKAMICHIMACHI","perfecture_jp":"山形県","jp_add_1":"新庄市","jp_add_2":"中道町"},"9960054":{"post_code":"9960054","prefecture":"YAMAGATA KEN","city":"SHINJO SHI","town":"NIKEN","perfecture_jp":"山形県","jp_add_1":"新庄市","jp_add_2":"仁間"},"9960087":{"post_code":"9960087","prefecture":"YAMAGATA KEN","city":"SHINJO SHI","town":"NUMATA","perfecture_jp":"山形県","jp_add_1":"新庄市","jp_add_2":"沼田"},"9960083":{"post_code":"9960083","prefecture":"YAMAGATA KEN","city":"SHINJO SHI","town":"NUMATAMACHI","perfecture_jp":"山形県","jp_add_1":"新庄市","jp_add_2":"沼田町"},"9960028":{"post_code":"9960028","prefecture":"YAMAGATA KEN","city":"SHINJO SHI","town":"BAMBACHO","perfecture_jp":"山形県","jp_add_1":"新庄市","jp_add_2":"万場町"},"9960011":{"post_code":"9960011","prefecture":"YAMAGATA KEN","city":"SHINJO SHI","town":"HIGASHIYACHITAMACHI","perfecture_jp":"山形県","jp_add_1":"新庄市","jp_add_2":"東谷地田町"},"9960088":{"post_code":"9960088","prefecture":"YAMAGATA KEN","city":"SHINJO SHI","town":"HINOKICHO","perfecture_jp":"山形県","jp_add_1":"新庄市","jp_add_2":"桧町"},"9960053":{"post_code":"9960053","prefecture":"YAMAGATA KEN","city":"SHINJO SHI","town":"FUKUDA","perfecture_jp":"山形県","jp_add_1":"新庄市","jp_add_2":"福田"},"9960085":{"post_code":"9960085","prefecture":"YAMAGATA KEN","city":"SHINJO SHI","town":"HORIBATAMACHI","perfecture_jp":"山形県","jp_add_1":"新庄市","jp_add_2":"堀端町"},"9960027":{"post_code":"9960027","prefecture":"YAMAGATA KEN","city":"SHINJO SHI","town":"HOMMACHI","perfecture_jp":"山形県","jp_add_1":"新庄市","jp_add_2":"本町"},"9960111":{"post_code":"9960111","prefecture":"YAMAGATA KEN","city":"SHINJO SHI","town":"MASUGATA","perfecture_jp":"山形県","jp_add_1":"新庄市","jp_add_2":"升形"},"9960051":{"post_code":"9960051","prefecture":"YAMAGATA KEN","city":"SHINJO SHI","town":"MATSUMOTO","perfecture_jp":"山形県","jp_add_1":"新庄市","jp_add_2":"松本"},"9960072":{"post_code":"9960072","prefecture":"YAMAGATA KEN","city":"SHINJO SHI","town":"MIYAUCHIMACHI","perfecture_jp":"山形県","jp_add_1":"新庄市","jp_add_2":"宮内町"},"9960112":{"post_code":"9960112","prefecture":"YAMAGATA KEN","city":"SHINJO SHI","town":"MOTOAIKAI","perfecture_jp":"山形県","jp_add_1":"新庄市","jp_add_2":"本合海"},"9960075":{"post_code":"9960075","prefecture":"YAMAGATA KEN","city":"SHINJO SHI","town":"YOKOCHIMACHI","perfecture_jp":"山形県","jp_add_1":"新庄市","jp_add_2":"横打町"},"9960025":{"post_code":"9960025","prefecture":"YAMAGATA KEN","city":"SHINJO SHI","town":"WAKABAMACHI","perfecture_jp":"山形県","jp_add_1":"新庄市","jp_add_2":"若葉町"},"9960200":{"post_code":"9960200","prefecture":"YAMAGATA KEN","city":"MOGAMI GUN OKURA MURA","town":"IKANIKEISAIGANAIBAAI","perfecture_jp":"山形県","jp_add_1":"最上郡大蔵村","jp_add_2":""},"9960211":{"post_code":"9960211","prefecture":"YAMAGATA KEN","city":"MOGAMI GUN OKURA MURA","town":"AIKAI","perfecture_jp":"山形県","jp_add_1":"最上郡大蔵村","jp_add_2":"合海"},"9960213":{"post_code":"9960213","prefecture":"YAMAGATA KEN","city":"MOGAMI GUN OKURA MURA","town":"AKAMATSU","perfecture_jp":"山形県","jp_add_1":"最上郡大蔵村","jp_add_2":"赤松"},"9960212":{"post_code":"9960212","prefecture":"YAMAGATA KEN","city":"MOGAMI GUN OKURA MURA","town":"SHIMIZU","perfecture_jp":"山形県","jp_add_1":"最上郡大蔵村","jp_add_2":"清水"},"9960301":{"post_code":"9960301","prefecture":"YAMAGATA KEN","city":"MOGAMI GUN OKURA MURA","town":"HIJIORI.HIRABAYASHI)","perfecture_jp":"山形県","jp_add_1":"最上郡大蔵村","jp_add_2":"南山"},"9960201":{"post_code":"9960201","prefecture":"YAMAGATA KEN","city":"MOGAMI GUN OKURA MURA","town":"MINAMIYAMA(SONOTA)","perfecture_jp":"山形県","jp_add_1":"最上郡大蔵村","jp_add_2":"南山"}}