{"9993301":{"post_code":"9993301","prefecture":"YAMAGATA KEN","city":"YAMAGATA SHI","town":"YAMADERA","perfecture_jp":"山形県","jp_add_1":"山形市","jp_add_2":"山寺"},"9997205":{"post_code":"9997205","prefecture":"YAMAGATA KEN","city":"TSURUOKA SHI","town":"ATSUMI","perfecture_jp":"山形県","jp_add_1":"鶴岡市","jp_add_2":"温海"},"9997312":{"post_code":"9997312","prefecture":"YAMAGATA KEN","city":"TSURUOKA SHI","town":"ATSUMIGAWA","perfecture_jp":"山形県","jp_add_1":"鶴岡市","jp_add_2":"温海川"},"9997673":{"post_code":"9997673","prefecture":"YAMAGATA KEN","city":"TSURUOKA SHI","town":"ARAMATA","perfecture_jp":"山形県","jp_add_1":"鶴岡市","jp_add_2":"荒俣"},"9997682":{"post_code":"9997682","prefecture":"YAMAGATA KEN","city":"TSURUOKA SHI","town":"ARAYASHIKI","perfecture_jp":"山形県","jp_add_1":"鶴岡市","jp_add_2":"新屋敷"},"9997207":{"post_code":"9997207","prefecture":"YAMAGATA KEN","city":"TSURUOKA SHI","town":"IRAGAWA","perfecture_jp":"山形県","jp_add_1":"鶴岡市","jp_add_2":"五十川"},"9997635":{"post_code":"9997635","prefecture":"YAMAGATA KEN","city":"TSURUOKA SHI","town":"ECHIGOKYODEN","perfecture_jp":"山形県","jp_add_1":"鶴岡市","jp_add_2":"越後京田"},"9997547":{"post_code":"9997547","prefecture":"YAMAGATA KEN","city":"TSURUOKA SHI","town":"OARA","perfecture_jp":"山形県","jp_add_1":"鶴岡市","jp_add_2":"大荒"},"9997123":{"post_code":"9997123","prefecture":"YAMAGATA KEN","city":"TSURUOKA SHI","town":"OIWAGAWA","perfecture_jp":"山形県","jp_add_1":"鶴岡市","jp_add_2":"大岩川"},"9997661":{"post_code":"9997661","prefecture":"YAMAGATA KEN","city":"TSURUOKA SHI","town":"OKAWADO","perfecture_jp":"山形県","jp_add_1":"鶴岡市","jp_add_2":"大川渡"},"9997543":{"post_code":"9997543","prefecture":"YAMAGATA KEN","city":"TSURUOKA SHI","town":"OHIRO","perfecture_jp":"山形県","jp_add_1":"鶴岡市","jp_add_2":"大広"},"9997316":{"post_code":"9997316","prefecture":"YAMAGATA KEN","city":"TSURUOKA SHI","town":"OGUNI","perfecture_jp":"山形県","jp_add_1":"鶴岡市","jp_add_2":"小国"},"9997125":{"post_code":"9997125","prefecture":"YAMAGATA KEN","city":"TSURUOKA SHI","town":"ONABE","perfecture_jp":"山形県","jp_add_1":"鶴岡市","jp_add_2":"小名部"},"9997461":{"post_code":"9997461","prefecture":"YAMAGATA KEN","city":"TSURUOKA SHI","town":"KATANORIZAWA","perfecture_jp":"山形県","jp_add_1":"鶴岡市","jp_add_2":"堅苔沢"},"9997664":{"post_code":"9997664","prefecture":"YAMAGATA KEN","city":"TSURUOKA SHI","town":"KAMINAKANOME","perfecture_jp":"山形県","jp_add_1":"鶴岡市","jp_add_2":"上中野目"},"9997611":{"post_code":"9997611","prefecture":"YAMAGATA KEN","city":"TSURUOKA SHI","town":"KAMIFUJISHIMA","perfecture_jp":"山形県","jp_add_1":"鶴岡市","jp_add_2":"上藤島"},"9997644":{"post_code":"9997644","prefecture":"YAMAGATA KEN","city":"TSURUOKA SHI","town":"KAWASHIRI","perfecture_jp":"山形県","jp_add_1":"鶴岡市","jp_add_2":"川尻"},"9997313":{"post_code":"9997313","prefecture":"YAMAGATA KEN","city":"TSURUOKA SHI","town":"KINOMATA","perfecture_jp":"山形県","jp_add_1":"鶴岡市","jp_add_2":"木野俣"},"9997646":{"post_code":"9997646","prefecture":"YAMAGATA KEN","city":"TSURUOKA SHI","town":"KUDO","perfecture_jp":"山形県","jp_add_1":"鶴岡市","jp_add_2":"工藤"},"9997122":{"post_code":"9997122","prefecture":"YAMAGATA KEN","city":"TSURUOKA SHI","town":"KOIWAGAWA","perfecture_jp":"山形県","jp_add_1":"鶴岡市","jp_add_2":"小岩川"},"9997314":{"post_code":"9997314","prefecture":"YAMAGATA KEN","city":"TSURUOKA SHI","town":"KOESAWA","perfecture_jp":"山形県","jp_add_1":"鶴岡市","jp_add_2":"越沢"},"9997206":{"post_code":"9997206","prefecture":"YAMAGATA KEN","city":"TSURUOKA SHI","town":"KOSUGANODAI","perfecture_jp":"山形県","jp_add_1":"鶴岡市","jp_add_2":"小菅野代"},"9997632":{"post_code":"9997632","prefecture":"YAMAGATA KEN","city":"TSURUOKA SHI","town":"KONAKAJIMA","perfecture_jp":"山形県","jp_add_1":"鶴岡市","jp_add_2":"小中島"},"9997462":{"post_code":"9997462","prefecture":"YAMAGATA KEN","city":"TSURUOKA SHI","town":"KOBATO","perfecture_jp":"山形県","jp_add_1":"鶴岡市","jp_add_2":"小波渡"},"9997651":{"post_code":"9997651","prefecture":"YAMAGATA KEN","city":"TSURUOKA SHI","town":"SAGIHATA","perfecture_jp":"山形県","jp_add_1":"鶴岡市","jp_add_2":"鷺畑"},"9997463":{"post_code":"9997463","prefecture":"YAMAGATA KEN","city":"TSURUOKA SHI","town":"SANZE","perfecture_jp":"山形県","jp_add_1":"鶴岡市","jp_add_2":"三瀬"},"9997637":{"post_code":"9997637","prefecture":"YAMAGATA KEN","city":"TSURUOKA SHI","town":"SHIMONAKANOME","perfecture_jp":"山形県","jp_add_1":"鶴岡市","jp_add_2":"下中野目"},"9997311":{"post_code":"9997311","prefecture":"YAMAGATA KEN","city":"TSURUOKA SHI","town":"SUGANODAI","perfecture_jp":"山形県","jp_add_1":"鶴岡市","jp_add_2":"菅野代"},"9997685":{"post_code":"9997685","prefecture":"YAMAGATA KEN","city":"TSURUOKA SHI","town":"SUNAZUKA","perfecture_jp":"山形県","jp_add_1":"鶴岡市","jp_add_2":"砂塚"},"9997633":{"post_code":"9997633","prefecture":"YAMAGATA KEN","city":"TSURUOKA SHI","town":"SUBASHIRI","perfecture_jp":"山形県","jp_add_1":"鶴岡市","jp_add_2":"須走"},"9997315":{"post_code":"9997315","prefecture":"YAMAGATA KEN","city":"TSURUOKA SHI","town":"SEKIGAWA","perfecture_jp":"山形県","jp_add_1":"鶴岡市","jp_add_2":"関川"},"9996652":{"post_code":"9996652","prefecture":"YAMAGATA KEN","city":"TSURUOKA SHI","town":"SOEGAWA (WATATOZAWA<TAKENOKOZAWAONS","perfecture_jp":"山形県","jp_add_1":"鶴岡市","jp_add_2":"添川"},"9997652":{"post_code":"9997652","prefecture":"YAMAGATA KEN","city":"TSURUOKA SHI","town":"SOEGAWA(SONOTA)","perfecture_jp":"山形県","jp_add_1":"鶴岡市","jp_add_2":"添川"},"9997677":{"post_code":"9997677","prefecture":"YAMAGATA KEN","city":"TSURUOKA SHI","town":"DAIHANDA","perfecture_jp":"山形県","jp_add_1":"鶴岡市","jp_add_2":"大半田"},"9997663":{"post_code":"9997663","prefecture":"YAMAGATA KEN","city":"TSURUOKA SHI","town":"TAKOIKOYA","perfecture_jp":"山形県","jp_add_1":"鶴岡市","jp_add_2":"蛸井興屋"},"9997202":{"post_code":"9997202","prefecture":"YAMAGATA KEN","city":"TSURUOKA SHI","town":"TOZAWA","perfecture_jp":"山形県","jp_add_1":"鶴岡市","jp_add_2":"戸沢"},"9997546":{"post_code":"9997546","prefecture":"YAMAGATA KEN","city":"TSURUOKA SHI","town":"NAKAZAWA","perfecture_jp":"山形県","jp_add_1":"鶴岡市","jp_add_2":"中沢"},"9997621":{"post_code":"9997621","prefecture":"YAMAGATA KEN","city":"TSURUOKA SHI","town":"NAGANUMA","perfecture_jp":"山形県","jp_add_1":"鶴岡市","jp_add_2":"長沼"},"9997544":{"post_code":"9997544","prefecture":"YAMAGATA KEN","city":"TSURUOKA SHI","town":"NAKAYAMA","perfecture_jp":"山形県","jp_add_1":"鶴岡市","jp_add_2":"中山"},"9997541":{"post_code":"9997541","prefecture":"YAMAGATA KEN","city":"TSURUOKA SHI","town":"NISHIME","perfecture_jp":"山形県","jp_add_1":"鶴岡市","jp_add_2":"西目"},"9997126":{"post_code":"9997126","prefecture":"YAMAGATA KEN","city":"TSURUOKA SHI","town":"NEZUGASEKI","perfecture_jp":"山形県","jp_add_1":"鶴岡市","jp_add_2":"鼠ケ関"},"9997636":{"post_code":"9997636","prefecture":"YAMAGATA KEN","city":"TSURUOKA SHI","town":"NODANOME","perfecture_jp":"山形県","jp_add_1":"鶴岡市","jp_add_2":"野田目"},"9997653":{"post_code":"9997653","prefecture":"YAMAGATA KEN","city":"TSURUOKA SHI","town":"HIGASHIHORIKOSHI","perfecture_jp":"山形県","jp_add_1":"鶴岡市","jp_add_2":"東堀越"},"9997203":{"post_code":"9997203","prefecture":"YAMAGATA KEN","city":"TSURUOKA SHI","town":"HITOKASUMI","perfecture_jp":"山形県","jp_add_1":"鶴岡市","jp_add_2":"一霞"},"9997681":{"post_code":"9997681","prefecture":"YAMAGATA KEN","city":"TSURUOKA SHI","town":"HIRAKATA","perfecture_jp":"山形県","jp_add_1":"鶴岡市","jp_add_2":"平形"},"9997638":{"post_code":"9997638","prefecture":"YAMAGATA KEN","city":"TSURUOKA SHI","town":"FUJIOKA","perfecture_jp":"山形県","jp_add_1":"鶴岡市","jp_add_2":"藤岡"},"9997601":{"post_code":"9997601","prefecture":"YAMAGATA KEN","city":"TSURUOKA SHI","town":"FUJISHIMA","perfecture_jp":"山形県","jp_add_1":"鶴岡市","jp_add_2":"藤島"},"9997642":{"post_code":"9997642","prefecture":"YAMAGATA KEN","city":"TSURUOKA SHI","town":"FUJISHIMASEKINE","perfecture_jp":"山形県","jp_add_1":"鶴岡市","jp_add_2":"藤島関根"},"9997604":{"post_code":"9997604","prefecture":"YAMAGATA KEN","city":"TSURUOKA SHI","town":"FUJINAMI","perfecture_jp":"山形県","jp_add_1":"鶴岡市","jp_add_2":"藤浪"},"9997602":{"post_code":"9997602","prefecture":"YAMAGATA KEN","city":"TSURUOKA SHI","town":"FUJINOHANA","perfecture_jp":"山形県","jp_add_1":"鶴岡市","jp_add_2":"藤の花"},"9997671":{"post_code":"9997671","prefecture":"YAMAGATA KEN","city":"TSURUOKA SHI","town":"FURUKORI","perfecture_jp":"山形県","jp_add_1":"鶴岡市","jp_add_2":"古郡"},"9997645":{"post_code":"9997645","prefecture":"YAMAGATA KEN","city":"TSURUOKA SHI","town":"HEISOKU","perfecture_jp":"山形県","jp_add_1":"鶴岡市","jp_add_2":"平足"},"9997622":{"post_code":"9997622","prefecture":"YAMAGATA KEN","city":"TSURUOKA SHI","town":"HOEI","perfecture_jp":"山形県","jp_add_1":"鶴岡市","jp_add_2":"豊栄"},"9997675":{"post_code":"9997675","prefecture":"YAMAGATA KEN","city":"TSURUOKA SHI","town":"HOTOKU","perfecture_jp":"山形県","jp_add_1":"鶴岡市","jp_add_2":"宝徳"},"9997124":{"post_code":"9997124","prefecture":"YAMAGATA KEN","city":"TSURUOKA SHI","town":"MAKIDAI","perfecture_jp":"山形県","jp_add_1":"鶴岡市","jp_add_2":"槇代"},"9997676":{"post_code":"9997676","prefecture":"YAMAGATA KEN","city":"TSURUOKA SHI","town":"MAKUNOCHI","perfecture_jp":"山形県","jp_add_1":"鶴岡市","jp_add_2":"幕野内"},"9997542":{"post_code":"9997542","prefecture":"YAMAGATA KEN","city":"TSURUOKA SHI","town":"MIZUSAWA","perfecture_jp":"山形県","jp_add_1":"鶴岡市","jp_add_2":"水沢"},"9997548":{"post_code":"9997548","prefecture":"YAMAGATA KEN","city":"TSURUOKA SHI","town":"MIZUHO","perfecture_jp":"山形県","jp_add_1":"鶴岡市","jp_add_2":"みずほ"},"9997674":{"post_code":"9997674","prefecture":"YAMAGATA KEN","city":"TSURUOKA SHI","town":"MIMASUSHINDEN","perfecture_jp":"山形県","jp_add_1":"鶴岡市","jp_add_2":"箕升新田"},"9997634":{"post_code":"9997634","prefecture":"YAMAGATA KEN","city":"TSURUOKA SHI","town":"MIWA","perfecture_jp":"山形県","jp_add_1":"鶴岡市","jp_add_2":"三和"},"9997631":{"post_code":"9997631","prefecture":"YAMAGATA KEN","city":"TSURUOKA SHI","town":"YAIROGI","perfecture_jp":"山形県","jp_add_1":"鶴岡市","jp_add_2":"八色木"},"9997662":{"post_code":"9997662","prefecture":"YAMAGATA KEN","city":"TSURUOKA SHI","town":"YACHIKOYA","perfecture_jp":"山形県","jp_add_1":"鶴岡市","jp_add_2":"谷地興屋"},"9997672":{"post_code":"9997672","prefecture":"YAMAGATA KEN","city":"TSURUOKA SHI","town":"YANAKUSE","perfecture_jp":"山形県","jp_add_1":"鶴岡市","jp_add_2":"柳久瀬"},"9997545":{"post_code":"9997545","prefecture":"YAMAGATA KEN","city":"TSURUOKA SHI","town":"YABIKI","perfecture_jp":"山形県","jp_add_1":"鶴岡市","jp_add_2":"矢引"},"9997201":{"post_code":"9997201","prefecture":"YAMAGATA KEN","city":"TSURUOKA SHI","town":"YAMAIRAGAWA","perfecture_jp":"山形県","jp_add_1":"鶴岡市","jp_add_2":"山五十川"},"9997204":{"post_code":"9997204","prefecture":"YAMAGATA KEN","city":"TSURUOKA SHI","town":"YUATSUMI","perfecture_jp":"山形県","jp_add_1":"鶴岡市","jp_add_2":"湯温海"},"9997641":{"post_code":"9997641","prefecture":"YAMAGATA KEN","city":"TSURUOKA SHI","town":"YUZURIHA","perfecture_jp":"山形県","jp_add_1":"鶴岡市","jp_add_2":"楪"},"9997464":{"post_code":"9997464","prefecture":"YAMAGATA KEN","city":"TSURUOKA SHI","town":"YURA","perfecture_jp":"山形県","jp_add_1":"鶴岡市","jp_add_2":"由良"},"9997643":{"post_code":"9997643","prefecture":"YAMAGATA KEN","city":"TSURUOKA SHI","town":"YOBARAZU","perfecture_jp":"山形県","jp_add_1":"鶴岡市","jp_add_2":"無音"},"9997121":{"post_code":"9997121","prefecture":"YAMAGATA KEN","city":"TSURUOKA SHI","town":"WASADA","perfecture_jp":"山形県","jp_add_1":"鶴岡市","jp_add_2":"早田"},"9997683":{"post_code":"9997683","prefecture":"YAMAGATA KEN","city":"TSURUOKA SHI","town":"WATAMAE","perfecture_jp":"山形県","jp_add_1":"鶴岡市","jp_add_2":"渡前"},"9997684":{"post_code":"9997684","prefecture":"YAMAGATA KEN","city":"TSURUOKA SHI","town":"WANAGAWA","perfecture_jp":"山形県","jp_add_1":"鶴岡市","jp_add_2":"和名川"},"9996852":{"post_code":"9996852","prefecture":"YAMAGATA KEN","city":"SAKATA SHI","town":"AISAWA","perfecture_jp":"山形県","jp_add_1":"酒田市","jp_add_2":"相沢"},"9998203":{"post_code":"9998203","prefecture":"YAMAGATA KEN","city":"SAKATA SHI","town":"AKAHAGE","perfecture_jp":"山形県","jp_add_1":"酒田市","jp_add_2":"赤剥"},"9996711":{"post_code":"9996711","prefecture":"YAMAGATA KEN","city":"SAKATA SHI","town":"ASUKA","perfecture_jp":"山形県","jp_add_1":"酒田市","jp_add_2":"飛鳥"},"9996834":{"post_code":"9996834","prefecture":"YAMAGATA KEN","city":"SAKATA SHI","town":"ARAMACHI","perfecture_jp":"山形県","jp_add_1":"酒田市","jp_add_2":"荒町"},"9996853":{"post_code":"9996853","prefecture":"YAMAGATA KEN","city":"SAKATA SHI","town":"ISHINAZAKA","perfecture_jp":"山形県","jp_add_1":"酒田市","jp_add_2":"石名坂"},"9996704":{"post_code":"9996704","prefecture":"YAMAGATA KEN","city":"SAKATA SHI","town":"ISHIBASHI","perfecture_jp":"山形県","jp_add_1":"酒田市","jp_add_2":"石橋"},"9996708":{"post_code":"9996708","prefecture":"YAMAGATA KEN","city":"SAKATA SHI","town":"IZUMIKOYA","perfecture_jp":"山形県","jp_add_1":"酒田市","jp_add_2":"泉興野"},"9997774":{"post_code":"9997774","prefecture":"YAMAGATA KEN","city":"SAKATA SHI","town":"ITADO","perfecture_jp":"山形県","jp_add_1":"酒田市","jp_add_2":"板戸"},"9998232":{"post_code":"9998232","prefecture":"YAMAGATA KEN","city":"SAKATA SHI","town":"ICHIJO","perfecture_jp":"山形県","jp_add_1":"酒田市","jp_add_2":"市条"},"9996826":{"post_code":"9996826","prefecture":"YAMAGATA KEN","city":"SAKATA SHI","town":"INARIZAWA","perfecture_jp":"山形県","jp_add_1":"酒田市","jp_add_2":"稲荷沢"},"9996815":{"post_code":"9996815","prefecture":"YAMAGATA KEN","city":"SAKATA SHI","town":"USUGASAWA","perfecture_jp":"山形県","jp_add_1":"酒田市","jp_add_2":"臼ケ沢"},"9996831":{"post_code":"9996831","prefecture":"YAMAGATA KEN","city":"SAKATA SHI","town":"SOKOJISAWA","perfecture_jp":"山形県","jp_add_1":"酒田市","jp_add_2":"内町"},"9998164":{"post_code":"9998164","prefecture":"YAMAGATA KEN","city":"SAKATA SHI","town":"URUSHIZONE","perfecture_jp":"山形県","jp_add_1":"酒田市","jp_add_2":"漆曽根"},"9998153":{"post_code":"9998153","prefecture":"YAMAGATA KEN","city":"SAKATA SHI","town":"ENNOJI","perfecture_jp":"山形県","jp_add_1":"酒田市","jp_add_2":"円能寺"},"9996813":{"post_code":"9996813","prefecture":"YAMAGATA KEN","city":"SAKATA SHI","town":"OKAWADO","perfecture_jp":"山形県","jp_add_1":"酒田市","jp_add_2":"大川渡"},"9998244":{"post_code":"9998244","prefecture":"YAMAGATA KEN","city":"SAKATA SHI","town":"OKUBO","perfecture_jp":"山形県","jp_add_1":"酒田市","jp_add_2":"大久保"},"9998225":{"post_code":"9998225","prefecture":"YAMAGATA KEN","city":"SAKATA SHI","town":"OSHIMADA","perfecture_jp":"山形県","jp_add_1":"酒田市","jp_add_2":"大島田"},"9998133":{"post_code":"9998133","prefecture":"YAMAGATA KEN","city":"SAKATA SHI","town":"OTOYODA","perfecture_jp":"山形県","jp_add_1":"酒田市","jp_add_2":"大豊田"},"9996816":{"post_code":"9996816","prefecture":"YAMAGATA KEN","city":"SAKATA SHI","town":"ONUMASHINDEN","perfecture_jp":"山形県","jp_add_1":"酒田市","jp_add_2":"大沼新田"},"9998215":{"post_code":"9998215","prefecture":"YAMAGATA KEN","city":"SAKATA SHI","town":"OWARABI","perfecture_jp":"山形県","jp_add_1":"酒田市","jp_add_2":"大蕨"},"9998227":{"post_code":"9998227","prefecture":"YAMAGATA KEN","city":"SAKATA SHI","town":"OKASHIMADA","perfecture_jp":"山形県","jp_add_1":"酒田市","jp_add_2":"岡島田"},"9997775":{"post_code":"9997775","prefecture":"YAMAGATA KEN","city":"SAKATA SHI","town":"OCHINOME","perfecture_jp":"山形県","jp_add_1":"酒田市","jp_add_2":"落野目"},"9996845":{"post_code":"9996845","prefecture":"YAMAGATA KEN","city":"SAKATA SHI","town":"OMI","perfecture_jp":"山形県","jp_add_1":"酒田市","jp_add_2":"小見"},"9996811":{"post_code":"9996811","prefecture":"YAMAGATA KEN","city":"SAKATA SHI","town":"KASHIYAZAWA","perfecture_jp":"山形県","jp_add_1":"酒田市","jp_add_2":"柏谷沢"},"9996838":{"post_code":"9996838","prefecture":"YAMAGATA KEN","city":"SAKATA SHI","town":"KATAMACHI","perfecture_jp":"山形県","jp_add_1":"酒田市","jp_add_2":"片町"},"9997772":{"post_code":"9997772","prefecture":"YAMAGATA KEN","city":"SAKATA SHI","town":"KADOTA","perfecture_jp":"山形県","jp_add_1":"酒田市","jp_add_2":"門田"},"9996837":{"post_code":"9996837","prefecture":"YAMAGATA KEN","city":"SAKATA SHI","town":"SHIMMACHI","perfecture_jp":"山形県","jp_add_1":"酒田市","jp_add_2":"金谷"},"9998212":{"post_code":"9998212","prefecture":"YAMAGATA KEN","city":"SAKATA SHI","town":"KAMIAOSAWA","perfecture_jp":"山形県","jp_add_1":"酒田市","jp_add_2":"上青沢"},"9996843":{"post_code":"9996843","prefecture":"YAMAGATA KEN","city":"SAKATA SHI","town":"KAMIKITAME","perfecture_jp":"山形県","jp_add_1":"酒田市","jp_add_2":"上北目"},"9998206":{"post_code":"9998206","prefecture":"YAMAGATA KEN","city":"SAKATA SHI","town":"KAMIKUROKAWA","perfecture_jp":"山形県","jp_add_1":"酒田市","jp_add_2":"上黒川"},"9998163":{"post_code":"9998163","prefecture":"YAMAGATA KEN","city":"SAKATA SHI","town":"KAMIKOYA","perfecture_jp":"山形県","jp_add_1":"酒田市","jp_add_2":"上興野"},"9998162":{"post_code":"9998162","prefecture":"YAMAGATA KEN","city":"SAKATA SHI","town":"KAMINOSONE","perfecture_jp":"山形県","jp_add_1":"酒田市","jp_add_2":"上野曽根"},"9996842":{"post_code":"9996842","prefecture":"YAMAGATA KEN","city":"SAKATA SHI","town":"KAMIMOCHIYAMA","perfecture_jp":"山形県","jp_add_1":"酒田市","jp_add_2":"上餅山"},"9998152":{"post_code":"9998152","prefecture":"YAMAGATA KEN","city":"SAKATA SHI","town":"KAMIYASUDA","perfecture_jp":"山形県","jp_add_1":"酒田市","jp_add_2":"上安田"},"9998143":{"post_code":"9998143","prefecture":"YAMAGATA KEN","city":"SAKATA SHI","town":"KARIHO","perfecture_jp":"山形県","jp_add_1":"酒田市","jp_add_2":"刈穂"},"9998132":{"post_code":"9998132","prefecture":"YAMAGATA KEN","city":"SAKATA SHI","town":"KARIYA","perfecture_jp":"山形県","jp_add_1":"酒田市","jp_add_2":"刈屋"},"9998235":{"post_code":"9998235","prefecture":"YAMAGATA KEN","city":"SAKATA SHI","town":"KANNONJI","perfecture_jp":"山形県","jp_add_1":"酒田市","jp_add_2":"観音寺"},"9997773":{"post_code":"9997773","prefecture":"YAMAGATA KEN","city":"SAKATA SHI","town":"KIGAWA","perfecture_jp":"山形県","jp_add_1":"酒田市","jp_add_2":"木川"},"9998211":{"post_code":"9998211","prefecture":"YAMAGATA KEN","city":"SAKATA SHI","town":"KITAAOSAWA","perfecture_jp":"山形県","jp_add_1":"酒田市","jp_add_2":"北青沢"},"9998243":{"post_code":"9998243","prefecture":"YAMAGATA KEN","city":"SAKATA SHI","town":"KITAJINDEN","perfecture_jp":"山形県","jp_add_1":"酒田市","jp_add_2":"北仁田"},"9998222":{"post_code":"9998222","prefecture":"YAMAGATA KEN","city":"SAKATA SHI","town":"KITAHEIZAWA","perfecture_jp":"山形県","jp_add_1":"酒田市","jp_add_2":"北平沢"},"9996741":{"post_code":"9996741","prefecture":"YAMAGATA KEN","city":"SAKATA SHI","town":"KITAMATA","perfecture_jp":"山形県","jp_add_1":"酒田市","jp_add_2":"北俣"},"9996833":{"post_code":"9996833","prefecture":"YAMAGATA KEN","city":"SAKATA SHI","town":"KITAMACHI","perfecture_jp":"山形県","jp_add_1":"酒田市","jp_add_2":"北町"},"9998142":{"post_code":"9998142","prefecture":"YAMAGATA KEN","city":"SAKATA SHI","town":"KINOWA","perfecture_jp":"山形県","jp_add_1":"酒田市","jp_add_2":"城輪"},"9998207":{"post_code":"9998207","prefecture":"YAMAGATA KEN","city":"SAKATA SHI","town":"KUSATSU","perfecture_jp":"山形県","jp_add_1":"酒田市","jp_add_2":"草津"},"9998156":{"post_code":"9998156","prefecture":"YAMAGATA KEN","city":"SAKATA SHI","town":"KUBOTA","perfecture_jp":"山形県","jp_add_1":"酒田市","jp_add_2":"久保田"},"9996835":{"post_code":"9996835","prefecture":"YAMAGATA KEN","city":"SAKATA SHI","town":"HOMMACHI","perfecture_jp":"山形県","jp_add_1":"酒田市","jp_add_2":"蔵小路"},"9998234":{"post_code":"9998234","prefecture":"YAMAGATA KEN","city":"SAKATA SHI","town":"KOIZUMI","perfecture_jp":"山形県","jp_add_1":"酒田市","jp_add_2":"小泉"},"9996707":{"post_code":"9996707","prefecture":"YAMAGATA KEN","city":"SAKATA SHI","town":"KORIYAMA","perfecture_jp":"山形県","jp_add_1":"酒田市","jp_add_2":"郡山"},"9996735":{"post_code":"9996735","prefecture":"YAMAGATA KEN","city":"SAKATA SHI","town":"KOBAYASHI","perfecture_jp":"山形県","jp_add_1":"酒田市","jp_add_2":"小林"},"9996836":{"post_code":"9996836","prefecture":"YAMAGATA KEN","city":"SAKATA SHI","town":"SAKANAMACHI","perfecture_jp":"山形県","jp_add_1":"酒田市","jp_add_2":"肴町"},"9996705":{"post_code":"9996705","prefecture":"YAMAGATA KEN","city":"SAKATA SHI","town":"SAKURABAYASHI","perfecture_jp":"山形県","jp_add_1":"酒田市","jp_add_2":"桜林"},"9996706":{"post_code":"9996706","prefecture":"YAMAGATA KEN","city":"SAKATA SHI","town":"SAKURABAYASHIKOYA","perfecture_jp":"山形県","jp_add_1":"酒田市","jp_add_2":"桜林興野"},"9996701":{"post_code":"9996701","prefecture":"YAMAGATA KEN","city":"SAKATA SHI","town":"SAGOSHI","perfecture_jp":"山形県","jp_add_1":"酒田市","jp_add_2":"砂越"},"9996702":{"post_code":"9996702","prefecture":"YAMAGATA KEN","city":"SAKATA SHI","town":"SAGOSHIMIDORICHO","perfecture_jp":"山形県","jp_add_1":"酒田市","jp_add_2":"砂越緑町"},"9996723":{"post_code":"9996723","prefecture":"YAMAGATA KEN","city":"SAKATA SHI","town":"SANNOMIYA","perfecture_jp":"山形県","jp_add_1":"酒田市","jp_add_2":"三之宮"},"9996814":{"post_code":"9996814","prefecture":"YAMAGATA KEN","city":"SAKATA SHI","town":"JIMIKOYA","perfecture_jp":"山形県","jp_add_1":"酒田市","jp_add_2":"地見興屋"},"9998213":{"post_code":"9998213","prefecture":"YAMAGATA KEN","city":"SAKATA SHI","town":"SHIMOAOSAWA","perfecture_jp":"山形県","jp_add_1":"酒田市","jp_add_2":"下青沢"},"9998205":{"post_code":"9998205","prefecture":"YAMAGATA KEN","city":"SAKATA SHI","town":"SHIMOKUROKAWA","perfecture_jp":"山形県","jp_add_1":"酒田市","jp_add_2":"下黒川"},"9996846":{"post_code":"9996846","prefecture":"YAMAGATA KEN","city":"SAKATA SHI","town":"SHIMOMOCHIYAMA","perfecture_jp":"山形県","jp_add_1":"酒田市","jp_add_2":"下餅山"},"9998214":{"post_code":"9998214","prefecture":"YAMAGATA KEN","city":"SAKATA SHI","town":"JOZENJI","perfecture_jp":"山形県","jp_add_1":"酒田市","jp_add_2":"常禅寺"},"9996823":{"post_code":"9996823","prefecture":"YAMAGATA KEN","city":"SAKATA SHI","town":"SHINGAKUJISAWA","perfecture_jp":"山形県","jp_add_1":"酒田市","jp_add_2":"真学寺沢"},"9998204":{"post_code":"9998204","prefecture":"YAMAGATA KEN","city":"SAKATA SHI","town":"SHINDE","perfecture_jp":"山形県","jp_add_1":"酒田市","jp_add_2":"新出"},"9996832":{"post_code":"9996832","prefecture":"YAMAGATA KEN","city":"SAKATA SHI","town":"SHINYASHIKI","perfecture_jp":"山形県","jp_add_1":"酒田市","jp_add_2":"新屋敷"},"9998246":{"post_code":"9998246","prefecture":"YAMAGATA KEN","city":"SAKATA SHI","town":"SETSUDA","perfecture_jp":"山形県","jp_add_1":"酒田市","jp_add_2":"芹田"},"9998155":{"post_code":"9998155","prefecture":"YAMAGATA KEN","city":"SAKATA SHI","town":"SONEDA","perfecture_jp":"山形県","jp_add_1":"酒田市","jp_add_2":"曽根田"},"9996848":{"post_code":"9996848","prefecture":"YAMAGATA KEN","city":"SAKATA SHI","town":"TAKEDA","perfecture_jp":"山形県","jp_add_1":"酒田市","jp_add_2":"竹田"},"9996731":{"post_code":"9996731","prefecture":"YAMAGATA KEN","city":"SAKATA SHI","town":"TAZAWA","perfecture_jp":"山形県","jp_add_1":"酒田市","jp_add_2":"田沢"},"9996732":{"post_code":"9996732","prefecture":"YAMAGATA KEN","city":"SAKATA SHI","town":"TATEYAMA","perfecture_jp":"山形県","jp_add_1":"酒田市","jp_add_2":"楯山"},"9998422":{"post_code":"9998422","prefecture":"YAMAGATA KEN","city":"SAKATA SHI","town":"CHIYODA","perfecture_jp":"山形県","jp_add_1":"酒田市","jp_add_2":"千代田"},"9998245":{"post_code":"9998245","prefecture":"YAMAGATA KEN","city":"SAKATA SHI","town":"TSUKABUCHI","perfecture_jp":"山形県","jp_add_1":"酒田市","jp_add_2":"塚淵"},"9996839":{"post_code":"9996839","prefecture":"YAMAGATA KEN","city":"SAKATA SHI","town":"TSUCHIBUCHI","perfecture_jp":"山形県","jp_add_1":"酒田市","jp_add_2":"土渕"},"9997771":{"post_code":"9997771","prefecture":"YAMAGATA KEN","city":"SAKATA SHI","town":"TSUBONE","perfecture_jp":"山形県","jp_add_1":"酒田市","jp_add_2":"局"},"9998168":{"post_code":"9998168","prefecture":"YAMAGATA KEN","city":"SAKATA SHI","town":"TSURUTA","perfecture_jp":"山形県","jp_add_1":"酒田市","jp_add_2":"鶴田"},"9998221":{"post_code":"9998221","prefecture":"YAMAGATA KEN","city":"SAKATA SHI","town":"TERADA","perfecture_jp":"山形県","jp_add_1":"酒田市","jp_add_2":"寺田"},"9996703":{"post_code":"9996703","prefecture":"YAMAGATA KEN","city":"SAKATA SHI","town":"TENJINDO","perfecture_jp":"山形県","jp_add_1":"酒田市","jp_add_2":"天神堂"},"9998141":{"post_code":"9998141","prefecture":"YAMAGATA KEN","city":"SAKATA SHI","town":"TOYOHARA","perfecture_jp":"山形県","jp_add_1":"酒田市","jp_add_2":"豊原"},"9998202":{"post_code":"9998202","prefecture":"YAMAGATA KEN","city":"SAKATA SHI","town":"DOROZAWA","perfecture_jp":"山形県","jp_add_1":"酒田市","jp_add_2":"泥沢"},"9996844":{"post_code":"9996844","prefecture":"YAMAGATA KEN","city":"SAKATA SHI","town":"NAKAKITAME","perfecture_jp":"山形県","jp_add_1":"酒田市","jp_add_2":"中北目"},"9998165":{"post_code":"9998165","prefecture":"YAMAGATA KEN","city":"SAKATA SHI","town":"NAKANOSONE","perfecture_jp":"山形県","jp_add_1":"酒田市","jp_add_2":"中野曽根"},"9996727":{"post_code":"9996727","prefecture":"YAMAGATA KEN","city":"SAKATA SHI","town":"NAKANOMATA","perfecture_jp":"山形県","jp_add_1":"酒田市","jp_add_2":"中野俣"},"9996722":{"post_code":"9996722","prefecture":"YAMAGATA KEN","city":"SAKATA SHI","town":"NAKANOME","perfecture_jp":"山形県","jp_add_1":"酒田市","jp_add_2":"中野目"},"9996851":{"post_code":"9996851","prefecture":"YAMAGATA KEN","city":"SAKATA SHI","town":"NAKAMAKITA","perfecture_jp":"山形県","jp_add_1":"酒田市","jp_add_2":"中牧田"},"9996827":{"post_code":"9996827","prefecture":"YAMAGATA KEN","city":"SAKATA SHI","town":"NAKAMACHI","perfecture_jp":"山形県","jp_add_1":"酒田市","jp_add_2":"仲町"},"9996712":{"post_code":"9996712","prefecture":"YAMAGATA KEN","city":"SAKATA SHI","town":"NARAHASHI","perfecture_jp":"山形県","jp_add_1":"酒田市","jp_add_2":"楢橋"},"9996812":{"post_code":"9996812","prefecture":"YAMAGATA KEN","city":"SAKATA SHI","town":"NARIKOYA","perfecture_jp":"山形県","jp_add_1":"酒田市","jp_add_2":"成興野"},"9998157":{"post_code":"9998157","prefecture":"YAMAGATA KEN","city":"SAKATA SHI","town":"NIIAODO","perfecture_jp":"山形県","jp_add_1":"酒田市","jp_add_2":"新青渡"},"9997776":{"post_code":"9997776","prefecture":"YAMAGATA KEN","city":"SAKATA SHI","town":"NIIBORI","perfecture_jp":"山形県","jp_add_1":"酒田市","jp_add_2":"新堀"},"9996733":{"post_code":"9996733","prefecture":"YAMAGATA KEN","city":"SAKATA SHI","town":"NISHISAKAMOTO","perfecture_jp":"山形県","jp_add_1":"酒田市","jp_add_2":"西坂本"},"9996862":{"post_code":"9996862","prefecture":"YAMAGATA KEN","city":"SAKATA SHI","town":"NISHIDA","perfecture_jp":"山形県","jp_add_1":"酒田市","jp_add_2":"西田"},"9998144":{"post_code":"9998144","prefecture":"YAMAGATA KEN","city":"SAKATA SHI","town":"NIWATA","perfecture_jp":"山形県","jp_add_1":"酒田市","jp_add_2":"庭田"},"9998158":{"post_code":"9998158","prefecture":"YAMAGATA KEN","city":"SAKATA SHI","town":"NUNOME","perfecture_jp":"山形県","jp_add_1":"酒田市","jp_add_2":"布目"},"9998242":{"post_code":"9998242","prefecture":"YAMAGATA KEN","city":"SAKATA SHI","town":"HASHIMOTO","perfecture_jp":"山形県","jp_add_1":"酒田市","jp_add_2":"橋本"},"9996847":{"post_code":"9996847","prefecture":"YAMAGATA KEN","city":"SAKATA SHI","town":"HIKIJI","perfecture_jp":"山形県","jp_add_1":"酒田市","jp_add_2":"引地"},"9998241":{"post_code":"9998241","prefecture":"YAMAGATA KEN","city":"SAKATA SHI","town":"FUKUYAMA","perfecture_jp":"山形県","jp_add_1":"酒田市","jp_add_2":"福山"},"9998231":{"post_code":"9998231","prefecture":"YAMAGATA KEN","city":"SAKATA SHI","town":"FUMOTO","perfecture_jp":"山形県","jp_add_1":"酒田市","jp_add_2":"麓"},"9998154":{"post_code":"9998154","prefecture":"YAMAGATA KEN","city":"SAKATA SHI","town":"FURUAODO","perfecture_jp":"山形県","jp_add_1":"酒田市","jp_add_2":"古青渡"},"9998233":{"post_code":"9998233","prefecture":"YAMAGATA KEN","city":"SAKATA SHI","town":"HORENJI","perfecture_jp":"山形県","jp_add_1":"酒田市","jp_add_2":"法連寺"},"9998131":{"post_code":"9998131","prefecture":"YAMAGATA KEN","city":"SAKATA SHI","town":"HOZUMI(MONDEN)","perfecture_jp":"山形県","jp_add_1":"酒田市","jp_add_2":"穂積"},"9996721":{"post_code":"9996721","prefecture":"YAMAGATA KEN","city":"SAKATA SHI","town":"HORINOCHI","perfecture_jp":"山形県","jp_add_1":"酒田市","jp_add_2":"堀野内"},"9998224":{"post_code":"9998224","prefecture":"YAMAGATA KEN","city":"SAKATA SHI","town":"MAEKAWA","perfecture_jp":"山形県","jp_add_1":"酒田市","jp_add_2":"前川"},"9998166":{"post_code":"9998166","prefecture":"YAMAGATA KEN","city":"SAKATA SHI","town":"MAKISONE","perfecture_jp":"山形県","jp_add_1":"酒田市","jp_add_2":"牧曽根"},"9998201":{"post_code":"9998201","prefecture":"YAMAGATA KEN","city":"SAKATA SHI","town":"MASUDA","perfecture_jp":"山形県","jp_add_1":"酒田市","jp_add_2":"升田"},"9997777":{"post_code":"9997777","prefecture":"YAMAGATA KEN","city":"SAKATA SHI","town":"MARUNUMA","perfecture_jp":"山形県","jp_add_1":"酒田市","jp_add_2":"丸沼"},"9998226":{"post_code":"9998226","prefecture":"YAMAGATA KEN","city":"SAKATA SHI","town":"MANDOKORO","perfecture_jp":"山形県","jp_add_1":"酒田市","jp_add_2":"政所"},"9996822":{"post_code":"9996822","prefecture":"YAMAGATA KEN","city":"SAKATA SHI","town":"MINAMISHINYASHIKI","perfecture_jp":"山形県","jp_add_1":"酒田市","jp_add_2":"南新屋敷"},"9998223":{"post_code":"9998223","prefecture":"YAMAGATA KEN","city":"SAKATA SHI","town":"MINAMIHEIZAWA","perfecture_jp":"山形県","jp_add_1":"酒田市","jp_add_2":"南平沢"},"9996825":{"post_code":"9996825","prefecture":"YAMAGATA KEN","city":"SAKATA SHI","town":"MINAMIMACHI","perfecture_jp":"山形県","jp_add_1":"酒田市","jp_add_2":"南町"},"9998423":{"post_code":"9998423","prefecture":"YAMAGATA KEN","city":"SAKATA SHI","town":"MIYAUCHI","perfecture_jp":"山形県","jp_add_1":"酒田市","jp_add_2":"宮内"},"9996841":{"post_code":"9996841","prefecture":"YAMAGATA KEN","city":"SAKATA SHI","town":"MYOGASAWA","perfecture_jp":"山形県","jp_add_1":"酒田市","jp_add_2":"茗ケ沢"},"9996824":{"post_code":"9996824","prefecture":"YAMAGATA KEN","city":"SAKATA SHI","town":"MOTOSHINYASHIKI","perfecture_jp":"山形県","jp_add_1":"酒田市","jp_add_2":"元新屋敷"},"9998134":{"post_code":"9998134","prefecture":"YAMAGATA KEN","city":"SAKATA SHI","town":"MOTOTATE","perfecture_jp":"山形県","jp_add_1":"酒田市","jp_add_2":"本楯"},"9998145":{"post_code":"9998145","prefecture":"YAMAGATA KEN","city":"SAKATA SHI","town":"YASUOKA","perfecture_jp":"山形県","jp_add_1":"酒田市","jp_add_2":"保岡"},"9998151":{"post_code":"9998151","prefecture":"YAMAGATA KEN","city":"SAKATA SHI","town":"YASUDA","perfecture_jp":"山形県","jp_add_1":"酒田市","jp_add_2":"安田"},"9996861":{"post_code":"9996861","prefecture":"YAMAGATA KEN","city":"SAKATA SHI","town":"YAMADA","perfecture_jp":"山形県","jp_add_1":"酒田市","jp_add_2":"山田"},"9996724":{"post_code":"9996724","prefecture":"YAMAGATA KEN","city":"SAKATA SHI","town":"YAMADATE","perfecture_jp":"山形県","jp_add_1":"酒田市","jp_add_2":"山楯"},"9996821":{"post_code":"9996821","prefecture":"YAMAGATA KEN","city":"SAKATA SHI","town":"YAMADERA","perfecture_jp":"山形県","jp_add_1":"酒田市","jp_add_2":"山寺"},"9996734":{"post_code":"9996734","prefecture":"YAMAGATA KEN","city":"SAKATA SHI","town":"YAMAMOTO","perfecture_jp":"山形県","jp_add_1":"酒田市","jp_add_2":"山元"},"9996726":{"post_code":"9996726","prefecture":"YAMAGATA KEN","city":"SAKATA SHI","town":"YAMAYA","perfecture_jp":"山形県","jp_add_1":"酒田市","jp_add_2":"山谷"},"9996725":{"post_code":"9996725","prefecture":"YAMAGATA KEN","city":"SAKATA SHI","town":"YAMAYASHINDEN","perfecture_jp":"山形県","jp_add_1":"酒田市","jp_add_2":"山谷新田"},"9998161":{"post_code":"9998161","prefecture":"YAMAGATA KEN","city":"SAKATA SHI","town":"YOSHIDA","perfecture_jp":"山形県","jp_add_1":"酒田市","jp_add_2":"吉田"},"9998167":{"post_code":"9998167","prefecture":"YAMAGATA KEN","city":"SAKATA SHI","town":"YOSHIDASHINDEN","perfecture_jp":"山形県","jp_add_1":"酒田市","jp_add_2":"吉田新田"},"9998421":{"post_code":"9998421","prefecture":"YAMAGATA KEN","city":"SAKATA SHI","town":"YONESHIMA","perfecture_jp":"山形県","jp_add_1":"酒田市","jp_add_2":"米島"},"9995103":{"post_code":"9995103","prefecture":"YAMAGATA KEN","city":"SHINJO SHI","town":"IZUMITA","perfecture_jp":"山形県","jp_add_1":"新庄市","jp_add_2":"泉田"},"9995101":{"post_code":"9995101","prefecture":"YAMAGATA KEN","city":"SHINJO SHI","town":"SHOWA","perfecture_jp":"山形県","jp_add_1":"新庄市","jp_add_2":"昭和"},"9995191":{"post_code":"9995191","prefecture":"YAMAGATA KEN","city":"SHINJO SHI","town":"TOKAMACHI(NEKOYASHIKI329-356)","perfecture_jp":"山形県","jp_add_1":"新庄市","jp_add_2":"十日町"},"9995102":{"post_code":"9995102","prefecture":"YAMAGATA KEN","city":"SHINJO SHI","town":"HAGINO","perfecture_jp":"山形県","jp_add_1":"新庄市","jp_add_2":"萩野"},"9993100":{"post_code":"9993100","prefecture":"YAMAGATA KEN","city":"KAMINOYAMA SHI","town":"IKANIKEISAIGANAIBAAI","perfecture_jp":"山形県","jp_add_1":"上山市","jp_add_2":""},"9993222":{"post_code":"9993222","prefecture":"YAMAGATA KEN","city":"KAMINOYAMA SHI","town":"AIOI","perfecture_jp":"山形県","jp_add_1":"上山市","jp_add_2":"相生"},"9993164":{"post_code":"9993164","prefecture":"YAMAGATA KEN","city":"KAMINOYAMA SHI","town":"ASAHIDAI","perfecture_jp":"山形県","jp_add_1":"上山市","jp_add_2":"朝日台"},"9993106":{"post_code":"9993106","prefecture":"YAMAGATA KEN","city":"KAMINOYAMA SHI","town":"ASAHIMACHI","perfecture_jp":"山形県","jp_add_1":"上山市","jp_add_2":"旭町"},"9993235":{"post_code":"9993235","prefecture":"YAMAGATA KEN","city":"KAMINOYAMA SHI","town":"AMIDACHI","perfecture_jp":"山形県","jp_add_1":"上山市","jp_add_2":"阿弥陀地"},"9993144":{"post_code":"9993144","prefecture":"YAMAGATA KEN","city":"KAMINOYAMA SHI","town":"ISHIZAKI","perfecture_jp":"山形県","jp_add_1":"上山市","jp_add_2":"石崎"},"9993244":{"post_code":"9993244","prefecture":"YAMAGATA KEN","city":"KAMINOYAMA SHI","town":"ISHIZONE","perfecture_jp":"山形県","jp_add_1":"上山市","jp_add_2":"石曽根"},"9993231":{"post_code":"9993231","prefecture":"YAMAGATA KEN","city":"KAMINOYAMA SHI","town":"ISHIDO","perfecture_jp":"山形県","jp_add_1":"上山市","jp_add_2":"石堂"},"9993105":{"post_code":"9993105","prefecture":"YAMAGATA KEN","city":"KAMINOYAMA SHI","town":"IZUMIKAWA","perfecture_jp":"山形県","jp_add_1":"上山市","jp_add_2":"泉川"},"9993165":{"post_code":"9993165","prefecture":"YAMAGATA KEN","city":"KAMINOYAMA SHI","town":"URAMACHI","perfecture_jp":"山形県","jp_add_1":"上山市","jp_add_2":"裏町"},"9993157":{"post_code":"9993157","prefecture":"YAMAGATA KEN","city":"KAMINOYAMA SHI","town":"OIDOCHO","perfecture_jp":"山形県","jp_add_1":"上山市","jp_add_2":"御井戸丁"},"9993167":{"post_code":"9993167","prefecture":"YAMAGATA KEN","city":"KAMINOYAMA SHI","town":"OISHI","perfecture_jp":"山形県","jp_add_1":"上山市","jp_add_2":"大石"},"9993112":{"post_code":"9993112","prefecture":"YAMAGATA KEN","city":"KAMINOYAMA SHI","town":"OGURA","perfecture_jp":"山形県","jp_add_1":"上山市","jp_add_2":"小倉"},"9993214":{"post_code":"9993214","prefecture":"YAMAGATA KEN","city":"KAMINOYAMA SHI","town":"OZASA","perfecture_jp":"山形県","jp_add_1":"上山市","jp_add_2":"小笹"},"9993172":{"post_code":"9993172","prefecture":"YAMAGATA KEN","city":"KAMINOYAMA SHI","town":"OJIRAFU","perfecture_jp":"山形県","jp_add_1":"上山市","jp_add_2":"小白府"},"9993124":{"post_code":"9993124","prefecture":"YAMAGATA KEN","city":"KAMINOYAMA SHI","town":"KANAOI","perfecture_jp":"山形県","jp_add_1":"上山市","jp_add_2":"金生"},"9993126":{"post_code":"9993126","prefecture":"YAMAGATA KEN","city":"KAMINOYAMA SHI","town":"KANAOINISHI","perfecture_jp":"山形県","jp_add_1":"上山市","jp_add_2":"金生西"},"9993125":{"post_code":"9993125","prefecture":"YAMAGATA KEN","city":"KAMINOYAMA SHI","town":"KANAOIHIGASHI","perfecture_jp":"山形県","jp_add_1":"上山市","jp_add_2":"金生東"},"9993101":{"post_code":"9993101","prefecture":"YAMAGATA KEN","city":"KAMINOYAMA SHI","town":"KANAKAME","perfecture_jp":"山形県","jp_add_1":"上山市","jp_add_2":"金瓶"},"9993103":{"post_code":"9993103","prefecture":"YAMAGATA KEN","city":"KAMINOYAMA SHI","town":"KANAYA","perfecture_jp":"山形県","jp_add_1":"上山市","jp_add_2":"金谷"},"9993226":{"post_code":"9993226","prefecture":"YAMAGATA KEN","city":"KAMINOYAMA SHI","town":"KANEYAMA","perfecture_jp":"山形県","jp_add_1":"上山市","jp_add_2":"金山"},"9993204":{"post_code":"9993204","prefecture":"YAMAGATA KEN","city":"KAMINOYAMA SHI","town":"KAMINAMAI","perfecture_jp":"山形県","jp_add_1":"上山市","jp_add_2":"上生居"},"9993163":{"post_code":"9993163","prefecture":"YAMAGATA KEN","city":"KAMINOYAMA SHI","town":"KARUIZAWA","perfecture_jp":"山形県","jp_add_1":"上山市","jp_add_2":"軽井沢"},"9993245":{"post_code":"9993245","prefecture":"YAMAGATA KEN","city":"KAMINOYAMA SHI","town":"KAWAGUCHI","perfecture_jp":"山形県","jp_add_1":"上山市","jp_add_2":"川口"},"9993145":{"post_code":"9993145","prefecture":"YAMAGATA KEN","city":"KAMINOYAMA SHI","town":"KAWASAKI","perfecture_jp":"山形県","jp_add_1":"上山市","jp_add_2":"河崎"},"9993131":{"post_code":"9993131","prefecture":"YAMAGATA KEN","city":"KAMINOYAMA SHI","town":"KITAMACHI","perfecture_jp":"山形県","jp_add_1":"上山市","jp_add_2":"北町"},"9993151":{"post_code":"9993151","prefecture":"YAMAGATA KEN","city":"KAMINOYAMA SHI","town":"KITAMACHIHONCHO","perfecture_jp":"山形県","jp_add_1":"上山市","jp_add_2":"北町本丁"},"9993215":{"post_code":"9993215","prefecture":"YAMAGATA KEN","city":"KAMINOYAMA SHI","town":"KUBOKAWA","perfecture_jp":"山形県","jp_add_1":"上山市","jp_add_2":"久保川"},"9993166":{"post_code":"9993166","prefecture":"YAMAGATA KEN","city":"KAMINOYAMA SHI","town":"KUBOTE","perfecture_jp":"山形県","jp_add_1":"上山市","jp_add_2":"久保手"},"9993241":{"post_code":"9993241","prefecture":"YAMAGATA KEN","city":"KAMINOYAMA SHI","town":"KEYAKINOMORI","perfecture_jp":"山形県","jp_add_1":"上山市","jp_add_2":"けやきの森"},"9993237":{"post_code":"9993237","prefecture":"YAMAGATA KEN","city":"KAMINOYAMA SHI","town":"KOANA","perfecture_jp":"山形県","jp_add_1":"上山市","jp_add_2":"小穴"},"9993115":{"post_code":"9993115","prefecture":"YAMAGATA KEN","city":"KAMINOYAMA SHI","town":"KOYA","perfecture_jp":"山形県","jp_add_1":"上山市","jp_add_2":"高野"},"9993111":{"post_code":"9993111","prefecture":"YAMAGATA KEN","city":"KAMINOYAMA SHI","town":"GONGENDO","perfecture_jp":"山形県","jp_add_1":"上山市","jp_add_2":"権現堂"},"9993113":{"post_code":"9993113","prefecture":"YAMAGATA KEN","city":"KAMINOYAMA SHI","town":"ZAO","perfecture_jp":"山形県","jp_add_1":"上山市","jp_add_2":"蔵王"},"9993104":{"post_code":"9993104","prefecture":"YAMAGATA KEN","city":"KAMINOYAMA SHI","town":"ZAONOMORI","perfecture_jp":"山形県","jp_add_1":"上山市","jp_add_2":"蔵王の森"},"9993132":{"post_code":"9993132","prefecture":"YAMAGATA KEN","city":"KAMINOYAMA SHI","town":"SAKAEMACHI","perfecture_jp":"山形県","jp_add_1":"上山市","jp_add_2":"栄町"},"9993142":{"post_code":"9993142","prefecture":"YAMAGATA KEN","city":"KAMINOYAMA SHI","town":"SAWACHO","perfecture_jp":"山形県","jp_add_1":"上山市","jp_add_2":"沢丁"},"9993233":{"post_code":"9993233","prefecture":"YAMAGATA KEN","city":"KAMINOYAMA SHI","town":"SAMBOMMATSU","perfecture_jp":"山形県","jp_add_1":"上山市","jp_add_2":"三本松"},"9993202":{"post_code":"9993202","prefecture":"YAMAGATA KEN","city":"KAMINOYAMA SHI","town":"SHIMONAMAI","perfecture_jp":"山形県","jp_add_1":"上山市","jp_add_2":"下生居"},"9993217":{"post_code":"9993217","prefecture":"YAMAGATA KEN","city":"KAMINOYAMA SHI","town":"SHOBU","perfecture_jp":"山形県","jp_add_1":"上山市","jp_add_2":"菖蒲"},"9993102":{"post_code":"9993102","prefecture":"YAMAGATA KEN","city":"KAMINOYAMA SHI","town":"SHINKANAYA","perfecture_jp":"山形県","jp_add_1":"上山市","jp_add_2":"新金谷"},"9993152":{"post_code":"9993152","prefecture":"YAMAGATA KEN","city":"KAMINOYAMA SHI","town":"SHINCHO","perfecture_jp":"山形県","jp_add_1":"上山市","jp_add_2":"新丁"},"9993158":{"post_code":"9993158","prefecture":"YAMAGATA KEN","city":"KAMINOYAMA SHI","town":"SHIMMACHI","perfecture_jp":"山形県","jp_add_1":"上山市","jp_add_2":"新町"},"9993141":{"post_code":"9993141","prefecture":"YAMAGATA KEN","city":"KAMINOYAMA SHI","town":"SHINYU","perfecture_jp":"山形県","jp_add_1":"上山市","jp_add_2":"新湯"},"9993213":{"post_code":"9993213","prefecture":"YAMAGATA KEN","city":"KAMINOYAMA SHI","town":"SUDAITA","perfecture_jp":"山形県","jp_add_1":"上山市","jp_add_2":"須田板"},"9993221":{"post_code":"9993221","prefecture":"YAMAGATA KEN","city":"KAMINOYAMA SHI","town":"SEKINE","perfecture_jp":"山形県","jp_add_1":"上山市","jp_add_2":"関根"},"9993122":{"post_code":"9993122","prefecture":"YAMAGATA KEN","city":"KAMINOYAMA SHI","town":"SENGOKU","perfecture_jp":"山形県","jp_add_1":"上山市","jp_add_2":"仙石"},"9993216":{"post_code":"9993216","prefecture":"YAMAGATA KEN","city":"KAMINOYAMA SHI","town":"DAIMON","perfecture_jp":"山形県","jp_add_1":"上山市","jp_add_2":"大門"},"9993243":{"post_code":"9993243","prefecture":"YAMAGATA KEN","city":"KAMINOYAMA SHI","town":"TAKAMATSU","perfecture_jp":"山形県","jp_add_1":"上山市","jp_add_2":"高松"},"9993155":{"post_code":"9993155","prefecture":"YAMAGATA KEN","city":"KAMINOYAMA SHI","town":"TSURUHAGICHO","perfecture_jp":"山形県","jp_add_1":"上山市","jp_add_2":"鶴脛町"},"9993234":{"post_code":"9993234","prefecture":"YAMAGATA KEN","city":"KAMINOYAMA SHI","town":"TOGO","perfecture_jp":"山形県","jp_add_1":"上山市","jp_add_2":"藤吾"},"9993153":{"post_code":"9993153","prefecture":"YAMAGATA KEN","city":"KAMINOYAMA SHI","town":"TOKAMACHI","perfecture_jp":"山形県","jp_add_1":"上山市","jp_add_2":"十日町"},"9993203":{"post_code":"9993203","prefecture":"YAMAGATA KEN","city":"KAMINOYAMA SHI","town":"NAKANAMAI","perfecture_jp":"山形県","jp_add_1":"上山市","jp_add_2":"中生居"},"9993246":{"post_code":"9993246","prefecture":"YAMAGATA KEN","city":"KAMINOYAMA SHI","town":"NAKAYAMA","perfecture_jp":"山形県","jp_add_1":"上山市","jp_add_2":"中山"},"9993232":{"post_code":"9993232","prefecture":"YAMAGATA KEN","city":"KAMINOYAMA SHI","town":"NAGASHIMIZU","perfecture_jp":"山形県","jp_add_1":"上山市","jp_add_2":"長清水"},"9993114":{"post_code":"9993114","prefecture":"YAMAGATA KEN","city":"KAMINOYAMA SHI","town":"NAGANO","perfecture_jp":"山形県","jp_add_1":"上山市","jp_add_2":"永野"},"9993225":{"post_code":"9993225","prefecture":"YAMAGATA KEN","city":"KAMINOYAMA SHI","town":"NARAGE","perfecture_jp":"山形県","jp_add_1":"上山市","jp_add_2":"楢下"},"9993242":{"post_code":"9993242","prefecture":"YAMAGATA KEN","city":"KAMINOYAMA SHI","town":"HAYAMA","perfecture_jp":"山形県","jp_add_1":"上山市","jp_add_2":"葉山"},"9993212":{"post_code":"9993212","prefecture":"YAMAGATA KEN","city":"KAMINOYAMA SHI","town":"HARAGUCHI","perfecture_jp":"山形県","jp_add_1":"上山市","jp_add_2":"原口"},"9993121":{"post_code":"9993121","prefecture":"YAMAGATA KEN","city":"KAMINOYAMA SHI","town":"HIGASHIMACHI","perfecture_jp":"山形県","jp_add_1":"上山市","jp_add_2":"東町"},"9993143":{"post_code":"9993143","prefecture":"YAMAGATA KEN","city":"KAMINOYAMA SHI","town":"FUTSUKAMACHI","perfecture_jp":"山形県","jp_add_1":"上山市","jp_add_2":"二日町"},"9993161":{"post_code":"9993161","prefecture":"YAMAGATA KEN","city":"KAMINOYAMA SHI","town":"BENTEN","perfecture_jp":"山形県","jp_add_1":"上山市","jp_add_2":"弁天"},"9993236":{"post_code":"9993236","prefecture":"YAMAGATA KEN","city":"KAMINOYAMA SHI","town":"HOSOYA","perfecture_jp":"山形県","jp_add_1":"上山市","jp_add_2":"細谷"},"9993211":{"post_code":"9993211","prefecture":"YAMAGATA KEN","city":"KAMINOYAMA SHI","town":"MAGINO","perfecture_jp":"山形県","jp_add_1":"上山市","jp_add_2":"牧野"},"9993146":{"post_code":"9993146","prefecture":"YAMAGATA KEN","city":"KAMINOYAMA SHI","town":"MATSUYAMA","perfecture_jp":"山形県","jp_add_1":"上山市","jp_add_2":"松山"},"9993223":{"post_code":"9993223","prefecture":"YAMAGATA KEN","city":"KAMINOYAMA SHI","town":"MIKAMI","perfecture_jp":"山形県","jp_add_1":"上山市","jp_add_2":"三上"},"9993123":{"post_code":"9993123","prefecture":"YAMAGATA KEN","city":"KAMINOYAMA SHI","town":"MISAKICHO","perfecture_jp":"山形県","jp_add_1":"上山市","jp_add_2":"美咲町"},"9993224":{"post_code":"9993224","prefecture":"YAMAGATA KEN","city":"KAMINOYAMA SHI","town":"MINAZAWA","perfecture_jp":"山形県","jp_add_1":"上山市","jp_add_2":"皆沢"},"9993135":{"post_code":"9993135","prefecture":"YAMAGATA KEN","city":"KAMINOYAMA SHI","town":"MINAMIMACHI","perfecture_jp":"山形県","jp_add_1":"上山市","jp_add_2":"南町"},"9993107":{"post_code":"9993107","prefecture":"YAMAGATA KEN","city":"KAMINOYAMA SHI","town":"MIHARASHINOKA","perfecture_jp":"山形県","jp_add_1":"上山市","jp_add_2":"みはらしの丘"},"9993201":{"post_code":"9993201","prefecture":"YAMAGATA KEN","city":"KAMINOYAMA SHI","town":"MIYANOWAKI","perfecture_jp":"山形県","jp_add_1":"上山市","jp_add_2":"宮脇"},"9993171":{"post_code":"9993171","prefecture":"YAMAGATA KEN","city":"KAMINOYAMA SHI","town":"MUJINAMORI","perfecture_jp":"山形県","jp_add_1":"上山市","jp_add_2":"狸森"},"9993154":{"post_code":"9993154","prefecture":"YAMAGATA KEN","city":"KAMINOYAMA SHI","town":"MOTOJONAI","perfecture_jp":"山形県","jp_add_1":"上山市","jp_add_2":"元城内"},"9993134":{"post_code":"9993134","prefecture":"YAMAGATA KEN","city":"KAMINOYAMA SHI","town":"YARAI","perfecture_jp":"山形県","jp_add_1":"上山市","jp_add_2":"矢来"},"9993156":{"post_code":"9993156","prefecture":"YAMAGATA KEN","city":"KAMINOYAMA SHI","town":"YUMACHI","perfecture_jp":"山形県","jp_add_1":"上山市","jp_add_2":"湯町"},"9993133":{"post_code":"9993133","prefecture":"YAMAGATA KEN","city":"KAMINOYAMA SHI","town":"YOKAMACHI","perfecture_jp":"山形県","jp_add_1":"上山市","jp_add_2":"八日町"},"9993162":{"post_code":"9993162","prefecture":"YAMAGATA KEN","city":"KAMINOYAMA SHI","town":"YOTSUYA","perfecture_jp":"山形県","jp_add_1":"上山市","jp_add_2":"四ツ谷"},"9993700":{"post_code":"9993700","prefecture":"YAMAGATA KEN","city":"HIGASHINE SHI","town":"IKANIKEISAIGANAIBAAI","perfecture_jp":"山形県","jp_add_1":"東根市","jp_add_2":""},"9993722":{"post_code":"9993722","prefecture":"YAMAGATA KEN","city":"HIGASHINE SHI","town":"IZUMIGO","perfecture_jp":"山形県","jp_add_1":"東根市","jp_add_2":"泉郷"},"9993747":{"post_code":"9993747","prefecture":"YAMAGATA KEN","city":"HIGASHINE SHI","town":"ITAGAKI ODORI","perfecture_jp":"山形県","jp_add_1":"東根市","jp_add_2":"板垣大通り"},"9993749":{"post_code":"9993749","prefecture":"YAMAGATA KEN","city":"HIGASHINE SHI","town":"ITAGAKI KITAKOJI","perfecture_jp":"山形県","jp_add_1":"東根市","jp_add_2":"板垣北小路"},"9993744":{"post_code":"9993744","prefecture":"YAMAGATA KEN","city":"HIGASHINE SHI","town":"ITAGAKI KITADORI","perfecture_jp":"山形県","jp_add_1":"東根市","jp_add_2":"板垣北通り"},"9993746":{"post_code":"9993746","prefecture":"YAMAGATA KEN","city":"HIGASHINE SHI","town":"ITAGAKI SHINDEN","perfecture_jp":"山形県","jp_add_1":"東根市","jp_add_2":"板垣新田"},"9993745":{"post_code":"9993745","prefecture":"YAMAGATA KEN","city":"HIGASHINE SHI","town":"ITAGAKI NAKADORI","perfecture_jp":"山形県","jp_add_1":"東根市","jp_add_2":"板垣中通り"},"9993748":{"post_code":"9993748","prefecture":"YAMAGATA KEN","city":"HIGASHINE SHI","town":"ITAGAKI NISHIKOJI","perfecture_jp":"山形県","jp_add_1":"東根市","jp_add_2":"板垣西小路"},"9993717":{"post_code":"9993717","prefecture":"YAMAGATA KEN","city":"HIGASHINE SHI","town":"IPPONGI","perfecture_jp":"山形県","jp_add_1":"東根市","jp_add_2":"一本木"},"9993726":{"post_code":"9993726","prefecture":"YAMAGATA KEN","city":"HIGASHINE SHI","town":"INOSAWA","perfecture_jp":"山形県","jp_add_1":"東根市","jp_add_2":"猪野沢"},"9993728":{"post_code":"9993728","prefecture":"YAMAGATA KEN","city":"HIGASHINE SHI","town":"OTASHINDEN","perfecture_jp":"山形県","jp_add_1":"東根市","jp_add_2":"太田新田"},"9993714":{"post_code":"9993714","prefecture":"YAMAGATA KEN","city":"HIGASHINE SHI","town":"OBAYASHI","perfecture_jp":"山形県","jp_add_1":"東根市","jp_add_2":"大林"},"9993715":{"post_code":"9993715","prefecture":"YAMAGATA KEN","city":"HIGASHINE SHI","town":"OBAYASHISHINDEN","perfecture_jp":"山形県","jp_add_1":"東根市","jp_add_2":"大林新田"},"9993712":{"post_code":"9993712","prefecture":"YAMAGATA KEN","city":"HIGASHINE SHI","town":"OMORI","perfecture_jp":"山形県","jp_add_1":"東根市","jp_add_2":"大森"},"9993737":{"post_code":"9993737","prefecture":"YAMAGATA KEN","city":"HIGASHINE SHI","town":"OSANAGI","perfecture_jp":"山形県","jp_add_1":"東根市","jp_add_2":"若木"},"9993738":{"post_code":"9993738","prefecture":"YAMAGATA KEN","city":"HIGASHINE SHI","town":"OSANAGI ODORI","perfecture_jp":"山形県","jp_add_1":"東根市","jp_add_2":"若木大通り"},"9993757":{"post_code":"9993757","prefecture":"YAMAGATA KEN","city":"HIGASHINE SHI","town":"OSANAGI KOJI","perfecture_jp":"山形県","jp_add_1":"東根市","jp_add_2":"若木小路"},"9993756":{"post_code":"9993756","prefecture":"YAMAGATA KEN","city":"HIGASHINE SHI","town":"OSANAGI 1-JODORI","perfecture_jp":"山形県","jp_add_1":"東根市","jp_add_2":"若木一条通り"},"9993755":{"post_code":"9993755","prefecture":"YAMAGATA KEN","city":"HIGASHINE SHI","town":"OSANAGI 2-JODORI","perfecture_jp":"山形県","jp_add_1":"東根市","jp_add_2":"若木二条通り"},"9993754":{"post_code":"9993754","prefecture":"YAMAGATA KEN","city":"HIGASHINE SHI","town":"OSANAGI 3-JODORI","perfecture_jp":"山形県","jp_add_1":"東根市","jp_add_2":"若木三条通り"},"9993753":{"post_code":"9993753","prefecture":"YAMAGATA KEN","city":"HIGASHINE SHI","town":"OSANAGI 4-JODORI","perfecture_jp":"山形県","jp_add_1":"東根市","jp_add_2":"若木四条通り"},"9993752":{"post_code":"9993752","prefecture":"YAMAGATA KEN","city":"HIGASHINE SHI","town":"OSANAGI 5-JODORI","perfecture_jp":"山形県","jp_add_1":"東根市","jp_add_2":"若木五条通り"},"9993751":{"post_code":"9993751","prefecture":"YAMAGATA KEN","city":"HIGASHINE SHI","town":"OSANAGIDORI","perfecture_jp":"山形県","jp_add_1":"東根市","jp_add_2":"若木通り"},"9993702":{"post_code":"9993702","prefecture":"YAMAGATA KEN","city":"HIGASHINE SHI","town":"ONSEMMACHI","perfecture_jp":"山形県","jp_add_1":"東根市","jp_add_2":"温泉町"},"9993770":{"post_code":"9993770","prefecture":"YAMAGATA KEN","city":"HIGASHINE SHI","town":"KASHIWABARA","perfecture_jp":"山形県","jp_add_1":"東根市","jp_add_2":"柏原"},"9993716":{"post_code":"9993716","prefecture":"YAMAGATA KEN","city":"HIGASHINE SHI","town":"KANISAWA","perfecture_jp":"山形県","jp_add_1":"東根市","jp_add_2":"蟹沢"},"9993723":{"post_code":"9993723","prefecture":"YAMAGATA KEN","city":"HIGASHINE SHI","town":"KANNONJI","perfecture_jp":"山形県","jp_add_1":"東根市","jp_add_2":"観音寺"},"9993774":{"post_code":"9993774","prefecture":"YAMAGATA KEN","city":"HIGASHINE SHI","town":"KORIYAMA","perfecture_jp":"山形県","jp_add_1":"東根市","jp_add_2":"郡山"},"9993710":{"post_code":"9993710","prefecture":"YAMAGATA KEN","city":"HIGASHINE SHI","town":"KOBAYASHI","perfecture_jp":"山形県","jp_add_1":"東根市","jp_add_2":"小林"},"9993786":{"post_code":"9993786","prefecture":"YAMAGATA KEN","city":"HIGASHINE SHI","town":"SAGINOSHUKU","perfecture_jp":"山形県","jp_add_1":"東根市","jp_add_2":"鷺の宿"},"9993703":{"post_code":"9993703","prefecture":"YAMAGATA KEN","city":"HIGASHINE SHI","town":"SAGINOMORI","perfecture_jp":"山形県","jp_add_1":"東根市","jp_add_2":"鷺ノ森"},"9993720":{"post_code":"9993720","prefecture":"YAMAGATA KEN","city":"HIGASHINE SHI","town":"SAKURAMBOEKIMAE","perfecture_jp":"山形県","jp_add_1":"東根市","jp_add_2":"さくらんぼ駅前"},"9993773":{"post_code":"9993773","prefecture":"YAMAGATA KEN","city":"HIGASHINE SHI","town":"SHIMAOHORI","perfecture_jp":"山形県","jp_add_1":"東根市","jp_add_2":"島大堀"},"9993708":{"post_code":"9993708","prefecture":"YAMAGATA KEN","city":"HIGASHINE SHI","town":"SHIMOGAWARA","perfecture_jp":"山形県","jp_add_1":"東根市","jp_add_2":"下川原"},"9993787":{"post_code":"9993787","prefecture":"YAMAGATA KEN","city":"HIGASHINE SHI","town":"SHIROMIZU","perfecture_jp":"山形県","jp_add_1":"東根市","jp_add_2":"白水"},"9993707":{"post_code":"9993707","prefecture":"YAMAGATA KEN","city":"HIGASHINE SHI","town":"SHINDEMMACHI","perfecture_jp":"山形県","jp_add_1":"東根市","jp_add_2":"新田町"},"9993761":{"post_code":"9993761","prefecture":"YAMAGATA KEN","city":"HIGASHINE SHI","town":"JIMMACHI","perfecture_jp":"山形県","jp_add_1":"東根市","jp_add_2":"神町"},"9993763":{"post_code":"9993763","prefecture":"YAMAGATA KEN","city":"HIGASHINE SHI","town":"JIMMACHI CHUO","perfecture_jp":"山形県","jp_add_1":"東根市","jp_add_2":"神町中央"},"9993764":{"post_code":"9993764","prefecture":"YAMAGATA KEN","city":"HIGASHINE SHI","town":"JIMMACHI HIGASHI","perfecture_jp":"山形県","jp_add_1":"東根市","jp_add_2":"神町東"},"9993766":{"post_code":"9993766","prefecture":"YAMAGATA KEN","city":"HIGASHINE SHI","town":"JIMMACHI NISHI","perfecture_jp":"山形県","jp_add_1":"東根市","jp_add_2":"神町西"},"9993765":{"post_code":"9993765","prefecture":"YAMAGATA KEN","city":"HIGASHINE SHI","town":"JIMMACHI MINAMI","perfecture_jp":"山形県","jp_add_1":"東根市","jp_add_2":"神町南"},"9993762":{"post_code":"9993762","prefecture":"YAMAGATA KEN","city":"HIGASHINE SHI","town":"JIMMACHI KITA","perfecture_jp":"山形県","jp_add_1":"東根市","jp_add_2":"神町北"},"9993731":{"post_code":"9993731","prefecture":"YAMAGATA KEN","city":"HIGASHINE SHI","town":"JIMMACHIEIDAN ODORI","perfecture_jp":"山形県","jp_add_1":"東根市","jp_add_2":"神町営団大通り"},"9993732":{"post_code":"9993732","prefecture":"YAMAGATA KEN","city":"HIGASHINE SHI","town":"JIMMACHIEIDAN NAKADORI","perfecture_jp":"山形県","jp_add_1":"東根市","jp_add_2":"神町営団中通り"},"9993736":{"post_code":"9993736","prefecture":"YAMAGATA KEN","city":"HIGASHINE SHI","town":"JIMMACHIEIDAN MINAMIDORI","perfecture_jp":"山形県","jp_add_1":"東根市","jp_add_2":"神町営団南通り"},"9993735":{"post_code":"9993735","prefecture":"YAMAGATA KEN","city":"HIGASHINE SHI","town":"JIMMACHIEIDAN 1-JODORI","perfecture_jp":"山形県","jp_add_1":"東根市","jp_add_2":"神町営団一条通り"},"9993734":{"post_code":"9993734","prefecture":"YAMAGATA KEN","city":"HIGASHINE SHI","town":"JIMMACHIEIDAN 2-JODORI","perfecture_jp":"山形県","jp_add_1":"東根市","jp_add_2":"神町営団二条通り"},"9993733":{"post_code":"9993733","prefecture":"YAMAGATA KEN","city":"HIGASHINE SHI","town":"JIMMACHIEIDAN 3-JODORI","perfecture_jp":"山形県","jp_add_1":"東根市","jp_add_2":"神町営団三条通り"},"9993724":{"post_code":"9993724","prefecture":"YAMAGATA KEN","city":"HIGASHINE SHI","town":"SEKIYAMA","perfecture_jp":"山形県","jp_add_1":"東根市","jp_add_2":"関山"},"9993711":{"post_code":"9993711","prefecture":"YAMAGATA KEN","city":"HIGASHINE SHI","town":"CHUO","perfecture_jp":"山形県","jp_add_1":"東根市","jp_add_2":"中央"},"9993729":{"post_code":"9993729","prefecture":"YAMAGATA KEN","city":"HIGASHINE SHI","town":"CHUO HIGASHI","perfecture_jp":"山形県","jp_add_1":"東根市","jp_add_2":"中央東"},"9993719":{"post_code":"9993719","prefecture":"YAMAGATA KEN","city":"HIGASHINE SHI","town":"CHUO NISHI","perfecture_jp":"山形県","jp_add_1":"東根市","jp_add_2":"中央西"},"9993730":{"post_code":"9993730","prefecture":"YAMAGATA KEN","city":"HIGASHINE SHI","town":"CHUO MINAMI","perfecture_jp":"山形県","jp_add_1":"東根市","jp_add_2":"中央南"},"9993778":{"post_code":"9993778","prefecture":"YAMAGATA KEN","city":"HIGASHINE SHI","town":"TOSUKESHINDEN","perfecture_jp":"山形県","jp_add_1":"東根市","jp_add_2":"藤助新田"},"9993743":{"post_code":"9993743","prefecture":"YAMAGATA KEN","city":"HIGASHINE SHI","town":"NAKAJIMA SHINDEN","perfecture_jp":"山形県","jp_add_1":"東根市","jp_add_2":"中島新田"},"9993742":{"post_code":"9993742","prefecture":"YAMAGATA KEN","city":"HIGASHINE SHI","town":"NAKAJIMA DORI","perfecture_jp":"山形県","jp_add_1":"東根市","jp_add_2":"中島通り"},"9993741":{"post_code":"9993741","prefecture":"YAMAGATA KEN","city":"HIGASHINE SHI","town":"NAKAJIMA HIGASHIDORI","perfecture_jp":"山形県","jp_add_1":"東根市","jp_add_2":"中島東通り"},"9993771":{"post_code":"9993771","prefecture":"YAMAGATA KEN","city":"HIGASHINE SHI","town":"NAGATORO","perfecture_jp":"山形県","jp_add_1":"東根市","jp_add_2":"長瀞"},"9993777":{"post_code":"9993777","prefecture":"YAMAGATA KEN","city":"HIGASHINE SHI","town":"NIKUCHI","perfecture_jp":"山形県","jp_add_1":"東根市","jp_add_2":"荷口"},"9993725":{"post_code":"9993725","prefecture":"YAMAGATA KEN","city":"HIGASHINE SHI","town":"NUMAZAWA","perfecture_jp":"山形県","jp_add_1":"東根市","jp_add_2":"沼沢"},"9993727":{"post_code":"9993727","prefecture":"YAMAGATA KEN","city":"HIGASHINE SHI","town":"NOGAWA","perfecture_jp":"山形県","jp_add_1":"東根市","jp_add_2":"野川"},"9993775":{"post_code":"9993775","prefecture":"YAMAGATA KEN","city":"HIGASHINE SHI","town":"NODA","perfecture_jp":"山形県","jp_add_1":"東根市","jp_add_2":"野田"},"9993776":{"post_code":"9993776","prefecture":"YAMAGATA KEN","city":"HIGASHINE SHI","town":"HANYU","perfecture_jp":"山形県","jp_add_1":"東根市","jp_add_2":"羽入"},"9993779":{"post_code":"9993779","prefecture":"YAMAGATA KEN","city":"HIGASHINE SHI","town":"HANYU HIGASHI","perfecture_jp":"山形県","jp_add_1":"東根市","jp_add_2":"羽入東"},"9993701":{"post_code":"9993701","prefecture":"YAMAGATA KEN","city":"HIGASHINE SHI","town":"HIGASHINE KO","perfecture_jp":"山形県","jp_add_1":"東根市","jp_add_2":"東根甲"},"9993721":{"post_code":"9993721","prefecture":"YAMAGATA KEN","city":"HIGASHINE SHI","town":"HIGASHINE OTSU","perfecture_jp":"山形県","jp_add_1":"東根市","jp_add_2":"東根乙"},"9993704":{"post_code":"9993704","prefecture":"YAMAGATA KEN","city":"HIGASHINE SHI","town":"HIGASHINE HEI","perfecture_jp":"山形県","jp_add_1":"東根市","jp_add_2":"東根丙"},"9993713":{"post_code":"9993713","prefecture":"YAMAGATA KEN","city":"HIGASHINE SHI","town":"HIGASHINE TEI","perfecture_jp":"山形県","jp_add_1":"東根市","jp_add_2":"東根丁"},"9993784":{"post_code":"9993784","prefecture":"YAMAGATA KEN","city":"HIGASHINE SHI","town":"HONCHO","perfecture_jp":"山形県","jp_add_1":"東根市","jp_add_2":"本町"},"9993781":{"post_code":"9993781","prefecture":"YAMAGATA KEN","city":"HIGASHINE SHI","town":"HOMMARU KITA","perfecture_jp":"山形県","jp_add_1":"東根市","jp_add_2":"本丸北"},"9993785":{"post_code":"9993785","prefecture":"YAMAGATA KEN","city":"HIGASHINE SHI","town":"HOMMARU NISHI","perfecture_jp":"山形県","jp_add_1":"東根市","jp_add_2":"本丸西"},"9993782":{"post_code":"9993782","prefecture":"YAMAGATA KEN","city":"HIGASHINE SHI","town":"HOMMARU HIGASHI","perfecture_jp":"山形県","jp_add_1":"東根市","jp_add_2":"本丸東"},"9993783":{"post_code":"9993783","prefecture":"YAMAGATA KEN","city":"HIGASHINE SHI","town":"HOMMARU MINAMI","perfecture_jp":"山形県","jp_add_1":"東根市","jp_add_2":"本丸南"},"9993772":{"post_code":"9993772","prefecture":"YAMAGATA KEN","city":"HIGASHINE SHI","town":"MATSUZAWA","perfecture_jp":"山形県","jp_add_1":"東根市","jp_add_2":"松沢"},"9993706":{"post_code":"9993706","prefecture":"YAMAGATA KEN","city":"HIGASHINE SHI","town":"MIKKAMACHI","perfecture_jp":"山形県","jp_add_1":"東根市","jp_add_2":"三日町"},"9993705":{"post_code":"9993705","prefecture":"YAMAGATA KEN","city":"HIGASHINE SHI","town":"MIYAZAKI","perfecture_jp":"山形県","jp_add_1":"東根市","jp_add_2":"宮崎"},"9993718":{"post_code":"9993718","prefecture":"YAMAGATA KEN","city":"HIGASHINE SHI","town":"YOTSUYA","perfecture_jp":"山形県","jp_add_1":"東根市","jp_add_2":"四ツ家"},"9993709":{"post_code":"9993709","prefecture":"YAMAGATA KEN","city":"HIGASHINE SHI","town":"ROKUTA","perfecture_jp":"山形県","jp_add_1":"東根市","jp_add_2":"六田"},"9994200":{"post_code":"9994200","prefecture":"YAMAGATA KEN","city":"OBANAZAWA SHI","town":"IKANIKEISAIGANAIBAAI","perfecture_jp":"山形県","jp_add_1":"尾花沢市","jp_add_2":""},"9994554":{"post_code":"9994554","prefecture":"YAMAGATA KEN","city":"KITAMURAYAMA GUN OISHIDA MACHI","town":"TAKANOSU(OKAKUSAYAMA)","perfecture_jp":"山形県","jp_add_1":"尾花沢市","jp_add_2":"芦沢"},"9994223":{"post_code":"9994223","prefecture":"YAMAGATA KEN","city":"OBANAZAWA SHI","town":"ISAZAWA","perfecture_jp":"山形県","jp_add_1":"尾花沢市","jp_add_2":"五十沢"},"9994208":{"post_code":"9994208","prefecture":"YAMAGATA KEN","city":"OBANAZAWA SHI","town":"ICHINONO","perfecture_jp":"山形県","jp_add_1":"尾花沢市","jp_add_2":"市野々"},"9994207":{"post_code":"9994207","prefecture":"YAMAGATA KEN","city":"OBANAZAWA SHI","town":"IWAYASAWA","perfecture_jp":"山形県","jp_add_1":"尾花沢市","jp_add_2":"岩谷沢"},"9994552":{"post_code":"9994552","prefecture":"YAMAGATA KEN","city":"OBANAZAWA SHI","town":"OGINOFUKURO","perfecture_jp":"山形県","jp_add_1":"尾花沢市","jp_add_2":"荻袋"},"9994205":{"post_code":"9994205","prefecture":"YAMAGATA KEN","city":"OBANAZAWA SHI","town":"OSHIKIRI","perfecture_jp":"山形県","jp_add_1":"尾花沢市","jp_add_2":"押切"},"9994221":{"post_code":"9994221","prefecture":"YAMAGATA KEN","city":"OBANAZAWA SHI","town":"OBANAZAWA","perfecture_jp":"山形県","jp_add_1":"尾花沢市","jp_add_2":"尾花沢"},"9994222":{"post_code":"9994222","prefecture":"YAMAGATA KEN","city":"OBANAZAWA SHI","town":"OBOROKE","perfecture_jp":"山形県","jp_add_1":"尾花沢市","jp_add_2":"朧気"},"9994204":{"post_code":"9994204","prefecture":"YAMAGATA KEN","city":"OBANAZAWA SHI","town":"KAMINOHATA(175-8)","perfecture_jp":"山形県","jp_add_1":"尾花沢市","jp_add_2":"上ノ畑"},"9994304":{"post_code":"9994304","prefecture":"YAMAGATA KEN","city":"OBANAZAWA SHI","town":"KAMINOHATA(SONOTA)","perfecture_jp":"山形県","jp_add_1":"尾花沢市","jp_add_2":"上ノ畑"},"9994332":{"post_code":"9994332","prefecture":"YAMAGATA KEN","city":"OBANAZAWA SHI","town":"KAMIYANAGIWATARIDO","perfecture_jp":"山形県","jp_add_1":"尾花沢市","jp_add_2":"上柳渡戸"},"9994228":{"post_code":"9994228","prefecture":"YAMAGATA KEN","city":"OBANAZAWA SHI","town":"KAMMACHI","perfecture_jp":"山形県","jp_add_1":"尾花沢市","jp_add_2":"上町"},"9994336":{"post_code":"9994336","prefecture":"YAMAGATA KEN","city":"OBANAZAWA SHI","town":"KITAGO","perfecture_jp":"山形県","jp_add_1":"尾花沢市","jp_add_2":"北郷"},"9994231":{"post_code":"9994231","prefecture":"YAMAGATA KEN","city":"OBANAZAWA SHI","town":"KITAMACHI","perfecture_jp":"山形県","jp_add_1":"尾花沢市","jp_add_2":"北町"},"9994333":{"post_code":"9994333","prefecture":"YAMAGATA KEN","city":"OBANAZAWA SHI","town":"GINZANSHINHATA","perfecture_jp":"山形県","jp_add_1":"尾花沢市","jp_add_2":"銀山新畑"},"9994214":{"post_code":"9994214","prefecture":"YAMAGATA KEN","city":"OBANAZAWA SHI","town":"GOBONO","perfecture_jp":"山形県","jp_add_1":"尾花沢市","jp_add_2":"牛房野"},"9994334":{"post_code":"9994334","prefecture":"YAMAGATA KEN","city":"OBANAZAWA SHI","town":"SHIMOYANAGIWATARIDO","perfecture_jp":"山形県","jp_add_1":"尾花沢市","jp_add_2":"下柳渡戸"},"9994211":{"post_code":"9994211","prefecture":"YAMAGATA KEN","city":"OBANAZAWA SHI","town":"SHOGON","perfecture_jp":"山形県","jp_add_1":"尾花沢市","jp_add_2":"正厳"},"9994224":{"post_code":"9994224","prefecture":"YAMAGATA KEN","city":"OBANAZAWA SHI","town":"SHIMMACHI","perfecture_jp":"山形県","jp_add_1":"尾花沢市","jp_add_2":"新町"},"9994226":{"post_code":"9994226","prefecture":"YAMAGATA KEN","city":"OBANAZAWA SHI","town":"SHIMMACHICHUO","perfecture_jp":"山形県","jp_add_1":"尾花沢市","jp_add_2":"新町中央"},"9994201":{"post_code":"9994201","prefecture":"YAMAGATA KEN","city":"OBANAZAWA SHI","town":"TAKAHASHI","perfecture_jp":"山形県","jp_add_1":"尾花沢市","jp_add_2":"高橋"},"9994443":{"post_code":"9994443","prefecture":"YAMAGATA KEN","city":"OBANAZAWA SHI","town":"TSURUKO","perfecture_jp":"山形県","jp_add_1":"尾花沢市","jp_add_2":"鶴子"},"9994337":{"post_code":"9994337","prefecture":"YAMAGATA KEN","city":"OBANAZAWA SHI","town":"TSURUMAKITA","perfecture_jp":"山形県","jp_add_1":"尾花沢市","jp_add_2":"鶴巻田"},"9994551":{"post_code":"9994551","prefecture":"YAMAGATA KEN","city":"OBANAZAWA SHI","town":"TERAUCHI","perfecture_jp":"山形県","jp_add_1":"尾花沢市","jp_add_2":"寺内"},"9994555":{"post_code":"9994555","prefecture":"YAMAGATA KEN","city":"OBANAZAWA SHI","town":"DOKUSAWA","perfecture_jp":"山形県","jp_add_1":"尾花沢市","jp_add_2":"毒沢"},"9994206":{"post_code":"9994206","prefecture":"YAMAGATA KEN","city":"OBANAZAWA SHI","town":"TOMIYAMA","perfecture_jp":"山形県","jp_add_1":"尾花沢市","jp_add_2":"富山"},"9994203":{"post_code":"9994203","prefecture":"YAMAGATA KEN","city":"OBANAZAWA SHI","town":"NAKAJIMA","perfecture_jp":"山形県","jp_add_1":"尾花沢市","jp_add_2":"中島"},"9994227":{"post_code":"9994227","prefecture":"YAMAGATA KEN","city":"OBANAZAWA SHI","town":"NAKAMACHI","perfecture_jp":"山形県","jp_add_1":"尾花沢市","jp_add_2":"中町"},"9994556":{"post_code":"9994556","prefecture":"YAMAGATA KEN","city":"OBANAZAWA SHI","town":"NAKISAWA","perfecture_jp":"山形県","jp_add_1":"尾花沢市","jp_add_2":"名木沢"},"9994202":{"post_code":"9994202","prefecture":"YAMAGATA KEN","city":"OBANAZAWA SHI","town":"NAMESAWA","perfecture_jp":"山形県","jp_add_1":"尾花沢市","jp_add_2":"行沢"},"9994212":{"post_code":"9994212","prefecture":"YAMAGATA KEN","city":"OBANAZAWA SHI","town":"NITOBUKURO","perfecture_jp":"山形県","jp_add_1":"尾花沢市","jp_add_2":"二藤袋"},"9994213":{"post_code":"9994213","prefecture":"YAMAGATA KEN","city":"OBANAZAWA SHI","town":"NYU","perfecture_jp":"山形県","jp_add_1":"尾花沢市","jp_add_2":"丹生"},"9994553":{"post_code":"9994553","prefecture":"YAMAGATA KEN","city":"OBANAZAWA SHI","town":"NOKUROSAWA","perfecture_jp":"山形県","jp_add_1":"尾花沢市","jp_add_2":"野黒沢"},"9994441":{"post_code":"9994441","prefecture":"YAMAGATA KEN","city":"OBANAZAWA SHI","town":"NOBESAWA","perfecture_jp":"山形県","jp_add_1":"尾花沢市","jp_add_2":"延沢"},"9994445":{"post_code":"9994445","prefecture":"YAMAGATA KEN","city":"OBANAZAWA SHI","town":"HATASAWA","perfecture_jp":"山形県","jp_add_1":"尾花沢市","jp_add_2":"畑沢"},"9994335":{"post_code":"9994335","prefecture":"YAMAGATA KEN","city":"OBANAZAWA SHI","town":"HARADA","perfecture_jp":"山形県","jp_add_1":"尾花沢市","jp_add_2":"原田"},"9994232":{"post_code":"9994232","prefecture":"YAMAGATA KEN","city":"OBANAZAWA SHI","town":"FUMOTOMACHI","perfecture_jp":"山形県","jp_add_1":"尾花沢市","jp_add_2":"梺町"},"9994444":{"post_code":"9994444","prefecture":"YAMAGATA KEN","city":"OBANAZAWA SHI","town":"HOSONO","perfecture_jp":"山形県","jp_add_1":"尾花沢市","jp_add_2":"細野"},"9994557":{"post_code":"9994557","prefecture":"YAMAGATA KEN","city":"OBANAZAWA SHI","town":"MINAMISAWA","perfecture_jp":"山形県","jp_add_1":"尾花沢市","jp_add_2":"南沢"},"9994331":{"post_code":"9994331","prefecture":"YAMAGATA KEN","city":"OBANAZAWA SHI","town":"MOTAI","perfecture_jp":"山形県","jp_add_1":"尾花沢市","jp_add_2":"母袋"},"9994229":{"post_code":"9994229","prefecture":"YAMAGATA KEN","city":"OBANAZAWA SHI","town":"YOKOMACHI","perfecture_jp":"山形県","jp_add_1":"尾花沢市","jp_add_2":"横町"},"9994442":{"post_code":"9994442","prefecture":"YAMAGATA KEN","city":"OBANAZAWA SHI","town":"ROKUSAWA","perfecture_jp":"山形県","jp_add_1":"尾花沢市","jp_add_2":"六沢"},"9994225":{"post_code":"9994225","prefecture":"YAMAGATA KEN","city":"OBANAZAWA SHI","town":"WAKABACHO","perfecture_jp":"山形県","jp_add_1":"尾花沢市","jp_add_2":"若葉町"},"9992200":{"post_code":"9992200","prefecture":"YAMAGATA KEN","city":"NANYO SHI","town":"IKANIKEISAIGANAIBAAI","perfecture_jp":"山形県","jp_add_1":"南陽市","jp_add_2":""},"9992211":{"post_code":"9992211","prefecture":"YAMAGATA KEN","city":"NANYO SHI","town":"AKAYU","perfecture_jp":"山形県","jp_add_1":"南陽市","jp_add_2":"赤湯"},"9992224":{"post_code":"9992224","prefecture":"YAMAGATA KEN","city":"NANYO SHI","town":"OHASHI","perfecture_jp":"山形県","jp_add_1":"南陽市","jp_add_2":"大橋"},"9992252":{"post_code":"9992252","prefecture":"YAMAGATA KEN","city":"NANYO SHI","town":"OKITA","perfecture_jp":"山形県","jp_add_1":"南陽市","jp_add_2":"沖田"},"9992212":{"post_code":"9992212","prefecture":"YAMAGATA KEN","city":"NANYO SHI","town":"KANEZAWA","perfecture_jp":"山形県","jp_add_1":"南陽市","jp_add_2":"金沢"},"9992201":{"post_code":"9992201","prefecture":"YAMAGATA KEN","city":"NANYO SHI","town":"KAMANOHATA","perfecture_jp":"山形県","jp_add_1":"南陽市","jp_add_2":"釜渡戸"},"9992261":{"post_code":"9992261","prefecture":"YAMAGATA KEN","city":"NANYO SHI","town":"KAMODA","perfecture_jp":"山形県","jp_add_1":"南陽市","jp_add_2":"蒲生田"},"9992204":{"post_code":"9992204","prefecture":"YAMAGATA KEN","city":"NANYO SHI","town":"KAWATOI","perfecture_jp":"山形県","jp_add_1":"南陽市","jp_add_2":"川樋"},"9992221":{"post_code":"9992221","prefecture":"YAMAGATA KEN","city":"NANYO SHI","town":"KUNUGIZUKA","perfecture_jp":"山形県","jp_add_1":"南陽市","jp_add_2":"椚塚"},"9992203":{"post_code":"9992203","prefecture":"YAMAGATA KEN","city":"NANYO SHI","town":"KOIWASAWA","perfecture_jp":"山形県","jp_add_1":"南陽市","jp_add_2":"小岩沢"},"9992241":{"post_code":"9992241","prefecture":"YAMAGATA KEN","city":"NANYO SHI","town":"KORIYAMA","perfecture_jp":"山形県","jp_add_1":"南陽市","jp_add_2":"郡山"},"9992256":{"post_code":"9992256","prefecture":"YAMAGATA KEN","city":"NANYO SHI","town":"SAKAI","perfecture_jp":"山形県","jp_add_1":"南陽市","jp_add_2":"坂井"},"9992244":{"post_code":"9992244","prefecture":"YAMAGATA KEN","city":"NANYO SHI","town":"SHIMANUKI","perfecture_jp":"山形県","jp_add_1":"南陽市","jp_add_2":"島貫"},"9992205":{"post_code":"9992205","prefecture":"YAMAGATA KEN","city":"NANYO SHI","town":"SHINDEN","perfecture_jp":"山形県","jp_add_1":"南陽市","jp_add_2":"新田"},"9992255":{"post_code":"9992255","prefecture":"YAMAGATA KEN","city":"NANYO SHI","town":"SEKINE","perfecture_jp":"山形県","jp_add_1":"南陽市","jp_add_2":"関根"},"9992251":{"post_code":"9992251","prefecture":"YAMAGATA KEN","city":"NANYO SHI","town":"TAKANASHI","perfecture_jp":"山形県","jp_add_1":"南陽市","jp_add_2":"高梨"},"9992234":{"post_code":"9992234","prefecture":"YAMAGATA KEN","city":"NANYO SHI","town":"CHUOHIGASHI","perfecture_jp":"山形県","jp_add_1":"南陽市","jp_add_2":"中央東"},"9992254":{"post_code":"9992254","prefecture":"YAMAGATA KEN","city":"NANYO SHI","town":"TSUYUHASHI","perfecture_jp":"山形県","jp_add_1":"南陽市","jp_add_2":"露橋"},"9992264":{"post_code":"9992264","prefecture":"YAMAGATA KEN","city":"NANYO SHI","town":"NAKAOCHIAI","perfecture_jp":"山形県","jp_add_1":"南陽市","jp_add_2":"中落合"},"9992242":{"post_code":"9992242","prefecture":"YAMAGATA KEN","city":"NANYO SHI","town":"NAKANOME","perfecture_jp":"山形県","jp_add_1":"南陽市","jp_add_2":"中ノ目"},"9992222":{"post_code":"9992222","prefecture":"YAMAGATA KEN","city":"NANYO SHI","town":"NAGAOKA","perfecture_jp":"山形県","jp_add_1":"南陽市","jp_add_2":"長岡"},"9992266":{"post_code":"9992266","prefecture":"YAMAGATA KEN","city":"NANYO SHI","town":"NAGATORO","perfecture_jp":"山形県","jp_add_1":"南陽市","jp_add_2":"長瀞"},"9992243":{"post_code":"9992243","prefecture":"YAMAGATA KEN","city":"NANYO SHI","town":"NABETA","perfecture_jp":"山形県","jp_add_1":"南陽市","jp_add_2":"鍋田"},"9992231":{"post_code":"9992231","prefecture":"YAMAGATA KEN","city":"NANYO SHI","town":"NIIRONE","perfecture_jp":"山形県","jp_add_1":"南陽市","jp_add_2":"二色根"},"9992265":{"post_code":"9992265","prefecture":"YAMAGATA KEN","city":"NANYO SHI","town":"NISHIOCHIAI","perfecture_jp":"山形県","jp_add_1":"南陽市","jp_add_2":"西落合"},"9992263":{"post_code":"9992263","prefecture":"YAMAGATA KEN","city":"NANYO SHI","town":"HAGYUDA","perfecture_jp":"山形県","jp_add_1":"南陽市","jp_add_2":"萩生田"},"9992267":{"post_code":"9992267","prefecture":"YAMAGATA KEN","city":"NANYO SHI","town":"HOSHIYANAGI","perfecture_jp":"山形県","jp_add_1":"南陽市","jp_add_2":"法師柳"},"9992213":{"post_code":"9992213","prefecture":"YAMAGATA KEN","city":"NANYO SHI","town":"MATSUZAWA","perfecture_jp":"山形県","jp_add_1":"南陽市","jp_add_2":"松沢"},"9992223":{"post_code":"9992223","prefecture":"YAMAGATA KEN","city":"NANYO SHI","town":"MANAITAYANAGI","perfecture_jp":"山形県","jp_add_1":"南陽市","jp_add_2":"俎柳"},"9992232":{"post_code":"9992232","prefecture":"YAMAGATA KEN","city":"NANYO SHI","town":"MITSUMADORI","perfecture_jp":"山形県","jp_add_1":"南陽市","jp_add_2":"三間通"},"9992253":{"post_code":"9992253","prefecture":"YAMAGATA KEN","city":"NANYO SHI","town":"MIYAZAKI","perfecture_jp":"山形県","jp_add_1":"南陽市","jp_add_2":"宮崎"},"9992202":{"post_code":"9992202","prefecture":"YAMAGATA KEN","city":"NANYO SHI","town":"MOTONAKAYAMA","perfecture_jp":"山形県","jp_add_1":"南陽市","jp_add_2":"元中山"},"9992262":{"post_code":"9992262","prefecture":"YAMAGATA KEN","city":"NANYO SHI","town":"WAKASAGOYA","perfecture_jp":"山形県","jp_add_1":"南陽市","jp_add_2":"若狭郷屋"},"9992233":{"post_code":"9992233","prefecture":"YAMAGATA KEN","city":"NANYO SHI","town":"WANO","perfecture_jp":"山形県","jp_add_1":"南陽市","jp_add_2":"上野"},"9993500":{"post_code":"9993500","prefecture":"YAMAGATA KEN","city":"NISHIMURAYAMA GUN KAHOKU CHO","town":"IKANIKEISAIGANAIBAAI","perfecture_jp":"山形県","jp_add_1":"西村山郡河北町","jp_add_2":""},"9993503":{"post_code":"9993503","prefecture":"YAMAGATA KEN","city":"NISHIMURAYAMA GUN KAHOKU CHO","town":"IWAKI","perfecture_jp":"山形県","jp_add_1":"西村山郡河北町","jp_add_2":"岩木"},"9993501":{"post_code":"9993501","prefecture":"YAMAGATA KEN","city":"NISHIMURAYAMA GUN KAHOKU CHO","town":"SHINYOSHIDA","perfecture_jp":"山形県","jp_add_1":"西村山郡河北町","jp_add_2":"新吉田"},"9993521":{"post_code":"9993521","prefecture":"YAMAGATA KEN","city":"NISHIMURAYAMA GUN KAHOKU CHO","town":"DAI","perfecture_jp":"山形県","jp_add_1":"西村山郡河北町","jp_add_2":"田井"},"9993532":{"post_code":"9993532","prefecture":"YAMAGATA KEN","city":"NISHIMURAYAMA GUN KAHOKU CHO","town":"TSUKURIYAMA","perfecture_jp":"山形県","jp_add_1":"西村山郡河北町","jp_add_2":"造山"},"9993533":{"post_code":"9993533","prefecture":"YAMAGATA KEN","city":"NISHIMURAYAMA GUN KAHOKU CHO","town":"NISHIZATO","perfecture_jp":"山形県","jp_add_1":"西村山郡河北町","jp_add_2":"西里"},"9993531":{"post_code":"9993531","prefecture":"YAMAGATA KEN","city":"NISHIMURAYAMA GUN KAHOKU CHO","town":"HATAKENAKA","perfecture_jp":"山形県","jp_add_1":"西村山郡河北町","jp_add_2":"畑中"},"9993522":{"post_code":"9993522","prefecture":"YAMAGATA KEN","city":"NISHIMURAYAMA GUN KAHOKU CHO","town":"MIZONOBE","perfecture_jp":"山形県","jp_add_1":"西村山郡河北町","jp_add_2":"溝延"},"9993511":{"post_code":"9993511","prefecture":"YAMAGATA KEN","city":"NISHIMURAYAMA GUN KAHOKU CHO","town":"YACHI","perfecture_jp":"山形県","jp_add_1":"西村山郡河北町","jp_add_2":"谷地"},"9993515":{"post_code":"9993515","prefecture":"YAMAGATA KEN","city":"NISHIMURAYAMA GUN KAHOKU CHO","town":"YACHIARAMACHIHIGASHI","perfecture_jp":"山形県","jp_add_1":"西村山郡河北町","jp_add_2":"谷地荒町東"},"9993512":{"post_code":"9993512","prefecture":"YAMAGATA KEN","city":"NISHIMURAYAMA GUN KAHOKU CHO","town":"YACHICHUO","perfecture_jp":"山形県","jp_add_1":"西村山郡河北町","jp_add_2":"谷地中央"},"9993513":{"post_code":"9993513","prefecture":"YAMAGATA KEN","city":"NISHIMURAYAMA GUN KAHOKU CHO","town":"YACHITOKOROKA","perfecture_jp":"山形県","jp_add_1":"西村山郡河北町","jp_add_2":"谷地所岡"},"9993514":{"post_code":"9993514","prefecture":"YAMAGATA KEN","city":"NISHIMURAYAMA GUN KAHOKU CHO","town":"YACHIHINAICHI","perfecture_jp":"山形県","jp_add_1":"西村山郡河北町","jp_add_2":"谷地ひな市"},"9993502":{"post_code":"9993502","prefecture":"YAMAGATA KEN","city":"NISHIMURAYAMA GUN KAHOKU CHO","town":"YOSHIDA","perfecture_jp":"山形県","jp_add_1":"西村山郡河北町","jp_add_2":"吉田"},"9994100":{"post_code":"9994100","prefecture":"YAMAGATA KEN","city":"KITAMURAYAMA GUN OISHIDA MACHI","town":"IKANIKEISAIGANAIBAAI","perfecture_jp":"山形県","jp_add_1":"北村山郡大石田町","jp_add_2":""},"9994113":{"post_code":"9994113","prefecture":"YAMAGATA KEN","city":"KITAMURAYAMA GUN OISHIDA MACHI","town":"IMASHUKU","perfecture_jp":"山形県","jp_add_1":"北村山郡大石田町","jp_add_2":"今宿"},"9994103":{"post_code":"9994103","prefecture":"YAMAGATA KEN","city":"KITAMURAYAMA GUN OISHIDA MACHI","town":"IWAGAFUKURO","perfecture_jp":"山形県","jp_add_1":"北村山郡大石田町","jp_add_2":"岩ケ袋"},"9994116":{"post_code":"9994116","prefecture":"YAMAGATA KEN","city":"KITAMURAYAMA GUN OISHIDA MACHI","town":"EKIMAEDORI","perfecture_jp":"山形県","jp_add_1":"北村山郡大石田町","jp_add_2":"駅前通り"},"9994111":{"post_code":"9994111","prefecture":"YAMAGATA KEN","city":"KITAMURAYAMA GUN OISHIDA MACHI","town":"OISHIDA","perfecture_jp":"山形県","jp_add_1":"北村山郡大石田町","jp_add_2":"大石田"},"9994131":{"post_code":"9994131","prefecture":"YAMAGATA KEN","city":"KITAMURAYAMA GUN OISHIDA MACHI","town":"OURA","perfecture_jp":"山形県","jp_add_1":"北村山郡大石田町","jp_add_2":"大浦"},"9994102":{"post_code":"9994102","prefecture":"YAMAGATA KEN","city":"KITAMURAYAMA GUN OISHIDA MACHI","town":"KAIYA","perfecture_jp":"山形県","jp_add_1":"北村山郡大石田町","jp_add_2":"海谷"},"9994115":{"post_code":"9994115","prefecture":"YAMAGATA KEN","city":"KITAMURAYAMA GUN OISHIDA MACHI","town":"KATSURAGICHO","perfecture_jp":"山形県","jp_add_1":"北村山郡大石田町","jp_add_2":"桂木町"},"9994133":{"post_code":"9994133","prefecture":"YAMAGATA KEN","city":"KITAMURAYAMA GUN OISHIDA MACHI","town":"KAWAMAE","perfecture_jp":"山形県","jp_add_1":"北村山郡大石田町","jp_add_2":"川前"},"9994132":{"post_code":"9994132","prefecture":"YAMAGATA KEN","city":"KITAMURAYAMA GUN OISHIDA MACHI","town":"KOMAGOME","perfecture_jp":"山形県","jp_add_1":"北村山郡大石田町","jp_add_2":"駒籠"},"9994141":{"post_code":"9994141","prefecture":"YAMAGATA KEN","city":"KITAMURAYAMA GUN OISHIDA MACHI","town":"JINENGO","perfecture_jp":"山形県","jp_add_1":"北村山郡大石田町","jp_add_2":"次年子"},"9994101":{"post_code":"9994101","prefecture":"YAMAGATA KEN","city":"KITAMURAYAMA GUN OISHIDA MACHI","town":"TAKANOSU(SONOTA)","perfecture_jp":"山形県","jp_add_1":"北村山郡大石田町","jp_add_2":"鷹巣"},"9994122":{"post_code":"9994122","prefecture":"YAMAGATA KEN","city":"KITAMURAYAMA GUN OISHIDA MACHI","town":"TAZAWA","perfecture_jp":"山形県","jp_add_1":"北村山郡大石田町","jp_add_2":"田沢"},"9994134":{"post_code":"9994134","prefecture":"YAMAGATA KEN","city":"KITAMURAYAMA GUN OISHIDA MACHI","town":"TOYODA","perfecture_jp":"山形県","jp_add_1":"北村山郡大石田町","jp_add_2":"豊田"},"9994112":{"post_code":"9994112","prefecture":"YAMAGATA KEN","city":"KITAMURAYAMA GUN OISHIDA MACHI","town":"MIDORICHO","perfecture_jp":"山形県","jp_add_1":"北村山郡大石田町","jp_add_2":"緑町"},"9994121":{"post_code":"9994121","prefecture":"YAMAGATA KEN","city":"KITAMURAYAMA GUN OISHIDA MACHI","town":"YOKOYAMA","perfecture_jp":"山形県","jp_add_1":"北村山郡大石田町","jp_add_2":"横山"},"9994114":{"post_code":"9994114","prefecture":"YAMAGATA KEN","city":"KITAMURAYAMA GUN OISHIDA MACHI","town":"YOKKAMACHI","perfecture_jp":"山形県","jp_add_1":"北村山郡大石田町","jp_add_2":"四日町"},"9995400":{"post_code":"9995400","prefecture":"YAMAGATA KEN","city":"MOGAMI GUN KANEYAMA MACHI","town":"IKANIKEISAIGANAIBAAI","perfecture_jp":"山形県","jp_add_1":"最上郡金山町","jp_add_2":""},"9995401":{"post_code":"9995401","prefecture":"YAMAGATA KEN","city":"MOGAMI GUN KANEYAMA MACHI","town":"ARIYA","perfecture_jp":"山形県","jp_add_1":"最上郡金山町","jp_add_2":"有屋"},"9995414":{"post_code":"9995414","prefecture":"YAMAGATA KEN","city":"MOGAMI GUN KANEYAMA MACHI","town":"URUSHINO","perfecture_jp":"山形県","jp_add_1":"最上郡金山町","jp_add_2":"漆野"},"9995405":{"post_code":"9995405","prefecture":"YAMAGATA KEN","city":"MOGAMI GUN KANEYAMA MACHI","town":"UWADAI","perfecture_jp":"山形県","jp_add_1":"最上郡金山町","jp_add_2":"上台"},"9995402":{"post_code":"9995402","prefecture":"YAMAGATA KEN","city":"MOGAMI GUN KANEYAMA MACHI","town":"KANEYAMA","perfecture_jp":"山形県","jp_add_1":"最上郡金山町","jp_add_2":"金山"},"9995404":{"post_code":"9995404","prefecture":"YAMAGATA KEN","city":"MOGAMI GUN KANEYAMA MACHI","town":"SHIMONOMYO","perfecture_jp":"山形県","jp_add_1":"最上郡金山町","jp_add_2":"下野明"},"9995413":{"post_code":"9995413","prefecture":"YAMAGATA KEN","city":"MOGAMI GUN KANEYAMA MACHI","town":"TANIGUCHIGINZAN","perfecture_jp":"山形県","jp_add_1":"最上郡金山町","jp_add_2":"谷口銀山"},"9995412":{"post_code":"9995412","prefecture":"YAMAGATA KEN","city":"MOGAMI GUN KANEYAMA MACHI","town":"TOBINOMORI","perfecture_jp":"山形県","jp_add_1":"最上郡金山町","jp_add_2":"飛森"},"9995411":{"post_code":"9995411","prefecture":"YAMAGATA KEN","city":"MOGAMI GUN KANEYAMA MACHI","town":"NAKADA","perfecture_jp":"山形県","jp_add_1":"最上郡金山町","jp_add_2":"中田"},"9995415":{"post_code":"9995415","prefecture":"YAMAGATA KEN","city":"MOGAMI GUN KANEYAMA MACHI","town":"HOYAMA","perfecture_jp":"山形県","jp_add_1":"最上郡金山町","jp_add_2":"朴山"},"9995403":{"post_code":"9995403","prefecture":"YAMAGATA KEN","city":"MOGAMI GUN KANEYAMA MACHI","town":"YASUZAWA","perfecture_jp":"山形県","jp_add_1":"最上郡金山町","jp_add_2":"安沢"},"9995406":{"post_code":"9995406","prefecture":"YAMAGATA KEN","city":"MOGAMI GUN KANEYAMA MACHI","town":"YAMAZAKI","perfecture_jp":"山形県","jp_add_1":"最上郡金山町","jp_add_2":"山崎"},"9996100":{"post_code":"9996100","prefecture":"YAMAGATA KEN","city":"MOGAMI GUN MOGAMI MACHI","town":"IKANIKEISAIGANAIBAAI","perfecture_jp":"山形県","jp_add_1":"最上郡最上町","jp_add_2":""},"9996211":{"post_code":"9996211","prefecture":"YAMAGATA KEN","city":"MOGAMI GUN MOGAMI MACHI","town":"SEMI","perfecture_jp":"山形県","jp_add_1":"最上郡最上町","jp_add_2":"大堀"},"9996103":{"post_code":"9996103","prefecture":"YAMAGATA KEN","city":"MOGAMI GUN MOGAMI MACHI","town":"KUROSAWA","perfecture_jp":"山形県","jp_add_1":"最上郡最上町","jp_add_2":"黒澤"},"9996106":{"post_code":"9996106","prefecture":"YAMAGATA KEN","city":"MOGAMI GUN MOGAMI MACHI","town":"SAKAIDA","perfecture_jp":"山形県","jp_add_1":"最上郡最上町","jp_add_2":"堺田"},"9996212":{"post_code":"9996212","prefecture":"YAMAGATA KEN","city":"MOGAMI GUN MOGAMI MACHI","town":"SHIMO","perfecture_jp":"山形県","jp_add_1":"最上郡最上町","jp_add_2":"志茂"},"9996215":{"post_code":"9996215","prefecture":"YAMAGATA KEN","city":"MOGAMI GUN MOGAMI MACHI","town":"TSUKIDATE","perfecture_jp":"山形県","jp_add_1":"最上郡最上町","jp_add_2":"月楯"},"9996105":{"post_code":"9996105","prefecture":"YAMAGATA KEN","city":"MOGAMI GUN MOGAMI MACHI","town":"TOMISAWA","perfecture_jp":"山形県","jp_add_1":"最上郡最上町","jp_add_2":"富澤"},"9996102":{"post_code":"9996102","prefecture":"YAMAGATA KEN","city":"MOGAMI GUN MOGAMI MACHI","town":"HIGASHIHODEN","perfecture_jp":"山形県","jp_add_1":"最上郡最上町","jp_add_2":"東法田"},"9996213":{"post_code":"9996213","prefecture":"YAMAGATA KEN","city":"MOGAMI GUN MOGAMI MACHI","town":"HODEN","perfecture_jp":"山形県","jp_add_1":"最上郡最上町","jp_add_2":"法田"},"9996104":{"post_code":"9996104","prefecture":"YAMAGATA KEN","city":"MOGAMI GUN MOGAMI MACHI","town":"HONJO","perfecture_jp":"山形県","jp_add_1":"最上郡最上町","jp_add_2":"本城"},"9996107":{"post_code":"9996107","prefecture":"YAMAGATA KEN","city":"MOGAMI GUN MOGAMI MACHI","town":"MITSUZAWA","perfecture_jp":"山形県","jp_add_1":"最上郡最上町","jp_add_2":"満澤"},"9996101":{"post_code":"9996101","prefecture":"YAMAGATA KEN","city":"MOGAMI GUN MOGAMI MACHI","town":"MUKAIMACHI","perfecture_jp":"山形県","jp_add_1":"最上郡最上町","jp_add_2":"向町"},"9996214":{"post_code":"9996214","prefecture":"YAMAGATA KEN","city":"MOGAMI GUN MOGAMI MACHI","town":"WAKAMIYA","perfecture_jp":"山形県","jp_add_1":"最上郡最上町","jp_add_2":"若宮"},"9994600":{"post_code":"9994600","prefecture":"YAMAGATA KEN","city":"MOGAMI GUN FUNAGATA MACHI","town":"IKANIKEISAIGANAIBAAI","perfecture_jp":"山形県","jp_add_1":"最上郡舟形町","jp_add_2":""},"9994602":{"post_code":"9994602","prefecture":"YAMAGATA KEN","city":"MOGAMI GUN FUNAGATA MACHI","town":"CHOJAHARA","perfecture_jp":"山形県","jp_add_1":"最上郡舟形町","jp_add_2":"長者原"},"9994603":{"post_code":"9994603","prefecture":"YAMAGATA KEN","city":"MOGAMI GUN FUNAGATA MACHI","town":"TOMITA","perfecture_jp":"山形県","jp_add_1":"最上郡舟形町","jp_add_2":"富田"},"9994605":{"post_code":"9994605","prefecture":"YAMAGATA KEN","city":"MOGAMI GUN FUNAGATA MACHI","town":"NAGASAWA","perfecture_jp":"山形県","jp_add_1":"最上郡舟形町","jp_add_2":"長沢"},"9994601":{"post_code":"9994601","prefecture":"YAMAGATA KEN","city":"MOGAMI GUN FUNAGATA MACHI","town":"FUNAGATA","perfecture_jp":"山形県","jp_add_1":"最上郡舟形町","jp_add_2":"舟形"},"9994604":{"post_code":"9994604","prefecture":"YAMAGATA KEN","city":"MOGAMI GUN FUNAGATA MACHI","town":"HORIUCHI","perfecture_jp":"山形県","jp_add_1":"最上郡舟形町","jp_add_2":"堀内"},"9995300":{"post_code":"9995300","prefecture":"YAMAGATA KEN","city":"MOGAMI GUN MAMUROGAWA MACHI","town":"IKANIKEISAIGANAIBAAI","perfecture_jp":"山形県","jp_add_1":"最上郡真室川町","jp_add_2":""},"9995312":{"post_code":"9995312","prefecture":"YAMAGATA KEN","city":"MOGAMI GUN MAMUROGAWA MACHI","town":"ARAMACHI","perfecture_jp":"山形県","jp_add_1":"最上郡真室川町","jp_add_2":"新町"},"9995313":{"post_code":"9995313","prefecture":"YAMAGATA KEN","city":"MOGAMI GUN MAMUROGAWA MACHI","town":"UCHIMACHI","perfecture_jp":"山形県","jp_add_1":"最上郡真室川町","jp_add_2":"内町"},"9995521":{"post_code":"9995521","prefecture":"YAMAGATA KEN","city":"MOGAMI GUN MAMUROGAWA MACHI","town":"OSAWA","perfecture_jp":"山形県","jp_add_1":"最上郡真室川町","jp_add_2":"大沢"},"9995603":{"post_code":"9995603","prefecture":"YAMAGATA KEN","city":"MOGAMI GUN MAMUROGAWA MACHI","town":"OTAKI","perfecture_jp":"山形県","jp_add_1":"最上郡真室川町","jp_add_2":"大滝"},"9995604":{"post_code":"9995604","prefecture":"YAMAGATA KEN","city":"MOGAMI GUN MAMUROGAWA MACHI","town":"KAMABUCHI","perfecture_jp":"山形県","jp_add_1":"最上郡真室川町","jp_add_2":"釜淵"},"9995601":{"post_code":"9995601","prefecture":"YAMAGATA KEN","city":"MOGAMI GUN MAMUROGAWA MACHI","town":"KAWANOCHI(2-128-BANCHI.419-614-BANC","perfecture_jp":"山形県","jp_add_1":"最上郡真室川町","jp_add_2":"川ノ内"},"9995301":{"post_code":"9995301","prefecture":"YAMAGATA KEN","city":"MOGAMI GUN MAMUROGAWA MACHI","town":"KAWANOCHI(SONOTA)","perfecture_jp":"山形県","jp_add_1":"最上郡真室川町","jp_add_2":"川ノ内"},"9995314":{"post_code":"9995314","prefecture":"YAMAGATA KEN","city":"MOGAMI GUN MAMUROGAWA MACHI","town":"KINOSHITA","perfecture_jp":"山形県","jp_add_1":"最上郡真室川町","jp_add_2":"木ノ下"},"9995522":{"post_code":"9995522","prefecture":"YAMAGATA KEN","city":"MOGAMI GUN MAMUROGAWA MACHI","town":"SASUNABE","perfecture_jp":"山形県","jp_add_1":"最上郡真室川町","jp_add_2":"差首鍋"},"9995602":{"post_code":"9995602","prefecture":"YAMAGATA KEN","city":"MOGAMI GUN MAMUROGAWA MACHI","town":"NOZOKI","perfecture_jp":"山形県","jp_add_1":"最上郡真室川町","jp_add_2":"及位"},"9995311":{"post_code":"9995311","prefecture":"YAMAGATA KEN","city":"MOGAMI GUN MAMUROGAWA MACHI","town":"HIRAOKA","perfecture_jp":"山形県","jp_add_1":"最上郡真室川町","jp_add_2":"平岡"},"9995200":{"post_code":"9995200","prefecture":"YAMAGATA KEN","city":"MOGAMI GUN SAKEGAWA MURA","town":"IKANIKEISAIGANAIBAAI","perfecture_jp":"山形県","jp_add_1":"最上郡鮭川村","jp_add_2":""},"9995208":{"post_code":"9995208","prefecture":"YAMAGATA KEN","city":"MOGAMI GUN SAKEGAWA MURA","town":"ISHINAZAKA","perfecture_jp":"山形県","jp_add_1":"最上郡鮭川村","jp_add_2":"石名坂"},"9995203":{"post_code":"9995203","prefecture":"YAMAGATA KEN","city":"MOGAMI GUN SAKEGAWA MURA","town":"KAWAGUCHI","perfecture_jp":"山形県","jp_add_1":"最上郡鮭川村","jp_add_2":"川口"},"9995201":{"post_code":"9995201","prefecture":"YAMAGATA KEN","city":"MOGAMI GUN SAKEGAWA MURA","town":"KYOZUKA","perfecture_jp":"山形県","jp_add_1":"最上郡鮭川村","jp_add_2":"京塚"},"9995202":{"post_code":"9995202","prefecture":"YAMAGATA KEN","city":"MOGAMI GUN SAKEGAWA MURA","town":"SADO","perfecture_jp":"山形県","jp_add_1":"最上郡鮭川村","jp_add_2":"佐渡"},"9995205":{"post_code":"9995205","prefecture":"YAMAGATA KEN","city":"MOGAMI GUN SAKEGAWA MURA","town":"NAKAWATARI","perfecture_jp":"山形県","jp_add_1":"最上郡鮭川村","jp_add_2":"中渡"},"9995207":{"post_code":"9995207","prefecture":"YAMAGATA KEN","city":"MOGAMI GUN SAKEGAWA MURA","town":"NIWAZUKI","perfecture_jp":"山形県","jp_add_1":"最上郡鮭川村","jp_add_2":"庭月"},"9995206":{"post_code":"9995206","prefecture":"YAMAGATA KEN","city":"MOGAMI GUN SAKEGAWA MURA","town":"MAGARIGAWA","perfecture_jp":"山形県","jp_add_1":"最上郡鮭川村","jp_add_2":"曲川"},"9995204":{"post_code":"9995204","prefecture":"YAMAGATA KEN","city":"MOGAMI GUN SAKEGAWA MURA","town":"MUKAI","perfecture_jp":"山形県","jp_add_1":"最上郡鮭川村","jp_add_2":"向居"},"9996400":{"post_code":"9996400","prefecture":"YAMAGATA KEN","city":"MOGAMI GUN TOZAWA MURA","town":"IKANIKEISAIGANAIBAAI","perfecture_jp":"山形県","jp_add_1":"最上郡戸沢村","jp_add_2":""},"9996312":{"post_code":"9996312","prefecture":"YAMAGATA KEN","city":"MOGAMI GUN TOZAWA MURA","town":"IWASHIMIZU","perfecture_jp":"山形県","jp_add_1":"最上郡戸沢村","jp_add_2":"岩清水"},"9996402":{"post_code":"9996402","prefecture":"YAMAGATA KEN","city":"MOGAMI GUN TOZAWA MURA","town":"KURAOKA","perfecture_jp":"山形県","jp_add_1":"最上郡戸沢村","jp_add_2":"蔵岡"},"9996315":{"post_code":"9996315","prefecture":"YAMAGATA KEN","city":"MOGAMI GUN TOZAWA MURA","town":"JINDEN","perfecture_jp":"山形県","jp_add_1":"最上郡戸沢村","jp_add_2":"神田"},"9996403":{"post_code":"9996403","prefecture":"YAMAGATA KEN","city":"MOGAMI GUN TOZAWA MURA","town":"TSUNOKAWA","perfecture_jp":"山形県","jp_add_1":"最上郡戸沢村","jp_add_2":"角川"},"9996311":{"post_code":"9996311","prefecture":"YAMAGATA KEN","city":"MOGAMI GUN TOZAWA MURA","town":"TSUYA","perfecture_jp":"山形県","jp_add_1":"最上郡戸沢村","jp_add_2":"津谷"},"9996313":{"post_code":"9996313","prefecture":"YAMAGATA KEN","city":"MOGAMI GUN TOZAWA MURA","town":"NADAKA","perfecture_jp":"山形県","jp_add_1":"最上郡戸沢村","jp_add_2":"名高"},"9996801":{"post_code":"9996801","prefecture":"YAMAGATA KEN","city":"MOGAMI GUN TOZAWA MURA","town":"FURUKUCHI(KASHIZAWA)","perfecture_jp":"山形県","jp_add_1":"最上郡戸沢村","jp_add_2":"古口"},"9996401":{"post_code":"9996401","prefecture":"YAMAGATA KEN","city":"MOGAMI GUN TOZAWA MURA","town":"FURUKUCHI(SONOTA)","perfecture_jp":"山形県","jp_add_1":"最上郡戸沢村","jp_add_2":"古口"},"9996314":{"post_code":"9996314","prefecture":"YAMAGATA KEN","city":"MOGAMI GUN TOZAWA MURA","town":"MATSUZAKA","perfecture_jp":"山形県","jp_add_1":"最上郡戸沢村","jp_add_2":"松坂"},"9992171":{"post_code":"9992171","prefecture":"YAMAGATA KEN","city":"HIGASHIOKITAMA GUN TAKAHATA MACHI","town":"ISHIOKA","perfecture_jp":"山形県","jp_add_1":"東置賜郡高畠町","jp_add_2":"石岡"},"9992177":{"post_code":"9992177","prefecture":"YAMAGATA KEN","city":"HIGASHIOKITAMA GUN TAKAHATA MACHI","town":"OSONOZUKA","perfecture_jp":"山形県","jp_add_1":"東置賜郡高畠町","jp_add_2":"小其塚"},"9992178":{"post_code":"9992178","prefecture":"YAMAGATA KEN","city":"HIGASHIOKITAMA GUN TAKAHATA MACHI","town":"KAMIHIRAYANAGI","perfecture_jp":"山形県","jp_add_1":"東置賜郡高畠町","jp_add_2":"上平柳"},"9992179":{"post_code":"9992179","prefecture":"YAMAGATA KEN","city":"HIGASHIOKITAMA GUN TAKAHATA MACHI","town":"JAGUCHI","perfecture_jp":"山形県","jp_add_1":"東置賜郡高畠町","jp_add_2":"蛇口"},"9992172":{"post_code":"9992172","prefecture":"YAMAGATA KEN","city":"HIGASHIOKITAMA GUN TAKAHATA MACHI","town":"NATSUMO","perfecture_jp":"山形県","jp_add_1":"東置賜郡高畠町","jp_add_2":"夏茂"},"9992176":{"post_code":"9992176","prefecture":"YAMAGATA KEN","city":"HIGASHIOKITAMA GUN TAKAHATA MACHI","town":"NUKANOME","perfecture_jp":"山形県","jp_add_1":"東置賜郡高畠町","jp_add_2":"糠野目"},"9992174":{"post_code":"9992174","prefecture":"YAMAGATA KEN","city":"HIGASHIOKITAMA GUN TAKAHATA MACHI","town":"FUKUZAWA","perfecture_jp":"山形県","jp_add_1":"東置賜郡高畠町","jp_add_2":"福沢"},"9992175":{"post_code":"9992175","prefecture":"YAMAGATA KEN","city":"HIGASHIOKITAMA GUN TAKAHATA MACHI","town":"FUKUZAWAMINAMI","perfecture_jp":"山形県","jp_add_1":"東置賜郡高畠町","jp_add_2":"福沢南"},"9992173":{"post_code":"9992173","prefecture":"YAMAGATA KEN","city":"HIGASHIOKITAMA GUN TAKAHATA MACHI","town":"YAMAZAKI","perfecture_jp":"山形県","jp_add_1":"東置賜郡高畠町","jp_add_2":"山崎"},"9990100":{"post_code":"9990100","prefecture":"YAMAGATA KEN","city":"HIGASHIOKITAMA GUN KAWANISHI MACHI","town":"IKANIKEISAIGANAIBAAI","perfecture_jp":"山形県","jp_add_1":"東置賜郡川西町","jp_add_2":""},"9990151":{"post_code":"9990151","prefecture":"YAMAGATA KEN","city":"HIGASHIOKITAMA GUN KAWANISHI MACHI","town":"OBUNE","perfecture_jp":"山形県","jp_add_1":"東置賜郡川西町","jp_add_2":"大舟"},"9990213":{"post_code":"9990213","prefecture":"YAMAGATA KEN","city":"HIGASHIOKITAMA GUN KAWANISHI MACHI","town":"ONAGASHIMA","perfecture_jp":"山形県","jp_add_1":"東置賜郡川西町","jp_add_2":"尾長島"},"9990152":{"post_code":"9990152","prefecture":"YAMAGATA KEN","city":"HIGASHIOKITAMA GUN KAWANISHI MACHI","town":"KAMIOKUDA","perfecture_jp":"山形県","jp_add_1":"東置賜郡川西町","jp_add_2":"上奥田"},"9990121":{"post_code":"9990121","prefecture":"YAMAGATA KEN","city":"HIGASHIOKITAMA GUN KAWANISHI MACHI","town":"KAMIKOMATSU","perfecture_jp":"山形県","jp_add_1":"東置賜郡川西町","jp_add_2":"上小松"},"9990131":{"post_code":"9990131","prefecture":"YAMAGATA KEN","city":"HIGASHIOKITAMA GUN KAWANISHI MACHI","town":"KUROKAWA","perfecture_jp":"山形県","jp_add_1":"東置賜郡川西町","jp_add_2":"黒川"},"9990132":{"post_code":"9990132","prefecture":"YAMAGATA KEN","city":"HIGASHIOKITAMA GUN KAWANISHI MACHI","town":"KOZUKU","perfecture_jp":"山形県","jp_add_1":"東置賜郡川西町","jp_add_2":"高豆蒄"},"9990133":{"post_code":"9990133","prefecture":"YAMAGATA KEN","city":"HIGASHIOKITAMA GUN KAWANISHI MACHI","town":"KOMATSU","perfecture_jp":"山形県","jp_add_1":"東置賜郡川西町","jp_add_2":"小松"},"9990145":{"post_code":"9990145","prefecture":"YAMAGATA KEN","city":"HIGASHIOKITAMA GUN KAWANISHI MACHI","town":"SHIMOKUDA","perfecture_jp":"山形県","jp_add_1":"東置賜郡川西町","jp_add_2":"下奥田"},"9990134":{"post_code":"9990134","prefecture":"YAMAGATA KEN","city":"HIGASHIOKITAMA GUN KAWANISHI MACHI","town":"SHIMOKOMATSU","perfecture_jp":"山形県","jp_add_1":"東置賜郡川西町","jp_add_2":"下小松"},"9990212":{"post_code":"9990212","prefecture":"YAMAGATA KEN","city":"HIGASHIOKITAMA GUN KAWANISHI MACHI","town":"SHIMOHIRAYANAGI","perfecture_jp":"山形県","jp_add_1":"東置賜郡川西町","jp_add_2":"下平柳"},"9990211":{"post_code":"9990211","prefecture":"YAMAGATA KEN","city":"HIGASHIOKITAMA GUN KAWANISHI MACHI","town":"SUNOSHIMA","perfecture_jp":"山形県","jp_add_1":"東置賜郡川西町","jp_add_2":"洲島"},"9990141":{"post_code":"9990141","prefecture":"YAMAGATA KEN","city":"HIGASHIOKITAMA GUN KAWANISHI MACHI","town":"TAKAYAMA","perfecture_jp":"山形県","jp_add_1":"東置賜郡川西町","jp_add_2":"高山"},"9990361":{"post_code":"9990361","prefecture":"YAMAGATA KEN","city":"HIGASHIOKITAMA GUN KAWANISHI MACHI","town":"TAMANIWA","perfecture_jp":"山形県","jp_add_1":"東置賜郡川西町","jp_add_2":"玉庭"},"9990144":{"post_code":"9990144","prefecture":"YAMAGATA KEN","city":"HIGASHIOKITAMA GUN KAWANISHI MACHI","town":"TOKIDA","perfecture_jp":"山形県","jp_add_1":"東置賜郡川西町","jp_add_2":"時田"},"9990122":{"post_code":"9990122","prefecture":"YAMAGATA KEN","city":"HIGASHIOKITAMA GUN KAWANISHI MACHI","town":"NAKAKOMATSU","perfecture_jp":"山形県","jp_add_1":"東置賜郡川西町","jp_add_2":"中小松"},"9990143":{"post_code":"9990143","prefecture":"YAMAGATA KEN","city":"HIGASHIOKITAMA GUN KAWANISHI MACHI","town":"NOZOKI","perfecture_jp":"山形県","jp_add_1":"東置賜郡川西町","jp_add_2":"莅"},"9990153":{"post_code":"9990153","prefecture":"YAMAGATA KEN","city":"HIGASHIOKITAMA GUN KAWANISHI MACHI","town":"HONOSAWA","perfecture_jp":"山形県","jp_add_1":"東置賜郡川西町","jp_add_2":"朴沢"},"9990142":{"post_code":"9990142","prefecture":"YAMAGATA KEN","city":"HIGASHIOKITAMA GUN KAWANISHI MACHI","town":"HORIGANE","perfecture_jp":"山形県","jp_add_1":"東置賜郡川西町","jp_add_2":"堀金"},"9990214":{"post_code":"9990214","prefecture":"YAMAGATA KEN","city":"HIGASHIOKITAMA GUN KAWANISHI MACHI","town":"YOSHITA","perfecture_jp":"山形県","jp_add_1":"東置賜郡川西町","jp_add_2":"吉田"},"9991300":{"post_code":"9991300","prefecture":"YAMAGATA KEN","city":"NISHIOKITAMA GUN OGUNI MACHI","town":"IKANIKEISAIGANAIBAAI","perfecture_jp":"山形県","jp_add_1":"西置賜郡小国町","jp_add_2":""},"9991356":{"post_code":"9991356","prefecture":"YAMAGATA KEN","city":"NISHIOKITAMA GUN OGUNI MACHI","town":"AKEBONO","perfecture_jp":"山形県","jp_add_1":"西置賜郡小国町","jp_add_2":"あけぼの"},"9991323":{"post_code":"9991323","prefecture":"YAMAGATA KEN","city":"NISHIOKITAMA GUN OGUNI MACHI","town":"AZASHINO","perfecture_jp":"山形県","jp_add_1":"西置賜郡小国町","jp_add_2":"朝篠"},"9991507":{"post_code":"9991507","prefecture":"YAMAGATA KEN","city":"NISHIOKITAMA GUN OGUNI MACHI","town":"ASHINOMIZU","perfecture_jp":"山形県","jp_add_1":"西置賜郡小国町","jp_add_2":"足野水"},"9991504":{"post_code":"9991504","prefecture":"YAMAGATA KEN","city":"NISHIOKITAMA GUN OGUNI MACHI","town":"ASHIMIZUNAKAZATO","perfecture_jp":"山形県","jp_add_1":"西置賜郡小国町","jp_add_2":"足水中里"},"9991402":{"post_code":"9991402","prefecture":"YAMAGATA KEN","city":"NISHIOKITAMA GUN OGUNI MACHI","town":"AJIROSE","perfecture_jp":"山形県","jp_add_1":"西置賜郡小国町","jp_add_2":"網代瀬"},"9991434":{"post_code":"9991434","prefecture":"YAMAGATA KEN","city":"NISHIOKITAMA GUN OGUNI MACHI","town":"ARASAWA","perfecture_jp":"山形県","jp_add_1":"西置賜郡小国町","jp_add_2":"荒沢"},"9991213":{"post_code":"9991213","prefecture":"YAMAGATA KEN","city":"NISHIOKITAMA GUN OGUNI MACHI","town":"ARAMATA","perfecture_jp":"山形県","jp_add_1":"西置賜郡小国町","jp_add_2":"新股"},"9991322":{"post_code":"9991322","prefecture":"YAMAGATA KEN","city":"NISHIOKITAMA GUN OGUNI MACHI","town":"ISARYO","perfecture_jp":"山形県","jp_add_1":"西置賜郡小国町","jp_add_2":"伊佐領"},"9991451":{"post_code":"9991451","prefecture":"YAMAGATA KEN","city":"NISHIOKITAMA GUN OGUNI MACHI","town":"ISHIDAKI","perfecture_jp":"山形県","jp_add_1":"西置賜郡小国町","jp_add_2":"石滝"},"9991521":{"post_code":"9991521","prefecture":"YAMAGATA KEN","city":"NISHIOKITAMA GUN OGUNI MACHI","town":"IZUMIOKA","perfecture_jp":"山形県","jp_add_1":"西置賜郡小国町","jp_add_2":"泉岡"},"9991506":{"post_code":"9991506","prefecture":"YAMAGATA KEN","city":"NISHIOKITAMA GUN OGUNI MACHI","town":"ICHINOSAWA","perfecture_jp":"山形県","jp_add_1":"西置賜郡小国町","jp_add_2":"市野沢"},"9991203":{"post_code":"9991203","prefecture":"YAMAGATA KEN","city":"NISHIOKITAMA GUN OGUNI MACHI","town":"ICHINONO","perfecture_jp":"山形県","jp_add_1":"西置賜郡小国町","jp_add_2":"市野々"},"9991413":{"post_code":"9991413","prefecture":"YAMAGATA KEN","city":"NISHIOKITAMA GUN OGUNI MACHI","town":"IMAICHI","perfecture_jp":"山形県","jp_add_1":"西置賜郡小国町","jp_add_2":"今市"},"9991435":{"post_code":"9991435","prefecture":"YAMAGATA KEN","city":"NISHIOKITAMA GUN OGUNI MACHI","town":"IRIORITO","perfecture_jp":"山形県","jp_add_1":"西置賜郡小国町","jp_add_2":"入折戸"},"9991352":{"post_code":"9991352","prefecture":"YAMAGATA KEN","city":"NISHIOKITAMA GUN OGUNI MACHI","town":"IWAIZAWA","perfecture_jp":"山形県","jp_add_1":"西置賜郡小国町","jp_add_2":"岩井沢"},"9991421":{"post_code":"9991421","prefecture":"YAMAGATA KEN","city":"NISHIOKITAMA GUN OGUNI MACHI","town":"ETCHUZATO","perfecture_jp":"山形県","jp_add_1":"西置賜郡小国町","jp_add_2":"越中里"},"9991212":{"post_code":"9991212","prefecture":"YAMAGATA KEN","city":"NISHIOKITAMA GUN OGUNI MACHI","town":"OISHIZAWA","perfecture_jp":"山形県","jp_add_1":"西置賜郡小国町","jp_add_2":"大石沢"},"9991336":{"post_code":"9991336","prefecture":"YAMAGATA KEN","city":"NISHIOKITAMA GUN OGUNI MACHI","town":"OTAKI","perfecture_jp":"山形県","jp_add_1":"西置賜郡小国町","jp_add_2":"大滝"},"9991342":{"post_code":"9991342","prefecture":"YAMAGATA KEN","city":"NISHIOKITAMA GUN OGUNI MACHI","town":"OMIYA","perfecture_jp":"山形県","jp_add_1":"西置賜郡小国町","jp_add_2":"大宮"},"9991363":{"post_code":"9991363","prefecture":"YAMAGATA KEN","city":"NISHIOKITAMA GUN OGUNI MACHI","town":"OGUNIKOSAKAMACHI","perfecture_jp":"山形県","jp_add_1":"西置賜郡小国町","jp_add_2":"小国小坂町"},"9991351":{"post_code":"9991351","prefecture":"YAMAGATA KEN","city":"NISHIOKITAMA GUN OGUNI MACHI","town":"OGUNIMACHI","perfecture_jp":"山形県","jp_add_1":"西置賜郡小国町","jp_add_2":"小国町"},"9991312":{"post_code":"9991312","prefecture":"YAMAGATA KEN","city":"NISHIOKITAMA GUN OGUNI MACHI","town":"ODO","perfecture_jp":"山形県","jp_add_1":"西置賜郡小国町","jp_add_2":"小渡"},"9991441":{"post_code":"9991441","prefecture":"YAMAGATA KEN","city":"NISHIOKITAMA GUN OGUNI MACHI","town":"ODOROKU","perfecture_jp":"山形県","jp_add_1":"西置賜郡小国町","jp_add_2":"驚"},"9991443":{"post_code":"9991443","prefecture":"YAMAGATA KEN","city":"NISHIOKITAMA GUN OGUNI MACHI","town":"OMATA","perfecture_jp":"山形県","jp_add_1":"西置賜郡小国町","jp_add_2":"小股"},"9991436":{"post_code":"9991436","prefecture":"YAMAGATA KEN","city":"NISHIOKITAMA GUN OGUNI MACHI","town":"ORITO","perfecture_jp":"山形県","jp_add_1":"西置賜郡小国町","jp_add_2":"折戸"},"9991311":{"post_code":"9991311","prefecture":"YAMAGATA KEN","city":"NISHIOKITAMA GUN OGUNI MACHI","town":"KAISHO","perfecture_jp":"山形県","jp_add_1":"西置賜郡小国町","jp_add_2":"貝少"},"9991512":{"post_code":"9991512","prefecture":"YAMAGATA KEN","city":"NISHIOKITAMA GUN OGUNI MACHI","town":"KATAKAI","perfecture_jp":"山形県","jp_add_1":"西置賜郡小国町","jp_add_2":"片貝"},"9991301":{"post_code":"9991301","prefecture":"YAMAGATA KEN","city":"NISHIOKITAMA GUN OGUNI MACHI","town":"KANAME","perfecture_jp":"山形県","jp_add_1":"西置賜郡小国町","jp_add_2":"金目"},"9991211":{"post_code":"9991211","prefecture":"YAMAGATA KEN","city":"NISHIOKITAMA GUN OGUNI MACHI","town":"KANOMIZU","perfecture_jp":"山形県","jp_add_1":"西置賜郡小国町","jp_add_2":"叶水"},"9991214":{"post_code":"9991214","prefecture":"YAMAGATA KEN","city":"NISHIOKITAMA GUN OGUNI MACHI","town":"KAWARAZUNO","perfecture_jp":"山形県","jp_add_1":"西置賜郡小国町","jp_add_2":"河原角"},"9991345":{"post_code":"9991345","prefecture":"YAMAGATA KEN","city":"NISHIOKITAMA GUN OGUNI MACHI","town":"KITA","perfecture_jp":"山形県","jp_add_1":"西置賜郡小国町","jp_add_2":"北"},"9991334":{"post_code":"9991334","prefecture":"YAMAGATA KEN","city":"NISHIOKITAMA GUN OGUNI MACHI","town":"KUROSAWA","perfecture_jp":"山形県","jp_add_1":"西置賜郡小国町","jp_add_2":"黒沢"},"9991339":{"post_code":"9991339","prefecture":"YAMAGATA KEN","city":"NISHIOKITAMA GUN OGUNI MACHI","town":"KOGURA","perfecture_jp":"山形県","jp_add_1":"西置賜郡小国町","jp_add_2":"小倉"},"9991522":{"post_code":"9991522","prefecture":"YAMAGATA KEN","city":"NISHIOKITAMA GUN OGUNI MACHI","town":"KOTAMAGAWA","perfecture_jp":"山形県","jp_add_1":"西置賜郡小国町","jp_add_2":"小玉川"},"9991452":{"post_code":"9991452","prefecture":"YAMAGATA KEN","city":"NISHIOKITAMA GUN OGUNI MACHI","town":"GOMIZAWA","perfecture_jp":"山形県","jp_add_1":"西置賜郡小国町","jp_add_2":"五味沢"},"9991354":{"post_code":"9991354","prefecture":"YAMAGATA KEN","city":"NISHIOKITAMA GUN OGUNI MACHI","town":"SAIWAICHO","perfecture_jp":"山形県","jp_add_1":"西置賜郡小国町","jp_add_2":"幸町"},"9991361":{"post_code":"9991361","prefecture":"YAMAGATA KEN","city":"NISHIOKITAMA GUN OGUNI MACHI","town":"SAKAEMACHI","perfecture_jp":"山形県","jp_add_1":"西置賜郡小国町","jp_add_2":"栄町"},"9991202":{"post_code":"9991202","prefecture":"YAMAGATA KEN","city":"NISHIOKITAMA GUN OGUNI MACHI","town":"SHIRAKOZAWA","perfecture_jp":"山形県","jp_add_1":"西置賜郡小国町","jp_add_2":"白子沢"},"9991412":{"post_code":"9991412","prefecture":"YAMAGATA KEN","city":"NISHIOKITAMA GUN OGUNI MACHI","town":"SHIRINASHIZAWA","perfecture_jp":"山形県","jp_add_1":"西置賜郡小国町","jp_add_2":"尻無沢"},"9991337":{"post_code":"9991337","prefecture":"YAMAGATA KEN","city":"NISHIOKITAMA GUN OGUNI MACHI","town":"SHIMBARA","perfecture_jp":"山形県","jp_add_1":"西置賜郡小国町","jp_add_2":"新原"},"9991314":{"post_code":"9991314","prefecture":"YAMAGATA KEN","city":"NISHIOKITAMA GUN OGUNI MACHI","town":"SHINYASHIKI","perfecture_jp":"山形県","jp_add_1":"西置賜郡小国町","jp_add_2":"新屋敷"},"9991503":{"post_code":"9991503","prefecture":"YAMAGATA KEN","city":"NISHIOKITAMA GUN OGUNI MACHI","town":"SUGANUMA","perfecture_jp":"山形県","jp_add_1":"西置賜郡小国町","jp_add_2":"菅沼"},"9991338":{"post_code":"9991338","prefecture":"YAMAGATA KEN","city":"NISHIOKITAMA GUN OGUNI MACHI","town":"SUGISAWA","perfecture_jp":"山形県","jp_add_1":"西置賜郡小国町","jp_add_2":"杉沢"},"9991333":{"post_code":"9991333","prefecture":"YAMAGATA KEN","city":"NISHIOKITAMA GUN OGUNI MACHI","town":"SERIDE","perfecture_jp":"山形県","jp_add_1":"西置賜郡小国町","jp_add_2":"芹出"},"9991442":{"post_code":"9991442","prefecture":"YAMAGATA KEN","city":"NISHIOKITAMA GUN OGUNI MACHI","town":"TAIKOZAWA","perfecture_jp":"山形県","jp_add_1":"西置賜郡小国町","jp_add_2":"太鼓沢"},"9991502":{"post_code":"9991502","prefecture":"YAMAGATA KEN","city":"NISHIOKITAMA GUN OGUNI MACHI","town":"TAKIGURA","perfecture_jp":"山形県","jp_add_1":"西置賜郡小国町","jp_add_2":"滝倉"},"9991344":{"post_code":"9991344","prefecture":"YAMAGATA KEN","city":"NISHIOKITAMA GUN OGUNI MACHI","town":"TAZAWAGASHIRA","perfecture_jp":"山形県","jp_add_1":"西置賜郡小国町","jp_add_2":"田沢頭"},"9991335":{"post_code":"9991335","prefecture":"YAMAGATA KEN","city":"NISHIOKITAMA GUN OGUNI MACHI","town":"TANEZAWA","perfecture_jp":"山形県","jp_add_1":"西置賜郡小国町","jp_add_2":"種沢"},"9991511":{"post_code":"9991511","prefecture":"YAMAGATA KEN","city":"NISHIOKITAMA GUN OGUNI MACHI","town":"TAMAGAWA","perfecture_jp":"山形県","jp_add_1":"西置賜郡小国町","jp_add_2":"玉川"},"9991514":{"post_code":"9991514","prefecture":"YAMAGATA KEN","city":"NISHIOKITAMA GUN OGUNI MACHI","town":"TAMAGAWANAKAZATO","perfecture_jp":"山形県","jp_add_1":"西置賜郡小国町","jp_add_2":"玉川中里"},"9991501":{"post_code":"9991501","prefecture":"YAMAGATA KEN","city":"NISHIOKITAMA GUN OGUNI MACHI","town":"TARUGUCHI","perfecture_jp":"山形県","jp_add_1":"西置賜郡小国町","jp_add_2":"樽口"},"9991321":{"post_code":"9991321","prefecture":"YAMAGATA KEN","city":"NISHIOKITAMA GUN OGUNI MACHI","town":"TSUNAGIHAKONOGUCHI","perfecture_jp":"山形県","jp_add_1":"西置賜郡小国町","jp_add_2":"綱木箱口"},"9991414":{"post_code":"9991414","prefecture":"YAMAGATA KEN","city":"NISHIOKITAMA GUN OGUNI MACHI","town":"TOCHIGURA","perfecture_jp":"山形県","jp_add_1":"西置賜郡小国町","jp_add_2":"栃倉"},"9991432":{"post_code":"9991432","prefecture":"YAMAGATA KEN","city":"NISHIOKITAMA GUN OGUNI MACHI","town":"NAKAJIMA","perfecture_jp":"山形県","jp_add_1":"西置賜郡小国町","jp_add_2":"中島"},"9991513":{"post_code":"9991513","prefecture":"YAMAGATA KEN","city":"NISHIOKITAMA GUN OGUNI MACHI","town":"NAKADAYAMAZAKI","perfecture_jp":"山形県","jp_add_1":"西置賜郡小国町","jp_add_2":"中田山崎"},"9991422":{"post_code":"9991422","prefecture":"YAMAGATA KEN","city":"NISHIOKITAMA GUN OGUNI MACHI","town":"NAGASAWA","perfecture_jp":"山形県","jp_add_1":"西置賜郡小国町","jp_add_2":"長沢"},"9991355":{"post_code":"9991355","prefecture":"YAMAGATA KEN","city":"NISHIOKITAMA GUN OGUNI MACHI","town":"NISHI","perfecture_jp":"山形県","jp_add_1":"西置賜郡小国町","jp_add_2":"西"},"9991215":{"post_code":"9991215","prefecture":"YAMAGATA KEN","city":"NISHIOKITAMA GUN OGUNI MACHI","town":"NISHIDAKI","perfecture_jp":"山形県","jp_add_1":"西置賜郡小国町","jp_add_2":"西滝"},"9991201":{"post_code":"9991201","prefecture":"YAMAGATA KEN","city":"NISHIOKITAMA GUN OGUNI MACHI","town":"NUMAZAWA","perfecture_jp":"山形県","jp_add_1":"西置賜郡小国町","jp_add_2":"沼沢"},"9991313":{"post_code":"9991313","prefecture":"YAMAGATA KEN","city":"NISHIOKITAMA GUN OGUNI MACHI","town":"HARIU","perfecture_jp":"山形県","jp_add_1":"西置賜郡小国町","jp_add_2":"針生"},"9991216":{"post_code":"9991216","prefecture":"YAMAGATA KEN","city":"NISHIOKITAMA GUN OGUNI MACHI","town":"HIGASHIDAKI","perfecture_jp":"山形県","jp_add_1":"西置賜郡小国町","jp_add_2":"東滝"},"9991331":{"post_code":"9991331","prefecture":"YAMAGATA KEN","city":"NISHIOKITAMA GUN OGUNI MACHI","town":"HIGASHIHARA","perfecture_jp":"山形県","jp_add_1":"西置賜郡小国町","jp_add_2":"東原"},"9991433":{"post_code":"9991433","prefecture":"YAMAGATA KEN","city":"NISHIOKITAMA GUN OGUNI MACHI","town":"HINOSAWA","perfecture_jp":"山形県","jp_add_1":"西置賜郡小国町","jp_add_2":"樋ノ沢"},"9991505":{"post_code":"9991505","prefecture":"YAMAGATA KEN","city":"NISHIOKITAMA GUN OGUNI MACHI","town":"HYAKKOZAWA","perfecture_jp":"山形県","jp_add_1":"西置賜郡小国町","jp_add_2":"百子沢"},"9991353":{"post_code":"9991353","prefecture":"YAMAGATA KEN","city":"NISHIOKITAMA GUN OGUNI MACHI","town":"HYOGODATE","perfecture_jp":"山形県","jp_add_1":"西置賜郡小国町","jp_add_2":"兵庫舘"},"9991401":{"post_code":"9991401","prefecture":"YAMAGATA KEN","city":"NISHIOKITAMA GUN OGUNI MACHI","town":"FUNATO","perfecture_jp":"山形県","jp_add_1":"西置賜郡小国町","jp_add_2":"舟渡"},"9991302":{"post_code":"9991302","prefecture":"YAMAGATA KEN","city":"NISHIOKITAMA GUN OGUNI MACHI","town":"FURUTA","perfecture_jp":"山形県","jp_add_1":"西置賜郡小国町","jp_add_2":"古田"},"9991341":{"post_code":"9991341","prefecture":"YAMAGATA KEN","city":"NISHIOKITAMA GUN OGUNI MACHI","town":"MASUOKA","perfecture_jp":"山形県","jp_add_1":"西置賜郡小国町","jp_add_2":"増岡"},"9991332":{"post_code":"9991332","prefecture":"YAMAGATA KEN","city":"NISHIOKITAMA GUN OGUNI MACHI","town":"MACHIBARA","perfecture_jp":"山形県","jp_add_1":"西置賜郡小国町","jp_add_2":"町原"},"9991324":{"post_code":"9991324","prefecture":"YAMAGATA KEN","city":"NISHIOKITAMA GUN OGUNI MACHI","town":"MATSUOKA","perfecture_jp":"山形県","jp_add_1":"西置賜郡小国町","jp_add_2":"松岡"},"9991411":{"post_code":"9991411","prefecture":"YAMAGATA KEN","city":"NISHIOKITAMA GUN OGUNI MACHI","town":"MATSUZAKI","perfecture_jp":"山形県","jp_add_1":"西置賜郡小国町","jp_add_2":"松崎"},"9991362":{"post_code":"9991362","prefecture":"YAMAGATA KEN","city":"NISHIOKITAMA GUN OGUNI MACHI","town":"MIDORICHO","perfecture_jp":"山形県","jp_add_1":"西置賜郡小国町","jp_add_2":"緑町"},"9991343":{"post_code":"9991343","prefecture":"YAMAGATA KEN","city":"NISHIOKITAMA GUN OGUNI MACHI","town":"MIYANODAI","perfecture_jp":"山形県","jp_add_1":"西置賜郡小国町","jp_add_2":"宮の台"},"9991431":{"post_code":"9991431","prefecture":"YAMAGATA KEN","city":"NISHIOKITAMA GUN OGUNI MACHI","town":"YAKEYAMA","perfecture_jp":"山形県","jp_add_1":"西置賜郡小国町","jp_add_2":"焼山"},"9991346":{"post_code":"9991346","prefecture":"YAMAGATA KEN","city":"NISHIOKITAMA GUN OGUNI MACHI","town":"YUNOHANA","perfecture_jp":"山形県","jp_add_1":"西置賜郡小国町","jp_add_2":"湯ノ花"},"9991303":{"post_code":"9991303","prefecture":"YAMAGATA KEN","city":"NISHIOKITAMA GUN OGUNI MACHI","town":"WAKAYAMA","perfecture_jp":"山形県","jp_add_1":"西置賜郡小国町","jp_add_2":"若山"},"9990600":{"post_code":"9990600","prefecture":"YAMAGATA KEN","city":"NISHIOKITAMA GUN IIDE MACHI","town":"IKANIKEISAIGANAIBAAI","perfecture_jp":"山形県","jp_add_1":"西置賜郡飯豊町","jp_add_2":""},"9990436":{"post_code":"9990436","prefecture":"YAMAGATA KEN","city":"NISHIOKITAMA GUN IIDE MACHI","town":"IWAKURA","perfecture_jp":"山形県","jp_add_1":"西置賜郡飯豊町","jp_add_2":"岩倉"},"9990425":{"post_code":"9990425","prefecture":"YAMAGATA KEN","city":"NISHIOKITAMA GUN IIDE MACHI","town":"UTSUSAWA","perfecture_jp":"山形県","jp_add_1":"西置賜郡飯豊町","jp_add_2":"宇津沢"},"9990427":{"post_code":"9990427","prefecture":"YAMAGATA KEN","city":"NISHIOKITAMA GUN IIDE MACHI","town":"UWABARA","perfecture_jp":"山形県","jp_add_1":"西置賜郡飯豊町","jp_add_2":"上原"},"9990426":{"post_code":"9990426","prefecture":"YAMAGATA KEN","city":"NISHIOKITAMA GUN IIDE MACHI","town":"OSODANI","perfecture_jp":"山形県","jp_add_1":"西置賜郡飯豊町","jp_add_2":"遅谷"},"9990424":{"post_code":"9990424","prefecture":"YAMAGATA KEN","city":"NISHIOKITAMA GUN IIDE MACHI","town":"KAZUMA","perfecture_jp":"山形県","jp_add_1":"西置賜郡飯豊町","jp_add_2":"数馬"},"9990433":{"post_code":"9990433","prefecture":"YAMAGATA KEN","city":"NISHIOKITAMA GUN IIDE MACHI","town":"KAMIYACHI","perfecture_jp":"山形県","jp_add_1":"西置賜郡飯豊町","jp_add_2":"上屋地"},"9990434":{"post_code":"9990434","prefecture":"YAMAGATA KEN","city":"NISHIOKITAMA GUN IIDE MACHI","town":"KAWANAIDO","perfecture_jp":"山形県","jp_add_1":"西置賜郡飯豊町","jp_add_2":"川内戸"},"9990603":{"post_code":"9990603","prefecture":"YAMAGATA KEN","city":"NISHIOKITAMA GUN IIDE MACHI","town":"KUROSAWA","perfecture_jp":"山形県","jp_add_1":"西置賜郡飯豊町","jp_add_2":"黒沢"},"9991113":{"post_code":"9991113","prefecture":"YAMAGATA KEN","city":"NISHIOKITAMA GUN IIDE MACHI","town":"KOJIRAKAWA","perfecture_jp":"山形県","jp_add_1":"西置賜郡飯豊町","jp_add_2":"小白川"},"9990421":{"post_code":"9990421","prefecture":"YAMAGATA KEN","city":"NISHIOKITAMA GUN IIDE MACHI","town":"KOYA","perfecture_jp":"山形県","jp_add_1":"西置賜郡飯豊町","jp_add_2":"小屋"},"9990431":{"post_code":"9990431","prefecture":"YAMAGATA KEN","city":"NISHIOKITAMA GUN IIDE MACHI","town":"SHIMOYACHI","perfecture_jp":"山形県","jp_add_1":"西置賜郡飯豊町","jp_add_2":"下屋地"},"9990432":{"post_code":"9990432","prefecture":"YAMAGATA KEN","city":"NISHIOKITAMA GUN IIDE MACHI","town":"SHIRAKAWA","perfecture_jp":"山形県","jp_add_1":"西置賜郡飯豊町","jp_add_2":"白川"},"9990423":{"post_code":"9990423","prefecture":"YAMAGATA KEN","city":"NISHIOKITAMA GUN IIDE MACHI","town":"SUGO","perfecture_jp":"山形県","jp_add_1":"西置賜郡飯豊町","jp_add_2":"須郷"},"9990605":{"post_code":"9990605","prefecture":"YAMAGATA KEN","city":"NISHIOKITAMA GUN IIDE MACHI","town":"SOEGAWA","perfecture_jp":"山形県","jp_add_1":"西置賜郡飯豊町","jp_add_2":"添川"},"9990435":{"post_code":"9990435","prefecture":"YAMAGATA KEN","city":"NISHIOKITAMA GUN IIDE MACHI","town":"TAKAZORO","perfecture_jp":"山形県","jp_add_1":"西置賜郡飯豊町","jp_add_2":"高造路"},"9991112":{"post_code":"9991112","prefecture":"YAMAGATA KEN","city":"NISHIOKITAMA GUN IIDE MACHI","town":"TAKAMINE","perfecture_jp":"山形県","jp_add_1":"西置賜郡飯豊町","jp_add_2":"高峰"},"9990604":{"post_code":"9990604","prefecture":"YAMAGATA KEN","city":"NISHIOKITAMA GUN IIDE MACHI","town":"TSUBAKI","perfecture_jp":"山形県","jp_add_1":"西置賜郡飯豊町","jp_add_2":"椿"},"9991111":{"post_code":"9991111","prefecture":"YAMAGATA KEN","city":"NISHIOKITAMA GUN IIDE MACHI","town":"TENOKO","perfecture_jp":"山形県","jp_add_1":"西置賜郡飯豊町","jp_add_2":"手ノ子"},"9990601":{"post_code":"9990601","prefecture":"YAMAGATA KEN","city":"NISHIOKITAMA GUN IIDE MACHI","town":"NAKA","perfecture_jp":"山形県","jp_add_1":"西置賜郡飯豊町","jp_add_2":"中"},"9990602":{"post_code":"9990602","prefecture":"YAMAGATA KEN","city":"NISHIOKITAMA GUN IIDE MACHI","town":"HAGYU","perfecture_jp":"山形県","jp_add_1":"西置賜郡飯豊町","jp_add_2":"萩生"},"9990422":{"post_code":"9990422","prefecture":"YAMAGATA KEN","city":"NISHIOKITAMA GUN IIDE MACHI","town":"HIROKAWARA","perfecture_jp":"山形県","jp_add_1":"西置賜郡飯豊町","jp_add_2":"広河原"},"9990606":{"post_code":"9990606","prefecture":"YAMAGATA KEN","city":"NISHIOKITAMA GUN IIDE MACHI","town":"MATSUBARA","perfecture_jp":"山形県","jp_add_1":"西置賜郡飯豊町","jp_add_2":"松原"},"9997700":{"post_code":"9997700","prefecture":"YAMAGATA KEN","city":"HIGASHITAGAWA GUN SHONAI MACHI","town":"IKANIKEISAIGANAIBAAI","perfecture_jp":"山形県","jp_add_1":"東田川郡庄内町","jp_add_2":""},"9997724":{"post_code":"9997724","prefecture":"YAMAGATA KEN","city":"HIGASHITAGAWA GUN SHONAI MACHI","town":"AKABUCHISHINDEN","perfecture_jp":"山形県","jp_add_1":"東田川郡庄内町","jp_add_2":"赤渕新田"},"9997701":{"post_code":"9997701","prefecture":"YAMAGATA KEN","city":"HIGASHITAGAWA GUN SHONAI MACHI","town":"ATO","perfecture_jp":"山形県","jp_add_1":"東田川郡庄内町","jp_add_2":"跡"},"9997781":{"post_code":"9997781","prefecture":"YAMAGATA KEN","city":"HIGASHITAGAWA GUN SHONAI MACHI","town":"AMARUME","perfecture_jp":"山形県","jp_add_1":"東田川郡庄内町","jp_add_2":"余目"},"9997714":{"post_code":"9997714","prefecture":"YAMAGATA KEN","city":"HIGASHITAGAWA GUN SHONAI MACHI","town":"AMARUMESHINDEN","perfecture_jp":"山形県","jp_add_1":"東田川郡庄内町","jp_add_2":"余目新田"},"9997743":{"post_code":"9997743","prefecture":"YAMAGATA KEN","city":"HIGASHITAGAWA GUN SHONAI MACHI","town":"ARATAME","perfecture_jp":"山形県","jp_add_1":"東田川郡庄内町","jp_add_2":"新田目"},"9997755":{"post_code":"9997755","prefecture":"YAMAGATA KEN","city":"HIGASHITAGAWA GUN SHONAI MACHI","town":"IKUSAN","perfecture_jp":"山形県","jp_add_1":"東田川郡庄内町","jp_add_2":"生三"},"9997702":{"post_code":"9997702","prefecture":"YAMAGATA KEN","city":"HIGASHITAGAWA GUN SHONAI MACHI","town":"ENOKI","perfecture_jp":"山形県","jp_add_1":"東田川郡庄内町","jp_add_2":"榎木"},"9997747":{"post_code":"9997747","prefecture":"YAMAGATA KEN","city":"HIGASHITAGAWA GUN SHONAI MACHI","town":"ONO","perfecture_jp":"山形県","jp_add_1":"東田川郡庄内町","jp_add_2":"大野"},"9997737":{"post_code":"9997737","prefecture":"YAMAGATA KEN","city":"HIGASHITAGAWA GUN SHONAI MACHI","town":"OMAGI","perfecture_jp":"山形県","jp_add_1":"東田川郡庄内町","jp_add_2":"大真木"},"9997752":{"post_code":"9997752","prefecture":"YAMAGATA KEN","city":"HIGASHITAGAWA GUN SHONAI MACHI","town":"OMISHINDEN","perfecture_jp":"山形県","jp_add_1":"東田川郡庄内町","jp_add_2":"近江新田"},"9997763":{"post_code":"9997763","prefecture":"YAMAGATA KEN","city":"HIGASHITAGAWA GUN SHONAI MACHI","town":"OCHIAI","perfecture_jp":"山形県","jp_add_1":"東田川郡庄内町","jp_add_2":"落合"},"9997762":{"post_code":"9997762","prefecture":"YAMAGATA KEN","city":"HIGASHITAGAWA GUN SHONAI MACHI","town":"KANEAI","perfecture_jp":"山形県","jp_add_1":"東田川郡庄内町","jp_add_2":"家根合"},"9996601":{"post_code":"9996601","prefecture":"YAMAGATA KEN","city":"HIGASHITAGAWA GUN SHONAI MACHI","town":"KARIKAWA","perfecture_jp":"山形県","jp_add_1":"東田川郡庄内町","jp_add_2":"狩川"},"9996607":{"post_code":"9996607","prefecture":"YAMAGATA KEN","city":"HIGASHITAGAWA GUN SHONAI MACHI","town":"KIMOIRI","perfecture_jp":"山形県","jp_add_1":"東田川郡庄内町","jp_add_2":"肝煎"},"9997766":{"post_code":"9997766","prefecture":"YAMAGATA KEN","city":"HIGASHITAGAWA GUN SHONAI MACHI","town":"KYUDEN","perfecture_jp":"山形県","jp_add_1":"東田川郡庄内町","jp_add_2":"久田"},"9997742":{"post_code":"9997742","prefecture":"YAMAGATA KEN","city":"HIGASHITAGAWA GUN SHONAI MACHI","town":"KYOJIMA","perfecture_jp":"山形県","jp_add_1":"東田川郡庄内町","jp_add_2":"京島"},"9996606":{"post_code":"9996606","prefecture":"YAMAGATA KEN","city":"HIGASHITAGAWA GUN SHONAI MACHI","town":"KIYOKAWA","perfecture_jp":"山形県","jp_add_1":"東田川郡庄内町","jp_add_2":"清川"},"9996605":{"post_code":"9996605","prefecture":"YAMAGATA KEN","city":"HIGASHITAGAWA GUN SHONAI MACHI","town":"KUWADA","perfecture_jp":"山形県","jp_add_1":"東田川郡庄内町","jp_add_2":"桑田"},"9997722":{"post_code":"9997722","prefecture":"YAMAGATA KEN","city":"HIGASHITAGAWA GUN SHONAI MACHI","town":"KOIDESHINDEN","perfecture_jp":"山形県","jp_add_1":"東田川郡庄内町","jp_add_2":"小出新田"},"9997745":{"post_code":"9997745","prefecture":"YAMAGATA KEN","city":"HIGASHITAGAWA GUN SHONAI MACHI","town":"SAKAIKOYA","perfecture_jp":"山形県","jp_add_1":"東田川郡庄内町","jp_add_2":"境興屋"},"9997725":{"post_code":"9997725","prefecture":"YAMAGATA KEN","city":"HIGASHITAGAWA GUN SHONAI MACHI","town":"SAWASHINDEN","perfecture_jp":"山形県","jp_add_1":"東田川郡庄内町","jp_add_2":"沢新田"},"9996608":{"post_code":"9996608","prefecture":"YAMAGATA KEN","city":"HIGASHITAGAWA GUN SHONAI MACHI","town":"SHINAZAWA","perfecture_jp":"山形県","jp_add_1":"東田川郡庄内町","jp_add_2":"科沢"},"9997754":{"post_code":"9997754","prefecture":"YAMAGATA KEN","city":"HIGASHITAGAWA GUN SHONAI MACHI","town":"SHIMADA","perfecture_jp":"山形県","jp_add_1":"東田川郡庄内町","jp_add_2":"島田"},"9997713":{"post_code":"9997713","prefecture":"YAMAGATA KEN","city":"HIGASHITAGAWA GUN SHONAI MACHI","town":"JOMAN","perfecture_jp":"山形県","jp_add_1":"東田川郡庄内町","jp_add_2":"常万"},"9997782":{"post_code":"9997782","prefecture":"YAMAGATA KEN","city":"HIGASHITAGAWA GUN SHONAI MACHI","town":"SHOYO","perfecture_jp":"山形県","jp_add_1":"東田川郡庄内町","jp_add_2":"松陽"},"9997765":{"post_code":"9997765","prefecture":"YAMAGATA KEN","city":"HIGASHITAGAWA GUN SHONAI MACHI","town":"SUGIURA","perfecture_jp":"山形県","jp_add_1":"東田川郡庄内町","jp_add_2":"杉浦"},"9996604":{"post_code":"9996604","prefecture":"YAMAGATA KEN","city":"HIGASHITAGAWA GUN SHONAI MACHI","town":"SEMBONSUGI","perfecture_jp":"山形県","jp_add_1":"東田川郡庄内町","jp_add_2":"千本杉"},"9996603":{"post_code":"9996603","prefecture":"YAMAGATA KEN","city":"HIGASHITAGAWA GUN SHONAI MACHI","town":"SOEZU","perfecture_jp":"山形県","jp_add_1":"東田川郡庄内町","jp_add_2":"添津"},"9997741":{"post_code":"9997741","prefecture":"YAMAGATA KEN","city":"HIGASHITAGAWA GUN SHONAI MACHI","town":"SORIYOSHI","perfecture_jp":"山形県","jp_add_1":"東田川郡庄内町","jp_add_2":"返吉"},"9997761":{"post_code":"9997761","prefecture":"YAMAGATA KEN","city":"HIGASHITAGAWA GUN SHONAI MACHI","town":"TAKADAMUGI","perfecture_jp":"山形県","jp_add_1":"東田川郡庄内町","jp_add_2":"高田麦"},"9996609":{"post_code":"9996609","prefecture":"YAMAGATA KEN","city":"HIGASHITAGAWA GUN SHONAI MACHI","town":"TACHIYAZAWA","perfecture_jp":"山形県","jp_add_1":"東田川郡庄内町","jp_add_2":"立谷沢"},"9997748":{"post_code":"9997748","prefecture":"YAMAGATA KEN","city":"HIGASHITAGAWA GUN SHONAI MACHI","town":"TAYA","perfecture_jp":"山形県","jp_add_1":"東田川郡庄内町","jp_add_2":"田谷"},"9997704":{"post_code":"9997704","prefecture":"YAMAGATA KEN","city":"HIGASHITAGAWA GUN SHONAI MACHI","town":"CHIGAWARA","perfecture_jp":"山形県","jp_add_1":"東田川郡庄内町","jp_add_2":"千河原"},"9997721":{"post_code":"9997721","prefecture":"YAMAGATA KEN","city":"HIGASHITAGAWA GUN SHONAI MACHI","town":"TSUTSUMISHINDEN","perfecture_jp":"山形県","jp_add_1":"東田川郡庄内町","jp_add_2":"堤新田"},"9997707":{"post_code":"9997707","prefecture":"YAMAGATA KEN","city":"HIGASHITAGAWA GUN SHONAI MACHI","town":"TODOROKI","perfecture_jp":"山形県","jp_add_1":"東田川郡庄内町","jp_add_2":"廿六木"},"9997731":{"post_code":"9997731","prefecture":"YAMAGATA KEN","city":"HIGASHITAGAWA GUN SHONAI MACHI","town":"TONOMOSHINDEN","perfecture_jp":"山形県","jp_add_1":"東田川郡庄内町","jp_add_2":"主殿新田"},"9997734":{"post_code":"9997734","prefecture":"YAMAGATA KEN","city":"HIGASHITAGAWA GUN SHONAI MACHI","town":"NAKANO","perfecture_jp":"山形県","jp_add_1":"東田川郡庄内町","jp_add_2":"中野"},"9997751":{"post_code":"9997751","prefecture":"YAMAGATA KEN","city":"HIGASHITAGAWA GUN SHONAI MACHI","town":"NISHIONOKATA","perfecture_jp":"山形県","jp_add_1":"東田川郡庄内町","jp_add_2":"西小野方"},"9997768":{"post_code":"9997768","prefecture":"YAMAGATA KEN","city":"HIGASHITAGAWA GUN SHONAI MACHI","town":"NISHINO","perfecture_jp":"山形県","jp_add_1":"東田川郡庄内町","jp_add_2":"西野"},"9997746":{"post_code":"9997746","prefecture":"YAMAGATA KEN","city":"HIGASHITAGAWA GUN SHONAI MACHI","town":"NISHIBUKURO","perfecture_jp":"山形県","jp_add_1":"東田川郡庄内町","jp_add_2":"西袋"},"9997757":{"post_code":"9997757","prefecture":"YAMAGATA KEN","city":"HIGASHITAGAWA GUN SHONAI MACHI","town":"HARAIDA","perfecture_jp":"山形県","jp_add_1":"東田川郡庄内町","jp_add_2":"払田"},"9997706":{"post_code":"9997706","prefecture":"YAMAGATA KEN","city":"HIGASHITAGAWA GUN SHONAI MACHI","town":"HISAGEKOYA","perfecture_jp":"山形県","jp_add_1":"東田川郡庄内町","jp_add_2":"提興屋"},"9997703":{"post_code":"9997703","prefecture":"YAMAGATA KEN","city":"HIGASHITAGAWA GUN SHONAI MACHI","town":"HIRAOKA","perfecture_jp":"山形県","jp_add_1":"東田川郡庄内町","jp_add_2":"平岡"},"9997767":{"post_code":"9997767","prefecture":"YAMAGATA KEN","city":"HIGASHITAGAWA GUN SHONAI MACHI","town":"FUKAGAWA","perfecture_jp":"山形県","jp_add_1":"東田川郡庄内町","jp_add_2":"深川"},"9997736":{"post_code":"9997736","prefecture":"YAMAGATA KEN","city":"HIGASHITAGAWA GUN SHONAI MACHI","town":"FUKUSHIMA","perfecture_jp":"山形県","jp_add_1":"東田川郡庄内町","jp_add_2":"福島"},"9997711":{"post_code":"9997711","prefecture":"YAMAGATA KEN","city":"HIGASHITAGAWA GUN SHONAI MACHI","town":"FUKUWARA","perfecture_jp":"山形県","jp_add_1":"東田川郡庄内町","jp_add_2":"福原"},"9997726":{"post_code":"9997726","prefecture":"YAMAGATA KEN","city":"HIGASHITAGAWA GUN SHONAI MACHI","town":"FURUSEKI","perfecture_jp":"山形県","jp_add_1":"東田川郡庄内町","jp_add_2":"古関"},"9997712":{"post_code":"9997712","prefecture":"YAMAGATA KEN","city":"HIGASHITAGAWA GUN SHONAI MACHI","town":"HORINO","perfecture_jp":"山形県","jp_add_1":"東田川郡庄内町","jp_add_2":"堀野"},"9997735":{"post_code":"9997735","prefecture":"YAMAGATA KEN","city":"HIGASHITAGAWA GUN SHONAI MACHI","town":"MAETANOME","perfecture_jp":"山形県","jp_add_1":"東田川郡庄内町","jp_add_2":"前田野目"},"9997705":{"post_code":"9997705","prefecture":"YAMAGATA KEN","city":"HIGASHITAGAWA GUN SHONAI MACHI","town":"MAGISHIMA","perfecture_jp":"山形県","jp_add_1":"東田川郡庄内町","jp_add_2":"槇島"},"9997715":{"post_code":"9997715","prefecture":"YAMAGATA KEN","city":"HIGASHITAGAWA GUN SHONAI MACHI","town":"MAWATATE","perfecture_jp":"山形県","jp_add_1":"東田川郡庄内町","jp_add_2":"廻館"},"9996602":{"post_code":"9996602","prefecture":"YAMAGATA KEN","city":"HIGASHITAGAWA GUN SHONAI MACHI","town":"MIKAZAWA","perfecture_jp":"山形県","jp_add_1":"東田川郡庄内町","jp_add_2":"三ケ沢"},"9997733":{"post_code":"9997733","prefecture":"YAMAGATA KEN","city":"HIGASHITAGAWA GUN SHONAI MACHI","town":"MINAMIKOYA","perfecture_jp":"山形県","jp_add_1":"東田川郡庄内町","jp_add_2":"南興屋"},"9997727":{"post_code":"9997727","prefecture":"YAMAGATA KEN","city":"HIGASHITAGAWA GUN SHONAI MACHI","town":"MINAMINO","perfecture_jp":"山形県","jp_add_1":"東田川郡庄内町","jp_add_2":"南野"},"9997732":{"post_code":"9997732","prefecture":"YAMAGATA KEN","city":"HIGASHITAGAWA GUN SHONAI MACHI","town":"MINAMINOSHINDEN","perfecture_jp":"山形県","jp_add_1":"東田川郡庄内町","jp_add_2":"南野新田"},"9997764":{"post_code":"9997764","prefecture":"YAMAGATA KEN","city":"HIGASHITAGAWA GUN SHONAI MACHI","town":"MIYASONE","perfecture_jp":"山形県","jp_add_1":"東田川郡庄内町","jp_add_2":"宮曽根"},"9997756":{"post_code":"9997756","prefecture":"YAMAGATA KEN","city":"HIGASHITAGAWA GUN SHONAI MACHI","town":"MYOGASE","perfecture_jp":"山形県","jp_add_1":"東田川郡庄内町","jp_add_2":"茗荷瀬"},"9997744":{"post_code":"9997744","prefecture":"YAMAGATA KEN","city":"HIGASHITAGAWA GUN SHONAI MACHI","town":"MOTONOKATA","perfecture_jp":"山形県","jp_add_1":"東田川郡庄内町","jp_add_2":"本小野方"},"9997753":{"post_code":"9997753","prefecture":"YAMAGATA KEN","city":"HIGASHITAGAWA GUN SHONAI MACHI","town":"YOSHIOKA","perfecture_jp":"山形県","jp_add_1":"東田川郡庄内町","jp_add_2":"吉岡"},"9997749":{"post_code":"9997749","prefecture":"YAMAGATA KEN","city":"HIGASHITAGAWA GUN SHONAI MACHI","town":"YOSHIKATA","perfecture_jp":"山形県","jp_add_1":"東田川郡庄内町","jp_add_2":"吉方"},"9997723":{"post_code":"9997723","prefecture":"YAMAGATA KEN","city":"HIGASHITAGAWA GUN SHONAI MACHI","town":"RENSHI","perfecture_jp":"山形県","jp_add_1":"東田川郡庄内町","jp_add_2":"連枝"},"9998300":{"post_code":"9998300","prefecture":"YAMAGATA KEN","city":"AKUMI GUN YUZA MACHI","town":"IKANIKEISAIGANAIBAAI","perfecture_jp":"山形県","jp_add_1":"飽海郡遊佐町","jp_add_2":""},"9998436":{"post_code":"9998436","prefecture":"YAMAGATA KEN","city":"AKUMI GUN YUZA MACHI","town":"IWAGAWA","perfecture_jp":"山形県","jp_add_1":"飽海郡遊佐町","jp_add_2":"岩川"},"9998433":{"post_code":"9998433","prefecture":"YAMAGATA KEN","city":"AKUMI GUN YUZA MACHI","town":"EJI","perfecture_jp":"山形県","jp_add_1":"飽海郡遊佐町","jp_add_2":"江地"},"9998315":{"post_code":"9998315","prefecture":"YAMAGATA KEN","city":"AKUMI GUN YUZA MACHI","town":"OWARABIOKA","perfecture_jp":"山形県","jp_add_1":"飽海郡遊佐町","jp_add_2":"大蕨岡"},"9998311":{"post_code":"9998311","prefecture":"YAMAGATA KEN","city":"AKUMI GUN YUZA MACHI","town":"OHARADA","perfecture_jp":"山形県","jp_add_1":"飽海郡遊佐町","jp_add_2":"小原田"},"9998312":{"post_code":"9998312","prefecture":"YAMAGATA KEN","city":"AKUMI GUN YUZA MACHI","town":"KANOSAWA","perfecture_jp":"山形県","jp_add_1":"飽海郡遊佐町","jp_add_2":"鹿野沢"},"9998314":{"post_code":"9998314","prefecture":"YAMAGATA KEN","city":"AKUMI GUN YUZA MACHI","town":"KAMIWARABIOKA","perfecture_jp":"山形県","jp_add_1":"飽海郡遊佐町","jp_add_2":"上蕨岡"},"9998522":{"post_code":"9998522","prefecture":"YAMAGATA KEN","city":"AKUMI GUN YUZA MACHI","town":"KITAME","perfecture_jp":"山形県","jp_add_1":"飽海郡遊佐町","jp_add_2":"北目"},"9998317":{"post_code":"9998317","prefecture":"YAMAGATA KEN","city":"AKUMI GUN YUZA MACHI","town":"KOMATSU","perfecture_jp":"山形県","jp_add_1":"飽海郡遊佐町","jp_add_2":"小松"},"9998435":{"post_code":"9998435","prefecture":"YAMAGATA KEN","city":"AKUMI GUN YUZA MACHI","town":"SHOIZUMI","perfecture_jp":"山形県","jp_add_1":"飽海郡遊佐町","jp_add_2":"庄泉"},"9998304":{"post_code":"9998304","prefecture":"YAMAGATA KEN","city":"AKUMI GUN YUZA MACHI","town":"SHIRAISHINDEN","perfecture_jp":"山形県","jp_add_1":"飽海郡遊佐町","jp_add_2":"白井新田"},"9998431":{"post_code":"9998431","prefecture":"YAMAGATA KEN","city":"AKUMI GUN YUZA MACHI","town":"SUGASATO(JURIZUKA)","perfecture_jp":"山形県","jp_add_1":"飽海郡遊佐町","jp_add_2":"菅里"},"9998531":{"post_code":"9998531","prefecture":"YAMAGATA KEN","city":"AKUMI GUN YUZA MACHI","town":"SUGASATO(SONOTA)","perfecture_jp":"山形県","jp_add_1":"飽海郡遊佐町","jp_add_2":"菅里"},"9998313":{"post_code":"9998313","prefecture":"YAMAGATA KEN","city":"AKUMI GUN YUZA MACHI","town":"SUGISAWA","perfecture_jp":"山形県","jp_add_1":"飽海郡遊佐町","jp_add_2":"杉沢"},"9998525":{"post_code":"9998525","prefecture":"YAMAGATA KEN","city":"AKUMI GUN YUZA MACHI","town":"SUGUSE","perfecture_jp":"山形県","jp_add_1":"飽海郡遊佐町","jp_add_2":"直世"},"9998523":{"post_code":"9998523","prefecture":"YAMAGATA KEN","city":"AKUMI GUN YUZA MACHI","town":"TOYAMA","perfecture_jp":"山形県","jp_add_1":"飽海郡遊佐町","jp_add_2":"当山"},"9998524":{"post_code":"9998524","prefecture":"YAMAGATA KEN","city":"AKUMI GUN YUZA MACHI","town":"TOMIOKA","perfecture_jp":"山形県","jp_add_1":"飽海郡遊佐町","jp_add_2":"富岡"},"9998316":{"post_code":"9998316","prefecture":"YAMAGATA KEN","city":"AKUMI GUN YUZA MACHI","town":"TOYOKA","perfecture_jp":"山形県","jp_add_1":"飽海郡遊佐町","jp_add_2":"豊岡"},"9998303":{"post_code":"9998303","prefecture":"YAMAGATA KEN","city":"AKUMI GUN YUZA MACHI","town":"NOZAWA","perfecture_jp":"山形県","jp_add_1":"飽海郡遊佐町","jp_add_2":"野沢"},"9998438":{"post_code":"9998438","prefecture":"YAMAGATA KEN","city":"AKUMI GUN YUZA MACHI","town":"HIKO","perfecture_jp":"山形県","jp_add_1":"飽海郡遊佐町","jp_add_2":"比子"},"9998521":{"post_code":"9998521","prefecture":"YAMAGATA KEN","city":"AKUMI GUN YUZA MACHI","town":"FUKURA","perfecture_jp":"山形県","jp_add_1":"飽海郡遊佐町","jp_add_2":"吹浦"},"9998437":{"post_code":"9998437","prefecture":"YAMAGATA KEN","city":"AKUMI GUN YUZA MACHI","town":"FUJISAKI","perfecture_jp":"山形県","jp_add_1":"飽海郡遊佐町","jp_add_2":"藤崎"},"9998434":{"post_code":"9998434","prefecture":"YAMAGATA KEN","city":"AKUMI GUN YUZA MACHI","town":"MASUHO","perfecture_jp":"山形県","jp_add_1":"飽海郡遊佐町","jp_add_2":"増穂"},"9998432":{"post_code":"9998432","prefecture":"YAMAGATA KEN","city":"AKUMI GUN YUZA MACHI","town":"MIYADA","perfecture_jp":"山形県","jp_add_1":"飽海郡遊佐町","jp_add_2":"宮田"},"9998301":{"post_code":"9998301","prefecture":"YAMAGATA KEN","city":"AKUMI GUN YUZA MACHI","town":"YUZA","perfecture_jp":"山形県","jp_add_1":"飽海郡遊佐町","jp_add_2":"遊佐"},"9998302":{"post_code":"9998302","prefecture":"YAMAGATA KEN","city":"AKUMI GUN YUZA MACHI","town":"YOSHIDE","perfecture_jp":"山形県","jp_add_1":"飽海郡遊佐町","jp_add_2":"吉出"}}