{"0028071":{"post_code":"0028071","prefecture":"HOKKAIDO","city":"SAPPORO SHI KITA KU","town":"AINOSATO 1-JO","perfecture_jp":"北海道","jp_add_1":"札幌市北区","jp_add_2":"あいの里一条"},"0028072":{"post_code":"0028072","prefecture":"HOKKAIDO","city":"SAPPORO SHI KITA KU","town":"AINOSATO 2-JO","perfecture_jp":"北海道","jp_add_1":"札幌市北区","jp_add_2":"あいの里二条"},"0028073":{"post_code":"0028073","prefecture":"HOKKAIDO","city":"SAPPORO SHI KITA KU","town":"AINOSATO 3-JO","perfecture_jp":"北海道","jp_add_1":"札幌市北区","jp_add_2":"あいの里三条"},"0028074":{"post_code":"0028074","prefecture":"HOKKAIDO","city":"SAPPORO SHI KITA KU","town":"AINOSATO 4-JO","perfecture_jp":"北海道","jp_add_1":"札幌市北区","jp_add_2":"あいの里四条"},"0028075":{"post_code":"0028075","prefecture":"HOKKAIDO","city":"SAPPORO SHI KITA KU","town":"AINOSATO 5-JO","perfecture_jp":"北海道","jp_add_1":"札幌市北区","jp_add_2":"あいの里五条"},"0028021":{"post_code":"0028021","prefecture":"HOKKAIDO","city":"SAPPORO SHI KITA KU","town":"SHINORO 1-JO","perfecture_jp":"北海道","jp_add_1":"札幌市北区","jp_add_2":"篠路一条"},"0028022":{"post_code":"0028022","prefecture":"HOKKAIDO","city":"SAPPORO SHI KITA KU","town":"SHINORO 2-JO","perfecture_jp":"北海道","jp_add_1":"札幌市北区","jp_add_2":"篠路二条"},"0028023":{"post_code":"0028023","prefecture":"HOKKAIDO","city":"SAPPORO SHI KITA KU","town":"SHINORO 3-JO","perfecture_jp":"北海道","jp_add_1":"札幌市北区","jp_add_2":"篠路三条"},"0028024":{"post_code":"0028024","prefecture":"HOKKAIDO","city":"SAPPORO SHI KITA KU","town":"SHINORO 4-JO","perfecture_jp":"北海道","jp_add_1":"札幌市北区","jp_add_2":"篠路四条"},"0028025":{"post_code":"0028025","prefecture":"HOKKAIDO","city":"SAPPORO SHI KITA KU","town":"SHINORO 5-JO","perfecture_jp":"北海道","jp_add_1":"札幌市北区","jp_add_2":"篠路五条"},"0028026":{"post_code":"0028026","prefecture":"HOKKAIDO","city":"SAPPORO SHI KITA KU","town":"SHINORO 6-JO","perfecture_jp":"北海道","jp_add_1":"札幌市北区","jp_add_2":"篠路六条"},"0028027":{"post_code":"0028027","prefecture":"HOKKAIDO","city":"SAPPORO SHI KITA KU","town":"SHINORO 7-JO","perfecture_jp":"北海道","jp_add_1":"札幌市北区","jp_add_2":"篠路七条"},"0028028":{"post_code":"0028028","prefecture":"HOKKAIDO","city":"SAPPORO SHI KITA KU","town":"SHINORO 8-JO","perfecture_jp":"北海道","jp_add_1":"札幌市北区","jp_add_2":"篠路八条"},"0028029":{"post_code":"0028029","prefecture":"HOKKAIDO","city":"SAPPORO SHI KITA KU","town":"SHINORO 9-JO","perfecture_jp":"北海道","jp_add_1":"札幌市北区","jp_add_2":"篠路九条"},"0028030":{"post_code":"0028030","prefecture":"HOKKAIDO","city":"SAPPORO SHI KITA KU","town":"SHINORO 10-JO","perfecture_jp":"北海道","jp_add_1":"札幌市北区","jp_add_2":"篠路十条"},"0028052":{"post_code":"0028052","prefecture":"HOKKAIDO","city":"SAPPORO SHI KITA KU","town":"SHINOROCHO KAMISHINORO","perfecture_jp":"北海道","jp_add_1":"札幌市北区","jp_add_2":"篠路町上篠路"},"0028053":{"post_code":"0028053","prefecture":"HOKKAIDO","city":"SAPPORO SHI KITA KU","town":"SHINOROCHO SHINORO","perfecture_jp":"北海道","jp_add_1":"札幌市北区","jp_add_2":"篠路町篠路"},"0028051":{"post_code":"0028051","prefecture":"HOKKAIDO","city":"SAPPORO SHI KITA KU","town":"SHINOROCHO TAIHEI","perfecture_jp":"北海道","jp_add_1":"札幌市北区","jp_add_2":"篠路町太平"},"0028054":{"post_code":"0028054","prefecture":"HOKKAIDO","city":"SAPPORO SHI KITA KU","town":"SHINOROCHO TAKUHOKU","perfecture_jp":"北海道","jp_add_1":"札幌市北区","jp_add_2":"篠路町拓北"},"0028055":{"post_code":"0028055","prefecture":"HOKKAIDO","city":"SAPPORO SHI KITA KU","town":"SHINOROCHO FUKUI","perfecture_jp":"北海道","jp_add_1":"札幌市北区","jp_add_2":"篠路町福移"},"0028001":{"post_code":"0028001","prefecture":"HOKKAIDO","city":"SAPPORO SHI KITA KU","town":"TAIHEI 1-JO","perfecture_jp":"北海道","jp_add_1":"札幌市北区","jp_add_2":"太平一条"},"0028002":{"post_code":"0028002","prefecture":"HOKKAIDO","city":"SAPPORO SHI KITA KU","town":"TAIHEI 2-JO","perfecture_jp":"北海道","jp_add_1":"札幌市北区","jp_add_2":"太平二条"},"0028003":{"post_code":"0028003","prefecture":"HOKKAIDO","city":"SAPPORO SHI KITA KU","town":"TAIHEI 3-JO","perfecture_jp":"北海道","jp_add_1":"札幌市北区","jp_add_2":"太平三条"},"0028004":{"post_code":"0028004","prefecture":"HOKKAIDO","city":"SAPPORO SHI KITA KU","town":"TAIHEI 4-JO","perfecture_jp":"北海道","jp_add_1":"札幌市北区","jp_add_2":"太平四条"},"0028005":{"post_code":"0028005","prefecture":"HOKKAIDO","city":"SAPPORO SHI KITA KU","town":"TAIHEI 5-JO","perfecture_jp":"北海道","jp_add_1":"札幌市北区","jp_add_2":"太平五条"},"0028006":{"post_code":"0028006","prefecture":"HOKKAIDO","city":"SAPPORO SHI KITA KU","town":"TAIHEI 6-JO","perfecture_jp":"北海道","jp_add_1":"札幌市北区","jp_add_2":"太平六条"},"0028007":{"post_code":"0028007","prefecture":"HOKKAIDO","city":"SAPPORO SHI KITA KU","town":"TAIHEI 7-JO","perfecture_jp":"北海道","jp_add_1":"札幌市北区","jp_add_2":"太平七条"},"0028008":{"post_code":"0028008","prefecture":"HOKKAIDO","city":"SAPPORO SHI KITA KU","town":"TAIHEI 8-JO","perfecture_jp":"北海道","jp_add_1":"札幌市北区","jp_add_2":"太平八条"},"0028009":{"post_code":"0028009","prefecture":"HOKKAIDO","city":"SAPPORO SHI KITA KU","town":"TAIHEI 9-JO","perfecture_jp":"北海道","jp_add_1":"札幌市北区","jp_add_2":"太平九条"},"0028010":{"post_code":"0028010","prefecture":"HOKKAIDO","city":"SAPPORO SHI KITA KU","town":"TAIHEI 10-JO","perfecture_jp":"北海道","jp_add_1":"札幌市北区","jp_add_2":"太平十条"},"0028011":{"post_code":"0028011","prefecture":"HOKKAIDO","city":"SAPPORO SHI KITA KU","town":"TAIHEI 11-JO","perfecture_jp":"北海道","jp_add_1":"札幌市北区","jp_add_2":"太平十一条"},"0028012":{"post_code":"0028012","prefecture":"HOKKAIDO","city":"SAPPORO SHI KITA KU","town":"TAIHEI 12-JO","perfecture_jp":"北海道","jp_add_1":"札幌市北区","jp_add_2":"太平十二条"},"0028061":{"post_code":"0028061","prefecture":"HOKKAIDO","city":"SAPPORO SHI KITA KU","town":"TAKUHOKU 1-JO","perfecture_jp":"北海道","jp_add_1":"札幌市北区","jp_add_2":"拓北一条"},"0028062":{"post_code":"0028062","prefecture":"HOKKAIDO","city":"SAPPORO SHI KITA KU","town":"TAKUHOKU 2-JO","perfecture_jp":"北海道","jp_add_1":"札幌市北区","jp_add_2":"拓北二条"},"0028063":{"post_code":"0028063","prefecture":"HOKKAIDO","city":"SAPPORO SHI KITA KU","town":"TAKUHOKU 3-JO","perfecture_jp":"北海道","jp_add_1":"札幌市北区","jp_add_2":"拓北三条"},"0028064":{"post_code":"0028064","prefecture":"HOKKAIDO","city":"SAPPORO SHI KITA KU","town":"TAKUHOKU 4-JO","perfecture_jp":"北海道","jp_add_1":"札幌市北区","jp_add_2":"拓北四条"},"0028065":{"post_code":"0028065","prefecture":"HOKKAIDO","city":"SAPPORO SHI KITA KU","town":"TAKUHOKU 5-JO","perfecture_jp":"北海道","jp_add_1":"札幌市北区","jp_add_2":"拓北五条"},"0028066":{"post_code":"0028066","prefecture":"HOKKAIDO","city":"SAPPORO SHI KITA KU","town":"TAKUHOKU 6-JO","perfecture_jp":"北海道","jp_add_1":"札幌市北区","jp_add_2":"拓北六条"},"0028067":{"post_code":"0028067","prefecture":"HOKKAIDO","city":"SAPPORO SHI KITA KU","town":"TAKUHOKU 7-JO","perfecture_jp":"北海道","jp_add_1":"札幌市北区","jp_add_2":"拓北七条"},"0028068":{"post_code":"0028068","prefecture":"HOKKAIDO","city":"SAPPORO SHI KITA KU","town":"TAKUHOKU 8-JO","perfecture_jp":"北海道","jp_add_1":"札幌市北区","jp_add_2":"拓北八条"},"0020851":{"post_code":"0020851","prefecture":"HOKKAIDO","city":"SAPPORO SHI KITA KU","town":"TONDEN 1-JO","perfecture_jp":"北海道","jp_add_1":"札幌市北区","jp_add_2":"屯田一条"},"0020852":{"post_code":"0020852","prefecture":"HOKKAIDO","city":"SAPPORO SHI KITA KU","town":"TONDEN 2-JO","perfecture_jp":"北海道","jp_add_1":"札幌市北区","jp_add_2":"屯田二条"},"0020853":{"post_code":"0020853","prefecture":"HOKKAIDO","city":"SAPPORO SHI KITA KU","town":"TONDEN 3-JO","perfecture_jp":"北海道","jp_add_1":"札幌市北区","jp_add_2":"屯田三条"},"0020854":{"post_code":"0020854","prefecture":"HOKKAIDO","city":"SAPPORO SHI KITA KU","town":"TONDEN 4-JO","perfecture_jp":"北海道","jp_add_1":"札幌市北区","jp_add_2":"屯田四条"},"0020855":{"post_code":"0020855","prefecture":"HOKKAIDO","city":"SAPPORO SHI KITA KU","town":"TONDEN 5-JO","perfecture_jp":"北海道","jp_add_1":"札幌市北区","jp_add_2":"屯田五条"},"0020856":{"post_code":"0020856","prefecture":"HOKKAIDO","city":"SAPPORO SHI KITA KU","town":"TONDEN 6-JO","perfecture_jp":"北海道","jp_add_1":"札幌市北区","jp_add_2":"屯田六条"},"0020857":{"post_code":"0020857","prefecture":"HOKKAIDO","city":"SAPPORO SHI KITA KU","town":"TONDEN 7-JO","perfecture_jp":"北海道","jp_add_1":"札幌市北区","jp_add_2":"屯田七条"},"0020858":{"post_code":"0020858","prefecture":"HOKKAIDO","city":"SAPPORO SHI KITA KU","town":"TONDEN 8-JO","perfecture_jp":"北海道","jp_add_1":"札幌市北区","jp_add_2":"屯田八条"},"0020859":{"post_code":"0020859","prefecture":"HOKKAIDO","city":"SAPPORO SHI KITA KU","town":"TONDEN 9-JO","perfecture_jp":"北海道","jp_add_1":"札幌市北区","jp_add_2":"屯田九条"},"0020860":{"post_code":"0020860","prefecture":"HOKKAIDO","city":"SAPPORO SHI KITA KU","town":"TONDEN 10-JO","perfecture_jp":"北海道","jp_add_1":"札幌市北区","jp_add_2":"屯田十条"},"0020861":{"post_code":"0020861","prefecture":"HOKKAIDO","city":"SAPPORO SHI KITA KU","town":"TONDEN 11-JO","perfecture_jp":"北海道","jp_add_1":"札幌市北区","jp_add_2":"屯田十一条"},"0020865":{"post_code":"0020865","prefecture":"HOKKAIDO","city":"SAPPORO SHI KITA KU","town":"TONDENCHO","perfecture_jp":"北海道","jp_add_1":"札幌市北区","jp_add_2":"屯田町"},"0028038":{"post_code":"0028038","prefecture":"HOKKAIDO","city":"SAPPORO SHI KITA KU","town":"NISHIBARATO","perfecture_jp":"北海道","jp_add_1":"札幌市北区","jp_add_2":"西茨戸"},"0028031":{"post_code":"0028031","prefecture":"HOKKAIDO","city":"SAPPORO SHI KITA KU","town":"NISHIBARATO 1-JO","perfecture_jp":"北海道","jp_add_1":"札幌市北区","jp_add_2":"西茨戸一条"},"0028032":{"post_code":"0028032","prefecture":"HOKKAIDO","city":"SAPPORO SHI KITA KU","town":"NISHIBARATO 2-JO","perfecture_jp":"北海道","jp_add_1":"札幌市北区","jp_add_2":"西茨戸二条"},"0028033":{"post_code":"0028033","prefecture":"HOKKAIDO","city":"SAPPORO SHI KITA KU","town":"NISHIBARATO 3-JO","perfecture_jp":"北海道","jp_add_1":"札幌市北区","jp_add_2":"西茨戸三条"},"0028034":{"post_code":"0028034","prefecture":"HOKKAIDO","city":"SAPPORO SHI KITA KU","town":"NISHIBARATO 4-JO","perfecture_jp":"北海道","jp_add_1":"札幌市北区","jp_add_2":"西茨戸四条"},"0028035":{"post_code":"0028035","prefecture":"HOKKAIDO","city":"SAPPORO SHI KITA KU","town":"NISHIBARATO 5-JO","perfecture_jp":"北海道","jp_add_1":"札幌市北区","jp_add_2":"西茨戸五条"},"0028036":{"post_code":"0028036","prefecture":"HOKKAIDO","city":"SAPPORO SHI KITA KU","town":"NISHIBARATO 6-JO","perfecture_jp":"北海道","jp_add_1":"札幌市北区","jp_add_2":"西茨戸六条"},"0028037":{"post_code":"0028037","prefecture":"HOKKAIDO","city":"SAPPORO SHI KITA KU","town":"NISHIBARATO 7-JO","perfecture_jp":"北海道","jp_add_1":"札幌市北区","jp_add_2":"西茨戸七条"},"0028043":{"post_code":"0028043","prefecture":"HOKKAIDO","city":"SAPPORO SHI KITA KU","town":"HIGASHIBARATO","perfecture_jp":"北海道","jp_add_1":"札幌市北区","jp_add_2":"東茨戸"},"0028041":{"post_code":"0028041","prefecture":"HOKKAIDO","city":"SAPPORO SHI KITA KU","town":"HIGASHIBARATO 1-JO","perfecture_jp":"北海道","jp_add_1":"札幌市北区","jp_add_2":"東茨戸一条"},"0028042":{"post_code":"0028042","prefecture":"HOKKAIDO","city":"SAPPORO SHI KITA KU","town":"HIGASHIBARATO 2-JO","perfecture_jp":"北海道","jp_add_1":"札幌市北区","jp_add_2":"東茨戸二条"},"0028044":{"post_code":"0028044","prefecture":"HOKKAIDO","city":"SAPPORO SHI KITA KU","town":"HIGASHIBARATO 3-JO","perfecture_jp":"北海道","jp_add_1":"札幌市北区","jp_add_2":"東茨戸三条"},"0028045":{"post_code":"0028045","prefecture":"HOKKAIDO","city":"SAPPORO SHI KITA KU","town":"HIGASHIBARATO 4-JO","perfecture_jp":"北海道","jp_add_1":"札幌市北区","jp_add_2":"東茨戸四条"},"0028091":{"post_code":"0028091","prefecture":"HOKKAIDO","city":"SAPPORO SHI KITA KU","town":"MINAMIAINOSATO","perfecture_jp":"北海道","jp_add_1":"札幌市北区","jp_add_2":"南あいの里"},"0028081":{"post_code":"0028081","prefecture":"HOKKAIDO","city":"SAPPORO SHI KITA KU","town":"YURIGAHARA","perfecture_jp":"北海道","jp_add_1":"札幌市北区","jp_add_2":"百合が原"},"0028082":{"post_code":"0028082","prefecture":"HOKKAIDO","city":"SAPPORO SHI KITA KU","town":"YURIGAHARAKOEN","perfecture_jp":"北海道","jp_add_1":"札幌市北区","jp_add_2":"百合が原公園"},"0028089":{"post_code":"0028089","prefecture":"HOKKAIDO","city":"ISHIKARI GUN TOBETSU CHO","town":"BITOE(NAKAJIMA)","perfecture_jp":"北海道","jp_add_1":"石狩郡当別町","jp_add_2":"ビトエ"}}