{"0110911":{"post_code":"0110911","prefecture":"AKITA KEN","city":"AKITA SHI","town":"IIJIMA","perfecture_jp":"秋田県","jp_add_1":"秋田市","jp_add_2":"飯島"},"0110949":{"post_code":"0110949","prefecture":"AKITA KEN","city":"AKITA SHI","town":"IIJIMA IIDA","perfecture_jp":"秋田県","jp_add_1":"秋田市","jp_add_2":"飯島飯田"},"0110912":{"post_code":"0110912","prefecture":"AKITA KEN","city":"AKITA SHI","town":"IIJIMA KAWABATA","perfecture_jp":"秋田県","jp_add_1":"秋田市","jp_add_2":"飯島川端"},"0110916":{"post_code":"0110916","prefecture":"AKITA KEN","city":"AKITA SHI","town":"IIJIMA KOKUCHO","perfecture_jp":"秋田県","jp_add_1":"秋田市","jp_add_2":"飯島穀丁"},"0110947":{"post_code":"0110947","prefecture":"AKITA KEN","city":"AKITA SHI","town":"IIJIMA SHINCHO","perfecture_jp":"秋田県","jp_add_1":"秋田市","jp_add_2":"飯島新町"},"0110928":{"post_code":"0110928","prefecture":"AKITA KEN","city":"AKITA SHI","town":"IIJIMA NAGANOKAMICHO","perfecture_jp":"秋田県","jp_add_1":"秋田市","jp_add_2":"飯島長野上町"},"0110925":{"post_code":"0110925","prefecture":"AKITA KEN","city":"AKITA SHI","town":"IIJIMA NAGANONAKACHO","perfecture_jp":"秋田県","jp_add_1":"秋田市","jp_add_2":"飯島長野中町"},"0110924":{"post_code":"0110924","prefecture":"AKITA KEN","city":"AKITA SHI","town":"IIJIMA NAGANOHONCHO","perfecture_jp":"秋田県","jp_add_1":"秋田市","jp_add_2":"飯島長野本町"},"0110948":{"post_code":"0110948","prefecture":"AKITA KEN","city":"AKITA SHI","town":"IIJIMA NISHIBUKURO","perfecture_jp":"秋田県","jp_add_1":"秋田市","jp_add_2":"飯島西袋"},"0110913":{"post_code":"0110913","prefecture":"AKITA KEN","city":"AKITA SHI","town":"IIJIMA NEZUMITA","perfecture_jp":"秋田県","jp_add_1":"秋田市","jp_add_2":"飯島鼠田"},"0110923":{"post_code":"0110923","prefecture":"AKITA KEN","city":"AKITA SHI","town":"IIJIMA BUNKYOCHO","perfecture_jp":"秋田県","jp_add_1":"秋田市","jp_add_2":"飯島文京町"},"0110922":{"post_code":"0110922","prefecture":"AKITA KEN","city":"AKITA SHI","town":"IIJIMA MATSUNEHIGASHICHO","perfecture_jp":"秋田県","jp_add_1":"秋田市","jp_add_2":"飯島松根東町"},"0110921":{"post_code":"0110921","prefecture":"AKITA KEN","city":"AKITA SHI","town":"IIJIMA MATSUNENISHICHO","perfecture_jp":"秋田県","jp_add_1":"秋田市","jp_add_2":"飯島松根西町"},"0110914":{"post_code":"0110914","prefecture":"AKITA KEN","city":"AKITA SHI","town":"IIJIMA MISAGOCHO","perfecture_jp":"秋田県","jp_add_1":"秋田市","jp_add_2":"飯島美砂町"},"0110917":{"post_code":"0110917","prefecture":"AKITA KEN","city":"AKITA SHI","town":"IIJIMA MICHIHIGASHI","perfecture_jp":"秋田県","jp_add_1":"秋田市","jp_add_2":"飯島道東"},"0110915":{"post_code":"0110915","prefecture":"AKITA KEN","city":"AKITA SHI","town":"IIJIMA MIDORIGAOKACHO","perfecture_jp":"秋田県","jp_add_1":"秋田市","jp_add_2":"飯島緑丘町"},"0110927":{"post_code":"0110927","prefecture":"AKITA KEN","city":"AKITA SHI","town":"KOHOKU SHINCHO","perfecture_jp":"秋田県","jp_add_1":"秋田市","jp_add_2":"港北新町"},"0110926":{"post_code":"0110926","prefecture":"AKITA KEN","city":"AKITA SHI","town":"KOHOKU MATSUNOCHO","perfecture_jp":"秋田県","jp_add_1":"秋田市","jp_add_2":"港北松野町"},"0110932":{"post_code":"0110932","prefecture":"AKITA KEN","city":"AKITA SHI","town":"SHOGUNNO AOYAMACHO","perfecture_jp":"秋田県","jp_add_1":"秋田市","jp_add_2":"将軍野青山町"},"0110934":{"post_code":"0110934","prefecture":"AKITA KEN","city":"AKITA SHI","town":"SHOGUNNO KATSURACHO","perfecture_jp":"秋田県","jp_add_1":"秋田市","jp_add_2":"将軍野桂町"},"0110933":{"post_code":"0110933","prefecture":"AKITA KEN","city":"AKITA SHI","town":"SHOGUNNO SEKIKOSHI","perfecture_jp":"秋田県","jp_add_1":"秋田市","jp_add_2":"将軍野堰越"},"0110935":{"post_code":"0110935","prefecture":"AKITA KEN","city":"AKITA SHI","town":"SHOGUNNO MUKAIYAMA","perfecture_jp":"秋田県","jp_add_1":"秋田市","jp_add_2":"将軍野向山"},"0110931":{"post_code":"0110931","prefecture":"AKITA KEN","city":"AKITA SHI","town":"SHOGUNNO HIGASHI","perfecture_jp":"秋田県","jp_add_1":"秋田市","jp_add_2":"将軍野東"},"0110936":{"post_code":"0110936","prefecture":"AKITA KEN","city":"AKITA SHI","town":"SHOGUNNO MINAMI","perfecture_jp":"秋田県","jp_add_1":"秋田市","jp_add_2":"将軍野南"},"0110944":{"post_code":"0110944","prefecture":"AKITA KEN","city":"AKITA SHI","town":"TSUCHIZAKIMINATO KOKUBOCHO","perfecture_jp":"秋田県","jp_add_1":"秋田市","jp_add_2":"土崎港穀保町"},"0110951":{"post_code":"0110951","prefecture":"AKITA KEN","city":"AKITA SHI","town":"TSUCHIZAKIMINATO FURUKAWAMACHI","perfecture_jp":"秋田県","jp_add_1":"秋田市","jp_add_2":"土崎港相染町"},"0110946":{"post_code":"0110946","prefecture":"AKITA KEN","city":"AKITA SHI","town":"TSUCHIZAKIMINATO CHUO","perfecture_jp":"秋田県","jp_add_1":"秋田市","jp_add_2":"土崎港中央"},"0110942":{"post_code":"0110942","prefecture":"AKITA KEN","city":"AKITA SHI","town":"TSUCHIZAKIMINATO HIGASHI","perfecture_jp":"秋田県","jp_add_1":"秋田市","jp_add_2":"土崎港東"},"0110945":{"post_code":"0110945","prefecture":"AKITA KEN","city":"AKITA SHI","town":"TSUCHIZAKIMINATO NISHI","perfecture_jp":"秋田県","jp_add_1":"秋田市","jp_add_2":"土崎港西"},"0110943":{"post_code":"0110943","prefecture":"AKITA KEN","city":"AKITA SHI","town":"TSUCHIZAKIMINATO MINAMI","perfecture_jp":"秋田県","jp_add_1":"秋田市","jp_add_2":"土崎港南"},"0110941":{"post_code":"0110941","prefecture":"AKITA KEN","city":"AKITA SHI","town":"TSUCHIZAKIMINATO KITA","perfecture_jp":"秋田県","jp_add_1":"秋田市","jp_add_2":"土崎港北"},"0110901":{"post_code":"0110901","prefecture":"AKITA KEN","city":"AKITA SHI","town":"TERAUCHI","perfecture_jp":"秋田県","jp_add_1":"秋田市","jp_add_2":"寺内"},"0110903":{"post_code":"0110903","prefecture":"AKITA KEN","city":"AKITA SHI","town":"TERAUCHI ABURADEN","perfecture_jp":"秋田県","jp_add_1":"秋田市","jp_add_2":"寺内油田"},"0110906":{"post_code":"0110906","prefecture":"AKITA KEN","city":"AKITA SHI","town":"TERAUCHI USHIROJO","perfecture_jp":"秋田県","jp_add_1":"秋田市","jp_add_2":"寺内後城"},"0110938":{"post_code":"0110938","prefecture":"AKITA KEN","city":"AKITA SHI","town":"TERAUCHI UNOKI","perfecture_jp":"秋田県","jp_add_1":"秋田市","jp_add_2":"寺内鵜ノ木"},"0110908":{"post_code":"0110908","prefecture":"AKITA KEN","city":"AKITA SHI","town":"TERAUCHI OKOJI","perfecture_jp":"秋田県","jp_add_1":"秋田市","jp_add_2":"寺内大小路"},"0110939":{"post_code":"0110939","prefecture":"AKITA KEN","city":"AKITA SHI","town":"TERAUCHI OHATA","perfecture_jp":"秋田県","jp_add_1":"秋田市","jp_add_2":"寺内大畑"},"0110905":{"post_code":"0110905","prefecture":"AKITA KEN","city":"AKITA SHI","town":"TERAUCHI KAMIYASHIKI","perfecture_jp":"秋田県","jp_add_1":"秋田市","jp_add_2":"寺内神屋敷"},"0110937":{"post_code":"0110937","prefecture":"AKITA KEN","city":"AKITA SHI","town":"TERAUCHI KOYA","perfecture_jp":"秋田県","jp_add_1":"秋田市","jp_add_2":"寺内高野"},"0110909":{"post_code":"0110909","prefecture":"AKITA KEN","city":"AKITA SHI","town":"TERAUCHI KOZAKURA","perfecture_jp":"秋田県","jp_add_1":"秋田市","jp_add_2":"寺内児桜"},"0110902":{"post_code":"0110902","prefecture":"AKITA KEN","city":"AKITA SHI","town":"TERAUCHI DONOSAWA","perfecture_jp":"秋田県","jp_add_1":"秋田市","jp_add_2":"寺内堂ノ沢"},"0110904":{"post_code":"0110904","prefecture":"AKITA KEN","city":"AKITA SHI","town":"TERAUCHI HIRUNE","perfecture_jp":"秋田県","jp_add_1":"秋田市","jp_add_2":"寺内蛭根"},"0110907":{"post_code":"0110907","prefecture":"AKITA KEN","city":"AKITA SHI","town":"TERAUCHI YAKEYAMA","perfecture_jp":"秋田県","jp_add_1":"秋田市","jp_add_2":"寺内焼山"}}