{"0150000":{"post_code":"0150000","prefecture":"AKITA KEN","city":"YURIHONJO SHI","town":"IKANIKEISAIGANAIBAAI","perfecture_jp":"秋田県","jp_add_1":"由利本荘市","jp_add_2":""},"0150023":{"post_code":"0150023","prefecture":"AKITA KEN","city":"YURIHONJO SHI","town":"AKATA","perfecture_jp":"秋田県","jp_add_1":"由利本荘市","jp_add_2":"赤田"},"0150836":{"post_code":"0150836","prefecture":"AKITA KEN","city":"YURIHONJO SHI","town":"AKANUMASHITA","perfecture_jp":"秋田県","jp_add_1":"由利本荘市","jp_add_2":"赤沼下"},"0150079":{"post_code":"0150079","prefecture":"AKITA KEN","city":"YURIHONJO SHI","town":"AKANUMASHITAMICHI","perfecture_jp":"秋田県","jp_add_1":"由利本荘市","jp_add_2":"赤沼下道"},"0150071":{"post_code":"0150071","prefecture":"AKITA KEN","city":"YURIHONJO SHI","town":"AKANUMAMACHI","perfecture_jp":"秋田県","jp_add_1":"由利本荘市","jp_add_2":"赤沼町"},"0150034":{"post_code":"0150034","prefecture":"AKITA KEN","city":"YURIHONJO SHI","town":"ASHIKAWA","perfecture_jp":"秋田県","jp_add_1":"由利本荘市","jp_add_2":"芦川"},"0150084":{"post_code":"0150084","prefecture":"AKITA KEN","city":"YURIHONJO SHI","town":"AYUSE","perfecture_jp":"秋田県","jp_add_1":"由利本荘市","jp_add_2":"鮎瀬"},"0150065":{"post_code":"0150065","prefecture":"AKITA KEN","city":"YURIHONJO SHI","town":"ARAMACHI","perfecture_jp":"秋田県","jp_add_1":"由利本荘市","jp_add_2":"荒町"},"0150892":{"post_code":"0150892","prefecture":"AKITA KEN","city":"YURIHONJO SHI","town":"ARIYAMA","perfecture_jp":"秋田県","jp_add_1":"由利本荘市","jp_add_2":"蟻山"},"0150301":{"post_code":"0150301","prefecture":"AKITA KEN","city":"YURIHONJO SHI","town":"IIZAWA","perfecture_jp":"秋田県","jp_add_1":"由利本荘市","jp_add_2":"飯沢"},"0150311":{"post_code":"0150311","prefecture":"AKITA KEN","city":"YURIHONJO SHI","town":"IKAZUCHI","perfecture_jp":"秋田県","jp_add_1":"由利本荘市","jp_add_2":"五十土"},"0150012":{"post_code":"0150012","prefecture":"AKITA KEN","city":"YURIHONJO SHI","town":"ISHIWAKI (TAJIRI)","perfecture_jp":"秋田県","jp_add_1":"由利本荘市","jp_add_2":"石脇"},"0150013":{"post_code":"0150013","prefecture":"AKITA KEN","city":"YURIHONJO SHI","town":"ISHIWAKI (TAJIRINO)","perfecture_jp":"秋田県","jp_add_1":"由利本荘市","jp_add_2":"石脇"},"0150014":{"post_code":"0150014","prefecture":"AKITA KEN","city":"YURIHONJO SHI","town":"ISHIWAKI (YAMANOKAMI)","perfecture_jp":"秋田県","jp_add_1":"由利本荘市","jp_add_2":"石脇"},"0150011":{"post_code":"0150011","prefecture":"AKITA KEN","city":"YURIHONJO SHI","town":"ISHIWAKI(SONOTA)","perfecture_jp":"秋田県","jp_add_1":"由利本荘市","jp_add_2":"石脇"},"0150823":{"post_code":"0150823","prefecture":"AKITA KEN","city":"YURIHONJO SHI","town":"IZUMIMACHI","perfecture_jp":"秋田県","jp_add_1":"由利本荘市","jp_add_2":"和泉町"},"0150852":{"post_code":"0150852","prefecture":"AKITA KEN","city":"YURIHONJO SHI","town":"ICHIBANZEKI","perfecture_jp":"秋田県","jp_add_1":"由利本荘市","jp_add_2":"一番堰"},"0150876":{"post_code":"0150876","prefecture":"AKITA KEN","city":"YURIHONJO SHI","town":"IDOJIRI","perfecture_jp":"秋田県","jp_add_1":"由利本荘市","jp_add_2":"井戸尻"},"0150834":{"post_code":"0150834","prefecture":"AKITA KEN","city":"YURIHONJO SHI","town":"IWABUCHISHITA","perfecture_jp":"秋田県","jp_add_1":"由利本荘市","jp_add_2":"岩渕下"},"0150814":{"post_code":"0150814","prefecture":"AKITA KEN","city":"YURIHONJO SHI","town":"USHIROMACHI","perfecture_jp":"秋田県","jp_add_1":"由利本荘市","jp_add_2":"後町"},"0150022":{"post_code":"0150022","prefecture":"AKITA KEN","city":"YURIHONJO SHI","town":"UCHIKUROSE","perfecture_jp":"秋田県","jp_add_1":"由利本荘市","jp_add_2":"内黒瀬"},"0150024":{"post_code":"0150024","prefecture":"AKITA KEN","city":"YURIHONJO SHI","town":"UTETSU","perfecture_jp":"秋田県","jp_add_1":"由利本荘市","jp_add_2":"内越"},"0150042":{"post_code":"0150042","prefecture":"AKITA KEN","city":"YURIHONJO SHI","town":"UMEDA","perfecture_jp":"秋田県","jp_add_1":"由利本荘市","jp_add_2":"埋田"},"0150072":{"post_code":"0150072","prefecture":"AKITA KEN","city":"YURIHONJO SHI","town":"URAOZAKIMACHI","perfecture_jp":"秋田県","jp_add_1":"由利本荘市","jp_add_2":"裏尾崎町"},"0150094":{"post_code":"0150094","prefecture":"AKITA KEN","city":"YURIHONJO SHI","town":"UWANO","perfecture_jp":"秋田県","jp_add_1":"由利本荘市","jp_add_2":"上野"},"0150856":{"post_code":"0150856","prefecture":"AKITA KEN","city":"YURIHONJO SHI","town":"ENSHOWAKI","perfecture_jp":"秋田県","jp_add_1":"由利本荘市","jp_add_2":"円正脇"},"0150864":{"post_code":"0150864","prefecture":"AKITA KEN","city":"YURIHONJO SHI","town":"OKUWAMACHI","perfecture_jp":"秋田県","jp_add_1":"由利本荘市","jp_add_2":"大鍬町"},"0150093":{"post_code":"0150093","prefecture":"AKITA KEN","city":"YURIHONJO SHI","town":"OSAWA","perfecture_jp":"秋田県","jp_add_1":"由利本荘市","jp_add_2":"大沢"},"0150868":{"post_code":"0150868","prefecture":"AKITA KEN","city":"YURIHONJO SHI","town":"OZUTSUMISHITA","perfecture_jp":"秋田県","jp_add_1":"由利本荘市","jp_add_2":"大堤下"},"0150062":{"post_code":"0150062","prefecture":"AKITA KEN","city":"YURIHONJO SHI","town":"ONAKANOSAWA","perfecture_jp":"秋田県","jp_add_1":"由利本荘市","jp_add_2":"大中ノ沢"},"0150816":{"post_code":"0150816","prefecture":"AKITA KEN","city":"YURIHONJO SHI","town":"OMACHI","perfecture_jp":"秋田県","jp_add_1":"由利本荘市","jp_add_2":"大町"},"0150312":{"post_code":"0150312","prefecture":"AKITA KEN","city":"YURIHONJO SHI","town":"OMINAKUCHI","perfecture_jp":"秋田県","jp_add_1":"由利本荘市","jp_add_2":"大水口"},"0150091":{"post_code":"0150091","prefecture":"AKITA KEN","city":"YURIHONJO SHI","town":"OYANA","perfecture_jp":"秋田県","jp_add_1":"由利本荘市","jp_add_2":"大簗"},"0150021":{"post_code":"0150021","prefecture":"AKITA KEN","city":"YURIHONJO SHI","town":"ORA","perfecture_jp":"秋田県","jp_add_1":"由利本荘市","jp_add_2":"大浦"},"0150811":{"post_code":"0150811","prefecture":"AKITA KEN","city":"YURIHONJO SHI","town":"OKEYAMACHI","perfecture_jp":"秋田県","jp_add_1":"由利本荘市","jp_add_2":"桶屋町"},"0150871":{"post_code":"0150871","prefecture":"AKITA KEN","city":"YURIHONJO SHI","town":"OZAKI","perfecture_jp":"秋田県","jp_add_1":"由利本荘市","jp_add_2":"尾崎"},"0150802":{"post_code":"0150802","prefecture":"AKITA KEN","city":"YURIHONJO SHI","town":"OMOTEOZAKIMACHI","perfecture_jp":"秋田県","jp_add_1":"由利本荘市","jp_add_2":"表尾崎町"},"0150035":{"post_code":"0150035","prefecture":"AKITA KEN","city":"YURIHONJO SHI","town":"OYAKAWA","perfecture_jp":"秋田県","jp_add_1":"由利本荘市","jp_add_2":"親川"},"0150812":{"post_code":"0150812","prefecture":"AKITA KEN","city":"YURIHONJO SHI","town":"KAJIMACHI","perfecture_jp":"秋田県","jp_add_1":"由利本荘市","jp_add_2":"鍛治町"},"0150826":{"post_code":"0150826","prefecture":"AKITA KEN","city":"YURIHONJO SHI","town":"KATAMACHI","perfecture_jp":"秋田県","jp_add_1":"由利本荘市","jp_add_2":"片町"},"0150321":{"post_code":"0150321","prefecture":"AKITA KEN","city":"YURIHONJO SHI","town":"KANIZAWA","perfecture_jp":"秋田県","jp_add_1":"由利本荘市","jp_add_2":"蟹沢"},"0150066":{"post_code":"0150066","prefecture":"AKITA KEN","city":"YURIHONJO SHI","town":"KANEYAMA","perfecture_jp":"秋田県","jp_add_1":"由利本荘市","jp_add_2":"金山"},"0150854":{"post_code":"0150854","prefecture":"AKITA KEN","city":"YURIHONJO SHI","town":"KAMIONO","perfecture_jp":"秋田県","jp_add_1":"由利本荘市","jp_add_2":"上大野"},"0150085":{"post_code":"0150085","prefecture":"AKITA KEN","city":"YURIHONJO SHI","town":"KARASUKAWA","perfecture_jp":"秋田県","jp_add_1":"由利本荘市","jp_add_2":"烏川"},"0150051":{"post_code":"0150051","prefecture":"AKITA KEN","city":"YURIHONJO SHI","town":"KAWAGUCHI","perfecture_jp":"秋田県","jp_add_1":"由利本荘市","jp_add_2":"川口"},"0150331":{"post_code":"0150331","prefecture":"AKITA KEN","city":"YURIHONJO SHI","town":"KAWANISHI","perfecture_jp":"秋田県","jp_add_1":"由利本荘市","jp_add_2":"川西"},"0150872":{"post_code":"0150872","prefecture":"AKITA KEN","city":"YURIHONJO SHI","town":"KAWARAYACHI","perfecture_jp":"秋田県","jp_add_1":"由利本荘市","jp_add_2":"瓦谷地"},"0150825":{"post_code":"0150825","prefecture":"AKITA KEN","city":"YURIHONJO SHI","town":"KANNOMMACHI","perfecture_jp":"秋田県","jp_add_1":"由利本荘市","jp_add_2":"観音町"},"0150878":{"post_code":"0150878","prefecture":"AKITA KEN","city":"YURIHONJO SHI","town":"KANNOMMORI","perfecture_jp":"秋田県","jp_add_1":"由利本荘市","jp_add_2":"観音森"},"0150831":{"post_code":"0150831","prefecture":"AKITA KEN","city":"YURIHONJO SHI","town":"KITAURAJI","perfecture_jp":"秋田県","jp_add_1":"由利本荘市","jp_add_2":"北裏地"},"0150069":{"post_code":"0150069","prefecture":"AKITA KEN","city":"YURIHONJO SHI","town":"KITANOMATA","perfecture_jp":"秋田県","jp_add_1":"由利本荘市","jp_add_2":"北ノ股"},"0150884":{"post_code":"0150884","prefecture":"AKITA KEN","city":"YURIHONJO SHI","town":"KITSUNEMORI","perfecture_jp":"秋田県","jp_add_1":"由利本荘市","jp_add_2":"狐森"},"0150874":{"post_code":"0150874","prefecture":"AKITA KEN","city":"YURIHONJO SHI","town":"KYUJINCHO","perfecture_jp":"秋田県","jp_add_1":"由利本荘市","jp_add_2":"給人町"},"0150881":{"post_code":"0150881","prefecture":"AKITA KEN","city":"YURIHONJO SHI","town":"KIRIDOSHI","perfecture_jp":"秋田県","jp_add_1":"由利本荘市","jp_add_2":"切通"},"0150045":{"post_code":"0150045","prefecture":"AKITA KEN","city":"YURIHONJO SHI","town":"KUZUNORI","perfecture_jp":"秋田県","jp_add_1":"由利本荘市","jp_add_2":"葛法"},"0150302":{"post_code":"0150302","prefecture":"AKITA KEN","city":"YURIHONJO SHI","town":"KUBOTA","perfecture_jp":"秋田県","jp_add_1":"由利本荘市","jp_add_2":"久保田"},"0150361":{"post_code":"0150361","prefecture":"AKITA KEN","city":"YURIHONJO SHI","town":"KUROSAWA","perfecture_jp":"秋田県","jp_add_1":"由利本荘市","jp_add_2":"黒沢"},"0150883":{"post_code":"0150883","prefecture":"AKITA KEN","city":"YURIHONJO SHI","town":"GECHIGASAWA","perfecture_jp":"秋田県","jp_add_1":"由利本荘市","jp_add_2":"下地ケ沢"},"0150313":{"post_code":"0150313","prefecture":"AKITA KEN","city":"YURIHONJO SHI","town":"KOSUGANO","perfecture_jp":"秋田県","jp_add_1":"由利本荘市","jp_add_2":"小菅野"},"0150862":{"post_code":"0150862","prefecture":"AKITA KEN","city":"YURIHONJO SHI","town":"KOBITOMACHI","perfecture_jp":"秋田県","jp_add_1":"由利本荘市","jp_add_2":"小人町"},"0150891":{"post_code":"0150891","prefecture":"AKITA KEN","city":"YURIHONJO SHI","town":"KOBOGASAWA","perfecture_jp":"秋田県","jp_add_1":"由利本荘市","jp_add_2":"小防ケ沢"},"0150861":{"post_code":"0150861","prefecture":"AKITA KEN","city":"YURIHONJO SHI","town":"GOMON","perfecture_jp":"秋田県","jp_add_1":"由利本荘市","jp_add_2":"御門"},"0150887":{"post_code":"0150887","prefecture":"AKITA KEN","city":"YURIHONJO SHI","town":"KONNOYACHI","perfecture_jp":"秋田県","jp_add_1":"由利本荘市","jp_add_2":"今野谷地"},"0150821":{"post_code":"0150821","prefecture":"AKITA KEN","city":"YURIHONJO SHI","town":"SAKANAMACHI","perfecture_jp":"秋田県","jp_add_1":"由利本荘市","jp_add_2":"肴町"},"0150074":{"post_code":"0150074","prefecture":"AKITA KEN","city":"YURIHONJO SHI","town":"SAKURAKOJI","perfecture_jp":"秋田県","jp_add_1":"由利本荘市","jp_add_2":"桜小路"},"0150073":{"post_code":"0150073","prefecture":"AKITA KEN","city":"YURIHONJO SHI","town":"SASAMICHI","perfecture_jp":"秋田県","jp_add_1":"由利本荘市","jp_add_2":"笹道"},"0150889":{"post_code":"0150889","prefecture":"AKITA KEN","city":"YURIHONJO SHI","town":"SATOBATAKE","perfecture_jp":"秋田県","jp_add_1":"由利本荘市","jp_add_2":"砂糖畑"},"0150067":{"post_code":"0150067","prefecture":"AKITA KEN","city":"YURIHONJO SHI","town":"SANJO","perfecture_jp":"秋田県","jp_add_1":"由利本荘市","jp_add_2":"三条"},"0150841":{"post_code":"0150841","prefecture":"AKITA KEN","city":"YURIHONJO SHI","town":"SHIMOONO","perfecture_jp":"秋田県","jp_add_1":"由利本荘市","jp_add_2":"下大野"},"0150832":{"post_code":"0150832","prefecture":"AKITA KEN","city":"YURIHONJO SHI","town":"SHIMOKAWAHARANAKAJIMA","perfecture_jp":"秋田県","jp_add_1":"由利本荘市","jp_add_2":"下川原中島"},"0150322":{"post_code":"0150322","prefecture":"AKITA KEN","city":"YURIHONJO SHI","town":"SHINKAMIJO","perfecture_jp":"秋田県","jp_add_1":"由利本荘市","jp_add_2":"新上条"},"0150303":{"post_code":"0150303","prefecture":"AKITA KEN","city":"YURIHONJO SHI","town":"JINGAMORI","perfecture_jp":"秋田県","jp_add_1":"由利本荘市","jp_add_2":"陳ケ森"},"0150888":{"post_code":"0150888","prefecture":"AKITA KEN","city":"YURIHONJO SHI","town":"SHINKUMICHO","perfecture_jp":"秋田県","jp_add_1":"由利本荘市","jp_add_2":"新組町"},"0150033":{"post_code":"0150033","prefecture":"AKITA KEN","city":"YURIHONJO SHI","town":"SHINNOSAWA","perfecture_jp":"秋田県","jp_add_1":"由利本荘市","jp_add_2":"神沢"},"0150869":{"post_code":"0150869","prefecture":"AKITA KEN","city":"YURIHONJO SHI","town":"JIMBADAI","perfecture_jp":"秋田県","jp_add_1":"由利本荘市","jp_add_2":"陣場岱"},"0150833":{"post_code":"0150833","prefecture":"AKITA KEN","city":"YURIHONJO SHI","town":"SUGUMI","perfecture_jp":"秋田県","jp_add_1":"由利本荘市","jp_add_2":"巣組"},"0150875":{"post_code":"0150875","prefecture":"AKITA KEN","city":"YURIHONJO SHI","town":"SUNAGOSHITA","perfecture_jp":"秋田県","jp_add_1":"由利本荘市","jp_add_2":"砂子下"},"0150351":{"post_code":"0150351","prefecture":"AKITA KEN","city":"YURIHONJO SHI","town":"SEKIGUCHI","perfecture_jp":"秋田県","jp_add_1":"由利本荘市","jp_add_2":"堰口"},"0150840":{"post_code":"0150840","prefecture":"AKITA KEN","city":"YURIHONJO SHI","town":"SEGOSHIBA","perfecture_jp":"秋田県","jp_add_1":"由利本荘市","jp_add_2":"瀬越場"},"0150867":{"post_code":"0150867","prefecture":"AKITA KEN","city":"YURIHONJO SHI","town":"SENGARI","perfecture_jp":"秋田県","jp_add_1":"由利本荘市","jp_add_2":"千刈"},"0150081":{"post_code":"0150081","prefecture":"AKITA KEN","city":"YURIHONJO SHI","town":"SORIMACHI","perfecture_jp":"秋田県","jp_add_1":"由利本荘市","jp_add_2":"雪車町"},"0150808":{"post_code":"0150808","prefecture":"AKITA KEN","city":"YURIHONJO SHI","town":"DAIMON","perfecture_jp":"秋田県","jp_add_1":"由利本荘市","jp_add_2":"大門"},"0150083":{"post_code":"0150083","prefecture":"AKITA KEN","city":"YURIHONJO SHI","town":"TAKINOSAWA","perfecture_jp":"秋田県","jp_add_1":"由利本荘市","jp_add_2":"滝ノ沢"},"0150086":{"post_code":"0150086","prefecture":"AKITA KEN","city":"YURIHONJO SHI","town":"TATE","perfecture_jp":"秋田県","jp_add_1":"由利本荘市","jp_add_2":"舘"},"0150063":{"post_code":"0150063","prefecture":"AKITA KEN","city":"YURIHONJO SHI","town":"TATEMAE","perfecture_jp":"秋田県","jp_add_1":"由利本荘市","jp_add_2":"舘前"},"0150804":{"post_code":"0150804","prefecture":"AKITA KEN","city":"YURIHONJO SHI","town":"TANIYAMAKOJI","perfecture_jp":"秋田県","jp_add_1":"由利本荘市","jp_add_2":"谷山小路"},"0150822":{"post_code":"0150822","prefecture":"AKITA KEN","city":"YURIHONJO SHI","town":"TAMACHI","perfecture_jp":"秋田県","jp_add_1":"由利本荘市","jp_add_2":"田町"},"0150044":{"post_code":"0150044","prefecture":"AKITA KEN","city":"YURIHONJO SHI","town":"TAMANOIKE","perfecture_jp":"秋田県","jp_add_1":"由利本荘市","jp_add_2":"玉ノ池"},"0150504":{"post_code":"0150504","prefecture":"AKITA KEN","city":"YURIHONJO SHI","town":"CHOKAIMACHI KAMIKAWAUCHI","perfecture_jp":"秋田県","jp_add_1":"由利本荘市","jp_add_2":"鳥海町上川内"},"0150721":{"post_code":"0150721","prefecture":"AKITA KEN","city":"YURIHONJO SHI","town":"CHOKAIMACHI KAMIJINEGO","perfecture_jp":"秋田県","jp_add_1":"由利本荘市","jp_add_2":"鳥海町上笹子"},"0150515":{"post_code":"0150515","prefecture":"AKITA KEN","city":"YURIHONJO SHI","town":"CHOKAIMACHI KAMIHITANE","perfecture_jp":"秋田県","jp_add_1":"由利本荘市","jp_add_2":"鳥海町上直根"},"0150503":{"post_code":"0150503","prefecture":"AKITA KEN","city":"YURIHONJO SHI","town":"CHOKAIMACHI KURISAWA","perfecture_jp":"秋田県","jp_add_1":"由利本荘市","jp_add_2":"鳥海町栗沢"},"0150505":{"post_code":"0150505","prefecture":"AKITA KEN","city":"YURIHONJO SHI","town":"CHOKAIMACHI KOGAWA","perfecture_jp":"秋田県","jp_add_1":"由利本荘市","jp_add_2":"鳥海町小川"},"0150511":{"post_code":"0150511","prefecture":"AKITA KEN","city":"YURIHONJO SHI","town":"CHOKAIMACHI SAINOKAMI","perfecture_jp":"秋田県","jp_add_1":"由利本荘市","jp_add_2":"鳥海町戈之神"},"0150512":{"post_code":"0150512","prefecture":"AKITA KEN","city":"YURIHONJO SHI","town":"CHOKAIMACHI SARUKURA","perfecture_jp":"秋田県","jp_add_1":"由利本荘市","jp_add_2":"鳥海町猿倉"},"0150502":{"post_code":"0150502","prefecture":"AKITA KEN","city":"YURIHONJO SHI","town":"CHOKAIMACHI SHIMOKAWAUCHI","perfecture_jp":"秋田県","jp_add_1":"由利本荘市","jp_add_2":"鳥海町下川内"},"0150722":{"post_code":"0150722","prefecture":"AKITA KEN","city":"YURIHONJO SHI","town":"CHOKAIMACHI SHIMOJINEGO","perfecture_jp":"秋田県","jp_add_1":"由利本荘市","jp_add_2":"鳥海町下笹子"},"0150513":{"post_code":"0150513","prefecture":"AKITA KEN","city":"YURIHONJO SHI","town":"CHOKAIMACHI SHIMOHITANE","perfecture_jp":"秋田県","jp_add_1":"由利本荘市","jp_add_2":"鳥海町下直根"},"0150514":{"post_code":"0150514","prefecture":"AKITA KEN","city":"YURIHONJO SHI","town":"CHOKAIMACHI NAKAHITANE","perfecture_jp":"秋田県","jp_add_1":"由利本荘市","jp_add_2":"鳥海町中直根"},"0150501":{"post_code":"0150501","prefecture":"AKITA KEN","city":"YURIHONJO SHI","town":"CHOKAIMACHI FUSHIMI","perfecture_jp":"秋田県","jp_add_1":"由利本荘市","jp_add_2":"鳥海町伏見"},"0150516":{"post_code":"0150516","prefecture":"AKITA KEN","city":"YURIHONJO SHI","town":"CHOKAIMACHI MOMOYAKE","perfecture_jp":"秋田県","jp_add_1":"由利本荘市","jp_add_2":"鳥海町百宅"},"0150886":{"post_code":"0150886","prefecture":"AKITA KEN","city":"YURIHONJO SHI","town":"CHOREMBA","perfecture_jp":"秋田県","jp_add_1":"由利本荘市","jp_add_2":"調練場"},"0150323":{"post_code":"0150323","prefecture":"AKITA KEN","city":"YURIHONJO SHI","town":"TSUCHIKURA","perfecture_jp":"秋田県","jp_add_1":"由利本荘市","jp_add_2":"土倉"},"0150054":{"post_code":"0150054","prefecture":"AKITA KEN","city":"YURIHONJO SHI","town":"TSUCHIYA (YACHI)","perfecture_jp":"秋田県","jp_add_1":"由利本荘市","jp_add_2":"土谷"},"0150055":{"post_code":"0150055","prefecture":"AKITA KEN","city":"YURIHONJO SHI","town":"TSUCHIYA(SONOTA)","perfecture_jp":"秋田県","jp_add_1":"由利本荘市","jp_add_2":"土谷"},"0150866":{"post_code":"0150866","prefecture":"AKITA KEN","city":"YURIHONJO SHI","town":"TSUTSUMIWAKI","perfecture_jp":"秋田県","jp_add_1":"由利本荘市","jp_add_2":"堤脇"},"0150873":{"post_code":"0150873","prefecture":"AKITA KEN","city":"YURIHONJO SHI","town":"TSURUNUMA","perfecture_jp":"秋田県","jp_add_1":"由利本荘市","jp_add_2":"鶴沼"},"0150842":{"post_code":"0150842","prefecture":"AKITA KEN","city":"YURIHONJO SHI","town":"DETO UENO","perfecture_jp":"秋田県","jp_add_1":"由利本荘市","jp_add_2":"出戸上野"},"0150837":{"post_code":"0150837","prefecture":"AKITA KEN","city":"YURIHONJO SHI","town":"DETOMACHI(AKANUMASHITAMICHI)","perfecture_jp":"秋田県","jp_add_1":"由利本荘市","jp_add_2":"出戸町"},"0150857":{"post_code":"0150857","prefecture":"AKITA KEN","city":"YURIHONJO SHI","town":"TERAUSHIRO","perfecture_jp":"秋田県","jp_add_1":"由利本荘市","jp_add_2":"寺後"},"0150061":{"post_code":"0150061","prefecture":"AKITA KEN","city":"YURIHONJO SHI","town":"TODOROKI","perfecture_jp":"秋田県","jp_add_1":"由利本荘市","jp_add_2":"二十六木"},"0150089":{"post_code":"0150089","prefecture":"AKITA KEN","city":"YURIHONJO SHI","town":"TORITAME","perfecture_jp":"秋田県","jp_add_1":"由利本荘市","jp_add_2":"鳥田目"},"0150803":{"post_code":"0150803","prefecture":"AKITA KEN","city":"YURIHONJO SHI","town":"NAKADATEMACHI","perfecture_jp":"秋田県","jp_add_1":"由利本荘市","jp_add_2":"中竪町"},"0150851":{"post_code":"0150851","prefecture":"AKITA KEN","city":"YURIHONJO SHI","town":"NAKABONTEN","perfecture_jp":"秋田県","jp_add_1":"由利本荘市","jp_add_2":"中梵天"},"0150817":{"post_code":"0150817","prefecture":"AKITA KEN","city":"YURIHONJO SHI","town":"NAKAMACHI","perfecture_jp":"秋田県","jp_add_1":"由利本荘市","jp_add_2":"中町"},"0150807":{"post_code":"0150807","prefecture":"AKITA KEN","city":"YURIHONJO SHI","town":"NAKAYOKOMACHI","perfecture_jp":"秋田県","jp_add_1":"由利本荘市","jp_add_2":"中横町"},"0150865":{"post_code":"0150865","prefecture":"AKITA KEN","city":"YURIHONJO SHI","town":"NISHIOKUWAMACHI","perfecture_jp":"秋田県","jp_add_1":"由利本荘市","jp_add_2":"西大鍬町"},"0150882":{"post_code":"0150882","prefecture":"AKITA KEN","city":"YURIHONJO SHI","town":"NISHIKOBITOMACHI","perfecture_jp":"秋田県","jp_add_1":"由利本荘市","jp_add_2":"西小人町"},"0150352":{"post_code":"0150352","prefecture":"AKITA KEN","city":"YURIHONJO SHI","town":"NISHISAWA","perfecture_jp":"秋田県","jp_add_1":"由利本荘市","jp_add_2":"西沢"},"0150858":{"post_code":"0150858","prefecture":"AKITA KEN","city":"YURIHONJO SHI","town":"NISHIBONTEN","perfecture_jp":"秋田県","jp_add_1":"由利本荘市","jp_add_2":"西梵天"},"0150855":{"post_code":"0150855","prefecture":"AKITA KEN","city":"YURIHONJO SHI","town":"NIBANZEKI","perfecture_jp":"秋田県","jp_add_1":"由利本荘市","jp_add_2":"二番堰"},"0150877":{"post_code":"0150877","prefecture":"AKITA KEN","city":"YURIHONJO SHI","town":"NUREHAMAKITA","perfecture_jp":"秋田県","jp_add_1":"由利本荘市","jp_add_2":"濡浜北"},"0150052":{"post_code":"0150052","prefecture":"AKITA KEN","city":"YURIHONJO SHI","town":"HATAYA","perfecture_jp":"秋田県","jp_add_1":"由利本荘市","jp_add_2":"畑谷"},"0150835":{"post_code":"0150835","prefecture":"AKITA KEN","city":"YURIHONJO SHI","town":"HACHIMANSHITA","perfecture_jp":"秋田県","jp_add_1":"由利本荘市","jp_add_2":"八幡下"},"0150075":{"post_code":"0150075","prefecture":"AKITA KEN","city":"YURIHONJO SHI","town":"HANABATAMACHI","perfecture_jp":"秋田県","jp_add_1":"由利本荘市","jp_add_2":"花畑町"},"0150031":{"post_code":"0150031","prefecture":"AKITA KEN","city":"YURIHONJO SHI","town":"HAMASANKAWA","perfecture_jp":"秋田県","jp_add_1":"由利本荘市","jp_add_2":"浜三川"},"0150827":{"post_code":"0150827","prefecture":"AKITA KEN","city":"YURIHONJO SHI","town":"HAMANOMACHI","perfecture_jp":"秋田県","jp_add_1":"由利本荘市","jp_add_2":"浜ノ町"},"0150362":{"post_code":"0150362","prefecture":"AKITA KEN","city":"YURIHONJO SHI","town":"HIGASHIAYUKAWA","perfecture_jp":"秋田県","jp_add_1":"由利本荘市","jp_add_2":"東鮎川"},"0150314":{"post_code":"0150314","prefecture":"AKITA KEN","city":"YURIHONJO SHI","town":"HIGASHINAKAZAWA","perfecture_jp":"秋田県","jp_add_1":"由利本荘市","jp_add_2":"東中沢"},"0150843":{"post_code":"0150843","prefecture":"AKITA KEN","city":"YURIHONJO SHI","town":"HIGASHIBONTEN","perfecture_jp":"秋田県","jp_add_1":"由利本荘市","jp_add_2":"東梵天"},"0150076":{"post_code":"0150076","prefecture":"AKITA KEN","city":"YURIHONJO SHI","town":"HIGASHIMACHI","perfecture_jp":"秋田県","jp_add_1":"由利本荘市","jp_add_2":"東町"},"0150211":{"post_code":"0150211","prefecture":"AKITA KEN","city":"YURIHONJO SHI","town":"HIGASHIYURI OIKATA","perfecture_jp":"秋田県","jp_add_1":"由利本荘市","jp_add_2":"東由利老方"},"0150202":{"post_code":"0150202","prefecture":"AKITA KEN","city":"YURIHONJO SHI","town":"HIGASHIYURI KURA","perfecture_jp":"秋田県","jp_add_1":"由利本荘市","jp_add_2":"東由利蔵"},"0150231":{"post_code":"0150231","prefecture":"AKITA KEN","city":"YURIHONJO SHI","town":"HIGASHIYURI KUROBUCHI","perfecture_jp":"秋田県","jp_add_1":"由利本荘市","jp_add_2":"東由利黒渕"},"0150241":{"post_code":"0150241","prefecture":"AKITA KEN","city":"YURIHONJO SHI","town":"HIGASHIYURI SHUKU","perfecture_jp":"秋田県","jp_add_1":"由利本荘市","jp_add_2":"東由利宿"},"0150242":{"post_code":"0150242","prefecture":"AKITA KEN","city":"YURIHONJO SHI","town":"HIGASHIYURI SUGIMORI","perfecture_jp":"秋田県","jp_add_1":"由利本荘市","jp_add_2":"東由利杉森"},"0150232":{"post_code":"0150232","prefecture":"AKITA KEN","city":"YURIHONJO SHI","town":"HIGASHIYURI TASHIRO","perfecture_jp":"秋田県","jp_add_1":"由利本荘市","jp_add_2":"東由利田代"},"0150221":{"post_code":"0150221","prefecture":"AKITA KEN","city":"YURIHONJO SHI","town":"HIGASHIYURI TATEAI","perfecture_jp":"秋田県","jp_add_1":"由利本荘市","jp_add_2":"東由利舘合"},"0150201":{"post_code":"0150201","prefecture":"AKITA KEN","city":"YURIHONJO SHI","town":"HIGASHIYURI HONAI","perfecture_jp":"秋田県","jp_add_1":"由利本荘市","jp_add_2":"東由利法内"},"0150813":{"post_code":"0150813","prefecture":"AKITA KEN","city":"YURIHONJO SHI","town":"HIKIJIMACHI","perfecture_jp":"秋田県","jp_add_1":"由利本荘市","jp_add_2":"日役町"},"0150353":{"post_code":"0150353","prefecture":"AKITA KEN","city":"YURIHONJO SHI","town":"HIRAISHI","perfecture_jp":"秋田県","jp_add_1":"由利本荘市","jp_add_2":"平石"},"0150053":{"post_code":"0150053","prefecture":"AKITA KEN","city":"YURIHONJO SHI","town":"FUKUYAMA","perfecture_jp":"秋田県","jp_add_1":"由利本荘市","jp_add_2":"福山"},"0150047":{"post_code":"0150047","prefecture":"AKITA KEN","city":"YURIHONJO SHI","town":"FUJISAKI","perfecture_jp":"秋田県","jp_add_1":"由利本荘市","jp_add_2":"藤崎"},"0150046":{"post_code":"0150046","prefecture":"AKITA KEN","city":"YURIHONJO SHI","town":"FUNAOKA","perfecture_jp":"秋田県","jp_add_1":"由利本荘市","jp_add_2":"船岡"},"0150890":{"post_code":"0150890","prefecture":"AKITA KEN","city":"YURIHONJO SHI","town":"FUNAGADAI","perfecture_jp":"秋田県","jp_add_1":"由利本荘市","jp_add_2":"船ケ台"},"0150863":{"post_code":"0150863","prefecture":"AKITA KEN","city":"YURIHONJO SHI","town":"FUMODORISAWA","perfecture_jp":"秋田県","jp_add_1":"由利本荘市","jp_add_2":"不戻沢"},"0150839":{"post_code":"0150839","prefecture":"AKITA KEN","city":"YURIHONJO SHI","town":"FURUKAWABATA","perfecture_jp":"秋田県","jp_add_1":"由利本荘市","jp_add_2":"古川端"},"0150824":{"post_code":"0150824","prefecture":"AKITA KEN","city":"YURIHONJO SHI","town":"FURUYUKIMACHI","perfecture_jp":"秋田県","jp_add_1":"由利本荘市","jp_add_2":"古雪町"},"0150809":{"post_code":"0150809","prefecture":"AKITA KEN","city":"YURIHONJO SHI","town":"HONJO","perfecture_jp":"秋田県","jp_add_1":"由利本荘市","jp_add_2":"本荘"},"0150077":{"post_code":"0150077","prefecture":"AKITA KEN","city":"YURIHONJO SHI","town":"HONTANAKAMACHI","perfecture_jp":"秋田県","jp_add_1":"由利本荘市","jp_add_2":"本田仲町"},"0150838":{"post_code":"0150838","prefecture":"AKITA KEN","city":"YURIHONJO SHI","town":"BONTENYACHI","perfecture_jp":"秋田県","jp_add_1":"由利本荘市","jp_add_2":"梵天谷地"},"0150341":{"post_code":"0150341","prefecture":"AKITA KEN","city":"YURIHONJO SHI","town":"MAEGO","perfecture_jp":"秋田県","jp_add_1":"由利本荘市","jp_add_2":"前郷"},"0150304":{"post_code":"0150304","prefecture":"AKITA KEN","city":"YURIHONJO SHI","town":"MAGARISAWA","perfecture_jp":"秋田県","jp_add_1":"由利本荘市","jp_add_2":"曲沢"},"0150363":{"post_code":"0150363","prefecture":"AKITA KEN","city":"YURIHONJO SHI","town":"MACHIMURA","perfecture_jp":"秋田県","jp_add_1":"由利本荘市","jp_add_2":"町村"},"0150853":{"post_code":"0150853","prefecture":"AKITA KEN","city":"YURIHONJO SHI","town":"MATSUKAIDO","perfecture_jp":"秋田県","jp_add_1":"由利本荘市","jp_add_2":"松街道"},"0150032":{"post_code":"0150032","prefecture":"AKITA KEN","city":"YURIHONJO SHI","town":"MATSUGASAKI","perfecture_jp":"秋田県","jp_add_1":"由利本荘市","jp_add_2":"松ケ崎"},"0150064":{"post_code":"0150064","prefecture":"AKITA KEN","city":"YURIHONJO SHI","town":"MANGANJI","perfecture_jp":"秋田県","jp_add_1":"由利本荘市","jp_add_2":"万願寺"},"0150801":{"post_code":"0150801","prefecture":"AKITA KEN","city":"YURIHONJO SHI","town":"MIKURAMACHI","perfecture_jp":"秋田県","jp_add_1":"由利本荘市","jp_add_2":"美倉町"},"0150885":{"post_code":"0150885","prefecture":"AKITA KEN","city":"YURIHONJO SHI","town":"MIZUBAYASHI","perfecture_jp":"秋田県","jp_add_1":"由利本荘市","jp_add_2":"水林"},"0150068":{"post_code":"0150068","prefecture":"AKITA KEN","city":"YURIHONJO SHI","town":"MINAMINOMATA","perfecture_jp":"秋田県","jp_add_1":"由利本荘市","jp_add_2":"南ノ股"},"0150364":{"post_code":"0150364","prefecture":"AKITA KEN","city":"YURIHONJO SHI","town":"MINAMIFUKUDA","perfecture_jp":"秋田県","jp_add_1":"由利本荘市","jp_add_2":"南福田"},"0150043":{"post_code":"0150043","prefecture":"AKITA KEN","city":"YURIHONJO SHI","town":"MIYAUCHI","perfecture_jp":"秋田県","jp_add_1":"由利本荘市","jp_add_2":"宮内"},"0150082":{"post_code":"0150082","prefecture":"AKITA KEN","city":"YURIHONJO SHI","town":"MIYAZAWA","perfecture_jp":"秋田県","jp_add_1":"由利本荘市","jp_add_2":"宮沢"},"0150332":{"post_code":"0150332","prefecture":"AKITA KEN","city":"YURIHONJO SHI","town":"MORIKO","perfecture_jp":"秋田県","jp_add_1":"由利本荘市","jp_add_2":"森子"},"0150088":{"post_code":"0150088","prefecture":"AKITA KEN","city":"YURIHONJO SHI","town":"YAGYU","perfecture_jp":"秋田県","jp_add_1":"由利本荘市","jp_add_2":"柳生"},"0150041":{"post_code":"0150041","prefecture":"AKITA KEN","city":"YURIHONJO SHI","town":"YAKUSHIDO","perfecture_jp":"秋田県","jp_add_1":"由利本荘市","jp_add_2":"薬師堂"},"0150418":{"post_code":"0150418","prefecture":"AKITA KEN","city":"YURIHONJO SHI","town":"YASHIMAMACHI ARASAWA","perfecture_jp":"秋田県","jp_add_1":"由利本荘市","jp_add_2":"矢島町荒沢"},"0150412":{"post_code":"0150412","prefecture":"AKITA KEN","city":"YURIHONJO SHI","town":"YASHIMAMACHI KAWABE","perfecture_jp":"秋田県","jp_add_1":"由利本荘市","jp_add_2":"矢島町川辺"},"0150413":{"post_code":"0150413","prefecture":"AKITA KEN","city":"YURIHONJO SHI","town":"YASHIMAMACHI KISARA","perfecture_jp":"秋田県","jp_add_1":"由利本荘市","jp_add_2":"矢島町木在"},"0150416":{"post_code":"0150416","prefecture":"AKITA KEN","city":"YURIHONJO SHI","town":"YASHIMAMACHI SAKANOSHITA","perfecture_jp":"秋田県","jp_add_1":"由利本荘市","jp_add_2":"矢島町坂之下"},"0150411":{"post_code":"0150411","prefecture":"AKITA KEN","city":"YURIHONJO SHI","town":"YASHIMAMACHI JONAI","perfecture_jp":"秋田県","jp_add_1":"由利本荘市","jp_add_2":"矢島町城内"},"0150415":{"post_code":"0150415","prefecture":"AKITA KEN","city":"YURIHONJO SHI","town":"YASHIMAMACHI SHINJO","perfecture_jp":"秋田県","jp_add_1":"由利本荘市","jp_add_2":"矢島町新荘"},"0150414":{"post_code":"0150414","prefecture":"AKITA KEN","city":"YURIHONJO SHI","town":"YASHIMAMACHI TATEISHI","perfecture_jp":"秋田県","jp_add_1":"由利本荘市","jp_add_2":"矢島町立石"},"0150403":{"post_code":"0150403","prefecture":"AKITA KEN","city":"YURIHONJO SHI","town":"YASHIMAMACHI TATEMACHI","perfecture_jp":"秋田県","jp_add_1":"由利本荘市","jp_add_2":"矢島町舘町"},"0150401":{"post_code":"0150401","prefecture":"AKITA KEN","city":"YURIHONJO SHI","town":"YASHIMAMACHI TANAKAMACHI","perfecture_jp":"秋田県","jp_add_1":"由利本荘市","jp_add_2":"矢島町田中町"},"0150404":{"post_code":"0150404","prefecture":"AKITA KEN","city":"YURIHONJO SHI","town":"YASHIMAMACHI NANOKAMACHI","perfecture_jp":"秋田県","jp_add_1":"由利本荘市","jp_add_2":"矢島町七日町"},"0150417":{"post_code":"0150417","prefecture":"AKITA KEN","city":"YURIHONJO SHI","town":"YASHIMAMACHI MOTOMACHI","perfecture_jp":"秋田県","jp_add_1":"由利本荘市","jp_add_2":"矢島町元町"},"0150402":{"post_code":"0150402","prefecture":"AKITA KEN","city":"YURIHONJO SHI","town":"YASHIMAMACHI YASHIMAMACHI","perfecture_jp":"秋田県","jp_add_1":"由利本荘市","jp_add_2":"矢島町矢島町"},"0150078":{"post_code":"0150078","prefecture":"AKITA KEN","city":"YURIHONJO SHI","town":"YACHIMACHI","perfecture_jp":"秋田県","jp_add_1":"由利本荘市","jp_add_2":"谷地町"},"0150243":{"post_code":"0150243","prefecture":"AKITA KEN","city":"YURIHONJO SHI","town":"YAMAUCHI (MITSUKATAMORI)","perfecture_jp":"秋田県","jp_add_1":"由利本荘市","jp_add_2":"山内"},"0150092":{"post_code":"0150092","prefecture":"AKITA KEN","city":"YURIHONJO SHI","town":"YAMAUCHI(SONOTA)","perfecture_jp":"秋田県","jp_add_1":"由利本荘市","jp_add_2":"山内"},"0150025":{"post_code":"0150025","prefecture":"AKITA KEN","city":"YURIHONJO SHI","town":"YAMADA","perfecture_jp":"秋田県","jp_add_1":"由利本荘市","jp_add_2":"山田"},"0150333":{"post_code":"0150333","prefecture":"AKITA KEN","city":"YURIHONJO SHI","town":"YAMAMOTO","perfecture_jp":"秋田県","jp_add_1":"由利本荘市","jp_add_2":"山本"},"0150087":{"post_code":"0150087","prefecture":"AKITA KEN","city":"YURIHONJO SHI","town":"YUZAWA","perfecture_jp":"秋田県","jp_add_1":"由利本荘市","jp_add_2":"湯沢"},"0150324":{"post_code":"0150324","prefecture":"AKITA KEN","city":"YURIHONJO SHI","town":"YOSHIZAWA","perfecture_jp":"秋田県","jp_add_1":"由利本荘市","jp_add_2":"吉沢"},"0150815":{"post_code":"0150815","prefecture":"AKITA KEN","city":"YURIHONJO SHI","town":"RYOSHIMACHI","perfecture_jp":"秋田県","jp_add_1":"由利本荘市","jp_add_2":"猟師町"}}