{"0160000":{"post_code":"0160000","prefecture":"AKITA KEN","city":"NOSHIRO SHI","town":"IKANIKEISAIGANAIBAAI","perfecture_jp":"秋田県","jp_add_1":"能代市","jp_add_2":""},"0160865":{"post_code":"0160865","prefecture":"AKITA KEN","city":"NOSHIRO SHI","town":"AOBAMACHI","perfecture_jp":"秋田県","jp_add_1":"能代市","jp_add_2":"青葉町"},"0160835":{"post_code":"0160835","prefecture":"AKITA KEN","city":"NOSHIRO SHI","town":"AKANUMA","perfecture_jp":"秋田県","jp_add_1":"能代市","jp_add_2":"赤沼"},"0160115":{"post_code":"0160115","prefecture":"AKITA KEN","city":"NOSHIRO SHI","town":"AKUDO","perfecture_jp":"秋田県","jp_add_1":"能代市","jp_add_2":"悪戸"},"0160179":{"post_code":"0160179","prefecture":"AKITA KEN","city":"NOSHIRO SHI","town":"ASANAI","perfecture_jp":"秋田県","jp_add_1":"能代市","jp_add_2":"浅内"},"0160804":{"post_code":"0160804","prefecture":"AKITA KEN","city":"NOSHIRO SHI","town":"ARAMACHI","perfecture_jp":"秋田県","jp_add_1":"能代市","jp_add_2":"万町"},"0160102":{"post_code":"0160102","prefecture":"AKITA KEN","city":"NOSHIRO SHI","town":"IPPONGI","perfecture_jp":"秋田県","jp_add_1":"能代市","jp_add_2":"一本木"},"0160017":{"post_code":"0160017","prefecture":"AKITA KEN","city":"NOSHIRO SHI","town":"IWAO","perfecture_jp":"秋田県","jp_add_1":"能代市","jp_add_2":"磐"},"0160143":{"post_code":"0160143","prefecture":"AKITA KEN","city":"NOSHIRO SHI","town":"UENOYAMA","perfecture_jp":"秋田県","jp_add_1":"能代市","jp_add_2":"上ノ山"},"0160144":{"post_code":"0160144","prefecture":"AKITA KEN","city":"NOSHIRO SHI","town":"UENOYAMADAI","perfecture_jp":"秋田県","jp_add_1":"能代市","jp_add_2":"上ノ山台"},"0160863":{"post_code":"0160863","prefecture":"AKITA KEN","city":"NOSHIRO SHI","town":"USHIROYACHI","perfecture_jp":"秋田県","jp_add_1":"能代市","jp_add_2":"後谷地"},"0160136":{"post_code":"0160136","prefecture":"AKITA KEN","city":"NOSHIRO SHI","town":"UTORI","perfecture_jp":"秋田県","jp_add_1":"能代市","jp_add_2":"鵜鳥"},"0160137":{"post_code":"0160137","prefecture":"AKITA KEN","city":"NOSHIRO SHI","town":"UDORI AKUDO","perfecture_jp":"秋田県","jp_add_1":"能代市","jp_add_2":"鵜鳥悪戸"},"0160138":{"post_code":"0160138","prefecture":"AKITA KEN","city":"NOSHIRO SHI","town":"UDORI GAWARA","perfecture_jp":"秋田県","jp_add_1":"能代市","jp_add_2":"鵜鳥川原"},"0160141":{"post_code":"0160141","prefecture":"AKITA KEN","city":"NOSHIRO SHI","town":"UNOSAWA","perfecture_jp":"秋田県","jp_add_1":"能代市","jp_add_2":"鵜ノ沢"},"0160135":{"post_code":"0160135","prefecture":"AKITA KEN","city":"NOSHIRO SHI","town":"UBAFUTOKORO","perfecture_jp":"秋田県","jp_add_1":"能代市","jp_add_2":"姥懐"},"0160842":{"post_code":"0160842","prefecture":"AKITA KEN","city":"NOSHIRO SHI","town":"OIWAKEMACHI","perfecture_jp":"秋田県","jp_add_1":"能代市","jp_add_2":"追分町"},"0160122":{"post_code":"0160122","prefecture":"AKITA KEN","city":"NOSHIRO SHI","town":"OGIDA","perfecture_jp":"秋田県","jp_add_1":"能代市","jp_add_2":"扇田"},"0160162":{"post_code":"0160162","prefecture":"AKITA KEN","city":"NOSHIRO SHI","town":"OUCHIDA","perfecture_jp":"秋田県","jp_add_1":"能代市","jp_add_2":"大内田"},"0160181":{"post_code":"0160181","prefecture":"AKITA KEN","city":"NOSHIRO SHI","town":"OSEMAMASHITA","perfecture_jp":"秋田県","jp_add_1":"能代市","jp_add_2":"大瀬儘下"},"0160164":{"post_code":"0160164","prefecture":"AKITA KEN","city":"NOSHIRO SHI","town":"OTSUKA","perfecture_jp":"秋田県","jp_add_1":"能代市","jp_add_2":"大塚"},"0160805":{"post_code":"0160805","prefecture":"AKITA KEN","city":"NOSHIRO SHI","town":"OTEMACHI","perfecture_jp":"秋田県","jp_add_1":"能代市","jp_add_2":"大手町"},"0160803":{"post_code":"0160803","prefecture":"AKITA KEN","city":"NOSHIRO SHI","town":"OMACHI","perfecture_jp":"秋田県","jp_add_1":"能代市","jp_add_2":"大町"},"0160155":{"post_code":"0160155","prefecture":"AKITA KEN","city":"NOSHIRO SHI","town":"OMORI","perfecture_jp":"秋田県","jp_add_1":"能代市","jp_add_2":"大森"},"0160807":{"post_code":"0160807","prefecture":"AKITA KEN","city":"NOSHIRO SHI","town":"OMORIYAMA","perfecture_jp":"秋田県","jp_add_1":"能代市","jp_add_2":"大森山"},"0160014":{"post_code":"0160014","prefecture":"AKITA KEN","city":"NOSHIRO SHI","town":"OCHIAI","perfecture_jp":"秋田県","jp_add_1":"能代市","jp_add_2":"落合"},"0160884":{"post_code":"0160884","prefecture":"AKITA KEN","city":"NOSHIRO SHI","town":"OROSHIMACHI","perfecture_jp":"秋田県","jp_add_1":"能代市","jp_add_2":"卸町"},"0160876":{"post_code":"0160876","prefecture":"AKITA KEN","city":"NOSHIRO SHI","town":"KAIEIZAKA","perfecture_jp":"秋田県","jp_add_1":"能代市","jp_add_2":"海詠坂"},"0160121":{"post_code":"0160121","prefecture":"AKITA KEN","city":"NOSHIRO SHI","town":"KAIRAGEFUCHI","perfecture_jp":"秋田県","jp_add_1":"能代市","jp_add_2":"鰄渕"},"0160166":{"post_code":"0160166","prefecture":"AKITA KEN","city":"NOSHIRO SHI","town":"KASHIKODOKORO","perfecture_jp":"秋田県","jp_add_1":"能代市","jp_add_2":"柏子所"},"0160153":{"post_code":"0160153","prefecture":"AKITA KEN","city":"NOSHIRO SHI","town":"KAMISEKI","perfecture_jp":"秋田県","jp_add_1":"能代市","jp_add_2":"上関"},"0160172":{"post_code":"0160172","prefecture":"AKITA KEN","city":"NOSHIRO SHI","town":"KAMIFURUKAWASHIKI","perfecture_jp":"秋田県","jp_add_1":"能代市","jp_add_2":"上古川布"},"0160154":{"post_code":"0160154","prefecture":"AKITA KEN","city":"NOSHIRO SHI","town":"KAMIYACHI","perfecture_jp":"秋田県","jp_add_1":"能代市","jp_add_2":"上谷地"},"0160182":{"post_code":"0160182","prefecture":"AKITA KEN","city":"NOSHIRO SHI","town":"KAMIYANAGI","perfecture_jp":"秋田県","jp_add_1":"能代市","jp_add_2":"上柳"},"0160878":{"post_code":"0160878","prefecture":"AKITA KEN","city":"NOSHIRO SHI","town":"GARYUZAN","perfecture_jp":"秋田県","jp_add_1":"能代市","jp_add_2":"臥竜山"},"0160171":{"post_code":"0160171","prefecture":"AKITA KEN","city":"NOSHIRO SHI","town":"KAWATOGAWA","perfecture_jp":"秋田県","jp_add_1":"能代市","jp_add_2":"河戸川"},"0160802":{"post_code":"0160802","prefecture":"AKITA KEN","city":"NOSHIRO SHI","town":"KAWABATAMACHI","perfecture_jp":"秋田県","jp_add_1":"能代市","jp_add_2":"川反町"},"0160817":{"post_code":"0160817","prefecture":"AKITA KEN","city":"NOSHIRO SHI","town":"KAMMACHI","perfecture_jp":"秋田県","jp_add_1":"能代市","jp_add_2":"上町"},"0160178":{"post_code":"0160178","prefecture":"AKITA KEN","city":"NOSHIRO SHI","town":"KUROZAEMONSASADAI","perfecture_jp":"秋田県","jp_add_1":"能代市","jp_add_2":"九郎左衛門笹台"},"0160892":{"post_code":"0160892","prefecture":"AKITA KEN","city":"NOSHIRO SHI","town":"KEIRIMMACHI","perfecture_jp":"秋田県","jp_add_1":"能代市","jp_add_2":"景林町"},"0160834":{"post_code":"0160834","prefecture":"AKITA KEN","city":"NOSHIRO SHI","town":"GENAIZAKI","perfecture_jp":"秋田県","jp_add_1":"能代市","jp_add_2":"下内崎"},"0160883":{"post_code":"0160883","prefecture":"AKITA KEN","city":"NOSHIRO SHI","town":"GONDAI","perfecture_jp":"秋田県","jp_add_1":"能代市","jp_add_2":"五雲岱"},"0160815":{"post_code":"0160815","prefecture":"AKITA KEN","city":"NOSHIRO SHI","town":"GOSHINAMMACHI","perfecture_jp":"秋田県","jp_add_1":"能代市","jp_add_2":"御指南町"},"0160177":{"post_code":"0160177","prefecture":"AKITA KEN","city":"NOSHIRO SHI","town":"GONGENDAI","perfecture_jp":"秋田県","jp_add_1":"能代市","jp_add_2":"権現台"},"0160861":{"post_code":"0160861","prefecture":"AKITA KEN","city":"NOSHIRO SHI","town":"SAIKANAGANE","perfecture_jp":"秋田県","jp_add_1":"能代市","jp_add_2":"彩霞長根"},"0160846":{"post_code":"0160846","prefecture":"AKITA KEN","city":"NOSHIRO SHI","town":"SAKAEMACHI","perfecture_jp":"秋田県","jp_add_1":"能代市","jp_add_2":"栄町"},"0160011":{"post_code":"0160011","prefecture":"AKITA KEN","city":"NOSHIRO SHI","town":"SAKAGATA","perfecture_jp":"秋田県","jp_add_1":"能代市","jp_add_2":"坂形"},"0160167":{"post_code":"0160167","prefecture":"AKITA KEN","city":"NOSHIRO SHI","town":"SHIOKARADAMAE","perfecture_jp":"秋田県","jp_add_1":"能代市","jp_add_2":"塩干田"},"0160168":{"post_code":"0160168","prefecture":"AKITA KEN","city":"NOSHIRO SHI","town":"JISSHUZAKI","perfecture_jp":"秋田県","jp_add_1":"能代市","jp_add_2":"十洲崎"},"0160872":{"post_code":"0160872","prefecture":"AKITA KEN","city":"NOSHIRO SHI","town":"SHIDOMORI","perfecture_jp":"秋田県","jp_add_1":"能代市","jp_add_2":"芝童森"},"0160113":{"post_code":"0160113","prefecture":"AKITA KEN","city":"NOSHIRO SHI","town":"SHIMOAKUDO","perfecture_jp":"秋田県","jp_add_1":"能代市","jp_add_2":"下悪戸"},"0160185":{"post_code":"0160185","prefecture":"AKITA KEN","city":"NOSHIRO SHI","town":"SHIMOSE","perfecture_jp":"秋田県","jp_add_1":"能代市","jp_add_2":"下瀬"},"0160104":{"post_code":"0160104","prefecture":"AKITA KEN","city":"NOSHIRO SHI","town":"SHIMOSEKI","perfecture_jp":"秋田県","jp_add_1":"能代市","jp_add_2":"下関"},"0160186":{"post_code":"0160186","prefecture":"AKITA KEN","city":"NOSHIRO SHI","town":"SHIMONO","perfecture_jp":"秋田県","jp_add_1":"能代市","jp_add_2":"下野"},"0160173":{"post_code":"0160173","prefecture":"AKITA KEN","city":"NOSHIRO SHI","town":"SHIMOFURUKAWASHIKI","perfecture_jp":"秋田県","jp_add_1":"能代市","jp_add_2":"下古川布"},"0160187":{"post_code":"0160187","prefecture":"AKITA KEN","city":"NOSHIRO SHI","town":"SHIMOYANAGI","perfecture_jp":"秋田県","jp_add_1":"能代市","jp_add_2":"下柳"},"0160862":{"post_code":"0160862","prefecture":"AKITA KEN","city":"NOSHIRO SHI","town":"JUIKINAGANE","perfecture_jp":"秋田県","jp_add_1":"能代市","jp_add_2":"寿域長根"},"0160897":{"post_code":"0160897","prefecture":"AKITA KEN","city":"NOSHIRO SHI","town":"SHONAMMACHI","perfecture_jp":"秋田県","jp_add_1":"能代市","jp_add_2":"昭南町"},"0160871":{"post_code":"0160871","prefecture":"AKITA KEN","city":"NOSHIRO SHI","town":"SHOHEIDAI","perfecture_jp":"秋田県","jp_add_1":"能代市","jp_add_2":"昇平岱"},"0160174":{"post_code":"0160174","prefecture":"AKITA KEN","city":"NOSHIRO SHI","town":"SHINZAMMAE","perfecture_jp":"秋田県","jp_add_1":"能代市","jp_add_2":"新山前"},"0160895":{"post_code":"0160895","prefecture":"AKITA KEN","city":"NOSHIRO SHI","town":"SUEHIROMACHI","perfecture_jp":"秋田県","jp_add_1":"能代市","jp_add_2":"末広町"},"0160015":{"post_code":"0160015","prefecture":"AKITA KEN","city":"NOSHIRO SHI","town":"SUDA","perfecture_jp":"秋田県","jp_add_1":"能代市","jp_add_2":"須田"},"0160881":{"post_code":"0160881","prefecture":"AKITA KEN","city":"NOSHIRO SHI","town":"SUNADOMEYAMA","perfecture_jp":"秋田県","jp_add_1":"能代市","jp_add_2":"砂留山"},"0160824":{"post_code":"0160824","prefecture":"AKITA KEN","city":"NOSHIRO SHI","town":"SUMIYOSHIMACHI","perfecture_jp":"秋田県","jp_add_1":"能代市","jp_add_2":"住吉町"},"0160806":{"post_code":"0160806","prefecture":"AKITA KEN","city":"NOSHIRO SHI","town":"SEISUKEMACHI","perfecture_jp":"秋田県","jp_add_1":"能代市","jp_add_2":"清助町"},"0160877":{"post_code":"0160877","prefecture":"AKITA KEN","city":"NOSHIRO SHI","town":"SENYUNAGANE","perfecture_jp":"秋田県","jp_add_1":"能代市","jp_add_2":"仙遊長根"},"0160163":{"post_code":"0160163","prefecture":"AKITA KEN","city":"NOSHIRO SHI","town":"SODEMATA","perfecture_jp":"秋田県","jp_add_1":"能代市","jp_add_2":"袖又"},"0160001":{"post_code":"0160001","prefecture":"AKITA KEN","city":"NOSHIRO SHI","town":"SOTOARAMAKI","perfecture_jp":"秋田県","jp_add_1":"能代市","jp_add_2":"外荒巻"},"0160146":{"post_code":"0160146","prefecture":"AKITA KEN","city":"NOSHIRO SHI","town":"SOTOTSUTSUMI","perfecture_jp":"秋田県","jp_add_1":"能代市","jp_add_2":"外堤"},"0160184":{"post_code":"0160184","prefecture":"AKITA KEN","city":"NOSHIRO SHI","town":"TAKAHANA","perfecture_jp":"秋田県","jp_add_1":"能代市","jp_add_2":"高塙"},"0160016":{"post_code":"0160016","prefecture":"AKITA KEN","city":"NOSHIRO SHI","town":"TAKO","perfecture_jp":"秋田県","jp_add_1":"能代市","jp_add_2":"竹生"},"0160857":{"post_code":"0160857","prefecture":"AKITA KEN","city":"NOSHIRO SHI","town":"TAKOMUKAI","perfecture_jp":"秋田県","jp_add_1":"能代市","jp_add_2":"田子向"},"0160123":{"post_code":"0160123","prefecture":"AKITA KEN","city":"NOSHIRO SHI","town":"TADOKONAI","perfecture_jp":"秋田県","jp_add_1":"能代市","jp_add_2":"田床内"},"0160149":{"post_code":"0160149","prefecture":"AKITA KEN","city":"NOSHIRO SHI","town":"TANAKAYACHI","perfecture_jp":"秋田県","jp_add_1":"能代市","jp_add_2":"田中谷地"},"0160165":{"post_code":"0160165","prefecture":"AKITA KEN","city":"NOSHIRO SHI","town":"TAYA","perfecture_jp":"秋田県","jp_add_1":"能代市","jp_add_2":"田屋"},"0160843":{"post_code":"0160843","prefecture":"AKITA KEN","city":"NOSHIRO SHI","town":"CHUWA","perfecture_jp":"秋田県","jp_add_1":"能代市","jp_add_2":"中和"},"0160131":{"post_code":"0160131","prefecture":"AKITA KEN","city":"NOSHIRO SHI","town":"TSURUGATA","perfecture_jp":"秋田県","jp_add_1":"能代市","jp_add_2":"鶴形"},"0160853":{"post_code":"0160853","prefecture":"AKITA KEN","city":"NOSHIRO SHI","town":"DETO USHIRO","perfecture_jp":"秋田県","jp_add_1":"能代市","jp_add_2":"出戸後"},"0160852":{"post_code":"0160852","prefecture":"AKITA KEN","city":"NOSHIRO SHI","town":"DETO HOMMACHI","perfecture_jp":"秋田県","jp_add_1":"能代市","jp_add_2":"出戸本町"},"0160188":{"post_code":"0160188","prefecture":"AKITA KEN","city":"NOSHIRO SHI","town":"TERAMUKAI","perfecture_jp":"秋田県","jp_add_1":"能代市","jp_add_2":"寺向"},"0160845":{"post_code":"0160845","prefecture":"AKITA KEN","city":"NOSHIRO SHI","town":"TORIMACHI","perfecture_jp":"秋田県","jp_add_1":"能代市","jp_add_2":"通町"},"0160176":{"post_code":"0160176","prefecture":"AKITA KEN","city":"NOSHIRO SHI","town":"TOGAWAMUKAI","perfecture_jp":"秋田県","jp_add_1":"能代市","jp_add_2":"戸川向"},"0160134":{"post_code":"0160134","prefecture":"AKITA KEN","city":"NOSHIRO SHI","town":"TOKUSAZAWA","perfecture_jp":"秋田県","jp_add_1":"能代市","jp_add_2":"戸草沢"},"0160816":{"post_code":"0160816","prefecture":"AKITA KEN","city":"NOSHIRO SHI","town":"TOMIMACHI","perfecture_jp":"秋田県","jp_add_1":"能代市","jp_add_2":"富町"},"0160147":{"post_code":"0160147","prefecture":"AKITA KEN","city":"NOSHIRO SHI","town":"TOYABA","perfecture_jp":"秋田県","jp_add_1":"能代市","jp_add_2":"鳥矢場"},"0160864":{"post_code":"0160864","prefecture":"AKITA KEN","city":"NOSHIRO SHI","town":"TORIGOYA","perfecture_jp":"秋田県","jp_add_1":"能代市","jp_add_2":"鳥小屋"},"0160114":{"post_code":"0160114","prefecture":"AKITA KEN","city":"NOSHIRO SHI","town":"NAKAAKUDO","perfecture_jp":"秋田県","jp_add_1":"能代市","jp_add_2":"中悪戸"},"0160814":{"post_code":"0160814","prefecture":"AKITA KEN","city":"NOSHIRO SHI","town":"NAKAGAWARA","perfecture_jp":"秋田県","jp_add_1":"能代市","jp_add_2":"中川原"},"0160156":{"post_code":"0160156","prefecture":"AKITA KEN","city":"NOSHIRO SHI","town":"NAKAZAWA","perfecture_jp":"秋田県","jp_add_1":"能代市","jp_add_2":"中沢"},"0160812":{"post_code":"0160812","prefecture":"AKITA KEN","city":"NOSHIRO SHI","town":"NAKAJIMA(1-97-116)","perfecture_jp":"秋田県","jp_add_1":"能代市","jp_add_2":"中嶋"},"0160112":{"post_code":"0160112","prefecture":"AKITA KEN","city":"NOSHIRO SHI","town":"NAKAJIMA(SONOTA)","perfecture_jp":"秋田県","jp_add_1":"能代市","jp_add_2":"中嶋"},"0160101":{"post_code":"0160101","prefecture":"AKITA KEN","city":"NOSHIRO SHI","town":"NAKASEKI","perfecture_jp":"秋田県","jp_add_1":"能代市","jp_add_2":"中関"},"0160183":{"post_code":"0160183","prefecture":"AKITA KEN","city":"NOSHIRO SHI","town":"NAKAYANAGI","perfecture_jp":"秋田県","jp_add_1":"能代市","jp_add_2":"中柳"},"0160873":{"post_code":"0160873","prefecture":"AKITA KEN","city":"NOSHIRO SHI","town":"NAGASAKI","perfecture_jp":"秋田県","jp_add_1":"能代市","jp_add_2":"長崎"},"0160875":{"post_code":"0160875","prefecture":"AKITA KEN","city":"NOSHIRO SHI","town":"NANYOZAKI","perfecture_jp":"秋田県","jp_add_1":"能代市","jp_add_2":"南陽崎"},"0160111":{"post_code":"0160111","prefecture":"AKITA KEN","city":"NOSHIRO SHI","town":"NIIDASHIROYAMA","perfecture_jp":"秋田県","jp_add_1":"能代市","jp_add_2":"仁井田白山"},"0160837":{"post_code":"0160837","prefecture":"AKITA KEN","city":"NOSHIRO SHI","town":"NISHIAKANUMA","perfecture_jp":"秋田県","jp_add_1":"能代市","jp_add_2":"西赤沼"},"0160855":{"post_code":"0160855","prefecture":"AKITA KEN","city":"NOSHIRO SHI","town":"NISHIOSE","perfecture_jp":"秋田県","jp_add_1":"能代市","jp_add_2":"西大瀬"},"0160891":{"post_code":"0160891","prefecture":"AKITA KEN","city":"NOSHIRO SHI","town":"NISHIDORIMACHI","perfecture_jp":"秋田県","jp_add_1":"能代市","jp_add_2":"西通町"},"0160003":{"post_code":"0160003","prefecture":"AKITA KEN","city":"NOSHIRO SHI","town":"NIHATA","perfecture_jp":"秋田県","jp_add_1":"能代市","jp_add_2":"荷八田"},"0160874":{"post_code":"0160874","prefecture":"AKITA KEN","city":"NOSHIRO SHI","town":"NUMANOE","perfecture_jp":"秋田県","jp_add_1":"能代市","jp_add_2":"沼ノ上"},"0160813":{"post_code":"0160813","prefecture":"AKITA KEN","city":"NOSHIRO SHI","town":"NOSHIROMACHI","perfecture_jp":"秋田県","jp_add_1":"能代市","jp_add_2":"能代町"},"0160894":{"post_code":"0160894","prefecture":"AKITA KEN","city":"NOSHIRO SHI","town":"HAGINODAI","perfecture_jp":"秋田県","jp_add_1":"能代市","jp_add_2":"萩の台"},"0160116":{"post_code":"0160116","prefecture":"AKITA KEN","city":"NOSHIRO SHI","town":"HATAORISORINOME","perfecture_jp":"秋田県","jp_add_1":"能代市","jp_add_2":"機織轌ノ目"},"0160821":{"post_code":"0160821","prefecture":"AKITA KEN","city":"NOSHIRO SHI","town":"HATAMACHI","perfecture_jp":"秋田県","jp_add_1":"能代市","jp_add_2":"畠町"},"0160844":{"post_code":"0160844","prefecture":"AKITA KEN","city":"NOSHIRO SHI","town":"HANAZONOMACHI","perfecture_jp":"秋田県","jp_add_1":"能代市","jp_add_2":"花園町"},"0160801":{"post_code":"0160801","prefecture":"AKITA KEN","city":"NOSHIRO SHI","town":"HAMADORIMACHI","perfecture_jp":"秋田県","jp_add_1":"能代市","jp_add_2":"浜通町"},"0160157":{"post_code":"0160157","prefecture":"AKITA KEN","city":"NOSHIRO SHI","town":"HARAGAINOSAWA","perfecture_jp":"秋田県","jp_add_1":"能代市","jp_add_2":"腹鞁ノ沢"},"0160142":{"post_code":"0160142","prefecture":"AKITA KEN","city":"NOSHIRO SHI","town":"HANTOZAWA","perfecture_jp":"秋田県","jp_add_1":"能代市","jp_add_2":"半戸沢"},"0160896":{"post_code":"0160896","prefecture":"AKITA KEN","city":"NOSHIRO SHI","town":"HANNYAMACHI","perfecture_jp":"秋田県","jp_add_1":"能代市","jp_add_2":"盤若町"},"0160836":{"post_code":"0160836","prefecture":"AKITA KEN","city":"NOSHIRO SHI","town":"HIGASHIAKANUMA","perfecture_jp":"秋田県","jp_add_1":"能代市","jp_add_2":"東赤沼"},"0160839":{"post_code":"0160839","prefecture":"AKITA KEN","city":"NOSHIRO SHI","town":"HIGASHIOSE","perfecture_jp":"秋田県","jp_add_1":"能代市","jp_add_2":"東大瀬"},"0160822":{"post_code":"0160822","prefecture":"AKITA KEN","city":"NOSHIRO SHI","town":"HIGASHIMACHI","perfecture_jp":"秋田県","jp_add_1":"能代市","jp_add_2":"東町"},"0160012":{"post_code":"0160012","prefecture":"AKITA KEN","city":"NOSHIRO SHI","town":"HIHATA","perfecture_jp":"秋田県","jp_add_1":"能代市","jp_add_2":"比八田"},"0160148":{"post_code":"0160148","prefecture":"AKITA KEN","city":"NOSHIRO SHI","town":"HIYASHIMIZU","perfecture_jp":"秋田県","jp_add_1":"能代市","jp_add_2":"冷清水"},"0160151":{"post_code":"0160151","prefecture":"AKITA KEN","city":"NOSHIRO SHI","town":"HIYAMA","perfecture_jp":"秋田県","jp_add_1":"能代市","jp_add_2":"檜山"},"0160811":{"post_code":"0160811","prefecture":"AKITA KEN","city":"NOSHIRO SHI","town":"HIYOSHIMACHI","perfecture_jp":"秋田県","jp_add_1":"能代市","jp_add_2":"日吉町"},"0160808":{"post_code":"0160808","prefecture":"AKITA KEN","city":"NOSHIRO SHI","town":"HIYORIYAMASHITA","perfecture_jp":"秋田県","jp_add_1":"能代市","jp_add_2":"日和山下"},"0160856":{"post_code":"0160856","prefecture":"AKITA KEN","city":"NOSHIRO SHI","town":"FUJIYAMA","perfecture_jp":"秋田県","jp_add_1":"能代市","jp_add_2":"藤山"},"0160004":{"post_code":"0160004","prefecture":"AKITA KEN","city":"NOSHIRO SHI","town":"FUKKOSHI","perfecture_jp":"秋田県","jp_add_1":"能代市","jp_add_2":"吹越"},"0160175":{"post_code":"0160175","prefecture":"AKITA KEN","city":"NOSHIRO SHI","town":"FURUYASHIKI","perfecture_jp":"秋田県","jp_add_1":"能代市","jp_add_2":"古屋布"},"0160879":{"post_code":"0160879","prefecture":"AKITA KEN","city":"NOSHIRO SHI","town":"FURODAI","perfecture_jp":"秋田県","jp_add_1":"能代市","jp_add_2":"不老岱"},"0160882":{"post_code":"0160882","prefecture":"AKITA KEN","city":"NOSHIRO SHI","town":"HOODAI","perfecture_jp":"秋田県","jp_add_1":"能代市","jp_add_2":"鳳凰岱"},"0160169":{"post_code":"0160169","prefecture":"AKITA KEN","city":"NOSHIRO SHI","town":"BOGASAKI","perfecture_jp":"秋田県","jp_add_1":"能代市","jp_add_2":"坊ケ崎"},"0160854":{"post_code":"0160854","prefecture":"AKITA KEN","city":"NOSHIRO SHI","town":"HOSHODAI","perfecture_jp":"秋田県","jp_add_1":"能代市","jp_add_2":"豊祥岱"},"0160002":{"post_code":"0160002","prefecture":"AKITA KEN","city":"NOSHIRO SHI","town":"HONOKISE","perfecture_jp":"秋田県","jp_add_1":"能代市","jp_add_2":"朴瀬"},"0160005":{"post_code":"0160005","prefecture":"AKITA KEN","city":"NOSHIRO SHI","town":"MAKABECHI","perfecture_jp":"秋田県","jp_add_1":"能代市","jp_add_2":"真壁地"},"0160132":{"post_code":"0160132","prefecture":"AKITA KEN","city":"NOSHIRO SHI","town":"MACHIUSHIRO","perfecture_jp":"秋田県","jp_add_1":"能代市","jp_add_2":"町後"},"0160161":{"post_code":"0160161","prefecture":"AKITA KEN","city":"NOSHIRO SHI","town":"MATSUNAGASHIKI","perfecture_jp":"秋田県","jp_add_1":"能代市","jp_add_2":"松長布"},"0160893":{"post_code":"0160893","prefecture":"AKITA KEN","city":"NOSHIRO SHI","town":"MATSUMIMACHI","perfecture_jp":"秋田県","jp_add_1":"能代市","jp_add_2":"松美町"},"0160851":{"post_code":"0160851","prefecture":"AKITA KEN","city":"NOSHIRO SHI","town":"MIDORIMACHI","perfecture_jp":"秋田県","jp_add_1":"能代市","jp_add_2":"緑町"},"0160832":{"post_code":"0160832","prefecture":"AKITA KEN","city":"NOSHIRO SHI","town":"MINAMIMOTOMACHI","perfecture_jp":"秋田県","jp_add_1":"能代市","jp_add_2":"南元町"},"0160103":{"post_code":"0160103","prefecture":"AKITA KEN","city":"NOSHIRO SHI","town":"MIYANOMAE","perfecture_jp":"秋田県","jp_add_1":"能代市","jp_add_2":"宮ノ前"},"0160133":{"post_code":"0160133","prefecture":"AKITA KEN","city":"NOSHIRO SHI","town":"MUKAITAOMOTE","perfecture_jp":"秋田県","jp_add_1":"能代市","jp_add_2":"向田表"},"0160013":{"post_code":"0160013","prefecture":"AKITA KEN","city":"NOSHIRO SHI","town":"MUKAINOSHIRO","perfecture_jp":"秋田県","jp_add_1":"能代市","jp_add_2":"向能代"},"0160833":{"post_code":"0160833","prefecture":"AKITA KEN","city":"NOSHIRO SHI","town":"MEIJIMACHI","perfecture_jp":"秋田県","jp_add_1":"能代市","jp_add_2":"明治町"},"0160152":{"post_code":"0160152","prefecture":"AKITA KEN","city":"NOSHIRO SHI","town":"MOTAI","perfecture_jp":"秋田県","jp_add_1":"能代市","jp_add_2":"母体"},"0160831":{"post_code":"0160831","prefecture":"AKITA KEN","city":"NOSHIRO SHI","town":"MOTOMACHI","perfecture_jp":"秋田県","jp_add_1":"能代市","jp_add_2":"元町"},"0160139":{"post_code":"0160139","prefecture":"AKITA KEN","city":"NOSHIRO SHI","town":"YACHIUE","perfecture_jp":"秋田県","jp_add_1":"能代市","jp_add_2":"谷地上"},"0160825":{"post_code":"0160825","prefecture":"AKITA KEN","city":"NOSHIRO SHI","town":"YANAGIMACHI","perfecture_jp":"秋田県","jp_add_1":"能代市","jp_add_2":"柳町"},"0160841":{"post_code":"0160841","prefecture":"AKITA KEN","city":"NOSHIRO SHI","town":"YOSAN","perfecture_jp":"秋田県","jp_add_1":"能代市","jp_add_2":"養蚕"},"0160838":{"post_code":"0160838","prefecture":"AKITA KEN","city":"NOSHIRO SHI","town":"YOSANWAKI","perfecture_jp":"秋田県","jp_add_1":"能代市","jp_add_2":"養蚕脇"},"0160145":{"post_code":"0160145","prefecture":"AKITA KEN","city":"NOSHIRO SHI","town":"WAKATA","perfecture_jp":"秋田県","jp_add_1":"能代市","jp_add_2":"若田"},"0160823":{"post_code":"0160823","prefecture":"AKITA KEN","city":"NOSHIRO SHI","town":"WAKAMATSUCHO","perfecture_jp":"秋田県","jp_add_1":"能代市","jp_add_2":"若松町"}}