{"0170000":{"post_code":"0170000","prefecture":"AKITA KEN","city":"ODATE SHI","town":"IKANIKEISAIGANAIBAAI","perfecture_jp":"秋田県","jp_add_1":"大館市","jp_add_2":""},"0170806":{"post_code":"0170806","prefecture":"AKITA KEN","city":"ODATE SHI","town":"AIZOMESAWANAKATAI","perfecture_jp":"秋田県","jp_add_1":"大館市","jp_add_2":"相染沢中岱"},"0170831":{"post_code":"0170831","prefecture":"AKITA KEN","city":"ODATE SHI","town":"AOBACHO","perfecture_jp":"秋田県","jp_add_1":"大館市","jp_add_2":"青葉町"},"0170854":{"post_code":"0170854","prefecture":"AKITA KEN","city":"ODATE SHI","town":"AKAISHI","perfecture_jp":"秋田県","jp_add_1":"大館市","jp_add_2":"赤石"},"0170816":{"post_code":"0170816","prefecture":"AKITA KEN","city":"ODATE SHI","town":"AKADATE","perfecture_jp":"秋田県","jp_add_1":"大館市","jp_add_2":"赤館"},"0170814":{"post_code":"0170814","prefecture":"AKITA KEN","city":"ODATE SHI","town":"AKADATECHO","perfecture_jp":"秋田県","jp_add_1":"大館市","jp_add_2":"赤館町"},"0170011":{"post_code":"0170011","prefecture":"AKITA KEN","city":"ODATE SHI","town":"AKIHITODOME","perfecture_jp":"秋田県","jp_add_1":"大館市","jp_add_2":"商人留"},"0170025":{"post_code":"0170025","prefecture":"AKITA KEN","city":"ODATE SHI","town":"ASHIDAKO","perfecture_jp":"秋田県","jp_add_1":"大館市","jp_add_2":"芦田子"},"0170023":{"post_code":"0170023","prefecture":"AKITA KEN","city":"ODATE SHI","town":"AZUMA","perfecture_jp":"秋田県","jp_add_1":"大館市","jp_add_2":"東"},"0170043":{"post_code":"0170043","prefecture":"AKITA KEN","city":"ODATE SHI","town":"ARIURA","perfecture_jp":"秋田県","jp_add_1":"大館市","jp_add_2":"有浦"},"0170836":{"post_code":"0170836","prefecture":"AKITA KEN","city":"ODATE SHI","town":"IKENAI","perfecture_jp":"秋田県","jp_add_1":"大館市","jp_add_2":"池内"},"0170834":{"post_code":"0170834","prefecture":"AKITA KEN","city":"ODATE SHI","town":"IKENAI MICHIUE","perfecture_jp":"秋田県","jp_add_1":"大館市","jp_add_2":"池内道上"},"0170832":{"post_code":"0170832","prefecture":"AKITA KEN","city":"ODATE SHI","town":"IKENAI MICHISHITA","perfecture_jp":"秋田県","jp_add_1":"大館市","jp_add_2":"池内道下"},"0170845":{"post_code":"0170845","prefecture":"AKITA KEN","city":"ODATE SHI","town":"IZUMICHO","perfecture_jp":"秋田県","jp_add_1":"大館市","jp_add_2":"泉町"},"0170053":{"post_code":"0170053","prefecture":"AKITA KEN","city":"ODATE SHI","town":"ITAKOISHIZAKAI","perfecture_jp":"秋田県","jp_add_1":"大館市","jp_add_2":"板子石境"},"0170853":{"post_code":"0170853","prefecture":"AKITA KEN","city":"ODATE SHI","town":"ITAZAWA","perfecture_jp":"秋田県","jp_add_1":"大館市","jp_add_2":"板沢"},"0170825":{"post_code":"0170825","prefecture":"AKITA KEN","city":"ODATE SHI","town":"ISSHINIMMINAMI","perfecture_jp":"秋田県","jp_add_1":"大館市","jp_add_2":"一心院南"},"0170801":{"post_code":"0170801","prefecture":"AKITA KEN","city":"ODATE SHI","town":"IPPONSUGI","perfecture_jp":"秋田県","jp_add_1":"大館市","jp_add_2":"一本杉"},"0170857":{"post_code":"0170857","prefecture":"AKITA KEN","city":"ODATE SHI","town":"IDEGAWA","perfecture_jp":"秋田県","jp_add_1":"大館市","jp_add_2":"出川"},"0170894":{"post_code":"0170894","prefecture":"AKITA KEN","city":"ODATE SHI","town":"URAMACHI","perfecture_jp":"秋田県","jp_add_1":"大館市","jp_add_2":"裏町"},"0170817":{"post_code":"0170817","prefecture":"AKITA KEN","city":"ODATE SHI","town":"UWAMACHI","perfecture_jp":"秋田県","jp_add_1":"大館市","jp_add_2":"上町"},"0170837":{"post_code":"0170837","prefecture":"AKITA KEN","city":"ODATE SHI","town":"ETSURI","perfecture_jp":"秋田県","jp_add_1":"大館市","jp_add_2":"餌釣"},"0170805":{"post_code":"0170805","prefecture":"AKITA KEN","city":"ODATE SHI","town":"OGIDAMICHISHITA","perfecture_jp":"秋田県","jp_add_1":"大館市","jp_add_2":"扇田道下"},"0170024":{"post_code":"0170024","prefecture":"AKITA KEN","city":"ODATE SHI","town":"OSHIGENAI","perfecture_jp":"秋田県","jp_add_1":"大館市","jp_add_2":"大茂内"},"0170041":{"post_code":"0170041","prefecture":"AKITA KEN","city":"ODATE SHI","town":"OTAOMOTE","perfecture_jp":"秋田県","jp_add_1":"大館市","jp_add_2":"大田面"},"0170896":{"post_code":"0170896","prefecture":"AKITA KEN","city":"ODATE SHI","town":"ODATE","perfecture_jp":"秋田県","jp_add_1":"大館市","jp_add_2":"大館"},"0170851":{"post_code":"0170851","prefecture":"AKITA KEN","city":"ODATE SHI","town":"OBIRAKI","perfecture_jp":"秋田県","jp_add_1":"大館市","jp_add_2":"大披"},"0170841":{"post_code":"0170841","prefecture":"AKITA KEN","city":"ODATE SHI","town":"OMACHI","perfecture_jp":"秋田県","jp_add_1":"大館市","jp_add_2":"大町"},"0170044":{"post_code":"0170044","prefecture":"AKITA KEN","city":"ODATE SHI","town":"ONARICHO","perfecture_jp":"秋田県","jp_add_1":"大館市","jp_add_2":"御成町"},"0170004":{"post_code":"0170004","prefecture":"AKITA KEN","city":"ODATE SHI","town":"KASUDA","perfecture_jp":"秋田県","jp_add_1":"大館市","jp_add_2":"粕田"},"0170892":{"post_code":"0170892","prefecture":"AKITA KEN","city":"ODATE SHI","town":"KATAMACHI","perfecture_jp":"秋田県","jp_add_1":"大館市","jp_add_2":"片町"},"0170871":{"post_code":"0170871","prefecture":"AKITA KEN","city":"ODATE SHI","town":"KATAYAMA","perfecture_jp":"秋田県","jp_add_1":"大館市","jp_add_2":"片山"},"0170872":{"post_code":"0170872","prefecture":"AKITA KEN","city":"ODATE SHI","town":"KATAYAMACHO","perfecture_jp":"秋田県","jp_add_1":"大館市","jp_add_2":"片山町"},"0170812":{"post_code":"0170812","prefecture":"AKITA KEN","city":"ODATE SHI","town":"KANEZAKA","perfecture_jp":"秋田県","jp_add_1":"大館市","jp_add_2":"金坂"},"0170813":{"post_code":"0170813","prefecture":"AKITA KEN","city":"ODATE SHI","town":"KANEZAKAUSHIRO","perfecture_jp":"秋田県","jp_add_1":"大館市","jp_add_2":"金坂後"},"0170031":{"post_code":"0170031","prefecture":"AKITA KEN","city":"ODATE SHI","town":"KAMIDAINO","perfecture_jp":"秋田県","jp_add_1":"大館市","jp_add_2":"上代野"},"0170804":{"post_code":"0170804","prefecture":"AKITA KEN","city":"ODATE SHI","town":"KARASAWA","perfecture_jp":"秋田県","jp_add_1":"大館市","jp_add_2":"柄沢"},"0170878":{"post_code":"0170878","prefecture":"AKITA KEN","city":"ODATE SHI","town":"KAWAGUCHI","perfecture_jp":"秋田県","jp_add_1":"大館市","jp_add_2":"川口"},"0170042":{"post_code":"0170042","prefecture":"AKITA KEN","city":"ODATE SHI","town":"KANNONDO","perfecture_jp":"秋田県","jp_add_1":"大館市","jp_add_2":"観音堂"},"0170866":{"post_code":"0170866","prefecture":"AKITA KEN","city":"ODATE SHI","town":"KITASHIMMEICHO","perfecture_jp":"秋田県","jp_add_1":"大館市","jp_add_2":"北神明町"},"0170893":{"post_code":"0170893","prefecture":"AKITA KEN","city":"ODATE SHI","town":"KEIJO","perfecture_jp":"秋田県","jp_add_1":"大館市","jp_add_2":"桂城"},"0170014":{"post_code":"0170014","prefecture":"AKITA KEN","city":"ODATE SHI","town":"KOSHAKANAI MICHIUE","perfecture_jp":"秋田県","jp_add_1":"大館市","jp_add_2":"小釈迦内道上"},"0170015":{"post_code":"0170015","prefecture":"AKITA KEN","city":"ODATE SHI","town":"KOSHAKANAI MICHISHITA","perfecture_jp":"秋田県","jp_add_1":"大館市","jp_add_2":"小釈迦内道下"},"0170861":{"post_code":"0170861","prefecture":"AKITA KEN","city":"ODATE SHI","town":"KOTATECHO","perfecture_jp":"秋田県","jp_add_1":"大館市","jp_add_2":"小館町"},"0170835":{"post_code":"0170835","prefecture":"AKITA KEN","city":"ODATE SHI","town":"KODATEHANA","perfecture_jp":"秋田県","jp_add_1":"大館市","jp_add_2":"小館花"},"0170852":{"post_code":"0170852","prefecture":"AKITA KEN","city":"ODATE SHI","town":"KOHAKAMA","perfecture_jp":"秋田県","jp_add_1":"大館市","jp_add_2":"小袴"},"0170847":{"post_code":"0170847","prefecture":"AKITA KEN","city":"ODATE SHI","town":"SAIWAICHO","perfecture_jp":"秋田県","jp_add_1":"大館市","jp_add_2":"幸町"},"0170821":{"post_code":"0170821","prefecture":"AKITA KEN","city":"ODATE SHI","town":"SAKURACHO","perfecture_jp":"秋田県","jp_add_1":"大館市","jp_add_2":"桜町"},"0170822":{"post_code":"0170822","prefecture":"AKITA KEN","city":"ODATE SHI","town":"SAKURACHOMINAMI","perfecture_jp":"秋田県","jp_add_1":"大館市","jp_add_2":"桜町南"},"0170897":{"post_code":"0170897","prefecture":"AKITA KEN","city":"ODATE SHI","town":"SANNOMARU","perfecture_jp":"秋田県","jp_add_1":"大館市","jp_add_2":"三ノ丸"},"0170022":{"post_code":"0170022","prefecture":"AKITA KEN","city":"ODATE SHI","town":"SHIGENAI","perfecture_jp":"秋田県","jp_add_1":"大館市","jp_add_2":"茂内"},"0170046":{"post_code":"0170046","prefecture":"AKITA KEN","city":"ODATE SHI","town":"SHIMIZU","perfecture_jp":"秋田県","jp_add_1":"大館市","jp_add_2":"清水"},"0170037":{"post_code":"0170037","prefecture":"AKITA KEN","city":"ODATE SHI","town":"SHIMIZUSEKIAI","perfecture_jp":"秋田県","jp_add_1":"大館市","jp_add_2":"清水堰合"},"0170034":{"post_code":"0170034","prefecture":"AKITA KEN","city":"ODATE SHI","town":"SHIMODAINO","perfecture_jp":"秋田県","jp_add_1":"大館市","jp_add_2":"下代野"},"0170033":{"post_code":"0170033","prefecture":"AKITA KEN","city":"ODATE SHI","town":"SHIMOTSUNA","perfecture_jp":"秋田県","jp_add_1":"大館市","jp_add_2":"下綱"},"0170012":{"post_code":"0170012","prefecture":"AKITA KEN","city":"ODATE SHI","town":"SHAKANAI","perfecture_jp":"秋田県","jp_add_1":"大館市","jp_add_2":"釈迦内"},"0170865":{"post_code":"0170865","prefecture":"AKITA KEN","city":"ODATE SHI","town":"JOSEICHO","perfecture_jp":"秋田県","jp_add_1":"大館市","jp_add_2":"城西町"},"0170002":{"post_code":"0170002","prefecture":"AKITA KEN","city":"ODATE SHI","town":"SHIRASAWA","perfecture_jp":"秋田県","jp_add_1":"大館市","jp_add_2":"白沢"},"0170844":{"post_code":"0170844","prefecture":"AKITA KEN","city":"ODATE SHI","town":"SHIMMACHI","perfecture_jp":"秋田県","jp_add_1":"大館市","jp_add_2":"新町"},"0170887":{"post_code":"0170887","prefecture":"AKITA KEN","city":"ODATE SHI","town":"SUIMONCHO","perfecture_jp":"秋田県","jp_add_1":"大館市","jp_add_2":"水門町"},"0170888":{"post_code":"0170888","prefecture":"AKITA KEN","city":"ODATE SHI","town":"SUIMOMMAE","perfecture_jp":"秋田県","jp_add_1":"大館市","jp_add_2":"水門前"},"0170875":{"post_code":"0170875","prefecture":"AKITA KEN","city":"ODATE SHI","town":"SUMIYOSHICHO","perfecture_jp":"秋田県","jp_add_1":"大館市","jp_add_2":"住吉町"},"0170833":{"post_code":"0170833","prefecture":"AKITA KEN","city":"ODATE SHI","town":"ZOGAHANA","perfecture_jp":"秋田県","jp_add_1":"大館市","jp_add_2":"象ケ鼻"},"0170035":{"post_code":"0170035","prefecture":"AKITA KEN","city":"ODATE SHI","town":"DAINO","perfecture_jp":"秋田県","jp_add_1":"大館市","jp_add_2":"代野"},"0170886":{"post_code":"0170886","prefecture":"AKITA KEN","city":"ODATE SHI","town":"TATESHITA","perfecture_jp":"秋田県","jp_add_1":"大館市","jp_add_2":"館下"},"0170877":{"post_code":"0170877","prefecture":"AKITA KEN","city":"ODATE SHI","town":"TATEBANA","perfecture_jp":"秋田県","jp_add_1":"大館市","jp_add_2":"立花"},"0170882":{"post_code":"0170882","prefecture":"AKITA KEN","city":"ODATE SHI","town":"TEPPOBA","perfecture_jp":"秋田県","jp_add_1":"大館市","jp_add_2":"鉄砲場"},"0170846":{"post_code":"0170846","prefecture":"AKITA KEN","city":"ODATE SHI","town":"TOKIWAGICHO","perfecture_jp":"秋田県","jp_add_1":"大館市","jp_add_2":"常盤木町"},"0170884":{"post_code":"0170884","prefecture":"AKITA KEN","city":"ODATE SHI","town":"DOBIYAMASHITA","perfecture_jp":"秋田県","jp_add_1":"大館市","jp_add_2":"土飛山下"},"0170867":{"post_code":"0170867","prefecture":"AKITA KEN","city":"ODATE SHI","town":"NAKASHIMMEICHO","perfecture_jp":"秋田県","jp_add_1":"大館市","jp_add_2":"中神明町"},"0170891":{"post_code":"0170891","prefecture":"AKITA KEN","city":"ODATE SHI","town":"NAKAJO","perfecture_jp":"秋田県","jp_add_1":"大館市","jp_add_2":"中城"},"0170843":{"post_code":"0170843","prefecture":"AKITA KEN","city":"ODATE SHI","town":"NAKAMACHI","perfecture_jp":"秋田県","jp_add_1":"大館市","jp_add_2":"中町"},"0170045":{"post_code":"0170045","prefecture":"AKITA KEN","city":"ODATE SHI","town":"NAKAMICHI","perfecture_jp":"秋田県","jp_add_1":"大館市","jp_add_2":"中道"},"0170839":{"post_code":"0170839","prefecture":"AKITA KEN","city":"ODATE SHI","town":"NAKAYAMA","perfecture_jp":"秋田県","jp_add_1":"大館市","jp_add_2":"中山"},"0170881":{"post_code":"0170881","prefecture":"AKITA KEN","city":"ODATE SHI","town":"NAGAKIKAWAMINAMI","perfecture_jp":"秋田県","jp_add_1":"大館市","jp_add_2":"長木川南"},"0170895":{"post_code":"0170895","prefecture":"AKITA KEN","city":"ODATE SHI","town":"NAGAKURA","perfecture_jp":"秋田県","jp_add_1":"大館市","jp_add_2":"長倉"},"0170802":{"post_code":"0170802","prefecture":"AKITA KEN","city":"ODATE SHI","town":"NAGANEYAMASHITA","perfecture_jp":"秋田県","jp_add_1":"大館市","jp_add_2":"長根山下"},"0170001":{"post_code":"0170001","prefecture":"AKITA KEN","city":"ODATE SHI","town":"NAGABASHIRI","perfecture_jp":"秋田県","jp_add_1":"大館市","jp_add_2":"長走"},"0170824":{"post_code":"0170824","prefecture":"AKITA KEN","city":"ODATE SHI","town":"NANAMAGARITAI","perfecture_jp":"秋田県","jp_add_1":"大館市","jp_add_2":"七曲岱"},"0170032":{"post_code":"0170032","prefecture":"AKITA KEN","city":"ODATE SHI","town":"NIIZUNA","perfecture_jp":"秋田県","jp_add_1":"大館市","jp_add_2":"新綱"},"0170036":{"post_code":"0170036","prefecture":"AKITA KEN","city":"ODATE SHI","town":"NIHONSUGIUSHIRO","perfecture_jp":"秋田県","jp_add_1":"大館市","jp_add_2":"二本杉後"},"0170055":{"post_code":"0170055","prefecture":"AKITA KEN","city":"ODATE SHI","town":"NUMATATE MICHIUE","perfecture_jp":"秋田県","jp_add_1":"大館市","jp_add_2":"沼館道上"},"0170056":{"post_code":"0170056","prefecture":"AKITA KEN","city":"ODATE SHI","town":"NUMATATE MICHIMINAMI","perfecture_jp":"秋田県","jp_add_1":"大館市","jp_add_2":"沼館道南"},"0170057":{"post_code":"0170057","prefecture":"AKITA KEN","city":"ODATE SHI","town":"NUMADATE","perfecture_jp":"秋田県","jp_add_1":"大館市","jp_add_2":"沼館"},"0170862":{"post_code":"0170862","prefecture":"AKITA KEN","city":"ODATE SHI","town":"NEGETO","perfecture_jp":"秋田県","jp_add_1":"大館市","jp_add_2":"根下戸"},"0170864":{"post_code":"0170864","prefecture":"AKITA KEN","city":"ODATE SHI","town":"NEGETOSHIMMACHI","perfecture_jp":"秋田県","jp_add_1":"大館市","jp_add_2":"根下戸新町"},"0170863":{"post_code":"0170863","prefecture":"AKITA KEN","city":"ODATE SHI","town":"NEGETOCHO","perfecture_jp":"秋田県","jp_add_1":"大館市","jp_add_2":"根下戸町"},"0170842":{"post_code":"0170842","prefecture":"AKITA KEN","city":"ODATE SHI","town":"BAKUROMACHI","perfecture_jp":"秋田県","jp_add_1":"大館市","jp_add_2":"馬喰町"},"0170003":{"post_code":"0170003","prefecture":"AKITA KEN","city":"ODATE SHI","town":"HASHIGETA","perfecture_jp":"秋田県","jp_add_1":"大館市","jp_add_2":"橋桁"},"0170811":{"post_code":"0170811","prefecture":"AKITA KEN","city":"ODATE SHI","town":"HACHIMAN","perfecture_jp":"秋田県","jp_add_1":"大館市","jp_add_2":"八幡"},"0170823":{"post_code":"0170823","prefecture":"AKITA KEN","city":"ODATE SHI","town":"HACHIMANSAWATAI","perfecture_jp":"秋田県","jp_add_1":"大館市","jp_add_2":"八幡沢岱"},"0170005":{"post_code":"0170005","prefecture":"AKITA KEN","city":"ODATE SHI","town":"HANAOKAMACHI","perfecture_jp":"秋田県","jp_add_1":"大館市","jp_add_2":"花岡町"},"0170803":{"post_code":"0170803","prefecture":"AKITA KEN","city":"ODATE SHI","town":"HIGASHIDAI","perfecture_jp":"秋田県","jp_add_1":"大館市","jp_add_2":"東台"},"0170855":{"post_code":"0170855","prefecture":"AKITA KEN","city":"ODATE SHI","town":"HITSUZAKI","perfecture_jp":"秋田県","jp_add_1":"大館市","jp_add_2":"櫃崎"},"0170026":{"post_code":"0170026","prefecture":"AKITA KEN","city":"ODATE SHI","town":"FUTATSUYASAKAI","perfecture_jp":"秋田県","jp_add_1":"大館市","jp_add_2":"二ツ屋境"},"0170883":{"post_code":"0170883","prefecture":"AKITA KEN","city":"ODATE SHI","town":"FURUKAWAMACHI","perfecture_jp":"秋田県","jp_add_1":"大館市","jp_add_2":"古川町"},"0170815":{"post_code":"0170815","prefecture":"AKITA KEN","city":"ODATE SHI","town":"HEDAREMACHI","perfecture_jp":"秋田県","jp_add_1":"大館市","jp_add_2":"部垂町"},"0170052":{"post_code":"0170052","prefecture":"AKITA KEN","city":"ODATE SHI","town":"MATSUKI","perfecture_jp":"秋田県","jp_add_1":"大館市","jp_add_2":"松木"},"0170054":{"post_code":"0170054","prefecture":"AKITA KEN","city":"ODATE SHI","town":"MATSUDATE","perfecture_jp":"秋田県","jp_add_1":"大館市","jp_add_2":"松館"},"0170051":{"post_code":"0170051","prefecture":"AKITA KEN","city":"ODATE SHI","town":"MATSUMINE","perfecture_jp":"秋田県","jp_add_1":"大館市","jp_add_2":"松峰"},"0170873":{"post_code":"0170873","prefecture":"AKITA KEN","city":"ODATE SHI","town":"MISAKA","perfecture_jp":"秋田県","jp_add_1":"大館市","jp_add_2":"御坂"},"0170874":{"post_code":"0170874","prefecture":"AKITA KEN","city":"ODATE SHI","town":"MISONOCHO","perfecture_jp":"秋田県","jp_add_1":"大館市","jp_add_2":"美園町"},"0170868":{"post_code":"0170868","prefecture":"AKITA KEN","city":"ODATE SHI","town":"MINAMISHIMMEICHO","perfecture_jp":"秋田県","jp_add_1":"大館市","jp_add_2":"南神明町"},"0170828":{"post_code":"0170828","prefecture":"AKITA KEN","city":"ODATE SHI","town":"MUKAIMACHI","perfecture_jp":"秋田県","jp_add_1":"大館市","jp_add_2":"向町"},"0170876":{"post_code":"0170876","prefecture":"AKITA KEN","city":"ODATE SHI","town":"MOCHITA","perfecture_jp":"秋田県","jp_add_1":"大館市","jp_add_2":"餅田"},"0170827":{"post_code":"0170827","prefecture":"AKITA KEN","city":"ODATE SHI","town":"YACHIMACHI","perfecture_jp":"秋田県","jp_add_1":"大館市","jp_add_2":"谷地町"},"0170826":{"post_code":"0170826","prefecture":"AKITA KEN","city":"ODATE SHI","town":"YACHIMACHIUSHIRO","perfecture_jp":"秋田県","jp_add_1":"大館市","jp_add_2":"谷地町後"},"0170838":{"post_code":"0170838","prefecture":"AKITA KEN","city":"ODATE SHI","town":"YAMADATE","perfecture_jp":"秋田県","jp_add_1":"大館市","jp_add_2":"山館"},"0170021":{"post_code":"0170021","prefecture":"AKITA KEN","city":"ODATE SHI","town":"YUKISAWA","perfecture_jp":"秋田県","jp_add_1":"大館市","jp_add_2":"雪沢"},"0170885":{"post_code":"0170885","prefecture":"AKITA KEN","city":"ODATE SHI","town":"YUTAKACHO","perfecture_jp":"秋田県","jp_add_1":"大館市","jp_add_2":"豊町"},"0170200":{"post_code":"0170200","prefecture":"AKITA KEN","city":"KAZUNO GUN KOSAKA MACHI","town":"IKANIKEISAIGANAIBAAI","perfecture_jp":"秋田県","jp_add_1":"鹿角郡小坂町","jp_add_2":""},"0170204":{"post_code":"0170204","prefecture":"AKITA KEN","city":"KAZUNO GUN KOSAKA MACHI","town":"ARAYA","perfecture_jp":"秋田県","jp_add_1":"鹿角郡小坂町","jp_add_2":"荒谷"},"0170203":{"post_code":"0170203","prefecture":"AKITA KEN","city":"KAZUNO GUN KOSAKA MACHI","town":"UWAMUKI","perfecture_jp":"秋田県","jp_add_1":"鹿角郡小坂町","jp_add_2":"上向"},"0170201":{"post_code":"0170201","prefecture":"AKITA KEN","city":"KAZUNO GUN KOSAKA MACHI","town":"KOSAKA","perfecture_jp":"秋田県","jp_add_1":"鹿角郡小坂町","jp_add_2":"小坂"},"0170202":{"post_code":"0170202","prefecture":"AKITA KEN","city":"KAZUNO GUN KOSAKA MACHI","town":"KOSAKAKOZAN","perfecture_jp":"秋田県","jp_add_1":"鹿角郡小坂町","jp_add_2":"小坂鉱山"},"0170205":{"post_code":"0170205","prefecture":"AKITA KEN","city":"KAZUNO GUN KOSAKA MACHI","town":"DAICHI","perfecture_jp":"秋田県","jp_add_1":"鹿角郡小坂町","jp_add_2":"大地"}}