{"0185501":{"post_code":"0185501","prefecture":"AOMORI KEN","city":"TOWADA SHI","town":"TOWADAKOHANYASUMIYA)","perfecture_jp":"青森県","jp_add_1":"十和田市","jp_add_2":"奥瀬"},"0182802":{"post_code":"0182802","prefecture":"AKITA KEN","city":"NOSHIRO SHI","town":"AMANAI","perfecture_jp":"秋田県","jp_add_1":"能代市","jp_add_2":"天内"},"0182812":{"post_code":"0182812","prefecture":"AKITA KEN","city":"NOSHIRO SHI","town":"OMAGARI","perfecture_jp":"秋田県","jp_add_1":"能代市","jp_add_2":"大曲"},"0182813":{"post_code":"0182813","prefecture":"AKITA KEN","city":"NOSHIRO SHI","town":"KAMIAKUDO","perfecture_jp":"秋田県","jp_add_1":"能代市","jp_add_2":"上悪土"},"0182814":{"post_code":"0182814","prefecture":"AKITA KEN","city":"NOSHIRO SHI","town":"KITSUNEMORI","perfecture_jp":"秋田県","jp_add_1":"能代市","jp_add_2":"狐森"},"0182806":{"post_code":"0182806","prefecture":"AKITA KEN","city":"NOSHIRO SHI","town":"KUKISAWA","perfecture_jp":"秋田県","jp_add_1":"能代市","jp_add_2":"久喜沢"},"0182804":{"post_code":"0182804","prefecture":"AKITA KEN","city":"NOSHIRO SHI","town":"SAIKACHI","perfecture_jp":"秋田県","jp_add_1":"能代市","jp_add_2":"槐"},"0182811":{"post_code":"0182811","prefecture":"AKITA KEN","city":"NOSHIRO SHI","town":"SAMBUTSU","perfecture_jp":"秋田県","jp_add_1":"能代市","jp_add_2":"産物"},"0182815":{"post_code":"0182815","prefecture":"AKITA KEN","city":"NOSHIRO SHI","town":"TOMEN","perfecture_jp":"秋田県","jp_add_1":"能代市","jp_add_2":"東面"},"0182801":{"post_code":"0182801","prefecture":"AKITA KEN","city":"NOSHIRO SHI","town":"TOKIWA","perfecture_jp":"秋田県","jp_add_1":"能代市","jp_add_2":"常盤"},"0182805":{"post_code":"0182805","prefecture":"AKITA KEN","city":"NOSHIRO SHI","town":"TODOROKI","perfecture_jp":"秋田県","jp_add_1":"能代市","jp_add_2":"轟"},"0182803":{"post_code":"0182803","prefecture":"AKITA KEN","city":"NOSHIRO SHI","town":"TOWARIDA","perfecture_jp":"秋田県","jp_add_1":"能代市","jp_add_2":"外割田"},"0183101":{"post_code":"0183101","prefecture":"AKITA KEN","city":"NOSHIRO SHI","town":"FUTATSUIMACHI ASO","perfecture_jp":"秋田県","jp_add_1":"能代市","jp_add_2":"二ツ井町麻生"},"0183116":{"post_code":"0183116","prefecture":"AKITA KEN","city":"NOSHIRO SHI","town":"FUTATSUIMACHI IEUSHIRO","perfecture_jp":"秋田県","jp_add_1":"能代市","jp_add_2":"二ツ井町家後"},"0183119":{"post_code":"0183119","prefecture":"AKITA KEN","city":"NOSHIRO SHI","town":"FUTATSUIMACHI USUI","perfecture_jp":"秋田県","jp_add_1":"能代市","jp_add_2":"二ツ井町薄井"},"0183131":{"post_code":"0183131","prefecture":"AKITA KEN","city":"NOSHIRO SHI","town":"FUTATSUIMACHI UMENAI","perfecture_jp":"秋田県","jp_add_1":"能代市","jp_add_2":"二ツ井町梅内"},"0183118":{"post_code":"0183118","prefecture":"AKITA KEN","city":"NOSHIRO SHI","town":"FUTATSUIMACHI UWADAI","perfecture_jp":"秋田県","jp_add_1":"能代市","jp_add_2":"二ツ井町上台"},"0183142":{"post_code":"0183142","prefecture":"AKITA KEN","city":"NOSHIRO SHI","town":"FUTATSUIMACHI UWANO","perfecture_jp":"秋田県","jp_add_1":"能代市","jp_add_2":"二ツ井町上野"},"0183143":{"post_code":"0183143","prefecture":"AKITA KEN","city":"NOSHIRO SHI","town":"FUTATSUIMACHI OTAMOTE","perfecture_jp":"秋田県","jp_add_1":"能代市","jp_add_2":"二ツ井町太田面"},"0183115":{"post_code":"0183115","prefecture":"AKITA KEN","city":"NOSHIRO SHI","town":"FUTATSUIMACHI KAIDOUE","perfecture_jp":"秋田県","jp_add_1":"能代市","jp_add_2":"二ツ井町海道上"},"0183105":{"post_code":"0183105","prefecture":"AKITA KEN","city":"NOSHIRO SHI","town":"FUTATSUIMACHI KAMIYAMAZAKI","perfecture_jp":"秋田県","jp_add_1":"能代市","jp_add_2":"二ツ井町上山崎"},"0183107":{"post_code":"0183107","prefecture":"AKITA KEN","city":"NOSHIRO SHI","town":"FUTATSUIMACHI KARIMATAISHI","perfecture_jp":"秋田県","jp_add_1":"能代市","jp_add_2":"二ツ井町苅又石"},"0183126":{"post_code":"0183126","prefecture":"AKITA KEN","city":"NOSHIRO SHI","town":"FUTATSUIMACHI KITSUNEDAI","perfecture_jp":"秋田県","jp_add_1":"能代市","jp_add_2":"二ツ井町狐台"},"0183124":{"post_code":"0183124","prefecture":"AKITA KEN","city":"NOSHIRO SHI","town":"FUTATSUIMACHI KIRIISHI","perfecture_jp":"秋田県","jp_add_1":"能代市","jp_add_2":"二ツ井町切石"},"0183112":{"post_code":"0183112","prefecture":"AKITA KEN","city":"NOSHIRO SHI","town":"FUTATSUIMACHI KOGAKE","perfecture_jp":"秋田県","jp_add_1":"能代市","jp_add_2":"二ツ井町小掛"},"0183141":{"post_code":"0183141","prefecture":"AKITA KEN","city":"NOSHIRO SHI","town":"FUTATSUIMACHI GOSENGARI","perfecture_jp":"秋田県","jp_add_1":"能代市","jp_add_2":"二ツ井町五千苅"},"0183147":{"post_code":"0183147","prefecture":"AKITA KEN","city":"NOSHIRO SHI","town":"FUTATSUIMACHI KOTSUKINOKI","perfecture_jp":"秋田県","jp_add_1":"能代市","jp_add_2":"二ツ井町小槻木"},"0183102":{"post_code":"0183102","prefecture":"AKITA KEN","city":"NOSHIRO SHI","town":"FUTATSUIMACHI KOTSUNAGI","perfecture_jp":"秋田県","jp_add_1":"能代市","jp_add_2":"二ツ井町小繋"},"0183123":{"post_code":"0183123","prefecture":"AKITA KEN","city":"NOSHIRO SHI","town":"FUTATSUIMACHI KOMAGATA","perfecture_jp":"秋田県","jp_add_1":"能代市","jp_add_2":"二ツ井町駒形"},"0183114":{"post_code":"0183114","prefecture":"AKITA KEN","city":"NOSHIRO SHI","town":"FUTATSUIMACHI SAKURADAI","perfecture_jp":"秋田県","jp_add_1":"能代市","jp_add_2":"二ツ井町桜台"},"0183104":{"post_code":"0183104","prefecture":"AKITA KEN","city":"NOSHIRO SHI","town":"FUTATSUIMACHI SAWAGUCHI","perfecture_jp":"秋田県","jp_add_1":"能代市","jp_add_2":"二ツ井町沢口"},"0183151":{"post_code":"0183151","prefecture":"AKITA KEN","city":"NOSHIRO SHI","town":"FUTATSUIMACHI SANZENGARI","perfecture_jp":"秋田県","jp_add_1":"能代市","jp_add_2":"二ツ井町三千苅"},"0183157":{"post_code":"0183157","prefecture":"AKITA KEN","city":"NOSHIRO SHI","town":"FUTATSUIMACHI SHIMONO","perfecture_jp":"秋田県","jp_add_1":"能代市","jp_add_2":"二ツ井町下野"},"0183152":{"post_code":"0183152","prefecture":"AKITA KEN","city":"NOSHIRO SHI","town":"FUTATSUIMACHI SHIMONOIEUSHIRO","perfecture_jp":"秋田県","jp_add_1":"能代市","jp_add_2":"二ツ井町下野家後"},"0183156":{"post_code":"0183156","prefecture":"AKITA KEN","city":"NOSHIRO SHI","town":"FUTATSUIMACHI SHIMONOKAWABATA","perfecture_jp":"秋田県","jp_add_1":"能代市","jp_add_2":"二ツ井町下野川端"},"0183128":{"post_code":"0183128","prefecture":"AKITA KEN","city":"NOSHIRO SHI","town":"FUTATSUIMACHI SHIMOHIEGARA","perfecture_jp":"秋田県","jp_add_1":"能代市","jp_add_2":"二ツ井町下稗柄"},"0183134":{"post_code":"0183134","prefecture":"AKITA KEN","city":"NOSHIRO SHI","town":"FUTATSUIMACHI TAKASEKI","perfecture_jp":"秋田県","jp_add_1":"能代市","jp_add_2":"二ツ井町高関"},"0183111":{"post_code":"0183111","prefecture":"AKITA KEN","city":"NOSHIRO SHI","town":"FUTATSUIMACHI TASHIRO","perfecture_jp":"秋田県","jp_add_1":"能代市","jp_add_2":"二ツ井町田代"},"0183133":{"post_code":"0183133","prefecture":"AKITA KEN","city":"NOSHIRO SHI","town":"FUTATSUIMACHI TANE (TAKEHARA)","perfecture_jp":"秋田県","jp_add_1":"能代市","jp_add_2":"二ツ井町種"},"0183132":{"post_code":"0183132","prefecture":"AKITA KEN","city":"NOSHIRO SHI","town":"FUTATSUIMACHI TANE(SONOTA)","perfecture_jp":"秋田県","jp_add_1":"能代市","jp_add_2":"二ツ井町種"},"0183125":{"post_code":"0183125","prefecture":"AKITA KEN","city":"NOSHIRO SHI","town":"FUTATSUIMACHI CHAYASHITA","perfecture_jp":"秋田県","jp_add_1":"能代市","jp_add_2":"二ツ井町茶屋下"},"0183117":{"post_code":"0183117","prefecture":"AKITA KEN","city":"NOSHIRO SHI","town":"FUTATSUIMACHI TSUKANODAI","perfecture_jp":"秋田県","jp_add_1":"能代市","jp_add_2":"二ツ井町塚台"},"0183148":{"post_code":"0183148","prefecture":"AKITA KEN","city":"NOSHIRO SHI","town":"FUTATSUIMACHI TSUKINOKI","perfecture_jp":"秋田県","jp_add_1":"能代市","jp_add_2":"二ツ井町槻ノ木"},"0183121":{"post_code":"0183121","prefecture":"AKITA KEN","city":"NOSHIRO SHI","town":"FUTATSUIMACHI TOBUNE (TOMINE)","perfecture_jp":"秋田県","jp_add_1":"能代市","jp_add_2":"二ツ井町飛根"},"0183122":{"post_code":"0183122","prefecture":"AKITA KEN","city":"NOSHIRO SHI","town":"FUTATSUIMACHI TOBUNE(SONOTA)","perfecture_jp":"秋田県","jp_add_1":"能代市","jp_add_2":"二ツ井町飛根"},"0183144":{"post_code":"0183144","prefecture":"AKITA KEN","city":"NOSHIRO SHI","town":"FUTATSUIMACHI NAKATSUBO","perfecture_jp":"秋田県","jp_add_1":"能代市","jp_add_2":"二ツ井町中坪"},"0183146":{"post_code":"0183146","prefecture":"AKITA KEN","city":"NOSHIRO SHI","town":"FUTATSUIMACHI NAKATSUBOMICHISHITA","perfecture_jp":"秋田県","jp_add_1":"能代市","jp_add_2":"二ツ井町中坪道下"},"0183153":{"post_code":"0183153","prefecture":"AKITA KEN","city":"NOSHIRO SHI","town":"FUTATSUIMACHI NAMERAKOKAWABATA","perfecture_jp":"秋田県","jp_add_1":"能代市","jp_add_2":"二ツ井町滑良子川端"},"0183103":{"post_code":"0183103","prefecture":"AKITA KEN","city":"NOSHIRO SHI","town":"FUTATSUIMACHI NIAGEBA","perfecture_jp":"秋田県","jp_add_1":"能代市","jp_add_2":"二ツ井町荷上場"},"0183106":{"post_code":"0183106","prefecture":"AKITA KEN","city":"NOSHIRO SHI","town":"FUTATSUIMACHI NIGORIKAWA","perfecture_jp":"秋田県","jp_add_1":"能代市","jp_add_2":"二ツ井町濁川"},"0183113":{"post_code":"0183113","prefecture":"AKITA KEN","city":"NOSHIRO SHI","town":"FUTATSUIMACHI NIBUNA","perfecture_jp":"秋田県","jp_add_1":"能代市","jp_add_2":"二ツ井町仁鮒"},"0183155":{"post_code":"0183155","prefecture":"AKITA KEN","city":"NOSHIRO SHI","town":"FUTATSUIMACHI HIINO","perfecture_jp":"秋田県","jp_add_1":"能代市","jp_add_2":"二ツ井町比井野"},"0183129":{"post_code":"0183129","prefecture":"AKITA KEN","city":"NOSHIRO SHI","town":"FUTATSUIMACHI HIEGARA","perfecture_jp":"秋田県","jp_add_1":"能代市","jp_add_2":"二ツ井町稗柄"},"0183127":{"post_code":"0183127","prefecture":"AKITA KEN","city":"NOSHIRO SHI","town":"FUTATSUIMACHI HIEKAWAHARA","perfecture_jp":"秋田県","jp_add_1":"能代市","jp_add_2":"二ツ井町稗川原"},"0183154":{"post_code":"0183154","prefecture":"AKITA KEN","city":"NOSHIRO SHI","town":"FUTATSUIMACHI MACHIJIRI","perfecture_jp":"秋田県","jp_add_1":"能代市","jp_add_2":"二ツ井町町尻"},"0183145":{"post_code":"0183145","prefecture":"AKITA KEN","city":"NOSHIRO SHI","town":"FUTATSUIMACHI MICHIKAMINAKATSUBO","perfecture_jp":"秋田県","jp_add_1":"能代市","jp_add_2":"二ツ井町道上中坪"},"0183135":{"post_code":"0183135","prefecture":"AKITA KEN","city":"NOSHIRO SHI","town":"FUTATSUIMACHI YAMANE","perfecture_jp":"秋田県","jp_add_1":"能代市","jp_add_2":"二ツ井町山根"},"0183501":{"post_code":"0183501","prefecture":"AKITA KEN","city":"ODATE SHI","town":"IWASE","perfecture_jp":"秋田県","jp_add_1":"大館市","jp_add_2":"岩瀬"},"0185754":{"post_code":"0185754","prefecture":"AKITA KEN","city":"ODATE SHI","town":"OSHINAI","perfecture_jp":"秋田県","jp_add_1":"大館市","jp_add_2":"大子内"},"0185604":{"post_code":"0185604","prefecture":"AKITA KEN","city":"ODATE SHI","town":"KARUIZAWA","perfecture_jp":"秋田県","jp_add_1":"大館市","jp_add_2":"軽井沢"},"0185606":{"post_code":"0185606","prefecture":"AKITA KEN","city":"ODATE SHI","town":"KUZUWARA","perfecture_jp":"秋田県","jp_add_1":"大館市","jp_add_2":"葛原"},"0185605":{"post_code":"0185605","prefecture":"AKITA KEN","city":"ODATE SHI","town":"SARUMA","perfecture_jp":"秋田県","jp_add_1":"大館市","jp_add_2":"猿間"},"0185756":{"post_code":"0185756","prefecture":"AKITA KEN","city":"ODATE SHI","town":"SHITAKAWARA","perfecture_jp":"秋田県","jp_add_1":"大館市","jp_add_2":"下川原"},"0185601":{"post_code":"0185601","prefecture":"AKITA KEN","city":"ODATE SHI","town":"JUNISHO","perfecture_jp":"秋田県","jp_add_1":"大館市","jp_add_2":"十二所"},"0185755":{"post_code":"0185755","prefecture":"AKITA KEN","city":"ODATE SHI","town":"SUGISAWA","perfecture_jp":"秋田県","jp_add_1":"大館市","jp_add_2":"杉沢"},"0183503":{"post_code":"0183503","prefecture":"AKITA KEN","city":"ODATE SHI","town":"SOTOKAWARA","perfecture_jp":"秋田県","jp_add_1":"大館市","jp_add_2":"外川原"},"0185602":{"post_code":"0185602","prefecture":"AKITA KEN","city":"ODATE SHI","town":"DOMEKI","perfecture_jp":"秋田県","jp_add_1":"大館市","jp_add_2":"道目木"},"0183504":{"post_code":"0183504","prefecture":"AKITA KEN","city":"ODATE SHI","town":"NAGASAKA","perfecture_jp":"秋田県","jp_add_1":"大館市","jp_add_2":"長坂"},"0185751":{"post_code":"0185751","prefecture":"AKITA KEN","city":"ODATE SHI","town":"NIIDA","perfecture_jp":"秋田県","jp_add_1":"大館市","jp_add_2":"二井田"},"0183505":{"post_code":"0183505","prefecture":"AKITA KEN","city":"ODATE SHI","town":"HAYAGUCHI","perfecture_jp":"秋田県","jp_add_1":"大館市","jp_add_2":"早口"},"0185753":{"post_code":"0185753","prefecture":"AKITA KEN","city":"ODATE SHI","town":"HINAIMAEDA","perfecture_jp":"秋田県","jp_add_1":"大館市","jp_add_2":"比内前田"},"0185701":{"post_code":"0185701","prefecture":"AKITA KEN","city":"ODATE SHI","town":"HINAIMACHI OGITA","perfecture_jp":"秋田県","jp_add_1":"大館市","jp_add_2":"比内町扇田"},"0185851":{"post_code":"0185851","prefecture":"AKITA KEN","city":"ODATE SHI","town":"HINAIMACHI OKUZO","perfecture_jp":"秋田県","jp_add_1":"大館市","jp_add_2":"比内町大葛"},"0185743":{"post_code":"0185743","prefecture":"AKITA KEN","city":"ODATE SHI","town":"HINAIMACHI OTSUBOZAWA","perfecture_jp":"秋田県","jp_add_1":"大館市","jp_add_2":"比内町小坪沢"},"0185745":{"post_code":"0185745","prefecture":"AKITA KEN","city":"ODATE SHI","town":"HINAIMACHI KATAGAI","perfecture_jp":"秋田県","jp_add_1":"大館市","jp_add_2":"比内町片貝"},"0185731":{"post_code":"0185731","prefecture":"AKITA KEN","city":"ODATE SHI","town":"HINAIMACHI SASADATE","perfecture_jp":"秋田県","jp_add_1":"大館市","jp_add_2":"比内町笹館"},"0185742":{"post_code":"0185742","prefecture":"AKITA KEN","city":"ODATE SHI","town":"HINAIMACHI SHIRASAWAMIZUSAWA","perfecture_jp":"秋田県","jp_add_1":"大館市","jp_add_2":"比内町白沢水沢"},"0185741":{"post_code":"0185741","prefecture":"AKITA KEN","city":"ODATE SHI","town":"HINAIMACHI TAKKO","perfecture_jp":"秋田県","jp_add_1":"大館市","jp_add_2":"比内町達子"},"0185721":{"post_code":"0185721","prefecture":"AKITA KEN","city":"ODATE SHI","town":"HINAIMACHI TOKKO","perfecture_jp":"秋田県","jp_add_1":"大館市","jp_add_2":"比内町独鈷"},"0185722":{"post_code":"0185722","prefecture":"AKITA KEN","city":"ODATE SHI","town":"HINAIMACHI NAKANO","perfecture_jp":"秋田県","jp_add_1":"大館市","jp_add_2":"比内町中野"},"0185712":{"post_code":"0185712","prefecture":"AKITA KEN","city":"ODATE SHI","town":"HINAIMACHI NIIDATE","perfecture_jp":"秋田県","jp_add_1":"大館市","jp_add_2":"比内町新館"},"0185711":{"post_code":"0185711","prefecture":"AKITA KEN","city":"ODATE SHI","town":"HINAIMACHI MISONAI","perfecture_jp":"秋田県","jp_add_1":"大館市","jp_add_2":"比内町味噌内"},"0185744":{"post_code":"0185744","prefecture":"AKITA KEN","city":"ODATE SHI","town":"HINAIMACHI YAGIHASHI","perfecture_jp":"秋田県","jp_add_1":"大館市","jp_add_2":"比内町八木橋"},"0185732":{"post_code":"0185732","prefecture":"AKITA KEN","city":"ODATE SHI","town":"HINAIMACHI YACHINAKA","perfecture_jp":"秋田県","jp_add_1":"大館市","jp_add_2":"比内町谷地中"},"0185603":{"post_code":"0185603","prefecture":"AKITA KEN","city":"ODATE SHI","town":"MAGATA","perfecture_jp":"秋田県","jp_add_1":"大館市","jp_add_2":"曲田"},"0185752":{"post_code":"0185752","prefecture":"AKITA KEN","city":"ODATE SHI","town":"MOTOMIYA","perfecture_jp":"秋田県","jp_add_1":"大館市","jp_add_2":"本宮"},"0183506":{"post_code":"0183506","prefecture":"AKITA KEN","city":"ODATE SHI","town":"YAMASE","perfecture_jp":"秋田県","jp_add_1":"大館市","jp_add_2":"山瀬"},"0183502":{"post_code":"0183502","prefecture":"AKITA KEN","city":"ODATE SHI","town":"YAMADA","perfecture_jp":"秋田県","jp_add_1":"大館市","jp_add_2":"山田"},"0185200":{"post_code":"0185200","prefecture":"AKITA KEN","city":"KAZUNO SHI","town":"IKANIKEISAIGANAIBAAI","perfecture_jp":"秋田県","jp_add_1":"鹿角市","jp_add_2":""},"0185202":{"post_code":"0185202","prefecture":"AKITA KEN","city":"KAZUNO SHI","town":"OSARIZAWA","perfecture_jp":"秋田県","jp_add_1":"鹿角市","jp_add_2":"尾去沢"},"0185332":{"post_code":"0185332","prefecture":"AKITA KEN","city":"KAZUNO SHI","town":"TOWADA UWAMUKAI","perfecture_jp":"秋田県","jp_add_1":"鹿角市","jp_add_2":"十和田上向"},"0185421":{"post_code":"0185421","prefecture":"AKITA KEN","city":"KAZUNO SHI","town":"TOWADA OYU","perfecture_jp":"秋田県","jp_add_1":"鹿角市","jp_add_2":"十和田大湯"},"0185333":{"post_code":"0185333","prefecture":"AKITA KEN","city":"KAZUNO SHI","town":"TOWADA OKADA","perfecture_jp":"秋田県","jp_add_1":"鹿角市","jp_add_2":"十和田岡田"},"0185422":{"post_code":"0185422","prefecture":"AKITA KEN","city":"KAZUNO SHI","town":"TOWADA KUSAGI","perfecture_jp":"秋田県","jp_add_1":"鹿角市","jp_add_2":"十和田草木"},"0185334":{"post_code":"0185334","prefecture":"AKITA KEN","city":"KAZUNO SHI","town":"TOWADA KEMANAI","perfecture_jp":"秋田県","jp_add_1":"鹿角市","jp_add_2":"十和田毛馬内"},"0185337":{"post_code":"0185337","prefecture":"AKITA KEN","city":"KAZUNO SHI","town":"TOWADA SUEHIRO","perfecture_jp":"秋田県","jp_add_1":"鹿角市","jp_add_2":"十和田末広"},"0185335":{"post_code":"0185335","prefecture":"AKITA KEN","city":"KAZUNO SHI","town":"TOWADA SETAISHI","perfecture_jp":"秋田県","jp_add_1":"鹿角市","jp_add_2":"十和田瀬田石"},"0185336":{"post_code":"0185336","prefecture":"AKITA KEN","city":"KAZUNO SHI","town":"TOWADA NISHIKIGI","perfecture_jp":"秋田県","jp_add_1":"鹿角市","jp_add_2":"十和田錦木"},"0185331":{"post_code":"0185331","prefecture":"AKITA KEN","city":"KAZUNO SHI","town":"TOWADA YAMANE","perfecture_jp":"秋田県","jp_add_1":"鹿角市","jp_add_2":"十和田山根"},"0185141":{"post_code":"0185141","prefecture":"AKITA KEN","city":"KAZUNO SHI","town":"HACHIMANTAI","perfecture_jp":"秋田県","jp_add_1":"鹿角市","jp_add_2":"八幡平"},"0185201":{"post_code":"0185201","prefecture":"AKITA KEN","city":"KAZUNO SHI","town":"HANAWA","perfecture_jp":"秋田県","jp_add_1":"鹿角市","jp_add_2":"花輪"},"0181215":{"post_code":"0181215","prefecture":"AKITA KEN","city":"YURIHONJO SHI","town":"IWAKI AKAHIRA","perfecture_jp":"秋田県","jp_add_1":"由利本荘市","jp_add_2":"岩城赤平"},"0181213":{"post_code":"0181213","prefecture":"AKITA KEN","city":"YURIHONJO SHI","town":"IWAKI IZUMITA","perfecture_jp":"秋田県","jp_add_1":"由利本荘市","jp_add_2":"岩城泉田"},"0181301":{"post_code":"0181301","prefecture":"AKITA KEN","city":"YURIHONJO SHI","town":"IWAKI UCHIMICHIKAWA","perfecture_jp":"秋田県","jp_add_1":"由利本荘市","jp_add_2":"岩城内道川"},"0181302":{"post_code":"0181302","prefecture":"AKITA KEN","city":"YURIHONJO SHI","town":"IWAKI KATTE","perfecture_jp":"秋田県","jp_add_1":"由利本荘市","jp_add_2":"岩城勝手"},"0181225":{"post_code":"0181225","prefecture":"AKITA KEN","city":"YURIHONJO SHI","town":"IWAKI KAMIKUROKAWA","perfecture_jp":"秋田県","jp_add_1":"由利本荘市","jp_add_2":"岩城上黒川"},"0181222":{"post_code":"0181222","prefecture":"AKITA KEN","city":"YURIHONJO SHI","town":"IWAKI KAMIHEBITA","perfecture_jp":"秋田県","jp_add_1":"由利本荘市","jp_add_2":"岩城上蛇田"},"0181216":{"post_code":"0181216","prefecture":"AKITA KEN","city":"YURIHONJO SHI","town":"IWAKI KAMEDAATAGOMACHI","perfecture_jp":"秋田県","jp_add_1":"由利本荘市","jp_add_2":"岩城亀田愛宕町"},"0181218":{"post_code":"0181218","prefecture":"AKITA KEN","city":"YURIHONJO SHI","town":"IWAKI KAMEDAOMACHI","perfecture_jp":"秋田県","jp_add_1":"由利本荘市","jp_add_2":"岩城亀田大町"},"0181217":{"post_code":"0181217","prefecture":"AKITA KEN","city":"YURIHONJO SHI","town":"IWAKI KAMEDAKAMEDAMACHI","perfecture_jp":"秋田県","jp_add_1":"由利本荘市","jp_add_2":"岩城亀田亀田町"},"0181221":{"post_code":"0181221","prefecture":"AKITA KEN","city":"YURIHONJO SHI","town":"IWAKI KAMEDAMOGAMIMACHI","perfecture_jp":"秋田県","jp_add_1":"由利本荘市","jp_add_2":"岩城亀田最上町"},"0181303":{"post_code":"0181303","prefecture":"AKITA KEN","city":"YURIHONJO SHI","town":"IWAKI KIMIGANO","perfecture_jp":"秋田県","jp_add_1":"由利本荘市","jp_add_2":"岩城君ケ野"},"0181226":{"post_code":"0181226","prefecture":"AKITA KEN","city":"YURIHONJO SHI","town":"IWAKI SHIMOKUROKAWA","perfecture_jp":"秋田県","jp_add_1":"由利本荘市","jp_add_2":"岩城下黒川"},"0181223":{"post_code":"0181223","prefecture":"AKITA KEN","city":"YURIHONJO SHI","town":"IWAKI SHIMOHEBITA","perfecture_jp":"秋田県","jp_add_1":"由利本荘市","jp_add_2":"岩城下蛇田"},"0181211":{"post_code":"0181211","prefecture":"AKITA KEN","city":"YURIHONJO SHI","town":"IWAKI TAKINOMATA","perfecture_jp":"秋田県","jp_add_1":"由利本荘市","jp_add_2":"岩城滝俣"},"0181214":{"post_code":"0181214","prefecture":"AKITA KEN","city":"YURIHONJO SHI","town":"IWAKI TOMITA","perfecture_jp":"秋田県","jp_add_1":"由利本荘市","jp_add_2":"岩城富田"},"0181212":{"post_code":"0181212","prefecture":"AKITA KEN","city":"YURIHONJO SHI","town":"IWAKI FUKUNOMATA","perfecture_jp":"秋田県","jp_add_1":"由利本荘市","jp_add_2":"岩城福俣"},"0181305":{"post_code":"0181305","prefecture":"AKITA KEN","city":"YURIHONJO SHI","town":"IWAKI FUTAGO","perfecture_jp":"秋田県","jp_add_1":"由利本荘市","jp_add_2":"岩城二古"},"0181304":{"post_code":"0181304","prefecture":"AKITA KEN","city":"YURIHONJO SHI","town":"IWAKI MICHIKAWA","perfecture_jp":"秋田県","jp_add_1":"由利本荘市","jp_add_2":"岩城道川"},"0181224":{"post_code":"0181224","prefecture":"AKITA KEN","city":"YURIHONJO SHI","town":"IWAKI ROKURODA","perfecture_jp":"秋田県","jp_add_1":"由利本荘市","jp_add_2":"岩城六呂田"},"0180904":{"post_code":"0180904","prefecture":"AKITA KEN","city":"YURIHONJO SHI","town":"IWANOMEZAWA","perfecture_jp":"秋田県","jp_add_1":"由利本荘市","jp_add_2":"岩野目沢"},"0180726":{"post_code":"0180726","prefecture":"AKITA KEN","city":"YURIHONJO SHI","town":"IWAYAFUMOTO","perfecture_jp":"秋田県","jp_add_1":"由利本荘市","jp_add_2":"岩谷麓"},"0180711":{"post_code":"0180711","prefecture":"AKITA KEN","city":"YURIHONJO SHI","town":"IWAYAMACHI","perfecture_jp":"秋田県","jp_add_1":"由利本荘市","jp_add_2":"岩谷町"},"0180723":{"post_code":"0180723","prefecture":"AKITA KEN","city":"YURIHONJO SHI","town":"USHIDERA","perfecture_jp":"秋田県","jp_add_1":"由利本荘市","jp_add_2":"牛寺"},"0180731":{"post_code":"0180731","prefecture":"AKITA KEN","city":"YURIHONJO SHI","town":"OUCHISANKAWA","perfecture_jp":"秋田県","jp_add_1":"由利本荘市","jp_add_2":"大内三川"},"0180733":{"post_code":"0180733","prefecture":"AKITA KEN","city":"YURIHONJO SHI","town":"OKURAZAWA","perfecture_jp":"秋田県","jp_add_1":"由利本荘市","jp_add_2":"大倉沢"},"0180721":{"post_code":"0180721","prefecture":"AKITA KEN","city":"YURIHONJO SHI","town":"OTANI","perfecture_jp":"秋田県","jp_add_1":"由利本荘市","jp_add_2":"大谷"},"0180841":{"post_code":"0180841","prefecture":"AKITA KEN","city":"YURIHONJO SHI","town":"KAGASAWA","perfecture_jp":"秋田県","jp_add_1":"由利本荘市","jp_add_2":"加賀沢"},"0180734":{"post_code":"0180734","prefecture":"AKITA KEN","city":"YURIHONJO SHI","town":"KITAFUKUDA","perfecture_jp":"秋田県","jp_add_1":"由利本荘市","jp_add_2":"北福田"},"0180852":{"post_code":"0180852","prefecture":"AKITA KEN","city":"YURIHONJO SHI","town":"KUZUOKA","perfecture_jp":"秋田県","jp_add_1":"由利本荘市","jp_add_2":"葛岡"},"0180903":{"post_code":"0180903","prefecture":"AKITA KEN","city":"YURIHONJO SHI","town":"KOGURIYAMA","perfecture_jp":"秋田県","jp_add_1":"由利本荘市","jp_add_2":"小栗山"},"0180907":{"post_code":"0180907","prefecture":"AKITA KEN","city":"YURIHONJO SHI","town":"SAKABE","perfecture_jp":"秋田県","jp_add_1":"由利本荘市","jp_add_2":"坂部"},"0180842":{"post_code":"0180842","prefecture":"AKITA KEN","city":"YURIHONJO SHI","town":"SHINSAWA","perfecture_jp":"秋田県","jp_add_1":"由利本荘市","jp_add_2":"新沢"},"0180902":{"post_code":"0180902","prefecture":"AKITA KEN","city":"YURIHONJO SHI","town":"SHINDEN","perfecture_jp":"秋田県","jp_add_1":"由利本荘市","jp_add_2":"新田"},"0180844":{"post_code":"0180844","prefecture":"AKITA KEN","city":"YURIHONJO SHI","town":"TAKAO","perfecture_jp":"秋田県","jp_add_1":"由利本荘市","jp_add_2":"高尾"},"0180905":{"post_code":"0180905","prefecture":"AKITA KEN","city":"YURIHONJO SHI","town":"TAKI","perfecture_jp":"秋田県","jp_add_1":"由利本荘市","jp_add_2":"滝"},"0180732":{"post_code":"0180732","prefecture":"AKITA KEN","city":"YURIHONJO SHI","town":"TOKUSAWA","perfecture_jp":"秋田県","jp_add_1":"由利本荘市","jp_add_2":"徳沢"},"0180853":{"post_code":"0180853","prefecture":"AKITA KEN","city":"YURIHONJO SHI","town":"NAGASAKA","perfecture_jp":"秋田県","jp_add_1":"由利本荘市","jp_add_2":"長坂"},"0180901":{"post_code":"0180901","prefecture":"AKITA KEN","city":"YURIHONJO SHI","town":"NAKATASHIRO","perfecture_jp":"秋田県","jp_add_1":"由利本荘市","jp_add_2":"中田代"},"0180722":{"post_code":"0180722","prefecture":"AKITA KEN","city":"YURIHONJO SHI","town":"NAKADATE","perfecture_jp":"秋田県","jp_add_1":"由利本荘市","jp_add_2":"中館"},"0180843":{"post_code":"0180843","prefecture":"AKITA KEN","city":"YURIHONJO SHI","town":"NAKACHO","perfecture_jp":"秋田県","jp_add_1":"由利本荘市","jp_add_2":"中帳"},"0180845":{"post_code":"0180845","prefecture":"AKITA KEN","city":"YURIHONJO SHI","town":"NAKANOMATA","perfecture_jp":"秋田県","jp_add_1":"由利本荘市","jp_add_2":"中俣"},"0180601":{"post_code":"0180601","prefecture":"AKITA KEN","city":"YURIHONJO SHI","town":"NISHIMEMACHI AMAHAGI","perfecture_jp":"秋田県","jp_add_1":"由利本荘市","jp_add_2":"西目町海士剥"},"0180602":{"post_code":"0180602","prefecture":"AKITA KEN","city":"YURIHONJO SHI","town":"NISHIMEMACHI DETO","perfecture_jp":"秋田県","jp_add_1":"由利本荘市","jp_add_2":"西目町出戸"},"0180603":{"post_code":"0180603","prefecture":"AKITA KEN","city":"YURIHONJO SHI","town":"NISHIMEMACHI NISHIME","perfecture_jp":"秋田県","jp_add_1":"由利本荘市","jp_add_2":"西目町西目"},"0180604":{"post_code":"0180604","prefecture":"AKITA KEN","city":"YURIHONJO SHI","town":"NISHIMEMACHI NUMATA","perfecture_jp":"秋田県","jp_add_1":"由利本荘市","jp_add_2":"西目町沼田"},"0180854":{"post_code":"0180854","prefecture":"AKITA KEN","city":"YURIHONJO SHI","town":"NOZOKI","perfecture_jp":"秋田県","jp_add_1":"由利本荘市","jp_add_2":"及位"},"0180906":{"post_code":"0180906","prefecture":"AKITA KEN","city":"YURIHONJO SHI","town":"HABIRO","perfecture_jp":"秋田県","jp_add_1":"由利本荘市","jp_add_2":"羽広"},"0180851":{"post_code":"0180851","prefecture":"AKITA KEN","city":"YURIHONJO SHI","town":"HIRAGUKI","perfecture_jp":"秋田県","jp_add_1":"由利本荘市","jp_add_2":"平岫"},"0180724":{"post_code":"0180724","prefecture":"AKITA KEN","city":"YURIHONJO SHI","town":"FUKASAWA","perfecture_jp":"秋田県","jp_add_1":"由利本荘市","jp_add_2":"深沢"},"0180855":{"post_code":"0180855","prefecture":"AKITA KEN","city":"YURIHONJO SHI","town":"MATSUMOTO","perfecture_jp":"秋田県","jp_add_1":"由利本荘市","jp_add_2":"松本"},"0180725":{"post_code":"0180725","prefecture":"AKITA KEN","city":"YURIHONJO SHI","town":"YONEZAKA","perfecture_jp":"秋田県","jp_add_1":"由利本荘市","jp_add_2":"米坂"},"0181400":{"post_code":"0181400","prefecture":"AKITA KEN","city":"KATAGAMI SHI","town":"IKANIKEISAIGANAIBAAI","perfecture_jp":"秋田県","jp_add_1":"潟上市","jp_add_2":""},"0181504":{"post_code":"0181504","prefecture":"AKITA KEN","city":"KATAGAMI SHI","town":"IITAGAWA IIZUKA","perfecture_jp":"秋田県","jp_add_1":"潟上市","jp_add_2":"飯田川飯塚"},"0181501":{"post_code":"0181501","prefecture":"AKITA KEN","city":"KATAGAMI SHI","town":"IITAGAWA KANEYAMA","perfecture_jp":"秋田県","jp_add_1":"潟上市","jp_add_2":"飯田川金山"},"0181502":{"post_code":"0181502","prefecture":"AKITA KEN","city":"KATAGAMI SHI","town":"IITAGAWA SHIMOABUKAWA","perfecture_jp":"秋田県","jp_add_1":"潟上市","jp_add_2":"飯田川下虻川"},"0181503":{"post_code":"0181503","prefecture":"AKITA KEN","city":"KATAGAMI SHI","town":"IITAGAWA WADAIMOKAWA","perfecture_jp":"秋田県","jp_add_1":"潟上市","jp_add_2":"飯田川和田妹川"},"0181401":{"post_code":"0181401","prefecture":"AKITA KEN","city":"KATAGAMI SHI","town":"SHOWA OKUBO","perfecture_jp":"秋田県","jp_add_1":"潟上市","jp_add_2":"昭和大久保"},"0181412":{"post_code":"0181412","prefecture":"AKITA KEN","city":"KATAGAMI SHI","town":"SHOWA TOYOKAWAOKAIDO","perfecture_jp":"秋田県","jp_add_1":"潟上市","jp_add_2":"昭和豊川岡井戸"},"0181411":{"post_code":"0181411","prefecture":"AKITA KEN","city":"KATAGAMI SHI","town":"SHOWA TOYOKAWAKAMIABUKAWA","perfecture_jp":"秋田県","jp_add_1":"潟上市","jp_add_2":"昭和豊川上虻川"},"0181414":{"post_code":"0181414","prefecture":"AKITA KEN","city":"KATAGAMI SHI","town":"SHOWA TOYOKAWATSUKINOKI","perfecture_jp":"秋田県","jp_add_1":"潟上市","jp_add_2":"昭和豊川槻木"},"0181413":{"post_code":"0181413","prefecture":"AKITA KEN","city":"KATAGAMI SHI","town":"SHOWA TOYOKAWAFUNABASHI","perfecture_jp":"秋田県","jp_add_1":"潟上市","jp_add_2":"昭和豊川船橋"},"0181416":{"post_code":"0181416","prefecture":"AKITA KEN","city":"KATAGAMI SHI","town":"SHOWA TOYOKAWAYAMADA","perfecture_jp":"秋田県","jp_add_1":"潟上市","jp_add_2":"昭和豊川山田"},"0181415":{"post_code":"0181415","prefecture":"AKITA KEN","city":"KATAGAMI SHI","town":"SHOWA TOYOKAWARYUGE","perfecture_jp":"秋田県","jp_add_1":"潟上市","jp_add_2":"昭和豊川竜毛"},"0181403":{"post_code":"0181403","prefecture":"AKITA KEN","city":"KATAGAMI SHI","town":"SHOWA HATCHOME","perfecture_jp":"秋田県","jp_add_1":"潟上市","jp_add_2":"昭和八丁目"},"0181402":{"post_code":"0181402","prefecture":"AKITA KEN","city":"KATAGAMI SHI","town":"SHOWA MIDAREBASHI","perfecture_jp":"秋田県","jp_add_1":"潟上市","jp_add_2":"昭和乱橋"},"0183300":{"post_code":"0183300","prefecture":"AKITA KEN","city":"KITAAKITA SHI","town":"IKANIKEISAIGANAIBAAI","perfecture_jp":"秋田県","jp_add_1":"北秋田市","jp_add_2":""},"0183313":{"post_code":"0183313","prefecture":"AKITA KEN","city":"KITAAKITA SHI","town":"ASAHICHO","perfecture_jp":"秋田県","jp_add_1":"北秋田市","jp_add_2":"旭町"},"0184621":{"post_code":"0184621","prefecture":"AKITA KEN","city":"KITAAKITA SHI","town":"ANI ARASE","perfecture_jp":"秋田県","jp_add_1":"北秋田市","jp_add_2":"阿仁荒瀬"},"0184623":{"post_code":"0184623","prefecture":"AKITA KEN","city":"KITAAKITA SHI","town":"ANI ARASEGAWAHITSUHATA","perfecture_jp":"秋田県","jp_add_1":"北秋田市","jp_add_2":"阿仁荒瀬川櫃畑"},"0184731":{"post_code":"0184731","prefecture":"AKITA KEN","city":"KITAAKITA SHI","town":"ANI UTTO","perfecture_jp":"秋田県","jp_add_1":"北秋田市","jp_add_2":"阿仁打当"},"0184743":{"post_code":"0184743","prefecture":"AKITA KEN","city":"KITAAKITA SHI","town":"ANI OKASHINAI","perfecture_jp":"秋田県","jp_add_1":"北秋田市","jp_add_2":"阿仁笑内"},"0184624":{"post_code":"0184624","prefecture":"AKITA KEN","city":"KITAAKITA SHI","town":"ANI KAGINOTAKI","perfecture_jp":"秋田県","jp_add_1":"北秋田市","jp_add_2":"阿仁鍵ノ滝"},"0184745":{"post_code":"0184745","prefecture":"AKITA KEN","city":"KITAAKITA SHI","town":"ANI KAYAKUSA","perfecture_jp":"秋田県","jp_add_1":"北秋田市","jp_add_2":"阿仁萱草"},"0184613":{"post_code":"0184613","prefecture":"AKITA KEN","city":"KITAAKITA SHI","town":"ANI GINZAN","perfecture_jp":"秋田県","jp_add_1":"北秋田市","jp_add_2":"阿仁銀山"},"0184741":{"post_code":"0184741","prefecture":"AKITA KEN","city":"KITAAKITA SHI","town":"ANI KOYA","perfecture_jp":"秋田県","jp_add_1":"北秋田市","jp_add_2":"阿仁幸屋"},"0184742":{"post_code":"0184742","prefecture":"AKITA KEN","city":"KITAAKITA SHI","town":"ANI KOYAWATARI","perfecture_jp":"秋田県","jp_add_1":"北秋田市","jp_add_2":"阿仁幸屋渡"},"0184603":{"post_code":"0184603","prefecture":"AKITA KEN","city":"KITAAKITA SHI","town":"ANI KOZAMA","perfecture_jp":"秋田県","jp_add_1":"北秋田市","jp_add_2":"阿仁小様"},"0184622":{"post_code":"0184622","prefecture":"AKITA KEN","city":"KITAAKITA SHI","town":"ANI KOSAWAKOZAN","perfecture_jp":"秋田県","jp_add_1":"北秋田市","jp_add_2":"阿仁小沢鉱山"},"0184602":{"post_code":"0184602","prefecture":"AKITA KEN","city":"KITAAKITA SHI","town":"ANI KOBUCHI","perfecture_jp":"秋田県","jp_add_1":"北秋田市","jp_add_2":"阿仁小渕"},"0184604":{"post_code":"0184604","prefecture":"AKITA KEN","city":"KITAAKITA SHI","town":"ANI SAMMAIKOZAN","perfecture_jp":"秋田県","jp_add_1":"北秋田市","jp_add_2":"阿仁三枚鉱山"},"0184733":{"post_code":"0184733","prefecture":"AKITA KEN","city":"KITAAKITA SHI","town":"ANI TOTORINAI","perfecture_jp":"秋田県","jp_add_1":"北秋田市","jp_add_2":"阿仁戸鳥内"},"0184734":{"post_code":"0184734","prefecture":"AKITA KEN","city":"KITAAKITA SHI","town":"ANI NAGAHATAKE","perfecture_jp":"秋田県","jp_add_1":"北秋田市","jp_add_2":"阿仁長畑"},"0184732":{"post_code":"0184732","prefecture":"AKITA KEN","city":"KITAAKITA SHI","town":"ANI NAKAMURA","perfecture_jp":"秋田県","jp_add_1":"北秋田市","jp_add_2":"阿仁中村"},"0184744":{"post_code":"0184744","prefecture":"AKITA KEN","city":"KITAAKITA SHI","town":"ANI NEKKO","perfecture_jp":"秋田県","jp_add_1":"北秋田市","jp_add_2":"阿仁根子"},"0184735":{"post_code":"0184735","prefecture":"AKITA KEN","city":"KITAAKITA SHI","town":"ANI HITACHINAI","perfecture_jp":"秋田県","jp_add_1":"北秋田市","jp_add_2":"阿仁比立内"},"0184746":{"post_code":"0184746","prefecture":"AKITA KEN","city":"KITAAKITA SHI","town":"ANI FUSHIKAGE","perfecture_jp":"秋田県","jp_add_1":"北秋田市","jp_add_2":"阿仁伏影"},"0184515":{"post_code":"0184515","prefecture":"AKITA KEN","city":"KITAAKITA SHI","town":"ANI MAEDA","perfecture_jp":"秋田県","jp_add_1":"北秋田市","jp_add_2":"阿仁前田"},"0184612":{"post_code":"0184612","prefecture":"AKITA KEN","city":"KITAAKITA SHI","town":"ANI MAGISAWAKOZAN","perfecture_jp":"秋田県","jp_add_1":"北秋田市","jp_add_2":"阿仁真木沢鉱山"},"0184611":{"post_code":"0184611","prefecture":"AKITA KEN","city":"KITAAKITA SHI","town":"ANI MIZUNASHI","perfecture_jp":"秋田県","jp_add_1":"北秋田市","jp_add_2":"阿仁水無"},"0184601":{"post_code":"0184601","prefecture":"AKITA KEN","city":"KITAAKITA SHI","town":"ANI YOSHIDA","perfecture_jp":"秋田県","jp_add_1":"北秋田市","jp_add_2":"阿仁吉田"},"0183314":{"post_code":"0183314","prefecture":"AKITA KEN","city":"KITAAKITA SHI","town":"ISECHO","perfecture_jp":"秋田県","jp_add_1":"北秋田市","jp_add_2":"伊勢町"},"0183343":{"post_code":"0183343","prefecture":"AKITA KEN","city":"KITAAKITA SHI","town":"IMAIZUMI","perfecture_jp":"秋田県","jp_add_1":"北秋田市","jp_add_2":"今泉"},"0184302":{"post_code":"0184302","prefecture":"AKITA KEN","city":"KITAAKITA SHI","town":"URATA","perfecture_jp":"秋田県","jp_add_1":"北秋田市","jp_add_2":"浦田"},"0183324":{"post_code":"0183324","prefecture":"AKITA KEN","city":"KITAAKITA SHI","town":"OMACHI","perfecture_jp":"秋田県","jp_add_1":"北秋田市","jp_add_2":"大町"},"0184516":{"post_code":"0184516","prefecture":"AKITA KEN","city":"KITAAKITA SHI","town":"KATSURASE","perfecture_jp":"秋田県","jp_add_1":"北秋田市","jp_add_2":"桂瀬"},"0184251":{"post_code":"0184251","prefecture":"AKITA KEN","city":"KITAAKITA SHI","town":"KAMANOSAWA","perfecture_jp":"秋田県","jp_add_1":"北秋田市","jp_add_2":"鎌沢"},"0184231":{"post_code":"0184231","prefecture":"AKITA KEN","city":"KITAAKITA SHI","town":"KAMISUGI","perfecture_jp":"秋田県","jp_add_1":"北秋田市","jp_add_2":"上杉"},"0184211":{"post_code":"0184211","prefecture":"AKITA KEN","city":"KITAAKITA SHI","town":"KAWAI","perfecture_jp":"秋田県","jp_add_1":"北秋田市","jp_add_2":"川井"},"0184203":{"post_code":"0184203","prefecture":"AKITA KEN","city":"KITAAKITA SHI","town":"KIDOISHI","perfecture_jp":"秋田県","jp_add_1":"北秋田市","jp_add_2":"木戸石"},"0183341":{"post_code":"0183341","prefecture":"AKITA KEN","city":"KITAAKITA SHI","town":"KUROSAWA","perfecture_jp":"秋田県","jp_add_1":"北秋田市","jp_add_2":"黒沢"},"0184513":{"post_code":"0184513","prefecture":"AKITA KEN","city":"KITAAKITA SHI","town":"KOMATA","perfecture_jp":"秋田県","jp_add_1":"北秋田市","jp_add_2":"小又"},"0184514":{"post_code":"0184514","prefecture":"AKITA KEN","city":"KITAAKITA SHI","town":"GOMIHORI","perfecture_jp":"秋田県","jp_add_1":"北秋田市","jp_add_2":"五味堀"},"0183451":{"post_code":"0183451","prefecture":"AKITA KEN","city":"KITAAKITA SHI","town":"KOMORI","perfecture_jp":"秋田県","jp_add_1":"北秋田市","jp_add_2":"小森"},"0184273":{"post_code":"0184273","prefecture":"AKITA KEN","city":"KITAAKITA SHI","town":"KONDA","perfecture_jp":"秋田県","jp_add_1":"北秋田市","jp_add_2":"根田"},"0183311":{"post_code":"0183311","prefecture":"AKITA KEN","city":"KITAAKITA SHI","town":"ZAIMOKUCHO","perfecture_jp":"秋田県","jp_add_1":"北秋田市","jp_add_2":"材木町"},"0183302":{"post_code":"0183302","prefecture":"AKITA KEN","city":"KITAAKITA SHI","town":"SAKAE","perfecture_jp":"秋田県","jp_add_1":"北秋田市","jp_add_2":"栄"},"0184221":{"post_code":"0184221","prefecture":"AKITA KEN","city":"KITAAKITA SHI","town":"SHIMOSUGI","perfecture_jp":"秋田県","jp_add_1":"北秋田市","jp_add_2":"下杉"},"0183322":{"post_code":"0183322","prefecture":"AKITA KEN","city":"KITAAKITA SHI","town":"SUMIYOSHICHO","perfecture_jp":"秋田県","jp_add_1":"北秋田市","jp_add_2":"住吉町"},"0184282":{"post_code":"0184282","prefecture":"AKITA KEN","city":"KITAAKITA SHI","town":"SUMOMODAI","perfecture_jp":"秋田県","jp_add_1":"北秋田市","jp_add_2":"李岱"},"0184261":{"post_code":"0184261","prefecture":"AKITA KEN","city":"KITAAKITA SHI","town":"SERISAWA","perfecture_jp":"秋田県","jp_add_1":"北秋田市","jp_add_2":"芹沢"},"0183332":{"post_code":"0183332","prefecture":"AKITA KEN","city":"KITAAKITA SHI","town":"TAKANOSU(HIRASAKIKAMITAI)","perfecture_jp":"秋田県","jp_add_1":"北秋田市","jp_add_2":"鷹巣"},"0183331":{"post_code":"0183331","prefecture":"AKITA KEN","city":"KITAAKITA SHI","town":"TAKANOSU(SONOTA)","perfecture_jp":"秋田県","jp_add_1":"北秋田市","jp_add_2":"鷹巣"},"0183301":{"post_code":"0183301","prefecture":"AKITA KEN","city":"KITAAKITA SHI","town":"TSUZUREKO","perfecture_jp":"秋田県","jp_add_1":"北秋田市","jp_add_2":"綴子"},"0184241":{"post_code":"0184241","prefecture":"AKITA KEN","city":"KITAAKITA SHI","town":"DOJO","perfecture_jp":"秋田県","jp_add_1":"北秋田市","jp_add_2":"道城"},"0183453":{"post_code":"0183453","prefecture":"AKITA KEN","city":"KITAAKITA SHI","town":"NAKAYASHIKI","perfecture_jp":"秋田県","jp_add_1":"北秋田市","jp_add_2":"中屋敷"},"0183452":{"post_code":"0183452","prefecture":"AKITA KEN","city":"KITAAKITA SHI","town":"NANUKAICHI","perfecture_jp":"秋田県","jp_add_1":"北秋田市","jp_add_2":"七日市"},"0184272":{"post_code":"0184272","prefecture":"AKITA KEN","city":"KITAAKITA SHI","town":"NIIDAME","perfecture_jp":"秋田県","jp_add_1":"北秋田市","jp_add_2":"新田目"},"0184512":{"post_code":"0184512","prefecture":"AKITA KEN","city":"KITAAKITA SHI","town":"NEMORITA","perfecture_jp":"秋田県","jp_add_1":"北秋田市","jp_add_2":"根森田"},"0184202":{"post_code":"0184202","prefecture":"AKITA KEN","city":"KITAAKITA SHI","town":"HACHIMANTAISHINDEN","perfecture_jp":"秋田県","jp_add_1":"北秋田市","jp_add_2":"八幡岱新田"},"0183312":{"post_code":"0183312","prefecture":"AKITA KEN","city":"KITAAKITA SHI","town":"HANAZONOCHO","perfecture_jp":"秋田県","jp_add_1":"北秋田市","jp_add_2":"花園町"},"0184281":{"post_code":"0184281","prefecture":"AKITA KEN","city":"KITAAKITA SHI","town":"HANEYAMA","perfecture_jp":"秋田県","jp_add_1":"北秋田市","jp_add_2":"羽根山"},"0183316":{"post_code":"0183316","prefecture":"AKITA KEN","city":"KITAAKITA SHI","town":"HIGASHIYOKOMACHI","perfecture_jp":"秋田県","jp_add_1":"北秋田市","jp_add_2":"東横町"},"0184271":{"post_code":"0184271","prefecture":"AKITA KEN","city":"KITAAKITA SHI","town":"FUKUDA","perfecture_jp":"秋田県","jp_add_1":"北秋田市","jp_add_2":"福田"},"0183333":{"post_code":"0183333","prefecture":"AKITA KEN","city":"KITAAKITA SHI","town":"BOZAWA","perfecture_jp":"秋田県","jp_add_1":"北秋田市","jp_add_2":"坊沢"},"0184303":{"post_code":"0184303","prefecture":"AKITA KEN","city":"KITAAKITA SHI","town":"HONJO","perfecture_jp":"秋田県","jp_add_1":"北秋田市","jp_add_2":"本城"},"0183342":{"post_code":"0183342","prefecture":"AKITA KEN","city":"KITAAKITA SHI","town":"MAEYAMA","perfecture_jp":"秋田県","jp_add_1":"北秋田市","jp_add_2":"前山"},"0184201":{"post_code":"0184201","prefecture":"AKITA KEN","city":"KITAAKITA SHI","town":"MASUZAWA","perfecture_jp":"秋田県","jp_add_1":"北秋田市","jp_add_2":"増沢"},"0183321":{"post_code":"0183321","prefecture":"AKITA KEN","city":"KITAAKITA SHI","town":"MATSUBACHO","perfecture_jp":"秋田県","jp_add_1":"北秋田市","jp_add_2":"松葉町"},"0184263":{"post_code":"0184263","prefecture":"AKITA KEN","city":"KITAAKITA SHI","town":"MITSUKITA","perfecture_jp":"秋田県","jp_add_1":"北秋田市","jp_add_2":"三木田"},"0184262":{"post_code":"0184262","prefecture":"AKITA KEN","city":"KITAAKITA SHI","town":"MISSATO","perfecture_jp":"秋田県","jp_add_1":"北秋田市","jp_add_2":"三里"},"0183315":{"post_code":"0183315","prefecture":"AKITA KEN","city":"KITAAKITA SHI","town":"MIYAMAECHO","perfecture_jp":"秋田県","jp_add_1":"北秋田市","jp_add_2":"宮前町"},"0183325":{"post_code":"0183325","prefecture":"AKITA KEN","city":"KITAAKITA SHI","town":"MOTOMACHI","perfecture_jp":"秋田県","jp_add_1":"北秋田市","jp_add_2":"元町"},"0184511":{"post_code":"0184511","prefecture":"AKITA KEN","city":"KITAAKITA SHI","town":"MORIYOSHI","perfecture_jp":"秋田県","jp_add_1":"北秋田市","jp_add_2":"森吉"},"0184301":{"post_code":"0184301","prefecture":"AKITA KEN","city":"KITAAKITA SHI","town":"YONAIZAWA","perfecture_jp":"秋田県","jp_add_1":"北秋田市","jp_add_2":"米内沢"},"0183323":{"post_code":"0183323","prefecture":"AKITA KEN","city":"KITAAKITA SHI","town":"YONESHIROCHO","perfecture_jp":"秋田県","jp_add_1":"北秋田市","jp_add_2":"米代町"},"0183454":{"post_code":"0183454","prefecture":"AKITA KEN","city":"KITAAKITA SHI","town":"WAKIGAMI","perfecture_jp":"秋田県","jp_add_1":"北秋田市","jp_add_2":"脇神"},"0180400":{"post_code":"0180400","prefecture":"AKITA KEN","city":"NIKAHO SHI","town":"IKANIKEISAIGANAIBAAI","perfecture_jp":"秋田県","jp_add_1":"にかほ市","jp_add_2":""},"0180431":{"post_code":"0180431","prefecture":"AKITA KEN","city":"NIKAHO SHI","town":"ISEIJI","perfecture_jp":"秋田県","jp_add_1":"にかほ市","jp_add_2":"伊勢居地"},"0180411":{"post_code":"0180411","prefecture":"AKITA KEN","city":"NIKAHO SHI","town":"INNAI","perfecture_jp":"秋田県","jp_add_1":"にかほ市","jp_add_2":"院内"},"0180322":{"post_code":"0180322","prefecture":"AKITA KEN","city":"NIKAHO SHI","town":"OTAKE","perfecture_jp":"秋田県","jp_add_1":"にかほ市","jp_add_2":"大竹"},"0180412":{"post_code":"0180412","prefecture":"AKITA KEN","city":"NIKAHO SHI","town":"OGUNI","perfecture_jp":"秋田県","jp_add_1":"にかほ市","jp_add_2":"小国"},"0180421":{"post_code":"0180421","prefecture":"AKITA KEN","city":"NIKAHO SHI","town":"KAMAGATAI","perfecture_jp":"秋田県","jp_add_1":"にかほ市","jp_add_2":"釜ケ台"},"0180126":{"post_code":"0180126","prefecture":"AKITA KEN","city":"NIKAHO SHI","town":"KISAKATAMACHI 1-CHOMESHIOKOSHI","perfecture_jp":"秋田県","jp_add_1":"にかほ市","jp_add_2":"象潟町１丁目塩越"},"0180118":{"post_code":"0180118","prefecture":"AKITA KEN","city":"NIKAHO SHI","town":"KISAKATAMACHI 2-CHOMESHIOKOSHI","perfecture_jp":"秋田県","jp_add_1":"にかほ市","jp_add_2":"象潟町２丁目塩越"},"0180119":{"post_code":"0180119","prefecture":"AKITA KEN","city":"NIKAHO SHI","town":"KISAKATAMACHI 3-CHOMESHIOKOSHI","perfecture_jp":"秋田県","jp_add_1":"にかほ市","jp_add_2":"象潟町３丁目塩越"},"0180116":{"post_code":"0180116","prefecture":"AKITA KEN","city":"NIKAHO SHI","town":"KISAKATAMACHI 4-CHOMESHIOKOSHI","perfecture_jp":"秋田県","jp_add_1":"にかほ市","jp_add_2":"象潟町４丁目塩越"},"0180106":{"post_code":"0180106","prefecture":"AKITA KEN","city":"NIKAHO SHI","town":"KISAKATAMACHI 5-CHOMESHIOKOSHI","perfecture_jp":"秋田県","jp_add_1":"にかほ市","jp_add_2":"象潟町５丁目塩越"},"0180135":{"post_code":"0180135","prefecture":"AKITA KEN","city":"NIKAHO SHI","town":"KISAKATAMACHI ARAIGAMA","perfecture_jp":"秋田県","jp_add_1":"にかほ市","jp_add_2":"象潟町洗釜"},"0180107":{"post_code":"0180107","prefecture":"AKITA KEN","city":"NIKAHO SHI","town":"KISAKATAMACHI ARAYASHITA","perfecture_jp":"秋田県","jp_add_1":"にかほ市","jp_add_2":"象潟町荒屋下"},"0180105":{"post_code":"0180105","prefecture":"AKITA KEN","city":"NIKAHO SHI","town":"KISAKATAMACHI ARAYAZUMA","perfecture_jp":"秋田県","jp_add_1":"にかほ市","jp_add_2":"象潟町荒屋妻"},"0180112":{"post_code":"0180112","prefecture":"AKITA KEN","city":"NIKAHO SHI","town":"KISAKATAMACHI IENOSHIRO","perfecture_jp":"秋田県","jp_add_1":"にかほ市","jp_add_2":"象潟町家の後"},"0180108":{"post_code":"0180108","prefecture":"AKITA KEN","city":"NIKAHO SHI","town":"KISAKATAMACHI IRIKONOMA","perfecture_jp":"秋田県","jp_add_1":"にかほ市","jp_add_2":"象潟町入湖の澗"},"0180115":{"post_code":"0180115","prefecture":"AKITA KEN","city":"NIKAHO SHI","town":"KISAKATAMACHI USHIRODA","perfecture_jp":"秋田県","jp_add_1":"にかほ市","jp_add_2":"象潟町後田"},"0180136":{"post_code":"0180136","prefecture":"AKITA KEN","city":"NIKAHO SHI","town":"KISAKATAMACHI OSAGAWA","perfecture_jp":"秋田県","jp_add_1":"にかほ市","jp_add_2":"象潟町大砂川"},"0180121":{"post_code":"0180121","prefecture":"AKITA KEN","city":"NIKAHO SHI","town":"KISAKATAMACHI OSHIOKOSHI","perfecture_jp":"秋田県","jp_add_1":"にかほ市","jp_add_2":"象潟町大塩越"},"0180142":{"post_code":"0180142","prefecture":"AKITA KEN","city":"NIKAHO SHI","town":"KISAKATAMACHI OSUGO","perfecture_jp":"秋田県","jp_add_1":"にかほ市","jp_add_2":"象潟町大須郷"},"0180162":{"post_code":"0180162","prefecture":"AKITA KEN","city":"NIKAHO SHI","town":"KISAKATAMACHI OMORI","perfecture_jp":"秋田県","jp_add_1":"にかほ市","jp_add_2":"象潟町大森"},"0180131":{"post_code":"0180131","prefecture":"AKITA KEN","city":"NIKAHO SHI","town":"KISAKATAMACHI OYACHI","perfecture_jp":"秋田県","jp_add_1":"にかほ市","jp_add_2":"象潟町大谷地"},"0180114":{"post_code":"0180114","prefecture":"AKITA KEN","city":"NIKAHO SHI","town":"KISAKATAMACHI OKINOTA","perfecture_jp":"秋田県","jp_add_1":"にかほ市","jp_add_2":"象潟町沖の田"},"0180146":{"post_code":"0180146","prefecture":"AKITA KEN","city":"NIKAHO SHI","town":"KISAKATAMACHI KABAYACHI","perfecture_jp":"秋田県","jp_add_1":"にかほ市","jp_add_2":"象潟町蒲谷池"},"0180103":{"post_code":"0180103","prefecture":"AKITA KEN","city":"NIKAHO SHI","town":"KISAKATAMACHI KAMIKITSUNEMORI","perfecture_jp":"秋田県","jp_add_1":"にかほ市","jp_add_2":"象潟町上狐森"},"0180184":{"post_code":"0180184","prefecture":"AKITA KEN","city":"NIKAHO SHI","town":"KISAKATAMACHI KAMIKOSAKA","perfecture_jp":"秋田県","jp_add_1":"にかほ市","jp_add_2":"象潟町上小坂"},"0180188":{"post_code":"0180188","prefecture":"AKITA KEN","city":"NIKAHO SHI","town":"KISAKATAMACHI KARASUJIMA","perfecture_jp":"秋田県","jp_add_1":"にかほ市","jp_add_2":"象潟町烏島"},"0180141":{"post_code":"0180141","prefecture":"AKITA KEN","city":"NIKAHO SHI","town":"KISAKATAMACHI KAWAFUKURO","perfecture_jp":"秋田県","jp_add_1":"にかほ市","jp_add_2":"象潟町川袋"},"0180109":{"post_code":"0180109","prefecture":"AKITA KEN","city":"NIKAHO SHI","town":"KISAKATAMACHI KAMMURIISHISHITA","perfecture_jp":"秋田県","jp_add_1":"にかほ市","jp_add_2":"象潟町冠石下"},"0180122":{"post_code":"0180122","prefecture":"AKITA KEN","city":"NIKAHO SHI","town":"KISAKATAMACHI KISAKATAJIMA","perfecture_jp":"秋田県","jp_add_1":"にかほ市","jp_add_2":"象潟町象潟島"},"0180104":{"post_code":"0180104","prefecture":"AKITA KEN","city":"NIKAHO SHI","town":"KISAKATAMACHI KITSUNEMORI","perfecture_jp":"秋田県","jp_add_1":"にかほ市","jp_add_2":"象潟町狐森"},"0180102":{"post_code":"0180102","prefecture":"AKITA KEN","city":"NIKAHO SHI","town":"KISAKATAMACHI KIDOGUCHI","perfecture_jp":"秋田県","jp_add_1":"にかほ市","jp_add_2":"象潟町木戸口"},"0180145":{"post_code":"0180145","prefecture":"AKITA KEN","city":"NIKAHO SHI","town":"KISAKATAMACHI GENZOGATA","perfecture_jp":"秋田県","jp_add_1":"にかほ市","jp_add_2":"象潟町源蔵潟"},"0180187":{"post_code":"0180187","prefecture":"AKITA KEN","city":"NIKAHO SHI","town":"KISAKATAMACHI KOGARASUJIMA","perfecture_jp":"秋田県","jp_add_1":"にかほ市","jp_add_2":"象潟町小烏島"},"0180172":{"post_code":"0180172","prefecture":"AKITA KEN","city":"NIKAHO SHI","town":"KISAKATAMACHI KOSAINOKAMI","perfecture_jp":"秋田県","jp_add_1":"にかほ市","jp_add_2":"象潟町小才の神"},"0180183":{"post_code":"0180183","prefecture":"AKITA KEN","city":"NIKAHO SHI","town":"KISAKATAMACHI KOSAKA","perfecture_jp":"秋田県","jp_add_1":"にかほ市","jp_add_2":"象潟町小坂"},"0180143":{"post_code":"0180143","prefecture":"AKITA KEN","city":"NIKAHO SHI","town":"KISAKATAMACHI KOSAGAWA","perfecture_jp":"秋田県","jp_add_1":"にかほ市","jp_add_2":"象潟町小砂川"},"0180153":{"post_code":"0180153","prefecture":"AKITA KEN","city":"NIKAHO SHI","town":"KISAKATAMACHI KODAKI","perfecture_jp":"秋田県","jp_add_1":"にかほ市","jp_add_2":"象潟町小滝"},"0180158":{"post_code":"0180158","prefecture":"AKITA KEN","city":"NIKAHO SHI","town":"KISAKATAMACHI KOTOWAKI","perfecture_jp":"秋田県","jp_add_1":"にかほ市","jp_add_2":"象潟町琴和喜"},"0180129":{"post_code":"0180129","prefecture":"AKITA KEN","city":"NIKAHO SHI","town":"KISAKATAMACHI SAINOKAMI","perfecture_jp":"秋田県","jp_add_1":"にかほ市","jp_add_2":"象潟町才の神"},"0180175":{"post_code":"0180175","prefecture":"AKITA KEN","city":"NIKAHO SHI","town":"KISAKATAMACHI SAKANOSHITA","perfecture_jp":"秋田県","jp_add_1":"にかほ市","jp_add_2":"象潟町坂の下"},"0180148":{"post_code":"0180148","prefecture":"AKITA KEN","city":"NIKAHO SHI","town":"KISAKATAMACHI SHIMOHAMAYAMA","perfecture_jp":"秋田県","jp_add_1":"にかほ市","jp_add_2":"象潟町下浜山"},"0180181":{"post_code":"0180181","prefecture":"AKITA KEN","city":"NIKAHO SHI","town":"KISAKATAMACHI SHIRAYAMADO","perfecture_jp":"秋田県","jp_add_1":"にかほ市","jp_add_2":"象潟町白山堂"},"0180133":{"post_code":"0180133","prefecture":"AKITA KEN","city":"NIKAHO SHI","town":"KISAKATAMACHI SEKI","perfecture_jp":"秋田県","jp_add_1":"にかほ市","jp_add_2":"象潟町関"},"0180161":{"post_code":"0180161","prefecture":"AKITA KEN","city":"NIKAHO SHI","town":"KISAKATAMACHI DAIHANGO","perfecture_jp":"秋田県","jp_add_1":"にかほ市","jp_add_2":"象潟町大飯郷"},"0180156":{"post_code":"0180156","prefecture":"AKITA KEN","city":"NIKAHO SHI","town":"KISAKATAMACHI DAIMONZAKI","perfecture_jp":"秋田県","jp_add_1":"にかほ市","jp_add_2":"象潟町大門先"},"0180166":{"post_code":"0180166","prefecture":"AKITA KEN","city":"NIKAHO SHI","town":"KISAKATAMACHI TAKADA","perfecture_jp":"秋田県","jp_add_1":"にかほ市","jp_add_2":"象潟町高田"},"0180157":{"post_code":"0180157","prefecture":"AKITA KEN","city":"NIKAHO SHI","town":"KISAKATAMACHI TAKAHANASHI","perfecture_jp":"秋田県","jp_add_1":"にかほ市","jp_add_2":"象潟町鷹放"},"0180147":{"post_code":"0180147","prefecture":"AKITA KEN","city":"NIKAHO SHI","town":"KISAKATAMACHI TATEISHI","perfecture_jp":"秋田県","jp_add_1":"にかほ市","jp_add_2":"象潟町立石"},"0180165":{"post_code":"0180165","prefecture":"AKITA KEN","city":"NIKAHO SHI","town":"KISAKATAMACHI TANUKIMORI","perfecture_jp":"秋田県","jp_add_1":"にかほ市","jp_add_2":"象潟町狸森"},"0180167":{"post_code":"0180167","prefecture":"AKITA KEN","city":"NIKAHO SHI","town":"KISAKATAMACHI TANOKAMI","perfecture_jp":"秋田県","jp_add_1":"にかほ市","jp_add_2":"象潟町田の神"},"0180128":{"post_code":"0180128","prefecture":"AKITA KEN","city":"NIKAHO SHI","town":"KISAKATAMACHI TAROJIMA","perfecture_jp":"秋田県","jp_add_1":"にかほ市","jp_add_2":"象潟町太郎島"},"0180171":{"post_code":"0180171","prefecture":"AKITA KEN","city":"NIKAHO SHI","town":"KISAKATAMACHI TSUZUKIJIMA","perfecture_jp":"秋田県","jp_add_1":"にかほ市","jp_add_2":"象潟町続島"},"0180132":{"post_code":"0180132","prefecture":"AKITA KEN","city":"NIKAHO SHI","town":"KISAKATAMACHI TORINOMI","perfecture_jp":"秋田県","jp_add_1":"にかほ市","jp_add_2":"象潟町鳥の海"},"0180163":{"post_code":"0180163","prefecture":"AKITA KEN","city":"NIKAHO SHI","town":"KISAKATAMACHI NAGAOKA","perfecture_jp":"秋田県","jp_add_1":"にかほ市","jp_add_2":"象潟町長岡"},"0180127":{"post_code":"0180127","prefecture":"AKITA KEN","city":"NIKAHO SHI","town":"KISAKATAMACHI NAKABASHIMACHI","perfecture_jp":"秋田県","jp_add_1":"にかほ市","jp_add_2":"象潟町中橋町"},"0180144":{"post_code":"0180144","prefecture":"AKITA KEN","city":"NIKAHO SHI","town":"KISAKATAMACHI NAKAYACHI","perfecture_jp":"秋田県","jp_add_1":"にかほ市","jp_add_2":"象潟町中谷地"},"0180154":{"post_code":"0180154","prefecture":"AKITA KEN","city":"NIKAHO SHI","town":"KISAKATAMACHI NIKAIYACHI","perfecture_jp":"秋田県","jp_add_1":"にかほ市","jp_add_2":"象潟町二階谷地"},"0180134":{"post_code":"0180134","prefecture":"AKITA KEN","city":"NIKAHO SHI","town":"KISAKATAMACHI NISHINAKANOSAWA","perfecture_jp":"秋田県","jp_add_1":"にかほ市","jp_add_2":"象潟町西中野沢"},"0180125":{"post_code":"0180125","prefecture":"AKITA KEN","city":"NIKAHO SHI","town":"KISAKATAMACHI NINOMARU","perfecture_jp":"秋田県","jp_add_1":"にかほ市","jp_add_2":"象潟町二の丸"},"0180124":{"post_code":"0180124","prefecture":"AKITA KEN","city":"NIKAHO SHI","town":"KISAKATAMACHI NYUDOJIMA","perfecture_jp":"秋田県","jp_add_1":"にかほ市","jp_add_2":"象潟町入道島"},"0180186":{"post_code":"0180186","prefecture":"AKITA KEN","city":"NIKAHO SHI","town":"KISAKATAMACHI NOINJIMA","perfecture_jp":"秋田県","jp_add_1":"にかほ市","jp_add_2":"象潟町能因島"},"0180113":{"post_code":"0180113","prefecture":"AKITA KEN","city":"NIKAHO SHI","town":"KISAKATAMACHI HAMANOTA","perfecture_jp":"秋田県","jp_add_1":"にかほ市","jp_add_2":"象潟町浜の田"},"0180117":{"post_code":"0180117","prefecture":"AKITA KEN","city":"NIKAHO SHI","town":"KISAKATAMACHI HAMAHATA","perfecture_jp":"秋田県","jp_add_1":"にかほ市","jp_add_2":"象潟町浜畑"},"0180101":{"post_code":"0180101","prefecture":"AKITA KEN","city":"NIKAHO SHI","town":"KISAKATAMACHI HAMAYAMA","perfecture_jp":"秋田県","jp_add_1":"にかほ市","jp_add_2":"象潟町浜山"},"0180174":{"post_code":"0180174","prefecture":"AKITA KEN","city":"NIKAHO SHI","town":"KISAKATAMACHI HAYASHINOSHITA","perfecture_jp":"秋田県","jp_add_1":"にかほ市","jp_add_2":"象潟町林の下"},"0180182":{"post_code":"0180182","prefecture":"AKITA KEN","city":"NIKAHO SHI","town":"KISAKATAMACHI FUDOSAWA","perfecture_jp":"秋田県","jp_add_1":"にかほ市","jp_add_2":"象潟町不動沢"},"0180111":{"post_code":"0180111","prefecture":"AKITA KEN","city":"NIKAHO SHI","town":"KISAKATAMACHI BUDOJIMA","perfecture_jp":"秋田県","jp_add_1":"にかほ市","jp_add_2":"象潟町武道島"},"0180155":{"post_code":"0180155","prefecture":"AKITA KEN","city":"NIKAHO SHI","town":"KISAKATAMACHI BENTENJIMA","perfecture_jp":"秋田県","jp_add_1":"にかほ市","jp_add_2":"象潟町弁天島"},"0180152":{"post_code":"0180152","prefecture":"AKITA KEN","city":"NIKAHO SHI","town":"KISAKATAMACHI HONGO","perfecture_jp":"秋田県","jp_add_1":"にかほ市","jp_add_2":"象潟町本郷"},"0180164":{"post_code":"0180164","prefecture":"AKITA KEN","city":"NIKAHO SHI","town":"KISAKATAMACHI MARUYAMA","perfecture_jp":"秋田県","jp_add_1":"にかほ市","jp_add_2":"象潟町丸山"},"0180123":{"post_code":"0180123","prefecture":"AKITA KEN","city":"NIKAHO SHI","town":"KISAKATAMACHI MYOKENSHITA","perfecture_jp":"秋田県","jp_add_1":"にかほ市","jp_add_2":"象潟町妙見下"},"0180185":{"post_code":"0180185","prefecture":"AKITA KEN","city":"NIKAHO SHI","town":"KISAKATAMACHI YASHIKIDA","perfecture_jp":"秋田県","jp_add_1":"にかほ市","jp_add_2":"象潟町屋敷田"},"0180151":{"post_code":"0180151","prefecture":"AKITA KEN","city":"NIKAHO SHI","town":"KISAKATAMACHI YOKOKA","perfecture_jp":"秋田県","jp_add_1":"にかほ市","jp_add_2":"象潟町横岡"},"0180176":{"post_code":"0180176","prefecture":"AKITA KEN","city":"NIKAHO SHI","town":"KISAKATAMACHI YOKOYAMA","perfecture_jp":"秋田県","jp_add_1":"にかほ市","jp_add_2":"象潟町横山"},"0180173":{"post_code":"0180173","prefecture":"AKITA KEN","city":"NIKAHO SHI","town":"KISAKATAMACHI YOSUMIIKE","perfecture_jp":"秋田県","jp_add_1":"にかほ市","jp_add_2":"象潟町四隅池"},"0180302":{"post_code":"0180302","prefecture":"AKITA KEN","city":"NIKAHO SHI","town":"KUROKAWA","perfecture_jp":"秋田県","jp_add_1":"にかほ市","jp_add_2":"黒川"},"0180311":{"post_code":"0180311","prefecture":"AKITA KEN","city":"NIKAHO SHI","town":"KONORA","perfecture_jp":"秋田県","jp_add_1":"にかほ市","jp_add_2":"金浦"},"0180404":{"post_code":"0180404","prefecture":"AKITA KEN","city":"NIKAHO SHI","town":"SERIDA","perfecture_jp":"秋田県","jp_add_1":"にかほ市","jp_add_2":"芹田"},"0180414":{"post_code":"0180414","prefecture":"AKITA KEN","city":"NIKAHO SHI","town":"TAZUKAMI","perfecture_jp":"秋田県","jp_add_1":"にかほ市","jp_add_2":"田抓"},"0180434":{"post_code":"0180434","prefecture":"AKITA KEN","city":"NIKAHO SHI","town":"TERADA","perfecture_jp":"秋田県","jp_add_1":"にかほ市","jp_add_2":"寺田"},"0180422":{"post_code":"0180422","prefecture":"AKITA KEN","city":"NIKAHO SHI","town":"TOSHI","perfecture_jp":"秋田県","jp_add_1":"にかほ市","jp_add_2":"冬師"},"0180301":{"post_code":"0180301","prefecture":"AKITA KEN","city":"NIKAHO SHI","town":"TOBI","perfecture_jp":"秋田県","jp_add_1":"にかほ市","jp_add_2":"飛"},"0180435":{"post_code":"0180435","prefecture":"AKITA KEN","city":"NIKAHO SHI","town":"NAKASANCHI","perfecture_jp":"秋田県","jp_add_1":"にかほ市","jp_add_2":"中三地"},"0180433":{"post_code":"0180433","prefecture":"AKITA KEN","city":"NIKAHO SHI","town":"HATA","perfecture_jp":"秋田県","jp_add_1":"にかほ市","jp_add_2":"畑"},"0180413":{"post_code":"0180413","prefecture":"AKITA KEN","city":"NIKAHO SHI","town":"BABA","perfecture_jp":"秋田県","jp_add_1":"にかほ市","jp_add_2":"馬場"},"0180436":{"post_code":"0180436","prefecture":"AKITA KEN","city":"NIKAHO SHI","town":"HIMENO","perfecture_jp":"秋田県","jp_add_1":"にかほ市","jp_add_2":"樋目野"},"0180402":{"post_code":"0180402","prefecture":"AKITA KEN","city":"NIKAHO SHI","town":"HIRASAWA","perfecture_jp":"秋田県","jp_add_1":"にかほ市","jp_add_2":"平沢"},"0180321":{"post_code":"0180321","prefecture":"AKITA KEN","city":"NIKAHO SHI","town":"MAEKAWA","perfecture_jp":"秋田県","jp_add_1":"にかほ市","jp_add_2":"前川"},"0180432":{"post_code":"0180432","prefecture":"AKITA KEN","city":"NIKAHO SHI","town":"MIZUSAWA","perfecture_jp":"秋田県","jp_add_1":"にかほ市","jp_add_2":"水沢"},"0180403":{"post_code":"0180403","prefecture":"AKITA KEN","city":"NIKAHO SHI","town":"MITSUMORI","perfecture_jp":"秋田県","jp_add_1":"にかほ市","jp_add_2":"三森"},"0180401":{"post_code":"0180401","prefecture":"AKITA KEN","city":"NIKAHO SHI","town":"RYOZENJI","perfecture_jp":"秋田県","jp_add_1":"にかほ市","jp_add_2":"両前寺"},"0185511":{"post_code":"0185511","prefecture":"AKITA KEN","city":"KAZUNO GUN KOSAKA MACHI","town":"TOWADAKO","perfecture_jp":"秋田県","jp_add_1":"鹿角郡小坂町","jp_add_2":"十和田湖"},"0184400":{"post_code":"0184400","prefecture":"AKITA KEN","city":"KITAAKITA GUN KAMIKOANI MURA","town":"IKANIKEISAIGANAIBAAI","perfecture_jp":"秋田県","jp_add_1":"北秋田郡上小阿仁村","jp_add_2":""},"0184431":{"post_code":"0184431","prefecture":"AKITA KEN","city":"KITAAKITA GUN KAMIKOANI MURA","town":"OBAYASHI","perfecture_jp":"秋田県","jp_add_1":"北秋田郡上小阿仁村","jp_add_2":"大林"},"0184401":{"post_code":"0184401","prefecture":"AKITA KEN","city":"KITAAKITA GUN KAMIKOANI MURA","town":"OKITAOMOTE","perfecture_jp":"秋田県","jp_add_1":"北秋田郡上小阿仁村","jp_add_2":"沖田面"},"0184421":{"post_code":"0184421","prefecture":"AKITA KEN","city":"KITAAKITA GUN KAMIKOANI MURA","town":"KOSAWADA","perfecture_jp":"秋田県","jp_add_1":"北秋田郡上小阿仁村","jp_add_2":"小沢田"},"0184412":{"post_code":"0184412","prefecture":"AKITA KEN","city":"KITAAKITA GUN KAMIKOANI MURA","town":"GOTANZAWA","perfecture_jp":"秋田県","jp_add_1":"北秋田郡上小阿仁村","jp_add_2":"五反沢"},"0184413":{"post_code":"0184413","prefecture":"AKITA KEN","city":"KITAAKITA GUN KAMIKOANI MURA","town":"SUGIHANA","perfecture_jp":"秋田県","jp_add_1":"北秋田郡上小阿仁村","jp_add_2":"杉花"},"0184422":{"post_code":"0184422","prefecture":"AKITA KEN","city":"KITAAKITA GUN KAMIKOANI MURA","town":"DOGAWA","perfecture_jp":"秋田県","jp_add_1":"北秋田郡上小阿仁村","jp_add_2":"堂川"},"0184411":{"post_code":"0184411","prefecture":"AKITA KEN","city":"KITAAKITA GUN KAMIKOANI MURA","town":"FUKUDATE","perfecture_jp":"秋田県","jp_add_1":"北秋田郡上小阿仁村","jp_add_2":"福舘"},"0184423":{"post_code":"0184423","prefecture":"AKITA KEN","city":"KITAAKITA GUN KAMIKOANI MURA","town":"BUSSHA","perfecture_jp":"秋田県","jp_add_1":"北秋田郡上小阿仁村","jp_add_2":"仏社"},"0184432":{"post_code":"0184432","prefecture":"AKITA KEN","city":"KITAAKITA GUN KAMIKOANI MURA","town":"MINAMIZAWA","perfecture_jp":"秋田県","jp_add_1":"北秋田郡上小阿仁村","jp_add_2":"南沢"},"0183200":{"post_code":"0183200","prefecture":"AKITA KEN","city":"YAMAMOTO GUN FUJISATO MACHI","town":"IKANIKEISAIGANAIBAAI","perfecture_jp":"秋田県","jp_add_1":"山本郡藤里町","jp_add_2":""},"0183203":{"post_code":"0183203","prefecture":"AKITA KEN","city":"YAMAMOTO GUN FUJISATO MACHI","town":"OSAWA","perfecture_jp":"秋田県","jp_add_1":"山本郡藤里町","jp_add_2":"大沢"},"0183205":{"post_code":"0183205","prefecture":"AKITA KEN","city":"YAMAMOTO GUN FUJISATO MACHI","town":"KASUGE","perfecture_jp":"秋田県","jp_add_1":"山本郡藤里町","jp_add_2":"粕毛"},"0183202":{"post_code":"0183202","prefecture":"AKITA KEN","city":"YAMAMOTO GUN FUJISATO MACHI","town":"DAIRA","perfecture_jp":"秋田県","jp_add_1":"山本郡藤里町","jp_add_2":"太良"},"0183201":{"post_code":"0183201","prefecture":"AKITA KEN","city":"YAMAMOTO GUN FUJISATO MACHI","town":"FUJIKOTO","perfecture_jp":"秋田県","jp_add_1":"山本郡藤里町","jp_add_2":"藤琴"},"0183204":{"post_code":"0183204","prefecture":"AKITA KEN","city":"YAMAMOTO GUN FUJISATO MACHI","town":"YASAKA","perfecture_jp":"秋田県","jp_add_1":"山本郡藤里町","jp_add_2":"矢坂"},"0182400":{"post_code":"0182400","prefecture":"AKITA KEN","city":"YAMAMOTO GUN MITANE CHO","town":"IKANIKEISAIGANAIBAAI","perfecture_jp":"秋田県","jp_add_1":"山本郡三種町","jp_add_2":""},"0182405":{"post_code":"0182405","prefecture":"AKITA KEN","city":"YAMAMOTO GUN MITANE CHO","town":"ASHIZAKI","perfecture_jp":"秋田県","jp_add_1":"山本郡三種町","jp_add_2":"芦崎"},"0182102":{"post_code":"0182102","prefecture":"AKITA KEN","city":"YAMAMOTO GUN MITANE CHO","town":"AMASEGAWA","perfecture_jp":"秋田県","jp_add_1":"山本郡三種町","jp_add_2":"天瀬川"},"0182401":{"post_code":"0182401","prefecture":"AKITA KEN","city":"YAMAMOTO GUN MITANE CHO","town":"UKAWA","perfecture_jp":"秋田県","jp_add_1":"山本郡三種町","jp_add_2":"鵜川"},"0182406":{"post_code":"0182406","prefecture":"AKITA KEN","city":"YAMAMOTO GUN MITANE CHO","town":"OKUCHI","perfecture_jp":"秋田県","jp_add_1":"山本郡三種町","jp_add_2":"大口"},"0182104":{"post_code":"0182104","prefecture":"AKITA KEN","city":"YAMAMOTO GUN MITANE CHO","town":"KADO","perfecture_jp":"秋田県","jp_add_1":"山本郡三種町","jp_add_2":"鹿渡"},"0182101":{"post_code":"0182101","prefecture":"AKITA KEN","city":"YAMAMOTO GUN MITANE CHO","town":"KAMIIWAKAWA","perfecture_jp":"秋田県","jp_add_1":"山本郡三種町","jp_add_2":"上岩川"},"0182402":{"post_code":"0182402","prefecture":"AKITA KEN","city":"YAMAMOTO GUN MITANE CHO","town":"KAWASHIRI","perfecture_jp":"秋田県","jp_add_1":"山本郡三種町","jp_add_2":"川尻"},"0182403":{"post_code":"0182403","prefecture":"AKITA KEN","city":"YAMAMOTO GUN MITANE CHO","town":"KUMEOKASHINDEN","perfecture_jp":"秋田県","jp_add_1":"山本郡三種町","jp_add_2":"久米岡新田"},"0182103":{"post_code":"0182103","prefecture":"AKITA KEN","city":"YAMAMOTO GUN MITANE CHO","town":"KOIKAWA","perfecture_jp":"秋田県","jp_add_1":"山本郡三種町","jp_add_2":"鯉川"},"0182301":{"post_code":"0182301","prefecture":"AKITA KEN","city":"YAMAMOTO GUN MITANE CHO","town":"SHITOBASHI","perfecture_jp":"秋田県","jp_add_1":"山本郡三種町","jp_add_2":"志戸橋"},"0182302":{"post_code":"0182302","prefecture":"AKITA KEN","city":"YAMAMOTO GUN MITANE CHO","town":"SHIMOIWAKAWA","perfecture_jp":"秋田県","jp_add_1":"山本郡三種町","jp_add_2":"下岩川"},"0182305":{"post_code":"0182305","prefecture":"AKITA KEN","city":"YAMAMOTO GUN MITANE CHO","town":"SOTOKA","perfecture_jp":"秋田県","jp_add_1":"山本郡三種町","jp_add_2":"外岡"},"0182404":{"post_code":"0182404","prefecture":"AKITA KEN","city":"YAMAMOTO GUN MITANE CHO","town":"TOMIOKASHINDEN","perfecture_jp":"秋田県","jp_add_1":"山本郡三種町","jp_add_2":"富岡新田"},"0182304":{"post_code":"0182304","prefecture":"AKITA KEN","city":"YAMAMOTO GUN MITANE CHO","town":"TOYOKAKINDEN","perfecture_jp":"秋田県","jp_add_1":"山本郡三種町","jp_add_2":"豊岡金田"},"0182407":{"post_code":"0182407","prefecture":"AKITA KEN","city":"YAMAMOTO GUN MITANE CHO","town":"HAMADA","perfecture_jp":"秋田県","jp_add_1":"山本郡三種町","jp_add_2":"浜田"},"0182303":{"post_code":"0182303","prefecture":"AKITA KEN","city":"YAMAMOTO GUN MITANE CHO","town":"MORITAKE","perfecture_jp":"秋田県","jp_add_1":"山本郡三種町","jp_add_2":"森岳"},"0182500":{"post_code":"0182500","prefecture":"AKITA KEN","city":"YAMAMOTO GUN HAPPO CHO","town":"IKANIKEISAIGANAIBAAI","perfecture_jp":"秋田県","jp_add_1":"山本郡八峰町","jp_add_2":""},"0182637":{"post_code":"0182637","prefecture":"AKITA KEN","city":"YAMAMOTO GUN HAPPO CHO","town":"HACHIMORI IENOSHIRO","perfecture_jp":"秋田県","jp_add_1":"山本郡八峰町","jp_add_2":"八森家の後"},"0182643":{"post_code":"0182643","prefecture":"AKITA KEN","city":"YAMAMOTO GUN HAPPO CHO","town":"HACHIMORI IENOKAMI","perfecture_jp":"秋田県","jp_add_1":"山本郡八峰町","jp_add_2":"八森家の上"},"0182622":{"post_code":"0182622","prefecture":"AKITA KEN","city":"YAMAMOTO GUN HAPPO CHO","town":"HACHIMORI IENOMUKAI","perfecture_jp":"秋田県","jp_add_1":"山本郡八峰町","jp_add_2":"八森家の向"},"0182615":{"post_code":"0182615","prefecture":"AKITA KEN","city":"YAMAMOTO GUN HAPPO CHO","town":"HACHIMORI ISEBACHIDAI","perfecture_jp":"秋田県","jp_add_1":"山本郡八峰町","jp_add_2":"八森伊勢鉢台"},"0182676":{"post_code":"0182676","prefecture":"AKITA KEN","city":"YAMAMOTO GUN HAPPO CHO","town":"HACHIMORI ISOMURA","perfecture_jp":"秋田県","jp_add_1":"山本郡八峰町","jp_add_2":"八森磯村"},"0182611":{"post_code":"0182611","prefecture":"AKITA KEN","city":"YAMAMOTO GUN HAPPO CHO","town":"HACHIMORI IWADATE","perfecture_jp":"秋田県","jp_add_1":"山本郡八峰町","jp_add_2":"八森岩館"},"0182605":{"post_code":"0182605","prefecture":"AKITA KEN","city":"YAMAMOTO GUN HAPPO CHO","town":"HACHIMORI IWADATETSUKANODAI","perfecture_jp":"秋田県","jp_add_1":"山本郡八峰町","jp_add_2":"八森岩館塚の台"},"0182608":{"post_code":"0182608","prefecture":"AKITA KEN","city":"YAMAMOTO GUN HAPPO CHO","town":"HACHIMORI IWADATEMUKAIDAI","perfecture_jp":"秋田県","jp_add_1":"山本郡八峰町","jp_add_2":"八森岩館向台"},"0182601":{"post_code":"0182601","prefecture":"AKITA KEN","city":"YAMAMOTO GUN HAPPO CHO","town":"HACHIMORI OTONOMIZU","perfecture_jp":"秋田県","jp_add_1":"山本郡八峰町","jp_add_2":"八森乙の水"},"0182675":{"post_code":"0182675","prefecture":"AKITA KEN","city":"YAMAMOTO GUN HAPPO CHO","town":"HACHIMORI KAGOTA","perfecture_jp":"秋田県","jp_add_1":"山本郡八峰町","jp_add_2":"八森篭田"},"0182609":{"post_code":"0182609","prefecture":"AKITA KEN","city":"YAMAMOTO GUN HAPPO CHO","town":"HACHIMORI KADONOSAWA","perfecture_jp":"秋田県","jp_add_1":"山本郡八峰町","jp_add_2":"八森門の沢"},"0182647":{"post_code":"0182647","prefecture":"AKITA KEN","city":"YAMAMOTO GUN HAPPO CHO","town":"HACHIMORI KANORA","perfecture_jp":"秋田県","jp_add_1":"山本郡八峰町","jp_add_2":"八森鹿の浦"},"0182606":{"post_code":"0182606","prefecture":"AKITA KEN","city":"YAMAMOTO GUN HAPPO CHO","town":"HACHIMORI KAMANOE","perfecture_jp":"秋田県","jp_add_1":"山本郡八峰町","jp_add_2":"八森釜の上"},"0182674":{"post_code":"0182674","prefecture":"AKITA KEN","city":"YAMAMOTO GUN HAPPO CHO","town":"HACHIMORI KAMIIEUSHIRO","perfecture_jp":"秋田県","jp_add_1":"山本郡八峰町","jp_add_2":"八森上家後"},"0182636":{"post_code":"0182636","prefecture":"AKITA KEN","city":"YAMAMOTO GUN HAPPO CHO","town":"HACHIMORI KAMIKAJISUKEDAI","perfecture_jp":"秋田県","jp_add_1":"山本郡八峰町","jp_add_2":"八森上嘉治助台"},"0182618":{"post_code":"0182618","prefecture":"AKITA KEN","city":"YAMAMOTO GUN HAPPO CHO","town":"HACHIMORI KIDONOSAWA","perfecture_jp":"秋田県","jp_add_1":"山本郡八峰町","jp_add_2":"八森木戸の沢"},"0182653":{"post_code":"0182653","prefecture":"AKITA KEN","city":"YAMAMOTO GUN HAPPO CHO","town":"HACHIMORI KURANOSAWA","perfecture_jp":"秋田県","jp_add_1":"山本郡八峰町","jp_add_2":"八森倉の沢"},"0182614":{"post_code":"0182614","prefecture":"AKITA KEN","city":"YAMAMOTO GUN HAPPO CHO","town":"HACHIMORI KOIRIKAWAIENOKAMI","perfecture_jp":"秋田県","jp_add_1":"山本郡八峰町","jp_add_2":"八森小入川家の上"},"0182613":{"post_code":"0182613","prefecture":"AKITA KEN","city":"YAMAMOTO GUN HAPPO CHO","town":"HACHIMORI KOZAN","perfecture_jp":"秋田県","jp_add_1":"山本郡八峰町","jp_add_2":"八森鉱山"},"0182617":{"post_code":"0182617","prefecture":"AKITA KEN","city":"YAMAMOTO GUN HAPPO CHO","town":"HACHIMORI GOSHONODAI","perfecture_jp":"秋田県","jp_add_1":"山本郡八峰町","jp_add_2":"八森御所の台"},"0182631":{"post_code":"0182631","prefecture":"AKITA KEN","city":"YAMAMOTO GUN HAPPO CHO","town":"HACHIMORI GORINDAIGEDAN","perfecture_jp":"秋田県","jp_add_1":"山本郡八峰町","jp_add_2":"八森五輪台下段"},"0182633":{"post_code":"0182633","prefecture":"AKITA KEN","city":"YAMAMOTO GUN HAPPO CHO","town":"HACHIMORI GORINDAIJODAN","perfecture_jp":"秋田県","jp_add_1":"山本郡八峰町","jp_add_2":"八森五輪台上段"},"0182632":{"post_code":"0182632","prefecture":"AKITA KEN","city":"YAMAMOTO GUN HAPPO CHO","town":"HACHIMORI SANJUGAMA","perfecture_jp":"秋田県","jp_add_1":"山本郡八峰町","jp_add_2":"八森三十釜"},"0182627":{"post_code":"0182627","prefecture":"AKITA KEN","city":"YAMAMOTO GUN HAPPO CHO","town":"HACHIMORI SANNAI","perfecture_jp":"秋田県","jp_add_1":"山本郡八峰町","jp_add_2":"八森山内"},"0182625":{"post_code":"0182625","prefecture":"AKITA KEN","city":"YAMAMOTO GUN HAPPO CHO","town":"HACHIMORI SANNAIDAI","perfecture_jp":"秋田県","jp_add_1":"山本郡八峰町","jp_add_2":"八森山内台"},"0182672":{"post_code":"0182672","prefecture":"AKITA KEN","city":"YAMAMOTO GUN HAPPO CHO","town":"HACHIMORI SHIMOIEUSHIRO","perfecture_jp":"秋田県","jp_add_1":"山本郡八峰町","jp_add_2":"八森下家後"},"0182635":{"post_code":"0182635","prefecture":"AKITA KEN","city":"YAMAMOTO GUN HAPPO CHO","town":"HACHIMORI SHIMOKAJISUKEDAI","perfecture_jp":"秋田県","jp_add_1":"山本郡八峰町","jp_add_2":"八森下嘉治助台"},"0182651":{"post_code":"0182651","prefecture":"AKITA KEN","city":"YAMAMOTO GUN HAPPO CHO","town":"HACHIMORI SHIMOTATESHITA","perfecture_jp":"秋田県","jp_add_1":"山本郡八峰町","jp_add_2":"八森下館下"},"0182662":{"post_code":"0182662","prefecture":"AKITA KEN","city":"YAMAMOTO GUN HAPPO CHO","town":"HACHIMORI SHINHAMADA","perfecture_jp":"秋田県","jp_add_1":"山本郡八峰町","jp_add_2":"八森新浜田"},"0182634":{"post_code":"0182634","prefecture":"AKITA KEN","city":"YAMAMOTO GUN HAPPO CHO","town":"HACHIMORI TAKINOE","perfecture_jp":"秋田県","jp_add_1":"山本郡八峰町","jp_add_2":"八森滝の上"},"0182623":{"post_code":"0182623","prefecture":"AKITA KEN","city":"YAMAMOTO GUN HAPPO CHO","town":"HACHIMORI TAKINOMA","perfecture_jp":"秋田県","jp_add_1":"山本郡八峰町","jp_add_2":"八森滝ノ間"},"0182628":{"post_code":"0182628","prefecture":"AKITA KEN","city":"YAMAMOTO GUN HAPPO CHO","town":"HACHIMORI TATEISHI","perfecture_jp":"秋田県","jp_add_1":"山本郡八峰町","jp_add_2":"八森立石"},"0182602":{"post_code":"0182602","prefecture":"AKITA KEN","city":"YAMAMOTO GUN HAPPO CHO","town":"HACHIMORI CHIGOKI","perfecture_jp":"秋田県","jp_add_1":"山本郡八峰町","jp_add_2":"八森チゴキ"},"0182621":{"post_code":"0182621","prefecture":"AKITA KEN","city":"YAMAMOTO GUN HAPPO CHO","town":"HACHIMORI CHANOSAWA","perfecture_jp":"秋田県","jp_add_1":"山本郡八峰町","jp_add_2":"八森茶の沢"},"0182646":{"post_code":"0182646","prefecture":"AKITA KEN","city":"YAMAMOTO GUN HAPPO CHO","town":"HACHIMORI TSUKANODAI","perfecture_jp":"秋田県","jp_add_1":"山本郡八峰町","jp_add_2":"八森塚の台"},"0182642":{"post_code":"0182642","prefecture":"AKITA KEN","city":"YAMAMOTO GUN HAPPO CHO","town":"HACHIMORI TSUBAKI","perfecture_jp":"秋田県","jp_add_1":"山本郡八峰町","jp_add_2":"八森椿"},"0182644":{"post_code":"0182644","prefecture":"AKITA KEN","city":"YAMAMOTO GUN HAPPO CHO","town":"HACHIMORI TSUBAKIDAI","perfecture_jp":"秋田県","jp_add_1":"山本郡八峰町","jp_add_2":"八森椿台"},"0182666":{"post_code":"0182666","prefecture":"AKITA KEN","city":"YAMAMOTO GUN HAPPO CHO","town":"HACHIMORI TERANOSHIRO","perfecture_jp":"秋田県","jp_add_1":"山本郡八峰町","jp_add_2":"八森寺の後"},"0182665":{"post_code":"0182665","prefecture":"AKITA KEN","city":"YAMAMOTO GUN HAPPO CHO","town":"HACHIMORI TERANOSHIROKAWAMUKAI","perfecture_jp":"秋田県","jp_add_1":"山本郡八峰町","jp_add_2":"八森寺の後川向"},"0182648":{"post_code":"0182648","prefecture":"AKITA KEN","city":"YAMAMOTO GUN HAPPO CHO","town":"HACHIMORI TOMARIDAI","perfecture_jp":"秋田県","jp_add_1":"山本郡八峰町","jp_add_2":"八森泊台"},"0182663":{"post_code":"0182663","prefecture":"AKITA KEN","city":"YAMAMOTO GUN HAPPO CHO","town":"HACHIMORI TOYONAGA","perfecture_jp":"秋田県","jp_add_1":"山本郡八峰町","jp_add_2":"八森樋長"},"0182673":{"post_code":"0182673","prefecture":"AKITA KEN","city":"YAMAMOTO GUN HAPPO CHO","town":"HACHIMORI NAKAIEUSHIRO","perfecture_jp":"秋田県","jp_add_1":"山本郡八峰町","jp_add_2":"八森中家後"},"0182619":{"post_code":"0182619","prefecture":"AKITA KEN","city":"YAMAMOTO GUN HAPPO CHO","town":"HACHIMORI NAGASAKA","perfecture_jp":"秋田県","jp_add_1":"山本郡八峰町","jp_add_2":"八森長坂"},"0182645":{"post_code":"0182645","prefecture":"AKITA KEN","city":"YAMAMOTO GUN HAPPO CHO","town":"HACHIMORI NAKAJIMA","perfecture_jp":"秋田県","jp_add_1":"山本郡八峰町","jp_add_2":"八森中嶋"},"0182641":{"post_code":"0182641","prefecture":"AKITA KEN","city":"YAMAMOTO GUN HAPPO CHO","town":"HACHIMORI NAKAHAMA","perfecture_jp":"秋田県","jp_add_1":"山本郡八峰町","jp_add_2":"八森中浜"},"0182612":{"post_code":"0182612","prefecture":"AKITA KEN","city":"YAMAMOTO GUN HAPPO CHO","town":"HACHIMORI NOKESORI","perfecture_jp":"秋田県","jp_add_1":"山本郡八峰町","jp_add_2":"八森ノケソリ"},"0182678":{"post_code":"0182678","prefecture":"AKITA KEN","city":"YAMAMOTO GUN HAPPO CHO","town":"HACHIMORI HACHIMORI","perfecture_jp":"秋田県","jp_add_1":"山本郡八峰町","jp_add_2":"八森八森"},"0182667":{"post_code":"0182667","prefecture":"AKITA KEN","city":"YAMAMOTO GUN HAPPO CHO","town":"HACHIMORI HACHIMORIIEUSHIRO","perfecture_jp":"秋田県","jp_add_1":"山本郡八峰町","jp_add_2":"八森八森家後"},"0182677":{"post_code":"0182677","prefecture":"AKITA KEN","city":"YAMAMOTO GUN HAPPO CHO","town":"HACHIMORI HACHIMORIUSHIRO","perfecture_jp":"秋田県","jp_add_1":"山本郡八峰町","jp_add_2":"八森八森後"},"0182661":{"post_code":"0182661","prefecture":"AKITA KEN","city":"YAMAMOTO GUN HAPPO CHO","town":"HACHIMORI HAMADA","perfecture_jp":"秋田県","jp_add_1":"山本郡八峰町","jp_add_2":"八森浜田"},"0182607":{"post_code":"0182607","prefecture":"AKITA KEN","city":"YAMAMOTO GUN HAPPO CHO","town":"HACHIMORI HAYASHINOSAWA","perfecture_jp":"秋田県","jp_add_1":"山本郡八峰町","jp_add_2":"八森林の沢"},"0182664":{"post_code":"0182664","prefecture":"AKITA KEN","city":"YAMAMOTO GUN HAPPO CHO","town":"HACHIMORI FURUYASHIKI","perfecture_jp":"秋田県","jp_add_1":"山本郡八峰町","jp_add_2":"八森古屋敷"},"0182616":{"post_code":"0182616","prefecture":"AKITA KEN","city":"YAMAMOTO GUN HAPPO CHO","town":"HACHIMORI MISAWA","perfecture_jp":"秋田県","jp_add_1":"山本郡八峰町","jp_add_2":"八森三沢"},"0182638":{"post_code":"0182638","prefecture":"AKITA KEN","city":"YAMAMOTO GUN HAPPO CHO","town":"HACHIMORI MORA","perfecture_jp":"秋田県","jp_add_1":"山本郡八峰町","jp_add_2":"八森茂浦"},"0182655":{"post_code":"0182655","prefecture":"AKITA KEN","city":"YAMAMOTO GUN HAPPO CHO","town":"HACHIMORI MOTODATE","perfecture_jp":"秋田県","jp_add_1":"山本郡八峰町","jp_add_2":"八森本館"},"0182652":{"post_code":"0182652","prefecture":"AKITA KEN","city":"YAMAMOTO GUN HAPPO CHO","town":"HACHIMORI MOTODATENAKADAI","perfecture_jp":"秋田県","jp_add_1":"山本郡八峰町","jp_add_2":"八森本館中台"},"0182603":{"post_code":"0182603","prefecture":"AKITA KEN","city":"YAMAMOTO GUN HAPPO CHO","town":"HACHIMORI MONOMI","perfecture_jp":"秋田県","jp_add_1":"山本郡八峰町","jp_add_2":"八森物見"},"0182654":{"post_code":"0182654","prefecture":"AKITA KEN","city":"YAMAMOTO GUN HAPPO CHO","town":"HACHIMORI MOROSAWAGUCHI","perfecture_jp":"秋田県","jp_add_1":"山本郡八峰町","jp_add_2":"八森諸沢口"},"0182656":{"post_code":"0182656","prefecture":"AKITA KEN","city":"YAMAMOTO GUN HAPPO CHO","town":"HACHIMORI MOROSAWASHIMOWAKI","perfecture_jp":"秋田県","jp_add_1":"山本郡八峰町","jp_add_2":"八森諸沢下脇"},"0182671":{"post_code":"0182671","prefecture":"AKITA KEN","city":"YAMAMOTO GUN HAPPO CHO","town":"HACHIMORI YUNOSHIRI","perfecture_jp":"秋田県","jp_add_1":"山本郡八峰町","jp_add_2":"八森湯の尻"},"0182626":{"post_code":"0182626","prefecture":"AKITA KEN","city":"YAMAMOTO GUN HAPPO CHO","town":"HACHIMORI YOKOMA","perfecture_jp":"秋田県","jp_add_1":"山本郡八峰町","jp_add_2":"八森横間"},"0182624":{"post_code":"0182624","prefecture":"AKITA KEN","city":"YAMAMOTO GUN HAPPO CHO","town":"HACHIMORI YOKOMADAI","perfecture_jp":"秋田県","jp_add_1":"山本郡八峰町","jp_add_2":"八森横間台"},"0182604":{"post_code":"0182604","prefecture":"AKITA KEN","city":"YAMAMOTO GUN HAPPO CHO","town":"HACHIMORI WADAOMOTE","perfecture_jp":"秋田県","jp_add_1":"山本郡八峰町","jp_add_2":"八森和田表"},"0182504":{"post_code":"0182504","prefecture":"AKITA KEN","city":"YAMAMOTO GUN HAPPO CHO","town":"MINEHAMA ISHIKAWA","perfecture_jp":"秋田県","jp_add_1":"山本郡八峰町","jp_add_2":"峰浜石川"},"0182505":{"post_code":"0182505","prefecture":"AKITA KEN","city":"YAMAMOTO GUN HAPPO CHO","town":"MINEHAMA UCHIARAMAKI","perfecture_jp":"秋田県","jp_add_1":"山本郡八峰町","jp_add_2":"峰浜内荒巻"},"0182511":{"post_code":"0182511","prefecture":"AKITA KEN","city":"YAMAMOTO GUN HAPPO CHO","town":"MINEHAMA KOYANO","perfecture_jp":"秋田県","jp_add_1":"山本郡八峰町","jp_add_2":"峰浜高野々"},"0182506":{"post_code":"0182506","prefecture":"AKITA KEN","city":"YAMAMOTO GUN HAPPO CHO","town":"MINEHAMA KOTEHAGI","perfecture_jp":"秋田県","jp_add_1":"山本郡八峰町","jp_add_2":"峰浜小手萩"},"0182508":{"post_code":"0182508","prefecture":"AKITA KEN","city":"YAMAMOTO GUN HAPPO CHO","town":"MINEHAMA SAKAGATA","perfecture_jp":"秋田県","jp_add_1":"山本郡八峰町","jp_add_2":"峰浜坂形"},"0182507":{"post_code":"0182507","prefecture":"AKITA KEN","city":"YAMAMOTO GUN HAPPO CHO","town":"MINEHAMA TANAKA","perfecture_jp":"秋田県","jp_add_1":"山本郡八峰町","jp_add_2":"峰浜田中"},"0182509":{"post_code":"0182509","prefecture":"AKITA KEN","city":"YAMAMOTO GUN HAPPO CHO","town":"MINEHAMA NUMATA","perfecture_jp":"秋田県","jp_add_1":"山本郡八峰町","jp_add_2":"峰浜沼田"},"0182512":{"post_code":"0182512","prefecture":"AKITA KEN","city":"YAMAMOTO GUN HAPPO CHO","town":"MINEHAMA HATAYA","perfecture_jp":"秋田県","jp_add_1":"山本郡八峰町","jp_add_2":"峰浜畑谷"},"0182503":{"post_code":"0182503","prefecture":"AKITA KEN","city":"YAMAMOTO GUN HAPPO CHO","town":"MINEHAMA HANAWA","perfecture_jp":"秋田県","jp_add_1":"山本郡八峰町","jp_add_2":"峰浜塙"},"0182501":{"post_code":"0182501","prefecture":"AKITA KEN","city":"YAMAMOTO GUN HAPPO CHO","town":"MINEHAMA MIZUSAWA","perfecture_jp":"秋田県","jp_add_1":"山本郡八峰町","jp_add_2":"峰浜水沢"},"0182502":{"post_code":"0182502","prefecture":"AKITA KEN","city":"YAMAMOTO GUN HAPPO CHO","town":"MINEHAMA MENAGATA","perfecture_jp":"秋田県","jp_add_1":"山本郡八峰町","jp_add_2":"峰浜目名潟"},"0181700":{"post_code":"0181700","prefecture":"AKITA KEN","city":"MINAMIAKITA GUN GOJOME MACHI","town":"IKANIKEISAIGANAIBAAI","perfecture_jp":"秋田県","jp_add_1":"南秋田郡五城目町","jp_add_2":""},"0181704":{"post_code":"0181704","prefecture":"AKITA KEN","city":"MINAMIAKITA GUN GOJOME MACHI","town":"ISHIDAROKKASONSEKIZOI","perfecture_jp":"秋田県","jp_add_1":"南秋田郡五城目町","jp_add_2":"石田六ケ村堰添"},"0181743":{"post_code":"0181743","prefecture":"AKITA KEN","city":"MINAMIAKITA GUN GOJOME MACHI","town":"INARIMAE","perfecture_jp":"秋田県","jp_add_1":"南秋田郡五城目町","jp_add_2":"稲荷前"},"0181851":{"post_code":"0181851","prefecture":"AKITA KEN","city":"MINAMIAKITA GUN GOJOME MACHI","town":"UCHIKAWAASAMINAI","perfecture_jp":"秋田県","jp_add_1":"南秋田郡五城目町","jp_add_2":"内川浅見内"},"0181857":{"post_code":"0181857","prefecture":"AKITA KEN","city":"MINAMIAKITA GUN GOJOME MACHI","town":"UCHIKAWAOGURA","perfecture_jp":"秋田県","jp_add_1":"南秋田郡五城目町","jp_add_2":"内川小倉"},"0181854":{"post_code":"0181854","prefecture":"AKITA KEN","city":"MINAMIAKITA GUN GOJOME MACHI","town":"UCHIKAWAKUROTSUCHI","perfecture_jp":"秋田県","jp_add_1":"南秋田郡五城目町","jp_add_2":"内川黒土"},"0181852":{"post_code":"0181852","prefecture":"AKITA KEN","city":"MINAMIAKITA GUN GOJOME MACHI","town":"UCHIKAWAYUNOMATA","perfecture_jp":"秋田県","jp_add_1":"南秋田郡五城目町","jp_add_2":"内川湯ノ又"},"0181722":{"post_code":"0181722","prefecture":"AKITA KEN","city":"MINAMIAKITA GUN GOJOME MACHI","town":"UNOKI","perfecture_jp":"秋田県","jp_add_1":"南秋田郡五城目町","jp_add_2":"鵜ノ木"},"0181741":{"post_code":"0181741","prefecture":"AKITA KEN","city":"MINAMIAKITA GUN GOJOME MACHI","town":"URAOMACHI","perfecture_jp":"秋田県","jp_add_1":"南秋田郡五城目町","jp_add_2":"浦大町"},"0181742":{"post_code":"0181742","prefecture":"AKITA KEN","city":"MINAMIAKITA GUN GOJOME MACHI","town":"URAYOKOMACHI","perfecture_jp":"秋田県","jp_add_1":"南秋田郡五城目町","jp_add_2":"浦横町"},"0181705":{"post_code":"0181705","prefecture":"AKITA KEN","city":"MINAMIAKITA GUN GOJOME MACHI","town":"UWAMACHI","perfecture_jp":"秋田県","jp_add_1":"南秋田郡五城目町","jp_add_2":"上町"},"0181731":{"post_code":"0181731","prefecture":"AKITA KEN","city":"MINAMIAKITA GUN GOJOME MACHI","town":"OKAWAISHIZAKI","perfecture_jp":"秋田県","jp_add_1":"南秋田郡五城目町","jp_add_2":"大川石崎"},"0181734":{"post_code":"0181734","prefecture":"AKITA KEN","city":"MINAMIAKITA GUN GOJOME MACHI","town":"OKAWAOKAWA","perfecture_jp":"秋田県","jp_add_1":"南秋田郡五城目町","jp_add_2":"大川大川"},"0181735":{"post_code":"0181735","prefecture":"AKITA KEN","city":"MINAMIAKITA GUN GOJOME MACHI","town":"OKAWASHIMOTOYOGUCHI","perfecture_jp":"秋田県","jp_add_1":"南秋田郡五城目町","jp_add_2":"大川下樋口"},"0181732":{"post_code":"0181732","prefecture":"AKITA KEN","city":"MINAMIAKITA GUN GOJOME MACHI","town":"OKAWANISHINO","perfecture_jp":"秋田県","jp_add_1":"南秋田郡五城目町","jp_add_2":"大川西野"},"0181733":{"post_code":"0181733","prefecture":"AKITA KEN","city":"MINAMIAKITA GUN GOJOME MACHI","town":"OKAWAYACHINAKA","perfecture_jp":"秋田県","jp_add_1":"南秋田郡五城目町","jp_add_2":"大川谷地中"},"0181723":{"post_code":"0181723","prefecture":"AKITA KEN","city":"MINAMIAKITA GUN GOJOME MACHI","town":"KAMIHIGUCHI","perfecture_jp":"秋田県","jp_add_1":"南秋田郡五城目町","jp_add_2":"上樋口"},"0181745":{"post_code":"0181745","prefecture":"AKITA KEN","city":"MINAMIAKITA GUN GOJOME MACHI","town":"KAWASAKI","perfecture_jp":"秋田県","jp_add_1":"南秋田郡五城目町","jp_add_2":"川崎"},"0181712":{"post_code":"0181712","prefecture":"AKITA KEN","city":"MINAMIAKITA GUN GOJOME MACHI","town":"KUBO","perfecture_jp":"秋田県","jp_add_1":"南秋田郡五城目町","jp_add_2":"久保"},"0181746":{"post_code":"0181746","prefecture":"AKITA KEN","city":"MINAMIAKITA GUN GOJOME MACHI","town":"KOIKE","perfecture_jp":"秋田県","jp_add_1":"南秋田郡五城目町","jp_add_2":"小池"},"0181706":{"post_code":"0181706","prefecture":"AKITA KEN","city":"MINAMIAKITA GUN GOJOME MACHI","town":"SHITAMACHI","perfecture_jp":"秋田県","jp_add_1":"南秋田郡五城目町","jp_add_2":"下タ町"},"0181744":{"post_code":"0181744","prefecture":"AKITA KEN","city":"MINAMIAKITA GUN GOJOME MACHI","town":"SHIMMEIMAE","perfecture_jp":"秋田県","jp_add_1":"南秋田郡五城目町","jp_add_2":"神明前"},"0181702":{"post_code":"0181702","prefecture":"AKITA KEN","city":"MINAMIAKITA GUN GOJOME MACHI","town":"SUGIGASAKI","perfecture_jp":"秋田県","jp_add_1":"南秋田郡五城目町","jp_add_2":"杉ケ崎"},"0181711":{"post_code":"0181711","prefecture":"AKITA KEN","city":"MINAMIAKITA GUN GOJOME MACHI","town":"TAKASAKI","perfecture_jp":"秋田県","jp_add_1":"南秋田郡五城目町","jp_add_2":"高崎"},"0181714":{"post_code":"0181714","prefecture":"AKITA KEN","city":"MINAMIAKITA GUN GOJOME MACHI","town":"TATEGOSHI","perfecture_jp":"秋田県","jp_add_1":"南秋田郡五城目町","jp_add_2":"舘越"},"0181701":{"post_code":"0181701","prefecture":"AKITA KEN","city":"MINAMIAKITA GUN GOJOME MACHI","town":"TOHINZAWA","perfecture_jp":"秋田県","jp_add_1":"南秋田郡五城目町","jp_add_2":"兎品沢"},"0181721":{"post_code":"0181721","prefecture":"AKITA KEN","city":"MINAMIAKITA GUN GOJOME MACHI","town":"NANAKURA","perfecture_jp":"秋田県","jp_add_1":"南秋田郡五城目町","jp_add_2":"七倉"},"0181725":{"post_code":"0181725","prefecture":"AKITA KEN","city":"MINAMIAKITA GUN GOJOME MACHI","town":"NISHIISONOME","perfecture_jp":"秋田県","jp_add_1":"南秋田郡五城目町","jp_add_2":"西磯ノ目"},"0181747":{"post_code":"0181747","prefecture":"AKITA KEN","city":"MINAMIAKITA GUN GOJOME MACHI","town":"NODA","perfecture_jp":"秋田県","jp_add_1":"南秋田郡五城目町","jp_add_2":"野田"},"0181703":{"post_code":"0181703","prefecture":"AKITA KEN","city":"MINAMIAKITA GUN GOJOME MACHI","town":"HAGUROMAE","perfecture_jp":"秋田県","jp_add_1":"南秋田郡五城目町","jp_add_2":"羽黒前"},"0181713":{"post_code":"0181713","prefecture":"AKITA KEN","city":"MINAMIAKITA GUN GOJOME MACHI","town":"BABAME","perfecture_jp":"秋田県","jp_add_1":"南秋田郡五城目町","jp_add_2":"馬場目"},"0181724":{"post_code":"0181724","prefecture":"AKITA KEN","city":"MINAMIAKITA GUN GOJOME MACHI","town":"HIGASHIISONOME","perfecture_jp":"秋田県","jp_add_1":"南秋田郡五城目町","jp_add_2":"東磯ノ目"},"0181856":{"post_code":"0181856","prefecture":"AKITA KEN","city":"MINAMIAKITA GUN GOJOME MACHI","town":"FUTSUNAISHIMOSANNAI","perfecture_jp":"秋田県","jp_add_1":"南秋田郡五城目町","jp_add_2":"富津内下山内"},"0181855":{"post_code":"0181855","prefecture":"AKITA KEN","city":"MINAMIAKITA GUN GOJOME MACHI","town":"FUTSUNAITOMITA","perfecture_jp":"秋田県","jp_add_1":"南秋田郡五城目町","jp_add_2":"富津内富田"},"0181853":{"post_code":"0181853","prefecture":"AKITA KEN","city":"MINAMIAKITA GUN GOJOME MACHI","town":"FUTSUNAINAKATSUMATA","perfecture_jp":"秋田県","jp_add_1":"南秋田郡五城目町","jp_add_2":"富津内中津又"},"0181600":{"post_code":"0181600","prefecture":"AKITA KEN","city":"MINAMIAKITA GUN HACHIROGATA MACHI","town":"IKANIKEISAIGANAIBAAI","perfecture_jp":"秋田県","jp_add_1":"南秋田郡八郎潟町","jp_add_2":""},"0181621":{"post_code":"0181621","prefecture":"AKITA KEN","city":"MINAMIAKITA GUN HACHIROGATA MACHI","town":"IENOSHIRO","perfecture_jp":"秋田県","jp_add_1":"南秋田郡八郎潟町","jp_add_2":"家の後"},"0181617":{"post_code":"0181617","prefecture":"AKITA KEN","city":"MINAMIAKITA GUN HACHIROGATA MACHI","town":"IKARI","perfecture_jp":"秋田県","jp_add_1":"南秋田郡八郎潟町","jp_add_2":"イカリ"},"0181602":{"post_code":"0181602","prefecture":"AKITA KEN","city":"MINAMIAKITA GUN HACHIROGATA MACHI","town":"URAOMACHI","perfecture_jp":"秋田県","jp_add_1":"南秋田郡八郎潟町","jp_add_2":"浦大町"},"0181616":{"post_code":"0181616","prefecture":"AKITA KEN","city":"MINAMIAKITA GUN HACHIROGATA MACHI","town":"OMICHI","perfecture_jp":"秋田県","jp_add_1":"南秋田郡八郎潟町","jp_add_2":"大道"},"0181627":{"post_code":"0181627","prefecture":"AKITA KEN","city":"MINAMIAKITA GUN HACHIROGATA MACHI","town":"OSHIKIRI","perfecture_jp":"秋田県","jp_add_1":"南秋田郡八郎潟町","jp_add_2":"押切"},"0181615":{"post_code":"0181615","prefecture":"AKITA KEN","city":"MINAMIAKITA GUN HACHIROGATA MACHI","town":"GAMANUMA","perfecture_jp":"秋田県","jp_add_1":"南秋田郡八郎潟町","jp_add_2":"蒲沼"},"0181611":{"post_code":"0181611","prefecture":"AKITA KEN","city":"MINAMIAKITA GUN HACHIROGATA MACHI","town":"KAMIOKIYACHI","perfecture_jp":"秋田県","jp_add_1":"南秋田郡八郎潟町","jp_add_2":"上沖谷地"},"0181613":{"post_code":"0181613","prefecture":"AKITA KEN","city":"MINAMIAKITA GUN HACHIROGATA MACHI","town":"KAMIHIRUNE","perfecture_jp":"秋田県","jp_add_1":"南秋田郡八郎潟町","jp_add_2":"上昼根"},"0181618":{"post_code":"0181618","prefecture":"AKITA KEN","city":"MINAMIAKITA GUN HACHIROGATA MACHI","town":"KAWAGUCHI","perfecture_jp":"秋田県","jp_add_1":"南秋田郡八郎潟町","jp_add_2":"川口"},"0181605":{"post_code":"0181605","prefecture":"AKITA KEN","city":"MINAMIAKITA GUN HACHIROGATA MACHI","town":"KAWASAKI","perfecture_jp":"秋田県","jp_add_1":"南秋田郡八郎潟町","jp_add_2":"川崎"},"0181625":{"post_code":"0181625","prefecture":"AKITA KEN","city":"MINAMIAKITA GUN HACHIROGATA MACHI","town":"KUBOMI","perfecture_jp":"秋田県","jp_add_1":"南秋田郡八郎潟町","jp_add_2":"久保見"},"0181603":{"post_code":"0181603","prefecture":"AKITA KEN","city":"MINAMIAKITA GUN HACHIROGATA MACHI","town":"KOIKE","perfecture_jp":"秋田県","jp_add_1":"南秋田郡八郎潟町","jp_add_2":"小池"},"0181628":{"post_code":"0181628","prefecture":"AKITA KEN","city":"MINAMIAKITA GUN HACHIROGATA MACHI","town":"SHIMANOCHI","perfecture_jp":"秋田県","jp_add_1":"南秋田郡八郎潟町","jp_add_2":"島ノ内"},"0181623":{"post_code":"0181623","prefecture":"AKITA KEN","city":"MINAMIAKITA GUN HACHIROGATA MACHI","town":"SHIMOKAWARA","perfecture_jp":"秋田県","jp_add_1":"南秋田郡八郎潟町","jp_add_2":"下川原"},"0181635":{"post_code":"0181635","prefecture":"AKITA KEN","city":"MINAMIAKITA GUN HACHIROGATA MACHI","town":"SUSAKI","perfecture_jp":"秋田県","jp_add_1":"南秋田郡八郎潟町","jp_add_2":"洲先"},"0181624":{"post_code":"0181624","prefecture":"AKITA KEN","city":"MINAMIAKITA GUN HACHIROGATA MACHI","town":"NAKAKUBO","perfecture_jp":"秋田県","jp_add_1":"南秋田郡八郎潟町","jp_add_2":"中久保"},"0181629":{"post_code":"0181629","prefecture":"AKITA KEN","city":"MINAMIAKITA GUN HACHIROGATA MACHI","town":"NAKAJIMA","perfecture_jp":"秋田県","jp_add_1":"南秋田郡八郎潟町","jp_add_2":"中嶋"},"0181614":{"post_code":"0181614","prefecture":"AKITA KEN","city":"MINAMIAKITA GUN HACHIROGATA MACHI","town":"NAKADA","perfecture_jp":"秋田県","jp_add_1":"南秋田郡八郎潟町","jp_add_2":"中田"},"0181633":{"post_code":"0181633","prefecture":"AKITA KEN","city":"MINAMIAKITA GUN HACHIROGATA MACHI","town":"NAKAYACHI","perfecture_jp":"秋田県","jp_add_1":"南秋田郡八郎潟町","jp_add_2":"中谷地"},"0181632":{"post_code":"0181632","prefecture":"AKITA KEN","city":"MINAMIAKITA GUN HACHIROGATA MACHI","town":"NAGANUMA","perfecture_jp":"秋田県","jp_add_1":"南秋田郡八郎潟町","jp_add_2":"長沼"},"0181634":{"post_code":"0181634","prefecture":"AKITA KEN","city":"MINAMIAKITA GUN HACHIROGATA MACHI","town":"NOKISHIMA","perfecture_jp":"秋田県","jp_add_1":"南秋田郡八郎潟町","jp_add_2":"軒嶋"},"0181604":{"post_code":"0181604","prefecture":"AKITA KEN","city":"MINAMIAKITA GUN HACHIROGATA MACHI","town":"NODA","perfecture_jp":"秋田県","jp_add_1":"南秋田郡八郎潟町","jp_add_2":"野田"},"0181631":{"post_code":"0181631","prefecture":"AKITA KEN","city":"MINAMIAKITA GUN HACHIROGATA MACHI","town":"HACHIMANUMA","perfecture_jp":"秋田県","jp_add_1":"南秋田郡八郎潟町","jp_add_2":"八幡沼"},"0181622":{"post_code":"0181622","prefecture":"AKITA KEN","city":"MINAMIAKITA GUN HACHIROGATA MACHI","town":"HITOICHI","perfecture_jp":"秋田県","jp_add_1":"南秋田郡八郎潟町","jp_add_2":"一日市"},"0181612":{"post_code":"0181612","prefecture":"AKITA KEN","city":"MINAMIAKITA GUN HACHIROGATA MACHI","town":"HIRUNESHITA","perfecture_jp":"秋田県","jp_add_1":"南秋田郡八郎潟町","jp_add_2":"昼根下"},"0181626":{"post_code":"0181626","prefecture":"AKITA KEN","city":"MINAMIAKITA GUN HACHIROGATA MACHI","town":"HOSOKAWA","perfecture_jp":"秋田県","jp_add_1":"南秋田郡八郎潟町","jp_add_2":"細川"},"0181601":{"post_code":"0181601","prefecture":"AKITA KEN","city":"MINAMIAKITA GUN HACHIROGATA MACHI","town":"MASAKA","perfecture_jp":"秋田県","jp_add_1":"南秋田郡八郎潟町","jp_add_2":"真坂"},"0181606":{"post_code":"0181606","prefecture":"AKITA KEN","city":"MINAMIAKITA GUN HACHIROGATA MACHI","town":"YASHAFUKURO","perfecture_jp":"秋田県","jp_add_1":"南秋田郡八郎潟町","jp_add_2":"夜叉袋"},"0181500":{"post_code":"0181500","prefecture":"AKITA KEN","city":"MINAMIAKITA GUN IKAWA MACHI","town":"IKANIKEISAIGANAIBAAI","perfecture_jp":"秋田県","jp_add_1":"南秋田郡井川町","jp_add_2":""},"0181525":{"post_code":"0181525","prefecture":"AKITA KEN","city":"MINAMIAKITA GUN IKAWA MACHI","town":"AKASAWA","perfecture_jp":"秋田県","jp_add_1":"南秋田郡井川町","jp_add_2":"赤沢"},"0181527":{"post_code":"0181527","prefecture":"AKITA KEN","city":"MINAMIAKITA GUN IKAWA MACHI","town":"INAI","perfecture_jp":"秋田県","jp_add_1":"南秋田郡井川町","jp_add_2":"井内"},"0181511":{"post_code":"0181511","prefecture":"AKITA KEN","city":"MINAMIAKITA GUN IKAWA MACHI","town":"IMADO","perfecture_jp":"秋田県","jp_add_1":"南秋田郡井川町","jp_add_2":"今戸"},"0181514":{"post_code":"0181514","prefecture":"AKITA KEN","city":"MINAMIAKITA GUN IKAWA MACHI","town":"UJIKI","perfecture_jp":"秋田県","jp_add_1":"南秋田郡井川町","jp_add_2":"宇治木"},"0181524":{"post_code":"0181524","prefecture":"AKITA KEN","city":"MINAMIAKITA GUN IKAWA MACHI","town":"OMUGI","perfecture_jp":"秋田県","jp_add_1":"南秋田郡井川町","jp_add_2":"大麦"},"0181512":{"post_code":"0181512","prefecture":"AKITA KEN","city":"MINAMIAKITA GUN IKAWA MACHI","town":"KITAKAWASHIRI","perfecture_jp":"秋田県","jp_add_1":"南秋田郡井川町","jp_add_2":"北川尻"},"0181513":{"post_code":"0181513","prefecture":"AKITA KEN","city":"MINAMIAKITA GUN IKAWA MACHI","town":"KUROTSUBO","perfecture_jp":"秋田県","jp_add_1":"南秋田郡井川町","jp_add_2":"黒坪"},"0181515":{"post_code":"0181515","prefecture":"AKITA KEN","city":"MINAMIAKITA GUN IKAWA MACHI","town":"KODAKEHANA","perfecture_jp":"秋田県","jp_add_1":"南秋田郡井川町","jp_add_2":"小竹花"},"0181523":{"post_code":"0181523","prefecture":"AKITA KEN","city":"MINAMIAKITA GUN IKAWA MACHI","town":"SAKAMOTO","perfecture_jp":"秋田県","jp_add_1":"南秋田郡井川町","jp_add_2":"坂本"},"0181526":{"post_code":"0181526","prefecture":"AKITA KEN","city":"MINAMIAKITA GUN IKAWA MACHI","town":"TERASAWA","perfecture_jp":"秋田県","jp_add_1":"南秋田郡井川町","jp_add_2":"寺沢"},"0181528":{"post_code":"0181528","prefecture":"AKITA KEN","city":"MINAMIAKITA GUN IKAWA MACHI","town":"NAMOMIDA","perfecture_jp":"秋田県","jp_add_1":"南秋田郡井川町","jp_add_2":"葹田"},"0181521":{"post_code":"0181521","prefecture":"AKITA KEN","city":"MINAMIAKITA GUN IKAWA MACHI","town":"HATTAOKURA","perfecture_jp":"秋田県","jp_add_1":"南秋田郡井川町","jp_add_2":"八田大倉"},"0181516":{"post_code":"0181516","prefecture":"AKITA KEN","city":"MINAMIAKITA GUN IKAWA MACHI","town":"HAMAIKAWA","perfecture_jp":"秋田県","jp_add_1":"南秋田郡井川町","jp_add_2":"浜井川"},"0181522":{"post_code":"0181522","prefecture":"AKITA KEN","city":"MINAMIAKITA GUN IKAWA MACHI","town":"HONOKO","perfecture_jp":"秋田県","jp_add_1":"南秋田郡井川町","jp_add_2":"保野子"}}